store_name,store_number,address,address2,city,state,zip_code,country,phone_number,latitude,longitude,store_hours,store_type,other_fields,coming_soon
Econo Lodge Inn and Suites,,3217 South 79th E Avenue 32nd St Memorial Dr,,Tulsa,OK,74145,United States,918-624-2800,,,,,,
Econo Lodge Downtown,,311 E Main St,,Vernal,UT,84078,United States,435-789-2000,,,,,,
Econo Lodge,,135 N. 7th St,,Zanesville,OH,43701,United States,740-452-4511,,,,,,
Econo Lodge,,5431 1/2 Seventy Six Drive,,Youngstown,OH,44515,United States,330-270-2865,,,,,,
Econo Lodge,,50 E Wilson Bridge Rd,,Worthington,OH,43085,United States,614-888-3666,,,,,,
Econo Lodge,,2137 Lincoln Way East,,Wooster,OH,44691-3817,United States,330-264-8883,,,,,,
Econo Lodge,,4353 Northfield Rd,,Warrensville Heights,OH,44128,United States,216-475-4070,,,,,,
Econo Lodge Inn and Suites,,4258 Youngstown Road,,Warren,OH,44484,United States,330-369-4100,,,,,,
Econo Lodge,,9789 SR 14,,Streetsboro,OH,44241,United States,330-626-5511,,,,,,
Econo Lodge,,2627 Hwy 281 South,,Jamestown,ND,58401,United States,701-952-9800,,,,,,
Econo Lodge North,,1904 Cleveland Rd,,Sandusky,OH,44870,United States,419-627-8000,,,,,,
Econo Lodge West,,3825 9th Ave S W,,Fargo,ND,58103,United States,701-282-9596,,,,,,
Econo Lodge,,900 N 43rd St,,Grand Forks,ND,58203,United States,701-746-6666,,,,,,
Econo Lodge,,112 Parham Rd,,Henderson,NC,27536,United States,252-438-8511,,,,,,
Econo Lodge,,1255 State Route 10 East,,Whippany,NJ,7981,United States,973-539-8350,,,,,,
Econo Lodge,,998 West Landis Ave,,Vineland,NJ,08360-3420,United States,856-696-3030,,,,,,
Econo Lodge,,48 Freeman Road,,Williamsville,NY,14221,United States,716-634-2700,,,,,,
Econo Lodge,,1850 Easton Ave,,Somerset,NJ,8873,United States,732-469-5050,,,,,,
Econo Lodge,,1030 Arsenal St,,Watertown,NY,13601,United States,315-782-5500,,,,,,
Econo Lodge,,2365 White Mountain Highway,,West Ossipee,NH,3890,United States,603-301-1426,,,,,,
Econo Lodge,,304 Main Street,,Plymouth,NH,3264,United States,603-536-2330,,,,,,
Econo Lodge,,1635 North Elk,,Rock Springs,WY,82901,United States,307-382-4217,,,,,,
Econo Lodge,,1500 West Spruce Street,,Rawlins,WY,82301,United States,307-324-2905,,,,,,
Econo Lodge,,1370 McCue St,,Laramie,WY,82072,United States,307-745-8900,,,,,,
Econo Lodge,,70 Bear River Drive,,Evanston,WY,82930,United States,307-789-7510,,,,,,
Econo Lodge,,75 W Hancock St,,Manchester,NH,3102,United States,603-624-0111,,,,,,
Econo Lodge Inn and Suites,,381 U S Route 3,,Lincoln,NH,3251,United States,603-745-3661,,,,,,
Econo Lodge,,3400 E Tucumcari Blvd,,Tucumcari,NM,88401,United States,575-461-4194,,,,,,
Econo Lodge Inn and Suites,,713 California St N W,,Socorro,NM,87801,United States,575-835-1500,,,,,,
Econo Lodge,,1120 Hwy 180 E,,Silver City,NM,88061,United States,575-534-1111,,,,,,
Econo Lodge,,2295 Historic Rt 66,,Santa Rosa,NM,88435,United States,575-472-3494,,,,,,
Econo Lodge Inn and Suites,,3752 Cerrillos Road,,Santa Fe,NM,87507,United States,505-438-8049,,,,,,
Econo Lodge,,1408 South Main St,,Lordsburg,NM,88045,United States,575-542-3666,,,,,,
Econo Lodge,,2585 S Valley Dr,,Las Cruces,NM,88005,United States,575-527-2000,,,,,,
Econo Lodge,,619 N Marland Blvd,,Hobbs,NM,88240,United States,575-397-3591,,,,,,
Econo Lodge,,3101 W US 66,,Gallup,NM,87301,United States,505-722-3800,,,,,,
Econo Lodge,,715 Hwy 64 E,,Eagle Nest,NM,87718,United States,575-377-6813,,,,,,
Econo Lodge,,1400 E Mabry Drive,,Clovis,NM,88101,United States,575-763-3439,,,,,,
Econo Lodge,,3706 National Parks Hwy,,Carlsbad,NM,88221,United States,575-887-2861,,,,,,
Econo Lodge West,,5712 Iliff Rd N W,,Albuquerque,NM,87105,United States,505-836-0011,,,,,,
Econo Lodge Old Town,,2321 Central Ave NW,,Albuquerque,NM,87104,United States,505-243-8475,,,,,,
Econo Lodge Midtown,,2412 Carlisle Blvd N E,,Albuquerque,NM,87110,United States,505-880-0080,,,,,,
Econo Lodge East,,13211 Central Ave N E,,Albuquerque,NM,87123,United States,505-292-7600,,,,,,
Econo Lodge Downtown,,817 Central Ave N E,,Albuquerque,NM,87102,United States,505-243-1321,,,,,,
Econo Lodge,,2000 Niagara Falls Blvd,,Tonawanda,NY,14150,United States,716-694-6696,,,,,,
Econo Lodge Downtown,,454 James St,,Syracuse,NY,13203,United States,315-425-0015,,,,,,
Econo Lodge,,113 18 Rockaway Blvd,,South Ozone Park,NY,11420,United States,718-843-4300,,,,,,
Econo Lodge,,145 East Whitesboro Street at Erie Blvd,,Rome,NY,13440,United States,315-337-9400,,,,,,
Econo Lodge Inn and Suites,,528 Route 3,,Plattsburgh,NY,12901,United States,518-561-1500,,,,,,
Econo Lodge,,200 Robert Dann Drive,,Painted Post,NY,14870-9102,United States,607-962-4444,,,,,,
Econo Lodge Airport,,5396 South Bay Road,,North Syracuse,NY,13212,United States,315-454-4462,,,,,,
Econo Lodge at the Falls North,,5919 Niagara Falls Blvd,,Niagara Falls,NY,14304,United States,716-283-1100,,,,,,
Econo Lodge at the Falls,,200 Rainbow Boulevard amp 2nd,,Niagara Falls,NY,14303,United States,716-285-7316,,,,,,
Econo Lodge Times Square,,302 West 47th Street,,New York,NY,10036,United States,212-246-1991,,,,,,
Econo Lodge Near Stewart International Airport,,310 Windsor Hwy SR 32,,New Windsor,NY,12550,United States,845-561-6620,,,,,,
Econo Lodge,,530 Main St,,New Paltz,NY,12561,United States,845-255-6200,,,,,,
Econo Lodge,,15054 State Highway 37,,Massena,NY,13662,United States,315-764-0246,,,,,,
Econo Lodge,,227 W. Main St.,,Malone,NY,12953,United States,518-483-0500,,,,,,
Econo Lodge,,5828 Cascade Road,,Lake Placid,NY,12946,United States,518-523-2817,,,,,,
Econo Lodge Downtown,,439 Canada St,,Lake George,NY,12845,United States,518-668-2689,,,,,,
Econo Lodge,,2303 N Triphammer Rd,,Ithaca,NY,14850,United States,607-257-1400,,,,,,
Econo Lodge,,7462 Seneca Rd N,,Hornell,NY,14843,United States,607-324-0800,,,,,,
Econo Lodge,,429 Duffy Ave,,Hicksville,NY,11801,United States,516-433-3900,,,,,,
Econo Lodge,,543 Aviation Rd,,Glens Falls,NY,12804,United States,518-793-3700,,,,,,
Econo Lodge,,871 Rt 64,,Elmira,NY,14903-9785,United States,607-739-2000,,,,,,
Econo Lodge,,3400 Erie Boulevard East,,Dewitt,NY,13214,United States,315-446-3300,,,,,,
Econo Lodge,,10 Church Street,,Cortland,NY,13045,United States,607-756-2856,,,,,,
Econo Lodge,,1 North Branch Road,,Cuba,NY,14727,United States,585-968-1992,,,,,,
Econo Lodge Darien Lakes,,8493 Alleghany Road,,Corfu,NY,14036,United States,585-599-4681,,,,,,
Econo Lodge South,,4344 Milestrip Rd,,Buffalo,NY,14219,United States,716-825-7530,,,,,,
Econo Lodge,,6575 4th Section Rd,,Brockport,NY,14420,United States,585-637-3157,,,,,,
Econo Lodge Inn and Suites,,690 Old Front Street,,Binghamton,NY,13905,United States,607-724-1341,,,,,,
Econo Lodge Colonie Center Mall,,1630 Central Avenue,,Albany,NY,12205,United States,518-456-0222,,,,,,
Econo Lodge,,448 Route 206 South,,Newton,NJ,7860,United States,973-383-3922,,,,,,
Econo Lodge,,21 McArthur Blvd,,Somers Point,NJ,8244,United States,609-927-3220,,,,,,
Econo Lodge,,611 Fellowship Road,,Mount Laurel,NJ,8054,United States,856-722-1919,,,,,,
Econo Lodge,,750 Tonnelle Ave,,Jersey City,NJ,7307,United States,201-420-9040,,,,,,
Econo Lodge,,308 South White Horse Pike,,Hammonton,NJ,8037,United States,609-561-5700,,,,,,
Econo Lodge,,2143 Hudson Terrace,,Fort Lee,NJ,7024,United States,201-944-5332,,,,,,
Econo Lodge,,853 Spring St US 1 amp 9,,Elizabeth,NJ,7201,United States,908-353-1365,,,,,,
Econo Lodge,,6641 Black Horse Pike,,Egg Harbor Township,NJ,8234,United States,609-484-8500,,,,,,
Econo Lodge Meadowlands,,395 Washington Ave,,Carlstadt,NJ,7072,United States,201-935-4600,,,,,,
Econo Lodge,,102 Tuckahoe Rd US 40 amp SR 54,,Buena,NJ,8310,United States,856-697-9000,,,,,,
Econo Lodge Inn and Suites,,187 US 130 amp 206,,Bordentown,NJ,8505,United States,609-298-5000,,,,,,
Econo Lodge,,301 S Black Horse Pk,,Bellmawr,NJ,08031-2314,United States,856-931-2800,,,,,,
Econo Lodge Beach and Boardwalk,,3001 Pacific Ave,,Atlantic City,NJ,8401,United States,609-344-2925,,,,,,
Econo Lodge Atlantic City West,,1630 N. Albany Ave.,,Atlantic City,NJ,8401,United States,609-348-3171,,,,,,
Econo Lodge,,306 East White Horse Pike,,Absecon,NJ,8205,United States,609-748-0200,,,,,,
Econo Lodge,,5025 Market Street,,Wilmington,NC,28405,United States,910-799-6001,,,,,,
Econo Lodge,,102 East Boulevard,,Williamston,NC,27892,United States,252-792-8400,,,,,,
Econo Lodge,,503 N JK Powell Boulevard,,Whiteville,NC,28472-2128,United States,910-642-2378,,,,,,
Econo Lodge North,,1220 W 15th St,,Washington,NC,27889,United States,252-946-7781,,,,,,
Econo Lodge,,3945 Goldsboro Road,,Wade,NC,28395,United States,910-323-1255,,,,,,
Econo Lodge Inn and Suites,,4646 East Coast Lane,,Shallotte,NC,28470,United States,910-755-6444,,,,,,
Econo Lodge and Suites,,408 W Morganton Rd,,Southern Pines,NC,28387,United States,910-692-2063,,,,,,
Econo Lodge,,"1328 Jake Alexander Blvd., Sou",,Salisbury,NC,28146,United States,704-431-4542,,,,,,
Econo Lodge,,2617 Appliance Court,,Raleigh,NC,27604,United States,919-755-6005,,,,,,
Econo Lodge,,711 S Key Street,,Pilot Mountain,NC,27041,United States,336-368-2237,,,,,,
Econo Lodge Crystal Coast,,3410 Bridges St,,Morehead City,NC,28557,United States,252-247-2940,,,,,,
Econo Lodge Inn and Suites East,,1938 Moore Rd,,Matthews,NC,28105,United States,704-847-5252,,,,,,
Econo Lodge,,3100 Cloverleaf Pkwy,,Kannapolis,NC,28083,United States,704-786-3100,,,,,,
Econo Lodge Inn & Suites,,3608 Kahn Drive,,Lumberton,NC,28358,United States,910-738-8261,,,,,,
Econo Lodge,,701 N. Marine Blvd,,Jacksonville,NC,28540,United States,910-347-6111,,,,,,
Econo Lodge,,920 Crosswinds Street,,Greenville,NC,27834,United States,252-752-7382,,,,,,
Comfort Inn,,1013 E Main St,,Havelock,NC,28532,United States,252-444-8444,,,,,,
Comfort Inn,,206 Mitchelle Dr,,Hendersonville,NC,28792,United States,828-693-8800,,,,,,
Econo Lodge and Suites,,120 Seneca Rd,,Greensboro,NC,27406,United States,336-275-9575,,,,,,
Econo Lodge,,110 East Arbor Lane,,Eden,NC,27288,United States,336-627-5131,,,,,,
Econo Lodge Airport,,196 Underwood Rd,,Fletcher,NC,28732,United States,828-684-1200,,,,,,
Econo Lodge,,1952 Cedar Creek Rd,,Fayetteville,NC,28312,United States,910-433-2100,,,,,,
Econo Lodge Research Triangle Park,,4433 NC 55 Hwy,,Durham,NC,27713,United States,919-544-4579,,,,,,
Econo Lodge,,704 Corporate Drive US 70 Bypass E,,Goldsboro,NC,27534,United States,919-736-4510,,,,,,
Econo Lodge South,,1602 Mechanical Blvd,,Garner,NC,27529,United States,919-779-7888,,,,,,
Econo Lodge,,522 South Hughes Boulevard B,,Elizabeth City,NC,27909,United States,252-338-4124,,,,,,
Econo Lodge,,2574 West Lyon Station Road,,Creedmoor,NC,27522,United States,919-575-6451,,,,,,
Econo Lodge,,20 River Road Highway US 19,,Cherokee,NC,28719,United States,828-497-4575,,,,,,
Econo Lodge and Suites Lake Norman,,20740 Torrence Chapel Rd,,Cornelius,NC,28031,United States,704-892-3500,,,,,,
Econo Lodge Coliseum Area,,575 Clanton Rd,,Charlotte,NC,28217,United States,704-523-0633,,,,,,
Econo Lodge and Suites,,3415 Queen City Drive,,Charlotte,NC,28208,United States,704-392-0600,,,,,,
Econo Lodge Biltmore,,190 Tunnel Road,,Asheville,NC,28805,United States,828-254-9521,,,,,,
Econo Lodge,,I 95 Exit 145,,Battleboro,NC,27809,United States,252-972-9426,,,,,,
Econo Lodge,,2133 W Hanford Rd,,Burlington,NC,27215,United States,336-227-1270,,,,,,
Econo Lodge,,1401 35th St S,,Fargo,ND,58103,United States,701-232-3412,,,,,,
Econo Lodge,,3670 Roy Messer Hwy,,White Pine,TN,37890,United States,865-674-2573,,,,,,
Econo Lodge,,1607 North Main Street,,Shelbyville,TN,37160,United States,931-680-1030,,,,,,
Econo Lodge,,680 Winfield Dunn Parkway,,Sevierville,TN,37876,United States,865-429-7797,,,,,,
Econo Lodge Riverside,,2440 N Parkway,,Pigeon Forge,TN,37863,United States,865-428-1231,,,,,,
Econo Lodge,,2905 Parkway,,Pigeon Forge,TN,37863,United States,865-453-3906,,,,,,
Econo Lodge,,315 Lake Drive,,Ripley,TN,38063,United States,731-419-2603,,,,,,
Econo Lodge North,,110 Maplewood Trace,,Nashville,TN,37207,United States,615-262-9193,,,,,,
Econo Lodge,,3414 Percy Priest Drive,,Nashville,TN,37214,United States,615-391-8074,,,,,,
Econo Lodge,,1412 Brick Church Pike,,Nashville,TN,37207,United States,615-226-3230,,,,,,
Econo Lodge Inn and Suites,,110 N Thompson Ln,,Murfreesboro,TN,37129,United States,615-890-2811,,,,,,
Econo Lodge Inn & Suites,,3524 Elvis Presley Boulevard,,Memphis,TN,38116,United States,901-507-7630,,,,,,
Econo Lodge,,5984 West Andrew Johnson Highway,,Morristown,TN,37814,United States,423-586-8504,,,,,,
Econo Lodge Downtown,,22 North 3rd Street,,Memphis,TN,38103,United States,901-522-7050,,,,,,
Econo Lodge,,3419 American Way,,Memphis,TN,38118,United States,901-795-7866,,,,,,
Econo Lodge,,732 West Church Street,,Lexington,TN,38351,United States,731-968-0171,,,,,,
Econo Lodge,,853 University St,,Martin,TN,38237-1627,United States,731-587-4241,,,,,,
Econo Lodge,,1211 US 321 N,,Lenoir City,TN,37771,United States,865-986-0295,,,,,,
Econo Lodge,,829 S Cumberland St,,Lebanon,TN,37087,United States,615-444-1001,,,,,,
Econo Lodge North,,5505 Merchant Ctr Blvd,,Knoxville,TN,37912,United States,865-687-5680,,,,,,
Econo Lodge,,9980 Airport Parkway,,Kingsport,TN,37663,United States,423-279-7111,,,,,,
Econo Lodge Inn and Suites East,,7424 Strawberry Plains Pk,,Knoxville,TN,37924,United States,865-932-1217,,,,,,
Motel 6 Johnson City TN,,207 E Mountcastle Dr,,Johnson City,TN,37601,United States,423-282-3335,,,,,,
Econo Lodge,,531 Patriot Drive,,Jefferson City,TN,37760,United States,865-397-9437,,,,,,
Econo Lodge Inn & Suites,,1890 US 45 Bypass,,Jackson,TN,38305,United States,731-664-4312,,,,,,
Comfort Inn,,1790 East Andrew Johnson Hwy,,Greeneville,TN,37745,United States,423-639-4185,,,,,,
Econo Lodge Inn and Suites,,135 Reagan Drive,,Gatlinburg,TN,37738,United States,865-436-7991,,,,,,
Econo Lodge Inn and Suites,,1025 East Christi Drive,,Dickson,TN,37055,United States,615-441-5252,,,,,,
Econo Lodge,,815 Reelfoot Drive Bldg A,,Dyersburg,TN,38024,United States,731-285-6954,,,,,,
Econo Lodge,,3731 Pulaski Hwy,,Cornersville,TN,37047,United States,931-293-2111,,,,,,
Econo Lodge,,2655 Westside Dr. N.W,,Cleveland,TN,37312,United States,423-472-3281,,,,,,
Econo Lodge and Suites,,3065 Wilma Rudolph Blvd I 24 Exit 4,,Clarksville,TN,37040,United States,931-647-2002,,,,,,
Econo Lodge Lookout Mountain,,150 Browns Ferry Road,,Chattanooga,TN,37419,United States,423-821-9000,,,,,,
Econo Lodge,,7421 Bonny Oaks Dr,,Chattanooga,TN,37421-1084,United States,423-499-9550,,,,,,
Econo Lodge,,123 NE 3rd Street,,Prineville,OR,97754,United States,541-447-6231,,,,,,
Econo Lodge,,2600 Anderson Ave,,Brownsville,TN,38012,United States,731-772-4082,,,,,,
Econo Lodge Near Clackamas Town Center,,4512 S E 82nd Ave,,Portland,OR,97266,United States,503-774-8876,,,,,,
Econo Lodge Expo Center,,405 NE Columbia Blvd,,Portland,OR,97211-1421,United States,503-285-7777,,,,,,
Econo Lodge Convention Center,,305 N Broadway,,Portland,OR,97227,United States,503-284-5181,,,,,,
Econo Lodge City Center,,1889 SW 4th Avenue,,Portland,OR,97201,United States,503-226-7646,,,,,,
Econo Lodge at Port of Portland,,9520 N E Sandy Blvd,,Portland,OR,97220,United States,503-252-6666,,,,,,
Econo Lodge,,606 SW Coast Hwy 101,,Newport,OR,97365,United States,541-265-7723,,,,,,
Econo Lodge,,620 SW Tutuilla Road,,Pendleton,OR,97801,United States,541-276-8654,,,,,,
Econo Lodge Southeast,,17330 S E McLoughlin Blvd,,Milwaukie,OR,97267,United States,503-654-2222,,,,,,
Econo Lodge Inn & Suites Madras Chateau Inn,,709 NE Highway 26,,Madras,OR,97741,United States,541-475-4633,,,,,,
Econo Lodge,,1713 NW 21st Street,,Lincoln City,OR,97367,United States,541-994-5281,,,,,,
Econo Lodge and Suites,,622 S E 10th Avenue,,Hillsboro,OR,97123,United States,503-640-4791,,,,,,
Econo Lodge,,227 Garibaldi Avenue,,Garibaldi,OR,97118,United States,503-322-2552,,,,,,
Econo Lodge,,437 NE 3rd Street,,Bend,OR,97701,United States,541-382-7711,,,,,,
Econo Lodge Inn & Suites,,935 NW Garfield Avenue,,Corvallis,OR,97330,United States,541-758-9125,,,,,,
Econo Lodge,,1190 West 6th Avenue,,Eugene,OR,97402,United States,541-342-7273,,,,,,
Econo Lodge,,50 Lowe Road,,Ashland,OR,97520,United States,541-482-4700,,,,,,
Econo Lodge,,1212 SE Price Road,,Albany,OR,97322,United States,541-926-0170,,,,,,
Econo Lodge,,920 14th St SE,,Watertown,SD,57201-5326,United States,605-882-2243,,,,,,
Econo Lodge,,804 Glenn Street,,Wall,SD,57790,United States,605-279-2121,,,,,,
Econo Lodge North,,5100 N Cliff Ave,,Sioux Falls,SD,57104,United States,605-331-4490,,,,,,
Econo Lodge,,1313 South Ohlman,,Mitchell,SD,57301,United States,605-996-6647,,,,,,
Econo Lodge Rapid City,,625 E Disk Dr,,Rapid City,SD,57701,United States,605-342-6400,,,,,,
Econo Lodge Mt Rushmore Memorial,,908 Madill St SR 40 E,,Keystone,SD,57751,United States,605-666-4417,,,,,,
Econo Lodge,,1815 5th Avenue,,Belle Fourche,SD,57717,United States,605-892-6663,,,,,,
Econo Lodge,,342 Mount Rushmore Road,,Custer,SD,57730,United States,605-673-4400,,,,,,
Econo Lodge,,1700 Fifth St,,Wichita Falls,TX,76301-2118,United States,940-761-1889,,,,,,
Econo Lodge,,2207 Old Dennis Rd,,Weatherford,TX,76087,United States,817-599-3705,,,,,,
Econo Lodge,,4505 N Stateline Ave,,Texarkana,TX,75503,United States,903-793-5546,,,,,,
Econo Lodge,,1601 W Broadway St,,Van Horn,TX,79855-0669,United States,432-283-2211,,,,,,
Econo Lodge,,1001 N General Bruce Dr,,Temple,TX,76504,United States,254-771-1688,,,,,,
Econo Lodge,,2925 West Washington,,Stephenville,TX,76401,United States,254-965-7162,,,,,,
Econo Lodge,,3913 Padre Blvd,,South Padre Island,TX,78597,United States,956-761-7831,,,,,,
Econo Lodge,,1006 E 12th St,,Shamrock,TX,79079,United States,806-256-2111,,,,,,
Econo Lodge Marcos,,811 S Guadalupe St,,San Marcos,TX,78666,United States,512-353-5300,,,,,,
Econo Lodge,,2211 SW Loop 410,,San Antonio,TX,78227,United States,210-678-0888,,,,,,
Econo Lodge Inn and Suites Fiesta Park,,13575 I 10 West,,San Antonio,TX,78249,United States,210-690-5500,,,,,,
Econo Lodge Downtown South,,606 Division Avenue,,San Antonio,TX,78214,United States,210-927-4800,,,,,,
Econo Lodge Inn and Suites Coliseum,,2755 N Panam Expressway,,San Antonio,TX,78208,United States,210-229-9220,,,,,,
Econo Lodge Central,,6015 I H 10 West I 10 amp Vance Jackson Rd,,San Antonio,TX,78201,United States,210-737-1855,,,,,,
Econo Lodge,,415 W. Beauregard Avenue,,San Angelo,TX,76903,United States,325-653-2995,,,,,,
Econo Lodge Inn and Suites,,2458 N Central Expressway,,Richardson,TX,75080,United States,972-470-9440,,,,,,
Econo Lodge and Suites,,4500 Highway 73,,Port Arthur,TX,77642,United States,409-962-4500,,,,,,
Econo Lodge Inn and Suites,,1254 FM 1101,,New Braunfels,TX,78130,United States,830-625-2230,,,,,,
Econo Lodge,,2020 N W Loop 224,,Nacogdoches,TX,75964,United States,936-569-0880,,,,,,
Econo Lodge,,5904 East End Blvd South,,Marshall,TX,75672,United States,903-935-1135,,,,,,
Econo Lodge,,4801 Avenue Q US 84,,Lubbock,TX,79412,United States,806-747-1671,,,,,,
Econo Lodge and Suites,,881 S Stemmons Freeway,,Lewisville,TX,75067,United States,972-436-0400,,,,,,
Econo Lodge,,2203 E King Ave,,Kingsville,TX,78363,United States,361-595-7700,,,,,,
Econo Lodge Killeen,,606 E Central Texas Exprwy,,Killeen,TX,76541,United States,254-634-6868,,,,,,
Econo Lodge,,311 South Segovia Access Rd,,Junction,TX,76849,United States,325-446-2475,,,,,,
Econo Lodge,,612 West Gibson Street,,Jasper,TX,75951,United States,409-384-2511,,,,,,
Econo Lodge,,112 I H 45 North ex 116,,Huntsville,TX,77320,United States,936-295-6401,,,,,,
Econo Lodge Inn and Suites Airport,,9821 West FM 1960 Bus Rd,,Humble,TX,77338,United States,281-548-2900,,,,,,
Econo Lodge Medical Center,,7905 S Main St,,Houston,TX,77025,United States,713-667-8200,,,,,,
Econo Lodge Inn & Suites,,9041 Westheimer Rd,,Houston,TX,77063,United States,713-783-1400,,,,,,
Econo Lodge,,9000 Airport Blvd,,Houston,TX,77061,United States,713-943-0035,,,,,,
Econo Lodge,,1515 Old Brandon Rd,,Hillsboro,TX,76645,United States,254-582-3333,,,,,,
Econo Lodge,,6630 Hoover Street U S 290 amp Bingle Road,,Houston,TX,77092,United States,713-956-2828,,,,,,
Econo Lodge Inn & Suites By The Bay,,3902 N Highway 35,,Fulton,TX,78358,United States,361-729-8351,,,,,,
Quality Inn,,1005 Leander Rd,,Georgetown,TX,78628,United States,512-863-7504,,,,,,
Econo Lodge,,810 S Adams,,Fredericksburg,TX,78624,United States,830-997-3437,,,,,,
Econo Lodge Inn and Suites,,7651 N Mesa St,,El Paso,TX,79912,United States,915-845-1906,,,,,,
Econo Lodge Falfurrias,,2116 Highway 281 South,,Falfurrias,TX,78355,United States,361-325-2515,,,,,,
Econo Lodge,,1709 SR 287,,Decatur,TX,76234,United States,940-627-6919,,,,,,
Econo Lodge,,1719 S Dumas Ave,,Dumas,TX,79029,United States,806-935-9098,,,,,,
Econo Lodge,,123 Liberal St,,Dalhart,TX,79022-2732,United States,806-244-6464,,,,,,
Econo Lodge Airport I 35 North,,2275 Valley View Lane,,Dallas,TX,75234,United States,972-243-5500,,,,,,
Econo Lodge and Suites,,722 N Port Avenue,,Corpus Christi,TX,78408,United States,361-883-7400,,,,,,
Econo Lodge,,1601 I 45 South,,Conroe,TX,77301,United States,936-756-8941,,,,,,
Econo Lodge College Station,,104 Texas Avenue,,College Station,TX,77840,United States,979-691-6300,,,,,,
Econo Lodge,,1804 Ave F N W,,Childress,TX,79201,United States,940-937-6363,,,,,,
Econo Lodge Inn & Suites,,255 Texas Avenue,,Bridge City,TX,77611,United States,409-735-2311,,,,,,
Econo Lodge,,9102 Burnet Road,,Austin,TX,78758,United States,512-835-7070,,,,,,
Econo Lodge Inn and Suites,,7420 Garth Road,,Baytown,TX,77521,United States,281-837-5560,,,,,,
Econo Lodge,,222 Arsenal Road,,York,PA,17402,United States,717-843-9970,,,,,,
Econo Lodge Inn and Suites Six Flags,,1075 Wet N Wild Way,,Arlington,TX,76011,United States,817-261-8900,,,,,,
Econo Lodge,,860 N Front St US 15 11,,Wormleysburg,PA,17043-1024,United States,717-763-7086,,,,,,
Econo Lodge,,2019 E Third St,,Williamsport,PA,17701,United States,570-326-1501,,,,,,
Econo Lodge Arena,,1075 Wilkes Barre Twp Blvd SR 309,,Wilkes Barre,PA,18702,United States,570-823-0600,,,,,,
Econo Lodge Inn and Suites,,Route 940 HC 1 Box 35,,White Haven,PA,18661,United States,570-443-0391,,,,,,
Econo Lodge,,107 V.I.P. Dr.,,Wexford,PA,15090,United States,724-935-1000,,,,,,
Econo Lodge,,126 Miller Lane,,Waynesburg,PA,15370,United States,724-627-5544,,,,,,
Econo Lodge,,125 Lewis Dr,,Somerset,PA,15501,United States,814-445-8788,,,,,,
Econo Lodge,,100 Park Ave,,Stroudsburg,PA,18360,United States,570-424-1771,,,,,,
Econo Lodge Inn and Suites,,3249 North Susquehanna Trail,,Shamokin Dam,PA,17876,United States,570-743-1111,,,,,,
Econo Lodge Scranton,,1175 Kane Street,,Scranton,PA,18505,United States,570-348-1000,,,,,,
Econo Lodge Northeast,,2310 Fraver Dr,,Reading,PA,19605,United States,610-378-1145,,,,,,
Econo Lodge Inn and Suites,,900 Chauvet Drive,,Pittsburgh,PA,15275,United States,412-788-7200,,,,,,
Econo Lodge,,4800 Steubenville Pike,,Pittsburgh,PA,15205,United States,412-922-6900,,,,,,
Econo Lodge,,419 Suedberg Rd,,Pine Grove,PA,17963,United States,570-345-4099,,,,,,
Econo Lodge,,110 North Main and Byers Ave,,New Stanton,PA,15672,United States,724-925-6755,,,,,,
Econo Lodge,,US 322 22 at SR 35 2 Stop 35 Plaza,,Mifflintown,PA,17059-9056,United States,717-436-5981,,,,,,
Econo Lodge,,650 Gettysburg Rd,,Mechanicsburg,PA,17055,United States,717-766-4728,,,,,,
Econo Lodge,,11237 Shaw Avenue,,Meadville,PA,16335,United States,814-724-6366,,,,,,
Econo Lodge Philadelphia Airport,,600 S Governor Printz Blvd,,Lester,PA,19029,United States,610-521-3900,,,,,,
Econo Lodge North,,2165 US 30 East,,Lancaster,PA,17602,United States,717-299-6900,,,,,,
Econo Lodge,,430 Napoleon Place,,Johnstown,PA,15901,United States,814-536-1114,,,,,,
Econo Lodge,,2810 South Hermitage Road,,Hermitage,PA,16148,United States,724-979-4330,,,,,,
Econo Lodge,,115 Lucy Ave,,Hershey,PA,17033,United States,717-533-2515,,,,,,
Econo Lodge,,1006 Briarsdale Road,,Harrisburg,PA,17109,United States,717-564-2000,,,,,,
Econo Lodge,,7930 Linglestown Road,,Harrisburg,PA,17112,United States,717-540-9100,,,,,,
Econo Lodge,,983 York Road,,Gettysburg,PA,17325,United States,717-334-4208,,,,,,
Econo Lodge,,501 S Middle St,,Frackville,PA,17931,United States,570-874-3838,,,,,,
Econo Lodge,,8050 Peach Street,,Erie,PA,16509,United States,814-866-5544,,,,,,
Econo Lodge,,387 Ben Franklin Hwy US 422,,Douglassville,PA,19518,United States,610-385-3016,,,,,,
Econo Lodge,,10 Woodmere Drive,,Drums,PA,18222,United States,570-788-4121,,,,,,
Econo Lodge Inn and Suites,,2031 North Reading Road,,Denver,PA,17517,United States,717-336-7000,,,,,,
Econo Lodge,,649 Northern Blvd,,Clarks Summit,PA,18411,United States,570-586-1211,,,,,,
Econo Lodge,,1303 Route 51,,Clairton,PA,15025,United States,412-384-5811,,,,,,
Econo Lodge,,1252 Harrisburg Pike,,Carlisle,PA,17013,United States,717-243-8585,,,,,,
Econo Lodge,,16550 Lincoln Highway,,Breezewood,PA,15533,United States,814-735-2200,,,,,,
Econo Lodge,,515 South Avenue,,Bradford,PA,16701,United States,814-362-4511,,,,,,
Econo Lodge,,189 Columbia Mall Dr,,Bloomsburg,PA,17815,United States,570-387-0490,,,,,,
Econo Lodge,,3482 Benner Pike,,Bellefonte,PA,16823,United States,814-355-5561,,,,,,
Econo Lodge,,2906 Pleasant Valley Blvd,,Altoona,PA,16601,United States,814-944-3555,,,,,,
Econo Lodge,,1142 Sniders Highway,,Walterboro,SC,29488,United States,843-538-2503,,,,,,
Econo Lodge,,226 North Washington Street,,Sumter,SC,29150,United States,803-775-2323,,,,,,
Econo Lodge,,110 Holiday Rd,,Summerville,SC,29483,United States,843-875-3022,,,,,,
Econo Lodge Conference Center,,1151 Bulldog Drive,,Allentown,PA,18104,United States,610-395-3731,,,,,,
Econo Lodge,,6765 Pottery Rd,,Spartanburg,SC,29303,United States,864-587-0129,,,,,,
Econo Lodge Santee,,9112 Old 6 Highway,,Santee,SC,29142,United States,803-854-3870,,,,,,
Econo Lodge,,3986 Byrnes Dr,,Saint Stephen,SC,29479,United States,843-567-7397,,,,,,
Econo Lodge,,5971 West Jim Bilton Blvd,,Saint George,SC,29477,United States,843-563-4195,,,,,,
Econo Lodge,,1147 Wilson Rd,,Newberry,SC,29108,United States,803-276-1600,,,,,,
Econo Lodge,,511 James F Taylor Dr,,Ridgeland,SC,29936,United States,843-726-6213,,,,,,
Econo Lodge,,4725 Saul White Blvd.,,North Charleston,SC,29418,United States,843-793-1836,,,,,,
Econo Lodge,,3190 Lancaster Hwy,,Richburg,SC,29729,United States,803-789-3000,,,,,,
Comfort Inn and Suites Beach Front Central,,601 South Ocean Boulevard,,Myrtle Beach,SC,29577,United States,843-448-1491,,,,,,
Econo Lodge Inn and Suites,,529 Hwy 601 S Half mile from E 92 off I 20,,Lugoff,SC,29078,United States,803-438-6990,,,,,,
Econo Lodge Inn and Suites,,20 Interstate Court,,Greenville,SC,29615,United States,864-297-7866,,,,,,
Econo Lodge,,401 Goose Creek Blvd N,,Goose Creek,SC,29445-2971,United States,843-797-8200,,,,,,
Sleep Inn at Carowinds,,3540 Lakemont Blvd,,Fort Mill,SC,29708,United States,803-547-2300,,,,,,
Econo Lodge,,1920 West Lucas Street,,Florence,SC,29501,United States,843-665-4558,,,,,,
Econo Lodge,,1101 Church Street Hwy 501,,Conway,SC,29526,United States,843-248-2285,,,,,,
Econo Lodge Inn and Suites Ft Jackson,,7700 Two Notch Rd,,Columbia,SC,29223,United States,803-788-5544,,,,,,
Econo Lodge and Conference Center,,773 St Andrews Road,,Columbia,SC,29210,United States,803-772-7275,,,,,,
Econo Lodge Fort Jackson,,4488 Fort Jackson Blvd,,Columbia,SC,29209,United States,803-738-0510,,,,,,
Econo Lodge,,1135 Sumter Hwy,,Bishopville,SC,29010,United States,803-428-3200,,,,,,
Econo Lodge,,2227 Boundary Street,,Beaufort,SC,29902,United States,843-525-9366,,,,,,
Econo Lodge,,3560 Richland Avenue West,,Aiken,SC,29801,United States,803-649-3968,,,,,,
Econo Lodge,,101 New London Ave,,Cranston,RI,2920,United States,401-942-4200,,,,,,
Econo Lodge Inn and Suites South,,3309 Milan Rd,,Sandusky,OH,44870-0353,United States,419-626-8720,,,,,,
Econo Lodge Inn and Suites,,51659 National Road,,Saint Clairsville,OH,43950,United States,740-526-0128,,,,,,
Econo Lodge,,10667 Fremont Pike,,Perrysburg,OH,43551,United States,419-874-8771,,,,,,
Econo Lodge,,342 Milan Ave US 250,,Norwalk,OH,44857,United States,419-668-5656,,,,,,
Econo Lodge,,4248 SR 5,,Newton Falls,OH,44444,United States,330-872-0988,,,,,,
Econo Lodge,,13 485 SR 15,,Montpelier,OH,43543-9736,United States,419-485-3139,,,,,,
Econo Lodge,,1250 Neubrecht Road,,Lima,OH,45801,United States,419-227-6515,,,,,,
Econo Lodge,,4386 State Route 43,,Kent,OH,44240,United States,330-678-9927,,,,,,
Econo Lodge,,9060 West Lancaster Road,,Jeffersonville,OH,43128,United States,740-948-2332,,,,,,
Econo Lodge,,733 Hebron Rd,,Heath,OH,43056,United States,740-522-1165,,,,,,
Econo Lodge,,251 Conover Drive,,Franklin,OH,45005-1850,United States,937-746-3627,,,,,,
Econo Lodge,,1201 East Mall Drive,,Holland,OH,43528,United States,419-866-6565,,,,,,
Econo Lodge,,316 Emma St,,Findlay,OH,45840,United States,419-422-0154,,,,,,
Econo Lodge,,920 Wilson Rd at I 70,,Columbus,OH,43204,United States,614-274-8581,,,,,,
Econo Lodge,,11620 Chester Rd,,Cincinnati,OH,45246,United States,513-771-0370,,,,,,
Econo Lodge,,10800 Hebron Road,,Buckeye Lake,OH,43008,United States,740-242-0000,,,,,,
Econo Lodge,,2220 Heller Drive,,Beavercreek,OH,45434,United States,937-426-5822,,,,,,
Econo Lodge,,79 Rothrock Road,,Akron,OH,44321,United States,330-666-8887,,,,,,
Econo Lodge,,2122 US 74 S,,Purcell,OK,73080,United States,405-527-5603,,,,,,
Econo Lodge,,6800 South Mill Street,,Pryor,OK,74361,United States,918-825-7600,,,,,,
Econo Lodge Inn and Suites Near Bricktown,,1750 East Reno Avenue,,Oklahoma City,OK,73117,United States,405-278-7250,,,,,,
Econo Lodge,,8200 W I 40 Service Rd,,Oklahoma City,OK,73128,United States,405-787-7051,,,,,,
Econo Lodge,,100 SW 26th Dr,,Norman,OK,73069,United States,405-364-5554,,,,,,
Econo Lodge Inn and Suites,,1809 N Moore Ave,,Moore,OK,73160,United States,405-912-1400,,,,,,
Econo Lodge,,731 S George Nigh Expwy,,Mcalester,OK,74501,United States,918-426-4420,,,,,,
Econo Lodge,,900 East Steve Owens Blvd,,Miami,OK,74354,United States,918-542-6631,,,,,,
Econo Lodge Inn and Suites,,1413 Neptune Drive,,Clinton,OK,73601,United States,580-323-6640,,,,,,
Econo Lodge,,600 North Price,,Chandler,OK,74834,United States,405-258-2131,,,,,,
Econo Lodge,,2600 N. Aspen Ave,,Broken Arrow,OK,74012,United States,918-251-1010,,,,,,
Econo Lodge,,3910 SE Nowata Rd Hwy 75 amp 60 East,,Bartlesville,OK,74006,United States,918-333-0710,,,,,,
Econo Lodge,,1201 N 44th St,,Blackwell,OK,74631-9505,United States,580-363-7000,,,,,,
Econo Lodge,,2700 W Broadway,,Ardmore,OK,73401,United States,580-226-1250,,,,,,
Comfort Inn,,8955 S 255 West,,Sandy,UT,84070-2070,United States,801-255-4919,,,,,,
Econo Lodge Downtown,,715 W North Temple,,Salt Lake City,UT,84116,United States,801-363-0062,,,,,,
Econo Lodge,,1225 S State Street,,Salina,UT,84654,United States,435-529-7455,,,,,,
Econo Lodge,,460 E St George Blvd,,Saint George,UT,84770,United States,435-673-4861,,,,,,
Econo Lodge,,1625 West Center St ex 265 West Airport,,Provo,UT,84601,United States,801-373-0099,,,,,,
Econo Lodge,,280 West State Street,,Hurricane,UT,84737,United States,435-635-4647,,,,,,
Econo Lodge,,2504 Wisconsin Dells Parkway,,Wisconsin Dells,WI,53965,United States,608-254-6444,,,,,,
Econo Lodge,,232 N Wenatchee Avenue,,Wenatchee,WA,98801,United States,509-663-7121,,,,,,
Econo Lodge,,601 Broadway,,Vancouver,WA,98660,United States,360-693-3668,,,,,,
Econo Lodge and Suites,,1503 South Rustle Road,,Spokane,WA,99224,United States,509-747-2021,,,,,,
Econo Lodge,,1181 1st Ave E,,Shakopee,MN,55379-1608,United States,952-445-9120,,,,,,
Econo Lodge,,1850 S Broadway,,Rochester,MN,55904,United States,507-282-9905,,,,,,
Econo Lodge,,59 East Main St,,West Yarmouth,MA,2673,United States,508-771-0699,,,,,,
Econo Lodge West Springfield,,1533 Elm Street,,West Springfield,MA,1089,United States,413-734-8278,,,,,,
Econo Lodge,,455 Kennedy Memorial Dr,,Waterville,ME,4901,United States,207-872-5577,,,,,,
Econo Lodge,,4940 Chef Menteur Hwy,,New Orleans,LA,70126,United States,504-940-5550,,,,,,
Econo Lodge,,100 Howard Drive,,Shelbyville,KY,40065,United States,502-633-5771,,,,,,
Econo Lodge,,1450 Bowling Green Road,,Russellville,KY,42276,United States,270-726-2488,,,,,,
Econo Lodge,,11165 Frontage Rd,,Richwood,KY,41094,United States,859-485-4123,,,,,,
Econo Lodge Fort Knox,,261 N Dixie Hwy,,Radcliff,KY,40160-1013,United States,270-351-4488,,,,,,
Econo Lodge Downtown,,401 South 2nd St,,Louisville,KY,40202,United States,502-583-2841,,,,,,
Econo Lodge Renfro Valley,,1375 Richmond St,,Mount Vernon,KY,40456,United States,606-256-4621,,,,,,
Econo Lodge Airport,,6109 Preston Highway,,Louisville,KY,40219,United States,502-966-5445,,,,,,
Econo Lodge,,105 Melcon Lane,,London,KY,40741,United States,606-877-9700,,,,,,
Econo Lodge,,5527 Athens Boonesboro Rd,,Lexington,KY,40509,United States,859-263-5101,,,,,,
Econo Lodge Inn & Suites,,2184 US Highway 62,,Gilbertsville,KY,42044,United States,270-362-4278,,,,,,
Econo Lodge,,3894 Nashville Rd,,Franklin,KY,42134,United States,270-586-3291,,,,,,
Econo Lodge,,633 Donaldson Rd,,Erlanger,KY,41018,United States,859-342-5500,,,,,,
Econo Lodge,,280 Lithia Road,,Wytheville,VA,24382,United States,276-228-5525,,,,,,
Econo Lodge,,287 S Main St,,Saint Albans,VT,5478,United States,802-524-5956,,,,,,
Econo Lodge,,70 E Williams Ave,,Fallon,NV,89406,United States,775-423-2194,,,,,,
Econo Lodge,,101 Northfield St,,Montpelier,VT,5602,United States,802-223-5258,,,,,,
Econo Lodge,,515 Canal St,,Brattleboro,VT,5301,United States,802-254-2360,,,,,,
Econo Lodge,,2187 Depot Street,,Manchester,VT,5255,United States,802-362-3333,,,,,,
Econo Lodge,,1290 S Main St,,Woodstock,VA,22664,United States,540-459-4086,,,,,,
Econo Lodge North,,1593 Martinsburg Pike,,Winchester,VA,22603,United States,540-662-4700,,,,,,
Econo Lodge Pottery,,7051 Richmond Rd,,Williamsburg,VA,23188,United States,757-564-3341,,,,,,
Econo Lodge,,17030 New Bremen Rd,,Ste Genevieve,MO,63670,United States,573-543-2272,,,,,,
Econo Lodge I-44 - Exit 80,,2611 N. Glenstone Ave.,,Springfield,MO,65803,United States,417-864-3565,,,,,,
Econo Lodge,,309 Hwy Z I 44 Ex 161,,Saint Robert,MO,65584-4649,United States,573-336-7272,,,,,,
Econo Lodge Truman Inn,,3501 W BROADWAY,,Sedalia,MO,65301,United States,660-826-8400,,,,,,
Econo Lodge Southwest,,3730 S Lindbergh Blvd,,Saint Louis,MO,63127-1397,United States,314-842-1200,,,,,,
Econo Lodge,,4576 Woodson Rd.,,Saint Louis,MO,63134,United States,314-423-8800,,,,,,
Econo Lodge,,1417 Martin Spring Dr,,Rolla,MO,65401,United States,573-341-3130,,,,,,
Econo Lodge Inn and Suites Lake Of The Ozarks,,5760 Hwy 54,,Osage Beach,MO,65065,United States,573-348-1781,,,,,,
Econo Lodge,,410 S E 1st St,,Oak Grove,MO,64075,United States,816-690-3681,,,,,,
Econo Lodge,,505 Shanks Ave,,Kearney,MO,64060,United States,816-628-5111,,,,,,
Econo Lodge Airport,,11300 N W Prairieview Rd,,Kansas City,MO,64153,United States,816-464-5082,,,,,,
Econo Lodge,,2232 Taney Street,,Kansas City,MO,64116,United States,816-421-6000,,,,,,
Econo Lodge,,3510 Rangeline Road,,Joplin,MO,64804,United States,417-623-0000,,,,,,
Econo Lodge,,1926 Jefferson St,,Jefferson City,MO,65109,United States,573-636-2797,,,,,,
Econo Lodge,,3604 McMasters Ave,,Hannibal,MO,63401,United States,573-221-0422,,,,,,
Econo Lodge,,913 South Outer Road,,Dexter,MO,63841,United States,573-624-7400,,,,,,
Econo Lodge Inn and Suites,,1020 South Washington,,Chillicothe,MO,64601,United States,660-646-0572,,,,,,
Econo Lodge,,1441 W Central,,Carthage,MO,64836-1020,United States,417-358-3900,,,,,,
Econo Lodge,,220 E Grand,,Cameron,MO,64429,United States,816-632-6571,,,,,,
Econo Lodge,,230 S Wildwood Dr,,Branson,MO,65616,United States,417-336-4849,,,,,,
Econo Lodge Inn & Suites,,1110 North 7 Highway,,Blue Springs,MO,64014,United States,816-229-6363,,,,,,
Econo Lodge,,222 Peculiar Dr,,Belton,MO,64012,United States,816-322-1222,,,,,,
Econo Lodge,,491 E Highway 76,,Anderson,MO,64831,United States,417-845-4888,,,,,,
Econo Lodge Inn & Suites,,340 E Highway 20,,Valentine,NE,69201,United States,402-376-3131,,,,,,
Econo Lodge West Dodge,,7833 W Dodge Rd,,Omaha,NE,68124,United States,402-391-7100,,,,,,
Econo Lodge Downtown,,2211 Douglas Street,,Omaha,NE,68102,United States,402-345-9565,,,,,,
Econo Lodge,,1140 West Cornhusker Highway,,Lincoln,NE,68521,United States,402-475-4511,,,,,,
Econo Lodge,,2503 Plum Creek Parkway,,Lexington,NE,68850,United States,308-324-5601,,,,,,
Econo Lodge,,709 E 2nd Ave,,Kearney,NE,68847,United States,308-237-2671,,,,,,
Econo Lodge,,3210 N 6th Street,,Beatrice,NE,68310,United States,402-223-3536,,,,,,
Econo Lodge,,4953 North Reserve Street,,Missoula,MT,59808,United States,406-542-7550,,,,,,
Econo Lodge,,1209 South Haynes Ave,,Miles City,MT,59301,United States,406-232-8880,,,,,,
Econo Lodge Inn and Suites,,1680 Highway 93 South,,Kalispell,MT,59901,United States,406-752-3467,,,,,,
Econo Lodge,,122005 Nissler Road,,Butte,MT,59701,United States,406-782-5678,,,,,,
Econo Lodge,,5425 Midland Road,,Billings,MT,59101,United States,406-252-2700,,,,,,
Econo Lodge Inn & Suites,,119 Bypass Road,,Williamsburg,VA,23185,United States,757-253-1663,,,,,,
Econo Lodge Historic Area,,442 Parkway Dr,,Williamsburg,VA,23185,United States,757-229-7564,,,,,,
Econo Lodge Colonial,,216 Parkway Dr,,Williamsburg,VA,23185,United States,757-253-6450,,,,,,
Econo Lodge Town Center,,3637 Bonney Rd,,Virginia Beach,VA,23452,United States,757-486-5711,,,,,,
Econo Lodge on the Ocean,,2707 Atlantic Ave,,Virginia Beach,VA,23451,United States,757-428-3970,,,,,,
Econo Lodge Oceanfront,,2109 Atlantic Ave,,Virginia Beach,VA,23451,United States,757-428-2403,,,,,,
Econo Lodge Inn and Suites I 64 and US 13,,5819 Northampton Blvd,,Virginia Beach,VA,23455-4622,United States,757-460-1000,,,,,,
Econo Lodge,,1503 Holland Road Route 58 West,,Suffolk,VA,23434,United States,757-514-5600,,,,,,
Econo Lodge East,,1031 Richmond Ave I 81 exit 222,,Staunton,VA,24401-4905,United States,540-885-5158,,,,,,
Econo Lodge,,5203 Williamsburg Rd,,Sandston,VA,23150,United States,804-222-6450,,,,,,
Econo Lodge,,24368 Rogers Clark Blvd,,Ruther Glen,VA,22546,United States,804-448-9694,,,,,,
Econo Lodge Civic Center,,308 Orange Ave,,Roanoke,VA,24016,United States,540-343-2413,,,,,,
Econo Lodge Near Richmond National Battlefield Park,,2125 Willis Rd,,Richmond,VA,23237,United States,804-271-6031,,,,,,
Econo Lodge,,8350 Brook Road,,Richmond,VA,23227,United States,804-262-7070,,,,,,
Econo Lodge,,7300 W Broad St,,Richmond,VA,23294,United States,804-672-8621,,,,,,
Econo Lodge South,,16905 Parkdale Rd I 95 Exit 41,,Petersburg,VA,23805,United States,804-862-2717,,,,,,
Econo Lodge,,900 Winfield Road,,Petersburg,VA,23803,United States,804-861-8400,,,,,,
Econo Lodge Near Norfolk State University,,865 N Military Hwy US 13,,Norfolk,VA,23502,United States,757-461-4865,,,,,,
Econo Lodge Airport,,3343 N Military Hwy,,Norfolk,VA,23518,United States,757-855-3116,,,,,,
Econo Lodge Little Creek,,7969 Shore Dr,,Norfolk,VA,23518,United States,757-588-3600,,,,,,
Econo Lodge,,1755 Virginia Avenue,,Martinsville,VA,24112,United States,276-632-5611,,,,,,
Econo Lodge,,1420 N Main Street,,Marion,VA,24354,United States,276-783-6031,,,,,,
Econo Lodge,,2400 Stadium Rd,,Lynchburg,VA,24501,United States,434-847-1045,,,,,,
Econo Lodge,,4096 Oaklawn Blvd,,Hopewell,VA,23860,United States,804-541-4849,,,,,,
Econo Lodge,,1703 East Market Street,,Harrisonburg,VA,22801,United States,540-433-2576,,,,,,
Econo Lodge,,33361 Lee Highway,,Glade Spring,VA,24340,United States,276-429-2233,,,,,,
Econo Lodge,,5319 Jefferson Davis Hwy,,Fredericksburg,VA,22408-2607,United States,540-898-7100,,,,,,
Econo Lodge Near Quantico Marine Base,,17005 Dumfries Rd,,Dumfries,VA,22025,United States,703-221-4176,,,,,,
Econo Lodge,,2310 Indian Hills Rd,,Colonial Heights,VA,23834,United States,804-520-1010,,,,,,
Econo Lodge,,2430 Roanoke St,,Christiansburg,VA,24073,United States,540-382-6161,,,,,,
Econo Lodge,,2222 S Military Hwy,,Chesapeake,VA,23320,United States,757-543-2200,,,,,,
Econo Lodge North,,2014 Holiday Dr,,Charlottesville,VA,22901,United States,434-295-3185,,,,,,
Econo Lodge Near Motor Speedway,,912 Commonwealth Ave,,Bristol,VA,24201,United States,276-466-2112,,,,,,
Econo Lodge Benns Church,,20080 Brewer s Neck Blvd,,Carrollton,VA,23314,United States,757-542-3091,,,,,,
Econo Lodge King s Dominion South,,103 N Carter Rd,,Ashland,VA,23005-2258,United States,804-798-9221,,,,,,
Econo Lodge Metro,,6800 Lee Hwy,,Arlington,VA,22213,United States,703-538-5300,,,,,,
Econo Lodge,,15181 Patrick Henry Highway,,Amelia Court House,VA,23002,United States,804-561-4220,,,,,,
Econo Lodge,,153 Broadbent Blvd,,Cadiz,KY,42211,United States,270-522-3700,,,,,,
Econo Lodge,,807 Mammoth Cave Street,,Cave City,KY,42127,United States,270-773-3121,,,,,,
Econo Lodge,,1860 Cumberland Falls Rd,,Corbin,KY,40701,United States,606-528-8150,,,,,,
Econo Lodge and Suites,,1901 East Blue Lick Road,,Brooks,KY,40109,United States,502-955-1501,,,,,,
Econo Lodge Inn and Suites,,2111 NW Evangeline Thruway,,Lafayette,LA,70501,United States,337-261-5111,,,,,,
Econo Lodge Inn and Suites,,4300 Industrial Drive,,Bossier City,LA,71112,United States,318-746-5050,,,,,,
Econo Lodge,,254 Paint Lick Road,,Berea,KY,40403-8069,United States,859-986-9323,,,,,,
Econo Lodge,,100 Westbank Expressway,,Gretna,LA,70053,United States,504-648-2143,,,,,,
Econo Lodge,,2125 Veterans Boulevard,,Kenner,LA,70062,United States,504-464-6464,,,,,,
Econo Lodge Inn and Suites,,5335 University Parkway,,Natchitoches,LA,71457,United States,318-214-0700,,,,,,
Econo Lodge Inn and Suites,,2716 North McArthur Drive,,Alexandria,LA,71303,United States,318-487-4261,,,,,,
Econo Lodge Maine Mall,,80 John Roberts Road,,South Portland,ME,4106,United States,207-772-3838,,,,,,
Econo Lodge,,537 US 1,,Freeport,ME,4032,United States,207-865-3777,,,,,,
Econo Lodge Inn and Suites,,327 Odlin Rd,,Bangor,ME,4401,United States,207-945-0111,,,,,,
Econo Lodge,,825 Ocean Hwy,,Pocomoke City,MD,21851,United States,410-957-1300,,,,,,
Econo Lodge,,10936 Market Lane US 13,,Princess Anne,MD,21853,United States,410-651-9400,,,,,,
Econo Lodge,,7411 New Hampshire Avenue Bldg 2,,Takoma Park,MD,20912,United States,301-439-3003,,,,,,
Econo Lodge Oceanfront,,2910 Baltimore Ave,,Ocean City,MD,21842,United States,410-289-7291,,,,,,
Econo Lodge,,12310 Winchester Road,,Lavale,MD,21502,United States,301-729-6700,,,,,,
Econo Lodge Oceanblock,,14502 Coastal Highwy,,Ocean City,MD,21842,United States,410-250-1155,,,,,,
Econo Lodge Laurel Racetrack,,9700 Washington Blvd US 1,,Laurel,MD,20723,United States,301-776-8008,,,,,,
Econo Lodge,,6021 Francis Scott Key Drive,,Frederick,MD,21704,United States,301-698-0555,,,,,,
Econo Lodge,,8175 Ocean Gateway,,Easton,MD,21601-7145,United States,410-820-5555,,,,,,
Econo Lodge,,5895 Bonnie View Ln,,Elkridge,MD,21075,United States,410-796-1020,,,,,,
Econo Lodge,,9624 Baltimore Ave,,College Park,MD,20740,United States,301-474-0003,,,,,,
Econo Lodge Andrews AFB,,7851 Malcolm Rd,,Clinton,MD,20735,United States,301-856-2800,,,,,,
Econo Lodge,,200 Worcester Providence Turnpike SR 146,,Sutton,MA,1590,United States,508-865-5222,,,,,,
Econo Lodge,,408 Main Street,,Sturbridge,MA,1566,United States,508-347-7327,,,,,,
Econo Lodge Inn and Suites,,380 Southwest Cutoff,,Northborough,MA,1532,United States,508-842-8941,,,,,,
Econo Lodge,,94 Route 7,,New Ashford,MA,1237,United States,413-458-7090,,,,,,
Econo Lodge,,775 Providence Highway,,Sharon,MA,2067,United States,781-784-5800,,,,,,
Econo Lodge,,980 Pleaseant Street,,Lee,MA,1238,United States,413-243-0501,,,,,,
Econo Lodge,,321 Broadway,,Malden,MA,2148,United States,781-324-8500,,,,,,
Econo Lodge,,329 Russell Street,,Hadley,MA,1035,United States,413-582-7077,,,,,,
Econo Lodge,,1186 Worcester Rd,,Framingham,MA,1701,United States,508-879-1510,,,,,,
Econo Lodge,,152 Endicott Street,,Danvers,MA,1923,United States,978-777-1030,,,,,,
Econo Lodge,,3080 Colby Road,,Whitehall,MI,49461,United States,231-894-4848,,,,,,
Econo Lodge,,10160 M-M28,,Wetmore,MI,49895,United States,906-387-4864,,,,,,
Econo Lodge,,1065 M 37 S,,Traverse City,MI,49684,United States,231-943-3040,,,,,,
Econo Lodge South,,1859 US 131 South,,Petoskey,MI,49770,United States,231-348-3324,,,,,,
Econo Lodge,,139 Ampey Road,,Paw Paw,MI,49079,United States,269-657-2578,,,,,,
Econo Lodge Central,,1815 S. Saginaw Rd.,,Midland,MI,48640,United States,989-631-0570,,,,,,
Econo Lodge On the Bay,,2516 10th Street,,Menominee,MI,49858,United States,906-863-4431,,,,,,
Econo Lodge Lakeshore,,1101 East Lakeshore Drive,,Manistique,MI,49854,United States,906-341-6014,,,,,,
Econo Lodge Lakeside,,2050 S US 41,,Marquette,MI,49855,United States,906-225-1305,,,,,,
Econo Lodge,,32703 Stephenson Highway,,Madison Heights,MI,48071,United States,248-583-7700,,,,,,
Econo Lodge,,712 S Huron,,Mackinaw City,MI,49701,United States,231-436-5777,,,,,,
Econo Lodge,,3750 Easy St,,Kalamazoo,MI,49001,United States,269-388-3551,,,,,,
Econo Lodge,,703 N Cedar St US 131,,Kalkaska,MI,49646-8485,United States,231-258-9119,,,,,,
Econo Lodge,,1609 S Stephenson Ave,,Iron Mountain,MI,49801,United States,906-776-8000,,,,,,
Econo Lodge and Suites,,2985 Kraft Avenue Southeast,,Grand Rapids,MI,49512,United States,616-940-1777,,,,,,
Econo Lodge,,921 N Lincoln Rd,,Escanaba,MI,49829,United States,906-789-1066,,,,,,
Econo Lodge,,2501 Sunnyside Drive,,Cadillac,MI,49601,United States,231-775-6700,,,,,,
Econo Lodge,,6285 Westside Saginaw Rd,,Bay City,MI,48706,United States,989-402-1505,,,,,,
Econo Lodge,,165 Capital Ave S W,,Battle Creek,MI,49015,United States,269-965-3976,,,,,,
Econo Lodge Inn and Suites,,510 W Huron US 23,,Au Gres,MI,48703,United States,989-876-4060,,,,,,
Econo Lodge,,650 US Hwy 75,,Ortonville,MN,56278,United States,320-839-2414,,,,,,
Econo Lodge,,2007 Highway 71 North,,Jackson,MN,56143,United States,507-847-3110,,,,,,
Econo Lodge,,1901 S Broadway St,,New Ulm,MN,56073,United States,507-359-2400,,,,,,
Econo Lodge Airport,,4197 Haines Rd,,Duluth,MN,55811,United States,218-722-5522,,,,,,
Econo Lodge,,3303 Oakland Ave. W.,,Austin,MN,55912,United States,507-437-7774,,,,,,
Econo Lodge,,1600 Jerry Clower Blvd,,Yazoo City,MS,39194,United States,662-746-6444,,,,,,
Econo Lodge,,3959 E Clay St,,Vicksburg,MS,39180,United States,601-634-8438,,,,,,
Econo Lodge,,879 Mississippi Drive,,Tupelo,MS,38801,United States,662-840-2380,,,,,,
Econo Lodge North,,839 Ridgewood Road,,Ridgeland,MS,39157,United States,601-956-7740,,,,,,
Econo Lodge,,550 South Lofton Dr,,Picayune,MS,39466,United States,601-799-2833,,,,,,
Econo Lodge Inn and Suites,,1530 Hwy 16W,,Philadelphia,MS,39350,United States,601-656-3553,,,,,,
Econo Lodge,,232 S Pearson Rd,,Pearl,MS,39208,United States,601-932-4226,,,,,,
Econo Lodge,,2405 S Frontage Rd,,Meridian,MS,39301,United States,601-693-9393,,,,,,
Econo Lodge,,2001 Veterans Boulevard,,Mccomb,MS,39648,United States,601-684-8655,,,,,,
Econo Lodge,,305 16th Ave N,,Laurel,MS,39440,United States,601-428-4242,,,,,,
Americas Best Value Inn Kosciusko,,1052 Veterans Memorial Drive,,Kosciusko,MS,39090,United States,662-289-6252,,,,,,
Econo Lodge Inn and Suites,,6868 Interstate Blvd,,Horn Lake,MS,38637,United States,662-536-1288,,,,,,
Econo Lodge,,6655 Highway 49 N,,Hattiesburg,MS,39401,United States,601-264-7221,,,,,,
Econo Lodge Inn and Suites,,9343 US 49 S,,Gulfport,MS,39503,United States,228-863-5500,,,,,,
Econo Lodge,,1552 Sunset Dr,,Grenada,MS,38901,United States,662-226-1683,,,,,,
Econo Lodge,,3080 US 82 E.,,Greenville,MS,38702,United States,862-378-4976,,,,,,
Econo Lodge,,3080 US 82 E,,Greenville,MS,38702,United States,662-378-4976,,,,,,
Econo Lodge Inn and Suites,,1250 Highway 35 S,,Forest,MS,39074,United States,601-469-2100,,,,,,
Econo Lodge,,1004 Treetops Boulevard,,Flowood,MS,39232,United States,601-939-2676,,,,,,
Econo Lodge Inn and Suites,,441 Yacht Club Drive,,Diamondhead,MS,39525,United States,228-586-0210,,,,,,
Econo Lodge,,2104 Highway 72 West,,Corinth,MS,38834,United States,662-286-6071,,,,,,
Econo Lodge Keesler AFB,,1776 Beach Blvd,,Biloxi,MS,39531,United States,228-374-7644,,,,,,
Econo Lodge,,103 Clinton Center Dr,,Clinton,MS,39056,United States,601-924-9364,,,,,,
Econo Lodge,,221 Lakewood Dr,,Batesville,MS,38606,United States,662-563-6592,,,,,,
Econo Lodge,,801 E Washington St,,Sequim,WA,98382,United States,360-683-7113,,,,,,
Econo Lodge,,4710 Lake Washington Blvd NE,,Renton,WA,98056,United States,425-228-2858,,,,,,
Econo Lodge SeaTac Airport North,,13910 International Blvd Old Pacific Hwy S,,Seattle,WA,98168,United States,206-244-0810,,,,,,
Econo Lodge,,505 N Pacific Avenue,,Kelso,WA,98626,United States,360-636-4610,,,,,,
Econo Lodge Inn and Suites,,910 Simpson Avenue,,Hoquiam,WA,98550,United States,360-532-8161,,,,,,
Econo Lodge,,3501 Pacific Highway East,,Fife,WA,98424,United States,253-926-1000,,,,,,
Econo Lodge,,1505 South 328th Street,,Federal Way,WA,98003,United States,253-838-7700,,,,,,
Econo Lodge,,1390 N Dolarway Rd,,Ellensburg,WA,,United States,509-925-9844,,,,,,
Econo Lodge,,906 East First Street,,Cle Elum,WA,98922,United States,509-674-2380,,,,,,
Econo Lodge,,29405 State Route 410 East,,Buckley,WA,98321,United States,360-829-1100,,,,,,
Econo Lodge Inn and Suites,,3750 Meridian Street,,Bellingham,WA,98225,United States,360-671-4600,,,,,,
Econo Lodge Inn and Suites,,87 Jenkins Lane,,Triadelphia,WV,26059,United States,304-547-1380,,,,,,
Econo Lodge,,1203 Broad Street,,Summersville,WV,26651-1805,United States,304-872-6900,,,,,,
Econo Lodge Coliseum,,3506 Monongahela Blvd,,Morgantown,WV,26505,United States,304-599-8181,,,,,,
Econo Lodge,,15 Commerce Dr,,Morgantown,WV,26505,United States,304-296-8774,,,,,,
Econo Lodge,,25 Union Street,,Harpers Ferry,WV,25425,United States,304-535-6391,,,,,,
Econo Lodge,,1909 Harper Rd,,Beckley,WV,25801,United States,304-255-2161,,,,,,
Econo Lodge Near Bluefield College,,3400 Cumberland Rd,,Bluefield,WV,24701,United States,304-327-8171,,,,,,
Econo Lodge,,1060 W Fulton St,,Waupaca,WI,,United States,715-258-8526,,,,,,
Econo Lodge,,2005 N Superior,,Tomah,WI,54660,United States,608-372-9100,,,,,,
Econo Lodge Inn and Suites,,5110 Main Street,,Stevens Point,WI,54481,United States,715-341-5110,,,,,,
Econo Lodge,,723 North Center Avenue,,Sheboygan,WI,53081,United States,920-458-1400,,,,,,
Econo Lodge,,1207 Saint Croix St,,River Falls,WI,54022,United States,715-425-8388,,,,,,
Econo Lodge,,1510 County Road XX,,Rothschild,WI,54474,United States,715-355-4449,,,,,,
Econo Lodge,,200 South Pine Ridge Avenue,,Merrill,WI,54452,United States,715-536-9526,,,,,,
Econo Lodge Milwaukee Airport,,6541 S 13th St,,Milwaukee,WI,53221,United States,414-764-2510,,,,,,
Econo Lodge Inn and Suites,,1815 North Broadway Street,,Menomonie,WI,54751,United States,715-235-9651,,,,,,
Econo Lodge,,908 Washington Street,,Manitowoc,WI,54220,United States,920-682-8271,,,,,,
Econo Lodge,,4726 E Washington Ave,,Madison,WI,53704,United States,608-241-4171,,,,,,
Econo Lodge,,1906 Rose Street,,La Crosse,WI,54603,United States,608-781-0200,,,,,,
Econo Lodge,,3520 Milton Ave,,Janesville,WI,53545,United States,608-754-0251,,,,,,
Econo Lodge Inn and Suites,,2815 Ramada Way,,Green Bay,WI,54304,United States,920-494-8790,,,,,,
Econo Lodge Inn and Suites,,4608 Royal Dr,,Eau Claire,WI,54701,United States,715-833-8818,,,,,,
Econo Lodge South,,209 E Flaming Rd,,Olathe,KS,66061,United States,913-829-1312,,,,,,
Econo Lodge,,2331 South Cedar,,Ottawa,KS,66067,United States,785-242-3400,,,,,,
Econo Lodge,,2111 E Kansas Ave,,Mcpherson,KS,67460,United States,620-241-6960,,,,,,
Econo Lodge,,2525 W. 6th Street,,Lawrence,KS,66049,United States,785-841-8410,,,,,,
Econo Lodge,,1943 Garfield Ave I 80 ex 259,,West Liberty,IA,52776-9034,United States,319-627-2171,,,,,,
Econo Lodge Inn and Suites,,1614 Antique City Drive,,Walnut,IA,51577,United States,712-784-2233,,,,,,
Econo Lodge,,10841 Douglas Ave,,Urbandale,IA,50322,United States,515-278-2811,,,,,,
Econo Lodge,,86 9th St Cir N E,,Sioux Center,IA,51250,United States,712-722-4000,,,,,,
Econo Lodge,,630 N Green Bay Rd,,Waukegan,IL,60085-3153,United States,847-249-2388,,,,,,
Econo Lodge,,124 Highway 61 Connector,,Villa Rica,GA,30180,United States,770-459-6669,,,,,,
Econo Lodge,,3022 James Rd,,Valdosta,GA,31602-7974,United States,229-671-1511,,,,,,
Econo Lodge Inn and Suites Airport,,34 Old County Road,,Windsor Locks,CT,6096,United States,860-623-2533,,,,,,
Econo Lodge Thornton - Denver North,,12101 Grant Street,,Thornton,CO,80241,United States,303-280-9818,,,,,,
Econo Lodge Inn and Suites,,730 Palora Ave,,Yuba City,CA,95991,United States,530-674-1592,,,,,,
Econo Lodge,,53 West Main Street,,Woodland,CA,95695,United States,530-662-9335,,,,,,
Econo Lodge Inn and Suites,,526 S Main Street,,Yreka,CA,96097,United States,530-842-4404,,,,,,
Quality Inn,,400 C St,,Williams,CA,95987,United States,530-473-2381,,,,,,
Econo Lodge,,7100 McCracken Road,,Westley,CA,95387,United States,209-894-3900,,,,,,
Econo Lodge Sequoia Area,,1400 S Mooney Blvd,,Visalia,CA,93277,United States,559-732-6641,,,,,,
Econo Lodge Inn and Suites,,4501 McFarland Blvd E,,Tuscaloosa,AL,35405,United States,205-345-1434,,,,,,
Econo Lodge,,811 US 231 South,,Troy,AL,36081-0486,United States,334-566-7799,,,,,,
Econo Lodge,,23945 John T Reid Parkway,,Scottsboro,AL,35768,United States,256-574-1212,,,,,,
Econo Lodge,,798 Business Park Drive,,Prattville,AL,36066,United States,334-361-2007,,,,,,
Econo Lodge,,25 Elm St,,Oxford,AL,36203,United States,256-831-9480,,,,,,
Econo Lodge,,1210 Industrial Pkwy,,Saraland,AL,36571,United States,251-675-0100,,,,,,
Econo Lodge,,1705 Columbus Parkway,,Opelika,AL,36804,United States,334-745-3115,,,,,,
Econo Lodge Inn and Suites,,1930 McFarland Blvd,,Northport,AL,35476,United States,205-330-0345,,,,,,
Econo Lodge Tillmans Corner,,5686 Tillmans Corner Prkwy,,Mobile,AL,36619-1962,United States,251-662-0076,,,,,,
Econo Lodge,,102 Arlington Drive,,Madison,AL,35758,United States,256-772-9550,,,,,,
Econo Lodge,,12 E 22nd St Exit 79 off I 85,,Lanett,AL,36863,United States,334-768-3500,,,,,,
Econo Lodge Inn and Suites,,2682 South McKenzie Street,,Foley,AL,36535,United States,251-943-9100,,,,,,
Econo Lodge,,1412 Glen Blvd S W,,Fort Payne,AL,35967,United States,256-845-4013,,,,,,
Econo Lodge Inn and Suites,,2031 Military Street South,,Hamilton,AL,35570,United States,205-921-7831,,,,,,
Econo Lodge Inn & Suites,,215 Highway 83,,Evergreen,AL,36401,United States,251-578-2100,,,,,,
Econo Lodge,,1243 N Eufaula Ave,,Eufaula,AL,36027,United States,334-687-0166,,,,,,
Econo Lodge,,2910 Ross Clark Circle,,Dothan,AL,36301,United States,334-673-8000,,,,,,
Econo Lodge Inn and Suites,,1035 Highway 80 West,,Demopolis,AL,36732,United States,334-287-0300,,,,,,
Econo Lodge Inn and Suites Fort Rucker,,444 N Daleville Ave,,Daleville,AL,36322,United States,334-598-6304,,,,,,
Econo Lodge,,1655 County Road 437,,Cullman,AL,35055,United States,256-734-2691,,,,,,
Econo Lodge Oxmoor,,195 Oxmoor Rd,,Birmingham,AL,35209,United States,205-941-0990,,,,,,
Econo Lodge,,1535 Montgomery Highway,,Birmingham,AL,35216,United States,205-822-6030,,,,,,
Econo Lodge,,2145 South College St,,Auburn,AL,36830,United States,334-826-8900,,,,,,
Econo Lodge,,1421 MLK Jr Expressway,,Andalusia,AL,36420,United States,334-222-7511,,,,,,
Econo Lodge,,2035 West 3rd St.,,Winslow,AZ,86047,United States,929-289-1010,,,,,,
Econo Lodge,,302 E SR 66,,Williams,AZ,86046,United States,928-635-4085,,,,,,
Econo Lodge,,1136 N Stone Ave,,Tucson,AZ,85705,United States,520-622-6714,,,,,,
Econo Lodge,,3020 S 6th Ave S 6th Ave amp I 10 ex 261,,Tucson,AZ,85713,United States,520-623-5881,,,,,,
Econo Lodge,,1225 E Gurley Street,,Prescott,AZ,86301,United States,928-445-7057,,,,,,
Econo Lodge Airport,,3037 E Van Buren Street,,Phoenix,AZ,85008,United States,602-273-1601,,,,,,
Econo Lodge,,3421 E Andy Devine Ave,,Kingman,AZ,86401,United States,928-757-7878,,,,,,
Econo Lodge University,,914 S Milton Rd,,Flagstaff,AZ,86001-6386,United States,928-774-7326,,,,,,
Econo Lodge,,2315 S Service Rd,,West Memphis,AR,72301,United States,870-732-2830,,,,,,
Econo Lodge Inn and Suites,,120 North Rand Drive,,Searcy,AR,72143,United States,501-279-1200,,,,,,
Econo Lodge Lucky Lane,,2480 E Lucky Lane,,Flagstaff,AZ,86004,United States,928-774-7701,,,,,,
Econo Lodge,,210 N Blake St,,Pine Bluff,AR,71601,United States,870-534-7222,,,,,,
Econo Lodge,,4635 W. Keiser Ave,,Osceola,AR,72370,United States,870-563-3222,,,,,,
Econo Lodge Inn & Suites,,9101 Mabelvale Pike,,Little Rock,AR,72209,United States,501-400-8375,,,,,,
Econo Lodge,,963 Highway 62 E,,Mountain Home,AR,72653,United States,870-425-6001,,,,,,
Econo Lodge Inn and Suites,,5811 Pritchard Drive,,North Little Rock,AR,72117,United States,501-945-3700,,,,,,
Econo Lodge,,1800 John Harden Drive,,Jacksonville,AR,72076,United States,501-982-8400,,,,,,
Econo Lodge,,2406 Phillips Drive,,Jonesboro,AR,72401,United States,870-932-9339,,,,,,
Econo Lodge Inn & Suites,,106 Lookout Point,,Hot Springs,AR,71913,United States,501-525-5666,,,,,,
Econo Lodge,,1000 S. Futrall Drive,,Fayetteville,AR,72701,United States,479-442-3041,,,,,,
Econo Lodge Conference Center,,1920 Junction City Road,,El Dorado,AR,71730,United States,870-862-5191,,,,,,
Econo Lodge,,2015 East Van Buren,,Eureka Springs,AR,72632,United States,479-253-9501,,,,,,
Econo Lodge and Suites,,2203 N Main Street,,Brinkley,AR,72021,United States,870-734-1052,,,,,,
Econo Lodge,,3609 Moberly Lane,,Bentonville,AR,72712,United States,479-271-9400,,,,,,
Econo Lodge,,16732 I 30,,Benton,AR,72019,United States,501-776-1900,,,,,,
Econo Lodge,,773 Batesville Boulevard,,Batesville,AR,72501-7888,United States,870-698-1855,,,,,,
Econo Lodge,,3511 North Tracy Blvd,,Tracy,CA,95376,United States,209-835-1335,,,,,,
Econo Lodge,,2654 West March Lane,,Stockton,CA,95207,United States,209-478-4300,,,,,,
Econo Lodge Bay Breeze,,2049 Fremont Blvd,,Seaside,CA,93955,United States,831-899-7111,,,,,,
Econo Lodge,,3477 El Camino Real,,Santa Clara,CA,95051,United States,408-984-3364,,,,,,
Econo Lodge,,180 South Sanborn Rd,,Salinas,CA,93905,United States,831-422-5111,,,,,,
Econo Lodge,,711 16th St,,Sacramento,CA,95814,United States,916-443-6631,,,,,,
Econo Lodge Inn and Suites,,201 W Inyokern Rd,,Ridgecrest,CA,93555,United States,760-446-2551,,,,,,
Econo Lodge,,8477 Telegraph Rd.,,Pico Rivera,CA,90660,United States,562-291-0025,,,,,,
Econo Lodge,,1655 E 4th St,,Ontario,CA,91764,United States,909-986-7000,,,,,,
Econo Lodge Inn and Suites Oakland Airport,,10 Hegenberger Road,,Oakland,CA,94621-9956,United States,510-635-1892,,,,,,
Econo Lodge,,1100 Main St,,Morro Bay,CA,93442,United States,805-772-5609,,,,,,
Econo Lodge,,24412 Sunnymead Blvd,,Moreno Valley,CA,92553,United States,951-247-6699,,,,,,
Econo Lodge Monterey Fairgrounds,,2042 N Fremont St,,Monterey,CA,93940,United States,831-372-5851,,,,,,
Econo Lodge,,3624 E Pacific Coast Highway,,Long Beach,CA,90804,United States,562-343-1820,,,,,,
Econo Lodge,,118 N. Cherokee Ln,,Lodi,CA,95240,United States,209-367-4848,,,,,,
Econo Lodge,,7458 Broadway,,Lemon Grove,CA,91945,United States,619-462-7022,,,,,,
Econo Lodge,,11976 Mariposa Rd,,Hesperia,CA,92345,United States,760-949-1515,,,,,,
Econo Lodge Near LAX,,4123 W Century Blvd,,Inglewood,CA,90304,United States,310-672-7285,,,,,,
Econo Lodge,,49713 Gorman Post Rd,,Gorman,CA,93243,United States,661-248-6411,,,,,,
Econo Lodge,,1437 E Colorado St,,Glendale,CA,91205,United States,818-246-8367,,,,,,
Econo Lodge,,445 North Parkway Drive,,Fresno,CA,93706,United States,559-485-5019,,,,,,
Econo Lodge,,17133 Valley Blvd,,Fontana,CA,92335,United States,909-822-5411,,,,,,
Econo Lodge Inn and Suites,,1608 South Mission Road,,Fallbrook,CA,92028,United States,760-723-1127,,,,,,
Econo Lodge,,515 West Washington,,Escondido,CA,92025,United States,760-743-1443,,,,,,
Econo Lodge,,1349 West Texas Street,,Fairfield,CA,94533,United States,707-425-6465,,,,,,
Econo Lodge,,1630 Fourth St,,Eureka,CA,95501,United States,707-443-8041,,,,,,
Econo Lodge,,"588 N Mollison Avenue, I-8 Exit Mollison Avenue",,El Cajon,CA,92021,United States,619-873-0446,,,,,,
Econo Lodge,,410 N Coast Hwy 101,,Encinitas,CA,92024,United States,760-436-4999,,,,,,
Econo Lodge,,725 US Hwy 101 North,,Crescent City,CA,95531,United States,707-464-6106,,,,,,
Econo Lodge,,221 D St,,Davis,CA,95616,United States,530-756-1040,,,,,,
Econo Lodge,,3475 Hwy 99 West I 5,,Corning,CA,96021,United States,530-824-2000,,,,,,
Econo Lodge Near Home Depot Center,,1325 E Carson St,,Carson,CA,90745,United States,310-830-8044,,,,,,
Econo Lodge,,3928 E Castro Valley Blvd,,Castro Valley,CA,94552,United States,510-537-8833,,,,,,
Econo Lodge Inn and Suites Near Legoland,,3666 Pio Pico Drive,,Carlsbad,CA,92008,United States,760-729-4941,,,,,,
Econo Lodge Inn and Suites,,20688 Tracy Avenue,,Buttonwillow,CA,93206,United States,661-764-5207,,,,,,
Econo Lodge,,1230 E Main St,,Barstow,CA,92311,United States,760-256-2133,,,,,,
Econo Lodge North,,2691 West La Palma Avenue,,Anaheim,CA,92801,United States,714-826-8100,,,,,,
Econo Lodge West,,77 South Radnor Dr,,Pueblo West,CO,81007-2841,United States,719-547-9400,,,,,,
Econo Lodge,,4615 N Elizabeth St,,Pueblo,CO,81008,United States,719-542-9933,,,,,,
Econo Lodge,,315 Navajo Trail Drive,,Pagosa Springs,CO,81147,United States,970-731-2701,,,,,,
Econo Lodge Inn and Suites,,781 Burning Mountain Avenue,,New Castle,CO,81647,United States,970-984-2363,,,,,,
Econo Lodge,,985 Hwy 24 I 70 amp US 24,,Limon,CO,80828,United States,719-775-2867,,,,,,
Econo Lodge,,1040 Big Thompson Avenue,,Estes Park,CO,80517,United States,970-586-5338,,,,,,
Econo Lodge,,751 Horizon Drive,,Grand Junction,CO,81506,United States,970-257-1140,,,,,,
Econo Lodge,,2020 E Main St,,Cortez,CO,81321,United States,970-565-3474,,,,,,
Econo Lodge Inn and Suites,,2002 Main Avenue,,Durango,CO,81301,United States,970-247-4242,,,,,,
Econo Lodge North Academy,,1075 Kelly Johnson Blvd,,Colorado Springs,CO,80920,United States,719-260-6969,,,,,,
Econo Lodge Downtown,,714 N Nevada Ave,,Colorado Springs,CO,80903,United States,719-636-3385,,,,,,
Econo Lodge Airport,,6715 Panamint Ct,,Colorado Springs,CO,80915,United States,719-638-5800,,,,,,
Econo Lodge,,311 Royal Gorge Blvd,,Canon City,CO,81212,United States,719-276-6900,,,,,,
Econo Lodge,,15 5th Street,,Calhan,CO,80808,United States,719-347-9589,,,,,,
Sleep Inn Denver International Airport,,15900 E 40th Ave,,Aurora,CO,80011,United States,303-373-1616,,,,,,
Econo Lodge,,1208 N Colorado Ave,,Brush,CO,80723,United States,970-842-5146,,,,,,
Econo Lodge,,469 Westport Avenue,,Norwalk,CT,6851,United States,203-847-5827,,,,,,
Econo Lodge Inn and Suites,,1750 Boston Post Road,,Old Saybrook,CT,6475,United States,860-399-7973,,,,,,
Econo Lodge,,251 Greenmanville Avenue,,Mystic,CT,6355,United States,860-536-9666,,,,,,
Econo Lodge,,1845 Meriden Waterbury Road,,Milldale,CT,6467,United States,860-621-9181,,,,,,
Econo Lodge Inn and Suites,,605 Gold Star Highway,,Groton,CT,6340,United States,860-445-1986,,,,,,
Econo Lodge and Suites Resort,,19540 Coastal Highway,,Rehoboth Beach,DE,19971,United States,302-227-0500,,,,,,
Econo Lodge,,490 Main Street,,East Hartford,CT,6108,United States,860-569-1100,,,,,,
Econo Lodge Airport,,232 S Dupont Hwy Rt 13 amp 40 split,,New Castle,DE,19720,United States,302-322-4500,,,,,,
Econo Lodge,,27615 SR 54 West,,Wesley Chapel,FL,33543,United States,813-907-1379,,,,,,
Comfort Inn Airport at RJ Stadium,,4732 N Dale Mabry,,Tampa,FL,33614,United States,813-874-6700,,,,,,
Econo Lodge North,,2681 N Monroe St,,Tallahassee,FL,32303,United States,850-385-6155,,,,,,
Econo Lodge,,809 Apalachee Parkway,,Tallahassee,FL,32301,United States,850-877-2755,,,,,,
Econo Lodge,,2220 US 19 South,,Perry,FL,32348,United States,850-584-6231,,,,,,
Econo Lodge,,4411 W US 98,,Panama City,FL,32401,United States,850-785-2700,,,,,,
Econo Lodge Inn & Suites,,8001 Lavelle Way,,Pensacola,FL,32526,United States,850-941-8902,,,,,,
Econo Lodge,,1614 North US 1,,Ormond Beach,FL,32174,United States,386-615-1280,,,,,,
Econo Lodge International Drive at Universal,,7102 International Drive,,Orlando,FL,32819,United States,407-313-1090,,,,,,
Econo odge Inn and Suites Near Florida Mall,,8700 S Orange Blossom Trail,,Orlando,FL,32809,United States,407-996-4600,,,,,,
Econo Lodge,,370 Highland St,,West Haven,CT,6516,United States,203-934-6611,,,,,,
Clarion Hotel Port Canaveral Area,,260 E Merritt Island Cswy SR 520,,Merritt Island,FL,32952,United States,321-452-7711,,,,,,
Econo Lodge,,151 Woodlawn Rd,,Macclenny,FL,32063,United States,904-259-3000,,,,,,
Econo Lodge,,6811 N US 129 amp I 10,,Live Oak,FL,32060,United States,386-362-7459,,,,,,
Econo Lodge Inn and Suites Maingate Central,,4669 West Irlo Bronson Hwy,,Kissimmee,FL,34746,United States,407-396-1890,,,,,,
Econo Lodge North,,178 SW Florida Gateway Dr,,Lake City,FL,32024,United States,386-752-7891,,,,,,
Econo Lodge,,2934 Polynesian Isle Blvd,,Kissimmee,FL,34746,United States,407-787-4100,,,,,,
Econo Lodge,,5624 Cagle Road,,Jacksonville,FL,32216,United States,904-737-8000,,,,,,
Econo Lodge,,10901 Harts Rd,,Jacksonville,FL,32218,United States,904-751-3888,,,,,,
Econo Lodge,,1725 Taft St,,Hollywood,FL,33020,United States,954-920-3001,,,,,,
Econo Lodge University,,2649 S W 13th St,,Gainesville,FL,32608,United States,352-373-7816,,,,,,
Econo Lodge North,,13301 N Cleveland,,Fort Myers,FL,33903,United States,239-995-0571,,,,,,
Econo Lodge,,3236 S US 1,,Fort Pierce,FL,34982,United States,772-461-2323,,,,,,
Econo Lodge,,553 NE First Ave,,Florida City,FL,33034,United States,305-248-9300,,,,,,
Econo Lodge,,326 Green Acres Drive,,DeFuniak Springs,FL,32435,United States,850-951-2210,,,,,,
Econo Lodge,,1601 S. Atlantic Ave,,Daytona Beach,FL,32118,United States,386-255-2221,,,,,,
Econo Lodge,,2616 Gamble Road,,Monticello,FL,32344,United States,850-997-0020,,,,,,
Econo Lodge,,2575 N US 19,,Crystal River,FL,34428,United States,352-795-9447,,,,,,
Econo Lodge,,3185 North Atlantic Avenue,,Cocoa Beach,FL,32931,United States,321-783-0500,,,,,,
Econo Lodge,,3101 S Ferdon Blvd,,Crestview,FL,32536,United States,850-682-6255,,,,,,
Econo Lodge Sebring,,2511 US 27 S,,Avon Park,FL,33825,United States,863-453-2000,,,,,,
Quality Inn Mayport,,2401 Mayport Rd A1A,,Atlantic Beach,FL,32233,United States,904-249-0313,,,,,,
Econo Lodge,,15920 Northwest US Hwy 441,,Alachua,FL,32615,United States,386-462-2414,,,,,,
Econo Lodge Stone Mountain,,1820 Mountain Ind Blvd,,Tucker,GA,30084,United States,770-939-8440,,,,,,
Econo Lodge,,7410 Oakley Rd,,Union City,GA,30291,United States,770-964-9999,,,,,,
Econo Lodge,,1025 West 2nd St,,Tifton,GA,31794,United States,229-382-0280,,,,,,
Econo Lodge,,130 N Seymour Dr,,Thomson,GA,30824,United States,706-595-7144,,,,,,
Econo Lodge,,15130 US HWY 19 South,,Thomasville,GA,31757,United States,229-584-0909,,,,,,
Econo Lodge,,1207 Highway 19 North,,Thomaston,GA,30286,United States,706-648-2900,,,,,,
Econo Lodge,,7395 Davidson Circle East,,Stockbridge,GA,30281,United States,770-756-9668,,,,,,
Econo Lodge Midtown,,7500 Abercorn Street,,Savannah,GA,31406,United States,912-352-1657,,,,,,
Econo Lodge Savannah South,,3 Gateway Blvd S I 95 amp 204 ex 94,,Savannah,GA,31419,United States,912-925-2770,,,,,,
Econo Lodge,,4701 US 17 S Exit 87,,Richmond Hill,GA,31324-0047,United States,912-756-3312,,,,,,
Econo Lodge Inn and Suites,,2022 Etowah Drive,,Rockmart,GA,30153,United States,678-757-1107,,,,,,
Econo Lodge,,390 Dodd Boulevard SE,,Rome,GA,30161,United States,706-234-0014,,,,,,
Econo Lodge,,500 E US 80,,Pooler,GA,31322-2104,United States,912-748-4124,,,,,,
Econo Lodge,,102 Valley Dr,,Perry,GA,31069,United States,478-987-2142,,,,,,
Econo Lodge,,1300 Veterans Parkway,,Moultrie,GA,31788,United States,229-890-8652,,,,,,
Econo Lodge,,3001 Heritage Road,,Milledgeville,GA,31061,United States,478-453-3551,,,,,,
Econo Lodge Inn & Suites,,639 Franklin Road SE,,Marietta,GA,30067-7801,United States,678-355-5050,,,,,,
Econo Lodge,,1279 Hwy 20 W,,Mcdonough,GA,30253,United States,770-957-2651,,,,,,
Comfort Inn,,1972 Eatonton Rd,,Madison,GA,30650,United States,706-342-0054,,,,,,
Econo Lodge Inn and Suites,,4709 Chambers Road,,Macon,GA,31206,United States,478-781-6680,,,,,,
Econo Lodge,,1990 Riverside Dr,,Macon,GA,31201,United States,478-746-6221,,,,,,
Econo Lodge Cumberland,,1135 E King Ave,,Kingsland,GA,31548,United States,912-673-7336,,,,,,
Econo Lodge,,340 Upper Riverdale Rd,,Jonesboro,GA,30236,United States,770-991-0069,,,,,,
Econo Lodge,,101 Edelweiss Strasse,,Helen,GA,30545,United States,706-878-8000,,,,,,
Econo Lodge,,726 East Oglethorpe Hwy Hwy 84,,Hinesville,GA,31313,United States,912-368-2275,,,,,,
Econo Lodge Forsyth,,320 Cabiness Road,,Forsyth,GA,31029,United States,478-994-5603,,,,,,
Econo Lodge,,2120 Lafayette Road,,Fort Oglethorpe,GA,30742-3792,United States,706-866-0222,,,,,,
Econo Lodge Atlanta Airport East,,5060 Frontage Rd,,Forest Park,GA,30297,United States,404-363-6429,,,,,,
Econo Lodge,,8304 Cherokee Boulevard,,Douglasville,GA,30134-2535,United States,770-489-4863,,,,,,
Econo Lodge,,4600 Glenwood Rd.,,Decatur,GA,30035,United States,404-289-4940,,,,,,
Econo Lodge,,1507 N Tibbs Road,,Dalton,GA,30720,United States,706-226-9579,,,,,,
Econo Lodge Inn and Suites at Ft Benning,,4483 Victory Dr,,Columbus,GA,31903,United States,706-682-3803,,,,,,
Econo Lodge Inn and Suites Historic District,,1024 1034 Veterans Parkway,,Columbus,GA,31901,United States,706-320-0007,,,,,,
Econo Lodge,,4874 Old National Highway,,College Park,GA,30337,United States,404-768-1241,,,,,,
Econo Lodge Cartersville,,41 SR 20 Spur SE,,Cartersville,GA,30121,United States,770-382-8881,,,,,,
Econo Lodge Inn and Suites,,160 Centennial Drive,,Carrollton,GA,30116,United States,770-832-2611,,,,,,
Econo Lodge Inn & Suites,,138 Keith Dr,,Canton,GA,30114,United States,770-345-1994,,,,,,
Econo Lodge,,915 Hwy 53 East SE,,Calhoun,GA,30701,United States,706-629-9501,,,,,,
Econo Lodge,,12003 Watson Blvd,,Byron,GA,31008,United States,478-956-2800,,,,,,
Econo Lodge,,515 Old Macon Rd,,Byron,GA,31008,United States,478-956-5600,,,,,,
Econo Lodge,,171 Palisade Drive,,Brunswick,GA,31523,United States,912-554-0455,,,,,,
Econo Lodge,,2300 Perry Lane Road,,Brunswick,GA,31525,United States,912-264-8666,,,,,,
Econo Lodge At Six Flags,,200 Six Flags Pkwy,,Austell,GA,30168,United States,770-941-2255,,,,,,
Econo Lodge Downtown,,1103 15th Street,,Augusta,GA,30901,United States,706-724-5560,,,,,,
Econo Lodge Inn and Suites,,1806 E Oglethorpe Blvd,,Albany,GA,31705,United States,229-883-5544,,,,,,
Econo Lodge,,1360 Virginia Ave,,Atlanta,GA,30344,United States,404-761-5201,,,,,,
Econo Lodge,,4980 Cowan Rd,,Acworth,GA,30101,United States,770-974-1922,,,,,,
Econo Lodge,,3140 Moreland Ave,,Conley,GA,30288,United States,404-363-6960,,,,,,
Econo Lodge,,1021 Main Street,,Lewiston,ID,83501,United States,208-743-0899,,,,,,
Econo Lodge,,19755 NE Frontage Rd,,Shorewood,IL,60404,United States,815-927-2850,,,,,,
Econo Lodge Inn and Suites,,4244 Brandywine Drive,,Peoria,IL,61614,United States,309-682-3322,,,,,,
Econo Lodge,,2200 N Main St,,Princeton,IL,61356,United States,815-872-3300,,,,,,
Econo Lodge,,510 E Etna Rd,,Ottawa,IL,61350,United States,815-433-9600,,,,,,
Econo Lodge,,1806 Bittle Place,,Marion,IL,62959,United States,618-993-1644,,,,,,
Econo Lodge Inn and Suites,,1900 North Mannheim Rd,,Melrose Park,IL,60160,United States,708-681-3100,,,,,,
Comfort Inn,,2811 Woodlawn Rd,,Lincoln,IL,62656,United States,217-735-3960,,,,,,
Econo Lodge and Suites,,1731 South SR 127,,Greenville,IL,62246,United States,618-664-3030,,,,,,
Econo Lodge,,1412 W Fayette Ave,,Effingham,IL,62401,United States,217-342-9271,,,,,,
Econo Lodge Inn and Suites,,801 East Main Street,,Carbondale,IL,62901,United States,618-457-3347,,,,,,
Econo Lodge,,2030 Northgate Drive,,West Lafayette,IN,47906,United States,765-567-7100,,,,,,
Econo Lodge,,600 Old Wheatland Rd Bldg A,,Vincennes,IN,47591,United States,812-882-1479,,,,,,
Econo Lodge Fort Gordon,,2051 Gordon Hwy,,Augusta,GA,30909,United States,706-738-6565,,,,,,
Econo Lodge,,68 E Rampart Road,,Shelbyville,IN,46176,United States,317-398-0472,,,,,,
Econo Lodge,,1659 East US Hwy 36,,Rockville,IN,47872,United States,765-569-3430,,,,,,
Econo Lodge,,419 Commerce Drive,,Richmond,IN,47374,United States,765-966-6682,,,,,,
Econo Lodge,,1245 W State Rd 32,,Lebanon,IN,46052,United States,765-482-9611,,,,,,
Econo Lodge and Suites,,3240 N Vandever Ave,,Pekin,IL,61554,United States,309-353-4047,,,,,,
Clarion Inn and Suites,,4320 IN 26,,Lafayette,IN,47905,United States,765-447-4142,,,,,,
Econo Lodge Inn and Suites,,3236 W Chain of Rocks Road,,Granite City,IL,62040,United States,618-797-9835,,,,,,
Sleep Inn,,75 Indiana St,,Jasper,IN,47546,United States,812-481-2008,,,,,,
Econo Lodge,,5707 Challenger Parkway,,Fort Wayne,IN,46818,United States,260-489-8888,,,,,,
Econo Lodge Inn and Suites,,1930 Cross Pointe Boulevard,,Evansville,IN,47715,United States,812-471-9340,,,,,,
Econo Lodge,,2508 Hwy 41 North,,Evansville,IN,47711,United States,812-425-1092,,,,,,
Econo Lodge,,1302 South 13th Street,,Decatur,IN,46733,United States,260-724-8888,,,,,,
Econo Lodge,,3440 Cassopolis St,,Elkhart,IN,46514-5712,United States,574-262-0540,,,,,,
Econo Lodge,,1010 N Main St,,Cloverdale,IN,46120,United States,765-795-6900,,,,,,
Econo Lodge,,713 Plaza Dr,,Chesterton,IN,46304,United States,219-929-4416,,,,,,
Econo Lodge Inn and Suites,,1405 W 19th Street South,,Newton,IA,50208,United States,641-792-8100,,,,,,
Econo Lodge,,220 Commerce Dr,,Seymour,IN,47274-4069,United States,812-522-8000,,,,,,
Econo Lodge,,1201 Hawkeye Ave,,Le Mars,IA,51031,United States,712-546-8800,,,,,,
Econo Lodge Inn and Suites,,4755 Merle Hay Rd,,Des Moines,IA,50322,United States,515-278-8858,,,,,,
Econo Lodge Inn and Suites,,2090 South Park Court,,Dubuque,IA,52003,United States,563-556-6555,,,,,,
Econo Lodge Inn and Suites Fairgrounds,,410 E 30th Street,,Des Moines,IA,50317,United States,515-262-2525,,,,,,
Econo Lodge,,6201 Opportunity Lane,,Merrillville,IN,46410,United States,219-942-8555,,,,,,
Econo Lodge,,622 33rd Ave S W,,Cedar Rapids,IA,52404,United States,319-363-8888,,,,,,
Econo Lodge Inn and Suites,,815 Golden Valley Drive,,Bettendorf,IA,52722,United States,563-355-6336,,,,,,
Econo Lodge,,1710 Main Street,,Winfield,KS,67156,United States,620-221-9050,,,,,,
Econo Lodge,,2600 SE 16th Street,,Ames,IA,50010,United States,515-233-6060,,,,,,
Econo Lodge,,705 South 2nd Street,,Wakeeney,KS,67672,United States,785-743-5505,,,,,,
Econo Lodge,,2950 SW Topeka Blvd,,Topeka,KS,66611,United States,785-267-1681,,,,,,
Rodeway Inn Salina,,1846 North 9th Street,,Salina,KS,67401,United States,785-827-0356,,,,,,
Econo Lodge Inn and Suites I 35 at Shawnee Mission,,7508 Shawnee Mission Pkwy,,Overland Park,KS,66202,United States,913-262-9600,,,,,,
Econo Lodge,,504 N Main St,,Lansing,KS,66043,United States,913-727-2777,,,,,,
Econo Lodge,,211 W Flint Hills Blvd,,Junction City,KS,66441,United States,785-238-8181,,,,,,
Econo Lodge,,3503 Vine Street,,Hays,KS,67601,United States,785-625-4839,,,,,,
Econo Lodge,,2511 W 18th Avenue,,Emporia,KS,66801,United States,620-343-7750,,,,,,
