store_name,store_number,address,address2,city,state,zip_code,country,phone_number,latitude,longitude,store_hours,store_type,other_fields,coming_soon
Hilton Garden Inn Addison,,551 North Swift Road,,Addison,IL,60101,USA,+1-630-691-0500,41.9365,-88.0394,,,,
Hilton Garden Inn Akron,,1307 E. Market Street,,Akron,OH,44305,USA,+1-330-733-2900,41.06506,-81.48016,,,,
Hilton Garden Inn Akron-Canton Airport,,5251 Landmark Boulevard,,North Canton,OH,44720,USA,+1-330-966-4907,40.9142,-81.4293,,,,
Hilton Garden Inn Ames,,1325 Dickinson Ave,,Ames,IA,50014,USA,+1-515-233-8000,42.0135,-93.6813,,,,
Hilton Garden Inn Ann Arbor,,1401 Briarwood Circle,,Ann Arbor,MI,48108,USA,+1-734-327-6400,42.23871,-83.74974,,,,
Hilton Garden Inn Appleton/Kimberly,,720 Eisenhower Drive,,Kimberly,WI,54136,USA,+1-920-730-1900,44.2596,-88.3481,,,,
Hilton Garden Inn Benton Harbor / St. Joseph,,1300 Cinema Way,,Benton Harbor,MI,49022,USA,+1-269-9265000,42.07421,-86.42855,,,,
Hilton Garden Inn Bettendorf/Quad Cities,,959 Middle Road,,Bettendorf,IA,52722,USA,+1-563-2652121,41.53873,-90.51864,,,,
Hilton Garden Inn Bloomington,,245 North College Avenue,,Bloomington,IN,47403,USA,+1-812-331-1335,39.16803,-86.53492,,,,
Hilton Garden Inn Bolingbrook I-55,,135 Remington Blvd.,,Bolingbrook,IL,60440,USA,+1-630-771-1500,41.68652,-88.07007,,,,
Hilton Garden Inn Cedar Falls,,7213 Nordic Drive,,Cedar Falls,IA,50613,USA,+1-319-266-6611,42.4725,-92.4477,,,,
Hilton Garden Inn Champaign/ Urbana,,1501 S. Neil Street,,Champaign,IL,61820,USA,+1-217-352-9970,40.0992,-88.247,,,,
Hilton Garden Inn Chesterton,,501 Gateway Boulevard,,Chesterton,IN,46304,USA,+1-219-983-9500,41.5761,-87.0455,,,,
Hilton Garden Inn Chicago Downtown/Magnificent Mile,,10 E. Grand Avenue,,Chicago,IL,60611,USA,+1-312-595-0000,41.89202,-87.62751,,,,
Hilton Garden Inn Chicago North Shore/Evanston,,1818 Maple Avenue,,Evanston,IL,60201,USA,+1-847-475-6400,42.05051,-87.68481,,,,
Hilton Garden Inn Chicago OHare Airport,,2930 South River Road,,Des Plaines,IL,60018,USA,+1-847-296-8900,42.0013,-87.8641,,,,
Hilton Garden Inn Chicago/Midway Airport,,6530 S. Cicero Avenue,,Bedford Park,IL,60638,USA,+1-708-496-2700,41.7739,-87.7423,,,,
Hilton Garden Inn Chicago/North Loop,,66 East Wacker Place,,Chicago,IL,60601,USA,+1-312-920-6666,41.88683,-87.62569,,,,
Hilton Garden Inn Chicago/Oakbrook Terrace,,1000 Drury Lane,,Oakbrook Terrace,IL,60181,USA,+1-630-941-1177,41.85952,-87.95168,,,,
Hilton Garden Inn Chicago/Tinley Park,,18335 LaGrange Rd,,Tinley Park,IL,60487,USA,+1-708-429-2266,41.5589,-87.8521,,,,
Hilton Garden Inn Cincinnati Blue Ash,,5300 Cornell Road,,Blue Ash,OH,45242,USA,+1-513-469-6900,39.2695,-84.3701,,,,
Hilton Garden Inn Cincinnati Northeast,,6288 Tri Ridge Blvd,,Loveland,OH,45140,USA,+1-513-576-6999,39.2254,-84.2834,,,,
Hilton Garden Inn Cincinnati/Mason,,5200 Natorp Blvd,,Mason,OH,45040,USA,+1-513-204-6000,39.3007,-84.318,,,,
Hilton Garden Inn Cincinnati/Sharonville,,11149 Dowlin Drive,,Sharonville,OH,45241,USA,+1-513-772-2837,39.27309,-84.43897,,,,
Hilton Garden Inn Cincinnati/West Chester,,9306 Schulze Drive,,West Chester,OH,45069,USA,+1-513-860-3170,39.321,-84.42933,,,,
Hilton Garden Inn Cleveland Airport,,4900 Emerald Court S.W.,,Cleveland,OH,44135,USA,+1-216-898-1898,41.42667,-81.84522,,,,
Hilton Garden Inn Cleveland Downtown,,1100 Carnegie Avenue,,Cleveland,OH,44115,USA,+1-216-658-6400,41.4961,-81.6814,,,,
Hilton Garden Inn Cleveland East/Mayfield Village,,700 Beta Drive,,Cleveland,OH,44143,USA,+1-440-646-1777,41.5433,-81.4462,,,,
Hilton Garden Inn Cleveland/Twinsburg,,8971 Wilcox Dr.  (I-480 @SR82),,Twinsburg,OH,44087,USA,+1-330-405-4488,41.31237,-81.45419,,,,
Hilton Garden Inn Columbia,,3300 Vandiver Drive,,Columbia,MO,65202,USA,+1-573-814-5464,38.975,-92.29,,,,
Hilton Garden Inn Columbus Airport,,4265 Sawyer Road,,Columbus,OH,43219,USA,+1-614-231-2869,39.9997,-82.8929,,,,
Hilton Garden Inn Columbus-University Area,,3232 Olentangy River Road,,Columbus,OH,43202,USA,+1-614-263-7200,40.0255,-83.0259,,,,
Hilton Garden Inn Columbus/Dublin,,500 Metro Place North,,Dublin,OH,43017,USA,+1-614-766-9900,40.0967,-83.1295,,,,
Hilton Garden Inn Columbus/Edinburgh,,12210 N Executive Dr,,Edinburgh,IN,46124,USA,+1-812-526-8600,39.3112,-85.9595,,,,
Hilton Garden Inn Columbus/Grove City,,3928 Jackpot Rd.,,Grove City,OH,43123,USA,+1-614-539-8944,39.88224,-83.04252,,,,
Hilton Garden Inn Columbus/Polaris,,8535 Lyra Drive,,Columbus,OH,43240,USA,+1-614-846-8884,40.1402,-82.9759,,,,
Hilton Garden Inn Dayton Beavercreek,,3520 Pentagon Park Blvd,,Dayton,OH,45431,USA,+1-937-458-2650,39.7729,-84.0614,,,,
Hilton Garden Inn Dayton South-Austin Landing,,12000 Innovation Drive,,Miamisburg,OH,45342,USA,+1-937-247-5850,39.59822,-84.23091,,,,
Hilton Garden Inn  Asheville Downtown,,309 College Street,,Asheville,NC,28801,USA,+1-828-255-0001,35.59695,-82.54638,,,,
Hilton Garden Inn Abilene,,4449 Ridgemont Drive,,Abilene,TX,79606,USA,+1-325-690-6432,32.39616,-99.76438,,,,
Hilton Garden Inn Aiken,,350 Eastgate Drive,,Aiken,SC,29803,USA,+1-803-641-4220,33.5082,-81.7175,,,,
Hilton Garden Inn Albany,,101 S Front Street,,Albany,GA,31701,USA,+1-229-888-1590,31.57623,-84.14973,,,,
Hilton Garden Inn Alexandria Old Town King St. Metro,,1620 Prince Street,,Alexandria,VA,22314,USA,+1-703-302-8300,38.80515,-77.05824,,,,
Hilton Garden Inn Amarillo,,9000 Interstate 40 West,,Amarillo,TX,79124,USA,+1-806-355-4400,35.1876,-101.9418,,,,
Hilton Garden Inn Anderson,,115 Destination Boulevard,,Anderson,SC,29621,USA,+1-864-964-0100,34.57269,-82.70713,,,,
Hilton Garden Inn Ardmore,,710 Premier Pkwy,,Ardmore,OK,73401,USA,+1-580-226-2223,34.18659,-97.16304,,,,
Hilton Garden Inn Arlington Shirlington,,4271 Campbell Avenue,,Arlington,VA,22206,USA,+1-703-820-0440,38.8408,-77.0889,,,,
Hilton Garden Inn Arlington/Courthouse Plaza,,1333 North Courthouse Road,,Arlington,VA,22201,USA,+1-703-528-4444,38.88894,-77.08341,,,,
Hilton Garden Inn Des Moines/Urbandale,,8600 Northpark Drive,,Johnston,IA,50131,USA,+1-515-270-8890,41.65338,-93.73919,,,,
Hilton Garden Inn Detroit Downtown,,351 Gratiot Avenue,,Detroit,MI,48226,USA,+1-313-967-0900,42.33547,-83.04498,,,,
Hilton Garden Inn Detroit Metro Airport,,31800 Smith Road,,Romulus,MI,48174,USA,+1-734-727-6000,42.2453,-83.34828,,,,
Hilton Garden Inn Detroit Troy,,200 Wilshire Drive,,Troy,MI,48084,USA,+1-248-247-7280,42.56447,-83.16177,,,,
"Hilton Garden Inn Detroit-Southfield, MI.",,26000 American Drive,,Southfield,MI,48034,USA,+1-248-357-1100,42.49251,-83.29923,,,,
Hilton Garden Inn Detroit/Novi,,27355 Cabaret Drive,,Novi,MI,48377,USA,+1-248-348-3840,42.49148,-83.48763,,,,
Hilton Garden Inn Dubuque Downtown,,1801 Greyhound Park Drive,,Dubuque,IA,52001,USA,+1-563-585-5200,42.51658,-90.64555,,,,
Hilton Garden Inn Elkhart,,3401 Plaza Court,,Elkhart,IN,46514,USA,+1-574-970-4444,41.73706,-85.97645,,,,
Hilton Garden Inn Evansville,,220 Eagle Crest Drive,,Evansville,IN,47715,USA,+1-812-476-4000,37.97464,-87.45647,,,,
Hilton Garden Inn Fargo,,4351 17th Ave S.,,Fargo,ND,58103,USA,+1-701-499-6000,46.8552,-96.8551,,,,
Hilton Garden Inn Findlay,,1050 Interstate Drive West,,Findlay,OH,45840,USA,+1-567-250-2525,41.06417,-83.6699,,,,
Hilton Garden Inn Fort Wayne,,8615 US 24 West,,Fort Wayne,IN,46804,USA,+1-260-435-1777,41.0326,-85.2552,,,,
Hilton Garden Inn Grand Forks-UND,,4301 James Ray Drive,,Grand Forks,ND,58203,USA,+1-701-775-6000,47.91986,-97.0912,,,,
Hilton Garden Inn Grand Rapids East,,2321 East Beltline Ave SE,,Grand Rapids,MI,49546,USA,+1-616-608-8800,42.92185,-85.58484,,,,
Hilton Garden Inn Green Bay,,1015 Lombardi Avenue,,Green Bay,WI,54304,USA,+1-920-405-0400,44.49888,-88.05126,,,,
Hilton Garden Inn Hoffman Estates,,2425 Barrington Road,,Hoffman Estates,IL,60195,USA,+1-847-277-7889,42.0687,-88.1426,,,,
Hilton Garden Inn Independence,,19677 East Jackson Drive,,Independence,MO,64057,USA,+1-816-350-3000,39.04124,-94.34826,,,,
Hilton Garden Inn Athens Downtown,,390 East Washington Street,,Athens,GA,30601,USA,+1-706-353-6800,33.9594,-83.37372,,,,
Hilton Garden Inn Atlanta Airport North,,3437 Bobby Brown Parkway,,Atlanta,GA,30344,USA,+1-404-477-6600,33.6619,-84.4303,,,,
Hilton Garden Inn Atlanta Airport/Millenium Center,,2301 Sullivan Road,,College Park,GA,30337,USA,+1-404-766-0303,33.62484,-84.46391,,,,
Hilton Garden Inn Atlanta Downtown,,275 Baker Street,,Atlanta,GA,30313,USA,+1-404-577-2001,33.76173,-84.39559,,,,
Hilton Garden Inn Atlanta East/Stonecrest,,7890 Mall Ring Road,,Lithonia,GA,30038,USA,+1-678-526-1000,33.6988,-84.0921,,,,
Hilton Garden Inn Atlanta Midtown,,97 10th Street NW,,Atlanta,GA,30309,USA,+1-404-524-4006,33.78196,-84.39029,,,,
Hilton Garden Inn Atlanta NE/Gwinnett Sugarloaf,,2040 Sugarloaf Circle,,Duluth,GA,30097,USA,+1-770-495-7600,33.986,-84.0884,,,,
Hilton Garden Inn Atlanta NW/Kennesaw Town Center,,895 Cobb Place Boulevard,,Kennesaw,GA,30144,USA,+1-678-322-1140,34.01148,-84.57671,,,,
Hilton Garden Inn Atlanta NW/Wildwood,,3045 Windy Hill Road,,Atlanta,GA,30339,USA,+1-770-953-8850,33.90683,-84.46396,,,,
Hilton Garden Inn Atlanta North/Alpharetta,,4025 Windward Plaza,,Alpharetta,GA,30005,USA,+1-770-360-7766,34.09275,-84.24004,,,,
Hilton Garden Inn Atlanta North/Johns Creek,,11695 Medlock Bridge Road,,Johns Creek,GA,30097,USA,+1-770-476-1966,34.06486,-84.16793,,,,
Hilton Garden Inn Atlanta Northpoint,,10975 Georgia Lane,,Alpharetta,GA,30022,USA,+1-678-566-3900,34.04724,-84.28403,,,,
Hilton Garden Inn Atlanta Perimeter Center,,1501  Lake Hearn Drive,,Atlanta,GA,30319,USA,+1-404-459-0500,33.91617,-84.33924,,,,
Hilton Garden Inn Atlanta South-McDonough,,95 Highway 81 West,,McDonough,GA,30253,USA,+1-678-827-7200,33.4266,-84.1854,,,,
Hilton Garden Inn Atlanta West/Lithia Springs,,110 Interstate West Parkway,,Lithia Springs,GA,30122,USA,+1-770-949-8980,33.769,-84.6,,,,
Hilton Garden Inn Atlanta/Peachtree City,,2010 North Commerce Drive,,Peachtree City,GA,30269,USA,+1-678-827-8400,33.4045,-84.5981,,,,
Hilton Garden Inn Auburn/Opelika,,2555 Hilton Garden Drive,,Auburn,AL,36830,USA,+1-334-502-3500,32.6067,-85.4314,,,,
Hilton Garden Inn Augusta,,1065 Stevens Creek Road,,Augusta,GA,30907,USA,+1-706-739-9990,33.51409,-82.04386,,,,
Hilton Garden Inn Austin Airport,,7610 John Glenn Way,,Austin,TX,78741,USA,+1-512-386-7474,30.22183,-97.68838,,,,
Hilton Garden Inn Indianapolis Airport,,8910 Hatfield Dr.,,Indianapolis,IN,46241,USA,+1-317-856-9100,39.6795,-86.3223,,,,
Hilton Garden Inn Indianapolis Downtown,,10 East Market Street,,Indianapolis,IN,46204,USA,+1-317-955-9700,39.7686,-86.15658,,,,
Hilton Garden Inn Indianapolis Northeast/Fishers,,9785 North by Northeast Blvd,,Fishers,IN,46037,USA,+1-317-577-5900,39.93044,-86.02357,,,,
Hilton Garden Inn Indianapolis Northwest,,6930 Intech Blvd,,Indianapolis,IN,46278,USA,+1-317-288-6060,39.8791,-86.2741,,,,
Hilton Garden Inn Indianapolis South/Greenwood,,5255 Noggle Way,,Indianapolis,IN,46237,USA,+1-317-888-4814,39.6384,-86.0779,,,,
Hilton Garden Inn Indianapolis/Carmel,,13090 Pennsylvania Street,,Carmel,IN,46032,USA,+1-317-581-9400,39.97775,-86.15537,,,,
Hilton Garden Inn Iowa City Downtown University,,328 S. Clinton St.,,Iowa City,IA,52240,USA,+1-319-248-6100,41.65721,-91.53437,,,,
Hilton Garden Inn Joplin,,2644 East 32nd Street,,Joplin,MO,64804,USA,+1-417-206-6700,37.05366,-94.48462,,,,
Hilton Garden Inn Kankakee,,455 Riverstone Parkway,,Kankakee,IL,60901,USA,+1-815-932-4444,41.0789,-87.8659,,,,
Hilton Garden Inn Kansas City/Kansas,,520 Minnesota Avenue,,Kansas City,KS,66101,USA,+1-913-342-7900,39.11559,-94.62186,,,,
Hilton Garden Inn Lake Forest Mettawa,,26225 North Riverwoods Boulevard,,Lake Forest,IL,60045,USA,+1-847-735-8374,42.2429,-87.9031,,,,
Hilton Garden Inn Lincoln Downtown/Haymarket,,801 R Street,,Lincoln,NE,68508,USA,+1-402-4759000,40.817,-96.70998,,,,
Hilton Garden Inn Madison West/Middleton,,1801 Deming Way,,Middleton,WI,53562,USA,+1-608-831-2220,43.09314,-89.52527,,,,
Hilton Garden Inn Manhattan,,410 South 3rd Street,,Manhattan,KS,66502,USA,+1-785-532-9116,39.17596,-96.56035,,,,
Hilton Garden Inn Mankato Downtown,,20 Civic Center Plaza,,Mankato,MN,56001,USA,+1-507-344-1111,44.1659,-94.0053,,,,
Hilton Garden Inn Merrillville,,7775 Mississippi St,,Merrillville,IN,46410,USA,+1-219-769-7100,41.47522,-87.31549,,,,
Hilton Garden Inn Milwaukee Airport,,5890 S. Howell Avenue,,Milwaukee,WI,53207,USA,+1-414-481-8280,42.9386,-87.9094,,,,
Hilton Garden Inn Milwaukee Downtown,,611 North Broadway,,Milwaukee,WI,53202,USA,+1-414-271-6611,43.03779,-87.90813,,,,
Hilton Garden Inn Austin Downtown/Convention Center,,500 N Interstate 35,,Austin,TX,78701,USA,+1-512-480-8181,30.26532,-97.73556,,,,
Hilton Garden Inn Austin NW/Arboretum,,11617 Research Boulevard,,Austin,TX,78759,USA,+1-512-241-1600,30.41526,-97.74422,,,,
Hilton Garden Inn Austin North,,12400 North IH-35 Building C,,Austin,TX,78753,USA,+1-512-339-3626,30.40812,-97.67773,,,,
Hilton Garden Inn Austin/Round Rock,,2310 North IH35,,Round Rock,TX,78681,USA,+1-512-341-8200,30.5276,-97.6911,,,,
Hilton Garden Inn Bartlesville,,205 SW Frank Phillips Blvd.,,Bartlesville,OK,74003,USA,+1-918-336-0808,36.75111,-95.97909,,,,
Hilton Garden Inn Baton Rouge Airport,,3330 Harding Boulevard,,Baton Rouge,LA,70807,USA,+1-225-357-6177,30.52126,-91.15566,,,,
Hilton Garden Inn Beaufort,,1500 Queen Street,,Beaufort,SC,29902,USA,+1-843-379-9800,32.441,-80.6894,,,,
"Hilton Garden Inn Beaumont, TX",,3755 Interstate 10 S Access RD,,Beaumont,TX,77705,USA,+1-409-842-5646,30.04302,-94.15141,,,,
Hilton Garden Inn Bentonville,,2204 S.E. Walton Blvd,,Bentonville,AR,72712,USA,+1-479-464-7300,36.33474,-94.18774,,,,
Hilton Garden Inn Birmingham SE/Liberty Park,,2090 Urban Center Parkway,,Birmingham,AL,35242,USA,+1-205-503-5220,33.48212,-86.70236,,,,
Hilton Garden Inn Birmingham/Lakeshore Drive,,520 Wildwood Circle Drive North,,Birmingham,AL,35209,USA,+1-205-314-0274,33.4468,-86.8291,,,,
Hilton Garden Inn Birmingham/Trussville,,3230 Edwards Lake Parkway,,Birmingham,AL,35235,USA,+1-205-655-5222,33.599,-86.6465,,,,
Hilton Garden Inn Blacksburg,,900 Plantation Rd,,Blacksburg,VA,24060,USA,+1-540-552-5005,37.221,-80.4415,,,,
Hilton Garden Inn Boca Raton,,8201 Congress Avenue,,Boca Raton,FL,33487,USA,+1-561-988-6110,26.42125,-80.09308,,,,
Hilton Garden Inn Bowling Green,,1020 Wilkinson Trace,,Bowling Green,KY,42103,USA,+1-270-781-6778,36.96881,-86.43012,,,,
Hilton Garden Inn Bristol,,121 Village Circle,,Bristol,VA,24201,USA,+1-276-644-4000,36.63004,-82.11761,,,,
Hilton Garden Inn Cartersville,,24 Liberty Drive,,Cartersville,GA,30121,USA,+1-770-382-9787,34.1677,-84.7823,,,,
Hilton Garden Inn Charleston / Mt. Pleasant,,300 Wingo Way,,Mount Pleasant,SC,29464,USA,+1-843-606-4600,32.80477,-79.8948,,,,
Hilton Garden Inn Milwaukee Park Place,,11600 West Park Place,,Milwaukee,WI,53224,USA,+1-414-359-9823,43.15273,-88.05428,,,,
Hilton Garden Inn Minneapolis / Maple Grove,,6350 Vinewood Lane,,Maple Grove,MN,55311,USA,+1-763-509-9500,45.07034,-93.44978,,,,
Hilton Garden Inn Minneapolis Airport Mall of America,,1601 East American Blvd,,Bloomington,MN,55425,USA,+1-952-854-1687,44.85918,-93.25224,,,,
Hilton Garden Inn Minneapolis Downtown,,1101 4th Avenue South,,Minneapolis,MN,55404,USA,+1-612-339-6633,44.9707,-93.27,,,,
Hilton Garden Inn Minneapolis Eagan,,1975 Rahncliff Court,,Eagan,MN,55122,USA,+1-651-686-4605,44.78856,-93.20647,,,,
Hilton Garden Inn Minneapolis St. Paul-Shoreview,,1050 Gramsie Road,,Shoreview,MN,55126,USA,+1-651-415-1956,45.06054,-93.14452,,,,
Hilton Garden Inn Minneapolis/Bloomington,,5140 American Blvd West,,Bloomington,MN,55437,USA,+1-952-831-1012,44.857,-93.3479,,,,
Hilton Garden Inn Minneapolis/Eden Prairie,,6330 Point Chase,,Eden Prairie,MN,55344,USA,+1-952-995-9000,44.88992,-93.42047,,,,
Hilton Garden Inn Naperville/Warrenville,,28351 Dodge Drive,,Warrenville,IL,60555,USA,+1-630-393-3223,41.8013,-88.1747,,,,
Hilton Garden Inn Oconomowoc,,1443 Pabst Farm Circle,,Oconomowoc,WI,53066,USA,+1-262-200-2222,43.07417,-88.46656,,,,
Hilton Garden Inn Olathe,,12080 South Strang Line Road,,Olathe,KS,66062,USA,+1-913-815-2345,38.91128,-94.76971,,,,
Hilton Garden Inn Omaha Downtown/Old Market Area,,1005 Dodge Street,,Omaha,NE,68102,USA,+1-402-341-4400,41.25961,-95.92943,,,,
Hilton Garden Inn Omaha East/Council Bluffs,,2702 Mid America Drive,,Council Bluffs,IA,51501,USA,+1-712-309-9000,41.2407,-95.8839,,,,
Hilton Garden Inn Omaha West,,17879 Chicago Street,,Omaha,NE,68118,USA,+1-402-289-9696,41.2622,-96.1952,,,,
Hilton Garden Inn Oshkosh,,1355 West 20th Avenue,,Oshkosh,WI,54902,USA,+1-920-966-1300,43.99597,-88.56992,,,,
Hilton Garden Inn Overland Park,,5800 College Boulevard,,Overland Park,KS,66211,USA,+1-913-345-2661,38.92746,-94.65132,,,,
Hilton Garden Inn Plymouth,,14600 N. Sheldon Road,,Plymouth,MI,48170,USA,+1-734-354-0001,42.3873,-83.4802,,,,
Hilton Garden Inn Rapid City,,815 E. Mall Drive,,Rapid City,SD,57701,USA,+1-605-791-9000,44.10715,-103.19814,,,,
Hilton Garden Inn Rochester Downtown,,225 South Broadway,,Rochester,MN,55904,USA,+1-507-285-1234,44.02081,-92.46349,,,,
Hilton Garden Inn Rockford,,7675 Walton Street,,Rockford,IL,61108,USA,+1-815-229-3322,42.26996,-88.96638,,,,
Hilton Garden Inn Salina,,3320 South 9th Street,,Salina,KS,67401,USA,+785-309-0440,38.78006,-97.61301,,,,
Hilton Garden Inn Schaumburg,,1191 Woodfield Road,,Schaumburg,IL,60173,USA,+1-847-524-0455,42.04325,-88.05051,,,,
Hilton Garden Inn Charleston Airport,,5265 International Boulevard,,North Charleston,SC,29418,USA,+1-843-308-9330,32.86843,-80.02444,,,,
Hilton Garden Inn Charleston Waterfront/Downtown,,45 Lockwood Drive,,Charleston,SC,29401,USA,+1-843-637-4074,32.7823,-79.95485,,,,
Hilton Garden Inn Charlotte Airport,,2400 Cascade Pointe Boulevard,,Charlotte,NC,28208,USA,+1-704-790-7000,35.19721,-80.91518,,,,
Hilton Garden Inn Charlotte North,,9315 Statesville Road,,Charlotte,NC,28269,USA,+1-704-597-7655,35.34837,-80.84228,,,,
Hilton Garden Inn Charlotte Pineville,,425 Towne Centre Boulevard,,Pineville,NC,28134,USA,+1-704-889-3279,35.08165,-80.88326,,,,
Hilton Garden Inn Charlotte Uptown,,508 E Martin Luther King Jr. Blvd,,Charlotte,NC,28202-2830,USA,+1-704-347-5972,35.22098,-80.84264,,,,
Hilton Garden Inn Charlotte/Ayrsley,,1920 Ayrsley Town Blvd,,Charlotte,NC,28273,USA,+1-704-970-5000,35.13817,-80.93062,,,,
Hilton Garden Inn Charlotte/Concord,,7831 Gateway Lane,,Concord,NC,28027,USA,+1-704-979-2900,35.3701,-80.71,,,,
Hilton Garden Inn Charlotte/Mooresville,,159 Gateway Boulevard,,Mooresville,NC,28117,USA,+1-704-663-6468,35.5566,-80.8561,,,,
Hilton Garden Inn Charlotte/SouthPark,,4808 Sharon Road,,Charlotte,NC,28210,USA,+1-704-362-5080,35.14638,-80.83237,,,,
Hilton Garden Inn Charlottesville,,1793 Richmond Road,,Charlottesville,VA,22911,USA,+1-434-979-4442,38.0248,-78.4369,,,,
Hilton Garden Inn Chattanooga Downtown,,311 Chestnut Street,,Chattanooga,TN,37402,USA,+1-423-308-9000,35.05319,-85.31229,,,,
Hilton Garden Inn Chattanooga/Hamilton Place,,2343 Shallowford Village Drive,,Chattanooga,TN,37421,USA,+1-423-308-4400,35.04503,-85.15658,,,,
Hilton Garden Inn Chesapeake/Greenbrier,,1565 Crossways Boulevard,,Chesapeake,VA,23320,USA,+1-757-420-1212,36.78103,-76.23694,,,,
Hilton Garden Inn Chesapeake/Suffolk,,5921 Harbour View Blvd,,Suffolk,VA,23435,USA,+1-757-484-9001,36.8784,-76.43851,,,,
Hilton Garden Inn Clarksburg,,606 Emily Drive,,Clarksburg,WV,26301,USA,+1-304-326-9200,39.2613,-80.2862,,,,
Hilton Garden Inn Clarksville,,290 Alfred Thun Road,,Clarksville,TN,37040,USA,+1-931-647-1096,36.60005,-87.27934,,,,
Hilton Garden Inn College Station,,3081 University Drive East,,Bryan,TX,77802,USA,+1-979-703-7919,30.64659,-96.30203,,,,
Hilton Garden Inn Sioux City Riverfront,,1132 Larsen Park Road,,Sioux City,IA,51103,USA,+1-712-255-4200,42.491,-96.422,,,,
Hilton Garden Inn Sioux Falls Downtown,,201 E 8th Street,,Sioux Falls,SD,57103,USA,+1-605-444-4700,43.5486,-96.725,,,,
Hilton Garden Inn Sioux Falls South,,5300 South Grand Circle,,Sioux Falls,SD,57108,USA,+1-605-444-4500,43.4979,-96.7721,,,,
Hilton Garden Inn South Bend,,53995 Indiana State Route 933,,South Bend,IN,46637,USA,+1-574-232-7700,41.70878,-86.25032,,,,
Hilton Garden Inn Springfield,,3100 S. Dirksen Parkway,,Springfield,IL,62703,USA,+1-217-529-7171,39.76092,-89.60727,,,,
Hilton Garden Inn Springfield,,4155 South Nature Center Way,,Springfield,MO,65804,USA,+1-417-875-8800,37.1374,-93.2531,,,,
Hilton Garden Inn St. Charles,,4070 East Main Street,,Saint Charles,IL,60174,USA,+1-630-584-0700,41.922,-88.2541,,,,
Hilton Garden Inn St. Louis Airport,,4450 Evans Place,,Saint Louis,MO,63134,USA,+1-314-521-6444,38.7222,-90.3173,,,,
Hilton Garden Inn St. Louis Shiloh/O'Fallon,,360 Regency Park Drive,,O'Fallon,IL,62269,USA,+1-618-624-4499,38.5879,-89.9398,,,,
Hilton Garden Inn St. Louis/Chesterfield,,16631 Chesterfield Grove Rd,,Chesterfield,MO,63005,USA,+1-636-532-9400,38.6657,-90.5756,,,,
Hilton Garden Inn St. Louis/O'Fallon,,2310 Technology Dr.,,O'Fallon,MO,63368,USA,+1-636-625-2700,38.7516,-90.7517,,,,
Hilton Garden Inn St. Paul/Oakdale,,420 Inwood Avenue North,,Oakdale,MN,55128,USA,+1-651-735-4100,44.95295,-92.93498,,,,
Hilton Garden Inn Terre Haute,,750 Wabash Avenue,,Terre Haute,IN,47807,USA,+1-812-234-8900,39.46653,-87.40638,,,,
Hilton Garden Inn Toledo Perrysburg,,6165 Levis Commons Blvd.,,Perrysburg,OH,43551,USA,+1-419-873-0700,41.5279,-83.6442,,,,
Hilton Garden Inn Wausau,,2101 North Mountain Rd.,,Wausau,WI,54401,USA,+1-715-298-5775,44.93194,-89.66229,,,,
Hilton Garden Inn West Des Moines,,205 South 64th Street,,West Des Moines,IA,50266,USA,+1-515-223-0571,41.56793,-93.79712,,,,
Hilton Garden Inn West Lafayette Wabash Landing,,356 East State Street,,West Lafayette,IN,47906,USA,+1-765-743-2100,40.42064,-86.89996,,,,
Hilton Garden Inn Wichita,,2041 North Bradley Fair Parkway,,Wichita,KS,67206,USA,+1-316-219-4444,37.72145,-97.24173,,,,
Hilton Garden Inn Columbia Downtown,,1611 Gervais Street,,Columbia,SC,29201,USA,+1-803-888-5030,34.00392,-81.02608,,,,
Hilton Garden Inn Columbia/Harbison,,434 Columbiana Drive,,Columbia,SC,29212,USA,+1-803-407-6640,34.08717,-81.16336,,,,
Hilton Garden Inn Columbia/Northeast,,8910 Farrow Road,,Columbia,SC,29203,USA,+1-803-807-9000,34.1062,-80.9526,,,,
Hilton Garden Inn Columbus,,1500 Bradley Lake Boulevard,,Columbus,GA,31904,USA,+1-706-660-1000,32.5351,-84.9777,,,,
Hilton Garden Inn Conway,,805 Amity Road,,Conway,AR,72032,USA,+1-501-329-1444,35.08956,-92.41619,,,,
Hilton Garden Inn Corpus Christi,,6717 South Padre Island Drive,,Corpus Christi,TX,78412,USA,+1-361-991-8200,27.69593,-97.35093,,,,
Hilton Garden Inn Covington/Mandeville,,350 Holiday Square Boulevard,,Covington,LA,70433,USA,+1-985-327-7118,30.43191,-90.08711,,,,
Hilton Garden Inn DFW Airport South,,2001 Valley View Lane,,Irving,TX,75061,USA,+1-972-313-2800,32.83437,-97.02302,,,,
Hilton Garden Inn DFW North Grapevine,,205 W State Hwy 114,,Grapevine,TX,76051,USA,+1-817-421-1172,32.92007,-97.07976,,,,
Hilton Garden Inn Dallas Lewisville,,785 State Highway 121,,Lewisville,TX,75067,USA,+1-972-459-4600,32.996,-96.9661,,,,
Hilton Garden Inn Dallas/Addison,,4090 Belt Line Rd.,,Addison,TX,75001,USA,+1-972-233-8000,32.953,-96.8436,,,,
Hilton Garden Inn Dallas/Allen,,705 Central Expressway South,,Allen,TX,75013,USA,+1-214-547-1700,33.09302,-96.68002,,,,
Hilton Garden Inn Dallas/Arlington,,2190 E. Lamar Boulevard,,Arlington,TX,76006,USA,+1-817-274-6644,32.7613,-97.0721,,,,
Hilton Garden Inn Dallas/Arlington South,,521 East Interstate 20,,Arlington,TX,76018,USA,+1-817-557-8233,32.68028,-97.10121,,,,
Hilton Garden Inn Dallas/Duncanville,,800 North Main Street,,Duncanville,TX,75116,USA,+1-972-283-9777,32.6632,-96.9048,,,,
Hilton Garden Inn Dallas/Market Center,,2325 North Stemmons Freeway,,Dallas,TX,75207,USA,+1-214-634-8200,32.8023,-96.8325,,,,
Hilton Garden Inn Dallas/Richardson,,1001 W President George Bush Turnpike,,Richardson,TX,75080,USA,+1-972-792-9393,33.0026,-96.7416,,,,
Hilton Garden Inn Dalton,,879 College Drive,,Dalton,GA,30720,USA,+1-706-529-6000,34.76374,-85.00315,,,,
Hilton Garden Inn Daytona Beach Airport,,189 Midway Avenue,,Daytona Beach,FL,32114,USA,+1-386-944-4000,29.1924,-81.0622,,,,
Hilton Garden Inn Daytona Beach Oceanfront,,2560 N. Atlantic Avenue,,Daytona Beach,FL,32118,USA,+1-386-265-0501,29.26384,-81.02604,,,,
Hilton Garden Inn Denison/Sherman/At Texoma Event Center,,5015 South US 75,,Denison,TX,75020,USA,+1-903-463-3331,33.7094,-96.59151,,,,
Hilton Garden Inn Denton,,3110 Colorado Blvd,,Denton,TX,76210,USA,+1-940-891-4700,33.18275,-97.09915,,,,
Hilton Garden Inn Dothan,,171 Hospitality Lane,,Dothan,AL,36303,USA,+1-334-671-7676,31.2697,-85.4447,,,,
Hilton Garden Inn Wisconsin Dells,,101 East Hiawatha Drive,,Wisconsin Dells,WI,53965,USA,+1-608-253-1100,43.59919,-89.79198,,,,
Hilton Garden Inn Wooster,,959 Dover Road,,Wooster,OH,44691,USA,+1-330-202-7701,40.7757,-81.92783,,,,
Hilton Garden Inn Downtown Birmingham,,250 18th Street South,,Birmingham,AL,35233,USA,+1-205-322-7937,33.50834,-86.80678,,,,
Hilton Garden Inn Downtown Dallas,,1600 Pacific Avenue,,Dallas,TX,75201,USA,+1-214-299-8982,32.78199,-96.79899,,,,
Hilton Garden Inn Dulles North,,22400 Flagstaff Plaza,,Ashburn,VA,20148,USA,+1-703-723-8989,38.9967,-77.4821,,,,
Hilton Garden Inn Durham Southpoint,,7007 Fayetteville Road,,Durham,NC,27713,USA,+1-919-544-6000,35.90237,-78.9385,,,,
Hilton Garden Inn Durham/University Medical Center,,2102 West Main Street,,Durham,NC,27705,USA,+1-919-286-0774,36.00682,-78.92499,,,,
Hilton Garden Inn Edmond / Oklahoma City North,,2833 Conference Drive (Covell & I-35),,Edmond,OK,73034,USA,+1-405-2850900,35.68484,-97.42088,,,,
Hilton Garden Inn El Paso / University,,111 West University Avenue,,El Paso,TX,79902,USA,+1-915-351-2121,31.77269,-106.50101,,,,
Hilton Garden Inn El Paso Airport,,6650 Gateway Blvd East,,El Paso,TX,79915,USA,+1-915-772-4722,31.77945,-106.39543,,,,
Hilton Garden Inn Fairfax,,3950 Fair Ridge Drive,,Fairfax,VA,22033,USA,+1-703-385-7774,38.87285,-77.3701,,,,
Hilton Garden Inn Falls Church,,706 West Broad Street,,Falls Church,VA,22046,USA,+1-703-237-8700,38.88796,-77.17926,,,,
Hilton Garden Inn Fayetteville,,1325 N Palak Dr.,,Fayetteville,AR,72704,USA,+1-479-856-6040,36.0807,-94.20027,,,,
Hilton Garden Inn Fayetteville/Fort Bragg,,4025 Sycamore Dairy Road,,Fayetteville,NC,28303,USA,+1-910-860-3600,35.07451,-78.95584,,,,
Hilton Garden Inn Florence,,2671 Hospitality Boulevard,,Florence,SC,29501,USA,+1-843-432-3001,34.18736,-79.83521,,,,
Hilton Garden Inn Fort Myers,,12600 University Drive,,Fort Myers,FL,33907,USA,+1-239-790-3500,26.55847,-81.88445,,,,
Hilton Garden Inn Fort Myers Airport/FGCU,,16410 Corporate Commerce Way,,Fort Myers,FL,33913,USA,+1-239-210-7200,26.49468,-81.78533,,,,
Hilton Garden Inn Fort Worth Alliance Airport,,2600 WestPort Parkway,,Fort Worth,TX,76177,USA,+1-817-562-3047,32.97215,-97.30831,,,,
Hilton Garden Inn Fort Worth Medical Center,,912 Northton Street,,Fort Worth,TX,76104,USA,+1-817-921-0788,32.73457,-97.35149,,,,
Hilton Garden Inn Fort Worth/Fossil Creek,,4400 North Freeway,,Fort Worth,TX,76137,USA,+1-817-222-0222,32.8217,-97.31223,,,,
Hilton Garden Inn Fredericksburg,,1060 Hospitality Lane,,Fredericksburg,VA,22401,USA,+1-540-548-8822,38.3139,-77.5048,,,,
Hilton Garden Inn Frisco,,7550 Gaylord Parkway,,Frisco,TX,75034,USA,+1-469-362-8485,33.1021,-96.81924,,,,
Hilton Garden Inn Ft. Lauderdale Airport-Cruise Port,,180 SW 18th Avenue,,Dania,FL,33004,USA,+1-954-924-9204,26.04911,-80.15973,,,,
Hilton Garden Inn Ft. Lauderdale SW/Miramar,,14501 Hotel Road,,Miramar,FL,33027,USA,+1-954-438-7700,25.9866,-80.3407,,,,
Hilton Garden Inn Ft. Walton Beach,,1297 Miracle Strip Parkway SE,,Fort Walton Beach,FL,32548,USA,+1-850-362-1000,30.39518,-86.59757,,,,
Hilton Garden Inn Gainesville,,4075 SW 33rd Place,,Gainesville,FL,32608,USA,+1-352-338-1466,29.6227,-82.3844,,,,
Hilton Garden Inn Gainesville,,1735 Browns Bridge Road,,Gainesville,GA,30501,USA,+1-770-532-3396,34.28456,-83.84604,,,,
Hilton Garden Inn Gatlinburg,,635 River Road,,Gatlinburg,TN,37738,USA,+1-865-436-0048,35.7117,-83.5216,,,,
Hilton Garden Inn Granbury,,635 East Pearl Street,,Granbury,TX,76048,USA,+1-817-579-3800,32.44217,-97.77989,,,,
Hilton Garden Inn Greensboro,,4307 Big Tree Way,,Greensboro,NC,27409,USA,+1-336-852-1491,36.0586,-79.8907,,,,
Hilton Garden Inn Greensboro Airport,,238 NC Highway 68 South Airport at PAI Park,,Greensboro,NC,27409,USA,+1-336-881-1111,36.0723,-79.95979,,,,
Hilton Garden Inn Greenville,,108 Carolina Point Parkway,,Greenville,SC,29607,USA,+1-864-284-0111,34.8269,-82.3017,,,,
Hilton Garden Inn Gulfport Airport,,14108 Airport Rd,,Gulfport,MS,39503,USA,+1-228-863-4996,30.41595,-89.07625,,,,
Hilton Garden Inn Hampton Coliseum Central,,1999 Power Plant Pkwy,,Hampton,VA,23666,USA,+1-757-310-6323,37.03551,-76.39672,,,,
Hilton Garden Inn Hattiesburg,,133 Plaza Dr,,Hattiesburg,MS,39402,USA,+1-601-261-3770,31.32726,-89.35528,,,,
Hilton Garden Inn Hickory,,1320 17th Street Drive Southeast,,Hickory,NC,28602,USA,+1-828-327-1000,35.70964,-81.30836,,,,
Hilton Garden Inn Hilton Head,,1575 Fording Island Road,,Hilton Head Island,SC,29926,USA,+1-843-837-8111,32.23552,-80.80516,,,,
Hilton Garden Inn Houston Cypress Station,,160 Wagon Point,,Houston,TX,77090,USA,+1-281-929-0111,30.02313,-95.43265,,,,
Hilton Garden Inn Houston Energy Corridor,,12245 Katy Freeway,,Houston,TX,77079,USA,+1-281-531-0220,29.78251,-95.60401,,,,
Hilton Garden Inn Houston NW America Plaza,,14919 Northwest Freeway,,Houston,TX,77040,USA,+1-713-896-6700,29.86835,-95.54495,,,,
Hilton Garden Inn Houston NW/Willowbrook,,7979 Willow Chase Boulevard,,Houston,TX,77070,USA,+1-832-912-1000,29.96416,-95.54879,,,,
Hilton Garden Inn Houston West Katy,,2409 Texmati Drive,,Katy,TX,77494,USA,+1-281-644-2400,29.7814,-95.8098,,,,
Hilton Garden Inn Houston Westbelt,,6855 West Sam Houston Parkway South,,Houston,TX,77072,USA,+1-713-270-6100,29.70276,-95.5554,,,,
Hilton Garden Inn Houston-Baytown,,4910 E. Chase St.,,Baytown,TX,77521,USA,+1-832-274-0869,29.80751,-94.98382,,,,
Hilton Garden Inn Houston-Pearland,,12101 Shadow Creek Pkwy,,Pearland,TX,77584,USA,+1-713-340-0110,29.5773,-95.4065,,,,
Hilton Garden Inn Houston/Bush Intercontinental Airport,,15400 John F. Kennedy Boulevard,,Houston,TX,77032,USA,+1-281-449-4148,29.94362,-95.33146,,,,
Hilton Garden Inn Houston/Clear Lake NASA,,750 W.  Texas Avenue,,Webster,TX,77598,USA,+1-281-332-6284,29.5469,-95.1353,,,,
Hilton Garden Inn Houston/Galleria Area,,3201 Sage Road,,Houston,TX,77056,USA,+1-713-629-0101,29.73424,-95.46609,,,,
Hilton Garden Inn Houston/Sugar Land,,722 Bonaventure Way,,Sugar Land,TX,77479,USA,+1-281-491-7777,29.6075,-95.6439,,,,
Hilton Garden Inn Houston/The Woodlands,,9301 Six Pines Drive,,The Woodlands,TX,77380,USA,+1-281-364-9300,30.16943,-95.46095,,,,
Hilton Garden Inn Huntsville South/Redstone Arsenal,,301 Boulevard South SW,,Huntsville,AL,35802,USA,+1-256-881-4170,34.6699,-86.5784,,,,
Hilton Garden Inn Huntsville/Space Center,,4801 Governors House Drive,,Huntsville,AL,35805,USA,+1-256-430-1778,34.71528,-86.63892,,,,
Hilton Garden Inn Jackson Downtown,,235 West Capitol Street,,Jackson,MS,39201,USA,+1-601-353-5464,32.30017,-90.19056,,,,
Hilton Garden Inn Jackson Pearl,,438 Riverwind Drive,,Pearl,MS,39208,USA,+1-601-933-1174,32.26707,-90.14545,,,,
Hilton Garden Inn Jackson/Flowood,,118 Laurel Park Cove,,Flowood,MS,39232,USA,+1-601-487-0800,32.33805,-90.07278,,,,
Hilton Garden Inn Jackson/Madison,,320 New Mannsdale Road,,Madison,MS,39110,USA,+1-601-420-0442,32.47264,-90.1435,,,,
Hilton Garden Inn Jacksonville,,1016 Jacksonville Parkway,,Jacksonville,NC,28546,USA,+1-910-346-2400,34.79063,-77.40768,,,,
Hilton Garden Inn Jacksonville Airport,,13503 Ranch Road,,Jacksonville,FL,32218,USA,+1-904-421-2700,30.4823,-81.65138,,,,
Hilton Garden Inn Jacksonville Downtown Southbank,,1201 Kings Avenue,,Jacksonville,FL,32207,USA,+1-904-396-6111,30.3124,-81.6526,,,,
Hilton Garden Inn Jacksonville JTB/Deerwood Park,,9745 Gate Pkwy N,,Jacksonville,FL,32246,USA,+1-904-997-6600,30.26102,-81.55563,,,,
Hilton Garden Inn Jacksonville Orange Park,,145 Park Avenue,,Orange Park,FL,32073,USA,+1-904-458-1577,30.1889,-81.7032,,,,
Hilton Garden Inn Jacksonville/Ponte Vedra,,45 PGA Tour Boulevard,,Ponte Vedra Beach,FL,32082,USA,+1-904-280-1661,30.20509,-81.38387,,,,
Hilton Garden Inn Jonesboro,,2840 South Caraway Road,,Jonesboro,AR,72401,USA,+1-870-931 7727,35.8118,-90.6735,,,,
Hilton Garden Inn Key West / The Keys Collection,,3850 North Roosevelt Boulevard,,Key West,FL,33040,USA,+1-305-320-0920,24.57032,-81.75314,,,,
Hilton Garden Inn Killeen,,2704 O.W. Curry Drive,,Killeen,TX,76542,USA,+1-254-554-3900,31.0872,-97.7165,,,,
Hilton Garden Inn Knoxville West/Cedar Bluff,,216 Peregrine Way,,Knoxville,TN,37922,USA,+1-865-690-6511,35.91573,-84.09468,,,,
Hilton Garden Inn Knoxville/University,,1706 Cumberland Avenue,,Knoxville,TN,37916,USA,+1-865-437-5500,35.9565,-83.9325,,,,
Hilton Garden Inn Lafayette/Cajundome,,2350 West Congress Street,,Lafayette,LA,70506,USA,+1-337-291-1977,30.2204,-92.0409,,,,
Hilton Garden Inn Lake Buena Vista/Orlando,,11400 Marbella Palm Ct.,,Orlando,FL,32836,USA,+1-407-239-9550,28.39285,-81.49286,,,,
Hilton Garden Inn Lakeland,,3839 Don Emerson Drive,,Lakeland,FL,33811,USA,+1-863-647-0066,27.996,-82.01556,,,,
Hilton Garden Inn Las Colinas,,7516 Las Colinas Boulevard,,Irving,TX,75063,USA,+1-972-444-8434,32.91066,-96.95495,,,,
Hilton Garden Inn Lawton-Fort Sill,,135 NW 2nd Street,,Lawton,OK,73501,USA,+1-580-280-2100,34.6108,-98.3904,,,,
Hilton Garden Inn Lexington,,1973 Plaudit Place,,Lexington,KY,40509,USA,+1-859-543-8300,38.0203,-84.41324,,,,
Hilton Garden Inn Lexington Georgetown,,110 Grandstand Drive,,Georgetown,KY,40324,USA,+1-502-863-0099,38.2256,-84.5407,,,,
Hilton Garden Inn Little Rock Downtown,,322 Rock Street,,Little Rock,AR,72202,USA,+1-501-244-0044,34.74496,-92.2675,,,,
Hilton Garden Inn Longview,,905 East Hawkins Parkway,,Longview,TX,75605,USA,+1-903-212-3000,32.5483,-94.73245,,,,
Hilton Garden Inn Louisville Airport,,2735 Crittenden Drive,,Louisville,KY,40209,USA,+1-502-637-2424,38.20394,-85.75068,,,,
Hilton Garden Inn Louisville Downtown,,350 West Chestnut Street,,Louisville,KY,40202,USA,+1-502-584-5175,38.24873,-85.75762,,,,
Hilton Garden Inn Louisville East,,1530 Alliant Avenue,,Louisville,KY,40299,USA,+1-502-297-8066,38.2207,-85.5367,,,,
Hilton Garden Inn Louisville Mall of St. Matthews,,400 Sherburn Lane,,Louisville,KY,40207,USA,+1-502-690-3325,38.24752,-85.62713,,,,
Hilton Garden Inn Louisville Northeast,,9850 Park Plaza Avenue,,Louisville,KY,40241,USA,+1-502-423-0018,38.3092,-85.5794,,,,
Hilton Garden Inn Lubbock,,6027 45th Street,,Lubbock,TX,79407,USA,+1-806-776-3900,33.55281,-101.94603,,,,
Hilton Garden Inn Lynchburg,,4025 Wards Road,,Lynchburg,VA,24502,USA,+1-434-239-3006,37.34485,-79.18719,,,,
Hilton Garden Inn Macon / Mercer University,,1220 Stadium Drive,,Macon,GA,31204,USA,+1-478-741-5527,32.8266,-83.6553,,,,
Hilton Garden Inn Martinsburg,,65 Priority Dr,,Martinsburg,WV,25403,USA,+1-304-263-0101,39.44085,-77.99451,,,,
Hilton Garden Inn McAllen Airport,,617 West Expressway 83,,McAllen,TX,78503,USA,+1-956-664-2900,26.18877,-98.22891,,,,
"Hilton Garden Inn Memphis/Southaven, MS",,6671 Towne Center Loop,,Southaven,MS,38671,USA,+1-662-349-0277,34.95769,-89.99713,,,,
Hilton Garden Inn Memphis/Wolfchase Galleria,,7955 Ikea Way,,Cordova,TN,38016,USA,+1-901-849-5655,35.18839,-89.79861,,,,
Hilton Garden Inn Meridian,,109 US Highway 11 and 80,,Meridian,MS,39301,USA,+1-601-485-3506,32.3686,-88.6734,,,,
Hilton Garden Inn Miami Airport West,,3550 NW 74th Ave,,Miami,FL,33122,USA,+1-305-629-7701,25.8093,-80.3173,,,,
Hilton Garden Inn Miami Dolphin Mall,,"1695 NW 111th Ave, Suite A",,Sweetwater,FL,33172,USA,+1-305-5009077,25.78955,-80.37559,,,,
Hilton Garden Inn Miami South Beach,,2940 Collins Avenue,,Miami Beach,FL,33140,USA,+1-305-642-7656,25.8058,-80.12481,,,,
Hilton Garden Inn Midland,,1301 North Loop 250 West,,Midland,TX,79706,USA,+1-432-689-0022,31.993,-102.15327,,,,
Hilton Garden Inn Mobile Downtown,,15 N. Conception St.,,Mobile,AL,36602,USA,+1-251-345-4505,30.69206,-88.04351,,,,
Hilton Garden Inn Mobile East Bay / Daphne,,29546 North Main Street,,Daphne,AL,36526,USA,+1-251-625-0020,30.65441,-87.91118,,,,
Hilton Garden Inn Mobile West I-65/Airport Blvd.,,828 W. I-65 Service Road South,,Mobile,AL,36609,USA,+1-251-544-6000,30.67427,-88.12929,,,,
Hilton Garden Inn Montgomery - EastChase,,7665 EastChase Parkway,,Montgomery,AL,36117,USA,+1-334-244-0101,32.36126,-86.15739,,,,
Hilton Garden Inn Montgomery East,,1600 Interstate Park Drive,,Montgomery,AL,36109,USA,+1-334-272-2225,32.36092,-86.24284,,,,
Hilton Garden Inn Morgantown,,150 Suncrest Towne Centre Dr,,Morgantown,WV,26505,USA,+1-304-225-9500,39.65459,-79.94461,,,,
Hilton Garden Inn Murfreesboro,,1335 Conference Center Boulevard,,Murfreesboro,TN,37129,USA,+1-615-225-2345,35.86415,-86.45061,,,,
Hilton Garden Inn Myrtle Beach/Coastal Grand Mall,,2383 Coastal Grand Circle,,Myrtle Beach,SC,29577,USA,+1-843-839-1200,33.69998,-78.9241,,,,
Hilton Garden Inn Nashville Airport,,412 Royal Parkway,,Nashville,TN,37214,USA,+1-615-884-0088,36.1513,-86.677,,,,
Hilton Garden Inn Nashville Brentwood,,217 Centerview Drive,,Brentwood,TN,37027,USA,+1-615-370-5040,36.0294,-86.78831,,,,
Hilton Garden Inn Nashville Downtown/Convention Center,,305 Korean Veterans Boulevard,,Nashville,TN,37201,USA,+1-615-251-3013,36.15736,-86.77368,,,,
Hilton Garden Inn Nashville Vanderbilt,,1715 Broadway,,Nashville,TN,37203,USA,+1-615-369-5900,36.153,-86.7942,,,,
Hilton Garden Inn Nashville/Franklin Cool Springs,,9150 Carothers Parkway,,Franklin,TN,37067,USA,+1-615-656-2700,35.9607,-86.8002,,,,
Hilton Garden Inn Nashville/Smyrna,,2631 Highwood Boulevard,,Smyrna,TN,37167,USA,+1-615-355-6262,35.97196,-86.5715,,,,
Hilton Garden Inn New Braunfels,,1501 IH-35 North,,New Braunfels,TX,78130,USA,+1-830-620-4200,29.7089,-98.0904,,,,
Hilton Garden Inn New Orleans Airport,,4535 Williams Boulevard,,Kenner,LA,70065,USA,+1-504-712-0504,30.03957,-90.23959,,,,
Hilton Garden Inn New Orleans Convention Center,,1001 S. Peters Street,,New Orleans,LA,70130,USA,+1-504-525-0044,29.94175,-90.06583,,,,
Hilton Garden Inn New Orleans French Quarter/CBD,,821 Gravier Street,,New Orleans,LA,70112,USA,+1-504-324-6000,29.95246,-90.0718,,,,
Hilton Garden Inn Newport News,,180 Regal Way,,Newport News,VA,23602,USA,+1-757-947-1080,37.1109,-76.4697,,,,
Hilton Garden Inn Norman,,700 Copperfield Drive,,Norman,OK,73072,USA,+1-405-579-0100,35.22626,-97.48766,,,,
Hilton Garden Inn North Houston Spring,,23535 Northgate Crossing Blvd.,,Spring,TX,77373,USA,+1-281-528 2900,30.10488,-95.42873,,,,
Hilton Garden Inn North Little Rock,,4100 Glover Lane,,North Little Rock,AR,72117,USA,+1-501-945-7444,34.7899,-92.2148,,,,
Hilton Garden Inn Odessa,,5221 JBS Parkway,,Odessa,TX,79762,USA,+1-432-366-5800,31.9032,-102.3377,,,,
Hilton Garden Inn Oklahoma City Airport,,801 S. Meridian,,Oklahoma City,OK,73108,USA,+1-405-942-1400,35.45538,-97.60136,,,,
Hilton Garden Inn Oklahoma City Bricktown,,328 East Sheridan Avenue,,Oklahoma City,OK,73104,USA,+1-405-270 0588,35.4661,-97.5063,,,,
Hilton Garden Inn Oklahoma City Midtown,,2809 Northwest Expressway,,Oklahoma City,OK,73112,USA,+1-405-607-4000,35.5262,-97.5634,,,,
Hilton Garden Inn Oklahoma City North Quail Springs,,3201 N. W. 137th Street,,Oklahoma City,OK,73134,USA,+1-405-752-5200,35.61102,-97.57405,,,,
Hilton Garden Inn Orange Beach Beachfront,,23092 Perdido Beach Boulevard,,Orange Beach,AL,36561,USA,+1-251-974-1600,30.25835,-87.63076,,,,
Hilton Garden Inn Orlando Airport,,7300 Augusta National Drive,,Orlando,FL,32822,USA,+1-407-240-3725,28.45823,-81.30801,,,,
Hilton Garden Inn Orlando East/UCF Area,,1959 N. Alafaya Trail,,Orlando,FL,32826,USA,+1-407-992-5000,28.57022,-81.20742,,,,
Hilton Garden Inn Orlando International Drive North,,5877 American Way,,Orlando,FL,32819,USA,+1-407-363-9332,28.4647,-81.461,,,,
Hilton Garden Inn Orlando North/Lake Mary,,705 Currency Circle,,Lake Mary,FL,32746,USA,+1-407-531-9900,28.75886,-81.36098,,,,
Hilton Garden Inn Orlando at SeaWorld,,6850 Westwood Boulevard,,Orlando,FL,32821,USA,+1-407-354-1500,28.41036,-81.4719,,,,
Hilton Garden Inn Outer Banks/Kitty Hawk,,5353 N. Virginia DareTrail,,Kitty Hawk,NC,27949,USA,+1-252-261-1290,36.0989,-75.7104,,,,
"Hilton Garden Inn Oxford/Anniston, AL",,280 Colonial Drive,,Oxford,AL,36203,USA,+1-256-831-0083,33.6123,-85.7922,,,,
Hilton Garden Inn Palm Beach Gardens,,3505 Kyoto Gardens Drive,,Palm Beach Gardens,FL,33410,USA,+1-561-694-5833,26.8478,-80.0904,,,,
Hilton Garden Inn Palm Coast Town Center,,55 Town Center Boulevard,,Palm Coast,FL,32164,USA,+1-386-586-2463,29.4771,-81.1949,,,,
Hilton Garden Inn Panama City,,1101 US Highway 231,,Panama City,FL,32405,USA,+1-850-392-1093,30.18842,-85.64323,,,,
Hilton Garden Inn Pascagoula,,2703 Denny Avenue,,Pascagoula,MS,39567,USA,+1-228-762-7182,30.37317,-88.53586,,,,
Hilton Garden Inn Pensacola Airport - Medical Center,,1144 Airport Boulevard,,Pensacola,FL,32504,USA,+1-850-479-8900,30.4801,-87.21773,,,,
Hilton Garden Inn Pigeon Forge,,2481 Teaster Lane,,Pigeon Forge,TN,37863,USA,+1-865-366-5250,35.81072,-83.57498,,,,
Hilton Garden Inn Pikeville,,849 Hambley Boulevard,,Pikeville,KY,41501,USA,+1-606-766-2000,37.4772,-82.5215,,,,
Hilton Garden Inn Raleigh /Crabtree Valley,,3912 Arrow Drive,,Raleigh,NC,27612,USA,+1-919-703-2525,35.83541,-78.67323,,,,
Hilton Garden Inn Raleigh Triangle Town Center,,6412 Capital Blvd,,Raleigh,NC,27616,USA,+1-919-876-5650,35.87215,-78.57809,,,,
Hilton Garden Inn Raleigh-Cary,,131 Columbus Avenue,,Cary,NC,27518,USA,+1-919-377-0440,35.75739,-78.73665,,,,
Hilton Garden Inn Raleigh-Durham Airport,,1500 RDU Center Drive,,Morrisville,NC,27560,USA,+1-919-840-8088,35.8511,-78.79615,,,,
Hilton Garden Inn Raleigh-Durham/Research Triangle Park,,4620 South Miami Blvd.,,Durham,NC,27703,USA,+1-919-941-6066,35.89309,-78.84879,,,,
Hilton Garden Inn Reagan National Airport,,2020 Jefferson Davis Highway,,Arlington,VA,22202,USA,+1-703-892-1050,38.85503,-77.05274,,,,
Hilton Garden Inn Richmond Airport,,441 International Center Drive,,Sandston,VA,23150,USA,+1-804-222-3338,37.5277,-77.32913,,,,
Hilton Garden Inn Richmond Innsbrook,,4050 Cox Road,,Glen Allen,VA,23060,USA,+1-804-521-2900,37.6491,-77.5842,,,,
Hilton Garden Inn Richmond South/Southpark,,800 Southpark Boulevard,,Colonial Heights,VA,23834,USA,+1-804-520-0600,37.24971,-77.38969,,,,
Hilton Garden Inn Roanoke,,4500 South Peak Blvd.,,Roanoke,VA,24018,USA,+1-540-7763400,37.22901,-79.97353,,,,
Hilton Garden Inn Roanoke Rapids,,111 Carolina Crossroads Parkway,,Roanoke Rapids,NC,27870,USA,+1-252-519-2333,36.3986,-77.6419,,,,
Hilton Garden Inn Rock Hill,,650 Tinsley Way,,Rock Hill,SC,29730,USA,+1-803-325-2800,34.9436,-80.97533,,,,
Hilton Garden Inn San Antonio Airport,,12828 San Pedro Avenue,,San Antonio,TX,78216,USA,+1-210-494-7600,29.5574,-98.4832,,,,
Hilton Garden Inn San Antonio Airport South,,8505 Broadway,,San Antonio,TX,78217,USA,+1-210-822-1554,29.51932,-98.46437,,,,
Hilton Garden Inn San Antonio At The Rim,,5730 Rim Pass,,San Antonio,TX,78257,USA,+1-210-696-3500,29.60279,-98.59778,,,,
Hilton Garden Inn San Antonio Downtown,,408 East Houston Street,,San Antonio,TX,78205,USA,+1-210-222-8811,29.42637,-98.48827,,,,
Hilton Garden Inn San Antonio-Live Oak Conference Center,,8101 Pat Booker Rd,,Live Oak,TX,78233,USA,+1-210-412-5923,29.5632,-98.33104,,,,
Hilton Garden Inn San Marcos,,2131 N. HWY 35,,San Marcos,TX,78666,USA,+1-512-8784411,29.90349,-97.90427,,,,
Hilton Garden Inn Sarasota-Bradenton Airport,,8270 N Tamiami Trail,,Sarasota,FL,34243,USA,+1-941-552-1100,27.39333,-82.56319,,,,
Hilton Garden Inn Savannah Airport,,80 Clyde E. Martin Drive,,Savannah,GA,31408,USA,+1-912-964-5550,32.1393,-81.2369,,,,
Hilton Garden Inn Savannah Historic District,,321 West Bay Street,,Savannah,GA,31401,USA,+1-912-721-5000,32.08184,-81.09486,,,,
Hilton Garden Inn Savannah Midtown,,5711 Abercorn Street,,Savannah,GA,31405,USA,+1-912-652-9300,32.0221,-81.1105,,,,
Hilton Garden Inn Shreveport,,5971 Financial Plaza,,Shreveport,LA,71129,USA,+1-318-686-0148,32.45202,-93.85634,,,,
Hilton Garden Inn Shreveport Bossier City,,2015 Old Minden Road,,Bossier City,LA,71111,USA,+1-318-759-1950,32.51852,-93.7111,,,,
Hilton Garden Inn South Padre Island,,7010 Padre Boulevard,,South Padre Island,TX,78597,USA,+1-956-761-8700,26.142,-97.1721,,,,
Hilton Garden Inn St. Augustine Beach,,401 A1A Beach Boulevard,,Saint Augustine,FL,32080,USA,+1-904-471-5559,29.85181,-81.26735,,,,
Hilton Garden Inn Starkville,,975 HWY 12 East,,Starkville,MS,39759,USA,+1-662-615-9664,33.4833,-88.7941,,,,
Hilton Garden Inn Statesville,,1017 Gateway Crossing Drive,,Statesville,NC,28677,USA,+1-704-380-3940,35.77632,-80.86547,,,,
Hilton Garden Inn Suffolk Riverfront,,100 East Constance Road,,Suffolk,VA,23434,USA,+1-757-925-1300,36.73846,-76.58187,,,,
Hilton Garden Inn Tallahassee,,3333 Thomasville Road,,Tallahassee,FL,32308,USA,+1-850-385-3553,30.49951,-84.25167,,,,
Hilton Garden Inn Tallahassee Central,,1330 Blairstone Road,,Tallahassee,FL,32301,USA,+1-850-893-8300,30.42965,-84.25014,,,,
Hilton Garden Inn Tampa Airport Westshore,,5312 Avion Park Drive,,Tampa,FL,33607,USA,+1-813-289-2700,27.9585,-82.533,,,,
Hilton Garden Inn Tampa East/Brandon,,10309 Highland Manor Drive,,Tampa,FL,33610,USA,+1-813-626-6700,27.98327,-82.32917,,,,
Hilton Garden Inn Tampa North,,13305 Tampa Oaks Blvd,,Temple Terrace,FL,33637,USA,+1-813-342-5000,28.0674,-82.3593,,,,
Hilton Garden Inn Tampa Northwest/Oldsmar,,4052 Tampa Road,,Oldsmar,FL,34677,USA,+1-813-891-9990,28.03471,-82.65496,,,,
Hilton Garden Inn Tampa Suncoast Parkway,,2155 NorthPointe Parkway,,Lutz,FL,33558,USA,+1-813-491-4900,28.18897,-82.5401,,,,
Hilton Garden Inn Tampa Ybor Historic District,,1700 East 9th Avenue,,Tampa,FL,33605,USA,+1-813-769-9267,27.96201,-82.43984,,,,
Hilton Garden Inn Tampa/Riverview/Brandon,,4328 Garden Vista Drive,,Riverview,FL,33578,USA,+1-813-626-6610,27.9096,-82.3462,,,,
Hilton Garden Inn Temple,,1749 Scott Boulevard,,Temple,TX,76504,USA,+1-254-773-0200,31.0784,-97.368,,,,
Hilton Garden Inn Texarkana,,2910 South Cowhorn Creek Loop,,Texarkana,TX,75503,USA,+1-903-792-1065,33.4586,-94.07619,,,,
Hilton Garden Inn Tifton,,201 Boo Drive,,Tifton,GA,31793,USA,+1-229-382-8484,31.4466,-83.5343,,,,
Hilton Garden Inn Tulsa Airport,,7728 E. Virgin Court,,Tulsa,OK,74115,USA,+1-918-838-1444,36.1842,-95.89049,,,,
Hilton Garden Inn Tulsa Midtown,,4518 E Skelly Drive,,Tulsa,OK,74135,USA,+1-918-878-7777,36.09232,-95.92492,,,,
Hilton Garden Inn Tulsa South,,8202 South 100th East Avenue,,Tulsa,OK,74133,USA,+1-918-392-2000,36.0462,-95.8662,,,,
Hilton Garden Inn Tulsa-Broken Arrow,,402 West Albany Street,,Broken Arrow,OK,74012,USA,+1-918-940-8444,36.0752,-95.79432,,,,
"Hilton Garden Inn Tupelo, MS",,363 East Main Street,,Tupelo,MS,38804,USA,+1-662-718-5500,34.25761,-88.6995,,,,
Hilton Garden Inn Tuscaloosa,,800 Hollywood Blvd.,,Tuscaloosa,AL,35405,USA,+1-205-722-0360,33.1684,-87.5497,,,,
Hilton Garden Inn Tyler,,220 East Grande,,Tyler,TX,75703,USA,+1-903-509-1166,32.28064,-95.30347,,,,
Hilton Garden Inn Tysons Corner,,8301 Boone Blvd,,Vienna,VA,22182,USA,+1-703-760-9777,38.91648,-77.23277,,,,
Hilton Garden Inn Valdosta,,1702 Gornto Drive,,Valdosta,GA,31601,USA,+1-229-219-1011,30.84244,-83.32464,,,,
Hilton Garden Inn Victoria,,123 Huvar St.,,Victoria,TX,77901,USA,+1-361-573-0303,28.85996,-96.99409,,,,
Hilton Garden Inn Virginia Beach Oceanfront,,3315 Atlantic Avenue,,Virginia Beach,VA,23451,USA,+1-757-305-9000,36.86203,-75.97855,,,,
Hilton Garden Inn Virginia Beach Town Center,,252 Town Center Dr,,Virginia Beach,VA,23462,USA,+1-757-326-6200,36.84303,-76.13214,,,,
Hilton Garden Inn Warner Robins,,207 North Willie Lee Pkwy,,Warner Robins,GA,31093,USA,+1-478-971-1550,32.617,-83.6951,,,,
Hilton Garden Inn West Little Rock,,10914 Kanis Road,,Little Rock,AR,72211,USA,+1-501-227-4800,34.7435,-92.39537,,,,
Hilton Garden Inn West Monroe,,400 Mane Street,,West Monroe,LA,71291,USA,+1-318-398-0653,32.5101,-92.1842,,,,
Hilton Garden Inn West Palm Beach Airport,,1611 Worthington Road,,West Palm Beach,FL,33409,USA,+1-561-472-5956,26.69692,-80.07438,,,,
Hilton Garden Inn Williamsburg,,1624 Richmond Road,,Williamsburg,VA,23185,USA,+1-757-253-9400,37.29325,-76.72522,,,,
Hilton Garden Inn Wilmington Mayfaire Town Center,,6745 Rock Spring Road,,Wilmington,NC,28405,USA,+1-910-509-4046,34.2371,-77.8327,,,,
Hilton Garden Inn Winchester,,120 Wingate Drive,,Winchester,VA,22601,USA,+1-540-722-8881,39.165,-78.1658,,,,
Hilton Garden Inn Winston-Salem/Hanes Mall,,1325 Creekshire Way,,Winston-Salem,NC,27103,USA,+1-336-765-1298,36.06562,-80.32861,,,,
Hilton Garden Inn Woodbridge,,2500 Neabsco Common Place,,Woodbridge,VA,22191,USA,+1-703-590-2500,38.62629,-77.29028,,,,
Hilton Garden Inn at PGA Village/Port St. Lucie,,8540 Commerce Centre Drive,,Port Saint Lucie,FL,34986,USA,+1-772-871-6850,27.31052,-80.42141,,,,
Hilton Garden Inn Aberdeen,,1050 Beards Hill Road,,Aberdeen,MD,21001,USA,+1-410-272-1777,39.52038,-76.18328,,,,
Hilton Garden Inn Albany Airport,,800 Albany Shaker Rd.,,Albany,NY,12211,USA,+1-518-464-6666,42.7468,-73.8193,,,,
Hilton Garden Inn Albany Medical Center,,62 New Scotland Avenue,,Albany,NY,12208,USA,+1-518-396-3500,42.65204,-73.77626,,,,
Hilton Garden Inn Albany/SUNY Area,,1389 Washington Ave.,,Albany,NY,12206,USA,+1-518-453-1300,42.68815,-73.81461,,,,
Hilton Garden Inn Allentown Bethlehem Airport,,1787-B Airport Road,,Allentown,PA,18109,USA,+1-610-443-1400,40.63044,-75.44132,,,,
Hilton Garden Inn Allentown West,,230 Sycamore Road,,Breinigsville,PA,18031,USA,+1-610-398-6686,40.57594,-75.62192,,,,
Hilton Garden Inn Annapolis,,305 Harry S. Truman Parkway,,Annapolis,MD,21401,USA,+1-410-266-9006,38.9753,-76.555,,,,
Hilton Garden Inn Auburn,,74 State Street,,Auburn,NY,13021,USA,+1-315-252-5511,42.93336,-76.56958,,,,
Hilton Garden Inn Auburn Riverwatch,,14 Great Falls Plaza,,Auburn,ME,04210,USA,+1-207-784-4433,44.09776,-70.22462,,,,
Hilton Garden Inn BWI Airport,,1516 Aero Dr,,Linthicum,MD,21090,USA,+1-410-691-0500,39.21021,-76.67755,,,,
Hilton Garden Inn Baltimore Inner Harbor,,625 S. President Street,,Baltimore,MD,21202,USA,+1-410-234-0065,39.2841,-76.6017,,,,
Hilton Garden Inn Baltimore/Owings Mills,,4770 Owings Mills Blvd,,Owings Mills,MD,21117,USA,+1-410-654-0030,39.40357,-76.79624,,,,
Hilton Garden Inn Baltimore/White Marsh,,5015 Campbell Boulevard,,Baltimore,MD,21236,USA,+1-410-427-0600,39.3731,-76.4586,,,,
Hilton Garden Inn Bangor,,250 Haskell Road,,Bangor,ME,04401,USA,+1-207-262-0099,44.8306,-68.7392,,,,
Hilton Garden Inn Boston Logan Airport,,100 Boardman Street,,Boston,MA,02128,USA,+1-617-567-6789,42.38992,-71.01208,,,,
Hilton Garden Inn Boston-Burlington,,5 Wheeler Road,,Burlington,MA,01803,USA,+1-781-272-8800,42.4762,-71.2119,,,,
Hilton Garden Inn Boston/Marlborough,,170 Forest Street,,Marlborough,MA,01752,USA,+1-508-251-6706,42.33192,-71.57744,,,,
Hilton Garden Inn Boston/Waltham,,450 Totten Pond Road,,Waltham,MA,02451,USA,+1-781-890-0100,42.39738,-71.25424,,,,
Hilton Garden Inn Bridgewater,,500 Promenade Boulevard,,Bridgewater,NJ,08807,USA,+1-732-271-9030,40.566,-74.5557,,,,
Hilton Garden Inn Buffalo Airport,,4201 Genesee Street,,Cheektowaga,NY,14225,USA,+1-716-565-0040,42.93056,-78.73158,,,,
Hilton Garden Inn Buffalo Downtown,,10 Lafayette Square,,Buffalo,NY,14203,USA,+1-716-848-1000,42.88653,-78.8738,,,,
Hilton Garden Inn Burlington Downtown,,101 Main Street,,Burlington,VT,05401,USA,+1-802-951-0099,44.47567,-73.21526,,,,
Hilton Garden Inn Clifton Park,,30 Clifton Country Road,,Clifton Park,NY,12065,USA,+1-518-371-7777,42.85829,-73.78043,,,,
Hilton Garden Inn Columbia,,8241 Snowden River Parkway,,Columbia,MD,21045,USA,+1-410-750-3700,39.1988,-76.808,,,,
Hilton Garden Inn Danbury,,119 Mill Plain Road,,Danbury,CT,06811,USA,+1-203-205-2000,41.3923,-73.5239,,,,
Hilton Garden Inn Devens Common,,59 Andrews Parkway,,Devens,MA,01434,USA,+1-978-772-0600,42.5398,-71.6111,,,,
Hilton Garden Inn Dover,,1706 N. DuPont Hwy,,Dover,DE,19901,USA,+1-302-674-3784,39.19683,-75.55494,,,,
Hilton Garden Inn Edison/Raritan Center,,50 Raritan Center Parkway,,Edison,NJ,08837,USA,+1-732-225-0900,40.52218,-74.33841,,,,
Hilton Garden Inn Elmira/Corning,,35 Arnot Road,,Horseheads,NY,14845,USA,+1-607-795-1111,42.1618,-76.8703,,,,
Hilton Garden Inn Erie,,2225 Downs Drive,,Erie,PA,16509,USA,+1-814-866-1390,42.04996,-80.08554,,,,
Hilton Garden Inn Exton/West Chester,,720 Eagleview Boulevard East,,Exton,PA,19341,USA,+1-610-458-8822,40.06907,-75.67565,,,,
Hilton Garden Inn Foxborough Patriot Place,,27 Patriot Place,,Foxborough,MA,02035,USA,+1-508-543-2040,42.09124,-71.26855,,,,
Hilton Garden Inn Frederick,,7226 Corporate Court,,Frederick,MD,21703,USA,+1-240-566-1500,39.3789,-77.4153,,,,
Hilton Garden Inn Freeport Downtown,,5 Park Street,,Freeport,ME,04032,USA,+1-207-865-1433,43.857,-70.0995,,,,
Hilton Garden Inn Gettysburg,,1061 York Road,,Gettysburg,PA,17325,USA,+1-717-334-2040,39.83996,-77.2067,,,,
Hilton Garden Inn Hamilton,,800 US Highway 130,,Hamilton,NJ,08690,USA,+1-609-585-6789,40.19747,-74.64298,,,,
Hilton Garden Inn Harrisburg East,,3943 TecPort Drive,,Harrisburg,PA,17111,USA,+1-717-635-7299,40.2514,-76.8183,,,,
Hilton Garden Inn Hartford North/Bradley Int'l Airport,,555 Corporate Drive,,Windsor,CT,06095,USA,+1-860-688-6400,41.86921,-72.66666,,,,
Hilton Garden Inn Hartford South/Glastonbury,,85 Glastonbury Boulevard,,Glastonbury,CT,06033,USA,+1-860-659-1025,41.7214,-72.62234,,,,
Hilton Garden Inn Hershey,,550 East Main Street,,Hummelstown,PA,17036,USA,+1-717-566-9292,40.26645,-76.69454,,,,
Hilton Garden Inn Indiana at IUP,,714 Pratt Drive,,Indiana,PA,15705,USA,+1-724-349-2222,40.61144,-79.16091,,,,
Hilton Garden Inn Islip/MacArthur Airport,,3485 Veterans Memorial Highway,,Ronkonkoma,NY,11779,USA,+1-631-738-7800,40.7872,-73.1225,,,,
Hilton Garden Inn Ithaca,,130 E. Seneca Street,,Ithaca,NY,14850,USA,+1-607-277-8900,42.44076,-76.49741,,,,
Hilton Garden Inn Kennett Square,,815 East Baltimore Pike,,Kennett Square,PA,19348,USA,+1-610-444-9100,39.85946,-75.6881,,,,
Hilton Garden Inn Kent Island,,3206 Main Street,,Grasonville,MD,21638,USA,+1-410-827-3877,38.96731,-76.24015,,,,
Hilton Garden Inn Lakewood,,1885 Highway 70 West,,Lakewood,NJ,08701,USA,+1-732-262-5232,40.0557,-74.164,,,,
Hilton Garden Inn Lancaster,,101 Granite Run Drive,,Lancaster,PA,17601-6803,USA,+1-717-560-0880,40.0785,-76.3368,,,,
Hilton Garden Inn Lenox Pittsfield,,1032 South Street,,Pittsfield,MA,01201,USA,+1-413-448-2222,42.4079,-73.26531,,,,
Hilton Garden Inn Manchester Downtown,,101 South Commercial Street,,Manchester,NH,03101,USA,+1-603-669-2222,42.98317,-71.46596,,,,
Hilton Garden Inn Melville,,1575 Round Swamp Road,,Plainview,NY,11803,USA,+1-516-755-5552,40.78259,-73.44514,,,,
Hilton Garden Inn Milford,,291 Old Gate Lane,,Milford,CT,06460,USA,+1-203-783-9988,41.2335,-73.0251,,,,
Hilton Garden Inn Mount Holly/Westampton,,111 Hancock Lane,,Westampton,NJ,08060,USA,+1-609-702-1600,40.0285,-74.8141,,,,
Hilton Garden Inn Mt. Laurel,,4000 Atrium Way,,Mount Laurel,NJ,08054-3916,USA,+1-856-234-4788,39.91845,-74.95013,,,,
Hilton Garden Inn Mystic/Groton,,224 Gold Star Highway,,Groton,CT,06340,USA,+1-860-445-6800,41.36997,-72.06218,,,,
Hilton Garden Inn NYC Financial Center/Manhattan Downtown,,6 Water Street,,New York,NY,10004,USA,+212-248-1100,40.70294,-74.01223,,,,
Hilton Garden Inn Nanuet,,270 West Route 59,,Nanuet,NY,10954,USA,+1-845-623-0600,41.10022,-74.02209,,,,
Hilton Garden Inn New York Long Island City/Manhattan View,,29-21  41st Avenue,,Long Island City,NY,11101,USA,+1-718-786-6001,40.75018,-73.93688,,,,
Hilton Garden Inn New York Times Square South,,326 West 37th Street,,New York City,NY,10018,USA,+1-212-868-6700,40.75456,-73.99355,,,,
Hilton Garden Inn New York/Central Park South-Midtown West,,237 West 54th Street,,New York,NY,10019,USA,+1-212-253-6000,40.7644,-73.9828,,,,
Hilton Garden Inn New York/Manhattan-Chelsea,,121 West 28th Street,,New York,NY,10001-6102,USA,+1-212-564-2181,40.74671,-73.992,,,,
Hilton Garden Inn New York/Manhattan-Midtown East,,206 East 52nd Street,,New York,NY,10022,USA,+1-212-794-6000,40.75674,-73.9694,,,,
Hilton Garden Inn New York/Midtown Park Ave,,45 East 33rd Street,,New York,NY,10016,USA,+1-212-755-1108,40.7468,-73.98235,,,,
Hilton Garden Inn New York/Staten Island,,1100 South Avenue,,Staten Island,NY,10314,USA,+1-718-477-2400,40.61474,-74.17701,,,,
Hilton Garden Inn New York/Times Square Central,,136 West 42nd Street,,New York,NY,10036,USA,+1-212-840-9600,40.75516,-73.98573,,,,
Hilton Garden Inn New York/Tribeca,,39 Avenue of the Americas,,New York,NY,10013,USA,+1-212-966-4091,40.721,-74.0053,,,,
Hilton Garden Inn New York/West 35th Street,,63 West 35th Street,,New York,NY,10001,USA,+1-212-594-3310,40.7504,-73.98657,,,,
Hilton Garden Inn Norwalk,,560 Main Avenue,,Norwalk,CT,06851,USA,+1-203-523-4000,41.1533,-73.42458,,,,
Hilton Garden Inn Philadelphia Center City,,1100 Arch Street,,Philadelphia,PA,19107,USA,+1-215-923-0100,39.9535,-75.1582,,,,
Hilton Garden Inn Philadelphia/Ft. Washington,,530 West Pennsylvania Ave,,Fort Washington,PA,19034,USA,+1-215-646-4637,40.1324,-75.2038,,,,
Hilton Garden Inn Pittsburgh Airport,,9600 University Blvd.,,Moon Township,PA,15108,USA,+1-412-205-5400,40.5019,-80.22321,,,,
Hilton Garden Inn Pittsburgh Airport South-Robinson Mall,,303 Park Manor Drive,,Robinson,PA,15205,USA,+1-412-788-9500,40.4507,-80.16519,,,,
Hilton Garden Inn Pittsburgh Downtown,,250 Forbes Avenue,,Pittsburgh,PA,15222,USA,+1-412-281-5557,40.44028,-80.00153,,,,
Hilton Garden Inn Pittsburgh University Place,,3454 Forbes Avenue,,Pittsburgh,PA,15213,USA,+1-412-683-2040,40.43942,-79.9594,,,,
Hilton Garden Inn Pittsburgh/Cranberry,,2000 Garden View Lane,,Cranberry Township,PA,16066,USA,+1-724-779-9999,40.68377,-80.07614,,,,
Hilton Garden Inn Pittsburgh/Southpointe,,1000 Corporate Drive,,Canonsburg,PA,15317,USA,+1-724-743-5000,40.29893,-80.17447,,,,
Hilton Garden Inn Plymouth,,Four Home Depot Drive,,Plymouth,MA,02360,USA,+1-508-830-0200,41.93275,-70.65837,,,,
Hilton Garden Inn Portland Airport,,145 Jetport Boulevard,,Portland,ME,04102,USA,+1-207-828-1117,43.64898,-70.31652,,,,
Hilton Garden Inn Portland Downtown Waterfront,,65 Commercial Street,,Portland,ME,04101,USA,+1-207-780-0780,43.65801,-70.25037,,,,
Hilton Garden Inn Portsmouth Downtown,,100 High Street,,Portsmouth,NH,03801,USA,+1-603-431-1499,43.07836,-70.75925,,,,
Hilton Garden Inn Poughkeepsie/Fishkill,,25 Westage Drive,,Fishkill,NY,12524,USA,+1-845-896-7100,41.52507,-73.89469,,,,
Hilton Garden Inn Preston Casino Area,,5 Watson Road,,Preston,CT,06365,USA,+1-860-885-1000,41.48756,-71.97194,,,,
Hilton Garden Inn Providence,,220 India Street,,Providence,RI,02903,USA,+1-401-272-5577,41.81842,-71.39109,,,,
Hilton Garden Inn Providence Airport/Warwick,,1 Thurber Street,,Warwick,RI,02886,USA,+1-401-734-9600,41.7286,-71.4432,,,,
Hilton Garden Inn Queens/JFK Airport,,148-18 134th Street,,Jamaica,NY,11430,USA,+1-718-322-4448,40.6659,-73.8058,,,,
Hilton Garden Inn Ridgefield Park,,70 Challenger Road,,Ridgefield Park,NJ,07660,USA,+1-201-641-2024,40.85206,-74.01405,,,,
Hilton Garden Inn Riverhead,,2038 Old Country Rd,,Riverhead,NY,11901,USA,+1-631-727-2733,40.92292,-72.71606,,,,
Hilton Garden Inn Rochester Downtown,,155 East Main Street,,Rochester,NY,14604,USA,+1-585-232-5000,43.15651,-77.60781,,,,
Hilton Garden Inn Rochester/Pittsford,,800 Pittsford-Victor Road,,Pittsford,NY,14534,USA,+1-585-248-9000,43.059,-77.47266,,,,
Hilton Garden Inn Rochester/University & Medical Center,,30 Celebration Drive,,Rochester,NY,14620,USA,+1-585-424-4404,43.12426,-77.61971,,,,
Hilton Garden Inn Rockaway,,375 Mount Hope Avenue,,Rockaway,NJ,07866,USA,+1-973-328-0600,40.9046,-74.5467,,,,
Hilton Garden Inn Rockville-Gaithersburg,,14975 Shady Grove Road,,Rockville,MD,20850,USA,+1-240-507-1800,39.1005,-77.1919,,,,
Hilton Garden Inn Roslyn,,3 Harbor Park Drive,,Port Washington,NY,11050,USA,+1-516-626-3600,40.80822,-73.65729,,,,
Hilton Garden Inn Saratoga Springs,,125 South Broadway,,Saratoga Springs,NY,12866,USA,+1-518-587-1500,43.06852,-73.78921,,,,
Hilton Garden Inn Secaucus/Meadowlands,,875 Route 3 East Service Road,,Secaucus,NJ,07094,USA,+1-201-864-1400,40.7827,-74.0476,,,,
Hilton Garden Inn Shelton,,25 Old Stratford Road,,Shelton,CT,06484,USA,+1-203-447-1000,41.27676,-73.11999,,,,
Hilton Garden Inn Silver Spring North,,2200 Broadbirch Drive,,Silver Spring,MD,20904,USA,+1-301-622-3333,39.0559,-76.9665,,,,
Hilton Garden Inn Solomons,,13100 Dowell Road P.O. Box 160,,Dowell,MD,20629,USA,+1-410-326-0303,38.3505,-76.4564,,,,
Hilton Garden Inn Springfield,,800 Hall of Fame Avenue,,Springfield,MA,01105,USA,+1-413-886-8000,42.09338,-72.58389,,,,
Hilton Garden Inn Springfield,,304 Route 22 West,,Springfield,NJ,07081,USA,+1-973-232-5300,40.68533,-74.33085,,,,
Hilton Garden Inn State College,,1221 East College Avenue,,State College,PA,16801,USA,+1-814-272-1221,40.80904,-77.8351,,,,
Hilton Garden Inn Stony Brook,,1 Circle Road,,Stony Brook,NY,11794,USA,+1-631-941-2980,40.91397,-73.11867,,,,
Hilton Garden Inn Syracuse,,6004 Fair Lakes Road,,East Syracuse,NY,13057,USA,+1-315-431-4800,43.09134,-76.07243,,,,
Hilton Garden Inn Times Square,,790 Eighth Avenue,,New York,NY,10019,USA,+1-212-581-7000,40.7612,-73.9866,,,,
Hilton Garden Inn Troy,,235 Hoosick Street,,Troy,NY,12180,USA,+1-518-272-1700,42.7385,-73.6712,,,,
Hilton Garden Inn Uniontown,,555 Synergy Drive,,Uniontown,PA,15401,USA,+1-724-434-7200,39.91376,-79.75165,,,,
Hilton Garden Inn Valley Forge/Oaks,,500 Cresson Boulevard,,Phoenixville,PA,19460,USA,+1-610-650-0880,40.13029,-75.45065,,,,
Hilton Garden Inn Waldorf,,10385 O'Donnell Place,,Waldorf,MD,20603,USA,+1-240-222-0000,38.6194,-76.9322,,,,
Hilton Garden Inn Wallingford/Meriden,,1181 Barnes Road,,Wallingford,CT,06492,USA,+1-203-2840000,41.47781,-72.7667,,,,
Hilton Garden Inn Washington DC Downtown,,815 14th Street N.W.,,Washington,DC,20005,USA,+1-202-783-7800,38.90065,-77.03197,,,,
Hilton Garden Inn Washington DC/Bethesda,,7301 Waverly Street,,Bethesda,MD,20814,USA,+1-301-654-8111,38.9834,-77.0924,,,,
Hilton Garden Inn Washington DC/Georgetown Area,,2201 M Street NW,,Washington,DC,20037,USA,+1-202-974-6010,38.90554,-77.04886,,,,
Hilton Garden Inn Washington DC/Greenbelt,,7810 Walker Drive,,Greenbelt,MD,20770,USA,+1-301-474-7400,38.9976,-76.8951,,,,
Hilton Garden Inn Washington DC/U.S. Capitol,,1225 First Street NE,,Washington,DC,20002,USA,+1-202-408-4870,38.906,-77.0059,,,,
Hilton Garden Inn Watertown/Thousand Islands,,1290 Arsenal Street,,Watertown,NY,13601,USA,+1-315-788-1234,43.97611,-75.9466,,,,
Hilton Garden Inn Wayne,,15 Nevins Road,,Wayne,NJ,07470,USA,+1-973-878-1007,40.96625,-74.22669,,,,
Hilton Garden Inn Westbury,,1575 Privado Road,,Westbury,NY,11590,USA,+1-516-683-8200,40.74611,-73.58975,,,,
Hilton Garden Inn Westchester Dobbs Ferry,,201 Ogden Avenue,,Dobbs Ferry,NY,10522,USA,+1-914-591-4300,41.00288,-73.85796,,,,
Hilton Garden Inn Wilkes Barre,,242 Highland Park Boulevard,,Wilkes-Barre,PA,18702,USA,+1-570-820-8595,41.2386,-75.8549,,,,
Hilton Garden Inn Worcester,,35 Major Taylor Boulevard,,Worcester,MA,01608,USA,+1-508-753-5700,42.2674,-71.7987,,,,
Hilton Garden Inn Albuquerque Airport,,2601 Yale Boulevard SE,,Albuquerque,NM,87106,USA,+1-505-765-1000,35.05342,-106.62271,,,,
Hilton Garden Inn Albuquerque North/Rio Rancho,,1771 Rio Rancho Blvd.,,Rio Rancho,NM,87124,USA,+1-505-896-1111,35.22554,-106.66091,,,,
Hilton Garden Inn Albuquerque Uptown,,6510 Americas Parkway NE,,Albuquerque,NM,87110,USA,+1-505-944-0300,35.10087,-106.57218,,,,
Hilton Garden Inn Albuquerque/Journal Center,,5320 San Antonio Drive NE,,Albuquerque,NM,87109,USA,+1-505-314-0800,35.15976,-106.58305,,,,
Hilton Garden Inn Anaheim/Garden Grove,,11777 Harbor Blvd,,Garden Grove,CA,92840,USA,+1-714-703-9100,33.7905,-117.915,,,,
Hilton Garden Inn Anchorage,,4555 Union Square Drive,,Anchorage,AK,99503,USA,+1-907-729-7000,61.1801,-149.8834,,,,
Hilton Garden Inn Arcadia/Pasadena Area,,199 North Second Avenue,,Arcadia,CA,91006,USA,+1-626-574-6900,34.14173,-118.02612,,,,
Hilton Garden Inn Arvada Denver,,5455 Olde Wadsworth Blvd,,Arvada,CO,80002,USA,+1-303-420-9799,39.79641,-105.08188,,,,
Hilton Garden Inn Bakersfield,,3625 Marriott Drive,,Bakersfield,CA,93308,USA,+1-661-716-1000,35.38012,-119.04877,,,,
Hilton Garden Inn Bend,,425 SW Bluff Drive,,Bend,OR,97702,USA,+1-541-617-6111,44.04559,-121.31407,,,,
Hilton Garden Inn Billings,,2465 Grant Road,,Billings,MT,59102,USA,+1-406-655-8800,45.75241,-108.57638,,,,
Hilton Garden Inn Boise Spectrum,,7699 West Spectrum Street,,Boise,ID,83709,USA,+1-208-376-1000,43.58756,-116.2752,,,,
Hilton Garden Inn Boise/Eagle,,145 E. Riverside Drive,,Eagle,ID,83616,USA,+1-208-938-9600,43.68718,-116.35382,,,,
Hilton Garden Inn Boulder,,2701 Canyon Boulevard,,Boulder,CO,80302,USA,+1-303-443-2200,40.01802,-105.25938,,,,
Hilton Garden Inn Bozeman,,2023 Commerce Way,,Bozeman,MT,59715,USA,+1-406-582-9900,45.69949,-111.06332,,,,
Hilton Garden Inn Burbank Downtown,,401 S. San Fernando Blvd,,Burbank,CA,91502,USA,+1-818-509-7964,34.17839,-118.30574,,,,
Hilton Garden Inn Calabasas,,24150 Park Sorrento,,Calabasas,CA,91302,USA,+1-818-591-2300,34.15144,-118.64856,,,,
Hilton Garden Inn Carlsbad Beach,,6450 Carlsbad  Blvd,,Carlsbad,CA,92011,USA,+1-760-476-0800,33.12185,-117.32718,,,,
Hilton Garden Inn Casper,,1150 N. Poplar Street,,Casper,WY,82601,USA,+1-307-266-1300,42.86273,-106.3327,,,,
Hilton Garden Inn Clovis,,520 West Shaw Ave,,Clovis,CA,93612,USA,+1-559-299-2203,36.8083,-119.7213,,,,
Hilton Garden Inn Colorado Springs,,1810 Briargate Parkway,,Colorado Springs,CO,80920,USA,+1-719-598-6866,38.96533,-104.79603,,,,
Hilton Garden Inn Colorado Springs Airport,,2035 Aerotech Drive,,Colorado Springs,CO,80916,USA,+1-719-622-0300,38.80112,-104.73157,,,,
Hilton Garden Inn Corvallis,,2500 SW Western Boulevard,,Corvallis,OR,97333,USA,+1-541-752-5000,44.55808,-123.2792,,,,
Hilton Garden Inn Cupertino,,10741 North Wolfe Road,,Cupertino,CA,95014,USA,+1-408-777-8787,37.3342,-122.0147,,,,
Hilton Garden Inn Denver Airport,,16475 East 40th Circle,,Aurora,CO,80011,USA,+1-303-371-9393,39.7715,-104.7964,,,,
Hilton Garden Inn Denver Downtown,,1400 Welton Street,,Denver,CO,80202,USA,+1-303-603-8000,39.74272,-104.99315,,,,
Hilton Garden Inn Denver South Park Meadows Area,,9290 Meridian Boulevard,,Englewood,CO,80112,USA,+1-303-824-1550,39.54316,-104.86601,,,,
Hilton Garden Inn Denver Tech Center,,7675 East Union Ave.,,Denver,CO,80237,USA,+1-303-770-4200,39.6286,-104.901,,,,
Hilton Garden Inn Denver/Cherry Creek,,600 S. Colorado Blvd.,,Denver,CO,80246,USA,+1-303-754-9800,39.7055,-104.9404,,,,
Hilton Garden Inn Denver/Highlands Ranch,,1050 Plaza Drive,,Highlands Ranch,CO,80126,USA,+1-303-683-4100,39.55654,-104.9993,,,,
Hilton Garden Inn Elko,,3650 East Idaho Street,,Elko,NV,89801,USA,+1-775-777-1200,40.86752,-115.72877,,,,
Hilton Garden Inn Eugene/Springfield,,3528 Gateway Street,,Springfield,OR,97477,USA,+1-541-736-3000,44.08509,-123.04179,,,,
Hilton Garden Inn Fairfield,,2200 Gateway Court,,Fairfield,CA,94533,USA,+1-707-426-6900,38.25983,-122.06002,,,,
Hilton Garden Inn Flagstaff,,350 West Forest Meadows St.,,Flagstaff,AZ,86001,USA,+1-928-226-8888,35.1796,-111.66198,,,,
Hilton Garden Inn Folsom,,221 Iron Point Road,,Folsom,CA,95630,USA,+1-916-353-1717,38.6419,-121.1861,,,,
Hilton Garden Inn Fontana,,10543 Sierra Avenue,,Fontana,CA,92337,USA,+1-909-822-7300,34.06221,-117.43433,,,,
Hilton Garden Inn Fort Collins,,2821 East Harmony Road,,Fort Collins,CO,80528,USA,+1-970-225-2900,40.5231,-105.0264,,,,
Hilton Garden Inn Gallup,,1530 West Maloney Avenue,,Gallup,NM,87301,USA,+1-505-722-9600,35.52747,-108.76592,,,,
Hilton Garden Inn Gilroy,,6070 Monterey Road,,Gilroy,CA,95020,USA,+1-408-840-7000,36.98843,-121.55956,,,,
Hilton Garden Inn Great Falls,,2520 14th Street SW,,Great Falls,MT,59404,USA,+1-406-452-1000,47.4799,-111.3386,,,,
Hilton Garden Inn Hobbs,,4620 Lovington Highway,,Hobbs,NM,88240,USA,+1-575-393-5645,32.75229,-103.17141,,,,
Hilton Garden Inn Idaho Falls,,700 Lindsay Blvd,,Idaho Falls,ID,83402,USA,+1-208-522-9500,43.4975,-112.0451,,,,
Hilton Garden Inn Irvine East/Lake Forest,,27082 Towne Centre Drive,,Foothill Ranch,CA,92610,USA,+1-949-859-4000,33.67197,-117.65847,,,,
Hilton Garden Inn Irvine/Orange County Airport,,2381 Morse Avenue,,Irvine,CA,92614,USA,+1-949-224-3900,33.68048,-117.84877,,,,
Hilton Garden Inn Kalispell,,1840 Highway 93 South,,Kalispell,MT,59901,USA,+1-406-756-4500,48.1793,-114.3023,,,,
Hilton Garden Inn Kauai Wailua Bay,,3-5920 Kuhio Highway,,Kapaa,HI,96746,USA,+1-808-823-6000,22.04259,-159.33702,,,,
Hilton Garden Inn LAX/El Segundo,,2100 East Mariposa Avenue,,El Segundo,CA,90245,USA,+1-310-726-0100,33.9234,-118.3877,,,,
Hilton Garden Inn Laramie,,2229 Grand Ave.,,Laramie,WY,82070,USA,+1-307-745-5500,41.30943,-105.56443,,,,
Hilton Garden Inn Las Cruces,,2550 Don Roser Drive,,Las Cruces,NM,88011,USA,+1-575-522-0900,32.28882,-106.73766,,,,
Hilton Garden Inn Las Vegas Strip South,,7830 South Las Vegas Boulevard,,Las Vegas,NV,89123,USA,+1-702-453-7830,36.04713,-115.17065,,,,
Hilton Garden Inn Las Vegas/Henderson,,1340 West Warm Springs Road,,Henderson,NV,89014,USA,+1-702-322-9000,36.0569,-115.043,,,,
Hilton Garden Inn Livermore,,2801 Constitution Drive,,Livermore,CA,94550,USA,+1-925-292-2000,37.701,-121.8172,,,,
Hilton Garden Inn Lompoc,,1201 North H Street,,Lompoc,CA,93436,USA,+1-805-735-1880,34.65742,-120.45882,,,,
Hilton Garden Inn Los Angeles Marina Del Rey,,4200 Admiralty Way,,Marina del Rey,CA,90292,USA,+1-310-301-2000,33.98523,-118.45518,,,,
Hilton Garden Inn Los Angeles Montebello,,801 Via San Clemente,,Montebello,CA,90640,USA,+1-323-724-5900,34.02687,-118.13477,,,,
Hilton Garden Inn Los Angeles/El Monte,,9920 East Valley Blvd,,El Monte,CA,91731,USA,+1-626-401-2629,34.07956,-118.05488,,,,
Hilton Garden Inn Los Angeles/Hollywood,,2005 N. Highland Avenue,,Los Angeles,CA,90068,USA,+1-323-876-8600,34.10661,-118.33797,,,,
Hilton Garden Inn Los Angeles/Redondo Beach,,2410 Marine Avenue,,Redondo Beach,CA,90278,USA,+1-310-727-9999,33.89449,-118.36964,,,,
Hilton Garden Inn Medford,,1000 Welcome Way,,Medford,OR,97504,USA,+1-541-200-6900,42.31414,-122.8465,,,,
Hilton Garden Inn Missoula,,3720 North Reserve Street,,Missoula,MT,59808,USA,+1-406-532-5300,46.90506,-114.03725,,,,
Hilton Garden Inn Monterey,,1000 Aguajito Road,,Monterey,CA,93940,USA,+1-831-373-6141,36.59051,-121.87975,,,,
Hilton Garden Inn Mountain View,,840 E. El Camino Real,,Mountain View,CA,94040,USA,+1-650-964-1700,37.37705,-122.06573,,,,
Hilton Garden Inn Napa,,3585 Solano Avenue,,Napa,CA,94558,USA,+1-707-252-0444,38.32352,-122.31184,,,,
Hilton Garden Inn Oakland/San Leandro,,510 Lewelling Boulevard,,San Leandro,CA,94579,USA,+1-510-346-5533,37.68646,-122.13351,,,,
Hilton Garden Inn Ogden UT,,2271 S. Washington Blvd.,,Ogden,UT,84401,USA,+1-801-399-2000,41.22236,-111.97048,,,,
Hilton Garden Inn Olympia,,2101 Henderson Park Lane SE,,Olympia,WA,98501,USA,+1-360-236-9934,47.02955,-122.89317,,,,
Hilton Garden Inn Ontario/Rancho Cucamonga,,11481 Mission Vista Drive,,Rancho Cucamonga,CA,91730,USA,+1-909-481-1800,34.07875,-117.55447,,,,
Hilton Garden Inn Oxnard/Camarillo,,2000 Solar Drive,,Oxnard,CA,93036,USA,+1-805-983-8600,34.22114,-119.14406,,,,
Hilton Garden Inn Palm Springs/Rancho Mirage,,71-700 Highway 111,,Rancho Mirage,CA,92270,USA,+1-760-776-9700,33.74281,-116.41354,,,,
Hilton Garden Inn Palmdale,,1309 W. Rancho Vista Blvd,,Palmdale,CA,93551,USA,+1-661-998-2000,34.6085,-118.1546,,,,
Hilton Garden Inn Palo Alto,,4216 El Camino Real,,Palo Alto,CA,94306,USA,+1-650-843-0795,37.40918,-122.12272,,,,
Hilton Garden Inn Phoenix Airport,,3422 E. Elwood St,,Phoenix,AZ,85040-1626,USA,+1-602-470-0500,33.4148,-112.00851,,,,
Hilton Garden Inn Phoenix Airport North,,3838 East Van Buren Street,,Phoenix,AZ,85008,USA,+1-602-306-2323,33.4516,-111.99743,,,,
Hilton Garden Inn Phoenix Downtown,,15 East Monroe Street,,Phoenix,AZ,85004,USA,+1-602-343-0006,33.45018,-112.07346,,,,
Hilton Garden Inn Phoenix Midtown,,4000 N. Central Avenue,,Phoenix,AZ,85012,USA,+1-602-279-9811,33.49269,-112.07527,,,,
Hilton Garden Inn Phoenix North Happy Valley,,1940 West Pinnacle Peak Road,,Phoenix,AZ,85027,USA,+1-623-434-5556,33.69962,-112.10145,,,,
Hilton Garden Inn Phoenix-Tempe ASU Research Park,,7290 S. Price Road,,Tempe,AZ,85283,USA,+1-480-897-5100,33.35421,-111.89555,,,,
Hilton Garden Inn Phoenix/Avondale,,11460 West Hilton Way,,Avondale,AZ,85323,USA,+1-623-882-3351,33.45765,-112.30494,,,,
Hilton Garden Inn Phoenix/Tempe ASU Area,,2102 E Rio Salado Parkway,,Tempe,AZ,85281,USA,+1-480-968-2180,33.43016,-111.89821,,,,
Hilton Garden Inn Portland Airport,,12048 Northeast Airport Way,,Portland,OR,97220,USA,+1-503-255-8600,45.56704,-122.53592,,,,
Hilton Garden Inn Portland/Beaverton,,15520 NW Gateway Court,,Beaverton,OR,97006,USA,+1-503-439-1717,45.52761,-122.83573,,,,
Hilton Garden Inn Portland/Lake Oswego,,14850 Kruse Oaks Dr.,,Lake Oswego,OR,97035,USA,+1-503-684-8900,45.41788,-122.74194,,,,
Hilton Garden Inn Redding,,5050 Bechelli Lane,,Redding,CA,96002,USA,+1-530-226-5111,40.5378,-122.3517,,,,
Hilton Garden Inn Reno,,9920 Double R Boulevard,,Reno,NV,89521,USA,+1-775-850-9700,39.4401,-119.7588,,,,
Hilton Garden Inn Roseville,,1951 Taylor Road,,Roseville,CA,95661,USA,+1-916-773-7171,38.76364,-121.25671,,,,
Hilton Garden Inn Sacramento Elk Grove,,9241 Laguna Springs Drive,,Elk Grove,CA,95758,USA,+1-916-691-1900,38.42258,-121.39758,,,,
Hilton Garden Inn Sacramento/South Natomas,,2540 Venture Oaks Way,,Sacramento,CA,95833-3200,USA,+1-916-568-5400,38.61171,-121.51556,,,,
Hilton Garden Inn Salt Lake City Airport,,4975 Wiley Post Way,,Salt Lake City,UT,84116,USA,+1-801-519-9000,40.77292,-112.00954,,,,
Hilton Garden Inn Salt Lake City Downtown,,250 West 600 South,,Salt Lake City,UT,84101,USA,+1-801-364-5200,40.75689,-111.89861,,,,
Hilton Garden Inn Salt Lake City/Layton,,762 West Heritage Park Blvd,,Layton,UT,84041,USA,+1-801-416-8899,41.08388,-111.98016,,,,
Hilton Garden Inn Salt Lake City/Sandy,,277 West Sego Lily Drive,,Sandy,UT,84070,USA,+1-801-352-9400,40.56842,-111.89837,,,,
Hilton Garden Inn San Bernardino,,1755 S Waterman Ave,,San Bernardino,CA,92408,USA,+1-909-806-4040,34.06942,-117.27813,,,,
Hilton Garden Inn San Diego Del Mar,,3939 Ocean Bluff Ave,,San Diego,CA,92130,USA,+1-858-720-9500,32.9171,-117.2288,,,,
Hilton Garden Inn San Diego Downtown/Bayside,,2137 Pacific Highway Suite A,,San Diego,CA,92101,USA,+1-619-696-6300,32.72591,-117.17178,,,,
Hilton Garden Inn San Diego Mission Valley Stadium,,3805 Murphy Canyon Road,,San Diego,CA,92123,USA,+1-858-278-9300,32.81179,-117.11594,,,,
Hilton Garden Inn San Diego Old Town/SeaWorld Area,,4200 Taylor Street,,San Diego,CA,92110,USA,+1-619-260-0607,32.75835,-117.19801,,,,
Hilton Garden Inn San Diego/Rancho Bernardo,,17240 Bernardo Center Drive,,San Diego,CA,92128,USA,+1-858-676-1660,33.02619,-117.07494,,,,
Hilton Garden Inn San Francisco Airport North,,670 Gateway Blvd,,South San Francisco,CA,94080,USA,+1-650-872-1515,37.6576,-122.39738,,,,
Hilton Garden Inn San Francisco Airport/Burlingame,,765 Airport Blvd.,,Burlingame,CA,94010,USA,+1-650-347-7800,37.58929,-122.34957,,,,
Hilton Garden Inn San Francisco/Oakland Bay Bridge,,1800 Powell Street,,Emeryville,CA,94608,USA,+1-510-658-9300,37.83806,-122.29781,,,,
Hilton Garden Inn San Jose/Milpitas,,30 Ranch Drive,,Milpitas,CA,95035,USA,+1-408-719-1313,37.42517,-121.92288,,,,
Hilton Garden Inn San Luis Obispo/Pismo Beach,,601 James Way,,Pismo Beach,CA,93449,USA,+1-805-773-6020,35.13672,-120.62057,,,,
Hilton Garden Inn San Mateo,,2000 Bridgepointe Circle,,San Mateo,CA,94404,USA,+1-650-522-9000,37.56349,-122.28182,,,,
Hilton Garden Inn Santa Barbara/Goleta,,6878 Hollister Avenue,,Goleta,CA,93117,USA,+1-805-562-5996,34.43054,-119.86884,,,,
Hilton Garden Inn Scottsdale North/Perimeter Center,,8550 East Princess Drive,,Scottsdale,AZ,85255-5469,USA,+1-480-515-4944,33.64606,-111.89647,,,,
Hilton Garden Inn Scottsdale Old Town,,7324 East Indian School Road,,Scottsdale,AZ,85251,USA,+1-480-481-0400,33.49554,-111.92339,,,,
Hilton Garden Inn Seattle Bellevue Downtown,,10777 NE 10th St,,Bellevue,WA,98004,USA,+1-425-454-0070,47.61896,-122.19694,,,,
Hilton Garden Inn Seattle Downtown,,1821 Boren Avenue,,Seattle,WA,98101,USA,+1-206-467-7770,47.61614,-122.3318,,,,
Hilton Garden Inn Seattle North/Everett,,8401 Paine Field Blvd,,Mukilteo,WA,98275,USA,+1-425-423-9000,47.92256,-122.29,,,,
"Hilton Garden Inn Seattle/Bothell, WA",,22600 Bothell Everett Highway,,Bothell,WA,98021,USA,+1-425-486-0400,47.79541,-122.21723,,,,
Hilton Garden Inn Seattle/Issaquah,,1800 NW Gilman Blvd,,Issaquah,WA,98027,USA,+1-425-837-3600,47.54637,-122.0649,,,,
Hilton Garden Inn Seattle/Renton,,1801 E. Valley Road,,Renton,WA,98057,USA,+1-425-430-1414,47.46613,-122.22029,,,,
Hilton Garden Inn Sonoma County Airport,,417 Aviation Blvd,,Santa Rosa,CA,95403,USA,+1-707-545-0444,38.51338,-122.78194,,,,
Hilton Garden Inn Spokane Airport,,9015 W HIGHWAY 2,,Spokane,WA,99224-9413,USA,+1-509-244-5866,47.6433,-117.5373,,,,
Hilton Garden Inn St. George,,1731 South Convention Center Drive,,Saint George,UT,84790,USA,+1-435-634-4100,37.07684,-113.5835,,,,
Hilton Garden Inn Tri-Cities/Kennewick,,701 North Young Street,,Kennewick,WA,99336,USA,+1-509-735-4600,46.2168,-119.218,,,,
Hilton Garden Inn Tucson Airport,,6575 South Country Club Road,,Tucson,AZ,85756,USA,+1-520-741-0505,32.133,-110.92514,,,,
Hilton Garden Inn Twin Falls,,1741 Harrison Street North,,Twin Falls,ID,83301,USA,+1-208-733-8500,42.59278,-114.47097,,,,
Hilton Garden Inn Valencia Six Flags,,27710 The Old Road,,Valencia,CA,91355-1053,USA,+1-661-254-8800,34.42396,-118.585,,,,
Hilton Garden Inn Victorville,,12603 Mariposa Road,,Victorville,CA,92395,USA,+1-760-952-1200,34.47914,-117.33723,,,,
Hilton Garden Inn Waikiki Beach,,2330 Kuhio Avenue,,Honolulu,HI,96815,USA,+1-808-892-1820,21.27878,-157.82515,,,,
Hilton Garden Inn Yakima,,401 East Yakima Avenue,,Yakima,WA,98901,USA,+1-509-454-1111,46.60369,-120.50121,,,,
Hilton Garden Inn Yuma Pivot Point,,310 N Madison Ave,,Yuma,AZ,85364,USA,+1-928-783-1500,32.7266,-114.6197,,,,
