store_name,store_number,address,address2,city,state,zip_code,country,phone_number,latitude,longitude,store_hours,store_type,other_fields,coming_soon
Rodeway Inn Golden Prairie,,700 Colorado Avenue,,Stratton,CO,80836-1343,United States,719-348-5311,,,,,,
Rodeway Inn,,SR 10 amp US 119,,Chapmanville,WV,25508,United States,304-855-7182,,,,,,
Rodeway Inn,,718 Taughenbaugh Boulevard,,Rifle,CO,81650,United States,970-625-3050,,,,,,
Rodeway Inn Sundance Mountain Inn,,26 Hwy 585,,Sundance,WY,82729,United States,307-283-3737,,,,,,
Rodeway Inn and Suites,,1704 North Main Street,,Sheridan,WY,82801,United States,307-672-2439,,,,,,
Rodeway Inn and Suites,,611 West Main Street,,Riverton,WY,82501,United States,307-856-2900,,,,,,
Rodeway Inn and Suites,,2401 W 65th Street,,Little Rock,AR,72209,United States,501-801-0188,,,,,,
Rodeway Inn,,1045 East Grand Ave,,Hot Springs,AR,71901,United States,501-624-4681,,,,,,
Rodeway Inn,,4300 Skyland Blvd E,,Tuscaloosa,AL,35405-4712,United States,205-556-5696,,,,,,
Rodeway Inn,,1916 W 3rd St,,Winslow,AZ,86047-2112,United States,928-289-4606,,,,,,
Rodeway Inn and Suites,,1738 Comfort Drive,,Tomahawk,WI,54487,United States,715-453-8900,,,,,,
Rodeway Inn,,115 Woodstock Ave,,Rutland,VT,5701,United States,802-773-9176,,,,,,
Rodeway Inn,,138 North Main Street,,Rutland,VT,5701,United States,802-775-2575,,,,,,
Rodeway Inn,,731 S Main Street,,Sweetwater,TN,37874,United States,423-337-6646,,,,,,
Rodeway Inn and Suites,,1300 Plaza Drive,,Smyrna,TN,37167,United States,615-355-6161,,,,,,
Rodeway Inn at Six Flags,,19793 I 10 W,,San Antonio,TX,78257,United States,210-698-3991,,,,,,
Rodeway Inn,,1725 Highway 17 North,,Surfside Beach,SC,29575,United States,843-839-2987,,,,,,
Rodeway Inn and Suites,,2275 E Colorado Blvd,,Spearfish,SD,57783,United States,605-642-2350,,,,,,
Rodeway Inn,,915 Highway 248 PO Box 37,,Kadoka,SD,57543,United States,605-837-2287,,,,,,
Rodeway Inn Expo Center,,2070 New Cut Road,,Spartanburg,SC,29303,United States,864-541-7750,,,,,,
Rodeway Inn,,9117 Old Number 6 Hwy,,Santee,SC,29142,United States,803-854-3003,,,,,,
Rodeway Inn and Suites,,1401 South Ocean Blvd,,Myrtle Beach,SC,29577,United States,843-444-0346,,,,,,
Rodeway Inn,,102 Bolt Dr,,Laurens,SC,29360,United States,864-681-1153,,,,,,
Rodeway Inn and Suites Fort Jackson,,494 Beltline Blvd,,Columbia,SC,29205,United States,803-738-1642,,,,,,
Rodeway Inn,,2311 Ashley Phosphate Road,,Charleston,SC,29406,United States,843-572-2228,,,,,,
Rodeway Inn,,3912 Jack Kultgen Frwy,,Waco,TX,76706,United States,254-662-3320,,,,,,
Rodeway Inn,,1401 Harborth Ave,,Three Rivers,TX,78071,United States,361-786-3563,,,,,,
Rodeway Inn,,5105 North Stateline Ave,,Texarkana,TX,75503,United States,903-792-6688,,,,,,
Rodeway Inn,,1635 Aquarena Springs Dr,,San Marcos,TX,78666,United States,512-353-8011,,,,,,
Rodeway Inn near Ft Sam Houston,,1129 Austin Highway,,San Antonio,TX,78209,United States,210-824-7400,,,,,,
Rodeway Inn Downtown,,900 N Main Ave,,San Antonio,TX,78212,United States,210-223-2951,,,,,,
Rodeway Inn At Lackland AFB,,6500 W Old Highway 90,,San Antonio,TX,78227,United States,210-674-1511,,,,,,
Rodeway Inn and Suites Fiesta Park,,10950 Laureate Dr,,San Antonio,TX,78249,United States,210-249-4800,,,,,,
Rodeway Inn,,2502 Loop 306,,San Angelo,TX,76904,United States,325-944-2578,,,,,,
Rodeway Inn,,211 NWW White Rd,,San Antonio,TX,78219,United States,210-359-7268,,,,,,
Rodeway Inn,,910 Ave Q,,Lubbock,TX,79401,United States,806-765-6307,,,,,,
Rodeway Inn,,1209 I 35 N Hwy 46,,New Braunfels,TX,78130,United States,830-629-6991,,,,,,
Rodeway Inn,,3430 South US Highway 77,,Kingsville,TX,78363,United States,361-595-5753,,,,,,
Rodeway Inn,,517 W Veterans Memorial Blvd,,Killeen,TX,76541,United States,254-634-1001,,,,,,
Rodeway Inn,,2343 North Main Street,,Junction,TX,76849,United States,325-446-4588,,,,,,
Rodeway Inn and Suites Medical Center,,6712 Morningside Drive,,Houston,TX,77030,United States,713-663-6200,,,,,,
Rodeway Inn and Suites,,9717 West FM 1960 Bus Road,,Humble,TX,77338,United States,281-446-5001,,,,,,
Rodeway Inn,,6107 Broadway I 45,,Galveston,TX,77551,United States,409-740-2491,,,,,,
Rodeway Inn and Suites Hwy 290 NW,,4760 Sherwood Ln,,Houston,TX,77092,United States,713-686-5525,,,,,,
Rodeway Inn,,1110 Liberal Street,,Dalhart,TX,79022,United States,806-249-8585,,,,,,
Rodeway Inn and Suites,,2531 FM 1960 Road East,,Houston,TX,77073,United States,281-821-9900,,,,,,
Rodeway Inn,,2103 North Interstate 35,,Gainesville,TX,76240,United States,940-665-7737,,,,,,
Rodeway Inn,,5224 IH 37 North Navigation Blvd,,Corpus Christi,TX,78407,United States,361-883-6161,,,,,,
Rodeway Inn,,1612 F N W US 287,,Childress,TX,79201,United States,940-937-3695,,,,,,
Rodeway Inn & Suites Downtown North,,6201 US 290 E.,,Austin,TX,78723,United States,512-428-4494,,,,,,
Rodeway Inn,,1832 North I 35 E,,Carrollton,TX,75006,United States,972-245-9900,,,,,,
Rodeway Inn,,3501 East Division Street,,Arlington,TX,76011,United States,817-710-0300,,,,,,
Rodeway Inn University Downtown,,2900 N I 35,,Austin,TX,78705-3404,United States,512-477-6395,,,,,,
Rodeway Inn,,2711 IH 35 South,,Austin,TX,78741,United States,512-462-9201,,,,,,
Rodeway Inn,,4236 Parkway,,Pigeon Forge,TN,37863,United States,865-453-3530,,,,,,
Rodeway Inn,,311 West Trinity Lane,,Nashville,TN,37207,United States,615-227-9696,,,,,,
Rodeway Inn,,893 Murfreesboro Road,,Nashville,TN,37217,United States,615-361-6830,,,,,,
Rodeway Inn,,1199 Linden Avenue,,Memphis,TN,38104,United States,901-308-7633,,,,,,
Rodeway Inn,,5119 American Way,,Memphis,TN,38115,United States,901-363-4800,,,,,,
Rodeway Inn,,814 Brakebill Road,,Knoxville,TN,37914,United States,865-246-3600,,,,,,
Rodeway Inn and Suites,,1845 B S Roane St,,Harriman,TN,37748,United States,865-882-5400,,,,,,
Rodeway Inn,,2239 Hollywood,,Jackson,TN,38305,United States,731-668-4840,,,,,,
Rodeway Inn,,650 Wade Circle,,Goodlettsville,TN,37072,United States,615-859-1416,,,,,,
Rodeway Inn Skyland,,223 East Parkway,,Gatlinburg,TN,37738,United States,865-436-5821,,,,,,
Rodeway Inn & Suites North,,111 Westfield Dr I 24 exit 4,,Clarksville,TN,37040,United States,931-647-6144,,,,,,
Rodeway Inn,,7620 Hamilton Park Drive,,Chattanooga,TN,37421,United States,423-499-1993,,,,,,
Rodeway Inn,,616 S 200 West,,Salt Lake City,UT,84101,United States,801-534-0808,,,,,,
Rodeway Inn,,590 W Main St,,Vernal,UT,84078,United States,435-789-8172,,,,,,
Rodeway Inn,,1400 S State Street,,Salina,UT,84654,United States,435-529-1300,,,,,,
Rodeway Inn Red Hills,,999 E Red Hills Parkway,,Saint George,UT,84770,United States,435-628-4271,,,,,,
Rodeway Inn and Suites,,649 North Main St,,Monticello,UT,84535,United States,435-587-2489,,,,,,
Rodeway Inn and Suites Landmark Inn,,168 N Main St,,Moab,UT,84532,United States,435-259-6147,,,,,,
Rodeway Inn,,70 S 200 West,,Kanab,UT,84741,United States,435-644-5500,,,,,,
Rodeway Inn,,650 W State St,,Hurricane,UT,84737,United States,435-635-4010,,,,,,
Rodeway Inn,,25 E SR 24 Caineville,,Caineville,UT,84775,United States,435-456-9900,,,,,,
Rodeway Inn near Potomac Mills,,13964 Jefferson Davis Hwy,,Woodbridge,VA,22191,United States,703-494-4144,,,,,,
Rodeway Inn Colony,,309 Page St RT 60 and 2nd St,,Williamsburg,VA,23185,United States,757-229-1855,,,,,,
Rodeway Inn and Suites,,7224 Merrimac Trail,,Williamsburg,VA,23185,United States,757-229-0400,,,,,,
Rodeway Inn Civic Center,,526 Orange Ave N E,,Roanoke,VA,24016,United States,540-981-9341,,,,,,
Rodeway Inn,,1005 Pacific Ave,,Virginia Beach,VA,23451,United States,757-428-3462,,,,,,
Rodeway Inn,,7940 Shore Drive,,Norfolk,VA,23518-2441,United States,757-588-7888,,,,,,
Rodeway Inn Richmond,,7300A West Broad Street,,Richmond,VA,23294,United States,804-726-9970,,,,,,
Rodeway Inn,,303 North Main Street,,Galax,VA,24333,United States,276-236-5127,,,,,,
Rodeway Inn,,9700 Fairfax Blvd.,,Fairfax,VA,22031,United States,703-273-1160,,,,,,
Rodeway Inn Emporia Inn,,311 Florida Ave,,Emporia,VA,23847,United States,434-634-4191,,,,,,
Rodeway Inn,,6273 Maddox Blvd,,Chincoteague,VA,23336,United States,757-336-6565,,,,,,
Rodeway Inn,,593 Rockingham Road,,Bellows Falls,VT,5101,United States,802-463-4536,,,,,,
Rodeway Inn,,945 Greenwald Court,,Mukwonago,WI,53149,United States,262-363-9970,,,,,,
Rodeway Inn and Suites,,4400 S 27th Street,,Milwaukee,WI,53221,United States,414-817-5004,,,,,,
Rodeway Inn,,1456 S Ryan Ave,,Jefferson,WI,53549,United States,920-674-4404,,,,,,
Rodeway Inn and Suites WI Madison Northeast,,4845 Hayes Road,,Madison,WI,53704,United States,608-249-1815,,,,,,
Rodeway Inn and Suites,,1828 South Hastings Way,,Eau Claire,WI,54701,United States,715-835-3600,,,,,,
Rodeway Inn,,2956 Milwaukee Rd,,Beloit,WI,53511,United States,608-364-4000,,,,,,
Rodeway Inn,,300 East Elderberry Rd,,Abbotsford,WI,54405,United States,715-223-3337,,,,,,
Rodeway Inn and Suites Downtowner Rte 66,,201 E SR 66,,Williams,AZ,86046,United States,928-635-4041,,,,,,
Rodeway Inn,,1248 North Stone Ave,,Tucson,AZ,85705,United States,520-622-6446,,,,,,
Rodeway Inn Near AZ State University Tempe,,2101 E. Apache Blvd,,Tempe,AZ,85281,United States,480-393-3090,,,,,,
Rodeway Inn,,107 South Lake Powell Blvd,,Page,AZ,86040,United States,928-645-2406,,,,,,
Rodeway Inn Silver Creek Inn,,825 North Main St,,Taylor,AZ,85939,United States,928-536-2600,,,,,,
Rodeway Inn & Suites,,250 Carroll Drive,,Sierra Vista,AZ,85635,United States,520-458-5499,,,,,,
Rodeway Inn and Suites,,335 London Bridge Road,,Lake Havasu City,AZ,86403,United States,928-453-4656,,,,,,
Rodeway Inn Downtown,,122 West Route 66,,Flagstaff,AZ,86001,United States,928-774-5081,,,,,,
Rodeway Inn,,1235 South Main Street,,Yreka,CA,96097,United States,530-842-4412,,,,,,
Rodeway Inn Capitol,,817 W Capitol Ave,,West Sacramento,CA,95691,United States,916-371-6983,,,,,,
Rodeway Inn and Suites,,2285 E Butler Ave,,Flagstaff,AZ,86004,United States,928-774-1821,,,,,,
Rodeway Inn,,4 Mariposa St.,,Vallejo,CA,94590,United States,707-554-1840,,,,,,
Rodeway Inn Emerald Forest of Trinidad,,753 Patricks Point Dr,,Trinidad,CA,95570,United States,707-677-5077,,,,,,
Rodeway Inn Watsonville,,1620 West Beach Street,,Watsonville,CA,95076,United States,831-740-4520,,,,,,
Rodeway Inn,,28718 Front Street,,Temecula,CA,92590,United States,951-676-4833,,,,,,
Rodeway Inn Casino Center,,4127 Pine Blvd amp Stateline,,South Lake Tahoe,CA,96150,United States,530-541-7150,,,,,,
Rodeway Inn City of Industry,,1228 N Durfee Avenue,,South El Monte,CA,91733,United States,626-579-4490,,,,,,
Rodeway Inn,,8911 S. Atlantic Ave.,,South Gate,CA,90280,United States,323-564-7701,,,,,,
Rodeway Inn,,128 South Green Street,,Sonora,CA,95370,United States,209-536-4694,,,,,,
Rodeway Inn,,3555 East Pacific Coast Highwa,,Signal Hill,CA,90755,United States,562-597-4455,,,,,,
Rodeway Inn,,10135 Mission Gorge Road,,Santee,CA,92071-3813,United States,619-258-2020,,,,,,
Rodeway Inn,,2632 Cleveland Avenue,,Santa Rosa,CA,95403,United States,707-542-5544,,,,,,
Rodeway Inn,,643 East San Ysidro Boulevard,,San Ysidro,CA,92173,United States,619-428-2800,,,,,,
Rodeway Inn Civic Center,,860 Eddy St,,San Francisco,CA,94109,United States,415-474-4374,,,,,,
Rodeway Inn Near Qualcomm Stadium,,5399 Adobe Falls Road,,San Diego,CA,92120,United States,619-287-8730,,,,,,
Rodeway Inn,,4345 Mission Bay Dr,,San Diego,CA,92109,United States,858-273-1121,,,,,,
Rodeway Inn San Clemente,,1301 North El Camino Real,,San Clemente,CA,92672,United States,949-361-0636,,,,,,
Rodeway Inn Wine Country,,6288 Redwood Drive,,Rohnert Park,CA,94928,United States,707-584-1600,,,,,,
Rodeway Inn and Suites,,3327 N Del Mar Ave,,Rosemead,CA,91770,United States,626-572-7180,,,,,,
Rodeway Inn,,607 West 5th Street,,San Bernardino,CA,92410,United States,909-383-1500,,,,,,
Rodeway Inn,,10518 Magnolia Ave,,Riverside,CA,92505,United States,951-359-0770,,,,,,
Rodeway Inn,,1050 North Norma Street,,Ridgecrest,CA,93555,United States,760-446-6543,,,,,,
Rodeway Inn,,532 N Market Street,,Redding,CA,96003,United States,530-241-6464,,,,,,
Rodeway Inn and Suites,,2860 E Colorado Blvd,,Pasadena,CA,91107,United States,626-792-3700,,,,,,
Rodeway Inn Ontario Mills Mall,,4075 East Guasti Road,,Ontario,CA,91761,United States,909-390-8886,,,,,,
Rodeway Inn Oceanside,,1103 N. Coast Highway,,Oceanside,CA,92054,United States,760-722-1904,,,,,,
Rodeway Inn & Suites Near the Coliseum & Arena Oakland,,4801 Coliseum Way,,Oakland,CA,94601,United States,510-532-4084,,,,,,
Rodeway Inn At Civic Center,,11734 Imperial Hwy,,Norwalk,CA,90650,United States,562-868-3211,,,,,,
Rodeway Inn & Suites,,1195 3rd Street,,Needles,CA,92363,United States,760-326-4900,,,,,,
Rodeway Inn,,607 Roosevelt Ave,,National City,CA,91950,United States,619-474-7502,,,,,,
Rodeway Inn,,1001 Motel Drive,,Merced,CA,95340-5155,United States,209-723-1034,,,,,,
Rodeway Inn,,2041 Fremont Street,,Monterey,CA,93940,United States,831-373-2911,,,,,,
Rodeway Inn,,3626 Main St SR 203,,Mammoth Lakes,CA,93546,United States,760-934-6855,,,,,,
Rodeway Inn Culver City,,11933 Washington Blvd W,,Los Angeles,CA,90066,United States,310-398-1651,,,,,,
Rodeway Inn Convention Center,,1904 W Olympic Blvd,,Los Angeles,CA,90006,United States,213-380-9393,,,,,,
Rodeway Inn,,7721 Beverly Blvd,,Los Angeles,CA,90036,United States,323-692-1777,,,,,,
Rodeway Inn,,50 Atlantic Ave,,Long Beach,CA,90802,United States,562-435-8369,,,,,,
Rodeway Inn and Suites,,3940 W Century Blvd,,Inglewood,CA,90303,United States,310-672-4570,,,,,,
Rodeway Inn,,1093 Airport Road,,Imperial,CA,92251,United States,760-355-4500,,,,,,
Rodeway Inn Hollywood,,6826 Sunset Boulevard,,Hollywood,CA,90028,United States,323-465-7186,,,,,,
Rodeway Inn Near LA Live,,6340 Santa Fe Ave,,Huntington Park,CA,90255,United States,323-589-5971,,,,,,
Rodeway Inn,,777 N Vine St,,Hollywood,CA,90038,United States,323-463-5671,,,,,,
Rodeway Inn and Suites Pacific Coast Highway,,1665 Pacific Coast Highway,,Harbor City,CA,90710,United States,310-326-9026,,,,,,
Rodeway Inn Near Home Depot Center,,15607 S Normandie Ave,,Gardena,CA,90247,United States,310-516-8701,,,,,,
Rodeway Inn Regalodge,,200 W Colorado St,,Glendale,CA,91204,United States,818-246-7331,,,,,,
Rodeway Inn,,6730 N Blackstone,,Fresno,CA,93710,United States,559-431-3557,,,,,,
Rodeway Inn,,2014 4th St,,Eureka,CA,95501,United States,707-444-0401,,,,,,
Rodeway Inn,,1635 South Mission Rd,,Fallbrook,CA,92028,United States,760-728-6174,,,,,,
Rodeway Inn,,250 W El Norte Pkwy,,Escondido,CA,92026,United States,760-746-0441,,,,,,
Rodeway Inn,,1444 N. Coast Hwy 101,,Encinitas,CA,92024,United States,760-436-1988,,,,,,
Rodeway Inn and Suites,,455 Wake Ave,,El Centro,CA,92243,United States,760-352-6620,,,,,,
Rodeway Inn,,2211 Girard St,,Delano,CA,93215,United States,661-725-1022,,,,,,
Rodeway Inn,,5311 Lincoln Avenue,,Cypress,CA,90630,United States,714-952-9388,,,,,,
Rodeway Inn,,1701 West Sixth Street,,Corona,CA,92882,United States,951-735-5500,,,,,,
Rodeway Inn & Suites,,1311 Rv Center Dr,,Colton,CA,,United States,909-824-9020,,,,,,
Rodeway Inn,,1717 Park Avenue,,Chico,CA,95928,United States,530-342-9472,,,,,,
Rodeway Inn Magic Mountain Area,,31558 Castaic Rd,,Castaic,CA,91384-3910,United States,661-295-1100,,,,,,
Rodeway Inn Near Legoland,,3570 Pio Pico Drive,,Carlsbad,CA,92008,United States,760-729-2383,,,,,,
Rodeway Inn and Suites,,31820 Railroad Canyon Rd,,Canyon Lake,CA,92587,United States,951-244-1164,,,,,,
Rodeway Inn Near Maingate Knott s,,7930 Beach Blvd,,Buena Park,CA,90620,United States,714-994-6480,,,,,,
Rodeway Inn,,1265 E 6th Street,,Beaumont,CA,92223,United States,951-845-1436,,,,,,
Rodeway Inn,,1261 East Main Street,,Barstow,CA,92311,United States,760-256-7581,,,,,,
Rodeway Inn and Suites,,3400 Chester Lane,,Bakersfield,CA,93309,United States,661-328-1100,,,,,,
Rodeway Inn,,137 East First Street,,Azusa,CA,91702,United States,626-969-7957,,,,,,
Rodeway Inn,,11854 Artesia Blvd,,Artesia,CA,90701,United States,562-402-0070,,,,,,
Rodeway Inn and Suites Near Convention Center,,2145 S Harbor Blvd,,Anaheim,CA,92802,United States,714-251-6262,,,,,,
Rodeway Inn Alameda Oakland,,1925 Webster Street,,Alameda,CA,94501,United States,510-521-8400,,,,,,
Rodeway Inn,,1600 East Highway 280 Bypass,,Phenix City,AL,36867,United States,334-298-8000,,,,,,
Rodeway Inn,,2505 Cobbs Ford Rd,,Prattville,AL,36066,United States,334-285-5022,,,,,,
Rodeway Inn,,1801 E Cedar St,,Rawlins,WY,82301,United States,307-324-2783,,,,,,
Rodeway Inn Pronghorn Lodge,,150 East Main Street,,Lander,WY,82520,United States,307-332-3940,,,,,,
Rodeway Inn,,4135 Troy Hwy,,Montgomery,AL,36116,United States,334-284-3400,,,,,,
Rodeway Inn,,3909 West Meighan Blvd,,Gadsden,AL,35904,United States,256-543-0323,,,,,,
Rodeway Inn,,1461 University Ave,,Berkeley,CA,94702,United States,510-848-3840,,,,,,
Rodeway Inn,,409 Butler Spaeth Rd.,,Gillette,WY,82716,United States,307-682-4757,,,,,,
Rodeway Inn,,608 E 2nd Street,,Gillette,WY,82716,United States,307-682-9341,,,,,,
Rodeway Inn,,5401 Walker Road,,Cheyenne,WY,82009,United States,307-632-8901,,,,,,
Rodeway Inn,,12500 I-80 East,,Cheyenne,WY,82009,United States,307-635-7799,,,,,,
Rodeway Inn,,40 N E Second St,,Stevenson,WA,98648,United States,509-427-5628,,,,,,
Rodeway Inn,,1500 Atlantic Avenue,,Woodland,WA,98674,United States,360-225-6548,,,,,,
Rodeway Inn and Suites,,6309 East Broadway,,Spokane,WA,99212,United States,509-535-7185,,,,,,
Rodeway Inn,,20 W. Houston Avenue,,Spokane,WA,99208,United States,509-467-6672,,,,,,
Rodeway Inn North,,14817 Aurora Avenue North,,Seattle,WA,98133,United States,206-367-7880,,,,,,
Rodeway Inn,,1520 N Oregon Ave,,Pasco,WA,99301,United States,509-546-2010,,,,,,
Rodeway Inn,,2930 S 176th St,,Seatac,WA,98188,United States,206-246-9300,,,,,,
Rodeway Inn and Suites,,122 North Main St,,Omak,WA,98841,United States,509-826-0400,,,,,,
Rodeway Inn,,3710 Meridian St,,Bellingham,WA,98225,United States,360-738-6000,,,,,,
Rodeway Inn and Suites,,115 3rd Street SW,,Long Beach,WA,98631,United States,360-642-3714,,,,,,
Rodeway Inn,,960 West US Highway 50,,Pueblo,CO,81008,United States,719-583-0333,,,,,,
Rodeway Inn,,103 Manitou Avenue,,Manitou Springs,CO,80829-2426,United States,719-685-3300,,,,,,
Rodeway Inn Loveland,,1639 E. Eisenhower Blvd,,Loveland,CO,80537,United States,970-635-9500,,,,,,
Rodeway Inn Cow Palace Lamar,,1301 North Main Street,,Lamar,CO,81052,United States,719-336-7753,,,,,,
Rodeway Inn,,37760 W US Hwy 50,,Gunnison,CO,81230,United States,970-641-0500,,,,,,
Rodeway Inn,,52039 Hwy 6,,Glenwood Springs,CO,81601,United States,970-945-8817,,,,,,
Rodeway Inn,,141 N First Street,,Grand Junction,CO,81501,United States,970-245-8585,,,,,,
Rodeway Inn,,1409 Barlow Rd,,Fort Morgan,CO,80701,United States,970-867-9481,,,,,,
Rodeway Inn,,3015 8th Avenue,,Evans,CO,80620,United States,970-351-6482,,,,,,
Rodeway Inn,,1701 North Lake Ave,,Estes Park,CO,80517,United States,970-586-5363,,,,,,
Rodeway Inn,,2124 S Main Street,,Delta,CO,81416,United States,970-874-9726,,,,,,
Rodeway Inn and Suites,,1623 S Nevada Ave,,Colorado Springs,CO,80905,United States,719-623-2300,,,,,,
Rodeway Inn and Suites Boulder Broker,,555 30th Street,,Boulder,CO,80303,United States,303-444-3330,,,,,,
Rodeway Inn,,333 Santa Fe Ave,,Alamosa,CO,81101,United States,719-589-5833,,,,,,
Rodeway Inn and Suites,,300 Sublimity,,Sublimity,OR,97385,United States,503-769-9579,,,,,,
Rodeway Inn & Suites,,511 S. E. Stephens Street,,Roseburg,OR,97470,United States,541-673-6625,,,,,,
Rodeway Inn,,3340 Astoria Way NE,,Salem,OR,97303,United States,503-393-6000,,,,,,
Rodeway Inn At Portland Airport,,9723 NE Sandy Blvd,,Portland,OR,97220,United States,503-255-1400,,,,,,
Rodeway Inn,,731 Main Ave W,,West Fargo,ND,58078,United States,701-282-3266,,,,,,
Rodeway Inn and Suites,,10207 SW Parkway,,Portland,OR,97225-5009,United States,503-297-2211,,,,,,
Rodeway Inn,,209 13th St S,,Wahpeton,ND,58075-4604,United States,701-642-1115,,,,,,
Rodeway Inn Columbia Mall,,3300 30th Ave S,,Grand Forks,ND,,United States,701-746-1391,,,,,,
Rodeway Inn,,652 Arsenal Street,,Watertown,NY,13601,United States,315-786-8888,,,,,,
Rodeway Inn,,1837 Highway 35,,Wall,NJ,7719,United States,732-449-4900,,,,,,
Rodeway Inn Meadowlands,,155 Route 3 East,,Secaucus,NJ,7094,United States,201-348-8300,,,,,,
Rodeway Inn,,1650 Route 1 South,,Rahway,NJ,7065,United States,732-396-9300,,,,,,
Rodeway Inn,,515 N Whitehall St,,Whitehall,MT,59759-9645,United States,406-287-5588,,,,,,
Rodeway Inn,,220 Convention Center Drive,,Las Vegas,NV,89109,United States,702-735-4151,,,,,,
Rodeway Inn,,2 Pemberton Place,,Vicksburg,MS,39180,United States,601-634-1622,,,,,,
Rodeway Inn and Suites,,852 North Gloster street A,,Tupelo,MS,38804,United States,662-844-4464,,,,,,
Rodeway Inn,,2684 State 371 SW,,Pine River,MN,56474,United States,218-587-4499,,,,,,
Rodeway Inn & Suites Richland,,390 Highway 49 South,,Richland,MS,39218,United States,601-664-3456,,,,,,
Rodeway Inn,,235 Withers Harbor Drive,,Red Wing,MN,55066,United States,651-388-1502,,,,,,
Rodeway Inn Metro Airport,,8500 Wickham Rd,,Romulus,MI,48174,United States,734-595-1990,,,,,,
Rodeway Inn,,1010 S Beacon Blvd,,Grand Haven,MI,49417,United States,616-846-1800,,,,,,
Rodeway Inn Airport,,2325 Austin Parkway,,Flint,MI,48507,United States,810-232-7777,,,,,,
Rodeway Inn,,1040 O Malley Drive,,Coopersville,MI,49404,United States,616-837-8100,,,,,,
Rodeway Inn,,610 Western Avenue,,Fergus Falls,MN,56537,United States,218-739-3311,,,,,,
Rodeway Inn and Suites,,805 21st St NE,,Austin,MN,55912,United States,507-433-9254,,,,,,
Rodeway Inn,,7836 Fairview Road,,Baxter,MN,56425,United States,218-829-0391,,,,,,
Rodeway Inn Auburn Hills,,1471 N Opdyke Road,,Auburn Hills,MI,48326,United States,248-370-8100,,,,,,
Rodeway Inn,,401 Highway 82 W.,,Greenwood,MS,38930,United States,662-453-5974,,,,,,
Rodeway Inn,,146 US 11 80,,Meridian,MS,39301,United States,601-482-4400,,,,,,
Rodeway Inn,,1608 Jefferson Street,,Laurel,MS,39440,United States,601-422-0500,,,,,,
Rodeway Inn,,137 N Walnut Street,,Greenville,MS,38701,United States,662-332-0508,,,,,,
Rodeway Inn,,10729 J St,,Omaha,NE,68127,United States,402-339-8111,,,,,,
Rodeway Inn,,710 South State Street,,Clarksdale,MS,38767,United States,662-627-9292,,,,,,
Rodeway Inn,,721 N. Davis Ave.,,Cleveland,MS,38732,United States,662-843-4060,,,,,,
Rodeway Inn,,108 Prospector Dr,,Ogallala,NE,69153,United States,308-284-2056,,,,,,
Rodeway Inn,,920 North Jeffers,,North Platte,NE,69101-3025,United States,308-532-2313,,,,,,
Rodeway Inn,,2206 Market Lane,,Norfolk,NE,68701,United States,402-371-9779,,,,,,
Rodeway Inn Lincoln,,2801 West O Street,,Lincoln,NE,68528,United States,402-475-4921,,,,,,
Rodeway Inn and Suites,,411 2nd Avenue,,Kearney,NE,68847,United States,308-698-2810,,,,,,
Rodeway Inn,,5th and Broadway,,Holdredge,NE,68949,United States,308-995-2793,,,,,,
Rodeway Inn,,2424 Osborne Drive East,,Hastings,NE,68901,United States,402-463-1422,,,,,,
Rodeway Inn,,3205 S Locust St,,Grand Island,NE,68801,United States,308-384-1333,,,,,,
Rodeway Inn,,809 S Meridian,,Cozad,NE,69130,United States,308-784-4900,,,,,,
Rodeway Inn,,1110 Fort Crook Road,,Bellevue,NE,68005,United States,402-291-0804,,,,,,
Rodeway Inn,,1124 East 4th St,,Ainsworth,NE,69210,United States,402-387-1050,,,,,,
Rodeway Inn,,102 Rogers Lane,,Livingston,MT,59047,United States,406-222-6320,,,,,,
Rodeway Inn,,1324 North Crawford Avenue,,Hardin,MT,59034,United States,406-665-1870,,,,,,
Rodeway Inn,,109 Hell Roaring Street,,Gardiner,MT,59030,United States,406-848-7520,,,,,,
Rodeway Inn & Suites Capri,,220 N. Wyoming St.,,Butte,MT,59701,United States,406-723-4391,,,,,,
Rodeway Inn,,805 Wheat Dr,,Bozeman,MT,,United States,406-587-2100,,,,,,
Rodeway Inn,,1315 North 27th Street,,Billings,MT,59101,United States,406-245-4128,,,,,,
Rodeway Inn,,208 West 40 Highway US 40 Exit 66 on I 70,,Sweet Springs,MO,65351,United States,660-335-4888,,,,,,
Rodeway Inn,,3800 Harry S. Truman Boulevard,,Saint Charles,MO,63301,United States,636-724-3500,,,,,,
Rodeway Inn Carrollton,,1408 Hwy 65 North,,Carrollton,MO,64633,United States,660-542-2988,,,,,,
Rodeway Inn and Suites,,1051 W Williams Avenue,,Fallon,NV,89406,United States,775-428-0300,,,,,,
Rodeway Inn,,736 Idaho Street,,Elko,NV,89801,United States,775-738-7152,,,,,,
Rodeway Inn Trailside Inn,,1300 N Carson Street,,Carson City,NV,89701,United States,775-883-7300,,,,,,
Rodeway Inn,,788 Laconia Rd,,Tilton,NH,3276,United States,603-524-6897,,,,,,
Rodeway Inn,,417 US Route 3,,Lincoln,NH,3251,United States,603-745-2267,,,,,,
Rodeway Inn,,24 Sullivan Street,,Claremont,NH,3743,United States,603-542-9567,,,,,,
Rodeway Inn,,620 Ocean Road Rte 88,,Point Pleasant,NJ,8742,United States,732-899-3776,,,,,,
Rodeway Inn,,119 US 9 S,,Marmora,NJ,8223,United States,609-390-3366,,,,,,
Rodeway Inn,,1132 Route 73,,Mount Laurel,NJ,8054,United States,856-656-2000,,,,,,
Rodeway Inn,,459 Tonnelle Avenue,,Jersey City,NJ,7307,United States,201-420-7788,,,,,,
Rodeway Inn,,524 Route 73,,Hammonton,NJ,8037,United States,609-561-6200,,,,,,
Rodeway Inn,,200 E White Horse Pike,,Galloway,NJ,8205,United States,609-652-2300,,,,,,
Rodeway Inn Oceanview,,3200 Pacific Avenue,,Atlantic City,NJ,8401,United States,609-345-6195,,,,,,
Rodeway Inn Boardwalk,,124 S North Carolina Ave,,Atlantic City,NJ,8401,United States,609-345-0155,,,,,,
Rodeway Inn and Suites,,9802 Niagara Falls Blvd,,Niagara Falls,NY,14304,United States,716-297-3730,,,,,,
Rodeway Inn Parkway,,208 East White Horse Pike,,Absecon,NJ,8201,United States,609-652-0928,,,,,,
Rodeway Inn,,3055 Veterans Memorial Hwy SR454,,Ronkonkoma,NY,11779,United States,631-588-6800,,,,,,
Rodeway Inn At the Beach,,3601 Pacific Ave,,Atlantic City,NJ,8401,United States,609-348-9111,,,,,,
Rodeway Inn,,547 East Absecon Blvd Route 30,,Absecon,NJ,8201,United States,609-646-3867,,,,,,
Rodeway Inn,,492 Main Street,,Niagara Falls,NY,14301,United States,716-285-8366,,,,,,
Rodeway Inn and Suites,,601 Main Street,,New Paltz,NY,12561,United States,845-883-7373,,,,,,
Rodeway Inn,,6001 Big Tree Road,,Lakeville,NY,14480,United States,585-346-2330,,,,,,
Rodeway Inn Lake George,,2447 State Route 9 N,,Lake George,NY,12845,United States,518-668-4141,,,,,,
Rodeway Inn Skytop,,239 Forest Hill Drive,,Kingston,NY,12401,United States,845-331-2900,,,,,,
Rodeway Inn and Suites,,654 Elmira Road,,Ithaca,NY,14850,United States,607-272-5252,,,,,,
Rodeway Inn,,270 West Jericho Turnpike,,Huntington Station,NY,11746,United States,631-421-3900,,,,,,
Rodeway Inn Bronx Zoo,,3070-72 Webster Avenue,,Bronx,NY,10467,United States,718-654-5500,,,,,,
Rodeway Inn Marshall Manor Horseheads,,3527 Watkins Road,,Horseheads,NY,14845,United States,607-739-3891,,,,,,
Rodeway Inn and Suites,,1951 Niagara Falls Boulevard,,Amherst,NY,14228,United States,716-691-9392,,,,,,
Rodeway Inn,,6 Carlsbad Cavern Highway,,Whites City,NM,88268,United States,575-785-2296,,,,,,
Rodeway Inn,,2800 E Tucumcari Blvd,,Tucumcari,NM,88401,United States,575-461-4094,,,,,,
Rodeway Inn,,3420 Highway 180 East,,Silver City,NM,88061,United States,575-538-3711,,,,,,
Rodeway Inn,,2803 W 2nd St,,Roswell,NM,88201,United States,575-623-9440,,,,,,
Rodeway Inn,,1601 E Broadway,,Farmington,NM,87401,United States,505-325-1813,,,,,,
Rodeway Inn,,1709 W Hwy 66,,Gallup,NM,87301,United States,505-863-9301,,,,,,
Rodeway Inn,,924 Will Rogers Drive,,Santa Rosa,NM,88435,United States,575-472-3482,,,,,,
Rodeway Inn,,604-B S. Riverside Dr.,,Espanola,NM,87532,United States,505-753-2419,,,,,,
Rodeway Inn East,,13031 Central Ave N E,,Albuquerque,NM,87123,United States,505-294-1800,,,,,,
Rodeway Inn,,"5701 Iliff Road, NW",,Albuquerque,NM,87105,United States,505-352-0644,,,,,,
Rodeway Inn and Suites,,1635 Candelaria Blvd Northeast,,Albuquerque,NM,87107,United States,505-344-5311,,,,,,
Rodeway Inn,,637 12th Street West,,Dickinson,ND,58601-3550,United States,701-227-1215,,,,,,
Rodeway Inn,,2202 University Dr S,,Fargo,ND,58103,United States,701-239-8022,,,,,,
Rodeway Inn and Suites,,7218 S Virginia Dare Trail,,Nags Head,NC,27959,United States,252-441-5242,,,,,,
Rodeway Inn,,2149 N Marine Blvd,,Jacksonville,NC,28546,United States,910-455-6888,,,,,,
Rodeway Inn & Suites,,301 Southeast Greenville Boulevard,,Greenville,NC,27858,United States,252-756-2792,,,,,,
Rodeway Inn,,1957 Cedar Creek Rd,,Fayetteville,NC,28312,United States,910-323-8333,,,,,,
Rodeway Inn Charlotte,,3601 Brookshire Boulevard,,Charlotte,NC,28216,United States,704-391-9484,,,,,,
Rodeway Inn,,3430 Saint Vardell Lane,,Charlotte,NC,28217,United States,704-527-9901,,,,,,
Rodeway Inn,,1516 Concord Parkway North,,Concord,NC,28025,United States,704-786-1175,,,,,,
Rodeway Inn,,1416 W Sugar Creek,,Charlotte,NC,28262,United States,704-597-5074,,,,,,
Rodeway Inn and Suites At Biltmore Square,,9 Wedgefield Drive,,Asheville,NC,28806,United States,828-670-8800,,,,,,
Rodeway Inn,,2055 E Lincoln Way,,Wooster,OH,44691,United States,330-262-5008,,,,,,
Rodeway Inn,,8 Crowell Road,,Asheville,NC,28806,United States,828-667-8706,,,,,,
Rodeway Inn South,,2905 Milan Rd,,Sandusky,OH,44870,United States,419-625-1291,,,,,,
Rodeway Inn North,,1021 Cleveland Rd,,Sandusky,OH,44870-0353,United States,419-626-6852,,,,,,
Rodeway Inn,,1901 Broad Ave,,Findlay,OH,45840,United States,419-424-1133,,,,,,
Rodeway Inn,,6730 E Archer St,,Tulsa,OK,74115,United States,918-835-4444,,,,,,
Rodeway Inn and Suites,,321 S Rockwell Ave,,Oklahoma City,OK,73128,United States,405-787-1350,,,,,,
Rodeway Inn,,8315 South I 35 Service Road,,Oklahoma City,OK,73149,United States,405-631-8661,,,,,,
Rodeway Inn and Suites,,620 NE US Highway 54,,Guymon,OK,73942,United States,580-338-8801,,,,,,
Rodeway Inn,,108 Meadow Ridge,,Elk City,OK,73644,United States,580-225-5120,,,,,,
Rodeway Inn and Suites,,2323 NE 181st Avenue,,Portland,OR,97230,United States,503-492-4000,,,,,,
Rodeway Inn & Suites,,205 SE Dorion Ave,,Pendleton,OR,97801,United States,541-276-3293,,,,,,
Rodeway Inn,,615 East Idaho Avenue,,Ontario,OR,97914,United States,541-889-9188,,,,,,
Rodeway Inn,,206 North Coast Highway,,Newport,OR,97365,United States,541-265-5321,,,,,,
Rodeway Inn,,402 Adams Avenue,,La Grande,OR,97850,United States,541-962-7143,,,,,,
Rodeway Inn,,901 S Riverside Ave,,Medford,OR,97501,United States,541-776-9194,,,,,,
Rodeway Inn & Suites,,635 S Hwy 395,,Hermiston,OR,97838,United States,541-567-5561,,,,,,
Rodeway Inn,,1055 West 6th Avenue,,Eugene,OR,97402,United States,541-345-0579,,,,,,
Rodeway Inn Willamette River,,345 N W 2nd St,,Corvallis,OR,97330,United States,541-752-9601,,,,,,
Rodeway Inn,,105 Front Street S W,,Boardman,OR,97818,United States,541-481-2375,,,,,,
Rodeway Inn & Suites,,904 S E Third Street,,Bend,OR,97702,United States,541-382-2111,,,,,,
Rodeway Inn,,810 Campbell St,,Baker City,OR,97814,United States,541-523-2242,,,,,,
Rodeway Inn Ashland,,2359 Ashland Street,,Ashland,OR,97520,United States,541-482-5111,,,,,,
Rodeway Inn Center City,,1208 Walnut Street,,Philadelphia,PA,19107,United States,215-546-7000,,,,,,
Rodeway Inn,,1040 N Atherton Street,,State College,PA,16803,United States,814-238-6783,,,,,,
Rodeway Inn,,132 North George Street,,York,PA,17401,United States,717-843-8974,,,,,,
Rodeway Inn Reading,,2545 North 5th Street,,Reading,PA,19605,United States,610-929-4741,,,,,,
Rodeway Inn,,10 Hershey Road,,Shippensburg,PA,17257-9407,United States,717-530-1234,,,,,,
Rodeway Inn,,3127 E Lincoln Highway,,Paradise,PA,17562,United States,717-687-6272,,,,,,
Rodeway Inn,,411 North College Street,,Myerstown,PA,17067,United States,717-866-6536,,,,,,
Rodeway Inn,,4130 Birney Ave,,Moosic,PA,18507,United States,570-457-6713,,,,,,
Rodeway Inn,,4687 Westbranch Hwy,,Lewisburg,PA,17837,United States,570-523-1106,,,,,,
Rodeway Inn Conference Center,,969 Bethlehem Pike,,Montgomeryville,PA,18936,United States,215-699-8800,,,,,,
Rodeway Inn Amish Country,,2331 Lincoln Hwy E,,Lancaster,PA,17602,United States,717-397-4973,,,,,,
Rodeway Inn & Suites,,1733 East Chocolate Avenue,,Hershey,PA,17033,United States,717-533-4533,,,,,,
Rodeway Inn,,631 South Eisenhower Boulevard,,Harrisburg,PA,17111,United States,717-564-3876,,,,,,
Rodeway Inn,,935 E Pittsburgh St Rt 30,,Greensburg,PA,15601,United States,724-836-1648,,,,,,
Rodeway Inn,,701 Altamont Blvd,,Frackville,PA,17931,United States,570-874-1223,,,,,,
Rodeway Inn,,6259 Clearfield Woodland Hwy,,Clearfield,PA,16830,United States,814-765-7587,,,,,,
Rodeway Inn,,7 N US Highway 15,,Dillsburg,PA,17019,United States,717-432-9766,,,,,,
Rodeway Inn,,1239 Harrisburg Pike,,Carlisle,PA,17013,United States,717-249-2800,,,,,,
Rodeway Inn,,4271 Business 220,,Bedford,PA,15522,United States,814-623-7800,,,,,,
Rodeway Inn,,2115 Downyflake Ln,,Allentown,PA,18103,United States,610-797-2200,,,,,,
Rodeway Inn,,116 S 7th Street,,Akron,PA,17501,United States,717-859-1654,,,,,,
Rodeway Inn,,31 W Main Road,,Middletown,RI,2842,United States,401-847-2735,,,,,,
Rodeway Inn and Suites,,43 W Areba Ave,,Hershey,PA,17033,United States,717-533-7054,,,,,,
Rodeway Inn,,183 Main Street,,Westminster,MA,1473,United States,978-874-5951,,,,,,
Rodeway Inn Logan International Airport,,309 American Legion Highway Route 60 West,,Revere,MA,2151,United States,781-284-3663,,,,,,
Rodeway Inn,,48 Cranberry Hwy,,Orleans,MA,2653,United States,508-255-1514,,,,,,
Rodeway Inn,,1005 Belmont St,,Brockton,MA,2301,United States,508-588-3333,,,,,,
Rodeway Inn,,200 Laurel Street,,Lee,MA,1238,United States,413-243-0813,,,,,,
Rodeway Inn Mid Town,,723 St Paul Street,,Baltimore,MD,21202,United States,410-244-6630,,,,,,
Rodeway Inn,,8400 I 10 Service Road,,New Orleans,LA,70127,United States,504-302-7300,,,,,,
Rodeway Inn and Suites,,335 Highway 171,,Lake Charles,LA,70601,United States,337-433-1773,,,,,,
Rodeway Inn and Suites At the Casino,,3033 Hilton Dr,,Bossier City,LA,71111,United States,318-747-2400,,,,,,
Rodeway Inn,,6014 Old Boyce Road,,Alexandria,LA,71303,United States,318-442-5190,,,,,,
Rodeway Inn,,429 W Diamond Drive,,Salina,KS,67401,United States,785-825-2500,,,,,,
Rodeway Inn and Conference Center,,1401 Zenith Dr,,Sioux City,IA,51103,United States,712-277-3211,,,,,,
Rodeway Inn,,1100 N Grand Ave,,Mount Pleasant,IA,52641,United States,319-385-2004,,,,,,
Rodeway Inn and Suites near Okoboji Lake,,1511 Okoboji Ave,,Milford,IA,51351,United States,712-338-4701,,,,,,
Rodeway Inn,,5642 Oakley Blvd,,Wesley Chapel,FL,33544,United States,813-991-4600,,,,,,
Rodeway Inn & Suites,,2904 Melbourne Blvd,,Tampa,FL,33605,United States,813-623-3591,,,,,,
Rodeway Inn,,210 E Fowler Ave,,Tampa,FL,33612,United States,813-933-7275,,,,,,
Rodeway Inn and Suites,,19540 A Coastal Hwy,,Rehoboth Beach,DE,19971,United States,302-227-0401,,,,,,
Rodeway Inn,,327 Ruby Rd,,Willington,CT,6279,United States,860-684-1400,,,,,,
Rodeway Inn,,211 Parkway North,,Waterford,CT,6385,United States,860-442-7227,,,,,,
Rodeway Inn,,10 Washington Parkway,,Stratford,CT,6615,United States,203-377-6288,,,,,,
Rodeway Inn Groton Mystic Area,,425 Bridge St,,Groton,CT,6340,United States,860-445-6550,,,,,,
Rodeway Inn,,81 Leetes Island Road,,Branford,CT,6405,United States,203-481-4528,,,,,,
Rodeway Inn,,1120 South College Avenue,,Newark,DE,19713,United States,302-731-3132,,,,,,
Rodeway Inn,,2307 East Busch Blvd,,Tampa,FL,33612,United States,813-932-0073,,,,,,
Rodeway Inn,,6510 US 301,,Tampa,FL,33610,United States,813-630-0880,,,,,,
Rodeway Inn Panama City Central,,4111 West Hwy 98,,Panama City,FL,32401,United States,850-784-1777,,,,,,
Rodeway Inn Near Florida Mall,,6119 S Orange Blossom Trail,,Orlando,FL,32809,United States,407-855-1356,,,,,,
Rodeway Inn and Conference Center,,300 Park Avenue,,Orange Park,FL,32073,United States,904-264-1211,,,,,,
Rodeway Inn,,205 SW Commerce Dr,,Lake City,FL,32025,United States,386-755-5203,,,,,,
Rodeway Inn,,6826 US 19 North,,New Port Richey,FL,34652-1743,United States,727-842-6800,,,,,,
Rodeway Inn Maingate,,5995 W Irlo Bronson Hwy,,Kissimmee,FL,34747,United States,407-396-4300,,,,,,
Rodeway Inn,,4559 W Irlo Bronson Mem Hwy,,Kissimmee,FL,34746,United States,407-396-1212,,,,,,
Rodeway Inn Kissimmee,,4970 Kyngs Heath Road,,Kissimmee,FL,34746,United States,407-396-0065,,,,,,
Rodeway Inn and Suites,,605 B Moore Road,,Haines City,FL,33844,United States,863-421-1310,,,,,,
Rodeway Inn,,3549 SW Williston Road,,Gainesville,FL,32608,United States,352-378-9240,,,,,,
Rodeway Inn,,2601 Federal Hwy,,Fort Pierce,FL,34982,United States,772-464-8850,,,,,,
Rodeway Inn and Suites Airport Cruise Port,,2440 West State Road 84,,Fort Lauderdale,FL,33312,United States,954-792-8181,,,,,,
Rodeway Inn,,7050 Okeechobee Rd,,Fort Pierce,FL,34945,United States,772-465-8600,,,,,,
Rodeway Inn on the Beach,,1503 S Atlantic,,Daytona Beach,FL,32118,United States,386-255-3617,,,,,,
Rodeway Inn,,1911 Cypress Gardens Blvd,,Cypress Gardens,FL,33884,United States,863-324-5994,,,,,,
Rodeway Inn,,16405 US Highway 19 North,,Clearwater,FL,33764,United States,727-535-0505,,,,,,
Rodeway Inn Apopka,,1317 South Orange Blossom Trail,,Apopka,FL,32703,United States,407-886-1010,,,,,,
Rodeway Inn Airport,,2799 Airport Way,,Boise,ID,83705,United States,208-336-7377,,,,,,
Rodeway Inn University,,835 South 5th Ave,,Pocatello,ID,83201,United States,208-233-0451,,,,,,
Rodeway Inn and Suites,,130 Shannon Drive,,Nampa,ID,83687,United States,208-442-0800,,,,,,
Rodeway Inn,,14866 US HWY 19 South,,Thomasville,GA,31757,United States,229-228-5555,,,,,,
Rodeway Inn,,6800 Abercorn Street,,Savannah,GA,31405,United States,912-356-1234,,,,,,
Rodeway Inn,,15 Fort Argyle Road,,Savannah,GA,31419,United States,912-927-8550,,,,,,
Rodeway Inn,,712 Avenue A,,Rome,GA,30165,United States,706-314-1115,,,,,,
Rodeway Inn,,110 Perimeter Road,,Perry,GA,31069,United States,478-987-4454,,,,,,
Rodeway Inn,,688 Highway 155 South,,Mcdonough,GA,30253,United States,770-957-5858,,,,,,
Rodeway Inn Norcross Atlanta NE Jimmy Carter Blvd,,5990 Western Hills Drive,,Norcross,GA,30071,United States,770-368-0218,,,,,,
Rodeway Inn,,2375 Delk Road,,Marietta,GA,30067,United States,770-951-1144,,,,,,
Rodeway Inn Forsyth,,"951 Highway 42, From I-75 South (To Florida): Take Exit 188. Turn left and make immediate left onto Georgia Highway 42. Hilltop Garden Inn entrance on right hand side, next to Shell Gas Station.",,Forsyth,GA,31029,United States,478-994-9260,,,,,,
Rodeway Inn & Suites,,130 Holiday North,,Macon,GA,31210,United States,478-405-0106,,,,,,
Rodeway Inn,,4415 Jonesboro Road,,Forest Park,GA,30297,United States,404-361-0200,,,,,,
Rodeway Inn,,2265 US 41 Highway NE,,Calhoun,GA,30701,United States,706-383-8842,,,,,,
Rodeway Inn and Suites,,3039B Washington Rd,,Augusta,GA,30907,United States,706-650-1311,,,,,,
Rodeway Inn,,2926 Peach Orchard Road,,Augusta,GA,30906,United States,706-793-3306,,,,,,
Rodeway Inn,,9333 Skokie Boulevard,,Skokie,IL,60077,United States,847-679-4200,,,,,,
Rodeway Inn,,2701 Maryville Rd,,Maryville,IL,62062,United States,618-345-5720,,,,,,
Rodeway Inn,,1730 McDonough St,,Joliet,IL,60436-1219,United States,815-725-8855,,,,,,
Rodeway Inn,,8640 W Ogden Ave,,Lyons,IL,60534,United States,708-447-6363,,,,,,
Rodeway Inn,,1205 North Keller Drive,,Effingham,IL,62401,United States,217-347-7515,,,,,,
Rodeway Inn Caseyville,,8950 Tucker Dr,,Caseyville,IL,62206,United States,618-397-4200,,,,,,
Rodeway Inn,,5020 N E 14th Street,,Des Moines,IA,50313,United States,515-265-7511,,,,,,
Rodeway Inn,,4011 16th Ave SW,,Cedar Rapids,IA,52404,United States,319-396-5000,,,,,,
Rodeway Inn,,3525 N Shadeland Ave,,Indianapolis,IN,46226,United States,317-549-2222,,,,,,
Rodeway Inn & Suites,,211 Rawhide Drive,,Olathe,KS,66061,United States,913-782-4343,,,,,,
Rodeway Inn,,3506 US Highway 40,,Oakley,KS,67748,United States,785-672-3254,,,,,,
Rodeway Inn,,488 East Pancake Blvd,,Liberal,KS,67901,United States,620-624-5642,,,,,,
Rodeway Inn,,2222 West 6th Street,,Lawrence,KS,66049,United States,785-842-7030,,,,,,
Rodeway Inn,,802 E 14th,,Larned,KS,67550,United States,620-285-2300,,,,,,
Rodeway Inn & Suites,,57 W. Kansas Highway 4,,Hoisington,KS,67544,United States,620-292-6022,,,,,,
Rodeway Inn,,2200 W Wyatt Earp Boulevard,,Dodge City,KS,67801,United States,620-227-8146,,,,,,
Rodeway Inn,,89 Lincoln Street,,Concordia,KS,66901,United States,785-243-4545,,,,,,
Rodeway Inn,,2923 Fort Campbell Blvd,,Hopkinsville,KY,42240,United States,270-885-1126,,,,,,
Rodeway Inn,,571 Phillips Ln,,Louisville,KY,40209,United States,502-361-5008,,,,,,
Rodeway Inn,,7928 Dream St,,Florence,KY,41042-1802,United States,859-283-1221,,,,,,
Rodeway Inn,,21 Ocean Park Road,,Saco,ME,4072,United States,207-282-5569,,,,,,
Rodeway Inn and Suites,,287 Bath Road,,Brunswick,ME,4011,United States,207-729-6661,,,,,,
