store_name,store_number,address,address2,city,state,zip_code,country,phone_number,latitude,longitude,store_hours,store_type,other_fields,coming_soon
Corte Madera,172018,1624 Redwood Highway,,Corte Madera,CA,94925,United States,4159245400,37.9321465,-122.5157549,"monday 10:00 AM-8:00 PM, tuesday 10:00 AM-8:00 PM, wednesday 10:00 AM-8:00 PM, thursday 10:00 AM-8:00 PM, friday 10:00 AM-8:00 PM, saturday 10:00 AM-7:00 PM, sunday 11:00 AM-6:00 PM",,,
Montana Avenue,172076,1402 Montana Avenue,,Santa Monica,CA,90403,United States,3103947900,34.0321961,-118.49487,"monday 10:00 AM-7:00 PM, tuesday 10:00 AM-7:00 PM, wednesday 10:00 AM-7:00 PM, thursday 10:00 AM-7:00 PM, friday 10:00 AM-7:00 PM, saturday 10:00 AM-7:00 PM, sunday 11:00 AM-6:00 PM",,,
Carlsbad,172078,1925 Calle Barcelona, Suite 163,Carlsbad,CA,92009,United States,7606348004,33.0703833,-117.2628032,"monday 10:00 AM-9:00 PM, tuesday 10:00 AM-9:00 PM, wednesday 10:00 AM-9:00 PM, thursday 10:00 AM-9:00 PM, friday 10:00 AM-9:00 PM, saturday 10:00 AM-9:00 PM, sunday 11:00 AM-6:00 PM",,,
Brentwood,172080,11640 San Vicente Boulevard, Suite 108,Los Angeles,CA,90049,United States,3104425900,34.0535103,-118.4630933,"monday 10:00 AM-7:00 PM, tuesday 10:00 AM-7:00 PM, wednesday 10:00 AM-7:00 PM, thursday 10:00 AM-7:00 PM, friday 10:00 AM-7:00 PM, saturday 10:00 AM-7:00 PM, sunday 11:00 AM-6:00 PM",,,
Los Gatos,172100,11 North Santa Cruz Avenue,,Los Gatos,CA,95030,United States,4083544900,37.2229867,-121.9838327,"monday 10:00 AM-6:00 PM, tuesday 10:00 AM-6:00 PM, wednesday 10:00 AM-6:00 PM, thursday 10:00 AM-6:00 PM, friday 10:00 AM-6:00 PM, saturday 9:00 AM-6:00 PM, sunday 10:00 AM-6:00 PM",,,
La Fiesta Plaza,172113,3543 Mt. Diablo Boulevard,,Lafayette,CA,94549,United States,9259629060,37.891644,-122.1197642,"monday 10:00 AM-7:00 PM, tuesday 10:00 AM-7:00 PM, wednesday 10:00 AM-7:00 PM, thursday 10:00 AM-8:00 PM, friday 10:00 AM-8:00 PM, saturday 10:00 AM-7:00 PM, sunday 11:00 AM-7:00 PM",,,
Larchmont,172118,158 North Larchmont Boulevard,,Los Angeles,CA,90004,United States,3239623001,34.0747351,-118.323382,"monday 10:00 AM-7:00 PM, tuesday 10:00 AM-7:00 PM, wednesday 10:00 AM-7:00 PM, thursday 10:00 AM-7:00 PM, friday 10:00 AM-7:00 PM, saturday 10:00 AM-7:00 PM, sunday 10:00 AM-7:00 PM",,,
The Point,172119,840 S. Sepulveda Boulevard,,El Segundo,CA,90245,United States,3104161006,33.9028202,-118.3954328,"monday 10:00 AM-9:00 PM, tuesday 10:00 AM-9:00 PM, wednesday 10:00 AM-9:00 PM, thursday 10:00 AM-9:00 PM, friday 10:00 AM-9:00 PM, saturday 10:00 AM-6:00 PM, sunday 11:00 AM-5:00 PM",,,
Inside Macy's Union Square,172501,170 O'Farrell St,,San Francisco,CA,94102,United States,4152964674,37.7867986,-122.4073963,"monday 10:00 AM-9:00 PM, tuesday 10:00 AM-9:00 PM, wednesday 10:00 AM-9:00 PM, thursday 10:00 AM-9:00 PM, friday 10:00 AM-9:00 PM, saturday 10:00 AM-9:00 PM, sunday 11:00 AM-7:00 PM",,,
Inside Macy's Victoria Gardens,172502,7855 Kew Avenue,,Rancho Cucamonga,CA,91739,United States,9096463333,34.1108263,-117.5301602,"monday 10:00 AM-9:00 PM, tuesday 10:00 AM-9:00 PM, wednesday 10:00 AM-10:00 PM, thursday 10:00 AM-10:00 PM, friday 10:00 AM-10:00 PM, saturday 10:00 AM-10:00 PM, sunday 11:00 AM-9:00 PM",,,
Inside Macy's Santa Anita,172503,400 S. Baldwin Avenue,,Arcadia,CA,91007,United States,6264455711,34.1349204,-118.0509968,"monday 10:00 AM-9:00 PM, tuesday 10:00 AM-9:00 PM, wednesday 10:00 AM-9:00 PM, thursday 10:00 AM-9:00 PM, friday 10:00 AM-9:30 PM, saturday 10:00 AM-9:30 PM, sunday 11:00 AM-7:00 PM",,,
Inside Macy's Roseville Galleria,172511,1197 Galleria Boulevard,,Roseville,CA,95678,United States,9167873314,38.7753003,-121.2683993,"monday 10:00 AM-9:00 PM, tuesday 10:00 AM-9:00 PM, wednesday 10:00 AM-9:00 PM, thursday 10:00 AM-9:00 PM, friday 10:00 AM-9:30 PM, saturday 10:00 AM-9:30 PM, sunday 11:00 AM-8:00 PM",,,
Inside Macy's Valley Fair,172512,2801 Stevens Creek Boulevard,,Santa Clara,CA,95050,United States,4082616005,37.32418029999999,-121.9483679,"monday 10:00 AM-9:00 PM, tuesday 10:00 AM-9:00 PM, wednesday 10:00 AM-9:30 PM, thursday 10:00 AM-9:30 PM, friday 10:00 AM-9:30 PM, saturday 10:00 AM-10:00 PM, sunday 11:00 AM-8:00 PM",,,
Inside Macy's Del Amo,172513,21600 Hawthorne Boulevard,,Torrance,CA,90503,United States,3107932725,33.831725,-118.3521839,"monday 10:00 AM-9:00 PM, tuesday 10:00 AM-9:00 PM, wednesday 10:00 AM-9:00 PM, thursday 10:00 AM-9:00 PM, friday 10:00 AM-9:30 PM, saturday 10:00 AM-9:30 PM, sunday 11:00 AM-7:00 PM",,,
Inside Macy's Sherman Oaks,172514,14000 Riverside Drive,,Sherman Oaks,CA,91423,United States,8183797819,34.1571138,-118.4354635,"monday 10:00 AM-9:00 PM, tuesday 10:00 AM-9:00 PM, wednesday 10:00 AM-9:00 PM, thursday 10:00 AM-9:00 PM, friday 10:00 AM-9:00 PM, saturday 10:00 AM-9:00 PM, sunday 11:00 AM-7:00 PM",,,
Inside Macy's Stanford,172521,300 Stanford Shopping Center,,Palo Alto,CA,94304,United States,6503263482,37.4421979,-122.1716422,"monday 10:00 AM-9:00 PM, tuesday 10:00 AM-9:00 PM, wednesday 10:00 AM-9:00 PM, thursday 10:00 AM-9:00 PM, friday 10:00 AM-9:00 PM, saturday 10:00 AM-9:00 PM, sunday 11:00 AM-7:00 PM",,,
Inside Macy's Century City,172526,10250 Santa Monica Boulevard, Suite 100,Los Angeles,CA,90067,United States,4243593584,34.0587493,-118.4190646,"monday 10:00 AM-9:00 PM, tuesday 10:00 AM-9:00 PM, wednesday 10:00 AM-9:00 PM, thursday 10:00 AM-10:00 PM, friday 10:00 AM-10:00 PM, saturday 10:00 AM-10:00 PM, sunday 11:00 AM-7:00 PM",,,
Chestnut Street,172120,2060 Chestnut Street,,San Francisco,CA,94123,United States,4153463460,37.800861,-122.4376364,"monday 10:00 AM-7:00 PM, tuesday 10:00 AM-7:00 PM, wednesday 10:00 AM-7:00 PM, thursday 10:00 AM-7:00 PM, friday 10:00 AM-8:00 PM, saturday 10:00 AM-8:00 PM, sunday 11:00 AM-6:00 PM",,,
Santa Clara Plaza,172129,2722 Augustine Drive, Suite 140,Santa Clara,CA,95054,United States,4088558650,37.38095670000001,-121.9750072,"monday 10:00 AM-7:00 PM, tuesday 10:00 AM-7:00 PM, wednesday 10:00 AM-7:00 PM, thursday 10:00 AM-7:00 PM, friday 10:00 AM-7:00 PM, saturday 10:00 AM-7:00 PM, sunday 11:00 AM-6:00 PM",,,
Del Mar Highlands,172146,12925 El Camino Real, Suite J11,San Diego,CA,92130,United States,8583503150,32.9520452,-117.2325436,"monday 10:00 AM-7:00 PM, tuesday 10:00 AM-7:00 PM, wednesday 10:00 AM-7:00 PM, thursday 10:00 AM-7:00 PM, friday 10:00 AM-8:00 PM, saturday 10:00 AM-6:00 PM, sunday 10:00 AM-6:00 PM",,,
La Encantada,172028,2905 East Skyline Drive, Suite 283,Tucson,AZ,85718,United States,5205299700,32.3247418,-110.9301132,"monday 10:00 AM-7:00 PM, tuesday 10:00 AM-7:00 PM, wednesday 10:00 AM-7:00 PM, thursday 10:00 AM-8:00 PM, friday 10:00 AM-8:00 PM, saturday 10:00 AM-8:00 PM, sunday 11:00 AM-6:00 PM",,,
Kierland Commons,172090,15215 N. Kierland Boulevard, Suite 155,Scottsdale,AZ,85254,United States,4809227000,33.6250337,-111.928576,"monday 10:00 AM-9:00 PM, tuesday 10:00 AM-9:00 PM, wednesday 10:00 AM-9:00 PM, thursday 10:00 AM-9:00 PM, friday 10:00 AM-9:00 PM, saturday 10:00 AM-9:00 PM, sunday 12:00 PM-6:00 PM",,,
Scottsdale,172126,2021 E Camelback Road, Suite D12,Pheonix,AZ,85016,United States,,33.5063003,-112.0376638,,,,
Westport,172033,62 Main Street,,Westport,CT,06880,United States,2032276900,41.1423501,-73.36147249999999,"monday 10:00 AM-7:00 PM, tuesday 10:00 AM-7:00 PM, wednesday 10:00 AM-7:00 PM, thursday 10:00 AM-7:00 PM, friday 10:00 AM-7:00 PM, saturday 10:00 AM-7:00 PM, sunday 11:00 AM-6:00 PM",,,
Westport 2,172034,57 Main Street,,Westport,CT,06880,United States,2032229222,41.14215,-73.36188109999999,"monday 10:00 AM-7:00 PM, tuesday 10:00 AM-7:00 PM, wednesday 10:00 AM-7:00 PM, thursday 10:00 AM-7:00 PM, friday 10:00 AM-7:00 PM, saturday 10:00 AM-7:00 PM, sunday 11:00 AM-6:00 PM",,,
New Canaan,172046,120 Main Street,,New Canaan,CT,06840,United States,2039727100,41.1471719,-73.49194840000001,"monday 10:00 AM-6:00 PM, tuesday 10:00 AM-6:00 PM, wednesday 10:00 AM-6:00 PM, thursday 10:00 AM-6:00 PM, friday 10:00 AM-6:00 PM, saturday 10:00 AM-6:00 PM, sunday 11:00 AM-6:00 PM",,,
Darien,172073,1015 Boston Post Road,,Darien,CT,06820,United States,2036569660,41.0756144,-73.47180399999999,"monday 10:00 AM-7:00 PM, tuesday 10:00 AM-7:00 PM, wednesday 10:00 AM-7:00 PM, thursday 10:00 AM-7:00 PM, friday 10:00 AM-7:00 PM, saturday 10:00 AM-7:00 PM, sunday 11:00 AM-6:00 PM",,,
West Hartford,172103,987 Farmington Avenue,,West Hartford,CT,06107,United States,8602319099,41.7609878,-72.74446309999999,"monday 10:00 AM-6:00 PM, tuesday 10:00 AM-6:00 PM, wednesday 10:00 AM-6:00 PM, thursday 10:00 AM-6:00 PM, friday 10:00 AM-6:00 PM, saturday 10:00 AM-6:00 PM, sunday 11:00 AM-6:00 PM",,,
Dupont Circle,172001,1619 Connecticut Avenue NW,,Washington,DC,20009,United States,2024621300,38.9117574,-77.0442913,"monday 10:00 AM-8:00 PM, tuesday 10:00 AM-8:00 PM, wednesday 10:00 AM-8:00 PM, thursday 10:00 AM-8:00 PM, friday 10:00 AM-8:00 PM, saturday 10:00 AM-8:00 PM, sunday 11:00 AM-6:00 PM",,,
Georgetown,172002,3059 M Street, NW,Washington,DC,20007,United States,2029651300,38.905372,-77.06060459999999,"monday 10:00 AM-8:00 PM, tuesday 10:00 AM-8:00 PM, wednesday 10:00 AM-8:00 PM, thursday 10:00 AM-8:00 PM, friday 10:00 AM-8:00 PM, saturday 10:00 AM-8:00 PM, sunday 11:00 AM-6:00 PM",,,
Dupont Circle 2,172035,1145 Connecticut Avenue NW,,Washington,DC,20036,United States,2026285567,38.9052758,-77.0405396,"monday 10:00 AM-7:00 PM, tuesday 10:00 AM-7:00 PM, wednesday 10:00 AM-7:00 PM, thursday 10:00 AM-7:00 PM, friday 10:00 AM-7:00 PM, saturday 10:00 AM-6:00 PM, sunday 11:00 AM-6:00 PM",,,
Union Station,172072,50 Massachusetts Avenue,,Washington,DC,20002,United States,2022895008,38.8972903,-77.006203,"monday 10:00 AM-9:00 PM, tuesday 10:00 AM-9:00 PM, wednesday 10:00 AM-9:00 PM, thursday 10:00 AM-9:00 PM, friday 10:00 AM-9:00 PM, saturday 10:00 AM-9:00 PM, sunday 11:00 AM-6:00 PM",,,
P Street,172085,1427 P Street NW,,Washington,DC,20005,United States,2022380001,38.9098122,-77.0330623,"monday 10:00 AM-8:00 PM, tuesday 10:00 AM-8:00 PM, wednesday 10:00 AM-8:00 PM, thursday 10:00 AM-8:00 PM, friday 10:00 AM-8:00 PM, saturday 10:00 AM-8:00 PM, sunday 11:00 AM-6:00 PM",,,
Cathedral Commons,172108,3320 Wisconsin Avenue NW,,Washington,DC,20016,United States,2022440001,38.9341103,-77.0724419,"monday 10:00 AM-8:00 PM, tuesday 10:00 AM-8:00 PM, wednesday 10:00 AM-8:00 PM, thursday 10:00 AM-8:00 PM, friday 10:00 AM-8:00 PM, saturday 10:00 AM-8:00 PM, sunday 11:00 AM-6:00 PM",,,
Buckhead,172066,37 West Paces Ferry Road,,Atlanta,GA,30305,United States,4044679100,33.8403319,-84.38085799999999,"monday 10:00 AM-8:00 PM, tuesday 10:00 AM-8:00 PM, wednesday 10:00 AM-8:00 PM, thursday 10:00 AM-8:00 PM, friday 10:00 AM-8:00 PM, saturday 10:00 AM-8:00 PM, sunday 11:00 AM-6:00 PM",,,
Savannah,172114,110 West Broughton Street,,Savannah,GA,31401,United States,9122383333,32.0795843,-81.09348059999999,"monday 10:00 AM-8:00 PM, tuesday 10:00 AM-8:00 PM, wednesday 10:00 AM-8:00 PM, thursday 10:00 AM-8:00 PM, friday 10:00 AM-8:00 PM, saturday 10:00 AM-8:00 PM, sunday 12:00 PM-6:00 PM",,,
Inside Macy's North Point,172525,5000 North Point Circle,,Alpharetta,GA,30022,United States,7704102914,34.0493234,-84.29538330000001,"monday 10:00 AM-9:00 PM, tuesday 10:00 AM-9:00 PM, wednesday 10:00 AM-9:00 PM, thursday 10:00 AM-10:00 PM, friday 10:00 AM-10:00 PM, saturday 10:00 AM-10:00 PM, sunday 11:00 AM-7:00 PM",,,
St. Johns,172020,4742 River City Drive,,Jacksonville,FL,32246,United States,9045650003,30.2562989,-81.5257281,"monday 10:00 AM-9:00 PM, tuesday 10:00 AM-9:00 PM, wednesday 10:00 AM-9:00 PM, thursday 10:00 AM-9:00 PM, friday 10:00 AM-9:00 PM, saturday 10:00 AM-9:00 PM, sunday 11:00 AM-6:00 PM",,,
Tampa,172081,704 South Village Circle,,Tampa,FL,33606,United States,8132544100,27.9365523,-82.4751837,"monday 10:00 AM-8:00 PM, tuesday 10:00 AM-8:00 PM, wednesday 10:00 AM-8:00 PM, thursday 10:00 AM-8:00 PM, friday 10:00 AM-8:00 PM, saturday 10:00 AM-8:00 PM, sunday 12:00 PM-5:00 PM",,,
Winter Park,172101,102 N. Park Avenue,,Winter Park,FL,32789,United States,4076280300,28.5979091,-81.35086179999999,"monday 10:00 AM-6:00 PM, tuesday 10:00 AM-6:00 PM, wednesday 10:00 AM-6:00 PM, thursday 10:00 AM-7:00 PM, friday 10:00 AM-7:00 PM, saturday 10:00 AM-7:00 PM, sunday 12:00 PM-6:00 PM",,,
Sarasota,172124,1500 Main Street,,Sarasota,FL,34236,United States,9413650020,27.3362937,-82.54044619999999,"monday 10:00 AM-7:00 PM, tuesday 10:00 AM-7:00 PM, wednesday 10:00 AM-7:00 PM, thursday 10:00 AM-7:00 PM, friday 10:00 AM-7:00 PM, saturday 10:00 AM-7:00 PM, sunday 11:00 AM-6:00 PM",,,
Inside Macy's Town Center at Boca Raton,172510,5700 Glades Road,,Boca Raton,FL,33431,United States,5613934444,26.3660599,-80.13177100000001,"monday 10:00 AM-9:00 PM, tuesday 10:00 AM-9:00 PM, wednesday 10:00 AM-9:30 PM, thursday 10:00 AM-9:30 PM, friday 10:00 AM-9:30 PM, saturday 10:00 AM-9:30 PM, sunday 11:00 AM-7:00 PM",,,
Inside Macy's The Gardens,172518,3107 PGA Boulevard,,Palm Beach,FL,33410,United States,5617752222,26.8450512,-80.08418429999999,"monday 10:00 AM-9:00 PM, tuesday 10:00 AM-9:00 PM, wednesday 10:00 AM-9:00 PM, thursday 10:00 AM-9:00 PM, friday 10:00 AM-9:30 PM, saturday 10:00 AM-9:30 PM, sunday 12:00 PM-7:00 PM",,,
Inside Macy's University Town Center,172524,110 University Town Center 828,,Sarasota,FL,34243,United States,9412327370,27.3865274,-82.45307489999999,"monday 10:00 AM-9:00 PM, tuesday 10:00 AM-9:00 PM, wednesday 10:00 AM-9:00 PM, thursday 10:00 AM-9:00 PM, friday 10:00 AM-9:00 PM, saturday 10:00 AM-9:00 PM, sunday 11:00 AM-6:00 PM",,,
Sawgrass Village,172129,310 Front Street, Suite 860,Ponte Vedra Beach,FL,32082,United States,9042802115,30.2051388,-81.3818939,"monday 10:00 AM-7:00 PM, tuesday 10:00 AM-7:00 PM, wednesday 10:00 AM-7:00 PM, thursday 10:00 AM-7:00 PM, friday 10:00 AM-7:00 PM, saturday 10:00 AM-7:00 PM, sunday 12:00 PM-6:00 PM",,,
Fort Lauderdale,172148,1010 Las Olas Boulevard,,Fort Lauderdale,FL,33301,United States,,26.1192492,-80.1329463,,,,
Lincoln Road,172150,1109 Lincoln Road,,Miami Beach,FL,33139,United States,,25.7901221,-80.140678,,,,
Lincoln Park,172011,2208 North Halsted,,Chicago,IL,60614,United States,7733276900,41.922139,-87.648985,"monday 10:00 AM-7:00 PM, tuesday 10:00 AM-7:00 PM, wednesday 10:00 AM-7:00 PM, thursday 10:00 AM-7:00 PM, friday 10:00 AM-7:00 PM, saturday 10:00 AM-7:00 PM, sunday 11:00 AM-6:00 PM",,,
Hinsdale,172012,21 East First Street,,Hinsdale,IL,60521,United States,6304551400,41.8018233,-87.92831,"monday 10:00 AM-6:00 PM, tuesday 10:00 AM-6:00 PM, wednesday 10:00 AM-6:00 PM, thursday 10:00 AM-6:00 PM, friday 10:00 AM-6:00 PM, saturday 10:00 AM-6:00 PM, sunday 11:00 AM-5:00 PM",,,
Lake Forest,172030,680 N. Bank Lane,,Lake Forest,IL,60045,United States,8476153000,42.2520908,-87.8412357,"monday 10:00 AM-6:00 PM, tuesday 10:00 AM-6:00 PM, wednesday 10:00 AM-6:00 PM, thursday 10:00 AM-6:00 PM, friday 10:00 AM-6:00 PM, saturday 10:00 AM-6:00 PM, sunday 11:00 AM-6:00 PM",,,
Southport,172042,3512 N. Southport Avenue,,Chicago,IL,60657,United States,7738681300,41.9456861,-87.6643457,"monday 10:00 AM-7:00 PM, tuesday 10:00 AM-7:00 PM, wednesday 10:00 AM-7:00 PM, thursday 10:00 AM-7:00 PM, friday 10:00 AM-7:00 PM, saturday 10:00 AM-7:00 PM, sunday 11:00 AM-6:00 PM",,,
Highland Park,172053,638 Central Avenue,,Highland Park,IL,60035,United States,8474327200,42.1848074,-87.8008661,"monday 10:00 AM-7:00 PM, tuesday 10:00 AM-7:00 PM, wednesday 10:00 AM-7:00 PM, thursday 10:00 AM-7:00 PM, friday 10:00 AM-7:00 PM, saturday 10:00 AM-7:00 PM, sunday 11:00 AM-6:00 PM",,,
Inside Macy's Oakbrook,172505,1 Oakbrook Center,,Oak Brook,IL,60523,United States,6306842460,41.8486052,-87.9542446,"monday 10:00 AM-9:00 PM, tuesday 10:00 AM-9:00 PM, wednesday 10:00 AM-9:00 PM, thursday 10:00 AM-9:00 PM, friday 10:00 AM-9:00 PM, saturday 10:00 AM-9:00 PM, sunday 11:00 AM-7:00 PM",,,
River North,172132,356 North Clark Street,,Chicago,IL,60654,United States,3125959599,41.8890282,-87.63129939999999,"monday 10:00 AM-7:00 PM, tuesday 10:00 AM-7:00 PM, wednesday 10:00 AM-7:00 PM, thursday 10:00 AM-7:00 PM, friday 10:00 AM-7:00 PM, saturday 10:00 AM-7:00 PM, sunday 11:00 AM-6:00 PM",,,
Leawood,172131,4549 W 119th Street,,Leawood,KS,66209,United States,9134515600,38.9128298,-94.63765130000002,"monday 10:00 AM-9:00 PM, tuesday 10:00 AM-9:00 PM, wednesday 10:00 AM-9:00 PM, thursday 10:00 AM-9:00 PM, friday 10:00 AM-9:00 PM, saturday 10:00 AM-9:00 PM, sunday 12:00 PM-5:00 PM",,,
Bethesda Row,172022,7105 Bethesda Lane,,Bethesda,MD,20814,United States,3019860070,38.98153,-77.0977935,"monday 10:00 AM-8:00 PM, tuesday 10:00 AM-8:00 PM, wednesday 10:00 AM-8:00 PM, thursday 10:00 AM-8:00 PM, friday 10:00 AM-8:00 PM, saturday 10:00 AM-8:00 PM, sunday 11:00 AM-6:00 PM",,,
Wildwood,172041,10231B Old Georgetown Road,,Bethesda,MD,20814,United States,3018970006,39.0239429,-77.12350459999999,"monday 10:00 AM-6:00 PM, tuesday 10:00 AM-6:00 PM, wednesday 10:00 AM-6:00 PM, thursday 10:00 AM-7:00 PM, friday 10:00 AM-7:00 PM, saturday 10:00 AM-6:00 PM, sunday 11:00 AM-5:00 PM",,,
Gaithersburg,172083,22 Grand Corner Avenue,,Gaithersburg,MD,20878,United States,3019751009,39.1179175,-77.20022089999999,"monday 10:00 AM-9:00 PM, tuesday 10:00 AM-9:00 PM, wednesday 10:00 AM-9:00 PM, thursday 10:00 AM-9:00 PM, friday 10:00 AM-9:00 PM, saturday 10:00 AM-9:00 PM, sunday 11:00 AM-6:00 PM",,,
Legacy,172044,748 Legacy Place,,Dedham,MA,02026,United States,7813293200,42.2307228,-71.17734,"monday 10:00 AM-9:00 PM, tuesday 10:00 AM-9:00 PM, wednesday 10:00 AM-9:00 PM, thursday 10:00 AM-9:00 PM, friday 10:00 AM-9:00 PM, saturday 10:00 AM-9:00 PM, sunday 11:00 AM-6:00 PM",,,
Derby,172045,92 Derby Street,,Hingham,MA,02043,United States,7817496700,42.1785417,-70.9090404,"monday 10:00 AM-9:00 PM, tuesday 10:00 AM-9:00 PM, wednesday 10:00 AM-9:00 PM, thursday 10:00 AM-9:00 PM, friday 10:00 AM-9:00 PM, saturday 10:00 AM-9:00 PM, sunday 11:00 AM-6:00 PM",,,
Newbury Street,172055,160 Newbury Street,,Boston,MA,02116,United States,6174240004,42.3504301,-71.0783917,"monday 10:00 AM-7:00 PM, tuesday 10:00 AM-7:00 PM, wednesday 10:00 AM-7:00 PM, thursday 10:00 AM-8:00 PM, friday 10:00 AM-7:00 PM, saturday 10:00 AM-7:00 PM, sunday 11:00 AM-6:00 PM",,,
Lynnfield,172056,1245 Market Street,,Lynnfield,MA,01940,United States,7813342300,42.515936,-71.0340409,"monday 10:00 AM-9:00 PM, tuesday 10:00 AM-9:00 PM, wednesday 10:00 AM-9:00 PM, thursday 10:00 AM-9:00 PM, friday 10:00 AM-9:00 PM, saturday 10:00 AM-9:00 PM, sunday 11:00 AM-6:00 PM",,,
Chestnut Hill,172062,33 Boylston Street, Suite 3343,Chestnut Hill,MA,02467,United States,6172322003,42.3227864,-71.1687194,"monday 10:00 AM-8:00 PM, tuesday 10:00 AM-8:00 PM, wednesday 10:00 AM-8:00 PM, thursday 10:00 AM-8:00 PM, friday 10:00 AM-8:00 PM, saturday 10:00 AM-8:00 PM, sunday 11:00 AM-6:00 PM",,,
Wellesley,172121,200 Linden Street,,Wellesley,MA,02482,United States,7814164200,42.30156729999999,-71.29153210000001,"monday 10:00 AM-7:00 PM, tuesday 10:00 AM-7:00 PM, wednesday 10:00 AM-7:00 PM, thursday 10:00 AM-7:00 PM, friday 10:00 AM-7:00 PM, saturday 10:00 AM-7:00 PM, sunday 11:00 AM-6:00 PM",,,
Ann Arbor,172058,3070 Washtenaw Avenue, Suite 103,Ann Arbor,MI,48104,United States,7344779000,42.2567397,-83.6978267,"monday 10:00 AM-6:00 PM, tuesday 10:00 AM-6:00 PM, wednesday 10:00 AM-6:00 PM, thursday 10:00 AM-6:00 PM, friday 10:00 AM-7:00 PM, saturday 10:00 AM-7:00 PM, sunday 11:00 AM-5:00 PM",,,
Birmingham,172059,172 W. Maple Road,,Birmingham,MI,48009,United States,2482583100,42.5468821,-83.21596939999999,"monday 10:00 AM-7:00 PM, tuesday 10:00 AM-7:00 PM, wednesday 10:00 AM-7:00 PM, thursday 10:00 AM-7:00 PM, friday 10:00 AM-7:00 PM, saturday 11:00 AM-6:00 PM, sunday 11:00 AM-6:00 PM",,,
Seaport District,172144,101 Seaport Boulevard,,Boston,MA,02210,United States,,42.3514207,-71.0452507,,,,
Edina,172054,3290 Galleria,,Edina,MN,55435,United States,9529221100,44.8770142,-93.3250454,"monday 10:00 AM-9:00 PM, tuesday 10:00 AM-9:00 PM, wednesday 10:00 AM-9:00 PM, thursday 10:00 AM-9:00 PM, friday 10:00 AM-9:00 PM, saturday 10:00 AM-8:00 PM, sunday 10:00 AM-6:00 PM",,,
Inside Macy's Southdale Center,172509,100 Southdale Center,,Edina,MN,55435,United States,9529242211,44.881449,-93.32645099999999,"monday 10:00 AM-9:00 PM, tuesday 10:00 AM-9:00 PM, wednesday 10:00 AM-9:00 PM, thursday 10:00 AM-9:00 PM, friday 10:00 AM-10:00 PM, saturday 10:00 AM-10:00 PM, sunday 11:00 AM-7:00 PM",,,
Country Club Plaza,172089,415 Nichols Road,,Kansas City,MO,64112,United States,8167565200,39.0410144,-94.59231600000001,"monday 10:00 AM-7:00 PM, tuesday 10:00 AM-7:00 PM, wednesday 10:00 AM-7:00 PM, thursday 10:00 AM-9:00 PM, friday 10:00 AM-7:00 PM, saturday 10:00 AM-7:00 PM, sunday 12:00 PM-6:00 PM",,,
University Village,172061,2661 NE 46th Street,,Seattle,WA,98105,United States,2065277000,47.6616371,-122.2985535,"monday 9:30 AM-9:00 PM, tuesday 9:30 AM-9:00 PM, wednesday 9:30 AM-9:00 PM, thursday 9:30 AM-9:00 PM, friday 9:30 AM-9:00 PM, saturday 9:30 AM-9:00 PM, sunday 11:00 AM-6:00 PM",,,
Princeton,172005,72 Palmer Square,,Princeton,NJ,08542,United States,6094979100,40.3499288,-74.6610721,"monday 10:00 AM-7:00 PM, tuesday 10:00 AM-7:00 PM, wednesday 10:00 AM-7:00 PM, thursday 10:00 AM-8:30 PM, friday 10:00 AM-8:30 PM, saturday 10:00 AM-6:00 PM, sunday 11:00 AM-6:00 PM",,,
Denville,172006,3056 State Route 10,,West Denville,NJ,07834,United States,9736591900,40.8663643,-74.50642979999999,"monday 10:00 AM-8:00 PM, tuesday 10:00 AM-8:00 PM, wednesday 10:00 AM-8:00 PM, thursday 10:00 AM-8:00 PM, friday 10:00 AM-8:00 PM, saturday 10:00 AM-8:00 PM, sunday 11:00 AM-6:00 PM",,,
Marlton Square,172007,300 Route 73 South, Suite M,Marlton,NJ,08053,United States,8568107606,39.8755,-74.922868,"monday 10:00 AM-7:00 PM, tuesday 10:00 AM-7:00 PM, wednesday 10:00 AM-7:00 PM, thursday 10:00 AM-7:00 PM, friday 10:00 AM-7:00 PM, saturday 10:00 AM-7:00 PM, sunday 11:00 AM-6:00 PM",,,
Resort Spa at The Tropicana,172008,2801 Pacific Avenue,,Atlantic City,NJ,08401,United States,6093477778,39.3539088,-74.4457116,"monday 10:00 AM-9:00 PM, tuesday 10:00 AM-9:00 PM, wednesday 10:00 AM-9:00 PM, thursday 10:00 AM-10:00 PM, friday 10:00 AM-10:00 PM, saturday 9:00 AM-10:00 PM, sunday 10:00 AM-9:00 PM",,,
Shrewsbury,172009,571 Route 35,,Shrewsbury,NJ,07702,United States,7328427300,40.3327913,-74.0610162,"monday 10:00 AM-9:00 PM, tuesday 10:00 AM-9:00 PM, wednesday 10:00 AM-9:00 PM, thursday 10:00 AM-9:00 PM, friday 10:00 AM-9:00 PM, saturday 10:00 AM-6:00 PM, sunday 11:00 AM-6:00 PM",,,
Westfield,172010,82 Elm Street,,Westfield,NJ,07090,United States,9082331100,40.6516692,-74.3478863,"monday 10:00 AM-7:00 PM, tuesday 10:00 AM-7:00 PM, wednesday 10:00 AM-7:00 PM, thursday 10:00 AM-7:00 PM, friday 10:00 AM-7:00 PM, saturday 10:00 AM-6:00 PM, sunday 11:00 AM-6:00 PM",,,
Englewood,172013,30 South Dean Street,,Englewood,NJ,07631,United States,2018717800,40.89276,-73.9749345,"monday 10:00 AM-6:00 PM, tuesday 10:00 AM-6:00 PM, wednesday 10:00 AM-6:00 PM, thursday 10:00 AM-6:00 PM, friday 10:00 AM-6:00 PM, saturday 10:00 AM-6:00 PM, sunday Closed-",,,
Bridgewater Commons,172016,640 Commons Way,,Bridgewater,NJ,08807,United States,9082031700,40.5827298,-74.6144248,"monday 10:00 AM-7:00 PM, tuesday 10:00 AM-7:00 PM, wednesday 10:00 AM-8:00 PM, thursday 10:00 AM-7:00 PM, friday 10:00 AM-7:00 PM, saturday 10:00 AM-7:00 PM, sunday 11:00 AM-6:00 PM",,,
Marlton 2,172037,500 Route 73 South,,Marlton,NJ,08053,United States,8569859226,39.9001412,-74.9317018,"monday 10:00 AM-9:00 PM, tuesday 10:00 AM-9:00 PM, wednesday 10:00 AM-9:00 PM, thursday 10:00 AM-9:00 PM, friday 10:00 AM-9:00 PM, saturday 10:00 AM-9:00 PM, sunday 11:00 AM-6:00 PM",,,
Tice's Corner Marketplace,172040,391 Chestnut Ridge Road,,Woodcliff Lake,NJ,07677,United States,2019309500,41.0446017,-74.0719885,"monday 10:00 AM-8:00 PM, tuesday 10:00 AM-8:00 PM, wednesday 10:00 AM-8:00 PM, thursday 10:00 AM-8:00 PM, friday 10:00 AM-8:00 PM, saturday 10:00 AM-8:00 PM, sunday Closed-",,,
Summit,172050,374 Springfield Avenue,,Summit,NJ,07901,United States,9089180999,40.7178788,-74.3578246,"monday 10:00 AM-6:00 PM, tuesday 10:00 AM-6:00 PM, wednesday 10:00 AM-6:00 PM, thursday 10:00 AM-6:00 PM, friday 10:00 AM-6:00 PM, saturday 10:00 AM-6:00 PM, sunday 11:00 AM-6:00 PM",,,
Montclair,172063,30 South Park Street,,Montclair,NJ,07042,United States,9737440002,40.8144795,-74.21999629999999,"monday 10:00 AM-8:00 PM, tuesday 10:00 AM-8:00 PM, wednesday 10:00 AM-8:00 PM, thursday 10:00 AM-8:00 PM, friday 10:00 AM-8:00 PM, saturday 10:00 AM-8:00 PM, sunday 11:00 AM-6:00 PM",,,
Brook 35 Plaza,172087,2150 Route 35, Suite 22/23E,Sea Girt,NJ,08750,United States,7324491055,40.1391955,-74.0610664,"monday 10:00 AM-8:00 PM, tuesday 10:00 AM-8:00 PM, wednesday 10:00 AM-8:00 PM, thursday 10:00 AM-8:00 PM, friday 10:00 AM-8:00 PM, saturday 10:00 AM-6:00 PM, sunday 11:00 AM-5:00 PM",,,
Ridgewood,172102,29 E Ridgewood Avenue,,Ridgewood,NJ,07450,United States,2012510935,40.9798777,-74.1192513,"monday 10:00 AM-6:00 PM, tuesday 10:00 AM-6:00 PM, wednesday 10:00 AM-6:00 PM, thursday 10:00 AM-6:00 PM, friday 10:00 AM-6:00 PM, saturday 10:00 AM-6:00 PM, sunday Closed-",,,
Morristown,172122,2 South Street,,Morristown,NJ,07960,United States,9732900006,40.7963049,-74.48077099999999,"monday 10:00 AM-8:00 PM, tuesday 10:00 AM-8:00 PM, wednesday 10:00 AM-8:00 PM, thursday 10:00 AM-8:00 PM, friday 10:00 AM-8:00 PM, saturday 10:00 AM-8:00 PM, sunday 11:00 AM-6:00 PM",,,
Inside Macy's Garden State,172507,500 Garden State Plaza Boulevard,,Paramus,NJ,07652,United States,2012913286,40.9176203,-74.07590809999999,"monday 10:00 AM-10:00 PM, tuesday 10:00 AM-9:30 PM, wednesday 10:00 AM-9:30 PM, thursday 10:00 AM-9:30 PM, friday 10:00 AM-9:30 PM, saturday 9:00 AM-11:00 PM, sunday Closed-",,,
Closter,172125,93 VerValen Street,,Closter,NJ,07624,United States,2017680008,40.9684162,-73.9551101,"monday 10:00 AM-7:00 PM, tuesday 10:00 AM-7:00 PM, wednesday 10:00 AM-7:00 PM, thursday 10:00 AM-7:00 PM, friday 10:00 AM-7:00 PM, saturday 10:00 AM-7:00 PM, sunday Closed-",,,
Millburn,172156,341 Millburn Avenue,,Millburn,NJ,07041,United States,,40.7241544,-74.30711,,,,
Woodbury Common,172014,8285 Jericho Turnpike,,Woodbury,NY,11797,United States,5163671300,40.8170225,-73.4673318,"monday 10:00 AM-7:00 PM, tuesday 10:00 AM-7:00 PM, wednesday 10:00 AM-7:00 PM, thursday 10:00 AM-7:00 PM, friday 10:00 AM-7:00 PM, saturday 10:00 AM-7:00 PM, sunday 11:00 AM-6:00 PM",,,
Upper West Side,172032,2305 Broadway,,New York,NY,10024,United States,2127990500,40.7867446,-73.97818769999999,"monday 10:00 AM-8:00 PM, tuesday 10:00 AM-8:00 PM, wednesday 10:00 AM-8:00 PM, thursday 10:00 AM-8:00 PM, friday 10:00 AM-8:00 PM, saturday 10:00 AM-8:00 PM, sunday 11:00 AM-6:00 PM",,,
75th & 3rd,172038,1311 Third Avenue,,New York,NY,10021,United States,2123961500,40.7716943,-73.95883010000001,"monday 10:00 AM-8:00 PM, tuesday 10:00 AM-8:00 PM, wednesday 10:00 AM-8:00 PM, thursday 10:00 AM-8:00 PM, friday 10:00 AM-8:00 PM, saturday 10:00 AM-8:00 PM, sunday 11:00 AM-6:00 PM",,,
Union Square,172048,865 Broadway,,New York,NY,10003,United States,2122438100,40.737588,-73.990521,"monday 10:00 AM-9:00 PM, tuesday 10:00 AM-9:00 PM, wednesday 10:00 AM-9:00 PM, thursday 10:00 AM-9:00 PM, friday 10:00 AM-9:00 PM, saturday 10:00 AM-9:00 PM, sunday 11:00 AM-6:00 PM",,,
Rye,172052,61 Purchase Street,,Rye,NY,10580,United States,9149211600,40.98386,-73.6851156,"monday 10:00 AM-6:00 PM, tuesday 10:00 AM-6:00 PM, wednesday 10:00 AM-6:00 PM, thursday 10:00 AM-6:00 PM, friday 10:00 AM-6:00 PM, saturday 10:00 AM-6:00 PM, sunday 11:00 AM-6:00 PM",,,
West Village,172060,404 6th Avenue,,New York,NY,10011,United States,2122288550,40.7336485,-73.9991762,"monday 10:00 AM-8:00 PM, tuesday 10:00 AM-8:00 PM, wednesday 10:00 AM-8:00 PM, thursday 10:00 AM-8:00 PM, friday 10:00 AM-8:00 PM, saturday 10:00 AM-8:00 PM, sunday 11:00 AM-7:00 PM",,,
Wheatley Plaza,172067,320 Wheatley Plaza,,Greenvale,NY,11548,United States,5166250005,40.8097253,-73.6263683,"monday 10:00 AM-6:00 PM, tuesday 10:00 AM-6:00 PM, wednesday 10:00 AM-6:00 PM, thursday 10:00 AM-7:00 PM, friday 10:00 AM-6:00 PM, saturday 10:00 AM-6:00 PM, sunday 12:00 PM-6:00 PM",,,
American Manhasset,172069,2034 Northern Boulevard,,Manhasset,NY,11030,United States,5166273777,40.796399,-73.6721374,"monday 10:00 AM-6:00 PM, tuesday 10:00 AM-6:00 PM, wednesday 10:00 AM-7:00 PM, thursday 10:00 AM-7:00 PM, friday 10:00 AM-6:00 PM, saturday 10:00 AM-6:00 PM, sunday 11:00 AM-6:00 PM",,,
92nd & Broadway,172070,2477 Broadway,,New York,NY,10025,United States,2123621333,40.7923592,-73.9739278,"monday 10:00 AM-8:00 PM, tuesday 10:00 AM-8:00 PM, wednesday 10:00 AM-8:00 PM, thursday 10:00 AM-8:00 PM, friday 10:00 AM-8:00 PM, saturday 10:00 AM-8:00 PM, sunday 11:00 AM-7:00 PM",,,
Madison Avenue,172071,1208 Madison Avenue,,New York,NY,10128,United States,2127222260,40.7821297,-73.9580991,"monday 10:00 AM-7:00 PM, tuesday 10:00 AM-7:00 PM, wednesday 10:00 AM-7:00 PM, thursday 10:00 AM-7:00 PM, friday 10:00 AM-7:00 PM, saturday 10:00 AM-7:00 PM, sunday 11:00 AM-6:00 PM",,,
Chelsea,172075,695 Avenue of the Americas,,New York,NY,10010,United States,2123370777,40.7423347,-73.9932224,"monday 10:00 AM-9:00 PM, tuesday 10:00 AM-9:00 PM, wednesday 10:00 AM-9:00 PM, thursday 10:00 AM-9:00 PM, friday 10:00 AM-9:00 PM, saturday 10:00 AM-9:00 PM, sunday 11:00 AM-7:00 PM",,,
Bronxville,172079,48 Pondfield Road,,Bronxville,NY,10708,United States,9147790009,40.9409781,-73.83410310000001,"monday 10:00 AM-6:00 PM, tuesday 10:00 AM-6:00 PM, wednesday 10:00 AM-6:00 PM, thursday 10:00 AM-6:00 PM, friday 10:00 AM-6:00 PM, saturday 10:00 AM-6:00 PM, sunday 11:00 AM-6:00 PM",,,
Amsterdam,172084,341 Amsterdam Avenue,,New York,NY,10024,United States,2123621440,40.7812445,-73.9793758,"monday 10:00 AM-8:00 PM, tuesday 10:00 AM-8:00 PM, wednesday 10:00 AM-8:00 PM, thursday 10:00 AM-8:00 PM, friday 10:00 AM-8:00 PM, saturday 10:00 AM-8:00 PM, sunday 11:00 AM-7:00 PM",,,
88th & 3rd,172088,1566 Third Avenue,,New York,NY,10128,United States,6463516701,40.7801296,-73.9533483,"monday 10:00 AM-8:00 PM, tuesday 10:00 AM-8:00 PM, wednesday 10:00 AM-8:00 PM, thursday 10:00 AM-8:00 PM, friday 10:00 AM-8:00 PM, saturday 10:00 AM-8:00 PM, sunday 11:00 AM-7:00 PM",,,
Tribeca,172104,275 Greenwich Street,,New York,NY,10007,United States,6468697327,40.7151336,-74.0109954,"monday 10:00 AM-7:00 PM, tuesday 10:00 AM-7:00 PM, wednesday 10:00 AM-7:00 PM, thursday 10:00 AM-7:00 PM, friday 10:00 AM-7:00 PM, saturday 10:00 AM-7:00 PM, sunday 11:00 AM-6:00 PM",,,
Columbus Avenue,172109,184 Columbus Avenue,,New York,NY,10023,United States,2123621660,40.77519270000001,-73.9807826,"monday 10:00 AM-8:00 PM, tuesday 10:00 AM-8:00 PM, wednesday 10:00 AM-8:00 PM, thursday 10:00 AM-8:00 PM, friday 10:00 AM-8:00 PM, saturday 10:00 AM-8:00 PM, sunday 11:00 AM-7:00 PM",,,
Third Avenue,172111,1164 Third Avenue,,New York,NY,10065,United States,2129881141,40.767213,-73.9628649,"monday 10:00 AM-8:00 PM, tuesday 10:00 AM-8:00 PM, wednesday 10:00 AM-8:00 PM, thursday 10:00 AM-8:00 PM, friday 10:00 AM-8:00 PM, saturday 10:00 AM-8:00 PM, sunday 10:00 AM-7:00 PM",,,
East Hampton,172112,67 Main Street,,East Hampton,NY,11937,United States,6313240330,40.9626618,-72.18669489999999,"monday 10:00 AM-6:00 PM, tuesday 10:00 AM-6:00 PM, wednesday 10:00 AM-6:00 PM, thursday 10:00 AM-6:00 PM, friday 10:00 AM-6:00 PM, saturday 10:00 AM-6:00 PM, sunday 11:00 AM-6:00 PM",,,
Grand Central Station,172133,420 Lexington Avenue ,,New York,NY,10170,United States,2124990908,40.7526842,-73.9759022,"monday 10:00 AM-8:00 PM, tuesday 10:00 AM-8:00 PM, wednesday 10:00 AM-8:00 PM, thursday 10:00 AM-8:00 PM, friday 10:00 AM-8:00 PM, saturday 10:00 AM-8:00 PM, sunday 11:00 AM-7:00 PM",,,
Southampton,172153,46 Main Street,,Southhampton,NY,11968,United States,6312830255,40.8854913,-72.3891526,"monday 10:00 AM-7:00 PM, tuesday 10:00 AM-7:00 PM, wednesday 10:00 AM-7:00 PM, thursday 10:00 AM-7:00 PM, friday 10:00 AM-7:00 PM, saturday 10:00 AM-7:00 PM, sunday 11:00 AM-6:00 PM",,,
First Avenue,172143,1044 First Avenue,,New York,NY,10022,United States,,40.7580642,-73.9628195,,,,
Charlotte,172134,9830 Rea Road, Space A,Charlotte,NC,28277,United States,,35.0346832,-80.806866,,,,
Cleveland,172049,28699 Chagrin Boulevard,,Woodmere,OH,44122,United States,2164643000,41.4634185,-81.47674990000002,"monday 10:00 AM-7:00 PM, tuesday 10:00 AM-7:00 PM, wednesday 10:00 AM-7:00 PM, thursday 10:00 AM-7:00 PM, friday 10:00 AM-7:00 PM, saturday 10:00 AM-7:00 PM, sunday 11:00 AM-5:00 PM",,,
Inside Macy's Kenwood,172508,7875 Montgomery Road,,Cincinnati,OH,45236,United States,5132476490,39.2025027,-84.3770223,"monday 10:00 AM-9:00 PM, tuesday 10:00 AM-9:00 PM, wednesday 10:00 AM-9:00 PM, thursday 10:00 AM-10:00 PM, friday 10:00 AM-10:00 PM, saturday 10:00 AM-10:00 PM, sunday 11:00 AM-7:00 PM",,,
Inside Macy's Easton Town Center,172523,4141 Easton Loop East,,Columbus,OH,43219,United States,6143422215,40.0531185,-82.9131101,"monday 10:00 AM-9:00 PM, tuesday 10:00 AM-9:00 PM, wednesday 10:00 AM-9:00 PM, thursday 10:00 AM-9:00 PM, friday 10:00 AM-10:00 PM, saturday 10:00 AM-10:00 PM, sunday 10:00 AM-7:00 PM",,,
Tulsa - Center One,172128,3524 S Peoria Avenue, Space C,Tulsa,OK,74105,United States,9187491070,36.1127694,-95.97597789999999,"monday 10:00 AM-6:00 PM, tuesday 10:00 AM-6:00 PM, wednesday 10:00 AM-6:00 PM, thursday 10:00 AM-6:00 PM, friday 10:00 AM-6:00 PM, saturday 10:00 AM-6:00 PM, sunday 11:00 AM-5:00 PM",,,
Bridgeport Village,172065,7291 SW Bridgeport Road,,Portland,OR,97224,United States,5036030404,45.39527,-122.7511012,"monday 10:00 AM-9:00 PM, tuesday 10:00 AM-9:00 PM, wednesday 10:00 AM-9:00 PM, thursday 10:00 AM-9:00 PM, friday 10:00 AM-9:00 PM, saturday 10:00 AM-9:00 PM, sunday 11:00 AM-6:00 PM",,,
Brewery Blocks,172077,1037 NW Couch Street,,Portland,OR,97209,United States,5032222500,45.5237983,-122.6818348,"monday 10:00 AM-7:00 PM, tuesday 10:00 AM-7:00 PM, wednesday 10:00 AM-7:00 PM, thursday 10:00 AM-7:00 PM, friday 10:00 AM-7:00 PM, saturday 10:00 AM-7:00 PM, sunday 11:00 AM-6:00 PM",,,
Philadelphia,172003,1707 Walnut Street,,Philadelphia,PA,19103,United States,2155693100,39.95023380000001,-75.16941729999999,"monday 10:00 AM-7:00 PM, tuesday 10:00 AM-7:00 PM, wednesday 10:00 AM-7:00 PM, thursday 10:00 AM-7:00 PM, friday 10:00 AM-7:00 PM, saturday 10:00 AM-7:00 PM, sunday 11:00 AM-6:00 PM",,,
Suburban Square,172004,42 Street James Place,,Ardmore,PA,19003,United States,6106425400,40.0083865,-75.2888457,"monday 10:00 AM-8:00 PM, tuesday 10:00 AM-8:00 PM, wednesday 10:00 AM-8:00 PM, thursday 10:00 AM-8:00 PM, friday 10:00 AM-8:00 PM, saturday 10:00 AM-8:00 PM, sunday 11:00 AM-6:00 PM",,,
UPenn,172036,3603 Walnut Street,,Philadelphia,PA,19104,United States,2152222366,39.95352520000001,-75.1956275,"monday 10:00 AM-7:00 PM, tuesday 10:00 AM-7:00 PM, wednesday 10:00 AM-7:00 PM, thursday 10:00 AM-7:00 PM, friday 10:00 AM-7:00 PM, saturday 10:00 AM-7:00 PM, sunday 11:00 AM-6:00 PM",,,
Wayne,172043,100 E. Lancaster Avenue,,Wayne,PA,19087,United States,6102250111,40.043954,-75.3876986,"monday 10:00 AM-7:00 PM, tuesday 10:00 AM-7:00 PM, wednesday 10:00 AM-7:00 PM, thursday 10:00 AM-7:00 PM, friday 10:00 AM-7:00 PM, saturday 10:00 AM-7:00 PM, sunday 11:00 AM-6:00 PM",,,
Bryn Mawr,172110,925 W. Lancaster Avenue, Suite 100,Bryn Mawr,PA,19010,United States,6105818887,40.0232395,-75.32195449999999,"monday 10:00 AM-7:00 PM, tuesday 10:00 AM-7:00 PM, wednesday 10:00 AM-7:00 PM, thursday 10:00 AM-7:00 PM, friday 10:00 AM-7:00 PM, saturday 10:00 AM-7:00 PM, sunday 11:00 AM-6:00 PM",,,
Newtown,172123,114 South State Street,,Newtown,PA,18940,United States,2154973004,40.2272622,-74.93719879999999,"monday 10:00 AM-7:00 PM, tuesday 10:00 AM-7:00 PM, wednesday 10:00 AM-7:00 PM, thursday 10:00 AM-7:00 PM, friday 10:00 AM-7:00 PM, saturday 10:00 AM-6:00 PM, sunday 12:00 PM-6:00 PM",,,
Charleston,172039,255 King Street,,Charleston,SC,29401,United States,8437246767,32.7816881,-79.9338413,"monday 10:00 AM-6:00 PM, tuesday 10:00 AM-6:00 PM, wednesday 10:00 AM-6:00 PM, thursday 10:00 AM-6:00 PM, friday 10:00 AM-7:00 PM, saturday 10:00 AM-7:00 PM, sunday 11:00 AM-6:00 PM",,,
Kiawah Island,172139,600 Freshfields Drive,,Kiawah Island,SC,29455,United States,,32.6066314,-80.1487526,,,,
Greenville,172154,131 N. Main Street,,Greenville,SC,29601,United States,,34.8524363,-82.39846519999999,,,,
Dallas,172074,83 Highland Park Village,,Dallas,TX,75205,United States,2145209400,32.835862,-96.8049805,"monday 10:00 AM-6:00 PM, tuesday 10:00 AM-6:00 PM, wednesday 10:00 AM-6:00 PM, thursday 10:00 AM-6:00 PM, friday 10:00 AM-6:00 PM, saturday 10:00 AM-6:00 PM, sunday 12:00 PM-5:00 PM",,,
Southlake,172082,219 Grand Avenue,,Southlake,TX,76092,United States,8174211700,32.9431425,-97.13056259999999,"monday 10:00 AM-8:00 PM, tuesday 10:00 AM-8:00 PM, wednesday 10:00 AM-8:00 PM, thursday 10:00 AM-9:00 PM, friday 10:00 AM-9:00 PM, saturday 10:00 AM-9:00 PM, sunday 12:00 PM-6:00 PM",,,
Rice Village,172105,2506 University Boulevard,,Houston,TX,77005,United States,7135220021,29.7153355,-95.4168652,"monday 10:00 AM-7:00 PM, tuesday 10:00 AM-7:00 PM, wednesday 10:00 AM-7:00 PM, thursday 10:00 AM-7:00 PM, friday 10:00 AM-7:00 PM, saturday 10:00 AM-7:00 PM, sunday 11:00 AM-6:00 PM",,,
Woodway Collection,172107,1407 South Voss Road, Suite B,Houston,TX,77057,United States,7133391200,29.7523705,-95.5001082,"monday 10:00 AM-7:00 PM, tuesday 10:00 AM-7:00 PM, wednesday 10:00 AM-7:00 PM, thursday 10:00 AM-7:00 PM, friday 10:00 AM-7:00 PM, saturday 10:00 AM-7:00 PM, sunday 11:00 AM-6:00 PM",,,
Shops at Legacy,172117,5760 Legacy Drive, Space B-8,Plano,TX,75024,United States,9724730100,33.07693100000001,-96.8206936,"monday 10:00 AM-7:00 PM, tuesday 10:00 AM-7:00 PM, wednesday 10:00 AM-7:00 PM, thursday 10:00 AM-7:00 PM, friday 10:00 AM-7:00 PM, saturday 10:00 AM-7:00 PM, sunday 11:00 AM-6:00 PM",,,
Inside Macy's Memorial City,172504,303 Memorial City,,Houston,TX,77024,United States,7134610244,29.7810332,-95.53973040000001,"monday 10:00 AM-10:00 PM, tuesday 8:00 AM-10:00 PM, wednesday 8:00 AM-10:00 PM, thursday 10:00 AM-10:00 PM, friday 10:00 AM-10:00 PM, saturday 9:00 AM-10:00 PM, sunday 11:00 AM-7:00 PM",,,
San Antonio,172145,280 E Basse Road, Suite 109,San Antionio,TX,78209,United States,,29.49456109999999,-98.4785868,,,,
Clarendon,172047,2855 Clarendon Boulevard,,Arlington,VA,22201,United States,7032480028,38.8882324,-77.09255569999999,"monday 10:00 AM-9:00 PM, tuesday 10:00 AM-9:00 PM, wednesday 10:00 AM-9:00 PM, thursday 10:00 AM-9:00 PM, friday 10:00 AM-9:00 PM, saturday 10:00 AM-9:00 PM, sunday 11:00 AM-6:00 PM",,,
Old Town,172051,600 King Street,,Alexandria,VA,22314,United States,7035490005,38.8047299,-77.0459896,"monday 10:00 AM-8:00 PM, tuesday 10:00 AM-8:00 PM, wednesday 10:00 AM-8:00 PM, thursday 10:00 AM-8:00 PM, friday 10:00 AM-8:00 PM, saturday 10:00 AM-8:00 PM, sunday 11:00 AM-6:00 PM",,,
Fairfax Corner,172057,11945C Grand Commons Avenue,,Fairfax,VA,22030,United States,7039889500,38.8575639,-77.357821,"monday 10:00 AM-7:00 PM, tuesday 10:00 AM-7:00 PM, wednesday 10:00 AM-7:00 PM, thursday 10:00 AM-7:00 PM, friday 10:00 AM-8:00 PM, saturday 10:00 AM-8:00 PM, sunday 11:00 AM-6:00 PM",,,
Charlottesville,172064,2035 Bond Street, Suite 160,Charlottesville,VA,22901,United States,4342450018,38.064532,-78.49181399999999,"monday 10:00 AM-9:00 PM, tuesday 10:00 AM-9:00 PM, wednesday 10:00 AM-9:00 PM, thursday 10:00 AM-9:00 PM, friday 10:00 AM-9:00 PM, saturday 10:00 AM-9:00 PM, sunday 11:00 AM-6:00 PM",,,
Reston Town Center,172086,11918 Market Street,,Reston,VA,20190,United States,7034354355,38.9587311,-77.3595819,"monday 10:00 AM-9:00 PM, tuesday 10:00 AM-9:00 PM, wednesday 10:00 AM-9:00 PM, thursday 10:00 AM-9:00 PM, friday 10:00 AM-9:00 PM, saturday 10:00 AM-9:00 PM, sunday 11:00 AM-6:00 PM",,,
Mosaic District,172106,2905 District Avenue, Suite 130,Fairfax,VA,22031,United States,5714196333,38.8733047,-77.2290159,"monday 10:00 AM-8:00 PM, tuesday 10:00 AM-8:00 PM, wednesday 10:00 AM-8:00 PM, thursday 10:00 AM-8:00 PM, friday 10:00 AM-8:00 PM, saturday 10:00 AM-8:00 PM, sunday 11:00 AM-6:00 PM",,,
River Road Center,172116,5011 Huguenot Road,,Richmond,VA,23226,United States,8042880002,37.5671822,-77.538257,"monday 10:00 AM-8:00 PM, tuesday 10:00 AM-8:00 PM, wednesday 10:00 AM-8:00 PM, thursday 10:00 AM-8:00 PM, friday 10:00 AM-8:00 PM, saturday 10:00 AM-8:00 PM, sunday 11:00 AM-6:00 PM",,,
Inside Tyson's Corner Macy's,172506,8000 Tysons Corner Center,,McLean,VA,22182,United States,5716354656,38.9182874,-77.223278,"monday 10:00 AM-9:30 PM, tuesday 10:00 AM-9:30 PM, wednesday 10:00 AM-9:30 PM, thursday 10:00 AM-10:00 PM, friday 10:00 AM-10:00 PM, saturday 10:00 AM-10:00 PM, sunday 11:00 AM-7:00 PM",,,
Virginia Beach Town Center,172137,196 Central Park Avenue ,,Virginia Beach,VA,23462,United States,7574994555,36.8422192,-76.1338691,"monday 10:00 AM-8:00 PM, tuesday 10:00 AM-8:00 PM, wednesday 10:00 AM-8:00 PM, thursday 10:00 AM-8:00 PM, friday 10:00 AM-8:00 PM, saturday 10:00 AM-8:00 PM, sunday 11:00 AM-6:00 PM",,,
