store_name,store_number,address,address2,city,state,zip_code,country,phone_number,latitude,longitude,store_hours,store_type,other_fields,coming_soon
Gateway Tiger Town,,2630 Enterprise Drive,Bldg. M-3,Opelika,AL,36801,United States,334-737-3742,,,"SU : 12:00 - 18:00, MO : 10:00 - 21:00, TU : 10:00 - 21:00, WE : 10:00 - 21:00, TH : 10:00 - 21:00, FR : 10:00 - 21:00, SA : 10:00 - 21:00",,,
Chandler Fashion Center,,3431 W. Frye Road,Suite 4,Chandler,AZ,85226,United States,480-726-9000,,,"SU : 10:00 - 18:00, MO : 10:00 - 21:00, TU : 10:00 - 21:00, WE : 10:00 - 21:00, TH : 10:00 - 21:00, FR : 10:00 - 21:00, SA : 10:00 - 21:00",,,
San Tan Village,,2763 S. Market Street,Suite 4,Gilbert,AZ,85296,United States,480-855-6900,,,"SU : 11:00 - 18:00, MO : 10:00 - 21:00, TU : 10:00 - 21:00, WE : 10:00 - 21:00, TH : 10:00 - 21:00, FR : 10:00 - 21:00, SA : 10:00 - 21:00",,,
Oxford Exchange,,1550 Oxford Exchange Blvd,Oxford Exchange,Oxford,AL,36203,United States,256-831-4072,,,"SU : 12:00 - 18:00, MO : 10:00 - 21:00, TU : 10:00 - 21:00, WE : 10:00 - 21:00, TH : 10:00 - 21:00, FR : 10:00 - 21:00, SA : 10:00 - 21:00",,,
Midtown Village,,1800 Mcfarland Blvd East,Suite 408,Tuscaloosa,AL,35404,United States,205-247-4950,,,"SU : 12:00 - 18:00, MO : 10:00 - 21:00, TU : 10:00 - 21:00, WE : 10:00 - 21:00, TH : 10:00 - 21:00, FR : 10:00 - 21:00, SA : 10:00 - 21:00",,,
Eastern Shore Centre,,30500 St. Hwy. 181,Suite 420,Spanish Fort,AL,36527,United States,251-621-5003,,,"SU : 12:00 - 18:00, MO : 10:00 - 21:00, TU : 10:00 - 21:00, WE : 10:00 - 21:00, TH : 10:00 - 21:00, FR : 10:00 - 21:00, SA : 10:00 - 21:00",,,
Prattville Town Center,,2746 Legends Parkway,,Prattville,AL,36067,United States,334-285-3235,,,"SU : 23:00 - 18:00, MO : 09:30 - 21:00, TU : 09:30 - 21:00, WE : 09:30 - 21:00, TH : 09:30 - 21:00, FR : 09:30 - 21:00, SA : 09:30 - 21:00",,,
The Shoppes At Eastchase,,7264 Eastchase Parkway,Sp. D125,Montgomery,AL,36117,United States,334-279-8464,,,"SU : 12:00 - 18:00, MO : 10:00 - 21:00, TU : 10:00 - 21:00, WE : 10:00 - 21:00, TH : 10:00 - 21:00, FR : 10:00 - 21:00, SA : 10:00 - 21:00",,,
Rivertrace Shopping Center,,528 E Meighan Blvd.,Suite B,Gadsden,AL,35903-1914,United States,256-547-5220,,,"SU : 12:00 - 18:00, MO : 10:00 - 21:00, TU : 10:00 - 21:00, WE : 10:00 - 21:00, TH : 10:00 - 21:00, FR : 10:00 - 21:00, SA : 10:00 - 21:00",,,
Westwood Plaza,,7765 Airport Rd #301,,Mobile,AL,36608,United States,251-639-0691,,,"SU : 12:00 - 18:00, MO : 09:00 - 21:00, TU : 09:00 - 21:00, WE : 09:00 - 21:00, TH : 09:00 - 21:00, FR : 09:00 - 21:00, SA : 09:00 - 21:00",,,
Westside Center,,6275 University Drive SW,Ste 29,Huntsville,AL,35806-1776,United States,256-922-9356,,,"SU : 12:00 - 18:00, MO : 10:00 - 21:00, TU : 10:00 - 21:00, WE : 10:00 - 21:00, TH : 10:00 - 21:00, FR : 10:00 - 21:00, SA : 09:00 - 21:00",,,
Riverchase Galleria,,2000 Riverchase Galleria,Space 117,Hoover,AL,35244-2316,United States,205-560-2288,,,"SU : 12:00 - 18:00, MO : 10:00 - 21:00, TU : 10:00 - 21:00, WE : 10:00 - 21:00, TH : 10:00 - 21:00, FR : 10:00 - 21:00, SA : 10:00 - 21:00",,,
Cox Creek Center,,366b Cox Creek Parkway,Cox Creek Center,Florence,AL,35630,United States,256-764-7099,,,"SU : 12:00 - 18:00, MO : 10:00 - 21:00, TU : 10:00 - 21:00, WE : 10:00 - 21:00, TH : 10:00 - 21:00, FR : 10:00 - 21:00, SA : 10:00 - 21:00",,,
Valley Bend Shopping Center,,2722 Carl T. Jones Dr.,Suite A-1,Huntsville,AL,35802,United States,256-880-5276,,,"SU : 12:00 - 18:00, MO : 10:00 - 21:00, TU : 10:00 - 21:00, WE : 10:00 - 21:00, TH : 10:00 - 21:00, FR : 10:00 - 21:00, SA : 10:00 - 21:00",,,
Wiregrass Commons Mall,,175 Jones Dr.,,Dothan,AL,36303,United States,334-671-0028,,,"SU : 11:00 - 18:00, MO : 10:00 - 21:00, TU : 10:00 - 21:00, WE : 10:00 - 21:00, TH : 10:00 - 21:00, FR : 10:00 - 21:00, SA : 10:00 - 21:00",,,
Cheyenne Marketplace,,5116 Frontier Mall #700,,Cheyenne,WY,82009,United States,307-634-6906,,,"SU : 11:00 - 18:00, MO : 10:00 - 21:00, TU : 10:00 - 21:00, WE : 10:00 - 21:00, TH : 10:00 - 21:00, FR : 10:00 - 21:00, SA : 10:00 - 21:00",,,
Colonial Promenade Alabaster,,300 Colonial Promenade Parkway,Ste 500,Alabaster,AL,35007,United States,205-685-1299,,,"SU : 12:00 - 18:00, MO : 10:00 - 21:00, TU : 10:00 - 21:00, WE : 10:00 - 21:00, TH : 10:00 - 21:00, FR : 10:00 - 21:00, SA : 10:00 - 21:00",,,
East Towne Plaza,,2123 Zeier Road,,Madison,WI,53704,United States,(608) 244-1943,,,"SU : 11:00 - 18:00, MO : 10:00 - 21:00, TU : 10:00 - 21:00, WE : 10:00 - 21:00, TH : 10:00 - 21:00, FR : 10:00 - 21:00, SA : 10:00 - 21:00",,,
Casaloma Retail Center,,722 N. Casaloma Drive,Casaloma Retail Center,Appleton,WI,54913,United States,920-997-1880,,,"SU : 11:00 - 18:00, MO : 10:00 - 21:00, TU : 10:00 - 21:00, WE : 10:00 - 21:00, TH : 10:00 - 21:00, FR : 10:00 - 21:00, SA : 10:00 - 21:00",,,
Villages At Bay Park,,820 Willard Drive,Suite 210,Ashwaubenon,WI,54304,United States,920-497-3620,,,"SU : 11:00 - 18:00, MO : 10:00 - 21:00, TU : 10:00 - 21:00, WE : 10:00 - 21:00, TH : 10:00 - 21:00, FR : 10:00 - 21:00, SA : 10:00 - 21:00",,,
Brookfield Fashion Center,,16900 W. Bluemound Road,Suite B,Brookfield,WI,53005,United States,262-786-2109,,,"SU : 11:00 - 18:00, MO : 10:00 - 21:00, TU : 10:00 - 21:00, WE : 10:00 - 21:00, TH : 10:00 - 21:00, FR : 10:00 - 21:00, SA : 10:00 - 20:00",,,
University Town Centre,,94 Jim Street,,Morgantown,WV,26501-2440,United States,304-598-2978,,,"SU : 11:00 - 18:00, MO : 10:00 - 21:00, TU : 10:00 - 21:00, WE : 10:00 - 21:00, TH : 10:00 - 21:00, FR : 10:00 - 21:00, SA : 10:00 - 21:00",,,
Monticello Marketplace,,"4640 Monticello Ave, Suite 9b",,Williamsburg,VA,23188-8230,United States,757-564-6106,,,"SU : 12:00 - 18:00, MO : 10:00 - 21:00, TU : 10:00 - 21:00, WE : 10:00 - 21:00, TH : 10:00 - 21:00, FR : 10:00 - 21:00, SA : 10:00 - 21:00",,,
Landstown Commons,,"3312 Princess Anne Rd., #823",,Virginia Beach,VA,23456,United States,757-468-0826,,,"SU : 11:00 - 18:00, MO : 10:00 - 21:00, TU : 10:00 - 21:00, WE : 10:00 - 21:00, TH : 10:00 - 21:00, FR : 10:00 - 21:00, SA : 10:00 - 21:00",,,
Hilltop Plaza,,1725 Laskin Road,,Virginia Beach,VA,23454,United States,757-425-2051,,,"SU : 12:00 - 18:00, MO : 10:00 - 21:00, TU : 10:00 - 21:00, WE : 10:00 - 21:00, TH : 10:00 - 21:00, FR : 10:00 - 21:00, SA : 10:00 - 21:00",,,
Dulles Town Crossing,,45591 Dulles Eastern Plaza,Suite 120,Sterling,VA,20166,United States,703-433-2489,,,"SU : 11:00 - 18:00, MO : 10:00 - 21:00, TU : 10:00 - 21:00, WE : 10:00 - 21:00, TH : 10:00 - 21:00, FR : 10:00 - 21:00, SA : 10:00 - 21:00",,,
Towne Square,,1383 Towne Square Blvd. NW,Town Square,Roanoke,VA,24012,United States,540-366-0826,,,"SU : 11:00 - 18:00, MO : 10:00 - 21:00, TU : 10:00 - 21:00, WE : 10:00 - 21:00, TH : 10:00 - 21:00, FR : 10:00 - 21:00, SA : 10:00 - 21:00",,,
The Village At Swift Creek,,13343 Rittenhouse Dr.,,Midlothian,VA,23112-6225,United States,804-744-3647,,,"SU : 12:00 - 18:00, MO : 10:00 - 21:00, TU : 10:00 - 21:00, WE : 10:00 - 21:00, TH : 10:00 - 21:00, FR : 10:00 - 21:00, SA : 10:00 - 21:00",,,
Jefferson Commons,,12551 Jefferson Ave.,Suite 121,Newport News,VA,23602,United States,757-988-3014,,,"SU : 12:00 - 18:00, MO : 10:00 - 21:00, TU : 10:00 - 21:00, WE : 10:00 - 21:00, TH : 10:00 - 21:00, FR : 10:00 - 21:00, SA : 10:00 - 21:00",,,
Chesterfield Towne Center,,11500 Midlothian Tpke,,Richmond,VA,23235,United States,804-794-1216,,,"SU : 12:00 - 18:00, MO : 10:00 - 21:00, TU : 10:00 - 21:00, WE : 10:00 - 21:00, TH : 10:00 - 21:00, FR : 10:00 - 21:00, SA : 10:00 - 21:00",,,
Battlefield Shopping Center,,1043 Edwards Ferry Rd NE,,Leesburg,VA,20176,United States,703-737-3139,,,"SU : 11:00 - 18:00, MO : 10:00 - 21:00, TU : 10:00 - 21:00, WE : 10:00 - 21:00, TH : 10:00 - 21:00, FR : 10:00 - 21:00, SA : 10:00 - 21:00",,,
Fair Lakes Center,,13041 Fair Lakes Shopping Ctr,Fair Lakes Center,Fairfax,VA,22033,United States,703-222-1826,,,"SU : 11:00 - 19:00, MO : 10:00 - 21:00, TU : 10:00 - 21:00, WE : 10:00 - 21:00, TH : 10:00 - 21:00, FR : 10:00 - 21:00, SA : 10:00 - 21:00",,,
Crossways Shopping Center,,1412 Greenbrier Parkway,Suite 119,Chesapeake,VA,23320,United States,757-361-0015,,,"SU : 11:00 - 19:00, MO : 10:00 - 21:00, TU : 10:00 - 21:00, WE : 10:00 - 21:00, TH : 10:00 - 21:00, FR : 10:00 - 21:00, SA : 10:00 - 21:00",,,
Quail Creek Crossing,,3201 Lawrence Road,Suite 300,Wichita Falls,TX,76308,United States,940-689-0070,,,"SU : 11:00 - 19:00, MO : 10:00 - 21:00, TU : 10:00 - 21:00, WE : 10:00 - 21:00, TH : 10:00 - 21:00, FR : 10:00 - 21:00, SA : 10:00 - 21:00",,,
Baybrook Square,,1375 W. Bay Area Boulevard,,Webster,TX,77598,United States,281-332-9817,,,"SU : 12:00 - 18:00, MO : 10:00 - 21:00, TU : 10:00 - 21:00, WE : 10:00 - 21:00, TH : 10:00 - 21:00, FR : 10:00 - 21:00, SA : 10:00 - 21:00",,,
Waxahachie Marketplace,,1700 Hwy 77,Suite #130,Waxahachie,TX,75165,United States,972-923-7724,,,"SU : 00:00 - 18:00, MO : 10:00 - 21:00, TU : 10:00 - 21:00, WE : 10:00 - 21:00, TH : 10:00 - 21:00, FR : 10:00 - 21:00, SA : 10:00 - 21:00",,,
Victoria Crossing,,7906 NE Zac Lentz Parkway,,Victoria,TX,77904,United States,361-574-7929,,,"SU : 11:00 - 18:00, MO : 10:00 - 21:00, TU : 10:00 - 21:00, WE : 10:00 - 21:00, TH : 10:00 - 21:00, FR : 10:00 - 21:00, SA : 10:00 - 21:00",,,
Central Texas Marketplace,,"2512 W. Loop 340, Suite 100",,Waco,TX,76711-2410,United States,254-662-6660,,,"SU : 12:00 - 18:00, MO : 10:00 - 21:00, TU : 10:00 - 21:00, WE : 10:00 - 21:00, TH : 10:00 - 21:00, FR : 10:00 - 21:00, SA : 10:00 - 21:00",,,
Woodridge Plaza,,27842 Interstate 45 North,,The Woodlands,TX,77385,United States,832-585-0020,,,"SU : 12:00 - 18:00, MO : 10:00 - 21:00, TU : 10:00 - 21:00, WE : 10:00 - 21:00, TH : 10:00 - 21:00, FR : 10:00 - 21:00, SA : 10:00 - 21:00",,,
Village At Cumberland Park,,8970 S. Broadway Ave,Suite 116,Tyler,TX,75703,United States,903-534-3866,,,"SU : 23:00 - 19:00, MO : 10:00 - 21:00, TU : 10:00 - 21:00, WE : 10:00 - 21:00, TH : 10:00 - 21:00, FR : 10:00 - 21:00, SA : 10:00 - 21:00",,,
Richmond Ranch,,4113 Gibson Lane,,Texarkana,TX,75503,United States,903-832-0176,,,"SU : 12:00 - 19:00, MO : 09:00 - 21:00, TU : 09:00 - 21:00, WE : 09:00 - 21:00, TH : 09:00 - 21:00, FR : 09:00 - 21:00, SA : 09:00 - 21:00",,,
Market at Town Center,,2525 Town Center Blvd.,,Sugar Land,TX,77479-2318,United States,281-277-0013,,,"SU : 11:00 - 19:00, MO : 10:00 - 21:00, TU : 10:00 - 21:00, WE : 10:00 - 21:00, TH : 10:00 - 21:00, FR : 10:00 - 21:00, SA : 10:00 - 21:00",,,
Cypresswood Court,,19507 Interstate 45 North,Suite 940,Spring,TX,77388,United States,281-528-9218,,,"SU : 12:00 - 18:00, MO : 10:00 - 21:00, TU : 10:00 - 21:00, WE : 10:00 - 21:00, TH : 10:00 - 21:00, FR : 10:00 - 21:00, SA : 10:00 - 21:00",,,
Park Village,,1061 E Southlake Blvd,,Southlake,TX,76092,United States,817-488-6468,,,"SU : 10:00 - 19:00, MO : 09:00 - 21:00, TU : 09:00 - 21:00, WE : 09:00 - 21:00, TH : 09:00 - 21:00, FR : 09:00 - 21:00, SA : 09:00 - 21:00",,,
Forum At Olympia Parkway,,8319 Agora Parkway,,Selma,TX,78154,United States,210-566-9797,,,"SU : 11:00 - 18:00, MO : 10:00 - 21:00, TU : 10:00 - 21:00, WE : 10:00 - 21:00, TH : 10:00 - 21:00, FR : 10:00 - 21:00, SA : 10:00 - 21:00",,,
Tanger Outlet Center San Marco,,4015 I-35 South,Suite 120,San Marcos,TX,78666,United States,512-392-5770,,,"SU : 10:00 - 19:00, MO : 09:00 - 21:00, TU : 09:00 - 21:00, WE : 09:00 - 21:00, TH : 09:00 - 21:00, FR : 09:00 - 21:00, SA : 09:00 - 21:00",,,
Village At Stone Oak,,23014 Us Highway 281 North,Suite 102,San Antonio,TX,78258,United States,210-481-3688,,,"SU : 11:00 - 18:00, MO : 10:00 - 21:00, TU : 10:00 - 21:00, WE : 10:00 - 21:00, TH : 10:00 - 21:00, FR : 10:00 - 21:00, SA : 10:00 - 21:00",,,
Brooks Corner Shopping Center,,3143 S.E. Military Drive,Suite 123,San Antonio,TX,78223,United States,210-359-6265,,,"SU : 11:00 - 18:00, MO : 10:00 - 21:00, TU : 10:00 - 21:00, WE : 10:00 - 21:00, TH : 10:00 - 21:00, FR : 10:00 - 21:00, SA : 10:00 - 21:00",,,
The North Rim Shopping Center,,17610 La Cantera Parkway,Suite 120,San Antonio,TX,78257,United States,210-694-1380,,,"SU : 11:00 - 18:00, MO : 10:00 - 21:00, TU : 10:00 - 21:00, WE : 10:00 - 21:00, TH : 10:00 - 21:00, FR : 10:00 - 21:00, SA : 10:00 - 21:00",,,
Alamo Ranch,,5347 West Loop 1604 North,Sp. 135,San Antonio,TX,78253,United States,210-647-7947,,,"SU : 11:00 - 19:00, MO : 10:00 - 21:00, TU : 10:00 - 21:00, WE : 10:00 - 21:00, TH : 10:00 - 21:00, FR : 10:00 - 21:00, SA : 10:00 - 21:00",,,
Sunset Plaza,,4205 Sunset Drive,Sunset Plaza,San Angelo,TX,76904,United States,325-223-9040,,,"SU : 12:00 - 18:00, MO : 10:00 - 21:00, TU : 10:00 - 21:00, WE : 10:00 - 21:00, TH : 10:00 - 21:00, FR : 10:00 - 21:00, SA : 10:00 - 21:00",,,
Rockwall Crossing,,945 East I-30,,Rockwall,TX,75087,United States,214-771-0408,,,"SU : 11:00 - 19:00, MO : 10:00 - 21:00, TU : 10:00 - 21:00, WE : 10:00 - 21:00, TH : 10:00 - 21:00, FR : 10:00 - 21:00, SA : 10:00 - 21:00",,,
Stone Hill Town Center,,18700 Limestone Commercial Dr.,Suite 700,Pflugerville,TX,78660-6557,United States,512-251-7300,,,"SU : 11:00 - 18:00, MO : 10:00 - 21:00, TU : 10:00 - 21:00, WE : 10:00 - 21:00, TH : 10:00 - 21:00, FR : 10:00 - 21:00, SA : 10:00 - 21:00",,,
Silverlake Village,,3143 Silverlake Village Drive,Unit 16,Pearland,TX,77584,United States,713-436-7238,,,"SU : 12:00 - 18:00, MO : 10:00 - 21:00, TU : 10:00 - 21:00, WE : 10:00 - 21:00, TH : 10:00 - 21:00, FR : 10:00 - 21:00, SA : 10:00 - 21:00",,,
Chimney Rock,,6341 East Highway 191,,Odessa,TX,79762,United States,432-362-1563,,,"SU : 11:00 - 19:00, MO : 10:00 - 21:00, TU : 10:00 - 21:00, WE : 10:00 - 21:00, TH : 10:00 - 21:00, FR : 10:00 - 21:00, SA : 10:00 - 21:00",,,
Fairway Marketplace,,5566 Fairmont Parkway,,Pasadena,TX,77505,United States,281-487-3082,,,"SU : 12:00 - 18:00, MO : 10:00 - 21:00, TU : 10:00 - 21:00, WE : 10:00 - 21:00, TH : 10:00 - 21:00, FR : 10:00 - 21:00, SA : 10:00 - 21:00",,,
Midland Park Mall,,4511 N. Midkiff Road,Suite C25,Midland,TX,79705,United States,432-699-4450,,,"SU : 12:00 - 18:00, MO : 10:00 - 21:00, TU : 10:00 - 21:00, WE : 10:00 - 21:00, TH : 10:00 - 21:00, FR : 10:00 - 21:00, SA : 10:00 - 21:00",,,
Market East Shopping Center,,1705 N. Town East Boulevard,,Mesquite,TX,75150,United States,972-270-0551,,,"SU : 11:00 - 19:30, MO : 10:00 - 21:00, TU : 10:00 - 21:00, WE : 10:00 - 21:00, TH : 10:00 - 21:00, FR : 10:00 - 21:00, SA : 10:00 - 21:00",,,
Main Place Shopping Center,,1800 South Main Street,Suite 600,Mcallen,TX,78503,United States,956-992-0917,,,"SU : 11:00 - 19:00, MO : 10:00 - 21:00, TU : 10:00 - 21:00, WE : 10:00 - 21:00, TH : 10:00 - 21:00, FR : 10:00 - 21:00, SA : 10:00 - 21:00",,,
Mansfield Town Center West,,2041 Highway 287 N,Suite 613,Mansfield,TX,76063,United States,682-518-1893,,,"SU : 11:00 - 19:00, MO : 10:00 - 21:00, TU : 10:00 - 21:00, WE : 10:00 - 21:00, TH : 10:00 - 21:00, FR : 10:00 - 21:00, SA : 10:00 - 21:00",,,
Canyon West Shopping Center,,6074 Marsha Sharp Freeway,,Lubbock,TX,79407,United States,806-771-3417,,,"SU : 11:00 - 19:00, MO : 10:00 - 21:00, TU : 10:00 - 21:00, WE : 10:00 - 21:00, TH : 10:00 - 21:00, FR : 10:00 - 21:00, SA : 10:00 - 21:00",,,
Lufkin Mall,,4600 South Medford Drive,#1144,Lufkin,TX,75901,United States,936-632-6330,,,"SU : 12:00 - 18:00, MO : 10:00 - 21:00, TU : 10:00 - 21:00, WE : 10:00 - 21:00, TH : 10:00 - 21:00, FR : 10:00 - 21:00, SA : 10:00 - 21:00",,,
Lake Worth Marketplace,,6046 Azle Avenue,Suite 300,Lake Worth,TX,76135,United States,817-237-4870,,,"SU : 11:00 - 19:00, MO : 10:00 - 21:00, TU : 10:00 - 21:00, WE : 10:00 - 21:00, TH : 10:00 - 21:00, FR : 10:00 - 21:00, SA : 10:00 - 21:00",,,
North Creek Plaza,,7503 San Dario Ave.,,Laredo,TX,78045-7209,United States,956-523-0186,,,"SU : 23:00 - 19:00, MO : 10:00 - 21:00, TU : 10:00 - 21:00, WE : 10:00 - 21:00, TH : 10:00 - 21:00, FR : 10:00 - 21:00, SA : 10:00 - 21:00",,,
Shoppes at ParkWest,,24600 Katy Freeway,Suite 400,Katy,TX,77494,United States,281-665-1836,,,"SU : 11:00 - 19:00, MO : 10:00 - 21:00, TU : 10:00 - 21:00, WE : 10:00 - 21:00, TH : 10:00 - 21:00, FR : 10:00 - 21:00, SA : 10:00 - 21:00",,,
Deerbrook Marketplace,,20536 Highway 59 N,,Humble,TX,77338,United States,281-446-3577,,,"SU : 11:00 - 18:00, MO : 10:00 - 21:00, TU : 10:00 - 21:00, WE : 10:00 - 21:00, TH : 10:00 - 21:00, FR : 10:00 - 21:00, SA : 10:00 - 21:00",,,
Westchase Shopping Center,,11043 Westheimer Road,Suite A,Houston,TX,77042,United States,713-266-2325,,,"SU : 11:00 - 19:00, MO : 10:00 - 21:00, TU : 10:00 - 21:00, WE : 10:00 - 21:00, TH : 10:00 - 21:00, FR : 10:00 - 21:00, SA : 10:00 - 21:00",,,
Hedwig Village Shopping Center,,9417 Katy Freeway,Hedwig Village Shopping Center,Houston,TX,77024,United States,713-463-8609,,,"SU : 11:00 - 19:00, MO : 10:00 - 21:00, TU : 10:00 - 21:00, WE : 10:00 - 21:00, TH : 10:00 - 21:00, FR : 10:00 - 21:00, SA : 10:00 - 21:00",,,
Copperwood Village,,6745 Highway 6 North,,Houston,TX,77084,United States,281-345-7151,,,"SU : 11:00 - 18:00, MO : 10:00 - 21:00, TU : 10:00 - 21:00, WE : 10:00 - 21:00, TH : 10:00 - 21:00, FR : 10:00 - 21:00, SA : 10:00 - 21:00",,,
Champions Village Shopping Ctr,,5207 FM 1960 Road West,,Houston,TX,77069,United States,281-397-8341,,,"SU : 11:00 - 19:00, MO : 10:00 - 21:00, TU : 10:00 - 21:00, WE : 10:00 - 21:00, TH : 10:00 - 21:00, FR : 10:00 - 21:00, SA : 10:00 - 21:00",,,
Wolf Ranch Town Center,,1019 W. University Ave.,Suite 601,Georgetown,TX,78628,United States,512-868-5757,,,"SU : 11:00 - 18:00, MO : 10:00 - 21:00, TU : 10:00 - 21:00, WE : 10:00 - 21:00, TH : 10:00 - 21:00, FR : 10:00 - 21:00, SA : 10:00 - 21:00",,,
Harlingen Corners,,2825 West Expressway,83 Frontage Rd,Harlingen,TX,78552,United States,956-425-0173,,,"SU : 11:00 - 19:00, MO : 10:00 - 21:00, TU : 10:00 - 21:00, WE : 10:00 - 21:00, TH : 10:00 - 21:00, FR : 10:00 - 21:00, SA : 10:00 - 21:00",,,
Market Heights,,201 E. Central Texas Expy,Ste. 270,Harker Heights,TX,76548,United States,254-680-2681,,,"SU : 11:00 - 18:00, MO : 10:00 - 21:00, TU : 10:00 - 21:00, WE : 10:00 - 21:00, TH : 10:00 - 21:00, FR : 10:00 - 21:00, SA : 10:00 - 21:00",,,
Firewheel Town Center,,355 Town Center Boulevard,Firewheel Town Center,Garland,TX,75040,United States,972-414-5900,,,"SU : 11:00 - 19:00, MO : 10:00 - 21:00, TU : 10:00 - 21:00, WE : 10:00 - 21:00, TH : 10:00 - 21:00, FR : 10:00 - 21:00, SA : 10:00 - 21:00",,,
The Center At Preston Ridge,,3333 Preston Road,Suite 404,Frisco,TX,75034,United States,214-618-5399,,,"SU : 11:00 - 19:00, MO : 10:00 - 21:00, TU : 10:00 - 21:00, WE : 10:00 - 21:00, TH : 10:00 - 21:00, FR : 10:00 - 21:00, SA : 10:00 - 21:00",,,
Overton Park Plaza,,4678 SW Loop 820,,Fort Worth,TX,76109,United States,817-735-1185,,,"SU : 00:00 - 18:00, MO : 10:00 - 21:00, TU : 10:00 - 21:00, WE : 10:00 - 21:00, TH : 10:00 - 21:00, FR : 10:00 - 21:00, SA : 10:00 - 21:00",,,
Alliance Town Center,,9550 Sage Meadow Trail,,Fort Worth,TX,76177,United States,817-741-1868,,,"SU : 11:00 - 19:00, MO : 10:00 - 21:00, TU : 10:00 - 21:00, WE : 10:00 - 21:00, TH : 10:00 - 21:00, FR : 10:00 - 21:00, SA : 10:00 - 21:00",,,
Robertson's Creek Shopping Ctr,,5801 Long Praire Road,Ste 140,Flower Mound,TX,75028,United States,972-539-0563,,,"SU : 11:00 - 19:00, MO : 10:00 - 21:00, TU : 10:00 - 21:00, WE : 10:00 - 21:00, TH : 10:00 - 21:00, FR : 10:00 - 21:00, SA : 10:00 - 21:00",,,
Glade Park,,2911 Rio Grande Blvd.,Suite 300,Euless,TX,76039-1336,United States,817-283-3907,,,"SU : 12:00 - 18:00, MO : 10:00 - 21:00, TU : 10:00 - 21:00, WE : 10:00 - 21:00, TH : 10:00 - 21:00, FR : 10:00 - 21:00, SA : 10:00 - 21:00",,,
El Paseo Marketplace,,1886 Joe Battle Boulevard,El Paso Marketplace,El Paso,TX,79936,United States,915-849-1458,,,"SU : 11:00 - 19:00, MO : 10:00 - 21:00, TU : 10:00 - 21:00, WE : 10:00 - 21:00, TH : 10:00 - 21:00, FR : 10:00 - 21:00, SA : 10:00 - 21:00",,,
Cielo Vista Mall,,8401 Gateway Blvd. West,Suite Ll-01b,El Paso,TX,79925,United States,915-887-0868,,,"SU : 11:00 - 19:00, MO : 10:00 - 21:00, TU : 10:00 - 21:00, WE : 10:00 - 21:00, TH : 10:00 - 21:00, FR : 10:00 - 21:00, SA : 10:00 - 21:00",,,
Plaza Del Sol,,2205 Veterans Boulevard,Suite F-15,Del Rio,TX,78840,United States,830-775-6275,,,"SU : 12:00 - 19:00, MO : 10:00 - 21:00, TU : 10:00 - 21:00, WE : 10:00 - 21:00, TH : 10:00 - 21:00, FR : 10:00 - 21:00, SA : 10:00 - 21:00",,,
Pavillion Court,,16637 Coit Road,Pavillion Court,Dallas,TX,75248,United States,972-248-1473,,,"SU : 11:00 - 19:00, MO : 10:00 - 21:00, TU : 10:00 - 21:00, WE : 10:00 - 21:00, TH : 10:00 - 21:00, FR : 10:00 - 21:00, SA : 10:00 - 21:00",,,
Conroe Marketplace,,2932 Interstate 45 N,Conroe Marketplace,Conroe,TX,77303,United States,936-441-5475,,,"SU : 11:00 - 18:00, MO : 10:00 - 21:00, TU : 10:00 - 21:00, WE : 10:00 - 21:00, TH : 10:00 - 21:00, FR : 10:00 - 21:00, SA : 09:00 - 21:00",,,
Moore Plaza,,5425 S. Padre Island Dr.,Ste. 135a,Corpus Christi,TX,78411,United States,361-985-6490,,,"SU : 11:00 - 19:00, MO : 10:00 - 21:00, TU : 10:00 - 21:00, WE : 10:00 - 21:00, TH : 10:00 - 21:00, FR : 10:00 - 21:00, SA : 10:00 - 21:00",,,
Gateway Station Ii,,1505 University Dr. East,Suite 500,College Station,TX,77840,United States,979-260-6858,,,"SU : 12:00 - 18:00, MO : 10:00 - 21:00, TU : 10:00 - 21:00, WE : 10:00 - 21:00, TH : 10:00 - 21:00, FR : 10:00 - 21:00, SA : 10:00 - 21:00",,,
Uptown Village At Cedar Hill,,305 W. FM 1382,Suite 545,Cedar Hill,TX,75104,United States,972-293-7141,,,"SU : 11:00 - 19:00, MO : 10:00 - 21:00, TU : 10:00 - 21:00, WE : 10:00 - 21:00, TH : 10:00 - 21:00, FR : 10:00 - 21:00, SA : 10:00 - 21:00",,,
Baytown Plaza,,6540 Garth Rd.,,Baytown,TX,77521-9618,United States,281-421-1837,,,"SU : 11:00 - 18:00, MO : 10:00 - 21:00, TU : 10:00 - 21:00, WE : 10:00 - 21:00, TH : 10:00 - 21:00, FR : 10:00 - 21:00, SA : 10:00 - 21:00",,,
North Park Plaza,,5874 Eastex Freeway,North Park Plaza,Beaumont,TX,77708,United States,409-924-0449,,,"SU : 12:00 - 18:00, MO : 10:00 - 21:00, TU : 10:00 - 21:00, WE : 10:00 - 21:00, TH : 10:00 - 21:00, FR : 10:00 - 21:00, SA : 10:00 - 21:00",,,
Walden Park,,10900 Lakeline Mall Dr.,Ste 100,Austin,TX,78717-5929,United States,512-249-9663,,,"SU : 11:00 - 19:00, MO : 10:00 - 21:00, TU : 10:00 - 21:00, WE : 10:00 - 21:00, TH : 10:00 - 21:00, FR : 10:00 - 21:00, SA : 10:00 - 21:00",,,
Arlington Highlands,,137 Merchants Row Drive,Suite 155,Arlington,TX,76018,United States,817-466-9334,,,"SU : 11:00 - 19:00, MO : 10:00 - 21:00, TU : 10:00 - 21:00, WE : 10:00 - 21:00, TH : 10:00 - 21:00, FR : 10:00 - 21:00, SA : 10:00 - 21:00",,,
Forum At Soncy,,3350 S. Soncy Road,Suite 124,Amarillo,TX,79124,United States,806-353-3607,,,"SU : 11:00 - 19:00, MO : 10:00 - 21:00, TU : 10:00 - 21:00, WE : 10:00 - 21:00, TH : 10:00 - 21:00, FR : 10:00 - 21:00, SA : 10:00 - 21:00",,,
The Village At Allen,,190 E. Stacy Road,Suite 2214,Allen,TX,75002,United States,972-678-4787,,,"SU : 11:00 - 19:00, MO : 10:00 - 21:00, TU : 10:00 - 21:00, WE : 10:00 - 21:00, TH : 10:00 - 21:00, FR : 10:00 - 21:00, SA : 10:00 - 21:00",,,
Shops At Abilene,,3533 Catclaw Dr,,Abilene,TX,79606,United States,325-793-9719,,,"SU : 12:00 - 18:00, MO : 10:00 - 21:00, TU : 10:00 - 21:00, WE : 10:00 - 21:00, TH : 10:00 - 21:00, FR : 10:00 - 21:00, SA : 10:00 - 21:00",,,
The Crossings Of Spring Hill,,1035 Crossings Blvd,,Spring Hill,TN,37174,United States,931-486-3180,,,"SU : 12:00 - 18:00, MO : 10:00 - 21:00, TU : 10:00 - 21:00, WE : 10:00 - 21:00, TH : 10:00 - 21:00, FR : 10:00 - 21:00, SA : 10:00 - 21:00",,,
Colonial Town Park,,801 Industrial Blvd.,Suite 160,Smyrna,TN,37167-6881,United States,615-223-9004,,,"SU : 12:00 - 18:00, MO : 10:00 - 21:00, TU : 10:00 - 21:00, WE : 10:00 - 21:00, TH : 10:00 - 21:00, FR : 10:00 - 21:00, SA : 10:00 - 21:00",,,
Five Oaks Center,,1647 Parkway,Five Oaks Center,Sevierville,TN,37862,United States,865-774-9322,,,"SU : 10:00 - 19:00, MO : 09:00 - 21:00, TU : 09:00 - 21:00, WE : 09:00 - 21:00, TH : 09:00 - 21:00, FR : 09:00 - 21:00, SA : 09:00 - 21:00",,,
100 Oaks Mall,,719 Thompson Lane,Suite 5,Nashville,TN,37204,United States,615-298-3218,,,"SU : 11:00 - 18:00, MO : 10:00 - 21:00, TU : 10:00 - 21:00, WE : 10:00 - 21:00, TH : 10:00 - 21:00, FR : 10:00 - 21:00, SA : 10:00 - 21:00",,,
The Avenue Murfreesboro,,2615 Medical Center Parkway,Suite 2500,Murfreesboro,TN,37129,United States,615-895-5154,,,"SU : 11:00 - 18:00, MO : 10:00 - 21:00, TU : 10:00 - 21:00, WE : 10:00 - 21:00, TH : 10:00 - 21:00, FR : 10:00 - 21:00, SA : 10:00 - 21:00",,,
Centre At Deane Hill,,208 Morrell Road,,Knoxville,TN,37919,United States,865-769-5362,,,"SU : 12:00 - 18:00, MO : 09:30 - 21:00, TU : 09:30 - 21:00, WE : 09:30 - 21:00, TH : 09:30 - 21:00, FR : 09:30 - 21:00, SA : 09:30 - 21:00",,,
Providence Marketplace,,401 S. Mt. Juliet Road,Suite 340,Mt. Juliet,TN,37122,United States,615-754-0011,,,"SU : 11:00 - 18:00, MO : 10:00 - 21:00, TU : 10:00 - 21:00, WE : 10:00 - 21:00, TH : 10:00 - 21:00, FR : 10:00 - 21:00, SA : 10:00 - 21:00",,,
Colonial Pinnacle Turkey Creek,,11275 Parkside Drive,,Knoxville,TN,37934,United States,865-966-9384,,,"SU : 12:00 - 18:00, MO : 10:00 - 21:00, TU : 10:00 - 21:00, WE : 10:00 - 21:00, TH : 10:00 - 21:00, FR : 10:00 - 21:00, SA : 10:00 - 21:00",,,
Johnson City Marketplace,,188 Marketplace Blvd.,Suite 10,Johnson City,TN,37604,United States,423-232-8814,,,"SU : 12:00 - 18:00, MO : 10:00 - 21:00, TU : 10:00 - 21:00, WE : 10:00 - 21:00, TH : 10:00 - 21:00, FR : 10:00 - 21:00, SA : 10:00 - 21:00",,,
The Columns,,1101 Vann Drive,The Columns,Jackson,TN,38305,United States,731-664-9397,,,"SU : 11:00 - 18:00, MO : 09:30 - 21:00, TU : 09:30 - 21:00, WE : 09:30 - 21:00, TH : 09:30 - 21:00, FR : 09:30 - 21:00, SA : 09:30 - 21:00",,,
Glenbrook Shopping Centre,,1016 Glenbrook Way,,Hendersonville,TN,37075,United States,615-824-3377,,,"SU : 11:00 - 19:00, MO : 10:00 - 21:00, TU : 10:00 - 21:00, WE : 10:00 - 21:00, TH : 10:00 - 21:00, FR : 10:00 - 21:00, SA : 10:00 - 21:00",,,
Countrywood Crossing,,2289 N. Germantown Parkway,Suite 104,Cordova,TN,38016,United States,901-213-0291,,,"SU : 12:00 - 18:00, MO : 10:00 - 21:00, TU : 10:00 - 21:00, WE : 10:00 - 21:00, TH : 10:00 - 21:00, FR : 10:00 - 21:00, SA : 10:00 - 21:00",,,
Jackson Square,,393 West Jackson Street,Jackson Square,Cookeville,TN,38501,United States,931-520-3075,,,"SU : 12:00 - 21:00, MO : 09:00 - 20:00, TU : 09:00 - 20:00, WE : 09:00 - 20:00, TH : 09:00 - 20:00, FR : 09:00 - 21:00, SA : 09:00 - 21:00",,,
Hampton Plaza,,2878 Wilma Rudolph Blvd.,,Clarksville,TN,37040,United States,931-551-7155,,,"SU : 11:00 - 18:00, MO : 10:00 - 21:00, TU : 10:00 - 21:00, WE : 10:00 - 21:00, TH : 10:00 - 21:00, FR : 10:00 - 21:00, SA : 10:00 - 21:00",,,
Hamilton Crossing,,2200 Hamilton Place Blvd.,Suite 5,Chattanooga,TN,37421,United States,423-894-9146,,,"SU : 11:00 - 19:00, MO : 10:00 - 21:00, TU : 10:00 - 21:00, WE : 10:00 - 21:00, TH : 10:00 - 21:00, FR : 10:00 - 21:00, SA : 10:00 - 21:00",,,
The Pinnacle,,462 Pinnacle Parkway,,Bristol,TN,37620-7446,United States,423-652-2010,,,"SU : 12:00 - 18:00, MO : 09:00 - 21:00, TU : 09:00 - 21:00, WE : 09:00 - 21:00, TH : 09:00 - 21:00, FR : 09:00 - 21:00, SA : 09:00 - 21:00",,,
Cool Springs Pointe,,1624 Galleria Boulevard,Cool Springs Pointe,Brentwood,TN,37027,United States,615-309-8999,,,"SU : 12:00 - 18:00, MO : 10:00 - 21:00, TU : 10:00 - 21:00, WE : 10:00 - 21:00, TH : 10:00 - 21:00, FR : 10:00 - 21:00, SA : 10:00 - 21:00",,,
Westgate Crossing,,660 Spartan Blvd.,,Spartanburg,SC,29301,United States,864-574-9984,,,"SU : 11:00 - 19:00, MO : 10:00 - 21:00, TU : 10:00 - 21:00, WE : 10:00 - 21:00, TH : 10:00 - 21:00, FR : 10:00 - 21:00, SA : 10:00 - 21:00",,,
Northwoods Marketplace,,7620 Rivers Avenue,Suite 310,North Charleston,SC,29406,United States,843-818-1130,,,"SU : 11:00 - 19:00, MO : 10:00 - 21:00, TU : 10:00 - 21:00, WE : 10:00 - 21:00, TH : 10:00 - 21:00, FR : 10:00 - 21:00, SA : 10:00 - 21:00",,,
SayeBrook Town Center,,170 Sayebrook Parkway,,Myrtle Beach,SC,29588,United States,843-293-7570,,,"SU : 11:00 - 19:00, MO : 10:00 - 21:00, TU : 10:00 - 21:00, WE : 10:00 - 21:00, TH : 10:00 - 21:00, FR : 10:00 - 21:00, SA : 10:00 - 21:00",,,
Arcadian Shores Commons,,10796 Kings Road,Arcadian Shores Commons,Myrtle Beach,SC,29572,United States,843-449-9626,,,"SU : 11:00 - 19:00, MO : 10:00 - 21:00, TU : 10:00 - 21:00, WE : 10:00 - 21:00, TH : 10:00 - 21:00, FR : 10:00 - 21:00, SA : 10:00 - 21:00",,,
Magnolia Park,,"1025 Woodruff Road, Suite G102",,Greenville,SC,29607,United States,864-627-3890,,,"SU : 23:00 - 19:00, MO : 09:00 - 21:00, TU : 09:00 - 21:00, WE : 09:00 - 21:00, TH : 09:00 - 21:00, FR : 09:00 - 21:00, SA : 09:00 - 21:00",,,
Commons At Magnolia,,2845 David H. Mcleod Blvd.,Commons At Magnolia,Florence,SC,29501,United States,843-661-0414,,,"SU : 11:00 - 19:00, MO : 10:00 - 21:00, TU : 10:00 - 21:00, WE : 10:00 - 21:00, TH : 10:00 - 21:00, FR : 10:00 - 21:00, SA : 10:00 - 21:00",,,
Target Center,,10204-d Two Notch Rd.,,Columbia,SC,29229,United States,803-788-4963,,,"SU : 23:00 - 19:00, MO : 10:00 - 21:00, TU : 10:00 - 21:00, WE : 10:00 - 21:00, TH : 10:00 - 21:00, FR : 10:00 - 21:00, SA : 10:00 - 21:00",,,
Rosewood Shopping Center,,4400 Ft. Jackson Blvd.,,Columbia,SC,29209,United States,803-738-3561,,,"SU : 11:00 - 19:00, MO : 10:00 - 21:00, TU : 10:00 - 21:00, WE : 10:00 - 21:00, TH : 10:00 - 21:00, FR : 10:00 - 21:00, SA : 10:00 - 21:00",,,
Columbiana Station,,242 Harbison Boulevard,Columbiana Station,Columbia,SC,29212,United States,803-407-3479,,,"SU : 11:00 - 19:00, MO : 10:00 - 21:00, TU : 10:00 - 21:00, WE : 10:00 - 21:00, TH : 10:00 - 21:00, FR : 10:00 - 21:00, SA : 10:00 - 21:00",,,
West Manchester Town Center,,1800 Loucks Road,,York,PA,17408,United States,717-764-1620,,,"SU : 23:00 - 18:00, MO : 10:00 - 21:00, TU : 10:00 - 21:00, WE : 10:00 - 21:00, TH : 10:00 - 21:00, FR : 10:00 - 21:00, SA : 10:00 - 21:00",,,
Robinson Town Centre,,1990 Park Manor Boulevard,,Pittsburgh,PA,15205,United States,412-747-7572,,,"SU : 11:00 - 18:00, MO : 10:00 - 21:00, TU : 10:00 - 21:00, WE : 10:00 - 21:00, TH : 10:00 - 21:00, FR : 10:00 - 21:00, SA : 10:00 - 21:00",,,
North Wales Crossing,,782 Bethlehem Pike,Suite 1,North Wales,PA,19454-1732,United States,215-393-6858,,,"SU : 11:00 - 18:00, MO : 10:00 - 21:00, TU : 10:00 - 21:00, WE : 10:00 - 21:00, TH : 10:00 - 21:00, FR : 10:00 - 21:00, SA : 10:00 - 21:00",,,
Monroeville Mall,,300 Monroeville Mall,Suite 300,Monroeville,PA,15146-2256,United States,412-374-2806,,,"SU : 12:00 - 18:00, MO : 10:00 - 21:00, TU : 10:00 - 21:00, WE : 10:00 - 21:00, TH : 10:00 - 21:00, FR : 10:00 - 21:00, SA : 10:00 - 21:00",,,
Rockvale Outlets,,35 South Willowdale Drive,Suite 502,Lancaster,PA,17602,United States,717-393-6580,,,"SU : 11:00 - 18:00, MO : 09:30 - 21:00, TU : 09:30 - 21:00, WE : 09:30 - 21:00, TH : 09:30 - 21:00, FR : 09:30 - 21:00, SA : 09:30 - 21:00",,,
Prime Outlet At Grove City,,1911 Leesburg Grove City Road,Sp. 115,Grove City,PA,16127,United States,724-748-4626,,,"SU : 10:00 - 19:00, MO : 10:00 - 21:00, TU : 10:00 - 21:00, WE : 10:00 - 21:00, TH : 10:00 - 21:00, FR : 10:00 - 21:00, SA : 10:00 - 21:00",,,
Kirkland's Exton,,103 Iron Lake Blvd,,Exton,PA,19341,United States,610-363-2638,,,"SU : 11:00 - 18:00, MO : 10:00 - 21:00, TU : 10:00 - 21:00, WE : 10:00 - 21:00, TH : 10:00 - 21:00, FR : 10:00 - 21:00, SA : 10:00 - 21:00",,,
The Streets Of Cranberry,,20412 Route 19,Ste. 310,Cranberry Township,PA,16066,United States,724-772-0040,,,"SU : 12:00 - 18:00, MO : 10:00 - 21:00, TU : 10:00 - 21:00, WE : 10:00 - 21:00, TH : 10:00 - 21:00, FR : 10:00 - 21:00, SA : 10:00 - 21:00",,,
Millcreek Mall,,600 Millcreek Mall,,Erie,PA,16565-0601,United States,814-860-7871,,,"SU : 23:00 - 18:00, MO : 10:00 - 21:00, TU : 10:00 - 21:00, WE : 10:00 - 21:00, TH : 10:00 - 21:00, FR : 10:00 - 21:00, SA : 10:00 - 21:00",,,
Yukon Village,,1612 Garth Brooks Blvd.,Suite 125,Yukon,OK,73099,United States,405-350-3380,,,"SU : 12:00 - 18:00, MO : 10:00 - 21:00, TU : 10:00 - 21:00, WE : 10:00 - 21:00, TH : 10:00 - 21:00, FR : 10:00 - 21:00, SA : 10:00 - 21:00",,,
Woodland Plaza,,8722 East 71st St.,Suite C,Tulsa,OK,74133,United States,918-294-0351,,,"SU : 12:00 - 18:00, MO : 10:00 - 21:00, TU : 10:00 - 21:00, WE : 10:00 - 21:00, TH : 10:00 - 21:00, FR : 10:00 - 21:00, SA : 10:00 - 21:00",,,
Tulsa Hills,,7419 S. Olympia Ave. W.,,Tulsa,OK,74132-1838,United States,918-447-0031,,,"SU : 12:00 - 18:00, MO : 10:00 - 21:00, TU : 10:00 - 21:00, WE : 10:00 - 21:00, TH : 10:00 - 21:00, FR : 10:00 - 21:00, SA : 10:00 - 21:00",,,
Smith Farm Marketplace,,9018 N. 121st East Avenue,Suite 200,Owasso,OK,74055,United States,918-272-3341,,,"SU : 12:00 - 18:00, MO : 10:00 - 21:00, TU : 10:00 - 21:00, WE : 10:00 - 21:00, TH : 10:00 - 21:00, FR : 10:00 - 21:00, SA : 10:00 - 21:00",,,
Belle Isle Station,,1715 Belle Isle Boulevard,,Oklahoma City,OK,73118,United States,405-843-7857,,,"SU : 12:00 - 18:00, MO : 10:00 - 21:00, TU : 10:00 - 21:00, WE : 10:00 - 21:00, TH : 10:00 - 21:00, FR : 10:00 - 21:00, SA : 10:00 - 21:00",,,
Lawton Marketplace,,1920 NW 82nd St,,Lawton,OK,73505,United States,580-536-2297,,,"SU : 11:00 - 19:00, MO : 10:00 - 21:00, TU : 10:00 - 21:00, WE : 10:00 - 21:00, TH : 10:00 - 21:00, FR : 10:00 - 21:00, SA : 10:00 - 21:00",,,
University Town Center,,1544 24th Avenue NW,University Town Center,Norman,OK,73069,United States,405-364-4960,,,"SU : 12:00 - 18:00, MO : 10:00 - 21:00, TU : 10:00 - 21:00, WE : 10:00 - 21:00, TH : 10:00 - 21:00, FR : 10:00 - 21:00, SA : 10:00 - 21:00",,,
Voice Of America Centre,,7562 Voice Of America Drive,Voice Of America Centre,West Chester,OH,45069,United States,513-777-4741,,,"SU : 11:00 - 19:00, MO : 09:00 - 21:00, TU : 09:00 - 21:00, WE : 09:00 - 21:00, TH : 09:00 - 21:00, FR : 09:00 - 21:00, SA : 09:00 - 21:00",,,
Franklin Place,,5221-A Monroe St.,,Toledo,OH,43623-4600,United States,419-841-0035,,,"SU : 11:00 - 18:00, MO : 10:00 - 21:00, TU : 10:00 - 21:00, WE : 10:00 - 21:00, TH : 10:00 - 21:00, FR : 10:00 - 21:00, SA : 10:00 - 21:00",,,
Tanger Outlets Columbus,,400 S Wilson Rd,Suite 890,Sunbury,OH,43074,United States,740-965-1978,,,"SU : 10:00 - 19:00, MO : 09:00 - 21:00, TU : 09:00 - 21:00, WE : 09:00 - 21:00, TH : 09:00 - 21:00, FR : 09:00 - 21:00, SA : 09:00 - 21:00",,,
Crossroads Centre,,9830 Olde US 20,,Rossford,OH,43460,United States,419-872-2039,,,"SU : 12:00 - 18:00, MO : 10:00 - 21:00, TU : 10:00 - 21:00, WE : 10:00 - 21:00, TH : 10:00 - 21:00, FR : 10:00 - 21:00, SA : 10:00 - 21:00",,,
The Venue at Belden,,3927 Everhard Road NW,,North Canton,OH,44709,United States,330-244-9342,,,"SU : 11:00 - 18:00, MO : 10:00 - 21:00, TU : 10:00 - 21:00, WE : 10:00 - 21:00, TH : 10:00 - 21:00, FR : 10:00 - 21:00, SA : 10:00 - 21:00",,,
Easton Market,,3780 Easton Market,,Columbus,OH,43219-6025,United States,614-418-0372,,,"SU : 10:00 - 19:00, MO : 10:00 - 21:00, TU : 10:00 - 21:00, WE : 10:00 - 21:00, TH : 10:00 - 21:00, FR : 10:00 - 21:00, SA : 09:00 - 21:00",,,
Dayton Mall,,2700 Miamisburg Centerville Rd,Suite 860,Dayton,OH,45459-3736,United States,937-436-3041,,,"SU : 11:00 - 19:00, MO : 09:00 - 21:00, TU : 09:00 - 21:00, WE : 09:00 - 21:00, TH : 09:00 - 21:00, FR : 09:00 - 21:00, SA : 09:00 - 21:00",,,
32 East,,700 Eastgate South Dr,Suite 350,Cincinnati,OH,45245,United States,513-752-4900,,,"SU : 11:00 - 19:00, MO : 09:00 - 21:00, TU : 09:00 - 21:00, WE : 09:00 - 21:00, TH : 09:00 - 21:00, FR : 09:00 - 21:00, SA : 09:00 - 21:00",,,
Marketplace At Four Corners,,7705 Market Place Dr,,Aurora,OH,44202,United States,330-995-0530,,,"SU : 11:00 - 18:00, MO : 10:00 - 21:00, TU : 10:00 - 21:00, WE : 10:00 - 21:00, TH : 10:00 - 21:00, FR : 10:00 - 21:00, SA : 10:00 - 21:00",,,
Fargo Plaza,,4427 13th Avenue South,,Fargo,ND,58103,United States,701-282-9420,,,"SU : 12:00 - 18:00, MO : 10:00 - 21:00, TU : 10:00 - 21:00, WE : 10:00 - 21:00, TH : 10:00 - 21:00, FR : 10:00 - 21:00, SA : 10:00 - 21:00",,,
Hay Creek Shops,,1409 E LaSalle Drive,,Bismarck,ND,58503,United States,701-250-8834,,,"SU : 12:00 - 18:00, MO : 10:00 - 21:00, TU : 10:00 - 21:00, WE : 10:00 - 21:00, TH : 10:00 - 21:00, FR : 10:00 - 21:00, SA : 10:00 - 21:00",,,
Kirkland's Wilmington,,6 Van Campen Blvd.,,Wilmington,NC,28403,United States,910-313-2107,,,"SU : 11:00 - 19:00, MO : 10:00 - 21:00, TU : 10:00 - 21:00, WE : 10:00 - 21:00, TH : 10:00 - 21:00, FR : 10:00 - 21:00, SA : 10:00 - 21:00",,,
Wake Forest Crossing Ii,,"12646 Capital Blvd, Suite 128",,Wake Forest,NC,27587-7489,United States,919-556-7473,,,"SU : 12:00 - 18:00, MO : 10:00 - 21:00, TU : 10:00 - 21:00, WE : 10:00 - 21:00, TH : 10:00 - 21:00, FR : 10:00 - 21:00, SA : 10:00 - 21:00",,,
Rowan Summit,,125 Tingle Dr.,Suite 100,Salisbury,NC,28146-6147,United States,704-630-4909,,,"SU : 12:00 - 18:00, MO : 10:00 - 21:00, TU : 10:00 - 21:00, WE : 10:00 - 21:00, TH : 10:00 - 21:00, FR : 10:00 - 21:00, SA : 10:00 - 21:00",,,
Kirkland's Mooresville,,481 River Hwy,,Mooresville,NC,28117,United States,704-660-7754,,,"SU : 12:00 - 18:00, MO : 10:00 - 21:00, TU : 10:00 - 21:00, WE : 10:00 - 21:00, TH : 10:00 - 21:00, FR : 10:00 - 21:00, SA : 10:00 - 21:00",,,
Ross Plaza Shopping Center,,1834 Matthews Township Pkwy,Unit 400,Matthews,NC,28105,United States,704-847-0281,,,"SU : 12:00 - 18:00, MO : 10:00 - 21:00, TU : 10:00 - 21:00, WE : 10:00 - 21:00, TH : 10:00 - 21:00, FR : 10:00 - 21:00, SA : 10:00 - 21:00",,,
Gateway Plaza,,1315b Western Boulevard,Gateway Plaza,Jacksonville,NC,28546,United States,910-347-2219,,,"SU : 12:00 - 18:00, MO : 09:30 - 21:00, TU : 09:30 - 21:00, WE : 09:30 - 21:00, TH : 09:30 - 21:00, FR : 09:30 - 21:00, SA : 09:30 - 21:00",,,
Shoppes At Midway Plantation,,1004-c Shoppes At Midway Drive,Shoppes At Midway Plantation,Knightdale,NC,27545,United States,919-266-6148,,,"SU : 12:00 - 18:00, MO : 10:00 - 21:00, TU : 10:00 - 21:00, WE : 10:00 - 21:00, TH : 10:00 - 21:00, FR : 10:00 - 21:00, SA : 10:00 - 21:00",,,
Birkdale Village,,16710 Birkdale Commons Parkway,Suite 102,Huntersville,NC,28078,United States,704-987-8197,,,"SU : 12:00 - 18:00, MO : 10:00 - 21:00, TU : 10:00 - 21:00, WE : 10:00 - 21:00, TH : 10:00 - 21:00, FR : 10:00 - 21:00, SA : 10:00 - 21:00",,,
Holly Springs Towne Center,,232 Grand Hill Place,,Holly Springs,NC,27540,United States,919-552-5456,,,"SU : 10:00 - 19:00, MO : 10:00 - 21:00, TU : 10:00 - 21:00, WE : 10:00 - 21:00, TH : 10:00 - 21:00, FR : 10:00 - 21:00, SA : 10:00 - 21:00",,,
Valley Hills Mall,,1960 Hwy 70 S.e.,,Hickory,NC,28602,United States,828-261-0825,,,"SU : 12:00 - 18:00, MO : 10:00 - 21:00, TU : 10:00 - 21:00, WE : 10:00 - 21:00, TH : 10:00 - 21:00, FR : 10:00 - 21:00, SA : 10:00 - 21:00",,,
University Commons,,3060 South Evans Street,Suite 103,Greenville,NC,27834,United States,252-756-8850,,,"SU : 12:00 - 18:00, MO : 10:00 - 21:00, TU : 10:00 - 21:00, WE : 10:00 - 21:00, TH : 10:00 - 21:00, FR : 10:00 - 21:00, SA : 10:00 - 21:00",,,
Quail Springs Marketplace,,2300 W Memorial Rd #100,,Oklahoma City,OK,73134,United States,405-748-8230,,,"SU : 12:00 - 18:00, MO : 10:00 - 21:00, TU : 10:00 - 21:00, WE : 10:00 - 21:00, TH : 10:00 - 21:00, FR : 10:00 - 21:00, SA : 10:00 - 21:00",,,
Friendly Shopping Center,,621 Friendly Center Road,,Greensboro,NC,27408,United States,336-315-0396,,,"SU : 13:00 - 18:00, MO : 10:00 - 21:00, TU : 10:00 - 21:00, WE : 10:00 - 21:00, TH : 10:00 - 21:00, FR : 10:00 - 21:00, SA : 10:00 - 21:00",,,
Franklin Boulevard,,2625 E. Franklin Blvd.,Suite 200,Gastonia,NC,28056,United States,704-867-3609,,,"SU : 11:00 - 19:00, MO : 10:00 - 21:00, TU : 10:00 - 21:00, WE : 10:00 - 21:00, TH : 10:00 - 21:00, FR : 10:00 - 21:00, SA : 10:00 - 21:00",,,
Glensford Commons,,131 Glensford Drive,Suite 103,Fayetteville,NC,28314,United States,910-864-7847,,,"SU : 12:00 - 18:00, MO : 10:00 - 21:00, TU : 10:00 - 21:00, WE : 10:00 - 21:00, TH : 10:00 - 21:00, FR : 10:00 - 21:00, SA : 10:00 - 21:00",,,
Concord Mills,,8111 Concord Mills Blvd.,Sp. 357,Concord,NC,28027,United States,704-979-5636,,,"SU : 12:00 - 19:00, MO : 10:00 - 21:00, TU : 10:00 - 21:00, WE : 10:00 - 21:00, TH : 10:00 - 21:00, FR : 10:00 - 21:00, SA : 10:00 - 21:00",,,
The Shops At Rivergate South,,13540 Hoover Creek Blvd.,Suite 700,Charlotte,NC,28273,United States,704-588-4958,,,"SU : 11:00 - 19:00, MO : 10:00 - 21:00, TU : 10:00 - 21:00, WE : 10:00 - 21:00, TH : 10:00 - 21:00, FR : 10:00 - 21:00, SA : 10:00 - 21:00",,,
Promenade On Providence,,10822 Providence Road,Suite 400,Charlotte,NC,28277,United States,704-321-1820,,,"SU : 11:00 - 19:00, MO : 10:00 - 21:00, TU : 10:00 - 21:00, WE : 10:00 - 21:00, TH : 10:00 - 21:00, FR : 10:00 - 21:00, SA : 10:00 - 21:00",,,
Asheville Outlets,,800 Brevard Road,Suite 888,Asheville,NC,28806-2297,United States,828-670-8849,,,"SU : 11:00 - 19:00, MO : 10:00 - 21:00, TU : 10:00 - 21:00, WE : 10:00 - 21:00, TH : 10:00 - 21:00, FR : 10:00 - 21:00, SA : 10:00 - 21:00",,,
The Landing,,345 Airport Road,,Arden,NC,28704,United States,828-681-0174,,,"SU : 23:00 - 19:00, MO : 10:00 - 21:00, TU : 10:00 - 21:00, WE : 10:00 - 21:00, TH : 10:00 - 21:00, FR : 10:00 - 21:00, SA : 10:00 - 21:00",,,
Beaver Creek Crossings,,1591 Beaver Creek Commons Dr.,Beaver Creek Crossings,Apex,NC,27502,United States,919-303-3391,,,"SU : 12:00 - 18:00, MO : 10:00 - 21:00, TU : 10:00 - 21:00, WE : 10:00 - 21:00, TH : 10:00 - 21:00, FR : 10:00 - 21:00, SA : 10:00 - 21:00",,,
Aberdeen Commons,,11088 US 15-501 & Johnson Rd,Suite 550,Aberdeen,NC,28315,United States,910-692-2540,,,"SU : 12:00 - 18:00, MO : 10:00 - 21:00, TU : 10:00 - 21:00, WE : 10:00 - 21:00, TH : 10:00 - 21:00, FR : 10:00 - 21:00, SA : 10:00 - 21:00",,,
Triangle Town Place,,"3604 Sumner Blvd., Suite 108",,Raleigh,NC,27616-3374,United States,919-792-2118,,,"SU : 11:00 - 18:00, MO : 09:30 - 21:00, TU : 09:30 - 21:00, WE : 09:30 - 21:00, TH : 09:30 - 21:00, FR : 09:30 - 21:00, SA : 09:30 - 21:00",,,
Crossroads Shopping Center,,419 Tarrytown Rd,,White Plains,NY,10607,United States,914-428-1024,,,"SU : 11:00 - 18:00, MO : 10:00 - 21:00, TU : 10:00 - 21:00, WE : 10:00 - 21:00, TH : 10:00 - 21:00, FR : 10:00 - 21:00, SA : 10:00 - 21:00",,,
Fashion Outlets Niagara Falls,,2016 Military Road,,Niagara Falls,NY,14304,United States,716-297-0583,,,"SU : 10:00 - 18:00, MO : 10:00 - 21:00, TU : 10:00 - 21:00, WE : 10:00 - 21:00, TH : 10:00 - 21:00, FR : 10:00 - 21:00, SA : 10:00 - 21:00",,,
Dena Marie Plaza,,900 Miron Lane,,Kingston,NY,12401,United States,845-336-5181,,,"SU : 11:00 - 18:00, MO : 10:00 - 21:00, TU : 10:00 - 21:00, WE : 10:00 - 21:00, TH : 10:00 - 21:00, FR : 10:00 - 21:00, SA : 10:00 - 21:00",,,
Market Square,,720 Jefferson Road,Suite 500,Henrietta,NY,14623,United States,585-424-1155,,,"SU : 11:00 - 18:00, MO : 10:00 - 21:00, TU : 10:00 - 21:00, WE : 10:00 - 21:00, TH : 10:00 - 21:00, FR : 10:00 - 21:00, SA : 10:00 - 21:00",,,
The Plaza At Enchanted Hills,,3575 NM Highway 528 NE,Bldg F-Ste 100,Rio Rancho,NM,87144-8701,United States,505-867-2668,,,"SU : 12:00 - 18:00, MO : 10:00 - 21:00, TU : 10:00 - 21:00, WE : 10:00 - 21:00, TH : 10:00 - 21:00, FR : 10:00 - 21:00, SA : 10:00 - 21:00",,,
Union Consumer Square,,"3801 Union Road, Space 18",,Cheektowaga,NY,14225-4285,United States,716-681-4026,,,"SU : 23:00 - 18:00, MO : 10:00 - 21:00, TU : 10:00 - 21:00, WE : 10:00 - 21:00, TH : 10:00 - 21:00, FR : 10:00 - 21:00, SA : 10:00 - 21:00",,,
Watchung Square Mall,,1515 Route 22 West,Suite 39,Watchung,NJ,07069,United States,908-668-4409,,,"SU : 11:00 - 18:00, MO : 10:00 - 21:00, TU : 10:00 - 21:00, WE : 10:00 - 21:00, TH : 10:00 - 21:00, FR : 10:00 - 21:00, SA : 10:00 - 21:00",,,
Coronado Mall,,6600 Menaul Blvd. NE,Sp. M006,Albuquerque,NM,87110,United States,505-888-8924,,,"SU : 12:00 - 18:00, MO : 10:00 - 21:00, TU : 10:00 - 21:00, WE : 10:00 - 21:00, TH : 10:00 - 21:00, FR : 10:00 - 21:00, SA : 10:00 - 21:00",,,
Rockaway Commons,,343 Mount Hope Ave.,Suite 508,Rockaway,NJ,07866-1644,United States,973-366-1734,,,"SU : 12:00 - 18:00, MO : 10:00 - 21:00, TU : 10:00 - 21:00, WE : 10:00 - 21:00, TH : 10:00 - 21:00, FR : 10:00 - 21:00, SA : 10:00 - 21:00",,,
Bergen Town Center,,2200 Bergen Town Center,Suite 2230,Paramus,NJ,07652,United States,201-843-4945,,,"SU :  - , MO : 10:00 - 21:30, TU : 10:00 - 21:30, WE : 10:00 - 21:30, TH : 10:00 - 21:30, FR : 10:00 - 21:30, SA : 10:00 - 21:30",,,
Wrangleboro Consumer Square,,2300 Consumer Square,Suite 280,Mays Landing,NJ,08330,United States,609-383-8485,,,"SU : 11:00 - 18:00, MO : 10:00 - 21:00, TU : 10:00 - 21:00, WE : 10:00 - 21:00, TH : 10:00 - 21:00, FR : 10:00 - 21:00, SA : 10:00 - 21:00",,,
Marlton Crossing,,101 Route 73 South,Suite 159,Marlton,NJ,08053,United States,856-983-5925,,,"SU : 11:00 - 18:00, MO : 10:00 - 21:00, TU : 10:00 - 21:00, WE : 10:00 - 21:00, TH : 10:00 - 21:00, FR : 10:00 - 21:00, SA : 10:00 - 21:00",,,
Silverado Ranch Plaza,,9893 South Eastern Ave,Suite F-02,Las Vegas,NV,89183,United States,702-270-3305,,,"SU : 10:00 - 19:00, MO : 10:00 - 21:00, TU : 10:00 - 21:00, WE : 10:00 - 21:00, TH : 10:00 - 21:00, FR : 10:00 - 21:00, SA : 10:00 - 21:00",,,
Hillview Shopping Center,,2135d Route 38,,Cherry Hill,NJ,08002,United States,856-488-0130,,,"SU : 11:00 - 18:00, MO : 10:00 - 21:00, TU : 10:00 - 21:00, WE : 10:00 - 21:00, TH : 10:00 - 21:00, FR : 10:00 - 21:00, SA : 10:00 - 21:00",,,
Montecito Crossing,,6710 North Durango Drive,Montecito Crossing,Las Vegas,NV,89149,United States,702-254-7002,,,"SU : 10:00 - 18:00, MO : 10:00 - 21:00, TU : 10:00 - 21:00, WE : 10:00 - 21:00, TH : 10:00 - 21:00, FR : 10:00 - 21:00, SA : 10:00 - 21:00",,,
Downtown Summerlin,,2310 Park Centre Dr,Suite 160,Las Vegas,NV,89135,United States,702-869-0548,,,"SU : 11:00 - 18:00, MO : 10:00 - 21:00, TU : 10:00 - 21:00, WE : 10:00 - 21:00, TH : 10:00 - 21:00, FR : 10:00 - 21:00, SA : 10:00 - 21:00",,,
L. Street Marketplace,,12226 K Plaza,Suite 101,Omaha,NE,68137,United States,402-334-6795,,,"SU : 23:00 - 18:00, MO : 10:00 - 21:00, TU : 10:00 - 21:00, WE : 10:00 - 21:00, TH : 10:00 - 21:00, FR : 10:00 - 21:00, SA : 10:00 - 21:00",,,
Galleria Commons,,"490 N Stephanie St., Suite 110",,Henderson,NV,89014-6634,United States,702-855-0431,,,"SU : 00:00 - 18:00, MO : 10:00 - 21:00, TU : 10:00 - 21:00, WE : 10:00 - 21:00, TH : 10:00 - 21:00, FR : 10:00 - 21:00, SA : 10:00 - 21:00",,,
Centro Plaza,,400 N 48th St,,Lincoln,NE,68504,United States,402-465-5658,,,"SU : 11:00 - 18:00, MO : 10:00 - 21:00, TU : 10:00 - 21:00, WE : 10:00 - 21:00, TH : 10:00 - 21:00, FR : 10:00 - 21:00, SA : 10:00 - 21:00",,,
Wentzville Crossroads,,1259 W Pearce Blvd,,Wentzville,MO,63385,United States,636-639-2391,,,"SU : 11:00 - 18:00, MO : 10:00 - 21:00, TU : 10:00 - 21:00, WE : 10:00 - 21:00, TH : 10:00 - 21:00, FR : 10:00 - 21:00, SA : 10:00 - 21:00",,,
Primrose Marketplace,,3316 S. Glenstone Avenue,Primrose Marketplace,Springfield,MO,65804,United States,417-823-8091,,,"SU : 11:00 - 19:00, MO : 10:00 - 21:00, TU : 10:00 - 21:00, WE : 10:00 - 21:00, TH : 10:00 - 21:00, FR : 10:00 - 21:00, SA : 10:00 - 21:00",,,
Shoppes At North Village,,5201 N Belt Highway,,Saint Joseph,MO,64506,United States,816-387-8444,,,"SU : 11:00 - 18:00, MO : 10:00 - 21:00, TU : 10:00 - 21:00, WE : 10:00 - 21:00, TH : 10:00 - 21:00, FR : 10:00 - 21:00, SA : 10:00 - 21:00",,,
O'fallon Walk,,2215 Highway K,Space 103,O'fallon,MO,63366,United States,636-240-7281,,,"SU : 11:00 - 18:00, MO : 10:00 - 21:00, TU : 10:00 - 21:00, WE : 10:00 - 21:00, TH : 10:00 - 21:00, FR : 10:00 - 21:00, SA : 10:00 - 21:00",,,
Liberty Commons,,241 South Stewart Rd,,Liberty,MO,64068,United States,816-415-3852,,,"SU : 12:00 - 18:00, MO : 10:00 - 21:00, TU : 10:00 - 21:00, WE : 10:00 - 21:00, TH : 10:00 - 21:00, FR : 10:00 - 21:00, SA : 10:00 - 21:00",,,
Summitwoods Crossing,,1660 NW Chipman Rd.,Summitwoods Crossing,Lees Summit,MO,64081,United States,816-347-2643,,,"SU : 11:00 - 18:00, MO : 10:00 - 21:00, TU : 10:00 - 21:00, WE : 10:00 - 21:00, TH : 10:00 - 21:00, FR : 10:00 - 21:00, SA : 09:00 - 21:00",,,
Shops At Boardwalk,,8654 North Boardwalk Avenue,Sp 5,Kansas City,MO,64154,United States,816-505-3300,,,"SU : 12:00 - 18:00, MO : 10:00 - 21:00, TU : 10:00 - 21:00, WE : 10:00 - 21:00, TH : 10:00 - 21:00, FR : 10:00 - 21:00, SA : 10:00 - 21:00",,,
North Park Shopping Center,,407 South Geneva Avenue,,Joplin,MO,64801,United States,417-626-7873,,,"SU : 12:00 - 18:00, MO : 10:00 - 21:00, TU : 10:00 - 21:00, WE : 10:00 - 21:00, TH : 10:00 - 21:00, FR : 10:00 - 21:00, SA : 10:00 - 21:00",,,
Independence Center,,18813 E. 39th Street South,Suite 2144,Independence,MO,64057-3633,United States,816-795-6424,,,"SU : 12:00 - 18:00, MO : 10:00 - 21:00, TU : 10:00 - 21:00, WE : 10:00 - 21:00, TH : 10:00 - 21:00, FR : 10:00 - 21:00, SA : 10:00 - 21:00",,,
Chesterfield Commons East,,86a THF Boulevard,Chesterfield Commons East,Chesterfield,MO,63005,United States,636-536-6919,,,"SU : 11:00 - 18:00, MO : 10:00 - 21:00, TU : 10:00 - 21:00, WE : 10:00 - 21:00, TH : 10:00 - 21:00, FR : 10:00 - 21:00, SA : 10:00 - 21:00",,,
Branson Landing,,205 Branson Landing,,Branson,MO,65616,United States,417-239-0990,,,"SU : 10:00 - 20:00, MO : 10:00 - 21:00, TU : 10:00 - 21:00, WE : 10:00 - 21:00, TH : 10:00 - 21:00, FR : 10:00 - 21:00, SA : 10:00 - 21:00",,,
King's Crossing,,893 King's Crossing,"Building D, Suite 500",Tupelo,MS,38804,United States,662-841-9258,,,"SU : 12:00 - 18:00, MO : 10:00 - 21:00, TU : 10:00 - 21:00, WE : 10:00 - 21:00, TH : 10:00 - 21:00, FR : 10:00 - 21:00, SA : 10:00 - 21:00",,,
Southaven Towne Center,,6450 Towne Center Loop #610,Southaven Towne Center,Southaven,MS,38671,United States,662-536-0040,,,"SU : 11:00 - 18:00, MO : 10:00 - 21:00, TU : 10:00 - 21:00, WE : 10:00 - 21:00, TH : 10:00 - 21:00, FR : 10:00 - 21:00, SA : 10:00 - 21:00",,,
Bonita Lakes Mall,,1620 Bonita Lakes Circle,,Meridian,MS,39301,United States,601-693-8002,,,"SU : 12:00 - 18:00, MO : 10:00 - 21:00, TU : 10:00 - 21:00, WE : 10:00 - 21:00, TH : 10:00 - 21:00, FR : 10:00 - 21:00, SA : 10:00 - 21:00",,,
Forum at Grandview,,179 Grandview Blvd,Suite 960,Madison,MS,39110,United States,601-605-6343,,,"SU : 11:00 - 18:00, MO : 10:00 - 21:00, TU : 10:00 - 21:00, WE : 10:00 - 21:00, TH : 10:00 - 21:00, FR : 10:00 - 21:00, SA : 10:00 - 21:00",,,
County Line Plaza,,1047 E County Line Road,County Line Plaza,Jackson,MS,39211,United States,601-957-5165,,,"SU : 12:00 - 18:00, MO : 09:00 - 20:00, TU : 09:00 - 20:00, WE : 09:00 - 20:00, TH : 09:00 - 20:00, FR : 09:00 - 21:00, SA : 09:00 - 21:00",,,
Turtle Creek Crossing,,6143 Highway 98,Suite 70,Hattiesburg,MS,39402,United States,601-271-8393,,,"SU : 12:00 - 18:00, MO : 10:00 - 21:00, TU : 10:00 - 21:00, WE : 10:00 - 21:00, TH : 10:00 - 21:00, FR : 10:00 - 21:00, SA : 10:00 - 21:00",,,
Greenville Mall,,1651 Hwy. 1 South Sp.#15,Greenville Mall,Greenville,MS,38701,United States,662-334-9005,,,"SU : 13:00 - 18:00, MO : 10:00 - 21:00, TU : 10:00 - 21:00, WE : 10:00 - 21:00, TH : 10:00 - 21:00, FR : 10:00 - 21:00, SA : 10:00 - 21:00",,,
Promenade At Flowood,,213 Promenade Blvd.,Suite A,Flowood,MS,39232,United States,601-919-9706,,,"SU : 11:00 - 18:00, MO : 09:00 - 21:00, TU : 09:00 - 21:00, WE : 09:00 - 21:00, TH : 09:00 - 21:00, FR : 09:00 - 21:00, SA : 09:00 - 21:00",,,
The Promenade,,3921 Promenade Parkway,The Promenade,D'iberville,MS,39540,United States,228-392-3440,,,"SU : 12:00 - 18:00, MO : 10:00 - 21:00, TU : 10:00 - 21:00, WE : 10:00 - 21:00, TH : 10:00 - 21:00, FR : 10:00 - 21:00, SA : 10:00 - 21:00",,,
Corinth Commons,,2601 Virginia Lane,Corinth Commons,Corinth,MS,38834,United States,662-284-9575,,,"SU : 12:00 - 18:00, MO : 10:00 - 20:00, TU : 10:00 - 20:00, WE : 10:00 - 20:00, TH : 10:00 - 20:00, FR : 10:00 - 21:00, SA : 10:00 - 21:00",,,
Leigh Mall,,1404-7 Old Aberdeen Road,,Columbus,MS,39705,United States,662-327-1413,,,"SU : 12:00 - 18:00, MO : 10:00 - 21:00, TU : 10:00 - 21:00, WE : 10:00 - 21:00, TH : 10:00 - 21:00, FR : 10:00 - 21:00, SA : 10:00 - 21:00",,,
Woodbury Lakes,,9220 Hudson Road,Suite 701,Woodbury,MN,55125,United States,651-735-9411,,,"SU : 11:00 - 18:00, MO : 10:00 - 21:00, TU : 10:00 - 21:00, WE : 10:00 - 21:00, TH : 10:00 - 21:00, FR : 10:00 - 21:00, SA : 10:00 - 21:00",,,
Rosedale Commons,,2480 North Fairview,Suite 115b,Roseville,MN,55113,United States,651-633-6363,,,"SU : 11:00 - 18:00, MO : 10:00 - 21:00, TU : 10:00 - 21:00, WE : 10:00 - 21:00, TH : 10:00 - 21:00, FR : 10:00 - 21:00, SA : 10:00 - 21:00",,,
Shoppes At Arbor Lakes,,12153 Elm Creek Boulevard N.,Shoppes At Arbor Lakes,Maple Grove,MN,55369,United States,763-494-9090,,,"SU : 11:00 - 18:00, MO : 10:00 - 21:00, TU : 10:00 - 21:00, WE : 10:00 - 21:00, TH : 10:00 - 21:00, FR : 10:00 - 21:00, SA : 10:00 - 21:00",,,
Riverdale Village,,12646 Riverdale Blvd. NW,,Coon Rapids,MN,55448-6711,United States,763-421-1670,,,"SU : 00:00 - 18:00, MO : 10:00 - 21:00, TU : 10:00 - 21:00, WE : 10:00 - 21:00, TH : 10:00 - 21:00, FR : 10:00 - 21:00, SA : 10:00 - 21:00",,,
Burnsville Center,,901 County Road 42 West,Ste B210,Burnsville,MN,55306,United States,952-898-1957,,,"SU : 11:00 - 18:00, MO : 10:00 - 21:00, TU : 10:00 - 21:00, WE : 10:00 - 21:00, TH : 10:00 - 21:00, FR : 10:00 - 21:00, SA : 10:00 - 21:00",,,
Green Ridge Square,,3286 B Alpine Ave NW,Space 121,Walker,MI,49544-1668,United States,616-647-0509,,,"SU : 11:00 - 18:00, MO : 09:00 - 21:00, TU : 09:00 - 21:00, WE : 09:00 - 21:00, TH : 09:00 - 21:00, FR : 09:00 - 21:00, SA : 09:00 - 21:00",,,
Hall Road Crossings,,13943 Hall Road,,Shelby Township,MI,48315-6103,United States,586-566-0040,,,"SU : 11:00 - 18:00, MO : 10:00 - 21:00, TU : 10:00 - 21:00, WE : 10:00 - 21:00, TH : 10:00 - 21:00, FR : 10:00 - 21:00, SA : 10:00 - 21:00",,,
Hampton Village Centre,,2765 S. Rochester Road,Hampton Village Centre,Rochester Hills,MI,48307,United States,248-293-2589,,,"SU : 11:00 - 18:00, MO : 10:00 - 21:00, TU : 10:00 - 21:00, WE : 10:00 - 21:00, TH : 10:00 - 21:00, FR : 10:00 - 21:00, SA : 10:00 - 21:00",,,
Baldwin Commons,,4930 S. Baldwin Rd.,,Orion,MI,48359,United States,248 393-0988,,,"SU : 12:00 - 18:00, MO : 10:00 - 21:00, TU : 10:00 - 21:00, WE : 10:00 - 21:00, TH : 10:00 - 21:00, FR : 10:00 - 21:00, SA : 10:00 - 21:00",,,
West Oaks II,,43488 West Oaks Dr.,,Novi,MI,48377,United States,248-347-0132,,,"SU : 12:00 - 18:00, MO : 10:00 - 21:00, TU : 10:00 - 21:00, WE : 10:00 - 21:00, TH : 10:00 - 21:00, FR : 10:00 - 21:00, SA : 10:00 - 21:00",,,
Frandor Shopping Center,,408 Frandor Ave.,,Lansing,MI,48912-5204,United States,517-333-6994,,,"SU : 00:00 - 18:00, MO : 10:00 - 21:00, TU : 10:00 - 21:00, WE : 10:00 - 21:00, TH : 10:00 - 21:00, FR : 10:00 - 21:00, SA : 10:00 - 21:00",,,
Willow Creek,,41852 Ford Rd.,,Canton,MI,48187,United States,734-844-1130,,,"SU : 11:00 - 18:00, MO : 10:00 - 21:00, TU : 10:00 - 21:00, WE : 10:00 - 21:00, TH : 10:00 - 21:00, FR : 10:00 - 21:00, SA : 10:00 - 21:00",,,
Tanger Outlets Grand Rapids,,350 84th St. SW,Suite 545,Byron Center,MI,49315,United States,616-878-4397,,,"SU : 10:00 - 19:00, MO : 09:00 - 21:00, TU : 09:00 - 21:00, WE : 09:00 - 21:00, TH : 09:00 - 21:00, FR : 09:00 - 21:00, SA : 09:00 - 21:00",,,
Fairlane Green,,3380 Fairlane Dr.,,Allen Park,MI,48101-2872,United States,313-240-9703,,,"SU : 12:00 - 18:00, MO : 10:00 - 21:00, TU : 10:00 - 21:00, WE : 10:00 - 21:00, TH : 10:00 - 21:00, FR : 10:00 - 21:00, SA : 10:00 - 21:00",,,
Waldorf Marketplace,,3078 Waldorf Market Place,Waldorf Marketplace,Waldorf,MD,20603,United States,301-932-8006,,,"SU : 12:00 - 18:00, MO : 10:00 - 21:00, TU : 10:00 - 21:00, WE : 10:00 - 21:00, TH : 10:00 - 21:00, FR : 10:00 - 21:00, SA : 10:00 - 21:00",,,
Bel Air Plaza Shopping Center,,569 Baltimore Pike,,Bel Air,MD,21014,United States,410-838-0297,,,"SU : 10:00 - 18:00, MO : 10:00 - 21:00, TU : 10:00 - 21:00, WE : 10:00 - 21:00, TH : 10:00 - 21:00, FR : 10:00 - 21:00, SA : 10:00 - 21:00",,,
Fremaux Town Center,,260 Town Center Parkway,,Slidell,LA,70458,United States,985-639-0166,,,"SU : 11:00 - 18:00, MO : 10:00 - 21:00, TU : 10:00 - 21:00, WE : 10:00 - 21:00, TH : 10:00 - 21:00, FR : 10:00 - 21:00, SA : 10:00 - 21:00",,,
Regal Shopping Center,,7471 Youree Drive,Regal Shopping Center,Shreveport,LA,71105,United States,318-797-3290,,,"SU : 11:00 - 18:00, MO : 09:00 - 21:00, TU : 09:00 - 21:00, WE : 09:00 - 21:00, TH : 09:00 - 21:00, FR : 09:00 - 21:00, SA : 09:00 - 21:00",,,
Elmwood Center,,1200 S. Clearview Parkway,Ste 1155,New Orleans,LA,70123,United States,504-736-0836,,,"SU : 12:00 - 18:00, MO : 10:00 - 21:00, TU : 10:00 - 21:00, WE : 10:00 - 21:00, TH : 10:00 - 21:00, FR : 10:00 - 21:00, SA : 10:00 - 21:00",,,
Pecanland Center,,4429 Pecanland Mall Rd,Suite 9,Monroe,LA,71203,United States,318-651-0013,,,"SU : 11:00 - 18:00, MO : 09:00 - 21:00, TU : 09:00 - 21:00, WE : 09:00 - 21:00, TH : 09:00 - 21:00, FR : 09:00 - 21:00, SA : 09:00 - 21:00",,,
Prien Lake Mall,,538a West Prien Lake Road,Prien Lake Mall,Lake Charles,LA,70601,United States,337-474-2000,,,"SU : 11:00 - 18:00, MO : 09:00 - 21:00, TU : 09:00 - 21:00, WE : 09:00 - 21:00, TH : 09:00 - 21:00, FR : 09:00 - 21:00, SA : 09:00 - 21:00",,,
Stirling Lafayette,,3001 Louisiana Avenue,Suite 104,Lafayette,LA,70501,United States,337-233-4134,,,"SU : 11:00 - 18:00, MO : 09:00 - 21:00, TU : 09:00 - 21:00, WE : 09:00 - 21:00, TH : 09:00 - 21:00, FR : 09:00 - 21:00, SA : 09:00 - 21:00",,,
Acadiana Square,,5634 Johnston Street,Acadiana Square,Lafayette,LA,70503,United States,337-984-6858,,,"SU : 11:00 - 18:00, MO : 09:00 - 21:00, TU : 09:00 - 21:00, WE : 09:00 - 21:00, TH : 09:00 - 21:00, FR : 09:00 - 21:00, SA : 09:00 - 21:00",,,
Houma Crossing,,1779 MLK Jr. Blvd.,Houma Crossing,Houma,LA,70360,United States,985-868-7051,,,"SU : 12:00 - 18:00, MO : 09:00 - 21:00, TU : 09:00 - 21:00, WE : 09:00 - 21:00, TH : 09:00 - 21:00, FR : 09:00 - 21:00, SA : 09:00 - 21:00",,,
Westbank Village,,929 Manhattan Boulevard,,Harvey,LA,70058,United States,504-366-7242,,,"SU : 12:00 - 18:00, MO : 10:00 - 21:00, TU : 10:00 - 21:00, WE : 10:00 - 21:00, TH : 10:00 - 21:00, FR : 10:00 - 21:00, SA : 10:00 - 21:00",,,
Juban Crossing,,10076 Crossing Way,Suite 520,Denham Springs,LA,70726,United States,225-665-0912,,,"SU : 11:00 - 18:00, MO : 10:00 - 21:00, TU : 10:00 - 21:00, WE : 10:00 - 21:00, TH : 10:00 - 21:00, FR : 10:00 - 21:00, SA : 10:00 - 21:00",,,
Colonial Pinnacle Nord Du Lac,,5211 Pinnacle Parkway,,Covington,LA,70433,United States,985-898-0468,,,"SU : 11:00 - 19:00, MO : 10:00 - 21:00, TU : 10:00 - 21:00, WE : 10:00 - 21:00, TH : 10:00 - 21:00, FR : 10:00 - 21:00, SA : 10:00 - 21:00",,,
Stirling Bossier City,,2804 Beene Blvd,,Bossier City,LA,71111,United States,318-742-5786,,,"SU : 12:00 - 18:00, MO : 10:00 - 21:00, TU : 10:00 - 21:00, WE : 10:00 - 21:00, TH : 10:00 - 21:00, FR : 10:00 - 21:00, SA : 10:00 - 21:00",,,
Towne Center At Cedar Lodge,,7445 Corporate Boulevard,Suite 600,Baton Rouge,LA,70809,United States,225-922-8326,,,"SU : 12:00 - 18:00, MO : 09:30 - 20:30, TU : 09:30 - 20:30, WE : 09:30 - 20:30, TH : 09:30 - 20:30, FR : 09:30 - 20:30, SA : 09:30 - 20:30",,,
Mall Of Louisiana,,9330 Mall Of Louisiana Blvd.,Suite 520,Baton Rouge,LA,70836,United States,225-757-1994,,,"SU : 12:00 - 18:00, MO : 09:00 - 21:00, TU : 09:00 - 21:00, WE : 09:00 - 21:00, TH : 09:00 - 21:00, FR : 09:00 - 21:00, SA : 09:00 - 21:00",,,
Alexandria Mall,,"3437 Masonic Dr., Suite 1730",,Alexandria,LA,71301,United States,318-442-8619,,,"SU : 12:00 - 18:00, MO : 10:00 - 21:00, TU : 10:00 - 21:00, WE : 10:00 - 21:00, TH : 10:00 - 21:00, FR : 10:00 - 21:00, SA : 10:00 - 21:00",,,
Olivet Church Crossing,,5187 Hinkleville Road,Suite D,Paducah,KY,42001,United States,270-538-1660,,,"SU : 12:00 - 18:00, MO : 10:00 - 21:00, TU : 10:00 - 21:00, WE : 10:00 - 21:00, TH : 10:00 - 21:00, FR : 10:00 - 21:00, SA : 10:00 - 21:00",,,
Towne Square Mall,,5000 Frederica Street,"Sp. D-6, Suite 24",Owensboro,KY,42301,United States,270-689-9047,,,"SU : 00:00 - 18:00, MO : 10:00 - 21:00, TU : 10:00 - 21:00, WE : 10:00 - 21:00, TH : 10:00 - 21:00, FR : 10:00 - 21:00, SA : 10:00 - 21:00",,,
Springhurst Towne Center,,3521 Springhurst Blvd.,Suite 1670,Louisville,KY,40241,United States,502-412-0175,,,"SU : 11:00 - 19:00, MO : 09:00 - 21:00, TU : 09:00 - 21:00, WE : 09:00 - 21:00, TH : 09:00 - 21:00, FR : 09:00 - 21:00, SA : 09:00 - 21:00",,,
Shelbyville Road Plaza,,4600 Shelbyville Road,Suite 250,Louisville,KY,40207,United States,502-895-2310,,,"SU : 11:00 - 19:00, MO : 09:00 - 21:00, TU : 09:00 - 21:00, WE : 09:00 - 21:00, TH : 09:00 - 21:00, FR : 09:00 - 21:00, SA : 09:00 - 21:00",,,
Festival at Jefferson Court,,4521 Outer Loop,,Louisville,KY,40219-3856,United States,502-810-6581,,,"SU : 11:00 - 19:00, MO : 09:00 - 21:00, TU : 09:00 - 21:00, WE : 09:00 - 21:00, TH : 09:00 - 21:00, FR : 09:00 - 21:00, SA : 09:00 - 21:00",,,
Mall Road Retail Center,,3851 Mall Rd.,Suite 150,Lexington,KY,40503,United States,859-244-8916,,,"SU : 11:00 - 19:00, MO : 10:00 - 21:00, TU : 10:00 - 21:00, WE : 10:00 - 21:00, TH : 10:00 - 21:00, FR : 10:00 - 21:00, SA : 09:00 - 21:00",,,
Mall Park Center,,1994 North Dixie Avenue,,Elizabethtown,KY,42701,United States,270-769-0882,,,"SU : 11:00 - 19:00, MO : 09:00 - 21:00, TU : 09:00 - 21:00, WE : 09:00 - 21:00, TH : 09:00 - 21:00, FR : 09:00 - 21:00, SA : 09:00 - 21:00",,,
Crestview Hills Town Center,,2822 Town Center Boulevard,Crestview Hills Town Center,Crestview Hills,KY,41017,United States,859-341-3235,,,"SU : 11:00 - 19:00, MO : 09:00 - 21:00, TU : 09:00 - 21:00, WE : 09:00 - 21:00, TH : 09:00 - 21:00, FR : 09:00 - 21:00, SA : 09:00 - 21:00",,,
New Market Square,,2441 North Maize Road,New Market Square,Wichita,KS,67205,United States,316-722-1676,,,"SU : 23:00 - 19:00, MO : 10:00 - 21:00, TU : 10:00 - 21:00, WE : 10:00 - 21:00, TH : 10:00 - 21:00, FR : 10:00 - 21:00, SA : 10:00 - 21:00",,,
Shoppes At Gary Farms,,2300 Gary Farms Blvd.,Suite 300,Bowling Green,KY,42104,United States,270-746-5452,,,"SU : 11:00 - 19:00, MO : 09:00 - 21:00, TU : 09:00 - 21:00, WE : 09:00 - 21:00, TH : 09:00 - 21:00, FR : 09:00 - 21:00, SA : 09:00 - 21:00",,,
Eastgate Plaza,,8143 E. Kellogg Drive,Suite 11-A,Wichita,KS,67207,United States,316-691-9304,,,"SU : 12:00 - 18:00, MO : 10:00 - 21:00, TU : 10:00 - 21:00, WE : 10:00 - 21:00, TH : 10:00 - 21:00, FR : 10:00 - 21:00, SA : 10:00 - 21:00",,,
Westridge Mall,,1801 SW Wanamaker Rd.,Suite C06b,Topeka,KS,66604,United States,785-271-0465,,,"SU : 12:00 - 18:00, MO : 10:00 - 21:00, TU : 10:00 - 21:00, WE : 10:00 - 21:00, TH : 10:00 - 21:00, FR : 10:00 - 21:00, SA : 10:00 - 21:00",,,
Olathe Station,,15325 W.119th Street,,Olathe,KS,66062,United States,913-764-1831,,,"SU : 11:00 - 18:00, MO : 10:00 - 21:00, TU : 10:00 - 21:00, WE : 10:00 - 21:00, TH : 10:00 - 21:00, FR : 10:00 - 21:00, SA : 09:00 - 21:00",,,
Corbin Park,,6403 West 135th St.,Suite E-2,Overland Park,KS,66223,United States,913-239-9470,,,"SU : 23:00 - 18:00, MO : 10:00 - 21:00, TU : 10:00 - 21:00, WE : 10:00 - 21:00, TH : 10:00 - 21:00, FR : 10:00 - 21:00, SA : 10:00 - 21:00",,,
Galleria At Jordan Creek,,6305 Mills Civic Parkway,Suite 1109,West Des Moines,IA,50266,United States,515-222-2701,,,"SU : 11:00 - 18:00, MO : 10:00 - 21:00, TU : 10:00 - 21:00, WE : 10:00 - 21:00, TH : 10:00 - 21:00, FR : 10:00 - 21:00, SA : 10:00 - 21:00",,,
Lindale Mall,,4444 1st Ave NE,Suite 702,Cedar Rapids,IA,52402,United States,319-294-3666,,,"SU : 12:00 - 18:00, MO : 10:00 - 21:00, TU : 10:00 - 21:00, WE : 10:00 - 21:00, TH : 10:00 - 21:00, FR : 10:00 - 21:00, SA : 10:00 - 21:00",,,
Porter's Vale,,510 Porters Vale Blvd.,,Valparaiso,IN,46383,United States,219-462-1130,,,"SU : 11:00 - 18:00, MO : 10:00 - 21:00, TU : 10:00 - 21:00, WE : 10:00 - 21:00, TH : 10:00 - 21:00, FR : 10:00 - 21:00, SA : 10:00 - 21:00",,,
Shops On Main,,"59 Us Hwy 41, Suite 410",,Schererville,IN,46375-1203,United States,219-322-2401,,,"SU : 23:00 - 18:00, MO : 10:00 - 21:00, TU : 10:00 - 21:00, WE : 10:00 - 21:00, TH : 10:00 - 21:00, FR : 10:00 - 21:00, SA : 10:00 - 21:00",,,
Perry Crossing,,2540 Perry Crossing Way,,Plainfield,IN,46168,United States,317-837-8096,,,"SU : 11:00 - 19:00, MO : 09:00 - 21:00, TU : 09:00 - 21:00, WE : 09:00 - 21:00, TH : 09:00 - 21:00, FR : 09:00 - 21:00, SA : 09:00 - 21:00",,,
Indian Ridge Plaza,,5912 Grape Road,Unit 1024,Mishawaka,IN,46545,United States,574-243-1913,,,"SU : 11:00 - 18:00, MO : 10:00 - 21:00, TU : 10:00 - 21:00, WE : 10:00 - 21:00, TH : 10:00 - 21:00, FR : 10:00 - 21:00, SA : 10:00 - 21:00",,,
Boulevard Crossing,,2128 East Boulevard Crossing,,Kokomo,IN,46902,United States,765-457-5418,,,"SU : 11:00 - 19:00, MO : 09:00 - 21:00, TU : 09:00 - 21:00, WE : 09:00 - 21:00, TH : 09:00 - 21:00, FR : 09:00 - 21:00, SA : 09:00 - 21:00",,,
Lafayette Pavilion,,100 South Creasy Lane,Unit 1330,Lafayette,IN,47905,United States,765-446-1533,,,"SU : 11:00 - 19:00, MO : 09:00 - 21:00, TU : 09:00 - 21:00, WE : 09:00 - 21:00, TH : 09:00 - 21:00, FR : 09:00 - 21:00, SA : 09:00 - 21:00",,,
Greenwood Shopping Center,,8928 US 31 South,Greenwood Shopping Center,Indianapolis,IN,46227,United States,317-881-6671,,,"SU : 11:00 - 19:00, MO : 09:00 - 21:00, TU : 09:00 - 21:00, WE : 09:00 - 21:00, TH : 09:00 - 21:00, FR : 09:00 - 21:00, SA : 09:00 - 21:00",,,
Orchard Crossing,,914 S. Thomas Rd. Suite 112,,Ft. Wayne,IN,46804-5109,United States,260-432-0132,,,"SU : 12:00 - 18:00, MO : 10:00 - 21:00, TU : 10:00 - 21:00, WE : 10:00 - 21:00, TH : 10:00 - 21:00, FR : 10:00 - 21:00, SA : 10:00 - 21:00",,,
Evansville Pavilion,,6501 East Lloyd Expressway #7,Evansville Pavilion,Evansville,IN,47715,United States,812-401-7973,,,"SU : 11:00 - 19:00, MO : 09:00 - 21:00, TU : 09:00 - 21:00, WE : 09:00 - 21:00, TH : 09:00 - 21:00, FR : 09:00 - 21:00, SA : 09:00 - 21:00",,,
Waterford Park,,1025 Veterans Parkway,Suite 500,Clarksville,IN,47129,United States,812-258-0815,,,"SU : 11:00 - 19:00, MO : 09:00 - 21:00, TU : 09:00 - 21:00, WE : 09:00 - 21:00, TH : 09:00 - 21:00, FR : 09:00 - 21:00, SA : 09:00 - 21:00",,,
Woodgrove Festival,,1001 75th St.,,Woodridge,IL,60517,United States,630-985-7907,,,"SU : 11:00 - 18:00, MO : 10:00 - 21:00, TU : 10:00 - 21:00, WE : 10:00 - 21:00, TH : 10:00 - 21:00, FR : 10:00 - 21:00, SA : 10:00 - 21:00",,,
Forest Plaza,,6335 E. State Street,,Rockford,IL,61108,United States,815-394-1068,,,"SU : 11:00 - 18:00, MO : 10:00 - 21:00, TU : 10:00 - 21:00, WE : 10:00 - 21:00, TH : 10:00 - 21:00, FR : 10:00 - 21:00, SA : 10:00 - 21:00",,,
Orland Park,,170 Orland Park Place,Sp 106,Orland Park,IL,60462,United States,708-349-0083,,,"SU : 11:00 - 18:00, MO : 10:00 - 21:00, TU : 10:00 - 21:00, WE : 10:00 - 21:00, TH : 10:00 - 21:00, FR : 10:00 - 21:00, SA : 10:00 - 21:00",,,
Louis Joliet Pointe,,2856 Plainfield Road,,Joliet,IL,60435,United States,815-254-0545,,,"SU : 11:00 - 18:00, MO : 10:00 - 21:00, TU : 10:00 - 21:00, WE : 10:00 - 21:00, TH : 10:00 - 21:00, FR : 10:00 - 21:00, SA : 10:00 - 21:00",,,
St. Clair Square,,320 St. Clair Square,,Fairview Heights,IL,62208,United States,618-628-8526,,,"SU : 11:00 - 18:00, MO : 10:00 - 21:00, TU : 10:00 - 21:00, WE : 10:00 - 21:00, TH : 10:00 - 21:00, FR : 10:00 - 21:00, SA : 10:00 - 21:00",,,
Edwardsville Crossing,,6624 Edwardsville Crossing Dr,,Edwardsville,IL,62025,United States,618-692-2289,,,"SU : 11:00 - 18:00, MO : 10:00 - 21:00, TU : 10:00 - 21:00, WE : 10:00 - 21:00, TH : 10:00 - 21:00, FR : 10:00 - 21:00, SA : 10:00 - 21:00",,,
Finley Square Center,,1552 Butterfield Road,,Downers Grove,IL,60515,United States,630-932-1755,,,"SU : 11:00 - 18:00, MO : 10:00 - 21:00, TU : 10:00 - 21:00, WE : 10:00 - 21:00, TH : 10:00 - 21:00, FR : 10:00 - 21:00, SA : 10:00 - 21:00",,,
Bloomingdale Court,,342 West Army Trail,Suite 110,Bloomingdale,IL,60108,United States,630-539-0131,,,"SU : 11:00 - 18:00, MO : 10:00 - 21:00, TU : 10:00 - 21:00, WE : 10:00 - 21:00, TH : 10:00 - 21:00, FR : 10:00 - 21:00, SA : 10:00 - 21:00",,,
University Place,,1310 E. Main Street,Space 6a,Carbondale,IL,62901,United States,618-351-0839,,,"SU : 12:00 - 18:00, MO : 10:00 - 21:00, TU : 10:00 - 21:00, WE : 10:00 - 21:00, TH : 10:00 - 21:00, FR : 10:00 - 21:00, SA : 10:00 - 21:00",,,
Woodscreek Center,,730 S. Randall Rd.,,Algonquin,IL,60102-5915,United States,847-458-0044,,,"SU : 11:00 - 18:00, MO : 10:00 - 21:00, TU : 10:00 - 21:00, WE : 10:00 - 21:00, TH : 10:00 - 21:00, FR : 10:00 - 21:00, SA : 10:00 - 21:00",,,
City Crossing,,2626 Watson Boulevard,City Crossing,Warner Robins,GA,31093,United States,478-918-0849,,,"SU : 12:00 - 18:00, MO : 10:00 - 21:00, TU : 10:00 - 21:00, WE : 10:00 - 21:00, TH : 10:00 - 21:00, FR : 10:00 - 21:00, SA : 10:00 - 21:00",,,
Valdosta Mall Corners,,1000 N St. Augustine Road,,Valdosta,GA,31601,United States,229-244-2028,,,"SU : 12:00 - 18:00, MO : 10:00 - 21:00, TU : 10:00 - 21:00, WE : 10:00 - 21:00, TH : 10:00 - 21:00, FR : 10:00 - 21:00, SA : 10:00 - 21:00",,,
Heritage Pavilion,,2540 Cumberland Blvd Suite 8A,,Smyrna,GA,30080,United States,770-434-0735,,,"SU : 23:00 - 19:00, MO : 09:00 - 21:00, TU : 09:00 - 21:00, WE : 09:00 - 21:00, TH : 09:00 - 21:00, FR : 09:00 - 21:00, SA : 09:00 - 21:00",,,
Oglethorpe Mall,,7804 Abercorn Street,Suite 60,Savannah,GA,31406,United States,912-352-0455,,,"SU : 12:00 - 19:00, MO : 10:00 - 21:00, TU : 10:00 - 21:00, WE : 10:00 - 21:00, TH : 10:00 - 21:00, FR : 10:00 - 21:00, SA : 10:00 - 21:00",,,
Village At Pooler Parkway,,256 Pooler Parkway,,Pooler,GA,31322,United States,912-330-9677,,,"SU : 23:00 - 19:00, MO : 10:00 - 21:00, TU : 10:00 - 21:00, WE : 10:00 - 21:00, TH : 10:00 - 21:00, FR : 10:00 - 21:00, SA : 10:00 - 21:00",,,
Kedron Village,,1233 N. Peachtree Parkway,,Peachtree City,GA,30269,United States,770-487-5113,,,"SU : 11:00 - 19:00, MO : 09:30 - 21:00, TU : 09:30 - 21:00, WE : 09:30 - 21:00, TH : 09:30 - 21:00, FR : 09:30 - 21:00, SA : 09:30 - 21:00",,,
South Point,,217 South Point Blvd,,McDonough,GA,30253,United States,770-954-0250,,,"SU : 12:00 - 20:00, MO : 09:30 - 21:00, TU : 09:30 - 21:00, WE : 09:30 - 21:00, TH : 09:30 - 21:00, FR : 09:30 - 21:00, SA : 09:30 - 21:00",,,
The Avenue West Cobb,,3625 Dallas Highway SW,Suite 200,Marietta,GA,30064,United States,678-354-0183,,,"SU : 11:00 - 19:00, MO : 10:00 - 21:00, TU : 10:00 - 21:00, WE : 10:00 - 21:00, TH : 10:00 - 21:00, FR : 10:00 - 21:00, SA : 10:00 - 21:00",,,
The Shoppes At Webb Gin,,1250 Scenic Hwy,Suite 1712,Lawrenceville,GA,30045,United States,770-985-1617,,,"SU : 12:00 - 18:00, MO : 10:00 - 21:00, TU : 10:00 - 21:00, WE : 10:00 - 21:00, TH : 10:00 - 21:00, FR : 10:00 - 21:00, SA : 10:00 - 21:00",,,
Town Center Plaza,,425 Ernest W. Barrett Parkway,Suite 4100,Kennesaw,GA,30144,United States,770-427-9985,,,"SU : 11:30 - 19:00, MO : 09:30 - 21:00, TU : 09:30 - 21:00, WE : 09:30 - 21:00, TH : 09:30 - 21:00, FR : 09:30 - 21:00, SA : 09:30 - 21:00",,,
The Shoppes At River Crossing,,"5080 Riverside Dr., Ste 500",,Macon,GA,31210,United States,478-474-8694,,,"SU : 12:00 - 18:00, MO : 10:00 - 21:00, TU : 10:00 - 21:00, WE : 10:00 - 21:00, TH : 10:00 - 21:00, FR : 10:00 - 21:00, SA : 10:00 - 21:00",,,
Hiram Pavilion,,4794 Jimmy Lee Smith Parkway,Suite 126,Hiram,GA,30141,United States,770-439-3759,,,"SU : 10:00 - 19:00, MO : 09:00 - 21:00, TU : 09:00 - 21:00, WE : 09:00 - 21:00, TH : 09:00 - 21:00, FR : 09:00 - 21:00, SA : 09:00 - 21:00",,,
Lakeshore Marketplace,,850 Dawsonville Highway,Lakeshore Marketplace,Gainesville,GA,30501,United States,770-533-4494,,,"SU : 12:00 - 18:00, MO : 10:00 - 21:00, TU : 10:00 - 21:00, WE : 10:00 - 21:00, TH : 10:00 - 21:00, FR : 10:00 - 21:00, SA : 10:00 - 21:00",,,
Douglasville Pavilion,,2864 Chapel Hill Road,,Douglasville,GA,30135,United States,770-942-2331,,,"SU : 11:00 - 19:00, MO : 10:00 - 21:00, TU : 10:00 - 21:00, WE : 10:00 - 21:00, TH : 10:00 - 21:00, FR : 10:00 - 21:00, SA : 10:00 - 21:00",,,
North Georgia Premium Outlets,,800 Highway 400 South,Suite 115,Dawsonville,GA,30534,United States,706-216-8884,,,"SU : 11:00 - 19:00, MO : 10:00 - 21:00, TU : 10:00 - 21:00, WE : 10:00 - 21:00, TH : 10:00 - 21:00, FR : 10:00 - 21:00, SA : 10:00 - 21:00",,,
Cumming Town Center,,2395 Marketplace Boulevard,,Cumming,GA,30041,United States,678-947-0217,,,"SU : 11:00 - 19:00, MO : 09:30 - 21:30, TU : 09:30 - 21:30, WE : 09:30 - 21:30, TH : 09:30 - 21:30, FR : 09:30 - 21:30, SA : 09:30 - 21:30",,,
Conyers Commons,,2215 Georgia Highway 20 SE,Suite B,Conyers,GA,30013,United States,678-413-9703,,,"SU : 12:00 - 18:00, MO : 10:00 - 21:00, TU : 10:00 - 21:00, WE : 10:00 - 21:00, TH : 10:00 - 21:00, FR : 10:00 - 21:00, SA : 10:00 - 21:00",,,
Commerce II Outlet,,800 Steven B. Tanger Blvd,Suite 1104,Commerce,GA,30529,United States,706-423-9720,,,"SU : 10:00 - 19:00, MO : 09:00 - 21:00, TU : 09:00 - 21:00, WE : 09:00 - 21:00, TH : 09:00 - 21:00, FR : 09:00 - 21:00, SA : 09:00 - 21:00",,,
Columbus Park Crossing South,,5550 Whittlesey Blvd.,Suite 880,Columbus,GA,31909,United States,706-641-8910,,,"SU : 12:00 - 18:00, MO : 10:00 - 21:00, TU : 10:00 - 21:00, WE : 10:00 - 21:00, TH : 10:00 - 21:00, FR : 10:00 - 21:00, SA : 10:00 - 21:00",,,
Canton Marketplace,,1810 Cumming Highway,Suite 630,Canton,GA,30115,United States,770-479-1363,,,"SU : 11:00 - 19:00, MO : 10:00 - 21:00, TU : 10:00 - 21:00, WE : 10:00 - 21:00, TH : 10:00 - 21:00, FR : 10:00 - 21:00, SA : 10:00 - 21:00",,,
Mill Creek Station,,3310 Buford Drive,Suite 10,Buford,GA,30519,United States,678-482-7001,,,"SU : 12:00 - 18:00, MO : 10:00 - 21:00, TU : 10:00 - 21:00, WE : 10:00 - 21:00, TH : 10:00 - 21:00, FR : 10:00 - 21:00, SA : 10:00 - 21:00",,,
Barrow Crossing,,916 Loganville Highway,Suite 800,Bethlehem,GA,30620,United States,770-307-0481,,,"SU : 12:00 - 18:00, MO : 10:00 - 21:00, TU : 10:00 - 21:00, WE : 10:00 - 21:00, TH : 10:00 - 21:00, FR : 10:00 - 21:00, SA : 10:00 - 21:00",,,
Augusta Exchange,,259 Robert C. Daniels Jr. Pkwy,Augusta Exchange,Augusta,GA,30909,United States,706-733-8452,,,"SU : 11:00 - 19:00, MO : 10:00 - 21:00, TU : 10:00 - 21:00, WE : 10:00 - 21:00, TH : 10:00 - 21:00, FR : 10:00 - 21:00, SA : 10:00 - 21:00",,,
North Point Marketcenter,,6350 North Point Parkway,Suite 600,Alpharetta,GA,30022,United States,678-339-0981,,,"SU : 12:00 - 18:00, MO : 10:00 - 21:00, TU : 10:00 - 21:00, WE : 10:00 - 21:00, TH : 10:00 - 21:00, FR : 10:00 - 21:00, SA : 10:00 - 21:00",,,
Albany Mall,,"2601 Dawson Road, E-28",,Albany,GA,31707,United States,229-435-2360,,,"SU : 13:00 - 18:00, MO : 10:00 - 21:00, TU : 10:00 - 21:00, WE : 10:00 - 21:00, TH : 10:00 - 21:00, FR : 10:00 - 21:00, SA : 10:00 - 21:00",,,
Winter Gdn Vlg At Fowler Grove,,3267 Daniels Road Suite 110,Winter Gdn Vlg At Fowler Grove,Winter Garden,FL,34787,United States,407-877-7392,,,"SU : 11:00 - 19:00, MO : 10:00 - 21:00, TU : 10:00 - 21:00, WE : 10:00 - 21:00, TH : 10:00 - 21:00, FR : 10:00 - 21:00, SA : 10:00 - 21:00",,,
Wellington Green Square,,10630 W. Forest Hill Boulevard,Wellington Green Square,Wellington,FL,33414,United States,561-383-8155,,,"SU : 11:00 - 18:00, MO : 10:00 - 21:00, TU : 10:00 - 21:00, WE : 10:00 - 21:00, TH : 10:00 - 21:00, FR : 10:00 - 21:00, SA : 10:00 - 21:00",,,
Northwoods Center,,1269 Bruce B. Downs Boulevard,Northwoods Center,Wesley Chapel,FL,33544,United States,813-994-0667,,,"SU : 12:00 - 18:00, MO : 10:00 - 21:00, TU : 10:00 - 21:00, WE : 10:00 - 21:00, TH : 10:00 - 21:00, FR : 10:00 - 21:00, SA : 10:00 - 21:00",,,
The Plaza At Citrus Park,,12699 Citrus Plaza Drive,,Tampa,FL,33625,United States,813-792-2575,,,"SU : 11:00 - 18:00, MO : 10:00 - 21:00, TU : 10:00 - 21:00, WE : 10:00 - 21:00, TH : 10:00 - 21:00, FR : 10:00 - 21:00, SA : 10:00 - 21:00",,,
Governor's Marketplace,,1604 Governor's Square Blvd.,Suite 2,Tallahassee,FL,32301,United States,850-309-0478,,,"SU : 12:00 - 18:00, MO : 10:00 - 21:00, TU : 10:00 - 21:00, WE : 10:00 - 21:00, TH : 10:00 - 21:00, FR : 10:00 - 21:00, SA : 10:00 - 21:00",,,
Vista Plaza,,2524 NW Federal Highway,Vista Plaza,Stuart,FL,34994,United States,772-232-4080,,,"SU : 10:00 - 18:00, MO : 09:00 - 21:00, TU : 09:00 - 21:00, WE : 09:00 - 21:00, TH : 09:00 - 21:00, FR : 09:00 - 21:00, SA : 09:00 - 21:00",,,
Cobblestone Village,,400 CBL Drive,Suite 104,St. Augustine,FL,32086,United States,904-825-2650,,,"SU : 12:00 - 18:00, MO : 10:00 - 21:00, TU : 10:00 - 21:00, WE : 10:00 - 21:00, TH : 10:00 - 21:00, FR : 10:00 - 21:00, SA : 10:00 - 21:00",,,
Seminole City Center,,7957 113th Street North,,Seminole,FL,33772,United States,727-319-0334,,,"SU : 11:00 - 18:00, MO : 10:00 - 21:00, TU : 10:00 - 21:00, WE : 10:00 - 21:00, TH : 10:00 - 21:00, FR : 10:00 - 21:00, SA : 10:00 - 21:00",,,
Marketplace At Seminole Twn Cr,,1951 Wp Ball Boulevard,Marketplace At Seminole Twn Cr,Sanford,FL,32771,United States,407-330-4326,,,"SU : 11:00 - 18:00, MO : 10:00 - 21:00, TU : 10:00 - 21:00, WE : 10:00 - 21:00, TH : 10:00 - 21:00, FR : 10:00 - 21:00, SA : 10:00 - 21:00",,,
The Pavilion At Port Orange,,5511 S. Williamson Blvd.,Suite 200,Port Orange,FL,32128,United States,386-322-8451,,,"SU : 11:00 - 18:00, MO : 10:00 - 21:00, TU : 10:00 - 21:00, WE : 10:00 - 21:00, TH : 10:00 - 21:00, FR : 10:00 - 21:00, SA : 10:00 - 21:00",,,
Shoppes Of Port Charlotte,,1100 El Jobean Road Suite 110,Shoppes Of Port Charlotte,Port Charlotte,FL,33948,United States,941-258-3386,,,"SU : 11:00 - 18:00, MO : 10:00 - 21:00, TU : 10:00 - 21:00, WE : 10:00 - 21:00, TH : 10:00 - 21:00, FR : 10:00 - 21:00, SA : 10:00 - 21:00",,,
Cordova Commons,,1690 Airport Blvd.,Ste 830,Pensacola,FL,32504,United States,850-857-6696,,,"SU : 12:00 - 18:00, MO : 10:00 - 21:00, TU : 10:00 - 21:00, WE : 10:00 - 21:00, TH : 10:00 - 21:00, FR : 10:00 - 21:00, SA : 10:00 - 21:00",,,
Colonial Promenade Blvd Square,,10810 Pines Boulevard,,Pembroke Pines,FL,33026,United States,954-450-3568,,,"SU : 11:00 - 19:00, MO : 10:00 - 21:00, TU : 10:00 - 21:00, WE : 10:00 - 21:00, TH : 10:00 - 21:00, FR : 10:00 - 21:00, SA : 10:00 - 21:00",,,
Pier Park North,,15600 Panama City Beach Pkwy,Suite 100,Panama City Beach,FL,32413,United States,850-235-0860,,,"SU : 12:00 - 18:00, MO : 10:00 - 21:00, TU : 10:00 - 21:00, WE : 10:00 - 21:00, TH : 10:00 - 21:00, FR : 10:00 - 21:00, SA : 10:00 - 21:00",,,
Waterford Lakes Town Center,,365 Alafaya Trail,Waterford Lakes Town Center,Orlando,FL,32828,United States,407-737-1232,,,"SU : 12:00 - 18:00, MO : 10:00 - 21:00, TU : 10:00 - 21:00, WE : 10:00 - 21:00, TH : 10:00 - 21:00, FR : 10:00 - 21:00, SA : 10:00 - 21:00",,,
Millenia Plaza,,4624 Millenia Plaza Way,,Orlando,FL,32839,United States,407-363-7520,,,"SU : 11:00 - 19:00, MO : 10:00 - 21:00, TU : 10:00 - 21:00, WE : 10:00 - 21:00, TH : 10:00 - 21:00, FR : 10:00 - 21:00, SA : 10:00 - 21:00",,,
Island Walk,,1989 East West Parkway,Island Walk,Orange Park,FL,32003,United States,904-269-0702,,,"SU : 12:00 - 18:00, MO : 10:00 - 21:00, TU : 10:00 - 21:00, WE : 10:00 - 21:00, TH : 10:00 - 21:00, FR : 10:00 - 21:00, SA : 10:00 - 21:00",,,
Market Street At Heath Brook,,4414 SW College Rd.,#1730,Ocala,FL,34474,United States,352-237-8340,,,"SU : 11:00 - 18:00, MO : 10:00 - 21:00, TU : 10:00 - 21:00, WE : 10:00 - 21:00, TH : 10:00 - 21:00, FR : 10:00 - 21:00, SA : 10:00 - 21:00",,,
Westchester Shopping Center,,8571 SW 24th St.,,Miami,FL,33155,United States,305-267-3342,,,"SU : 11:00 - 19:00, MO : 10:00 - 21:00, TU : 10:00 - 21:00, WE : 10:00 - 21:00, TH : 10:00 - 21:00, FR : 10:00 - 21:00, SA : 10:00 - 21:00",,,
Town And Country Center,,8436 Mills Drive,,Miami,FL,33183,United States,305-279-9516,,,"SU : 11:00 - 19:00, MO : 10:00 - 21:00, TU : 10:00 - 21:00, WE : 10:00 - 21:00, TH : 10:00 - 21:00, FR : 10:00 - 21:00, SA : 10:00 - 21:00",,,
South Dade Shopping Center,,18447 S. Dixie Highway,,Miami,FL,33157,United States,786-573-4564,,,"SU : 11:00 - 19:00, MO : 10:00 - 21:00, TU : 10:00 - 21:00, WE : 10:00 - 21:00, TH : 10:00 - 21:00, FR : 10:00 - 21:00, SA : 10:00 - 21:00",,,
The Avenue Viera,,2271 Town Center Ave.,Suite 111,Melbourne,FL,32940,United States,321-639-1409,,,"SU : 11:00 - 18:00, MO : 10:00 - 21:00, TU : 10:00 - 21:00, WE : 10:00 - 21:00, TH : 10:00 - 21:00, FR : 10:00 - 21:00, SA : 10:00 - 21:00",,,
Lakeside Village,,1449 Town Center Drive,Lakeside Village,Lakeland,FL,33803,United States,863-688-0075,,,"SU : 11:00 - 18:00, MO : 10:00 - 21:00, TU : 10:00 - 21:00, WE : 10:00 - 21:00, TH : 10:00 - 21:00, FR : 10:00 - 21:00, SA : 10:00 - 21:00",,,
Lady Lake Crossing,,496 North Us Highway 27,Lady Lake Crossing,Lady Lake,FL,32159,United States,352-205-7195,,,"SU : 11:00 - 19:00, MO : 10:00 - 21:00, TU : 10:00 - 21:00, WE : 10:00 - 21:00, TH : 10:00 - 21:00, FR : 10:00 - 21:00, SA : 10:00 - 21:00",,,
Mandarin Landing,,10601 San Jose Blvd Suite 104,Mandarin Landing,Jacksonville,FL,32257,United States,904-880-7530,,,"SU : 12:00 - 18:00, MO : 10:00 - 21:00, TU : 10:00 - 21:00, WE : 10:00 - 21:00, TH : 10:00 - 21:00, FR : 10:00 - 21:00, SA : 10:00 - 21:00",,,
The Markets At Town Center,,4870 Big Island Drive,Suite 6,Jacksonville,FL,32246,United States,904-641-6929,,,"SU : 12:00 - 18:00, MO : 10:00 - 21:00, TU : 10:00 - 21:00, WE : 10:00 - 21:00, TH : 10:00 - 21:00, FR : 10:00 - 21:00, SA : 10:00 - 21:00",,,
River City Marketplace,,13221 City Station Drive,Suite 155,Jacksonville,FL,32218,United States,904-751-9315,,,"SU : 12:00 - 18:00, MO : 10:00 - 21:00, TU : 10:00 - 21:00, WE : 10:00 - 21:00, TH : 10:00 - 21:00, FR : 10:00 - 21:00, SA : 10:00 - 21:00",,,
The Crosslands,,600 Centerview Blvd,,Kissimmee,FL,34741,United States,407-518-0787,,,"SU : 11:00 - 19:00, MO : 10:00 - 21:00, TU : 10:00 - 21:00, WE : 10:00 - 21:00, TH : 10:00 - 21:00, FR : 10:00 - 21:00, SA : 10:00 - 21:00",,,
Palm Springs Mile,,489 W 49th Street,,Hialeah,FL,33012-3602,United States,305-828-1010,,,"SU : 11:00 - 19:00, MO : 10:00 - 21:00, TU : 10:00 - 21:00, WE : 10:00 - 21:00, TH : 10:00 - 21:00, FR : 10:00 - 21:00, SA : 10:00 - 21:00",,,
Butler Plaza,,3910 SW Archer Rd.,,Gainesville,FL,32608-2342,United States,352-371-9820,,,"SU : 12:00 - 18:00, MO : 10:00 - 21:00, TU : 10:00 - 21:00, WE : 10:00 - 21:00, TH : 10:00 - 21:00, FR : 10:00 - 21:00, SA : 10:00 - 21:00",,,
Gulf Coast Town Center,,10012 Gulf Center Drive,Unit # 1,Fort Myers,FL,33913,United States,239-466-6604,,,"SU : 11:00 - 19:00, MO : 10:00 - 21:00, TU : 10:00 - 21:00, WE : 10:00 - 21:00, TH : 10:00 - 21:00, FR : 10:00 - 21:00, SA : 10:00 - 21:00",,,
Shoppes At Paradise Key,,4429 Commons Drive East,D-2,Destin,FL,32541,United States,850-837-0426,,,"SU : 12:00 - 18:00, MO : 10:00 - 21:00, TU : 10:00 - 21:00, WE : 10:00 - 21:00, TH : 10:00 - 21:00, FR : 10:00 - 21:00, SA : 10:00 - 21:00",,,
Shoppes At Arrowhead,,2661 S. University Dr.,,Davie,FL,33328-1437,United States,954-370-0667,,,"SU : 23:00 - 19:00, MO : 10:00 - 21:00, TU : 10:00 - 21:00, WE : 10:00 - 21:00, TH : 10:00 - 21:00, FR : 10:00 - 21:00, SA : 10:00 - 21:00",,,
Coastal Landing,,7195 Coastal Blvd,Coastal Landing,Brooksville,FL,34613,United States,352-596-4226,,,"SU : 11:00 - 18:00, MO : 10:00 - 21:00, TU : 10:00 - 21:00, WE : 10:00 - 21:00, TH : 10:00 - 21:00, FR : 10:00 - 21:00, SA : 10:00 - 21:00",,,
Regency Square,,2448 West Brandon Boulevard,,Brandon,FL,33511,United States,813-684-0343,,,"SU : 11:00 - 19:00, MO : 10:00 - 21:00, TU : 10:00 - 21:00, WE : 10:00 - 21:00, TH : 10:00 - 21:00, FR : 10:00 - 21:00, SA : 10:00 - 21:00",,,
Shoppes At University Park,,8245 Cooper Creek Blvd.,,Bradenton,FL,34201,United States,941-355-1251,,,"SU : 11:00 - 18:00, MO : 10:00 - 21:00, TU : 10:00 - 21:00, WE : 10:00 - 21:00, TH : 10:00 - 21:00, FR : 10:00 - 21:00, SA : 10:00 - 21:00",,,
Oakwood Square,,348 North Congress Ave.,,Boynton Beach,FL,33426,United States,561-731-4673,,,"SU : 11:00 - 19:00, MO : 10:00 - 21:00, TU : 10:00 - 21:00, WE : 10:00 - 21:00, TH : 10:00 - 21:00, FR : 10:00 - 21:00, SA : 10:00 - 21:00",,,
"Rehoboth Outlets, Center One",,35000 Midway Outlet Dr,Ste. 201,Rehoboth Beach,DE,19971,United States,302-644-3242,,,"SU : 10:00 - 19:00, MO : 09:00 - 21:00, TU : 09:00 - 21:00, WE : 09:00 - 21:00, TH : 09:00 - 21:00, FR : 09:00 - 21:00, SA : 09:00 - 21:00",,,
Brandywine Town Center,,1052 Brandywine Parkway,Brandywine Town Center,Wilmington,DE,19803,United States,302-477-1580,,,"SU : 11:00 - 18:00, MO : 10:00 - 21:00, TU : 10:00 - 21:00, WE : 10:00 - 21:00, TH : 10:00 - 21:00, FR : 10:00 - 21:00, SA : 10:00 - 21:00",,,
Harvest Junction,,"180 Ken Pratt Blvd., Suite 140",,Longmont,CO,80501,United States,303-776-8844,,,"SU : 00:00 - 18:00, MO : 10:00 - 21:00, TU : 10:00 - 21:00, WE : 10:00 - 21:00, TH : 10:00 - 21:00, FR : 10:00 - 21:00, SA : 10:00 - 21:00",,,
Christiana Fashion Center,,3150 Fashion Center Blvd.,,Newark,DE,19702,United States,3022660136,,,"SU : 23:00 - 18:00, MO : 10:00 - 21:00, TU : 10:00 - 21:00, WE : 10:00 - 21:00, TH : 10:00 - 21:00, FR : 10:00 - 21:00, SA : 10:00 - 21:00",,,
Kirkland's Lone Tree,,9140 Westview Road,Unit C,Lone Tree,CO,80124,United States,303-706-9126,,,"SU : 11:00 - 18:00, MO : 10:00 - 21:00, TU : 10:00 - 21:00, WE : 10:00 - 21:00, TH : 10:00 - 21:00, FR : 10:00 - 21:00, SA : 10:00 - 21:00",,,
Aspen Grove,,7301 Santa Fe Drive,Unit 712,Littleton,CO,80120-2980,United States,303-794-4499,,,"SU : 00:00 - 18:00, MO : 10:00 - 21:00, TU : 10:00 - 21:00, WE : 10:00 - 21:00, TH : 10:00 - 21:00, FR : 10:00 - 21:00, SA : 10:00 - 21:00",,,
Woodmen Commons,,1780 E. Woodmen Rd.,,Colorado Springs,CO,80920,United States,719-531-7212,,,"SU : 11:00 - 18:00, MO : 10:00 - 21:00, TU : 10:00 - 21:00, WE : 10:00 - 21:00, TH : 10:00 - 21:00, FR : 10:00 - 21:00, SA : 10:00 - 21:00",,,
First And Main,,3870 Bloomington St,,Colorado Springs,CO,80922,United States,719-591-4200,,,"SU : 11:00 - 18:00, MO : 10:00 - 21:00, TU : 10:00 - 21:00, WE : 10:00 - 21:00, TH : 10:00 - 21:00, FR : 10:00 - 21:00, SA : 10:00 - 21:00",,,
Packwood Creek West,,4043 South Mooney Blvd.,,Visalia,CA,93277,United States,559-624-0216,,,"SU : 11:00 - 19:00, MO : 10:00 - 21:00, TU : 10:00 - 21:00, WE : 10:00 - 21:00, TH : 10:00 - 21:00, FR : 10:00 - 21:00, SA : 10:00 - 21:00",,,
Nut Tree Retail Center,,1641 E. Monte Vista Avenue,Suite I-101,Vacaville,CA,95688,United States,707-451-4210,,,"SU : 11:00 - 19:00, MO : 10:00 - 21:00, TU : 10:00 - 21:00, WE : 10:00 - 21:00, TH : 10:00 - 21:00, FR : 10:00 - 21:00, SA : 10:00 - 21:00",,,
Monte Vista Crossing,,2733 Countryside Dr.,,Turlock,CA,95380,United States,209-664-9478,,,"SU : 23:00 - 19:00, MO : 10:00 - 21:00, TU : 10:00 - 21:00, WE : 10:00 - 21:00, TH : 10:00 - 21:00, FR : 10:00 - 21:00, SA : 10:00 - 21:00",,,
Promenade In Temecula,,40820 Winchester Road,Ste. 2500,Temecula,CA,92592,United States,951-699-8571,,,"SU : 11:00 - 19:00, MO : 10:00 - 21:00, TU : 10:00 - 21:00, WE : 10:00 - 21:00, TH : 10:00 - 21:00, FR : 10:00 - 21:00, SA : 10:00 - 21:00",,,
San Ysidro Village,,4430a Camino De La Plaza,San Ysidro Village,San Ysidro,CA,92173,United States,619-690-9634,,,"SU : 11:00 - 18:00, MO : 10:00 - 21:00, TU : 10:00 - 21:00, WE : 10:00 - 21:00, TH : 10:00 - 21:00, FR : 10:00 - 21:00, SA : 10:00 - 21:00",,,
Mountain Grove At Citrus Plaza,,27451 San Bernardino Avenue,,Redlands,CA,92374-2017,United States,909-792-1826,,,"SU : 11:00 - 19:00, MO : 10:00 - 21:00, TU : 10:00 - 21:00, WE : 10:00 - 21:00, TH : 10:00 - 21:00, FR : 10:00 - 21:00, SA : 10:00 - 21:00",,,
East Washington Plaza,,401 Kenilworth Drive,,Petaluma,CA,94952,United States,707-769-3125,,,"SU : 11:00 - 18:00, MO : 10:00 - 21:00, TU : 10:00 - 21:00, WE : 10:00 - 21:00, TH : 10:00 - 21:00, FR : 10:00 - 21:00, SA : 10:00 - 21:00",,,
Antelope Valley Mall,,1247 Rancho Vista Blvd.,,Palmdale,CA,93551,United States,661-538-1135,,,"SU : 11:00 - 19:00, MO : 10:00 - 21:00, TU : 10:00 - 21:00, WE : 10:00 - 21:00, TH : 10:00 - 21:00, FR : 10:00 - 21:00, SA : 10:00 - 21:00",,,
Esplanade Shopping Center,,151 W Esplanade Drive,,Oxnard,CA,93036,United States,805-278-0347,,,"SU : 11:00 - 19:00, MO : 10:00 - 21:00, TU : 10:00 - 21:00, WE : 10:00 - 21:00, TH : 10:00 - 21:00, FR : 10:00 - 21:00, SA : 10:00 - 21:00",,,
Stoneridge Towne Center,,27210 Eucalyptus Ave,,Moreno Valley,CA,92555,United States,951-485-0821,,,"SU : 10:00 - 19:00, MO : 10:00 - 21:00, TU : 10:00 - 21:00, WE : 10:00 - 21:00, TH : 10:00 - 21:00, FR : 10:00 - 21:00, SA : 10:00 - 21:00",,,
Huntington Oaks Shopping Ctr,,542 W. Huntington Drive,Huntington Oaks Shopping Ctr,Monrovia,CA,91016,United States,626-357-1479,,,"SU : 11:00 - 19:00, MO : 10:00 - 21:00, TU : 10:00 - 21:00, WE : 10:00 - 21:00, TH : 10:00 - 21:00, FR : 10:00 - 21:00, SA : 10:00 - 21:00",,,
Vernola Marketplace,,6333 Pat's Ranch Road,,Mira Loma,CA,91752-4431,United States,951-520-0954,,,"SU : 10:00 - 19:00, MO : 10:00 - 21:00, TU : 10:00 - 21:00, WE : 10:00 - 21:00, TH : 10:00 - 21:00, FR : 10:00 - 21:00, SA : 10:00 - 21:00",,,
Lake Elsinore Marketplace,,29229 Central Avenue,Suite B,Lake Elsinore,CA,92532,United States,951-674-2783,,,"SU : 10:00 - 19:00, MO : 10:00 - 21:00, TU : 10:00 - 21:00, WE : 10:00 - 21:00, TH : 10:00 - 21:00, FR : 10:00 - 21:00, SA : 10:00 - 21:00",,,
Pacheco Pass,,950 Renz Lane,Suite 50,Gilroy,CA,95020,United States,408-848-5285,,,"SU : 11:00 - 18:00, MO : 10:00 - 21:00, TU : 10:00 - 21:00, WE : 10:00 - 21:00, TH : 10:00 - 21:00, FR : 10:00 - 21:00, SA : 10:00 - 21:00",,,
Villagio Shopping Center,,7891 N. Blackstone Avenue,,Fresno,CA,93720,United States,559-431-4053,,,"SU : 11:00 - 19:00, MO : 10:00 - 21:00, TU : 10:00 - 21:00, WE : 10:00 - 21:00, TH : 10:00 - 21:00, FR : 10:00 - 21:00, SA : 10:00 - 21:00",,,
Marketplace At El Paseo,,6575 North Riverside Dr.,,Fresno,CA,93722,United States,559-274-9103,,,"SU : 23:00 - 18:00, MO : 10:00 - 21:00, TU : 10:00 - 21:00, WE : 10:00 - 21:00, TH : 10:00 - 21:00, FR : 10:00 - 21:00, SA : 10:00 - 21:00",,,
Palm Court,,"17052 Slover Ave., Suite J101",,Fontana,CA,92337-7553,United States,909-356-6987,,,"SU : 11:00 - 19:00, MO : 10:00 - 21:00, TU : 10:00 - 21:00, WE : 10:00 - 21:00, TH : 10:00 - 21:00, FR : 10:00 - 21:00, SA : 10:00 - 21:00",,,
Palladio Center,,260 Palladio Parkway,Suite 1019,Folsom,CA,95630,United States,916-984-0579,,,"SU : 11:00 - 19:00, MO : 10:00 - 21:00, TU : 10:00 - 21:00, WE : 10:00 - 21:00, TH : 10:00 - 21:00, FR : 10:00 - 21:00, SA : 10:00 - 21:00",,,
Plaza At Imperial Valley,,"580 Danenberg Dr, Ste 200",,El Centro,CA,92243,United States,760-336-0573,,,"SU : 11:00 - 19:00, MO : 10:00 - 21:00, TU : 10:00 - 21:00, WE : 10:00 - 21:00, TH : 10:00 - 21:00, FR : 10:00 - 21:00, SA : 10:00 - 21:00",,,
Laguna Crossroads,,7707 Laguna Blvd,,Elk Grove,CA,95758,United States,916-478-0093,,,"SU : 11:00 - 18:00, MO : 10:00 - 21:00, TU : 10:00 - 21:00, WE : 10:00 - 21:00, TH : 10:00 - 21:00, FR : 10:00 - 21:00, SA : 10:00 - 21:00",,,
Springfield Village Shopping Center,,1515 Springfield Dr.,Ste 150,Chico,CA,95928,United States,530-896-1970,,,"SU : 11:00 - 18:00, MO : 10:00 - 21:00, TU : 10:00 - 21:00, WE : 10:00 - 21:00, TH : 10:00 - 21:00, FR : 10:00 - 21:00, SA : 10:00 - 21:00",,,
Clovis Crossing,,1295 Herndon Avenue,Suite 103,Clovis,CA,93612,United States,559-325-6506,,,"SU : 11:00 - 19:00, MO : 10:00 - 21:00, TU : 10:00 - 21:00, WE : 10:00 - 21:00, TH : 10:00 - 21:00, FR : 10:00 - 21:00, SA : 10:00 - 21:00",,,
Chino Spectrum Marketplace,,4042 Grand Ave.,,Chino,CA,91710-5487,United States,909-590-2548,,,"SU : 11:00 - 19:00, MO : 10:00 - 21:00, TU : 10:00 - 21:00, WE : 10:00 - 21:00, TH : 10:00 - 21:00, FR : 10:00 - 21:00, SA : 10:00 - 21:00",,,
Jess Ranch Marketplace,,19105 Bear Valley Road Suite B,Jess Ranch Marketplace,Apple Valley,CA,92308,United States,760-240-3174,,,"SU : 10:00 - 19:00, MO : 10:00 - 21:00, TU : 10:00 - 21:00, WE : 10:00 - 21:00, TH : 10:00 - 21:00, FR : 10:00 - 21:00, SA : 10:00 - 21:00",,,
Pinnacle Hills,,2203 Promenade Blvd.,Ste. 20240,Rogers,AR,72758,United States,479-246-0783,,,"SU : 11:00 - 18:00, MO : 10:00 - 21:00, TU : 10:00 - 21:00, WE : 10:00 - 21:00, TH : 10:00 - 21:00, FR : 10:00 - 21:00, SA : 10:00 - 21:00",,,
Empire Shopping Center,,5875 Lone Tree Way,Empire Shopping Center,Antioch,CA,94531,United States,925-757-8062,,,"SU : 11:00 - 18:00, MO : 10:00 - 21:00, TU : 10:00 - 21:00, WE : 10:00 - 21:00, TH : 10:00 - 21:00, FR : 10:00 - 21:00, SA : 10:00 - 21:00",,,
Lakewood Village,,2639 Lakewood Village Dr.,Lakewood Village,North Little Rock,AR,72116,United States,501-753-4780,,,"SU : 11:00 - 19:00, MO : 10:00 - 21:00, TU : 10:00 - 21:00, WE : 10:00 - 21:00, TH : 10:00 - 21:00, FR : 10:00 - 21:00, SA : 10:00 - 21:00",,,
Chenal Commons,,12801 Chenal Parkway,Suite 3b,Little Rock,AR,72211,United States,501-217-9450,,,"SU : 11:00 - 19:00, MO : 10:00 - 21:00, TU : 10:00 - 21:00, WE : 10:00 - 21:00, TH : 10:00 - 21:00, FR : 10:00 - 21:00, SA : 10:00 - 21:00",,,
Jonesboro Highlands,,3101 East Highland Drive,,Jonesboro,AR,72401,United States,870-268-1230,,,"SU : 11:00 - 19:00, MO : 10:00 - 21:00, TU : 10:00 - 21:00, WE : 10:00 - 21:00, TH : 10:00 - 21:00, FR : 10:00 - 21:00, SA : 10:00 - 21:00",,,
Conway Commons,,678 Elsinger Boulevard,,Conway,AR,72032,United States,501-548-6909,,,"SU : 12:00 - 18:00, MO : 10:00 - 21:00, TU : 10:00 - 21:00, WE : 10:00 - 21:00, TH : 10:00 - 21:00, FR : 10:00 - 21:00, SA : 10:00 - 21:00",,,
Cornerstone Marketplace,,258 Cornerstone Boulevard,,Hot Springs,AR,71913,United States,501-525-6770,,,"SU : 12:00 - 18:00, MO : 10:00 - 21:00, TU : 10:00 - 21:00, WE : 10:00 - 21:00, TH : 10:00 - 21:00, FR : 10:00 - 21:00, SA : 10:00 - 21:00",,,
Alcoa Exchange,,7365 Alcoa Road,Suite A,Bryant,AR,72022,United States,501-778-2425,,,"SU : 12:00 - 18:00, MO : 10:00 - 21:00, TU : 10:00 - 21:00, WE : 10:00 - 21:00, TH : 10:00 - 21:00, FR : 10:00 - 21:00, SA : 10:00 - 21:00",,,
Fort Smith Pavilion,,3965 Phoenix Avenue,Fort Smith Pavilion,Fort Smith,AR,72903,United States,479-648-3965,,,"SU : 11:00 - 18:00, MO : 10:00 - 21:00, TU : 10:00 - 21:00, WE : 10:00 - 21:00, TH : 10:00 - 21:00, FR : 10:00 - 21:00, SA : 10:00 - 21:00",,,
Yuma Palms,,1496 S. Yuma Palms Parkway,"Bldg J, Suite 3",Yuma,AZ,85365,United States,928-329-1936,,,"SU : 11:00 - 18:00, MO : 10:00 - 21:00, TU : 10:00 - 21:00, WE : 10:00 - 21:00, TH : 10:00 - 21:00, FR : 10:00 - 21:00, SA : 10:00 - 21:00",,,
Tucson Spectrum,,5157 S. Calle Santa Cruz,,Tucson,AZ,85706,United States,520-573-7714,,,"SU : 10:00 - 19:00, MO : 10:00 - 21:00, TU : 10:00 - 21:00, WE : 10:00 - 21:00, TH : 10:00 - 21:00, FR : 10:00 - 21:00, SA : 10:00 - 21:00",,,
Old Spanish Trail Marketplace,,9610 22nd St.,,Tucson,AZ,85748,United States,520-298-8361,,,"SU : 11:00 - 18:00, MO : 10:00 - 21:00, TU : 10:00 - 21:00, WE : 10:00 - 21:00, TH : 10:00 - 21:00, FR : 10:00 - 21:00, SA : 10:00 - 21:00",,,
Foothills Mall,,7401 N. La Cholla Blvd.,Suite 144,Tucson,AZ,85741,United States,520-297-9108,,,"SU : 11:00 - 18:00, MO : 10:00 - 21:00, TU : 10:00 - 21:00, WE : 10:00 - 21:00, TH : 10:00 - 21:00, FR : 10:00 - 21:00, SA : 10:00 - 21:00",,,
Queen Creek Marketplace,,21158 S Ellsworth Loop Rd,,Queen Creek,AZ,85142,United States,480-750-3615,,,"SU : 11:00 - 18:00, MO : 10:00 - 21:00, TU : 10:00 - 21:00, WE : 10:00 - 21:00, TH : 10:00 - 21:00, FR : 10:00 - 21:00, SA : 10:00 - 21:00",,,
Pecan Promenade,,9820 W Lower Buckeye Road,Suite 120,Tolleson,AZ,85353,United States,623-936-8999,,,"SU : 11:00 - 18:00, MO : 10:00 - 20:00, TU : 10:00 - 20:00, WE : 10:00 - 20:00, TH : 10:00 - 20:00, FR : 10:00 - 20:00, SA : 10:00 - 20:00",,,
Desert Ridge Marketplace,,21001 North Tatum Boulevard,#54,Phoenix,AZ,85050,United States,480-513-9101,,,"SU : 10:00 - 18:00, MO : 10:00 - 21:00, TU : 10:00 - 21:00, WE : 10:00 - 21:00, TH : 10:00 - 21:00, FR : 10:00 - 21:00, SA : 10:00 - 21:00",,,
Deer Valley Towne Center,,"2811 W Agua Fria Freeway, #2",,Phoenix,AZ,85027,United States,623-780-4014,,,"SU : 23:00 - 18:00, MO : 10:00 - 21:00, TU : 10:00 - 21:00, WE : 10:00 - 21:00, TH : 10:00 - 21:00, FR : 10:00 - 21:00, SA : 10:00 - 21:00",,,
Lake Pleasant Pavilion,,24650 N. Lake Pleasant Parkway,Suite 102,Peoria,AZ,85383,United States,623-566-4402,,,"SU : 10:00 - 18:00, MO : 10:00 - 20:00, TU : 10:00 - 20:00, WE : 10:00 - 20:00, TH : 10:00 - 20:00, FR : 10:00 - 20:00, SA : 10:00 - 21:00",,,
Ahwatukee Foothills Towne Cntr,,4619 E. Ray Road,Suite E-2,Phoenix,AZ,85044,United States,480-940-3783,,,"SU : 11:00 - 18:00, MO : 10:00 - 21:00, TU : 10:00 - 21:00, WE : 10:00 - 21:00, TH : 10:00 - 21:00, FR : 10:00 - 21:00, SA : 10:00 - 21:00",,,
Dana Park,,1854 S. Val Vista Drive,#106,Mesa,AZ,85204,United States,480-813-1640,,,"SU : 10:00 - 18:00, MO : 10:00 - 21:00, TU : 10:00 - 21:00, WE : 10:00 - 21:00, TH : 10:00 - 21:00, FR : 10:00 - 21:00, SA : 10:00 - 21:00",,,
Mesa Riverview,,833 N. Dobson Road,Suite 103,Mesa,AZ,85201,United States,480-969-5758,,,"SU : 11:00 - 18:00, MO : 10:00 - 20:00, TU : 10:00 - 20:00, WE : 10:00 - 20:00, TH : 10:00 - 20:00, FR : 10:00 - 20:00, SA : 10:00 - 20:00",,,
The Shops At Lake Havasu,,5601 Hwy 95 N,Suite 208,Lake Havasu City,AZ,86404,United States,928-764-4660,,,"SU : 11:00 - 18:00, MO : 10:00 - 21:00, TU : 10:00 - 21:00, WE : 10:00 - 21:00, TH : 10:00 - 21:00, FR : 10:00 - 21:00, SA : 10:00 - 21:00",,,
The Crossings Of Decatur,,1241 Point Mallard Parkway SE,Suite 401,Decatur,AL,35601,United States,256-353-2242,,,"SU : 12:00 - 18:00, MO : 10:00 - 21:00, TU : 10:00 - 21:00, WE : 10:00 - 21:00, TH : 10:00 - 21:00, FR : 10:00 - 21:00, SA : 10:00 - 21:00",,,
Palm Valley Pavilions,,1400 N. Litchfield Road,Suite G-8,Goodyear,AZ,85338,United States,623-547-1940,,,"SU : 11:00 - 18:00, MO : 10:00 - 21:00, TU : 10:00 - 21:00, WE : 10:00 - 21:00, TH : 10:00 - 21:00, FR : 10:00 - 21:00, SA : 10:00 - 21:00",,,
Colonial Pinnacle Tutwiler,,5054 Pinnacle Square,Suite 108,Birmingham,AL,35235,United States,205-655-5667,,,"SU : 12:00 - 18:00, MO : 10:00 - 21:00, TU : 10:00 - 21:00, WE : 10:00 - 21:00, TH : 10:00 - 21:00, FR : 10:00 - 21:00, SA : 10:00 - 21:00",,,
