store_name,store_number,address,address2,city,state,zip_code,country,phone_number,latitude,longitude,store_hours,store_type,other_fields,coming_soon
See By Chlo SKP Beijing,28224,No. 87 Jianguo Road Chaoyang District   ,,Beijing,,100004,China,+86 10 8588 7982,39.915648,116.485504,Monday to Sunday: 10:00-22:00,,,
See By Chlo David JonesnBourke Street,28225,310 Bourke Street  VIC ,,Melbourne,,3000,Australia,+61 3 9643 2222,-37.813309,144.964402,"Monday to Friday : 9:30 - 19.00, Saturday : 9:00 - 19.00, Sunday : 9:30 - 19.00",,,
See By Chlo David JonesnElizabeth Street,28226,86 -108 Castlereagh Street  ,,Sydney,,2000,Australia,+61 2 9266 5544,33.8688,151.2093,"Monday to Friday : 9:30 - 19.00, Saturday : 9:00 - 19.00, Sunday : 9:30 - 19.00",,,
See By Chlo El Corte Inglès,28227,47 Calle Serrano,,Madrid,,28001,Spain,+34 914 32 54 90,40.429939,-3.687042,"Monday to Saturday: 10:00-20:00, Sunday: 11:00-21:00",,,
See By Chlo Printemps,28228,64 boulevard Haussmann,,Paris,,75009,France,+33(0) 1 42 82 50 00,48.873642,2.328122,"Monday to Saturday : 9:35-20:00, Thursday: 9:35-20:45, Sunday: 11:00-19:00",,,
See By Chlo Le Bon March,28229,24 rue de sèvres,,Paris,,75007,France,+33(0) 1 44 39 80 00,48.850534,2.324680,"Monday to Saturday : 10:00-20:00, Thursday: 10:00-20:45, Sunday: 11:00-20:00",,,
See By Chlo Galeries Lafayette,28231,40 boulevard Haussmann,,Paris,,75009,France,+33(0) 1 45 26 37 74,48.873119,2.332154,"Monday to Saturday: 9:30-20:30, Sunday: 11:00-19:00",,,
See By Chlo Printemps,28232,64 boulevard Haussmann,,Paris,,75009,France,+33(0) 1 42 82 40 87,48.873642,2.328122,"Monday to Saturday : 9:35-20:00, Thursday: 9:35-20:45, Sunday: 11:00-19:00",,,
See By Chlo Harvey NicholsnLandmark,28234,15 Queen's Road Central  SAR China,,Hong Kong,,,Hong Kong,+852 3695 3388,22.280545,114.157903,"Monday to Saturday : 10:00 - 21.00, Sunday : 10:00 - 19.00",,,
See By Chlo Harvey NicholsnPacific Place,28235,88 Queensway  SAR China,,Hong Kong,,,Hong Kong,+852 3968 2668,22.277645,114.165394,"Monday to Saturday : 10:00 - 21.00, Sunday : 10:00 - 19.00",,,
See By Chlo Isetan Shinjyuku,28236,3-14-1 Shinjuku Shinjuku-ku okyo 160-0022,,Tokyo,,160-0222,Japan,+81 3 5369 3508,35.691637,139.704616,Monday to Sunday: 10.30-20.00,,,
See By Chlo Seibu Shibuya,28237,21-1 Udagawacho Shibuya-ku  ,,Tokyo,,150-8330,Japan,+81 3 5728 3602,35.660733,139.700379,"Monday to Saturday: 10.00-21.00, Sunday: 10.00-20.00",,,
See By Chlo Hankyu Umeda,28238,8-7 Kakudacho Kita-ku  ,,Osaka,,530-8350,Japan,+81 6 6313 7123,34.702470,135.498494,"Sunday to Thursday: 10.00-20.00, Friday to Saturday: 10.00-21.00",,,
See By Chlo Nagoya Mitsukoshi,28239,3-5-1 Sakae Naka-ku  ,,Nagoya,,460-8669,Japan,+81 52 252 1312,35.168349,136.907692,Monday to Sunday: 10.00-19.30,,,
See By Chlo Daimaru Kobe,28240,40 Akashi-machi Chuo-ku  ,,Kobe,,650-0037,Japan,+81 78 391 1005,34.688624,135.190514,Monday to Sunday: 10.00-20.00,,,
See By Chlo Seibu Ikebukuro,28241,1-28-1 Minami-Ikebukuro Toshima-ku  ,,Tokyo,,171-8569,Japan,+81 3 3987 6561,35.729078,139.711679,Monday to Sunday: 10.00-21.00,,,
See By Chlo Daimaru Shinsaibashi,28242,1-7-1 Shinsaibashi Chuo-ku  ,,Osaka,,542-8501,Japan,+81 6 6241 8108,34.673924,135.500956,Monday to Sunday: 10.00-20.30,,,
See By Chlo Sogo Yokohama,28243,2-18-1 Takashima Nishi-ku  ,,Yokohama,,220-8510,Japan,+81 45 451 3582,35.465431,139.625032,Monday to Sunday: 10.00-20.00,,,
See By Chlo Nagoya Takashimaya,28244,1-1-4 Meieki Nakamura-ku  450-6001,,Nagoya,,460-6001,Japan,+81 52 561 5007,35.170950,136.883291,Monday to Sunday: 10.00-20.00,,,
See By Chlo Iwataya,28245,2-5-35 Tenjin Chuo-ku  ,,Fukuoka,,810-8680,Japan,+81 92 716 1163,33.588842,130.397425,Monday to Sunday: 10.00-20.00,,,
See By Chlo Ginza Mitsukoshi,28246,4-6-16 Ginza Chuo-ku  ,,Tokyo,,104-8212,Japan,+81 3 3564 3051,35.671322,139.765836,Monday to Sunday: 10.30-20.00,,,
See By Chlo Nishinomiya Hankyu,28247,14-1 Takamatsu-cho Nishinomiya-shi  ,,Hyogo,,663-8204,Japan,+81 798 62 7514,34.743481,135.358781,Monday to Sunday: 10.00-20.00,,,
See By Chlo Seibu Ikebukuro ACC,28248,1-28-1 Minami-Ikebukuro Toshima-ku  ,,Tokyo,,171-8569,Japan,+81 3 3987 3861,35.729078,139.711679,Monday to Sunday: 10.00-21.00,,,
See By Chlo Osaka Takashimaya,28249,5-1-5 Namba Chuo-ku  ,,Osaka,,542-8510,Japan,+81 6 6631 6778,34.664823,135.501652,"Sunday to Thursday: 10.00-20.00, Friday to Saturday: 10.00-19.30",,,
See By Chlo Isetan Niigata,28250,1-6-1 Yachiyo Chuo-ku  ,,Niigata,,950-8589,Japan,+81 25 248 6560,37.915552,139.054856,"Monday to Saturday: 10.30-19.30, Sunday: 10.00-19.00",,,
See By Chlo Okayama Tenmaya,28251,2-1-1 Omote-machi Kita-ku  ,,Okayama,,700-8625,Japan,+81 86 221 1715,34.661867,133.929009,Monday to Sunday: 10.00-19.30,,,
See By Chlo Kyoto Isetan,28252,Higashi-Shiokoji Shiokoji-Sagaru Karasumadori Shimogyou-ku  600-8555,,Kyoto,,660-8555,Japan,+81 75 344 1799,34.986065,135.758116,Monday to Sunday: 10.00-20.00,,,
See By Chlo Sogo Yokohama ACC,28253,2-18-1 Takashima Nishi-ku  ,,Yokohama,,220-8510,Japan,+81 45 453 0655,35.465431,139.625032,Monday to Sunday: 10.00-20.00,,,
See By Chlo Diver City Tokyo,28254,1-1-10 Aomi Koto-ku  ,,Tokyo,,135-0064,Japan,+81 3 3529 2881,35.625046,139.775453,Monday to Sunday: 10.00-21.00,,,
See By Chlo Shibuya Hikarie ShinQs ACC,28255,2-21-1 Shibuya Shibuya-ku Toyo ,,Tokyo,,150-8509,Japan,+81 3 3797 1521,35.659025,139.703473,Monday to Sunday: 10.00-21.00,,,
See By Chlo Abeno Harukasu,28256,1-1-43 Abenosuji Abeno-ku  ,,Osaka,,545-8545,Japan,+81 6 6627 7171,34.645842,135.513971,Monday to Sunday: 10.00-20.00,,,
See By Chlo Sendai Forus,28257,3-11-15 Ichibancho Aoba-ku  ,,Sendai,,980-8546,Japan,+81 22 264 8099,38.262191,140.872062,Monday to Sunday: 10.00-20.30,,,
See By Chlo Ginza Siix,28258,6-10-1 Ginza Chuo-ku  106-0041,,Tokyo,,104-0061,Japan,+81 3 6263 9797,35.669590,139.764009,Monday to Sunday: 10.30-20.30,,,
See By Chloe Boutique,28259,2239 Al Urubah Road Al Olaya ,,Riyadh,,,Kingdom of Saudi Arabia,+966 11 810 2465,24.711326,46.674446,"Sunday to Thursday: 10 am – 11 pm, Friday: 4.30 pm – 11 pm",,,
See By Chloe Boutique,28260,King Abdulaziz Road ,,Jeddah,,,Kingdom of Saudi Arabia,+966 12 275 4433,21.573185,39.128161,"Sunday to Thursday: 10 am – 11 pm, Friday: 4.30 pm – 11 pm",,,
See By Chlo Harvey Nichols,28261,Sheikh Zayed Road ,,Dubai,,,United Arab Emirates,+971 4 409 8888,25.119216,55.200457,"Sunday to Wednesday: 10 am - 10 pm, Thursday - Saturday: 10am - 12 am",,,
See By Chlo Bloomingdales,28262,Financial Centre Road Downtown ,,Dubai,,,United Arab Emirates,+971 4 350 5333,25.197643,55.278914,"Sunday to Wednesday: 10 am - 10 pm, Thursday - Saturday: 10am - 12 am",,,
See By Chlo New Yaohan,28263,New Yaohan department store ,,Macau,,,Macau,+853 2872 5338,22.1987,113.5439,Monday to Sunday : 10:30 - 22:00,,,
See By Chlo Shinsegae Gangnam,28264,176 Shinbanpo-ro Seocho-gu  Korea ,,Seoul,,06546,South Korea,+82-2-1588-1234,37.5326,127.024612,"Monday to Friday : 10:30 - 20.00, Saturday : 10:30 - 20.30, Sunday : 10:30 - 20.30",,,
See By Chlo Robinsons,28265,260 Orchard Road ,,Singapore,,238855,Singapore,+65 6216 8388,1.302962,103.837189,Monday to Sunday : 10:30 - 22:00,,,
See By Chlo Emporium,28266,622 Sukhumvit Rd. Klongton  ,,Bangkok,,10110,Thailand,+66 2 269 1000,13.7563,100.5018,Monday to Sunday : 10:00 - 22:00,,,
See By Chlo Nordstrom,28267,799 Robson St    BC   ,,Vancouver,,V7Y 0A2,Canada,+1 604-699-2100,49.281715,-123.120363,"Monday to Saturday: 9:30-21:00, Sunday: 11:00-19:00",,,
See By Chlo Nordstrom,28268,55 E Grand Ave    ,,Chicago,IL,60611,United States of America,(312) 464-1515,41.891454,-87.62618,"Monday to Saturday: 10:00-21:00, Sunday: 11:00-19:00",,,
See By Chlo Nordstrom,28269,500 Pine St    ,,Seattle,WA,98101,United States of America,(206) 628-2111,47.612301,-122.336287,"Monday to Friday: 9:30-21:00, Saturday: 10:00-21:00, Sunday: 10:30-19:00",,,
See By Chlo Nordstrom,28270,19507 Biscayne Blvd    ,,Aventura,FL,33180,United States of America,(305) 356-6900,25.957111,-80.145023,"Monday to Saturday: 10:00-21:30, Sunday: 12:00-20:00",,,
See By Chlo Saks,28271,Hudson's Bay Queen Street 176 Yonge St     ,,Toronto,ON,M5C 2L7,Canada,+1 416-507-3100,43.651845,-79.380064,"Monday to Friday: 10:00-21:30, Saturday: 9:30-21:30Sunday: 10:00-19:00",,,
See By Chlo Saks,28272,611 5th Ave    ,,New York,NY,10022,United States of America,(212) 753-4000,40.758105,-73.977079,"Monday to Saturday: 10:00-20:30, Sunday: 11:00-19:00",,,
See By Chlo Saks,28273,Brookfield Place  225 Liberty Street    ,,New York,NY,10281,United States of America,(646) 344-6300,40.712685,-74.014953,"Monday to Saturday: 10:00-20:00, Sunday: 12:00-18:00",,,
See By Chlo Saks,28274,9600 Wilshire Blvd    ,,Beverly Hills,CA,90212,United States of America,(310) 275-4211,34.066756,-118.403982,"Monday to Wednesday: 10:00-19:00, Thursday & Friday 10:00-20:00, Saturday: 10:00-19:00, Sunday: 12:00-18:00",,,
See By Chlo Saks,28275,5175 Westheimer Rd    ,,Houston,TX,77056,United States of America,(713) 627-0500,29.739606,-95.46605,"Monday to Saturday: 10:00-21:00, Sunday: 11:00-19:00",,,
See By Chlo Saks,28276,9700 Collins Ave    ,,Bal Harbour,FL,33154,United States of America,(305) 865-1100,25.888367,-80.125342,"Monday to Saturday: 10:00-21:30, Sunday: 12:00-19:00",,,
See By Chlo Saks,28277,205  Ave    ,,Greenwich,CT,06830,United States of America,(203) 862-5300,41.027548,-73.625678,"Monday to Wednesday: 10:00-19:00, Thursday: 10:00-20:00, Friday & Saturday: 10:00-19:00, Sunday: 12:00-18:00",,,
See By Chlo Neiman Marcus,28278,8687 N Central Expy    ,,Dallas,TX,75225,United States of America,(214) 363-8311,32.868502,-96.773512,"Monday to Friday: 10:00-21:00, Saturday: 10:00-20:00, Sunday: 12:00-18:00",,,
See By Chlo Neiman Marcus,28279,9700 Wilshire Blvd    ,,Beverly Hills,CA,90212,United States of America,(310) 550-5900,34.066524,-118.406178,"Monday to Wednesday: 10:00-19:00, Thursday: 10:00-20:00, Friday & Saturday: 10:00-19:00, Sunday: 12:00-18:00",,,
See By Chlo Neiman Marcus,28280,390 San Lorenzo Ave    ,,Coral Gables,FL,33146,United States of America,(786) 999-1000,25.731802,-80.261427,"Monday to Saturday: 10:00-21:00, Sunday: 12:00-19:00",,,
See By Chlo Neiman Marcus,28281,3393 Peachtree Rd    ,,Atlanta,GA,30326,United States of America,(404) 266-8200,33.846469,-84.362657,"Monday to Saturday: 10:00-20:00, Sunday: 12:00-18:00",,,
See By Chlo Bloomingdales,28282,1200 Morris Turnpike  The Mall at     ,,Short Hills,NJ,07078,United States of America,(973) 548-2200,40.739975,-74.36494,"Monday to Friday: 10:00-21:00, Saturday: 10:00-20:00Sunday: 11:00-19:00",,,
See By Chlo Bloomingdales,28283,10250 California Route 2    ,,Los Angeles,CA,90067,United States of America,(310) 772-2100,34.059616,-118.419435,"Monday to Saturday: 10:00-21:00, Sunday: 11:00-19:00",,,
See By Chlo Bergdorf Goodman,28284,754 5th Ave    ,,New York,NY,10019,United States of America,(212) 753-7300,40.763506,-73.97421,"Monday to Saturday: 10:00-20:00, Sunday: 11:00-19:00",,,
See By Chlo Holt Renfrew,28285,737 Dunsmuir St      ,,Vancouver,BC,V7Y 1E4,Canada,+1 604-681-3121,49.284371,-123.116439,"Monday & Tuesday: 11:00-19:00, Wednesday to Friday: 10:00-21:00, Saturday: 10:00-20:00, Sunday: 11:00-19:00",,,
See By Chlo Holt Renfrew,28286,50 Bloor St W      ,,Toronto,ON,M4W 1A1,Canada,+1 416-922-2333,43.669944,-79.389025,"Monday: 11:00-19:00, Tuesday & Wednesday 10:00-20:00, Thursday & Friday 10:00-21:00, Saturday: 10:00-20:00, Sunday: 11:00-19:00",,,
Chlo Etihad Towers,17459,Avenue At Etihad Towers ,,Abu Dhabi,,,United Arab Emirates,+971 2 681 89 88,24.459828,54.321697,"Monday 10.00am-10.00pm, Tuesday 10.00am-10.00pm, Wednesday 10.00am-10.00pm, Thursday 10.00am-10.00pm, Friday 3.00pm-11.00pm, Saturday 10.00am-10.00pm, Sunday 10.00am-10.00pm",,,
Chlo Dubai Mall,17460,Fashion Avenue - The  Mall,,Dubai,,,United Arab Emirates,+971 4 330 07 00,25.196356,55.278059,"Monday 10.00am-11.00pm, Tuesday 10.00am-11.00pm, Wednesday 10.00am-11.00pm, Thursday 10.00am-12.00pm, Friday 10.00pm-12.00pm, Saturday 10.00am-12.00pm, Sunday 10.00am-11.00pm",,,
Chlo Bloomingdale's,17461,The  Mall,,Dubai,,,United Arab Emirates,+971 5 6412 2682,25.19872591124694,55.279646515808054,"Monday 10.00am-11.00pm, Tuesday 10.00am-11.00pm, Wednesday 10.00am-11.00pm, Thursday 10.00am-12.00pm, Friday 10.00pm-12.00pm, Saturday 10.00am-12.00pm, Sunday 10.00am-11.00pm",,,
Harvey Nichols,17462,Mall of the Emirates Sheikh Zayed Road ,,Dubai,,,United Arab Emirates,+971 4 409 8888,25.1179495,55.2006225,"Monday 10.00am-10.00pm, Tuesday 10.00am-10.00pm, Wednesday 10.00am-10.00pm, Thursday 10.00am-10.00pm, Friday 10.00am-10.00pm, Saturday 10.00am-10.00pm, Sunday 10.00am-10.00pm",,,
David Jones Queens Plaza,17463,210 Queen Street  ,,Brisbane,,QLD 4000,Australia,+61 7 3243 9000,-27.467615,153.025855,"Monday 9.30am-7.00pm, Tuesday 9.30am-7.00pm, Wednesday 9.30am-7.00pm, Thursday 9.30am-9.00pm, Friday 9.30am-9.00pm, Saturday 9.30am-5.30pm, Sunday 9.30am-6.00pm",,,
David Jones Bourke Street,17464,310 Bourke Street  ,,Melbourne,,VIC 3000,Australia,+61 3 9643 2222,-37.813309,144.964402,"Monday 9.30am-7.00pm, Tuesday 9.30am-7.00pm, Wednesday 9.30am-7.00pm, Thursday 9.30am-9.00pm, Friday 9.30am-9.00pm, Saturday 9.00am-7.00pm, Sunday 9.30am-7.00pm",,,
David Jones Elizabeth Street,17465,86-108 Castlereagh Street  ,,Sydney,,NSW 2000,Australia,+61 2 9266 5544,-33.8714973,151.2094527,"Monday 9.30am-7.00pm, Tuesday 9.30am-7.00pm, Wednesday 9.30am-7.00pm, Thursday 9.30am-9.00pm, Friday 9.30am-9.00pm, Saturday 9.00am-7.00pm, Sunday 9.30am-7.00pm",,,
Chlo Port Baku,17466,Neftchiler ave 151,,Baku,,AZ1001,Azerbaidjan,+994 12 464 0724,40.3743629,49.858850200000006,"Monday 10.00am-10.00pm, Tuesday 10.00am-10.00pm, Wednesday 10.00am-10.00pm, Thursday 10.00am-10.00pm, Friday 10.00am-10.00pm, Saturday 10.00am-10.00pm, Sunday 10.00am-10.00pm",,,
Saks Fifth Avenue,17467,City Center ,,Manama,,,Bahrain,+973 1717 2000,26.23366,50.554323,"Monday 10.00am-10.00pm, Tuesday 10.00am-10.00pm, Wednesday 10.00am-10.00pm, Thursday 10.00am-12.00pm, Friday 10.00pm-12.00pm, Saturday 10.00am-10.00pm, Sunday 10.00am-10.00pm",,,
Saks Fifth Avenue Queen Street,17468,176 Yonge Street  ON ,,Toronto,,M5C2L7,Canada,416-507-3100,43.652035,-79.379795,"Monday 10.00am-9.30pm, Tuesday 10.00am-9.30pm, Wednesday 10.00am-9.30pm, Thursday 10.30am-9.00pm, Friday 10.00am-9.30pm, Saturday 9.30am-9.30pm, Sunday 10.00am-7.00pm",,,
Nordstrom Vancouver,17469,701 W Georgia St  BC ,,Vancouver,,V7Y1G5,Canada,360-256-8666,49.283601,-123.117517,"Monday 10.00am-9.00pm, Tuesday 10.00am-9.00pm, Wednesday 10.00am-9.00pm, Thursday 10.00am-9.00pm, Friday 10.00am-9.00pm, Saturday 10.00am-9.00pm, Sunday 11.00am-7.00pm",,,
Chlo China World Shopping Mall,17470,No. 1 Jianguomenwai Avenue Chaoyang District,,Beijing,,100004,China,+86 10 6505 3182,39.9097671,116.4600334,"Monday 10.00am-9.30pm, Tuesday 10.00am-9.30pm, Wednesday 10.00am-9.30pm, Thursday 10.00am-9.30pm, Friday 10.00am-9.30pm, Saturday 10.00am-9.30pm, Sunday 10.00am-9.30pm",,,
Chlo Seasons Place,17471,No. 2 Jinchengfang Street Xicheng District,,Beijing,,100032,China,+86 10 6622 0483,39.9154528,116.360968,"Monday 10.00am-9.00pm, Tuesday 10.00am-9.00pm, Wednesday 10.00am-9.00pm, Thursday 10.00am-9.00pm, Friday 10.00am-9.00pm, Saturday 10.00am-9.00pm, Sunday 10.00am-9.00pm",,,
Chlo SKP Beijing,17472,No. 87 Jianguo Road Chaoyang District,,Beijing,,100004,China,+86 10 8588 8209,39.910767,116.480017,"Monday 10.00am-8.00pm, Tuesday 10.00am-8.00pm, Wednesday 10.00am-8.00pm, Thursday 10.00am-8.00pm, Friday 10.00am-8.00pm, Saturday 10.00am-8.00pm, Sunday 10.00am-8.00pm",,,
Chlo SKP Beijing,17473,No. 87 Jianguo Road Chaoyang District,,Beijing,,100004,China,+86 10 6533 1128,39.910767,116.480037,"Monday 10.00am-8.00pm, Tuesday 10.00am-8.00pm, Wednesday 10.00am-8.00pm, Thursday 10.00am-8.00pm, Friday 10.00am-8.00pm, Saturday 10.00am-8.00pm, Sunday 10.00am-8.00pm",,,
Chlo Sino-Ocean Taikoo Li Chengdu,17474,No. 8 Shamao Middle Street Jinjiang District,,Chengdu,,610000,China,+86 28 6516 1138,30.652931,104.08139,"Monday 10.00am-8.00pm, Tuesday 10.00am-8.00pm, Wednesday 10.00am-8.00pm, Thursday 10.00am-8.00pm, Friday 10.00am-8.00pm, Saturday 10.00am-8.00pm, Sunday 10.00am-8.00pm",,,
Chlo Deji Plaza,17475,No.18 Zhongshan Road Xuanwu District,,Nanjing,,210005,China,+86 25 8677 7185,32.042785,118.784399,"Monday 10.00am-8.00pm, Tuesday 10.00am-8.00pm, Wednesday 10.00am-8.00pm, Thursday 10.00am-8.00pm, Friday 10.00am-10.30pm, Saturday 10.00am-10.30pm, Sunday 10.00am-8.00pm",,,
China Duty Free Haitang Bay Shopping Complex,17476,118 Haitang North Road  ,,Sanya,,572013,China,+86 400 699 6956,18.374503,109.750746,"Monday 10.00am-8.00pm, Tuesday 10.00am-8.00pm, Wednesday 10.00am-8.00pm, Thursday 10.00am-8.00pm, Friday 10.00am-8.00pm, Saturday 10.00am-8.00pm, Sunday 10.00am-8.00pm",,,
Chlo Citic Square,17477,No.1168 Nanjing West Road Jingan District,,Shanghai,,200041,China,+86 21 5298 4188,31.22867,121.455389,"Monday 10.00am-8.00pm, Tuesday 10.00am-8.00pm, Wednesday 10.00am-8.00pm, Thursday 10.00am-8.00pm, Friday 10.00am-8.00pm, Saturday 10.00am-8.00pm, Sunday 10.00am-8.00pm",,,
Chlo Grand Gateway,17478,No. 1 Hongqiao Road Xuhui District,,Shanghai,,200030,China,+86 21 5404 8117,31.1941189,121.4383145,"Monday 10.00am-8.00pm, Tuesday 10.00am-8.00pm, Wednesday 10.00am-8.00pm, Thursday 10.00am-8.00pm, Friday 10.00am-8.00pm, Saturday 10.00am-8.00pm, Sunday 10.00am-8.00pm",,,
Chlo IAPM,17479,No. 999 Huaihai Middle Road Xuhui District,,Shanghai,,200031,China,+86 21 5450 0031,31.2087674,121.4558769,"Monday 10.00am-11.00pm, Tuesday 10.00am-11.00pm, Wednesday 10.00am-11.00pm, Thursday 10.00am-11.00pm, Friday 10.00am-11.00pm, Saturday 10.00am-11.00pm, Sunday 10.00am-11.00pm",,,
Chlo K11 Art Mall,17480,No. 300 Huaihai Middle Road Huangpu District,,Shanghai,,200021,China,+86 21 6339 0065,31.223127,121.474092,"Monday 10.00am-8.00pm, Tuesday 10.00am-8.00pm, Wednesday 10.00am-8.00pm, Thursday 10.00am-8.00pm, Friday 10.00am-8.00pm, Saturday 10.00am-8.00pm, Sunday 10.00am-8.00pm",,,
Chlo Forum 66,17481,No. 1 Qingnian Avenue Shenhe District,,Shenyang,,110013,China,+86 24 3195 8018,41.8011728,123.4334234,"Monday 10.00am-8.00pm, Tuesday 10.00am-8.00pm, Wednesday 10.00am-8.00pm, Thursday 10.00am-8.00pm, Friday 10.00am-8.00pm, Saturday 10.00am-8.00pm, Sunday 10.00am-8.00pm",,,
Kadewe,17482,Tauentzienstrasse 21-24 ,,Berlin,,10789,Germany,+49 3021212490,52.502180,13.341310,"Monday 10.00am-8.00pm, Tuesday 10.00am-8.00pm, Wednesday 10.00am-8.00pm, Thursday 10.00am-8.00pm, Friday 10.00am-9.00pm, Saturday 9.30am-8.00pm",,,
Galeries Lafayette Berlin,17483,Friedrichstrasse 76 ,,Berlin,,10117,Germany,,52.514235,13.389450,"Monday 10.00am-8.00pm, Tuesday 10.00am-8.00pm, Wednesday 10.00am-8.00pm, Thursday 10.00am-8.00pm, Friday 10.00am-8.00pm, Saturday 10.00am-8.00pm",,,
Breuninger Dusseldorf,17484,2 konigsalle ,,Dusseldorf,,40212,Germany,+49 7112110,51.227267,6.780949,"Monday 10.00am-8.00pm, Tuesday 10.00am-8.00pm, Wednesday 10.00am-8.00pm, Thursday 10.00am-8.00pm, Friday 10.00am-9.00pm, Saturday 9.30am-8.00pm",,,
Chloe Munich,17485,Residenzstrasse 18 ,,Munich,,80333,Germany,+49 89 2285268,48.140447,11.577410,"Monday 10.00am-7.00pm, Tuesday 10.00am-7.00pm, Wednesday 10.00am-7.00pm, Thursday 10.00am-7.00pm, Friday 10.00am-7.00pm, Saturday 10.00am-6.00pm",,,
Breuninger Stuttgart,17486,Markstrasse 1-3 ,,Stuttgart,,70173,Germany,+49 7112110,48.775158,9.179925,"Monday 10.00am-8.00pm, Tuesday 10.00am-8.00pm, Wednesday 10.00am-8.00pm, Thursday 10.00am-8.00pm, Friday 10.00am-8.00pm, Saturday 9.30am-8.00pm",,,
Chlo Saint-Honor,17487,253 rue Saint-Honor paris,,Paris,,75001,France,+33 1 55 04 03 30,48.8673629,2.3267867,"Monday 11.00am-7.30pm, Tuesday 11.00am-7.30pm, Wednesday 11.00am-7.30pm, Thursday 11.00am-7.30pm, Friday 11.00am-7.30pm, Saturday 11.00am-7.30pm",,,
Chlo Montaigne,17488,50 avenue Montaigne paris,,Paris,,75008,France,+33 1 47 23 00 08,48.867721,2.3084526999999753,"Monday 10.30am-7.00pm, Tuesday 10.30am-7.00pm, Wednesday 10.30am-7.00pm, Thursday 10.30am-7.00pm, Friday 10.30am-7.00pm, Saturday 10.30am-7.00pm, Sunday 1.00pm-7.00pm",,,
Galeries Lafayette Paris Haussmann (SHOES),17489,40 boulevard Haussmann paris,,Paris,,75009,France,+33 1 45 26 64 87,48.873679,2.332244,"Monday 9.30am-8.00pm, Tuesday 9.30am-8.00pm, Wednesday 9.30am-8.00pm, Thursday 9.30am-9.00pm, Friday 9.30am-8.00pm, Saturday 9.30am-8.00pm",,,
Galeries Lafayette Paris Haussmann (ACC),17490,40 boulevard Haussmann paris,,Paris,,75009,France,+33 1 42 81 33 40,48.873679,2.332234,"Monday 9.30am-8.00pm, Tuesday 9.30am-8.00pm, Wednesday 9.30am-8.00pm, Thursday 9.30am-9.00pm, Friday 9.30am-8.00pm, Saturday 9.30am-8.00pm",,,
Le Printemps Paris Haussmann (ACC),17491,64 boulevard Haussmann paris,,Paris,,75009,France,+33 1 42 82 42 29,48.8738415,2.3280918,"Monday 9.35am-8.00pm, Tuesday 9.35am-8.00pm, Wednesday 9.35am-8.00pm, Thursday 9.35am-8.45pm, Friday 9.35am-8.00pm, Saturday 9.35am-8.00pm",,,
Le Printemps Paris Haussmann (RTW),17492,2nd floor - 64 boulevard Haussmann,,Paris,,75009,France,"+33, 1 53 16 49 45",48.8738415,2.3280818,"Monday 9.35am-8.00pm, Tuesday 9.35am-8.00pm, Wednesday 9.35am-8.00pm, Thursday 9.35am-8.45pm, Friday 9.35am-8.00pm, Saturday 9.35am-8.00pm",,,
Le Bon March (ACC),17493,24 rue de Sèvres paris,,Paris,,75007,France,+33 1 44 39 80 00,48.850795,2.324591,"Monday 10.00am-8.00pm, Tuesday 10.00am-8.00pm, Wednesday 10.00am-8.00pm, Thursday 10.00am-9.00pm, Friday 10.00am-9.00pm, Saturday 10.00am-8.00pm",,,
Le Bon March (PAP),17494,24 rue de Sèvres paris,,Paris,,75007,France,+33 1 42 22 68 55,48.850795,2.324581,"Monday 10.00am-8.00pm, Tuesday 10.00am-8.00pm, Wednesday 10.00am-8.00pm, Thursday 10.00am-9.00pm, Friday 10.00am-9.00pm, Saturday 10.00am-8.00pm",,,
Le Printemps Louvre (ACC),17495,Caroussel du Louvre 99 rue Rivoli paris,,Paris,,75001,France,"+33 1, 76 77 41 00",48.8610105,2.335852700000032,"Monday 9.30am-8.00pm, Tuesday 10.00am-8.00pm, Wednesday 9.30am-8.00pm, Thursday 9.30am-8.00pm, Friday 9.30am-8.00pm, Saturday 10.00am-8.00pm, Sunday 9.30am-8.00pm",,,
Les Galeries Lafayette (ACC),17496,34 rue du 22 Novembre paris,,Strasbourg,,67000,France,+33 3 88 15 23 00,48.5823451,7.7451215,"Monday 9.00am-8.00pm, Tuesday 9.00am-8.00pm, Wednesday 9.00am-8.00pm, Thursday 9.00am-8.00pm, Friday 9.00am-8.00pm, Saturday 9.00am-8.00pm",,,
Galeries Lafayette Nice Massna,17497,6 avenue Jean Mdecin ,,Nice,,06000,France,+33 4 93 88 66 64,43.698702,7.26943,"Monday 9.30am-8.00pm, Tuesday 9.30am-8.00pm, Wednesday 9.30am-8.00pm, Thursday 9.30am-8.00pm, Friday 9.30am-8.00pm, Saturday 9.30am-8.00pm, Sunday 11.00am-8.00pm",,,
Chlo Saint-Tropez,17498,29 place de la Garonne ,,Saint-Tropez,,83990,France,+33 4 94 56 98 69,43.2713629099543,6.640192063229392,"Monday 10.00am-7.00pm, Tuesday 10.00am-7.00pm, Wednesday 10.00am-7.00pm, Thursday 10.00am-7.00pm, Friday 10.00am-7.00pm, Saturday 10.00am-7.00pm, Sunday 10.00am-7.00pm",,,
Le Printemps Paris Haussmann (SHOES),17499,Fifth Floor - 64 boulevard Haussmann,,Paris,,75009,France,+33 1 42 82 42 29,48.8738415,2.3280818,"Monday 9.35am-8.00pm, Tuesday 9.35am-8.00pm, Wednesday 9.35am-8.00pm, Thursday 9.35am-8.45pm, Friday 9.35am-8.00pm, Saturday 9.35am-8.00pm",,,
Le Bon March (SHOES),17500,24 rue de Sèvres,,Paris,,75007,France,+33 1 44 39 80 00,48.850795,2.324591,"Monday 10.00am-8.00pm, Tuesday 10.00am-8.00pm, Wednesday 10.00am-8.00pm, Thursday 10.00am-9.00pm, Friday 10.00am-9.00pm, Saturday 10.00am-8.00pm",,,
Chlo Sloane Street,17501,152-153 Sloane street ,,London,,SW1X 9BX,United Kingdom,+44 207 823 5348,51.4937412,-0.1578505,"Monday 10.00am-6.00pm, Tuesday 10.00am-6.00pm, Wednesday 10.00am-7.00pm, Thursday 10.00am-6.00pm, Friday 10.00am-6.00pm, Saturday 10.00am-6.00pm",,,
Selfridges & Co (RTW),17502,400 Oxford street ,,London,,W1A 1AB,United Kingdom,+44 207 318 3469,51.5144395,-0.152959,"Monday 9.30am-9.00pm, Tuesday 9.30am-9.00pm, Wednesday 9.30am-9.00pm, Thursday 9.30am-9.00pm, Friday 9.30am-9.00pm, Saturday 9.30am-9.00pm, Sunday 11.30am-6.00pm",,,
Selfridges &  (ACC),17503,400 Oxford Street ,,London,,W1A 1AB,United Kingdom,+44 207 318 7763,51.5144395,-0.152959,"Monday 9.30am-9.00pm, Tuesday 9.30am-9.00pm, Wednesday 9.30am-9.00pm, Thursday 9.30am-9.00pm, Friday 9.30am-9.00pm, Saturday 9.30am-9.00pm, Sunday 11.30am-6.00pm",,,
Harrod's,17504,87-135 Brompton Road Knightsbridge ,,London,,SW1X 7XL,United Kingdom,+44 207 730 1234 ext. 2409,51.4992564,-0.1634647,"Monday 10.00am-9.00pm, Tuesday 10.00am-9.00pm, Wednesday 10.00am-9.00pm, Thursday 10.00am-9.00pm, Friday 10.00am-9.00pm, Saturday 10.00am-9.00pm, Sunday 11.30am-6.00pm",,,
Harrod's (ACC),17505,87-135 Brompton Road Knightsbridge ,,London,,SW1X 7XL,United Kingdom,+44 207 730 1234 ext. 2445,51.4992564,-0.1634647,"Monday 10.00am-9.00pm, Tuesday 10.00am-9.00pm, Wednesday 10.00am-9.00pm, Thursday 10.00am-9.00pm, Friday 10.00am-9.00pm, Saturday 10.00am-9.00pm, Sunday 11.30am-6.00pm",,,
Guam AB Won Pat Internationl Airport,17506,AB Won Pat International Airport Bldg  ,,Tamuning,,96913,Guam,+16 719 696 075,13.4692265,144.7982747,"Monday 10.00am-8.00pm, Tuesday 10.00am-8.00pm, Wednesday 10.00am-8.00pm, Thursday 10.00am-8.00pm, Friday 10.00am-8.00pm, Saturday 10.00am-8.00pm, Sunday 10.00am-8.00pm",,,
DFS Galleria Guam,17507,1296 Pale San Vitores Road  ,,Tumon Bay,,96911,Guam,+16 716 469 640,13.514224,144.806245,"Monday 10.00am-11.00pm, Tuesday 10.00am-11.00pm, Wednesday 10.00am-11.00pm, Thursday 10.00am-11.00pm, Friday 10.00am-11.00pm, Saturday 10.00am-11.00pm, Sunday 10.00am-11.00pm",,,
Tumon Sands Plaza,17508,1082 Pale San Vitores Road Tumon ,,Tumon Bay,,96913,Guam,+16 716 464 813,13.509637,144.805618,"Monday 10.00am-8.00pm, Tuesday 10.00am-8.00pm, Wednesday 10.00am-8.00pm, Thursday 10.00am-8.00pm, Friday 10.00am-8.00pm, Saturday 10.00am-8.00pm, Sunday 10.00am-8.00pm",,,
Chlo Boutique Prince's Building,17509,Prince’s Building Central ,,Hong Kong,,,Hong Kong,+852 2807 1101,22.281174,114.159229,"Monday 10.30am-7.30pm, Tuesday 10.30am-7.30pm, Wednesday 10.30am-7.30pm, Thursday 10.30am-7.30pm, Friday 10.30am-7.30pm, Saturday 10.30am-7.30pm, Sunday 10.30am-7.30pm",,,
Chlo Boutique Pacific Place,17510,88 Queensway Admiralty ,,Hong Kong,,,Hong Kong,+852 2918 1686,22.2772884,114.1653165,"Monday 10.00am-8.00pm, Tuesday 10.00am-8.00pm, Wednesday 10.00am-8.00pm, Thursday 10.00am-8.00pm, Friday 10.00am-8.00pm, Saturday 10.00am-8.00pm, Sunday 10.00am-8.00pm",,,
Chlo Boutique ifc,17511,8 Finance Street Central ,,Hong Kong,,,Hong Kong,+852 2234 7820,22.286047,114.157409,"Monday 10.00am-8.00pm, Tuesday 10.00am-8.00pm, Wednesday 10.00am-8.00pm, Thursday 10.00am-8.00pm, Friday 10.00am-8.00pm, Saturday 10.00am-8.00pm, Sunday 10.00am-8.00pm",,,
Chlo Boutique Sogo,17512,Sogo Causeway Bay ,,Hong Kong,,,Hong Kong,+852 2575 2188,22.2803676,114.1846507,"Monday 10.00am-8.00pm, Tuesday 10.00am-8.00pm, Wednesday 10.00am-8.00pm, Thursday 10.00am-8.00pm, Friday 10.00am-10.30pm, Saturday 10.00am-10.30pm, Sunday 10.00am-8.00pm",,,
Chlo Boutique Harbour City,17513,Gateway Arcade Harbour City Kowloon ,,Hong Kong,,,Hong Kong,+852 2175 5091,22.298273,114.168259,"Monday 10.00am-8.00pm, Tuesday 10.00am-8.00pm, Wednesday 10.00am-8.00pm, Thursday 10.00am-8.00pm, Friday 10.00am-8.00pm, Saturday 10.00am-8.00pm, Sunday 10.00am-8.00pm",,,
Lane Crawford IFC Mall,17514,8 Finance Street Central ,,Hong Kong,,,Hong Kong,+852 2118 2288,22.286047,114.157409,"Monday 10.00am-9.00pm, Tuesday 10.00am-9.00pm, Wednesday 10.00am-9.00pm, Thursday 10.00am-9.00pm, Friday 10.00am-9.00pm, Saturday 10.00am-9.00pm, Sunday 10.00am-9.00pm",,,
Lane Crawford Times Square,17515,1 Matheson Street Causeway Bay ,,Hong Kong,,,Hong Kong,+852 2118 2288,22.2781406,114.17997,"Monday 10.00am-8.00pm, Tuesday 10.00am-8.00pm, Wednesday 10.00am-8.00pm, Thursday 10.00am-8.00pm, Friday 10.00am-8.00pm, Saturday 10.00am-8.00pm, Sunday 10.00am-8.00pm",,,
Lane Crawford Canton Road,17516,3 Canton Road Tsim Sha Tsui ,,Hong Kong,,,Hong Kong,+852 2118 2288,22.2951887,114.1669614,"Monday 10.00am-8.00pm, Tuesday 10.00am-8.00pm, Wednesday 10.00am-8.00pm, Thursday 10.00am-8.00pm, Friday 10.00am-8.00pm, Saturday 10.00am-8.00pm, Sunday 10.00am-8.00pm",,,
La Rinascente (ACC),17517,Piazza Duomo,,Milano,,20121,Italy,+39 02 885 2210,45.4644355,9.1919379,"Monday 9.30am-9.00pm, Tuesday 9.30am-9.00pm, Wednesday 9.30am-9.00pm, Thursday 9.30am-9.00pm, Friday 9.30am-10.00pm, Saturday 9.30am-10.00pm, Sunday 10.00am-10.00pm",,,
La Rinascente (RTW),17518,Piazza Duomo,,Milano,,20121,Italy,+39 02 8909 2265,45.4644355,9.1919479,"Monday 9.30am-9.00pm, Tuesday 9.30am-9.00pm, Wednesday 9.30am-9.00pm, Thursday 9.30am-9.00pm, Friday 9.30am-10.00pm, Saturday 10.00am-10.00pm, Sunday 10.00am-10.00pm",,,
Chlo Spiga,17519,Via della Spiga 30   Italie,,Milano,,20121,Italy,+39 02 3035 7401,45.470615,9.196382500000027,"Monday 10.00am-7.00pm, Tuesday 10.00am-7.00pm, Wednesday 10.00am-7.00pm, Thursday 10.00am-7.00pm, Friday 10.00am-7.00pm, Saturday 10.00am-7.00pm, Sunday 10.00am-7.00pm",,,
La Rinascente (SHOES),17520,Piazza Duomo,,Milano,,20121,Italy,+39 02 720 94621,45.4644355,9.1919379,"Monday 9.30am-9.00pm, Tuesday 9.30am-9.00pm, Wednesday 9.30am-9.00pm, Thursday 9.30am-9.00pm, Friday 9.30am-10.00pm, Saturday 9.30am-10.00pm, Sunday 10.00am-9.00pm",,,
Chiba Sogo (ACC),17521,1000 Shinmachi Chuo-ku,,Chiba,,260-8557,Japan,+81 43 245 8061,35.611513,140.113274,"Monday 10.00am-8.00pm, Tuesday 10.00am-8.00pm, Wednesday 10.00am-8.00pm, Thursday 10.00am-8.00pm, Friday 10.00am-8.00pm, Saturday 10.00am-8.00pm, Sunday 10.00am-8.00pm",,,
Narita International Airport,17522,Narita International Airport C3087 Passenger Terminal 1 North Wing Narita-shi  ,,Chiba,,282-0004,Japan,+81 476 30 0133,35.765804,140.384345,"Monday 8.00am-8.30pm, Tuesday 8.00am-8.30pm, Wednesday 8.00am-8.30pm, Thursday 8.00am-8.30pm, Friday 8.00am-8.30pm, Saturday 8.00am-8.30pm, Sunday 8.00am-8.30pm",,,
Fukuoka Iwataya,17523,2-5-35 Tenjin Chuo-Ku,,Fukuoka,,810-8680,Japan,+81 92 716 7277,33.589577,130.397677,"Monday 10.00am-8.00pm, Tuesday 10.00am-8.00pm, Wednesday 10.00am-8.00pm, Thursday 10.00am-8.00pm, Friday 10.00am-8.00pm, Saturday 10.00am-8.00pm, Sunday 10.00am-8.00pm",,,
Hakata Daimaru (ACC),17524,1-4-1 Tenjin Chuo-Ku,,Fukuoka,,810-8717,Japan,+81 92 716 6216,33.588682,130.401136,"Monday 10.00am-8.00pm, Tuesday 10.00am-8.00pm, Wednesday 10.00am-8.00pm, Thursday 10.00am-8.00pm, Friday 10.00am-8.00pm, Saturday 10.00am-8.00pm, Sunday 10.00am-8.00pm",,,
Hiroshima Mitsukoshi,17525,5-1 Ebisu-Cho Naka-ku,,Hiroshima,,730-8545,Japan,+81 82 243 2106,34.3932767,132.4645315,"Monday 10.30am-7.30pm, Tuesday 10.30am-7.30pm, Wednesday 10.30am-7.30pm, Thursday 10.30am-7.30pm, Friday 10.30am-7.30pm, Saturday 10.30am-7.30pm, Sunday 10.30am-7.30pm",,,
Kobe Daimaru,17526,40 Akashi-cho Chuo-ku,,Kobe,,650-0037,Japan,+81 78 331 5772,34.6886165,135.1900485,"Monday 10.00am-8.00pm, Tuesday 10.00am-8.00pm, Wednesday 10.00am-8.00pm, Thursday 10.00am-8.00pm, Friday 10.00am-8.00pm, Saturday 10.00am-8.00pm, Sunday 10.00am-8.00pm",,,
Kyoto Daimaru,17527,79 Takakura-nishi hairu tachiurinishi-cyo shijyo-dori shimogyou-ku,,Kyoto,,600-8511,Japan,+81 75 221 1667,35.0040888,135.7615536,"Monday 10.00am-8.00pm, Tuesday 10.00am-8.00pm, Wednesday 10.00am-8.00pm, Thursday 10.00am-8.00pm, Friday 10.00am-8.00pm, Saturday 10.00am-8.00pm, Sunday 10.00am-8.00pm",,,
Nagoya Mitsukoshi,17529,3-5-1 Sakae Naka-Ku,,Nagoya,,460-8669,Japan,+81 52 252 1703,35.168265,136.907641,"Monday 10.00am-8.00pm, Tuesday 10.00am-8.00pm, Wednesday 10.00am-8.00pm, Thursday 10.00am-8.00pm, Friday 10.00am-8.00pm, Saturday 10.00am-8.00pm, Sunday 10.00am-8.00pm",,,
Nagoya Matsuzakaya (ACC),17530,3-16-1Sakae Naka-ku,,Nagoya,,460-8430,Japan,+81 52-252-2556,35.1653664,136.9077725,"Monday 10.00am-8.00pm, Tuesday 10.00am-8.00pm, Wednesday 10.00am-8.00pm, Thursday 10.00am-8.00pm, Friday 10.00am-8.00pm, Saturday 10.00am-8.00pm, Sunday 10.00am-8.00pm",,,
Shinsaibashi Daimaru,17531,1-7-1 Shinsaibashi-Suji Chuo-Ku,,Osaka,,542-8501,Japan,+81 6 6281 5058,34.6731108,135.500987,"Monday 10.00am-8.30pm, Tuesday 10.00am-8.30pm, Wednesday 10.00am-8.30pm, Thursday 10.00am-8.30pm, Friday 10.00am-8.30pm, Saturday 10.00am-8.30pm, Sunday 10.00am-8.30pm",,,
Umeda Hankyu,17532,8-7 Kakudacho Kita-Ku,,Osaka,,530-8350,Japan,+81 6 6313 7385,34.7028033,135.4985151,"Monday 10.00am-8.00pm, Tuesday 10.00am-8.00pm, Wednesday 10.00am-8.00pm, Thursday 10.00am-8.00pm, Friday 10.00am-9.00pm, Saturday 10.00am-9.00pm, Sunday 10.00am-8.00pm",,,
Osaka Takashimaya,17533,5-1-5 Namba Chuo-ku,,Osaka,,542-8510,Japan,+81 6 6631 6770,34.6642675,135.5017445,"Monday 10.00am-8.00pm, Tuesday 10.00am-8.00pm, Wednesday 10.00am-8.00pm, Thursday 10.00am-8.00pm, Friday 10.00am-8.00pm, Saturday 10.00am-8.00pm, Sunday 10.00am-8.00pm",,,
Kansai International Airport,17534,Naka 1-Banch Sensyu Kuko Tajiri-cho Sennan-gun  ,,Osaka,,549-8681,Japan,+81 72 456 6494,34.3832225,135.2643674,"Monday 7.15am-10.30pm, Tuesday 7.15am-10.30pm, Wednesday 7.15am-10.30pm, Thursday 7.15am-10.30pm, Friday 7.15am-10.30pm, Saturday 7.15am-10.30pm, Sunday 7.15am-10.30pm",,,
Umeda Hankyu (ACC),17535,8-7 Kakudacho Kita-Ku,,Osaka,,530-8350,Japan,+81 6 6313 0464,34.7028033,135.4985151,"Monday 10.00am-8.00pm, Tuesday 10.00am-8.00pm, Wednesday 10.00am-8.00pm, Thursday 10.00am-8.00pm, Friday 10.00am-9.00pm, Saturday 10.00am-9.00pm, Sunday 10.00am-8.00pm",,,
Sapporo Marui-Imai,17536,2 Minami-Ichijo Nishi Chuo-ku,,Sapporo,,060-0061,Japan,+81 11 219 3530,43.0573117,141.3426122,"Monday 10.00am-7.30pm, Tuesday 10.00am-7.30pm, Wednesday 10.00am-7.30pm, Thursday 10.00am-7.30pm, Friday 10.00am-7.30pm, Saturday 10.00am-7.30pm, Sunday 10.00am-7.30pm",,,
Shinjuku Isetan,17537,3-14-1 Shinjuku Shinjuku-ku,,Tokyo,,160-0022,Japan,+81 3 5369 3503,35.6909529,139.7071356,"Monday 10.30am-8.00pm, Tuesday 10.30am-8.00pm, Wednesday 10.30am-8.00pm, Thursday 10.30am-8.00pm, Friday 10.30am-8.00pm, Saturday 10.30am-8.00pm, Sunday 10.30am-8.00pm",,,
Ginza Matsuya,17538,3-6-1 Ginza Chuo-Ku,,Tokyo,,104-8130,Japan,+81 3 3563 2271,35.6722083,139.7670566,"Monday 10.00am-8.00pm, Tuesday 10.00am-8.00pm, Wednesday 10.00am-8.00pm, Thursday 10.00am-8.00pm, Friday 10.00am-8.00pm, Saturday 10.00am-8.00pm, Sunday 10.00am-8.00pm",,,
Ikebukuro Seibu,17539,1-28-1Minami-Ikebukuro Toshima-ku,,Tokyo,,171-8569,Japan,+81 3 3989 7288,35.7290836,139.711647,"Monday 10.00am-9.00pm, Tuesday 10.00am-9.00pm, Wednesday 10.00am-9.00pm, Thursday 10.00am-9.00pm, Friday 10.00am-9.00pm, Saturday 10.00am-9.00pm, Sunday 10.00am-8.00pm",,,
Shibuya Seibu,17540,21-1 Udagawacho Shibuya-ku,,Tokyo,,150-8330,Japan,+81 3 5728 6506,35.660027,139.7009041,"Monday 10.00am-9.00pm, Tuesday 10.00am-9.00pm, Wednesday 10.00am-9.00pm, Thursday 10.00am-9.00pm, Friday 10.00am-9.00pm, Saturday 10.00am-9.00pm, Sunday 10.00am-8.00pm",,,
Tokyo Daimaru (ACC),17541,1-9-1 Marunouchi Chiyoda-ku,,Tokyo,,100-6701,Japan,+81 3 3287 3338,35.681422,139.7690261,"Monday 10.00am-8.00pm, Tuesday 10.00am-8.00pm, Wednesday 10.00am-8.00pm, Thursday 10.00am-8.00pm, Friday 10.00am-9.00pm, Saturday 10.00am-9.00pm, Sunday 10.00am-8.00pm",,,
Shinjuku Isetan (ACC),17542,3-14-1 Shinjuku Shinjuku-ku,,Tokyo,,160-0022,Japan,+81 3 3352 1111,35.6909529,139.7071356,"Monday 10.30am-8.00pm, Tuesday 10.30am-8.00pm, Wednesday 10.30am-8.00pm, Thursday 10.30am-8.00pm, Friday 10.30am-8.00pm, Saturday 10.30am-8.00pm, Sunday 10.30am-8.00pm",,,
Ginza Mitsukoshi (ACC),17543,4-6-16 Ginza Chuo-Ku,,Tokyo,,104-8212,Japan,+81 3 3562 1182,35.6748136,139.7667627,"Monday 10.30am-8.00pm, Tuesday 10.30am-8.00pm, Wednesday 10.30am-8.00pm, Thursday 10.30am-8.00pm, Friday 10.30am-8.00pm, Saturday 10.30am-8.00pm, Sunday 10.30am-8.00pm",,,
Tokyo Haneda Airport,17544,International Passenger Terminal Bldg. 6-5 Haneda Airport 2-chome Ohta-ku  ,,Tokyo,,144-0041,Japan,+81 3 6428 0410,35.549424,139.779823,"Monday 10.00am-8.00pm, Tuesday 10.00am-8.00pm, Wednesday 10.00am-8.00pm, Thursday 10.00am-8.00pm, Friday 10.00am-8.00pm, Saturday 10.00am-8.00pm, Sunday 10.00am-8.00pm",,,
Yokohama Sogo,17545,2-18-1 Takashima Nishi-Ku,,Yokohama,,220-8510,Japan,+81 45 451 0164,35.4654415,139.6258424,"Monday 10.00am-8.00pm, Tuesday 10.00am-8.00pm, Wednesday 10.00am-8.00pm, Thursday 10.00am-8.00pm, Friday 10.00am-8.00pm, Saturday 10.00am-8.00pm, Sunday 10.00am-8.00pm",,,
Yokohama Takashimaya,17546,1-6-31 Minami-Saiwai Nishi-ku,,Yokohama,,220-8601,Japan,+81 45 324 0522,35.465893,139.620576,"Monday 10.00am-8.00pm, Tuesday 10.00am-8.00pm, Wednesday 10.00am-8.00pm, Thursday 10.00am-8.00pm, Friday 10.00am-8.00pm, Saturday 10.00am-8.00pm, Sunday 10.00am-8.00pm",,,
Shinsegae Main,17556,52-50 Ga Chungmuro 1ga Jung-Gu  ,,Seoul,,100011 -- 100747,South Korea,"+82 2, 310 1633",37.560694,126.981553,"Monday 10.30am-8.00pm, Tuesday 10.30am-8.00pm, Wednesday 10.30am-8.00pm, Thursday 10.30am-8.00pm, Friday 10.30am-8.00pm, Saturday 10.30am-8.00pm, Sunday 10.30am-8.00pm",,,
Lotte Sogong Duty Free,17558,1 Sogong-dong Jung-Ku  ,,Seoul,,100-070,South Korea,+82 2 759 6638,37.565424,126.981061,"Monday 9.30am-8.00pm, Tuesday 9.30am-8.00pm, Wednesday 9.30am-8.00pm, Thursday 9.30am-8.00pm, Friday 9.30am-8.00pm, Saturday 9.30am-8.00pm, Sunday 9.30am-8.00pm",,,
Chlo Boutique Al Thuraya Mall,17559,Al Thuraya Mall Salem Al Mubarek Street Salmiya ,,Kuwait City,,,Kuwait,+965 2 572 99 26/7,29.344427,48.080463,"Monday 9.45am-1.45pm/4.45pm-9.30pm, Tuesday 9.45am-1.45pm/4.45pm-9.30pm, Wednesday 9.45am-1.45pm/4.45pm-9.30pm, Thursday 9.45am-1.45pm/4.45pm-9.30pm, Friday 9.45am-1.45pm/4.45pm-9.30pm, Saturday 9.45am-1.45pm/4.45pm-9.30pm, Sunday 9.45am-1.45pm/4.45pm-9.30pm",,,
Chlo Villa dei Fiori,17560,140a Al-Farabi ave,,Almaty,,050000,Kazakhstan,+ 7 727 315 88 69,43.1947874,76.8885325,"Monday 10.00am-10.00pm, Tuesday 10.00am-10.00pm, Wednesday 10.00am-10.00pm, Thursday 10.00am-10.00pm, Friday 10.00am-10.00pm, Saturday 10.00am-10.00pm, Sunday 10.00am-10.00pm",,,
Chlo Boutique Beirut Souks,17561, Souks Fakhry Bay Street Central district ,,Beirut,,,Lebanon,+961 1 991 111 ext. 580,33.900377,35.503892,"Monday 10.00am-10.00pm, Tuesday 10.00am-10.00pm, Wednesday 10.00am-10.00pm, Thursday 10.00am-10.00pm, Friday 10.00am-10.00pm, Saturday 10.00am-10.00pm, Sunday 10.00am-10.00pm",,,
Aishti Foundation Seaside,17562,Seaside Road Jal El Dib ,,Beirut,,,Lebanon,"+961 4 717 716, ext. 215",,,"Monday 10.00am-10.00pm, Tuesday 10.00am-10.00pm, Wednesday 10.00am-10.00pm, Thursday 10.00am-10.00pm, Friday 10.00am-10.00pm, Saturday 10.00am-10.00pm, Sunday 10.00am-10.00pm",,,
De Bijenkorf,17563,De Bijenkorf Dam 1,,Amsterdam,,1012 JS,Netherlands,+31 90 00 919,51.227267,6.780949,"Monday 11.00am-7.00pm, Tuesday 10.00am-7.00pm, Wednesday 10.00am-7.00pm, Thursday 10.00am-9.00pm, Friday 10.00am-9.00pm, Saturday 9.30am-7.00pm, Sunday 11.00am-7.00pm",,,
Fiesta Mall Duty Free,17564,Ninoy Aquino Avenue ,,Paranaque City,,1700,Philippines,+63 (2) 552 4337,14.51433,121.005715,"Monday 9.00am-9.00pm, Tuesday 9.00am-9.00pm, Wednesday 9.00am-9.00pm, Thursday 9.00am-9.00pm, Friday 9.00am-9.00pm, Saturday 9.00am-9.00pm, Sunday 9.00am-9.00pm",,,
Ninoy Aquino Airport Duty Free,17565,Ninoy Aquino International Airport ,,Pasay City,,1300,Philippines,+63 (2) 879 6047,14.50585,121.004661,"Monday 12.00am-12.00pm, Tuesday 12.00am-12.00pm, Wednesday 12.00am-12.00pm, Thursday 12.00am-12.00pm, Friday 12.00am-12.00pm, Saturday 12.00am-12.00pm, Sunday 12.00am-12.00pm",,,
Chlo Boutique The Pearl Qatar,17566,The Pearl  Via Marsa Arabia ,,Doha,,,Qatar,+974 66 00 7433,25.370802,51.540174,"Monday 10.00am-10.00pm, Tuesday 10.00am-10.00pm, Wednesday 10.00am-10.00pm, Thursday 10.00am-10.00pm, Friday 10.00am-10.00pm, Saturday 10.00am-10.00pm, Sunday 10.00am-10.00pm",,,
TSUM,17567,TSUM,,Moscow,,125009,Russia,+7 495 933 73 00,55.7605081,37.61987529999999,"Monday 11.00am-10.00pm, Tuesday 11.00am-10.00pm, Wednesday 11.00am-10.00pm, Thursday 11.00am-10.00pm, Friday 11.00am-10.00pm, Saturday 11.00am-10.00pm, Sunday 11.00am-10.00pm",,,
Chlo Luxury Village,17568,Barvikha Luxury Village,,Moscow,,143083,Russia,+7 495 225 88 76,55.7441946,37.28622089999999,"Monday 11.00am-8.00pm, Tuesday 11.00am-8.00pm, Wednesday 11.00am-8.00pm, Thursday 11.00am-8.00pm, Friday 11.00am-8.00pm, Saturday 11.00am-8.00pm, Sunday 11.00am-8.00pm",,,
Chlo Ekaterinburg,17569,99 Sakko i Vantsetti str,,Ekaterinburg,,620014,Russia,+7 343 214 92 07,56.8308042,60.59115799999995,"Monday 11.00am-9.00pm, Tuesday 11.00am-9.00pm, Wednesday 11.00am-9.00pm, Thursday 11.00am-9.00pm, Friday 11.00am-9.00pm, Saturday 11.00am-9.00pm, Sunday 11.00am-9.00pm",,,
Chlo Boutique El-Khayyat Center,17570,Thalia Street  ,,Jeddah,,21471,Kingdom of Saudi Arabia,+966 1 228 366 77,,,"Monday 10.00am-11.00pm, Tuesday 10.00am-11.00pm, Wednesday 10.00am-11.00pm, Thursday 10.00am-11.00pm, Friday 4.30pm-11.00pm, Saturday 10.00am-11.00pm, Sunday 10.00am-11.00pm",,,
Chlo Boutique Centria Mall,17571,Prince Muhammad Ibn Abdulaziz Rd Al Olaya  ,,Riyadh,,12241,Kingdom of Saudi Arabia,+966 11 222 2849,24.698209,46.683918,"Monday 10.00am-11.00pm, Tuesday 10.00am-11.00pm, Wednesday 10.00am-11.00pm, Thursday 10.00am-11.00pm, Friday 4.30pm-11.00pm, Saturday 10.00am-11.00pm, Sunday 10.00am-11.00pm",,,
DFS Singapore Changi Airport,17572,Changi Airport ,,Singapore,,918142,Singapore,+65 6891 9168,1.364399,103.991756,"Monday 6.00am-00.00am, Tuesday 6.00am-00.00am, Wednesday 6.00am-00.00am, Thursday 6.00am-00.00am, Friday 6.00am-00.00am, Saturday 6.00am-00.00am, Sunday 6.00am-00.00am",,,
The Emporium,17573,622 Sukhumvit 24 Road Klongton Klongtoey  ,,Bangkok,,10110,Thailand,+66 2 6647474,22.352734,114.1277,"Monday 10.00am-8.00pm, Tuesday 10.00am-8.00pm, Wednesday 10.00am-8.00pm, Thursday 10.00am-8.00pm, Friday 10.00am-8.00pm, Saturday 10.00am-8.00pm, Sunday 10.00am-8.00pm",,,
Beymen Zorlu Center,17574,Zorlu Alışveriş Merkezi - Zincirlikuyu,,Istanbul,,34340,Turkey,+90 212 306 33 00,41.0673602,29.0156091,"Monday 10.00am-10.00pm, Tuesday 10.00am-10.00pm, Wednesday 10.00am-10.00pm, Thursday 10.00am-10.00pm, Friday 10.00am-10.00pm, Saturday 10.00am-10.00pm, Sunday 10.00am-10.00pm",,,
Chlo Boutique Far Eastern Top City,17575,No.251 Sec. 3  Blvd. Xitun Dist.  ,,Taichung,,407,Taiwan,+886 4 2258 7689,24.164372,120.64424,"Monday 11.00am-8.00pm, Tuesday 11.00am-8.00pm, Wednesday 11.00am-10.30pm, Thursday 11.00am-8.00pm, Friday 11.00am-8.00pm, Saturday 10.30am-8.00pm, Sunday 10.30am-8.00pm",,,
Chlo Boutique Breeze Center,17576,No. 39 Sec. 1 Fuxing S. Rd. Songshan Dist.  City ,,Taipei,,105,Taiwan,+886 2 8772 1296,25.0459816,121.5439898,"Monday 11.00am-9.30pm, Tuesday 11.00am-9.30pm, Wednesday 11.00am-9.30pm, Thursday 11.00am-8.00pm, Friday 11.00am-8.00pm, Saturday 11.00am-8.00pm, Sunday 11.00am-9.30pm",,,
Chlo Boutique Mitsukoshi A9,17577,No.9 Songshou Rd. Xinyi Dist.  City ,,Taipei,,110,Taiwan,+886 2 2723 2838,25.0356934,121.5673196,"Monday 11.00am-9.30pm, Tuesday 11.00am-9.30pm, Wednesday 11.00am-9.30pm, Thursday 11.00am-9.30pm, Friday 11.00am-8.00pm, Saturday 11.00am-8.00pm, Sunday 11.00am-9.30pm",,,
Chlo Boutique Sogo,17578,No.246 Sec. 1 Dunhua S. Rd. Songshan Dist.  City ,,Taipei,,105,Taiwan,+886 2 2711 2329,25.0402999,121.5483088,"Monday 11.00am-9.30pm, Tuesday 11.00am-9.30pm, Wednesday 11.00am-9.30pm, Thursday 11.00am-9.30pm, Friday 11.00am-8.00pm, Saturday 11.00am-8.00pm, Sunday 11.00am-9.30pm",,,
Everrich Neihu Downtown Duty Free Shop,17579,No.129 Jinzhuang Rd. Neihu Dist.  City ,,Taipei,,11469,Taiwan,+886 2 8792 3999,25.063677,121.587638,"Monday 8.00am-9.00pm, Tuesday 8.00am-9.00pm, Wednesday 8.00am-9.00pm, Thursday 8.00am-9.00pm, Friday 8.00am-9.00pm, Saturday 8.00am-9.00pm, Sunday 8.00am-9.00pm",,,
Taoyuan International Airport,17580,Taoyuan International Airport Terminal 2 International departure hall No.9 Hangzhan S.Road Dayuan Township,,Taipei,,33758,Taiwan,+886 8 0009 8668,25.080098,121.23426,"Monday 6.00am-11.00pm, Tuesday 6.00am-11.00pm, Wednesday 6.00am-11.00pm, Thursday 6.00am-11.00pm, Friday 6.00am-11.00pm, Saturday 6.00am-11.00pm, Sunday 6.00am-11.00pm",,,
Chlo Kyiv,17581,15/4 Khreshatyk str,,Kyiv,,01001,Ukraine,+38 44 278 21 99,50.4523817,30.526471700000002,"Monday 10.00am-9.00pm, Tuesday 10.00am-9.00pm, Wednesday 10.00am-9.00pm, Thursday 10.00am-9.00pm, Friday 10.00am-9.00pm, Saturday 10.00am-9.00pm, Sunday 10.00am-9.00pm",,,
Chlo Boutique Bal Harbour,17582,9700 Collins Avenue  ,,Bal Harbour,FL,33154,United States,305-861-1909,25.888618,-80.125234,"Monday 10.00am-9.00pm, Tuesday 10.00am-9.00pm, Wednesday 10.00am-9.00pm, Thursday 10.00am-9.00pm, Friday 10.00am-9.00pm, Saturday 10.00am-8.00pm, Sunday 12.00am-6.00pm",,,
Nordstrom Bellevue,17583,100  Square  ,,Bellevue,WA,98004,United States,425-455-5800,47.617255,-122.204108,"Monday 10.00am-9.00pm, Tuesday 10.00am-9.00pm, Wednesday 10.00am-9.00pm, Thursday 10.00am-9.00pm, Friday 10.00am-9.00pm, Saturday 10.00am-9.00pm, Sunday 11.00am-7.00pm",,,
Barneys New York Beverly Hills,17584,9470 Wilshire Blvd  ,,Beverly Hills,CA,90212,United States,310-276-4400,34.066981,-118.399909,"Monday 10.00am-7.00pm, Tuesday 10.00am-7.00pm, Wednesday 10.00am-7.00pm, Thursday 10.00am-7.00pm, Friday 10.00am-7.00pm, Saturday 10.00am-7.00pm, Sunday 11.00am-6.00pm",,,
Neiman Marcus Beverly Hills,17585,9700 Wilshire Blvd  ,,Beverly Hills,CA,90212,United States,310-550-5900,34.066809,-118.406199,"Monday 10.00am-7.00pm, Tuesday 10.00am-7.00pm, Wednesday 10.00am-7.00pm, Thursday 10.00am-8.00pm, Friday 10.00am-8.00pm, Sunday 12.00am-6.00pm",,,
Saks Fifth Avenue Boston,17586,800 Boylston Street  ,,Boston,MA,02199,United States,617-262-8500,42.348699,-71.082457,"Monday 10.00am-8.00pm, Tuesday 10.00am-8.00pm, Wednesday 10.00am-8.00pm, Thursday 10.00am-8.00pm, Friday 10.00am-8.00pm, Sunday 12.00am-6.00pm",,,
Barneys New York Chicago,17587,15 E Oak Street  ,,Chicago,IL,60611,United States,312-587-1700,41.900686,-87.627659,"Monday 10.00am-7.00pm, Tuesday 10.00am-7.00pm, Wednesday 11.00am-7.00pm, Thursday 11.00am-7.00pm, Friday 11.00am-7.00pm, Sunday 11.00am-6.00pm",,,
Nordstrom Chicago,17588,55 E Grand Avenue  ,,Chicago,IL,60611,United States,312-464-1515,41.891931,-87.625494,"Monday 10.00am-6.00pm, Tuesday 10.00am-6.00pm, Wednesday 10.00am-6.00pm, Thursday 10.00am-6.00pm, Friday 10.00am-6.00pm, Saturday 10.00am-6.00pm, Sunday 11.00am-6.00pm",,,
Neiman Marcus Coral Gables,17589,390 San Lorenzo Ave  ,,Coral Gables,FL,33146,United States,786-999-1000,25.732063,-80.261460,"Monday 10.00am-8.00pm, Tuesday 10.00am-8.00pm, Wednesday 10.00am-8.00pm, Thursday 10.00am-8.00pm, Friday 10.00am-8.00pm, Saturday 10.00am-7.00pm, Sunday 12.00am-6.00pm",,,
Chlo Boutique South Coast Plaza,17590,3333 Bristol Street  ,,Costa Mesa,CA,92626,United States,714-481-0308,33.691192,-117.889008,"Monday 10.00am-9.00pm, Tuesday 10.00am-9.00pm, Wednesday 10.00am-9.00pm, Thursday 10.00am-9.00pm, Friday 10.00am-9.00pm, Saturday 10.00am-8.00pm, Sunday 11.00am-6.30pm",,,
Bloomingdale's South Coast Plaza,17591,3333 Bristol Street  ,,Costa Mesa,CA,92626,United States,714-824-4600,33.689223,-117.887717,"Monday 10.00am-9.00pm, Tuesday 10.00am-9.00pm, Wednesday 10.00am-9.00pm, Thursday 10.00am-9.00pm, Friday 10.00am-9.00pm, Saturday 10.00am-9.00pm, Sunday 11.00am-7.00pm",,,
Neiman Marcus Northpark,17592,8687 North Central Expressway  ,,Dallas,TX,75225,United States,214-363-8311,32.868799,-96.773534,"Monday 10.00am-9.00pm, Tuesday 10.00am-9.00pm, Wednesday 10.00am-9.00pm, Thursday 10.00am-9.00pm, Friday 10.00am-9.00pm, Saturday 10.00am-8.00pm, Sunday 12.00am-6.00pm",,,
Saks Fifth Avenue Houston,17594,5115 Westheimer Rd  ,,Houston,TX,77056,United States,713-627-0500‎,29.739854,-95.465445,"Monday 10.00am-7.00pm, Tuesday 10.00am-7.00pm, Wednesday 10.00am-7.00pm, Thursday 10.00am-8.00pm, Friday 10.00am-8.00pm, Sunday 12.00am-7.00pm",,,
Chlo Boutique at Wynn Las Vegas,17595,3131  Boulevard South  ,,Las Vegas,NV,89109,United States,702-675-9998,36.126907,-115.165365,"Monday 10.00am-11.00pm, Tuesday 10.00am-11.00pm, Wednesday 10.00am-11.00pm, Thursday 10.00am-11.00pm, Friday 10.00am-12.00pm, Saturday 10.00am-12.00pm, Sunday 10.00am-11.00pm",,,
Chlo Boutique at Forum Shops Las Vegas,17596,3500 South  Blvd  ,,Las Vegas,NV,89109,United States,,36.117560,-115.176352,,,,
Chlo Boutique Melrose Place,17597,8448 Melrose Place  ,,Los Angeles,CA,90069,United States,323-602-0000,34.083698,-118.374967,"Monday 10.00am-6.00pm, Tuesday 10.00am-6.00pm, Wednesday 10.00am-6.00pm, Thursday 10.00am-6.00pm, Friday 10.00am-6.00pm, Saturday 10.00am-6.00pm",,,
Saks Fifth Avenue Los Angeles,17598,9600 Wilshire Boulevard  ,,Los Angeles,CA,90212,United States,310-275-4211,34.066952,-118.403982,"Monday 10.00am-6.00pm, Tuesday 10.00am-6.00pm, Wednesday 10.00am-6.00pm, Thursday 10.00am-8.00pm, Friday 10.00am-6.00pm, Saturday 10.00am-7.00pm, Sunday 12.00am-6.00pm",,,
Chlo Boutique Madison Avenue,17599,850 Madison Avenue  ,,New York,NY,10021,United States,212-717-8220,40.770630,-73.966633,"Monday 10.00am-6.00pm, Tuesday 10.00am-6.00pm, Wednesday 10.00am-6.00pm, Thursday 10.00am-6.00pm, Friday 10.00am-6.00pm, Saturday 10.00am-6.00pm, Sunday 12.00am-5.00pm",,,
Chlo Boutique Soho,17600,93 Greene Street  ,,New York,NY,10012,United States,646-350-1770,40.724521,-74.000213,"Monday 11.00am-7.00pm, Tuesday 10.00am-7.00pm, Wednesday 11.00am-7.00pm, Thursday 11.00am-7.00pm, Friday 11.00am-7.00pm, Saturday 11.00am-7.00pm, Sunday 12.00am-5.00pm",,,
Barneys New York,17601,660 Madison Avenue  ,,New York,NY,10065,United States,212-826-8900,40.764916,-73.971097,"Monday 10.00am-8.00pm, Tuesday 10.00am-8.00pm, Wednesday 10.00am-8.00pm, Thursday 10.00am-8.00pm, Friday 10.00am-8.00pm, Saturday 10.00am-7.00pm, Sunday 11.00am-7.00pm",,,
Bergdorf Goodman,17602,754 Fifth Avenue  ,,New York,NY,10019,United States,212-753-7300,40.763734,-73.974199,"Monday 10.00am-8.00pm, Tuesday 10.00am-8.00pm, Wednesday 10.00am-8.00pm, Thursday 10.00am-8.00pm, Friday 10.00am-8.00pm, Saturday 10.00am-7.00pm, Sunday 12.00am-6.00pm",,,
Bloomingdale's 59th Street,17603,1000 Third Avenue  ,,New York,NY,10022,United States,212-705-2000,40.761995,-73.966667,"Monday 10.00am-7.00pm, Tuesday 10.00am-7.00pm, Wednesday 10.00am-7.00pm, Thursday 10.00am-7.00pm, Friday 10.00am-7.00pm, Saturday 10.00am-7.00pm, Sunday 11.00am-7.00pm",,,
Saks Fifth Avenue,17604,611 Fifth Avenue  ,,New York,NY,10022,United States,212-753-4000,40.758232,-73.976921,"Monday 10.00am-8.00pm, Tuesday 10.00am-8.00pm, Wednesday 10.00am-8.00pm, Thursday 10.00am-8.00pm, Friday 10.00am-8.00pm, Saturday 10.00am-7.00pm, Sunday 12.00am-6.00pm",,,
Barneys New York San Francisco,17605,77 O'Farrell Street  ,,San Francisco,CA,94108,United States,415-268-3500,37.786789,-122.406248,"Monday 10.00am-7.00pm, Tuesday 10.00am-7.00pm, Wednesday 10.00am-7.00pm, Thursday 10.00am-8.00pm, Friday 10.00am-7.00pm, Saturday 10.00am-7.00pm, Sunday 12.00am-7.00pm",,,
Bloomingdale's Short Hills,17606,1200 Morris Turnpike  ,,Short Hills,NJ,07078,United States,973-548-2435,40.740182,-74.363434,"Monday 10.00am-9.00pm, Tuesday 10.00am-9.00pm, Wednesday 10.00am-9.00pm, Thursday 10.00am-9.00pm, Friday 10.00am-9.00pm, Saturday 10.00am-8.00pm, Sunday 12.00am-7.00pm",,,
David Jones Pacific Fair,24702,2 Hooker Boulevard  ,,Gold Coast,,QLD 4218,Australia,+61 07 5562 7700,-28.0365628,153.42782720000002,"Monday 9.30am-6.00pm, Tuesday 9.30am-6.00pm, Wednesday 9.30am-6.00pm, Thursday 9.00am-9.00pm, Friday 9.30am-6.00pm, Saturday 9.00am-5.30pm, Sunday 9.30am-5.00pm",,,
David Jones Wellington,24710,165/167 Lambton Quay Wellington ,,,,6011,,+64 4 912 0700,-41.2827474,174.77598369999998,"Monday to Thursday: 9:00am-6:00pm, Friday: 9:00am-8:00pm, Saturday: 9:00am-6:00pm, Sunday: 10:00am -5:00pm",,,
Shinsegae Daegu,24717,149 Dongbu-ro Dong-gu  ,,Daegu,,41229,South Korea,+82 053 661 6483,35.8778124,128.62845270000003,"Monday to Friday: 10:30am-8:00pm ,  Saturday & Sunday: 10:30am-8:30pm",,,
Chlo Marina Bay Sands,25978,2 Bayfront Avenue B1-118-120 The Shoppes at Marina Bay Sands ,,Singapore,,018972,Singapore,+65 6634 0281,1.2841037,103.85957929999995,"Monday 10.00am-11.00pm, Tuesday 10.00am-11.00pm, Wednesday 10.00am-11.00pm, Thursday 10.00am-11.00pm, Friday 10.00am-11.30pm, Saturday 10.00am-11.30pm, Sunday 10.00am-11.00pm",,,
Sogo Hiroshima,27453,6-27 Motomachi Naka-ku,,Hiroshima,,730-8501,Japan,+81 82 225 2111,34.396202,132.45722550000005,"Monday 10.00am-8.00pm, Tuesday 10.00am-8.00pm, Wednesday 10.00am-8.00pm, Thursday 10.00am-8.00pm, Friday 10.00am-8.00pm, Saturday 10.00am-8.00pm, Sunday 10.00am-8.00pm",,,
Chlo New Bond Street,27723,143 New Bond St Mayfair ,,London,,W1S 2TP,United Kingdom,+44 203 057 4000,51.51159911808424,-0.14385604292215248,"Monday 10.00am-7.00pm, Tuesday 10.00am-7.00pm, Wednesday 10.00am-7.00pm, Thursday 10.00am-7.00pm, Friday 10.00am-7.00pm, Saturday 12.00am-6.00pm",,,
See By Chlo SELFRIDGES,28233,400 Oxford Street ,,London,,W1A 1AB,United Kingdom,+44 800 123400,51.519729,-0.1544909,"Monday to Saturday:9.30-21.00, Sunday: 11.30-18.00",,,
