store_name,store_number,address,address2,city,state,zip_code,country,phone_number,latitude,longitude,store_hours,store_type,other_fields,coming_soon
Fisher Auto Parts,1639,200 W Northwest Hwy,,Barrington, IL,,United States,(847) 382-7700,-88.138654,32.6626228375124,,,,
Fisher Auto Parts,1646,301 Republic Ave,,Joliet, IL,,United States,(815) 741-0609,-88.139233,35.732915969828,,,,
Fisher Auto Parts,1640,7316 Teckler Blvd,,Crystal Lake, IL,,United States,(815) 455-1300,-88.32051,42.6775397315265,,,,
Fisher Auto Parts,1648,101 S Main St,,Wilmington, IL,,United States,(815) 476-2186,-88.145768,47.5570535695307,,,,
Fisher Auto Parts,1649,935 E Broadway St,,Bradley, IL,,United States,(815) 933-2722,-87.850451,51.9578494710082,,,,
Manlove Auto Parts,1125,1600 E Newport Pike,,Newport, DE,,United States,(302) 998-3111,-75.603047,28.3845538126587,,,,
Manlove Auto Parts,1134,5736 Dupont Pkwy,,Smyrna, DE,,United States,(302) 653-9241,-75.613462,50.1640672645393,,,,
Manlove Auto Parts,1126,630 S New St,,Dover, DE,,United States,(302) 678-2870,-75.526081,58.5984661053281,,,,
Fisher Auto Parts,1120,360 Steel Way Ste A,,Lancaster, PA,,United States,(717) 239-0781,-76.321131,61.6814262802925,,,,
Fisher Auto Parts Inc.,1140,603 S. Philadelphia Blvd.,,Aberdeen, MD,,United States,(410) 273-0370,-76.1681019999999,61.7603707473686,,,,
Fisher Auto Parts,1534,1643 W 4th St,,Ontario, OH,,United States,(419) 747-7200,-82.5726805,60.237987214789,,,,
Fisher Auto Parts,1533,206 W Walton St,,Willard, OH,,United States,(419) 933-4000,-82.728553,76.0892866146463,,,,
Fisher Auto Parts,1528,160 S Columbus Ave Ste 1,,Wooster, OH,,United States,(330) 262-3700,-81.9392712,80.3544590033234,,,,
Fisher Auto Parts,1532,75 Cline St,,Norwalk, OH,,United States,(419) 668-8800,-82.613333,91.7213346490947,,,,
Fisher Auto Parts,1526,121 N Water St,,Uhrichsville, OH,,United States,(740) 922-4851,-81.3461495,92.1357089357916,,,,
Fisher Auto Parts,1595,17801 E Warren Ave,,Detroit, MI,,United States,(313) 882-1500,-82.9212316,8.33255988596043,,,,
Fisher Auto Parts,1589,37575 S. Groesbeck Hwy,,Clinton Township, MI,,United States,(586) 792-9100,-82.907916,18.3435596439778,,,,
Fisher Auto Parts,1484,1122 Monroe St,,Toledo, OH,,United States,(419) 242-1550,-83.544186,53.4629721531863,,,,
Fisher Auto Parts,1485,2830 N Holland Sylvania Rd,,Toledo, OH,,United States,(419) 531-7893,-83.682022,56.025608967599,,,,
Fisher Auto Parts,1483,721 Ford St,,Maumee, OH,,United States,(419) 794-7300,-83.666634,61.9723243864568,,,,
Fisher Auto Parts,1013,1069 Western Ave,,Lynn, MA,,United States,(781) 593-8422,-70.976442,7.68429477500092,,,,
Fisher Auto Parts,1014,119R Foster St Bldg 8,,Peabody, MA,,United States,(978) 532-0704,-70.9339757,12.8736278678255,,,,
Fisher Auto Parts,1004,326 Great Rd,,Littleton, MA,,United States,(978) 486-9099,-71.466071,24.3202085587518,,,,
Fisher Auto Parts,1012,468 Canal Street Ste 109,,Lawrence, MA,,United States,(978) 683-4935,-71.1636937,24.3814617836628,,,,
Fisher Auto Parts,1015,14 Pearl St.,,Gloucester, MA,,United States,(978) 282-3320,-70.6676459999999,26.6486067130533,,,,
Fisher Auto Parts,1138,9046 Lanham Severn Rd,,Lanham, MD,,United States,(301) 577-5000,-76.860006,10.2833259288472,,,,
Fisher Auto Parts,1139,14723 Baltimore Ave Ste C,,Laurel, MD,,United States,(410) 792-0185,-76.85607,16.075010627648,,,,
Fisher Auto Parts,1143,1370 Blair Dr Ste G,,Odenton, MD,,United States,(410) 551-9166,-76.7035889,21.9329379138125,,,,
Fisher Auto Parts,1137,4329 Charles Crossing Dr #7,,White Plains, MD,,United States,(301) 645-5851,-76.946234,22.3286879588958,,,,
Fisher Auto Parts,1150,1820 Margaret Ave,,Annapolis, MD,,United States,(410) 841-6882,-76.5226460999999,28.0555644502856,,,,
Fisher Auto Parts,1465,989 Pedigo Way Ste B,,Bowling Green, KY,,United States,(270) 842-2471,-86.4266962,58.1273414187707,,,,
Fisher Auto Parts,1468,501 N Magnolia St,,Tompkinsville, KY,,United States,(270) 487-6821,-85.689884,71.233360825965,,,,
Fisher Auto Parts,1953,220 West G.L. Smith Street,,Morgantown, KY,,United States,(270) 487-6821,-86.6873497,73.6769107260288,,,,
Fisher Auto Parts,1467,106 N Broadway St,,Glasgow, KY,,United States,(270) 651-2114,-85.910751,75.1416356354842,,,,
Fisher Auto Parts,1958,327 North Main Street,,Greenville, KY,,United States,(270) 338-5555,-87.1828562,75.7057757435294,,,,
Fisher Auto Parts,1613,151 Coolidge Ave Ste 4,,Holland, MI,,United States,(616) 392-4075,-86.079006,94.0381383579077,,,,
Fisher Auto Parts,1609,10420 M140 Ste 1,,South Haven, MI,,United States,(269) 637-5116,-86.2687309,94.7955883011956,,,,
Fisher Auto Parts,1603,123 W. Napier Ave.,,Benton Harbor, MI,,United States,(269) 926-7151,-86.4564389999999,98.8330747075857,,,,
Fisher Auto Parts,1146,1500 Joh Ave Stes 110-130,,Baltimore, MD,,United States,(410) 646-7652,-76.6695169999999,3.71853449548463,,,,
Fisher Auto Parts,1145,2031 Merritt Ave,,Dundalk, MD,,United States,(410) 284-4900,-76.510603,5.81131934732836,,,,
Fisher Auto Parts,1148,2020 Lord Baltimore Dr,,Baltimore, MD,,United States,(410) 597-8790,-76.7524156,7.66437140325613,,,,
Fisher Auto Parts,1149,8844 Orchard Tree Ln,,Towson, MD,,United States,(410) 321-7320,-76.568876,7.83310257512458,,,,
Fisher Auto Parts,1142,7218 Ritchie Hwy # E,,Glen Burnie, MD,,United States,(410) 766-8616,-76.617953,8.00687852626969,,,,
Fisher Auto Parts,1436,513 N Wilson Rd,,Radcliff, KY,,United States,(270) 351-4458,-85.943123,29.9508969903033,,,,
Fisher Auto Parts,1431,708 N 3rd St,,Bardstown, KY,,United States,(502) 348-7767,-85.462573,33.8300033081526,,,,
Fisher Auto Parts,1476,1201 N Dixie Hwy Ste 100,,Elizabethtown, KY,,United States,(270) 765-6183,-85.855578,39.1513924514874,,,,
Fisher Auto Parts,1477,221 E Main St,,Hodgenville, KY,,United States,(270) 358-4312,-85.73907,46.9214716689809,,,,
Fisher Auto Parts,1435,136 Old Highway 60,,Hardinsburg, KY,,United States,(270) 756-2211,-86.424835,50.0460382809877,,,,
Hops Place,1185,320 W. Pembroke Ave.,,Hampton, VA,,United States,(757) 723-0747,-76.354,24.099206534988,,,,
DM Ragan,1186,5813 George Washington Hwy.,,Yorktown, VA,,United States,(757) 898-5047,-76.465895,34.469720540817,,,,
Auto Parts Supply,1182,226 Monticello Ave.,,Williamsburg, VA,,United States,(757) 229-3580,-76.723245,50.6412628831554,,,,
D&A Auto Parts,1160,10518 Jessie Dupont Mem. Hwy.,,Kilmarnock, VA,,United States,(804) 435-1018,-76.365828,66.6926313741953,,,,
NNW Auto Parts,1161,1717 Tappahannock Blvd.,,Tappahannock, VA,,United States,(804) 443-1550,-76.8612989000001,87.7768443444078,,,,
Fisher Auto Parts,1244,701 Ward Blvd.,,Wilson, NC,,United States,(252) 235-0117,-77.933259,39.7869230398642,,,,
Fisher Auto Parts,1241,211 Jeffreys Rd,,Rocky Mount, NC,,United States,(252) 442-7114,-77.801723,48.0033691093251,,,,
Fisher Auto Parts,1218,920 Riverside Dr,,Danville, VA,,United States,(434) 793-2511,-79.397336,70.6057432686184,,,,
Fisher Auto Parts,1243,312 Main St,,Scotland Neck, NC,,United States,(252) 826-2183,-77.424919,71.8212600601273,,,,
Fisher Auto Parts,1242,1603 E. 10th St.,,Roanoke Rapids, NC,,United States,(252) 534-0271,-77.64255,72.024268886317,,,,
Fisher Auto Parts,1501,2001 Clark Ave,,Cleveland, OH,,United States,(216) 771-1236,-81.6984163,2.04612364313423,,,,
Fisher Auto Parts,1499,1440 E 55th Ste A,,Cleveland, OH,,United States,(216) 391-4450,-81.6519502,2.61843628400512,,,,
Auto Parts Unlimited,1498,6709 Lorain Avenue,,Cleveland, OH,,United States,(216) 631-6969,-81.732103,2.63647728369464,,,,
Fisher Auto Parts,1500,14043 Madison Ave,,Lakewood, OH,,United States,(216) 226-4337,-81.7912477,5.24484743103201,,,,
Fisher Auto Parts,1507,5781 Ridge Rd,,Parma, OH,,United States,(440) 842-3037,-81.734088,6.82260529463615,,,,
Fisher Auto Parts,1671,113 W Main St,,Park Hills, MO,,United States,(573) 431-1500,-90.518841,56.4549671639515,,,,
Fisher Auto Parts,1675,601 E High St,,Potosi, MO,,United States,(573) 438-5491,-90.780301,57.4479304658755,,,,
E. Blankenship & Co.,1656,433 S Locust St,,Centralia, IL,,United States,(618) 532-4709,-89.135548,57.9127158606977,,,,
Fisher Auto Parts,1673,1011 E Karsch Blvd,,Farmington, MO,,United States,(573) 756-6739,-90.406089,59.5268946406414,,,,
E. Blankenship & Co.,1659,207 S 12th St,,Mount Vernon, IL,,United States,(618) 242-5040,-88.90604,73.1798436205276,,,,
Fisher Auto Parts,1434,490 W Main St,,Lebanon, KY,,United States,(270) 692-3169,-85.260797,52.768170684387,,,,
Raybourn Auto Parts,1464,640 W. Tom T Hall Blvd.,,Olive Hill, KY,,United States,(606) 286-5311,-83.182356,73.9003980073954,,,,
Evans City Auto Parts,1072,236 E. Main Street,,Evans City, PA,,United States,(724) 538-8200,-80.0629037,22.9984428723355,,,,
Prince Auto Supply,1061,4600 Fourth Avenue,,Beaver Falls, PA,,United States,(724) 847-1222,-80.330309,29.6262319623847,,,,
Zanellas Auto Parts,1070,989 Oneida Valley Road,,Butler, PA,,United States,(724) 287-6170,-79.846939,35.302325763606,,,,
Pauls Auto Parts,1080,215 Jacob Street,,Kittanning, PA,,United States,(724) 543-1283,-79.5178123,35.924058890193,,,,
Rich & Freed Auto Parts,1073,1705 Eastbrook,,New Castle, PA,,United States,(724) 658-9078,-80.317457,43.0662341599304,,,,
Jims Auto Parts,1190,2120 Riverside Dr.,,Bassett, VA,,United States,(276) 629-1278,-79.9805,48.052516953948,,,,
Fisher Auto Parts,1217,14379 U.S. Highway 29,,Chatham, VA,,United States,(434) 432-2277,-79.3941848,54.1326734841008,,,,
Fisher Auto Parts,1194,875 N Main St,,Rocky Mount, VA,,United States,(540) 483-0271,-79.894504,64.8445448385293,,,,
Fisher Auto Parts,1213,500 Amherst Ave,,Altavista, VA,,United States,(434) 369-5693,-79.282067,77.2469980917949,,,,
Fisher Auto Parts,1611,4714 Niles Buchanan Rd,,Buchanan, MI,,United States,(269) 695-1375,-86.3448897,81.0498670138176,,,,
Fisher Auto Parts,1604,6109 S Westnedge Ave,,Portage, MI,,United States,(269) 327-0308,-85.5894217,82.746400166539,,,,
Fisher Auto Parts,1610,100 N Mechanic St,,Berien Springs, MI,,United States,(269) 471-4400,-86.3365881,86.2544546777998,,,,
Fisher Auto Parts,1184,9740 Jefferson Davis Hwy,,Richmond, VA,,United States,(804) 743-2580,-77.428409,73.2390968561051,,,,
Fisher Auto Parts,1216,1313 Lynchburg Ave Ste B,,Brookneal, VA,,United States,(434) 376-2328,-78.945023,72.7635979820731,,,,
Fisher Auto Parts,1192,705 Radford St,,Christiansburg, VA,,United States,(540) 382-2906,-80.422501,71.6914472275082,,,,
Fisher Auto Parts,1180,8129 Connor Rd Ste A,,Mechanicsville, VA,,United States,(804) 559-2641,-77.379644,5.0916868453074,,,,
Fisher Auto Parts,1183,8400 Sanford Dr,,Richmond, VA,,United States,(804) 262-2163,-77.5018909,6.96688242650978,,,,
Fisher Auto Parts,1181,12621 Genito Rd,,Midlothian, VA,,United States,(804) 763-2625,-77.626094,12.2215641482905,,,,
Fisher Auto Parts,1178,11475 Fox Cross Rd,,Ashland, VA,,United States,(804) 798-5714,-77.457132,13.0121849141964,,,,
Fisher Auto Parts,1647,1861 Division St,,Morris, IL,,United States,(815) 942-6945,-88.422052,26.7568870565124,,,,
Fisher Auto Parts,1000,54 Mainline Dr Ste C,,Westfield, MA,,United States,(413) 562-1878,-72.767501,97.4280282134345,,,,
Fisher Auto Parts,1520,1020 Home Ave,,Akron, OH,,United States,(330) 762-1550,-81.4893589,1.94728150233177,,,,
Fisher Auto Parts,1519,2050 S Main St,,Akron, OH,,United States,(330) 773-5101,-81.527288,3.53711565896103,,,,
Fisher Auto Parts,1521,2481 Romig Rd,,Akron, OH,,United States,(330) 848-4488,-81.580135,3.98381085623032,,,,
Fisher Auto Parts,1516,2990 Oakwood Dr,,Cuyahoga Falls, OH,,United States,(330) 928-2149,-81.490016,5.17005776565773,,,,
Fisher Auto Parts,1514,776 Wooster Rd W,,Barberton, OH,,United States,(330) 848-3761,-81.617852,7.05857615009074,,,,
Fisher Auto Parts,1608,1286 M 89,,Plainwell, MI,,United States,(269) 685-5838,-85.6682286,35.4792268108719,,,,
Fisher Auto Parts,1606,3460 Gull Rd,,Kalamazoo, MI,,United States,(269) 342-9635,-85.5379495,45.2342938225082,,,,
Fisher Auto Parts,1602,4114 Stadium Dr,,Kalamazoo, MI,,United States,(269) 372-3407,-85.6401246,47.8773636150369,,,,
Fisher Auto Parts,1380,815 N Hall Of Fame Dr,,Knoxville, TN,,United States,(865) 525-5321,-83.916634,1.14901689530037,,,,
Fisher Auto Parts,1377,7154 Small Creek Way,,Powell, TN,,United States,(865) 938-7278,-84.0304688,7.37135639689652,,,,
Fisher Auto Parts,1381,10603-B Lexington Dr,,Knoxville, TN,,United States,(865) 671-1234,-84.138943,12.6927422103417,,,,
Fisher Auto Parts,1376,132 E Division Rd,,Oak Ridge, TN,,United States,(865) 481-3107,-84.239242,18.0892912896576,,,,
Fisher Auto Parts,1379,914 Eastgate Rd,,Sevierville, TN,,United States,(865) 453-2837,-83.568758,20.6761064098448,,,,
Fisher Auto Parts,1011,13 Quinsigamond Ave,,Worcester, MA,,United States,(508) 755-6156,-71.806085,0.69967051693441,,,,
Fisher Auto Parts,1007,1 Zottoli Rd,,Holden, MA,,United States,(508) 829-2703,-71.835517,5.08281696977809,,,,
Fisher Auto Parts,1009,13 Brigham St,,Westborough, MA,,United States,(508) 366-1567,-71.611631,9.76090333866027,,,,
Fisher Auto Parts,1008,60 Chestnut St,,Spencer, MA,,United States,(508) 885-3971,-71.9977176,10.1039827520132,,,,
Fisher Auto Parts,1006,600 Main St,,Clinton, MA,,United States,(978) 365-2923,-71.687504,12.3344696288844,,,,
Fisher Auto Parts,1021,350 Plainfield St,,Providence, RI,,United States,(401) 943-5000,-71.4485078,1.96716007608726,,,,
Fisher Auto Parts,1020,140 Narragansett Ave,,Providence, RI,,United States,(401) 781-1600,-71.4242808,2.39952850578578,,,,
Fisher Auto Parts,1022,2312 Pawtucket Ave Rear,,East Providence, RI,,United States,(401) 438-8000,-71.358015,2.93090390135149,,,,
Fisher Auto Parts,1017,437 Central Ave,,Pawtucket, RI,,United States,(401) 728-2500,-71.3650671,4.90546840523463,,,,
Fisher Auto Parts,1023,197 Putnam Pike Ste A,,Johnston, RI,,United States,(401) 232-7300,-71.5037966,5.53450820750083,,,,
Fisher Auto Parts,1002,314 West St,,Gardner, MA,,United States,(978) 632-3642,-72.007426,44.5280403196205,,,,
Fisher Auto Parts,1650,268 Lincoln St,,Marseilles, IL,,United States,(815) 795-2200,-88.706112,68.1693292954424,,,,
Fisher Auto Parts,1136,29066 Three Notch Rd,,Mechanicsville, MD,,United States,(301) 884-5281,-76.769134,27.8473065399057,,,,
Fisher Auto Parts,1644,625 S Broadway Street,,Coal City, IL,,United States,(815) 634-0413,-88.264349,22.5263016255354,,,,
Fisher Auto Parts,1016,150 Sandy Bottom Rd,,Coventry, RI,,United States,(401) 822-4500,-71.560409,91.3971437792766,,,,
Fisher Auto Parts,1019,2117 West Shore Rd,,Warwick, RI,,United States,(401) 738-5100,-71.400182,99.5444148935772,,,,
Fisher Auto Parts,1058,726 Erie Blvd W,,Rome, NY,,United States,(315) 339-5850,-75.472527,35.9507194839111,,,,
Fisher Auto Parts,1052,12 E Park Row,,Clinton, NY,,United States,(315) 853-5551,-75.377979,38.853023059498,,,,
Fisher Auto Parts,1059,4958 Commercial Dr,,Yorkville, NY,,United States,(315) 736-0191,-75.298874,42.9938866610888,,,,
Fisher Auto Parts,1051,3420 Oneida St,,Chadwicks, NY,,United States,(315) 737-7391,-75.271911,44.2373444799983,,,,
Fisher Auto Parts,1056,9593 River Rd,,Marcy, NY,,United States,(315) 732-4115,-75.252941,45.5073124057838,,,,
Fisher Auto Parts,1957,1209 South Main,,Hartford, KY,,United States,(270) 298-0000,-86.8974057,67.9967763563456,,,,
Fisher Auto Parts,1010,120 Church Street,,Whitinsville, MA,,United States,(508) 234-8711,-71.6605673999999,57.8924016614658,,,,
Fisher Auto Parts,1954,454 North State Route 161,,Rockport, IN,,United States,(812) 649-4724,-87.1122157,25.5933208616111,,,,
Fisher Auto Parts,1956,510 West 4th St,,Owensboro, KY,,United States,(270) 685-2901,-87.1082168,28.7351582096755,,,,
E. Blankenship & Co.,1658,200 N Walnut St,,Carmi, IL,,United States,(618) 382-4106,-88.160615,33.1254776074158,,,,
Fisher Auto Parts,1955,8180 Highway 60,,Lewisport, KY,,United States,(270) 295-3717,-86.955806,33.8317387256636,,,,
Fisher Auto Parts,1123,593 E 7th St,,Bloomsburg, PA,,United States,(570) 784-4191,-76.61772,64.0746768327936,,,,
Fisher Auto Parts,1097,865 N Hanover St,,Elizabethtown, PA,,United States,(717) 367-5537,-76.608891,66.4210669773636,,,,
Fisher Auto Parts,1100,15 S Hanover St,,Hummelstown, PA,,United States,(717) 566-3766,-76.707802,68.2967768402391,,,,
Fisher Auto Parts,1478,316 S Dixie St,,Horse Cave, KY,,United States,(270) 786-3838,-85.908111,95.8193128254228,,,,
Fisher Auto Parts,1655,1812 W South 1st St,,Shelbyville, IL,,United States,(217) 774-4005,-88.814026,51.5507268920711,,,,
E. Blankenship & Co.,1652,503 S Rinehart St,,Effingham, IL,,United States,(217) 342-4191,-88.543953,74.733369065132,,,,
Fisher Auto Parts,1651,415 W Madison St,,Pontiac, IL,,United States,(815) 844-6167,-88.632178,92.9363293098294,,,,
Fisher Auto Parts,1645,219 E Mazon Ave,,Dwight, IL,,United States,(815) 584-2064,-88.425044,66.7933863100903,,,,
Fisher Auto Parts,1607,824 E Michigan Ave,,Paw Paw, MI,,United States,(269) 657-7041,-85.880287,76.2868051332832,,,,
Fisher Auto Parts,1027,155 S Willow St,,Manchester, NH,,United States,(603) 627-8530,-71.4555843,1.66898350060954,,,,
Fisher Auto Parts,1026,59 Route 27 Ste 14,,Raymond, NH,,United States,(603) 895-0015,-71.1650364999999,14.9487182793163,,,,
Fisher Auto Parts,1024,70 Elm St,,Milford, NH,,United States,(603) 673-6814,-71.6574874,15.0843345477677,,,,
Fisher Auto Parts,1030,120 Loudon Rd,,Concord, NH,,United States,(603) 224-5349,-71.5121936,15.3226411477325,,,,
Fisher Auto Parts,1025,50 E Hollis St,,Nashua, NH,,United States,(603) 883-2880,-71.4539078,16.2842475626817,,,,
Fisher Auto Parts,1001,159 Ashland St,,North Adams, MA,,United States,(413) 663-3768,-73.109275,78.5746726044176,,,,
Fisher Auto Parts,1612,2757 W John Beers Rd,,Stevensville, MI,,United States,(269) 429-7761,-86.520666,27.1736023784872,,,,
Fisher Auto Parts,1605,6978 Red Arrow Hwy,,Coloma, MI,,United States,(269) 468-7782,-86.289171,35.2426773704259,,,,
Tonys Auto Parts,1523,926 US Rt. 62 S.E.,,Masury, OH,,United States,(330) 448-4700,-80.5224946,38.3111567917496,,,,
Fisher Auto Parts,1487,5019 Main Ave,,Ashtabula, OH,,United States,(440) 998-1140,-80.784076,40.3775133627699,,,,
Hittle Auto Supply,1076,180 South Mercer Street,,Greenville, PA,,United States,(724) 588-3320,-80.3788231,52.7645763357022,,,,
Fisher Auto Parts,1495,259 E Jackson St,,Painesville, OH,,United States,(440) 357-5548,-81.244779,65.7039599371601,,,,
Fisher Auto Parts,1494,8641 Mentor Ave,,Mentor, OH,,United States,(440) 255-9377,-81.330695,71.4571992963749,,,,
Fisher Auto Parts,1189,725 Gainsboro Rd Nw,,Roanoke, VA,,United States,(540) 344-6666,-79.9415247,0.519061448231997,,,,
Fisher Auto Parts,1195,1201 Indiana St,,Salem, VA,,United States,(540) 389-8611,-80.0458,5.77598061691304,,,,
Fisher Auto Parts,1196,4070 Lee Hwy,,Troutville, VA,,United States,(540) 966-4300,-79.8915247,9.46160096873062,,,,
Fisher Auto Parts,1193,12797 Moneta Rd,,Moneta, VA,,United States,(540) 296-0589,-79.594598,19.7384257766463,,,,
Fisher Auto Parts,1053,14 River St,,Fort Plain, NY,,United States,(518) 993-2391,-74.619751,47.8766359616767,,,,
Fisher Auto Parts,1054,538 Albany St,,Little Falls, NY,,United States,(315) 823-4940,-74.857081,61.9596227276992,,,,
Fisher Auto Parts,1057,138 Main St,,Richfield Springs, NY,,United States,(315) 858-0240,-74.993782,64.3251762774619,,,,
Fisher Auto Parts,1018,214 Broad St,,Cumberland, RI,,United States,(401) 726-3500,-71.392417,22.8544961651274,,,,
Fisher Auto Parts,1107,3105 Sycamore St,,Harrisburg, PA,,United States,(717) 564-0562,-76.791721,46.4205010247526,,,,
Whites Auto Parts,1430,139 E. Main St.,,Jonesboro, TN,,United States,(423) 753-6115,-82.472482,48.587541392196,,,,
Fisher Auto Parts,1372,263 W Main St Ste A,,Johnson City, TN,,United States,(423) 928-1166,-82.358841,50.9832706209349,,,,
Fisher Auto Parts,1375,204 Lincoln Ave,,Morristown, TN,,United States,(423) 586-4790,-83.287319,58.7915292763795,,,,
Fisher Auto Parts,1374,1904 Brookside Ln,,Kingsport, TN,,United States,(423) 245-1746,-82.517962,65.4804235889867,,,,
Fisher Auto Parts,1674,539 N. Main St.,,Ironton, MO,,United States,(573) 546-2215,-90.6281727,83.4421488527412,,,,
Fisher Auto Parts,1654,1700 W Main St,,Robinson, IL,,United States,(618) 544-3106,-87.759034,67.0260027980206,,,,
E. Blankenship & Co.,1653,305 W Main St,,Olney, IL,,United States,(618) 393-2938,-88.087726,89.1075929757887,,,,
Fisher Auto Parts,1508,6528 Brecksville Rd,,Independence, OH,,United States,(216) 524-5888,-81.641693,4.44093987828384,,,,
Fisher Auto Parts,1509,12492 York Rd,,North Royalton, OH,,United States,(440) 582-6700,-81.759308,5.99802281977506,,,,
Fisher Auto Parts,1219,4826 S Amherst Hwy,,Madison Heights, VA,,United States,(434) 847-1043,-79.121057,3.14686798962172,,,,
Fisher Auto Parts,1212,127-A Tomahawk Industrial Park,,Lynchburg, VA,,United States,(434) 239-6340,-79.228154,5.72423735508627,,,,
Fisher Auto Parts,1214,107 2nd St,,Amherst, VA,,United States,(434) 946-5538,-79.046899,12.7571482641291,,,,
Fisher Auto Parts,1215,214 S Bridge St,,Bedford, VA,,United States,(540) 586-3380,-79.52421,21.7071265533477,,,,
Fisher Auto Parts,1121,1316 W 3rd St,,Williamsport, PA,,United States,(570) 323-7115,-77.033033,72.1070478343078,,,,
Fisher Auto Parts,1124,135 E Chestnut St,,Mifflinburg, PA,,United States,(570) 966-1091,-77.034082,78.8742691954575,,,,
Fisher Auto Parts,1098,290 W Broad St,,Elizabethville, PA,,United States,(717) 362-8168,-76.819769,84.7112526618786,,,,
Fisher Auto Parts,1122,301 2nd Ave,,Lock Haven, PA,,United States,(570) 748-6731,-77.460355,95.3629480726363,,,,
Fisher Auto Parts,1530,128 18th St Sw,,Canton, OH,,United States,(330) 452-5754,-81.387728,1.47978846799859,,,,
Fisher Auto Parts,1529,2214 Columbus Rd NE,,Canton, OH,,United States,(330) 454-7015,-81.344391,2.90521480647198,,,,
Fisher Auto Parts,1531,6211 Dressler Rd Nw,,Canton, OH,,United States,(330) 494-0713,-81.426946,5.58060141601692,,,,
Fisher Auto Parts,1527,13020 Cleveland Ave Nw,,Uniontown, OH,,United States,(330) 699-4577,-81.3464333,11.7905286041107,,,,
Fisher Auto Parts Inc.,1525,2154 Beechwood Ave,,Alliance, OH,,United States,(330) 823-6010,-81.133585,14.5678663311484,,,,
Fisher Auto Parts,1679,913 W Pine St,,Poplar Bluff, MO,,United States,(573) 785-4681,-90.402564,65.4965544914702,,,,
Fisher Auto Parts,1678,2007 E Malone Ave,,Sikeston, MO,,United States,(573) 472-1113,-89.554199,96.4393622534758,,,,
Fisher Auto Parts,1141,101 N Bond St,,Bel Air, MD,,United States,(410) 879-8818,-76.351789,45.4043881223371,,,,
Fisher Auto Parts,1156,435 E Baltimore St,,Hagerstown, MD,,United States,(301) 790-9767,-77.713446,22.1877017215976,,,,
Fisher Auto Parts,1157,1430 Progress Way Stes 101-102,,Eldersburg, MD,,United States,(410) 552-5022,-76.9429549999999,24.9615489710196,,,,
Fisher Auto Parts,1114,44 South Broad St,,Waynesboro, PA,,United States,(717) 762-6524,-77.5752994,25.0191942647872,,,,
Fisher Auto Parts,1225,1186 N Mildred St Stes 104-105,,Ranson, WV,,United States,(304) 728-6173,-77.8598083,25.457210973684,,,,
Fisher Auto Parts,1224,32 Sue Ct,,Martinsburg, WV,,United States,(304) 267-2961,-77.9852853,30.6851473031467,,,,
Fisher Auto Parts,1038,203 Main St,,Somersworth, NH,,United States,(603) 692-2573,-70.8615556,41.2766218712358,,,,
Fisher Auto Parts,1037,45 Allen Street Ste 6,,Rochester, NH,,United States,(603) 330-3467,-70.9747236,43.4888367530141,,,,
Fisher Auto Parts,1034,79 Main St,,Dover, NH,,United States,(603) 742-8880,-70.8754578,44.8075614991702,,,,
Fisher Auto Parts,1033,67 Islington St,,Portsmouth, NH,,United States,(603) 433-0038,-70.7623814,47.8534017881231,,,,
Fisher Auto Parts,1036,723 Lafayette Rd,,Hampton, NH,,United States,(603) 926-7301,-70.8325222,57.2193307305105,,,,
Fisher Auto Parts,1060,327 Lafayette St,,Utica, NY,,United States,(315) 797-2255,-75.2348277,68.4776848231135,,,,
Fisher Auto Parts,1524,360 E Federal St Ste B,,Youngstown, OH,,United States,(330) 746-3550,-80.6382413,1.78412243355338,,,,
Coles Bernard Auto Parts,1522,415 W. Main Street,,Canfield, OH,,United States,(330) 533-6853,-80.77343,8.28311173854897,,,,
Lakeway Auto Parts,1373,1509 Virginia Ave.,,Bristol, TN,,United States,(423) 212-1992,-82.1657989999999,21.0260426365069,,,,
Quality Auto Parts,1197,1315 W. State St.,,Bristol, VA,,United States,(276) 466-8212,-82.2102812,21.0667659021758,,,,
Fisher Auto Parts,1486,7514 Leavitt Rd,,Amherst, OH,,United States,(440) 988-9202,-82.210552,4.74937524667233,,,,
Fisher Auto Parts,1488,1260 Moore Rd Ste K,,Avon, OH,,United States,(440) 937-8990,-82.048697,7.02984875633287,,,,
H & H Auto Parts,1492,139 Cleveland Street,,Elyria, OH,,United States,(440) 323-4176,-82.0924043,7.22686282530001,,,,
Fisher Auto Parts,1491,35130 Center Ridge Rd,,North Ridgeville, OH,,United States,(440) 327-8887,-82.0084409,9.90908980326986,,,,
Fisher Auto Parts,1493,408 Main St,,Grafton, OH,,United States,(440) 926-2837,-82.064006,12.9810932297954,,,,
Fisher Auto Parts,1035,78 Portsmouth Ave,,Exeter, NH,,United States,(603) 772-4830,-70.9361598,16.1812875900095,,,,
Fisher Auto Parts,1479,105 Mill St,,Leitchfield, KY,,United States,(270) 259-4016,-86.293134,37.1348054764349,,,,
Manlove Auto Parts,1130,601 N Rehoboth Blvd,,Milford, DE,,United States,(302) 422-3027,-75.428413,44.2737501635274,,,,
Manlove Auto Parts,1129,1115 Highway One,,Lewes, DE,,United States,(302) 645-6248,-75.155853,51.6119292431075,,,,
Fisher Auto Parts,1119,1650 Whiteford Rd,,York, PA,,United States,(717) 843-5232,-76.6984331,21.154266239407,,,,
Fisher Auto Parts,1118,3142 W. Market St.,,York, PA,,United States,(717) 792-1606,-76.7858860999999,26.2360666666833,,,,
Fisher Auto Parts,1187,516 E. 3rd Street,,Farmville, VA,,United States,(434) 392-3157,-78.384656,99.6721464577589,,,,
Fisher Auto Parts,1166,1471 S Main St,,Harrisonburg, VA,,United States,(540) 434-1741,-78.882892,1.41436434241331,,,,
Fisher Auto Parts,1167,118 N Main St,,Bridgewater, VA,,United States,(540) 828-2568,-78.976216,7.42726347940445,,,,
Fisher Auto Parts,1207,304 Augusta Ave,,Grottoes, VA,,United States,(540) 249-5788,-78.820397,13.3538007704345,,,,
Fisher Auto Parts,1168,160 South East Side Hwy,,Elkton, VA,,United States,(540) 298-1246,-78.6199337,13.8781979926128,,,,
Fisher Auto Parts,1211,38 Laurel Hill Rd,,Verona, VA,,United States,(540) 248-5125,-79.00611877,18.7182779745983,,,,
Fisher Auto Parts,1506,22020 Lorain Rd,,Fairview Park, OH,,United States,(440) 734-2424,-81.864761,4.42630705427584,,,,
Fisher Auto Parts,1223,2602 7th Ave,,Charleston, WV,,United States,(304) 744-0312,-81.682215,3.27909442717215,,,,
Fisher Auto Parts,1226,2200 US Highway 60,,Culloden, WV,,United States,(304) 743-4399,-82.0472499,22.9603373368168,,,,
Fisher Auto Parts,1240,5289 Webster Rd,,Summersville, WV,,United States,(304) 872-1511,-80.836689,43.2249828815098,,,,
Fisher Auto Parts,1227,407 5th St,,Huntington, WV,,United States,(304) 522-2135,-82.4506969,44.5697519933009,,,,
Fisher Auto Parts,1228,190 Blue Angel Ln,,Beaver, WV,,United States,(304) 252-6361,-81.111848,47.7235869275794,,,,
Fisher Auto Parts,1101,1005 Hummel Ave,,Lemoyne, PA,,United States,(717) 763-7341,-76.901548,2.47562921928131,,,,
Fisher Auto Parts,1099,407 N Enola Rd,,Enola, PA,,United States,(717) 732-3648,-76.928513,2.80167017219777,,,,
Fisher Auto Parts,1106,4913 Jonestown Rd,,Harrisburg, PA,,United States,(717) 652-5920,-76.813408,4.28215249005176,,,,
Fisher Auto Parts,1103,615 Leona St,,Mechanicsburg, PA,,United States,(717) 697-8521,-76.994778,6.95257846603312,,,,
Fisher Auto Parts,1503,813 E. 185th St,,Cleveland, OH,,United States,(216) 481-8682,-81.5496999,1.30061706911926,,,,
Fisher Auto Parts,1496,29700 Euclid Ave,,Wickliffe, OH,,United States,(440) 944-9797,-81.468827,3.20997089851686,,,,
City Auto Supply,1502,15905 Euclid Avenue,,East Cleveland, OH,,United States,(216) 451-8400,-81.5698294,4.1607092795966,,,,
Fisher Auto Parts,1504,4337 Mayfield Rd,,South Euclid, OH,,United States,(216) 291-9230,-81.5238606,5.0114663199203,,,,
Fisher Auto Parts,1497,37200 Vine St Ste B,,Willoughby, OH,,United States,(440) 946-1840,-81.411015,6.89717776912488,,,,
Seville Auto Parts,1518,1 West Main Street,,Seville, OH,,United States,(330) 769-9500,-81.8624489999999,71.590756375866,,,,
Fisher Auto Parts,1163,40 Kimble Rd Ste A,,Berryville, VA,,United States,(540) 955-1962,-77.981924,22.5648951826115,,,,
Fisher Auto Parts,1162,1941 S Loudoun St,,Winchester, VA,,United States,(540) 723-0419,-78.173019,32.8266865224781,,,,
Fisher Auto Parts,1490,12657 Chillicothe Rd,,Chesterland, OH,,United States,(440) 729-9030,-81.3379046,9.78690306085309,,,,
Fisher Auto Parts,1087,12 Logan Blvd,,Altoona, PA,,United States,(814) 944-9447,-78.409353,2.25050456751645,,,,
Fisher Auto Parts,1089,120 W 10th St,,Tyrone, PA,,United States,(814) 684-3170,-78.2399375,13.2883014686743,,,,
Fisher Auto Parts,1068,243 Mini Mall Rd,,Ebensburg, PA,,United States,(814) 472-7600,-78.753036,19.1858182416059,,,,
Fisher Auto Parts,1088,10151 Fairgrounds Rd.,,Huntingdon, PA,,United States,(814) 643-7281,-78.0236681999999,19.6569459514081,,,,
Fisher Auto Parts,1064,254 N. Juliana St.,,Bedford, PA,,United States,(814) 623-6185,-78.504175,20.4019940344698,,,,
Dowd Auto Supply,1511,5324 Lee Road,,Maple Heights, OH,,United States,(216) 662-1300,-81.5663416,7.17882996119323,,,,
Fisher Auto Parts,1510,14354 Pearl Rd,,Strongsville, OH,,United States,(440) 238-8882,-81.8352405,0.265332775701988,,,,
Fisher Auto Parts,1489,100 Pelret Industrial Pkwy - F,,Berea, OH,,United States,(440) 234-2980,-81.8892597,4.9962392673889,,,,
Fisher Auto Parts,1515,1733 Pearl Rd Ste 103,,Brunswick, OH,,United States,(330) 225-9154,-81.8388479999999,5.99603050184479,,,,
Fisher Auto Parts,1171,1414 E High St,,Charlottesville, VA,,United States,(434) 296-9154,-78.461644,0.86362898856876,,,,
Fisher Auto Parts,1170,2111 Berkmar Dr,,Charlottesville, VA,,United States,(434) 973-7971,-78.473124,3.73994106236345,,,,
Fisher Auto Parts,1172,5760 Three Notch D Rd,,Crozet, VA,,United States,(434) 823-4383,-78.699118,12.4160283328263,,,,
Fisher Auto Parts,1176,8302 Seminole Trl,,Ruckersville, VA,,United States,(434) 985-3411,-78.372282,14.8878647789032,,,,
Fisher Auto Parts,1220,120 Scottsville Ctr,,Scottsville, VA,,United States,(434) 286-2757,-78.5022989,15.2682317602957,,,,
Fisher Auto Parts,1005,68 Central St,,Winchendon, MA,,United States,(978) 297-2761,-72.047722,63.0233539731874,,,,
Fisher Auto Parts,1115,2365 Old Trail Rd,,Etters, PA,,United States,(717) 932-5549,-76.8177726,14.6438304598408,,,,
Blacksburg Auto Parts,1191,606 N. Main St.,,Blacksburg, VA,,United States,(540) 552-2441,-80.4178572,0.323120451403764,,,,
Fisher Auto Parts,1028,428 N Main St,,Franklin, NH,,United States,(603) 934-7286,-71.6508496,17.1469685339833,,,,
Fisher Auto Parts,1029,725 Union Ave,,Laconia, NH,,United States,(603) 524-2528,-71.462997,23.6636506868151,,,,
Fisher Auto Parts,1040,370 Shelburne Rd Ste 6,,Burlinigton, VT,,United States,(802) 864-6829,-73.208625,1.46972209697444,,,,
Fisher Auto Parts,1041,46 Kellogg Rd Bldg A,,Essex Jct, VT,,United States,(802) 878-8444,-73.090758,6.00540659820974,,,,
Fisher Auto Parts,1047,40 Foundry St #2,,Waterbury, VT,,United States,(802) 244-7533,-72.755959,24.4672042931394,,,,
Fisher Auto Parts,1046,156 Fiddlers Grn # Po # 635,,Waitsfield, VT,,United States,(802) 496-3188,-72.834796,27.6507270277789,,,,
Fisher Auto Parts,1044,48 Lower Main St East,,Johnson, VT,,United States,(802) 635-7133,-72.678759,28.4693836744435,,,,
Fisher Auto Parts,1091,1400 W College Ave Ste 1,,State College, PA,,United States,(814) 238-0504,-77.798361,4.32794296375423,,,,
Fisher Auto Parts,1092,701 E Bishop St,,Bellefonte, PA,,United States,(814) 355-5497,-77.766736,9.59419296706132,,,,
Fisher Auto Parts,1094,104 W Presqueisle St,,Philipsburg, PA,,United States,(814) 342-2450,-78.22323,20.2474167657212,,,,
Fisher Auto Parts,1102,45 E Hale St,,Lewistown, PA,,United States,(717) 248-6772,-77.570525,20.4159257458322,,,,
Fisher Auto Parts,1159,4404 Lafayette Blvd,,Fredericksburg, VA,,United States,(540) 898-4841,-77.493347,34.0228992710925,,,,
Fisher Auto Parts,1164,1203 S Main St,,Culpeper, VA,,United States,(540) 825-5250,-77.998854,34.4523463949692,,,,
Fisher Auto Parts,1003,145 Lancaster St,,Leominster, MA,,United States,(978) 534-6564,-71.753711,0.4862714657862,,,,
Fisher Auto Parts,1513,1073 N Aurora Rd,,Aurora, OH,,United States,(330) 562-5136,-81.3776997,30.0082326421431,,,,
Fisher Auto Parts,1110,27 N Antrim Way,,Greencastle, PA,,United States,(717) 597-7626,-77.7308622,10.3624424243146,,,,
Fisher Auto Parts,1109,4620 Lincoln Way E,,Fayetteville, PA,,United States,(717) 352-7071,-77.555311,20.4259441365292,,,,
Fisher Auto Parts,1108,700 W Loudon St,,Chambersburg, PA,,United States,(717) 264-6171,-77.672636,20.5321181712059,,,,
Fisher Auto Parts,1676,2350 Rust Ave,,Cape Girardeau, MO,,United States,(573) 335-8215,-89.554815,2.33258004474981,,,,
Fisher Auto Parts,1677,124 S Hope St,,Jackson, MO,,United States,(573) 243-3561,-89.666535,9.70543391550837,,,,
E. Blankenship & Co.,1661,100 McKinley St,,Anna, IL,,United States,(618) 833-5158,-89.241607,18.5273189022261,,,,
E. Blankenship & Co.,1663,202 Blair St,,Murphysboro, IL,,United States,(618) 565-2530,-89.340832,33.1320870679235,,,,
Fisher Auto Parts,1154,420 N. 6th St  Bullocks Plaza,,Denton, MD,,United States,(410) 479-2770,-75.823902,24.6023981552102,,,,
Manlove Auto Parts,1127,117 E Market St,,Georgetown, DE,,United States,(302) 856-2507,-75.384304,33.1257734963565,,,,
