store_name,store_number,address,address2,city,state,zip_code,country,phone_number,latitude,longitude,store_hours,store_type,other_fields,coming_soon
,,1420 Palisades Center Dr,,West Nyack,New York,10994,United States,(845) 353-3256,,,"Hours may fluctuate. For detailed hours of operation, please contact the store directly",,,
,,1 N Galleria Dr Ste 52,,Middletown,New York,10941,United States,(845) 692-9549,,,"Hours may fluctuate. For detailed hours of operation, please contact the store directly",,,
,,606 Douglas Ave,,Las Vegas,New Mexico,87701,United States,(505) 425-8231,,,"Mon: 9:00 am - 5:30 pm, Tue: 9:00 am - 5:30 pm, Wed: 9:00 am - 5:30 pm, Thu: 9:00 am - 5:30 pm, Fri: 9:00 am - 5:30 pm, Sat: 10:00 am - 4:00 pm",,,
,,Mesilla Valley Mall,,Las Cruces,New Mexico,88011,United States,(575) 522-1800,,,"Hours may fluctuate. For detailed hours of operation, please contact the store directly",,,
,,155 E Plains Ave,,Clovis,New Mexico,88101,United States,(575) 763-5548,,,"Hours may fluctuate. For detailed hours of operation, please contact the store directly",,,
,,2399 Meadowbrook Mall Ste 492,,Bridgeport,West Virginia,26330,United States,(304) 842-6937,,,"Hours may fluctuate. For detailed hours of operation, please contact the store directly",,,
,,2809 N Prince St Ste 155,,Clovis,New Mexico,88101,United States,(575) 763-5548,,,"Hours may fluctuate. For detailed hours of operation, please contact the store directly",,,
,,6600 Menaul Blvd NE Ste B1,,Albuquerque,New Mexico,87110,United States,(505) 883-7000,,,"Hours may fluctuate. For detailed hours of operation, please contact the store directly",,,
,,10000 Coors Bypass NW Ste G215,,Albuquerque,New Mexico,87114,United States,(505) 897-9363,,,"Hours may fluctuate. For detailed hours of operation, please contact the store directly",,,
,,12000 SE 82nd Ave Ste 2209,,Happy Valley,Oregon,97086,United States,(503) 654-7724,,,"Hours may fluctuate. For detailed hours of operation, please contact the store directly",,,
,,419 Cross Creek Mall Ste 240,,Fayetteville,North Carolina,28303,United States,(910) 864-1260,,,"Hours may fluctuate. For detailed hours of operation, please contact the store directly",,,
,,4300 Meadows Ln Ste 273,,Las Vegas,Nevada,89107,United States,(702) 878-1936,,,"Hours may fluctuate. For detailed hours of operation, please contact the store directly",,,
,,2899 Whiteford Rd Ste 170,,York,Pennsylvania,17402,United States,(717) 840-4007,,,"Hours may fluctuate. For detailed hours of operation, please contact the store directly",,,
,,3075 Clairton Rd # 4384,,West Mifflin,Pennsylvania,15122,United States,(412) 655-3800,,,"Hours may fluctuate. For detailed hours of operation, please contact the store directly",,,
,,250 Lehigh Valley Mall,,Whitehall,Pennsylvania,18052,United States,(610) 264-8563,,,"Hours may fluctuate. For detailed hours of operation, please contact the store directly",,,
,,2500 W Moreland Rd Ste 2021,,Willow Grove,Pennsylvania,19090,United States,(215) 657-4433,,,"Hours may fluctuate. For detailed hours of operation, please contact the store directly",,,
,,7700 E Kellogg Dr Ste 715,,Wichita,Kansas,67207,United States,(316) 686-3371,,,"Hours may fluctuate. For detailed hours of operation, please contact the store directly",,,
,,166 S 10th St,,Oakdale,Louisiana,71463,United States,(318) 335-3719,,,"Hours may fluctuate. For detailed hours of operation, please contact the store directly",,,
,,4700 Millhaven Rd Ste 1202,,Monroe,Louisiana,71203,United States,(318) 388-5962,,,"Hours may fluctuate. For detailed hours of operation, please contact the store directly",,,
,,524 W Prien Lake Rd,,Lake Charles,Louisiana,70601,United States,(337) 477-6468,,,"Hours may fluctuate. For detailed hours of operation, please contact the store directly",,,
,,5725 Johnston St Ste 2305,,Lafayette,Louisiana,70503,United States,(337) 981-8744,,,"Hours may fluctuate. For detailed hours of operation, please contact the store directly",,,
,,1401 W Esplanade Ave Ste 1204,,Kenner,Louisiana,70065,United States,(504) 465-0441,,,"Hours may fluctuate. For detailed hours of operation, please contact the store directly",,,
,,197 Westbank Expy Ste 33,,Gretna,Louisiana,70053,United States,(504) 208-2185,,,"Hours may fluctuate. For detailed hours of operation, please contact the store directly",,,
,,5953 W Park Ave Ste 1039,,Houma,Louisiana,70364,United States,(985) 876-2767,,,"Hours may fluctuate. For detailed hours of operation, please contact the store directly",,,
,,8961 Cortana Pl,,Baton Rouge,Louisiana,70815,United States,(225) 923-0150,,,"Hours may fluctuate. For detailed hours of operation, please contact the store directly",,,
,,2950 E Texas St Ste 110,,Bossier City,Louisiana,71111,United States,(318) 747-2897,,,"Hours may fluctuate. For detailed hours of operation, please contact the store directly",,,
,,3489 Masonic Dr,,Alexandria,Louisiana,71301,United States,(318) 448-1637,,,"Hours may fluctuate. For detailed hours of operation, please contact the store directly",,,
,,400 N Center St Ste 220,,Westminster,Maryland,21157,United States,(410) 876-0404,,,"Hours may fluctuate. For detailed hours of operation, please contact the store directly",,,
,,7900 Ritchie Hwy Ste C114,,Glen Burnie,Maryland,21061,United States,(410) 590-6303,,,"Hours may fluctuate. For detailed hours of operation, please contact the store directly",,,
,,1262 Vocke Rd Ste 106,,Cumberland,Maryland,21502,United States,(301) 729-6840,,,"Hours may fluctuate. For detailed hours of operation, please contact the store directly",,,
,,1280 Annapolis Mall,,Annapolis,Maryland,21401,United States,(410) 266-8377,,,"Hours may fluctuate. For detailed hours of operation, please contact the store directly",,,
,,14204 Burnhaven Dr,,Burnsville,Minnesota,55306,United States,(952) 435-8601,,,"Hours may fluctuate. For detailed hours of operation, please contact the store directly",,,
,,915 County Road 42 W,,Burnsville,Minnesota,55306,United States,(952) 435-8601,,,"Hours may fluctuate. For detailed hours of operation, please contact the store directly",,,
,,2800 Highway 90,,Gautier,Mississippi,39553,United States,(228) 497-6281,,,"Hours may fluctuate. For detailed hours of operation, please contact the store directly",,,
,,Edgewater Plaza Shopping Ctr,,Biloxi,Mississippi,39530,United States,,,,"Hours may fluctuate. For detailed hours of operation, please contact the store directly",,,
,,Edgewater Plaza Shopping Ctr,,Biloxi,Mississippi,39532,United States,(228) 388-7294,,,"Hours may fluctuate. For detailed hours of operation, please contact the store directly",,,
,,2600 Beach Blvd Ste 28,,Biloxi,Mississippi,39531,United States,(228) 388-5750,,,"Hours may fluctuate. For detailed hours of operation, please contact the store directly",,,
,,2825 S Glenstone Ave,,Springfield,Missouri,65804,United States,(417) 882-1844,,,"Hours may fluctuate. For detailed hours of operation, please contact the store directly",,,
,,85 S County Center Way,,Saint Louis,Missouri,63129,United States,(314) 845-6519,,,"Hours may fluctuate. For detailed hours of operation, please contact the store directly",,,
,,101 N Range Line Rd Ste 51,,Joplin,Missouri,64801,United States,(417) 782-4101,,,"Hours may fluctuate. For detailed hours of operation, please contact the store directly",,,
,,1500 W Chestnut St,,Washington,Pennsylvania,15301,United States,(412) 835-8889,,,"Hours may fluctuate. For detailed hours of operation, please contact the store directly",,,
,,148 Montgomery Mall,,North Wales,Pennsylvania,19454,United States,(215) 362-0146,,,"Hours may fluctuate. For detailed hours of operation, please contact the store directly",,,
,,Nittany Mall,,State College,Pennsylvania,16801,United States,(814) 234-8292,,,"Hours may fluctuate. For detailed hours of operation, please contact the store directly",,,
,,Colonial Park Mall,,Lower Paxton,Pennsylvania,17109,United States,(717) 545-4225,,,"Hours may fluctuate. For detailed hours of operation, please contact the store directly",,,
,,1736 Mall Run Rd,,Uniontown,Pennsylvania,15401,United States,(724) 437-7040,,,"Hours may fluctuate. For detailed hours of operation, please contact the store directly",,,
,,406 Park City Ctr,,Lancaster,Pennsylvania,17601,United States,(717) 397-0411,,,"Hours may fluctuate. For detailed hours of operation, please contact the store directly",,,
,,740 Millcreek Mall,,Erie,Pennsylvania,16565,United States,(814) 868-0805,,,"Hours may fluctuate. For detailed hours of operation, please contact the store directly",,,
,,3551 Capital City Mall Dr,,Camp Hill,Pennsylvania,17011,United States,(717) 763-1921,,,"Hours may fluctuate. For detailed hours of operation, please contact the store directly",,,
,,5800 Peach St,,Erie,Pennsylvania,16509,United States,(814) 868-0807,,,"Hours may fluctuate. For detailed hours of operation, please contact the store directly",,,
,,225 Columbia Mall Dr # 210,,Bloomsburg,Pennsylvania,17815,United States,(570) 387-8750,,,"Hours may fluctuate. For detailed hours of operation, please contact the store directly",,,
,,701 Lynnhaven Pkwy,,Virginia Beach,Virginia,23452,United States,(757) 463-3462,,,"Hours may fluctuate. For detailed hours of operation, please contact the store directly",,,
,,121 Neshaminy Mall,,Bensalem,Pennsylvania,19020,United States,(215) 357-5030,,,"Hours may fluctuate. For detailed hours of operation, please contact the store directly",,,
,,4200 Portsmouth Blvd Ste 118,,Chesapeake,Virginia,23321,United States,(757) 465-4143,,,"Mon: 10:00 am - 9:00 pm, Tue: 10:00 am - 9:00 pm, Wed: 10:00 am - 9:00 pm, Thu: 10:00 am - 9:00 pm, Fri: 10:00 am - 9:00 pm, Sat: 10:00 am - 9:00 pm, Sun: 12:00 pm - 6:00 pm",,,
,,500 Gate City Hwy Ste 270,,Bristol,Virginia,24201,United States,(276) 466-8444,,,"Hours may fluctuate. For detailed hours of operation, please contact the store directly",,,
,,2760 N Germantown Pkwy Ste 180,,Memphis,Tennessee,38133,United States,(901) 385-0023,,,"Mon: 10:00 am - 9:00 pm, Tue: 10:00 am - 9:00 pm, Wed: 10:00 am - 9:00 pm, Thu: 10:00 am - 9:00 pm, Fri: 10:00 am - 9:00 pm, Sat: 10:00 am - 9:00 pm, Sun: 12:00 pm - 6:00 pm",,,
,,7021 S Memorial Dr Ste 128,,Tulsa,Oklahoma,74133,United States,(918) 250-0502,,,"Hours may fluctuate. For detailed hours of operation, please contact the store directly",,,
,,4901 N Kickapoo Ave Ste 1622,,Shawnee,Oklahoma,74804,United States,(405) 275-0680,,,"Hours may fluctuate. For detailed hours of operation, please contact the store directly",,,
,,2501 W Memorial Rd Ste 125,,Oklahoma City,Oklahoma,73134,United States,(405) 751-9315,,,"Hours may fluctuate. For detailed hours of operation, please contact the store directly",,,
,,1901 NW Expressway Ste 2026B,,Oklahoma City,Oklahoma,73118,United States,(405) 848-2671,,,"Hours may fluctuate. For detailed hours of operation, please contact the store directly",,,
,,200 SW C Ave # 35,,Lawton,Oklahoma,73501,United States,(580) 353-6371,,,"Hours may fluctuate. For detailed hours of operation, please contact the store directly",,,
,,3343 W Main St,,Norman,Oklahoma,73072,United States,(405) 364-7910,,,"Hours may fluctuate. For detailed hours of operation, please contact the store directly",,,
,,1 Walden Galleria,,Cheektowaga,New York,14225,United States,(716) 681-8503,,,"Hours may fluctuate. For detailed hours of operation, please contact the store directly",,,
,,217 S 25th St,,Fort Dodge,Iowa,50501,United States,(515) 955-6975,,,"Hours may fluctuate. For detailed hours of operation, please contact the store directly",,,
,,6501 Grape Rd Ste 106,,Mishawaka,Indiana,46545,United States,(574) 277-3401,,,"Hours may fluctuate. For detailed hours of operation, please contact the store directly",,,
,,1251 US Highway 31 N Spc 160,,Greenwood,Indiana,46142,United States,(317) 885-6453,,,"Hours may fluctuate. For detailed hours of operation, please contact the store directly",,,
,,Il-251 & Wenzel Rd,,Peru,Illinois,61354,United States,(815) 224-3108,,,"Hours may fluctuate. For detailed hours of operation, please contact the store directly",,,
,,140 Saint Clair Sq,,Fairview Heights,Illinois,62208,United States,(618) 624-7269,,,"Hours may fluctuate. For detailed hours of operation, please contact the store directly",,,
,,3450 Wrightsboro Rd Ste 1120,,Augusta,Georgia,30909,United States,(706) 736-2245,,,"Hours may fluctuate. For detailed hours of operation, please contact the store directly",,,
,,1000 Southlake Mall,,Morrow,Georgia,30260,United States,(770) 968-0622,,,"Hours may fluctuate. For detailed hours of operation, please contact the store directly",,,
,,4737 Concord Pike Ste 630,,Wilmington,Delaware,19803,United States,(302) 479-5544,,,"Hours may fluctuate. For detailed hours of operation, please contact the store directly",,,
,,3210 Kirkwood Hwy,,Wilmington,Delaware,19808,United States,(302) 999-0181,,,"Hours may fluctuate. For detailed hours of operation, please contact the store directly",,,
,,604 Christiana Mall,,Newark,Delaware,19702,United States,(302) 731-7750,,,"Hours may fluctuate. For detailed hours of operation, please contact the store directly",,,
,,Blue Hen Mall,,Dover,Delaware,19901,United States,(302) 674-3570,,,"Hours may fluctuate. For detailed hours of operation, please contact the store directly",,,
,,1365 N DuPont Hwy,,Dover,Delaware,19901,United States,(302) 857-3809,,,"Hours may fluctuate. For detailed hours of operation, please contact the store directly",,,
,,8501 W Bowles Ave Ste 2C169,,Littleton,Colorado,80123,United States,(303) 948-7345,,,"Hours may fluctuate. For detailed hours of operation, please contact the store directly",,,
,,2701 Ming Ave Spc 200,,Bakersfield,California,93304,United States,(661) 835-3557,,,"Hours may fluctuate. For detailed hours of operation, please contact the store directly",,,
,,51027 Highway 6 Ste 147,,Glenwood Springs,Colorado,81601,United States,(970) 945-0491,,,"Hours may fluctuate. For detailed hours of operation, please contact the store directly",,,
,,2203 S Promenade Blvd Ste 8155,,Rogers,Arkansas,72758,United States,(479) 631-4682,,,"Hours may fluctuate. For detailed hours of operation, please contact the store directly",,,
,,4500 N Oracle Rd Ste 170,,Tucson,Arizona,85705,United States,(520) 293-7373,,,"Hours may fluctuate. For detailed hours of operation, please contact the store directly",,,
,,5870 E Broadway Blvd # D16,,Tucson,Arizona,85711,United States,(520) 747-0688,,,"Hours may fluctuate. For detailed hours of operation, please contact the store directly",,,
,,3299 Bel Air Mall #B7,,Mobile,Alabama,36606,United States,(251) 478-2833,,,"Hours may fluctuate. For detailed hours of operation, please contact the store directly",,,
,,2000 Riverchase Galleria Ste 281,,Hoover,Alabama,35244,United States,(205) 982-7239,,,"Hours may fluctuate. For detailed hours of operation, please contact the store directly",,,
,,735 Brookwood Vlg,,Birmingham,Alabama,35209,United States,(205) 871-6893,,,"Hours may fluctuate. For detailed hours of operation, please contact the store directly",,,
,,1445 W Southern Ave Ste 1196,,Mesa,Arizona,85202,United States,(480) 962-8096,,,"Hours may fluctuate. For detailed hours of operation, please contact the store directly",,,
,,9810 N Metro Pkwy W,,Phoenix,Arizona,85051,United States,(602) 997-6347,,,"Hours may fluctuate. For detailed hours of operation, please contact the store directly",,,
,,7700 W Arrowhead Towne Ctr,,Glendale,Arizona,85308,United States,(623) 412-1800,,,"Hours may fluctuate. For detailed hours of operation, please contact the store directly",,,
,,6555 E Southern Ave Ste 2320,,Mesa,Arizona,85206,United States,(480) 830-0418,,,"Hours may fluctuate. For detailed hours of operation, please contact the store directly",,,
,,3929 McCain Blvd,,North Little Rock,Arkansas,72116,United States,(501) 758-5442,,,"Hours may fluctuate. For detailed hours of operation, please contact the store directly",,,
,,3000 E Highland Dr Ste 411,,Jonesboro,Arkansas,72401,United States,(870) 336-2513,,,"Hours may fluctuate. For detailed hours of operation, please contact the store directly",,,
,,5111 Rogers Ave Ste 6,,Fort Smith,Arkansas,72903,United States,(479) 452-2110,,,"Hours may fluctuate. For detailed hours of operation, please contact the store directly",,,
,,4201 N Shiloh Dr # 200,,Fayetteville,Arkansas,72703,United States,(479) 521-2010,,,"Hours may fluctuate. For detailed hours of operation, please contact the store directly",,,
