store_name,store_number,address,address2,city,state,zip_code,country,phone_number,latitude,longitude,store_hours,store_type,other_fields,coming_soon
BROMBERG & CO. INC.,164,131 Summit Blvd.,,Birmingham,AL,35243,US,205-969-1776,33.444192,-86.730686,,,,
BROMBERG & CO. INC.,165,2800 Cahaba Road,,Mountain Brook,AL,35223,US,205-871-3276,33.483322,-86.774009,,,,
Osbornes Jewelers,381,3502 S. Memorial Parkway,,Huntsville,AL,35801,US,256-883-2150,34.696174,-86.583942,,,,
Osbornes Jewelers,382,622 South Jefferson Street,,Athens,AL,35611,US,256-232-4333,34.795634,-86.972254,,,,
Saks Fifth Avenue - Birmingham,409,129 Summit Blvd,,Birmingham,AL,35243,US,205-298-8550,33.445745,-86.731711,,,,
"CLAUDE MOORE JEWELER, INC.",48,3700 Dauphin Street,,Mobile,AL,36608,US,251-380-9400,30.687587,-88.131033,,,,
"WARE JEWELERS, INC - Downtown",510,111 S. College St.,,Auburn,AL,36830,US,334-821-7375,32.606186,-85.481377,,,,
"WARE JEWELERS, INC - East Chase",511,7268 East Chase Parkway,,Montgomery,AL,36117,US,334-386.9273,32.298427,-86.207335,,,,
"WARE JEWELERS, INC",512,30500 State Hwy 181 Ste. 316,,Spanish Fort,AL,36527,US,251-338-9273,30.670668,-87.85163,,,,
"WARE JEWELERS, INC - Tiger Town",513,2163 Tigertown Parkway,,Opelika,AL,36801,US,334.749.7375,32.619325,-85.406658,,,,
Nordstrom - Fashion Square,368,7055 East Camelback Road,,Scottsdale,AZ,85251,US,(480) 946-4111,33.502131,-111.929538,,,,
Saks Fifth Avenue - Phoenix,415,2446 E. Camelback Rd,,Phoenix,AZ,85016,US,602-955-8000,33.509459,-112.029118,,,,
Renee Taylor Gallery,472,336 S. R 179 Suite B 124,,Sedona,AZ,86336,US,928-282-7130,34.862227,-111.763464,,,,
Renee Taylor Gallery,473,"276 N. Hwy 89A, Suite C2",,Sedona,AZ,86336,US,928-282-1506,34.871247,-111.759593,,,,
MICHAEL'S CREATIVE JEWELRY,293,23233 N. Pima Rd Suite 111,,PHOENIX,AZ,85255,US,480- 515-1200,33.69665,-111.889255,,,,
Neiman Marcus - Scottsdale,334,6900 E Camelback,,Scottsdale,AZ,85251,US,480-990-2100,33.502688,-111.932091,,,,
Lauray's,96,402 Central Avenue,,Hot Springs,AR,71901,US,501-321-2441,34.513623,-93.054246,,,,
ROBERSON'S FINE JEWELRY,394,11525 Cantrell Road,,Little Rock,AR,72212,US,501-664-9000,34.791963,-92.40133,,,,
Underwood's Fine Jewelers,485,611 W Dickson St,,"Fayetteville, AR 72701",AR,72701,US,479-521-200,36.066274,-94.16745,,,,
"LUX, BOND & GREEN",279,46 La Salle Road,,West Hartford,CT,06107,US,860-521-3015,41.760205,-72.743975,,,,
"LUX, BOND & GREEN",280,169 Greenwich Avenue,,Greenwich,CT,06830,US,203-629-0900,41.028229,-73.62594,,,,
"LUX, BOND & GREEN",278,Somerset Square,,Glastonbury,CT,06033,US,860-659-8510,41.725854,-72.549812,,,,
Hyde Park - Cherry Creek Shopping Center,229,3000 E 1st Ave #243,,Denver,CO,80206,US,303-333-4446,39.717501,-104.952671,,,,
Nordstrom - Park Meadows,365,8465 Park Meadows Center Drive,,Littleton,CO,80124,US,(303) 799-3400,39.559285,-104.876622,,,,
Neiman Marcus - Denver,331,3030 E. First Ave,,Denver,CO,80206,US,303-329-2600,39.717201,-104.952082,,,,
Williams Jewelers,516,5106 South Broadway,,Englewood,CO,80113,US,303-761-9700,39.623714,-104.98624,,,,
Hamilton Jewelers Pavillion,77,504 Pavilions Ln,,Sacramento,CA,95825,US,916-927-2300,38.574573,-121.410302,,,,
Bloomingdale's - San Francisco,139,845 Market St,,San Francisco,CA,94103,US,415-856-5424,37.78451,-122.406709,,,,
Bloomingdale's - Century City,143,10250 Santa Monica Blvd,,Los Angeles,CA,90067,US,310-772-7113,34.059604,-118.419432,,,,
Bloomingdale's - Sherman Oaks,144,14060 Riverside Dr,,Sherman Oaks,CA,91423,US,818-325-2340,34.157124,-118.43932,,,,
Bloomingdale's - Fashion Newport,145,701 Newport Center Dr,,Newport Beach,CA,92660,US,949-729-6712,33.617442,-117.875762,,,,
Bloomingdale's - Stanford,146,1 Stanford Shopping Center,,Palo Alto,CA,94304,US,650-463-2046,37.44291,-122.171266,,,,
Bloomingdale's - Beverly Center,147,8500 Beverly Blvd,,Los Angeles,CA,90048,US,310-360-2832,34.075331,-118.377493,,,,
Bloomingdale's - Glendale,151,103 South Brand Blvd,,Glendale,CA,91210,US,818-638-4100,34.145312,-118.255897,,,,
Bloomingdale's - San Diego,152,7057 Friars Rd,,San Diego,CA,92108,US,619-610-6451,32.76859,-117.164433,,,,
Bloomingdale's - South Coast Plaza,153,3333 S.Bristol St,,Costa Mesa,CA,92626,US,714-824-4678,33.69074,-117.888973,,,,
Neiman Marcus - Topanga,343,6550 Topanga Canyon Blvd,,Canoga Park,CA,91303,US,818-316-7000,34.190246,-118.605033,,,,
Neiman Marcus - Walnut Creek,345,1000 S. Main St,,Walnut Creek,CA,94596,US,925-279-3000,37.897306,-122.059925,,,,
Nordstrom - Walnut Creek,366,1200 Broadway Plaza,,Walnut Creek,CA,94596,US,(925) 930-7959,37.897166,-122.058178,,,,
Nordstrom - South Coast Plaza,372,3333 Bristol Street,,Costa Mesa,CA,92626,US,(714) 549-8300,33.69074,-117.888973,,,,
Nordstrom - Fashion Valley Center,373,6997 Friars Road,,San Diego,CA,92108,US,(619) 295-4441,32.768896,-117.168087,,,,
Saks Fifth Avenue - Beverly Hills,404,9600 Wilshire Blvd,,Beverly Hills,CA,90212,US,310-275-4211,34.066723,-118.40372,,,,
Saks Fifth Avenue - Palm Desert,408,73555 El Paseo Dr,,Palm Desert,CA,92260,US,760-837-2900,33.71958,-116.388951,,,,
Augustina's   A Gallery of Wearable Art,585,Ocean Avenue,,Carmel-by-the-Sea,CA,93921,US,831-624-2403,36.555096,-121.919506,,,,
SWISS WATCH GALLERY,468,940 The Shops at Mission Viejo,,Mission Viejo,CA,92691,US,949-364-2500,33.557141,-117.671389,,,,
CREATIONS BY YOU FINE JEWELERS,50,3341 Solano Avenue,,Napa,CA,94558,US,707-252-8131,38.3197439,-122.3109835,,,,
"MULLOYS FINE JEWELRY, INC.",302,2978 State Street,,Carlsbad,CA,92008,US,760-729-5771,33.159962,-117.348783,,,,
Neiman Marcus - Los Angeles,318,9700 Wilshire Blvd,,Beverly Hills,CA,90212,US,310-550-5900,34.066688,-118.406146,,,,
Neiman Marcus - Fashion Island,319,601 Newport Center Dr,,Newport Beach,CA,92660,US,949-759-1900,33.617919,-117.875087,,,,
Neiman Marcus - San Francisco,320,150 Stockton St,,San Francisco,CA,94108,US,415-362-3900,37.787313,-122.406975,,,,
Neiman Marcus - San Diego,324,7027 Friars Rd,,San Diego,CA,92108,US,619-692-9100,32.76893,-117.167137,,,,
Neiman Marcus - Palo Alto,329,400 Stanford Center,,"Palo, Alto",CA,94304,US,650-329-3300,37.441328,-122.17261,,,,
Saks Fifth Avenue - South Coast Plaza,422,3333 Bristol St,,Costa Mesa,CA,92626,US,714-540-3233,33.69074,-117.888973,,,,
Saks Fifth Avenue - San Francisco,426,220 Post St,,San Francisco,CA,94108,US,415-986-4300,37.788901,-122.405732,,,,
WICKERSHAM JEWELERS,514,7784 N. Blackstone Avenue,,Fresno,CA,93720,US,559-803-6521,36.849525,-119.790685,,,,
WICKERSHAM JEWELERS,515,6521 Truxtun Avenue,,Bakersfield,CA,93309,US,661-324-6521,35.361322,-119.076118,,,,
SMYTHE & CROSS FINE JEWELRY,595,350 Main st,,Los Altos,CA,94022,US,650-383-5426,37.378241,-122.117396,,,,
A. R. MORRIS JEWELERS,104,3832 Kennett Pike,,Greenville,DE,19807,US,302 777 4367,39.77517,-75.595204,,,,
A. R. MORRIS JEWELERS,4,802 Market Street,,Wilmington,DE,19801,US,302-658-4013,39.743433,-75.548839,,,,
Neiman Marcus - Washington,316,5300 Wisconsin Ave NW,,Washington,DC,20015,US,202-966-9700,38.959568,-77.085631,,,,
Bloomingdale's - Ala Moana,155,1450 Ala Moana Blvd,,Honolulu,HI,96814,US,808-955-9517,21.290463,-157.84373,,,,
Neiman Marcus - Ala Moana,344,1450 Ala Moana Blvd,,Honolulu,HI,96814,US,808-951-8887,21.290463,-157.84373,,,,
Levy's,98,"7804 Abercorn Street, Box 94",,Savannah,GA,31406,US,912.238.2120,31.98581129999999,-81.08650349999999,,,,
Bloomingdale's - Atlanta,150,3393 Peachtree Rd NE,,Atlanta,GA,30326,US,404-869-7864,33.846672,-84.361943,,,,
BROWN & CO.,166,674 Holcomb Bridge Road,,Roswell,GA,30076,US,770-993-1080,34.034145,-84.34124,,,,
BROWN & CO.,167,3225 Peachtree Road NE,,Atlanta,GA,30305,US,404-814-9800,33.842409,-84.372652,,,,
Levy's,99,2 East Broughton Street,,Savannah,GA,31401,US,912.233.1163,32.079121,-81.09164799999999,,,,
Saks Fifth Avenue - Atlanta,417,3440 Peachtree Rd Ste B,,Atlanta,GA,30326,US,404-261-7234,33.851231,-84.361494,,,,
Neiman Marcus - Atlanta,314,3393 Peachtree Rd NE,,Atlanta,GA,30326,US,404-266-8200,33.846672,-84.361943,,,,
GIRARDIN JEWELERS,65,3321 N. Valdosta Road,,Valdosta,GA,31602,US,229-242-8546,30.8782858,-83.2974708,,,,
"GODWIN JEWELERS, INC.",66,400 E. Shotwell Street,,Bainbridge,GA,39819,US,229-246-7900,30.9039786,-84.574274,,,,
Windsor GA,517,2635 Washington Road,,Augusta,GA,30904,US,706.738.7777,33.508239,-82.021375,,,,
DIMO FINE JEWELRY,56,1318  Browns Bridge Road,,Gainesville,GA,30501,US,770-533-9070,34.2872451,-83.83956099999999,,,,
Tena's Fine Diamonds and Jewelry,525,283 E. Clayton Street,,Athens,GA,30601,US,706-543-3473,33.959016,-83.374805,,,,
SIMMONS FINE JEWELRY,464,1220 N. Olive Ave.,,Meridian,ID,83642,US,208-888-2799,43.61601,-116.355157,,,,
H & H JEWELS,71,3434 Main Hwy,,Miami,FL,33133,US,305-442-9760,25.7276311,-80.24298259999999,,,,
J R DUNN,80,4210 N. Federal Highway,,Lighthouse Point,FL,33064,US,954-782-5000,26.2826895,-80.09600689999999,,,,
JAE'S JEWELERS,81,237 Miracle Mile,,Coral Gables,FL,33134,US,305-443-7724,25.7497942,-80.2595221,,,,
"BE ON PARK , LLC",119,152 S. Park Avenue,,Winter Park,FL,32789,US,407-644-1106,28.596894,-81.350732,,,,
Bloomingdale's - Boca Raton,125,5840 Glades Rd,,Boca Raton,FL,33431,US,561-394-2287,26.366136,-80.134108,,,,
Bloomingdale's - Aventura,126,19555 Biscayne Blvd,,Aventura,FL,33180,US,305-792-1069,25.95721,-80.143163,,,,
Bloomingdale's - Palm Beach Gardens,131,3105 PGA Blvd,,Palm Beach Gardens,FL,33410,US,561-625-2189,26.848401,-80.084738,,,,
Bloomingdale's - Orlando,137,4150 Conroy Rd,,Orlando,FL,32839,US,407-264-2438,28.484029,-81.42971,,,,
Bloomingdale's - Miami,138,8778 S.W. 136th St,,Miami,FL,33176,US,305-252-6265,25.642713,-80.336346,,,,
BLUE WATER JEWELERS,160,500 Anastasia Boulevard,,St. Augustine,FL,32080,US,904-829-5855,29.890498,-81.294672,,,,
Neiman Marcus - Orlando,339,4307 Vineland Rd,,Orlando,FL,32811,US,800-590-7046,28.497839,-81.432419,,,,
Neiman Marcus - Boca Raton,341,5860 Glades Rd,,Boca Raton,FL,33431,US,561-417-5151,26.364835,-80.135012,,,,
Neiman Marcus - Ft.Lauderdale,355,2442 E. Sunrise Blvd,,Ft.Lauderdale,FL,33043,US,954-566-6666,26.13782,-80.114785,,,,
Saks Fifth Avenue - Boca Raton,414,5800 Glades Rd,,Boca Raton,FL,33431,US,561-393-9100,26.368421,-80.13338,,,,
Saks Fifth Avenue - Dadeland,420,7687 N. Kendall Dr,,Miami,FL,33156,US,305-662-8655,25.689666,-80.314784,,,,
Saks Fifth Avenue - Ft.Myers,429,13499 US Highway 41 SE,,Fort Myers,FL,33907,US,239-489-0980,26.550406,-81.870297,,,,
Saks Fifth Avenue - Naples,430,5395 Tamiami Trail North,,Naples,FL,34108,US,239-592-5900,26.211951,-81.80248,,,,
Saks Fifth Avenue - Sarasota,436,120 University Town Center Dr.,,Sarasota,FL,34243,US,941-364-5300,27.384583,-82.452907,,,,
Saks Fifth Avenue - Palm Beach Gardens,442,3109 PGA Blvd,,Palm Beach Gardens,FL,33410,US,561-694-9009,26.848336,-80.085504,,,,
Saks Fifth Avenue - Bal Harbour,445,9700 Collins Ave,,Bal Harbour,FL,33154,US,305-865-1100,25.88856,-80.12474,,,,
UNDERWOOD JEWELERS CORPORATION,482,2044 San Marco Boulevard,,Jacksonville,FL,32207,US,904-398-4363,30.303411,-81.652981,,,,
Neiman Marcus - Bal Harbour,313,9700 Collins Ave,,Bal Harbour,FL,33154,US,305-865-6161,25.88856,-80.12474,,,,
Neiman Marcus - Coral Gables,337,390 San Lorenzo,,Coral Gables,FL,33134,US,786-999-1000,25.731802,-80.261428,,,,
UNDERWOOD JEWELERS CORPORATION,483,10300 Southside Blvd Ste. 1520A,,Jacksonville,FL,32256,US,904-394-1390,30.184597,-81.553503,,,,
UNDERWOOD JEWELERS CORPORATION,484,330 A1A North Ste. 204,,Ponte Vedra Beach,FL,32802,US,904-280-1202,30.235808,-81.386585,,,,
"Veranda Of Vero Beach, Inc",486,3325 Ocena Dr,,Vero Beach,FL,32963,US,772-234-3404,27.65274,-80.356683,,,,
Neiman Marcus - Tampa Bay,338,2223 Westshore Dr,,Tampa,FL,33609,US,813-877-5700,27.945471,-82.526772,,,,
THE GEM COLLECTION,590,3501 Thomasville Road,,Tallahassee,FL,32309,US,850-893-4171,30.507475,-84.248696,,,,
Diamond District,522,7995 Plaza del Lago Dr,,Estero,FL,33928,US,(239) 947-3434,26.406702,-81.810538,,,,
MAHARAJA'S,281,105 W. 23rd Street,,Panama City,FL,32405,US,850-763-4224,30.18905,-85.660919,,,,
Jack Lewis,82,1704 Eastland Dr,,Bloomington,IL,61704,US,309-663-0538,40.4844945,-88.95015959999999,,,,
James & Sons,84,1457 North Halsted Street,,Linclon Park,IL,60642,US,773-327-8800,41.908263,-87.647961,,,,
Jones Bros. Jewelers,90,7705 N. Grand Prairie Drive,,Peoria,IL,61615,US,309-692-3228,40.7811432,-89.6763893,,,,
Bloomingdale's - Chicago,130,900 N. Michigan Ave,,Chicago,IL,60611,US,312-440-4465,41.89954,-87.624471,,,,
Bloomingdale's - Skokie,141,4963 Old Orchard Center,,Skokie,IL,60077,US,847-568-2299,42.061292,-87.750745,,,,
Burdeen's Jewelry,168,1151 W Lake Cook Rd,,Buffalo Grove,IL,60089,US,847-459-8980,42.153563,-87.984802,,,,
Nordstrom - Michigan Avenue,369,55 East Grand Avenue,,Chicago,IL,60611,US,(312) 464-1515,41.891454,-87.62618,,,,
Rollands,398,500 N. Milwaukee Rd,,Libertyville,IL,60048,US,847-918-7300,42.287908,-87.953978,,,,
Saks Fifth Avenue - Chicago,411,700 N. Michigan Ave,,Chicago,IL,60611,US,312-944-6500,41.895314,-87.624941,,,,
Von Maur - The Shoppes at College Hills,490,301 Veterans Parkway,,Normal,IL,61761,US,309-454-2048,40.507046,-88.958397,,,,
Von Maur  - Hickory Point Mall,492,1350 Hickory Point Mall,,Forsyth,IL,62535,US,217-877-2499,39.917791,-88.95874,,,,
Von Maur  - Southpark Mall,494,4500 16th Street,,Moline,IL,61265,US,309-797-0575,41.467376,-90.502478,,,,
Von Maur  - Yorktown Center,498,145 Yorktown Shopping Center,,Lombard,IL,60148,US,630-953-8181,41.839817,-88.006271,,,,
Neiman Marcus - Northbrook,317,5000 Northbrook Ct,,Northbrook,IL,60062,US,847-564-0300,42.150559,-87.817053,,,,
Neiman Marcus - Oakbrook,325,6 Oakbrook Center,,Oakbrook,IL,60523,US,630-572-1500,41.848677,-87.950503,,,,
Neiman Marcus - Chicago,327,737 N. Michigan Ave,,Chicago,IL,60611,US,312-642-5900,41.896067,-87.623583,,,,
James & Sons,523,15234 S LaGrange Road,,Orland Park,IL,60462,US,708.226.1467,41.613195,-87.854909,,,,
Von Maur  - Charlestowne Mall,503,3810 East Main Street,,St Charles,IL,60174,US,630-377-9987,41.922799,-88.269172,,,,
Von Maur  - The Glen Town Center,505,1960 Tower Drive,,Glenview,IL,60026,US,847-724-4199,42.090095,-87.825563,,,,
Brinkers,163,111 S Green River Rd,,Evansville,IN,47715,US,812-476-0651,37.975615,-87.493241,,,,
Albert’s Diamond Jewelers,171,711 Main St,,Schererville,IN,46375,US,219-322-2700,41.522504,-87.469198,,,,
Images,230,300 E Bristol St,,Elkhart,IN,46514,US,574-264-2040,41.702875,-85.973514,,,,
Reis Nichols,390,789 US 31 North,,Greenwood,IN,46142,US,317-883-4467,39.627645,-86.120312,,,,
Reis Nichols,391,3535 E. 86th St,,Indianapolis,IN,46240,US,317-255-4467,39.910171,-86.106587,,,,
Saks Fifth Avenue - Indianapolis,435,8701 Keystone Crossing,,Indianapolis,IN,46240,US,317-816-0171,39.913756,-86.107907,,,,
Moyer Fine Jewelry,301,14727 US 31 North,,Carmel,IN,46032,US,317-844-9003,40.002546,-86.126144,,,,
Von Maur  - Jefferson Pointe,502,4202 W. Jefferson Blvd,,Fort Wayne,IN,46804,US,260-432-3244,41.070875,-85.193999,,,,
Von Maur  - College Square Mall,491,6301 University Avenue,,Cedar Falls,IA,52402,US,319-277-7490,42.511389,-92.434571,,,,
Von Maur  - Valley West Mall,493,1551 Valley West Drive,,West Des Moines,IA,50266,US,515-223-1311,41.599533,-93.748977,,,,
Von Maur  - Northpark Mall,495,320 Kimberly Rd,,Davenport,IA,52806,US,563-386-0880,41.56369,-90.574718,,,,
Von Maur  - Iowa River Landing,496,115 Iowa River Landing Place,,Coralville,IA,52241,US,319-351-7220,41.683299,-91.560067,,,,
Von Maur  - Lindale Mall,497,4444 1st Avenue NE,,Cedar Rapids,IA,52402,US,319-395-9770,42.025518,-91.627213,,,,
Gunderson's,68,4830 Sergaent Rd,,Sioux City,IA,51102,US,712-255-7229,42.5,-96.4,,,,
RANDY COOPERS FINE JEWELRY,389,1856N North Rock Road,,Wichita,KS,67206,US,316-634-1799,37.717221,-97.242735,,,,
"MAZZARESE/TJTS, INC.",288,Parkway Plaza,,Leawood,KS,66224,US,913-491-4111,38.885829,-94.643098,,,,
Von Maur  - Towne East Square,504,7700 East Kellogg Drive,,Wichita,KS,67207,US,316-685-6100,37.683404,-97.247099,,,,
D.J. CO. D/B/A THE FIRST PLACE,51,2929 Rock Road #165,,Wichita,KS,67207,US,316-685-3241,37.6854303,-97.24459550000002,,,,
Shelia Bayes Fine Jewelry,462,410 W. Vine St,,Lexington,KY,40507,US,859-225-4043,38.050088,-84.50126,,,,
Michelson's,294,5017 Hinkleville Rd,,Paducah,KY,42001,US,270-443-9200,37.077792,-88.685022,,,,
Von Maur  - Oxmoor Center,508,7900 Shelbyville Road,,Louisville,KY,40222,US,502-425-7100,38.246542,-85.610363,,,,
Davis Jewelers,52,9901 Forest Green Blvd,,Louisville,KY,40223,US,502-212-0420,38.2629254,-85.5734659,,,,
HOLLIS & CO.,78,1815 Avenue of America,,Monroe,LA,71201,US,318-322-7794,32.5260365,-92.1133586,,,,
Lee Michaels Fine Jewelry - Bocage,253,7560 Corporate Blvd,,Baton Rouge,LA,70809,US,225-926-4644,30.430324,-91.111398,,,,
Lee Michaels Fine Jewelry - Mall of Louisiana,254,6401 Bluebonnet Blvd,,Baton Rouge,LA,70836,US,225-766-6000,30.385752,-91.084348,,,,
Lee Michaels Fine Jewelry - Lakeside Shopping Center,255,3301 Veterans Memorial Blvd,,New Orleans,LA,70002,US,504-832-0000,30.003139,-90.149704,,,,
Lee Michaels Fine Jewelry - Ambassador Crossing,256,4235 Ambassador Caffery Pkwy,,Lafayette,LA,70508,US,337-981-8071,30.160573,-92.053377,,,,
Lee Michaels Fine Jewelry - Youree Drive,257,6605 Youree Dr,,Shreveport,LA,71105,US,318-222-2929,32.445439,-93.719062,,,,
Saks Fifth Avenue - New Orleans,406,301 Canal St,,New Orleans,LA,70130,US,504-524-2200,29.950976,-90.065118,,,,
Bloomingdale's - Chevy Chase,148,5300 Western Ave,,Chevy Chase,MD,20815,US,240-744-3770,38.960275,-77.087582,,,,
Nordstrom - Montgomery Mall,375,7111 Democracy Boulevard,,Bethesda,MD,20817,US,(301) 365-4111,39.022887,-77.14572,,,,
RADCLIFFE JEWELERS,387,1848 Reisterstown Road,,Pikesville,MD,21208,US,410 484 2900,39.388905,-76.739972,,,,
RADCLIFFE JEWELERS,388,825 Dulaney Valley Road,,Towson,MD,21204-2883,US,4103216590,39.4039,-76.600628,,,,
Saks Fifth Avenue - Chevy Chase,413,5555 Wisconsin Ave,,Chevy Chase,MD,20815,US,301-657-9000,38.965103,-77.087299,,,,
ZACHARY'S JEWELERS,520,100 Main Street,,Annapolis,MD,21401,US,410-266-5555,38.977711,-76.487978,,,,
Bloomingdale's - Newton,132,225 Boylston St,,Newton,MA,02167,US,617-630-6726,42.321178,-71.176864,,,,
C.B. STARK JEWELERS,175,27 N Water St,,Edgartown,MA,02539,US,508-627-1260,41.389822,-70.512304,,,,
C.B. STARK JEWELERS,41,53A Main St,,Vineyard Haven,MA,02568,US,508-693-2284,41.455177,-70.602824,,,,
Saks Fifth Avenue - Boston,418,800 Boylston St,,Boston,MA,02199,US,617-262-8500,42.348485,-71.082457,,,,
C.B. STARK JEWELERS,42,10 Main Street,,Edgartown,MA,02539,US,508-627-1260,41.389822,-70.512304,,,,
"LONG'S JEWELERS, LTD",271,60A South Avenue,,Burlington,MA,01803,US,781-262-5823,42.483517,-71.220342,,,,
"LONG'S JEWELERS, LTD",272,35 Cross Street,,Peabody,MA,01860,US,978-531-6900,42.543961,-70.945491,,,,
"LONG'S JEWELERS, LTD",273,250 Granite Street,,Braintree,MA,02184,US,781-356-5300,42.221722,-71.022057,,,,
"LONG'S JEWELERS, LTD",274,100 Summer Street,,Boston,MA,02110,US,617-426-8500,42.353901,-71.057342,,,,
"LONG'S JEWELERS, LTD",275,323 Speen Street,,Natick,MA,01760,US,508-650-2900,42.304801,-71.381176,,,,
Koueiter,95,19815 Mack Ave,,Grosse Point WD,MI,48236,US,313-882-1110,44.3148443,-85.60236429999999,,,,
Nordstrom - Twelve Oaks Mall,371,27640 Novi Road,,Novi,MI,48377,US,(248)Ê504-5700,42.491467,-83.471823,,,,
Saks Fifth Avenue - Troy,416,2901 W. Big Beaver Rd,,Troy,MI,48084,US,248-643-9000,42.560156,-83.1856,,,,
Tappers,469,12 Oaks Mall,,Novi,MI,48377,US,248-465-1800,42.494984,-83.466222,,,,
Tappers,470,6337 Orchard Lake Rd,,W.Bloomfield Hills,MI,48322,US,248-932-7700,42.538179,-83.36054,,,,
Tappers,471,2800 W. Big Beaver Rd,,Troy,MI,48084,US,248-649-2000,42.563076,-83.184354,,,,
Neiman Marcus - Troy,336,2705 W. Big Beaver Rd,,Troy,MI,48084,US,248-643-3300,42.559796,-83.182332,,,,
Von Maur  - Briarwood Mall,506,300 Briarwood Circle,,Ann Arbor,MI,48108,US,734-622-0233,42.23884,-83.747347,,,,
Von Maur  - Laurel Park Place,507,37500 6 Mile Rd,,Livonia,MI,48152,US,734-432-6949,42.413498,-83.416619,,,,
Leo's Jewelry,265,34900 West Michigan Avenue,,Wayne,MI,48184,US,734-721-4311,42.282291,-83.382418,,,,
JB Hudson,88,901 Nicollet Mall,,Minneapolis,MN,55402,US,612-338-5950,44.97461699999999,-93.2737731,,,,
Nordstrom - Mall of America,370,1000 NW Court,,Bloomington,MN,55425,US,(952) 883-2121,44.861911,-93.25297,,,,
RF Moeller,392,5020 France Ave South,,Edina,MN,55410,US,952-926-6166,44.911774,-93.329411,,,,
RF Moeller,393,2065 Ford Parkway,,St Paul,MN,55116,US,651-383-4902,44.918159,-93.18776,,,,
Von Maur  - Eden Prairie Center,501,400 Prairie Center Drive,,Eden Prairie,MN,55344,US,952-829-0200,44.854324,-93.422458,,,,
Lee Michaels Fine Jewelry - Renaissance,258,940 Highland Colony Prkwy,,Ridgeland,MS,39157,US,601-957-6100,32.431812,-90.148863,,,,
CLARK JEWELRY,47,140 N Sharpe Ave,,Cleveland,MS,38732,US,662-843-3986,33.7461989,-90.7212825,,,,
The Jewelry Box Beau Rivage,292,875 Beach Blvd.,,Biloxi,MS,39530,US,228-386-7772,30.392997,-88.891848,,,,
Goldsmith Gallery Jewelers,67,903 Shiloh Crossing Blvd,,Billings,MT,59102,US,406-281-8414,45.752367,-108.615225,,,,
Halls Kansas City,72,2450 Grand Boulevard,,Kansas City,MO,64108-2524,US,816-274-3222,39.082659,-94.582446,,,,
Meierotto Jewelers,289,4311 NE Vivion Rd,,Kansas City,MO,64119,US,816-454-2052,39.201596,-94.531503,,,,
Neiman Marcus - St. Louis,315,100 Plaza Frontenac,,St. Louis,MO,63131,US,314-567-9811,38.626827,-90.433747,,,,
Saks Fifth Avenue - St. Louis,423,1701 S Lindbergh Blvd,,St. Louis,MO,63131,US,314-567-9200,38.630083,-90.407432,,,,
Gunderson's,69,17255 Davenport St Suite 111,,Omaha,NE,68118,US,402-935-6332,41.2606701,-96.18441469999999,,,,
Von Maur  - Westroads Mall,499,10010 California Street,,Omaha,NE,68114,US,402-390-0381,41.265605,-96.067431,,,,
Von Maur  - SouthPoint Pavillions,500,2900 Pine Lake Road,,Lincoln,NE,68516,US,402-420-9100,40.74164,-96.679718,,,,
Aria Men's,8,"3730 Las Vegas Blvd, S",,Las Vegas,NV,89158,US,702-590-8733,36.10722579999999,-115.1737679,,,,
T-Bird Jewels,360,1990 Village Center Circle #P6,,Las Vegas,NV,89134,US,702-256-3900,36.191842,-115.305402,,,,
Nordstrom - Fashion Show Mall,367,3200 Las Vegas Blvd S,,Las Vegas,NV,89109,US,(702) 862-2525,36.127224,-115.171551,,,,
M.J. CHRISTENSEN,295,10400 S. Eastern Ave,,Henderson,NV,89052,US,702-732-0138,36.002137,-115.107675,,,,
M.J. CHRISTENSEN,296,8980 W. Charleston Blvd.,,Las Vegas,NV,89117,US,702-952-2300,36.159662,-115.290738,,,,
Bellagio- Capri,291,3600 Las Vegas Blvd S.,,Las Vegas,NV,89109,US,702-693-7925,36.112238,-115.179084,,,,
Neiman Marcus - Las Vegas,323,3200 Las Vegas Blvd South,,Las Vegas,NV,89109,US,702-731-3636,36.127224,-115.171551,,,,
Saks Fifth Avenue - Las Vegas,425,3200 Las Vegas Blvd South,,Las Vegas,NV,89109,US,702-733-8300,36.127224,-115.171551,,,,
"VON BARGEN'S JEWELERY, LLC.",489,35 South Main St,,Hanover,NH,03755,US,603-653-0006,43.707361,-72.288729,,,,
Jay Roberts Jewelers,87,515 Route 73 South,,Marlton,NJ,08053,US,856-596-8600,39.878778,-74.923613,,,,
Leonardo Jewelers,97,829 ELizabeth Ave.,,Elizabeth,NJ,07201,US,908-351-0880,40.659125,-74.203164,,,,
BERNIE ROBBINS JEWELERS,121,500 Route 73 South,,Marlton,NJ,08053,US,856 985 4500,39.87604,-74.920497,,,,
BERNIE ROBBINS JEWELERS,122,507 New Road,,Somers Point,NJ,08244,US,609-927-4848,39.324195,-74.601226,,,,
Bloomingdale's - Bergen,128,400 Hackensack Ave,,Hackensack,NJ,07601,US,201-457-2044,40.907056,-74.031142,,,,
Bloomingdale's - Short Hills,129,1200 Morris Trnpk,,Short Hills,NJ,07078,US,973-379-5016,40.739962,-74.363413,,,,
Bloomingdale's - Bridgewater,140,410 Commons Way,,Bridgewater,NJ,08807,US,908-762-2548,40.587793,-74.619876,,,,
Bloomingdale's - Willowbrook,149,3 Willowbrook Blvd,,Wayne,NJ,07470,US,973-582-2509,40.889774,-74.248666,,,,
BRAUNSCHWEIGER JEWELERS,161,33 South Street,,Morristown,NJ,07960,US,973-538-2189,40.795114,-74.480294,,,,
BRAUNSCHWEIGER JEWELERS,162,1260 Springfeld Ave #19,,New Providence,NJ,07974,US,908-665-1487,40.704914,-74.403867,,,,
Kevin’s Fine Jewelry,247,650 Union Blvd,,Totowa,NJ,07512,US,973-790-8836,40.897232,-74.220895,,,,
LEONARDO JEWELERS,262,35 E. Front St.,,Red Bank,NJ,07701,US,732-747-7880,40.352823,-74.064047,,,,
O.T. TRENDZ & CO.,383,209 96th Street,,Stone Harbor,NJ,08247,US,609-368-3313,39.053644,-74.758866,,,,
ROMAN JEWELERS,399,500 Commons Way,,Bridgewater,NJ,08807,US,9085751242,40.589279,-74.619041,,,,
ROMAN JEWELERS,400,39 Highway 12,,Flemington,NJ,08822,US,908-782-8240,40.50244,-74.861999,,,,
Saks Fifth Avenue - Short Hills,434,1200 Morris Trnpk,,Short Hills,NJ,07078,US,973-376-7000,40.739962,-74.363413,,,,
Neiman Marcus - Short Hills,330,1200 Morris Trnpk,,Short Hills,NJ,07078,US,973-912-0080,40.739962,-74.363413,,,,
Neiman Marcus - Paramus,333,503 Garden State Plaza,,Paramus,NJ,07652,US,201-291-1920,40.917854,-74.07818,,,,
Gary Michaels Fine Jewelry,62,55 US Highway 9 South,,Manalapan,NJ,07726,US,732-577-1030,40.291196,-74.297805,,,,
Adlers Jewelers,521,219 North Ave. W,,Westfield,NJ,07090,US,908-233-6900,40.650122,-74.348897,,,,
Artwares Contemporary Jewelry,105,129 North Plaza,,Taos,NM,87571,US,575-758-8850,36.407237,-105.573856,,,,
Shelton Jewelers,463,7001 Montgomery Boulevard NE,,Albuquerque,NM,87109,US,505-881-1013,35.131109,-106.568254,,,,
Kay Cameron,92,48 Main St.,,Sayville,NY,11782,US,(631) 567-1698,40.7355423,-73.08296920000001,,,,
Bloomingdale's - New York (Third Ave),124,1000 Third Ave,,New York,NY,10022,US,212-705-2522,40.761775,-73.966667,,,,
Bloomingdale's - Walt Whitman,127,270 Walt Whitman Rd,,Huntington Station,NY,11746,US,631-425-6700,40.830481,-73.410998,,,,
Bloomingdale's - White Plains,133,175 Bloomingdale's Rd,,White Plains,NY,10605,US,914-684-6445,41.025056,-73.755907,,,,
Bloomingdale's - Garden City,142,630 Old Country Rd,,Garden City,NY,11530,US,516-873-2794,40.738621,-73.6118,,,,
CORNELL'S JEWELERS,179,3100 Monroe Avenue,,Rochester,NY,14618,US,585-264-0100,43.107792,-77.543089,,,,
NORTHEASTERN,377,1575 Western Avenue,,Albany,NY,12203,US,1.518.862.9441,42.684876,-73.848015,,,,
NORTHEASTERN,378,1607 Union Street,,Schenectady,NY,12309,US,1.518.372.3604,42.805373,-73.905574,,,,
Casale,385,1639 Richmond Road,,Staten Island,NY,10304,US,718-351-8300,40.590006,-74.101268,,,,
Saks Fifth Avenue - New York,403,611 Fifth Ave,,New York,NY,10022,US,212-753-4000,40.758045,-73.976975,,,,
SVS Fine Jewelry,467,3323 Long Beach Rd,,Oceanside,NY,11572,US,516-766-2614,40.630162,-73.640674,,,,
Tony Walker,477,"5110 Main St #120,",,Williamsville,NY,14221,US,(716) 626-3280,42.960396,-78.762171,,,,
Neiman Marcus - Westchester,322,2 Maple Ave,,White Plains,NY,10601,US,914-428-2000,41.028759,-73.762655,,,,
Saks Fifth Avenue - Walt Whitman,427,230 Walt Whitman Rd,,Hunington Station,NY,11746,US,631-350-1100,40.821597,-73.412154,,,,
John Hardy,102,118 Prince Street,,New York,NY,10012,US,212-343-9000,40.725044,-74.00199,,,,
MANN'S JEWELERS INC.,282,2945 Monroe Avenue,,Rochester,NY,14618,US,585-271-4000,43.109751,-77.547033,,,,
MANN'S JEWELERS INC.,283,326 Eastview Mall,,Victor,NY,14564,US,585-271-4000,43.027339,-77.445436,,,,
Bailey's Fine Jewelry - Greenville,107,511 Red Banks Road,,Greenville,NC,27858,US,252.353.3434,35.581835,-77.370984,,,,
Bailey's Fine Jewelry - Raleigh,108,415 Daniels Street,,Raleigh,NC,27605,US,919.829.7337,35.789697,-78.661745,,,,
Bailey's Fine Jewelry - Crab Tree,109,4325 Glenwood Avenue,,Raleigh,NC,27612,US,919.788.7500,35.839467,-78.679426,,,,
Bailey's Fine Jewelry - Rocky Mount,110,117 Winstead Avenue,,Rocky Mount,NC,27804,US,252.443.7676,35.964102,-77.84932,,,,
Diamond Shoal,183,4737 Arendell Street,,Morehead City,NC,28557,US,252.726.9682,34.732343,-76.785235,,,,
Fink's Jewelers,188,Birkdale Village,16745 Birkdale Commons Pkwy </br> Unit 2,Huntersville,NC,28078,US,704.927.4888,35.444951,-80.881655,,,,
Fink's Jewelers,190,4400 Sharon Road,,Charlotte,NC,28211,US,704.366.3120,35.152385,-80.832125,,,,
Fink's Jewelers,193,6910 Fayetteville Rd,Suite 160,Durham,NC,27713,US,919.281.8407,35.903451,-78.943106,,,,
Fink's Jewelers,195,1951 Battleground Avenue,,Greensboro,NC,27408,US,336.292.8355,36.096803,-79.818275,,,,
Fink's Jewelers,201,4321 Lassiter at North Hills Avenue,,Raleigh,NC,27609,US,919.881.8247,35.82792,-78.65,,,,
Neiman Marcus - Charlotte,342,4400 Sharon Rd,,Charlotte,NC,28211,US,704-442-7900,35.152385,-80.832125,,,,
Saks Fifth Avenue - Raleigh,432,7700 Old Wake Forest Rd,,Raleigh,NC,27616,US,919-792-9100,35.866556,-78.574289,,,,
SCHIFFMAN'S INC.,455,225 S.Elm St.,,Greensboro,NC,27401,US,336-272-5146,36.070715,-79.78999,,,,
SCHIFFMAN'S INC.,456,811 Friendly Center Road,,Greensboro,NC,27401,US,336-294-4885,36.087212,-79.830525,,,,
Marthaler,287,43 Town Square Blvd,,Asheville,NC,28803,US,828.676.1625,35.484328,-82.557109,,,,
Windsor NC,518,526 South Stratford Road,,Winston Salem,NC,27103,US,336.721.1768,36.088563,-80.287696,,,,
Windsor NC,519,6809-D Phillips Place Court,,Charlotte,NC,28210,US,704-556-7747,35.146584,-80.827023,,,,
James Free Jewelers,85,9555 Main St,,Cincinnati,OH,45242,US,888-844-0133,39.2294379,-84.3525001,,,,
James Free Jewelers,86,3100 Far Hills Ave,,Dayton,OH,45429,US,937-298-0171,39.7018734,-84.1697341,,,,
Alson Jewelers,101,28149 Chagrin Blvd,,Woodmere,OH,44122,US,216-464-6767,41.462757,-81.479513,,,,
Diamond Cellar - Easton Town Center,397,3960 New Bond St,,Columbus,OH,43219,US,614-923-6633,40.053325,-82.916241,,,,
Saks Fifth Avenue - Cincinnati,410,101 W. Fifth St,,Cincinnati,OH,45202,US,513-421-6800,39.10044,-84.51517,,,,
Saks Fifth Avenue - Columbus,433,1350 Polaris Prkwy,,Columbus,OH,43240,US,614-430-3500,40.144412,-82.982342,,,,
Marlen Jewelers,286,19525 Detroit Rd,,Rocky River,OH,44116,US,440-331-9004,41.480129,-81.838608,,,,
Saks Fifth Avenue - Beachwood,424,26100 Cedar Rd,,Beachwood,OH,44122,US,216-292-5500,41.499458,-81.493958,,,,
Von Maur  - The Greene Towne Center,509,100 Magnolia Lane,,Beavercreek,OH,45440,US,937-431-8880,39.693251,-84.099493,,,,
Diamond Cellar,53,6280 Sawmill Rd,,Dublin,OH,43017,US,614-336-4545,40.0947437,-83.09093279999999,,,,
BC CLARK DOWNTOWN,114,101 Park Ave,,Oklahoma City,OK,73120,US,405-232-8806,35.468986,-97.514813,,,,
BC CLARK PENN SQUARE MALL,115,1901 NW Expressway,,Oklahoma City,OK,73120,US,405-840-1441,35.524691,-97.544011,,,,
BC CLARK NORTHPARK,116,12042 N. May,,Oklahoma City,OK,73120,US,405-755-4040,35.59197,-97.56589,,,,
BRUCE WEBER,40,1700 Utica Sq Ste A,,Tulsa,OK,74114,US,918-749-1700,36.1329663,-95.9665067,,,,
Saks Fifth Avenue - Tulsa,412,1780 Utica Square,,Tulsa,OK,74114,US,918-744-0200,36.131546,-95.966442,,,,
CAYMANS,44,2001 West Main Street,,Norman,OK,73069,US,405-360-3969,35.219181,-97.47090399999999,,,,
Nordstrom - Washington Square,363,9700 SW Washington Square Road,,Tigard,OR,97223,US,(503) 620-0555,45.449406,-122.782389,,,,
Shreve,460,"640 SW Broadway,",,Portland,OR,97205,US,971-295-5555,45.519453,-122.679308,,,,
Bixlers Jewelers,112,3900 Hamilton Blvd,,Allentown,PA,18103,US,610 821 8641,40.57338,-75.534991,,,,
"VANSCOY, MAURER & BASH",113,830 Plaza Blvd,,Lancaster,PA,17601,US,717-299-4283,40.071316,-76.34188,,,,
Bernie Robbins Jewelers Promenade at Sycamore,120,200 N. Sycamore Stree,,Newtown,PA,18940,US,215 579 8224,40.234796,-74.937604,,,,
BERNIE ROBBINS JEWELERS,123,775 E. Lancaster Ave.,,Villanova,PA,19085,US,(610) 971-2446,40.036911,-75.351716,,,,
Bloomingdale's - King of Prussia,135,660 W. Dekalb Pike,,King of Prussia,PA,19406,US,610-337-6367,40.089238,-75.385965,,,,
Bloomingdale's - Willow Grove,136,2400 Moreland Rd,,Willow Grove,PA,19090,US,215-706-3406,40.141365,-75.117249,,,,
Orr's Jewelers,206,1001 Lafayette Drive,,Farmington,PA,15437,US,724 329 8555,39.806331,-79.551674,,,,
Orr's Jewelers,207,532 Beaver Street,,Sewickley,PA,15143,US,412 741 8080,40.515153,-80.120438,,,,
Orr's Jewelers,208,5857 Forbes Avenue,,Pittsburgh,PA,15217,US,412-421-6777,40.438211,-79.920743,,,,
BENARI JEWELERS,263,3606 West Chester Pike,,Newtown square,PA,19073,US,610 355 1800,39.986491,-75.399763,,,,
BENARI JEWELERS,264,299 Main Street,,Exton,PA,19341,US,610-363-8450,40.022713,-75.627669,,,,
Saks Fifth Avenue - Bala Cynwyd,419,2 Bala Plaza,,Bala Cynwyd,PA,19004,US,610-667-1550,40.006653,-75.217333,,,,
"Marks Jewelers, Inc.",285,921 Bethlechem Pike,,Montgomeryville,PA,18936,US,215-362-7132,40.234284,-75.23868,,,,
MOUNTZ JEWELERS,298,1160 Walnut Bottom Road,,Carlisle,PA,17015,US,717 243 4936,40.18135,-77.216494,,,,
MOUNTZ JEWELERS,299,4520 Jonestown Road,,Harrisburg,PA,17109,US,717 545 7508,40.300708,-76.81715,,,,
MOUNTZ JEWELERS,300,3780 Trindle Road,,Camp Hill,PA,17011,US,717 763 1199,40.235071,-76.945278,,,,
MURPHY JEWELERS,303,The Promenade Shops at Saucon Valley,,Center Valley,PA,18034,US,610 791 5200,40.529406,-75.393694,,,,
MURPHY JEWELERS,304,16 Jetson Drive,,Hamburg,PA,19526,US,610 562 2528,40.563914,-76.003591,,,,
MURPHY JEWELERS,305,115 West Market Street,,Pottsville,PA,17901,US,570-622-3136,40.685449,-76.196091,,,,
Neiman Marcus - King of Prussia,335,170 N. Gulph Rd,,King of Prussia,PA,19406,US,610-354-0500,40.08562,-75.39191,,,,
MARKS JEWELERS,600,975 BETHLEHEM PIKE,,MONTGOMERYVILLE,PA,18936,US,215-362-7132,40.227701,-75.234806,,,,
Louis Anthony Jewelers,276,1775 N. Highland Rd.,,Pittsburgh,PA,15241,US,412-854-0310,40.34919,-80.053044,,,,
PROVIDENCE DIAMOND,386,65 Hillside Road,,Cranston,RI,02920,US,(401) 946-7070,41.762821,-71.458825,,,,
Forsythe Jewelers,203,311 Sea Pines Center,,Hilton Head,SC,29928,US,843.671.7070,32.216316,-80.752608,,,,
Paulo Geiss Jewelers,384,116 East Bay Street,,Charleston,SC,29401,US,843.577.4497,32.776483,-79.926882,,,,
Carole Saunders,43,922 Gervais Street,,Columbia,SC,29201,US,803.256.3046,33.999917,-81.0373529,,,,
Christophers,46,11412 Ocean Hwy,,Pawleys Island,SC,29585,US,843.237.3773,33.4499319,-79.11848599999999,,,,
Sylvan's,461,1500 Main Street,,Columbia,SC,29201,US,803-779-2250,34.005581,-81.035044,,,,
Smithworks,465,361 East Kennedy Street,,Spartanburg,SC,29302,US,864.573.5252,34.94907,-81.922446,,,,
Floyd & Green,60,515 Silver Bluff Road,,Aiken,SC,29803,US,803.649.6005,33.518762,-81.726742,,,,
Gunderson's,70,2109 W. 57th St,,Sioux Falls,SD,57108,US,605-338-9060,43.5000688,-96.74966359999999,,,,
Joseph,91,418 Grove Park Road S,,Memphis,TN,38117,US,901.767.1609,35.1197798,-89.9110335,,,,
Bristol and Bragg,106,715 Watkins Road,,Maryville,TN,37801,US,865.982.8565,35.750036,-83.991757,,,,
GROGAN JEWELERS,603,1800 Galleria Blvd,,Franklin,TN,37067,US,,35.957121,-86.813535,,,,
J. H. Mednikow,240,474 Perkins Ext 100,,Memphis,TN,38117,US,901.767.2100,35.134896,-89.973625,,,,
King Jewelers,248,4121 Hillsboro Road,,Nashville,TN,37215,US,(615) 724-5464,36.101289,-86.819253,,,,
Rone Regency,401,1950 Gunbarrel Rd,,Chattanooga,TN,37421,US,423.894.1188,35.02979,-85.155111,,,,
Markman's,284,6932 Kingston Pike,,Knoxville,TN,37919,US,865.584.0247,35.931769,-84.022014,,,,
ALTER'S GEM & JEWELRY,7,3155 Dowlen Road,,Beaumont,TX,77706,US,409-861-3005,30.107992,-94.168999,,,,
Haltom's Arlington,73,4001 Arlington Highlands Blvd,,Arlington,TX,76018,US,817-468-3813,32.679839,-97.10889159999999,,,,
Haltom's Grapevine,74,1469 Hwy 114,,Grapevine,TX,76051,US,817-488-5527,32.9342919,-97.0780654,,,,
Haltom's Ridglea,75,6102 Camp Bowie Blvd,,Fort Worth,TX,76116,US,817-738-6511,32.7292551,-97.4153857,,,,
Haltom's Downtown,76,4101 S Cooper St # 101,,Arlington,TX,76015,US,817-468-3837,32.679261,-97.1288,,,,
J LOGGINS JEWELERS,79,Diamond Source Inc.,14015 Southwest Fwy,Sugar Land,TX,77478,US,281-242-2900,29.618521,-95.609001,,,,
Bachendorfs Galleria,9,13350 Dallas Parkway,,Dallas,TX,75240,US,972-392-9900,32.9284642,-96.8201966,,,,
Alexander's  Jewelers,100,3701 Mall Drive,,Texarkana,TX,75501,US,903-832-3557,33.454577,-94.08631,,,,
Barnes Jewelry,111,100 Westgate Parkway,,Amarillo,TX,79121,US,806-355-9874,35.185308,-101.933171,,,,
BEARD JEWELERS,117,2002 S. First Street,,Lufkin,TX,75901,US,936-637-2848,31.308296,-94.727158,,,,
Busch Jewelers,169,250 Cypress,,Abilene,TX,79601,US,325-677-9114,32.451173,-99.734476,,,,
JOHN HARDY,103,4444 Westheimer Road,Suite C140,Houston,TX,77027,US,713-622-7975,29.7416,-95.452784,,,,
Holland's  Fine Jewelry,219,501 W. Beauregard,,San Angelo,TX,76903,US,325-655-3135,31.459384,-100.446069,,,,
Joe Brand,242,5300 San Dario Ave,,Laredo,TX,78014,US,(956) 722-0771,27.551237,-99.49953,,,,
Lee Michaels Fine Jewelry - North Star Mall,259,7400 San Pedro Ave,,San Antonio,TX,78216,US,210-541-9575,29.518858,-98.495606,,,,
Lee Michaels Fine Jewelry - The Shops at La Cantera,260,15900 La Cantera Prkwy,,San Antonio,TX,78256,US,210-699-9494,29.594415,-98.615204,,,,
Neiman Marcus - San Antonio,340,15900 La Cantera Prkwy,,San Antonio,TX,78256,US,210-558-8000,29.594415,-98.615204,,,,
Neiman Marcus - Austin,346,3400 Palm Way,,Austin,TX,78758,US,512-719-1200,30.403885,-97.724578,,,,
Nordstrom - Houston Galleria,374,5192 Hidalgo Street,,Houston,TX,77056,US,(832) 201-2700,29.735856,-95.464208,,,,
Robert Lance Jewelers,395,5217 82nd Street Suite 400,,Lubbock,TX,79424,US,806-798-9772,33.518845,-101.923635,,,,
RUSSELL KORMAN CO.,402,5011 Burnet Road,,Austin,TX,78756,US,512-451-9292,30.321611,-97.738964,,,,
Saks Fifth Avenue - Houston,421,5115 WestHeimer Rd,,Houston,TX,77056,US,312-944-6500,29.739584,-95.465488,,,,
Saks Fifth Avenue - San Antonio,428,7400 San Pedro Ave,,San Antonio,TX,78216,US,210-341-4111,29.518858,-98.495606,,,,
Susan Robinson Jewelry,466,6009 South Broadway,,Tyler,TX,75703,US,903- 581-5530,32.284715,-95.304697,,,,
Bachendorfs Plaza,476,8400 Preston Road,,Dallas,TX,75225,US,214-692-8400,32.86464,-96.803781,,,,
TORIN BALES FINE JEWELRY,478,6007 North East,,Victoria,TX,77904,US,361-576-4777,28.788301,-96.955385,,,,
TRES MARIPOSAS,481,5857 N. Mesa,,El Paso,TX,79912,US,915-584-4444,31.827079,-106.526991,,,,
MONTALVO JEWELERS,297,TWO REMONT JEWELERS,,McAllen,TX,78501,US,956-971-1600,26.218844,-98.232236,,,,
NASR Brothers Jewelers,307,1800 Brinker Road,,Denton,TX,76205,US,940-565-8282,33.190951,-97.096271,,,,
NASR Brothers Jewelers,308,2667 Market Center,,Rockwall,TX,75032,US,972-772-7799,32.897958,-96.464531,,,,
Neiman Marcus - Downtown Dallas,309,1618 Main St,,Dallas,TX,75201,US,214-741-6911,32.780732,-96.797295,,,,
Neiman Marcus - NorthPark Dallas,310,400 NorthPark Center,,Dallas,TX,75225,US,214-363-8311,32.865871,-96.773391,,,,
Neiman Marcus - Fort Worth,311,2100 Green Oaks Blvd,,Fort Worth,TX,76116,US,817-738-3581,32.738882,-97.436715,,,,
Neiman Marcus - Houston,312,2600 S. Post Oak Rd,,Houston,TX,77056,US,713-621-7100,29.74899,-95.463225,,,,
Neiman Marcus - Plano Willow Bend,321,2201 Dallas Prkwy,,Plano,TX,75093,US,972-629-1700,33.030321,-96.831491,,,,
Donoho's Jewellers,57,9590 Six Pines Dr,,The Woodlands,TX,77380,US,281-367-9050,30.16439,-95.460103,,,,
LEWIS JEWELERS - Clear Lake,268,19335 Gulf Freeway Suite 4,,Webster,TX,77598,US,281-332-8433,29.543226,-95.141337,,,,
LEWIS JEWELERS - Uptown,269,1141 Uptown Park Blvd,,Houston,TX,77056,US,281-204-0555,29.755314,-95.456974,,,,
Nordstrom - Fashion Place Murray,364,6191 South State,,Murray,UT,84107,US,(801) 261-4402,40.638166,-111.888805,,,,
O.C. TANNER,379,15 South State Street,,Salt Lake City,UT,84111,US,801-486-2430,40.768769,-111.887684,,,,
O.C. TANNER,380,416 Main St.,,Park City,UT,84060,US,435- 940-9470,40.643451,-111.495485,,,,
NORTHEASTERN,376,4620 Main Street,,Manchester Ctr.,VT,05255,US,1.802.362.5177,43.174072,-73.060243,,,,
"VON BARGEN'S JEWELERY, LLC.",487,131 Church Street,,Burlington,VT,05401,US,802-864-0012,44.476761,-73.212811,,,,
"VON BARGEN'S JEWELERY, LLC.",488,35 S Main St,,Stowe,VT,05672,US,802-253-2942,44.465053,-72.68795,,,,
Keller & George,93,1149 Millmont St,,Charlottesville,VA,22903,US,434-293-5011,38.053919,-78.501637,,,,
Ben David,118,459 Mt Cross Road,,Danville,VA,24540,US,434.792.6627,36.594846,-79.428536,,,,
Bloomingdale's - McLean,134,8100 Tyson's Corner Center,,McLean,VA,22101,US,703-556-4665,38.916446,-77.221455,,,,
Fink's Jewelers,189,Valley View Blvd. NW,,Roanoke,VA,24012,US,540.362.3779,37.30529,-79.960885,,,,
Fink's Jewelers,191,1025 Emmet Street North,,Charlottesville,VA,22903,US,434.284.4060,38.050917,-78.501201,,,,
Fink's Jewelers,192,21100 Dulles Town Circle,,Dulles,VA,20166,US,571.434.6540,39.03252,-77.423682,,,,
Fink's Jewelers,194,1 Towne Center Boulevard,,Fredericksburg,VA,22407,US,540.736.1290,38.289872,-77.511939,,,,
Fink's Jewelers,196,16960 Forest Road,,Forest,VA,24551,US,434.237.6301,37.367056,-79.260003,,,,
Fink's Jewelers,197,300 E. Monticello Avenue,,Norfolk,VA,23510,US,757.640.1132,36.849493,-76.28937,,,,
Fink's Jewelers,198,Short Pump Town Center,,Richmond,VA,23233,US,804.377.8589,37.656218,-77.61944,,,,
Fink's Jewelers,199,11500 Midlothian Turnpike,,Richmond,VA,23235,US,804.379.7171,37.508587,-77.609372,,,,
Fink's Jewelers,200,3545 Electric Road,,Roanoke,VA,24018,US,540.342.2991,37.225949,-79.998814,,,,
Saks Fifth Avenue - Tysons,405,2051 International Dr,,McLean,VA,22102,US,703-761-0700,38.923621,-77.226419,,,,
Saks Fifth Avenue - Richmond,431,9214 Stony Point Prkwy,,Richmond,VA,23235,US,804-320-6960,37.549024,-77.570169,,,,
Christopher Williams,45,4090 Evelyn Byrd Ave,,Harrisonburg,VA,22801,US,800.294.1116,38.42289299999999,-78.83932500000002,,,,
Schwarzschild - Alverser,457,1200 Alverser Plaza,,Midlothian,VA,23113,US,804-344-0150,37.510468,-77.615575,,,,
Schwarzschild - Cary Town,458,3144 W. Cary Street,,Richmond,VA,23221,US,804-352-2136,37.553832,-77.482138,,,,
Schwarzschild - Short Pump,459,"11800 West Broad St, Suite 1312",,Richmond,VA,23233,US,804-967-0800,37.656218,-77.61944,,,,
Neiman Marcus - Tysons,328,2255 International Dr,,McLean,VA,22102,US,703-761-1600,38.92286,-77.22419,,,,
LONG JEWELERS INC,270,2953 Virginia Beach Blvd #105,,Virginia Beach,VA,23452,US,757-498-1186,36.84341,-76.074415,,,,
Jewelry Design Center,89,821 N. Division St.,,Spokane,WA,99202,US,509-487-5905,47.665369,-117.411898,,,,
Nordstrom - Downtown Seattle,361,55 East Grand Avenue,,Seattle,WA,98101,US,(206) 628-2111,47.613722,-122.283796,,,,
Nordstrom - Bellevue,362,100 Bellevue Square,,Bellevue,WA,98004,US,(425) 455-5800,47.609485,-122.201075,,,,
Treiber & Straub,480,14740 W. Capitol Dr,,Brookfield,WI,53005,US,262-790-5757,43.090401,-88.095498,,,,
