store_name,store_number,address,address2,city,state,zip_code,country,phone_number,latitude,longitude,store_hours,store_type,other_fields,coming_soon
,,9240 N. 56th Street,,Temple Terrace,FL,33617,United States,(813) 988-4191,28.0339044925427,-82.3940571351477,"Mon 7:00 AM - 7:00 PM , Tue 7:00 AM - 7:00 PM , Wed 7:00 AM - 7:00 PM , Thu 7:00 AM - 7:00 PM , Fri 7:00 AM - 7:00 PM , Sat 7:00 AM - 6:00 PM , Sun Closed , Mon 7:00 AM - 7:00 PM , Tue 7:00 AM - 7:00 PM , Wed 7:00 AM - 7:00 PM , Thu 7:00 AM - 7:00 PM , Fri 7:00 AM - 7:00 PM , Sat 7:00 AM - 6:00 PM , Sun Closed ",,,
,,2400 Capital Circle NE,,Tallahassee,FL,32308,United States,(850) 386-8473,30.4846391928265,-84.2376010026964,"Mon 7:00 AM - 7:00 PM , Tue 7:00 AM - 7:00 PM , Wed 7:00 AM - 7:00 PM , Thu 7:00 AM - 7:00 PM , Fri 7:00 AM - 7:00 PM , Sat 7:00 AM - 6:00 PM , Sun Closed , Mon 7:00 AM - 7:00 PM , Tue 7:00 AM - 7:00 PM , Wed 7:00 AM - 7:00 PM , Thu 7:00 AM - 7:00 PM , Fri 7:00 AM - 7:00 PM , Sat 7:00 AM - 6:00 PM , Sun Closed ",,,
,,7710 W. Oakland Park Blvd,,Sunrise,FL,33351,United States,(954) 513-4777,26.1657643166557,-80.2518078983211,"Mon 7:00 AM - 7:00 PM , Tue 7:00 AM - 7:00 PM , Wed 7:00 AM - 7:00 PM , Thu 7:00 AM - 7:00 PM , Fri 7:00 AM - 7:00 PM , Sat 7:00 AM - 6:00 PM , Sun Closed , Mon 7:00 AM - 7:00 PM , Tue 7:00 AM - 7:00 PM , Wed 7:00 AM - 7:00 PM , Thu 7:00 AM - 7:00 PM , Fri 7:00 AM - 7:00 PM , Sat 7:00 AM - 6:00 PM , Sun Closed ",,,
,,4295 SE Federal Highway,,Stuart,FL,34997,United States,(772) 320-0960,27.153389,-80.218215,"Mon 7:00 AM - 7:00 PM , Tue 7:00 AM - 7:00 PM , Wed 7:00 AM - 7:00 PM , Thu 7:00 AM - 7:00 PM , Fri 7:00 AM - 7:00 PM , Sat 7:00 AM - 6:00 PM , Sun 9:00 AM - 5:00 PM , Mon 7:00 AM - 7:00 PM , Tue 7:00 AM - 7:00 PM , Wed 7:00 AM - 7:00 PM , Thu 7:00 AM - 7:00 PM , Fri 7:00 AM - 7:00 PM , Sat 7:00 AM - 6:00 PM , Sun 9:00 AM - 5:00 PM ",,,
,,1213-1 State Road 7,,Royal Palm Beach,FL,33411,United States,(561) 784-7811,26.7066088494826,-80.201775155956,"Mon 7:00 AM - 7:00 PM , Tue 7:00 AM - 7:00 PM , Wed 7:00 AM - 7:00 PM , Thu 7:00 AM - 7:00 PM , Fri 7:00 AM - 7:00 PM , Sat 7:00 AM - 6:00 PM , Sun 9:00 AM - 5:00 PM , Mon 7:00 AM - 7:00 PM , Tue 7:00 AM - 7:00 PM , Wed 7:00 AM - 7:00 PM , Thu 7:00 AM - 7:00 PM , Fri 7:00 AM - 7:00 PM , Sat 7:00 AM - 6:00 PM , Sun 9:00 AM - 5:00 PM ",,,
,,5837 Derek Avenue,,Sarasota,FL,34238,United States,(941) 343-4502,27.2687075568239,-82.4818881601095,"Mon 7:00 AM - 7:00 PM , Tue 7:00 AM - 7:00 PM , Wed 7:00 AM - 7:00 PM , Thu 7:00 AM - 7:00 PM , Fri 7:00 AM - 7:00 PM , Sat 7:00 AM - 6:00 PM , Sun 9:00 AM - 5:00 PM , Mon 7:00 AM - 7:00 PM , Tue 7:00 AM - 7:00 PM , Wed 7:00 AM - 7:00 PM , Thu 7:00 AM - 7:00 PM , Fri 7:00 AM - 7:00 PM , Sat 7:00 AM - 6:00 PM , Sun 9:00 AM - 5:00 PM ",,,
,,2102 James L. Redman Pkwy,,Plant City,FL,33563,United States,(813) 754-8473,27.9925208489084,-82.1211074991242,"Mon 7:00 AM - 7:00 PM , Tue 7:00 AM - 7:00 PM , Wed 7:00 AM - 7:00 PM , Thu 7:00 AM - 7:00 PM , Fri 7:00 AM - 7:00 PM , Sat 7:00 AM - 6:00 PM , Sun Closed , Mon 7:00 AM - 7:00 PM , Tue 7:00 AM - 7:00 PM , Wed 7:00 AM - 7:00 PM , Thu 7:00 AM - 7:00 PM , Fri 7:00 AM - 7:00 PM , Sat 7:00 AM - 6:00 PM , Sun Closed ",,,
,,1803 3rd Street SW,,Winter Haven,FL,33880,United States,(863) 401-8473,28.0033996111425,-81.7314764065759,"Mon 7:00 AM - 7:00 PM , Tue 7:00 AM - 7:00 PM , Wed 7:00 AM - 7:00 PM , Thu 7:00 AM - 7:00 PM , Fri 7:00 AM - 7:00 PM , Sat 7:00 AM - 6:00 PM , Sun Closed , Mon 7:00 AM - 7:00 PM , Tue 7:00 AM - 7:00 PM , Wed 7:00 AM - 7:00 PM , Thu 7:00 AM - 7:00 PM , Fri 7:00 AM - 7:00 PM , Sat 7:00 AM - 6:00 PM , Sun Closed ",,,
,,7511 49th Street North,,Pinellas Park,FL,33781,United States,(727) 548-0779,27.840444544051,-82.6994869811551,"Mon 7:00 AM - 7:00 PM , Tue 7:00 AM - 7:00 PM , Wed 7:00 AM - 7:00 PM , Thu 7:00 AM - 7:00 PM , Fri 7:00 AM - 7:00 PM , Sat 7:00 AM - 6:00 PM , Sun Closed , Mon 7:00 AM - 7:00 PM , Tue 7:00 AM - 7:00 PM , Wed 7:00 AM - 7:00 PM , Thu 7:00 AM - 7:00 PM , Fri 7:00 AM - 7:00 PM , Sat 7:00 AM - 6:00 PM , Sun Closed ",,,
,,30780 US 19 N,,Palm Harbor,FL,34684,United States,(727) 437-4700,28.0521103023509,-82.7393575161886,"Mon 7:00 AM - 7:00 PM , Tue 7:00 AM - 7:00 PM , Wed 7:00 AM - 7:00 PM , Thu 7:00 AM - 7:00 PM , Fri 7:00 AM - 7:00 PM , Sat 7:00 AM - 6:00 PM , Sun 9:00 AM - 5:00 PM , Mon 7:00 AM - 7:00 PM , Tue 7:00 AM - 7:00 PM , Wed 7:00 AM - 7:00 PM , Thu 7:00 AM - 7:00 PM , Fri 7:00 AM - 7:00 PM , Sat 7:00 AM - 6:00 PM , Sun 9:00 AM - 5:00 PM ",,,
,,1210 E. Commercial Blvd.,,Oakland Park,FL,33334,United States,(954) 332-3064,26.1886398422904,-80.1308261007261,"Mon 7:00 AM - 7:00 PM , Tue 7:00 AM - 7:00 PM , Wed 7:00 AM - 7:00 PM , Thu 7:00 AM - 7:00 PM , Fri 7:00 AM - 7:00 PM , Sat 7:00 AM - 6:00 PM , Sun 9:00 AM - 5:00 PM , Mon 7:00 AM - 7:00 PM , Tue 7:00 AM - 7:00 PM , Wed 7:00 AM - 7:00 PM , Thu 7:00 AM - 7:00 PM , Fri 7:00 AM - 7:00 PM , Sat 7:00 AM - 6:00 PM , Sun 9:00 AM - 5:00 PM ",,,
,,4480 Aidan Lane,,North Port,FL,34287,United States,(941) 426-1019,27.035167559881,-82.2130657955949,"Mon 7:00 AM - 7:00 PM , Tue 7:00 AM - 7:00 PM , Wed 7:00 AM - 7:00 PM , Thu 7:00 AM - 7:00 PM , Fri 7:00 AM - 7:00 PM , Sat 7:00 AM - 6:00 PM , Sun 9:00 AM - 5:00 PM , Mon 7:00 AM - 7:00 PM , Tue 7:00 AM - 7:00 PM , Wed 7:00 AM - 7:00 PM , Thu 7:00 AM - 7:00 PM , Fri 7:00 AM - 7:00 PM , Sat 7:00 AM - 6:00 PM , Sun 9:00 AM - 5:00 PM ",,,
,,1445 S. Dixie Freeway,,New Smyrna Beach,FL,32168,United States,(386) 428-5784,29.0077403585465,-80.9180294676252,"Mon 7:00 AM - 7:00 PM , Tue 7:00 AM - 7:00 PM , Wed 7:00 AM - 7:00 PM , Thu 7:00 AM - 7:00 PM , Fri 7:00 AM - 7:00 PM , Sat 7:00 AM - 6:00 PM , Sun Closed , Mon 7:00 AM - 7:00 PM , Tue 7:00 AM - 7:00 PM , Wed 7:00 AM - 7:00 PM , Thu 7:00 AM - 7:00 PM , Fri 7:00 AM - 7:00 PM , Sat 7:00 AM - 6:00 PM , Sun Closed ",,,
,,4710 Rowan Road,,New Port Richey,FL,34653,United States,(727) 376-5493,28.2272296802579,-82.6904091462437,"Mon 7:00 AM - 7:00 PM , Tue 7:00 AM - 7:00 PM , Wed 7:00 AM - 7:00 PM , Thu 7:00 AM - 7:00 PM , Fri 7:00 AM - 7:00 PM , Sat 7:00 AM - 6:00 PM , Sun 9:00 AM - 5:00 PM , Mon 7:00 AM - 7:00 PM , Tue 7:00 AM - 7:00 PM , Wed 7:00 AM - 7:00 PM , Thu 7:00 AM - 7:00 PM , Fri 7:00 AM - 7:00 PM , Sat 7:00 AM - 6:00 PM , Sun 9:00 AM - 5:00 PM ",,,
,,601 N. Morgan Street,,Tampa,FL,33602,United States,(813) 273-0988,27.9503856336453,-82.4559182627218,"Mon 7:00 AM - 6:00 PM , Tue 7:00 AM - 6:00 PM , Wed 7:00 AM - 6:00 PM , Thu 7:00 AM - 6:00 PM , Fri 7:00 AM - 6:00 PM , Sat 7:00 AM - 4:00 PM , Sun Closed , Mon 7:00 AM - 6:00 PM , Tue 7:00 AM - 6:00 PM , Wed 7:00 AM - 6:00 PM , Thu 7:00 AM - 6:00 PM , Fri 7:00 AM - 6:00 PM , Sat 7:00 AM - 4:00 PM , Sun Closed ",,,
,,3603 South Dale Mabry Highway,,Tampa,FL,33629,United States,(813) 574-0940,27.910382256045,-82.5064743384813,"Mon 7:00 AM - 7:00 PM , Tue 7:00 AM - 7:00 PM , Wed 7:00 AM - 7:00 PM , Thu 7:00 AM - 7:00 PM , Fri 7:00 AM - 7:00 PM , Sat 7:00 AM - 6:00 PM , Sun 9:00 AM - 5:00 PM , Mon 7:00 AM - 7:00 PM , Tue 7:00 AM - 7:00 PM , Wed 7:00 AM - 7:00 PM , Thu 7:00 AM - 7:00 PM , Fri 7:00 AM - 7:00 PM , Sat 7:00 AM - 6:00 PM , Sun 9:00 AM - 5:00 PM ",,,
,,6975 Cypress Gardens Blvd,,Winter Haven,FL,33884,United States,(863) 875-1760,27.9792143335262,-81.6637963056564,"Mon 7:00 AM - 7:00 PM , Tue 7:00 AM - 7:00 PM , Wed 7:00 AM - 7:00 PM , Thu 7:00 AM - 7:00 PM , Fri 7:00 AM - 7:00 PM , Sat 7:00 AM - 6:00 PM , Sun Closed , Mon 7:00 AM - 7:00 PM , Tue 7:00 AM - 7:00 PM , Wed 7:00 AM - 7:00 PM , Thu 7:00 AM - 7:00 PM , Fri 7:00 AM - 7:00 PM , Sat 7:00 AM - 6:00 PM , Sun Closed ",,,
,,7800 W. Okeechobee Blvd.,,West Palm Beach,FL,33411,United States,(561) 640-7890,26.7076800873075,-80.1650261878967,"Mon 7:00 AM - 7:00 PM , Tue 7:00 AM - 7:00 PM , Wed 7:00 AM - 7:00 PM , Thu 7:00 AM - 7:00 PM , Fri 7:00 AM - 7:00 PM , Sat 7:00 AM - 6:00 PM , Sun 9:00 AM - 5:00 PM , Mon 7:00 AM - 7:00 PM , Tue 7:00 AM - 7:00 PM , Wed 7:00 AM - 7:00 PM , Thu 7:00 AM - 7:00 PM , Fri 7:00 AM - 7:00 PM , Sat 7:00 AM - 6:00 PM , Sun 9:00 AM - 5:00 PM ",,,
,,1118 N. Dixie Highway,,West Palm Beach,FL,33401,United States,(561) 659-1066,26.7232237819755,-80.0529052466345,"Mon 7:30 AM - 6:00 PM , Tue 7:30 AM - 6:00 PM , Wed 7:30 AM - 6:00 PM , Thu 7:30 AM - 6:00 PM , Fri 7:30 AM - 6:00 PM , Sat 7:30 AM - 5:00 PM , Sun Closed , Mon 7:30 AM - 6:00 PM , Tue 7:30 AM - 6:00 PM , Wed 7:30 AM - 6:00 PM , Thu 7:30 AM - 6:00 PM , Fri 7:30 AM - 6:00 PM , Sat 7:30 AM - 5:00 PM , Sun Closed ",,,
,,4224 Gunn Highway,,Tampa,FL,33618,United States,(813) 968-2657,28.0425088433675,-82.5124967796819,"Mon 7:00 AM - 7:00 PM , Tue 7:00 AM - 7:00 PM , Wed 7:00 AM - 7:00 PM , Thu 7:00 AM - 7:00 PM , Fri 7:00 AM - 7:00 PM , Sat 7:00 AM - 6:00 PM , Sun Closed , Mon 7:00 AM - 7:00 PM , Tue 7:00 AM - 7:00 PM , Wed 7:00 AM - 7:00 PM , Thu 7:00 AM - 7:00 PM , Fri 7:00 AM - 7:00 PM , Sat 7:00 AM - 6:00 PM , Sun Closed ",,,
,,6204 E. Hillsborough Avenue,,Tampa,FL,33610,United States,(813) 623-5600,27.9974138243341,-82.3857475724253,"Mon 7:30 AM - 6:00 PM , Tue 7:30 AM - 6:00 PM , Wed 7:30 AM - 6:00 PM , Thu 7:30 AM - 6:00 PM , Fri 7:30 AM - 6:00 PM , Sat 7:30 AM - 12:00 PM , Sun Closed , Mon 7:30 AM - 6:00 PM , Tue 7:30 AM - 6:00 PM , Wed 7:30 AM - 6:00 PM , Thu 7:30 AM - 6:00 PM , Fri 7:30 AM - 6:00 PM , Sat 7:30 AM - 12:00 PM , Sun Closed ",,,
,,250 NW Cashmere Blvd.,,Port St. Lucie,FL,34986,United States,(772) 408-1950,27.3190307545193,-80.3787674233262,"Mon 7:00 AM - 7:00 PM , Tue 7:00 AM - 7:00 PM , Wed 7:00 AM - 7:00 PM , Thu 7:00 AM - 7:00 PM , Fri 7:00 AM - 7:00 PM , Sat 7:00 AM - 6:00 PM , Sun 9:00 AM - 5:00 PM , Mon 7:00 AM - 7:00 PM , Tue 7:00 AM - 7:00 PM , Wed 7:00 AM - 7:00 PM , Thu 7:00 AM - 7:00 PM , Fri 7:00 AM - 7:00 PM , Sat 7:00 AM - 6:00 PM , Sun 9:00 AM - 5:00 PM ",,,
,,8490 Sheldon Road,,Tampa,FL,33615,United States,(813) 888-5388,28.0274823875938,-82.5834907498392,"Mon 7:00 AM - 7:00 PM , Tue 7:00 AM - 7:00 PM , Wed 7:00 AM - 7:00 PM , Thu 7:00 AM - 7:00 PM , Fri 7:00 AM - 7:00 PM , Sat 7:00 AM - 6:00 PM , Sun Closed , Mon 7:00 AM - 7:00 PM , Tue 7:00 AM - 7:00 PM , Wed 7:00 AM - 7:00 PM , Thu 7:00 AM - 7:00 PM , Fri 7:00 AM - 7:00 PM , Sat 7:00 AM - 6:00 PM , Sun Closed ",,,
,,445 99th Ave N,,St. Petersburg,FL,33702,United States,(727) 217-0020,27.8625928,-82.6401509,"Mon 7:00 AM - 7:00 PM , Tue 7:00 AM - 7:00 PM , Wed 7:00 AM - 7:00 PM , Thu 7:00 AM - 7:00 PM , Fri 7:00 AM - 7:00 PM , Sat 7:00 AM - 6:00 PM , Sun Closed , Mon 7:00 AM - 7:00 PM , Tue 7:00 AM - 7:00 PM , Wed 7:00 AM - 7:00 PM , Thu 7:00 AM - 7:00 PM , Fri 7:00 AM - 7:00 PM , Sat 7:00 AM - 6:00 PM , Sun Closed ",,,
,,20687 Bruce B. Downs Blvd.,,Tampa,FL,33647,United States,(813) 907-2599,28.1692992967778,-82.3528813049142,"Mon 7:00 AM - 8:00 PM , Tue 7:00 AM - 8:00 PM , Wed 7:00 AM - 8:00 PM , Thu 7:00 AM - 8:00 PM , Fri 7:00 AM - 8:00 PM , Sat 7:00 AM - 6:00 PM , Sun 9:00 AM - 5:00 PM , Mon 7:00 AM - 8:00 PM , Tue 7:00 AM - 8:00 PM , Wed 7:00 AM - 8:00 PM , Thu 7:00 AM - 8:00 PM , Fri 7:00 AM - 8:00 PM , Sat 7:00 AM - 6:00 PM , Sun 9:00 AM - 5:00 PM ",,,
,,2010 SW Bayshore Blvd.,,Port St. Lucie,FL,34984,United States,(772) 408-1251,27.2800491523998,-80.3593871220891,"Mon 7:00 AM - 7:00 PM , Tue 7:00 AM - 7:00 PM , Wed 7:00 AM - 7:00 PM , Thu 7:00 AM - 7:00 PM , Fri 7:00 AM - 7:00 PM , Sat 7:00 AM - 6:00 PM , Sun 9:00 AM - 5:00 PM , Mon 7:00 AM - 7:00 PM , Tue 7:00 AM - 7:00 PM , Wed 7:00 AM - 7:00 PM , Thu 7:00 AM - 7:00 PM , Fri 7:00 AM - 7:00 PM , Sat 7:00 AM - 6:00 PM , Sun 9:00 AM - 5:00 PM ",,,
,,10742 Big Bend Road,,Riverview,FL,33579,United States,(813) 549-1813,27.7926015279446,-82.3297190889661,"Mon 7:00 AM - 7:00 PM , Tue 7:00 AM - 7:00 PM , Wed 7:00 AM - 7:00 PM , Thu 7:00 AM - 7:00 PM , Fri 7:00 AM - 7:00 PM , Sat 7:00 AM - 6:00 PM , Sun 9:00 AM - 5:00 PM , Mon 7:00 AM - 7:00 PM , Tue 7:00 AM - 7:00 PM , Wed 7:00 AM - 7:00 PM , Thu 7:00 AM - 7:00 PM , Fri 7:00 AM - 7:00 PM , Sat 7:00 AM - 6:00 PM , Sun 9:00 AM - 5:00 PM ",,,
,,456 Dr. MLK Street N,,St. Petersburg,FL,33705,United States,(727) 898-8818,27.777119399246,-82.6470082207152,"Mon 7:00 AM - 6:00 PM , Tue 7:00 AM - 6:00 PM , Wed 7:00 AM - 6:00 PM , Thu 7:00 AM - 6:00 PM , Fri 7:00 AM - 6:00 PM , Sat 8:00 AM - 4:00 PM , Sun Closed , Mon 7:00 AM - 6:00 PM , Tue 7:00 AM - 6:00 PM , Wed 7:00 AM - 6:00 PM , Thu 7:00 AM - 6:00 PM , Fri 7:00 AM - 6:00 PM , Sat 8:00 AM - 4:00 PM , Sun Closed ",,,
,,13006 Race Track Road,,Tampa,FL,33626,United States,(813) 341-2100,28.070954,-82.633813,"Mon 7:00 AM - 7:00 PM , Tue 7:00 AM - 7:00 PM , Wed 7:00 AM - 7:00 PM , Thu 7:00 AM - 7:00 PM , Fri 7:00 AM - 7:00 PM , Sat 7:00 AM - 6:00 PM , Sun 9:00 AM - 5:00 PM , Mon 7:00 AM - 7:00 PM , Tue 7:00 AM - 7:00 PM , Wed 7:00 AM - 7:00 PM , Thu 7:00 AM - 7:00 PM , Fri 7:00 AM - 7:00 PM , Sat 7:00 AM - 6:00 PM , Sun 9:00 AM - 5:00 PM ",,,
,,7015 US Highway 301 S,,Riverview,FL,33578,United States,(813) 671-3556,27.8782828743028,-82.3274918006347,"Mon 7:00 AM - 7:00 PM , Tue 7:00 AM - 7:00 PM , Wed 7:00 AM - 7:00 PM , Thu 7:00 AM - 7:00 PM , Fri 7:00 AM - 7:00 PM , Sat 7:00 AM - 6:00 PM , Sun Closed , Mon 7:00 AM - 7:00 PM , Tue 7:00 AM - 7:00 PM , Wed 7:00 AM - 7:00 PM , Thu 7:00 AM - 7:00 PM , Fri 7:00 AM - 7:00 PM , Sat 7:00 AM - 6:00 PM , Sun Closed ",,,
,,45 Lagrande Blvd.,,The Villages,FL,32159,United States,(352) 391-6488,28.9388442851332,-81.9426823407411,"Mon 7:00 AM - 7:00 PM , Tue 7:00 AM - 7:00 PM , Wed 7:00 AM - 7:00 PM , Thu 7:00 AM - 7:00 PM , Fri 7:00 AM - 7:00 PM , Sat 7:00 AM - 6:00 PM , Sun 9:00 AM - 5:00 PM , Mon 7:00 AM - 7:00 PM , Tue 7:00 AM - 7:00 PM , Wed 7:00 AM - 7:00 PM , Thu 7:00 AM - 7:00 PM , Fri 7:00 AM - 7:00 PM , Sat 7:00 AM - 6:00 PM , Sun 9:00 AM - 5:00 PM ",,,
,,12705 N. Dale Mabry Highway,,Tampa,FL,33618,United States,(813) 549-8968,28.0626757453082,-82.5030817240667,"Mon 7:00 AM - 7:00 PM , Tue 7:00 AM - 7:00 PM , Wed 7:00 AM - 7:00 PM , Thu 7:00 AM - 7:00 PM , Fri 7:00 AM - 7:00 PM , Sat 7:00 AM - 6:00 PM , Sun 9:00 AM - 5:00 PM , Mon 7:00 AM - 7:00 PM , Tue 7:00 AM - 7:00 PM , Wed 7:00 AM - 7:00 PM , Thu 7:00 AM - 7:00 PM , Fri 7:00 AM - 7:00 PM , Sat 7:00 AM - 6:00 PM , Sun 9:00 AM - 5:00 PM ",,,
,,280 Colony Blvd.,,The Villages,FL,32162,United States,(352) 430-0043,28.8648098658881,-81.9543566554784,"Mon 7:00 AM - 7:00 PM , Tue 7:00 AM - 7:00 PM , Wed 7:00 AM - 7:00 PM , Thu 7:00 AM - 7:00 PM , Fri 7:00 AM - 7:00 PM , Sat 7:00 AM - 6:00 PM , Sun 9:00 AM - 5:00 PM , Mon 7:00 AM - 7:00 PM , Tue 7:00 AM - 7:00 PM , Wed 7:00 AM - 7:00 PM , Thu 7:00 AM - 7:00 PM , Fri 7:00 AM - 7:00 PM , Sat 7:00 AM - 6:00 PM , Sun 9:00 AM - 5:00 PM ",,,
,,3949 Wedgewood Lane,,The Villages,FL,32162,United States,(352) 391-1001,28.9288165278287,-82.0273409933043,"Mon 7:00 AM - 7:00 PM , Tue 7:00 AM - 7:00 PM , Wed 7:00 AM - 7:00 PM , Thu 7:00 AM - 7:00 PM , Fri 7:00 AM - 7:00 PM , Sat 7:00 AM - 6:00 PM , Sun 9:00 AM - 5:00 PM , Mon 7:00 AM - 7:00 PM , Tue 7:00 AM - 7:00 PM , Wed 7:00 AM - 7:00 PM , Thu 7:00 AM - 7:00 PM , Fri 7:00 AM - 7:00 PM , Sat 7:00 AM - 6:00 PM , Sun 9:00 AM - 5:00 PM ",,,
,,7011 NW 88th Avenue,,Tamarac,FL,33321,United States,(954) 721-9811,26.2101100249421,-80.2692756280249,"Mon 7:00 AM - 7:00 PM , Tue 7:00 AM - 7:00 PM , Wed 7:00 AM - 7:00 PM , Thu 7:00 AM - 7:00 PM , Fri 7:00 AM - 7:00 PM , Sat 7:00 AM - 6:00 PM , Sun 9:00 AM - 5:00 PM , Mon 7:00 AM - 7:00 PM , Tue 7:00 AM - 7:00 PM , Wed 7:00 AM - 7:00 PM , Thu 7:00 AM - 7:00 PM , Fri 7:00 AM - 7:00 PM , Sat 7:00 AM - 6:00 PM , Sun 9:00 AM - 5:00 PM ",,,
,,6852 N. University Drive,,Tamarac,FL,33321,United States,(954) 721-4700,26.207792934981,-80.2510520070791,"Mon 7:00 AM - 7:00 PM , Tue 7:00 AM - 7:00 PM , Wed 7:00 AM - 7:00 PM , Thu 7:00 AM - 7:00 PM , Fri 7:00 AM - 7:00 PM , Sat 7:00 AM - 6:00 PM , Sun 9:00 AM - 5:00 PM , Mon 7:00 AM - 7:00 PM , Tue 7:00 AM - 7:00 PM , Wed 7:00 AM - 7:00 PM , Thu 7:00 AM - 7:00 PM , Fri 7:00 AM - 7:00 PM , Sat 7:00 AM - 6:00 PM , Sun 9:00 AM - 5:00 PM ",,,
,,6867 N. Church Avenue,,Mulberry,FL,33860,United States,(863) 644-7700,27.9373380775408,-81.9732735259549,"Mon 7:00 AM - 7:00 PM , Tue 7:00 AM - 7:00 PM , Wed 7:00 AM - 7:00 PM , Thu 7:00 AM - 7:00 PM , Fri 7:00 AM - 7:00 PM , Sat 7:00 AM - 6:00 PM , Sun Closed , Mon 7:00 AM - 7:00 PM , Tue 7:00 AM - 7:00 PM , Wed 7:00 AM - 7:00 PM , Thu 7:00 AM - 7:00 PM , Fri 7:00 AM - 7:00 PM , Sat 7:00 AM - 6:00 PM , Sun Closed ",,,
,,1908 Tamiami Trail S,,Venice,FL,34293,United States,(941) 408-1717,27.0610521220357,-82.4163516564385,"Mon 7:00 AM - 6:00 PM , Tue 7:00 AM - 6:00 PM , Wed 7:00 AM - 6:00 PM , Thu 7:00 AM - 6:00 PM , Fri 7:00 AM - 6:00 PM , Sat 7:00 AM - 6:00 PM , Sun Closed , Mon 7:00 AM - 6:00 PM , Tue 7:00 AM - 6:00 PM , Wed 7:00 AM - 6:00 PM , Thu 7:00 AM - 6:00 PM , Fri 7:00 AM - 6:00 PM , Sat 7:00 AM - 6:00 PM , Sun Closed ",,,
,,4060 S. Tamiami Trail,,Venice,FL,34293,United States,(941) 441-2504,27.0491537791377,-82.3987430557554,"Mon 7:00 AM - 7:00 PM , Tue 7:00 AM - 7:00 PM , Wed 7:00 AM - 7:00 PM , Thu 7:00 AM - 7:00 PM , Fri 7:00 AM - 7:00 PM , Sat 7:00 AM - 6:00 PM , Sun 9:00 AM - 5:00 PM , Mon 7:00 AM - 7:00 PM , Tue 7:00 AM - 7:00 PM , Wed 7:00 AM - 7:00 PM , Thu 7:00 AM - 7:00 PM , Fri 7:00 AM - 7:00 PM , Sat 7:00 AM - 6:00 PM , Sun 9:00 AM - 5:00 PM ",,,
,,1850 Alton Road,,Miami Beach,FL,33139,United States,(305) 532-4807,25.7946242873833,-80.141722485423,"Mon 7:00 AM - 7:00 PM , Tue 7:00 AM - 7:00 PM , Wed 7:00 AM - 7:00 PM , Thu 7:00 AM - 7:00 PM , Fri 7:00 AM - 7:00 PM , Sat 7:00 AM - 6:00 PM , Sun 9:00 AM - 5:00 PM , Mon 7:00 AM - 7:00 PM , Tue 7:00 AM - 7:00 PM , Wed 7:00 AM - 7:00 PM , Thu 7:00 AM - 7:00 PM , Fri 7:00 AM - 7:00 PM , Sat 7:00 AM - 6:00 PM , Sun 9:00 AM - 5:00 PM ",,,
,,453 N. Harbour City Blvd.,,Melbourne,FL,32935,United States,(321) 751-3722,28.1163212850464,-80.6226358562707,"Mon 7:00 AM - 7:00 PM , Tue 7:00 AM - 7:00 PM , Wed 7:00 AM - 7:00 PM , Thu 7:00 AM - 7:00 PM , Fri 7:00 AM - 7:00 PM , Sat 7:00 AM - 6:00 PM , Sun 9:00 AM - 5:00 PM , Mon 7:00 AM - 7:00 PM , Tue 7:00 AM - 7:00 PM , Wed 7:00 AM - 7:00 PM , Thu 7:00 AM - 7:00 PM , Fri 7:00 AM - 7:00 PM , Sat 7:00 AM - 6:00 PM , Sun 9:00 AM - 5:00 PM ",,,
,,3523 Bell Shoals Road,,Valrico,FL,33596,United States,(813) 651-9585,27.8902030572845,-82.2687952919023,"Mon 7:00 AM - 7:00 PM , Tue 7:00 AM - 7:00 PM , Wed 7:00 AM - 7:00 PM , Thu 7:00 AM - 7:00 PM , Fri 7:00 AM - 7:00 PM , Sat 7:00 AM - 6:00 PM , Sun Closed , Mon 7:00 AM - 7:00 PM , Tue 7:00 AM - 7:00 PM , Wed 7:00 AM - 7:00 PM , Thu 7:00 AM - 7:00 PM , Fri 7:00 AM - 7:00 PM , Sat 7:00 AM - 6:00 PM , Sun Closed ",,,
,,18951 State Road 54,,Lutz,FL,33558,United States,(813) 751-0294,28.195211,-82.501725,"Mon 7:00 AM - 7:00 PM , Tue 7:00 AM - 7:00 PM , Wed 7:00 AM - 7:00 PM , Thu 7:00 AM - 7:00 PM , Fri 7:00 AM - 7:00 PM , Sat 7:00 AM - 6:00 PM , Sun 9:00 AM - 5:00 PM , Mon 7:00 AM - 7:00 PM , Tue 7:00 AM - 7:00 PM , Wed 7:00 AM - 7:00 PM , Thu 7:00 AM - 7:00 PM , Fri 7:00 AM - 7:00 PM , Sat 7:00 AM - 6:00 PM , Sun 9:00 AM - 5:00 PM ",,,
,,16505 Fish Hawk Blvd.,,Lithia,FL,33547,United States,(813) 689-5454,27.854980858229,-82.2044844254947,"Mon 7:00 AM - 7:00 PM , Tue 7:00 AM - 7:00 PM , Wed 7:00 AM - 7:00 PM , Thu 7:00 AM - 7:00 PM , Fri 7:00 AM - 7:00 PM , Sat 7:00 AM - 6:00 PM , Sun 9:00 AM - 5:00 PM , Mon 7:00 AM - 7:00 PM , Tue 7:00 AM - 7:00 PM , Wed 7:00 AM - 7:00 PM , Thu 7:00 AM - 7:00 PM , Fri 7:00 AM - 7:00 PM , Sat 7:00 AM - 6:00 PM , Sun 9:00 AM - 5:00 PM ",,,
,,13399 Seminole Blvd.,,Largo,FL,33778,United States,(727) 683-0893,27.8940838136386,-82.7865897864102,"Mon 7:00 AM - 7:00 PM , Tue 7:00 AM - 7:00 PM , Wed 7:00 AM - 7:00 PM , Thu 7:00 AM - 7:00 PM , Fri 7:00 AM - 7:00 PM , Sat 7:00 AM - 6:00 PM , Sun 9:00 AM - 5:00 PM , Mon 7:00 AM - 7:00 PM , Tue 7:00 AM - 7:00 PM , Wed 7:00 AM - 7:00 PM , Thu 7:00 AM - 7:00 PM , Fri 7:00 AM - 7:00 PM , Sat 7:00 AM - 6:00 PM , Sun 9:00 AM - 5:00 PM ",,,
,,2267 Collier Parkway,,Land O'Lakes,FL,34639,United States,(813) 995-6272,28.1903657946418,-82.4372039884519,"Mon 7:00 AM - 7:00 PM , Tue 7:00 AM - 7:00 PM , Wed 7:00 AM - 7:00 PM , Thu 7:00 AM - 7:00 PM , Fri 7:00 AM - 7:00 PM , Sat 7:00 AM - 6:00 PM , Sun 9:00 AM - 5:00 PM , Mon 7:00 AM - 7:00 PM , Tue 7:00 AM - 7:00 PM , Wed 7:00 AM - 7:00 PM , Thu 7:00 AM - 7:00 PM , Fri 7:00 AM - 7:00 PM , Sat 7:00 AM - 6:00 PM , Sun 9:00 AM - 5:00 PM ",,,
,,203 Domaris Avenue,,Lake Wales,FL,33853,United States,(863) 676-3423,27.8934875551008,-81.5871789259927,"Mon 7:00 AM - 6:00 PM , Tue 7:00 AM - 6:00 PM , Wed 7:00 AM - 6:00 PM , Thu 7:00 AM - 6:00 PM , Fri 7:00 AM - 6:00 PM , Sat 8:00 AM - 2:00 PM , Sun Closed , Mon 7:00 AM - 6:00 PM , Tue 7:00 AM - 6:00 PM , Wed 7:00 AM - 6:00 PM , Thu 7:00 AM - 6:00 PM , Fri 7:00 AM - 6:00 PM , Sat 8:00 AM - 2:00 PM , Sun Closed ",,,
,,4690 Lake Worth Road,,Greenacres,FL,33463,United States,(561) 967-9120,26.618207739868,-80.1169234514236,"Mon 7:00 AM - 7:00 PM , Tue 7:00 AM - 7:00 PM , Wed 7:00 AM - 7:00 PM , Thu 7:00 AM - 7:00 PM , Fri 7:00 AM - 7:00 PM , Sat 7:00 AM - 6:00 PM , Sun 9:00 AM - 5:00 PM , Mon 7:00 AM - 7:00 PM , Tue 7:00 AM - 7:00 PM , Wed 7:00 AM - 7:00 PM , Thu 7:00 AM - 7:00 PM , Fri 7:00 AM - 7:00 PM , Sat 7:00 AM - 6:00 PM , Sun 9:00 AM - 5:00 PM ",,,
,,10441 Corkscrew Commons Drive,,Estero,FL,33928,United States,(239) 949-1214,26.4322000033049,-81.7805375307989,"Mon 7:00 AM - 7:00 PM , Tue 7:00 AM - 7:00 PM , Wed 7:00 AM - 7:00 PM , Thu 7:00 AM - 7:00 PM , Fri 7:00 AM - 7:00 PM , Sat 7:00 AM - 6:00 PM , Sun 9:00 AM - 5:00 PM , Mon 7:00 AM - 7:00 PM , Tue 7:00 AM - 7:00 PM , Wed 7:00 AM - 7:00 PM , Thu 7:00 AM - 7:00 PM , Fri 7:00 AM - 7:00 PM , Sat 7:00 AM - 6:00 PM , Sun 9:00 AM - 5:00 PM ",,,
,,2514 East State Road 60,,Valrico,FL,33594,United States,(813) 685-6344,27.9385453375795,-82.2422949876818,"Mon 7:00 AM - 7:00 PM , Tue 7:00 AM - 7:00 PM , Wed 7:00 AM - 7:00 PM , Thu 7:00 AM - 7:00 PM , Fri 7:00 AM - 7:00 PM , Sat 7:00 AM - 6:00 PM , Sun Closed , Mon 7:00 AM - 7:00 PM , Tue 7:00 AM - 7:00 PM , Wed 7:00 AM - 7:00 PM , Thu 7:00 AM - 7:00 PM , Fri 7:00 AM - 7:00 PM , Sat 7:00 AM - 6:00 PM , Sun Closed ",,,
,,28919 US Hwy 27,,Dundee,FL,33838,United States,(863) 439-8473,28.0283228985444,-81.6339994874033,"Mon 7:30 AM - 6:00 PM , Tue 7:30 AM - 6:00 PM , Wed 7:30 AM - 6:00 PM , Thu 7:30 AM - 6:00 PM , Fri 7:30 AM - 6:00 PM , Sat 7:30 AM - 2:00 PM , Sun Closed , Mon 7:30 AM - 6:00 PM , Tue 7:30 AM - 6:00 PM , Wed 7:30 AM - 6:00 PM , Thu 7:30 AM - 6:00 PM , Fri 7:30 AM - 6:00 PM , Sat 7:30 AM - 2:00 PM , Sun Closed ",,,
,,4715 West Atlantic Avenue,,Delray Beach,FL,33445,United States,(561) 638-5526,26.4583836223618,-80.1175222545862,"Mon 7:00 AM - 7:00 PM , Tue 7:00 AM - 7:00 PM , Wed 7:00 AM - 7:00 PM , Thu 7:00 AM - 7:00 PM , Fri 7:00 AM - 7:00 PM , Sat 7:00 AM - 6:00 PM , Sun 9:00 AM - 5:00 PM , Mon 7:00 AM - 7:00 PM , Tue 7:00 AM - 7:00 PM , Wed 7:00 AM - 7:00 PM , Thu 7:00 AM - 7:00 PM , Fri 7:00 AM - 7:00 PM , Sat 7:00 AM - 6:00 PM , Sun 9:00 AM - 5:00 PM ",,,
,,680 N. Spring Garden Avenue,,Deland,FL,32720,United States,(386) 740-8996,29.0376418331689,-81.3249366684385,"Mon 7:00 AM - 7:00 PM , Tue 7:00 AM - 7:00 PM , Wed 7:00 AM - 7:00 PM , Thu 7:00 AM - 7:00 PM , Fri 7:00 AM - 7:00 PM , Sat 7:00 AM - 6:00 PM , Sun Closed , Mon 7:00 AM - 7:00 PM , Tue 7:00 AM - 7:00 PM , Wed 7:00 AM - 7:00 PM , Thu 7:00 AM - 7:00 PM , Fri 7:00 AM - 7:00 PM , Sat 7:00 AM - 6:00 PM , Sun Closed ",,,
,,148 N. Ridgewood Avenue,,Daytona Beach,FL,32114,United States,(386) 252-7661,29.2122146439717,-81.0241966648118,"Mon 7:30 AM - 6:00 PM , Tue 7:30 AM - 6:00 PM , Wed 7:30 AM - 6:00 PM , Thu 7:30 AM - 6:00 PM , Fri 7:30 AM - 6:00 PM , Sat 7:30 AM - 2:00 PM , Sun Closed , Mon 7:30 AM - 6:00 PM , Tue 7:30 AM - 6:00 PM , Wed 7:30 AM - 6:00 PM , Thu 7:30 AM - 6:00 PM , Fri 7:30 AM - 6:00 PM , Sat 7:30 AM - 2:00 PM , Sun Closed ",,,
,,1124 S.W. 101 Road,,Davie,FL,33324,United States,(954) 577-2000,26.1060109211586,-80.2827778682058,"Mon 7:00 AM - 7:00 PM , Tue 7:00 AM - 7:00 PM , Wed 7:00 AM - 7:00 PM , Thu 7:00 AM - 7:00 PM , Fri 7:00 AM - 7:00 PM , Sat 7:00 AM - 6:00 PM , Sun 9:00 AM - 5:00 PM , Mon 7:00 AM - 7:00 PM , Tue 7:00 AM - 7:00 PM , Wed 7:00 AM - 7:00 PM , Thu 7:00 AM - 7:00 PM , Fri 7:00 AM - 7:00 PM , Sat 7:00 AM - 6:00 PM , Sun 9:00 AM - 5:00 PM ",,,
,,2800 Immokalee Road,,Naples,FL,34110,United States,(239) 594-0320,26.2721370639334,-81.7661403939223,"Mon 7:00 AM - 7:00 PM , Tue 7:00 AM - 7:00 PM , Wed 7:00 AM - 7:00 PM , Thu 7:00 AM - 7:00 PM , Fri 7:00 AM - 7:00 PM , Sat 7:00 AM - 6:00 PM , Sun 9:00 AM - 5:00 PM , Mon 7:00 AM - 7:00 PM , Tue 7:00 AM - 7:00 PM , Wed 7:00 AM - 7:00 PM , Thu 7:00 AM - 7:00 PM , Fri 7:00 AM - 7:00 PM , Sat 7:00 AM - 6:00 PM , Sun 9:00 AM - 5:00 PM ",,,
,,13020 Livingston Road,,Naples,FL,34105,United States,(239) 659-0700,26.209343495704,-81.7501864135647,"Mon 7:00 AM - 7:00 PM , Tue 7:00 AM - 7:00 PM , Wed 7:00 AM - 7:00 PM , Thu 7:00 AM - 7:00 PM , Fri 7:00 AM - 7:00 PM , Sat 7:00 AM - 6:00 PM , Sun 9:00 AM - 5:00 PM , Mon 7:00 AM - 7:00 PM , Tue 7:00 AM - 7:00 PM , Wed 7:00 AM - 7:00 PM , Thu 7:00 AM - 7:00 PM , Fri 7:00 AM - 7:00 PM , Sat 7:00 AM - 6:00 PM , Sun 9:00 AM - 5:00 PM ",,,
,,13150 S.W. 87th Avenue,,Miami,FL,33176,United States,(786) 842-3540,25.6479673138552,-80.3347194939851,"Mon 7:00 AM - 7:00 PM , Tue 7:00 AM - 7:00 PM , Wed 7:00 AM - 7:00 PM , Thu 7:00 AM - 7:00 PM , Fri 7:00 AM - 7:00 PM , Sat 7:00 AM - 6:00 PM , Sun 9:00 AM - 5:00 PM , Mon 7:00 AM - 7:00 PM , Tue 7:00 AM - 7:00 PM , Wed 7:00 AM - 7:00 PM , Thu 7:00 AM - 7:00 PM , Fri 7:00 AM - 7:00 PM , Sat 7:00 AM - 6:00 PM , Sun 9:00 AM - 5:00 PM ",,,
,,13790 S.W. 56th Street,,Miami,FL,33175,United States,(305) 382-3400,25.7143176,-80.41693699999999,"Mon 7:00 AM - 7:00 PM , Tue 7:00 AM - 7:00 PM , Wed 7:00 AM - 7:00 PM , Thu 7:00 AM - 7:00 PM , Fri 7:00 AM - 7:00 PM , Sat 7:00 AM - 6:00 PM , Sun 9:00 AM - 5:00 PM , Mon 7:00 AM - 7:00 PM , Tue 7:00 AM - 7:00 PM , Wed 7:00 AM - 7:00 PM , Thu 7:00 AM - 7:00 PM , Fri 7:00 AM - 7:00 PM , Sat 7:00 AM - 6:00 PM , Sun 9:00 AM - 5:00 PM ",,,
,,5700 Royal Palm Blvd.,,Margate,FL,33063,United States,(954) 972-1448,26.2540566074402,-80.2022317796946,"Mon 7:00 AM - 7:00 PM , Tue 7:00 AM - 7:00 PM , Wed 7:00 AM - 7:00 PM , Thu 7:00 AM - 7:00 PM , Fri 7:00 AM - 7:00 PM , Sat 7:00 AM - 6:00 PM , Sun 9:00 AM - 5:00 PM , Mon 7:00 AM - 7:00 PM , Tue 7:00 AM - 7:00 PM , Wed 7:00 AM - 7:00 PM , Thu 7:00 AM - 7:00 PM , Fri 7:00 AM - 7:00 PM , Sat 7:00 AM - 6:00 PM , Sun 9:00 AM - 5:00 PM ",,,
,,3939 US Highway 98 South,,Lakeland,FL,33812,United States,(863) 667-3347,27.9934492057828,-81.8981005158457,"Mon 7:30 AM - 6:00 PM , Tue 7:30 AM - 6:00 PM , Wed 7:30 AM - 6:00 PM , Thu 7:30 AM - 6:00 PM , Fri 7:30 AM - 6:00 PM , Sat 7:30 AM - 2:00 PM , Sun Closed , Mon 7:30 AM - 6:00 PM , Tue 7:30 AM - 6:00 PM , Wed 7:30 AM - 6:00 PM , Thu 7:30 AM - 6:00 PM , Fri 7:30 AM - 6:00 PM , Sat 7:30 AM - 2:00 PM , Sun Closed ",,,
,,4304 South Florida Avenue,,Lakeland,FL,33813,United States,(863) 646-8518,27.9874345591081,-81.9561301870363,"Mon 7:00 AM - 7:00 PM , Tue 7:00 AM - 7:00 PM , Wed 7:00 AM - 7:00 PM , Thu 7:00 AM - 7:00 PM , Fri 7:00 AM - 7:00 PM , Sat 7:00 AM - 6:00 PM , Sun Closed , Mon 7:00 AM - 7:00 PM , Tue 7:00 AM - 7:00 PM , Wed 7:00 AM - 7:00 PM , Thu 7:00 AM - 7:00 PM , Fri 7:00 AM - 7:00 PM , Sat 7:00 AM - 6:00 PM , Sun Closed ",,,
,,5865 State Road 7,,Lake Worth,FL,33449,United States,(561) 868-4676,26.5933603613355,-80.2066335529252,"Mon 7:00 AM - 7:00 PM , Tue 7:00 AM - 7:00 PM , Wed 7:00 AM - 7:00 PM , Thu 7:00 AM - 7:00 PM , Fri 7:00 AM - 7:00 PM , Sat 7:00 AM - 6:00 PM , Sun 9:00 AM - 5:00 PM , Mon 7:00 AM - 7:00 PM , Tue 7:00 AM - 7:00 PM , Wed 7:00 AM - 7:00 PM , Thu 7:00 AM - 7:00 PM , Fri 7:00 AM - 7:00 PM , Sat 7:00 AM - 6:00 PM , Sun 9:00 AM - 5:00 PM ",,,
,,4601 W. Hypoluxo Road,,Lake Worth,FL,33463,United States,(561) 964-0200,26.5724362302977,-80.1151532158201,"Mon 7:00 AM - 7:00 PM , Tue 7:00 AM - 7:00 PM , Wed 7:00 AM - 7:00 PM , Thu 7:00 AM - 7:00 PM , Fri 7:00 AM - 7:00 PM , Sat 7:00 AM - 6:00 PM , Sun 9:00 AM - 5:00 PM , Mon 7:00 AM - 7:00 PM , Tue 7:00 AM - 7:00 PM , Wed 7:00 AM - 7:00 PM , Thu 7:00 AM - 7:00 PM , Fri 7:00 AM - 7:00 PM , Sat 7:00 AM - 6:00 PM , Sun 9:00 AM - 5:00 PM ",,,
,,8600 Gladiolus Drive,,Fort Myers,FL,33908,United States,(239) 985-6992,26.5212385687081,-81.8955070003812,"Mon 7:00 AM - 7:00 PM , Tue 7:00 AM - 7:00 PM , Wed 7:00 AM - 7:00 PM , Thu 7:00 AM - 7:00 PM , Fri 7:00 AM - 7:00 PM , Sat 7:00 AM - 6:00 PM , Sun 9:00 AM - 5:00 PM , Mon 7:00 AM - 7:00 PM , Tue 7:00 AM - 7:00 PM , Wed 7:00 AM - 7:00 PM , Thu 7:00 AM - 7:00 PM , Fri 7:00 AM - 7:00 PM , Sat 7:00 AM - 6:00 PM , Sun 9:00 AM - 5:00 PM ",,,
,,5960 Country Lakes Dr,,Fort Myers,FL,33905,United States,(239) 362-3025,26.657112157234,-81.7934720124958,"Mon 7:30 AM - 6:00 PM , Tue 7:30 AM - 6:00 PM , Wed 7:30 AM - 6:00 PM , Thu 7:30 AM - 6:00 PM , Fri 7:30 AM - 6:00 PM , Sat 8:00 AM - 12:00 PM , Sun Closed , Mon 7:30 AM - 6:00 PM , Tue 7:30 AM - 6:00 PM , Wed 7:30 AM - 6:00 PM , Thu 7:30 AM - 6:00 PM , Fri 7:30 AM - 6:00 PM , Sat 8:00 AM - 12:00 PM , Sun Closed ",,,
,,5020 US Hwy 98 North,,Lakeland,FL,33809,United States,(863) 858-4477,28.1067551388467,-81.9743531150834,"Mon 7:00 AM - 7:00 PM , Tue 7:00 AM - 7:00 PM , Wed 7:00 AM - 7:00 PM , Thu 7:00 AM - 7:00 PM , Fri 7:00 AM - 7:00 PM , Sat 7:00 AM - 6:00 PM , Sun Closed , Mon 7:00 AM - 7:00 PM , Tue 7:00 AM - 7:00 PM , Wed 7:00 AM - 7:00 PM , Thu 7:00 AM - 7:00 PM , Fri 7:00 AM - 7:00 PM , Sat 7:00 AM - 6:00 PM , Sun Closed ",,,
,,4589 W. Hillsboro Blvd.,,Coconut Creek,FL,33073,United States,(954) 421-0444,26.3190808181381,-80.1858240589444,"Mon 7:00 AM - 7:00 PM , Tue 7:00 AM - 7:00 PM , Wed 7:00 AM - 7:00 PM , Thu 7:00 AM - 7:00 PM , Fri 7:00 AM - 7:00 PM , Sat 7:00 AM - 6:00 PM , Sun 9:00 AM - 5:00 PM , Mon 7:00 AM - 7:00 PM , Tue 7:00 AM - 7:00 PM , Wed 7:00 AM - 7:00 PM , Thu 7:00 AM - 7:00 PM , Fri 7:00 AM - 7:00 PM , Sat 7:00 AM - 6:00 PM , Sun 9:00 AM - 5:00 PM ",,,
,,3102 South Florida Avenue,,Lakeland,FL,33803,United States,(863) 644-1027,28.007301166806,-81.9566184282302,"Mon 7:30 AM - 7:00 PM , Tue 7:30 AM - 7:00 PM , Wed 7:30 AM - 7:00 PM , Thu 7:30 AM - 7:00 PM , Fri 7:30 AM - 7:00 PM , Sat 7:30 AM - 6:00 PM , Sun Closed , Mon 7:30 AM - 7:00 PM , Tue 7:30 AM - 7:00 PM , Wed 7:30 AM - 7:00 PM , Thu 7:30 AM - 7:00 PM , Fri 7:30 AM - 7:00 PM , Sat 7:30 AM - 6:00 PM , Sun Closed ",,,
,,235 S. Belcher Road,,Clearwater,FL,33765,United States,(727) 799-4800,27.9630288735885,-82.7456236584612,"Mon 7:00 AM - 7:00 PM , Tue 7:00 AM - 7:00 PM , Wed 7:00 AM - 7:00 PM , Thu 7:00 AM - 7:00 PM , Fri 7:00 AM - 7:00 PM , Sat 7:00 AM - 6:00 PM , Sun Closed , Mon 7:00 AM - 7:00 PM , Tue 7:00 AM - 7:00 PM , Wed 7:00 AM - 7:00 PM , Thu 7:00 AM - 7:00 PM , Fri 7:00 AM - 7:00 PM , Sat 7:00 AM - 6:00 PM , Sun Closed ",,,
,,2015 Town Center Blvd,,Brandon,FL,33511,United States,(813) 643-6503,27.9261090226115,-82.3180191917435,"Mon 7:00 AM - 7:00 PM , Tue 7:00 AM - 7:00 PM , Wed 7:00 AM - 7:00 PM , Thu 7:00 AM - 7:00 PM , Fri 7:00 AM - 7:00 PM , Sat 7:00 AM - 6:00 PM , Sun Closed , Mon 7:00 AM - 7:00 PM , Tue 7:00 AM - 7:00 PM , Wed 7:00 AM - 7:00 PM , Thu 7:00 AM - 7:00 PM , Fri 7:00 AM - 7:00 PM , Sat 7:00 AM - 6:00 PM , Sun Closed ",,,
,,9002 Rolfes Road,,Fort Myers,FL,33966,United States,(239) 278-3228,26.6120273162241,-81.8075017780257,"Mon 7:00 AM - 7:00 PM , Tue 7:00 AM - 7:00 PM , Wed 7:00 AM - 7:00 PM , Thu 7:00 AM - 7:00 PM , Fri 7:00 AM - 7:00 PM , Sat 7:00 AM - 6:00 PM , Sun 9:00 AM - 5:00 PM , Mon 7:00 AM - 7:00 PM , Tue 7:00 AM - 7:00 PM , Wed 7:00 AM - 7:00 PM , Thu 7:00 AM - 7:00 PM , Fri 7:00 AM - 7:00 PM , Sat 7:00 AM - 6:00 PM , Sun 9:00 AM - 5:00 PM ",,,
,,12831 Trade Center Drive,,Bonita Springs,FL,34135,United States,(239) 947-1214,26.3309258690731,-81.7415005713701,"Mon 7:00 AM - 7:00 PM , Tue 7:00 AM - 7:00 PM , Wed 7:00 AM - 7:00 PM , Thu 7:00 AM - 7:00 PM , Fri 7:00 AM - 7:00 PM , Sat 7:00 AM - 6:00 PM , Sun 9:00 AM - 5:00 PM , Mon 7:00 AM - 7:00 PM , Tue 7:00 AM - 7:00 PM , Wed 7:00 AM - 7:00 PM , Thu 7:00 AM - 7:00 PM , Fri 7:00 AM - 7:00 PM , Sat 7:00 AM - 6:00 PM , Sun 9:00 AM - 5:00 PM ",,,
,,2189 N. State Road 7,,Margate,FL,33063,United States,(954) 366-1306,26.2567663897806,-80.2021513134241,"Mon 7:00 AM - 7:00 PM , Tue 7:00 AM - 7:00 PM , Wed 7:00 AM - 7:00 PM , Thu 7:00 AM - 7:00 PM , Fri 7:00 AM - 7:00 PM , Sat 7:00 AM - 6:00 PM , Sun Closed , Mon 7:00 AM - 7:00 PM , Tue 7:00 AM - 7:00 PM , Wed 7:00 AM - 7:00 PM , Thu 7:00 AM - 7:00 PM , Fri 7:00 AM - 7:00 PM , Sat 7:00 AM - 6:00 PM , Sun Closed ",,,
,,22923 Sandalfoot Plaza Drive,,Boca Raton,FL,33428,United States,(561) 488-1822,26.3346743243795,-80.2022274658179,"Mon 7:00 AM - 7:00 PM , Tue 7:00 AM - 7:00 PM , Wed 7:00 AM - 7:00 PM , Thu 7:00 AM - 7:00 PM , Fri 7:00 AM - 7:00 PM , Sat 7:00 AM - 6:00 PM , Sun 9:00 AM - 5:00 PM , Mon 7:00 AM - 7:00 PM , Tue 7:00 AM - 7:00 PM , Wed 7:00 AM - 7:00 PM , Thu 7:00 AM - 7:00 PM , Fri 7:00 AM - 7:00 PM , Sat 7:00 AM - 6:00 PM , Sun 9:00 AM - 5:00 PM ",,,
,,13621 Fiddlesticks Blvd.,,Fort Myers,FL,33912,United States,(239) 561-5575,26.5459170752604,-81.8036319538896,"Mon 7:00 AM - 7:00 PM , Tue 7:00 AM - 7:00 PM , Wed 7:00 AM - 7:00 PM , Thu 7:00 AM - 7:00 PM , Fri 7:00 AM - 7:00 PM , Sat 7:00 AM - 6:00 PM , Sun 9:00 AM - 5:00 PM , Mon 7:00 AM - 7:00 PM , Tue 7:00 AM - 7:00 PM , Wed 7:00 AM - 7:00 PM , Thu 7:00 AM - 7:00 PM , Fri 7:00 AM - 7:00 PM , Sat 7:00 AM - 6:00 PM , Sun 9:00 AM - 5:00 PM ",,,
,,5202 E. State Road 64,,Bradenton,FL,34208,United States,(941) 749-6100,27.4946509120458,-82.497129063131,"Mon 7:00 AM - 7:00 PM , Tue 7:00 AM - 7:00 PM , Wed 7:00 AM - 7:00 PM , Thu 7:00 AM - 7:00 PM , Fri 7:00 AM - 7:00 PM , Sat 7:00 AM - 6:00 PM , Sun Closed , Mon 7:00 AM - 7:00 PM , Tue 7:00 AM - 7:00 PM , Wed 7:00 AM - 7:00 PM , Thu 7:00 AM - 7:00 PM , Fri 7:00 AM - 7:00 PM , Sat 7:00 AM - 6:00 PM , Sun Closed ",,,
,,8090 Wiles Road,,Coral Springs,FL,33067,United States,(954) 755-5584,26.2863153093696,-80.2336807698201,"Mon 7:00 AM - 7:00 PM , Tue 7:00 AM - 7:00 PM , Wed 7:00 AM - 7:00 PM , Thu 7:00 AM - 7:00 PM , Fri 7:00 AM - 7:00 PM , Sat 7:00 AM - 6:00 PM , Sun 9:00 AM - 5:00 PM , Mon 7:00 AM - 7:00 PM , Tue 7:00 AM - 7:00 PM , Wed 7:00 AM - 7:00 PM , Thu 7:00 AM - 7:00 PM , Fri 7:00 AM - 7:00 PM , Sat 7:00 AM - 6:00 PM , Sun 9:00 AM - 5:00 PM ",,,
,,3940 Hypoluxo Road,,Boynton Beach,FL,33436,United States,(561) 641-7518,26.5713250609001,-80.1034514755201,"Mon 7:00 AM - 7:00 PM , Tue 7:00 AM - 7:00 PM , Wed 7:00 AM - 7:00 PM , Thu 7:00 AM - 7:00 PM , Fri 7:00 AM - 7:00 PM , Sat 7:00 AM - 6:00 PM , Sun 9:00 AM - 5:00 PM , Mon 7:00 AM - 7:00 PM , Tue 7:00 AM - 7:00 PM , Wed 7:00 AM - 7:00 PM , Thu 7:00 AM - 7:00 PM , Fri 7:00 AM - 7:00 PM , Sat 7:00 AM - 6:00 PM , Sun 9:00 AM - 5:00 PM ",,,
,,1640 S Congress Avenue,,Boynton Beach,FL,33426,United States,(561) 752-9090,26.5120214830938,-80.0895119458436,"Mon 7:00 AM - 7:00 PM , Tue 7:00 AM - 7:00 PM , Wed 7:00 AM - 7:00 PM , Thu 7:00 AM - 7:00 PM , Fri 7:00 AM - 7:00 PM , Sat 7:00 AM - 6:00 PM , Sun 9:00 AM - 5:00 PM , Mon 7:00 AM - 7:00 PM , Tue 7:00 AM - 7:00 PM , Wed 7:00 AM - 7:00 PM , Thu 7:00 AM - 7:00 PM , Fri 7:00 AM - 7:00 PM , Sat 7:00 AM - 6:00 PM , Sun 9:00 AM - 5:00 PM ",,,
,,5720 Ranch Lake Road,,Bradenton,FL,34202,United States,(941) 756-8605,27.4390144892927,-82.4556896835565,"Mon 7:00 AM - 7:00 PM , Tue 7:00 AM - 7:00 PM , Wed 7:00 AM - 7:00 PM , Thu 7:00 AM - 7:00 PM , Fri 7:00 AM - 7:00 PM , Sat 7:00 AM - 6:00 PM , Sun 9:00 AM - 5:00 PM , Mon 7:00 AM - 7:00 PM , Tue 7:00 AM - 7:00 PM , Wed 7:00 AM - 7:00 PM , Thu 7:00 AM - 7:00 PM , Fri 7:00 AM - 7:00 PM , Sat 7:00 AM - 6:00 PM , Sun 9:00 AM - 5:00 PM ",,,
,,4620 Coral Ridge Dr.,,Coral Springs,FL,33076,United States,(954) 255-8522,26.2880244,-80.2839422,"Mon 7:00 AM - 7:00 PM , Tue 7:00 AM - 7:00 PM , Wed 7:00 AM - 7:00 PM , Thu 7:00 AM - 7:00 PM , Fri 7:00 AM - 7:00 PM , Sat 7:00 AM - 6:00 PM , Sun 9:00 AM - 5:00 PM , Mon 7:00 AM - 7:00 PM , Tue 7:00 AM - 7:00 PM , Wed 7:00 AM - 7:00 PM , Thu 7:00 AM - 7:00 PM , Fri 7:00 AM - 7:00 PM , Sat 7:00 AM - 6:00 PM , Sun 9:00 AM - 5:00 PM ",,,
,,8712 E. State Road 70,,Bradenton,FL,34202,United States,(941) 755-8394,27.4377455782488,-82.4505121912989,"Mon 7:00 AM - 7:00 PM , Tue 7:00 AM - 7:00 PM , Wed 7:00 AM - 7:00 PM , Thu 7:00 AM - 7:00 PM , Fri 7:00 AM - 7:00 PM , Sat 7:00 AM - 6:00 PM , Sun Closed , Mon 7:00 AM - 7:00 PM , Tue 7:00 AM - 7:00 PM , Wed 7:00 AM - 7:00 PM , Thu 7:00 AM - 7:00 PM , Fri 7:00 AM - 7:00 PM , Sat 7:00 AM - 6:00 PM , Sun Closed ",,,
