store_name,store_number,address,address2,city,state,zip_code,country,phone_number,latitude,longitude,store_hours,store_type,other_fields,coming_soon
Ruby Tuesday of Somerset,,250 DAVIDSON AVE.,,,NJ,08873,United States,7328689160,,,"Monday 11:00 - 23:00, Monday 11:00 - 23:00, Monday 11:00 - 23:00, Monday 11:00 - 23:00, Monday 11:00 - 23:00, Monday 11:00 - 23:00, Monday 11:00 - 23:00, Monday 11:00 - 23:00",,,0
Ruby Tuesday of Union Plaza,,2454 ROUTE 22 WEST,,,NJ,07083,United States,9089648177,,,"Monday 11:00 - 23:00, Monday 11:00 - 23:00, Monday 11:00 - 23:00, Monday 11:00 - 23:00, Monday 11:00 - 23:00, Monday 11:00 - 23:00, Monday 11:00 - 23:00, Monday 11:00 - 23:00",,,0
"Ruby Tuesday of Elizabeth, N.J.",,120 GLIMCHER REALTY WAY,,,NJ,07201,United States,9082898307,,,"Monday 11:00 - 23:00, Monday 11:00 - 23:00, Monday 11:00 - 23:00, Monday 11:00 - 23:00, Monday 11:00 - 23:00, Monday 11:00 - 23:00, Monday 11:00 - 23:00, Monday 11:00 - 23:00",,,0
Ruby Tuesday of Freehold,,RT 9 SP 1302 FREEHOLD RACEWAY MALL,,,NJ,07728,United States,7325779644,,,"Monday 11:00 - 22:00, Monday 11:00 - 22:00, Monday 11:00 - 22:00, Monday 11:00 - 22:00, Monday 11:00 - 22:00, Monday 11:00 - 22:00, Monday 11:00 - 22:00, Monday 11:00 - 22:00",,,0
Ruby Tuesday of Bridgewater Towne Center,,754 RT 202,,,NJ,08807,United States,9082310555,,,"Monday 11:00 - 22:00, Monday 11:00 - 22:00, Monday 11:00 - 22:00, Monday 11:00 - 22:00, Monday 11:00 - 22:00, Monday 11:00 - 22:00, Monday 11:00 - 22:00, Monday 11:00 - 22:00",,,0
Ruby Tuesday of Princeton,,3817 ROUTE 1,,,NJ,08540,United States,6095141900,,,"Monday 11:00 - 23:00, Monday 11:00 - 23:00, Monday 11:00 - 23:00, Monday 11:00 - 23:00, Monday 11:00 - 23:00, Monday 11:00 - 23:00, Monday 11:00 - 23:00, Monday 11:00 - 23:00",,,0
Ruby Tuesday of Monmouth,,RT 35 AT WYCKOFF RD SPACE 2154,,,NJ,07724,United States,7325424141,,,"Monday 11:00 - 22:00, Monday 11:00 - 22:00, Monday 11:00 - 22:00, Monday 11:00 - 22:00, Monday 11:00 - 22:00, Monday 11:00 - 22:00, Monday 11:00 - 22:00, Monday 11:00 - 22:00",,,0
Ruby Tuesday of Neptune,,3595 ROUTE 66,,,NJ,07753,United States,7329184776,,,"Monday 11:00 - 22:00, Monday 11:00 - 22:00, Monday 11:00 - 22:00, Monday 11:00 - 22:00, Monday 11:00 - 22:00, Monday 11:00 - 22:00, Monday 11:00 - 22:00, Monday 11:00 - 22:00",,,0
Ruby Tuesday of Times Square,,585 7TH AVENUE,,,NY,10036,United States,2123823898,,,"Monday 8:00 - 0:00, Monday 8:00 - 0:00, Monday 8:00 - 0:00, Monday 8:00 - 0:00, Monday 8:00 - 0:00, Monday 8:00 - 0:00, Monday 8:00 - 0:00, Monday 8:00 - 0:00",,,0
Ruby Tuesday of Howell,,5169 RT 9 NORTH,,,NJ,07731,United States,7323678053,,,"Monday 11:00 - 22:00, Monday 11:00 - 22:00, Monday 11:00 - 22:00, Monday 11:00 - 22:00, Monday 11:00 - 22:00, Monday 11:00 - 22:00, Monday 11:00 - 22:00, Monday 11:00 - 22:00",,,0
Ruby Tuesday of Hamilton,,500 MARKETPLACE BLVD,,,NJ,08691,United States,6095817232,,,"Monday 11:00 - 22:00, Monday 11:00 - 22:00, Monday 11:00 - 22:00, Monday 11:00 - 22:00, Monday 11:00 - 22:00, Monday 11:00 - 22:00, Monday 11:00 - 22:00, Monday 11:00 - 22:00",,,0
Ruby Tuesday of Willowbrook Mall,,1200 WILLOWBROOK MALL,,,NJ,07470,United States,9738908990,,,"Monday 11:00 - 22:00, Monday 11:00 - 22:00, Monday 11:00 - 22:00, Monday 11:00 - 22:00, Monday 11:00 - 22:00, Monday 11:00 - 22:00, Monday 11:00 - 22:00, Monday 11:00 - 22:00",,,0
Ruby Tuesday of Paramus,,GARDEN STATE PLAZA #A1-4,,,NJ,07652,United States,2019090886,,,"Monday 11:00 - 23:00, Monday 11:00 - 23:00, Monday 11:00 - 23:00, Monday 11:00 - 23:00, Monday 11:00 - 23:00, Monday 11:00 - 23:00, Monday 11:00 - 23:00, Monday 11:00 - 23:00",,,0
Ruby Tuesday of Brick,,1875 ROUTE 70,,,NJ,08701,United States,7322621331,,,"Monday 11:00 - 22:00, Monday 11:00 - 22:00, Monday 11:00 - 22:00, Monday 11:00 - 22:00, Monday 11:00 - 22:00, Monday 11:00 - 22:00, Monday 11:00 - 22:00, Monday 11:00 - 22:00",,,0
Ruby Tuesday of Mansfield Commons,,1885 ROUTE 57,,,NJ,07840,United States,9088525210,,,"Monday 11:00 - 22:00, Monday 11:00 - 22:00, Monday 11:00 - 22:00, Monday 11:00 - 22:00, Monday 11:00 - 22:00, Monday 11:00 - 22:00, Monday 11:00 - 22:00, Monday 11:00 - 22:00",,,0
Ruby Tuesday of Toms River,,1311 RT. 37 WEST,,,NJ,08755,United States,7325053045,,,"Monday 11:00 - 22:00, Monday 11:00 - 22:00, Monday 11:00 - 22:00, Monday 11:00 - 22:00, Monday 11:00 - 22:00, Monday 11:00 - 22:00, Monday 11:00 - 22:00, Monday 11:00 - 22:00",,,0
Ruby Tuesday of Langhorne,,1440 EAST LINCOLN HIGHWAY,,,PA,19047,United States,2675722143,,,"Monday 11:00 - 22:00, Monday 11:00 - 22:00, Monday 11:00 - 22:00, Monday 11:00 - 22:00, Monday 11:00 - 22:00, Monday 11:00 - 22:00, Monday 11:00 - 22:00, Monday 11:00 - 22:00",,,0
Ruby Tuesday of Westbury,,1226 OLD COUNTRY ROAD,,,NY,11590,United States,5162285176,,,"Monday 11:00 - 23:00, Monday 11:00 - 23:00, Monday 11:00 - 23:00, Monday 11:00 - 23:00, Monday 11:00 - 23:00, Monday 11:00 - 23:00, Monday 11:00 - 23:00, Monday 11:00 - 23:00",,,0
Ruby Tuesday of Phillipsburg,,1278 U.S. ROUTE 22,,,NJ,08865,United States,9082132200,,,"Monday 11:00 - 22:00, Monday 11:00 - 22:00, Monday 11:00 - 22:00, Monday 11:00 - 22:00, Monday 11:00 - 22:00, Monday 11:00 - 22:00, Monday 11:00 - 22:00, Monday 11:00 - 22:00",,,0
Ruby Tuesday of Warrington,,140 EASTON ROAD,,,PA,18976,United States,2159189090,,,"Monday 11:00 - 22:00, Monday 11:00 - 22:00, Monday 11:00 - 22:00, Monday 11:00 - 22:00, Monday 11:00 - 22:00, Monday 11:00 - 22:00, Monday 11:00 - 22:00, Monday 11:00 - 22:00",,,0
Ruby Tuesday of Mt. Laurel,,4011 DEARBORN CIRCLE,,,NJ,08054,United States,8564390042,,,"Monday 11:00 - 22:00, Monday 11:00 - 22:00, Monday 11:00 - 22:00, Monday 11:00 - 22:00, Monday 11:00 - 22:00, Monday 11:00 - 22:00, Monday 11:00 - 22:00, Monday 11:00 - 22:00",,,0
Ruby Tuesday of Montgomeryville,,650 COWPATH ROAD,,,PA,19446,United States,2153620713,,,"Monday 11:00 - 22:00, Monday 11:00 - 22:00, Monday 11:00 - 22:00, Monday 11:00 - 22:00, Monday 11:00 - 22:00, Monday 11:00 - 22:00, Monday 11:00 - 22:00, Monday 11:00 - 22:00",,,0
Ruby Tuesday of Bethlehem Township,,2102 EMERICK BLVD.,,,PA,18020,United States,6106949801,,,"Monday 11:00 - 22:00, Monday 11:00 - 22:00, Monday 11:00 - 22:00, Monday 11:00 - 22:00, Monday 11:00 - 22:00, Monday 11:00 - 22:00, Monday 11:00 - 22:00, Monday 11:00 - 22:00",,,0
Ruby Tuesday of Deerpark,,"403 COMMACK RD, KOHLS SHOPPING CTR",,,NY,11729,United States,6316672464,,,"Monday 11:00 - 23:00, Monday 11:00 - 23:00, Monday 11:00 - 23:00, Monday 11:00 - 23:00, Monday 11:00 - 23:00, Monday 11:00 - 23:00, Monday 11:00 - 23:00, Monday 11:00 - 23:00",,,0
Ruby Tuesday of Stroudsburg Route 611,,1055 NORTH 9TH STREET,,,PA,18360,United States,5704209110,,,"Monday 11:00 - 22:00, Monday 11:00 - 22:00, Monday 11:00 - 22:00, Monday 11:00 - 22:00, Monday 11:00 - 22:00, Monday 11:00 - 22:00, Monday 11:00 - 22:00, Monday 11:00 - 22:00",,,0
Ruby Tuesday of Plymouth Meeting,,2053 CHEMICAL ROAD,,,PA,19462,United States,6102604466,,,"Monday 11:00 - 23:00, Monday 11:00 - 23:00, Monday 11:00 - 23:00, Monday 11:00 - 23:00, Monday 11:00 - 23:00, Monday 11:00 - 23:00, Monday 11:00 - 23:00, Monday 11:00 - 23:00",,,0
Ruby Tuesday of The Shops at Liberty Place,,"1625 CHESTNUT ST., SPACE 156 & 160",,,PA,19103,United States,2155686081,,,"Monday 11:00 - 23:00, Monday 11:00 - 23:00, Monday 11:00 - 23:00, Monday 11:00 - 23:00, Monday 11:00 - 23:00, Monday 11:00 - 23:00, Monday 11:00 - 23:00, Monday 11:00 - 23:00",,,0
Ruby Tuesday of Lehigh Valley Mall,,101 LEHIGH VALLEY MALL,,,PA,18052,United States,6102647787,,,"Monday 11:00 - 21:00, Monday 11:00 - 21:00, Monday 11:00 - 21:00, Monday 11:00 - 21:00, Monday 11:00 - 21:00, Monday 11:00 - 21:00, Monday 11:00 - 21:00, Monday 11:00 - 21:00",,,0
Ruby Tuesday of Deptford,,"CLEMENTS BRIDGE RD, DEPTFORD MALL 1A",,,NJ,08096,United States,8568453330,,,"Monday 11:00 - 22:00, Monday 11:00 - 22:00, Monday 11:00 - 22:00, Monday 11:00 - 22:00, Monday 11:00 - 22:00, Monday 11:00 - 22:00, Monday 11:00 - 22:00, Monday 11:00 - 22:00",,,0
Ruby Tuesday of Airport Interplex,,8680 BARTRAM AVE,,,PA,19153,United States,2153657587,,,"Monday 11:00 - 23:00, Monday 11:00 - 23:00, Monday 11:00 - 23:00, Monday 11:00 - 23:00, Monday 11:00 - 23:00, Monday 11:00 - 23:00, Monday 11:00 - 23:00, Monday 11:00 - 23:00",,,0
Ruby Tuesday of Allentown-Tilghman,,3995 TILGHMAN STREET,,,PA,18104,United States,6105308570,,,"Monday 11:00 - 22:00, Monday 11:00 - 22:00, Monday 11:00 - 22:00, Monday 11:00 - 22:00, Monday 11:00 - 22:00, Monday 11:00 - 22:00, Monday 11:00 - 22:00, Monday 11:00 - 22:00",,,0
Ruby Tuesday of Middletown II,,41 ORANGE PLAZA LANE,,,NY,10940,United States,8453429006,,,"Monday 11:00 - 22:00, Monday 11:00 - 22:00, Monday 11:00 - 22:00, Monday 11:00 - 22:00, Monday 11:00 - 22:00, Monday 11:00 - 22:00, Monday 11:00 - 22:00, Monday 11:00 - 22:00",,,0
Ruby Tuesday of Ridley MacDade Mall,,2650 MACDADE BLVD,,,PA,19043,United States,6105833791,,,"Monday 11:00 - 22:00, Monday 11:00 - 22:00, Monday 11:00 - 22:00, Monday 11:00 - 22:00, Monday 11:00 - 22:00, Monday 11:00 - 22:00, Monday 11:00 - 22:00, Monday 11:00 - 22:00",,,0
Ruby Tuesday of Springfield,,1250 BALTIMORE PIKE,,,PA,19064,United States,6105437509,,,"Monday 11:00 - 22:00, Monday 11:00 - 22:00, Monday 11:00 - 22:00, Monday 11:00 - 22:00, Monday 11:00 - 22:00, Monday 11:00 - 22:00, Monday 11:00 - 22:00, Monday 11:00 - 22:00",,,0
Ruby Tuesday of Limerick,,18 LIGHTCAP RD. BLDG 701,,,PA,19464,United States,6107188960,,,"Monday 11:00 - 22:00, Monday 11:00 - 22:00, Monday 11:00 - 22:00, Monday 11:00 - 22:00, Monday 11:00 - 22:00, Monday 11:00 - 22:00, Monday 11:00 - 22:00, Monday 11:00 - 22:00",,,0
Ruby Tuesday of Mays Landing,,4403 BLACK HORSE PIKE,,,NJ,08330,United States,6092721550,,,"Monday 11:00 - 22:00, Monday 11:00 - 22:00, Monday 11:00 - 22:00, Monday 11:00 - 22:00, Monday 11:00 - 22:00, Monday 11:00 - 22:00, Monday 11:00 - 22:00, Monday 11:00 - 22:00",,,0
Ruby Tuesday of Sunshine Square,,700 PATCHOGUE YAPHANK ROAD,,,NY,11763,United States,6319240759,,,"Monday 11:00 - 23:00, Monday 11:00 - 23:00, Monday 11:00 - 23:00, Monday 11:00 - 23:00, Monday 11:00 - 23:00, Monday 11:00 - 23:00, Monday 11:00 - 23:00, Monday 11:00 - 23:00",,,0
Ruby Tuesday of Fishkill,,"25 WESTAGE DR, WESTAGE BUSINESS CTR",,,NY,12524,United States,8458977130,,,"Monday 11:00 - 22:00, Monday 11:00 - 22:00, Monday 11:00 - 22:00, Monday 11:00 - 22:00, Monday 11:00 - 22:00, Monday 11:00 - 22:00, Monday 11:00 - 22:00, Monday 11:00 - 22:00",,,0
Ruby Tuesday of Atlantic City,,2100 ATLANTIC AVENUE,,,NJ,08401,United States,6093470283,,,"Monday 11:00 - 22:00, Monday 11:00 - 22:00, Monday 11:00 - 22:00, Monday 11:00 - 22:00, Monday 11:00 - 22:00, Monday 11:00 - 22:00, Monday 11:00 - 22:00, Monday 11:00 - 22:00",,,0
Ruby Tuesday of Poughkeepsie Galleria Mall,,2001 SOUTH ROAD,,,NY,12601,United States,8452987620,,,"Monday 11:00 - 22:00, Monday 11:00 - 22:00, Monday 11:00 - 22:00, Monday 11:00 - 22:00, Monday 11:00 - 22:00, Monday 11:00 - 22:00, Monday 11:00 - 22:00, Monday 11:00 - 22:00",,,0
Ruby Tuesday of Shelton,,811 BRIDGEPORT AVE.,,,CT,06484,United States,2039440812,,,"Monday 11:00 - 22:00, Monday 11:00 - 22:00, Monday 11:00 - 22:00, Monday 11:00 - 22:00, Monday 11:00 - 22:00, Monday 11:00 - 22:00, Monday 11:00 - 22:00, Monday 11:00 - 22:00",,,0
Ruby Tuesday of Wyomissing,,1665 STATE HILL ROAD,,,PA,19610,United States,6103736900,,,"Monday 11:00 - 22:00, Monday 11:00 - 22:00, Monday 11:00 - 22:00, Monday 11:00 - 22:00, Monday 11:00 - 22:00, Monday 11:00 - 22:00, Monday 11:00 - 22:00, Monday 11:00 - 22:00",,,0
Ruby Tuesday of Pike Creek,,4732 LIMESTONE RD.,,,DE,19808,United States,3029959081,,,"Monday 11:00 - 22:00, Monday 11:00 - 22:00, Monday 11:00 - 22:00, Monday 11:00 - 22:00, Monday 11:00 - 22:00, Monday 11:00 - 22:00, Monday 11:00 - 22:00, Monday 11:00 - 22:00",,,0
Ruby Tuesday of Montage Mountain,,15 RADCLIFF DRIVE,,,PA,18507,United States,5709619330,,,"Monday 11:00 - 22:00, Monday 11:00 - 22:00, Monday 11:00 - 22:00, Monday 11:00 - 22:00, Monday 11:00 - 22:00, Monday 11:00 - 22:00, Monday 11:00 - 22:00, Monday 11:00 - 22:00",,,0
Ruby Tuesday of Bear,,928 BEAR CORBITT ROAD,,,DE,19702,United States,3028341039,,,"Monday 11:00 - 23:00, Monday 11:00 - 23:00, Monday 11:00 - 23:00, Monday 11:00 - 23:00, Monday 11:00 - 23:00, Monday 11:00 - 23:00, Monday 11:00 - 23:00, Monday 11:00 - 23:00",,,0
Ruby Tuesday of North Haven,,150 UNIVERSAL DRIVE NORTH,,,CT,06473,United States,2032391473,,,"Monday 11:00 - 23:00, Monday 11:00 - 23:00, Monday 11:00 - 23:00, Monday 11:00 - 23:00, Monday 11:00 - 23:00, Monday 11:00 - 23:00, Monday 11:00 - 23:00, Monday 11:00 - 23:00",,,0
Ruby Tuesday of Dickson City,,2 EAST  RAVINE STREET,,,PA,18508,United States,5703484718,,,"Monday 11:00 - 22:00, Monday 11:00 - 22:00, Monday 11:00 - 22:00, Monday 11:00 - 22:00, Monday 11:00 - 22:00, Monday 11:00 - 22:00, Monday 11:00 - 22:00, Monday 11:00 - 22:00",,,0
Ruby Tuesday of Pottsville,,312 PA-61,,,PA,17901,United States,5706247795,,,"Monday 11:00 - 22:00, Monday 11:00 - 22:00, Monday 11:00 - 22:00, Monday 11:00 - 22:00, Monday 11:00 - 22:00, Monday 11:00 - 22:00, Monday 11:00 - 22:00, Monday 11:00 - 22:00",,,0
Ruby Tuesday of Elkton Wal-Mart Pad,,312 EAST PULASKI HIGHWAY,,,MD,21921,United States,4103985134,,,"Monday 11:00 - 22:00, Monday 11:00 - 22:00, Monday 11:00 - 22:00, Monday 11:00 - 22:00, Monday 11:00 - 22:00, Monday 11:00 - 22:00, Monday 11:00 - 22:00, Monday 11:00 - 22:00",,,0
Ruby Tuesday of Middletown,,474 WEST MAIN ST,,,DE,19709,United States,3024491266,,,"Monday 11:00 - 22:00, Monday 11:00 - 22:00, Monday 11:00 - 22:00, Monday 11:00 - 22:00, Monday 11:00 - 22:00, Monday 11:00 - 22:00, Monday 11:00 - 22:00, Monday 11:00 - 22:00",,,0
Ruby Tuesday of East Lancaster,,"35 SOUTH WILLOWDALE DRIVE, STE 801",,,PA,17602,United States,7172951456,,,"Monday 11:00 - 22:00, Monday 11:00 - 22:00, Monday 11:00 - 22:00, Monday 11:00 - 22:00, Monday 11:00 - 22:00, Monday 11:00 - 22:00, Monday 11:00 - 22:00, Monday 11:00 - 22:00",,,0
Ruby Tuesday of Meriden,,470 LEWIS AVENUE,,,CT,06450,United States,2036301703,,,"Monday 11:00 - 22:00, Monday 11:00 - 22:00, Monday 11:00 - 22:00, Monday 11:00 - 22:00, Monday 11:00 - 22:00, Monday 11:00 - 22:00, Monday 11:00 - 22:00, Monday 11:00 - 22:00",,,0
Ruby Tuesday of Lancaster,,2002 FRUITVILLE PIKE,,,PA,17601,United States,7175605030,,,"Monday 11:00 - 22:00, Monday 11:00 - 22:00, Monday 11:00 - 22:00, Monday 11:00 - 22:00, Monday 11:00 - 22:00, Monday 11:00 - 22:00, Monday 11:00 - 22:00, Monday 11:00 - 22:00",,,0
Ruby Tuesday of Manor,,1294 MILLERSVILLE PIKE,,,PA,17603,United States,7175095701,,,"Monday 11:00 - 22:00, Monday 11:00 - 22:00, Monday 11:00 - 22:00, Monday 11:00 - 22:00, Monday 11:00 - 22:00, Monday 11:00 - 22:00, Monday 11:00 - 22:00, Monday 11:00 - 22:00",,,0
Ruby Tuesday of Bristol,,"1444 FARMINGTON AVE, RT 6",,,CT,06010,United States,8605897050,,,"Monday 11:00 - 22:00, Monday 11:00 - 22:00, Monday 11:00 - 22:00, Monday 11:00 - 22:00, Monday 11:00 - 22:00, Monday 11:00 - 22:00, Monday 11:00 - 22:00, Monday 11:00 - 22:00",,,0
Ruby Tuesday of Lebanon,,1351 QUENTIN ROAD,,,PA,17042,United States,7172742081,,,"Monday 11:00 - 22:00, Monday 11:00 - 22:00, Monday 11:00 - 22:00, Monday 11:00 - 22:00, Monday 11:00 - 22:00, Monday 11:00 - 22:00, Monday 11:00 - 22:00, Monday 11:00 - 22:00",,,0
Ruby Tuesday of Cromwell,,50 SHUMPIKE ROAD,,,CT,06416,United States,8606359970,,,"Monday 11:00 - 22:00, Monday 11:00 - 22:00, Monday 11:00 - 22:00, Monday 11:00 - 22:00, Monday 11:00 - 22:00, Monday 11:00 - 22:00, Monday 11:00 - 22:00, Monday 11:00 - 22:00",,,0
Ruby Tuesday of Bloomsburg,,11 RICKY AVE,,,PA,17815,United States,5703899750,,,"Monday 11:00 - 22:00, Monday 11:00 - 22:00, Monday 11:00 - 22:00, Monday 11:00 - 22:00, Monday 11:00 - 22:00, Monday 11:00 - 22:00, Monday 11:00 - 22:00, Monday 11:00 - 22:00",,,0
Ruby Tuesday of Bloomfield,,848 COTTAGE GROVE ROAD,,,CT,06002,United States,8607269401,,,"Monday 11:00 - 23:00, Monday 11:00 - 23:00, Monday 11:00 - 23:00, Monday 11:00 - 23:00, Monday 11:00 - 23:00, Monday 11:00 - 23:00, Monday 11:00 - 23:00, Monday 11:00 - 23:00",,,0
Ruby Tuesday of Milford DE,,945 N DUPONT BLVD,,,DE,19963,United States,3024248049,,,"Monday 11:00 - 22:00, Monday 11:00 - 22:00, Monday 11:00 - 22:00, Monday 11:00 - 22:00, Monday 11:00 - 22:00, Monday 11:00 - 22:00, Monday 11:00 - 22:00, Monday 11:00 - 22:00",,,0
Ruby Tuesday of Riverside,,1341 JAMES WAY,,,MD,21015,United States,4102730330,,,"Monday 11:00 - 22:00, Monday 11:00 - 22:00, Monday 11:00 - 22:00, Monday 11:00 - 22:00, Monday 11:00 - 22:00, Monday 11:00 - 22:00, Monday 11:00 - 22:00, Monday 11:00 - 22:00",,,0
Ruby Tuesday of Waterford Commons,,905 HARTFORD TURNPIKE RT. 85,,,CT,06385,United States,8604379825,,,"Monday 11:00 - 22:00, Monday 11:00 - 22:00, Monday 11:00 - 22:00, Monday 11:00 - 22:00, Monday 11:00 - 22:00, Monday 11:00 - 22:00, Monday 11:00 - 22:00, Monday 11:00 - 22:00",,,0
Ruby Tuesday of Rehoboth,,19340 LIGHTHOUSE PLAZA BLVD.,,,DE,19971,United States,3022263192,,,"Monday 11:00 - 22:00, Monday 11:00 - 22:00, Monday 11:00 - 22:00, Monday 11:00 - 22:00, Monday 11:00 - 22:00, Monday 11:00 - 22:00, Monday 11:00 - 22:00, Monday 11:00 - 22:00",,,0
Ruby Tuesday of Windsor Locks,,101 ELLA GRASSO TURNPIKE,,,CT,06096,United States,8606275906,,,"Monday 11:00 - 23:00, Monday 11:00 - 23:00, Monday 11:00 - 23:00, Monday 11:00 - 23:00, Monday 11:00 - 23:00, Monday 11:00 - 23:00, Monday 11:00 - 23:00, Monday 11:00 - 23:00",,,0
Ruby Tuesday of South York,,255 ST. CHARLES WAY,,,PA,17402,United States,7177416688,,,"Monday 11:00 - 22:00, Monday 11:00 - 22:00, Monday 11:00 - 22:00, Monday 11:00 - 22:00, Monday 11:00 - 22:00, Monday 11:00 - 22:00, Monday 11:00 - 22:00, Monday 11:00 - 22:00",,,0
Ruby Tuesday of East Harrisburg,,3991 PAXTON STREET,,,PA,17111,United States,7175610750,,,"Monday 11:00 - 22:00, Monday 11:00 - 22:00, Monday 11:00 - 22:00, Monday 11:00 - 22:00, Monday 11:00 - 22:00, Monday 11:00 - 22:00, Monday 11:00 - 22:00, Monday 11:00 - 22:00",,,0
Ruby Tuesday of Shrewsbury,,1020 FAR HILLS DRIVE,,,PA,17349,United States,7172350223,,,"Monday 11:00 - 22:00, Monday 11:00 - 22:00, Monday 11:00 - 22:00, Monday 11:00 - 22:00, Monday 11:00 - 22:00, Monday 11:00 - 22:00, Monday 11:00 - 22:00, Monday 11:00 - 22:00",,,0
Ruby Tuesday of Binghamton,,HARRY L DRIVE & REYNOLDS ROAD 2838,,,NY,13790,United States,6077297550,,,"Monday 11:00 - 22:00, Monday 11:00 - 22:00, Monday 11:00 - 22:00, Monday 11:00 - 22:00, Monday 11:00 - 22:00, Monday 11:00 - 22:00, Monday 11:00 - 22:00, Monday 11:00 - 22:00",,,0
Ruby Tuesday of North Windham,,6 NORTHRIDGE DRIVE,,,CT,06256,United States,8604230056,,,"Monday 11:00 - 22:00, Monday 11:00 - 22:00, Monday 11:00 - 22:00, Monday 11:00 - 22:00, Monday 11:00 - 22:00, Monday 11:00 - 22:00, Monday 11:00 - 22:00, Monday 11:00 - 22:00",,,0
Ruby Tuesday of Lisbon,,"160 RIVER ROAD, SUITE A-200",,,CT,06351,United States,8603765608,,,"Monday 11:00 - 22:00, Monday 11:00 - 22:00, Monday 11:00 - 22:00, Monday 11:00 - 22:00, Monday 11:00 - 22:00, Monday 11:00 - 22:00, Monday 11:00 - 22:00, Monday 11:00 - 22:00",,,0
Ruby Tuesday of Holyoke,,50 HOLYOKE STREET,,,MA,01040,United States,4135320409,,,"Monday 11:00 - 22:00, Monday 11:00 - 22:00, Monday 11:00 - 22:00, Monday 11:00 - 22:00, Monday 11:00 - 22:00, Monday 11:00 - 22:00, Monday 11:00 - 22:00, Monday 11:00 - 22:00",,,0
Ruby Tuesday of Williamsport,,1940 EAST THIRD STREET,,,PA,17701,United States,5703216373,,,"Monday 11:00 - 22:00, Monday 11:00 - 22:00, Monday 11:00 - 22:00, Monday 11:00 - 22:00, Monday 11:00 - 22:00, Monday 11:00 - 22:00, Monday 11:00 - 22:00, Monday 11:00 - 22:00",,,0
Ruby Tuesday of Easton Plaza,,505 GLEBE ROAD,,,MD,21601,United States,4107638475,,,"Monday 11:00 - 22:00, Monday 11:00 - 22:00, Monday 11:00 - 22:00, Monday 11:00 - 22:00, Monday 11:00 - 22:00, Monday 11:00 - 22:00, Monday 11:00 - 22:00, Monday 11:00 - 22:00",,,0
Ruby Tuesday of Randallstown,,8731 LIBERTY RD,,,MD,21133,United States,4432723138,,,"Monday 11:00 - 22:00, Monday 11:00 - 22:00, Monday 11:00 - 22:00, Monday 11:00 - 22:00, Monday 11:00 - 22:00, Monday 11:00 - 22:00, Monday 11:00 - 22:00, Monday 11:00 - 22:00",,,0
Ruby Tuesday of Albany,,"1 CROSSGATES MALL ROAD, K-101",,,NY,12203,United States,5184521352,,,"Monday 11:00 - 22:00, Monday 11:00 - 22:00, Monday 11:00 - 22:00, Monday 11:00 - 22:00, Monday 11:00 - 22:00, Monday 11:00 - 22:00, Monday 11:00 - 22:00, Monday 11:00 - 22:00",,,0
Ruby Tuesday of Marley Station,,7900 GOVERNOR RITCHIE HIGHWY,,,MD,21061,United States,4107664446,,,"Monday 11:00 - 22:00, Monday 11:00 - 22:00, Monday 11:00 - 22:00, Monday 11:00 - 22:00, Monday 11:00 - 22:00, Monday 11:00 - 22:00, Monday 11:00 - 22:00, Monday 11:00 - 22:00",,,0
Ruby Tuesday of Linthicum,,950 INTERNATIONAL DRIVE,,,MD,21090,United States,4106940031,,,"Monday 11:00 - 23:00, Monday 11:00 - 23:00, Monday 11:00 - 23:00, Monday 11:00 - 23:00, Monday 11:00 - 23:00, Monday 11:00 - 23:00, Monday 11:00 - 23:00, Monday 11:00 - 23:00",,,0
"Ruby Tuesday of Westminster, MD",,210 MALCOLM DRIVE,,,MD,21157,United States,4107517056,,,"Monday 11:00 - 22:00, Monday 11:00 - 22:00, Monday 11:00 - 22:00, Monday 11:00 - 22:00, Monday 11:00 - 22:00, Monday 11:00 - 22:00, Monday 11:00 - 22:00, Monday 11:00 - 22:00",,,0
Ruby Tuesday of Latham,,675 TROY-SCHNECTADY RD. RT 7,,,NY,12110,United States,5187851037,,,"Monday 11:00 - 22:00, Monday 11:00 - 22:00, Monday 11:00 - 22:00, Monday 11:00 - 22:00, Monday 11:00 - 22:00, Monday 11:00 - 22:00, Monday 11:00 - 22:00, Monday 11:00 - 22:00",,,0
Ruby Tuesday of Gettysburg,,25 CAMP LETTERMAN DRIVE,,,PA,17325,United States,7173346127,,,"Monday 11:00 - 22:00, Monday 11:00 - 22:00, Monday 11:00 - 22:00, Monday 11:00 - 22:00, Monday 11:00 - 22:00, Monday 11:00 - 22:00, Monday 11:00 - 22:00, Monday 11:00 - 22:00",,,0
Ruby Tuesday of Salisbury,,2300 NORTH SALISBURY BOULEVARD H101,,,MD,21801,United States,4105465049,,,"Monday 11:00 - 22:00, Monday 11:00 - 22:00, Monday 11:00 - 22:00, Monday 11:00 - 22:00, Monday 11:00 - 22:00, Monday 11:00 - 22:00, Monday 11:00 - 22:00, Monday 11:00 - 22:00",,,0
Ruby Tuesday of Columbia MD,,9071 SNOWDEN RIVER PARKWAY,,,MD,21046,United States,4103120917,,,"Monday 11:00 - 22:00, Monday 11:00 - 22:00, Monday 11:00 - 22:00, Monday 11:00 - 22:00, Monday 11:00 - 22:00, Monday 11:00 - 22:00, Monday 11:00 - 22:00, Monday 11:00 - 22:00",,,0
Ruby Tuesday of Clarksville,,6080 DAYBREAK CIRCLE,,,MD,21029,United States,4435358797,,,"Monday 11:00 - 22:00, Monday 11:00 - 22:00, Monday 11:00 - 22:00, Monday 11:00 - 22:00, Monday 11:00 - 22:00, Monday 11:00 - 22:00, Monday 11:00 - 22:00, Monday 11:00 - 22:00",,,0
Ruby Tuesday of Fruitland,,413 NORTH FRUITLAND BLVD,,,MD,21804,United States,4108608212,,,"Monday 11:00 - 22:00, Monday 11:00 - 22:00, Monday 11:00 - 22:00, Monday 11:00 - 22:00, Monday 11:00 - 22:00, Monday 11:00 - 22:00, Monday 11:00 - 22:00, Monday 11:00 - 22:00",,,0
Ruby Tuesday of Clifton Park,,20 MAXWELL DRIVE,,,NY,12065,United States,5183719880,,,"Monday 11:00 - 22:00, Monday 11:00 - 22:00, Monday 11:00 - 22:00, Monday 11:00 - 22:00, Monday 11:00 - 22:00, Monday 11:00 - 22:00, Monday 11:00 - 22:00, Monday 11:00 - 22:00",,,0
Ruby Tuesday of Bowie,,16451 EXCALIBUR RD,,,MD,20716,United States,3018054494,,,"Monday 11:00 - 23:00, Monday 11:00 - 23:00, Monday 11:00 - 23:00, Monday 11:00 - 23:00, Monday 11:00 - 23:00, Monday 11:00 - 23:00, Monday 11:00 - 23:00, Monday 11:00 - 23:00",,,0
Ruby Tuesday of East Greenwich,,1050 DIVISION STREET,,,RI,02818,United States,4018844151,,,"Monday 11:00 - 22:00, Monday 11:00 - 22:00, Monday 11:00 - 22:00, Monday 11:00 - 22:00, Monday 11:00 - 22:00, Monday 11:00 - 22:00, Monday 11:00 - 22:00, Monday 11:00 - 22:00",,,0
Ruby Tuesday of Greenbelt,,8811 GREENBELT ROAD,,,MD,20770,United States,3015520100,,,"Monday 11:00 - 23:00, Monday 11:00 - 23:00, Monday 11:00 - 23:00, Monday 11:00 - 23:00, Monday 11:00 - 23:00, Monday 11:00 - 23:00, Monday 11:00 - 23:00, Monday 11:00 - 23:00",,,0
Ruby Tuesday of Amsterdam,,4917 STATE HIGHWAY 30,,,NY,12010,United States,5188435064,,,"Monday 11:00 - 22:00, Monday 11:00 - 22:00, Monday 11:00 - 22:00, Monday 11:00 - 22:00, Monday 11:00 - 22:00, Monday 11:00 - 22:00, Monday 11:00 - 22:00, Monday 11:00 - 22:00",,,0
Ruby Tuesday of Lock Haven,,281 1/2 HOGAN BLVD,,,PA,17751,United States,5707486563,,,"Monday 11:00 - 22:00, Monday 11:00 - 22:00, Monday 11:00 - 22:00, Monday 11:00 - 22:00, Monday 11:00 - 22:00, Monday 11:00 - 22:00, Monday 11:00 - 22:00, Monday 11:00 - 22:00",,,0
Ruby Tuesday of Johnston,,1386 ATWOOD AVENUE,,,RI,02919,United States,4012752282,,,"Monday 11:00 - 22:00, Monday 11:00 - 22:00, Monday 11:00 - 22:00, Monday 11:00 - 22:00, Monday 11:00 - 22:00, Monday 11:00 - 22:00, Monday 11:00 - 22:00, Monday 11:00 - 22:00",,,0
Ruby Tuesday of Inglewood,,9680 LOTTSFORD CT.,,,MD,20774,United States,3013228029,,,"Monday 11:00 - 23:00, Monday 11:00 - 23:00, Monday 11:00 - 23:00, Monday 11:00 - 23:00, Monday 11:00 - 23:00, Monday 11:00 - 23:00, Monday 11:00 - 23:00, Monday 11:00 - 23:00",,,0
Ruby Tuesday of Horseheads,,3300 CHAMBERS ROAD,,,NY,14845,United States,6077965269,,,"Monday 11:00 - 22:00, Monday 11:00 - 22:00, Monday 11:00 - 22:00, Monday 11:00 - 22:00, Monday 11:00 - 22:00, Monday 11:00 - 22:00, Monday 11:00 - 22:00, Monday 11:00 - 22:00",,,0
Ruby Tuesday of Lake Forest,,"701 RUSSELL AVE., SPACE D-223",,,MD,20877,United States,3012162772,,,"Monday 11:00 - 23:00, Monday 11:00 - 23:00, Monday 11:00 - 23:00, Monday 11:00 - 23:00, Monday 11:00 - 23:00, Monday 11:00 - 23:00, Monday 11:00 - 23:00, Monday 11:00 - 23:00",,,0
Ruby Tuesday of Chambersburg,,1121 LINCOLN HIGHWAY EAST,,,PA,17201,United States,7172622205,,,"Monday 11:00 - 22:00, Monday 11:00 - 22:00, Monday 11:00 - 22:00, Monday 11:00 - 22:00, Monday 11:00 - 22:00, Monday 11:00 - 22:00, Monday 11:00 - 22:00, Monday 11:00 - 22:00",,,0
Ruby Tuesday of Pocomoke City,,145 NEWTOWNE BLVD,,,MD,21851,United States,4109570249,,,"Monday 11:00 - 22:00, Monday 11:00 - 22:00, Monday 11:00 - 22:00, Monday 11:00 - 22:00, Monday 11:00 - 22:00, Monday 11:00 - 22:00, Monday 11:00 - 22:00, Monday 11:00 - 22:00",,,0
Ruby Tuesday of Frederick Crossing Guilford Dr.,,7385 GUILFORD DR,,,MD,21704,United States,2403796415,,,"Monday 11:00 - 22:00, Monday 11:00 - 22:00, Monday 11:00 - 22:00, Monday 11:00 - 22:00, Monday 11:00 - 22:00, Monday 11:00 - 22:00, Monday 11:00 - 22:00, Monday 11:00 - 22:00",,,0
Ruby Tuesday of Prince Frederick,,815 PRINCE FREDERICK BLVD.,,,MD,20678,United States,4104145797,,,"Monday 11:00 - 22:00, Monday 11:00 - 22:00, Monday 11:00 - 22:00, Monday 11:00 - 22:00, Monday 11:00 - 22:00, Monday 11:00 - 22:00, Monday 11:00 - 22:00, Monday 11:00 - 22:00",,,0
Ruby Tuesday of Towncenter at Germantown,,19800 CENTURY BLVD,,,MD,20874,United States,3015282688,,,"Monday 11:00 - 23:00, Monday 11:00 - 23:00, Monday 11:00 - 23:00, Monday 11:00 - 23:00, Monday 11:00 - 23:00, Monday 11:00 - 23:00, Monday 11:00 - 23:00, Monday 11:00 - 23:00",,,0
Ruby Tuesday of Lincoln Plaza,,537 LINCOLN STREET,,,MA,01605,United States,5088549916,,,"Monday 11:00 - 23:00, Monday 11:00 - 23:00, Monday 11:00 - 23:00, Monday 11:00 - 23:00, Monday 11:00 - 23:00, Monday 11:00 - 23:00, Monday 11:00 - 23:00, Monday 11:00 - 23:00",,,0
Ruby Tuesday of Clinton Crossing,,8881 BRANCH AVENUE,,,MD,20735,United States,3018778009,,,"Monday 11:00 - 23:00, Monday 11:00 - 23:00, Monday 11:00 - 23:00, Monday 11:00 - 23:00, Monday 11:00 - 23:00, Monday 11:00 - 23:00, Monday 11:00 - 23:00, Monday 11:00 - 23:00",,,0
Ruby Tuesday of Attleboro,,287 WASHINGTON STREET,,,MA,02703,United States,5087616620,,,"Monday 11:00 - 22:00, Monday 11:00 - 22:00, Monday 11:00 - 22:00, Monday 11:00 - 22:00, Monday 11:00 - 22:00, Monday 11:00 - 22:00, Monday 11:00 - 22:00, Monday 11:00 - 22:00",,,0
Ruby Tuesday of Swansea,,262 SWANSEA MALL DR STE 770,,,MA,02777,United States,5086783343,,,"Monday 11:00 - 22:00, Monday 11:00 - 22:00, Monday 11:00 - 22:00, Monday 11:00 - 22:00, Monday 11:00 - 22:00, Monday 11:00 - 22:00, Monday 11:00 - 22:00, Monday 11:00 - 22:00",,,0
Ruby Tuesday of Rosslyn,,"1300 WILSON BLVD, SUITE 140",,,VA,22209,United States,7035261956,,,"Monday 11:00 - 23:00, Monday 11:00 - 23:00, Monday 11:00 - 23:00, Monday 11:00 - 23:00, Monday 11:00 - 23:00, Monday 11:00 - 23:00, Monday 11:00 - 23:00, Monday 11:00 - 23:00",,,0
Ruby Tuesday of Baileys Cross Roads,,5880 LEESBURG PIKE,,,VA,22041,United States,7038206602,,,"Monday 11:00 - 23:00, Monday 11:00 - 23:00, Monday 11:00 - 23:00, Monday 11:00 - 23:00, Monday 11:00 - 23:00, Monday 11:00 - 23:00, Monday 11:00 - 23:00, Monday 11:00 - 23:00",,,0
Ruby Tuesday of Wrentham,,"1 PREMIUM OUTLETS BLVD, SUITE #800",,,MA,02093,United States,5083845213,,,"Monday 11:00 - 22:00, Monday 11:00 - 22:00, Monday 11:00 - 22:00, Monday 11:00 - 22:00, Monday 11:00 - 22:00, Monday 11:00 - 22:00, Monday 11:00 - 22:00, Monday 11:00 - 22:00",,,0
Ruby Tuesday of South Alexandria,,7692 RICHMOND HIGHWAY,,,VA,22306,United States,7037657020,,,"Monday 11:00 - 23:00, Monday 11:00 - 23:00, Monday 11:00 - 23:00, Monday 11:00 - 23:00, Monday 11:00 - 23:00, Monday 11:00 - 23:00, Monday 11:00 - 23:00, Monday 11:00 - 23:00",,,0
Ruby Tuesday of Kingstowne,,6601 SOUTH VAN DORN ST,,,VA,22315,United States,7039215006,,,"Monday 11:00 - 23:00, Monday 11:00 - 23:00, Monday 11:00 - 23:00, Monday 11:00 - 23:00, Monday 11:00 - 23:00, Monday 11:00 - 23:00, Monday 11:00 - 23:00, Monday 11:00 - 23:00",,,0
Ruby Tuesday of Hagerstown,,1645 WESEL BOULEVARD,,,MD,21740,United States,3017453114,,,"Monday 11:00 - 22:00, Monday 11:00 - 22:00, Monday 11:00 - 22:00, Monday 11:00 - 22:00, Monday 11:00 - 22:00, Monday 11:00 - 22:00, Monday 11:00 - 22:00, Monday 11:00 - 22:00",,,0
Ruby Tuesday of California,,45138 FIRST COLONY WAY,,,MD,20619,United States,2407250806,,,"Monday 11:00 - 22:00, Monday 11:00 - 22:00, Monday 11:00 - 22:00, Monday 11:00 - 22:00, Monday 11:00 - 22:00, Monday 11:00 - 22:00, Monday 11:00 - 22:00, Monday 11:00 - 22:00",,,0
Ruby Tuesday of Northwoods Crossing,,2097 BAY STREET,,,MA,02780,United States,5088806652,,,"Monday 11:00 - 22:00, Monday 11:00 - 22:00, Monday 11:00 - 22:00, Monday 11:00 - 22:00, Monday 11:00 - 22:00, Monday 11:00 - 22:00, Monday 11:00 - 22:00, Monday 11:00 - 22:00",,,0
Ruby Tuesday of Leesburg,,"1003 EDWARDS FERRY ROAD, N.E.",,,VA,20176,United States,7037714008,,,"Monday 11:00 - 22:00, Monday 11:00 - 22:00, Monday 11:00 - 22:00, Monday 11:00 - 22:00, Monday 11:00 - 22:00, Monday 11:00 - 22:00, Monday 11:00 - 22:00, Monday 11:00 - 22:00",,,0
Ruby Tuesday of Carrier Circle,,6405 YORKTOWN CIRCLE,,,NY,13057,United States,3154140450,,,"Monday 11:00 - 23:00, Monday 11:00 - 23:00, Monday 11:00 - 23:00, Monday 11:00 - 23:00, Monday 11:00 - 23:00, Monday 11:00 - 23:00, Monday 11:00 - 23:00, Monday 11:00 - 23:00",,,0
Ruby Tuesday of South Riding,,25036 RIDING PLAZA,,,VA,20152,United States,7033272982,,,"Monday 11:00 - 22:00, Monday 11:00 - 22:00, Monday 11:00 - 22:00, Monday 11:00 - 22:00, Monday 11:00 - 22:00, Monday 11:00 - 22:00, Monday 11:00 - 22:00, Monday 11:00 - 22:00",,,0
Ruby Tuesday of Charles Town,,701 WILLOW SPRING DRIVE,,,WV,25414,United States,3047286680,,,"Monday 11:00 - 22:00, Monday 11:00 - 22:00, Monday 11:00 - 22:00, Monday 11:00 - 22:00, Monday 11:00 - 22:00, Monday 11:00 - 22:00, Monday 11:00 - 22:00, Monday 11:00 - 22:00",,,0
Ruby Tuesday of Prince William Pkwy,,12721 MARBLESTONE DRIVE,,,VA,22192,United States,7035807229,,,"Monday 11:00 - 23:00, Monday 11:00 - 23:00, Monday 11:00 - 23:00, Monday 11:00 - 23:00, Monday 11:00 - 23:00, Monday 11:00 - 23:00, Monday 11:00 - 23:00, Monday 11:00 - 23:00",,,0
Ruby Tuesday of Signal Hill,,9504 LIBERIA AVENUE,,,VA,20110,United States,7032570501,,,"Monday 11:00 - 22:00, Monday 11:00 - 22:00, Monday 11:00 - 22:00, Monday 11:00 - 22:00, Monday 11:00 - 22:00, Monday 11:00 - 22:00, Monday 11:00 - 22:00, Monday 11:00 - 22:00",,,0
Ruby Tuesday of Martinsburg,,960 FOXCROFT AVE.,,,WV,25401,United States,3042649340,,,"Monday 11:00 - 22:00, Monday 11:00 - 22:00, Monday 11:00 - 22:00, Monday 11:00 - 22:00, Monday 11:00 - 22:00, Monday 11:00 - 22:00, Monday 11:00 - 22:00, Monday 11:00 - 22:00",,,0
Ruby Tuesday of Dumfries,,17050 JEFFERSON DAVIS HWY,,,VA,22026,United States,7034419202,,,"Monday 11:00 - 22:00, Monday 11:00 - 22:00, Monday 11:00 - 22:00, Monday 11:00 - 22:00, Monday 11:00 - 22:00, Monday 11:00 - 22:00, Monday 11:00 - 22:00, Monday 11:00 - 22:00",,,0
Ruby Tuesday of Nashua,,275 AMHERST ST.,,,NH,03063,United States,6038820099,,,"Monday 11:00 - 22:00, Monday 11:00 - 22:00, Monday 11:00 - 22:00, Monday 11:00 - 22:00, Monday 11:00 - 22:00, Monday 11:00 - 22:00, Monday 11:00 - 22:00, Monday 11:00 - 22:00",,,0
Ruby Tuesday of Aquia,,2844 JEFFERSON DAVIS HIGHWAY,,,VA,22554,United States,5406596911,,,"Monday 11:00 - 22:00, Monday 11:00 - 22:00, Monday 11:00 - 22:00, Monday 11:00 - 22:00, Monday 11:00 - 22:00, Monday 11:00 - 22:00, Monday 11:00 - 22:00, Monday 11:00 - 22:00",,,0
Ruby Tuesday of Warrenton,,74 BLACKWELL PARC LANE,,,VA,20186,United States,5403414912,,,"Monday 11:00 - 22:00, Monday 11:00 - 22:00, Monday 11:00 - 22:00, Monday 11:00 - 22:00, Monday 11:00 - 22:00, Monday 11:00 - 22:00, Monday 11:00 - 22:00, Monday 11:00 - 22:00",,,0
Ruby Tuesday of Winchester,,1685 SOUTH PLEASANT VALLEY ROAD,,,VA,22601,United States,5406623236,,,"Monday 11:00 - 22:00, Monday 11:00 - 22:00, Monday 11:00 - 22:00, Monday 11:00 - 22:00, Monday 11:00 - 22:00, Monday 11:00 - 22:00, Monday 11:00 - 22:00, Monday 11:00 - 22:00",,,0
Ruby Tuesday of Central Park,,2951 PLANK ROAD,,,VA,22401,United States,5407854400,,,"Monday 11:00 - 22:00, Monday 11:00 - 22:00, Monday 11:00 - 22:00, Monday 11:00 - 22:00, Monday 11:00 - 22:00, Monday 11:00 - 22:00, Monday 11:00 - 22:00, Monday 11:00 - 22:00",,,0
Ruby Tuesday of South Fredericksburg,,4714 MINE ROAD,,,VA,22408,United States,5407100588,,,"Monday 11:00 - 22:00, Monday 11:00 - 22:00, Monday 11:00 - 22:00, Monday 11:00 - 22:00, Monday 11:00 - 22:00, Monday 11:00 - 22:00, Monday 11:00 - 22:00, Monday 11:00 - 22:00",,,0
Ruby Tuesday of Oswego,,146 E. THIRTEENTH STREET,,,NY,13126,United States,3153431234,,,"Monday 11:00 - 22:00, Monday 11:00 - 22:00, Monday 11:00 - 22:00, Monday 11:00 - 22:00, Monday 11:00 - 22:00, Monday 11:00 - 22:00, Monday 11:00 - 22:00, Monday 11:00 - 22:00",,,0
Ruby Tuesday of Dubois,,690 SHAFFER ROAD & ROUTE 255,,,PA,15801,United States,8143724990,,,"Monday 11:00 - 22:00, Monday 11:00 - 22:00, Monday 11:00 - 22:00, Monday 11:00 - 22:00, Monday 11:00 - 22:00, Monday 11:00 - 22:00, Monday 11:00 - 22:00, Monday 11:00 - 22:00",,,0
Ruby Tuesday of Concord,,327 LOUDON ROAD,,,NH,03301,United States,6032232505,,,"Monday 11:00 - 22:00, Monday 11:00 - 22:00, Monday 11:00 - 22:00, Monday 11:00 - 22:00, Monday 11:00 - 22:00, Monday 11:00 - 22:00, Monday 11:00 - 22:00, Monday 11:00 - 22:00",,,0
Ruby Tuesday of Culpeper,,755 JAMES MADISON HIGHWAY,,,VA,22701,United States,5408291061,,,"Monday 11:00 - 22:00, Monday 11:00 - 22:00, Monday 11:00 - 22:00, Monday 11:00 - 22:00, Monday 11:00 - 22:00, Monday 11:00 - 22:00, Monday 11:00 - 22:00, Monday 11:00 - 22:00",,,0
Ruby Tuesday of Gloucester,,6749 FOX CENTER PARKWAY,,,VA,23061,United States,8046944955,,,"Monday 11:00 - 22:00, Monday 11:00 - 22:00, Monday 11:00 - 22:00, Monday 11:00 - 22:00, Monday 11:00 - 22:00, Monday 11:00 - 22:00, Monday 11:00 - 22:00, Monday 11:00 - 22:00",,,0
Ruby Tuesday of LaVale,,1238 NATIONAL HIGHWAY RT. 40,,,MD,21502,United States,3017298738,,,"Monday 11:00 - 22:00, Monday 11:00 - 22:00, Monday 11:00 - 22:00, Monday 11:00 - 22:00, Monday 11:00 - 22:00, Monday 11:00 - 22:00, Monday 11:00 - 22:00, Monday 11:00 - 22:00",,,0
Ruby Tuesday of Somerset,,1019 NORTH CENTER AVENUE,,,PA,15501,United States,8144453934,,,"Monday 11:00 - 22:00, Monday 11:00 - 22:00, Monday 11:00 - 22:00, Monday 11:00 - 22:00, Monday 11:00 - 22:00, Monday 11:00 - 22:00, Monday 11:00 - 22:00, Monday 11:00 - 22:00",,,0
Ruby Tuesday of Watertown,,1290 ARSENAL STREET,,,NY,13601,United States,3157862089,,,"Monday 11:00 - 22:00, Monday 11:00 - 22:00, Monday 11:00 - 22:00, Monday 11:00 - 22:00, Monday 11:00 - 22:00, Monday 11:00 - 22:00, Monday 11:00 - 22:00, Monday 11:00 - 22:00",,,0
Ruby Tuesday of Durgin Square,,1574 WOODBURY AVE,,,NH,03801,United States,6035599740,,,"Monday 11:00 - 22:00, Monday 11:00 - 22:00, Monday 11:00 - 22:00, Monday 11:00 - 22:00, Monday 11:00 - 22:00, Monday 11:00 - 22:00, Monday 11:00 - 22:00, Monday 11:00 - 22:00",,,0
Ruby Tuesday of Greece,,2525 WEST RIDGE ROAD,,,NY,14626,United States,5852254750,,,"Monday 11:00 - 22:00, Monday 11:00 - 22:00, Monday 11:00 - 22:00, Monday 11:00 - 22:00, Monday 11:00 - 22:00, Monday 11:00 - 22:00, Monday 11:00 - 22:00, Monday 11:00 - 22:00",,,0
Ruby Tuesday of Indiana,,1414 INDIAN SPRINGS RD.,,,PA,15701,United States,7244657853,,,"Monday 11:00 - 22:00, Monday 11:00 - 22:00, Monday 11:00 - 22:00, Monday 11:00 - 22:00, Monday 11:00 - 22:00, Monday 11:00 - 22:00, Monday 11:00 - 22:00, Monday 11:00 - 22:00",,,0
Ruby Tuesday of Mechanicsville,,7425 BELL CREEK ROAD,,,VA,23111,United States,8045593050,,,"Monday 11:00 - 22:00, Monday 11:00 - 22:00, Monday 11:00 - 22:00, Monday 11:00 - 22:00, Monday 11:00 - 22:00, Monday 11:00 - 22:00, Monday 11:00 - 22:00, Monday 11:00 - 22:00",,,0
Ruby Tuesday of Monticello Marketplace,,4700 MONTICELLO AVE,,,VA,23188,United States,7575646222,,,"Monday 11:00 - 22:00, Monday 11:00 - 22:00, Monday 11:00 - 22:00, Monday 11:00 - 22:00, Monday 11:00 - 22:00, Monday 11:00 - 22:00, Monday 11:00 - 22:00, Monday 11:00 - 22:00",,,0
Ruby Tuesday of Kiln Creek,,3150 KILN CREEK PARKWAY,,,VA,23693,United States,7578776310,,,"Monday 11:00 - 22:00, Monday 11:00 - 22:00, Monday 11:00 - 22:00, Monday 11:00 - 22:00, Monday 11:00 - 22:00, Monday 11:00 - 22:00, Monday 11:00 - 22:00, Monday 11:00 - 22:00",,,0
Ruby Tuesday of Gaskins Road,,9830 WEST BROAD STREET,,,VA,23060,United States,8043460082,,,"Monday 11:00 - 22:00, Monday 11:00 - 22:00, Monday 11:00 - 22:00, Monday 11:00 - 22:00, Monday 11:00 - 22:00, Monday 11:00 - 22:00, Monday 11:00 - 22:00, Monday 11:00 - 22:00",,,0
Ruby Tuesday of Hampton,,60 TOWNE CENTRE PARKWAY,,,VA,23666,United States,7578250825,,,"Monday 11:00 - 23:00, Monday 11:00 - 23:00, Monday 11:00 - 23:00, Monday 11:00 - 23:00, Monday 11:00 - 23:00, Monday 11:00 - 23:00, Monday 11:00 - 23:00, Monday 11:00 - 23:00",,,0
Ruby Tuesday of Broad Street,,5310 WEST BROAD ST.,,,VA,23230,United States,8042828405,,,"Monday 11:00 - 22:00, Monday 11:00 - 22:00, Monday 11:00 - 22:00, Monday 11:00 - 22:00, Monday 11:00 - 22:00, Monday 11:00 - 22:00, Monday 11:00 - 22:00, Monday 11:00 - 22:00",,,0
Ruby Tuesday of Tidewater,,7725 TIDEWATER DR,,,VA,23505,United States,7574803283,,,"Monday 11:00 - 22:00, Monday 11:00 - 22:00, Monday 11:00 - 22:00, Monday 11:00 - 22:00, Monday 11:00 - 22:00, Monday 11:00 - 22:00, Monday 11:00 - 22:00, Monday 11:00 - 22:00",,,0
Ruby Tuesday of Hampton Blvd,,8305 HAMPTON BLVD.,,,VA,23505,United States,7574402980,,,"Monday 11:00 - 22:00, Monday 11:00 - 22:00, Monday 11:00 - 22:00, Monday 11:00 - 22:00, Monday 11:00 - 22:00, Monday 11:00 - 22:00, Monday 11:00 - 22:00, Monday 11:00 - 22:00",,,0
Ruby Tuesday of Virginia Beach,,4488 VIRGINIA BEACH BOULEVARD,,,VA,23462,United States,7574903930,,,"Monday 11:00 - 22:00, Monday 11:00 - 22:00, Monday 11:00 - 22:00, Monday 11:00 - 22:00, Monday 11:00 - 22:00, Monday 11:00 - 22:00, Monday 11:00 - 22:00, Monday 11:00 - 22:00",,,0
Ruby Tuesday of Broad Creek,,1201 MILITARY HWY,,,VA,23502,United States,7574615116,,,"Monday 11:00 - 23:00, Monday 11:00 - 23:00, Monday 11:00 - 23:00, Monday 11:00 - 23:00, Monday 11:00 - 23:00, Monday 11:00 - 23:00, Monday 11:00 - 23:00, Monday 11:00 - 23:00",,,0
Ruby Tuesday of Chesterfield Marketplace,,1101 CARMIA WAY,,,VA,23235,United States,8048979281,,,"Monday 11:00 - 22:00, Monday 11:00 - 22:00, Monday 11:00 - 22:00, Monday 11:00 - 22:00, Monday 11:00 - 22:00, Monday 11:00 - 22:00, Monday 11:00 - 22:00, Monday 11:00 - 22:00",,,0
Ruby Tuesday of Princess Anne,,2080 SOUTH INDEPENDENCE BLVD,,,VA,23456,United States,7574163500,,,"Monday 11:00 - 22:00, Monday 11:00 - 22:00, Monday 11:00 - 22:00, Monday 11:00 - 22:00, Monday 11:00 - 22:00, Monday 11:00 - 22:00, Monday 11:00 - 22:00, Monday 11:00 - 22:00",,,0
Ruby Tuesday of Harbour View,,6249 COLLEGE DRIVE,,,VA,23435,United States,7576384755,,,"Monday 11:00 - 22:00, Monday 11:00 - 22:00, Monday 11:00 - 22:00, Monday 11:00 - 22:00, Monday 11:00 - 22:00, Monday 11:00 - 22:00, Monday 11:00 - 22:00, Monday 11:00 - 22:00",,,0
Ruby Tuesday of Hull Street,,10419 HULL STREET ROAD,,,VA,23112,United States,8046748916,,,"Monday 11:00 - 22:00, Monday 11:00 - 22:00, Monday 11:00 - 22:00, Monday 11:00 - 22:00, Monday 11:00 - 22:00, Monday 11:00 - 22:00, Monday 11:00 - 22:00, Monday 11:00 - 22:00",,,0
Ruby Tuesday of Hopewell,,5107 OAKLAWN BLVD.,,,VA,23860,United States,8044523713,,,"Monday 11:00 - 22:00, Monday 11:00 - 22:00, Monday 11:00 - 22:00, Monday 11:00 - 22:00, Monday 11:00 - 22:00, Monday 11:00 - 22:00, Monday 11:00 - 22:00, Monday 11:00 - 22:00",,,0
Ruby Tuesday of Greenbrier,,"1412 GREENBRIER PARKWAY, #130",,,VA,23320,United States,7573660739,,,"Monday 11:00 - 22:00, Monday 11:00 - 22:00, Monday 11:00 - 22:00, Monday 11:00 - 22:00, Monday 11:00 - 22:00, Monday 11:00 - 22:00, Monday 11:00 - 22:00, Monday 11:00 - 22:00",,,0
Ruby Tuesday of Portsmouth,,4066 VICTORY BLVD,,,VA,23701,United States,7574887747,,,"Monday 11:00 - 23:00, Monday 11:00 - 23:00, Monday 11:00 - 23:00, Monday 11:00 - 23:00, Monday 11:00 - 23:00, Monday 11:00 - 23:00, Monday 11:00 - 23:00, Monday 11:00 - 23:00",,,0
Ruby Tuesday of Southpark,,431 SOUTH PARK CIRCLE,,,VA,23834,United States,8045242240,,,"Monday 11:00 - 22:00, Monday 11:00 - 22:00, Monday 11:00 - 22:00, Monday 11:00 - 22:00, Monday 11:00 - 22:00, Monday 11:00 - 22:00, Monday 11:00 - 22:00, Monday 11:00 - 22:00",,,0
Ruby Tuesday of Harrisonburg Crossing,,111 BURGESS ROAD,,,VA,22801,United States,5405649601,,,"Monday 11:00 - 22:00, Monday 11:00 - 22:00, Monday 11:00 - 22:00, Monday 11:00 - 22:00, Monday 11:00 - 22:00, Monday 11:00 - 22:00, Monday 11:00 - 22:00, Monday 11:00 - 22:00",,,0
Ruby Tuesday of Hamburg,,3454 MCKINLEY PARKWAY,,,NY,14219,United States,7168253280,,,"Monday 11:00 - 22:00, Monday 11:00 - 22:00, Monday 11:00 - 22:00, Monday 11:00 - 22:00, Monday 11:00 - 22:00, Monday 11:00 - 22:00, Monday 11:00 - 22:00, Monday 11:00 - 22:00",,,0
Ruby Tuesday of Lakewood,,300 EAST FAIRMOUNT AVE,,,NY,14750,United States,7167631340,,,"Monday 11:00 - 22:00, Monday 11:00 - 22:00, Monday 11:00 - 22:00, Monday 11:00 - 22:00, Monday 11:00 - 22:00, Monday 11:00 - 22:00, Monday 11:00 - 22:00, Monday 11:00 - 22:00",,,0
Ruby Tuesday of Walden,,1669 WALDEN AVENUE,,,NY,14225,United States,7168972523,,,"Monday 11:00 - 22:00, Monday 11:00 - 22:00, Monday 11:00 - 22:00, Monday 11:00 - 22:00, Monday 11:00 - 22:00, Monday 11:00 - 22:00, Monday 11:00 - 22:00, Monday 11:00 - 22:00",,,0
Ruby Tuesday of Centerbrooke Village,,2757 GODWIN BLVD.,,,VA,23434,United States,7579232860,,,"Monday 11:00 - 22:00, Monday 11:00 - 22:00, Monday 11:00 - 22:00, Monday 11:00 - 22:00, Monday 11:00 - 22:00, Monday 11:00 - 22:00, Monday 11:00 - 22:00, Monday 11:00 - 22:00",,,0
Ruby Tuesday of Uniontown,,101 MATTHEW DRIVE,,,PA,15401,United States,7244395385,,,"Monday 11:00 - 22:00, Monday 11:00 - 22:00, Monday 11:00 - 22:00, Monday 11:00 - 22:00, Monday 11:00 - 22:00, Monday 11:00 - 22:00, Monday 11:00 - 22:00, Monday 11:00 - 22:00",,,0
Ruby Tuesday of Waynesboro,,1941 ROSSER AVE,,,VA,22980,United States,5409431610,,,"Monday 11:00 - 22:00, Monday 11:00 - 22:00, Monday 11:00 - 22:00, Monday 11:00 - 22:00, Monday 11:00 - 22:00, Monday 11:00 - 22:00, Monday 11:00 - 22:00, Monday 11:00 - 22:00",,,0
Ruby Tuesday of Westbrook,,11 MAIN ST. SUITE 14,,,ME,04092,United States,2078542974,,,"Monday 11:00 - 22:00, Monday 11:00 - 22:00, Monday 11:00 - 22:00, Monday 11:00 - 22:00, Monday 11:00 - 22:00, Monday 11:00 - 22:00, Monday 11:00 - 22:00, Monday 11:00 - 22:00",,,0
Ruby Tuesday of Morgantown,,512 VENTURE DRIVE,,,WV,26508,United States,3042926633,,,"Monday 11:00 - 22:00, Monday 11:00 - 22:00, Monday 11:00 - 22:00, Monday 11:00 - 22:00, Monday 11:00 - 22:00, Monday 11:00 - 22:00, Monday 11:00 - 22:00, Monday 11:00 - 22:00",,,0
Ruby Tuesday of Elizabeth City,,503 HUGHES BLVD.,,,NC,27909,United States,2523311521,,,"Monday 11:00 - 23:00, Monday 11:00 - 23:00, Monday 11:00 - 23:00, Monday 11:00 - 23:00, Monday 11:00 - 23:00, Monday 11:00 - 23:00, Monday 11:00 - 23:00, Monday 11:00 - 23:00",,,0
Ruby Tuesday of Farmville,,1807 S MAIN STREET,,,VA,23901,United States,4343913475,,,"Monday 11:00 - 22:00, Monday 11:00 - 22:00, Monday 11:00 - 22:00, Monday 11:00 - 22:00, Monday 11:00 - 22:00, Monday 11:00 - 22:00, Monday 11:00 - 22:00, Monday 11:00 - 22:00",,,0
Ruby Tuesday of Erie,,700 MILLCREEK MALL,,,PA,16565,United States,8148667744,,,"Monday 11:00 - 22:00, Monday 11:00 - 22:00, Monday 11:00 - 22:00, Monday 11:00 - 22:00, Monday 11:00 - 22:00, Monday 11:00 - 22:00, Monday 11:00 - 22:00, Monday 11:00 - 22:00",,,0
Ruby Tuesday of New Castle,,2543 W. STATE STREET,,,PA,16101,United States,7246541236,,,"Monday 11:00 - 22:00, Monday 11:00 - 22:00, Monday 11:00 - 22:00, Monday 11:00 - 22:00, Monday 11:00 - 22:00, Monday 11:00 - 22:00, Monday 11:00 - 22:00, Monday 11:00 - 22:00",,,0
Ruby Tuesday of Topsham,,55 TOPSHAM FAIR MALL ROAD,,,ME,04086,United States,2077210145,,,"Monday 11:00 - 22:00, Monday 11:00 - 22:00, Monday 11:00 - 22:00, Monday 11:00 - 22:00, Monday 11:00 - 22:00, Monday 11:00 - 22:00, Monday 11:00 - 22:00, Monday 11:00 - 22:00",,,0
Ruby Tuesday of Auburn,,"649 TURNER STREET, SUITE 1A",,,ME,04210,United States,2077530518,,,"Monday 11:00 - 22:00, Monday 11:00 - 22:00, Monday 11:00 - 22:00, Monday 11:00 - 22:00, Monday 11:00 - 22:00, Monday 11:00 - 22:00, Monday 11:00 - 22:00, Monday 11:00 - 22:00",,,0
Ruby Tuesday of Clarksburg,,509 EMILY DRIVE,,,WV,26301,United States,3046231880,,,"Monday 11:00 - 22:00, Monday 11:00 - 22:00, Monday 11:00 - 22:00, Monday 11:00 - 22:00, Monday 11:00 - 22:00, Monday 11:00 - 22:00, Monday 11:00 - 22:00, Monday 11:00 - 22:00",,,0
Ruby Tuesday of Lexington,,1120 NORTH LEE HIGHWAY,,,VA,24450,United States,5404632094,,,"Monday 11:00 - 23:00, Monday 11:00 - 23:00, Monday 11:00 - 23:00, Monday 11:00 - 23:00, Monday 11:00 - 23:00, Monday 11:00 - 23:00, Monday 11:00 - 23:00, Monday 11:00 - 23:00",,,0
Ruby Tuesday of Roanoke Rapids,,1812 JULIAN ALLSBROOK HWY,,,NC,27870,United States,2525351853,,,"Monday 11:00 - 23:00, Monday 11:00 - 23:00, Monday 11:00 - 23:00, Monday 11:00 - 23:00, Monday 11:00 - 23:00, Monday 11:00 - 23:00, Monday 11:00 - 23:00, Monday 11:00 - 23:00",,,0
Ruby Tuesday of Canfield,,4525 BOARDMAN-CANFIELD RD.,,,OH,44406,United States,3305337530,,,"Monday 11:00 - 22:00, Monday 11:00 - 22:00, Monday 11:00 - 22:00, Monday 11:00 - 22:00, Monday 11:00 - 22:00, Monday 11:00 - 22:00, Monday 11:00 - 22:00, Monday 11:00 - 22:00",,,0
Ruby Tuesday of Austintown,,5555 MAHONING AVE,,,OH,44515,United States,3307793640,,,"Monday 11:00 - 22:00, Monday 11:00 - 22:00, Monday 11:00 - 22:00, Monday 11:00 - 22:00, Monday 11:00 - 22:00, Monday 11:00 - 22:00, Monday 11:00 - 22:00, Monday 11:00 - 22:00",,,0
Ruby Tuesday of Augusta,,58 STEPHEN KING DRIVE,,,ME,04330,United States,2076238710,,,"Monday 11:00 - 22:00, Monday 11:00 - 22:00, Monday 11:00 - 22:00, Monday 11:00 - 22:00, Monday 11:00 - 22:00, Monday 11:00 - 22:00, Monday 11:00 - 22:00, Monday 11:00 - 22:00",,,0
Ruby Tuesday of Bedford,,1355 BOXWOOD TERRACE,,,VA,24523,United States,5405875770,,,"Monday 11:00 - 22:00, Monday 11:00 - 22:00, Monday 11:00 - 22:00, Monday 11:00 - 22:00, Monday 11:00 - 22:00, Monday 11:00 - 22:00, Monday 11:00 - 22:00, Monday 11:00 - 22:00",,,0
Ruby Tuesday of Henderson,,101 EXCHANGE STREET,,,NC,27536,United States,2524926243,,,"Monday 11:00 - 23:00, Monday 11:00 - 23:00, Monday 11:00 - 23:00, Monday 11:00 - 23:00, Monday 11:00 - 23:00, Monday 11:00 - 23:00, Monday 11:00 - 23:00, Monday 11:00 - 23:00",,,0
Ruby Tuesday of Rocky Mount,,1457 BENVENUE RD,,,NC,27803,United States,2522121570,,,"Monday 11:00 - 22:00, Monday 11:00 - 22:00, Monday 11:00 - 22:00, Monday 11:00 - 22:00, Monday 11:00 - 22:00, Monday 11:00 - 22:00, Monday 11:00 - 22:00, Monday 11:00 - 22:00",,,0
Ruby Tuesday of Waterville,,20 WATERVILLE COMMONS DRIVE,,,ME,04901,United States,2078598991,,,"Monday 11:00 - 22:00, Monday 11:00 - 22:00, Monday 11:00 - 22:00, Monday 11:00 - 22:00, Monday 11:00 - 22:00, Monday 11:00 - 22:00, Monday 11:00 - 22:00, Monday 11:00 - 22:00",,,0
Ruby Tuesday of Streetsboro,,9687 STATE ROUTE 14,,,OH,44241,United States,3306265115,,,"Monday 11:00 - 22:00, Monday 11:00 - 22:00, Monday 11:00 - 22:00, Monday 11:00 - 22:00, Monday 11:00 - 22:00, Monday 11:00 - 22:00, Monday 11:00 - 22:00, Monday 11:00 - 22:00",,,0
Ruby Tuesday of Mentor,,9515 DIAMOND CENTRE DRIVE,,,OH,44060,United States,4406399670,,,"Monday 11:00 - 22:00, Monday 11:00 - 22:00, Monday 11:00 - 22:00, Monday 11:00 - 22:00, Monday 11:00 - 22:00, Monday 11:00 - 22:00, Monday 11:00 - 22:00, Monday 11:00 - 22:00",,,0
Ruby Tuesday of North Canton,,5449 DRESSLER ROAD NW,,,OH,44720,United States,3304940232,,,"Monday 11:00 - 22:00, Monday 11:00 - 22:00, Monday 11:00 - 22:00, Monday 11:00 - 22:00, Monday 11:00 - 22:00, Monday 11:00 - 22:00, Monday 11:00 - 22:00, Monday 11:00 - 22:00",,,0
Ruby Tuesday of Bainbridge,,7135 N. AURORA RD,,,OH,44202,United States,3309950401,,,"Monday 11:00 - 22:00, Monday 11:00 - 22:00, Monday 11:00 - 22:00, Monday 11:00 - 22:00, Monday 11:00 - 22:00, Monday 11:00 - 22:00, Monday 11:00 - 22:00, Monday 11:00 - 22:00",,,0
Ruby Tuesday of Lewisburg,,151 COLEMAN DRIVE,,,WV,24901,United States,3046473170,,,"Monday 11:00 - 22:00, Monday 11:00 - 22:00, Monday 11:00 - 22:00, Monday 11:00 - 22:00, Monday 11:00 - 22:00, Monday 11:00 - 22:00, Monday 11:00 - 22:00, Monday 11:00 - 22:00",,,0
Ruby Tuesday of Carolina East Mall,,3510 S MEMORIAL DR,,,NC,27834,United States,2523554060,,,"Monday 11:00 - 22:00, Monday 11:00 - 22:00, Monday 11:00 - 22:00, Monday 11:00 - 22:00, Monday 11:00 - 22:00, Monday 11:00 - 22:00, Monday 11:00 - 22:00, Monday 11:00 - 22:00",,,0
Ruby Tuesday of Cave Springs,,3250 ELECTRIC ROAD,,,VA,24018,United States,5407251833,,,"Monday 11:00 - 22:00, Monday 11:00 - 22:00, Monday 11:00 - 22:00, Monday 11:00 - 22:00, Monday 11:00 - 22:00, Monday 11:00 - 22:00, Monday 11:00 - 22:00, Monday 11:00 - 22:00",,,0
Ruby Tuesday of Wilson,,"2935 RALEIGH ROAD, WEST",,,NC,27896,United States,2522914203,,,"Monday 11:00 - 22:00, Monday 11:00 - 22:00, Monday 11:00 - 22:00, Monday 11:00 - 22:00, Monday 11:00 - 22:00, Monday 11:00 - 22:00, Monday 11:00 - 22:00, Monday 11:00 - 22:00",,,0
Ruby Tuesday of Cambridge,,2250 SOUTHGATE PARKWAY,,,OH,43725,United States,7404397585,,,"Monday 11:00 - 22:00, Monday 11:00 - 22:00, Monday 11:00 - 22:00, Monday 11:00 - 22:00, Monday 11:00 - 22:00, Monday 11:00 - 22:00, Monday 11:00 - 22:00, Monday 11:00 - 22:00",,,0
Ruby Tuesday of Seven Hills,,7331 BROADVIEW ROAD,,,OH,44131,United States,2164471662,,,"Monday 11:00 - 22:00, Monday 11:00 - 22:00, Monday 11:00 - 22:00, Monday 11:00 - 22:00, Monday 11:00 - 22:00, Monday 11:00 - 22:00, Monday 11:00 - 22:00, Monday 11:00 - 22:00",,,0
Ruby Tuesday of Parkersburg,,403 GRAND CENTRAL AVE,,,WV,26105,United States,3044227003,,,"Monday 11:00 - 22:00, Monday 11:00 - 22:00, Monday 11:00 - 22:00, Monday 11:00 - 22:00, Monday 11:00 - 22:00, Monday 11:00 - 22:00, Monday 11:00 - 22:00, Monday 11:00 - 22:00",,,0
Ruby Tuesday of Capital Blvd.,,6201 CAPITAL BLVD.,,,NC,27616,United States,9198769900,,,"Monday 11:00 - 22:00, Monday 11:00 - 22:00, Monday 11:00 - 22:00, Monday 11:00 - 22:00, Monday 11:00 - 22:00, Monday 11:00 - 22:00, Monday 11:00 - 22:00, Monday 11:00 - 22:00",,,0
Ruby Tuesday of Medina,,1001 NORTH COURT ST.,,,OH,44256,United States,3307236206,,,"Monday 11:00 - 22:00, Monday 11:00 - 22:00, Monday 11:00 - 22:00, Monday 11:00 - 22:00, Monday 11:00 - 22:00, Monday 11:00 - 22:00, Monday 11:00 - 22:00, Monday 11:00 - 22:00",,,0
Ruby Tuesday of Durham,,1058 WEST CLUB BLVD.,,,NC,27701,United States,9192865100,,,"Monday 11:00 - 22:00, Monday 11:00 - 22:00, Monday 11:00 - 22:00, Monday 11:00 - 22:00, Monday 11:00 - 22:00, Monday 11:00 - 22:00, Monday 11:00 - 22:00, Monday 11:00 - 22:00",,,0
Ruby Tuesday of New Hope Commons,,4411 NEW BERN AVENUE,,,NC,27610,United States,9192551801,,,"Monday 11:00 - 22:00, Monday 11:00 - 22:00, Monday 11:00 - 22:00, Monday 11:00 - 22:00, Monday 11:00 - 22:00, Monday 11:00 - 22:00, Monday 11:00 - 22:00, Monday 11:00 - 22:00",,,0
Ruby Tuesday of Christiansburg,,2380 ROANOKE STREET,,,VA,24073,United States,5403829474,,,"Monday 11:00 - 22:00, Monday 11:00 - 22:00, Monday 11:00 - 22:00, Monday 11:00 - 22:00, Monday 11:00 - 22:00, Monday 11:00 - 22:00, Monday 11:00 - 22:00, Monday 11:00 - 22:00",,,0
Ruby Tuesday of North Olmsted,,26774 LORAIN ROAD,,,OH,44070,United States,4407169499,,,"Monday 11:00 - 22:00, Monday 11:00 - 22:00, Monday 11:00 - 22:00, Monday 11:00 - 22:00, Monday 11:00 - 22:00, Monday 11:00 - 22:00, Monday 11:00 - 22:00, Monday 11:00 - 22:00",,,0
Ruby Tuesday of New Bern,,1004 HIGHWAY 70 EAST,,,NC,28560,United States,2526388004,,,"Monday 11:00 - 22:00, Monday 11:00 - 22:00, Monday 11:00 - 22:00, Monday 11:00 - 22:00, Monday 11:00 - 22:00, Monday 11:00 - 22:00, Monday 11:00 - 22:00, Monday 11:00 - 22:00",,,0
Ruby Tuesday of Eden,,706 SOUTH VAN BUREN,,,NC,27288,United States,3366237920,,,"Monday 11:00 - 22:00, Monday 11:00 - 22:00, Monday 11:00 - 22:00, Monday 11:00 - 22:00, Monday 11:00 - 22:00, Monday 11:00 - 22:00, Monday 11:00 - 22:00, Monday 11:00 - 22:00",,,0
Ruby Tuesday of Durham Hwy 54,,210 NC HIGHWAY 54,,,NC,27713,United States,9194054118,,,"Monday 11:00 - 23:00, Monday 11:00 - 23:00, Monday 11:00 - 23:00, Monday 11:00 - 23:00, Monday 11:00 - 23:00, Monday 11:00 - 23:00, Monday 11:00 - 23:00, Monday 11:00 - 23:00",,,0
Ruby Tuesday of Goldsboro,,2609 NORTH PARK DRIVE,,,NC,27534,United States,9197513751,,,"Monday 11:00 - 22:00, Monday 11:00 - 22:00, Monday 11:00 - 22:00, Monday 11:00 - 22:00, Monday 11:00 - 22:00, Monday 11:00 - 22:00, Monday 11:00 - 22:00, Monday 11:00 - 22:00",,,0
Ruby Tuesday of Kinston,,3725 WEST VERNON AVENUE,,,NC,28504,United States,2525234067,,,"Monday 11:00 - 22:00, Monday 11:00 - 22:00, Monday 11:00 - 22:00, Monday 11:00 - 22:00, Monday 11:00 - 22:00, Monday 11:00 - 22:00, Monday 11:00 - 22:00, Monday 11:00 - 22:00",,,0
Ruby Tuesday of Cary,,131 CROSSROADS BLVD.,,,NC,27511,United States,9198549990,,,"Monday 11:00 - 22:00, Monday 11:00 - 22:00, Monday 11:00 - 22:00, Monday 11:00 - 22:00, Monday 11:00 - 22:00, Monday 11:00 - 22:00, Monday 11:00 - 22:00, Monday 11:00 - 22:00",,,0
Ruby Tuesday of Smithfield,,160 SMITHFIELD XING,,,NC,27577,United States,9199383640,,,"Monday 11:00 - 22:00, Monday 11:00 - 22:00, Monday 11:00 - 22:00, Monday 11:00 - 22:00, Monday 11:00 - 22:00, Monday 11:00 - 22:00, Monday 11:00 - 22:00, Monday 11:00 - 22:00",,,0
Ruby Tuesday of Mebane,,103 SPRING FOREST DRIVE,,,NC,27302,United States,9195630703,,,"Monday 11:00 - 23:00, Monday 11:00 - 23:00, Monday 11:00 - 23:00, Monday 11:00 - 23:00, Monday 11:00 - 23:00, Monday 11:00 - 23:00, Monday 11:00 - 23:00, Monday 11:00 - 23:00",,,0
Ruby Tuesday of Clayton,,65 SON LAN PKWY,,,NC,27529,United States,9197723838,,,"Monday 11:00 - 22:00, Monday 11:00 - 22:00, Monday 11:00 - 22:00, Monday 11:00 - 22:00, Monday 11:00 - 22:00, Monday 11:00 - 22:00, Monday 11:00 - 22:00, Monday 11:00 - 22:00",,,0
Ruby Tuesday of Sheffield,,5274 ABBE RD NORTH,,,OH,44035,United States,4409341200,,,"Monday 11:00 - 22:00, Monday 11:00 - 22:00, Monday 11:00 - 22:00, Monday 11:00 - 22:00, Monday 11:00 - 22:00, Monday 11:00 - 22:00, Monday 11:00 - 22:00, Monday 11:00 - 22:00",,,0
Ruby Tuesday of Brewer,,5 WALTON DRIVE,,,ME,04412,United States,2079898953,,,"Monday 11:00 - 22:00, Monday 11:00 - 22:00, Monday 11:00 - 22:00, Monday 11:00 - 22:00, Monday 11:00 - 22:00, Monday 11:00 - 22:00, Monday 11:00 - 22:00, Monday 11:00 - 22:00",,,0
Ruby Tuesday of Beckley,,2082 HARPER ROAD,,,WV,25801,United States,3042540481,,,"Monday 11:00 - 22:00, Monday 11:00 - 22:00, Monday 11:00 - 22:00, Monday 11:00 - 22:00, Monday 11:00 - 22:00, Monday 11:00 - 22:00, Monday 11:00 - 22:00, Monday 11:00 - 22:00",,,0
Ruby Tuesday of Fuquay - Varina,,1260 NORTH MAIN STREET,,,NC,27526,United States,9195570341,,,"Monday 11:00 - 22:00, Monday 11:00 - 22:00, Monday 11:00 - 22:00, Monday 11:00 - 22:00, Monday 11:00 - 22:00, Monday 11:00 - 22:00, Monday 11:00 - 22:00, Monday 11:00 - 22:00",,,0
Ruby Tuesday of Athens,,951 E. STATE STREET,,,OH,45701,United States,7405940695,,,"Monday 11:00 - 22:00, Monday 11:00 - 22:00, Monday 11:00 - 22:00, Monday 11:00 - 22:00, Monday 11:00 - 22:00, Monday 11:00 - 22:00, Monday 11:00 - 22:00, Monday 11:00 - 22:00",,,0
Ruby Tuesday of Mt. Vernon,,1055 COSHOCTON AVENUE,,,OH,43050,United States,7403973113,,,"Monday 11:00 - 22:00, Monday 11:00 - 22:00, Monday 11:00 - 22:00, Monday 11:00 - 22:00, Monday 11:00 - 22:00, Monday 11:00 - 22:00, Monday 11:00 - 22:00, Monday 11:00 - 22:00",,,0
Ruby Tuesday of Jacksonville,,1067 WESTERN BLVD,,,NC,28546,Australia,9103464544,,,"Monday 11:00 - 22:00, Monday 11:00 - 22:00, Monday 11:00 - 22:00, Monday 11:00 - 22:00, Monday 11:00 - 22:00, Monday 11:00 - 22:00, Monday 11:00 - 22:00, Monday 11:00 - 22:00",,,0
Ruby Tuesday of Greensboro,,4218  WEST WENDOVER AVENUE,,,NC,27407,Australia,3362944344,,,"Monday 11:00 - 23:00, Monday 11:00 - 23:00, Monday 11:00 - 23:00, Monday 11:00 - 23:00, Monday 11:00 - 23:00, Monday 11:00 - 23:00, Monday 11:00 - 23:00, Monday 11:00 - 23:00",,,0
Ruby Tuesday of Deep River Corporate Center,,7611 THORNDIKE ROAD,,,NC,27409,Australia,3368410066,,,"Monday 11:00 - 23:00, Monday 11:00 - 23:00, Monday 11:00 - 23:00, Monday 11:00 - 23:00, Monday 11:00 - 23:00, Monday 11:00 - 23:00, Monday 11:00 - 23:00, Monday 11:00 - 23:00",,,0
Ruby Tuesday of Sanford,,3210 NC HIGHWAY 87,,,NC,27330,Australia,9197760292,,,"Monday 11:00 - 22:00, Monday 11:00 - 22:00, Monday 11:00 - 22:00, Monday 11:00 - 22:00, Monday 11:00 - 22:00, Monday 11:00 - 22:00, Monday 11:00 - 22:00, Monday 11:00 - 22:00",,,0
Ruby Tuesday of Clinton NC,,1118 SUNSET AVENUE,,,NC,28328,Mexico,9105900020,,,"Monday 11:00 - 22:00, Monday 11:00 - 22:00, Monday 11:00 - 22:00, Monday 11:00 - 22:00, Monday 11:00 - 22:00, Monday 11:00 - 22:00, Monday 11:00 - 22:00, Monday 11:00 - 22:00",,,0
Ruby Tuesday of Wytheville,,145 COMMONWEALTH AVENUE,,,VA,24382,Mexico,2762234380,,,"Monday 11:00 - 22:00, Monday 11:00 - 22:00, Monday 11:00 - 22:00, Monday 11:00 - 22:00, Monday 11:00 - 22:00, Monday 11:00 - 22:00, Monday 11:00 - 22:00, Monday 11:00 - 22:00",,,0
Ruby Tuesday of Mt. Airy,,2139 ROCKFORD STREET,,,NC,27030,Mexico,3367890815,,,"Monday 11:00 - 22:00, Monday 11:00 - 22:00, Monday 11:00 - 22:00, Monday 11:00 - 22:00, Monday 11:00 - 22:00, Monday 11:00 - 22:00, Monday 11:00 - 22:00, Monday 11:00 - 22:00",,,0
Ruby Tuesday of Sandusky,,4314 MILAN RD,,,OH,44870,Mexico,4196258264,,,"Monday 11:00 - 22:00, Monday 11:00 - 22:00, Monday 11:00 - 22:00, Monday 11:00 - 22:00, Monday 11:00 - 22:00, Monday 11:00 - 22:00, Monday 11:00 - 22:00, Monday 11:00 - 22:00",,,0
Ruby Tuesday of Thomasville,,1044 RANDOLPH STREET,,,NC,27360,Chile,3364754152,,,"Monday 11:00 - 22:00, Monday 11:00 - 22:00, Monday 11:00 - 22:00, Monday 11:00 - 22:00, Monday 11:00 - 22:00, Monday 11:00 - 22:00, Monday 11:00 - 22:00, Monday 11:00 - 22:00",,,0
Ruby Tuesday of Spring Lake,,215 S. BRAGG BLVD.,,,NC,28390,Chile,9104361008,,,"Monday 11:00 - 22:00, Monday 11:00 - 22:00, Monday 11:00 - 22:00, Monday 11:00 - 22:00, Monday 11:00 - 22:00, Monday 11:00 - 22:00, Monday 11:00 - 22:00, Monday 11:00 - 22:00",,,0
Ruby Tuesday of Huntington,,"500 MALL ROAD, SPACE #395",,,WV,25504,Chile,3047332223,,,"Monday 11:00 - 22:00, Monday 11:00 - 22:00, Monday 11:00 - 22:00, Monday 11:00 - 22:00, Monday 11:00 - 22:00, Monday 11:00 - 22:00, Monday 11:00 - 22:00, Monday 11:00 - 22:00",,,0
Ruby Tuesday of Clemmons - Westwood Village Rd,,6412 SESSIONS CT.,,,NC,27012,Chile,3367663463,,,"Monday 11:00 - 22:00, Monday 11:00 - 22:00, Monday 11:00 - 22:00, Monday 11:00 - 22:00, Monday 11:00 - 22:00, Monday 11:00 - 22:00, Monday 11:00 - 22:00, Monday 11:00 - 22:00",,,0
Ruby Tuesday of Bureau Drive,,1936 CEDAR CREEK RD,,,NC,28337,El Salvador,9104847122,,,"Monday 11:00 - 23:00, Monday 11:00 - 23:00, Monday 11:00 - 23:00, Monday 11:00 - 23:00, Monday 11:00 - 23:00, Monday 11:00 - 23:00, Monday 11:00 - 23:00, Monday 11:00 - 23:00",,,0
Ruby Tuesday of Fayetteville,,1812 SKIBO ROAD,,,NC,28303,El Salvador,9108644400,,,"Monday 11:00 - 22:00, Monday 11:00 - 22:00, Monday 11:00 - 22:00, Monday 11:00 - 22:00, Monday 11:00 - 22:00, Monday 11:00 - 22:00, Monday 11:00 - 22:00, Monday 11:00 - 22:00",,,0
Ruby Tuesday of Fayetteville - Owen Dr,,1870 OWEN DRIVE,,,NC,28304,El Salvador,9103231742,,,"Monday 11:00 - 22:00, Monday 11:00 - 22:00, Monday 11:00 - 22:00, Monday 11:00 - 22:00, Monday 11:00 - 22:00, Monday 11:00 - 22:00, Monday 11:00 - 22:00, Monday 11:00 - 22:00",,,0
Ruby Tuesday of Port Huron,,4280 24TH AVE.,,,MI,48059,El Salvador,8103858966,,,"Monday 11:00 - 22:00, Monday 11:00 - 22:00, Monday 11:00 - 22:00, Monday 11:00 - 22:00, Monday 11:00 - 22:00, Monday 11:00 - 22:00, Monday 11:00 - 22:00, Monday 11:00 - 22:00",,,0
Ruby Tuesday of Powell - Orange Township,,8753 OWENFIELD DR,,,OH,43065,Honduras,7405481670,,,"Monday 11:00 - 22:00, Monday 11:00 - 22:00, Monday 11:00 - 22:00, Monday 11:00 - 22:00, Monday 11:00 - 22:00, Monday 11:00 - 22:00, Monday 11:00 - 22:00, Monday 11:00 - 22:00",,,0
Ruby Tuesday of Aberdeen,,1505 NORTH SANDHILLS BLVD.,,,NC,28315,Honduras,9109447303,,,"Monday 11:00 - 22:00, Monday 11:00 - 22:00, Monday 11:00 - 22:00, Monday 11:00 - 22:00, Monday 11:00 - 22:00, Monday 11:00 - 22:00, Monday 11:00 - 22:00, Monday 11:00 - 22:00",,,0
Ruby Tuesday of Grove City,,4065 MARLANE DRIVE,,,OH,43123,Honduras,6148011650,,,"Monday 11:00 - 22:00, Monday 11:00 - 22:00, Monday 11:00 - 22:00, Monday 11:00 - 22:00, Monday 11:00 - 22:00, Monday 11:00 - 22:00, Monday 11:00 - 22:00, Monday 11:00 - 22:00",,,0
Ruby Tuesday of Sawmill,,3730 W. DUBLIN-GRANVILLE RD.,,,OH,43235,Honduras,6147618850,,,"Monday 11:00 - 22:00, Monday 11:00 - 22:00, Monday 11:00 - 22:00, Monday 11:00 - 22:00, Monday 11:00 - 22:00, Monday 11:00 - 22:00, Monday 11:00 - 22:00, Monday 11:00 - 22:00",,,0
Ruby Tuesday of Chesterfield,,51295 GRATIOT AVE.,,,MI,48051,Panama,5869483610,,,"Monday 11:00 - 22:00, Monday 11:00 - 22:00, Monday 11:00 - 22:00, Monday 11:00 - 22:00, Monday 11:00 - 22:00, Monday 11:00 - 22:00, Monday 11:00 - 22:00, Monday 11:00 - 22:00",,,0
Ruby Tuesday of Ashland,,399 ARMCO ROAD,,,KY,41101,Panama,6063291176,,,"Monday 10:45 - 22:15, Monday 10:45 - 22:15, Monday 10:45 - 22:15, Monday 10:45 - 22:15, Monday 10:45 - 22:15, Monday 10:45 - 22:15, Monday 10:45 - 22:15, Monday 10:45 - 22:15",,,0
Ruby Tuesday of Roseville,,30901 GRATIOT AVENUE,,,MI,48066,Panama,5864159478,,,"Monday 11:00 - 22:00, Monday 11:00 - 22:00, Monday 11:00 - 22:00, Monday 11:00 - 22:00, Monday 11:00 - 22:00, Monday 11:00 - 22:00, Monday 11:00 - 22:00, Monday 11:00 - 22:00",,,0
Ruby Tuesday of 15 Mi-Van Dyke,,35500 VAN DYKE AVENUE,,,MI,48312,Panama,5862641654,,,"Monday 11:00 - 22:00, Monday 11:00 - 22:00, Monday 11:00 - 22:00, Monday 11:00 - 22:00, Monday 11:00 - 22:00, Monday 11:00 - 22:00, Monday 11:00 - 22:00, Monday 11:00 - 22:00",,,0
Ruby Tuesday of Mayfaire,,1138 MILITARY CUTOFF ROAD,,,NC,28405,Saudi Arabia,9105090129,,,"Monday 11:00 - 22:00, Monday 11:00 - 22:00, Monday 11:00 - 22:00, Monday 11:00 - 22:00, Monday 11:00 - 22:00, Monday 11:00 - 22:00, Monday 11:00 - 22:00, Monday 11:00 - 22:00",,,0
Ruby Tuesday of Wilmington - Independence Mall,,3524 OLEANDER DRIVE,,,NC,28403,Saudi Arabia,9107947062,,,"Monday 11:00 - 22:00, Monday 11:00 - 22:00, Monday 11:00 - 22:00, Monday 11:00 - 22:00, Monday 11:00 - 22:00, Monday 11:00 - 22:00, Monday 11:00 - 22:00, Monday 11:00 - 22:00",,,0
Ruby Tuesday of Lumberton,,5005 FAYETTEVILLE ROAD,,,NC,28358,Saudi Arabia,9107396030,,,"Monday 11:00 - 23:00, Monday 11:00 - 23:00, Monday 11:00 - 23:00, Monday 11:00 - 23:00, Monday 11:00 - 23:00, Monday 11:00 - 23:00, Monday 11:00 - 23:00, Monday 11:00 - 23:00",,,0
Ruby Tuesday of Wilkesboro,,1512 WINKLER MILL EXTENSION,,,NC,28697,Saudi Arabia,3368385216,,,"Monday 11:00 - 22:00, Monday 11:00 - 22:00, Monday 11:00 - 22:00, Monday 11:00 - 22:00, Monday 11:00 - 22:00, Monday 11:00 - 22:00, Monday 11:00 - 22:00, Monday 11:00 - 22:00",,,0
Ruby Tuesday of Monkey Junction,,5218 SOUTH COLLEGE ROAD,,,NC,28412,Canada,9103952396,,,"Monday 11:00 - 22:00, Monday 11:00 - 22:00, Monday 11:00 - 22:00, Monday 11:00 - 22:00, Monday 11:00 - 22:00, Monday 11:00 - 22:00, Monday 11:00 - 22:00, Monday 11:00 - 22:00",,,0
Ruby Tuesday of Statesville,,210 TURNERSBURG HIGHWAY,,,NC,28625,Canada,7048837883,,,"Monday 11:00 - 22:00, Monday 11:00 - 22:00, Monday 11:00 - 22:00, Monday 11:00 - 22:00, Monday 11:00 - 22:00, Monday 11:00 - 22:00, Monday 11:00 - 22:00, Monday 11:00 - 22:00",,,0
Ruby Tuesday of Lumberton-5th Street,,2950 WEST 5TH STREET,,,NC,28358,Canada,9107398117,,,"Monday 11:00 - 22:00, Monday 11:00 - 22:00, Monday 11:00 - 22:00, Monday 11:00 - 22:00, Monday 11:00 - 22:00, Monday 11:00 - 22:00, Monday 11:00 - 22:00, Monday 11:00 - 22:00",,,0
Ruby Tuesday of Monroe,,2071 TELEGRAPH ROAD,,,MI,48162,Canada,7344573169,,,"Monday 11:00 - 22:00, Monday 11:00 - 22:00, Monday 11:00 - 22:00, Monday 11:00 - 22:00, Monday 11:00 - 22:00, Monday 11:00 - 22:00, Monday 11:00 - 22:00, Monday 11:00 - 22:00",,,0
Ruby Tuesday of the Detroit Airport,,"Detroit Metropolitan Wayne County Airport, North Terminal, Detroit Airport, 601 W G Rogell Dr.",,,MI,48242,Canada,7342471118,,,"Monday 9:00 - 21:00, Monday 9:00 - 21:00, Monday 9:00 - 21:00, Monday 9:00 - 21:00, Monday 9:00 - 21:00, Monday 9:00 - 21:00, Monday 9:00 - 21:00, Monday 9:00 - 21:00",,,0
Ruby Tuesday of North Lite,,2461 WONDER DRIVE NE,,,NC,28083,Canada,7047207829,,,"Monday 11:00 - 22:00, Monday 11:00 - 22:00, Monday 11:00 - 22:00, Monday 11:00 - 22:00, Monday 11:00 - 22:00, Monday 11:00 - 22:00, Monday 11:00 - 22:00, Monday 11:00 - 22:00",,,0
Ruby Tuesday of Farmington Hills,,31066 TWELVE MILE ROAD,,,MI,48334,Canada,2489329393,,,"Monday 11:00 - 22:00, Monday 11:00 - 22:00, Monday 11:00 - 22:00, Monday 11:00 - 22:00, Monday 11:00 - 22:00, Monday 11:00 - 22:00, Monday 11:00 - 22:00, Monday 11:00 - 22:00",,,0
Ruby Tuesday of South Canton,,45660 MICHIGAN AVE,,,MI,48188,Canada,7343943002,,,"Monday 11:00 - 22:00, Monday 11:00 - 22:00, Monday 11:00 - 22:00, Monday 11:00 - 22:00, Monday 11:00 - 22:00, Monday 11:00 - 22:00, Monday 11:00 - 22:00, Monday 11:00 - 22:00",,,0
Ruby Tuesday of Novi,,39581 TWELVE MILE ROAD,,,MI,48377,Canada,2483487635,,,"Monday 11:00 - 22:00, Monday 11:00 - 22:00, Monday 11:00 - 22:00, Monday 11:00 - 22:00, Monday 11:00 - 22:00, Monday 11:00 - 22:00, Monday 11:00 - 22:00, Monday 11:00 - 22:00",,,0
Ruby Tuesday of Clarkston,,6898 SASHABAW RD,,,MI,48348,Canada,2486252008,,,"Monday 11:00 - 22:00, Monday 11:00 - 22:00, Monday 11:00 - 22:00, Monday 11:00 - 22:00, Monday 11:00 - 22:00, Monday 11:00 - 22:00, Monday 11:00 - 22:00, Monday 11:00 - 22:00",,,0
Ruby Tuesday of Plymouth,,15075 BECK ROAD,,,MI,48170,Canada,7344554405,,,"Monday 11:00 - 22:00, Monday 11:00 - 22:00, Monday 11:00 - 22:00, Monday 11:00 - 22:00, Monday 11:00 - 22:00, Monday 11:00 - 22:00, Monday 11:00 - 22:00, Monday 11:00 - 22:00",,,0
Ruby Tuesday of Speedway Blvd.,,7780 LYLES LANE NW,,,NC,28027,Canada,7049791741,,,"Monday 11:00 - 22:00, Monday 11:00 - 22:00, Monday 11:00 - 22:00, Monday 11:00 - 22:00, Monday 11:00 - 22:00, Monday 11:00 - 22:00, Monday 11:00 - 22:00, Monday 11:00 - 22:00",,,0
Ruby Tuesday of Lenoir,,425 BLOWING ROCK BLVD,,,NC,28645,Canada,8287587725,,,"Monday 11:00 - 22:00, Monday 11:00 - 22:00, Monday 11:00 - 22:00, Monday 11:00 - 22:00, Monday 11:00 - 22:00, Monday 11:00 - 22:00, Monday 11:00 - 22:00, Monday 11:00 - 22:00",,,0
Ruby Tuesday of Saline,,1375 E MICHIGAN AVENUE,,,MI,48176,Canada,7344293873,,,"Monday 11:00 - 22:00, Monday 11:00 - 22:00, Monday 11:00 - 22:00, Monday 11:00 - 22:00, Monday 11:00 - 22:00, Monday 11:00 - 22:00, Monday 11:00 - 22:00, Monday 11:00 - 22:00",,,0
Ruby Tuesday of Hickory,,1821 US HIGHWAY 70 SE,,,NC,28602,Canada,8282672981,,,"Monday 11:00 - 22:00, Monday 11:00 - 22:00, Monday 11:00 - 22:00, Monday 11:00 - 22:00, Monday 11:00 - 22:00, Monday 11:00 - 22:00, Monday 11:00 - 22:00, Monday 11:00 - 22:00",,,0
Ruby Tuesday of Charlotte,,7401 EAST INDEPENDENCE BOULE,,,NC,28227,Canada,7045350340,,,"Monday 11:00 - 22:00, Monday 11:00 - 22:00, Monday 11:00 - 22:00, Monday 11:00 - 22:00, Monday 11:00 - 22:00, Monday 11:00 - 22:00, Monday 11:00 - 22:00, Monday 11:00 - 22:00",,,0
Ruby Tuesday of Lima,,2404 ELIDA RD,,,OH,45807,Canada,4193317829,,,"Monday 11:00 - 22:00, Monday 11:00 - 22:00, Monday 11:00 - 22:00, Monday 11:00 - 22:00, Monday 11:00 - 22:00, Monday 11:00 - 22:00, Monday 11:00 - 22:00, Monday 11:00 - 22:00",,,0
Ruby Tuesday of Arrowood Road,,8905 RED OAK BLVD,,,NC,28217,Canada,7045255025,,,"Monday 11:00 - 22:00, Monday 11:00 - 22:00, Monday 11:00 - 22:00, Monday 11:00 - 22:00, Monday 11:00 - 22:00, Monday 11:00 - 22:00, Monday 11:00 - 22:00, Monday 11:00 - 22:00",,,0
Ruby Tuesday of Toringdon,,12330 JOHNSTON RD.,,,NC,28277,Canada,7045401489,,,"Monday 11:00 - 22:00, Monday 11:00 - 22:00, Monday 11:00 - 22:00, Monday 11:00 - 22:00, Monday 11:00 - 22:00, Monday 11:00 - 22:00, Monday 11:00 - 22:00, Monday 11:00 - 22:00",,,0
Ruby Tuesday of Gastonia,,424 COX RD,,,NC,28054,Canada,7048523985,,,"Monday 11:00 - 22:00, Monday 11:00 - 22:00, Monday 11:00 - 22:00, Monday 11:00 - 22:00, Monday 11:00 - 22:00, Monday 11:00 - 22:00, Monday 11:00 - 22:00, Monday 11:00 - 22:00",,,0
Ruby Tuesday of Johnson City - ETSU,,1208 HARRIS DRIVE WEST,,,TN,37604,Canada,4239261336,,,"Monday 11:00 - 22:00, Monday 11:00 - 22:00, Monday 11:00 - 22:00, Monday 11:00 - 22:00, Monday 11:00 - 22:00, Monday 11:00 - 22:00, Monday 11:00 - 22:00, Monday 11:00 - 22:00",,,0
Ruby Tuesday of Vandalia,,6425 MILLER LANE,,,OH,45414,Canada,9374540535,,,"Monday 11:00 - 22:00, Monday 11:00 - 22:00, Monday 11:00 - 22:00, Monday 11:00 - 22:00, Monday 11:00 - 22:00, Monday 11:00 - 22:00, Monday 11:00 - 22:00, Monday 11:00 - 22:00",,,0
Ruby Tuesday of Centerville,,6061 FAR HILLS AVE,,,OH,45459,Canada,9374329655,,,"Monday 11:00 - 22:00, Monday 11:00 - 22:00, Monday 11:00 - 22:00, Monday 11:00 - 22:00, Monday 11:00 - 22:00, Monday 11:00 - 22:00, Monday 11:00 - 22:00, Monday 11:00 - 22:00",,,0
Ruby Tuesday of Troy,,1780 W. MAIN STREET,,,OH,45373,Canada,9373397175,,,"Monday 11:00 - 22:00, Monday 11:00 - 22:00, Monday 11:00 - 22:00, Monday 11:00 - 22:00, Monday 11:00 - 22:00, Monday 11:00 - 22:00, Monday 11:00 - 22:00, Monday 11:00 - 22:00",,,0
Ruby Tuesday of Myrtle Beach,,"10177 NORTH KINGS HWY, SPACE H-14",,,SC,29572,Canada,8433617277,,,"Monday 11:00 - 22:00, Monday 11:00 - 22:00, Monday 11:00 - 22:00, Monday 11:00 - 22:00, Monday 11:00 - 22:00, Monday 11:00 - 22:00, Monday 11:00 - 22:00, Monday 11:00 - 22:00",,,0
Ruby Tuesday of North Florence Hwy 52,,1812 WEST LUCAS STREET,,,SC,29501,Canada,8436291947,,,"Monday 11:00 - 23:00, Monday 11:00 - 23:00, Monday 11:00 - 23:00, Monday 11:00 - 23:00, Monday 11:00 - 23:00, Monday 11:00 - 23:00, Monday 11:00 - 23:00, Monday 11:00 - 23:00",,,0
Ruby Tuesday of Rock Hill,,1410 OLD SPRINGDALE ROAD,,,SC,29730,Canada,8039808313,,,"Monday 11:00 - 22:00, Monday 11:00 - 22:00, Monday 11:00 - 22:00, Monday 11:00 - 22:00, Monday 11:00 - 22:00, Monday 11:00 - 22:00, Monday 11:00 - 22:00, Monday 11:00 - 22:00",,,0
Ruby Tuesday of South Florence,,1550 AMERICAN DRIVE,,,SC,29505,Canada,8433176348,,,"Monday 11:00 - 22:00, Monday 11:00 - 22:00, Monday 11:00 - 22:00, Monday 11:00 - 22:00, Monday 11:00 - 22:00, Monday 11:00 - 22:00, Monday 11:00 - 22:00, Monday 11:00 - 22:00",,,0
Ruby Tuesday of Magnolia Mall,,2701 DAVID MCLEOD BOULEVARD,,,SC,29501,Canada,8436730545,,,"Monday 11:00 - 22:00, Monday 11:00 - 22:00, Monday 11:00 - 22:00, Monday 11:00 - 22:00, Monday 11:00 - 22:00, Monday 11:00 - 22:00, Monday 11:00 - 22:00, Monday 11:00 - 22:00",,,0
Ruby Tuesday of Shelby,,2003 EAST DIXON BLVD.,,,NC,28152,Canada,7044811925,,,"Monday 11:00 - 22:00, Monday 11:00 - 22:00, Monday 11:00 - 22:00, Monday 11:00 - 22:00, Monday 11:00 - 22:00, Monday 11:00 - 22:00, Monday 11:00 - 22:00, Monday 11:00 - 22:00",,,0
Ruby Tuesday of Presque Isle,,830 MAIN STREET,,,ME,04769,Canada,2077642874,,,"Monday 11:00 - 22:00, Monday 11:00 - 22:00, Monday 11:00 - 22:00, Monday 11:00 - 22:00, Monday 11:00 - 22:00, Monday 11:00 - 22:00, Monday 11:00 - 22:00, Monday 11:00 - 22:00",,,0
Ruby Tuesday of Kings Mill,,5456 KINGS CENTER DRIVE,,,OH,45040,Canada,5134597366,,,"Monday 11:00 - 22:00, Monday 11:00 - 22:00, Monday 11:00 - 22:00, Monday 11:00 - 22:00, Monday 11:00 - 22:00, Monday 11:00 - 22:00, Monday 11:00 - 22:00, Monday 11:00 - 22:00",,,0
Ruby Tuesday of Tanger Center,,4632 FACTORY STORES BLVD.,,,SC,29579,Canada,8439037410,,,"Monday 11:00 - 22:00, Monday 11:00 - 22:00, Monday 11:00 - 22:00, Monday 11:00 - 22:00, Monday 11:00 - 22:00, Monday 11:00 - 22:00, Monday 11:00 - 22:00, Monday 11:00 - 22:00",,,0
Ruby Tuesday of Milford,,315 RIVERS EDGE DRIVE,,,OH,45150,Canada,5138314100,,,"Monday 11:00 - 22:00, Monday 11:00 - 22:00, Monday 11:00 - 22:00, Monday 11:00 - 22:00, Monday 11:00 - 22:00, Monday 11:00 - 22:00, Monday 11:00 - 22:00, Monday 11:00 - 22:00",,,0
Ruby Tuesday of Surfside Beach,,101 NORTH STRAND PARKWAY,,,SC,29588,Canada,8436507829,,,"Monday 11:00 - 22:00, Monday 11:00 - 22:00, Monday 11:00 - 22:00, Monday 11:00 - 22:00, Monday 11:00 - 22:00, Monday 11:00 - 22:00, Monday 11:00 - 22:00, Monday 11:00 - 22:00",,,0
Ruby Tuesday of Blue Ash,,11255 REED HARTMAN HIGHWAY SUITE A,,,OH,45241,Canada,5134697829,,,"Monday 11:00 - 22:00, Monday 11:00 - 22:00, Monday 11:00 - 22:00, Monday 11:00 - 22:00, Monday 11:00 - 22:00, Monday 11:00 - 22:00, Monday 11:00 - 22:00, Monday 11:00 - 22:00",,,0
Ruby Tuesday of Kenwood,,"7800 MONTGOMERY RD, SPACE 14",,,OH,45236,Canada,5137918837,,,"Monday 11:00 - 22:00, Monday 11:00 - 22:00, Monday 11:00 - 22:00, Monday 11:00 - 22:00, Monday 11:00 - 22:00, Monday 11:00 - 22:00, Monday 11:00 - 22:00, Monday 11:00 - 22:00",,,0
Ruby Tuesday of Sharonville,,2235 E SHARON ROAD,,,OH,45241,Canada,5137710533,,,"Monday 11:00 - 23:00, Monday 11:00 - 23:00, Monday 11:00 - 23:00, Monday 11:00 - 23:00, Monday 11:00 - 23:00, Monday 11:00 - 23:00, Monday 11:00 - 23:00, Monday 11:00 - 23:00",,,0
Ruby Tuesday of Okemos,,1982 WEST GRAND RIVER AVENUE,,,MI,48864,Canada,5173474667,,,"Monday 11:00 - 22:00, Monday 11:00 - 22:00, Monday 11:00 - 22:00, Monday 11:00 - 22:00, Monday 11:00 - 22:00, Monday 11:00 - 22:00, Monday 11:00 - 22:00, Monday 11:00 - 22:00",,,0
Ruby Tuesday of Cold Spring,,5350 ALEXANDRIA PIKE,,,KY,41076,Canada,8596943300,,,"Monday 11:00 - 22:00, Monday 11:00 - 22:00, Monday 11:00 - 22:00, Monday 11:00 - 22:00, Monday 11:00 - 22:00, Monday 11:00 - 22:00, Monday 11:00 - 22:00, Monday 11:00 - 22:00",,,0
Ruby Tuesday of Midland,,6800 EASTMAN AVENUE,,,MI,48640,Canada,9896314050,,,"Monday 11:00 - 22:00, Monday 11:00 - 22:00, Monday 11:00 - 22:00, Monday 11:00 - 22:00, Monday 11:00 - 22:00, Monday 11:00 - 22:00, Monday 11:00 - 22:00, Monday 11:00 - 22:00",,,0
Ruby Tuesday of Sumter,,1135 BROAD STREET,,,SC,29151,Canada,8037780771,,,"Monday 11:00 - 22:00, Monday 11:00 - 22:00, Monday 11:00 - 22:00, Monday 11:00 - 22:00, Monday 11:00 - 22:00, Monday 11:00 - 22:00, Monday 11:00 - 22:00, Monday 11:00 - 22:00",,,0
Ruby Tuesday of Angola,,2304 NORTH WAYNE STREET,,,IN,46703,Canada,2606658791,,,"Monday 11:00 - 22:00, Monday 11:00 - 22:00, Monday 11:00 - 22:00, Monday 11:00 - 22:00, Monday 11:00 - 22:00, Monday 11:00 - 22:00, Monday 11:00 - 22:00, Monday 11:00 - 22:00",,,0
Ruby Tuesday of Hillcrest,,1941 E. MAIN STREET,,,SC,29307,Canada,8645857829,,,"Monday 11:00 - 22:00, Monday 11:00 - 22:00, Monday 11:00 - 22:00, Monday 11:00 - 22:00, Monday 11:00 - 22:00, Monday 11:00 - 22:00, Monday 11:00 - 22:00, Monday 11:00 - 22:00",,,0
Ruby Tuesday of West Spartanburg,,191 DORMAN CENTER DRIVE,,,SC,29301,Canada,8645950341,,,"Monday 11:00 - 22:00, Monday 11:00 - 22:00, Monday 11:00 - 22:00, Monday 11:00 - 22:00, Monday 11:00 - 22:00, Monday 11:00 - 22:00, Monday 11:00 - 22:00, Monday 11:00 - 22:00",,,0
Ruby Tuesday of Ft. Wayne,,1050 E. COLISEUM BLVD.,,,IN,46805,Canada,2604719369,,,"Monday 11:00 - 22:00, Monday 11:00 - 22:00, Monday 11:00 - 22:00, Monday 11:00 - 22:00, Monday 11:00 - 22:00, Monday 11:00 - 22:00, Monday 11:00 - 22:00, Monday 11:00 - 22:00",,,0
Ruby Tuesday of Fletcher,,260 UNDERWOOD RD,,,NC,28732,Canada,8286845201,,,"Monday 11:00 - 23:00, Monday 11:00 - 23:00, Monday 11:00 - 23:00, Monday 11:00 - 23:00, Monday 11:00 - 23:00, Monday 11:00 - 23:00, Monday 11:00 - 23:00, Monday 11:00 - 23:00",,,0
Ruby Tuesday of Morristown,,483 SOUTH DAVY CROCKETT PARKWAY,,,TN,37813,Canada,(423) 254-6456,,,"Monday 11:00 - 22:00, Monday 11:00 - 22:00, Monday 11:00 - 22:00, Monday 11:00 - 22:00, Monday 11:00 - 22:00, Monday 11:00 - 22:00, Monday 11:00 - 22:00, Monday 11:00 - 22:00",,,0
Ruby Tuesday of Georgetown,,100 TIGER WAY,,,KY,40324,Canada,5025709959,,,"Monday 11:00 - 23:00, Monday 11:00 - 23:00, Monday 11:00 - 23:00, Monday 11:00 - 23:00, Monday 11:00 - 23:00, Monday 11:00 - 23:00, Monday 11:00 - 23:00, Monday 11:00 - 23:00",,,0
Ruby Tuesday of Battle Creek,,6083 B DRIVE NORTH,,,MI,49014,Canada,2699798310,,,"Monday 11:00 - 22:00, Monday 11:00 - 22:00, Monday 11:00 - 22:00, Monday 11:00 - 22:00, Monday 11:00 - 22:00, Monday 11:00 - 22:00, Monday 11:00 - 22:00, Monday 11:00 - 22:00",,,0
Ruby Tuesday of Newport,,1005 COSBY HIGHWAY,,,TN,37821,Canada,4236130769,,,"Monday 11:00 - 22:00, Monday 11:00 - 22:00, Monday 11:00 - 22:00, Monday 11:00 - 22:00, Monday 11:00 - 22:00, Monday 11:00 - 22:00, Monday 11:00 - 22:00, Monday 11:00 - 22:00",,,0
Ruby Tuesday of Mt. Pleasant,,1023 E PICKARD STREET,,,MI,48858,Canada,9897758737,,,"Monday 11:00 - 22:00, Monday 11:00 - 22:00, Monday 11:00 - 22:00, Monday 11:00 - 22:00, Monday 11:00 - 22:00, Monday 11:00 - 22:00, Monday 11:00 - 22:00, Monday 11:00 - 22:00",,,0
Ruby Tuesday of Devine Street,,4600 DEVINE STREET,,,SC,29205,Canada,8037908974,,,"Monday 11:00 - 22:00, Monday 11:00 - 22:00, Monday 11:00 - 22:00, Monday 11:00 - 22:00, Monday 11:00 - 22:00, Monday 11:00 - 22:00, Monday 11:00 - 22:00, Monday 11:00 - 22:00",,,0
Ruby Tuesday of Sumter Hwy,,7490 GARNERS FERRY ROAD,,,SC,29209,Canada,8037834181,,,"Monday 11:00 - 23:00, Monday 11:00 - 23:00, Monday 11:00 - 23:00, Monday 11:00 - 23:00, Monday 11:00 - 23:00, Monday 11:00 - 23:00, Monday 11:00 - 23:00, Monday 11:00 - 23:00",,,0
Ruby Tuesday of Columbiana,,120 COLUMBIANA CIRCLE,,,SC,29212,Canada,8037327303,,,"Monday 11:00 - 22:00, Monday 11:00 - 22:00, Monday 11:00 - 22:00, Monday 11:00 - 22:00, Monday 11:00 - 22:00, Monday 11:00 - 22:00, Monday 11:00 - 22:00, Monday 11:00 - 22:00",,,0
Ruby Tuesday of Dutch Square,,511 BUSH RIVER RD,,,SC,29210,Canada,8037981243,,,"Monday 11:00 - 22:00, Monday 11:00 - 22:00, Monday 11:00 - 22:00, Monday 11:00 - 22:00, Monday 11:00 - 22:00, Monday 11:00 - 22:00, Monday 11:00 - 22:00, Monday 11:00 - 22:00",,,0
Ruby Tuesday of Dandridge,,523 PATRIOT DRIVE,,,TN,37725,Canada,8653971393,,,"Monday 11:00 - 23:00, Monday 11:00 - 23:00, Monday 11:00 - 23:00, Monday 11:00 - 23:00, Monday 11:00 - 23:00, Monday 11:00 - 23:00, Monday 11:00 - 23:00, Monday 11:00 - 23:00",,,0
Ruby Tuesday of Muncie,,1901 WEST MCGALLAIRD RD,,,IN,47304,Canada,7652884200,,,"Monday 11:00 - 22:00, Monday 11:00 - 22:00, Monday 11:00 - 22:00, Monday 11:00 - 22:00, Monday 11:00 - 22:00, Monday 11:00 - 22:00, Monday 11:00 - 22:00, Monday 11:00 - 22:00",,,0
Ruby Tuesday of West Columbia,,2504 AUGUSTA ROAD,,,SC,29169,Canada,8037391302,,,"Monday 11:00 - 22:00, Monday 11:00 - 22:00, Monday 11:00 - 22:00, Monday 11:00 - 22:00, Monday 11:00 - 22:00, Monday 11:00 - 22:00, Monday 11:00 - 22:00, Monday 11:00 - 22:00",,,0
Ruby Tuesday of Greenville Mall,,1113 WOODRUFF RD,,,SC,29607,Canada,8646274049,,,"Monday 11:00 - 22:00, Monday 11:00 - 22:00, Monday 11:00 - 22:00, Monday 11:00 - 22:00, Monday 11:00 - 22:00, Monday 11:00 - 22:00, Monday 11:00 - 22:00, Monday 11:00 - 22:00",,,0
Ruby Tuesday of Cherrydale Point,,6 STATE PARK ROAD,,,SC,29609,Canada,8642425017,,,"Monday 11:00 - 22:00, Monday 11:00 - 22:00, Monday 11:00 - 22:00, Monday 11:00 - 22:00, Monday 11:00 - 22:00, Monday 11:00 - 22:00, Monday 11:00 - 22:00, Monday 11:00 - 22:00",,,0
Ruby Tuesday of Lexington Place,,5464 SUNSET BLVD.,,,SC,29072,Canada,8033580911,,,"Monday 11:00 - 22:00, Monday 11:00 - 22:00, Monday 11:00 - 22:00, Monday 11:00 - 22:00, Monday 11:00 - 22:00, Monday 11:00 - 22:00, Monday 11:00 - 22:00, Monday 11:00 - 22:00",,,0
Ruby Tuesday of Simpsonville,,3901 GRANDVIEW DRIVE,,,SC,29680,Canada,8642280087,,,"Monday 11:00 - 22:00, Monday 11:00 - 22:00, Monday 11:00 - 22:00, Monday 11:00 - 22:00, Monday 11:00 - 22:00, Monday 11:00 - 22:00, Monday 11:00 - 22:00, Monday 11:00 - 22:00",,,0
Ruby Tuesday of Sevierville,,630 WINFIELD DUNN PARKWAY,,,TN,37876,Canada,8654287842,,,"Monday 11:00 - 22:00, Monday 11:00 - 22:00, Monday 11:00 - 22:00, Monday 11:00 - 22:00, Monday 11:00 - 22:00, Monday 11:00 - 22:00, Monday 11:00 - 22:00, Monday 11:00 - 22:00",,,0
Ruby Tuesday of Easley,,6092 CALHOUN MEMORIAL HWY,,,SC,29640,Canada,8648592700,,,"Monday 11:00 - 22:00, Monday 11:00 - 22:00, Monday 11:00 - 22:00, Monday 11:00 - 22:00, Monday 11:00 - 22:00, Monday 11:00 - 22:00, Monday 11:00 - 22:00, Monday 11:00 - 22:00",,,0
Ruby Tuesday of Anderson,,5530 SCATTERFIELD RD,,,IN,46013,Canada,7656432496,,,"Monday 11:00 - 22:00, Monday 11:00 - 22:00, Monday 11:00 - 22:00, Monday 11:00 - 22:00, Monday 11:00 - 22:00, Monday 11:00 - 22:00, Monday 11:00 - 22:00, Monday 11:00 - 22:00",,,0
Ruby Tuesday of Orangeburg,,724 CITADEL ROAD,,,SC,29118,Canada,8035310022,,,"Monday 11:00 - 23:00, Monday 11:00 - 23:00, Monday 11:00 - 23:00, Monday 11:00 - 23:00, Monday 11:00 - 23:00, Monday 11:00 - 23:00, Monday 11:00 - 23:00, Monday 11:00 - 23:00",,,0
Ruby Tuesday of Somerset,,1975 S. HIGHWAY 27,,,KY,42501,Canada,6066772800,,,"Monday 11:00 - 22:00, Monday 11:00 - 22:00, Monday 11:00 - 22:00, Monday 11:00 - 22:00, Monday 11:00 - 22:00, Monday 11:00 - 22:00, Monday 11:00 - 22:00, Monday 11:00 - 22:00",,,0
Ruby Tuesday of Warsaw,,3308 EAST CENTER STREET,,,IN,46582,Canada,5742697821,,,"Monday 11:00 - 22:00, Monday 11:00 - 22:00, Monday 11:00 - 22:00, Monday 11:00 - 22:00, Monday 11:00 - 22:00, Monday 11:00 - 22:00, Monday 11:00 - 22:00, Monday 11:00 - 22:00",,,0
Ruby Tuesday of Chapman Highway-WalMart,,7406 CHAPMAN HIGHWAY,,,TN,37920,Canada,8655774070,,,"Monday 11:00 - 22:00, Monday 11:00 - 22:00, Monday 11:00 - 22:00, Monday 11:00 - 22:00, Monday 11:00 - 22:00, Monday 11:00 - 22:00, Monday 11:00 - 22:00, Monday 11:00 - 22:00",,,0
Ruby Tuesday of Emory Road,,508 EAST EMORY ROAD,,,TN,37849,Canada,8659389102,,,"Monday 11:00 - 22:00, Monday 11:00 - 22:00, Monday 11:00 - 22:00, Monday 11:00 - 22:00, Monday 11:00 - 22:00, Monday 11:00 - 22:00, Monday 11:00 - 22:00, Monday 11:00 - 22:00",,,0
Ruby Tuesday of Summerville,,1320 NORTH MAIN STREET,,,SC,29483,Canada,8438323128,,,"Monday 11:00 - 22:00, Monday 11:00 - 22:00, Monday 11:00 - 22:00, Monday 11:00 - 22:00, Monday 11:00 - 22:00, Monday 11:00 - 22:00, Monday 11:00 - 22:00, Monday 11:00 - 22:00",,,0
Ruby Tuesday of Gaylord,,499 DICKERSON ROAD,,,MI,49735,Canada,9897057990,,,"Monday 11:00 - 22:00, Monday 11:00 - 22:00, Monday 11:00 - 22:00, Monday 11:00 - 22:00, Monday 11:00 - 22:00, Monday 11:00 - 22:00, Monday 11:00 - 22:00, Monday 11:00 - 22:00",,,0
Ruby Tuesday of Ashley Phosphate,,7400 NORTHSIDE DRIVE,,,SC,29420,Canada,8437640649,,,"Monday 11:00 - 23:00, Monday 11:00 - 23:00, Monday 11:00 - 23:00, Monday 11:00 - 23:00, Monday 11:00 - 23:00, Monday 11:00 - 23:00, Monday 11:00 - 23:00, Monday 11:00 - 23:00",,,0
Ruby Tuesday of Big Rapids,,15397 WALDRON WAY,,,MI,49307,Canada,2315923454,,,"Monday 11:00 - 22:00, Monday 11:00 - 22:00, Monday 11:00 - 22:00, Monday 11:00 - 22:00, Monday 11:00 - 22:00, Monday 11:00 - 22:00, Monday 11:00 - 22:00, Monday 11:00 - 22:00",,,0
Ruby Tuesday of Clemson,,900 TIGER BLVD.,,,SC,29631,Canada,8646538050,,,"Monday 11:00 - 22:00, Monday 11:00 - 22:00, Monday 11:00 - 22:00, Monday 11:00 - 22:00, Monday 11:00 - 22:00, Monday 11:00 - 22:00, Monday 11:00 - 22:00, Monday 11:00 - 22:00",,,0
Ruby Tuesday of Alcoa Highway,,109 FURROW WAY,,,TN,37701,Canada,8653798321,,,"Monday 11:00 - 23:00, Monday 11:00 - 23:00, Monday 11:00 - 23:00, Monday 11:00 - 23:00, Monday 11:00 - 23:00, Monday 11:00 - 23:00, Monday 11:00 - 23:00, Monday 11:00 - 23:00",,,0
Ruby Tuesday of McGhee Tyson Airport,,"BEYOND SECURITY GATE, 2055 ALCOA HIGHWAY",,,TN,37701,Canada,8653423280,,,"Monday 4:30 - 20:00, Monday 4:30 - 20:00, Monday 4:30 - 20:00, Monday 4:30 - 20:00, Monday 4:30 - 20:00, Monday 4:30 - 20:00, Monday 4:30 - 20:00, Monday 4:30 - 20:00",,,0
Ruby Tuesday of 96th Street,,8133 EAST 96TH STREET,,,IN,46256,Canada,3178428368,,,"Monday 11:00 - 22:00, Monday 11:00 - 22:00, Monday 11:00 - 22:00, Monday 11:00 - 22:00, Monday 11:00 - 22:00, Monday 11:00 - 22:00, Monday 11:00 - 22:00, Monday 11:00 - 22:00",,,0
Ruby Tuesday of West Ashley,,1953 SAVANNAH HIGHWAY,,,SC,29407,Canada,8437635110,,,"Monday 11:00 - 23:00, Monday 11:00 - 23:00, Monday 11:00 - 23:00, Monday 11:00 - 23:00, Monday 11:00 - 23:00, Monday 11:00 - 23:00, Monday 11:00 - 23:00, Monday 11:00 - 23:00",,,0
Ruby Tuesday of Blankenbaker,,11701 BLUEGRASS PARKWAY,,,KY,40299,Canada,5022677100,,,"Monday 11:00 - 22:00, Monday 11:00 - 22:00, Monday 11:00 - 22:00, Monday 11:00 - 22:00, Monday 11:00 - 22:00, Monday 11:00 - 22:00, Monday 11:00 - 22:00, Monday 11:00 - 22:00",,,0
Ruby Tuesday of Kokomo,,515 EAST SOUTHWAY BLVD.,,,IN,46902,Canada,7654530396,,,"Monday 11:00 - 22:00, Monday 11:00 - 22:00, Monday 11:00 - 22:00, Monday 11:00 - 22:00, Monday 11:00 - 22:00, Monday 11:00 - 22:00, Monday 11:00 - 22:00, Monday 11:00 - 22:00",,,0
Ruby Tuesday of Taylorsville,,3715 WEST MARKET PLACE,,,IN,46124,Canada,8125265311,,,"Monday 11:00 - 22:00, Monday 11:00 - 22:00, Monday 11:00 - 22:00, Monday 11:00 - 22:00, Monday 11:00 - 22:00, Monday 11:00 - 22:00, Monday 11:00 - 22:00, Monday 11:00 - 22:00",,,0
Ruby Tuesday of Cadillac,,8711 EAST 34 ROAD,,,MI,49601,Canada,2317791240,,,"Monday 11:00 - 22:00, Monday 11:00 - 22:00, Monday 11:00 - 22:00, Monday 11:00 - 22:00, Monday 11:00 - 22:00, Monday 11:00 - 22:00, Monday 11:00 - 22:00, Monday 11:00 - 22:00",,,0
Ruby Tuesday of US 31 South,,7940 US 31 SOUTH,,,IN,46227,Canada,3178855801,,,"Monday 11:00 - 22:00, Monday 11:00 - 22:00, Monday 11:00 - 22:00, Monday 11:00 - 22:00, Monday 11:00 - 22:00, Monday 11:00 - 22:00, Monday 11:00 - 22:00, Monday 11:00 - 22:00",,,0
Ruby Tuesday of Michigan Rd,,9106 WESLEYAN ROAD,,,IN,46268,Canada,3172289630,,,"Monday 11:00 - 22:00, Monday 11:00 - 22:00, Monday 11:00 - 22:00, Monday 11:00 - 22:00, Monday 11:00 - 22:00, Monday 11:00 - 22:00, Monday 11:00 - 22:00, Monday 11:00 - 22:00",,,0
Ruby Tuesday of Lenoir City,,120 INTERCHANGE PARK LANE,,,TN,37771,Canada,8659860973,,,"Monday 11:00 - 23:00, Monday 11:00 - 23:00, Monday 11:00 - 23:00, Monday 11:00 - 23:00, Monday 11:00 - 23:00, Monday 11:00 - 23:00, Monday 11:00 - 23:00, Monday 11:00 - 23:00",,,0
Ruby Tuesday of Aiken,,2285 WHISKEY RD,,,SC,29803,Canada,8036427266,,,"Monday 11:00 - 22:00, Monday 11:00 - 22:00, Monday 11:00 - 22:00, Monday 11:00 - 22:00, Monday 11:00 - 22:00, Monday 11:00 - 22:00, Monday 11:00 - 22:00, Monday 11:00 - 22:00",,,0
Ruby Tuesday of Walterboro,,1480 SNIDER'S HIGHWAY,,,SC,29488,Canada,8435391227,,,"Monday 11:00 - 23:00, Monday 11:00 - 23:00, Monday 11:00 - 23:00, Monday 11:00 - 23:00, Monday 11:00 - 23:00, Monday 11:00 - 23:00, Monday 11:00 - 23:00, Monday 11:00 - 23:00",,,0
Ruby Tuesday of Harriman,,1640 S. ROANE ST,,,TN,37748,Canada,8655900671,,,"Monday 11:00 - 22:00, Monday 11:00 - 22:00, Monday 11:00 - 22:00, Monday 11:00 - 22:00, Monday 11:00 - 22:00, Monday 11:00 - 22:00, Monday 11:00 - 22:00, Monday 11:00 - 22:00",,,0
Ruby Tuesday of Traverse City,,1764 N US HWY 31,,,MI,49686,Canada,2319389220,,,"Monday 11:00 - 22:00, Monday 11:00 - 22:00, Monday 11:00 - 22:00, Monday 11:00 - 22:00, Monday 11:00 - 22:00, Monday 11:00 - 22:00, Monday 11:00 - 22:00, Monday 11:00 - 22:00",,,0
Ruby Tuesday of N. Augusta,,1183 KNOX AVENUE,,,SC,29841,Canada,8034429431,,,"Monday 11:00 - 22:00, Monday 11:00 - 22:00, Monday 11:00 - 22:00, Monday 11:00 - 22:00, Monday 11:00 - 22:00, Monday 11:00 - 22:00, Monday 11:00 - 22:00, Monday 11:00 - 22:00",,,0
Ruby Tuesday of Mullins Crossing,,4203 WASHINGTON ROAD,,,GA,30809,Canada,7068697458,,,"Monday 11:00 - 22:00, Monday 11:00 - 22:00, Monday 11:00 - 22:00, Monday 11:00 - 22:00, Monday 11:00 - 22:00, Monday 11:00 - 22:00, Monday 11:00 - 22:00, Monday 11:00 - 22:00",,,0
Ruby Tuesday of Elizabethtown KY,,201 COMMERCE DRIVE,,,KY,42701,Canada,2707691513,,,"Monday 11:00 - 22:00, Monday 11:00 - 22:00, Monday 11:00 - 22:00, Monday 11:00 - 22:00, Monday 11:00 - 22:00, Monday 11:00 - 22:00, Monday 11:00 - 22:00, Monday 11:00 - 22:00",,,0
Ruby Tuesday of Crossville,,2316 N. MAIN STREET,,,TN,38555,Canada,9314568132,,,"Monday 11:00 - 22:00, Monday 11:00 - 22:00, Monday 11:00 - 22:00, Monday 11:00 - 22:00, Monday 11:00 - 22:00, Monday 11:00 - 22:00, Monday 11:00 - 22:00, Monday 11:00 - 22:00",,,0
Ruby Tuesday of Athens,,1830 HOLIDAY DRIVE,,,TN,37303,Canada,4237461775,,,"Monday 11:00 - 23:00, Monday 11:00 - 23:00, Monday 11:00 - 23:00, Monday 11:00 - 23:00, Monday 11:00 - 23:00, Monday 11:00 - 23:00, Monday 11:00 - 23:00, Monday 11:00 - 23:00",,,0
Ruby Tuesday of Commerce,,167 STEVEN B. TANGER BLVD,,,GA,30529,Canada,7063356676,,,"Monday 11:00 - 22:00, Monday 11:00 - 22:00, Monday 11:00 - 22:00, Monday 11:00 - 22:00, Monday 11:00 - 22:00, Monday 11:00 - 22:00, Monday 11:00 - 22:00, Monday 11:00 - 22:00",,,0
Ruby Tuesday of Beaufort,,346 ROBERT SMALLS PARKWAY,,,SC,29902,Canada,8435221972,,,"Monday 11:00 - 22:00, Monday 11:00 - 22:00, Monday 11:00 - 22:00, Monday 11:00 - 22:00, Monday 11:00 - 22:00, Monday 11:00 - 22:00, Monday 11:00 - 22:00, Monday 11:00 - 22:00",,,0
Ruby Tuesday of Cookeville,,1360 INTERSTATE DRIVE,,,TN,38501,Canada,9315200011,,,"Monday 11:00 - 22:00, Monday 11:00 - 22:00, Monday 11:00 - 22:00, Monday 11:00 - 22:00, Monday 11:00 - 22:00, Monday 11:00 - 22:00, Monday 11:00 - 22:00, Monday 11:00 - 22:00",,,0
Ruby Tuesday of Dawsonville,,796 HIGHWAY 400 SOUTH,,,GA,30534,Canada,7062162333,,,"Monday 11:00 - 22:00, Monday 11:00 - 22:00, Monday 11:00 - 22:00, Monday 11:00 - 22:00, Monday 11:00 - 22:00, Monday 11:00 - 22:00, Monday 11:00 - 22:00, Monday 11:00 - 22:00",,,0
Ruby Tuesday of Winder,,25 SOUTH BROAD ST.,,,GA,30680,Canada,6784251904,,,"Monday 11:00 - 22:00, Monday 11:00 - 22:00, Monday 11:00 - 22:00, Monday 11:00 - 22:00, Monday 11:00 - 22:00, Monday 11:00 - 22:00, Monday 11:00 - 22:00, Monday 11:00 - 22:00",,,0
Ruby Tuesday of Ellijay,,47 HIGHLAND CROSSING,,,GA,30540,Canada,7065153301,,,"Monday 11:00 - 22:00, Monday 11:00 - 22:00, Monday 11:00 - 22:00, Monday 11:00 - 22:00, Monday 11:00 - 22:00, Monday 11:00 - 22:00, Monday 11:00 - 22:00, Monday 11:00 - 22:00",,,0
Ruby Tuesday of Statesboro,,195 NORTHSIDE DRIVE EAST,,,GA,30458,Canada,9127644333,,,"Monday 11:00 - 22:00, Monday 11:00 - 22:00, Monday 11:00 - 22:00, Monday 11:00 - 22:00, Monday 11:00 - 22:00, Monday 11:00 - 22:00, Monday 11:00 - 22:00, Monday 11:00 - 22:00",,,0
Ruby Tuesday of Pooler,,110 POOLER PARKWAY,,,GA,31322,Canada,9123309754,,,"Monday 11:00 - 23:00, Monday 11:00 - 23:00, Monday 11:00 - 23:00, Monday 11:00 - 23:00, Monday 11:00 - 23:00, Monday 11:00 - 23:00, Monday 11:00 - 23:00, Monday 11:00 - 23:00",,,0
Ruby Tuesday of Bowling Green,,2945 SCOTTSVILLE RD,,,KY,42104,Canada,2703938242,,,"Monday 11:00 - 22:00, Monday 11:00 - 22:00, Monday 11:00 - 22:00, Monday 11:00 - 22:00, Monday 11:00 - 22:00, Monday 11:00 - 22:00, Monday 11:00 - 22:00, Monday 11:00 - 22:00",,,0
Ruby Tuesday of Terre Haute,,3451 SOUTH US HWY 41,,,IN,47802,Canada,8122385200,,,"Monday 11:00 - 22:00, Monday 11:00 - 22:00, Monday 11:00 - 22:00, Monday 11:00 - 22:00, Monday 11:00 - 22:00, Monday 11:00 - 22:00, Monday 11:00 - 22:00, Monday 11:00 - 22:00",,,0
Ruby Tuesday of Loganville,,4121 ATLANTA HIGHWAY,,,GA,30052,Canada,6789576243,,,"Monday 11:00 - 22:00, Monday 11:00 - 22:00, Monday 11:00 - 22:00, Monday 11:00 - 22:00, Monday 11:00 - 22:00, Monday 11:00 - 22:00, Monday 11:00 - 22:00, Monday 11:00 - 22:00",,,0
Ruby Tuesday of Chattanooga-Hixson,,5595 HWY. 153,,,TN,37343,Canada,4238752480,,,"Monday 11:00 - 22:00, Monday 11:00 - 22:00, Monday 11:00 - 22:00, Monday 11:00 - 22:00, Monday 11:00 - 22:00, Monday 11:00 - 22:00, Monday 11:00 - 22:00, Monday 11:00 - 22:00",,,0
Ruby Tuesday of Savannah,,580 AI HENDERSON BLVD.,,,GA,31419,Canada,9129200128,,,"Monday 11:00 - 23:00, Monday 11:00 - 23:00, Monday 11:00 - 23:00, Monday 11:00 - 23:00, Monday 11:00 - 23:00, Monday 11:00 - 23:00, Monday 11:00 - 23:00, Monday 11:00 - 23:00",,,0
Ruby Tuesday of Alpharetta,,6055 NORTH POINT PARKWAY,,,GA,30022,Canada,7706675776,,,"Monday 11:00 - 22:00, Monday 11:00 - 22:00, Monday 11:00 - 22:00, Monday 11:00 - 22:00, Monday 11:00 - 22:00, Monday 11:00 - 22:00, Monday 11:00 - 22:00, Monday 11:00 - 22:00",,,0
Ruby Tuesday of Milledgeville,,2440 NORTH COLUMBIA STREET,,,GA,31061,Canada,4784525050,,,"Monday 11:00 - 22:00, Monday 11:00 - 22:00, Monday 11:00 - 22:00, Monday 11:00 - 22:00, Monday 11:00 - 22:00, Monday 11:00 - 22:00, Monday 11:00 - 22:00, Monday 11:00 - 22:00",,,0
Ruby Tuesday of Conyers,,1714 HIGHWAY 138,,,GA,30013,Canada,7704836181,,,"Monday 11:00 - 22:00, Monday 11:00 - 22:00, Monday 11:00 - 22:00, Monday 11:00 - 22:00, Monday 11:00 - 22:00, Monday 11:00 - 22:00, Monday 11:00 - 22:00, Monday 11:00 - 22:00",,,0
Ruby Tuesday of Lebanon,,1317 WEST MAIN ST,,,TN,37087,Canada,6154530577,,,"Monday 11:00 - 22:00, Monday 11:00 - 22:00, Monday 11:00 - 22:00, Monday 11:00 - 22:00, Monday 11:00 - 22:00, Monday 11:00 - 22:00, Monday 11:00 - 22:00, Monday 11:00 - 22:00",,,0
Ruby Tuesday of Calhoun,,731 HIGHWAY 53E,,,GA,30701,Canada,7066022458,,,"Monday 11:00 - 22:00, Monday 11:00 - 22:00, Monday 11:00 - 22:00, Monday 11:00 - 22:00, Monday 11:00 - 22:00, Monday 11:00 - 22:00, Monday 11:00 - 22:00, Monday 11:00 - 22:00",,,0
Ruby Tuesday of Woodstock,,9490 HIGHWAY 92,,,GA,30189,Canada,7705914401,,,"Monday 11:00 - 22:00, Monday 11:00 - 22:00, Monday 11:00 - 22:00, Monday 11:00 - 22:00, Monday 11:00 - 22:00, Monday 11:00 - 22:00, Monday 11:00 - 22:00, Monday 11:00 - 22:00",,,0
Ruby Tuesday of Panola Road,,3010 PANOLA RD,,,GA,30038,Canada,6784180847,,,"Monday 11:00 - 22:00, Monday 11:00 - 22:00, Monday 11:00 - 22:00, Monday 11:00 - 22:00, Monday 11:00 - 22:00, Monday 11:00 - 22:00, Monday 11:00 - 22:00, Monday 11:00 - 22:00",,,0
Ruby Tuesday of Marietta,,2435 DELK RD,,,GA,30067,Canada,7709339050,,,"Monday 11:00 - 22:00, Monday 11:00 - 22:00, Monday 11:00 - 22:00, Monday 11:00 - 22:00, Monday 11:00 - 22:00, Monday 11:00 - 22:00, Monday 11:00 - 22:00, Monday 11:00 - 22:00",,,0
Ruby Tuesday of Hinesville,,543 W. OGLETHORPE HIGHWAY,,,GA,31313,Canada,9124482552,,,"Monday 11:00 - 22:00, Monday 11:00 - 22:00, Monday 11:00 - 22:00, Monday 11:00 - 22:00, Monday 11:00 - 22:00, Monday 11:00 - 22:00, Monday 11:00 - 22:00, Monday 11:00 - 22:00",,,0
Ruby Tuesday of Concord,,3197 SOUTH COBB DRIVE,,,GA,30080,Canada,7703330781,,,"Monday 11:00 - 22:00, Monday 11:00 - 22:00, Monday 11:00 - 22:00, Monday 11:00 - 22:00, Monday 11:00 - 22:00, Monday 11:00 - 22:00, Monday 11:00 - 22:00, Monday 11:00 - 22:00",,,0
Ruby Tuesday of Greendale,,5320 S 76TH STREET,,,WI,53129,Canada,4144230530,,,"Monday 11:00 - 22:00, Monday 11:00 - 22:00, Monday 11:00 - 22:00, Monday 11:00 - 22:00, Monday 11:00 - 22:00, Monday 11:00 - 22:00, Monday 11:00 - 22:00, Monday 11:00 - 22:00",,,0
Ruby Tuesday of Vidalia,,2711 EAST 1ST STREET,,,GA,30474,Canada,9125389268,,,"Monday 11:00 - 22:00, Monday 11:00 - 22:00, Monday 11:00 - 22:00, Monday 11:00 - 22:00, Monday 11:00 - 22:00, Monday 11:00 - 22:00, Monday 11:00 - 22:00, Monday 11:00 - 22:00",,,0
Ruby Tuesday of Menomonee Falls,,10843 W. PARK PLACE,,,WI,53224,Canada,4143599860,,,"Monday 11:00 - 23:00, Monday 11:00 - 23:00, Monday 11:00 - 23:00, Monday 11:00 - 23:00, Monday 11:00 - 23:00, Monday 11:00 - 23:00, Monday 11:00 - 23:00, Monday 11:00 - 23:00",,,0
Ruby Tuesday of Dublin,,2190 HIGHWAY 441 SOUTH,,,GA,31021,Canada,4782963900,,,"Monday 11:00 - 23:00, Monday 11:00 - 23:00, Monday 11:00 - 23:00, Monday 11:00 - 23:00, Monday 11:00 - 23:00, Monday 11:00 - 23:00, Monday 11:00 - 23:00, Monday 11:00 - 23:00",,,0
Ruby Tuesday of Virginia Ave East Point,,1230 VIRGINIA AVENUE,,,GA,30344,Canada,4045594887,,,"Monday 11:00 - 23:00, Monday 11:00 - 23:00, Monday 11:00 - 23:00, Monday 11:00 - 23:00, Monday 11:00 - 23:00, Monday 11:00 - 23:00, Monday 11:00 - 23:00, Monday 11:00 - 23:00",,,0
Ruby Tuesday of McDonough,,1168 HIGHWAY 20,,,GA,30253,Canada,7709149425,,,"Monday 11:00 - 22:00, Monday 11:00 - 22:00, Monday 11:00 - 22:00, Monday 11:00 - 22:00, Monday 11:00 - 22:00, Monday 11:00 - 22:00, Monday 11:00 - 22:00, Monday 11:00 - 22:00",,,0
Ruby Tuesday of Lithia Springs,,642 THORNTON ROAD,,,GA,30122,Canada,7709483707,,,"Monday 11:00 - 22:00, Monday 11:00 - 22:00, Monday 11:00 - 22:00, Monday 11:00 - 22:00, Monday 11:00 - 22:00, Monday 11:00 - 22:00, Monday 11:00 - 22:00, Monday 11:00 - 22:00",,,0
Ruby Tuesday of College Park,,1925 SULLIVAN ROAD,,,GA,30337,Canada,7709941122,,,"Monday 11:00 - 22:00, Monday 11:00 - 22:00, Monday 11:00 - 22:00, Monday 11:00 - 22:00, Monday 11:00 - 22:00, Monday 11:00 - 22:00, Monday 11:00 - 22:00, Monday 11:00 - 22:00",,,0
Ruby Tuesday of Camp Creek,,3390 CAMP CREEK PARKWAY,,,GA,30344,Canada,4043440221,,,"Monday 11:00 - 22:00, Monday 11:00 - 22:00, Monday 11:00 - 22:00, Monday 11:00 - 22:00, Monday 11:00 - 22:00, Monday 11:00 - 22:00, Monday 11:00 - 22:00, Monday 11:00 - 22:00",,,0
Ruby Tuesday of Donelson Pike,,520 DONELSON PIKE,,,TN,37214,Canada,6153160278,,,"Monday 11:00 - 23:00, Monday 11:00 - 23:00, Monday 11:00 - 23:00, Monday 11:00 - 23:00, Monday 11:00 - 23:00, Monday 11:00 - 23:00, Monday 11:00 - 23:00, Monday 11:00 - 23:00",,,0
Ruby Tuesday of Nashboro Square,,2304 MURFREESBORO PIKE,,,TN,37217,Canada,6153660314,,,"Monday 11:00 - 22:00, Monday 11:00 - 22:00, Monday 11:00 - 22:00, Monday 11:00 - 22:00, Monday 11:00 - 22:00, Monday 11:00 - 22:00, Monday 11:00 - 22:00, Monday 11:00 - 22:00",,,0
Ruby Tuesday of Smyrna,,2675 HIGHWOOD BLVD,,,TN,37167,Canada,6152201328,,,"Monday 11:00 - 22:00, Monday 11:00 - 22:00, Monday 11:00 - 22:00, Monday 11:00 - 22:00, Monday 11:00 - 22:00, Monday 11:00 - 22:00, Monday 11:00 - 22:00, Monday 11:00 - 22:00",,,0
Ruby Tuesday of Dallas - GA,,101 THOMAS B. MURPHY DRIVE,,,GA,30132,Canada,7704450432,,,"Monday 11:00 - 22:00, Monday 11:00 - 22:00, Monday 11:00 - 22:00, Monday 11:00 - 22:00, Monday 11:00 - 22:00, Monday 11:00 - 22:00, Monday 11:00 - 22:00, Monday 11:00 - 22:00",,,0
Ruby Tuesday of Lovejoy,,11473 TARA BLVD.,,,GA,30228,Canada,6784792072,,,"Monday 11:00 - 22:00, Monday 11:00 - 22:00, Monday 11:00 - 22:00, Monday 11:00 - 22:00, Monday 11:00 - 22:00, Monday 11:00 - 22:00, Monday 11:00 - 22:00, Monday 11:00 - 22:00",,,0
Ruby Tuesday of Tullahoma,,1936 N. JACKSON ST.,,,TN,37388,Canada,9314551774,,,"Monday 11:00 - 22:00, Monday 11:00 - 22:00, Monday 11:00 - 22:00, Monday 11:00 - 22:00, Monday 11:00 - 22:00, Monday 11:00 - 22:00, Monday 11:00 - 22:00, Monday 11:00 - 22:00",,,0
Ruby Tuesday of Fayetteville Pavilion,,1405 HWY 85 NORTH,,,GA,30214,Canada,7707166801,,,"Monday 11:00 - 22:00, Monday 11:00 - 22:00, Monday 11:00 - 22:00, Monday 11:00 - 22:00, Monday 11:00 - 22:00, Monday 11:00 - 22:00, Monday 11:00 - 22:00, Monday 11:00 - 22:00",,,0
Ruby Tuesday of Darien,,107 MAGNOLIA BLUFF WAY,,,GA,31305,Canada,9124373525,,,"Monday 11:00 - 22:00, Monday 11:00 - 22:00, Monday 11:00 - 22:00, Monday 11:00 - 22:00, Monday 11:00 - 22:00, Monday 11:00 - 22:00, Monday 11:00 - 22:00, Monday 11:00 - 22:00",,,0
Ruby Tuesday of Shelbyville,,111 NORTHSIDE CIRCLE,,,TN,37160,Canada,9316842143,,,"Monday 11:00 - 22:00, Monday 11:00 - 22:00, Monday 11:00 - 22:00, Monday 11:00 - 22:00, Monday 11:00 - 22:00, Monday 11:00 - 22:00, Monday 11:00 - 22:00, Monday 11:00 - 22:00",,,0
Ruby Tuesday of Warner Robins,,403 RUSSELL PARKWAY,,,GA,31088,Canada,4789294828,,,"Monday 11:00 - 22:00, Monday 11:00 - 22:00, Monday 11:00 - 22:00, Monday 11:00 - 22:00, Monday 11:00 - 22:00, Monday 11:00 - 22:00, Monday 11:00 - 22:00, Monday 11:00 - 22:00",,,0
Ruby Tuesday of Ft. Payne,,301 RUBY TUESDAY LANE,,,AL,35967,Canada,2568442963,,,"Monday 11:00 - 22:00, Monday 11:00 - 22:00, Monday 11:00 - 22:00, Monday 11:00 - 22:00, Monday 11:00 - 22:00, Monday 11:00 - 22:00, Monday 11:00 - 22:00, Monday 11:00 - 22:00",,,0
Ruby Tuesday of Clarksville,,2239 MADISON STREET,,,TN,37043,Canada,9315521278,,,"Monday 11:00 - 22:00, Monday 11:00 - 22:00, Monday 11:00 - 22:00, Monday 11:00 - 22:00, Monday 11:00 - 22:00, Monday 11:00 - 22:00, Monday 11:00 - 22:00, Monday 11:00 - 22:00",,,0
Ruby Tuesday of Newnan,,1120 BULLSBORO DRIVE,,,GA,30263,Canada,6784231173,,,"Monday 11:00 - 22:00, Monday 11:00 - 22:00, Monday 11:00 - 22:00, Monday 11:00 - 22:00, Monday 11:00 - 22:00, Monday 11:00 - 22:00, Monday 11:00 - 22:00, Monday 11:00 - 22:00",,,0
Ruby Tuesday of Scottsboro,,252 MICAH WAY,,,AL,35769,Canada,2565742619,,,"Monday 11:00 - 22:00, Monday 11:00 - 22:00, Monday 11:00 - 22:00, Monday 11:00 - 22:00, Monday 11:00 - 22:00, Monday 11:00 - 22:00, Monday 11:00 - 22:00, Monday 11:00 - 22:00",,,0
Ruby Tuesday of Brunswick,,513 MALL BLVD.,,,GA,31525,Canada,9122645525,,,"Monday 11:00 - 22:00, Monday 11:00 - 22:00, Monday 11:00 - 22:00, Monday 11:00 - 22:00, Monday 11:00 - 22:00, Monday 11:00 - 22:00, Monday 11:00 - 22:00, Monday 11:00 - 22:00",,,0
Ruby Tuesday of Ft. Campbell,,1826 FT. CAMPBELL BLVD.,,,TN,37042,Canada,9312210330,,,"Monday 11:00 - 22:00, Monday 11:00 - 22:00, Monday 11:00 - 22:00, Monday 11:00 - 22:00, Monday 11:00 - 22:00, Monday 11:00 - 22:00, Monday 11:00 - 22:00, Monday 11:00 - 22:00",,,0
Ruby Tuesday of Carrollton,,1685 SOUTH HIGHWAY 27,,,GA,30117,Canada,7708385897,,,"Monday 11:00 - 22:00, Monday 11:00 - 22:00, Monday 11:00 - 22:00, Monday 11:00 - 22:00, Monday 11:00 - 22:00, Monday 11:00 - 22:00, Monday 11:00 - 22:00, Monday 11:00 - 22:00",,,0
Ruby Tuesday of Dickson,,140 SUZANNE DRIVE,,,TN,37055,Canada,6157401488,,,"Monday 11:00 - 22:00, Monday 11:00 - 22:00, Monday 11:00 - 22:00, Monday 11:00 - 22:00, Monday 11:00 - 22:00, Monday 11:00 - 22:00, Monday 11:00 - 22:00, Monday 11:00 - 22:00",,,0
Ruby Tuesday of Columbia,,827 SOUTH JAMES CAMPBELL BLVD.,,,TN,38401,Canada,9313817089,,,"Monday 11:00 - 22:00, Monday 11:00 - 22:00, Monday 11:00 - 22:00, Monday 11:00 - 22:00, Monday 11:00 - 22:00, Monday 11:00 - 22:00, Monday 11:00 - 22:00, Monday 11:00 - 22:00",,,0
Ruby Tuesday of Waycross,,2263 MEMORIAL DRIVE,,,GA,31501,Canada,9122833769,,,"Monday 11:00 - 22:00, Monday 11:00 - 22:00, Monday 11:00 - 22:00, Monday 11:00 - 22:00, Monday 11:00 - 22:00, Monday 11:00 - 22:00, Monday 11:00 - 22:00, Monday 11:00 - 22:00",,,0
Ruby Tuesday of Douglas,,1324 SOUTH MADISON AVENUE,,,GA,31533,Canada,9123937829,,,"Monday 11:00 - 23:00, Monday 11:00 - 23:00, Monday 11:00 - 23:00, Monday 11:00 - 23:00, Monday 11:00 - 23:00, Monday 11:00 - 23:00, Monday 11:00 - 23:00, Monday 11:00 - 23:00",,,0
Ruby Tuesday of South Huntsville,,"11594 MEMORIAL PARKWAY, S.W.",,,AL,35803,Canada,2568833105,,,"Monday 11:00 - 22:00, Monday 11:00 - 22:00, Monday 11:00 - 22:00, Monday 11:00 - 22:00, Monday 11:00 - 22:00, Monday 11:00 - 22:00, Monday 11:00 - 22:00, Monday 11:00 - 22:00",,,0
Ruby Tuesday of La Grange,,305 NORTH MORGAN STREET,,,GA,30240,Canada,7068828829,,,"Monday 11:00 - 22:00, Monday 11:00 - 22:00, Monday 11:00 - 22:00, Monday 11:00 - 22:00, Monday 11:00 - 22:00, Monday 11:00 - 22:00, Monday 11:00 - 22:00, Monday 11:00 - 22:00",,,0
Ruby Tuesday of Madison 72,,7814 HIGHWAY 72 WEST,,,AL,35758,Canada,2568305050,,,"Monday 11:00 - 22:00, Monday 11:00 - 22:00, Monday 11:00 - 22:00, Monday 11:00 - 22:00, Monday 11:00 - 22:00, Monday 11:00 - 22:00, Monday 11:00 - 22:00, Monday 11:00 - 22:00",,,0
Ruby Tuesday of Kingsland,,100 CROWN POINTE PARKWAY,,,GA,31548,Canada,9128821611,,,"Monday 11:00 - 22:00, Monday 11:00 - 22:00, Monday 11:00 - 22:00, Monday 11:00 - 22:00, Monday 11:00 - 22:00, Monday 11:00 - 22:00, Monday 11:00 - 22:00, Monday 11:00 - 22:00",,,0
Ruby Tuesday of Gadsden/Attalla,,113 WALKER STREET,,,AL,35904,Canada,2565389996,,,"Monday 11:00 - 22:00, Monday 11:00 - 22:00, Monday 11:00 - 22:00, Monday 11:00 - 22:00, Monday 11:00 - 22:00, Monday 11:00 - 22:00, Monday 11:00 - 22:00, Monday 11:00 - 22:00",,,0
Ruby Tuesday of Anniston,,712 S. QUINTARD AVE.,,,AL,36202,Canada,2562372229,,,"Monday 11:00 - 22:00, Monday 11:00 - 22:00, Monday 11:00 - 22:00, Monday 11:00 - 22:00, Monday 11:00 - 22:00, Monday 11:00 - 22:00, Monday 11:00 - 22:00, Monday 11:00 - 22:00",,,0
Ruby Tuesday of Athens - AL,,21366 ATHENS LIMESTONE LANE,,,AL,35611,Canada,2562306108,,,"Monday 11:00 - 22:00, Monday 11:00 - 22:00, Monday 11:00 - 22:00, Monday 11:00 - 22:00, Monday 11:00 - 22:00, Monday 11:00 - 22:00, Monday 11:00 - 22:00, Monday 11:00 - 22:00",,,0
Ruby Tuesday of Americus,,102 LONNIE LANE,,,GA,31709,Canada,2299284035,,,"Monday 16:00 - 22:00, Monday 16:00 - 22:00, Monday 16:00 - 22:00, Monday 16:00 - 22:00, Monday 16:00 - 22:00, Monday 16:00 - 22:00, Monday 16:00 - 22:00, Monday 16:00 - 22:00",,,0
Ruby Tuesday of Airport Road,,1360 AIRPORT ROAD,,,FL,32218,Canada,9047413692,,,"Monday 11:00 - 23:00, Monday 11:00 - 23:00, Monday 11:00 - 23:00, Monday 11:00 - 23:00, Monday 11:00 - 23:00, Monday 11:00 - 23:00, Monday 11:00 - 23:00, Monday 11:00 - 23:00",,,0
Ruby Tuesday of Columbus,,3431 MANCHESTER EXPRESSWAY,,,GA,31909,Canada,7063272203,,,"Monday 11:00 - 22:00, Monday 11:00 - 22:00, Monday 11:00 - 22:00, Monday 11:00 - 22:00, Monday 11:00 - 22:00, Monday 11:00 - 22:00, Monday 11:00 - 22:00, Monday 11:00 - 22:00",,,0
Ruby Tuesday of Tifton,,1306 US HWY 82 WEST,,,GA,31794,Canada,2293868581,,,"Monday 11:00 - 23:00, Monday 11:00 - 23:00, Monday 11:00 - 23:00, Monday 11:00 - 23:00, Monday 11:00 - 23:00, Monday 11:00 - 23:00, Monday 11:00 - 23:00, Monday 11:00 - 23:00",,,0
Ruby Tuesday of Monument Road,,1022 HOSPITALITY LANE,,,FL,32225,Canada,9047277017,,,"Monday 11:00 - 23:00, Monday 11:00 - 23:00, Monday 11:00 - 23:00, Monday 11:00 - 23:00, Monday 11:00 - 23:00, Monday 11:00 - 23:00, Monday 11:00 - 23:00, Monday 11:00 - 23:00",,,0
Ruby Tuesday of Windsor Commons,,4784 WINDSOR COMMONS COURT,,,FL,32224,Canada,9048210394,,,"Monday 11:00 - 22:00, Monday 11:00 - 22:00, Monday 11:00 - 22:00, Monday 11:00 - 22:00, Monday 11:00 - 22:00, Monday 11:00 - 22:00, Monday 11:00 - 22:00, Monday 11:00 - 22:00",,,0
Ruby Tuesday of Cullman,,6076 ALABAMA HIGHWAY 157 NORTH WEST,,,AL,35055,Canada,2567347616,,,"Monday 11:00 - 22:00, Monday 11:00 - 22:00, Monday 11:00 - 22:00, Monday 11:00 - 22:00, Monday 11:00 - 22:00, Monday 11:00 - 22:00, Monday 11:00 - 22:00, Monday 11:00 - 22:00",,,0
Ruby Tuesday of Litchfield,,7 CORVETTE DRIVE,,,IL,62056,Canada,2173242808,,,"Monday 11:00 - 22:00, Monday 11:00 - 22:00, Monday 11:00 - 22:00, Monday 11:00 - 22:00, Monday 11:00 - 22:00, Monday 11:00 - 22:00, Monday 11:00 - 22:00, Monday 11:00 - 22:00",,,0
Ruby Tuesday of The Avenues,,"10300 SOUTHSIDE BOULEVARD, #242",,,FL,32256,Canada,9043631540,,,"Monday 11:00 - 22:00, Monday 11:00 - 22:00, Monday 11:00 - 22:00, Monday 11:00 - 22:00, Monday 11:00 - 22:00, Monday 11:00 - 22:00, Monday 11:00 - 22:00, Monday 11:00 - 22:00",,,0
Ruby Tuesday of Moody,,2023 VILLAGE DR.,,,AL,35094,Canada,2056407829,,,"Monday 11:00 - 22:00, Monday 11:00 - 22:00, Monday 11:00 - 22:00, Monday 11:00 - 22:00, Monday 11:00 - 22:00, Monday 11:00 - 22:00, Monday 11:00 - 22:00, Monday 11:00 - 22:00",,,0
Ruby Tuesday of Albany,,2626 DAWSON ROAD,,,GA,31707,Canada,2294358414,,,"Monday 11:00 - 23:00, Monday 11:00 - 23:00, Monday 11:00 - 23:00, Monday 11:00 - 23:00, Monday 11:00 - 23:00, Monday 11:00 - 23:00, Monday 11:00 - 23:00, Monday 11:00 - 23:00",,,0
Ruby Tuesday of Trussville,,5957 CHALKVILLE MOUNTAIN RD,,,AL,35235,Canada,2056558284,,,"Monday 11:00 - 22:00, Monday 11:00 - 22:00, Monday 11:00 - 22:00, Monday 11:00 - 22:00, Monday 11:00 - 22:00, Monday 11:00 - 22:00, Monday 11:00 - 22:00, Monday 11:00 - 22:00",,,0
Ruby Tuesday of Alexander City,,4097 U. S. HIGHWAY 280,,,AL,35010,Canada,2562344047,,,"Monday 11:00 - 22:00, Monday 11:00 - 22:00, Monday 11:00 - 22:00, Monday 11:00 - 22:00, Monday 11:00 - 22:00, Monday 11:00 - 22:00, Monday 11:00 - 22:00, Monday 11:00 - 22:00",,,0
Ruby Tuesday of South College,,114 SPIRIT DRIVE,,,AL,36830,Canada,3348267599,,,"Monday 11:00 - 22:00, Monday 11:00 - 22:00, Monday 11:00 - 22:00, Monday 11:00 - 22:00, Monday 11:00 - 22:00, Monday 11:00 - 22:00, Monday 11:00 - 22:00, Monday 11:00 - 22:00",,,0
Ruby Tuesday of Eagle Harbor,,1521 COUNTY ROAD 220,,,FL,32003,Canada,9042696900,,,"Monday 11:00 - 22:00, Monday 11:00 - 22:00, Monday 11:00 - 22:00, Monday 11:00 - 22:00, Monday 11:00 - 22:00, Monday 11:00 - 22:00, Monday 11:00 - 22:00, Monday 11:00 - 22:00",,,0
Ruby Tuesday of Muscle Shoals,,1704 WOODWARD AVE.,,,AL,35661,Canada,2563837031,,,"Monday 11:00 - 22:00, Monday 11:00 - 22:00, Monday 11:00 - 22:00, Monday 11:00 - 22:00, Monday 11:00 - 22:00, Monday 11:00 - 22:00, Monday 11:00 - 22:00, Monday 11:00 - 22:00",,,0
Ruby Tuesday of St. Augustine - State Road 16,,2443 STATE ROAD 16,,,FL,32092,Canada,9048290950,,,"Monday 11:00 - 23:00, Monday 11:00 - 23:00, Monday 11:00 - 23:00, Monday 11:00 - 23:00, Monday 11:00 - 23:00, Monday 11:00 - 23:00, Monday 11:00 - 23:00, Monday 11:00 - 23:00",,,0
Ruby Tuesday of Jasper,,258 HIGHWAY 78 WEST,,,AL,35501,Canada,2053879400,,,"Monday 11:00 - 22:00, Monday 11:00 - 22:00, Monday 11:00 - 22:00, Monday 11:00 - 22:00, Monday 11:00 - 22:00, Monday 11:00 - 22:00, Monday 11:00 - 22:00, Monday 11:00 - 22:00",,,0
Ruby Tuesday of Collinsville,,604 N. BLUFF ROAD,,,IL,62234,Canada,6183459148,,,"Monday 11:00 - 22:00, Monday 11:00 - 22:00, Monday 11:00 - 22:00, Monday 11:00 - 22:00, Monday 11:00 - 22:00, Monday 11:00 - 22:00, Monday 11:00 - 22:00, Monday 11:00 - 22:00",,,0
Ruby Tuesday of Fairview Heights,,6565 NORTH ILLINOIS AVENUE,,,IL,62208,Canada,6183943561,,,"Monday 11:00 - 22:00, Monday 11:00 - 22:00, Monday 11:00 - 22:00, Monday 11:00 - 22:00, Monday 11:00 - 22:00, Monday 11:00 - 22:00, Monday 11:00 - 22:00, Monday 11:00 - 22:00",,,0
Ruby Tuesday of Riverchase,,2000 GALLERIA CIRCLE #200,,,AL,35244,Canada,2059850218,,,"Monday 11:00 - 21:00, Monday 11:00 - 21:00, Monday 11:00 - 21:00, Monday 11:00 - 21:00, Monday 11:00 - 21:00, Monday 11:00 - 21:00, Monday 11:00 - 21:00, Monday 11:00 - 21:00",,,0
Ruby Tuesday of Pelham,,615 CAHABA VALLEY RD,,,AL,35124,Canada,2054030003,,,"Monday 11:00 - 22:00, Monday 11:00 - 22:00, Monday 11:00 - 22:00, Monday 11:00 - 22:00, Monday 11:00 - 22:00, Monday 11:00 - 22:00, Monday 11:00 - 22:00, Monday 11:00 - 22:00",,,0
Ruby Tuesday of Cape Girardeau,,3069 WILLIAM STREET,,,MO,63701,Canada,5733398660,,,"Monday 11:00 - 22:00, Monday 11:00 - 22:00, Monday 11:00 - 22:00, Monday 11:00 - 22:00, Monday 11:00 - 22:00, Monday 11:00 - 22:00, Monday 11:00 - 22:00, Monday 11:00 - 22:00",,,0
Ruby Tuesday of Palm Coast,,60 GARDEN STREET S,,,FL,32137,Canada,3869864314,,,"Monday 11:00 - 22:00, Monday 11:00 - 22:00, Monday 11:00 - 22:00, Monday 11:00 - 22:00, Monday 11:00 - 22:00, Monday 11:00 - 22:00, Monday 11:00 - 22:00, Monday 11:00 - 22:00",,,0
Ruby Tuesday of Alabaster,,710 COLONIAL PROMENADE PARKWAY,,,AL,35007,Canada,2056215416,,,"Monday 11:00 - 22:00, Monday 11:00 - 22:00, Monday 11:00 - 22:00, Monday 11:00 - 22:00, Monday 11:00 - 22:00, Monday 11:00 - 22:00, Monday 11:00 - 22:00, Monday 11:00 - 22:00",,,0
Ruby Tuesday of Lake City,,245 SOUTHWEST COMMERCE DRIVE,,,FL,32025,Canada,3867193845,,,"Monday 11:00 - 23:00, Monday 11:00 - 23:00, Monday 11:00 - 23:00, Monday 11:00 - 23:00, Monday 11:00 - 23:00, Monday 11:00 - 23:00, Monday 11:00 - 23:00, Monday 11:00 - 23:00",,,0
Ruby Tuesday of Bessemer,,808 ACADEMY DR,,,AL,35022,Canada,2054253152,,,"Monday 11:00 - 22:00, Monday 11:00 - 22:00, Monday 11:00 - 22:00, Monday 11:00 - 22:00, Monday 11:00 - 22:00, Monday 11:00 - 22:00, Monday 11:00 - 22:00, Monday 11:00 - 22:00",,,0
Ruby Tuesday of Sikeston,,2612 E. MALONE AVE.,,,MO,63801,Canada,5734722190,,,"Monday 11:00 - 22:00, Monday 11:00 - 22:00, Monday 11:00 - 22:00, Monday 11:00 - 22:00, Monday 11:00 - 22:00, Monday 11:00 - 22:00, Monday 11:00 - 22:00, Monday 11:00 - 22:00",,,0
Ruby Tuesday of Thomasville,,15047 US 19 HIGHWAY SOUTH,,,GA,31792,Canada,2292279670,,,"Monday 11:00 - 22:00, Monday 11:00 - 22:00, Monday 11:00 - 22:00, Monday 11:00 - 22:00, Monday 11:00 - 22:00, Monday 11:00 - 22:00, Monday 11:00 - 22:00, Monday 11:00 - 22:00",,,0
Ruby Tuesday of Bellaire Plaza,,2695 N ATLANTIC AVE,,,FL,32118,Canada,3866772345,,,"Monday 11:00 - 22:00, Monday 11:00 - 22:00, Monday 11:00 - 22:00, Monday 11:00 - 22:00, Monday 11:00 - 22:00, Monday 11:00 - 22:00, Monday 11:00 - 22:00, Monday 11:00 - 22:00",,,0
Ruby Tuesday of East Chase,,6970 EAST CHASE LOOP,,,AL,36117,Canada,3342152285,,,"Monday 11:00 - 22:00, Monday 11:00 - 22:00, Monday 11:00 - 22:00, Monday 11:00 - 22:00, Monday 11:00 - 22:00, Monday 11:00 - 22:00, Monday 11:00 - 22:00, Monday 11:00 - 22:00",,,0
Ruby Tuesday of Corinth,,2110 HIGHWAY 72 WEST,,,MS,38834,Canada,6622872890,,,"Monday 11:00 - 22:00, Monday 11:00 - 22:00, Monday 11:00 - 22:00, Monday 11:00 - 22:00, Monday 11:00 - 22:00, Monday 11:00 - 22:00, Monday 11:00 - 22:00, Monday 11:00 - 22:00",,,0
Ruby Tuesday of Arnold,,3606 WEST OUTER RD,,,MO,63010,Canada,6362873522,,,"Monday 11:00 - 22:00, Monday 11:00 - 22:00, Monday 11:00 - 22:00, Monday 11:00 - 22:00, Monday 11:00 - 22:00, Monday 11:00 - 22:00, Monday 11:00 - 22:00, Monday 11:00 - 22:00",,,0
Ruby Tuesday of Daytona,,1808 INTERNATIONAL SPEEDWAY BLVD.,,,FL,32114,Canada,3862548828,,,"Monday 11:00 - 22:00, Monday 11:00 - 22:00, Monday 11:00 - 22:00, Monday 11:00 - 22:00, Monday 11:00 - 22:00, Monday 11:00 - 22:00, Monday 11:00 - 22:00, Monday 11:00 - 22:00",,,0
Ruby Tuesday of Valley Park,,942 MERAMAC STATION ROAD,,,MO,63088,Canada,6368256330,,,"Monday 11:00 - 22:00, Monday 11:00 - 22:00, Monday 11:00 - 22:00, Monday 11:00 - 22:00, Monday 11:00 - 22:00, Monday 11:00 - 22:00, Monday 11:00 - 22:00, Monday 11:00 - 22:00",,,0
Ruby Tuesday of Festus Sharpiro Place,,1120 SHAPIRO DRIVE,,,MO,63028,Canada,6369336650,,,"Monday 11:00 - 22:00, Monday 11:00 - 22:00, Monday 11:00 - 22:00, Monday 11:00 - 22:00, Monday 11:00 - 22:00, Monday 11:00 - 22:00, Monday 11:00 - 22:00, Monday 11:00 - 22:00",,,0
Ruby Tuesday of Mid-Rivers,,190 MID RIVERS MALL CIRCLE,,,MO,63376,Canada,6362791356,,,"Monday 11:00 - 22:00, Monday 11:00 - 22:00, Monday 11:00 - 22:00, Monday 11:00 - 22:00, Monday 11:00 - 22:00, Monday 11:00 - 22:00, Monday 11:00 - 22:00, Monday 11:00 - 22:00",,,0
"Ruby Tuesday of Gainesville, FL",,6329 NEWBERRY ROAD,,,FL,32605,Canada,3523310033,,,"Monday 11:00 - 22:00, Monday 11:00 - 22:00, Monday 11:00 - 22:00, Monday 11:00 - 22:00, Monday 11:00 - 22:00, Monday 11:00 - 22:00, Monday 11:00 - 22:00, Monday 11:00 - 22:00",,,0
Ruby Tuesday of Tuscaloosa,,6421 INTERSTATE DRIVE,,,AL,35453,Canada,2056333939,,,"Monday 11:00 - 22:00, Monday 11:00 - 22:00, Monday 11:00 - 22:00, Monday 11:00 - 22:00, Monday 11:00 - 22:00, Monday 11:00 - 22:00, Monday 11:00 - 22:00, Monday 11:00 - 22:00",,,0
Ruby Tuesday of Troy,,101 TROY PLAZA LOOP,,,AL,36081,Canada,3345669311,,,"Monday 11:00 - 22:00, Monday 11:00 - 22:00, Monday 11:00 - 22:00, Monday 11:00 - 22:00, Monday 11:00 - 22:00, Monday 11:00 - 22:00, Monday 11:00 - 22:00, Monday 11:00 - 22:00",,,0
Ruby Tuesday of Tuscaloosa-Northport,,311 MERCHANTS WALK,,,AL,35406,Canada,2053454540,,,"Monday 11:00 - 22:00, Monday 11:00 - 22:00, Monday 11:00 - 22:00, Monday 11:00 - 22:00, Monday 11:00 - 22:00, Monday 11:00 - 22:00, Monday 11:00 - 22:00, Monday 11:00 - 22:00",,,0
Ruby Tuesday of Wentzville,,1218 WEST PEARCE,,,MO,63385,Canada,6363273339,,,"Monday 11:00 - 22:00, Monday 11:00 - 22:00, Monday 11:00 - 22:00, Monday 11:00 - 22:00, Monday 11:00 - 22:00, Monday 11:00 - 22:00, Monday 11:00 - 22:00, Monday 11:00 - 22:00",,,0
Ruby Tuesday of Capital Circle,,2491 CARE DRIVE,,,FL,32308,Canada,8502197829,,,"Monday 11:00 - 22:00, Monday 11:00 - 22:00, Monday 11:00 - 22:00, Monday 11:00 - 22:00, Monday 11:00 - 22:00, Monday 11:00 - 22:00, Monday 11:00 - 22:00, Monday 11:00 - 22:00",,,0
Ruby Tuesday of Dothan,,3417 ROSS CLARK CIRCLE,,,AL,36303,Canada,3347028296,,,"Monday 11:00 - 22:00, Monday 11:00 - 22:00, Monday 11:00 - 22:00, Monday 11:00 - 22:00, Monday 11:00 - 22:00, Monday 11:00 - 22:00, Monday 11:00 - 22:00, Monday 11:00 - 22:00",,,0
Ruby Tuesday of Orange City,,1212 SAXON BLVD,,,FL,32763,Canada,3869170300,,,"Monday 11:00 - 22:00, Monday 11:00 - 22:00, Monday 11:00 - 22:00, Monday 11:00 - 22:00, Monday 11:00 - 22:00, Monday 11:00 - 22:00, Monday 11:00 - 22:00, Monday 11:00 - 22:00",,,0
Ruby Tuesday of Ocala,,"3500 S.W. COLLEGE ROAD, #100",,,FL,34474,Canada,3528731999,,,"Monday 11:00 - 22:00, Monday 11:00 - 22:00, Monday 11:00 - 22:00, Monday 11:00 - 22:00, Monday 11:00 - 22:00, Monday 11:00 - 22:00, Monday 11:00 - 22:00, Monday 11:00 - 22:00",,,0
Ruby Tuesday of Enterprise,,625 BOLL WEEVIL CIRCLE,,,AL,36330,Canada,3343475549,,,"Monday 11:00 - 22:00, Monday 11:00 - 22:00, Monday 11:00 - 22:00, Monday 11:00 - 22:00, Monday 11:00 - 22:00, Monday 11:00 - 22:00, Monday 11:00 - 22:00, Monday 11:00 - 22:00",,,0
Ruby Tuesday of The Villages,,1168 MAIN ST,,,FL,32159,Canada,3527511801,,,"Monday 11:00 - 22:00, Monday 11:00 - 22:00, Monday 11:00 - 22:00, Monday 11:00 - 22:00, Monday 11:00 - 22:00, Monday 11:00 - 22:00, Monday 11:00 - 22:00, Monday 11:00 - 22:00",,,0
Ruby Tuesday of Marianna,,2171 POST OAK LANE,,,FL,32448,Canada,8505267100,,,"Monday 11:00 - 22:00, Monday 11:00 - 22:00, Monday 11:00 - 22:00, Monday 11:00 - 22:00, Monday 11:00 - 22:00, Monday 11:00 - 22:00, Monday 11:00 - 22:00, Monday 11:00 - 22:00",,,0
Ruby Tuesday of Greenville,,91 CAHABA ROAD,,,AL,36037,Canada,3343821450,,,"Monday 11:00 - 22:00, Monday 11:00 - 22:00, Monday 11:00 - 22:00, Monday 11:00 - 22:00, Monday 11:00 - 22:00, Monday 11:00 - 22:00, Monday 11:00 - 22:00, Monday 11:00 - 22:00",,,0
Ruby Tuesday of UCF,,11401 UNIVERSITY BLVD.,,,FL,32817,Canada,4072495497,,,"Monday 11:00 - 22:00, Monday 11:00 - 22:00, Monday 11:00 - 22:00, Monday 11:00 - 22:00, Monday 11:00 - 22:00, Monday 11:00 - 22:00, Monday 11:00 - 22:00, Monday 11:00 - 22:00",,,0
Ruby Tuesday of Leesburg,,9616 US HWY 441,,,FL,34788,Canada,3523600455,,,"Monday 11:00 - 22:00, Monday 11:00 - 22:00, Monday 11:00 - 22:00, Monday 11:00 - 22:00, Monday 11:00 - 22:00, Monday 11:00 - 22:00, Monday 11:00 - 22:00, Monday 11:00 - 22:00",,,0
Ruby Tuesday of Merritt Island,,777 EAST MERRITT CAUSEWAY,,,FL,32952,Canada,3214536340,,,"Monday 11:00 - 22:00, Monday 11:00 - 22:00, Monday 11:00 - 22:00, Monday 11:00 - 22:00, Monday 11:00 - 22:00, Monday 11:00 - 22:00, Monday 11:00 - 22:00, Monday 11:00 - 22:00",,,0
Ruby Tuesday of Rockledge,,3780 FISKE BLVD.,,,FL,32955,Canada,3216391058,,,"Monday 11:00 - 22:00, Monday 11:00 - 22:00, Monday 11:00 - 22:00, Monday 11:00 - 22:00, Monday 11:00 - 22:00, Monday 11:00 - 22:00, Monday 11:00 - 22:00, Monday 11:00 - 22:00",,,0
Ruby Tuesday of Sycamore,,1653 SYCAMORE VIEW ROAD,,,TN,38134,Canada,9013829280,,,"Monday 11:00 - 22:00, Monday 11:00 - 22:00, Monday 11:00 - 22:00, Monday 11:00 - 22:00, Monday 11:00 - 22:00, Monday 11:00 - 22:00, Monday 11:00 - 22:00, Monday 11:00 - 22:00",,,0
Ruby Tuesday of the Orlando Airport,,Orlando International Airport Tram,,,FL,32827,Canada,4075067379,,,"Monday 10:00 - 20:00, Monday 10:00 - 20:00, Monday 10:00 - 20:00, Monday 10:00 - 20:00, Monday 10:00 - 20:00, Monday 10:00 - 20:00, Monday 10:00 - 20:00, Monday 10:00 - 20:00",,,0
Ruby Tuesday of Inverness,,2235E GULF TO LAKE HWY,,,FL,34453,Canada,3523441752,,,"Monday 11:00 - 22:00, Monday 11:00 - 22:00, Monday 11:00 - 22:00, Monday 11:00 - 22:00, Monday 11:00 - 22:00, Monday 11:00 - 22:00, Monday 11:00 - 22:00, Monday 11:00 - 22:00",,,0
Ruby Tuesday of Clermont,,2650 EAST HIGHWAY 50,,,FL,34711,Canada,3525369341,,,"Monday 11:00 - 22:00, Monday 11:00 - 22:00, Monday 11:00 - 22:00, Monday 11:00 - 22:00, Monday 11:00 - 22:00, Monday 11:00 - 22:00, Monday 11:00 - 22:00, Monday 11:00 - 22:00",,,0
Ruby Tuesday of Southchase,,13145 S ORANGE BLOSSOM TRAIL,,,FL,32837,Canada,4078548308,,,"Monday 11:00 - 22:00, Monday 11:00 - 22:00, Monday 11:00 - 22:00, Monday 11:00 - 22:00, Monday 11:00 - 22:00, Monday 11:00 - 22:00, Monday 11:00 - 22:00, Monday 11:00 - 22:00",,,0
Ruby Tuesday of Starkville,,110-A HIGHWAY 12 W,,,MS,39759,Canada,6626154245,,,"Monday 11:00 - 22:00, Monday 11:00 - 22:00, Monday 11:00 - 22:00, Monday 11:00 - 22:00, Monday 11:00 - 22:00, Monday 11:00 - 22:00, Monday 11:00 - 22:00, Monday 11:00 - 22:00",,,0
Ruby Tuesday of Sebastian,,13675 US HWY 1,,,FL,32958,Canada,7725892623,,,"Monday 11:00 - 22:00, Monday 11:00 - 22:00, Monday 11:00 - 22:00, Monday 11:00 - 22:00, Monday 11:00 - 22:00, Monday 11:00 - 22:00, Monday 11:00 - 22:00, Monday 11:00 - 22:00",,,0
Ruby Tuesday of Jonesboro,,2915 KAZI STREET,,,AR,72401,Canada,8709348394,,,"Monday 11:00 - 22:00, Monday 11:00 - 22:00, Monday 11:00 - 22:00, Monday 11:00 - 22:00, Monday 11:00 - 22:00, Monday 11:00 - 22:00, Monday 11:00 - 22:00, Monday 11:00 - 22:00",,,0
Ruby Tuesday of Spring Hill,,13095 CORTEZ BLVD.,,,FL,34613,Canada,3525924435,,,"Monday 11:00 - 23:00, Monday 11:00 - 23:00, Monday 11:00 - 23:00, Monday 11:00 - 23:00, Monday 11:00 - 23:00, Monday 11:00 - 23:00, Monday 11:00 - 23:00, Monday 11:00 - 23:00",,,0
Ruby Tuesday of Vero Beach,,1825 58TH STREET,,,FL,32966,Canada,7725696464,,,"Monday 11:00 - 22:00, Monday 11:00 - 22:00, Monday 11:00 - 22:00, Monday 11:00 - 22:00, Monday 11:00 - 22:00, Monday 11:00 - 22:00, Monday 11:00 - 22:00, Monday 11:00 - 22:00",,,0
Ruby Tuesday of Zephyrhills,,7909 GALL BLVD.,,,FL,33542,Canada,8137831115,,,"Monday 11:00 - 22:00, Monday 11:00 - 22:00, Monday 11:00 - 22:00, Monday 11:00 - 22:00, Monday 11:00 - 22:00, Monday 11:00 - 22:00, Monday 11:00 - 22:00, Monday 11:00 - 22:00",,,0
Ruby Tuesday of Kirksville,,2510 NORTH BALTIMORE STREET,,,MO,63501,Canada,6606653588,,,"Monday 11:00 - 22:00, Monday 11:00 - 22:00, Monday 11:00 - 22:00, Monday 11:00 - 22:00, Monday 11:00 - 22:00, Monday 11:00 - 22:00, Monday 11:00 - 22:00, Monday 11:00 - 22:00",,,0
Ruby Tuesday of Cypress Gardens,,5995 CYPRESS GARDENS BLVD.,,,FL,33884,Canada,8633246300,,,"Monday 11:00 - 22:00, Monday 11:00 - 22:00, Monday 11:00 - 22:00, Monday 11:00 - 22:00, Monday 11:00 - 22:00, Monday 11:00 - 22:00, Monday 11:00 - 22:00, Monday 11:00 - 22:00",,,0
Ruby Tuesday of Jefferson City,,2300 MISSOURI BLVD.,,,MO,65109,Canada,5735568094,,,"Monday 11:00 - 22:00, Monday 11:00 - 22:00, Monday 11:00 - 22:00, Monday 11:00 - 22:00, Monday 11:00 - 22:00, Monday 11:00 - 22:00, Monday 11:00 - 22:00, Monday 11:00 - 22:00",,,0
Ruby Tuesday of Columbia Plaza,,2010 BERNADETTE DR.,,,MO,65203,Canada,5734468212,,,"Monday 11:00 - 22:00, Monday 11:00 - 22:00, Monday 11:00 - 22:00, Monday 11:00 - 22:00, Monday 11:00 - 22:00, Monday 11:00 - 22:00, Monday 11:00 - 22:00, Monday 11:00 - 22:00",,,0
Ruby Tuesday of Lakeland,,3635 SOUTH FLORIDA AVE.,,,FL,33813,Canada,8637017829,,,"Monday 11:00 - 22:00, Monday 11:00 - 22:00, Monday 11:00 - 22:00, Monday 11:00 - 22:00, Monday 11:00 - 22:00, Monday 11:00 - 22:00, Monday 11:00 - 22:00, Monday 11:00 - 22:00",,,0
Ruby Tuesday of New Port Richey,,8512 RIDGE RD,,,FL,34654,Canada,7278438809,,,"Monday 11:00 - 22:00, Monday 11:00 - 22:00, Monday 11:00 - 22:00, Monday 11:00 - 22:00, Monday 11:00 - 22:00, Monday 11:00 - 22:00, Monday 11:00 - 22:00, Monday 11:00 - 22:00",,,0
Ruby Tuesday of New Tampa,,17520 BRUCE B. DOWNS BLVD.,,,FL,33647,Canada,8139790007,,,"Monday 11:00 - 23:00, Monday 11:00 - 23:00, Monday 11:00 - 23:00, Monday 11:00 - 23:00, Monday 11:00 - 23:00, Monday 11:00 - 23:00, Monday 11:00 - 23:00, Monday 11:00 - 23:00",,,0
Ruby Tuesday of Bartow,,1710 N. BROADWAY,,,FL,33830,Canada,8635199622,,,"Monday 11:00 - 22:00, Monday 11:00 - 22:00, Monday 11:00 - 22:00, Monday 11:00 - 22:00, Monday 11:00 - 22:00, Monday 11:00 - 22:00, Monday 11:00 - 22:00, Monday 11:00 - 22:00",,,0
Ruby Tuesday of Niceville,,191 EAST JOHN SIMS PARKWAY,,,FL,32578,Canada,8507291014,,,"Monday 11:00 - 23:00, Monday 11:00 - 23:00, Monday 11:00 - 23:00, Monday 11:00 - 23:00, Monday 11:00 - 23:00, Monday 11:00 - 23:00, Monday 11:00 - 23:00, Monday 11:00 - 23:00",,,0
Ruby Tuesday of St. Robert,,135 ST. ROBERTS BLVD,,,MO,65584,Canada,5733365140,,,"Monday 11:00 - 22:00, Monday 11:00 - 22:00, Monday 11:00 - 22:00, Monday 11:00 - 22:00, Monday 11:00 - 22:00, Monday 11:00 - 22:00, Monday 11:00 - 22:00, Monday 11:00 - 22:00",,,0
Ruby Tuesday of St Lucie,,1500 NW COURTYARD CIRCLE,,,FL,34986,Canada,7723402575,,,"Monday 11:00 - 22:00, Monday 11:00 - 22:00, Monday 11:00 - 22:00, Monday 11:00 - 22:00, Monday 11:00 - 22:00, Monday 11:00 - 22:00, Monday 11:00 - 22:00, Monday 11:00 - 22:00",,,0
Ruby Tuesday of Treasure Coast,,3000 N.W. FEDERAL HWY.,,,FL,34957,Canada,7726922974,,,"Monday 11:00 - 22:00, Monday 11:00 - 22:00, Monday 11:00 - 22:00, Monday 11:00 - 22:00, Monday 11:00 - 22:00, Monday 11:00 - 22:00, Monday 11:00 - 22:00, Monday 11:00 - 22:00",,,0
Ruby Tuesday of West Plains,,1008 WOORLEY DRIVE,,,MO,65775,Canada,4172551510,,,"Monday 11:00 - 22:00, Monday 11:00 - 22:00, Monday 11:00 - 22:00, Monday 11:00 - 22:00, Monday 11:00 - 22:00, Monday 11:00 - 22:00, Monday 11:00 - 22:00, Monday 11:00 - 22:00",,,0
Ruby Tuesday of Valrico,,1812 E. STATE RD 60,,,FL,33594,Canada,8138490070,,,"Monday 11:00 - 22:00, Monday 11:00 - 22:00, Monday 11:00 - 22:00, Monday 11:00 - 22:00, Monday 11:00 - 22:00, Monday 11:00 - 22:00, Monday 11:00 - 22:00, Monday 11:00 - 22:00",,,0
Ruby Tuesday of Beal Pkwy @ Meco,,573 NORTH BEAL PARKWAY,,,FL,32548,Canada,8508620295,,,"Monday 11:00 - 22:00, Monday 11:00 - 22:00, Monday 11:00 - 22:00, Monday 11:00 - 22:00, Monday 11:00 - 22:00, Monday 11:00 - 22:00, Monday 11:00 - 22:00, Monday 11:00 - 22:00",,,0
Ruby Tuesday of Palm City,,3290 SW MARTIN DOWNS,,,FL,34990,Canada,7724635302,,,"Monday 11:00 - 22:00, Monday 11:00 - 22:00, Monday 11:00 - 22:00, Monday 11:00 - 22:00, Monday 11:00 - 22:00, Monday 11:00 - 22:00, Monday 11:00 - 22:00, Monday 11:00 - 22:00",,,0
Ruby Tuesday of Oldsmar,,3138 TAMPA ROAD,,,FL,34677,Canada,7277892577,,,"Monday 11:00 - 22:00, Monday 11:00 - 22:00, Monday 11:00 - 22:00, Monday 11:00 - 22:00, Monday 11:00 - 22:00, Monday 11:00 - 22:00, Monday 11:00 - 22:00, Monday 11:00 - 22:00",,,0
Ruby Tuesday of Tampa Commons,,201 NORTH DALE MABRY HIGHWAY,,,FL,33609,Canada,8138792510,,,"Monday 11:00 - 23:00, Monday 11:00 - 23:00, Monday 11:00 - 23:00, Monday 11:00 - 23:00, Monday 11:00 - 23:00, Monday 11:00 - 23:00, Monday 11:00 - 23:00, Monday 11:00 - 23:00",,,0
Ruby Tuesday of Gibsonton,,10509 GIBSONTON DRIVE,,,FL,33569,Canada,8136724524,,,"Monday 11:00 - 22:00, Monday 11:00 - 22:00, Monday 11:00 - 22:00, Monday 11:00 - 22:00, Monday 11:00 - 22:00, Monday 11:00 - 22:00, Monday 11:00 - 22:00, Monday 11:00 - 22:00",,,0
Ruby Tuesday of Sebring,,4228 SEBRING PARKWAY,,,FL,33870,Canada,8633861110,,,"Monday 11:00 - 22:00, Monday 11:00 - 22:00, Monday 11:00 - 22:00, Monday 11:00 - 22:00, Monday 11:00 - 22:00, Monday 11:00 - 22:00, Monday 11:00 - 22:00, Monday 11:00 - 22:00",,,0
Ruby Tuesday of Mason City,,3115 4th Street SW,,,IA,50401,Canada,6414249990,,,"Monday 11:00 - 22:00, Monday 11:00 - 22:00, Monday 11:00 - 22:00, Monday 11:00 - 22:00, Monday 11:00 - 22:00, Monday 11:00 - 22:00, Monday 11:00 - 22:00, Monday 11:00 - 22:00",,,0
Ruby Tuesday of Pace,,4917HIGHWAY 90,,,FL,32571,Canada,8509943660,,,"Monday 11:00 - 22:00, Monday 11:00 - 22:00, Monday 11:00 - 22:00, Monday 11:00 - 22:00, Monday 11:00 - 22:00, Monday 11:00 - 22:00, Monday 11:00 - 22:00, Monday 11:00 - 22:00",,,0
Ruby Tuesday of Inver Grove Heights,,9051 BUCHANON TRAIL,,,MN,55077,Canada,6514551272,,,"Monday 11:00 - 22:00, Monday 11:00 - 22:00, Monday 11:00 - 22:00, Monday 11:00 - 22:00, Monday 11:00 - 22:00, Monday 11:00 - 22:00, Monday 11:00 - 22:00, Monday 11:00 - 22:00",,,0
Ruby Tuesday of Tiger Pointe Gulf Breeze,,3805 GULF BREEZE PKWY,,,FL,32563,Canada,8509166565,,,"Monday 11:00 - 22:00, Monday 11:00 - 22:00, Monday 11:00 - 22:00, Monday 11:00 - 22:00, Monday 11:00 - 22:00, Monday 11:00 - 22:00, Monday 11:00 - 22:00, Monday 11:00 - 22:00",,,0
Ruby Tuesday of St. Petersburg,,6708 TYRONE  SQUARE,,,FL,33710,Canada,7273476611,,,"Monday 11:00 - 22:00, Monday 11:00 - 22:00, Monday 11:00 - 22:00, Monday 11:00 - 22:00, Monday 11:00 - 22:00, Monday 11:00 - 22:00, Monday 11:00 - 22:00, Monday 11:00 - 22:00",,,0
Ruby Tuesday of Pensacola Pine Forest,,110 LOBLOLLY LANE,,,FL,32526,Canada,8509412512,,,"Monday 11:00 - 22:00, Monday 11:00 - 22:00, Monday 11:00 - 22:00, Monday 11:00 - 22:00, Monday 11:00 - 22:00, Monday 11:00 - 22:00, Monday 11:00 - 22:00, Monday 11:00 - 22:00",,,0
Ruby Tuesday of Rosedale Ctr,,325 ROSEDALE CENTER,,,MN,55113,Canada,6516350985,,,"Monday 11:00 - 22:00, Monday 11:00 - 22:00, Monday 11:00 - 22:00, Monday 11:00 - 22:00, Monday 11:00 - 22:00, Monday 11:00 - 22:00, Monday 11:00 - 22:00, Monday 11:00 - 22:00",,,0
Ruby Tuesday of Bay Minette,,806 MCMEANS AVE.,,,AL,36507,Canada,2515800430,,,"Monday 11:00 - 22:00, Monday 11:00 - 22:00, Monday 11:00 - 22:00, Monday 11:00 - 22:00, Monday 11:00 - 22:00, Monday 11:00 - 22:00, Monday 11:00 - 22:00, Monday 11:00 - 22:00",,,0
Ruby Tuesday of Navy Blvd.,,545 North Navy Blvd.,,,FL,32507,Canada,8504569939,,,"Monday 11:00 - 22:00, Monday 11:00 - 22:00, Monday 11:00 - 22:00, Monday 11:00 - 22:00, Monday 11:00 - 22:00, Monday 11:00 - 22:00, Monday 11:00 - 22:00, Monday 11:00 - 22:00",,,0
Ruby Tuesday of Edina,,1975 SOUTHDALE MALL,,,MN,55435,Canada,9529289906,,,"Monday 11:00 - 23:00, Monday 11:00 - 23:00, Monday 11:00 - 23:00, Monday 11:00 - 23:00, Monday 11:00 - 23:00, Monday 11:00 - 23:00, Monday 11:00 - 23:00, Monday 11:00 - 23:00",,,0
Ruby Tuesday of Ellenton,,5802 20TH ST EAST,,,FL,34222,Canada,9417216341,,,"Monday 11:00 - 22:00, Monday 11:00 - 22:00, Monday 11:00 - 22:00, Monday 11:00 - 22:00, Monday 11:00 - 22:00, Monday 11:00 - 22:00, Monday 11:00 - 22:00, Monday 11:00 - 22:00",,,0
Ruby Tuesday of Royal Palm Beach,,1271 N. STATE RD 7,,,FL,33411,Canada,5613838200,,,"Monday 11:00 - 22:00, Monday 11:00 - 22:00, Monday 11:00 - 22:00, Monday 11:00 - 22:00, Monday 11:00 - 22:00, Monday 11:00 - 22:00, Monday 11:00 - 22:00, Monday 11:00 - 22:00",,,0
Ruby Tuesday of Urbandale,,4900 86TH STREET,,,IA,50322,Canada,5152784476,,,"Monday 11:00 - 22:00, Monday 11:00 - 22:00, Monday 11:00 - 22:00, Monday 11:00 - 22:00, Monday 11:00 - 22:00, Monday 11:00 - 22:00, Monday 11:00 - 22:00, Monday 11:00 - 22:00",,,0
Ruby Tuesday of Shakopee,,4135 DEAN LAKES BOULEVARD,,,MN,55379,Canada,9524037893,,,"Monday 11:00 - 23:00, Monday 11:00 - 23:00, Monday 11:00 - 23:00, Monday 11:00 - 23:00, Monday 11:00 - 23:00, Monday 11:00 - 23:00, Monday 11:00 - 23:00, Monday 11:00 - 23:00",,,0
Ruby Tuesday of Spanish Fort,,"30500 HIGHWAY 181, SUITE E",,,AL,36527,Canada,2516250491,,,"Monday 11:00 - 22:00, Monday 11:00 - 22:00, Monday 11:00 - 22:00, Monday 11:00 - 22:00, Monday 11:00 - 22:00, Monday 11:00 - 22:00, Monday 11:00 - 22:00, Monday 11:00 - 22:00",,,0
Ruby Tuesday of Cooper Creek,,8306 TOURIST CENTER DRIVE,,,FL,34201,Canada,9413603687,,,"Monday 11:00 - 22:00, Monday 11:00 - 22:00, Monday 11:00 - 22:00, Monday 11:00 - 22:00, Monday 11:00 - 22:00, Monday 11:00 - 22:00, Monday 11:00 - 22:00, Monday 11:00 - 22:00",,,0
Ruby Tuesday of Saraland,,1206 SHELTON BEACH ROAD,,,AL,36571,Canada,2516794072,,,"Monday 11:00 - 23:00, Monday 11:00 - 23:00, Monday 11:00 - 23:00, Monday 11:00 - 23:00, Monday 11:00 - 23:00, Monday 11:00 - 23:00, Monday 11:00 - 23:00, Monday 11:00 - 23:00",,,0
Ruby Tuesday of Foley,,2500 SOUTH MCKENZIE STREET,,,AL,36535,Canada,2519712800,,,"Monday 11:00 - 22:00, Monday 11:00 - 22:00, Monday 11:00 - 22:00, Monday 11:00 - 22:00, Monday 11:00 - 22:00, Monday 11:00 - 22:00, Monday 11:00 - 22:00, Monday 11:00 - 22:00",,,0
Ruby Tuesday of Fairhope,,901 FAIRHOPE AVE.,,,AL,36532,Canada,2519905077,,,"Monday 11:00 - 22:00, Monday 11:00 - 22:00, Monday 11:00 - 22:00, Monday 11:00 - 22:00, Monday 11:00 - 22:00, Monday 11:00 - 22:00, Monday 11:00 - 22:00, Monday 11:00 - 22:00",,,0
Ruby Tuesday of Sarasota Square,,8201 SOUTH TAMIAMI TRAIL,,,FL,34238,Canada,9419268804,,,"Monday 11:00 - 22:00, Monday 11:00 - 22:00, Monday 11:00 - 22:00, Monday 11:00 - 22:00, Monday 11:00 - 22:00, Monday 11:00 - 22:00, Monday 11:00 - 22:00, Monday 11:00 - 22:00",,,0
Ruby Tuesday of McGregor Square,,3930-2 AIRPORT BLVD,,,AL,36608,Canada,2513408168,,,"Monday 11:00 - 22:00, Monday 11:00 - 22:00, Monday 11:00 - 22:00, Monday 11:00 - 22:00, Monday 11:00 - 22:00, Monday 11:00 - 22:00, Monday 11:00 - 22:00, Monday 11:00 - 22:00",,,0
Ruby Tuesday of Pt Charlotte,,"1441 TAMIAMI TRAIL, SPACE #995",,,FL,33948,Canada,9416297144,,,"Monday 11:00 - 22:00, Monday 11:00 - 22:00, Monday 11:00 - 22:00, Monday 11:00 - 22:00, Monday 11:00 - 22:00, Monday 11:00 - 22:00, Monday 11:00 - 22:00, Monday 11:00 - 22:00",,,0
Ruby Tuesday of Tillmans Corner,,"5205 SERVICE RD, SOUTH HIGGINS RD",,,AL,36619,Canada,2516621287,,,"Monday 11:00 - 22:00, Monday 11:00 - 22:00, Monday 11:00 - 22:00, Monday 11:00 - 22:00, Monday 11:00 - 22:00, Monday 11:00 - 22:00, Monday 11:00 - 22:00, Monday 11:00 - 22:00",,,0
Ruby Tuesday of Deerfield Beach,,3887 W HILLSBOROUGH BLVD,,,FL,33442,Canada,9547258151,,,"Monday 11:00 - 22:00, Monday 11:00 - 22:00, Monday 11:00 - 22:00, Monday 11:00 - 22:00, Monday 11:00 - 22:00, Monday 11:00 - 22:00, Monday 11:00 - 22:00, Monday 11:00 - 22:00",,,0
Ruby Tuesday of North Springfield,,2725 NORTH GLENSTONE AVENUE,,,MO,65803,Canada,4178317829,,,"Monday 11:00 - 22:00, Monday 11:00 - 22:00, Monday 11:00 - 22:00, Monday 11:00 - 22:00, Monday 11:00 - 22:00, Monday 11:00 - 22:00, Monday 11:00 - 22:00, Monday 11:00 - 22:00",,,0
Ruby Tuesday of Pompano Beach,,299 SW 26TH AVE,,,FL,33069,Canada,9549698082,,,"Monday 11:00 - 22:00, Monday 11:00 - 22:00, Monday 11:00 - 22:00, Monday 11:00 - 22:00, Monday 11:00 - 22:00, Monday 11:00 - 22:00, Monday 11:00 - 22:00, Monday 11:00 - 22:00",,,0
Ruby Tuesday of Springfield,,2825 SOUTH GLENSTONE AVENUE,,,MO,65804,Canada,4178895866,,,"Monday 11:00 - 22:00, Monday 11:00 - 22:00, Monday 11:00 - 22:00, Monday 11:00 - 22:00, Monday 11:00 - 22:00, Monday 11:00 - 22:00, Monday 11:00 - 22:00, Monday 11:00 - 22:00",,,0
Ruby Tuesday of Pearl,,320 SOUTH PEARSON RD,,,MS,39208,Canada,6014209353,,,"Monday 11:00 - 23:00, Monday 11:00 - 23:00, Monday 11:00 - 23:00, Monday 11:00 - 23:00, Monday 11:00 - 23:00, Monday 11:00 - 23:00, Monday 11:00 - 23:00, Monday 11:00 - 23:00",,,0
Ruby Tuesday of Universal Plaza,,7736 W COMMERCIAL  BLVD,,,FL,33351,Canada,9547494242,,,"Monday 11:00 - 23:00, Monday 11:00 - 23:00, Monday 11:00 - 23:00, Monday 11:00 - 23:00, Monday 11:00 - 23:00, Monday 11:00 - 23:00, Monday 11:00 - 23:00, Monday 11:00 - 23:00",,,0
Ruby Tuesday of Cape Coral Northpoint,,1851 PINE ISLAND ROAD NE,,,FL,33909,Canada,2395730469,,,"Monday 16:00 - 22:00, Monday 16:00 - 22:00, Monday 16:00 - 22:00, Monday 16:00 - 22:00, Monday 16:00 - 22:00, Monday 16:00 - 22:00, Monday 16:00 - 22:00, Monday 16:00 - 22:00",,,0
Ruby Tuesday of Hiatus-Davie,,11590 WEST STATE ROAD 84,,,FL,33325,Canada,9544728288,,,"Monday 11:00 - 22:00, Monday 11:00 - 22:00, Monday 11:00 - 22:00, Monday 11:00 - 22:00, Monday 11:00 - 22:00, Monday 11:00 - 22:00, Monday 11:00 - 22:00, Monday 11:00 - 22:00",,,0
Ruby Tuesday of Cape Coral Midpoint,,2514 SANTA BARBARA BLVD,,,FL,33914,Canada,2392422131,,,"Monday 11:00 - 22:00, Monday 11:00 - 22:00, Monday 11:00 - 22:00, Monday 11:00 - 22:00, Monday 11:00 - 22:00, Monday 11:00 - 22:00, Monday 11:00 - 22:00, Monday 11:00 - 22:00",,,0
Ruby Tuesday of Branson,,3316 WEST HIGHWAY 76,,,MO,65616,Canada,4173355450,,,"Monday 11:00 - 23:00, Monday 11:00 - 23:00, Monday 11:00 - 23:00, Monday 11:00 - 23:00, Monday 11:00 - 23:00, Monday 11:00 - 23:00, Monday 11:00 - 23:00, Monday 11:00 - 23:00",,,0
Ruby Tuesday of Moss Point,,6736 HIGHWAY 63,,,MS,39563,Canada,2284755100,,,"Monday 11:00 - 23:00, Monday 11:00 - 23:00, Monday 11:00 - 23:00, Monday 11:00 - 23:00, Monday 11:00 - 23:00, Monday 11:00 - 23:00, Monday 11:00 - 23:00, Monday 11:00 - 23:00",,,0
Ruby Tuesday of Healthpark,,9001 PARK ROYAL DRIVE,,,FL,33908,Canada,2392678988,,,"Monday 11:00 - 23:00, Monday 11:00 - 23:00, Monday 11:00 - 23:00, Monday 11:00 - 23:00, Monday 11:00 - 23:00, Monday 11:00 - 23:00, Monday 11:00 - 23:00, Monday 11:00 - 23:00",,,0
Ruby Tuesday of Estero,,21301 TOWN COMMONS DRIVE,,,FL,33928,Canada,2394958672,,,"Monday 11:00 - 22:00, Monday 11:00 - 22:00, Monday 11:00 - 22:00, Monday 11:00 - 22:00, Monday 11:00 - 22:00, Monday 11:00 - 22:00, Monday 11:00 - 22:00, Monday 11:00 - 22:00",,,0
Ruby Tuesday of Miami Lakes,,15281 NORTH WEST 67TH AVE,,,FL,33014,Canada,3058206065,,,"Monday 11:00 - 23:00, Monday 11:00 - 23:00, Monday 11:00 - 23:00, Monday 11:00 - 23:00, Monday 11:00 - 23:00, Monday 11:00 - 23:00, Monday 11:00 - 23:00, Monday 11:00 - 23:00",,,0
Ruby Tuesday of Independence,,14001 E. 40 HIGHWAY,,,MO,64136,Canada,8163736465,,,"Monday 11:00 - 22:00, Monday 11:00 - 22:00, Monday 11:00 - 22:00, Monday 11:00 - 22:00, Monday 11:00 - 22:00, Monday 11:00 - 22:00, Monday 11:00 - 22:00, Monday 11:00 - 22:00",,,0
Ruby Tuesday of Diberville,,12037 INDIAN RIVER ROAD,,,MS,39540,Canada,2283920881,,,"Monday 11:00 - 22:00, Monday 11:00 - 22:00, Monday 11:00 - 22:00, Monday 11:00 - 22:00, Monday 11:00 - 22:00, Monday 11:00 - 22:00, Monday 11:00 - 22:00, Monday 11:00 - 22:00",,,0
Ruby Tuesday of Bryant,,23236 I-30,,,AR,72022,Canada,5016532500,,,"Monday 11:00 - 22:00, Monday 11:00 - 22:00, Monday 11:00 - 22:00, Monday 11:00 - 22:00, Monday 11:00 - 22:00, Monday 11:00 - 22:00, Monday 11:00 - 22:00, Monday 11:00 - 22:00",,,0
Ruby Tuesday of Naples,,8777 TAMIAMI TRAIL NORTH,,,FL,34108,Canada,2395141350,,,"Monday 11:00 - 22:00, Monday 11:00 - 22:00, Monday 11:00 - 22:00, Monday 11:00 - 22:00, Monday 11:00 - 22:00, Monday 11:00 - 22:00, Monday 11:00 - 22:00, Monday 11:00 - 22:00",,,0
Ruby Tuesday of Northgate Village,,2909 BURLINGTON AVE.,,,MO,64116,Canada,8162212828,,,"Monday 11:00 - 22:00, Monday 11:00 - 22:00, Monday 11:00 - 22:00, Monday 11:00 - 22:00, Monday 11:00 - 22:00, Monday 11:00 - 22:00, Monday 11:00 - 22:00, Monday 11:00 - 22:00",,,0
Ruby Tuesday of Belton,,1300 EAST NORTH AVE.,,,MO,64012,Canada,8163180491,,,"Monday 11:00 - 22:00, Monday 11:00 - 22:00, Monday 11:00 - 22:00, Monday 11:00 - 22:00, Monday 11:00 - 22:00, Monday 11:00 - 22:00, Monday 11:00 - 22:00, Monday 11:00 - 22:00",,,0
Ruby Tuesday of Tiffany Springs,,9770 NW PRAIRIEVIEW ROAD,,,MO,64153,Canada,8168917091,,,"Monday 11:00 - 23:00, Monday 11:00 - 23:00, Monday 11:00 - 23:00, Monday 11:00 - 23:00, Monday 11:00 - 23:00, Monday 11:00 - 23:00, Monday 11:00 - 23:00, Monday 11:00 - 23:00",,,0
Ruby Tuesday of Russellville,,115 EAST HARRELL DRIVE,,,AR,72802,Canada,4798587151,,,"Monday 11:00 - 22:00, Monday 11:00 - 22:00, Monday 11:00 - 22:00, Monday 11:00 - 22:00, Monday 11:00 - 22:00, Monday 11:00 - 22:00, Monday 11:00 - 22:00, Monday 11:00 - 22:00",,,0
Ruby Tuesday of Deerwood Plaza,,12075 SW 152ND STREET,,,FL,33177,Canada,3052386036,,,"Monday 11:00 - 23:00, Monday 11:00 - 23:00, Monday 11:00 - 23:00, Monday 11:00 - 23:00, Monday 11:00 - 23:00, Monday 11:00 - 23:00, Monday 11:00 - 23:00, Monday 11:00 - 23:00",,,0
Ruby Tuesday of McComb,,1803 PIKES POINT PLACE,,,MS,39648,Canada,6016840983,,,"Monday 11:00 - 22:00, Monday 11:00 - 22:00, Monday 11:00 - 22:00, Monday 11:00 - 22:00, Monday 11:00 - 22:00, Monday 11:00 - 22:00, Monday 11:00 - 22:00, Monday 11:00 - 22:00",,,0
Ruby Tuesday of Joplin,,3231 RANGELINE ROAD,,,MO,64804,Canada,4176269656,,,"Monday 11:00 - 22:00, Monday 11:00 - 22:00, Monday 11:00 - 22:00, Monday 11:00 - 22:00, Monday 11:00 - 22:00, Monday 11:00 - 22:00, Monday 11:00 - 22:00, Monday 11:00 - 22:00",,,0
Ruby Tuesday of Slidell,,798 E I-10 SERVICE RD,,,LA,70458,Canada,9856393466,,,"Monday 11:00 - 22:00, Monday 11:00 - 22:00, Monday 11:00 - 22:00, Monday 11:00 - 22:00, Monday 11:00 - 22:00, Monday 11:00 - 22:00, Monday 11:00 - 22:00, Monday 11:00 - 22:00",,,0
Ruby Tuesday of Council Bluffs,,3150 24TH AVENUE,,,IA,51501,Canada,7123280046,,,"Monday 11:00 - 22:00, Monday 11:00 - 22:00, Monday 11:00 - 22:00, Monday 11:00 - 22:00, Monday 11:00 - 22:00, Monday 11:00 - 22:00, Monday 11:00 - 22:00, Monday 11:00 - 22:00",,,0
Ruby Tuesday of Cornhusker,,2008 CORNHUSKER RD,,,NE,68123,Canada,4022929500,,,"Monday 11:00 - 22:00, Monday 11:00 - 22:00, Monday 11:00 - 22:00, Monday 11:00 - 22:00, Monday 11:00 - 22:00, Monday 11:00 - 22:00, Monday 11:00 - 22:00, Monday 11:00 - 22:00",,,0
Ruby Tuesday of Natchez,,"55 SEARGENT S. PRENTISS DR, SUITE 26",,,MS,39120,Canada,6014454463,,,"Monday 11:00 - 23:00, Monday 11:00 - 23:00, Monday 11:00 - 23:00, Monday 11:00 - 23:00, Monday 11:00 - 23:00, Monday 11:00 - 23:00, Monday 11:00 - 23:00, Monday 11:00 - 23:00",,,0
Ruby Tuesday of Sioux Falls,,2425 S SHIRLEY AVE SUITE 110,,,SD,57106,Canada,6052752425,,,"Monday 11:00 - 22:00, Monday 11:00 - 22:00, Monday 11:00 - 22:00, Monday 11:00 - 22:00, Monday 11:00 - 22:00, Monday 11:00 - 22:00, Monday 11:00 - 22:00, Monday 11:00 - 22:00",,,0
Ruby Tuesday of North 27th Street,,2700 NORTH HILL ROAD,,,NE,68504,Canada,4024777829,,,"Monday 11:00 - 22:00, Monday 11:00 - 22:00, Monday 11:00 - 22:00, Monday 11:00 - 22:00, Monday 11:00 - 22:00, Monday 11:00 - 22:00, Monday 11:00 - 22:00, Monday 11:00 - 22:00",,,0
Ruby Tuesday of Texarkana,,4330 ST. MICHAEL DRIVE,,,TX,75503,Canada,9038386838,,,"Monday 11:00 - 22:00, Monday 11:00 - 22:00, Monday 11:00 - 22:00, Monday 11:00 - 22:00, Monday 11:00 - 22:00, Monday 11:00 - 22:00, Monday 11:00 - 22:00, Monday 11:00 - 22:00",,,0
Ruby Tuesday of Fargo South,,2535 23RD AVE S,,,ND,58103,Canada,7012322012,,,"Monday 11:00 - 22:00, Monday 11:00 - 22:00, Monday 11:00 - 22:00, Monday 11:00 - 22:00, Monday 11:00 - 22:00, Monday 11:00 - 22:00, Monday 11:00 - 22:00, Monday 11:00 - 22:00",,,0
Ruby Tuesday of 31st & Memorial,,7806 EAST SKELLY DRIVE,,,OK,74145,Canada,9186220781,,,"Monday 11:00 - 22:00, Monday 11:00 - 22:00, Monday 11:00 - 22:00, Monday 11:00 - 22:00, Monday 11:00 - 22:00, Monday 11:00 - 22:00, Monday 11:00 - 22:00, Monday 11:00 - 22:00",,,0
Ruby Tuesday of New Iberia,,2813 HIGHWAY 14,,,LA,70560,Canada,3373677101,,,"Monday 11:00 - 23:00, Monday 11:00 - 23:00, Monday 11:00 - 23:00, Monday 11:00 - 23:00, Monday 11:00 - 23:00, Monday 11:00 - 23:00, Monday 11:00 - 23:00, Monday 11:00 - 23:00",,,0
Ruby Tuesday of Mitchell,,1900 HIGHLAND WAY,,,SD,57301,Canada,6059965208,,,"Monday 11:00 - 23:00, Monday 11:00 - 23:00, Monday 11:00 - 23:00, Monday 11:00 - 23:00, Monday 11:00 - 23:00, Monday 11:00 - 23:00, Monday 11:00 - 23:00, Monday 11:00 - 23:00",,,0
Ruby Tuesday of Grand Forks,,3915 32nd Avenue South,,,ND,58201,Canada,7017721105,,,"Monday 11:00 - 22:00, Monday 11:00 - 22:00, Monday 11:00 - 22:00, Monday 11:00 - 22:00, Monday 11:00 - 22:00, Monday 11:00 - 22:00, Monday 11:00 - 22:00, Monday 11:00 - 22:00",,,0
Ruby Tuesday of Grand Island,,3429 WEST 13TH STREET,,,NE,68803,Canada,3083829390,,,"Monday 11:00 - 22:00, Monday 11:00 - 22:00, Monday 11:00 - 22:00, Monday 11:00 - 22:00, Monday 11:00 - 22:00, Monday 11:00 - 22:00, Monday 11:00 - 22:00, Monday 11:00 - 22:00",,,0
Ruby Tuesday of Aberdeen,,3125 6TH AVE. SE,,,SD,57401,Canada,6052621500,,,"Monday 11:00 - 22:00, Monday 11:00 - 22:00, Monday 11:00 - 22:00, Monday 11:00 - 22:00, Monday 11:00 - 22:00, Monday 11:00 - 22:00, Monday 11:00 - 22:00, Monday 11:00 - 22:00",,,0
Ruby Tuesday of Kearney,,108 FIRST AVENUE PLACE,,,NE,68847,Canada,3082342500,,,"Monday 11:00 - 22:00, Monday 11:00 - 22:00, Monday 11:00 - 22:00, Monday 11:00 - 22:00, Monday 11:00 - 22:00, Monday 11:00 - 22:00, Monday 11:00 - 22:00, Monday 11:00 - 22:00",,,0
Ruby Tuesday of North Platte,,2320 S. JEFFERS ST.,,,NE,69101,Canada,3085347829,,,"Monday 11:00 - 22:00, Monday 11:00 - 22:00, Monday 11:00 - 22:00, Monday 11:00 - 22:00, Monday 11:00 - 22:00, Monday 11:00 - 22:00, Monday 11:00 - 22:00, Monday 11:00 - 22:00",,,0
Ruby Tuesday of Bismarck,,3520 STATE STREET,,,ND,58503,Canada,7017514100,,,"Monday 11:00 - 22:00, Monday 11:00 - 22:00, Monday 11:00 - 22:00, Monday 11:00 - 22:00, Monday 11:00 - 22:00, Monday 11:00 - 22:00, Monday 11:00 - 22:00, Monday 11:00 - 22:00",,,0
Ruby Tuesday of Minot,,100 SW 28TH AVE,,,ND,58701,Canada,7014202300,,,"Monday 11:00 - 22:00, Monday 11:00 - 22:00, Monday 11:00 - 22:00, Monday 11:00 - 22:00, Monday 11:00 - 22:00, Monday 11:00 - 22:00, Monday 11:00 - 22:00, Monday 11:00 - 22:00",,,0
Ruby Tuesday of Rapid City,,821 FAIRMONT BLVD.,,,SD,57701,Canada,6053431700,,,"Monday 10:30 - 23:00, Monday 10:30 - 23:00, Monday 10:30 - 23:00, Monday 10:30 - 23:00, Monday 10:30 - 23:00, Monday 10:30 - 23:00, Monday 10:30 - 23:00, Monday 10:30 - 23:00",,,0
Ruby Tuesday of Tower Road,,6751 TOWER ROAD,,,CO,80249,Canada,3033735800,,,"Monday 11:00 - 23:00, Monday 11:00 - 23:00, Monday 11:00 - 23:00, Monday 11:00 - 23:00, Monday 11:00 - 23:00, Monday 11:00 - 23:00, Monday 11:00 - 23:00, Monday 11:00 - 23:00",,,0
Ruby Tuesday of Gillette,,420 E. Boxelder Rd.,,,WY,82718,Canada,307-682-0707,,,"Monday 11:00 - 24:00, Monday 11:00 - 24:00, Monday 11:00 - 24:00, Monday 11:00 - 24:00, Monday 11:00 - 24:00, Monday 11:00 - 24:00, Monday 11:00 - 24:00, Monday 11:00 - 24:00",,,0
Ruby Tuesday of Aurora,,14100 EAST ILIFF AVE.,,,CO,80014,Canada,3033684757,,,"Monday 11:00 - 22:00, Monday 11:00 - 22:00, Monday 11:00 - 22:00, Monday 11:00 - 22:00, Monday 11:00 - 22:00, Monday 11:00 - 22:00, Monday 11:00 - 22:00, Monday 11:00 - 22:00",,,0
Ruby Tuesday of Pueblo,,4150 N. FREEWAY,,,CO,81008,Canada,7195421722,,,"Monday 11:00 - 22:00, Monday 11:00 - 22:00, Monday 11:00 - 22:00, Monday 11:00 - 22:00, Monday 11:00 - 22:00, Monday 11:00 - 22:00, Monday 11:00 - 22:00, Monday 11:00 - 22:00",,,0
Ruby Tuesday of Arvada,,5525 WADSWORTH BYPASS,,,CO,80002,Canada,3039400441,,,"Monday 11:00 - 22:00, Monday 11:00 - 22:00, Monday 11:00 - 22:00, Monday 11:00 - 22:00, Monday 11:00 - 22:00, Monday 11:00 - 22:00, Monday 11:00 - 22:00, Monday 11:00 - 22:00",,,0
Ruby Tuesday of Dillon,,270 Dillon Ridge Way,,,CO,80435,Canada,9705137346,,,"Monday 11:00 - 22:00, Monday 11:00 - 22:00, Monday 11:00 - 22:00, Monday 11:00 - 22:00, Monday 11:00 - 22:00, Monday 11:00 - 22:00, Monday 11:00 - 22:00, Monday 11:00 - 22:00",,,0
Ruby Tuesday of Las Cruces,,2611 N. TELSHOR BLVD.,,,NM,88011,Canada,5755214100,,,"Monday 11:00 - 22:00, Monday 11:00 - 22:00, Monday 11:00 - 22:00, Monday 11:00 - 22:00, Monday 11:00 - 22:00, Monday 11:00 - 22:00, Monday 11:00 - 22:00, Monday 11:00 - 22:00",,,0
Ruby Tuesday of Santan,,2571 SOUTH MARKET STREET,,,AZ,85295,Canada,4808211629,,,"Monday 11:00 - 22:00, Monday 11:00 - 22:00, Monday 11:00 - 22:00, Monday 11:00 - 22:00, Monday 11:00 - 22:00, Monday 11:00 - 22:00, Monday 11:00 - 22:00, Monday 11:00 - 22:00",,,0
Ruby Tuesday of Tempe Marketplace,,"27 S. MCCLINTOCK DRIVE, LOT 15",,,AZ,85281,Canada,4809210099,,,"Monday 11:00 - 22:00, Monday 11:00 - 22:00, Monday 11:00 - 22:00, Monday 11:00 - 22:00, Monday 11:00 - 22:00, Monday 11:00 - 22:00, Monday 11:00 - 22:00, Monday 11:00 - 22:00",,,0
Ruby Tuesday of 44th Street & Washington,,4415 EAST MONROE STREET,,,AZ,85034,Canada,6022753405,,,"Monday 11:00 - 22:00, Monday 11:00 - 22:00, Monday 11:00 - 22:00, Monday 11:00 - 22:00, Monday 11:00 - 22:00, Monday 11:00 - 22:00, Monday 11:00 - 22:00, Monday 11:00 - 22:00",,,0
Ruby Tuesday of Avondale Blvd.,,1035 N. AVONDALE BLVD,,,AZ,85323,Canada,6239074265,,,"Monday 11:00 - 22:00, Monday 11:00 - 22:00, Monday 11:00 - 22:00, Monday 11:00 - 22:00, Monday 11:00 - 22:00, Monday 11:00 - 22:00, Monday 11:00 - 22:00, Monday 11:00 - 22:00",,,0
Ruby Tuesday of Craig Road,,865 WEST CRAIG ROAD,,,NV,89032,Canada,7022565449,,,"Monday 11:00 - 22:00, Monday 11:00 - 22:00, Monday 11:00 - 22:00, Monday 11:00 - 22:00, Monday 11:00 - 22:00, Monday 11:00 - 22:00, Monday 11:00 - 22:00, Monday 11:00 - 22:00",,,0
Ruby Tuesday of Maui,,"303 Piikea Ave, Bldg #1",,,HI,96753,Canada,808-633-4571,,,"Monday 08:00 - 22:00, Monday 08:00 - 22:00, Monday 08:00 - 22:00, Monday 08:00 - 22:00, Monday 08:00 - 22:00, Monday 08:00 - 22:00, Monday 08:00 - 22:00, Monday 08:00 - 22:00",,,0
Ruby Tuesday of Windward Mall,,45-056 Kamehameha Hwy,,,HI,96744,Canada,8082355800,,,"Monday 08:00 - 22:00, Monday 08:00 - 22:00, Monday 08:00 - 22:00, Monday 08:00 - 22:00, Monday 08:00 - 22:00, Monday 08:00 - 22:00, Monday 08:00 - 22:00, Monday 08:00 - 22:00",,,0
Ruby Tuesday of Mililani,,95-1249 Mehe' Ula Parkway,,,HI,96789,Canada,8086234949,,,"Monday 08:00 - 22:00, Monday 08:00 - 22:00, Monday 08:00 - 22:00, Monday 08:00 - 22:00, Monday 08:00 - 22:00, Monday 08:00 - 22:00, Monday 08:00 - 22:00, Monday 08:00 - 22:00",,,0
Ruby Tuesday of Moanalua,,930 Valkenburgh Street #211,,,HI,96818,Canada,8084228585,,,"Monday 08:00 - 22:00, Monday 08:00 - 22:00, Monday 08:00 - 22:00, Monday 08:00 - 22:00, Monday 08:00 - 22:00, Monday 08:00 - 22:00, Monday 08:00 - 22:00, Monday 08:00 - 22:00",,,0
Ruby Tuesday of Kapolei,,4470 Kapolei Parkway #500,,,HI,96707,Canada,808-492-1395,,,"Monday 08:00 - 22:00, Monday 08:00 - 22:00, Monday 08:00 - 22:00, Monday 08:00 - 22:00, Monday 08:00 - 22:00, Monday 08:00 - 22:00, Monday 08:00 - 22:00, Monday 08:00 - 22:00",,,0
