store_name,store_number,address,address2,city,state,zip_code,country,phone_number,latitude,longitude,store_hours,store_type,other_fields,coming_soon
Houston (Three Allen Center),,"333 Clay Street,  Suite 2823 (Office)",,Houston,TX,77002,United States,,29.757294,-95.37175,,,,
Dallas Preston Common Center,,"8117 Preston Rd, Suite 300 (Office)",,Dallas,TX,75225,United States,,32.861481,-96.8042,,,,
"Indianapolis - Associated Bank, NA",,"300 N. Meridian Street., Suite 1200 (Office)",,Indianapolis,IN,46204,United States,,39.771534,-86.158356,,,,
Columbus,,20 S Third St. Suite 210 (Office),,Columbus,OH,43215,United States,,39.962063,-82.997406,,,,
Birmingham (CRE),,"355 S. Old Woodward Avenue, Suite 210 (Office)",,Birmingham,MI,48009,United States,,42.544773,-83.211395,,,,
Chicago (300 La Salle),,300 N. LaSalle Street,,Chicago,IL,60654,United States,312-494-1034,41.8733,-87.631649,LobbyHours Mon-Thurs: 8:00 a.m. - 5:00 p.m. / Fri: 8:00 a.m. - 5:00 p.m. / Sat: Closed / Sun: Closed,,,
Chicago (Monroe),,525 W. Monroe Street,,Chicago,IL,60661,United States,312-544-4300,41.8802,-87.6405,LobbyHours Mon-Thurs: 8:00 a.m. - 5:00 p.m. / Fri: 8:00 a.m. - 5:00 p.m. / Sat: Closed / Sun: Closed,,,
Chicago (AON),,200 E. Randolph Street,,Chicago,IL,60601,United States,312-861-1000,41.8845,-87.622299,LobbyHours Mon-Thurs: 8:00 a.m. - 5:00 p.m. / Fri: 8:00 a.m. - 5:00 p.m. / Sat: Closed / Sun: Closed,,,
Chicago (Pilsen) LPO,,"1647 W. 18th St, Unit 1 (-)",,Chicago,IL,60608,United States,,41.857502,-87.668015,,,,
Chicago (Bronzeville),,743 E 47th St,,Chicago,IL,60653,United States,312-552-2490,41.809469,-87.607459,LobbyHours Mon-Thurs: 10:00 a.m. - 5:00 p.m. / Fri: 10:00 a.m. - 6:00 p.m. / Sat: Closed / Sun: Closed,,,
Chicago (Rogers Park) LPO,,6721 N. Clark St (-),,Chicago,Il,60626,United States,,42.004064,-87.672614,,,,
Chicago (Gladstone),,5200 N. Central Avenue,,Chicago,IL,60630,United States,773-792-0440,41.9757,-87.7685,"LobbyHours Mon-Thurs: 9:00 a.m. - 5:00 p.m. / Fri: 9:00 a.m. - 6:00 p.m. / Sat: 9:00 a.m. - 1:00 p.m. / Sun: Closed, DriveUpHours Mon-Thurs: 8:00 a.m. - 6:00 p.m. / Fri: 8:00 a.m. - 6:00 p.m. / Sat: 8:00 a.m. - 1:00 p.m. / Sun: Closed",,,
Chicago (Jewel Osco),,1763 W Howard St (Jewel Osco),,Chicago,IL,60626,United States,773-594-2360,42.017456,-87.674583,LobbyHours Mon-Thurs: 10:00 a.m. - 7:00 p.m. / Fri: 10:00 a.m. - 7:00 p.m. / Sat: 10:00 a.m. - 4:00 p.m. / Sun: 11:00 a.m. - 3:00 p.m.,,,
Chicago (Devon),,6355 N. Central Avenue,,Chicago,IL,60646,United States,773-467-8827,41.9968,-87.763999,"LobbyHours Mon-Thurs: 9:00 a.m. - 5:00 p.m. / Fri: 9:00 a.m. - 6:00 p.m. / Sat: 9:00 a.m. - 1:00 p.m. / Sun: Closed, DriveUpHours Mon-Thurs: 8:00 a.m. - 6:00 p.m. / Fri: 8:00 a.m. - 6:00 p.m. / Sat: 8:00 a.m. - 1:00 p.m. / Sun: Closed",,,
Glenview,,1301 Waukegan Road,,Glenview,IL,60025,United States,847-724-9000,42.078,-87.7985,"LobbyHours Mon-Thurs: 9:00 a.m. - 5:00 p.m. / Fri: 9:00 a.m. - 6:00 p.m. / Sat: 9:00 a.m. - 1:00 p.m. / Sun: Closed, DriveUpHours Mon-Thurs: 9:00 a.m. - 6:00 p.m. / Fri: 9:00 a.m. - 6:00 p.m. / Sat: 9:00 a.m. - 1:00 p.m. / Sun: Closed",,,
Roselle,,56 E. Irving Park Road,,Roselle,IL,60172,United States,630-893-0020,41.9844,-88.0784,"LobbyHours Mon-Thurs: 9:00 a.m. - 5:00 p.m. / Fri: 9:00 a.m. - 6:00 p.m. / Sat: 9:00 a.m. - 1:00 p.m. / Sun: Closed, DriveUpHours Mon-Thurs: 8:30 a.m. - 5:30 p.m. / Fri: 8:30 a.m. - 6:00 p.m. / Sat: 9:00 a.m. - 1:00 p.m. / Sun: Closed",,,
Bartlett,,200 Bartlett Avenue,,Bartlett,IL,60103,United States,630-830-3434,41.992699,-88.185599,"LobbyHours Mon-Thurs: 9:00 a.m. - 5:00 p.m. / Fri: 9:00 a.m. - 6:00 p.m. / Sat: 9:00 a.m. - 1:00 p.m. / Sun: Closed, DriveUpHours Mon-Thurs: 8:30 a.m. - 5:30 p.m. / Fri: 8:30 a.m. - 6:00 p.m. / Sat: 9:00 a.m. - 1:00 p.m. / Sun: Closed",,,
Bartlett (Drive-Thru),,231 Oneida,,Bartlett,IL,60103,United States,630-830-3434,41.992699,-88.185599,DriveUpHours Mon-Thurs: 8:30 a.m. - 5:30 p.m. / Fri: 8:30 a.m. - 6:00 p.m. / Sat: 9:00 a.m. - 1:00 p.m. / Sun: Closed,,,
Mundelein,,208 Oak Creek Plaza,,Mundelein,IL,60060,United States,847-949-9000,42.239199,-87.989999,"LobbyHours Mon-Thurs: 9:00 a.m. - 5:00 p.m. / Fri: 9:00 a.m. - 6:00 p.m. / Sat: 9:00 a.m. - 1:00 p.m. / Sun: Closed, DriveUpHours Mon-Thurs: 9:00 a.m. - 5:00 p.m. / Fri: 9:00 a.m. - 6:00 p.m. / Sat: 9:00 a.m. - 1:00 p.m. / Sun: Closed",,,
Libertyville,,929 N. Milwaukee Avenue,,Libertyville,IL,60048,United States,847-367-1850,42.2929,-87.955299,"LobbyHours Mon-Thurs: 9:00 a.m. - 5:00 p.m. / Fri: 9:00 a.m. - 6:00 p.m. / Sat: Closed / Sun: Closed, DriveUpHours Mon-Thurs: 9:00 a.m. - 5:00 p.m. / Fri: 9:00 a.m. - 6:00 p.m. / Sat: Closed / Sun: Closed",,,
Waukegan,,1 S. Genesee Street,,Waukegan,IL,60085,United States,847-623-3800,42.3596,-87.8314,"LobbyHours Mon-Thurs: 9:00 a.m. - 5:00 p.m. / Fri: 9:00 a.m. - 6:00 p.m. / Sat: 9:00 a.m. - 12:00 p.m. / Sun: Closed, DriveUpHours Mon-Thurs: 9:00 a.m. - 5:00 p.m. / Fri: 9:00 a.m. - 5:00 p.m. / Sat: 9:00 a.m. - 12:00 p.m. / Sun: Closed",,,
Elgin Center St,,16 N. Center Street (Elgin Center St),,Elgin,IL,60120,United States,,42.037773,-88.281061,,,,
Elgin,,16 N. Spring Street,,Elgin,IL,60120,United States,847-742-3800,42.037599,-88.282499,LobbyHours Mon-Thurs: 9:00 a.m. - 5:00 p.m. / Fri: 9:00 a.m. - 6:00 p.m. / Sat: 9:00 a.m. - 1:00 p.m. / Sun: Closed,,,
South Elgin,,300 N. McLean Boulevard,,South Elgin,IL,60177,United States,847-741-9555,41.997799,-88.316,"LobbyHours Mon-Thurs: 9:00 a.m. - 5:00 p.m. / Fri: 9:00 a.m. - 6:00 p.m. / Sat: 9:00 a.m. - 1:00 p.m. / Sun: Closed, DriveUpHours Mon-Thurs: 8:30 a.m. - 5:30 p.m. / Fri: 8:30 a.m. - 6:00 p.m. / Sat: 9:00 a.m. - 1:00 p.m. / Sun: Closed",,,
Aurora,,301 W. Galena Boulevard,,Aurora,IL,60506,United States,630-892-1140,41.760599,-88.3202,"LobbyHours Mon-Thurs: 9:00 a.m. - 5:00 p.m. / Fri: 9:00 a.m. - 6:00 p.m. / Sat: 9:00 a.m. - 1:00 p.m. / Sun: Closed, DriveUpHours Mon-Thurs: 8:30 a.m. - 5:30 p.m. / Fri: 8:30 a.m. - 6:00 p.m. / Sat: 9:00 a.m. - 1:00 p.m. / Sun: Closed",,,
Gurnee,,1313 N. Delany Road,,Gurnee,IL,60031,United States,847-360-5116,42.378799,-87.904499,"LobbyHours Mon-Thurs: 9:00 a.m. - 5:00 p.m. / Fri: 9:00 a.m. - 6:00 p.m. / Sat: 9:00 a.m. - 12:00 p.m. / Sun: Closed, DriveUpHours Mon-Thurs: 9:00 a.m. - 5:00 p.m. / Fri: 9:00 a.m. - 6:00 p.m. / Sat: 9:00 a.m. - 12:00 p.m. / Sun: Closed",,,
Elgin (West),,2001 Larkin Avenue,,Elgin,IL,60123,United States,847-429-0133,42.032499,-88.326499,"LobbyHours Mon-Thurs: 9:00 a.m. - 5:00 p.m. / Fri: 9:00 a.m. - 6:00 p.m. / Sat: 9:00 a.m. - 1:00 p.m. / Sun: Closed, DriveUpHours Mon-Thurs: 8:30 a.m. - 5:30 p.m. / Fri: 8:30 a.m. - 6:00 p.m. / Sat: 9:00 a.m. - 1:00 p.m. / Sun: Closed",,,
Third Lake,,34354 N. Hwy 45,,Third Lake,IL,60030,United States,847-548-3000,42.3616,-88.000299,"LobbyHours Mon-Thurs: 9:00 a.m. - 5:00 p.m. / Fri: 9:00 a.m. - 6:00 p.m. / Sat: 9:00 a.m. - 1:00 p.m. / Sun: Closed, DriveUpHours Mon-Thurs: 9:00 a.m. - 5:00 p.m. / Fri: 9:00 a.m. - 6:00 p.m. / Sat: 9:00 a.m. - 1:00 p.m. / Sun: Closed",,,
Carpentersville,,7675 Miller Road,,Carpentersville,IL,60110,United States,847-551-3595,42.123631,-88.32502,"LobbyHours Mon-Thurs: 9:00 a.m. - 5:00 p.m. / Fri: 9:00 a.m. - 6:00 p.m. / Sat: 9:00 a.m. - 1:00 p.m. / Sun: Closed, DriveUpHours Mon-Thurs: 8:30 a.m. - 5:30 p.m. / Fri: 8:30 a.m. - 6:00 p.m. / Sat: 9:00 a.m. - 1:00 p.m. / Sun: Closed",,,
Crystal Lake,,180 W. Virginia Street,,Crystal Lake,IL,60014,United States,815-459-5880,42.245699,-88.343599,"LobbyHours Mon-Thurs: 9:00 a.m. - 5:00 p.m. / Fri: 9:00 a.m. - 6:00 p.m. / Sat: 9:00 a.m. - 1:00 p.m. / Sun: Closed, DriveUpHours Mon-Thurs: 8:30 a.m. - 5:30 p.m. / Fri: 8:30 a.m. - 6:00 p.m. / Sat: 9:00 a.m. - 1:00 p.m. / Sun: Closed",,,
Milwaukee (Kilbourn),,401 E. Kilbourn Avenue,,Milwaukee,WI,53202,United States,414-271-1786,43.0424,-87.906899,"LobbyHours Mon-Thurs: 9:00 a.m. - 6:00 p.m. / Fri: 9:00 a.m. - 6:00 p.m. / Sat: Closed / Sun: Closed, DriveUpHours Mon-Thurs: 9:00 a.m. - 6:00 p.m. / Fri: 9:00 a.m. - 6:00 p.m. / Sat: Closed / Sun: Closed",,,
Marcus Center,,929 N. Water St. (Marcus Center),,Milwaukee,WI,53202,United States,,43.0427,-87.906899,,,,
Milwaukee Water St [2],,815 N Water Street [2] (Milwaukee Water St),,Milwaukee,WI,53202,United States,,43.04133,-87.91054,,,,
Milwaukee (Water Street),,815 N Water Street (Office),,Milwaukee,WI,53202,United States,,43.041332,-87.910538,,,,
Milwaukee (Plaza East),,330 E. Kilbourn Avenue (Office),,Milwaukee,WI,53202,United States,,43.043041,-87.907631,,,,
Milwaukee (Milwaukee Center),,111 East Kilbourn (-),,Milwaukee,WI,53203,United States,,43.041947,-87.911207,,,,
Milwaukee Third Ward,,102 N Water St Suite 101,,Milwaukee,WI,53202,United States,414-902-2777,43.031622,-87.909615,LobbyHours Mon-Thurs: 8:00 a.m. - 5:00 p.m. / Fri: 8:00 a.m. - 6:00 p.m. / Sat: 10:00 a.m. - 2:00 p.m. / Sun: Closed,,,
Milwaukee Haymarket Square,,1301 Martin Luther King,,Milwaukee,WI,53212,United States,414-278-1006,43.0468,-87.914416,"LobbyHours Mon-Thurs: 9:00 a.m. - 6:00 p.m. / Fri: 9:00 a.m. - 6:00 p.m. / Sat: 9:00 a.m. - 2:00 p.m. / Sun: 10:00 a.m. - 2:00 p.m., DriveUpHours Mon-Thurs: 8:00 a.m. - 6:00 p.m. / Fri: 8:00 a.m. - 7:00 p.m. / Sat: 9:00 a.m. - 2:00 p.m. / Sun: 10:00 a.m. - 2:00 p.m.",,,
Milwaukee (Mitchell),,829 W. Mitchell Street,,Milwaukee,WI,53204,United States,414-645-9200,43.0123,-87.9217,LobbyHours Mon-Thurs: 9:00 a.m. - 6:00 p.m. / Fri: 9:00 a.m. - 6:00 p.m. / Sat: 9:00 a.m. - 1:00 p.m. / Sun: Closed,,,
Milwaukee (Downer),,2590 N. Downer Avenue,,Milwaukee,WI,53211,United States,414-961-5800,43.0668,-87.878,"LobbyHours Mon-Thurs: 9:00 a.m. - 5:00 p.m. / Fri: 9:00 a.m. - 6:00 p.m. / Sat: 9:00 a.m. - 1:00 p.m. / Sun: Closed, DriveUpHours Mon-Thurs: 9:00 a.m. - 6:00 p.m. / Fri: 9:00 a.m. - 6:00 p.m. / Sat: 9:00 a.m. - 1:00 p.m. / Sun: Closed",,,
Miller Park [9],,1 Brewers Way [9] (Miller Park),,Milwaukee,WI,53214,United States,,43.029702,-87.972487,,,,
Milwaukee (North Ave),,5900 W. North Avenue,,Milwaukee,WI,53208,United States,414-453-4310,43.060699,-87.9864,"LobbyHours Mon-Thurs: 9:00 a.m. - 6:00 p.m. / Fri: 9:00 a.m. - 6:00 p.m. / Sat: 9:00 a.m. - 1:00 p.m. / Sun: Closed, DriveUpHours Mon-Thurs: 8:30 a.m. - 6:00 p.m. / Fri: 8:30 a.m. - 6:00 p.m. / Sat: 8:30 a.m. - 1:00 p.m. / Sun: Closed",,,
Milwaukee (Southgate),,3432 S. 27th Street,,Milwaukee,WI,53215,United States,414-645-1111,42.9825,-87.9482,"LobbyHours Mon-Thurs: 9:00 a.m. - 6:00 p.m. / Fri: 9:00 a.m. - 6:00 p.m. / Sat: 9:00 a.m. - 1:00 p.m. / Sun: Closed, DriveUpHours Mon-Thurs: 8:00 a.m. - 6:00 p.m. / Fri: 8:00 a.m. - 6:00 p.m. / Sat: 8:00 a.m. - 1:00 p.m. / Sun: Closed",,,
St. Francis,,3719 S. Kinnickinnic Avenue,,St. Francis,WI,53235,United States,414-747-0300,42.976999,-87.8772,"LobbyHours Mon-Thurs: 9:00 a.m. - 6:00 p.m. / Fri: 9:00 a.m. - 6:00 p.m. / Sat: 9:00 a.m. - 1:00 p.m. / Sun: Closed, DriveUpHours Mon-Thurs: 8:00 a.m. - 6:00 p.m. / Fri: 8:00 a.m. - 6:00 p.m. / Sat: 8:00 a.m. - 1:00 p.m. / Sun: Closed",,,
Milwaukee (Fond Du Lac),,5350 W. Fond Du Lac Avenue,,Milwaukee,WI,53216,United States,414-444-4514,43.0931,-87.980099,"LobbyHours Mon-Thurs: 9:00 a.m. - 6:00 p.m. / Fri: 9:00 a.m. - 6:00 p.m. / Sat: 9:00 a.m. - 1:00 p.m. / Sun: Closed, DriveUpHours Mon-Thurs: 8:30 a.m. - 6:00 p.m. / Fri: 8:30 a.m. - 6:00 p.m. / Sat: 8:30 a.m. - 1:00 p.m. / Sun: Closed",,,
Whitefish Bay,,430 E. Silver Spring Drive,,Whitefish Bay,WI,53217,United States,414-963-1330,43.118557,-87.905054,"LobbyHours Mon-Thurs: 9:00 a.m. - 6:00 p.m. / Fri: 9:00 a.m. - 6:00 p.m. / Sat: 9:00 a.m. - 1:00 p.m. / Sun: Closed, DriveUpHours Mon-Thurs: 8:00 a.m. - 6:00 p.m. / Fri: 8:00 a.m. - 6:00 p.m. / Sat: 8:00 a.m. - 1:00 p.m. / Sun: Closed",,,
Glendale,,7020 N. Port Washington Road,,Glendale,WI,53217,United States,414-351-7400,43.144542,-87.913059,"LobbyHours Mon-Thurs: 9:00 a.m. - 5:00 p.m. / Fri: 9:00 a.m. - 6:00 p.m. / Sat: 9:00 a.m. - 1:00 p.m. / Sun: Closed, DriveUpHours Mon-Thurs: 8:30 a.m. - 5:00 p.m. / Fri: 8:30 a.m. - 6:00 p.m. / Sat: 8:30 a.m. - 1:00 p.m. / Sun: Closed",,,
Wauwatosa (Mayfair),,2645 N. Mayfair Road,,Wauwatosa,WI,53226,United States,414-778-1610,43.066,-88.047899,"LobbyHours Mon-Thurs: 9:00 a.m. - 5:00 p.m. / Fri: 9:00 a.m. - 6:00 p.m. / Sat: 9:00 a.m. - 1:00 p.m. / Sun: Closed, DriveUpHours Mon-Thurs: 8:30 a.m. - 5:30 p.m. / Fri: 8:30 a.m. - 6:00 p.m. / Sat: 8:30 a.m. - 1:00 p.m. / Sun: Closed",,,
Greenfield,,4811 S. 76th Street,,Greenfield,WI,53220,United States,414-281-2500,42.957,-88.008399,"LobbyHours Mon-Thurs: 9:00 a.m. - 6:00 p.m. / Fri: 9:00 a.m. - 6:00 p.m. / Sat: 9:00 a.m. - 1:00 p.m. / Sun: Closed, DriveUpHours Mon-Thurs: 8:00 a.m. - 6:00 p.m. / Fri: 8:00 a.m. - 6:00 p.m. / Sat: 8:00 a.m. - 1:00 p.m. / Sun: Closed",,,
West Allis (West),,10701 W. National Avenue,,West Allis,WI,53227,United States,414-321-2000,42.994184,-88.045911,"LobbyHours Mon-Thurs: 9:00 a.m. - 6:00 p.m. / Fri: 9:00 a.m. - 6:00 p.m. / Sat: 9:00 a.m. - 1:00 p.m. / Sun: Closed, DriveUpHours Mon-Thurs: 7:30 a.m. - 6:00 p.m. / Fri: 7:30 a.m. - 6:00 p.m. / Sat: 8:00 a.m. - 1:00 p.m. / Sun: Closed",,,
Milwaukee LPO,,"7706 W Good Hope, Suite 8 (-)",,Milwaukee,WI,53223,United States,,43.148861,-88.007289,,,,
South Milwaukee,,2815 S. Chicago Avenue,,South Milwaukee,WI,53172,United States,414-764-3600,42.9035,-87.865499,"LobbyHours Mon-Thurs: 9:00 a.m. - 6:00 p.m. / Fri: 9:00 a.m. - 6:00 p.m. / Sat: 9:00 a.m. - 1:00 p.m. / Sun: Closed, DriveUpHours Mon-Thurs: 8:00 a.m. - 6:00 p.m. / Fri: 8:00 a.m. - 6:00 p.m. / Sat: 8:00 a.m. - 1:00 p.m. / Sun: Closed",,,
Oak Creek (Woodman's),,8131 S. Howell Avenue (Woodman's),,Oak Creek,WI,53154,United States,414-764-2355,42.897415,-87.91189,LobbyHours Mon-Thurs: 9:00 a.m. - 7:00 p.m. / Fri: 9:00 a.m. - 7:00 p.m. / Sat: 9:00 a.m. - 4:00 p.m. / Sun: 10:00 a.m. - 2:00 p.m.,,,
Hales Corners,,10708 W. Janesville Road,,Hales Corners,WI,53130,United States,414-425-1600,42.937399,-88.046599,"LobbyHours Mon-Thurs: 9:00 a.m. - 6:00 p.m. / Fri: 9:00 a.m. - 6:00 p.m. / Sat: 9:00 a.m. - 1:00 p.m. / Sun: Closed, DriveUpHours Mon-Thurs: 8:00 a.m. - 6:00 p.m. / Fri: 8:00 a.m. - 6:00 p.m. / Sat: 8:00 a.m. - 1:00 p.m. / Sun: Closed",,,
Hales Corners Annex,,5810 S 108th Street (Office),,Hales Corners,WI,53130,United States,,42.938217,-88.04821,,,,
Minneapolis (Baker Center),,"733 Marquette Avenue S.,   Suite 235",,Minneapolis,MN,55402,United States,612-359-4434,44.975999,-93.271199,LobbyHours Mon-Thurs: 8:30 a.m. - 5:00 p.m. / Fri: 8:30 a.m. - 5:00 p.m. / Sat: Closed / Sun: Closed,,,
Minneapolis (PwC Plaza),,"45 S. 7th Street,  Suite 2900 (Office)",,Minneapolis,MN,55402,United States,,44.977,-93.2735,,,,
Minneapolis Plaza VII,,45 S 7th St (Minneapolis Plaza VII),,Minneapolis,MN,55402,United States,,44.97698,-93.27354,,,,
Minneapolis (Cedar Riverside),,1801 Riverside Avenue,,Minneapolis,MN,55454,United States,612-341-3505,44.969999,-93.246799,LobbyHours Mon-Thurs: 9:00 a.m. - 5:30 p.m. / Fri: 9:00 a.m. - 5:30 p.m. / Sat: 9:00 a.m. - 12:00 p.m. / Sun: Closed,,,
St Louis Park,,5353 Wayzata,,St Louis Park,MN,55416,United States,952-591-2865,44.9701,-93.346999,"LobbyHours Mon-Thurs: 9:00 a.m. - 5:30 p.m. / Fri: 9:00 a.m. - 5:30 p.m. / Sat: 9:00 a.m. - 12:00 p.m. / Sun: Closed, DriveUpHours Mon-Thurs: 8:30 a.m. - 5:30 p.m. / Fri: 8:30 a.m. - 5:30 p.m. / Sat: 9:00 a.m. - 12:00 p.m. / Sun: Closed",,,
St. Paul 202 Snelling,,202 Snelling Avenue,,St. Paul,MN,55104,United States,651-646-8681,44.94754,-93.166626,"LobbyHours Mon-Thurs: 9:00 a.m. - 5:30 p.m. / Fri: 9:00 a.m. - 5:30 p.m. / Sat: 9:00 a.m. - 1:00 p.m. / Sun: Closed, DriveUpHours Mon-Thurs: 8:00 a.m. - 6:00 p.m. / Fri: 8:00 a.m. - 6:00 p.m. / Sat: 9:00 a.m. - 1:00 p.m. / Sun: Closed",,,
New Hope,,7001 Bass Lake Road,,New Hope,MN,55428,United States,651-554-8730,45.054699,-93.3699,"LobbyHours Mon-Thurs: 9:00 a.m. - 5:30 p.m. / Fri: 9:00 a.m. - 5:30 p.m. / Sat: 9:00 a.m. - 12:00 p.m. / Sun: Closed, DriveUpHours Mon-Thurs: 8:30 a.m. - 5:30 p.m. / Fri: 8:30 a.m. - 5:30 p.m. / Sat: 9:00 a.m. - 12:00 p.m. / Sun: Closed",,,
Minnesota Wild Xcel Energy Center,,199 W Kellogg Blvd (Minnesota Wild Xcel Energy Center),,St Paul,MN,55102,United States,,44.944798,-93.101067,,,,
Bloomington (Minnesota Center),,7760 France Avenue South,,Bloomington,MN,55435,United States,952-897-1000,44.8613,-93.3289,LobbyHours Mon-Thurs: 8:30 a.m. - 5:00 p.m. / Fri: 8:30 a.m. - 5:00 p.m. / Sat: Closed / Sun: Closed,,,
Plymouth (East),,2655 Campus Drive,,Plymouth,MN,55441,United States,763-557-0700,45.008299,-93.4479,"LobbyHours Mon-Thurs: 9:00 a.m. - 5:30 p.m. / Fri: 9:00 a.m. - 5:30 p.m. / Sat: 9:00 a.m. - 12:00 p.m. / Sun: Closed, DriveUpHours Mon-Thurs: 8:30 a.m. - 5:30 p.m. / Fri: 8:30 a.m. - 5:30 p.m. / Sat: 9:00 a.m. - 12:00 p.m. / Sun: Closed",,,
Minnetonka ABRC,,6000 Clearwater (-),,Minnetonka,MN,55343,United States,,44.894688,-93.442322,,,,
West St. Paul,,2060 South Robert Street,,West St. Paul,MN,55118,United States,651-306-1787,44.884599,-93.0805,"LobbyHours Mon-Thurs: 9:00 a.m. - 5:30 p.m. / Fri: 9:00 a.m. - 5:30 p.m. / Sat: 9:00 a.m. - 12:00 p.m. / Sun: Closed, DriveUpHours Mon-Thurs: 8:30 a.m. - 5:30 p.m. / Fri: 8:30 a.m. - 5:30 p.m. / Sat: 9:00 a.m. - 12:00 p.m. / Sun: Closed",,,
Eagan,,1270 Yankee Doodle Road,,Eagan,MN,55121,United States,651-306-1601,44.833399,-93.158699,"LobbyHours Mon-Thurs: 9:00 a.m. - 5:30 p.m. / Fri: 9:00 a.m. - 5:30 p.m. / Sat: 9:00 a.m. - 12:00 p.m. / Sun: Closed, DriveUpHours Mon-Thurs: 8:30 a.m. - 5:30 p.m. / Fri: 8:30 a.m. - 5:30 p.m. / Sat: 9:00 a.m. - 12:00 p.m. / Sun: Closed",,,
Eden Prairie,,566 Prairie Center Drive,,Eden Prairie,MN,55344,United States,952-255-7300,44.85162,-93.429138,"LobbyHours Mon-Thurs: 9:00 a.m. - 5:30 p.m. / Fri: 9:00 a.m. - 5:30 p.m. / Sat: 9:00 a.m. - 12:00 p.m. / Sun: Closed, DriveUpHours Mon-Thurs: 8:30 a.m. - 5:30 p.m. / Fri: 8:30 a.m. - 5:30 p.m. / Sat: 9:00 a.m. - 12:00 p.m. / Sun: Closed",,,
Maple Grove (Bell Tower West),,"9325 Upland Lane,  Suite 100",,Maple Grove,MN,55369,United States,763-420-2092,45.124603,-93.481752,"LobbyHours Mon-Thurs: 9:00 a.m. - 5:30 p.m. / Fri: 9:00 a.m. - 5:30 p.m. / Sat: 9:00 a.m. - 12:00 p.m. / Sun: Closed, DriveUpHours Mon-Thurs: 8:30 a.m. - 5:30 p.m. / Fri: 8:30 a.m. - 5:30 p.m. / Sat: 9:00 a.m. - 12:00 p.m. / Sun: Closed",,,
Burnsville,,"2999 County Road 42 W.,   Suite 130",,Burnsville,MN,55306,United States,651-306-1831,44.7462,-93.317099,"LobbyHours Mon-Thurs: 9:00 a.m. - 5:30 p.m. / Fri: 9:00 a.m. - 5:30 p.m. / Sat: 9:00 a.m. - 12:00 p.m. / Sun: Closed, DriveUpHours Mon-Thurs: 8:30 a.m. - 5:30 p.m. / Fri: 8:30 a.m. - 5:30 p.m. / Sat: 9:00 a.m. - 12:00 p.m. / Sun: Closed",,,
Woodbury,,1835 Radio Drive,,Woodbury,MN,55125,United States,651-735-5000,44.922075,-92.933946,"LobbyHours Mon-Thurs: 9:00 a.m. - 5:30 p.m. / Fri: 9:00 a.m. - 5:30 p.m. / Sat: 9:00 a.m. - 12:00 p.m. / Sun: Closed, DriveUpHours Mon-Thurs: 8:30 a.m. - 5:30 p.m. / Fri: 8:30 a.m. - 5:30 p.m. / Sat: 9:00 a.m. - 12:00 p.m. / Sun: Closed",,,
Savage,,7533 Egan Drive,,Savage,MN,55378,United States,651-306-1882,44.745796,-93.3769,"LobbyHours Mon-Thurs: 9:00 a.m. - 5:30 p.m. / Fri: 9:00 a.m. - 5:30 p.m. / Sat: 9:00 a.m. - 12:00 p.m. / Sun: Closed, DriveUpHours Mon-Thurs: 8:30 a.m. - 5:30 p.m. / Fri: 8:30 a.m. - 5:30 p.m. / Sat: 9:00 a.m. - 12:00 p.m. / Sun: Closed",,,
Hudson (Main),,307 Second Street,,Hudson,WI,54016,United States,715-386-5511,44.972912,-92.756731,"LobbyHours Mon-Thurs: 9:00 a.m. - 5:00 p.m. / Fri: 9:00 a.m. - 6:00 p.m. / Sat: 9:00 a.m. - 12:00 p.m. / Sun: Closed, DriveUpHours Mon-Thurs: 8:00 a.m. - 6:00 p.m. / Fri: 8:00 a.m. - 6:00 p.m. / Sat: 9:00 a.m. - 12:00 p.m. / Sun: Closed",,,
Hudson Coulee,,2001 Coulee Road,,Hudson,WI,54016,United States,715-381-5005,44.9634,-92.731999,"LobbyHours Mon-Thurs: 9:00 a.m. - 5:00 p.m. / Fri: 9:00 a.m. - 6:00 p.m. / Sat: 9:00 a.m. - 1:00 p.m. / Sun: Closed, DriveUpHours Mon-Thurs: 8:00 a.m. - 6:00 p.m. / Fri: 8:00 a.m. - 6:00 p.m. / Sat: 8:00 a.m. - 2:00 p.m. / Sun: Closed",,,
Hudson (Crest View),,2200 Crest View Drive,,Hudson,WI,54016,United States,715-381-2200,44.961024,-92.725551,"LobbyHours Mon-Thurs: 9:00 a.m. - 5:00 p.m. / Fri: 9:00 a.m. - 6:00 p.m. / Sat: 9:00 a.m. - 1:00 p.m. / Sun: Closed, DriveUpHours Mon-Thurs: 8:00 a.m. - 6:00 p.m. / Fri: 8:00 a.m. - 6:00 p.m. / Sat: 8:00 a.m. - 2:00 p.m. / Sun: Closed",,,
Hudson County Market,,2310 Crest View Dr (Hudson County Market),,Hudson,WI,54016,United States,,44.959984,-92.724983,,,,
Monticello,,1560 Hart Blvd (-),,Monticello,MN,55362,United States,,45.2944,-93.76973,,,,
North Branch,,38860 10th Avenue,,North Branch,MN,55056,United States,651-674-5000,45.51207,-92.985288,"LobbyHours Mon-Thurs: 9:00 a.m. - 5:30 p.m. / Fri: 9:00 a.m. - 5:30 p.m. / Sat: 9:00 a.m. - 12:00 p.m. / Sun: Closed, DriveUpHours Mon-Thurs: 8:00 a.m. - 6:00 p.m. / Fri: 8:00 a.m. - 6:00 p.m. / Sat: 9:00 a.m. - 12:00 p.m. / Sun: Closed",,,
Ellsworth,,420 E. Main Street,,Ellsworth,WI,54011,United States,715-273-6680,44.733525,-92.467635,"LobbyHours Mon-Thurs: 9:00 a.m. - 5:00 p.m. / Fri: 9:00 a.m. - 5:00 p.m. / Sat: 9:00 a.m. - 1:00 p.m. / Sun: Closed, DriveUpHours Mon-Thurs: 8:00 a.m. - 5:30 p.m. / Fri: 8:00 a.m. - 6:00 p.m. / Sat: 8:00 a.m. - 1:00 p.m. / Sun: Closed",,,
Cleveland,,"600 Superior Avenue East, Suite 1300 (Office)",,Cleveland,OH,44114,United States,,41.501091,-81.689568,,,,
East St. Louis,,326 Missouri Avenue,,East St. Louis,IL,62201,United States,618-875-5300,38.626899,-90.1597,"LobbyHours Mon-Thurs: 9:00 a.m. - 4:30 p.m. / Fri: 9:00 a.m. - 5:00 p.m. / Sat: Closed / Sun: Closed, DriveUpHours Mon-Thurs: 8:00 a.m. - 5:00 p.m. / Fri: 8:00 a.m. - 6:00 p.m. / Sat: 9:00 a.m. - 12:00 p.m. / Sun: Closed",,,
St Louis (Commercial Real Estate),,"231 S. Bemiston Avenue,   Suite 700 (Office)",,Clayton,MO,63105,United States,,38.646477,-90.337814,,,,
Belleville (West),,6902 W. Main Street,,Belleville,IL,62221,United States,618-398-8503,38.556399,-90.042599,"LobbyHours Mon-Thurs: 9:00 a.m. - 5:00 p.m. / Fri: 9:00 a.m. - 5:00 p.m. / Sat: 9:00 a.m. - 12:00 p.m. / Sun: Closed, DriveUpHours Mon-Thurs: 8:00 a.m. - 6:00 p.m. / Fri: 8:00 a.m. - 6:00 p.m. / Sat: 8:30 a.m. - 12:00 p.m. / Sun: Closed",,,
Fairview Heights (Main),,6550 N. Illinois Street,,Fairview Heights,IL,62208,United States,618-632-7421,38.594299,-89.9848,"LobbyHours Mon-Thurs: 9:00 a.m. - 5:00 p.m. / Fri: 9:00 a.m. - 6:00 p.m. / Sat: 9:00 a.m. - 12:00 p.m. / Sun: Closed, DriveUpHours Mon-Thurs: 8:00 a.m. - 6:00 p.m. / Fri: 8:00 a.m. - 6:00 p.m. / Sat: 8:00 a.m. - 1:00 p.m. / Sun: Closed",,,
Columbia,,238 N. Main Street,,Columbia,IL,62236,United States,618-281-4240,38.444299,-90.2017,"LobbyHours Mon-Thurs: 9:00 a.m. - 5:00 p.m. / Fri: 9:00 a.m. - 6:00 p.m. / Sat: 9:00 a.m. - 12:00 p.m. / Sun: Closed, DriveUpHours Mon-Thurs: 8:00 a.m. - 5:00 p.m. / Fri: 8:00 a.m. - 6:00 p.m. / Sat: 8:00 a.m. - 12:00 p.m. / Sun: Closed",,,
Millstadt,,217 W. Washington Street,,Millstadt,IL,62260,United States,618-476-3040,38.4615,-90.0939,"LobbyHours Mon-Thurs: 9:00 a.m. - 5:00 p.m. / Fri: 9:00 a.m. - 6:00 p.m. / Sat: 9:00 a.m. - 12:00 p.m. / Sun: Closed, DriveUpHours Mon-Thurs: 8:00 a.m. - 5:00 p.m. / Fri: 8:00 a.m. - 6:00 p.m. / Sat: 8:00 a.m. - 12:00 p.m. / Sun: Closed",,,
Belleville (Downtown),,100 E. Washington Street,,Belleville,IL,62220,United States,618-233-5656,38.512599,-89.982799,"LobbyHours Mon-Thurs: 9:00 a.m. - 4:30 p.m. / Fri: 9:00 a.m. - 5:00 p.m. / Sat: 9:00 a.m. - 12:00 p.m. / Sun: Closed, DriveUpHours Mon-Thurs: 8:00 a.m. - 5:30 p.m. / Fri: 8:00 a.m. - 6:00 p.m. / Sat: 8:30 a.m. - 12:00 p.m. / Sun: Closed",,,
Glen Carbon,,1 Junction Drive West,,Glen Carbon,IL,62034,United States,618-288-7412,38.7744,-89.9551,"LobbyHours Mon-Thurs: 9:00 a.m. - 5:00 p.m. / Fri: 9:00 a.m. - 5:00 p.m. / Sat: 9:00 a.m. - 12:00 p.m. / Sun: Closed, DriveUpHours Mon-Thurs: 8:00 a.m. - 5:00 p.m. / Fri: 8:00 a.m. - 5:00 p.m. / Sat: 8:30 a.m. - 12:00 p.m. / Sun: Closed",,,
Alton,,104 Homer Adams Parkway,,Alton,IL,62002,United States,618-465-4422,38.921999,-90.178299,"LobbyHours Mon-Thurs: 9:00 a.m. - 5:00 p.m. / Fri: 9:00 a.m. - 6:00 p.m. / Sat: 9:00 a.m. - 12:00 p.m. / Sun: Closed, DriveUpHours Mon-Thurs: 8:00 a.m. - 5:00 p.m. / Fri: 8:00 a.m. - 6:00 p.m. / Sat: 8:30 a.m. - 12:00 p.m. / Sun: Closed",,,
"Cincinnati - Associated Bank, NA",,"312 Walnut Street,   Suite 3450 (Office)",,Cincinnati,OH,45202,United States,,39.226721,-84.444128,,,,
Baldwin,,1660 11th Avenue,,Baldwin,WI,54002,United States,715-684-3266,44.957583,-92.376317,"LobbyHours Mon-Thurs: 9:00 a.m. - 5:00 p.m. / Fri: 9:00 a.m. - 5:00 p.m. / Sat: 9:00 a.m. - 1:00 p.m. / Sun: Closed, DriveUpHours Mon-Thurs: 8:00 a.m. - 5:30 p.m. / Fri: 8:00 a.m. - 6:00 p.m. / Sat: 8:00 a.m. - 1:00 p.m. / Sun: Closed",,,
Red Wing,,222 Bush Street,,Red Wing,MN,55066,United States,651-385-1600,44.5658,-92.534899,LobbyHours Mon-Thurs: 9:00 a.m. - 5:00 p.m. / Fri: 9:00 a.m. - 5:00 p.m. / Sat: Closed / Sun: Closed,,,
Madison (Varsity),,640 University Avenue,,Madison,WI,53715,United States,608-258-7485,43.0732,-89.3969,LobbyHours Mon-Thurs: 9:00 a.m. - 5:00 p.m. / Fri: 9:00 a.m. - 5:00 p.m. / Sat: Closed / Sun: Closed,,,
Madison (Monroe Street),,1720 Monroe Street,,Madison,WI,53711,United States,608-259-2000,43.0658,-89.4158,LobbyHours Mon-Thurs: 8:30 a.m. - 5:30 p.m. / Fri: 8:30 a.m. - 5:30 p.m. / Sat: 8:30 a.m. - 1:00 p.m. / Sun: Closed,,,
Madison (Monroe Street Drive-Thru),,1720 Monroe Street,,Madison,WI,53711,United States,,43.065842,-89.416245,DriveUpHours Mon-Thurs: 8:30 a.m. - 6:00 p.m. / Fri: 8:30 a.m. - 6:00 p.m. / Sat: 8:30 a.m. - 1:00 p.m. / Sun: Closed,,,
Madison (Galaxie),,828 E Washington,,Madison,WI,53703,United States,608-259-3700,43.081528,-89.374698,LobbyHours Mon-Thurs: 8:30 a.m. - 5:30 p.m. / Fri: 8:30 a.m. - 5:30 p.m. / Sat: 8:30 a.m. - 1:00 p.m. / Sun: Closed,,,
Fitchburg (Fish Hatchery),,3002 Fish Hatchery Road,,Fitchburg,WI,53713,United States,608-278-2420,43.0259,-89.4133,"LobbyHours Mon-Thurs: 8:30 a.m. - 5:30 p.m. / Fri: 8:30 a.m. - 5:30 p.m. / Sat: 8:30 a.m. - 1:00 p.m. / Sun: Closed, DriveUpHours Mon-Thurs: 8:00 a.m. - 6:00 p.m. / Fri: 8:00 a.m. - 6:00 p.m. / Sat: 8:30 a.m. - 1:00 p.m. / Sun: Closed",,,
Madison (Broadway),,"1574 W. Broadway,   Suite 107",,Madison,WI,53716,United States,608-259-3777,43.04721,-89.341488,"LobbyHours Mon-Thurs: 8:30 a.m. - 5:30 p.m. / Fri: 8:30 a.m. - 5:30 p.m. / Sat: 8:30 a.m. - 1:00 p.m. / Sun: Closed, DriveUpHours Mon-Thurs: 8:00 a.m. - 6:00 p.m. / Fri: 8:00 a.m. - 6:00 p.m. / Sat: 8:30 a.m. - 1:00 p.m. / Sun: Closed",,,
Madison (Aberg Avenue - Pick 'N Save),,2502A Shopko Drive (Copps),,Madison,WI,53704,United States,608-245-2080,43.112099,-89.3506,LobbyHours Mon-Thurs: 9:00 a.m. - 7:00 p.m. / Fri: 9:00 a.m. - 7:00 p.m. / Sat: 9:00 a.m. - 4:00 p.m. / Sun: 10:00 a.m. - 2:00 p.m.,,,
Madison (Whitney Way - Copps),,620A S. Whitney Way (Copps),,Madison,WI,53711,United States,608-278-2424,43.0531,-89.4736,LobbyHours Mon-Thurs: 9:00 a.m. - 7:00 p.m. / Fri: 9:00 a.m. - 7:00 p.m. / Sat: 9:00 a.m. - 4:00 p.m. / Sun: 10:00 a.m. - 2:00 p.m.,,,
Madison (Northport),,2001 Londonderry Drive,,Madison,WI,53704,United States,608-259-3744,43.1293,-89.356899,"LobbyHours Mon-Thurs: 8:30 a.m. - 5:30 p.m. / Fri: 8:30 a.m. - 5:30 p.m. / Sat: 8:30 a.m. - 1:00 p.m. / Sun: Closed, DriveUpHours Mon-Thurs: 8:00 a.m. - 6:00 p.m. / Fri: 8:00 a.m. - 6:00 p.m. / Sat: 8:30 a.m. - 1:00 p.m. / Sun: Closed",,,
Middleton (Allen Boulevard),,2420 Allen Boulevard,,Middleton,WI,53562,United States,608-831-6333,43.1006,-89.4864,"LobbyHours Mon-Thurs: 8:30 a.m. - 5:30 p.m. / Fri: 8:30 a.m. - 5:30 p.m. / Sat: 8:30 a.m. - 1:00 p.m. / Sun: Closed, DriveUpHours Mon-Thurs: 8:00 a.m. - 6:00 p.m. / Fri: 8:00 a.m. - 6:00 p.m. / Sat: 8:30 a.m. - 1:00 p.m. / Sun: Closed",,,
Madison (Cottage Grove),,4407 Cottage Grove Road,,Madison,WI,53716,United States,608-259-4275,43.084099,-89.306799,"LobbyHours Mon-Thurs: 8:30 a.m. - 5:30 p.m. / Fri: 8:30 a.m. - 5:30 p.m. / Sat: 8:30 a.m. - 1:00 p.m. / Sun: Closed, DriveUpHours Mon-Thurs: 8:00 a.m. - 6:00 p.m. / Fri: 8:00 a.m. - 6:00 p.m. / Sat: 8:30 a.m. - 1:00 p.m. / Sun: Closed",,,
Madison (West Towne Mall),,448 S. Gammon Road,,Madison,WI,53719,United States,608-259-2070,43.0581,-89.503,"LobbyHours Mon-Thurs: 8:30 a.m. - 5:30 p.m. / Fri: 8:30 a.m. - 5:30 p.m. / Sat: 8:30 a.m. - 1:00 p.m. / Sun: Closed, DriveUpHours Mon-Thurs: 8:00 a.m. - 6:00 p.m. / Fri: 8:00 a.m. - 6:00 p.m. / Sat: 8:30 a.m. - 1:00 p.m. / Sun: Closed",,,
Madison (East Towne Mall),,4402 East Towne Boulevard,,Madison,WI,53704,United States,608-259-4250,43.1266,-89.308099,"LobbyHours Mon-Thurs: 8:30 a.m. - 5:30 p.m. / Fri: 8:30 a.m. - 5:30 p.m. / Sat: 8:30 a.m. - 1:00 p.m. / Sun: Closed, DriveUpHours Mon-Thurs: 8:00 a.m. - 6:00 p.m. / Fri: 8:00 a.m. - 6:00 p.m. / Sat: 8:30 a.m. - 1:00 p.m. / Sun: Closed",,,
Madison (Excelsior),,8040 Excelsior Drive,,Madison,WI,53717,United States,608-259-3600,43.076099,-89.525,"LobbyHours Mon-Thurs: 8:30 a.m. - 5:30 p.m. / Fri: 8:30 a.m. - 5:30 p.m. / Sat: 8:30 a.m. - 1:00 p.m. / Sun: Closed, DriveUpHours Mon-Thurs: 8:30 a.m. - 6:00 p.m. / Fri: 8:30 a.m. - 6:00 p.m. / Sat: 8:30 a.m. - 1:00 p.m. / Sun: Closed",,,
Madison (McKee Road - Pick 'N Save),,6655A McKee Road (Pick 'N Save),,Madison,WI,53719,United States,608-848-9955,43.0157,-89.4984,LobbyHours Mon-Thurs: 9:00 a.m. - 7:00 p.m. / Fri: 9:00 a.m. - 7:00 p.m. / Sat: 9:00 a.m. - 4:00 p.m. / Sun: 10:00 a.m. - 2:00 p.m.,,,
McFarland Pick N Save,,5709 US Hwy 51 (McFarland Pick N Save),,McFarland,WI,53558,United States,,43.017,-89.301,,,,
McFarland,,5220 Farwell Street,,McFarland,WI,53558,United States,608-838-3101,43.0131,-89.2917,"LobbyHours Mon-Thurs: 8:30 a.m. - 5:30 p.m. / Fri: 8:30 a.m. - 5:30 p.m. / Sat: 8:30 a.m. - 1:00 p.m. / Sun: Closed, DriveUpHours Mon-Thurs: 8:00 a.m. - 6:00 p.m. / Fri: 8:00 a.m. - 6:00 p.m. / Sat: 8:30 a.m. - 1:00 p.m. / Sun: Closed",,,
Waunakee,,269 S. Century Avenue,,Waunakee,WI,53597,United States,608-849-7511,43.1901,-89.461799,"LobbyHours Mon-Thurs: 8:30 a.m. - 5:30 p.m. / Fri: 8:30 a.m. - 5:30 p.m. / Sat: 8:30 a.m. - 1:00 p.m. / Sun: Closed, DriveUpHours Mon-Thurs: 8:00 a.m. - 6:00 p.m. / Fri: 8:00 a.m. - 6:00 p.m. / Sat: 8:30 a.m. - 1:00 p.m. / Sun: Closed",,,
Windsor,,6343 Blanchars Crossing,,Windsor,WI,53598,United States,608-259-3788,43.197299,-89.332999,"LobbyHours Mon-Thurs: 8:30 a.m. - 5:30 p.m. / Fri: 8:30 a.m. - 5:30 p.m. / Sat: 8:30 a.m. - 1:00 p.m. / Sun: Closed, DriveUpHours Mon-Thurs: 8:00 a.m. - 6:00 p.m. / Fri: 8:00 a.m. - 6:00 p.m. / Sat: 8:30 a.m. - 1:00 p.m. / Sun: Closed",,,
Sun Prairie,,658 S Grand Ave,,Sun Prairie,WI,53590,United States,608-834-0301,43.170269,-89.265762,"LobbyHours Mon-Thurs: 8:30 a.m. - 5:30 p.m. / Fri: 8:30 a.m. - 5:30 p.m. / Sat: 8:30 a.m. - 1:00 p.m. / Sun: Closed, DriveUpHours Mon-Thurs: 8:00 a.m. - 6:00 p.m. / Fri: 8:00 a.m. - 6:00 p.m. / Sat: 8:30 a.m. - 1:00 p.m. / Sun: Closed",,,
Sun Prairie Copps East,,640 E Main St (Sun Prairie Copps East),,Sun Prairie,WI,53590,United States,,43.18138,-89.20491,,,,
Stoughton,,117 King Street,,Stoughton,WI,53589,United States,608-873-6666,42.918199,-89.2368,"LobbyHours Mon-Thurs: 8:30 a.m. - 5:30 p.m. / Fri: 8:30 a.m. - 5:30 p.m. / Sat: 8:30 a.m. - 1:00 p.m. / Sun: Closed, DriveUpHours Mon-Thurs: 8:00 a.m. - 6:00 p.m. / Fri: 8:00 a.m. - 6:00 p.m. / Sat: 8:30 a.m. - 1:00 p.m. / Sun: Closed",,,
Lodi (Main),,102 N. Main Street,,Lodi,WI,53555,United States,608-592-3251,43.313899,-89.5267,"LobbyHours Mon-Thurs: 8:30 a.m. - 5:00 p.m. / Fri: 8:30 a.m. - 5:00 p.m. / Sat: 8:30 a.m. - 12:00 p.m. / Sun: Closed, DriveUpHours Mon-Thurs: 7:30 a.m. - 6:00 p.m. / Fri: 7:30 a.m. - 6:00 p.m. / Sat: 8:30 a.m. - 12:00 p.m. / Sun: Closed",,,
Columbus,,111 Tower Drive,,Columbus,WI,53925,United States,920-623-6000,43.3297,-89.026399,"LobbyHours Mon-Thurs: 8:30 a.m. - 5:00 p.m. / Fri: 8:30 a.m. - 5:00 p.m. / Sat: 8:30 a.m. - 12:00 p.m. / Sun: Closed, DriveUpHours Mon-Thurs: 8:00 a.m. - 5:00 p.m. / Fri: 8:00 a.m. - 5:30 p.m. / Sat: 8:00 a.m. - 12:00 p.m. / Sun: Closed",,,
Fort Atkinson,,37 E Milwaukee Ave (Fort Atkinson),,Fort Atkinson,WI,53538,United States,,42.927155,-88.835358,,,,
DeKalb Sycamore Road,,1325 Sycamore Rd. (DeKalb Sycamore Road),,DeKalb,IL,60115,United States,,41.9433,-88.7381,,,,
Rockford (Main),,612 N. Main Street,,Rockford,IL,61103,United States,815-987-3500,42.2761,-89.0909,"LobbyHours Mon-Thurs: 9:00 a.m. - 5:00 p.m. / Fri: 9:00 a.m. - 6:00 p.m. / Sat: Closed / Sun: Closed, DriveUpHours Mon-Thurs: 8:00 a.m. - 6:00 p.m. / Fri: 8:00 a.m. - 6:00 p.m. / Sat: Closed / Sun: Closed",,,
Rockford (Rockton),,3333 N. Rockton Avenue,,Rockford,IL,61103,United States,815-987-3580,42.308799,-89.0969,"LobbyHours Mon-Thurs: 9:00 a.m. - 5:00 p.m. / Fri: 9:00 a.m. - 6:00 p.m. / Sat: 9:00 a.m. - 1:00 p.m. / Sun: Closed, DriveUpHours Mon-Thurs: 8:00 a.m. - 6:00 p.m. / Fri: 8:00 a.m. - 6:00 p.m. / Sat: 8:00 a.m. - 1:00 p.m. / Sun: Closed",,,
Rockford (11th Street Schnucks),,3134A  11th Street (Schnucks),,Rockford,IL,61109,United States,815-987-2850,42.227899,-89.072199,LobbyHours Mon-Thurs: 9:00 a.m. - 6:00 p.m. / Fri: 9:00 a.m. - 6:00 p.m. / Sat: 10:00 a.m. - 2:00 p.m. / Sun: 10:00 a.m. - 2:00 p.m.,,,
Rockford (Five Points),,4400 Center Terrace,,Rockford,IL,61108,United States,815-987-3510,42.253599,-89.0317,"LobbyHours Mon-Thurs: 9:00 a.m. - 5:00 p.m. / Fri: 9:00 a.m. - 6:00 p.m. / Sat: 9:00 a.m. - 1:00 p.m. / Sun: Closed, DriveUpHours Mon-Thurs: 8:00 a.m. - 6:00 p.m. / Fri: 8:00 a.m. - 6:00 p.m. / Sat: 8:00 a.m. - 1:00 p.m. / Sun: Closed",,,
Machesney Park,,622 Roosevelt Road,,Machesney Park,IL,61115,United States,815-987-3610,42.347,-89.055,"LobbyHours Mon-Thurs: 9:00 a.m. - 5:00 p.m. / Fri: 9:00 a.m. - 6:00 p.m. / Sat: 9:00 a.m. - 1:00 p.m. / Sun: Closed, DriveUpHours Mon-Thurs: 8:00 a.m. - 6:00 p.m. / Fri: 8:00 a.m. - 6:00 p.m. / Sat: 8:00 a.m. - 1:00 p.m. / Sun: Closed",,,
Rockford (Perryville),,1870 North Perryville Road,,Rockford,IL,61107,United States,815-490-6900,42.2913,-88.9803,"LobbyHours Mon-Thurs: 9:00 a.m. - 5:00 p.m. / Fri: 9:00 a.m. - 6:00 p.m. / Sat: 9:00 a.m. - 1:00 p.m. / Sun: Closed, DriveUpHours Mon-Thurs: 8:00 a.m. - 6:00 p.m. / Fri: 8:00 a.m. - 6:00 p.m. / Sat: 8:00 a.m. - 1:00 p.m. / Sun: Closed",,,
Beloit (Henry Avenue),,602 Henry Avenue,,Beloit,WI,53511,United States,608-364-9044,42.5225,-89.0343,"LobbyHours Mon-Thurs: 9:00 a.m. - 5:00 p.m. / Fri: 9:00 a.m. - 6:00 p.m. / Sat: 9:00 a.m. -1:00 p.m. / Sun: Closed, DriveUpHours Mon-Thurs: 8:00 a.m. - 6:00 p.m. / Fri: 8:00 a.m. - 6:00 p.m. / Sat: 8:00 a.m. - 1:00 p.m. / Sun: Closed",,,
Janesville (Pick 'n Save),,1717 S. Center Avenue (Pick 'n Save),,Janesville,WI,53546,United States,608-741-5290,42.654499,-89.031199,LobbyHours Mon-Thurs: 9:00 a.m. - 7:00 p.m. / Fri: 9:00 a.m. - 7:00 p.m. / Sat: 9:00 a.m. - 4:00 p.m. / Sun: 10:00 a.m. - 2:00 p.m.,,,
Janesville (Lexington Drive),,2720 N. Lexington Drive,,Janesville,WI,53545,United States,608-756-5112,42.715899,-88.9937,"LobbyHours Mon-Thurs: 8:30 a.m. - 5:30 p.m. / Fri: 8:30 a.m. - 5:30 p.m. / Sat: 8:30 a.m. - 1:00 p.m. / Sun: Closed, DriveUpHours Mon-Thurs: 7:30 a.m. - 6:00 p.m. / Fri: 7:30 a.m. - 6:00 p.m. / Sat: 8:30 a.m. - 1:00 p.m. / Sun: Closed",,,
Delavan,,709 E. Geneva Street,,Delavan,WI,53115,United States,262-728-6337,42.627499,-88.6374,"LobbyHours Mon-Thurs: 9:00 a.m. - 5:00 p.m. / Fri: 9:00 a.m. - 6:00 p.m. / Sat: 9:00 a.m. - 12:00 p.m. / Sun: Closed, DriveUpHours Mon-Thurs: 8:00 a.m. - 5:30 p.m. / Fri: 8:00 a.m. - 6:00 p.m. / Sat: 8:00 a.m. - 12:00 p.m. / Sun: Closed",,,
Monroe,,1420 11th Street,,Monroe,WI,53566,United States,608-328-8101,42.6011,-89.641999,"LobbyHours Mon-Thurs: 8:30 a.m. - 5:00 p.m. / Fri: 8:30 a.m. - 5:00 p.m. / Sat: 8:30 a.m. - 12:00 p.m. / Sun: Closed, DriveUpHours Mon-Thurs: 8:00 a.m. - 5:30 p.m. / Fri: 8:00 a.m. - 6:00 p.m. / Sat: 8:00 a.m. - 12:00 p.m. / Sun: Closed",,,
Elkhorn,,850 N. Wisconsin Street,,Elkhorn,WI,53121,United States,262-743-1600,42.6884,-88.5416,"LobbyHours Mon-Thurs: 9:00 a.m. - 5:00 p.m. / Fri: 9:00 a.m. - 6:00 p.m. / Sat: 9:00 a.m. - 12:00 p.m. / Sun: Closed, DriveUpHours Mon-Thurs: 8:00 a.m. - 5:30 p.m. / Fri: 8:00 a.m. - 6:00 p.m. / Sat: 8:00 a.m. - 12:00 p.m. / Sun: Closed",,,
Lake Geneva (Piggly Wiggly),,100 East Geneva Square (Piggly Wiggly),,Lake Geneva,WI,53147,United States,262-249-4340,42.60669,-88.424804,LobbyHours Mon-Thurs: 9:00 a.m. - 7:00 p.m. / Fri: 9:00 a.m. - 7:00 p.m. / Sat: 9:00 a.m. - 4:00 p.m. / Sun: 10:00 a.m. - 2:00 p.m.,,,
Richmond,,10910 Main Street,,Richmond,IL,60071,United States,815-678-2461,42.4861,-88.3061,"LobbyHours Mon-Thurs: 9:00 a.m. - 5:00 p.m. / Fri: 9:00 a.m. - 6:00 p.m. / Sat: 9:00 a.m. - 1:00 p.m. / Sun: Closed, DriveUpHours Mon-Thurs: 8:30 a.m. - 5:30 p.m. / Fri: 8:30 a.m. - 6:00 p.m. / Sat: 9:00 a.m. - 1:00 p.m. / Sun: Closed",,,
Whitewater,,219 W Center Street,,Whitewater,WI,53190,United States,262-473-6880,42.8335,-88.732699,"LobbyHours Mon-Thurs: 9:00 a.m. - 5:00 p.m. / Fri: 9:00 a.m. - 6:00 p.m. / Sat: 9:00 a.m. - 1:00 p.m. / Sun: Closed, DriveUpHours Mon-Thurs: 8:00 a.m. - 5:00 p.m. / Fri: 8:00 a.m. - 6:00 p.m. / Sat: 8:00 a.m. - 1:00 p.m. / Sun: Closed",,,
Twin Lakes,,213 N. Lake Avenue,,Twin Lakes,WI,53181,United States,262-877-2113,42.533,-88.248099,"LobbyHours Mon-Thurs: 9:00 a.m. - 5:00 p.m. / Fri: 9:00 a.m. - 6:00 p.m. / Sat: 9:00 a.m. - 12:00 p.m. / Sun: Closed, DriveUpHours Mon-Thurs: 8:00 a.m. - 5:30 p.m. / Fri: 8:00 a.m. - 6:00 p.m. / Sat: 8:00 a.m. - 12:00 p.m. / Sun: Closed",,,
Peoria (Jefferson),,240 SW Jefferson Avenue,,Peoria,IL,61602,United States,309-671-1700,40.692999,-89.590299,LobbyHours Mon-Thurs: 9:00 a.m. - 5:00 p.m. / Fri: 9:00 a.m. - 5:00 p.m. / Sat: Closed / Sun: Closed,,,
East Peoria,,300 E. Washington Street,,East Peoria,IL,61611,United States,309-698-2265,40.664,-89.5763,"LobbyHours Mon-Thurs: 9:00 a.m. - 5:00 p.m. / Fri: 9:00 a.m. - 5:30 p.m. / Sat: 9:00 a.m. - 12:00 p.m. / Sun: Closed, DriveUpHours Mon-Thurs: 8:30 a.m. - 5:00 p.m. / Fri: 8:30 a.m. - 5:30 p.m. / Sat: 8:30 a.m. - 12:00 p.m. / Sun: Closed",,,
Peoria (Brandywine),,4600 Brandywine Drive,,Peoria,IL,61614,United States,309-682-5100,40.7441,-89.628299,"LobbyHours Mon-Thurs: 8:30 a.m. - 5:00 p.m. / Fri: 8:30 a.m. - 5:30 p.m. / Sat: 8:30 a.m. - 12:00 p.m. / Sun: Closed, DriveUpHours Mon-Thurs: 8:30 a.m. - 5:30 p.m. / Fri: 8:30 a.m. - 6:00 p.m. / Sat: 8:30 a.m. - 12:00 p.m. / Sun: Closed",,,
Peoria (Pioneer Parkway),,2311 West Pioneer Parkway,,Peoria,IL,61615,United States,309-692-2150,40.783499,-89.628299,"LobbyHours Mon-Thurs: 8:30 a.m. - 5:00 p.m. / Fri: 8:30 a.m. - 5:30 p.m. / Sat: 8:30 a.m. - 12:00 p.m. / Sun: Closed, DriveUpHours Mon-Thurs: 8:30 a.m. - 5:00 p.m. / Fri: 8:30 a.m. - 5:30 p.m. / Sat: 8:30 a.m. - 12:00 p.m. / Sun: Closed",,,
Pekin (Downtown),,300 S. Fourth Street,,Pekin,IL,61554,United States,309-346-4175,40.567599,-89.647999,"LobbyHours Mon-Thurs: 8:30 a.m. - 5:00 p.m. / Fri: 8:30 a.m. - 5:30 p.m. / Sat: 8:30 a.m. - 12:00 p.m. / Sun: Closed, DriveUpHours Mon-Thurs: 8:30 a.m. - 5:00 p.m. / Fri: 8:30 a.m. - 5:30 p.m. / Sat: 8:30 a.m. - 12:00 p.m. / Sun: Closed",,,
Chillicothe,,1007 N. 4th Street,,Chillicothe,IL,61523,United States,309-274-2136,40.917999,-89.4881,"LobbyHours Mon-Thurs: 8:30 a.m. - 5:00 p.m. / Fri: 8:30 a.m. - 5:00 p.m. / Sat: 8:30 a.m. - 12:00 p.m. / Sun: Closed, DriveUpHours Mon-Thurs: 8:30 a.m. - 5:00 p.m. / Fri: 8:30 a.m. - 6:00 p.m. / Sat: 8:30 a.m. - 12:00 p.m. / Sun: Closed",,,
Rochester (Apache Mall),,1155 16th Street SW.,,Rochester,MN,55902,United States,507-285-2626,44.0005,-92.477699,"LobbyHours Mon-Thurs: 8:30 a.m. - 5:30 p.m. / Fri: 8:30 a.m. - 5:30 p.m. / Sat: 9:00 a.m. - 12:00 p.m. / Sun: Closed, DriveUpHours Mon-Thurs: 7:30 a.m. - 6:00 p.m. / Fri: 7:30 a.m. - 6:00 p.m. / Sat: 9:00 a.m. - 12:00 p.m. / Sun: Closed",,,
Rochester (Subway),,"101 1st Avenue, SW.",,Rochester,MN,55902,United States,507-285-2630,44.0225,-92.4645,LobbyHours Mon-Thurs: 7:30 a.m. - 4:30 p.m. / Fri: 7:30 a.m. - 4:30 p.m. / Sat: Closed / Sun: Closed,,,
Rochester (Downtown),,206 South Broadway,,Rochester,MN,55904,United States,507-285-2600,44.0214,-92.4628,"LobbyHours Mon-Thurs: 9:00 a.m. - 5:00 p.m. / Fri: 9:00 a.m. - 5:00 p.m. / Sat: Closed / Sun: Closed, DriveUpHours Mon-Thurs: 8:00 a.m. - 5:00 p.m. / Fri: 8:00 a.m. - 5:00 p.m. / Sat: Closed / Sun: Closed",,,
Rochester (Circle Dr),,1985 Commerce Drive NW,,Rochester,MN,55901,United States,507-424-3049,44.052189,-92.520851,"LobbyHours Mon-Thurs: 9:00 a.m. - 5:00 p.m. / Fri: 9:00 a.m. - 5:00 p.m. / Sat: 9:00 a.m. - 12:00 p.m. / Sun: Closed, DriveUpHours Mon-Thurs: 8:00 a.m. - 5:30 p.m. / Fri: 8:00 a.m. - 5:30 p.m. / Sat: 9:00 a.m. - 12:00 p.m. / Sun: Closed",,,
Red Wing  (Drive-Thru),,403 West 4th Street,,Red Wing,MN,55066,United States,651-385-1601,44.5645,-92.5331,"LobbyHours Mon-Thurs: 9:00 a.m. - 5:00 p.m. / Fri: 9:00 a.m. - 6:00 p.m. / Sat: 9:00 a.m. - 12:00 p.m. / Sun: Closed, DriveUpHours Mon-Thurs: 7:30 a.m. - 5:30 p.m. / Fri: 7:30 a.m. - 6:00 p.m. / Sat: 8:30 a.m. - 12:00 p.m. / Sun: Closed",,,
Green Bay (Main),,200 N. Adams Street,,Green Bay,WI,54301,United States,920-433-3200,44.5148,-88.013999,LobbyHours Mon-Thurs: 8:30 a.m. - 5:00 p.m. / Fri: 8:30 a.m. - 5:00 p.m. / Sat: Closed / Sun: Closed,,,
Green Bay (Main Drive-Thru),,224 N. Jefferson Street,,Green Bay,WI,54301,United States,920-433-3242,44.514519,-88.012461,DriveUpHours Mon-Thurs: 7:30 a.m. - 5:30 p.m. / Fri: 7:30 a.m. - 5:30 p.m. / Sat: 8:30 a.m. - 12:00 p.m. / Sun: Closed,,,
Green Bay (Associated Center),,433 Main Street (Office),,Green Bay,WI,54301,United States,,44.517727,-88.009331,,,,
Green Bay Downtown,,230 N. Monroe Street (Green Bay Downtown),,Green Bay,WI,54301,United States,,44.5135,-88.0096,,,,
Bellin Memorial Hospital,,744 S. Webster Ave (Bellin Memorial Hospital),,Green Bay,WI,54305,United States,,44.501893,-88.01067,,,,
Green Bay (Fisk),,1482 West Mason Street,,Green Bay,WI,54302,United States,920-431-8869,44.522399,-88.060299,"LobbyHours Mon-Thurs: 9:00 a.m. - 5:30 p.m. / Fri: 9:00 a.m. - 6:00 p.m. / Sat: 8:30 a.m. - 12:00 p.m. / Sun: Closed, DriveUpHours Mon-Thurs: 8:00 a.m. - 6:00 p.m. / Fri: 8:00 a.m. - 6:00 p.m. / Sat: 8:30 a.m. - 12:00 p.m. / Sun: Closed",,,
Lambeau Field [12],,1265 Lombardi Ave [12] (Lambeau Field),,Green Bay,WI,54304,United States,,44.503079,-88.061044,,,,
Green Bay (Allouez),,2001 S. Webster Avenue,,Green Bay,WI,54301,United States,920-433-3251,44.4851,-88.021199,"LobbyHours Mon-Thurs: 9:00 a.m. - 5:30 p.m. / Fri: 9:00 a.m. - 6:00 p.m. / Sat: 8:30 a.m. - 12:00 p.m. / Sun: Closed, DriveUpHours Mon-Thurs: 8:00 a.m. - 6:00 p.m. / Fri: 8:00 a.m. - 6:00 p.m. / Sat: 8:30 a.m. - 12:00 p.m. / Sun: Closed",,,
Green Bay (University),,2262 University Avenue,,Green Bay,WI,54302,United States,920-431-8060,44.512999,-87.9654,"LobbyHours Mon-Thurs: 9:00 a.m. - 5:30 p.m. / Fri: 9:00 a.m. - 6:00 p.m. / Sat: 8:30 a.m. - 12:00 p.m. / Sun: Closed, DriveUpHours Mon-Thurs: 8:00 a.m. - 6:00 p.m. / Fri: 8:00 a.m. - 6:00 p.m. / Sat: 8:30 a.m. - 12:00 p.m. / Sun: Closed",,,
Green Bay (Ashwaubenon),,"2403 S. Oneida Street,    P.O. Box 19006",,Green Bay,WI,54304,United States,920-433-3196,44.4861,-88.0674,"LobbyHours Mon-Thurs: 9:00 a.m. - 5:30 p.m. / Fri: 9:00 a.m. - 6:00 p.m. / Sat: 8:30 a.m. - 12:00 p.m. / Sun: Closed, DriveUpHours Mon-Thurs: 8:00 a.m. - 6:00 p.m. / Fri: 8:00 a.m. - 6:00 p.m. / Sat: 8:30 a.m. - 12:00 p.m. / Sun: Closed",,,
Green Bay (Festival Foods West),,2252 W. Mason Street (Festival Foods West),,Green Bay,WI,54303,United States,920-490-4242,44.5244,-88.087,LobbyHours Mon-Thurs: 9:00 a.m. - 7:00 p.m. / Fri: 9:00 a.m. - 7:00 p.m. / Sat: 9:00 a.m. - 4:00 p.m. / Sun: 10:00 a.m. - 2:00 p.m.,,,
Green Bay (East),,"2241 Main Street,  Suite A",,Green Bay,WI,54302,United States,920-431-8849,44.4827,-87.9702,"LobbyHours Mon-Thurs: 9:00 a.m. - 5:30 p.m. / Fri: 9:00 a.m. - 6:00 p.m. / Sat: 8:30 a.m. - 12:00 p.m. / Sun: Closed, DriveUpHours Mon-Thurs: 8:00 a.m. - 6:00 p.m. / Fri: 8:00 a.m. - 6:00 p.m. / Sat: 8:30 a.m. - 12:00 p.m. / Sun: Closed",,,
Green Bay (Howard),,369 Cardinal lane,,Howard,WI,54313,United States,920-433-3000,44.5503,-88.0849,"LobbyHours Mon-Thurs: 9:00 a.m. - 5:30 p.m. / Fri: 9:00 a.m. - 6:00 p.m. / Sat: 8:30 a.m. - 12:00 p.m. / Sun: Closed, DriveUpHours Mon-Thurs: 8:00 a.m. - 6:00 p.m. / Fri: 8:00 a.m. - 6:00 p.m. / Sat: 8:30 a.m. - 12:00 a.m. / Sun: Closed",,,
Green Bay (Holmgren),,2870 Holmgren Way (Service Center),,Green Bay,WI,54304,United States,,44.469929,-88.07311,,,,
Green Bay (Festival Foods East),,2534A Steffens Court (Festival Foods East),,Green Bay,WI,54311,United States,920-406-2060,44.469999,-87.9577,LobbyHours Mon-Thurs: 9:00 a.m. - 7:00 p.m. / Fri: 9:00 a.m. - 7:00 p.m. / Sat: 9:00 a.m. - 4:00 p.m. / Sun: 10:00 a.m. - 2:00 p.m.,,,
Aurora Baycare Medical,,2845 Green Briar Rd (Aurora Baycare Medical),,Green Bay,WI,54311,United States,,44.4733,-87.941699,,,,
De Pere (East Drive-Thru),,206 N Wisconsin St,,De Pere,WI,54115,United States,N/A--,44.450359,-88.058609,DriveUpHours Mon-Thurs: 8:00 a.m. - 6:00 p.m. / Fri: 8:00 a.m. - 6:00 p.m. / Sat: 8:30 a.m. - 12:00 p.m. / Sun: Closed,,,
De Pere (East),,206 N. Wisconsin Street,,De Pere,WI,54115,United States,920-338-7763,44.450099,-88.0592,LobbyHours Mon-Thurs: 9:00 a.m. - 5:30 p.m. / Fri: 9:00 a.m. - 6:00 p.m. / Sat: 8:30 a.m. - 12:00 p.m. / Sun: Closed,,,
De Pere (West Drive-Thru),,201 N. 9th Street,,De Pere,WI,54115,United States,920-983-9850,44.4513,-88.0828,DriveUpHours Mon-Thurs: 7:30 a.m. - 5:30 p.m. / Fri: 7:30 a.m. - 5:30 p.m. / Sat: 8:30 a.m. - 12:00 p.m. / Sun: Closed,,,
Suamico (Festival Foods),,2348 Lineville Road (Festival Foods),,Suamico,WI,54313,United States,920-431-8080,44.591079,-88.074234,LobbyHours Mon-Thurs: 9:00 a.m. - 7:00 p.m. / Fri: 9:00 a.m. - 7:00 p.m. / Sat: 9:00 a.m. - 4:00 p.m. / Sun: 10:00 a.m. - 2:00 p.m.,,,
De Pere (Festival Foods),,1003 Main Avenue (Festival Foods),,De Pere,WI,54115,United States,920-339-2360,44.4513,-88.085899,LobbyHours Mon-Thurs: 9:00 a.m. - 7:00 p.m. / Fri: 9:00 a.m. - 7:00 p.m. / Sat: 9:00 a.m. - 4:00 p.m. / Sun: 10:00 a.m. - 2:00 p.m.,,,
Kimberly - ABRC,,711 Eisenhower Drive (Office),,Kimberly,WI,54136,United States,,44.26078,-88.346077,,,,
Appleton Festival Foods,,W3195 Van Roy Rd (Appleton Festival Foods),,Appleton,WI,54915,United States,,44.255826,-88.350543,,,,
Appleton (Darboy),,W3122 County Road KK,,Appleton,WI,54915,United States,920-731-7212,44.243742,-88.344622,"LobbyHours Mon-Thurs: 8:30 a.m. - 5:00 p.m. / Fri: 8:30 a.m. - 5:30 p.m. / Sat: 9:00 a.m. - 12:00 p.m. / Sun: Closed, DriveUpHours Mon-Thurs: 7:30 a.m. - 5:30 p.m. / Fri: 7:30 a.m. - 5:30 p.m. / Sat: 9:00 a.m. - 12:00 p.m. / Sun: Closed",,,
Oconto Falls,,134 N. Main Street,,Oconto Falls,WI,54154,United States,920-846-2831,44.8746,-88.1431,LobbyHours Mon-Thurs: 8:30 a.m. - 4:30 p.m. / Fri: 8:30 a.m. - 5:00 p.m. / Sat: 8:30 a.m. - 11:30 a.m. / Sun: Closed,,,
Kenosha (Pick 'n Save 18th Street),,2811A  18th Street (Pick 'n Save),,Kenosha,WI,53140,United States,262-597-3730,42.624499,-87.8435,LobbyHours Mon-Thurs: 9:00 a.m. - 7:00 p.m. / Fri: 9:00 a.m. - 7:00 p.m. / Sat: 9:00 a.m. - 4:00 p.m. / Sun: 10:00 a.m. - 2:00 p.m.,,,
Kenosha (Pick 'n Save 75th Street),,5710 75th Street (Pick 'n Save),,Kenosha,WI,53142,United States,262-942-4430,42.566585,-87.876594,LobbyHours Mon-Thurs: 9:00 a.m. - 7:00 p.m. / Fri: 9:00 a.m. - 7:00 p.m. / Sat: 9:00 a.m. - 4:00 p.m. / Sun: 10:00 a.m. - 2:00 p.m.,,,
Racine,,"5439 Durand Avenue, Suite 100",,Racine,WI,53406,United States,262-554-8540,42.697099,-87.844899,"LobbyHours Mon-Thurs: 9:00 a.m. - 6:00 p.m. / Fri: 9:00 a.m. - 6:00 p.m. / Sat: 9:00 a.m. - 1:00 p.m. / Sun: Closed, DriveUpHours Mon-Thurs: 8:00 a.m. - 6:00 p.m. / Fri: 8:00 a.m. - 6:30 p.m. / Sat: 8:00 a.m. - 1:00 p.m. / Sun: Closed",,,
Racine Washington,,5205 Washington,,Racine,WI,53406,United States,262-631-3777,42.71838,-87.842461,"LobbyHours Mon-Thurs: 9:00 a.m. - 5:00 p.m. / Fri: 9:00 a.m. - 6:00 p.m. / Sat: 9:00 a.m. - 1:00 p.m. / Sun: Closed, DriveUpHours Mon-Thurs: 8:30 a.m. - 5:30 p.m. / Fri: 8:30 a.m. - 6:00 p.m. / Sat: 8:30 a.m. - 1:00 p.m. / Sun: Closed",,,
Burlington,,"1050 S. Milwaukee Avenue,   P.O. Box 508",,Burlington,WI,53105,United States,262-763-9955,42.7038,-88.2493,"LobbyHours Mon-Thurs: 9:00 a.m. - 5:00 p.m. / Fri: 9:00 a.m. - 6:00 p.m. / Sat: 9:00 a.m. - 12:00 p.m. / Sun: Closed, DriveUpHours Mon-Thurs: 8:00 a.m. - 5:30 p.m. / Fri: 8:00 a.m. - 6:00 p.m. / Sat: 8:00 a.m. - 12:00 p.m. / Sun: Closed",,,
Waterford,,217 N. Milwaukee Street,,Waterford,WI,53185,United States,262-534-3151,42.765599,-88.209299,"LobbyHours Mon-Thurs: 9:00 a.m. - 5:00 p.m. / Fri: 9:00 a.m. - 6:00 p.m. / Sat: 9:00 a.m. - 12:00 p.m. / Sun: Closed, DriveUpHours Mon-Thurs: 8:00 a.m. - 5:30 p.m. / Fri: 8:00 a.m. - 6:00 p.m. / Sat: 8:00 a.m. - 12:00 p.m. / Sun: Closed",,,
Muskego,,S76 W17655 Janesville Road,,Muskego,WI,53150,United States,262-679-2800,42.9067,-88.134699,"LobbyHours Mon-Thurs: 9:00 a.m. - 5:00 p.m. / Fri: 9:00 a.m. - 6:00 p.m. / Sat: 9:00 a.m. - 12:00 p.m. / Sun: Closed, DriveUpHours Mon-Thurs: 8:30 a.m. - 5:00 p.m. / Fri: 8:30 a.m. - 6:00 p.m. / Sat: 9:00 a.m. - 1:00 p.m. / Sun: Closed",,,
New Berlin,,15665 W. National Avenue,,New Berlin,WI,53151,United States,262-784-9587,42.9757,-88.1092,"LobbyHours Mon-Thurs: 9:00 a.m. - 6:00 p.m. / Fri: 9:00 a.m. - 6:00 p.m. / Sat: 9:00 a.m. - 1:00 p.m. / Sun: Closed, DriveUpHours Mon-Thurs: 8:00 a.m. - 6:00 p.m. / Fri: 8:00 a.m. - 6:00 p.m. / Sat: 8:00 a.m. - 1:00 p.m. / Sun: Closed",,,
Appleton Copps Valley Fair,,511 West Calumet St. (Appleton Copps Valley Fair),,Appleton,WI,54914,United States,,44.243147,-88.413493,,,,
Appleton (Memorial),,2175 S. Memorial Drive,,Appleton,WI,54915,United States,920-727-5450,44.241572,-88.417563,"LobbyHours Mon-Thurs: 8:30 a.m. - 5:00 p.m. / Fri: 8:30 a.m. - 5:30 p.m. / Sat: 9:00 a.m. - 12:00 p.m. / Sun: Closed, DriveUpHours Mon-Thurs: 8:30 a.m. - 5:30 p.m. / Fri: 8:30 a.m. - 5:30 p.m. / Sat: 9:00 a.m. - 12:00 p.m. / Sun: Closed",,,
Appleton (Northland),,2701 N. Richmond Street,,Appleton,WI,54911,United States,920-831-2788,44.286,-88.4158,"LobbyHours Mon-Thurs: 8:30 a.m. - 5:00 p.m. / Fri: 8:30 a.m. - 5:30 p.m. / Sat: 9:00 a.m. - 12:00 p.m. / Sun: Closed, DriveUpHours Mon-Thurs: 7:30 a.m. - 5:30 p.m. / Fri: 7:30 a.m. - 5:30 p.m. / Sat: 9:00 a.m. - 12:00 p.m. / Sun: Closed",,,
Appleton Grand Chute,,1195 N. Casaloma,,Appleton,WI,54913,United States,920-738-5200,44.27095,-88.476913,"LobbyHours Mon-Thurs: 8:30 a.m. - 5:00 p.m. / Fri: 8:30 a.m. - 5:30 p.m. / Sat: 9:00 a.m. - 12:00 p.m. / Sun: Closed, DriveUpHours Mon-Thurs: 7:30 a.m. - 5:30 p.m. / Fri: 7:30 a.m. - 5:30 p.m. / Sat: 9:00 a.m. - 12:00 p.m. / Sun: Closed",,,
Neenah (Main),,100 W. Wisconsin Avenue,,Neenah,WI,54956,United States,920-722-3321,44.1865,-88.4616,LobbyHours Mon-Thurs: 8:30 a.m. - 5:00 p.m. / Fri: 8:30 a.m. - 5:30 p.m. / Sat: 9:00 a.m. - 12:00 p.m. / Sun: Closed,,,
Neenah (Drive-thru),,109 E. Doty Avenue,,Neenah,WI,54956,United States,920-722-3321,44.185648,-88.462165,DriveUpHours Mon-Thurs: 8:00 a.m. - 5:30 p.m. / Fri: 8:00 a.m. - 5:30 p.m. / Sat: 9:00 a.m. - 12:00 p.m. / Sun: Closed,,,
Neenah  (Festival Foods),,647 S. Green Bay Road (Festival Foods),,Neenah,WI,54956,United States,920-727-5444,44.178913,-88.485228,LobbyHours Mon-Thurs: 9:00 a.m. - 7:00 p.m. / Fri: 9:00 a.m. - 7:00 p.m. / Sat: 9:00 a.m. - 4:00 p.m. / Sun: 10:00 a.m. - 2:00 p.m.,,,
Neenah Copps,,1530 S Commercial St (Neenah Copps),,Neenah,WI,54956,United States,,44.1557,-88.463499,,,,
Oshkosh (Murdock),,10 West Murdock Avenue,,Oshkosh,WI,54901,United States,920-236-6605,44.039499,-88.5377,"LobbyHours Mon-Thurs: 8:30 a.m. - 5:00 p.m. / Fri: 8:30 a.m. - 5:30 p.m. / Sat: 9:00 a.m. - 12:00 p.m. / Sun: Closed, DriveUpHours Mon-Thurs: 8:30 a.m. - 5:30 p.m. / Fri: 8:30 a.m. - 5:30 p.m. / Sat: 9:00 a.m. - 12:00 p.m. / Sun: Closed",,,
Oshkosh (Sawyer),,444 N. Sawyer Street,,Oshkosh,WI,54902,United States,920-236-8100,44.0236,-88.5673,"LobbyHours Mon-Thurs: 8:30 a.m. - 5:00 p.m. / Fri: 8:30 a.m. - 5:30 p.m. / Sat: 9:00 a.m. - 12:00 p.m. / Sun: Closed, DriveUpHours Mon-Thurs: 8:30 a.m. - 5:30 p.m. / Fri: 8:30 a.m. - 5:30 p.m. / Sat: 9:00 a.m. - 12:00 p.m. / Sun: Closed",,,
Oshkosh (Festival Foods),,2415A Westowne Avenue (Festival Foods),,Oshkosh,WI,54904,United States,920-232-7647,44.0304,-88.5899,LobbyHours Mon-Thurs: 9:00 a.m. - 7:00 p.m. / Fri: 9:00 a.m. - 7:00 p.m. / Sat: 9:00 a.m. - 4:00 p.m. / Sun: 10:00 a.m. - 2:00 p.m.,,,
Waukesha (Downtown),,704 N. Grand Avenue,,Waukesha,WI,53186,United States,262-547-9100,43.0097,-88.2316,"LobbyHours Mon-Thurs: 9:00 a.m. - 6:00 p.m. / Fri: 9:00 a.m. - 6:00 p.m. / Sat: 9:00 a.m. - 1:00 p.m. / Sun: Closed, DriveUpHours Mon-Thurs: 8:00 a.m. - 6:00 p.m. / Fri: 8:00 a.m. - 6:00 p.m. / Sat: 8:30 a.m. - 1:00 p.m. / Sun: Closed",,,
Waukesha,,100 E. Sunset Drive,,Waukesha,WI,53189,United States,262-547-0234,42.9883,-88.227199,"LobbyHours Mon-Thurs: 9:00 a.m. - 5:00 p.m. / Fri: 9:00 a.m. - 6:00 p.m. / Sat: 9:00 a.m. - 1:00 p.m. / Sun: Closed, DriveUpHours Mon-Thurs: 8:00 a.m. - 5:00 p.m. / Fri: 8:00 a.m. - 6:00 p.m. / Sat: 8:00 a.m. - 1:00 p.m. / Sun: Closed",,,
Waukesha (West Sunset),,1270 W. Sunset Drive,,Waukesha,WI,53189,United States,262-544-0880,42.988502,-88.26192,"LobbyHours Mon-Thurs: 9:00 a.m. - 6:00 p.m. / Fri: 9:00 a.m. - 6:00 p.m. / Sat: 9:00 a.m. - 1:00 p.m. / Sun: Closed, DriveUpHours Mon-Thurs: 8:00 a.m. - 6:00 p.m. / Fri: 8:00 a.m. - 6:00 p.m. / Sat: 8:00 a.m. - 1:00 p.m. / Sun: Closed",,,
Waukesha Grandview,,2815 N Grandview Blvd,,Pewaukee,WI,53072,United States,262-547-8899,43.043297,-88.255081,"LobbyHours Mon-Thurs: 9:00 a.m. - 6:00 p.m. / Fri: 9:00 a.m. - 6:00 p.m. / Sat: 9:00 a.m. - 1:00 p.m. / Sun: Closed, DriveUpHours Mon-Thurs: 8:00 a.m. - 6:00 p.m. / Fri: 8:00 a.m. - 6:00 p.m. / Sat: 8:00 a.m. - 1:00 p.m. / Sun: Closed",,,
Waukesha - ABRC,,N16  W23250 Stone Ridge Drive (Office),,Waukesha,WI,53188,United States,,43.053409,-88.211624,,,,
Brookfield (Bluemound),,19601 W. Bluemound Road,,Brookfield,WI,53045,United States,262-797-7160,43.036,-88.1567,"LobbyHours Mon-Thurs: 9:00 a.m. - 6:00 p.m. / Fri: 9:00 a.m. - 6:00 p.m. / Sat: 9:00 a.m. - 2:00 p.m. / Sun: 10:00 a.m. - 2:00 p.m., DriveUpHours Mon-Thurs: 9:00 a.m. - 6:00 p.m. / Fri: 9:00 a.m. - 6:00 p.m. / Sat: 8:00 a.m. - 2:00 p.m. / Sun: 10:00 a.m. - 2:00 p.m.",,,
Pewaukee,,1400 Capitol Drive,,Pewaukee,WI,53072,United States,262-691-4200,43.083399,-88.229799,"LobbyHours Mon-Thurs: 9:00 a.m. - 6:00 p.m. / Fri: 9:00 a.m. - 6:00 p.m. / Sat: 9:00 a.m. - 1:00 p.m. / Sun: Closed, DriveUpHours Mon-Thurs: 9:00 a.m. - 6:00 p.m. / Fri: 9:00 a.m. - 6:00 p.m. / Sat: 8:30 a.m. - 1:00 p.m. / Sun: Closed",,,
Sussex,,N64 W23710 Main Street,,Sussex,WI,53089,United States,262-246-6494,43.133899,-88.2356,"LobbyHours Mon-Thurs: 9:00 a.m. - 5:00 p.m. / Fri: 9:00 a.m. - 6:00 p.m. / Sat: 9:00 a.m. - 12:00 p.m. / Sun: Closed, DriveUpHours Mon-Thurs: 9:00 a.m. - 5:00 p.m. / Fri: 9:00 a.m. - 6:00 p.m. / Sat: 8:30 a.m. - 1:00 p.m. / Sun: Closed",,,
Menomonee Falls (South - Silver Spring),,W156 N5575 Pilgrim Road,,Menomonee Falls,WI,53051,United States,262-703-4100,43.118699,-88.1054,"LobbyHours Mon-Thurs: 9:00 a.m. - 6:00 p.m. / Fri: 9:00 a.m. - 6:00 p.m. / Sat: 9:00 a.m. - 1:00 p.m. / Sun: Closed, DriveUpHours Mon-Thurs: 8:00 a.m. - 6:00 p.m. / Fri: 8:00 a.m. - 6:00 p.m. / Sat: 8:00 a.m. - 1:00 p.m. / Sun: Closed",,,
Mukwonago,,707 N. Rochester Street,,Mukwonago,WI,53149,United States,262-363-7111,42.869399,-88.335599,"LobbyHours Mon-Thurs: 9:00 a.m. - 5:00 p.m. / Fri: 9:00 a.m. - 6:00 p.m. / Sat: 9:00 a.m. - 1:00 p.m. / Sun: Closed, DriveUpHours Mon-Thurs: 8:00 a.m. - 5:00 p.m. / Fri: 8:00 a.m. - 6:00 p.m. / Sat: 8:00 a.m. - 1:00 p.m. / Sun: Closed",,,
Oconomowoc (Okauchee),,N49 W35876 E. Wisconsin Ave.,,Oconomowoc,WI,53066,United States,262-567-8511,43.110154,-88.447847,"LobbyHours Mon-Thurs: 9:00 a.m. - 5:00 p.m. / Fri: 9:00 a.m. - 6:00 p.m. / Sat: 9:00 a.m. - 12:00 p.m. / Sun: Closed, DriveUpHours Mon-Thurs: 8:30 a.m. - 6:00 p.m. / Fri: 8:30 a.m. - 6:00 p.m. / Sat: 8:30 a.m. - 1:00 p.m. / Sun: Closed",,,
Oconomowoc  (Summit),,1456 Summit Avenue,,Oconomowoc,WI,53066,United States,262-567-5578,43.086184,-88.470958,"LobbyHours Mon-Thurs: 9:00 a.m. - 6:00 p.m. / Fri: 9:00 a.m. - 6:00 p.m. / Sat: 9:00 a.m. - 1:00 p.m. / Sun: Closed, DriveUpHours Mon-Thurs: 8:00 a.m. - 6:00 p.m. / Fri: 8:00 a.m. - 6:00 p.m. / Sat: 8:00 a.m. - 1:00 p.m. / Sun: Closed",,,
Menomonee Falls Main St,,N88W15491 Main St,,Menomonee Falls,WI,53051,United States,262-253-2300,43.179001,-88.101511,"LobbyHours Mon-Thurs: 9:00 a.m. - 6:00 p.m. / Fri: 9:00 a.m. - 6:00 p.m. / Sat: 9:00 a.m. - 1:00 p.m. / Sun: Closed, DriveUpHours Mon-Thurs: 8:00 a.m. - 6:00 p.m. / Fri: 8:00 a.m. - 6:00 p.m. / Sat: 8:00 a.m. - 1:00 p.m. / Sun: Closed",,,
Eau Claire (Regis Court),,1107 Regis Court,,Eau Claire,WI,54701,United States,715-831-2255,44.8065,-91.4727,"LobbyHours Mon-Thurs: 8:30 a.m. - 5:00 p.m. / Fri: 8:30 a.m. - 6:00 p.m. / Sat: 9:00 a.m. - 1:00 p.m. / Sun: Closed, DriveUpHours Mon-Thurs: 7:30 a.m. - 5:30 p.m. / Fri: 7:30 a.m. - 6:00 p.m. / Sat: 8:00 a.m. - 1:00 p.m. / Sun: Closed",,,
Eau Claire (Festival Foods),,3009 Mall Drive (Festival Foods),,Eau Claire,WI,54701,United States,715-831-3311,44.7886,-91.461399,LobbyHours Mon-Thurs: 9:00 a.m. - 7:00 p.m. / Fri: 9:00 a.m. - 7:00 p.m. / Sat: 9:00 a.m. - 4:00 p.m. / Sun: 10:00 a.m. - 2:00 p.m.,,,
Eau Claire (Gordy's Market),,2613 N. Clairemont Avenue (Gordy's Market),,Eau Claire,WI,54703,United States,715-831-3590,44.825899,-91.5441,LobbyHours Mon-Thurs: 9:00 a.m. - 6:00 p.m. / Fri: 9:00 a.m. - 6:00 p.m. / Sat: 10:00 a.m. - 2:00 p.m. / Sun: 10:00 a.m. - 2:00 p.m.,,,
Chippewa Falls (Gordy's Market),,212 Bay Street (Gordy's Market),,Chippewa Falls,WI,54729,United States,715-723-1355,44.9356,-91.393799,LobbyHours Mon-Thurs: 9:00 a.m. - 6:00 p.m. / Fri: 9:00 a.m. - 6:00 p.m. / Sat: 10:00 a.m. - 2:00 p.m. / Sun: 10:00 a.m. - 2:00 p.m.,,,
Neillsville,,509 N. Grand Avenue,,Neillsville,WI,54456,United States,715-743-3381,44.56,-90.5986,"LobbyHours Mon-Thurs: 8:30 a.m. - 5:00 p.m. / Fri: 8:30 a.m. - 6:00 p.m. / Sat: 8:30 a.m. - 12:00 p.m. / Sun: Closed, DriveUpHours Mon-Thurs: 8:30 a.m. - 5:00 p.m. / Fri: 8:30 a.m. - 6:00 p.m. / Sat: 8:30 a.m. - 12:00 p.m. / Sun: Closed",,,
Fond du Lac,,888 S. Main Street,,Fond Du Lac,WI,54935,United States,920-923-0099,43.7547,-88.448899,"LobbyHours Mon-Thurs: 8:30 a.m. - 5:00 p.m. / Fri: 8:30 a.m. - 5:30 p.m. / Sat: 9:00 a.m. - 12:00 p.m. / Sun: Closed, DriveUpHours Mon-Thurs: 8:30 a.m. - 5:30 p.m. / Fri: 8:30 a.m. - 5:30 p.m. / Sat: 9:00 a.m. - 12:00 p.m. / Sun: Closed",,,
Waupaca Pick N Save,,955 West Fulton St (Waupaca Pick N Save),,Waupaca,WI,54981,United States,,44.35683,-89.105349,,,,
Waite Park,,818 2nd (-),,Waite Park,WI,56387,United States,,45.548805,-94.226738,,,,
Sartell,,198 Pine Cone (-),,Sartell,MN,53362,United States,,45.615948,-94.226593,,,,
East Troy,,"3292 Main Street,    PO Box 871",,East Troy,WI,53120,United States,262-642-3941,42.7836,-88.4223,"LobbyHours Mon-Thurs: 9:00 a.m. - 5:00 p.m. / Fri: 9:00 a.m. - 6:00 p.m. / Sat: 9:00 a.m. - 1:00 p.m. / Sun: Closed, DriveUpHours Mon-Thurs: 8:00 a.m. - 5:00 p.m. / Fri: 8:00 a.m. - 6:00 p.m. / Sat: 8:00 a.m. - 1:00 p.m. / Sun: Closed",,,
Prairie Du Chien,,700 E. Blackhawk Avenue,,Prairie du Chien,WI,53821,United States,608-326-8427,43.0523,-91.1379,"LobbyHours Mon-Thurs: 8:30 a.m. - 5:00 p.m. / Fri: 8:30 a.m. - 5:30 p.m. / Sat: 9:00 a.m. - 1:00 p.m. / Sun: Closed, DriveUpHours Mon-Thurs: 8:00 a.m. - 5:30 p.m. / Fri: 8:00 a.m. - 5:30 p.m. / Sat: 8:00 a.m. - 1:00 p.m. / Sun: Closed",,,
La Crosse (Downtown),,205 4th Street N,,La Crosse,WI,54601,United States,608-793-3800,43.81346,-91.250569,"LobbyHours Mon-Thurs: 8:30 a.m. - 5:30 p.m. / Fri: 8:30 a.m. - 5:30 p.m. / Sat: 9:00 a.m. - 12:00 p.m. / Sun: Closed, DriveUpHours Mon-Thurs: 7:30 a.m. - 5:30 p.m. / Fri: 7:30 a.m. - 5:30 p.m. / Sat: 8:00 a.m. - 12:00 p.m. / Sun: Closed",,,
La Crosse (Festival Foods),,2500 State Road (Festival Foods),,La Crosse,WI,54601,United States,608-793-3440,43.795086,-91.21788,LobbyHours Mon-Thurs: 8:30 a.m. - 6:00 p.m. / Fri: 8:30 a.m. - 6:00 p.m. / Sat: 8:30 a.m. - 4:00 p.m. / Sun: 10:00 a.m. - 2:00 p.m.,,,
La Crosse (Bridgeview Drive-thru),,900 Palace Street,,La Crosse,WI,54603,United States,608-781-2114,43.855379,-91.243478,DriveUpHours Mon-Thurs: 7:30 a.m. - 5:30 p.m. / Fri: 7:30 a.m. - 5:30 p.m. / Sat: 8:00 a.m. - 12:00 p.m. / Sun: Closed,,,
Onalaska (Center 90),,127 Sand Lake Road,,Onalaska,WI,54650,United States,608-783-7000,43.8845,-91.2201,LobbyHours Mon-Thurs: 9:00 a.m. - 5:00 p.m. / Fri: 9:00 a.m. - 5:30 p.m. / Sat: 9:00 a.m. - 12:00 p.m. / Sun: Closed,,,
Onalaska (Center 90 Drive-thru),,317 Sand Lake Road,,Onalaska,WI,54650,United States,608-781-0027,43.8853,-91.2201,DriveUpHours Mon-Thurs: 8:00 a.m. - 5:30 p.m. / Fri: 8:00 a.m. - 6:00 p.m. / Sat: 8:00 a.m. - 12:00 p.m. / Sun: Closed,,,
Onalaska,,201 Marcou Road,,Onalaska,WI,54650,United States,608-781-5070,43.880085,-91.178604,"LobbyHours Mon-Thurs: 9:00 a.m. - 5:30 p.m. / Fri: 9:00 a.m. - 6:00 p.m. / Sat: 9:00 a.m. - 12:00 p.m. / Sun: Closed, DriveUpHours Mon-Thurs: 7:30 a.m. - 6:00 p.m. / Fri: 7:30 a.m. - 6:00 p.m. / Sat: 8:00 a.m. - 12:00 p.m. / Sun: Closed",,,
Holmen,,450 N. Holmen Drive,,Holmen,WI,54636,United States,608-793-3433,43.966299,-91.263199,"LobbyHours Mon-Thurs: 9:00 a.m. - 5:00 p.m. / Fri: 9:00 a.m. - 5:30 p.m. / Sat: 9:00 a.m. - 12:00 p.m. / Sun: Closed, DriveUpHours Mon-Thurs: 8:00 a.m. - 5:30 p.m. / Fri: 8:00 a.m. - 6:00 p.m. / Sat: 8:00 a.m. - 12:00 p.m. / Sun: Closed",,,
Holmen Festival Foods,,600 N Holmen Dr (Holmen Festival Foods),,Holmen,WI,54636,United States,,43.968983,-91.265167,,,,
Viroqua,,825 N. Main Street,,Viroqua,WI,54665,United States,608-637-8201,43.5653,-90.888999,"LobbyHours Mon-Thurs: 8:30 a.m. - 5:00 p.m. / Fri: 8:30 a.m. - 5:30 p.m. / Sat: 9:00 a.m. - 12:00 p.m. / Sun: Closed, DriveUpHours Mon-Thurs: 7:30 a.m. - 5:30 p.m. / Fri: 7:30 a.m. - 5:30 p.m. / Sat: 8:00 a.m. - 12:00 p.m. / Sun: Closed",,,
Sheboygan Festival Foods,,595 S. Taylor Dr (Sheboygan Festival Foods),,Sheboygan,WI,53081,United States,,43.750389,-87.745949,,,,
Sheboygan,,1217 N. Taylor Drive,,Sheboygan,WI,53081,United States,920-459-6880,43.757961,-87.749321,"LobbyHours Mon-Thurs: 9:00 a.m. - 5:30 p.m. / Fri: 9:00 a.m. - 6:00 p.m. / Sat: 8:30 a.m. - 12:00 p.m. / Sun: Closed, DriveUpHours Mon-Thurs: 7:30 a.m. - 5:30 p.m. / Fri: 7:30 a.m. - 6:00 p.m. / Sat: 8:30 a.m. - 12:00 p.m. / Sun: Closed",,,
Manitowoc (Festival Foods),,2151 S. 42nd Street (Festival Foods),,Manitowoc,WI,54220,United States,920-684-8149,44.073428,-87.701004,LobbyHours Mon-Thurs: 9:00 a.m. - 7:00 p.m. / Fri: 9:00 a.m. - 7:00 p.m. / Sat: 9:00 a.m. - 4:00 p.m. / Sun: 10:00 a.m. - 2:00 p.m.,,,
Manitowoc (Main),,"1121 Franklin Street,   PO Box 1205",,Manitowoc,WI,54220,United States,920-320-8100,44.090555,-87.66214,"LobbyHours Mon-Thurs: 9:00 a.m. - 5:00 p.m. / Fri: 9:00 a.m. - 5:30 p.m. / Sat: 8:30 a.m. - 12:00 p.m. / Sun: Closed, DriveUpHours Mon-Thurs: 7:30 a.m. - 5:30 p.m. / Fri: 7:30 a.m. - 5:30 p.m. / Sat: 8:30 a.m. - 12:00 p.m. / Sun: Closed",,,
Port Washington,,222 N. Wisconsin Street,,Port Washington,WI,53074,United States,262-284-2641,43.3887,-87.870999,"LobbyHours Mon-Thurs: 9:00 a.m. - 6:00 p.m. / Fri: 9:00 a.m. - 6:00 p.m. / Sat: 9:00 a.m. - 12:00 p.m. / Sun: Closed, DriveUpHours Mon-Thurs: 8:30 a.m. - 6:00 p.m. / Fri: 8:30 a.m. - 6:00 p.m. / Sat: 8:30 a.m. - 1:00 p.m. / Sun: Closed",,,
Saukville,,135 S Mill St (Saukville),,Saukville,WI,53080,United States,,43.3813,-87.939999,,,,
Grafton,,1930 Wisconsin Avenue,,Grafton,WI,53024,United States,262-377-4900,43.307099,-87.959199,"LobbyHours Mon-Thurs: 9:00 a.m. - 6:00 p.m. / Fri: 9:00 a.m. - 6:00 p.m. / Sat: 9:00 a.m. - 12:00 p.m. / Sun: Closed, DriveUpHours Mon-Thurs: 8:30 a.m. - 6:00 p.m. / Fri: 8:30 a.m. - 6:00 p.m. / Sat: 8:30 a.m. - 1:00 p.m. / Sun: Closed",,,
West Bend,,715 W Paradise Dr,,West Bend,WI,53095,United States,262-685-3001,43.397662,-88.186194,"LobbyHours Mon-Thurs: 9:00 a.m. - 6:00 p.m. / Fri: 9:00 a.m. - 6:00 p.m. / Sat: 9:00 a.m. - 2:00 p.m. / Sun: Closed, DriveUpHours Mon-Thurs: 8:00 a.m. - 6:00 p.m / Fri: 8:00 a.m. - 7:00 p.m / Sat: 9:00 a.m. - 2:00 p.m. / Sun: Closed",,,
Jackson,,N168 W21367 Main St. (Jackson),,Jackson,WI,53037,United States,,43.32389,-88.173676,,,,
Mequon,,10509 N. Port Washington Road,,Mequon,WI,53092,United States,262-240-1216,43.208599,-87.924099,"LobbyHours Mon-Thurs: 9:00 a.m. - 5:00 p.m. / Fri: 9:00 a.m. - 6:00 p.m. / Sat: 9:00 a.m. - 12:00 p.m. / Sun: Closed, DriveUpHours Mon-Thurs: 8:00 a.m. - 6:00 p.m. / Fri: 8:00 a.m. - 6:00 p.m. / Sat: 8:30 a.m. - 1:00 p.m. / Sun: Closed",,,
Slinger,,300 E. Washington Street,,Slinger,WI,53086,United States,262-644-5212,43.3314,-88.2805,"LobbyHours Mon-Thurs: 9:00 a.m. - 5:00 p.m. / Fri: 9:00 a.m. - 6:00 p.m. / Sat: 9:00 a.m. - 12:00 p.m. / Sun: Closed, DriveUpHours Mon-Thurs: 8:30 a.m. - 5:00 p.m. / Fri: 8:30 a.m. - 6:00 p.m. / Sat: 8:30 a.m. - 12:00 p.m. / Sun: Closed",,,
Germantown,,N112 W16330 Mequon Road,,Germantown,WI,53022,United States,262-253-2550,43.220799,-88.112099,"LobbyHours Mon-Thurs: 9:00 a.m. - 6:00 p.m. / Fri: 9:00 a.m. - 6:00 p.m. / Sat: 9:00 a.m. - 1:00 p.m. / Sun: Closed, DriveUpHours Mon-Thurs: 8:00 a.m. - 6:00 p.m. / Fri: 8:00 a.m. - 6:00 p.m. / Sat: 8:00 a.m. - 1:00 p.m. / Sun: Closed",,,
Milwaukee (Brown Deer),,7900 W. Brown Deer Road,,Milwaukee,WI,53223,United States,414-354-5025,43.1779,-88.008099,"LobbyHours Mon-Thurs: 9:00 a.m. - 5:30 p.m. / Fri: 9:00 a.m. - 6:00 p.m. / Sat: 9:00 a.m. - 12:00 p.m. / Sun: Closed, DriveUpHours Mon-Thurs: 8:30 a.m. - 5:30 p.m. / Fri: 8:30 a.m. - 6:00 p.m. / Sat: 8:30 a.m. - 12:30 p.m. / Sun: Closed",,,
Hartford,,1594 E. Sumner Street    (Hwy 60),,Hartford,WI,53027,United States,262-673-7500,43.317799,-88.349299,"LobbyHours Mon-Thurs: 9:00 a.m. - 5:00 p.m. / Fri: 9:00 a.m. - 6:00 p.m. / Sat: 9:00 a.m. - 12:00 p.m. / Sun: Closed, DriveUpHours Mon-Thurs: 8:30 a.m. - 5:00 p.m. / Fri: 8:30 a.m. - 6:00 p.m. / Sat: 8:30 a.m. - 1:00 p.m. / Sun: Closed",,,
Beaver Dam,,201 Park Avenue,,Beaver Dam,WI,53916,United States,920-887-1621,43.456299,-88.834199,"LobbyHours Mon-Thurs: 9:00 a.m. - 5:00 p.m. / Fri: 9:00 a.m. - 6:00 p.m. / Sat: 9:00 a.m. - 1:00 p.m. / Sun: Closed, DriveUpHours Mon-Thurs: 8:00 a.m. - 5:00 p.m. / Fri: 8:00 a.m. - 6:00 p.m. / Sat: 8:00 a.m. - 1:00 p.m. / Sun: Closed",,,
Wausau (Downtown),,400 Scott Street,,Wausau,WI,54403,United States,715-848-2818,44.9605,-89.6267,"LobbyHours Mon-Thurs: 9:00 a.m. - 5:00 p.m. / Fri: 9:00 a.m. - 5:00 p.m. / Sat: Closed / Sun: Closed, DriveUpHours Mon-Thurs: 8:30 a.m. - 5:30 p.m. / Fri: 8:30 a.m. - 5:30 p.m. / Sat: 8:30 a.m. - 12:00 p.m. / Sun: Closed",,,
Wausau Stewart Ave,,2010 Stewart Ave,,Wausau,WI,54401,United States,715-845-4301,44.958968,-89.661787,"LobbyHours Mon-Thurs: 8:30 a.m. - 5:00 p.m. / Fri: 8:30 a.m. - 5:30 p.m. / Sat: 8:30 a.m. - 12:00 p.m. / Sun: Closed, DriveUpHours Mon-Thurs: 8:00 a.m. - 5:30 p.m. / Fri: 8:00 a.m. - 6:00 p.m. / Sat: 8:00 a.m. - 12:00 p.m. / Sun: Closed",,,
Schofield (Weston),,5211 Alderson Street,,Schofield,WI,54476,United States,715-359-8858,44.909999,-89.592699,"LobbyHours Mon-Thurs: 8:30 a.m. - 5:30 p.m. / Fri: 8:30 a.m. - 6:00 p.m. / Sat: 8:30 a.m. - 12:00 p.m. / Sun: Closed, DriveUpHours Mon-Thurs: 8:30 a.m. - 5:30 p.m. / Fri: 8:30 a.m. - 6:00 p.m. / Sat: 8:30 a.m. - 12:00 p.m. / Sun: Closed",,,
Mosinee (Piggly Wiggly),,530 West Highway 153 (Piggly Wiggly),,Mosinee,WI,54455,United States,715-693-5510,44.788499,-89.728999,LobbyHours Mon-Thurs: 9:00 a.m. - 5:30 p.m. / Fri: 9:00 a.m. - 5:30 p.m. / Sat: 9:00 a.m. - 12:00 p.m. / Sun: Closed,,,
Merrill,,2403 East Main Street,,Merrill,WI,54452,United States,715-536-9449,45.1807,-89.6671,"LobbyHours Mon-Thurs: 8:30 a.m. - 5:00 p.m. / Fri: 8:30 a.m. - 5:00 p.m. / Sat: 8:30 a.m. - 12:00 p.m. / Sun: Closed, DriveUpHours Mon-Thurs: 8:00 a.m. - 5:00 p.m. / Fri: 8:00 a.m. - 5:30 p.m. / Sat: 8:30 a.m. - 12:00 p.m. / Sun: Closed",,,
Wittenberg,,501 S. Webb Street,,Wittenberg,WI,54499,United States,715-253-2127,44.8243,-89.1709,"LobbyHours Mon-Thurs: 8:00 a.m. - 3:00 p.m. / Fri: 8:00 a.m. - 5:00 p.m. / Sat: Closed / Sun: Closed, DriveUpHours Mon-Thurs: 8:00 a.m. - 5:00 p.m. / Fri: 8:00 a.m. - 5:30 p.m. / Sat: 8:00 a.m. -11:00 a.m. / Sun: Closed",,,
Stevens Point Service Center,,1305 Main Street (Service Center),,Stevens Point,WI,54481,United States,,44.523432,-89.58024,,,,
Stevens Point (Drive-Thru),,1305 Main Street,,Stevens Point,WI,54481,United States,715-345-4005,44.523432,-89.58024,DriveUpHours Mon-Thurs: 8:00 a.m. - 5:30 p.m. / Fri: 8:00 a.m. - 6:00 p.m. / Sat: 8:00 a.m. - 12:00 p.m. / Sun: Closed,,,
Stevens Point,,1325 Church Street,,Stevens Point,WI,54481,United States,715-345-4254,44.5232,-89.580299,LobbyHours Mon-Thurs: 9:00 a.m. - 5:30 p.m. / Fri: 9:00 a.m. - 6:00 p.m. / Sat: 9:00 a.m. - 12:00 p.m. / Sun: Closed,,,
Marshfield (Festival Foods),,1617 N. Central Avenue (Festival Foods),,Marshfield,WI,54449,United States,715-384-9600,44.680999,-90.1636,LobbyHours Mon-Thurs: 9:00 a.m. - 7:00 p.m. / Fri: 9:00 a.m. - 7:00 p.m. / Sat: 9:00 a.m. - 4:00 p.m. / Sun: 10:00 a.m. - 2:00 p.m.,,,
Marshfield (Downtown),,400 S. Chestnut Avenue,,Marshfield,WI,54449,United States,715-384-3171,44.6646,-90.177099,"LobbyHours Mon-Thurs: 8:00 a.m. - 5:00 p.m. / Fri: 8:00 a.m. - 5:00 p.m. / Sat: 8:00 a.m. - 12:00 p.m. / Sun: Closed, DriveUpHours Mon-Thurs: 7:30 a.m. - 5:30 p.m. / Fri: 7:30 a.m. - 5:30 p.m. / Sat: 8:00 a.m. - 12:00 p.m. / Sun: Closed",,,
Plover,,2727 Post Road,,Plover,WI,54467,United States,715-345-3630,44.456899,-89.5437,"LobbyHours Mon-Thurs: 8:30 a.m. - 5:00 p.m. / Fri: 8:30 a.m. - 5:30 p.m. / Sat: 8:30 a.m. - 12:00 p.m. / Sun: Closed, DriveUpHours Mon-Thurs: 8:00 a.m. - 5:30 p.m. / Fri: 8:00 a.m. - 6:00 p.m. / Sat: 8:00 a.m. - 12:00 p.m. / Sun: Closed",,,
Medford,,160 Medford Plaza (Medford Plaza),,Medford,WI,54451,United States,715-748-6776,45.146599,-90.3391,LobbyHours Mon-Thurs: 8:00 a.m. - 6:00 p.m. / Fri: 8:00 a.m. - 6:00 p.m. / Sat: 8:00 a.m. - 2:00 p.m. / Sun: 9:00 a.m. - 1:00 p.m.,,,
Wisconsin Rapids,,711 W. Grand Avenue,,Wisconsin Rapids,WI,54495,United States,715-421-1240,44.395299,-89.8327,"LobbyHours Mon-Thurs: 8:30 a.m. - 5:30 p.m. / Fri: 8:30 a.m. - 5:30 p.m. / Sat: 8:30 a.m. - 1:00 p.m. / Sun: Closed, DriveUpHours Mon-Thurs: 8:00 a.m. - 5:30 p.m. / Fri: 8:00 a.m. - 6:00 p.m. / Sat: 8:00 a.m. - 1:00 p.m. / Sun: Closed",,,
Wisconsin Rapids Copps,,900 E Riverview Expressway (Wisconsin Rapids Copps),,Wisconsin Rapids,WI,54494,United States,,44.380665,-89.820736,,,,
Pittsville,,5292 2nd Avenue,,Pittsville,WI,54466,United States,715-884-6404,44.438547,-90.127618,"LobbyHours Mon-Thurs: 8:30 a.m. - 5:00 p.m. / Fri: 8:30 a.m. - 5:30 p.m. / Sat: Closed / Sun: Closed, DriveUpHours Mon-Thurs: 8:30 a.m. - 5:00 p.m. / Fri: 8:30 a.m. - 6:00 p.m. / Sat: 8:30 a.m. - 12:00 p.m. / Sun: Closed",,,
Rhinelander,,8 W. Davenport Street,,Rhinelander,WI,54501,United States,715-362-6900,45.637799,-89.4114,LobbyHours Mon-Thurs: 9:00 a.m. - 5:00 p.m. / Fri: 9:00 a.m. - 5:00 p.m. / Sat: Closed / Sun: Closed,,,
Rhinelander,,10 North Stevens St,,Rhinelander,WI,,United States,,45.638096,-89.410744,"LobbyHours Mon-Thurs: 8:00 a.m. - 5:30 p.m. / Fri: 8:00 a.m. - 5:30 p.m. / Sat: 9:00 a.m. - 12:00 p.m. / Sun: Closed, DriveUpHours Mon-Thurs: 8:00 a.m. - 5:30 p.m. / Fri: 8:00 a.m. - 5:30 p.m. / Sat: 9:00 a.m. - 12:00 p.m. / Sun: Closed",,,
Fletch's Corner Store,,106 W Main St (Fletch's Corner Store),,Embarrass,WI,54933,United States,,44.6649,-88.7125,,,,
