store_name,store_number,address,address2,city,state,zip_code,country,phone_number,latitude,longitude,store_hours,store_type,other_fields,coming_soon
"New York Community Bank, Sequine Branch",,5770 Hylan ,,BoulevardStaten Island ,NY,10309,United States,718-605-1397,,,,,,
"New York Community Bank, Spotswood Branch",,400 Main ,,StreetSpotswood ,NJ,08884,United States,732-723-3782,,,,,,
"New York Community Bank, Woodrow Plaza Branch",,645-100 Rossville ,,AvenueStaten Island ,NY,10309,United States,718-569-3120,,,,,,
"New York Community Bank, Clark Branch",,315 Central ,,AvenueClark ,NJ,07066,United States,732-680-0825,,,,,,
"New York Community Bank, Annadale Branch",,820 Annadale ,,RoadStaten Island ,NY,10312,United States,718-569-3100,,,,,,
"New York Community Bank, North Brunswick Branch",,1727 Route 130North ,,Brunswick ,NJ,08902,United States,732-951-3072,,,,,,
"New York Community Bank, Veterans Road Branch",,2875 Veterans ,,RoadStaten Island ,NY,10307,United States,718-569-3130,,,,,,
"New York Community Bank, Iselin Branch",,1162 Green ,,StreetIselin ,NJ,08830,United States,732-404-1292,,,,,,
"New York Community Bank, Woodbridge Branch",,150 Green ,,StreetWoodbridge ,NJ,07095,United States,718-569-3120,,,,,,
"New York Community Bank, Sayreville-Main St Branch",,77 Main ,,StSayreville ,NJ,08872,United States,732-938-3380,,,,,,
"New York Community Bank, Kenilworth Branch",,15 Market ,,StreetKenilworth ,NJ,07033,United States,908-206-1110,,,,,,
"New York Community Bank, Bay Terrace Branch",,3501 Amboy ,,RoadStaten Island ,NY,10308,United States,718-356-4870,,,,,,
"New York Community Bank, Morganville Branch",,473 Route 79Morganville ,,,NJ,07751,United States,732-591-7292,,,,,,
"New York Community Bank, Great Kills Branch",,3879 Amboy ,,RoadStaten Island ,NY,10308,United States,718-569-3090,,,,,,
"New York Community Bank, Cranford Branch",,310 North Avenue ,,EastCranford ,NJ,07016,United States,908-956-4020,,,,,,
"New York Community Bank, Matawan Branch",,168-170 Main ,,StreetMatawan ,NJ,07747,United States,732-566-0568,,,,,,
"New York Community Bank, Old Bridge Branch",,3665 Route 9 ,,NorthOld Bridge ,NJ,08857,United States,732-970-0315,,,,,,
"New York Community Bank, New Springville Branch",,2555 Richmond ,,AvenueStaten Island ,NY,10314,United States,718-568-2200,,,,,,
"New York Community Bank, Eltingville Branch",,4523 Amboy ,,RdStaten Island ,NY,10312,United States,718-569-3110,,,,,,
"New York Community Bank, Linden Branch",,225 North Wood ,,AvenueLinden ,NJ,07036,United States,908-587-2872,,,,,,
"New York Community Bank, Union Branch",,1000 Pine ,,AvenueUnion ,NJ,07083,United States,908-206-1110,,,,,,
"New York Community Bank, Union Branch",,2624 Morris ,,AvenueUnion ,NJ,07083,United States,908-964-7601,,,,,,
"New York Community Bank, Hylan Boulevard Branch",,2424 Hylan ,,BoulevardStaten Island ,NY,10306,United States,718-987-5808,,,,,,
"New York Community Bank, Westerleigh Branch",,832 Jewett ,,AvenueStaten Island ,NY,10314,United States,718-569-3020,,,,,,
"New York Community Bank, Union Branch",,1887 Morris ,,AveUnion ,NJ,07083,United States,908-729-9073,,,,,,
"New York Community Bank, Elizabeth Branch",,142 Broad ,,StreetElizabeth ,NJ,07201,United States,908-353-5660,,,,,,
"New York Community Bank, Expressway Plaza Public Accomodation",,1445 Richmond ,,AvenueStaten Island ,NY,10314,United States,718-569-3040,,,,,,
"New York Community Bank, New Dorp Branch",,2595 Hylan ,,BoulevardStaten Island ,NY,10306,United States,718-569-3080,,,,,,
"New York Community Bank, Elizabeth Avenue Branch",,715 Elizabeth ,,AvenueElizabeth ,NJ,07201,United States,908-353-5660,,,,,,
"New York Community Bank, Bulls Head Branch",,1460 Richmond ,,AvenueStaten Island ,NY,10314,United States,718-569-3030,,,,,,
"New York Community Bank, Monroe Township Branch",,337 Applegarth ,,RoadMonroe Township ,NJ,08831,United States,609-409-3535,,,,,,
"New York Community Bank, Dongan Hills Branch",,1833 Hylan ,,BoulevardStaten Island ,NY,10305,United States,718-569-3070,,,,,,
"New York Community Bank, Sunnyside Branch",,1270 Clove ,,RoadStaten Island ,NY,10301,United States,718-569-3160,,,,,,
"New York Community Bank, 6th Street Branch",,171-173 ,,BroadwayBayonne ,NJ,07002,United States,201-436-0818,,,,,,
"New York Community Bank, West New Brighton Branch",,1214 Castelton ,,AvenueStaten Island ,NY,10310,United States,718-448-7272,,,,,,
"New York Community Bank, Marlboro Branch",,471 Rt 520 ,,EMarlboro ,NJ,07746,United States,732-946-8692,,,,,,
"New York Community Bank, Port Richmond Branch",,282 Port ,,Richmond AvenueStaten Island ,NY,10302,United States,718-569-3010,,,,,,
"New York Community Bank, Castleton Corners Branch",,1785 Victory ,,BoulevardStaten Island ,NY,10314,United States,718-273-0701,,,,,,
"New York Community Bank, Forest Avenue Branch",,1351 Forest ,,AvenueStaten Island ,NY,10302,United States,718-816-5864,,,,,,
"New York Community Bank, Grasmere Branch",,1100 Hylan ,,BlvdStaten Island ,NY,10305,United States,718-569-3060,,,,,,
"New York Community Bank, 26th Street Branch",,568 BroadwayBayonne ,,,NJ,07002,United States,201-437-1000,,,,,,
"New York Community Bank, 46th Street Branch",,949 BroadwayBayonne ,,,NJ,07002,United States,201-437-6049,,,,,,
"New York Community Bank, Harrison Branch",,410 Bergen ,,StHarrison ,NJ,07029,United States,973-484-7044,,,,,,
"New York Community Bank, Newark-Wilson Ave Branch",,37 Wilson ,,AveNewark ,NJ,07105,United States,973-589-0119,,,,,,
"New York Community Bank, Jefferson Street Branch",,198 Jefferson ,,StreetNewark ,NJ,07105,United States,973-589-8722,,,,,,
"New York Community Bank, 20th Street Branch",,441 BroadwayBayonne ,,,NJ,07002,United States,201-823-3060,,,,,,
"New York Community Bank, Pacific Street Branch",,36 Pacific ,,StreetNewark ,NJ,07105,United States,973-589-3800,,,,,,
"New York Community Bank, Chestnut Street Newark Branch",,260 Chestnut ,,StreetNewark ,NJ,07105,United States,973-274-1962,,,,,,
"New York Community Bank, Bayridge Branch",,8110-8112 5th ,,AvenueBrooklyn ,NY,11209,United States,718-238-5800,,,,,,
"New York Community Bank, Ferry Street Branch",,36 Ferry ,,StreetNewark ,NJ,07105,United States,973-589-8616,,,,,,
"New York Community Bank, Gravesend Branch",,132 Avenue U At ,,West Eight StreetBrooklyn ,NY,11223,United States,718-569-3140,,,,,,
"New York Community Bank, Livingston Branch",,133 S Livingston ,,AvenueLivingston ,NJ,07039,United States,973-533-0070,,,,,,
"New York Community Bank, Roseland Branch",,151 Eagle Rock ,,AvenueRoseland ,NJ,07068,United States,973-364-1993,,,,,,
"New York Community Bank, Montclair-Orange Road Branch",,323 Orange ,,RoadMontclair ,NJ,07042,United States,973-746-9868,,,,,,
"New York Community Bank, East Newark Branch",,155 Central ,,AveHarrison ,NJ,07029,United States,973-483-8383,,,,,,
"New York Community Bank, Freehold Branch",,101 Barkalow Ave & Route 9Freehold ,,,NJ,07728,United States,732-761-8315,,,,,,
"New York Community Bank, West Orange Branch",,622 Eagle Rock ,,AvenueWest Orange ,NJ,07052,United States,973-669-9517,,,,,,
"New York Community Bank, Marine Park",,2925 Avenue ,,UBrooklyn ,NY,11229,United States,718-646-5402,,,,,,
"New York Community Bank, East Windsor Branch",,761 Route 33 ,,EastHightstown ,NJ,08520,United States,609-448-3615,,,,,,
"New York Community Bank, 13th Avenue Branch",,4419 13th ,,AvenueBrooklyn ,NY,11219,United States,,,,,,,
"New York Community Bank, 1268 Broadway Branch",,1268 BroadwayBrooklyn ,,,NY,11221,United States,718-268-6801,,,,,,
"New York Community Bank, Ridgewood",,66-77 Fresh Pond ,,RoadRidgewood ,NY,11385,United States,718-268-6801,,,,,,
"New York Community Bank, Little Falls Road Branch",,23 Little Falls ,,RoadFairfield ,NJ,07004,United States,973-575-1913,,,,,,
"New York Community Bank, Upper Montclair Branch",,597 Valley ,,RoadMontclair ,NJ,07043,United States,973-746-4400,,,,,,
"New York Community Bank, Caldwell Branch",,265 Bloomfield ,,AvenueCaldwell ,NJ,07006,United States,973-226-6200,,,,,,
"New York Community Bank, Ridgewood Branch",,57-32 Myrtle ,,AvenueRidgewood ,NY,11385,United States,,,,,,,
"New York Community Bank, Starrett City Branch",,111-10 Flatlands ,,AvenueBrooklyn ,NY,11207,United States,718-272-1935,,,,,,
"New York Community Bank, Farmingdale Branch",,77 Main ,,StreetFarmingdale ,NJ,07727,United States,732-938-3380,,,,,,
"New York Community Bank, Atlantic Terminal Branch",,625 Atlantic ,,AvenueBrooklyn ,NY,11217,United States,718-398-1928,,,,,,
"New York Community Bank, Verona Branch",,620 Bloomfield ,,AvenueVerona ,NJ,07044,United States,973-239-2772,,,,,,
"New York Community Bank, Forest Parkway Branch",,80-35 Jamaica ,,AvenueWoodhaven ,NY,11421,United States,718-296-4946,,,,,,
"New York Community Bank, Rockaway Park Branch",,104-08 Rockaway Beach ,,BoulevardRockaway Park ,NY,11694,United States,718-945-9560,,,,,,
"New York Community Bank, Ozone Park-Pm Branch",,92-10 Atlantic ,,AveOzone Park ,NY,11416,United States,718-323-8317,,,,,,
"New York Community Bank, Woodside Branch",,60-10 Queens ,,BoulevardWoodside ,NY,11377,United States,718-565-1200,,,,,,
"New York Community Bank, Howard Beach Accommodation Branch",,156-39 Cross-Bay ,,BoulevardHoward Beach ,NY,11414,United States,718-641-6190,,,,,,
"New York Community Bank, Howard Beach Branch",,156-02 Cross Bay ,,BoulevardHoward Beach ,NY,11414,United States,718-843-8700,,,,,,
"New York Community Bank, Astoria Branch",,31-42 Steinway ,,StreetAstoria ,NY,11103,United States,718-545-5115,,,,,,
"New York Community Bank, Howard Beach Branch",,82-10 153rd ,,AveHoward Beach ,NY,11414,United States,718-835-9534,,,,,,
"New York Community Bank, Howell Branch",,5149 Route 9 ,,NorthHowell ,NJ,07731,United States,732-262-5204,,,,,,
"New York Community Bank, Woodhaven Branch",,93-22 Jamaica ,,AveWoodhaven ,NY,11421,United States,718-850-1242,,,,,,
"New York Community Bank, Jackson Heights Branch",,76-02 Northern ,,BoulevardJackson Heights ,NY,11372,United States,718-476-9700,,,,,,
"New York Community Bank, Corona Branch",,38-07 Junction ,,Blvd.Corona ,NY,11368,United States,,,,,,,
"New York Community Bank, Rego Park Branch",,97-77 Queens ,,Blvd.Rego Park ,NY,11374,United States,,,,,,,
"New York Community Bank, Ozone Park Branch",,98-16 101st ,,AvenueOzone Park ,NY,11416,United States,718-845-0427,,,,,,
"New York Community Bank, Corona Heights Branch",,51-13 108th ,,StreetCorona ,NY,11368,United States,718-271-1800,,,,,,
"New York Community Bank, Kew Gardens Hills",,75-44 Main ,,StreetFlushing ,NY,11367,United States,718-268-6801,,,,,,
"New York Community Bank, Forest Hills Branch",,107-40 Queens ,,BoulevardForest Hills ,NY,11375,United States,718-459-9696,,,,,,
"New York Community Bank, Corona Branch",,37-97 103rd ,,StreetCorona ,NY,11368,United States,718-429-1000,,,,,,
"New York Community Bank, Forest Hills Branch",,106-19 Continental ,,AvenueForest Hills ,NY,11375,United States,718-263-8605,,,,,,
"New York Community Bank, S. Richmond Hill Branch",,116-13 Liberty AvenueSouth ,,Richmond Hill ,NY,11419,United States,,,,,,,
"New York Community Bank, Murray Hill Branch",,156-10 Northern ,,BoulevardFlushing ,NY,11354,United States,718-939-3243,,,,,,
"New York Community Bank, Flushing Branch",,136-65 Roosevelt ,,AvenueFlushing ,NY,11354,United States,718-460-4800,,,,,,
"New York Community Bank, College Point Branch",,15-01 College Point ,,BoulevardCollege Point ,NY,11356,United States,718-460-1400,,,,,,
"New York Community Bank, Fresh Meadows Branch",,61-49 188th ,,StreetFresh Meadows ,NY,11365,United States,718-454-6600,,,,,,
"New York Community Bank, Flushing Branch",,41-60 Main ,,StreetFlushing ,NY,11355,United States,,,,,,,
"New York Community Bank, Lawrence Branch",,333 Central ,,AvenueLawrence ,NY,11559,United States,516-295-9501,,,,,,
"New York Community Bank, College Point Branch",,1501 College Point ,,BoulevardCollege Point ,NY,11356,United States,718-460-1400,,,,,,
"New York Community Bank, Whitestone Branch",,3106 Farrington ,,StFlushing ,NY,11354,United States,718-939-3133,,,,,,
"New York Community Bank, Queens College Branch",,,,Kissena BoulevardFlushing ,NY,11354,United States,718-268-6801,,,,,,
"New York Community Bank, Flushing-Pm Branch",,155-15 Aguilar ,,AvenueFlushing ,NY,11367,United States,718-969-6816,,,,,,
"New York Community Bank, Bellerose Branch",,244-19 Braddock ,,AveBellerose ,NY,11426,United States,718-347-2418,,,,,,
"New York Community Bank, Valley Stream Branch",,75 North Central AvenueValley Stream ,,,NY,11580,United States,516-599-0066,,,,,,
"New York Community Bank, Hewlett Branch",,1280 ,,BroadwayHewlett ,NY,11557,United States,516-295-7750,,,,,,
"New York Community Bank, Auburndale Branch",,19402 Northern ,,BlvdFlushing ,NY,11358,United States,718-279-1688,,,,,,
"New York Community Bank, Brick Town Branch",,688 Rt 70Brick ,,,NJ,08723,United States,732-262-5204,,,,,,
"New York Community Bank, Bellerose Branch",,247-53 Jamaica ,,AvenueBellerose ,NY,11426,United States,718-831-5501,,,,,,
"New York Community Bank, Bayside Branch",,22404 Union ,,TpkeOakland Gardens ,NY,11364,United States,718-740-1400,,,,,,
"New York Community Bank, Throgs Neck",,3681-83 East Tremont ,,AvenueBronx ,NY,10465,United States,718-931-2900,,,,,,
"New York Community Bank, Auburndale Branch",,193-01 Northern ,,BoulevardFlushing ,NY,11358,United States,718-357-5930,,,,,,
"New York Community Bank, Springfield Gardens",,134-40 Springfield ,,Blvd.Springfield Gardens ,NY,11413,United States,718-341-4801,,,,,,
"New York Community Bank, New Hyde Park Branch",,2335 New Hyde Park ,,Rd.New Hyde Park ,NY,11040,United States,516-683-4100,,,,,,
"New York Community Bank, West Hempstead Branch",,50 Hempstead ,,TurnpikeWest Hempstead ,NY,11552,United States,516-485-2300,,,,,,
"New York Community Bank, Little Neck Branch",,25131 Northern ,,BlvdLittle Neck ,NY,11362,United States,718-229-0535,,,,,,
"New York Community Bank, Franklin Square Branch",,460 Franklin ,,AvenueFranklin Square ,NY,11010,United States,516-355-0732,,,,,,
"New York Community Bank, Oceanside Branch",,3140 Long Beach ,,RoadOceanside ,NY,11572,United States,516-763-0200,,,,,,
"New York Community Bank, Toms River Branch",,916 Fischer ,,BoulevardToms River ,NJ,08753,United States,732-573-9615,,,,,,
"New York Community Bank, Lake Success Branch",,1280 Union TurnpikeNew ,,Hyde Park ,NY,11040,United States,516-358-7600,,,,,,
"New York Community Bank, New Hyde Park Branch",,1114 Jericho TurnpikeNew ,,Hyde Park ,NY,11040,United States,516-327-4695,,,,,,
"New York Community Bank, Co-Op City Branch",,2136 Bartow ,,AvenueBronx ,NY,10475,United States,718-790-9993,,,,,,
"New York Community Bank, Deepdale Branch",,254-09 Horace Harding ,,ExpresswayLittle Neck ,NY,11362,United States,718-423-8456,,,,,,
New York Community Bank,,615 Merrick ,,AvenueWestbury ,NY,11590,United States,,,,,,,
"New York Community Bank, North Yonkers Branch",,2540 Central Park ,,AvenueYonkers ,NY,10710,United States,914-395-1862,,,,,,
"New York Community Bank, Yonkers Branch",,1757 Central Park ,,AvenueYonkers ,NY,10710,United States,914-395-1788,,,,,,
"New York Community Bank, Greenvale Branch",,130 Wheatley ,,PlazaGreenvale ,NY,11548,United States,516-683-4100,,,,,,
"New York Community Bank, Mineola Branch",,411 Jericho ,,TurnpikeMineola ,NY,11501,United States,516-683-4100,,,,,,
"New York Community Bank, Freeport",,160 South Main ,,StreetFreeport ,NY,11520,United States,516-771-4000,,,,,,
"New York Community Bank, Bayville Branch",,340 U.S. Highway 9 ,,SouthBayville ,NJ,08721,United States,732-237-0007,,,,,,
"New York Community Bank, Roslyn Branch",,1400 Old Northern ,,BoulevardRoslyn ,NY,11576,United States,516-484-1344,,,,,,
"New York Community Bank, Port Washington Branch",,167 Shore ,,RoadPort Washington ,NY,11050,United States,516-883-8200,,,,,,
"New York Community Bank, Garden City",,108-110 7th ,,StreetGarden City ,NY,11530,United States,516-739-4438,,,,,,
"New York Community Bank, Duffy Avenue Ii Branch",,102 Duffy ,,AvenueHicksville ,NY,11801,United States,,,,,,,
"New York Community Bank, Bellmore (Sunrise) Branch",,2267 Bellmore ,,AvenueBellmore ,NY,11710,United States,516-826-1685,,,,,,
"New York Community Bank, East Meadow Branch",,1897 Front ,,StreetEast Meadow ,NY,11554,United States,516-683-4100,,,,,,
"New York Community Bank, Merrick Branch",,2111 Merrick ,,AvenueMerrick ,NY,11566,United States,516-223-0088,,,,,,
"New York Community Bank, Jericho Branch",,366 N. BroadwayJericho ,,,NY,11753,United States,516-683-4100,,,,,,
"New York Community Bank, Seaford Branch",,4055 Merrick ,,RoadSeaford ,NY,11783,United States,516-781-2002,,,,,,
"New York Community Bank, Hicksville Branch",,100 Duffy ,,AvenueHicksville ,NY,11801,United States,,,,,,,
"New York Community Bank, Jericho Branch",,One Jericho ,,PlazaJericho ,NY,11753,United States,516-937-6117,,,,,,
"New York Community Bank, Bellmore Branch",,2641 Merrick ,,RoadBellmore ,NY,11710,United States,516-826-1685,,,,,,
"New York Community Bank, East Meadow Branch",,1900 Hempstead ,,TurnpikeEast Meadow ,NY,11554,United States,516-542-8300,,,,,,
"New York Community Bank, Woodbury Branch",,8081 Jericho ,,TurnpikeWoodbury ,NY,11797,United States,516-367-9100,,,,,,
"New York Community Bank, Plainview Branch",,1092 Old ,,Country RoadPlainview ,NY,11803,United States,516-938-2460,,,,,,
"New York Community Bank, Farmingdale Branch",,14 Conklin ,,StreetFarmingdale ,NY,11735,United States,516-694-9100,,,,,,
"New York Community Bank, Snug Harbor Branch",,111-01 Merrick ,,RoadAmityville ,NY,11701,United States,631-598-3866,,,,,,
"New York Community Bank, Plainview Branch",,509 Old ,,Country RoadPlainview ,NY,11803,United States,516-932-6500,,,,,,
"New York Community Bank, Massapequa Branch",,6199 Sunrise ,,HighwayMassapequa ,NY,11758,United States,516-541-5600,,,,,,
"New York Community Bank, Syosset",,2 Muttontown ,,RoadSyosset ,NY,11791,United States,516-677-5300,,,,,,
"New York Community Bank, Snug Harbor Annex Branch",,110 Merrick Road # 01Amityville ,,,NY,11701,United States,631-691-3688,,,,,,
"New York Community Bank, Massapequa Park Branch",,4848 Merrick ,,RoadMassapequa Park ,NY,11762,United States,516-797-2004,,,,,,
"New York Community Bank, Bethpage Branch",,3901 Hempstead ,,TurnpikeBethpage ,NY,11714,United States,516-796-1807,,,,,,
"New York Community Bank, Deer Park Avenue Branch",,1501 Deer Park ,,AvenueNorth Babylon ,NY,11703,United States,631-242-0387,,,,,,
"New York Community Bank, Brentwood Branch",,101 Wicks ,,RoadBrentwood ,NY,11717,United States,631-952-3762,,,,,,
"New York Community Bank, Wyandanch Branch",,41 Station ,,DriveWyandanch ,NY,11798,United States,,,,,,,
"New York Community Bank, Hauppauge Branch",,335 Nesconset ,,HighwayHauppauge ,NY,11788,United States,631-979-3101,,,,,,
"New York Community Bank, Bayshore Branch",,1905 Sunrise ,,HighwayBay Shore ,NY,11706,United States,631-968-5189,,,,,,
"New York Community Bank, Bayshore Branch",,130 East Main ,,StreetBay Shore ,NY,11706,United States,631-206-6000,,,,,,
"New York Community Bank, East Northport Branch",,580 Larkfield ,,RoadEast Northport ,NY,11731,United States,631-368-5900,,,,,,
"New York Community Bank, Commack Branch",,2225 Jericho ,,TurnpikeCommack ,NY,11725,United States,631-858-0600,,,,,,
"New York Community Bank, Huntington Station",,693 Jericho ,,TurnpikeHuntington Station ,NY,11746,United States,631-425-9191,,,,,,
"New York Community Bank, West Babylon Branch",,653 Montauk ,,HighwayWest Babylon ,NY,11704,United States,516-683-4100,,,,,,
"New York Community Bank, Aurora Road Branch",,34400 Aurora ,,RoadSolon ,OH,44139,United States,440-349-4230,,,,,,
"New York Community Bank, St. James Branch",,556-02 North Country ,,RoadSaint James ,NY,11780,United States,631-862-4200,,,,,,
"New York Community Bank, Patchogue Branch",,395 Route 112Patchogue ,,,NY,11772,United States,516-683-4100,,,,,,
"New York Community Bank, 8810 Mentor Avenue Branch",,8810 Mentor ,,AvenueMentor ,OH,44060,United States,440-953-9421,,,,,,
"New York Community Bank, Holbrook Branch",,5801 Sunrise ,,HighwayHolbrook ,NY,11741,United States,516-683-4100,,,,,,
"New York Community Bank, 6500 Mayfield Rd Branch",,6500 Mayfield ,,RdCleveland ,OH,44124,United States,440-442-3300,,,,,,
"New York Community Bank, 1835 Brittain Road Branch",,1835 Brittain ,,RoadAkron ,OH,44310,United States,330-630-9666,,,,,,
"New York Community Bank, Shirley Branch",,800 Montauk ,,HighwayShirley ,NY,11967,United States,631-399-5494,,,,,,
"New York Community Bank, Smithtown Branch",,719 Smithtown ,,By-PassSmithtown ,NY,11787,United States,631-265-2600,,,,,,
"New York Community Bank, 2783 State St Branch",,2783 State StCuyahoga Falls ,,,OH,44223,United States,800-394-2010,,,,,,
"New York Community Bank, One North Hawkins Avenue Branch",,One North Hawkins ,,AvenueAkron ,OH,44313,United States,330-836-9364,,,,,,
"New York Community Bank, 29169 Euclid Avenue Branch",,29169 Euclid ,,AvenueWickliffe ,OH,44092,United States,800-394-2010,,,,,,
"New York Community Bank, 26300 Cedar Rd Branch",,26300 Cedar ,,RdBeachwood ,OH,44122,United States,216-464-6550,,,,,,
"New York Community Bank, Shoregate Branch",,29950 Lakeshore ,,BoulevardEastlake ,OH,44095,United States,800-394-2010,,,,,,
"New York Community Bank, 14033 Cedar Rd Branch",,14033 Cedar ,,RdCleveland ,OH,44118,United States,216-371-2700,,,,,,
"New York Community Bank, Richmond Road Branch",,720 Richmond ,,RdCleveland ,OH,44143,United States,216-291-5500,,,,,,
"New York Community Bank, Macedonia Branch",,8210 Macedonia Commons ,,BoulevardMacedonia ,OH,44056,United States,800-394-2010,,,,,,
"New York Community Bank, Chagrin Blvd Branch",,27810 Chagrin ,,BlvdBeachwood ,OH,44122,United States,,,,,,,
"New York Community Bank, 3050 W Market St Branch",,3050 W Market ,,StAkron ,OH,44313,United States,330-836-9547,,,,,,
"New York Community Bank, 20133 Farnsleigh Road Branch",,20133 Farnsleigh ,,RoadBeachwood ,OH,44122,United States,216-752-9093,,,,,,
"New York Community Bank, 14177 Pearl Road Branch",,14177 Pearl ,,RoadStrongsville ,OH,44136,United States,,,,,,,
"New York Community Bank, 6290 Pearl Rd Branch",,6290 Pearl ,,RdCleveland ,OH,44130,United States,440-888-4700,,,,,,
"New York Community Bank, 6016 Turney Road Branch",,6016 Turney ,,RoadCleveland ,OH,44125,United States,216-475-3010,,,,,,
"New York Community Bank, 3300 Warren Road Branch",,3300 Warren ,,RoadCleveland ,OH,44111,United States,216-941-3000,,,,,,
"New York Community Bank, 15001 Snow Road Branch",,15001 Snow ,,RoadBrookpark ,OH,44142,United States,216-267-6996,,,,,,
"New York Community Bank, Amtrust Bank Branch",,1801 East Ninth ,,StreetCleveland ,OH,44114,United States,216-736-3480,,,,,,
"New York Community Bank, 1866 West 25th Street Branch",,1866 West 25th ,,StreetCleveland ,OH,44113,United States,216-696-3050,,,,,,
"New York Community Bank, North Royalton, Ohio Branch",,6520 Royalton ,,RoadNorth Royalton ,OH,44133,United States,440-582-9500,,,,,,
"New York Community Bank, 5767 Broadview Road Branch",,5767 Broadview ,,RoadCleveland ,OH,44134,United States,800-394-2010,,,,,,
"New York Community Bank, 2223 Lee Road Branch",,2066 Lee ,,RoadCleveland ,OH,44118,United States,216-923-0095,,,,,,
"New York Community Bank, Lake Worth Branch",,6404 Lake Worth ,,RoadLake Worth ,FL,33463,United States,561-432-8715,,,,,,
"New York Community Bank, Port St. Lucie, Florida",,874 Sw ,,St. Lucie West BoulevardPort Saint Lucie ,FL,34986,United States,772-344-0142,,,,,,
"New York Community Bank, 4570 Great Northern Blvd Branch",,4800 Great ,,Northern BoulevardNorth Olmsted ,OH,44070,United States,440-734-7040,,,,,,
"New York Community Bank, Amtrust Branch",,603 Village Boulevard Suite 101West ,,Palm Beach ,FL,33409,United States,561-687-0288,,,,,,
"New York Community Bank, Amtrust Branch",,6528 Hypoluxo ,,RoadLake Worth ,FL,33467,United States,,,,,,,
"New York Community Bank, 2625 State Rd. 7 Branch",,2625 State Rd. ,,7Wellington ,FL,33414,United States,561-795-3240,,,,,,
"New York Community Bank, 11375 Legacy Ave Branch",,11375 Legacy ,,AvePalm Beach Gardens ,FL,33410,United States,561-447-2304,,,,,,
"New York Community Bank, Westlake, Ohio Branch",,30210 Detroit ,,RoadWestlake ,OH,44145,United States,440-617-9250,,,,,,
"New York Community Bank, 22255 Center Ridge Rd Branch",,22255 Center Ridge ,,RdRocky River ,OH,44116,United States,,,,,,,
"New York Community Bank, Boynton Beach Branch",,127 North Congress ,,AvenueBoynton Beach ,FL,33426,United States,561-364-7750,,,,,,
"New York Community Bank, South Federal Branch",,1536 A South Federal ,,HighwayDelray Beach ,FL,33483,United States,561-278-8989,,,,,,
"New York Community Bank, Coral Springs Branch",,3001 University ,,DrivePompano Beach ,FL,33065,United States,954-753-6300,,,,,,
"New York Community Bank, Amtrust Branch",,5550 Glades ,,RoadBoca Raton ,FL,33431,United States,561-368-9600,,,,,,
"New York Community Bank, Boca Raton Branch",,20423 State Road 7 Suite F-20Boca ,,Raton ,FL,33498,United States,561-483-2517,,,,,,
"New York Community Bank, Deerfield Beach Branch",,3600 West Hillsboro ,,RoadDeerfield Beach ,FL,33442,United States,954-426-3232,,,,,,
"New York Community Bank, Sunrise Branch",,9100 West Oakland ,,BoulevardFort Lauderdale ,FL,33351,United States,954-577-6800,,,,,,
"New York Community Bank, Delray Branch",,7499 West Atlantic ,,AvenueDelray Beach ,FL,33446,United States,561-499-2188,,,,,,
"New York Community Bank, West Boynton Beach Branch",,8772 Boynton Beach ,,BlvdBoynton Beach ,FL,33472,United States,561-736-4410,,,,,,
"New York Community Bank, Plantation Branch",,8211 West Broward ,,BoulevardFort Lauderdale ,FL,33324,United States,954-723-9019,,,,,,
"New York Community Bank, Galt Ocean, Florida Branch",,3700 North Ocean ,,Blvd.Fort Lauderdale ,FL,33308,United States,954-537-9097,,,,,,
"New York Community Bank, Bal Harbour Branch",,9592 Harding ,,AvenueMiami Beach ,FL,33154,United States,305-861-1077,,,,,,
"New York Community Bank, Coral Gables Branch",,2701 Ponce ,,DeleonMiami ,FL,33134,United States,305-774-0049,,,,,,
"New York Community Bank, Hollywood Branch",,5461 Sheridan ,,BoulevardHollywood ,FL,33021,United States,954-986-1616,,,,,,
"New York Community Bank, 1545 South Power Road Branch",,15870 Pines ,,BlvdHollywood ,FL,33027,United States,954-443-2424,,,,,,
"New York Community Bank, Bonita Springs Branch",,23050 Via ,,VillgioEstero ,FL,33928,United States,239-498-2381,,,,,,
"New York Community Bank, Naples Florida Branch",,2315 Vanderbilt Beach ,,RdNaples ,FL,34109,United States,239-592-0023,,,,,,
"New York Community Bank, Miami Beach Branch",,447 Arthur ,,Godfrey RoadMiami Beach ,FL,33140,United States,305-695-0882,,,,,,
"New York Community Bank, Doral Branch",,9747 Nw 41st ,,StreetMiami ,FL,33178,United States,786-845-8131,,,,,,
"New York Community Bank, 1144 Weston Road Branch",,1144 Weston ,,RoadFort Lauderdale ,FL,33326,United States,954-349-2279,,,,,,
"New York Community Bank, Sedona Branch",,7000 Highway 179 Suite A-116Sedona ,,,AZ,86351,United States,928-284-9066,,,,,,
"New York Community Bank, West Ray Branch",,2975 West Ray ,,RoadChandler ,AZ,85224,United States,800-394-2010,,,,,,
"New York Community Bank, Scottsdale Branch",,6900 East Camelback ,,RoadScottsdale ,AZ,85251,United States,480-970-6500,,,,,,
"New York Community Bank, Desert Hills Bank Branch",,3001 East Camelback ,,RoadPhoenix ,AZ,85016,United States,602-381-8666,,,,,,
"New York Community Bank, Am Trust Branch",,10633 North Tatum ,,Blvd.Phoenix ,AZ,85028,United States,602-266-9130,,,,,,
"New York Community Bank, Alma School Branch",,4979 S. Alma School ,,RoadChandler ,AZ,85248,United States,480-802-6637,,,,,,
"New York Community Bank, Prescott Branch",,3027 Dollar ,,Mark WayPrescott ,AZ,86305,United States,928-771-8801,,,,,,
"New York Community Bank, Mesa Power Road Branch",,1545 South Power ,,RoadMesa ,AZ,85206,United States,,,,,,,
"New York Community Bank, Scottsdale Branch",,6970 E Chauncey Lane # 175Phoenix ,,,AZ,85054,United States,480-212-0070,,,,,,
"New York Community Bank, 8764 East Shea Blvd",,8764 East Shea ,,BlvdScottsdale ,AZ,85260,United States,480-951-4227,,,,,,
"New York Community Bank, West Sedona Branch",,2785 West Highway 89aSedona ,,,AZ,86336,United States,925-282-7440,,,,,,
"New York Community Bank, Sun City Branch",,10706 West Bell ,,RoadSun City ,AZ,85351,United States,623-298-0320,,,,,,
"New York Community Bank, Sun City Branch",,9745 W. Bell ,,RoadSun City ,AZ,85351,United States,800-394-2010,,,,,,
"New York Community Bank, 2200 East Camelback Road Branch",,2200 East Camelback ,,RoadPhoenix ,AZ,85016,United States,602-381-8666,,,,,,
"New York Community Bank, Surprise Branch",,14543 West Grand ,,AvenueSurprise ,AZ,85374,United States,623-974-6200,,,,,,
"New York Community Bank, Ahwatukee Branch",,4025 E. Chandler ,,BlvdPhoenix ,AZ,85048,United States,877-786-6560,,,,,,
"New York Community Bank, 20750 N. John Wayne Parkway Branch",,20750 N. John ,,Wayne ParkwayMaricopa ,AZ,85139,United States,877-786-6560,,,,,,
"New York Community Bank, Central And Camelback Branch",,100 East Camelback Road Suite 136Phoenix ,,,AZ,85012,United States,,,,,,,
