store_name,store_number,address,address2,city,state,zip_code,country,phone_number,latitude,longitude,store_hours,store_type,other_fields,coming_soon
FULTON BANK OF NEW JERSEY: NATIONAL PARK OFFICE,,207 N. GROVE ROAD ,,NATIONAL PARK ,NJ,08063,United States,856.853.7300,,,"Mon: 9:00 am - 5:00 pm, Tue: 9:00 am - 5:00 pm, Wed: 9:00 am - 5:00 pm, Thu: 9:00 am - 5:00 pm, Fri: 9:00 am - 6:00 pm, Sat: 9:00 am - 12:00 pm, Sun: Closed",,,
FULTON BANK OF NEW JERSEY: BELLMAWR OFFICE,,301 WEST BROWNING ROAD ,,BELLMAWR ,NJ,08031,United States,856.933.5201,,,"Mon: 9:00am - 5:00pm, Tue: 9:00am - 5:00pm, Wed: 9:00am - 5:00pm, Thu: 9:00am - 5:00pm, Fri: 9:00am - 6:00pm, Sat: 9:00am - 12:00pm, Sun: Closed",,,
FULTON BANK OF NEW JERSEY: WOODBURY OFFICE,,100 PARK AVENUE ,,WOODBURY ,NJ,08096,United States,856.845.0700,,,"Mon: 9:00am - 5:00pm, Tue: 9:00am - 5:00pm, Wed: 9:00am - 5:00pm, Thu: 9:00am - 5:00pm, Fri: 9:00am - 6:00pm, Sat: 9:00am - 12:00pm, Sun: Closed",,,
FULTON BANK OF NEW JERSEY: ATM AT INSPIRA (FORMERLY KNOWN AS UNDERWOOD),,509 N BROAD STREET ,,WOODBURY ,NJ,08096,United States,,,,,,,
FULTON BANK OF NEW JERSEY: HADDONFIELD OFFICE,,17 KINGS HIGHWAY WEST ,,HADDONFIELD ,NJ,08033,United States,856-857-0325,,,"Mon: 9:00am - 5:00pm, Tue: 9:00am - 5:00pm, Wed: 9:00am - 5:00pm, Thu: 9:00am - 5:00pm, Fri: 9:00am - 6:00pm, Sat: 9:00am - 12:00pm, Sun: Closed",,,
FULTON BANK OF NEW JERSEY: KINGS HIGHWAY OFFICE,,514 N. KINGS HIGHWAY ,,CHERRY HILL ,NJ,08034,United States,856-779-3280,,,"Mon: 9:00am - 5:00pm, Tue: 9:00am - 5:00pm, Wed: 9:00am - 5:00pm, Thu: 9:00am - 5:00pm, Fri: 9:00am - 6:00pm, Sat: 9:00am - 12:00pm, Sun: Closed",,,
FULTON BANK OF NEW JERSEY: CHERRY HILL OFFICE,,1460 E. ROUTE 70 ,,CHERRY HILL ,NJ,08034,United States,856.857.1660,,,"Mon: 9:00am - 5:00pm, Tue: 9:00am - 5:00pm, Wed: 9:00am - 5:00pm, Thu: 9:00am - 5:00pm, Fri: 9:00am - 6:00pm, Sat: 9:00am - 12:00pm, Sun: Closed",,,
FULTON BANK OF NEW JERSEY: PAULSBORO OFFICE,,653 WEST BROAD STREET ,,PAULSBORO ,NJ,08066,United States,856-423-8822,,,"Mon: 9:00am - 5:00pm, Tue: 9:00am - 5:00pm, Wed: 9:00am - 5:00pm, Thu: 9:00am - 5:00pm, Fri: 9:00am - 6:00pm, Sat: 9:00am - 12:00pm, Sun: Closed",,,
FULTON BANK: ABINGTON/JENKINTOWN,,801 OLD YORK ROAD ,,JENKINTOWN ,PA,19046,United States,215.572.0988,,,"Mon: 9:00am - 5:00pm, Tue: 9:00am - 5:00pm, Wed: 9:00am - 5:00pm, Thu: 9:00am - 5:00pm, Fri: 9:00am - 6:00pm, Sat: 9:00am - 12:00pm, Sun: Closed",,,
FULTON BANK OF NEW JERSEY: HEADQUARTERS,,533 FELLOWSHIP ROAD SUITE 250 ,,MOUNT LAUREL ,NJ,08054,United States,856-787-6200,,,"Mon: , Tue: , Wed: , Thu: , Fri: , Sat: , Sun: ",,,
FULTON BANK OF NEW JERSEY: MANTUA OFFICE,,200 BRIDGETON PIKE ,,MANTUA ,NJ,08051,United States,856.468.7700,,,"Mon: 9:00am - 5:00pm, Tue: 9:00am - 5:00pm, Wed: 9:00am - 5:00pm, Thu: 9:00am - 5:00pm, Fri: 9:00am - 6:00pm, Sat: 9:00am - 12:00pm, Sun: Closed",,,
FULTON BANK OF NEW JERSEY: VOORHEES OFFICE,,6 BERLIN ROAD ,,VOORHEES ,NJ,08043,United States,856.616.8275,,,"Mon: 9:00am - 5:00pm, Tue: 9:00am - 5:00pm, Wed: 9:00am - 5:00pm, Thu: 9:00am - 5:00pm, Fri: 9:00am - 6:00pm, Sat: 9:00am - 12:00pm, Sun: Closed",,,
FULTON BANK OF NEW JERSEY: EAST GREENWICH OFFICE,,412 KINGS HIGHWAY ,,MICKLETON ,NJ,08056,United States,856.423.8200,,,"Mon: 9:00am - 5:00pm, Tue: 9:00am - 5:00pm, Wed: 9:00am - 5:00pm, Thu: 9:00am - 5:00pm, Fri: 9:00am - 6:00pm, Sat: 9:00am - 12:00pm, Sun: Closed",,,
FULTON BANK OF NEW JERSEY: MARLTON OFFICE,,195 GREENTREE ROAD ,,MARLTON ,NJ,08053,United States,856-983-5211,,,"Mon: 9:00am - 5:00pm, Tue: 9:00am - 5:00pm, Wed: 9:00am - 5:00pm, Thu: 9:00am - 5:00pm, Fri: 9:00am - 6:00pm, Sat: 9:00am - 12:00pm, Sun: Closed",,,
FULTON BANK OF NEW JERSEY: WASHINGTON TOWNSHIP OFFICE,,303 EGG HARBOR ROAD ,,SEWELL ,NJ,08080,United States,856.582.8883,,,"Mon: 9:00am - 5:00pm, Tue: 9:00am - 5:00pm, Wed: 9:00am - 5:00pm, Thu: 9:00am - 5:00pm, Fri: 9:00am - 6:00pm, Sat: 9:00am -12:00pm, Sun: Closed",,,
FULTON BANK OF NEW JERSEY: SWEDESBORO OFFICE,,179 KINGS HIGHWAY ,,WOOLWICH TOWNSHIP ,NJ,08085,United States,856.467.0505,,,"Mon: 9:00am - 5:00pm, Tue: 9:00am - 5:00pm, Wed: 9:00am - 5:00pm, Thu: 9:00am - 5:00pm, Fri: 9:00am - 6:00pm, Sat: 9:00am - 12:00pm, Sun: Closed",,,
FULTON BANK: BENSALEM,,2100 STREET ROAD ,,BENSALEM ,PA,19020,United States,215.638.0700,,,"Mon: 9:00am - 5:00pm, Tue: 9:00am - 5:00pm, Wed: 9:00am - 5:00pm, Thu: 9:00am - 5:00pm, Fri: 9:00am - 6:00pm, Sat: 9:00am - 12:00pm, Sun: Closed",,,
FULTON BANK OF NEW JERSEY: PITMAN OFFICE,,111 BALLARD AVENUE ,,PITMAN ,NJ,08071,United States,856.582.0900,,,"Mon: 9:00am - 5:00pm, Tue: 9:00am - 5:00pm, Wed: 9:00am - 5:00pm, Thu: 9:00am - 5:00pm, Fri: 9:00am - 6:00pm, Sat: 9:00am - 12:00pm, Sun: Closed",,,
FULTON BANK OF NEW JERSEY: WEST BERLIN OFFICE,,201 N ROUTE 73 ,,WEST BERLIN ,NJ,08091,United States,856.767.3225,,,"Mon: 9:00am - 5:00pm, Tue: 9:00am - 5:00pm, Wed: 9:00am - 5:00pm, Thu: 9:00am - 5:00pm, Fri: 9:00am - 6:00pm, Sat: 9:00am - 12:00pm, Sun: Closed",,,
FULTON BANK OF NEW JERSEY: MULLICA HILL OFFICE,,153 BRIDGETON PIKE ,,MULLICA HILL ,NJ,08062,United States,856-223-8980,,,"Mon: 9:00am - 5:00pm, Tue: 9:00am - 5:00pm, Wed: 9:00am - 5:00pm, Thu: 9:00am - 5:00pm, Fri: 9:00am - 6:00pm, Sat: 9:00am - 12:00pm, Sun: Closed",,,
FULTON BANK OF NEW JERSEY: WINSLOW OFFICE,,528 BERLIN-CROSS KEYS ROAD ,,SICKLERVILLE ,NJ,08081,United States,856-262-3071,,,"Mon: 9:00am - 5:00pm, Tue: 9:00am - 5:00pm, Wed: 9:00am - 5:00pm, Thu: 9:00am - 5:00pm, Fri: 9:00am - 6:00pm, Sat: 9:00am - 12:00pm, Sun: Closed",,,
FULTON BANK: SOUTHAMPTON,,736 STREET ROAD ,,SOUTHAMPTON ,PA,18966,United States,215.322.5400,,,"Mon: 9:00am - 5:00pm, Tue: 9:00am - 5:00pm, Wed: 9:00am - 5:00pm, Thu: 9:00am - 5:00pm, Fri: 9:00am - 6:00pm, Sat: 9:00am - 12:00pm, Sun: Closed",,,
FULTON BANK OF NEW JERSEY: ECHO PLAZA OFFICE,,308 HURFFVILLE CROSS KEYS ROAD ,,SEWELL ,NJ,08080,United States,856.582.5333,,,"Mon: 9:00am - 5:00pm, Tue: 9:00am - 5:00pm, Wed: 9:00am - 5:00pm, Thu: 9:00am - 5:00pm, Fri: 9:00am - 6:00pm, Sat: 9:00am -12:00pm, Sun: Closed",,,
FULTON BANK OF NEW JERSEY: BECKETT OFFICE,,22 VILLAGE CENTER DRIVE ,,LOGAN TOWNSHIP ,NJ,08085,United States,856.467.3400,,,"Mon: 9:00am - 5:00pm, Tue: 9:00am - 5:00pm, Wed: 9:00am - 5:00pm, Thu: 9:00am - 5:00pm, Fri: 9:00am - 6:00pm, Sat: 9:00am - 12:00pm, Sun: Closed",,,
FULTON BANK OF NEW JERSEY: HAINESPORT BRANCH AND LOAN PRODUCTION OFFICE,,1302 RT 38 ,,HAINESPORT ,NJ,08036,United States,609-261-0209,,,"Mon: 9:00am - 5:00pm, Tue: 9:00am - 5:00pm, Wed: 9:00am - 5:00pm, Thu: 9:00am - 5:00pm, Fri: 9:00am - 6:00pm, Sat: 9:00am - 12:00pm, Sun: Closed",,,
FULTON BANK: WARMINSTER OFFICE,,603 YORK ROAD ,,WARMINSTER ,PA,18974,United States,215.441.5200,,,"Mon: 9:00am - 5:00pm, Tue: 9:00am - 5:00pm, Wed: 9:00am - 5:00pm, Thu: 9:00am - 6:00pm, Fri: 9:00am - 6:00pm, Sat: 9:00am - 12:00pm, Sun: Closed",,,
FULTON BANK: MIDDLETOWN,,468 W. MAIN STREET ,,MIDDLETOWN ,DE,19709,United States,302.378.4575,,,"Mon: 8:30am - 4:00pm, Tue: 8:30am - 4:00pm, Wed: 8:30am - 4:00pm, Thu: 8:30am - 4:00pm, Fri: 8:30am - 6:00pm, Sat: 9:00am - 12:00pm, Sun: Closed",,,
FULTON BANK OF NEW JERSEY: ALLOWAY OFFICE,,48 S. GREENWICH ROAD ,,ALLOWAY ,NJ,08001,United States,856.935.5300,,,"Mon: 9:00am - 5:00pm, Tue: 9:00am - 5:00pm, Wed: 9:00am - 5:00pm, Thu: 9:00am-  5:00pm, Fri: 9:00am - 6:00pm, Sat: 9:00am - 12:00pm, Sun: Closed",,,
FULTON BANK OF NEW JERSEY: MANNINGTON OFFICE,,125 SALEM-WOODSTOWN ROAD ,,SALEM ,NJ,08079,United States,856.935.6200,,,"Mon: 9:00am - 5:00pm, Tue: 9:00am - 5:00pm, Wed: 9:00am - 5:00pm, Thu: 9:00am - 5:00pm, Fri: 9:00am - 6:00pm, Sat: 9:00am - 12:00pm, Sun: Closed",,,
FULTON BANK OF NEW JERSEY: ROSENHAYN OFFICE,,755 MORTON AVE PO BOX 389 ,,ROSENHAYN ,NJ,08352,United States,856.455.3500,,,"Mon: 9:00am - 5:00pm, Tue: 9:00am - 5:00pm, Wed: 9:00am - 5:00pm, Thu: 9:00am - 5:00pm, Fri: 9:00am - 6:00pm, Sat: 9:00am - 12:00pm, Sun: Closed",,,
FULTON BANK: GEORGETOWN OFFICE,,21035 DUPONT BLVD PO BOX 520 ,,GEORGETOWN ,DE,19947,United States,302.855.2406,,,"Mon: 8:30am - 4:00pm, Tue: 8:30am - 4:00pm, Wed: 8:30am - 4:00pm, Thu: 8:30am - 4:00pm, Fri: 8:30am - 6:00pm, Sat: 9:00am - 12:00pm, Sun: Closed",,,
FULTON BANK: LEWES OFFICE,,34346 CARPENTERS WAY ,,LEWES ,DE,19958,United States,302.644.4900,,,"Mon: 8:30am - 4:00pm, Tue: 8:30am - 4:00pm, Wed: 8:30am - 4:00pm, Thu: 8:30am - 4:00pm, Fri: 8:30am - 6:00pm, Sat: 9:00am - 12:00pm, Sun: Closed",,,
THE COLUMBIA BANK: ELKTON CROSSING,,975 EAST PULASKI HWY ,,ELKTON ,MD,21921,United States,410.398.4929,,,"Mon: 9:00am - 4:00pm, Tue: 9:00am - 4:00pm, Wed: 9:00am - 4:00pm, Thu: 9:00am - 4:00pm, Fri: 9:00am - 6:00pm, Sat: 9:00am - 12:00pm, Sun: Closed",,,
FULTON BANK OF NEW JERSEY: PENNSVILLE OFFICE,,125 SOUTH BROADWAY ,,PENNSVILLE ,NJ,08070,United States,856.678.3133,,,"Mon: 9:00am - 5:00pm, Tue: 9:00am - 5:00pm, Wed: 9:00am - 5:00pm, Thu: 9:00am - 5:00pm, Fri: 9:00am - 6:00pm, Sat: 9:00am - 12:00pm, Sun: Closed",,,
THE COLUMBIA BANK: ATM - UNION HOSPITAL,,106 BOW STREET ,,ELKTON ,MD,21921,United States,,,,,,,
THE COLUMBIA BANK: ELKTON MAIN OFFICE,,130 NORTH STREET ,,ELKTON ,MD,21921,United States,410.398.3900,,,"Mon: 9:00am - 4:00pm, Tue: 9:00am - 4:00pm, Wed: 9:00am - 4:00pm, Thu: 9:00am - 4:00pm, Fri: 9:00am - 6:00pm, Sat: Closed, Sun: Closed",,,
FULTON BANK: VIRGINIA BEACH MORTGAGE LOAN PRODUCTION OFFICE,,4429 BONNEY ROAD SUITE # 124 ,,VIRGINIA BEACH ,VA,23462,United States,757.321.3100,,,"Mon: --, Tue: --, Wed: --, Thu: --, Fri: --, Sat: --, Sun: --",,,
FULTON BANK: BONNEY ROAD BRANCH,,4429 BONNEY ROAD SUITE 100 ,,VIRGINIA BEACH ,VA,23462,United States,757.463.2265,,,"Mon: 9:00am - 5:00pm, Tue: 9:00am - 5:00pm, Wed: 9:00am - 5:00pm, Thu: 9:00am - 5:00pm, Fri: 9:00am - 6:00pm, Sat: Closed, Sun: Closed",,,
FULTON BANK: HILLTOP,,1616 LASKIN ROAD ,,VIRGINIA BEACH ,VA,23451,United States,757.228.7548,,,"Mon: 9:00am - 5:00pm, Tue: 9:00am - 5:00pm, Wed: 9:00am - 5:00pm, Thu: 9:00am - 5:00pm, Fri: 9:00am - 6:00pm, Sat: 9:00am - 12:00pm, Sun: Closed",,,
FULTON BANK: LANDSTOWN COMMONS,,3545 DAM NECK RD ,,VIRGINIA BEACH ,VA,23453,United States,757-468-1498,,,"Mon: 9:00am - 5:00pm, Tue: 9:00am - 5:00pm, Wed: 9:00am - 5:00pm, Thu: 9:00am - 5:00pm, Fri: 9:00am - 6:00pm, Sat: 9:00am - 12:00pm, Sun: Closed",,,
FULTON BANK: CHESAPEAKE BRANCH,,501 INDEPENDENCE PARKWAY SUITE 105 ,,CHESAPEAKE ,VA,23320,United States,757.321.3141,,,"Mon: 8:30am - 5:30pm, Tue: 8:30am - 5:30pm, Wed: 8:30am - 5:30pm, Thu: 8:30am - 5:30pm, Fri: 8:30am - 5:30pm, Sat: Closed, Sun: Closed",,,
FULTON BANK: HANBURY VILLAGE SHOPPING CENTER,,217 HANBURY ROAD EAST ,,CHESAPEAKE ,VA,23322,United States,757-482-2114,,,"Mon: 9:00am - 5:00pm, Tue: 9:00am - 5:00pm, Wed: 9:00am - 5:00pm, Thu: 9:00am - 5:00pm, Fri: 9:00am – 6:00pm, Sat: 9:00am – 12:00pm, Sun: Closed",,,
THE COLUMBIA BANK: CROSS KEYS,,96 VILLAGE SQUARE ,,BALTIMORE ,MD,21210,United States,410.433.1990,,,"Mon: 9:00am - 5:00pm, Tue: 9:00am - 5:00pm, Wed: 9:00am - 5:00pm, Thu: 9:00am - 5:00pm, Fri: 9:00am - 5:00pm, Sat: 9:00am - 2:00pm, Sun: Closed",,,
THE COLUMBIA BANK: FAIRGROUNDS PLAZA,,67 W. AYLESBURY ROAD ,,TIMONIUM ,MD,21093,United States,410.560.1667,,,"Mon: 9:00am - 5:00pm, Tue: 9:00am - 5:00pm, Wed: 9:00am - 5:00pm, Thu: 9:00am - 5:00pm, Fri: 9:00am - 6:00pm, Sat: 9:00am - 2:00pm, Sun: Closed",,,
THE COLUMBIA BANK: LONG GATE,,4450 LONG GATE PARKWAY ,,ELLICOTT CITY ,MD,21043,United States,410.203.2345,,,"Mon: 9:00am - 5:00pm, Tue: 9:00am - 5:00pm, Wed: 9:00am - 5:00pm, Thu: 9:00am - 5:00pm, Fri: 9:00am - 6:00pm, Sat: 9:00am - 2:00pm, Sun: Closed",,,
THE COLUMBIA BANK: ELLICOTT CITY,,9151 BALTIMORE NATIONAL PIKE ,,ELLICOTT CITY ,MD,21042,United States,410.418.8500,,,"Mon: 9:00am - 5:00pm, Tue: 9:00am - 5:00pm, Wed: 9:00am - 5:00pm, Thu: 9:00am - 5:00pm, Fri: 9:00am - 6:00pm, Sat: 9:00am - 2:00pm, Sun: Closed",,,
THE COLUMBIA BANK: ARUNDEL PRESERVE,,7692 DORCHESTER BOULEVARD ,,HANOVER ,MD,21076,United States,410.799.6680,,,"Mon: 9:00am - 5:00pm, Tue: 9:00am - 5:00pm, Wed: 9:00am - 5:00pm, Thu: 9:00am - 5:00pm, Fri: 9:00am - 6:00pm, Sat: 9:00am - 2:00pm, Sun: Closed",,,
THE COLUMBIA BANK: GATEWAY PLAZA,,7185 COLUMBIA GATEWAY DRIVE ,,COLUMBIA ,MD,21046,United States,410.872.9165,,,"Mon: 8:30am - 5:30pm, Tue: 8:30am - 5:30pm, Wed: 8:30am - 5:30pm, Thu: 8:30am - 5:30pm, Fri: 8:30am - 6:00pm, Sat: Closed, Sun: Closed",,,
THE COLUMBIA BANK: SEVEN OAKS,,2288 BLUE WATER BLVD. ,,ODENTON ,MD,21113,United States,410-927-6638,,,"Mon: 9am-5pm, Tue: 9am-5pm, Wed: 9am-5pm, Thu: 9am-5pm, Fri: 9am-6pm, Sat: 9am-2pm, Sun: Closed",,,
THE COLUMBIA BANK: COLUMBIA TOWN CENTER,,10480 LITTLE PATUXENT PARKWAY ,,COLUMBIA ,MD,21044,United States,410.730.5000,,,"Mon: 9:00am - 5:00pm, Tue: 9:00am - 5:00pm, Wed: 9:00am - 5:00pm, Thu: 9:00am - 5:00pm, Fri: 9:00am - 5:00pm, Sat: Closed, Sun: Closed",,,
THE COLUMBIA BANK: HARPER'S CHOICE,,5485 HARPERS FARM ROAD ,,COLUMBIA ,MD,21044,United States,410.730.5181,,,"Mon: 9:00am - 5:00pm, Tue: 9:00am - 5:00pm, Wed: 9:00am - 5:00pm, Thu: 9:00am - 5:00pm, Fri: 9:00am - 6:00pm, Sat: 9:00am - 2:00pm, Sun: Closed",,,
THE COLUMBIA BANK: WAUGH CHAPEL,,2387 BRANDERMILL BLVD. ,,GAMBRILLS ,MD,21054,United States,410-721-2202,,,"Mon: 9:00am-5:00pm, Tue: 9:00am-5:00pm, Wed: 9:00am-5:00pm, Thu: 9:00am-5:00pm, Fri: 9:00am-6:00pm, Sat: 9:00am-2:00pm, Sun: Closed",,,
THE COLUMBIA BANK: RIVER HILL,,6030 DAYBREAK CIRCLE ,,CLARKSVILLE ,MD,21029,United States,410.531.7000,,,"Mon: 9:00am - 5:00pm, Tue: 9:00am - 5:00pm, Wed: 9:00am - 5:00pm, Thu: 9:00am - 5:00pm, Fri: 9:00am - 6:00pm, Sat: 9:00am - 2:00pm, Sun: Closed",,,
FULTON BANK: NORTH ATHERTON STREET,,2017 NORTH ATHERTON STREET ,,STATE COLLEGE ,PA,16803,United States,814-272-0166,,,"Mon: 9:00am - 5:00pm, Tue: 9:00am - 5:00pm, Wed: 9:00am - 5:00pm, Thu: 9:00am - 5:00pm, Fri: 9:00am - 6:00pm, Sat: 9:00am - 12:00pm, Sun: Closed",,,
FULTON BANK: BUSINESS FINANCIAL SERVICES CENTER - STATE COLLEGE,,2009 NORTH ATHERTON SUITE 300 ,,STATE COLLEGE ,PA,16803,United States,814-234-1864,,,"Mon: --, Tue: --, Wed: --, Thu: --, Fri: --, Sat: Closed, Sun: Closed",,,
FULTON BANK: HEISTER STREET (ATM LOCATION),,116 HEISTER STREET ,,STATE COLLEGE ,PA,16803,United States,,,,,,,
FULTON BANK: BELLEFONTE OFFICE,,122 EAGLE POINT LANE ,,BELLEFONTE ,PA,16823,United States,814-548-0082,,,"Mon: 9:00am - 5:00pm, Tue: 9:00am - 5:00pm, Wed: 9:00am - 5:00pm, Thu: 9:00am - 5:00pm, Fri: 9:00am - 6:00pm, Sat: 9:00am - 12:00pm, Sun: Closed",,,
THE COLUMBIA BANK: MAUGANS AVENUE,,18201 MAUGANS AVENUE ,,HAGERSTOWN ,MD,21742,United States,301.791.8520,,,"Mon: 8:30am - 4:00pm, Tue: 8:30am - 4:00pm, Wed: 8:30am - 4:00pm, Thu: 8:30am - 6:00pm, Fri: 8:30am - 6:00pm, Sat: 9:00am - 12:00pm, Sun: Closed",,,
THE COLUMBIA BANK: VIRGINIA AVENUE,,17803 VIRGINIA AVENUE ,,HAGERSTOWN ,MD,21740,United States,301.791.8517,,,"Mon: 8:30am - 4:00pm, Tue: 8:30am - 4:00pm, Wed: 8:30am - 4:00pm, Thu: 8:30am - 6:00pm, Fri: 8:30am - 6:00pm, Sat: 9:00am - 12:00pm, Sun: Closed",,,
THE COLUMBIA BANK: WEST SIDE AVENUE,,830 WEST FRANKLIN STREET ,,HAGERSTOWN ,MD,21740,United States,301.791.8513,,,"Mon: Closed, Tue: Closed, Wed: Closed, Thu: Closed, Fri: Closed, Sat: Closed, Sun: Closed",,,
THE COLUMBIA BANK: HAGERSTOWN MAIN OFFICE,,83 WEST WASHINGTON STREET ,,HAGERSTOWN ,MD,21740,United States,301.739.0850,,,"Mon: 9:00am - 3:00pm, Tue: 9:00am - 3:00pm, Wed: 9:00am - 3:00pm, Thu: 9:00am - 3:00pm, Fri: 9:00am - 3:00pm, Sat: Closed, Sun: Closed",,,
THE COLUMBIA BANK: SOUTH POTOMAC,,900 SOUTH POTOMAC STREET ,,HAGERSTOWN ,MD,21740,United States,301.791.8506,,,"Mon: 8:30am - 4:00pm, Tue: 8:30am - 4:00pm, Wed: 8:30am - 4:00pm, Thu: 8:30am - 6:00pm, Fri: 8:30am - 6:00pm, Sat: 9:00am - 12:00pm, Sun: Closed",,,
THE COLUMBIA BANK: LONG MEADOW,,1585 POTOMAC AVE ,,HAGERSTOWN ,MD,21742,United States,301.791.8529,,,"Mon: 8:30am - 4:00pm, Tue: 8:30am - 4:00pm, Wed: 8:30am - 4:00pm, Thu: 8:30am - 6:00pm, Fri: 8:30am - 6:00pm, Sat: 9:00am - 12:00pm, Sun: Closed",,,
FULTON BANK OF NEW JERSEY: MADISON,,18 ELMER STREET ,,MADISON ,NJ,07940,United States,973-301-1760,,,"Mon: 9:00am - 5:00pm, Tue: 9:00am - 5:00pm, Wed: 9:00am - 5:00pm, Thu: 9:00am - 6:00pm, Fri: 9:00am - 5:00pm, Sat: 9:00am - 12:00pm, Sun: Closed",,,
FULTON BANK OF NEW JERSEY: EDISON OFFICE,,1943 OAK TREE ROAD ,,EDISON ,NJ,08820,United States,732.494.8444,,,"Mon: 9:00am - 5:00pm, Tue: 9:00am - 5:00pm, Wed: 9:00am - 5:00pm, Thu: 9:00am - 6:00pm, Fri: 9:00am - 5:00pm, Sat: 9:00am - 12:00pm, Sun: Closed",,,
FULTON BANK OF NEW JERSEY: METUCHEN OFFICE,,700 MIDDLESEX AVE. ,,METUCHEN ,NJ,08840,United States,732.516.0400,,,"Mon: 9:00am - 5:00pm, Tue: 9:00am - 5:00pm, Wed: 9:00am - 5:00pm, Thu: 9:00am - 6:00pm, Fri: 9:00am - 5:00pm, Sat: 9:00am - 12:00pm, Sun: Closed",,,
FULTON BANK OF NEW JERSEY: WARREN OFFICE,,34 MOUNTAIN BOULEVARD ,,WARREN ,NJ,07059,United States,908.757.9444,,,"Mon: 9:00am - 5:00pm, Tue: 9:00am - 5:00pm, Wed: 9:00am - 5:00pm, Thu: 9:00am - 5:00pm, Fri: 9:00am - 6:00pm, Sat: 9:00am - 12:00pm, Sun: Closed",,,
FULTON BANK OF NEW JERSEY: SOUTH PLAINFIELD OFFICE,,4900 HADLEY CENTER DRIVE ,,SOUTH PLAINFIELD ,NJ,07080,United States,908-561-9160,,,"Mon: 9:00am - 5:00pm, Tue: 9:00am - 5:00pm, Wed: 9:00am - 5:00pm, Thu: 9:00am - 6:00pm, Fri: 9:00am - 5:00pm, Sat: 9:00am - 12:00pm, Sun: Closed",,,
FULTON BANK OF NEW JERSEY: ROCKAWAY OFFICE,,272 ROUTE 46 EAST ,,ROCKAWAY ,NJ,07866,United States,973.586.0630,,,"Mon: 9:00am - 5:00pm, Tue: 9:00am - 5:00pm, Wed: 9:00am - 5:00pm, Thu: 9:00am - 6:00pm, Fri: 9:00am - 6:00pm, Sat: 9:00am - 12:00pm, Sun: Closed",,,
FULTON BANK: OYSTER POINT MORTGAGE LOAN PRODUCTION OFFICE,,601 THIMBLE SHOALS BLVD SUITE 102 ,,NEWPORT NEWS ,VA,23606,United States,757.873.0435,,,"Mon: --, Tue: --, Wed: --, Thu: --, Fri: --, Sat: --, Sun: --",,,
FULTON BANK: OYSTER POINT BRANCH,,601 THIMBLE SHOALS BLVD. SUITE 101 ,,NEWPORT NEWS ,VA,23606,United States,757.596.9122,,,"Mon: 9:00am - 5:00pm, Tue: 9:00am - 5:00pm, Wed: 9:00am - 5:00pm, Thu: 9:00am - 5:00pm, Fri: 9:00am - 6:00pm, Sat: 9:00am - 12:00pm, Sun: Closed",,,
FULTON BANK: STONY POINT,,9030 STONY POINT PARKWAY SUITE 150 ,,RICHMOND ,VA,23235,United States,804.565.4400,,,"Mon: 8:30am - 5:30pm, Tue: 8:30am - 5:30pm, Wed: 8:30am - 5:30pm, Thu: 8:30am - 5:30pm, Fri: 8:30am - 5:30pm, Sat: Closed, Sun: Closed",,,
FULTON BANK: RICHMOND MORTGAGE LOAN PRODUCTION OFFICE,,9030 STONY POINT PARKWAY SUITE 230 ,,RICHMOND ,VA,23235,United States,804.565.4440,,,"Mon: --, Tue: --, Wed: --, Thu: --, Fri: --, Sat: --, Sun: --",,,
FULTON BANK: GLEN ALLEN,,4180 DOMINION BOULEVARD ,,GLEN ALLEN ,VA,23060,United States,804-726-3630,,,"Mon: 9:00am - 5:00pm, Tue: 9:00am - 5:00pm, Wed: 9:00am - 5:00pm, Thu: 9:00am - 5:00pm, Fri: 9:00am - 6:00pm, Sat: 9:00am - 12:00pm, Sun: Closed",,,
FULTON BANK: WILLIAMSBURG MORTGAGE LOAN PRODUCTION OFFICE,,1156 JAMESTOWN ROAD SUITE B ,,WILLIAMSBURG ,VA,23185,United States,757.229.6981,,,"Mon: --, Tue: --, Wed: --, Thu: --, Fri: --, Sat: --, Sun: --",,,
THE COLUMBIA BANK: CLINTON,,7810 OLD BRANCH AVENUE ,,CLINTON ,MD,20735,United States,301.868.1215,,,"Mon: 9:00am - 4:00pm, Tue: 9:00am - 4:00pm, Wed: 9:00am - 4:00pm, Thu: 9:00am - 4:00pm, Fri: 9:00am - 5:00pm, Sat: 9:00am - 12:00pm, Sun: Closed",,,
THE COLUMBIA BANK: GREENBELT,,7505 GREENWAY CENTER DRIVE ,,GREENBELT ,MD,20770,United States,301.220.0733,,,"Mon: 9:00am - 4:00pm, Tue: 9:00am - 4:00pm, Wed: 9:00am - 4:00pm, Thu: 9:00am - 4:00pm, Fri: 9:00am - 4:00pm, Sat: Closed, Sun: Closed",,,
THE COLUMBIA BANK: FEDERAL PLAZA,,12266 ROCKVILLE PIKE ,,ROCKVILLE ,MD,20852,United States,301.770.6625,,,"Mon: 9:00am - 5:00pm, Tue: 9:00am - 5:00pm, Wed: 9:00am - 5:00pm, Thu: 9:00am - 5:00pm, Fri: 9:00am - 6:00pm, Sat: 9:00am - 2:00pm, Sun: Closed",,,
FULTON BANK: HERNDON,,625 ELDEN STREET ,,HERNDON ,VA,20170,United States,703.318.8881,,,"Mon: 9:00am - 5:00pm, Tue: 9:00am - 5:00pm, Wed: 9:00am - 5:00pm, Thu: 9:00am - 5:00pm, Fri: 9:00am - 6:00pm, Sat: 9:00am - 12:00pm, Sun: Closed",,,
FULTON BANK: HERNDON MORTGAGE LOAN PRODUCTION OFFICE,,625 ELDEN STREET ,,HERNDON ,VA,20170,United States,703.318.1400,,,"Mon: 8:30am - 5:00pm, Tue: 8:30am - 5:00pm, Wed: 8:30am - 5:00pm, Thu: 8:30am - 5:00pm, Fri: 8:30am - 5:00pm, Sat: , Sun: Closed",,,
THE COLUMBIA BANK: ROCKVILLE,,1903 RESEARCH BOULEVARD ,,ROCKVILLE ,MD,20850,United States,301.309.1771,,,"Mon: 9:00am - 5:00pm, Tue: 9:00am - 5:00pm, Wed: 9:00am - 5:00pm, Thu: 9:00am - 5:00pm, Fri: 9:00am - 5:00pm, Sat: Closed, Sun: Closed",,,
LAFAYETTE AMBASSADOR BANK: 19TH STREET OFFICE,,19TH & AMP ALLEN STREETS 535 N 19TH ST ,,ALLENTOWN ,PA,18104,United States,610.366.6470,,,"Mon: 9:00am - 4:00pm, Tue: 9:00am - 4:00pm, Wed: 9:00am - 4:00pm, Thu: 9:00am - 6:00pm, Fri: 9:00am - 6:00pm, Sat: 9:00am - 12:00pm, Sun: Closed",,,
LAFAYETTE AMBASSADOR BANK: GRAPE STREET OFFICE,,1323 GRAPE STREET ,,WHITEHALL ,PA,18052,United States,610.366.6490,,,"Mon: 9:00am - 4:00pm, Tue: 9:00am - 4:00pm, Wed: 9:00am - 4:00pm, Thu: 9:00am - 6:00pm, Fri: 9:00am - 6:00pm, Sat: Closed, Sun: Closed",,,
LAFAYETTE AMBASSADOR BANK: TILGHMAN STREET OFFICE,,4127 TILGHMAN STREET ,,ALLENTOWN ,PA,18104,United States,610.366.6400,,,"Mon: 9:00am - 4:00pm, Tue: 9:00am - 4:00pm, Wed: 9:00am - 4:00pm, Thu: 9:00am - 6:00pm, Fri: 9:00am - 6:00pm, Sat: 9:00am - 12:00pm, Sun: Closed",,,
LAFAYETTE AMBASSADOR BANK: CITY LINE PLAZA (HEADQUARTERS),,SCHOENERSVILLE AND CITY LINE RDS. ,,BETHLEHEM ,PA,18017,United States,610.332.7680,,,"Mon: 9:00am - 4:00pm, Tue: 9:00am - 4:00pm, Wed: 9:00am - 4:00pm, Thu: 9:00am - 6:00pm, Fri: 9:00am - 6:00pm, Sat: Closed, Sun: Closed",,,
LAFAYETTE AMBASSADOR BANK: SAUCON VALLEY OFFICE,,3727 RT. 378 SAUCON SQUARE ,,BETHLEHEM ,PA,18015,United States,610.332.9012,,,"Mon: 9:00am - 4:00pm, Tue: 9:00am - 4:00pm, Wed: 9:00am - 4:00pm, Thu: 9:00am - 6:00pm, Fri: 9:00am - 6:00pm, Sat: 9:00am - 12:00pm, Sun: Closed",,,
LAFAYETTE AMBASSADOR BANK: DOWNTOWN BETHLEHEM BRANCH,,ONE EAST BROAD ST ,,BETHLEHEM ,PA,18018,United States,610.814.6071,,,"Mon: 9:00am - 4:00pm, Tue: 9:00am - 4:00pm, Wed: 9:00am - 4:00pm, Thu: 9:00am - 6:00pm, Fri: 9:00am - 6:00pm, Sat: Closed, Sun: Closed",,,
LAFAYETTE AMBASSADOR BANK: CHESTNUT STREET BRANCH,,1137 CHESTNUT STREET ,,EMMAUS ,PA,18049,United States,610.967.1964,,,"Mon: 9:00am - 4:00pm, Tue: 9:00am - 4:00pm, Wed: 9:00am - 4:00pm, Thu: 9:00am - 6:00pm, Fri: 9:00am - 6:00pm, Sat: 9:00am - 12:00pm, Sun: Closed",,,
LAFAYETTE AMBASSADOR BANK: BROOKSIDE (MACUNGIE) OFFICE,,1995 BROOKSIDE RD. ,,MACUNGIE ,PA,18062,United States,610.366.6460,,,"Mon: 9:00am - 4:00pm, Tue: 9:00am - 4:00pm, Wed: 9:00am - 4:00pm, Thu: 9:00am - 6:00pm, Fri: 9:00am - 6:00pm, Sat: 9:00am - 12:00pm, Sun: Closed",,,
LAFAYETTE AMBASSADOR BANK: BATH PIKE OFFICE,,3397 BATH PIKE ,,BETHLEHEM ,PA,18017,United States,610.332.2627,,,"Mon: 9:00am - 4:00pm, Tue: 9:00am - 4:00pm, Wed: 9:00am - 4:00pm, Thu: 9:00am - 6:00pm, Fri: 9:00am - 6:00pm, Sat: 9:00am - 12:00pm, Sun: Closed",,,
LAFAYETTE AMBASSADOR BANK: COOPERSBURG OFFICE,,317 E LANDIS STREET ,,COOPERSBURG ,PA,18036,United States,610.282.1887,,,"Mon: 9:00am - 4:00pm, Tue: 9:00am - 4:00pm, Wed: 9:00am - 4:00pm, Thu: 9:00am - 6:00pm, Fri: 9:00am - 6:00pm, Sat: 9:00am - 12:00pm, Sun: Closed",,,
LAFAYETTE AMBASSADOR BANK: BETHLEHEM TOWNSHIP OFFICE,,3301 EASTON AVENUE ,,BETHLEHEM ,PA,18020,United States,610.867.8711,,,"Mon: 9:00am - 4:00pm, Tue: 9:00am - 4:00pm, Wed: 9:00am - 4:00pm, Thu: 9:00am - 6:00pm, Fri: 9:00am - 6:00pm, Sat: 9:00am - 12:00pm, Sun: Closed",,,
LAFAYETTE AMBASSADOR BANK: NEWBURG OFFICE,,ROUTE 191 & AMP NEWBURG ROAD ,,NAZARETH ,PA,18064,United States,610.759.6370,,,"Mon: 9:00am - 4:00pm, Tue: 9:00am - 4:00pm, Wed: 9:00am - 4:00pm, Thu: 9:00am - 5:00pm, Fri: 9:00am - 5:00pm, Sat: 9:00am - 12:00pm, Sun: Closed",,,
LAFAYETTE AMBASSADOR BANK: PALMER TOWNSHIP OFFICE,,WM. PENN HWY. & AMP STONES CROSSING RD. ,,EASTON ,PA,18045,United States,610.250.9282,,,"Mon: 9:00am - 4:00pm, Tue: 9:00am - 4:00pm, Wed: 9:00am - 4:00pm, Thu: 9:00am - 5:00pm, Fri: 9:00am - 5:00pm, Sat: 9:00am - 12:00pm, Sun: Closed",,,
LAFAYETTE AMBASSADOR BANK: NAZARETH OFFICE,,4025 JANDY BLVD. ,,NAZARETH ,PA,18064,United States,610.746.1713,,,"Mon: 9:00am - 4:00pm, Tue: 9:00am - 4:00pm, Wed: 9:00am - 4:00pm, Thu: 9:00am - 6:00pm, Fri: 9:00am - 6:00pm, Sat: 9:00am - 12:00pm, Sun: Closed",,,
LAFAYETTE AMBASSADOR BANK: 25TH STREET OFFICE,,25TH STREET SHOPPING CTR. ,,EASTON ,PA,18045,United States,610.258.7201,,,"Mon: 9:00am - 4:00pm, Tue: 9:00am - 4:00pm, Wed: 9:00am - 4:00pm, Thu: 9:00am - 6:00pm, Fri: 9:00am - 6:00pm, Sat: 9:00am - 12:00pm, Sun: Closed",,,
LAFAYETTE AMBASSADOR BANK: EASTON HOSPITAL (ATM ONLY),,250 SOUTH 21ST STREET ,,EASTON ,PA,18042,United States,,,,,,,
LAFAYETTE AMBASSADOR BANK: WILSON OFFICE,,1800 BUTLER STREET ,,EASTON ,PA,18042,United States,610.250.9713,,,"Mon: 9:00am - 4:00pm, Tue: 9:00am - 4:00pm, Wed: 9:00am - 4:00pm, Thu: 9:00am - 5:00pm, Fri: 9:00am - 5:00pm, Sat: 9:00am - 12:00pm, Sun: Closed",,,
LAFAYETTE AMBASSADOR BANK: SOUTH EASTON OFFICE,,280 LINE STREET ,,EASTON ,PA,18042,United States,610.258.5611,,,"Mon: Closed, Tue: Closed, Wed: Closed, Thu: 9:30am - 6pm, Fri: 9:30am - 6pm, Sat: Closed, Sun: Closed",,,
LAFAYETTE AMBASSADOR BANK: NORTHAMPTON COUNTY COURTHOUSE,,669 WASHINGTON STREET ,,EASTON ,PA,18042,United States,,,,,,,
LAFAYETTE AMBASSADOR BANK: EASTON OFFICE,,360 NORTHAMPTON ST. ,,EASTON ,PA,18042,United States,610.250.2350,,,"Mon: 9:00am - 4:00pm, Tue: 9:00am - 4:00pm, Wed: 9:00am - 4:00pm, Thu: 9:00am - 5:00pm, Fri: 9:00am - 5:00pm, Sat: Closed, Sun: Closed",,,
LAFAYETTE AMBASSADOR BANK: FORKS TOWNSHIP OFFICE,,1945 SULLIVAN TRAIL ,,EASTON ,PA,18040,United States,610.250.1218,,,"Mon: 9:00am - 4:00pm, Tue: 9:00am - 4:00pm, Wed: 9:00am - 4:00pm, Thu: 9:00am - 6:00pm, Fri: 9:00am - 6:00pm, Sat: 9:00am - 12:00pm, Sun: Closed",,,
LAFAYETTE AMBASSADOR BANK: LAFAYETTE COLLEGE (ATM ONLY),,FARINON BUILDING ,,EASTON ,PA,18042,United States,,,,,,,
FULTON BANK OF NEW JERSEY: LOPATCONG OFFICE,,LOPATCONG TOWNSHIP 201 STRYKERS RD ,,PHILLIPSBURG ,NJ,08865,United States,908.213.9985,,,"Mon: 9:00am - 5:00pm, Tue: 9:00am - 5:00pm, Wed: 9:00am - 5:00pm, Thu: 9:00am - 5:00pm, Fri: 9:00am - 6:00pm, Sat: 9:00am - 12:00pm, Sun: Closed",,,
LAFAYETTE AMBASSADOR BANK: WIND GAP OFFICE,,RT. 512 & AMP MALE RD ,,WIND GAP PLAZA WIND GAP ,PA,18091,United States,610.863.7800,,,"Mon: 9:00am - 4:00pm, Tue: 9:00am - 4:00pm, Wed: 9:00am - 4:00pm, Thu: 9:00am - 6:00pm, Fri: 9:00am - 6:00pm, Sat: 9:00am - 12:00pm, Sun: Closed",,,
FULTON BANK: CHARLOTTESVILLE MORTGAGE LOAN PRODUCTION OFFICE,,400 EAST MAIN STREET SUITE 100 ,,CHARLOTTESVILLE ,VA,22902,United States,434.975.2319,,,"Mon: --, Tue: --, Wed: --, Thu: --, Fri: --, Sat: --, Sun: --",,,
FULTON BANK: READING,,210 N. FIFTH STREET ,,READING ,PA,19601,United States,610.898.8360,,,"Mon: 9:00am - 4:00pm, Tue: 9:00am - 4:00pm, Wed: 9:00am - 4:00pm, Thu: 9:00am - 4:00pm, Fri: 9:00am - 5:00pm, Sat: ---, Sun: Closed",,,
FULTON BANK: MUHLENBERG,,3045-16 N. FIFTH STREET HIGHWAY ,,READING ,PA,19605,United States,610.921.3108,,,"Mon: 8:30am - 5:00pm, Tue: 8:30am - 5:00pm, Wed: 8:30am - 5:00pm, Thu: 8:30am - 6:00pm, Fri: 8:30am - 6:00pm, Sat: 9:00am - 1:00pm, Sun: Closed",,,
FULTON BANK: EXETER,,4363 PERKIOMEN AVENUE ,,READING ,PA,19606,United States,610.779.6737,,,"Mon: 9:00am - 4:00pm, Tue: 9:00am - 4:00pm, Wed: 9:00am - 4:00pm, Thu: 9:00am - 6:00pm, Fri: 9:00am - 6:00pm, Sat: 9:00am - 1:00pm, Sun: Closed",,,
FULTON BANK: THE HIGHLANDS OF WYOMISSING,,2000 CAMBRIDGE AVE ,,WYOMISSING ,PA,19609,United States,610-775-9235,,,"Mon: , Tue: , Wed: , Thu: , Fri: , Sat: , Sun: ",,,
FULTON BANK: SHILLINGTON,,2257 LANCASTER PIKE ,,SHILLINGTON ,PA,19607,United States,610.777.7808,,,"Mon: 9:00am - 4:00pm, Tue: 9:00am - 4:00pm, Wed: 9:00am - 4:00pm, Thu: 9:00am - 6:00pm, Fri: 9:00am - 6:00pm, Sat: 9:00am - 12:00pm, Sun: Closed",,,
FULTON BANK: CENTURY BLVD,,2747 CENTURY BLVD ,,WYOMISSING ,PA,19610,United States,610.898.8300,,,"Mon: 9:00am - 5:00pm, Tue: 9:00am - 5:00pm, Wed: 9:00am - 5:00pm, Thu: 9:00am - 5:00pm, Fri: 9:00am - 5:00pm, Sat: 9:00am - 12:00pm, Sun: Closed",,,
FULTON BANK: WYOMISSING,,2100 VAN REED ROAD ,,WEST LAWN ,PA,19609,United States,610.376.4404,,,"Mon: 9:00am - 5:00pm, Tue: 9:00am - 5:00pm, Wed: 9:00am - 5:00pm, Thu: 9:00am - 6:00pm, Fri: 9:00am - 6:00pm, Sat: 9:00am - 1:00pm, Sun: Closed",,,
FULTON BANK: SPRING TOWNE CENTER,,2677A SHILLINGTON ROAD ,,SINKING SPRING ,PA,19608,United States,610.678.6881,,,"Mon: 9:00am - 4:00pm, Tue: 9:00am - 4:00pm, Wed: 9:00am - 4:00pm, Thu: 9:00am - 5:00pm, Fri: 9:00am - 6:00pm, Sat: 9:00am - 1:00pm, Sun: Closed",,,
FULTON BANK: COCALICO OFFICE,,2350 NORTH READING ROAD SUITE 14 ,,DENVER ,PA,17517,United States,717.336.4888,,,"Mon: 8:00am - 7:00pm, Tue: 8:00am - 7:00pm, Wed: 8:00am - 7:00pm, Thu: 8:00am - 7:00pm, Fri: 8:00am - 7:00pm, Sat: 8:00am - 2:00pm, Sun: Closed",,,
FULTON BANK: DENVER,,335 MAIN STREET ,,DENVER ,PA,17517,United States,717.336.5588,,,"Mon: 8:00am - 4:00pm, Tue: 8:00am - 4:00pm, Wed: 8:00am - 4:00pm, Thu: 8:00am - 6:00pm, Fri: 8:00am - 6:00pm, Sat: Closed, Sun: Closed",,,
FULTON BANK: WOMELSDORF OFFICE,,2400 CONRAD WEISER PARKWAY ,,WOMELSDORF ,PA,19567,United States,610.589.4542,,,"Mon: 9:00am - 4:00pm, Tue: 9:00am - 4:00pm, Wed: 9:00am - 4:00pm, Thu: 9:00am - 6:00pm, Fri: 9:00am - 6:00pm, Sat: 9:00am - 12:00pm, Sun: Closed",,,
FULTON BANK: POTTSTOWN,,799 STATE STREET ,,POTTSTOWN PLAZA POTTSTOWN ,PA,19464,United States,610.970.9935,,,"Mon: 8:30am - 4:00pm, Tue: 8:30am - 4:00pm, Wed: 8:30am - 4:00pm, Thu: 8:30am - 5:00pm, Fri: 8:30am - 6:00pm, Sat: 9:00am - 1:00pm, Sun: Closed",,,
FULTON BANK: HAMBURG,,100 S. THIRD STREET ,,HAMBURG ,PA,19526,United States,610.562.3804,,,"Mon: 9:00am - 4:00pm, Tue: 9:00am - 4:00pm, Wed: 9:00am - 4:00pm, Thu: 9:00am - 5:00pm, Fri: 9:00am - 6:00pm, Sat: 9:00am - 12:00pm, Sun: Closed",,,
FULTON BANK: NEW HOLLAND,,696 E. MAIN STREET ,,NEW HOLLAND ,PA,17557,United States,717.354.6800,,,"Mon: 8:00am - 4:00pm, Tue: 8:00am - 4:00pm, Wed: 8:00am - 4:00pm, Thu: 8:00am - 6:00pm, Fri: 8:00am - 6:00pm, Sat: 8:00am - 12:00pm, Sun: Closed",,,
FULTON BANK: LINCOLN/EPHRATA,,1713 W. MAIN STREET ,,EPHRATA ,PA,17522,United States,717-733-7733,,,"Mon: 8:00am - 4:00pm, Tue: 8:00am - 4:00pm, Wed: 8:00am - 4:00pm, Thu: 8:00am - 6:00pm, Fri: 8:00am - 6:00pm, Sat: Closed, Sun: Closed",,,
FULTON BANK: GARDEN SPOT VILLAGE,,433 SOUTH KINZER AVENUE ,,NEW HOLLAND ,PA,17557,United States,717.355.6055,,,"Mon: , Tue: , Wed: , Thu: , Fri: , Sat: , Sun: Closed",,,
FULTON BANK: AKRON/EPHRATA,,3630 ROTHSVILLE ROAD ,,EPHRATA ,PA,17522,United States,717.738.4224,,,"Mon: 8:00am - 4:00pm, Tue: 8:00am - 4:00pm, Wed: 8:00am - 4:00pm, Thu: 8:00am - 6:00pm, Fri: 8:00am - 6:00pm, Sat: 9:00am - 12:00pm, Sun: Closed",,,
FULTON BANK OF NEW JERSEY: HAMILTON OFFICE,,2460 WHITEHORSE HAMILTON SQUARE ROAD ,,HAMILTON TOWNSHIP ,NJ,08690,United States,609.584.5840,,,"Mon: 9:00am - 5:00pm, Tue: 9:00am - 5:00pm, Wed: 9:00am - 5:00pm, Thu: 9:00am - 5:00pm, Fri: 9:00am - 6:00pm, Sat: 9:00am - 12:00pm, Sun: Closed",,,
FULTON BANK OF NEW JERSEY: BORDENTOWN OFFICE,,5500 K. JOHNSON BOULEVARD ,,BORDENTOWN ,NJ,08505,United States,609-424-0010,,,"Mon: 9:00 am - 5:00 pm, Tue: 9:00 am - 5:00 pm, Wed: 9:00 am - 5:00 pm, Thu: 9:00 am - 5:00 pm, Fri: 9:00 am - 6:00 pm, Sat: 9:00 am - 12:00 pm, Sun: Closed",,,
FULTON BANK: YARDLEY/NEWTOWN,,101 FLORAL VALE BLVD ,,YARDLEY ,PA,19067,United States,215.579.6100,,,"Mon: 9:00am - 5:00pm, Tue: 9:00am - 5:00pm, Wed: 9:00am - 5:00pm, Thu: 9:00am - 5:00pm, Fri: 9:00am - 6:00pm, Sat: 9:00am - 12:00pm, Sun: Closed",,,
FULTON BANK OF NEW JERSEY: ALLENTOWN OFFICE,,20 NORTH MAIN ST. ,,ALLENTOWN ,NJ,08501,United States,609.259.9600,,,"Mon: 9:00am - 5:00pm, Tue: 9:00am - 5:00pm, Wed: 9:00am - 5:00pm, Thu: 9:00am - 5:00pm, Fri: 9:00am - 6:00pm, Sat: 9:00am - 12:00pm, Sun: Closed",,,
FULTON BANK OF NEW JERSEY: WINDSOR BRANCH AND LOAN PRODUCTION OFFICE,,1386 ROUTE 130 & AMP MAIN ST ,,WINDSOR ,NJ,08561,United States,609-426-1000,,,"Mon: 9:00am - 5:00pm, Tue: 9:00am - 5:00pm, Wed: 9:00am - 5:00pm, Thu: 9:00am - 5:00pm, Fri: 9:00am - 6:00pm, Sat: 9:00am - 12:00pm, Sun: Closed",,,
FULTON BANK OF NEW JERSEY: EAST WINDSOR OFFICE,,304 PRINCETON-HIGHTSTOWN RD. ,,EAST WINDSOR ,NJ,08520,United States,609.426.9600,,,"Mon: 9:00am - 5:00pm, Tue: 9:00am - 5:00pm, Wed: 9:00am - 5:00pm, Thu: 9:00am - 5:00pm, Fri: 9:00am - 6:00pm, Sat: 9:00am - 12:00pm, Sun: Closed",,,
FULTON BANK: WARRINGTON OFFICE,,1380 EASTON ROAD ,,WARRINGTON ,PA,18976,United States,215-491-9503,,,"Mon: 9:00am - 5:00 pm, Tue: 9:00am - 5:00 pm, Wed: 9:00am - 5:00 pm, Thu: 9:00am - 6:00 pm, Fri: 9:00am - 6:00 pm, Sat: 9:00am - 12:00 pm, Sun: Closed",,,
FULTON BANK: MANASSAS BRANCH,,9012 CHURCH STREET ,,MANASSAS ,VA,20110,United States,703.330.0246,,,"Mon: 9:00am - 5:00pm, Tue: 9:00am - 5:00pm, Wed: 9:00am - 5:00pm, Thu: 9:00am - 5:00pm, Fri: 9:00am - 6:00pm, Sat: 9:00am - 12:00pm, Sun: Closed",,,
FULTON BANK OF NEW JERSEY: WILLIAMSTOWN BRANCH AND LOAN PRODUCTION OFFICE,,315 S. BLACK HORSE PIKE ,,WILLIAMSTOWN ,NJ,08094,United States,856-740-0996,,,"Mon: 9:00am - 5:00pm, Tue: 9:00am - 5:00pm, Wed: 9:00am - 5:00pm, Thu: 9:00am - 5:00pm, Fri: 9:00am - 6:00pm, Sat: 9:00am - 12:00pm, Sun: Closed",,,
"FNB BANK, N.A.: BERWICK OFFICE",,200 SOUTH POPLAR STREET ,,BERWICK ,PA,18603,United States,570.752.5911,,,"Mon: 9:00am - 4:00pm, Tue: 9:00am - 4:00pm, Wed: 9:00am - 1:00pm, Thu: 9:00am - 4:00pm, Fri: 9:00am - 6:00pm, Sat: 9:00am -12:00pm, Sun: Closed",,,
LAFAYETTE AMBASSADOR BANK: BANGOR OFFICE,,1309 BLUE VALLEY DRIVE ,,PEN ARGYL ,PA,18072,United States,610.863.9585,,,"Mon: 9:00am - 4:00pm, Tue: 9:00am - 4:00pm, Wed: 9:00am - 4:00pm, Thu: 9:00am - 6:00pm, Fri: 9:00am - 6:00pm, Sat: 9:00am - 12:00pm, Sun: Closed",,,
"FNB BANK, N.A.: BLOOMSBURG OFFICE",,37 WEST MAIN STREET ,,BLOOMSBURG ,PA,17815,United States,570.784.1144,,,"Mon: 9:00am - 4:00pm, Tue: 9:00am - 4:00pm, Wed: 9:00am - 1:00pm, Thu: 9:00am - 4:00pm, Fri: 9:00am - 6:00pm, Sat: 9:00am -12:00pm, Sun: Closed",,,
FULTON BANK: NORTH WILMINGTON OFFICE,,800 FOULK ROAD ,,WILMINGTON ,DE,19803,United States,302-407-3291,,,"Mon: 8:30am - 5:00pm, Tue: 8:30am - 5:00pm, Wed: 8:30am - 5:00pm, Thu: 8:30am - 5:00pm, Fri: 8:30am - 6:00pm, Sat: 9:00am - 12:00pm, Sun: Closed",,,
FULTON BANK OF NEW JERSEY: CARNEYS POINT OFFICE,,221 SHELL ROAD ,,CARNEYS POINT ,NJ,08069,United States,856.299.9200,,,"Mon: 9:00am - 5:00pm, Tue: 9:00am - 5:00pm, Wed: 9:00am - 5:00pm, Thu: 9:00am - 5:00 pm, Fri: 9:00am - 6:00pm, Sat: 9:00am - 12:00pm, Sun: Closed",,,
FULTON BANK: MILLCREEK OFFICE,,3812 KIRKWOOD HIGHWAY ,,WILMINGTON ,DE,19808,United States,302.571.1600,,,"Mon: 8:30am - 4:00pm, Tue: 8:30am - 4:00pm, Wed: 8:30am - 4:00pm, Thu: 8:30am - 4:00pm, Fri: 8:30am - 6:00pm, Sat: 9:00am - 12:00pm, Sun: Closed",,,
FULTON BANK: CONCORDVILLE,,1100 BALTIMORE PIKE ,,GLEN MILLS ,PA,19342,United States,610.459.5840,,,"Mon: 8:30am - 4:00pm, Tue: 8:30am - 4:00pm, Wed: 8:30am - 4:00pm, Thu: 8:30am - 6:00pm, Fri: 8:30am - 6:00pm, Sat: 8:30am -12:00pm, Sun: Closed",,,
FULTON BANK: KENNETT SQUARE,,501 SCHOOLHOUSE RD ,,KENNETT SQUARE ,PA,19348,United States,610.444.4977,,,"Mon: 8:30am - 4:00pm, Tue: 8:30am - 4:00pm, Wed: 8:30am - 4:00pm, Thu: 8:30am - 6:00pm, Fri: 8:30am - 6:00pm, Sat: 8:30am - 12:00pm, Sun: Closed",,,
FULTON BANK: NEWARK OFFICE,,281 EAST MAIN STREET ,,NEWARK ,DE,19711,United States,302.737.7766,,,"Mon: 8:30am - 4:00pm, Tue: 8:30am - 4:00pm, Wed: 8:30am - 4:00pm, Thu: 8:30am - 4:00pm, Fri: 8:30am - 6:00pm, Sat: 9:00am - 12:00pm, Sun: Closed",,,
FULTON BANK OF NEW JERSEY: WOODSTOWN BRANCH &AMP LOAN PRODUCTION OFFICE,,1 SOUTH MAIN STREET ,,WOODSTOWN ,NJ,08098,United States,856.769.0040,,,"Mon: 9:00am - 5:00pm, Tue: 9:00am - 5:00pm, Wed: 9:00am - 5:00pm, Thu: 9:00am - 5:00pm, Fri: 9:00am - 6:00pm, Sat: 9:00am - 12:00pm, Sun: Closed",,,
FULTON BANK: WEST CHESTER AND DIVISION HEADQUARTERS,,116 WEST MARKET STREET ,,WEST CHESTER ,PA,19382,United States,610.918.8810,,,"Mon: 9:00am - 5:00pm, Tue: 9:00am - 5:00pm, Wed: 9:00am - 5:00pm, Thu: 9:00am - 5:00pm, Fri: 9:00am - 6:00pm, Sat: Closed, Sun: Closed",,,
FULTON BANK: WEST GOSHEN,,1201 WEST CHESTER PIKE ,,WEST CHESTER ,PA,19382,United States,610-692-2614,,,"Mon: 8:30am - 4:00pm, Tue: 8:30am - 4:00pm, Wed: 8:30am - 4:00pm, Thu: 8:30am - 6:00pm, Fri: 8:30am - 6:00pm, Sat: 9:00am - 1:00pm, Sun: Closed",,,
FULTON BANK: JENNERSVILLE BRANCH,,861 WEST BALTIMORE PIKE ,,WEST GROVE ,PA,19390,United States,610.869.4464,,,"Mon: 8:30am - 4:00pm, Tue: 8:30am - 4:00pm, Wed: 8:30am - 4:00pm, Thu: 8:30am - 6:00pm, Fri: 8:30am - 6:00pm, Sat: 8:30am -12:00pm, Sun: Closed",,,
FULTON BANK: EXTON BRANCH,,155 E. SWEDESFORD RD ,,EXTON ,PA,19341,United States,610-363-1830,,,"Mon: 8:30am - 5:00pm, Tue: 8:30am - 5:00pm, Wed: 8:30am - 5:00pm, Thu: 8:30am - 6:00pm, Fri: 8:30am - 6:00pm, Sat: 9:00am - 1:00pm, Sun: closed",,,
FULTON BANK OF NEW JERSEY: BERNARDS OFFICE,,578 ALLEN ROAD ,,BASKING RIDGE ,NJ,07920,United States,908.781.5800,,,"Mon: 9:00am - 5:00pm, Tue: 9:00am - 5:00pm, Wed: 9:00am - 5:00pm, Thu: 9:00am - 5:00pm, Fri: 9:00am - 6:00pm, Sat: 9:00am - 12:00pm, Sun: Closed",,,
FULTON BANK OF NEW JERSEY: ROXBURY OFFICE,,274 ROUTE 10 WEST ,,SUCCASUNNA ,NJ,07876,United States,973.584.9500,,,"Mon: 9:00am - 5:00pm, Tue: 9:00am - 5:00pm, Wed: 9:00am - 5:00pm, Thu: 9:00am - 6:00pm, Fri: 9:00am - 5:00pm, Sat: 9:00am - 12:00pm, Sun: Closed",,,
FULTON BANK OF NEW JERSEY: JEFFERSON OFFICE,,694 ROUTE 15 SOUTH SUITE 101 ,,LAKE HOPATCONG ,NJ,07849,United States,973.663.3030,,,"Mon: 9:00am - 5:00pm, Tue: 9:00am - 5:00pm, Wed: 9:00am - 5:00pm, Thu: 9:00am - 5:00pm, Fri: 9:00am - 6:00pm, Sat: 9:00am - 12:00pm, Sun: Closed",,,
FULTON BANK OF NEW JERSEY: BRIDGEWATER OFFICE,,481 NORTH BRIDGE STREET ,,BRIDGEWATER ,NJ,08807,United States,908.725.0033,,,"Mon: 9:00am - 5:00pm, Tue: 9:00am - 5:00pm, Wed: 9:00am - 5:00pm, Thu: 9:00am - 6:00pm, Fri: 9:00am - 5:00pm, Sat: 9:00am - 12:00pm, Sun: Closed",,,
THE COLUMBIA BANK: THOMAS JOHNSON,,175 THOMAS JOHNSON DRIVE ,,FREDERICK ,MD,21702,United States,301.663.3930,,,"Mon: 9:00am - 4:00pm, Tue: 9:00am - 4:00pm, Wed: 9:00am - 4:00pm, Thu: 9:00am - 4:00pm, Fri: 9:00am - 6:00pm, Sat: 9:00am - 12:00pm, Sun: Closed",,,
THE COLUMBIA BANK: WESTVIEW CORNER,,5211 PRESIDENTS COURT ,,FREDERICK ,MD,21703,United States,301.228.2450,,,"Mon: 9:00am - 4:00pm, Tue: 9:00am - 4:00pm, Wed: 9:00am - 4:00pm, Thu: 9:00am - 4:00pm, Fri: 9:00am - 6:00pm, Sat: 9:00am - 12:00pm, Sun: Closed",,,
THE COLUMBIA BANK: BOONSBORO,,207 NORTH MAIN STREET ,,BOONSBORO ,MD,21713,United States,301.791.8523,,,"Mon: 8:30am - 4:00pm, Tue: 8:30am - 4:00pm, Wed: 8:30am - 4:00pm, Thu: 8:30am - 6:00pm, Fri: 8:30am - 6:00pm, Sat: 9:00am - 12:00pm, Sun: Closed",,,
THE COLUMBIA BANK: SMITHSBURG,,22413 JEFFERSON BOULEVARD ,,SMITHSBURG ,MD,21783,United States,301.824.1984,,,"Mon: 8:30am - 4:00pm, Tue: 8:30am - 4:00pm, Wed: 8:30am - 4:00pm, Thu: 8:30am - 6:00pm, Fri: 8:30am - 6:00pm, Sat: 9:00am - 12:00pm, Sun: Closed",,,
THE COLUMBIA BANK: ATM - HAGERSTOWN CITY HALL,,1 FRANKLIN STREET ,,HAGERSTOWN ,MD,21740,United States,,,,,,,
THE COLUMBIA BANK: ATM - HAGERSTOWN COMMUNITY COLLEGE,,11400 ROBINWOOD ,,HAGERSTOWN ,MD,21742,United States,,,,,,,
THE COLUMBIA BANK: ATM - MERITUS MEDICAL CENTER,,11116 MEDICAL CAMPUS ROAD ,,HAGERSTOWN ,MD,21740,United States,,,,,,,
THE COLUMBIA BANK: DUAL HIGHWAY,,1640 DUAL HIGHWAY ,,HAGERSTOWN ,MD,21740,United States,301.791.8526,,,"Mon: 8:30am - 4:00pm, Tue: 8:30am - 4:00pm, Wed: 8:30am - 4:00pm, Thu: 8:30am - 6:00pm, Fri: 8:30am - 6:00pm, Sat: 9:00am - 12:00pm, Sun: Closed",,,
FULTON BANK OF NEW JERSEY: ELMER OFFICE,,25 N MAIN ST ,,ELMER ,NJ,08318,United States,856.358.8121,,,"Mon: 9:00 am - 5:00 pm, Tue: 9:00 am - 5:00 pm, Wed: 9:00 am - 5:00 pm, Thu: 9:00 am - 5:00 pm, Fri: 9:00 am - 6:00 pm, Sat: 9:00 am - 12:00 pm, Sun: Closed",,,
FULTON BANK OF NEW JERSEY: CLAYTON OFFICE,,35 N DELSEA DRIVE ,,CLAYTON ,NJ,08312,United States,856.863.4551,,,"Mon: 9:00am - 5:00pm, Tue: 9:00am - 5:00pm, Wed: 9:00am - 5:00pm, Thu: 9:00am  -5:00pm, Fri: 9:00am - 6:00pm, Sat: 9:00am - 12:00pm, Sun: Closed",,,
FULTON BANK: F&AMPM COLLEGE (ATM LOCATION),,STUDENT CENTER ,,LANCASTER ,PA,17603,United States,,,,,,,
FULTON BANK: MCGOVERN AVENUE,,20 MCGOVERN AVE. ,,LANCASTER ,PA,17602,United States,717.291.2651,,,"Mon: 9:00am - 4:00pm, Tue: 9:00am - 4:00pm, Wed: 9:00am - 4:00pm, Thu: 9:00am - 5:00pm, Fri: 9:00am - 6:00pm, Sat: 9:00am - 12:00pm, Sun: Closed",,,
FULTON BANK: CLIPPER MAGAZINE STADIUM (ATM LOCATION),,620 NORTH PRINCE STREET ,,LANCASTER ,PA,17602,United States,,,,,,,
FULTON BANK: GRANITE RUN,,451 GRANITE RUN DRIVE ,,LANCASTER ,PA,17601,United States,717.581.3211,,,"Mon: 8:00am - 7:00pm, Tue: 8:00am - 7:00pm, Wed: 8:00am - 7:00pm, Thu: 8:00am - 7:00pm, Fri: 8:00am - 7:00pm, Sat: 8:00am - 2:00pm, Sun: Closed",,,
FULTON BANK: LANCASTER GENERAL HOSPITAL (ATM LOCATION),,555 N DUKE ST ,,LANCASTER ,PA,17604,United States,,,,,,,
FULTON BANK: WOMENS AND BABIES HOSPITAL (ATM LOCATION),,690 GOOD DR ,,LANCASTER ,PA,17603,United States,,,,,,,
FULTON BANK: LANCASTER POLICE STATION (ATM LOCATION),,39 W CHESTNUT ST ,,LANCASTER ,PA,17603,United States,717.291.4911,,,,,,
FULTON BANK: LANCASTER GENERAL HEALTH CAMPUS (ATM LOCATION),,2100 HARRISBURG PIKE ,,LANCASTER ,PA,17603,United States,,,,,,,
FULTON BANK: FULTON BANK: CORPORATE OFFICES,,ONE PENN SQUARE ,,LANCASTER ,PA,17602,United States,717.291.2411,,,"Mon: --, Tue: --, Wed: --, Thu: --, Fri: --, Sat: Closed, Sun: Closed",,,
FULTON BANK: PENN SQUARE,,ONE PENN SQUARE ,,LANCASTER ,PA,17602,United States,717.291.2499,,,"Mon: 9:00am - 4:00pm, Tue: 9:00am - 4:00pm, Wed: 9:00am - 4:00pm, Thu: 9:00am - 5:00pm, Fri: 9:00am - 5:00pm, Sat: Closed, Sun: Closed",,,
FULTON BANK: OREGON PIKE,,481 ROYER DR. ,,LANCASTER ,PA,17601,United States,717-581-3207,,,"Mon: 9:00am- 5:00pm, Tue: 9:00am- 5:00pm, Wed: 9:00am- 5:00pm, Thu: 9:00am- 6:00pm, Fri: 9:00am- 6:00pm, Sat: 9:00am -1:00pm, Sun: Closed",,,
FULTON BANK: MANOR SHOPPING CENTER,,1216 MILLERSVILLE PIKE ,,LANCASTER ,PA,17603,United States,717.291.2721,,,"Mon: 10:00am - 6:00pm, Tue: 10:00am - 6:00pm, Wed: 10:00am - 6:00pm, Thu: 10:00am - 6:00pm, Fri: 10:00am - 6:00pm, Sat: 9:00am - 12:00pm, Sun: Closed",,,
FULTON BANK: COLUMBIA AVENUE,,2099 COLUMBIA AVENUE ,,LANCASTER ,PA,17603,United States,717.291.2691,,,"Mon: 9:00am - 4:00pm, Tue: 9:00am - 4:00pm, Wed: 9:00am - 4:00pm, Thu: 9:00am - 6:00pm, Fri: 9:00am - 6:00pm, Sat: 9:00am - 12:00pm, Sun: Closed",,,
FULTON BANK: SOUTH DUKE STREET,,860 S. DUKE STREET ,,LANCASTER ,PA,17602,United States,717.291.2681,,,"Mon: 9:00am - 4:00pm, Tue: 9:00am - 4:00pm, Wed: 9:00am - 4:00pm, Thu: 9:00am - 5:00pm, Fri: 9:00am - 6:00pm, Sat: Closed, Sun: Closed",,,
FULTON BANK: BRIGHT SIDE OPPORTUNITIES CENTER,,515B HERSHEY AVE 3RD FLOOR ,,LANCASTER ,PA,17602,United States,717.291.2591,,,"Mon: 10:00am - 5:00pm, Tue: 10:00am - 5:00pm, Wed: 10:00am - 5:00pm, Thu: 10:00am - 5:00pm, Fri: 10:00am - 5:00pm, Sat: Closed, Sun: Closed",,,
FULTON BANK: EAST PETERSBURG,,5998 MAIN ST. ,,EAST PETERSBURG ,PA,17520,United States,717.581.3200,,,"Mon: 8:00am - 4:00pm, Tue: 8:00am - 4:00pm, Wed: 8:00am - 4:00pm, Thu: 8:00am - 6:00pm, Fri: 8:00am - 6:00pm, Sat: 9:00am - 12:00pm, Sun: Closed",,,
FULTON BANK: GREENFIELD,,528 GREENFIELD ROAD ,,LANCASTER ,PA,17601,United States,717.291.2714,,,"Mon: 8:00am - 4:00pm, Tue: 8:00am - 4:00pm, Wed: 8:00am - 4:00pm, Thu: 8:00am - 6:00pm, Fri: 8:00am - 6:00pm, Sat: 8:00am - 12:00pm, Sun: Closed",,,
FULTON BANK: LITITZ SOUTH,,1060 LITITZ PIKE ,,LITITZ ,PA,17543,United States,717.291.2770,,,"Mon: 9:00am - 4:00pm, Tue: 9:00am - 4:00pm, Wed: 9:00am - 4:00pm, Thu: 9:00am - 6:00pm, Fri: 9:00am - 6:00pm, Sat: 9:00am - 12:00pm, Sun: Closed",,,
FULTON BANK: GOLDEN MARKET (ATM LOCATION),,2270 NEW HOLLAND PIKE ,,LANCASTER ,PA,17602,United States,,,,,,,
FULTON BANK: OREGON DAIRY (ATM LOCATION),,2900 OREGON PIKE ,,LITITZ ,PA,17543,United States,,,,,,,
FULTON BANK: WILLOW VALLEY,,102 WILLOW VALLEY SQUARE ,,LANCASTER ,PA,17602,United States,717.291.2536,,,"Mon: 9:00am - 4:00pm, Tue: 9:00am - 4:00pm, Wed: 9:00am - 4:00pm, Thu: 9:00am - 6:00pm, Fri: 9:00am - 6:00pm, Sat: 9:00am - 12:00pm, Sun: Closed",,,
FULTON BANK: MOUNTVILLE,,305 HIGHLAND DRIVE ,,MOUNTVILLE ,PA,17554,United States,717.285.4528,,,"Mon: 9:00am - 4:00pm, Tue: 9:00am - 4:00pm, Wed: 9:00am - 4:00pm, Thu: 9:00am - 6:00pm, Fri: 9:00am - 6:00pm, Sat: 9:00am - 12:00pm, Sun: Closed",,,
FULTON BANK: WEST HEMPFIELD,,3568 MARIETTA AVENUE ,,LANCASTER ,PA,17601,United States,717.285.2464,,,"Mon: 9:00am - 4:00pm, Tue: 9:00am - 4:00pm, Wed: 9:00am - 4:00pm, Thu: 9:00am - 6:00pm, Fri: 9:00am - 6:00pm, Sat: 9:00am - 12:00pm, Sun: Closed",,,
FULTON BANK: SPRING RUN,,950 WILLOW VALLEY LAKES DRIVE ,,WILLOW STREET ,PA,17584,United States,717.464.2620,,,"Mon: 8:30am - 3:30pm, Tue: 8:30am - 3:30pm, Wed: 8:30am - 3:30pm, Thu: 8:30am - 3:30pm, Fri: 8:30am - 3:30pm, Sat: Closed, Sun: Closed",,,
FULTON BANK: LEOLA,,65 WEST MAIN STREET ,,LEOLA ,PA,17540,United States,717.656.2551,,,"Mon: 8:00am - 4:00pm, Tue: 8:00am - 4:00pm, Wed: 8:00am - 4:00pm, Thu: 8:00am - 6:00pm, Fri: 8:00am - 6:00pm, Sat: 9:00am - 12:00pm, Sun: Closed",,,
FULTON BANK: LITITZ NORTH,,2 COPPERFIELD CIRCLE ,,LITITZ ,PA,17543,United States,717.626.1888,,,"Mon: 9:00am - 4:00pm, Tue: 9:00am - 4:00pm, Wed: 9:00am - 4:00pm, Thu: 9:00am - 6:00pm, Fri: 9:00am - 6:00pm, Sat: 9:00am - 12:00pm, Sun: Closed",,,
FULTON BANK: MANHEIM,,1 MARKET SQUARE ,,MANHEIM ,PA,17545,United States,717.665.2231,,,"Mon: 8:00am - 4:00pm, Tue: 8:00am - 4:00pm, Wed: 8:00am - 4:00pm, Thu: 8:00am - 6:00pm, Fri: 8:00am - 6:00pm, Sat: 9:00am - 12:00pm, Sun: Closed",,,
FULTON BANK: MANHEIM SHOPPING CENTER (ATM LOCATION),,DOE RUN ROAD ,,MANHEIM ,PA,17545,United States,,,,,,,
FULTON BANK: STRASBURG OFFICE,,366 HARTMAN BRIDGE ROAD ,,RONKS ,PA,17572,United States,717-687-7615,,,"Mon: 8:00am - 4:00pm, Tue: 8:00am - 4:00pm, Wed: 8:00am - 4:00pm, Thu: 8:00am - 6:00pm, Fri: 8:00am - 6:00pm, Sat: 9:00am - 12:00pm, Sun: Closed",,,
FULTON BANK: QUARRYVILLE,,200 TOWNSEDGE DRIVE ,,QUARRYVILLE ,PA,17566,United States,717.786.2727,,,"Mon: 9:00am - 4:00pm, Tue: 9:00am - 4:00pm, Wed: 9:00am - 4:00pm, Thu: 9:00am - 6:00pm, Fri: 9:00am - 6:00pm, Sat: 9:00am - 12:00pm, Sun: Closed",,,
FULTON BANK: ELIZABETHTOWN,,1641 S. MARKET MARKET STREET SQUARE ,,ELIZABETHTOWN ,PA,17022,United States,717.367.3800,,,"Mon: 8:00am - 4:00pm, Tue: 8:00am - 4:00pm, Wed: 8:00am - 4:00pm, Thu: 8:00am - 6:00pm, Fri: 8:00am - 7:00pm, Sat: 8:00am - 12:00pm, Sun: Closed",,,
FULTON BANK: HELLAM,,599 WEST MARKET STREET ,,HELLAM ,PA,17406,United States,717.771.4359,,,"Mon: 9:00am - 5:00pm, Tue: 9:00am - 5:00pm, Wed: 9:00am - 5:00pm, Thu: 9:00am - 6:00pm, Fri: 9:00am - 6:00pm, Sat: 9:00am - 1:00pm, Sun: Closed",,,
FULTON BANK: SCHAEFFERSTOWN OFFICE,,1374 HEIDELBERG AVE ,,SCHAEFFERSTOWN ,PA,17088,United States,717.949.6506,,,"Mon: 9:00am - 4:00pm, Tue: 9:00am - 4:00pm, Wed: 9:00am - 4:00pm, Thu: 9:00am - 6:00pm, Fri: 9:00am - 6:00pm, Sat: 9:00am - 12:00pm, Sun: Closed",,,
FULTON BANK: GAP,,5360 LINCOLN HIGHWAY ,,GAP ,PA,17527,United States,717.442.4165,,,"Mon: 8:00am - 4:00pm, Tue: 8:00am - 4:00pm, Wed: 8:00am - 4:00pm, Thu: 8:00am - 6:00pm, Fri: 8:00am - 7:00pm, Sat: 9:00am - 12:00pm, Sun: Closed",,,
FULTON BANK: CEDAR CREST SQUARE OFFICE,,1764 QUENTIN ROAD ,,LEBANON ,PA,17042,United States,717.274.6542,,,"Mon: 8:00am - 4:00pm, Tue: 8:00am - 4:00pm, Wed: 8:00am - 4:00pm, Thu: 8:00am - 6:00pm, Fri: 8:00am - 6:00pm, Sat: 9:00am - 12:00pm, Sun: Closed",,,
FULTON BANK: CAPE HORN SQUARE,,3191 CAPE HORN ROAD ,,RED LION ,PA,17356,United States,717.771.4301,,,"Mon: 9:00am - 5:00pm, Tue: 9:00am - 5:00pm, Wed: 9:00am - 5:00pm, Thu: 9:00am - 6:00pm, Fri: 9:00am - 6:00pm, Sat: 9:00am - 1:00pm, Sun: Closed",,,
FULTON BANK: GOOD SAMARITAN HOSPITAL,,4TH & AMP WALNUT STREET ,,LEBANON ,PA,17042,United States,,,,,,,
FULTON BANK: MEMORY LANE,,185 MEMORY LANE ,,YORK ,PA,17402,United States,717.771.4313,,,"Mon: 9:00am - 5:00pm, Tue: 9:00am - 5:00pm, Wed: 9:00am - 5:00pm, Thu: 9:00am - 6:00pm, Fri: 9:00am - 6:00pm, Sat: 9:00am - 1:00pm, Sun: Closed",,,
FULTON BANK OF NEW JERSEY: MANVILLE OFFICE,,40 NORTH MAIN STREET ,,MANVILLE ,NJ,08835,United States,908.541.0404,,,"Mon: 9:00am - 5:00pm, Tue: 9:00am - 5:00pm, Wed: 9:00am - 5:00pm, Thu: 9:00am - 5:00pm, Fri: 9:00am - 6:00pm, Sat: 9:00am - 12:00pm, Sun: Closed",,,
FULTON BANK OF NEW JERSEY: HILLSBOROUGH OFFICE,,601 ROUTE 206 NORTH ,,HILLSBOROUGH ,NJ,08844,United States,908.281.4009,,,"Mon: 9:00am - 5:00pm, Tue: 9:00am - 5:00pm, Wed: 9:00am - 5:00pm, Thu: 9:00am - 5:00pm, Fri: 9:00am - 6:00pm, Sat: 9:00am - 12:00pm, Sun: Closed",,,
FULTON BANK OF NEW JERSEY: SOMERVILLE DRIVE UP,,50 WEST END AVENUE ,,SOMERVILLE ,NJ,08876,United States,908.575.7300,,,"Mon: Drive-Up Only, Tue: Drive-Up Only, Wed: Drive-Up Only, Thu: Drive-Up Only, Fri: Drive-Up Only, Sat: Drive-Up Only, Sun: Closed",,,
FULTON BANK OF NEW JERSEY: SOMERVILLE OFFICE,,103 WEST END AVENUE ,,SOMERVILLE ,NJ,08876,United States,908.704.1188,,,"Mon: 9:00am - 5:00pm, Tue: 9:00am - 5:00pm, Wed: 9:00am - 5:00pm, Thu: 9:00am - 6:00pm, Fri: 9:00am - 5:00pm, Sat: 9:00am - 12:00pm, Sun: Closed",,,
FULTON BANK OF NEW JERSEY: MARLBORO OFFICE,,2 RYAN ROAD ,,MARLBORO ,NJ,07746,United States,732.863.5600,,,"Mon: 9:00am - 5:00pm, Tue: 9:00am - 5:00pm, Wed: 9:00am - 5:00pm, Thu: 9:00am - 5:00pm, Fri: 9:00am - 6:00pm, Sat: 9:00am - 12:00pm, Sun: Closed",,,
FULTON BANK OF NEW JERSEY: FREEHOLD TOWNSHIP OFFICE,,2 VILLAGE CENTER DRIVE ,,FREEHOLD ,NJ,07728,United States,732.845.1000,,,"Mon: 9:00am - 5:00pm, Tue: 9:00am - 5:00pm, Wed: 9:00am - 5:00pm, Thu: 9:00am - 5:00pm, Fri: 9:00am - 6:00pm, Sat: 9:00am - 12:00pm, Sun: Closed",,,
FULTON BANK OF NEW JERSEY: CHESTER OFFICE,,510 MAIN STREET ,,CHESTER ,NJ,07930,United States,908-879-4755,,,"Mon: 9:00am - 5:00pm, Tue: 9:00am - 5:00pm, Wed: 9:00am - 5:00pm, Thu: 9:00am - 6:00pm, Fri: 9:00am - 5:00pm, Sat: 9:00am - 12:00pm, Sun: Closed",,,
FULTON BANK OF NEW JERSEY: ADMINISTRATIVE HEADQUARTERS,,425 MAIN STREET ,,CHESTER ,NJ,07930,United States,908-955-8100,,,"Mon: , Tue: , Wed: , Thu: , Fri: , Sat: , Sun: ",,,
FULTON BANK: BUSINESS FINANCIAL SERVICES CENTER - HARRISBURG,,200 N. 3RD STREET ,,HARRISBURG ,PA,17101,United States,717.255.7656,,,"Mon: --, Tue: --, Wed: --, Thu: --, Fri: --, Sat: --, Sun: --",,,
FULTON BANK: DOWNTOWN HARRISBURG,,200 N. 3RD STREET ,,HARRISBURG ,PA,17101,United States,717.255.7651,,,"Mon: 8:00am - 4:00pm, Tue: 8:00am - 4:00pm, Wed: 8:00am - 4:00pm, Thu: 8:00am - 4:00pm, Fri: 8:00am - 4:00pm, Sat: Closed, Sun: Closed",,,
FULTON BANK: KEYSTONE HARRISBURG,,1429 NORTH 3RD STREET ,,HARRISBURG ,PA,17102,United States,717.255.7661,,,"Mon: 8:00am - 4:00pm, Tue: 8:00am - 4:00pm, Wed: 8:00am - 4:00pm, Thu: 8:00am - 4:00pm, Fri: 8:00am - 4:00pm, Sat: Closed, Sun: Closed",,,
FULTON BANK: UNION SQUARE SHOPPING CENTER,,3821 UNION DEPOSIT ROAD ,,HARRISBURG ,PA,17109,United States,717.255.7670,,,"Mon: 9:00am - 4:00pm, Tue: 9:00am - 4:00pm, Wed: 9:00am - 4:00pm, Thu: 9:00am - 4:00pm, Fri: 9:00am - 6:00pm, Sat: 9:00am - 1:00pm, Sun: Closed",,,
FULTON BANK: WEST SHORE,,599 N. 12TH ST. ,,LEMOYNE ,PA,17043,United States,717.255.7674,,,"Mon: 9:00am - 4:00pm, Tue: 9:00am - 4:00pm, Wed: 9:00am - 4:00pm, Thu: 9:00am - 4:00pm, Fri: 9:00am - 6:00pm, Sat: 9:00am - 12:00pm, Sun: Closed",,,
FULTON BANK: PROGRESS AVENUE,,200 NATIONWIDE DRIVE ,,HARRISBURG ,PA,17110,United States,717.255.7691,,,"Mon: 9:00am - 4:00pm, Tue: 9:00am - 4:00pm, Wed: 9:00am - 4:00pm, Thu: 9:00am - 6:00pm, Fri: 9:00am - 6:00pm, Sat: 9:00am - 1:00pm, Sun: Closed",,,
FULTON BANK: TRINDLE ROAD,,3344 TRINDLE ROAD ,,CAMP HILL ,PA,17011,United States,717-737-2937,,,"Mon: 8:00am - 5:00pm, Tue: 8:00am - 5:00pm, Wed: 8:00am - 5:00pm, Thu: 8:00am - 5:00pm, Fri: 8:00am - 5:00pm, Sat: 8:00am - 12:00pm, Sun: Closed",,,
FULTON BANK: COLONIAL PARK,,5049 JONESTOWN ROAD ,,HARRISBURG ,PA,17112,United States,717.545.1800,,,"Mon: 9:00am - 4:00pm, Tue: 9:00am - 4:00pm, Wed: 9:00am - 4:00pm, Thu: 9:00am - 6:00pm, Fri: 9:00am - 6:00pm, Sat: 9:00am - 1:00pm, Sun: Closed",,,
FULTON BANK: NEWBERRYTOWN,,2220 OLD TRAIL ROAD ,,ETTERS ,PA,17319,United States,717.932.9528,,,"Mon: 9:00am - 5:00pm, Tue: 9:00am - 5:00pm, Wed: 9:00am - 5:00pm, Thu: 9:00am - 6:00pm, Fri: 9:00am - 6:00pm, Sat: 9:00am - 12:00pm, Sun: Closed",,,
FULTON BANK: HUMMELSTOWN,,119 WEST MAIN STREET ,,HUMMELSTOWN ,PA,17036,United States,717.255.7671,,,"Mon: 9:00am - 4:00pm, Tue: 9:00am - 4:00pm, Wed: 9:00am - 4:00pm, Thu: 9:00am - 6:00pm, Fri: 9:00am - 6:00pm, Sat: 9:00am - 12:00pm, Sun: Closed",,,
FULTON BANK: CUMBERLAND PARKWAY,,1423 S. MARKET STREET ,,MECHANICSBURG ,PA,17055,United States,717.790.8290,,,"Mon: 8:00am - 4:30pm, Tue: 8:00am - 4:30pm, Wed: 8:00am - 4:30pm, Thu: 8:00am - 6:00pm, Fri: 8:00am - 6:00pm, Sat: 8:00am - 1:00pm, Sun: Closed",,,
FULTON BANK: SILVER SPRING COMMONS,,6520 CARLISLE PIKE ,,MECHANICSBURG ,PA,17050,United States,717.255.7695,,,"Mon: 9:00am - 4:30pm, Tue: 9:00am - 4:30pm, Wed: 9:00am - 4:30pm, Thu: 9:00am - 4:30pm, Fri: 9:00am - 6:00pm, Sat: 9:00am - 12:00pm, Sun: Closed",,,
FULTON BANK: SKYLINE VIEW,,7761 ALLENTOWN BLVD. ,,HARRISBURG ,PA,17112,United States,717.255.7681,,,"Mon: 9:00am - 4:00pm, Tue: 9:00am - 4:00pm, Wed: 9:00am - 4:00pm, Thu: 9:00am - 4:00pm, Fri: 9:00am - 6:00pm, Sat: 9:00am - 12:00pm, Sun: Closed",,,
FULTON BANK: TOMS EMIGSVILLE MOBILE (ATM LOCATION),,3183 SUSQUEHANNA TRAIL ,,YORK ,PA,17402,United States,,,,,,,
FULTON BANK: COCOA AVENUE,,1212 COCOA AVENUE ,,HERSHEY ,PA,17033,United States,717.533.4351,,,"Mon: 9:00am - 4:00pm, Tue: 9:00am - 4:00pm, Wed: 9:00am - 4:00pm, Thu: 9:00am - 6:00pm, Fri: 9:00am - 6:00pm, Sat: 9:00am - 12:00pm, Sun: Closed",,,
FULTON BANK: DILLSBURG,,866 NORTH U.S. ROUTE 15 ,,DILLSBURG ,PA,17019,United States,717.432.9771,,,"Mon: 9:00am - 4:00pm, Tue: 9:00am - 4:00pm, Wed: 9:00am - 4:00pm, Thu: 9:00am - 6:00pm, Fri: 9:00am - 6:00pm, Sat: 9:00am - 12:00pm, Sun: Closed",,,
FULTON BANK: PALMYRA SHOPPING CENTER OFFICE,,901 EAST MAIN STREET PO BOX 31 ,,PALMYRA ,PA,17078,United States,717.838.5483,,,"Mon: 8:00am - 4:00pm, Tue: 8:00am - 4:00pm, Wed: 8:00am - 4:00pm, Thu: 8:00am - 6:00pm, Fri: 8:00am - 6:00pm, Sat: 9:00am - 12:00pm, Sun: Closed",,,
FULTON BANK: EMIGSVILLE,,3183 SUSQUEHANNA TRAIL ,,YORK ,PA,17406,United States,717.771.4368,,,"Mon: 9:00am - 5:00pm, Tue: 9:00am - 5:00pm, Wed: 9:00am - 5:00pm, Thu: 9:00am - 6:00pm, Fri: 9:00am - 6:00pm, Sat: 9:00am - 1:00pm, Sun: Closed",,,
FULTON BANK: DOVER,,3 SOUTH MAIN STREET ,,DOVER ,PA,17315,United States,717.771.4304,,,"Mon: 9:00am - 5:00pm, Tue: 9:00am - 5:00pm, Wed: 9:00am - 5:00pm, Thu: 9:00am - 6:00pm, Fri: 9:00am - 6:00pm, Sat: 9:00am - 1:00pm, Sun: Closed",,,
FULTON BANK: ANNVILLE OFFICE,,1 WEST MAIN STREET ,,ANNVILLE ,PA,17003,United States,717.867.4621,,,"Mon: 9:00am - 4:00pm, Tue: 9:00am - 4:00pm, Wed: 9:00am - 4:00pm, Thu: 9:00am - 6:00pm, Fri: 9:00am - 6:00pm, Sat: 9:00am - 12:00pm, Sun: Closed",,,
FULTON BANK: FORT INDIANTOWN GAP,,BUILDING 9-120 FISHER AVE. ,,ANNVILLE ,PA,17003,United States,,,,,,,
FULTON BANK: LEBANON VALLEY COLLEGE (ATM LOCATION),,101 N. COLLEGE AVENUE ,,ANNVILLE ,PA,17003,United States,,,,,,,
SWINEFORD NATIONAL BANK: BEAVER SPRINGS OFFICE,,19639 RT. 522 ,,BEAVER SPRINGS ,PA,17812,United States,570.658.4700,,,"Mon: 9:00am - 4:00pm, Tue: 9:00am - 4:00pm, Wed: 9:00am - 12:00pm, Thu: 9:00am - 4:00pm, Fri: 9:00am - 6:00pm*, Sat: 9:00am - 12:00pm, Sun: Closed",,,
FULTON BANK: MEMORIAL HOSPITAL ER DEPARTMENT (ATM LOCATION),,325 S BELMONT ST ,,YORK ,PA,17404,United States,,,,,,,
FULTON BANK: YORK JUDICIAL CENTER (ATM LOCATION),,45 N. GEORGE ST ,,YORK ,PA,17401,United States,,,,,,,
FULTON BANK: DOWNTOWN YORK OFFICE,,30 SOUTH GEORGE STREET ,,YORK ,PA,17401,United States,717.771.4224,,,"Mon: 9:00am - 4:00pm, Tue: 9:00am - 4:00pm, Wed: 9:00am - 4:00pm, Thu: 9:00am - 4:00pm, Fri: 9:00am - 5:00pm, Sat: Closed, Sun: Closed",,,
FULTON BANK: SOUTH QUEEN STREET,,2057 S. QUEEN ST. ,,YORK ,PA,17403,United States,717.771.4319,,,"Mon: 9:00am - 5:00pm, Tue: 9:00am - 5:00pm, Wed: 9:00am - 5:00pm, Thu: 9:00am - 6:00pm, Fri: 9:00am - 6:00pm, Sat: 9:00am - 1:00pm, Sun: Closed",,,
"FULTON BANK: YORK COLLEGE (LITTLE RUN LODGE, ATM LOCATION)",,439 COUNTRY CLUB RD ,,YORK ,PA,17403,United States,,,,,,,
FULTON BANK: YORK COLLEGE (ATM LOCATION),,439 COUNTRY CLUB RD ,,YORK ,PA,17403,United States,,,,,,,
FULTON BANK: WESTGATE,,1500 KENNETH ROAD ,,YORK ,PA,17404,United States,717.771.4354,,,"Mon: 9:00am - 5:00pm, Tue: 9:00am - 5:00pm, Wed: 9:00am - 5:00pm, Thu: 9:00am - 6:00pm, Fri: 9:00am - 6:00pm, Sat: 9:00am - 1:00pm, Sun: Closed",,,
FULTON BANK: SHREWSBURY,,1102 SHREWSBURY COMMONS AVE ,,SHREWSBURY ,PA,17361,United States,717.771.4372,,,"Mon: 9:00am - 5:00pm, Tue: 9:00am - 5:00pm, Wed: 9:00am - 5:00pm, Thu: 9:00am - 6:00pm, Fri: 9:00am - 6:00pm, Sat: 9:00am - 1:00pm, Sun: Closed",,,
FULTON BANK: HANOVER BRANCH,,61 WILSON AVE ,,HANOVER ,PA,17331,United States,717-632-3290,,,"Mon: 9:00am - 5:00pm, Tue: 9:00am - 5:00pm, Wed: 9:00am - 5:00pm, Thu: 9:00am - 5:00pm, Fri: 9:00am - 6:00pm, Sat: 9:00am - 12:00pm, Sun: Closed",,,
FULTON BANK OF NEW JERSEY: NORTHFIELD OFFICE,,1101 TILTON ROAD ,,NORTHFIELD ,NJ,08225,United States,609-272-3058,,,"Mon: 9:00am - 5:00pm, Tue: 9:00am - 5:00pm, Wed: 9:00am - 5:00pm, Thu: 9:00am - 5:00pm, Fri: 9:00am - 6:00pm, Sat: 9:00am - 12:00pm, Sun: Closed",,,
FULTON BANK OF NEW JERSEY: GALLOWAY BRANCH AND LOAN PRODUCTION OFFICE,,215 E. JIMMIE LEEDS RD. ,,GALLOWAY ,NJ,08205,United States,609.404.7950,,,"Mon: 9:00am - 5:00pm, Tue: 9:00am - 5:00pm, Wed: 9:00am - 5:00pm, Thu: 9:00am - 5:00pm, Fri: 9:00am - 6:00pm, Sat: 9:00am - 12:00pm, Sun: Closed",,,
FULTON BANK OF NEW JERSEY: EGG HARBOR TWP OFFICE,,4004 ENGLISH CREEK ROAD ,,EGG HARBOR TWP ,NJ,08234,United States,609-484-0523,,,"Mon: 9:00am - 5:00pm, Tue: 9:00am - 5:00pm, Wed: 9:00am - 5:00pm, Thu: 9:00am - 5:00pm, Fri: 9:00am - 6:00pm, Sat: 9:00am -12:00pm, Sun: Closed",,,
