store_name,store_number,address,address2,city,state,zip_code,country,phone_number,latitude,longitude,store_hours,store_type,other_fields,coming_soon
WALNUT OFFICE,,515 GRAND AVE ,,WALNUT ,CA,91789,United States,,,,"Lobby : Monday 9:00 AM - 4:00 PM, Tuesday 9:00 AM - 4:00 PM, Wednesday 9:00 AM - 4:00 PM, Thursday 9:00 AM - 4:00 PM, Friday 9:00 AM - 4:00 PM, Saturday -, Sunday -,  Drive_Thru : Monday -, Tuesday -, Wednesday -, Thursday -, Friday -, Saturday -, Sunday -",,,
TORRANCE OFFICE,,21842 HAWTHORNE BLVD ,,TORRANCE ,CA,90503,United States,,,,"Lobby : Monday 9:00 AM - 4:00 PM, Tuesday 9:00 AM - 4:00 PM, Wednesday 9:00 AM - 4:00 PM, Thursday 9:00 AM - 4:00 PM, Friday 9:00 AM - 4:00 PM, Saturday -, Sunday -,  Drive_Thru : Monday -, Tuesday -, Wednesday -, Thursday -, Friday -, Saturday -, Sunday -",,,
TEMPLE CITY OFFICE,,9601 LAS TUNAS DR ,,TEMPLE CITY ,CA,91780,United States,,,,"Lobby : Monday 9:00 AM - 4:00 PM, Tuesday 9:00 AM - 4:00 PM, Wednesday 9:00 AM - 4:00 PM, Thursday 9:00 AM - 4:00 PM, Friday 9:00 AM - 4:00 PM, Saturday -, Sunday -,  Drive_Thru : Monday -, Tuesday -, Wednesday -, Thursday -, Friday -, Saturday -, Sunday -",,,
SAN MATEO OFFICE,,277 SOUTH B ST ,,SAN MATEO ,CA,94401,United States,,,,"Lobby : Monday 9:00 AM - 4:00 PM, Tuesday 9:00 AM - 4:00 PM, Wednesday 9:00 AM - 4:00 PM, Thursday 9:00 AM - 4:00 PM, Friday 9:00 AM - 4:00 PM, Saturday -, Sunday -,  Drive_Thru : Monday -, Tuesday -, Wednesday -, Thursday -, Friday -, Saturday -, Sunday -",,,
SAN MARINO OFFICE,,2398 HUNTINGTON DR ,,SAN MARINO ,CA,91108,United States,,,,"Lobby : Monday 9:00 AM - 4:00 PM, Tuesday 9:00 AM - 4:00 PM, Wednesday 9:00 AM - 4:00 PM, Thursday 9:00 AM - 4:00 PM, Friday 9:00 AM - 4:00 PM, Saturday -, Sunday -,  Drive_Thru : Monday -, Tuesday -, Wednesday -, Thursday -, Friday -, Saturday -, Sunday -",,,
SAN JOSE SARATOGA OFFICE,,1420 EL PASEO DE SARATOGA ,,SAN JOSE ,CA,95130,United States,,,,"Lobby : Monday 9:00 AM - 4:00 PM, Tuesday 9:00 AM - 4:00 PM, Wednesday 9:00 AM - 4:00 PM, Thursday 9:00 AM - 4:00 PM, Friday 9:00 AM - 4:00 PM, Saturday -, Sunday -,  Drive_Thru : Monday -, Tuesday -, Wednesday -, Thursday -, Friday -, Saturday -, Sunday -",,,
SAN GABRIEL OFFICE,,227 W VALLEY BLVD. ,,SAN GABRIEL ,CA,91776,United States,,,,"Lobby : Monday 9:00 AM - 4:00 PM, Tuesday 9:00 AM - 4:00 PM, Wednesday 9:00 AM - 4:00 PM, Thursday 9:00 AM - 4:00 PM, Friday 9:00 AM - 4:00 PM, Saturday -, Sunday -,  Drive_Thru : Monday -, Tuesday -, Wednesday -, Thursday -, Friday -, Saturday -, Sunday -",,,
SAN FRANCISCO CHINATOWN,,933 GRANT AVE ,,SAN FRANCISCO ,CA,94108,United States,,,,"Lobby : Monday 9:00 AM - 4:00 PM, Tuesday 9:00 AM - 4:00 PM, Wednesday 9:00 AM - 4:00 PM, Thursday 9:00 AM - 4:00 PM, Friday 9:00 AM - 4:00 PM, Saturday -, Sunday -,  Drive_Thru : Monday -, Tuesday -, Wednesday -, Thursday -, Friday -, Saturday -, Sunday -",,,
ROWLAND HEIGHTS OFFICE,,18250 COLIMA ROAD ,,ROWLAND HGTS ,CA,91748,United States,,,,"Lobby : Monday 9:00 AM - 4:00 PM, Tuesday 9:00 AM - 4:00 PM, Wednesday 9:00 AM - 4:00 PM, Thursday 9:00 AM - 4:00 PM, Friday 9:00 AM - 4:00 PM, Saturday -, Sunday -,  Drive_Thru : Monday -, Tuesday -, Wednesday -, Thursday -, Friday -, Saturday -, Sunday -",,,
SANTA MONICA OFFICE,,1453 3RD ST STE 250 ,,PROM SANTA MONICA ,CA,90401,United States,,,,"Lobby : Monday 9:00 AM - 4:00 PM, Tuesday 9:00 AM - 4:00 PM, Wednesday 9:00 AM - 4:00 PM, Thursday 9:00 AM - 4:00 PM, Friday 9:00 AM - 4:00 PM, Saturday -, Sunday -,  Drive_Thru : Monday -, Tuesday -, Wednesday -, Thursday -, Friday -, Saturday -, Sunday -",,,
POMPANO OFFICE,,301 NORTH FEDERAL HWY ,,POMPANO BEACH ,FL,33062,United States,,,,"Lobby : Monday 9:00 AM - 4:00 PM, Tuesday 9:00 AM - 4:00 PM, Wednesday 9:00 AM - 4:00 PM, Thursday 9:00 AM - 4:00 PM, Friday 9:00 AM - 4:00 PM, Saturday -, Sunday -,  Drive_Thru : Monday 9:00 AM - 4:00 PM, Tuesday 9:00 AM - 4:00 PM, Wednesday 9:00 AM - 4:00 PM, Thursday 9:00 AM - 4:00 PM, Friday 9:00 AM - 4:00 PM, Saturday -, Sunday -",,,
WILLIAMSBURG OFFICE,,252 BEDFORD AVE ,,BROOKLYN ,NY,11211,United States,,,,"Lobby : Monday 9:00 AM - 4:00 PM, Tuesday 9:00 AM - 4:00 PM, Wednesday 9:00 AM - 4:00 PM, Thursday 9:00 AM - 4:00 PM, Friday 9:00 AM - 4:00 PM, Saturday 9:00 AM - 1:00 PM, Sunday -,  Drive_Thru : Monday -, Tuesday -, Wednesday -, Thursday -, Friday -, Saturday -, Sunday -",,,
THIRD AVE & 92ND ST OFC,,9201 3RD AVE ,,BROOKLYN ,NY,11209,United States,,,,"Lobby : Monday 9:00 AM - 4:00 PM, Tuesday 9:00 AM - 4:00 PM, Wednesday 9:00 AM - 4:00 PM, Thursday 9:00 AM - 4:00 PM, Friday 9:00 AM - 4:00 PM, Saturday 9:00 AM - 1:00 PM, Sunday -,  Drive_Thru : Monday -, Tuesday -, Wednesday -, Thursday -, Friday -, Saturday -, Sunday -",,,
STARRETT CITY OFFICE,,1330 PENNSYLVANIA AVE. ,,BROOKLYN ,NY,11239,United States,,,,"Lobby : Monday 9:00 AM - 4:00 PM, Tuesday 9:00 AM - 4:00 PM, Wednesday 9:00 AM - 4:00 PM, Thursday 9:00 AM - 4:00 PM, Friday 9:00 AM - 4:00 PM, Saturday -, Sunday -,  Drive_Thru : Monday -, Tuesday -, Wednesday -, Thursday -, Friday -, Saturday -, Sunday -",,,
WOODSIDE OFFICE,,5120 NORTHERN BLVD ,,WOODSIDE ,NY,11377,United States,,,,"Lobby : Monday 9:00 AM - 4:00 PM, Tuesday 9:00 AM - 4:00 PM, Wednesday 9:00 AM - 4:00 PM, Thursday 9:00 AM - 4:00 PM, Friday 9:00 AM - 4:00 PM, Saturday -, Sunday -,  Drive_Thru : Monday -, Tuesday -, Wednesday -, Thursday -, Friday -, Saturday -, Sunday -",,,
THIRTY SEVENTH AVE OFFICE,,76-27 37TH AVENUE ,,JACKSON HTS ,NY,11372,United States,,,,"Lobby : Monday 9:00 AM - 4:00 PM, Tuesday 9:00 AM - 4:00 PM, Wednesday 9:00 AM - 4:00 PM, Thursday 9:00 AM - 4:00 PM, Friday 9:00 AM - 4:00 PM, Saturday 9:00 AM - 1:00 PM, Sunday -,  Drive_Thru : Monday -, Tuesday -, Wednesday -, Thursday -, Friday -, Saturday -, Sunday -",,,
REGO PARK OFFICE,,95-01 63RD DRIVE ,,REGO PARK ,NY,11374,United States,,,,"Lobby : Monday 9:00 AM - 4:00 PM, Tuesday 9:00 AM - 4:00 PM, Wednesday 9:00 AM - 4:00 PM, Thursday 9:00 AM - 4:00 PM, Friday 9:00 AM - 4:00 PM, Saturday -, Sunday -,  Drive_Thru : Monday -, Tuesday -, Wednesday -, Thursday -, Friday -, Saturday -, Sunday -",,,
QUEENS VILLAGE OFFICE,,220-09 HILLSIDE AVENUE ,,QUEENS VLG ,NY,11427,United States,,,,"Lobby : Monday 9:00 AM - 4:00 PM, Tuesday 9:00 AM - 4:00 PM, Wednesday 9:00 AM - 4:00 PM, Thursday 9:00 AM - 4:00 PM, Friday 9:00 AM - 4:00 PM, Saturday -, Sunday -,  Drive_Thru : Monday -, Tuesday -, Wednesday -, Thursday -, Friday -, Saturday -, Sunday -",,,
POMONOK OFFICE,,15602 AGUILAR AVE ,,FLUSHING ,NY,11367,United States,,,,"Lobby : Monday 9:00 AM - 4:00 PM, Tuesday 9:00 AM - 4:00 PM, Wednesday 9:00 AM - 4:00 PM, Thursday 9:00 AM - 4:00 PM, Friday 9:00 AM - 4:00 PM, Saturday -, Sunday -,  Drive_Thru : Monday -, Tuesday -, Wednesday -, Thursday -, Friday -, Saturday -, Sunday -",,,
NORTHERN BLVD OFFICE,,144-61 NORTHERN BLVD ,,FLUSHING ,NY,11354,United States,,,,"Lobby : Monday 9:00 AM - 4:00 PM, Tuesday 9:00 AM - 4:00 PM, Wednesday 9:00 AM - 4:00 PM, Thursday 9:00 AM - 4:00 PM, Friday 9:00 AM - 4:00 PM, Saturday 9:00 AM - 1:00 PM, Sunday -,  Drive_Thru : Monday -, Tuesday -, Wednesday -, Thursday -, Friday -, Saturday -, Sunday -",,,
WELLINGTON OFFICE,,900 S STATE RD 7 ,,WELLINGTON ,FL,33414,United States,,,,"Lobby : Monday 9:00 AM - 4:00 PM, Tuesday 9:00 AM - 4:00 PM, Wednesday 9:00 AM - 4:00 PM, Thursday 9:00 AM - 4:00 PM, Friday 9:00 AM - 4:00 PM, Saturday -, Sunday -,  Drive_Thru : Monday 9:00 AM - 4:00 PM, Tuesday 9:00 AM - 4:00 PM, Wednesday 9:00 AM - 4:00 PM, Thursday 9:00 AM - 4:00 PM, Friday 9:00 AM - 4:00 PM, Saturday -, Sunday -",,,
WARM SPRINGS OFFICE,,46750 MISSION BLVD ,,FREMONT ,CA,94539,United States,,,,"Lobby : Monday 9:00 AM - 4:00 PM, Tuesday 9:00 AM - 4:00 PM, Wednesday 9:00 AM - 4:00 PM, Thursday 9:00 AM - 4:00 PM, Friday 9:00 AM - 4:00 PM, Saturday -, Sunday -,  Drive_Thru : Monday -, Tuesday -, Wednesday -, Thursday -, Friday -, Saturday -, Sunday -",,,
KISSENA BLVD OFFICE,,4177 KISSENA BLVD ,,FLUSHING ,NY,11355,United States,,,,"Lobby : Monday 9:00 AM - 4:00 PM, Tuesday 9:00 AM - 4:00 PM, Wednesday 9:00 AM - 4:00 PM, Thursday 9:00 AM - 4:00 PM, Friday 9:00 AM - 4:00 PM, Saturday 9:00 AM - 1:00 PM, Sunday -,  Drive_Thru : Monday -, Tuesday -, Wednesday -, Thursday -, Friday -, Saturday -, Sunday -",,,
JACKSON HEIGHTS OFFICE,,3548 JUNCTION BLVD ,,JACKSON HTS ,NY,11368,United States,,,,"Lobby : Monday 9:00 AM - 4:00 PM, Tuesday 9:00 AM - 4:00 PM, Wednesday 9:00 AM - 4:00 PM, Thursday 9:00 AM - 4:00 PM, Friday 9:00 AM - 4:00 PM, Saturday -, Sunday -,  Drive_Thru : Monday -, Tuesday -, Wednesday -, Thursday -, Friday -, Saturday -, Sunday -",,,
HILLSIDE OFFICE,,14702 HILLSIDE AVE ,,JAMAICA ,NY,11435,United States,,,,"Lobby : Monday 9:00 AM - 4:00 PM, Tuesday 9:00 AM - 4:00 PM, Wednesday 9:00 AM - 4:00 PM, Thursday 9:00 AM - 4:00 PM, Friday 9:00 AM - 4:00 PM, Saturday -, Sunday -,  Drive_Thru : Monday -, Tuesday -, Wednesday -, Thursday -, Friday -, Saturday -, Sunday -",,,
GLEN OAKS OFFICE,,25715 UNION TPKE ,,GLEN OAKS ,NY,11004,United States,,,,"Lobby : Monday 9:00 AM - 4:00 PM, Tuesday 9:00 AM - 4:00 PM, Wednesday 9:00 AM - 4:00 PM, Thursday 9:00 AM - 4:00 PM, Friday 9:00 AM - 4:00 PM, Saturday -, Sunday -,  Drive_Thru : Monday -, Tuesday -, Wednesday -, Thursday -, Friday -, Saturday -, Sunday -",,,
FOREST HILLS OFFICE,,107-15 CONTINENTAL AVE. ,,FOREST HILLS ,NY,11375,United States,,,,"Lobby : Monday 9:00 AM - 4:00 PM, Tuesday 9:00 AM - 4:00 PM, Wednesday 9:00 AM - 4:00 PM, Thursday 9:00 AM - 4:00 PM, Friday 9:00 AM - 4:00 PM, Saturday 9:00 AM - 1:00 PM, Sunday -,  Drive_Thru : Monday -, Tuesday -, Wednesday -, Thursday -, Friday -, Saturday -, Sunday -",,,
FLUSHING OFFICE,,3910 MAIN ST ,,FLUSHING ,NY,11354,United States,,,,"Lobby : Monday 9:00 AM - 4:00 PM, Tuesday 9:00 AM - 4:00 PM, Wednesday 9:00 AM - 4:00 PM, Thursday 9:00 AM - 4:00 PM, Friday 9:00 AM - 4:00 PM, Saturday 9:00 AM - 1:00 PM, Sunday -,  Drive_Thru : Monday -, Tuesday -, Wednesday -, Thursday -, Friday -, Saturday -, Sunday -",,,
108TH STREET OFFICE,,64-02 108TH STREET ,,FOREST HILLS ,NY,11375,United States,,,,"Lobby : Monday 9:00 AM - 4:00 PM, Tuesday 9:00 AM - 4:00 PM, Wednesday 9:00 AM - 4:00 PM, Thursday 9:00 AM - 4:00 PM, Friday 9:00 AM - 4:00 PM, Saturday -, Sunday -,  Drive_Thru : Monday -, Tuesday -, Wednesday -, Thursday -, Friday -, Saturday -, Sunday -",,,
ROCKAWAY PARKWAY OFFICE,,2001 ROCKAWAY PKWY. ,,BROOKLYN ,NY,11236,United States,,,,"Lobby : Monday 9:00 AM - 4:00 PM, Tuesday 9:00 AM - 4:00 PM, Wednesday 9:00 AM - 4:00 PM, Thursday 9:00 AM - 4:00 PM, Friday 9:00 AM - 4:00 PM, Saturday -, Sunday -,  Drive_Thru : Monday -, Tuesday -, Wednesday -, Thursday -, Friday -, Saturday -, Sunday -",,,
NINTH STREET OFFICE,,325 9TH STREET ,,BROOKLYN ,NY,11215,United States,,,,"Lobby : Monday 9:00 AM - 4:00 PM, Tuesday 9:00 AM - 4:00 PM, Wednesday 9:00 AM - 4:00 PM, Thursday 9:00 AM - 4:00 PM, Friday 9:00 AM - 4:00 PM, Saturday -, Sunday -,  Drive_Thru : Monday -, Tuesday -, Wednesday -, Thursday -, Friday -, Saturday -, Sunday -",,,
MONTAGUE STREET OFFICE,,200 MONTAGUE ST ,,BROOKLYN ,NY,11201,United States,,,,"Lobby : Monday 9:00 AM - 4:00 PM, Tuesday 9:00 AM - 4:00 PM, Wednesday 9:00 AM - 4:00 PM, Thursday 9:00 AM - 4:00 PM, Friday 9:00 AM - 4:00 PM, Saturday 9:00 AM - 1:00 PM, Sunday -,  Drive_Thru : Monday -, Tuesday -, Wednesday -, Thursday -, Friday -, Saturday -, Sunday -",,,
KINGS HWY & MCDONALD OFC,,481 KINGS HWY. ,,BROOKLYN ,NY,11223,United States,,,,"Lobby : Monday 9:00 AM - 4:00 PM, Tuesday 9:00 AM - 4:00 PM, Wednesday 9:00 AM - 4:00 PM, Thursday 9:00 AM - 4:00 PM, Friday 9:00 AM - 4:00 PM, Saturday -, Sunday -,  Drive_Thru : Monday -, Tuesday -, Wednesday -, Thursday -, Friday -, Saturday -, Sunday -",,,
ELMHURST EAST OFFICE,,8703 QUEENS BLVD ,,ELMHURST ,NY,11373,United States,,,,"Lobby : Monday 9:00 AM - 4:00 PM, Tuesday 9:00 AM - 4:00 PM, Wednesday 9:00 AM - 4:00 PM, Thursday 9:00 AM - 4:00 PM, Friday 9:00 AM - 4:00 PM, Saturday -, Sunday -,  Drive_Thru : Monday -, Tuesday -, Wednesday -, Thursday -, Friday -, Saturday -, Sunday -",,,
KINGS HWY & E 16TH ST OFC,,1602 KINGS HWY. ,,BROOKLYN ,NY,11229,United States,,,,"Lobby : Monday 9:00 AM - 4:00 PM, Tuesday 9:00 AM - 4:00 PM, Wednesday 9:00 AM - 4:00 PM, Thursday 9:00 AM - 4:00 PM, Friday 9:00 AM - 4:00 PM, Saturday -, Sunday -,  Drive_Thru : Monday -, Tuesday -, Wednesday -, Thursday -, Friday -, Saturday -, Sunday -",,,
HANSON PLACE OFFICE,,122 FLATBUSH AVENUE ,,BROOKLYN ,NY,11217,United States,,,,"Lobby : Monday 9:00 AM - 4:00 PM, Tuesday 9:00 AM - 4:00 PM, Wednesday 9:00 AM - 4:00 PM, Thursday 9:00 AM - 4:00 PM, Friday 9:00 AM - 4:00 PM, Saturday -, Sunday -,  Drive_Thru : Monday -, Tuesday -, Wednesday -, Thursday -, Friday -, Saturday -, Sunday -",,,
GEORGETOWNE OFFICE,,2145 RALPH AVE. ,,BROOKLYN ,NY,11234,United States,,,,"Lobby : Monday 9:00 AM - 4:00 PM, Tuesday 9:00 AM - 4:00 PM, Wednesday 9:00 AM - 4:00 PM, Thursday 9:00 AM - 4:00 PM, Friday 9:00 AM - 4:00 PM, Saturday -, Sunday -,  Drive_Thru : Monday -, Tuesday -, Wednesday -, Thursday -, Friday -, Saturday -, Sunday -",,,
FLATBUSH OFFICE,,2030 FLATBUSH AVENUE ,,BROOKLYN ,NY,11234,United States,,,,"Lobby : Monday 9:00 AM - 4:00 PM, Tuesday 9:00 AM - 4:00 PM, Wednesday 9:00 AM - 4:00 PM, Thursday 9:00 AM - 4:00 PM, Friday 9:00 AM - 4:00 PM, Saturday -, Sunday -,  Drive_Thru : Monday -, Tuesday -, Wednesday -, Thursday -, Friday -, Saturday -, Sunday -",,,
FLATBUSH & NOSTRAND OFC,,1545 FLATBUSH AVE. ,,BROOKLYN ,NY,11210,United States,,,,"Lobby : Monday 9:00 AM - 4:00 PM, Tuesday 9:00 AM - 4:00 PM, Wednesday 9:00 AM - 4:00 PM, Thursday 9:00 AM - 4:00 PM, Friday 9:00 AM - 4:00 PM, Saturday -, Sunday -,  Drive_Thru : Monday -, Tuesday -, Wednesday -, Thursday -, Friday -, Saturday -, Sunday -",,,
BAYSIDE OFFICE,,34-15 FRANCIS LEWIS BLVD ,,FLUSHING ,NY,11358,United States,,,,"Lobby : Monday 9:00 AM - 4:00 PM, Tuesday 9:00 AM - 4:00 PM, Wednesday 9:00 AM - 4:00 PM, Thursday 9:00 AM - 4:00 PM, Friday 9:00 AM - 4:00 PM, Saturday 9:00 AM - 1:00 PM, Sunday -,  Drive_Thru : Monday -, Tuesday -, Wednesday -, Thursday -, Friday -, Saturday -, Sunday -",,,
BROADWAY & ELMHURST OFC,,82-57 BROADWAY ,,ELMHURST ,NY,11373,United States,,,,"Lobby : Monday 9:00 AM - 4:00 PM, Tuesday 9:00 AM - 4:00 PM, Wednesday 9:00 AM - 4:00 PM, Thursday 9:00 AM - 4:00 PM, Friday 9:00 AM - 4:00 PM, Saturday 9:00 AM - 1:00 PM, Sunday -,  Drive_Thru : Monday -, Tuesday -, Wednesday -, Thursday -, Friday -, Saturday -, Sunday -",,,
BORO PARK OFFICE,,4410 13TH AVE. ,,BROOKLYN ,NY,11219,United States,,,,"Lobby : Monday 9:00 AM - 4:00 PM, Tuesday 9:00 AM - 4:00 PM, Wednesday 9:00 AM - 4:00 PM, Thursday 9:00 AM - 4:00 PM, Friday 9:00 AM - 4:00 PM, Saturday -, Sunday -,  Drive_Thru : Monday -, Tuesday -, Wednesday -, Thursday -, Friday -, Saturday -, Sunday -",,,
BAY RIDGE PKWY OFFICE,,7424 13TH AVE. ,,BROOKLYN ,NY,11228,United States,,,,"Lobby : Monday 9:00 AM - 4:00 PM, Tuesday 9:00 AM - 4:00 PM, Wednesday 9:00 AM - 4:00 PM, Thursday 9:00 AM - 4:00 PM, Friday 9:00 AM - 4:00 PM, Saturday 9:00 AM - 1:00 PM, Sunday -,  Drive_Thru : Monday -, Tuesday -, Wednesday -, Thursday -, Friday -, Saturday -, Sunday -",,,
BAY PARKWAY OFFICE,,6702 BAY PKWY ,,BROOKLYN ,NY,11204,United States,,,,"Lobby : Monday 9:00 AM - 4:00 PM, Tuesday 9:00 AM - 4:00 PM, Wednesday 9:00 AM - 4:00 PM, Thursday 9:00 AM - 4:00 PM, Friday 9:00 AM - 4:00 PM, Saturday 9:00 AM - 1:00 PM, Sunday -,  Drive_Thru : Monday -, Tuesday -, Wednesday -, Thursday -, Friday -, Saturday -, Sunday -",,,
AVENUE U OFFICE,,1702 AVE U ,,BROOKLYN ,NY,11229,United States,,,,"Lobby : Monday 9:00 AM - 4:00 PM, Tuesday 9:00 AM - 4:00 PM, Wednesday 9:00 AM - 4:00 PM, Thursday 9:00 AM - 4:00 PM, Friday 9:00 AM - 4:00 PM, Saturday -, Sunday -,  Drive_Thru : Monday -, Tuesday -, Wednesday -, Thursday -, Friday -, Saturday -, Sunday -",,,
AVENUE D OFFICE,,4201 AVENUE D ,,BROOKLYN ,NY,11203,United States,,,,"Lobby : Monday 9:00 AM - 4:00 PM, Tuesday 9:00 AM - 4:00 PM, Wednesday 9:00 AM - 4:00 PM, Thursday 9:00 AM - 4:00 PM, Friday 9:00 AM - 4:00 PM, Saturday -, Sunday -,  Drive_Thru : Monday -, Tuesday -, Wednesday -, Thursday -, Friday -, Saturday -, Sunday -",,,
86TH & 23RD AVE OFFICE,,2301 86TH ST ,,BROOKLYN ,NY,11214,United States,,,,"Lobby : Monday 9:00 AM - 4:00 PM, Tuesday 9:00 AM - 4:00 PM, Wednesday 9:00 AM - 4:00 PM, Thursday 9:00 AM - 4:00 PM, Friday 9:00 AM - 4:00 PM, Saturday 9:00 AM - 1:00 PM, Sunday -,  Drive_Thru : Monday -, Tuesday -, Wednesday -, Thursday -, Friday -, Saturday -, Sunday -",,,
CENTRAL PARK AVE OFFICE,,(NATHAN'S) 2205 CENTRAL PARK AVE. ,,YONKERS ,NY,10710,United States,,,,"Lobby : Monday 9:00 AM - 4:00 PM, Tuesday 9:00 AM - 4:00 PM, Wednesday 9:00 AM - 4:00 PM, Thursday 9:00 AM - 4:00 PM, Friday 9:00 AM - 4:00 PM, Saturday 9:00 AM - 1:00 PM, Sunday -,  Drive_Thru : Monday 9:00 AM - 4:00 PM, Tuesday 9:00 AM - 4:00 PM, Wednesday 9:00 AM - 4:00 PM, Thursday 9:00 AM - 4:00 PM, Friday 9:00 AM - 4:00 PM, Saturday 9:00 AM - 1:00 PM, Sunday -",,,
EAST YONKERS OFFICE,,778 YONKERS AVE. ,,YONKERS ,NY,10704,United States,,,,"Lobby : Monday 9:00 AM - 4:00 PM, Tuesday 9:00 AM - 4:00 PM, Wednesday 9:00 AM - 4:00 PM, Thursday 9:00 AM - 4:00 PM, Friday 9:00 AM - 4:00 PM, Saturday 9:00 AM - 1:00 PM, Sunday -,  Drive_Thru : Monday -, Tuesday -, Wednesday -, Thursday -, Friday -, Saturday -, Sunday -",,,
GETTY SQUARE OFFICE,,(Near US Postal office) 66 MAIN ST ,,YONKERS ,NY,10701,United States,,,,"Lobby : Monday 9:00 AM - 4:00 PM, Tuesday 9:00 AM - 4:00 PM, Wednesday 9:00 AM - 4:00 PM, Thursday 9:00 AM - 4:00 PM, Friday 9:00 AM - 4:00 PM, Saturday -, Sunday -,  Drive_Thru : Monday -, Tuesday -, Wednesday -, Thursday -, Friday -, Saturday -, Sunday -",,,
NORTH YONKERS OFFICE,,(ACROSS ST FROM MCDONALDS) 1201 NEPPERHAN AVE ,,YONKERS ,NY,10703,United States,,,,"Lobby : Monday 9:00 AM - 4:00 PM, Tuesday 9:00 AM - 4:00 PM, Wednesday 9:00 AM - 4:00 PM, Thursday 9:00 AM - 4:00 PM, Friday 9:00 AM - 4:00 PM, Saturday -, Sunday -,  Drive_Thru : Monday 9:00 AM - 4:00 PM, Tuesday 9:00 AM - 4:00 PM, Wednesday 9:00 AM - 4:00 PM, Thursday 9:00 AM - 4:00 PM, Friday 9:00 AM - 4:00 PM, Saturday -, Sunday -",,,
SOUTH YONKERS OFFICE,,(NEAR RITE AID) 449 S BROADWAY ,,YONKERS ,NY,10705,United States,,,,"Lobby : Monday 9:00 AM - 4:00 PM, Tuesday 9:00 AM - 4:00 PM, Wednesday 9:00 AM - 4:00 PM, Thursday 9:00 AM - 4:00 PM, Friday 9:00 AM - 4:00 PM, Saturday 9:00 AM - 1:00 PM, Sunday -,  Drive_Thru : Monday -, Tuesday -, Wednesday -, Thursday -, Friday -, Saturday -, Sunday -",,,
CITY CENTER OFFICE,,(PREMIER CTR) 1 CITY PLACE ,,WHITE PLAINS ,NY,10601,United States,,,,"Lobby : Monday 9:00 AM - 4:00 PM, Tuesday 9:00 AM - 4:00 PM, Wednesday 9:00 AM - 4:00 PM, Thursday 9:00 AM - 4:00 PM, Friday 9:00 AM - 4:00 PM, Saturday -, Sunday -,  Drive_Thru : Monday -, Tuesday -, Wednesday -, Thursday -, Friday -, Saturday -, Sunday -",,,
GREENBURGH OFFICE,,(IN CROSSROADS SHOPPING CT) 371 TARRYTOWN RD ,,WHITE PLAINS ,NY,10607,United States,,,,"Lobby : Monday 9:00 AM - 4:00 PM, Tuesday 9:00 AM - 4:00 PM, Wednesday 9:00 AM - 4:00 PM, Thursday 9:00 AM - 4:00 PM, Friday 9:00 AM - 4:00 PM, Saturday 9:00 AM - 1:00 PM, Sunday -,  Drive_Thru : Monday -, Tuesday -, Wednesday -, Thursday -, Friday -, Saturday -, Sunday -",,,
WHITE PLAINS OFFICE,,(At corner of E Post Rd.) 148 MAMARONECK AVE ,,WHITE PLAINS ,NY,10601,United States,,,,"Lobby : Monday 9:00 AM - 4:00 PM, Tuesday 9:00 AM - 4:00 PM, Wednesday 9:00 AM - 4:00 PM, Thursday 9:00 AM - 4:00 PM, Friday 9:00 AM - 4:00 PM, Saturday -, Sunday -,  Drive_Thru : Monday -, Tuesday -, Wednesday -, Thursday -, Friday -, Saturday -, Sunday -",,,
RYE OFFICE,,67 PURCHASE ST ,,RYE ,NY,10580,United States,,,,"Lobby : Monday 9:00 AM - 4:00 PM, Tuesday 9:00 AM - 4:00 PM, Wednesday 9:00 AM - 4:00 PM, Thursday 9:00 AM - 4:00 PM, Friday 9:00 AM - 4:00 PM, Saturday -, Sunday -,  Drive_Thru : Monday -, Tuesday -, Wednesday -, Thursday -, Friday -, Saturday -, Sunday -",,,
SCARSDALE OFFICE,,34 POPHAM RD ,,SCARSDALE ,NY,10583,United States,,,,"Lobby : Monday 9:00 AM - 4:00 PM, Tuesday 9:00 AM - 4:00 PM, Wednesday 9:00 AM - 4:00 PM, Thursday 9:00 AM - 4:00 PM, Friday 9:00 AM - 4:00 PM, Saturday 9:00 AM - 1:00 PM, Sunday -,  Drive_Thru : Monday -, Tuesday -, Wednesday -, Thursday -, Friday -, Saturday -, Sunday -",,,
PELHAM OFFICE,,50 FIFTH AVE ,,PELHAM ,NY,10803,United States,,,,"Lobby : Monday 9:00 AM - 4:00 PM, Tuesday 9:00 AM - 4:00 PM, Wednesday 9:00 AM - 4:00 PM, Thursday 9:00 AM - 4:00 PM, Friday 9:00 AM - 4:00 PM, Saturday 9:00 AM - 1:00 PM, Sunday -,  Drive_Thru : Monday -, Tuesday -, Wednesday -, Thursday -, Friday -, Saturday -, Sunday -",,,
6102 8TH AVENUE OFFICE,,6102-6106 8TH AVE ,,BROOKLYN ,NY,11220,United States,,,,"Lobby : Monday 9:00 AM - 4:00 PM, Tuesday 9:00 AM - 4:00 PM, Wednesday 9:00 AM - 4:00 PM, Thursday 9:00 AM - 4:00 PM, Friday 9:00 AM - 4:00 PM, Saturday 9:00 AM - 1:00 PM, Sunday -,  Drive_Thru : Monday -, Tuesday -, Wednesday -, Thursday -, Friday -, Saturday -, Sunday -",,,
BRIGHTON BEACH OFFICE,,320 BRIGHTON BEACH AVE ,,BROOKLYN ,NY,11235,United States,,,,"Lobby : Monday 9:00 AM - 4:00 PM, Tuesday 9:00 AM - 4:00 PM, Wednesday 9:00 AM - 4:00 PM, Thursday 9:00 AM - 4:00 PM, Friday 9:00 AM - 4:00 PM, Saturday -, Sunday -,  Drive_Thru : Monday -, Tuesday -, Wednesday -, Thursday -, Friday -, Saturday -, Sunday -",,,
MOUNT VERNON OFFICE,,123 GRAMATAN AVE ,,MOUNT VERNON ,NY,10550,United States,,,,"Lobby : Monday 9:00 AM - 4:00 PM, Tuesday 9:00 AM - 4:00 PM, Wednesday 9:00 AM - 4:00 PM, Thursday 9:00 AM - 4:00 PM, Friday 9:00 AM - 4:00 PM, Saturday -, Sunday -,  Drive_Thru : Monday 9:00 AM - 4:00 PM, Tuesday 9:00 AM - 4:00 PM, Wednesday 9:00 AM - 4:00 PM, Thursday 9:00 AM - 4:00 PM, Friday 9:00 AM - 4:00 PM, Saturday -, Sunday -",,,
MAMARONECK OFFICE,,1043 WEST BOSTON POST RD ,,MAMARONECK ,NY,10543,United States,,,,"Lobby : Monday 9:00 AM - 4:00 PM, Tuesday 9:00 AM - 4:00 PM, Wednesday 9:00 AM - 4:00 PM, Thursday 9:00 AM - 4:00 PM, Friday 9:00 AM - 4:00 PM, Saturday -, Sunday -,  Drive_Thru : Monday 9:00 AM - 4:00 PM, Tuesday 9:00 AM - 4:00 PM, Wednesday 9:00 AM - 4:00 PM, Thursday 9:00 AM - 4:00 PM, Friday 9:00 AM - 4:00 PM, Saturday -, Sunday -",,,
EASTCHESTER OFFICE,,356 WHITEPLAINS RD ,,EASTCHESTER ,NY,10709,United States,,,,"Lobby : Monday 9:00 AM - 4:00 PM, Tuesday 9:00 AM - 4:00 PM, Wednesday 9:00 AM - 4:00 PM, Thursday 9:00 AM - 4:00 PM, Friday 9:00 AM - 4:00 PM, Saturday -, Sunday -,  Drive_Thru : Monday 9:00 AM - 4:00 PM, Tuesday 9:00 AM - 4:00 PM, Wednesday 9:00 AM - 4:00 PM, Thursday 9:00 AM - 4:00 PM, Friday 9:00 AM - 4:00 PM, Saturday -, Sunday -",,,
BRONXVILLE OFFICE,,74 PONDFIELD RD ,,BRONXVILLE ,NY,10708,United States,,,,"Lobby : Monday 9:00 AM - 4:00 PM, Tuesday 9:00 AM - 4:00 PM, Wednesday 9:00 AM - 4:00 PM, Thursday 9:00 AM - 4:00 PM, Friday 9:00 AM - 4:00 PM, Saturday 9:00 AM - 1:00 PM, Sunday -,  Drive_Thru : Monday -, Tuesday -, Wednesday -, Thursday -, Friday -, Saturday -, Sunday -",,,
STAMFORD OFFICE,,101 BROAD ST ,,STAMFORD ,CT,06901,United States,,,,"Lobby : Monday 9:00 AM - 4:00 PM, Tuesday 9:00 AM - 4:00 PM, Wednesday 9:00 AM - 4:00 PM, Thursday 9:00 AM - 4:00 PM, Friday 9:00 AM - 4:00 PM, Saturday -, Sunday -,  Drive_Thru : Monday -, Tuesday -, Wednesday -, Thursday -, Friday -, Saturday -, Sunday -",,,
LEGACY PLACE OFFICE,,11280 LEGACY AVE SUITE100 ,,PALM BCH GDNS ,FL,33410,United States,,,,"Lobby : Monday 9:00 AM - 4:00 PM, Tuesday 9:00 AM - 4:00 PM, Wednesday 9:00 AM - 4:00 PM, Thursday 9:00 AM - 4:00 PM, Friday 9:00 AM - 4:00 PM, Saturday -, Sunday -,  Drive_Thru : Monday 9:00 AM - 4:00 PM, Tuesday 9:00 AM - 4:00 PM, Wednesday 9:00 AM - 4:00 PM, Thursday 9:00 AM - 4:00 PM, Friday 9:00 AM - 4:00 PM, Saturday -, Sunday -",,,
PALM AIRE OFFICE,,1291 S. POMPANO PKWY ,,POMPANO BEACH ,FL,33069,United States,,,,"Lobby : Monday 9:00 AM - 4:00 PM, Tuesday 9:00 AM - 4:00 PM, Wednesday 9:00 AM - 4:00 PM, Thursday 9:00 AM - 4:00 PM, Friday 9:00 AM - 4:00 PM, Saturday -, Sunday -,  Drive_Thru : Monday 9:00 AM - 4:00 PM, Tuesday 9:00 AM - 4:00 PM, Wednesday 9:00 AM - 4:00 PM, Thursday 9:00 AM - 4:00 PM, Friday 9:00 AM - 4:00 PM, Saturday -, Sunday -",,,
MIAMI BEACH OFFICE,,301 ARTHUR GODFREY RD. ,,MIAMI BEACH ,FL,33140,United States,,,,"Lobby : Monday 9:00 AM - 4:00 PM, Tuesday 9:00 AM - 4:00 PM, Wednesday 9:00 AM - 4:00 PM, Thursday 9:00 AM - 4:00 PM, Friday 9:00 AM - 4:00 PM, Saturday -, Sunday -,  Drive_Thru : Monday -, Tuesday -, Wednesday -, Thursday -, Friday -, Saturday -, Sunday -",,,
DARIEN OFFICE,,151 POST RD ,,DARIEN ,CT,06820,United States,,,,"Lobby : Monday 9:00 AM - 4:00 PM, Tuesday 9:00 AM - 4:00 PM, Wednesday 9:00 AM - 4:00 PM, Thursday 9:00 AM - 4:00 PM, Friday 9:00 AM - 4:00 PM, Saturday -, Sunday -,  Drive_Thru : Monday 9:00 AM - 4:00 PM, Tuesday 9:00 AM - 4:00 PM, Wednesday 9:00 AM - 4:00 PM, Thursday 9:00 AM - 4:00 PM, Friday 9:00 AM - 4:00 PM, Saturday -, Sunday -",,,
LATAM INTL CENTER,,1441 BRICKELL AVE STE1110 ,,MIAMI ,FL,33131,United States,,,,"Lobby : Monday 9:00 AM - 4:00 PM, Tuesday 9:00 AM - 4:00 PM, Wednesday 9:00 AM - 4:00 PM, Thursday 9:00 AM - 4:00 PM, Friday 9:00 AM - 4:00 PM, Saturday -, Sunday -,  Drive_Thru : Monday -, Tuesday -, Wednesday -, Thursday -, Friday -, Saturday -, Sunday -",,,
PINECREST OFFICE,,9469 SOUTH DIXIE HIGHWAY ,,MIAMI ,FL,33156,United States,,,,"Lobby : Monday 9:00 AM - 4:00 PM, Tuesday 9:00 AM - 4:00 PM, Wednesday 9:00 AM - 4:00 PM, Thursday 9:00 AM - 4:00 PM, Friday 9:00 AM - 4:00 PM, Saturday -, Sunday -,  Drive_Thru : Monday -, Tuesday -, Wednesday -, Thursday -, Friday -, Saturday -, Sunday -",,,
LAS OLAS,,350 EAST LAS OLAS BLVD ,,FT LAUDERDALE ,FL,33301,United States,,,,"Lobby : Monday 9:00 AM - 4:00 PM, Tuesday 9:00 AM - 4:00 PM, Wednesday 9:00 AM - 4:00 PM, Thursday 9:00 AM - 4:00 PM, Friday 9:00 AM - 4:00 PM, Saturday -, Sunday -,  Drive_Thru : Monday -, Tuesday -, Wednesday -, Thursday -, Friday -, Saturday -, Sunday -",,,
FT. LAUDERDALE OFFICE,,1600 SE 17TH ST. CSWY ,,FT.LAUDERDALE ,FL,33316,United States,,,,"Lobby : Monday 9:00 AM - 4:00 PM, Tuesday 9:00 AM - 4:00 PM, Wednesday 9:00 AM - 4:00 PM, Thursday 9:00 AM - 4:00 PM, Friday 9:00 AM - 4:00 PM, Saturday -, Sunday -,  Drive_Thru : Monday -, Tuesday -, Wednesday -, Thursday -, Friday -, Saturday -, Sunday -",,,
DORAL OFFICE,,4090 NW. 97TH AVENUE ,,MIAMI ,FL,33178,United States,,,,"Lobby : Monday 9:00 AM - 4:00 PM, Tuesday 9:00 AM - 4:00 PM, Wednesday 9:00 AM - 4:00 PM, Thursday 9:00 AM - 4:00 PM, Friday 9:00 AM - 4:00 PM, Saturday -, Sunday -,  Drive_Thru : Monday 9:00 AM - 4:00 PM, Tuesday 9:00 AM - 4:00 PM, Wednesday 9:00 AM - 4:00 PM, Thursday 9:00 AM - 4:00 PM, Friday 9:00 AM - 4:00 PM, Saturday -, Sunday -",,,
BRICKELL OFFICE,,1441 BRICKELL AVE STE 100 ,,MIAMI ,FL,33131,United States,,,,"Lobby : Monday 9:00 AM - 4:00 PM, Tuesday 9:00 AM - 4:00 PM, Wednesday 9:00 AM - 4:00 PM, Thursday 9:00 AM - 4:00 PM, Friday 9:00 AM - 4:00 PM, Saturday -, Sunday -,  Drive_Thru : Monday -, Tuesday -, Wednesday -, Thursday -, Friday -, Saturday -, Sunday -",,,
CORAL GABLES OFFICE,,2199 PONCE DE LEON BL 100 ,,CORAL GABLES ,FL,33134,United States,,,,"Lobby : Monday 9:00 AM - 4:00 PM, Tuesday 9:00 AM - 4:00 PM, Wednesday 9:00 AM - 4:00 PM, Thursday 9:00 AM - 4:00 PM, Friday 9:00 AM - 4:00 PM, Saturday -, Sunday -,  Drive_Thru : Monday -, Tuesday -, Wednesday -, Thursday -, Friday -, Saturday -, Sunday -",,,
BOCA MIZNER OFFICE,,101 N. FEDERAL HIGHWAY ,,BOCA RATON ,FL,33432,United States,,,,"Lobby : Monday 9:00 AM - 4:00 PM, Tuesday 9:00 AM - 4:00 PM, Wednesday 9:00 AM - 4:00 PM, Thursday 9:00 AM - 4:00 PM, Friday 9:00 AM - 4:00 PM, Saturday -, Sunday -,  Drive_Thru : Monday 9:00 AM - 4:00 PM, Tuesday 9:00 AM - 4:00 PM, Wednesday 9:00 AM - 4:00 PM, Thursday 9:00 AM - 4:00 PM, Friday 9:00 AM - 4:00 PM, Saturday -, Sunday -",,,
BAL HARBOUR-SURFSIDE OFC,,9501 HARDING AVENUE ,,SURFSIDE ,FL,33154,United States,,,,"Lobby : Monday 9:00 AM - 4:00 PM, Tuesday 9:00 AM - 4:00 PM, Wednesday 9:00 AM - 4:00 PM, Thursday 9:00 AM - 4:00 PM, Friday 9:00 AM - 4:00 PM, Saturday -, Sunday -,  Drive_Thru : Monday -, Tuesday -, Wednesday -, Thursday -, Friday -, Saturday -, Sunday -",,,
BISCAYNE OFFICE,,2 S BISCAYNE BLVD. ,,MIAMI ,FL,33131,United States,,,,"Lobby : Monday 9:00 AM - 4:00 PM, Tuesday 9:00 AM - 4:00 PM, Wednesday 9:00 AM - 4:00 PM, Thursday 9:00 AM - 4:00 PM, Friday 9:00 AM - 4:00 PM, Saturday -, Sunday -,  Drive_Thru : Monday -, Tuesday -, Wednesday -, Thursday -, Friday -, Saturday -, Sunday -",,,
AVENTURA BLVD OFFICE,,2950 AVENTURA BLVD ,,AVENTURA ,FL,33180,United States,,,,"Lobby : Monday 9:00 AM - 4:00 PM, Tuesday 9:00 AM - 4:00 PM, Wednesday 9:00 AM - 4:00 PM, Thursday 9:00 AM - 4:00 PM, Friday 9:00 AM - 4:00 PM, Saturday -, Sunday -,  Drive_Thru : Monday -, Tuesday -, Wednesday -, Thursday -, Friday -, Saturday -, Sunday -",,,
NEW ROCHELLE -HOME OFFICE,,(ACROSS FROM POST OFFICE) 260 NORTH AVE ,,NEW ROCHELLE ,NY,10801,United States,,,,"Lobby : Monday 9:00 AM - 4:00 PM, Tuesday 9:00 AM - 4:00 PM, Wednesday 9:00 AM - 4:00 PM, Thursday 9:00 AM - 4:00 PM, Friday 9:00 AM - 4:00 PM, Saturday 9:00 AM - 1:00 PM, Sunday -,  Drive_Thru : Monday 9:00 AM - 4:00 PM, Tuesday 9:00 AM - 4:00 PM, Wednesday 9:00 AM - 4:00 PM, Thursday 9:00 AM - 4:00 PM, Friday 9:00 AM - 4:00 PM, Saturday 9:00 AM - 1:00 PM, Sunday -",,,
NORTH AVENUE OFFICE,,(NEAR QUAKER RIDGE RD) 1300 NORTH AVE. ,,NEW ROCHELLE ,NY,10804,United States,,,,"Lobby : Monday 9:00 AM - 4:00 PM, Tuesday 9:00 AM - 4:00 PM, Wednesday 9:00 AM - 4:00 PM, Thursday 9:00 AM - 4:00 PM, Friday 9:00 AM - 4:00 PM, Saturday -, Sunday -,  Drive_Thru : Monday 9:00 AM - 4:00 PM, Tuesday 9:00 AM - 4:00 PM, Wednesday 9:00 AM - 4:00 PM, Thursday 9:00 AM - 4:00 PM, Friday 9:00 AM - 4:00 PM, Saturday -, Sunday -",,,
WESTPORT OFFICE,,19 POST ROAD EAST ,,WESTPORT ,CT,06880,United States,,,,"Lobby : Monday 9:00 AM - 4:00 PM, Tuesday 9:00 AM - 4:00 PM, Wednesday 9:00 AM - 4:00 PM, Thursday 9:00 AM - 4:00 PM, Friday 9:00 AM - 4:00 PM, Saturday -, Sunday -,  Drive_Thru : Monday -, Tuesday -, Wednesday -, Thursday -, Friday -, Saturday -, Sunday -",,,
ROLLING HILLS ESTATES OFC,,449 SILVER SPUR RD ,,RLLNG HLS EST ,CA,90274,United States,,,,"Lobby : Monday 9:00 AM - 4:00 PM, Tuesday 9:00 AM - 4:00 PM, Wednesday 9:00 AM - 4:00 PM, Thursday 9:00 AM - 4:00 PM, Friday 9:00 AM - 4:00 PM, Saturday -, Sunday -,  Drive_Thru : Monday -, Tuesday -, Wednesday -, Thursday -, Friday -, Saturday -, Sunday -",,,
PASADENA OFFICE,,1055 E. COLORADO BLVD. ,,PASADENA ,CA,91106,United States,,,,"Lobby : Monday 9:00 AM - 4:00 PM, Tuesday 9:00 AM - 4:00 PM, Wednesday 9:00 AM - 4:00 PM, Thursday 9:00 AM - 4:00 PM, Friday 9:00 AM - 4:00 PM, Saturday -, Sunday -,  Drive_Thru : Monday -, Tuesday -, Wednesday -, Thursday -, Friday -, Saturday -, Sunday -",,,
PALO ALTO OFFICE,,567 UNIVERSITY AVENUE ,,PALO ALTO ,CA,94301,United States,,,,"Lobby : Monday 9:00 AM - 4:00 PM, Tuesday 9:00 AM - 4:00 PM, Wednesday 9:00 AM - 4:00 PM, Thursday 9:00 AM - 4:00 PM, Friday 9:00 AM - 4:00 PM, Saturday -, Sunday -,  Drive_Thru : Monday -, Tuesday -, Wednesday -, Thursday -, Friday -, Saturday -, Sunday -",,,
OAKLAND OFFICE,,388 9TH STREET SUITE 121 ,,OAKLAND ,CA,94607,United States,,,,"Lobby : Monday 9:00 AM - 4:00 PM, Tuesday 9:00 AM - 4:00 PM, Wednesday 9:00 AM - 4:00 PM, Thursday 9:00 AM - 4:00 PM, Friday 9:00 AM - 4:00 PM, Saturday -, Sunday -,  Drive_Thru : Monday -, Tuesday -, Wednesday -, Thursday -, Friday -, Saturday -, Sunday -",,,
MOUNTAIN VIEW OFFICE,,1350 GRANT RD # 3 ,,MOUNTAIN VIEW ,CA,94040,United States,,,,"Lobby : Monday 9:00 AM - 4:00 PM, Tuesday 9:00 AM - 4:00 PM, Wednesday 9:00 AM - 4:00 PM, Thursday 9:00 AM - 4:00 PM, Friday 9:00 AM - 4:00 PM, Saturday -, Sunday -,  Drive_Thru : Monday -, Tuesday -, Wednesday -, Thursday -, Friday -, Saturday -, Sunday -",,,
BOCA WEST OFFICE,,19102 S STATE RD 7 ,,BOCA RATON ,FL,33498,United States,,,,"Lobby : Monday 9:00 AM - 4:00 PM, Tuesday 9:00 AM - 4:00 PM, Wednesday 9:00 AM - 4:00 PM, Thursday 9:00 AM - 4:00 PM, Friday 9:00 AM - 4:00 PM, Saturday -, Sunday -,  Drive_Thru : Monday 9:00 AM - 4:00 PM, Tuesday 9:00 AM - 4:00 PM, Wednesday 9:00 AM - 4:00 PM, Thursday 9:00 AM - 4:00 PM, Friday 9:00 AM - 4:00 PM, Saturday -, Sunday -",,,
MILLBRAE OFFICE,,39 SOUTH EL CAMINO REAL ,,MILLBRAE ,CA,94030,United States,,,,"Lobby : Monday 9:00 AM - 4:00 PM, Tuesday 9:00 AM - 4:00 PM, Wednesday 9:00 AM - 4:00 PM, Thursday 9:00 AM - 4:00 PM, Friday 9:00 AM - 4:00 PM, Saturday -, Sunday -,  Drive_Thru : Monday -, Tuesday -, Wednesday -, Thursday -, Friday -, Saturday -, Sunday -",,,
LOS ANGELES OFFICE,,725 SOUTH FIGUEROA STREET ,,LOS ANGELES ,CA,90017,United States,,,,"Lobby : Monday 9:00 AM - 4:00 PM, Tuesday 9:00 AM - 4:00 PM, Wednesday 9:00 AM - 4:00 PM, Thursday 9:00 AM - 4:00 PM, Friday 9:00 AM - 4:00 PM, Saturday -, Sunday -,  Drive_Thru : Monday -, Tuesday -, Wednesday -, Thursday -, Friday -, Saturday -, Sunday -",,,
LA CHINATOWN OFFICE,,637 NORTH BROADWAY ,,LOS ANGELES ,CA,90012,United States,,,,"Lobby : Monday 9:00 AM - 4:00 PM, Tuesday 9:00 AM - 4:00 PM, Wednesday 9:00 AM - 4:00 PM, Thursday 9:00 AM - 4:00 PM, Friday 9:00 AM - 4:00 PM, Saturday -, Sunday -,  Drive_Thru : Monday -, Tuesday -, Wednesday -, Thursday -, Friday -, Saturday -, Sunday -",,,
LA KOREATOWN OFFICE,,3785 WILSHIRE BLVD ST 8 ,,LOS ANGELES ,CA,90010,United States,,,,"Lobby : Monday 9:00 AM - 4:00 PM, Tuesday 9:00 AM - 4:00 PM, Wednesday 9:00 AM - 4:00 PM, Thursday 9:00 AM - 4:00 PM, Friday 9:00 AM - 4:00 PM, Saturday -, Sunday -,  Drive_Thru : Monday -, Tuesday -, Wednesday -, Thursday -, Friday -, Saturday -, Sunday -",,,
IRVING STREET OFFICE,,2257 IRVING STREET ,,SAN FRANCISCO ,CA,94122,United States,,,,"Lobby : Monday 9:00 AM - 4:00 PM, Tuesday 9:00 AM - 4:00 PM, Wednesday 9:00 AM - 4:00 PM, Thursday 9:00 AM - 4:00 PM, Friday 9:00 AM - 4:00 PM, Saturday -, Sunday -,  Drive_Thru : Monday -, Tuesday -, Wednesday -, Thursday -, Friday -, Saturday -, Sunday -",,,
IRVINE CENTER DRIVE OFC,,15315 CULVER DR STE 187 ,,IRVINE ,CA,92604,United States,,,,"Lobby : Monday 9:00 AM - 4:00 PM, Tuesday 9:00 AM - 4:00 PM, Wednesday 9:00 AM - 4:00 PM, Thursday 9:00 AM - 4:00 PM, Friday 9:00 AM - 4:00 PM, Saturday -, Sunday -,  Drive_Thru : Monday -, Tuesday -, Wednesday -, Thursday -, Friday -, Saturday -, Sunday -",,,
GLENDALE OFFICE,,505 N BRAND BLVD STE 100 ,,GLENDALE ,CA,91203,United States,,,,"Lobby : Monday 9:00 AM - 4:00 PM, Tuesday 9:00 AM - 4:00 PM, Wednesday 9:00 AM - 4:00 PM, Thursday 9:00 AM - 4:00 PM, Friday 9:00 AM - 4:00 PM, Saturday -, Sunday -,  Drive_Thru : Monday -, Tuesday -, Wednesday -, Thursday -, Friday -, Saturday -, Sunday -",,,
MONTGOMERY OFFICE,,601 MONTGOMERY STREET ,,SAN FRANCISCO ,CA,94111,United States,,,,"Lobby : Monday 9:00 AM - 4:00 PM, Tuesday 9:00 AM - 4:00 PM, Wednesday 9:00 AM - 4:00 PM, Thursday 9:00 AM - 4:00 PM, Friday 9:00 AM - 4:00 PM, Saturday -, Sunday -,  Drive_Thru : Monday -, Tuesday -, Wednesday -, Thursday -, Friday -, Saturday -, Sunday -",,,
GARDEN GROVE OFFICE,,9622 GARDEN GROVE BL 101 ,,GARDEN GROVE ,CA,92844,United States,,,,"Lobby : Monday 9:00 AM - 4:00 PM, Tuesday 9:00 AM - 4:00 PM, Wednesday 9:00 AM - 4:00 PM, Thursday 9:00 AM - 4:00 PM, Friday 9:00 AM - 4:00 PM, Saturday -, Sunday -,  Drive_Thru : Monday -, Tuesday -, Wednesday -, Thursday -, Friday -, Saturday -, Sunday -",,,
ENCINO OFFICE,,16311 VENTURA BOULEVARD ,,ENCINO ,CA,91436,United States,,,,"Lobby : Monday 9:00 AM - 4:00 PM, Tuesday 9:00 AM - 4:00 PM, Wednesday 9:00 AM - 4:00 PM, Thursday 9:00 AM - 4:00 PM, Friday 9:00 AM - 4:00 PM, Saturday -, Sunday -,  Drive_Thru : Monday -, Tuesday -, Wednesday -, Thursday -, Friday -, Saturday -, Sunday -",,,
DIAMOND BAR BLVD OFFICE,,2783 S DIAMOND BAR BLVD ,,DIAMOND BAR ,CA,91765,United States,,,,"Lobby : Monday 9:00 AM - 4:00 PM, Tuesday 9:00 AM - 4:00 PM, Wednesday 9:00 AM - 4:00 PM, Thursday 9:00 AM - 4:00 PM, Friday 9:00 AM - 4:00 PM, Saturday -, Sunday -,  Drive_Thru : Monday -, Tuesday -, Wednesday -, Thursday -, Friday -, Saturday -, Sunday -",,,
DALY CITY WESTLAKE OFFICE,,19 SOUTHGATE AVE ,,DALY CITY ,CA,94015,United States,,,,"Lobby : Monday 9:00 AM - 4:00 PM, Tuesday 9:00 AM - 4:00 PM, Wednesday 9:00 AM - 4:00 PM, Thursday 9:00 AM - 4:00 PM, Friday 9:00 AM - 4:00 PM, Saturday -, Sunday -,  Drive_Thru : Monday -, Tuesday -, Wednesday -, Thursday -, Friday -, Saturday -, Sunday -",,,
MILPITAS OFFICE,,603 E CALAVERAS BLVD ,,MILPITAS ,CA,95035,United States,,,,"Lobby : Monday 9:00 AM - 4:00 PM, Tuesday 9:00 AM - 4:00 PM, Wednesday 9:00 AM - 4:00 PM, Thursday 9:00 AM - 4:00 PM, Friday 9:00 AM - 4:00 PM, Saturday -, Sunday -,  Drive_Thru : Monday -, Tuesday -, Wednesday -, Thursday -, Friday -, Saturday -, Sunday -",,,
CUPERTINO OFFICE,,10745 S DE ANZA BOULEVARD ,,CUPERTINO ,CA,95014,United States,,,,"Lobby : Monday 9:00 AM - 4:00 PM, Tuesday 9:00 AM - 4:00 PM, Wednesday 9:00 AM - 4:00 PM, Thursday 9:00 AM - 4:00 PM, Friday 9:00 AM - 4:00 PM, Saturday -, Sunday -,  Drive_Thru : Monday -, Tuesday -, Wednesday -, Thursday -, Friday -, Saturday -, Sunday -",,,
ARTESIA OFFICE,,18182 PIONEER BLVD ,,ARTESIA ,CA,90701,United States,,,,"Lobby : Monday 9:00 AM - 4:00 PM, Tuesday 9:00 AM - 4:00 PM, Wednesday 9:00 AM - 4:00 PM, Thursday 9:00 AM - 4:00 PM, Friday 9:00 AM - 4:00 PM, Saturday -, Sunday -,  Drive_Thru : Monday -, Tuesday -, Wednesday -, Thursday -, Friday -, Saturday -, Sunday -",,,
ARCADIA OFFICE,,1107 S.BALDWIN AVE UNIT C ,,ARCADIA ,CA,91007,United States,,,,"Lobby : Monday 9:00 AM - 4:00 PM, Tuesday 9:00 AM - 4:00 PM, Wednesday 9:00 AM - 4:00 PM, Thursday 9:00 AM - 4:00 PM, Friday 9:00 AM - 4:00 PM, Saturday -, Sunday -,  Drive_Thru : Monday -, Tuesday -, Wednesday -, Thursday -, Friday -, Saturday -, Sunday -",,,
WARM SPRINGS OFFICE,,46750 MISSION BLVD ,,FREMONT ,CA,94539,United States,,,,"Lobby : Monday 9:00 AM - 4:00 PM, Tuesday 9:00 AM - 4:00 PM, Wednesday 9:00 AM - 4:00 PM, Thursday 9:00 AM - 4:00 PM, Friday 9:00 AM - 4:00 PM, Saturday -, Sunday -,  Drive_Thru : Monday -, Tuesday -, Wednesday -, Thursday -, Friday -, Saturday -, Sunday -",,,
ALHAMBRA OFFICE,,590 WEST MAIN STREET ,,ALHAMBRA ,CA,91801,United States,,,,"Lobby : Monday 9:00 AM - 4:00 PM, Tuesday 9:00 AM - 4:00 PM, Wednesday 9:00 AM - 4:00 PM, Thursday 9:00 AM - 4:00 PM, Friday 9:00 AM - 4:00 PM, Saturday -, Sunday -,  Drive_Thru : Monday -, Tuesday -, Wednesday -, Thursday -, Friday -, Saturday -, Sunday -",,,
FREMONT OFFICE,,39410 FREMONT BLVD ,,FREMONT ,CA,94538,United States,,,,"Lobby : Monday 9:00 AM - 4:00 PM, Tuesday 9:00 AM - 4:00 PM, Wednesday 9:00 AM - 4:00 PM, Thursday 9:00 AM - 4:00 PM, Friday 9:00 AM - 4:00 PM, Saturday -, Sunday -,  Drive_Thru : Monday -, Tuesday -, Wednesday -, Thursday -, Friday -, Saturday -, Sunday -",,,
TORRANCE OFFICE,,21842 HAWTHORNE BLVD ,,TORRANCE ,CA,90503,United States,,,,"Lobby : Monday 9:00 AM - 4:00 PM, Tuesday 9:00 AM - 4:00 PM, Wednesday 9:00 AM - 4:00 PM, Thursday 9:00 AM - 4:00 PM, Friday 9:00 AM - 4:00 PM, Saturday -, Sunday -,  Drive_Thru : Monday -, Tuesday -, Wednesday -, Thursday -, Friday -, Saturday -, Sunday -",,,
BEVERLY HILLS OFFICE,,445 NORTH BEDFORD DRIVE ,,BEVERLY HILLS ,CA,90210,United States,,,,"Lobby : Monday 9:00 AM - 4:00 PM, Tuesday 9:00 AM - 4:00 PM, Wednesday 9:00 AM - 4:00 PM, Thursday 9:00 AM - 4:00 PM, Friday 9:00 AM - 4:00 PM, Saturday -, Sunday -,  Drive_Thru : Monday -, Tuesday -, Wednesday -, Thursday -, Friday -, Saturday -, Sunday -",,,
TEMPLE CITY OFFICE,,9601 LAS TUNAS DR ,,TEMPLE CITY ,CA,91780,United States,,,,"Lobby : Monday 9:00 AM - 4:00 PM, Tuesday 9:00 AM - 4:00 PM, Wednesday 9:00 AM - 4:00 PM, Thursday 9:00 AM - 4:00 PM, Friday 9:00 AM - 4:00 PM, Saturday -, Sunday -,  Drive_Thru : Monday -, Tuesday -, Wednesday -, Thursday -, Friday -, Saturday -, Sunday -",,,
SANTA MONICA OFFICE,,1453 3RD ST STE 250 ,,PROM SANTA MONICA ,CA,90401,United States,,,,"Lobby : Monday 9:00 AM - 4:00 PM, Tuesday 9:00 AM - 4:00 PM, Wednesday 9:00 AM - 4:00 PM, Thursday 9:00 AM - 4:00 PM, Friday 9:00 AM - 4:00 PM, Saturday -, Sunday -,  Drive_Thru : Monday -, Tuesday -, Wednesday -, Thursday -, Friday -, Saturday -, Sunday -",,,
WALNUT OFFICE,,515 GRAND AVE ,,WALNUT ,CA,91789,United States,,,,"Lobby : Monday 9:00 AM - 4:00 PM, Tuesday 9:00 AM - 4:00 PM, Wednesday 9:00 AM - 4:00 PM, Thursday 9:00 AM - 4:00 PM, Friday 9:00 AM - 4:00 PM, Saturday -, Sunday -,  Drive_Thru : Monday -, Tuesday -, Wednesday -, Thursday -, Friday -, Saturday -, Sunday -",,,
SAN MATEO OFFICE,,277 SOUTH B ST ,,SAN MATEO ,CA,94401,United States,,,,"Lobby : Monday 9:00 AM - 4:00 PM, Tuesday 9:00 AM - 4:00 PM, Wednesday 9:00 AM - 4:00 PM, Thursday 9:00 AM - 4:00 PM, Friday 9:00 AM - 4:00 PM, Saturday -, Sunday -,  Drive_Thru : Monday -, Tuesday -, Wednesday -, Thursday -, Friday -, Saturday -, Sunday -",,,
SAN MARINO OFFICE,,2398 HUNTINGTON DR ,,SAN MARINO ,CA,91108,United States,,,,"Lobby : Monday 9:00 AM - 4:00 PM, Tuesday 9:00 AM - 4:00 PM, Wednesday 9:00 AM - 4:00 PM, Thursday 9:00 AM - 4:00 PM, Friday 9:00 AM - 4:00 PM, Saturday -, Sunday -,  Drive_Thru : Monday -, Tuesday -, Wednesday -, Thursday -, Friday -, Saturday -, Sunday -",,,
SAN JOSE SARATOGA OFFICE,,1420 EL PASEO DE SARATOGA ,,SAN JOSE ,CA,95130,United States,,,,"Lobby : Monday 9:00 AM - 4:00 PM, Tuesday 9:00 AM - 4:00 PM, Wednesday 9:00 AM - 4:00 PM, Thursday 9:00 AM - 4:00 PM, Friday 9:00 AM - 4:00 PM, Saturday -, Sunday -,  Drive_Thru : Monday -, Tuesday -, Wednesday -, Thursday -, Friday -, Saturday -, Sunday -",,,
SAN FRANCISCO CHINATOWN,,933 GRANT AVE ,,SAN FRANCISCO ,CA,94108,United States,,,,"Lobby : Monday 9:00 AM - 4:00 PM, Tuesday 9:00 AM - 4:00 PM, Wednesday 9:00 AM - 4:00 PM, Thursday 9:00 AM - 4:00 PM, Friday 9:00 AM - 4:00 PM, Saturday -, Sunday -,  Drive_Thru : Monday -, Tuesday -, Wednesday -, Thursday -, Friday -, Saturday -, Sunday -",,,
SAN GABRIEL OFFICE,,227 W VALLEY BLVD. ,,SAN GABRIEL ,CA,91776,United States,,,,"Lobby : Monday 9:00 AM - 4:00 PM, Tuesday 9:00 AM - 4:00 PM, Wednesday 9:00 AM - 4:00 PM, Thursday 9:00 AM - 4:00 PM, Friday 9:00 AM - 4:00 PM, Saturday -, Sunday -,  Drive_Thru : Monday -, Tuesday -, Wednesday -, Thursday -, Friday -, Saturday -, Sunday -",,,
ROWLAND HEIGHTS OFFICE,,18250 COLIMA ROAD ,,ROWLAND HGTS ,CA,91748,United States,,,,"Lobby : Monday 9:00 AM - 4:00 PM, Tuesday 9:00 AM - 4:00 PM, Wednesday 9:00 AM - 4:00 PM, Thursday 9:00 AM - 4:00 PM, Friday 9:00 AM - 4:00 PM, Saturday -, Sunday -,  Drive_Thru : Monday -, Tuesday -, Wednesday -, Thursday -, Friday -, Saturday -, Sunday -",,,
ROLLING HILLS ESTATES OFC,,449 SILVER SPUR RD ,,RLLNG HLS EST ,CA,90274,United States,,,,"Lobby : Monday 9:00 AM - 4:00 PM, Tuesday 9:00 AM - 4:00 PM, Wednesday 9:00 AM - 4:00 PM, Thursday 9:00 AM - 4:00 PM, Friday 9:00 AM - 4:00 PM, Saturday -, Sunday -,  Drive_Thru : Monday -, Tuesday -, Wednesday -, Thursday -, Friday -, Saturday -, Sunday -",,,
PASADENA OFFICE,,1055 E. COLORADO BLVD. ,,PASADENA ,CA,91106,United States,,,,"Lobby : Monday 9:00 AM - 4:00 PM, Tuesday 9:00 AM - 4:00 PM, Wednesday 9:00 AM - 4:00 PM, Thursday 9:00 AM - 4:00 PM, Friday 9:00 AM - 4:00 PM, Saturday -, Sunday -,  Drive_Thru : Monday -, Tuesday -, Wednesday -, Thursday -, Friday -, Saturday -, Sunday -",,,
PALO ALTO OFFICE,,567 UNIVERSITY AVENUE ,,PALO ALTO ,CA,94301,United States,,,,"Lobby : Monday 9:00 AM - 4:00 PM, Tuesday 9:00 AM - 4:00 PM, Wednesday 9:00 AM - 4:00 PM, Thursday 9:00 AM - 4:00 PM, Friday 9:00 AM - 4:00 PM, Saturday -, Sunday -,  Drive_Thru : Monday -, Tuesday -, Wednesday -, Thursday -, Friday -, Saturday -, Sunday -",,,
OAKLAND OFFICE,,388 9TH STREET SUITE 121 ,,OAKLAND ,CA,94607,United States,,,,"Lobby : Monday 9:00 AM - 4:00 PM, Tuesday 9:00 AM - 4:00 PM, Wednesday 9:00 AM - 4:00 PM, Thursday 9:00 AM - 4:00 PM, Friday 9:00 AM - 4:00 PM, Saturday -, Sunday -,  Drive_Thru : Monday -, Tuesday -, Wednesday -, Thursday -, Friday -, Saturday -, Sunday -",,,
MOUNTAIN VIEW OFFICE,,1350 GRANT RD # 3 ,,MOUNTAIN VIEW ,CA,94040,United States,,,,"Lobby : Monday 9:00 AM - 4:00 PM, Tuesday 9:00 AM - 4:00 PM, Wednesday 9:00 AM - 4:00 PM, Thursday 9:00 AM - 4:00 PM, Friday 9:00 AM - 4:00 PM, Saturday -, Sunday -,  Drive_Thru : Monday -, Tuesday -, Wednesday -, Thursday -, Friday -, Saturday -, Sunday -",,,
MILPITAS OFFICE,,603 E CALAVERAS BLVD ,,MILPITAS ,CA,95035,United States,,,,"Lobby : Monday 9:00 AM - 4:00 PM, Tuesday 9:00 AM - 4:00 PM, Wednesday 9:00 AM - 4:00 PM, Thursday 9:00 AM - 4:00 PM, Friday 9:00 AM - 4:00 PM, Saturday -, Sunday -,  Drive_Thru : Monday -, Tuesday -, Wednesday -, Thursday -, Friday -, Saturday -, Sunday -",,,
MONTGOMERY OFFICE,,601 MONTGOMERY STREET ,,SAN FRANCISCO ,CA,94111,United States,,,,"Lobby : Monday 9:00 AM - 4:00 PM, Tuesday 9:00 AM - 4:00 PM, Wednesday 9:00 AM - 4:00 PM, Thursday 9:00 AM - 4:00 PM, Friday 9:00 AM - 4:00 PM, Saturday -, Sunday -,  Drive_Thru : Monday -, Tuesday -, Wednesday -, Thursday -, Friday -, Saturday -, Sunday -",,,
MILLBRAE OFFICE,,39 SOUTH EL CAMINO REAL ,,MILLBRAE ,CA,94030,United States,,,,"Lobby : Monday 9:00 AM - 4:00 PM, Tuesday 9:00 AM - 4:00 PM, Wednesday 9:00 AM - 4:00 PM, Thursday 9:00 AM - 4:00 PM, Friday 9:00 AM - 4:00 PM, Saturday -, Sunday -,  Drive_Thru : Monday -, Tuesday -, Wednesday -, Thursday -, Friday -, Saturday -, Sunday -",,,
LA CHINATOWN OFFICE,,637 NORTH BROADWAY ,,LOS ANGELES ,CA,90012,United States,,,,"Lobby : Monday 9:00 AM - 4:00 PM, Tuesday 9:00 AM - 4:00 PM, Wednesday 9:00 AM - 4:00 PM, Thursday 9:00 AM - 4:00 PM, Friday 9:00 AM - 4:00 PM, Saturday -, Sunday -,  Drive_Thru : Monday -, Tuesday -, Wednesday -, Thursday -, Friday -, Saturday -, Sunday -",,,
LA KOREATOWN OFFICE,,3785 WILSHIRE BLVD ST 8 ,,LOS ANGELES ,CA,90010,United States,,,,"Lobby : Monday 9:00 AM - 4:00 PM, Tuesday 9:00 AM - 4:00 PM, Wednesday 9:00 AM - 4:00 PM, Thursday 9:00 AM - 4:00 PM, Friday 9:00 AM - 4:00 PM, Saturday -, Sunday -,  Drive_Thru : Monday -, Tuesday -, Wednesday -, Thursday -, Friday -, Saturday -, Sunday -",,,
IRVING STREET OFFICE,,2257 IRVING STREET ,,SAN FRANCISCO ,CA,94122,United States,,,,"Lobby : Monday 9:00 AM - 4:00 PM, Tuesday 9:00 AM - 4:00 PM, Wednesday 9:00 AM - 4:00 PM, Thursday 9:00 AM - 4:00 PM, Friday 9:00 AM - 4:00 PM, Saturday -, Sunday -,  Drive_Thru : Monday -, Tuesday -, Wednesday -, Thursday -, Friday -, Saturday -, Sunday -",,,
GARDEN GROVE OFFICE,,9622 GARDEN GROVE BL 101 ,,GARDEN GROVE ,CA,92844,United States,,,,"Lobby : Monday 9:00 AM - 4:00 PM, Tuesday 9:00 AM - 4:00 PM, Wednesday 9:00 AM - 4:00 PM, Thursday 9:00 AM - 4:00 PM, Friday 9:00 AM - 4:00 PM, Saturday -, Sunday -,  Drive_Thru : Monday -, Tuesday -, Wednesday -, Thursday -, Friday -, Saturday -, Sunday -",,,
GLENDALE OFFICE,,505 N BRAND BLVD STE 100 ,,GLENDALE ,CA,91203,United States,,,,"Lobby : Monday 9:00 AM - 4:00 PM, Tuesday 9:00 AM - 4:00 PM, Wednesday 9:00 AM - 4:00 PM, Thursday 9:00 AM - 4:00 PM, Friday 9:00 AM - 4:00 PM, Saturday -, Sunday -,  Drive_Thru : Monday -, Tuesday -, Wednesday -, Thursday -, Friday -, Saturday -, Sunday -",,,
FREMONT OFFICE,,39410 FREMONT BLVD ,,FREMONT ,CA,94538,United States,,,,"Lobby : Monday 9:00 AM - 4:00 PM, Tuesday 9:00 AM - 4:00 PM, Wednesday 9:00 AM - 4:00 PM, Thursday 9:00 AM - 4:00 PM, Friday 9:00 AM - 4:00 PM, Saturday -, Sunday -,  Drive_Thru : Monday -, Tuesday -, Wednesday -, Thursday -, Friday -, Saturday -, Sunday -",,,
ENCINO OFFICE,,16311 VENTURA BOULEVARD ,,ENCINO ,CA,91436,United States,,,,"Lobby : Monday 9:00 AM - 4:00 PM, Tuesday 9:00 AM - 4:00 PM, Wednesday 9:00 AM - 4:00 PM, Thursday 9:00 AM - 4:00 PM, Friday 9:00 AM - 4:00 PM, Saturday -, Sunday -,  Drive_Thru : Monday -, Tuesday -, Wednesday -, Thursday -, Friday -, Saturday -, Sunday -",,,
IRVINE CENTER DRIVE OFC,,15315 CULVER DR STE 187 ,,IRVINE ,CA,92604,United States,,,,"Lobby : Monday 9:00 AM - 4:00 PM, Tuesday 9:00 AM - 4:00 PM, Wednesday 9:00 AM - 4:00 PM, Thursday 9:00 AM - 4:00 PM, Friday 9:00 AM - 4:00 PM, Saturday -, Sunday -,  Drive_Thru : Monday -, Tuesday -, Wednesday -, Thursday -, Friday -, Saturday -, Sunday -",,,
LOS ANGELES OFFICE,,725 SOUTH FIGUEROA STREET ,,LOS ANGELES ,CA,90017,United States,,,,"Lobby : Monday 9:00 AM - 4:00 PM, Tuesday 9:00 AM - 4:00 PM, Wednesday 9:00 AM - 4:00 PM, Thursday 9:00 AM - 4:00 PM, Friday 9:00 AM - 4:00 PM, Saturday -, Sunday -,  Drive_Thru : Monday -, Tuesday -, Wednesday -, Thursday -, Friday -, Saturday -, Sunday -",,,
ARTESIA OFFICE,,18182 PIONEER BLVD ,,ARTESIA ,CA,90701,United States,,,,"Lobby : Monday 9:00 AM - 4:00 PM, Tuesday 9:00 AM - 4:00 PM, Wednesday 9:00 AM - 4:00 PM, Thursday 9:00 AM - 4:00 PM, Friday 9:00 AM - 4:00 PM, Saturday -, Sunday -,  Drive_Thru : Monday -, Tuesday -, Wednesday -, Thursday -, Friday -, Saturday -, Sunday -",,,
CUPERTINO OFFICE,,10745 S DE ANZA BOULEVARD ,,CUPERTINO ,CA,95014,United States,,,,"Lobby : Monday 9:00 AM - 4:00 PM, Tuesday 9:00 AM - 4:00 PM, Wednesday 9:00 AM - 4:00 PM, Thursday 9:00 AM - 4:00 PM, Friday 9:00 AM - 4:00 PM, Saturday -, Sunday -,  Drive_Thru : Monday -, Tuesday -, Wednesday -, Thursday -, Friday -, Saturday -, Sunday -",,,
BEVERLY HILLS OFFICE,,445 NORTH BEDFORD DRIVE ,,BEVERLY HILLS ,CA,90210,United States,,,,"Lobby : Monday 9:00 AM - 4:00 PM, Tuesday 9:00 AM - 4:00 PM, Wednesday 9:00 AM - 4:00 PM, Thursday 9:00 AM - 4:00 PM, Friday 9:00 AM - 4:00 PM, Saturday -, Sunday -,  Drive_Thru : Monday -, Tuesday -, Wednesday -, Thursday -, Friday -, Saturday -, Sunday -",,,
ARCADIA OFFICE,,1107 S.BALDWIN AVE UNIT C ,,ARCADIA ,CA,91007,United States,,,,"Lobby : Monday 9:00 AM - 4:00 PM, Tuesday 9:00 AM - 4:00 PM, Wednesday 9:00 AM - 4:00 PM, Thursday 9:00 AM - 4:00 PM, Friday 9:00 AM - 4:00 PM, Saturday -, Sunday -,  Drive_Thru : Monday -, Tuesday -, Wednesday -, Thursday -, Friday -, Saturday -, Sunday -",,,
DIAMOND BAR BLVD OFFICE,,2783 S DIAMOND BAR BLVD ,,DIAMOND BAR ,CA,91765,United States,,,,"Lobby : Monday 9:00 AM - 4:00 PM, Tuesday 9:00 AM - 4:00 PM, Wednesday 9:00 AM - 4:00 PM, Thursday 9:00 AM - 4:00 PM, Friday 9:00 AM - 4:00 PM, Saturday -, Sunday -,  Drive_Thru : Monday -, Tuesday -, Wednesday -, Thursday -, Friday -, Saturday -, Sunday -",,,
DALY CITY WESTLAKE OFFICE,,19 SOUTHGATE AVE ,,DALY CITY ,CA,94015,United States,,,,"Lobby : Monday 9:00 AM - 4:00 PM, Tuesday 9:00 AM - 4:00 PM, Wednesday 9:00 AM - 4:00 PM, Thursday 9:00 AM - 4:00 PM, Friday 9:00 AM - 4:00 PM, Saturday -, Sunday -,  Drive_Thru : Monday -, Tuesday -, Wednesday -, Thursday -, Friday -, Saturday -, Sunday -",,,
OYSTER BAY OFFICE,,275 SOUTH STREET ,,OYSTER BAY ,NY,11771,United States,,,,"Lobby : Monday 9:00 AM - 4:00 PM, Tuesday 9:00 AM - 4:00 PM, Wednesday 9:00 AM - 4:00 PM, Thursday 9:00 AM - 4:00 PM, Friday 9:00 AM - 4:00 PM, Saturday -, Sunday -,  Drive_Thru : Monday -, Tuesday -, Wednesday -, Thursday -, Friday -, Saturday -, Sunday -",,,
SYOSSET OFFICE,,603 JERICHO TURNPIKE ,,SYOSSET ,NY,11791,United States,,,,"Lobby : Monday 9:00 AM - 4:00 PM, Tuesday 9:00 AM - 4:00 PM, Wednesday 9:00 AM - 4:00 PM, Thursday 9:00 AM - 4:00 PM, Friday 9:00 AM - 4:00 PM, Saturday 9:00 AM - 1:00 PM, Sunday -,  Drive_Thru : Monday -, Tuesday -, Wednesday -, Thursday -, Friday -, Saturday -, Sunday -",,,
SOUTHAMPTON OFFICE,,25 NUGENT ST ,,SOUTHAMPTON ,NY,11968,United States,,,,"Lobby : Monday 9:00 AM - 4:00 PM, Tuesday 9:00 AM - 4:00 PM, Wednesday 9:00 AM - 4:00 PM, Thursday 9:00 AM - 4:00 PM, Friday 9:00 AM - 4:00 PM, Saturday -, Sunday -,  Drive_Thru : Monday 9:00 AM - 4:00 PM, Tuesday 9:00 AM - 4:00 PM, Wednesday 9:00 AM - 4:00 PM, Thursday 9:00 AM - 4:00 PM, Friday 9:00 AM - 4:00 PM, Saturday -, Sunday -",,,
PORT WASHINGTON OFFICE,,SOUNDVIEW MKTPLC/SHORE RD ,,PRT WASHINGTN ,NY,11050,United States,,,,"Lobby : Monday 9:00 AM - 4:00 PM, Tuesday 9:00 AM - 4:00 PM, Wednesday 9:00 AM - 4:00 PM, Thursday 9:00 AM - 4:00 PM, Friday 9:00 AM - 4:00 PM, Saturday -, Sunday -,  Drive_Thru : Monday 9:00 AM - 4:00 PM, Tuesday 9:00 AM - 4:00 PM, Wednesday 9:00 AM - 4:00 PM, Thursday 9:00 AM - 4:00 PM, Friday 9:00 AM - 4:00 PM, Saturday -, Sunday -",,,
ALHAMBRA OFFICE,,590 WEST MAIN STREET ,,ALHAMBRA ,CA,91801,United States,,,,"Lobby : Monday 9:00 AM - 4:00 PM, Tuesday 9:00 AM - 4:00 PM, Wednesday 9:00 AM - 4:00 PM, Thursday 9:00 AM - 4:00 PM, Friday 9:00 AM - 4:00 PM, Saturday -, Sunday -,  Drive_Thru : Monday -, Tuesday -, Wednesday -, Thursday -, Friday -, Saturday -, Sunday -",,,
PORT JEFFERSON OFFICE,,574 JEFFERSON SHPG PLAZA PT ,,JEFFERSON ,NY,11776,United States,,,,"Lobby : Monday 9:00 AM - 4:00 PM, Tuesday 9:00 AM - 4:00 PM, Wednesday 9:00 AM - 4:00 PM, Thursday 9:00 AM - 4:00 PM, Friday 9:00 AM - 4:00 PM, Saturday 9:00 AM - 1:00 PM, Sunday -,  Drive_Thru : Monday -, Tuesday -, Wednesday -, Thursday -, Friday -, Saturday -, Sunday -",,,
NEW HYDE PARK OFFICE,,1572 UNION TPKE ,,NEW HYDE PARK ,NY,11040,United States,,,,"Lobby : Monday 9:00 AM - 4:00 PM, Tuesday 9:00 AM - 4:00 PM, Wednesday 9:00 AM - 4:00 PM, Thursday 9:00 AM - 4:00 PM, Friday 9:00 AM - 4:00 PM, Saturday 9:00 AM - 1:00 PM, Sunday -,  Drive_Thru : Monday 9:00 AM - 4:00 PM, Tuesday 9:00 AM - 4:00 PM, Wednesday 9:00 AM - 4:00 PM, Thursday 9:00 AM - 4:00 PM, Friday 9:00 AM - 4:00 PM, Saturday 9:00 AM - 1:00 PM, Sunday -",,,
MILLER PLACE OFFICE,,691 ROUTE 25A ,,MILLER PLACE ,NY,11764,United States,,,,"Lobby : Monday 9:00 AM - 4:00 PM, Tuesday 9:00 AM - 4:00 PM, Wednesday 9:00 AM - 4:00 PM, Thursday 9:00 AM - 4:00 PM, Friday 9:00 AM - 4:00 PM, Saturday -, Sunday -,  Drive_Thru : Monday 9:00 AM - 4:00 PM, Tuesday 9:00 AM - 4:00 PM, Wednesday 9:00 AM - 4:00 PM, Thursday 9:00 AM - 4:00 PM, Friday 9:00 AM - 4:00 PM, Saturday -, Sunday -",,,
MELVILLE OFFICE,,534 BROAD HOLLOW RD ,,MELVILLE ,NY,11747,United States,,,,"Lobby : Monday 9:00 AM - 4:00 PM, Tuesday 9:00 AM - 4:00 PM, Wednesday 9:00 AM - 4:00 PM, Thursday 9:00 AM - 4:00 PM, Friday 9:00 AM - 4:00 PM, Saturday -, Sunday -,  Drive_Thru : Monday -, Tuesday -, Wednesday -, Thursday -, Friday -, Saturday -, Sunday -",,,
MERRICK OFFICE,,2160 SUNRISE HWY ,,MERRICK ,NY,11566,United States,,,,"Lobby : Monday 9:00 AM - 4:00 PM, Tuesday 9:00 AM - 4:00 PM, Wednesday 9:00 AM - 4:00 PM, Thursday 9:00 AM - 4:00 PM, Friday 9:00 AM - 4:00 PM, Saturday -, Sunday -,  Drive_Thru : Monday 9:00 AM - 4:00 PM, Tuesday 9:00 AM - 4:00 PM, Wednesday 9:00 AM - 4:00 PM, Thursday 9:00 AM - 4:00 PM, Friday 9:00 AM - 4:00 PM, Saturday -, Sunday -",,,
LAKE RONKONKOMA OFFICE,,395 PORTION RD ,,RONKONKOMA ,NY,11779,United States,,,,"Lobby : Monday 9:00 AM - 4:00 PM, Tuesday 9:00 AM - 4:00 PM, Wednesday 9:00 AM - 4:00 PM, Thursday 9:00 AM - 4:00 PM, Friday 9:00 AM - 4:00 PM, Saturday 9:00 AM - 1:00 PM, Sunday -,  Drive_Thru : Monday 9:00 AM - 4:00 PM, Tuesday 9:00 AM - 4:00 PM, Wednesday 9:00 AM - 4:00 PM, Thursday 9:00 AM - 4:00 PM, Friday 9:00 AM - 4:00 PM, Saturday 9:00 AM - 1:00 PM, Sunday -",,,
MASSAPEQUA OFFICE,,5500 SUNRISE HWY ,,MASSAPEQUA ,NY,11758,United States,,,,"Lobby : Monday 9:00 AM - 4:00 PM, Tuesday 9:00 AM - 4:00 PM, Wednesday 9:00 AM - 4:00 PM, Thursday 9:00 AM - 4:00 PM, Friday 9:00 AM - 4:00 PM, Saturday 9:00 AM - 1:00 PM, Sunday -,  Drive_Thru : Monday 9:00 AM - 4:00 PM, Tuesday 9:00 AM - 4:00 PM, Wednesday 9:00 AM - 4:00 PM, Thursday 9:00 AM - 4:00 PM, Friday 9:00 AM - 4:00 PM, Saturday 9:00 AM - 1:00 PM, Sunday -",,,
VALLEY STREAM OFFICE,,260 WEST SUNRISE HIGHWAY ,,VALLEY STREAM ,NY,11581,United States,,,,"Lobby : Monday 9:00 AM - 4:00 PM, Tuesday 9:00 AM - 4:00 PM, Wednesday 9:00 AM - 4:00 PM, Thursday 9:00 AM - 4:00 PM, Friday 9:00 AM - 4:00 PM, Saturday -, Sunday -,  Drive_Thru : Monday 9:00 AM - 4:00 PM, Tuesday 9:00 AM - 4:00 PM, Wednesday 9:00 AM - 4:00 PM, Thursday 9:00 AM - 4:00 PM, Friday 9:00 AM - 4:00 PM, Saturday -, Sunday -",,,
WEST BABYLON OFFICE,,85 FARMINGDALE RD ,,WEST BABYLON ,NY,11704,United States,,,,"Lobby : Monday 9:00 AM - 4:00 PM, Tuesday 9:00 AM - 4:00 PM, Wednesday 9:00 AM - 4:00 PM, Thursday 9:00 AM - 4:00 PM, Friday 9:00 AM - 4:00 PM, Saturday -, Sunday -,  Drive_Thru : Monday 9:00 AM - 4:00 PM, Tuesday 9:00 AM - 4:00 PM, Wednesday 9:00 AM - 4:00 PM, Thursday 9:00 AM - 4:00 PM, Friday 9:00 AM - 4:00 PM, Saturday -, Sunday -",,,
MANHASSET OFFICE,,2030 NORTHERN BLVD. ,,MANHASSET ,NY,11030,United States,,,,"Lobby : Monday 9:00 AM - 4:00 PM, Tuesday 9:00 AM - 4:00 PM, Wednesday 9:00 AM - 4:00 PM, Thursday 9:00 AM - 4:00 PM, Friday 9:00 AM - 4:00 PM, Saturday -, Sunday -,  Drive_Thru : Monday -, Tuesday -, Wednesday -, Thursday -, Friday -, Saturday -, Sunday -",,,
OCEANSIDE OFFICE,,3544 LONG BEACH RD. ,,OCEANSIDE ,NY,11572,United States,,,,"Lobby : Monday 9:00 AM - 4:00 PM, Tuesday 9:00 AM - 4:00 PM, Wednesday 9:00 AM - 4:00 PM, Thursday 9:00 AM - 4:00 PM, Friday 9:00 AM - 4:00 PM, Saturday -, Sunday -,  Drive_Thru : Monday -, Tuesday -, Wednesday -, Thursday -, Friday -, Saturday -, Sunday -",,,
MASTIC OFFICE,,1718 MONTAUK HWY ,,MASTIC ,NY,11950,United States,,,,"Lobby : Monday 9:00 AM - 4:00 PM, Tuesday 9:00 AM - 4:00 PM, Wednesday 9:00 AM - 4:00 PM, Thursday 9:00 AM - 4:00 PM, Friday 9:00 AM - 4:00 PM, Saturday -, Sunday -,  Drive_Thru : Monday 9:00 AM - 4:00 PM, Tuesday 9:00 AM - 4:00 PM, Wednesday 9:00 AM - 4:00 PM, Thursday 9:00 AM - 4:00 PM, Friday 9:00 AM - 4:00 PM, Saturday -, Sunday -",,,
LYNBROOK OFFICE,,15 ATLANTIC AVE ,,LYNBROOK ,NY,11563,United States,,,,"Lobby : Monday 9:00 AM - 4:00 PM, Tuesday 9:00 AM - 4:00 PM, Wednesday 9:00 AM - 4:00 PM, Thursday 9:00 AM - 4:00 PM, Friday 9:00 AM - 4:00 PM, Saturday -, Sunday -,  Drive_Thru : Monday -, Tuesday -, Wednesday -, Thursday -, Friday -, Saturday -, Sunday -",,,
LEVITTOWN OFFICE,,3130 HEMPSTEAD TPKE ,,LEVITTOWN ,NY,11756,United States,,,,"Lobby : Monday 9:00 AM - 4:00 PM, Tuesday 9:00 AM - 4:00 PM, Wednesday 9:00 AM - 4:00 PM, Thursday 9:00 AM - 4:00 PM, Friday 9:00 AM - 4:00 PM, Saturday 9:00 AM - 1:00 PM, Sunday -,  Drive_Thru : Monday 9:00 AM - 4:00 PM, Tuesday 9:00 AM - 4:00 PM, Wednesday 9:00 AM - 4:00 PM, Thursday 9:00 AM - 4:00 PM, Friday 9:00 AM - 4:00 PM, Saturday 9:00 AM - 1:00 PM, Sunday -",,,
JERICHO OFFICE,,366 NORTH BROADWAY ,,JERICHO ,NY,11753,United States,,,,"Lobby : Monday 9:00 AM - 4:00 PM, Tuesday 9:00 AM - 4:00 PM, Wednesday 9:00 AM - 4:00 PM, Thursday 9:00 AM - 4:00 PM, Friday 9:00 AM - 4:00 PM, Saturday -, Sunday -,  Drive_Thru : Monday 9:00 AM - 4:00 PM, Tuesday 9:00 AM - 4:00 PM, Wednesday 9:00 AM - 4:00 PM, Thursday 9:00 AM - 4:00 PM, Friday 9:00 AM - 4:00 PM, Saturday -, Sunday -",,,
ROCKVILLE CENTRE OFFICE,,330 SUNRISE HIGHWAY ,,ROCKVILLE CTR ,NY,11570,United States,,,,"Lobby : Monday 9:00 AM - 4:00 PM, Tuesday 9:00 AM - 4:00 PM, Wednesday 9:00 AM - 4:00 PM, Thursday 9:00 AM - 4:00 PM, Friday 9:00 AM - 4:00 PM, Saturday -, Sunday -,  Drive_Thru : Monday 9:00 AM - 4:00 PM, Tuesday 9:00 AM - 4:00 PM, Wednesday 9:00 AM - 4:00 PM, Thursday 9:00 AM - 4:00 PM, Friday 9:00 AM - 4:00 PM, Saturday -, Sunday -",,,
HAUPPAUGE OFFICE,,660 VANDERBILT MOTOR PKWY ,,HAUPPAUGE ,NY,11788,United States,,,,"Lobby : Monday 9:00 AM - 4:00 PM, Tuesday 9:00 AM - 4:00 PM, Wednesday 9:00 AM - 4:00 PM, Thursday 9:00 AM - 4:00 PM, Friday 9:00 AM - 4:00 PM, Saturday -, Sunday -,  Drive_Thru : Monday 9:00 AM - 4:00 PM, Tuesday 9:00 AM - 4:00 PM, Wednesday 9:00 AM - 4:00 PM, Thursday 9:00 AM - 4:00 PM, Friday 9:00 AM - 4:00 PM, Saturday -, Sunday -",,,
HAMPTON BAYS OFFICE,,248 MONTAUK HWY WEST ,,HAMPTON BAYS ,NY,11946,United States,,,,"Lobby : Monday 9:00 AM - 4:00 PM, Tuesday 9:00 AM - 4:00 PM, Wednesday 9:00 AM - 4:00 PM, Thursday 9:00 AM - 4:00 PM, Friday 9:00 AM - 4:00 PM, Saturday -, Sunday -,  Drive_Thru : Monday 9:00 AM - 4:00 PM, Tuesday 9:00 AM - 4:00 PM, Wednesday 9:00 AM - 4:00 PM, Thursday 9:00 AM - 4:00 PM, Friday 9:00 AM - 4:00 PM, Saturday -, Sunday -",,,
HUNTINGTON VILLAGE OFFICE,,355 WEST MAIN STREET ,,HUNTINGTON ,NY,11743,United States,,,,"Lobby : Monday 9:00 AM - 4:00 PM, Tuesday 9:00 AM - 4:00 PM, Wednesday 9:00 AM - 4:00 PM, Thursday 9:00 AM - 4:00 PM, Friday 9:00 AM - 4:00 PM, Saturday -, Sunday -,  Drive_Thru : Monday -, Tuesday -, Wednesday -, Thursday -, Friday -, Saturday -, Sunday -",,,
GARDEN CITY OFFICE,,147 SEVENTH STREET ,,GARDEN CITY ,NY,11530,United States,,,,"Lobby : Monday 9:00 AM - 4:00 PM, Tuesday 9:00 AM - 4:00 PM, Wednesday 9:00 AM - 4:00 PM, Thursday 9:00 AM - 4:00 PM, Friday 9:00 AM - 4:00 PM, Saturday -, Sunday -,  Drive_Thru : Monday -, Tuesday -, Wednesday -, Thursday -, Friday -, Saturday -, Sunday -",,,
HEWLETT OFFICE,,1315 PENINSULA BLVD. ,,HEWLETT ,NY,11557,United States,,,,"Lobby : Monday 9:00 AM - 4:00 PM, Tuesday 9:00 AM - 4:00 PM, Wednesday 9:00 AM - 4:00 PM, Thursday 9:00 AM - 4:00 PM, Friday 9:00 AM - 4:00 PM, Saturday -, Sunday -,  Drive_Thru : Monday 9:00 AM - 4:00 PM, Tuesday 9:00 AM - 4:00 PM, Wednesday 9:00 AM - 4:00 PM, Thursday 9:00 AM - 4:00 PM, Friday 9:00 AM - 4:00 PM, Saturday -, Sunday -",,,
EAST SETAUKET OFFICE,,(GNARLED HOLLOW RD) 300 MAIN ST SUITE 1 ,,EAST SETAUKET ,NY,11733,United States,,,,"Lobby : Monday 9:00 AM - 4:00 PM, Tuesday 9:00 AM - 4:00 PM, Wednesday 9:00 AM - 4:00 PM, Thursday 9:00 AM - 4:00 PM, Friday 9:00 AM - 4:00 PM, Saturday -, Sunday -,  Drive_Thru : Monday -, Tuesday -, Wednesday -, Thursday -, Friday -, Saturday -, Sunday -",,,
SOUTH SETAUKET OFFICE,,(KOHLS SHOP CNTR) 4036 NESCONSET HWY ,,EAST SETAUKET ,NY,11733,United States,,,,"Lobby : Monday 9:00 AM - 4:00 PM, Tuesday 9:00 AM - 4:00 PM, Wednesday 9:00 AM - 4:00 PM, Thursday 9:00 AM - 4:00 PM, Friday 9:00 AM - 4:00 PM, Saturday -, Sunday -,  Drive_Thru : Monday 9:00 AM - 4:00 PM, Tuesday 9:00 AM - 4:00 PM, Wednesday 9:00 AM - 4:00 PM, Thursday 9:00 AM - 4:00 PM, Friday 9:00 AM - 4:00 PM, Saturday -, Sunday -",,,
EAST NORTHPORT OFFICE,,310 LARKFIELD ROAD E ,,NORTHPORT ,NY,11731,United States,,,,"Lobby : Monday 9:00 AM - 4:00 PM, Tuesday 9:00 AM - 4:00 PM, Wednesday 9:00 AM - 4:00 PM, Thursday 9:00 AM - 4:00 PM, Friday 9:00 AM - 4:00 PM, Saturday -, Sunday -,  Drive_Thru : Monday 9:00 AM - 4:00 PM, Tuesday 9:00 AM - 4:00 PM, Wednesday 9:00 AM - 4:00 PM, Thursday 9:00 AM - 4:00 PM, Friday 9:00 AM - 4:00 PM, Saturday -, Sunday -",,,
CEDARHURST OFFICE,,125 CEDARHURST AVE. ,,CEDARHURST ,NY,11516,United States,,,,"Lobby : Monday 9:00 AM - 4:00 PM, Tuesday 9:00 AM - 4:00 PM, Wednesday 9:00 AM - 4:00 PM, Thursday 9:00 AM - 4:00 PM, Friday 9:00 AM - 4:00 PM, Saturday -, Sunday -,  Drive_Thru : Monday -, Tuesday -, Wednesday -, Thursday -, Friday -, Saturday -, Sunday -",,,
BOHEMIA OFFICE,,4040 VETERANS MEMORIAL HW ,,BOHEMIA ,NY,11716,United States,,,,"Lobby : Monday 9:00 AM - 4:00 PM, Tuesday 9:00 AM - 4:00 PM, Wednesday 9:00 AM - 4:00 PM, Thursday 9:00 AM - 4:00 PM, Friday 9:00 AM - 4:00 PM, Saturday -, Sunday -,  Drive_Thru : Monday 9:00 AM - 4:00 PM, Tuesday 9:00 AM - 4:00 PM, Wednesday 9:00 AM - 4:00 PM, Thursday 9:00 AM - 4:00 PM, Friday 9:00 AM - 4:00 PM, Saturday -, Sunday -",,,
BELLPORT OFFICE,,20 STATION RD ,,BELLPORT ,NY,11713,United States,,,,"Lobby : Monday 9:00 AM - 4:00 PM, Tuesday 9:00 AM - 4:00 PM, Wednesday 9:00 AM - 4:00 PM, Thursday 9:00 AM - 4:00 PM, Friday 9:00 AM - 4:00 PM, Saturday 9:00 AM - 1:00 PM, Sunday -,  Drive_Thru : Monday 9:00 AM - 4:00 PM, Tuesday 9:00 AM - 4:00 PM, Wednesday 9:00 AM - 4:00 PM, Thursday 9:00 AM - 4:00 PM, Friday 9:00 AM - 4:00 PM, Saturday 9:00 AM - 1:00 PM, Sunday -",,,
FRANKLIN SQUARE OFFICE,,682 DOGWOOD AVE. ,,FRANKLIN SQ ,NY,11010,United States,,,,"Lobby : Monday 9:00 AM - 4:00 PM, Tuesday 9:00 AM - 4:00 PM, Wednesday 9:00 AM - 4:00 PM, Thursday 9:00 AM - 4:00 PM, Friday 9:00 AM - 4:00 PM, Saturday 9:00 AM - 1:00 PM, Sunday -,  Drive_Thru : Monday -, Tuesday -, Wednesday -, Thursday -, Friday -, Saturday -, Sunday -",,,
BAYSHORE OFFICE,,430 E MAIN ST ,,BAY SHORE ,NY,11706,United States,,,,"Lobby : Monday 9:00 AM - 4:00 PM, Tuesday 9:00 AM - 4:00 PM, Wednesday 9:00 AM - 4:00 PM, Thursday 9:00 AM - 4:00 PM, Friday 9:00 AM - 4:00 PM, Saturday 9:00 AM - 1:00 PM, Sunday -,  Drive_Thru : Monday 9:00 AM - 4:00 PM, Tuesday 9:00 AM - 4:00 PM, Wednesday 9:00 AM - 4:00 PM, Thursday 9:00 AM - 4:00 PM, Friday 9:00 AM - 4:00 PM, Saturday 9:00 AM - 1:00 PM, Sunday -",,,
CARLE PLACE OFFICE,,1 OLD COUNTRY RD ,,CARLE PLACE ,NY,11514,United States,,,,"Lobby : Monday 9:00 AM - 4:00 PM, Tuesday 9:00 AM - 4:00 PM, Wednesday 9:00 AM - 4:00 PM, Thursday 9:00 AM - 4:00 PM, Friday 9:00 AM - 4:00 PM, Saturday -, Sunday -,  Drive_Thru : Monday 9:00 AM - 4:00 PM, Tuesday 9:00 AM - 4:00 PM, Wednesday 9:00 AM - 4:00 PM, Thursday 9:00 AM - 4:00 PM, Friday 9:00 AM - 4:00 PM, Saturday -, Sunday -",,,
COMMACK OFFICE,,5880 JERICHO TPKE ,,COMMACK ,NY,11725,United States,,,,"Lobby : Monday 9:00 AM - 4:00 PM, Tuesday 9:00 AM - 4:00 PM, Wednesday 9:00 AM - 4:00 PM, Thursday 9:00 AM - 4:00 PM, Friday 9:00 AM - 4:00 PM, Saturday 9:00 AM - 1:00 PM, Sunday -,  Drive_Thru : Monday 9:00 AM - 4:00 PM, Tuesday 9:00 AM - 4:00 PM, Wednesday 9:00 AM - 4:00 PM, Thursday 9:00 AM - 4:00 PM, Friday 9:00 AM - 4:00 PM, Saturday 9:00 AM - 1:00 PM, Sunday -",,,
GREAT NECK OFFICE,,523 MIDDLE NECK RD ,,GREAT NECK ,NY,11023,United States,,,,"Lobby : Monday 9:00 AM - 4:00 PM, Tuesday 9:00 AM - 4:00 PM, Wednesday 9:00 AM - 4:00 PM, Thursday 9:00 AM - 4:00 PM, Friday 9:00 AM - 4:00 PM, Saturday -, Sunday -,  Drive_Thru : Monday -, Tuesday -, Wednesday -, Thursday -, Friday -, Saturday -, Sunday -",,,
WALT WHITMAN MALL OFFICE,,160 WALT WHITMAN RD # 1083 ,,HUNTINGTN STA ,NY,11746,United States,,,,"Lobby : Monday 9:00 AM - 4:00 PM, Tuesday 9:00 AM - 4:00 PM, Wednesday 9:00 AM - 4:00 PM, Thursday 9:00 AM - 4:00 PM, Friday 9:00 AM - 4:00 PM, Saturday -, Sunday -,  Drive_Thru : Monday -, Tuesday -, Wednesday -, Thursday -, Friday -, Saturday -, Sunday -",,,
