store_name,store_number,address,address2,city,state,zip_code,country,phone_number,latitude,longitude,store_hours,store_type,other_fields,coming_soon
Ingles Markets #503,,1185 N. Main St. ,,Marion ,VA,24354,United States,276-783-5461,,,7:00am - 11:00pm,,,
Ingles Markets #601,,1550 West Main St. ,,Centre ,AL,35960,United States,256-927-6461,,,7:00am - 10:00pm,,,
Ingles Markets #306,,904 S. Main St. ,,Sweetwater ,TN,37874,United States,423-337-6090,,,7:00am - 11:00pm,,,
Ingles Markets #302,,Cumberland Gallery US 33 at 406 S. Broad St. ,,New Tazewell ,TN,37825,United States,423-626-6610,,,6:00am - 12:00am,,,
Ingles Markets #399,,430 Emory Rd. ,,Powell ,TN,37849,United States,865-947-5929,,,Sun: 9:00am - 6:00pm,,,
Ingles Markets #313,,2342 E. Andrew Johnson Hwy. ,,Morristown ,TN,37814,United States,423-586-9388,,,6:00am - 12:00am,,,
Ingles Markets #85,,3980 W. Andrew Johnson Hwy. ,,Morristown ,TN,37814,United States,423-586-4077,,,Sun: 9:00am - 6:00pm,,,
Ingles Markets #87,,4629 Highway 411 ,,Madisonville ,TN,37354,United States,423-442-4944,,,7:00am - 11:00pm,,,
Ingles Markets #71,,404 Highway 321 N ,,Lenoir City ,TN,37771,United States,865-986-0947,,,Sun: 9:00am - 6:00pm,,,
Ingles Markets #307,,215 Cedar Lane ,,Knoxville ,TN,37912,United States,865-688-0821,,,6:00am - 12:00am,,,
Ingles Markets #305,,7220 Norris Fwy ,,Knoxville ,TN,37918,United States,865-922-1672,,,6:00am - 12:00am,,,
Ingles Markets #304,,7466 Oak Ridge Hwy. ,,(Karns) Knoxville ,TN,37931,United States,865-769-8326,,,Sun: 9:00am - 6:00pm,,,
Ingles Markets #72,,4345 Ft. Henry Dr. ,,Kingsport ,TN,37664,United States,423-247-9048,,,Sun: 9:00am - 6:00pm,,,
Ingles Markets #398,,1200 W. Jackson Blvd. ,,Jonesborough ,TN,37659,United States,423-753-9730,,,Sun: 9:00am - 6:00pm,,,
Ingles Markets #249,,1049 East Main Street ,,Westminster ,SC,29693,United States,864-647-4204,,,7:00 am - 11:00 pm,,,
Ingles Markets #111,,225 Charlotte Hwy ,,Asheville ,NC,28803,United States,828-298-2160,,,7:00am - 11:00pm,,,
Ingles Markets #60,,309 W. Henderson St. ,,Marion ,NC,28752,United States,828-652-8588,,,6:00am - 12:00am,,,
Ingles Markets #180,,140 Weaver Blvd. ,,Weaverville ,NC,28787,United States,828-645-7499,,,Sun: 9:00am - 6:00pm,,,
Ingles Markets #23,,201 Barber Blvd. ,,Waynesville ,NC,28786,United States,828-452-7455,,,Sun: 9:00am - 6:00pm,,,
Ingles Markets #109,,802 S. Main Street ,,Walnut Cove ,NC,27052,United States,336-591-5818,,,7:00am - 11:00pm,,,
Ingles Markets #6,,1122 Randolph St. Suite 106 ,,Thomasville ,NC,27360,United States,336-472-4873,,,7:00am - 11:00pm,,,
Ingles Markets #50,,19 Webster Rd. ,,Sylva ,NC,28779,United States,828-586-3343,,,,,,
Ingles Markets #497,,633 N. Main St. ,,Wrens ,GA,30833,United States,706-547-3255,,,7:00am - 10:00pm,,,
Ingles Markets #492,,11078 Millarden Rd. ,,Woodbury ,GA,30293,United States,706-553-9590,,,7:00am - 10:00pm,,,
Ingles Markets #57,,285 N. Broad St. ,,Winder ,GA,30680,United States,770-867-7116,,,Sun: 9:00am - 6:00pm,,,
Ingles Markets #429,,110 Ann Denard Dr ,,Washington ,GA,30673,United States,706-678-4766,,,7:00am - 10:00pm,,,
Ingles Markets #423,,98 Hwy. 61 Connector ,,Villa Rica ,GA,30180,United States,770-459-0223,,,7:00am - 11:00pm,,,
Ingles Markets #408,,300 S Main ,,Trenton ,GA,30752,United States,706-657-7875,,,7:00am - 12:00am,,,
Ingles Markets #436,,757 Big A Rd ,,S Toccoa ,GA,30577,United States,706-886-8575,,,Sun: 9:00am - 6:00pm,,,
Ingles Markets #449,,730 N Church St ,,Thomaston ,GA,30286,United States,706-648-1953,,,Sun: 9:00am - 6:00pm,,,
Ingles Markets #405,,488 Carrollton St ,,Temple ,GA,30179,United States,770-562-2716,,,Sun: 9:00am - 6:00pm,,,
Ingles Markets #82,,60 Ashemont Dr. ,,West Jefferson ,NC,28694,United States,336-219-0016,,,Sun: 9:00am - 6:00pm,,,
Ingles Markets #416,,416 Highway 114 ,,Summerville ,GA,30747,United States,706-857-5977,,,7:00am - 10:00pm,,,
Ingles Markets #421,,4815 Rockbridge Rd. ,,Stone Mountain ,GA,30083,United States,404-299-0698,,,7:00am - 10:00pm,,,
Ingles Markets #467,,3701 Walt Stephens Road ,,Stockbridge ,GA,30281,United States,770-507-1846,,,Sun: 9:00am - 6:00pm,,,
Ingles Markets #453,,1100 Nathan Dean Hwy. ,,Rockmart ,GA,30153,United States,770-684-0445,,,7:00am - 11:00pm,,,
Ingles Markets #101,,5044 Alabama Road ,,Ringgold ,GA,30736,United States,706-935-6450,,,7:00am - 11:00pm,,,
Ingles Markets #474,,5075 Peachtree Pkwy ,,Norcross ,GA,30092,United States,770-448-7876,,,6:00am - 11:00pm,,,
Ingles Markets #496,,2340 Hwy. 16 West ,,Monticello ,GA,31064,United States,706-468-1490,,,7:00am - 10:00pm,,,
Ingles Markets #444,,1441 Eatonton Rd ,,Madison ,GA,30650,United States,706-342-3119,,,Sun: 9:00am - 6:00pm,,,
Ingles Markets #494,,131 US 1 North ByPass ,,Louisville ,GA,30434,United States,478-625-8629,,,7:00am - 10:00pm,,,
Ingles Markets #424,,4555 Atlanta Hwy ,,Loganville ,GA,30052,United States,770-466-0831,,,7:00am - 11:00pm,,,
Ingles Markets #495,,4920 Bill Gardner Parkway ,,Locust Grove ,GA,30248,United States,678-583-8094,,,Sun: 9:00am - 6:00pm,,,
Ingles Markets #402,,650 Rockbridge Rd. ,,Lilburn ,GA,30047,United States,770-381-7318,,,7:00am - 10:00pm,,,
Ingles Markets #404,,1050 Grayson Hwy ,,Lawrenceville ,GA,30045,United States,770-963-9640,,,7:00am - 11:00pm,,,
Ingles Markets #102,,1154 Lawrenceville Hwy. ,,Lawrenceville ,GA,30045,United States,678-985-2732,,,Sun: 9:00am - 6:00pm,,,
Ingles Markets #437,,1449 W. Church St. ,,Jasper ,GA,30143,United States,706-692-2686,,,Sun: 9:00am - 6:00pm,,,
Ingles Markets #499,,1305 W. 3rd St. ,,Jackson ,GA,30233,United States,770-504-0740,,,7:00am - 11:00pm,,,
Ingles Markets #450,,9161 Hwy. 29 ,,Hull ,GA,30646,United States,706-613-1734,,,Sun: 9:00am - 6:00pm,,,
Ingles Markets #483,,94 N. Main St. ,,Hiawassee ,GA,30546,United States,706-896-8312,,,Sun: 9:00am - 6:00pm,,,
Ingles Markets #66,,1000 E. Franklin St. ,,Hartwell ,GA,30643,United States,706-376-3212,,,Sun: 9:00am - 6:00pm,,,
Ingles Markets #457,,1735 Zebulon Rd. ,,Griffin ,GA,30223,United States,770-228-5815,,,Sun: 9:00am - 6:00pm,,,
Ingles Markets #491,,1890 E. Main St. ,,Hogansville ,GA,30230,United States,706-637-9894,,,7:00am - 11:00pm,,,
Ingles Markets #442,,1480 E. Broad St. ,,Greensboro ,GA,30642,United States,706-453-4936,,,7:00am - 10:00pm,,,
Ingles Markets #486,,261 W Clinton St ,,Gray ,GA,31032,United States,478-986-3159,,,Sun: 9:00am - 6:00pm,,,
Ingles Markets #440,,3320 Thompson Bridge Rd. ,,Gainesville ,GA,30501,United States,770-287-1330,,,7:00am - 11:00pm,,,
Ingles Markets #403,,260 Tift College Dr. ,,Forsyth ,GA,31029,United States,478-994-4900,,,7:00am - 10:00pm,,,
Ingles Markets #412,,4260 Winder Highway ,,Flowery Branch ,GA,30542,United States,770-965-8928,,,Sun: 9:00am - 6:00pm,,,
Ingles Markets #443,,135 Hwy. 92 South at GA 85) ,,Fayetteville ,GA,30214,United States,770-460-5973,,,7:00am - 11:00pm,,,
Ingles Markets #409,,100 Old Orchard Square ,,Ellijay ,GA,30540,United States,706-635-7176,,,Sun: 9:00am - 6:00pm,,,
Ingles Markets #445,,100 Fairview Rd. ,,Ellenwood ,GA,30294,United States,770-981-1275,,,7:00am - 11:00pm,,,
Ingles Markets #65,,901 Lower Heard St. ,,Elberton ,GA,30635,United States,706-283-7095,,,Sun: 9:00am - 6:00pm,,,
Ingles Markets #484,,754 Monticello Rd. ,,Eatonton ,GA,31024,United States,706-484-2256,,,7:00am - 10:00pm,,,
Ingles Markets #414,,1817 Dallas Nebo Rd ,,Douglasville ,GA,30134,United States,678-383-8715,,,Sun: 9:00am - 6:00pm,,,
Ingles Markets #432,,2175 Fairburn Rd ,,Douglasville ,GA,30135,United States,770-920-1093,,,7:00am - 11:00pm,,,
Ingles Markets #441,,53 Highway 400 S ,,Dawsonville ,GA,30534,United States,706-216-4180,,,7:00am - 11:00pm,,,
Ingles Markets #89,,270 Merchants Square Dr. ,,Dallas ,GA,30132,United States,770-505-8710,,,7:00am - 11:00pm,,,
Ingles Markets #493,,1221 Dacula Rd. ,,Dacula ,GA,30019,United States,770-237-0016,,,7:00am - 11:00pm,,,
Ingles Markets #456,,2835 Keith Bridge Rd. ,,Cumming ,GA,30040,United States,770-886-1181,,,6:00am - 11:00pm,,,
Ingles Markets #455,,1090 Buford Hwy. ,,Cumming ,GA,30040,United States,678-455-0799,,,Sun: 9:00am - 6:00pm,,,
Ingles Markets #438,,436 Canton Rd. ,,Cumming ,GA,30040,United States,770-889-5868,,,7:00 am - 11:00 pm,,,
Ingles Markets #106,,6055 Bethelview Rd. ,,Cumming ,GA,30040,United States,770-887-2436,,,7:00am - 11:00pm,,,
Ingles Markets #439,,9176 Hwy. 278 NE ,,Covington ,GA,30016,United States,770-787-8129,,,7:00am - 11:00pm,,,
Ingles Markets #61,,199 Habersham County S/C. (US 441) ,,Cornelia ,GA,30531,United States,706-778-8099,,,Sun: 9:00am - 6:00pm,,,
Ingles Markets #469,,2455 Salem Road South East Conyers ,,,GA,30013,United States,770-922-3507,,,Sun: 9:00am - 6:00pm,,,
Ingles Markets #468,,3530 GA Hwy. 20 SE ,,Conyers ,GA,30013,United States,770-483-9139,,,7:00am - 11:00pm,,,
Ingles Markets #419,,220 Highway 334 ,,Commerce ,GA,30529,United States,706-335-4650,,,Sun: 9:00am - 6:00pm,,,
Ingles Markets #489,,55 Helen Highway ,,Cleveland ,GA,30528,United States,706-348-1571,,,Sun: 9:00am - 6:00pm,,,
Ingles Markets #488,,176 Hwy. 441 ,,Clayton ,GA,30525,United States,706-782-3380,,,Sun: 9:00am - 6:00pm,,,
Ingles Markets #428,,199 East Louise St ,,Clarkesville ,GA,30523,United States,706-754-3933,,,Sun: 9:00am - 6:00pm,,,
Ingles Markets #86,,962 G I Maddox Pkwy. ,,Chatsworth ,GA,30705,United States,706-517-7312,,,Sun: 9:00am - 6:00pm,,,
Ingles Markets #476,,825 West Ave. ,,Cartersville ,GA,30120,United States,770-607-5897,,,Sun: 9:00am - 6:00pm,,,
Ingles Markets #76,,879 Joe Frank Harris Pkwy. ,,Cartersville ,GA,30120,United States,770-382-8226,,,Sun: 9:00am - 6:00pm,,,
Ingles Markets #480,,1124 N. Park St. ,,Carrollton ,GA,30117,United States,770-832-8742,,,6:00am - 11:00pm,,,
Ingles Markets #96,,108 Riverstone Pkwy ,,Canton ,GA,30114,United States,770-479-4335,,,6:00am - 11:00pm,,,
Ingles Markets #64,,466 Highway 53 E ,,Calhoun ,GA,30701,United States,706-625-2561,,,7:00am - 10:00pm,,,
Ingles Markets #105,,1031 Alabama Ave. ,,Bremen ,GA,30110,United States,770-537-9501,,,Sun: 9:00am - 6:00pm,,,
Ingles Markets #36,,5679 Appalachian Hwy. ,,Blue Ridge ,GA,30513,United States,706-632-3654,,,Sun: 9:00am - 6:00pm,,,
Ingles Markets #98,,207 B Hwy. 515 ,,Blairsville ,GA,30512,United States,706-745-1700,,,Sun: 9:00am - 6:00pm,,,
Ingles Markets #498,,625 Hwy. 341 South ,,Barnesville ,GA,30204,United States,770-358-6815,,,Sun: 9:00am - 6:00pm,,,
Ingles Markets #451,,1528 Atlanta Hwy. NW ,,Auburn ,GA,30011,United States,770-277-5284,,,Sun: 9:00am - 6:00pm,,,
Ingles Markets #426,,3190 Atlanta Hwy. ,,Athens ,GA,30606,United States,706-548-3515,,,7:00am - 10:00pm,,,
Ingles Markets #411,,5055 Cherokee St. ,,Acworth ,GA,30101,United States,770-975-1947,,,7:00am - 11:00pm,,,
Ingles Markets #34,,2299 U.S. 70 ,,Swannanoa ,NC,28778,United States,828-686-5081,,,Sun: 9:00am - 6:00pm,,,
Ingles Markets #78,,3219 Taylorsville Rd. ,,Statesville ,NC,28625,United States,704-872-1739,,,7:00am - 11:00pm,,,
Ingles Markets #33,,125 Greenwood Rd. ,,Spruce Pine ,NC,28777,United States,828-765-0235,,,Sun: 9:00am - 6:00pm,,,
Ingles Markets #119,,1523 S. Post Rd. ,,Shelby ,NC,28150,United States,704-482-7242,,,7:00am - 10:00pm,,,
Ingles Markets #118,,1305 Fallston Rd. ,,Shelby ,NC,28150,United States,704-480-9616,,,7:00am - 10:00pm,,,
Ingles Markets #12,,1818 W. Dixon Blvd. ,,Shelby ,NC,28150,United States,704-482-7761,,,Sun: 9:00am - 6:00pm,,,
Ingles Markets #131,,2 Sweetwater Rd. ,,Robbinsville ,NC,28771,United States,828-479-6748,,,7:00am - 10:00pm,,,
Ingles Markets #83,,NC 194 at Vale Rd. ,,Newland ,NC,28657,United States,828-733-6086,,,7:00am - 11:00pm,,,
Ingles Markets #25,,2060 U.S. 19 ,,Murphy ,NC,28906,United States,828-837-5553,,,6:00am - 11:00pm,,,
Ingles Markets #129,,1227 Burkemont Ave ,,Morganton ,NC,28655,United States,828-437-4071,,,7:00am - 11:00pm,,,
Ingles Markets #452,,7173 Turner Lake Rd. ,,Covington ,GA,30014,United States,770-787-8231,,,7:00am - 11:00pm,,,
Ingles Markets #120,,120 Carbon City Rd. ,,Morganton ,NC,28655,United States,828-437-3833,,,Sun: 9:00am - 6:00pm,,,
Ingles Markets #133,,3338 Boylston Hwy ,,Mills River ,NC,28759,United States,828-890-8159,,,Sun: 9:00am - 6:00pm,,,
Ingles Markets #28,,5580 Hwy. 25/70 ,,Marshall ,NC,28753,United States,828-649-1636,,,Sun: 9:00am - 6:00pm,,,
Ingles Markets #80,,225 Carl Eller Rd ,,Mars Hill ,NC,28754,United States,828-680-9569,,,Sun: 9:00am - 6:00pm,,,
Ingles Markets #148,,2130 East Main Street ,,Lincolnton ,NC,28092,United States,704-735-2791,,,Sun: 9:00am - 6:00pm,,,
Ingles Markets #147,,2111 Shelby Road ,,Kings Mountain ,NC,28086,United States,704-739-2350,,,Sun: 9:00am - 6:00pm,,,
Ingles Markets #179,,3643 Howard Gap Rd. (at Hwy 64) ,,Hendersonville ,NC,28792,United States,828-698-2592,,,Sun: 9:00am - 6:00pm,,,
Ingles Markets #104,,1705 Brevard Rd ,,Hendersonville ,NC,28791,United States,828-693-6371,,,7:00am - 11:00pm,,,
Ingles Markets #77,,625 Spartanburg Hwy ,,Hendersonville ,NC,28739,United States,828-694-3746,,,Sat: 9:00am - 6:00. Sun: 9:00am - 6:00.,,,
Ingles Markets #11,,1980 Asheville Hwy ,,Hendersonville ,NC,28792,United States,828-698-1116,,,Sun: 9:00am - 6:00pm,,,
Ingles Markets #116,,230 Highway 64 ,,Hayesville ,NC,28904,United States,828-389-2804,,,Sun: 9:00am - 6:00pm,,,
Ingles Markets #121,,2630 Connelly Springs Rd. ,,Granite Falls ,NC,28630,United States,828-726-6027,,,Sun: 9:00am - 6:00pm,,,
Ingles Markets #132,,4501 Highway 441 Byp ,,Franklin ,NC,28734,United States,828-524-5011,,,7:00am - 11:00pm,,,
Ingles Markets #114,,398 Westgate Rd. ,,Franklin ,NC,28734,United States,828-524-9321,,,7:00am - 11:00pm,,,
Ingles Markets #14,,152 West Palmer St. ,,Franklin ,NC,28734,United States,828-524-5616,,,7:00am - 11:00pm,,,
Ingles Markets #27,,756 S Church St ,,Forest City ,NC,28043,United States,828-245-0786,,,Sun: 9:00am - 6:00pm,,,
Ingles Markets #43,,2901 Hendersonville Rd. ,,Fletcher ,NC,28732,United States,828-684-2838,,,Sun: 9:00am - 6:00pm,,,
Ingles Markets #177,,220 North Highland Lake Road ,,Flat Rock ,NC,28731,United States,828-692-0546,,,Sun: 9:00am - 6:00pm,,,
Ingles Markets #63,,6400 Brevard Rd. ,,Etowah ,NC,28729,United States,828-891-0089,,,7:00am - 11:00pm,,,
Ingles Markets #146,,715 W Trade St ,,Dallas ,NC,28034,United States,704-922-7187,,,Sun: 9:00am - 6:00pm,,,
Ingles Markets #127,,276 Nc Highway 9 ,,Lake Lure ,NC,28746,United States,828-625-0748,,,Sun: 9:00am - 6:00pm,,,
Ingles Markets #110,,Highway 64 East ,,Cashiers ,NC,28717,United States,828-743-6312,,,Sat and Sun: 9:00am - 6:00pm,,,
Ingles Markets #55,,630 Champion Dr. ,,Canton ,NC,28716,United States,828-235-2795,,,Sun: 9:00am - 7:00pm,,,
Ingles Markets #134,,1572 Sand Hill Road ,,Candler ,NC,28715,United States,828-665-4976,,,Sun: 9:00am - 6:00pm,,,
Ingles Markets #13,,400 E US Hwy 19 ,,Burnsville ,NC,28714,United States,828-682-7636,,,Sun: 9:00am - 6:00pm,,,
Ingles Markets #35,,19/23 at Hughes Branch Rd. ,,Bryson City ,NC,28713,United States,828-488-6600,,,7:00am - 10:00pm,,,
Ingles Markets #67,,684 N. Broad St. ,,Brevard ,NC,28712,United States,828-883-2358,,,Sun: 9:00am - 6:00pm,,,
Ingles Markets #84,,2575 Hwy 105 ,,Boone ,NC,28607,United States,828-265-1913,,,7:00am - 11:00pm,,,
Ingles Markets #117,,214 N. Main St. ,,Boiling Springs ,NC,28017,United States,704-434-0096,,,7:00am - 10:00pm,,,
Ingles Markets #8,,550 Hwy. 9 ,,Black Mountain ,NC,28711,United States,828-669-6700,,,7:00am - 11:00pm,,,
Ingles Markets #46,,1205 Gastonia Hwy ,,Bessemer City ,NC,28016,United States,704-629-2326,,,7:00am - 10:00pm,,,
Ingles Markets #115,,2095 N. Bridge St. ,,Elkin ,NC,28621,United States,336-526-2942,,,7:00am - 10:00pm,,,
Ingles Markets #24,,863 Brevard Road ,,Asheville ,NC,28806,United States,828-665-9361,,,Sun: 9:00am - 6:00pm,,,
Ingles Markets #79,,780 Hendersonville Rd. ,,Asheville ,NC,28803,United States,828-277-7466,,,Sun: 9:00am - 6:00pm,,,
Ingles Markets #62,,575 New Leicester Hwy ,,Asheville ,NC,28806,United States,828-225-2756,,,Sun: 9:00am - 6:00pm,,,
Ingles Markets #31,,153 Smokey Park Hwy ,,Asheville ,NC,28806,United States,828-667-9306,,,7:00am - 11:00pm,,,
Ingles Markets #30,,1865 Hendersonville Rd. ,,Asheville ,NC,28803,United States,828-274-1328,,,Sun: 9:00am - 6:00pm,,,
Ingles Markets #22,,499 Weaverville Rd. ,,Asheville ,NC,28804,United States,828-645-4521,,,7:00am - 11:00pm,,,
Ingles Markets #7,,29 Tunnel Rd. ,,Asheville ,NC,28805,United States,828-255-4612,,,Sun: 9:00 - 6:00pm,,,
Ingles Markets #5,,669 Haywood Rd. ,,Asheville ,NC,28806,United States,828-259-9268,,,7:00am - 11:00pm,,,
Ingles Markets #4,,1141 Tunnel Rd. ,,Asheville ,NC,28805,United States,828-298-1425,,,Sat: 9:00am - 6:00. Sun: 9:00am - 6:00.,,,
Ingles Markets #3,,915 Merrimon Ave. ,,Asheville ,NC,28804,United States,828-255-8949,,,Sun: 9:00am - 6:00pm,,,
Ingles Markets #2,,7 Leicester Hwy. ,,Asheville ,NC,28806,United States,828-253-2005,,,6:00am - 12:00am,,,
Ingles Markets #130,,301 Long Shoals Road ,,Arden ,NC,28704,United States,828-684-9019,,,Sun: 9:00am - 6:00pm,,,
Ingles Markets #47,,US 19 129 (Main St.) ,,Andrews ,NC,28901,United States,828-321-5448,,,7:00am - 10:00pm,,,
Ingles Markets #100,,636 NC 24 27 Byp E ,,Albemarle ,NC,28001,United States,704-982-4645,,,7:00am - 11:00pm,,,
Ingles Markets #49,,180 Scenic Plaza Dr ,,West Union ,SC,29691,United States,864-638-3976,,,Sun: 9:00am - 6:00pm,,,
Ingles Markets #206,,1500 Geer Hwy. ,,Travelers Rest ,SC,29690,United States,864-834-4409,,,Sun: 9:00am - 6:00pm,,,
Ingles Markets #204,,8004 Warren H Abernathy Hwy ,,Spartanburg ,SC,29301,United States,864-574-3130,,,Sun: 9:00am - 6:00pm,,,
Ingles Markets #202,,2375 Chesnee Hwy. ,,Spartanburg ,SC,29303,United States,864-573-9408,,,Sun: 9:00am - 6:00pm,,,
Ingles Markets #201,,2120 Boiling Springs Rd. ,,Spartanburg ,SC,29316,United States,864-599-0668,,,Sun: 9:00am - 6:00pm,,,
Ingles Markets #45,,2000 S. Pine St. ,,Spartanburg ,SC,29302,United States,864-542-1426,,,Sun: 9:00am - 6:00pm,,,
Ingles Markets #38,,2795 E. Main St. ,,Spartanburg ,SC,29307,United States,864-579-4450,,,7:00am - 11:00pm,,,
Ingles Markets #37,,8650 Asheville Hwy ,,Spartanburg ,SC,29302,United States,864-578-6243,,,Sun: 9:00am - 6:00pm,,,
Ingles Markets #41,,621 Fairview Rd. ,,Simpsonville ,SC,29681,United States,864-967-7890,,,7:00am - 10:00pm,,,
Ingles Markets #94,,211 Ingles 76/123 & SC 28/130 ,,Place Seneca ,SC,29678,United States,864-886-0615,,,Sun: 9:00am - 6:00pm,,,
Ingles Markets #73,,10903 Anderson Rd. ,,Powdersville ,SC,29673,United States,864-295-2200,,,7:00am - 11:00pm,,,
Ingles Markets #29,,7616 Augusta Rd ,,Piedmont ,SC,29673,United States,864-277-5082,,,7:00am - 10:00pm,,,
Ingles Markets #42,,116 W. Butler Rd. ,,Mauldin ,SC,29662,United States,864-288-5374,,,7:00 AM - 11:00 PM,,,
Ingles Markets #17,,502-A Ann St. ,,Pickens ,SC,29671,United States,864-878-2464,,,Sun: 9:00am - 6:00pm,,,
Ingles Markets #253,,429 East Main St. ,,Liberty ,SC,29657,United States,864-843-9326,,,Sun: 9:00am - 6:00pm,,,
Ingles Markets #44,,901 East Main St ,,Laurens ,SC,29360,United States,864-984-1492,,,Sun: 9:00am - 6:00pm,,,
Ingles Markets #205,,1851 Hwy. 14E (at I-26) ,,Landrum ,SC,29356,United States,864-457-4598,,,Sun: 9:00am - 6:00pm,,,
Ingles Markets #200,,4600 Hwy 9 ,,Inman ,SC,29349,United States,864-814-3643,,,Sun: 9:00am - 6:00pm,,,
Ingles Markets #208,,1524 Locust Hill Road ,,Greer ,SC,29651,United States,864-801-3508,,,Sun: 9:00am - 6:00pm,,,
Ingles Markets #74,,6605 White Horse Rd ,,Greenville ,SC,29602,United States,864-246-5507,,,7:00am - 10:00pm,,,
Ingles Markets #32,,1335 Stallings Rd. ,,Greenville ,SC,29609,United States,864-322-2813,,,Sun: 9:00am - 6:00pm,,,
Ingles Markets #69,,1500 Poinsett Hwy. ,,Greenville ,SC,29609,United States,864-235-7183,,,Sun: 9:00am - 6:00pm,,,
Ingles Markets #203,,410 W. Third St. ,,Gaffney ,SC,29340,United States,864-487-5661,,,7:00am - 10:00pm,,,
Ingles Markets #15,,1627 W. Floyd Baker Blvd. ,,Gaffney ,SC,29340,United States,864-489-2479,,,7:00am - 11:00pm,,,
Ingles Markets #251,,410 Pelzer Hwy. (at SC 8) ,,Easley ,SC,29640,United States,864-855-6856,,,Sun: 9:00am - 6:00pm,,,
Ingles Markets #51,,5251 Calhoun Memorial Hwy ,,Easley ,SC,29642,United States,864-855-0176,,,Sun: 9:00am - 6:00pm,,,
Ingles Markets #93,,2120 E. Main St. ,,Duncan ,SC,29334,United States,864-433-0422,,,Sun: 9:00am - 6:00pm,,,
Ingles Markets #68,,312 Jacobs Hwy. ,,Clinton ,SC,29325,United States,864-833-4173,,,7:00am - 11:00pm,,,
Ingles Markets #16,,426 S. Main St. ,,Belton ,SC,29627,United States,864-338-3184,,,Sun: 9:00am - 6:00pm,,,
Ingles Markets #53,,854 Highway 93 ,,Clemson ,SC,29631,United States,864-654-3094,,,Sun: 9:00am - 6:00pm,,,
Ingles Markets #240,,2404 Hwy. 81 (at Oak Hill Rd) ,,Anderson ,SC,29621,United States,864-225-8196,,,7:00am - 11:00pm,,,
Ingles Markets #239,,1900 N. Main St. ,,Anderson ,SC,29621,United States,864-716-0077,,,Sun: 9:00am - 6:00pm,,,
Ingles Markets #39,,4396 Hwy. 24 at Whitehall Rd. ,,Anderson ,SC,29626,United States,864-226-2398,,,Sun: 9:00am - 6:00pm,,,
Ingles Markets #56,,1503 N. Main St. ,,Abbeville ,SC,29620,United States,864-459-4413,,,7:00am - 11:00pm,,,
Ingles Markets #372,,4470 N. Roan St. ,,Johnson City ,TN,37604,United States,423-282-0055,,,Sun: 9:00am - 6:00pm,,,
Ingles Markets #301,,Valley Plaza US 41 at East Valley Rd. ,,Jasper ,TN,37347,United States,423-942-2269,,,7:00am - 10:00pm,,,
Ingles Markets #70,,2845 E. Andrew Johnson Hwy. ,,Greeneville ,TN,37745,United States,423-638-7021,,,Sun: 9:00am - 6:00pm,,,
Ingles Markets #21,,615 Asheville Hwy ,,Greeneville ,TN,37743,United States,423-639-6873,,,6:00am - 12:00am,,,
Ingles Markets #91,,11847 Kingston Pike ,,Farragut ,TN,37934,United States,865-777-2469,,,Sun: 9:00am - 6:00pm,,,
Ingles Markets #397,,768 W. Elk Ave. ,,Elizabethton ,TN,37643,United States,423-542-2002,,,Sun: 9:00am - 6:00pm,,,
Ingles Markets #9,,190 Clinch Ave ,,Clinton ,TN,37716,United States,865-457-1611,,,7:00am - 11:00pm,,,
Ingles Markets #88,,917 Decatur Pike ,,Athens ,TN,37303,United States,423-744-1085,,,Sun: 9:00am - 6:00pm,,,
