store_name,store_number,address,address2,city,state,zip_code,country,phone_number,latitude,longitude,store_hours,store_type,other_fields,coming_soon
007 - Timewise Food Store / Shell,,1336 Crosstimbers I-45 ,,Houston ,TX,77022,United States,713-699-9086,,,,,,
008 - Timewise Food Store / Exxon,,11236 Highway 105 ,,Montgomery ,TX,77356,United States,936-588-3300,,,,,,
020 - Timewise Food Store / Exxon,,6305 Highway 90-A ,,Sugar Land ,TX,77479,United States,281-565-1051,,,,,,
028 - Timewise Food Store / Shell,,11290 Fondren ,,Houston ,TX,77071,United States,713-270-4543,,,,,,
030 - Timewise Food Store / Shell,,1001 FM 1764 ,,LaMarque ,TX,77568,United States,409-986-6881,,,,,,
031 - Timewise Food Store / Mobil,,9530 Westheimer ,,Houston ,TX,77063,United States,713-266-8629,,,,,,
032 - Timewise Food Store / Shell,,6155 Southwest Frwy ,,Houston ,TX,77057,United States,713-660-0502,,,,,,
033 - Timewise Food Store / Mobil,,1274 FM 2759 ,,Richmond ,TX,77469,United States,281-343-0350,,,,,,
034 - Timewise Food Store / Valero,,402 Highway 146 ,,Texas City ,TX,77590,United States,409-945-0959,,,,,,
038 - Timewise Food Store / Shell,,1484 Hwy 6 South ,,Sugar Land ,TX,77479,United States,281-265-5545,,,,,,
040 - Timewise Food Store / Exxon,,1000 W. FM 1097 ,,Willis ,TX,77318,United States,936-856-2600,,,,,,
041 - Timewise Food Store / Shell,,90 Hollow Tree Lane ,,Houston ,TX,77090,United States,281-397-0950,,,,,,
042 - Timewise Food Store / Shell,,17902 FM 2920 ,,Tomball ,TX,77375,United States,281-351-1071,,,,,,
043 - Timewise Food Store / Shell,,11355 FM 2920 ,,Tomball ,TX,77375,United States,281-516-0309,,,,,,
044 - Timewise Food Store / Shell,,17255 FM Road 1093 ,,Houston ,TX,77082,United States,281-277-6333,,,,,,
045 - Timewise Food Store / Shell,,1402 Eldridge Pkwy ,,Houston ,TX,77077,United States,281-759-1255,,,,,,
046 - Timewise Food Store / Shell,,9955 State Hwy 6 ,,Missouri City ,TX,77545,United States,281-431-0104,,,,,,
047 - Timewise Food Store / Shell,,20607 Westheimer Pkwy ,,Katy ,TX,77450,United States,281-398-2175,,,,,,
048 - Timewise Food Store / Shell,,955 U.S. Hwy 90 A ,,East Bernard ,TX,77435,United States,979-335-6373,,,,,,
050 - Timewise Food Store / Exxon,,2025 FM 359 ,,Richmond ,TX,77469,United States,281-344-9944,,,,,,
051 - Timewise Food Store / Shell,,6944 Cypresswood Drive ,,Spring ,TX,77379,United States,281-376-3421,,,,,,
052 - Timewise Food Store / Shell,,12600 FM 1764 ,,Santa Fe ,TX,77510,United States,409-925-4048,,,,,,
053 - Timewise Food Store / Shell,,2001 Genoa-Red Bluff Road ,,Pasadena ,TX,77505,United States,281-998-2718,,,,,,
054 - Timewise Food Store / Mobil,,3002 East Main Street ,,Madisonville ,TX,77864,United States,936-348-9640,,,,,,
055 - Timewise Food Store / Shell,,14106 W. Lake Houston Pkwy ,,Houston ,TX,77044,United States,281-454-4664,,,,,,
057 - Timewise Food Store / Shell,,20626 FM 1093 ,,Katy ,TX,77450,United States,281-492-7432,,,,,,
058 - Timewise Food Store / Exxon,,20022 FM 2920 ,,Hockley ,TX,77447,United States,281-351-6460,,,,,,
059 - Timewise Food Store / Shell,,11000 E. Davis ,,Conroe ,TX,77301,United States,936-441-3195,,,,,,
060 - Timewise Food Store / Shell,,709 N. LaGrange ,,Flatonia ,TX,78941,United States,361-865-9399,,,,,,
061 - Timewise Food Store / Exxon,,25200 I10 West # 1 ,,San Antonio ,TX,78257,United States,210-698-0909,,,,,,
062 - Timewise Food Store / Valero,,2416 North Main ,,Junction ,TX,76849,United States,325-446-8740,,,,,,
063 - Timewise Food Store / Mobil,,8852 Killam Industrial Blvd ,,Laredo ,TX,78045,United States,956-717-8552,,,,,,
064 - Timewise Food Store / Exxon,,15900 N. Interstate 35 ,,Austin ,Texas,78728,United States,512-989-6366,,,,,,
066 - Timewise Food Store / Exxon,,4225 Sienna Parkway Suite 100 ,,Missouri City ,TX,77459,United States,281-778-6963,,,,,,
068 - Timewise Food Store / Exxon,,4420 Zapata Highway Suite 100 ,,Laredo ,TX,78046,United States,956-722-1340,,,,,,
069 - Timewise Food Store / Exxon,,3000 College Park Drive ,,Conroe ,Texas,77384,United States,936-321-6050,,,,,,
070 - Timewise Food Store / Exxon,,13259 Westheimer Eldridge ,,Houston ,TX,77077,United States,281-759-7101,,,,,,
072 - Timewise Food Store / Exxon,,2539 Bissonnet Kirby ,,Houston ,TX,77005,United States,713-529-0577,,,,,,
073 - Timewise Food Store / Exxon,,1002 Montrose W. ,,Dallas Houston ,TX,77019,United States,713-523-0516,,,,,,
074 - Timewise Food Store / Exxon,,11101 S. Sam Houston Pkwy ,,Houston ,TX,77089,United States,281-464-9611,,,,,,
075 - Timewise Food Store / Mobil,,9805 South Main Loop 610 ,,Houston ,TX,77025,United States,713-668-3400,,,,,,
076 - Timewise Food Store / Exxon,,9303 Katy Freeway Echo Lane ,,Houston ,TX,77024,United States,713-461-6541,,,,,,
077 - Timewise Food Store / Exxon,,19707 I-45 North ,,Spring ,TX,77388,United States,281-350-5466,,,,,,
078 - Timewise Food Store / Mobil,,1200 League Line Road IH45 ,,Conroe ,TX,77303,United States,936-890-2550,,,,,,
079 - Timewise Food Store / Mobil,,20120 US Hwy. 59 FM1485 ,,New Caney ,TX,77357,United States,281-399-3222,,,,,,
086 - Timewise Food Store / Shell,,9510 Wurzbach Road ,,San Antonio ,TX,78240,United States,210-593-0742,,,,,,
089 - Timewise Food Store / Shell,,13363 Blanco Road ,,San Antonio ,TX,78216,United States,210-492-0514,,,,,,
099 - Timewise Food Store / Shell,,5815 South Pan Am Exp. ,,San Antonio ,TX,78211,United States,210-923-1249,,,,,,
107 - Timewise Food Store / Shell,,25645 Westheimer Pkwy ,,Katy ,TX,77450,United States,281-395-1190,,,,,,
112 - Timewise Food Store / Shell,,8107 NW Loop 1604 Shanefield ,,San Antonio ,TX,78254,United States,210-688-9283,,,,,,
113 - Timewise Food Store / Shell,,2128 Sidney Baker ,,Kerrville ,TX,78028,United States,830-896-3522,,,,,,
114 - Timewise Food Store / Shell,,1909 Kelly Lane ,,Pflugerville ,Texas,78660,United States,512-251-2515,,,,,,
115 - Timewise Food Store / Exxon,,2909 Rayford Rd Suite B ,,Spring ,TX,,United States,832-813-0711,,,,,,
116 - Timewise Food Store / Shell,,12902 Telge & Jarvis ,,Cypress ,TX,77429,United States,281-373-0113,,,,,,
117 - Timewise Food Store / Shell,,511 Lockwood Drive ,,Navigation ,,,United States,713-928-3196,,,,,,
118 - Timewise Food Store / Exxon,,9003 FM 723 ,,Richmond ,TX,77406,United States,281-232-3823,,,,,,
120 - Timewise Food Store / Exxon,,3350 County Road 59 Hwy 288 ,,Pearland ,TX,77578,United States,281-489-1457,,,,,,
121 - Timewise Food Store / Exxon,,4007 FM 1463 Corbitt Rd ,,Katy ,TX,77494,United States,281-665-2206,,,,,,
122 - Timewise Food Store / Exxon,,26150 Katy Freeway FM 1463 ,,Katy ,TX,77494,United States,281-371-3776,,,,,,
124 - Timewise Food Store / Mobil,,8495 South Sam Houston Pkwy E ,,Houston ,Texas,77089,United States,713-987-9304,,,,,,
125 - Timewise Food Store / Exxon,,18335 Gulf Freeway ,,Webster ,TX,77598,United States,281-218-6005,,,,,,
126 - Timewise Food Store / Shell,,3249 Riley Fuzzel Rd ,,Spring ,TX,77386,United States,281-907-0014,,,,,,
130 - Timewise Food Store / Exxon,,800 Louis Henna Blvd ,,Round Rock ,Texas,,United States,512-255-2944,,,,,,
200 - Timewise Food Store / Shell,,1750 Williams Trace Blvd ,,Sugar Land ,TX,77479,United States,281-494-7589,,,,,,
201 - Timewise Food Store / Shell,,8435 FM 1960 ,,Humble ,TX,77338,United States,281-446-3406,,,,,,
203 - Timewise Food Store / Shell,,13290 Northwest Fwy ,,Houston ,TX,77080,United States,713-460-3427,,,,,,
204 - Timewise Food Store / Shell,,10500 GOSLING ROAD ,,The Woodlands ,TX,77381,United States,281-364-8908,,,,,,
205 - Timewise Food Store / Shell,,104 S. Gulf Freeway West Main ,,League City ,TX,77573,United States,281-316-5969,,,,,,
206 - Timewise Food Store / Shell,,535 FM 1960 ,,Houston ,TX,77073,United States,281-821-9510,,,,,,
207 - Timewise Food Store / Shell,,3318 NORTH PARK ,,Kingwood ,TX,77339,United States,281-360-6828,,,,,,
208 - Timewise Food Store / Shell,,7501 FM 1960 EAST ,,Humble ,TX,77346,United States,281-812-4136,,,,,,
209 - Timewise Food Store / Shell,,5910 WEST LOOP SOUTH ,,Bellaire ,TX,77401,United States,713-666-6326,,,,,,
212 - Timewise Food Store / Shell,,28055 I-45 NORTH ,,The Woodlands ,TX,77380,United States,281-364-8847,,,,,,
214 - Timewise Food Store / Shell,,18040 US HIGHWAY 59 ,,Humble ,TX,77338,United States,281-540-1092,,,,,,
216 - Timewise Food Store / Shell,,2202 EAST MAIN STREET ,,LEAGUE CITY ,TX,77573,United States,281-316-2245,,,,,,
217 - Timewise Food Store / Shell,,3936 KIRBY DRIVE ,,Houston ,TX,77098,United States,713-529-9536,,,,,,
218 - Timewise Food Store / Shell,,1003 FM 1960 EAST BYPASS ,,Humble ,TX,77338,United States,281-446-4761,,,,,,
219 - Timewise Food Store / Shell,,5103 FM 1960 WEST ,,Houston ,TX,77069,United States,281-583-0119,,,,,,
221 - Timewise Food Store / Shell,,105 FM 517 W ,,DICKINSON ,TX,77539,United States,281-309-9988,,,,,,
223 - Timewise Food Store / Shell,,13102 MURPHY ROAD ,,STAFFORD ,TX,77477,United States,281-565-6495,,,,,,
224 - Timewise Food Store / Shell,,20111 US HIGHWAY 59 ,,NEW CANEY ,TX,77357,United States,281-399-0153,,,,,,
225 - Timewise Food Store / Shell,,14002 MEMORIAL DRIVE ,,Houston ,TX,77079,United States,281-497-3191,,,,,,
226 - Timewise Food Store / Shell,,2995 DULLES AVENUE ,,MISSOURI CITY ,TX,77459,United States,281-208-9786,,,,,,
227 - Timewise Food Store / Shell,,24549 LOOP 494 ,,KINGWOOD ,TX,77339,United States,281-358-6590,,,,,,
228 - Timewise Food Store / Shell,,25103 INTERSTATE 45 ,,Spring ,TX,77373,United States,281-363-9790,,,,,,
229 - Timewise Food Store / Shell,,110 EAST LOUETTA ,,Spring ,TX,77373,United States,281-528-7740,,,,,,
230 - Timewise Food Store / Shell,,7800 RESEARCH FOREST ,,The Woodlands ,TX,77382,United States,281-298-6167,,,,,,
231 - Timewise Food Store / Shell,,535 FRY ROAD ,,KATY ,TX,77450,United States,281-647-6849,,,,,,
232 - Timewise Food Store / Shell,,10522 BROADWAY ST ,,PEARLAND ,TX,77584,United States,713-436-6930,,,,,,
233 - Timewise Food Store / Shell,,19999 KATY FREEWAY ,,Houston ,TX,77094,United States,281-647-0766,,,,,,
234 - Timewise Food Store / Shell,,3939 SOUTHWEST FRWY ,,Houston ,TX,77027,United States,713-850-8646,,,,,,
235 - Timewise Food Store / Shell,,200 SOUTH LOOP 336 WEST ,,CONROE ,TX,77304,United States,936-441-1144,,,,,,
236 - Timewise Food Store / Shell,,4655 RESEARCH FOREST DRIVE ,,The Woodlands ,TX,77381,United States,281-364-7554,,,,,,
237 - Timewise Food Store / Shell,,2525 SOUTHWEST FWY ,,Houston ,TX,77098,United States,713-523-6402,,,,,,
238 - Timewise Food Store / Shell,,1632 SOUTH VOSS ,,Houston ,TX,77057,United States,713-706-3975,,,,,,
239 - Timewise Food Store / Shell,,10330 BISSONNET ,,Houston ,TX,77099,United States,281-933-8932,,,,,,
240 - Timewise Food Store / Shell,,11639 KATY FWY ,,Houston ,TX,77079,United States,281-497-7161,,,,,,
241 - Timewise Food Store / Shell,,8525 KATY FREEWAY ,,Houston ,TX,77024,United States,713-467-0504,,,,,,
242 - Timewise Food Store / Shell,,21901 KATY FREEWAY ,,KATY ,TX,77450,United States,281-392-9616,,,,,,
243 - Timewise Food Store / Shell,,1101 KINGWOOD DRIVE ,,KINGWOOD ,TX,77339,United States,281-358-6124,,,,,,
244 - Timewise Food Store / Shell,,5498 FAIRMONT PARKWAY ,,PASADENA ,TX,77505,United States,281-991-9100,,,,,,
245 - Timewise Food Store / Shell,,25029 INTERSTATE 45 ,,Spring ,TX,77380,United States,281-363-1863,,,,,,
248 - Timewise Food Store / Shell,,4105 COLLEGE PARK DRIVE ,,The Woodlands ,TX,77384,United States,936-321-9305,,,,,,
251 - Timewise Food Store / Shell,,7100 GARTH RD ,,Baytown ,TX,77521,United States,281-421-1213,,,,,,
253 - Timewise Food Store / Shell,,8 CENTER STREET ,,Deer Park ,TX,77536,United States,281-478-6517,,,,,,
255 - Timewise Food Store / Shell,,9970 Bellaire BLVD ,,Houston ,TX,77036,United States,713-774-3711,,,,,,
257 - Timewise Food Store / Shell,,8335 HIGHWAY 6 SOUTH ,,Houston ,TX,77083,United States,281-879-4255,,,,,,
258 - Timewise Food Store / Shell,,2747 HIGHWAY 6 ,,Houston ,TX,77082,United States,281-496-6011,,,,,,
259 - Timewise Food Store / Shell,,15655 SPACE CTR ,,Houston ,TX,77062,United States,281-480-4014,,,,,,
261 - Timewise Food Store / Shell,,4406 E SAM Houston PKWY ,,Houston ,TX,77015,United States,281-452-9605,,,,,,
262 - Timewise Food Store / Shell,,11110 WESTHEIMER ,,Houston ,TX,77042,United States,713-782-1471,,,,,,
263 - Timewise Food Store / Shell,,110 W RANKIN RD ,,Houston ,TX,77090,United States,281-875-8207,,,,,,
264 - Timewise Food Store / Shell,,3615 TIDWELL ,,Houston ,TX,77093,United States,713-695-2509,,,,,,
265 - Timewise Food Store / Shell,,2602 W LOOP SOUTH ,,Houston ,TX,77027,United States,713-960-9183,,,,,,
267 - Timewise Food Store / Shell,,14703 MEMORIAL ,,Houston ,TX,77079,United States,281-493-2152,,,,,,
268 - Timewise Food Store / Shell,,19520 HIGHWAY 59 ,,Humble ,TX,77338,United States,281-446-3129,,,,,,
269 - Timewise Food Store / Shell,,25120 INTERSTATE 45 ,,Spring ,TX,77386,United States,281-367-5773,,,,,,
271 - Timewise Food Store / Shell,,15145 Southwest Fwy ,,Sugar Land ,TX,77478,United States,281-494-0654,,,,,,
272 - Timewise Food Store / Shell,,3300 Hwy 6 South Williams Trace ,,Sugar Land ,TX,77478,United States,281-494-0609,,,,,,
273 - Timewise Food Store / Shell,,3650 S HIGHWAY 6 ,,Sugar Land ,TX,77478,United States,281-494-0648,,,,,,
275 - Timewise Food Store / Shell,,1395 MANY PINES RD ,,The Woodlands ,TX,77380,United States,281-363-1457,,,,,,
277 - Timewise Food Store / Shell,,16760 HIGHWAY 3 ,,WEBSTER ,TX,77598,United States,281-338-2122,,,,,,
278 - Timewise Food Store / Shell,,15476 HIGHWAY 105 WEST ,,MONTGOMERY ,TX,77356,United States,936-447-3030,,,,,,
279 - Timewise Food Store / Shell,,17510 MORRIS AVENUE ,,MANVEL ,TX,77578,United States,281-692-9794,,,,,,
280 - Timewise Food Store / Shell,,3535 FM 762 ,,RICHMOND ,TX,77469,United States,281-341-7588,,,,,,
281 - Timewise Food Store / Shell,,4700 HWY 59N ,,SHEPHERD ,TX,77371,United States,936-628-6404,,,,,,
282 - Timewise Food Store / Shell,,7604 E FWY ,,Houston ,TX,77020,United States,713-674-3615,,,,,,
284 - Timewise Food Store / Shell,,4140 Spring Green Blvd ,,Katy ,TX,77497,United States,281-391-7443,,,,,,
285 - Timewise Food Store / Shell,,9630 Spring Green Blvd ,,Katy ,TX,77494,United States,281-391-0391,,,,,,
286 - Timewise Food Store / Shell,,12907 Fry Road ,,Cypress ,TX,77433,United States,281-373-9700,,,,,,
287 - Timewise Food Store / Shell,,13435 University Blvd ,,Sugar Land ,TX,77479,United States,281-565-3889,,,,,,
289 - Timewise Food Store / Shell,,8253 Louetta ,,Spring ,Texas,77379,United States,281-370-2685,,,,,,
290 - Timewise Food Store / Shell,,24102 Kuykendahl ,,Tomball ,TX,77375,United States,281-351-5411,,,,,,
291 - Timewise Food Store / Shell,,9641 Cypresswood Drive ,,Houston ,TX,77070,United States,281-444-3002,,,,,,
292 - Timewise Food Store / Shell,,306 FM 359 ,,Brookshire ,TX,77423,United States,281-934-1012,,,,,,
293 - Timewise Food Store / Shell,,26149-A Katy Freeway FM 1463 ,,Katy ,TX,77494,United States,281-665-1183,,,,,,
294 - Timewise Food Store / Shell,,20449 FM 529 ,,Katy ,TX,77449,United States,281-463-6549,,,,,,
296 - Timewise Food Store / Shell,,7803 W Grand Parkway S ,,Richmond ,TX,77407,United States,281-232-2456,,,,,,
297 - Timewise Food Store / Shell,,2503 Almeda-Genoa ,,Houston ,TX,77047,United States,713-433-3872,,,,,,
298 - Timewise Food Store / Shell,,10902 Fry Rd ,,Cypress ,TX,77433,United States,281-213-3268,,,,,,
299 - Timewise Food Store / Shell,,6750 FM 1463 ,,Fulshear ,TX,77441,United States,281-533-0735,,,,,,
300 - Timewise Food Store / Shell,,2620 FM 1463 ,,Katy ,TX,77494,United States,281-391-0002,,,,,,
303 - Timewise Food Store / Shell,,18725 University Blvd ,,Sugar Land ,TX,77479,United States,281-565-1397,,,,,,
304 - Timewise Food Store / Shell,,25833 Cinco Ranch Blvd ,,Katy ,TX,77494,United States,281-574-3300,,,,,,
305 - Timewise Food Store / Shell,,30430 FM 1093 ,,Fulshear ,TX,77441,United States,281-533-9884,,,,,,
306 - Timewise Food Store / Shell,,6445 FM 359 ,,Richmond ,TX,77406,United States,281-238-0465,,,,,,
800 - Timewise Food Store / Exxon,,1300 W Davus ,,Conroe ,TX,77303-0000,United States,936-441-4067,,,,,,
801 - Timewise Food Store / Exxon,,6601 College Park Drive ,,Conroe ,TX,77384-4511,United States,936-321-0878,,,,,,
802 - Timewise Food Store / Exxon,,8150 Research Forest ,,The Woodlands ,TX,77381-0000,United States,281-296-0308,,,,,,
803 - Timewise Food Store / Exxon,,10190 Woodlands Pkwy ,,The Woodlands ,TX,77382,United States,281-298-9313,,,,,,
804 - Timewise Food Store / Exxon,,6606 Woodlands Pkwy ,,The Woodlands ,TX,77382,United States,281-362-8060,,,,,,
805 - Timewise Food Store / Exxon,,4600 Panther Creek Pines Dr ,,The Woodlands ,TX,77380-0000,United States,281-296-6211,,,,,,
806 - Timewise Food Store / Exxon,,2444 Research Forest ,,The Woodlands ,TX,77381-0000,United States,281-363-1753,,,,,,
807 - Timewise Food Store / Exxon,,1470 Lake Woodlands Dr ,,The Woodlands ,TX,77380-0000,United States,281-364-7673,,,,,,
808 - Timewise Food Store / Exxon,,21334 North Fwy ,,Spring ,TX,77373-0000,United States,281-353-3875,,,,,,
809 - Timewise Food Store / Exxon,,201 Northpark Dr ,,Kingwood ,TX,77339-1545,United States,281-359-6634,,,,,,
810 - Timewise Food Store / Exxon,,2279 Northpark Dr ,,Humble ,TX,77339-1744,United States,281-358-5830,,,,,,
811 - Timewise Food Store / Exxon,,4502 Kingwood Dr ,,Kingwood ,TX,77345-2636,United States,281-361-4773,,,,,,
812 - Timewise Food Store / Exxon,,7435 FM 1960 RD E ,,Humble ,TX,77346-0000,United States,281-852-1818,,,,,,
813 - Timewise Food Store / Exxon,,7704 FM 1960 RD W ,,Humble ,TX,77338-4150,United States,281-540-6700,,,,,,
814 - Timewise Food Store / Exxon,,702 FM 1960 E Imperial Valley ,,Houston ,TX,77073-0000,United States,281-209-1164,,,,,,
815 - Timewise Food Store / Exxon,,17503 North Fwy ,,Houston ,TX,77090-0000,United States,281-397-0179,,,,,,
816 - Timewise Food Store / Exxon,,15931 JFK Blvd ,,Houston ,TX,77032-2319,United States,281-442-0449,,,,,,
817 - Timewise Food Store / Exxon,,12000 Greenspoint ,,Houston ,TX,77060-2001,United States,281-875-6312,,,,,,
818 - Timewise Food Store / Exxon,,10303 North Fwy ,,Houston ,TX,77037-1123,United States,281-847-2271,,,,,,
819 - Timewise Food Store / Exxon,,12610 Tomball Pkwy ,,Houston ,TX,77086-3327,United States,281-447-9416,,,,,,
820 - Timewise Food Store / Exxon,,2780 N Sam Houston Pkwy W ,,Houston ,TX,77038-1206,United States,281-260-8779,,,,,,
821 - Timewise Food Store / Exxon,,10955 W Sam Houston Pkwy ,,Houston ,TX,77064-0000,United States,832-237-8960,,,,,,
822 - Timewise Food Store / Exxon,,17438 Hwy 290 ,,Jersey Village ,TX,77040-1002,United States,713-937-6692,,,,,,
823 - Timewise Food Store / Exxon,,20600 Northwest Fwy ,,Houston ,TX,,United States,281-970-0617,,,,,,
824 - Timewise Food Store / Exxon,,17906 Tomball Pkwy ,,Houston ,TX,77070-5710,United States,281-807-5677,,,,,,
825 - Timewise Food Store / Exxon,,19712 State Hwy 249 ,,Houston ,TX,77070-3112,United States,281-970-5122,,,,,,
826 - Timewise Food Store / Exxon,,21103 Tomball Pkwy ,,Houston ,TX,77070-0000,United States,281-374-9048,,,,,,
827 - Timewise Food Store / Exxon,,12360 Grant Rd ,,Cypress ,TX,77410,United States,281-374-9847,,,,,,
828 - Timewise Food Store / Exxon,,18001 FM 529 ,,Cypress ,TX,77429-0000,United States,281-856-6290,,,,,,
829 - Timewise Food Store / Exxon,,4255 Highway 6 N ,,Houston ,TX,77084-0000,United States,281-859-8426,,,,,,
830 - Timewise Food Store / Exxon,,7006 Highway 6 N ,,Houston ,TX,77095-2055,United States,281-550-3790,,,,,,
831 - Timewise Food Store / Exxon,,745 HWY 6 S ,,Houston ,TX,77079-0000,United States,281-493-9409,,,,,,
832 - Timewise Food Store / Exxon,,585 S Mason RD ,,Katy ,TX,77450-2437,United States,281-578-6898,,,,,,
833 - Timewise Food Store / Exxon,,550 W Grand Pkwy South ,,Katy ,TX,77494-0000,United States,281-392-9557,,,,,,
834 - Timewise Food Store / Exxon,,12355 Katy Fwy ,,Houston ,TX,77079-0000,United States,281-497-1270,,,,,,
835 - Timewise Food Store / Exxon,,11035 Katy Fwy ,,Houston ,TX,77079-2108,United States,713-467-2315,,,,,,
836 - Timewise Food Store / Exxon,,12590 Westheimer ,,Houston ,TX,77077-0000,United States,832-379-8813,,,,,,
837 - Timewise Food Store / Exxon,,10410 Westheimer ,,Houston ,TX,77042-0000,United States,713-334-7199,,,,,,
838 - Timewise Food Store / Exxon,,9670 Westheimer ,,Houston ,TX,77063-3205,United States,713-780-4843,,,,,,
839 - Timewise Food Store / Exxon,,8155 Katy Fwy ,,Houston ,TX,77024-1909,United States,713-686-2223,,,,,,
840 - Timewise Food Store / Exxon,,5702 Westheimer ,,Houston ,TX,77057-5720,United States,713-781-6665,,,,,,
841 - Timewise Food Store / Exxon,,5402 North Fwy ,,Houston ,TX,77076-0000,United States,713-691-0276,,,,,,
842 - Timewise Food Store / Exxon,,3140 Southwest Fwy ,,Houston ,TX,77098,United States,713-528-4756,,,,,,
843 - Timewise Food Store / Exxon,,10004 Bellaire Blve ,,Houston ,TX,77072-5202,United States,832-328-1453,,,,,,
844 - Timewise Food Store / Exxon,,10010 Beechnut ,,Houston ,TX,77072-5001,United States,281-575-7075,,,,,,
845 - Timewise Food Store / Exxon,,9322 Bissonnet ,,Houston ,TX,77074-0000,United States,713-981-8435,,,,,,
846 - Timewise Food Store / Exxon,,11814 Wilcrest ,,Houston ,TX,77031-1920,United States,281-879-8545,,,,,,
847 - Timewise Food Store / Exxon,,16760 Southwest Fwy ,,Sugar Land ,TX,77479-2331,United States,281-494-5680,,,,,,
848 - Timewise Food Store / Exxon,,6060 South Highway 6 ,,Missouri City ,TX,77459-0000,United States,281-403-9407,,,,,,
849 - Timewise Food Store / Exxon,,2525 S Shepherd ,,Houston ,TX,77019-0000,United States,713-529-1622,,,,,,
850 - Timewise Food Store / Exxon,,2402 S Wayside ,,Houston ,TX,77023-0000,United States,713-926-8695,,,,,,
851 - Timewise Food Store / Exxon,,738 Lathrop ,,Houston ,TX,77020-0000,United States,713-674-3989,,,,,,
852 - Timewise Food Store / Exxon,,7805 S Sam Houston Pkwy E ,,Houston ,TX,77075-4645,United States,713-991-5533,,,,,,
853 - Timewise Food Store / Exxon,,11575 S Sam Houston Pkwy E ,,Houston ,TX,77089-0000,United States,281-464-7022,,,,,,
854 - Timewise Food Store / Exxon,,8431 Broadway St ,,Pearland ,TX,,United States,281-412-5195,,,,,,
855 - Timewise Food Store / Exxon,,5499 Fairmont Pkwy ,,Pasadena ,TX,77505-3805,United States,281-998-7001,,,,,,
856 - Timewise Food Store / Exxon,,3818 Red Bluff/ Beltway 8 ,,Pasadena ,TX,77503-0000,United States,713-477-0020,,,,,,
857 - Timewise Food Store / Exxon,,2405 Bay Area Blvd ,,Houston ,TX,77058-1519,United States,281-486-9630,,,,,,
858 - Timewise Food Store / Exxon,,13902 Galveston Rd ,,Humble ,TX,77598-1622,United States,281-990-8036,,,,,,
859 - Timewise Food Store / Exxon,,101 S Alexander ,,Baytown ,TX,77520-0000,United States,281-422-4709,,,,,,
860 - Timewise Food Store / Exxon,,2401 Garth Rd ,,Baytown ,TX,77520,United States,281-422-7712,,,,,,
861 - Timewise Food Store / Exxon,,3600 N Main ,,Baytown ,TX,77521-3302,United States,281-427-7244,,,,,,
862 - Timewise Food Store / Exxon,,4500 Garth Rd ,,Baytown ,TX,77521-2124,United States,281-420-1004,,,,,,
863 - Timewise Food Store / Exxon,,20621 NW Freeway ,,Cypress ,TX,77429,United States,281-807-3799,,,,,,
