store_name,store_number,address,address2,city,state,zip_code,country,phone_number,latitude,longitude,store_hours,store_type,other_fields,coming_soon
ATM - Mohegan Sun Arena,,225 Highland Park Blvd,,Wilkes Barre,PA,18702,,,41.240250,-75.848614,LobbyHours : Drive-up Hours ,,,
Wilkes-Barre Blvd,,171 North Wilkes-Barre Blvd,,Wilkes-Barre,PA,18702,US,570-823-4200,41.244706,-75.872565,"LobbyHours : Mon 9:00 - 5:00, Tue 9:00 - 5:00, Wed 9:00 - 5:00, Thu 9:00 - 5:00, Fri 9:00 - 6:00, Sat 9:00 - 12:00, Drive-up Hours : Mon 9:00 - 5:00, Tue 9:00 - 5:00, Wed 9:00 - 5:00, Thu 9:00 - 5:00, Fri 9:00 - 6:00, Sat 9:00 - 12:00",,,
Greene Dreher,,1008 Main Street,,Newfoundland,PA,18445,US,570-676-4767,41.310023,-75.318836,"LobbyHours : Mon 9:00 - 5:00, Tue 9:00 - 5:00, Wed 9:00 - 5:00, Thu 9:00 - 5:00, Fri 9:00 - 6:00, Sat 9:00 - 12:00, Drive-up Hours : Mon 9:00 - 5:00, Tue 9:00 - 5:00, Wed 9:00 - 5:00, Thu 9:00 - 5:00, Fri 9:00 - 6:00, Sat 9:00 - 12:00",,,
Kingston,,455 Market Street,,Kingston,PA,18704,US,570-288-7070,41.258417,-75.893124,"LobbyHours : Mon 9:00 - 5:00, Tue 9:00 - 5:00, Wed 9:00 - 5:00, Thu 9:00 - 5:00, Fri 9:00 - 6:00, Sat 9:00 - 12:00, Drive-up Hours : Mon 9:00 - 5:00, Tue 9:00 - 5:00, Wed 9:00 - 5:00, Thu 9:00 - 5:00, Fri 9:00 - 6:00, Sat 9:00 - 12:00",,,
Milford,,214 West Harford Street,Unit 1,Milford,PA,18337,US,570-296-0200,41.323796,-74.805921,"LobbyHours : Mon 9:00 - 4:00, Tue 9:00 - 4:00, Wed 9:00 - 4:00, Thu 9:00 - 4:00, Fri 9:00 - 6:00, Sat 9:00 - 12:00, Drive-up Hours : Mon 9:00 - 4:00, Tue 9:00 - 4:00, Wed 9:00 - 4:00, Thu 9:00 - 4:00, Fri 9:00 - 6:00, Sat 9:00 - 12:00",,,
East Stroudsburg,,107 Brown Street,Suite 100,East Stroudsburg,PA,18301,US,570-421-1122,40.992508,-75.184318,"LobbyHours : Mon 9:00 - 5:00, Tue 9:00 - 5:00, Wed 9:00 - 5:00, Thu 9:00 - 5:00, Fri 9:00 - 6:00, Sat 9:00 - 1:00, Drive-up Hours : Mon 9:00 - 5:00, Tue 9:00 - 5:00, Wed 9:00 - 5:00, Thu 9:00 - 5:00, Fri 9:00 - 6:00, Sat 9:00 - 1:00",,,
Bartonsville,,5009 Windsor Drive,,Bartonsville,PA,18321,US,570-420-4579,41.000727,-75.268106,"LobbyHours : Mon 9:00 - 5:00, Tue 9:00 - 5:00, Wed 9:00 - 5:00, Thu 9:00 - 5:00, Fri 9:00 - 6:00, Sat 9:00 - 1:00, Drive-up Hours : Mon 9:00 - 5:00, Tue 9:00 - 5:00, Wed 9:00 - 5:00, Thu 9:00 - 5:00, Fri 9:00 - 6:00, Sat 9:00 - 1:00",,,
Mount Pocono,,3418 Route 940,,Mount Pocono,PA,18344,US,570-839-3088,41.125352,-75.357252,"LobbyHours : Mon 9:00 - 5:00, Tue 9:00 - 5:00, Wed 9:00 - 5:00, Thu 9:00 - 5:00, Fri 9:00 - 6:00, Sat 9:00 - 1:00, Drive-up Hours : Mon 9:00 - 5:00, Tue 9:00 - 5:00, Wed 9:00 - 5:00, Thu 9:00 - 5:00, Fri 9:00 - 6:00, Sat 9:00 - 1:00",,,
Mountainhome,,1079 Route 390,P.O. Box 87,Mountainhome,PA,18342,US,570-595-6400,41.176804,-75.26965,"LobbyHours : Mon 9:00 - 4:00, Tue 9:00 - 4:00, Wed 9:00 - 4:00, Thu 9:00 - 4:00, Fri 9:00 - 6:00, Sat 9:00 - 12:00, Drive-up Hours : Mon 9:00 - 4:00, Tue 9:00 - 4:00, Wed 9:00 - 4:00, Thu 9:00 - 4:00, Fri 9:00 - 6:00, Sat 9:00 - 12:00",,,
Mountaintop,,4 North Mountain Boulevard,,Mountaintop,PA,18707,US,570-474-5382,41.16227,-75.886002,"LobbyHours : Mon 9:00 - 5:00, Tue 9:00 - 5:00, Wed 9:00 - 5:00, Thu 9:00 - 5:00, Fri 9:00 - 6:00, Sat 9:00 - 12:00, Drive-up Hours : Mon 9:00 - 5:00, Tue 9:00 - 5:00, Wed 9:00 - 5:00, Thu 9:00 - 5:00, Fri 9:00 - 6:00, Sat 9:00 - 12:00",,,
Lords Valley,,114 Village Center Drive,,Lords Valley,PA,18428,US,570-775-7316,41.346855,-75.041921,"LobbyHours : Mon 9:00 - 4:30, Tue 9:00 - 4:30, Wed 9:00 - 4:30, Thu 9:00 - 5:00, Fri 9:00 - 6:00, Sat 9:00 - 12:00, Drive-up Hours : Mon 9:00 - 4:30, Tue 9:00 - 4:30, Wed 9:00 - 4:30, Thu 9:00 - 5:00, Fri 9:00 - 6:00, Sat 9:00 - 12:00",,,
Elmhurst,,207 State Route 435,,Elmhurst Township,PA,18444,US,570-842-2432,41.3646,-75.538193,"LobbyHours : Mon 9:00 - 5:00, Tue 9:00 - 5:00, Wed 9:00 - 5:00, Thu 9:00 - 5:00, Fri 9:00 - 6:00, Sat 9:00 - 12:00, Drive-up Hours : Mon 9:00 - 5:00, Tue 9:00 - 5:00, Wed 9:00 - 5:00, Thu 9:00 - 5:00, Fri 9:00 - 6:00, Sat 9:00 - 12:00",,,
Back Mountain,,1965 Memorial Highway,,Shavertown,PA,18708,US,570-674-5172,41.323005,-75.942499,"LobbyHours : Mon 9:00 - 5:00, Tue 9:00 - 5:00, Wed 9:00 - 5:00, Thu 9:00 - 5:00, Fri 9:00 - 6:00, Sat 9:00 - 12:00, Drive-up Hours : Mon 9:00 - 5:00, Tue 9:00 - 5:00, Wed 9:00 - 5:00, Thu 9:00 - 5:00, Fri 9:00 - 6:00, Sat 9:00 - 12:00",,,
Hamlin Corners,,575 Easton Turnpike,P.O. Box 220,Hamlin,PA,18427,US,570-689-0944,41.403349,-75.39882,"LobbyHours : Mon 8:30 - 5:00, Tue 8:30 - 5:00, Wed 8:30 - 5:00, Thu 8:30 - 5:00, Fri 8:30 - 6:00, Sat 8:30 - 12:00, Drive-up Hours : Mon 8:30 - 5:00, Tue 8:30 - 5:00, Wed 8:30 - 5:00, Thu 8:30 - 5:00, Fri 8:30 - 6:00, Sat 8:30 - 12:00",,,
Taylor,,801 South Main Street,,Taylor,PA,18517,US,570-562-2500,41.377633,-75.721241,"LobbyHours : Mon 9:00 - 4:30, Tue 9:00 - 4:30, Wed 9:00 - 4:30, Thu 9:00 - 4:30, Fri 9:00 - 6:00, Sat 9:00 - 12:00, Drive-up Hours : Mon 9:00 - 4:30, Tue 9:00 - 4:30, Wed 9:00 - 4:30, Thu 9:00 - 4:30, Fri 9:00 - 6:00, Sat 9:00 - 12:00",,,
East Mountain,,117 Meadow Avenue,,Scranton,PA,18505,US,570-341-8900,41.396628,-75.649881,"LobbyHours : Mon 9:00 - 5:00, Tue 9:00 - 5:00, Wed 9:00 - 5:00, Thu 9:00 - 5:00, Fri 9:00 - 5:00, Drive-up Hours : Mon 9:00 - 5:00, Tue 9:00 - 5:00, Wed 9:00 - 5:00, Thu 9:00 - 5:00, Fri 9:00 - 5:00",,,
Mount Cobb,,1187 Mount Cobb Road,,Lake Ariel,PA,18436,US,570-689-2694,41.409916,-75.505298,"LobbyHours : Mon 9:00 - 5:00, Tue 9:00 - 5:00, Wed 9:00 - 5:00, Thu 9:00 - 5:00, Fri 9:00 - 6:00, Sat 9:00 - 12:00, Drive-up Hours : Mon 9:00 - 5:00, Tue 9:00 - 5:00, Wed 9:00 - 5:00, Thu 9:00 - 5:00, Fri 9:00 - 6:00, Sat 9:00 - 12:00",,,
ATM - Community Medical Center,,1800 Mulberry Street,,Scranton,PA,18510,,,41.400518,-75.645997,LobbyHours : Drive-up Hours ,,,
Scranton Steamtown Mall,,220 The Marketplace at Steamtown,300 Lackawanna Avenue,Scranton,PA,18503,US,570-341-8000,41.408216,-75.667635,"LobbyHours : Mon 9:00 - 6:00, Tue 9:00 - 6:00, Wed 9:00 - 6:00, Thu 9:00 - 6:00, Fri 9:00 - 6:00, Sat 9:00 - 2:00, Sun 10:00 - 2:00, Drive-up Hours ",,,
ATM - Scranton Steamtown Mall,,"300 Lackawanna Avenue, Level 1",,Scranton,PA,18503,,,41.408225,-75.667844,LobbyHours : Drive-up Hours ,,,
ATM - Scranton Steamtown Mall 2,,"300 Lackawanna Avenue, Level 2 Escalator",,Scranton,PA,18503,,,41.408225,-75.667844,LobbyHours : Drive-up Hours ,,,
Keyser,,130 North Keyser Avenue,,Scranton,PA,18504,US,570-341-8100,41.42188,-75.698823,"LobbyHours : Mon 9:00 - 5:00, Tue 9:00 - 5:00, Wed 9:00 - 5:00, Thu 9:00 - 5:00, Fri 9:00 - 6:00, Sat 9:00 - 12:00, Drive-up Hours : Mon 9:00 - 5:00, Tue 9:00 - 5:00, Wed 9:00 - 5:00, Thu 9:00 - 5:00, Fri 9:00 - 6:00, Sat 9:00 - 12:00",,,
Dunmore,,1230 O'Neill Highway,,Dunmore,PA,18512,US,570-344-9701,41.435083,-75.619924,"LobbyHours : Mon 9:00 - 5:00, Tue 9:00 - 5:00, Wed 9:00 - 5:00, Thu 9:00 - 5:00, Fri 9:00 - 6:00, Sat 9:00 - 1:00, Sun 10:00 - 1:00, Drive-up Hours : Mon 9:00 - 5:00, Tue 9:00 - 5:00, Wed 9:00 - 5:00, Thu 9:00 - 5:00, Fri 9:00 - 6:00, Sat 9:00 - 1:00, Sun 10:00 - 1:00",,,
Lake Ariel,,1456 Lake Ariel Highway,,Lake Ariel,PA,18436,US,570-698-5695,41.454237,-75.378357,"LobbyHours : Mon 9:00 - 5:00, Tue 9:00 - 5:00, Wed 9:00 - 5:00, Thu 9:00 - 5:00, Fri 9:00 - 6:00, Sat 9:00 - 12:00, Drive-up Hours : Mon 9:00 - 5:00, Tue 9:00 - 5:00, Wed 9:00 - 5:00, Thu 9:00 - 5:00, Fri 9:00 - 6:00, Sat 9:00 - 12:00",,,
Dickson City,,736 Main Street,,Dickson City,PA,18519,US,570-489-7519,41.459688,-75.624739,"LobbyHours : Mon 8:30 - 5:00, Tue 8:30 - 5:00, Wed 8:30 - 5:00, Thu 8:30 - 5:00, Fri 8:30 - 6:00, Sat 9:00 - 12:00, Drive-up Hours : Mon 8:30 - 5:00, Tue 8:30 - 5:00, Wed 8:30 - 5:00, Thu 8:30 - 5:00, Fri 8:30 - 6:00, Sat 9:00 - 12:00",,,
Archbald,,3 John F. Kennedy Drive,,Archbald,PA,18403,US,570-876-1480,41.490670,-75.552453,"LobbyHours : Mon 9:00 - 4:00, Tue 9:00 - 4:00, Wed 9:00 - 4:00, Thu 9:00 - 5:00, Fri 9:00 - 6:00, Sat 9:00 - 12:00, Drive-up Hours : Mon 9:00 - 4:00, Tue 9:00 - 4:00, Wed 9:00 - 4:00, Thu 9:00 - 5:00, Fri 9:00 - 6:00, Sat 9:00 - 12:00",,,
Eynon,,685 Scranton/Carbondale Hwy,,Eynon,PA,18403,US,570-876-1637,41.505346,-75.579051,"LobbyHours : Mon 9:00 - 4:00, Tue 9:00 - 4:00, Wed 9:00 - 4:00, Thu 9:00 - 4:00, Fri 9:00 - 6:00, Sat 9:00 - 12:00, Drive-up Hours : Mon 9:00 - 4:00, Tue 9:00 - 4:00, Wed 9:00 - 4:00, Thu 9:00 - 4:00, Fri 9:00 - 6:00, Sat 9:00 - 12:00",,,
Clarks Green,,318 East Grove Street,,Clarks Green,PA,18411,US,570-587-0505,41.49779,-75.696222,"LobbyHours : Mon 9:00 - 5:00, Tue 9:00 - 5:00, Wed 9:00 - 5:00, Thu 9:00 - 5:00, Fri 9:00 - 6:00, Sat 9:00 - 12:00, Drive-up Hours : Mon 9:00 - 5:00, Tue 9:00 - 5:00, Wed 9:00 - 5:00, Thu 9:00 - 5:00, Fri 9:00 - 6:00, Sat 9:00 - 12:00",,,
Mayfield,,500 Lackawanna Avenue,,Mayfield,PA,18433,US,570-876-3720,41.536733,-75.539413,"LobbyHours : Mon 9:00 - 3:00, Tue 9:00 - 3:00, Wed 9:00 - 3:00, Thu 9:00 - 3:00, Fri 9:00 - 5:00, Drive-up Hours : Mon 9:00 - 3:00, Tue 9:00 - 3:00, Wed 9:00 - 3:00, Thu 9:00 - 3:00, Fri 9:00 - 5:00",,,
ATM - Dalton,,105 West Main Street,,Dalton,PA,18414,,,41.534999847,-75.736999512,LobbyHours : Drive-up Hours ,,,
Hancock,,11 East Main Street,,Hancock,NY,13783,US,607-637-2611,41.955115,-75.281842,"LobbyHours : Mon 9:00 - 4:30, Tue 9:00 - 4:30, Wed 9:00 - 4:30, Thu 9:00 - 4:30, Fri 9:00 - 5:30, Sat 9:00 - 12:00, Drive-up Hours ",,,
ATM - Capra Motel - Hancock,,521 West Main Street,,Hancock,NY,13783,,,41.956417,-75.293477,LobbyHours : Drive-up Hours ,,,
"ATM - Susquehanna, PA",,133 Main Street,,Susquehanna,PA,18847,,,41.946244,-75.603367,LobbyHours : Drive-up Hours ,,,
Great Bend,,Mountain View Plaza Route 11,P. O. Box 177,Great Bend,PA,18821,US,570-879-2152,41.965229,-75.741074,"LobbyHours : Mon 8:30 - 4:30, Tue 8:30 - 4:30, Wed 8:30 - 4:30, Thu 8:30 - 5:00, Fri 8:30 - 6:00, Sat 9:00 - 12:00, Drive-up Hours : Mon 8:30 - 4:30, Tue 8:30 - 4:30, Wed 8:30 - 4:30, Thu 8:30 - 5:00, Fri 8:30 - 6:00, Sat 9:00 - 12:00",,,
Choconut,,29 Quaker Lake Road,,Friendsville,PA,18818,US,570-553-2122,41.978656,-75.999212,"LobbyHours : Mon 9:00 - 5:00, Tue 9:00 - 5:00, Wed 9:00 - 5:00, Thu 9:00 - 5:00, Fri 9:00 - 6:00, Sat 9:00 - 12:00, Drive-up Hours : Mon 9:00 - 5:00, Tue 9:00 - 5:00, Wed 9:00 - 5:00, Thu 9:00 - 5:00, Fri 9:00 - 6:00, Sat 9:00 - 12:00",,,
Carbondale Schoolside,,140 Brooklyn Street,,Carbondale,PA,18407,US,570-282-6717,41.566421,-75.513947,"LobbyHours : Mon 8:00 - 5:00, Tue 8:00 - 5:00, Wed 8:00 - 5:00, Thu 8:00 - 5:00, Fri 8:00 - 6:00, Sat 9:00 - 1:00, Drive-up Hours : Mon 8:00 - 5:00, Tue 8:00 - 5:00, Wed 8:00 - 5:00, Thu 8:00 - 5:00, Fri 8:00 - 6:00, Sat 9:00 - 1:00",,,
Lenox,,5910 State Route 92,,Kingsley,PA,18826,US,570-222-3171,41.710967,-75.673614,"LobbyHours : Mon 9:30 - 4:00, Tue 9:30 - 4:00, Wed 9:30 - 4:00, Thu 9:30 - 5:00, Fri 9:30 - 5:00, Sat 9:00 - 12:00, Drive-up Hours : Mon 9:30 - 4:00, Tue 9:30 - 4:00, Wed 9:30 - 4:00, Thu 9:30 - 5:00, Fri 9:30 - 5:00, Sat 9:00 - 12:00",,,
ATM - South Montrose,,Route 29 & Elk Lake Road,,South Montrose,PA,18843,,,41.79889,-75.891172,LobbyHours : Drive-up Hours ,,,
Montrose,,36 Public Avenue,,Montrose,PA,18801,US,570-278-1181,41.833253,-75.877973,"LobbyHours : Mon 9:00 - 4:00, Tue 9:00 - 4:00, Wed 9:00 - 4:00, Thu 9:00 - 4:00, Fri 9:00 - 6:00, Sat 9:00 - 12:00, Drive-up Hours : Mon 9:00 - 4:00, Tue 9:00 - 4:00, Wed 9:00 - 4:00, Thu 9:00 - 4:00, Fri 9:00 - 6:00, Sat 9:00 - 12:00",,,
New Milford,,841 Main Street,P.O. Box 275,New Milford,PA,18834,US,570-465-3206,41.877358,-75.727569,"LobbyHours : Mon 9:00 - 4:00, Tue 9:00 - 4:00, Wed 9:00 - 4:00, Thu 9:00 - 5:00, Fri 9:00 - 6:00, Sat 9:00 - 12:00, Drive-up Hours : Mon 9:00 - 4:00, Tue 9:00 - 4:00, Wed 9:00 - 4:00, Thu 9:00 - 5:00, Fri 9:00 - 6:00, Sat 9:00 - 12:00",,,
ATM - Wendy's Restaurant - Deposit,,63 Oak Street,,Deposit,NY,13754,,,42.0560081,-75.414072,LobbyHours : Drive-up Hours ,,,
Deposit,,108 Second Street,,Deposit,NY,13754,US,607-467-2195,42.061935,-75.424754,"LobbyHours : Mon 9:00 - 3:00, Tue 9:00 - 3:00, Wed 9:00 - 3:00, Thu 9:00 - 4:30, Fri 9:00 - 5:00, Sat 9:00 - 12:00, Drive-up Hours : Mon 9:00 - 3:00, Tue 9:00 - 3:00, Wed 9:00 - 3:00, Thu 9:00 - 4:30, Fri 9:00 - 5:00, Sat 9:00 - 12:00",,,
ATM - Inside NYSEG Stadium,,211 Henry St.,,Binghamton,NY,13902,,,42.102712,-75.905099,LobbyHours : Drive-up Hours ,,,
Binghamton East,,156 Robinson Street,,Binghamton,NY,13904,US,607-779-7022,42.107208,-75.889709,"LobbyHours : Mon 9:00 - 4:00, Tue 9:00 - 4:00, Wed 9:00 - 4:00, Thu 9:00 - 5:30, Fri 9:00 - 5:30, Sat 9:00 - 1:00, Drive-up Hours : Mon 9:00 - 4:00, Tue 9:00 - 4:00, Wed 9:00 - 4:00, Thu 9:00 - 5:30, Fri 9:00 - 5:30, Sat 9:00 - 1:00",,,
Vestal,,3121 Vestal Parkway East,P.O. Box 186,Vestal,NY,13851,US,607-797-3773,42.096166,-76.001958,"LobbyHours : Mon 9:00 - 6:00, Tue 9:00 - 6:00, Wed 9:00 - 6:00, Thu 9:00 - 6:00, Fri 9:00 - 6:00, Sat 9:00 - 1:00, Drive-up Hours : Mon 9:00 - 6:00, Tue 9:00 - 6:00, Wed 9:00 - 6:00, Thu 9:00 - 6:00, Fri 9:00 - 6:00, Sat 9:00 - 1:00",,,
Johnson City,,331 Main Street,P.O. Box 736,Johnson City,NY,13790,US,607-797-7940,42.116357,-75.958914,"LobbyHours : Mon 9:00 - 5:30, Tue 9:00 - 5:30, Wed 9:00 - 5:30, Thu 9:00 - 5:30, Fri 9:00 - 5:30, Sat 9:00 - 12:00, Drive-up Hours : Mon 9:00 - 5:30, Tue 9:00 - 5:30, Wed 9:00 - 5:30, Thu 9:00 - 5:30, Fri 9:00 - 5:30, Sat 9:00 - 12:00",,,
Endicott,,1310 North Street,Suite 1,Endicott,NY,13760,US,607-785-5113,42.104576,-76.047543,"LobbyHours : Mon 9:00 - 4:00, Tue 9:00 - 4:00, Wed 9:00 - 4:00, Thu 9:00 - 5:00, Fri 9:00 - 5:00, Sat 9:00 - 12:00, Drive-up Hours : Mon 9:00 - 4:00, Tue 9:00 - 4:00, Wed 9:00 - 4:00, Thu 9:00 - 5:00, Fri 9:00 - 5:00, Sat 9:00 - 12:00",,,
Margaretville,,723 Main Street,P.O. Box 140,Margaretville,NY,12455,,845-586-2623,42.148216,-74.649505,"LobbyHours : Mon 9:00 - 4:00, Tue 9:00 - 4:00, Wed 9:00 - 4:00, Thu 9:00 - 5:00, Fri 9:00 - 5:00, Sat 9:00 - 12:00, Drive-up Hours : Mon 9:00 - 4:00, Tue 9:00 - 4:00, Wed 9:00 - 4:00, Thu 9:00 - 5:00, Fri 9:00 - 5:00, Sat 9:00 - 12:00",,,
Binghamton Northgate,,1256 Front Street,,Binghamton,NY,13901,US,607-724-6337,42.157131,-75.896078,"LobbyHours : Mon 9:00 - 4:00, Tue 9:00 - 4:00, Wed 9:00 - 4:00, Thu 9:00 - 5:00, Fri 9:00 - 5:00, Sat 8:00 - 12:00, Drive-up Hours : Mon 9:00 - 4:00, Tue 9:00 - 4:00, Wed 9:00 - 4:00, Thu 9:00 - 5:00, Fri 9:00 - 5:00, Sat 8:00 - 12:00",,,
Afton,,182 Main Street,,Afton,NY,13730,US,607-639-2281,42.228272,-75.526035,"LobbyHours : Mon 9:00 - 4:00, Tue 9:00 - 4:00, Wed 9:00 - 4:00, Thu 9:00 - 4:00, Fri 9:00 - 5:00, Sat 9:00 -12:00, Drive-up Hours : Mon 9:00 - 4:00, Tue 9:00 - 4:00, Wed 9:00 - 4:00, Thu 9:00 - 4:00, Fri 9:00 - 5:00, Sat 9:00 -12:00",,,
Windham,,49 State Route 296,,Windham,NY,12496,US,518-734-3991,42.306083,-74.230941,"LobbyHours : Mon 9:00 - 4:00, Tue 9:00 - 4:00, Wed 9:00 - 4:00, Thu 9:00 - 4:00, Fri 9:00 - 6:00, Sat 9:00 - 12:00, Drive-up Hours : Mon 9:00 - 4:00, Tue 9:00 - 4:00, Wed 9:00 - 4:00, Thu 9:00 - 4:00, Fri 9:00 - 6:00, Sat 9:00 - 12:00",,,
Whitney Point,,2950 NYS Route 11,P.O. Box 721,Whitney Point,NY,13862,US,607-692-7200,42.336437,-75.973914,"LobbyHours : Mon 8:30 - 3:00, Tue 8:30 - 3:00, Wed 8:30 - 3:00, Thu 8:30 - 5:00, Fri 8:30 - 5:30, Sat 9:00 - 12:00, Drive-up Hours : Mon 8:30 - 3:00, Tue 8:30 - 3:00, Wed 8:30 - 3:00, Thu 8:30 - 5:00, Fri 8:30 - 5:30, Sat 9:00 - 12:00",,,
Hobart,,147 Maple Avenue,P.O. Box H,Hobart,NY,13788,US,607-538-9141,42.369215,-74.667685,"LobbyHours : Mon 8:30 - 4:30, Tue 8:30 - 4:30, Wed 8:30 - 4:30, Thu 8:30 - 5:00, Fri 8:30 - 5:00, Sat 9:00 - 12:00, Drive-up Hours ",,,
Grand Gorge,,60814 State Highway 30,P.O. Box 380,Grand Gorge,NY,12434,US,607-588-7513,42.362048,-74.494836,"LobbyHours : Mon 9:00 - 3:00, Tue 9:00 - 3:00, Wed 9:00 - 3:00, Thu 9:00 - 5:00, Fri 9:00 - 3:00, Sat 9:00 - 12:00, Drive-up Hours : Mon 9:00 - 3:00, Tue 9:00 - 3:00, Wed 9:00 - 3:00, Thu 9:00 - 5:00, Fri 9:00 - 3:00, Sat 9:00 - 12:00",,,
Great Barrington,,700 Main Street,,Great Barrington,MA,01230,US,413-528-4111,42.180479,-73.364285,"LobbyHours : Mon 9:00 - 4:00, Tue 9:00 - 4:00, Wed 9:00 - 4:00, Thu 9:00 - 4:00, Fri 9:00 - 5:00, Sat 9:00 - 12:00, Drive-up Hours : Mon 9:00 - 4:00, Tue 9:00 - 4:00, Wed 9:00 - 4:00, Thu 9:00 - 4:00, Fri 9:00 - 5:00, Sat 9:00 - 12:00",,,
Maine,,2647 Main Street,P.O. Box 187,Maine,NY,13802,US,607-862-3204,42.198125,-76.058840,"LobbyHours : Mon 9:00 - 4:00, Tue 9:00 - 4:00, Wed 9:00 - 4:00, Thu 9:00 - 5:00, Fri 9:00 - 5:00, Drive-up Hours : Mon 9:00 - 4:00, Tue 9:00 - 4:00, Wed 9:00 - 4:00, Thu 9:00 - 5:00, Fri 9:00 - 5:00",,,
Bainbridge,,9 North Main Street,,Bainbridge,NY,13733,,607-967-2551,42.293632,-75.479263,"LobbyHours : Mon 9:00 - 3:00, Tue 9:00 - 3:00, Wed 9:00 - 3:00, Thu 9:00 - 5:00, Fri 9:00 - 3:00, Drive-up Hours : Mon 9:00 - 3:00, Tue 9:00 - 3:00, Wed 9:00 - 3:00, Thu 9:00 - 5:00, Fri 9:00 - 3:00, Sat ",,,
Newark Valley,,2 North Main Street,P.O. Box 158,Newark Valley,NY,13811,US,607-642-3550,42.223749,-76.184137,"LobbyHours : Mon 9:00 - 3:00, Tue 9:00 - 3:00, Wed 9:00 - 3:00, Thu 9:00 - 5:30, Fri 9:00 - 5:30, Drive-up Hours : Mon 9:00 - 3:00, Tue 9:00 - 3:00, Wed 9:00 - 3:00, Thu 9:00 - 5:30, Fri 9:00 - 5:30, Sat ",,,
Sidney,,13 Division Street,,Sidney,NY,13838,US,607-561-2800,42.313883,-75.392923,"LobbyHours : Mon 9:00 - 5:00, Tue 9:00 - 5:00, Wed 9:00 - 5:00, Thu 9:00 - 5:00, Fri 9:00 - 5:00, Sat 9:00 - 12:00, Drive-up Hours : Mon 9:00 - 5:00, Tue 9:00 - 5:00, Wed 9:00 - 5:00, Thu 9:00 - 5:00, Fri 9:00 - 5:00, Sat 9:00 - 12:00",,,
Greene,,80 South Chenango Street,,Greene,NY,13778,US,607-656-5201,42.323669,-75.776169,"LobbyHours : Mon 9:00 - 3:00, Tue 9:00 - 3:00, Wed 9:00 - 4:00, Thu 9:00 - 4:00, Fri 9:00 - 4:00, Sat 9:00 - 12:00, Drive-up Hours : Mon 9:00 - 3:00, Tue 9:00 - 3:00, Wed 9:00 - 4:00, Thu 9:00 - 4:00, Fri 9:00 - 4:00, Sat 9:00 - 12:00",,,
Oneonta Southside,,733 State Highway 28,,Oneonta,NY,13820,US,607-431-2040,42.446846,-75.053674,"LobbyHours : Mon 9:00 - 5:00, Tue 9:00 - 5:00, Wed 9:00 - 5:00, Thu 9:00 - 6:00, Fri 9:00 - 6:00, Sat 9:00 - 12:00, Drive-up Hours : Mon 9:00 - 5:00, Tue 9:00 - 5:00, Wed 9:00 - 5:00, Thu 9:00 - 6:00, Fri 9:00 - 6:00, Sat 9:00 - 12:00",,,
Oneonta,,107 Oneida Street,,Oneonta,NY,13820,US,,42.448332,-75.103801,LobbyHours : Drive-up Hours ,,,
Oneonta Downtown,,One Wall Street,,Oneonta,NY,13820,US,607-432-5800,42.45356,-75.063975,"LobbyHours : Mon 9:00 - 5:00, Tue 9:00 - 5:00, Wed 9:00 - 5:00, Thu 9:00 - 5:00, Fri 9:00 - 5:00, Drive-up Hours : Mon 9:00 - 5:00, Tue 9:00 - 5:00, Wed 9:00 - 5:00, Thu 9:00 - 5:00, Fri 9:00 - 5:00, Sat ",,,
Oneonta Downtown Remote Drive-up with ATM,,33 Dietz Street,,Oneonta,NY,13820,,,42.455674,-75.062866,"LobbyHours : Drive-up Hours : Mon , Tue , Wed , Thu , Fri , Sat ",,,
Oxford,,10 North Canal Street,P.O. Box 511,Oxford,NY,13830,US,607-843-2691,42.442865,-75.596773,"LobbyHours : Mon 9:00 - 3:00, Tue 9:00 - 3:00, Wed 9:00 - 3:00, Thu 9:00 - 5:00, Fri 9:00 - 5:00, Sat 9:00 - 12:00, Drive-up Hours : Mon 9:00 - 3:00, Tue 9:00 - 3:00, Wed 9:00 - 3:00, Thu 9:00 - 5:00, Fri 9:00 - 5:00, Sat 9:00 - 12:00",,,
Greenville,,11567 State Route 32,,Greenville,NY,12083,US,518-966-8244,42.4286681,-74.017403,"LobbyHours : Mon 9:00 - 5:00, Tue 9:00 - 5:00, Wed 9:00 - 5:00, Thu 9:00 - 5:00, Fri 9:00 - 6:00, Sat 9:00 - 12:00, Drive-up Hours ",,,
Norwich,,52 South Broad Street,P.O. Box 351,Norwich,NY,13815,US,607-337-6136,42.5289431,-75.5241873,"LobbyHours : Mon 8:00 - 5:00, Tue 8:00 - 5:00, Wed 8:00 - 5:00, Thu 8:00 - 5:00, Fri 8:00 - 5:00, Drive-up Hours : Mon 8:00 - 5:00, Tue 8:00 - 5:00, Wed 8:00 - 5:00, Thu 8:00 - 5:00, Fri 8:00 - 5:00",,,
ATM - Village Laundromat,,30 - 32 Broad Street,,Morris,NY,13808,,,42.546096,-75.240164,LobbyHours : Drive-up Hours ,,,
ATM Chenango Memorial Hospital,,179 N Broad Street,,Norwich,NY,13815,,,42.54123,-75.525772,LobbyHours : Drive-up Hours ,,,
Norwich North Plaza,,117 State Highway 320,,Norwich,NY,13815,United States,607-337-6800,42.55282,-75.525359,"LobbyHours : Mon 9:00 - 5:00, Tue 9:00 - 5:00, Wed 9:00 - 5:00, Thu 9:00 - 5:00, Fri 9:00 - 5:00, Sat 9:00 - 12:00, Drive-up Hours : Mon 9:00 - 5:00, Tue 9:00 - 5:00, Wed 9:00 - 5:00, Thu 9:00 - 5:00, Fri 9:00 - 5:00, Sat 9:00 - 12:00",,,
Cincinnatus,,2743 NYS Route 26,,Cincinnatus,NY,13040,US,607-863-4100,42.540314,-75.902109,"LobbyHours : Mon 9:00 - 3:00, Tue 9:00 - 3:00, Wed 9:00 - 3:00, Thu 9:00 - 3:00, Fri 9:00 - 5:00, Drive-up Hours ",,,
Lee,,76 Park Street,,Lee,MA,01238,US,413-243-4061,42.304225,-73.248334,"LobbyHours : Mon 9:00 - 4:00, Tue 9:00 - 4:00, Wed 9:00 - 4:00, Thu 9:00 - 4:00, Fri 9:00 - 5:00, Sat 9:00 - 12:00, Drive-up Hours : Mon 9:00 - 4:00, Tue 9:00 - 4:00, Wed 9:00 - 4:00, Thu 9:00 - 4:00, Fri 9:00 - 5:00, Sat 9:00 - 12:00",,,
New Berlin,,2 South Main Street,P.O. Box B,New Berlin,NY,13411,US,607-847-6988,42.624143,-75.332319,"LobbyHours : Mon 9:00 - 4:30, Tue 9:00 - 4:30, Wed 9:00 - 4:30, Thu 9:00 - 4:30, Fri 9:00 - 5:30, Sat 9:00 - 12:00, Drive-up Hours : Mon 9:00 - 4:30, Tue 9:00 - 4:30, Wed 9:00 - 4:30, Thu 9:00 - 4:30, Fri 9:00 - 5:30, Sat 9:00 - 12:00",,,
Middleburgh,,305 Main Street,Suite 2,Middleburgh,NY,12122,US,518-827-4111,42.597870,-74.334643,"LobbyHours : Mon 8:00 - 4:00, Tue 8:00 - 4:00, Wed 8:00 - 4:00, Thu 8:00 - 5:00, Fri 8:00 - 5:00, Sat 9:00 - 12:00, Drive-up Hours : Mon 8:00 - 4:00, Tue 8:00 - 4:00, Wed 8:00 - 4:00, Thu 8:00 - 5:00, Fri 8:00 - 5:00, Sat 9:00 - 12:00",,,
Cortland Walmart,,"819 Bennie Road, Route 13",,Cortland,NY,13045,US,607-758-1310,42.568221,-76.218553,"LobbyHours : Mon 9:00 - 6:00, Tue 9:00 - 6:00, Wed 9:00 - 6:00, Thu 9:00 - 6:00, Fri 9:00 - 6:00, Sat 10:00 - 3:00, Sun 10:00 - 3:00, Drive-up Hours ",,,
ATM - NY Vets Home,,4211 State Highway 220,,Oxford,NY,13830,,,42.446094,-75.578238,LobbyHours : Drive-up Hours ,,,
Oneonta East,,5582 State Highway 7,,Oneonta,NY,13820,US,607-436-7298,42.462585,-75.013612,"LobbyHours : Mon 9:00 - 5:00, Tue 9:00 - 5:00, Wed 9:00 - 5:00, Thu 9:00 - 5:00, Fri 9:00 - 5:00, Sat 9:00 - 12:00, Drive-up Hours : Mon 9:00 - 5:00, Tue 9:00 - 5:00, Wed 9:00 - 5:00, Thu 9:00 - 5:00, Fri 9:00 - 5:00, Sat 9:00 - 12:00",,,
ATM - SUNY Oneonta,,SUNY Oneonta,Organization of Aux. Services,Oneonta,NY,13820,,,42.471662,-75.061919,LobbyHours : Drive-up Hours ,,,
Marathon,,14 East Main Street,P.O. Box 279,Marathon,NY,13803,US,607-849-3275,42.440495,-76.033981,"LobbyHours : Mon 9:00 - 3:00, Tue 9:00 - 3:00, Wed 9:00 - 3:00, Thu 9:00 - 3:00, Fri 9:00 - 5:00, Drive-up Hours : Mon 9:00 - 3:00, Tue 9:00 - 3:00, Wed 9:00 - 3:00, Thu 9:00 - 3:00, Fri 9:00 - 5:00, Sat ",,,
Norwich South Plaza,,5632 State Highway 12,,Norwich,NY,13815,US,607-337-6700,42.514096,-75.522718,"LobbyHours : Mon 9:00 - 5:00, Tue 9:00 - 5:00, Wed 9:00 - 5:00, Thu 9:00 - 5:00, Fri 9:00 - 5:00, Sat 9:00 - 12:00, Drive-up Hours : Mon 9:00 - 5:00, Tue 9:00 - 5:00, Wed 9:00 - 5:00, Thu 9:00 - 5:00, Fri 9:00 - 5:00, Sat 9:00 - 12:00",,,
ATM - Cortland Memorial Hospital,,134 Homer Avenue,,Cortland,NY,13045,,,42.608842,-76.187635,LobbyHours : Drive-up Hours ,,,
Sherburne,,30 North Main Street,P.O. Box 712,Sherburne,NY,13460,US,607-674-2071,42.679428,-75.499954,"LobbyHours : Mon 9:00 - 5:00, Tue 9:00 - 5:00, Wed 9:00 - 5:00, Thu 9:00 - 5:00, Fri 9:00 - 5:00, Sat 9:00 - 12:00, Drive-up Hours : Mon 9:00 - 5:00, Tue 9:00 - 5:00, Wed 9:00 - 5:00, Thu 9:00 - 5:00, Fri 9:00 - 5:00, Sat 9:00 - 12:00",,,
Edmeston,,One West Street,P.O. Box 305,Edmeston,NY,13335,US,607-965-8636,42.697722,-75.244388,"LobbyHours : Mon 9:00 - 4:30, Tue 9:00 - 4:30, Wed 9:00 - 4:30, Thu 9:00 - 4:30, Fri 9:00 - 5:30, Drive-up Hours : Mon 9:00 - 4:30, Tue 9:00 - 4:30, Wed 9:00 - 4:30, Thu 9:00 - 4:30, Fri 9:00 - 5:30",,,
Cooperstown,,62 Pioneer Street,,Cooperstown,NY,13326,US,607-547-9971,42.699185,-74.925404,"LobbyHours : Mon 8:30 - 4:00, Tue 8:30 - 4:00, Wed 8:30 - 4:00, Thu 8:30 - 5:00, Fri 8:30 - 5:00, Drive-up Hours : Mon 8:30 - 4:00, Tue 8:30 - 4:00, Wed 8:30 - 4:00, Thu 8:30 - 5:00, Fri 8:30 - 5:00",,,
Cobleskill,,691 East Main Street,,Cobleskill,NY,12043,US,518-234-4331,42.679439,-74.478638,"LobbyHours : Mon 9:00 - 4:30, Tue 9:00 - 4:30, Wed 9:00 - 4:30, Thu 9:00 - 4:30, Fri 9:00 - 5:00, Sat 9:00 - 12:00, Drive-up Hours : Mon 9:00 - 4:30, Tue 9:00 - 4:30, Wed 9:00 - 4:30, Thu 9:00 - 4:30, Fri 9:00 - 5:00, Sat 9:00 - 12:00",,,
Schoharie,,271 Main Street,P.O. Box 688,Schoharie,NY,12157,US,518-295-7788,42.663582,-74.313087,"LobbyHours : Mon 9:00 - 3:00, Tue 9:00 - 3:00, Wed 9:00 - 3:00, Thu 9:00 - 5:00, Fri 9:00 - 5:00, Sat 9:00 - 12:00, Drive-up Hours : Mon 9:00 - 3:00, Tue 9:00 - 3:00, Wed 9:00 - 3:00, Thu 9:00 - 5:00, Fri 9:00 - 5:00, Sat 9:00 - 12:00",,,
Pittsfield Financial Center,,54 North Street,Suite 101,Pittsfield,MA,01201,US,413-448-6162,42.449354,-73.25363,"LobbyHours : Mon 8:30 - 4:30, Tue 8:30 - 4:30, Wed 8:30 - 4:30, Thu 8:30 - 5:00, Fri 8:30 - 5:00, Drive-up Hours ",,,
Earlville,,2 South Main Street,P.O. Box 69,Earlville,NY,13332,US,315-691-2976,42.739513,-75.545286,"LobbyHours : Mon 8:30 - 3:00, Tue 8:30 - 3:00, Wed 8:30 - 3:00, Thu 8:30 - 5:00, Fri 8:30 - 5:00, Drive-up Hours ",,,
Pittsfield,,609 Merrill Road,,Pittsfield,MA,01201,US,413-496-9780,42.465297,-73.206308,"LobbyHours : Mon 9:00 - 4:00, Tue 9:00 - 4:00, Wed 9:00 - 4:00, Thu 9:00 - 4:00, Fri 9:00 - 5:00, Sat 9:00 - 12:00, Drive-up Hours : Mon 9:00 - 4:00, Tue 9:00 - 4:00, Wed 9:00 - 4:00, Thu 9:00 - 4:00, Fri 9:00 - 5:00, Sat 9:00 - 12:00",,,
East Greenbush,,425 Columbia Turnpike,,Rensselaer,NY,12144,US,,42.606401,-73.720226,"LobbyHours : Mon 8:30 - 4:00, Tue 8:30 - 4:00, Wed 8:30 - 4:00, Thu 8:30 - 5:00, Fri 8:30 - 5:00, Sat 9:00 - 12:00, Drive-up Hours : Mon 8:30 - 4:00, Tue 8:30 - 4:00, Wed 8:30 - 4:00, Thu 8:30 - 5:00, Fri 8:30 - 5:00, Sat 9:00 - 12:00",,,
ATM - Colgate University,,13 Oak Drive,,Hamilton,NY,13346,,,42.819446,-75.536395,LobbyHours : Drive-up Hours ,,,
Duanesburg,,4957 Western Turnpike,P.O. Box 159,Duanesburg,NY,12056,US,518-895-2364,42.760687,-74.131235,"LobbyHours : Mon 9:00 - 4:00, Tue 9:00 - 4:00, Wed 9:00 - 4:00, Thu 9:00 - 4:00, Fri 9:00 - 5:00, Sat 9:00 - 12:00, Drive-up Hours : Mon 9:00 - 4:00, Tue 9:00 - 4:00, Wed 9:00 - 4:00, Thu 9:00 - 4:00, Fri 9:00 - 5:00, Sat 9:00 - 12:00",,,
Hamilton,,1 Madison Street,,Hamilton,NY,13346,US,315-824-1330,42.827015,-75.544356,"LobbyHours : Mon 9:00 - 4:00, Tue 9:00 - 4:00, Wed 9:00 - 4:00, Thu 9:00 - 5:00, Fri 9:00 - 5:00, Drive-up Hours ",,,
Remote Drive up and ATM - Hamilton,,40 Utica Street,,Hamilton,NY,13346,,315-824-2212,42.827957153,-75.546463013,"LobbyHours : Mon 8:00 - 5:00, Tue 8:00 - 5:00, Wed 8:00 - 5:00, Thu 8:00 - 5:00, Fri 8:00 - 6:00, Drive-up Hours : Mon 8:00 - 5:00, Tue 8:00 - 5:00, Wed 8:00 - 5:00, Thu 8:00 - 5:00, Fri 8:00 - 6:00, Sat ",,,
Albany,,80 Wolf Road,Suite 101,Albany,NY,12205,US,518-437-4100,42.715648,-73.813015,"LobbyHours : Mon 8:00 - 5:00, Tue 8:00 - 5:00, Wed 8:00 - 5:00, Thu 8:00 - 5:00, Fri 8:00 - 5:00, Drive-up Hours ",,,
Albany,,54 State Street,Suite 100,Albany,NY,12207,US,518-426-3285,42.649103,-73.751849,"LobbyHours : Mon 8:30 - 4:00, Tue 8:30 - 4:00, Wed 8:30 - 4:00, Thu 8:30 - 4:00, Fri 8:30 - 5:00, Drive-up Hours ",,,
Cherry Valley,,16 Main Street,P.O. Box 491,Cherry Valley,NY,13320,US,607-264-8411,42.796741,-74.753662,"LobbyHours : Mon 9:00 - 3:00, Tue 9:00 - 3:00, Wed 9:00 - 3:00, Thu 9:00 - 3:00, Fri 9:00 - 6:00, Drive-up Hours ",,,
Sharon Springs,,"105 Main Street, Suite 1",P.O. Box 387,Sharon Springs,NY,13459,US,518-284-2231,42.789857,-74.622121,"LobbyHours : Mon 9:00 - 3:00, Tue 9:00 - 3:00, Wed 9:00 - 3:00, Thu 9:00 - 4:30, Fri 9:00 - 4:30, Sat 9:00 - 12:00, Drive-up Hours : Mon 9:00 - 3:00, Tue 9:00 - 3:00, Wed 9:00 - 3:00, Thu 9:00 - 4:30, Fri 9:00 - 4:30, Sat 9:00 - 12:00",,,
Guilderland,,5 New Karner Road,,Guilderland,NY,12084,US,518-452-2507,42.698445,-73.886311,"LobbyHours : Mon 8:30 - 4:30, Tue 8:30 - 4:30, Wed 8:30 - 4:30, Thu 8:30 - 4:30, Fri 8:30 - 5:00, Sat 9:00 - 12:00, Drive-up Hours : Mon 8:30 - 4:30, Tue 8:30 - 4:30, Wed 8:30 - 4:30, Thu 8:30 - 4:30, Fri 8:30 - 5:00, Sat 9:00 - 12:00",,,
ATM - Colgate University - Hockey Arena,,56 College Street,,Hamilton,NY,13346,,,42.817888,-75.544008,LobbyHours : Drive-up Hours ,,,
ATM - Madison Marketplace,,Route 12B,,Hamilton,NY,13346,,,42.842162,-75.554996,LobbyHours : Drive-up Hours ,,,
Richfield Springs,,194 Main Street,P.O. Box 958,Richfield Springs,NY,13439,US,315-858-2800,42.852457,-74.980588,"LobbyHours : Mon 9:00 - 3:00, Tue 9:00 - 3:00, Wed 9:00 - 3:00, Thu 9:00 - 5:00, Fri 9:00 - 5:00, Sat 9:00 - 12:00, Drive-up Hours : Mon 9:00 - 3:00, Tue 9:00 - 3:00, Wed 9:00 - 3:00, Thu 9:00 - 5:00, Fri 9:00 - 5:00, Sat 9:00 - 12:00",,,
Tully,,5789 Route 80,,Tully,NY,13159,US,315-696-6333,42.798849,-76.118764,"LobbyHours : Mon 8:30 - 3:30, Tue 8:30 - 3:30, Wed 8:30 - 3:30, Thu 8:30 - 5:00, Fri 8:30 - 5:00, Sat 9:00 - 12:00, Drive-up Hours : Mon 8:30 - 3:30, Tue 8:30 - 3:30, Wed 8:30 - 3:30, Thu 8:30 - 5:00, Fri 8:30 - 5:00, Sat 9:00 - 12:00",,,
Latham,,703 Troy Schenectady Road,,Latham,NY,12110,US,518-783-4725,42.756824,-73.776649,"LobbyHours : Mon 8:30 - 4:00, Tue 8:30 - 4:00, Wed 8:30 - 4:00, Thu 8:30 - 5:00, Fri 8:30 - 5:00, Sat 9:00 - 12:00, Drive-up Hours : Mon 8:30 - 4:00, Tue 8:30 - 4:00, Wed 8:30 - 4:00, Thu 8:30 - 5:00, Fri 8:30 - 5:00, Sat 9:00 - 12:00",,,
Schenectady,,433 State Street,Suite 130,Schenectady,NY,12305,US,518-381-4512,42.813096,-73.942037,"LobbyHours : Mon 8:00 - 5:00, Tue 8:00 - 5:00, Wed 8:00 - 5:00, Thu 8:00 - 5:00, Fri 8:00 - 5:00, Drive-up Hours ",,,
Canajoharie,,20 Mohawk Street,,Canajoharie,NY,13317,US,518-673-3201,42.905575,-74.573125,"LobbyHours : Mon 8:00 - 5:00, Tue 8:00 - 5:00, Wed 8:00 - 5:00, Thu 8:00 - 5:00, Fri 8:00 - 6:00, Sat 9:00 - 12:00, Drive-up Hours : Mon 8:00 - 5:00, Tue 8:00 - 5:00, Wed 8:00 - 5:00, Thu 8:00 - 5:00, Fri 8:00 - 6:00, Sat 9:00 - 12:00",,,
Fort Plain,,41 Canal Street,,Fort Plain,NY,13339,US,518-993-2393,42.931582,-74.623713,"LobbyHours : Mon 9:00 - 3:00, Tue 9:00 - 3:00, Wed 9:00 - 3:00, Thu 9:00 - 4:30, Fri 9:00 - 4:30, Sat 9:00 - 12:00, Drive-up Hours : Mon 9:00 - 3:00, Tue 9:00 - 3:00, Wed 9:00 - 3:00, Thu 9:00 - 4:30, Fri 9:00 - 4:30, Sat 9:00 - 12:00",,,
Halfmoon,,225 Guideboard Road,,Halfmoon,NY,12065,US,518-371-0484,42.838406,-73.740917,"LobbyHours : Mon 9:00 - 4:00, Tue 9:00 - 4:00, Wed 9:00 - 4:00, Thu 9:00 - 4:00, Fri 9:00 - 6:00, Sat 9:00 - 12:00, Drive-up Hours : Mon 9:00 - 4:00, Tue 9:00 - 4:00, Wed 9:00 - 4:00, Thu 9:00 - 4:00, Fri 9:00 - 6:00, Sat 9:00 - 12:00",,,
North Adams,,331 State Road,,North Adams,MA,01247,US,413-664-6521,42.698101,-73.147006,"LobbyHours : Mon 9:00 - 4:00, Tue 9:00 - 4:00, Wed 9:00 - 4:00, Thu 9:00 - 4:00, Fri 9:00 - 5:30, Sat 9:00 - 12:00, Drive-up Hours : Mon 9:00 - 4:00, Tue 9:00 - 4:00, Wed 9:00 - 4:00, Thu 9:00 - 4:00, Fri 9:00 - 5:30, Sat 9:00 - 12:00",,,
Clifton Park,,9 Clifton Country Road,,Clifton Park,NY,12065,US,518-348-0781,42.85978,-73.781513,"LobbyHours : Mon 9:00 - 4:00, Tue 9:00 - 4:00, Wed 9:00 - 4:00, Thu 9:00 - 5:00, Fri 9:00 - 6:00, Sat 9:00 - 12:00, Drive-up Hours : Mon 9:00 - 4:00, Tue 9:00 - 4:00, Wed 9:00 - 4:00, Thu 9:00 - 5:00, Fri 9:00 - 6:00, Sat 9:00 - 12:00",,,
Fonda,,34 West Main Street,P.O. Box 517,Fonda,NY,12068,US,518-853-4621,42.954615,-74.37679,"LobbyHours : Mon 9:00 - 3:00, Tue 9:00 - 3:00, Wed 9:00 - 3:00, Thu 9:00 - 5:00, Fri 9:00 - 5:00, Drive-up Hours : Mon 9:00 - 3:00, Tue 9:00 - 3:00, Wed 9:00 - 3:00, Thu 9:00 - 5:00, Fri 9:00 - 5:00, Sat ",,,
Fonda Remote Drive-up with ATM,,20 West Main Street,,Fonda,NY,12068,,,42.954684,-74.375973,"LobbyHours : Drive-up Hours : Mon , Tue , Wed , Thu , Fri , Sat ",,,
St. Johnsville,,16 West Main Street,,St. Johnsville,NY,13452,US,518-568-7612,42.998952,-74.679598,"LobbyHours : Mon 9:00 - 4:00, Tue 9:00 - 4:00, Wed 9:00 - 4:00, Thu 9:00 - 4:30, Fri 9:00 - 4:30, Sat 9:00 - 12:00, Drive-up Hours : Mon 9:00 - 4:00, Tue 9:00 - 4:00, Wed 9:00 - 4:00, Thu 9:00 - 4:30, Fri 9:00 - 4:30, Sat 9:00 - 12:00",,,
ATM Saint Mary's Hospital  - Amsterdam,,427 Guy Park Avenue,Saint Mary's Hospital,Amsterdam,NY,12010,,,42.954245,-74.215271,LobbyHours : Drive-up Hours ,,,
Herkimer,,399 E. Albany Street,,Herkimer,NY,13350,US,315-867-2133,43.028043,-74.979694,"LobbyHours : Mon 8:30 - 5:00, Tue 8:30 - 5:00, Wed 8:30 - 5:00, Thu 8:30 - 5:00, Fri 8:30 - 5:30, Sat 9:00 - 12:00, Drive-up Hours : Mon 8:30 - 5:00, Tue 8:30 - 5:00, Wed 8:30 - 5:00, Thu 8:30 - 5:00, Fri 8:30 - 5:30, Sat 9:00 - 12:00",,,
ATM - Hamilton College,,College Hill,,Clinton,NY,13323,,,43.05257,-75.407116,LobbyHours : Drive-up Hours ,,,
ATM - Johnstown Holiday Inn,,308 N Comrie Avenue,,Johnstown,NY,12095,,,43.022197,-74.360583,LobbyHours : Drive-up Hours ,,,
Fayetteville,,6930 East Genesee Street,P.O. Box 645,Fayetteville,NY,13066,US,315-449-4770,43.027781,-76.043015,"LobbyHours : Mon 8:30 - 4:00, Tue 8:30 - 4:00, Wed 8:30 - 4:00, Thu 8:30 - 4:00, Fri 8:30 - 5:00, Sat 9:00 - 12:00, Drive-up Hours : Mon 8:30 - 4:00, Tue 8:30 - 4:00, Wed 8:30 - 4:00, Thu 8:30 - 4:00, Fri 8:30 - 5:00, Sat 9:00 - 12:00",,,
Sherrill,,628 Sherrill Road,,Sherrill,NY,13461,US,315-363-5250,43.068505,-75.602428,"LobbyHours : Mon 9:00 - 4:00, Tue 9:00 - 4:00, Wed 9:00 - 4:00, Thu 9:00 - 5:00, Fri 9:00 - 5:00, Drive-up Hours : Mon 9:00 - 4:00, Tue 9:00 - 4:00, Wed 9:00 - 4:00, Thu 9:00 - 5:00, Fri 9:00 - 5:00",,,
New Hartford,,8549 Seneca Turnpike,,New Hartford,NY,13413,US,315-797-0698,43.079563,-75.316154,"LobbyHours : Mon 8:30 - 5:00, Tue 8:30 - 5:00, Wed 8:30 - 5:00, Thu 8:30 - 5:00, Fri 8:30 - 5:30, Sat 9:00 - 12:00, Drive-up Hours : Mon 8:30 - 5:00, Tue 8:30 - 5:00, Wed 8:30 - 5:00, Thu 8:30 - 5:00, Fri 8:30 - 5:30, Sat 9:00 - 12:00",,,
Amsterdam,,106 Hannaford Plaza,,Amsterdam,NY,12010,US,518-842-2123,42.966234,-74.185916,"LobbyHours : Mon 9:00 - 5:00, Tue 9:00 - 5:00, Wed 9:00 - 5:00, Thu 9:00 - 6:00, Fri 9:00 - 6:00, Sat 9:00 - 1:00, Drive-up Hours : Mon 9:00 - 5:00, Tue 9:00 - 5:00, Wed 9:00 - 5:00, Thu 9:00 - 6:00, Fri 9:00 - 6:00, Sat 9:00 - 1:00",,,
ATM - FMCC Johnstown,,2805 St Hwy 67,,Johnstown,NY,12095,,,42.980854,-74.292727,LobbyHours : Drive-up Hours ,,,
Manlius,,8250 Manlius-Cazenovia Road,,Manlius,NY,13104,US,315-682-3171,42.991043,-75.956245,"LobbyHours : Mon 8:30 - 4:00, Tue 8:30 - 4:00, Wed 8:30 - 4:00, Thu 8:30 - 4:00, Fri 8:30 - 5:00, Sat 9:00 - 12:00, Drive-up Hours : Mon 8:30 - 4:00, Tue 8:30 - 4:00, Wed 8:30 - 4:00, Thu 8:30 - 4:00, Fri 8:30 - 5:00, Sat 9:00 - 12:00",,,
Clinton,,One Kirkland Ave,P.O. Box 365,Clinton,NY,13323,US,315-853-5501,43.049776,-75.379386,"LobbyHours : Mon 9:00 - 5:00, Tue 9:00 - 5:00, Wed 9:00 - 5:00, Thu 9:00 - 5:00, Fri 9:00 - 5:00, Sat 9:00 - 12:00, Drive-up Hours : Mon 9:00 - 5:00, Tue 9:00 - 5:00, Wed 9:00 - 5:00, Thu 9:00 - 5:00, Fri 9:00 - 5:00",,,
Johnstown,,142 North Comrie Avenue,,Johnstown,NY,12095,US,518-762-1998,43.012318,-74.360048,"LobbyHours : Mon 8:00 - 5:00, Tue 8:00 - 5:00, Wed 8:00 - 5:00, Thu 8:00 - 5:00, Fri 8:00 - 6:00, Sat 8:00 - 12:00, Drive-up Hours : Mon 8:00 - 5:00, Tue 8:00 - 5:00, Wed 8:00 - 5:00, Thu 8:00 - 5:00, Fri 8:00 - 6:00, Sat 8:00 - 12:00",,,
Canastota,,3273 Seneca Turnpike,,Canastota,NY,13032,US,315-697-2231,43.069236,-75.760068,"LobbyHours : Mon 9:00 - 4:00, Tue 9:00 - 4:00, Wed 9:00 - 4:00, Thu 9:00 - 5:00, Fri 9:00 - 5:00, Sat 9:00 - 12:00, Drive-up Hours : Mon 9:00 - 4:00, Tue 9:00 - 4:00, Wed 9:00 - 4:00, Thu 9:00 - 5:00, Fri 9:00 - 5:00, Sat 9:00 - 12:00",,,
ATM - Oneida Hospital,,321 Genesee Street,,Oneida,NY,13421,,,43.077889,-75.654131,LobbyHours : Drive-up Hours ,,,
ATM - Slocum Dickson Medical Center,,1729 Burrstone Road,,New Hartford,NY,13413,,,43.092967,-75.278695,LobbyHours : Drive-up Hours ,,,
Oneida South,,118 Genesee Street,,Oneida,NY,13421,US,315-363-0973,43.079613,-75.643744,"LobbyHours : Mon 9:00 - 5:00, Tue 9:00 - 5:00, Wed 9:00 - 5:00, Thu 9:00 - 5:30, Fri 9:00 - 5:30, Sat 9:00 - 12:00, Drive-up Hours : Mon 9:00 - 5:00, Tue 9:00 - 5:00, Wed 9:00 - 5:00, Thu 9:00 - 5:30, Fri 9:00 - 5:30, Sat 9:00 - 12:00",,,
Gloversville Financial Center,,12 Fremont Street,P.O. Box 873,Gloversville,NY,12078,US,518-773-5156,43.051853,-74.343446,"LobbyHours : Mon 8:30 - 4:00, Tue 8:30 - 4:00, Wed 8:30 - 4:00, Thu 8:30 - 4:00, Fri 8:30 - 5:00, Sat 9:00 - 12:00, Drive-up Hours : Mon 8:30 - 4:00, Tue 8:30 - 4:00, Wed 8:30 - 4:00, Thu 8:30 - 4:00, Fri 8:30 - 5:00, Sat 9:00 - 12:00",,,
Utica Financial Center,,270 Genesee Street,,Utica,NY,13502,US,315-738-8701,43.099265,-75.236627,"LobbyHours : Mon 9:00 - 4:00, Tue 9:00 - 4:00, Wed 9:00 - 4:00, Thu 9:00 - 5:00, Fri 9:00 - 5:00, Drive-up Hours : Mon 9:00 - 4:00, Tue 9:00 - 4:00, Wed 9:00 - 4:00, Thu 9:00 - 5:00, Fri 9:00 - 5:00",,,
Syracuse Marshall Street,,101 Marshall Street,,Syracuse,NY,13210,US,315-703-1300,43.041646,-76.136638,"LobbyHours : Mon 9:00 - 4:00, Tue 9:00 - 4:00, Wed 9:00 - 4:00, Thu 9:00 - 4:00, Fri 9:00 - 4:00, Drive-up Hours ",,,
Gloversville,,199 2nd Ave,,Gloversville,NY,12078,US,518-773-7348,43.056885,-74.323951,"LobbyHours : Mon 8:00 - 5:00, Tue 8:00 - 5:00, Wed 8:00 - 5:00, Thu 8:00 - 5:00, Fri 8:00 - 6:00, Sat 8:00 - 12:00, Drive-up Hours : Mon 8:00 - 5:00, Tue 8:00 - 5:00, Wed 8:00 - 5:00, Thu 8:00 - 5:00, Fri 8:00 - 6:00, Sat 8:00 - 12:00",,,
Vail Mills,,3711 State Highway 30,P.O. Box 668,Broadalbin,NY,12025,US,518-883-3416,43.04707,-74.215997,"LobbyHours : Mon 9:00 - 5:00, Tue 9:00 - 5:00, Wed 9:00 - 5:00, Thu 9:00 - 5:00, Fri 9:00 - 6:00, Sat 9:00 - 12:00, Drive-up Hours : Mon 9:00 - 5:00, Tue 9:00 - 5:00, Wed 9:00 - 5:00, Thu 9:00 - 5:00, Fri 9:00 - 6:00, Sat 9:00 - 12:00",,,
ATM - AXA Building,,120 Madison Street,,Syracuse,NY,13202,,,43.045066833,-76.149871826,LobbyHours : Drive-up Hours ,,,
Camillus,,5390 W Genesee Street,,Camillus,NY,13031,US,315-487-2180,43.041415,-76.274875,"LobbyHours : Mon 9:00 - 4:00, Tue 9:00 - 4:00, Wed 9:00 - 4:00, Thu 9:00 - 5:00, Fri 9:00 - 5:00, Sat 9:00 - 12:00, Drive-up Hours : Mon 9:00 - 4:00, Tue 9:00 - 4:00, Wed 9:00 - 4:00, Thu 9:00 - 5:00, Fri 9:00 - 5:00, Sat 9:00 - 12:00",,,
ATM - Turning Stone Casino (2 ATMs),,5218 Patrick Road,,Verona,NY,13478,,,43.116116,-75.587225,LobbyHours : Drive-up Hours ,,,
East Syracuse,,6563 Weighlock Drive,,East Syracuse,NY,13057,US,315-437-2546,43.087692,-76.080078,"LobbyHours : Mon 9:00 - 5:00, Tue 9:00 - 5:00, Wed 9:00 - 5:00, Thu 9:00 - 5:00, Fri 9:00 - 5:00, Drive-up Hours : Mon 9:00 - 5:00, Tue 9:00 - 5:00, Wed 9:00 - 5:00, Thu 9:00 - 5:00, Fri 9:00 - 5:00",,,
Middleville,,12 North Main Street,P.O. Box 407,Middleville,NY,13406,US,315-891-7502,43.13954,-74.969554,"LobbyHours : Mon 9:00 - 4:00, Tue 9:00 - 4:00, Wed 9:00 - 4:00, Thu 9:00 - 4:00, Fri 9:00 - 5:00, Drive-up Hours ",,,
Saratoga Springs,,295 Broadway,,Saratoga Springs,NY,12866,US,518-587-0330,43.078464,-73.786128,"LobbyHours : Mon 9:00 - 4:00, Tue 9:00 - 4:00, Wed 9:00 - 4:00, Thu 9:00 - 6:00, Fri 9:00 - 6:00, Sat 8:30 - 12:30, Drive-up Hours : Mon 9:00 - 4:00, Tue 9:00 - 4:00, Wed 9:00 - 4:00, Thu 9:00 - 6:00, Fri 9:00 - 6:00, Sat 8:30 - 12:30",,,
Oneida,,160 Main Street,,Oneida,NY,13421,US,315-280-6404,43.094471,-75.651862,"LobbyHours : Mon 9:00 - 4:00, Tue 9:00 - 4:00, Wed 9:00 - 4:00, Thu 9:00 - 4:00, Fri 9:00 - 5:00, Drive-up Hours : Mon 9:00 - 4:00, Tue 9:00 - 4:00, Wed 9:00 - 4:00, Thu 9:00 - 4:00, Fri 9:00 - 5:00",,,
Syracuse Downtown,,"One Park Place, 300 South State Street",,Syracuse,NY,13202,US,315-475-1268,43.048345,-76.147645,"LobbyHours : Mon 9:00 - 3:30, Tue 9:00 - 3:30, Wed 9:00 - 3:30, Thu 9:00 - 3:30, Fri 9:00 - 4:00, Drive-up Hours ",,,
ATM - Nathan Littauer Hospital - Gloversville,,99 E State Street,,Gloversville,NY,12078,,,43.069516,-74.330007,LobbyHours : Drive-up Hours ,,,
Whitesboro,,131 Oriskany Boulevard,,Whitesboro,NY,13492,US,315-736-6832,43.119222,-75.293942,"LobbyHours : Mon 9:00 - 4:00, Tue 9:00 - 4:00, Wed 9:00 - 4:00, Thu 9:00 - 5:00, Fri 9:00 - 5:00, Drive-up Hours : Mon 9:00 - 4:00, Tue 9:00 - 4:00, Wed 9:00 - 4:00, Thu 9:00 - 5:00, Fri 9:00 - 5:00",,,
Syracuse James Street,,1001 James Street,,Syracuse,NY,13203,US,315-474-3306,43.060042,-76.134614,"LobbyHours : Mon 9:00 - 4:00, Tue 9:00 - 4:00, Wed 9:00 - 4:00, Thu 9:00 - 4:00, Fri 9:00 - 5:00, Drive-up Hours : Mon 9:00 - 4:00, Tue 9:00 - 4:00, Wed 9:00 - 4:00, Thu 9:00 - 4:00, Fri 9:00 - 5:00",,,
North Syracuse,,700 North Main Street,,North Syracuse,NY,13212,US,315-458-1343,43.143268,-76.12658,"LobbyHours : Mon 8:30 - 4:00, Tue 8:30 - 4:00, Wed 8:30 - 4:00, Thu 8:30 - 5:00, Fri 8:30 - 6:00, Sat 9:00 - 12:00, Drive-up Hours : Mon 8:30 - 4:00, Tue 8:30 - 4:00, Wed 8:30 - 4:00, Thu 8:30 - 5:00, Fri 8:30 - 6:00, Sat 9:00 - 12:00",,,
Rome Black River,,853 Black River Boulevard,,Rome,NY,13440,US,315-337-7393,43.220803,-75.446367,"LobbyHours : Mon 9:00 - 5:00, Tue 9:00 - 5:00, Wed 9:00 - 5:00, Thu 9:00 - 5:00, Fri 9:00 - 5:30, Sat 9:00 - 12:00, Drive-up Hours : Mon 9:00 - 5:00, Tue 9:00 - 5:00, Wed 9:00 - 5:00, Thu 9:00 - 5:00, Fri 9:00 - 5:30, Sat 9:00 - 12:00",,,
Rome Westgate,,1148 Erie Boulevard West,,Rome,NY,13440,US,315-339-3200,43.223184,-75.483751,"LobbyHours : Mon 9:00 - 5:00, Tue 9:00 - 5:00, Wed 9:00 - 5:00, Thu 9:00 - 5:00, Fri 9:00 - 5:30, Sat 9:00 - 12:00, Drive-up Hours : Mon 9:00 - 5:00, Tue 9:00 - 5:00, Wed 9:00 - 5:00, Thu 9:00 - 5:00, Fri 9:00 - 5:30, Sat 9:00 - 12:00",,,
ATM - Rome Hospital,,1500 N James Street,,Rome,NY,13440,,,43.228961,-75.444223,LobbyHours : Drive-up Hours ,,,
Baldwinsville,,8260 Willett Parkway,,Baldwinsville,NY,13027,US,315-638-3200,43.167753,-76.299379,"LobbyHours : Mon 8:30 - 4:00, Tue 8:30 - 4:00, Wed 8:30 - 4:00, Thu 8:30 - 5:00, Fri 8:30 - 6:00, Drive-up Hours : Mon 8:30 - 4:00, Tue 8:30 - 4:00, Wed 8:30 - 4:00, Thu 8:30 - 5:00, Fri 8:30 - 6:00",,,
Keene,,391 West Street,,Keene,NH,03431,US,603-352-0674,42.933238,-72.292753,"LobbyHours : Mon 9:00 - 5:00, Tue 9:00 - 5:00, Wed 9:00 - 5:00, Thu 9:00 - 5:00, Fri 9:00 - 5:00, Drive-up Hours ",,,
Queensbury,,242 Quaker Road,,Queensbury,NY,12804,US,518-793-8841,43.331853,-73.65166,"LobbyHours : Mon 9:00 - 5:00, Tue 9:00 - 5:00, Wed 9:00 - 5:00, Thu 9:00 - 6:00, Fri 9:00 - 6:00, Sat 9:00 - 1:00, Drive-up Hours : Mon 9:00 - 5:00, Tue 9:00 - 5:00, Wed 9:00 - 5:00, Thu 9:00 - 6:00, Fri 9:00 - 6:00, Sat 9:00 - 1:00",,,
Speculator Office,,2966 State Route 30,P.O. Box 227,Speculator,NY,12164,US,518-548-7211,43.502570,-74.36484,"LobbyHours : Mon 9:00 - 4:00, Tue 9:00 - 4:00, Wed 9:00 - 4:00, Thu 9:00 - 5:00, Fri 9:00 - 5:00, Drive-up Hours ",,,
Oswego West,,30 West Utica Road,,Oswego,NY,13126,US,315-343-1100,43.451662,-76.511556,"LobbyHours : Mon 8:30 - 5:00, Tue 8:30 - 5:00, Wed 8:30 - 5:00, Thu 8:30 - 5:00, Fri 8:30 - 6:00, Sat 9:00 - 12:00, Drive-up Hours : Mon 8:30 - 5:00, Tue 8:30 - 5:00, Wed 8:30 - 5:00, Thu 8:30 - 5:00, Fri 8:30 - 6:00, Sat 9:00 - 12:00",,,
Oswego East,,161 Street Route 104,,Oswego,NY,13126,US,315-342-6272,43.461597,-76.483743,"LobbyHours : Mon 8:30 - 5:00, Tue 8:30 - 5:00, Wed 8:30 - 5:00, Thu 8:30 - 5:00, Fri 8:30 - 6:00, Sat 9:00 - 12:00, Drive-up Hours : Mon 8:30 - 5:00, Tue 8:30 - 5:00, Wed 8:30 - 5:00, Thu 8:30 - 5:00, Fri 8:30 - 6:00, Sat 9:00 - 12:00",,,
Northville,,312 Bridge Street,,Northville,NY,12134,US,518-863-2101,43.225223,-74.174621,"LobbyHours : Mon 8:00 - 4:00, Tue 8:00 - 4:00, Wed 8:00 - 4:00, Thu 8:00 - 5:00, Fri 8:00 - 5:00, Sat 8:00 - 12:00, Drive-up Hours : Mon 8:00 - 4:00, Tue 8:00 - 4:00, Wed 8:00 - 4:00, Thu 8:00 - 5:00, Fri 8:00 - 5:00, Sat 8:00 - 12:00",,,
Brewerton,,9556 Brewerton Road,,Brewerton,NY,13029,US,315-668-7081,43.232014,-76.138508,"LobbyHours : Mon 8:30 - 4:00, Tue 8:30 - 4:00, Wed 8:30 - 4:00, Thu 8:30 - 5:00, Fri 8:30 - 5:30, Drive-up Hours : Mon 8:30 - 4:00, Tue 8:30 - 4:00, Wed 8:30 - 4:00, Thu 8:30 - 5:00, Fri 8:30 - 5:30",,,
Fulton,,1930 State Route 3,,Fulton,NY,13069,US,315-593-2165,43.319207,-76.436734,"LobbyHours : Mon 8:30 - 4:00, Tue 8:30 - 4:00, Wed 8:30 - 4:00, Thu 8:30 - 5:00, Fri 8:30 - 6:00, Sat 9:00 - 12:00, Drive-up Hours : Mon 8:30 - 4:00, Tue 8:30 - 4:00, Wed 8:30 - 4:00, Thu 8:30 - 5:00, Fri 8:30 - 6:00, Sat 9:00 - 12:00",,,
South Glens Falls,,110 Main Street,,South Glens Falls,NY,12803,US,518-798-2180,43.299882,-73.636284,"LobbyHours : Mon 9:00 - 4:00, Tue 9:00 - 4:00, Wed 9:00 - 4:00, Thu 9:00 - 6:00, Fri 9:00 - 6:00, Sat 9:00 - 12:00, Drive-up Hours : Mon 9:00 - 4:00, Tue 9:00 - 4:00, Wed 9:00 - 4:00, Thu 9:00 - 6:00, Fri 9:00 - 6:00, Sat 9:00 - 12:00",,,
Glens Falls,,86 Glen Street,,Glens Falls,NY,12801,US,518-745-5269,43.308294,-73.643354,"LobbyHours : Mon 9:00 - 4:00, Tue 9:00 - 4:00, Wed 9:00 - 4:00, Thu 9:00 - 6:00, Fri 9:00 - 6:00, Drive-up Hours ",,,
ATM - SUNY Oswego,,Hewitt Student University,,Oswego,NY,13126,,,43.452409,-76.544079,LobbyHours : Drive-up Hours ,,,
Pulaski,,4879 N Jefferson Street,,Pulaski,NY,13142,US,315-298-5117,43.567726,-76.126933,"LobbyHours : Mon 8:00 - 4:00, Tue 8:00 - 4:00, Wed 8:00 - 4:00, Thu 8:00 - 5:00, Fri 8:00 - 6:00, Sat 9:00 - 12:00, Drive-up Hours : Mon 8:00 - 4:00, Tue 8:00 - 4:00, Wed 8:00 - 4:00, Thu 8:00 - 5:00, Fri 8:00 - 6:00, Sat 9:00 - 12:00",,,
Nashua,,221 Main Street,,Nashua,NH,03060,US,603-324-1064,42.759285,-71.464787,"LobbyHours : Mon 9:00 - 5:00, Tue 9:00 - 5:00, Wed 9:00 - 5:00, Thu 9:00 - 5:00, Fri 9:00 - 5:00, Drive-up Hours ",,,
ATM - Cross Roads Shopping Center,,123 Nashua Road,,Londonderry,NH,03053,,,42.845618,-71.360781,LobbyHours : Drive-up Hours ,,,
Manchester,,80 Canal Street,,Manchester,NH,03101,US,603-623-2007,42.985393,-71.465688,"LobbyHours : Mon 9:00 - 5:00, Tue 9:00 - 5:00, Wed 9:00 - 5:00, Thu 9:00 - 5:00, Fri 9:00 - 5:00, Sat 9:00 - 12:00, Drive-up Hours : Mon 9:00 - 5:00, Tue 9:00 - 5:00, Wed 9:00 - 5:00, Thu 9:00 - 5:00, Fri 9:00 - 5:00, Sat 9:00 - 12:00",,,
Rutland,,122 West Street,Suite 101,Rutland,VT,05701,US,802-747-6982,43.607689,-72.980000,"LobbyHours : Mon 8:30 - 5:00, Tue 8:30 - 5:00, Wed 8:30 - 5:00, Thu 8:30 - 5:00, Fri 8:30 - 5:00, Drive-up Hours ",,,
Portsmouth,,100 Market Street,Suite 201,Portsmouth,NH,03801,US,603-334-1280,43.078113,-70.759027,"LobbyHours : Mon 8:30 - 5:00, Tue 8:30 - 5:00, Wed 8:30 - 5:00, Thu 8:30 - 5:00, Fri 8:30 - 5:00, Drive-up Hours ",,,
Lake Placid,,2483 Main Street,,Lake Placid,NY,12946,US,518-523-9544,44.288662,-73.984802,"LobbyHours : Mon 8:30 - 3:00, Tue 8:30 - 3:00, Wed 8:30 - 5:00, Thu 8:30 - 5:00, Fri 8:30 - 5:00, Drive-up Hours ",,,
Placid Outpost,,1944 Saranac Avenue,,Lake Placid,NY,12946,US,518-523-3025,44.295323,-74.010365,"LobbyHours : Mon 8:30 - 5:30, Tue 8:30 - 5:30, Wed 8:30 - 5:30, Thu 8:30 - 5:30, Fri 8:30 - 5:30, Sat 9:00 - 12:00, Drive-up Hours : Mon 8:30 - 5:30, Tue 8:30 - 5:30, Wed 8:30 - 5:30, Thu 8:30 - 5:30, Fri 8:30 - 5:30, Sat 9:00 - 12:00",,,
Saranac Lake,,209 Lake Flower Avenue,P.O. Box 629,Saranac Lake,NY,12983,US,518-891-2050,44.322885,-74.122089,"LobbyHours : Mon 8:30 - 5:00, Tue 8:30 - 5:00, Wed 8:30 - 5:00, Thu 8:30 - 5:00, Fri 8:30 - 5:00, Sat 9:00 - 12:00, Drive-up Hours : Mon 8:30 - 5:00, Tue 8:30 - 5:00, Wed 8:30 - 5:00, Thu 8:30 - 5:00, Fri 8:30 - 5:00, Sat 9:00 - 12:00",,,
Cooperstown,,2 Commons Drive,,Cooperstown,NY,13326,US,607-547-8301,42.651511,-74.964116,"LobbyHours : Mon 8:30 - 4:00, Tue 8:30 - 4:00, Wed 8:30 - 4:00, Thu 8:30 - 5:00, Fri 8:30 - 5:00, Sat 9:00 - 12:00, Drive-up Hours : Mon 8:30 - 4:00, Tue 8:30 - 4:00, Wed 8:30 - 4:00, Thu 8:30 - 5:00, Fri 8:30 - 5:00, Sat 9:00 - 12:00",,,
South Otselic,,1572 State Highway 26,P.O. Box 167,South Otselic,NY,13155,US,315-653-4500,42.645166,-75.783412,"LobbyHours : Mon 9:00 - 3:00, Tue 9:00 - 3:00, Wed 9:00 - 3:00, Thu 9:00 - 3:00, Fri 9:00 - 5:00, Drive-up Hours : Mon 9:00 - 3:00, Tue 9:00 - 3:00, Wed 9:00 - 3:00, Thu 9:00 - 3:00, Fri 9:00 - 5:00",,,
Lenox,,2 Holmes Road,,Lenox,MA,01240,US,413-997-2828,42.400605,-73.266375,"LobbyHours : Mon 9:00 - 4:00, Tue 9:00 - 4:00, Wed 9:00 - 4:00, Thu 9:00 - 4:00, Fri 9:00 - 5:00, Sat 9:00 - 12:00, Drive-up Hours : Mon 9:00 - 4:00, Tue 9:00 - 4:00, Wed 9:00 - 4:00, Thu 9:00 - 4:00, Fri 9:00 - 5:00, Sat 9:00 - 12:00",,,
Cortland,,65 Main Street,,Cortland,NY,13045,US,607-758-1200,42.599141,-76.180161,"LobbyHours : Mon 8:30 - 4:00, Tue 8:30 - 4:00, Wed 8:30 - 4:00, Thu 8:30 - 4:00, Fri 8:30 - 4:00, Drive-up Hours : Mon 8:30 - 4:00, Tue 8:30 - 4:00, Wed 8:30 - 4:00, Thu 8:30 - 4:00, Fri 8:30 - 4:00",,,
Cortland,,1125 State Route 222,,Cortland,NY,13045,US,607-753-3391,42.599804,-76.20084,"LobbyHours : Mon 9:00 - 4:30, Tue 9:00 - 4:30, Wed 9:00 - 4:30, Thu 9:00 - 5:00, Fri 9:00 - 5:00, Sat 9:00 - 12:00, Drive-up Hours : Mon 9:00 - 4:30, Tue 9:00 - 4:30, Wed 9:00 - 4:30, Thu 9:00 - 5:00, Fri 9:00 - 5:00, Sat 9:00 - 12:00",,,
ATM - Adirondack Medical Center,,Lake Colby Drive,,Saranac Lake,NY,12983,,,44.342752,-74.143882,LobbyHours : Drive-up Hours ,,,
ATM - Wilmington,,Route 86,,Wilmington,NY,12997,,,44.389000,-73.823145,LobbyHours : Drive-up Hours ,,,
ATM - Paul Smith College,,Route 86 & Route 30,,Paul Smith,NY,12970,,,44.437828,-74.251728,LobbyHours : Drive-up Hours ,,,
Canton,,5 Park Place,,Canton,NY,13617,US,315-386-2265,44.59518,-75.16658,"LobbyHours : Mon 8:30 - 5:00, Tue 8:30 - 5:00, Wed 8:30 - 5:00, Thu 8:30 - 5:00, Fri 8:30 - 5:00, Sat 9:00 - 12:00, Drive-up Hours : Mon 8:30 - 5:00, Tue 8:30 - 5:00, Wed 8:30 - 5:00, Thu 8:30 - 5:00, Fri 8:30 - 5:00, Sat 9:00 - 12:00",,,
ATM - SUNY Canton,,"34 Cornell Drive, Chaney Dining Hall",,Canton,NY,13617,,,44.596120,-75.188256,LobbyHours : Drive-up Hours ,,,
Norfolk,,53 West Main Street,P.O. Box 760,Norfolk,NY,13667,US,315-384-4206,44.80129,-74.992864,"LobbyHours : Mon 10:00 - 2:00, Tue 10:00 - 2:00, Wed 10:00 - 2:00, Thu 10:00 - 2:00, Fri 10:00 - 2:00, Drive-up Hours ",,,
Plattsburgh Route 3,,482 Route 3,,Plattsburgh,NY,12901,US,518-561-5845,44.69701,-73.495132,"LobbyHours : Mon 9:00 - 5:30, Tue 9:00 - 5:30, Wed 9:00 - 5:30, Thu 9:00 - 6:00, Fri 9:00 - 6:00, Sat 9:00 - 1:00, Drive-up Hours : Mon 9:00 - 5:30, Tue 9:00 - 5:30, Wed 9:00 - 5:30, Thu 9:00 - 6:00, Fri 9:00 - 6:00, Sat 9:00 - 1:00",,,
Plattsburgh Margaret Street,,83 Margaret Street,,Plattsburgh,NY,12901,US,518-561-1221,44.69758,-73.452912,"LobbyHours : Mon 9:00 - 3:00, Tue 9:00 - 3:00, Wed 9:00 - 3:00, Thu 9:00 - 5:00, Fri 9:00 - 4:00, Drive-up Hours ",,,
Malone,,3392 State Route 11,,Malone,NY,12953,US,518-483-8333,44.847679,-74.312404,"LobbyHours : Mon 8:00 - 5:00, Tue 8:00 - 5:00, Wed 8:00 - 5:00, Thu 8:00 - 5:00, Fri 8:00 - 5:00, Sat 9:00 - 12:00, Drive-up Hours : Mon 8:00 - 5:00, Tue 8:00 - 5:00, Wed 8:00 - 5:00, Thu 8:00 - 5:00, Fri 8:00 - 5:00, Sat 9:00 - 12:00",,,
Maine Regional Headquarters,,254 Commercial Street,"Merrill's Wharf, 2nd Floor",Portland,ME,04101,US,207-808-4485,43.654563904,-70.254737854,"LobbyHours : Mon 8:00 - 5:00, Tue 8:00 - 5:00, Wed 8:00 - 5:00, Thu 8:00 - 5:00, Fri 8:00 - 5:00, Drive-up Hours ",,,
Massena,,264 Main Street,,Massena,NY,13662,US,315-764-1112,44.923722,-74.891068,"LobbyHours : Mon 8:30 - 5:00, Tue 8:30 - 5:00, Wed 8:30 - 5:00, Thu 8:30 - 5:00, Fri 8:30 - 5:00, Sat 9:00 - 12:00, Drive-up Hours : Mon 8:30 - 5:00, Tue 8:30 - 5:00, Wed 8:30 - 5:00, Thu 8:30 - 5:00, Fri 8:30 - 5:00, Sat 9:00 - 12:00",,,
ATM - Massena Memorial Hospital,,1 Hospital Drive,,Massena,NY,13662,,,44.935788,-74.907362,LobbyHours : Drive-up Hours ,,,
Ellenburg Depot,,5084 Route 11,,Ellenburg Depot,NY,12935,US,518-594-3933,44.905853,-73.800471,"LobbyHours : Mon 9:00 - 3:00, Tue 9:00 - 3:00, Wed 9:00 - 4:00, Thu 9:00 - 3:00, Fri 9:00 - 3:00, Drive-up Hours ",,,
Williston,,1 Taft Corners Shopping Center,,Williston,VT,05495,US,802-879-0809,44.449755,-73.10961,"LobbyHours : Mon 9:00 - 5:00, Tue 9:00 - 5:00, Wed 9:00 - 5:00, Thu 9:00 - 5:00, Fri 9:00 - 6:00, Sat 9:00 - 12:00, Drive-up Hours : Mon 9:00 - 5:00, Tue 9:00 - 5:00, Wed 9:00 - 5:00, Thu 9:00 - 5:00, Fri 9:00 - 6:00, Sat 9:00 - 12:00",,,
Burlington,,150 Bank Street,,Burlington,VT,05401,US,802-318-9150,44.478416,-73.213896,"LobbyHours : Mon 8:30 - 5:00, Tue 8:30 - 5:00, Wed 8:30 - 5:00, Thu 8:30 - 5:00, Fri 8:30 - 6:00, Drive-up Hours : Mon 8:30 - 5:00, Tue 8:30 - 5:00, Wed 8:30 - 5:00, Thu 8:30 - 5:00, Fri 8:30 - 6:00",,,
Potsdam,,6554 State Hwy 56,P.O. Box 5240,Potsdam,NY,13676,US,315-265-9950,44.68566,-74.986664,"LobbyHours : Mon 8:30 - 5:00, Tue 8:30 - 5:00, Wed 8:30 - 5:00, Thu 8:30 - 5:00, Fri 8:30 - 5:00, Sat 9:00 - 12:00, Drive-up Hours : Mon 8:30 - 5:00, Tue 8:30 - 5:00, Wed 8:30 - 5:00, Thu 8:30 - 5:00, Fri 8:30 - 5:00, Sat 9:00 - 12:00",,,
Ogdensburg,,2800 Ford Street Extension,,Ogdensburg,NY,13669,US,315-393-8820,44.707047,-75.459819,"LobbyHours : Mon 8:30 - 5:00, Tue 8:30 - 5:00, Wed 8:30 - 5:00, Thu 8:30 - 5:00, Fri 8:30 - 5:00, Sat 9:00 - 12:00, Drive-up Hours : Mon 8:30 - 5:00, Tue 8:30 - 5:00, Wed 8:30 - 5:00, Thu 8:30 - 5:00, Fri 8:30 - 5:00, Sat 9:00 - 12:00",,,
Essex,,2 Commonwealth Avenue,,Essex Junction,VT,05452,US,802-878-7202,44.509456,-73.083194,"LobbyHours : Mon 8:30 - 5:00, Tue 8:30 - 5:00, Wed 8:30 - 5:00, Thu 8:30 - 5:00, Fri 8:30 - 6:00, Sat 9:00 - 12:00, Drive-up Hours : Mon 8:30 - 5:00, Tue 8:30 - 5:00, Wed 8:30 - 5:00, Thu 8:30 - 5:00, Fri 8:30 - 6:00, Sat 9:00 - 12:00",,,
