store_name,store_number,address,address2,city,state,zip_code,country,phone_number,latitude,longitude,store_hours,store_type,other_fields,coming_soon
Oswego &#8211 #388,33436,51 West Utica Street,,Oswego,NY,13126,United States,315 343-2740,43.451992,-76.512911,"Monday 5:00 AM - 12:00 AM, Tuesday 5:00 AM - 12:00 AM, Wednesday 5:00 AM - 12:00 AM, Thursday 5:00 AM - 12:00 AM, Friday 5:00 AM - 12:00 AM, Saturday 5:00 AM - 12:00 AM, Sunday 5:00 AM - 12:00 AM",,,
Minetto &#8211 #413,33455,2763 State Route 48,,Minetto,NY,13112,United States,315 343-2673,43.3978037,-76.4734786,"Monday 4:30 AM - 12:00 AM, Tuesday 4:30 AM - 12:00 AM, Wednesday 4:30 AM - 12:00 AM, Thursday 4:30 AM - 12:00 AM, Friday 4:30 AM - 12:00 AM, Saturday 4:30 AM - 12:00 AM, Sunday 4:30 AM - 12:00 AM",,,
Baldwinsville &#8211 #452,33490,120 Oswego Street,,Baldwinsville,NY,13027,United States,315-635-1059,43.1667708,-76.3393679,"Monday 4:00 AM - 12:00 AM, Tuesday 4:00 AM - 12:00 AM, Wednesday 4:00 AM - 12:00 AM, Thursday 4:00 AM - 12:00 AM, Friday 4:00 AM - 12:00 AM, Saturday 4:00 AM - 12:00 AM, Sunday 4:00 AM - 12:00 AM",,,
Liverpool &#8211 #391,33441,7667 Morgan Road,,Liverpool,NY,13090,United States,315 652-3821,43.141902,-76.2068776,"Monday 4:30 AM - 12:00 AM, Tuesday 4:30 AM - 12:00 AM, Wednesday 4:30 AM - 12:00 AM, Thursday 4:30 AM - 12:00 AM, Friday 4:30 AM - 12:00 AM, Saturday 4:30 AM - 12:00 AM, Sunday 4:30 AM - 12:00 AM",,,
Buckley &#8211 #451,33489,7576 Buckley Road,,Liverpool,NY,13090,United States,315-458-6487,43.1366603,-76.1704335,"Monday 4:30 AM - 12:00 AM, Tuesday 4:30 AM - 12:00 AM, Wednesday 4:30 AM - 12:00 AM, Thursday 4:30 AM - 12:00 AM, Friday 4:30 AM - 12:00 AM, Saturday 4:30 AM - 12:00 AM, Sunday 4:30 AM - 12:00 AM",,,
Adams &#8211 #399,33442,10546 US Route 11,,Adams,NY,13605,United States,315 232-3913,43.820683,-76.022263,"Monday 4:00 AM - 12:00 AM, Tuesday 4:00 AM - 12:00 AM, Wednesday 4:00 AM - 12:00 AM, Thursday 4:00 AM - 12:00 AM, Friday 4:00 AM - 12:00 AM, Saturday 4:00 AM - 12:00 AM, Sunday 4:00 AM - 12:00 AM",,,
Brownville &#8211 #344,33392,101 W. Main Street.,,Brownville,NY,13615,United States,315 779-9676,44.002254,-75.9836681,"Monday 4:30 AM - 12:00 AM, Tuesday 4:30 AM - 12:00 AM, Wednesday 4:30 AM - 12:00 AM, Thursday 4:30 AM - 12:00 AM, Friday 4:30 AM - 12:00 AM, Saturday 4:30 AM - 12:00 AM, Sunday 4:30 AM - 12:00 AM",,,
Washington St.  Watertown &#8211 #113,33167,1226 Washington Street,,Watertown,NY,13601,United States,315 788-6740,43.9597989,-75.9140369,"Monday 5:00 AM - 11:30 PM, Tuesday 5:00 AM - 11:30 PM, Wednesday 5:00 AM - 11:30 PM, Thursday 5:00 AM - 11:30 PM, Friday 5:00 AM - 11:30 PM, Saturday 5:00 AM - 11:30 PM, Sunday 5:00 AM - 11:30 PM",,,
Coffeen St.  Watertown &#8211 #433,33477,229 North Massey Street,,Watertown,NY,13601,United States,315 782-5699,43.978792,-75.915906,"Monday 4:00 AM - 1:00 AM, Tuesday 4:00 AM - 1:00 AM, Wednesday 4:00 AM - 1:00 AM, Thursday 4:00 AM - 1:00 AM, Friday 4:00 AM - 1:00 AM, Saturday 4:00 AM - 1:00 AM, Sunday 4:00 AM - 1:00 AM",,,
Mill Street &#8211 #436,33480,508 Mill Street,,Watertown,NY,13601,United States,315 788-4296,43.9794455,-75.906376,"Monday 4:30 AM - 1:00 AM, Tuesday 4:30 AM - 1:00 AM, Wednesday 4:30 AM - 1:00 AM, Thursday 4:30 AM - 1:00 AM, Friday 4:30 AM - 1:00 AM, Saturday 4:30 AM - 1:00 AM, Sunday 4:30 AM - 1:00 AM",,,
Gifford St.  Watertown &#8211 #441,33483,1870 STATE STREET,,Watertown,NY,13601,United States,315 782-0357,43.965179,-75.874549,"Monday 4:30 AM - 12:00 AM, Tuesday 4:30 AM - 12:00 AM, Wednesday 4:30 AM - 12:00 AM, Thursday 4:30 AM - 12:00 AM, Friday 4:30 AM - 12:00 AM, Saturday 4:30 AM - 12:00 AM, Sunday 4:30 AM - 12:00 AM",,,
Black River &#8211 #428,33469,29038 New York 3,,Black River,NY,13612,United States,315 773-5061,44.006361,-75.796315,"Monday 4:30 AM - 12:00 AM, Tuesday 4:30 AM - 12:00 AM, Wednesday 4:30 AM - 12:00 AM, Thursday 4:30 AM - 12:00 AM, Friday 4:30 AM - 12:00 AM, Saturday 4:30 AM - 12:00 AM, Sunday 4:30 AM - 12:00 AM",,,
Evans Mills &#8211 #442,33484,8722 Noble Street,,Evans Mills,NY,13637,United States,315 629-5329,44.088989,-75.808248,"Monday 4:30 AM - 12:00 AM, Tuesday 4:30 AM - 12:00 AM, Wednesday 4:30 AM - 12:00 AM, Thursday 4:30 AM - 12:00 AM, Friday 4:30 AM - 12:00 AM, Saturday 4:30 AM - 12:00 AM, Sunday 4:30 AM - 12:00 AM",,,
Great Bend &#8211 #437,33476,32720 Route 3,,Great Bend,NY,13643,United States,315 493-2123,44.0340551,-75.7182942,"Monday 4:30 AM - 12:00 AM, Tuesday 4:30 AM - 12:00 AM, Wednesday 4:30 AM - 12:00 AM, Thursday 4:30 AM - 12:00 AM, Friday 4:30 AM - 12:00 AM, Saturday 4:30 AM - 12:00 AM, Sunday 4:30 AM - 12:00 AM",,,
Copenhagen &#8211 #439,33479,148 Main Street,,Copenhagen,NY,13626,United States,315 688-2026,43.8944943,-75.6745101,"Monday 4:30 AM - 12:00 AM, Tuesday 4:30 AM - 12:00 AM, Wednesday 4:30 AM - 12:00 AM, Thursday 4:30 AM - 12:00 AM, Friday 4:30 AM - 12:00 AM, Saturday 4:30 AM - 12:00 AM, Sunday 4:30 AM - 12:00 AM",,,
Philadelphia &#8211 #429,33475,86 N Main St,,Philadelphia,NY,13673,United States,315 642-5509,44.159048,-75.705543,"Monday 4:30 AM - 12:00 AM, Tuesday 4:30 AM - 12:00 AM, Wednesday 4:30 AM - 12:00 AM, Thursday 4:30 AM - 12:00 AM, Friday 4:30 AM - 12:00 AM, Saturday 4:30 AM - 12:00 AM, Sunday 4:30 AM - 12:00 AM",,,
Sherburne &#8211 #426,33467,9 N Main St.,,Sherburne,NY,13460,United States,607 674-6625,42.679105,-75.498936,"Monday 12:00 AM - 11:59 PM, Tuesday 12:00 AM - 11:59 PM, Wednesday 12:00 AM - 11:59 PM, Thursday 12:00 AM - 11:59 PM, Friday 12:00 AM - 11:59 PM, Saturday 12:00 AM - 11:59 PM, Sunday 12:00 AM - 11:59 PM",,,
West Carthage &#8211 #438,33478,9 N. Broad,,Carthage,NY,13619,United States,315 493-2287,43.9680048,-75.6243319,"Monday 4:30 AM - 12:00 AM, Tuesday 4:30 AM - 12:00 AM, Wednesday 4:30 AM - 12:00 AM, Thursday 4:30 AM - 12:00 AM, Friday 4:30 AM - 12:00 AM, Saturday 4:30 AM - 12:00 AM, Sunday 4:30 AM - 12:00 AM",,,
Westmoreland &#8211 #455,33496,5319 State Route 233,,Westmoreland,NY,13490,United States,315-381-3677,43.119598,-75.40533,"Monday 4:00 AM - 12:00 AM, Tuesday 4:00 AM - 12:00 AM, Wednesday 4:00 AM - 12:00 AM, Thursday 4:00 AM - 12:00 AM, Friday 4:00 AM - 12:00 AM, Saturday 4:00 AM - 12:00 AM, Sunday 4:00 AM - 12:00 AM",,,
Lowville &#8211 #443,33485,7487 S State St,,Lowville,NY,13367,United States,315 376-4542,43.7837768,-75.4901221,"Monday 4:00 AM - 12:00 AM, Tuesday 4:00 AM - 12:00 AM, Wednesday 4:00 AM - 12:00 AM, Thursday 4:00 AM - 12:00 AM, Friday 4:00 AM - 12:00 AM, Saturday 4:00 AM - 12:00 AM, Sunday 4:00 AM - 12:00 AM",,,
Waterville &#8211 #132,33191,124 West Main Street,,Waterville,NY,13480,United States,315 841-8386,42.9308957,-75.3810992,"Monday 4:30 AM - 12:00 AM, Tuesday 4:30 AM - 12:00 AM, Wednesday 4:30 AM - 12:00 AM, Thursday 4:30 AM - 12:00 AM, Friday 4:30 AM - 12:00 AM, Saturday 4:30 AM - 12:00 AM, Sunday 4:30 AM - 12:00 AM",,,
New Berlin &#8211 #221,33275,5 N Main Street,,New Berlin,NY,13411,United States,607 847-6740,42.624599,-75.332871,"Monday 4:00 AM - 12:00 AM, Tuesday 4:00 AM - 12:00 AM, Wednesday 4:00 AM - 12:00 AM, Thursday 4:00 AM - 12:00 AM, Friday 4:00 AM - 12:00 AM, Saturday 4:00 AM - 12:00 AM, Sunday 4:00 AM - 12:00 AM",,,
Kirkland &#8211 #361,33411,206 Clinton Rd,,Clinton,NY,13323,United States,315 853-1435,43.0686632,-75.3478955,"Monday 4:00 AM - 11:30 PM, Tuesday 4:00 AM - 11:30 PM, Wednesday 4:00 AM - 11:30 PM, Thursday 4:00 AM - 11:30 PM, Friday 4:00 AM - 11:30 PM, Saturday 4:00 AM - 11:30 PM, Sunday 4:00 AM - 11:30 PM",,,
New Hartford &#8211 #453,33495,4756 Middle Settlement Road,,New Hartford,NY,13413,United States,315-736-2073,43.095221,-75.318585,"Monday 4:00 AM - 12:00 AM, Tuesday 4:00 AM - 12:00 AM, Wednesday 4:00 AM - 12:00 AM, Thursday 4:00 AM - 12:00 AM, Friday 4:00 AM - 12:00 AM, Saturday 4:00 AM - 12:00 AM, Sunday 4:00 AM - 12:00 AM",,,
Lyons Falls &#8211 #372,33416,3906 New York 12,,Lyons Falls,NY,13368,United States,315 348-8913,43.616516,-75.368078,"Monday 4:30 AM - 12:00 AM, Tuesday 4:30 AM - 12:00 AM, Wednesday 4:30 AM - 12:00 AM, Thursday 4:30 AM - 12:00 AM, Friday 4:30 AM - 12:00 AM, Saturday 4:30 AM - 12:00 AM, Sunday 4:30 AM - 12:00 AM",,,
Boonville &#8211 #440,33482,434 Post Street,,Boonville,NY,13309,United States,315 942-3708,43.481969,-75.335292,"Monday 4:30 AM - 12:00 AM, Tuesday 4:30 AM - 12:00 AM, Wednesday 4:30 AM - 12:00 AM, Thursday 4:30 AM - 12:00 AM, Friday 4:30 AM - 12:00 AM, Saturday 4:30 AM - 12:00 AM, Sunday 4:30 AM - 12:00 AM",,,
Holland Patent &#8211 #434,33473,9566 Main Street,,Holland Patent,NY,13354,United States,315 865-9907,43.2428566,-75.2548576,"Monday 4:00 AM - 12:00 AM, Tuesday 4:00 AM - 12:00 AM, Wednesday 4:00 AM - 12:00 AM, Thursday 4:00 AM - 12:00 AM, Friday 4:00 AM - 12:00 AM, Saturday 4:00 AM - 12:00 AM, Sunday 4:00 AM - 12:00 AM",,,
Gouverneur &#8211 #423,33466,242 E Main St,,Gouverneur,NY,13642,United States,315 287-1820,44.3374275,-75.460742,"Monday 4:00 AM - 12:00 AM, Tuesday 4:00 AM - 12:00 AM, Wednesday 4:00 AM - 12:00 AM, Thursday 4:00 AM - 12:00 AM, Friday 4:00 AM - 12:00 AM, Saturday 4:00 AM - 12:00 AM, Sunday 4:00 AM - 12:00 AM",,,
Court Street &#8211 #222,33276,425 Court Street,,Utica,NY,13502,United States,315 798-8068,43.100949,-75.239166,"Monday 4:30 AM - 12:00 AM, Tuesday 4:30 AM - 12:00 AM, Wednesday 4:30 AM - 12:00 AM, Thursday 4:30 AM - 12:00 AM, Friday 4:30 AM - 12:00 AM, Saturday 4:30 AM - 12:00 AM, Sunday 4:30 AM - 12:00 AM",,,
Culver Ave &#8211 #450,33493,1210 Culver Ave,,Utica,NY,13501,United States,315-724-2515,43.0819997,-75.2046099,"Monday 4:30 AM - 12:00 AM, Tuesday 4:30 AM - 12:00 AM, Wednesday 4:30 AM - 12:00 AM, Thursday 4:30 AM - 12:00 AM, Friday 4:30 AM - 12:00 AM, Saturday 4:30 AM - 12:00 AM, Sunday 4:30 AM - 12:00 AM",,,
Barneveld &#8211 #432,33472,8170 State Rt 12,,Barneveld,NY,13304,United States,315 896-2082,43.2591628,-75.1851048,"Monday 12:00 AM - 11:59 PM, Tuesday 12:00 AM - 11:59 PM, Wednesday 12:00 AM - 11:59 PM, Thursday 12:00 AM - 11:59 PM, Friday 12:00 AM - 11:59 PM, Saturday 12:00 AM - 11:59 PM, Sunday 12:00 AM - 11:59 PM",,,
Ford St.  Ogdensburg &#8211 #435,33474,703 Ford St.,,Ogdensburg,NY,13669,United States,315 393-3581,44.6997519,-75.487177,"Monday 5:00 AM - 12:00 AM, Tuesday 5:00 AM - 12:00 AM, Wednesday 5:00 AM - 12:00 AM, Thursday 5:00 AM - 12:00 AM, Friday 5:00 AM - 12:00 AM, Saturday 5:00 AM - 12:00 AM, Sunday 5:00 AM - 12:00 AM",,,
Harrisville &#8211 #339,33393,8258 Main St,,Harrisville,NY,13648,United States,315 543-7319,44.148907,-75.319402,"Monday 4:30 AM - 11:30 PM, Tuesday 4:30 AM - 11:30 PM, Wednesday 4:30 AM - 11:30 PM, Thursday 4:30 AM - 11:30 PM, Friday 4:30 AM - 11:30 PM, Saturday 4:30 AM - 11:30 PM, Sunday 4:30 AM - 11:30 PM",,,
Heuvelton &#8211 #371,33421,88 State Street,,Heuvelton,NY,13654,United States,315 344-6439,44.6179406,-75.4071515,"Monday 5:00 AM - 12:00 AM, Tuesday 5:00 AM - 12:00 AM, Wednesday 5:00 AM - 12:00 AM, Thursday 5:00 AM - 12:00 AM, Friday 5:00 AM - 12:00 AM, Saturday 5:00 AM - 12:00 AM, Sunday 5:00 AM - 12:00 AM",,,
Oneonta &#8211 #232,33283,47 Main Street,,Oneonta,NY,13820,United States,607 431-9359,42.4490219,-75.0645045,"Monday 4:30 AM - 12:00 AM, Tuesday 4:30 AM - 12:00 AM, Wednesday 4:30 AM - 12:00 AM, Thursday 4:30 AM - 12:00 AM, Friday 4:30 AM - 12:00 AM, Saturday 4:30 AM - 12:00 AM, Sunday 4:30 AM - 12:00 AM",,,
Frankfort &#8211 #427,33468,200 E. Main Street,,Frankfort,NY,13340,United States,315 894-9087,43.0375308,-75.069051,"Monday 4:00 AM - 12:00 AM, Tuesday 4:00 AM - 12:00 AM, Wednesday 4:00 AM - 12:00 AM, Thursday 4:00 AM - 12:00 AM, Friday 4:00 AM - 12:00 AM, Saturday 4:00 AM - 12:00 AM, Sunday 4:00 AM - 12:00 AM",,,
Poland &#8211 #175,33232,1 Cold Brook St,,Poland,NY,13431,United States,315 826-5417,43.2260122,-75.0611807,"Monday 4:30 AM - 12:00 AM, Tuesday 4:30 AM - 12:00 AM, Wednesday 4:30 AM - 12:00 AM, Thursday 4:30 AM - 12:00 AM, Friday 4:30 AM - 12:00 AM, Saturday 4:30 AM - 12:00 AM, Sunday 4:30 AM - 12:00 AM",,,
Ilion &#8211 #155,33207,27 E. Clark Street,,Ilion,NY,13357,United States,315 894-9814,43.0158239,-75.034035,"Monday 3:30 AM - 11:30 PM, Tuesday 3:30 AM - 11:30 PM, Wednesday 3:30 AM - 11:30 PM, Thursday 3:30 AM - 11:30 PM, Friday 3:30 AM - 11:30 PM, Saturday 3:30 AM - 11:30 PM, Sunday 3:30 AM - 11:30 PM",,,
Richfield Springs &#8211 #163,33217,119 Main Street,,Richfield Springs,NY,13439,United States,315 858-6140,42.853742,-74.987134,"Monday 4:30 AM - 12:00 AM, Tuesday 4:30 AM - 12:00 AM, Wednesday 4:30 AM - 12:00 AM, Thursday 4:30 AM - 12:00 AM, Friday 4:30 AM - 12:00 AM, Saturday 4:30 AM - 12:00 AM, Sunday 4:30 AM - 12:00 AM",,,
Herkimer &#8211 #114,33173,260 Mohawk Street,,Herkimer,NY,13350,United States,315 866-6501,43.022756,-74.98908,"Monday 4:00 AM - 12:00 AM, Tuesday 4:00 AM - 12:00 AM, Wednesday 4:00 AM - 12:00 AM, Thursday 4:00 AM - 12:00 AM, Friday 4:00 AM - 12:00 AM, Saturday 4:00 AM - 12:00 AM, Sunday 4:00 AM - 12:00 AM",,,
"Turin Rd., Rome &#8211 #377",33426,9128 Turin Rd,,Rome,NY,13440,United States,315 339-0063,42.852428,-74.9770606,"Monday 4:00 AM - 12:00 AM, Tuesday 4:00 AM - 12:00 AM, Wednesday 4:00 AM - 12:00 AM, Thursday 4:00 AM - 12:00 AM, Friday 4:00 AM - 12:00 AM, Saturday 4:00 AM - 12:00 AM, Sunday 4:00 AM - 12:00 AM",,,
Middleville &#8211 #343,33391,5 N. Main Street,,Middleville,NY,13406,United States,315 891-3432,43.1457269,-74.9742469,"Monday 4:00 AM - 12:00 AM, Tuesday 4:00 AM - 12:00 AM, Wednesday 4:00 AM - 12:00 AM, Thursday 4:00 AM - 12:00 AM, Friday 4:00 AM - 12:00 AM, Saturday 4:00 AM - 12:00 AM, Sunday 4:00 AM - 12:00 AM",,,
Cooperstown &#8211 #241,33296,105 Chestnut,,Cooperstown,NY,13326,United States,607 547-7248,42.6943463,-74.9340393,"Monday 4:30 AM - 12:00 AM, Tuesday 4:30 AM - 12:00 AM, Wednesday 4:30 AM - 12:00 AM, Thursday 4:30 AM - 12:00 AM, Friday 4:30 AM - 12:00 AM, Saturday 4:30 AM - 12:00 AM, Sunday 4:30 AM - 12:00 AM",,,
West Canton &#8211 #404,33445,32 Gouverneur St.,,Canton,NY,13617,United States,315 386-2648,44.5913647,-75.1757904,"Monday 5:00 AM - 12:00 AM, Tuesday 5:00 AM - 12:00 AM, Wednesday 5:00 AM - 12:00 AM, Thursday 5:00 AM - 12:00 AM, Friday 5:00 AM - 12:00 AM, Saturday 5:00 AM - 12:00 AM, Sunday 5:00 AM - 12:00 AM",,,
Canton &#8211 #119,33172,115 Main St,,Canton,NY,13617,United States,315 386-3157,44.597454,-75.148083,"Monday 5:00 AM - 12:00 AM, Tuesday 5:00 AM - 12:00 AM, Wednesday 5:00 AM - 12:00 AM, Thursday 5:00 AM - 12:00 AM, Friday 5:00 AM - 12:00 AM, Saturday 5:00 AM - 12:00 AM, Sunday 5:00 AM - 12:00 AM",,,
Little Falls &#8211 #171,33226,22 N. Ann Street,,Little Falls,NY,13365,United States,315 823-2887,43.0442035,-74.8601057,"Monday 12:00 AM - 11:59 PM, Tuesday 12:00 AM - 11:59 PM, Wednesday 12:00 AM - 11:59 PM, Thursday 12:00 AM - 11:59 PM, Friday 12:00 AM - 11:59 PM, Saturday 12:00 AM - 11:59 PM, Sunday 12:00 AM - 11:59 PM",,,
Dolgeville &#8211 #147,33206,97 N. Main Street,,Dolgeville,NY,13329,United States,315 429-3120,43.1045367,-74.7701501,"Monday 4:30 AM - 11:30 PM, Tuesday 4:30 AM - 11:30 PM, Wednesday 4:30 AM - 11:30 PM, Thursday 4:30 AM - 11:30 PM, Friday 4:30 AM - 11:30 PM, Saturday 4:30 AM - 11:30 PM, Sunday 4:30 AM - 11:30 PM",,,
Worcester &#8211 #351,33401,7 Hollenbeck Rd,,Worcester,NY,12197,United States,607 397-8959,42.59573,-74.731855,"Monday 4:30 AM - 11:30 PM, Tuesday 4:30 AM - 11:30 PM, Wednesday 4:30 AM - 11:30 PM, Thursday 4:30 AM - 11:30 PM, Friday 4:30 AM - 11:30 PM, Saturday 4:30 AM - 11:30 PM, Sunday 4:30 AM - 11:30 PM",,,
South Potsdam &#8211 #370,33420,26 Maple Street,,Potsdam,NY,13676,United States,315 265-4670,44.6672699,-74.9905018,"Monday 12:00 AM - 11:59 PM, Tuesday 12:00 AM - 11:59 PM, Wednesday 12:00 AM - 11:59 PM, Thursday 12:00 AM - 11:59 PM, Friday 12:00 AM - 11:59 PM, Saturday 12:00 AM - 11:59 PM, Sunday 12:00 AM - 11:59 PM",,,
Potsdam &#8211 #238,33288,79 Market Street,,Potsdam,NY,13676,United States,315 265-9707,44.672683,-74.987172,"Monday 5:00 AM - 12:00 AM, Tuesday 5:00 AM - 12:00 AM, Wednesday 5:00 AM - 12:00 AM, Thursday 5:00 AM - 12:00 AM, Friday 5:00 AM - 12:00 AM, Saturday 5:00 AM - 12:00 AM, Sunday 5:00 AM - 12:00 AM",,,
Monticello &#8211 #288,33335,14 Forestburgh Rd,,Monticello,NY,12701,United States,845 794-9103,41.6558163,-74.6959418,"Monday 5:00 AM - 11:00 PM, Tuesday 5:00 AM - 11:00 PM, Wednesday 5:00 AM - 11:00 PM, Thursday 5:00 AM - 11:00 PM, Friday 5:00 AM - 11:00 PM, Saturday 5:00 AM - 11:00 PM, Sunday 5:00 AM - 11:00 PM",,,
Fallsburg &#8211 #307,33356,5 Brickman Rd.,,Fallsburgh,NY,12733,United States,845 436-9502,41.730596,-74.605503,"Monday 5:00 AM - 11:00 PM, Tuesday 5:00 AM - 11:00 PM, Wednesday 5:00 AM - 11:00 PM, Thursday 5:00 AM - 11:00 PM, Friday 5:00 AM - 11:00 PM, Saturday 5:00 AM - 11:00 PM, Sunday 5:00 AM - 11:00 PM",,,
Wurtsboro &#8211 #376,33425,175 Kingston Ave.,,Wurtsboro,NY,12790,United States,845 888-2295,41.5781575,-74.4870842,"Monday 4:30 AM - 12:00 AM, Tuesday 4:30 AM - 12:00 AM, Wednesday 4:30 AM - 12:00 AM, Thursday 4:30 AM - 12:00 AM, Friday 4:30 AM - 12:00 AM, Saturday 4:30 AM - 12:00 AM, Sunday 4:30 AM - 12:00 AM",,,
Goshen &#8211 #323,33378,2525 Rt. 17M,,Goshen,NY,10924,United States,845 294-6307,41.3976309,-74.357032,"Monday 4:30 AM - 11:00 PM, Tuesday 4:30 AM - 11:00 PM, Wednesday 4:30 AM - 11:00 PM, Thursday 4:30 AM - 11:00 PM, Friday 4:30 AM - 11:00 PM, Saturday 4:30 AM - 11:00 PM, Sunday 4:30 AM - 11:00 PM",,,
Tower Drive  Middletown &#8211 #327,33381,333 Tower Drive,,Middletown,NY,10941,United States,845 692-6306,41.471715,-74.383373,"Monday 4:30 AM - 11:00 PM, Tuesday 4:30 AM - 11:00 PM, Wednesday 4:30 AM - 11:00 PM, Thursday 4:30 AM - 11:00 PM, Friday 4:30 AM - 11:00 PM, Saturday 4:30 AM - 11:00 PM, Sunday 4:30 AM - 11:00 PM",,,
Ellenville &#8211 #248,33301,99 S. Main Street,,Ellenville,NY,12428,United States,845 647-9592,41.717457,-74.3955019,"Monday 4:30 AM - 12:00 AM, Tuesday 4:30 AM - 12:00 AM, Wednesday 4:30 AM - 12:00 AM, Thursday 4:30 AM - 12:00 AM, Friday 4:30 AM - 12:00 AM, Saturday 4:30 AM - 12:00 AM, Sunday 4:30 AM - 12:00 AM",,,
Pine Bush &#8211 #290,33343,81 Boniface Drive,,Pine Bush,NY,12566,United States,845 744-6117,41.604524,-74.2947949,"Monday 5:00 AM - 11:00 PM, Tuesday 5:00 AM - 11:00 PM, Wednesday 5:00 AM - 11:00 PM, Thursday 5:00 AM - 11:00 PM, Friday 5:00 AM - 11:00 PM, Saturday 5:00 AM - 11:00 PM, Sunday 5:00 AM - 11:00 PM",,,
Maybrook &#8211 #337,33387,970 Homestead Ave.,,Maybrook,NY,12543,United States,845 427-0890,41.4843282,-74.2175997,"Monday 4:00 AM - 12:00 AM, Tuesday 4:00 AM - 12:00 AM, Wednesday 4:00 AM - 12:00 AM, Thursday 4:00 AM - 12:00 AM, Friday 4:00 AM - 12:00 AM, Saturday 4:00 AM - 12:00 AM, Sunday 4:00 AM - 12:00 AM",,,
Washingtonville &#8211 #322,33371,2 E Main St,,Washingtonville,NY,10992,United States,845 496-4008,41.4279448,-74.1658283,"Monday 4:30 AM - 11:30 PM, Tuesday 4:30 AM - 11:30 PM, Wednesday 4:30 AM - 11:30 PM, Thursday 4:30 AM - 11:30 PM, Friday 4:30 AM - 11:30 PM, Saturday 4:30 AM - 11:30 PM, Sunday 4:30 AM - 11:30 PM",,,
Walden &#8211 #381,33424,77 E.Main Street,,Walden,NY,12586,United States,845 778-0334,41.5613243,-74.1826421,"Monday 5:00 AM - 11:00 PM, Tuesday 5:00 AM - 11:00 PM, Wednesday 5:00 AM - 11:00 PM, Thursday 5:00 AM - 11:00 PM, Friday 5:00 AM - 11:00 PM, Saturday 5:00 AM - 11:00 PM, Sunday 5:00 AM - 11:00 PM",,,
Kerhonkson &#8211 #245,33294,6331 Route 209,,Kerhonkson,NY,12446,United States,845 626-9792,41.7747705,-74.2989832,"Monday 4:30 AM - 12:00 AM, Tuesday 4:30 AM - 12:00 AM, Wednesday 4:30 AM - 12:00 AM, Thursday 4:30 AM - 12:00 AM, Friday 4:30 AM - 12:00 AM, Saturday 4:30 AM - 12:00 AM, Sunday 4:30 AM - 12:00 AM",,,
Wallkill &#8211 #251,33304,3075 Rt. 208,,Wallkill,NY,12589,United States,845 895-9617,41.60063,-74.182158,"Monday 4:30 AM - 11:00 PM, Tuesday 4:30 AM - 11:00 PM, Wednesday 4:30 AM - 11:00 PM, Thursday 4:30 AM - 11:00 PM, Friday 4:30 AM - 11:00 PM, Saturday 4:30 AM - 11:00 PM, Sunday 4:30 AM - 11:00 PM",,,
Orange Lake &#8211 #278,33331,407 South Plank Rd.,,Newburgh,NY,12550,United States,845 564-9655,41.5393297,-74.0938568,"Monday 5:00 AM - 11:30 PM, Tuesday 5:00 AM - 11:30 PM, Wednesday 5:00 AM - 11:30 PM, Thursday 5:00 AM - 11:30 PM, Friday 5:00 AM - 11:30 PM, Saturday 5:00 AM - 11:30 PM, Sunday 5:00 AM - 11:30 PM",,,
Stamford &#8211 #289,33342,3 Lake Ave.,,Stamford,NY,12167,United States,607 652-3516,42.4105289,-74.625193,"Monday 4:30 AM - 12:00 AM, Tuesday 4:30 AM - 12:00 AM, Wednesday 4:30 AM - 12:00 AM, Thursday 4:30 AM - 12:00 AM, Friday 4:30 AM - 12:00 AM, Saturday 4:30 AM - 12:00 AM, Sunday 4:30 AM - 12:00 AM",,,
Modena &#8211 #393,33444,2060 Rt. 32,,Modena,NY,12548,United States,845 883-7145,41.665397,-74.10671,"Monday 5:00 AM - 11:00 PM, Tuesday 5:00 AM - 11:00 PM, Wednesday 5:00 AM - 11:00 PM, Thursday 5:00 AM - 11:00 PM, Friday 5:00 AM - 11:00 PM, Saturday 5:00 AM - 11:00 PM, Sunday 5:00 AM - 11:00 PM",,,
Middlehope &#8211 #264,33316,5223 Route 9W,,Newburgh,NY,12550,United States,845 562-9892,41.549148,-74.00698,"Monday 4:30 AM - 11:00 PM, Tuesday 4:30 AM - 11:00 PM, Wednesday 4:30 AM - 11:00 PM, Thursday 4:30 AM - 11:00 PM, Friday 4:30 AM - 11:00 PM, Saturday 4:30 AM - 11:00 PM, Sunday 4:30 AM - 11:00 PM",,,
New Paltz &#8211 #309,33359,98 N. chestnut Street,,New Paltz,NY,12561,United States,845 255-4382,41.754761,-74.083481,"Monday 5:00 AM - 11:30 PM, Tuesday 5:00 AM - 11:30 PM, Wednesday 5:00 AM - 11:30 PM, Thursday 5:00 AM - 11:30 PM, Friday 5:00 AM - 11:30 PM, Saturday 5:00 AM - 11:30 PM, Sunday 5:00 AM - 11:30 PM",,,
Wappingers Falls &#8211 #325,33374,2048 Route 9D,,Wappingers Falls,NY,12590,United States,845 838-1595,41.561354,-73.939167,"Monday 4:30 AM - 11:00 PM, Tuesday 4:30 AM - 11:00 PM, Wednesday 4:30 AM - 11:00 PM, Thursday 4:30 AM - 11:00 PM, Friday 4:30 AM - 11:00 PM, Saturday 4:30 AM - 11:00 PM, Sunday 4:30 AM - 11:00 PM",,,
Lake Walton (Hopewell Junction) &#8211 #355,33405,550 New York 82,,Hopewell Jct,NY,12533,United States,845 227-8213,41.5719403,-73.8341918,"Monday 4:30 AM - 11:30 PM, Tuesday 4:30 AM - 11:30 PM, Wednesday 4:30 AM - 11:30 PM, Thursday 4:30 AM - 11:30 PM, Friday 4:30 AM - 11:30 PM, Saturday 4:30 AM - 11:30 PM, Sunday 4:30 AM - 11:30 PM",,,
Fishkill Plains &#8211 #364,33414,860 Route 376,,Wappinger Falls,NY,12590,United States,845 227-2778,41.606301,-73.82521,"Monday 4:30 AM - 11:30 PM, Tuesday 4:30 AM - 11:30 PM, Wednesday 4:30 AM - 11:30 PM, Thursday 4:30 AM - 11:30 PM, Friday 4:30 AM - 11:30 PM, Saturday 4:30 AM - 11:30 PM, Sunday 4:30 AM - 11:30 PM",,,
Red Oaks Mill &#8211 #357,33407,54 Vassar Rd.,,Poughkeepsie,NY,12603,United States,845 463-0823,41.651769,-73.875789,"Monday 4:30 AM - 11:30 PM, Tuesday 4:30 AM - 11:30 PM, Wednesday 4:30 AM - 11:30 PM, Thursday 4:30 AM - 11:30 PM, Friday 4:30 AM - 11:30 PM, Saturday 4:30 AM - 11:30 PM, Sunday 4:30 AM - 11:30 PM",,,
South Milton &#8211 #299,33354,1872 Rt. 9W,,Milton,NY,12547,United States,845 795-2496,41.660986,-73.961185,"Monday 4:30 AM - 11:30 PM, Tuesday 4:30 AM - 11:30 PM, Wednesday 4:30 AM - 11:30 PM, Thursday 4:30 AM - 11:30 PM, Friday 4:30 AM - 11:30 PM, Saturday 4:30 AM - 11:30 PM, Sunday 4:30 AM - 11:30 PM",,,
East Poughkeepsie (Manchester Circle) &#8211 #387,33430,6 Manchester Circle,,Poughkeepsie,NY,12603,United States,845 452-5007,41.691187,-73.884883,"Monday 4:30 AM - 11:30 PM, Tuesday 4:30 AM - 11:30 PM, Wednesday 4:30 AM - 11:30 PM, Thursday 4:30 AM - 11:30 PM, Friday 4:30 AM - 11:30 PM, Saturday 4:30 AM - 11:30 PM, Sunday 4:30 AM - 11:30 PM",,,
Creek Rd  Poughkeepsie &#8211 #306,33355,85 Creek Road,,Poughkeepsie,NY,12601,United States,845 471-9014,41.720545,-73.904753,"Monday 4:30 AM - 11:00 PM, Tuesday 4:30 AM - 11:00 PM, Wednesday 4:30 AM - 11:00 PM, Thursday 4:30 AM - 11:00 PM, Friday 4:30 AM - 11:00 PM, Saturday 4:30 AM - 11:00 PM, Sunday 4:30 AM - 11:00 PM",,,
Mary Ave.  Poughkeepsie &#8211 #302,33357,1200 Dutchess Turnpike,,Poughkeepsie,NY,12601,United States,845 452-3709,41.7214036,-73.8470989,"Monday 4:30 AM - 11:00 PM, Tuesday 4:30 AM - 11:00 PM, Wednesday 4:30 AM - 11:00 PM, Thursday 4:30 AM - 11:00 PM, Friday 4:30 AM - 11:00 PM, Saturday 4:30 AM - 11:00 PM, Sunday 4:30 AM - 11:00 PM",,,
South Hyde Park &#8211 #313,33364,3648 Albany Post Rd.,,Poughkeepsie,NY,12601,United States,845 483-9346,41.738365,-73.929807,"Monday 4:30 AM - 11:30 PM, Tuesday 4:30 AM - 11:30 PM, Wednesday 4:30 AM - 11:30 PM, Thursday 4:30 AM - 11:30 PM, Friday 4:30 AM - 11:30 PM, Saturday 4:30 AM - 11:30 PM, Sunday 4:30 AM - 11:30 PM",,,
East Park (Rt. 9G) &#8211 #149,33202,1116 New York 9G,,Hyde Park,NY,12538,United States,845 229-9983,41.789013,-73.914553,"Monday 4:30 AM - 11:30 PM, Tuesday 4:30 AM - 11:30 PM, Wednesday 4:30 AM - 11:30 PM, Thursday 4:30 AM - 11:30 PM, Friday 4:30 AM - 11:30 PM, Saturday 4:30 AM - 11:30 PM, Sunday 4:30 AM - 11:30 PM",,,
Millbrook &#8211 #317,33372,3292 Franklin Ave.,,Millbrook,NY,12545,United States,845 677-6036,41.784685,-73.692941,"Monday 4:30 AM - 11:00 PM, Tuesday 4:30 AM - 11:00 PM, Wednesday 4:30 AM - 11:00 PM, Thursday 4:30 AM - 11:00 PM, Friday 4:30 AM - 11:00 PM, Saturday 4:30 AM - 11:00 PM, Sunday 4:30 AM - 11:00 PM",,,
Clinton Corners &#8211 #342,33396,2300 Salt Point Turnpike at Taconic State Parkway,,Clinton Corners,NY,12514,United States,845 266-3261,41.8252949,-73.7704289,"Monday 5:00 AM - 10:00 PM, Tuesday 5:00 AM - 10:00 PM, Wednesday 5:00 AM - 10:00 PM, Thursday 5:00 AM - 10:00 PM, Friday 5:00 AM - 10:00 PM, Saturday 5:00 AM - 10:00 PM, Sunday 5:00 AM - 10:00 PM",,,
Rosendale &#8211 #177,33233,212 Main St,,Rosendale,NY,12472,United States,845 658-9922,41.846703,-74.075408,"Monday 4:30 AM - 12:00 AM, Tuesday 4:30 AM - 12:00 AM, Wednesday 4:30 AM - 12:00 AM, Thursday 4:30 AM - 12:00 AM, Friday 4:30 AM - 12:00 AM, Saturday 4:30 AM - 12:00 AM, Sunday 4:30 AM - 12:00 AM",,,
Port Ewen &#8211 #156,33213,199 Broadway,,Port Ewen,NY,12466,United States,845 331-9843,41.9050313,-73.9758718,"Monday 4:30 AM - 11:00 PM, Tuesday 4:30 AM - 11:00 PM, Wednesday 4:30 AM - 11:00 PM, Thursday 4:30 AM - 11:00 PM, Friday 4:30 AM - 11:00 PM, Saturday 4:30 AM - 11:00 PM, Sunday 4:30 AM - 11:00 PM",,,
Boulevard  Kingston &#8211 #213,33266,1 Boulevard,,Kingston,NY,12401,United States,845 338-9603,41.924143,-74.013013,"Monday 4:30 AM - 12:00 AM, Tuesday 4:30 AM - 12:00 AM, Wednesday 4:30 AM - 12:00 AM, Thursday 4:30 AM - 12:00 AM, Friday 4:30 AM - 12:00 AM, Saturday 4:30 AM - 12:00 AM, Sunday 4:30 AM - 12:00 AM",,,
Kingston (Broadway) &#8211 #141,33193,268 Broadway,,Kingston,NY,12401,United States,845 331-9572,41.92513,-73.989596,"Monday 5:00 AM - 11:00 PM, Tuesday 5:00 AM - 11:00 PM, Wednesday 5:00 AM - 11:00 PM, Thursday 5:00 AM - 11:00 PM, Friday 5:00 AM - 11:00 PM, Saturday 5:00 AM - 11:00 PM, Sunday 5:00 AM - 11:00 PM",,,
Hurley &#8211 #165,33219,6 Main Street,,Hurley,NY,12443,United States,845 331-9700,41.9265043,-74.0662676,"Monday 4:30 AM - 11:00 PM, Tuesday 4:30 AM - 11:00 PM, Wednesday 4:30 AM - 11:00 PM, Thursday 4:30 AM - 11:00 PM, Friday 4:30 AM - 11:00 PM, Saturday 4:30 AM - 11:00 PM, Sunday 4:30 AM - 11:00 PM",,,
Lucas Ave.  Kingston &#8211 #328,33376,339 Lucas Ave.,,Kingston,NY,12401,United States,845 339-1124,41.9292443,-74.0369878,"Monday 4:30 AM - 12:00 AM, Tuesday 4:30 AM - 12:00 AM, Wednesday 4:30 AM - 12:00 AM, Thursday 4:30 AM - 12:00 AM, Friday 4:30 AM - 12:00 AM, Saturday 4:30 AM - 12:00 AM, Sunday 4:30 AM - 12:00 AM",,,
Foxhall Ave.  Kingston &#8211 #228,33280,420 Albany Ave.,,Kingston,NY,12401,United States,845 338-9516,41.9400309,-74.0010867,"Monday 4:30 AM - 12:00 AM, Tuesday 4:30 AM - 12:00 AM, Wednesday 4:30 AM - 12:00 AM, Thursday 4:30 AM - 12:00 AM, Friday 4:30 AM - 12:00 AM, Saturday 4:30 AM - 12:00 AM, Sunday 4:30 AM - 12:00 AM",,,
Boices Lane  Kingston &#8211 #358,33408,45 Boices Lane,,Kingston,NY,12401,United States,845 383-0273,41.9638289,-73.993387,"Monday 5:00 AM - 11:00 PM, Tuesday 5:00 AM - 11:00 PM, Wednesday 5:00 AM - 11:00 PM, Thursday 5:00 AM - 11:00 PM, Friday 5:00 AM - 11:00 PM, Saturday 5:00 AM - 11:00 PM, Sunday 5:00 AM - 11:00 PM",,,
South Red Hook &#8211 #326,33377,7243 South Broadway,,Red Hook,NY,12571,United States,845 758-3305,41.980433,-73.883522,"Monday 4:30 AM - 12:00 AM, Tuesday 4:30 AM - 12:00 AM, Wednesday 4:30 AM - 12:00 AM, Thursday 4:30 AM - 12:00 AM, Friday 4:30 AM - 12:00 AM, Saturday 4:30 AM - 12:00 AM, Sunday 4:30 AM - 12:00 AM",,,
Lake Katrine &#8211 #286,33339,1872 Ulster Ave.,,Lake Katrine,NY,12449,United States,845 336-6125,41.98739,-73.98758,"Monday 4:30 AM - 11:00 PM, Tuesday 4:30 AM - 11:00 PM, Wednesday 4:30 AM - 11:00 PM, Thursday 4:30 AM - 11:00 PM, Friday 4:30 AM - 11:00 PM, Saturday 4:30 AM - 11:00 PM, Sunday 4:30 AM - 11:00 PM",,,
Zena Rd.  Kingston &#8211 #301,33351,57 zena rd,,Kingston,NY,12401,United States,845 679-2268,41.993966,-74.087234,"Monday 4:30 AM - 12:00 AM, Tuesday 4:30 AM - 12:00 AM, Wednesday 4:30 AM - 12:00 AM, Thursday 4:30 AM - 12:00 AM, Friday 4:30 AM - 12:00 AM, Saturday 4:30 AM - 12:00 AM, Sunday 4:30 AM - 12:00 AM",,,
Pine Plains &#8211 #329,33385,9130 South Main Street,7710 S Main St,Pine Plains,NY,12567,United States,518 398-1702,41.972182,-73.655093,"Monday 4:30 AM - 12:00 AM, Tuesday 4:30 AM - 12:00 AM, Wednesday 4:30 AM - 12:00 AM, Thursday 4:30 AM - 12:00 AM, Friday 4:30 AM - 12:00 AM, Saturday 4:30 AM - 12:00 AM, Sunday 4:30 AM - 12:00 AM",,,
Red Hook &#8211 #121,33178,7558 N. Broadway,,Red Hook,NY,12571,United States,845 758-0810,41.996944,-73.874061,"Monday 5:00 AM - 11:00 PM, Tuesday 5:00 AM - 11:00 PM, Wednesday 5:00 AM - 11:00 PM, Thursday 5:00 AM - 11:00 PM, Friday 5:00 AM - 11:00 PM, Saturday 5:00 AM - 11:00 PM, Sunday 5:00 AM - 11:00 PM",,,
Saugerties (Main Street) &#8211 #235,33292,165 Main Street,,Saugerties,NY,12477,United States,845 246-8165,42.078528,-73.950876,"Monday 4:30 AM - 11:00 PM, Tuesday 4:30 AM - 11:00 PM, Wednesday 4:30 AM - 11:00 PM, Thursday 4:30 AM - 11:00 PM, Friday 4:30 AM - 11:00 PM, Saturday 4:30 AM - 11:00 PM, Sunday 4:30 AM - 11:00 PM",,,
W. Saugerties &#8211 #273,33328,356 Rt. 212,,Saugerties,NY,12477,United States,845 246-8271,42.084052,-73.971348,"Monday 4:30 AM - 12:00 AM, Tuesday 4:30 AM - 12:00 AM, Wednesday 4:30 AM - 12:00 AM, Thursday 4:30 AM - 12:00 AM, Friday 4:30 AM - 12:00 AM, Saturday 4:30 AM - 12:00 AM, Sunday 4:30 AM - 12:00 AM",,,
Chazy &#8211 #378,33422,9615 State Route 9,,Chazy,NY,12921,United States,518 846-8002,42.108111,-73.818929,"Monday 5:00 AM - 12:00 AM, Tuesday 5:00 AM - 12:00 AM, Wednesday 5:00 AM - 12:00 AM, Thursday 5:00 AM - 12:00 AM, Friday 5:00 AM - 12:00 AM, Saturday 5:00 AM - 12:00 AM, Sunday 5:00 AM - 12:00 AM",,,
Germantown &#8211 #285,33332,4294 Rt. 9G,,Germantown,NY,12526,United States,518 537-9930,42.135,-73.891431,"Monday 5:00 AM - 11:00 PM, Tuesday 5:00 AM - 11:00 PM, Wednesday 5:00 AM - 11:00 PM, Thursday 5:00 AM - 11:00 PM, Friday 5:00 AM - 11:00 PM, Saturday 5:00 AM - 11:00 PM, Sunday 5:00 AM - 11:00 PM",,,
Haines Falls &#8211 #362,33412,5478 Rte 23C,,Prattsville,NY,12468,United States,518 589-5471,42.1971909,-74.107997,"Monday 5:00 AM - 11:00 PM, Tuesday 5:00 AM - 11:00 PM, Wednesday 5:00 AM - 11:00 PM, Thursday 5:00 AM - 11:00 PM, Friday 5:00 AM - 11:00 PM, Saturday 5:00 AM - 11:00 PM, Sunday 5:00 AM - 11:00 PM",,,
Hillsdale &#8211 #281,33334,9248 Route 22,,Hillsdale,NY,12529,United States,518 325-5846,42.179858,-73.5216032,"Monday 5:00 AM - 11:00 PM, Tuesday 5:00 AM - 11:00 PM, Wednesday 5:00 AM - 11:00 PM, Thursday 5:00 AM - 11:00 PM, Friday 5:00 AM - 11:00 PM, Saturday 5:00 AM - 11:00 PM, Sunday 5:00 AM - 11:00 PM",,,
Greenport &#8211 #239,33289,4447 New York 23B,,HUDSON,NY,12534,United States,518 822-8125,42.2232782,-73.8256495,"Monday 5:00 AM - 11:00 PM, Tuesday 5:00 AM - 11:00 PM, Wednesday 5:00 AM - 11:00 PM, Thursday 5:00 AM - 11:00 PM, Friday 5:00 AM - 11:00 PM, Saturday 5:00 AM - 11:00 PM, Sunday 5:00 AM - 11:00 PM",,,
Catskill &#8211 #298,33349,705 Rte 23B,,Leeds,NY,12451,United States,518 943-0023,42.246507,-73.886769,"Monday 4:00 AM - 12:00 AM, Tuesday 4:00 AM - 12:00 AM, Wednesday 4:00 AM - 12:00 AM, Thursday 4:00 AM - 12:00 AM, Friday 4:00 AM - 12:00 AM, Saturday 4:00 AM - 12:00 AM, Sunday 4:00 AM - 12:00 AM",,,
Hudson &#8211 #209,33260,13 Fairview Ave.,,Hudson,NY,12534,United States,518 822-9211,42.2474195,-73.7730796,"Monday 4:30 AM - 11:00 PM, Tuesday 4:30 AM - 11:00 PM, Wednesday 4:30 AM - 11:00 PM, Thursday 4:30 AM - 11:00 PM, Friday 4:30 AM - 11:00 PM, Saturday 4:30 AM - 11:00 PM, Sunday 4:30 AM - 11:00 PM",,,
West Massena (State Street) &#8211 #383,33432,10190 Andrews St,,Massena,NY,13662,United States,315 769-3259,44.9209649,-74.9186176,"Monday 4:30 AM - 12:00 AM, Tuesday 4:30 AM - 12:00 AM, Wednesday 4:30 AM - 12:00 AM, Thursday 4:30 AM - 12:00 AM, Friday 4:30 AM - 12:00 AM, Saturday 4:30 AM - 12:00 AM, Sunday 4:30 AM - 12:00 AM",,,
Massena (North Main Street) &#8211 #430,33471,200 North Main St.,,Massena,NY,13662,United States,315 764-0693,44.9440022,-74.9000828,"Monday 5:00 AM - 12:00 AM, Tuesday 5:00 AM - 12:00 AM, Wednesday 5:00 AM - 12:00 AM, Thursday 5:00 AM - 12:00 AM, Friday 5:00 AM - 12:00 AM, Saturday 5:00 AM - 12:00 AM, Sunday 5:00 AM - 12:00 AM",,,
Winthrop -#395,33439,731 New York 11C Winthrop,,Winthrop,NY,13697,United States,315 389-9200,44.794658,-74.7869596,"Monday 5:00 AM - 12:00 AM, Tuesday 5:00 AM - 12:00 AM, Wednesday 5:00 AM - 12:00 AM, Thursday 5:00 AM - 12:00 AM, Friday 5:00 AM - 12:00 AM, Saturday 5:00 AM - 12:00 AM, Sunday 5:00 AM - 12:00 AM",,,
St. Johnsville &#8211 #106,33164,52 W. Main Street,,St. Johnsville,NY,13452,United States,518 568-2555,42.999212,-74.681788,"Monday 4:00 AM - 12:00 AM, Tuesday 4:00 AM - 12:00 AM, Wednesday 4:00 AM - 12:00 AM, Thursday 4:00 AM - 12:00 AM, Friday 4:00 AM - 12:00 AM, Saturday 4:00 AM - 12:00 AM, Sunday 4:00 AM - 12:00 AM",,,
Sharon Springs &#8211 #332,33380,526 Highway Route 20,,Sharon Springs,NY,13459,United States,518 284-3345,42.78937,-74.623124,"Monday 3:00 AM - 12:00 AM, Tuesday 3:00 AM - 12:00 AM, Wednesday 3:00 AM - 12:00 AM, Thursday 3:00 AM - 12:00 AM, Friday 3:00 AM - 12:00 AM, Saturday 3:00 AM - 12:00 AM, Sunday 3:00 AM - 12:00 AM",,,
Brushton &#8211 #312,33363,1281 New York State Bicycle Route 11,,Brushton,NY,12916,United States,518 529-7502,44.830478,-74.51314,"Monday 4:00 AM - 12:00 AM, Tuesday 4:00 AM - 12:00 AM, Wednesday 4:00 AM - 12:00 AM, Thursday 4:00 AM - 12:00 AM, Friday 4:00 AM - 12:00 AM, Saturday 4:00 AM - 12:00 AM, Sunday 4:00 AM - 12:00 AM",,,
Malone &#8211 #331,33379,5 Fort Covington Street,,Malone,NY,12953,United States,518 481-6387,44.849047,-74.298253,"Monday 4:00 AM - 12:00 AM, Tuesday 4:00 AM - 12:00 AM, Wednesday 4:00 AM - 12:00 AM, Thursday 4:00 AM - 12:00 AM, Friday 4:00 AM - 12:00 AM, Saturday 4:00 AM - 12:00 AM, Sunday 4:00 AM - 12:00 AM",,,
East Malone &#8211 #340,33389,554 E. Main Street,,Malone,NY,12953,United States,518 483-7255,44.849371,-74.283563,"Monday 4:00 AM - 12:00 AM, Tuesday 4:00 AM - 12:00 AM, Wednesday 4:00 AM - 12:00 AM, Thursday 4:00 AM - 12:00 AM, Friday 4:00 AM - 12:00 AM, Saturday 4:00 AM - 12:00 AM, Sunday 4:00 AM - 12:00 AM",,,
Chateaugay &#8211 #137,33190,195 E. Main Street,,Chateauagy,NY,12920,United States,518 497-1308,44.9267664,-74.0774633,"Monday 4:00 AM - 12:00 AM, Tuesday 4:00 AM - 12:00 AM, Wednesday 4:00 AM - 12:00 AM, Thursday 4:00 AM - 12:00 AM, Friday 4:00 AM - 12:00 AM, Saturday 4:00 AM - 12:00 AM, Sunday 4:00 AM - 12:00 AM",,,
Tupper Lake &#8211 #252,33305,124 Park Street,,Tupper Lake,NY,12986,United States,518 359-8513,44.223714,-74.464054,"Monday 4:30 AM - 12:00 AM, Tuesday 4:30 AM - 12:00 AM, Wednesday 4:30 AM - 12:00 AM, Thursday 4:30 AM - 12:00 AM, Friday 4:30 AM - 12:00 AM, Saturday 4:30 AM - 12:00 AM, Sunday 4:30 AM - 12:00 AM",,,
Pownal &#8211 #199,33252,7594 Route 7,,Pownal,VT,5261,United States,802 823-5176,42.750416,-73.215027,"Monday 5:00 AM - 11:00 PM, Tuesday 5:00 AM - 11:00 PM, Wednesday 5:00 AM - 11:00 PM, Thursday 5:00 AM - 11:00 PM, Friday 5:00 AM - 11:00 PM, Saturday 5:00 AM - 11:00 PM, Sunday 5:00 AM - 11:00 PM",,,
Bennington &#8211 #195,33248,636 Main St.,,Bennington,VT,5201,United States,802 442-8992,42.878066,-73.191084,"Monday 4:30 AM - 12:00 AM, Tuesday 4:30 AM - 12:00 AM, Wednesday 4:30 AM - 12:00 AM, Thursday 4:30 AM - 12:00 AM, Friday 4:30 AM - 12:00 AM, Saturday 4:30 AM - 12:00 AM, Sunday 4:30 AM - 12:00 AM",,,
Manchester &#8211 #197,33256,4455 Main St,,Manchester,VT,5255,United States,802 366-4992,43.172722,-73.0629809,"Monday 5:00 AM - 11:00 PM, Tuesday 5:00 AM - 11:00 PM, Wednesday 5:00 AM - 11:00 PM, Thursday 5:00 AM - 11:00 PM, Friday 5:00 AM - 11:00 PM, Saturday 5:00 AM - 11:00 PM, Sunday 5:00 AM - 11:00 PM",,,
Arlington &#8211 #193,33246,3784 Vt Route 7a,,Arlington,VT,5250,United States,802 375-8321,43.073079,-73.15455,"Monday 4:30 AM - 12:00 AM, Tuesday 4:30 AM - 12:00 AM, Wednesday 4:30 AM - 12:00 AM, Thursday 4:30 AM - 12:00 AM, Friday 4:30 AM - 12:00 AM, Saturday 4:30 AM - 12:00 AM, Sunday 4:30 AM - 12:00 AM",,,
New Lebanon &#8211 #168,33222,479 New York State Bicycle Route 5,,New Lebanon,NY,12125,United States,518 794-7324,42.4684781,-73.389427,"Monday 4:30 AM - 12:00 AM, Tuesday 4:30 AM - 12:00 AM, Wednesday 4:30 AM - 12:00 AM, Thursday 4:30 AM - 12:00 AM, Friday 4:30 AM - 12:00 AM, Saturday 4:30 AM - 12:00 AM, Sunday 4:30 AM - 12:00 AM",,,
Berlin &#8211 #166,33220,18223 NY Rt.22,,Berlin,NY,12022,United States,518 658-2105,42.691594,-73.3712077,"Monday 4:30 AM - 11:00 PM, Tuesday 4:30 AM - 11:00 PM, Wednesday 4:30 AM - 11:00 PM, Thursday 4:30 AM - 11:00 PM, Friday 4:30 AM - 11:00 PM, Saturday 4:30 AM - 11:00 PM, Sunday 4:30 AM - 11:00 PM",,,
South Hoosick &#8211 #346,33394,4700 New York 7,,Hoosick Falls,NY,12090,United States,518 686-0735,42.851912,-73.346637,"Monday 4:30 AM - 11:00 PM, Tuesday 4:30 AM - 11:00 PM, Wednesday 4:30 AM - 11:00 PM, Thursday 4:30 AM - 11:00 PM, Friday 4:30 AM - 11:00 PM, Saturday 4:30 AM - 11:00 PM, Sunday 4:30 AM - 11:00 PM",,,
Hoosick Falls &#8211 #219,33273,2 River Street,,Hoosick Falls,NY,12090,United States,518 686-9944,42.896486,-73.351979,"Monday 5:00 AM - 11:00 PM, Tuesday 5:00 AM - 11:00 PM, Wednesday 5:00 AM - 11:00 PM, Thursday 5:00 AM - 11:00 PM, Friday 5:00 AM - 11:00 PM, Saturday 5:00 AM - 11:00 PM, Sunday 5:00 AM - 11:00 PM",,,
North Hoosick &#8211 #243,33298,4702 New York 67,,Eagle Bridge,NY,12057,United States,518 686-0026,42.928261,-73.342573,"Monday 5:00 AM - 11:00 PM, Tuesday 5:00 AM - 11:00 PM, Wednesday 5:00 AM - 11:00 PM, Thursday 5:00 AM - 11:00 PM, Friday 5:00 AM - 12:00 AM, Saturday 5:00 AM - 12:00 AM, Sunday 5:00 AM - 11:00 PM",,,
Cambridge &#8211 #170,33224,2A South Park St.,,Cambridge,NY,12816,United States,518 677-8086,43.027159,-73.376546,"Monday 4:30 AM - 12:00 AM, Tuesday 4:30 AM - 12:00 AM, Wednesday 4:30 AM - 12:00 AM, Thursday 4:30 AM - 12:00 AM, Friday 4:30 AM - 12:00 AM, Saturday 4:30 AM - 12:00 AM, Sunday 4:30 AM - 12:00 AM",,,
Salem &#8211 #157,33209,232 Main St.,,Salem,NY,12865,United States,518 854-9198,43.1749,-73.327432,"Monday 5:00 AM - 11:00 PM, Tuesday 5:00 AM - 11:00 PM, Wednesday 5:00 AM - 11:00 PM, Thursday 5:00 AM - 11:00 PM, Friday 5:00 AM - 12:00 AM, Saturday 5:00 AM - 12:00 AM, Sunday 5:00 AM - 11:00 PM",,,
Strongs Ave.  Rutland &#8211 #192,33245,140 Strongs Ave,,Rutland,VT,5701,United States,802 775-7947,43.599331,-72.970978,"Monday 5:00 AM - 12:00 AM, Tuesday 5:00 AM - 12:00 AM, Wednesday 5:00 AM - 12:00 AM, Thursday 5:00 AM - 12:00 AM, Friday 5:00 AM - 12:00 AM, Saturday 5:00 AM - 12:00 AM, Sunday 5:00 AM - 12:00 AM",,,
East Rutland (Woodstock Ave) &#8211 #196,33249,188 Woodstock Ave,,Rutland,VT,5701,United States,802 747-6962,43.617718,-72.957115,"Monday 5:00 AM - 11:00 PM, Tuesday 5:00 AM - 11:00 PM, Wednesday 5:00 AM - 11:00 PM, Thursday 5:00 AM - 11:00 PM, Friday 5:00 AM - 11:00 PM, Saturday 5:00 AM - 11:00 PM, Sunday 5:00 AM - 11:00 PM",,,
Chatham &#8211 #297,33348,30 Church Street,,Chatham,NY,12037,United States,518 392-2134,42.3570808,-73.6032296,"Monday 4:30 AM - 12:00 AM, Tuesday 4:30 AM - 12:00 AM, Wednesday 4:30 AM - 12:00 AM, Thursday 4:30 AM - 12:00 AM, Friday 4:30 AM - 12:00 AM, Saturday 4:30 AM - 12:00 AM, Sunday 4:30 AM - 12:00 AM",,,
Grove St.  Rutland &#8211 #194,33253,92 State Street,,Rutland,VT,5701,United States,802 775-7948,43.609525,-72.981218,"Monday 5:00 AM - 12:00 AM, Tuesday 5:00 AM - 12:00 AM, Wednesday 5:00 AM - 12:00 AM, Thursday 5:00 AM - 12:00 AM, Friday 5:00 AM - 12:00 AM, Saturday 5:00 AM - 12:00 AM, Sunday 5:00 AM - 12:00 AM",,,
Cropseyville &#8211 #287,33340,2 Brick Church Rd,,Cropseyville,NY,12052,United States,518 279-4762,42.750847,-73.5724819,"Monday 4:00 AM - 12:00 AM, Tuesday 4:00 AM - 12:00 AM, Wednesday 4:00 AM - 12:00 AM, Thursday 4:00 AM - 12:00 AM, Friday 4:00 AM - 12:00 AM, Saturday 4:00 AM - 12:00 AM, Sunday 4:00 AM - 12:00 AM",,,
Nassau &#8211 #158,33216,3516 US Route 20,,Nassau,NY,12123,United States,518 766-7808,42.517692,-73.618125,"Monday 4:30 AM - 12:00 AM, Tuesday 4:30 AM - 12:00 AM, Wednesday 4:30 AM - 12:00 AM, Thursday 4:30 AM - 12:00 AM, Friday 4:30 AM - 12:00 AM, Saturday 4:30 AM - 12:00 AM, Sunday 4:30 AM - 12:00 AM",,,
West Sand Lake &#8211 #338,33388,3610 NY Rt. 43,,West Sand Lake,NY,12196,United States,518 674-0489,42.646065,-73.6026018,"Monday 4:30 AM - 12:00 AM, Tuesday 4:30 AM - 12:00 AM, Wednesday 4:30 AM - 12:00 AM, Thursday 4:30 AM - 12:00 AM, Friday 4:30 AM - 12:00 AM, Saturday 4:30 AM - 12:00 AM, Sunday 4:30 AM - 12:00 AM",,,
West Rutland &#8211 #198,33251,234 Main St,,West Rutland,VT,5777,United States,802 438-2079,43.593842,-73.042542,"Monday 4:30 AM - 12:00 AM, Tuesday 4:30 AM - 12:00 AM, Wednesday 4:30 AM - 12:00 AM, Thursday 4:30 AM - 12:00 AM, Friday 4:30 AM - 12:00 AM, Saturday 4:30 AM - 12:00 AM, Sunday 4:30 AM - 12:00 AM",,,
Granville &#8211 #142,33199,56 Quaker St,,Granville,NY,12832,United States,518 642-9662,43.402133,-73.26558,"Monday 4:30 AM - 12:00 AM, Tuesday 4:30 AM - 12:00 AM, Wednesday 4:30 AM - 12:00 AM, Thursday 4:30 AM - 12:00 AM, Friday 4:30 AM - 12:00 AM, Saturday 4:30 AM - 12:00 AM, Sunday 4:30 AM - 12:00 AM",,,
Center Brunswick &#8211 #139,33197,985 Hoosick Rd,,Troy,NY,12180,United States,518 279-9971,42.7570956,-73.616853,"Monday 4:30 AM - 11:00 PM, Tuesday 4:30 AM - 11:00 PM, Wednesday 4:30 AM - 11:00 PM, Thursday 4:30 AM - 11:00 PM, Friday 4:30 AM - 11:00 PM, Saturday 4:30 AM - 11:00 PM, Sunday 4:30 AM - 11:00 PM",,,
Wynantskill &#8211 #294,33344,184 Main Ave.,,Wynantskill,NY,12198,United States,518 283-4596,42.694163,-73.636245,"Monday 4:30 AM - 1:00 AM, Tuesday 4:30 AM - 1:00 AM, Wednesday 4:30 AM - 1:00 AM, Thursday 4:30 AM - 1:00 AM, Friday 4:30 AM - 1:00 AM, Saturday 4:30 AM - 1:00 AM, Sunday 4:30 AM - 1:00 AM",,,
Schaghticoke &#8211 #318,33367,62 Main Street,,Schaghticoke,NY,12154,United States,518 753-0109,42.903559,-73.585477,"Monday 4:00 AM - 12:00 AM, Tuesday 4:00 AM - 12:00 AM, Wednesday 4:00 AM - 12:00 AM, Thursday 4:00 AM - 12:00 AM, Friday 4:00 AM - 12:00 AM, Saturday 4:00 AM - 12:00 AM, Sunday 4:00 AM - 12:00 AM",,,
Greenwich &#8211 #150,33208,204 Main St.,,Greenwich,NY,12834,United States,518 692-2809,43.095278,-73.507708,"Monday 4:30 AM - 12:00 AM, Tuesday 4:30 AM - 12:00 AM, Wednesday 4:30 AM - 12:00 AM, Thursday 4:30 AM - 12:00 AM, Friday 4:30 AM - 12:00 AM, Saturday 4:30 AM - 12:00 AM, Sunday 4:30 AM - 12:00 AM",,,
Valatie &#8211 #412,33454,2931 US Route 9,,Valatie,NY,12184,United States,518 758-8441,42.425967,-73.688813,"Monday 4:30 AM - 11:00 PM, Tuesday 4:30 AM - 11:00 PM, Wednesday 4:30 AM - 11:00 PM, Thursday 4:30 AM - 11:00 PM, Friday 4:30 AM - 11:00 PM, Saturday 4:30 AM - 11:00 PM, Sunday 4:30 AM - 11:00 PM",,,
Kinderhook &#8211 #349,33400,65 Chatham St.,,Kinderhook,NY,12106,United States,518 758-6086,42.4018389,-73.6947665,"Monday 4:30 AM - 11:00 PM, Tuesday 4:30 AM - 11:00 PM, Wednesday 4:30 AM - 11:00 PM, Thursday 4:30 AM - 11:00 PM, Friday 4:30 AM - 11:00 PM, Saturday 4:30 AM - 11:00 PM, Sunday 4:30 AM - 11:00 PM",,,
Schodack &#8211 #354,33404,1607 Columbia Tpke,,Castleton,NY,12033,United States,518 479-1330,42.57001,-73.685047,"Monday 4:30 AM - 12:00 AM, Tuesday 4:30 AM - 12:00 AM, Wednesday 4:30 AM - 12:00 AM, Thursday 4:30 AM - 12:00 AM, Friday 4:30 AM - 12:00 AM, Saturday 4:30 AM - 12:00 AM, Sunday 4:30 AM - 12:00 AM",,,
Oakwood (Northern Drive  Troy) &#8211 #368,33418,100 Northern Dr.,,Troy,NY,12182,United States,518 237-5282,42.784655,-73.654893,"Monday 4:30 AM - 12:00 AM, Tuesday 4:30 AM - 12:00 AM, Wednesday 4:30 AM - 12:00 AM, Thursday 4:30 AM - 12:00 AM, Friday 4:30 AM - 12:00 AM, Saturday 4:30 AM - 12:00 AM, Sunday 4:30 AM - 12:00 AM",,,
Brunswick Rd.  Troy &#8211 #115,33174,2 Brunswick Rd.,,Troy,NY,12180,United States,518 273-9684,42.722078,-73.674957,"Monday 4:30 AM - 12:00 AM, Tuesday 4:30 AM - 12:00 AM, Wednesday 4:30 AM - 12:00 AM, Thursday 4:30 AM - 12:00 AM, Friday 4:30 AM - 12:00 AM, Saturday 4:30 AM - 12:00 AM, Sunday 4:30 AM - 12:00 AM",,,
Hudson Valley &#8211 #456,33492,50 North Greenbush Road,,Troy,NY,12180,United States,518 283-0474,42.692425,-73.687607,"Monday 4:30 AM - 12:00 AM, Tuesday 4:30 AM - 12:00 AM, Wednesday 4:30 AM - 12:00 AM, Thursday 4:30 AM - 12:00 AM, Friday 4:30 AM - 12:00 AM, Saturday 4:30 AM - 12:00 AM, Sunday 4:30 AM - 12:00 AM",,,
Defreestville &#8211 #414,33462,536 N. Greenbush Rd,,Rensselaer,NY,12144,United States,518 283-6404,42.6510427,-73.6963876,"Monday 4:30 AM - 12:00 AM, Tuesday 4:30 AM - 12:00 AM, Wednesday 4:30 AM - 12:00 AM, Thursday 4:30 AM - 12:00 AM, Friday 4:30 AM - 12:00 AM, Saturday 4:30 AM - 12:00 AM, Sunday 4:30 AM - 12:00 AM",,,
Couse Corners &#8211 #352,33402,95 Troy Rd,,East Greenbush,NY,12061,United States,518 477-6431,42.6199654,-73.7022138,"Monday 4:30 AM - 12:00 AM, Tuesday 4:30 AM - 12:00 AM, Wednesday 4:30 AM - 12:00 AM, Thursday 4:30 AM - 12:00 AM, Friday 4:30 AM - 12:00 AM, Saturday 4:30 AM - 12:00 AM, Sunday 4:30 AM - 12:00 AM",,,
Hoosick St.  Troy &#8211 #244,33299,110 Hoosick St.,,Troy,NY,12180,United States,518 272-9722,42.739068,-73.6793409,"Monday 4:30 AM - 12:00 AM, Tuesday 4:30 AM - 12:00 AM, Wednesday 4:30 AM - 12:00 AM, Thursday 4:30 AM - 12:00 AM, Friday 4:30 AM - 12:00 AM, Saturday 4:30 AM - 12:00 AM, Sunday 4:30 AM - 12:00 AM",,,
Vandenburg Ave.  Troy &#8211 #184,33239,8 Vandenburg Ave.,,Troy,NY,12180,United States,518 272-9719,42.703108,-73.688279,"Monday 4:30 AM - 11:00 PM, Tuesday 4:30 AM - 11:00 PM, Wednesday 4:30 AM - 11:00 PM, Thursday 4:30 AM - 11:00 PM, Friday 4:30 AM - 11:00 PM, Saturday 4:30 AM - 11:00 PM, Sunday 4:30 AM - 11:00 PM",,,
Fifth Ave.  Troy &#8211 #212,33265,764 Fifth Ave.,,Troy,NY,12182,United States,518 235-9793,42.781108,-73.670273,"Monday 4:30 AM - 12:00 AM, Tuesday 4:30 AM - 12:00 AM, Wednesday 4:30 AM - 12:00 AM, Thursday 4:30 AM - 12:00 AM, Friday 4:30 AM - 12:00 AM, Saturday 4:30 AM - 12:00 AM, Sunday 4:30 AM - 12:00 AM",,,
Poultney &#8211 #191,33250,205 Main St,,Poultney,VT,5764,United States,802 287-9391,43.516903,-73.236969,"Monday 5:00 AM - 12:00 AM, Tuesday 5:00 AM - 12:00 AM, Wednesday 5:00 AM - 12:00 AM, Thursday 5:00 AM - 12:00 AM, Friday 5:00 AM - 12:00 AM, Saturday 5:00 AM - 12:00 AM, Sunday 5:00 AM - 12:00 AM",,,
Waterford (Hudson River Rd) &#8211 #206,33258,105 Hudson River Rd.,,Waterford,NY,12188,United States,518 235-3559,42.804871,-73.666964,"Monday 4:30 AM - 11:00 PM, Tuesday 4:30 AM - 11:00 PM, Wednesday 4:30 AM - 11:00 PM, Thursday 4:30 AM - 11:00 PM, Friday 4:30 AM - 11:00 PM, Saturday 4:30 AM - 11:00 PM, Sunday 4:30 AM - 11:00 PM",,,
Glen Ave.  Troy &#8211 #151,33204,3283 Sixth Avenue,,Troy,NY,12180,United States,518 272-1303,42.751623,-73.681577,"Monday 5:00 AM - 11:00 PM, Tuesday 5:00 AM - 11:00 PM, Wednesday 5:00 AM - 11:00 PM, Thursday 5:00 AM - 11:00 PM, Friday 5:00 AM - 11:00 PM, Saturday 5:00 AM - 11:00 PM, Sunday 5:00 AM - 11:00 PM",,,
Congress St.  Troy &#8211 #356,33406,127 Congress Street,,Troy,NY,12180,United States,518 270-7856,42.7284369,-73.6879111,"Monday 4:30 AM - 11:00 PM, Tuesday 4:30 AM - 11:00 PM, Wednesday 4:30 AM - 11:00 PM, Thursday 4:30 AM - 11:00 PM, Friday 4:30 AM - 11:00 PM, Saturday 4:30 AM - 11:00 PM, Sunday 4:30 AM - 11:00 PM",,,
112th St.  Troy &#8211 #131,33183,9-112th St,,Troy,NY,12182,United States,518 237-9791,42.7710737,-73.6790235,"Monday 4:30 AM - 12:00 AM, Tuesday 4:30 AM - 12:00 AM, Wednesday 4:30 AM - 12:00 AM, Thursday 4:30 AM - 12:00 AM, Friday 4:30 AM - 12:00 AM, Saturday 4:30 AM - 12:00 AM, Sunday 4:30 AM - 12:00 AM",,,
South Troy &#8211 #134,33194,487 Fourth Street,,Troy,NY,12180,United States,518 274-5364,42.715016,-73.693579,"Monday 4:30 AM - 12:00 AM, Tuesday 4:30 AM - 12:00 AM, Wednesday 4:30 AM - 12:00 AM, Thursday 4:30 AM - 12:00 AM, Friday 4:30 AM - 12:00 AM, Saturday 4:30 AM - 12:00 AM, Sunday 4:30 AM - 12:00 AM",,,
Watervliet (Second Ave) &#8211 #201,33254,2458 Second Ave.,,Watervliet,NY,12189,United States,518 272-9568,42.735139,-73.700541,"Monday 4:30 AM - 12:00 AM, Tuesday 4:30 AM - 12:00 AM, Wednesday 4:30 AM - 12:00 AM, Thursday 4:30 AM - 12:00 AM, Friday 4:30 AM - 12:00 AM, Saturday 4:30 AM - 12:00 AM, Sunday 4:30 AM - 12:00 AM",,,
Hartford &#8211 #448,33486,8062 Route 40,,Hartford,NY,12838,United States,518 632-5493,43.3557305,-73.3988221,"Monday 5:00 AM - 11:00 PM, Tuesday 5:00 AM - 11:00 PM, Wednesday 5:00 AM - 11:00 PM, Thursday 5:00 AM - 11:00 PM, Friday 5:00 AM - 11:00 PM, Saturday 5:00 AM - 11:00 PM, Sunday 5:00 AM - 11:00 PM",,,
Third Ave.  Watervliet &#8211 #178,33234,309 6th St. Watervliet NY 12189,,Watervliet,NY,12189,United States,518 273-9735,42.713228,-73.707586,"Monday 5:00 AM - 11:00 PM, Tuesday 5:00 AM - 11:00 PM, Wednesday 5:00 AM - 11:00 PM, Thursday 5:00 AM - 11:00 PM, Friday 5:00 AM - 11:00 PM, Saturday 5:00 AM - 11:00 PM, Sunday 5:00 AM - 11:00 PM",,,
East Greenbush &#8211 #214,33267,326 Columbia Tpke.,,Rensselaer,NY,12144,United States,518 479-4049,42.610567,-73.72688,"Monday 4:30 AM - 12:00 AM, Tuesday 4:30 AM - 12:00 AM, Wednesday 4:30 AM - 12:00 AM, Thursday 4:30 AM - 12:00 AM, Friday 4:30 AM - 12:00 AM, Saturday 4:30 AM - 12:00 AM, Sunday 4:30 AM - 12:00 AM",,,
South Waterford (Saratoga Ave) &#8211 #363,33413,30 Saratoga Ave.,,Waterford,NY,12188,United States,518 235-8679,42.7815557,-73.6961087,"Monday 4:30 AM - 12:00 AM, Tuesday 4:30 AM - 12:00 AM, Wednesday 4:30 AM - 12:00 AM, Thursday 4:30 AM - 12:00 AM, Friday 4:30 AM - 12:00 AM, Saturday 4:30 AM - 12:00 AM, Sunday 4:30 AM - 12:00 AM",,,
19th St. Watervliet &#8211 #409,33451,942 19th Street,,Watervliet,NY,12189,United States,518 272-3425,42.7325432,-73.7102332,"Monday 4:30 AM - 11:00 AM, Tuesday 4:30 AM - 11:00 AM, Wednesday 4:30 AM - 11:00 AM, Thursday 4:30 AM - 11:00 AM, Friday 4:30 AM - 11:00 AM, Saturday 4:30 AM - 11:00 AM, Sunday 4:30 AM - 11:00 AM",,,
Argyle &#8211 #424,33463,7 Sheridan St.,,Argyle,NY,12809,United States,518 638-5482,43.2377293,-73.49119,"Monday 4:30 AM - 11:00 AM, Tuesday 4:30 AM - 11:00 AM, Wednesday 4:30 AM - 11:00 AM, Thursday 4:30 AM - 11:00 AM, Friday 4:30 AM - 11:00 AM, Saturday 4:30 AM - 11:00 AM, Sunday 4:30 AM - 11:00 AM",,,
Cairo &#8211 #311,33362,3041 Route 23B,,Cairo,NY,12413,United States,518 622-0966,42.289935,-73.979509,"Monday 4:30 AM - 11:00 PM, Tuesday 4:30 AM - 11:00 PM, Wednesday 4:30 AM - 11:00 PM, Thursday 4:30 AM - 11:00 PM, Friday 4:30 AM - 11:00 PM, Saturday 4:30 AM - 11:00 PM, Sunday 4:30 AM - 11:00 PM",,,
Rouses Point &#8211 #347,33395,222 Lake Street,,Rouses Point,NY,12979,United States,518 297-6455,44.9829326,-73.362936,"Monday 4:00 AM - 11:00 PM, Tuesday 4:00 AM - 11:00 PM, Wednesday 4:00 AM - 11:00 PM, Thursday 4:00 AM - 11:00 PM, Friday 4:00 AM - 11:00 PM, Saturday 4:00 AM - 11:00 PM, Sunday 4:00 AM - 11:00 PM",,,
Dannemora &#8211 #207,33263,1173 Cook Street,,Dannemora,NY,12929,United States,518 492-2027,44.721207,-73.725074,"Monday 4:00 AM - 12:00 AM, Tuesday 4:00 AM - 12:00 AM, Wednesday 4:00 AM - 12:00 AM, Thursday 4:00 AM - 12:00 AM, Friday 4:00 AM - 12:00 AM, Saturday 4:00 AM - 12:00 AM, Sunday 4:00 AM - 12:00 AM",,,
Saranac Lake &#8211 #242,33291,27 Bloomingdale Ave,,Saranac Lake,NY,12983,United States,518 891-6687,44.3298241,-74.1309552,"Monday 4:30 AM - 12:00 AM, Tuesday 4:30 AM - 12:00 AM, Wednesday 4:30 AM - 12:00 AM, Thursday 4:30 AM - 12:00 AM, Friday 4:30 AM - 12:00 AM, Saturday 4:30 AM - 12:00 AM, Sunday 4:30 AM - 12:00 AM",,,
West Plattsburgh (Rt. 3  Morrisonville Road) &#8211 #270,33325,809 Rt. 3,,Plattsbugh,NY,12901,United States,518 563-1940,44.695351,-73.526015,"Monday 4:00 AM - 12:00 AM, Tuesday 4:00 AM - 12:00 AM, Wednesday 4:00 AM - 12:00 AM, Thursday 4:00 AM - 12:00 AM, Friday 4:00 AM - 12:00 AM, Saturday 4:00 AM - 12:00 AM, Sunday 4:00 AM - 12:00 AM",,,
North Plattsburgh (Route 9) &#8211 #272,33327,7137 Rt. 9,,Plattsburgh,NY,12901,United States,518 562-1083,44.7265,-73.4363149,"Monday 4:00 AM - 12:00 AM, Tuesday 4:00 AM - 12:00 AM, Wednesday 4:00 AM - 12:00 AM, Thursday 4:00 AM - 12:00 AM, Friday 4:00 AM - 12:00 AM, Saturday 4:00 AM - 12:00 AM, Sunday 4:00 AM - 12:00 AM",,,
Cornelia St.  Plattsburgh &#8211 #321,33370,292 Cornelia St,,Plattsburgh,NY,12901,United States,518 566-7253,44.698205,-73.475589,"Monday 5:00 AM - 12:00 AM, Tuesday 5:00 AM - 12:00 AM, Wednesday 5:00 AM - 12:00 AM, Thursday 5:00 AM - 12:00 AM, Friday 5:00 AM - 12:00 AM, Saturday 5:00 AM - 12:00 AM, Sunday 5:00 AM - 12:00 AM",,,
Rugar St.  Plattsburgh &#8211 #200,33259,262 Rugar Street,,Plattsburgh,NY,12901,United States,518 566-8249,44.687503,-73.484449,"Monday 5:00 AM - 12:00 AM, Tuesday 5:00 AM - 12:00 AM, Wednesday 5:00 AM - 12:00 AM, Thursday 5:00 AM - 12:00 AM, Friday 5:00 AM - 12:00 AM, Saturday 5:00 AM - 12:00 AM, Sunday 5:00 AM - 12:00 AM",,,
South Catherine Street  Plattsburgh &#8211 #260,33313,4990 South Catherine Street,,Plattsburgh,NY,12901,United States,518 563-9004,44.688824,-73.45787,"Monday 4:00 AM - 1:00 AM, Tuesday 4:00 AM - 1:00 AM, Wednesday 4:00 AM - 1:00 AM, Thursday 4:00 AM - 1:00 AM, Friday 4:00 AM - 1:00 AM, Saturday 4:00 AM - 1:00 AM, Sunday 4:00 AM - 1:00 AM",,,
South Plattsburgh (Route 9) &#8211 #225,33278,4717 Rt. 9,,Plattsburgh,NY,12901,United States,518 562-2809,44.670639,-73.446944,"Monday 4:00 AM - 11:00 PM, Tuesday 4:00 AM - 11:00 PM, Wednesday 4:00 AM - 11:00 PM, Thursday 4:00 AM - 11:00 PM, Friday 4:00 AM - 11:00 PM, Saturday 4:00 AM - 11:00 PM, Sunday 4:00 AM - 11:00 PM",,,
North Lake Placid &#8211 #359,33409,2090 Saranac Avenue,,Lake Placid,NY,12946,United States,518 523-3738,44.295056,-73.9985449,"Monday 5:00 AM - 12:00 AM, Tuesday 5:00 AM - 12:00 AM, Wednesday 5:00 AM - 12:00 AM, Thursday 5:00 AM - 12:00 AM, Friday 5:00 AM - 12:00 AM, Saturday 5:00 AM - 12:00 AM, Sunday 5:00 AM - 12:00 AM",,,
Peru &#8211 #257,33310,2997 Main St,,Peru,NY,12972,United States,518 643-2295,44.580518,-73.5272328,"Monday 4:30 AM - 12:00 AM, Tuesday 4:30 AM - 12:00 AM, Wednesday 4:30 AM - 12:00 AM, Thursday 4:30 AM - 12:00 AM, Friday 4:30 AM - 12:00 AM, Saturday 4:30 AM - 12:00 AM, Sunday 4:30 AM - 12:00 AM",,,
Lake Placid &#8211 #227,33279,2711 Main St,,Lake Placid,NY,12946,United States,518 523-7825,44.281776,-73.982052,"Monday 4:30 AM - 12:00 AM, Tuesday 4:30 AM - 12:00 AM, Wednesday 4:30 AM - 12:00 AM, Thursday 4:30 AM - 12:00 AM, Friday 4:30 AM - 12:00 AM, Saturday 4:30 AM - 12:00 AM, Sunday 4:30 AM - 12:00 AM",,,
Ausable Forks &#8211 #256,33309,32 N Main St,,Au Sable Forks,NY,12912,United States,518 647-8294,44.441793,-73.675192,"Monday 4:30 AM - 12:00 AM, Tuesday 4:30 AM - 12:00 AM, Wednesday 4:30 AM - 12:00 AM, Thursday 4:30 AM - 12:00 AM, Friday 4:30 AM - 12:00 AM, Saturday 4:30 AM - 12:00 AM, Sunday 4:30 AM - 12:00 AM",,,
Long Lake &#8211 #353,33403,8589 NEWCOMB RD,,Long Lake,NY,12847,United States,518 624-4796,43.968205,-74.418111,"Monday 5:00 AM - 12:00 AM, Tuesday 5:00 AM - 12:00 AM, Wednesday 5:00 AM - 12:00 AM, Thursday 5:00 AM - 12:00 AM, Friday 5:00 AM - 12:00 AM, Saturday 5:00 AM - 12:00 AM, Sunday 5:00 AM - 12:00 AM",,,
Fort Plain &#8211 #118,33176,18 Willett Street,,Fort Plain,NY,13339,United States,518 993-2331,42.931961,-74.621718,"Monday 12:00 AM - 12:00 AM, Tuesday 12:00 AM - 12:00 AM, Wednesday 12:00 AM - 12:00 AM, Thursday 12:00 AM - 12:00 AM, Friday 12:00 AM - 12:00 AM, Saturday 12:00 AM - 12:00 AM, Sunday 12:00 AM - 12:00 AM",,,
Palatine Bridge &#8211 #169,33223,1 W.Grand Street,,Palatine Bridge,NY,13428,United States,518 673-4403,42.9109244,-74.5713793,"Monday 4:00 AM - 12:00 AM, Tuesday 4:00 AM - 12:00 AM, Wednesday 4:00 AM - 12:00 AM, Thursday 4:00 AM - 12:00 AM, Friday 4:00 AM - 12:00 AM, Saturday 4:00 AM - 12:00 AM, Sunday 4:00 AM - 12:00 AM",,,
Rensselaer &#8211 #262,33314,12 Partition Street,,Rensselaer,NY,12144,United States,518 463-9207,42.645185,-73.739383,"Monday 4:30 AM - 12:00 AM, Tuesday 4:30 AM - 12:00 AM, Wednesday 4:30 AM - 12:00 AM, Thursday 4:30 AM - 12:00 AM, Friday 4:30 AM - 12:00 AM, Saturday 4:30 AM - 12:00 AM, Sunday 4:30 AM - 12:00 AM",,,
Athens &#8211 #161,33214,52 N.Washington Street,,Athens,NY,12015,United States,518 945-9977,42.2631393,-73.8069562,"Monday 4:30 AM - 11:00 PM, Tuesday 4:30 AM - 11:00 PM, Wednesday 4:30 AM - 11:00 PM, Thursday 4:30 AM - 11:00 PM, Friday 4:30 AM - 11:00 PM, Saturday 4:30 AM - 11:00 PM, Sunday 4:30 AM - 11:00 PM",,,
Wolfert Ave &#8211 #186,33241,14 Broadway,,Menands,NY,12204,United States,518 465-6491,42.677768,-73.735167,"Monday 4:30 AM - 11:00 PM, Tuesday 4:30 AM - 11:00 PM, Wednesday 4:30 AM - 11:00 PM, Thursday 4:30 AM - 11:00 PM, Friday 4:30 AM - 11:00 PM, Saturday 5:00 AM - 11:00 PM, Sunday 5:00 AM - 11:00 PM",,,
Cohoes &#8211 #122,33179,94 Columbia St,,Cohoes,NY,12047,United States,518 235-9821,42.769513,-73.704152,"Monday 4:30 AM - 11:30 PM, Tuesday 4:30 AM - 11:30 PM, Wednesday 4:30 AM - 11:30 PM, Thursday 4:30 AM - 11:30 PM, Friday 4:30 AM - 11:30 PM, Saturday 4:30 AM - 11:30 PM, Sunday 4:30 AM - 11:30 PM",,,
Northern Blvd. (North Albany) &#8211 #397,33446,90 Shaker Dr,,Albany,NY,12211,United States,518 598-0521,42.673617,-73.751304,"Monday 4:30 AM - 12:00 AM, Tuesday 4:30 AM - 12:00 AM, Wednesday 4:30 AM - 12:00 AM, Thursday 4:30 AM - 12:00 AM, Friday 4:30 AM - 12:00 AM, Saturday 4:30 AM - 12:00 AM, Sunday 4:30 AM - 12:00 AM",,,
Livingston Ave.  Albany &#8211 #267,33317,204 Henry Johnson Blvd.,,Albany,NY,12210,United States,518 463-9025,42.663282,-73.758725,"Monday 5:00 AM - 12:00 AM, Tuesday 5:00 AM - 12:00 AM, Wednesday 5:00 AM - 12:00 AM, Thursday 5:00 AM - 12:00 AM, Friday 5:00 AM - 12:00 AM, Saturday 5:00 AM - 12:00 AM, Sunday 5:00 AM - 12:00 AM",,,
Morton Ave.  Albany &#8211 #179,33235,164 Morton Ave.,,Albany,NY,12202,United States,518 463-9144,42.643751,-73.76575,"Monday 5:00 AM - 11:00 PM, Tuesday 5:00 AM - 11:00 PM, Wednesday 5:00 AM - 11:00 PM, Thursday 5:00 AM - 11:00 PM, Friday 5:00 AM - 11:00 PM, Saturday 5:00 AM - 11:00 PM, Sunday 5:00 AM - 11:00 PM",,,
Coxsackie &#8211 #120,33177,11849 Route 9W,,Coxsackie,NY,12051,United States,518 731-6095,42.363579,-73.831942,"Monday 4:30 AM - 12:00 AM, Tuesday 4:30 AM - 12:00 AM, Wednesday 4:30 AM - 12:00 AM, Thursday 4:30 AM - 12:00 AM, Friday 4:30 AM - 12:00 AM, Saturday 4:30 AM - 12:00 AM, Sunday 4:30 AM - 12:00 AM",,,
Ravena &#8211 #144,33196,2457 U.S. 9W,,Ravena,NY,12143,United States,518 756-6331,42.468753,-73.816511,"Monday 4:30 AM - 12:00 AM, Tuesday 4:30 AM - 12:00 AM, Wednesday 4:30 AM - 12:00 AM, Thursday 4:30 AM - 12:00 AM, Friday 4:30 AM - 12:00 AM, Saturday 4:30 AM - 12:00 AM, Sunday 4:30 AM - 12:00 AM",,,
Selkirk &#8211 #240,33295,1344 U.S. 9W,,Selkirk,NY,12158,United States,518 767-3245,42.5411999,-73.805879,"Monday 4:30 AM - 11:30 PM, Tuesday 4:30 AM - 11:30 PM, Wednesday 4:30 AM - 11:30 PM, Thursday 4:30 AM - 11:30 PM, Friday 4:30 AM - 11:30 PM, Saturday 4:30 AM - 11:30 PM, Sunday 4:30 AM - 11:30 PM",,,
Glenmont &#8211 #176,33227,33 Frontage Rd.,,Glenmont,NY,12077,United States,518 463-7141,42.6195928,-73.7840162,"Monday 12:00 AM - 11:59 PM, Tuesday 12:00 AM - 11:59 PM, Wednesday 12:00 AM - 11:59 PM, Thursday 12:00 AM - 11:59 PM, Friday 12:00 AM - 11:59 PM, Saturday 12:00 AM - 11:59 PM, Sunday 12:00 AM - 11:59 PM",,,
Cobleskill &#8211 #145,33203,391 W. Main St.,,Cobleskill,NY,12043,United States,518 254-0070,42.676598,-74.4924319,"Monday 3:30 AM - 1:00 AM, Tuesday 3:30 AM - 1:00 AM, Wednesday 3:30 AM - 1:00 AM, Thursday 3:30 AM - 1:00 AM, Friday 3:30 AM - 1:00 AM, Saturday 3:30 AM - 1:00 AM, Sunday 3:30 AM - 1:00 AM",,,
Meco &#8211 #419,33461,1596 New York 29A,,Gloversville,NY,12078,United States,518 773-7329,43.0544821,-74.377275,"Monday 4:30 AM - 12:00 AM, Tuesday 4:30 AM - 12:00 AM, Wednesday 4:30 AM - 12:00 AM, Thursday 4:30 AM - 12:00 AM, Friday 4:30 AM - 12:00 AM, Saturday 4:30 AM - 12:00 AM, Sunday 4:30 AM - 12:00 AM",,,
Fairhaven &#8211 #190,33244,1 Dutton Ave,,Fairhaven,VT,5743,United States,802 265-7950,43.5997671,-73.2620011,"Monday 5:00 AM - 11:00 PM, Tuesday 5:00 AM - 11:00 PM, Wednesday 5:00 AM - 11:00 PM, Thursday 5:00 AM - 11:00 PM, Friday 5:00 AM - 11:00 PM, Saturday 5:00 AM - 11:00 PM, Sunday 5:00 AM - 11:00 PM",,,
Whitehall &#8211 #211,33269,60 Poultney St.,,Whitehall,NY,12887,United States,518 499-9376,43.5501857,-73.3987458,"Monday 4:30 AM - 12:00 AM, Tuesday 4:30 AM - 12:00 AM, Wednesday 4:30 AM - 12:00 AM, Thursday 4:30 AM - 12:00 AM, Friday 4:30 AM - 12:00 AM, Saturday 4:30 AM - 12:00 AM, Sunday 4:30 AM - 12:00 AM",,,
Schuylerville &#8211 #249,33300,158 Broad Street,,Schuylerville,NY,12871,United States,518 695-9226,43.101249,-73.580371,"Monday 4:30 AM - 12:00 AM, Tuesday 4:30 AM - 12:00 AM, Wednesday 4:30 AM - 12:00 AM, Thursday 4:30 AM - 12:00 AM, Friday 4:30 AM - 12:00 AM, Saturday 4:30 AM - 12:00 AM, Sunday 4:30 AM - 12:00 AM",,,
Fort Edward &#8211 #215,33268,107 Broadway,,Fort Edward,NY,12828,United States,518 747-2473,43.2671602,-73.5848996,"Monday 4:00 AM - 12:00 AM, Tuesday 4:00 AM - 12:00 AM, Wednesday 4:00 AM - 12:00 AM, Thursday 4:00 AM - 12:00 AM, Friday 4:00 AM - 12:00 AM, Saturday 4:00 AM - 12:00 AM, Sunday 4:00 AM - 12:00 AM",,,
Dix Avenue Hudson Falls &#8211 #259,33312,3765 Burgoyne Ave.,,Hudson Falls,NY,12839,United States,518 747-9854,43.319773,-73.572685,"Monday 4:00 AM - 11:00 PM, Tuesday 4:00 AM - 11:00 PM, Wednesday 4:00 AM - 11:00 PM, Thursday 4:00 AM - 11:00 PM, Friday 4:00 AM - 11:00 PM, Saturday 4:00 AM - 11:00 PM, Sunday 4:00 AM - 11:00 PM",,,
Gates Avenue &#8211 #123,33180,378 Broadway,,FORT EDWARD,NY,12828,United States,518 747-4636,43.285447,-73.586142,"Monday 4:00 AM - 12:00 AM, Tuesday 4:00 AM - 12:00 AM, Wednesday 4:00 AM - 12:00 AM, Thursday 4:00 AM - 12:00 AM, Friday 4:00 AM - 12:00 AM, Saturday 4:00 AM - 12:00 AM, Sunday 4:00 AM - 12:00 AM",,,
Hudson Falls (Main Street) &#8211 #223,33281,175 Main Street,,Hudson Falls,NY,12839,United States,518 747-9812,43.300687,-73.586261,"Monday 4:30 AM - 11:00 PM, Tuesday 4:30 AM - 11:00 PM, Wednesday 4:30 AM - 11:00 PM, Thursday 4:30 AM - 11:00 PM, Friday 4:30 AM - 11:00 PM, Saturday 4:30 AM - 11:00 PM, Sunday 4:30 AM - 11:00 PM",,,
Quaker Rd. &#8211 #417,33464,777 Quaker Road,,Queensbury,NY,12804,United States,518 792-5371,43.3150229,-73.610505,"Monday 4:30 AM - 12:00 AM, Tuesday 4:30 AM - 12:00 AM, Wednesday 4:30 AM - 12:00 AM, Thursday 4:30 AM - 12:00 AM, Friday 4:30 AM - 12:00 AM, Saturday 4:30 AM - 12:00 AM, Sunday 4:30 AM - 12:00 AM",,,
Stillwater Bridge &#8211 #316,33366,781 Hudson Ave,,Stillwater,NY,12170,United States,518 664-9083,42.939189,-73.651706,"Monday 4:30 AM - 12:00 AM, Tuesday 4:30 AM - 12:00 AM, Wednesday 4:30 AM - 12:00 AM, Thursday 4:30 AM - 12:00 AM, Friday 4:30 AM - 12:00 AM, Saturday 4:30 AM - 12:00 AM, Sunday 4:30 AM - 12:00 AM",,,
Gansevoort &#8211 #202,33255,4 Schuylerville Road,,Gansevoort,NY,12831,United States,518 792-9548,43.195826,-73.651053,"Monday 4:30 AM - 12:00 AM, Tuesday 4:30 AM - 12:00 AM, Wednesday 4:30 AM - 12:00 AM, Thursday 4:30 AM - 12:00 AM, Friday 4:30 AM - 12:00 AM, Saturday 4:30 AM - 12:00 AM, Sunday 4:30 AM - 12:00 AM",,,
Bluebird Rd.  South Glens Falls &#8211 #392,33435,43 Bluebird Rd.,,S Glens Falls,NY,12803,United States,518 798-7562,43.274323,-73.639447,"Monday 4:00 AM - 12:00 AM, Tuesday 4:00 AM - 12:00 AM, Wednesday 4:00 AM - 12:00 AM, Thursday 4:00 AM - 12:00 AM, Friday 4:00 AM - 12:00 AM, Saturday 4:00 AM - 12:00 AM, Sunday 4:00 AM - 12:00 AM",,,
Warren St.  Glens Falls &#8211 #159,33211,196 Warren St.,,Glens Falls,NY,12801,United States,518 798-9843,43.310981,-73.631348,"Monday 4:30 AM - 11:00 PM, Tuesday 4:30 AM - 11:00 PM, Wednesday 4:30 AM - 11:00 PM, Thursday 4:30 AM - 11:00 PM, Friday 4:30 AM - 11:00 PM, Saturday 4:30 AM - 11:00 PM, Sunday 4:30 AM - 11:00 PM",,,
South Glens Falls (Saratoga Ave) &#8211 #216,33270,3 Saratoga Ave.,,So. Glens Falls,NY,12801,United States,518 792-3357,43.2986859,-73.635189,"Monday 4:30 AM - 12:00 AM, Tuesday 4:30 AM - 12:00 AM, Wednesday 4:30 AM - 12:00 AM, Thursday 4:30 AM - 12:00 AM, Friday 4:30 AM - 12:00 AM, Saturday 4:30 AM - 12:00 AM, Sunday 4:30 AM - 12:00 AM",,,
Ridge St.  Glens Falls &#8211 #218,33272,255 Ridge St.,,Glens Falls,NY,12801,United States,518 792-9641,43.322048,-73.643096,"Monday 4:30 AM - 11:00 PM, Tuesday 4:30 AM - 11:00 PM, Wednesday 4:30 AM - 11:00 PM, Thursday 4:30 AM - 11:00 PM, Friday 4:30 AM - 11:00 PM, Saturday 4:30 AM - 11:00 PM, Sunday 4:30 AM - 11:00 PM",,,
Queensbury (Rt. 149 &amp 9L) &#8211 #282,33329,977 New York 149,,Queensbury,NY,12804,United States,518 793-4937,43.397927,-73.623894,"Monday 4:00 AM - 12:00 AM, Tuesday 4:00 AM - 12:00 AM, Wednesday 4:00 AM - 12:00 AM, Thursday 4:00 AM - 12:00 AM, Friday 4:00 AM - 12:00 AM, Saturday 4:00 AM - 12:00 AM, Sunday 4:00 AM - 12:00 AM",,,
Sherman Ave. (&#038 Glen Street  Glens Falls) &#8211 #380,33429,360 Glen St.,,Glens Falls,NY,12801,United States,518 743-9351,43.311828,-73.649524,"Monday 4:30 AM - 12:00 AM, Tuesday 4:30 AM - 12:00 AM, Wednesday 4:30 AM - 12:00 AM, Thursday 4:30 AM - 12:00 AM, Friday 4:30 AM - 12:00 AM, Saturday 4:30 AM - 12:00 AM, Sunday 4:30 AM - 12:00 AM",,,
Broad Street Glens Falls &#8211 #117,33175,118 Broad St.,,Glens Falls,NY,12801,United States,518 792-9791,43.305408,-73.655278,"Monday 4:30 AM - 11:00 PM, Tuesday 4:30 AM - 11:00 PM, Wednesday 4:30 AM - 11:00 PM, Thursday 4:30 AM - 11:00 PM, Friday 4:30 AM - 11:00 PM, Saturday 4:30 AM - 11:00 PM, Sunday 4:30 AM - 11:00 PM",,,
Ctr. Mechanicville (South Street) &#8211 #401,33443,246 South Street,,Mechanicville,NY,12118,United States,518 664-8211,42.899872,-73.689431,"Monday 4:00 AM - 12:00 AM, Tuesday 4:00 AM - 12:00 AM, Wednesday 4:00 AM - 12:00 AM, Thursday 4:00 AM - 12:00 AM, Friday 4:00 AM - 12:00 AM, Saturday 4:00 AM - 12:00 AM, Sunday 4:00 AM - 12:00 AM",,,
Mechanicville (Park Ave) &#8211 #258,33311,301 Park Ave.,,Mechanicville,NY,12118,United States,518 664-9219,42.903506,-73.690032,"Monday 4:30 AM - 11:00 PM, Tuesday 4:30 AM - 11:00 PM, Wednesday 4:30 AM - 11:00 PM, Thursday 4:30 AM - 11:00 PM, Friday 4:30 AM - 11:00 PM, Saturday 4:30 AM - 11:00 PM, Sunday 4:30 AM - 11:00 PM",,,
Bay Rd.Queensbury &#8211 #396,33440,402 Bay Rd.,,Queensbury,NY,12804,United States,518 793-8904,43.339038,-73.652859,"Monday 4:30 AM - 12:00 AM, Tuesday 4:30 AM - 12:00 AM, Wednesday 4:30 AM - 12:00 AM, Thursday 4:30 AM - 12:00 AM, Friday 4:30 AM - 12:00 AM, Saturday 4:30 AM - 12:00 AM, Sunday 4:30 AM - 12:00 AM",,,
Dana Ave. Albany &#8211 #152,33205,10 New Scotland Ave.,,Albany,NY,12208,United States,518 463-6146,42.654136,-73.77261,"Monday 5:00 AM - 11:00 PM, Tuesday 5:00 AM - 11:00 PM, Wednesday 5:00 AM - 11:00 PM, Thursday 5:00 AM - 11:00 PM, Friday 5:00 AM - 11:00 PM, Saturday 5:00 AM - 11:00 PM, Sunday 5:00 AM - 11:00 PM",,,
New Scotland Ave.  Albany &#8211 #124,33181,285 New Scotland Ave.,,Albany,NY,12208,United States,518 459-3408,42.653384,-73.788257,"Monday 4:30 AM - 12:00 AM, Tuesday 4:30 AM - 12:00 AM, Wednesday 4:30 AM - 12:00 AM, Thursday 4:30 AM - 12:00 AM, Friday 4:30 AM - 12:00 AM, Saturday 4:30 AM - 12:00 AM, Sunday 4:30 AM - 12:00 AM",,,
Manning Blvd.  Albany &#8211 #185,33240,542 Central Ave.,,Albany,NY,12207,United States,518 482-9671,42.670928,-73.779551,"Monday 4:30 AM - 12:00 AM, Tuesday 4:30 AM - 12:00 AM, Wednesday 4:30 AM - 12:00 AM, Thursday 4:30 AM - 12:00 AM, Friday 4:30 AM - 12:00 AM, Saturday 4:30 AM - 12:00 AM, Sunday 4:30 AM - 12:00 AM",,,
Delaware Ave. Albany &#8211 #291,33338,470 Delaware Ave.,,Albany,NY,12202,United States,518 465-9154,42.6395678,-73.7854561,"Monday 5:00 AM - 12:00 AM, Tuesday 5:00 AM - 12:00 AM, Wednesday 5:00 AM - 12:00 AM, Thursday 5:00 AM - 12:00 AM, Friday 5:00 AM - 12:00 AM, Saturday 5:00 AM - 12:00 AM, Sunday 5:00 AM - 12:00 AM",,,
Whitehall Rd.  Albany &#8211 #231,33282,875 New Scotland Ave.,,Albany,NY,12209,United States,518 482-9787,42.655003,-73.817981,"Monday 6:00 AM - 10:00 PM, Tuesday 6:00 AM - 10:00 PM, Wednesday 6:00 AM - 10:00 PM, Thursday 6:00 AM - 10:00 PM, Friday 6:00 AM - 10:00 PM, Saturday 6:00 AM - 10:00 PM, Sunday 6:00 AM - 10:00 PM",,,
Everett Rd. Albany &#8211 #263,33315,406 Albany Shaker Rd.,,Loudonville,NY,12211,United States,518 459-9431,42.697411,-73.768335,"Monday 4:30 AM - 12:00 AM, Tuesday 4:30 AM - 12:00 AM, Wednesday 4:30 AM - 12:00 AM, Thursday 4:30 AM - 12:00 AM, Friday 4:30 AM - 12:00 AM, Saturday 4:30 AM - 12:00 AM, Sunday 4:30 AM - 12:00 AM",,,
Russell Rd.  Albany &#8211 #133,33186,1050 Western Ave.,,Albany,NY,12203,United States,518 482-9702,42.674234,-73.81649,"Monday 4:30 AM - 11:30 PM, Tuesday 4:30 AM - 11:30 PM, Wednesday 4:30 AM - 11:30 PM, Thursday 4:30 AM - 11:30 PM, Friday 4:30 AM - 11:30 PM, Saturday 4:30 AM - 11:30 PM, Sunday 4:30 AM - 11:30 PM",,,
Osborne Rd.  Albany &#8211 #334,33383,219 Sand Creek Rd.,,Albany,NY,12205,United States,518 435-0653,42.697697,-73.791763,"Monday 5:00 AM - 11:00 PM, Tuesday 5:00 AM - 11:00 PM, Wednesday 5:00 AM - 11:00 PM, Thursday 5:00 AM - 11:00 PM, Friday 5:00 AM - 11:00 PM, Saturday 5:00 AM - 11:00 PM, Sunday 5:00 AM - 11:00 PM",,,
Delmar &#8211 #188,33242,309 Delaware Ave.,,Delmar,NY,12054,United States,518 439-4258,42.624449,-73.827263,"Monday 5:00 AM - 11:00 PM, Tuesday 5:00 AM - 11:00 PM, Wednesday 5:00 AM - 11:00 PM, Thursday 5:00 AM - 11:00 PM, Friday 5:00 AM - 11:00 PM, Saturday 5:00 AM - 11:00 PM, Sunday 5:00 AM - 11:00 PM",,,
Fuller Rd. Albany &#8211 #140,33192,35 Fuller Rd.,,Albany,NY,12205,United States,518 591-0109,42.701657,-73.819865,"Monday 4:30 AM - 10:00 PM, Tuesday 4:30 AM - 10:00 PM, Wednesday 4:30 AM - 10:00 PM, Thursday 4:30 AM - 10:00 PM, Friday 4:30 AM - 10:00 PM, Saturday 4:30 AM - 10:00 PM, Sunday 4:30 AM - 10:00 PM",,,
Loudon Rd.  Latham &#8211 #210,33261,605 Loudon Rd.,,Latham,NY,12110,United States,518 783-6057,42.729312,-73.760658,"Monday 4:30 AM - 12:00 AM, Tuesday 4:30 AM - 12:00 AM, Wednesday 4:30 AM - 12:00 AM, Thursday 4:30 AM - 12:00 AM, Friday 4:30 AM - 12:00 AM, Saturday 4:30 AM - 12:00 AM, Sunday 4:30 AM - 12:00 AM",,,
Elm Ave. Delmar &#8211 #105,33163,624 Delaware Ave.,,Bethlehem,NY,12054,United States,518 439-3280,42.615006,-73.85197,"Monday 4:30 AM - 12:00 AM, Tuesday 4:30 AM - 12:00 AM, Wednesday 4:30 AM - 12:00 AM, Thursday 4:30 AM - 12:00 AM, Friday 4:30 AM - 12:00 AM, Saturday 4:30 AM - 12:00 AM, Sunday 4:30 AM - 12:00 AM",,,
Latham &#8211 #111,33170,567 Watervliet Shaker Rd.,,Latham,NY,12110,United States,518 783-6022,42.736816,-73.761099,"Monday 4:30 AM - 11:00 PM, Tuesday 4:30 AM - 11:00 PM, Wednesday 4:30 AM - 11:00 PM, Thursday 4:30 AM - 11:00 PM, Friday 4:30 AM - 11:00 PM, Saturday 5:00 AM - 11:00 PM, Sunday 5:00 AM - 11:00 PM",,,
Swatling Rd.  Latham &#8211 #293,33341,215 Troy-Schenectady Rd,,Latham,NY,12110,United States,518 782-9457,42.7401565,-73.7364745,"Monday 4:30 AM - 11:00 PM, Tuesday 4:30 AM - 11:00 PM, Wednesday 4:30 AM - 11:00 PM, Thursday 4:30 AM - 11:00 PM, Friday 4:30 AM - 11:00 PM, Saturday 4:30 AM - 11:00 PM, Sunday 4:30 AM - 11:00 PM",,,
Central Ave. Albany &#8211 #402,33449,1710 Central Ave.,,Albany,NY,12205,United States,518 456-6267,42.724254,-73.840761,"Monday 4:30 AM - 11:30 PM, Tuesday 4:30 AM - 11:30 PM, Wednesday 4:30 AM - 11:30 PM, Thursday 4:30 AM - 11:30 PM, Friday 4:30 AM - 11:30 PM, Saturday 4:30 AM - 11:30 PM, Sunday 4:30 AM - 11:30 PM",,,
Wade Rd #382,33431,204 Wade Rd Ext,,Latham,NY,12110,United States,518 785-4298,42.757375,-73.7757,"Monday 4:30 AM - 12:00 AM, Tuesday 4:30 AM - 12:00 AM, Wednesday 4:30 AM - 12:00 AM, Thursday 4:30 AM - 12:00 AM, Friday 4:30 AM - 12:00 AM, Saturday 4:30 AM - 12:00 AM, Sunday 4:30 AM - 12:00 AM",,,
Slingerlands &#8211 #379,33428,1936 New Scotland Rd.,,Slingerlands,NY,12159,United States,518 478-0898,42.6302049,-73.899453,"Monday 4:30 AM - 11:00 PM, Tuesday 4:30 AM - 11:00 PM, Wednesday 4:30 AM - 11:00 PM, Thursday 4:30 AM - 11:00 PM, Friday 4:30 AM - 11:00 PM, Saturday 4:30 AM - 11:00 PM, Sunday 4:30 AM - 11:00 PM",,,
Colonie &#8211 #406,33447,1024 Watervliet Shaker Road,,Albany,NY,12205,United States,518 869-8354,42.743068,-73.837484,"Monday 4:30 AM - 11:30 PM, Tuesday 4:30 AM - 11:30 PM, Wednesday 4:30 AM - 11:30 PM, Thursday 4:30 AM - 11:30 PM, Friday 4:30 AM - 11:30 PM, Saturday 4:30 AM - 11:30 PM, Sunday 4:30 AM - 11:30 PM",,,
Mill Hill Court &#8211 #386,33433,1 Mill Hill Court,,Guilderland,NY,12159,United States,518 456-6093,42.68266719,-73.9034379,"Monday 4:30 AM - 11:00 PM, Tuesday 4:30 AM - 11:00 PM, Wednesday 4:30 AM - 11:00 PM, Thursday 4:30 AM - 11:00 PM, Friday 4:30 AM - 11:00 PM, Saturday 4:30 AM - 11:00 PM, Sunday 4:30 AM - 11:00 PM",,,
Feura Bush &#8211 #304,33353,1360 Indian Fields Rd,,Feura Bush,NY,12067,United States,518 475-9626,42.579733,-73.875336,"Monday 12:00 AM - 11:59 PM, Tuesday 12:00 AM - 11:59 PM, Wednesday 12:00 AM - 11:59 PM, Thursday 12:00 AM - 11:59 PM, Friday 12:00 AM - 11:59 PM, Saturday 12:00 AM - 11:59 PM, Sunday 12:00 AM - 11:59 PM",,,
West Cohoes &#8211 #350,33397,480 Columbia St.,,Cohoes,NY,12047,United States,518 233-9166,42.7716443,-73.7279736,"Monday 5:00 AM - 12:00 AM, Tuesday 5:00 AM - 12:00 AM, Wednesday 5:00 AM - 12:00 AM, Thursday 5:00 AM - 12:00 AM, Friday 5:00 AM - 12:00 AM, Saturday 5:00 AM - 12:00 AM, Sunday 5:00 AM - 12:00 AM",,,
Voorheesville &#8211 #173,33229,42 N Main St,,Voorheesville,NY,12186,United States,518 765-9380,42.652426,-73.928256,"Monday 4:30 AM - 11:00 PM, Tuesday 4:30 AM - 11:00 PM, Wednesday 4:30 AM - 11:00 PM, Thursday 4:30 AM - 11:00 PM, Friday 4:30 AM - 11:00 PM, Saturday 4:30 AM - 11:00 PM, Sunday 4:30 AM - 11:00 PM",,,
Vly Rd.  Latham &#8211 #234,33285,1218 Troy-Schenectady Rd,,Latham,NY,12110,United States,518 785-8800,42.7719472,-73.8232328,"Monday 4:30 AM - 12:00 AM, Tuesday 4:30 AM - 12:00 AM, Wednesday 4:30 AM - 12:00 AM, Thursday 4:30 AM - 12:00 AM, Friday 4:30 AM - 12:00 AM, Saturday 4:30 AM - 12:00 AM, Sunday 4:30 AM - 12:00 AM",,,
Guilderland &#8211 #167,33221,2446 Western Ave.,,Altamont,NY,12009,United States,518 456-9726,42.70786,-73.9226944,"Monday 4:30 AM - 12:00 AM, Tuesday 4:30 AM - 12:00 AM, Wednesday 4:30 AM - 12:00 AM, Thursday 4:30 AM - 12:00 AM, Friday 4:30 AM - 12:00 AM, Saturday 4:30 AM - 12:00 AM, Sunday 4:30 AM - 12:00 AM",,,
Ticonderoga &#8211 #148,33201,26 Montcalm St.,,Ticonderoga,NY,12883,United States,518 585-9777,43.847902,-73.432233,"Monday 4:30 AM - 12:00 AM, Tuesday 4:30 AM - 12:00 AM, Wednesday 4:30 AM - 12:00 AM, Thursday 4:30 AM - 12:00 AM, Friday 4:30 AM - 12:00 AM, Saturday 4:30 AM - 12:00 AM, Sunday 4:30 AM - 12:00 AM",,,
Port Henry &#8211 #103,33159,4300 Main Street,,Port Henry,NY,12974,United States,518 546-3025,44.04621,-73.459582,"Monday 4:30 AM - 12:00 AM, Tuesday 4:30 AM - 12:00 AM, Wednesday 4:30 AM - 12:00 AM, Thursday 4:30 AM - 12:00 AM, Friday 4:30 AM - 12:00 AM, Saturday 4:30 AM - 12:00 AM, Sunday 4:30 AM - 12:00 AM",,,
Bolton Landing &#8211 #255,33308,5004 Lake Shore Drive,,Bolton Landing,NY,12814,United States,518 644-9341,43.560367,-73.65363,"Monday 5:00 AM - 12:00 AM, Tuesday 5:00 AM - 12:00 AM, Wednesday 5:00 AM - 12:00 AM, Thursday 5:00 AM - 12:00 AM, Friday 5:00 AM - 12:00 AM, Saturday 5:00 AM - 12:00 AM, Sunday 5:00 AM - 12:00 AM",,,
Pleasant Street #375,33419,9 Pleasant Street,,Keesville,NY,12944,United States,518 834-9715,44.506094,-73.483463,"Monday 4:00 AM - 12:00 AM, Tuesday 4:00 AM - 12:00 AM, Wednesday 4:00 AM - 12:00 AM, Thursday 4:00 AM - 12:00 AM, Friday 4:00 AM - 12:00 AM, Saturday 4:00 AM - 12:00 AM, Sunday 4:00 AM - 12:00 AM",,,
Elizabethtown &#8211 #160,33212,94 Park St,,Elizabethtown,NY,12932,United States,518 873-2438,44.214229,-73.596043,"Monday 5:00 AM - 12:00 AM, Tuesday 5:00 AM - 12:00 AM, Wednesday 5:00 AM - 12:00 AM, Thursday 5:00 AM - 12:00 AM, Friday 5:00 AM - 12:00 AM, Saturday 5:00 AM - 12:00 AM, Sunday 5:00 AM - 12:00 AM",,,
North Queensbury &#8211 #415,33457,1004 U.S. 9,,Queensbury,NY,12804,United States,518 761-6035,43.341702,-73.6830063,"Monday 4:30 AM - 12:00 AM, Tuesday 4:30 AM - 12:00 AM, Wednesday 4:30 AM - 12:00 AM, Thursday 4:30 AM - 12:00 AM, Friday 4:30 AM - 12:00 AM, Saturday 4:30 AM - 12:00 AM, Sunday 4:30 AM - 12:00 AM",,,
West Glens Falls (Exit 18 off I-87) Queensbury &#8211 #374,33423,221 Corinth Rd.,,Queensbury,NY,12804,United States,518 761-9691,43.295327,-73.6832359,"Monday 4:00 AM - 12:00 AM, Tuesday 4:00 AM - 12:00 AM, Wednesday 4:00 AM - 12:00 AM, Thursday 4:00 AM - 12:00 AM, Friday 4:00 AM - 12:00 AM, Saturday 4:00 AM - 12:00 AM, Sunday 4:00 AM - 12:00 AM",,,
Lake George Outlet &#8211 #458,33497,1433 State Route 9,,Queensbury,NY,12804,United States,518 792-0385,43.365216,-73.700382,"Monday 4:30 AM - 12:00 AM, Tuesday 4:30 AM - 12:00 AM, Wednesday 4:30 AM - 12:00 AM, Thursday 4:30 AM - 12:00 AM, Friday 4:30 AM - 12:00 AM, Saturday 4:30 AM - 12:00 AM, Sunday 4:30 AM - 12:00 AM",,,
Lake George &#8211 #220,33274,2164 State Route 9,,Lake George,NY,12845,United States,518 668-9378,43.411085,-73.710521,"Monday 5:00 AM - 12:00 AM, Tuesday 5:00 AM - 12:00 AM, Wednesday 5:00 AM - 12:00 AM, Thursday 5:00 AM - 12:00 AM, Friday 5:00 AM - 12:00 AM, Saturday 5:00 AM - 12:00 AM, Sunday 5:00 AM - 12:00 AM",,,
Aviation Rd. Queensbury &#8211 #261,33319,347 Aviation Rd.,,Queensbury,NY,12804,United States,518 792-3358,43.330596,-73.697345,"Monday 4:30 AM - 12:00 AM, Tuesday 4:30 AM - 12:00 AM, Wednesday 4:30 AM - 12:00 AM, Thursday 4:30 AM - 12:00 AM, Friday 4:30 AM - 12:00 AM, Saturday 4:30 AM - 12:00 AM, Sunday 4:30 AM - 12:00 AM",,,
Erie Blvd.  Schenectady &#8211 #411,33459,1033 Erie Blvd.,,Schenectady,NY,12305,United States,518 377-6951,42.8176011,-73.9405571,"Monday 5:00 AM - 11:00 PM, Tuesday 5:00 AM - 11:00 PM, Wednesday 5:00 AM - 11:00 PM, Thursday 5:00 AM - 11:00 PM, Friday 5:00 AM - 11:00 PM, Saturday 5:00 AM - 11:00 PM, Sunday 5:00 AM - 11:00 PM",,,
Nott Terrace  Schenectady &#8211 #164,33218,120 Nott Terrace,,Schenectady,NY,12308,United States,518 382-9332,42.811982,-73.935974,"Monday 5:00 AM - 12:00 AM, Tuesday 5:00 AM - 12:00 AM, Wednesday 5:00 AM - 12:00 AM, Thursday 5:00 AM - 12:00 AM, Friday 5:00 AM - 12:00 AM, Saturday 5:00 AM - 12:00 AM, Sunday 5:00 AM - 12:00 AM",,,
Brandywine Ave.  Schenectady &#8211 #182,33237,100 S. Brandywine Ave.,,Schenectady,NY,12307,United States,518 357-3985,42.800269,-73.92882,"Monday 4:30 AM - 11:00 PM, Tuesday 4:30 AM - 11:00 PM, Wednesday 4:30 AM - 11:00 PM, Thursday 4:30 AM - 11:00 PM, Friday 4:30 AM - 11:00 PM, Saturday 4:30 AM - 11:00 PM, Sunday 4:30 AM - 11:00 PM",,,
Van Vranken Ave.  Schenectady &#8211 #283,33336,1757 Van Vranken Ave.,,Schenectady,NY,12304,United States,518 370-9832,42.8256281,-73.9234893,"Monday 5:00 AM - 11:00 PM, Tuesday 5:00 AM - 11:00 PM, Wednesday 5:00 AM - 11:00 PM, Thursday 5:00 AM - 11:00 PM, Friday 5:00 AM - 11:00 PM, Saturday 5:00 AM - 11:00 PM, Sunday 5:00 AM - 11:00 PM",,,
Nott St.  Schenectady &#8211 #110,33166,1229 Nott Street,,Schenectady,NY,12308,United States,518 382-8704,42.8189819,-73.9153126,"Monday 5:00 AM - 12:00 AM, Tuesday 5:00 AM - 12:00 AM, Wednesday 5:00 AM - 12:00 AM, Thursday 5:00 AM - 12:00 AM, Friday 5:00 AM - 12:00 AM, Saturday 5:00 AM - 12:00 AM, Sunday 5:00 AM - 12:00 AM",,,
Chrisler Ave.  Schenectady &#8211 #405,33453,1209 Chrisler Ave.,,Schenectady,NY,12305,United States,518 370-2110,42.795545,-73.943809,"Monday 5:00 AM - 11:00 PM, Tuesday 5:00 AM - 11:00 PM, Wednesday 5:00 AM - 11:00 PM, Thursday 5:00 AM - 11:00 PM, Friday 5:00 AM - 11:00 PM, Saturday 5:00 AM - 11:00 PM, Sunday 5:00 AM - 11:00 PM",,,
Mohawk Ave.  Scotia &#8211 #230,33287,204 Mohawk Ave,,Scotia,NY,12302,United States,518 382-7875,42.826894,-73.964358,"Monday 5:00 AM - 11:00 PM, Tuesday 5:00 AM - 11:00 PM, Wednesday 5:00 AM - 11:00 PM, Thursday 5:00 AM - 11:00 PM, Friday 5:00 AM - 11:00 PM, Saturday 5:00 AM - 11:00 PM, Sunday 5:00 AM - 11:00 PM",,,
Freeman&#8217s Bridge Rd.  Glenville &#8211 #275,33323,50 Freeman's Bridge Rd.,,Glenville,NY,12302,United States,518 382-9654,42.8362395,-73.9326117,"Monday 4:30 AM - 11:00 PM, Tuesday 4:30 AM - 11:00 PM, Wednesday 4:30 AM - 11:00 PM, Thursday 4:30 AM - 11:00 PM, Friday 4:30 AM - 11:00 PM, Saturday 4:30 AM - 11:00 PM, Sunday 4:30 AM - 11:00 PM",,,
Broadview (2009 Broadway  Schenectady) &#8211 #418,33460,1905 Broadway,,Schenectady,NY,12306,United States,518 381-1827,42.798442,-73.964043,"Monday 5:30 AM - 11:00 PM, Tuesday 5:30 AM - 11:00 PM, Wednesday 5:30 AM - 11:00 PM, Thursday 5:30 AM - 11:00 PM, Friday 5:30 AM - 11:00 PM, Saturday 5:30 AM - 11:00 PM, Sunday 5:30 AM - 11:00 PM",,,
"2146 Broadway , Schenectady) &#8211 #269",33324,2146 Broadway,,Schenectady,NY,12306,United States,518 370-9850,42.796829,-73.966697,"Monday 5:00 AM - 12:00 AM, Tuesday 5:00 AM - 12:00 AM, Wednesday 5:00 AM - 12:00 AM, Thursday 5:00 AM - 12:00 AM, Friday 5:00 AM - 12:00 AM, Saturday 5:00 AM - 12:00 AM, Sunday 5:00 AM - 12:00 AM",,,
Glenville (Route 50 at the point) &#8211 #410,33452,411 Ballston Rd.,,Scotia,NY,12302,United States,518 377-2334,42.844209,-73.947998,"Monday 5:00 AM - 12:00 AM, Tuesday 5:00 AM - 12:00 AM, Wednesday 5:00 AM - 12:00 AM, Thursday 5:00 AM - 12:00 AM, Friday 5:00 AM - 12:00 AM, Saturday 5:00 AM - 12:00 AM, Sunday 5:00 AM - 12:00 AM",,,
Union St.  Schenectady &#8211 #183,33238,1739 Union Street,,Schenectady,NY,12309,United States,518 382-9580,42.803511,-73.900032,"Monday 5:00 AM - 12:00 AM, Tuesday 5:00 AM - 12:00 AM, Wednesday 5:00 AM - 12:00 AM, Thursday 5:00 AM - 12:00 AM, Friday 5:00 AM - 12:00 AM, Saturday 5:00 AM - 12:00 AM, Sunday 5:00 AM - 12:00 AM",,,
Nott Balltown  Niskayuna &#8211 #126,33184,1502 Balltown Road,,Niskayuna,NY,12309,United States,518 377-1038,42.815691,-73.892195,"Monday 4:30 AM - 12:00 AM, Tuesday 4:30 AM - 12:00 AM, Wednesday 4:30 AM - 12:00 AM, Thursday 4:30 AM - 12:00 AM, Friday 4:30 AM - 12:00 AM, Saturday 4:30 AM - 12:00 AM, Sunday 4:30 AM - 12:00 AM",,,
Curry Rd. (&#038 Helderberg  Rotterdam) &#8211 #189,33243,1841 Helderberg,,Rotterdam,NY,12303,United States,518 355-4685,42.7815222,-73.9577553,"Monday 4:30 AM - 11:00 PM, Tuesday 4:30 AM - 11:00 PM, Wednesday 4:30 AM - 11:00 PM, Thursday 4:30 AM - 11:00 PM, Friday 4:30 AM - 11:00 PM, Saturday 4:30 AM - 11:00 PM, Sunday 4:30 AM - 11:00 PM",,,
Hamburg St.  Rotterdam &#8211 #320,33375,2740 Hamburg St.,,Schenectady,NY,12303,United States,518 356-3675,42.773744,-73.9357797,"Monday 4:30 AM - 12:00 AM, Tuesday 4:30 AM - 12:00 AM, Wednesday 4:30 AM - 12:00 AM, Thursday 4:30 AM - 12:00 AM, Friday 4:30 AM - 12:00 AM, Saturday 4:30 AM - 12:00 AM, Sunday 4:30 AM - 12:00 AM",,,
State St.  Schenectady &#8211 #187,33247,1773 State Street,,Schenectady,NY,12304,United States,518 382-8884,42.781192,-73.904322,"Monday 4:30 AM - 12:00 AM, Tuesday 4:30 AM - 12:00 AM, Wednesday 4:30 AM - 12:00 AM, Thursday 4:30 AM - 12:00 AM, Friday 4:30 AM - 12:00 AM, Saturday 4:30 AM - 12:00 AM, Sunday 4:30 AM - 12:00 AM",,,
Balltown Rd.  Niskayuna &#8211 #181,33236,566 Balltown Rd.,,Niskayuna,NY,12304,United States,518 382-9402,42.7829161,-73.892938,"Monday 4:30 AM - 11:00 PM, Tuesday 4:30 AM - 11:00 PM, Wednesday 4:30 AM - 11:00 PM, Thursday 4:30 AM - 11:00 PM, Friday 4:30 AM - 11:00 PM, Saturday 4:30 AM - 11:00 PM, Sunday 4:30 AM - 11:00 PM",,,
Burdeck Rd.  Rotterdam &#8211 #226,33284,672 Mariaville Road,,Rotterdam,NY,12306,United States,518 355-1858,42.794586,-74.005309,"Monday 4:30 AM - 11:30 PM, Tuesday 4:30 AM - 11:30 PM, Wednesday 4:30 AM - 11:30 PM, Thursday 4:30 AM - 11:30 PM, Friday 4:30 AM - 11:30 PM, Saturday 4:30 AM - 11:30 PM, Sunday 4:30 AM - 11:30 PM",,,
Sacandaga Rd.  Scotia &#8211 #300,33350,571 Sacandaga Rd.,,Scotia,NY,12302,United States,518 372-8719,42.860413,-73.9813925,"Monday 4:30 AM - 11:00 PM, Tuesday 4:30 AM - 11:00 PM, Wednesday 4:30 AM - 11:00 PM, Thursday 4:30 AM - 11:00 PM, Friday 4:30 AM - 11:00 PM, Saturday 4:30 AM - 11:00 PM, Sunday 4:30 AM - 11:00 PM",,,
Rexford &#8211 #109,33165,923 Riverview Rd.,,Rexford,NY,12148,United States,518 399-2651,42.856558,-73.888104,"Monday 5:00 AM - 11:00 PM, Tuesday 5:00 AM - 11:00 PM, Wednesday 5:00 AM - 11:00 PM, Thursday 5:00 AM - 11:00 PM, Friday 5:00 AM - 11:00 PM, Saturday 5:00 AM - 11:00 PM, Sunday 5:00 AM - 11:00 PM",,,
Avon (Consaul Rd.  Schenectady) &#8211 #135,33195,4240 Consaul Rd.,,Schenectady,NY,12304,United States,518 382-9679,42.76913,-73.875131,"Monday 4:00 AM - 11:00 PM, Tuesday 4:00 AM - 11:00 PM, Wednesday 4:00 AM - 11:00 PM, Thursday 4:00 AM - 11:00 PM, Friday 4:00 AM - 11:00 PM, Saturday 4:00 AM - 11:00 PM, Sunday 4:00 AM - 11:00 PM",,,
Grooms Rd.  Clifton Park &#8211 #296,33347,641 grooms rd,,Clifton Park,NY,12065,United States,518 371-9353,42.836704,-73.821353,"Monday 5:00 AM - 11:00 PM, Tuesday 5:00 AM - 11:00 PM, Wednesday 5:00 AM - 11:00 PM, Thursday 5:00 AM - 11:00 PM, Friday 5:00 AM - 11:00 PM, Saturday 5:00 AM - 11:00 PM, Sunday 5:00 AM - 11:00 PM",,,
Burnt Hills &#8211 #271,33320,710 Saratoga Rd.,,Burnt Hills,NY,12027,United States,518 384-1994,42.900746,-73.905772,"Monday 4:30 AM - 12:00 AM, Tuesday 4:30 AM - 12:00 AM, Wednesday 4:30 AM - 12:00 AM, Thursday 4:30 AM - 12:00 AM, Friday 4:30 AM - 12:00 AM, Saturday 4:30 AM - 12:00 AM, Sunday 4:30 AM - 12:00 AM",,,
West Scotia (Route 5) &#8211 #324,33373,5246 Amsterdam Rd.,,Scotia,NY,12302,United States,518 372-0809,42.880368,-74.039291,"Monday 4:30 AM - 12:00 AM, Tuesday 4:30 AM - 12:00 AM, Wednesday 4:30 AM - 12:00 AM, Thursday 4:30 AM - 12:00 AM, Friday 4:30 AM - 12:00 AM, Saturday 4:30 AM - 12:00 AM, Sunday 4:30 AM - 12:00 AM",,,
Elnora (Rt. 146 &#038 Vischer Ferry Road  Clifton Park) &#8211 #335,33384,1206 Route 146,,Clifton Park,NY,12065,United States,518 371-9761,42.870085,-73.821367,"Monday 5:00 AM - 11:00 PM, Tuesday 5:00 AM - 11:00 PM, Wednesday 5:00 AM - 11:00 PM, Thursday 5:00 AM - 11:00 PM, Friday 5:00 AM - 11:00 PM, Saturday 5:00 AM - 11:00 PM, Sunday 5:00 AM - 11:00 PM",,,
Ballston Lake &#8211 #172,33228,26 Main St,,Ballston Lake,NY,12019,United States,518 399-9902,42.909037,-73.87555,"Monday 5:00 AM - 11:00 PM, Tuesday 5:00 AM - 11:00 PM, Wednesday 5:00 AM - 11:00 PM, Thursday 5:00 AM - 11:00 PM, Friday 5:00 AM - 11:00 PM, Saturday 5:00 AM - 11:00 PM, Sunday 5:00 AM - 11:00 PM",,,
Vischer Ferry Rd. (Exit 8 off I-87) &#8211 #407,33448,1529 Crescent Rd,,Clifton Park,NY,12065,United States,518 371-9053,42.819974,-73.770934,"Monday 4:00 AM - 1:00 AM, Tuesday 4:00 AM - 1:00 AM, Wednesday 4:00 AM - 1:00 AM, Thursday 4:00 AM - 1:00 AM, Friday 4:00 AM - 1:00 AM, Saturday 4:00 AM - 1:00 AM, Sunday 4:00 AM - 1:00 AM",,,
Sitterly Road  Clifton Park &#8211 #447,33491,418 Clifton Park Center Road,,Clifton Park,NY,12065,United States,518 371-2962,42.855704,-73.777073,"Monday 4:30 AM - 12:00 AM, Tuesday 4:30 AM - 12:00 AM, Wednesday 4:30 AM - 12:00 AM, Thursday 4:30 AM - 12:00 AM, Friday 4:30 AM - 12:00 AM, Saturday 4:30 AM - 12:00 AM, Sunday 4:30 AM - 12:00 AM",,,
Jonesville &#8211 #365,33415,13 longkill rd,,Ballston Lake,NY,12019,United States,518 877-8537,42.911204,-73.822251,"Monday 5:30 AM - 11:00 PM, Tuesday 5:30 AM - 11:00 PM, Wednesday 5:30 AM - 11:00 PM, Thursday 5:30 AM - 11:00 PM, Friday 5:30 AM - 11:00 PM, Saturday 5:30 AM - 11:00 PM, Sunday 5:30 AM - 11:00 PM",,,
Helderberg &#8211 #203,33262,1001 Altamont Blvd.,,Altamont,NY,12009,United States,518 861-5708,42.7003989,-74.0338708,"Monday 4:30 AM - 12:00 AM, Tuesday 4:30 AM - 12:00 AM, Wednesday 4:30 AM - 12:00 AM, Thursday 4:30 AM - 12:00 AM, Friday 4:30 AM - 12:00 AM, Saturday 4:30 AM - 12:00 AM, Sunday 4:30 AM - 12:00 AM",,,
Usher&#8217s Rd (Exit 10 off I-87) &#8211 #366,33417,322 Usher's Rd.,,Ballston Lake,NY,12019,United States,518 877-8927,42.9032334,-73.7964157,"Monday 5:00 AM - 11:00 PM, Tuesday 5:00 AM - 11:00 PM, Wednesday 5:00 AM - 11:00 PM, Thursday 5:00 AM - 11:00 PM, Friday 5:00 AM - 11:00 PM, Saturday 5:00 AM - 11:00 PM, Sunday 5:00 AM - 11:00 PM",,,
Plant Rd &#038 Rt. 146  Halfmoon &#8211 #127,33185,454 Route 146,,Clifton Park,NY,12065,United States,518 383-8454,42.863287,-73.758748,"Monday 5:00 AM - 12:00 AM, Tuesday 5:00 AM - 12:00 AM, Wednesday 5:00 AM - 12:00 AM, Thursday 5:00 AM - 12:00 AM, Friday 5:00 AM - 12:00 AM, Saturday 5:00 AM - 12:00 AM, Sunday 5:00 AM - 12:00 AM",,,
Route 9  North of Kinns Rd.  Clifton Park &#8211 #305,33361,1859 Rte 9,,Clifton Park,NY,12065,United States,518 877-6013,42.892553,-73.771751,"Monday 4:30 AM - 11:00 PM, Tuesday 4:30 AM - 11:00 PM, Wednesday 4:30 AM - 11:00 PM, Thursday 4:30 AM - 11:00 PM, Friday 4:30 AM - 11:00 PM, Saturday 4:30 AM - 11:00 PM, Sunday 4:30 AM - 11:00 PM",,,
"Guideboard Rd., Halfmoon &#8211 #385",33434,214 Guideboard Rd.,,Halfmoon,NY,12065,United States,518 348-0302,42.837388,-73.739312,"Monday 4:30 AM - 12:00 AM, Tuesday 4:30 AM - 12:00 AM, Wednesday 4:30 AM - 12:00 AM, Thursday 4:30 AM - 12:00 AM, Friday 4:30 AM - 12:00 AM, Saturday 4:30 AM - 12:00 AM, Sunday 4:30 AM - 12:00 AM",,,
Duanesburg &#8211 #250,33303,5060 Western Turnpike,,Duanesburg,NY,12056,United States,518 895-8845,42.7614658,-74.132738,"Monday 4:00 AM - 12:00 AM, Tuesday 4:00 AM - 12:00 AM, Wednesday 4:00 AM - 12:00 AM, Thursday 4:00 AM - 12:00 AM, Friday 4:00 AM - 12:00 AM, Saturday 4:00 AM - 12:00 AM, Sunday 4:00 AM - 12:00 AM",,,
Crescent &#8211 #112,33171,1403 Route 9,,Clifton Park,NY,12065,United States,518 371-9884,42.824139,-73.73257,"Monday 4:30 AM - 11:00 PM, Tuesday 4:30 AM - 11:00 PM, Wednesday 4:30 AM - 11:00 PM, Thursday 4:30 AM - 11:00 PM, Friday 4:30 AM - 11:00 PM, Saturday 4:30 AM - 11:00 PM, Sunday 4:30 AM - 11:00 PM",,,
Round Lake &#8211 #162,33215,15 Round Lake Rd.,,Ballston Lake,NY,12019,United States,518 899-6457,42.9360841,-73.807523,"Monday 5:00 AM - 12:00 AM, Tuesday 5:00 AM - 12:00 AM, Wednesday 5:00 AM - 12:00 AM, Thursday 5:00 AM - 12:00 AM, Friday 5:00 AM - 12:00 AM, Saturday 5:00 AM - 12:00 AM, Sunday 5:00 AM - 12:00 AM",,,
Johnstown (East Main Street) &#8211 #224,33277,1 East Main Street,,Johnstown,NY,12095,United States,518 762-8327,43.006461,-74.3711834,"Monday 4:00 AM - 12:00 AM, Tuesday 4:00 AM - 12:00 AM, Wednesday 4:00 AM - 12:00 AM, Thursday 4:00 AM - 12:00 AM, Friday 4:00 AM - 12:00 AM, Saturday 4:00 AM - 12:00 AM, Sunday 4:00 AM - 12:00 AM",,,
Fonda &#8211 #146,33198,38 W. Main Street,,Fonda,NY,12068,United States,518 853-4644,42.954518,-74.377326,"Monday 12:00 AM - 11:59 PM, Tuesday 12:00 AM - 11:59 PM, Wednesday 12:00 AM - 11:59 PM, Thursday 12:00 AM - 11:59 PM, Friday 12:00 AM - 11:59 PM, Saturday 12:00 AM - 11:59 PM, Sunday 12:00 AM - 11:59 PM",,,
Briggs Street  Johnstown &#8211 #425,33470,201 North Comrie Ave.,,Johnstown,NY,12095,United States,518 736-1982,43.0138901,-74.3609492,"Monday 4:30 AM - 12:00 AM, Tuesday 4:30 AM - 12:00 AM, Wednesday 4:30 AM - 12:00 AM, Thursday 4:30 AM - 12:00 AM, Friday 4:30 AM - 12:00 AM, Saturday 4:30 AM - 12:00 AM, Sunday 4:30 AM - 12:00 AM",,,
Comrie Ave.  Johnstown &#8211 #279,33326,198 North Comrie Ave,,Johnstown,NY,12095,United States,518 762-1099,43.0138663,-74.3609337,"Monday 3:30 AM - 12:00 AM, Tuesday 3:30 AM - 12:00 AM, Wednesday 3:30 AM - 12:00 AM, Thursday 3:30 AM - 12:00 AM, Friday 3:30 AM - 12:00 AM, Saturday 3:30 AM - 12:00 AM, Sunday 3:30 AM - 12:00 AM",,,
South Main St.  Gloversville &#8211 #180,33230,76 S. Main Street,,Gloversville,NY,12078,United States,518 725-6566,43.048303,-74.347613,"Monday 4:00 AM - 12:00 AM, Tuesday 4:00 AM - 12:00 AM, Wednesday 4:00 AM - 12:00 AM, Thursday 4:00 AM - 12:00 AM, Friday 4:00 AM - 12:00 AM, Saturday 4:00 AM - 12:00 AM, Sunday 4:00 AM - 12:00 AM",,,
Fulton St.  Gloversville &#8211 #247,33302,1037 East Fulton St,,Gloversville,NY,12078,United States,518 725-7311,43.051256,-74.325345,"Monday 4:00 AM - 1:00 AM, Tuesday 4:00 AM - 1:00 AM, Wednesday 4:00 AM - 1:00 AM, Thursday 4:00 AM - 1:00 AM, Friday 4:00 AM - 1:00 AM, Saturday 4:00 AM - 1:00 AM, Sunday 4:00 AM - 1:00 AM",,,
Mayfield &#8211 #284,33337,99 N School St,,Mayfield,NY,12117,United States,518 661-6769,43.108706,-74.267954,"Monday 4:30 AM - 12:00 AM, Tuesday 4:30 AM - 12:00 AM, Wednesday 4:30 AM - 12:00 AM, Thursday 4:30 AM - 12:00 AM, Friday 4:30 AM - 12:00 AM, Saturday 4:30 AM - 12:00 AM, Sunday 4:30 AM - 12:00 AM",,,
East Cobleskill &#8211 #384,33427,2668 State Route 7,,Cobleskill,NY,12043,United States,518 296-8878,42.680119,-74.417642,"Monday 4:00 AM - 12:00 AM, Tuesday 4:00 AM - 12:00 AM, Wednesday 4:00 AM - 12:00 AM, Thursday 4:00 AM - 12:00 AM, Friday 4:00 AM - 12:00 AM, Saturday 4:00 AM - 12:00 AM, Sunday 4:00 AM - 12:00 AM",,,
Fort Johnson &#8211 #319,33368,17 E Main St,,FORT JOHNSON,NY,12070,United States,518 842-0164,42.956917,-74.231738,"Monday 4:30 AM - 12:00 AM, Tuesday 4:30 AM - 12:00 AM, Wednesday 4:30 AM - 12:00 AM, Thursday 4:30 AM - 12:00 AM, Friday 4:30 AM - 12:00 AM, Saturday 4:30 AM - 12:00 AM, Sunday 4:30 AM - 12:00 AM",,,
Broadalbin &#8211 #143,33200,47 S 2nd Ave,,Broadalbin,NY,12025,United States,518 883-8903,43.0524427,-74.1984528,"Monday 3:00 AM - 12:00 AM, Tuesday 3:00 AM - 12:00 AM, Wednesday 3:00 AM - 12:00 AM, Thursday 3:00 AM - 12:00 AM, Friday 3:00 AM - 12:00 AM, Saturday 3:00 AM - 12:00 AM, Sunday 3:00 AM - 12:00 AM",,,
Perth &#8211 #254,33307,4192 New York 30,,Amsterdam,NY,12010,United States,518 842-9650,43.017141,-74.194113,"Monday 4:00 AM - 12:00 AM, Tuesday 4:00 AM - 12:00 AM, Wednesday 4:00 AM - 12:00 AM, Thursday 4:00 AM - 12:00 AM, Friday 4:00 AM - 12:00 AM, Saturday 4:00 AM - 12:00 AM, Sunday 4:00 AM - 12:00 AM",,,
South Amsterdam &#8211 #445,33488,1 Venner Rd,,Amsterdam,NY,12010,United States,518 842-4072,42.929193,-74.205436,"Monday 4:00 AM - 12:00 AM, Tuesday 4:00 AM - 12:00 AM, Wednesday 4:00 AM - 12:00 AM, Thursday 4:00 AM - 12:00 AM, Friday 4:00 AM - 12:00 AM, Saturday 4:00 AM - 12:00 AM, Sunday 4:00 AM - 12:00 AM",,,
Guy Park Ave.  Amsterdam &#8211 #217,33271,151Guy Park Ave.,,Amsterdam,NY,12010,United States,518 842-9623,42.944385,-74.198187,"Monday 5:00 AM - 11:00 PM, Tuesday 5:00 AM - 11:00 PM, Wednesday 5:00 AM - 11:00 PM, Thursday 5:00 AM - 11:00 PM, Friday 5:00 AM - 11:00 PM, Saturday 5:00 AM - 11:00 PM, Sunday 5:00 AM - 11:00 PM",,,
Market St.  Amsterdam &#8211 #233,33290,132 Market Street,,Amsterdam,NY,12010,United States,518 842-9898,42.942659,-74.188303,"Monday 4:30 AM - 12:00 AM, Tuesday 4:30 AM - 12:00 AM, Wednesday 4:30 AM - 12:00 AM, Thursday 4:30 AM - 12:00 AM, Friday 4:30 AM - 12:00 AM, Saturday 4:30 AM - 12:00 AM, Sunday 4:30 AM - 12:00 AM",,,
East Main St.  Amsterdam &#8211 #266,33322,185 East Main Street,,Amsterdam,,12010,United States,518 842-9749,42.933722,-74.1861152,"Monday 4:30 AM - 12:00 AM, Tuesday 4:30 AM - 12:00 AM, Wednesday 4:30 AM - 12:00 AM, Thursday 4:30 AM - 12:00 AM, Friday 4:30 AM - 12:00 AM, Saturday 4:30 AM - 12:00 AM, Sunday 4:30 AM - 12:00 AM",,,
Northville &#8211 #107,33168,111 S. Main Street,,Northville,NY,12134,United States,518 863-2475,43.225795,-74.172131,"Monday 4:00 AM - 12:00 AM, Tuesday 4:00 AM - 12:00 AM, Wednesday 4:00 AM - 12:00 AM, Thursday 4:00 AM - 12:00 AM, Friday 4:00 AM - 12:00 AM, Saturday 4:00 AM - 12:00 AM, Sunday 4:00 AM - 12:00 AM",,,
Esperance &#8211 #116,33169,4032 State Highway 30,,Esperance,NY,12066,United States,518 875-6808,42.7610175,-74.2459731,"Monday 4:00 AM - 12:00 AM, Tuesday 4:00 AM - 12:00 AM, Wednesday 4:00 AM - 12:00 AM, Thursday 4:00 AM - 12:00 AM, Friday 4:00 AM - 12:00 AM, Saturday 4:00 AM - 12:00 AM, Sunday 4:00 AM - 12:00 AM",,,
