store_name,store_number,address,address2,city,state,zip_code,country,phone_number,latitude,longitude,store_hours,store_type,other_fields,coming_soon
Kangaroo Express,,34 Prosperity Lane ,,Stafford ,VA,22556,United States,(540) 720-7897,,,,,,
Kangaroo Express,,610 England Street ,,Ashland ,VA,23005,United States,(804) 798-4224,,,,,,
Kangaroo Express,,1013 North Blvd ,,Richmond ,VA,23230,United States,(804) 359-2860,,,,,,
Kangaroo Express,,1099 Rio Road ,,Charlottesville ,VA,22901,United States,(434) 978-1279,,,,,,
Kangaroo Express,,629 S Main Street ,,Woodstock ,VA,22664,United States,(540) 459-5730,,,,,,
Kangaroo Express,,891 Temple Avenue ,,Colonial Heights ,VA,23834,United States,(804) 526-6025,,,,,,
Kangaroo Express,,313 Spring Field Lane ,,Staunton ,VA,24401,United States,(540) 337-9752,,,,,,
Kangaroo Express,,636 Greenville Ave ,,Staunton ,VA,24401,United States,(540) 885-8367,,,,,,
Kangaroo Express,,321 Church Street ,,Blackstone ,VA,23824,United States,(434) 292-3712,,,,,,
Kangaroo Express,,115 Ottis Street ,,Yorktown ,VA,23693,United States,(757) 988-1606,,,,,,
Kangaroo Express,,1014 Bill Tuck Highway ,,South Boston ,VA,24592,United States,(434) 572-6787,,,,,,
Kangaroo Express,,101 South Main St ,,Clover ,VA,24534,United States,(803) 222-4957,,,,,,
Kangaroo Express,,9181 US Hwy 29 ,,Blairs ,VA,24527,United States,(434) 836-2599,,,,,,
Kangaroo Express,,4604 N Roxboro Rd ,,Durham ,NC,27712,United States,(919) 620-9880,,,,,,
Kangaroo Express,,1204 US Hwy 70 East ,,Hillsborough ,NC,27278,United States,(919) 732-5536,,,,,,
Kangaroo Express,,702 East Atlantic Avenue ,,South Hill ,VA,23970,United States,(434) 447-2380,,,,,,
Kangaroo Express,,3705 N Duke Street ,,Durham ,NC,27704,United States,(919) 479-1864,,,,,,
Kangaroo Express,,3301 Guess Road ,,Durham ,NC,27705,United States,(919) 479-1641,,,,,,
Kangaroo Express,,500 South Churton Street ,,Hillsborough ,NC,27278,United States,(919) 644-0451,,,,,,
Kangaroo Express,,2301 Holloway Street ,,Durham ,NC,27703,United States,(919) 596-5428,,,,,,
Kangaroo Express,,690 E Main Street ,,Wytheville ,VA,24382,United States,(276) 228-8321,,,,,,
Kangaroo Express,,2622 East Lee Hwy ,,Wytheville ,VA,24382,United States,(276) 637-4250,,,,,,
Kangaroo Express,,1020 Peppers Ferry Rd ,,Wytheville ,VA,24382-4042,United States,(276) 228-8081,,,,,,
Kangaroo Express,,117 Ready Mix Rd ,,Wytheville ,VA,24382,United States,(276) 228-6680,,,,,,
Kangaroo Express,,1995 East Main Street ,,Wytheville ,VA,24382,United States,(276) 228-6147,,,,,,
Kangaroo Express,,125 Holston Rd ,,Wytheville ,VA,24382,United States,(276) 228-4480,,,,,,
Kangaroo Express,,8006 South Scenic Hwy ,,Bland ,VA,24315,United States,(276) 688-3645,,,,,,
Kangaroo Express,,152 Major Grahams Rd ,,Max Meadows ,VA,24360,United States,(276) 637-6488,,,,,,
Kangaroo Express,,1682 Lead Mine Rd ,,Austinville ,VA,24312,United States,(276) 699-0105,,,,,,
Kangaroo Express,,1682 Lead Mine Rd ,,Austinville ,VA,24312,United States,(276) 699-7824,,,,,,
Kangaroo Express,,4243 S Amherst Hwy ,,Madison heights ,VA,24572,United States,(434) 845-3700,,,,,,
Kangaroo Express,,1912 Laskin Road ,,Virginia Beach ,VA,23454,United States,(757) 425-1610,,,,,,
Kangaroo Express,,1146 N Military Hwy ,,Norfolk ,VA,23502,United States,(757) 461-2122,,,,,,
Kangaroo Express,,1001 George Washington Hwy N ,,Chesapeake ,VA,23323,United States,(757) 485-2144,,,,,,
Kangaroo Express,,5191 W Military Hwy ,,Chesapeake ,VA,23321,United States,(757) 465-1032,,,,,,
Kangaroo Express,,683 J Clyde Morris Blvd ,,Newport News ,VA,23601,United States,(757) 599-0556,,,,,,
Kangaroo Express,,1125 Wilroy Rd ,,Suffolk ,VA,23434,United States,(757) 934-1550,,,,,,
Kangaroo Express,,2865 Pruden Blvd ,,Suffolk ,VA,23434,United States,(757) 539-9099,,,,,,
Kangaroo Express,,819 W Washington Street ,,Suffolk ,VA,23434,United States,(757) 934-3165,,,,,,
Kangaroo Express,,1313 W Ehringhaus St ,,Elizabeth City ,NC,27909,United States,(252) 338-1737,,,,,,
Kangaroo Express,,2765 Lee Hwy South ,,Troutville ,VA,24175,United States,(540) 992-5062,,,,,,
Kangaroo Express,,7107 Williamson Road ,,Roanoke ,VA,24019,United States,(540) 563-1693,,,,,,
Kangaroo Express,,3919 Electric Road ,,Roanoke ,VA,24018,United States,(540) 774-0955,,,,,,
Kangaroo Express,,5149 State Park Rd ,,Dublin ,VA,24084,United States,(540) 674-8015,,,,,,
Kangaroo Express,,1560 Virginia Ave ,,Martinsville ,VA,24112,United States,(276) 666-2818,,,,,,
Kangaroo Express,,140 E Stuart Dr ,,Hillsville ,VA,24343,United States,(276) 728-3964,,,,,,
Kangaroo Express,,2662 Old Galax Pike ,,Hillsville ,VA,24343,United States,(276) 728-5011,,,,,,
Kangaroo Express,,1643 Armory Drive ,,Franklin ,VA,23851,United States,(757) 562-2168,,,,,,
Kangaroo Express,,158 US 41 South ,,Sebree ,KY,42455,United States,(270) 835-2301,,,,,,
Kangaroo Express,,528 Main St ,,Corydon ,KY,42406,United States,(270) 533-6038,,,,,,
Kangaroo Express,,7050 Hanson Road ,,Hanson ,KY,42413,United States,(270) 322-8446,,,,,,
Kangaroo Express,,2336 S Green St ,,Henderson ,KY,42420,United States,(270) 826-0936,,,,,,
Kangaroo Express,,1308 Atkinson St ,,Henderson ,KY,42420,United States,(270) 827-8588,,,,,,
Kangaroo Express,,197 Garden Mile Rd ,,Henderson ,KY,42420,United States,(270) 827-0395,,,,,,
Kangaroo Express,,830 Main St ,,Calhoun ,KY,42327,United States,(270) 273-5403,,,,,,
Kangaroo Express,,1350 North Main & Chelsea ,,Madisonville ,KY,42431,United States,(270) 821-9262,,,,,,
Kangaroo Express,,2001 East Hwy 60 ,,Henderson ,KY,42420,United States,(270) 826-5363,,,,,,
Kangaroo Express,,234 State Route 109 North ,,Clay ,KY,42404,United States,(270) 664-6237,,,,,,
Kangaroo Express,,1034 N Main Street ,,Russellville ,KY,42276,United States,(270) 726-4158,,,,,,
Kangaroo Express,,407 Hopkinsville Rd ,,Russellville ,KY,42276,United States,(270) 726-2224,,,,,,
Kangaroo Express,,101 N John Prine Ave ,,Drakesboro ,KY,42337,United States,(270) 476-2866,,,,,,
Kangaroo Express,,2175 Russellville Rd ,,Hopkinsville ,KY,42240,United States,(270) 886-7414,,,,,,
Kangaroo Express,,1791 Wilma Rudolph Blvd ,,Clarksville ,TN,37040,United States,(931) 647-9738,,,,,,
Kangaroo Express,,1874 Memorial Dr ,,Clarksville ,TN,37043,United States,(931) 553-0631,,,,,,
Kangaroo Express,,601 Tiny Town Road ,,Clarksville ,TN,37042,United States,(931) 431-3013,,,,,,
Kangaroo Express,,1801 Madison Street ,,Clarksville ,TN,37043,United States,(931) 552-7528,,,,,,
Kangaroo Express,,932 North Main St ,,Hopkinsville ,KY,42240,United States,(270) 885-5231,,,,,,
Kangaroo Express,,3249 Lafayette Rd ,,Hopkinsville ,KY,42240,United States,(270) 885-8795,,,,,,
Kangaroo Express,,328 South Jefferson ,,Princeton ,KY,42445,United States,(270) 365-9827,,,,,,
Kangaroo Express,,700 N Jefferson ,,Princeton ,KY,42445,United States,(270) 365-3739,,,,,,
Kangaroo Express,,20 Charleston Rd ,,Dawson Springs ,KY,42408,United States,(270) 797-3456,,,,,,
Kangaroo Express,,Hwy US 41A & 62 ,,Nortonville ,KY,42442,United States,(270) 676-3226,,,,,,
Kangaroo Express,,422 East Center St ,,Madisonville ,KY,42431,United States,(270) 821-8142,,,,,,
Kangaroo Express,,5611 SR 54 ,,Philpot ,KY,42366,United States,(270) 729-4240,,,,,,
Kangaroo Express,,5625 State RT 144 ,,Owensboro ,KY,42303,United States,(270) 281-5828,,,,,,
Kangaroo Express,,1816 Triplett St ,,Owensboro ,KY,42303,United States,(270) 685-2341,,,,,,
Kangaroo Express,,409 Crabtree ,,Owensboro ,KY,42301,United States,(270) 685-5205,,,,,,
Kangaroo Express,,2737 W Parrish Ave ,,Owensboro ,KY,42301,United States,(270) 683-4391,,,,,,
Kangaroo Express,,611 W State Rd 62 ,,Boonville ,IN,47601,United States,(812) 897-0702,,,,,,
Kangaroo Express,,720 N 3rd St ,,Boonville ,IN,47601,United States,(812) 897-1644,,,,,,
Kangaroo Express,,6059 US Hwy 62 W ,,Graham ,KY,42344,United States,(270) 338-6640,,,,,,
Kangaroo Express,,93 East May St ,,Winder ,GA,30680,United States,(770) 307-4190,,,,,,
Kangaroo Express,,634 Christmas Ave ,,Bethlehem ,GA,30620,United States,(770) 867-6717,,,,,,
Kangaroo Express,,1334 Atlanta Hwy NW ,,Auburn ,GA,30011,United States,(770) 237-9800,,,,,,
Kangaroo Express,,615 East Spring St ,,Monroe ,GA,30655,United States,(770) 267-1158,,,,,,
Kangaroo Express,,990 Prince Ave ,,Athens ,GA,30606,United States,(706) 354-6886,,,,,,
Kangaroo Express,,1333 Lumpkin St ,,Athens ,GA,30605,United States,(706) 354-6733,,,,,,
Kangaroo Express,,1260 Candler Rd ,,Gainesville ,GA,30507,United States,(770) 718-3025,,,,,,
Kangaroo Express,,614 S Broad St ,,Commerce ,GA,30529,United States,(706) 335-4438,,,,,,
Kangaroo Express,,290 US Hwy 29 Ny ,,Athens ,GA,30601,United States,(706) 369-9984,,,,,,
Kangaroo Express,,937 Queen City Parkway ,,Gainesville ,GA,30501,United States,(770) 718-3003,,,,,,
Kangaroo Express,,5091 Highway 136 ,,Trenton ,GA,30752,United States,(706) 657-3241,,,,,,
Kangaroo Express,,190 South Main Street ,,Trenton ,GA,30752,United States,(706) 657-3818,,,,,,
Kangaroo Express,,2777 Chattanooga Valley Rd ,,Flintstone ,GA,30725,United States,(706) 820-9284,,,,,,
Kangaroo Express,,3743 Cummings Hwy ,,Chattanooga ,TN,37419,United States,(423) 825-7079,,,,,,
Kangaroo Express,,209 Lee Gordon Mill Rd ,,Chickamauga ,GA,30707,United States,(706) 375-2095,,,,,,
Kangaroo Express,,1897 Mcfarland Gap Ave ,,Rossville ,GA,30741,United States,(706) 866-4344,,,,,,
Kangaroo Express,,1001 Lafayette Road ,,Chickamauga ,GA,30707,United States,(706) 375-7421,,,,,,
Kangaroo Express,,234 Browns Ferry Rd ,,Chattanooga ,TN,37419,United States,(423) 825-0906,,,,,,
Kangaroo Express,,1200 South Cedar ,,South Pittsburg ,TN,37380,United States,(423) 837-8721,,,,,,
Kangaroo Express,,3729 Tennessee Ave ,,Chattanooga ,TN,37409,United States,(423) 756-4639,,,,,,
Kangaroo Express,,10317 Hwy 84 East ,,Thomasville ,GA,31757,United States,(229) 226-8970,,,,,,
Kangaroo Express,,1000 1st Ave SE ,,Moultrie ,GA,31768,United States,(229) 985-0084,,,,,,
Kangaroo Express,,301 US 19 South ,,Camilla ,GA,31730,United States,(229) 336-9984,,,,,,
Kangaroo Express,,3500 North Monroe St ,,Tallahassee ,FL,32303,United States,(850) 562-1159,,,,,,
Kangaroo Express,,102 S Blair Stone Road ,,Tallahassee ,FL,32301,United States,(850) 877-0787,,,,,,
Kangaroo Express,,1520 Jackson Bluff Road ,,Tallahassee ,FL,32304,United States,(850) 574-0138,,,,,,
Kangaroo Express,,3433 Crawfordville Rd ,,Tallahassee ,FL,32305,United States,(850) 656-6358,,,,,,
Kangaroo Express,,2011 E Shotwell St ,,Bainbridge ,GA,39819,United States,(229) 246-1922,,,,,,
Kangaroo Express,,1405 Tallahassee Hwy ,,Bainbridge ,GA,39819,United States,(229) 243-0555,,,,,,
Kangaroo Express,,9160 Woodville Hwy ,,Tallahassee ,FL,32305,United States,(850) 421-6889,,,,,,
Kangaroo Express,,4326 Highway 27 ,,Summerville ,GA,30747,United States,(706) 857-7940,,,,,,
Kangaroo Express,,10935 North Commerce St ,,Summerville ,GA,30747,United States,(706) 857-3509,,,,,,
Kangaroo Express,,11134 Hwy 27 ,,Summerville ,GA,30747,United States,(706) 857-3696,,,,,,
Kangaroo Express,,406 Lylerly Hwy ,,Summerville ,GA,30747,United States,(706) 857-4514,,,,,,
Kangaroo Express,,4350 Martha Berry Hwy ,,Rome ,GA,30165,United States,(706) 235-4015,,,,,,
Kangaroo Express,,2401 Garden Lakes Blvd ,,Rome ,GA,30165,United States,(706) 802-0474,,,,,,
Kangaroo Express,,4818 Alabama Hwy ,,Rome ,GA,30165,United States,(706) 235-4585,,,,,,
Kangaroo Express,,2221 Shorter Avenue ,,Rome ,GA,30165,United States,(706) 235-1349,,,,,,
Kangaroo Express,,400 West Main Street ,,La Fayette ,GA,30728,United States,(706) 638-2822,,,,,,
Kangaroo Express,,500 Burnett Ferry Rd ,,Rome ,GA,30165,United States,(706) 235-6822,,,,,,
Kangaroo Express,,181 Fairview Rd ,,Stockbridge ,GA,30281,United States,(770) 389-0933,,,,,,
Kangaroo Express,,2992 Hwy 155 ,,Stockbridge ,GA,30281,United States,(770) 389-1791,,,,,,
Kangaroo Express,,1080 Jodeco Rd ,,Stockbridge ,GA,30281,United States,(770) 389-1611,,,,,,
Kangaroo Express,,3148 Jodeco Rd ,,McDonough ,GA,30253,United States,(770) 898-9926,,,,,,
Kangaroo Express,,4315 Jodeco Rd ,,McDonough ,GA,30253,United States,(678) 432-8822,,,,,,
Kangaroo Express,,610 Macon St ,,McDonough ,GA,30253,United States,(770) 957-6579,,,,,,
Kangaroo Express,,978 Hwy 155 South ,,McDonough ,GA,30253,United States,(770) 957-9421,,,,,,
Kangaroo Express,,32 East Main Street South ,,Hampton ,GA,30228,United States,(770) 946-4779,,,,,,
Kangaroo Express,,5080 Bill Gardner Pky ,,Locust Grove ,GA,30248,United States,(770) 914-1380,,,,,,
Kangaroo Express,,3420 Jackson Rd ,,Griffin ,GA,30223,United States,(770) 412-8214,,,,,,
Kangaroo Express,,2691 Orange Blossom Tr ,,Zellwood ,FL,32798,United States,(407) 889-0054,,,,,,
Kangaroo Express,,933 Highway 448 ,,Tavares ,FL,32778,United States,(352) 742-3066,,,,,,
Kangaroo Express,,4914 Rock Springs Road ,,Apopka ,FL,32712,United States,,,,,,,
Kangaroo Express,,23932 State Road 46 ,,Sorrento ,FL,32776,United States,(352) 383-5505,,,,,,
Kangaroo Express,,808 S Park Avenue ,,Apopka ,FL,32703,United States,(407) 889-2187,,,,,,
Kangaroo Express,,25615 SR 46 ,,Sorrento ,FL,32776,United States,(352) 383-0810,,,,,,
Kangaroo Express,,347 N Thompson Road ,,Apopka ,FL,32703,United States,(407) 889-9158,,,,,,
Kangaroo Express,,1252 S Apopka Blvd ,,Apopka ,FL,32703,United States,(407) 886-6153,,,,,,
Kangaroo Express,,1500 N Wekiwa Springs Rd ,,Apopka ,FL,32712,United States,(407) 884-0965,,,,,,
Kangaroo Express,,19516 E SR 44 ,,Eustis ,FL,32736,United States,(352) 589-9190,,,,,,
Kangaroo Express,,850378 US Hwy 17 ,,Yulee ,FL,32097,United States,(904) 225-5997,,,,,,
Kangaroo Express,,941268 Old Nassauville Rd ,,Fernandina Beach ,FL,32034,United States,(904) 277-2837,,,,,,
Kangaroo Express,,13957 Main St N ,,Jacksonville ,FL,32218,United States,(904) 757-3774,,,,,,
Kangaroo Express,,14641 Duval Road ,,Jacksonville ,FL,32218,United States,(904) 741-6018,,,,,,
Kangaroo Express,,1403 Lewis Street ,,Fernandina Beach ,FL,32034,United States,(904) 261-6147,,,,,,
Kangaroo Express,,2733 Starrett Rd ,,Jacksonville ,FL,32226,United States,(904) 757-3340,,,,,,
Kangaroo Express,,2511 New Berlin Rd ,,Jacksonville ,FL,32226,United States,(904) 751-2851,,,,,,
Kangaroo Express,,3331 S Fletcher Ave ,,Fernandina Beach ,FL,32034,United States,(904) 261-5367,,,,,,
Kangaroo Express,,12405 N Main St ,,Jacksonville ,FL,32218,United States,(904) 757-3072,,,,,,
Kangaroo Express,,11869 Pulaski Road ,,Jacksonville ,FL,32218,United States,(904) 757-9455,,,,,,
Kangaroo Express,,5700 Red Bug Lake Road ,,Winter Springs ,FL,32708,United States,(407) 699-1088,,,,,,
Kangaroo Express,,20 E Mitchell Hammock Rd ,,Oviedo ,FL,32765,United States,(407) 366-0700,,,,,,
Kangaroo Express,,1000 Lockwood Blvd ,,Oviedo ,FL,32765,United States,(407) 365-2601,,,,,,
Kangaroo Express,,2095 County RD 427 N ,,Longwood ,FL,32750,United States,(407) 830-9737,,,,,,
Kangaroo Express,,808 Chickasaw Trail N ,,Orlando ,FL,32825,United States,(407) 823-7778,,,,,,
Kangaroo Express,,12390 E Colonial Dr ,,Orlando ,FL,32828,United States,(407) 823-7833,,,,,,
Kangaroo Express,,10001 Lake Underhill Dr ,,Orlando ,FL,32825,United States,(407) 384-6488,,,,,,
Kangaroo Express,,551 W Hwy 436 ,,Altamonte Springs ,FL,32714,United States,(407) 862-1311,,,,,,
Kangaroo Express,,14902 E Colonial Dr ,,Orlando ,FL,32826,United States,(407) 273-6379,,,,,,
Kangaroo Express,,690 W Airport Blvd ,,Sanford ,FL,32773,United States,(407) 328-7111,,,,,,
Kangaroo Express,,128 N Main Street ,,Emporia ,VA,23847,United States,(434) 348-0129,,,,,,
Kangaroo Express,,7545 NC 48 ,,Battleboro ,NC,27809,United States,(252) 442-7787,,,,,,
Kangaroo Express,,5102 Dortches Blvd ,,Rocky Mount ,NC,27804,United States,(252) 443-1885,,,,,,
Kangaroo Express,,367 W Washington Street ,,Nashville ,NC,27856,United States,(252) 459-8838,,,,,,
Kangaroo Express,,1830 N Wesleyan Blvd ,,Rocky Mount ,NC,27804,United States,(252) 977-0967,,,,,,
Kangaroo Express,,349 E Noble Ave ,,Williston ,FL,32696,United States,,,,,,,
Kangaroo Express,,553 N Main St ,,Williston ,FL,32696,United States,(352) 528-4477,,,,,,
Kangaroo Express,,12771 SW State Rd 45 ,,Archer ,FL,32618,United States,(352) 495-2630,,,,,,
Kangaroo Express,,17030 SE CR 234 ,,Micanopy ,FL,32667,United States,(352) 466-0731,,,,,,
Kangaroo Express,,17025 SE CR 234 ,,Micanopy ,FL,32667,United States,(352) 466-3638,,,,,,
Kangaroo Express,,392 N Hathaway Ave ,,Bronson ,FL,32621,United States,(352) 486-2844,,,,,,
Kangaroo Express,,101 NW US 441 ,,Micanopy ,FL,32667,United States,(352) 466-3444,,,,,,
Kangaroo Express,,17980 N US Hwy 441 ,,Reddick ,FL,32686,United States,(352) 591-2863,,,,,,
Kangaroo Express,,7302 SW Archer Rd ,,Gainesville ,FL,32608,United States,(352) 376-9021,,,,,,
Kangaroo Express,,3509 Williston Road SW ,,Gainesville ,FL,32608,United States,(352) 372-3348,,,,,,
Kangaroo Express,,700 3rd Avenue ,,Welaka ,FL,32193,United States,(386) 467-3165,,,,,,
Kangaroo Express,,1777 Highway 17S ,,Pomona Park ,FL,32181,United States,(386) 649-0870,,,,,,
Kangaroo Express,,1171 Highway 17S ,,Satsuma ,FL,32189,United States,(386) 649-0871,,,,,,
Kangaroo Express,,1140 CR 309 ,,Crescent City ,FL,32112,United States,(386) 467-3265,,,,,,
Kangaroo Express,,744 S Hwy 17 ,,Satsuma ,FL,32189,United States,(386) 328-3725,,,,,,
Kangaroo Express,,720 S State Road 19 ,,,,,United States,(386) 328-7795,,,,,,
Kangaroo Express,,1205 S State Road 19 ,,Palatka ,FL,32177,United States,(386) 328-1056,,,,,,
Kangaroo Express,,519 N Summit Street ,,Crescent City ,FL,32112,United States,(386) 698-2841,,,,,,
Kangaroo Express,,543 South Hwy 17 ,,San Mateo ,FL,32187,United States,(386) 328-0380,,,,,,
Kangaroo Express,,551 S Summit Street ,,Crescent City ,FL,32112,United States,(386) 698-2830,,,,,,
Kangaroo Express,,13873 SE Highway 42 ,,Weirsdale ,FL,32195,United States,(352) 821-4520,,,,,,
Kangaroo Express,,10143 SE Sunset Harbor Rd ,,Summerfield ,FL,34491,United States,(352) 288-6745,,,,,,
Kangaroo Express,,401 US Hwy 441 ,,Lady Lake ,FL,32159,United States,(352) 753-4367,,,,,,
Kangaroo Express,,14870 S US Highway 441 ,,Summerfield ,FL,34491,United States,(352) 307-0986,,,,,,
Kangaroo Express,,7590 E Hwy 25 ,,Belleview ,FL,34420,United States,(352) 245-7711,,,,,,
Kangaroo Express,,100 West Miller Street ,,Fruitland Park ,FL,34731,United States,(352) 787-1333,,,,,,
Kangaroo Express,,9985 N US 301 ,,Wildwood ,FL,34785,United States,(352) 748-5886,,,,,,
Kangaroo Express,,5198 SE Abshier Blvd ,,Belleview ,FL,34420,United States,(352) 245-7847,,,,,,
Kangaroo Express,,7609 US HWY 441 ,,Leesburg ,FL,34788,United States,(352) 787-6899,,,,,,
Kangaroo Express,,6820 Maricamp Road ,,Ocala ,FL,34472,United States,(352) 680-0451,,,,,,
Kangaroo Express,,391 N Central Avenue ,,Umatilla ,FL,32784,United States,,,,,,,
Kangaroo Express,,42404 State Road 19 ,,Altoona ,FL,32702,United States,(352) 669-3233,,,,,,
Kangaroo Express,,2754 E SR 44 ,,Eustis ,FL,32726,United States,(352) 589-6776,,,,,,
Kangaroo Express,,24425 SR 44 ,,Eustis ,FL,32736,United States,(352) 483-0768,,,,,,
Kangaroo Express,,10030 CR 44 ,,Leesburg ,FL,34788,United States,(352) 787-0775,,,,,,
Kangaroo Express,,2101 SR 19 ,,Tavares ,FL,32778,United States,(352) 343-3369,,,,,,
Kangaroo Express,,705 N Main St ,,Trenton ,FL,32693,United States,(352) 463-1709,,,,,,
Kangaroo Express,,45 SW 250th St ,,Newberry ,FL,32669,United States,(352) 472-2661,,,,,,
Kangaroo Express,,14300 W Newberry Rd ,,Newberry ,FL,32669,United States,(352) 332-7497,,,,,,
Kangaroo Express,,14225 W Newberry Rd ,,Newberry ,FL,32669,United States,(352) 332-3442,,,,,,
Kangaroo Express,,1500 Singleton Ave N ,,Titusville ,FL,32796,United States,(321) 269-1533,,,,,,
Kangaroo Express,,4790 N US1 ,,Mims ,FL,32754,United States,(321) 267-8291,,,,,,
Kangaroo Express,,3164 Main St W ,,Mims ,FL,32754,United States,(321) 268-0092,,,,,,
Kangaroo Express,,2498 Turpentine Rd ,,Mims ,FL,32754,United States,(321) 267-9788,,,,,,
Kangaroo Express,,6004 US Highway 1 ,,Mims ,FL,32754,United States,(321) 268-2159,,,,,,
Kangaroo Express,,7175 Hwy 1 N ,,Cocoa ,FL,32927,United States,(321) 632-8577,,,,,,
Kangaroo Express,,4775 1 Fay Blvd ,,Cocoa ,FL,32927,United States,(321) 635-9088,,,,,,
Kangaroo Express,,410 NW Santa Fe Blvd ,,High Springs ,FL,32643,United States,,,,,,,
Kangaroo Express,,16130 NW US Hwy 441 # 10 ,,Alachua ,FL,32615,United States,(386) 462-3773,,,,,,
Kangaroo Express,,16070 NW US Hwy 441 ,,Alachua ,FL,32615,United States,(386) 462-2556,,,,,,
Kangaroo Express,,15089 NW US Highway 441 ,,Alachua ,FL,32615,United States,(386) 462-1264,,,,,,
Kangaroo Express,,6155 N Courtenay ,,Merritt Island ,FL,32953,United States,(321) 453-0114,,,,,,
Kangaroo Express,,18359 E Colonial Dr ,,Orlando ,FL,32820,United States,(407) 568-0509,,,,,,
Kangaroo Express,,135 E SR 46 ,,Geneva ,FL,32732,United States,(407) 349-5769,,,,,,
Kangaroo Express,,14611 Bruce B Downs Blvd ,,Tampa ,FL,33613,United States,(813) 979-1980,,,,,,
Kangaroo Express,,6005 Big Bend Rd ,,Gibsonton ,FL,33534,United States,(813) 677-4215,,,,,,
Kangaroo Express,,3514 Grand Blvd ,,New Port Richey ,FL,34652,United States,(727) 849-0425,,,,,,
Kangaroo Express,,6618 Embassy Blvd ,,Port Richey ,FL,34668,United States,(727) 845-4542,,,,,,
Kangaroo Express,,13705 US Hwy 19 ,,Hudson ,FL,34667,United States,(727) 869-3350,,,,,,
Kangaroo Express,,15434 Hwy 19 N ,,Hudson ,FL,34667,United States,(727) 863-8934,,,,,,
Kangaroo Express,,13075 Springhill Drive ,,Spring Hill ,FL,34609,United States,(352) 683-4204,,,,,,
Kangaroo Express,,999 North Broad Street ,,Brooksville ,FL,34601,United States,(352) 799-7467,,,,,,
Kangaroo Express,,451 W Myers ,,Mascotte ,FL,34753,United States,(352) 429-3922,,,,,,
Kangaroo Express,,6241 W Cardinal St ,,Homosassa ,FL,34446,United States,(352) 628-2321,,,,,,
Kangaroo Express,,901 N Main And Factory ,,Winslow ,IN,47598,United States,(812) 789-5444,,,,,,
Kangaroo Express,,2039 E Main St ,,Petersburg ,IN,47567,United States,(812) 354-3838,,,,,,
Kangaroo Express,,5817 Stringtown Rd ,,Evansville ,IN,47711,United States,(812) 426-0314,,,,,,
Kangaroo Express,,325 S Kentucky Ave ,,Evansville ,IN,47714,United States,(812) 424-0466,,,,,,
Kangaroo Express,,960 S Weinbach Ave ,,Evansville ,IN,47714,United States,(812) 479-6491,,,,,,
Kangaroo Express,,2400 E Riverside Dr ,,Evansville ,IN,47714,United States,(812) 477-6352,,,,,,
Kangaroo Express,,1650 S Kentucky Ave ,,Evansville ,IN,47714,United States,(812) 423-2492,,,,,,
Kangaroo Express,,300 Watson Lane ,,Henderson ,KY,42420,United States,(270) 826-5374,,,,,,
Kangaroo Express,,979 Woodville Hwy ,,Crawfordville ,FL,32327,United States,(850) 421-1406,,,,,,
Kangaroo Express,,1134 W Jefferson Street ,,Quincy ,FL,32351,United States,(850) 627-9122,,,,,,
Kangaroo Express,,3180 Coastal Hwy ,,Crawfordville ,FL,32327,United States,(850) 926-8845,,,,,,
Kangaroo Express,,861 East SR 44 ,,Wildwood ,FL,34785,United States,(352) 748-2665,,,,,,
Kangaroo Express,,743 Highway 41 South ,,Inverness ,FL,34450,United States,(352) 344-3967,,,,,,
Kangaroo Express,,4899 E Irlo Bronson Memor ,,St Cloud ,FL,34771,United States,(407) 892-5444,,,,,,
Kangaroo Express,,4301 13th Street ,,St Cloud ,FL,34769,United States,(407) 957-3883,,,,,,
Kangaroo Express,,1297 Simpson Rd ,,Kissimmee ,FL,34744,United States,(407) 348-6649,,,,,,
Kangaroo Express,,101 Buenaventura Blvd ,,Kissimmee ,FL,34743,United States,(407) 348-3566,,,,,,
Kangaroo Express,,1400 Osceola Parkway ,,Kissimmee ,FL,34744,United States,(407) 846-4473,,,,,,
Kangaroo Express,,1700 N Thacker Avenue ,,Kissimmee ,FL,34741,United States,(407) 933-8339,,,,,,
Kangaroo Express,,3302 W Columbia ,,Kissimmee ,FL,34741,United States,(407) 870-0550,,,,,,
Kangaroo Express,,11205 S Org Blossom Tr ,,Orlando ,FL,32837,United States,(407) 851-5293,,,,,,
Kangaroo Express,,9988 S Orange Ave ,,Orlando ,FL,32824,United States,(407) 857-5720,,,,,,
Kangaroo Express,,5051 Gateway Ave ,,Orlando ,FL,32821,United States,,,,,,,
Kangaroo Express,,23039 NW SR 16 ,,Starke ,FL,32091,United States,(904) 964-8300,,,,,,
Kangaroo Express,,312 W Brownlee ,,Starke ,FL,32091,United States,(904) 964-5200,,,,,,
Kangaroo Express,,2158 N Temple Avenue ,,Starke ,FL,32091,United States,(904) 964-4715,,,,,,
Kangaroo Express,,1701 S Water Street ,,Starke ,FL,32091,United States,(904) 964-5538,,,,,,
Kangaroo Express,,19499 NW SR 16 ,,Starke ,FL,32091,United States,(904) 964-8542,,,,,,
Kangaroo Express,,13138 NE STATE ROAD 121 ,,Raiford ,FL,32083,United States,(386) 431-1645,,,,,,
Kangaroo Express,,585 SW 6th Street ,,Lake Butler ,FL,32054,United States,(386) 496-2467,,,,,,
Kangaroo Express,,5105 CR 218 ,,Middleburg ,FL,32068,United States,(904) 291-2290,,,,,,
Kangaroo Express,,4486 CR 218 W ,,Middleburg ,FL,32068,United States,(904) 282-7696,,,,,,
Kangaroo Express,,3128 Blanding Blvd ,,Middleburg ,FL,32068,United States,(904) 282-7420,,,,,,
Kangaroo Express,,2800 US 1 S ,,St Augustine ,FL,32086,United States,(904) 797-3887,,,,,,
Kangaroo Express,,1115 A1A Beach Blvd ,,St Augustine ,FL,32080,United States,(904) 461-1715,,,,,,
Kangaroo Express,,6929 A1A South ,,St Augustine ,FL,32080,United States,(904) 471-6312,,,,,,
Kangaroo Express,,6750 US1 South ,,St Augustine ,FL,32086,United States,(904) 797-8764,,,,,,
Kangaroo Express,,2525 SR 207 ,,St Augustine ,FL,32086,United States,(904) 824-2931,,,,,,
Kangaroo Express,,1710 SR 207 ,,St Augustine ,FL,32086,United States,(904) 824-7263,,,,,,
Kangaroo Express,,2919 Coastal Hwy ,,St Augustine ,FL,32084,United States,(904) 826-3351,,,,,,
Kangaroo Express,,2330 State Road 16 ,,St Augustine ,FL,32084,United States,(904) 824-0878,,,,,,
Kangaroo Express,,4205 US 1 S ,,St Augustine ,FL,32095,United States,(904) 797-2465,,,,,,
Kangaroo Express,,351 A1A Beach Blvd ,,St Augustine ,FL,32080,United States,(904) 471-2565,,,,,,
Kangaroo Express,,715 State Road 207 ,,St Augustine ,FL,32086,United States,(904) 810-7068,,,,,,
Kangaroo Express,,465 State Road 16 ,,St Augustine ,FL,32084,United States,(904) 824-7094,,,,,,
Kangaroo Express,,4540 US 1 N ,,St Augustine ,FL,32095,United States,(904) 829-0074,,,,,,
Kangaroo Express,,800 S Ponce Deleon Blvd ,,St Augustine ,FL,32084,United States,(904) 824-7701,,,,,,
Kangaroo Express,,8880 A1A South ,,St Augustine ,FL,32080,United States,(904) 471-6501,,,,,,
Kangaroo Express,,123 King St ,,St Augustine ,FL,32084,United States,(904) 824-5149,,,,,,
Kangaroo Express,,4301 A1A South ,,St Augustine ,FL,32080,United States,(904) 471-0943,,,,,,
Kangaroo Express,,511 Anastasia Blvd ,,St Augustine ,FL,32080,United States,(904) 824-6629,,,,,,
Kangaroo Express,,70 Masters Drive ,,St Augustine ,FL,32084,United States,(904) 824-9744,,,,,,
Kangaroo Express,,601 Beville Road ,,South Daytona ,FL,32119,United States,(386) 767-0652,,,,,,
Kangaroo Express,,1379 Beville Rd ,,Daytona Beach ,FL,32119,United States,(386) 767-4968,,,,,,
Kangaroo Express,,201 N Main ,,Daytona Beach ,FL,32118,United States,(386) 252-9867,,,,,,
Kangaroo Express,,4622 S Clyde Morris Blvd ,,Port Orange ,FL,32129,United States,(386) 756-4351,,,,,,
Kangaroo Express,,431 N Atlantic Ave ,,Daytona Beach ,FL,32118,United States,(386) 258-5025,,,,,,
Kangaroo Express,,2625 Beville Rd ,,Daytona Beach ,FL,32119,United States,(386) 756-0250,,,,,,
Kangaroo Express,,799 Bill France Drive ,,Daytona Beach ,FL,32114,United States,(386) 274-4343,,,,,,
Kangaroo Express,,4036 S Nova Rd ,,Port Orange ,FL,32127,United States,(386) 788-1594,,,,,,
Kangaroo Express,,1591 Dunlawton Ave ,,Port Orange ,FL,32129,United States,(386) 761-4611,,,,,,
Kangaroo Express,,5886 S Ridgewood Ave ,,Port Orange ,FL,32127,United States,(386) 788-3967,,,,,,
Kangaroo Express,,1695 N US 17 ,,Seville ,FL,32190,United States,(386) 749-0238,,,,,,
Kangaroo Express,,239 N Center Street ,,Pierson ,FL,32180,United States,(386) 749-0153,,,,,,
Kangaroo Express,,1717 S US Highway 17 ,,Pierson ,FL,32130,United States,(386) 749-2927,,,,,,
Kangaroo Express,,1380 W SR 40 ,,Pierson ,FL,32180,United States,(386) 749-4487,,,,,,
Kangaroo Express,,24421 SR 40/Box 336 ,,Astor ,FL,32102,United States,(352) 759-2633,,,,,,
Kangaroo Express,,2803 Silver Lake Drive ,,Palatka ,FL,32177,United States,(386) 328-2583,,,,,,
Kangaroo Express,,3300 Crill Avenue ,,Palatka ,FL,32177,United States,(386) 325-3769,,,,,,
Kangaroo Express,,624 S State Road 19 N ,,Palatka ,FL,32177,United States,(386) 325-5872,,,,,,
Kangaroo Express,,7450 Crill Avenue ,,Palatka ,FL,32177,United States,,,,,,,
Kangaroo Express,,255 Ocean Blvd ,,Satellite Beach ,FL,32937,United States,(321) 777-2697,,,,,,
Kangaroo Express,,3088 Harbor City Blvd N ,,Melbourne ,FL,32935,United States,(321) 253-0191,,,,,,
Kangaroo Express,,4001 N Wickham Rd ,,Melbourne ,FL,32935,United States,(321) 259-0172,,,,,,
Kangaroo Express,,2455 N Wickham Rd ,,Melbourne ,FL,32935,United States,(321) 254-6648,,,,,,
Kangaroo Express,,7290 George T Edward Dr ,,Melbourne ,FL,32940,United States,(321) 255-9796,,,,,,
Kangaroo Express,,150 Newfound Harbor Dr ,,Merritt Island ,FL,32952,United States,(321) 452-2340,,,,,,
Kangaroo Express,,2200 S Fiske Boulevard ,,Rockledge ,FL,32955,United States,(321) 633-7383,,,,,,
Kangaroo Express,,748 Palm Bay Rd Ne ,,Palm Bay ,FL,32907,United States,(321) 728-2440,,,,,,
Kangaroo Express,,1060 Emerson DR NE ,,Palm Bay ,FL,32907,United States,(321) 725-6940,,,,,,
Kangaroo Express,,5881 Babcock ST NE ,,Palm Bay ,FL,32907,United States,(321) 676-5168,,,,,,
Kangaroo Express,,5690 West SR 46 ,,Sanford ,FL,32771,United States,(407) 322-5003,,,,,,
Kangaroo Express,,4140 E SR46 ,,Sanford ,FL,32771,United States,(407) 322-1479,,,,,,
Kangaroo Express,,7499 SR 427 ,,Sanford ,FL,32773,United States,(407) 321-2809,,,,,,
Kangaroo Express,,303 E 25th Street ,,Sanford ,FL,32771,United States,(407) 322-0601,,,,,,
Kangaroo Express,,4181 Orange Blvd ,,Sanford ,FL,32771,United States,(407) 324-0912,,,,,,
Kangaroo Express,,1920 S French Avenue ,,Sanford ,FL,32771,United States,(407) 321-0642,,,,,,
Kangaroo Express,,312 Dirksen Drive ,,Debary ,FL,32713,United States,(386) 668-9216,,,,,,
Kangaroo Express,,400 Welcome Center Dr ,,Deltona ,FL,32725,United States,(386) 574-7540,,,,,,
Kangaroo Express,,3990 Lake Drive ,,Cocoa ,FL,32926,United States,(321) 631-1174,,,,,,
Kangaroo Express,,241 S Highway 17 ,,East Palatka ,FL,32131,United States,(386) 328-8208,,,,,,
Kangaroo Express,,624 N State Road 19 ,,Palatka ,FL,32177,United States,(386) 328-3201,,,,,,
Kangaroo Express,,12475 NW Gainesville Rd ,,Reddick ,FL,32686,United States,(352) 732-0979,,,,,,
Kangaroo Express,,12995 N US Hwy 441 ,,Citra ,FL,32113,United States,(352) 368-2910,,,,,,
Kangaroo Express,,13002 NE Jacksonville Rd ,,Citra ,FL,32113,United States,(352) 629-1805,,,,,,
Kangaroo Express,,4150 W Hwy 326 ,,Ocala ,FL,34482,United States,(352) 401-9700,,,,,,
Kangaroo Express,,7676 N US Hwy 441 ,,Ocala ,FL,34475,United States,(352) 629-7390,,,,,,
Kangaroo Express,,6961 N US Hwy 441 ,,Ocala ,FL,34475,United States,(352) 368-1911,,,,,,
Kangaroo Express,,2 East Washington St ,,Chattahoochee ,FL,32324,United States,(850) 663-2242,,,,,,
Kangaroo Express,,1800 Dothan Road ,,Bainbridge ,GA,39817,United States,(229) 243-0300,,,,,,
Kangaroo Express,,401 US 27 North ,,Bainbridge ,GA,39817,United States,(229) 246-2097,,,,,,
Kangaroo Express,,2275 S Sun Coast Blvd ,,Homosassa ,FL,34448,United States,(352) 628-1446,,,,,,
Kangaroo Express,,16991 East Highway 40 ,,Silver Springs ,FL,34488,United States,(352) 625-1431,,,,,,
Kangaroo Express,,15877 E Hwy 40 ,,Silver Springs ,FL,34488,United States,(352) 625-2854,,,,,,
Kangaroo Express,,1940 SE 58th Avenue ,,Ocala ,FL,34480,United States,(352) 624-0210,,,,,,
Kangaroo Express,,225 NE 28th Ave ,,Ocala ,FL,34470,United States,(352) 694-5476,,,,,,
Kangaroo Express,,14780 NE Hwy 315 ,,Ft. McCoy ,FL,32134,United States,(352) 236-5400,,,,,,
Kangaroo Express,,5201 S Pine Avenue ,,Ocala ,FL,34480,United States,(352) 629-8606,,,,,,
Kangaroo Express,,5160 S Pine Avenue ,,Ocala ,FL,34480,United States,(352) 732-4999,,,,,,
Kangaroo Express,,2495 Tomoka Farms Rd ,,Port Orange ,FL,32128,United States,(386) 761-1479,,,,,,
Kangaroo Express,,2600 N Dixie Freeway ,,New Smyrna Beach ,FL,32168,United States,(386) 427-3210,,,,,,
Kangaroo Express,,158 A1A N ,,Ponte Vedra Beach ,FL,32082,United States,(904) 285-3654,,,,,,
Kangaroo Express,,2517 South 3rd Street ,,Jacksonville Beach ,FL,32250,United States,(904) 249-0311,,,,,,
Kangaroo Express,,1310 S 3rd St ,,Jacksonville Beach ,FL,32250,United States,(904) 241-4804,,,,,,
Kangaroo Express,,300 Beach Blvd ,,Jacksonville Beach ,FL,32250,United States,(904) 249-5910,,,,,,
Kangaroo Express,,4815 San Pablo Rd ,,Jacksonville ,FL,32224,United States,(904) 223-0225,,,,,,
Kangaroo Express,,1031 Beach Blvd ,,Jacksonville Beach ,FL,32250,United States,(904) 241-1223,,,,,,
Kangaroo Express,,1403 N 3rd Street ,,Jacksonville Beach ,FL,32250,United States,(904) 249-4027,,,,,,
Kangaroo Express,,1601 Penman Road ,,Jacksonville Beach ,FL,32250,United States,(904) 246-9264,,,,,,
Kangaroo Express,,14376 Beach Blvd ,,Jacksonville ,FL,32250,United States,(904) 223-3898,,,,,,
Kangaroo Express,,13697 Beach Blvd ,,Jacksonville ,FL,32224,United States,(904) 821-8533,,,,,,
Kangaroo Express,,3225 West Nine Mile Rd ,,Pensacola ,FL,32534,United States,(850) 471-9132,,,,,,
Kangaroo Express,,4123 Mobile Hwy ,,Pensacola ,FL,32506,United States,(850) 457-0148,,,,,,
Kangaroo Express,,7950 Pensacola Blvd ,,Pensacola ,FL,32534,United States,(850) 471-9854,,,,,,
Kangaroo Express,,8981 Hwy 87 South ,,Milton ,FL,32570,United States,(850) 983-8345,,,,,,
Kangaroo Express,,22164 US Hwy 98 ,,Foley ,AL,36535,United States,(251) 971-2225,,,,,,
Kangaroo Express,,4574 Orange Beach Blvd ,,Orange Beach ,AL,36561,United States,(251) 981-1433,,,,,,
Kangaroo Express,,3215 South Hickory St ,,Loxley ,AL,36551,United States,(251) 964-5600,,,,,,
Kangaroo Express,,2021 Gulf Shores Pkwy ,,Gulf Shores ,AL,36542,United States,(251) 968-7781,,,,,,
Kangaroo Express,,745 Sidney E Manning Blvd ,,Flomaton ,AL,36441,United States,(251) 296-2317,,,,,,
Kangaroo Express,,35100 Hwy 59 ,,Stapleton ,AL,36578,United States,(251) 580-5283,,,,,,
Kangaroo Express,,4402 West Highway 98 ,,Panama City ,FL,32401,United States,(850) 522-1504,,,,,,
Kangaroo Express,,34920 Emerald Coast Pkwy ,,Destin ,FL,32541,United States,(850) 269-0480,,,,,,
Kangaroo Express,,4563 Hwy 20 East ,,Niceville ,FL,32578,United States,(850) 897-6800,,,,,,
Kangaroo Express,,302 Ross Clark Circle ,,Dothan ,AL,36303,United States,(334) 792-3368,,,,,,
Kangaroo Express,,4196 Ross Clark Circle ,,Dothan ,AL,36303,United States,(334) 678-8699,,,,,,
Kangaroo Express,,2357 Reeves Street ,,Dothan ,AL,36303,United States,(334) 712-4355,,,,,,
Kangaroo Express,,4970 Montgomery Hwy ,,Dothan ,AL,36303,United States,(334) 677-8211,,,,,,
Kangaroo Express,,1315 Park Ave ,,Enterprise ,AL,36330,United States,(334) 347-0776,,,,,,
Kangaroo Express,,5484 N Oceanshore Blvd ,,Palm Coast ,FL,32137,United States,(386) 446-3476,,,,,,
Kangaroo Express,,890 Palm Coast Pkwy SW ,,Palm Coast ,FL,32137,United States,(386) 446-8900,,,,,,
Kangaroo Express,,191 Cypress Point Pky ,,Palm Coast ,FL,32164,United States,(386) 446-1806,,,,,,
Kangaroo Express,,3 Kingswood Dr ,,Palm Coast ,FL,32137,United States,(386) 445-6950,,,,,,
Kangaroo Express,,1201 Palm Harbor Pkwy ,,Palm Coast ,FL,32137,United States,(386) 446-3013,,,,,,
Kangaroo Express,,1500 Palm Coast Pkwy NW ,,Palm Coast ,FL,32137,United States,(386) 445-6203,,,,,,
Kangaroo Express,,500 E Moody Street ,,Bunnell ,FL,32110,United States,(386) 437-4818,,,,,,
Kangaroo Express,,6125 E Highway 100 ,,Flagler Beach ,FL,32136,United States,(386) 439-2590,,,,,,
Kangaroo Express,,6375 Minton Road NE ,,Palm Bay ,FL,32907,United States,(321) 768-8063,,,,,,
Kangaroo Express,,900 Malabar Road SW ,,Palm Bay ,FL,32907,United States,(321) 984-0887,,,,,,
Kangaroo Express,,2595 Emerson Drive ,,Palm Bay ,FL,32909,United States,(321) 768-0415,,,,,,
Kangaroo Express,,643 N Highway 17 ,,Palatka ,FL,32177,United States,(386) 325-4290,,,,,,
Kangaroo Express,,320 N SR 415 ,,Osteen ,FL,32764,United States,(407) 322-9934,,,,,,
Kangaroo Express,,1380 Howland Blvd ,,Deltona ,FL,32738,United States,(407) 330-3716,,,,,,
Kangaroo Express,,1712 Doyle Road ,,Deltona ,FL,32738,United States,(386) 574-7312,,,,,,
Kangaroo Express,,2798 Elkcam Blvd ,,Deltona ,FL,32738,United States,(386) 789-4461,,,,,,
Kangaroo Express,,2910 Howland Blvd ,,Deltona ,FL,32725,United States,(386) 789-0211,,,,,,
Kangaroo Express,,1520 W STATE RD 40 ,,Ormond Beach ,FL,32174,United States,(386) 672-1686,,,,,,
Kangaroo Express,,1058 N US 1 ,,Ormond Beach ,FL,32174,United States,(386) 676-7845,,,,,,
Kangaroo Express,,2460 Ocean Shore Blvd ,,Ormond Beach ,FL,32176,United States,(386) 441-7109,,,,,,
Kangaroo Express,,1520 N US 1 ,,Ormond Beach ,FL,32174,United States,(386) 676-0731,,,,,,
Kangaroo Express,,1150 Ocean Shore Blvd ,,Ormond Beach ,FL,32176,United States,(386) 441-2241,,,,,,
Kangaroo Express,,804 Blanding Blvd ,,Orange Park ,FL,32065,United States,(904) 276-3767,,,,,,
Kangaroo Express,,338 College Dr ,,Orange Park ,FL,32065,United States,(904) 276-2132,,,,,,
Kangaroo Express,,1890 Kingsley Ave ,,Orange Park ,FL,32073,United States,(904) 272-6576,,,,,,
Kangaroo Express,,1091 Blanding Blvd ,,Orange Park ,FL,32065,United States,(904) 272-2547,,,,,,
Kangaroo Express,,1690 Wells Rd ,,Orange Park ,FL,32073,United States,(904) 264-0597,,,,,,
Kangaroo Express,,4305 Highway 17 ,,Orange Park ,FL,32003,United States,(904) 269-5354,,,,,,
Kangaroo Express,,6935 Hwy 17 ,,Fleming Island ,FL,32003,United States,(904) 284-1602,,,,,,
Kangaroo Express,,8496 Blanding Blvd ,,Jacksonville ,FL,32244,United States,(904) 771-2515,,,,,,
Kangaroo Express,,6621 Argyle Forest Blvd ,,Jacksonville ,FL,32244,United States,(904) 777-3590,,,,,,
Kangaroo Express,,7911 Blanding Blvd ,,Jacksonville ,FL,32244,United States,(904) 771-3810,,,,,,
Kangaroo Express,,24282 NE Hwy 315 ,,,,,United States,(352) 546-2214,,,,,,
Kangaroo Express,,1986 State Road 20 ,,Hawthorne ,FL,32640,United States,(352) 481-3533,,,,,,
Kangaroo Express,,1137 State Road 20 ,,Interlachen ,FL,32148,United States,(386) 684-9719,,,,,,
Kangaroo Express,,901 State Road 20 ,,Interlachen ,FL,32148,United States,(386) 684-2740,,,,,,
Kangaroo Express,,400 SR 26 ,,Melrose ,FL,32666,United States,(352) 475-1549,,,,,,
Kangaroo Express,,1119 SR 100 ,,Florahome ,FL,32140,United States,(386) 659-2208,,,,,,
Kangaroo Express,,1701 N Volusia Ave ,,Orange City ,FL,32763,United States,(386) 775-2553,,,,,,
Kangaroo Express,,399 S US 17/92 ,,Debary ,FL,32713,United States,(386) 668-2470,,,,,,
Kangaroo Express,,446 S Lakeview Drive ,,Lake Helen ,FL,32744,United States,(386) 228-2555,,,,,,
Kangaroo Express,,1022 E New York Ave ,,Deland ,FL,32724,United States,(386) 736-6733,,,,,,
Kangaroo Express,,2095 E New York Avenue ,,Deland ,FL,32724,United States,(386) 738-2358,,,,,,
Kangaroo Express,,2185 W State Road 44 ,,Deland ,FL,32720,United States,(386) 736-0014,,,,,,
Kangaroo Express,,1098 W International Speedway Blvd ,,Deland ,FL,32720,United States,(386) 734-3636,,,,,,
Kangaroo Express,,584 S Sixth St ,,Macclenny ,FL,32063,United States,(904) 259-2442,,,,,,
Kangaroo Express,,340 E Macclenny Ave ,,Macclenny ,FL,32063,United States,(904) 259-5197,,,,,,
Kangaroo Express,,10 E Silver Star Road ,,Ocoee ,FL,34761,United States,(407) 877-0424,,,,,,
Kangaroo Express,,1515 Wurst Rd ,,Ocoee ,FL,34761,United States,(407) 656-4481,,,,,,
Kangaroo Express,,400 Franklin Street ,,Ocoee ,FL,34761,United States,(407) 656-2666,,,,,,
Kangaroo Express,,8299 Silver Star Road ,,Orlando ,FL,32818,United States,(407) 521-0510,,,,,,
Kangaroo Express,,17503 W Colonial Dr ,,Oakland ,FL,34787,United States,(407) 654-9721,,,,,,
Kangaroo Express,,7661 Magnolia Homes Rd ,,Orlando ,FL,32810,United States,(407) 299-9381,,,,,,
Kangaroo Express,,2438 Shader Road ,,Orlando ,FL,32804,United States,(407) 578-0722,,,,,,
Kangaroo Express,,3873 SW College Rd ,,Ocala ,FL,34474,United States,(352) 237-0852,,,,,,
Kangaroo Express,,8664 SW 103rd Street Rd ,,Ocala ,FL,34481,United States,(352) 861-0763,,,,,,
Kangaroo Express,,3232 W Silver Spgs Blvd ,,Ocala ,FL,34474,United States,(352) 351-2170,,,,,,
Kangaroo Express,,1986 SW 27th Avenue ,,Ocala ,FL,34471,United States,(352) 237-4581,,,,,,
Kangaroo Express,,909 NE 28th Street ,,Ocala ,FL,34470,United States,(352) 622-9612,,,,,,
Kangaroo Express,,5986 West Highway 40 ,,Ocala ,FL,34482,United States,(352) 237-2573,,,,,,
Kangaroo Express,,3550 N US Highway 441 ,,Ocala ,FL,34475,United States,(352) 867-0635,,,,,,
Kangaroo Express,,6155 SW Highway 200 ,,Ocala ,FL,34476,United States,(352) 873-0037,,,,,,
Kangaroo Express,,810 US Hwy 27 ,,Minneola ,FL,34715,United States,(352) 242-6717,,,,,,
Kangaroo Express,,400 Forrest Ave ,,East Brewton ,AL,36426,United States,(251) 867-4953,,,,,,
Kangaroo Express,,9303 NW 39th Ave ,,Gainesville ,FL,32606,United States,(352) 371-3703,,,,,,
Kangaroo Express,,9404 NW 39th Avenue ,,Gainesville ,FL,32606,United States,(352) 374-8515,,,,,,
Kangaroo Express,,9260 NW 39th Ave ,,Gainesville ,FL,32606,United States,(352) 271-3007,,,,,,
Kangaroo Express,,7501 W Newberry Road ,,Gainesville ,FL,32606,United States,(352) 338-6011,,,,,,
Kangaroo Express,,4234 SW 20th Avenue ,,Gainesville ,FL,32607,United States,(352) 375-6514,,,,,,
Kangaroo Express,,4221 NW 16th Blvd ,,Gainesville ,FL,32605,United States,(352) 378-8786,,,,,,
Kangaroo Express,,3930 SR 44 ,,New Smyrna Beach ,FL,32168,United States,(386) 427-0302,,,,,,
Kangaroo Express,,1805 S Ridgewood Ave ,,Edgewater ,FL,32132,United States,(386) 427-2351,,,,,,
Kangaroo Express,,807 Indian River Blvd ,,Edgewater ,FL,32141,United States,(386) 427-6446,,,,,,
Kangaroo Express,,301 Atlantic Blvd ,,Neptune Beach ,FL,32266,United States,(904) 249-8986,,,,,,
Kangaroo Express,,2425 Mayport Road ,,Atlantic Beach ,FL,32233,United States,(904) 246-1530,,,,,,
Kangaroo Express,,2810 State Road A1a ,,Atlantic Beach ,FL,32233,United States,(904) 246-2209,,,,,,
Kangaroo Express,,6065 Pine Ridge Road ,,Naples ,FL,34119,United States,(239) 352-2882,,,,,,
Kangaroo Express,,1000 Whippoorwill Lane ,,Naples ,FL,34105,United States,(239) 435-3256,,,,,,
Kangaroo Express,,4025 Pine Ridge Rd Ext ,,Naples ,FL,34119,United States,(239) 354-9839,,,,,,
Kangaroo Express,,2934 Tamiami Trail East ,,Naples ,FL,34112,United States,(239) 530-0819,,,,,,
Kangaroo Express,,8801 West Terry St ,,Bonita Springs ,FL,34135,United States,(239) 949-9190,,,,,,
Kangaroo Express,,14581 US Hwy 27 ,,Lake Wales ,FL,33859,United States,(863) 638-3016,,,,,,
Kangaroo Express,,207 SR 17 ,,Lake Hamilton ,FL,33851,United States,(863) 439-5159,,,,,,
Kangaroo Express,,1013 E Hinson Avenue ,,Haines City ,FL,33844,United States,(863) 422-5439,,,,,,
Kangaroo Express,,325 N Main St ,,Atmore ,AL,36502,United States,(251) 368-5808,,,,,,
Kangaroo Express,,901 W Nashville Ave ,,Atmore ,AL,36502,United States,(251) 368-5374,,,,,,
Kangaroo Express,,2682 Blanding Blvd ,,Middleburg ,FL,32068,United States,(904) 282-4350,,,,,,
Kangaroo Express,,3137 CR 220 ,,Middleburg ,FL,32068,United States,(904) 282-2559,,,,,,
Kangaroo Express,,3895 Old Jennings Rd ,,Middleburg ,FL,32068,United States,(904) 282-0732,,,,,,
Kangaroo Express,,2816 Henley Road ,,Green Cove Springs ,FL,32043,United States,(904) 282-0062,,,,,,
Kangaroo Express,,2652 S E State Rd 21 ,,Melrose ,FL,32666,United States,(352) 475-2744,,,,,,
Kangaroo Express,,8090 SR 100 ,,Keystone Heights ,FL,32656,United States,(352) 473-4498,,,,,,
Kangaroo Express,,205 S Lawrence Blvd ,,Keystone Heights ,FL,32656,United States,(352) 473-7979,,,,,,
Kangaroo Express,,101 West Walker Drive ,,Keystone Heights ,FL,32656,United States,(352) 473-2106,,,,,,
Kangaroo Express,,6905 NE Hwy 301 ,,Hawthorne ,FL,32640,United States,(352) 468-2091,,,,,,
Kangaroo Express,,6835 SR 21 ,,Keystone Heights ,FL,32656,United States,(352) 473-7240,,,,,,
Kangaroo Express,,1081 Us 301 South ,,Baldwin ,FL,32234,United States,(904) 266-4814,,,,,,
Kangaroo Express,,14801 Normandy Blvd ,,Jacksonville ,FL,32234,United States,(904) 289-9328,,,,,,
Kangaroo Express,,721 Chaffee Rd S ,,Jacksonville ,FL,32221,United States,(904) 695-0089,,,,,,
Kangaroo Express,,11325 W Beaver St ,,Jacksonville ,FL,32220,United States,(904) 783-1225,,,,,,
Kangaroo Express,,10401 Normandy Blvd ,,Jacksonville ,FL,32221,United States,(904) 786-7656,,,,,,
Kangaroo Express,,4625 W Lake Mary Blvd ,,Lake Mary ,FL,32746,United States,(407) 333-0876,,,,,,
Kangaroo Express,,123 W Bay St ,,Davenport ,FL,33837,United States,(863) 422-4328,,,,,,
Kangaroo Express,,45489 US Hwy 27 ,,Davenport ,FL,33897,United States,(863) 420-1881,,,,,,
Kangaroo Express,,101 Polo Park Blvd E ,,Davenport ,FL,33897,United States,(863) 424-8340,,,,,,
Kangaroo Express,,2123 International Speedw ,,Deland ,FL,32724,United States,(386) 738-1093,,,,,,
Kangaroo Express,,11735 SW SR 231 ,,Brooker ,FL,32622,United States,(352) 485-1886,,,,,,
Kangaroo Express,,5420 W SR 235 ,,,,,United States,(386) 462-4666,,,,,,
Kangaroo Express,,14411 NW US Highway 441 ,,Alachua ,FL,32615,United States,(386) 462-2880,,,,,,
Kangaroo Express,,4030 SW 13th St ,,Gainesville ,FL,32608,United States,(352) 338-1616,,,,,,
Kangaroo Express,,3424 SW Williston Rd ,,Gainesville ,FL,32608,United States,(352) 377-3997,,,,,,
Kangaroo Express,,4310 SE Hawthorne Rd ,,Gainesville ,FL,32641,United States,(352) 371-3023,,,,,,
Kangaroo Express,,3423 SE Hawthorne Rd ,,Gainesville ,FL,32641,United States,(352) 372-7813,,,,,,
Kangaroo Express,,3525 SW 34th St ,,Gainesville ,FL,32608,United States,(352) 377-1902,,,,,,
Kangaroo Express,,5708 NW 34th St ,,Gainesville ,FL,32653,United States,(352) 335-2583,,,,,,
Kangaroo Express,,5310 NW 13 St ,,Gainesville ,FL,32653,United States,(352) 374-9812,,,,,,
Kangaroo Express,,10500 Phillips Hwy ,,Jacksonville ,FL,32256,United States,(904) 262-3780,,,,,,
Kangaroo Express,,9615 Heckscher Dr ,,Jacksonville ,FL,32226,United States,(904) 251-3302,,,,,,
Kangaroo Express,,4024 Southside Blvd ,,Jacksonville ,FL,32216,United States,(904) 641-4517,,,,,,
Kangaroo Express,,8820 West 103rd St ,,Jacksonville ,FL,32222,United States,(904) 777-2567,,,,,,
Kangaroo Express,,12453 Phillips Hwy ,,Jacksonville ,FL,32256,United States,(904) 260-1011,,,,,,
Kangaroo Express,,1209 Monument Rd ,,Jacksonville ,FL,32225,United States,(904) 721-8726,,,,,,
Kangaroo Express,,11410 Old St Augustine Rd ,,Jacksonville ,FL,32223,United States,(904) 268-8751,,,,,,
Kangaroo Express,,1092 S McDuff Avenue ,,Jacksonville ,FL,32205,United States,(904) 387-5267,,,,,,
Kangaroo Express,,9001 Southside Blvd ,,Jacksonville ,FL,32256,United States,(904) 464-0063,,,,,,
Kangaroo Express,,9763 103rd Street ,,Jacksonville ,FL,32210,United States,,,,,,,
Kangaroo Express,,4525 Sunbeam Rd ,,Jacksonville ,FL,32257,United States,(904) 733-6229,,,,,,
Kangaroo Express,,4856 Park Street ,,Jacksonville ,FL,32205,United States,(904) 384-4273,,,,,,
Kangaroo Express,,6003 5 Roosevelt Blvd ,,Jacksonville ,FL,32244,United States,(904) 778-1120,,,,,,
Kangaroo Express,,8181 103rd St ,,Jacksonville ,FL,32210,United States,(904) 778-8181,,,,,,
Kangaroo Express,,1790 SR 13 ,,Jacksonville ,FL,32207,United States,(904) 287-0490,,,,,,
Kangaroo Express,,10910 Atlantic Blvd ,,Jacksonville ,FL,32225,United States,(904) 642-2981,,,,,,
Kangaroo Express,,5553 St Augustine Rd ,,Jacksonville ,FL,32207,United States,(904) 731-2175,,,,,,
Kangaroo Express,,9750 Old St Augustine Rd ,,Jacksonville ,FL,32257,United States,(904) 268-4032,,,,,,
Kangaroo Express,,8486 N Carl G Rose Hwy ,,Hernando ,FL,34442,United States,(352) 341-0880,,,,,,
Kangaroo Express,,6296 W Gulf TO Lake Hwy ,,Crystal River ,FL,34429,United States,(352) 563-0009,,,,,,
Kangaroo Express,,7985 North Citrus Ave ,,Crystal River ,FL,34428,United States,(352) 795-5255,,,,,,
Kangaroo Express,,3051 Monument Rd ,,Jacksonville ,FL,32225,United States,(904) 646-4050,,,,,,
Kangaroo Express,,10550 San Jose Blvd ,,Jacksonville ,FL,32257,United States,(904) 268-6400,,,,,,
Kangaroo Express,,8350 Baymeadows Rd ,,Jacksonville ,FL,32256,United States,(904) 737-8278,,,,,,
Kangaroo Express,,1005 Edgewood Ave S ,,Jacksonville ,FL,32205,United States,(904) 387-6327,,,,,,
Kangaroo Express,,10870 Harts Rd ,,Jacksonville ,FL,32218,United States,(904) 751-5645,,,,,,
Kangaroo Express,,5408 Main Street ,,Jacksonville ,FL,32208,United States,(904) 765-2611,,,,,,
Kangaroo Express,,7603 103rd Street ,,Jacksonville ,FL,32210,United States,(904) 771-9325,,,,,,
Kangaroo Express,,12020 Ft Caroline Rd ,,Jacksonville ,FL,11743,United States,(904) 641-4671,,,,,,
Kangaroo Express,,13967 Mount Pleasant Rd ,,Jacksonville ,FL,32225,United States,(904) 221-2225,,,,,,
Kangaroo Express,,11985 Beach Blvd ,,Jacksonville ,FL,32246,United States,(904) 641-0999,,,,,,
Kangaroo Express,,8840 Phillips Hwy ,,Jacksonville ,FL,32256,United States,(904) 730-9305,,,,,,
Kangaroo Express,,7211 103rd St ,,Jacksonville ,FL,32210,United States,(904) 771-7510,,,,,,
Kangaroo Express,,3605 Saint Johns Bluff Rd S ,,Jacksonville ,FL,32224,United States,(904) 646-4271,,,,,,
Kangaroo Express,,13434 Old St Augustine Rd ,,Jacksonville ,FL,32258,United States,(904) 262-1588,,,,,,
Kangaroo Express,,1001 N Lane Avenue ,,Jacksonville ,FL,32254,United States,(904) 783-1469,,,,,,
Kangaroo Express,,9901 New Kings Rd ,,Jacksonville ,FL,32219,United States,(904) 765-3238,,,,,,
Kangaroo Express,,1740 County Road 210 W ,,Jacksonville ,FL,32259,United States,(904) 824-2794,,,,,,
Kangaroo Express,,8735 N Kings Rd ,,Jacksonville ,FL,32219,United States,(904) 764-3004,,,,,,
Kangaroo Express,,2688 Old Middleburg Rd ,,Jacksonville ,FL,32210,United States,(904) 772-1266,,,,,,
Kangaroo Express,,12743 Atlantic Blvd ,,Jacksonville ,FL,32225,United States,(904) 221-3313,,,,,,
Kangaroo Express,,11025 Phillips Hwy ,,Jacksonville ,FL,32256,United States,(904) 268-1838,,,,,,
Kangaroo Express,,4152 Old Middleburg Rd ,,Jacksonville ,FL,32210,United States,(904) 772-1722,,,,,,
Kangaroo Express,,8820 W 103rd St ,,Jacksonville ,FL,32222,United States,(904) 778-8917,,,,,,
Kangaroo Express,,5111 Baymeadows Rd ,,Jacksonville ,FL,32217,United States,(904) 733-1410,,,,,,
Kangaroo Express,,1765 Jones Road ,,Jacksonville ,FL,32220,United States,(904) 786-2278,,,,,,
Kangaroo Express,,2952 Dunn Avenue ,,Jacksonville ,FL,32218,United States,(904) 764-2455,,,,,,
Kangaroo Express,,1003 N Edgewood Avenue ,,Jacksonville ,FL,32254,United States,(904) 387-1875,,,,,,
Kangaroo Express,,5001 Heckscher Dr ,,Jacksonville ,FL,32226,United States,(904) 751-6294,,,,,,
Kangaroo Express,,2615 St Johns Bluff S ,,Jacksonville ,FL,32246,United States,(904) 642-3103,,,,,,
Kangaroo Express,,10100 Granite Place ,,Jacksonville ,FL,32226,United States,(904) 757-3075,,,,,,
Kangaroo Express,,4129 Sportsman Club Rd ,,Jacksonville ,FL,32219,United States,(904) 783-1866,,,,,,
Kangaroo Express,,4 Highway 19 South ,,Inglis ,FL,34449,United States,(352) 447-2150,,,,,,
Kangaroo Express,,4750 S US Highway 41 ,,Dunnellon ,FL,34432,United States,(352) 489-0708,,,,,,
Kangaroo Express,,551726 US Hwy 1 ,,Hilliard ,FL,32046,United States,(904) 845-2767,,,,,,
Kangaroo Express,,540684 Lem Turner Rd ,,Callahan ,FL,32011,United States,(904) 879-1026,,,,,,
Kangaroo Express,,540251 US Highway 1 ,,Callahan ,FL,32011,United States,(904) 879-1432,,,,,,
Kangaroo Express,,8796 E Church St ,,Hastings ,FL,32145,United States,(904) 692-2863,,,,,,
Kangaroo Express,,1300 Idlewild Ave ,,Green Cove Springs ,FL,32043,United States,(904) 284-1126,,,,,,
Kangaroo Express,,1517 Idlewild Ave ,,Green Cove Springs ,FL,32043,United States,(904) 284-2722,,,,,,
Kangaroo Express,,2000 State Road 16W ,,Green Cove Springs ,FL,32043,United States,(904) 284-0660,,,,,,
Kangaroo Express,,3075 Highway 17 ,,Green Cove Springs ,FL,32043,United States,(904) 284-7810,,,,,,
Kangaroo Express,,20 NE Waldo Road ,,Gainesville ,FL,32601,United States,(352) 374-8898,,,,,,
Kangaroo Express,,4103 SW 43rd St ,,Gainesville ,FL,32608,United States,(352) 335-3124,,,,,,
Kangaroo Express,,3520 N Waldo Rd ,,Gainesville ,FL,32609,United States,(352) 375-3593,,,,,,
Kangaroo Express,,3901 SW Archer Rd ,,Gainesville ,FL,32608,United States,(352) 376-0478,,,,,,
Kangaroo Express,,1255 W University Ave ,,Gainesville ,FL,32601,United States,(352) 377-1390,,,,,,
Kangaroo Express,,7404 NE Waldo Rd ,,Gainesville ,FL,32609,United States,(352) 338-1459,,,,,,
Kangaroo Express,,1515 N Main Street ,,Gainesville ,FL,32601,United States,(352) 375-8340,,,,,,
Kangaroo Express,,926 W University Ave ,,Gainesville ,FL,32601,United States,(352) 377-9556,,,,,,
Kangaroo Express,,3838 North Main Street ,,Gainesville ,FL,32609,United States,(352) 395-1332,,,,,,
Kangaroo Express,,5200 NE Waldo Rd ,,Gainesville ,FL,32609,United States,(352) 371-9023,,,,,,
Kangaroo Express,,2152 NW 39th Ave ,,Gainesville ,FL,32605,United States,(352) 371-4884,,,,,,
Kangaroo Express,,2320 SW Archer Rd ,,Gainesville ,FL,32608,United States,(352) 376-1738,,,,,,
Kangaroo Express,,359 South Fourth St ,,Colquitt ,GA,39837,United States,(229) 758-2149,,,,,,
Kangaroo Express,,1342 Lafayette Road ,,Rossville ,GA,30741,United States,(706) 866-7607,,,,,,
Kangaroo Express,,728 Park City Rd ,,Rossville ,GA,30741,United States,(706) 861-1246,,,,,,
Kangaroo Express,,3095 Battlefield Parkway ,,Fort Oglethrope ,GA,30741,United States,(706) 858-8567,,,,,,
Kangaroo Express,,4011 Ringgold Road ,,Chattanooga ,TN,37412,United States,(423) 622-6917,,,,,,
Kangaroo Express,,15 Dietz Road ,,Ringgold ,GA,30736,United States,(706) 858-0125,,,,,,
Kangaroo Express,,2995 Cedartown Road ,,Rome ,GA,30161,United States,(706) 232-3354,,,,,,
Kangaroo Express,,910 North Broad NE ,,Rome ,GA,30161,United States,(706) 234-1043,,,,,,
Kangaroo Express,,1881 Old Calhoun Road ,,Rome ,GA,30161,United States,(706) 292-0079,,,,,,
Kangaroo Express,,1425 Turner McCall Blvd ,,Rome ,GA,30161,United States,(706) 291-8176,,,,,,
Kangaroo Express,,3070 Cedartown Hwy SW ,,Rome ,GA,30173,United States,(706) 290-9495,,,,,,
Kangaroo Express,,1501 Martha Berry Blvd ,,Rome ,GA,30165,United States,(706) 295-2570,,,,,,
Kangaroo Express,,5880 New Calhoun Road ,,Rome ,GA,30161,United States,(706) 295-5544,,,,,,
Kangaroo Express,,1407 Kingston Highway ,,Rome ,GA,30161,United States,(706) 235-0021,,,,,,
Kangaroo Express,,2622 Chattanooga Road ,,Rocky Face ,GA,30740,United States,(706) 278-9130,,,,,,
Kangaroo Express,,1200 Cleveland Hwy ,,Dalton ,GA,30721,United States,(706) 217-2734,,,,,,
Kangaroo Express,,1321 Dug Gap Road ,,Dalton ,GA,30720,United States,(706) 226-8433,,,,,,
Kangaroo Express,,2200 Cleveland Hwy ,,Dalton ,GA,30721,United States,(706) 259-5197,,,,,,
Kangaroo Express,,1010 E Walnut Ave ,,Dalton ,GA,30721,United States,(706) 278-3996,,,,,,
Kangaroo Express,,2214 East Walnut Ave ,,Dalton ,GA,30721,United States,(706) 272-7070,,,,,,
Kangaroo Express,,2800 S Dixie Highway ,,Dalton ,GA,30720,United States,(706) 277-1792,,,,,,
Kangaroo Express,,3390 Airport Road ,,Dalton ,GA,30721,United States,(706) 279-1000,,,,,,
Kangaroo Express,,3901 Cleveland Hwy ,,Dalton ,GA,30721,United States,(706) 694-2230,,,,,,
Kangaroo Express,,3608 Chatsworth Hwy ,,Dalton ,GA,30720,United States,(706) 278-5103,,,,,,
Kangaroo Express,,118 Kay Conley Road ,,Rock Spring ,GA,30739,United States,(706) 375-4090,,,,,,
Kangaroo Express,,1111 North Main St ,,La Fayette ,GA,30728,United States,(706) 638-4312,,,,,,
Kangaroo Express,,6855 Battlefield Parkway ,,Ringgold ,GA,30736,United States,(706) 937-5417,,,,,,
Kangaroo Express,,5337 Alabama Hwy ,,Ringgold ,GA,30736,United States,(706) 965-5270,,,,,,
Kangaroo Express,,11418 Highway 41 ,,Ringgold ,GA,30736,United States,(706) 935-3026,,,,,,
Kangaroo Express,,4257 Cloud Springs Rd ,,Ringgold ,GA,30736,United States,(706) 891-6810,,,,,,
Kangaroo Express,,6708 Ringgold Road ,,East Ridge ,TN,37412,United States,(423) 894-9713,,,,,,
Kangaroo Express,,4900 Brainerd Rd ,,Chattanooga ,TN,37411,United States,(423) 490-8408,,,,,,
Kangaroo Express,,7020 E Brainerd Road ,,Chattanooga ,TN,37421,United States,(423) 892-2910,,,,,,
Kangaroo Express,,1541 Mock Road ,,Albany ,GA,31705,United States,(229) 436-7806,,,,,,
Kangaroo Express,,742 North Main Street ,,Dawson ,GA,39842,United States,(229) 995-3325,,,,,,
Kangaroo Express,,3333 Washington Rd ,,Martinez ,GA,30907,United States,(706) 860-2887,,,,,,
Kangaroo Express,,3539 Wheeler Road ,,Augusta ,GA,30909,United States,(706) 262-3835,,,,,,
Kangaroo Express,,3011 Washington Road ,,Augusta ,GA,30907,United States,(706) 733-1243,,,,,,
Kangaroo Express,,3434 Wrightsboro Road ,,Augusta ,GA,30909,United States,(706) 733-7492,,,,,,
Kangaroo Express,,3477 Wrightsboro Rd ,,Augusta ,GA,30909,United States,(706) 737-6266,,,,,,
Kangaroo Express,,3477 Wrightsboro Road ,,Augusta ,GA,30909,United States,(706) 731-8468,,,,,,
Kangaroo Express,,3003 Deans Bridge Road ,,Augusta ,GA,30906,United States,(706) 790-3024,,,,,,
Kangaroo Express,,1494 Jones Street ,,Augusta ,GA,30901,United States,(706) 828-7671,,,,,,
Kangaroo Express,,421 W Martintown Rd ,,North Augusta ,SC,29841,United States,(803) 442-7109,,,,,,
Kangaroo Express,,2822 Peach Orchard Rd ,,Augusta ,GA,30906,United States,(706) 796-1978,,,,,,
Kangaroo Express,,3129 Maple Street ,,Lindale ,GA,30147,United States,(706) 234-8417,,,,,,
Kangaroo Express,,4101 Windsor Spring Road ,,Hephzibah ,GA,30815,United States,(706) 790-0512,,,,,,
Kangaroo Express,,2640 Dawsonville Hwy ,,Gainesville ,GA,30506,United States,(770) 718-3001,,,,,,
Kangaroo Express,,615 EE Butler Pkwy SE ,,Gainesville ,GA,30501-4528,United States,(770) 718-3007,,,,,,
Kangaroo Express,,506 Jesse Jewell Pkwy SW ,,Gainesville ,GA,30501,United States,(770) 718-3014,,,,,,
Kangaroo Express,,1785 Browns Bridge Rd ,,Gainesville ,GA,30501,United States,(770) 718-3011,,,,,,
Kangaroo Express,,2550 Limestone Pkwy ,,Gainesville ,GA,30501,United States,(770) 718-3027,,,,,,
Kangaroo Express,,1680 Park Hill Rd ,,Gainesville ,GA,30501,United States,(770) 718-3012,,,,,,
Kangaroo Express,,3350 Thompson Bridge Rd ,,Gainesville ,GA,30506,United States,(770) 718-3024,,,,,,
Kangaroo Express,,1261 Thompson Bridge Rd ,,Gainesville ,GA,30501,United States,(770) 718-3006,,,,,,
Kangaroo Express,,78 Hwy 9 North ,,Dawsonville ,GA,30534,United States,(706) 265-6980,,,,,,
Kangaroo Express,,5425 Hwy 53 East ,,Dawsonville ,GA,30534,United States,(706) 216-2098,,,,,,
Kangaroo Express,,1204 Martin Luther King Blvd ,,Americus ,GA,31709,United States,(229) 931-0015,,,,,,
Kangaroo Express,,1291 Level Grove Rd ,,Cornelia ,GA,30531,United States,(706) 776-6164,,,,,,
Kangaroo Express,,1007 North Main Street ,,Cornelia ,GA,30531,United States,(706) 778-5723,,,,,,
Kangaroo Express,,3951 State Hwy 365 ,,Alto ,GA,30510,United States,(706) 778-5844,,,,,,
Kangaroo Express,,5804 Cornelia Hwy ,,Alto ,GA,30510,United States,(770) 869-0996,,,,,,
Kangaroo Express,,5000 Talmadge Drive ,,Clarkesville ,GA,30523,United States,(706) 754-5569,,,,,,
Kangaroo Express,,78 S Main Street ,,Cleveland ,GA,30528,United States,(706) 865-9940,,,,,,
Kangaroo Express,,301 N Main St ,,Cleveland ,GA,30528,United States,(706) 865-3983,,,,,,
Kangaroo Express,,18 Hwy 72 E ,,Comer ,GA,30629,United States,(706) 783-3718,,,,,,
Kangaroo Express,,290 US Hwy 29 N ,,Athens ,GA,30601,United States,(706) 353-6624,,,,,,
Kangaroo Express,,4529 Cleveland Hwy ,,Cohutta ,GA,30726,United States,(706) 694-3553,,,,,,
Kangaroo Express,,9652 E Brainerd Rd ,,Chattanooga ,TN,37421,United States,(423) 954-1756,,,,,,
Kangaroo Express,,220 Connector 3 ,,Dalton ,GA,30720,United States,(706) 270-9987,,,,,,
Kangaroo Express,,201 Carbondale Rd SW ,,Dalton ,GA,30721,United States,(706) 277-1994,,,,,,
Kangaroo Express,,1401 Red Bud Road ,,Calhoun ,GA,30701,United States,(706) 602-0111,,,,,,
Kangaroo Express,,1310 North Hwy 41 ,,Calhoun ,GA,30701,United States,(706) 625-5006,,,,,,
Kangaroo Express,,808 South Wall St ,,Calhoun ,GA,30701,United States,(706) 625-8685,,,,,,
Kangaroo Express,,702 E Highway 53 SE ,,Calhoun ,GA,30701,United States,(706) 629-9127,,,,,,
Kangaroo Express,,1476 Red Bud Road ,,Calhoun ,GA,30701,United States,(706) 629-7696,,,,,,
Kangaroo Express,,3008 Alabama Avenue ,,Bremen ,GA,30110,United States,(770) 537-6340,,,,,,
Kangaroo Express,,1871 North Highway 27 ,,Carrollton ,GA,30117,United States,(770) 838-1191,,,,,,
Kangaroo Express,,1123 N Park Street ,,Carrollton ,GA,30117,United States,(770) 834-0676,,,,,,
Kangaroo Express,,1218 Maple Street ,,Carrollton ,GA,30117,United States,(770) 838-0014,,,,,,
Kangaroo Express,,1050 Pelham Road ,,Jacksonville ,AL,36265,United States,(256) 435-1960,,,,,,
Kangaroo Express,,5265 Glade Road ,,Acworth ,GA,30102,United States,(770) 974-0014,,,,,,
Kangaroo Express,,5646 Highway 20 SE ,,Cartersville ,GA,30121,United States,(770) 382-4155,,,,,,
Kangaroo Express,,501 N Tennessee Street ,,Cartersville ,GA,30120,United States,(770) 606-8358,,,,,,
Kangaroo Express,,1325 East Main Street ,,Cartersville ,GA,30121,United States,(770) 387-0141,,,,,,
Kangaroo Express,,1361 Joe Frank Harris Pkwy SE ,,Cartersville ,GA,30120,United States,(770) 606-8090,,,,,,
Kangaroo Express,,898 Joe Frank Harris Pkwy ,,Cartersville ,GA,30120,United States,(770) 386-5874,,,,,,
Kangaroo Express,,902 Joe Frank Harris Parkway ,,Cartersville ,GA,30120,United States,(770) 386-4140,,,,,,
Kangaroo Express,,496 E Main Street ,,Cartersville ,GA,30121,United States,(770) 387-2653,,,,,,
Kangaroo Express,,507 College Ave ,,Clemson ,SC,29631,United States,(864) 654-8657,,,,,,
Kangaroo Express,,1530 NE 72 Bypass ,,Greenwood ,SC,29649,United States,(864) 223-3521,,,,,,
Kangaroo Express,,2008 Anderson Road ,,Greenville ,SC,29611,United States,(864) 295-3219,,,,,,
Kangaroo Express,,3902 Pepperell Pkwy ,,Opelika ,AL,36801,United States,(334) 745-7457,,,,,,
Kangaroo Express,,4000 S Memorial Dr ,,Winterville ,NC,28590,United States,(252) 355-0964,,,,,,
Kangaroo Express,,211 South Mill Street ,,Winterville ,NC,28590,United States,(252) 756-7022,,,,,,
Kangaroo Express,,1900 E Firetower Rd ,,Greenville ,NC,27858,United States,(252) 353-0547,,,,,,
Kangaroo Express,,494 3rd Street ,,Ayden ,NC,28513,United States,(252) 746-2654,,,,,,
Kangaroo Express,,1301 Arlington Blvd ,,Greenville ,NC,27834,United States,(252) 321-0364,,,,,,
Kangaroo Express,,2600 S Charles St ,,Greenville ,NC,27858,United States,(252) 756-6360,,,,,,
Kangaroo Express,,2200 South Evans Street ,,Greenville ,NC,27834,United States,(252) 756-2155,,,,,,
Kangaroo Express,,2195 S Evans St ,,Greenville ,NC,27858,United States,(252) 756-6144,,,,,,
Kangaroo Express,,700 South Memorial Drive ,,Greenville ,NC,27834,United States,(252) 830-6825,,,,,,
Kangaroo Express,,316 E 10th Street ,,Greenville ,NC,27858,United States,(252) 752-7671,,,,,,
Kangaroo Express,,289 S Stratford Road ,,Winston Salem ,NC,27103,United States,(336) 724-3347,,,,,,
Kangaroo Express,,3499 Robin Hood Road ,,Winston Salem ,NC,27106,United States,(336) 765-5799,,,,,,
Kangaroo Express,,700 Jonestown Rd ,,Winston Salem ,NC,27103,United States,(336) 760-4432,,,,,,
Kangaroo Express,,106 Hickory Tree Rd ,,Winston Salem ,NC,27107,United States,(336) 764-0999,,,,,,
Kangaroo Express,,4843 Country Club Rd ,,Winston Salem ,NC,27104,United States,(336) 760-6333,,,,,,
Kangaroo Express,,2471 Lewisville clemmons ,,Clemmons ,NC,27012,United States,(336) 766-9063,,,,,,
Kangaroo Express,,1065 Bethania Rural Hall ,,Rural Hall ,NC,27045-9552,United States,(336) 969-2029,,,,,,
Kangaroo Express,,4401 Kernersville Rd ,,Kernersville ,NC,27284,United States,(336) 788-7736,,,,,,
Kangaroo Express,,583 S Main Street ,,King ,NC,27021,United States,(336) 983-6981,,,,,,
Kangaroo Express,,2010 W Mountain St ,,Kernersville ,NC,27284,United States,(336) 996-3451,,,,,,
Kangaroo Express,,1207 Forest Hills Rd ,,Wilson ,NC,27896,United States,(252) 234-7184,,,,,,
Kangaroo Express,,2877 Ward Blvd ,,Wilson ,NC,27893,United States,(252) 243-6337,,,,,,
Kangaroo Express,,4934 Raleigh Road Parkway W ,,Wilson ,NC,27896,United States,(252) 246-9148,,,,,,
Kangaroo Express,,2928 US Hwy 301 S ,,Wilson ,NC,27893,United States,(252) 237-8120,,,,,,
Kangaroo Express,,4940 Raleigh Road Parkway W ,,Wilson ,NC,27896,United States,(252) 237-7200,,,,,,
Kangaroo Express,,402 South Church Street ,,Kenly ,NC,27542,United States,(919) 284-3199,,,,,,
Kangaroo Express,,900 Raleigh Road ,,Rocky Mount ,NC,27803,United States,(252) 442-7493,,,,,,
Kangaroo Express,,737 Raleigh Rd ,,Rocky Mount ,NC,27803,United States,(252) 442-5565,,,,,,
Kangaroo Express,,3601 Sunset Avenue ,,Rocky Mount ,NC,27804,United States,(252) 443-5341,,,,,,
Kangaroo Express,,1711 Eastwood Rd ,,Wilmington ,NC,28405,United States,(910) 256-4608,,,,,,
Kangaroo Express,,2375 S 17th Street ,,Wilmington ,NC,28403,United States,(910) 799-9649,,,,,,
Kangaroo Express,,6648 Gordon Rd ,,Wilmington ,NC,28411,United States,(910) 791-1548,,,,,,
Kangaroo Express,,3053 Castle Hayne Rd ,,Wilmington ,NC,28429,United States,,,,,,,
Kangaroo Express,,2305 S College Road ,,Wilmington ,NC,28409,United States,(910) 791-2360,,,,,,
Kangaroo Express,,2400 N College Rd ,,Wilmington ,NC,28405,United States,,,,,,,
Kangaroo Express,,6759 Carolina Beach Rd ,,Wilmington ,NC,28412,United States,(910) 791-2407,,,,,,
Kangaroo Express,,6480 Market Street ,,Wilmington ,NC,28405,United States,(910) 392-2741,,,,,,
Kangaroo Express,,2028 Oleander Drive ,,Wilmington ,NC,28403,United States,,,,,,,
Kangaroo Express,,5717 Castle Hayne Road ,,Castle Hayne ,NC,28429,United States,(910) 675-2358,,,,,,
Kangaroo Express,,610 W Main Street ,,Wilkesboro ,NC,28697,United States,(336) 667-5551,,,,,,
Kangaroo Express,,2372 Zephyr Rd ,,Dobson ,NC,27017,United States,(336) 366-4099,,,,,,
Kangaroo Express,,1218 State Farm Rd ,,Boone ,NC,28607,United States,(828) 264-0053,,,,,,
Kangaroo Express,,2853 N Center Street ,,Hickory ,NC,28601,United States,(828) 431-7947,,,,,,
Kangaroo Express,,2200 US Hwy 421 South ,,Boone ,NC,28607,United States,(828) 265-3012,,,,,,
Kangaroo Express,,1996 Blowing Rock Rd ,,Boone ,NC,28607,United States,(828) 262-0855,,,,,,
Kangaroo Express,,131 Turnersburg Hwy ,,Statesville ,NC,28625,United States,(704) 872-2635,,,,,,
Kangaroo Express,,771 Blowing Rock Rd ,,Boone ,NC,28607,United States,(828) 262-3312,,,,,,
Kangaroo Express,,1803 Safreit Rd ,,Statesville ,NC,28625,United States,(704) 872-1446,,,,,,
Kangaroo Express,,903 N NC 16 HWY ,,Conover ,NC,28613,United States,(828) 464-4754,,,,,,
Kangaroo Express,,6400 Burlington Road ,,Whitsett ,NC,27377,United States,(336) 446-0477,,,,,,
Kangaroo Express,,1110 Huffman Mill Rd ,,Burlington ,NC,27215,United States,(336) 584-7999,,,,,,
Kangaroo Express,,110 W Haggard St ,,Elon College ,NC,27244,United States,(336) 584-2723,,,,,,
Kangaroo Express,,2602 S Mebane Street ,,Burlington ,NC,27215,United States,(336) 570-4677,,,,,,
Kangaroo Express,,1031 Hwy 87 North ,,Elon College ,NC,27244,United States,(336) 584-4808,,,,,,
Kangaroo Express,,3001 Pleasant Garden Rd ,,Greensboro ,NC,27406,United States,(336) 389-0926,,,,,,
Kangaroo Express,,3101 Pleasant Garden Rd ,,Greensboro ,NC,27406,United States,(336) 275-0187,,,,,,
Kangaroo Express,,3101 Yanceyville Street ,,Greensboro ,NC,27405,United States,(336) 375-5800,,,,,,
Kangaroo Express,,337 W Wendover Ave ,,Greensboro ,NC,27401,United States,(336) 273-7169,,,,,,
Kangaroo Express,,2522 Randleman Rd ,,Greensboro ,NC,27406,United States,(336) 379-7309,,,,,,
Kangaroo Express,,1730 JK Powell Blvd ,,Whiteville ,NC,28472,United States,(910) 642-6774,,,,,,
Kangaroo Express,,703 N Madison Street ,,Whiteville ,NC,28472,United States,(910) 642-6628,,,,,,
Kangaroo Express,,424 N Brown St ,,Chadbourn ,NC,28431,United States,(910) 654-5368,,,,,,
Kangaroo Express,,318 West Seaboard Street ,,Bladenboro ,NC,28320,United States,(910) 863-4471,,,,,,
Kangaroo Express,,340 S Poplar Street ,,Elizabethtown ,NC,28337,United States,(910) 862-4882,,,,,,
Kangaroo Express,,310 Walnut Street ,,Fairmont ,NC,28340,United States,(910) 628-8476,,,,,,
Kangaroo Express,,7095 Ocean Hwy North ,,South Brunswick ,NC,28468,United States,(910) 579-8531,,,,,,
Kangaroo Express,,4525 Main Street ,,Shallotte ,NC,28470,United States,(910) 754-7242,,,,,,
Kangaroo Express,,3481 Hwy 9 East ,,Little River ,SC,29566,United States,(843) 399-1500,,,,,,
Kangaroo Express,,927 Seaside Road SW ,,Ocean Isle Beach ,NC,28469-6156,United States,(910) 579-0402,,,,,,
Kangaroo Express,,2120 Juniper Lake Rd ,,West End ,NC,27376,United States,(910) 255-0600,,,,,,
Kangaroo Express,,7249 US Hwy 15 501 ,,Carthage ,NC,28327,United States,(910) 215-0759,,,,,,
Kangaroo Express,,170 Beverly Lane ,,Southern Pines ,NC,28387,United States,(910) 692-1856,,,,,,
Kangaroo Express,,10805 S US Hwy 15 501 ,,Southern Pines ,NC,28387,United States,(910) 692-9419,,,,,,
Kangaroo Express,,11495 Hwy 15501 ,,Aberdeen ,NC,28315,United States,(910) 944-2802,,,,,,
Kangaroo Express,,1395 US Hwy 1 S ,,Southern Pines ,NC,28387,United States,(910) 246-2424,,,,,,
Kangaroo Express,,401 Monroe Street ,,Carthage ,NC,28327,United States,(910) 947-3885,,,,,,
Kangaroo Express,,3384 US 1 Hwy ,,Vass ,NC,28394,United States,(910) 245-1456,,,,,,
Kangaroo Express,,3000 Jefferson Davis Hwy ,,Sanford ,NC,27332,United States,(919) 774-8131,,,,,,
Kangaroo Express,,2219 Jefferson Davis Hwy ,,Sanford ,NC,27332,United States,(919) 776-1939,,,,,,
Kangaroo Express,,601 W North Main Street ,,Waxhaw ,NC,28173,United States,(704) 843-7023,,,,,,
Kangaroo Express,,5905 Waxhaw Hwy ,,Mineral Springs ,NC,28108,United States,(704) 843-6948,,,,,,
Kangaroo Express,,9620 Rea Road ,,Charlotte ,NC,28277,United States,(704) 752-7861,,,,,,
Kangaroo Express,,3503 Weddington Rd ,,Monroe ,NC,28110,United States,(704) 226-1138,,,,,,
Kangaroo Express,,11640 Providence Road ,,Charlotte ,NC,28277-2692,United States,(704) 847-4367,,,,,,
Kangaroo Express,,2226 Lancaster Ave ,,Monroe ,NC,28112,United States,(704) 238-0889,,,,,,
Kangaroo Express,,1692 W Franklin St ,,Monroe ,NC,28112,United States,(704) 225-0336,,,,,,
Kangaroo Express,,15620 John Delaney Blvd ,,Charlotte ,NC,28277,United States,(704) 542-2963,,,,,,
Kangaroo Express,,3006 Old Charlotte Hwy ,,Monroe ,NC,28110,United States,(704) 283-8884,,,,,,
Kangaroo Express,,4103 Hwy 74 ,,Monroe ,NC,28110,United States,(704) 289-6199,,,,,,
Kangaroo Express,,481 Fifth & Bridges St ,,Washington ,NC,27889,United States,(252) 946-8943,,,,,,
Kangaroo Express,,1531 Greenville Blvd SE ,,Greenville ,NC,27858,United States,(252) 752-6296,,,,,,
Kangaroo Express,,4300 Eastern Pines Road ,,Greenville ,NC,27858,United States,(252) 758-9071,,,,,,
Kangaroo Express,,7921 Main Street ,,Vanceboro ,NC,28586,United States,(252) 244-0394,,,,,,
Kangaroo Express,,1930 N Memorial Drive ,,Greenville ,NC,27834,United States,(252) 752-3263,,,,,,
Kangaroo Express,,2713 Hwy 24 West ,,Warsaw ,NC,28398,United States,(910) 293-3931,,,,,,
Kangaroo Express,,1330 N Norwood Street ,,Wallace ,NC,28466,United States,(910) 285-2234,,,,,,
Kangaroo Express,,209 Mt Olive Drive ,,Newton Grove ,NC,28366,United States,(910) 594-1673,,,,,,
Kangaroo Express,,1414 E Williams St Hwy 55 ,,Apex ,NC,27539,United States,(919) 362-5131,,,,,,
Kangaroo Express,,1908 U S Hwy 117 S ,,Goldsboro ,NC,27530,United States,(919) 735-0447,,,,,,
Kangaroo Express,,1601 East Ash Street ,,Goldsboro ,NC,27530,United States,(919) 734-7928,,,,,,
Kangaroo Express,,600 Spence Avenue ,,Goldsboro ,NC,27534,United States,(919) 778-1956,,,,,,
Kangaroo Express,,901 W Grantham St ,,Goldsboro ,NC,27530,United States,(919) 734-1404,,,,,,
Kangaroo Express,,2035 Hwy 70 W ,,Goldsboro ,NC,27530,United States,(919) 735-3838,,,,,,
Kangaroo Express,,2007 Wayne Memorial ,,Goldsboro ,NC,27534,United States,(919) 731-4893,,,,,,
Kangaroo Express,,5800 Castle Hayne Rd ,,Castle Hayne ,NC,28429,United States,(910) 675-2441,,,,,,
Kangaroo Express,,4450 Gumbranch Road ,,Jacksonville ,NC,28540,United States,(910) 346-6777,,,,,,
Kangaroo Express,,2561 Onslow Drive ,,Jacksonville ,NC,28540,United States,(910) 346-6177,,,,,,
Kangaroo Express,,919 Durham Highway ,,Wake Forest ,NC,27703,United States,(919) 562-7823,,,,,,
Kangaroo Express,,3406 Hwy 70E & Page Road ,,Durham ,NC,27560,United States,(919) 598-1971,,,,,,
Kangaroo Express,,6317 Creedmoor Road ,,Raleigh ,NC,27612,United States,(919) 870-1108,,,,,,
Kangaroo Express,,4201 Pleasant Valley Rd ,,Raleigh ,NC,27612,United States,(919) 787-8248,,,,,,
Kangaroo Express,,2503 NC Hwy 55 ,,Durham ,NC,27713,United States,(919) 596-7756,,,,,,
Kangaroo Express,,3223 NC Hwy 55 ,,Durham ,NC,27713,United States,(919) 544-3464,,,,,,
Kangaroo Express,,8500 Harps Mill Road ,,Raleigh ,NC,27615,United States,(919) 872-0614,,,,,,
Kangaroo Express,,3321 Apex Hwy 55 ,,Durham ,NC,27713,United States,(919) 361-8026,,,,,,
Kangaroo Express,,100 Factory Shops Rd ,,Morrisville ,NC,27560,United States,(919) 467-6009,,,,,,
Kangaroo Express,,102 E Fort Street ,,Chatsworth ,GA,30705,United States,(706) 695-3796,,,,,,
Kangaroo Express,,6110 Highway 411 North ,,Chatsworth ,GA,30705,United States,(706) 695-7800,,,,,,
Kangaroo Express,,225 Green Rd Hwy 76 ,,Chatsworth ,GA,30705,United States,(706) 695-5256,,,,,,
Kangaroo Express,,1607 Highway 411 North ,,Chatsworth ,GA,30705,United States,(706) 517-3245,,,,,,
Kangaroo Express,,3120 Hwy 52 Alt ,,Chatsworth ,GA,30705,United States,(706) 695-4456,,,,,,
Kangaroo Express,,1211 Simmons Street ,,New Bern ,NC,28562,United States,(252) 633-5778,,,,,,
Kangaroo Express,,559 Queens St ,,Grifton ,NC,28530,United States,(252) 524-5653,,,,,,
Kangaroo Express,,250 North Main St ,,Troutman ,NC,28166,United States,(704) 528-4470,,,,,,
Kangaroo Express,,1542 Salisbury Highway ,,Statesville ,NC,28677,United States,(704) 873-6007,,,,,,
Kangaroo Express,,598 North Main Street ,,Mooresville ,NC,28115,United States,(704) 663-1539,,,,,,
Kangaroo Express,,703 N Main St ,,Mooresville ,NC,28115,United States,(704) 663-6153,,,,,,
Kangaroo Express,,354 S Main St ,,Mooresville ,NC,28115,United States,(704) 663-7217,,,,,,
Kangaroo Express,,3261 E Main Street ,,Claremont ,NC,28610,United States,(828) 459-7177,,,,,,
Kangaroo Express,,20008 W Catawba Ave ,,Cornelius ,NC,28031,United States,(704) 987-5019,,,,,,
Kangaroo Express,,2442 WNC Highway 10 ,,Newton ,NC,28658,United States,(828) 464-8953,,,,,,
Kangaroo Express,,16 Ocean Highway West ,,Supply ,NC,28462,United States,(910) 754-8787,,,,,,
Kangaroo Express,,100 Yaupon Dr ,,Oak Island ,NC,28465,United States,(910) 278-5749,,,,,,
Kangaroo Express,,1130 North Howe Street ,,Southport ,NC,28461,United States,(910) 457-4754,,,,,,
Kangaroo Express,,1708 Hwy 17 ,,Little River ,SC,29566,United States,(843) 280-0775,,,,,,
Kangaroo Express,,1599 US Hwy 17 ,,Little River ,SC,29566,United States,(843) 249-6740,,,,,,
Kangaroo Express,,860 Hwy 17 N ,,Little River ,SC,29566,United States,(843) 249-0099,,,,,,
Kangaroo Express,,4747 Maxwell Road ,,Stedman ,NC,28391,United States,(910) 321-9696,,,,,,
Kangaroo Express,,3319 Murphy ,,Fayetteville ,NC,28312,United States,(910) 483-5380,,,,,,
Kangaroo Express,,2110 Cedar Creek Road ,,Fayetteville ,NC,28312,United States,(910) 483-5515,,,,,,
Kangaroo Express,,144 Cedar Creek Rd ,,Fayetteville ,NC,28312,United States,(910) 484-7747,,,,,,
Kangaroo Express,,3653 US Hwy 301 South ,,Sharpsburg ,NC,27878,United States,(252) 446-3946,,,,,,
Kangaroo Express,,1208 Bragg Blvd ,,Fayetteville ,NC,28301,United States,(910) 485-8634,,,,,,
Kangaroo Express,,5762 Ramsey St ,,Fayetteville ,NC,28311,United States,(910) 488-5161,,,,,,
Kangaroo Express,,1302 Robeson Street ,,Fayetteville ,NC,28305,United States,(910) 485-7666,,,,,,
Kangaroo Express,,2990 Gillespie Street ,,Fayetteville ,NC,28306,United States,(910) 425-4955,,,,,,
Kangaroo Express,,6245 Ramsey Street ,,Fayetteville ,NC,28311,United States,(910) 480-0972,,,,,,
Kangaroo Express,,2270 Statesville Road ,,Salisbury ,NC,28147,United States,(704) 633-8977,,,,,,
Kangaroo Express,,405 S Bragg Blvd ,,Spring Lake ,NC,28390,United States,(910) 436-3563,,,,,,
Kangaroo Express,,2820 Lillington Hwy ,,Spring Lake ,NC,28390,United States,(910) 436-0514,,,,,,
Kangaroo Express,,316 Hwy 210 North ,,Spring Lake ,NC,28390,United States,(910) 436-3973,,,,,,
Kangaroo Express,,1525 North Bragg Blvd ,,Spring Lake ,NC,28390,United States,(910) 497-4243,,,,,,
Kangaroo Express,,801 North Main Street ,,Spring Lake ,NC,28390,United States,(910) 497-9161,,,,,,
Kangaroo Express,,2075 North Bragg Blvd ,,Spring Lake ,NC,28390,United States,(910) 497-8807,,,,,,
Kangaroo Express,,1886 N Bragg Blvd ,,Spring Lake ,NC,28390,United States,(910) 436-5623,,,,,,
Kangaroo Express,,2531 NC Hwy 87 S ,,Cameron ,NC,28326,United States,(919) 499-1923,,,,,,
Kangaroo Express,,1571 Mcarthur Road ,,Fayetteville ,NC,28311,United States,(910) 488-0928,,,,,,
Kangaroo Express,,6489 Yadkin Rd ,,Fayetteville ,NC,28303,United States,(910) 868-8005,,,,,,
Kangaroo Express,,300 S Salisbury St ,,Spencer ,NC,28159,United States,(704) 637-5708,,,,,,
Kangaroo Express,,264 East Main Street ,,Rockwell ,NC,28138,United States,(704) 279-5675,,,,,,
Kangaroo Express,,513 North Main Street ,,China Grove ,NC,28023,United States,(704) 857-6208,,,,,,
Kangaroo Express,,905 S Talbert Blvd ,,Lexington ,NC,27292,United States,(336) 249-6631,,,,,,
Kangaroo Express,,1401 Winston Rd ,,Lexington ,NC,27295,United States,(336) 249-9495,,,,,,
Kangaroo Express,,1145 Copperfield Blvd ,,Concord ,NC,28025-2410,United States,(704) 795-1920,,,,,,
Kangaroo Express,,3065 Dale Earnhardt Blvd ,,Kannapolis ,NC,28081,United States,(704) 795-7124,,,,,,
Kangaroo Express,,1529 Concord Pkwy North ,,Concord ,NC,28025,United States,(704) 786-4700,,,,,,
Kangaroo Express,,9615 Fayetteville Road ,,Raeford ,NC,28376,United States,(910) 875-7848,,,,,,
Kangaroo Express,,13 Hwy 90 East ,,Little River ,SC,29566,United States,(843) 399-3687,,,,,,
Kangaroo Express,,3498 Hwy 9 East ,,Little River ,SC,29566,United States,(843) 399-1706,,,,,,
Kangaroo Express,,400 Sea Mountain Hwy ,,North Myrtle Beach ,SC,29582,United States,(843) 249-4946,,,,,,
Kangaroo Express,,1137 N Brightleaf Blvd ,,Smithfield ,NC,27577,United States,(919) 934-8063,,,,,,
Kangaroo Express,,1331 Brightleaf Blvd ,,Smithfield ,NC,27577,United States,(919) 934-6055,,,,,,
Kangaroo Express,,2506 S Saunders And I 40 ,,Raleigh ,NC,27603,United States,(919) 743-0128,,,,,,
Kangaroo Express,,10081 Hwy 70 West ,,Clayton ,NC,27520,United States,(919) 550-1610,,,,,,
Kangaroo Express,,1900 Hwy 70 E ,,Garner ,NC,27529,United States,(919) 662-0336,,,,,,
Kangaroo Express,,400 Erwin Road ,,Dunn ,NC,28334,United States,(910) 892-3160,,,,,,
Kangaroo Express,,453 Buck Swamp Road ,,Goldsboro ,NC,27530,United States,(919) 735-5247,,,,,,
Kangaroo Express,,201 East 11th St Hwy 64 ,,Siler City ,NC,27344,United States,(919) 663-2077,,,,,,
Kangaroo Express,,1740 E 11th Street ,,Siler City ,NC,27344,United States,(919) 742-2552,,,,,,
Kangaroo Express,,1516 E 11th Street ,,Siler City ,NC,27344,United States,(919) 742-5181,,,,,,
Kangaroo Express,,1513 E 11th Street ,,Siler City ,NC,27344,United States,(919) 663-2950,,,,,,
Kangaroo Express,,127 East Swannanoa ,,Liberty ,NC,27298,United States,(336) 622-1900,,,,,,
Kangaroo Express,,620 West Street ,,Pittsboro ,NC,27312,United States,(919) 542-5165,,,,,,
Kangaroo Express,,196 Sanford Road ,,Pittsboro ,NC,27312,United States,(919) 542-3070,,,,,,
Kangaroo Express,,3006 Hawkins Avenue ,,Sanford ,NC,27330,United States,(919) 775-4099,,,,,,
Kangaroo Express,,11399 US 15 501 Hwy N ,,Chapel Hill ,NC,27516,United States,(919) 942-1037,,,,,,
Kangaroo Express,,1141 N Horner Blvd ,,Sanford ,NC,27330,United States,(919) 774-4422,,,,,,
Kangaroo Express,,123 North Main St ,,Shelby ,NC,28152,United States,(704) 434-5247,,,,,,
Kangaroo Express,,3600 W Dixson Blvd ,,Shelby ,NC,28152,United States,(704) 434-6649,,,,,,
Kangaroo Express,,225 Cleveland Ave ,,Kings Mountain ,NC,28086,United States,(704) 739-4440,,,,,,
Kangaroo Express,,403 Shelby Highway ,,Gaffney ,SC,29340,United States,(864) 488-0548,,,,,,
Kangaroo Express,,100 Shelby Hwy ,,Gaffney ,SC,29341,United States,(864) 489-1379,,,,,,
Kangaroo Express,,1711 Floyd Baker Blvd ,,Gaffney ,SC,29341,United States,(864) 488-2170,,,,,,
Kangaroo Express,,862 Windslow Ave ,,Gaffney ,SC,29341,United States,(864) 487-3394,,,,,,
Kangaroo Express,,1103 Hyatt Street ,,Gaffney ,SC,29341,United States,(864) 902-8403,,,,,,
Kangaroo Express,,2106 N Chester St ,,Gastonia ,NC,28052,United States,(704) 862-0557,,,,,,
Kangaroo Express,,2204 Chesnee Hwy ,,Spartanburg ,SC,29303,United States,(864) 542-0009,,,,,,
Kangaroo Express,,724 Skyland Blvd East ,,Tuscaloosa ,AL,35405,United States,(205) 750-8171,,,,,,
Kangaroo Express,,615 University Blvd ,,Tuscaloosa ,AL,35401,United States,(205) 750-8169,,,,,,
Kangaroo Express,,6718 Hwy 69 South ,,Tuscaloosa ,AL,35405,United States,(205) 345-3095,,,,,,
Kangaroo Express,,2400 McFarland Blvd ,,Tuscaloosa ,AL,35405,United States,(205) 750-8272,,,,,,
Kangaroo Express,,3850 University Blvd East ,,Tuscaloosa ,AL,35404,United States,(205) 556-4075,,,,,,
Kangaroo Express,,4751 Rice Mine Rd NE Suite A ,,Tuscaloosa ,AL,35406,United States,(205) 366-0117,,,,,,
Kangaroo Express,,4324 Hwy 69 N ,,Northport ,AL,35473,United States,(205) 333-9194,,,,,,
Kangaroo Express,,1701 Lurleen Wallace Blvd ,,Northport ,AL,35476,United States,(205) 333-3101,,,,,,
Kangaroo Express,,4500 Highway 171 ,,Northport ,AL,35473,United States,(205) 339-7828,,,,,,
Kangaroo Express,,12001 Highway 43 North ,,Northport ,AL,35475,United States,(205) 333-9678,,,,,,
Kangaroo Express,,1115 Randolph Street ,,Thomasville ,NC,27360,United States,(336) 472-6949,,,,,,
Kangaroo Express,,705 National Highway ,,Thomasville ,NC,27360,United States,(336) 475-4836,,,,,,
Kangaroo Express,,1901 Westchester Drive ,,High Point ,NC,27262,United States,(336) 884-8516,,,,,,
Kangaroo Express,,2608 S Main Street ,,High Point ,NC,27263,United States,(336) 886-4217,,,,,,
Kangaroo Express,,11315 N Main Street ,,Archdale ,NC,27263,United States,(336) 431-5115,,,,,,
Kangaroo Express,,820 North Main St ,,High Point ,NC,27262,United States,(336) 884-3585,,,,,,
Kangaroo Express,,295 East Parris Ave ,,High Point ,NC,27262,United States,(336) 869-0278,,,,,,
Kangaroo Express,,199 Main Street ,,Trussville ,AL,35173,United States,(205) 655-7976,,,,,,
Kangaroo Express,,6408 Old Springville Rd ,,Pinson ,AL,35126,United States,(205) 681-3851,,,,,,
Kangaroo Express,,9401 Parkway East ,,Birmingham ,AL,35235,United States,(205) 836-3941,,,,,,
Kangaroo Express,,232 Roebuck Plaza Dr ,,Birmingham ,AL,35206,United States,(205) 833-5411,,,,,,
Kangaroo Express,,2803 Pinson Valley Parkway ,,Birmingham ,AL,35215,United States,(205) 849-8817,,,,,,
Kangaroo Express,,7701 1st Ave North ,,Birmingham ,AL,35206,United States,(205) 836-5392,,,,,,
Kangaroo Express,,1816 Crestwood Blvd ,,Irondale ,AL,35210,United States,(205) 951-0244,,,,,,
Kangaroo Express,,1685 Montclair Road ,,Birmingham ,AL,35210,United States,(205) 956-1105,,,,,,
Kangaroo Express,,1700 Tallapoosa Street ,,Birmingham ,AL,35234,United States,(205) 808-3879,,,,,,
Kangaroo Express,,3935 Crosshaven Drive ,,Birmingham ,AL,35243,United States,(205) 967-2233,,,,,,
Kangaroo Express,,101 US 231 South ,,Troy ,AL,36081,United States,(334) 566-1337,,,,,,
Kangaroo Express,,3934 Hwy 231 South ,,Ozark ,AL,36360,United States,(334) 445-3999,,,,,,
Kangaroo Express,,7821 Vaughn Road ,,Montgomery ,AL,36116,United States,(334) 260-9300,,,,,,
Kangaroo Express,,966 West South Blvd ,,Montgomery ,AL,36105,United States,(334) 286-8972,,,,,,
Kangaroo Express,,6500 Atlanta Highway ,,Montgomery ,AL,36117,United States,(334) 270-0152,,,,,,
Kangaroo Express,,14930 S US Highway 231 ,,Midland City ,AL,36350,United States,(334) 984-2202,,,,,,
Kangaroo Express,,14930 S US Hwy 231 ,,Midland City ,AL,36350,United States,(334) 984-2204,,,,,,
Kangaroo Express,,716 South Memorial Dr ,,Prattville ,AL,36067,United States,(334) 361-6044,,,,,,
Kangaroo Express,,5550 US Hwy 90 West ,,Theodore ,AL,36582,United States,(251) 653-8544,,,,,,
Kangaroo Express,,5809 Hwy 90 ,,Theodore ,AL,36582,United States,(251) 653-4509,,,,,,
Kangaroo Express,,6225 Three Notch Road ,,Mobile ,AL,36619,United States,(251) 662-7861,,,,,,
Kangaroo Express,,7102 Cottage Hill Rd ,,Mobile ,AL,36695,United States,(251) 776-6258,,,,,,
Kangaroo Express,,8130 Cottage Hill Road ,,Mobile ,AL,36695,United States,(251) 607-9986,,,,,,
Kangaroo Express,,10 North University Blvd ,,Mobile ,AL,36608,United States,(251) 344-4127,,,,,,
Kangaroo Express,,1 Creel Rd ,,Grand Bay ,AL,36541,United States,(251) 865-6775,,,,,,
Kangaroo Express,,3471 Spring Hill Ave ,,Mobile ,AL,36608,United States,(251) 342-9996,,,,,,
Kangaroo Express,,3351 Spring Hill Ave ,,Mobile ,AL,36607,United States,(251) 476-6950,,,,,,
Kangaroo Express,,7801 Moffett Rd ,,Semmes ,AL,36575,United States,(251) 649-7069,,,,,,
Kangaroo Express,,6490 US Hwy 90 ,,Spanish Fort ,AL,36527,United States,(251) 625-4272,,,,,,
Kangaroo Express,,410 D Olive Street ,,Bay Minette ,AL,36507,United States,(251) 937-8482,,,,,,
Kangaroo Express,,303 S Hwy 31 ,,Bay Minette ,AL,36507,United States,(251) 937-4610,,,,,,
Kangaroo Express,,49980 State Hwy 225 ,,Bay Minette ,AL,36507,United States,(251) 937-0549,,,,,,
Kangaroo Express,,5505 Hwy 43 ,,Satsuma ,AL,36572,United States,(251) 679-1838,,,,,,
Kangaroo Express,,315 West Lee Street ,,Chickasaw ,AL,36611,United States,(251) 457-6029,,,,,,
Kangaroo Express,,314 West Lee Street ,,Chickasaw ,AL,36611,United States,(251) 330-1616,,,,,,
Kangaroo Express,,807 Celeste Rd ,,Saraland ,AL,36571,United States,(251) 679-1371,,,,,,
Kangaroo Express,,4319 Jackson Highway ,,Sheffield ,AL,35660,United States,(256) 386-8223,,,,,,
Kangaroo Express,,2525 Avalon Avenue ,,Muscle Shoals ,AL,35661,United States,(256) 386-7443,,,,,,
Kangaroo Express,,602 Cox Creek Parkway ,,Florence ,AL,35630,United States,(256) 760-5221,,,,,,
Kangaroo Express,,2317 Hwy 31 S/I 65 exit 334 ,,Decatur ,AL,35601,United States,(256) 301-9989,,,,,,
Kangaroo Express,,100 Hwy 72 East ,,Corinth ,MS,38834,United States,(662) 287-4666,,,,,,
Kangaroo Express,,6278 University Drive ,,Huntsville ,AL,35806,United States,(256) 837-2186,,,,,,
Kangaroo Express,,540 Jordan Lane NW ,,Huntsville ,AL,35805,United States,(256) 536-8556,,,,,,
Kangaroo Express,,613 Hwy 78 E ,,Jasper ,AL,35501,United States,(205) 221-9515,,,,,,
Kangaroo Express,,5000 Memorial Pkwy NW ,,Huntsville ,AL,35810,United States,(256) 859-2279,,,,,,
Kangaroo Express,,11040 South Memorial Pkwy ,,Huntsville ,AL,35803,United States,(256) 883-6344,,,,,,
Kangaroo Express,,21700 John T Reid Pkwy ,,Scottsboro ,AL,35769,United States,(256) 259-4114,,,,,,
Kangaroo Express,,21700 John T Reid Pkway ,,Scottsboro ,AL,35769,United States,(256) 259-3550,,,,,,
Kangaroo Express,,1707 Glenn Blvd ,,Fort Payne ,AL,35968,United States,(256) 997-9925,,,,,,
Kangaroo Express,,2242 US Highway 431 ,,Boaz ,AL,35957,United States,(256) 593-1779,,,,,,
Kangaroo Express,,1846 Hwy 14 E ,,Prattville ,AL,36066,United States,(334) 361-8037,,,,,,
Kangaroo Express,,21195 Highway 25 ,,Columbiana ,AL,35051,United States,(205) 669-4362,,,,,,
Kangaroo Express,,2112 Butler Road ,,Alabaster ,AL,35007,United States,(205) 663-1198,,,,,,
Kangaroo Express,,32344 US Highway 280 ,,Childersburg ,AL,35044,United States,(256) 378-3876,,,,,,
Kangaroo Express,,7994 Helena Road ,,Pelham ,AL,35124,United States,(205) 987-8039,,,,,,
Kangaroo Express,,715 Cahaba Valley Rd ,,Pelham ,AL,35124,United States,(205) 987-1484,,,,,,
Kangaroo Express,,2078 A Valleydale Rd ,,Birmingham ,AL,35244,United States,(205) 988-4940,,,,,,
Kangaroo Express,,3640 Lorna Road ,,Hoover ,AL,35216,United States,(205) 988-0623,,,,,,
Kangaroo Express,,2501 John Hawkins Pkwy ,,Hoover ,AL,35244,United States,(205) 982-9103,,,,,,
Kangaroo Express,,2677 Valleydale Road ,,Birmingham ,AL,35244,United States,(205) 995-9361,,,,,,
Kangaroo Express,,1107A Townhouse Road ,,Helena ,AL,35080,United States,(205) 664-8747,,,,,,
Kangaroo Express,,2195 Hwy 150 ,,Hoover ,AL,35244,United States,(205) 402-0621,,,,,,
Kangaroo Express,,701 Key Drive ,,Birmingham ,AL,35242,United States,(205) 980-9652,,,,,,
Kangaroo Express,,821 Green Springs Hwy ,,Homewood ,AL,35209,United States,(205) 945-8211,,,,,,
Kangaroo Express,,1601 Hwy 21 S I 20 ,,Oxford ,AL,36203,United States,(256) 831-1239,,,,,,
Kangaroo Express,,800 South Quintard Ave ,,Anniston ,AL,36201,United States,(256) 235-0365,,,,,,
Kangaroo Express,,851 Lagarde Avenue ,,Anniston ,AL,36201,United States,(256) 236-7919,,,,,,
Kangaroo Express,,1747 Rainbow Drive ,,Gadsden ,AL,35901,United States,(256) 549-1869,,,,,,
Kangaroo Express,,1205 W Meighan Blvd ,,Gadsden ,AL,35901,United States,(256) 549-0170,,,,,,
Kangaroo Express,,100 Taylor Drive ,,Gadsden ,AL,35904,United States,(256) 538-8815,,,,,,
Kangaroo Express,,5525 McFarland Blvd ,,Northport ,AL,35476,United States,(205) 339-0070,,,,,,
Kangaroo Express,,20 Hwy 21 South ,,Monroeville ,AL,36460,United States,(251) 743-4102,,,,,,
Kangaroo Express,,24599 Hwy 41 ,,Brewton ,AL,36426,United States,(251) 248-2948,,,,,,
Kangaroo Express,,13400 Hwy 113 ,,Brewton ,AL,36426,United States,(251) 296-7214,,,,,,
Kangaroo Express,,603 Bessemer Road ,,Midfield ,AL,35228,United States,(205) 923-8738,,,,,,
Kangaroo Express,,2258 Bessemer Rd ,,Birmingham ,AL,35208,United States,(205) 786-5000,,,,,,
Kangaroo Express,,301 Robert Jemison Rd ,,Birmingham ,AL,35209,United States,(205) 942-9256,,,,,,
Kangaroo Express,,400 Green Springs Hwy ,,Homewood ,AL,35209,United States,(205) 942-6692,,,,,,
Kangaroo Express,,580 14th St South ,,Bessemer ,AL,35020,United States,(205) 428-1385,,,,,,
Kangaroo Express,,1200 Bankhead Hwy W ,,Birmingham ,AL,35204,United States,(205) 323-4775,,,,,,
Kangaroo Express,,1200 W Bankhead Hwy ,,Birmingham ,AL,35204,United States,(205) 214-5761,,,,,,
Kangaroo Express,,830 9th Ave North ,,Bessemer ,AL,35020,United States,(205) 424-6595,,,,,,
Kangaroo Express,,1503 11th Ave South ,,Birmingham ,AL,35205,United States,(205) 933-9544,,,,,,
Kangaroo Express,,1050 South Main St ,,Graysville ,AL,35073,United States,(205) 674-9022,,,,,,
Kangaroo Express,,15463 HWY 216 ,,Brookwood ,AL,35444,United States,(205) 556-2605,,,,,,
Kangaroo Express,,702 S Cannon Blvd ,,Shelbyville ,TN,37160,United States,(931) 684-4914,,,,,,
Kangaroo Express,,2098 Madison St ,,Shelbyville ,TN,37160,United States,(931) 684-2027,,,,,,
Kangaroo Express,,7100 Hwy 63 ,,Moss Point ,MS,39563,United States,(228) 474-6303,,,,,,
Kangaroo Express,,2410 Owen Drive ,,Fayetteville ,NC,28306,United States,(910) 485-4687,,,,,,
Kangaroo Express,,2326 Owen Dr ,,Fayetteville ,NC,28306,United States,(910) 485-1767,,,,,,
Kangaroo Express,,3330 Natal St ,,Fayetteville ,NC,28306,United States,(910) 425-5819,,,,,,
Kangaroo Express,,1902 Owen Drive ,,Fayetteville ,NC,28306,United States,(910) 484-4724,,,,,,
Kangaroo Express,,2450 Ireland Dr ,,Fayetteville ,NC,28306,United States,(910) 424-3193,,,,,,
Kangaroo Express,,1764 Ireland Dr ,,Fayetteville ,NC,28304,United States,(910) 485-7887,,,,,,
Kangaroo Express,,826 S Main Street ,,Scotland Neck ,NC,27874,United States,(252) 826-4397,,,,,,
Kangaroo Express,,1400 North Church Street ,,Rocky Mount ,NC,27804,United States,(252) 446-8923,,,,,,
Kangaroo Express,,235 North Fairview Road ,,Rocky Mount ,NC,27801,United States,(252) 977-1304,,,,,,
Kangaroo Express,,425 W Thomas Street ,,Rocky Mount ,NC,27804,United States,(252) 442-4998,,,,,,
Kangaroo Express,,1630 Sunset Avenue ,,Rocky Mount ,NC,27804,United States,(252) 442-1800,,,,,,
Kangaroo Express,,240 S Wesleyan Blvd ,,Rocky Mount ,NC,27804,United States,(252) 443-7702,,,,,,
Kangaroo Express,,1612 Tramway Road ,,Sanford ,NC,27332,United States,(919) 774-8619,,,,,,
Kangaroo Express,,14591 NC 27 West ,,Sanford ,NC,27332,United States,(919) 499-6476,,,,,,
Kangaroo Express,,429 East Weatherspoon St ,,Sanford ,NC,27330,United States,(919) 774-9573,,,,,,
Kangaroo Express,,1413 Broadway Road ,,Sanford ,NC,27332,United States,(919) 775-2141,,,,,,
Kangaroo Express,,2206 Jefferson Davis Hwy ,,Sanford ,NC,27330,United States,(919) 775-1929,,,,,,
Kangaroo Express,,1130 N Horner Blvd ,,Sanford ,NC,27330,United States,(919) 775-5013,,,,,,
Kangaroo Express,,809 Carthage St ,,Sanford ,NC,27330,United States,(919) 774-8719,,,,,,
Kangaroo Express,,1005 Spring Lane ,,Sanford ,NC,27330,United States,(919) 774-6065,,,,,,
Kangaroo Express,,812 South Horner Blvd ,,Sanford ,NC,27330,United States,(919) 774-4731,,,,,,
Kangaroo Express,,4470 NC Hwy 87 South ,,Sanford ,NC,27332,United States,(919) 498-3408,,,,,,
Kangaroo Express,,1007 Spring Lane ,,Sanford ,NC,27330,United States,(919) 775-5743,,,,,,
Kangaroo Express,,2062 Horner Blvd ,,Sanford ,NC,27330,United States,(919) 774-7904,,,,,,
Kangaroo Express,,998 Academy Drive ,,Bessemer ,AL,35022,United States,(205) 424-2374,,,,,,
Kangaroo Express,,101 E King St ,,King ,NC,27021,United States,(336) 983-8243,,,,,,
Kangaroo Express,,3537 Sunset Avenue ,,Rocky Mount ,NC,27804,United States,(252) 443-3736,,,,,,
Kangaroo Express,,546 Ashdale Court ,,Concord ,NC,28027,United States,(704) 788-6961,,,,,,
Kangaroo Express,,8501 Concord Mills Blvd ,,Concord ,NC,28027,United States,(704) 979-3876,,,,,,
Kangaroo Express,,226 W Harrison St ,,Reidsville ,NC,27320,United States,(336) 349-3668,,,,,,
Kangaroo Express,,101 Pisgah Church Rd ,,Greensboro ,NC,27405,United States,(336) 621-5511,,,,,,
Kangaroo Express,,621 Green Valley Rd ,,Greensboro ,NC,27408,United States,(336) 299-7971,,,,,,
Kangaroo Express,,4330 Louisburg Road ,,Raleigh ,NC,27604,United States,(919) 872-0059,,,,,,
Kangaroo Express,,3741 Capital Blvd ,,Raleigh ,NC,27604,United States,(919) 875-0098,,,,,,
Kangaroo Express,,2101 Millbrook Road ,,Raleigh ,NC,27616,United States,(919) 790-0743,,,,,,
Kangaroo Expess,,1920 Rock Quarry Rd ,,Raleigh ,NC,27610,United States,,,,,,,
Kangaroo Express,,3721 Tryon Road ,,Raleigh ,NC,27606,United States,(919) 838-1456,,,,,,
Kangaroo Express,,3289 Avent Ferry Rd ,,Raleigh ,NC,27606,United States,(919) 851-4889,,,,,,
Kangaroo Express,,4302 Wake Forest Road ,,Raleigh ,NC,27609,United States,(919) 878-0864,,,,,,
Kangaroo Express,,3128 Capital Blvd ,,Raleigh ,NC,27604,United States,(919) 876-7980,,,,,,
Kangaroo Express,,7910 Raeford Road ,,Fayetteville ,NC,28314,United States,(910) 868-8090,,,,,,
Kangaroo Express,,8191 Cliffdale Rd ,,Fayetteville ,NC,28314,United States,(910) 867-1465,,,,,,
Kangaroo Express,,736 S Reilly Rd ,,Fayetteville ,NC,28314,United States,(910) 864-6344,,,,,,
Kangaroo Express,,6777 Raeford Rd ,,Fayetteville ,NC,28304,United States,(910) 868-0894,,,,,,
Kangaroo Express,,500 Bunce Rd ,,Fayetteville ,NC,28314,United States,(910) 868-8541,,,,,,
Kangaroo Express,,6605 Raeford Rd ,,Fayetteville ,NC,28304,United States,(910) 868-4041,,,,,,
Kangaroo Express,,100 Reilly Road ,,Fayetteville ,NC,28314,United States,(910) 864-3273,,,,,,
Kangaroo Express,,6428 Camden Road ,,Fayetteville ,NC,28306,United States,(910) 424-2189,,,,,,
Kangaroo Express,,6454 Rockfish Rd ,,Hope Mills ,NC,28306,United States,(910) 424-5168,,,,,,
Kangaroo Express,,500 Jones Ferry Road ,,Carrboro ,NC,27510,United States,(919) 942-3450,,,,,,
Kangaroo Express,,102 B Hwy 54W ,,Carrboro ,NC,27510,United States,(919) 933-0482,,,,,,
Kangaroo Express,,100 South Polk Street ,,Pineville ,NC,28134,United States,(704) 889-2521,,,,,,
Kangaroo Express,,10329 Park Road ,,Charlotte ,NC,28210,United States,(704) 543-0887,,,,,,
Kangaroo Express,,9716 South Blvd ,,Charlotte ,NC,28273,United States,(704) 553-8547,,,,,,
Kangaroo Express,,3473 US Hwy 21 ,,Fort Mill ,SC,29715,United States,(803) 547-0714,,,,,,
Kangaroo Express,,249 Carowinds Blvd ,,Fort Mill ,SC,29708,United States,(803) 547-0561,,,,,,
Kangaroo Express,,9424 S Tryon St ,,Charlotte ,NC,28273,United States,(704) 588-4047,,,,,,
Kangaroo Express,,8505 S Tryon Street ,,Charlotte ,NC,28273,United States,(704) 587-0155,,,,,,
Kangaroo Express,,6500 Fairview Road ,,Charlotte ,AL,36117,United States,(704) 366-3117,,,,,,
Kangaroo Express,,421 Tyvola Road ,,Charlotte ,NC,28217,United States,(704) 523-5379,,,,,,
Kangaroo Express,,921 W Broad Street ,,Saint Pauls ,NC,28384,United States,(910) 865-2747,,,,,,
Kangaroo Express,,327 Chicken Foot Road ,,Hope Mills ,NC,28348,United States,(910) 423-4710,,,,,,
Kangaroo Express,,674 Chicken Foot Road ,,Hope Mills ,NC,28348,United States,(910) 423-4436,,,,,,
Kangaroo Express,,5617 Rockfish Rd/Hwy 59 ,,Hope Mills ,NC,28348,United States,(910) 424-2443,,,,,,
Kangaroo Express,,4000 South Main St ,,Hope Mills ,NC,28348,United States,(910) 425-1371,,,,,,
Kangaroo Express,,3458 N Main St ,,Hope Mills ,NC,28348,United States,(910) 425-1228,,,,,,
Kangaroo Express,,2501 Hope Mills Road ,,Fayetteville ,NC,28306,United States,(910) 425-5161,,,,,,
Kangaroo Express,,1501 Highway 17 North ,,North Myrtle Beach ,SC,29582,United States,(843) 249-7415,,,,,,
Kangaroo Express,,334 East 20th St ,,Newton ,NC,28658,United States,(828) 464-2512,,,,,,
Kangaroo Express,,506 Southwest Blvd ,,Newton ,NC,28658,United States,(828) 465-0530,,,,,,
Kangaroo Express,,807 Conover Blvd ,,Conover ,NC,28613,United States,(828) 465-0060,,,,,,
Kangaroo Express,,1612 Conover Blvd East ,,Conover ,NC,28613,United States,(828) 465-0180,,,,,,
Kangaroo Express,,1200 E Main St ,,Maiden ,NC,28650,United States,(828) 428-3211,,,,,,
Kangaroo Express,,2350 Hwy 70 SE ,,Hickory ,NC,28602,United States,(828) 326-9234,,,,,,
Kangaroo Express,,873 Longbranch Rd ,,Dunn ,NC,28334,United States,(910) 892-6163,,,,,,
Kangaroo Express,,873 Longbranch Road ,,Dunn ,NC,28334,United States,(910) 892-3642,,,,,,
Kangaroo Express,,1234 E Main Street ,,Havelock ,NC,28532,United States,(252) 444-6255,,,,,,
Kangaroo Express,,116 Piney Green Rd ,,Jacksonville ,NC,28546,United States,(910) 346-6182,,,,,,
Kangaroo Express,,1070 Piney Green Road ,,Jacksonville ,NC,28546,United States,(910) 346-5044,,,,,,
Kangaroo Express,,700 E New Bern Road ,,Kinston ,NC,28501,United States,(252) 523-2915,,,,,,
Kangaroo Express,,302 WB McLean Dr ,,Cape Carteret ,NC,28584,United States,(252) 393-7951,,,,,,
Kangaroo Express,,509 E New Bern Rd ,,Kinston ,NC,28504,United States,(252) 527-8994,,,,,,
Kangaroo Express,,100 Rankin Ave ,,Mt Holly ,NC,28120,United States,(704) 827-5236,,,,,,
Kangaroo Express,,6441 Wilkinson Blvd ,,Belmont ,NC,28012,United States,(704) 825-8452,,,,,,
Kangaroo Express,,3794 E Franklin Blvd ,,Gastonia ,NC,28056,United States,(704) 824-3779,,,,,,
Kangaroo Express,,516 Cox Road ,,Gastonia ,NC,28054,United States,(704) 862-0563,,,,,,
Kangaroo Express,,2434 S New Hope Rd ,,Gastonia ,NC,28054,United States,(704) 866-8350,,,,,,
Kangaroo Express,,2483 Franklin Blvd ,,Gastonia ,NC,28054,United States,(704) 865-3521,,,,,,
Kangaroo Express,,3800 Wilkinson Blvd ,,Charlotte ,NC,28208,United States,(704) 395-8819,,,,,,
Kangaroo Express,,2301 Beaties Ford Road ,,Charlotte ,NC,28216-4313,United States,(704) 697-8745,,,,,,
Kangaroo Express,,605 Clanton Road ,,Charlotte ,NC,28217-1311,United States,(704) 523-1171,,,,,,
Kangaroo Express,,3610 Davis Drive ,,Morrisville ,NC,27560,United States,(919) 463-7654,,,,,,
Kangaroo Express,,1032 N Harrison Ave ,,Cary ,NC,27513,United States,(919) 468-9848,,,,,,
Kangaroo Express,,1807 Harrison Ave ,,Cary ,NC,27513,United States,(919) 677-1808,,,,,,
Kangaroo Express,,1410 W Williams St ,,Apex ,NC,27523,United States,(919) 363-4582,,,,,,
Kangaroo Express,,1800 Laura Duncan Rd ,,Apex ,NC,27523,United States,(919) 387-7894,,,,,,
Kangaroo Express,,2322 Highway 54 ,,Durham ,NC,27713,United States,(919) 544-1318,,,,,,
Kangaroo Express,,302 East Williams Street ,,Apex ,NC,27502,United States,(919) 387-3947,,,,,,
Kangaroo Express,,705 E Williams Street ,,Apex ,NC,27502,United States,(919) 362-1164,,,,,,
Kangaroo Express,,1001 SE Cary Parkway ,,Cary ,NC,27518,United States,(919) 851-6683,,,,,,
Kangaroo Express,,501 W 3rd St ,,Pembroke ,NC,28372,United States,(910) 521-8700,,,,,,
Kangaroo Express,,504 W Martin Luther King ,,Maxton ,NC,28364,United States,(910) 844-3890,,,,,,
Kangaroo Express,,1135 S Main St ,,Laurinburg ,NC,28352,United States,(910) 276-2071,,,,,,
Kangaroo Express,,201 Hwy 301 South ,,Dillon ,SC,29536,United States,(843) 774-4416,,,,,,
Kangaroo Express,,5230 Hwy 70 W ,,Morehead City ,NC,28557,United States,(252) 727-0070,,,,,,
Kangaroo Express,,407 E Fort Macon Rd ,,Atlantic Beach ,NC,28512,United States,(252) 726-8974,,,,,,
Kangaroo Express,,1501 Live Oak St ,,Beaufort ,NC,28516,United States,(252) 728-5885,,,,,,
Kangaroo Express,,2865 Piney Green Rd ,,Midway Park ,NC,28544,United States,(910) 353-9091,,,,,,
Kangaroo Express,,2868 Piney Green Rd ,,Jacksonville ,NC,28544,United States,(910) 577-0261,,,,,,
Kangaroo Express,,1731 Lejeune Blvd ,,Jacksonville ,NC,28546,United States,(910) 577-5689,,,,,,
Kangaroo Express,,7405 Hwy 73 ,,Denver ,NC,28037,United States,(704) 827-6647,,,,,,
Kangaroo Express,,980 US 1 N & Wiregrass Rd ,,Rockingham ,NC,28379,United States,(910) 895-6441,,,,,,
Kangaroo Express,,104 S Cheraw Road ,,Hamlet ,NC,28345,United States,(910) 582-5037,,,,,,
Kangaroo Express,,1805 N Morgan Mill Rd ,,Monroe ,NC,28110,United States,,,,,,,
Kangaroo Express,,13719 Hwy 74 W ,,Indian Trail ,NC,28079,United States,(704) 882-2323,,,,,,
Kangaroo Express,,100 East John Street ,,Matthews ,NC,28105,United States,(704) 847-4309,,,,,,
Kangaroo Express,,7208 E Independence Blvd ,,Charlotte ,NC,28227,United States,(704) 537-7740,,,,,,
Kangaroo Express,,4600 Independence Blvd ,,Charlotte ,NC,28212,United States,(704) 535-8528,,,,,,
Kangaroo Express,,4500 Randolph Road ,,Charlotte ,NC,28211,United States,(704) 367-2662,,,,,,
Kangaroo Express,,8910 Albemarle Road ,,Charlotte ,NC,28227,United States,(704) 536-6195,,,,,,
Kangaroo Express,,7035 East WT Harris Blvd ,,Charlotte ,NC,28215,United States,(704) 531-1697,,,,,,
Kangaroo Express,,1404 S Main St ,,Lillington ,NC,27546,United States,(910) 893-8503,,,,,,
Kangaroo Express,,41 E Cornelius Harnett Bl ,,Lillington ,NC,27546,United States,(910) 893-6713,,,,,,
Kangaroo Express,,770 N Raleigh Street ,,Angier ,NC,27501,United States,(919) 639-2327,,,,,,
Kangaroo Express,,1237 North Main St ,,Fuquay-Varina ,NC,27526,United States,(919) 552-7406,,,,,,
Kangaroo Express,,1529 N Main Street ,,Fuquay-Varina ,NC,27526,United States,(919) 552-0557,,,,,,
Kangaroo Express,,1720 North Main St ,,Fuquay-Varina ,NC,27526,United States,(919) 552-8124,,,,,,
Kangaroo Express,,12457 Hwy 421 South ,,Broadway ,NC,27505,United States,(919) 258-5923,,,,,,
Kangaroo Express,,2230 East Main St ,,Lincolnton ,NC,28092,United States,(704) 735-0164,,,,,,
Kangaroo Express,,1627 East Main St ,,Lincolnton ,NC,28092,United States,(704) 735-0223,,,,,,
Kangaroo Express,,200 North Main Street ,,Broadway ,NC,27505,United States,(919) 258-9331,,,,,,
Kangaroo Express,,1690 Hwy 258 N ,,Kinston ,NC,28504,United States,(252) 522-3636,,,,,,
Kangaroo Express,,2011 W Vernon Ave ,,Kinston ,NC,28504,United States,(252) 527-1855,,,,,,
Kangaroo Express,,2305 N Heritage St ,,Kinston ,NC,28501,United States,(252) 523-0840,,,,,,
Kangaroo Express,,515 E New Hope Road ,,Goldsboro ,NC,27534,United States,(919) 751-0014,,,,,,
Kangaroo Express,,1818 N Berkeley Blvd ,,Goldsboro ,NC,27534,United States,(919) 751-3551,,,,,,
Kangaroo Express,,801 HWY 66 South ,,Kernersville ,NC,27284,United States,(336) 996-6646,,,,,,
Kangaroo Express,,601 Gallimore Dairy Rd ,,High Point ,NC,27265,United States,(336) 812-8637,,,,,,
Kangaroo Express,,100 W Ocean Bay Blvd ,,Kill Devil Hills ,NC,27948,United States,(252) 441-7188,,,,,,
Kangaroo Express,,1400 South Croatan Hwy ,,Kill Devil Hills ,NC,27948,United States,(252) 441-3881,,,,,,
Kangaroo Express,,1800 N Croatan Hwy ,,Kill Devil Hills ,NC,27948,United States,(252) 480-2676,,,,,,
Kangaroo Express,,200 N Broad Street ,,Edenton ,NC,27932,United States,(252) 482-4854,,,,,,
Kangaroo Express,,2606 N William Street ,,Goldsboro ,NC,27530,United States,(919) 731-7251,,,,,,
Kangaroo Express,,10409 Mallard Creek Rd ,,Charlotte ,NC,28269,United States,(704) 548-9539,,,,,,
Kangaroo Express,,6404 University Blvd E ,,Cottondale ,AL,35453,United States,(205) 553-4167,,,,,,
Kangaroo Express,,16725 Highway 280 ,,Chelsea ,AL,35043,United States,(205) 678-9078,,,,,,
Kangaroo Express,,2415 Hwy 160 West ,,Tega Cay ,SC,29708,United States,(803) 547-8340,,,,,,
Kangaroo Express,,4044 Charlotte Hwy ,,Lake Wylie ,SC,29710,United States,(803) 831-0585,,,,,,
Kangaroo Express,,4568 Charlotte Hwy ,,Lake Wylie ,SC,29710,United States,(803) 831-7834,,,,,,
Kangaroo Express,,12728 E Central Ave ,,Wichita ,KS,67206,United States,(316) 652-0929,,,,,,
Kangaroo Express,,4821 S Broadway St ,,Wichita ,KS,67216,United States,(316) 522-6660,,,,,,
Kangaroo Express,,2190 N Rock Rd ,,Wichita ,KS,67206,United States,(316) 634-1850,,,,,,
Kangaroo Express,,7236 W 21st St N ,,Wichita ,KS,67205,United States,(316) 722-0576,,,,,,
Kangaroo Express,,1350 N Oliver St ,,Wichita ,KS,67208,United States,(316) 681-7453,,,,,,
Kangaroo Express,,1254 S Tyler Rd ,,Wichita ,KS,67209,United States,(316) 721-4478,,,,,,
Kangaroo Express,,4414 W Maple St ,,Wichita ,KS,67209,United States,(316) 945-6663,,,,,,
Kangaroo Express,,7136 W Central Ave ,,Wichita ,KS,67212,United States,(316) 942-4842,,,,,,
Kangaroo Express,,515 N Seneca St ,,Wichita ,KS,67203,United States,(316) 263-2452,,,,,,
Kangaroo Express,,1250 S Rock Rd ,,Wichita ,KS,67207,United States,(316) 683-6202,,,,,,
Kangaroo Express,,2001 S Oliver St ,,Wichita ,KS,67218,United States,(316) 685-4224,,,,,,
Kangaroo Express,,1139 Martin Luther King Expy ,,Andalusia ,AL,36420,United States,(334) 222-6264,,,,,,
Kangaroo Express,,3311 N Rock Rd ,,Wichita ,KS,67226,United States,(316) 634-0663,,,,,,
Kangaroo Express,,2356 S Seneca St ,,Wichita ,KS,67213,United States,(316) 264-5566,,,,,,
Kangaroo Express,,1310 S Main St ,,Scott City ,KS,67871,United States,(620) 872-5137,,,,,,
Kangaroo Express,,410 Broadway St ,,Leoti ,KS,67861,United States,(620) 375-2241,,,,,,
Kangaroo Express,,7935 W US Hwy 50 ,,Holcomb ,KS,67851,United States,(620) 277-2321,,,,,,
Kangaroo Express,,2522 N Taylor Ave ,,Garden City ,KS,67846,United States,(620) 276-6494,,,,,,
Kangaroo Express,,511 E Kansas Ave ,,Garden City ,KS,67846,United States,(620) 275-1913,,,,,,
Kangaroo Express,,501 E Fulton St ,,Garden City ,KS,67846-5759,United States,(620) 276-8752,,,,,,
Kangaroo Express,,516 N Main St ,,Lakin ,KS,67860-9775,United States,(620) 355-6581,,,,,,
Kangaroo Express,,111 E Avenue A ,,Cimarron ,KS,67835,United States,(620) 855-2487,,,,,,
Kangaroo Express,,222 Main St ,,Jetmore ,KS,67854,United States,(620) 357-8369,,,,,,
Kangaroo Express,,500 W Texcoco St ,,Montezuma ,KS,67867,United States,(620) 846-2833,,,,,,
Kangaroo Express,,6115 N Air Cap Dr ,,Park City ,KS,67219-2104,United States,(316) 744-2045,,,,,,
Kangaroo Express,,440 S Kansas Ave ,,Liberal ,KS,67901,United States,(620) 626-7804,,,,,,
Kangaroo Express,,1000 S Main St ,,Hugoton ,KS,67951,United States,(620) 544-2768,,,,,,
Kangaroo Express,,809 W La Lande Ave ,,Sublette ,KS,67877,United States,(620) 675-8519,,,,,,
Kangaroo Express,,1020 S Harrison St ,,Olathe ,KS,66061-4689,United States,(913) 768-0997,,,,,,
Kangaroo Express,,905 E Santa Fe St ,,Gardner ,KS,66030-1550,United States,(913) 856-2497,,,,,,
Kangaroo Express,,649 E Bannister Rd ,,Kansas City ,MO,64131-3005,United States,(816) 333-2433,,,,,,
Kangaroo Express,,9500 Blue Ridge Blvd ,,Kansas City ,MO,64134,United States,(816) 761-6400,,,,,,
Kangaroo Express,,909 NW Chipman Rd ,,Lee's Summit ,MO,64063,United States,(816) 554-0788,,,,,,
Kangaroo Express,,602 W 9th Street ,,Lawrence ,KS,66044,United States,(785) 749-3306,,,,,,
Kangaroo Express,,1030 N 3rd St ,,Lawrence ,KS,66044-1430,United States,(785) 838-3645,,,,,,
Kangaroo Express,,1802 W 23rd St ,,Lawrence ,KS,66046,United States,(785) 832-8710,,,,,,
Kangaroo Express,,2330 Iowa St 3938 ,,Lawrence ,KS,66046,United States,(785) 749-5204,,,,,,
Kangaroo Express,,3522 US Hwy 24 ,,Grantville ,KS,66429,United States,(785) 246-1748,,,,,,
Kangaroo Express,,2510 Commerce Rd ,,Goodland ,KS,67735,United States,(785) 899-7527,,,,,,
Kangaroo Express,,2615 E Trail St ,,Dodge City ,KS,67801,United States,(620) 227-2625,,,,,,
Kangaroo Express,,609 S 2nd Ave ,,Dodge City ,KS,67801,United States,(620) 227-2692,,,,,,
Kangaroo Express,,2337 Washington St ,,Great Bend ,KS,67530,United States,(620) 792-2077,,,,,,
Kangaroo Express,,1201 E 12th Ave ,,Emporia ,KS,66801-3321,United States,(620) 340-8038,,,,,,
Kangaroo Express,,610 W 7th Ave ,,Augusta ,KS,67010,United States,(316) 775-7211,,,,,,
Kangaroo Express,,2035 N Andover Rd ,,Andover ,KS,67002,United States,(316) 733-0999,,,,,,
Kangaroo Express,,105 W Central Ave ,,Andover ,KS,67002,United States,(316) 733-8508,,,,,,
Kangaroo Express,,230 S Baltimore Ave ,,Derby ,KS,67037,United States,(316) 788-5650,,,,,,
Kangaroo Express,,1501 Franklin Street ,,Chapel Hill ,NC,27514,United States,(919) 968-4065,,,,,,
Kangaroo Express,,1509 E Franklin Street ,,Chapel Hill ,NC,27514,United States,(919) 929-3627,,,,,,
Kangaroo Express,,201 S Estes Drive ,,Chapel Hill ,NC,27514,United States,(919) 968-1423,,,,,,
Kangaroo Express,,3302 S Holden Rd ,,Greensboro ,NC,27407,United States,(336) 851-9006,,,,,,
Kangaroo Express,,801 East Harden St ,,Graham ,NC,27253,United States,(336) 222-8600,,,,,,
Kangaroo Express,,1013 South Main St ,,Graham ,NC,27253,United States,(336) 222-8029,,,,,,
Kangaroo Express,,419 S Main Street ,,Graham ,NC,27253,United States,(336) 227-1513,,,,,,
Kangaroo Express,,2101 Wayne Memorial Drive ,,Goldsboro ,NC,27534,United States,(919) 736-2011,,,,,,
Kangaroo Express,,2001 N Chester Hwy 321 ,,Gastonia ,NC,28052,United States,(704) 866-8550,,,,,,
Kangaroo Express,,4402 Ten Ten Road ,,Apex ,NC,27539,United States,(919) 363-6803,,,,,,
Kangaroo Express,,3505 Kildaire Farm Road ,,Cary ,NC,27518,United States,(919) 363-8103,,,,,,
Kangaroo Express,,2105 Ten Ten Road ,,Apex ,NC,27539,United States,(919) 387-3800,,,,,,
Kangaroo Express,,200 E McIntyre Street ,,Mullins ,SC,29574,United States,(843) 464-0881,,,,,,
Kangaroo Express,,1375 Hwy 38 West ,,Latta ,SC,29565,United States,(843) 752-9140,,,,,,
Kangaroo Express,,106 E NC 54 ,,Durham ,NC,27713,United States,(919) 544-1388,,,,,,
Kangaroo Express,,4835 Hope Valley Rd ,,Durham ,NC,27707,United States,(919) 493-2825,,,,,,
Kangaroo Express,,4830 Hope Valley Road ,,Durham ,NC,27707,United States,(919) 490-6276,,,,,,
Kangaroo Express,,7840 Leonardo Drive ,,Durham ,NC,27713,United States,(919) 806-8331,,,,,,
Kangaroo Express,,14264 Fancy Gap Hwy ,,Cana ,VA,24317,United States,(276) 755-3901,,,,,,
Kangaroo Express,,806 S Main St ,,Galax ,VA,24333,United States,(276) 236-4144,,,,,,
Kangaroo Express,,7115 Chances Creek Rd ,,Fancy Gap ,VA,24328-2537,United States,(276) 728-4445,,,,,,
Kangaroo Express,,62 Kelly Rd ,,Fancy Gap ,VA,24328,United States,(276) 728-7077,,,,,,
Kangaroo Express,,532 E Stuart Drive ,,Galax ,VA,24333,United States,(276) 236-7474,,,,,,
Kangaroo Express,,967 A E Stuart Dr ,,Galax ,VA,24333,United States,(276) 236-4044,,,,,,
Kangaroo Express,,6229 W Sugar Creek Rd ,,Charlotte ,NC,28269,United States,(704) 596-3881,,,,,,
Kangaroo Express,,10000 N Tryon Street ,,Charlotte ,NC,28262,United States,(704) 549-1674,,,,,,
Kangaroo Express,,1501 Pamalee Dr ,,Fayetteville ,NC,28303,United States,(910) 488-5314,,,,,,
Kangaroo Express,,5642 Bragg Blvd ,,Fayetteville ,NC,28303,United States,(910) 868-2927,,,,,,
Kangaroo Express,,3931 Rosehill Road ,,Fayetteville ,NC,28311,United States,(910) 488-3587,,,,,,
Kangaroo Express,,3122 Ft Bragg Rd ,,Fayetteville ,NC,28303,United States,(910) 484-7913,,,,,,
Kangaroo Express,,5336 Cliffdale Rd ,,Fayetteville ,NC,28314,United States,(910) 487-1704,,,,,,
Kangaroo Express,,1135 Pamalee Dr ,,Fayetteville ,NC,28303,United States,(910) 630-1676,,,,,,
Kangaroo Express,,901 Mcarthur Road ,,Fayetteville ,NC,28311,United States,(910) 488-5430,,,,,,
Kangaroo Express,,5201 Raeford Road ,,Fayetteville ,NC,28304,United States,(910) 424-2066,,,,,,
Kangaroo Express,,3102 Bragg Blvd ,,Fayetteville ,NC,28303,United States,(910) 868-9893,,,,,,
Kangaroo Express,,5703 Bragg Blvd ,,Fayetteville ,NC,28303,United States,(910) 864-5316,,,,,,
Kangaroo Express,,1300 Hope Mills Rd ,,Fayetteville ,NC,28304,United States,(910) 423-1337,,,,,,
Kangaroo Express,,2001 Skibo Road ,,Fayetteville ,NC,28314,United States,(910) 487-4212,,,,,,
Kangaroo Express,,935 Charlottetowne Ave ,,Charlotte ,NC,28204,United States,(704) 333-1014,,,,,,
Kangaroo Express,,4718 N Graham Street ,,Charlotte ,NC,28269,United States,(704) 599-7062,,,,,,
Kangaroo Express,,4923 S Tryon Street ,,Charlotte ,NC,28217,United States,(704) 521-1441,,,,,,
Kangaroo Express,,2801 Graham Street ,,Charlotte ,NC,28206,United States,(704) 375-3292,,,,,,
Kangaroo Express,,8008 Harris Station Blvd ,,Charlotte ,NC,28213,United States,(704) 494-8496,,,,,,
Kangaroo Express,,4336 Park Road ,,Charlotte ,NC,28209,United States,(704) 522-6689,,,,,,
Kangaroo Express,,4900 N Tryon Street ,,Charlotte ,NC,28213-7034,United States,(704) 494-4110,,,,,,
Kangaroo Express,,2200 South Tryon St ,,Charlotte ,NC,28203,United States,(704) 332-4421,,,,,,
Kangaroo Express,,2229 Raleigh Rd ,,Chapel Hill ,NC,27517,United States,(919) 493-5088,,,,,,
Kangaroo Express,,5801 Tryon Rd ,,Cary ,NC,27518,United States,(919) 859-5800,,,,,,
Kangaroo Express,,1220 West King St ,,Boone ,NC,28607,United States,(828) 262-1702,,,,,,
Kangaroo Express,,2968 Hwy 105 ,,Boone ,NC,28607,United States,(828) 262-5899,,,,,,
Kangaroo Express,,379 Shawneehaw Ave ,,Banner Elk ,NC,28604,United States,(828) 898-5318,,,,,,
Kangaroo Express,,1503 Hwy 65 South ,,Tallulah ,LA,71282,United States,(318) 574-5760,,,,,,
Kangaroo Express,,4150 Washington St ,,Vicksburg ,MS,39180-5288,United States,(601) 629-9848,,,,,,
Kangaroo Express,,725 Hwy 61 South ,,Vicksburg ,MS,39180,United States,(601) 636-9935,,,,,,
Kangaroo Express,,4888 Hwy 61 S ,,Vicksburg ,MS,39180,United States,(601) 634-1908,,,,,,
Kangaroo Express,,3400 Halls Ferry Rd ,,Vicksburg ,MS,39180,United States,(601) 638-1638,,,,,,
Kangaroo Express,,3060 Indiana Ave ,,Vicksburg ,MS,39180,United States,(601) 638-8674,,,,,,
Kangaroo Express,,3140 Indiana Ave ,,Vicksburg ,MS,39180,United States,(601) 638-1842,,,,,,
Kangaroo Express,,3326 Clay Street ,,Vicksburg ,MS,39180,United States,(601) 636-7062,,,,,,
Kangaroo Express,,4460 Clay Street ,,Vicksburg ,MS,39183,United States,(601) 636-2012,,,,,,
Kangaroo Express,,574 Hwy 61 N ,,Vicksburg ,MS,39180,United States,(601) 638-9354,,,,,,
Kangaroo Express,,368 Voters Rd ,,Slidell ,LA,70461,United States,,,,,,,
Kangaroo Express,,61104 Airport Road ,,Slidell ,LA,70460,United States,(985) 645-8722,,,,,,
Kangaroo Express,,350 Voters Road ,,Slidell ,LA,70461,United States,(985) 643-7143,,,,,,
Kangaroo Express,,101 Brown Switch Road ,,Slidell ,LA,70460,United States,(985) 641-1958,,,,,,
Kangaroo Express,,4095 Hwy 59 ,,Mandeville ,LA,70471,United States,(985) 892-1173,,,,,,
Kangaroo Express,,4115 Hwy 59 ,,Mandeville ,LA,70471,United States,(985) 809-1775,,,,,,
Kangaroo Express,,100 Northeast Interchange ,,Diamondhead ,MS,39525,United States,(228) 255-8030,,,,,,
Kangaroo Express,,1106 S Monroe Street ,,Covington ,LA,70433,United States,(540) 962-3880,,,,,,
Kangaroo Express,,70325 Hwy 21 ,,Covington ,LA,70433,United States,(985) 892-9826,,,,,,
Kangaroo Express,,69290 Hwy 21 ,,Covington ,LA,70433,United States,(985) 892-4968,,,,,,
Kangaroo Express,,1901 North Market ,,Shreveport ,LA,71107,United States,(318) 425-3795,,,,,,
Kangaroo Express,,7950 Youree Drive ,,Shreveport ,LA,71105,United States,(318) 798-7990,,,,,,
Kangaroo Express,,5725 Hearne ,,Shreveport ,LA,71108,United States,(318) 636-4276,,,,,,
Kangaroo Express,,5112 Monkhouse Drive ,,Shreveport ,LA,71109,United States,(318) 636-5355,,,,,,
Kangaroo Express,,3100 Bert Kouns ,,Shreveport ,LA,71118,United States,(318) 686-0446,,,,,,
Kangaroo Express,,4006 Barksdale Blvd ,,Bossier City ,LA,71112,United States,(318) 747-7855,,,,,,
Kangaroo Express,,1980 Airline Drive ,,Bossier City ,LA,71111,United States,(318) 752-0056,,,,,,
Kangaroo Express,,2651 Benton Road ,,Bossier City ,LA,71111,United States,(318) 746-8028,,,,,,
Kangaroo Express,,200 Bridge St ,,West Monroe ,LA,71291,United States,(318) 387-0404,,,,,,
Kangaroo Express,,1501 North 18th St ,,Monroe ,LA,71201,United States,(318) 325-7111,,,,,,
Kangaroo Express,,15389 Hwy 22 ,,Ponchatoula ,LA,70454,United States,,,,,,,
Kangaroo Express,,46011 N Puma Dr ,,Hammond ,LA,70401,United States,(985) 419-2338,,,,,,
Kangaroo Express,,28437 Hwy 43 ,,Albany ,LA,70711,United States,(225) 567-2451,,,,,,
Kangaroo Express,,900 Avenue G ,,Kentwood ,LA,70444,United States,(985) 229-2721,,,,,,
Kangaroo Express,,901 Avenue G ,,Kentwood ,LA,70444,United States,,,,,,,
Kangaroo Express,,1514 E Madison ,,Bastrop ,LA,71220,United States,(318) 281-5616,,,,,,
Kangaroo Express,,4320 Desiard ,,Monroe ,LA,71203,United States,(318) 343-7270,,,,,,
Kangaroo Express,,1471 Garrett Rd ,,Monroe ,LA,71202,United States,,,,,,,
Kangaroo Express,,1541 Hwy 1 S ,,Greenville ,MS,38701,United States,(662) 335-0606,,,,,,
Kangaroo Express,,648 LA Fayette Rd ,,Clarksville ,TN,37042,United States,(931) 552-7522,,,,,,
Kangaroo Express,,560 Dover Rd ,,Clarksville ,TN,37042,United States,(931) 552-7540,,,,,,
Kangaroo Express,,523 Dover Road ,,Clarksville ,TN,37042,United States,(931) 906-5955,,,,,,
Kangaroo Express,,301 Providence Road ,,Clarksville ,TN,37042,United States,(931) 552-7527,,,,,,
Kangaroo Express,,1501 Jerry Clower Blvd ,,Yazoo City ,MS,39194,United States,(662) 746-8581,,,,,,
Kangaroo Express,,1442 West Peace Street ,,Canton ,MS,39046,United States,(601) 859-6282,,,,,,
Kangaroo Express,,1963 Hwy 43 ,,Canton ,MS,39046,United States,(601) 859-5184,,,,,,
Kangaroo Express,,1198 Gluckstadt Road ,,Madison ,MS,39110,United States,(601) 856-0755,,,,,,
Kangaroo Express,,100 Colony Crossing Blvd ,,Madison ,MS,39110,United States,(601) 605-4656,,,,,,
Kangaroo Express,,1860 Main Street ,,Madison ,MS,39110,United States,(601) 853-1003,,,,,,
Kangaroo Express,,1008 Hwy 51 North ,,Madison ,MS,39110,United States,(601) 853-2243,,,,,,
Kangaroo Express,,725 Rice Road ,,Ridgeland ,MS,39157,United States,(601) 856-2467,,,,,,
Kangaroo Express,,549 Highway 80 West ,,Clinton ,MS,39056,United States,(601) 924-9502,,,,,,
Kangaroo Express,,6154 Old Canton Rd ,,Jackson ,MS,39211,United States,(601) 956-3791,,,,,,
Kangaroo Express,,314 Hwy 82 ,,Winona ,MS,38967,United States,(662) 283-4718,,,,,,
Kangaroo Express,,1540 South Commerce ,,Grenada ,MS,38901,United States,(662) 226-1996,,,,,,
Kangaroo Express,,280 Hwy 7 North ,,Grenada ,MS,38901,United States,(662) 226-0242,,,,,,
Kangaroo Express,,788 Veteran's Memorial Blvd ,,Eupora ,MS,39744,United States,(662) 258-6897,,,,,,
Kangaroo Express,,625 Hwy 51 South ,,Batesville ,MS,38606,United States,(662) 578-2335,,,,,,
Kangaroo Express,,1185 Hwy 6 East ,,Batesville ,MS,38606,United States,(662) 563-0245,,,,,,
Kangaroo Express,,696 Hwy 6 East ,,Batesville ,MS,38606,United States,(662) 563-5311,,,,,,
Kangaroo Express,,630 Hwy 6 East ,,Batesville ,MS,38606,United States,(662) 563-4629,,,,,,
Kangaroo Express,,100 Hwy 51 North ,,Batesville ,MS,38606,United States,(662) 563-2464,,,,,,
Kangaroo Express,,1911 S Azalea Drive ,,Wiggins ,MS,39577,United States,(601) 528-9835,,,,,,
Kangaroo Express,,2273 Hwy 49 ,,Brooklyn ,MS,39425,United States,(601) 544-0903,,,,,,
Kangaroo Express,,1102 South Main Street ,,Poplarville ,MS,39470,United States,(601) 795-0780,,,,,,
Kangaroo Express,,13490 Highway 49 N ,,Gulfport ,MS,39503,United States,(228) 831-3432,,,,,,
Kangaroo Express,,11305 Three Rivers Rd ,,Gulfport ,MS,39503,United States,(228) 539-5232,,,,,,
Kangaroo Express,,403 Highway 98 W ,,New Augusta ,MS,39462,United States,(601) 964-8477,,,,,,
Kangaroo Express,,11006 Highway 49 South ,,Gulfport ,MS,39503,United States,(228) 328-9260,,,,,,
Kangaroo Express,,10406 Hwy 49 ,,Gulfport ,MS,39503,United States,(228) 832-6449,,,,,,
Kangaroo Express,,11160 Lorraine Rd ,,Gulfport ,MS,39503,United States,(228) 831-9810,,,,,,
Kangaroo Express,,91933 Highway 98 ,,McLain ,MS,39423,United States,(601) 753-2995,,,,,,
Kangaroo Express,,201 Wilson Drive ,,Senatobia ,MS,38668,United States,(662) 562-5138,,,,,,
Kangaroo Express,,510 East Main Street ,,Senatobia ,MS,38668,United States,(662) 560-1973,,,,,,
Kangaroo Express,,551 East Lee St ,,Sardis ,MS,38666,United States,(662) 487-2844,,,,,,
Kangaroo Express,,485 Hwy 6 West ,,Oxford ,MS,38655,United States,(662) 236-3698,,,,,,
Kangaroo Express,,15528 Hwy 61 North ,,Robinsonville ,MS,38664,United States,(662) 357-0120,,,,,,
Kangaroo Express,,1724 University Ave ,,Oxford ,MS,38655,United States,(662) 234-0963,,,,,,
Kangaroo Express,,9256 E Goodman Road ,,Olive Branch ,MS,38654,United States,(662) 895-8676,,,,,,
Kangaroo Express,,217 Martin Luther Street ,,Marks ,MS,38646,United States,(662) 326-3171,,,,,,
Kangaroo Express,,101 South Front Street ,,Sandersville ,MS,39477,United States,(601) 428-5194,,,,,,
Kangaroo Express,,905 Chantilly Street ,,Laurel ,MS,39440,United States,(601) 649-5854,,,,,,
Kangaroo Express,,2985 Highway 49 ,,Collins ,MS,39428,United States,(601) 765-1390,,,,,,
Kangaroo Express,,7060 Highway 49 North ,,Hattiesburg ,MS,39402,United States,(601) 268-2099,,,,,,
Kangaroo Express,,103 Campbell Loop ,,Hattiesburg ,MS,39401,United States,(601) 264-5621,,,,,,
Kangaroo Express,,4607 Hardy Street ,,Hattiesburg ,MS,39402,United States,(601) 264-4585,,,,,,
Kangaroo Express,,4904 Hardy Street ,,Hattiesburg ,MS,39402,United States,,,,,,,
Kangaroo Express,,4050 Highway 11 South ,,Hattiesburg ,MS,39402,United States,(601) 544-3344,,,,,,
Kangaroo Express,,121 Pinola Drive SE ,,Magee ,MS,39111,United States,(601) 849-3724,,,,,,
Kangaroo Express,,1157 Northside Drive ,,Jackson ,MS,39206,United States,(601) 366-3040,,,,,,
Kangaroo Express,,2675 Lakeland Drive ,,Flowood ,MS,39232,United States,(601) 932-6710,,,,,,
Kangaroo Express,,2391 Lakeland Drive ,,Flowood ,MS,39232,United States,(601) 939-6797,,,,,,
Kangaroo Express,,690 Grants Ferry Rd ,,Flowood ,MS,39232,United States,(601) 992-2001,,,,,,
Kangaroo Express,,519 Highway 98 Bypass ,,Columbia ,MS,39429,United States,(601) 736-5155,,,,,,
Kangaroo Express,,1802 East University ,,Oxford ,MS,38655,United States,(662) 236-7645,,,,,,
Kangaroo Express,,1700 Belk Avenue ,,Oxford ,MS,38655,United States,(662) 236-5336,,,,,,
Kangaroo Express,,251 Airport Road ,,Pearl ,MS,39208,United States,(601) 420-5182,,,,,,
Kangaroo Express,,461 South Pearson Rd ,,Pearl ,MS,39208,United States,(601) 939-0052,,,,,,
Kangaroo Express,,100 Cross Park Dr ,,Pearl ,MS,39208,United States,(601) 939-3802,,,,,,
Kangaroo Express,,1691 W Government Street ,,Brandon ,MS,39042,United States,(601) 825-9033,,,,,,
Kangaroo Express,,2145 Hwy 18 ,,Brandon ,MS,39042,United States,(601) 591-1481,,,,,,
Kangaroo Express,,320 W Government Street ,,Brandon ,MS,39042,United States,(601) 825-9893,,,,,,
Kangaroo Express,,1264 High Street ,,Jackson ,MS,39201,United States,(601) 354-2248,,,,,,
Kangaroo Express,,91933 Hwy 98 ,,McLain ,MS,39423,United States,(601) 753-2276,,,,,,
Kangaroo Express,,1501 Bienville Hwy ,,Ocean Springs ,MS,39564,United States,(228) 872-2049,,,,,,
Kangaroo Express,,8000 Tucker Road ,,Ocean Springs ,MS,39565,United States,(228) 872-9695,,,,,,
Kangaroo Express,,1104 Bienville Blvd ,,Ocean Springs ,MS,39564,United States,(228) 875-4018,,,,,,
Kangaroo Express,,7600 Tucker Rd ,,Ocean Springs ,MS,39564,United States,(228) 875-0284,,,,,,
Kangaroo Express,,10073 Rodriquez St ,,Diberville ,MS,39540,United States,(228) 392-6901,,,,,,
Kangaroo Express,,1000 Cedar Lake Rd ,,Biloxi ,MS,39532,United States,(228) 392-6908,,,,,,
Kangaroo Express,,6601 Hwy 90 ,,Gautier ,MS,39553,United States,(228) 875-7291,,,,,,
Kangaroo Express,,2194 Beach Blvd ,,Biloxi ,MS,39531,United States,(228) 388-2141,,,,,,
Kangaroo Express,,1 Pass Rd ,,Gulfport ,MS,39507,United States,(228) 896-7716,,,,,,
Kangaroo Express,,505 Hwy 15 South ,,New Albany ,MS,38652,United States,(662) 534-9010,,,,,,
Kangaroo Express,,2525 Hwy 15 North ,,Pontotoc ,MS,38863,United States,(662) 488-9009,,,,,,
Kangaroo Express,,125 Hwy 15 ,,Pontotoc ,MS,38863,United States,(662) 489-5061,,,,,,
Kangaroo Express,,1408 Roebuck ,,Meridian ,MS,39301,United States,(601) 483-0925,,,,,,
Kangaroo Express,,1539 Simpson Hwy ,,Magee ,MS,39111,United States,(601) 849-6929,,,,,,
Kangaroo Express,,2166 Hwy 18 ,,Brandon ,MS,39042,United States,(601) 825-7439,,,,,,
Kangaroo Express,,3104 Hwy 49 ,,Florence ,MS,39073,United States,(601) 845-3579,,,,,,
Kangaroo Express,,3100 Hwy 49 South ,,Florence ,MS,39073,United States,(601) 845-0833,,,,,,
Kangaroo Express,,124 East Beach ,,Long Beach ,MS,39560,United States,(228) 575-0746,,,,,,
Kangaroo Express,,2803 25th Avenue ,,Gulfport ,MS,39501,United States,(228) 822-2481,,,,,,
Kangaroo Express,,10010 Hwy 49 ,,Gulfport ,MS,39503,United States,(228) 865-0055,,,,,,
Kangaroo Express,,1302 North State Street ,,Jackson ,MS,39202,United States,(601) 354-2716,,,,,,
Kangaroo Express,,7442 Siwell Road ,,Jackson ,MS,39272,United States,(601) 373-3581,,,,,,
Kangaroo Express,,610 South State St ,,Clarksdale ,MS,38614,United States,(662) 624-2117,,,,,,
Kangaroo Express,,550 Springridge Rd ,,Clinton ,MS,39056,United States,(601) 924-9388,,,,,,
Kangaroo Express,,410 East North Street ,,Sweetwater ,TN,37874,United States,(423) 337-4075,,,,,,
Kangaroo Express,,1157 Highway 68 ,,Sweetwater ,TN,37874,United States,(423) 337-9577,,,,,,
Kangaroo Express,,708 South Main Street ,,Sweetwater ,TN,37874,United States,(423) 337-9010,,,,,,
Kangaroo Express,,529 Hwy 305 ,,Athens ,TN,37323,United States,(423) 745-7100,,,,,,
Kangaroo Express,,703 South White Street ,,Athens ,TN,37303,United States,(423) 745-6200,,,,,,
Kangaroo Express,,2631 Decatur Pike ,,Athens ,TN,37303,United States,(423) 744-0526,,,,,,
Kangaroo Express,,835 Hwy 411 North ,,Etowah ,TN,37331,United States,(423) 263-2022,,,,,,
Kangaroo Express,,230 Tennessee Ave ,,Etowah ,TN,37331,United States,(423) 263-5651,,,,,,
Kangaroo Express,,16994 State Hwy 58 South ,,Decatur ,TN,37322,United States,(423) 334-9966,,,,,,
Kangaroo Express,,30054 US Highway 11 ,,Knoxville ,TN,37771,United States,(205) 372-4373,,,,,,
Kangaroo Express,,144 S Main St ,,Sparta ,TN,38583,United States,(336) 372-2476,,,,,,
Kangaroo Express,,1300 East Spring Street ,,Cookeville ,TN,38501,United States,(931) 520-0208,,,,,,
Kangaroo Express,,852 North Rankin Ave ,,Dunlap ,TN,37327,United States,(423) 949-5747,,,,,,
Kangaroo Express,,8994 Rhea County Hwy ,,Dayton ,TN,37321,United States,(423) 775-0504,,,,,,
Kangaroo Express,,13424 Dayton Pike ,,Soddy Daisy ,TN,37379,United States,(423) 332-2719,,,,,,
Kangaroo Express,,1264 Mcminnville Hwy ,,Manchester ,TN,37355,United States,(931) 723-4855,,,,,,
Kangaroo Express,,989 Interstate Drive ,,Manchester ,TN,37355,United States,(931) 728-2567,,,,,,
Kangaroo Express,,2278 Hillsboro Blvd ,,Manchester ,TN,37355,United States,(931) 723-1337,,,,,,
Kangaroo Express,,1200 Mcarthur Street ,,Manchester ,TN,37355-2424,United States,(931) 723-4851,,,,,,
Kangaroo Express,,4919 Main Street ,,Jasper ,TN,37347,United States,(423) 942-6900,,,,,,
Kangaroo Express,,1675 Main Street ,,Monteagle ,TN,37356,United States,(931) 924-3500,,,,,,
Kangaroo Express,,712 Signal Mountain Road ,,Chattanooga ,TN,37405,United States,(423) 265-8837,,,,,,
Kangaroo Express,,11280 Dayton Pike ,,Soddy Daisy ,TN,37379,United States,(423) 332-7661,,,,,,
Kangaroo Express,,109 Sequoyah Access Rd ,,Soddy Daisy ,TN,37379,United States,(423) 332-0039,,,,,,
Kangaroo Express,,8640 Dayton Pike ,,Soddy Daisy ,TN,37379,United States,(423) 332-6943,,,,,,
Kangaroo Express,,10086 Dayton Pike ,,Soddy Daisy ,TN,37379,United States,(423) 332-3212,,,,,,
Kangaroo Express,,8540 Hixson Pike ,,Hixson ,TN,37343,United States,(423) 842-2451,,,,,,
Kangaroo Express,,6917 Middle Valley Rd ,,Hixson ,TN,37343,United States,(423) 847-1134,,,,,,
Kangaroo Express,,6224 Hixson Pike ,,Hixson ,TN,37343,United States,(423) 843-1204,,,,,,
Kangaroo Express,,5501 Hwy 153 ,,Hixson ,TN,37343,United States,(423) 870-8110,,,,,,
Kangaroo Express,,5012 Hixson Pike ,,Hixson ,TN,37343,United States,(423) 875-4505,,,,,,
Kangaroo Express,,796 Nissan Drive ,,Smyrna ,TN,37167,United States,(615) 459-7986,,,,,,
Kangaroo Express,,1880 Almaville Road ,,Smyrna ,TN,37167,United States,(615) 223-1236,,,,,,
Kangaroo Express,,519 Waldron Road ,,La Vergne ,TN,37086,United States,(615) 793-9060,,,,,,
Kangaroo Express,,5183 Murfreesboro Road ,,La Vergne ,TN,37086,United States,(615) 287-9630,,,,,,
Kangaroo Express,,5022 Murfreesboro Rd ,,La Vergne ,TN,37086,United States,(615) 793-5088,,,,,,
Kangaroo Express,,2374 Old Fort Pkwy ,,Murfreesboro ,TN,37129,United States,(615) 848-1367,,,,,,
Kangaroo Express,,3401 Memorial Road ,,Murfreesboro ,TN,37129,United States,(615) 890-1556,,,,,,
Kangaroo Express,,8003 Horton Hwy ,,Arrington ,TN,37014,United States,(615) 395-9276,,,,,,
Kangaroo Express,,302 W Northfield Blvd ,,Murfreesboro ,TN,37129,United States,(615) 890-3616,,,,,,
Kangaroo Express,,2493 South Church Street ,,Murfreesboro ,TN,37127,United States,(615) 898-0741,,,,,,
Kangaroo Express,,3200 Redding Road ,,Red Bank ,TN,37415,United States,(423) 875-5676,,,,,,
Kangaroo Express,,600 Ashland Terrace ,,Chattanooga ,TN,37415,United States,(423) 875-0122,,,,,,
Kangaroo Express,,1182 Mountain Creek Road ,,Chattanooga ,TN,37405,United States,(423) 875-2870,,,,,,
Kangaroo Express,,902 Dallas Road ,,Chattanooga ,TN,37405,United States,(423) 265-4477,,,,,,
Kangaroo Express,,3407 Amnicola Hwy ,,Chattanooga ,TN,37406,United States,(423) 629-9063,,,,,,
Kangaroo Express,,1005 Hixson Pike ,,Chattanooga ,TN,37405,United States,(423) 265-4371,,,,,,
Kangaroo Express,,2514 Amnicola Hwy ,,Chattanooga ,TN,37406,United States,(423) 624-8572,,,,,,
Kangaroo Express,,4849 Hixson Pike ,,Hixson ,TN,37343,United States,(423) 877-2778,,,,,,
Kangaroo Express,,9300 Lee Highway ,,Ooltewah ,TN,37363,United States,(423) 238-4777,,,,,,
Kangaroo Express,,8935 Lee Highway ,,Ooltewah ,TN,37363,United States,(423) 238-4967,,,,,,
Kangaroo Express,,8229 Mahan Gap Road ,,Ooltewah ,TN,37363,United States,(423) 344-6756,,,,,,
Kangaroo Express,,6239 Highway 58 ,,Harrison ,TN,37341,United States,(423) 344-8786,,,,,,
Kangaroo Express,,1700 Harrison Pike ,,Cleveland ,TN,37311,United States,(423) 339-1700,,,,,,
Kangaroo Express,,2502 Blue Springs Rd ,,Cleveland ,TN,37311,United States,(423) 472-9418,,,,,,
Kangaroo Express,,4147 Hwy 411 ,,Ocoee ,TN,37361,United States,(423) 338-4484,,,,,,
Kangaroo Express,,6254 Hwy 411 ,,Benton ,TN,37307,United States,(423) 338-2432,,,,,,
Kangaroo Express,,2890 Waterlevel Highway ,,Cleveland ,TN,37323,United States,(423) 728-4155,,,,,,
Kangaroo Express,,2300 Spring Place Road ,,Cleveland ,TN,37323,United States,(423) 476-2887,,,,,,
Kangaroo Express,,2280 Spring Place Road SE ,,Cleveland ,TN,37323,United States,(423) 479-4705,,,,,,
Kangaroo Express,,210 25th Street NW ,,Cleveland ,TN,37311,United States,(423) 339-9799,,,,,,
Kangaroo Express,,2695 APD 40 SE ,,Cleveland ,TN,37311,United States,(423) 472-1471,,,,,,
Kangaroo Express,,4850 Georgetown Pike ,,Cleveland ,TN,37312,United States,(423) 479-3962,,,,,,
Kangaroo Express,,3480 Keith Street Nw ,,Cleveland ,TN,37311,United States,(423) 476-8608,,,,,,
Kangaroo Express,,198 Haywood Lane ,,Nashville ,TN,37211,United States,(615) 834-0592,,,,,,
Kangaroo Express,,10576 Lebanon Road ,,Mount Juliet ,TN,37122,United States,(615) 773-2764,,,,,,
Kangaroo Express,,2610 South Church St ,,Murfreesboro ,TN,37128,United States,(615) 893-7935,,,,,,
Kangaroo Express,,1702 South Rutherford Blvd ,,Murfreesboro ,TN,37127,United States,(615) 890-0168,,,,,,
Kangaroo Express,,1221 South Water Ave ,,Gallatin ,TN,37066,United States,(615) 452-6132,,,,,,
Kangaroo Express,,1309 West Main Street ,,Lebanon ,TN,37087,United States,(615) 443-3457,,,,,,
Kangaroo Express,,377 Hancock Street ,,Gallatin ,TN,37066,United States,(615) 230-5840,,,,,,
Kangaroo Express,,1316 Madison St ,,Shelbyville ,TN,37160,United States,(931) 684-5753,,,,,,
Kangaroo Express,,900 N Main Street ,,Shelbyville ,TN,37160,United States,(931) 684-1425,,,,,,
Kangaroo Express,,4858 Hwy 58 ,,Chattanooga ,TN,37416,United States,(423) 894-4924,,,,,,
Kangaroo Express,,4806 Hwy 58 North ,,Chattanooga ,TN,37416,United States,(423) 899-9471,,,,,,
Kangaroo Express,,5710 Lake Resort drive ,,Chattanooga ,TN,37415,United States,(423) 875-2944,,,,,,
Kangaroo Express,,6960 Lee Hwy ,,Chattanooga ,TN,37421,United States,(423) 899-9566,,,,,,
Kangaroo Express,,8701 E Brainerdl ,,Chattanooga ,TN,37421,United States,(423) 892-6872,,,,,,
Kangaroo Express,,4026 Shallowford Road ,,Chattanooga ,TN,37411,United States,(423) 629-1620,,,,,,
Kangaroo Express,,5067 Highway 64 ,,Ducktown ,TN,37326,United States,(423) 496-2603,,,,,,
Kangaroo Express,,6003 Shallowford Road ,,Chattanooga ,TN,37421,United States,(423) 894-5473,,,,,,
Kangaroo Express,,2300 Jenkins Rd ,,Chattanooga ,TN,37421,United States,(423) 899-1991,,,,,,
Kangaroo Express,,545 South Main St ,,Ashland City ,TN,37015,United States,(615) 792-4125,,,,,,
Kangaroo Express,,910 Liberty Street ,,York ,SC,29745,United States,(803) 684-7789,,,,,,
Kangaroo Express,,2165 Ebenezer Rd ,,Rock Hill ,SC,29732,United States,(803) 366-3728,,,,,,
Kangaroo Express,,499 Herlong Avenue ,,Rock Hill ,SC,29732,United States,(803) 324-2544,,,,,,
Kangaroo Express,,1420 Celanese Road ,,Rock Hill ,SC,29732,United States,(803) 324-2594,,,,,,
Kangaroo Express,,2541 N Cherry Road ,,Rock Hill ,SC,29732,United States,(803) 324-2612,,,,,,
Kangaroo Express,,618 Tinsley Way ,,Rock Hill ,SC,29730,United States,(803) 324-2568,,,,,,
Kangaroo Express,,1801 JA Cochran Bypass ,,Chester ,SC,29706,United States,(803) 581-0921,,,,,,
Kangaroo Express,,1190 Sunset Blvd ,,West Columbia ,SC,29169,United States,(803) 794-9099,,,,,,
Kangaroo Express,,3504 Charleston Hwy ,,West Columbia ,SC,29172,United States,(803) 791-9072,,,,,,
Kangaroo Express,,3950 Augusta Rd ,,West Columbia ,SC,29170,United States,(803) 794-5713,,,,,,
Kangaroo Express,,4048 Charleston Hwy ,,West Columbia ,SC,29172,United States,(803) 791-5821,,,,,,
Kangaroo Express,,1200 Whaley St ,,Columbia ,SC,29201,United States,(803) 252-4766,,,,,,
Kangaroo Express,,3800 Rosewood Drive ,,Columbia ,SC,29205,United States,(803) 782-8412,,,,,,
Kangaroo Express,,7800 Garners Ferry Rd ,,Columbia ,SC,29209,United States,(803) 776-1320,,,,,,
Kangaroo Express,,927 Elmwood Drive ,,Columbia ,SC,29201,United States,(803) 733-1404,,,,,,
Kangaroo Express,,806 Broad River Rd ,,Columbia ,SC,29210,United States,(803) 798-4611,,,,,,
Kangaroo Express,,1900 Bush River Road ,,Columbia ,SC,29210,United States,(803) 772-9644,,,,,,
Kangaroo Express,,304 North Main St ,,Woodruff ,SC,29388,United States,(864) 476-3311,,,,,,
Kangaroo Express,,6200 Hwy 221 ,,Roebuck ,SC,29376,United States,(864) 587-7770,,,,,,
Kangaroo Express,,1605 East Main Street ,,Duncan ,SC,29334,United States,(864) 486-1706,,,,,,
Kangaroo Express,,2571 Woodruff Rd ,,Simpsonville ,SC,29681,United States,(864) 286-3555,,,,,,
Kangaroo Express,,932 N E Main St ,,Simpsonville ,SC,29681,United States,(864) 963-5603,,,,,,
Kangaroo Express,,1505 John B White Sr Blvd ,,Spartanburg ,SC,29306,United States,(864) 574-4112,,,,,,
Kangaroo Express,,3106 S Church St ,,Spartanburg ,SC,29306,United States,(864) 585-6831,,,,,,
Kangaroo Express,,2201 Woodruff Rd ,,Simpsonville ,SC,29681,United States,(864) 297-7959,,,,,,
Kangaroo Express,,7800 Warren H Abernathy ,,Spartanburg ,SC,29301,United States,(864) 574-0051,,,,,,
Kangaroo Express,,1460 WO Ezell Blvd ,,Spartanburg ,SC,29301,United States,(864) 574-8637,,,,,,
Kangaroo Express,,1173 Augusta Road ,,Warrenville ,SC,29851,United States,(803) 663-6381,,,,,,
Kangaroo Express,,3540 Richland Ave ,,Aiken ,SC,29801,United States,(803) 641-4100,,,,,,
Kangaroo Express,,3533 Augusta Road ,,Burnettown ,SC,29851,United States,(803) 593-4226,,,,,,
Kangaroo Express,,702 Silver Bluff Rd ,,Aiken ,SC,29803,United States,(803) 641-4111,,,,,,
Kangaroo Express,,318 Hampton Ave ,,Aiken ,SC,29801,United States,(803) 641-4108,,,,,,
Kangaroo Express,,1850 Whiskey Road ,,Aiken ,SC,29803,United States,(803) 641-4101,,,,,,
Kangaroo Express,,1107 York Street NE ,,Aiken ,SC,29801,United States,(803) 641-4103,,,,,,
Kangaroo Express,,1011 East Pine Log Road ,,Aiken ,SC,29801,United States,(803) 641-4114,,,,,,
Kangaroo Express,,2981 Whiskey Road ,,Aiken ,SC,29803,United States,(803) 641-4119,,,,,,
Kangaroo Express,,937 Edge Field Rd ,,North Augusta ,SC,29841,United States,(803) 442-7118,,,,,,
Kangaroo Express,,2391 Highway 41 ,,Wando ,SC,29492,United States,(843) 881-7008,,,,,,
Kangaroo Express,,4020 Bessemer Road Mt. ,,Pleasant ,SC,29466,United States,(843) 884-7034,,,,,,
Kangaroo Express,,1971 Clements Ferry Road ,,Charleston ,SC,29492-7724,United States,(843) 881-2828,,,,,,
Kangaroo Express,,2846 Hwy 17N Mt. ,,Pleasant ,SC,29466,United States,(843) 884-7627,,,,,,
Kangaroo Express,,2171 N Hwy 17 Mt. ,,Pleasant ,SC,29466,United States,(843) 884-1849,,,,,,
Kangaroo Express,,901 Island Park Drive ,,Daniel Island ,SC,29492,United States,,,,,,,
Kangaroo Express,,1305 Long Grove Drive ,,Mt. Pleasant ,SC,29464,United States,(843) 881-3330,,,,,,
Kangaroo Express,,1340 Chuck Dawley Blvd ,,Mt. Pleasant ,SC,29464,United States,(843) 884-3016,,,,,,
Kangaroo Express,,1402 Ben Sawyer Blvd ,,Mt. Pleasant ,SC,29464,United States,(843) 881-7894,,,,,,
Kangaroo Express,,1190 Remount Road ,,North Charleston ,SC,29406,United States,(843) 554-4878,,,,,,
Kangaroo Express,,1551 N Jeffries Rd ,,Walterboro ,SC,29488,United States,(843) 549-6605,,,,,,
Kangaroo Express,,1111 Sniders Highway ,,Walterboro ,SC,29488,United States,,,,,,,
Kangaroo Express,,15600 Charleston Hwy ,,Round O ,SC,29474,United States,(843) 893-4128,,,,,,
Kangaroo Express,,16273 Ace Basin Pkwy ,,Round O ,SC,29474,United States,(843) 893-2571,,,,,,
Kangaroo Express,,6303 Savannah Highway ,,Ravenel ,SC,29470,United States,(843) 889-6171,,,,,,
Kangaroo Express,,1597 Central Avenue ,,Summerville ,SC,29483,United States,(843) 871-5729,,,,,,
Kangaroo Express,,1365 Boone Hill Rd ,,Summerville ,SC,29483,United States,(843) 875-5350,,,,,,
Kangaroo Express,,1210 Central Ave ,,Summerville ,SC,29483,United States,(843) 871-2711,,,,,,
Kangaroo Express,,2895 W 5th North St ,,Summerville ,SC,29483,United States,(843) 873-6762,,,,,,
Kangaroo Express,,290 Robert Smalls Parkway ,,Beaufort ,SC,29906,United States,(843) 525-9156,,,,,,
Kangaroo Express,,2195 East Main Street ,,Duncan ,OK,73533,United States,(864) 433-8228,,,,,,
Kangaroo Express,,908 S Duncan Bypass ,,Union ,SC,29379,United States,(864) 427-4512,,,,,,
Kangaroo Express,,1315 Lockhart Hwy ,,Union ,SC,29379,United States,(864) 427-4577,,,,,,
Kangaroo Express,,400 South Main St ,,Jonesville ,SC,29353,United States,(864) 674-6426,,,,,,
Kangaroo Express,,2908 Furman Fendley Hwy ,,Jonesville ,SC,29353,United States,(864) 674-6742,,,,,,
Kangaroo Express,,2445 Country Club Rd ,,Spartanburg ,SC,29302,United States,(864) 573-5464,,,,,,
Kangaroo Express,,2050 South Pine St ,,Spartanburg ,SC,29302,United States,(864) 591-0781,,,,,,
Kangaroo Express,,1475 Fernwood Glendale Rd ,,Spartanburg ,SC,29307,United States,(864) 582-1444,,,,,,
Kangaroo Express,,2590 Glenns Bay Road ,,Surfside Beach ,SC,29575,United States,(843) 650-9810,,,,,,
Kangaroo Express,,1611 Hwy 17 South ,,Surfside Beach ,SC,29575,United States,(843) 650-7080,,,,,,
Kangaroo Express,,2591 Glenns Bay Rd ,,Surfside Beach ,SC,29575,United States,(843) 650-1881,,,,,,
Kangaroo Express,,1011 Glenn Bay Rd ,,Surfside Beach ,SC,29575,United States,(843) 238-9910,,,,,,
Kangaroo Express,,501 Highway 17 North ,,Surfside Beach ,SC,29575,United States,(843) 238-5493,,,,,,
Kangaroo Express,,11 Hwy 17 North ,,Surfside Beach ,SC,29575,United States,(843) 238-4371,,,,,,
Kangaroo Express,,1929 10th Ave North ,,Myrtle Beach ,SC,29575,United States,(843) 626-8698,,,,,,
Kangaroo Express,,1205 Dick Pond Rd ,,Myrtle Beach ,SC,29575,United States,,,,,,,
Kangaroo Express,,2005 South Hwy 17 ,,Murrells Inlet ,SC,29576,United States,(843) 651-8088,,,,,,
Kangaroo Express,,2301 Dick Pond Road ,,Myrtle Beach ,SC,29575,United States,(843) 215-1383,,,,,,
Kangaroo Express,,2995 Broad Street ,,Sumter ,SC,29153,United States,(803) 469-6070,,,,,,
Kangaroo Express,,550 South Pike East ,,Sumter ,SC,29150,United States,(803) 775-3771,,,,,,
Kangaroo Express,,660 W Liberty Street ,,Sumter ,SC,29150,United States,(803) 775-8176,,,,,,
Kangaroo Express,,1281 Broad Street ,,Sumter ,SC,29153,United States,(803) 469-3410,,,,,,
Kangaroo Express,,1 N Washington Street ,,Sumter ,SC,29150-4917,United States,(803) 773-0711,,,,,,
Kangaroo Express,,503 Broad & Miller St ,,Sumter ,SC,29150,United States,(803) 775-3355,,,,,,
Kangaroo Express,,484 Pinewood Road ,,Sumter ,SC,29154,United States,(803) 773-1230,,,,,,
Kangaroo Express,,433 Sumter Hwy ,,Camden ,SC,29020,United States,(803) 425-1647,,,,,,
Kangaroo Express,,521 Hwy 601 S ,,Lugoff ,SC,29078,United States,(803) 438-9389,,,,,,
Kangaroo Express,,136 E Dekalb Street ,,Camden ,SC,29020,United States,(803) 432-0884,,,,,,
Kangaroo Express,,2220 Middle Street ,,Sullivans Island ,SC,29482,United States,(843) 883-3903,,,,,,
Kangaroo Express,,404 Coleman Blvd ,,Mt. Pleasant ,SC,29464,United States,(843) 881-9218,,,,,,
Kangaroo Express,,1206 Palm Blvd ,,Isle Of Palms ,SC,29451,United States,(843) 886-4518,,,,,,
Kangaroo Express,,588 East Bay ,,Charleston ,SC,29403,United States,,,,,,,
Kangaroo Express,,130 Rutledge Avenue ,,Charleston ,SC,29403,United States,(843) 723-4427,,,,,,
Kangaroo Express,,1677 North Main ,,Summerville ,SC,29483,United States,(843) 871-3400,,,,,,
Kangaroo Express,,201 W 5th St North ,,Summerville ,SC,29483,United States,(843) 871-7704,,,,,,
Kangaroo Express,,1595 Trolley Rd ,,Summerville ,SC,29485,United States,(843) 875-5955,,,,,,
Kangaroo Express,,207 Old Trolley Rd ,,Summerville ,SC,29485,United States,(843) 875-9952,,,,,,
Kangaroo Express,,1571 North Main Street ,,Summerville ,SC,29483,United States,,,,,,,
Kangaroo Express,,830 College Park Road ,,Ladson ,SC,29456,United States,(843) 764-0986,,,,,,
Kangaroo Express,,688 E Main Street ,,Spartanburg ,SC,29302,United States,(864) 585-0701,,,,,,
Kangaroo Express,,691 North Pine Street ,,Spartanburg ,SC,29303,United States,(864) 585-6387,,,,,,
Kangaroo Express,,315 John Dodd Rd ,,Spartanburg ,SC,29303,United States,(864) 578-4500,,,,,,
Kangaroo Express,,1812 East Main Street ,,Spartanburg ,SC,29307,United States,(864) 583-6254,,,,,,
Kangaroo Express,,1706 Boiling Springs Rd ,,Spartanburg ,SC,29316,United States,(864) 599-7197,,,,,,
Kangaroo Express,,1245 Asheville Hwy ,,Spartanburg ,SC,29303,United States,(864) 583-7071,,,,,,
Kangaroo Express,,8700 Asheville Hwy ,,Spartanburg ,SC,29316,United States,(864) 578-4706,,,,,,
Kangaroo Express,,3862 Byrnes Drive ,,St Stephen ,SC,29479,United States,(843) 567-3355,,,,,,
Kangaroo Express,,2276 N Hwy 52 ,,Bonneau ,SC,29431,United States,(843) 825-3748,,,,,,
Kangaroo Express,,605 N HIGHWAY 52 ,,Moncks Corner ,SC,29461,United States,(843) 761-1404,,,,,,
Kangaroo Express,,605 N Hwy 52 ,,Moncks Corner ,SC,29461,United States,(843) 761-0708,,,,,,
Kangaroo Express,,110 South Highway 52 ,,Moncks Corner ,SC,29461,United States,(843) 899-1311,,,,,,
Kangaroo Express,,1003 French Santee Road ,,Jamestown ,SC,29453,United States,(843) 257-4520,,,,,,
Kangaroo Express,,2800 Highway 52 ,,Moncks Corner ,SC,29461,United States,(843) 761-4700,,,,,,
Kangaroo Express,,2800 Hwy 52 ,,Moncks Corner ,SC,29461,United States,(843) 761-4782,,,,,,
Kangaroo Express,,1814 Woodruff Road ,,Greenville ,SC,29607,United States,(864) 288-9671,,,,,,
Kangaroo Express,,1001 Woodruff Road ,,Greenville ,SC,29607,United States,(864) 288-7708,,,,,,
Kangaroo Express,,1006 Woodruff Rd ,,Greenville ,SC,29607,United States,(864) 297-0062,,,,,,
Kangaroo Express,,485 Haywood Rd ,,Greenville ,SC,29607,United States,(864) 288-8025,,,,,,
Kangaroo Express,,5010 Pelham Rd ,,Greenville ,SC,29615,United States,(864) 288-1735,,,,,,
Kangaroo Express,,906 Haywood Road ,,Greenville ,SC,29615,United States,(864) 297-9214,,,,,,
Kangaroo Express,,3713 East North St ,,Greenville ,SC,29615,United States,(864) 244-5897,,,,,,
Kangaroo Express,,4315 Savannah Highway ,,Ravenel ,SC,29470,United States,(843) 763-6250,,,,,,
Kangaroo Express,,106 Main Rd ,,Johns Island ,SC,29455,United States,(843) 571-6110,,,,,,
Kangaroo Express,,3586 Savannah Hwy ,,Johns Island ,SC,29455,United States,(843) 571-0908,,,,,,
Kangaroo Express,,6 Shorter Avenue ,,Rome ,SC,29928,United States,(706) 295-9003,,,,,,
Kangaroo Express,,153 Arrow Rd ,,Hilton Head Island ,SC,29928,United States,(843) 686-4899,,,,,,
Kangaroo Express,,6 Palmetto Bay Road ,,Hilton Head Island ,SC,29928,United States,(843) 686-5399,,,,,,
Kangaroo Express,,1 B Regency Parkway ,,Hilton Head Island ,SC,29928-3311,United States,(843) 842-9997,,,,,,
Kangaroo Express,,85 Pope Avenue ,,Hilton Head Island ,SC,29928,United States,(843) 785-4738,,,,,,
Kangaroo Express,,1 Gumtree Rd ,,Hilton Head Island ,SC,29926-1601,United States,(843) 681-2866,,,,,,
Kangaroo Express,,71 Matthews Drive ,,Hilton Head Island ,SC,29926,United States,(843) 681-8920,,,,,,
Kangaroo Express,,1610 Fording Island Road ,,Hilton Head Island ,SC,29910,United States,(843) 837-2913,,,,,,
Kangaroo Express,,1553 Fording Island Road ,,Hilton Head Island ,SC,29926,United States,(843) 837-4949,,,,,,
Kangaroo Express,,2819 North Okatie Hwy ,,Ridgeland ,SC,29936,United States,(843) 987-4460,,,,,,
Kangaroo Express,,2208 SC HIGHWAY 773 ,,Prosperity ,SC,29127,United States,(803) 405-0409,,,,,,
Kangaroo Express,,1259 Chapin Rd ,,Chapin ,SC,29036,United States,(803) 345-1898,,,,,,
Kangaroo Express,,317 B Royal Tower Rd ,,Irmo ,SC,29063,United States,(803) 749-0723,,,,,,
Kangaroo Express,,959 Old Chreokee Rd ,,Lexington ,SC,29072,United States,(803) 996-4682,,,,,,
Kangaroo Express,,5500 Sunset Blvd ,,Lexington ,SC,29072,United States,(803) 356-9220,,,,,,
Kangaroo Express,,5372 Sunset Blvd ,,Lexington ,SC,29072,United States,(803) 957-2201,,,,,,
Kangaroo Express,,3516 Bush River Rd ,,Columbia ,SC,29210,United States,(803) 731-5182,,,,,,
Kangaroo Express,,1019 South Lake Drive ,,Lexington ,SC,29073,United States,(803) 359-7300,,,,,,
Kangaroo Express,,14 D Mark Cummings Road ,,Hardeeville ,SC,29927,United States,(843) 208-2620,,,,,,
Kangaroo Express,,6194 South Okatie Hwy ,,Hardeeville ,SC,29927,United States,(843) 784-3617,,,,,,
Kangaroo Express,,130 Independence Blvd ,,Hardeeville ,SC,29927,United States,(843) 784-2604,,,,,,
Kangaroo Express,,574 Independence Blvd ,,Hardeeville ,SC,29927,United States,(843) 784-7079,,,,,,
Kangaroo Express,,1100 South Lake Drive ,,Lexington ,SC,29073,United States,(803) 808-0597,,,,,,
Kangaroo Express,,503 Main Road ,,Johns Island ,SC,29455,United States,(843) 559-3661,,,,,,
Kangaroo Express,,1786 Main Road ,,Johns Island ,SC,29455,United States,(843) 559-5124,,,,,,
Kangaroo Express,,2802 Maybank Highway ,,Johns Island ,SC,29455,United States,(843) 559-2885,,,,,,
Kangaroo Express,,2572 Ashley River Rd ,,Charleston ,SC,29414,United States,(843) 766-0174,,,,,,
Kangaroo Express,,1805 Savannah Hwy ,,Charleston ,SC,29407,United States,(843) 571-2926,,,,,,
Kangaroo Express,,5098 Dorchester Rd ,,Charleston ,SC,29418,United States,(843) 207-8042,,,,,,
Kangaroo Express,,1301 Ribaut Road ,,Port Royal ,SC,29935,United States,(843) 521-4539,,,,,,
Kangaroo Express,,1810 Ribaut Rd ,,Port Royal ,SC,29935,United States,(843) 521-1095,,,,,,
Kangaroo Express,,845 Robert Smalls Parkway ,,Beaufort ,SC,29906,United States,(843) 521-1416,,,,,,
Kangaroo Express,,10459 Ocean Hwy ,,Pawleys Island ,SC,29585-6599,United States,(843) 237-8966,,,,,,
Kangaroo Express,,49 Black Gum Road ,,Pawleys Island ,SC,29585,United States,(843) 237-4176,,,,,,
Kangaroo Express,,658 Wachesaw Road ,,Murrells Inlet ,SC,29576,United States,(843) 651-0620,,,,,,
Kangaroo Express,,315 Church St ,,Georgetown ,SC,29440,United States,(843) 527-1161,,,,,,
Kangaroo Express,,2602 High Market Street ,,Georgetown ,SC,29440,United States,(843) 546-9292,,,,,,
Kangaroo Express,,3730 Hwy 17 Bypass ,,Murrells Inlet ,SC,29576,United States,(843) 651-8099,,,,,,
Kangaroo Express,,1802 South Island Road ,,Georgetown ,SC,29440,United States,(843) 545-5721,,,,,,
Kangaroo Express,,4700 Holmestown Road ,,Myrtle Beach ,SC,29588,United States,(843) 650-2172,,,,,,
Kangaroo Express,,103 Pamplico Hwy N ,,Pamplico ,SC,29583,United States,(843) 493-0142,,,,,,
Kangaroo Express,,104 North Georgetown Ave ,,Johnsonville ,SC,29555,United States,(843) 386-3497,,,,,,
Kangaroo Express,,4735 E Palmetto Street ,,Florence ,SC,29506,United States,(843) 669-5219,,,,,,
Kangaroo Express,,2701 S Irby St ,,Florence ,SC,29505,United States,(843) 662-8180,,,,,,
Kangaroo Express,,3114 E Palmetto St ,,Florence ,SC,29506,United States,(843) 676-0490,,,,,,
Kangaroo Express,,1401 E Liberty St ,,Marion ,SC,29571,United States,(843) 423-5152,,,,,,
Kangaroo Express,,717 Second Loop Road ,,Florence ,SC,29505,United States,(843) 667-4120,,,,,,
Kangaroo Express,,485 North Main Street ,,Hemingway ,SC,29554,United States,(843) 558-2243,,,,,,
Kangaroo Express,,728 South Cashua Drive ,,Florence ,SC,29501,United States,(843) 317-9001,,,,,,
Kangaroo Express,,3817 W Palmetto Street ,,Florence ,SC,29501,United States,(843) 667-0787,,,,,,
Kangaroo Express,,5255 Rivers Ave ,,North Charleston ,SC,29406,United States,(843) 566-1745,,,,,,
Kangaroo Express,,9195 University Drive ,,North Charleston ,SC,29406,United States,(843) 553-7677,,,,,,
Kangaroo Express,,7500 Dorchester Road ,,North Charleston ,SC,29418,United States,,,,,,,
Kangaroo Express,,2957 West Montague Ave ,,North Charleston ,SC,29418,United States,(843) 747-2848,,,,,,
Kangaroo Express,,5302 Rivers Ave ,,North Charleston ,SC,29406,United States,(843) 554-4583,,,,,,
Kangaroo Express,,2213 Ashley Phosphate Rd ,,North Charleston ,SC,29406,United States,(843) 572-0909,,,,,,
Kangaroo Express,,8501 Dorchester Rd N ,,North Charleston ,SC,29420,United States,(843) 760-0019,,,,,,
Kangaroo Express,,5154 N Rhett Avenue ,,North Charleston ,SC,29405,United States,(843) 747-3306,,,,,,
Kangaroo Express,,2421 W Aviation Avenue ,,North Charleston ,SC,29406,United States,(843) 746-9137,,,,,,
Kangaroo Express,,349 Edgefield Drive ,,Belvedere ,SC,29841,United States,(803) 442-7102,,,,,,
Kangaroo Express,,2995 10th Ave No Ext ,,Myrtle Beach ,SC,29577,United States,(843) 626-5965,,,,,,
Kangaroo Express,,4408 Hwy 501 ,,Myrtle Beach ,SC,29579,United States,(843) 236-3874,,,,,,
Kangaroo Express,,1695 Hwy 501 W ,,Myrtle Beach ,SC,29577,United States,(843) 626-8109,,,,,,
Kangaroo Express,,6326 HWY 544 ,,Myrtle Beach ,SC,29588,United States,(843) 236-0434,,,,,,
Kangaroo Express,,3710 Hwy 501 ,,Myrtle Beach ,SC,29579,United States,(843) 236-0050,,,,,,
Kangaroo Express,,3305 N Kings Hwy ,,Myrtle Beach ,SC,29577,United States,(843) 626-2440,,,,,,
Kangaroo Express,,4999 Carolina Forest Blvd ,,Myrtle Beach ,SC,29579,United States,(843) 903-0526,,,,,,
Kangaroo Express,,5600 S Kings Hwy ,,Myrtle Beach ,SC,29575,United States,(843) 238-4157,,,,,,
Kangaroo Express,,9701 N Kings Hwy ,,Myrtle Beach ,SC,29572,United States,(843) 449-6604,,,,,,
Kangaroo Express,,1001 N 62nd Ave ,,Myrtle Beach ,SC,29577,United States,(843) 497-2298,,,,,,
Kangaroo Express,,4481 Socastee Blvd/Hwy 707 ,,Myrtle Beach ,SC,29588,United States,(843) 293-4414,,,,,,
Kangaroo Express,,4625 Dick Pond Rd ,,Myrtle Beach ,SC,29588,United States,(843) 650-9839,,,,,,
Kangaroo Express,,1710 21st Ave North Ext ,,Myrtle Beach ,SC,29577,United States,(843) 448-6594,,,,,,
Kangaroo Express,,1009 Third Ave ,,So Myrtle Beach ,SC,29577,United States,(843) 448-7024,,,,,,
Kangaroo Express,,3791 Oleander Drive ,,Myrtle Beach ,SC,29577,United States,(843) 916-9081,,,,,,
Kangaroo Express,,1405 S Kings Hwy ,,Myrtle Beach ,SC,29577,United States,(843) 448-2303,,,,,,
Kangaroo Express,,4570 Socastee Blvd ,,Myrtle Beach ,SC,29588,United States,(843) 293-6414,,,,,,
Kangaroo Express,,2863 S Hwy 17 & Atlantic ,,Murrells Inlet ,SC,29576,United States,(843) 651-4778,,,,,,
Kangaroo Express,,3741 Hwy 17 South ,,Murrells Inlet ,SC,29576,United States,(843) 651-3190,,,,,,
Kangaroo Express,,5146 Hwy 17 South ,,Murrells Inlet ,SC,29576,United States,(843) 651-1881,,,,,,
Kangaroo Express,,1350 US 17 South ,,North Myrtle Beach ,SC,29582,United States,(843) 272-1965,,,,,,
Kangaroo Express,,10105 Highway 17 North ,,Mc Clellanville ,SC,29458,United States,(843) 887-3977,,,,,,
Kangaroo Express,,210 Saint James Avenue ,,Goose Creek ,SC,29445,United States,,,,,,,
Kangaroo Express,,840 Hwy 1 South ,,Lugoff ,SC,29078,United States,(803) 438-3384,,,,,,
Kangaroo Express,,2507 Main Street ,,Elgin ,SC,29045,United States,(803) 438-6753,,,,,,
Kangaroo Express,,2501 N Broad Street ,,Camden ,SC,29020,United States,(803) 425-0094,,,,,,
Kangaroo Express,,2001 Jefferson Davis Hwy ,,Camden ,SC,29020,United States,(803) 425-1126,,,,,,
Kangaroo Express,,2101 Clemson Rd ,,Columbia ,SC,29229,United States,(803) 788-4071,,,,,,
Kangaroo Express,,941 Longtown Road ,,Columbia ,SC,29229,United States,(803) 736-1641,,,,,,
Kangaroo Express,,8200 Two Notch Road ,,Columbia ,SC,29223,United States,(803) 788-8255,,,,,,
Kangaroo Express,,2101 Hwy 17 South ,,North Myrtle Beach ,SC,29582,United States,(843) 272-2697,,,,,,
Kangaroo Express,,4509 Hwy 17 ,,North Myrtle Beach ,SC,29582,United States,(843) 272-6181,,,,,,
Kangaroo Express,,511 Hwy 17 South ,,North Myrtle Beach ,SC,29582,United States,(843) 249-8110,,,,,,
Kangaroo Express,,4815 Hwy 17 South ,,North Myrtle Beach ,SC,29582,United States,(843) 272-4949,,,,,,
Kangaroo Express,,2841 Broad River Road ,,Columbia ,SC,29210,United States,(803) 731-5009,,,,,,
Kangaroo Express,,1001 S Governor Williams ,,Darlington ,SC,29532,United States,(843) 395-2219,,,,,,
Kangaroo Express,,3746 Ladson Road ,,Ladson ,SC,29456,United States,(843) 873-5132,,,,,,
Kangaroo Express,,215 Red Bank Rd ,,Goose Creek ,SC,29445,United States,(843) 572-3170,,,,,,
Kangaroo Express,,1044 Redbank Rd ,,Goose Creek ,SC,29445,United States,(843) 764-0794,,,,,,
Kangaroo Express,,1406 Savannah Hwy ,,Charleston ,SC,29407,United States,(843) 556-5693,,,,,,
Kangaroo Express,,906 Folly Road ,,Charleston ,SC,29412,United States,(843) 762-4838,,,,,,
Kangaroo Express,,897 Folly Road ,,Charleston ,SC,29412,United States,(843) 406-9899,,,,,,
Kangaroo Express,,101 Atomic Road ,,Jackson ,SC,29831,United States,(803) 471-2345,,,,,,
Kangaroo Express,,12020 Asheville Hwy ,,Inman ,SC,29349,United States,(864) 472-3777,,,,,,
Kangaroo Express,,2795 Boiling Springs Rd ,,Boiling Springs ,SC,29316,United States,(864) 578-6640,,,,,,
Kangaroo Express,,8998 SC Hwy 11 ,,Campobello ,SC,29322,United States,(864) 472-2128,,,,,,
Kangaroo Express,,3656 Highway 701 South ,,Conway ,SC,29527,United States,,,,,,,
Kangaroo Express,,3656 Hwy 701 South ,,Conway ,SC,29527,United States,(843) 397-0756,,,,,,
Kangaroo Express,,1600 Church Street ,,Conway ,SC,29526,United States,(843) 248-6641,,,,,,
Kangaroo Express,,1500 Hwy 544 ,,Conway ,SC,29526,United States,(843) 347-6027,,,,,,
Kangaroo Express,,1390 Hwy 501 E ,,Conway ,SC,29526,United States,(843) 347-7136,,,,,,
Kangaroo Express,,669 Hwy 544 ,,Conway ,SC,29526,United States,(843) 347-7747,,,,,,
Kangaroo Express,,7020 Hwy 90 ,,Longs ,SC,29568,United States,(843) 399-8661,,,,,,
Kangaroo Express,,7901 White Horse Rd ,,Greenville ,SC,29617,United States,(864) 246-9189,,,,,,
Kangaroo Express,,1501 Rutherford Rd ,,Greenville ,SC,29609,United States,(864) 292-1989,,,,,,
Kangaroo Express,,1609 West Blue Ridge ,,Greenville ,SC,29611,United States,(864) 271-1477,,,,,,
Kangaroo Express,,429 Wade Hampton Blvd ,,Greenville ,SC,29609,United States,(864) 232-7029,,,,,,
Kangaroo Express,,820 Church Street ,,Greenville ,SC,29601,United States,(864) 271-3202,,,,,,
Kangaroo Express,,42 Center Street ,,Folly Beach ,SC,29439,United States,(843) 588-6208,,,,,,
Kangaroo Express,,904 St Andrews Blvd ,,Charleston ,SC,29407,United States,(843) 556-5902,,,,,,
Kangaroo Express,,2235 Decker Blvd ,,Columbia ,SC,29206,United States,(803) 788-7334,,,,,,
Kangaroo Express,,14215 E Wade Hampton Blvd ,,Greer ,SC,29651,United States,(864) 801-8761,,,,,,
Kangaroo Express,,901 W Wade Hampton Blvd ,,Greer ,SC,29650,United States,(864) 879-1182,,,,,,
Kangaroo Express,,1968 Meeting Street ,,Charleston ,SC,29403,United States,(843) 722-9932,,,,,,
Kangaroo Express,,3689 Dorchester Rd ,,Charleston ,SC,29405,United States,(843) 744-1608,,,,,,
Kangaroo Express,,3416 Leesburg Rd ,,Columbia ,SC,29209,United States,(803) 783-6450,,,,,,
Kangaroo Express,,5425 Forest Drive ,,Columbia ,SC,29206,United States,(803) 790-2655,,,,,,
Kangaroo Express,,4400 Bethel Church Road ,,Columbia ,SC,29206,United States,(803) 787-2562,,,,,,
Kangaroo Express,,6923 Rivers Ave ,,Charleston ,SC,29406,United States,(843) 553-1152,,,,,,
Kangaroo Express,,1301 Sam Rittenberg Blvd ,,Charleston ,SC,29407,United States,(843) 556-7406,,,,,,
Kangaroo Express,,1141 Old Towne Road ,,Charleston ,SC,29407,United States,(843) 571-3931,,,,,,
Kangaroo Express,,2655 Columbia Hwy North ,,Aiken ,SC,29805,United States,(803) 641-1897,,,,,,
Kangaroo Express,,74 Indian Village Trail ,,Bastian ,VA,24314,United States,(276) 688-4363,,,,,,
Kangaroo Express,,6168 North Scenic Hwy ,,Bastian ,VA,24314,United States,(276) 688-4169,,,,,,
Kangaroo Express,,5522 Hwy 11 ,,Atkins ,VA,24124,United States,(276) 783-1833,,,,,,
