store_name,store_number,address,address2,city,state,zip_code,country,phone_number,latitude,longitude,store_hours,store_type,other_fields,coming_soon
,,50680 GRATIOT AVE.,,CHESTERFIELD,MI,48051,United States,(586) 648-1636,42.67046,-82.836639,Mon - Sun: 24 HOURS Dining room closes at 10pm ,,,
,,32439 GRATIOT AVE,,ROSEVILLE,MI,48066,United States,(586) 294-5895,42.535137,-82.912392,Mon - Sun: 24 HOURS ,,,
,,26111 HOOVER RD.,,WARREN,MI,48089,United States,(586) 757-2333,42.485897,-83.006409,Mon - Sun: 24 HOURS ,,,
,,28692 DEQUINDRE UNIT J 100,,WARREN,MI,48092,United States,(586) 573-3000,42.502975,-83.085388,Mon - Sun: 24 HOURS ,,,
,,1120 W. 14 MILE ROAD,,CLAWSON,MI,48017,United States,(248) 288-2240,42.533215,-83.16217,Mon - Sun: 24 HOURS ,,,
,,5644 N. TELEGRAPH,,DEARBORN HEIGHTS,MI,48127,United States,(313) 562-1420,42.328316,-83.272095,Mon - Sun: 24 HOURS ,,,
,,13201 MIDDLEBELT RD.,,LIVONIA,MI,48150,United States,734-245-0970,42.379921,-83.333519,Mon - Sun: 24 HOURS ,,,
,,145 HARBISON BLVD.,,COLUMBIA,SC,29212,United States,(803) 851-7472,34.068863,-81.165413,Mon - Thu: 10am - 12am Fri - Sat: 10am - 1am Sun: 10am - 12am ,,,
,,1895 SCENIC HIGHWAY 124,,SNELLVILLE,GA,30078,United States,(770) 978-0361,33.874748,-84.013687,Mon - Sun: 10am - 1am ,,,
,,305 E THOMAS RD,,PHOENIX,AZ,85012,United States,(602) 234-0857,33.479637,-112.069084,Mon - Thu: 6am - 1am Fri: 6am - 3am Sat: 8am - 3am Sun: 8am - 1am ,,,
,,1628 N 44TH ST,,PHOENIX,AZ,85008,United States,(602) 275-0005,33.466717,-111.987694,Mon - Sun: 24 HOURS ,,,
,,4252 S. 48TH ST,,PHOENIX,AZ,85040,United States,(602) 454-0863,33.407986,-111.97847,Mon - Fri: 6am - 12am Sat - Sun: 8am - 12am ,,,
,,12996 ALPHARETTA HWY,,MILTON,GA,30004,United States,(678) 366-2002,34.098621,-84.271561,Mon - Sun: 10am - 1am ,,,
,,9775 Hwy 92,,Woodstock,GA,30188,United States,(678) 494-0434,34.086575,-84.526794,Mon - Sun: 10am - 1am ,,,
,,4269 ROSWELL RD NE BLDG 200,,MARIETTA,GA,30062,United States,(770) 977-6793,33.986691,-84.425957,Mon - Sun: 10am - 1am ,,,
,,745 CHASTAIN RD NW BLDG 200,,KENNESAW,GA,30144,United States,(770) 792-5980,34.035458,-84.569962,Mon - Sun: 10am - 1am ,,,
,,2521 COBB PARKWAY SE,,SMYRNA,GA,30080,United States,(770) 955-9115,33.891304,-84.475822,Mon - Sun: 10am - 1am ,,,
,,1935 COBB PARKWAY,,KENNESAW,GA,30152,United States,,34.010178,-84.611855,,,,
,,4300 EAST WEST CONNECTOR,,SMYRNA,GA,30082,United States,(770) 438-1751,33.843754,-84.501198,Mon - Sun: 10am - 1am ,,,
,,1535 HWY 20 W,,MCDONOUGH,GA,30253,United States,(770) 957-8126,33.420483,-84.189072,Mon - Sun: 10am - 1am ,,,
,,4418 HAMILTON RD.,,COLUMBUS,GA,31904,United States,(706) 507-4200,32.506721,-84.97065,Mon - Sun: 24 HOURS ,,,
,,12025 COLLEGIATE WAY,,ORLANDO,FL,32817,United States,(407) 277-2001,28.597263,-81.212273,Mon - Sun: 24 HOURS ,,,
,,1901 W. NORTHERN AVE.,,PHOENIX,AZ,85021,United States,(602) 995-1144,33.552723,-112.100113,Mon - Wed: 7am - 2am Thu - Sat: 7am - 4am Sun: 7am - 2am ,,,
,,4101 N 67TH AVE,,PHOENIX,AZ,85033,United States,(623) 247-5773,33.495121,-112.202911,Mon - Thu: 7am - 2am Fri - Sat: 7am - 3am Sun: 7am - 2am ,,,
,,7665 W. LOWER BUCKEYE RD,,PHOENIX,AZ,85043,United States,(623) 474-2855,33.422493,-112.224838,Mon - Tue: 6am - 12am Wed - Fri: 6am - 1am Sat: 7am - 1am Sun: 8am - 12am ,,,
,,4926 E CHANDLER BLVD,,PHOENIX,AZ,85048,United States,(480) 785-8365,33.30582,-111.977142,Mon - Sun: 24 HOURS ,,,
,,9672 WEST CAMELBACK RD,,GLENDALE,AZ,85305,United States,(623) 772-7790,33.508514,-112.265076,Mon - Tue: 7am - 1am Wed - Thu: 7am - 2am Fri - Sat: 7am - 3am Sun: 7am - 1am ,,,
,,15229 N 35TH AVE,,PHOENIX,AZ,85053,United States,(602) 866-0590,33.623245,-112.133675,Mon - Thu: 6am - 3am Fri: 6am - 4am Sat: 7am - 4am Sun: 7am - 3am ,,,
,,9171 W PEORIA AVE,,PEORIA,AZ,85345,United States,(623) 979-9203,33.580772,-112.256325,Mon - Thu: 7am - 11pm Fri - Sat: 7am - 12am Sun: 7am - 11pm ,,,
,,1864 S COUNTRY CLUB DR,,MESA,AZ,85210,United States,(480) 964-0054,33.38084,-111.840561,Mon - Sun: 24 HOURS ,,,
,,16649 N TATUM BLVD,,PHOENIX,AZ,85032,United States,(602) 569-0099,33.638672,-111.977264,Mon - Tue: 7am - 12am Wed - Sat: 7am - 2am Sun: 8am - 12am ,,,
,,6855 GRAND NATIONAL DRIVE,,ORLANDO,FL,32819,United States,(407) 363-0738,28.462528,-81.4562,Mon - Sun: 24 HOURS ,,,
,,1850 W  UNION HILLS DR,,PHOENIX,AZ,85027,United States,(623) 869-6592,33.654842,-112.099297,Mon - Thu: 6am - 3am Fri: 6am - 4am Sat: 7am - 4am Sun: 7am - 3am ,,,
,,1900 WEST RAY RD.,,CHANDLER,AZ,85224,United States,(480) 917-4821,33.320908,-111.875,Mon - Fri: 6:30am - 3:30am Sat - Sun: 7:30am - 3:30am ,,,
,,1483  N DYSART RD,,AVONDALE,AZ,85323,United States,(623) 932-4438,33.463028,-112.34108,Mon - Thu: 7am - 2am Fri - Sat: 7am - 3am Sun: 7am - 2am ,,,
,,19880 N 59TH AVE,,GLENDALE,AZ,85308,United States,(623) 825-0394,33.665802,-112.18676,Mon - Thu: 7am - 11pm Fri - Sat: 7am - 12am Sun: 7am - 11pm ,,,
,,1035 S. ARIZONA AVENUE,,CHANDLER,AZ,85286,United States,(480) 855-7141,33.290325,-111.839752,Mon - Fri: 6:30am - 2am Sat - Sun: 7:30am - 2am ,,,
,,3648 E SOUTHERN AVE,,MESA,AZ,85206,United States,(480) 924-4855,33.393814,-111.751671,Mon - Sun: 7am - 2:30am ,,,
,,2510 E GERMANN ROAD,,CHANDLER,AZ,85286,United States,(480) 821-9096,33.280251,-111.797836,Mon - Fri: 6am - 1am Sat - Sun: 7am - 1am ,,,
,,900 S VAL VISTA DR,,GILBERT,AZ,85296,United States,(480) 558-8334,33.333923,-111.755844,Mon - Sun: 7am - 2am ,,,
,,13367 W GRAND AVE,,SURPRISE,AZ,85374,United States,(623) 556-2096,33.637283,-112.348961,Mon - Thu: 7am - 12am Fri - Sat: 7am - 1am Sun: 7am - 12am ,,,
,,2645 NORTH POWER ROAD,,MESA,AZ,85215,United States,(480) 924-6015,33.463852,-111.683372,Mon - Sun: 6am - 12am ,,,
,,1842 SOUTH SIGNAL BUTTE ROAD,,MESA,AZ,85209,United States,(480) 986-1766,33.381321,-111.601067,Mon - Thu: 6am - 12:30am Fri - Sun: 24 hrs - 24 hrs ,,,
,,4115 W ANTHEM WAY,,ANTHEM,AZ,85086,United States,(623) 465-9820,33.870522,-112.148605,Mon - Thu: 7am - 12am Fri: 7am - 1am Sat: 7am - 2am Sun: 8am - 12am ,,,
,,108 S BEELINE HWY,,PAYSON,AZ,85541,United States,(928) 468-1505,34.239948,-111.323029,Mon - Thu: 6am - 10:30pm Fri - Sat: 6am - 11:30pm Sun: 6am - 10:30pm ,,,
,,7091 EAST PAV WAY,,PRESCOTT VALLEY,AZ,86314,United States,(928) 759-3480,34.584492,-112.34063,Mon - Sun: 24 HOURS ,,,
,,1000 E. 2ND STREET,,EDMOND,OK,73034,United States,(405) 341-1279,35.652603,-97.466499,Mon - Sun: 24 HOURS ,,,
,,5845 W. RENO AVE.,,OKLAHOMA CITY,OK,73127,United States,(405) 945-6526,35.464439,-97.618416,Mon - Thu: 7am - 12am Fri - Sat: 7am - 1am Sun: 7am - 12am ,,,
,,770 SW 19TH ST.,,MOORE,OK,73160,United States,(405) 790-1252,35.319801,-97.503792,Mon - Sun: 24 HOURS ,,,
,,520 ALTA MERE,,FORT WORTH,TX,76114,United States,(817) 763-0841,32.754681,-97.429153,Mon - Sun: 7am - 12am ,,,
,,2913 SOUTH 23RD AVENUE,,GREELEY,CO,80631,United States,(970) 330-3808,40.38916,-104.716377,Mon - Thu: 7:30am - Midnight Fri - Sat: 7:30am - 3:30am Sun: 7:30am - Midnight ,,,
,,18260 EAST 104TH AVE.,,COMMERCE CITY,CO,80022,United States,(303) 227-4952,39.885193,-104.77449,Mon - Fri: 7:30am - 10:30pm Sat - Sun: 8am - 10:30pm ,,,
,,570 E BROMLEY LN,,BRIGHTON,CO,80601,United States,(303) 654-1186,39.97184,-104.81562,Mon - Sun: 6am - 12am ,,,
,,24023 E. PROSPECT AVE.,,AURORA,CO,80016,United States,(303) 627-5777,39.60001,-104.708244,Mon - Thu: 6am - 11pm Fri: 6am - 3am Sat: 6am - 4am Sun: 7:30am - 11pm ,,,
,,3465 N. SALIDA STREET,,AURORA,CO,80011,United States,(303) 371-1844,39.764065,-104.775459,Mon - Sun: 6am - 12am ,,,
,,14400 E COLFAX AVE,,AURORA,CO,80011,United States,(720) 858-8041,39.73962,-104.820259,Mon - Wed: 6am - 2am Thu: 6am - 12am Fri - Sat: 12am - 12am Sun: 12am - 2am ,,,
,,4698 PEORIA ST.,,DENVER,CO,80239,United States,(303) 371-1785,39.782242,-104.846237,Mon - Thu: 6am - 10:30pm Fri: 6am - 11pm Sat: 7am - 11pm Sun: 8am - 10:30pm ,,,
,,11053 I-25 FRONTAGE RD.,,FIRESTONE,CO,80504,United States,(303) 485-6379,40.161224,-104.976639,Mon - Sun: 6am - 2am ,,,
,,11147 PIKES PEAK DRIVE,,PARKER,CO,80138,United States,303-840-9362,39.517353,-104.761826,Mon - Sun: 6am - 11pm ,,,
,,8100 NORTHFIELD BLVD,,DENVER,CO,80239,United States,(303) 307-1712,39.785133,-104.893761,Mon - Sun: 6am - 12am ,,,
,,11155 EAST ARAPAHOE RD.,,CENTENNIAL,CO,80112,United States,(303) 706-9204,39.595127,-104.860764,Mon - Fri: 6am - 3am Sat: 6am - 4am Sun: 6am - 3am ,,,
,,7506 PARKWAY DR,,LONETREE,CO,80124,United States,(303) 768-8335,39.565475,-104.902519,Mon - Sun: 24 HOURS ,,,
,,50 WEST BELLEVIEW AVE.,,ENGLEWOOD,CO,80110,United States,(303) 798-1777,39.623802,-104.988914,Mon - Fri: 6am - 3am Sat: 6am - 4am Sun: 6am - 3am ,,,
,,1645 SPACE CENTER DR,,COLORADO SPRINGS,CO,80915,United States,719-573-0403,38.856586,-104.722649,Mon - Thu: 6am - 12am Fri - Sun: 12am - 12am ,,,
,,595 SUMMIT BLVD,,BROOMFIELD,CO,80021,United States,(303) 404-3801,39.92815,-105.137833,Mon - Sun: 6am - 12am ,,,
,,4310 N. ACADEMY BLVD.,,COLORADO SPRINGS,CO,80918,United States,719-264-1324,38.89415,-104.758774,Mon - Fri: 6am - 12am Sat - Sun: 12am - 12am ,,,
,,8020 N. ACADEMY BLVD,,COLORADO SPRINGS,CO,80920,United States,(719) 599-0155,38.947441,-104.803459,Mon - Fri: 6am - 12am Sat - Sun: 12am - 12am ,,,
,,3855 ASTROZON BLVD.,,COLORADO SPRINGS,CO,80916,United States,719-391-3708,38.796066,-104.756973,Mon - Fri: 6am - 12am Sat - Sun: 12am - 12am ,,,
,,5240 SOUTH WADSWORTH,,LAKEWOOD,CO,80123,United States,(303) 972-3700,39.621876,-105.090569,Mon - Fri: 6am - 3am Sat: 6am - 4am Sun: 6am - 3am ,,,
,,43 UNION BLVD,,LAKEWOOD,CO,80228,United States,(303) 986-2471,39.714912,-105.133797,Mon - Sun: 6am - 12am ,,,
,,3916 N. PRINCE ST.,,CLOVIS,NM,88101,United States,(575) 935-1103,34.439091,-103.196465,Mon - Sun: 24 HOURS ,,,
,,804 S. WHITE SANDS BLVD.,,ALAMOGORDO,NM,88310,United States,(575) 437-4704,32.881607,-105.960213,Mon - Sun: 24 HOURS ,,,
,,10015 CENTRAL AVE. N.E.,,ALBUQUERQUE,NM,87123,United States,(505) 292-5188,35.072296,-106.535568,Mon - Sun: 24 HOURS ,,,
,,1885 EMILIO LOOP ROAD,,LOS LUNAS,NM,87031,United States,(505) 865-4768,34.806168,-106.73336,Mon - Sun: 24 HOURS ,,,
,,4720 MONTGOMERY BLVD NE,,ALBUQUERQUE,NM,87109,United States,(505) 883-2820,35.130566,-106.590202,Mon - Sun: 24 HOURS ,,,
,,1525 COORS BLVD NW,,ALBUQUERQUE,NM,87121,United States,(505) 836-1377,35.102493,-106.706764,Mon - Sun: 24 HOURS ,,,
,,1101 Unser Blvd SE,,Rio Rancho,NM,87124,United States,(505) 896-0733,35.239773,-106.696968,Mon - Sat: Sun: 24 HOURS ,,,
,,550 US HWY. 491,,GALLUP,NM,87301,United States,(505) 722-8916,35.530441,-108.759583,Mon - Sun: 24 HOURS ,,,
,,5506 E. MAIN ST.,,FARMINGTON,NM,87402,United States,(505) 327-4306,36.770515,-108.141701,Mon - Sun: 24 HOURS ,,,
,,840 E BROADWAY BLVD,,TUCSON,AZ,85719,United States,(520) 628-7258,32.221046,-110.958771,Mon - Thu: 7am - 12am Fri: 7am - 1am Sat - Sun: 8am - 1am ,,,
,,1530 W GRANT RD,,TUCSON,AZ,85745,United States,(520) 373-5934,32.250992,-110.99939,Mon - Fri: 7am - 11pm Sat: 8am - 11pm Sun: 9am - 11pm ,,,
,,2878 NORTH AVE,,GRAND JUNCTION,CO,81501,United States,(970) 812-5700,39.078175,-108.519455,Mon - Sun: 6am - 2am ,,,
,,2513 SOUTH US 50,,GRAND JUNCTION,CO,81505,United States,(970) 242-1293,39.081646,-108.586197,Mon - Sun: 6am - 2am ,,,
,,6160 JARVIS AVE,,NEWARK,CA,94560,United States,(510) 797-0516,37.548866,-122.04924,,,,
,,451 HEGENBERGER RD.,,OAKLAND,CA,94621,United States,(510) 633-6329,37.737656,-122.196899,Mon - Fri: 7am - 11:30am Sat - Sun: 8am - 11:30am ,,,
,,4490 DELTA GATEWAY BLVD,,PITTSBURG,CA,94565,United States,(925) 778-8005,38.00552,-121.837456,Mon - Thu: 7am - 2am Fri - Sat: 7am - 3am Sun: 7am - 2am ,,,
,,29025 W. PLAZA PARK DRIVE,,SANTA NELLA,CA,95322,United States,(209) 827-3605,37.224854,-121.033508,Mon - Sun: 24 HOURS ,,,
,,1194 E YOSEMITE AVE,,MANTECA,CA,95337,United States,(209) 239-0233,37.798229,-121.235023,Mon - Thu: 7am - 1am Fri - Sat: 7am - 3am Sun: 7am - 1am ,,,
,,4300 SALIDA BLVD.,,SALIDA,CA,95368,United States,(209) 543-9425,37.70079,-121.074493,Mon - Thu: 7am - 2am Fri - Sat: 7am - 3am Sun: 7am - 2am ,,,
,,1601 STANDIFORD,,MODESTO,CA,95356,United States,(209) 524-6393,37.689838,-121.021957,Mon - Thu: 7am - 2am Fri - Sat: 7am - 3am Sun: 7am - 2am ,,,
,,2400 MITCHELL ROAD,,CERES,CA,95307,United States,(209) 541-1970,37.595356,-120.938705,Mon - Sun: 7am - 3am ,,,
,,817 WEST HAMMER LANE,,STOCKTON,CA,95210,United States,(209) 476-0500,38.021492,-121.322182,Mon - Thu: 7am - 3am Fri - Sat: 7am - 4am Sun: 7am - 3am ,,,
,,2101 SYLVAN AVE.,,MODESTO,CA,95355,United States,(209) 551-9260,37.689884,-120.958549,Mon - Thu: 7am - 1am Fri - Sat: 7am - 3am Sun: 7am - 1am ,,,
,,2401 FULKERTH ROAD,,TURLOCK,CA,95380,United States,(209) 668-6498,37.507568,-120.875603,Mon - Thu: 7am - 2am Fri - Sat: 7am - 3am Sun: 7am - 2am ,,,
,,201 PITTMAN ROAD,,FAIRFIELD,CA,94534,United States,(707) 646-2820,38.220375,-122.127571,Mon - Sun: 24 HOURS ,,,
,,282 SUNSET AVENUE,,SUISUN CITY,CA,94585,United States,(707) 425-1863,38.245525,-122.020721,Mon - Sun: 9am - 11pm ,,,
,,151 PEABODY ROAD,,VACAVILLE,CA,95687,United States,(707) 455-8564,38.351547,-121.976143,Mon - Sun: 9am - 11pm ,,,
,,1798 WEST OLIVE AVE,,MERCED,CA,95348,United States,(209) 385-2264,37.319069,-120.497551,Mon - Thu: 7am - 2am Fri - Sat: 7am - 3am Sun: 7am - 2am ,,,
,,7519 LAGUNA BLVD.,,ELK GROVE,CA,95758,United States,(916) 684-5809,38.424034,-121.415154,Mon - Sun: 24 HOURS ,,,
,,8230 CALVINE RD,,SACRAMENTO,CA,95624,United States,(916) 525-1110,38.452576,-121.38063,Mon - Sun: 24 HOURS ,,,
,,1649 RESEARCH PARK DR,,DAVIS,CA,95618,United States,(530) 757-6976,38.54063,-121.731735,Mon - Sun: 6am - 12am Dining room closes at 10pm ,,,
,,841 HARBOR BLVD.,,WEST SACRAMENTO,CA,95691,United States,(916) 371-3284,38.578178,-121.548477,Mon - Sun: 24 HOURS ,,,
,,3027 K ST,,SACRAMENTO,CA,95816,United States,(916) 446-6687,38.571934,-121.466148,Mon - Sun: 24 HOURS ,,,
,,9152 KIEFER BLVD,,SACRAMENTO,CA,95826,United States,(916) 361-7109,38.546848,-121.359779,Mon: 6:00 AM - 12:00 AM Tue - Sun: 6am - 12am ,,,
,,2200 ARDEN WAY,,SACRAMENTO,CA,95825,United States,(916) 920-0541,38.596149,-121.41478,Mon - Sun: 24 HOURS ,,,
,,3531 TRUXEL RD.,,SACRAMENTO,CA,95834,United States,(916) 928-1971,38.635826,-121.502975,Mon - Sun: 24 HOURS ,,,
,,2525 WATT AVENUE,,SACRAMENTO,CA,95821,United States,(916) 973-9196,38.611214,-121.383591,Mon - Sun: 24 HOURS ,,,
,,1368 EAST MAIN ST.,,WOODLAND,CA,95776,United States,(530) 668-1633,38.677204,-121.758804,Mon - Sun: 6am - 11pm Dining room closes at 10pm ,,,
,,4337 ELKHORN BLVD,,SACRAMENTO,CA,95842,United States,(916) 332-9117,38.694736,-121.361725,Mon: 7AM - 12AM Tue - Thu: 7am - 12am Fri - Sat: 7am - 2am Sun: 7am - 12am ,,,
,,7398 GREENBACK LN,,CITRUS HEIGHTS,CA,95621,United States,(916) 723-5332,38.678009,-121.292816,Mon - Sun: 24 HOURS ,,,
,,8898 MADISON AVE,,FAIR OAKS,CA,95628,United States,(916) 966-4135,38.663944,-121.226898,Mon - Sun: 24 HOURS ,,,
,,2699 E BIDWELL ST,,FOLSOM,CA,95630,United States,(916) 984-4915,38.656281,-121.12632,Mon - Sun: 24 HOURS ,,,
,,4705 N US HIGHWAY 89,,FLAGSTAFF,AZ,86001,United States,(928) 526-5101,35.225048,-111.582916,Mon - Sun: 24 HOURS ,,,
,,2201 S. MILTON RD,,FLAGSTAFF,AZ,86001,United States,(928) 226-9186,35.178001,-111.661743,Mon - Sun: 24 HOURS ,,,
,,8069 E 32ND STREET,,YUMA,AZ,85365,United States,(928) 726-2100,32.669888,-114.494522,Mon - Sun: 7am - 12am ,,,
,,1830 E. 16TH STR,,YUMA,AZ,85365,United States,(928) 782-5345,32.698696,-114.598961,Mon - Sun: 7am - 11pm ,,,
,,2451 SOUTH AVENUE B,,YUMA,AZ,85364,United States,(928) 314-0038,32.682491,-114.649834,Mon - Sun: 24 HOURS ,,,
,,3390 N STOCKTON HILL RD,,KINGMAN,AZ,86401,United States,(928) 681-3412,35.214001,-114.035004,Mon - Sun: 24 HOURS ,,,
,,120 S  LOVEKIN BLVD,,BLYTHE,CA,92225,United States,(760) 922-5335,33.609573,-114.605247,,,,
,,81 LONDON BRIDGE RD,,LAKE HAVASU,AZ,86403,United States,(928) 854-4748,34.474766,-114.347801,Mon - Sun: 24 HOURS ,,,
,,1155 B STREET,,SAN DIEGO,CA,92101,United States,(619) 239-5411,32.717712,-117.154533,Mon - Sun: 24 HOURS ,,,
,,2804 MAIN ST,,SAN DIEGO,CA,92113,United States,(619) 231-6883,32.693104,-117.133339,Mon - Sun: 7am - 12am ,,,
,,3106 SPORTS ARENA BLVD.,,SAN DIEGO,CA,92110,United States,(619) 523-5052,32.752155,-117.205116,Mon - Sun: 24 HOURS ,,,
,,7919 MISSION CENTER ROAD,,SAN DIEGO,CA,92108,United States,(619) 692-1401,32.773403,-117.15358,Mon - Sun: 24 HOURS ,,,
,,7060 BROADWAY,,LEMON GROVE,CA,91945,United States,(619) 698-2076,32.742722,-117.046265,Mon - Thu: 6am - 1am Fri - Sat: 24 HOURS Sun: 6am - 1am ,,,
,,1619 DOUGLAS BLVD,,ROSEVILLE,CA,95678,United States,(916) 782-9288,38.744591,-121.263451,Mon: 6AM - 12AM Tue - Sun: 6am - 12am ,,,
,,3896 CLAIREMONT DR,,SAN DIEGO,CA,92117,United States,(858) 270-3788,32.811409,-117.201309,,,,
,,141 BROADWAY SUITE A,,EL CAJON,CA,92021,United States,(619) 593-4860,32.807076,-116.960747,Mon - Sun: 6am - 12am ,,,
,,9822 N MAGNOLIA  AVE,,SANTEE,CA,92071,United States,(619) 562-4462,32.855904,-116.971321,,,,
,,1270 W VALLEY PKWY,,ESCONDIDO,CA,92029,United States,(760) 489-6947,33.11528,-117.10125,Mon - Thu: 6am - 12am Fri - Sat: 6am - 1am Sun: 6am - 12am ,,,
,,736 S. RANCHO SANTA FE,,SAN MARCOS,CA,92078,United States,(760) 597-0572,33.132313,-117.207855,Mon - Sat: 6am - 12am Sun: 8am - 12am ,,,
,,1605 E  VALLEY PKWY,,ESCONDIDO,CA,92027,United States,(760) 580-7179,33.133896,-117.059036,Mon - Thu: 7am - 11pm Fri - Sat: 7am - 12am Sun: 7am - 10pm ,,,
,,110 W EL NORTE PARKWAY,,ESCONDIDO,CA,92026,United States,(760) 745-0500,33.139984,-117.089981,,,,
,,2269  S EL CAMINO REAL,,OCEANSIDE,CA,92056,United States,(760) 433-8450,33.183517,-117.328682,Mon - Sun: 6am - 12am ,,,
,,1970 COLLEGE BLVD,,OCEANSIDE,CA,92056,United States,(760) 945-3786,33.209003,-117.284325,Mon - Sun: 7am - 12am ,,,
,,1037 E BOBIER DR,,VISTA,CA,92084,United States,(760) 945-8294,33.217045,-117.226524,Mon - Sun: 7am - 12am ,,,
,,1601 CARMELO DR,,OCEANSIDE,CA,92054,United States,(760) 721-9003,33.208305,-117.388611,Mon - Sun: 24 HOURS ,,,
,,30607 HWY-79 SOUTH,,TEMECULA,CA,92590,United States,(951) 693-4212,33.481308,-117.141975,Mon - Sun: 24 HOURS ,,,
,,27453 YNEZ RD,,TEMECULA,CA,92591,United States,(951) 676-9373,33.505337,-117.150444,Mon - Sun: 24 HOURS ,,,
,,27445 JEFFERSON AVE,,TEMECULA,CA,92590,United States,(951) 676-2921,33.518497,-117.162819,Mon - Sun: 6am - 11pm ,,,
,,40375 WINCHESTER RD,,TEMECULA,CA,92591,United States,(951) 296-2670,33.531631,-117.150871,Mon - Sun: 6am - 12am ,,,
,,109 VIA PICO PLAZA,,SAN CLEMENTE,CA,92672,United States,(949) 492-5311,33.437099,-117.622139,Mon - Sun: 7am - 12am ,,,
,,40465  ALTA MURRIETA,,MURRIETA HOT SPRINGS,CA,92563,United States,(951) 677-0819,33.556389,-117.177544,Mon - Sun: 6am - 12am ,,,
,,34289 PACIFIC COAST HWY,,DANA POINT,CA,92629,United States,(949) 661-7544,33.465206,-117.689346,Mon - Sun: 24 HOURS ,,,
,,30640 BENTON ROAD,,WINCHESTER,CA,92596,United States,(951) 325-5161,33.592724,-117.123314,Mon - Sun: 24 HOURS ,,,
,,36164 HIDDEN SPRINGS ROAD,,WILDOMAR,CA,92595,United States,(951) 609-3581,33.59528,-117.247322,Mon - Sun: 24 HOURS ,,,
,,27596 CLINTON KEITH RD,,MURRIETA,CA,92562,United States,(951) 679-4499,33.598801,-117.175972,Mon - Thu: 6am - 12am Fri - Sun: 12am - 12am ,,,
,,31780 DEL OBISPO,,SAN JUAN CAPISTRANO,CA,92675,United States,(949) 487-1811,33.500954,-117.65995,Mon - Wed: 6am - 12am Thu - Sun: 12am - 12am ,,,
,,28055 SCOTT ROAD,,MURRIETA,CA,92563,United States,(951) 301-7111,33.641521,-117.169395,Mon - Sun: 24 HOURS ,,,
,,26241 AVERY PKWY,,MISSION VIEJO,CA,92692,United States,(949) 347-0776,33.547577,-117.671982,Mon - Sun: 24 HOURS ,,,
,,31904 MISSION TRL,,LAKE ELSINORE,CA,92530,United States,(951) 674-5771,33.656773,-117.297966,Mon - Thu: 6am - 12am Fri - Sat: 6am - 1am Sun: 6am - 12am ,,,
,,30107 ANTELOPE RD,,MENIFEE,CA,92584,United States,(951) 301-8268,33.684601,-117.167778,Mon - Sun: 24 HOURS ,,,
,,25900 NEWPORT ROAD,,MENIFEE,CA,92584,United States,(951) 244-3722,33.685467,-117.206383,Mon - Sun: 24 HOURS ,,,
,,25542 MARGUERITE PKWY,,MISSION VIEJO,CA,92692,United States,(949) 770-7888,33.59156,-117.659592,Mon - Sun: 6am - 3am ,,,
,,26951 ALISO CREEK ROAD,,ALISO VIEJO,CA,92656,United States,(949) 448-9171,33.571423,-117.723885,Mon - Sun: 24 HOURS ,,,
,,16810 LAKESHORE DR,,LAKE ELSINORE,CA,92530,United States,(951) 674-3646,33.685276,-117.367599,Mon - Thu: 6am - 12am Fri - Sat: 6am - 1am Sun: 6am - 12am ,,,
,,22351 ANTONIO PARKWAY,,RANCHO SANTA MARGARITA,CA,92688,United States,(949) 888-8951,33.637711,-117.590393,Mon - Thu: 6am - 12am Fri - Sat: 6am - 1am Sun: 6am - 12am ,,,
,,29245 CENTRAL AVENUE,,LAKE ELSINORE,CA,92532,United States,(951) 245-2710,33.695244,-117.334518,,,,
,,24465 ALICIA PARKWAY,,MISSION VIEJO,CA,92692,United States,(949) 951-8642,33.606686,-117.690178,Mon - Sun: 24 HOURS ,,,
,,22401 EL TORO RD,,LAKE FOREST,CA,92630,United States,(949) 586-5124,33.637131,-117.679794,Mon - Sun: 7am - 11pm ,,,
,,22349 EL TORO RD,,LAKE FOREST,CA,92630,United States,(949) 586-3757,33.638096,-117.679276,Mon - Sun: 24 HOURS ,,,
,,22859 LAKE FOREST DR,,LAKE FOREST,CA,92630,United States,(949) 588-9894,33.631065,-117.716133,Mon - Fri: 7am - 10pm Sat: 8am - 9pm Sun: 10am - 8pm ,,,
,,3150 CASE ROAD BLDG E,,PERRIS,CA,92570,United States,(951) 928-3675,33.743896,-117.193413,Mon - Sun: 24 HOURS ,,,
,,16211 LAKE FOREST DR.,,IRVINE,CA,92618,United States,(949) 453-0281,33.629208,-117.72525,Mon - Sun: 24 HOURS ,,,
,,3100 W  FLORIDA AVE,,HEMET,CA,92545,United States,(951) 925-0318,33.747482,-117.004745,Mon - Sun: 24 HOURS ,,,
,,41871 STATE HIGHWAY 74,,HEMET,CA,92544,United States,(951) 925-6068,33.747475,-116.93074,Mon - Sun: 24 HOURS ,,,
,,26702 PORTOLA PARKWAY,,FOOTHILL RANCH,CA,92610,United States,(949) 588-0716,33.678883,-117.664017,Mon - Thu: 6am - 2am Fri: 6am - 3am Sat: 8am - 3am Sun: 8am - 2am ,,,
,,1688 N. PERRIS BLVD.UNIT A,,PERRIS,CA,92570,United States,(951) 443-1100,33.772179,-117.226074,Mon - Sun: 24 HOURS ,,,
,,59 TECHNOLOGY DRIVE,,IRVINE,CA,92618,United States,(949) 453-1600,33.658375,-117.741524,Mon - Fri: 6am - 12am Sat - Sun: 8am - 12am ,,,
,,421 E 4TH ST,,PERRIS,CA,92570,United States,(951) 657-9012,33.782001,-117.220428,Mon - Sun: 24 HOURS ,,,
,,1401 SAN JACINTO AVE,,SAN JACINTO,CA,92583,United States,(951) 654-3639,33.774384,-116.958519,Mon - Sun: 24 HOURS ,,,
,,1231 N STATE STREET,,SAN JACINTO,CA,92583,United States,(951) 487-6281,33.8036,-116.971497,Mon - Sun: 24 HOURS ,,,
,,4820 BARRANCA PKWY,,IRVINE,CA,92604,United States,(949) 551-8792,33.676128,-117.797974,Mon - Sun: 6am - 12am ,,,
,,3050 MAIN ST.,,IRVINE,CA,92614,United States,(949) 263-8656,33.678608,-117.834686,,,,
,,4780 IRVINE BLVD.,,IRVINE,CA,92620,United States,(714) 838-7975,33.713318,-117.760162,Mon - Sun: 6am - 3am ,,,
,,2112 S.E. BRISTOL ST,,NEWPORT BEACH,CA,92660,United States,(949) 852-1180,33.661308,-117.874779,Mon - Sun: 24 HOURS ,,,
,,1720 SUPERIOR AVE,,COSTA MESA,CA,92627,United States,(949) 631-1831,33.636501,-117.922791,Mon - Sun: 24 HOURS ,,,
,,4547 CAMPUS DR,,IRVINE,CA,92612,United States,(949) 854-7102,33.671494,-117.865578,Mon - Sun: 24 HOURS ,,,
,,280 BRISTOL ST,,COSTA MESA,CA,92626,United States,(714) 546-0587,33.667625,-117.882675,,,,
,,51 RAMONA EXPRESSWAY,,PERRIS,CA,92571,United States,(951) 443-0022,33.844456,-117.224564,Mon - Sun: 24 HOURS ,,,
,,2956 BRISTOL ST,,COSTA MESA,CA,92626,United States,(714) 957-0482,33.678703,-117.885414,Mon - Sun: 24 HOURS ,,,
,,1740 E DYER RD,,SANTA ANA,CA,92705,United States,(949) 250-4716,33.70816,-117.848915,Mon - Sun: 5am - 10pm ,,,
,,21401 BROOKHURST ST,,HUNTINGTON BEACH,CA,92646,United States,(714) 963-3303,33.651829,-117.953773,Mon - Thu: 7am - 12am Fri - Sat: 7am - 2am Sun: 7am - 12am ,,,
,,1155 BAKER ST,,COSTA MESA,CA,92626,United States,(714) 557-3047,33.679794,-117.90609,Mon - Thu: 6am - 3am Fri - Sat: 6am - 4am Sun: 6am - 3am ,,,
,,2701 S GRAND AVE,,SANTA ANA,CA,92705,United States,(714) 540-6157,33.710983,-117.85025,Mon - Sun: 24 HOURS ,,,
,,2900 S. MAIN ST.,,SANTA ANA,CA,92707,United States,(714) 979-0037,33.70866,-117.867981,Mon - Sun: 24 HOURS ,,,
,,13802 RED HILL AVE,,TUSTIN,CA,92780,United States,(714) 838-2314,33.735611,-117.812798,Mon - Sun: 24 HOURS ,,,
,,20921 MAGNOLIA ST,,HUNTINGTON BEACH,CA,92646,United States,(714) 536-2991,33.658691,-117.971413,Mon - Sun: 6am - 3am ,,,
,,16150 PERRIS BLVD,,MORENO VALLEY,CA,92551,United States,(951) 242-2269,33.886261,-117.225922,,,,
,,3329 S HARBOR BLVD,,SANTA ANA,CA,92704,United States,(714) 662-7763,33.702564,-117.91893,Mon - Sun: 24 HOURS ,,,
,,2320 E FOURTH ST,,SANTA ANA,CA,92705,United States,(714) 836-7365,33.747864,-117.833328,Mon - Sun: 6am - 11pm ,,,
,,1219 E. ONTARIO AVE.,,CORONA,CA,92881,United States,(951) 279-3230,33.848282,-117.54287,,,,
,,17080 VAN BUREN BLVD,,RIVERSIDE,CA,92504,United States,(951) 780-2027,33.882618,-117.36438,,,,
,,2841 W WARNER AVE,,SANTA ANA,CA,92704,United States,(714) 957-0900,33.715286,-117.907364,Mon - Thu: 6am - 1am Fri - Sat: 6am - 3am Sun: 6am - 1am ,,,
,,18990 VAN BUREN BLVD,,RIVERSIDE,CA,92508,United States,(951) 780-3741,33.887348,-117.331741,Mon - Sun: 24 HOURS ,,,
,,2300 N TUSTIN AVE,,SANTA ANA,CA,92705,United States,(714) 541-3722,33.767426,-117.836128,Mon - Sun: 24 HOURS ,,,
,,7175 W YORKTOWN AVE,,HUNTINGTON BEACH,CA,92648,United States,(714) 960-8765,33.679588,-118.003265,Mon - Sun: 24 HOURS ,,,
,,17295 BROOKHURST ST,,FOUNTAIN VALLEY,CA,92708,United States,(714) 968-3445,33.712128,-117.954422,Mon - Sun: 24 HOURS ,,,
,,25024 ALESSANDRO BLVD,,MORENO VALLEY,CA,92553,United States,(951) 924-4435,33.918175,-117.226082,Mon - Sun: 24 HOURS ,,,
,,3730 E CHAPMAN AVE,,ORANGE,CA,92869,United States,(714) 997-4550,33.787411,-117.813286,Mon - Sun: 24 HOURS ,,,
,,74617 STATE HIGHWAY 111,,PALM DESERT,CA,92260,United States,(760) 346-1103,33.720802,-116.363182,Mon - Thu: 6am - 12am Fri - Sat: 6am - 1am Sun: 6am - 12am ,,,
,,9436 WARNER AVE,,FOUNTAIN VALLEY,CA,92708,United States,(714) 968-9846,33.715706,-117.964333,Mon - Sun: 6am - 11pm ,,,
,,401 E. ALESSANDRO BLVD,,RIVERSIDE,CA,92508,United States,(951) 780-7861,33.915844,-117.324043,,,,
,,2761 N GRAND AVE,,SANTA ANA,CA,92701,United States,(714) 639-1360,33.775043,-117.853073,Mon - Sun: 24 HOURS ,,,
,,310 N MCKINLEY ST,,CORONA,CA,92879,United States,(951) 737-8344,33.888046,-117.520584,,,,
,,67794 E  PALM CANYON DR,,CATHEDRAL CITY,CA,92234,United States,(760) 328-1874,33.786537,-116.478546,,,,
,,103 E. 3RD ST,,CORONA,CA,92879,United States,(951) 735-1967,33.878616,-117.565475,,,,
,,17501 BEACH BLVD,,HUNTINGTON BEACH,CA,92647,United States,(714) 842-2096,33.708126,-117.989723,Mon - Sun: 24 HOURS ,,,
,,3199 VAN BUREN BLVD,,RIVERSIDE,CA,92503,United States,(951) 687-2862,33.911938,-117.439484,Mon - Fri: 6am - 1am Sat - Sun: 6am - 2am ,,,
,,435 E 4TH STREET,,BEAUMONT,CA,92223,United States,(951) 845-6900,33.926147,-116.976868,Mon - Sun: 24 HOURS ,,,
,,12641 MORENO BEACH DRIVE,,MORENO VALLEY,CA,92552,United States,(951) 243-8340,33.936478,-117.179161,Mon - Sun: 24 HOURS ,,,
,,10494 MAGNOLIA AVE,,RIVERSIDE,CA,92505,United States,(951) 785-0533,33.909763,-117.464798,Mon - Sun: 24 HOURS ,,,
,,12625 FREDERICK ST,,MORENO VALLEY,CA,92553,United States,(951) 653-4911,33.937889,-117.264671,Mon - Sun: 7am - 1am ,,,
,,102 N SUNRISE WAY,,PALM SPRINGS,CA,92262,United States,(760) 322-5143,33.823559,-116.527657,Mon - Sun: 24 HOURS ,,,
,,24941 ELDER AVE,,MORENO VALLEY,CA,92557,United States,(951) 924-8141,33.940933,-117.227409,Mon - Sun: 24 HOURS ,,,
,,2043 W CHAPMAN AVE,,ORANGE,CA,92868,United States,(714) 978-6524,33.78812,-117.874733,Mon - Sun: 24 HOURS ,,,
,,1964 W RAMSEY ST,,BANNING,CA,92220,United States,(951) 849-2713,33.925404,-116.898178,Mon - Sun: 24 HOURS ,,,
,,4740 LA SIERRA AVE,,RIVERSIDE,CA,92505,United States,(951) 352-0444,33.917088,-117.487579,,,,
,,1301 E  KATELLA AVE,,ORANGE,CA,92867,United States,(714) 538-5644,33.809311,-117.839577,,,,
,,78468 STATE HIGHWAY 111,,LA QUINTA,CA,92253,United States,(760) 777-7283,33.717026,-116.295448,,,,
,,5601 EAST RAMON ROAD  UNIT C,,PALM SPRINGS,CA,92262,United States,(760) 322-5168,33.815411,-116.487686,Mon - Sun: 24 HOURS ,,,
,,5856 WARNER AVE,,HUNTINGTON BEACH,CA,92649,United States,(714) 846-6300,33.715065,-118.026016,Mon - Sun: 24 HOURS ,,,
,,90480 66TH AVE.,,MECCA,CA,92254,United States,(760) 396-1240,33.570267,-116.090317,,,,
,,2112 S STATE COLLEGE BLVD,,ANAHEIM,CA,92806,United States,(714) 634-0459,33.795574,-117.888618,Mon - Sun: 24 HOURS ,,,
,,2444 N PALM CANYON DR,,PALM SPRINGS,CA,92262,United States,(760) 320-1558,33.851482,-116.550781,Mon - Sun: 24 HOURS ,,,
,,11070 GARDEN GROVE BLVD,,GARDEN GROVE,CA,92843,United States,(714) 539-7915,33.774094,-117.939346,Mon - Sun: 6am - 1am ,,,
,,15456 Goldenwest St,,Westminster,CA,92683,United States,(714) 892-5216,33.738045,-118.006638,Mon - Sun: 24 Hours -  ,,,
,,3487 ARLINGTON AVE,,RIVERSIDE,CA,92506,United States,(951) 369-1127,33.946381,-117.387657,Mon - Sun: 24 HOURS ,,,
,,69070 RAMON ROAD,,CATHEDRAL CITY,CA,92234,United States,(760) 328-7012,33.816189,-116.456978,,,,
,,2330 S HARBOR BLVD,,ANAHEIM,CA,92802,United States,(714) 971-5239,33.789581,-117.914383,,,,
,,5290 ARLINGTON AVE,,RIVERSIDE,CA,92504,United States,(951) 687-5397,33.945786,-117.41758,Mon - Sun: 24 HOURS ,,,
,,2552 HAMNER AVE,,NORCO,CA,92860,United States,(951) 735-7033,33.918865,-117.559875,,,,
,,6333 RIVERSIDE AVE,,RIVERSIDE,CA,92506,United States,(951) 682-6333,33.952984,-117.38829,Mon - Sun: 24 HOURS ,,,
,,2607 N TUSTIN ST,,ORANGE,CA,92865,United States,(714) 974-5575,33.832237,-117.83606,Mon - Sun: 24 HOURS ,,,
,,1440 E LINCOLN AVE,,ORANGE,CA,92865,United States,(714) 974-4043,33.834797,-117.838417,Mon - Sun: 24 HOURS ,,,
,,52119 HARRISON STREET,,COACHELLA,CA,92236,United States,(760) 398-9055,33.670174,-116.181671,,,,
,,23573 SUNNYMEAD RANCH PKWY,,MORENO VALLEY,CA,92557,United States,(951) 485-2174,33.969166,-117.253334,,,,
,,9002 ARLINGTON AVE,,RIVERSIDE,CA,92503,United States,(951) 689-2625,33.946552,-117.468773,Mon - Sun: 24 HOURS ,,,
,,34540 MONTEREY AVENUE,,PALM DESERT,CA,92211,United States,(760) 324-3015,33.79792,-116.387619,Mon - Sun: 24 HOURS ,,,
,,19701 ESPERANZA RD,,YORBA LINDA,CA,92886,United States,(714) 779-8208,33.862762,-117.788567,Mon - Fri: 6am - 12am Sat: 6am - 1am Sun: 6am - 12am ,,,
,,81566 STATE HIGHWAY 111,,INDIO,CA,92201,United States,(760) 347-1619,33.714466,-116.233513,,,,
,,13731 GOLDENWEST ST,,WESTMINSTER,CA,92683,United States,(714) 898-8364,33.762405,-118.007423,Mon - Sun: 24 HOURS ,,,
,,39500 BERKEY DR,,PALM DESERT,CA,92211,United States,(760) 345-4331,33.761978,-116.303238,Mon - Sun: 24 HOURS ,,,
,,82742 STATE HIGHWAY 111,,INDIO,CA,92201,United States,(760) 342-6652,33.714863,-116.225723,Mon - Sun: 24 HOURS ,,,
,,72325 VARNER RD,,THOUSAND PALMS,CA,92276,United States,(760) 343-1391,33.815498,-116.400528,Mon - Sun: 24 HOURS ,,,
,,12800 BEACH BLVD,,STANTON,CA,90680,United States,(714) 898-4436,33.775417,-117.992218,Mon - Sun: 24 HOURS ,,,
,,1255 UNIVERSITY AVE,,RIVERSIDE,CA,92507,United States,(951) 781-9781,33.976116,-117.338799,Mon - Sun: 24 HOURS ,,,
,,2801 E LINCOLN AVE,,ANAHEIM,CA,92806,United States,(714) 632-9916,33.837296,-117.871559,Mon - Sun: 24 HOURS ,,,
,,4407 BROCKTON AVE,,RIVERSIDE,CA,92501,United States,(951) 682-0228,33.978218,-117.38327,Mon - Sun: 24 HOURS ,,,
,,1851 E ORANGETHORPE AVE,,PLACENTIA,CA,92870,United States,(714) 996-4089,33.867493,-117.824905,Mon - Sun: 24 HOURS ,,,
,,6118 CLAY ST,,RIVERSIDE,CA,92509,United States,(951) 681-6764,33.976376,-117.461899,Mon - Thu: 6am - 12am Fri - Sat: 6am - 2am Sun: 7am - 12am ,,,
,,33940 COUNTY LINE RD,,CALIMESA,CA,92320,United States,(909) 795-3110,34.00428,-117.06324,Mon - Sun: 5am - 11pm ,,,
,,6620 N. INDIAN CANYON,,PALM SPRINGS,CA,92262,United States,(760) 251-0022,33.903133,-116.544708,Mon - Sun: 5am - 12am ,,,
,,85494 VISTA DEL NORTE,,COACHELLA,CA,92236,United States,(760) 347-3289,33.716473,-116.171654,,,,
,,2900 WESTMINSTER AVE,,SEAL BEACH,CA,90740,United States,(562) 596-8508,33.759216,-118.081032,Mon - Sun: 24 HOURS ,,,
,,6269 PATS RANCH ROAD,,MIRA LOMA,CA,91752,United States,(951) 278-0504,33.973957,-117.543823,Mon - Sun: 24 HOURS ,,,
,,955 N HARBOR BLVD,,ANAHEIM,CA,92805,United States,(714) 991-4720,33.846325,-117.923553,Mon - Sun: 6am - 3am ,,,
,,7001 KATELLA AVE,,STANTON,CA,90680,United States,(714) 828-0431,33.803364,-118.010925,Mon - Sun: 24 HOURS ,,,
,,1155 E ORANGETHORPE AVE,,ANAHEIM,CA,92801,United States,(714) 447-3668,33.859909,-117.907112,Mon - Sun: 24 HOURS ,,,
,,2408 E CHAPMAN AVE,,FULLERTON,CA,92831,United States,(714) 870-5932,33.874092,-117.889648,Mon - Sun: 24 HOURS ,,,
,,1290 N  EUCLID ST,,ANAHEIM,CA,92801,United States,(714) 520-0186,33.852345,-117.941406,Mon - Sun: 24 HOURS ,,,
,,1941 N PLACENTIA AVE,,FULLERTON,CA,92831,United States,(714) 993-3780,33.890194,-117.874451,Mon - Sun: 24 HOURS ,,,
,,33299 YUCAIPA BLVD,,YUCAIPA,CA,92399,United States,(909) 797-9800,34.033455,-117.077988,Mon - Sun: 6am - 12am ,,,
,,1171 E. IMPERIAL HIGHWAY,,PLACENTIA,CA,92870,United States,(714) 985-9095,33.904896,-117.842552,Mon - Sun: 24 HOURS ,,,
,,3181 W. LINCOLN AVE,,ANAHEIM,CA,92801,United States,(714) 995-1152,33.832371,-118.002007,Mon - Sun: 24 HOURS ,,,
,,34860 YUCAIPA BLVD,,YUCAIPA,CA,92399,United States,(909) 790-9460,34.034401,-117.044029,Mon - Thu: 6am - 11pm Fri: 6am - 12am Sat: 12am - 12am Sun: 6am - 11pm ,,,
,,1141 N MAGNOLIA  AVE,,ANAHEIM,CA,92801,United States,(714) 761-1712,33.848541,-117.976677,Mon - Sun: 6am - 3am ,,,
,,5981 ORANGE AVE,,CYPRESS,CA,90630,United States,(714) 527-8129,33.824577,-118.028542,Mon - Thu: 6am - 12am Fri - Sat: 24 HOURS Sun: 6am - 12am ,,,
,,1540 OCOTILLO DR,,EL CENTRO,CA,92243,United States,(760) 352-7201,32.777222,-115.570663,Mon - Sun: 6am - 12am ,,,
,,2039 NORTH IMPERIAL AVENUE,,EL CENTRO,CA,92243,United States,(760) 370-3049,32.81554,-115.569748,Mon - Sun: 7am - 12am ,,,
,,1010 E WASHINGTON ST,,COLTON,CA,92324,United States,(909) 370-0477,34.047909,-117.311012,Mon - Sun: 24 HOURS ,,,
,,602 E REDLANDS BLVD,,REDLANDS,CA,92373,United States,(909) 792-3212,34.055248,-117.175873,Mon: 6:00 AM - 12:00 PM Tue - Sun: 6am - 12am ,,,
,,2201 PALO VERDE AVE,,LONG BEACH,CA,90815,United States,(562) 430-3973,33.795628,-118.108162,Mon - Sun: 24 HOURS ,,,
,,2665 S WATERMAN AVE,,SAN BERNARDINO,CA,92408,United States,(909) 825-0520,34.053078,-117.278572,Mon - Thu: 6am - 11pm Fri: 6am - 12am Sat: 7am - 12am Sun: 7am - 11pm ,,,
,,14290 PALM DR,,DESERT HOT SPRNGS,CA,92240,United States,(760) 329-0994,33.945198,-116.500938,Mon - Sun: 24 HOURS ,,,
,,1624 W REDLANDS BLVD,,REDLANDS,CA,92373,United States,(909) 793-8454,34.063133,-117.209885,Mon - Sun: 6am - 11pm ,,,
,,1020 ROSECRANS AVE,,FULLERTON,CA,92833,United States,(714) 526-1433,33.892159,-117.945587,Mon - Sun: 6am - 12am ,,,
,,24898 REDLANDS BLVD,,LOMA LINDA,CA,92354,United States,(909) 796-4022,34.06308,-117.261658,Mon - Sun: 6am - 11pm ,,,
,,6014 ORANGETHORPE AVE,,BUENA PARK,CA,90620,United States,(714) 994-4800,33.858498,-118.027702,Mon - Sun: 24 HOURS ,,,
,,3190  E  PACIFIC COAST HWY,,LONG BEACH,CA,90804,United States,(562) 597-4784,33.789841,-118.154755,Mon - Sun: 24 HOURS ,,,
,,7211 E. CARSON BLVD.,,LONG BEACH,CA,90808,United States,(562) 377-6332,33.830929,-118.089111,Mon - Sun: 24 HOURS ,,,
,,834 W VALLEY BLVD,,COLTON,CA,92324,United States,(909) 825-1946,34.068283,-117.33638,Mon: 6:00 AM - 12:00 PM Tue - Sun: 6am - 12am ,,,
,,4053 GRAND AVE,,CHINO,CA,91710,United States,(909) 613-1582,33.995667,-117.715683,Mon - Sun: 24 HOURS ,,,
,,16805 SLOVER AVE,,FONTANA,CA,92337,United States,(909) 357-1804,34.062767,-117.437614,Mon - Sun: 6am - 1am ,,,
,,11723 DEL AMO BLVD,,LAKEWOOD,CA,90715,United States,(562) 924-8586,33.846096,-118.083717,Mon - Sun: 24 HOURS ,,,
,,4850 E MOTOR LANE,,ONTARIO,CA,91761,United States,(909) 605-0465,34.046322,-117.548988,,,,
,,5740 RIVERSIDE DR,,CHINO,CA,91710,United States,(909) 627-5917,34.019516,-117.679504,Mon - Fri: 6am - 12am Sat - Sun: 6am - 2am ,,,
,,2535 S  EUCLID AVE,,ONTARIO,CA,91761,United States,(909) 983-6665,34.027714,-117.65052,Mon - Thu: 7am - 9pm Fri: 7am - 10pm Sat: 7am - 11pm Sun: 7am - 9pm ,,,
,,9906 SIERRA AVE,,FONTANA,CA,92335,United States,(909) 823-3191,34.072594,-117.436607,Mon - Sun: 24 HOURS ,,,
,,1120 S BRAWLEY AVE,,BRAWLEY,CA,92227,United States,(760) 344-3507,32.96936,-115.545036,,,,
,,1801 WILLOW STREET,,SIGNAL HILL,CA,90755,United States,(562) 997-9454,33.805141,-118.169296,Mon - Sun: 24 HOURS ,,,
,,10020 CHERRY AVE,,FONTANA,CA,92335,United States,(909) 356-1600,34.071808,-117.489311,,,,
,,751 S BEACH BLVD,,LA HABRA,CA,90631,United States,(562) 694-6095,33.924019,-117.968002,Mon - Thu: 7am - 2am Fri - Sat: 24 HOURS Sun: 7am - 2am ,,,
,,519 S  RIVERSIDE AVE,,RIALTO,CA,92376,United States,(909) 874-0121,34.091728,-117.370255,Mon - Sun: 24 HOURS ,,,
,,11879 ARTESIA BLVD,,ARTESIA,CA,90701,United States,(562) 865-3953,33.873196,-118.080513,Mon - Sun: 24 HOURS ,,,
,,12080 CENTRAL AVE,,CHINO,CA,91710,United States,(909) 364-9179,34.033764,-117.690193,Mon - Sun: 24 HOURS ,,,
,,770 W  2ND ST,,SAN BERNARDINO,CA,92410,United States,(909) 885-1235,34.102844,-117.300636,Mon: 6am - 2am Tue - Sun: 6am - 12am ,,,
,,27923 GREENSPOT ROAD,,HIGHLAND,CA,92346,United States,(909) 862-1122,34.107754,-117.195457,Mon - Sun: 24 HOURS ,,,
,,15055 IMPERIAL HWY,,LA MIRADA,CA,90638,United States,(562) 947-6672,33.917435,-118.010056,Mon - Sun: 24 HOURS ,,,
,,4340 MILLS CIRCLE,,ONTARIO,CA,91761,United States,(909) 484-6411,34.072533,-117.556969,Mon - Sun: 6am - 11pm ,,,
,,2120 E CARSON ST,,LONG BEACH,CA,90807,United States,(562) 997-2978,33.83202,-118.165909,Mon - Sun: 24 HOURS ,,,
,,21060 GOLDEN SPRINGS DR,,WALNUT,CA,91789,United States,(909) 594-8992,33.999336,-117.8452,Mon - Sun: 24 HOURS ,,,
,,16930 FOOTHILL BLVD,,FONTANA,CA,92335,United States,(909) 822-8100,34.106937,-117.434891,Mon - Sun: 24 HOURS ,,,
,,2071 RANCHO VALLEY DR. #100,,POMONA,CA,91767,United States,(909) 622-2673,34.03476,-117.758583,Mon - Sun: 24 HOURS ,,,
,,1909 E 4TH ST,,ONTARIO,CA,91764,United States,(909) 989-2066,34.077541,-117.610779,Mon - Sun: 6am - 11pm ,,,
,,13204 IMPERIAL HIGHWAY,,SANTA FE SPRINGS,CA,90670,United States,(562) 229-9400,33.916473,-118.050919,,,,
,,3501 E SOUTH ST,,LONG BEACH,CA,90805,United States,(562) 634-6152,33.860405,-118.150887,Mon - Sun: 6am - 3am ,,,
,,1006 N WESTERN AVE,,SAN PEDRO,CA,90732,United States,(310) 221-0643,33.752438,-118.308136,Mon - Sun: 24 HOURS ,,,
,,10644 ALONDRA BLVD.,,NORWALK,CA,90650,United States,(562) 402-4350,33.88739,-118.106377,Mon - Sun: 24 HOURS ,,,
,,15266 WHITTIER BLVD,,WHITTIER,CA,90603,United States,(562) 789-8536,33.946896,-118.000938,Mon - Thu: 7am - 1am Fri - Sat: 24 HOURS Sun: 7am - 1am ,,,
,,20259 VALLEY BLVD,,WALNUT,CA,91789,United States,(909) 468-1844,34.008556,-117.861526,Mon - Fri: 6am - 11pm Sat: 7am - 11pm Sun: 8am - 11pm ,,,
,,624 N  MOUNTAIN AVE,,ONTARIO,CA,91762,United States,(909) 986-9966,34.070248,-117.669945,Mon - Sun: 24 HOURS ,,,
,,3702 HIGHLAND AVE,,HIGHLAND,CA,92346,United States,(909) 864-4504,34.135929,-117.206352,Mon - Thu: 8am - 12am Fri - Sat: 8am - 1am Sun: 8am - 12am ,,,
,,520 N. DIAMOND BAR BLVD,,DIAMOND BAR,CA,91765,United States,(909) 861-1316,34.029232,-117.809914,Mon - Sun: 24 HOURS ,,,
,,2002 E HIGHLAND AVE,,SAN BERNARDINO,CA,92404,United States,(909) 883-7826,34.136208,-117.24321,Mon - Sun: 24 HOURS ,,,
,,1933 E 223RD ST,,CARSON,CA,90810,United States,(310) 847-7191,33.824524,-118.228882,Mon - Sun: 24 HOURS ,,,
,,8055 MONET AVE,,RANCHO CUCAMONGA,CA,91739,United States,(909) 646-9093,34.107086,-117.534653,Mon - Sun: 6am - 11pm ,,,
,,2855 DEL ROSA AVE,,SAN BERNARDINO,CA,92404,United States,(909) 882-7890,34.143185,-117.251877,Mon - Sun: 24 HOURS ,,,
,,7968 HAVEN AVE,,RANCHO CUCAMONGA,CA,91730,United States,(909) 989-7731,34.108818,-117.576271,Mon - Sun: 6am - 11pm ,,,
,,1229 PACIFIC COAST HWY,,HARBOR CITY,CA,90710,United States,(310) 257-6861,33.789883,-118.298828,Mon - Sun: 24 HOURS ,,,
,,2000 N. RIVERSIDE AVE.,,RIALTO,CA,92377,United States,(909) 877-9700,34.141567,-117.375626,,,,
,,9719 CARMENITA RD,,WHITTIER,CA,90605,United States,(562) 698-5574,33.949623,-118.046494,,,,
,,14301 CLARK AVE,,BELLFLOWER,CA,90706,United States,(562) 920-3464,33.90398,-118.134087,Mon - Sun: 24 HOURS ,,,
,,1495 N GAREY AVE,,POMONA,CA,91767,United States,(909) 622-0711,34.072166,-117.752548,Mon - Sun: 24 HOURS ,,,
,,2395 S. HACIENDA BLVD,,HACIENDA HEIGHTS,CA,91745,United States,(626) 333-8495,33.992184,-117.96859,Mon - Thu: 6am - 12am Fri - Sat: 24 HOURS Sun: 6am - 12am ,,,
,,1371 E FOOTHILL BLVD,,UPLAND,CA,91786,United States,(909) 981-3671,34.106991,-117.631729,Mon - Sun: 24 HOURS ,,,
,,179 N CENTRAL AVE,,UPLAND,CA,91786,United States,(909) 946-0144,34.09483,-117.689301,Mon - Fri: 6am - 12am Sat - Sun: 6am - 2am ,,,
,,7247 ARCHIBALD AVE,,RANCHO CUCAMONGA,CA,91701,United States,(909) 987-7628,34.122581,-117.593033,,,,
,,272 E 40TH ST,,SAN BERNARDINO,CA,92404,United States,(909) 882-1910,34.16523,-117.279701,Mon - Sun: 24 HOURS ,,,
,,4376 W. SUNSET BLVD,,LOS ANGELES,CA,90029,United States,(323) 906-1215,34.095913,-118.284225,Mon - Wed: 6am - 2am Thu - Sat: 6am - 3am Sun: 6am - 2am ,,,
,,3020 LOS FELIZ BLVD,,LOS ANGELES,CA,90039,United States,(323) 665-1702,34.124924,-118.26516,Mon - Wed: 6am - 2am Thu - Sat: 6am - 3am Sun: 6am - 2am ,,,
,,4903 N. EAGLE ROCK BLVD.,,LOS ANGELES,CA,90041,United States,(323) 254-1007,34.13559,-118.215614,Mon - Sun: 24 HOURS ,,,
,,3540 SOUTH LA BREA AVE..,,BALDWIN HILLS,CA,90016,United States,(323) 296-1674,34.022449,-118.355614,Mon - Sun: 24 HOURS ,,,
,,6126 E. WASHINGTON BLVD,,COMMERCE,CA,90040,United States,(323) 767-0233,33.995625,-118.14756,Mon - Sun: 24 HOURS ,,,
,,880 N WILCOX AVE,,MONTEBELLO,CA,90640,United States,(323) 721-7207,34.032238,-118.124763,,,,
,,2060 S. LA CIENEGA BLVD.,,LOS ANGELES,CA,90034,United States,(310) 559-0460,34.038399,-118.376839,Mon - Sun: 24 HOURS ,,,
,,3705 ROBERTSON BLVD,,CULVER CITY,CA,90232,United States,(310) 839-8897,34.030289,-118.386864,Mon - Sun: 24 HOURS ,,,
,,6550 SAN FERNANDO RD,,GLENDALE,CA,91201,United States,(818) 956-1236,34.168797,-118.292007,Mon - Sun: 6am - 12am ,,,
,,3510 W. CENTURY BLVD,,INGLEWOOD,CA,90303,United States,(310) 677-7884,33.945171,-118.333336,Mon - Sun: 24 HOURS ,,,
,,2101 W  GLENOAKS BLVD,,GLENDALE,CA,91201,United States,(818) 841-7771,34.177128,-118.297264,Mon - Wed: 6am - 12am Thu - Sat: 6am - 3am Sun: 6am - 12am ,,,
,,844 E  UNION ST,,PASADENA,CA,91101,United States,(626) 792-9842,34.147652,-118.132553,Mon - Sun: 24 HOURS ,,,
,,1816 W  IMPERIAL HWY,,LOS ANGELES,CA,90047,United States,(323) 754-8063,33.930653,-118.310165,Mon - Sun: 24 HOURS ,,,
,,8650 WASHINGTON BLVD,,PICO RIVERA,CA,90660,United States,(562) 949-5462,33.985252,-118.101768,Mon - Sat: 6am - 2:30am Sun: 7am - 2:30am ,,,
,,3714 W  VERDUGO AVE,,BURBANK,CA,91505,United States,(818) 842-2516,34.160938,-118.343796,Mon - Sun: 24 HOURS ,,,
,,8028 FIRESTONE BLVD,,DOWNEY,CA,90241,United States,(562) 861-0889,33.941936,-118.13707,Mon - Sun: 24 HOURS ,,,
,,11446 JEFFERSON BLVD,,CULVER CITY,CA,90230,United States,(310) 398-1406,33.989079,-118.396446,Mon - Sun: 24 HOURS ,,,
,,9200 FLAIR DRIVE,,EL MONTE,CA,91731,United States,(626) 569-0864,34.071625,-118.068733,,,,
,,8651 SO. LA TIJERA AVE.,,LOS ANGELES,CA,90045,United States,(310) 645-5667,33.958935,-118.392487,Mon - Thu: 7am - 11pm Fri - Sat: 7am - 1am Sun: 7am - 11pm ,,,
,,11344 TELEGRAPH RD,,SANTA FE SPRINGS,CA,90670,United States,(562) 929-9223,33.949036,-118.090935,Mon - Sun: 24 HOURS ,,,
,,11066 SANTA MONICA BLVD,,LOS ANGELES,CA,90024,United States,(310) 481-6826,34.047527,-118.443321,Mon - Sun: 24 HOURS ,,,
,,2515 N. HOLLYWOOD WAY,,BURBANK,CA,91505,United States,(818) 565-0534,34.19384,-118.349503,Mon - Sun: 24 HOURS ,,,
,,3566 E FOOTHILL BLVD,,PASADENA,CA,91107,United States,(626) 792-9619,34.150085,-118.07679,Mon - Sun: 24 HOURS ,,,
,,1641 S. ALAMEDA ST,,COMPTON,CA,90220,United States,(310) 608-2325,33.879051,-118.218163,,,,
,,1818 S. DURFEE,,SO. EL MONTE,CA,91733,United States,(626) 442-2447,34.043438,-118.032623,,,,
,,14485 INGLEWOOD AVE,,HAWTHORNE,CA,90250,United States,(310) 973-8801,33.899879,-118.361656,Mon - Thu: 6am - 1am Fri - Sat: 6am - 2am Sun: 6am - 1am ,,,
,,17504  AVALON BLVD,,CARSON,CA,90746,United States,(310) 515-6479,33.871513,-118.266167,Mon - Sun: 24 HOURS ,,,
,,12320 WASHINGTON BLVD,,WHITTIER,CA,90606,United States,(562) 789-8443,33.966679,-118.049881,Mon - Sun: 24 HOURS ,,,
,,16216  CRENSHAW BLVD,,GARDENA,CA,90249,United States,(310) 532-8608,33.883327,-118.326157,Mon - Thu: 7am - 12am Fri - Sat: 12am - 12am Sun: 7am - 12am ,,,
,,6718 LAUREL CANYON BLVD,,NORTH HOLLYWOOD,CA,91606,United States,(818) 764-2844,34.192936,-118.396179,Mon - Thu: 6am - 12am Fri - Sat: 6am - 2am Sun: 6am - 12am ,,,
,,6275 FOOTHILL BLVD,,TUJUNGA,CA,91042,United States,(818) 862-3029,34.24192,-118.267799,,,,
,,18604 S WESTERN AVE,,GARDENA,CA,90248,United States,(310) 532-2786,33.861706,-118.308952,Mon - Sun: 24 HOURS ,,,
,,12690 RAMONA BLVD.,,BALDWIN PARK,CA,91706,United States,(626) 338-6202,34.077728,-117.99614,Mon - Sun: 24 HOURS ,,,
,,20135 HAWTHORNE BLVD,,TORRANCE,CA,90503,United States,(310) 371-0167,33.848907,-118.354179,Mon - Sun: 24 HOURS ,,,
,,13701 ROSCOE BLVD,,PANORAMA CITY,CA,91402,United States,(818) 780-8101,34.22192,-118.43132,Mon - Sun: 6am - 12am ,,,
,,945 E. HUNTINGTON DRIVE,,MONROVIA,CA,91016,United States,(626) 932-1921,34.139877,-117.9841,Mon - Sun: 24 HOURS ,,,
,,1110 S  HACIENDA BLVD,,HACIENDA HEIGHTS,CA,91745,United States,(626) 333-8322,34.010529,-117.962982,Mon - Sun: 24 HOURS ,,,
,,1595  SEPULVEDA BLVD,,TORRANCE,CA,90501,United States,(310) 326-3768,33.816288,-118.306068,Mon - Sun: 7am - 2am ,,,
,,6821 BALBOA BLVD,,VAN NUYS,CA,91406,United States,(818) 781-6199,34.194679,-118.50132,Mon - Sun: 6am - 12am ,,,
,,15330 NORDHOFF STREET,,NORTH HILLS,CA,91343,United States,(818) 830-3528,34.235096,-118.467026,Mon - Sun: 6am - 12am ,,,
,,7545 BALBOA BLVD,,VAN NUYS,CA,91406,United States,(818) 994-3564,34.208076,-118.50132,Mon - Thu: 6am - 12am Fri - Sat: 6am - 2am Sun: 6am - 12am ,,,
,,2401 S. Azusa,,West Covina,CA,91792,United States,626-965-4500,34.033066,-117.914688,Mon - Sun: 24 HOURS ,,,
,,15353 CHATSWORTH ST,,MISSION HILLS,CA,91345,United States,(818) 361-9390,34.264797,-118.466827,Mon - Thu: 6am - 12am Fri - Sat: 6am - 2am Sun: 6am - 12am ,,,
,,106 S AZUSA AVE,,AZUSA,CA,91702,United States,(626) 334-7599,34.121265,-117.907036,Mon - Sun: 24 HOURS ,,,
,,459 S  CITRUS AVE,,COVINA,CA,91723,United States,(626) 967-0113,34.081291,-117.890434,Mon - Sun: 24 HOURS ,,,
,,2021 GLENOAKS BLVD,,SAN FERNANDO,CA,91340,United States,(818) 361-5044,34.298843,-118.438362,,,,
,,19644 VANOWEN ST,,RESEDA,CA,91335,United States,(818) 345-3376,34.19381,-118.561119,Mon - Fri: 6am - 12am Sat - Sun: 6am - 2am ,,,
,,19309 ROSCOE BLVD.,,NORTHRIDGE,CA,91324,United States,(818) 998-5995,34.220776,-118.553932,Mon - Fri: 6am - 12am Sat - Sun: 6am - 2am ,,,
,,18070 CHATSWORTH ST,,GRANADA HILLS,CA,91344,United States,(818) 832-6373,34.264652,-118.525764,Mon - Fri: 6am - 1am Sat - Sun: 6am - 4am ,,,
,,445 W FOOTHILL BLVD,,GLENDORA,CA,91740,United States,(626) 335-5515,34.136017,-117.871773,Mon - Sun: 24 HOURS ,,,
,,8941 CORBIN AVE,,NORTHRIDGE,CA,91324,United States,(818) 709-8536,34.23341,-118.562706,Mon - Sun: 6am - 12am ,,,
,,7121 CARLSON CIR,,CANOGA PARK,CA,91303,United States,(818) 346-8167,34.199947,-118.614326,Mon - Fri: 6am - 1am Sat - Sun: 6am - 3am ,,,
,,1834 E. ROUTE 66,,GLENDORA,CA,91740,United States,(626) 335-8519,34.128651,-117.830139,Mon - Thu: 6am - 12am Fri - Sat: 6am - 1am Sun: 6am - 12am ,,,
,,694 W ARROW HWY,,SAN DIMAS,CA,91773,United States,(909) 599-6620,34.105419,-117.819565,Mon - Sun: 24 HOURS ,,,
,,21920 LASSEN ST,,CHATSWORTH,CA,91311,United States,(818) 709-4058,34.249664,-118.605225,Mon - Fri: 6am - 1am Sat - Sun: 6am - 3am ,,,
,,1398  FOOTHILL BLVD,,LA VERNE,CA,91750,United States,(909) 596-9406,34.11721,-117.77729,Mon - Sun: 6am - 1am ,,,
,,18802 VIA PRINCESSA,,SANTA CLARITA,CA,91351,United States,(661) 424-0823,34.405609,-118.465698,Mon - Sun: 7am - 1am ,,,
,,23650 LYONS AVE,,NEWHALL,CA,91321,United States,(661) 254-4365,34.379101,-118.548904,Mon - Sun: 6am - 1am ,,,
,,5197 E. LOS ANGELES AVENUE,,SIMI VALLEY,CA,93063,United States,(805) 527-7646,34.272076,-118.691772,,,,
,,26270 N  BOUQUET CANYON RD,,SAUGUS,CA,91350,United States,(661) 255-2121,34.421715,-118.540787,,,,
,,24909 W. PICO CANYON RD.,,STEVENSON RANCH,CA,91381,United States,(661) 255-6098,34.390297,-118.622849,Mon - Thu: 6am - 1am Fri - Sat: 12am - 12am Sun: 6am - 1am ,,,
,,2990 COCHRAN ST,,SIMI VALLEY,CA,93065,United States,(805) 583-3717,34.278885,-118.736969,,,,
,,1653 W  FOOTHILL BLVD,,UPLAND,CA,91786,United States,(909) 920-3464,34.107273,-117.68251,Mon - Sun: 24 HOURS ,,,
,,28082 THE OLD RD,,VALENCIA,CA,91355,United States,(661) 294-1084,34.432419,-118.591202,,,,
,,1408 E. LOS ANGELES AV.,,SIMI VALLEY,CA,93065,United States,(805) 527-1939,34.271198,-118.771866,,,,
,,1098 ENCHANTED WAY,,SIMI VALLEY,CA,93065,United States,(805) 527-7787,34.283012,-118.779503,,,,
,,2534 E. AVENUE S,,PALMDALE,CA,93550,United States,(661) 947-2022,34.558071,-118.083946,Mon - Sun: 24 HOURS ,,,
,,6799 CARNELIAN ST,,RANCHO CUCAMONGA,CA,91701,United States,(909) 980-1644,34.131329,-117.616051,Mon - Sun: 24 HOURS ,,,
,,421 W PALMDALE BLVD,,PALMDALE,CA,93551,United States,(661) 947-2889,34.583019,-118.136642,Mon - Sun: 6am - 2am ,,,
,,1763 E  PALMDALE BLVD,,PALMDALE,CA,93550,United States,(661) 273-1229,34.579811,-118.096367,Mon - Sun: 8am - 12am ,,,
,,6341 HAVEN AVENUE,,RANCHO CUCAMONGA,CA,93836,United States,(909) 483-7555,34.138744,-117.575699,Mon - Sun: 24 HOURS ,,,
,,591 N VENTU PARK RD,,NEWBURY PARK,CA,91320,United States,(805) 499-4439,34.186661,-118.91124,Mon - Fri: 6am - 1am Sat - Sun: 6am - 3am ,,,
,,5010 WEST AVENUE N,,PALMDALE,CA,93551,United States,(661) 722-5346,34.630116,-118.219521,Mon - Sun: 6am - 1am ,,,
,,848 LOS ANGELES AVE.,,MOORPARK,CA,93021,United States,(805) 552-0654,34.278961,-118.893028,Mon - Fri: 6am - 12am Sat - Sun: 6am - 1am ,,,
,,4131 W AVENUE L,,LANCASTER,CA,93536,United States,(661) 943-3072,34.660309,-118.205147,Mon - Sun: 24 HOURS ,,,
,,43999  15TH ST W,,LANCASTER,CA,93534,United States,(661) 945-0288,34.681297,-118.156975,Mon - Sun: 24 HOURS ,,,
,,1751 E AVE  J,,LANCASTER,CA,93535,United States,(661) 949-1853,34.68597,-118.098389,Mon - Sun: 24 HOURS ,,,
,,15300 SUMMIT AVE,,FONTANA,CA,92336,United States,(909) 463-0059,34.150799,-117.470543,Mon - Sun: 24 HOURS ,,,
,,1138 W AVENUE I,,LANCASTER,CA,93534,United States,(661) 942-0312,34.70356,-118.150955,Mon - Sun: 24 HOURS ,,,
,,3864 SIERRA AVE,,FONTANA,CA,92336,United States,(909) 823-4935,34.183521,-117.437904,Mon - Sun: 24 HOURS ,,,
,,8324 HIGHWAY 138,,PHELAN,CA,92371,United States,(760) 249-6105,34.311672,-117.477921,,,,
,,121 VENTURA BLVD,,CAMARILLO,CA,93010,United States,(805) 484-7490,34.216145,-119.068222,Mon - Fri: 6am - 12am Sat - Sun: 6am - 3am ,,,
,,55 HALLOCK DRIVE,,SANTA PAULA,CA,93060,United States,(805) 525-4444,34.355213,-119.047318,,,,
,,4344 UNIVERSITY PKWY.,,SAN BERNARDINO,CA,92407,United States,(909) 473-9512,34.167637,-117.332855,Mon - Sun: 24 HOURS ,,,
,,2000 N ROSE AVE,,OXNARD,CA,93036,United States,(805) 988-7500,34.220066,-119.157646,Mon - Fri: 5am - 12am Sat - Sun: 5am - 3am ,,,
,,601 S VENTURA RD,,OXNARD,CA,93030,United States,(805) 985-5325,34.19627,-119.195023,Mon - Fri: 6am - 12am Sat - Sun: 6am - 2am ,,,
,,13253 MAIN STREET,,HESPERIA,CA,92345,United States,(760) 949-1122,34.426582,-117.374336,Mon - Sun: 24 HOURS ,,,
,,14200 HIGHWAY 395,,ADELANTO,CA,92301,United States,(760) 530-9441,34.508522,-117.400223,Mon - Sun: 24 HOURS ,,,
,,13610 BEAR VALLEY ROAD,,VICTORVILLE,CA,92392,United States,(760) 241-6928,34.470695,-117.366287,Mon - Sun: 24 HOURS ,,,
,,4393 E MAIN ST,,VENTURA,CA,93003,United States,(805) 642-2145,34.262627,-119.233559,,,,
,,15797 MAIN ST,,HESPERIA,CA,92345,United States,(760) 244-8931,34.423965,-117.318909,Mon - Sun: 24 HOURS ,,,
,,14812 BEAR VALLEY RD,,VICTORVILLE,CA,92392,United States,(760) 241-6445,34.470638,-117.340485,Mon - Thu: 6am - 12am Fri - Sat: 6am - 1am Sun: 6am - 12am ,,,
,,17292 MAIN ST,,HESPERIA,CA,92345,United States,(760) 244-8262,34.419201,-117.285652,Mon - Sun: 24 HOURS ,,,
,,15470 PALMDALE ROAD,,VICTORVILLE,CA,92395,United States,(760) 241-6410,34.507534,-117.326996,,,,
,,12253 HESPERIA RD,,VICTORVILLE,CA,92392,United States,(760) 951-0635,34.473724,-117.291336,Mon - Sun: 24 HOURS ,,,
,,17918 BEAR VALLEY RD,,VICTORVILLE,CA,92395,United States,(760) 843-7578,34.471516,-117.272285,Mon - Thu: 6am - 11pm Fri: 6am - 12am Sat: 7am - 12am Sun: 7am - 11pm ,,,
,,15070 7TH ST,,VICTORVILLE,CA,92395,United States,(760) 245-1900,34.525818,-117.30352,,,,
,,12207 APPLE VALLEY ROAD,,APPLE VALLEY,CA,92308,United States,(760) 961-8629,34.473343,-117.241966,Mon - Sun: 24 HOURS ,,,
,,20306 HWY 18,,APPLE VALLEY,CA,92307,United States,(760) 240-7153,34.525692,-117.21814,Mon - Sun: 24 HOURS ,,,
,,13730 NAVAJO RD,,APPLE VALLEY,CA,92307,United States,(760) 247-3364,34.5009,-117.190819,Mon - Sun: 24 HOURS ,,,
,,645 TUCKER ROAD,,TEHACHAPI,CA,93561,United States,(661) 823-9442,35.127777,-118.468155,Mon - Sun: 24 HOURS ,,,
,,6541 DENNIS MCCARTHY DRIVE,,LEBEC,CA,93243,United States,(661) 858-2209,34.998837,-118.949692,Mon - Sun: 24 HOURS ,,,
,,2871 LENWOOD RD,,BARSTOW,CA,92311,United States,(760) 253-2641,34.85202,-117.082413,,,,
,,401 N 1ST AVE,,BARSTOW,CA,92311,United States,(760) 256-2810,34.901436,-117.027039,,,,
,,1310  E MOUNTAIN VIEW ST,,BARSTOW,CA,92311,United States,(760) 256-8226,34.893635,-117.005196,,,,
,,2518 WHITE LANE,,BAKERSFIELD,CA,93304,United States,(661) 827-1568,35.317905,-119.031982,Mon - Sun: 24 HOURS ,,,
,,5211 GOSFORD ROAD,,BAKERSFIELD,CA,93313,United States,(661) 664-8888,35.307701,-119.092834,Mon - Sun: 24 HOURS ,,,
,,4250 MING AVE,,BAKERSFIELD,CA,93309,United States,(661) 833-8148,35.33971,-119.049828,Mon - Sun: 24 HOURS ,,,
,,1725 S.E. MEADOWBROOK BLVD.,,COLLEGE PLACE,WA,99324,United States,(509) 526-0971,46.03297,-118.379784,Mon - Sun: 24 HOURS ,,,
,,34528 16TH AVE S,,FEDERAL WAY,WA,98003,United States,(253) 661-7325,47.291756,-122.313255,Mon - Sun: 24 HOURS ,,,
,,8724 NE HIGHWAY 99,,VANCOUVER,WA,98665,United States,(360) 546-0707,45.685814,-122.660934,Mon - Sun: 7am - 12am ,,,
,,7390 NE BUTLER STREET,,HILLSBORO,OR,97124,United States,(503) 716-8701,45.537941,-122.900467,Mon - Sun: 24 HOURS ,,,
,,2164 NE BURNSIDE RD.,,GRESHAM,OR,97030,United States,(503) 661-2310,45.498604,-122.410789,Mon - Sun: 7am - 12am ,,,
,,583 LANCASTER DR NE,,SALEM,OR,97301,United States,(503) 316-8194,44.937454,-122.983063,Mon - Sun: 24 HOURS ,,,
,,"1850 14TH AVE, SE",,ALBANY,OR,97321,United States,(541) 967-7133,44.628742,-123.081573,Mon - Thu: 7am - 11pm Fri - Sat: 7am - 12am Sun: 8am - 11pm ,,,
,,3785 LAS VEGAS BLVD #209,,LAS VEGAS,NV,89109,United States,(702) 838-3600,36.103172,-115.172363,Mon - Sun: 24 HOURS ,,,
,,1197 E. TROPICANA,,LAS VEGAS,NV,89119,United States,(702) 597-1175,36.100735,-115.13723,Mon - Sun: 24 HOURS ,,,
,,5955 W. TROPICANA AVE.,,LAS VEGAS,NV,89103,United States,(702) 220-9402,36.099621,-115.223236,Mon - Sun: 24 HOURS ,,,
,,1801 W CHARLESTON BLVD,,LAS VEGAS,NV,89102,United States,(702) 384-0264,36.158562,-115.165794,Mon - Sun: 24 HOURS ,,,
,,5915 W SAHARA AVE,,LAS VEGAS,NV,89102,United States,(702) 364-8573,36.143932,-115.222847,Mon - Sun: 24 HOURS ,,,
,,5975 SOUTH EASTERN AVE,,LAS VEGAS,NV,89119,United States,(702) 597-0972,36.080845,-115.119354,Mon - Sun: 24 HOURS ,,,
,,3244 E DESERT INN RD,,LAS VEGAS,NV,89121,United States,(702) 737-1976,36.129978,-115.103355,Mon - Sun: 24 HOURS ,,,
,,1802 E. CHARLESTON BLVD.,,LAS VEGAS,NV,89104,United States,(702) 366-1878,36.158535,-115.124756,Mon - Sun: 24 HOURS ,,,
,,280 N  JONES BLVD,,LAS VEGAS,NV,89107,United States,(702) 870-0428,36.175667,-115.223763,Mon - Sun: 24 HOURS ,,,
,,3922 BLUE DIAMOND ROAD,,LAS VEGAS,NV,89139,United States,(702) 260-1743,36.039967,-115.191833,Mon - Sun: 24 HOURS ,,,
,,7165 S. RAINBOW BLVD,,LAS VEGAS,NV,89118,United States,(702) 641-5000,36.057781,-115.243767,Mon - Sun: 24 HOURS ,,,
,,8471 WEST SAHARA AVE/DURANGO,,LAS VEGAS,NV,89117,United States,(702) 240-8450,36.139511,-115.278961,Mon - Sun: 24 HOURS ,,,
,,4449 E SUNSET ROAD,,HENDERSON,NV,89014,United States,(702) 436-6606,36.070473,-115.075851,Mon - Sun: 24 HOURS ,,,
,,2450 N RANCHO DRIVE,,NORTH LAS VEGAS,NV,89130,United States,(702) 631-6230,36.20377,-115.199188,Mon - Sun: 24 HOURS ,,,
,,180 PECOS,,HENDERSON,NV,89014,United States,(702) 263-8710,36.041882,-115.100433,Mon - Sun: 24 HOURS ,,,
,,5526 BOULDER HWY,,LAS VEGAS,NV,89122,United States,(702) 435-8151,36.102001,-115.052994,Mon - Sun: 24 HOURS ,,,
,,9680 LAS VEGAS BLVD SOUTH,,LAS VEGAS,NV,89123,United States,(702) 260-6931,36.014275,-115.172241,Mon - Sun: 24 HOURS ,,,
,,5180 S FORT APACHE ROAD,,LAS VEGAS,NV,89148,United States,(702) 873-6370,36.094601,-115.29673,Mon - Sun: 24 HOURS ,,,
,,2320 E. SERENE,,LAS VEGAS,NV,89123,United States,(702) 914-2252,36.02087,-115.121147,Mon - Sun: 24 HOURS ,,,
,,348 N NELLIS BLVD,,LAS VEGAS,NV,89110,United States,(702) 452-5741,36.165638,-115.061928,Mon - Sun: 24 HOURS ,,,
,,7480 W. LAKE MEAD BLVD.,,LAS VEGAS,NV,89128,United States,(702) 360-9235,36.196224,-115.257797,Mon - Sun: 24 HOURS ,,,
,,4800 W. CACTUS AVENUE,,LAS VEGAS,NV,89141,United States,(702) 269-0799,35.998657,-115.205849,Mon - Sun: 24 HOURS ,,,
,,550 MARKS ST,,HENDERSON,NV,89014,United States,(702) 435-0130,36.06094,-115.036118,Mon - Sun: 24 HOURS ,,,
,,10320 W CHARLESTON BLVD,,LAS VEGAS,NV,89135,United States,(702) 240-0049,36.159138,-115.320763,Mon - Sun: 24 HOURS ,,,
,,135 N STEPHANIE ST.,,HENDERSON,NV,89074,United States,(702) 856-1886,36.035648,-115.047028,Mon - Sun: 24 HOURS ,,,
,,1811 W. CRAIG RD.,,NORTH LAS VEGAS,NV,89030,United States,(702) 642-2881,36.239632,-115.122772,Mon - Sun: 24 HOURS ,,,
,,2531 EAST CRAIG ROAD,,NORTH LAS VEGAS,NV,89030,United States,(702) 639-0035,36.239571,-115.116196,Mon - Sun: 24 HOURS ,,,
,,4470 N. RANCHO DRIVE,,LAS VEGAS,NV,89130,United States,(702) 655-0018,36.241211,-115.233925,Mon - Sun: 24 HOURS ,,,
,,4380 N NELLIS BLVD,,LAS VEGAS,NV,89115,United States,(702) 644-6857,36.240334,-115.061516,Mon - Sun: 24 HOURS ,,,
,,6160 N. DECATUR BLVD,,LAS VEGAS,NV,89130,United States,(702) 750-0810,36.278885,-115.206642,Mon - Sun: 24 HOURS ,,,
,,150 NORTH BOULDER HIGHWAY,,HENDERSON,NV,89015,United States,(702) 567-1522,36.041012,-114.982803,Mon - Sun: 24 HOURS ,,,
,,6311 CENTENNIAL CENTER BLVD,,LAS VEGAS,NV,89149,United States,(702) 515-1273,36.274002,-115.268234,Mon - Sun: 24 HOURS ,,,
,,898 S BOULDER HWY,,HENDERSON,NV,89015,United States,(702) 565-9990,36.025841,-114.964867,Mon - Sun: 24 HOURS ,,,
,,7757 N. EL CAPITAN WAY,,LAS VEGAS,NV,89143,United States,(702) 396-0289,36.302578,-115.28466,Mon - Sun: 24 HOURS ,,,
,,20 FALCON RIDGE PARKWAY,,MESQUITE,NV,89027,United States,(702) 346-1719,36.804737,-114.10981,,,,
,,1845 HIGHWAY 95,,BULLHEAD CITY,AZ,86442,United States,(928) 763-4882,35.120201,-114.592171,Mon - Sun: 24 HOURS ,,,
,,72197 BAKER BLVD,,BAKER,CA,92309,United States,(760) 733-4090,35.26709,-116.071449,,,,
,,1078 HARTER ROAD,,YUBA CITY,CA,95993,United States,(530) 673-1326,39.142025,-121.654427,Mon: 7am - 10pm Tue: 7am - 12am Wed - Sat: 12am - 12am Sun: 12am - 10pm ,,,
,,3780 HWY 395,,CARSON CITY,NV,89705,United States,(775) 267-6391,39.110889,-119.77462,Mon - Sun: 6am - 12am ,,,
,,5075 E. KINGS CANYON RD.,,FRESNO,CA,93727,United States,(559) 458-0225,36.735966,-119.723961,Mon - Sun: 24 HOURS ,,,
,,5385 N BLACKSTONE AVE.,,FRESNO,CA,93704,United States,(559) 438-8860,36.81543,-119.790863,Mon - Thu: 5am - 2am Fri: 5am - 12am Sat: 12am - 12am Sun: 12am - 2am ,,,
,,3868 W SHAW AVE,,FRESNO,CA,93711,United States,(559) 276-7124,36.808701,-119.862129,Mon - Thu: 6am - 12am Fri - Sat: 24 HOURS Sun: 6am - 12am ,,,
,,1415 HERNDON AVE.,,CLOVIS,CA,93611,United States,(559) 323-4501,36.837772,-119.69043,Mon - Sun: 24 HOURS ,,,
,,5348 WEST CYPRESS AVENUE,,VISALIA,CA,93277,United States,(559) 732-3899,36.326153,-119.350304,Mon - Sun: 24 HOURS ,,,
,,1415 HILLMAN ST,,TULARE,CA,93274,United States,(559) 687-9058,36.226646,-119.33136,Mon - Sun: 24 HOURS ,,,
,,785 N. NEWCOMB ST.,,PORTERVILLE,CA,93257,United States,(559) 781-0881,36.080292,-119.052872,Mon - Sun: 24 HOURS ,,,
,,135 S. CENTRAL VALLEY HWY,,SHAFTER,CA,93263,United States,(661) 630-5800,35.499638,-119.270309,Mon - Sun: 24 HOURS ,,,
,,35145 MERLE HAGGARD DRIVE,,BAKERSFIELD,CA,93308,United States,(661) 393-8379,35.440746,-119.076851,Mon - Sun: 24 HOURS ,,,
,,1723 UTE BLVD,,PARK CITY,UT,84098,United States,(435) 649-1050,40.724739,-111.541229,Mon - Thu: 6am - 1am Fri - Sat: 12am - 12am Sun: 6am - 1am ,,,
,,442 SOUTH 1750 WEST,,SPRINGVILLE,UT,84663,United States,(801) 489-3031,40.161064,-111.642723,Mon - Sun: 24 HOURS ,,,
,,132 E 1230 N,,PROVO,UT,84604,United States,(801) 374-6689,40.25074,-111.660362,Mon - Sun: 24 HOURS ,,,
,,1055 S. STATE STREET,,OREM,UT,84097,United States,(801) 229-1099,40.277721,-111.685837,Mon - Sun: 24 HOURS ,,,
,,1599 N STATE ST,,OREM,UT,84057,United States,(801) 225-8501,40.326435,-111.708542,Mon - Sun: 24 HOURS ,,,
,,730 E STATE RD,,AMERICAN FORK,UT,84003,United States,(801) 756-9712,40.372051,-111.779068,Mon - Sun: 24 HOURS ,,,
,,424 NORTH 900 WEST,,AMERICAN FORK,UT,84003,United States,(801) 492-1781,40.387272,-111.821106,Mon - Sun: 24 HOURS ,,,
,,8580 S 1300 E,,SANDY,UT,84094,United States,(801) 566-0261,40.595688,-111.853638,Mon - Sun: 24 HOURS ,,,
,,3010  HIGHLAND DR,,SALT LAKE CITY,UT,84106,United States,(801) 466-4907,40.70565,-111.853241,Mon - Sun: 24 HOURS ,,,
,,5672 SOUTH 900 EAST,,MURRAY,UT,84121,United States,(801) 269-1736,40.647396,-111.866264,Mon - Sun: 24 HOURS ,,,
,,809 E. 400 SOUTH,,SALT LAKE CITY,UT,84109,United States,(801) 596-1107,40.760887,-111.867767,Mon - Sun: 24 HOURS ,,,
,,96 E. 12300 SOUTH,,DRAPER CITY,UT,84020,United States,(801) 619-0123,40.526291,-111.8881,Mon - Sun: 24 HOURS ,,,
,,3633 NORTH THANKSGIVING WAY,,LEHI,UT,84043,United States,(801) 653-2452,40.432907,-111.894295,Mon - Sun: 24 HOURS ,,,
,,23 EAST 2100 SOUTH,,SALT LAKE CITY,UT,84115,United States,(801) 484-2100,40.725647,-111.890038,Mon - Sun: 24 HOURS ,,,
,,196 WEST 500 SOUTH,,BOUNTIFUL,UT,84010,United States,(801) 397-0388,40.884449,-111.885368,Mon - Sun: 24 HOURS ,,,
,,128 EAST STATE ROAD 73,,SARATOGA SPRINGS,UT,84045,United States,(801) 766-1201,40.387501,-111.928818,Mon - Sun: 6am - 1am ,,,
,,1651 W SOUTH JORDAN PKWY,,SOUTH JORDAN,UT,84095,United States,(801) 253-1831,40.561939,-111.937271,Mon - Sun: 24 HOURS ,,,
,,6876 REDWOOD RD,,WEST JORDAN,UT,84084,United States,(801) 568-0347,40.626297,-111.939308,Mon - Sun: 24 HOURS ,,,
,,4620 S. REDWOOD ROAD,,TAYLORSVILLE,UT,84123,United States,(801) 982-9074,40.669613,-111.938873,Mon - Sun: 24 HOURS ,,,
,,2000 S. 3230 WEST,,SALT LAKE CITY,UT,84104,United States,(801) 952-9037,40.728416,-111.968697,Mon - Sun: 24 HOURS ,,,
,,11507 SOUTH 4000 WEST,,SOUTH JORDAN,UT,84095,United States,(801) 523-1184,40.544228,-111.986275,Mon - Sun: 24 HOURS ,,,
,,737 N. MAIN STREET,,LAYTON,UT,84041,United States,(801) 543-1085,41.070755,-111.977531,Mon - Sun: 24 HOURS ,,,
,,1160 WALL AVE,,OGDEN,UT,84404,United States,(801) 394-3822,41.245834,-111.977951,Mon - Sun: 24 HOURS ,,,
,,4117 S RIVERDALE ROAD,,RIVERDALE,UT,84405,United States,(801) 627-0830,41.188389,-111.984146,Mon - Sun: 24 HOURS ,,,
,,2963 S. 5600 WEST,,WEST VALLEY CITY,UT,84128,United States,(801) 966-8050,40.70628,-112.024246,Mon - Sun: 24 HOURS ,,,
,,4436 S 1900 W,,ROY,UT,84067,United States,(801) 731-5221,41.182957,-112.025772,Mon - Sun: 24 HOURS ,,,
,,2618 NORTH 1850 WEST,,FARR WEST,UT,84404,United States,(801) 782-1148,41.305416,-112.024323,Mon - Sun: 24 HOURS ,,,
,,123 NORTH 2000 WEST,,WEST POINT,UT,84015,United States,(801) 525-1189,41.115696,-112.064522,Mon - Sun: 24 HOURS ,,,
,,1428 ARIMO ROAD,,LAKE POINT,UT,84074,United States,(801) 250-7123,40.680779,-112.263,Mon - Sun: 24 HOURS ,,,
,,1733 WEST ROYAL HUNTE DRIVE,,CEDAR CITY,UT,84720,United States,(435) 867-0420,37.656387,-113.08564,Mon - Sun: 24 HOURS ,,,
,,786 WEST TELEGRAPH ROAD,,WASHINGTON,UT,84780,United States,(435) 627-2088,37.127926,-113.522629,Mon - Sun: 24 HOURS ,,,
,,1091 N. BLUFF ST. BLDG. 500,,ST. GEORGE,UT,84770,United States,(435) 652-3826,37.127625,-113.602341,Mon - Sun: 24 HOURS ,,,
,,3624 CALIFORNIA AVENUE,,BAKERSFIELD,CA,93309,United States,(661) 325-4770,35.368156,-119.044075,Mon - Sun: 24 HOURS ,,,
,,2663 MT. VERNON AVE.,,BAKERSFIELD,CA,93306,United States,(661) 872-2185,35.393658,-118.966499,Mon - Sun: 24 HOURS ,,,
,,8270 ROSEDALE HWY,,BAKERSFIELD,CA,93312,United States,(661) 588-3729,35.383827,-119.093666,Mon - Sun: 24 HOURS ,,,
,,1020 N NORMA ST,,RIDGECREST,CA,93555,United States,(760) 446-6198,35.639366,-117.678497,Mon - Sun: 24 HOURS ,,,
,,1816 N BROADWAY,,SANTA MARIA,CA,93454,United States,(805) 349-7352,34.972946,-120.435455,Mon - Sat: 7am - 11p Sun: 7am - 10pm ,,,
,,1565 S BROADWAY,,SANTA MARIA,CA,93454,United States,(805) 925-1730,34.931702,-120.436485,Mon - Sat: 7am - 11p Sun: 7am - 10pm ,,,
,,56748 29 PALMS HWY,,YUCCA VALLEY,CA,92284,United States,(760) 365-4857,34.114174,-116.432236,,,,
,,57736 29 PALMS HWY,,YUCCA VALLEY,CA,92284,United States,(760) 365-9266,34.126762,-116.405373,,,,
,,72636 29 PALMS HWY,,TWENTYNINE PALMS,CA,92277,United States,(760) 367-9366,34.135735,-116.078232,Mon - Thu: 6am - 12am Fri - Sat: 12am - 12am Sun: 6am - 12am ,,,
,,2920 NORTHTOWNE LN,,RENO,NV,89512,United States,(775) 673-9777,39.557266,-119.782066,Mon - Sun: 6am - 11pm ,,,
,,10140 MCCARRAN RD.,,RENO,NV,89503,United States,(775) 746-6385,39.526196,-119.862129,,,,
,,5890 S VIRGINIA ST,,RENO,NV,89502,United States,(775) 826-3369,39.472084,-119.786102,Mon: 7AM - 12AM Tue - Thu: 7am - 12am Fri - Sat: 7am - 1am Sun: 7am - 12am ,,,
,,252 LOS ALTOS PKWY.,,SPARKS,NV,89431,United States,(775) 354-1151,39.583302,-119.741638,Mon - Thu: 6am - 1am Fri: 6am - 12am Sat: 12am - 12am Sun: 6am - 1am ,,,
,,2091 BRIERLY WAY,,SPARKS,NV,89434,United States,(775) 355-8839,39.527008,-119.702042,Mon - Sun: 24 HOURS ,,,
,,12490 OLD VIRGINIA RD,,RENO,NV,89521,United States,(775) 852-7976,39.420734,-119.753555,Mon - Thu: 6am - 1am Fri: 6am - 12am Sat: 12am - 12am Sun: 6am - 12am ,,,
,,822 E COLLEGE PKWY,,CARSON CITY,NV,89706,United States,(775) 882-3134,39.190475,-119.758873,Mon - Sun: 6am - 2am ,,,
,,5008 W. FRANKLIN RD.,,BOISE,ID,83705,United States,(208) 345-1541,43.602665,-116.243736,Mon - Sun: 24 HOURS ,,,
,,1306 BROADWAY AVE.,,BOISE,ID,83706,United States,(208) 429-8400,43.596741,-116.193314,Mon - Sun: 24 HOURS ,,,
,,8687 W. OVERLAND RD.,,BOISE,ID,83709,United States,(208) 297-5416,43.590488,-116.289566,Mon - Sun: 24 HOURS ,,,
,,3101 E. MAGIC VIEW DR.,,MERIDIAN,ID,83642,United States,(208) 895-8805,43.599483,-116.355598,Mon - Sun: 24 HOURS ,,,
,,2121 12TH AVE ROAD,,NAMPA,ID,83686,United States,(208) 461-7160,43.549011,-116.5728,Mon - Sun: 24 HOURS ,,,
,,725 NORTH HWY 41,,POST FALLS,ID,83854,United States,(208) 777-9189,47.71471,-116.894417,,,,
,,450 WEST PRAIRIE,,COEUR DALENE,ID,83815,United States,(208) 762-9474,47.744278,-116.792816,,,,
,,612 SE 3RD ST.,,BEND,OR,97702,United States,(541) 322-8702,44.043941,-121.302238,Mon - Sun: 7am - 3am ,,,
,,2435 STEWART PARKWAY,,ROSEBURG,OR,97471,United States,(541) 673-9786,43.237007,-123.370155,Mon - Sun: 24 HOURS ,,,
,,2860 CRATER LAKE HWY,,MEDFORD,OR,97504,United States,(541) 690-1111,42.359173,-122.861656,Mon - Sun: 24 HOURS ,,,
,,422. E. BARNETT RD.,,MEDFORD,OR,97501,United States,(541) 816-4349,42.315735,-122.858925,,,,
,,2602 HILLTOP DR,,REDDING,CA,96002,United States,(530) 224-0888,40.570934,-122.358955,Mon - Sun: 24 HOURS ,,,
,,200 ANTELOPE BLVD,,RED BLUFF,CA,96080,United States,(530) 529-3297,40.182945,-122.220825,Mon - Thu: 9am - 9pm Fri: 9am - 11pm Sat: 9am - 10pm Sun: 9am - 9pm ,,,
