store_name,store_number,address,address2,city,state,zip_code,country,phone_number,latitude,longitude,store_hours,store_type,other_fields,coming_soon
"Bealls, Riverton",,1070 W Main St,,Riverton,WY,82501,United States,(307) 856-6618,43.026203,-108.407385,"Monday 10:00 AM - 8:00 PM , Tuesday 10:00 AM - 8:00 PM , Wednesday 10:00 AM - 8:00 PM , Thursday 10:00 AM - 8:00 PM , Friday 10:00 AM - 8:00 PM , Saturday 10:00 AM - 8:00 PM , Sunday 12:00 PM - 6:00 PM ",,,
"Bealls, Yoakum",,304 W Grand Ave,,Yoakum,TX,77995,United States,(361) 293-7665,29.289336,-97.152772,"Monday 10:00 AM - 8:00 PM , Tuesday 10:00 AM - 8:00 PM , Wednesday 10:00 AM - 8:00 PM , Thursday 10:00 AM - 8:00 PM , Friday 10:00 AM - 8:00 PM , Saturday 10:00 AM - 8:00 PM , Sunday 12:00 PM - 6:00 PM ",,,
"Bealls, La Grande",,2212 Island Avenue,,La Grande,OR,97850,United States,(541) 962-7820,45.328242,-118.076683,"Monday 10:00 AM - 7:00 PM , Tuesday 10:00 AM - 7:00 PM , Wednesday 10:00 AM - 7:00 PM , Thursday 10:00 AM - 7:00 PM , Friday 10:00 AM - 7:00 PM , Saturday 10:00 AM - 7:00 PM , Sunday 12:00 PM - 6:00 PM ",,,
"Bealls, Raton",,1271 South 2nd Street,,Raton,NM,87740,United States,(575) 445-3120,36.8795823,-104.4381395,"Monday 10:00 AM - 7:00 PM , Tuesday 10:00 AM - 7:00 PM , Wednesday 10:00 AM - 7:00 PM , Thursday 10:00 AM - 7:00 PM , Friday 10:00 AM - 7:00 PM , Saturday 10:00 AM - 7:00 PM , Sunday 12:00 PM - 6:00 PM ",,,
"Bealls, Taos",,710 Paseo Del Pueblo Sur,,Taos,NM,87571,United States,(575) 758-5431,36.391306,-105.582788,"Monday 10:00 AM - 9:00 PM , Tuesday 10:00 AM - 9:00 PM , Wednesday 10:00 AM - 9:00 PM , Thursday 10:00 AM - 9:00 PM , Friday 10:00 AM - 9:00 PM , Saturday 10:00 AM - 9:00 PM , Sunday 12:00 PM - 6:00 PM ",,,
"Bealls, Ruidoso",,209 Highway 70,,Ruidoso,NM,88345,United States,(575) 378-8173,33.320133,-105.62791,"Monday 10:00 AM - 9:00 PM , Tuesday 10:00 AM - 9:00 PM , Wednesday 10:00 AM - 9:00 PM , Thursday 10:00 AM - 9:00 PM , Friday 10:00 AM - 9:00 PM , Saturday 10:00 AM - 9:00 PM , Sunday 12:00 PM - 6:00 PM ",,,
"Bealls, Truth or Consequences",,1900 N Date St,,Truth or Consequences,NM,87901,United States,(575) 894-6355,33.148882,-107.248117,"Monday 10:00 AM - 7:00 PM , Tuesday 10:00 AM - 7:00 PM , Wednesday 10:00 AM - 7:00 PM , Thursday 10:00 AM - 8:00 PM , Friday 10:00 AM - 8:00 PM , Saturday 10:00 AM - 8:00 PM , Sunday 12:00 PM - 6:00 PM ",,,
"Bealls, Silver City",,2150 Highway 180 E,,Silver City,NM,88061,United States,(575) 388-4613,32.785868,-108.253494,"Monday 10:00 AM - 8:00 PM , Tuesday 10:00 AM - 8:00 PM , Wednesday 10:00 AM - 8:00 PM , Thursday 10:00 AM - 9:00 PM , Friday 10:00 AM - 9:00 PM , Saturday 10:00 AM - 9:00 PM , Sunday 12:00 PM - 6:00 PM ",,,
"Bealls, Grants",,110 E Santa Fe Ave,,Grants,NM,87020,United States,(505) 287-8366,35.150712,-107.848386,"Monday 10:00 AM - 8:00 PM , Tuesday 10:00 AM - 8:00 PM , Wednesday 10:00 AM - 8:00 PM , Thursday 10:00 AM - 8:00 PM , Friday 10:00 AM - 8:00 PM , Saturday 10:00 AM - 8:00 PM , Sunday 12:00 PM - 6:00 PM ",,,
"Bealls, Portales",,601 W 18th St,,Portales,NM,88130,United States,(575) 356-5217,34.170796,-103.336831,"Monday 10:00 AM - 8:00 PM , Tuesday 10:00 AM - 8:00 PM , Wednesday 10:00 AM - 8:00 PM , Thursday 10:00 AM - 8:00 PM , Friday 10:00 AM - 8:00 PM , Saturday 10:00 AM - 8:00 PM , Sunday 12:00 PM - 6:00 PM ",,,
"Bealls, Lovington",,938 W Avenue D,,Lovington,NM,88260,United States,(575) 396-3914,32.946277,-103.360399,"Monday 10:00 AM - 9:00 PM , Tuesday 10:00 AM - 9:00 PM , Wednesday 10:00 AM - 9:00 PM , Thursday 10:00 AM - 9:00 PM , Friday 10:00 AM - 9:00 PM , Saturday 10:00 AM - 9:00 PM , Sunday 12:00 PM - 6:00 PM ",,,
"Bealls, Las Vegas",,2500 7th Street,,Las Vegas,NM,87701,United States,(505) 454-3843,35.619212,-105.223426,"Monday 10:00 AM - 8:00 PM , Tuesday 10:00 AM - 8:00 PM , Wednesday 10:00 AM - 8:00 PM , Thursday 10:00 AM - 8:00 PM , Friday 10:00 AM - 8:00 PM , Saturday 10:00 AM - 8:00 PM , Sunday 12:00 PM - 6:00 PM ",,,
"Bealls, Los Alamos",,610 Trinity Dr,,Los Alamos,NM,87544,United States,(505) 662-8960,35.880137,-106.293037,"Monday 10:00 AM - 8:00 PM , Tuesday 10:00 AM - 8:00 PM , Wednesday 10:00 AM - 8:00 PM , Thursday 10:00 AM - 8:00 PM , Friday 10:00 AM - 8:00 PM , Saturday 10:00 AM - 8:00 PM , Sunday 12:00 PM - 6:00 PM ",,,
"Bealls, Gallup",,1300 West I- 40 Frontage Road,,Gallup,NM,87301,United States,(505) 722-7256,35.53177221409058,-108.76314371824265,"Monday 10:00 AM - 9:00 PM , Tuesday 10:00 AM - 9:00 PM , Wednesday 10:00 AM - 9:00 PM , Thursday 10:00 AM - 9:00 PM , Friday 10:00 AM - 9:00 PM , Saturday 10:00 AM - 9:00 PM , Sunday 12:00 PM - 6:00 PM ",,,
"Bealls, Belen",,106 Caldwell Ave,,Belen,NM,87002,United States,(505) 864-1844,34.659524,-106.759401,"Monday 10:00 AM - 8:00 PM , Tuesday 10:00 AM - 8:00 PM , Wednesday 10:00 AM - 8:00 PM , Thursday 10:00 AM - 8:00 PM , Friday 10:00 AM - 8:00 PM , Saturday 10:00 AM - 8:00 PM , Sunday 12:00 PM - 6:00 PM ",,,
"Bealls, Carlsbad",,2302 West Pierce Street,,Carlsbad,NM,88220,United States,(575) 234-2803,32.440237,-104.254629,"Monday 10:00 AM - 9:00 PM , Tuesday 10:00 AM - 9:00 PM , Wednesday 10:00 AM - 9:00 PM , Thursday 10:00 AM - 9:00 PM , Friday 10:00 AM - 9:00 PM , Saturday 10:00 AM - 9:00 PM , Sunday 12:00 PM - 6:00 PM ",,,
"Bealls, Alamogordo",,3199 N White Sands Blvd,,Alamogordo,NM,88310,United States,(575) 434-2770,32.9295890412497,-105.9640871891632,"Monday 10:00 AM - 9:00 PM , Tuesday 10:00 AM - 9:00 PM , Wednesday 10:00 AM - 9:00 PM , Thursday 10:00 AM - 9:00 PM , Friday 10:00 AM - 9:00 PM , Saturday 10:00 AM - 9:00 PM , Sunday 12:00 PM - 6:00 PM ",,,
"Bealls, Artesia",,1700 W Main St,,Artesia,NM,88210,United States,(575) 746-3441,32.842992,-104.417816,"Monday 10:00 AM - 9:00 PM , Tuesday 10:00 AM - 9:00 PM , Wednesday 10:00 AM - 9:00 PM , Thursday 10:00 AM - 9:00 PM , Friday 10:00 AM - 9:00 PM , Saturday 10:00 AM - 9:00 PM , Sunday 12:00 PM - 6:00 PM ",,,
"Bealls, Klamath Falls",,1851 Avalon St,,Klamath Falls,OR,97603,United States,(541) 273-7099,42.210617,-121.752419,"Monday 10:00 AM - 8:00 PM , Tuesday 10:00 AM - 8:00 PM , Wednesday 10:00 AM - 8:00 PM , Thursday 10:00 AM - 9:00 PM , Friday 10:00 AM - 9:00 PM , Saturday 10:00 AM - 9:00 PM , Sunday 12:00 PM - 6:00 PM ",,,
"Bealls, Hood River",,1801 12th Street,,Hood River,OR,97031,United States,(541) 387-3105,45.6956223,-121.523612,"Monday 10:00 AM - 8:00 PM , Tuesday 10:00 AM - 8:00 PM , Wednesday 10:00 AM - 8:00 PM , Thursday 10:00 AM - 8:00 PM , Friday 10:00 AM - 8:00 PM , Saturday 10:00 AM - 8:00 PM , Sunday 12:00 PM - 6:00 PM ",,,
"Bealls, Hermiston",,930 Highway 395 South,,Hermiston,OR,97838,United States,(541) 567-1785,45.832666,-119.287496,"Monday 10:00 AM - 7:00 PM , Tuesday 10:00 AM - 7:00 PM , Wednesday 10:00 AM - 7:00 PM , Thursday 10:00 AM - 8:00 PM , Friday 10:00 AM - 8:00 PM , Saturday 10:00 AM - 8:00 PM , Sunday 12:00 PM - 6:00 PM ",,,
"Bealls, Weatherford",,625 Palo Pinto St,,Weatherford,TX,76086,United States,(817) 594-2266,32.757955,-97.807323,"Monday 10:00 AM - 8:00 PM , Tuesday 10:00 AM - 8:00 PM , Wednesday 10:00 AM - 8:00 PM , Thursday 10:00 AM - 8:00 PM , Friday 10:00 AM - 8:00 PM , Saturday 10:00 AM - 8:00 PM , Sunday 12:00 PM - 6:00 PM ",,,
"Bealls, Weslaco",,1901 W Expressway 83,,Weslaco,TX,78596,United States,(956) 447-9279,26.170496,-98.008793,"Monday 10:00 AM - 9:30 PM , Tuesday 10:00 AM - 9:30 PM , Wednesday 10:00 AM - 9:30 PM , Thursday 10:00 AM - 9:30 PM , Friday 10:00 AM - 9:30 PM , Saturday 10:00 AM - 9:30 PM , Sunday 11:00 AM - 7:00 PM ",,,
"Bealls, Waco",,6001 West Waco Drive,,Waco,TX,76710,United States,(254) 776-7616,31.516242,-97.1887295,"Monday 10:00 AM - 9:00 PM , Tuesday 10:00 AM - 9:00 PM , Wednesday 10:00 AM - 9:00 PM , Thursday 10:00 AM - 9:00 PM , Friday 10:00 AM - 9:00 PM , Saturday 10:00 AM - 9:00 PM , Sunday 12:00 PM - 6:00 PM ",,,
"Bealls, Waxahachie",,791 N Highway 77,,Waxahachie,TX,75165,United States,(972) 937-9074,32.412304,-96.843821,"Monday 10:00 AM - 9:00 PM , Tuesday 10:00 AM - 9:00 PM , Wednesday 10:00 AM - 9:00 PM , Thursday 10:00 AM - 9:00 PM , Friday 10:00 AM - 9:00 PM , Saturday 10:00 AM - 9:00 PM , Sunday 12:00 PM - 6:00 PM ",,,
"Bealls, Uvalde",,2326 E Main St,,Uvalde,TX,78801,United States,(830) 279-0984,29.222554,-99.765884,"Monday 10:00 AM - 9:00 PM , Tuesday 10:00 AM - 9:00 PM , Wednesday 10:00 AM - 9:00 PM , Thursday 10:00 AM - 9:00 PM , Friday 10:00 AM - 9:00 PM , Saturday 10:00 AM - 9:00 PM , Sunday 12:00 PM - 7:00 PM ",,,
"Bealls, Vernon",,4115 Hillcrest Plaza,,Vernon,TX,76384,United States,(940) 552-5901,34.160819,-99.312771,"Monday 10:00 AM - 9:00 PM , Tuesday 10:00 AM - 9:00 PM , Wednesday 10:00 AM - 9:00 PM , Thursday 10:00 AM - 9:00 PM , Friday 10:00 AM - 9:00 PM , Saturday 10:00 AM - 9:00 PM , Sunday 12:00 PM - 6:00 PM ",,,
"Bealls, Terrell",,1404 W Moore Ave Ste B,,Terrell,TX,75160,United States,(972) 551-9004,32.739725,-96.299389,"Monday 10:00 AM - 9:00 PM , Tuesday 10:00 AM - 9:00 PM , Wednesday 10:00 AM - 9:00 PM , Thursday 10:00 AM - 9:00 PM , Friday 10:00 AM - 9:00 PM , Saturday 10:00 AM - 9:00 PM , Sunday 12:00 PM - 6:00 PM ",,,
"Bealls, Texarkana",,2400 Richmond Road,,Texarkana,TX,75503,United States,(903) 838-6589,33.4557813,-94.08057769999999,"Monday 10:00 AM - 9:00 PM , Tuesday 10:00 AM - 9:00 PM , Wednesday 10:00 AM - 9:00 PM , Thursday 10:00 AM - 9:00 PM , Friday 10:00 AM - 9:00 PM , Saturday 10:00 AM - 9:00 PM , Sunday 12:00 PM - 6:00 PM ",,,
"Bealls, Taylor",,3100 N Main St,,Taylor,TX,76574,United States,(512) 352-3288,30.593755,-97.41179,"Monday 10:00 AM - 9:00 PM , Tuesday 10:00 AM - 9:00 PM , Wednesday 10:00 AM - 9:00 PM , Thursday 10:00 AM - 9:00 PM , Friday 10:00 AM - 9:00 PM , Saturday 10:00 AM - 9:00 PM , Sunday 12:00 PM - 6:00 PM ",,,
"Bealls, Sweetwater",,608 E Broadway St,,Sweetwater,TX,79556,United States,(325) 235-8613,32.472566126881034,-100.40222443914797,"Monday 10:00 AM - 8:00 PM , Tuesday 10:00 AM - 8:00 PM , Wednesday 10:00 AM - 8:00 PM , Thursday 10:00 AM - 8:00 PM , Friday 10:00 AM - 8:00 PM , Saturday 10:00 AM - 8:00 PM , Sunday 12:00 PM - 6:00 PM ",,,
"Bealls, Stephenville",,2900 W Washington St,,Stephenville,TX,76401,United States,(254) 968-0132,32.201259,-98.243384,"Monday 10:00 AM - 9:00 PM , Tuesday 10:00 AM - 9:00 PM , Wednesday 10:00 AM - 9:00 PM , Thursday 10:00 AM - 9:00 PM , Friday 10:00 AM - 9:00 PM , Saturday 10:00 AM - 9:00 PM , Sunday 12:00 PM - 6:00 PM ",,,
"Bealls, Victoria",,7800 Hallettsville Hwy,,Victoria,TX,77904,United States,(361) 576-5107,28.86635,-96.993766,"Monday 10:00 AM - 9:00 PM , Tuesday 10:00 AM - 9:00 PM , Wednesday 10:00 AM - 9:00 PM , Thursday 10:00 AM - 9:00 PM , Friday 10:00 AM - 9:00 PM , Saturday 10:00 AM - 9:00 PM , Sunday 12:00 PM - 7:00 PM ",,,
"Bealls, Snyder",,3210 College Ave,,Snyder,TX,79549,United States,(325) 573-1723,32.709881,-100.918026,"Monday 10:00 AM - 9:00 PM , Tuesday 10:00 AM - 9:00 PM , Wednesday 10:00 AM - 9:00 PM , Thursday 10:00 AM - 9:00 PM , Friday 10:00 AM - 9:00 PM , Saturday 10:00 AM - 9:00 PM , Sunday 12:00 PM - 6:00 PM ",,,
"Bealls, Sulphur Springs",,1401 Mockingbird Ln # 101,,Sulphur Springs,TX,75482,United States,(903) 438-1526,33.113386,-95.591676,"Monday 10:00 AM - 9:00 PM , Tuesday 10:00 AM - 9:00 PM , Wednesday 10:00 AM - 9:00 PM , Thursday 10:00 AM - 9:00 PM , Friday 10:00 AM - 9:00 PM , Saturday 10:00 AM - 9:00 PM , Sunday 12:00 PM - 6:00 PM ",,,
"Bealls, Spring Branch",,20475 Highway 46,,Spring Branch,TX,78070,United States,(830) 980-3065,29.7963654,-98.4263016,"Monday 10:00 AM - 9:00 PM , Tuesday 10:00 AM - 9:00 PM , Wednesday 10:00 AM - 9:00 PM , Thursday 10:00 AM - 9:00 PM , Friday 10:00 AM - 9:00 PM , Saturday 10:00 AM - 9:00 PM , Sunday 12:00 PM - 6:00 PM ",,,
"Bealls, Seminole",,109 E Avenue A,,Seminole,TX,79360,United States,(432) 955-0563,32.719294,-102.644579,"Monday 10:00 AM - 9:00 PM , Tuesday 10:00 AM - 9:00 PM , Wednesday 10:00 AM - 9:00 PM , Thursday 10:00 AM - 9:00 PM , Friday 10:00 AM - 9:00 PM , Saturday 10:00 AM - 9:00 PM , Sunday 12:00 PM - 6:00 PM ",,,
"Bealls, Victoria",,2504 N Laurent St,,Victoria,TX,77901,United States,(361) 575-1406,28.817781,-96.990771,"Monday 10:00 AM - 8:00 PM , Tuesday 10:00 AM - 8:00 PM , Wednesday 10:00 AM - 8:00 PM , Thursday 10:00 AM - 9:00 PM , Friday 10:00 AM - 9:00 PM , Saturday 10:00 AM - 9:00 PM , Sunday 12:00 PM - 6:00 PM ",,,
"Bealls - CLOSED, Selma",,8356 Agora Pkwy,,Selma,TX,78154,United States,(210) 659-7223,29.573862,-98.322446,"Monday Closed , Tuesday Closed , Wednesday Closed , Thursday Closed , Friday Closed , Saturday Closed , Sunday Closed ",,,
"Bealls, Seguin",,1500 E Court,,Seguin,TX,78155,United States,(830) 372-4112,29.571812,-97.939349,"Monday 10:00 AM - 9:00 PM , Tuesday 10:00 AM - 9:00 PM , Wednesday 10:00 AM - 9:00 PM , Thursday 10:00 AM - 9:00 PM , Friday 10:00 AM - 9:00 PM , Saturday 10:00 AM - 9:00 PM , Sunday 12:00 PM - 7:00 PM ",,,
"Bealls, Seagoville",,410 N Highway 175,,Seagoville,TX,75159,United States,(972) 287-1532,32.650897,-96.53565,"Monday 10:00 AM - 9:00 PM , Tuesday 10:00 AM - 9:00 PM , Wednesday 10:00 AM - 9:00 PM , Thursday 10:00 AM - 9:00 PM , Friday 10:00 AM - 9:00 PM , Saturday 10:00 AM - 9:00 PM , Sunday 12:00 PM - 6:00 PM ",,,
"Bealls, San Marcos",,850 Barnes Dr,,San Marcos,TX,78666,United States,(512) 392-1852,29.844539,-97.973282,"Monday 10:00 AM - 9:00 PM , Tuesday 10:00 AM - 9:00 PM , Wednesday 10:00 AM - 9:00 PM , Thursday 10:00 AM - 9:00 PM , Friday 10:00 AM - 9:00 PM , Saturday 10:00 AM - 9:00 PM , Sunday 12:00 PM - 6:00 PM ",,,
"Bealls, San Benito",,850 W US Highway 77,,San Benito,TX,78586,United States,(956) 399-3323,26.144402,-97.632095,"Monday 10:00 AM - 9:00 PM , Tuesday 10:00 AM - 9:00 PM , Wednesday 10:00 AM - 9:00 PM , Thursday 10:00 AM - 9:00 PM , Friday 10:00 AM - 9:00 PM , Saturday 10:00 AM - 9:00 PM , Sunday 12:00 PM - 6:00 PM ",,,
"Bealls, Round Rock",,400 W Palm Valley Blvd,,Round Rock,TX,78664,United States,(512) 828-0274,30.518447,-97.685852,"Monday 10:00 AM - 9:00 PM , Tuesday 10:00 AM - 9:00 PM , Wednesday 10:00 AM - 9:00 PM , Thursday 10:00 AM - 9:00 PM , Friday 10:00 AM - 9:00 PM , Saturday 10:00 AM - 9:00 PM , Sunday 12:00 PM - 6:00 PM ",,,
"Bealls, Rockport",,1326 Highway 35 N,,Rockport,TX,78382,United States,(361) 729-1877,28.037631,-97.041804,"Monday 10:00 AM - 9:00 PM , Tuesday 10:00 AM - 9:00 PM , Wednesday 10:00 AM - 9:00 PM , Thursday 10:00 AM - 9:00 PM , Friday 10:00 AM - 9:00 PM , Saturday 10:00 AM - 9:00 PM , Sunday 12:00 PM - 6:00 PM ",,,
"Bealls, Roma",,1004 U.S. 83,,Roma,TX,78584,United States,(956) 849-2944,26.4099099,-98.958129,"Monday 9:00 AM - 9:00 PM , Tuesday 9:00 AM - 9:00 PM , Wednesday 9:00 AM - 9:00 PM , Thursday 9:00 AM - 9:00 PM , Friday 9:00 AM - 9:00 PM , Saturday 9:00 AM - 9:00 PM , Sunday 12:00 PM - 7:00 PM ",,,
"Bealls, Rockwall",,469 Interstate 30,,Rockwall,TX,75087,United States,(972) 722-3198,32.894286,-96.47292840000001,"Monday 10:00 AM - 9:00 PM , Tuesday 10:00 AM - 9:00 PM , Wednesday 10:00 AM - 9:00 PM , Thursday 10:00 AM - 9:00 PM , Friday 10:00 AM - 9:00 PM , Saturday 10:00 AM - 9:00 PM , Sunday 12:00 PM - 6:00 PM ",,,
"Bealls, Presidio",,712 W O'Reilly St,,Presidio,TX,79845,United States,(432) 229-4064,29.56045,-104.376228,"Monday 10:00 AM - 9:00 PM , Tuesday 10:00 AM - 9:00 PM , Wednesday 10:00 AM - 9:00 PM , Thursday 10:00 AM - 9:00 PM , Friday 10:00 AM - 9:00 PM , Saturday 10:00 AM - 9:00 PM , Sunday 12:00 PM - 6:00 PM ",,,
"Bealls, Rio Grande City",,4027 U.S. 83,,Rio Grande City,TX,78582,United States,(956) 487-4179,26.3699779,-98.80085989999999,"Monday 10:00 AM - 9:00 PM , Tuesday 10:00 AM - 9:00 PM , Wednesday 10:00 AM - 9:00 PM , Thursday 10:00 AM - 9:00 PM , Friday 10:00 AM - 9:00 PM , Saturday 10:00 AM - 9:00 PM , Sunday 11:00 AM - 7:00 PM ",,,
"Bealls, Port Lavaca",,121 Calhoun Plz,,Port Lavaca,TX,77979,United States,(361) 552-7531,28.626478,-96.638634,"Monday 10:00 AM - 9:00 PM , Tuesday 10:00 AM - 9:00 PM , Wednesday 10:00 AM - 9:00 PM , Thursday 10:00 AM - 9:00 PM , Friday 10:00 AM - 9:00 PM , Saturday 10:00 AM - 9:00 PM , Sunday 12:00 PM - 6:00 PM ",,,
"Bealls, Portland",,1530 Wildcat Dr,,Portland,TX,78374,United States,(361) 643-6547,27.885846,-97.316862,"Monday 10:00 AM - 9:00 PM , Tuesday 10:00 AM - 9:00 PM , Wednesday 10:00 AM - 9:00 PM , Thursday 10:00 AM - 9:00 PM , Friday 10:00 AM - 9:00 PM , Saturday 10:00 AM - 9:00 PM , Sunday 12:00 PM - 7:00 PM ",,,
"Bealls, San Antonio",,8425 Bandera Rd,,San Antonio,TX,78250,United States,(210) 256-1994,29.520904,-98.639417,"Monday 10:00 AM - 9:00 PM , Tuesday 10:00 AM - 9:00 PM , Wednesday 10:00 AM - 9:00 PM , Thursday 10:00 AM - 9:00 PM , Friday 10:00 AM - 9:00 PM , Saturday 10:00 AM - 9:00 PM , Sunday 12:00 PM - 6:00 PM ",,,
"Bealls, Port Isabel",,1750 Highway 100,,Port Isabel,TX,78578,United States,(956) 943-2280,26.074985,-97.227344,"Monday 10:00 AM - 9:00 PM , Tuesday 10:00 AM - 9:00 PM , Wednesday 10:00 AM - 9:00 PM , Thursday 10:00 AM - 9:00 PM , Friday 10:00 AM - 9:00 PM , Saturday 10:00 AM - 9:00 PM , Sunday 11:00 AM - 6:00 PM ",,,
"Bealls, Pleasanton",,1715 W Oaklawn Rd,,Pleasanton,TX,78064,United States,(830) 569-4050,28.944019,-98.504333,"Monday 10:00 AM - 9:00 PM , Tuesday 10:00 AM - 9:00 PM , Wednesday 10:00 AM - 9:00 PM , Thursday 10:00 AM - 9:00 PM , Friday 10:00 AM - 9:00 PM , Saturday 10:00 AM - 9:00 PM , Sunday 12:00 PM - 6:00 PM ",,,
"Bealls, Plainview",,3415 Olton Rd,,Plainview,TX,79072,United States,(806) 296-5593,34.185178,-101.745446,"Monday 10:00 AM - 9:00 PM , Tuesday 10:00 AM - 9:00 PM , Wednesday 10:00 AM - 9:00 PM , Thursday 10:00 AM - 9:00 PM , Friday 10:00 AM - 9:00 PM , Saturday 10:00 AM - 9:00 PM , Sunday 12:00 PM - 6:00 PM ",,,
"Bealls, San Angelo",,4001 Sunset Drive,,San Angelo,TX,76904,United States,(325) 949-4661,31.425344,-100.4961954,"Monday 10:00 AM - 9:00 PM , Tuesday 10:00 AM - 9:00 PM , Wednesday 10:00 AM - 9:00 PM , Thursday 10:00 AM - 9:00 PM , Friday 10:00 AM - 9:00 PM , Saturday 10:00 AM - 9:00 PM , Sunday 12:00 PM - 6:00 PM ",,,
"Bealls, San Angelo",,2230 W Beauregard Ave,,San Angelo,TX,76901,United States,(325) 944-0558,31.451223,-100.465931,"Monday 10:00 AM - 7:00 PM , Tuesday 10:00 AM - 7:00 PM , Wednesday 10:00 AM - 7:00 PM , Thursday 10:00 AM - 8:00 PM , Friday 10:00 AM - 8:00 PM , Saturday 10:00 AM - 8:00 PM , Sunday 1:00 PM - 6:00 PM ",,,
"Bealls, Pharr",,500 N Jackson Rd,,Pharr,TX,78577,United States,(956) 787-5161,26.202056,-98.201466,"Monday 10:00 AM - 9:00 PM , Tuesday 10:00 AM - 9:00 PM , Wednesday 10:00 AM - 9:00 PM , Thursday 10:00 AM - 9:00 PM , Friday 10:00 AM - 9:00 PM , Saturday 10:00 AM - 9:00 PM , Sunday 11:00 AM - 6:00 PM ",,,
"Bealls, San Antonio",,1209 N Loop 1604 W,,San Antonio,TX,78258,United States,(210) 479-7790,29.610941,-98.511698,"Monday 10:00 AM - 8:00 PM , Tuesday 10:00 AM - 8:00 PM , Wednesday 10:00 AM - 8:00 PM , Thursday 10:00 AM - 9:00 PM , Friday 10:00 AM - 9:00 PM , Saturday 10:00 AM - 9:00 PM , Sunday 12:00 PM - 6:00 PM ",,,
"Bealls, San Antonio",,6301 Northwest Loop 410,,San Antonio,TX,78238,United States,(210) 684-7870,29.468765433306864,-98.62186498939991,"Monday 10:00 AM - 9:00 PM , Tuesday 10:00 AM - 9:00 PM , Wednesday 10:00 AM - 9:00 PM , Thursday 10:00 AM - 9:00 PM , Friday 10:00 AM - 9:00 PM , Saturday 10:00 AM - 9:00 PM , Sunday 12:00 PM - 6:00 PM ",,,
"Bealls, San Antonio",,1401 SW Loop 410,,San Antonio,TX,78227,United States,(210) 675-5494,29.421824,-98.651805,"Monday 10:00 AM - 8:00 PM , Tuesday 10:00 AM - 8:00 PM , Wednesday 10:00 AM - 8:00 PM , Thursday 10:00 AM - 9:00 PM , Friday 10:00 AM - 9:00 PM , Saturday 10:00 AM - 9:00 PM , Sunday 12:00 PM - 6:00 PM ",,,
"Bealls, San Antonio",,4224 S New Braunfels Ave,,San Antonio,TX,78223,United States,(210) 531-3039,29.377134,-98.45952,"Monday 10:00 AM - 9:00 PM , Tuesday 10:00 AM - 9:00 PM , Wednesday 10:00 AM - 9:00 PM , Thursday 10:00 AM - 9:00 PM , Friday 10:00 AM - 9:00 PM , Saturday 10:00 AM - 9:00 PM , Sunday 12:00 PM - 7:00 PM ",,,
"Bealls, San Antonio",,2310 SW Military Dr,,San Antonio,TX,78224,United States,(210) 924-7348,29.354681,-98.531305,"Monday 10:00 AM - 9:00 PM , Tuesday 10:00 AM - 9:00 PM , Wednesday 10:00 AM - 9:00 PM , Thursday 10:00 AM - 9:00 PM , Friday 10:00 AM - 9:00 PM , Saturday 10:00 AM - 9:00 PM , Sunday 12:00 PM - 7:00 PM ",,,
"Bealls, Pflugerville",,18700 Limestone Commercial,,Pflugerville,TX,78660,United States,(512) 989-1339,30.469519,-97.597385,"Monday 10:00 AM - 9:00 PM , Tuesday 10:00 AM - 9:00 PM , Wednesday 10:00 AM - 9:00 PM , Thursday 10:00 AM - 9:00 PM , Friday 10:00 AM - 9:00 PM , Saturday 10:00 AM - 9:00 PM , Sunday 12:00 PM - 7:00 PM ",,,
"Bealls, Perryton",,904 S Main St,,Perryton,TX,79070,United States,(806) 435-3628,36.390889,-100.803721,"Monday 10:00 AM - 9:00 PM , Tuesday 10:00 AM - 9:00 PM , Wednesday 10:00 AM - 9:00 PM , Thursday 10:00 AM - 9:00 PM , Friday 10:00 AM - 9:00 PM , Saturday 10:00 AM - 9:00 PM , Sunday 12:00 PM - 6:00 PM ",,,
"Bealls, Pampa",,1201 N Hobart St,,Pampa,TX,79065,United States,(806) 665-8612,35.54723315421238,-100.97266856085207,"Monday 10:00 AM - 9:00 PM , Tuesday 10:00 AM - 9:00 PM , Wednesday 10:00 AM - 9:00 PM , Thursday 10:00 AM - 9:00 PM , Friday 10:00 AM - 9:00 PM , Saturday 10:00 AM - 9:00 PM , Sunday 12:00 PM - 6:00 PM ",,,
"Bealls, Pecos",,910 S Eddy St,,Pecos,TX,79772,United States,(432) 445-4977,31.416841,-103.500206,"Monday 10:00 AM - 9:00 PM , Tuesday 10:00 AM - 9:00 PM , Wednesday 10:00 AM - 9:00 PM , Thursday 10:00 AM - 9:00 PM , Friday 10:00 AM - 9:00 PM , Saturday 10:00 AM - 9:00 PM , Sunday 12:00 PM - 6:00 PM ",,,
"Bealls, San Antonio",,2939 Thousand Oaks Dr,,San Antonio,TX,78247,United States,(210) 490-1190,29.577762,-98.438627,"Monday 10:00 AM - 9:00 PM , Tuesday 10:00 AM - 9:00 PM , Wednesday 10:00 AM - 9:00 PM , Thursday 10:00 AM - 9:00 PM , Friday 10:00 AM - 9:00 PM , Saturday 10:00 AM - 9:00 PM , Sunday 12:00 PM - 6:00 PM ",,,
"Bealls, Palestine",,2012 Crockett Rd,,Palestine,TX,75801,United States,(903) 729-7282,31.738945,-95.608857,"Monday 10:00 AM - 9:00 PM , Tuesday 10:00 AM - 9:00 PM , Wednesday 10:00 AM - 9:00 PM , Thursday 10:00 AM - 9:00 PM , Friday 10:00 AM - 9:00 PM , Saturday 10:00 AM - 9:00 PM , Sunday 12:00 PM - 6:00 PM ",,,
"Bealls, Paris",,3512 Lamar Ave,,Paris,TX,75460,United States,(903) 737-4354,33.660336,-95.511531,"Monday 10:00 AM - 9:00 PM , Tuesday 10:00 AM - 9:00 PM , Wednesday 10:00 AM - 9:00 PM , Thursday 10:00 AM - 9:00 PM , Friday 10:00 AM - 9:00 PM , Saturday 10:00 AM - 9:00 PM , Sunday 12:00 PM - 6:00 PM ",,,
"Bealls, Monahans",,1203 S Stockton Ave,,Monahans,TX,79756,United States,(432) 943-7508,31.581302,-102.892368,"Monday 10:00 AM - 9:00 PM , Tuesday 10:00 AM - 9:00 PM , Wednesday 10:00 AM - 9:00 PM , Thursday 10:00 AM - 9:00 PM , Friday 10:00 AM - 9:00 PM , Saturday 10:00 AM - 9:00 PM , Sunday 12:00 PM - 6:00 PM ",,,
"Bealls, New Braunfels",,203 Interstate 35 Frontage Road,,New Braunfels,TX,78130,United States,(830) 625-9121,29.688384093552514,-98.11352053287919,"Monday 10:00 AM - 9:00 PM , Tuesday 10:00 AM - 9:00 PM , Wednesday 10:00 AM - 9:00 PM , Thursday 10:00 AM - 9:00 PM , Friday 10:00 AM - 9:00 PM , Saturday 10:00 AM - 9:00 PM , Sunday 12:00 PM - 6:00 PM ",,,
"Bealls, Mount Pleasant",,2306 South Jefferson Avenue,,Mount Pleasant,TX,75455,United States,(903) 572-3975,33.13456517991282,-94.96950048613144,"Monday 10:00 AM - 9:00 PM , Tuesday 10:00 AM - 9:00 PM , Wednesday 10:00 AM - 9:00 PM , Thursday 10:00 AM - 9:00 PM , Friday 10:00 AM - 9:00 PM , Saturday 10:00 AM - 9:00 PM , Sunday 12:00 PM - 6:00 PM ",,,
"Bealls, Mission",,301 E Expressway,,Mission,TX,78572,United States,(956) 581-0091,26.20217,-98.324705,"Monday 10:00 AM - 9:00 PM , Tuesday 10:00 AM - 9:00 PM , Wednesday 10:00 AM - 9:00 PM , Thursday 10:00 AM - 9:00 PM , Friday 10:00 AM - 9:00 PM , Saturday 10:00 AM - 9:00 PM , Sunday 12:00 PM - 7:00 PM ",,,
"Bealls, Midland",,4511 North Midkiff Road,,Midland,TX,79705,United States,(432) 697-7941,32.0305,-102.131286,"Monday 10:00 AM - 9:00 PM , Tuesday 10:00 AM - 9:00 PM , Wednesday 10:00 AM - 9:00 PM , Thursday 10:00 AM - 9:00 PM , Friday 10:00 AM - 9:00 PM , Saturday 10:00 AM - 9:00 PM , Sunday 12:00 PM - 6:00 PM ",,,
"Bealls, Mineral Wells",,2801 U.S. 180,,Mineral Wells,TX,76067,United States,(940) 328-0892,32.8099964,-98.0901109,"Monday 10:00 AM - 9:00 PM , Tuesday 10:00 AM - 9:00 PM , Wednesday 10:00 AM - 9:00 PM , Thursday 10:00 AM - 9:00 PM , Friday 10:00 AM - 9:00 PM , Saturday 10:00 AM - 9:00 PM , Sunday 12:00 PM - 6:00 PM ",,,
"Bealls, Mexia",,1009 E Milam St,,Mexia,TX,76667,United States,(254) 472-0029,31.686299,-96.46949,"Monday 10:00 AM - 9:00 PM , Tuesday 10:00 AM - 9:00 PM , Wednesday 10:00 AM - 9:00 PM , Thursday 10:00 AM - 9:00 PM , Friday 10:00 AM - 9:00 PM , Saturday 10:00 AM - 9:00 PM , Sunday 12:00 PM - 6:00 PM ",,,
"Bealls, Odessa",,2008 E 42nd St,,Odessa,TX,79762,United States,(432) 362-2190,31.887954,-102.353296,"Monday 10:00 AM - 9:00 PM , Tuesday 10:00 AM - 9:00 PM , Wednesday 10:00 AM - 9:00 PM , Thursday 10:00 AM - 9:00 PM , Friday 10:00 AM - 9:00 PM , Saturday 10:00 AM - 9:00 PM , Sunday 12:00 PM - 6:00 PM ",,,
"Bealls, Odessa",,1623 N  County Rd W,,Odessa,TX,79763,United States,(432) 332-9163,31.851492,-102.394334,"Monday 10:00 AM - 9:00 PM , Tuesday 10:00 AM - 9:00 PM , Wednesday 10:00 AM - 9:00 PM , Thursday 10:00 AM - 9:00 PM , Friday 10:00 AM - 9:00 PM , Saturday 10:00 AM - 9:00 PM , Sunday 12:00 PM - 6:00 PM ",,,
"Bealls, Odessa",,1515 E 8th St,,Odessa,TX,79761,United States,(432) 337-2371,31.860208,-102.3534,"Monday 10:00 AM - 9:00 PM , Tuesday 10:00 AM - 9:00 PM , Wednesday 10:00 AM - 9:00 PM , Thursday 10:00 AM - 9:00 PM , Friday 10:00 AM - 9:00 PM , Saturday 10:00 AM - 9:00 PM , Sunday 12:00 PM - 6:00 PM ",,,
"Bealls, Mercedes",,105 S Texas Ave,,Mercedes,TX,78570,United States,(956) 565-0184,26.150322,-97.914245,"Monday 10:00 AM - 8:00 PM , Tuesday 10:00 AM - 8:00 PM , Wednesday 10:00 AM - 8:00 PM , Thursday 10:00 AM - 8:00 PM , Friday 10:00 AM - 8:00 PM , Saturday 10:00 AM - 8:00 PM , Sunday 12:00 PM - 6:00 PM ",,,
"Bealls, Lytle",,19563 IH-35 South,,Lytle,TX,78052,United States,(830) 772-5736,29.229727997138653,-98.78964990377432,"Monday 10:00 AM - 9:00 PM , Tuesday 10:00 AM - 9:00 PM , Wednesday 10:00 AM - 9:00 PM , Thursday 10:00 AM - 9:00 PM , Friday 10:00 AM - 9:00 PM , Saturday 10:00 AM - 9:00 PM , Sunday 12:00 PM - 6:00 PM ",,,
"Bealls, Marble Falls",,1505 Highway 1431,,Marble Falls,TX,78654,United States,(830) 798-1176,30.582854,-98.279315,"Monday 10:00 AM - 9:00 PM , Tuesday 10:00 AM - 9:00 PM , Wednesday 10:00 AM - 9:00 PM , Thursday 10:00 AM - 9:00 PM , Friday 10:00 AM - 9:00 PM , Saturday 10:00 AM - 9:00 PM , Sunday 12:00 PM - 7:00 PM ",,,
"Bealls, Littlefield",,707 Marshall Howard Blvd,,Littlefield,TX,79339,United States,(806) 385-3535,33.906778,-102.338153,"Monday 10:00 AM - 8:00 PM , Tuesday 10:00 AM - 8:00 PM , Wednesday 10:00 AM - 8:00 PM , Thursday 10:00 AM - 8:00 PM , Friday 10:00 AM - 8:00 PM , Saturday 10:00 AM - 8:00 PM , Sunday 1:00 PM - 6:00 PM ",,,
"Bealls, Laredo",,5300 San Dario Avenue,,Laredo,TX,78041,United States,(956) 724-8427,27.552212,-99.500544,"Monday 10:00 AM - 9:30 PM , Tuesday 10:00 AM - 9:30 PM , Wednesday 10:00 AM - 9:30 PM , Thursday 10:00 AM - 9:30 PM , Friday 10:00 AM - 9:30 PM , Saturday 10:00 AM - 9:30 PM , Sunday 11:00 AM - 7:00 PM ",,,
"Bealls, Levelland",,208 Clubview Dr,,Levelland,TX,79336,United States,(806) 894-8547,33.574251,-102.371412,"Monday 10:00 AM - 8:00 PM , Tuesday 10:00 AM - 8:00 PM , Wednesday 10:00 AM - 8:00 PM , Thursday 10:00 AM - 9:00 PM , Friday 10:00 AM - 9:00 PM , Saturday 10:00 AM - 9:00 PM , Sunday 12:00 PM - 6:00 PM ",,,
"Bealls, Lamesa",,2308 Lubbock Hwy,,Lamesa,TX,79331,United States,(806) 872-8851,32.756369,-101.949906,"Monday 10:00 AM - 9:00 PM , Tuesday 10:00 AM - 9:00 PM , Wednesday 10:00 AM - 9:00 PM , Thursday 10:00 AM - 9:00 PM , Friday 10:00 AM - 9:00 PM , Saturday 10:00 AM - 9:00 PM , Sunday 12:00 PM - 6:00 PM ",,,
"Bealls, La Grange",,215 Ellinger Rd Ste B,,La Grange,TX,78945,United States,(979) 968-6077,29.913728,-96.862587,"Monday 10:00 AM - 9:00 PM , Tuesday 10:00 AM - 9:00 PM , Wednesday 10:00 AM - 9:00 PM , Thursday 10:00 AM - 9:00 PM , Friday 10:00 AM - 9:00 PM , Saturday 10:00 AM - 9:00 PM , Sunday 12:00 PM - 6:00 PM ",,,
"Bealls, McAllen",,3300 E Expressway 83,,McAllen,TX,78501,United States,(956) 683-1048,26.197231,-98.258291,"Monday 10:00 AM - 9:30 PM , Tuesday 10:00 AM - 9:30 PM , Wednesday 10:00 AM - 9:30 PM , Thursday 10:00 AM - 9:30 PM , Friday 10:00 AM - 9:30 PM , Saturday 10:00 AM - 9:30 PM , Sunday 11:00 AM - 7:00 PM ",,,
"Bealls, Kingsville",,2319 S Brahma Blvd,,Kingsville,TX,78363,United States,(361) 592-6853,27.494852,-97.857887,"Monday 10:00 AM - 9:00 PM , Tuesday 10:00 AM - 9:00 PM , Wednesday 10:00 AM - 9:00 PM , Thursday 10:00 AM - 9:00 PM , Friday 10:00 AM - 9:00 PM , Saturday 10:00 AM - 9:00 PM , Sunday 12:00 PM - 7:00 PM ",,,
"Bealls, McAllen",,7600 N 10th St,,McAllen,TX,78504,United States,(956) 664-0288,26.272752,-98.215444,"Monday 10:00 AM - 9:00 PM , Tuesday 10:00 AM - 9:00 PM , Wednesday 10:00 AM - 9:00 PM , Thursday 10:00 AM - 9:00 PM , Friday 10:00 AM - 9:00 PM , Saturday 10:00 AM - 9:00 PM , Sunday 12:00 PM - 6:00 PM ",,,
"Bealls, Lubbock",,6002 Slide Road,,Lubbock,TX,79414,United States,(806) 792-5961,33.53785775272918,-101.92614818783568,"Monday 10:00 AM - 9:00 PM , Tuesday 10:00 AM - 9:00 PM , Wednesday 10:00 AM - 9:00 PM , Thursday 10:00 AM - 9:00 PM , Friday 10:00 AM - 9:00 PM , Saturday 10:00 AM - 9:00 PM , Sunday 12:00 PM - 6:00 PM ",,,
"Bealls, Kerrville",,200 Sidney Baker Street South,,Kerrville,TX,78028,United States,(830) 896-8660,30.0439602,-99.1466829,"Monday 10:00 AM - 8:00 PM , Tuesday 10:00 AM - 8:00 PM , Wednesday 10:00 AM - 8:00 PM , Thursday 10:00 AM - 9:00 PM , Friday 10:00 AM - 9:00 PM , Saturday 10:00 AM - 9:00 PM , Sunday 12:00 PM - 6:00 PM ",,,
"Bealls, Lubbock",,2705 50th St,,Lubbock,TX,79413,United States,(806) 792-0749,33.547354,-101.874926,"Monday 10:00 AM - 9:00 PM , Tuesday 10:00 AM - 9:00 PM , Wednesday 10:00 AM - 9:00 PM , Thursday 10:00 AM - 9:00 PM , Friday 10:00 AM - 9:00 PM , Saturday 10:00 AM - 9:00 PM , Sunday 12:00 PM - 6:00 PM ",,,
"Bealls, Kaufman",,2011 S Washington St,,Kaufman,TX,75142,United States,(972) 932-2934,32.576188,-96.307558,"Monday 10:00 AM - 8:00 PM , Tuesday 10:00 AM - 8:00 PM , Wednesday 10:00 AM - 8:00 PM , Thursday 10:00 AM - 8:00 PM , Friday 10:00 AM - 8:00 PM , Saturday 10:00 AM - 8:00 PM , Sunday 12:00 PM - 6:00 PM ",,,
"Bealls, Hondo",,2509 19th St (Hwy 90),,Hondo,TX,78861,United States,(830) 426-8332,29.345031,-99.156118,"Monday 10:00 AM - 8:00 PM , Tuesday 10:00 AM - 8:00 PM , Wednesday 10:00 AM - 8:00 PM , Thursday 10:00 AM - 8:00 PM , Friday 10:00 AM - 8:00 PM , Saturday 10:00 AM - 8:00 PM , Sunday 12:00 PM - 6:00 PM ",,,
"Bealls, Hereford",,531 N 25 Mile Ave,,Hereford,TX,79045,United States,(806) 364-4547,34.833678,-102.407001,"Monday 10:00 AM - 9:00 PM , Tuesday 10:00 AM - 9:00 PM , Wednesday 10:00 AM - 9:00 PM , Thursday 10:00 AM - 9:00 PM , Friday 10:00 AM - 9:00 PM , Saturday 10:00 AM - 9:00 PM , Sunday 12:00 PM - 6:00 PM ",,,
"Bealls, Hidalgo",,701 International Blvd,,Hidalgo,TX,78557,United States,(956) 843-8955,26.111268,-98.261353,"Monday 10:00 AM - 9:00 PM , Tuesday 10:00 AM - 9:00 PM , Wednesday 10:00 AM - 9:00 PM , Thursday 10:00 AM - 9:00 PM , Friday 10:00 AM - 9:00 PM , Saturday 10:00 AM - 9:00 PM , Sunday 12:00 PM - 6:00 PM ",,,
"Bealls, Grapevine",,1217 W State Hwy 114,,Grapevine,TX,76051,United States,(817) 488-6025,32.928845,-97.088916,"Monday 10:00 AM - 9:00 PM , Tuesday 10:00 AM - 9:00 PM , Wednesday 10:00 AM - 9:00 PM , Thursday 10:00 AM - 9:00 PM , Friday 10:00 AM - 9:00 PM , Saturday 10:00 AM - 9:00 PM , Sunday 12:00 PM - 6:00 PM ",,,
"Bealls, Gun Barrel City",,1020 W Main St,,Gun Barrel City,TX,75156,United States,(903) 880-1024,32.331185,-96.123788,"Monday 10:00 AM - 9:00 PM , Tuesday 10:00 AM - 9:00 PM , Wednesday 10:00 AM - 9:00 PM , Thursday 10:00 AM - 9:00 PM , Friday 10:00 AM - 9:00 PM , Saturday 10:00 AM - 9:00 PM , Sunday 12:00 PM - 6:00 PM ",,,
"Bealls, Gonzales",,1624 Sarah Dewitt Drive,,Gonzales,TX,78629,United States,(830) 672-4824,29.503263,-97.4538039,"Monday 10:00 AM - 8:00 PM , Tuesday 10:00 AM - 8:00 PM , Wednesday 10:00 AM - 8:00 PM , Thursday 10:00 AM - 8:00 PM , Friday 10:00 AM - 8:00 PM , Saturday 10:00 AM - 8:00 PM , Sunday 12:00 PM - 6:00 PM ",,,
"Bealls, Granbury",,301 E Highway 377,,Granbury,TX,76048,United States,(817) 579-5979,32.432138,-97.785683,"Monday 9:00 AM - 9:00 PM , Tuesday 9:00 AM - 9:00 PM , Wednesday 9:00 AM - 9:00 PM , Thursday 9:00 AM - 9:00 PM , Friday 9:00 AM - 9:00 PM , Saturday 9:00 AM - 9:00 PM , Sunday 12:00 PM - 6:00 PM ",,,
"Bealls, Greenville",,6834 Wesley St,,Greenville,TX,75401,United States,(903) 455-2091,33.100618,-96.111323,"Monday 10:00 AM - 9:00 PM , Tuesday 10:00 AM - 9:00 PM , Wednesday 10:00 AM - 9:00 PM , Thursday 10:00 AM - 9:00 PM , Friday 10:00 AM - 9:00 PM , Saturday 10:00 AM - 9:00 PM , Sunday 12:00 PM - 6:00 PM ",,,
"Bealls, Graham",,1108 Highway 16,,Graham,TX,76450,United States,(940) 521-9372,33.094859,-98.58961749999999,"Monday 10:00 AM - 8:00 PM , Tuesday 10:00 AM - 8:00 PM , Wednesday 10:00 AM - 8:00 PM , Thursday 10:00 AM - 9:00 PM , Friday 10:00 AM - 9:00 PM , Saturday 10:00 AM - 9:00 PM , Sunday 12:00 PM - 6:00 PM ",,,
"Bealls, Giddings",,2450 E Austin St,,Giddings,TX,78942,United States,(979) 542-2877,30.178441,-96.914034,"Monday 10:00 AM - 8:00 PM , Tuesday 10:00 AM - 8:00 PM , Wednesday 10:00 AM - 8:00 PM , Thursday 10:00 AM - 8:00 PM , Friday 10:00 AM - 8:00 PM , Saturday 10:00 AM - 8:00 PM , Sunday 12:00 PM - 6:00 PM ",,,
"Bealls, Harlingen",,1200  S 77th Sunshine Strip,,Harlingen,TX,78550,United States,(956) 428-4042,26.182037,-97.680906,"Monday 10:00 AM - 9:00 PM , Tuesday 10:00 AM - 9:00 PM , Wednesday 10:00 AM - 9:00 PM , Thursday 10:00 AM - 9:00 PM , Friday 10:00 AM - 9:00 PM , Saturday 10:00 AM - 9:00 PM , Sunday 12:00 PM - 6:00 PM ",,,
"Bealls, Harlingen",,2313 W Lincoln St,,Harlingen,TX,78552,United States,(956) 423-3778,26.179555,-97.720157,"Monday 10:00 AM - 9:00 PM , Tuesday 10:00 AM - 9:00 PM , Wednesday 10:00 AM - 9:00 PM , Thursday 10:00 AM - 9:00 PM , Friday 10:00 AM - 9:00 PM , Saturday 10:00 AM - 9:00 PM , Sunday 12:00 PM - 7:00 PM ",,,
"Bealls, Georgetown",,1103 Rivery Blvd,,Georgetown,TX,78628,United States,(512) 863-9127,30.645585,-97.688937,"Monday 10:00 AM - 9:00 PM , Tuesday 10:00 AM - 9:00 PM , Wednesday 10:00 AM - 9:00 PM , Thursday 10:00 AM - 9:00 PM , Friday 10:00 AM - 9:00 PM , Saturday 10:00 AM - 9:00 PM , Sunday 12:00 PM - 7:00 PM ",,,
"Bealls, Gatesville",,2411 S Highway 36,,Gatesville,TX,76528,United States,(254) 404-2105,31.432756,-97.728428,"Monday 10:00 AM - 8:00 PM , Tuesday 10:00 AM - 8:00 PM , Wednesday 10:00 AM - 8:00 PM , Thursday 10:00 AM - 8:00 PM , Friday 10:00 AM - 8:00 PM , Saturday 10:00 AM - 8:00 PM , Sunday 12:00 PM - 6:00 PM ",,,
"Bealls, Gainesville",,1008 Highway 82,,Gainesville,TX,76240,United States,(940) 668-7756,33.6405333,-97.1361316,"Monday 10:00 AM - 9:00 PM , Tuesday 10:00 AM - 9:00 PM , Wednesday 10:00 AM - 9:00 PM , Thursday 10:00 AM - 9:00 PM , Friday 10:00 AM - 9:00 PM , Saturday 10:00 AM - 9:00 PM , Sunday 12:00 PM - 6:00 PM ",,,
"Bealls, Fredericksburg",,1412 E Main St,,Fredericksburg,TX,78624,United States,(830) 997-6279,30.259106,-98.852512,"Monday 10:00 AM - 9:00 PM , Tuesday 10:00 AM - 9:00 PM , Wednesday 10:00 AM - 9:00 PM , Thursday 10:00 AM - 9:00 PM , Friday 10:00 AM - 9:00 PM , Saturday 10:00 AM - 9:00 PM , Sunday 12:00 PM - 6:00 PM ",,,
"Bealls, Fort Stockton",,1700 W Dickinson Blvd Suite B,,Fort Stockton,TX,79735,United States,(432) 336-3879,30.895927022631465,-102.89652544047544,"Monday 10:00 AM - 9:00 PM , Tuesday 10:00 AM - 9:00 PM , Wednesday 10:00 AM - 9:00 PM , Thursday 10:00 AM - 9:00 PM , Friday 10:00 AM - 9:00 PM , Saturday 10:00 AM - 9:00 PM , Sunday 12:00 PM - 6:00 PM ",,,
"Bealls, Floresville",,917 10th St,,Floresville,TX,78114,United States,(830) 393-1062,29.143803,-98.158373,"Monday 10:00 AM - 9:00 PM , Tuesday 10:00 AM - 9:00 PM , Wednesday 10:00 AM - 9:00 PM , Thursday 10:00 AM - 9:00 PM , Friday 10:00 AM - 9:00 PM , Saturday 10:00 AM - 9:00 PM , Sunday 12:00 PM - 6:00 PM ",,,
"Bealls - Clearance Outlet, Fort Worth",,4200 South Freeway,,Fort Worth,TX,76115,United States,(817) 922-9158,32.686518,-97.324254,"Monday 10:00 AM - 8:00 PM , Tuesday 10:00 AM - 8:00 PM , Wednesday 10:00 AM - 8:00 PM , Thursday 10:00 AM - 8:00 PM , Friday 10:00 AM - 8:00 PM , Saturday 10:00 AM - 8:00 PM , Sunday 12:00 PM - 5:00 PM ",,,
"Bealls, Falfurrias",,118 W Rice St,,Falfurrias,TX,78355,United States,(361) 325-2730,27.2272,-98.144819,"Monday 10:00 AM - 8:00 PM , Tuesday 10:00 AM - 8:00 PM , Wednesday 10:00 AM - 8:00 PM , Thursday 10:00 AM - 9:00 PM , Friday 10:00 AM - 9:00 PM , Saturday 10:00 AM - 9:00 PM , Sunday 12:00 PM - 6:00 PM ",,,
"Bealls, Ennis",,201 Interstate 45,,Ennis,TX,75119,United States,(972) 875-4668,32.332146,-96.61653869999999,"Monday 10:00 AM - 9:00 PM , Tuesday 10:00 AM - 9:00 PM , Wednesday 10:00 AM - 9:00 PM , Thursday 10:00 AM - 9:00 PM , Friday 10:00 AM - 9:00 PM , Saturday 10:00 AM - 9:00 PM , Sunday 12:00 PM - 6:00 PM ",,,
"Bealls, Edinburg",,511 E University Dr,,Edinburg,TX,78539,United States,(956) 316-2157,26.301447,-98.157516,"Monday 10:00 AM - 9:00 PM , Tuesday 10:00 AM - 9:00 PM , Wednesday 10:00 AM - 9:00 PM , Thursday 10:00 AM - 9:00 PM , Friday 10:00 AM - 9:00 PM , Saturday 10:00 AM - 9:00 PM , Sunday 12:00 PM - 7:00 PM ",,,
"Bealls, Eagle Pass",,455 S Bibb Ave,,Eagle Pass,TX,78852,United States,(830) 773-0381,28.703087,-100.484149,"Monday 10:00 AM - 9:30 PM , Tuesday 10:00 AM - 9:30 PM , Wednesday 10:00 AM - 9:30 PM , Thursday 10:00 AM - 9:30 PM , Friday 10:00 AM - 9:30 PM , Saturday 10:00 AM - 9:30 PM , Sunday 11:00 AM - 7:00 PM ",,,
"Bealls, Duncanville",,726 W Wheatland Rd,,Duncanville,TX,75116,United States,(972) 298-1031,32.646541,-96.92427,"Monday 10:00 AM - 9:00 PM , Tuesday 10:00 AM - 9:00 PM , Wednesday 10:00 AM - 9:00 PM , Thursday 10:00 AM - 9:00 PM , Friday 10:00 AM - 9:00 PM , Saturday 10:00 AM - 9:00 PM , Sunday 12:00 PM - 6:00 PM ",,,
"Bealls, Eastland",,1405 E Main St,,Eastland,TX,76448,United States,(254) 629-8617,32.400844,-98.794202,"Monday 10:00 AM - 7:00 PM , Tuesday 10:00 AM - 7:00 PM , Wednesday 10:00 AM - 7:00 PM , Thursday 10:00 AM - 8:00 PM , Friday 10:00 AM - 8:00 PM , Saturday 10:00 AM - 8:00 PM , Sunday 12:00 PM - 6:00 PM ",,,
"Bealls, Elgin",,214 Highway 290 E,,Elgin,TX,78621,United States,(512) 285-5600,30.336531,-97.372129,"Monday 10:00 AM - 8:00 PM , Tuesday 10:00 AM - 8:00 PM , Wednesday 10:00 AM - 8:00 PM , Thursday 10:00 AM - 9:00 PM , Friday 10:00 AM - 9:00 PM , Saturday 10:00 AM - 9:00 PM , Sunday 12:00 PM - 6:00 PM ",,,
"Bealls, Del Rio",,2205 Veterans Blvd,,Del Rio,TX,78840,United States,(830) 774-3681,29.39052,-100.902721,"Monday 10:00 AM - 9:30 PM , Tuesday 10:00 AM - 9:30 PM , Wednesday 10:00 AM - 9:30 PM , Thursday 10:00 AM - 9:30 PM , Friday 10:00 AM - 9:30 PM , Saturday 10:00 AM - 9:30 PM , Sunday 11:00 AM - 7:00 PM ",,,
"Bealls, Decatur",,611 W Ford St,,Decatur,TX,76234,United States,(940) 626-4824,33.224125,-97.593512,"Monday 10:00 AM - 9:00 PM , Tuesday 10:00 AM - 9:00 PM , Wednesday 10:00 AM - 9:00 PM , Thursday 10:00 AM - 9:00 PM , Friday 10:00 AM - 9:00 PM , Saturday 10:00 AM - 9:00 PM , Sunday 12:00 PM - 6:00 PM ",,,
"Bealls, Dalhart",,1621 Tennessee Ave,,Dalhart,TX,79022,United States,(806) 249-0503,36.049254,-102.512238,"Monday 10:00 AM - 8:00 PM , Tuesday 10:00 AM - 8:00 PM , Wednesday 10:00 AM - 8:00 PM , Thursday 10:00 AM - 9:00 PM , Friday 10:00 AM - 9:00 PM , Saturday 10:00 AM - 9:00 PM , Sunday 12:00 PM - 6:00 PM ",,,
"Bealls, DeSoto",,901 N Polk St,,DeSoto,TX,75115,United States,(972) 228-2118,32.606645,-96.841557,"Monday 10:00 AM - 9:00 PM , Tuesday 10:00 AM - 9:00 PM , Wednesday 10:00 AM - 9:00 PM , Thursday 10:00 AM - 9:00 PM , Friday 10:00 AM - 9:00 PM , Saturday 10:00 AM - 9:00 PM , Sunday 12:00 PM - 6:00 PM ",,,
"Bealls, Cuero",,1143 N Esplanade St,,Cuero,TX,77954,United States,(361) 275-2927,29.099664,-97.285814,"Monday 10:00 AM - 8:00 PM , Tuesday 10:00 AM - 8:00 PM , Wednesday 10:00 AM - 8:00 PM , Thursday 10:00 AM - 9:00 PM , Friday 10:00 AM - 9:00 PM , Saturday 10:00 AM - 9:00 PM , Sunday 12:00 PM - 6:00 PM ",,,
"Bealls, Corsicana",,3500 W 7th Ave,,Corsicana,TX,75110,United States,(903) 872-2623,32.074467,-96.504267,"Monday 10:00 AM - 9:00 PM , Tuesday 10:00 AM - 9:00 PM , Wednesday 10:00 AM - 9:00 PM , Thursday 10:00 AM - 9:00 PM , Friday 10:00 AM - 9:00 PM , Saturday 10:00 AM - 9:00 PM , Sunday 12:00 PM - 6:00 PM ",,,
"Bealls, College Station",,1500 Harvey Road,,College Station,TX,77840,United States,(979) 764-0052,30.622194,-96.304266,"Monday 10:00 AM - 9:00 PM , Tuesday 10:00 AM - 9:00 PM , Wednesday 10:00 AM - 9:00 PM , Thursday 10:00 AM - 9:00 PM , Friday 10:00 AM - 9:00 PM , Saturday 10:00 AM - 9:00 PM , Sunday 12:00 PM - 6:00 PM ",,,
"Bealls, Cleburne",,1663 W Henderson St,,Cleburne,TX,76033,United States,(817) 641-9801,32.334142,-97.41965,"Monday 10:00 AM - 9:00 PM , Tuesday 10:00 AM - 9:00 PM , Wednesday 10:00 AM - 9:00 PM , Thursday 10:00 AM - 9:00 PM , Friday 10:00 AM - 9:00 PM , Saturday 10:00 AM - 9:00 PM , Sunday 12:00 PM - 6:00 PM ",,,
"Bealls, Copperas Cove",,228 Cove Terrace Shopping Ctr,,Copperas Cove,TX,76522,United States,(254) 547-6306,31.120156,-97.897977,"Monday 10:00 AM - 9:00 PM , Tuesday 10:00 AM - 9:00 PM , Wednesday 10:00 AM - 9:00 PM , Thursday 10:00 AM - 9:00 PM , Friday 10:00 AM - 9:00 PM , Saturday 10:00 AM - 9:00 PM , Sunday 12:00 PM - 6:00 PM ",,,
"Bealls, Cedar Park",,1335 East Whitestone Blvd,,Cedar Park,TX,78613,United States,(512) 528-8927,30.52845,-97.814186,"Monday 10:00 AM - 9:00 PM , Tuesday 10:00 AM - 9:00 PM , Wednesday 10:00 AM - 9:00 PM , Thursday 10:00 AM - 9:00 PM , Friday 10:00 AM - 9:00 PM , Saturday 10:00 AM - 9:00 PM , Sunday 12:00 PM - 6:00 PM ",,,
"Bealls, Columbus",,1404 Walnut St,,Columbus,TX,78934,United States,(979) 733-8901,29.706916,-96.553379,"Monday 10:00 AM - 8:00 PM , Tuesday 10:00 AM - 8:00 PM , Wednesday 10:00 AM - 8:00 PM , Thursday 10:00 AM - 8:00 PM , Friday 10:00 AM - 8:00 PM , Saturday 10:00 AM - 8:00 PM , Sunday 12:00 PM - 5:00 PM ",,,
"Bealls, Carthage",,4395 NW Loop,,Carthage,TX,75633,United States,(903) 694-9345,32.160897,-94.37215,"Monday 10:00 AM - 9:00 PM , Tuesday 10:00 AM - 9:00 PM , Wednesday 10:00 AM - 9:00 PM , Thursday 10:00 AM - 9:00 PM , Friday 10:00 AM - 9:00 PM , Saturday 10:00 AM - 9:00 PM , Sunday 12:00 PM - 6:00 PM ",,,
"Bealls, Center",,677 Hurst,,Center,TX,75935,United States,(936) 590-4498,31.799427,-94.192831,"Monday 10:00 AM - 9:00 PM , Tuesday 10:00 AM - 9:00 PM , Wednesday 10:00 AM - 9:00 PM , Thursday 10:00 AM - 9:00 PM , Friday 10:00 AM - 9:00 PM , Saturday 10:00 AM - 9:00 PM , Sunday 12:00 PM - 6:00 PM ",,,
"Bealls, Burleson",,550 SW Wilshire Blvd,,Burleson,TX,76028,United States,(817) 447-2333,32.537495,-97.335253,"Monday 10:00 AM - 9:00 PM , Tuesday 10:00 AM - 9:00 PM , Wednesday 10:00 AM - 9:00 PM , Thursday 10:00 AM - 9:00 PM , Friday 10:00 AM - 9:00 PM , Saturday 10:00 AM - 9:00 PM , Sunday 12:00 PM - 6:00 PM ",,,
"Bealls, Canton",,301 Highway 243,,Canton,TX,75103,United States,(903) 567-0181,32.5434866,-95.8605278,"Monday 10:00 AM - 9:00 PM , Tuesday 10:00 AM - 9:00 PM , Wednesday 10:00 AM - 9:00 PM , Thursday 10:00 AM - 9:00 PM , Friday 10:00 AM - 9:00 PM , Saturday 10:00 AM - 9:00 PM , Sunday 12:00 PM - 6:00 PM ",,,
"Bealls, Corpus Christi",,"4101 US IH 69 Access Rd, #E",,Corpus Christi,TX,78410,United States,(361) 241-7441,27.858245,-97.632321,"Monday 10:00 AM - 9:00 PM , Tuesday 10:00 AM - 9:00 PM , Wednesday 10:00 AM - 9:00 PM , Thursday 10:00 AM - 9:00 PM , Friday 10:00 AM - 9:00 PM , Saturday 10:00 AM - 9:00 PM , Sunday 12:00 PM - 7:00 PM ",,,
"Bealls, Cameron",,1601 W 4th St,,Cameron,TX,76520,United States,(254) 697-8787,30.855349,-96.988746,"Monday 10:00 AM - 7:00 PM , Tuesday 10:00 AM - 7:00 PM , Wednesday 10:00 AM - 7:00 PM , Thursday 10:00 AM - 8:00 PM , Friday 10:00 AM - 8:00 PM , Saturday 10:00 AM - 8:00 PM , Sunday 12:00 PM - 5:00 PM ",,,
"Bealls, Burnet",,118 E Polk St,,Burnet,TX,78611,United States,(512) 756-2005,30.759149,-98.227184,"Monday 10:00 AM - 9:00 PM , Tuesday 10:00 AM - 9:00 PM , Wednesday 10:00 AM - 9:00 PM , Thursday 10:00 AM - 9:00 PM , Friday 10:00 AM - 9:00 PM , Saturday 10:00 AM - 9:00 PM , Sunday 12:00 PM - 6:00 PM ",,,
"Bealls, Corpus Christi",,4302 Ayers St,,Corpus Christi,TX,78415,United States,(361) 854-1971,27.748241,-97.418868,"Monday 10:00 AM - 9:00 PM , Tuesday 10:00 AM - 9:00 PM , Wednesday 10:00 AM - 9:00 PM , Thursday 10:00 AM - 9:00 PM , Friday 10:00 AM - 9:00 PM , Saturday 10:00 AM - 9:00 PM , Sunday 12:00 PM - 6:00 PM ",,,
"Bealls, Corpus Christi",,4104 S Staples St,,Corpus Christi,TX,78411,United States,(361) 853-9964,27.729499,-97.379807,"Monday 10:00 AM - 8:00 PM , Tuesday 10:00 AM - 8:00 PM , Wednesday 10:00 AM - 8:00 PM , Thursday 10:00 AM - 9:00 PM , Friday 10:00 AM - 9:00 PM , Saturday 10:00 AM - 9:00 PM , Sunday 12:00 PM - 6:00 PM ",,,
"Bealls, Burkburnett",,200 S Red River Expwy,,Burkburnett,TX,76354,United States,(940) 569-7700,34.090962,-98.559446,"Monday 10:00 AM - 7:00 PM , Tuesday 10:00 AM - 7:00 PM , Wednesday 10:00 AM - 7:00 PM , Thursday 10:00 AM - 7:00 PM , Friday 10:00 AM - 7:00 PM , Saturday 10:00 AM - 7:00 PM , Sunday 1:00 PM - 6:00 PM ",,,
"Bealls, Corpus Christi",,5488 S Padre Island Dr,,Corpus Christi,TX,78411,United States,(361) 991-7771,27.7102,-97.37189,"Monday 10:00 AM - 9:00 PM , Tuesday 10:00 AM - 9:00 PM , Wednesday 10:00 AM - 9:00 PM , Thursday 10:00 AM - 9:00 PM , Friday 10:00 AM - 9:00 PM , Saturday 10:00 AM - 9:00 PM , Sunday 11:00 AM - 7:00 PM ",,,
"Bealls - CLOSED, Corpus Christi",,3725 Leopard St,,Corpus Christi,TX,78408,United States,(361) 883-5551,27.795667,-97.433472,"Monday Closed , Tuesday Closed , Wednesday Closed , Thursday Closed , Friday Closed , Saturday Closed , Sunday Closed ",,,
"Bealls, Brownwood",,509 W Commerce Suite A,,Brownwood,TX,76801,United States,(325) 641-8192,31.729448,-98.98441,"Monday 10:00 AM - 9:00 PM , Tuesday 10:00 AM - 9:00 PM , Wednesday 10:00 AM - 9:00 PM , Thursday 10:00 AM - 9:00 PM , Friday 10:00 AM - 9:00 PM , Saturday 10:00 AM - 9:00 PM , Sunday 12:00 PM - 6:00 PM ",,,
"Bealls, Corpus Christi",,10241 S Padre Island Drive,,Corpus Christi,TX,78418,United States,(361) 937-3984,27.6674869,-97.2842644,"Monday 10:00 AM - 9:00 PM , Tuesday 10:00 AM - 9:00 PM , Wednesday 10:00 AM - 9:00 PM , Thursday 10:00 AM - 9:00 PM , Friday 10:00 AM - 9:00 PM , Saturday 10:00 AM - 9:00 PM , Sunday 12:00 PM - 6:00 PM ",,,
"Bealls, Bryan",,725 E Villa Maria Rd,,Bryan,TX,77802,United States,(979) 779-2924,30.645092,-96.349815,"Monday 10:00 AM - 9:00 PM , Tuesday 10:00 AM - 9:00 PM , Wednesday 10:00 AM - 9:00 PM , Thursday 10:00 AM - 9:00 PM , Friday 10:00 AM - 9:00 PM , Saturday 10:00 AM - 9:00 PM , Sunday 12:00 PM - 6:00 PM ",,,
"Bealls, Brady",,206 S Bridge St,,Brady,TX,76825,United States,(325) 597-5275,31.133473,-99.33551,"Monday 10:00 AM - 8:00 PM , Tuesday 10:00 AM - 8:00 PM , Wednesday 10:00 AM - 8:00 PM , Thursday 10:00 AM - 8:00 PM , Friday 10:00 AM - 8:00 PM , Saturday 10:00 AM - 8:00 PM , Sunday 12:00 PM - 6:00 PM ",,,
"Bealls, Brownfield",,1407 Tahoka Rd,,Brownfield,TX,79316,United States,(806) 637-3502,33.182117,-102.255373,"Monday 10:00 AM - 9:00 PM , Tuesday 10:00 AM - 9:00 PM , Wednesday 10:00 AM - 9:00 PM , Thursday 10:00 AM - 9:00 PM , Friday 10:00 AM - 9:00 PM , Saturday 10:00 AM - 9:00 PM , Sunday 12:00 PM - 6:00 PM ",,,
"Bealls, Boerne",,1351 S Main St,,Boerne,TX,78006,United States,(830) 249-0766,29.7794735,-98.7267052,"Monday 10:00 AM - 9:00 PM , Tuesday 10:00 AM - 9:00 PM , Wednesday 10:00 AM - 9:00 PM , Thursday 10:00 AM - 9:00 PM , Friday 10:00 AM - 9:00 PM , Saturday 10:00 AM - 9:00 PM , Sunday 12:00 PM - 6:00 PM ",,,
"Bealls, Borger",,1412 W Wilson St,,Borger,TX,79007,United States,(806) 273-3554,35.660304,-101.410698,"Monday 10:00 AM - 9:00 PM , Tuesday 10:00 AM - 9:00 PM , Wednesday 10:00 AM - 9:00 PM , Thursday 10:00 AM - 9:00 PM , Friday 10:00 AM - 9:00 PM , Saturday 10:00 AM - 9:00 PM , Sunday 12:00 PM - 6:00 PM ",,,
"Bealls, Big Spring",,1801 E Fm 700,,Big Spring,TX,79720,United States,(432) 263-0273,32.245059,-101.445085,"Monday 10:00 AM - 9:00 PM , Tuesday 10:00 AM - 9:00 PM , Wednesday 10:00 AM - 9:00 PM , Thursday 10:00 AM - 9:00 PM , Friday 10:00 AM - 9:00 PM , Saturday 10:00 AM - 9:00 PM , Sunday 12:00 PM - 6:00 PM ",,,
"Bealls, Bellville",,718 S Front St,,Bellville,TX,77418,United States,(979) 865-0306,29.93992,-96.252068,"Monday 10:00 AM - 8:00 PM , Tuesday 10:00 AM - 8:00 PM , Wednesday 10:00 AM - 8:00 PM , Thursday 10:00 AM - 8:00 PM , Friday 10:00 AM - 8:00 PM , Saturday 10:00 AM - 8:00 PM , Sunday 12:00 PM - 6:00 PM ",,,
"Bealls, Bellmead",,1000 N Loop 340,,Bellmead,TX,76705,United States,(254) 799-4343,31.60568,-97.104136,"Monday 10:00 AM - 8:00 PM , Tuesday 10:00 AM - 8:00 PM , Wednesday 10:00 AM - 8:00 PM , Thursday 10:00 AM - 8:00 PM , Friday 10:00 AM - 8:00 PM , Saturday 10:00 AM - 8:00 PM , Sunday 12:00 PM - 6:00 PM ",,,
"Bealls, Bastrop",,487 Highway 71,,Bastrop,TX,78602,United States,(512) 332-2281,30.1084324,-97.3330905,"Monday 10:00 AM - 9:00 PM , Tuesday 10:00 AM - 9:00 PM , Wednesday 10:00 AM - 9:00 PM , Thursday 10:00 AM - 9:00 PM , Friday 10:00 AM - 9:00 PM , Saturday 10:00 AM - 9:00 PM , Sunday 11:00 AM - 7:00 PM ",,,
"Bealls, Beeville",,2115 North Saint Marys Street,,Beeville,TX,78102,United States,(361) 354-5222,28.4206353,-97.75654200000001,"Monday 10:00 AM - 9:00 PM , Tuesday 10:00 AM - 9:00 PM , Wednesday 10:00 AM - 9:00 PM , Thursday 10:00 AM - 9:00 PM , Friday 10:00 AM - 9:00 PM , Saturday 10:00 AM - 9:00 PM , Sunday 12:00 PM - 7:00 PM ",,,
"Bealls, Brownsville",,2360 N Expressway,,Brownsville,TX,78521,United States,(956) 541-0223,25.953118,-97.502093,"Monday 10:00 AM - 9:30 PM , Tuesday 10:00 AM - 9:30 PM , Wednesday 10:00 AM - 9:30 PM , Thursday 10:00 AM - 9:30 PM , Friday 10:00 AM - 9:30 PM , Saturday 10:00 AM - 9:30 PM , Sunday 12:00 PM - 7:00 PM ",,,
"Bealls, Azle",,104 Northwest Pkwy,,Azle,TX,76020,United States,(817) 270-3671,32.89407,-97.539642,"Monday 10:00 AM - 9:00 PM , Tuesday 10:00 AM - 9:00 PM , Wednesday 10:00 AM - 9:00 PM , Thursday 10:00 AM - 9:00 PM , Friday 10:00 AM - 9:00 PM , Saturday 10:00 AM - 9:00 PM , Sunday 12:00 PM - 6:00 PM ",,,
"Bealls, Atlanta",,301 E Main St,,Atlanta,TX,75551,United States,(903) 799-5132,33.113823,-94.162417,"Monday 10:00 AM - 8:00 PM , Tuesday 10:00 AM - 8:00 PM , Wednesday 10:00 AM - 8:00 PM , Thursday 10:00 AM - 8:00 PM , Friday 10:00 AM - 8:00 PM , Saturday 10:00 AM - 8:00 PM , Sunday 1:00 PM - 6:00 PM ",,,
"Bealls, Brownsville",,2921 Boca Chica Blvd,,Brownsville,TX,78521,United States,(956) 542-0552,25.92307,-97.477243,"Monday 10:00 AM - 9:00 PM , Tuesday 10:00 AM - 9:00 PM , Wednesday 10:00 AM - 9:00 PM , Thursday 10:00 AM - 9:00 PM , Friday 10:00 AM - 9:00 PM , Saturday 10:00 AM - 9:00 PM , Sunday 12:00 PM - 6:00 PM ",,,
"Bealls, Aransas Pass",,1911 W Wheeler Ave,,Aransas Pass,TX,78336,United States,(361) 758-8200,27.916131,-97.164568,"Monday 10:00 AM - 9:00 PM , Tuesday 10:00 AM - 9:00 PM , Wednesday 10:00 AM - 9:00 PM , Thursday 10:00 AM - 9:00 PM , Friday 10:00 AM - 9:00 PM , Saturday 10:00 AM - 9:00 PM , Sunday 12:00 PM - 6:00 PM ",,,
"Bealls, Athens",,1111 E Tyler St,,Athens,TX,75751,United States,(903) 675-9166,32.207753,-95.834893,"Monday 10:00 AM - 9:00 PM , Tuesday 10:00 AM - 9:00 PM , Wednesday 10:00 AM - 9:00 PM , Thursday 10:00 AM - 9:00 PM , Friday 10:00 AM - 9:00 PM , Saturday 10:00 AM - 9:00 PM , Sunday 12:00 PM - 6:00 PM ",,,
"Bealls, Andrews",,610 N Main St,,Andrews,TX,79714,United States,(432) 523-3031,32.324681,-102.547606,"Monday 10:00 AM - 9:00 PM , Tuesday 10:00 AM - 9:00 PM , Wednesday 10:00 AM - 9:00 PM , Thursday 10:00 AM - 9:00 PM , Friday 10:00 AM - 9:00 PM , Saturday 10:00 AM - 9:00 PM , Sunday 12:00 PM - 6:00 PM ",,,
"Bealls, Alamo",,1449 Duranta St,,Alamo,TX,78516,United States,(956) 781-6392,26.189552,-98.132781,"Monday 10:00 AM - 9:00 PM , Tuesday 10:00 AM - 9:00 PM , Wednesday 10:00 AM - 9:00 PM , Thursday 10:00 AM - 9:00 PM , Friday 10:00 AM - 9:00 PM , Saturday 10:00 AM - 9:00 PM , Sunday 11:00 AM - 7:00 PM ",,,
"Bealls, Alice",,1720 E Main St,,Alice,TX,78332,United States,(361) 668-0774,27.757894,-98.052499,"Monday 10:00 AM - 9:00 PM , Tuesday 10:00 AM - 9:00 PM , Wednesday 10:00 AM - 9:00 PM , Thursday 10:00 AM - 9:00 PM , Friday 10:00 AM - 9:00 PM , Saturday 10:00 AM - 9:00 PM , Sunday 12:00 PM - 7:00 PM ",,,
"Bealls, Vernal",,1180 U.S. 40,,Vernal,UT,84078,United States,(435) 789-8162,40.4507744,-109.5521911,"Monday 10:00 AM - 8:00 PM , Tuesday 10:00 AM - 8:00 PM , Wednesday 10:00 AM - 8:00 PM , Thursday 10:00 AM - 8:00 PM , Friday 10:00 AM - 8:00 PM , Saturday 10:00 AM - 8:00 PM , Sunday 12:00 PM - 5:00 PM ",,,
"Bealls, Austin",,9500 South Interstate 35 Frontage Road,,Austin,TX,78748,United States,(512) 280-4063,30.1608249,-97.7902261,"Monday 10:00 AM - 9:00 PM , Tuesday 10:00 AM - 9:00 PM , Wednesday 10:00 AM - 9:00 PM , Thursday 10:00 AM - 9:00 PM , Friday 10:00 AM - 9:00 PM , Saturday 10:00 AM - 9:00 PM , Sunday 12:00 PM - 7:00 PM ",,,
"Bealls, Amarillo",,7701 Interstate 40,,Amarillo,TX,79121,United States,(806) 359-8551,35.185246,-101.9281247,"Monday 10:00 AM - 9:00 PM , Tuesday 10:00 AM - 9:00 PM , Wednesday 10:00 AM - 9:00 PM , Thursday 10:00 AM - 9:00 PM , Friday 10:00 AM - 9:00 PM , Saturday 10:00 AM - 9:00 PM , Sunday 12:00 PM - 6:00 PM ",,,
"Bealls, Amarillo",,4221 W 45th Ave,,Amarillo,TX,79109,United States,(806) 358-7525,35.16227,-101.885475,"Monday 10:00 AM - 9:00 PM , Tuesday 10:00 AM - 9:00 PM , Wednesday 10:00 AM - 9:00 PM , Thursday 10:00 AM - 9:00 PM , Friday 10:00 AM - 9:00 PM , Saturday 10:00 AM - 9:00 PM , Sunday 12:00 PM - 6:00 PM ",,,
"Bealls, Austin",,5811 Berkman Dr,,Austin,TX,78723,United States,(512) 927-2716,30.312374,-97.692785,"Monday 10:00 AM - 8:00 PM , Tuesday 10:00 AM - 8:00 PM , Wednesday 10:00 AM - 8:00 PM , Thursday 10:00 AM - 8:00 PM , Friday 10:00 AM - 8:00 PM , Saturday 10:00 AM - 8:00 PM , Sunday 12:00 PM - 6:00 PM ",,,
"Bealls, Amarillo",,3510 Interstate 40 Access Road,,Amarillo,TX,79103,United States,(806) 372-1385,35.19148420060856,-101.79721891880035,"Monday 10:00 AM - 9:00 PM , Tuesday 10:00 AM - 9:00 PM , Wednesday 10:00 AM - 9:00 PM , Thursday 10:00 AM - 9:00 PM , Friday 10:00 AM - 9:00 PM , Saturday 10:00 AM - 9:00 PM , Sunday 12:00 PM - 6:00 PM ",,,
"Bealls, Austin",,4477 S Lamar Blvd,,Austin,TX,78745,United States,(512) 892-2414,30.230861,-97.798161,"Monday 10:00 AM - 9:00 PM , Tuesday 10:00 AM - 9:00 PM , Wednesday 10:00 AM - 9:00 PM , Thursday 10:00 AM - 9:00 PM , Friday 10:00 AM - 9:00 PM , Saturday 10:00 AM - 9:00 PM , Sunday 12:00 PM - 6:00 PM ",,,
"Bealls - Closed, Price",,720 West Price River Drive,,Price,UT,84501,United States,(435) 637-1506,39.5986164,-110.823452,"Monday Closed , Tuesday Closed , Wednesday Closed , Thursday Closed , Friday Closed , Saturday Closed , Sunday Closed ",,,
"Bealls, Cedar City",,891 S Main St,,Cedar City,UT,84720,United States,(435) 867-1603,37.661399,-113.068034,"Monday 10:00 AM - 8:00 PM , Tuesday 10:00 AM - 8:00 PM , Wednesday 10:00 AM - 8:00 PM , Thursday 10:00 AM - 8:00 PM , Friday 10:00 AM - 8:00 PM , Saturday 10:00 AM - 8:00 PM , Sunday 12:00 PM - 5:00 PM ",,,
"Bealls, Abilene",,3725 Catclaw Dr,,Abilene,TX,79606,United States,(325) 691-1014,32.408237,-99.773929,"Monday 10:00 AM - 9:00 PM , Tuesday 10:00 AM - 9:00 PM , Wednesday 10:00 AM - 9:00 PM , Thursday 10:00 AM - 9:00 PM , Friday 10:00 AM - 9:00 PM , Saturday 10:00 AM - 9:00 PM , Sunday 12:00 PM - 6:00 PM ",,,
"Bealls, Abilene",,1220 Grape St,,Abilene,TX,79601,United States,(325) 673-4658,32.464677,-99.741714,"Monday 10:00 AM - 8:00 PM , Tuesday 10:00 AM - 8:00 PM , Wednesday 10:00 AM - 8:00 PM , Thursday 10:00 AM - 8:00 PM , Friday 10:00 AM - 8:00 PM , Saturday 10:00 AM - 8:00 PM , Sunday 12:00 PM - 5:00 PM ",,,
"Bealls, Winnemucca",,1500 W Winnemucca Blvd,,Winnemucca,NV,89445,United States,(775) 625-1563,40.963522,-117.745344,"Monday 10:00 AM - 8:00 PM , Tuesday 10:00 AM - 8:00 PM , Wednesday 10:00 AM - 8:00 PM , Thursday 10:00 AM - 8:00 PM , Friday 10:00 AM - 8:00 PM , Saturday 10:00 AM - 8:00 PM , Sunday 12:00 PM - 6:00 PM ",,,
"Bealls, Mountain Home",,295 North 2nd East Street,,Mountain Home,ID,83647,United States,(208) 587-9506,43.132815,-115.6945653,"Monday 10:00 AM - 7:00 PM , Tuesday 10:00 AM - 7:00 PM , Wednesday 10:00 AM - 7:00 PM , Thursday 10:00 AM - 8:00 PM , Friday 10:00 AM - 8:00 PM , Saturday 10:00 AM - 8:00 PM , Sunday 12:00 PM - 6:00 PM ",,,
"Bealls, Burley",,717 Overland Avenue,,Burley,ID,83318,United States,(208) 678-6890,42.5443001,-113.793259,"Monday 10:00 AM - 7:00 PM , Tuesday 10:00 AM - 7:00 PM , Wednesday 10:00 AM - 7:00 PM , Thursday 10:00 AM - 8:00 PM , Friday 10:00 AM - 8:00 PM , Saturday 10:00 AM - 8:00 PM , Sunday 12:00 PM - 6:00 PM ",,,
"Bealls, Blackfoot",,1350 Parkway Dr,,Blackfoot,ID,83221,United States,(208) 785-0124,43.194014,-112.36065,"Monday 10:00 AM - 7:00 PM , Tuesday 10:00 AM - 7:00 PM , Wednesday 10:00 AM - 7:00 PM , Thursday 10:00 AM - 8:00 PM , Friday 10:00 AM - 8:00 PM , Saturday 10:00 AM - 8:00 PM , Sunday 12:00 PM - 6:00 PM ",,,
"Bealls, Gardnerville",,1329 US Hwy 395 N,,Gardnerville,NV,89410,United States,(775) 783-7964,38.936589,-119.737457,"Monday 10:00 AM - 8:00 PM , Tuesday 10:00 AM - 8:00 PM , Wednesday 10:00 AM - 8:00 PM , Thursday 10:00 AM - 8:00 PM , Friday 10:00 AM - 8:00 PM , Saturday 10:00 AM - 8:00 PM , Sunday 12:00 PM - 6:00 PM ",,,
"Bealls - Closed, Carson City",,1345 S Carson St,,Carson City,NV,89701,United States,(775) 887-0182,39.15386790000001,-119.7669516,"Monday Closed , Tuesday Closed , Wednesday Closed , Thursday Closed , Friday Closed , Saturday Closed , Sunday Closed ",,,
"Bealls, Fallon",,920 West Williams Avenue,,Fallon,NV,89406,United States,(775) 423-9888,39.4773329,-118.788715,"Monday 10:00 AM - 8:00 PM , Tuesday 10:00 AM - 8:00 PM , Wednesday 10:00 AM - 8:00 PM , Thursday 10:00 AM - 8:00 PM , Friday 10:00 AM - 8:00 PM , Saturday 10:00 AM - 8:00 PM , Sunday 12:00 PM - 6:00 PM ",,,
"Bealls - Clearance Outlet, Montrose",,2201 S Townsend Ave Unit B,,Montrose,CO,81401,United States,(970) 252-1014,38.462158,-107.864425,"Monday 10:00 AM - 8:00 PM , Tuesday 10:00 AM - 8:00 PM , Wednesday 10:00 AM - 8:00 PM , Thursday 10:00 AM - 8:00 PM , Friday 10:00 AM - 8:00 PM , Saturday 10:00 AM - 8:00 PM , Sunday 12:00 PM - 5:00 PM ",,,
"Bealls, Sterling",,1115 West Main St Unit 300,,Sterling,CO,80751,United States,(970) 522-0286,40.623658,-103.229415,"Monday 10:00 AM - 7:00 PM , Tuesday 10:00 AM - 7:00 PM , Wednesday 10:00 AM - 7:00 PM , Thursday 10:00 AM - 7:00 PM , Friday 10:00 AM - 7:00 PM , Saturday 10:00 AM - 7:00 PM , Sunday 12:00 PM - 6:00 PM ",,,
"Bealls, Trinidad",,2024 Freedom Rd,,Trinidad,CO,81082,United States,(719) 845-4061,37.187922,-104.495838,"Monday 10:00 AM - 7:00 PM , Tuesday 10:00 AM - 7:00 PM , Wednesday 10:00 AM - 7:00 PM , Thursday 10:00 AM - 7:00 PM , Friday 10:00 AM - 7:00 PM , Saturday 10:00 AM - 7:00 PM , Sunday 1:00 PM - 6:00 PM ",,,
"Bealls, Cortez",,2216 E Main St,,Cortez,CO,81321,United States,(970) 565-4160,37.35113,-108.55814,"Monday 10:00 AM - 9:00 PM , Tuesday 10:00 AM - 9:00 PM , Wednesday 10:00 AM - 9:00 PM , Thursday 10:00 AM - 9:00 PM , Friday 10:00 AM - 9:00 PM , Saturday 10:00 AM - 9:00 PM , Sunday 12:00 PM - 6:00 PM ",,,
"Bealls, Alamosa",,"177 Craft Drive, Ste 103",,Alamosa,CO,81101,United States,(719) 589-6616,37.4779095,-105.8938007,"Monday 10:00 AM - 7:00 PM , Tuesday 10:00 AM - 7:00 PM , Wednesday 10:00 AM - 7:00 PM , Thursday 10:00 AM - 8:00 PM , Friday 10:00 AM - 8:00 PM , Saturday 10:00 AM - 8:00 PM , Sunday 12:00 PM - 6:00 PM ",,,
"Bealls, Canon City",,127 Justice Center Rd,,Canon City,CO,81212,United States,(719) 275-3096,38.445931,-105.183676,"Monday 10:00 AM - 7:00 PM , Tuesday 10:00 AM - 7:00 PM , Wednesday 10:00 AM - 7:00 PM , Thursday 10:00 AM - 8:00 PM , Friday 10:00 AM - 8:00 PM , Saturday 10:00 AM - 8:00 PM , Sunday 12:00 PM - 6:00 PM ",,,
