store_name,store_number,address,address2,city,state,zip_code,country,phone_number,latitude,longitude,store_hours,store_type,other_fields,coming_soon
,,7315 US HWY 431,,Albertville,Alabama ,35950,United States,(256) 878-1149,,,"Monday - Saturday: 10:00 AM - 7:00 PM, Sunday: 1:00 PM - 5:00 PM",,,
,,"2365 US HIGHWAY 43, B",,Winfield,Alabama ,35594,United States,(205) 395-5083,,,"Monday - Saturday: 10:00 AM - 7:00 PM, Sunday: 1:00 PM - 5:00 PM",,,
,,1126 HIGHWAY 280 BYP,,Phenix City,Alabama ,36867,United States,(334) 291-7879,,,"Monday - Saturday: 10:00 AM - 7:00 PM, Sunday: 1:00 PM - 5:00 PM",,,
,,119 N MEMORIAL DR,,Prattville,Alabama ,36067,United States,(334) 365-5258,,,"Monday - Saturday: 9:30 AM - 6:00 PM, Sunday: CLOSED",,,
,,3898 HWY 431,,Roanoke,Alabama ,36274,United States,(334) 863-5296,,,"Monday - Saturday: 9:00 AM - 6:00 PM, Sunday: CLOSED",,,
,,"24919 JOHN T REID PARKWAY, Suite B",,Scottsboro,Alabama ,35768,United States,(256) 218-3150,,,"Monday - Saturday: 10:00 AM - 7:00 PM, Sunday: 1:00 PM - 5:00 PM",,,
,,401 GILMER AVE,,Tallassee,Alabama ,36078,United States,(334) 283-5489,,,"Monday - Saturday: 9:30 AM - 6:00 PM, Sunday: 1:00 PM - 5:00 PM",,,
,,36700 US HWY 280,,Sylacauga,Alabama ,35150,United States,(256) 249-3609,,,"Monday - Saturday: 9:30 AM - 6:00 PM, Sunday: 1:00 PM - 5:00 PM",,,
,,1015 MARTIN STREET S.,,Pell City,Alabama ,35128-2360,United States,(205) 338-4200,,,"Monday - Saturday: 10:00 AM - 7:00 PM, Sunday: 1:00 PM - 5:00 PM",,,
,,1253 S. FOREST AVE,,Luverne,Alabama ,36049,United States,(334) 335-5481,,,"Monday - Saturday: 9:30 AM - 6:00 PM, Sunday: 1:00 PM - 5:00 PM",,,
,,804 PELHAM ROAD S,,Jacksonville,Alabama ,36265,United States,(256) 435-0914,,,"Monday - Saturday: 10:00 AM - 7:00 PM, Sunday: 1:00 PM - 5:00 PM",,,
,,12551 AL HIGHWAY 157,,Moulton,Alabama ,35650,United States,(256) 974-8705,,,"Monday - Saturday: 9:30 AM - 6:00 PM, Sunday: CLOSED",,,
,,"1344 S. US HIGHWAY 231, SUITE A",,Ozark,Alabama ,36360,United States,(334) 443-0250,,,"Monday - Saturday: 10:00 AM - 7:00 PM, Sunday: 1:00 PM - 5:00 PM",,,
,,"300 HIGHWAY 78 E, JASPER MALL",,Jasper,Alabama ,35501,United States,(205) 387-0839,,,"Monday - Saturday: 10:00 AM - 9:00 PM, Sunday: 1:00 PM - 5:00 PM",,,
,,1822 S ALABAMA AVE,,Monroeville,Alabama ,36460,United States,(251) 575-5522,,,"Monday - Thursday: 9:30 AM -6:00 PM, Friday - Saturday: 10:00 AM - 7:00 PM, Sunday: 1:00 PM - 5:00 PM",,,
,,1854 FALLS BLVD. N,,Wynne,Arkansas ,72396,United States,(870) 208-8003,,,"Monday - Saturday: 9:30 AM - 6:00 PM, Sunday: CLOSED",,,
,,"2110 S BUERKLE ST, STE C",,Stuttgart,Arkansas ,72160,United States,(870) 672-9821,,,"Monday - Saturday: 10:00 AM - 7:00 PM, Sunday: 1:00 PM - 5:00 PM",,,
,,127 Hwy 412 East,,Siloam Springs,Arkansas ,72761,United States,(479) 549-9977,,,"Monday - Saturday: 10:00 AM - 7:00 PM, Sunday: 1:00 PM - 5:00 PM",,,
,,"5320 W. SUNSET AVE, SUITE 172",,Springdale,Arkansas ,72762,United States,(479) 419-9624,,,"Monday - Saturday: 10:00 AM - 7:00 PM, Sunday: 1:00 PM - 5:00 PM",,,
,,"2308 FAYETTEVILLE ROAD, SUITE 300",,Van Buren,Arkansas ,72956,United States,(479) 262-2822,,,"Monday - Saturday: 10:00 AM - 7:00 PM, Sunday: 1:00 PM - 5:00 PM",,,
,,1114 W MAIN STREET,,Russellville,Arkansas ,72801,United States,(479) 219-5042,,,"Monday - Saturday: 10:00 AM - 6:00 PM, Sunday: 12:00 PM - 5:00 PM",,,
,,127 N POPLAR ST,,Searcy,Arkansas ,72142,United States,(501) 305-3622,,,"Monday - Saturday: 10:00 AM - 8:00 PM, Sunday: 1:00 PM - 5:00 PM",,,
,,"1723 W KINGS HWY, STE 1",,Paragould,Arkansas ,72450,United States,(870) 236-5774,,,"Monday - Saturday: 10:00 AM - 7:00 PM, Sunday: 1:00 PM - 5:00 PM",,,
,,906 N HERVEY ST,,Hope,Arkansas ,71801,United States,(870) 777-8603,,,"Monday - Saturday: 10:00 AM - 7:00 PM, Sunday: 1:00 PM - 5:00 PM",,,
,,1625 EAST MAIN ST,,Magnolia,Arkansas ,71753,United States,(870) 234-5050,,,"Monday - Saturday: 10:00 AM - 7:00 PM, Sunday: 1:00 PM - 6:00 PM",,,
,,601 US HWY 71 N.,,Mena,Arkansas ,71953,United States,(479) 394-8026,,,"Monday - Saturday: 10:00 AM - 7:00 PM, Sunday: 1:00 PM - 5:00 PM",,,
,,928 W KEISER AVE,,Osceola,Arkansas ,72370,United States,(870) 563-8104,,,"Monday - Saturday: 10:00 AM - 6:30 PM, Sunday: 1:00 PM - 5:00 PM",,,
,,104 SOUTH MAIN ST,,Nashville,Arkansas ,71852,United States,(870) 845-3006,,,"Monday - Saturday: 9:00 AM - 5:30 PM, Sunday: CLOSED",,,
,,341 HIGHWAY US-425,,Monticello,Arkansas ,71655,United States,(870) 367-3018,,,"Monday - Saturday: 10:00 AM - 7:00 PM, Sunday: 1:00 PM - 6:00 PM",,,
,,"1141 HIGHWAY 25B, SUITE B",,Heber Springs,Arkansas ,72543,United States,(501) 365-3973,,,"Monday - Saturday: 10:00 AM - 7:00 PM, Sunday: 1:00 PM - 5:00 PM",,,
,,1924 N WEST AVE,,EL Dorado,Arkansas ,71730,United States,(870) 881-8024,,,"Monday - Saturday: 10:00 AM - 7:00 PM, Sunday: 1:00 PM - 5:00 PM",,,
,,"1501 LAFAYETTE PKWY, STE A1",,Lagrange,Georgia ,30241,United States,(706) 884-2673,,,"Monday - Saturday: 10:00 AM - 9:00 PM, Sunday: 1:00 PM - 6:00 PM",,,
,,12054 S MAIN ST,,Trenton,Georgia ,30752,United States,(706) 657-5614,,,"Monday - Saturday: 10:00 AM - 7:00 PM, Sunday: 1:00 PM - 5:00 PM",,,
,,634 E FRANKLIN ST,,Sylvester,Georgia ,31791,United States,(229) 776-4226,,,"Monday - Saturday: 10:00 AM - 7:00 PM, Sunday: 1:00 PM - 5:00 PM",,,
,,2325 E 1ST ST,,Vidalia,Georgia ,30474,United States,(912) 537-0791,,,"Monday - Saturday: 10:00 AM - 7:00 PM, Sunday: 1:00 PM - 5:00 PM",,,
,,17 LEGION STREET,,Ringgold,Georgia ,30736,United States,(706) 937-3354,,,"Monday - Saturday: 10:00 AM - 7:00 PM, Sunday: CLOSED",,,
,,"2204 SHORTER AVENUE, 4",,Rome,Georgia ,30165,United States,(706) 237-7020,,,"Monday - Saturday: 10:00 AM - 7:00 PM, Sunday: 1:00 PM - 5:00 PM",,,
,,1516 W SPRINGFIELD RD,,Taylorville,Illinois ,62568,United States,(217) 824-4400,,,"Monday - Saturday: 10:00 AM - 7:00 PM, Sunday: 1:00 PM - 5:00 PM",,,
,,19 N REND LAKE PLAZA,,Benton,Illinois ,62812,United States,(618) 435-4903,,,"Monday - Saturday: 10:00 AM - 7:00 PM, Sunday: 1:00 PM - 5:00 PM",,,
,,"601 N COMMERCIAL STREET, SUITE 102A",,Harrisburg,Illinois ,62946,United States,(618) 294-8598,,,"Monday - Saturday: 10:00 AM - 7:00 PM, Sunday: 12:00 PM - 5:00 PM",,,
,,"3246 QUINCY MALL, 538",,Quincy,Illinois ,62301,United States,(217) 209-0014,,,"Monday - Saturday: 10:00 AM - 9:00 PM, Sunday: 12:00 PM - 5:00 PM",,,
,,1479 WOODLAWN RD,,Lincoln,Illinois ,62656,United States,(217) 605-0139,,,"Monday - Saturday: 10:00 AM - 7:00 PM, Sunday: 1:00 PM - 5:00 PM",,,
,,"3000 W DEYOUNG ST, SUITE 688",,Marion,Illinois ,62959-4893,United States,(618) 993-5632,,,"Monday - Saturday: 10:00 AM - 9:00 PM, Sunday: 12:00 PM - 5:30 PM",,,
,,529 N WEST ST,,Olney,Illinois ,62450,United States,(618) 392-0657,,,"Monday - Saturday: 10:00 AM - 7:00 PM, Sunday: 12:00 PM - 5:00 PM",,,
,,"273 PARKWAY PLAZA, UNIT 18",,Barbourville,Kentucky ,40906,United States,(606) 545-0551,,,"Monday - Saturday: 10:00 AM - 7:00 PM, Sunday: 1:00 PM - 5:00 PM",,,
,,2135 N SUMMIT STREET,,Arkansas City,Kansas ,67005,United States,(620) 741-0006,,,"Monday - Saturday: 10:00 AM - 7:00 PM, Sunday: 1:00 PM - 5:00 PM",,,
,,"4150 S HIGHWAY 27, STE 15",,Somerset,Kentucky ,42501,United States,(606) 676-9494,,,"Monday - Saturday: 10:00 AM - 9:00 PM, Sunday: 1:00 PM - 5:00 PM",,,
,,2220 W LAUREL AVE,,EUNICE,Louisiana ,70535,United States,(337) 457-7635,,,"Monday - Saturday: 10:00 AM - 7:00 PM, Sunday: 1:00 PM - 5:00 PM",,,
,,193 U.S. 127,,Russell Springs,Kentucky ,42642,United States,(270) 866-5554,,,"Monday - Saturday: 10:00 AM - 7:00 PM, Sunday: 1:00 PM - 5:00 PM",,,
,,104A Southside Mall Rd,,South Williamson,Kentucky ,41503,United States,(606) 237-1132,,,"Monday - Thursday: 10:00 AM - 7:00 PM, Friday - Saturday: 10:00 AM - 9:00 PM, Sunday: 1:00 PM - 5:00 PM",,,
,,"125 WAL-MART WAY, SUITE 7",,Williamsburg,Kentucky ,40769,United States,(606) 549-1622,,,"Monday - Saturday: 10:00 AM - 7:00 PM, Sunday: 1:00 PM - 5:00 PM",,,
,,"550 US HIGHWAY 62 W, SUITE 200",,Princeton,Kentucky ,42445,United States,(270) 365-2337,,,"Monday - Saturday: 10:00 AM - 7:00 PM, Sunday: 1:00 PM - 5:00 PM",,,
,,768 E FIFTEENTH ST,,YAZOO CITY,Mississippi ,39194,United States,(662) 746-8402,,,"Monday - Saturday: 9:30 AM - 6:00 PM, Sunday: 1:00 PM - 5:00 PM",,,
,,906 MISSISSIPPI DR,,WAYNESBORO,Mississippi ,39367,United States,(601) 735-2430,,,"Monday - Saturday: 10:00 AM - 7:00 PM, Sunday: 1:00 PM - 5:00 PM",,,
,,130 NORFLEET DR,,SENATOBIA,Mississippi ,38668,United States,(662) 562-8896,,,"Monday - Saturday: 9:30 AM - 6:00 PM, Sunday: 1:00 PM - 5:00 PM",,,
,,"319 S. GLOSTER ST, STE B",,TUPELO,Mississippi ,38801,United States,(662) 840-1159,,,"Monday - Saturday: 10:00 AM - 7:00 PM, Sunday: 1:00 PM - 5:00 PM",,,
,,790 HIGHWAY 51 N.,,RIPLEY,Mississippi ,38663,United States,(662) 837-1051,,,"Monday - Saturday: 9:30 AM - 6:00 PM, Sunday: CLOSED",,,
,,322 HIGHWAY 90,,Waveland,Mississippi ,39576,United States,(228) 466-2950,,,"Monday - Saturday: 10:00 AM - 7:00 PM, Sunday: 1:00 PM - 5:00 PM",,,
,,1223 SOUTH MAIN STREET,,POPLARVILLE,Mississippi ,39470,United States,(601) 795-9319,,,"Monday - Saturday: 9:30 AM - 6:00 PM, Sunday: 1:00 PM - 5:00 PM",,,
,,239 WEST OXFORD ST,,PONTOTOC,Mississippi ,38863,United States,(662) 489-1797,,,"Monday - Saturday: 9:30 AM - 6:00 PM, Sunday: 1:00 PM - 5:00 PM",,,
,,732 MEMORIAL BLVD,,Picayune,Mississippi ,39466,United States,(601) 799-0653,,,"Monday - Saturday: 10:00 AM - 7:00 PM, Sunday: 1:00 PM - 5:00 PM",,,
,,"1229 HIGHWAY 42, STE 210",,PETAL,Mississippi ,39465,United States,(601) 544-5162,,,"Monday - Saturday: 10:00 AM - 6:30 PM, Sunday: 1:00 PM - 5:00 PM",,,
,,80 CANAL PLACE,,PHILADELPHIA,Mississippi ,39350,United States,(601) 656-1288,,,"Monday - Saturday: 10:00 AM - 7:00 PM, Sunday: 1:00 PM - 5:00 PM",,,
,,3165 HIGHWAY 80  E.,,PEARL,Mississippi ,39208,United States,(601) 939-7823,,,"Monday - Saturday: 10:00 AM - 7:00 PM, Sunday: 1:00 PM - 5:00 PM",,,
,,802 S ELLIOTT AVE,,AURORA,Missouri ,65605,United States,(417) 678-0905,,,"Monday - Saturday: 10:00 AM - 7:00 PM, Sunday: 1:00 PM - 5:00 PM",,,
,,1411 MITCHELL RD,,West Plains,Missouri ,65775,United States,(417) 255-1058,,,"Monday - Saturday: 10:00 AM - 7:00 PM, Sunday: 1:00 PM - 5:00 PM",,,
,,"320 E YOUNG AVE, STE F",,WARRENSBURG,Missouri ,64093,United States,(660) 429-0507,,,"Monday - Saturday: 10:00 AM - 7:00 PM, Sunday: 1:00 PM - 5:00 PM",,,
,,"5 THE PLZ, STE B",,TROY,Missouri ,63379,United States,(636) 528-5370,,,"Monday - Saturday: 10:00 AM - 7:00 PM, Sunday: 1:00 PM - 5:00 PM",,,
,,"312 PARK RIDGE RD, SUITE A",,Sullivan,Missouri ,63080,United States,(573) 468-3810,,,"Monday - Saturday: 10:00 AM - 7:00 PM, Sunday: 1:00 PM - 5:00 PM",,,
,,"332 MARSHALL DR, STE D",,SAINT ROBERT,Missouri ,65584,United States,(573) 336-0138,,,"Monday - Saturday: 10:00 AM - 7:00 PM, Sunday: 12:00 PM - 5:00 PM",,,
,,1280 FORUM DR,,ROLLA,Missouri ,65401,United States,(573) 341-0132,,,"Monday - Saturday: 10:00 AM - 7:00 PM, Sunday: 12:00 PM - 5:00 PM",,,
,,943 E MALONE AVE,,SIKESTON,Missouri ,63801,United States,(573) 472-2896,,,"Monday - Saturday: 9:30 AM - 6:30 PM, Sunday: 1:00 PM - 5:00 PM",,,
,,2915 W BROADWAY BLVD,,SEDALIA,Missouri ,65301,United States,(660) 829-0602,,,"Monday - Saturday: 10:00 AM - 7:00 PM, Sunday: 1:00 PM - 5:00 PM",,,
,,1375 N WESTWOOD BLVD,,POPLAR BLUFF,Missouri ,63901,United States,(573) 778-1120,,,"Monday - Saturday: 10:00 AM - 7:00 PM, Sunday: 1:00 PM - 5:00 PM",,,
,,102 PERRY PLAZA,,PERRYVILLE,Missouri ,63775,United States,(573) 517-0910,,,"Monday - Saturday: 9:30 AM - 6:30 PM, Sunday: 1:00 PM - 5:00 PM",,,
,,961 W COLLEGE ST,,MARSHALL,Missouri ,65340,United States,(660) 886-9330,,,"Monday - Saturday: 10:00 AM - 7:00 PM, Sunday: 12:00 PM - 5:00 PM",,,
,,"1600 N MORLEY ST, STE A110",,MOBERLY,Missouri ,65270,United States,(660) 269-9415,,,"Monday - Saturday: 10:00 AM - 7:00 PM, Sunday: 12:00 PM - 5:00 PM",,,
,,"1090 S NEOSHO BLVD, STE F",,NEOSHO,Missouri ,64850,United States,(714) 451-2301,,,"Monday - Saturday: 10:00 AM - 7:00 PM, Sunday: 1:00 PM - 5:00 PM",,,
,,"14626 STATE HIGHWAY 38, 104",,Marshfield,Missouri ,65706,United States,(417) 468-1405,,,"Monday - Saturday: 10:00 AM - 7:00 PM, Sunday: 1:00 PM - 5:00 PM",,,
,,2935 S CLARK ST,,MEXICO,Missouri ,65265,United States,(573) 581-1711,,,"Monday - Saturday: 10:00 AM - 7:00 PM, Sunday: 1:00 PM - 5:00 PM",,,
,,2402 N BALTIMORE STREET,,Kirksville,Missouri ,63501,United States,(660) 956-0617,,,"Monday - Saturday: 10:00 AM - 7:00 PM, Sunday: 12:00 PM - 5:00 PM",,,
,,138 EVERGREEN PARKWAY,,LEBANON,Missouri ,65536,United States,(417) 532-2454,,,"Monday - Saturday: 10:00 AM - 7:00 PM, Sunday: 12:00 PM - 5:00 PM",,,
,,"1120 N DOUGLAS STREET, B",,Malden,Missouri ,63863,United States,(573) 281-2800,,,"Monday - Saturday: 10:00 AM - 7:00 PM, Sunday: 1:00 PM - 5:00 PM",,,
,,1346 ROMBACH AVENUE,,Wilmington,Ohio ,45177,United States,(937) 382-3382,,,"Monday - Saturday: 10:00 AM - 7:00 PM, Sunday: 1:00 PM - 5:00 PM",,,
,,27 OHIO RIVER PLAZA,,Gallipolis,Ohio ,45631,United States,(740) 578-6746,,,"Monday - Thursday: 10:00 AM - 7:00 PM, Friday - Saturday: 10:00 AM - 9:00 PM, Sunday: 1:00 PM - 5:00 PM",,,
,,1135 N HILLS SHOPPING CTR,,Ada,Oklahoma ,74820,United States,(580) 421-7734,,,"Monday - Saturday: 10:00 AM - 8:00 PM, Sunday: 1:00 PM - 5:00 PM",,,
,,9001 OHIO RIVER RD,,WHEELERSBURG,Ohio ,45694,United States,(740) 574-1955,,,"Monday - Saturday: 10:00 AM - 7:00 PM, Sunday: 1:00 PM - 5:00 PM",,,
,,"1472 N HIGH STREET, 700",,Hillsboro,Ohio ,45133,United States,(937) 402-4785,,,"Monday - Saturday: 10:00 AM - 7:00 PM, Sunday: 1:00 PM - 5:00 PM",,,
,,2927 8TH STREET,,Woodward,Oklahoma ,73801,United States,(580) 254-0197,,,"Monday - Saturday: 10:00 AM - 7:00 PM, Sunday: 1:00 PM - 6:00 PM",,,
,,"1741 S MUSKOGEE AVE, STE 3",,TAHLEQUAH,Oklahoma ,74464,United States,(918) 207-0479,,,"Monday - Saturday: 10:00 AM - 7:00 PM, Sunday: 1:00 PM - 5:00 PM",,,
,,106 W MAIN STREET,,WEATHERFORD,Oklahoma ,73096,United States,(580) 774-2491,,,"Monday - Saturday: 10:00 AM - 8:00 PM, Sunday: 1:00 PM - 5:00 PM",,,
,,"32 W TAFT AVE, STE 1",,SAPULPA,Oklahoma ,74066,United States,(918) 224-3142,,,"Monday - Saturday: 10:00 AM - 7:00 PM, Sunday: 1:00 PM - 5:00 PM",,,
,,1612 N GREEN AVE,,PURCELL,Oklahoma ,73080,United States,(405) 527-4081,,,"Monday - Saturday: 10:00 AM - 7:00 PM, Sunday: 1:00 PM - 5:00 PM",,,
,,814 W. ROGERS BLVD,,Skiatook,Oklahoma ,74070,United States,(918) 396-2007,,,"Monday - Saturday: 10:00 AM - 7:00 PM, Sunday: 1:00 PM - 5:00 PM",,,
,,"1900 E CHEROKEE AVE, SUITE P",,SALLISAW,Oklahoma ,74955,United States,(918) 235-0231,,,"Monday - Saturday: 10:00 AM - 7:00 PM, Sunday: 1:00 PM - 5:00 PM",,,
,,1723 N MILT PHILLIPS AVE,,Seminole,Oklahoma ,74868,United States,(405) 382-9919,,,"Monday - Saturday: 10:00 AM - 7:00 PM, Sunday: 1:00 PM - 5:00 PM",,,
,,"2010 S WOOD DR, STE C",,OKMULGEE,Oklahoma ,74447,United States,(918) 756-2298,,,"Monday - Saturday: 10:00 AM - 7:00 PM, Sunday: 1:00 PM - 5:00 PM",,,
,,1936 N  BROADWAY ST,,POTEAU,Oklahoma ,74953,United States,(918) 647-4805,,,"Monday - Saturday: 10:00 AM - 7:00 PM, Sunday: 1:00 PM - 5:00 PM",,,
,,"2101 NORTH 14TH STREET, Suite 117",,Ponca City,Oklahoma ,74601,United States,(580) 762-2003,,,"Monday - Saturday: 9:30 AM - 8:00 PM, Sunday: 1:00 PM - 5:00 PM",,,
,,1639 DECATUR PIKE,,ATHENS,Tennessee ,37303,United States,(423) 746-4383,,,"Monday - Saturday: 9:30 AM - 6:00 PM, Sunday: 1:00 PM - 5:00 PM",,,
,,1712 E CARL ALBERT PKWY,,MCALESTER,Oklahoma ,74501,United States,(918) 426-4688,,,"Monday - Saturday: 9:30 AM - 7:00 PM, Sunday: 1:00 PM - 5:00 PM",,,
,,27 N MAIN ST,,MIAMI,Oklahoma ,74354,United States,(918) 542-4575,,,"Monday - Saturday: 9:30 AM - 6:00 PM, Sunday: CLOSED",,,
,,2246 E SHAWNEE RD,,MUSKOGEE,Oklahoma ,74403,United States,(918) 682-4144,,,"Monday - Saturday: 9:30 AM - 7:00 PM, Sunday: 1:00 PM - 5:00 PM",,,
,,345 N TRADE CENTER TER,,MUSTANG,Oklahoma ,73064,United States,(405) 376-9316,,,"Monday - Saturday: 10:00 AM - 7:00 PM, Sunday: 1:00 PM - 6:00 PM",,,
,,"615 PALO PINTO ST., STE 100",,WEATHERFORD,Texas ,76086,United States,(817) 599-3046,,,"Monday - Saturday: 10:00 AM - 7:00 PM, Sunday: 1:00 PM - 5:00 PM",,,
,,4107 HILLCREST PLZ,,VERNON,Texas ,76384,United States,(940) 552-2558,,,"Monday - Saturday: 10:00 AM - 7:00 PM, Sunday: 1:00 PM - 5:00 PM",,,
,,308 BECKLEY PLAZA,,BECKLEY,West Virginia ,25801,United States,(304) 250-0989,,,"Monday - Saturday: 10:00 AM - 7:00 PM, Sunday: 1:00 PM - 5:00 PM",,,
,,2004 CROCKETT RD,,PALESTINE,Texas ,75801,United States,(903) 723-1494,,,"Monday - Saturday: 10:00 AM - 7:00 PM, Sunday: 1:00 PM - 5:00 PM",,,
,,"421 INDUSTRIAL DR E, STE 205",,SULPHUR SPRINGS,Texas ,75482,United States,(903) 439-6362,,,"Monday - Saturday: 10:00 AM - 7:00 PM, Sunday: 1:00 PM - 5:00 PM",,,
,,103 JEFFERSON ST.,,PITTSBURG,Texas ,75686,United States,(903) 856-1102,,,"Monday - Saturday: 9:30 AM - 6:00 PM, Sunday: CLOSED",,,
,,212 STATE HIGHWAY 35 S,,Port Lavaca,Texas ,77979,United States,(361) 482-0092,,,"Monday - Saturday: 10:00 AM - 8:00 PM, Sunday: 1:00 PM - 5:00 PM",,,
,,1187 RIVERVIEW ST,,GRUNDY,Virginia ,24614,United States,(276) 244-1145,,,"Monday - Saturday: 10:00 AM - 9:00 PM, Sunday: 1:00 PM - 5:00 PM",,,
,,"3582 LAMAR AVE, STE 21",,PARIS,Texas ,75460,United States,(903) 785-1188,,,"Monday - Saturday: 10:00 AM - 7:00 PM, Sunday: 1:00 PM - 5:00 PM",,,
,,"2900 W. WASHINGTON STREET, Suite 42",,Stephenville,Texas ,76401,United States,(254) 965-0719,,,"Monday - Saturday: 10:00 AM - 7:00 PM, Sunday: 1:00 PM - 5:00 PM",,,
,,200 RED OAKS SHOPPING CENTER,,RONCEVERTE,West Virginia ,24970,United States,(304) 645-2621,,,"Monday - Saturday: 10:00 AM - 7:00 PM, Sunday: 1:00 PM - 5:00 PM",,,
,,"973 DUNBAR VILLAGE PLAZA, UNITC20",,DUNBAR,West Virginia ,25064,United States,(304) 766-1551,,,"Monday - Saturday: 10:00 AM - 7:00 PM, Sunday: 1:00 PM - 5:00 PM",,,
,,1285 STAFFORD DRIVE,,Princeton,West Virginia ,24740,United States,(304) 913-4965,,,"Monday - Saturday: 10:00 AM - 7:00 PM, Sunday: 1:00 PM - 5:00 PM",,,
,,"1300 E PINECREST DR, STE 400",,MARSHALL,Texas ,75670,United States,(903) 938-8011,,,"Monday - Saturday: 10:00 AM - 7:00 PM, Sunday: 1:00 PM - 5:00 PM",,,
,,109 LIBERTY SQ,,Hurricane,West Virginia ,25526,United States,(304) 757-4227,,,"Monday - Saturday: 10:00 AM - 7:00 PM, Sunday: 1:00 PM - 5:00 PM",,,
,,"1710 S. COLORADO STREET, SUITE 112",,Lockhart,Texas ,78644,United States,(512) 359-4013,,,"Monday - Saturday: 10:00 AM - 7:00 PM, Sunday: 1:00 PM - 5:00 PM",,,
,,"200 SIDNEY BAKER STREET SOUTH, SUITE 31",,KERRVILLE,Texas ,78028,United States,(830) 315-7105,,,"Monday - Saturday: 10:00 AM - 8:30 PM, Sunday: 12:00 PM - 6:00 PM",,,
,,2007 B S. WASHINGTON ST,,KAUFMAN,Texas ,75142,United States,(469) 376-1001,,,"Monday - Saturday: 10:00 AM - 7:00 PM, Sunday: 1:00 PM - 5:00 PM",,,
,,127 W. BROAD ST.,,MINEOLA,Texas ,75773,United States,(903) 569-6905,,,"Monday - Saturday: 9:30 AM - 6:00 PM, Sunday: CLOSED",,,
,,1129 S WHEELER ST,,JASPER,Texas ,75951,United States,(409) 489-9631,,,"Monday - Saturday: 10:00 AM - 7:00 PM, Sunday: 1:00 PM - 5:00 PM",,,
,,"1009 S. JACKSON ST., STE 310",,JACKSONVILLE,Texas ,75766,United States,(903) 589-3801,,,"Monday - Saturday: 10:00 AM - 7:00 PM, Sunday: 1:00 PM - 5:00 PM",,,
,,"2 FINANCIAL PLAZA, STE 110",,Huntsville,Texas ,77340,United States,(936) 294-0241,,,"Monday - Thursday: 10:00 AM - 7:00 PM, Friday - Saturday: 10:00 AM - 8:00 PM, Sunday: 12:00 PM - 6:00 PM",,,
,,2209 US HIGHWAY 79 S.,,HENDERSON,Texas ,75654,United States,(903) 657-3153,,,"Monday - Saturday: 10:00 AM - 7:00 PM, Sunday: 1:00 PM - 5:00 PM",,,
,,1112 Texas 16 S,,GRAHAM,Texas ,76450,United States,(940) 521-0313,,,"Monday - Saturday: 10:00 AM - 7:00 PM, Sunday: 1:00 PM - 5:00 PM",,,
,,5019 WESLEY ST,,GREENVILLE,Texas ,75402,United States,(903) 455-0849,,,"Monday - Saturday: 10:00 AM - 7:00 PM, Sunday: 1:00 PM - 5:00 PM",,,
,,1112 WEST MAIN ST. SUITE A,,GUN BARREL CITY,Texas ,75156,United States,(903) 880-5004,,,"Monday - Saturday: 10:00 AM - 7:00 PM, Sunday: 1:00 PM - 5:00 PM",,,
,,1612 E. SARAH DEWITT DR,,Gonzales,Texas ,78629,United States,(830) 519-4299,,,"Monday - Saturday: 10:00 AM - 7:00 PM, Sunday: 1:00 PM - 5:00 PM",,,
,,1303 W. ENNIS AVE,,ENNIS,Texas ,75119,United States,(972) 875-9030,,,"Monday - Saturday: 10:00 AM - 7:00 PM, Sunday: 1:00 PM - 5:00 PM",,,
,,1023 E. LOOP 304,,Crockett,Texas ,75835,United States,(936) 852-2094,,,"Monday - Saturday: 10:00 AM - 7:00 PM, Sunday: 1:00 PM - 5:00 PM",,,
,,"300 EARLY BLVD, STE 34",,EARLY,Texas ,76802,United States,(325) 646-4218,,,"Monday - Saturday: 10:00 AM - 9:00 PM, Sunday: 1:00 PM - 6:00 PM",,,
,,"3500 W. 7TH AVE, STE 5",,Corsicana,Texas ,75110,United States,(903) 874-0467,,,"Monday - Saturday: 10:00 AM - 7:00 PM, Sunday: 1:00 PM - 5:00 PM",,,
,,"1607 W HENDERSON ST, STE E",,CLEBURNE,Texas ,76033,United States,(817) 202-8388,,,"Monday - Saturday: 10:00 AM - 7:00 PM, Sunday: 1:00 PM - 5:00 PM",,,
,,448 W. PANOLA STREET,,Carthage,Texas ,75633-2520,United States,(903) 693-7005,,,"Monday - Saturday: 10:00 AM - 7:00 PM, Sunday: 1:00 PM - 5:00 PM",,,
,,123 AUSTIN ST,,CENTER,Texas ,75935,United States,(936) 598-6072,,,"Monday - Saturday: 9:30 AM - 6:00 PM, Sunday: CLOSED",,,
,,"301 EAST HWY 243, Suite 131",,CANTON,Texas ,75103-2418,United States,(903) 567-5084,,,"Monday - Saturday: 10:00 AM - 7:00 PM, Sunday: 1:00 PM - 5:00 PM",,,
,,2636 HIGHWAY 36 S,,Brenham,Texas ,77833-9600,United States,(979) 251-9950,,,"Monday - Saturday: 10:00 AM - 7:00 PM, Sunday: 1:00 PM - 5:00 PM",,,
,,3732 W. WALKER STREET,,Breckenridge,Texas ,76424,United States,(254) 559-2427,,,"Monday - Saturday: 10:00 AM - 8:00 PM, Sunday: 1:00 PM - 5:00 PM",,,
,,312 E. MAIN ST,,ATLANTA,Texas ,75551,United States,(903) 796-8859,,,"Monday - Saturday: 9:00 AM - 6:00 PM, Sunday: 1:00 PM - 5:00 PM",,,
,,"607 E. TYLER STREET, STE 101",,ATHENS,Texas ,75751,United States,(903) 675-1752,,,"Monday - Saturday: 10:00 AM - 7:00 PM, Sunday: 1:00 PM - 5:00 PM",,,
,,"4762 S. 14TH STREET, A",,Abilene,Texas ,79605,United States,(325) 704-5117,,,"Monday - Saturday: 10:00 AM - 8:00 PM, Sunday: 1:00 PM - 5:00 PM",,,
,,113 WAVERLY PLAZA,,WAVERLY,Tennessee ,37185,United States,(931) 296-9879,,,"Monday - Saturday: 9:30 AM - 6:00 PM, Sunday: 1:00 PM - 5:00 PM",,,
,,"1905 N JACKSON ST, STE 410",,TULLAHOMA,Tennessee ,37388,United States,(931) 455-4680,,,"Monday - Saturday: 10:00 AM - 7:00 PM, Sunday: 1:00 PM - 5:00 PM",,,
,,127 DAVY CROCKETT MALL,,TRENTON,Tennessee ,38382,United States,(731) 85-4826,,,"Monday - Saturday: 9:30 AM - 6:00 PM, Sunday: 1:00 PM - 5:00 PM",,,
,,"789 NEW HIGHWAY 68, STE 7",,SWEETWATER,Tennessee ,37874,United States,(423) 337-2520,,,"Monday - Saturday: 10:00 AM - 7:00 PM, Sunday: 1:00 PM - 5:00 PM",,,
,,219 MOSE DR,,SPARTA,Tennessee ,38583,United States,(931) 739-6222,,,"Monday - Saturday: 9:30 AM - 6:00 PM, Sunday: CLOSED",,,
,,"108 LANE PARKWAY, Suite E",,Shelbyville,Tennessee ,37160,United States,(931) 685-4598,,,"Monday - Saturday: 10:00 AM - 7:00 PM, Sunday: 1:00 PM - 5:00 PM",,,
,,200 MAIN ST,,SAVANNAH,Tennessee ,38372,United States,(731) 926-1523,,,"Monday - Saturday: 10:00 AM - 7:00 PM, Sunday: 1:00 PM - 5:00 PM",,,
,,138 WESTERN PLAZA WAY,,Newport,Tennessee ,37821,United States,(423) 613-9095,,,"Monday - Saturday: 10:00 AM - 7:00 PM, Sunday: 1:00 PM - 5:00 PM",,,
,,131 COMMONS DRIVE,,MARTIN,Tennessee ,38237,United States,(731) 588-2916,,,"Monday - Saturday: 10:00 AM - 7:00 PM, Sunday: 1:00 PM - 5:00 PM",,,
,,15687 HIGHLAND DR,,MCKENZIE,Tennessee ,38201,United States,(731) 352-2718,,,"Monday - Saturday: 9:30 AM - 6:30 PM, Sunday: 1:00 PM - 5:00 PM",,,
,,"231 NORTHGATE DRIVE, Suite 266",,McMinnville,Tennessee ,37110,United States,(931) 473-1936,,,"Monday - Saturday: 10:00 AM - 7:00 PM, Sunday: 1:00 PM - 5:00 PM",,,
,,1238 HILLSBORO BLVD,,MANCHESTER,Tennessee ,37355,United States,(931) 723-8881,,,"Monday - Saturday: 10:00 AM - 7:00 PM, Sunday: 1:00 PM - 5:00 PM",,,
,,880 N ELLINGTON PARKWAY,,Lewisburg,Tennessee ,37091,United States,(931) 359-5043,,,"Monday - Saturday: 10:00 AM - 7:00 PM, Sunday: 1:00 PM - 5:00 PM",,,
,,663 W CHURCH ST,,LEXINGTON,Tennessee ,38351,United States,(731) 968-3380,,,"Monday - Saturday: 9:30 AM - 6:00 PM, Sunday: 1:00 PM - 5:00 PM",,,
,,900 OVERTON PLAZA,,LIVINGSTON,Tennessee ,38570,United States,(931) 823-1080,,,"Monday - Saturday: 10:00 AM - 7:00 PM, Sunday: 1:00 PM - 5:00 PM",,,
,,507 ELLINGTON DR,,LAFAYETTE,Tennessee ,37083,United States,(615) 666-6182,,,"Monday - Saturday: 9:00 AM - 6:00 PM, Sunday: 1:00 PM - 5:00 PM",,,
,,"4409 CHAPMAN HWY, Suite M",,Knoxville,Tennessee ,37920,United States,(865) 579-1136,,,"Monday - Saturday: 10:00 AM - 7:00 PM, Sunday: 1:00 PM - 5:00 PM",,,
,,1708 N LOCUST AVE,,LAWRENCEBURG,Tennessee ,38464,United States,(931) 762-2541,,,"Monday - Saturday: 10:00 AM - 7:00 PM, Sunday: 1:00 PM - 5:00 PM",,,
,,"2544 CHRISTMASVILLE CV, UNIT B",,Jackson,Tennessee ,38305,United States,(731) 300-0371,,,"Monday - Saturday: 10:00 AM - 7:00 PM, Sunday: 1:00 PM - 5:00 PM",,,
,,533 E MAIN STREET,,Hohenwald,Tennessee ,38462,United States,(931) 796-1328,,,"Monday - Saturday: 10:00 AM - 7:00 PM, Sunday: 1:00 PM - 5:00 PM",,,
,,1511 E ANDREW JOHNSON HWY,,Greeneville,Tennessee ,37745,United States,(423) 525-4816,,,"Monday - Thursday: 10:00 AM - 7:00 PM, Friday - Saturday: 10:00 AM - 9:00 PM, Sunday: 1:00 PM - 5:00 PM",,,
,,"2354 HIGHWAY 41 SOUTH, Suite R",,Greenbrier,Tennessee ,37073,United States,(615) 643-5885,,,"Monday - Saturday: 10:00 AM - 7:00 PM, Sunday: 1:00 PM - 5:00 PM",,,
,,7334 STATE ROUTE 28,,Dunlap,Tennessee ,37327,United States,(423) 949-5199,,,"Monday - Saturday: 10:00 AM - 7:00 PM, Sunday: 1:00 PM - 5:00 PM",,,
,,2138 DECHERD BLVD,,DECHERD,Tennessee ,37324,United States,(931) 962-9600,,,"Monday - Saturday: 10:00 AM - 7:00 PM, Sunday: 1:00 PM - 5:00 PM",,,
,,723 W. ELK AVENUE,,Elizabethton,Tennessee ,37643,United States,(423) 518-1015,,,"Monday - Saturday: 10:00 AM - 7:00 PM, Sunday: 1:00 PM - 5:00 PM",,,
,,1949 SAINT JOHN AVENUE,,DYERSBURG,Tennessee ,38024,United States,(731) 286-9009,,,"Monday - Saturday: 10:00 AM - 6:30 PM, Sunday: 1:00 PM - 5:00 PM",,,
,,1402 HUNTSVILLE HWY,,Fayetteville,Tennessee ,37334,United States,(931) 438-2655,,,"Monday - Saturday: 10:00 AM - 7:00 PM, Sunday: 1:00 PM - 5:00 PM",,,
,,"141 Highway 641 N., Suite C",,CAMDEN,Tennessee ,38320,United States,(731) 584-7810,,,"Monday - Saturday: 10:00 AM - 7:00 PM, Sunday: 1:00 PM - 5:00 PM",,,
,,"768 S JEFFERSON AVE, Suite L",,COOKEVILLE,Tennessee ,38501,United States,(931) 372-2070,,,"Monday - Saturday: 10:00 AM - 7:00 PM, Sunday: 1:00 PM - 5:00 PM",,,
,,"165 HIGHLAND SQUARE, STE A-104",,Crossville,Tennessee ,38555,United States,(931) 456-8366,,,"Monday - Saturday: 10:00 AM - 7:00 PM, Sunday: 1:00 PM - 5:00 PM",,,
,,"1808 E JACKSON ST, SPC B",,HUGO,Oklahoma ,74743,United States,(580) 317-9029,,,"Monday - Saturday: 10:00 AM - 7:00 PM, Sunday: 1:00 PM - 5:00 PM",,,
,,"1500 SE WASHINGTON ST, STE 105",,IDABEL,Oklahoma ,74745,United States,(580) 286-5195,,,"Monday - Saturday: 10:00 AM - 7:00 PM, Sunday: 1:00 PM - 5:00 PM",,,
,,"339 E. MAIN ST, STE A",,BROWNSVILLE,Tennessee ,38012,United States,(731) 772-0125,,,"Monday - Saturday: 9:30 AM - 6:00 PM, Sunday: 1:00 PM - 5:00 PM",,,
,,107 NORTH MAIN STREET,,Elk City,Oklahoma ,73644,United States,(580) 225-2486,,,"Monday - Thursday: 10:00 AM - 6:00 PM, Friday - Saturday: 10:00 AM - 7:00 PM, Sunday: CLOSED",,,
,,1108 S MAIN ST,,GROVE,Oklahoma ,74344,United States,(918) 786-9029,,,"Monday - Saturday: 9:30 AM - 7:00 PM, Sunday: 1:00 PM - 5:00 PM",,,
,,4125 W OWEN K GARRIOTT RD,,ENID,Oklahoma ,73703,United States,(580) 234-2037,,,"Monday - Saturday: 10:00 AM - 8:00 PM, Sunday: 12:00 PM - 6:00 PM",,,
,,1011 WEST MAIN ST,,DURANT,Oklahoma ,74701,United States,(580) 931-0744,,,"Monday - Saturday: 10:00 AM - 7:00 PM, Sunday: 1:00 PM - 5:00 PM",,,
,,601 W. GRAND AVE,,Chickasha,Oklahoma ,73018,United States,(405) 224-1475,,,"Monday - Saturday: 10:00 AM - 7:00 PM, Sunday: 1:00 PM - 5:00 PM",,,
,,"1709 N HIGHWAY 81, Suite E",,Duncan,Oklahoma ,73533,United States,(580) 470-8861,,,"Monday - Saturday: 9:30 AM - 7:00 PM, Sunday: 1:00 PM - 5:00 PM",,,
,,1209 W WILL ROGERS BLVD,,CLAREMORE,Oklahoma ,74017,United States,(918) 283-2011,,,"Monday - Saturday: 9:30 AM - 7:00 PM, Sunday: 1:00 PM - 5:00 PM",,,
,,"2350 SE WASHINGTON BLVD, 312",,Bartlesville,Oklahoma ,74006,United States,(918) 876-0173,,,"Monday - Saturday: 10:00 AM - 9:00 PM, Sunday: 12:00 PM - 6:00 PM",,,
,,1211 N Commerce St,,ARDMORE,Oklahoma ,73401,United States,(580) 224-0604,,,"Monday - Saturday: 10:00 AM - 8:00 PM, Sunday: 1:00 PM - 5:00 PM",,,
,,"3600 Country Club Dr., 304",,Jefferson City,Missouri ,65109,United States,(573) 635-4550,,,"Monday - Saturday: 10:00 AM - 9:00 PM, Sunday: 11:00 AM - 6:00 PM",,,
,,720 W PETREE ROAD,,Anadarko,Oklahoma ,73005,United States,(405) 247-8886,,,"Monday - Saturday: 10:00 AM - 7:00 PM, Sunday: 1:00 PM - 5:00 PM",,,
,,416 HUCK FINN SHOPPING CTR,,HANNIBAL,Missouri ,63401,United States,(573) 248-0599,,,"Monday - Saturday: 10:00 AM - 7:00 PM, Sunday: 12:00 PM - 5:00 PM",,,
,,100 S. WASHINGTON STREET,,Chillicothe,Missouri ,64601,United States,(660) 646-1695,,,"Monday - Saturday: 10:00 AM - 7:00 PM, Sunday: 1:00 PM - 5:00 PM",,,
,,"108 CECIL ST, STE A",,CAMDENTON,Missouri ,65020,United States,(573) 346-9997,,,"Monday - Saturday: 10:00 AM - 7:00 PM, Sunday: 1:00 PM - 5:00 PM",,,
,,1714 E OHIO ST,,CLINTON,Missouri ,64735,United States,(660) 885-1039,,,"Monday - Saturday: 10:00 AM - 7:00 PM, Sunday: 1:00 PM - 5:00 PM",,,
,,1923 BOONE VILLAGE PLAZA,,Booneville,Missouri ,65233,United States,(660) 672-0064,,,"Monday - Saturday: 10:00 AM - 7:00 PM, Sunday: 1:00 PM - 5:00 PM",,,
,,"2230 S SPRINGFIELD AVE, STE F",,BOLIVAR,Missouri ,65613,United States,(417) 777-6924,,,"Monday - Saturday: 10:00 AM - 7:00 PM, Sunday: 1:00 PM - 5:00 PM",,,
,,7415 GOODMAN RD,,OLIVE BRANCH,Mississippi ,38654,United States,(662) 895-1955,,,"Monday - Saturday: 9:30 AM - 7:00 PM, Sunday: 1:00 PM - 5:00 PM",,,
,,108 NORTHSIDE PLAZA,,NEWTON,Mississippi ,39345,United States,(601) 683-2848,,,"Monday - Saturday: 10:00 AM - 7:00 PM, Sunday: 1:00 PM - 5:00 PM",,,
,,102 MAIN AVE N,,MAGEE,Mississippi ,39111,United States,(601) 867-3506,,,"Monday - Saturday: 9:30 AM - 6:00 PM, Sunday: CLOSED",,,
,,"12102 OLD HIGHWAY 63 SOUTH, Suite 250",,Lucedale,Mississippi ,39452,United States,(601) 947-8115,,,"Monday - Saturday: 10:00 AM - 7:00 PM, Sunday: 1:00 PM - 5:00 PM",,,
,,"1722 VETERANS BLVD, STE C9",,MCCOMB,Mississippi ,39648,United States,(601) 684-9579,,,"Monday - Saturday: 10:00 AM - 9:00 PM, Sunday: 1:00 PM - 6:00 PM",,,
,,128 CHRYSTAL PLAZA DR.,,NEW ALBANY,Mississippi ,38652,United States,(662) 534-4799,,,"Monday - Saturday: 10:00 AM - 7:00 PM, Sunday: 1:00 PM - 5:00 PM",,,
,,"116 W MAIN ST, #C91",,LOUISVILLE,Mississippi ,39339,United States,(662) 773-9209,,,"Monday - Saturday: 9:30 AM - 6:00 PM, Sunday: CLOSED",,,
,,"31 SGT PRENTISS DRIVE, Suite 2",,Natchez,Mississippi ,39120,United States,(601) 445-4325,,,"Monday - Saturday: 10:00 AM - 7:00 PM, Sunday: 1:00 PM - 5:00 PM",,,
,,3138 AUDUBON DR,,LAUREL,Mississippi ,39440,United States,(601) 426-3930,,,"Monday - Saturday: 9:30 AM - 6:00 PM, Sunday: 1:00 PM - 5:00 PM",,,
,,407 SOUTH STREET,,CLEVELAND,Mississippi ,38732,United States,(662) 846-7303,,,"Monday - Saturday: 10:00 AM - 7:00 PM, Sunday: 1:00 PM - 5:00 PM",,,
,,812 MAIN ST,,COLLINS,Mississippi ,39428,United States,(601) 765-4465,,,"Monday - Saturday: 10:00 AM - 7:00 PM, Sunday: 1:00 PM - 5:00 PM",,,
,,116 HIGHWAY 72 W.,,CORINTH,Mississippi ,38834,United States,(662) 665-4677,,,"Monday - Saturday: 10:00 AM -7:00 PM, Sunday: 1:00 PM - 5:00 PM",,,
,,1236 SUNSET DRIVE,,GRENADA,Mississippi ,38901,United States,(662) 226-6504,,,"Monday - Saturday: 10:00 AM - 7:00 PM, Monday - Thursday: Friday - Saturday:, Sunday: 1:00 PM - 5:00 PM",,,
,,921M HIGHWAY 35 S,,FOREST,Mississippi ,39074,United States,(601) 469-1407,,,"Monday - Saturday: 10:00 AM - 7:00 PM, Sunday: 1:00 PM - 5:00 PM",,,
,,"502 HWY 16 W, B",,CARTHAGE,Mississippi ,39051,United States,(601) 267-6884,,,"Monday - Saturday: 10:00 AM - 7:00 PM, Sunday: 1:00 PM - 5:00 PM",,,
,,312A EAST RAILROAD AVE,,CRYSTAL SPRINGS,Mississippi ,39059,United States,(601) 892-2640,,,"Monday - Saturday: 9:30 AM - 6:00 PM, Sunday: CLOSED",,,
,,937 BROOKWAY BLVD,,BROOKHAVEN,Mississippi ,39601,United States,(601) 835-4081,,,"Monday - Saturday: 10:00 AM - 7:00 PM, Sunday: 1:00 PM - 5:00 PM",,,
,,522 EAST VETERANS AVE,,CALHOUN CITY,Mississippi ,38916,United States,(662) 628-6399,,,"Monday - Saturday: 9:30 AM - 6:00 PM, Sunday: 1:00 PM - 5:00 PM",,,
,,"5787 TERRY RD, STE 101",,BYRAM,Mississippi ,39272,United States,(601) 502-1083,,,"Monday - Saturday: 10:00 AM - 7:00 PM, Sunday: 1:00 PM - 5:00 PM",,,
,,"1584 W GOVERNMENT ST, SPACE 172",,BRANDON,Mississippi ,39042,United States,(601) 825-8658,,,"Monday - Saturday: 10:00 AM - 7:00 PM, Sunday: 1:00 PM - 5:00 PM",,,
,,604 HIGHWAY 278 E,,AMORY,Mississippi ,38821,United States,(662) 256-9852,,,"Monday - Saturday: 9:30 AM - 6:00 PM, Sunday: 1:00 PM - 5:00 PM",,,
,,9A BAY AVE,,BAY SPRINGS,Mississippi ,39422,United States,(601) 764-3134,,,"Monday - Saturday: 10:00 AM -7:00 PM, Sunday: 1:00 PM - 5:00 PM",,,
,,202 WALMART CIR,,BOONEVILLE,Mississippi ,38829,United States,(662) 728-3043,,,"Monday - Saturday: 10:00 AM - 7:00 PM, Sunday: 1:00 PM - 5:00 PM",,,
,,2611 N. 7TH STREET,,WEST MONROE,Louisiana ,71291,United States,(318) 397-4144,,,"Monday - Saturday: 10:00 AM - 7:00 PM, Sunday: 1:00 PM - 5:00 PM",,,
,,5951 Highway 167 N.,,WINNFIELD,Louisiana ,71483,United States,(318) 648-0200,,,"Monday - Saturday: 10:00 AM - 7:00 PM, Sunday: 1:00 PM - 5:00 PM",,,
,,"341 SOUTH DRIVE, SUITE C",,Natchitoches,Louisiana ,71457,United States,(318) 238-7766,,,"Monday - Saturday: 10:00 AM - 7:00 PM, Sunday: 1:00 PM - 5:00 PM",,,
,,1916 JULIA ST,,RAYVILLE,Louisiana ,71269,United States,(318) 728-3338,,,"Monday - Saturday: 10:00 AM - 7:00 PM, Sunday: 1:00 PM - 5:00 PM",,,
,,340 HOMER RD,,MINDEN,Louisiana ,71055,United States,(318) 377-2049,,,"Monday - Saturday: 10:00 AM - 7:00 PM, Sunday: 1:00 PM - 5:00 PM",,,
,,1523 FOURTH STREET,,Jonesville,Louisiana ,71343-2127,United States,(318) 339-7508,,,"Monday - Saturday: 10:00 AM - 7:00 PM, Sunday: 1:00 PM - 5:00 PM",,,
,,1037 WASHINGTON AVE,,MANSFIELD,Louisiana ,71052,United States,(318) 871-1105,,,"Monday - Saturday: 10:00 AM - 7:00 PM, Sunday: 1:00 PM - 5:00 PM",,,
,,172 San Antonio Avenue,,Many,Louisiana ,71449,United States,318-431-5088,,,"Monday - Saturday: 10:00 AM - 7:00 PM, Sunday: 1:00 PM - 5:00 PM",,,
,,816 TUNICA DR E,,MARKSVILLE,Louisiana ,71351,United States,(318) 253-6494,,,"Monday - Saturday: 10:00 AM - 7:00 PM, Sunday: 1:00 PM - 5:00 PM",,,
,,381 VILLAGE DR,,Prestonburg,Kentucky ,41653,United States,(606) 889-6537,,,"Monday - Saturday: 10:00 AM - 7:00 PM, Sunday: 1:00 PM - 5:00 PM",,,
,,247 N MAYO TRL,,Paintsville,Kentucky ,41240,United States,(606) 264-5921,,,"Monday - Saturday: 10:00 AM - 7:00 PM, Sunday: 1:00 PM - 5:00 PM",,,
,,"276 CASSIDY BLVD, SUITE 4",,Pikeville,Kentucky ,41501,United States,(606) 432-3444,,,"Monday - Saturday: 10:00 AM - 7:00 PM, Sunday: 1:00 PM - 5:00 PM",,,
,,1222 1/2 ELTON RD,,JENNINGS,Louisiana ,70546,United States,(337) 824-1152,,,"Monday - Saturday: 10:00 AM - 7:00 PM, Sunday: 1:00 PM - 5:00 PM",,,
,,"905 N 12TH ST, STE 20",,Middlesboro,Kentucky ,40965,United States,(606) 248-9268,,,"Monday - Saturday: 10:00 AM - 9:00 PM, Sunday: 12:30 PM - 5:30 PM",,,
,,403A MARKET SQUARE,,Maysville,Kentucky ,41056,United States,(606) 759-0036,,,"Monday - Saturday: 10:00 AM - 7:00 PM, Sunday: 1:00 PM - 5:00 PM",,,
,,"1204 Paris Road, 2",,Mayfield,Kentucky ,42066,United States,(270) 356-6631,,,"Monday - Saturday: 10:00 AM - 7:00 PM, Sunday: 1:00 PM - 5:00 PM",,,
,,"703 E MAIN ST, UNIT 7",,Lebanon,Kentucky ,40033,United States,(270) 699-2865,,,"Monday - Saturday: 10:00 AM - 7:00 PM, Sunday: 1:00 PM - 5:00 PM",,,
,,"102 BLAIRS WAY, STE 150",,LOUISA,Kentucky ,41230,United States,(606) 638-3894,,,"Monday - Saturday: 10:00 AM - 7:00 PM, Sunday: 1:00 PM - 5:00 PM",,,
,,362 S MAIN ST,,Leitchfield,Kentucky ,42754,United States,(270) 230-0300,,,"Monday - Saturday: 10:00 AM - 7:00 PM, Sunday: 1:00 PM - 5:00 PM",,,
,,1219 SKYLINE DR,,Hopkinsville,Kentucky ,42240,United States,(270) 707-4364,,,"Monday - Saturday: 10:00 AM - 7:00 PM, Sunday: 1:00 PM - 5:00 PM",,,
,,322 VILLAGE LANE,,Hazard,Kentucky ,41701,United States,(606) 487-0284,,,"Monday - Saturday: 10:00 AM - 7:00 PM, Sunday: 1:00 PM - 5:00 PM",,,
,,211 N L ROGERS WELLS BLVD,,Glasgow,Kentucky ,42141,United States,(270) 659-2924,,,"Monday - Saturday: 10:00 AM - 7:00 PM, Sunday: 1:00 PM - 5:00 PM",,,
,,422 N MAIN ST,,Franklin,Kentucky ,42134,United States,(270) 586-1707,,,"Monday - Saturday: 10:00 AM - 7:00 PM, Sunday: 1:00 PM - 5:00 PM",,,
,,"14889 N US HIGHWAY 25 E, STE B",,Corbin,Kentucky ,40701,United States,(606) 528-7722,,,"Monday - Saturday: 10:00 AM - 7:00 PM, Sunday: 1:00 PM - 5:00 PM",,,
,,1508B W EVERLY BROTHERS BLVD,,Central City,Kentucky ,42330,United States,(270) 757-5613,,,"Monday - Saturday: 10:00 AM - 7:00 PM, Sunday: 1:00 PM - 5:00 PM",,,
,,401 MADISON SQUARE DRIVE,,Madisonville,Kentucky ,42431,United States,(270) 824-8214,,,"Monday - Saturday: 10:00 AM - 9:00 PM, Sunday: 1:00 PM - 5:00 PM",,,
,,504 BYPASS RD,,Brandenburg,Kentucky ,40108,United States,(270) 422-7811,,,"Monday - Saturday: 10:00 AM - 7:00 PM, Sunday: 1:00 PM - 5:00 PM",,,
,,"2606 ZION ROAD, STE P",,Henderson,Kentucky ,42420,United States,(270) 830-8689,,,"Monday - Saturday: 10:00 AM - 7:00 PM, Sunday: 1:00 PM - 5:00 PM",,,
,,517 N BROADWAY ST,,Pittsburg,Kansas ,66762,United States,(620) 231-1233,,,"Monday - Saturday: 9:30 AM - 6:00 PM, Sunday: 1:00 PM - 5:00 PM",,,
,,2210 E KANSAS AVE,,McPherson,Kansas ,67460,United States,(620) 504-5050,,,"Monday - Saturday: 10:00 AM - 7:00 PM, Sunday: 1:00 PM - 5:00 PM",,,
,,1306 MAIN ST,,Parsons,Kansas ,67357,United States,(620) 423-0355,,,"Monday - Saturday: 10:00 AM - 7:00 PM, Sunday: 1:00 PM - 5:00 PM",,,
,,1816 N MAIN ST,,Beaver Dam,Kentucky ,42320,United States,(270) 274-2114,,,"Monday - Saturday: 10:00 AM - 7:00 PM, Sunday: 1:00 PM - 5:00 PM",,,
,,1415 N KANSAS AVENUE,,Liberal,Kansas ,67901,United States,(620) 624-2184,,,"Monday - Saturday: 10:00 AM - 7:00 PM, Sunday: 1:00 PM - 5:00 PM",,,
,,"2400 S MAIN STREET, 600",,Fort Scott,Kansas ,66701,United States,(620) 223-2885,,,"Monday - Saturday: 10:00 AM - 7:00 PM, Sunday: 1:00 PM - 5:00 PM",,,
,,"2601 CENTRAL AVENUE, SUITE 34",,Dodge City,Kansas ,67801-6212,United States,(620) 225-0839,,,"Monday - Saturday: 10:00 AM - 9:00 PM, Sunday: 12:00 PM - 6:00 PM",,,
,,5735 GODFREY ROAD,,Godfrey,Illinois ,62035,United States,(618) 433-8245,,,"Monday - Saturday: 10:00 AM - 7:00 PM, Sunday: 1:00 PM - 6:00 PM",,,
,,908 HALL STREET,,Coffeyville,Kansas ,67337,United States,(620) 251-4282,,,"Monday - Saturday: 10:00 AM - 7:00 PM, Sunday: 1:00 PM - 5:00 PM",,,
,,1505 S SANTE FE AVE,,Chanute,Kansas ,66720,United States,(620) 431-4660,,,"Monday - Saturday: 10:00 AM - 7:00 PM, Sunday: 1:00 PM - 5:00 PM",,,
,,"51 VILLAGE SQUARE MALL, #70",,Effingham,Illinois ,62401,United States,(217) 994-9069,,,"Monday - Saturday: 10:00 AM - 8:00 PM, Sunday: 12:00 PM - 5:00 PM",,,
,,1069 JASON PLACE,,Chatham,Illinois ,62629,United States,(217) 697-1148,,,"Monday - Saturday: 10:00 AM - 7:00 PM, Sunday: 1:00 PM - 5:00 PM",,,
,,1113 W BROADWAY,,Centralia,Illinois ,62801,United States,(618) 918-2058,,,"Monday - Saturday: 10:00 AM - 8:00 PM, Sunday: 1:00 PM - 5:00 PM",,,
,,"120 Donald E. Thurmond Parkway, 400",,Cleveland,Georgia ,30528,United States,(706) 219-2883,,,"Monday - Saturday: 10:00 AM - 7:00 PM, Sunday: 1:00 PM - 5:00 PM",,,
,,6315 OAK ST,,Eastman,Georgia ,31023,United States,(478) 374-1215,,,"Monday - Saturday: 10:00 AM - 7:00 PM, Sunday: 1:00 PM - 5:00 PM",,,
,,1158 N MAIN ST,,Cedartown,Georgia ,30125,United States,(770) 748-6734,,,"Monday - Saturday: 10:00 AM - 7:00 PM, Sunday: 1:00 PM - 5:00 PM",,,
,,108 W C BRYANT PKWY,,Calhoun,Georgia ,30701,United States,(706) 624-8825,,,"Monday - Saturday: 10:00 AM - 7:00 PM, Sunday: 1:00 PM - 5:00 PM",,,
,,415 N WEST ST,,Bainbridge,Georgia ,39817,United States,(229) 246-7935,,,"Monday - Saturday: 10:00 AM - 7:00 PM, Sunday: 1:00 PM - 5:00 PM",,,
,,300 WEST COLLIN RAYE DR.,,DeQueen,Arkansas ,71832,United States,(870) 642-5433,,,"Monday - Saturday: 9:00 AM - 6:00 PM, Sunday: 11:00 AM - 5:00 PM",,,
,,"1308 MAIN ST, STE 3",,Crossett,Arkansas ,71635,United States,(870) 304-2281,,,"Monday - Saturday: 10:00 AM - 7:00 PM, Sunday: 1:00 PM - 5:00 PM",,,
,,1143 S ROGERS ST,,Clarksville,Arkansas ,72830,United States,(479) 754-2345,,,"Monday - Saturday: 10:00 AM - 7:00 PM, Sunday: 1:00 PM - 5:00 PM",,,
,,"3050 HARRISON STREET, Q",,Batesville,Arkansas ,72501-7551,United States,(870) 251-7995,,,"Monday - Saturday: 10:00 AM - 7:00 PM, Sunday: 1:00 PM - 5:00 PM",,,
,,"2750 PINE ST, STE 7",,Arkadelphia,Arkansas ,71923,United States,(870) 230-1006,,,"Monday - Saturday: 10:00 AM - 7:00 PM, Sunday: 1:00 PM - 6:00 PM",,,
,,"2413 COLLEGE AVENUE, Suite B",,Jackson,Alabama ,36545,United States,(251) 246-2730,,,"Monday - Saturday: 10:00 AM - 7:00 PM, Monday - Thursday: Friday - Saturday:, Sunday: 1:00 PM - 5:00 PM",,,
,,"4925 UNIVERSITY DRIVE, 154",,Huntsville,Alabama ,35816,United States,(256) 270-8619,,,"Monday - Saturday: 10:00 AM - 7:00 PM, Sunday: 1:00 PM - 5:00 PM",,,
,,"241 U.S.-31, STE 50",,Hartselle,Alabama ,35640,United States,(256) 773-1903,,,"Monday - Saturday: 9:30 AM - 6:00 PM, Sunday: 1:00 PM - 5:00 PM",,,
,,14216 US HIGHWAY 431,,Guntersville,Alabama ,35976,United States,(256) 582-8226,,,"Monday - Saturday: 10:00 AM - 7:00 PM, Sunday: 1:00 PM - 5:00 PM",,,
,,153 GATEWAY PLAZA,,Greenville,Alabama ,36037,United States,(334) 382-7653,,,"Monday - Saturday: 10:00 AM - 7:00 PM, Sunday: 1:00 PM - 5:00 PM",,,
,,400 DEKALB PLAZA BLVD SW,,Fort Payne,Alabama ,35967,United States,(256) 997-5753,,,"Monday - Saturday: 10:00 AM - 7:00 PM, Sunday: 1:00 PM - 5:00 PM",,,
,,1602 TEMPLE AVE N,,Fayette,Alabama ,35555,United States,(205) 932-8658,,,"Monday - Saturday: 9:30 AM - 7:00 PM, Sunday: 1:00 PM - 5:00 PM",,,
,,147 COX CREEK PKWY S,,Florence,Alabama ,35630,United States,(256) 349-5269,,,"Monday - Saturday: 10:00 AM - 7:00 PM, Sunday: 1:00 PM - 5:00 PM",,,
,,982 S EUFAULA AVE,,Eufaula,Alabama ,36027,United States,(334) 616-0046,,,"Monday - Saturday: 10:00 AM - 7:00 PM, Sunday: 1:00 PM - 5:00 PM",,,
,,"1000 BELTLINE RD SW, STE R",,Decatur,Alabama ,35601,United States,(256) 355-1799,,,"Monday - Saturday: 10:00 AM - 7:00 PM, Sunday: 1:00 PM - 5:00 PM",,,
,,"1470 W MAIN ST, STE J",,Centre,Alabama ,35960,United States,(256) 927-8109,,,"Monday - Saturday: 9:30 AM - 6:00 PM, Sunday: CLOSED",,,
,,216 7TH ST. S.,,Clanton,Alabama ,35045,United States,(205) 280-2620,,,"Monday - Saturday: 10:00 AM - 7:00 PM, Sunday: 1:00 PM - 5:00 PM",,,
,,"30 WALNUT STREET, A",,Brent,Alabama ,35034,United States,(205) 340-8710,,,"Monday - Saturday: 10:00 AM - 7:00 PM, Sunday: 1:00 PM - 5:00 PM",,,
,,"1621 TOWN SQUARE, #D",,Cullman,Alabama ,35055-5262,United States,(256) 736-6434,,,"Monday - Saturday: 10:00 AM - 7:00 PM, Sunday: 1:00 PM - 5:00 PM",,,
,,134 W CHURCH ST,,Butler,Alabama ,36904,United States,(205) 459-3320,,,"Monday - Saturday: 9:30 AM - 6:00 PM, Sunday: CLOSED",,,
,,1537 US HIGHWAY 431,,Boaz,Alabama ,35957,United States,(256) 593-2812,,,"Monday - Saturday: 10:00 AM - 7:00 PM, Sunday: 1:00 PM - 5:00 PM",,,
,,"100 U.S. HIGHWAY 31 S, SUITE E",,Athens,Alabama ,35611,United States,(256) 232-7955,,,"Monday - Saturday: 10:00 AM - 7:00 PM, Sunday: 1:00 PM - 5:00 PM",,,
,,570 N BRINDLEE MOUNTAIN PKWY,,Arab,Alabama ,35016,United States,(256) 586-2166,,,"Monday - Saturday: 10:00 AM - 7:00 PM, Sunday: 1:00 PM - 5:00 PM",,,
,,1403 DR M L K JR EXPY,,Andalusia,Alabama ,36420,United States,(334) 222-4038,,,"Monday - Saturday: Monday - Thursday:, 10:00 AM - 7:00 PM Friday - Saturday:, 10:00 AM - 8:00 PM Sunday:, 1:00 PM - 5:00 P",,,
,,1911 UNIVERSITY AVENUE,,Oxford,Mississippi ,38655,United States,(662) 513-6567,,,"Monday - Saturday: 10:00 AM - 7:00 PM, Sunday: 1:00 PM - 5:00 PM",,,
,,201 BROAD ST NW,,Aliceville,Alabama ,35442,United States,(205) 373-3060,,,"Monday - Saturday: 9:30 AM - 6:00 PM, Sunday: CLOSED",,,
,,987 MARKET PLACE,,Alexander City,Alabama ,35010,United States,(256) 215-4068,,,"Monday - Saturday: 10:00 AM - 7:00 PM, Sunday: 1:00 PM - 5:00 PM",,,
,,"1113 2ND AVE E, STE B",,Oneonta,Alabama ,35121,United States,(205) 274-0434,,,"Monday - Saturday: 10:00 AM - 6:30 PM, Sunday: 1:00 PM - 5:00 PM",,,
,,625 US HIGHWAY 66 E.,,Tell City,Indiana ,47586-2765,United States,812-619-6944,,,"Monday - Saturday: 10:00 AM - 7:00 PM, Sunday: 1:00 PM - 5:00 PM",,,
,,115 N JACKSON ST,,HOUSTON,Mississippi ,38851,United States,(662) 456-2256,,,"Monday - Saturday: 9:30 AM - 6:00 PM, Sunday: CLOSED",,,
