store_name,store_number,address,address2,city,state,zip_code,country,phone_number,latitude,longitude,store_hours,store_type,other_fields,coming_soon
FIRST CHOICE HAIRCUTTERS KOHL'S OUTLOT,,2153 MALL RD,,MONROE,MI, 48162 ,United States,(734) 243-7831,,,"Monday - Friday: 09:00 AM - 08:00 PM, Saturday: 09:00 AM - 06:00 PM, Sunday: 11:00 AM - 05:00 PM",,,
FIRST CHOICE HAIRCUTTERS THATCHER CROSSING,,491 THATCHER DR,,MOOSE JAW,SK, S6J 1L8 ,Canada,(306) 692-0359,,,"Monday: 09:00 AM - 07:00 PM, Tuesday: 09:00 AM - 07:00 PM, Wednesday: 09:00 AM - 09:00 PM, Thursday: 09:00 AM - 09:00 PM, Friday: 09:00 AM - 07:00 PM, Saturday: 09:00 AM - 06:00 PM, Sunday: 12:00 PM - 05:00 PM",,,
FIRST CHOICE HAIRCUTTERS ADRIAN COMMONS,,1515 E US HIGHWAY 223 STE F,,ADRIAN,MI, 49221 ,United States,(517) 263-3753,,,"Monday - Friday: 09:00 AM - 08:00 PM, Saturday: 09:00 AM - 07:00 PM, Sunday: 10:00 AM - 05:00 PM",,,
FIRST CHOICE HAIRCUTTERS SECOR ROAD MALL,,7473 SECOR RD,,LAMBERTVILLE,MI, 48144 ,United States,(734) 854-4818,,,"Monday - Friday: 09:00 AM - 09:00 PM, Saturday: 08:00 AM - 06:00 PM, Sunday: 10:00 AM - 04:00 PM",,,
FIRST CHOICE HAIRCUTTERS CORNERSTONE PLAZA,,870-800 E 15TH ST,,PRINCE ALBERT,SK, S6V 8E3 ,Canada,(306) 763-8655,,,"Monday: Closed, Tuesday: 09:30 AM - 06:00 PM, Wednesday: 09:30 AM - 06:00 PM, Thursday: 09:30 AM - 06:00 PM, Friday: 09:30 AM - 06:00 PM, Saturday: 09:00 AM - 05:30 PM, Sunday: Closed",,,
FIRST CHOICE HAIRCUTTERS IMPERIAL LAKES,,2094 SHEPHERD RD,,MULBERRY,FL, 33860 ,United States,(863) 701-0899,,,"Monday - Friday: 09:00 AM - 08:00 PM, Saturday: 09:00 AM - 06:00 PM, Sunday: 11:00 AM - 05:00 PM",,,
FIRST CHOICE HAIRCUTTERS QUESADA COMMONS,,19451 COCHRAN BLVD STE 600,,PORT CHARLOTTE,FL, 33948 ,United States,(941) 629-5333,,,"Monday - Friday: 09:00 AM - 07:00 PM, Saturday: 08:00 AM - 05:00 PM, Sunday: 10:00 AM - 03:00 PM",,,
FIRST CHOICE HAIRCUTTERS UNIVERSITY PLAZA,,4B-449 UNIVERSITY AVE,,CHARLOTTETOWN,PE, C1A 8K3 ,Canada,(902) 566-2406,,,Please contact the salon to confirm hours of operation.,,,
FIRST CHOICE HAIRCUTTERS,,161 BUCHANAN DRIVE,,CHARLOTTETOWN,PE, C1E 2E4 ,Canada,(902) 628-8383,,,Please contact the salon to confirm hours of operation.,,,
FIRST CHOICE HAIRCUTTERS GRANVILLE STREET PLAZA,,10-454 GRANVILLE ST,,SUMMERSIDE,PE, C1N 4K7 ,Canada,(902) 436-1788,,,Please contact the salon to confirm hours of operation.,,,
FIRST CHOICE HAIRCUTTERS COLONIAL PROMENADE BURNT STORE,,3941 TAMIAMI TRL UNIT 3167,,PUNTA GORDA,FL, 33950 ,United States,(941) 637-8243,,,"Monday - Friday: 09:00 AM - 07:00 PM, Saturday: 08:00 AM - 05:00 PM, Sunday: 10:00 AM - 03:00 PM",,,
FIRST CHOICE HAIRCUTTERS SUMMERFIELD CROSSINGS,,13168 US HIGHWAY 301,,RIVERVIEW,FL, 33569 ,United States,(813) 671-0489,,,"Monday - Friday: 09:00 AM - 07:30 PM, Saturday: 09:00 AM - 06:00 PM, Sunday: 11:00 AM - 05:00 PM",,,
FIRST CHOICE HAIRCUTTERS SOUTHEAST PLAZA,,4210 BEE RIDGE RD,,SARASOTA,FL, 34233 ,United States,(941) 377-2188,,,"Monday - Friday: 09:00 AM - 07:00 PM, Saturday: 09:00 AM - 06:00 PM, Sunday: 10:00 AM - 03:00 PM",,,
FIRST CHOICE HAIRCUTTERS HODGSON PLACE MALL,,F-83 SECOND AVE S,,WILLIAMS LAKE,BC, V2G 3W3 ,Canada,(250) 398-7663,,,"Monday: Closed, Tuesday: 09:00 AM - 05:00 PM, Wednesday: 09:00 AM - 05:00 PM, Thursday: 09:00 AM - 05:00 PM, Friday: 09:00 AM - 05:00 PM, Saturday: 09:00 AM - 05:00 PM, Sunday: Closed",,,
FIRST CHOICE HAIRCUTTERS WESTBANK SHOPPING CENTRE,,120-2330 HIGHWAY 97,,WESTBANK,BC, V4T 2P3 ,Canada,(250) 768-6869,,,"Monday: 09:00 AM - 06:00 PM, Tuesday: 09:00 AM - 06:00 PM, Wednesday: 09:00 AM - 06:00 PM, Thursday: 09:00 AM - 06:00 PM, Friday: 09:00 AM - 07:00 PM, Saturday: 09:00 AM - 05:00 PM, Sunday: 11:00 AM - 05:00 PM",,,
FIRST CHOICE HAIRCUTTERS FRUITE UNION PLAZA,,3101 HIGHWAY 6,,VERNON,BC, V1T 9H6 ,Canada,(250) 545-6777,,,"Monday: 09:00 AM - 06:00 PM, Tuesday: 09:00 AM - 06:00 PM, Wednesday: 09:00 AM - 06:00 PM, Thursday: 09:00 AM - 07:00 PM, Friday: 09:00 AM - 07:00 PM, Saturday: 09:00 AM - 05:00 PM, Sunday: 10:00 AM - 05:00 PM",,,
FIRST CHOICE HAIRCUTTERS FIRST OKANAGAN SHOPPING CENTRE,,160-5721 24TH ST,,VERNON,BC, V1T 9T4 ,Canada,(250) 260-5852,,,"Monday: 09:00 AM - 06:00 PM, Tuesday: 09:00 AM - 06:00 PM, Wednesday: 09:00 AM - 06:00 PM, Thursday: 09:00 AM - 07:00 PM, Friday: 09:00 AM - 07:00 PM, Saturday: 09:00 AM - 05:00 PM, Sunday: 10:00 AM - 05:00 PM",,,
FIRST CHOICE HAIRCUTTERS TUSCANY VILLAGE SHOPPING CTR,,1638 MCKENZIE AVE,,VICTORIA,BC, V8N 0A3 ,Canada,(250) 360-1923,,,"Monday: 09:00 AM - 06:00 PM, Tuesday: 09:00 AM - 06:00 PM, Wednesday: 09:00 AM - 06:00 PM, Thursday: 09:00 AM - 08:00 PM, Friday: 09:00 AM - 08:00 PM, Saturday: 08:00 AM - 06:00 PM, Sunday: 10:00 AM - 04:00 PM",,,
FIRST CHOICE HAIRCUTTERS SAANICH PLAZA,,B3-851 VERNON AVE,,VICTORIA,BC, V8X 2W8 ,Canada,(250) 475-2353,,,"Monday: 09:00 AM - 06:00 PM, Tuesday: 09:00 AM - 06:00 PM, Wednesday: 09:00 AM - 06:00 PM, Thursday: 09:00 AM - 08:00 PM, Friday: 09:00 AM - 08:00 PM, Saturday: 08:00 AM - 06:00 PM, Sunday: 10:00 AM - 04:00 PM",,,
FIRST CHOICE HAIRCUTTERS COLWOOD PLAZA,,1-1905 SOOKE RD,,VICTORIA,BC, V9B 1V8 ,Canada,(250) 391-7976,,,"Monday: 09:00 AM - 06:00 PM, Tuesday: 09:00 AM - 06:00 PM, Wednesday: 09:00 AM - 06:00 PM, Thursday: 09:00 AM - 08:00 PM, Friday: 09:00 AM - 08:00 PM, Saturday: 08:00 AM - 06:00 PM, Sunday: 10:00 AM - 04:00 PM",,,
FIRST CHOICE HAIRCUTTERS,,4011 QUADRA ST,,VICTORIA,BC, V8X 1K1 ,Canada,(250) 727-3333,,,"Monday: 09:00 AM - 06:00 PM, Tuesday: 09:00 AM - 06:00 PM, Wednesday: 09:00 AM - 06:00 PM, Thursday: 09:00 AM - 07:00 PM, Friday: 09:00 AM - 07:00 PM, Saturday: 08:00 AM - 06:00 PM, Sunday: 10:00 AM - 04:00 PM",,,
FIRST CHOICE HAIRCUTTERS,,103-1517 ADMIRALS RD,,VICTORIA,BC, V9A 2P8 ,Canada,(250) 360-1408,,,"Monday: 09:00 AM - 06:00 PM, Tuesday: 09:00 AM - 06:00 PM, Wednesday: 09:00 AM - 06:00 PM, Thursday: 09:00 AM - 08:00 PM, Friday: 09:00 AM - 08:00 PM, Saturday: 08:00 AM - 06:00 PM, Sunday: 10:00 AM - 04:00 PM",,,
FIRST CHOICE HAIRCUTTERS,,994 DUNDAS ST,,WOODSTOCK,ON, N4S 1H3 ,Canada,(519) 537-7625,,,"Monday - Friday: 09:00 AM - 09:00 PM, Saturday: 08:00 AM - 05:00 PM, Sunday: Closed",,,
FIRST CHOICE HAIRCUTTERS PARKWAY MALL,,7201 TECUMSEH RD UNIT 3A,,WINDSOR,ON, N8T 3K4 ,Canada,(519) 948-9542,,,"Monday - Friday: 09:00 AM - 08:00 PM, Saturday: 09:00 AM - 06:00 PM, Sunday: Closed",,,
FIRST CHOICE HAIRCUTTERS GATEWAY PLAZA,,3224 DOUGAL AVE S,,WINDSOR,ON, N9E 1S8 ,Canada,(519) 969-6613,,,"Monday - Friday: 09:00 AM - 09:00 PM, Saturday: 09:00 AM - 06:00 PM, Sunday: Closed",,,
FIRST CHOICE HAIRCUTTERS,,5060 TECUMSEH ROAD E,,WINDSOR,ON, N8T 1C5 ,Canada,(519) 944-2321,,,"Monday - Friday: 09:00 AM - 08:00 PM, Saturday: 09:00 AM - 06:00 PM, Sunday: Closed",,,
FIRST CHOICE HAIRCUTTERS,,475 TECUMSEH ROAD E,,WINDSOR,ON, N8X 4W5 ,Canada,(519) 252-6733,,,"Monday - Friday: 09:00 AM - 08:00 PM, Saturday: 09:00 AM - 06:00 PM, Sunday: Closed",,,
FIRST CHOICE HAIRCUTTERS,,1800 TECUMSEH ROAD W,,WINDSOR,ON, N9B 3T2 ,Canada,(519) 252-4053,,,"Monday - Friday: 09:00 AM - 09:00 PM, Saturday: 09:00 AM - 06:00 PM, Sunday: Closed",,,
FIRST CHOICE HAIRCUTTERS,,11500 TECUMSEH ROAD E,,WINDSOR,ON, N8N 1L7 ,Canada,(519) 979-9139,,,"Monday - Friday: 09:00 AM - 09:00 PM, Saturday: 09:00 AM - 06:00 PM, Sunday: Closed",,,
FIRST CHOICE HAIRCUTTERS THE VELLORE CORNERS,,3-9333 WESTON RD,,WOODBRIDGE,ON, L4L 1A6 ,Canada,(905) 417-5952,,,Please contact the salon to confirm hours of operation.,,,
FIRST CHOICE HAIRCUTTERS,,104-200 WINDFLOWERGATE,,WOODBRIDGE,ON, L4L 9L3 ,Canada,(905) 856-9649,,,"Monday: 10:00 AM - 09:00 PM, Tuesday: 10:00 AM - 09:00 PM, Wednesday: 10:00 AM - 09:00 PM, Thursday: 10:00 AM - 09:00 PM, Friday: 10:00 AM - 09:00 PM, Saturday: 08:30 AM - 05:30 PM, Sunday: 11:00 AM - 04:00 PM",,,
FIRST CHOICE HAIRCUTTERS,,481 NORWICH AVE,,WOODSTOCK,ON, N4S 9A2 ,Canada,(519) 421-3698,,,"Monday - Friday: 09:00 AM - 09:00 PM, Saturday: 08:00 AM - 05:00 PM, Sunday: Closed",,,
FIRST CHOICE HAIRCUTTERS SOUTH POINT EXCHANGE,,2990 152ND ST,,WHITE ROCK,BC, V4P 3N7 ,Canada,(604) 536-7321,,,"Monday - Friday: 09:00 AM - 09:00 PM, Saturday: 08:00 AM - 06:00 PM, Sunday: 11:00 AM - 05:00 PM",,,
FIRST CHOICE HAIRCUTTERS,,25 CHEMIN DE LA SAVANE,,GATINEAU,QC, J8T 8A4 ,Canada,(819) 246-5229,,,"Monday: 09:00 AM - 05:00 PM, Tuesday: 09:00 AM - 05:00 PM, Wednesday: 09:00 AM - 05:00 PM, Thursday: 09:00 AM - 08:00 PM, Friday: 09:00 AM - 08:00 PM, Saturday: 09:00 AM - 05:00 PM, Sunday: Closed",,,
FIRST CHOICE HAIRCUTTERS SHOPPES OF LITHIA,,3449 LITHIA PINECREST RD,,VALRICO,FL, 33594 ,United States,(813) 643-8392,,,"Monday: Closed, Tuesday: 10:00 AM - 07:00 PM, Wednesday: 10:00 AM - 06:00 PM, Thursday: 10:00 AM - 06:00 PM, Friday: 10:00 AM - 06:00 PM, Saturday: 10:00 AM - 06:00 PM, Sunday: Closed",,,
FIRST CHOICE HAIRCUTTERS WHITBY SHORES SHOPPING CENTER,,617 VICTORIA ST W,,WHITBY,ON, L1N 0E4 ,Canada,(905) 665-9998,,,"Monday: 09:00 AM - 07:00 PM, Tuesday: 09:00 AM - 07:00 PM, Wednesday: 09:00 AM - 07:00 PM, Thursday: 09:00 AM - 08:00 PM, Friday: 09:00 AM - 08:00 PM, Saturday: 08:00 AM - 06:00 PM, Sunday: 10:00 AM - 04:00 PM",,,
FIRST CHOICE HAIRCUTTERS THICKSON SQUARE,,4091 THICKSON RD N,,WHITBY,ON, L1R 2X3 ,Canada,(905) 655-7202,,,"Monday - Friday: 09:00 AM - 08:00 PM, Saturday: 08:00 AM - 06:00 PM, Sunday: 10:00 AM - 04:00 PM",,,
FIRST CHOICE HAIRCUTTERS ROSE CITY PLAZA,,835 ONTARIO RD SUITE 6,,WELLAND,ON, L3B 5V6 ,Canada,(905) 714-0256,,,"Monday - Friday: 09:00 AM - 09:00 PM, Saturday: 08:00 AM - 06:00 PM, Sunday: 10:00 AM - 05:00 PM",,,
FIRST CHOICE HAIRCUTTERS UNIVERSITY SHOPS PLAZA,,160 UNIVERSITY AVE W,,WATERLOO,ON, N2L 3E9 ,Canada,(519) 888-7500,,,"Monday - Friday: 09:00 AM - 09:00 PM, Saturday: 08:30 AM - 06:00 PM, Sunday: 11:00 AM - 04:00 PM",,,
FIRST CHOICE HAIRCUTTERS,,255 DUNDAS ST,,WATERDOWN,ON, L8B 0E5 ,Canada,(905) 689-7003,,,"Monday - Friday: 09:00 AM - 09:00 PM, Saturday: 08:00 AM - 06:00 PM, Sunday: 10:00 AM - 05:00 PM",,,
FIRST CHOICE HAIRCUTTERS,,65 MCNAUGHTON AVE,,WALLACEBURG,ON, N8A 1R7 ,Canada,(519) 627-4018,,,"Monday - Friday: 09:00 AM - 08:00 PM, Saturday: 09:00 AM - 06:00 PM, Sunday: 11:00 AM - 04:00 PM",,,
FIRST CHOICE HAIRCUTTERS VELLORE VILLAGE,,3737 MAJOR MACKENZIE DR,,VAUGHAN,ON, L4H 0A2 ,Canada,(905) 417-6122,,,Please contact the salon to confirm hours of operation.,,,
FIRST CHOICE HAIRCUTTERS UXBRIDGE HEIGHTS PLAZA,,282 TORONTO ST,,UXBRIDGE,ON, L9P 1Z7 ,Canada,(905) 852-2552,,,"Monday: 09:00 AM - 06:00 PM, Tuesday: 09:00 AM - 06:00 PM, Wednesday: 09:00 AM - 06:00 PM, Thursday: 09:00 AM - 07:00 PM, Friday: 09:00 AM - 07:00 PM, Saturday: 08:00 AM - 06:00 PM, Sunday: 10:00 AM - 04:00 PM",,,
FIRST CHOICE HAIRCUTTERS,,470 SECOND DUGHILL RD,,TRENTON,ON, K8V 0B7 ,Canada,(613) 394-4826,,,"Monday - Friday: 09:00 AM - 09:00 PM, Saturday: 08:00 AM - 06:00 PM, Sunday: 10:00 AM - 04:00 PM",,,
FIRST CHOICE HAIRCUTTERS,,283 DUNDAS ST E,,TRENTON,ON, K8V 1M1 ,Canada,(613) 392-6674,,,"Monday: 09:00 AM - 06:00 PM, Tuesday: 09:00 AM - 06:00 PM, Wednesday: 09:00 AM - 06:00 PM, Thursday: 09:00 AM - 07:00 PM, Friday: 09:00 AM - 07:00 PM, Saturday: 08:00 AM - 06:00 PM, Sunday: Closed",,,
FIRST CHOICE HAIRCUTTERS STOCKYARDS PLAZA,,105-2151 ST CLAIR AVE W,,TORONTO,ON, M6N 1K5 ,Canada,(416) 519-8825,,,"Monday - Friday: 09:00 AM - 08:00 PM, Saturday: 09:00 AM - 06:00 PM, Sunday: 10:00 AM - 05:00 PM",,,
FIRST CHOICE HAIRCUTTERS,,51 SIMCOE ST,,TILLSONBURG,ON, N4G 2H6 ,Canada,(519) 688-0166,,,"Monday: 09:00 AM - 06:00 PM, Tuesday: 09:00 AM - 06:00 PM, Wednesday: 09:00 AM - 06:00 PM, Thursday: 09:00 AM - 09:00 PM, Friday: 09:00 AM - 09:00 PM, Saturday: 09:00 AM - 06:00 PM, Sunday: 10:00 AM - 05:00 PM",,,
FIRST CHOICE HAIRCUTTERS HARBOUR CARRICK CENTRE,,3-570 HARBOUR EXPY,,THUNDER BAY,ON, P7B 6P4 ,Canada,(807) 345-8888,,,"Monday - Friday: 09:30 AM - 09:00 PM, Saturday: 09:30 AM - 06:00 PM, Sunday: 12:00 PM - 05:00 PM",,,
FIRST CHOICE HAIRCUTTERS RUTHERFORD VILLAGE,,21-9200 BATHURST ST,,THORNHILL,ON, L4J 8W1 ,Canada,(905) 882-9100,,,"Monday - Friday: 09:00 AM - 09:00 PM, Saturday: 09:00 AM - 06:00 PM, Sunday: 10:00 AM - 05:00 PM",,,
FIRST CHOICE HAIRCUTTERS TECUMSEH PLAZA,,13039 TECUMSEH ROAD,,TECUMSEH,ON, N8N 3T4 ,Canada,(519) 979-0888,,,"Monday - Friday: 09:00 AM - 08:00 PM, Saturday: 09:00 AM - 06:00 PM, Sunday: Closed",,,
FIRST CHOICE HAIRCUTTERS METCALFE PLACE,,10 METCALFE ST W UNIT 1B,,STRATHROY,ON, N7G 3Z1 ,Canada,(519) 245-6521,,,"Monday - Friday: 09:00 AM - 08:00 PM, Saturday: 08:00 AM - 06:00 PM, Sunday: 10:00 AM - 05:00 PM",,,
FIRST CHOICE HAIRCUTTERS,,6-1020 ONTARIO ST,,STRATFORD,ON, N5A 6Z3 ,Canada,(519) 273-3564,,,"Monday - Friday: 09:00 AM - 09:00 PM, Saturday: 08:30 AM - 05:30 PM, Sunday: Closed",,,
FIRST CHOICE HAIRCUTTERS,,2040 ALGONQUIN RD UNIT 19A,,SUDBURY,ON, P3E 4Z6 ,Canada,(705) 523-8413,,,"Monday - Friday: 09:00 AM - 09:00 PM, Saturday: 09:00 AM - 06:00 PM, Sunday: 10:00 AM - 03:00 PM",,,
FIRST CHOICE HAIRCUTTERS,,5534 MAIN ST,,STOUFFVILLE,ON, L4A 8B7 ,Canada,(905) 640-9555,,,"Monday: 09:00 AM - 06:00 PM, Tuesday: 09:00 AM - 06:00 PM, Wednesday: 09:00 AM - 06:00 PM, Thursday: 09:00 AM - 08:00 PM, Friday: 09:00 AM - 08:00 PM, Saturday: 08:00 AM - 06:00 PM, Sunday: Closed",,,
FIRST CHOICE HAIRCUTTERS,,1486 LASALLE BLVD,,SUDBURY,ON, P3A 1Z7 ,Canada,(705) 566-2401,,,"Monday - Friday: 09:00 AM - 09:00 PM, Saturday: 09:00 AM - 06:00 PM, Sunday: 10:00 AM - 03:00 PM",,,
FIRST CHOICE HAIRCUTTERS RIOCAN MARKETPLACE,,2081 STEELES AVE W,,TORONTO,ON, M3J 3N3 ,Canada,(416) 665-3416,,,"Monday - Friday: 09:00 AM - 09:00 PM, Saturday: 09:00 AM - 06:00 PM, Sunday: 10:00 AM - 04:00 PM",,,
FIRST CHOICE HAIRCUTTERS EAST MALL,,4-225 THE EAST MALL,,TORONTO,ON, M9B 6J1 ,Canada,(416) 239-4247,,,"Monday - Friday: 09:00 AM - 08:00 PM, Saturday: 09:00 AM - 06:00 PM, Sunday: 11:00 AM - 05:00 PM",,,
FIRST CHOICE HAIRCUTTERS,,2114 QUEEN ST E,,TORONTO,ON, M4E 1E2 ,Canada,(416) 699-3943,,,"Monday - Friday: 09:00 AM - 09:00 PM, Saturday: 09:00 AM - 06:00 PM, Sunday: 11:00 AM - 05:00 PM",,,
FIRST CHOICE HAIRCUTTERS,,1730 BLOOR ST W,,TORONTO,ON, M6P 1B3 ,Canada,(416) 766-7222,,,"Monday - Friday: 09:00 AM - 09:00 PM, Saturday: 08:00 AM - 06:00 PM, Sunday: 11:00 AM - 05:00 PM",,,
FIRST CHOICE HAIRCUTTERS,,125 THE QUEENSWAY,,TORONTO,ON, M8Y 1H7 ,Canada,(416) 503-3416,,,"Monday - Friday: 09:00 AM - 09:00 PM, Saturday: 08:00 AM - 06:00 PM, Sunday: 10:00 AM - 04:00 PM",,,
FIRST CHOICE HAIRCUTTERS,,3140 22 HIGHWAY 69 N,,VAL CARON,ON, P3N 1G3 ,Canada,(705) 897-3983,,,"Monday - Friday: 09:00 AM - 09:00 PM, Saturday: 09:00 AM - 06:00 PM, Sunday: 10:00 AM - 03:00 PM",,,
FIRST CHOICE HAIRCUTTERS,,800 STEELES AVE W,,VAUGHAN,ON, L4J 7L2 ,Canada,(905) 660-7523,,,"Monday - Friday: 09:00 AM - 08:00 PM, Saturday: 09:00 AM - 06:00 PM, Sunday: 10:00 AM - 05:00 PM",,,
FIRST CHOICE HAIRCUTTERS,,5-8280 HIGHWAY 27,,VAUGHAN,ON, L4H 0R9 ,Canada,(905) 856-8280,,,"Monday: 10:00 AM - 09:00 PM, Tuesday: 10:00 AM - 09:00 PM, Wednesday: 10:00 AM - 09:00 PM, Thursday: 10:00 AM - 09:00 PM, Friday: 10:00 AM - 09:00 PM, Saturday: 08:30 AM - 05:30 PM, Sunday: 11:00 AM - 04:00 PM",,,
FIRST CHOICE HAIRCUTTERS,,1B-1054 CENTRE ST,,VAUGHAN,ON, L4J 3M8 ,Canada,(905) 709-1679,,,"Monday - Friday: 09:00 AM - 09:00 PM, Saturday: 08:00 AM - 06:00 PM, Sunday: 10:00 AM - 05:00 PM",,,
FIRST CHOICE HAIRCUTTERS,,1611 RUTHERFORD RD,,VAUGHAN,ON, L4K 0C6 ,Canada,(905) 417-1124,,,Please contact the salon to confirm hours of operation.,,,
FIRST CHOICE HAIRCUTTERS LAURELWOOD COMMONS,,606 LAURELWOOD DR UNIT 315,,WATERLOO,ON, N2V 2V1 ,Canada,(519) 725-5694,,,"Monday - Friday: 09:00 AM - 08:30 PM, Saturday: 09:00 AM - 05:30 PM, Sunday: 11:00 AM - 04:00 PM",,,
FIRST CHOICE HAIRCUTTERS,,330 FARMERS MARKET RD,,WATERLOO,ON, N2V 0A5 ,Canada,(519) 725-3533,,,"Monday - Friday: 09:00 AM - 08:30 PM, Saturday: 09:00 AM - 05:30 PM, Sunday: 11:00 AM - 04:00 PM",,,
FIRST CHOICE HAIRCUTTERS,,17-94 BRIDGEPORT RD,,WATERLOO,ON, N2J 2J9 ,Canada,(519) 886-2209,,,"Monday - Friday: 09:00 AM - 09:00 PM, Saturday: 08:30 AM - 06:00 PM, Sunday: 11:00 AM - 04:00 PM",,,
FIRST CHOICE HAIRCUTTERS,,3975 GARDEN ST N,,WHITBY,ON, L1R 3A4 ,Canada,(905) 668-5450,,,"Monday: 09:00 AM - 07:30 PM, Tuesday: 09:00 AM - 07:30 PM, Wednesday: 09:00 AM - 08:00 PM, Thursday: 09:00 AM - 08:00 PM, Friday: 09:00 AM - 08:00 PM, Saturday: 08:00 AM - 06:00 PM, Sunday: 10:00 AM - 04:00 PM",,,
FIRST CHOICE HAIRCUTTERS VICTORIA GATE,,3020 E QUANCE ST,,REGINA,SK, S4V 3B8 ,Canada,(306) 347-0020,,,"Monday: 09:00 AM - 06:00 PM, Tuesday: 09:00 AM - 06:00 PM, Wednesday: 09:00 AM - 09:00 PM, Thursday: 09:00 AM - 09:00 PM, Friday: 09:00 AM - 06:00 PM, Saturday: 09:00 AM - 06:00 PM, Sunday: 11:00 AM - 04:00 PM",,,
FIRST CHOICE HAIRCUTTERS,,123-129 LOMBARD ST,,SMITHS FALLS,ON, K7A 5B8 ,Canada,(613) 283-9646,,,"Monday: 09:00 AM - 06:00 PM, Tuesday: 09:00 AM - 06:00 PM, Wednesday: 09:00 AM - 06:00 PM, Thursday: 09:00 AM - 09:00 PM, Friday: 09:00 AM - 09:00 PM, Saturday: 08:00 AM - 06:00 PM, Sunday: 10:00 AM - 04:00 PM",,,
FIRST CHOICE HAIRCUTTERS WHITE HORSE PLAZA,,466 NORFOLK ST S,,SIMCOE,ON, N3Y 2X3 ,Canada,(519) 428-6818,,,"Monday - Friday: 09:00 AM - 06:00 PM, Saturday: 08:30 AM - 06:00 PM, Sunday: 10:00 AM - 05:00 PM",,,
FIRST CHOICE HAIRCUTTERS SIMCOE MALL,,140 QUEENSWAY E,,SIMCOE,ON, N3Y 4Y7 ,Canada,(519) 428-9853,,,"Monday - Friday: 09:00 AM - 09:00 PM, Saturday: 08:30 AM - 06:00 PM, Sunday: 10:00 AM - 05:00 PM",,,
FIRST CHOICE HAIRCUTTERS,,294 N CHRISTINA STREET,,SARNIA,ON, N7T 5V5 ,Canada,(519) 344-8010,,,"Monday - Friday: 09:00 AM - 09:00 PM, Saturday: 09:00 AM - 06:00 PM, Sunday: 11:00 AM - 04:00 PM",,,
FIRST CHOICE HAIRCUTTERS,,1200 LONDON RD,,SARNIA,ON, N7S 1P4 ,Canada,(519) 383-8912,,,"Monday - Friday: 09:00 AM - 09:00 PM, Saturday: 08:30 AM - 08:00 PM, Sunday: 11:00 AM - 04:00 PM",,,
FIRST CHOICE HAIRCUTTERS SURFSIDE SHOPPING CENTER,,930 TALBOT ST,,SAINT THOMAS,ON, N5P 1E7 ,Canada,(519) 633-6420,,,"Monday - Friday: 09:00 AM - 08:00 PM, Saturday: 09:00 AM - 06:00 PM, Sunday: Closed",,,
FIRST CHOICE HAIRCUTTERS,,1063 TALBOT STREET BLDG E,,SAINT THOMAS,ON, N5P 1G4 ,Canada,(519) 637-3492,,,"Monday - Friday: 09:00 AM - 09:00 PM, Saturday: 09:00 AM - 06:00 PM, Sunday: 10:00 AM - 04:00 PM",,,
FIRST CHOICE HAIRCUTTERS,,2865 LAURIER ST,,ROCKLAND,ON, K4K 1P3 ,Canada,(613) 446-7869,,,"Monday: 09:00 AM - 06:00 PM, Tuesday: 09:00 AM - 06:00 PM, Wednesday: 09:00 AM - 06:00 PM, Thursday: 09:00 AM - 08:00 PM, Friday: 09:00 AM - 08:00 PM, Saturday: 09:00 AM - 04:00 PM, Sunday: Closed",,,
FIRST CHOICE HAIRCUTTERS BAYVIEW GLEN,,8750 BAYVIEW AVE UNIT 13,,RICHMOND HILL,ON, L4B 4V9 ,Canada,(905) 764-9777,,,"Monday - Friday: 09:00 AM - 09:00 PM, Saturday: 09:00 AM - 06:00 PM, Sunday: 10:00 AM - 04:00 PM",,,
FIRST CHOICE HAIRCUTTERS RICHMOND VILLAGE MARKETPLACE,,5919 PERTH ST SUITE 300,,RICHMOND,ON, K0A 2Z0 ,Canada,(613) 838-5553,,,"Monday: 10:00 AM - 06:00 PM, Tuesday: 10:00 AM - 06:00 PM, Wednesday: 10:00 AM - 06:00 PM, Thursday: 10:00 AM - 08:00 PM, Friday: 10:00 AM - 08:00 PM, Saturday: 09:00 AM - 05:00 PM, Sunday: Closed",,,
FIRST CHOICE HAIRCUTTERS BRIARFIELD PLAZA,,286 BUNTING ROAD,,SAINT CATHARINES,ON, L2M 7S5 ,Canada,(905) 682-9046,,,"Monday - Friday: 09:00 AM - 09:00 PM, Saturday: 08:00 AM - 06:00 PM, Sunday: 11:00 AM - 04:00 PM",,,
FIRST CHOICE HAIRCUTTERS,,305 KING ST W,,PRESCOTT,ON, K0E 1T0 ,Canada,(613) 925-0355,,,"Monday: 09:00 AM - 06:00 PM, Tuesday: 09:00 AM - 06:00 PM, Wednesday: 09:00 AM - 06:00 PM, Thursday: 09:00 AM - 09:00 PM, Friday: 09:00 AM - 09:00 PM, Saturday: 08:00 AM - 06:00 PM, Sunday: Closed",,,
FIRST CHOICE HAIRCUTTERS,,2-910 O'BRIEN RD,,RENFREW,ON, K7V 3Z4 ,Canada,(613) 433-9399,,,"Monday: 09:00 AM - 05:30 PM, Tuesday: 09:00 AM - 05:30 PM, Wednesday: 09:00 AM - 05:30 PM, Thursday: 09:00 AM - 07:00 PM, Friday: 09:00 AM - 07:00 PM, Saturday: 09:00 AM - 05:00 PM, Sunday: Closed",,,
FIRST CHOICE HAIRCUTTERS,,29 WALTON ST,,PORT HOPE,ON, L1A 1M8 ,Canada,(905) 885-7133,,,"Monday: 09:00 AM - 06:00 PM, Tuesday: 09:00 AM - 06:00 PM, Wednesday: 09:00 AM - 06:00 PM, Thursday: 09:00 AM - 09:00 PM, Friday: 09:00 AM - 09:00 PM, Saturday: 09:00 AM - 06:00 PM, Sunday: Closed",,,
FIRST CHOICE HAIRCUTTERS,,420 VANSICKLE RD,,SAINT CATHARINES,ON, L2R 6P9 ,Canada,(905) 687-9760,,,"Monday - Friday: 09:00 AM - 09:00 PM, Saturday: 08:00 AM - 06:00 PM, Sunday: 11:00 AM - 04:00 PM",,,
FIRST CHOICE HAIRCUTTERS PORT COLBORNE MALL,,287 WESTSIDE RD UNIT 170,,PORT COLBORNE,ON, L3K 5L2 ,Canada,(905) 835-5432,,,"Monday - Friday: 09:00 AM - 09:00 PM, Saturday: 08:00 AM - 06:00 PM, Sunday: 10:00 AM - 05:00 PM",,,
FIRST CHOICE HAIRCUTTERS CHEMONG PLAZA,,1091 CHEMONG RD,,PETERBOROUGH,ON, K9H 7R8 ,Canada,(705) 743-3453,,,"Monday - Friday: 09:00 AM - 09:00 PM, Saturday: 08:30 AM - 06:00 PM, Sunday: 10:00 AM - 04:00 PM",,,
FIRST CHOICE HAIRCUTTERS,,1011 VICTORIA STREET,,PETAWAWA,ON, K8H 2E2 ,Canada,(613) 687-7277,,,"Monday: 10:00 AM - 06:00 PM, Tuesday: 10:00 AM - 06:00 PM, Wednesday: 10:00 AM - 06:00 PM, Thursday: 10:00 AM - 07:00 PM, Friday: 10:00 AM - 07:00 PM, Saturday: 09:00 AM - 05:00 PM, Sunday: Closed",,,
FIRST CHOICE HAIRCUTTERS,,1080 LANSDOWNE W,,PETERBOROUGH,ON, K9J 1Z9 ,Canada,(705) 742-7443,,,"Monday - Friday: 09:00 AM - 09:00 PM, Saturday: 08:30 AM - 06:00 PM, Sunday: 10:00 AM - 04:00 PM",,,
FIRST CHOICE HAIRCUTTERS,,4-1340 KINGSTON RD,,PICKERING,ON, L1V 3M9 ,Canada,(905) 831-2196,,,"Monday - Friday: 09:00 AM - 09:00 PM, Saturday: 08:00 AM - 06:00 PM, Sunday: 10:00 AM - 04:00 PM",,,
FIRST CHOICE HAIRCUTTERS,,13-705 KINGSTON RD,,PICKERING,ON, L1V 6K3 ,Canada,(905) 831-7569,,,"Monday: 09:00 AM - 08:00 PM, Tuesday: 09:00 AM - 08:00 PM, Wednesday: 09:00 AM - 08:00 PM, Thursday: 09:00 AM - 09:00 PM, Friday: 09:00 AM - 09:00 PM, Saturday: 08:00 AM - 06:00 PM, Sunday: 10:00 AM - 04:00 PM",,,
FIRST CHOICE HAIRCUTTERS PORT ELGIN SHOPPING CENTRE,,215 GODERICH ST,,PORT ELGIN,ON, N0H 2C1 ,Canada,(519) 832-4247,,,"Monday: 09:00 AM - 06:00 PM, Tuesday: 09:00 AM - 06:00 PM, Wednesday: 09:00 AM - 06:00 PM, Thursday: 09:00 AM - 08:30 PM, Friday: 09:00 AM - 08:30 PM, Saturday: 09:00 AM - 06:00 PM, Sunday: 11:00 AM - 04:00 PM",,,
FIRST CHOICE HAIRCUTTERS,,290 GLENDALE AVE,,SAINT CATHARINES,ON, L2T 2L3 ,Canada,(905) 227-1112,,,"Monday - Friday: 09:00 AM - 09:00 PM, Saturday: 08:00 AM - 06:00 PM, Sunday: 11:00 AM - 04:00 PM",,,
FIRST CHOICE HAIRCUTTERS,,286 LAKE STREET,,SAINT CATHARINES,ON, L2N 4H2 ,Canada,(905) 935-7892,,,"Monday - Friday: 09:00 AM - 09:00 PM, Saturday: 08:00 AM - 06:00 PM, Sunday: 11:00 AM - 04:00 PM",,,
FIRST CHOICE HAIRCUTTERS HOME DEPOT PLAZA,,857 MILNER AVE UNIT 102,,SCARBOROUGH,ON, M1B 5N6 ,Canada,(416) 724-2700,,,"Monday - Friday: 09:00 AM - 09:00 PM, Saturday: 09:00 AM - 06:00 PM, Sunday: 11:00 AM - 05:00 PM",,,
FIRST CHOICE HAIRCUTTERS,,9 PROGRESS AVE,,SCARBOROUGH,ON, M1P5A4 ,Canada,(416) 293-9909,,,"Monday - Friday: 09:30 AM - 08:30 PM, Saturday: 09:00 AM - 06:00 PM, Sunday: 11:00 AM - 05:00 PM",,,
FIRST CHOICE HAIRCUTTERS,,828 WARDEN AVE E,,SCARBOROUGH,ON, M1L 4T7 ,Canada,(416) 755-8584,,,"Monday - Friday: 10:00 AM - 09:00 PM, Saturday: 09:00 AM - 06:00 PM, Sunday: 11:00 AM - 05:00 PM",,,
FIRST CHOICE HAIRCUTTERS,,4218 LAWRENCE AVE E,,SCARBOROUGH,ON, M1E 4X9 ,Canada,(416) 282-8783,,,"Monday - Friday: 09:00 AM - 08:00 PM, Saturday: 09:00 AM - 06:00 PM, Sunday: 11:00 AM - 05:00 PM",,,
FIRST CHOICE HAIRCUTTERS,,3300 LAWRENCE AVE E,,SCARBOROUGH,ON, M1H 1A6 ,Canada,(416) 438-4452,,,"Monday - Friday: 09:00 AM - 09:00 PM, Saturday: 09:00 AM - 06:00 PM, Sunday: 11:00 AM - 04:00 PM",,,
FIRST CHOICE HAIRCUTTERS,,1300 MAIN ST BAY 3,,STITTSVILLE,ON, K2S 1A2 ,Canada,(613) 831-3039,,,"Monday: 09:00 AM - 06:00 PM, Tuesday: 09:00 AM - 06:00 PM, Wednesday: 09:00 AM - 06:00 PM, Thursday: 09:00 AM - 08:00 PM, Friday: 09:00 AM - 08:00 PM, Saturday: 09:00 AM - 05:00 PM, Sunday: 10:00 AM - 04:00 PM",,,
FIRST CHOICE HAIRCUTTERS SPARTAN SQUARE,,483 HIGHWAY 8 UNIT 5,,STONEY CREEK,ON, L8G 5B9 ,Canada,(905) 662-0820,,,"Monday - Friday: 09:00 AM - 09:00 PM, Saturday: 08:00 AM - 06:00 PM, Sunday: 11:00 AM - 04:00 PM",,,
FIRST CHOICE HAIRCUTTERS,,80 DUFFERIN ST,,PERTH,ON, K7H 3A7 ,Canada,(613) 264-0716,,,"Monday: 09:00 AM - 06:00 PM, Tuesday: 09:00 AM - 06:00 PM, Wednesday: 09:00 AM - 06:00 PM, Thursday: 09:00 AM - 09:00 PM, Friday: 09:00 AM - 09:00 PM, Saturday: 08:00 AM - 06:00 PM, Sunday: Closed",,,
FIRST CHOICE HAIRCUTTERS,,100 PEMBROKE ST E,,PEMBROKE,ON, K8A 8A3 ,Canada,(613) 732-3302,,,"Monday: 09:00 AM - 07:00 PM, Tuesday: 09:00 AM - 07:00 PM, Wednesday: 09:00 AM - 07:00 PM, Thursday: 09:00 AM - 07:00 PM, Friday: 09:00 AM - 07:00 PM, Saturday: 09:00 AM - 05:00 PM, Sunday: Closed",,,
FIRST CHOICE HAIRCUTTERS,,589 S PELHAM RD,,PELHAM,ON, L3C 3C5 ,Canada,(905) 734-7586,,,"Monday - Friday: 09:00 AM - 09:00 PM, Saturday: 08:00 AM - 06:00 PM, Sunday: 10:00 AM - 05:00 PM",,,
FIRST CHOICE HAIRCUTTERS,,308 GRAND RIVER ST,,PARIS,ON, N3T 5L7 ,Canada,(519) 442-9900,,,"Monday: 09:00 AM - 06:00 PM, Tuesday: 09:00 AM - 06:00 PM, Wednesday: 09:00 AM - 06:00 PM, Thursday: 09:00 AM - 08:30 PM, Friday: 09:00 AM - 08:30 PM, Saturday: 09:00 AM - 05:30 PM, Sunday: Closed",,,
FIRST CHOICE HAIRCUTTERS,,959 10TH STREET,,OWEN SOUND,ON, N4K 5S2 ,Canada,(519) 376-6067,,,"Monday: 09:00 AM - 06:00 PM, Tuesday: 09:00 AM - 06:00 PM, Wednesday: 09:00 AM - 06:00 PM, Thursday: 09:00 AM - 09:00 PM, Friday: 09:00 AM - 09:00 PM, Saturday: 09:00 AM - 05:00 PM, Sunday: 10:00 AM - 04:00 PM",,,
FIRST CHOICE HAIRCUTTERS,,1595 16TH AVE UNIT 2,,OWEN SOUND,ON, N4K 5N3 ,Canada,(519) 371-0918,,,"Monday: 09:00 AM - 06:00 PM, Tuesday: 09:00 AM - 06:00 PM, Wednesday: 09:00 AM - 06:00 PM, Thursday: 09:00 AM - 09:00 PM, Friday: 09:00 AM - 09:00 PM, Saturday: 09:00 AM - 05:00 PM, Sunday: 10:00 AM - 04:00 PM",,,
FIRST CHOICE HAIRCUTTERS OSHAWA GATEWAY CENTRE,,202 RITSON RD N,,OSHAWA,ON, L1G 0B2 ,Canada,(905) 721-2376,,,"Monday - Friday: 09:00 AM - 09:00 PM, Saturday: 08:00 AM - 06:00 PM, Sunday: 10:00 AM - 05:00 PM",,,
FIRST CHOICE HAIRCUTTERS WESTRIDGE PLACE,,6-3280 MONARCH DR,,ORILLIA,ON, L3V 8A2 ,Canada,(705) 327-1634,,,"Monday - Friday: 09:00 AM - 09:00 PM, Saturday: 09:00 AM - 05:00 PM, Sunday: 11:00 AM - 04:00 PM",,,
FIRST CHOICE HAIRCUTTERS WEST SIDE MARKET,,520 RIDDELL RD,,ORANGEVILLE,ON, L9W 5L1 ,Canada,(519) 942-9150,,,"Monday: 09:00 AM - 08:00 PM, Tuesday: 09:00 AM - 08:00 PM, Wednesday: 09:00 AM - 08:00 PM, Thursday: 09:00 AM - 08:00 PM, Friday: 09:00 AM - 08:00 PM, Saturday: 08:30 AM - 05:30 PM, Sunday: 11:00 AM - 04:00 PM",,,
FIRST CHOICE HAIRCUTTERS FAIRGROUNDS SHOPPING CENTRE,,95 FIRST ST,,ORANGEVILLE,ON, L9W 5A1 ,Canada,(519) 938-9152,,,"Monday: 09:00 AM - 08:00 PM, Tuesday: 09:00 AM - 08:00 PM, Wednesday: 09:00 AM - 08:00 PM, Thursday: 09:00 AM - 08:00 PM, Friday: 09:00 AM - 08:00 PM, Saturday: 08:30 AM - 05:30 PM, Sunday: 11:00 AM - 04:00 PM",,,
FIRST CHOICE HAIRCUTTERS TRAFALGAR RIDGE SHOPPING CTR,,2423 TRAFALGAR RD UNIT C3,,OAKVILLE,ON, L6H 6K7 ,Canada,(905) 257-5020,,,"Monday - Friday: 09:00 AM - 09:00 PM, Saturday: 08:00 AM - 06:00 PM, Sunday: 10:00 AM - 05:00 PM",,,
FIRST CHOICE HAIRCUTTERS MAYFIELD WEST VILLAGE MARKET,,11825 BRAMALEA ROAD UNIT 3,,NORTH BRAMPTON,ON, L6R 3S9 ,Canada,(905) 793-6477,,,"Monday - Friday: 09:00 AM - 09:00 PM, Saturday: 09:00 AM - 06:00 PM, Sunday: 10:00 AM - 05:00 PM",,,
FIRST CHOICE HAIRCUTTERS ALGONQUIN SQUARE,,975 MCKEOWN AVENUE,,NORTH BAY,ON, P1B 9P2 ,Canada,(705) 476-7767,,,"Monday - Friday: 09:00 AM - 09:00 PM, Saturday: 09:00 AM - 06:00 PM, Sunday: 10:00 AM - 03:00 PM",,,
FIRST CHOICE HAIRCUTTERS BUILDING B,,225-3714 PORTAGE RD,,NIAGARA FALLS,ON, L2J 2K9 ,Canada,(905) 356-5074,,,"Monday - Friday: 09:00 AM - 09:00 PM, Saturday: 08:00 AM - 06:00 PM, Sunday: 10:00 AM - 05:00 PM",,,
FIRST CHOICE HAIRCUTTERS YORKTOWN SQUARE PLAZA,,60 DAVIS DR,,NEWMARKET,ON, L3Y 2M7 ,Canada,(905) 895-7337,,,"Monday - Friday: 09:00 AM - 09:00 PM, Saturday: 09:00 AM - 06:00 PM, Sunday: 10:00 AM - 04:00 PM",,,
FIRST CHOICE HAIRCUTTERS WINNERS CENTRE,,D7-3920 GRAND PARK DR,,MISSISSAUGA,ON, L5B 4M6 ,Canada,(905) 897-5013,,,Please contact the salon to confirm hours of operation.,,,
FIRST CHOICE HAIRCUTTERS MILTON MARKETPLACE,,1015 BRONTE STREET S,,MILTON,ON, L9T 8X3 ,Canada,(289) 409-1000,,,"Monday - Friday: 09:00 AM - 09:00 PM, Saturday: 09:00 AM - 06:00 PM, Sunday: 10:00 AM - 05:00 PM",,,
FIRST CHOICE HAIRCUTTERS MILTON CROSSROADS,,1290 STEELES AVE E UNIT C1,,MILTON,ON, L9T 6R1 ,Canada,(905) 875-1839,,,"Monday - Friday: 09:00 AM - 09:00 PM, Saturday: 08:00 AM - 06:00 PM, Sunday: 10:00 AM - 05:00 PM",,,
FIRST CHOICE HAIRCUTTERS LOBLAWS CENTRE,,850 MAIN ST E UNIT 6,,MILTON,ON, L9T 0J4 ,Canada,(905) 693-0421,,,"Monday - Friday: 09:00 AM - 09:00 PM, Saturday: 08:00 AM - 06:00 PM, Sunday: 10:00 AM - 05:00 PM",,,
FIRST CHOICE HAIRCUTTERS,,1030 KENNEDY CIRCLE,,MILTON,ON, L9T 0J9 ,Canada,(905) 876-2381,,,"Monday - Friday: 09:00 AM - 09:00 PM, Saturday: 08:00 AM - 06:00 PM, Sunday: 10:00 AM - 05:00 PM",,,
FIRST CHOICE HAIRCUTTERS,,16821 HIGHWAY 12,,MIDLAND,ON, L4R 0A9 ,Canada,(705) 527-7458,,,"Monday: 09:00 AM - 06:00 PM, Tuesday: 09:00 AM - 06:00 PM, Wednesday: 09:00 AM - 06:00 PM, Thursday: 09:00 AM - 09:00 PM, Friday: 09:00 AM - 09:00 PM, Saturday: 09:00 AM - 05:00 PM, Sunday: 10:00 AM - 04:00 PM",,,
FIRST CHOICE HAIRCUTTERS SOUTH COMMON SHOPPING CENTRE,,2150 BURNHAMTHORPE ROAD W,,MISSISSAUGA,ON, L5L 3A2 ,Canada,(905) 820-0591,,,"Monday - Friday: 09:00 AM - 09:00 PM, Saturday: 08:00 AM - 06:00 PM, Sunday: 11:00 AM - 05:00 PM",,,
FIRST CHOICE HAIRCUTTERS SANDLEWOOD SQUARE,,7-60 BRISTOL RD E,,MISSISSAUGA,ON, L4Z 3K8 ,Canada,(905) 568-8738,,,Please contact the salon to confirm hours of operation.,,,
FIRST CHOICE HAIRCUTTERS MILLCREEK,,6400 MILLCREEK DR,,MISSISSAUGA,ON, L5N 3E7 ,Canada,(905) 858-8100,,,"Monday: 10:00 AM - 08:00 PM, Tuesday: 10:00 AM - 08:00 PM, Wednesday: 10:00 AM - 08:00 PM, Thursday: 10:00 AM - 08:30 PM, Friday: 10:00 AM - 08:30 PM, Saturday: 09:00 AM - 06:00 PM, Sunday: 10:00 AM - 04:00 PM",,,
FIRST CHOICE HAIRCUTTERS CREDIT LANDING CENTRE,,2-224 LAKESHORE RD W,,MISSISSAUGA,ON, L5H 1G6 ,Canada,(905) 278-8726,,,"Monday - Friday: 09:00 AM - 08:00 PM, Saturday: 08:30 AM - 05:30 PM, Sunday: 10:30 AM - 04:30 PM",,,
FIRST CHOICE HAIRCUTTERS CLARKSON CROSSING SHOPPING CTR,,B7-950 SOUTHDOWN RD,,MISSISSAUGA,ON, L5J 2Y4 ,Canada,(905) 855-1876,,,"Monday - Friday: 09:00 AM - 08:00 PM, Saturday: 08:30 AM - 05:30 PM, Sunday: 10:30 AM - 04:30 PM",,,
FIRST CHOICE HAIRCUTTERS,,7070 MCLAUGHLIN RD UNIT B4,,MISSISSAUGA,ON, L5W 1W7 ,Canada,(905) 670-0146,,,"Monday - Friday: 09:00 AM - 09:00 PM, Saturday: 08:00 AM - 06:00 PM, Sunday: 10:00 AM - 06:00 PM",,,
FIRST CHOICE HAIRCUTTERS,,6085 CREDITVIEW RD UNIT 21,,MISSISSAUGA,ON, L5V 2A8 ,Canada,(905) 813-7423,,,"Monday - Friday: 09:00 AM - 09:00 PM, Saturday: 08:00 AM - 06:00 PM, Sunday: 11:00 AM - 05:00 PM",,,
FIRST CHOICE HAIRCUTTERS,,5030 10TH LINE UNIT 7,,MISSISSAUGA,ON, L5N 7Z5 ,Canada,(905) 828-7718,,,"Monday - Friday: 09:00 AM - 09:00 PM, Saturday: 09:00 AM - 06:00 PM, Sunday: 10:00 AM - 05:00 PM",,,
FIRST CHOICE HAIRCUTTERS,,3221 DERRY RD W UNIT 11,,MISSISSAUGA,ON, L5N 7L7 ,Canada,(905) 824-3986,,,"Monday - Friday: 09:00 AM - 09:00 PM, Saturday: 08:00 AM - 06:00 PM, Sunday: 11:00 AM - 05:00 PM",,,
FIRST CHOICE HAIRCUTTERS,,3035 ARGENTINA RD UNIT 6,,MISSISSAUGA,ON, L5N 8P7 ,Canada,(905) 824-2124,,,"Monday - Friday: 09:00 AM - 09:00 PM, Saturday: 08:00 AM - 06:00 PM, Sunday: 10:00 AM - 04:00 PM",,,
FIRST CHOICE HAIRCUTTERS,,3030 THOMAS STREET UNIT A405,,MISSISSAUGA,ON, L5M 0R4 ,Canada,(905) 814-1614,,,"Monday - Friday: 09:00 AM - 09:00 PM, Saturday: 08:00 AM - 06:00 PM, Sunday: 10:00 AM - 05:00 PM",,,
FIRST CHOICE HAIRCUTTERS,,2400 DUNDAS ST W UNIT 17,,MISSISSAUGA,ON, L5K 2R8 ,Canada,(905) 823-3393,,,"Monday - Friday: 09:00 AM - 09:00 PM, Saturday: 08:00 AM - 06:00 PM, Sunday: 10:00 AM - 04:00 PM",,,
FIRST CHOICE HAIRCUTTERS,,1370 DUNDAS ST E UNIT R4,,MISSISSAUGA,ON, L4Y 4G4 ,Canada,(905) 897-0200,,,"Monday - Friday: 09:00 AM - 09:00 PM, Saturday: 08:00 AM - 06:00 PM, Sunday: 10:00 AM - 05:00 PM",,,
FIRST CHOICE HAIRCUTTERS CHAPMAN MILLS MARKETPLACE,,50 MARKETPLACE AVE UNIT 7,,NEPEAN,ON, K2J 5G3 ,Canada,(613) 823-0700,,,"Monday - Friday: 10:00 AM - 08:00 PM, Saturday: 09:00 AM - 05:00 PM, Sunday: 10:00 AM - 04:00 PM",,,
FIRST CHOICE HAIRCUTTERS CAPILANO SQUARE,,1541 MERIVALE RD,,NEPEAN,ON, K2G 3J4 ,Canada,(613) 225-8104,,,"Monday - Friday: 09:00 AM - 09:00 PM, Saturday: 09:00 AM - 06:00 PM, Sunday: 10:00 AM - 04:00 PM",,,
FIRST CHOICE HAIRCUTTERS,,3500 FALLOWFIELD RD,,NEPEAN,ON, K2J 4A7 ,Canada,(613) 823-3357,,,"Monday - Friday: 10:00 AM - 08:00 PM, Saturday: 09:00 AM - 05:00 PM, Sunday: 10:00 AM - 04:00 PM",,,
FIRST CHOICE HAIRCUTTERS,,16640 YONGE ST,,NEWMARKET,ON, L3X 2N8 ,Canada,(905) 954-1071,,,"Monday - Friday: 09:00 AM - 09:00 PM, Saturday: 09:00 AM - 06:00 PM, Sunday: 10:00 AM - 04:00 PM",,,
FIRST CHOICE HAIRCUTTERS,,6769 LUNDYS LN,,NIAGARA FALLS,ON, L2G 1V4 ,Canada,(905) 357-3453,,,"Monday: 09:00 AM - 07:00 PM, Tuesday: 09:00 AM - 07:00 PM, Wednesday: 09:00 AM - 07:00 PM, Thursday: 09:00 AM - 08:00 PM, Friday: 09:00 AM - 08:00 PM, Saturday: 08:00 AM - 06:00 PM, Sunday: 10:00 AM - 05:00 PM",,,
FIRST CHOICE HAIRCUTTERS,,6 FRONT STREET N,,ORILLIA,ON, L3V 4R5 ,Canada,(705) 325-2077,,,"Monday: 09:00 AM - 06:00 PM, Tuesday: 09:00 AM - 06:00 PM, Wednesday: 09:00 AM - 06:00 PM, Thursday: 09:00 AM - 06:00 PM, Friday: 09:00 AM - 08:00 PM, Saturday: 09:00 AM - 05:00 PM, Sunday: 11:00 AM - 04:00 PM",,,
FIRST CHOICE HAIRCUTTERS ORLEANS TOWN CENTRE,,250 CENTRUM BLVD,,ORLEANS,ON, K1E 3J1 ,Canada,(613) 834-1660,,,"Monday: 10:00 AM - 06:00 PM, Tuesday: 10:00 AM - 06:00 PM, Wednesday: 10:00 AM - 06:00 PM, Thursday: 10:00 AM - 08:00 PM, Friday: 10:00 AM - 08:00 PM, Saturday: 09:00 AM - 05:00 PM, Sunday: 10:00 AM - 04:00 PM",,,
FIRST CHOICE HAIRCUTTERS,,5929 JEANNE D'ARC BLVD,,ORLEANS,ON, K1C 6V8 ,Canada,(613) 837-7942,,,"Monday - Friday: 09:00 AM - 08:00 PM, Saturday: 09:00 AM - 05:00 PM, Sunday: 10:00 AM - 04:00 PM",,,
FIRST CHOICE HAIRCUTTERS,,595 KING ST E,,OSHAWA,ON, L1H 1G3 ,Canada,(905) 576-4477,,,"Monday - Friday: 09:00 AM - 09:00 PM, Saturday: 08:00 AM - 06:00 PM, Sunday: 10:00 AM - 04:00 PM",,,
FIRST CHOICE HAIRCUTTERS,,300 TAUNTON RD,,OSHAWA,ON, L1G 7T4 ,Canada,(905) 434-4994,,,"Monday - Friday: 09:00 AM - 09:00 PM, Saturday: 08:00 AM - 06:00 PM, Sunday: 10:00 AM - 04:00 PM",,,
FIRST CHOICE HAIRCUTTERS,,2-1445 HARMONY RD N,,OSHAWA,ON, L1H 7K5 ,Canada,(905) 725-8357,,,"Monday - Friday: 09:00 AM - 09:00 PM, Saturday: 08:00 AM - 06:00 PM, Sunday: 10:00 AM - 04:00 PM",,,
FIRST CHOICE HAIRCUTTERS,,100-1051 SIMCOE ST N,,OSHAWA,ON, L1G 4W3 ,Canada,(905) 433-1291,,,"Monday - Friday: 09:00 AM - 09:00 PM, Saturday: 08:00 AM - 06:00 PM, Sunday: 10:00 AM - 04:00 PM",,,
FIRST CHOICE HAIRCUTTERS SOUTHGATE SHOPPING CENTER,,4-2515 BANK ST,,OTTAWA,ON, K1V 8R9 ,Canada,(613) 526-4962,,,"Monday - Friday: 08:00 AM - 08:00 PM, Saturday: 08:00 AM - 05:00 PM, Sunday: 10:00 AM - 04:00 PM",,,
FIRST CHOICE HAIRCUTTERS ELMVALE ACRES SHOPPING CENTRES,,1910 ST LAURENT BLVD,,OTTAWA,ON, K1G 1A4 ,Canada,(613) 260-2681,,,"Monday - Friday: 09:00 AM - 08:00 PM, Saturday: 09:00 AM - 05:00 PM, Sunday: 10:00 AM - 04:00 PM",,,
FIRST CHOICE HAIRCUTTERS,,3-580 MONTREAL RD,,OTTAWA,ON, K1G 1A4 ,Canada,(613) 746-7231,,,"Monday - Friday: 09:00 AM - 08:00 PM, Saturday: 09:00 AM - 05:00 PM, Sunday: 11:00 AM - 04:00 PM",,,
FIRST CHOICE HAIRCUTTERS,,331 RIDEAU ST,,OTTAWA,ON, K1N 5Y4 ,Canada,(613) 789-6622,,,"Monday: 09:00 AM - 08:00 PM, Tuesday: 09:00 AM - 08:00 PM, Wednesday: 09:00 AM - 08:00 PM, Thursday: 09:00 AM - 08:00 PM, Friday: 09:00 AM - 08:00 PM, Saturday: 09:00 AM - 05:00 PM, Sunday: 11:00 AM - 04:00 PM",,,
FIRST CHOICE HAIRCUTTERS,,1C-1091 ST.LAURENT BLVD,,OTTAWA,ON, K1K 3B1 ,Canada,(613) 748-6565,,,"Monday - Friday: 09:00 AM - 08:00 PM, Saturday: 09:00 AM - 05:00 PM, Sunday: 11:00 AM - 04:00 PM",,,
FIRST CHOICE HAIRCUTTERS,,1867 CARLING AVE,,OTTAWA,ON, K2A 1E6 ,Canada,(613) 728-7794,,,"Monday - Friday: 09:00 AM - 08:00 PM, Saturday: 09:00 AM - 05:00 PM, Sunday: 10:00 AM - 04:00 PM",,,
FIRST CHOICE HAIRCUTTERS,,1717 BANK ST,,OTTAWA,ON, K1V 7Z5 ,Canada,(613) 523-1727,,,"Monday: 09:00 AM - 06:00 PM, Tuesday: 09:00 AM - 06:00 PM, Wednesday: 09:00 AM - 06:00 PM, Thursday: 09:00 AM - 08:00 PM, Friday: 09:00 AM - 08:00 PM, Saturday: 09:00 AM - 05:00 PM, Sunday: 11:00 AM - 04:00 PM",,,
FIRST CHOICE HAIRCUTTERS,,1460 RICHMOND RD,,OTTAWA,ON, K2B 6S1 ,Canada,(613) 820-0241,,,"Monday - Friday: 09:00 AM - 09:00 PM, Saturday: 09:00 AM - 06:00 PM, Sunday: 10:00 AM - 04:00 PM",,,
FIRST CHOICE HAIRCUTTERS WILLIAMSTOWN SHOPPING CENTRE,,9570 MCCOWAN RD UNIT 10,,MARKHAM,ON, L3P 8M1 ,Canada,(905) 887-3590,,,"Monday - Friday: 09:00 AM - 09:00 PM, Saturday: 09:00 AM - 06:00 PM, Sunday: 10:00 AM - 05:00 PM",,,
FIRST CHOICE HAIRCUTTERS,,5511 MAIN ST,,MANOTICK,ON, K4M 1B3 ,Canada,(613) 692-3924,,,"Monday: 09:00 AM - 06:00 PM, Tuesday: 09:00 AM - 06:00 PM, Wednesday: 09:00 AM - 06:00 PM, Thursday: 09:00 AM - 08:00 PM, Friday: 09:00 AM - 08:00 PM, Saturday: 09:00 AM - 05:00 PM, Sunday: Closed",,,
FIRST CHOICE HAIRCUTTERS WHITNEY TOWN CENTRE,,25-370 KENT ST W,,LINDSAY,ON, K9V 6G8 ,Canada,(705) 324-9200,,,"Monday: 09:00 AM - 06:00 PM, Tuesday: 09:00 AM - 06:00 PM, Wednesday: 09:00 AM - 06:00 PM, Thursday: 09:00 AM - 09:00 PM, Friday: 09:00 AM - 09:00 PM, Saturday: 08:00 AM - 06:00 PM, Sunday: 10:00 AM - 04:00 PM",,,
FIRST CHOICE HAIRCUTTERS,,288 ERIE STREET S,,LEAMINGTON,ON, N8H 3C5 ,Canada,(519) 322-5173,,,"Monday - Friday: 09:00 AM - 09:00 PM, Saturday: 09:00 AM - 06:00 PM, Sunday: Closed",,,
FIRST CHOICE HAIRCUTTERS,,114 TALBOT STREET E,,LEAMINGTON,ON, N8H 1M9 ,Canada,(519) 326-5313,,,"Monday - Friday: 09:00 AM - 08:00 PM, Saturday: 09:00 AM - 06:00 PM, Sunday: Closed",,,
FIRST CHOICE HAIRCUTTERS WEST HIGHLAND MALL,,200 HIGHLAND RD W,,KITCHENER,ON, N2M 3C2 ,Canada,(519) 743-6212,,,"Monday - Friday: 09:00 AM - 09:00 PM, Saturday: 08:00 AM - 06:00 PM, Sunday: 11:00 AM - 04:00 PM",,,
FIRST CHOICE HAIRCUTTERS SUNRISE SHOPPING CENTRE,,1400 OTTAWA STREET S,,KITCHENER,ON, N2E 4E2 ,Canada,(519) 568-7798,,,"Monday - Friday: 09:00 AM - 09:00 PM, Saturday: 08:30 AM - 06:00 PM, Sunday: 11:00 AM - 04:00 PM",,,
FIRST CHOICE HAIRCUTTERS COLLINS BAY PLAZA,,4037 BATH RD,,KINGSTON,ON, K7M 4Y5 ,Canada,(613) 634-8668,,,"Monday: 09:00 AM - 06:00 PM, Tuesday: 09:00 AM - 06:00 PM, Wednesday: 09:00 AM - 06:00 PM, Thursday: 09:00 AM - 09:00 PM, Friday: 09:00 AM - 09:00 PM, Saturday: 09:00 AM - 06:00 PM, Sunday: Closed",,,
FIRST CHOICE HAIRCUTTERS FIRST KESWICK PLAZA,,12-76 ARLINGTON DR,,KESWICK,ON, L4P 9Z9 ,Canada,(905) 476-4222,,,"Monday: 09:00 AM - 07:00 PM, Tuesday: 09:00 AM - 07:00 PM, Wednesday: 09:00 AM - 07:00 PM, Thursday: 09:00 AM - 08:00 PM, Friday: 09:00 AM - 08:00 PM, Saturday: 09:00 AM - 05:00 PM, Sunday: 11:00 AM - 04:00 PM",,,
FIRST CHOICE HAIRCUTTERS COLONNADE WALMART CENTRE,,400-304 COLONNADE DR,,KEMPTVILLE,ON, K0G 1J0 ,Canada,(613) 258-0886,,,"Monday: 09:00 AM - 08:00 PM, Tuesday: 09:00 AM - 08:00 PM, Wednesday: 09:00 AM - 08:00 PM, Thursday: 09:00 AM - 08:00 PM, Friday: 09:00 AM - 08:00 PM, Saturday: 09:00 AM - 05:00 PM, Sunday: Closed",,,
FIRST CHOICE HAIRCUTTERS,,120 THAMES ST N,,INGERSOLL,ON, N5C 3C9 ,Canada,(519) 425-4974,,,"Monday - Friday: 09:00 AM - 09:00 PM, Saturday: 08:00 AM - 06:00 PM, Sunday: 10:00 AM - 05:00 PM",,,
FIRST CHOICE HAIRCUTTERS,,111 HOWLAND DR UNIT 60,,HUNTSVILLE,ON, P1H 2P4 ,Canada,(705) 788-7632,,,"Monday: 09:00 AM - 06:00 PM, Tuesday: 09:00 AM - 06:00 PM, Wednesday: 09:00 AM - 06:00 PM, Thursday: 09:00 AM - 06:00 PM, Friday: 09:00 AM - 09:00 PM, Saturday: 09:00 AM - 05:00 PM, Sunday: Closed",,,
FIRST CHOICE HAIRCUTTERS TRINITY CROSSING,,4-1491 INNISFIL BEACH RD,,INNISFIL,ON, L9S 4B2 ,Canada,(705) 436-1400,,,"Monday: 09:00 AM - 07:00 PM, Tuesday: 09:00 AM - 07:00 PM, Wednesday: 09:00 AM - 07:00 PM, Thursday: 09:00 AM - 08:00 PM, Friday: 09:00 AM - 08:00 PM, Saturday: 09:00 AM - 05:00 PM, Sunday: 10:00 AM - 05:00 PM",,,
FIRST CHOICE HAIRCUTTERS PLAZA HAWKESBURY,,100-454 COUNTY ROAD 17,,HAWKESBURY,ON, K6A 2R2 ,Canada,(613) 632-3457,,,"Monday: 10:00 AM - 06:00 PM, Tuesday: 10:00 AM - 06:00 PM, Wednesday: 10:00 AM - 06:00 PM, Thursday: 10:00 AM - 08:00 PM, Friday: 10:00 AM - 08:00 PM, Saturday: 09:00 AM - 05:00 PM, Sunday: Closed",,,
FIRST CHOICE HAIRCUTTERS FIRST HANOVER SHOPPING CENTER,,2-1076 10TH ST,,HANOVER,ON, N4N 3B8 ,Canada,(519) 364-6385,,,"Monday: 09:00 AM - 06:00 PM, Tuesday: 09:00 AM - 06:00 PM, Wednesday: 09:00 AM - 06:00 PM, Thursday: 09:00 AM - 08:30 PM, Friday: 09:00 AM - 08:30 PM, Saturday: 09:00 AM - 05:30 PM, Sunday: Closed",,,
FIRST CHOICE HAIRCUTTERS SHOPPES AT FAIRWINDS,,5685 HAZELDEAN ROAD,,KANATA,ON, K2S 0P6 ,Canada,(613) 831-4100,,,"Monday - Friday: 10:00 AM - 08:00 PM, Saturday: 09:00 AM - 06:00 PM, Sunday: 10:00 AM - 04:00 PM",,,
FIRST CHOICE HAIRCUTTERS,,972 UPPER JAMES ST,,HAMILTON,ON, L9C 3A5 ,Canada,(905) 385-0286,,,"Monday - Friday: 09:00 AM - 09:00 PM, Saturday: 08:00 AM - 06:00 PM, Sunday: 11:00 AM - 04:00 PM",,,
FIRST CHOICE HAIRCUTTERS,,36 MAIN ST E,,GRIMSBY,ON, L3M 1M9 ,Canada,(905) 945-0692,,,"Monday: 09:00 AM - 06:00 PM, Tuesday: 09:00 AM - 06:00 PM, Wednesday: 09:00 AM - 06:00 PM, Thursday: 09:00 AM - 09:00 PM, Friday: 09:00 AM - 09:00 PM, Saturday: 08:00 AM - 06:00 PM, Sunday: 11:00 AM - 04:00 PM",,,
FIRST CHOICE HAIRCUTTERS,,351 TALISMAN DRIVE UNIT 2,,GRAVENHURST,ON, P1P 0A7 ,Canada,(705) 687-1382,,,"Monday: 10:00 AM - 06:00 PM, Tuesday: 10:00 AM - 06:00 PM, Wednesday: 10:00 AM - 06:00 PM, Thursday: 10:00 AM - 06:00 PM, Friday: 10:00 AM - 08:00 PM, Saturday: 09:00 AM - 05:00 PM, Sunday: Closed",,,
FIRST CHOICE HAIRCUTTERS WILLOW WEST MALL,,E-119 SILVERCREEK PKY N,,GUELPH,ON, N1H 3T2 ,Canada,(519) 821-0829,,,"Monday - Friday: 09:00 AM - 08:30 PM, Saturday: 08:30 AM - 05:30 PM, Sunday: 10:00 AM - 05:00 PM",,,
FIRST CHOICE HAIRCUTTERS WEST HILLS CENTRE,,995 PAISLEY RD,,GUELPH,ON, N1K 1P6 ,Canada,(519) 837-1430,,,"Monday - Friday: 09:00 AM - 08:30 PM, Saturday: 08:30 AM - 05:30 PM, Sunday: 10:00 AM - 05:00 PM",,,
FIRST CHOICE HAIRCUTTERS STONE SQUARE PLAZA,,370 STONE RD,,GUELPH,ON, N1G 4V9 ,Canada,(519) 836-8092,,,"Monday - Friday: 09:00 AM - 08:30 PM, Saturday: 08:30 AM - 05:30 PM, Sunday: 10:00 AM - 05:00 PM",,,
FIRST CHOICE HAIRCUTTERS,,666 WOOLWICH ST,,GUELPH,ON, N1H 2G5 ,Canada,(519) 836-0421,,,"Monday - Friday: 09:00 AM - 08:30 PM, Saturday: 08:30 AM - 05:30 PM, Sunday: 10:00 AM - 05:00 PM",,,
FIRST CHOICE HAIRCUTTERS,,265 ERAMOSA RD,,GUELPH,ON, N1E 2M7 ,Canada,(519) 763-8106,,,"Monday - Friday: 09:00 AM - 08:30 PM, Saturday: 08:30 AM - 05:30 PM, Sunday: 10:00 AM - 05:00 PM",,,
FIRST CHOICE HAIRCUTTERS,,158 CLAIR RD E UNIT 42,,GUELPH,ON, N1L 0G6 ,Canada,(519) 823-5965,,,Please contact the salon to confirm hours of operation.,,,
FIRST CHOICE HAIRCUTTERS,,96 CENTENNIAL PKWY N,,HAMILTON,ON, L8E 1H7 ,Canada,(905) 560-5656,,,"Monday - Friday: 09:00 AM - 09:00 PM, Saturday: 09:00 AM - 06:00 PM, Sunday: 11:00 AM - 04:00 PM",,,
FIRST CHOICE HAIRCUTTERS,,905 RYMAL RD E,,HAMILTON,ON, L8W 3M2 ,Canada,(905) 388-4960,,,"Monday - Friday: 09:00 AM - 09:00 PM, Saturday: 08:00 AM - 06:00 PM, Sunday: 11:00 AM - 04:00 PM",,,
FIRST CHOICE HAIRCUTTERS,,54 QUEEN ST S,,HAMILTON,ON, L8P 3R5 ,Canada,(905) 529-2884,,,"Monday - Friday: 09:00 AM - 09:00 PM, Saturday: 08:00 AM - 06:00 PM, Sunday: 11:00 AM - 04:00 PM",,,
FIRST CHOICE HAIRCUTTERS,,2172 RYMAL ROAD E,,HAMILTON,ON, L0R 1P0 ,Canada,(905) 692-7126,,,"Monday - Friday: 09:00 AM - 09:00 PM, Saturday: 08:00 AM - 06:00 PM, Sunday: 10:00 AM - 04:00 PM",,,
FIRST CHOICE HAIRCUTTERS,,1331 MAIN ST W,,HAMILTON,ON, L8S 1C6 ,Canada,(905) 529-6477,,,"Monday - Friday: 09:00 AM - 09:00 PM, Saturday: 09:00 AM - 06:00 PM, Sunday: 11:00 AM - 04:00 PM",,,
FIRST CHOICE HAIRCUTTERS,,1120 FENNELL AVE E,,HAMILTON,ON, L8T 1S5 ,Canada,(905) 389-6314,,,"Monday - Friday: 09:00 AM - 09:00 PM, Saturday: 08:00 AM - 06:00 PM, Sunday: 11:00 AM - 04:00 PM",,,
FIRST CHOICE HAIRCUTTERS EAGLESON SOUTH CENTER,,700 EAGLESON ROAD,,KANATA,ON, K2M 2G9 ,Canada,(613) 271-1683,,,"Monday - Friday: 10:00 AM - 08:00 PM, Saturday: 09:00 AM - 06:00 PM, Sunday: 10:00 AM - 04:00 PM",,,
FIRST CHOICE HAIRCUTTERS,,854 MARCH ROAD UNIT 3,,KANATA,ON, K2W 0C9 ,Canada,(613) 599-5698,,,"Monday - Friday: 10:00 AM - 08:00 PM, Saturday: 09:00 AM - 06:00 PM, Sunday: 10:00 AM - 04:00 PM",,,
FIRST CHOICE HAIRCUTTERS,,510 EARL GREY DR UNIT 2,,KANATA,ON, K2T 1B8 ,Canada,(613) 592-7083,,,"Monday - Friday: 10:00 AM - 08:00 PM, Saturday: 09:00 AM - 06:00 PM, Sunday: 10:00 AM - 04:00 PM",,,
FIRST CHOICE HAIRCUTTERS,,900 MONTREAL ST,,KINGSTON,ON, K7K 2P9 ,Canada,(613) 544-6438,,,"Monday: 09:00 AM - 06:00 PM, Tuesday: 09:00 AM - 06:00 PM, Wednesday: 09:00 AM - 06:00 PM, Thursday: 09:00 AM - 09:00 PM, Friday: 09:00 AM - 09:00 PM, Saturday: 09:00 AM - 06:00 PM, Sunday: Closed",,,
FIRST CHOICE HAIRCUTTERS,,5-277 BATH RD,,KINGSTON,ON, K7M 2X6 ,Canada,(613) 544-6773,,,"Monday - Friday: 09:00 AM - 09:00 PM, Saturday: 09:00 AM - 06:00 PM, Sunday: 10:00 AM - 04:00 PM",,,
FIRST CHOICE HAIRCUTTERS,,480 GARDINERS RD,,KINGSTON,ON, K7M 7W9 ,Canada,(613) 384-7057,,,"Monday - Friday: 09:00 AM - 09:00 PM, Saturday: 09:00 AM - 06:00 PM, Sunday: 10:00 AM - 04:00 PM",,,
FIRST CHOICE HAIRCUTTERS,,472 DIVISION ST,,KINGSTON,ON, K7K 4B1 ,Canada,(613) 531-2632,,,"Monday: 09:00 AM - 06:00 PM, Tuesday: 09:00 AM - 06:00 PM, Wednesday: 09:00 AM - 06:00 PM, Thursday: 09:00 AM - 09:00 PM, Friday: 09:00 AM - 09:00 PM, Saturday: 09:00 AM - 06:00 PM, Sunday: Closed",,,
FIRST CHOICE HAIRCUTTERS,,2555 PRINCESS ST,,KINGSTON,ON, K7P 2W8 ,Canada,(613) 634-3396,,,"Monday - Friday: 09:00 AM - 09:00 PM, Saturday: 09:00 AM - 06:00 PM, Sunday: 10:00 AM - 04:00 PM",,,
FIRST CHOICE HAIRCUTTERS OTTAWA CENTRE,,1020 OTTAWA RD N,,KITCHENER,ON, N2A 3Z3 ,Canada,(519) 894-6305,,,"Monday - Friday: 09:00 AM - 09:00 PM, Saturday: 09:00 AM - 05:30 PM, Sunday: 11:00 AM - 04:00 PM",,,
FIRST CHOICE HAIRCUTTERS HIWAY CENTRE,,17-1375 WEBER ST E,,KITCHENER,ON, N2A 3A7 ,Canada,(519) 893-5353,,,"Monday - Friday: 09:00 AM - 08:30 PM, Saturday: 09:00 AM - 05:30 PM, Sunday: 11:00 AM - 04:00 PM",,,
FIRST CHOICE HAIRCUTTERS GLASGOW HEIGHTS PLAZA,,851 FISCHER HALLMAN RD,,KITCHENER,ON, N2M 5N8 ,Canada,(519) 744-2766,,,"Monday - Friday: 09:00 AM - 09:00 PM, Saturday: 08:30 AM - 06:00 PM, Sunday: 11:00 AM - 04:00 PM",,,
FIRST CHOICE HAIRCUTTERS FOREST GLEN PLAZA,,700 STRASBURG ROAD,,KITCHENER,ON, N2E 2H2 ,Canada,(519) 576-1904,,,"Monday - Friday: 09:00 AM - 09:00 PM, Saturday: 08:30 AM - 06:00 PM, Sunday: 11:00 AM - 04:00 PM",,,
FIRST CHOICE HAIRCUTTERS,,17 RUSSELL ST W,,LINDSAY,ON, K9V 2W5 ,Canada,(705) 328-1231,,,"Monday: 09:00 AM - 06:00 PM, Tuesday: 09:00 AM - 06:00 PM, Wednesday: 09:00 AM - 06:00 PM, Thursday: 09:00 AM - 09:00 PM, Friday: 09:00 AM - 09:00 PM, Saturday: 08:00 AM - 06:00 PM, Sunday: Closed",,,
FIRST CHOICE HAIRCUTTERS WELLINGTON CORNERS,,645 COMMISSIONERS RD E,,LONDON,ON, N6C 2T9 ,Canada,(519) 685-3706,,,"Monday - Friday: 09:00 AM - 08:00 PM, Saturday: 08:30 AM - 06:00 PM, Sunday: 11:00 AM - 04:00 PM",,,
FIRST CHOICE HAIRCUTTERS SUMMERSIDE SHOPPING CENTER,,1319 COMMISSIONERS RD E,,LONDON,ON, N6M 0B8 ,Canada,(519) 649-0230,,,"Monday - Friday: 09:00 AM - 08:00 PM, Saturday: 08:30 AM - 06:00 PM, Sunday: 11:00 AM - 04:00 PM",,,
FIRST CHOICE HAIRCUTTERS HYDE PARK,,1320 FANSHAWE PARK RD W # C103,,LONDON,ON, N6G 5B1 ,Canada,(519) 473-8864,,,"Monday - Friday: 09:00 AM - 09:00 PM, Saturday: 08:00 AM - 06:00 PM, Sunday: 10:00 AM - 05:00 PM",,,
FIRST CHOICE HAIRCUTTERS COMMISSIONERS COURT,,509 COMMISSIONERS RD W,,LONDON,ON, N6J 1Y5 ,Canada,(519) 473-4597,,,"Monday - Friday: 09:00 AM - 09:00 PM, Saturday: 08:30 AM - 06:00 PM, Sunday: 11:00 AM - 04:00 PM",,,
FIRST CHOICE HAIRCUTTERS BELLWOOD PLAZA,,900 OXFORD ST E,,LONDON,ON, N5Y 5A1 ,Canada,(519) 451-2662,,,"Monday - Friday: 09:00 AM - 09:00 PM, Saturday: 08:30 AM - 06:00 PM, Sunday: 11:00 AM - 04:00 PM",,,
FIRST CHOICE HAIRCUTTERS,,840 WELLINGTON RD S,,LONDON,ON, N6E 1L9 ,Canada,(519) 685-1750,,,"Monday - Friday: 09:00 AM - 09:00 PM, Saturday: 08:30 AM - 06:00 PM, Sunday: 11:00 AM - 04:00 PM",,,
FIRST CHOICE HAIRCUTTERS,,654 WONDERLAND ROAD N,,LONDON,ON, N6H 3E5 ,Canada,(519) 473-9586,,,"Monday - Friday: 09:00 AM - 09:00 PM, Saturday: 08:30 AM - 06:00 PM, Sunday: 11:00 AM - 04:00 PM",,,
FIRST CHOICE HAIRCUTTERS,,305 BOLER RD,,LONDON,ON, N6K 2K1 ,Canada,(519) 473-1020,,,"Monday - Friday: 09:00 AM - 09:00 PM, Saturday: 08:00 AM - 06:00 PM, Sunday: 10:00 AM - 05:00 PM",,,
FIRST CHOICE HAIRCUTTERS,,1920 DUNDAS E,,LONDON,ON, N5V 1P5 ,Canada,(519) 451-0580,,,"Monday - Friday: 09:00 AM - 09:00 PM, Saturday: 08:30 AM - 06:00 PM, Sunday: 11:00 AM - 04:00 PM",,,
FIRST CHOICE HAIRCUTTERS,,11 BASELINE RD E UNIT 3,,LONDON,ON, N6C 2N6 ,Canada,(519) 434-5540,,,"Monday - Friday: 09:00 AM - 09:00 PM, Saturday: 08:30 AM - 06:00 PM, Sunday: 11:00 AM - 04:00 PM",,,
FIRST CHOICE HAIRCUTTERS,,101 FANSHAWE PARK RD E,,LONDON,ON, N5X 2S7 ,Canada,(519) 663-9502,,,"Monday - Friday: 09:00 AM - 09:00 PM, Saturday: 08:00 AM - 06:00 PM, Sunday: 10:00 AM - 05:00 PM",,,
FIRST CHOICE HAIRCUTTERS EAGLES LANDING,,I4-1380 MAJOR MACKENZIE DR,,MAPLE,ON, L6A 4H6 ,Canada,(905) 832-6151,,,Please contact the salon to confirm hours of operation.,,,
FIRST CHOICE HAIRCUTTERS,,8601 WARDEN AVE,,MARKHAM,ON, L3R 0B5 ,Canada,(905) 513-6664,,,"Monday - Friday: 09:00 AM - 09:00 PM, Saturday: 09:00 AM - 06:00 PM, Sunday: 10:00 AM - 04:00 PM",,,
FIRST CHOICE HAIRCUTTERS,,5460 HIGHWAY 7,,MARKHAM,ON, L3P 1B7 ,Canada,(905) 471-4888,,,"Monday - Friday: 09:00 AM - 08:00 PM, Saturday: 09:00 AM - 06:00 PM, Sunday: 10:00 AM - 04:00 PM",,,
FIRST CHOICE HAIRCUTTERS,,ROUTE 2 HIGHWAY 8,,GODERICH,ON, N7A 3X8 ,Canada,(519) 524-1673,,,"Monday - Friday: 09:00 AM - 09:00 PM, Saturday: 09:00 AM - 06:00 PM, Sunday: Closed",,,
FIRST CHOICE HAIRCUTTERS,,2187 OGILVIE RD,,GLOUCESTER,ON, K1J 8Y6 ,Canada,(613) 744-3382,,,"Monday - Friday: 09:00 AM - 08:00 PM, Saturday: 09:00 AM - 05:00 PM, Sunday: 11:00 AM - 04:00 PM",,,
FIRST CHOICE HAIRCUTTERS,,5 MOUNTAINVIEW RD,,GEORGETOWN,ON, L7G 4T3 ,Canada,(905) 873-1339,,,"Monday: 09:00 AM - 08:00 PM, Tuesday: 09:00 AM - 08:00 PM, Wednesday: 09:00 AM - 08:00 PM, Thursday: 09:00 AM - 08:00 PM, Friday: 09:00 AM - 08:00 PM, Saturday: 08:00 AM - 05:00 PM, Sunday: Closed",,,
FIRST CHOICE HAIRCUTTERS,,886 TOWER ST S,,FERGUS,ON, N1M 2R2 ,Canada,(519) 787-0776,,,"Monday - Friday: 09:00 AM - 08:30 PM, Saturday: 09:00 AM - 05:30 PM, Sunday: Closed",,,
FIRST CHOICE HAIRCUTTERS,,310 GARRISON RD,,FORT ERIE,ON, L2A 1M7 ,Canada,(905) 994-1563,,,"Monday - Friday: 09:00 AM - 09:00 PM, Saturday: 08:00 AM - 06:00 PM, Sunday: 10:00 AM - 05:00 PM",,,
FIRST CHOICE HAIRCUTTERS,,10 WELLINGTON ST W,,EXETER,ON, N0M 1S2 ,Canada,(519) 235-3580,,,"Monday: 09:00 AM - 06:00 PM, Tuesday: 09:00 AM - 06:00 PM, Wednesday: 09:00 AM - 06:00 PM, Thursday: 09:00 AM - 08:00 PM, Friday: 09:00 AM - 08:00 PM, Saturday: 09:00 AM - 06:00 PM, Sunday: Closed",,,
FIRST CHOICE HAIRCUTTERS PLACE D'EMBRUN MALL,,767 NOTRE DAME ST,,EMBRUN,ON, K0A 1W1 ,Canada,(613) 443-9472,,,"Monday: 09:30 AM - 06:00 PM, Tuesday: 09:30 AM - 06:00 PM, Wednesday: 09:30 AM - 06:00 PM, Thursday: 09:30 AM - 08:00 PM, Friday: 09:30 AM - 08:00 PM, Saturday: 09:00 AM - 05:00 PM, Sunday: Closed",,,
FIRST CHOICE HAIRCUTTERS REXDALE SHOPPING CENTRE,,2261 ISLINGTON AVE,,ETOBICOKE,ON, M9W 3W6 ,Canada,(416) 743-4515,,,"Monday - Friday: 09:00 AM - 09:00 PM, Saturday: 08:00 AM - 06:00 PM, Sunday: 10:00 AM - 04:00 PM",,,
FIRST CHOICE HAIRCUTTERS GREEN LANE CENTRE,,2-18130 YONGE STREET,,EAST GWILLIMBURY,ON, L9N 0J3 ,Canada,(905) 967-0946,,,"Monday - Friday: 09:00 AM - 09:00 PM, Saturday: 09:00 AM - 06:00 PM, Sunday: 10:00 AM - 04:00 PM",,,
FIRST CHOICE HAIRCUTTERS,,3843 BLOOR ST W,,ETOBICOKE,ON, M9B 1K9 ,Canada,(416) 233-4287,,,"Monday - Friday: 09:00 AM - 09:00 PM, Saturday: 09:00 AM - 06:00 PM, Sunday: 10:00 AM - 04:00 PM",,,
FIRST CHOICE HAIRCUTTERS,,3-1021 WILSON AVE,,DOWNSVIEW,ON, M3K 1G6 ,Canada,(416) 636-6796,,,"Monday - Friday: 09:00 AM - 09:00 PM, Saturday: 09:00 AM - 06:00 PM, Sunday: 11:00 AM - 04:00 PM",,,
FIRST CHOICE HAIRCUTTERS SEAWAY PLAZA,,1400 VINCENT MASSEY DR,,CORNWALL,ON, K6J 5N4 ,Canada,(613) 938-7026,,,"Monday - Friday: 09:00 AM - 09:00 PM, Saturday: 09:00 AM - 06:00 PM, Sunday: 10:00 AM - 04:00 PM",,,
FIRST CHOICE HAIRCUTTERS COLLINGWOOD CENTER,,99 BALSAM ST,,COLLINGWOOD,ON, L9Y 3Y6 ,Canada,(705) 443-8522,,,"Monday: 09:00 AM - 06:00 PM, Tuesday: 09:00 AM - 06:00 PM, Wednesday: 09:00 AM - 06:00 PM, Thursday: 09:00 AM - 06:00 PM, Friday: 09:00 AM - 08:00 PM, Saturday: 09:00 AM - 05:00 PM, Sunday: 11:00 AM - 04:00 PM",,,
FIRST CHOICE HAIRCUTTERS,,3-1 STRATHY RD,,COBOURG,ON, K9A 5J6 ,Canada,(905) 373-0609,,,"Monday - Friday: 09:00 AM - 09:00 PM, Saturday: 08:00 AM - 06:00 PM, Sunday: Closed",,,
FIRST CHOICE HAIRCUTTERS,,355 FRANKTOWN RD,,CARLETON PLACE,ON, K7C 4M6 ,Canada,(613) 253-8841,,,"Monday: 09:00 AM - 06:00 PM, Tuesday: 09:00 AM - 06:00 PM, Wednesday: 09:00 AM - 06:00 PM, Thursday: 09:00 AM - 09:00 PM, Friday: 09:00 AM - 09:00 PM, Saturday: 08:00 AM - 06:00 PM, Sunday: Closed",,,
FIRST CHOICE HAIRCUTTERS NORTOWN CENTRE,,440 SAINT CLAIR STREET,,CHATHAM,ON, N7L 3K5 ,Canada,(519) 351-6188,,,"Monday - Friday: 09:00 AM - 08:00 PM, Saturday: 09:00 AM - 06:00 PM, Sunday: 11:00 AM - 04:00 PM",,,
FIRST CHOICE HAIRCUTTERS,,415 HESPELER RD,,CAMBRIDGE,ON, N1R 6J1 ,Canada,(519) 622-2662,,,"Monday - Friday: 09:00 AM - 09:00 PM, Saturday: 08:30 AM - 06:00 PM, Sunday: 11:00 AM - 04:00 PM",,,
FIRST CHOICE HAIRCUTTERS,,200 FRANKLIN BLVD,,CAMBRIDGE,ON, N1R 5S2 ,Canada,(519) 740-3132,,,"Monday - Friday: 09:00 AM - 09:00 PM, Saturday: 09:00 AM - 06:00 PM, Sunday: 11:00 AM - 04:00 PM",,,
FIRST CHOICE HAIRCUTTERS,,180 HOLIDAY INN DR UNIT 11,,CAMBRIDGE,ON, N3C 1Z4 ,Canada,(519) 658-5694,,,"Monday - Friday: 09:00 AM - 09:00 PM, Saturday: 09:00 AM - 06:00 PM, Sunday: 11:00 AM - 04:00 PM",,,
FIRST CHOICE HAIRCUTTERS,,263 ARGYLE ST S,,CALEDONIA,ON, N3W 1K7 ,Canada,(905) 765-0826,,,"Monday - Friday: 09:00 AM - 09:00 PM, Saturday: 08:00 AM - 06:00 PM, Sunday: 10:00 AM - 05:00 PM",,,
FIRST CHOICE HAIRCUTTERS BURLINGTON GATEWAY NORTH,,4521 DUNDAS ST UNIT F,,BURLINGTON,ON, L7M 5B4 ,Canada,(905) 315-9870,,,"Monday - Friday: 09:00 AM - 09:00 PM, Saturday: 09:00 AM - 06:00 PM, Sunday: 10:00 AM - 04:00 PM",,,
FIRST CHOICE HAIRCUTTERS,,700 GUELPH LINE,,BURLINGTON,ON, L7R 3M8 ,Canada,(905) 632-4651,,,"Monday - Friday: 09:00 AM - 09:00 PM, Saturday: 08:00 AM - 06:00 PM, Sunday: 11:00 AM - 04:00 PM",,,
FIRST CHOICE HAIRCUTTERS,,450 APPLEBY LINE,,BURLINGTON,ON, L7L 2Y2 ,Canada,(905) 637-0648,,,"Monday - Friday: 08:00 AM - 09:00 PM, Saturday: 08:00 AM - 06:00 PM, Sunday: 10:00 AM - 05:00 PM",,,
FIRST CHOICE HAIRCUTTERS,,3550 DUNDAS ST W UNIT C4,,BURLINGTON,ON, L7M 4B8 ,Canada,(905) 319-9455,,,"Monday - Friday: 09:00 AM - 09:00 PM, Saturday: 08:00 AM - 06:00 PM, Sunday: 11:00 AM - 04:00 PM",,,
FIRST CHOICE HAIRCUTTERS,,298 HURONTARIO STREET,,COLLINGWOOD,ON, L9Y 2M3 ,Canada,(705) 445-8888,,,"Monday - Friday: 09:00 AM - 06:00 PM, Saturday: 09:00 AM - 05:00 PM, Sunday: Closed",,,
FIRST CHOICE HAIRCUTTERS GLENGARRY SQUARE,,1319 2ND STREET EAST,,CORNWALL,ON, K6H 7C4 ,Canada,(613) 938-2829,,,"Monday - Friday: 09:00 AM - 09:00 PM, Saturday: 09:00 AM - 06:00 PM, Sunday: 10:00 AM - 04:00 PM",,,
FIRST CHOICE HAIRCUTTERS CORNWALL PLAZA,,31 9TH STREET E,,CORNWALL,ON, K6H 6R3 ,Canada,(613) 936-1746,,,"Monday - Friday: 09:00 AM - 09:00 PM, Saturday: 09:00 AM - 06:00 PM, Sunday: 10:00 AM - 04:00 PM",,,
FIRST CHOICE HAIRCUTTERS TRINITY COMMON,,2013 10TH LINE RD UNIT 15,,CUMBERLAND,ON, K4A 4C5 ,Canada,(613) 590-7725,,,"Monday - Friday: 09:00 AM - 08:00 PM, Saturday: 09:00 AM - 05:00 PM, Sunday: 10:00 AM - 04:00 PM",,,
FIRST CHOICE HAIRCUTTERS,,711 KING ST E,,GANANOQUE,ON, K7G 1H4 ,Canada,(613) 382-1635,,,"Monday: 09:00 AM - 06:00 PM, Tuesday: 09:00 AM - 06:00 PM, Wednesday: 09:00 AM - 06:00 PM, Thursday: 09:00 AM - 09:00 PM, Friday: 09:00 AM - 09:00 PM, Saturday: 08:00 AM - 06:00 PM, Sunday: Closed",,,
FIRST CHOICE HAIRCUTTERS,,333 MOUNTAINVIEW RD S,,GEORGETOWN,ON, L7G 6E8 ,Canada,(905) 877-6600,,,"Monday: 09:00 AM - 08:00 PM, Tuesday: 09:00 AM - 08:00 PM, Wednesday: 09:00 AM - 08:00 PM, Thursday: 09:00 AM - 08:00 PM, Friday: 09:00 AM - 08:00 PM, Saturday: 09:00 AM - 05:00 PM, Sunday: 11:00 AM - 04:00 PM",,,
FIRST CHOICE HAIRCUTTERS BRANTFORD MALL,,300 KING GEORGE ST UNIT 2,,BRANTFORD,ON, N3R 5L8 ,Canada,(519) 758-9229,,,"Monday - Friday: 09:00 AM - 09:00 PM, Saturday: 08:30 AM - 06:00 PM, Sunday: 11:00 AM - 04:00 PM",,,
FIRST CHOICE HAIRCUTTERS BRANTFORD COMMONS,,50 MARKET ST S,,BRANTFORD,ON, N3S 2E3 ,Canada,(519) 753-3222,,,"Monday - Friday: 09:00 AM - 09:00 PM, Saturday: 08:00 AM - 05:00 PM, Sunday: Closed",,,
FIRST CHOICE HAIRCUTTERS HOLLAND STREET SQUARE,,478 HOLLAND ST W,,BRADFORD,ON, L3Z 0A2 ,Canada,(905) 775-3131,,,"Monday: 09:00 AM - 08:00 PM, Tuesday: 09:00 AM - 08:00 PM, Wednesday: 09:00 AM - 08:00 PM, Thursday: 09:00 AM - 08:00 PM, Friday: 09:00 AM - 08:00 PM, Saturday: 09:00 AM - 05:00 PM, Sunday: 10:00 AM - 05:00 PM",,,
FIRST CHOICE HAIRCUTTERS,,87 KING ST E,,BOWMANVILLE,ON, L1C 1N4 ,Canada,(905) 623-6444,,,"Monday: 09:00 AM - 06:00 PM, Tuesday: 09:00 AM - 06:00 PM, Wednesday: 09:00 AM - 06:00 PM, Thursday: 09:00 AM - 09:00 PM, Friday: 09:00 AM - 09:00 PM, Saturday: 08:00 AM - 06:00 PM, Sunday: Closed",,,
FIRST CHOICE HAIRCUTTERS,,40 MCEWAN RD,,BOLTON,ON, L7E 2Y3 ,Canada,(905) 951-0382,,,"Monday - Friday: 09:00 AM - 09:00 PM, Saturday: 08:30 AM - 05:30 PM, Sunday: 11:00 AM - 04:00 PM",,,
FIRST CHOICE HAIRCUTTERS,,248 MANITOBA ST UNIT 6,,BRACEBRIDGE,ON, P1L 2E1 ,Canada,(705) 646-1141,,,"Monday: 09:00 AM - 06:00 PM, Tuesday: 09:00 AM - 06:00 PM, Wednesday: 09:00 AM - 06:00 PM, Thursday: 09:00 AM - 06:00 PM, Friday: 09:00 AM - 08:00 PM, Saturday: 09:00 AM - 05:00 PM, Sunday: Closed",,,
FIRST CHOICE HAIRCUTTERS,,211 N FRONT ST,,BELLEVILLE,ON, K8P 3C3 ,Canada,(613) 968-8344,,,"Monday - Friday: 09:00 AM - 09:00 PM, Saturday: 08:00 AM - 06:00 PM, Sunday: 10:00 AM - 04:00 PM",,,
FIRST CHOICE HAIRCUTTERS,,147 BELL BLVD,,BELLEVILLE,ON, K8P 5N8 ,Canada,(613) 771-1452,,,"Monday - Friday: 09:00 AM - 09:00 PM, Saturday: 08:00 AM - 06:00 PM, Sunday: 10:00 AM - 04:00 PM",,,
FIRST CHOICE HAIRCUTTERS COMMISSOS PLAZA,,4961 KING ST E SUITE 11A,,BEAMSVILLE,ON, L0R 1B0 ,Canada,(905) 563-1458,,,"Monday: 09:00 AM - 06:00 PM, Tuesday: 09:00 AM - 06:00 PM, Wednesday: 09:00 AM - 06:00 PM, Thursday: 09:00 AM - 09:00 PM, Friday: 09:00 AM - 09:00 PM, Saturday: 08:00 AM - 06:00 PM, Sunday: 11:00 AM - 04:00 PM",,,
FIRST CHOICE HAIRCUTTERS BARRIE POWER CENTER,,19 MAPLEVIEW DR,,BARRIE,ON, L4M 4S7 ,Canada,(705) 727-1935,,,"Monday - Friday: 09:00 AM - 09:00 PM, Saturday: 09:00 AM - 05:00 PM, Sunday: 11:00 AM - 04:00 PM",,,
FIRST CHOICE HAIRCUTTERS,,395 DANIEL ST S,,ARNPRIOR,ON, K7S 3G9 ,Canada,(613) 623-2878,,,"Monday: 09:00 AM - 06:00 PM, Tuesday: 09:00 AM - 06:00 PM, Wednesday: 09:00 AM - 06:00 PM, Thursday: 09:00 AM - 07:00 PM, Friday: 09:00 AM - 07:00 PM, Saturday: 09:00 AM - 05:00 PM, Sunday: Closed",,,
FIRST CHOICE HAIRCUTTERS,,73 WILSON AVENUE W UNIT B4,,ANCASTER,ON, L9G 2B3 ,Canada,(905) 648-8707,,,"Monday - Friday: 09:00 AM - 09:00 PM, Saturday: 08:00 AM - 06:00 PM, Sunday: 11:00 AM - 04:00 PM",,,
FIRST CHOICE HAIRCUTTERS FORT MALDEN MALL,,400 SANDWICH ST UNIT 800,,AMHERSTBURG,ON, N9V 3L4 ,Canada,(519) 736-8803,,,"Monday - Friday: 09:00 AM - 09:00 PM, Saturday: 09:00 AM - 06:00 PM, Sunday: Closed",,,
FIRST CHOICE HAIRCUTTERS ZEHRS PLAZA,,36 YOUNG ST UNIT R3,,ALLISTON,ON, L9R 1K5 ,Canada,(705) 435-0346,,,"Monday - Friday: 09:00 AM - 09:00 PM, Saturday: 09:00 AM - 06:00 PM, Sunday: 10:00 AM - 05:00 PM",,,
FIRST CHOICE HAIRCUTTERS COMMERCE PLAZA,,7 COMMERCE ROAD,,ANGUS,ON, L0M 1B2 ,Canada,(705) 424-6153,,,"Monday: 09:00 AM - 07:00 PM, Tuesday: 09:00 AM - 07:00 PM, Wednesday: 09:00 AM - 07:00 PM, Thursday: 09:00 AM - 08:00 PM, Friday: 09:00 AM - 08:00 PM, Saturday: 09:00 AM - 05:00 PM, Sunday: 10:00 AM - 04:00 PM",,,
FIRST CHOICE HAIRCUTTERS,,15440 BAYVIEW AVE UNIT 8,,AURORA,ON, L4G 7J1 ,Canada,(905) 727-6359,,,"Monday - Friday: 09:00 AM - 09:00 PM, Saturday: 09:00 AM - 06:00 PM, Sunday: 10:00 AM - 04:00 PM",,,
FIRST CHOICE HAIRCUTTERS WESTNEY HEIGHTS PLAZA,,15 WESTNEY RD N,,AJAX,ON, L1T 1P5 ,Canada,(905) 428-6824,,,"Monday: 09:00 AM - 07:30 PM, Tuesday: 09:00 AM - 07:30 PM, Wednesday: 09:00 AM - 08:00 PM, Thursday: 09:00 AM - 08:00 PM, Friday: 09:00 AM - 08:00 PM, Saturday: 08:00 AM - 06:00 PM, Sunday: 10:00 AM - 04:00 PM",,,
FIRST CHOICE HAIRCUTTERS RANCH MARKET,,105D-100 RANCH MARKET,,STRATHMORE,AB, T1P 0A8 ,Canada,(403) 934-3247,,,"Monday: 09:30 AM - 06:00 PM, Tuesday: 09:30 AM - 06:00 PM, Wednesday: 09:30 AM - 06:00 PM, Thursday: 09:00 AM - 08:00 PM, Friday: 09:00 AM - 08:00 PM, Saturday: 09:00 AM - 05:00 PM, Sunday: 10:30 AM - 04:00 PM",,,
FIRST CHOICE HAIRCUTTERS RIVERCREST PLAZA,,367 ST ALBERT TRAIL,,ST.ALBERT,AB, T8N 0R1 ,Canada,(780) 459-0787,,,"Monday: 09:00 AM - 06:00 PM, Tuesday: 09:00 AM - 06:00 PM, Wednesday: 09:00 AM - 06:00 PM, Thursday: 09:00 AM - 06:00 PM, Friday: 09:00 AM - 06:00 PM, Saturday: 09:00 AM - 05:00 PM, Sunday: Closed",,,
FIRST CHOICE HAIRCUTTERS ACTON MARKET PLACE,,372 QUEEN ST E,,ACTON,ON, L7J 2Y5 ,Canada,(519) 853-2116,,,"Monday: 09:00 AM - 08:00 PM, Tuesday: 09:00 AM - 08:00 PM, Wednesday: 09:00 AM - 08:00 PM, Thursday: 09:00 AM - 08:00 PM, Friday: 09:00 AM - 08:00 PM, Saturday: 09:00 AM - 05:00 PM, Sunday: Closed",,,
FIRST CHOICE HAIRCUTTERS BAYWOOD CENTRE,,5B-105 BAYLY ST W,,AJAX,ON, L1S 7K7 ,Canada,(905) 683-3650,,,"Monday - Friday: 09:00 AM - 08:00 PM, Saturday: 08:00 AM - 06:00 PM, Sunday: 10:00 AM - 04:00 PM",,,
FIRST CHOICE HAIRCUTTERS,,65 KINGSTON RD E,,AJAX,ON, L1S 7J4 ,Canada,(905) 427-6776,,,"Monday: 09:00 AM - 07:30 PM, Tuesday: 09:00 AM - 07:30 PM, Wednesday: 09:00 AM - 08:00 PM, Thursday: 09:00 AM - 08:00 PM, Friday: 09:00 AM - 08:00 PM, Saturday: 08:00 AM - 06:00 PM, Sunday: 10:00 AM - 04:00 PM",,,
FIRST CHOICE HAIRCUTTERS ALLANDALE PLAZA,,279 YONGE STREET UNIT 8,,BARRIE,ON, L4N 2T9 ,Canada,(705) 725-8919,,,"Monday - Friday: 09:00 AM - 09:00 PM, Saturday: 09:00 AM - 05:00 PM, Sunday: 11:00 AM - 04:00 PM",,,
FIRST CHOICE HAIRCUTTERS,,462 BAYFIELD STREET,,BARRIE,ON, L4M 5A2 ,Canada,(705) 726-7705,,,"Monday - Friday: 09:00 AM - 09:00 PM, Saturday: 09:00 AM - 05:00 PM, Sunday: 11:00 AM - 04:00 PM",,,
FIRST CHOICE HAIRCUTTERS,,410 ESSA ROAD UNIT A2,,BARRIE,ON, L4N 9J7 ,Canada,(705) 739-4031,,,"Monday - Friday: 09:00 AM - 09:00 PM, Saturday: 09:00 AM - 05:00 PM, Sunday: 11:00 AM - 04:00 PM",,,
FIRST CHOICE HAIRCUTTERS,,360 BAYFIELD STREET N,,BARRIE,ON, L4M 3C4 ,Canada,(705) 722-5212,,,"Monday - Friday: 09:00 AM - 09:00 PM, Saturday: 09:00 AM - 05:00 PM, Sunday: 11:00 AM - 04:00 PM",,,
FIRST CHOICE HAIRCUTTERS TRINITY COMMONS PLAZA,,110 GREAT LAKES DR,,BRAMPTON,ON, L6R 2K7 ,Canada,(905) 799-6209,,,"Monday - Friday: 09:00 AM - 09:00 PM, Saturday: 08:30 AM - 06:00 PM, Sunday: 10:00 AM - 04:00 PM",,,
FIRST CHOICE HAIRCUTTERS SPRINGDALE SQUARE,,55 MOUNTAINASH RD UNIT 11,,BRAMPTON,ON, L6R 1W4 ,Canada,(905) 791-6601,,,"Monday - Friday: 09:00 AM - 09:00 PM, Saturday: 08:30 AM - 06:00 PM, Sunday: 11:00 AM - 05:00 PM",,,
FIRST CHOICE HAIRCUTTERS ROCKING CHAIR PLAZA,,2200 QUEEN ST E,,BRAMPTON,ON, L6S 4G9 ,Canada,(905) 791-4545,,,"Monday - Friday: 09:00 AM - 08:00 PM, Saturday: 09:00 AM - 06:00 PM, Sunday: 10:00 AM - 04:00 PM",,,
FIRST CHOICE HAIRCUTTERS HEART LAKE CENTER,,180-B SANDALWOOD PKWY E,,BRAMPTON,ON, L6Z 1Y4 ,Canada,(905) 846-4816,,,"Monday - Friday: 09:00 AM - 09:00 PM, Saturday: 08:30 AM - 06:00 PM, Sunday: 11:00 AM - 05:00 PM",,,
FIRST CHOICE HAIRCUTTERS FLETCHER'S MEADOW,,20 BRISDALE DRIVE UNIT B2,,BRAMPTON,ON, L7A 3G1 ,Canada,(905) 495-4516,,,"Monday - Friday: 09:00 AM - 09:00 PM, Saturday: 08:30 AM - 06:00 PM, Sunday: 10:00 AM - 04:00 PM",,,
FIRST CHOICE HAIRCUTTERS CREDIT RIDGE COMMONS,,9445 MISSISSAUGA RD N BLDG F,,BRAMPTON,ON, L6X 0Z8 ,Canada,(905) 457-3335,,,"Monday - Friday: 09:00 AM - 09:00 PM, Saturday: 09:00 AM - 06:00 PM, Sunday: 10:00 AM - 05:00 PM",,,
FIRST CHOICE HAIRCUTTERS BRAMALEA CITY CENTRE,,100 PEEL CENTRE DRIVE,,BRAMPTON,ON, L6T 3R5 ,Canada,(905) 494-0499,,,"Monday - Friday: 09:00 AM - 09:00 PM, Saturday: 09:00 AM - 06:00 PM, Sunday: 10:00 AM - 05:00 PM",,,
FIRST CHOICE HAIRCUTTERS BEECH VILLAGE PLAZA,,320 MAIN STREET N UNIT 6,,BRAMPTON,ON, L6V 4A3 ,Canada,(905) 454-4020,,,"Monday - Friday: 09:00 AM - 09:00 PM, Saturday: 08:30 AM - 06:00 PM, Sunday: 10:00 AM - 04:00 PM",,,
FIRST CHOICE HAIRCUTTERS,,74 QUARRY EDGE DR,,BRAMPTON,ON, L6V 4K2 ,Canada,(905) 451-5411,,,"Monday - Friday: 09:00 AM - 09:00 PM, Saturday: 08:30 AM - 06:00 PM, Sunday: 10:00 AM - 04:00 PM",,,
FIRST CHOICE HAIRCUTTERS,,1 BARTLEY BULL PKWY,,BRAMPTON,ON, L6W 3T7 ,Canada,(905) 456-2118,,,"Monday - Friday: 09:00 AM - 09:00 PM, Saturday: 08:30 AM - 06:00 PM, Sunday: 11:00 AM - 05:00 PM",,,
FIRST CHOICE HAIRCUTTERS,,39 KING GEORGE ROAD,,BRANTFORD,ON, N3R 5K2 ,Canada,(519) 759-3066,,,"Monday - Friday: 09:00 AM - 09:00 PM, Saturday: 08:30 AM - 06:00 PM, Sunday: 11:00 AM - 04:00 PM",,,
FIRST CHOICE HAIRCUTTERS,,320 COLBORNE ST W,,BRANTFORD,ON, N3S 3M9 ,Canada,(519) 753-0006,,,"Monday - Friday: 09:00 AM - 09:00 PM, Saturday: 08:00 AM - 05:00 PM, Sunday: Closed",,,
FIRST CHOICE HAIRCUTTERS,,329 STEWART BLVD,,BROCKVILLE,ON, K6V 4W8 ,Canada,(613) 342-2500,,,"Monday - Friday: 09:00 AM - 09:00 PM, Saturday: 08:00 AM - 06:00 PM, Sunday: Closed",,,
FIRST CHOICE HAIRCUTTERS,,3-1958 PARKEDALE AVE,,BROCKVILLE,ON, K6V 7N4 ,Canada,(613) 342-4395,,,"Monday - Friday: 09:00 AM - 09:00 PM, Saturday: 08:00 AM - 06:00 PM, Sunday: 10:00 AM - 04:00 PM",,,
FIRST CHOICE HAIRCUTTERS,,24-96 CAMPSITE RD,,SPRUCE GROVE,AB, T7X 4J3 ,Canada,(780) 962-1716,,,"Monday: 09:00 AM - 08:00 PM, Tuesday: 09:00 AM - 08:00 PM, Wednesday: 09:00 AM - 08:00 PM, Thursday: 09:00 AM - 08:00 PM, Friday: 09:00 AM - 08:00 PM, Saturday: 09:00 AM - 05:00 PM, Sunday: 10:00 AM - 04:00 PM",,,
FIRST CHOICE HAIRCUTTERS EMERALD HILLS CENTRE,,515-5000 EMERALD DR SUITE 104,,SHERWOOD PARK,AB, T8H 0P5 ,Canada,(780) 570-5176,,,"Monday: 10:00 AM - 06:00 PM, Tuesday: 10:00 AM - 06:00 PM, Wednesday: 10:00 AM - 06:00 PM, Thursday: 10:00 AM - 08:00 PM, Friday: 10:00 AM - 08:00 PM, Saturday: 10:00 AM - 05:00 PM, Sunday: 12:00 PM - 05:00 PM",,,
FIRST CHOICE HAIRCUTTERS FIRST ST.ALBERT DEVELOPMENTS,,215-700 SAINT ALBERT TRAIL,,SAINT ALBERT,AB, T8N 7A5 ,Canada,(780) 418-0117,,,"Monday: 09:00 AM - 08:00 PM, Tuesday: 09:00 AM - 08:00 PM, Wednesday: 09:00 AM - 08:00 PM, Thursday: 09:00 AM - 08:00 PM, Friday: 10:00 AM - 06:00 PM, Saturday: 09:00 AM - 05:00 PM, Sunday: 11:00 AM - 05:00 PM",,,
FIRST CHOICE HAIRCUTTERS GAETZ CROSSING,,5250 22ND STREET SUITE 30D,,RED DEER,AB, T4R 2R4 ,Canada,(403) 348-8081,,,"Monday - Friday: 09:30 AM - 09:00 PM, Saturday: 09:00 AM - 06:00 PM, Sunday: 10:00 AM - 05:00 PM",,,
FIRST CHOICE HAIRCUTTERS CORNERSTONE OKOTOKS PLAZA,,741-201 SOUTHRIDGE DR,,OKOTOKS,AB, T1S 2E1 ,Canada,(403) 938-7684,,,"Monday: 09:00 AM - 05:30 PM, Tuesday: 09:00 AM - 05:30 PM, Wednesday: 09:00 AM - 08:00 PM, Thursday: 09:00 AM - 08:00 PM, Friday: 09:00 AM - 05:30 PM, Saturday: 09:00 AM - 05:00 PM, Sunday: Closed",,,
FIRST CHOICE HAIRCUTTERS DUNMORE PLAZA,,3180 DUNMORE RD SE,,MEDICINE HAT,AB, T1B 2X2 ,Canada,(403) 527-5052,,,"Monday: 09:00 AM - 05:30 PM, Tuesday: 09:00 AM - 05:30 PM, Wednesday: 09:00 AM - 05:30 PM, Thursday: 09:00 AM - 08:00 PM, Friday: 09:00 AM - 06:00 PM, Saturday: 09:00 AM - 05:00 PM, Sunday: Closed",,,
FIRST CHOICE HAIRCUTTERS WEST LETHBRIDGE TOWNE CENTRE,,19-550 UNVERSITY DR W,,LETHBRIDGE,AB, T1J 4T3 ,Canada,(403) 327-3499,,,"Monday: Closed, Tuesday: 09:00 AM - 05:30 PM, Wednesday: 09:00 AM - 05:30 PM, Thursday: 09:00 AM - 08:00 PM, Friday: 09:00 AM - 05:30 PM, Saturday: 09:00 AM - 05:00 PM, Sunday: Closed",,,
FIRST CHOICE HAIRCUTTERS TERRA LOSA CORNERS,,17711 98A AVE NW,,EDMONTON,AB, T5T 5W8 ,Canada,(780) 489-3376,,,"Monday: 09:00 AM - 08:00 PM, Tuesday: 09:00 AM - 08:00 PM, Wednesday: 09:00 AM - 08:00 PM, Thursday: 09:00 AM - 08:00 PM, Friday: 09:00 AM - 08:00 PM, Saturday: 09:00 AM - 05:00 PM, Sunday: 11:00 AM - 05:00 PM",,,
FIRST CHOICE HAIRCUTTERS SOUTH EDMONTON COMMONS,,2059 98TH ST,,EDMONTON,AB, T6N 1K2 ,Canada,(780) 433-5333,,,"Monday: 09:00 AM - 08:00 PM, Tuesday: 09:00 AM - 08:00 PM, Wednesday: 09:00 AM - 08:00 PM, Thursday: 09:00 AM - 08:00 PM, Friday: 09:00 AM - 08:00 PM, Saturday: 09:00 AM - 05:00 PM, Sunday: 11:00 AM - 05:00 PM",,,
FIRST CHOICE HAIRCUTTERS SOBEY'S SHOPPING CENTRE,,5802 50TH STREET UNIT 110,,BEAUMONT,AB, T4X 1T8 ,Canada,(780) 929-9731,,,"Monday: 10:00 AM - 06:00 PM, Tuesday: 10:00 AM - 08:00 PM, Wednesday: 10:00 AM - 06:00 PM, Thursday: 10:00 AM - 06:00 PM, Friday: 10:00 AM - 06:00 PM, Saturday: 10:00 AM - 05:00 PM, Sunday: 10:00 AM - 03:00 PM",,,
FIRST CHOICE HAIRCUTTERS,,521 2ND AVE SE,,AIRDRIE,AB, T4B 2C2 ,Canada,(403) 948-3092,,,"Monday: 09:00 AM - 05:30 PM, Tuesday: 09:00 AM - 05:30 PM, Wednesday: 09:00 AM - 08:00 PM, Thursday: 09:00 AM - 08:00 PM, Friday: 09:00 AM - 05:30 PM, Saturday: 09:00 AM - 05:00 PM, Sunday: 10:30 AM - 04:00 PM",,,
FIRST CHOICE HAIRCUTTERS SURREY WEST SHOPPING CENTRES,,12477 88TH AVE SUITE C125,,SURREY,BC, V3W 1P8 ,Canada,(604) 501-7271,,,"Monday - Friday: 09:00 AM - 09:00 PM, Saturday: 08:00 AM - 06:00 PM, Sunday: 11:00 AM - 05:00 PM",,,
FIRST CHOICE HAIRCUTTERS SPRUCELAND SHOPPING CENTRE,,639 CENTRAL ST W,,PRINCE GEORGE,BC, V2M 3C6 ,Canada,(250) 564-2471,,,"Monday - Friday: 09:00 AM - 06:00 PM, Saturday: 09:00 AM - 06:00 PM, Sunday: Closed",,,
FIRST CHOICE HAIRCUTTERS,,307-3555 JOHNSTON RD,,PORT ALBERNI,BC, V9Y 8K2 ,Canada,(250) 720-0375,,,"Monday: 09:30 AM - 06:00 PM, Tuesday: 09:30 AM - 06:00 PM, Wednesday: 09:30 AM - 06:00 PM, Thursday: 09:30 AM - 07:30 PM, Friday: 09:30 AM - 07:30 PM, Saturday: 08:00 AM - 06:00 PM, Sunday: 10:00 AM - 04:00 PM",,,
FIRST CHOICE HAIRCUTTERS PENTICTON PLAZA,,1301 MAIN ST,,PENTICTON,BC, V2A 5E9 ,Canada,(236) 422-0813,,,"Monday - Friday: 09:00 AM - 06:00 PM, Saturday: 09:00 AM - 06:00 PM, Sunday: 10:00 AM - 04:00 PM",,,
FIRST CHOICE HAIRCUTTERS WESTHILL CENTRE,,1808 BOWEN RD,,NANAIMO,BC, V9S 1H1 ,Canada,(250) 741-8677,,,"Monday: 09:00 AM - 06:00 PM, Tuesday: 09:00 AM - 06:00 PM, Wednesday: 09:00 AM - 06:00 PM, Thursday: 09:00 AM - 09:00 PM, Friday: 09:00 AM - 09:00 PM, Saturday: 08:00 AM - 06:00 PM, Sunday: 10:00 AM - 04:00 PM",,,
FIRST CHOICE HAIRCUTTERS MISSION HILLS CENTER,,32530 LOUGHEED HWY,,MISSION,BC, V2V 1A5 ,Canada,(604) 826-5313,,,"Monday: 09:00 AM - 07:30 PM, Tuesday: 09:00 AM - 07:30 PM, Wednesday: 09:00 AM - 07:30 PM, Thursday: 09:00 AM - 09:00 PM, Friday: 09:00 AM - 09:00 PM, Saturday: 08:00 AM - 06:00 PM, Sunday: 11:00 AM - 05:00 PM",,,
FIRST CHOICE HAIRCUTTERS CAPRI CENTRE,,1835 GORDON DR,,KELOWNA,BC, V1Y 3H5 ,Canada,(250) 763-6617,,,"Monday - Friday: 09:00 AM - 06:00 PM, Saturday: 09:00 AM - 05:00 PM, Sunday: 11:00 AM - 04:00 PM",,,
FIRST CHOICE HAIRCUTTERS,,301 HIGHWAY 33 W UNIT 43,,KELOWNA,BC, V1X 1X8 ,Canada,(778) 753-7043,,,"Monday - Friday: 09:00 AM - 07:00 PM, Saturday: 09:00 AM - 06:00 PM, Sunday: 10:00 AM - 05:00 PM",,,
FIRST CHOICE HAIRCUTTERS,,208-6339 200TH ST,,LANGLEY,BC, V2Y 1A2 ,Canada,(604) 532-9410,,,"Monday: 09:00 AM - 07:00 PM, Tuesday: 09:00 AM - 07:00 PM, Wednesday: 09:00 AM - 07:00 PM, Thursday: 09:00 AM - 09:00 PM, Friday: 09:00 AM - 09:00 PM, Saturday: 09:00 AM - 06:00 PM, Sunday: 11:00 AM - 05:00 PM",,,
FIRST CHOICE HAIRCUTTERS ROCK CITY CENTRE,,540-2980 ISLAND HIGHWAY N,,NANAIMO,BC, V9T 5V4 ,Canada,(250) 756-1655,,,"Monday: 09:00 AM - 06:00 PM, Tuesday: 09:00 AM - 06:00 PM, Wednesday: 09:00 AM - 06:00 PM, Thursday: 09:00 AM - 07:30 PM, Friday: 09:00 AM - 07:30 PM, Saturday: 08:00 AM - 06:00 PM, Sunday: 10:00 AM - 04:00 PM",,,
FIRST CHOICE HAIRCUTTERS,,6338 METRAL DR,,NANAIMO,BC, V9T 2L8 ,Canada,(250) 390-4765,,,"Monday: 09:00 AM - 06:00 PM, Tuesday: 09:00 AM - 06:00 PM, Wednesday: 09:00 AM - 06:00 PM, Thursday: 09:00 AM - 09:00 PM, Friday: 09:00 AM - 09:00 PM, Saturday: 08:00 AM - 06:00 PM, Sunday: 10:00 AM - 04:00 PM",,,
FIRST CHOICE HAIRCUTTERS LOUGHEED SUPERCENTRE,,109-2210 MAIN ST,,PENTICTON,BC, V2A 5H8 ,Canada,(250) 493-0434,,,"Monday - Friday: 09:00 AM - 07:00 PM, Saturday: 09:00 AM - 06:00 PM, Sunday: 10:00 AM - 04:00 PM",,,
FIRST CHOICE HAIRCUTTERS RIVERSIDE HEIGHTS CENTRE,,14831 108TH AVE,,SURREY,BC, V3R 1W2 ,Canada,(604) 951-0415,,,"Monday - Friday: 09:00 AM - 09:00 PM, Saturday: 09:00 AM - 06:00 PM, Sunday: 11:00 AM - 05:00 PM",,,
FIRST CHOICE HAIRCUTTERS NEWTON TOWN CENTRE,,139-7135 138TH ST,,SURREY,BC, V3W 7T9 ,Canada,(604) 599-9258,,,"Monday: 09:00 AM - 06:00 PM, Tuesday: 09:00 AM - 06:00 PM, Wednesday: 09:00 AM - 06:00 PM, Thursday: 09:00 AM - 09:00 PM, Friday: 09:00 AM - 09:00 PM, Saturday: 09:00 AM - 06:00 PM, Sunday: 11:00 AM - 05:00 PM",,,
FIRST CHOICE HAIRCUTTERS HILLCREST SHOPPING CENTRE,,304-18690 FRASER HWY,,SURREY,BC, V3S 8E7 ,Canada,(604) 575-4202,,,"Monday - Friday: 09:00 AM - 09:00 PM, Saturday: 08:00 AM - 06:00 PM, Sunday: 11:00 AM - 05:00 PM",,,
FIRST CHOICE HAIRCUTTERS FLEETWOOD TOWN SQUARE,,15988 FRASER HWY,,SURREY,BC, V3S 2W5 ,Canada,(604) 597-7228,,,"Monday - Friday: 09:00 AM - 09:00 PM, Saturday: 08:00 AM - 06:00 PM, Sunday: 11:00 AM - 05:00 PM",,,
FIRST CHOICE HAIRCUTTERS WILLOW PARK,,10816 MACLEOD TRL,,CALGARY,AB, T2J 5N8 ,Canada,(403) 271-4678,,,"Monday: 09:00 AM - 05:30 PM, Tuesday: 09:00 AM - 05:30 PM, Wednesday: 09:00 AM - 08:00 PM, Thursday: 09:00 AM - 08:00 PM, Friday: 09:00 AM - 08:00 PM, Saturday: 09:00 AM - 05:00 PM, Sunday: 10:30 AM - 04:00 PM",,,
FIRST CHOICE HAIRCUTTERS SOUTHTRAIL CANADA SAFEWAY,,540-4915 130TH AVE SE,,CALGARY,AB, T2Z 3V8 ,Canada,(403) 247-1335,,,"Monday: 09:00 AM - 08:00 PM, Tuesday: 09:00 AM - 08:00 PM, Wednesday: 09:00 AM - 08:00 PM, Thursday: 09:00 AM - 08:00 PM, Friday: 09:00 AM - 08:00 PM, Saturday: 09:00 AM - 05:00 PM, Sunday: 10:30 AM - 04:00 PM",,,
FIRST CHOICE HAIRCUTTERS SHOPPES AT SHAWNESSEY,,275 SHAWVILLE BLVD SE,,CALGARY,AB, T2Y 3H9 ,Canada,(403) 254-4211,,,"Monday: 09:00 AM - 08:00 PM, Tuesday: 09:00 AM - 08:00 PM, Wednesday: 09:00 AM - 08:00 PM, Thursday: 09:00 AM - 08:00 PM, Friday: 09:00 AM - 08:00 PM, Saturday: 09:00 AM - 05:00 PM, Sunday: 10:30 AM - 04:00 PM",,,
FIRST CHOICE HAIRCUTTERS SHOPPES AT MARDA STATION,,117-2215 33RD AVE SW,,CALGARY,AB, T2T 1Z9 ,Canada,(403) 217-1634,,,"Monday: 09:30 AM - 06:00 PM, Tuesday: 09:30 AM - 06:00 PM, Wednesday: 09:30 AM - 06:00 PM, Thursday: 09:00 AM - 08:00 PM, Friday: 09:30 AM - 06:00 PM, Saturday: 09:00 AM - 05:00 PM, Sunday: 10:30 AM - 04:00 PM",,,
FIRST CHOICE HAIRCUTTERS RICHMOND PLACE,,4816 RICHMOND RD SW,,CALGARY,AB, T3E 6L4 ,Canada,(403) 240-2232,,,"Monday: 09:00 AM - 08:00 PM, Tuesday: 09:00 AM - 08:00 PM, Wednesday: 09:00 AM - 08:00 PM, Thursday: 09:00 AM - 08:00 PM, Friday: 09:00 AM - 08:00 PM, Saturday: 09:00 AM - 05:00 PM, Sunday: 10:30 AM - 04:00 PM",,,
FIRST CHOICE HAIRCUTTERS,,7523 MACLEOD TRAIL SW,,CALGARY,AB, T2H 0L8 ,Canada,(403) 259-4433,,,"Monday: 09:00 AM - 05:30 PM, Tuesday: 09:00 AM - 05:30 PM, Wednesday: 09:00 AM - 05:30 PM, Thursday: 09:00 AM - 05:30 PM, Friday: 09:00 AM - 05:30 PM, Saturday: 09:00 AM - 05:00 PM, Sunday: 11:00 AM - 04:00 PM",,,
FIRST CHOICE HAIRCUTTERS,,6726 4TH ST NE,,CALGARY,AB, T2K 6G9 ,Canada,(403) 275-8535,,,"Monday: 09:00 AM - 08:00 PM, Tuesday: 09:00 AM - 08:00 PM, Wednesday: 09:00 AM - 08:00 PM, Thursday: 09:00 AM - 08:00 PM, Friday: 09:00 AM - 08:00 PM, Saturday: 09:00 AM - 05:00 PM, Sunday: 10:30 AM - 04:00 PM",,,
FIRST CHOICE HAIRCUTTERS,,5149 COUNTRY HILLS BLVD NW,,CALGARY,AB, T3A 5K8 ,Canada,(403) 547-5151,,,"Monday: 09:00 AM - 08:00 PM, Tuesday: 09:00 AM - 08:00 PM, Wednesday: 09:00 AM - 08:00 PM, Thursday: 09:00 AM - 08:00 PM, Friday: 09:00 AM - 08:00 PM, Saturday: 09:00 AM - 05:00 PM, Sunday: 10:30 AM - 04:00 PM",,,
FIRST CHOICE HAIRCUTTERS,,4715 17TH AVE SE,,CALGARY,AB, T2A 0T9 ,Canada,(403) 235-2202,,,"Monday: 09:00 AM - 08:00 PM, Tuesday: 09:00 AM - 08:00 PM, Wednesday: 09:00 AM - 08:00 PM, Thursday: 09:00 AM - 08:00 PM, Friday: 09:00 AM - 08:00 PM, Saturday: 09:00 AM - 05:00 PM, Sunday: 10:30 AM - 04:00 PM",,,
FIRST CHOICE HAIRCUTTERS,,303-2555 32ND ST NE,,CALGARY,AB, T1Y 7J6 ,Canada,(403) 250-8035,,,"Monday: 10:00 AM - 06:00 PM, Tuesday: 10:00 AM - 06:00 PM, Wednesday: 10:00 AM - 06:00 PM, Thursday: 09:00 AM - 08:00 PM, Friday: 09:00 AM - 08:00 PM, Saturday: 09:00 AM - 05:00 PM, Sunday: 10:30 AM - 04:00 PM",,,
FIRST CHOICE HAIRCUTTERS MANNING CROSSING SHOPPING CTR,,232 MANNING CROSSING,,EDMONTON,AB, T5A 5A1 ,Canada,(780) 475-8428,,,"Monday: 10:00 AM - 06:00 PM, Tuesday: 10:00 AM - 08:00 PM, Wednesday: 10:00 AM - 08:00 PM, Thursday: 10:00 AM - 08:00 PM, Friday: 10:00 AM - 06:00 PM, Saturday: 09:00 AM - 05:00 PM, Sunday: 11:00 AM - 04:00 PM",,,
FIRST CHOICE HAIRCUTTERS CORNFIELDS PLAZA,,10379 112TH ST,,EDMONTON,AB, T5K 1M9 ,Canada,(780) 420-0235,,,"Monday: 09:00 AM - 08:00 PM, Tuesday: 09:00 AM - 08:00 PM, Wednesday: 09:00 AM - 08:00 PM, Thursday: 09:00 AM - 08:00 PM, Friday: 09:00 AM - 08:00 PM, Saturday: 09:00 AM - 05:00 PM, Sunday: 11:00 AM - 05:00 PM",,,
FIRST CHOICE HAIRCUTTERS,,6124 28TH AVE,,EDMONTON,AB, T6L 6N4 ,Canada,(780) 450-8516,,,"Monday: 09:00 AM - 08:00 PM, Tuesday: 09:00 AM - 08:00 PM, Wednesday: 09:00 AM - 08:00 PM, Thursday: 09:00 AM - 08:00 PM, Friday: 09:00 AM - 08:00 PM, Saturday: 09:00 AM - 05:00 PM, Sunday: 11:00 AM - 05:00 PM",,,
FIRST CHOICE HAIRCUTTERS,,20-3728 MAYOR MCGRATH DR S,,LETHBRIDGE,AB, T1K 7T6 ,Canada,(403) 380-4405,,,"Monday: 09:00 AM - 05:30 PM, Tuesday: 09:00 AM - 08:00 PM, Wednesday: 09:00 AM - 08:00 PM, Thursday: 09:00 AM - 08:00 PM, Friday: 09:00 AM - 05:30 PM, Saturday: 09:00 AM - 05:00 PM, Sunday: 11:00 AM - 04:00 PM",,,
FIRST CHOICE HAIRCUTTERS CLEARVIEW MARKET SQUARE CENTRE,,27 CLEARVIEW MARKETWAY STE 125,,RED DEER,AB, T4P 0M9 ,Canada,(403) 347-4714,,,"Monday - Friday: 09:00 AM - 09:00 PM, Saturday: 09:00 AM - 06:00 PM, Sunday: 10:00 AM - 05:00 PM",,,
FIRST CHOICE HAIRCUTTERS WALMART PLAZA,,1055 HILLSIDE DR,,KAMLOOPS,BC, V2E 2S5 ,Canada,(250) 374-4260,,,"Monday - Friday: 09:00 AM - 07:00 PM, Saturday: 09:00 AM - 06:00 PM, Sunday: 10:00 AM - 05:00 PM",,,
FIRST CHOICE HAIRCUTTERS COWICHAN COMMONS SHOPPING CTR,,111-2951 GREEN RD,,DUNCAN,BC, V9L 0B9 ,Canada,(250) 715-1779,,,"Monday: 09:00 AM - 06:00 PM, Tuesday: 09:00 AM - 06:00 PM, Wednesday: 09:00 AM - 06:00 PM, Thursday: 09:00 AM - 09:00 PM, Friday: 09:00 AM - 09:00 PM, Saturday: 08:00 AM - 06:00 PM, Sunday: 10:00 AM - 04:00 PM",,,
FIRST CHOICE HAIRCUTTERS WASHINGTON PARK,,795 RYAN RD,,COURTENAY,BC, V9N 3R5 ,Canada,(250) 334-4522,,,"Monday: 09:00 AM - 06:00 PM, Tuesday: 09:00 AM - 06:00 PM, Wednesday: 09:00 AM - 06:00 PM, Thursday: 09:00 AM - 07:00 PM, Friday: 09:00 AM - 07:00 PM, Saturday: 08:00 AM - 06:00 PM, Sunday: Closed",,,
FIRST CHOICE HAIRCUTTERS VEDDER CROSSING PLAZA,,A122-6014 VEDDER RD,,CHILLIWACK,BC, V2R 5M4 ,Canada,(604) 824-0458,,,"Monday - Friday: 09:00 AM - 09:00 PM, Saturday: 08:00 AM - 06:00 PM, Sunday: 11:00 AM - 05:00 PM",,,
FIRST CHOICE HAIRCUTTERS WESTERVILLE PLAZA,,109 WESTERVILLE PLZ,,WESTERVILLE,OH, 43081 ,United States,(614) 882-6558,,,"Monday - Friday: 09:00 AM - 08:00 PM, Saturday: 09:00 AM - 06:00 PM, Sunday: 10:00 AM - 04:00 PM",,,
FIRST CHOICE HAIRCUTTERS NORTHRIDGE CROSSING,,772 N STATE ST STE D-8,,WESTERVILLE,OH, 43082 ,United States,(614) 891-5712,,,"Monday - Friday: 09:00 AM - 08:00 PM, Saturday: 09:00 AM - 06:00 PM, Sunday: 10:00 AM - 04:00 PM",,,
FIRST CHOICE HAIRCUTTERS WESTGATE MALL,,748 W MARKET ST STE B,,TIFFIN,OH, 44883 ,United States,(419) 443-8467,,,"Monday - Friday: 09:00 AM - 08:00 PM, Saturday: 08:00 AM - 06:00 PM, Sunday: 10:00 AM - 04:00 PM",,,
FIRST CHOICE HAIRCUTTERS TRILBY CROSSING,,3265 ALEXIS RD STE B,,TOLEDO,OH, 43613 ,United States,(419) 474-1613,,,"Monday - Friday: 09:00 AM - 09:00 PM, Saturday: 08:00 AM - 06:00 PM, Sunday: 10:00 AM - 04:00 PM",,,
FIRST CHOICE HAIRCUTTERS SWANTON PLAZA,,14241 AIRPORT HWY STE 6,,SWANTON,OH, 43558 ,United States,(419) 825-9984,,,"Monday - Friday: 09:00 AM - 09:00 PM, Saturday: 08:00 AM - 06:00 PM, Sunday: 10:00 AM - 04:00 PM",,,
FIRST CHOICE HAIRCUTTERS TOLEDO COMMONS,,3015 GLENDALE AVE,,TOLEDO,OH, 43614 ,United States,(419) 381-7777,,,"Monday - Friday: 09:00 AM - 09:00 PM, Saturday: 08:00 AM - 06:00 PM, Sunday: 10:00 AM - 04:00 PM",,,
FIRST CHOICE HAIRCUTTERS EAST BROAD STREET RETAIL,,8074 E BROAD ST,,REYNOLDSBURG,OH, 43068 ,United States,(614) 501-0858,,,"Monday - Friday: 09:00 AM - 08:00 PM, Saturday: 09:00 AM - 06:00 PM, Sunday: 10:00 AM - 04:00 PM",,,
FIRST CHOICE HAIRCUTTERS KROGER CENTER,,2026 E HARBOR RD STE A,,PORT CLINTON,OH, 43452 ,United States,(419) 734-1499,,,"Monday - Friday: 09:00 AM - 08:00 PM, Saturday: 08:00 AM - 06:00 PM, Sunday: 11:00 AM - 04:00 PM",,,
FIRST CHOICE HAIRCUTTERS MARKO PLAZA,,3165 NAVARRE AVE STE 2B,,OREGON,OH, 43616 ,United States,(419) 691-8627,,,"Monday - Friday: 07:00 AM - 09:00 PM, Saturday: 07:00 AM - 06:00 PM, Sunday: 10:00 AM - 04:00 PM",,,
FIRST CHOICE HAIRCUTTERS VILLAGE SQUARE,,26580 N DIXIE HWY UNIT 104,,PERRYSBURG,OH, 43551 ,United States,(419) 872-2977,,,"Monday - Friday: 07:00 AM - 09:00 PM, Saturday: 07:00 AM - 06:00 PM, Sunday: 10:00 AM - 04:00 PM",,,
FIRST CHOICE HAIRCUTTERS NORTHPOINTE PLAZA,,8639 COLUMBUS PIKE,,LEWIS CENTER,OH, 43035 ,United States,(740) 657-8640,,,"Monday - Friday: 09:00 AM - 08:00 PM, Saturday: 09:00 AM - 06:00 PM, Sunday: 10:00 AM - 04:00 PM",,,
FIRST CHOICE HAIRCUTTERS SHOPPES AT MARYSVILLE,,1091 DELAWARE AVE,,MARYSVILLE,OH, 43040 ,United States,(937) 642-7918,,,"Monday - Friday: 09:00 AM - 08:00 PM, Saturday: 09:00 AM - 06:00 PM, Sunday: 10:00 AM - 04:00 PM",,,
FIRST CHOICE HAIRCUTTERS SPRING MEADOWS PLACE,,1331 MCCORD RD,,HOLLAND,OH, 43528 ,United States,(419) 867-9524,,,"Monday - Friday: 07:00 AM - 09:00 PM, Saturday: 07:00 AM - 06:00 PM, Sunday: 10:00 AM - 04:00 PM",,,
FIRST CHOICE HAIRCUTTERS DARBY TOWN CENTER,,6310 SCIOTO DARBY CREEK RD,,HILLIARD,OH, 43026 ,United States,(614) 876-7431,,,"Monday - Friday: 10:00 AM - 08:00 PM, Saturday: 09:00 AM - 06:00 PM, Sunday: 10:00 AM - 04:00 PM",,,
FIRST CHOICE HAIRCUTTERS FLAG CITY STATION SHOPPING CTR,,2542 TIFFIN AVE,,FINDLAY,OH, 45840 ,United States,(419) 427-1137,,,"Monday - Friday: 09:00 AM - 09:00 PM, Saturday: 08:00 AM - 06:00 PM, Sunday: 10:00 AM - 04:00 PM",,,
FIRST CHOICE HAIRCUTTERS OLDE ROUTE 20 SHOPPES,,10090 OLDE US 20 STE B,,ROSSFORD,OH, 43460 ,United States,(419) 874-3483,,,"Monday - Friday: 09:00 AM - 09:00 PM, Saturday: 08:00 AM - 06:00 PM, Sunday: 10:00 AM - 04:00 PM",,,
FIRST CHOICE HAIRCUTTERS SWAN CREEK PLAZA,,5455 AIRPORT HWY STE D,,TOLEDO,OH, 43615 ,United States,(419) 382-2380,,,"Monday - Friday: 09:00 AM - 08:00 PM, Saturday: 08:00 AM - 06:00 PM, Sunday: 11:00 AM - 03:00 PM",,,
FIRST CHOICE HAIRCUTTERS STOCKBRIDGE PLAZA,,240 W ALEXIS RD,,TOLEDO,OH, 43612 ,United States,(419) 478-8121,,,"Monday - Friday: 09:00 AM - 09:00 PM, Saturday: 08:00 AM - 06:00 PM, Sunday: 10:00 AM - 04:00 PM",,,
FIRST CHOICE HAIRCUTTERS QUARRYSIDE SHOPPES,,7414 W CENTRAL AVE,,TOLEDO,OH, 43617 ,United States,(419) 842-8409,,,"Monday - Friday: 09:00 AM - 09:00 PM, Saturday: 08:00 AM - 06:00 PM, Sunday: 10:00 AM - 04:00 PM",,,
FIRST CHOICE HAIRCUTTERS,,4505 MONROE ST,,TOLEDO,OH, 43613 ,United States,(419) 472-9669,,,"Monday - Friday: 09:00 AM - 09:00 PM, Saturday: 08:00 AM - 06:00 PM, Sunday: 10:00 AM - 04:00 PM",,,
FIRST CHOICE HAIRCUTTERS,,148-1420 ISLAND HWY,,CAMPBELL RIVER,BC, V9W 8C9 ,Canada,(250) 286-8808,,,"Monday: 09:00 AM - 06:00 PM, Tuesday: 09:00 AM - 06:00 PM, Wednesday: 09:00 AM - 06:00 PM, Thursday: 09:00 AM - 07:00 PM, Friday: 09:00 AM - 07:00 PM, Saturday: 09:00 AM - 06:00 PM, Sunday: 10:00 AM - 04:00 PM",,,
FIRST CHOICE HAIRCUTTERS STAPLES PLAZA,,103-7491 VEDDER RD,,CHILLIWACK,BC, V2R 4E7 ,Canada,(604) 858-8082,,,"Monday: 09:00 AM - 06:00 PM, Tuesday: 09:00 AM - 06:00 PM, Wednesday: 09:00 AM - 06:00 PM, Thursday: 09:00 AM - 09:00 PM, Friday: 09:00 AM - 09:00 PM, Saturday: 08:00 AM - 06:00 PM, Sunday: 11:00 AM - 05:00 PM",,,
FIRST CHOICE HAIRCUTTERS,,300B-45850 YALE RD,,CHILLIWACK,BC, V2P 2N9 ,Canada,(604) 792-1412,,,"Monday - Friday: 09:00 AM - 09:00 PM, Saturday: 08:00 AM - 06:00 PM, Sunday: 11:00 AM - 05:00 PM",,,
FIRST CHOICE HAIRCUTTERS CROWN ISLE SHOPPING CENTRE,,402-444 LERWICK RD,,COURTENAY,BC, V9N 0A9 ,Canada,(250) 338-2220,,,"Monday: Closed, Tuesday: 10:00 AM - 06:00 PM, Wednesday: 10:00 AM - 06:00 PM, Thursday: 10:00 AM - 06:00 PM, Friday: 10:00 AM - 06:00 PM, Saturday: 09:00 AM - 06:00 PM, Sunday: Closed",,,
FIRST CHOICE HAIRCUTTERS,,282 TRANS CANADA HWY,,DUNCAN,BC, V9L 3P9 ,Canada,(250) 748-3833,,,"Monday: 09:00 AM - 06:00 PM, Tuesday: 09:00 AM - 06:00 PM, Wednesday: 09:00 AM - 06:00 PM, Thursday: 09:00 AM - 07:00 PM, Friday: 09:00 AM - 07:00 PM, Saturday: 08:00 AM - 06:00 PM, Sunday: 10:00 AM - 04:00 PM",,,
FIRST CHOICE HAIRCUTTERS NORTHILLS CENTRE,,41-700 TRANQUILLE RD,,KAMLOOPS,BC, V2B 3H9 ,Canada,(250) 376-5200,,,"Monday - Friday: 09:00 AM - 07:00 PM, Saturday: 09:00 AM - 06:00 PM, Sunday: 10:00 AM - 05:00 PM",,,
FIRST CHOICE HAIRCUTTERS,,3-2101 E TRANS HWY,,KAMLOOPS,BC, V2C 4A6 ,Canada,(250) 372-5989,,,"Monday - Friday: 09:00 AM - 05:30 PM, Saturday: 09:00 AM - 05:00 PM, Sunday: Closed",,,
FIRST CHOICE HAIRCUTTERS,,1200 SUMMIT DR,,KAMLOOPS,BC, V2C 1L9 ,Canada,(250) 828-1955,,,"Monday: 09:00 AM - 06:00 PM, Tuesday: 09:00 AM - 06:00 PM, Wednesday: 09:00 AM - 06:00 PM, Thursday: 09:00 AM - 07:00 PM, Friday: 09:00 AM - 07:00 PM, Saturday: 09:00 AM - 05:00 PM, Sunday: 10:00 AM - 05:00 PM",,,
FIRST CHOICE HAIRCUTTERS GLENNWOOD COMMONS,,840 SUNBURY RD STE 1602,,DELAWARE,OH, 43015 ,United States,(740) 363-1750,,,"Monday - Friday: 09:00 AM - 08:00 PM, Saturday: 09:00 AM - 06:00 PM, Sunday: 10:00 AM - 04:00 PM",,,
FIRST CHOICE HAIRCUTTERS DEFIANCE KROGER PLAZA,,1842 E 2ND ST,,DEFIANCE,OH, 43512 ,United States,(419) 782-2121,,,"Monday - Friday: 08:00 AM - 08:00 PM, Saturday: 08:00 AM - 06:00 PM, Sunday: 10:00 AM - 04:00 PM",,,
FIRST CHOICE HAIRCUTTERS THE SHOPS ON SOUTH MAIN,,1121 S MAIN ST STE 320,,BOWLING GREEN,OH, 43402 ,United States,(419) 353-2672,,,"Monday - Friday: 09:00 AM - 09:00 PM, Saturday: 08:00 AM - 06:00 PM, Sunday: 10:00 AM - 04:00 PM",,,
FIRST CHOICE HAIRCUTTERS KENMOUNT PLAZA,,55 KELSEY DR,,ST.JOHN'S,NL, A1B 5C8 ,Canada,(709) 722-8107,,,"Monday - Friday: 09:00 AM - 09:00 PM, Saturday: 09:00 AM - 06:00 PM, Sunday: Closed",,,
FIRST CHOICE HAIRCUTTERS,,1235 S MAIN ST,,BRYAN,OH, 43506 ,United States,(419) 630-0821,,,"Monday - Friday: 09:00 AM - 08:00 PM, Saturday: 08:00 AM - 06:00 PM, Sunday: 10:00 AM - 04:00 PM",,,
FIRST CHOICE HAIRCUTTERS CLINTON STREET CROSSINGS,,1601 N CLINTON ST,,DEFIANCE,OH, 43512 ,United States,(419) 782-1137,,,"Monday - Friday: 09:00 AM - 08:00 PM, Saturday: 08:00 AM - 06:00 PM, Sunday: 10:00 AM - 04:00 PM",,,
FIRST CHOICE HAIRCUTTERS,,60 ELIZABETH AVE,,SAINT JOHN'S,NL, A1A 1W4 ,Canada,(709) 738-0479,,,"Monday - Friday: 09:00 AM - 09:00 PM, Saturday: 09:00 AM - 06:00 PM, Sunday: Closed",,,
FIRST CHOICE HAIRCUTTERS GLENHILL PLAZA,,74 OLD PLACENTIA RD,,MOUNT PEARL,NL, A1N 4Y1 ,Canada,(709) 747-5388,,,"Monday - Friday: 09:00 AM - 09:00 PM, Saturday: 09:00 AM - 06:00 PM, Sunday: Closed",,,
FIRST CHOICE HAIRCUTTERS,,29 ROE AVE,,GANDER,NL, A1V 1W5 ,Canada,(709) 651-4180,,,"Monday: 09:00 AM - 06:00 PM, Tuesday: 09:00 AM - 06:00 PM, Wednesday: 09:00 AM - 09:00 PM, Thursday: 09:00 AM - 09:00 PM, Friday: 09:00 AM - 09:00 PM, Saturday: 09:00 AM - 06:00 PM, Sunday: Closed",,,
FIRST CHOICE HAIRCUTTERS CORNER BROOK PLAZA,,1-54 MAPLE VALLEY RD,,CORNER BROOK,NL, A2H 6J3 ,Canada,(709) 634-6464,,,"Monday: 09:00 AM - 06:00 PM, Tuesday: 09:00 AM - 06:00 PM, Wednesday: 09:00 AM - 09:00 PM, Thursday: 09:00 AM - 09:00 PM, Friday: 09:00 AM - 09:00 PM, Saturday: 09:00 AM - 06:00 PM, Sunday: Closed",,,
FIRST CHOICE HAIRCUTTERS SAINT MARGARET'S SQUARE,,5110 ST MARGARETS RD,,UPPER TANTALLON,NS, B3Z 1E2 ,Canada,(902) 826-7041,,,"Monday - Friday: 09:00 AM - 08:00 PM, Saturday: 09:00 AM - 05:00 PM, Sunday: Closed",,,
FIRST CHOICE HAIRCUTTERS TRURO HEIGHTS,,140 WADE RD,,TRURO,NS, B2N 7H3 ,Canada,(902) 893-7393,,,"Monday: 09:00 AM - 06:00 PM, Tuesday: 09:00 AM - 06:00 PM, Wednesday: 09:00 AM - 06:00 PM, Thursday: 09:00 AM - 08:00 PM, Friday: 09:00 AM - 08:00 PM, Saturday: 09:00 AM - 05:00 PM, Sunday: Closed",,,
FIRST CHOICE HAIRCUTTERS SOBEYS PLAZA,,350 CONCEPTION BAY HWY,,CONCEPTION BAY,NL, A1X 7A3 ,Canada,(709) 834-9887,,,"Monday - Friday: 09:00 AM - 09:00 PM, Saturday: 09:00 AM - 06:00 PM, Sunday: Closed",,,
FIRST CHOICE HAIRCUTTERS KMART PLAZA,,278 TORBAY RD,,ST JOHN'S,NL, A1A 3T2 ,Canada,(709) 738-1696,,,"Monday - Friday: 09:00 AM - 09:00 PM, Saturday: 09:00 AM - 06:00 PM, Sunday: Closed",,,
FIRST CHOICE HAIRCUTTERS SOUTH CENTRE MALL,,16 DENITH RD,,SPRYFIELD,NS, B3R 2G9 ,Canada,(902) 479-4104,,,"Monday - Friday: 09:00 AM - 08:00 PM, Saturday: 09:00 AM - 05:00 PM, Sunday: Closed",,,
FIRST CHOICE HAIRCUTTERS STAPLES PLAZA,,556 WESTVILLE RD,,NEW GLASGOW,NS, B2H 2J8 ,Canada,(902) 755-0388,,,"Monday: 09:00 AM - 06:00 PM, Tuesday: 09:00 AM - 06:00 PM, Wednesday: 09:00 AM - 06:00 PM, Thursday: 09:00 AM - 08:00 PM, Friday: 09:00 AM - 08:00 PM, Saturday: 09:00 AM - 05:00 PM, Sunday: Closed",,,
FIRST CHOICE HAIRCUTTERS,,8927 COMMERCIAL ST,,NEW MINAS,NS, B4N 3E1 ,Canada,(902) 681-2112,,,"Monday: 09:00 AM - 06:00 PM, Tuesday: 09:00 AM - 06:00 PM, Wednesday: 09:00 AM - 06:00 PM, Thursday: 09:00 AM - 08:00 PM, Friday: 09:00 AM - 08:00 PM, Saturday: 09:00 AM - 05:00 PM, Sunday: Closed",,,
FIRST CHOICE HAIRCUTTERS DOWNSVIEW MALL,,800 SACKVILLE DR,,LOWER SACKVILLE,NS, B4E 1R8 ,Canada,(902) 864-5547,,,"Monday - Friday: 09:00 AM - 08:00 PM, Saturday: 09:00 AM - 05:00 PM, Sunday: 12:00 PM - 05:00 PM",,,
FIRST CHOICE HAIRCUTTERS JOSEPH HOWE DRIVE PLAZA,,3450 JOSEPH HOWE DR,,HALIFAX,NS, B3L 4H7 ,Canada,(902) 443-2701,,,"Monday - Friday: 09:00 AM - 08:00 PM, Saturday: 09:00 AM - 05:00 PM, Sunday: Closed",,,
FIRST CHOICE HAIRCUTTERS HALIFAX SHOPPING CENTRE,,6990 MUMFORD RD,,HALIFAX,NS, B3L 4W1 ,Canada,(902) 454-3855,,,"Monday - Friday: 09:00 AM - 08:00 PM, Saturday: 09:00 AM - 05:00 PM, Sunday: Closed",,,
FIRST CHOICE HAIRCUTTERS GLENBOURNE PLAZA,,4-480 PARKLAND DR,,HALIFAX,NS, B3S 1P9 ,Canada,(902) 445-3601,,,"Monday - Friday: 09:00 AM - 08:00 PM, Saturday: 09:00 AM - 05:00 PM, Sunday: Closed",,,
FIRST CHOICE HAIRCUTTERS,,122-287 LACEWOOD DR,,HALIFAX,NS, B3M 3Y7 ,Canada,(902) 457-9467,,,"Monday - Friday: 09:00 AM - 08:00 PM, Saturday: 09:00 AM - 05:00 PM, Sunday: Closed",,,
FIRST CHOICE HAIRCUTTERS,,102-103 CHAIN LAKE DR,,HALIFAX,NS, B3S 0G1 ,Canada,(902) 876-0655,,,"Monday - Friday: 09:00 AM - 08:00 PM, Saturday: 09:00 AM - 05:00 PM, Sunday: Closed",,,
FIRST CHOICE HAIRCUTTERS WELTON STREET PLAZA,,421 GRAND LAKE ROAD UNIT 3,,SYDNEY,NS, B1P 5T1 ,Canada,(902) 564-9198,,,"Monday: 09:00 AM - 06:00 PM, Tuesday: 09:00 AM - 06:00 PM, Wednesday: 09:00 AM - 08:00 PM, Thursday: 09:00 AM - 08:00 PM, Friday: 09:00 AM - 08:00 PM, Saturday: 09:00 AM - 05:00 PM, Sunday: Closed",,,
FIRST CHOICE HAIRCUTTERS PRINCE STREET PLAZA,,325 PRINCE STREET,,SYDNEY,NS, B1P 5K6 ,Canada,(902) 567-5606,,,"Monday: 09:00 AM - 06:00 PM, Tuesday: 09:00 AM - 06:00 PM, Wednesday: 09:00 AM - 08:00 PM, Thursday: 09:00 AM - 08:00 PM, Friday: 09:00 AM - 08:00 PM, Saturday: 09:00 AM - 05:00 PM, Sunday: Closed",,,
FIRST CHOICE HAIRCUTTERS FRESHWATER PLAZA,,1-336 FRESHWATER RD,,ST JOHN'S,NL, A1B 1C2 ,Canada,(709) 576-3716,,,"Monday - Friday: 09:00 AM - 09:00 PM, Saturday: 09:00 AM - 06:00 PM, Sunday: Closed",,,
FIRST CHOICE HAIRCUTTERS FIRST STICK POND DEVELOPMENT,,95 STAVANGER DR,,ST JOHN'S,NL, A1A 5V9 ,Canada,(709) 576-0999,,,"Monday - Friday: 09:00 AM - 09:00 PM, Saturday: 09:00 AM - 06:00 PM, Sunday: Closed",,,
FIRST CHOICE HAIRCUTTERS,,468 TOPSAIL RD,,ST JOHN'S,NL, A1E 2C3 ,Canada,(709) 745-5363,,,"Monday - Friday: 09:00 AM - 09:00 PM, Saturday: 09:00 AM - 06:00 PM, Sunday: Closed",,,
FIRST CHOICE HAIRCUTTERS CUMBERLAND COURT,,2 CUMBERLAND DR,,DARTMOUTH,NS, B2V 2C7 ,Canada,(902) 435-8820,,,"Monday - Friday: 09:00 AM - 08:00 PM, Saturday: 09:00 AM - 05:00 PM, Sunday: Closed",,,
FIRST CHOICE HAIRCUTTERS,,7-172 WYSE RD,,DARTMOUTH,NS, B3A 2M6 ,Canada,(902) 466-0179,,,"Monday - Friday: 09:00 AM - 08:00 PM, Saturday: 09:00 AM - 05:00 PM, Sunday: Closed",,,
FIRST CHOICE HAIRCUTTERS,,590 PORTLAND ST,,DARTMOUTH,NS, B2W 6B7 ,Canada,(902) 462-4561,,,"Monday - Friday: 09:00 AM - 08:00 PM, Saturday: 09:00 AM - 05:00 PM, Sunday: Closed",,,
FIRST CHOICE HAIRCUTTERS EASTSIDE PLAZA 1,,111A-28 DAVISON DR UNIT 111A,,BRIDGEWATER,NS, B4V 3A2 ,Canada,(902) 543-3165,,,"Monday: 09:00 AM - 06:00 PM, Tuesday: 09:00 AM - 06:00 PM, Wednesday: 09:00 AM - 06:00 PM, Thursday: 09:00 AM - 08:00 PM, Friday: 09:00 AM - 08:00 PM, Saturday: 09:00 AM - 05:00 PM, Sunday: Closed",,,
FIRST CHOICE HAIRCUTTERS,,1475 BEDFORD HWY,,BEDFORD,NS, B4A 3Z5 ,Canada,(902) 835-7909,,,"Monday - Friday: 09:00 AM - 08:00 PM, Saturday: 09:00 AM - 05:00 PM, Sunday: Closed",,,
FIRST CHOICE HAIRCUTTERS WOODSTOCK PLAZA,,337 CONNELL RD UNIT 3,,WOODSTOCK,NB, E7M 5E7 ,Canada,(506) 328-9165,,,"Monday: 10:00 AM - 06:00 PM, Tuesday: 10:00 AM - 06:00 PM, Wednesday: 10:00 AM - 06:00 PM, Thursday: 10:00 AM - 08:00 PM, Friday: 10:00 AM - 08:00 PM, Saturday: 09:00 AM - 05:00 PM, Sunday: Closed",,,
FIRST CHOICE HAIRCUTTERS LANSDOWNE PLACE,,87 LANSDOWNE AVE UNIT 7,,SAINT JOHN,NB, E2K 3A1 ,Canada,(506) 693-5318,,,"Monday: 09:00 AM - 06:00 PM, Tuesday: 09:00 AM - 06:00 PM, Wednesday: 09:00 AM - 06:00 PM, Thursday: 09:00 AM - 09:00 PM, Friday: 09:00 AM - 09:00 PM, Saturday: 09:00 AM - 06:00 PM, Sunday: Closed",,,
FIRST CHOICE HAIRCUTTERS WEDGEWOOD PLAZA,,424 COVERDALE ROAD,,RIVERVIEW,NB, E1B 3J9 ,Canada,(506) 387-8833,,,"Monday: 09:00 AM - 06:00 PM, Tuesday: 09:00 AM - 06:00 PM, Wednesday: 09:00 AM - 06:00 PM, Thursday: 09:00 AM - 09:00 PM, Friday: 09:00 AM - 09:00 PM, Saturday: 09:00 AM - 06:00 PM, Sunday: Closed",,,
FIRST CHOICE HAIRCUTTERS FAIRVILLE PLAZA,,20 PLAZA AVENUE SUITE 1,,SAINT JOHN,NB, E2M 0C3 ,Canada,(506) 635-2908,,,"Monday - Friday: 09:00 AM - 08:00 PM, Saturday: 09:00 AM - 05:00 PM, Sunday: Closed",,,
FIRST CHOICE HAIRCUTTERS,,1130 MOUNTAIN ROAD,,MONCTON,NB, E1C 2T3 ,Canada,(506) 857-0823,,,"Monday: 09:00 AM - 06:00 PM, Tuesday: 09:00 AM - 06:00 PM, Wednesday: 09:00 AM - 06:00 PM, Thursday: 09:00 AM - 09:00 PM, Friday: 09:00 AM - 09:00 PM, Saturday: 09:00 AM - 06:00 PM, Sunday: Closed",,,
FIRST CHOICE HAIRCUTTERS,,101 MCALLISTER DR UNIT 1,,SAINT JOHN,NB, E2J 2S6 ,Canada,(506) 634-2001,,,"Monday - Friday: 09:00 AM - 09:00 PM, Saturday: 09:00 AM - 06:00 PM, Sunday: Closed",,,
FIRST CHOICE HAIRCUTTERS NASHWAAKSIS PLAZA,,102 MAIN ST,,FREDERICTON,NB, E3A 1R7 ,Canada,(506) 458-1296,,,"Monday - Friday: 09:00 AM - 09:00 PM, Saturday: 09:00 AM - 06:00 PM, Sunday: Closed",,,
FIRST CHOICE HAIRCUTTERS HOMESTEAD PLAZA,,1342 HOMESTEAD RD N,,LEHIGH ACRES,FL, 33936 ,United States,(239) 369-8383,,,"Monday - Friday: 09:00 AM - 07:00 PM, Saturday: 09:00 AM - 06:00 PM, Sunday: 10:00 AM - 03:00 PM",,,
FIRST CHOICE HAIRCUTTERS PUBLIX IN THE HIGHLANDS POLK,,2145 E COUNTY ROAD 540A,,LAKELAND,FL, 33813 ,United States,(863) 701-8900,,,"Monday - Friday: 09:00 AM - 08:00 PM, Saturday: 09:00 AM - 06:00 PM, Sunday: 11:00 AM - 05:00 PM",,,
FIRST CHOICE HAIRCUTTERS UNIVERSITY CROSSING,,13401 SUMMERLIN RD UNIT 10,,FORT MYERS,FL, 33919 ,United States,(239) 489-1268,,,"Monday - Friday: 09:00 AM - 07:00 PM, Saturday: 09:00 AM - 06:00 PM, Sunday: 10:00 AM - 03:00 PM",,,
FIRST CHOICE HAIRCUTTERS CAMELOT ISLES SHOPPING CENTER,,1616 CAPE CORAL PKWY W STE 107,,CAPE CORAL,FL, 33914 ,United States,(239) 549-0600,,,"Monday - Friday: 09:00 AM - 07:00 PM, Saturday: 09:00 AM - 06:00 PM, Sunday: 10:00 AM - 03:00 PM",,,
FIRST CHOICE HAIRCUTTERS WEST GATE SHOPPING CENTER,,4013 MANATEE AVE W,,BRADENTON,FL, 34205 ,United States,(941) 744-0701,,,"Monday - Friday: 09:00 AM - 08:00 PM, Saturday: 09:00 AM - 06:00 PM, Sunday: 10:00 AM - 03:00 PM",,,
FIRST CHOICE HAIRCUTTERS LAKEWOOD RANCH GATEWAY NORTH,,1747 LAKEWOOD RANCH BLVD,,BRADENTON,FL, 34211 ,United States,(941) 746-4988,,,"Monday - Friday: 09:00 AM - 08:00 PM, Saturday: 09:00 AM - 06:00 PM, Sunday: 11:00 AM - 03:00 PM",,,
FIRST CHOICE HAIRCUTTERS BEACHWAY PLAZA,,7324 MANATEE AVE W,,BRADENTON,FL, 34209 ,United States,(941) 795-0709,,,"Monday - Friday: 09:00 AM - 08:00 PM, Saturday: 09:00 AM - 06:00 PM, Sunday: 10:00 AM - 03:00 PM",,,
FIRST CHOICE HAIRCUTTERS THE CENTER OF BONITA SPRINGS,,3300 BONITA BEACH RD STE 156,,BONITA SPRINGS,FL, 34134 ,United States,(239) 992-7272,,,"Monday: 09:00 AM - 06:00 PM, Tuesday: 09:00 AM - 06:00 PM, Wednesday: 09:00 AM - 06:00 PM, Thursday: 09:30 AM - 06:00 PM, Friday: 09:00 AM - 06:00 PM, Saturday: 09:00 AM - 06:00 PM, Sunday: 10:00 AM - 03:00 PM",,,
FIRST CHOICE HAIRCUTTERS THE SHOPS AT VERANDAH,,11861 PALM BEACH BLVD STE A105,,FORT MYERS,FL, 33905 ,United States,(239) 693-0568,,,"Monday - Friday: 09:00 AM - 07:00 PM, Saturday: 09:00 AM - 05:00 PM, Sunday: 10:00 AM - 03:00 PM",,,
FIRST CHOICE HAIRCUTTERS THE SHOPPES AT FIDDLESTICKS,,13650 FIDDLESTICKS BLVD # 105,,FORT MYERS,FL, 33912 ,United States,(239) 225-4091,,,"Monday - Friday: 08:30 AM - 06:00 PM, Saturday: 08:30 AM - 05:30 PM, Sunday: 10:00 AM - 03:00 PM",,,
FIRST CHOICE HAIRCUTTERS MERCHANTS WALK,,3615 S FLORIDA AVE STE 1010,,LAKELAND,FL, 33803 ,United States,(863) 648-0499,,,"Monday - Friday: 09:00 AM - 08:00 PM, Saturday: 09:00 AM - 06:00 PM, Sunday: 10:00 AM - 04:00 PM",,,
FIRST CHOICE HAIRCUTTERS GROVE PARK SHOPPING CENTER,,1415 HIGHWAY 98 S UNIT 2,,LAKELAND,FL, 33801 ,United States,(863) 687-9459,,,"Monday - Friday: 09:00 AM - 08:00 PM, Saturday: 09:00 AM - 06:00 PM, Sunday: 11:00 AM - 05:00 PM",,,
FIRST CHOICE HAIRCUTTERS COLLIER COMMONS,,2211 COLLIER PKWY,,LAND O LAKES,FL, 34639 ,United States,(813) 948-3116,,,"Monday - Friday: 09:00 AM - 08:00 PM, Saturday: 09:00 AM - 06:00 PM, Sunday: 11:00 AM - 05:00 PM",,,
FIRST CHOICE HAIRCUTTERS,,434 PAUL STREET,,DIEPPE,NB, E1A 4Z2 ,Canada,(506) 857-9069,,,"Monday - Friday: 09:00 AM - 09:00 PM, Saturday: 09:00 AM - 06:00 PM, Sunday: Closed",,,
FIRST CHOICE HAIRCUTTERS,,1111 REGENT ST UNIT 5,,FREDERICTON,NB, E3B 3Z2 ,Canada,(506) 450-7030,,,"Monday - Friday: 09:00 AM - 09:00 PM, Saturday: 09:00 AM - 06:00 PM, Sunday: Closed",,,
