store_name,store_number,address,address2,city,state,zip_code,country,phone_number,latitude,longitude,store_hours,store_type,other_fields,coming_soon
,,27548 Ynez Road Ste I-1 ,,Temecula ,CA,92591,United States,(951) 699-7492,,,"Monday 11:00 AM - 6:00 PM, Tuesday 11:00 AM - 6:00 PM, Wednesday 11:00 AM - 6:00 PM, Thursday 11:00 AM - 6:00 PM, Friday 11:00 AM - 6:00 PM, Saturday 11:00 AM - 6:00 PM, Sunday 11:00 AM - 5:00 PM",,,
,,2085 Montiel Road Suite 105 ,,San Marcos ,CA,92069,United States,(760) 739-0672,,,"Monday 10:00 AM to 6:00 PM, Tuesday 10:00 AM to 7:00 PM, Wednesday 10:00 AM to 7:00 PM, Thursday 10:00 AM to 7:00 PM, Friday 10:00 AM to 7:00 PM, Saturday 10:00 AM to 6:00 PM, Sunday 10:00 AM to 5:00 PM",,,
,,840 West El Camino Real (corner of Hollenbeck) ,,Sunnyvale ,CA,94087,United States,(408) 900-8202,,,"Monday 10:00 AM - 8:00 PM, Tuesday 10:00 AM - 8:00 PM, Wednesday 10:00 AM - 8:00 PM, Thursday 10:00 AM - 8:00 PM, Friday 10:00 AM - 8:00 PM, Saturday 10:00 AM - 8:00 PM, Sunday 12:00 PM - 5:00 PM",,,
,,102 E. Barstow ,,Fresno ,CA,93710,United States,(559) 435-3342,,,"Monday 10:00 AM - 7:00 PM, Tuesday 10:00 AM - 7:00 PM, Wednesday 10:00 AM - 7:00 PM, Thursday 10:00 AM - 7:00 PM, Friday 10:00 AM - 7:00 PM, Saturday 10:00 AM - 7:00 PM, Sunday 10:00 AM - 5:00 PM",,,
,,840 Ernest W. Barrett Pkwy NW ,,Kennesaw ,GA,30144,United States,(770) 426-8800,,,"Monday 10:00 AM - 9:00 PM, Tuesday 10:00 AM - 9:00 PM, Wednesday 10:00 AM - 9:00 PM, Thursday 10:00 AM - 9:00 PM, Friday 10:00 AM - 9:00 PM, Saturday 10:00 AM - 9:00 PM, Sunday 12:00 PM - 6:00 PM",,,
,,2761 East Bidwell St. # 400 ,,Folsom ,CA,95630,United States,(916) 984-6266,,,"Monday 10:00 AM - 7:00 PM, Tuesday 10:00 AM - 7:00 PM, Wednesday 10:00 AM - 7:00 PM, Thursday 10:00 AM - 7:00 PM, Friday 10:00 AM - 8:00 PM, Saturday 10:00 AM - 8:00 PM, Sunday 11:00 PM - 6:00 PM",,,
,,6644 Lonetree Blvd # 300 ,,Rocklin ,CA,95765,United States,(916) 315-8199,,,"Monday 10:00 AM - 7:00 PM, Tuesday 10:00 AM - 7:00 PM, Wednesday 10:00 AM - 7:00 PM, Thursday 10:00 AM - 7:00 PM, Friday 10:00 AM - 7:00 PM, Saturday 10:00 AM - 6:00 PM, Sunday 10:00 AM - 4:00 PM",,,
,,351 Magnolia Ave. Suite 101 ,,Corona ,CA,92879,United States,(951) 272-4020,,,"Monday 10:00 AM to 7:00 PM, Tuesday 10:00 AM to 7:00 PM, Wednesday 10:00 AM to 7:00 PM, Thursday 10:00 AM to 7:00 PM, Friday 10:00 AM to 7:00 PM, Saturday 10:00 AM to 7:00 PM, Sunday 11:00 PM to 5:00 PM",,,
,,939 South 25th East ,,Ammon ,ID,83406,United States,(208) 523-4900,,,"Monday 10:00 AM - 8:00 PM, Tuesday 10:00 AM - 8:00 PM, Wednesday 10:00 AM - 8:00 PM, Thursday 10:00 AM - 8:00 PM, Friday 10:00 AM - 8:00 PM, Saturday 10:00 AM - 6:00 PM, Sunday 12:00 AM - 12:00 AM",,,
,,7849 W. Emerald St. ,,Boise ,ID,83704,United States,(208) 917-7789,,,"Monday 11:00 AM - 8:00 PM, Tuesday 11:00 AM - 8:00 PM, Wednesday 11:00 AM - 8:00 PM, Thursday 11:00 AM - 8:00 PM, Friday 10:00 AM - 8:00 PM, Saturday 10:00 AM - 8:00 PM, Sunday 12:00 AM - 12:00 AM",,,
,,HobbyTown 4335 West New Haven Ave ,,West Melbourne ,FL,32904,United States,(321) 574-0951,,,"Monday 11:00 AM - 7:00 PM, Tuesday 12:00 AM - 12:00 AM, Wednesday 11:00 AM - 7:00 PM, Thursday 11:00 AM - 7:00 PM, Friday 11:00 AM - 7:00 PM, Saturday 11:30 AM - 7:00 PM, Sunday 12:00 PM - 5:00 PM",,,
,,4850 E Southport Rd. Suite Q ,,Indianapolis ,IN,46237,United States,(317) 784-6229,,,"Monday 10:00 AM - 8:00 PM, Tuesday 10:00 AM - 8:00 PM, Wednesday 10:00 AM - 8:00 PM, Thursday 10:00 AM - 8:00 PM, Friday 10:00 AM - 8:00 PM, Saturday 10:00 AM - 8:00 PM, Sunday 12:00 AM - 6:00 PM",,,
,,8326 Castleton Corner Dr. ,,Indianapolis ,IN,46250,United States,(317) 845-4106,,,"Monday 10:00 AM - 8:00 PM, Tuesday 10:00 AM - 8:00 PM, Wednesday 10:00 AM - 8:00 PM, Thursday 10:00 AM - 8:00 PM, Friday 10:00 AM - 8:00 PM, Saturday 10:00 AM - 8:00 PM, Sunday 12:00 PM - 6:00 PM",,,
,,12990 State Rd. 23 ,,Granger ,IN,46530,United States,(574) 217-7715,,,"Monday 10:00 - 7:00, Tuesday 10:00 - 7:00, Wednesday 10:00 - 7:00, Thursday 10:00 - 7:00, Friday 10:00 - 7:00, Saturday 10:00 - 7:00, Sunday 1:00 - 6:00",,,
,,8113 East Kellogg Ave Suite 200 ,,Wichita ,KS,67207,United States,(316) 683-7222,,,"Monday 10:00 AM - 8:00 PM, Tuesday 10:00 AM - 8:00 PM, Wednesday 10:00 AM - 8:00 PM, Thursday 10:00 AM - 8:00 PM, Friday 10:00 AM - 8:00 PM, Saturday 10:00 AM - 6:00 PM, Sunday 12:00 PM - 5:00 PM",,,
,,3423 North Green River Road ,,Evansville ,IN,47715,United States,(812) 473-1500,,,"Monday 10:00 AM to 7:00 PM, Tuesday 10:00 AM to 7:00 PM, Wednesday 10:00 AM to 7:00 PM, Thursday 10:00 AM to 7:00 PM, Friday 10:00 AM to 7:00 PM, Saturday 10:00 AM to 7:00 PM, Sunday 12:00 PM to 5:00 PM",,,
,,7460 Youree Drive Suite 190 ,,Shreveport ,LA,71105,United States,(318) 698-0396,,,"Monday 10:00 AM - 9:00 PM, Tuesday 10:00 AM - 9:00 PM, Wednesday 10:00 AM - 9:00 PM, Thursday 10:00 AM - 9:00 PM, Friday 10:00 AM - 9:00 PM, Saturday 10:00 AM - 9:00 PM, Sunday 12:00 PM - 6:00 PM",,,
,,5429 Johnston St. ,,Lafayette ,LA,70503,United States,(337) 981-7259,,,"Monday 10:00 AM - 8:00 PM, Tuesday 10:00 AM - 8:00 PM, Wednesday 10:00 AM - 8:00 PM, Thursday 10:00 AM - 8:00 PM, Friday 10:00 AM - 8:00 PM, Saturday 10:00 AM - 8:00 PM, Sunday 12:00 PM - 6:00 PM",,,
,,12615 Shelbyville Road ,,Louisville ,KY,40243,United States,(502) 254-5755,,,"Monday 10:00 AM to 8:00 PM, Tuesday 10:00 AM to 8:00 PM, Wednesday 10:00 AM to 8:00 PM, Thursday 10:00 AM to 8:00 PM, Friday 10:00 AM to 8:00 PM, Saturday 10:00 AM to 6:00 PM, Sunday 12:00 PM to 5:00 PM",,,
,,1555 E New Circle Road Suite 122 ,,Lexington ,KY,40509,United States,(859) 277-5664,,,"Monday 10:00 AM to 8:00 PM, Tuesday 10:00 AM to 8:00 PM, Wednesday 10:00 AM to 8:00 PM, Thursday 10:00 AM to 8:00 PM, Friday 10:00 AM to 8:30 PM, Saturday 10:00 AM to 8:30 PM, Sunday 12:00 PM to 6:00 PM",,,
,,2345 Russellville Rd. ,,Bowling Green ,KY,42101,United States,(270) 904-6100,,,"Monday 10:00 AM - 6:00 PM, Tuesday 10:00 AM - 10:00 PM, Wednesday 10:00 AM - 10:00 PM, Thursday 10:00 AM - 10:00 PM, Friday 10:00 AM - 11:00 PM, Saturday 10:00 AM - 10:00 PM, Sunday 12:00 PM - 6:00 PM",,,
,,2204 Kimball Ave ,,Waterloo ,IA,50702,United States,(319) 883-8192,,,"Monday 10:00 AM - 7:00 PM, Tuesday 10:00 AM - 7:00 PM, Wednesday 10:00 AM - 7:00 PM, Thursday 10:00 AM - 7:00 PM, Friday 10:00 AM - 7:00 PM, Saturday 10:00 AM - 5:00 PM, Sunday 12:00 PM - 5:00 PM",,,
,,Town & Country Shopping Center 3655-A 1st Ave. SE ,,Cedar Rapids ,IA,52402,United States,(319) 382-8040,,,"Monday 10:00 AM - 7:00 PM, Tuesday 10:00 AM - 7:00 PM, Wednesday 10:00 AM - 7:00 PM, Thursday 10:00 AM - 7:00 PM, Friday 10:00 AM - 6:00 PM, Saturday 11:00 AM - 5:00 PM, Sunday 11:00 AM - 5:00 PM",,,
,,1701 SE Delaware Ave Suite 100 ,,Ankeny ,IA,50021,United States,(515) 964-0443,,,"Monday 10:00 AM - 7:00 PM, Tuesday 10:00 AM - 7:00 PM, Wednesday 10:00 AM - 7:00 PM, Thursday 10:00 AM - 7:00 PM, Friday 10:00 AM - 7:00 PM, Saturday 10:00 AM - 7:00 PM, Sunday 12:00 PM - 6:00 PM",,,
,,2061A Lincoln Highway ,,St. Charles ,IL,60174,United States,(630) 587-1256,,,"Monday 10:00 AM - 8:00 PM, Tuesday 10:00 AM - 8:00 PM, Wednesday 10:00 AM - 8:00 PM, Thursday 10:00 AM - 8:00 PM, Friday 10:00 AM - 8:00 PM, Saturday 10:00 AM - 6:00 PM, Sunday 11:00 AM - 5:00 PM",,,
,,251 West Golf Road ,,Schaumburg ,IL,60195,United States,(847) 490-0900,,,"Monday 11:00 AM - 7:00 PM, Tuesday 11:00 AM - 7:00 PM, Wednesday 11:00 AM - 7:00 PM, Thursday 11:00 AM - 7:00 PM, Friday 11:00 AM - 7:00 PM, Saturday 10:00 AM - 6:00 PM, Sunday 12:00 PM - 5:00 PM",,,
,,3782 North Alpine Road ,,Rockford ,IL,61114,United States,(815) 282-0727,,,"Monday 10:00 AM - 8:00 PM, Tuesday 10:00 AM - 8:00 PM, Wednesday 10:00 AM - 8:00 PM, Thursday 10:00 AM - 8:00 PM, Friday 10:00 AM - 8:00 PM, Saturday 10:00 AM - 6:00 PM, Sunday 11:00 AM - 5:00 PM",,,
,,15551 South 94th Ave ,,Orland Park ,IL,60462,United States,(708) 349-8697,,,"Monday 10:00 AM - 8:00 PM, Tuesday 10:00 AM - 8:00 PM, Wednesday 10:00 AM - 8:00 PM, Thursday 10:00 AM - 8:00 PM, Friday 10:00 AM - 8:00 PM, Saturday 10:00 AM - 6:00 PM, Sunday 11:00 AM - 5:00 PM",,,
,,549 Waukegan Road ,,Northbrook ,IL,60062,United States,(847) 205-5588,,,"Monday 11:00 AM - 7:00 PM, Tuesday 11:00 AM - 7:00 PM, Wednesday 11:00 AM - 7:00 PM, Thursday 11:00 AM - 7:00 PM, Friday 11:00 AM - 7:00 PM, Saturday 10:00 AM - 6:00 PM, Sunday 11:00 AM - 5:00 PM",,,
,,9200 Pyott Rd. ,,Lake in the Hills ,IL,60156,United States,(847) 658-1515,,,"Monday 10:00 AM - 8:00 PM, Tuesday 10:00 AM - 8:00 PM, Wednesday 10:00 AM - 8:00 PM, Thursday 10:00 AM - 8:00 PM, Friday 10:00 AM - 8:00 PM, Saturday 10:00 AM - 8:00 PM, Sunday 10:00 AM - 5:00 PM",,,
,,11727 N Dale Mabry ,,Tampa ,FL,33618,United States,(813) 964-5447,,,"Monday 10:00 AM to 8:00 PM, Tuesday 10:00 AM to 8:00 PM, Wednesday 10:00 AM to 8:00 PM, Thursday 10:00 AM to 8:00 PM, Friday 10:00 AM to 8:00 PM, Saturday 10:00 AM to 6:00 PM, Sunday 12:00 PM to 5:00 PM",,,
,,1812 Thomasville Rd. ,,Tallahassee ,FL,32303,United States,(850) 671-2030,,,"Monday 10:00 AM - 8:00 PM, Tuesday 10:00 AM - 8:00 PM, Wednesday 10:00 AM - 8:00 PM, Thursday 10:00 AM - 8:00 PM, Friday 10:00 AM - 8:00 PM, Saturday 10:00 AM - 6:00 PM, Sunday 12:00 PM - 5:00 PM",,,
,,1758 Rinehart Rd ,,Sanford ,FL,32771,United States,(407) 321-4003,,,"Monday 10:00 AM - 8:00 PM, Tuesday 10:00 AM - 8:00 PM, Wednesday 10:00 AM - 8:00 PM, Thursday 10:00 AM - 8:00 PM, Friday 10:00 AM - 8:00 PM, Saturday 10:00 AM - 6:00 PM, Sunday 12:00 PM - 5:00 PM",,,
,,3615 S Florida Ave Suite 300 ,,Lakeland ,FL,33803,United States,(863) 644-0197,,,"Monday 10:00 AM to 7:00 PM, Tuesday 10:00 AM to 7:00 PM, Wednesday 10:00 AM to 7:00 PM, Thursday 10:00 AM to 7:00 PM, Friday 10:00 AM to 7:00 PM, Saturday 10:00 AM to 6:00 PM, Sunday 12:00 PM to 5:00 PM",,,
,,7420 West Newberry Road Suite B ,,Gainesville ,FL,32605,United States,352-333-2929,,,"Monday 9:00 AM - 7:00 PM, Tuesday 9:00 AM - 7:00 PM, Wednesday 9:00 AM - 7:00 PM, Thursday 9:00 AM - 7:00 PM, Friday 9:00 AM - 7:00 PM, Saturday 10:00 AM - 6:00 PM, Sunday 12:00 PM - 4:00 PM",,,
,,3360 Satellite Blvd. Suite 14 ,,Duluth ,GA,30096,United States,(770) 418-0850,,,"Monday 10:00 AM - 7:00 PM, Tuesday 10:00 AM - 7:00 PM, Wednesday 10:00 AM - 7:00 PM, Thursday 10:00 AM - 7:00 PM, Friday 10:00 AM - 7:00 PM, Saturday 10:00 AM - 6:00 PM, Sunday 12:00 PM - 5:00 PM",,,
,,2488 West Brandon Blvd. ,,Brandon ,FL,33511,United States,(813) 655-6366,,,"Monday 10:00 AM to 8:00 PM, Tuesday 10:00 AM to 8:00 PM, Wednesday 10:00 AM to 8:00 PM, Thursday 10:00 AM to 8:00 PM, Friday 10:00 AM to 8:00 PM, Saturday 10:00 AM to 6:00 PM, Sunday 11:00 AM to 5:00 PM",,,
,,4525 Clayton Road ,,Concord ,CA,94521,United States,(925) 685-3802,,,"Monday 10:00 AM - 6:00 PM, Tuesday 10:00 AM - 6:00 PM, Wednesday 10:00 AM - 6:00 PM, Thursday 10:00 AM - 6:00 PM, Friday 10:00 AM - 8:00 PM, Saturday 10:00 AM - 8:00 PM, Sunday 10:00 AM - 6:00 PM",,,
,,592 Bobby Jones Expressway # 5 ,,Augusta ,GA,30907,United States,(706) 855-5003,,,"Monday 10:00 AM to 7:00 PM, Tuesday 10:00 AM to 7:00 PM, Wednesday 10:00 AM to 7:00 PM, Thursday 10:00 AM to 7:00 PM, Friday 10:00 AM to 7:00 PM, Saturday 10:00 AM to 6:00 PM, Sunday 12:00 AM to 5:00 PM",,,
,,221 Danbury Road ,,New Milford ,CT,06776,United States,(860) 799-6193,,,"Monday 10:00 AM - 6:00 PM, Tuesday 10:00 AM - 6:00 PM, Wednesday 10:00 AM - 6:00 PM, Thursday 10:00 AM - 8:00 PM, Friday 10:00 AM - 8:00 PM, Saturday 10:00 AM - 6:00 PM, Sunday 11:00 AM - 5:00 PM",,,
,,847 Post Rd. ,,Fairfield ,CT,06824,United States,(203) 256-0773,,,"Monday 9:00 AM - 7:00 PM, Tuesday 9:00 AM - 7:00 PM, Wednesday 9:00 AM - 7:00 PM, Thursday 9:00 AM - 7:00 PM, Friday 9:00 AM - 8:00 PM, Saturday 9:00 AM - 6:00 PM, Sunday 10:00 AM - 5:00 PM",,,
,,2620 Creighton Rd. ,,Pensacola ,FL,32504,United States,(850) 476-2708,,,"Monday 10:00 AM - 8:00 PM, Tuesday 10:00 AM - 8:00 PM, Wednesday 10:00 AM - 8:00 PM, Thursday 10:00 AM - 8:00 PM, Friday 10:00 AM - 8:00 PM, Saturday 10:00 AM - 6:00 PM, Sunday 12:00 PM - 5:00 PM",,,
,,2614 S. Shackleford Rd. Suite C ,,Little Rock ,AR,72205,United States,501-228-4800,,,"Monday 10:00 AM - 8:00 PM, Tuesday 10:00 AM - 8:00 PM, Wednesday 10:00 AM - 8:00 PM, Thursday 10:00 AM - 8:00 PM, Friday 10:00 AM - 8:00 PM, Saturday 10:00 AM - 8:00 PM, Sunday 12:00 AM - 12:00 AM",,,
,,1415 A Highway 71 South ,,Fort Smith ,AR,72901,United States,(479) 649-9229,,,"Monday 10:00 AM to 7:00 PM, Tuesday 10:00 AM to 7:00 PM, Wednesday 10:00 AM to 7:00 PM, Thursday 10:00 AM to 7:00 PM, Friday 10:00 AM to 8:00 PM, Saturday 10:00 AM to 8:00 PM, Sunday 11:00 AM to 5:00 PM",,,
,,9120 Wadsworth Blvd ,,Westminster ,CO,80021,United States,(303) 431-0482,,,"Monday 10:00 AM - 8:00 PM, Tuesday 10:00 AM - 8:00 PM, Wednesday 10:00 AM - 8:00 PM, Thursday 10:00 AM - 8:00 PM, Friday 10:00 AM - 8:00 PM, Saturday 10:00 AM - 7:00 PM, Sunday 10:00 AM - 6:00 PM",,,
,,Galleria Shoppes at Vanderbilt Suite 522 2349 Vanderbilt Beach Rd ,,Naples ,FL,34109,United States,(239) 451-6998,,,"Monday 10:00 to 7:00, Tuesday 10:00 to 7:00, Wednesday 10:00 to 7:00, Thursday 10:00 to 7:00, Friday 10:00 to 7:00, Saturday 9:00 to 6:00, Sunday 12:00 to 5:00",,,
,,1935 Main St. ,,Longmont ,CO,80501,United States,(303) 774-1557,,,"Monday 11:00 AM - 8:00 PM, Tuesday 11:00 AM - 8:00 PM, Wednesday 11:00 AM - 8:00 PM, Thursday 11:00 AM - 8:00 PM, Friday 11:00 AM - 8:00 PM, Saturday 10:00 AM - 7:00 PM, Sunday 11:00 AM - 6:00 PM",,,
,,3355 S Wadsworth Blvd ,,Lakewood ,CO,80227,United States,(303) 988-5157,,,"Monday 9:30 - 7:30, Tuesday 9:30 - 7:30, Wednesday 9:30 - 7:30, Thursday 9:30 - 7:30, Friday 9:30 - 7:30, Saturday 10:00 - 6:00, Sunday 11:00 - 5:00",,,
,,16524 Keystone Blvd Unit A ,,Parker ,CO,80134,United States,(303) 996-7560,,,"Monday 11:00 AM - 7:00 PM, Tuesday 11:00 AM - 7:00 PM, Wednesday 11:00 AM - 7:00 PM, Thursday 11:00 AM - 7:00 PM, Friday 11:00 AM - 7:00 PM, Saturday 10:00 AM - 7:00 PM, Sunday 11:00 AM - 5:00 PM",,,
,,3500 South College Ave ,,Fort Collins ,CO,80525,United States,(970) 226-3900,,,"Monday 10:00 AM - 8:00 PM, Tuesday 10:00 AM - 8:00 PM, Wednesday 10:00 AM - 8:00 PM, Thursday 10:00 AM - 8:00 PM, Friday 10:00 AM - 8:00 PM, Saturday 10:00 AM - 7:00 PM, Sunday 10:00 AM - 6:00 PM",,,
,,839 North Academy Blvd ,,Colorado Springs ,CO,80909,United States,(719) 637-0404,,,"Monday 10:00 AM to 8:00 PM, Tuesday 10:00 AM to 8:00 PM, Wednesday 10:00 AM to 8:00 PM, Thursday 10:00 AM to 8:00 PM, Friday 10:00 AM to 8:00 PM, Saturday 10:00 AM to 6:00 PM, Sunday 12:00 PM to 5:00 PM",,,
,,1726 E. Woodmen Road ,,Colorado Springs ,CO,80920,United States,(719) 531-0404,,,"Monday 10:00 AM - 8:00 PM, Tuesday 10:00 AM - 8:00 PM, Wednesday 10:00 AM - 8:00 PM, Thursday 10:00 AM - 8:00 PM, Friday 10:00 AM - 8:00 PM, Saturday 10:00 AM - 6:00 PM, Sunday 12:00 PM - 5:00 PM",,,
,,930 Old Monrovia Rd. N.W. Suite 4 ,,Huntsville ,AL,35806,United States,(256) 489-5242,,,"Monday 10:00 AM to 7:00 PM, Tuesday 10:00 AM to 7:00 PM, Wednesday 10:00 AM to 7:00 PM, Thursday 10:00 AM to 7:00 PM, Friday 10:00 AM to 7:00 PM, Saturday 10:00 AM to 7:00 PM, Sunday 12:00 PM to 5:00 PM",,,
,,312 Schillinger Rd. Suite Q ,,Mobile ,AL,36608,United States,(251) 633-8446,,,"Monday 10:00 AM - 8:00 PM, Tuesday 10:00 AM - 8:00 PM, Wednesday 10:00 AM - 8:00 PM, Thursday 10:00 AM - 8:00 PM, Friday 10:00 AM - 8:00 PM, Saturday 10:00 AM - 6:00 PM, Sunday 12:00 PM - 5:00 PM",,,
,,3700 East Speedway ,,Tucson ,AZ,85716,United States,(520) 882-8888,,,"Monday 10:00 AM to 7:00 PM, Tuesday 10:00 AM to 7:00 PM, Wednesday 10:00 AM to 7:00 PM, Thursday 10:00 AM to 7:00 PM, Friday 10:00 AM to 7:00 PM, Saturday 10:00 AM to 7:00 PM, Sunday 11:00 AM to 5:00 PM",,,
,,1550 Opelika Rd. Suite # 23 ,,Auburn ,AL,36830,United States,(334) 826-8216,,,"Monday 10:00 AM - 7:00 PM, Tuesday 10:00 AM - 7:00 PM, Wednesday 10:00 AM - 7:00 PM, Thursday 10:00 AM - 7:00 PM, Friday 10:00 AM - 7:00 PM, Saturday 10:00 AM - 6:00 PM, Sunday 12:00 PM - 5:00 PM",,,
,,1915 S Havanna ,,Aurora ,CO,80014,United States,(303) 341-0414,,,"Monday 9:30 AM - 7:30 PM, Tuesday 9:30 AM - 7:30 PM, Wednesday 9:30 AM - 7:30 PM, Thursday 9:30 AM - 7:30 PM, Friday 9:30 AM - 7:30 PM, Saturday 10:00 AM - 6:00 PM, Sunday 11:00 AM - 5:00 PM",,,
,,3211 Main St ,,Alamosa ,CO,81101,United States,(719) 937-2570,,,"Monday 12:00 PM - 5:00 PM, Tuesday 10:00 AM - 7:00 PM, Wednesday 10:00 AM - 7:00 PM, Thursday 10:00 AM - 7:00 PM, Friday 10:00 AM - 7:00 PM, Saturday 10:00 AM - 7:00 PM, Sunday 12:00 PM - 5:00 PM",,,
,,454 Prospect Blvd. ,,Frederick ,MD,21701,United States,(301) 694-7395,,,"Monday 10:00 AM - 7:00 PM, Tuesday 10:00 AM - 7:00 PM, Wednesday 10:00 AM - 7:00 PM, Thursday 10:00 AM - 7:00 PM, Friday 10:00 AM - 7:00 PM, Saturday 10:00 AM - 6:00 PM, Sunday 12:00 PM - 5:00 PM",,,
,,21770 W 11 Mile Rd ,,(Harvard Row Mall) Southfield ,MI,48078,United States,(248) 864-5277,,,"Monday 10:00 AM - 8:00 PM, Tuesday 10:00 AM - 8:00 PM, Wednesday 10:00 AM - 8:00 PM, Thursday 10:00 AM - 8:00 PM, Friday 10:00 AM - 8:00 PM, Saturday 10:00 AM - 8:00 PM, Sunday 12:00 PM - 5:00 PM",,,
,,4879 Miller Trunk Hwy. ,,Hermantown ,MN,55811,United States,(218) 723-7114,,,"Monday 10:00 AM to 8:00 PM, Tuesday 10:00 AM to 8:00 PM, Wednesday 10:00 AM to 8:00 PM, Thursday 10:00 AM to 8:00 PM, Friday 10:00 AM to 8:00 PM, Saturday 10:00 AM to 6:00 PM, Sunday 12:00 PM to 5:00 PM",,,
,,900 E Battlefield Rd Suite 152-160 ,,Springfield ,MO,65807,United States,(417) 887-1517,,,"Monday 10:00 AM - 7:00 PM, Tuesday 10:00 AM - 7:00 PM, Wednesday 10:00 AM - 7:00 PM, Thursday 10:00 AM - 7:00 PM, Friday 10:00 AM - 7:00 PM, Saturday 10:00 AM - 6:00 PM, Sunday 1:00 PM - 5:00 PM",,,
,,6265 N Oak Traffic Way ,,Kansas City ,MO,64118,United States,(816) 459-9590,,,"Monday 10:00 AM to 8:00 PM, Tuesday 10:00 AM to 8:00 PM, Wednesday 10:00 AM to 8:00 PM, Thursday 10:00 AM to 8:00 PM, Friday 10:00 AM to 8:00 PM, Saturday 10:00 AM to 6:00 PM, Sunday 12:00 PM to 5:00 PM",,,
,,5316 W. Main Street ,,Kalamazoo ,MI,49009,United States,(269) 382-1100,,,"Monday 10:00 AM - 8:00 PM, Tuesday 10:00 AM - 8:00 PM, Wednesday 10:00 AM - 8:00 PM, Thursday 10:00 AM - 8:00 PM, Friday 10:00 AM - 8:00 PM, Saturday 10:00 AM - 8:00 PM, Sunday 12:00 PM - 5:00 PM",,,
,,742 MacKenzie Ln Suite 5B ,,Flowood ,MS,39232,United States,(601) 919-8697,,,"Monday 9:00 AM - 8:00 PM, Tuesday 9:00 AM - 8:00 PM, Wednesday 9:00 AM - 8:00 PM, Thursday 9:00 AM - 8:00 PM, Friday 9:00 AM - 8:00 PM, Saturday 9:00 AM - 8:00 PM, Sunday 1:00 PM - 5:00 PM",,,
,,3172 44th St. SW ,,Grandville ,MI,49418,United States,(616) 530-9000,,,"Monday TBA, Tuesday TBA, Wednesday TBA, Thursday TBA, Friday TBA, Saturday TBA, Sunday TBA",,,
,,4590 W. Sahara Suite 103 ,,Las Vegas ,NV,89102,United States,(702) 889-9554,,,"Monday 10:00 AM to 7:00 PM, Tuesday 10:00 AM to 7:00 PM, Wednesday 10:00 AM to 7:00 PM, Thursday 10:00 AM to 7:00 PM, Friday 10:00 AM to 7:00 PM, Saturday 10:00 AM to 6:00 PM, Sunday 12:00 PM to 5:00 PM",,,
,,10020 Scott Circle ,,Omaha ,NE,68122,United States,(402) 498-8888,,,"Monday 10:00 AM - 8:00 PM, Tuesday 10:00 AM - 8:00 PM, Wednesday 10:00 AM - 8:00 PM, Thursday 10:00 AM - 8:00 PM, Friday 10:00 AM - 8:00 PM, Saturday 10:00 AM - 6:00 PM, Sunday 12:00 PM - 6:00 PM",,,
,,3275 Reserve St. ,,Missoula ,MT,59808,United States,(406) 541-TOYS (8697),,,"Monday 11:00 AM - 6:00 PM, Tuesday 11:00 AM - 6:00 PM, Wednesday 11:00 AM - 6:00 PM, Thursday 11:00 AM - 6:00 PM, Friday 11:00 AM - 6:00 PM, Saturday 11:00 AM - 5:00 PM, Sunday 12:00 PM - 4:00 PM",,,
,,168 Norman Station Blvd. ,,Suite-FF Mooresville ,NC,28117,United States,(704) 799-9332,,,"Monday 10:00 AM - 8:00 PM, Tuesday 10:00 AM - 8:00 PM, Wednesday 10:00 AM - 8:00 PM, Thursday 10:00 AM - 8:00 PM, Friday 10:00 AM - 8:00 PM, Saturday 10:00 AM - 8:00 PM, Sunday 12:00 PM - 6:00 PM",,,
,,614 South Main St. ,,King ,NC,27021,United States,(336) 983-3969,,,"Monday 10:00 AM - 7:00 PM, Tuesday 10:00 AM - 7:00 PM, Wednesday 10:00 AM - 7:00 PM, Thursday 10:00 AM - 7:00 PM, Friday 10:00 AM - 7:00 PM, Saturday 10:00 AM - 6:00 PM, Sunday 12:00 AM - 12:00 AM",,,
,,500 Sundial Drive ,,Waite Park ,MN,56387,United States,(320) 252-0460,,,"Monday 10:00 AM - 7:00 PM, Tuesday 10:00 AM - 7:00 PM, Wednesday 10:00 AM - 7:00 PM, Thursday 10:00 AM - 7:00 PM, Friday 10:00 AM - 7:00 PM, Saturday 10:00 AM - 6:00 PM, Sunday 12:00 PM - 5:00 PM",,,
,,1826 Highway 70 SE ,,Hickory ,NC,28602,United States,(828) 315-9658,,,"Monday 10:30 AM - 8:00 PM, Tuesday 10:30 AM - 8:00 PM, Wednesday 10:30 AM - 8:00 PM, Thursday 10:30 AM - 8:00 PM, Friday 10:30 AM - 9:00 PM, Saturday 10:30 AM - 9:00 PM, Sunday 1:00 PM - 6:00 PM",,,
,,2400 West 4th St ,,Ontario ,OH,44906,United States,419-529-4343,,,"Monday 10:00 AM - 7:00 PM, Tuesday 10:00 AM - 7:00 PM, Wednesday 10:00 AM - 7:00 PM, Thursday 10:00 AM - 7:00 PM, Friday 10:00 AM - 7:00 PM, Saturday 10:00 AM - 7:00 PM, Sunday 12:00 PM - 4:00 PM",,,
,,7982 Plaza Blvd. ,,Mentor ,OH,44060,United States,(440) 946-5588,,,"Monday 10:00 AM - 8:00 PM, Tuesday 10:00 AM - 8:00 PM, Wednesday 10:00 AM - 8:00 PM, Thursday 10:00 AM - 8:00 PM, Friday 10:00 AM - 8:00 PM, Saturday 10:00 AM - 8:00 PM, Sunday 12:00 PM - 5:00 PM",,,
,,7103 Orchard Centre Dr. ,,Holland ,OH,43528,United States,(419) 867-9490,,,"Monday 10:00 AM to 8:00 PM, Tuesday 10:00 AM to 8:00 PM, Wednesday 10:00 AM to 8:00 PM, Thursday 10:00 AM to 8:00 PM, Friday 10:00 AM to 8:00 PM, Saturday 10:00 AM to 7:00 PM, Sunday 12:00 PM to 5:00 PM",,,
,,315 Stoneridge Lane ,,Gahanna ,OH,43230,United States,(614) 414-0160,,,"Monday 12:00 PM - 7:00 PM, Tuesday 12:00 AM - 12:00 AM, Wednesday 11:00 AM - 8:00 PM, Thursday 12:00 PM - 7:00 PM, Friday 11:00 AM - 8:00 PM, Saturday 11:00 AM - 8:00 PM, Sunday 12:00 PM - 6:00 PM",,,
,,64 East Route 59 ,,Nanuet ,NY,10954,United States,(845) 623-3261,,,"Monday 11:00 AM - 8:00 PM, Tuesday 11:00 AM - 8:00 PM, Wednesday 11:00 AM - 8:00 PM, Thursday 11:00 AM - 8:00 PM, Friday 11:00 AM - 8:00 PM, Saturday 10:00 AM - 8:00 PM, Sunday 11:00 AM - 7:00 PM",,,
,,3833 Ramsey Street ,,Fayetteville ,NC,28311,United States,(910) 436-3700,,,"Monday 10:00 AM - 8:00 PM, Tuesday 12:00 AM - 12:00 AM, Wednesday 10:00 AM - 8:00 PM, Thursday 10:00 AM - 8:00 PM, Friday 10:00 AM - 8:00 PM, Saturday 10:00 AM - 6:00 PM, Sunday 12:00 PM - 5:00 PM",,,
,,1643 Georgesville Square Dr ,,Columbus ,OH,43228,United States,(614) 878-4344,,,"Monday 11:00 AM - 8:00 PM, Tuesday 11:00 AM - 8:00 PM, Wednesday 12:00 AM - 12:00 AM, Thursday 11:00 AM - 8:00 PM, Friday 11:00 AM - 8:00 PM, Saturday 10:00 AM - 8:00 PM, Sunday 12:00 PM - 6:00 PM",,,
,,4 South Tunnel Rd Suite 440 ,,Asheville ,NC,28805,United States,828-298-4445,,,"Monday 10:00 AM - 7:00 PM, Tuesday 10:00 AM - 7:00 PM, Wednesday 10:00 AM - 7:00 PM, Thursday 10:00 AM - 7:00 PM, Friday 10:00 AM - 7:00 PM, Saturday 10:00 AM - 6:00 PM, Sunday 1:00 PM - 6:00 PM",,,
,,4 Orchard View Drive Unit 6 ,,Londonderry ,NH,03053,United States,(603) 432-4881,,,"Monday 10:00 AM - 6:00 PM, Tuesday 10:00 AM - 6:00 PM, Wednesday 10:00 AM - 6:00 PM, Thursday 10:00 AM - 6:00 PM, Friday 10:00 AM - 7:00 PM, Saturday 10:00 AM - 6:00 PM, Sunday 10:00 AM - 5:00 PM",,,
,,9120 Union Cemetery Rd. ,,Cincinnati ,OH,45249,United States,(513) 697-8224,,,"Monday 10:00 AM to 9:00 PM, Tuesday 10:00 AM to 9:00 PM, Wednesday 10:00 AM to 9:00 PM, Thursday 10:00 AM to 9:00 PM, Friday 10:00 AM to 9:00 PM, Saturday 10:00 AM to 9:00 PM, Sunday 11:00 AM to 5:00 PM",,,
,,10131 Coors Blvd. NW Suite C-5 ,,Albuquerque ,NM,87114,United States,(505) 890-1456,,,"Monday 10:00 AM - 6:00 PM, Tuesday 10:00 AM - 6:00 PM, Wednesday 10:00 AM - 6:00 PM, Thursday 10:00 AM - 6:00 PM, Friday 10:00 AM - 7:00 PM, Saturday 10:00 AM - 6:00 PM, Sunday 11:00 AM - 4:00 PM",,,
,,348 County Road 410 ,,South Point ,OH,45680,United States,(740) 894-6303,,,"Monday 11:00 AM - 7:00 PM, Tuesday 11:00 AM - 7:00 PM, Wednesday 11:00 AM - 7:00 PM, Thursday 11:00 AM - 7:00 PM, Friday 11:00 AM - 7:00 PM, Saturday 11:00 AM - 8:00 PM, Sunday 12:00 PM - 6:00 PM",,,
,,4107 Pioneer Woods Drive Suite 108 ,,Lincoln ,NE,68506,United States,(402) 434-5040,,,"Monday 10:00 AM - 8:00 PM, Tuesday 10:00 AM - 8:00 PM, Wednesday 10:00 AM - 8:00 PM, Thursday 10:00 AM - 8:00 PM, Friday 10:00 AM - 8:00 PM, Saturday 10:00 AM - 8:00 PM, Sunday 12:00 PM - 5:00 PM",,,
,,3255 Cornhusker Hwy Suite B5 ,,Lincoln ,NE,68504,United States,(402) 261-6714,,,"Monday 12:00 PM - 7:00 PM, Tuesday 12:00 PM - 7:00 PM, Wednesday 12:00 PM - 7:00 PM, Thursday 12:00 PM - 7:00 PM, Friday 12:00 PM - 7:00 PM, Saturday 11:00 AM - 6:00 PM, Sunday 12:00 PM - 5:00 PM",,,
,,8060 South 84th Street ,,LaVista ,NE,68128,United States,(402) 597-1888,,,"Monday 10:00 AM to 7:00 PM, Tuesday 10:00 AM to 7:00 PM, Wednesday 10:00 AM to 7:00 PM, Thursday 10:00 AM to 7:00 PM, Friday 10:00 AM to 7:00 PM, Saturday 10:00 AM to 6:00 PM, Sunday 12:00 PM to 5:00 PM",,,
,,215A West Boylston St ,,West Boylston ,MA,01583,United States,(774) 261-8191,,,"Monday 10:00 to 6:00, Tuesday 10:00 to 6:00, Wednesday 10:00 to 6:00, Thursday 10:00 to 7:00, Friday 10:00 to 7:00, Saturday 10:00 to 6:00, Sunday 12:00 to 6:00",,,
,,106 Marlboro Ave. Suite 4 ,,Easton ,MD,21601,United States,(410) 822-7800,,,"Monday 10:00 AM - 8:00 PM, Tuesday 10:00 AM - 8:00 PM, Wednesday 10:00 AM - 8:00 PM, Thursday 10:00 AM - 8:00 PM, Friday 10:00 AM - 8:00 PM, Saturday 10:00 AM - 6:00 PM, Sunday 12:00 PM - 5:00 PM",,,
,,3404 W. 13th St. Suite 160B ,,Grand Island ,NE,68803,United States,(308) 382-3451,,,"Monday 10:00 AM - 9:00 PM, Tuesday 10:00 AM - 9:00 PM, Wednesday 10:00 AM - 9:00 PM, Thursday 10:00 AM - 9:00 PM, Friday 10:00 AM - 9:00 PM, Saturday 10:00 AM - 9:00 PM, Sunday 12:00 PM - 6:00 PM",,,
,,2236 W Main Street ,,Norman ,OK,73069,United States,(405) 292-5850,,,"Monday 10:00 to 8:00, Tuesday 10:00 to 8:00, Wednesday 10:00 to 8:00, Thursday 10:00 to 8:00, Friday 10:00 AM to 8:00 PM, Saturday 10:00 to 6:00, Sunday 11:00 to 5:00",,,
,,6808 South Memorial Drive Suite # 116 ,,Tulsa ,OK,74133,United States,(918) 307-2000,,,"Monday 10:00 AM - 8:00 PM, Tuesday 10:00 AM - 8:00 PM, Wednesday 10:00 AM - 8:00 PM, Thursday 10:00 AM - 8:00 PM, Friday 10:00 AM - 8:00 PM, Saturday 10:00 AM - 6:00 PM, Sunday 12:00 PM - 5:00 PM",,,
,,25699 SW Argyle Ave. Unit F ,,Wilsonville ,OR,97070,United States,(503) 685-7333,,,"Monday 10:00 AM - 8:00 PM, Tuesday 10:00 AM - 8:00 PM, Wednesday 10:00 AM - 8:00 PM, Thursday 10:00 AM - 8:00 PM, Friday 10:00 AM - 8:00 PM, Saturday 10:00 AM - 8:00 PM, Sunday 11:00 AM - 6:00 PM",,,
,,10317 SE 82nd Ave ,,Happy Valley ,OR,97086,United States,(971) 222-2688,,,"Monday 10:00 AM - 8:00 PM, Tuesday 10:00 AM - 8:00 PM, Wednesday 10:00 AM - 8:00 PM, Thursday 10:00 AM - 8:00 PM, Friday 10:00 AM - 8:00 PM, Saturday 10:00 AM - 8:00 PM, Sunday 11:00 AM - 6:00 PM",,,
,,813 West Danforth Rd. ,,Edmond ,OK,73003,United States,(405) 844-8697,,,"Monday 10:00 AM - 8:00 PM, Tuesday 10:00 AM - 8:00 PM, Wednesday 10:00 AM - 8:00 PM, Thursday 10:00 AM - 8:00 PM, Friday 10:00 AM - 8:00 PM, Saturday 10:00 AM - 8:00 PM, Sunday 12:00 PM - 5:00 PM",,,
,,2180 MacArthur Rd ,,Whitehall ,PA,18052,United States,(610) 336-9960,,,"Monday 10:00 AM to 8:00 PM, Tuesday 10:00 AM to 8:00 PM, Wednesday 10:00 AM to 8:00 PM, Thursday 10:00 AM to 8:00 PM, Friday 10:00 AM to 8:00 PM, Saturday 10:00 AM to 8:00 PM, Sunday 12:00 AM to 5:00 PM",,,
,,300 Pleasant Grove Rd Suite 340 ,,Mt. Juliet ,TN,37122,United States,(615) 754-6229,,,"Monday 10:00 AM to 6:00 PM, Tuesday 10:00 AM to 6:00 PM, Wednesday 10:00 AM to 6:00 PM, Thursday 10:00 AM to 6:00 PM, Friday 10:00 AM to 6:00 PM, Saturday 10:00 AM to 6:00 PM, Sunday 12:00 AM to 6:00 PM",,,
,,1710 S. Western Ave. ,,Sioux Falls ,SD,57105,United States,(605) 274-6229,,,"Monday 10:00 AM to 7:00 PM, Tuesday 10:00 AM to 7:00 PM, Wednesday 10:00 AM to 7:00 PM, Thursday 10:00 AM to 7:00 PM, Friday 10:00 AM to 7:00 PM, Saturday 10:00 AM to 5:00 PM, Sunday 12:00 PM to 4:00 PM",,,
,,4566 S. Broadway ,,Tyler ,TX,75703,United States,(903) 509-3000,,,"Monday 10:00 AM to 8:00 PM, Tuesday 10:00 AM to 8:00 PM, Wednesday 10:00 AM to 8:00 PM, Thursday 10:00 AM to 8:00 PM, Friday 10:00 AM to 8:00 PM, Saturday 10:00 AM to 6:00 PM, Sunday 1:00 PM to 5:00 PM",,,
,,2501 NW Loop 410 Suite A ,,San Antonio ,TX,78230,United States,(210) 348-8697,,,"Monday 10:00 AM - 8:00 PM, Tuesday 10:00 AM - 8:00 PM, Wednesday 10:00 AM - 8:00 PM, Thursday 10:00 AM - 8:00 PM, Friday 10:00 AM - 8:00 PM, Saturday 10:00 AM - 6:00 PM, Sunday 12:00 PM - 5:00 PM",,,
,,1502 West Chester Pike ,,West Chester ,PA,19382,United States,(610) 696-9049,,,"Monday 10:00 AM - 8:00 PM, Tuesday 10:00 AM - 8:00 PM, Wednesday 10:00 AM - 8:00 PM, Thursday 10:00 AM - 8:00 PM, Friday 10:00 AM - 8:00 PM, Saturday 10:00 AM - 6:00 PM, Sunday 12:00 PM - 4:00 PM",,,
,,360 E. 800 S ,,Orem ,UT,84097,United States,(801) 224-3577,,,"Monday 10:00 AM - 8:00 PM, Tuesday 10:00 AM - 8:00 PM, Wednesday 10:00 AM - 8:00 PM, Thursday 10:00 AM - 8:00 PM, Friday 10:00 AM - 8:00 PM, Saturday 12:00 AM - 12:00 AM, Sunday 12:00 AM - 12:00 AM",,,
,,21768 E. Knox Dr. ,,Porter ,TX,77365,United States,(281) 577-8250,,,"Monday 10:00 AM - 6:30 PM, Tuesday 10:00 AM - 6:30 PM, Wednesday 10:00 AM - 6:30 PM, Thursday 10:00 AM - 6:30 PM, Friday 10:00 AM - 6:30 PM, Saturday 9:00 AM - 6:00 PM, Sunday 11:00 AM - 5:00 PM",,,
,,17774 Southcenter Parkway ,,Tukwila ,WA,98188,United States,(206) 575-0949,,,"Monday 10:00 AM - 8:00 PM, Tuesday 10:00 AM - 8:00 PM, Wednesday 10:00 AM - 8:00 PM, Thursday 10:00 AM - 8:00 PM, Friday 10:00 AM - 8:00 PM, Saturday 10:00 AM - 8:00 PM, Sunday 11:00 AM - 6:00 PM",,,
,,9632 N. Newport Hwy ,,Spokane ,WA,99218,United States,(509) 465-3267,,,"Monday 10:00 AM - 7:00 PM, Tuesday 10:00 AM - 7:00 PM, Wednesday 10:00 AM - 7:00 PM, Thursday 10:00 AM - 7:00 PM, Friday 10:00 AM - 9:00 PM, Saturday 10:00 AM - 7:00 PM, Sunday 12:00 PM - 5:00 PM",,,
,,1704 S. 108th Street ,,West Allis ,WI,53214,United States,(414) 771-5215,,,"Monday 10:00 AM - 8:00 PM, Tuesday 10:00 AM - 8:00 PM, Wednesday 10:00 AM - 8:00 PM, Thursday 10:00 AM - 8:00 PM, Friday 10:00 AM - 8:00 PM, Saturday 10:00 AM - 6:00 PM, Sunday 11:00 AM - 5:00 PM",,,
,,168 E. Geneva Square ,,Lake Geneva ,WI,53147,United States,(262) 729-4053,,,"Monday 10:00 - 8:00, Tuesday 10:00 - 8:00, Wednesday 10:00 - 8:00, Thursday 10:00 - 8:00, Friday 10:00 - 8:00, Saturday 10:00 - 8:00, Sunday 11:00 - 5:00",,,
,,2767 South Oneida Street ,,Green Bay ,WI,54304,United States,(920) 490-9996,,,"Monday 10:00 AM - 8:00 PM, Tuesday 10:00 AM - 8:00 PM, Wednesday 10:00 AM - 8:00 PM, Thursday 10:00 AM - 8:00 PM, Friday 10:00 AM - 8:00 PM, Saturday 10:00 AM - 6:00 PM, Sunday 12:00 PM - 5:00 PM",,,
,,935 East Interstate 30 ,,Rockwall ,TX,75087,United States,(972) 771-1233,,,"Monday 10:00 AM - 8:00 PM, Tuesday 10:00 AM - 8:00 PM, Wednesday 10:00 AM - 8:00 PM, Thursday 10:00 AM - 8:00 PM, Friday 10:00 AM - 8:00 PM, Saturday 10:00 AM - 6:00 PM, Sunday 12:00 PM - 5:00 PM",,,
,,W182N9606 Appleton Ave. Suite 105 ,,Germantown ,WI,53022,United States,(262) 251-7670,,,"Monday 10:00 AM - 8:00 PM, Tuesday 10:00 AM - 8:00 PM, Wednesday 10:00 AM - 8:00 PM, Thursday 10:00 AM - 8:00 PM, Friday 10:00 AM - 8:00 PM, Saturday 10:00 AM - 5:00 PM, Sunday 11:00 AM - 5:00 PM",,,
,,5220 Rue Terre ,,Cheyenne ,WY,82009,United States,(307) 635-1507,,,"Monday 11:00 AM - 7:00 PM, Tuesday 11:00 AM - 7:00 PM, Wednesday 11:00 AM - 7:00 PM, Thursday 11:00 AM - 7:00 PM, Friday 11:00 AM - 7:00 PM, Saturday 10:00 AM - 7:00 PM, Sunday 11:00 AM - 5:00 PM",,,
,,8720 N.E. Centerpointe Dr. # 219 ,,Vancouver ,WA,98665,United States,(360) 823-0904,,,"Monday 10:00 AM - 8:00 PM, Tuesday 10:00 AM - 8:00 PM, Wednesday 10:00 AM - 8:00 PM, Thursday 10:00 AM - 8:00 PM, Friday 10:00 AM - 8:00 PM, Saturday 10:00 AM - 6:00 PM, Sunday 12:00 AM - 12:00 AM",,,
,,122 South Memorial ,,Appleton ,WI,54911,United States,(920) 955-2121,,,"Monday 10:00 to 8:00, Tuesday 10:00 to 8:00, Wednesday 10:00 to 8:00, Thursday 10:00 to 8:00, Friday 10:00 to 8:00, Saturday 10:00 to 8:00, Sunday 10:00 to 5:00",,,
,,1360 N Louisiana Suite G ,,Kennewick ,WA,99336,United States,(509) 783-9130,,,"Monday 10:00 AM - 8:00 PM, Tuesday 10:00 AM - 8:00 PM, Wednesday 10:00 AM - 8:00 PM, Thursday 10:00 AM - 8:00 PM, Friday 10:00 AM - 8:00 PM, Saturday 10:00 AM - 6:00 PM, Sunday 11:00 AM - 5:00 PM",,,
,,16421-A Cleveland Street ,,Redmond ,WA,98052,United States,(425) 558-0312,,,"Monday 10:00 AM - 8:00 PM, Tuesday 10:00 AM - 8:00 PM, Wednesday 10:00 AM - 8:00 PM, Thursday 10:00 AM - 8:00 PM, Friday 10:00 AM - 8:00 PM, Saturday 10:00 AM - 8:00 PM, Sunday 11:00 AM - 5:00 PM",,,
,,807 Oregon St ,,Oshkosh ,WI,54902,United States,(920) 426-1840,,,"Monday 10:00 AM - 8:00 PM, Tuesday 10:00 AM - 8:00 PM, Wednesday 10:00 AM - 8:00 PM, Thursday 10:00 AM - 8:00 PM, Friday 10:00 AM - 8:00 PM, Saturday 10:00 AM - 8:00 PM, Sunday 10:00 AM - 5:00 PM",,,
,,1130 S.E. Everett Mall Way Suite F ,,Everett ,WA,98208,United States,(425) 355-8086,,,"Monday 10:00 AM - 8:00 PM, Tuesday 10:00 AM - 8:00 PM, Wednesday 10:00 AM - 8:00 PM, Thursday 10:00 AM - 8:00 PM, Friday 10:00 AM - 8:00 PM, Saturday 10:00 AM - 8:00 PM, Sunday 11:00 AM - 6:00 PM",,,
,,2730 Heritage Dr. ,,Delafield ,WI,53018,United States,(262) 646-5755,,,"Monday 10:00 AM to 9:00 PM, Tuesday 10:00 AM to 9:00 PM, Wednesday 10:00 AM to 9:00 PM, Thursday 10:00 AM to 9:00 PM, Friday 10:00 AM to 9:00 PM, Saturday 10:00 AM to 6:00 PM, Sunday 11:00 AM to 5:00 PM",,,
,,410 W Bakerview Rd # 103 ,,Bellingham ,WA,98226,United States,(360) 752-2240,,,"Monday 10:00 AM - 6:00 PM, Tuesday 10:00 AM - 6:00 PM, Wednesday 10:00 AM - 6:00 PM, Thursday 10:00 AM - 6:00 PM, Friday 10:00 AM - 6:00 PM, Saturday 10:00 AM - 6:00 PM, Sunday 12:00 PM - 5:00 PM",,,
,,HobbyTown USA 8032-B W. Broad St. ,,Richmond ,VA,23294,United States,(804) 270-2250,,,"Monday 10:00 AM - 8:00 PM, Tuesday 10:00 AM - 8:00 PM, Wednesday 10:00 AM - 8:00 PM, Thursday 10:00 AM - 8:00 PM, Friday 10:00 AM - 8:00 PM, Saturday 10:00 AM - 6:00 PM, Sunday 12:00 PM - 5:00 PM",,,
,,Loehmann's Plaza # 196 4000 Virginia Beach Blvd ,,Virginia Beach ,VA,23452,United States,(757) 306-4760,,,"Monday 10:00 AM - 8:00 PM, Tuesday 10:00 AM - 8:00 PM, Wednesday 10:00 AM - 8:00 PM, Thursday 10:00 AM - 8:00 PM, Friday 10:00 AM - 8:00 PM, Saturday 10:00 AM - 6:00 PM, Sunday 12:00 PM - 5:00 PM",,,
,,Stein Mart Festival Center 9768 Midlothian Turnpike ,,Richmond ,VA,23235,United States,(804) 267-3366,,,"Monday 10:00 AM - 8:00 PM, Tuesday 10:00 AM - 8:00 PM, Wednesday 10:00 AM - 8:00 PM, Thursday 10:00 AM - 8:00 PM, Friday 10:00 AM - 8:00 PM, Saturday 10:00 AM - 6:00 PM, Sunday 12:00 PM - 5:00 PM",,,
,,10868 Myhre Place Suite 105 ,,Silverdale ,WA,98383,United States,(360) 698-0312,,,"Monday 10:00 AM to 7:00 PM, Tuesday 10:00 AM to 7:00 PM, Wednesday 10:00 AM to 7:00 PM, Thursday 10:00 AM to 7:00 PM, Friday 10:00 AM to 7:00 PM, Saturday 10:00 AM to 7:00 PM, Sunday 11:00 AM to 6:00 PM",,,
,,Chancellor Center 4143 Plank Rd ,,Fredericksburg ,VA,22407,United States,(540) 786-5138,,,"Monday 10:00 AM - 8:00 PM, Tuesday 10:00 AM - 8:00 PM, Wednesday 10:00 AM - 8:00 PM, Thursday 10:00 AM - 8:00 PM, Friday 10:00 AM - 8:00 PM, Saturday 10:00 AM - 6:00 PM, Sunday 12:00 PM - 5:00 PM",,,
,,HobbyTown USA 12761 Jefferson Ave ,,Newport News ,VA,23602,United States,(757) 890-4515,,,"Monday 10:00 AM - 8:00 PM, Tuesday 10:00 AM - 8:00 PM, Wednesday 10:00 AM - 8:00 PM, Thursday 10:00 AM - 8:00 PM, Friday 10:00 AM - 8:00 PM, Saturday 10:00 AM - 6:00 PM, Sunday 12:00 PM - 5:00 PM",,,
,,3303 N. Central Expressway ,,Plano ,TX,75023,United States,(972) 424-8493,,,"Monday 10:00 AM - 7:00 PM, Tuesday 10:00 AM - 7:00 PM, Wednesday 10:00 AM - 8:00 PM, Thursday 10:00 AM - 8:00 PM, Friday 10:00 AM - 8:00 PM, Saturday 10:00 AM - 8:00 PM, Sunday 12:00 PM - 5:00 PM",,,
,,746 Grapevine Highway ,,Hurst ,TX,76054,United States,(817) 581-1027,,,"Monday 10:00 AM to 8:00 PM, Tuesday 10:00 AM to 8:00 PM, Wednesday 10:00 AM to 8:00 PM, Thursday 10:00 AM to 8:00 PM, Friday 10:00 AM to 8:00 PM, Saturday 10:00 AM to 6:00 PM, Sunday 12:00 PM to 5:00 PM",,,
,,500 East Round Grove Rd Suite 125 ,,Lewisville ,TX,75067,United States,(972) 315-3700,,,"Monday 10:00 to 8:00, Tuesday 10:00 to 8:00, Wednesday 10:00 to 8:00, Thursday 10:00 to 8:00, Friday 10:00 to 8:00, Saturday 10:00 to 6:00, Sunday 12:00 to 5:00",,,
,,2392 Hwy. 6 South ,,Houston ,TX,77077,United States,(281) 556-8697,,,"Monday 10:00 AM - 8:00 PM, Tuesday 10:00 AM - 8:00 PM, Wednesday 10:00 AM - 8:00 PM, Thursday 10:00 AM - 8:00 PM, Friday 10:00 AM - 8:00 PM, Saturday 10:00 AM - 8:00 PM, Sunday 12:00 PM - 6:00 PM",,,
,,414 W. Loop 281 Suite 12 ,,Longview ,TX,75605,United States,(903) 757-2222,,,"Monday 10am â€“ 6pm, Tuesday 10am â€“ 6pm, Wednesday 10am â€“ 6pm, Thursday 10am â€“ 6pm, Friday 10am â€“ 6pm, Saturday 10am â€“ 6pm, Sunday Closed",,,
,,6060 East Mockingbird Lane Suite 870 ,,Dallas ,TX,75206,United States,(214) 987-4744,,,"Monday 10:00 AM - 8:00 PM, Tuesday 10:00 AM - 8:00 PM, Wednesday 10:00 AM - 8:00 PM, Thursday 10:00 AM - 8:00 PM, Friday 10:00 AM - 8:00 PM, Saturday 10:00 AM - 6:00 PM, Sunday 12:00 PM - 5:00 PM",,,
,,100 E Whitestone Blvd STE 130 ,,Cedar Park ,TX,78613,United States,(512) 648-3824,,,"Monday 10:00 AM - 8:00 PM, Tuesday 10:00 AM - 8:00 PM, Wednesday 10:00 AM - 8:00 PM, Thursday 10:00 AM - 8:00 PM, Friday 10:00 AM - 8:00 PM, Saturday 10:00 AM - 8:00 PM, Sunday 12:00 PM - 5:00 PM",,,
,,2500 West Parmer Lane Suite 80 ,,Austin ,TX,78727,United States,(512) 246-8904,,,"Monday 10:00 AM - 8:00 PM, Tuesday 10:00 AM - 8:00 PM, Wednesday 10:00 AM - 8:00 PM, Thursday 10:00 AM - 8:00 PM, Friday 10:00 AM - 8:00 PM, Saturday 10:00 AM - 8:00 PM, Sunday 12:00 PM - 5:00 PM",,,
,,677 Sherry Lane (just north of Target at 751 Alta Mere Dr) ,,Fort Worth ,TX,76116,United States,817-735-0021,,,"Monday 10:00 AM - 8:00 PM, Tuesday 10:00 AM - 8:00 PM, Wednesday 10:00 AM - 8:00 PM, Thursday 10:00 AM - 8:00 PM, Friday 10:00 AM - 8:00 PM, Saturday 10:00 AM - 8:00 PM, Sunday 12:00 PM - 6:00 PM",,,
,,4634 S. Cooper Street Suite 182 ,,Arlington ,TX,76017,United States,(817) 557-2225,,,"Monday 10:00 AM - 8:00 PM, Tuesday 10:00 AM - 8:00 PM, Wednesday 10:00 AM - 8:00 PM, Thursday 10:00 AM - 8:00 PM, Friday 10:00 AM - 8:00 PM, Saturday 10:00 AM - 8:00 PM, Sunday 12:00 PM - 6:00 PM",,,
,,9900 S IH-35 Suite F200 ,,Austin ,TX,78748,United States,(512) 440-7877,,,"Monday 10:00 AM - 8:00 PM, Tuesday 10:00 AM - 8:00 PM, Wednesday 10:00 AM - 8:00 PM, Thursday 10:00 AM - 8:00 PM, Friday 10:00 AM - 8:00 PM, Saturday 10:00 AM - 8:00 PM, Sunday 12:00 PM - 5:00 PM",,,
,,4107 N. 10th St. ,,McAllen ,TX,78504,United States,(956) 627-0571,,,"Monday 12:00 PM - 8:00 PM, Tuesday 12:00 AM - 12:00 AM, Wednesday 12:00 PM - 8:00 PM, Thursday 12:00 PM - 8:00 PM, Friday 12:00 PM - 8:00 PM, Saturday 12:00 PM - 8:00 PM, Sunday 12:00 PM - 5:00 PM",,,
,,11145 Turkey Drive ,,Knoxville ,TN,37934,United States,(865) 675-1975,,,"Monday 10:00 AM - 8:00 PM, Tuesday 10:00 AM - 8:00 PM, Wednesday 10:00 AM - 8:00 PM, Thursday 10:00 AM - 8:00 PM, Friday 10:00 AM - 8:00 PM, Saturday 10:00 AM - 8:00 PM, Sunday 12:00 PM - 6:00 PM",,,
,,3515 Bristol Hwy ,,Johnson City ,TN,37601,United States,(423) 610-1010,,,"Monday 10:00 AM - 7:00 PM, Tuesday 10:00 AM - 7:00 PM, Wednesday 10:00 AM - 7:00 PM, Thursday 10:00 AM - 7:00 PM, Friday 10:00 AM - 7:00 PM, Saturday 10:00 AM - 6:00 PM, Sunday 12:00 PM - 6:00 PM",,,
,,2020 Gunbarrel Rd. Ste. 150 ,,Chattanooga ,TN,37421,United States,(423) 499-2882,,,"Monday 10:00 AM - 8:00 PM, Tuesday 10:00 AM - 8:00 PM, Wednesday 10:00 AM - 8:00 PM, Thursday 10:00 AM - 8:00 PM, Friday 10:00 AM - 8:00 PM, Saturday 10:00 AM - 6:00 PM, Sunday 12:00 PM - 6:00 PM",,,
,,Belle Station 582 Belle Station Blvd. ,,Mt. Pleasant ,SC,29464,United States,(843) 881-3713,,,"Monday 10:00 AM to 8:00 PM, Tuesday 10:00 AM to 8:00 PM, Wednesday 10:00 AM to 8:00 PM, Thursday 10:00 AM to 8:00 PM, Friday 10:00 AM to 8:00 PM, Saturday 10:00 AM to 8:00 PM, Sunday 12:00 AM to 5:00 PM",,,
,,Northpointe Shopping Center 10120 Two Notch RD Suite 5 ,,Columbia ,SC,29223,United States,(803) 736-0959,,,"Monday 11:00 to 7:00, Tuesday 11:00 to 7:00, Wednesday 11:00 to 7:00, Thursday 11:00 to 7:00, Friday 11:00 to 8:00, Saturday 10:00 to 8:00, Sunday 12:00 to 5:00",,,
,,1608 State Rd. Suite A-15 ,,Cheraw ,SC,29520,United States,(843) 253-5428,,,"Monday Closed, Tuesday 10:00 to 7:00, Wednesday 10:00 to 7:00, Thursday 10:00 to 7:00, Friday 10:00 to 7:00, Saturday 10:00 to 6:00, Sunday Closed",,,
,,325 Benner Pike Suite 450 ,,State College ,PA,16801,United States,(814) 237-3800,,,"Monday 10:00 AM - 8:00 PM, Tuesday 10:00 AM - 8:00 PM, Wednesday 10:00 AM - 8:00 PM, Thursday 10:00 AM - 8:00 PM, Friday 10:00 AM - 8:00 PM, Saturday 10:00 AM - 8:00 PM, Sunday 12:00 PM - 5:00 PM",,,
,,1917 Industrial Blvd. ,,Abilene ,TX,79602,United States,(325) 788-1307,,,"Monday 10:00 AM - 7:00 PM, Tuesday 10:00 AM - 7:00 PM, Wednesday 10:00 AM - 7:00 PM, Thursday 10:00 AM - 7:00 PM, Friday 10:00 AM - 7:00 PM, Saturday 10:00 AM - 6:00 PM, Sunday 12:00 PM - 5:00 PM",,,
,,1996 Park Manor Blvd. ,,Pittsburgh ,PA,15205,United States,(412) 788-1000,,,"Monday 10:00 AM - 8:00 PM, Tuesday 10:00 AM - 8:00 PM, Wednesday 10:00 AM - 8:00 PM, Thursday 10:00 AM - 8:00 PM, Friday 10:00 AM - 8:00 PM, Saturday 10:00 AM - 8:00 PM, Sunday 11:00 AM - 4:00 PM",,,
,,4860 Penn Avenue ,,Sinking Spring ,PA,19608,United States,(610) 374-1000,,,"Monday 10:00 AM - 8:00 PM, Tuesday 10:00 AM - 8:00 PM, Wednesday 10:00 AM - 8:00 PM, Thursday 10:00 AM - 8:00 PM, Friday 10:00 AM - 8:00 PM, Saturday 10:00 AM - 6:00 PM, Sunday 12:00 PM - 5:00 PM",,,
,,1559 Sam Rittenburg Blvd. ,,Charleston ,SC,29407,United States,(843) 769-5808,,,"Monday 10:00 AM - 8:00 PM, Tuesday 10:00 AM - 8:00 PM, Wednesday 10:00 AM - 8:00 PM, Thursday 10:00 AM - 8:00 PM, Friday 10:00 AM - 8:00 PM, Saturday 10:00 AM - 8:00 PM, Sunday 12:00 PM - 5:00 PM",,,
,,2202A Gettysburg Rd. ,,Camp Hill ,PA,17011,United States,(717) 737-7223,,,"Monday 10:00 AM - 5:00 PM, Tuesday 10:00 AM - 7:00 PM, Wednesday 10:00 AM - 7:00 PM, Thursday 10:00 AM - 7:00 PM, Friday 10:00 AM - 7:00 PM, Saturday 10:00 AM - 5:00 PM, Sunday 11:00 AM - 5:00 PM",,,
