store_name,store_number,address,address2,city,state,zip_code,country,phone_number,latitude,longitude,store_hours,store_type,other_fields,coming_soon
NorthPark crewcuts,306,8687 North Central Expressway,#762,Dallas,TX,75225,US,214 987 3706,32.8685017,-96.7735125,"Sun 12:00PM -  6:00PM, Mon – Sat 10:00AM -  9:00PM",,,
Westchester crewcuts,307,125 Westchester Avenue,Suite 3770,White Plains,NY,10601,US,914 390 9601,41.0315075,-73.7584545,"Sun 11:00AM -  6:00PM, Mon – Sat 10:00AM -  9:00PM",,,
crewcuts The Gardens,308,3101 PGA Boulevard,Space #G117,Palm Beach Gardens,FL,33410,US,561 625 0277,26.8468822,-80.0853068,"Sun 12:00PM -  6:00PM, Mon – Sat 10:00AM -  9:00PM",,,
KOP crewcuts,309,160 N Gulph Road,#1355,King of Prussia,PA,19406,US,610 265 1310,40.0893911,-75.3863998,"Sun 11:00AM -  6:00PM, Mon – Sat 10:00AM -  9:00PM",,,
crewcuts Derby Street Shops,311,94 Derby Street,#235,Hingham,MA,02043,US,781 749 2482,42.1774302,-70.9088314,"Sun 11:00AM -  6:00PM, Mon – Sat 10:00AM -  9:00PM",,,
crewcuts Madison Avenue,312,1190 Madison Ave,,New York,NY,10128,US,212 348 9803,40.781961,-73.958366,"Sun 12:00PM -  5:00PM, Mon – Sat 10:00AM -  7:00PM",,,
University Village crewcuts,314,2625 NE Village Lane,,Seattle,WA,98105,US,206 527 3059,47.662444,-122.2980601,"Sun 11:00AM -  6:00PM, Mon – Sat 9:30AM -  9:00PM",,,
crewcuts Elm Street,315,1 Elm Street,,New Canaan,CT,06840,US,203 801 0164,41.1470144,-73.4922418,"Sun 11:00AM -  6:00PM, Mon – Sat 10:00AM -  6:00PM",,,
J Crew Yorkdale,400,3401 Dufferin Street,CRU#137,Toronto,ON,M6A 3A1,CA,416 785 3682,43.7275369,-79.457692,"Sun 11:00AM -  7:00PM, Mon – Fri 10:00AM -  9:00PM, Sat 9:30AM -  9:00PM",,,
Markville Shopping Centre,402,5000 Highway #7 East,Suite 109,East Markham,ON,L3R4M9,CA,905 470 6646,43.8667454,-79.2881012,"Sun 11:00AM -  6:00PM, Mon – Fri 10:00AM -  9:00PM, Sat 9:30AM -  6:00PM",,,
Toronto Eaton Centre,403,220 Yonge Street,Unit #3 102,Toronto,ON,M5B 2H1,CA,416 977 0941,43.6536106,-79.3800603,"Sun 10:00AM -  7:00PM, Mon – Fri 10:00AM -  9:30PM, Sat 9:30AM -  9:30PM",,,
Pacific Centre,404,701 West Georgia Street,Unit D006,Vancouver,BC,V7Y 1G5,CA,604 685 9726,49.2828884,-123.1182066,"Sun 11:00AM -  7:00PM, Mon – Tue 10:00AM -  7:00PM, Wed – Fri 10:00AM -  9:00PM, Sat 10:00AM -  8:00PM",,,
1088 Robson Street,405,1088 Robson Street,,Vancouver,BC,BC V6E 1A7,CA,604 684 2367,49.284399,-123.1245327,"Sun 11:00AM -  7:00PM, Mon – Thu 10:00AM -  8:00PM, Fri – Sat 10:00AM -  9:00PM",,,
Village at Park Royal,406,754 Main Street,,West Vancouver,BC,V7T 0A5,CA,604 921 9615,49.3256838,-123.1415003,"Sun 11:00AM -  6:00PM, Mon – Tue 10:00AM -  7:00PM, Wed – Fri 10:00AM -  9:00PM, Sat 9:30AM -  7:00PM",,,
Fairview Mall,407,1800 Sheppard Avenue East,,Toronto,ON,M2J 5A7,CA,416 496 7752,43.7778782,-79.3446538,"Sun 11:00AM -  7:00PM, Mon – Fri 10:00AM -  9:00PM, Sat 9:30AM -  9:00PM",,,
Chinook Centre,408,6455 Macleod Trail SW,Suite 174,Calgary,AB,T2H 0K8,CA,403 252 6196,50.9975216,-114.0717597,"Sun 11:00AM -  7:00PM, Mon – Sat 9:30AM -  9:00PM",,,
Bloor Street,410,110 Bloor Street West,,Toronto,ON,M5S 1M1,CA,416 968 7117,43.6694519,-79.3923569,"Sun 11:00AM -  6:00PM, Mon – Wed 10:00AM -  7:00PM, Thu – Sat 10:00AM -  8:00PM",,,
Regent Street,411,165 Regent Street,,London,,W1B 4AD,GB,44 207 292 1580,51.5116702,-0.1398141,"Sun 12:00PM -  6:00PM, Mon – Sat 10:00AM -  8:00PM",,,
Market Mall,414,3625 Shaganappi TR NW,Space #45P,Calgary,AB,T3A 0E2,CA,403 286 1776,51.0865337,-114.1559546,"Sun 11:00AM -  6:00PM, Mon – Fri 10:00AM -  9:00PM, Sat 9:30AM -  8:00PM",,,
Lambs Conduit,416,38 Lamb's Conduit Street,,London,,WC1N 3LJ,GB,44 207 430 0326,51.5214024,-0.118112,"Sun 12:00PM -  5:00PM, Mon – Fri 11:00AM -  7:00PM, Sat 11:00AM -  6:00PM",,,
Brompton Cross,417,171-175 Draycott Avenue,,Chelsea,,SW3 3AJ,GB,44 207 591 1350,51.4934194,-0.1680494,"Sun 12:00PM -  6:00PM, Mon – Fri 10:00AM -  6:00PM, Sat 10:00AM -  7:00PM",,,
Sherway Gardens,418,25 The West Mall,Space No 1760,Toronto,ON,M9C 1B8,CA,416 621 1584,43.6123907,-79.5576576,"Sun 11:00AM -  6:00PM, Mon – Fri 10:00AM -  9:00PM, Sat 9:30AM -  9:00PM",,,
ifc Mall,419,8 Finance Street,Shops 1026 1028,"Central, Hong Kong",,,HK,852 2628 5611,22.2851589,114.1588412,Sun – Sat 10:00AM -  9:00PM,,,
On Lan,421,9 On Lan Street,,"Central, Hong Kong",,,HK,852 2706 9122,22.28078,114.156591,Sun – Sat 11:00AM -  8:00PM,,,
San Francisco Centre,502,845 MARKET STREET,Space 245,San Francisco,CA,94103,US,415 434 2739,37.78451,-122.4067089,"Sun 11:00AM -  7:00PM, Mon – Sat 10:00AM -  8:30PM",,,
South Coast Plaza,504,3333 Bristol St.,,Costa Mesa,CA,92626,US,714 979 2739,33.691218,-117.888511,"Sun 11:00AM -  6:30PM, Mon – Fri 10:00AM -  9:00PM, Sat 10:00AM -  8:00PM",,,
Liberty Place,505,1625 Chestnut Street,,Philadelphia,PA,19103,US,215 977 7335,39.9516498,-75.1682121,"Sun 11:00AM -  6:00PM, Mon – Sat 9:30AM -  7:00PM",,,
Pioneer Place,506,700 SW Fifth Avenue,Suite 2005,Portland,OR,97204,US,503 228 2739,45.518319,-122.6772315,"Sun 11:00AM -  6:00PM, Mon – Sat 10:00AM -  8:00PM",,,
Cambridgeside,507,100 Cambridgeside Place,,Cambridge,MA,02141,US,617 225 2739,42.3681263,-71.076239,"Sun 12:00PM -  7:00PM, Mon – Sat 10:00AM -  9:00PM",,,
Georgetown,508,3222 M Street NW,,Washington,DC,20007,US,202 965 4090,38.9047215,-77.0639218,"Sun 11:00AM -  7:00PM, Mon – Sat 10:00AM -  9:00PM",,,
Montgomery,509,7101 Democracy Boulevard,,Bethesda,MD,20817,US,301 365 2000,39.0241209,-77.1459575,"Sun 11:00AM -  6:00PM, Mon – Sat 10:00AM -  9:00PM",,,
NorthPark,510,8687 North Central Expressway,#1016,Dallas,TX,75225,US,214 987 9700,32.8685017,-96.7735125,"Sun 12:00PM -  6:00PM, Mon – Sat 10:00AM -  9:00PM",,,
Oakbrook,511,295 Oakbrook Center,,Oakbrook,IL,60523,US,630 990 1166,41.8476475,-87.9516406,"Sun 11:00AM -  6:00PM, Mon – Sat 10:00AM -  9:00PM",,,
Northbrook,512,2170 Northbrook Court,,Northbrook,IL,60062,US,847 564 2739,42.1509397,-87.8178141,"Sun 11:00AM -  6:00PM, Mon – Sat 10:00AM -  9:00PM",,,
N  Michigan Avenue,513,900 North Michigan Avenue,,Chicago,IL,60611,US,312 751 2739,41.8995404,-87.6244712,"Sun 11:00AM -  6:00PM, Mon – Sat 10:00AM -  8:00PM",,,
Somerset,514,2801 West Big Beaver Rd,,Troy,MI,48084,US,248 649 2739,42.5600991,-83.1834191,"Sun 12:00PM -  6:00PM, Mon – Fri 10:00AM -  9:00PM, Sat 10:00AM -  7:00PM",,,
Westport,516,145 Main Street,,Westport,CT,06880,US,203 226 2739,41.143402,-73.3621625,"Sun 11:00AM -  6:00PM, Mon – Sat 10:00AM -  7:00PM",,,
Scottsdale,517,7014 East Camelback Road,Space 1404,Scottsdale,AZ,85251,US,480 945 2739,33.5025941,-111.9296765,"Sun 11:00AM -  6:00PM, Mon – Sat 10:00AM -  9:00PM",,,
Lenox Square,519,3393 Peachtree Rd,,Atlanta,GA,30326,US,404 237 2739,33.8478479,-84.3636018,"Sun 11:00AM -  7:00PM, Mon – Sat 10:00AM -  9:00PM",,,
Roosevelt Field,520,630 Old Country Road,Space 2038,Garden City,NY,11530,US,516 741 2739,40.7377635,-73.6130142,"Sun 11:00AM -  7:00PM, Mon – Sat 10:00AM -  9:30PM",,,
Pasadena,521,3 W Colorado Blvd,,Pasadena,CA,91105,US,626 568 2739,34.1460027,-118.1507342,"Sun 11:00AM -  7:00PM, Mon – Thu 10:00AM -  9:00PM, Fri – Sat 10:00AM - 10:00PM",,,
Houston Galleria,523,5085 Westheimer Rd,Suite 8010,Houston,TX,77056,US,713 626 2739,29.7387394,-95.4639058,"Sun 11:00AM -  7:00PM, Mon – Sat 10:00AM -  9:00PM",,,
Plaza Frontenac,524,75 Plaza Frontenac,,St  Louis,MO,63131,US,314 862 2739,38.6390872,-90.4230925,"Sun 12:00PM -  6:00PM, Mon – Fri 10:00AM -  8:00PM, Sat 10:00AM -  7:00PM",,,
Northshore,525,210 Andover St,Space #E 196,Peabody,MA,01960,US,978 977 7450,42.5424673,-70.9429186,"Sun 11:00AM -  6:00PM, Mon – Sat 10:00AM -  9:00PM",,,
Keystone,527,8702 Keystone Crossing,,Indianapolis,IN,46240,US,317 848 2739,39.9145535,-86.1096145,"Sun 12:00PM -  6:00PM, Mon – Sat 10:00AM -  9:00PM",,,
Southdale,528,1135 Southdale Mall,,Edina,MN,55435,US,952 926 2739,44.882797,-93.320923,"Sun 11:00AM -  6:00PM, Mon – Sat 10:00AM -  9:00PM",,,
Bellevue,529,2058 Bellevue Square,,Bellevue,WA,98004,US,425 451 2739,47.6292649,-122.2016442,"Sun 11:00AM -  7:00PM, Mon – Sat 9:30AM -  9:30PM",,,
King of Prussia,530,160 N Gulph Road,#6137,King of Prussia,PA,19406,US,610 265 0210,40.0893911,-75.3863998,"Sun 11:00AM -  6:00PM, Mon – Sat 10:00AM -  9:00PM",,,
Crabtree Valley,531,4325 Glenwood Avenue,,Raleigh,NC,27612,US,919 786 2739,35.840454,-78.6795932,"Sun 12:00PM -  7:00PM, Mon – Sat 10:00AM -  9:00PM",,,
Tysons Galleria,532,1742G International Drive,,McLean,VA,22102,US,703 734 9555,38.9185326,-77.22585,"Sun 12:00PM -  6:00PM, Mon – Sat 10:00AM -  9:00PM",,,
Garden State Plaza,537,1 Garden State Plaza Blvd.,#2161,Paramus,NJ,07652,US,201 845 9292,40.919491,-74.075922,"Sun Closed, Mon – Sat 10:00AM -  9:30PM",,,
Stanford,538,317 Stanford Shopping Center,,Palo Alto,CA,94304,US,650 462 1190,37.4396513,-122.1737663,"Sun 11:00AM -  6:00PM, Mon – Fri 10:00AM -  9:00PM, Sat 10:00AM -  7:00PM",,,
Prince Street,539,99 Prince Street,,New York,NY,10012,US,212 966 2739,40.7249049,-73.9986648,"Sun 11:00AM -  7:00PM, Mon – Sat 10:00AM -  8:00PM",,,
Fifth Avenue,540,91 Fifth Avenue,,New York,NY,10003,US,212 255 4848,40.737633,-73.9922022,"Sun 11:00AM -  7:00PM, Mon – Sat 10:00AM -  8:00PM",,,
Boca Town Center,541,6000 Glades Road,Suite 1139,Boca Raton,FL,33431,US,561 416 2005,26.3659037,-80.1343444,"Sun 12:00PM -  6:00PM, Mon – Sat 10:00AM -  9:00PM",,,
Copley Place Women's,542,100 Huntington Ave,Space F 8,Boston,MA,02116,US,617 236 5950,42.347334,-71.0788745,"Sun 12:00PM -  6:00PM, Mon – Sat 10:00AM -  8:00PM",,,
Short Hills,543,1200 Morris Turnpike,Suite D 235,Short Hills,NJ,07078,US,973 912 9488,40.7408679,-74.3633652,"Sun 11:00AM -  6:00PM, Mon – Fri 10:00AM -  9:00PM, Sat 10:00AM -  8:00PM",,,
SouthPark,544,4400 Sharon Rd.,Suite 196,Charlotte,NC,28211,US,704 365 9355,35.152291,-80.831378,"Sun 12:30PM -  6:00PM, Mon – Sat 10:00AM -  9:00PM",,,
Danbury,545,7 Backus Ave.,,Danbury,CT,06810,US,203 748 3580,41.379475,-73.482171,"Sun 11:00AM -  6:00PM, Mon – Sat 10:00AM -  9:00PM",,,
CLOSED FOR REMODEL - Century City,546,10250 Santa Monica Blvd,,Los Angeles,CA,90067,US,310 286 7595,34.0583989,-118.4190067,Sun – Sat Closed,,,
Westfarms Mall,547,525 Westfarms,Space C213,Farmington,CT,06032,US,860 521 3099,41.7221089,-72.7627267,"Sun 11:00AM -  6:00PM, Mon – Sat 10:00AM -  9:30PM",,,
Fashion Valley,548,7007 Friars Road,Suite 890,San Diego,CA,92108,US,619 491 0054,32.7674813,-117.16566,"Sun 11:00AM -  7:00PM, Mon – Sat 10:00AM -  9:00PM",,,
Beachwood,549,26300 Cedar Road,Space 2052,Beachwood,OH,44122,US,216 292 8494,41.4985554,-81.4943391,"Sun 12:00PM -  6:00PM, Mon – Sat 10:00AM -  9:00PM",,,
Aventura,550,19501 Biscayne Blvd,Space 727,Aventura,FL,33180,US,305 935 2739,25.9573136,-80.1432508,"Sun 12:00PM -  8:00PM, Mon – Sat 10:00AM -  9:30PM",,,
Southshore,552,250 Granite Street,,Braintree,MA,02184,US,781 849 7475,42.2224725,-71.0247624,"Sun 12:00PM -  6:00PM, Mon – Sat 10:00AM -  9:00PM",,,
The Shops at Riverside,553,390 Hackensack Ave,,Hackensack,NJ,07601,US,201 489 5180,40.9054489,-74.0312566,"Sun Closed, Mon – Sat 10:00AM -  9:00PM",,,
Perimeter Mall,554,4400 Ashford Dunwoody Rd,Suite 2416,Atlanta,GA,30346,US,770 551 8900,33.9238569,-84.3405724,"Sun 12:00PM -  6:00PM, Mon – Sat 10:00AM -  9:00PM",,,
Third Street Promenade,555,1222 Third St Promenade,,Santa Monica,CA,90401,US,310 260 9099,34.0175793,-118.4988838,"Sun 10:00AM -  8:00PM, Mon – Sat 10:00AM -  9:00PM",,,
Corte Madera,557,1524 Redwood Hwy,Space C23,Corte Madera,CA,94925,US,415 927 2005,37.9304248,-122.5122708,"Sun 11:00AM -  6:00PM, Mon – Fri 10:00AM -  8:00PM, Sat 10:00AM -  7:00PM",,,
Burlingame,558,1234 Burlingame Avenue,,Burlingame,CA,94010,US,650 558 8420,37.578753,-122.3471194,"Sun 11:00AM -  6:00PM, Mon – Fri 10:00AM -  8:00PM, Sat 10:00AM -  7:00PM",,,
Westchester,560,125 Westchester Avenue,,White Plains,NY,10601,US,914 997 6171,41.0315075,-73.7584545,"Sun 11:00AM -  6:00PM, Mon – Sat 10:00AM -  9:00PM",,,
Pacific Place,562,600 Pine Street,"Space 105, First Floor",Seattle,WA,98101,US,206 652 9788,47.6125141,-122.3354092,"Sun 11:00AM -  7:00PM, Mon – Sat 10:00AM -  8:00PM",,,
Walt Whitman Mall,563,160 Route 110,Suite 1015,Huntington Station,NY,11746,US,631 424 1900,40.8259824,-73.4119768,"Sun 11:00AM -  7:00PM, Mon – Sat 10:00AM -  9:00PM",,,
Menlo Park,565,336 Menlo Park Drive,,Edison,NJ,08837,US,732 452 1500,40.5477109,-74.3363109,"Sun 11:00AM -  7:00PM, Mon – Sat 10:00AM -  9:30PM",,,
Ann Arbor,566,242 Briarwood Center,,Ann Arbor,MI,48108,US,734 662 6630,42.2428056,-83.7507391,"Sun 11:00AM -  6:00PM, Mon – Sat 10:00AM -  9:00PM",,,
MacArthur Center,567,300 E Monitcello Avenue,,Norfolk,VA,23510,US,757 622 5880,36.8494928,-76.2893703,"Sun 12:00PM -  6:00PM, Mon – Sat 10:00AM -  9:00PM",,,
Easton Town Center,568,3930 Easton N Square Place,,Columbus,OH,43219,US,614 428 5990,40.049177,-82.9149823,"Sun 12:00PM -  6:00PM, Mon – Thu 10:00AM -  9:00PM, Fri – Sat 10:00AM - 10:00PM",,,
Cherry Creek,569,3000 E  First Avenue,Space #147,Denver,CO,80206,US,303 322 7020,39.7163731,-104.9543192,"Sun 11:00AM -  6:00PM, Mon – Sat 10:00AM -  9:00PM",,,
Washington Square,572,9765 SW Washington Square Road,Space D 6,Portland,OR,97223,US,503 624 6386,45.4517172,-122.7832492,"Sun 10:00AM -  7:00PM, Mon – Sat 10:00AM -  9:00PM",,,
Kenwood,573,7875 Montgomery Road,Space #U 441,Cincinnati,OH,45236,US,513 891 6500,39.2019832,-84.3766737,"Sun 12:00PM -  6:00PM, Mon – Sat 10:00AM -  9:00PM",,,
Cape Cod,574,769  Iyannough Rd,Space #N155,Hyannis,MA,02601,US,508 771 2739,41.6669857,-70.2969628,"Sun 11:00AM -  6:00PM, Mon – Sat 10:00AM -  9:00PM",,,
Mall of Georgia,575,3333 Buford Drive,Space 1053,Buford,GA,30519,US,770 932 3332,34.0651493,-83.9847659,"Sun 12:00PM -  6:00PM, Mon – Sat 10:00AM -  9:00PM",,,
Providence Place,576,61 Providence Place,,Providence,RI,02903,US,401 243 0250,41.828539,-71.416503,"Sun 11:00AM -  6:00PM, Mon – Sat 10:00AM -  9:00PM",,,
Mission Viejo,577,548 The Shops at Mission Viejo,,Mission Viejo,CA,92691,US,949 347 0135,33.5588509,-117.6679512,"Sun 11:00AM -  6:00PM, Mon – Fri 10:00AM -  9:00PM, Sat 10:00AM -  7:00PM",,,
Rockefeller Center,581,30 Rockefeller Plaza,,New York,NY,10112,US,212 765 4227,40.7589426,-73.9793564,"Sun 11:00AM -  7:00PM, Mon – Sat 10:00AM -  8:00PM",,,
The Mall at Green Hills,582,2126 Abbott Martin Rd,Space #141,Nashville,TN,37215,US,615 298 5722,36.107504,-86.814796,"Sun 12:00PM -  6:00PM, Mon – Sat 10:00AM -  9:00PM",,,
Old Orchard,583,4999 Old Orchard Center,Suite A12,Skokie,IL,60077,US,847 675 0109,42.0567621,-87.7500579,"Sun 11:00AM -  6:00PM, Mon – Thu 10:00AM -  8:00PM, Fri – Sat 10:00AM -  9:00PM",,,
Woodland,587,3135 28th Street SE,Space D 109,Grand Rapids,MI,49512,US,616 575 2210,42.9125249,-85.5893448,"Sun 12:00PM -  6:00PM, Mon – Sat 10:00AM -  9:00PM",,,
Flatiron,588,One West Flatiron Drive,Suite #1188,Broomfield,CO,80021,US,303 460 0092,39.932939,-105.132472,"Sun 11:00AM -  6:00PM, Mon – Sat 10:00AM -  9:00PM",,,
Lakeside,590,3301 Veterans Memorial Blvd,#54D,Metairie,LA,70002,US,504 830 3405,30.0072944,-90.1582789,"Sun 12:00PM -  6:00PM, Mon – Sat 10:00AM -  9:00PM",,,
Deer Park,591,20530 N  Rand Rd,#312,Deer Park,IL,60010,US,847 438 2739,42.1610659,-88.0543942,"Sun 12:00PM -  5:00PM, Mon – Sat 10:00AM -  9:00PM",,,
Saddle Creek,593,7605 W Farmington Blvd,Suite #1,Germantown,TN,38138,US,901 759 4021,35.0951226,-89.8094672,"Sun 12:00PM -  5:30PM, Mon – Sat 10:00AM -  8:00PM",,,
Walden,594,1 Walden Galleria,Space #G 106,Buffalo,NY,14225,US,716 684 8189,42.9120261,-78.7634399,"Sun 10:00AM -  7:00PM, Mon – Sat 10:00AM -  9:30PM",,,
Greenwich,595,126 Greenwich Avenue,,Greenwich,CT,06830,US,203 661 5181,41.0286184,-73.6267647,"Sun 11:00AM -  6:00PM, Mon – Sat 10:00AM -  6:00PM",,,
Ross Park,597,1000 Ross Park Mall,K 1 & 2,Pittsburgh,PA,15237,US,412 369 0347,40.5445685,-80.0087509,"Sun 11:00AM -  6:00PM, Mon – Sat 10:00AM -  9:00PM",,,
Mayfair,600,2500 N Mayfair Rd,#404,Wauwatosa,WI,53226,US,414 302 0800,43.06395,-88.044369,"Sun 11:00AM -  6:00PM, Mon – Sat 10:00AM -  9:00PM",,,
Pentagon City,601,1100 S Hayes Street,#F108,Arlington,VA,22202,US,703 414 3720,38.865005,-77.0596504,"Sun 11:00AM -  6:00PM, Mon – Sat 10:00AM -  9:30PM",,,
Mall of America,602,200 South Avenue,,Bloomington,MN,55425,US,952 814 7419,44.8538119,-93.2411836,"Sun 11:00AM -  7:00PM, Mon – Fri 10:00AM -  9:30PM, Sat 9:30AM -  9:30PM",,,
Haywood,603,700 Haywood Road,Space 1060A 5,Greenville,SC,29607,US,864 297 2740,34.8499349,-82.3331123,"Sun 12:30PM -  6:00PM, Mon – Sat 10:00AM -  9:00PM",,,
Destiny USA,604,9568 Destiny USA Drive,,Syracuse,NY,13204,US,315 472 7182,43.073239,-76.1719399,"Sun 11:00AM -  6:00PM, Mon – Sat 10:00AM -  9:30PM",,,
Country Club,605,519 Nichols Road,,Kansas City,MO,64112,US,816 753 9744,39.0411395,-94.5943253,"Sun 12:00PM -  5:00PM, Mon – Wed 10:00AM -  7:00PM, Thu 10:00AM -  9:00PM, Fri – Sat 10:00AM -  7:00PM",,,
Brinton Lake,606,945 Baltimore Pike,Space D 200,Glen Mills,PA,19342,US,610 358 2001,39.884173,-75.5339703,"Sun 11:00AM -  6:00PM, Mon – Sat 10:00AM -  9:00PM",,,
Suburban Square,607,49 Anderson Avenue,,Ardmore,PA,19003,US,610 642 6027,40.0090479,-75.2900498,"Sun 12:00PM -  6:00PM, Mon – Sat 10:00AM -  8:00PM",,,
The Grove,608,189 The Grove Drive,Space G-10,Los Angeles,CA,90036,US,323 939 1070,34.071976,-118.358007,"Sun 10:00AM -  8:00PM, Mon – Thu 10:00AM -  9:00PM, Fri – Sat 10:00AM - 10:00PM",,,
Valley Fair,609,2855 Stevens Creek Blvd,Suite #1257,Santa Clara,CA,95050,US,408 984 5440,37.3256537,-121.9456201,"Sun 11:00AM -  7:00PM, Mon – Fri 10:00AM -  9:30PM, Sat 10:00AM -  9:00PM",,,
Marlton,611,500 Rt 73 South,Space A 12,Marlton,NJ,08053,US,856 988 9046,39.8787019,-74.9202741,"Sun 11:00AM -  6:00PM, Mon – Sat 10:00AM -  9:00PM",,,
Tice's Corner,612,387 Chestnut Ridge Road,,Woodcliff Lake,NJ,07677,US,201 391 4123,41.0445677,-74.0720246,"Sun Closed, Mon – Sat 10:00AM -  8:00PM",,,
International Plaza,613,2223 North West Shore Boulevard,,Tampa,FL,33607,US,813 348 0336,27.9634228,-82.5206719,"Sun 11:00AM -  6:00PM, Mon – Sat 10:00AM -  9:00PM",,,
Yale,614,29 Broadway,,New Haven,CT,06511,US,203 624 7101,41.3114339,-72.9302777,"Sun 11:00AM -  6:00PM, Mon – Sat 10:00AM -  9:00PM",,,
N  Avenue Collection,616,929 West North Avenue,,Chicago,IL,60642,US,312 951 0784,41.9107395,-87.6522267,"Sun 11:00AM -  6:00PM, Mon – Fri 10:00AM -  9:00PM, Sat 10:00AM -  8:00PM",,,
Fayette,618,3401 Nicholsville Road,,Lexington,KY,40503,US,859 971 6933,37.9890031,-84.5271844,"Sun 12:00PM -  6:00PM, Mon – Sat 10:00AM -  9:00PM",,,
Polaris,620,1500 Polaris Parkway,Space #1184,Columbus,OH,43240,US,614 880 9880,40.1448285,-82.9834993,"Sun 12:00PM -  6:00PM, Mon – Thu 10:00AM -  9:00PM, Fri – Sat 10:00AM -  9:30PM",,,
Kierland,621,15051 N  Kierland Blvd,Suite 100,Scottsdale,AZ,85254,US,480 348 2739,33.6240765,-111.9300659,"Sun 12:00PM -  6:00PM, Mon – Sat 10:00AM -  9:00PM",,,
Forum on Peachtree Pkwy,622,5145 Peachtree Parkway,,Norcross,GA,30092,US,770 263 7905,33.9815796,-84.2164277,"Sun 12:00PM -  6:00PM, Mon – Sat 10:00AM -  9:00PM",,,
Columbia,623,10300 Little Patuxent Pkwy,,Columbia,MD,21044,US,410 740 1118,39.2163291,-76.8602017,"Sun 11:00AM -  6:00PM, Mon – Sat 10:00AM -  9:00PM",,,
Willow Grove Park,624,2500 Moreland Road,,Willow Grove,PA,19090,US,215 659 8245,40.1403638,-75.1232154,"Sun 11:00AM -  6:00PM, Mon – Sat 10:00AM -  9:00PM",,,
Fashion Place,625,6191 South State,Space C 234,Murray,UT,84107,US,801 264 1028,40.6360029,-111.8865529,"Sun 12:00PM -  6:00PM, Mon – Sat 10:00AM -  9:00PM",,,
Westfield Fashion Square,627,14006 Riverside Dr,Suite 221,Sherman Oaks,CA,91423,US,818 990 2739,34.1565639,-118.4369927,"Sun 11:00AM -  7:00PM, Mon – Sat 10:00AM -  9:00PM",,,
Woodland Hills,628,7021 S Memorial Dr,Suite 127,Tulsa,OK,74133,US,918 294 8332,36.0630982,-95.881269,"Sun 12:00PM -  7:00PM, Mon – Sat 10:00AM -  9:00PM",,,
Short Pump,630,11800 Broad Street,Space #2144,Richmond,VA,23233,US,804 364 9561,37.6560412,-77.6191104,"Sun 11:00AM -  6:00PM, Mon – Sat 10:00AM -  9:00PM",,,
West Town Mall,632,7600 Kingston Pike,Suite #1574,Knoxville,TN,37919,US,865 691 5822,35.9244419,-84.0390578,"Sun 12:00PM -  6:00PM, Mon – Sat 10:00AM -  9:00PM",,,
Paddock Shops,633,4240 Summit Plaza Drive,Suite #C 3,Louisville,KY,40241,US,502 412 7262,38.3087392,-85.5788843,"Sun 12:00PM -  6:00PM, Mon – Sat 10:00AM -  9:00PM",,,
Rockingham Park,636,99 Rockingham Park Blvd,W147A 2,Salem,NH,03079,US,603 893 3870,42.7660547,-71.2303542,"Sun 12:00PM -  6:00PM, Mon – Sat 10:00AM -  9:00PM",,,
Penn Square,638,1901 NW Expressway,Space 1033A,Oklahoma City,OK,73118,US,405 858 0891,35.5252934,-97.5442691,"Sun 12:00PM -  6:00PM, Mon – Sat 10:00AM -  9:00PM",,,
UNIVERSITY VILLAGE,639,2660 NE University Village Street,,Seattle,WA,98105,US,206 523 6066,47.663876,-122.2979882,"Sun 11:00AM -  6:00PM, Mon – Sat 9:30AM -  9:00PM",,,
King Street,640,264 King Street,,Charleston,SC,29401,US,843 534 1640,32.7822951,-79.9334137,"Sun 12:00PM -  6:00PM, Mon – Thu 10:00AM -  6:00PM, Fri – Sat 10:00AM -  7:00PM",,,
Willow Bend,641,6121 West Park Blvd,Space A 216,Plano,TX,75093,US,469 443 1311,33.030978,-96.832795,"Sun 12:00PM -  6:00PM, Mon – Sat 10:00AM -  9:00PM",,,
South Hills Village,643,301 South Hills Village,Space #1400,"Upper St , Clair",PA,15142,US,412 831 3564,40.3437551,-80.0567369,"Sun 11:00AM -  6:00PM, Mon – Sat 10:00AM -  9:00PM",,,
Willowbrook Mall,644,1400 Willowbrook Center,Space 1665,Wayne,NJ,07470 6905,US,973 890 7120,40.8890361,-74.2550283,"Sun 11:00AM -  7:00PM, Mon – Sat 10:00AM -  9:00PM",,,
Princeton,645,1 Palmer Square,,Princeton,NJ,08542,US,609 924 0011,40.3492854,-74.6611563,"Sun 12:00PM -  5:00PM, Mon – Wed 10:00AM -  6:00PM, Thu – Fri 10:00AM -  8:30PM, Sat 10:00AM -  6:00PM",,,
The Streets at Southpoint,646,6910 Fayetteville Road,Space 155,Durham,NC,27713,US,919 806 1449,35.9043093,-78.9411284,"Sun 12:00PM -  7:00PM, Mon – Sat 10:00AM -  9:00PM",,,
Charlottesville Square,647,1624 East Rio Road,,Charlottesville,VA,22901,US,434 975 2889,38.0793051,-78.4725243,"Sun 12:00PM -  6:00PM, Mon – Sat 10:00AM -  9:00PM",,,
Eastview,648,7979 Pittsford Victor Road,,Victor,NY,14564,US,585 425 3060,43.0294554,-77.4424131,"Sun 11:00AM -  6:00PM, Mon – Sat 10:00AM -  9:30PM",,,
Madison Avenue,649,347 Madison Avenue,,New York,NY,10017,US,212 949 0570,40.7542963,-73.9778947,"Sun 11:00AM -  6:00PM, Mon – Fri 10:00AM -  8:00PM, Sat 10:00AM -  7:00PM",,,
Eastwood,650,3037 Preyde Blvd,Space H 6,Lansing,MI,48912,US,517 485 1947,42.7630825,-84.5134025,"Sun 12:00PM -  6:00PM, Mon – Sat 10:00AM -  9:00PM",,,
Rockaway,653,301 Mt  Hope Ave,Space 2059,Rockaway,NJ,07866,US,973 366 5353,40.9036231,-74.552298,"Sun 11:00AM -  6:00PM, Mon – Sat 10:00AM -  9:30PM",,,
Smithhaven,655,160 Smithhaven Mall,Space J07A,Lake Grove,NY,11755,US,631 360 8938,40.8528761,-73.1151102,"Sun 11:00AM -  7:00PM, Mon – Sat 10:00AM -  9:30PM",,,
Grand Avenue,656,870 Grand Ave,Space #3,St  Paul,MN,55116,US,651 292 1470,44.9397416,-93.1367818,"Sun 11:00AM -  6:00PM, Mon – Sat 10:00AM -  8:00PM",,,
Stoneridge,659,1 Stoneridge Drive,Space E220,Pleasanton,CA,94588,US,925 463 2100,37.6908643,-121.8881497,"Sun 11:00AM -  7:00PM, Mon – Sat 10:00AM -  9:00PM",,,
The Summit at Birmingham,660,125 Summit Boulevard,Suite #A 2,Birmingham,AL,35243,US,205 970 6411,33.4456237,-86.7318403,"Sun 12:00PM -  6:00PM, Mon – Sat 10:00AM -  8:00PM",,,
Chevy Chase,662,5335 Wisconsin Avenue NW,Space 116/216,Washington,DC,20015,US,202 537 3380,38.9603517,-77.0848675,"Sun 11:00AM -  6:00PM, Mon – Sat 10:00AM -  8:00PM",,,
Walnut Street,671,5433 Walnut Street,,Pittsburgh,PA,15232,US,412 683 8021,40.4512158,-79.9341581,"Sun 11:00AM -  5:00PM, Mon – Sat 10:00AM -  8:00PM",,,
Evergreen,672,200 Evergreen Way,Suite 224,South Windsor,CT,06074,US,860 648 2739,41.8110836,-72.5570457,"Sun 11:00AM -  6:00PM, Mon – Sat 10:00AM -  9:00PM",,,
Jordan Creek,673,101 Jordan Creek Parkway,Space 11090,West Des Moines,IA,50266,US,515 226 0006,41.5702618,-93.8071402,"Sun 11:00AM -  6:00PM, Mon – Sat 10:00AM -  9:00PM",,,
St  Johns Town Center,675,4751 River City Drive,,Jacksonville,FL,32246,US,904 646 1409,30.2563526,-81.5250002,"Sun 11:00AM -  6:00PM, Mon – Sat 10:00AM -  9:00PM",,,
Crocker Park,677,88 Main Street,,Westlake,OH,44145,US,440 250 8924,41.4590244,-81.9518354,"Sun 11:00AM -  6:00PM, Mon – Sat 10:00AM -  9:00PM",,,
Bridgeport Village,679,7397 SW Bridgeport Rd,,Tigard,OR,97224,US,503 598 7414,45.3937092,-122.7538212,"Sun 11:00AM -  6:00PM, Mon – Sat 10:00AM -  8:00PM",,,
Palm Beach Gardens,680,3101 PGA Boulevard,Space #Q243,Palm Beach Gardens,FL,33410,US,561 630 8506,26.8468822,-80.0853068,"Sun 12:00PM -  6:00PM, Mon – Sat 10:00AM -  9:00PM",,,
Southlake,681,334 Grand Avenue West,,Southlake,TX,76092,US,817 416 1098,32.9445575,-97.130173,"Sun 12:00PM -  6:00PM, Mon – Wed 10:00AM -  8:00PM, Thu – Sat 10:00AM -  9:00PM",,,
East Hampton,682,14 Main Street,,East Hampton,NY,11937,US,631 324 5034,40.963519,-72.1848299,"Sun 11:00AM -  5:00PM, Mon – Sat 10:00AM -  6:00PM",,,
Woodlands,683,9595 Six Pines Drive,Suite 840,The Woodlands,TX,77380,US,281 419 7492,30.1642002,-95.4617714,"Sun 12:00PM -  6:00PM, Mon – Sat 10:00AM -  9:00PM",,,
Village Pointe,684,17255 Davenport Street,Suite #123,Omaha,NE,68118,US,402 289 2942,41.2606701,-96.1844147,"Sun 12:00PM -  6:00PM, Mon – Sat 10:00AM -  9:00PM",,,
Galleria at Ft  Lauderdale,685,2384 East Sunrise Blvd,,Ft  Lauderdale,FL,33304,US,954 566 6428,26.1378199,-80.1151323,"Sun 12:00PM -  6:00PM, Mon – Sat 10:00AM -  9:00PM",,,
Barton Creek Square,686,2901 South Capital Texas Hwy,Space H05B,Austin,TX,78746,US,512 329 6447,30.2567629,-97.8081102,"Sun 12:00PM -  6:00PM, Mon – Sat 10:00AM -  9:00PM",,,
Domain,687,11501 Century Oaks Terrace,Suite 137,Austin,TX,78759,US,512 873 8659,30.4020193,-97.7256541,"Sun 12:00PM -  6:00PM, Mon – Sat 10:00AM -  9:00PM",,,
Mall at Millenia,688,4200 Conroy Road,Space #G 175,Orlando,FL,32839,US,407 226 9732,28.485565,-81.4315497,"Sun 11:00AM -  7:00PM, Mon – Sat 10:00AM -  9:00PM",,,
Streets of Chester,689,430 Route 206 South,Space #A 114,Chester,NJ,07930,US,908 879 0393,40.7942152,-74.7027321,"Sun 11:00AM -  6:00PM, Mon – Sat 10:00AM -  7:00PM",,,
Coconut Point,690,23151 Fashion Drive,Ste 107 Space M03,Estero,FL,33928,US,239 390 5017,26.4021227,-81.8066297,"Sun 12:00PM -  6:00PM, Mon – Sat 10:00AM -  9:00PM",,,
North Point Mall,691,1038 North Point Circle,,Alpharetta,GA,30022,US,678 526 6861,34.0510491,-84.2941723,"Sun 12:00PM -  7:00PM, Mon – Sat 10:00AM -  9:00PM",,,
Perkins Rowe,692,10155 Perkins Rd,Space #130,Baton Rouge,LA,70810,US,225 766 6482,30.3790362,-91.0935973,"Sun 12:00PM -  6:00PM, Mon – Thu 10:00AM -  8:00PM, Fri – Sat 10:00AM -  9:00PM",,,
Broadway Plaza,693,1292 Broadway Plaza,,Walnut Creek,CA,94596,US,925 943 7664,37.8942166,-122.0583193,"Sun 11:00AM -  6:00PM, Mon – Fri 10:00AM -  9:00PM, Sat 10:00AM -  7:00PM",,,
Annapolis Mall,694,1725 Annapolis Mall,Space #1400 MD Route 450 & 50,Annapolis,MD,21401,US,410 573 4879,38.9899185,-76.5486466,"Sun 11:00AM -  7:00PM, Mon – Sat 10:00AM -  9:30PM",,,
Carmel Plaza,695,Ocean Avenue at Mission Street,,Carmel,CA,93921,US,831 624 2803,36.5551031,-121.92096,"Sun 11:00AM -  5:00PM, Mon – Sat 10:00AM -  6:00PM",,,
Friendly Center,696,3334 West Friendly Ave,Space 105,Greensboro,NC,27410,US,336 294 9892,36.0871088,-79.8388053,"Sun 1:00PM -  6:00PM, Mon – Fri 10:00AM -  9:00PM, Sat 10:00AM -  8:00PM",,,
Topanga Plaza,697,6600 Topanga Canyon Blvd,,Canoga Park,CA,91303,US,818 888 1943,34.1912027,-118.6024821,"Sun 11:00AM -  7:00PM, Mon – Sat 10:00AM -  9:00PM",,,
Columbus Circle,700,10 Columbus Circle,Space 202/302,New York,NY,10019,US,212 823 9302,40.7684141,-73.9827037,"Sun 11:00AM -  7:00PM, Mon – Sat 10:00AM -  9:00PM",,,
Madison,701,39 West Towne Mall,Space B2A,Madison,WI,53719,US,608 826 0920,43.0570896,-89.5092997,"Sun 11:00AM -  6:00PM, Mon – Sat 10:00AM -  9:00PM",,,
Towson Town Center,702,825 Dulaney Valley Road,,Towson,MD,21204,US,410 321 6589,39.4038997,-76.6006272,"Sun 11:00AM -  6:00PM, Mon – Sat 10:00AM -  9:00PM",,,
The Oaks,704,452 W Hillcrest Drive,,Thousand Oaks,CA,91360,US,805 230 2697,34.1864559,-118.8867127,"Sun 11:00AM -  7:00PM, Mon – Sat 10:00AM -  9:00PM",,,
Arden Fair,705,1689 Arden Way Space,#1268,Sacramento,CA,95815,US,916 924 3657,38.6015342,-121.4273544,"Sun 11:00AM -  7:00PM, Mon – Sat 10:00AM -  9:00PM",,,
Natick,706,1245 Worcester Street,Space #3080,Natick,MA,01760,US,508 653 1477,42.3002758,-71.3834563,"Sun 11:00AM -  6:00PM, Mon – Sat 10:00AM -  9:00PM",,,
Waterside Shops,707,5435 Tamiami Trail,Space C 3,Naples,FL,34108,US,239 593 4079,26.2128599,-81.800571,"Sun 12:00PM -  6:00PM, Mon – Sat 10:00AM -  7:00PM",,,
The Grove at Shrewsbury,708,537 Route 35,Space N2,Shrewsbury,NJ,07702,US,732 212 9430,40.3337351,-74.0629117,"Sun 11:00AM -  5:00PM, Mon – Fri 10:00AM -  9:00PM, Sat 10:00AM -  6:00PM",,,
Elm Street,710,24 Elm Street,,New Canaan,CT,06840,US,203 966 5127,41.146736,-73.492723,"Sun 11:00AM -  6:00PM, Mon – Sat 10:00AM -  6:00PM",,,
Bayshore Town Center,711,5711 N Centerpark Way,,Glendale,WI,53217,US,414 962 3097,43.1210059,-87.9150188,"Sun 11:00AM -  6:00PM, Mon – Sat 10:00AM -  9:00PM",,,
Plaza El Segundo,712,2004 East Park Place,Suite K,El Segundo,CA,90245,US,310 607 0136,33.9042969,-118.3950957,"Sun 11:00AM -  6:00PM, Mon – Sat 10:00AM -  8:00PM",,,
Gardens at El Paseo,714,73 505 El Paseo,Suite F1616,Palm Desert,CA,92260,US,760 340 5057,33.7194523,-116.3825803,"Sun 11:00AM -  5:00PM, Mon – Sat 10:00AM -  6:00PM",,,
Grand Boulevard,715,500 Grand Blvd,Space #K 107,Destin,FL,32550,US,850 269 0129,30.3798499,-86.32141,"Sun 11:00AM -  7:00PM, Mon – Sat 10:00AM -  9:00PM",,,
La Encantada,716,2905 E  Skyline Drive,Suite 141,Tucson,AZ,85718,US,520 529 0011,32.3247418,-110.9301132,"Sun 11:00AM -  6:00PM, Mon – Wed 10:00AM -  7:00PM, Thu – Sat 10:00AM -  8:00PM",,,
Bridgewater Commons,717,400 Commons Way,Suite 234,Bridgewater,NJ,08807,US,908 725 2312,40.5861219,-74.6193168,"Sun 12:00PM -  6:00PM, Mon – Sat 10:00AM -  9:00PM",,,
Lehigh Lifestyle Center,718,942 Lehigh Lifestyle Center,Route 22 and Route 145N,Whitehall,PA,18052,US,610 264 3612,40.6572331,-75.4985521,"Sun 11:00AM -  6:00PM, Mon – Sat 10:00AM -  9:00PM",,,
Burlington Mall,719,75 Middlesex Turnpike,,Burlington,MA,01803,US,781 229 2483,42.4821069,-71.214398,"Sun 11:00AM -  6:00PM, Mon – Sat 10:00AM -  9:00PM",,,
Derby Street Shops,721,94 Derby Street,#257,Hingham,MA,02043,US,781 749 4734,42.1774302,-70.9088314,"Sun 11:00AM -  6:00PM, Mon – Sat 10:00AM -  9:00PM",,,
Americana at Brand,722,857 Americana Way,,Glendale,CA,91210,US,818 244 4975,34.1442871,-118.2569297,"Sun 11:00AM -  8:00PM, Mon – Thu 10:00AM -  9:00PM, Fri – Sat 10:00AM - 10:00PM",,,
Ala Moana,724,1450 Ala Moana Blvd,Space 2404,Honolulu,HI,96814,US,808 949 5252,21.2912881,-157.8429647,"Sun 10:00AM -  7:00PM, Mon – Sat 9:30AM -  9:00PM",,,
Promenade at Chenal,725,17725 Chenal Parkway,Space #C 109,Little Rock,AR,72223,US,501 821 2798,34.7679176,-92.4574283,"Sun 12:00PM -  6:00PM, Mon – Sat 10:00AM -  9:00PM",,,
J.Crew at the Mountain,726,205 S Mill Street,Suite 202,Aspen,CO,81611,US,970 544 1631,39.189738,-106.8198081,"Sun 12:00PM -  5:00PM, Mon – Fri 10:00AM -  6:00PM, Sat 10:00AM -  5:00PM",,,
Southampton,727,84B Main Street,,Southampton,NY,11968,US,631 287 2869,40.8866461,-72.3890583,"Sun 11:00AM -  5:00PM, Mon – Sat 10:00AM -  6:00PM",,,
Dallas Galleria,728,13350 Dallas Parkway,Space # 1685,Dallas,TX,75240,US,972 385 0438,32.9284642,-96.8201966,"Sun 12:00PM -  6:00PM, Mon – Sat 10:00AM -  9:00PM",,,
Mayfaire Town Center,729,6807 Main Street,Space H2,Wilmington,NC,28405,US,910 256 3221,34.2427674,-77.8318764,"Sun 12:00PM -  6:00PM, Mon – Sat 10:00AM -  9:00PM",,,
Biltmore Village,730,10 Brook Street,Space #160,Asheville,NC,28803,US,828 274 3995,35.566958,-82.540684,"Sun 12:00PM -  5:00PM, Mon – Sat 10:00AM -  7:00PM",,,
1035 Madison Women's Collection,731,1035 Madison Ave,,New York,NY,10075,US,212 249 3869,40.7763827,-73.9617167,"Sun 12:00PM -  6:00PM, Mon – Sat 10:00AM -  7:00PM",,,
St  Louis Galleria,732,1428 St Louis Galleri,Space #1428 & 1424,St  Louis,MO,63117,US,314 727 2534,38.6327438,-90.3485449,"Sun 11:00AM -  6:00PM, Mon – Sat 10:00AM -  9:00PM",,,
Freehold Raceway Mall,735,3710 US Highway 9,Space C 124,Freehold,NJ,07728,US,732 294 7156,40.2547978,-74.3000835,"Sun 11:00AM -  7:00PM, Mon – Sat 10:00AM -  9:30PM",,,
Rosedale,737,114 Rosedale Center,Space #200,Roseville,MN,55113,US,651 636 0357,45.014694,-93.1738899,"Sun 11:00AM -  6:00PM, Mon – Sat 10:00AM -  9:00PM",,,
Renaissance at Colony Park,738,1000 Highland Colony Parkway,Suite #4001,Ridgeland,MS,39157,US,601 856 8104,32.4345156,-90.147209,"Sun 12:00PM -  6:00PM, Mon – Sat 10:00AM -  8:00PM",,,
South of Market,739,11953 Market Street,,Reston,VA,20190,US,703 437 3176,38.9587007,-77.3578044,"Sun 12:00PM -  6:00PM, Mon – Thu 10:00AM -  8:00PM, Fri – Sat 10:00AM -  9:00PM",,,
Shops at Long Wharf,740,45 Long Wharf Mall,Space #B100,Newport,RI,02840,US,401 849 5790,41.4899578,-71.3164257,"Sun 11:00AM -  6:00PM, Mon – Sat 10:00AM -  6:00PM",,,
Dadeland Mall,741,7535 Dadeland Mall,Space 1650,Miami,FL,33156,US,305 740 2249,25.6893073,-80.3135498,"Sun 12:00PM -  7:00PM, Mon – Sat 10:00AM -  9:30PM",,,
Avenue at East Cobb,742,4475 Roswell Road,Building D Suite 900,Marietta,GA,30062,US,770 971 6765,33.9873115,-84.4232936,"Sun 12:00PM -  6:00PM, Mon – Sat 10:00AM -  9:00PM",,,
Shoppes at Farmington Valley,743,110 Albany Turnpike,Space 613/615,Canton,CT,06019,US,860 693 8607,41.8224465,-72.8829132,"Sun 12:00PM -  6:00PM, Mon – Sat 10:00AM -  9:00PM",,,
Cherry Hill Mall,745,2000 Route 38,Space #1715,Cherry Hill,NJ,08002,US,856 910 9901,39.9385102,-75.0290682,"Sun 11:00AM -  6:00PM, Mon – Sat 10:00AM -  9:30PM",,,
Fig Garden,746,5098 N Palm Ave,,Fresno,CA,93704,US,559 224 4074,36.8101783,-119.8083168,"Sun 11:00AM -  6:00PM, Mon – Sat 10:00AM -  7:00PM",,,
La Cantera,747,15900 La Cantera Parkway,# 26130,San Antonio,TX,78256,US,210 558 1072,29.5921424,-98.6137826,"Sun 12:00PM -  6:00PM, Mon – Sat 10:00AM -  9:00PM",,,
Fair Oaks Mall,748,11831 L Fair Oaks Shopping Center,Space # H 115,Fairfax,VA,22030,US,703 273 0291,38.8462236,-77.3063733,"Sun 11:00AM -  6:00PM, Mon – Sat 10:00AM -  9:30PM",,,
Lincoln Road,749,726-728 Lincoln Road,,Miami,FL,33139,US,305 673 9806,25.7905009,-80.136031,"Sun 12:00PM -  9:00PM, Mon – Thu 10:00AM -  9:00PM, Fri – Sat 11:00AM - 10:00PM",,,
Market Square,750,684 North  Bank Lane,,Lake Forest,IL,60045,US,847 735 0848,42.2522568,-87.8413794,"Sun 12:00PM -  5:00PM, Mon – Sat 10:00AM -  6:00PM",,,
Liquor Store,751,235 West Broadway,,New York,NY,10013,US,212 226 5476,40.7194449,-74.0058939,"Sun 12:00PM -  6:00PM, Mon – Fri 11:00AM -  8:00PM, Sat 11:00AM -  7:00PM",,,
Stamford Town Center,752,100 Greyrock Pl,Suite G117,Stamford,CT,06901,US,203 406 9673,41.052654,-73.5363992,"Sun 11:00AM -  6:00PM, Mon – Sat 10:00AM -  9:00PM",,,
City Creek Center,754,50 South Main Street,Suite #210,Salt Lake City,UT,84101,US,801 521 4275,40.7679607,-111.8917326,"Sun Closed, Mon – Sat 10:00AM -  9:00PM",,,
Town Center Plaza,755,5004 W 119 Street,Space #510,Leawood,KS,66209,US,913 469 0579,38.9130421,-94.6436378,"Sun 12:00PM -  5:00PM, Mon – Sat 10:00AM -  9:00PM",,,
Men's Shop,756,484 Broadway,,New York,NY,10013,US,212 343 1227,40.7215109,-73.9997826,"Sun 11:00AM -  7:00PM, Mon – Sat 10:00AM -  8:00PM",,,
Bay Street,758,5667 Bay Street,,Emeryville,CA,94608,US,510 450 2548,37.8359152,-122.292341,"Sun 11:00AM -  6:00PM, Mon – Wed 10:00AM -  8:00PM, Thu – Sat 10:00AM -  9:00PM",,,
Los Gatos,759,105 N Santa Cruz Ave,,Los Gatos,CA,95030,US,408 354 1590,37.2247886,-121.9831802,"Sun 11:00AM -  6:00PM, Mon – Sat 10:00AM -  8:00PM",,,
Christiana Mall,760,140 Christiana Mall,,Newark,DE,19702,US,302 737 2363,39.6783502,-75.6497691,"Sun 11:00AM -  6:00PM, Mon – Sat 10:00AM -  9:00PM",,,
J.Crew Collection,762,769 Madison Ave,,New York,NY,10065,US,212 824 2500,40.7677792,-73.9681161,"Sun 12:00PM -  6:00PM, Mon – Sat 10:00AM -  7:00PM",,,
Madison Men's,763,1040 Madison Avenue,,New York,NY,10075,US,212 453 2677,40.776626,-73.962213,"Sun 12:00PM -  6:00PM, Mon – Sat 10:00AM -  7:00PM",,,
Ludlow Shop at Copley,764,100 Huntington Ave,Space J 011,Boston,MA,02116,US,617 375 1032,42.347334,-71.0788745,"Sun 12:00PM -  6:00PM, Mon – Sat 10:00AM -  8:00PM",,,
Boise Towne Square,765,350 N Milwaukee,,Boise,ID,83704,US,208 323 8827,43.6097017,-116.2771205,"Sun 11:00AM -  7:00PM, Mon – Sat 10:00AM -  9:00PM",,,
Americana Manhasset,766,2052 Northern Blvd,,Manhasset,NY,11030,US,516 365 0716,40.795863,-73.67177,"Sun 12:00PM -  6:00PM, Mon – Wed 10:00AM -  6:00PM, Thu – Sat 10:00AM -  7:00PM",,,
Biltmore Fashion Park,767,2502 E  Camelback Rd,Suite #187,Phoenix,AZ,85016,US,602 955 0669,33.5104258,-112.0284918,"Sun 12:00PM -  6:00PM, Mon – Sat 10:00AM -  8:00PM",,,
Legacy Place,768,470 Legacy Place,,Dedham,MA,02026,US,781 326 2596,42.2312376,-71.1788396,"Sun 11:00AM -  6:00PM, Mon – Sat 10:00AM -  9:00PM",,,
Columbus Circle Men's Shop,772,10 Columbus Circle,Space 207,New York,NY,10019,US,212 956 1120,40.7684141,-73.9827037,"Sun 11:00AM -  7:00PM, Mon – Sat 10:00AM -  9:00PM",,,
University Park Village,774,1604 South University Drive,Suite # 503,Fort Worth,TX,76107,US,817 885 7756,32.7281659,-97.3637407,"Sun 12:00PM -  6:00PM, Mon – Sat 10:00AM -  8:00PM",,,
Shops at Canal Place,775,333 Shops at Canal Place,Suite #124,New Orleans,LA,70130,US,504 528 9572,29.9599348,-90.0638123,"Sun 12:00PM -  7:00PM, Mon – Fri 10:00AM -  7:00PM, Sat 10:00AM -  8:00PM",,,
The Grove Men's Shop,776,189 The Grove Drive,Space #H 20,Los Angeles,CA,90036,US,323 939 1797,34.071976,-118.358007,"Sun 10:00AM -  8:00PM, Mon – Thu 10:00AM -  9:00PM, Fri – Sat 10:00AM - 10:00PM",,,
Coolsprings Galleria,777,1800 Galleria Boulevard,Suite #1240,Franklin,TN,37067,US,615 771 7276,35.9577753,-86.8136024,"Sun 12:00PM -  6:00PM, Mon – Sat 10:00AM -  9:00PM",,,
CityCentre,778,800 Town and Country Blvd,Suite 150,Houston,TX,77024,US,713 827 1743,29.7803465,-95.5602723,"Sun 12:00PM -  6:00PM, Mon – Sat 10:00AM -  9:00PM",,,
Harbor East,779,120 International Drive,,Baltimore,MD,21202,US,410 637 8231,39.2827935,-76.6017347,"Sun 11:00AM -  7:00PM, Mon – Sat 10:00AM -  9:00PM",,,
Summit Mall,780,3265 W  Market Street,Space #152A,Akron,OH,44333,US,330 869 0439,41.1341588,-81.6178206,"Sun 11:00AM -  6:00PM, Mon – Sat 10:00AM -  9:00PM",,,
Shops at Merrick Park,781,350 San Lorenzo Avenue,Space 2205,Coral Gables,FL,33146,US,305 444 3162,25.7314228,-80.2601268,"Sun 12:00PM -  6:00PM, Mon – Sat 10:00AM -  9:00PM",,,
The Shops at Chestnut Hill,782,199 Boylston Street,Space N121A,Chestnut Hill,MA,02467,US,617 558 5901,42.3214068,-71.1760576,"Sun 12:00PM -  6:00PM, Mon – Fri 10:00AM -  9:00PM, Sat 10:00AM -  8:00PM",,,
950 F Street,783,950 F Street NW,,Washington,DC,20004,US,202 628 8690,38.8970364,-77.0255003,"Sun 12:00PM -  6:00PM, Mon – Sat 10:00AM -  8:00PM",,,
South Coast Plaza Men's Shop,784,3333 Bristol St.,Space #2830,Costa Mesa,CA,92626,US,714 432 1958,33.691218,-117.888511,"Sun 11:00AM -  6:30PM, Mon – Fri 10:00AM -  9:00PM, Sat 10:00AM -  8:00PM",,,
University Park Mall,785,6501 N  Grape Road,Space #320A,Mishawaka,IN,46545,US,574 243 6013,41.7186752,-86.1902762,"Sun 11:00AM -  6:00PM, Mon – Sat 10:00AM -  9:00PM",,,
The Maine Mall,786,364 Maine Mall Road,Space No W123,South Portland,ME,04106,US,207 773 7695,43.6342134,-70.3367879,"Sun 11:00AM -  6:00PM, Mon – Sat 10:00AM -  9:00PM",,,
Hanover,787,20 South Main Street,,Hanover,NH,03755,US,603 643 5082,43.7018378,-72.2891378,"Sun 11:00AM -  6:00PM, Mon – Thu 10:00AM -  7:00PM, Fri 10:00AM -  8:00PM, Sat 9:00AM -  7:00PM",,,
Ludlow Shop at 50 Hudson,788,50 Hudson Street,,New York,NY,10013,US,212 587 3139,40.7173558,-74.0087702,"Sun 12:00PM -  6:00PM, Mon – Fri 11:00AM -  8:00PM, Sat 11:00AM -  7:00PM",,,
ABQ Uptown,789,2240 Q Street,Suite #10N,Albuquerque,NM,87110,US,505 883 2567,35.1024312,-106.5669329,"Sun 11:00AM -  6:00PM, Mon – Sat 10:00AM -  8:00PM",,,
Copley Men's Shop,790,100 Huntington Ave,Space J 15A,Boston,MA,02116,US,617 236 7648,42.347029,-71.0778969,"Sun 12:00PM -  6:00PM, Mon – Sat 10:00AM -  8:00PM",,,
University Town Center,791,4465 La Jolla Village Drive,Space #H 3,San Diego,CA,92122,US,858 678 8714,32.8734176,-117.2104755,"Sun 11:00AM -  7:00PM, Mon – Sat 10:00AM -  9:00PM",,,
Highland Village,792,4037 Westheimer Road,,Houston,TX,77027,US,713 552 0797,29.7416594,-95.4464059,"Sun 12:00PM -  6:00PM, Mon – Sat 10:00AM -  9:00PM",,,
Tysons Galleria Men's Shop,793,1753G International Drive,,McLean,VA,22102,US,703 821 2436,38.9185326,-77.22585,"Sun 12:00PM -  6:00PM, Mon – Sat 10:00AM -  9:00PM",,,
The Shops at Nanuet,795,8111 Fashion Drive,,Nanuet,NY,10954,US,845 624 3212,41.0969721,-74.0151646,"Sun 11:00AM -  7:00PM, Mon – Sat 10:00AM -  8:00PM",,,
Westside Provisions District,798,1170 Howell Mill Road,Building C,Atlanta,GA,30318,US,404 685 0221,33.7860304,-84.411987,"Sun 12:00PM -  6:00PM, Mon – Sat 10:00AM -  7:00PM",,,
NorthPark Men's Shop,799,8687 North Central Expressway,#E1 717,Dallas,TX,75225,US,469 232 9437,32.8685017,-96.7735125,"Sun 12:00PM -  6:00PM, Mon – Sat 10:00AM -  9:00PM",,,
Alderwood Mall,802,3000 184th St SW,#514,Lynwood,WA,98037,US,425 670 2017,47.8299542,-122.2725709,"Sun 11:00AM -  7:00PM, Mon – Sat 10:00AM -  9:00PM",,,
MarketStreet Lynnfield,803,640 Market Street,,Lynnfield,MA,01940,US,781 334 2049,42.5165216,-71.0348906,"Sun 11:00AM -  6:00PM, Mon – Sat 10:00AM -  9:00PM",,,
Garden City Center,804,114 Hillside Road,,Cranston,RI,02920,US,401 942 1634,41.7613685,-71.4587032,"Sun 12:00PM -  6:00PM, Mon – Sat 10:00AM -  9:00PM",,,
Promenade Shops at Briargate,805,1885 Briargate Parkway,Suite 515,Colorado Springs,CO,80920,US,719 260 2316,38.9642025,-104.795866,"Sun 11:00AM -  6:00PM, Mon – Fri 10:00AM -  8:00PM, Sat 10:00AM -  9:00PM",,,
Station Park,806,144 N E Promontory,,Farmington,UT,84025,US,801 451 5032,40.98343,-111.9065671,"Sun 12:00PM -  6:00PM, Mon – Sat 10:00AM -  9:00PM",,,
Southcenter Mall,807,535 South Center Mall,,Tukwila,WA,98188,US,206 244 5846,47.4590779,-122.2613128,"Sun 11:00AM -  7:00PM, Mon – Sat 10:00AM -  9:00PM",,,
West Broughton Street,816,201 West Broughton Street,,Savannah,GA,31401,US,912 233 4368,32.079431,-81.094569,"Sun 11:00AM -  6:00PM, Mon – Sat 10:00AM -  8:00PM",,,
Rideau Centre,409,50 Rideau Street,,Ottawa,ON,K1N9J7,CA,613 563 7349,45.4255824,-75.692568,"Sun 11:00AM -  6:00PM, Mon – Sat 9:30AM -  9:00PM",,,
Sloane Square,420,16 Sloane Square,,London,,SW1W 8ER,GB,44 207 881 8530,51.4928037,-0.1584301,"Sun 12:00PM -  6:00PM, Mon – Sat 10:00AM -  7:00PM",,,
Main Street Promenade East,794,50 S. Main Street,,Naperville,IL,60540,US,630 548 0391,41.7746065,-88.1494197,"Sun 11:00AM -  6:00PM, Mon – Sat 10:00AM -  8:00PM",,,
West Village,811,3700 McKinney Avenue,,Dallas,TX,75204,US,214 599 6275,32.8079586,-96.7967778,"Sun 11:00AM -  6:00PM, Mon – Sat 10:00AM -  8:00PM",,,
Wythe Ave,817,234 Wythe Avenue,,Brooklyn,NY,11249,US,718 384 3027,40.7177862,-73.9628253,"Sun 11:00AM -  7:00PM, Mon – Sat 11:00AM -  8:00PM",,,
Forum at Carlsbad,815,1915 Calle Barcelona,,Carlsbad,CA,92009,US,760 633 0150,33.0708971,-117.2653467,"Sun 11:00AM -  6:00PM, Mon – Sat 10:00AM -  9:00PM",,,
University Town Center Sarasota,801,140 University Town Center Dr.,Suite 271,Sarasota,FL,34243,US,941 893 3664,27.384433,-82.4531881,"Sun 11:00AM -  6:00PM, Mon – Sat 10:00AM -  9:00PM",,,
Trenholm Plaza,810,4840 Forest Drive,,Columbia,SC,29206,US,803-708-9914,34.0172171,-80.9635041,"Sun 12:00PM -  6:00PM, Mon – Fri 10:00AM -  7:00PM, Sat 10:00AM -  8:00PM",,,
Springfield Town Center,808,6701 Springfield Mall,,Springfield,VA,22150,US,7033134612,38.7717413,-77.1711368,"Sun 11:00AM -  6:00PM, Mon – Sat 10:00AM -  9:00PM",,,
Avalon,814,3170 Avalon Blvd.,,Alpharetta,GA,30009,US,678 248 5195,34.0648482,-84.2495058,"Sun 12:00PM -  6:00PM, Mon – Sat 10:00AM -  9:00PM",,,
Warehouse Row,813,1110 Market Street,,Chattanooga,TN,37402,US,423 634 5273,35.04284,-85.308988,"Sun 11:00AM -  5:00PM, Mon – Thu 10:00AM -  7:00PM, Fri – Sat 10:00AM -  8:00PM",,,
Ambassador Crossing,156,4243 Ambassador Caffery Parkway,,Lafayette,LA,70508,US,337 993 8250,30.1600597,-92.0527609,"Sun 11:00AM -  6:00PM, Mon – Sat 10:00AM -  9:00PM",,,
Marylebone High Street,423,19 Marylebone High Street,,London,,W1U 4BD,GB,44 207 258 8080,51.5190398,-0.1516675,"Sun 12:00PM -  6:00PM, Mon – Sat 10:00AM -  7:00PM",,,
Brookfield Place,812,250 Vesey Street,Suite 111,New York,NY,10281,US,212-786-1901,40.7141805,-74.0155677,"Sun 11:00AM -  7:00PM, Mon – Sat 10:00AM -  8:00PM",,,
Rue Malher,425,12 Rue Malher,,Paris,,75004,FR,+33 1 44 54 57 50,48.8561102,2.3615176,"Sun 12:00PM -  7:00PM, Mon – Sat 10:30AM -  7:30PM",,,
The Men’s Shop at the Shops at Merrick Park,818,342 San Lorenzo Avenue,Space# 1057,Coral Gables,FL,33146,US,305-567-0781,25.731171,-80.2596886,"Sun 12:00PM -  6:00PM, Mon – Sat 10:00AM -  9:00PM",,,
crewcuts at Harrods,426,87-135 Brompton Road,,London,,SW1X7XL,GB,44 207 893 8537,51.4991786,-0.1629932,"Sun 11:30AM -  6:00PM, Mon – Sat 10:00AM -  9:00PM",,,
Le Bon Marché Rive Gauche,429,"24, Rue De Sevres",,Paris,,75007,FR,+33 1 44 39 80 00,48.8506786,2.3245959,"Sun Closed, Mon – Wed 10:00AM -  8:00PM, Thu – Sat 10:00AM -  9:00PM",,,
Ponce City Market,819,675 Ponce De Leon Ave NE,,Atlanta,GA,30308,US,404 541 0635,33.7722636,-84.3661896,"Sun 11:00AM -  7:00PM, Mon – Sat 10:00AM -  9:00PM",,,
Times Square Hong Kong,428,1 Matheson Street,"5th Floor, Space 517-519",Hong Kong,,,CN,+852 2295 3080,22.2781357,114.1821587,Sun – Sat 11:00AM - 10:00PM,,,
Redchurch Street,427,58 Redchurch Street,,London,,,GB,020 7613 7100,51.5244349,-0.0745,"Sun 12:00PM -  6:00PM, Mon – Sat 11:00AM -  7:00PM",,,
Del Amo Fashion Center,824,21540 Hawthorne Blvd,#418,Torrance,CA,90503,US,310 214 4841,33.8260857,-118.3514708,"Sun 11:00AM -  7:00PM, Mon – Wed 10:00AM -  9:00PM, Thu 10:00AM -  8:00PM, Fri 10:00AM -  9:00PM, Sat 10:00AM -  8:00PM",,,
Southport Ave,820,3423 N. Southport Avenue,,Chicago,IL,60657,US,773 472 3061,41.9441435,-87.6636656,"Sun 11:00AM -  6:00PM, Mon – Sat 10:00AM -  8:00PM",,,
Edgehill Village Men's Shop,821,1201 Villa Pl.,Suite 100,Nashville,TN,37212,US,615 320 3721,36.1429685,-86.7923549,"Sun 12:00PM -  6:00PM, Mon – Sat 10:00AM -  7:00PM",,,
Harbour City,430,Level 2 Space 2333-4,Gateway Arcade Harbour City,Tsim Sha Tsui,,,HK,852 2983 6233,22.294242,114.171874,Sun – Sat 10:00AM - 10:00PM,,,
14th Street,823,1618 14th Street NW,,Washington,DC,20009,US,202-518-0891,38.911975,-77.032284,"Sun 11:00AM -  6:00PM, Mon – Sat 11:00AM -  8:00PM",,,
