store_name,store_number,address,address2,city,state,zip_code,country,phone_number,latitude,longitude,store_hours,store_type,other_fields,coming_soon
,,Fern Park 335 E. State Road 436 ,,Fern Park ,FL,32730,United States,407-260-5531,,,"Monday-Friday  9:00-8:00, Saturday 10:00-7:00, Sunday  11:00-5:00",,,
,,Ventura 4705 Telephone Road ,,Ventura ,CA,93003,United States,805-289-1550,,,"Monday-Friday  9:00-8:00, Saturday  10:00-8:00, Sunday  11:00-6:00",,,
,,Littleton 8680A Park Meadows Center Dr. ,,Littleton ,CO,80124,United States,303-768-8484,,,"Monday-Friday  9:00-8:00, Saturday  10:00-8:00, Sunday  11:00-6:00",,,
,,Walnut Creek 1929 Mt. Diablo Blvd. ,,Walnut Creek ,CA,94596,United States,925-944-1495,,,"Monday-Friday  9:00-7:00, Saturday  9:00-6:00, Sunday  11:00-5:00",,,
,,Hamden 2335 Dixwell Avenue ,,Hamden ,CT,06514,United States,203-287-0900,,,"Monday-Saturday 10:00-8:00, Sunday 11:00-6:00",,,
,,West Los Angeles 8888 Venice Blvd. ,,Los Angeles ,CA,90034,United States,310-559-9630,,,"Monday-Friday  9:00-7:00, Saturday  9:00-6:00, Sunday  11:00-5:00",,,
,,San Marcos 702 Center Dr. ,,San Marcos ,CA,92069,United States,760-504-0292,,,"Monday-Saturday 9:00-8:00, Sunday  11:00-6:00",,,
,,Upland 125 N. Mountain Ave ,,Upland ,CA,91786,United States,909-985-9945,,,"Monday-Friday 9:00-7:00, Saturday 10:00-7:00, Sunday 11:00-5:00",,,
,,San Leandro 1144 Montague Ave. ,,San Leandro ,CA,94577,United States,510-483-9750,,,"Monday-Saturday  10:00-7:00, Sunday  11:00-6:00",,,
,,San Diego Hazard Center 7510 Hazard Center Drive ,,San Diego ,CA,92108,United States,619-297-8494,,,"Monday-Friday 9:00-9:00, Saturday 10:00-8:00, Sunday 11:00-6:00",,,
,,San Bernardino 898 E. Harriman Place ,,San Bernardino ,CA,92408,United States,909-890-1222,,,"Monday-Friday 10:00-8:00, Saturday 10:00-7:00, Sunday 11:00-6:00",,,
,,San Jose 1099 S. Bascom Ave. ,,San Jose ,CA,95128,United States,408-998-0794,,,"Monday-Friday 9:00-8:00, Saturday 10:00-7:00, Sunday 11:00-5:00",,,
,,Roseville 1850 Douglas Blvd. ,,Roseville ,CA,95661,United States,916-774-4304,,,"Monday-Friday  9:00-8:00, Saturday  10:00-8:00, Sunday  11:00-6:00",,,
,,Pasadena 3848 E. Foothill Blvd. ,,Pasadena ,CA,91107,United States,626-356-3848,,,"Monday-Friday  9:00-8:00, Saturday  9:00-7:00, Sunday  11:00-5:00",,,
,,Northridge 17072 Devonshire St. ,,Northridge ,CA,91325,United States,818-366-4105,,,"Monday-Friday  9:00-8:00, Saturday  10:00-7:00, Sunday  11:00-6:00",,,
,,Bellevue 11027 N.E. 4th St. ,,Bellevue ,WA,98004,United States,425-462-8076,,,"Monday-Friday  9:00-8:00, Saturday  9:00-6:00, Sunday  11:00-6:00",,,
,,Murrieta Village Walk Plaza (corner of Village Walk Place and Kalmia St.) 24420 Village Walk Place ,,Murrieta ,CA,92562,United States,951-461-1352,,,"Monday-Friday 10:00-8:00, Saturday 10:00-7:00, Sunday 11:00-6:00",,,
,,Alexandria 7009A Manchester Blvd. ,,Alexandria ,VA,22310,United States,703-719-0202,,,"Monday-Saturday 10:00-9:00, Sunday 11:00-5:00",,,
,,McAllen 1316 E. Expressway 83 ,,McAllen ,TX,78503,United States,956-618-0225,,,"Monday-Saturday 10:00-9:00, Sunday 11:00-6:00",,,
,,The Woodlands 19075 Interstate 45 S ,,Shenandoah ,TX,77385,United States,936-271-3585,,,"Monday-Friday  9:00-8:00, Saturday  10:00-8:00, Sunday  11:00-6:00",,,
,,San Antonio 327 NW Loop 410 ,,San Antonio ,TX,78216,United States,210-340-0504,,,"Monday-Saturday 9:00-8:00, Sunday 11:00-6:00",,,
,,Houston 2405 Post Oak Blvd. ,,Houston ,TX,77056,United States,713-355-1893,,,"Monday-Friday  9:00-8:00, Saturday  10:00-7:00, Sunday  11:00-6:00",,,
,,Salt Lake City Oakwood Village Shopping Center 5480 S. 900 East ,,Salt Lake City ,UT,84117,United States,801-268-2224,,,"Monday-Friday  9:00-8:00, Saturday  10:00-8:00, Sunday Closed",,,
,,Friendswood 19032 Gulf Fwy. ,,Friendswood ,TX,77546,United States,281-461-6263,,,"Monday-Friday 10:00-9:00, Saturday  10:00-8:00, Sunday  11:00-6:00",,,
,,Dallas 14060 N. Dallas Parkway ,,Dallas ,TX,75240,United States,972-934-8866,,,"Monday-Friday 10:00-8:00, Saturday  10:00-7:00, Sunday  11:00-6:00",,,
,,Cranston Marshalls Plaza 1400 Oaklawn Avenue ,,Cranston ,RI,02920,United States,401-463-8800,,,"Monday-Friday 10:00-8:00, Saturday 10:00-7:00, Sunday 12:00-6:00",,,
,,King of Prussia 340 W. DeKalb Pike ,,King of Prussia ,PA,19406,United States,610-354-0551,,,"Monday-Saturday  10:00-8:00, Sunday  11:00-6:00",,,
,,Lake Oswego 16901 S.W. 65th Avenue ,,Lake Oswego ,OR,97035,United States,503-620-9888,,,"Monday-Friday 9:00-8:00, Saturday 10:00-8:00, Sunday 11:00-5:00",,,
,,Oklahoma City 6300 N. May Ave. ,,Oklahoma City ,OK,73112,United States,405-858-8778,,,"Monday-Saturday 10:00-8:00, Sunday 12:00-5:00",,,
,,Austin 9828 Great Hills Trail ,,Austin ,TX,78759,United States,512-241-2885,,,"Monday-Friday 9:00-8:00, Saturday 10:00-8:00, Sunday 11:00-6:00",,,
,,Columbus 2148 Polaris Parkway ,,Columbus ,OH,43240,United States,614-846-1710,,,"Monday-Saturday 9:00-9:00, Sunday 11:00-6:00",,,
,,Cleveland 27500 Chagrin Blvd. ,,Beachwood ,OH,44122,United States,216-378-9488,,,"Monday-Saturday 10:00-8:00, Sunday 11:00-6:00",,,
,,Matthews 10005 E. Independence Blvd. ,,Matthews ,NC,28105,United States,704-849-2370,,,"Monday-Friday 10:00-9:00, Saturday 10:00-8:00, Sunday 12:00-6:00",,,
,,Scarsdale Midway Shopping Center 969A Central Park Ave. ,,Scarsdale ,NY,10583,United States,914-472-1820,,,"Monday-Friday 10:00-9:00, Saturday 10:00-8:00, Sunday 10:00-6:00",,,
,,New Hyde Park 2079 Hillside Ave. ,,New Hyde Park ,NY,11040,United States,516-616-9360,,,"Monday-Friday  9:00-8:00, Saturday  9:00-7:00, Sunday  11:00-5:00",,,
,,East Brunswick 275 State Route 18 ,,East Brunswick ,NJ,08816,United States,732-967-8585,,,"Monday-Friday  9:00-8:00, Saturday  10:00-8:00, Sunday  11:00-6:00",,,
,,Albuquerque The Shops at Park Square 6646 Indian School Road NE ,,Albuquerque ,NM,87110,United States,505-884-4866,,,"Monday-Friday 10:00-8:00, Saturday 10:00-8:00, Sunday 12:00-6:00",,,
,,Hackensack 449 Essex St. ,,Hackensack ,NJ,07601,United States,201-441-9214,,,"Monday-Friday  9:00-8:00, Saturday  9:00-7:00, Sunday  Closed",,,
,,Henderson 1243 W. Warm Springs Rd. ,,Henderson ,NV,89014,United States,702-396-2890,,,"Monday-Friday 10:00-8:00, Saturday 10:00-7:00, Sunday 11:00-6:00",,,
,,Omaha 12005 W. Center Rd. ,,Omaha ,NE,68144,United States,402-334-4466,,,"Monday-Saturday 9:00-8:00, Sunday  11:00-6:00",,,
,,Cherry Hill Marketplace at Garden State Park 2020 Marlton Pike West ,,Cherry Hill ,NJ,08002,United States,856-910-0888,,,"Monday-Saturday 10:00-9:00, Sunday 11:00-6:00",,,
,,Louis Park 5699 W. 16th St. ,,St. Louis Park ,MN,55416,United States,952-541-0991,,,"Monday-Friday 9:00-8:00, Saturday 10:00-7:00, Sunday 11:00-6:00",,,
,,Maplewood 1721 Beam Ave. Suite A ,,Maplewood ,MN,55109,United States,651-777-0650,,,"Monday-Friday 9:00-8:00, Saturday 10:00-7:00, Sunday 11:00-6:00",,,
,,Saugus 352E Broadway ,,Saugus ,MA,01906,United States,781-233-3770,,,"Monday-Saturday 10:00-8:00, Sunday 11:00-6:00",,,
,,Sterling Heights 12210 Hall Road ,,Sterling Heights ,MI,48313,United States,586-803-1435,,,"Monday-Friday  9:00-9:00, Saturday  10:00-9:00, Sunday  11:00-6:00",,,
,,Newton 230 Needham Street ,,Newton ,MA,02464,United States,617-969-1171,,,"Monday-Friday  9:00-8:00, Saturday  10:00-8:00, Sunday  11:00-6:00",,,
,,Merriam Merriam Town Center 5670 Antioch Road ,,Merriam ,KS,66202,United States,913-432-3998,,,"Monday-Saturday 9:00-8:00, Sunday 11:00-6:00",,,
,,Towson 1620 E. Joppa Road ,,Towson ,MD,21286,United States,410-296-5888,,,"Monday-Friday 9:00-8:00, Saturday 10:00-8:00, Sunday 11:00-6:00",,,
,,Indianapolis 1300 E. 86th Street ,,Indianapolis ,IN,46240,United States,317-574-0304,,,"Monday-Saturday 9:00-9:00, Sunday 11:00-6:00",,,
,,Palatine 1403 N. Rand Road ,,Palatine ,IL,60074,United States,847-705-5052,,,"Monday-Friday  9:00-8:00, Saturday 10:00-7:00, Sunday  11:00-5:00",,,
,,Orland Park 15780 S. La Grange Road ,,Orland Park ,IL,60462,United States,708-403-6300,,,"Monday-Saturday 10:00-8:00, Sunday 11:00-6:00",,,
,,Chicago 2255 W. 95th St. ,,Chicago ,IL,60643,United States,773-233-9210,,,"Monday-Friday  9:00-8:00, Saturday 10:00-7:00, Sunday  11:00-5:00",,,
,,Boise 417 N Milwaukee Street ,,Boise ,ID,83704,United States,208-377-1855,,,"Monday-Saturday 10:00-8:00, Sunday 12:00-5:00",,,
,,Fountain Valley 18679 Brookhurst St. ,,Fountain Valley ,CA,92708,United States,714-963-8255,,,"Monday-Friday  9:00-8:00, Saturday  9:00-7:00, Sunday  10:00-5:00",,,
,,East Cobb 4287 Roswell Road ,,Marietta ,GA,30062,United States,770-578-3100,,,"Monday-Saturday 10:00-8:00, Sunday 11:00-6:00",,,
,,Tampa 4501 W. Kennedy Blvd. ,,Tampa ,FL,33609,United States,813-207-0468,,,"Monday-Friday  9:00-8:00, Saturday  9:00-7:00, Sunday  11:00-5:00",,,
,,Laguna Hills Furniture Row 23501 Avenida de la Carlota ,,Laguna Hills ,CA,92653,United States,949-462-9353,,,"Monday-Friday 9:00-8:00, Saturday 10:00-7:00, Sunday 10:00-6:00",,,
,,Paradise Valley 4727 E. Bell Road ,,Phoenix ,AZ,85032,United States,602-482-7900,,,"Monday-Friday 9:00-9:00, Saturday 10:00-8:00, Sunday 11:00-6:00",,,
,,Carson 2695 E. Dominguez St. ,,Carson ,CA,90895,United States,310-537-4778,,,"Monday-Friday  9:00-7:00, Saturday  10:00-6:00, Sunday  10:00-6:00",,,
,,Phoenix Ahwatukee Foothills Towne Center 4819 E. Ray Road ,,Phoenix ,AZ,85044,United States,480-940-7700,,,"Monday-Friday 9:00-9:00, Saturday 10:00-8:00, Sunday 11:00-6:00",,,
