store_name,store_number,address,address2,city,state,zip_code,country,phone_number,latitude,longitude,store_hours,store_type,other_fields,coming_soon
Tanger Outlets Foley,,2601 S MCKENZIE STREET,,FOLEY,AL,36535,United States,(251) 970-3220,,,"Monday - Friday 9:00 AM - 9:00 PM, Saturday 9:00 AM  - 9:00 PM, Sunday 11:00 AM - 6:00 PM",,,
Anchorage Fifth Avenue,,320 W 5TH AVENUE,,ANCHORAGE,AK,99501,United States,(907) 278-0313,,,"Monday - Friday 10:00 AM - 9:00 PM, Saturday 10:00 AM - 8:00 PM, Sunday 11:00 AM - 6:00 PM",,,
Dimond Center,,800 E DIMOND BLVD,,ANCHORAGE,AK,99515,United States,(907) 336-2513,,,"Monday - Friday 10:00 AM - 9:00 PM, Saturday 10:00 AM - 9:00 PM, Sunday 11:00 AM - 6:00 PM",,,
Superstition Springs Center,,6555 E SOUTHERN AVENUE,,MESA,AZ,85206,United States,(480) 641-1842,,,"Monday - Friday 10:00 AM - 9:00 PM, Saturday 10:00 AM - 9:00 PM, Sunday 11:00 AM - 6:00 PM",,,
Arrowhead Towne Center,,7700-2058 ARROWHEAD CTR,,GLENDALE,AZ,85308,United States,(623) 979-1555,,,"Monday - Friday 10:00 AM - 9:00 PM, Saturday 10:00 AM - 9:00 PM, Sunday 11:00 AM - 6:00 PM",,,
Tucson Mall,,4500 N ORACLE ROAD,,TUCSON,AZ,85705,United States,(520) 690-1250,,,"Monday - Friday 10:00 AM - 9:00 PM, Saturday 10:00 AM - 9:00 PM, Sunday 11:00 AM - 6:00 PM",,,
Scottsdale Fashion Square,,7014 E CAMELBACK RD,,SCOTTSDALE,AZ,85251,United States,(480) 874-1042,,,"Monday - Friday 10:00 AM - 9:00 PM, Saturday 10:00 AM - 9:00 PM, Sunday 11:00 AM - 6:00 PM",,,
Chandler Fashion Center,,3111 W CHANDLER BLVD,,CHANDLER,AZ,85226,United States,(480) 782-5151,,,"Monday - Friday 10:00 AM - 9:00 PM, Saturday 10:00 AM - 9:00 PM, Sunday 11:00 AM - 6:00 PM",,,
Desert Ridge Marketplace,,21001 NORTH TATUM BLVD,,PHOENIX,AZ,85050,United States,(480) 419-9899,,,"Monday - Friday 11:00 AM - 9:00 PM, Saturday 10:00 AM - 9:00 PM, Sunday 11:00 AM - 6:00 PM",,,
Tanger Westgate Phoenix,,6800 N 95TH AVE,,GLENDALE,AZ,85305,United States,6238770404,,,"Monday - Friday 9:00 AM - 9:00 PM, Saturday 9:00 AM  - 9:00 PM, Sunday 10:00 AM - 7:00 PM",,,
Tucson Premium Outlets,,6401 WEST MARANA CTR BLVD,,MARANA,AZ,85653,United States,(520) 579-9727,,,"Monday - Friday 9:00 AM - 9:00 PM, Saturday 9:00 AM  - 9:00 PM, Sunday 10:00 AM - 7:00 PM",,,
Tempe Marketplace,,2000 E. RIO SALADO PKWY,,TEMPE,AZ,85281,United States,(480) 921-5468,,,"Monday - Friday 11:00 AM - 9:00 PM, Saturday 11:00 AM - 9:00 PM, Sunday 11:00 AM - 6:00 PM",,,
Yuma Palms,,1327 YUMA PALMS PARKWAY,,YUMA,AZ,85365,United States,(928) 373-2230,,,"Monday - Friday 10:00 AM - 9:00 PM, Saturday 10:00 AM - 9:00 PM, Sunday 11:00 AM - 6:00 PM",,,
Flagstaff Mall,,4650 N. HWY 89,,FLAGSTAFF,AZ,86004,United States,(928) 522-5631,,,"Monday - Friday 10:00 AM - 9:00 PM, Saturday 10:00 AM - 9:00 PM, Sunday 11:00 AM - 6:00 PM",,,
Northwest Arkansas Mall,,4201 NORTH SHILOH DR,,FAYETTEVILLE,AR,72703,United States,(479) 443-5593,,,"Monday - Friday 10:00 AM - 9:00 PM, Saturday 10:00 AM - 9:00 PM, Sunday 12:00 PM - 6:00 PM",,,
Galleria at Roseville,,1151 GALLERIA BLVD,,ROSEVILLE,CA,95678,United States,(916) 788-1900,,,"Monday - Friday 10:00 AM - 9:00 PM, Saturday 10:00 AM - 9:00 PM, Sunday 11:00 AM - 7:00 PM",,,
Hillsdale Shopping Center,,452 HILLSDALE MALL,,SAN MATEO,CA,94403,United States,(650) 573-1614,,,"Monday - Friday 10:00 AM - 9:00 PM, Saturday 10:00 AM - 9:00 PM, Sunday 11:00 AM - 7:00 PM",,,
Fresno Fashion Fair,,617 E SHAW AVENUE,,FRESNO,CA,93710,United States,(559) 225-5875,,,"Monday - Friday 10:00 AM - 9:00 PM, Saturday 10:00 AM - 9:00 PM, Sunday 11:00 AM - 7:00 PM",,,
Vintage Faire Mall,,3401 DALE ROAD,,MODESTO,CA,95356,United States,(209) 572-4160,,,"Monday - Friday 10:00 AM - 9:00 PM, Saturday 10:00 AM - 9:00 PM, Sunday 11:00 AM - 7:00 PM",,,
Plaza at West Covina,,376 PLAZA DRIVE,,WEST COVINA,CA,91790,United States,(626) 851-0294,,,"Monday - Friday 10:00 AM - 9:00 PM, Saturday 10:00 AM - 9:00 PM, Sunday 11:00 AM - 7:00 PM",,,
Arden Fair,,1689 ARDEN WAY,,SACRAMENTO,CA,95815,United States,(916) 923-0311,,,"Monday - Friday 10:00 AM - 9:00 PM, Saturday 10:00 AM - 9:00 PM, Sunday 11:00 AM - 7:00 PM",,,
Palm Desert Town Center,,72-840 HIGHWAY 111,,PALM DESERT,CA,92260,United States,(760) 779-1692,,,"Monday - Friday 10:00 AM - 8:00 PM, Saturday 10:00 AM - 8:00 PM, Sunday 11:00 AM - 7:00 PM",,,
Los Cerritos Center,,203 LOS CERRITOS CENTER,,CERRITOS,CA,90703,United States,(562) 402-2691,,,"Monday - Friday 10:00 AM - 9:00 PM, Saturday 10:00 AM - 8:00 PM, Sunday 11:00 AM - 7:00 PM",,,
Galleria at Tyler,,1140 GALLERIA AT TYLER,,RIVERSIDE,CA,92503,United States,(951) 688-8773,,,"Monday - Friday 10:00 AM - 9:00 PM, Saturday 10:00 AM - 9:00 PM, Sunday 11:00 AM - 7:00 PM",,,
Shops at Mission Viejo,,704 SHOPS @ MISSION VIEJO,,MISSION VIEJO,CA,92691,United States,(949) 364 1591,,,"Monday - Friday 10:00 AM - 9:00 PM, Saturday 10:00 AM - 7:00 PM, Sunday 11:00 AM - 6:00 PM",,,
Mission Valley,,1640 CAMINO DEL RIO NORTH,,SAN DIEGO,CA,92108,United States,(619) 299-2047,,,"Monday - Friday 10:00 AM - 9:00 PM, Saturday 10:00 AM - 9:00 PM, Sunday 11:00 AM - 6:00 PM",,,
Pacific View Mall,,3301 E. MAIN STREET,,VENTURA,CA,93003,United States,(805) 650-7509,,,"Monday - Friday 10:00 AM - 9:00 PM, Saturday 10:00 AM - 9:00 PM, Sunday 11:00 AM - 7:00 PM",,,
Mall at Victor Valley,,"1440 BEAR VALLEY RD,",,VICTORVILLE,CA,92392,United States,(760) 243-0680,,,"Monday - Friday 10:00 AM - 9:00 PM, Saturday 10:00 AM - 8:00 PM, Sunday 11:00 AM - 7:00 PM",,,
Chico Mall,,1950 EAST 20TH STREET,,CHICO,CA,95928,United States,(530) 895-1592,,,"Monday - Friday 10:00 AM - 9:00 PM, Saturday 10:00 AM - 9:00 PM, Sunday 12:00 PM - 6:00 PM",,,
Mt. Shasta Mall,,900 DANA DRIVE,,REDDING,CA,96003,United States,(530) 722-0843,,,"Monday - Friday 10:00 AM - 9:00 PM, Saturday 10:00 AM - 9:00 PM, Sunday 11:00 AM - 6:00 PM",,,
Northridge Mall,,560 NORTHRIDGE MALL,,SALINAS,CA,93906,United States,(831) 442-2013,,,"Monday - Friday 10:00 AM - 9:00 PM, Saturday 10:00 AM - 9:00 PM, Sunday 11:00 AM - 7:00 PM",,,
Metro Pointe at South Coast,,901 SOUTH COAST DRIVE,,COSTA MESA,CA,92626,United States,(714) 957-6061,,,"Monday - Friday 9:00 AM - 11:00 PM, Saturday 9:00 AM  - 11:00 PM, Sunday 9:00 AM  - 11:00 PM",,,
Stonewood Center,,251 STONEWOOD STREET,,DOWNEY,CA,90241,United States,(562) 622-0705,,,"Monday - Friday 10:00 AM - 9:00 PM, Saturday 10:00 AM - 8:00 PM, Sunday 11:00 AM - 7:00 PM",,,
San Francisco Shopping Centre,,865 MARKET ST,,SAN FRANCISCO,CA,94103,United States,(415) 543-2435,,,"Monday - Friday 10:00 AM - 8:30 PM, Saturday 10:00 AM - 8:30 PM, Sunday 10:00 AM - 7:00 PM",,,
North County Fair,,200 E VIA RANCHO PKWY,,ESCONDIDO,CA,92025,United States,(760) 489-6641,,,"Monday - Friday 10:00 AM - 9:00 PM, Saturday 10:00 AM - 9:00 PM, Sunday 11:00 AM - 7:00 PM",,,
Victoria Gardens,,12534 N MAINSTREET,,RANCHO CUCAMONGA,CA,91729,United States,(909) 646-7438,,,"Monday - Friday 10:00 AM - 9:00 PM, Saturday 10:00 AM - 10:00 PM, Sunday 11:00 AM - 7:00 PM",,,
Imperial Valley Mall,,3451 S. DOGWOOD AVE,,EL CENTRO,CA,92243,United States,(760) 337-1995,,,"Monday - Friday 10:00 AM - 9:00 PM, Saturday 10:00 AM - 9:00 PM, Sunday 11:00 AM - 7:00 PM",,,
Montebello Town Center,,1840 MONTEBELLO TOWN CTR,,MONTEBELLO,CA,90640,United States,(323) 720-9492,,,"Monday - Friday 10:00 AM - 9:00 PM, Saturday 10:00 AM - 9:00 PM, Sunday 11:00 AM - 7:00 PM",,,
Petaluma Premium Outlets,,2200 PETALUMA BL NORTH,,PETALUMA,CA,94952,United States,(707) 776-4721,,,"Monday - Friday 10:00 AM - 8:00 PM, Saturday 10:00 AM - 9:00 PM, Sunday 10:00 AM - 7:00 PM",,,
Marina Square Shopping Center,,1299 MARINA BL,,SAN LEANDRO,CA,94577,United States,(510) 352-3512,,,"Monday - Friday 10:00 AM - 9:00 PM, Saturday 10:00 AM - 9:00 PM, Sunday 11:00 AM - 6:00 PM",,,
Lake Elsinore Outlets,,17600 COLLIER AVE,,LAKE ELSINORE,CA,92530,United States,(951) 674-5039,,,"Monday - Friday 10:00 AM - 8:00 PM, Saturday 10:00 AM - 8:00 PM, Sunday 10:00 AM - 7:00 PM",,,
Vacaville Premium Outlets,,238 NUT TREE RD,,VACAVILLE,CA,95687,United States,(707) 469-9297,,,"Monday - Friday 10:00 AM - 9:00 PM, Saturday 10:00 AM - 9:00 PM, Sunday 10:00 AM - 6:00 PM",,,
Outlets at Tejon Ranch,,5701 OUTLETS AT TEJON PKY,,ARVIN,CA,93203,United States,661-858-0401,,,"Monday - Friday 10:00 AM - 9:00 PM, Saturday 10:00 AM - 9:00 PM, Sunday 10:00 AM - 8:00 PM",,,
San Francisco Premium Outlets,,3768 LIVERMORE OUTLETS WY,,LIVERMORE,CA,94551,United States,(111) 111-1111,,,"Monday - Friday 10:00 AM - 9:00 PM, Saturday 10:00 AM - 9:00 PM, Sunday 10:00 AM - 7:00 PM",,,
CLOSED POP UP SAN DIEGO,,3450 EAST MIRALOMA,,ANAHEIM,CA,92806,United States,1,,,"Monday - Friday 10:00 AM - 9:00 AM, Saturday, Sunday",,,
Montclair Plaza,,5060 MONTCLAIR PLAZA LANE,,MONTCLAIR,CA,91763,United States,(909) 621-5702,,,"Monday - Friday 10:00 AM - 8:30 PM, Saturday 10:00 AM - 9:00 PM, Sunday 11:00 AM - 7:00 PM",,,
Oaks Shopping Center,,180 W HILLCREST,,THOUSAND OAKS,CA,91360,United States,(805) 496-9667,,,"Monday - Friday 10:00 AM - 9:00 PM, Saturday 10:00 AM - 9:00 PM, Sunday 11:00 AM - 7:00 PM",,,
Westside Pavilion,,10800 W PICO BLVD,,LOS ANGELES,CA,90064,United States,(310) 470-4211,,,"Monday - Friday 10:00 AM - 9:00 PM, Saturday 10:00 AM - 8:00 PM, Sunday 11:00 AM - 6:00 PM",,,
Oakridge Mall,,925 BLOSSOM HILL RD.,,SAN JOSE,CA,95123,United States,(408) 365-3206,,,"Monday - Friday 10:30 AM - 9:00 PM, Saturday 10:00 AM - 10:00 PM, Sunday 11:00 AM - 7:30 PM",,,
Sun Valley,,121 SUNVALLEY MALL,,CONCORD,CA,94520,United States,(925) 671-9416,,,"Monday - Friday 10:00 AM - 9:00 PM, Saturday 10:00 AM - 9:00 PM, Sunday 11:00 AM - 7:00 PM",,,
Valley Fair,,2855 STEVENS CREEK,,SANTA CLARA,CA,95050,United States,(408) 241-8550,,,"Monday - Friday 10:00 AM - 9:30 PM, Saturday 10:00 AM - 9:00 PM, Sunday 11:00 AM - 7:00 PM",,,
Northgate,,5800 NORTHGATE DRIVE,,SAN RAFAEL,CA,94903,United States,(415) 491-0225,,,"Monday - Friday 10:00 AM - 9:00 PM, Saturday 10:00 AM - 9:00 PM, Sunday 11:00 AM - 6:00 PM",,,
Main Place,,2800 N. MAIN STREET,,SANTA ANA,CA,92705,United States,(714) 558-0155,,,"Monday - Friday 10:00 AM - 9:00 PM, Saturday 10:00 AM - 8:00 PM, Sunday 11:00 AM - 7:00 PM",,,
Lakewood Center,,44 LAKEWOOD CENTER MALL,,LAKEWOOD,CA,90714,United States,(562) 633-8708,,,"Monday - Friday 10:00 AM - 9:00 PM, Saturday 10:00 AM - 8:00 PM, Sunday 11:00 AM - 7:00 PM",,,
Valley Plaza Shopping Center,,2701 MING AVENUE,,BAKERSFIELD,CA,93304,United States,(661) 833-3889,,,"Monday - Friday 10:00 AM - 9:00 PM, Saturday 10:00 AM - 9:00 PM, Sunday 11:00 AM - 6:00 PM",,,
Northridge Fashion Center,,9301 TAMPA AVENUE,,NORTHRIDGE,CA,91324,United States,(818) 993-1525,,,"Monday - Friday 10:00 AM - 9:00 PM, Saturday 10:00 AM - 9:00 PM, Sunday 11:00 AM - 6:00 PM",,,
Santa Rosa Plaza,,1065 SANTA ROSA PLAZA,,SANTA ROSA,CA,95401,United States,(707) 579-2993,,,"Monday - Friday 10:00 AM - 9:00 PM, Saturday 10:00 AM - 8:00 PM, Sunday 11:00 AM - 6:00 PM",,,
The Streets of Brentwood,,2535 SAN CREEK ROAD,,BRENTWOOD,CA,94513,United States,925 634-3525,,,"Monday - Friday 10:00 AM - 9:00 PM, Saturday 10:00 AM - 9:00 PM, Sunday 11:00 AM - 6:00 PM",,,
Del Amo Fashion Center,,21540 HAWTHORNE BLVD,,TORRANCE,CA,90503,United States,(310) 542-5119,,,"Monday - Friday 10:00 AM - 9:00 PM, Saturday 10:00 AM - 8:00 PM, Sunday 11:00 AM - 7:00 PM",,,
Brea Mall,,1050 BREA MALL,,BREA,CA,92821,United States,(714) 529-4141,,,"Monday - Friday 10:00 AM - 9:00 PM, Saturday 10:00 AM - 7:00 PM, Sunday 11:00 AM - 6:00 PM",,,
Topanga Plaza,,6600 TOPANGA CANYON BLVD,,CANOGA PARK,CA,91303,United States,(818) 992-1126,,,"Monday - Friday 10:00 AM - 9:00 PM, Saturday 10:00 AM - 9:00 PM, Sunday 11:00 AM - 7:00 PM",,,
Westminster Mall,,1074 WESTMINSTER MALL,,WESTMINSTER,CA,92683,United States,(714) 891-6911,,,"Monday - Friday 10:00 AM - 9:00 PM, Saturday 10:00 AM - 9:00 PM, Sunday 11:00 AM - 6:00 PM",,,
Santa Anita,,400 S BALDWIN AVENUE,,ARCADIA,CA,91006,United States,(626) 447-9342,,,"Monday - Friday 10:00 AM - 9:00 PM, Saturday 10:00 AM - 7:00 PM, Sunday 11:00 AM - 7:00 PM",,,
Plaza Bonita,,3030 PLAZA BONITA RD,,NATIONAL CITY,CA,91950,United States,(619) 472-5889,,,"Monday - Friday 10:00 AM - 9:00 PM, Saturday 10:00 AM - 9:00 PM, Sunday 11:00 AM - 7:00 PM",,,
Irvine Spectrum,,646 SPECTRUM CENTER DR,,IRVINE,CA,92618,United States,(949) 727-4431,,,"Monday - Friday 11:00 AM - 9:00 PM, Saturday 11:00 AM - 10:00 PM, Sunday 11:00 AM - 8:00 PM",,,
Serramonte Center,,26 SERRAMONTE CENTER,,DALY CITY,CA,94015,United States,(650) 758-6550,,,"Monday - Friday 10:00 AM - 9:00 PM, Saturday 10:00 AM - 9:00 PM, Sunday 11:00 AM - 7:00 PM",,,
The Outlets at Orange,,20 CITY BLVD. WEST,,ORANGE,CA,92868,United States,(714) 937-3924,,,"Monday - Friday 10:00 AM - 9:00 PM, Saturday 10:00 AM - 10:00 PM, Sunday 11:00 AM - 9:00 PM",,,
Paseo Nuevo,,319 PASEO NUEVO,,SANTA BARBARA,CA,93101,United States,(805) 564-7085,,,"Monday - Friday 10:00 AM - 9:00 PM, Saturday 10:00 AM - 8:00 PM, Sunday 11:00 AM - 6:00 PM",,,
Santa Maria Town Center,,166 TOWN CENTER EAST,,SANTA MARIA,CA,93454,United States,(805) 614-4361,,,"Monday - Friday 10:00 AM - 8:00 PM, Saturday 10:00 AM - 7:00 PM, Sunday 11:00 AM - 7:00 PM",,,
Shoppes at Chino Hills,,13920 CITY CENTER DRIVE,,CHINO HILLS,CA,91709,United States,909 364-1391,,,"Monday - Friday 10:00 AM - 8:00 PM, Saturday 10:00 AM - 10:00 PM, Sunday 11:00 AM - 7:00 PM",,,
Glendale Galleria,,2191 GLENDALE GALLERIA,,GLENDALE,CA,91210,United States,818 500-8302,,,"Monday - Friday 10:00 AM - 9:00 PM, Saturday 10:00 AM - 9:00 PM, Sunday 11:00 AM - 7:00 PM",,,
Third Street Promenade,,1446 3RD ST PROMENADE,,SANTA MONICA,CA,90401,United States,(310) 395-4064,,,"Monday - Friday 9:00 AM - 10:00 PM, Saturday 9:00 AM  - 10:00 PM, Sunday 9:00 AM  - 10:00 PM",,,
Ontario Mills,,1 MILLS CIRCLE,,ONTARIO,CA,91764,United States,(909) 484-8485,,,"Monday - Friday 10:00 AM - 9:00 PM, Saturday 10:00 AM - 9:00 PM, Sunday 11:00 AM - 8:00 PM",,,
Camarillo Premium Outlet,,690 VENTURA BLVD.,,CAMARILLO,CA,93010,United States,(805) 384-9095,,,"Monday - Friday 10:00 AM - 9:00 PM, Saturday 10:00 AM - 9:00 PM, Sunday 10:00 AM - 8:00 PM",,,
Carlsbad Premium Outlets,,5610 PASEO DEL NORTE,,CARLSBAD,CA,92008,United States,(760) 476-0500,,,"Monday - Friday 10:00 AM - 9:00 PM, Saturday 10:00 AM - 9:00 PM, Sunday 10:00 AM - 7:00 PM",,,
Great Mall of the Bay Area,,122 GREAT MALL DRIVE,,MILPITAS,CA,95035,United States,(408) 956-8744,,,"Monday - Friday 10:00 AM - 9:00 PM, Saturday 10:00 AM - 9:00 PM, Sunday 11:00 AM - 8:00 PM",,,
Las Americas Premium Outlets,,4321 CAMINO DE LA PLAZA,,SAN DIEGO,CA,92173,United States,(619) 428-7669,,,"Monday - Friday 10:00 AM - 9:00 PM, Saturday 10:00 AM - 9:00 PM, Sunday 10:00 AM - 7:00 PM",,,
Desert Hills Premium Outlets,,48650 SEMINOLE DRIVE,,CABAZON,CA,92230,United States,(951) 849-6259,,,"Monday - Friday 10:00 AM - 9:00 PM, Saturday 9:00 AM  - 9:00 PM, Sunday 10:00 AM - 8:00 PM",,,
Pismo Beach Premium Outlets,,333 FIVE CITIES DRIVE,,PISMO BEACH,CA,93449,United States,(805) 773-0481,,,"Monday - Friday 10:00 AM - 9:00 PM, Saturday 10:00 AM - 9:00 PM, Sunday 10:00 AM - 7:00 PM",,,
Gilroy Premium Outlets,,8155 AROYO CIRCLE,,GILROY,CA,95020,United States,(408) 846-8224,,,"Monday - Friday 10:00 AM - 9:00 PM, Saturday 10:00 AM - 9:00 PM, Sunday 10:00 AM - 6:00 PM",,,
Promenade at Temecula,,40820 WINCHESTER ROAD,,TEMECULA,CA,92591,United States,(951) 296-1966,,,"Monday - Friday 10:00 AM - 9:00 PM, Saturday 10:00 AM - 9:00 PM, Sunday 11:00 AM - 7:00 PM",,,
Denver Pavilions,,500 16TH STREET #10,,DENVER,CO,80202,United States,(720) 904-6919,,,"Monday - Friday 10:00 AM - 8:00 PM, Saturday 10:00 AM - 8:00 PM, Sunday 12:00 PM - 6:00 PM",,,
Park Meadows,,8505 PARK MEADOWS CTR DR,,LITTLETON,CO,80124,United States,(303) 792-5596,,,"Monday - Friday 10:00 AM - 9:00 PM, Saturday 10:00 AM - 9:00 PM, Sunday 11:00 AM - 6:00 PM",,,
Mesa Mall,,2424 US HIGHWAY 6 & 50,,GRAND JUNCTION,CO,81505,United States,(970) 242-8183,,,"Monday - Friday 10:00 AM - 9:00 PM, Saturday 10:00 AM - 9:00 PM, Sunday 11:00 AM - 6:00 PM",,,
Cherry Creek Mall,,3000 E. FIRST AVE,,DENVER,CO,80206,United States,(303) 321-7122,,,"Monday - Friday 10:00 AM - 9:00 PM, Saturday 10:00 AM - 9:00 PM, Sunday 11:00 AM - 6:00 PM",,,
Southwest Plaza,,8501 W. BOWLES AVENUE,,LITTLETON,CO,80123,United States,(111) 111-1111,,,"Monday - Friday 10:00 AM - 9:00 PM, Saturday 10:00 AM - 9:00 PM, Sunday 11:00 AM - 6:00 PM",,,
Citadel,,750 CITADEL DR. EAST,,COLORADO SPRINGS,CO,80909,United States,(719) 574-8276,,,"Monday - Friday 10:00 AM - 9:00 PM, Saturday 10:00 AM - 9:00 PM, Sunday 11:00 AM - 6:00 PM",,,
Shops at Centerra,,5897 SKY POND DRIVE,,LOVELAND,CO,80538,United States,(970) 669-0497,,,"Monday - Friday 10:00 AM - 9:00 PM, Saturday 10:00 AM - 9:00 PM, Sunday 11:00 AM - 6:00 PM",,,
Chapel Hills Mall,,1710 BRIARGATE,,COLORADO SPRINGS,CO,80920,United States,(719) 548-8184,,,"Monday - Friday 10:00 AM - 9:00 PM, Saturday 10:00 AM - 9:00 PM, Sunday 11:00 AM - 6:00 PM",,,
Outlets at Castle Rock,,5050 FACTORY SHOPS BLVD,,CASTLE ROCK,CO,80108,United States,(303) 814-6936,,,"Monday - Friday 10:00 AM - 8:00 PM, Saturday 10:00 AM - 8:00 PM, Sunday 11:00 AM - 6:00 PM",,,
Colorado Mills,,14500 W COLFAX AVE,,GOLDEN,CO,80401,United States,(303) 215-0565,,,"Monday - Friday 10:00 AM - 9:00 PM, Saturday 10:00 AM - 9:00 PM, Sunday 11:00 AM - 6:00 PM",,,
Flatiron Crossing,,1 WEST FLATIRON CIRCLE,,BROOMFIELD,CO,80021,United States,(720) 887-9700,,,"Monday - Friday 10:00 AM - 9:00 PM, Saturday 10:00 AM - 9:00 PM, Sunday 11:00 AM - 6:00 PM",,,
Danbury Fair,,7 BACKUS AV,,DANBURY,CT,06810,United States,(203) 778-5132,,,"Monday - Friday 10:00 AM - 9:30 PM, Saturday 10:00 AM - 9:30 PM, Sunday 11:00 AM - 7:00 PM",,,
Crystal Mall,,850 HARTFORD TPKE,,WATERFORD,CT,06385,United States,(860) 442-2600,,,"Monday - Friday 10:00 AM - 9:00 PM, Saturday 10:00 AM - 9:00 PM, Sunday 11:00 AM - 6:00 PM",,,
Westfarms Mall,,500 WESTFARMS MALL,,FARMINGTON,CT,06032,United States,(860) 521-0556,,,"Monday - Friday 10:00 AM - 9:30 PM, Saturday 10:00 AM - 9:30 PM, Sunday 11:00 AM - 6:00 PM",,,
Christiana Mall,,139 CHRISTIANA MALL,,NEWARK,DE,19702,United States,(302) 266-9253,,,"Monday - Friday 10:00 AM - 9:30 PM, Saturday 10:00 AM - 9:30 PM, Sunday 11:00 AM - 6:00 PM",,,
Tanger Outlet Center Bayside,,36698 BAYSIDE OUTLET DR,,REHOBOTH BEACH,DE,19971,United States,(302) 226-8860,,,"Monday - Friday 9:00 AM - 9:00 PM, Saturday 9:00 AM  - 9:00 PM, Sunday 11:00 AM - 7:00 PM",,,
Countryside,,"27001 US HWY 19, NORTH",,CLEARWATER,FL,33761,United States,(727) 725-0362,,,"Monday - Friday 10:00 AM - 9:00 PM, Saturday 10:00 AM - 9:00 PM, Sunday 12:00 PM - 6:00 PM",,,
Citrus Park,,8115 CITRUS PARK TWN CTR,,TAMPA,FL,33625,United States,(813) 926-3464,,,"Monday - Friday 10:00 AM - 9:00 PM, Saturday 10:00 AM - 9:00 PM, Sunday 12:00 PM - 6:00 PM",,,
Coastland Center,,2010 TAMIAMI TRAIL NORTH,,NAPLES,FL,34102,United States,(239) 430-0770,,,"Monday - Friday 10:00 AM - 9:00 PM, Saturday 10:00 AM - 9:00 PM, Sunday 12:00 PM - 6:00 PM",,,
Treasure Coast Square,,3174 N WEST FEDERAL HWY,,JENSEN BEACH,FL,34957,United States,(772) 692-7605,,,"Monday - Friday 10:00 AM - 9:00 PM, Saturday 10:00 AM - 9:00 PM, Sunday 12:00 PM - 6:00 PM",,,
Altamonte Mall,,451 E ALTAMONTE AVENUE,,ALTAMONTE SPRINGS,FL,32701,United States,(407) 339-4072,,,"Monday - Friday 10:00 AM - 9:00 PM, Saturday 10:00 AM - 9:00 PM, Sunday 12:00 PM - 6:00 PM",,,
Melbourne Square Mall,,1700 WEST NEW HAVEN,,MELBOURNE,FL,32904,United States,(321) 727-1343,,,"Monday - Friday 10:00 AM - 9:00 PM, Saturday 10:00 AM - 9:00 PM, Sunday 12:00 PM - 6:00 PM",,,
Brandon Town Center,,551 BRANDON TOWN CENTER,,BRANDON,FL,33511,United States,(813) 684-5155,,,"Monday - Friday 10:00 AM - 9:00 PM, Saturday 10:00 AM - 9:00 PM, Sunday 11:00 AM - 6:00 PM",,,
Avenues Mall,,10300 SOUTHSIDE BLVD,,JACKSONVILLE,FL,32256,United States,(904) 363-9010,,,"Monday - Friday 10:00 AM - 9:00 PM, Saturday 10:00 AM - 9:00 PM, Sunday 12:00 PM - 6:00 PM",,,
Seminole Towne Center,,267 TOWNE CENTER CIRCLE,,SANFORD,FL,32771,United States,(407) 324-1339,,,"Monday - Friday 10:00 AM - 9:00 PM, Saturday 10:00 AM - 9:00 PM, Sunday 12:00 PM - 6:00 PM",,,
Indian River Mall,,6200 20TH STREET,,VERO BEACH,FL,32966,United States,(772) 978-4322,,,"Monday - Friday 10:00 AM - 9:00 PM, Saturday 10:00 AM - 9:00 PM, Sunday 12:00 PM - 6:00 PM",,,
Shops at Sunset Place,,"5701 SUNSET DRIVE, #C14",,SOUTH MIAMI,FL,33143,United States,(305) 740-8141,,,"Monday - Friday 11:00 AM - 10:00 PM, Saturday 11:00 AM - 11:00 PM, Sunday 11:00 AM - 9:00 PM",,,
Ellenton Premium Outlets,,5189 FACTORY SHOPS BLVD,,ELLENTON,FL,34222,United States,(941) 721-4418,,,"Monday - Friday 10:00 AM - 9:00 PM, Saturday 10:00 AM - 9:00 PM, Sunday 10:00 AM - 7:00 PM",,,
Silver Sands Factory Stores,,10406 EMERALD COAST,,DESTIN,FL,32541,United States,(850) 650-3443,,,"Monday - Friday 10:00 AM - 9:00 PM, Saturday 10:00 AM - 9:00 PM, Sunday 10:00 AM - 6:00 PM",,,
Gardens,,3101 PGA BLVD,,PALM BEACH GARDENS,FL,33410,United States,(561) 627-4585,,,"Monday - Friday 10:00 AM - 9:00 PM, Saturday 10:00 AM - 9:00 PM, Sunday 12:00 PM - 6:00 PM",,,
Town Center at Boca Raton,,6000 GLADES RD,,BOCA RATON,FL,33431,United States,(561) 395-2610,,,"Monday - Friday 10:00 AM - 9:00 PM, Saturday 10:00 AM - 9:00 PM, Sunday 12:00 PM - 6:00 PM",,,
Oaks Mall,,6417 NEWBERRY ROAD,,GAINESVILLE,FL,32605,United States,(352) 331-0690,,,"Monday - Friday 10:00 AM - 9:00 PM, Saturday 10:00 AM - 9:00 PM, Sunday 12:00 PM - 6:00 PM",,,
Coral Square,,9161 W. ATLANTIC BLVD.,,CORAL SPRINGS,FL,33071,United States,(954) 796-0260,,,"Monday - Friday 10:00 AM - 9:00 PM, Saturday 10:00 AM - 9:00 PM, Sunday 12:00 PM - 6:00 PM",,,
Florida Mall,,8001 S ORANGE BLOSSOM TRL,,ORLANDO,FL,32809,United States,(407) 816-0896,,,"Monday - Friday 10:00 AM - 9:00 PM, Saturday 10:00 AM - 10:00 PM, Sunday 12:00 PM - 8:00 PM",,,
Orange Park Mall,,1910 WELLS ROAD,,ORANGE PARK,FL,32073,United States,(904) 278-1910,,,"Monday - Friday 10:00 AM - 9:00 PM, Saturday 10:00 AM - 9:00 PM, Sunday 12:00 PM - 6:00 PM",,,
Governors Square,,1500 APALACHEE PKWY,,TALLAHASSEE,FL,32301,United States,(850) 216-2352,,,"Monday - Friday 10:00 AM - 9:00 PM, Saturday 10:00 AM - 9:00 PM, Sunday 12:00 PM - 6:00 PM",,,
Falls Shopping Center,,8888 SW 136TH ST,,MIAMI,FL,33176,United States,(305) 233-1696,,,"Monday - Friday 10:00 AM - 9:00 PM, Saturday 10:00 AM - 9:00 PM, Sunday 12:00 PM - 7:00 PM",,,
Mall at Wellington Green,,10300 W. FORREST HILL BL.,,WELLINGTON,FL,33414,United States,(561) 333-7344,,,"Monday - Friday 10:00 AM - 9:00 PM, Saturday 10:00 AM - 9:00 PM, Sunday 11:00 AM - 6:00 PM",,,
International Plaza,,2223 N WESTSHORE BLVD,,TAMPA,FL,33607,United States,(813) 348-9077,,,"Monday - Friday 10:00 AM - 9:00 PM, Saturday 10:00 AM - 9:00 PM, Sunday 11:00 AM - 6:00 PM",,,
Miromar Outlets,,10801 CORKSEW RD,,ESTERO,FL,33928,United States,(239) 498-4751,,,"Monday - Friday 10:00 AM - 9:00 PM, Saturday 10:00 AM - 9:00 PM, Sunday 11:00 AM - 6:00 PM",,,
Dolphin Mall,,11401 NW 12TH STREET,,MIAMI,FL,33172,United States,(305) 470-8718,,,"Monday - Friday 10:00 AM - 9:30 PM, Saturday 10:00 AM - 9:30 PM, Sunday 11:00 AM - 8:00 PM",,,
Tampa Premium Outlets,,2244 GRAND CYPRESS DRIVE,,LUTZ,FL,33559,United States,(813) 949-7541,,,"Monday - Friday 10:00 AM - 9:00 PM, Saturday 10:00 AM - 9:00 PM, Sunday 11:00 AM - 6:00 PM",,,
Palm Beach Outlets,,1741 PALM BEACH LAKES BLV,,WEST PALM BEACH,FL,33401,United States,(561)616 0778,,,"Monday - Friday 10:00 AM - 9:00 PM, Saturday 10:00 AM - 9:00 PM, Sunday 11:00 AM - 7:00 PM",,,
Winter Garden Village,,3047 DANIELS RD,,WINTER GARDEN,FL,34787,United States,407 877-0922,,,"Monday - Friday 9:00 AM - 10:00 PM, Saturday 9:00 AM  - 10:00 PM, Sunday 9:00 AM  - 10:00 PM",,,
Shops at Wiregrass,,28210 PASEO DRIVE,,WESLEY CHAPEL,FL,33543,United States,(813) 991-4364,,,"Monday - Friday 10:00 AM - 9:00 PM, Saturday 10:00 AM - 9:00 PM, Sunday 12:00 PM - 6:00 PM",,,
University Town Center,,140 UNIVERSITY TOWN CTR,,SARASOTA,FL,34243,United States,9418666332,,,"Monday - Friday 10:00 AM - 9:00 PM, Saturday 10:00 AM - 9:00 PM, Sunday 11:00 AM - 6:00 PM",,,
Galleria at Fort Lauderdale,,2414 E SUNRISE BL,,FORT LAUDERDALE,FL,33304,United States,(954) 630-8309,,,"Monday - Friday 10:00 AM - 9:00 PM, Saturday 10:00 AM - 9:00 PM, Sunday 12:00 PM - 6:00 PM",,,
Lakeside Village,,1540 TOWN CENTER DR,,LAKELAND,FL,33803,United States,(863) 680-1795,,,"Monday - Friday 10:00 AM - 9:00 PM, Saturday 10:00 AM - 9:00 PM, Sunday 12:00 PM - 5:00 PM",,,
Coconut Point,,23106 FASHION DR,,ESTERO,FL,33928,United States,(239) 948-0142,,,"Monday - Friday 10:00 AM - 9:00 PM, Saturday 10:00 AM - 9:00 PM, Sunday 12:00 PM - 6:00 PM",,,
Sawgrass Mills,,12801 W. SUNRISE BLVD.,,SUNRISE,FL,33323,United States,(954) 846-9006,,,"Monday - Friday 10:00 AM - 9:30 PM, Saturday 10:00 AM - 9:30 PM, Sunday 11:00 AM - 8:00 PM",,,
Tyrone Square,,6901 22ND AVENUE,,ST PETERSBURG,FL,33710,United States,(727) 345-0123,,,"Monday - Friday 10:00 AM - 9:00 PM, Saturday 10:00 AM - 9:00 PM, Sunday 11:00 AM - 7:00 PM",,,
Cordova Mall,,5100 N 9TH AVENUE,,PENSACOLA,FL,32504,United States,(850) 476-8550,,,"Monday - Friday 10:00 AM - 9:00 PM, Saturday 10:00 AM - 9:00 PM, Sunday 12:00 PM - 6:00 PM",,,
Volusia Mall,,1700 W INTL SPEEDWAY BLVD,,DAYTONA BEACH,FL,32114,United States,(386) 252-9772,,,"Monday - Friday 10:00 AM - 9:00 PM, Saturday 10:00 AM - 9:00 PM, Sunday 12:00 PM - 6:00 PM",,,
Sarasota Square,,8201 TAMIAMI TRAIL,,SARASOTA,FL,34238,United States,(941) 921-3233,,,"Monday - Friday 10:00 AM - 9:00 PM, Saturday 10:00 AM - 9:00 PM, Sunday 12:00 PM - 5:30 PM",,,
Orlando Premium Outlets,,8200 VINELAND AVE,,ORLANDO,FL,32821,United States,(407) 238-9944,,,"Monday - Friday 10:00 AM - 11:00 PM, Saturday 10:00 AM - 11:00 PM, Sunday 10:00 AM - 9:00 PM",,,
Orlando Premium Outlets - Intl. Dr,,"4973 INTERNATIONAL DR,",,ORLANDO,FL,32819,United States,(407) 354 4492,,,"Monday - Friday 10:00 AM - 11:00 PM, Saturday 10:00 AM - 11:00 PM, Sunday 10:00 AM - 9:00 PM",,,
St. Augustine Outlets,,500 PRIME OUTLET BLVD.,,SAINT AUGUSTINE,FL,32095,United States,(904) 819-0502,,,"Monday - Friday 9:00 AM - 9:00 PM, Saturday 9:00 AM  - 9:00 PM, Sunday 10:00 AM - 6:00 PM",,,
Augusta Mall,,3450 WRIGHTSBORO ROAD,,AUGUSTA,GA,30909,United States,(706) 481-8094,,,"Monday - Friday 10:00 AM - 9:00 PM, Saturday 10:00 AM - 9:00 PM, Sunday 12:00 PM - 6:00 PM",,,
Town Center at Cobb,,400 E.W. BARRETT PKWY,,KENNESAW,GA,30144,United States,(770) 419-2132,,,"Monday - Friday 10:00 AM - 9:00 PM, Saturday 10:00 AM - 9:00 PM, Sunday 12:00 PM - 6:00 PM",,,
North Point Mall,,2074 NORTH POINT CIRCLE,,ALPHARETTA,GA,30022,United States,(770) 410-1113,,,"Monday - Friday 10:00 AM - 9:00 PM, Saturday 10:00 AM - 9:00 PM, Sunday 12:00 PM - 7:00 PM",,,
Mall of Georgia,,3333 BUFORD DRIVE,,BUFORD,GA,30519,United States,(678) 482 7333,,,"Monday - Friday 10:00 AM - 9:00 PM, Saturday 10:00 AM - 9:00 PM, Sunday 12:00 PM - 6:00 PM",,,
Oglethorpe Mall,,7804 ABERCORN EXTENSION,,SAVANNAH,GA,31406,United States,(912) 355-9367,,,"Monday - Friday 10:00 AM - 9:00 PM, Saturday 10:00 AM - 9:00 PM, Sunday 12:00 PM - 6:00 PM",,,
Valdosta Mall,,1700 NORMAN DR,,VALDOSTA,GA,31601,United States,(229) 219-7339,,,"Monday - Friday 10:00 AM - 9:00 PM, Saturday 10:00 AM - 9:00 PM, Sunday 1:00 PM  - 6:00 PM",,,
Avenue at Webb Gin,,1350 SCENIC HWY,,SNELLVILLE,GA,30078,United States,(770) 736-4983,,,"Monday - Friday 10:00 AM - 9:00 PM, Saturday 10:00 AM - 9:00 PM, Sunday 12:00 PM - 6:00 PM",,,
Peachtree Mall,,3131 MANCHESTER EXPWY,,COLUMBUS,GA,31909,United States,(706) 653-9002,,,"Monday - Friday 10:00 AM - 9:00 PM, Saturday 10:00 AM - 9:00 PM, Sunday 12:00 PM - 6:00 PM",,,
North Georgia Premium Outlet,,800 HWY 400 SOUTH,,DAWSONVILLE,GA,30534,United States,(706) 216-6421,,,"Monday - Friday 10:00 AM - 9:00 PM, Saturday 10:00 AM - 9:00 PM, Sunday 11:00 AM - 7:00 PM",,,
Queen Kaahumanu Center,,275 KAAHUMANU AVENUE,,KAHULUI,HI,96732,United States,(808) 871-8784,,,"Monday - Friday 9:30 AM - 9:00 PM, Saturday 9:30 AM  - 9:00 PM, Sunday 10:00 AM - 5:00 PM",,,
Pearlridge Center,,98-1005 MOANA LUA ROAD,,AIEA,HI,96701,United States,(808) 484-9225,,,"Monday - Friday 10:00 AM - 9:00 PM, Saturday 10:00 AM - 9:00 PM, Sunday 10:00 AM - 6:00 PM",,,
Whalers Village,,2435 KA'ANAPALI PARKWAY,,KA'ANAPALI MAUI,HI,96761,United States,(808) 662-3636,,,"Monday - Friday 9:30 AM - 10:00 PM, Saturday 9:30 AM  - 10:00 PM, Sunday 9:30 AM  - 10:00 PM",,,
Ala Moana Center,,1450 ALA MOANA BL,,HONOLULU,HI,96814,United States,(808) 943-9317,,,"Monday - Friday 9:00 AM - 9:30 PM, Saturday 9:00 AM  - 9:30 PM, Sunday 10:00 AM - 7:00 PM",,,
Windward Mall,,46-056 KAMEHAMEHA HWY,,KANEOHE,HI,96744,United States,(808) 234-1369,,,"Monday - Friday 10:00 AM - 9:00 PM, Saturday 10:00 AM - 9:00 PM, Sunday 10:00 AM - 5:00 PM",,,
Queen's Marketplace,,201 WAIKOLOA BEACH DR,,KAILUA KONA,HI,96738,United States,808 886-0415,,,"Monday - Friday 9:30 AM - 9:30 PM, Saturday 9:30 AM  - 9:30 PM, Sunday 9:30 AM  - 9:30 PM",,,
Boise Towne Square,,350 N. MILWAUKEE ST,,BOISE,ID,83704,United States,(208) 321-0094,,,"Monday - Friday 10:00 AM - 9:00 PM, Saturday 10:00 AM - 9:00 PM, Sunday 11:00 AM - 7:00 PM",,,
Grand Teton Mall,,2300 E. 17TH STREET,,IDAHO FALLS,ID,83404,United States,(208) 552-6453,,,"Monday - Friday 10:00 AM - 9:00 PM, Saturday 10:00 AM - 9:00 PM, Sunday 12:00 PM - 6:00 PM",,,
Market Place S. C.,,2000 N. NEIL STREET,,CHAMPAIGN,IL,61820,United States,(217) 398-5070,,,"Monday - Friday 10:00 AM - 9:00 PM, Saturday 10:00 AM - 9:00 PM, Sunday 11:00 AM - 6:00 PM",,,
Yorktown Shopping Center,,203 YORKTOWN CTR,,LOMBARD,IL,60148,United States,(630) 424-0262,,,"Monday - Friday 10:00 AM - 9:00 PM, Saturday 10:00 AM - 9:00 PM, Sunday 11:00 AM - 6:00 PM",,,
Hawthorn Shopping Center,,626 HAWTHORN CENTER,,VERNON HILLS,IL,60061,United States,(847) 367-1250,,,"Monday - Friday 10:00 AM - 9:00 PM, Saturday 10:00 AM - 9:00 PM, Sunday 11:00 AM - 6:00 PM",,,
Fox Valley Mall,,2430 FOX VALLEY CENTER,,AURORA,IL,60504,United States,(630) 820-6226,,,"Monday - Friday 10:00 AM - 9:00 PM, Saturday 10:00 AM - 9:00 PM, Sunday 11:00 AM - 6:00 PM",,,
Old Orchard Shopping Center,,4999 OLD ORCHARD CENTER,,SKOKIE,IL,60077,United States,(847) 675-2931,,,"Monday - Friday 10:00 AM - 9:00 PM, Saturday 10:00 AM - 9:00 PM, Sunday 11:00 AM - 6:00 PM",,,
Woodfield,,WOODFIELD MALL,,SCHAUMBURG,IL,60173,United States,(847) 413-0424,,,"Monday - Friday 10:00 AM - 9:00 PM, Saturday 10:00 AM - 9:00 PM, Sunday 11:00 AM - 6:00 PM",,,
Orland Square,,824 ORLAND SQUARE,,ORLAND PARK,IL,60462,United States,(708) 403-3310,,,"Monday - Friday 10:00 AM - 9:00 PM, Saturday 10:00 AM - 9:00 PM, Sunday 11:00 AM - 6:00 PM",,,
Northwoods Mall,,2200 W WAR MEMORIAL DRIVE,,PEORIA,IL,61613,United States,(309) 681-1384,,,"Monday - Friday 10:00 AM - 9:00 PM, Saturday 10:00 AM - 9:00 PM, Sunday 11:00 AM - 6:00 PM",,,
Louis Joliet Mall,,3340 MALL LOOP DRIVE,,JOLIET,IL,60431,United States,(815) 254-6961,,,"Monday - Friday 10:00 AM - 9:00 PM, Saturday 10:00 AM - 9:00 PM, Sunday 11:00 AM - 6:00 PM",,,
St. Clair Square,,134 ST. CLAIR SQUARE,,FAIRVIEW HEIGHTS,IL,62208,United States,(618) 624-8731,,,"Monday - Friday 10:00 AM - 9:00 PM, Saturday 10:00 AM - 9:00 PM, Sunday 11:00 AM - 6:00 PM",,,
Algonquin Commons,,1916 S. RANDALL ROAD,,ALGONQUIN,IL,60102,United States,(847) 854-2509,,,"Monday - Friday 10:00 AM - 9:00 PM, Saturday 10:00 AM - 9:00 PM, Sunday 11:00 AM - 6:00 PM",,,
Chicago Premium Outlets,,1650 PREMIUM OUTLETS BL,,AURORA,IL,60504,United States,(630) 898-9381,,,"Monday - Friday 10:00 AM - 9:00 PM, Saturday 10:00 AM - 9:00 PM, Sunday 10:00 AM - 7:00 PM",,,
Harlem Irving Plaza,,4174-E NORTH HARLEM AVE,,NORRIDGE,IL,60706,United States,(708) 456-2047,,,"Monday - Friday 10:00 AM - 9:00 PM, Saturday 10:00 AM - 9:00 PM, Sunday 11:00 AM - 6:00 PM",,,
Chicago Ridge,,410 CHICAGO RIDGE MALL DR,,CHICAGO RIDGE,IL,60415,United States,(708) 424-5887,,,"Monday - Friday 10:00 AM - 9:00 PM, Saturday 10:00 AM - 8:00 PM, Sunday 11:00 AM - 6:00 PM",,,
Promenade Bolingbrook,,623 E. BOUGHTON RD,,BOLINGBROOK,IL,60440,United States,(630) 739-2357,,,"Monday - Friday 10:00 AM - 9:00 PM, Saturday 10:00 AM - 9:00 PM, Sunday 11:00 AM - 6:00 PM",,,
Gurnee Mills Outlet Mall,,6170 GRAND AVENUE,,GURNEE,IL,60031,United States,(847) 855-8645,,,"Monday - Friday 10:00 AM - 9:00 PM, Saturday 10:00 AM - 9:30 PM, Sunday 11:00 AM - 7:00 PM",,,
Eastland Mall,,1615 E. EMPIRE,,BLOOMINGTON,IL,61701,United States,(309) 665-0648,,,"Monday - Friday 10:00 AM - 9:00 PM, Saturday 10:00 AM - 9:00 PM, Sunday 12:00 PM - 6:00 PM",,,
Eastland Mall,,800 N GREEN RIVER ROAD,,EVANSVILLE,IN,47715,United States,(812) 479-6872,,,"Monday - Friday 10:00 AM - 9:00 PM, Saturday 10:00 AM - 9:00 PM, Sunday 12:00 PM - 6:00 PM",,,
Glenbrook Square,,4201 COLDWATER ROAD,,FORT WAYNE,IN,46805,United States,(260) 496-8566,,,"Monday - Friday 10:00 AM - 9:00 PM, Saturday 10:00 AM - 9:00 PM, Sunday 12:00 PM - 6:00 PM",,,
Castleton Square,,6020 E 82ND STREET,,INDIANAPOLIS,IN,46250,United States,(317) 849-4591,,,"Monday - Friday 10:00 AM - 9:00 PM, Saturday 10:00 AM - 9:00 PM, Sunday 11:00 AM - 6:00 PM",,,
University Park Mall,,6501 N GRAPE ROAD,,MISHAWAKA,IN,46545,United States,(574) 277-0259,,,"Monday - Friday 10:00 AM - 9:00 PM, Saturday 10:00 AM - 9:00 PM, Sunday 11:00 AM - 6:00 PM",,,
Lighthouse Place Premium Outlets,,213 LIGHTHOUSE PLACE,,MICHIGAN CITY,IN,46360,United States,(219) 861-0857,,,"Monday - Friday 9:00 AM - 9:00 PM, Saturday 9:00 AM  - 9:00 PM, Sunday 10:00 AM - 6:00 PM",,,
Honey Creek Mall,,3401 SOUTH US HWY 41,,TERRE HAUTE,IN,47802,United States,(812) 232-9640,,,"Monday - Friday 10:00 AM - 9:00 PM, Saturday 10:00 AM - 9:00 PM, Sunday 12:00 PM - 6:00 PM",,,
Greenwood Park Mall,,1251 US 31 NORTH,,GREENWOOD,IN,46142,United States,(317) 883-4962,,,"Monday - Friday 10:00 AM - 9:00 PM, Saturday 10:00 AM - 9:00 PM, Sunday 12:00 PM - 6:00 PM",,,
Edinburgh Premium Outlet,,3115 OUTLET DRIVE,,EDINBURGH,IN,46124,United States,(812) 526-2270,,,"Monday - Friday 10:00 AM - 9:00 PM, Saturday 10:00 AM - 9:00 PM, Sunday 10:00 AM - 7:00 PM",,,
Southlake Mall,,2291 SOUTHLAKE MALL,,MERRILLVILLE,IN,46410,United States,(219) 736-2412,,,"Monday - Friday 10:00 AM - 9:00 PM, Saturday 10:00 AM - 9:00 PM, Sunday 11:00 AM - 6:00 PM",,,
Kennedy Mall,,555 JOHN F. KENNEDY RD,,DUBUQUE,IA,52002,United States,(563) 583-1818,,,"Monday - Friday 10:00 AM - 9:00 PM, Saturday 10:00 AM - 9:00 PM, Sunday 11:00 AM - 6:00 PM",,,
Jordan Creek,,101 JORDAN CREEK PKWY,,WEST DES MOINES,IA,50266,United States,(515) 223-5662,,,"Monday - Friday 10:00 AM - 9:00 PM, Saturday 10:00 AM - 9:00 PM, Sunday 11:00 AM - 6:00 PM",,,
Oak Park Mall,,11675 W 95TH ST.,,OVERLAND PARK,KS,66214,United States,(913) 307-0508,,,"Monday - Friday 10:00 AM - 9:00 PM, Saturday 10:00 AM - 9:00 PM, Sunday 11:00 AM - 6:00 PM",,,
Towne East Square,,7700 E. KELLOGG,,WICHITA,KS,67207,United States,(316) 652-7419,,,"Monday - Friday 10:00 AM - 9:00 PM, Saturday 10:00 AM - 9:00 PM, Sunday 12:00 PM - 6:00 PM",,,
Fayette Mall,,3401 NICHOLASVILLE ROAD,,LEXINGTON,KY,40503,United States,(859) 273-7817,,,"Monday - Friday 10:00 AM - 9:00 PM, Saturday 10:00 AM - 9:00 PM, Sunday 12:00 PM - 6:00 PM",,,
Mall St. Matthews,,5000 SHELBYVILLE RD,,LOUISVILLE,KY,40207,United States,(502) 897-0835,,,"Monday - Friday 10:00 AM - 9:00 PM, Saturday 10:00 AM - 9:00 PM, Sunday 12:00 PM - 6:00 PM",,,
Acadiana Mall,,5725 JOHNSTON STREET,,LAFAYETTE,LA,70503,United States,(337) 988-2222,,,"Monday - Friday 10:00 AM - 9:00 PM, Saturday 10:00 AM - 9:00 PM, Sunday 12:00 PM - 6:00 PM",,,
Lakeside Shopping Center,,3301 VETRANS MEMORIAL BL,,METAIRIE,LA,70002,United States,(504) 837-0981,,,"Monday - Friday 10:00 AM - 9:00 PM, Saturday 10:00 AM - 9:00 PM, Sunday 12:00 PM - 6:00 PM",,,
Mall of Louisiana,,6401 BLUE BONNET BLVD,,BATON ROUGE,LA,70836,United States,(225) 761-7226,,,"Monday - Friday 10:00 AM - 9:00 PM, Saturday 10:00 AM - 9:00 PM, Sunday 12:00 PM - 6:00 PM",,,
Southland Mall,,5953 W PARK AVENUE,,HOUMA,LA,70364,United States,(985) 868-0448,,,"Monday - Friday 10:00 AM - 9:00 PM, Saturday 10:00 AM - 9:00 PM, Sunday 12:00 PM - 6:00 PM",,,
Bangor Mall,,663 STILLWATER AV,,BANGOR,ME,04401,United States,(207) 990-4331,,,"Monday - Friday 10:00 AM - 9:00 PM, Saturday 10:00 AM - 9:00 PM, Sunday 11:00 AM - 6:00 PM",,,
Kittery Premium Outlets,,KITTERY PREMIUM OUTLETS,,KITTERY,ME,03904,United States,(207) 439-4944,,,"Monday - Friday 9:00 AM - 9:00 PM, Saturday 9:00 AM  - 9:00 PM, Sunday 10:00 AM - 6:00 PM",,,
Maine Mall,,364 MAINE MALL RD,,SOUTH PORTLAND,ME,04106,United States,(207) 780-9956,,,"Monday - Friday 10:00 AM - 9:00 PM, Saturday 10:00 AM - 9:00 PM, Sunday 11:00 AM - 6:00 PM",,,
White Marsh Mall,,8200 PERRY HALL,,BALTIMORE,MD,21236,United States,(410) 931-0947,,,"Monday - Friday 10:00 AM - 9:00 PM, Saturday 10:00 AM - 9:00 PM, Sunday 12:00 PM - 6:00 PM",,,
Arundel Mills,,"7600 CLARK ROAD, #218",,HANOVER,MD,21076,United States,(443) 755-1720,,,"Monday - Friday 10:00 AM - 9:30 PM, Saturday 10:00 AM - 9:30 PM, Sunday 11:00 AM - 7:00 PM",,,
Mall in Columbia,,10300 LITTLE PATUXENT PKY,,COLUMBIA,MD,21044,United States,(410) 740-8388,,,"Monday - Friday 10:00 AM - 9:00 PM, Saturday 10:00 AM - 9:00 PM, Sunday 12:00 PM - 6:00 PM",,,
Annapolis Mall,,1160 ANNAPOLIS MALL,,ANNAPOLIS,MD,21401,United States,(410) 224-8389,,,"Monday - Friday 10:00 AM - 9:00 PM, Saturday 10:00 AM - 9:00 PM, Sunday 11:00 AM - 7:00 PM",,,
Montgomery Mall,,7101 DEMOCRACY BLVD,,BETHESDA,MD,20817,United States,(301) 365-2630,,,"Monday - Friday 10:00 AM - 9:00 PM, Saturday 10:00 AM - 9:00 PM, Sunday 11:00 AM - 6:00 PM",,,
Harford Mall,,678D BEL AIR ROAD,,BEL AIR,MD,21014,United States,(410) 420-7990,,,"Monday - Friday 10:00 AM - 9:00 PM, Saturday 10:00 AM - 9:00 PM, Sunday 11:00 AM - 5:00 PM",,,
Ocean City Factory Outlets,,12741 OCEAN GATEWAY,,OCEAN CITY,MD,21842,United States,(410) 213-8420,,,"Monday - Friday 9:00 AM - 9:00 PM, Saturday 9:00 AM  - 9:00 PM, Sunday 11:00 AM - 7:00 PM",,,
Hagerstown Premium Outlets,,660 PRIME OUTLETS BL,,HAGERSTOWN,MD,21740,United States,(301) 393-3915,,,"Monday - Friday 10:00 AM - 9:00 PM, Saturday 10:00 AM - 9:00 PM, Sunday 10:00 AM - 7:00 PM",,,
Queenstown Premium Outlets,,125 OUTLET CENTER DR,,QUEENSTOWN,MD,21658,United States,(410) 827-8235,,,"Monday - Friday 10:00 AM - 9:00 PM, Saturday 10:00 AM - 9:00 PM, Sunday 10:00 AM - 8:00 PM",,,
Centre at Salisbury,,2300 N SALISBURY BLVD.,,SALISBURY,MD,21801,United States,(410) 341-7383,,,"Monday - Friday 10:00 AM - 9:00 PM, Saturday 10:00 AM - 9:00 PM, Sunday 11:00 AM - 6:00 PM",,,
Towson Town Center,,825 DULANEY VALLEY ROAD,,TOWSON,MD,21204,United States,(410) 321-8012,,,"Monday - Friday 10:00 AM - 9:00 PM, Saturday 10:00 AM - 9:00 PM, Sunday 12:00 PM - 6:00 PM",,,
Northshore Mall,,210 ANDOVER STREET,,PEABODY,MA,01960,United States,(978) 538-3113,,,"Monday - Friday 10:00 AM - 9:00 PM, Saturday 10:00 AM - 9:00 PM, Sunday 11:00 AM - 6:00 PM",,,
Natick Mall,,1245 WORCESTER ST #59,,NATICK,MA,01760,United States,(508) 651-3661,,,"Monday - Friday 10:00 AM - 9:00 PM, Saturday 10:00 AM - 9:00 PM, Sunday 12:00 PM - 6:00 PM",,,
Emerald Square,,999 WASHINGTON ST,,NORTH ATTLEBORO,MA,02760,United States,(508) 695-3206,,,"Monday - Friday 10:00 AM - 9:00 PM, Saturday 10:00 AM - 9:00 PM, Sunday 11:00 AM - 6:00 PM",,,
Holyoke Mall,,50 HOLYOKE ST,,HOLYOKE,MA,01040,United States,(413) 532-3348,,,"Monday - Friday 10:00 AM - 9:30 PM, Saturday 10:00 AM - 9:30 PM, Sunday 11:00 AM - 6:00 PM",,,
Cape Cod Mall,,769 IYANOUGH RD,,HYANNIS,MA,02601,United States,(508) 771-0391,,,"Monday - Friday 10:00 AM - 9:00 PM, Saturday 10:00 AM - 9:00 PM, Sunday 11:00 AM - 6:00 PM",,,
Dartmouth Mall,,200 N. DARTMOUTH MALL,,NORTH DARTMOUTH,MA,02747,United States,(508) 992-0921,,,"Monday - Friday 10:00 AM - 9:00 PM, Saturday 10:00 AM - 9:00 PM, Sunday 11:00 AM - 6:00 PM",,,
South Shore Plaza,,250 GRANITE ST,,BRAINTREE,MA,02184,United States,(781) 356-4397,,,"Monday - Friday 10:00 AM - 9:00 PM, Saturday 10:00 AM - 9:00 PM, Sunday 11:00 AM - 6:00 PM",,,
Mall at Whitney Field,,100 COMMERCIAL RD,,LEOMINSTER,MA,01453,United States,(978) 840-6595,,,"Monday - Friday 10:00 AM - 9:00 PM, Saturday 10:00 AM - 9:00 PM, Sunday 11:00 AM - 6:00 PM",,,
Lee Premium Outlets,,180 PREMIUM BLVD,,LEE,MA,01238,United States,(413) 243-0194,,,"Monday - Friday 10:00 AM - 9:00 PM, Saturday 10:00 AM - 9:00 PM, Sunday 10:00 AM - 7:00 PM",,,
Wrentham Village Premium Outlet,,1 PREMIUM OUTLET BLVD,,WRENTHAM,MA,02093,United States,(508) 384-8944,,,"Monday - Friday 10:00 AM - 9:00 PM, Saturday 10:00 AM - 9:00 PM, Sunday 10:00 AM - 6:00 PM",,,
Woodland,,3135 28TH STREET SE,,GRAND RAPIDS,MI,49512,United States,(616) 942-2162,,,"Monday - Friday 10:00 AM - 9:00 PM, Saturday 10:00 AM - 9:00 PM, Sunday 12:00 PM - 6:00 PM",,,
Lakeside,,14600 LAKESIDE CIRCLE,,STERLING HEIGHTS,MI,48313,United States,(586) 247-4420,,,"Monday - Friday 10:00 AM - 9:00 PM, Saturday 10:00 AM - 9:00 PM, Sunday 12:00 PM - 6:00 PM",,,
Briarwood,,338 BRIARWOOD CIRCLE,,ANN ARBOR,MI,48108,United States,(734) 769-5440,,,"Monday - Friday 10:00 AM - 9:00 PM, Saturday 10:00 AM - 9:00 PM, Sunday 11:00 AM - 6:00 PM",,,
Twelve Oaks Mall,,27330 NOVI ROAD,,NOVI,MI,48377,United States,(248) 344-8255,,,"Monday - Friday 10:00 AM - 9:00 PM, Saturday 10:00 AM - 9:00 PM, Sunday 11:00 AM - 6:00 PM",,,
Rivertown Crossing,,3700 RIVERTOWN PARKWAY,,GRANDVILLE,MI,49418,United States,(616) 532-7785,,,"Monday - Friday 10:00 AM - 9:00 PM, Saturday 10:00 AM - 9:00 PM, Sunday 11:00 AM - 6:00 PM",,,
Lakes Mall,,5600 HARVEY STREET,,MUSKEGON,MI,49444,United States,(231) 798-4797,,,"Monday - Friday 10:00 AM - 9:00 PM, Saturday 10:00 AM - 9:00 PM, Sunday 11:00 AM - 6:00 PM",,,
Tanger Grand Rapids,,350 84TH STREET SW,,BYRON CENTER,MI,49315,United States,6165831449,,,"Monday - Friday 9:00 AM - 9:00 PM, Saturday 9:00 AM  - 9:00 PM, Sunday 10:00 AM - 7:00 PM",,,
The Somerset Collection North,,2800 W BIG BEAVER ROAD,,TROY,MI,48084,United States,248 816-9644,,,"Monday - Friday 10:00 AM - 9:00 PM, Saturday 10:00 AM - 9:00 PM, Sunday 10:00 AM - 7:00 PM",,,
Great Lakes Crossing,,4570 BALDWIN ROAD,,AUBURN HILLS,MI,48326,United States,(248) 338-1330,,,"Monday - Friday 10:00 AM - 9:00 PM, Saturday 10:00 AM - 9:00 PM, Sunday 11:00 AM - 6:00 PM",,,
Kensington Valley Fact. Shops,,1475 N. BURKHART RD #A150,,HOWELL,MI,48855,United States,(517) 540-9803,,,"Monday - Friday 9:00 AM - 9:00 PM, Saturday 9:00 AM  - 9:00 PM, Sunday 10:00 AM - 6:00 PM",,,
Birch Run Premium Outlets,,8901 MARKETPLACE DRIVE,,BIRCH RUN,MI,48415,United States,(989) 624-4767,,,"Monday - Friday 10:00 AM - 9:00 PM, Saturday 10:00 AM - 9:00 PM, Sunday 10:00 AM - 7:00 PM",,,
Rosedale Center,,177 ROSEDALE CENTER,,ROSEVILLE,MN,55113,United States,(651) 604-9390,,,"Monday - Friday 10:00 AM - 9:00 PM, Saturday 10:00 AM - 9:00 PM, Sunday 11:00 AM - 6:00 PM",,,
Ridgedale Center,,12553 WAYZATA BLVD.,,MINNETONKA,MN,55305,United States,(952) 595-8280,,,"Monday - Friday 10:00 AM - 9:00 PM, Saturday 10:00 AM - 9:00 PM, Sunday 12:00 PM - 6:00 PM",,,
Mall of America,,MALL OF AMERICA,,BLOOMINGTON,MN,55425,United States,(952) 854-4090,,,"Monday - Friday 10:00 AM - 9:30 PM, Saturday 10:00 AM - 9:30 PM, Sunday 11:00 AM - 7:00 PM",,,
Shoppes at Arbor Lakes,,12465 ELM CREEK BL,,MAPLE GROVE,MN,55369,United States,(763) 424-5681,,,"Monday - Friday 10:00 AM - 9:00 PM, Saturday 10:00 AM - 9:00 PM, Sunday 11:00 AM - 6:00 PM",,,
Northtown Mall,,183 NORTHTOWN DR NE,,BLAINE,MN,55434,United States,(763) 783-0577,,,"Monday - Friday 10:00 AM - 9:00 PM, Saturday 10:00 AM - 9:00 PM, Sunday 11:00 AM - 6:00 PM",,,
Paragon Outlets at Twin,,3965 EAGAN OUTLETS PKWY,,EAGAN,MN,55122,United States,952-686-0264,,,"Monday - Friday 10:00 AM - 9:00 PM, Saturday 10:00 AM - 9:00 PM, Sunday 11:00 AM - 7:00 PM",,,
Woodbury Lakes,,9140 HUDSON RD,,WOODBURY,MN,55125,United States,(651) 702-1385,,,"Monday - Friday 10:00 AM - 9:00 PM, Saturday 10:00 AM - 9:00 PM, Sunday 11:00 AM - 6:00 PM",,,
Albertville Premium Outlets,,6415 LA BEAUX AVENUE NE,,ALBERTVILLE,MN,55301,United States,(763) 497-1095,,,"Monday - Friday 10:00 AM - 9:00 PM, Saturday 10:00 AM - 9:00 PM, Sunday 10:00 AM - 7:00 PM",,,
Edgewater Mall,,2600 BEACH BLVD.,,BILOXI,MS,39531,United States,(228) 594-2111,,,"Monday - Friday 10:00 AM - 9:00 PM, Saturday 10:00 AM - 9:00 PM, Sunday 12:00 PM - 6:00 PM",,,
Gulfport Premium Outlets,,10330 FACTORY SHOPS BLVD,,GULFPORT,MS,39503,United States,(228) 868-3289,,,"Monday - Friday 10:00 AM - 9:00 PM, Saturday 10:00 AM - 9:00 PM, Sunday 10:00 AM - 6:00 PM",,,
Northpark,,1200 E. COUNTY LINE RD,,RIDGELAND,MS,39157,United States,(601) 957-1545,,,"Monday - Friday 10:00 AM - 9:00 PM, Saturday 10:00 AM - 9:00 PM, Sunday 12:00 PM - 6:00 PM",,,
Independence Center,,18801 E 39TH ST S,,INDEPENDENCE,MO,64057,United States,(816) 795-7366,,,"Monday - Friday 10:00 AM - 9:00 PM, Saturday 10:00 AM - 9:00 PM, Sunday 12:00 PM - 6:00 PM",,,
Mid Rivers Mall,,1600 MID RIVERS MALL DR,,SAINT PETERS,MO,63376,United States,(636) 278-3293,,,"Monday - Friday 10:00 AM - 9:00 PM, Saturday 10:00 AM - 9:00 PM, Sunday 11:00 AM - 6:00 PM",,,
Battlefield Mall,,2825 S GLENSTONE,,SPRINGFIELD,MO,65804,United States,(417) 881-7022,,,"Monday - Friday 10:00 AM - 9:00 PM, Saturday 10:00 AM - 9:00 PM, Sunday 12:00 PM - 6:00 PM",,,
Chesterfield Mall,,59 CHESTERFIELD MALL,,CHESTERFIELD,MO,63017,United States,(636) 537-5205,,,"Monday - Friday 10:00 AM - 9:00 PM, Saturday 10:00 AM - 9:00 PM, Sunday 11:00 AM - 6:00 PM",,,
South County Center,,350 S COUNTY CENTER WAY,,ST. LOUIS,MO,63129,United States,(314) 845-3615,,,"Monday - Friday 10:00 AM - 9:00 PM, Saturday 10:00 AM - 9:00 PM, Sunday 11:00 AM - 6:00 PM",,,
Zona Rosa,,7221 NORTH WEST 86 TERR,,KANSAS CITY,MO,64153,United States,(816) 505-0557,,,"Monday - Friday 10:00 AM - 9:00 PM, Saturday 10:00 AM - 9:00 PM, Sunday 12:00 PM - 6:00 PM",,,
St. Louis Premium Outlets,,18521 OUTLET BOULEVARD,,CHESTERFIELD,MO,63005,United States,6367781556,,,"Monday - Friday 10:00 AM - 9:00 PM, Saturday 10:00 AM - 9:00 PM, Sunday 10:00 AM - 7:00 PM",,,
West County Mall,,125 W COUNTY CENTER,,ST LOUIS,MO,63131,United States,(314) 822-5414,,,"Monday - Friday 10:00 AM - 9:00 PM, Saturday 10:00 AM - 9:00 PM, Sunday 11:00 AM - 6:00 PM",,,
Northpark Mall,,101 N. RANGELINE ROAD,,JOPLIN,MO,64801,United States,(417) 626-7221,,,"Monday - Friday 10:00 AM - 9:00 PM, Saturday 10:00 AM - 9:00 PM, Sunday 12:00 PM - 6:00 PM",,,
Columbia Mall,,2300 BERNADETTE DR.,,COLUMBIA,MO,65203,United States,(573) 446-9199,,,"Monday - Friday 10:00 AM - 9:00 PM, Saturday 10:00 AM - 9:00 PM, Sunday 11:00 AM - 6:00 PM",,,
Osage Beach Premium Outlets,,4540 OSAGE BEACH PKWY,,OSAGE BEACH,MO,65065,United States,(573) 348-1024,,,"Monday - Friday 9:00 AM - 9:00 PM, Saturday 9:00 AM  - 9:00 PM, Sunday 9:00 AM  - 6:00 PM",,,
Oak View Mall,,3001 S. 144TH STREET,,OMAHA,NE,68144,United States,(402) 778-9383,,,"Monday - Friday 10:00 AM - 9:00 PM, Saturday 10:00 AM - 9:00 PM, Sunday 11:00 AM - 6:00 PM",,,
Gateway Mall,,6100 O STREET,,LINCOLN,NE,68505,United States,(402) 467-6433,,,"Monday - Friday 10:00 AM - 9:00 PM, Saturday 10:00 AM - 9:00 PM, Sunday 12:00 PM - 6:00 PM",,,
Westroads Mall,,10000 CALIFORNIA STREET,,OMAHA,NE,68114,United States,(402) 392-2661,,,"Monday - Friday 10:00 AM - 9:00 PM, Saturday 10:00 AM - 9:00 PM, Sunday 11:00 AM - 6:00 PM",,,
Galleria at Sunset,,1300 W.SUNSET RD.,,HENDERSON,NV,89014,United States,(702) 433-0003,,,"Monday - Friday 10:00 AM - 9:00 PM, Saturday 10:00 AM - 9:00 PM, Sunday 11:00 AM - 6:00 PM",,,
Fashion Show Mall,,3200 LAS VEGAS BLVD,,LAS VEGAS,NV,89109,United States,(702)369-4084,,,"Monday - Friday 10:00 AM - 9:00 PM, Saturday 10:00 AM - 9:00 PM, Sunday 11:00 AM - 7:00 PM",,,
Las Vegas Premium Outlets North,,755 S. GRAND CENTRAL PKWY,,LAS VEGAS,NV,89106,United States,(702) 388-2590,,,"Monday - Friday 10:00 AM - 9:00 PM, Saturday 10:00 AM - 9:00 PM, Sunday 10:00 AM - 8:00 PM",,,
Summit Sierra,,13985 S VIRGINIA ST,,RENO,NV,89511,United States,(775) 852-3967,,,"Monday - Friday 10:00 AM - 9:00 PM, Saturday 10:00 AM - 9:00 PM, Sunday 11:00 AM - 6:00 PM",,,
Las Vegas Premium Outlets South,,7400 LAS VEGAS BLVD SOUTH,,LAS VEGAS,NV,89123,United States,(702) 897-1723,,,"Monday - Friday 10:00 AM - 9:00 PM, Saturday 10:00 AM - 9:00 PM, Sunday 10:00 AM - 9:00 PM",,,
Mall of New Hampshire,,1500 S WILLOW ST,,MANCHESTER,NH,03103,United States,(603) 626-3819,,,"Monday - Friday 10:00 AM - 9:00 PM, Saturday 10:00 AM - 9:00 PM, Sunday 11:00 AM - 6:00 PM",,,
Settler's Green,,2 COMMON CT UNIT 110,,NORTH CONWAY,NH,03860,United States,(603) 356-6137,,,"Monday - Friday 9:00 AM - 9:00 PM, Saturday 9:00 AM  - 9:00 PM, Sunday 10:00 AM - 6:00 PM",,,
Pheasant Lane Mall,,310 DANIEL WEBSTER HWY,,NASHUA,NH,03060,United States,(603) 891-0414,,,"Monday - Friday 10:00 AM - 9:00 PM, Saturday 10:00 AM - 9:00 PM, Sunday 11:00 AM - 6:00 PM",,,
Mall at Rockingham Park,,99 ROCKINGHAM PARK,,SALEM,NH,03079,United States,(603) 890-1595,,,"Monday - Friday 10:00 AM - 9:00 PM, Saturday 10:00 AM - 9:00 PM, Sunday 11:00 AM - 6:00 PM",,,
Merrimack Premium Outlets,,80 PREMIUM OUTLETS BLVD,,MERRIMACK,NH,03054,United States,6034247194,,,"Monday - Friday 10:00 AM - 9:00 PM, Saturday 10:00 AM - 9:00 PM, Sunday 10:00 AM - 6:00 PM",,,
Fox Run Mall,,50 FOX RUN RD OFC 128,,NEWINGTON,NH,03801,United States,(603) 431-7339,,,"Monday - Friday 10:00 AM - 9:00 PM, Saturday 10:00 AM - 9:00 PM, Sunday 11:00 AM - 6:00 PM",,,
Hamilton Mall,,4403 BLACKHORSE PIKE,,MAYS LANDING,NJ,08330,United States,(609) 646-3196,,,"Monday - Friday 10:00 AM - 9:00 PM, Saturday 10:00 AM - 9:00 PM, Sunday 11:00 AM - 6:00 PM",,,
Cherry Hill Mall,,514 CHERRY HILL MALL,,CHERRY HILL,NJ,08002,United States,(856) 662-9524,,,"Monday - Friday 10:00 AM - 9:30 PM, Saturday 10:00 AM - 9:30 PM, Sunday 11:00 AM - 6:00 PM",,,
Ocean County Mall,,1201 HOOPER AVE,,TOMS RIVER,NJ,08753,United States,(732) 736-9471,,,"Monday - Friday 10:00 AM - 9:30 PM, Saturday 10:00 AM - 9:30 PM, Sunday 11:00 AM - 6:00 PM",,,
Moorestown Mall,,400 W ROUTE 38,,MOORESTOWN,NJ,08057,United States,(856) 235-7025,,,"Monday - Friday 10:00 AM - 9:00 PM, Saturday 10:00 AM - 9:00 PM, Sunday 11:00 AM - 6:00 PM",,,
Garden State Plaza,,1 GARDEN STATE PLZ,,PARAMUS,NJ,07652,United States,(201) 843-6006,,,"Monday - Friday 10:00 AM - 9:30 PM, Saturday 10:00 AM - 9:30 PM, Sunday CLOSED",,,
Bridgewater Commons,,400 COMMONS WAY,,BRIDGEWATER,NJ,08807,United States,(908) 429-0224,,,"Monday - Friday 10:00 AM - 9:00 PM, Saturday 10:00 AM - 9:00 PM, Sunday 11:00 AM - 6:00 PM",,,
Deptford Mall,,1750 DEPTFORD CENTER RD,,WOODBURY,NJ,08096,United States,(856) 845-1996,,,"Monday - Friday 10:00 AM - 9:30 PM, Saturday 10:00 AM - 9:30 PM, Sunday 11:00 AM - 6:00 PM",,,
Quaker Bridge Mall,,243 QUAKER BRIDGE MALL,,LAWRENCE TOWNSHIP,NJ,08648,United States,(609) 936-8188,,,"Monday - Friday 10:00 AM - 9:00 PM, Saturday 10:00 AM - 9:00 PM, Sunday 11:00 AM - 6:00 PM",,,
Rockaway Town Square,,301 MOUNT HOPE AVE,,ROCKAWAY,NJ,07866,United States,(973) 366-7367,,,"Monday - Friday 10:00 AM - 9:30 PM, Saturday 10:00 AM - 9:30 PM, Sunday 11:00 AM - 6:00 PM",,,
Freehold Raceway Mall,,3710 ROUTE 9,,FREEHOLD,NJ,07728,United States,7327807794,,,"Monday - Friday 10:00 AM - 9:30 PM, Saturday 10:00 AM - 9:30 PM, Sunday 11:00 AM - 7:00 PM",,,
Willowbrook Mall,,1400 WILLOWBROOK MALL,,WAYNE,NJ,07470,United States,(973) 812-6355,,,"Monday - Friday 10:00 AM - 9:30 PM, Saturday 10:00 AM - 9:30 PM, Sunday 11:00 AM - 7:00 PM",,,
Monmouth Mall,,ROUTE 35 & 35,,EATONTOWN,NJ,07724,United States,(732) 389-7416,,,"Monday - Friday 10:00 AM - 9:30 PM, Saturday 10:00 AM - 9:30 PM, Sunday 11:00 AM - 7:00 PM",,,
Jackson Premium Outlets,,537 MONMOUTH RD,,JACKSON,NJ,08527,United States,(732) 833-2328,,,"Monday - Friday 10:00 AM - 9:00 PM, Saturday 10:00 AM - 9:00 PM, Sunday 10:00 AM - 7:00 PM",,,
Jersey Shore Premium Outlets,,1 PREMIUM OUTLET BLVD.,,TINTON FALLS,NJ,07753,United States,17324930805,,,"Monday - Friday 10:00 AM - 9:00 PM, Saturday 10:00 AM - 9:00 PM, Sunday 10:00 AM - 7:00 PM",,,
Gloucester Premium Outlets,,1125 BLACK HORSE PIKE,,GLOUCESTER,NJ,08012,United States,(856)302-4539,,,"Monday - Friday 10:00 AM - 8:00 PM, Saturday 10:00 AM - 9:00 PM, Sunday 10:00 AM - 7:00 PM",,,
Jersey Gardens,,651 KAPKOWSKI RD,,ELIZABETH,NJ,07201,United States,(908) 352-8772,,,"Monday - Friday 10:00 AM - 9:00 PM, Saturday 10:00 AM - 9:00 PM, Sunday 11:00 AM - 7:00 PM",,,
Menlo Park Mall,,55 PARSONAGE RD UNIT 304,,EDISON,NJ,08837,United States,(732) 321-0486,,,"Monday - Friday 10:00 AM - 9:30 PM, Saturday 10:00 AM - 9:30 PM, Sunday 11:00 AM - 7:00 PM",,,
Walk Atlantic City,,10 N MICHIGAN AVE,,ATLANTIC CITY,NJ,08401,United States,(609) 348-5394,,,"Monday - Friday 10:00 AM - 8:00 PM, Saturday 10:00 AM - 8:00 PM, Sunday 10:00 AM - 6:00 PM",,,
Cottonwood Mall,,10000 COORS BYPASS NW,,ALBUQUERQUE,NM,87114,United States,(505) 890-0272,,,"Monday - Friday 10:00 AM - 9:00 PM, Saturday 10:00 AM - 9:00 PM, Sunday 11:00 AM - 6:00 PM",,,
Coronado Center,,"6600 MENAUL BLVD, NE",,ALBUQUERQUE,NM,87110,United States,(505) 881-7997,,,"Monday - Friday 10:00 AM - 9:00 PM, Saturday 10:00 AM - 9:00 PM, Sunday 12:00 PM - 6:00 PM",,,
Queens Center,,90-15 QUEENS BLVD,,ELMHURST,NY,11373,United States,(718)760-5194,,,"Monday - Friday 10:00 AM - 9:30 PM, Saturday 10:00 AM - 9:30 PM, Sunday 11:00 AM - 8:00 PM",,,
Destiny USA,,9508 CAROUSEL CENTER,,SYRACUSE,NY,13290,United States,(315) 466-3814,,,"Monday - Friday 10:00 AM - 9:30 PM, Saturday 10:00 AM - 9:30 PM, Sunday 11:00 AM - 6:00 PM",,,
Crossgates Mall,,1 CROSSGATES MALL ROAD,,ALBANY,NY,12203,United States,(518) 464-6038,,,"Monday - Friday 10:00 AM - 9:30 PM, Saturday 10:00 AM - 9:30 PM, Sunday 11:00 AM - 6:00 PM",,,
Roosevelt Field Mall,,630 OLD COUNTRY ROAD,,GARDEN CITY,NY,11530,United States,(516) 877-1323,,,"Monday - Friday 10:00 AM - 9:30 PM, Saturday 10:00 AM - 9:30 PM, Sunday 11:00 AM - 6:00 PM",,,
Walden Galleria,,GALLERIA DRIVE,,CHEEKTOWAGA,NY,14225,United States,(716) 685-5484,,,"Monday - Friday 10:00 AM - 9:30 PM, Saturday 10:00 AM - 9:30 PM, Sunday 10:00 AM - 7:00 PM",,,
Smith Haven Mall,,313 SMITH HAVEN MALL ROAD,,LAKE GROVE,NY,11755,United States,(631) 265-6920,,,"Monday - Friday 10:00 AM - 9:30 PM, Saturday 10:00 AM - 9:30 PM, Sunday 11:00 AM - 6:00 PM",,,
Galleria of White Plains,,100 MAIN STREET,,WHITE PLAINS,NY,10601,United States,(914) 428-3270,,,"Monday - Friday 10:00 AM - 9:30 PM, Saturday 10:00 AM - 9:30 PM, Sunday 11:00 AM - 7:00 PM",,,
Marketplace Mall,,720 MIRACLE MILE DRIVE,,ROCHESTER,NY,14623,United States,(585) 424-4720,,,"Monday - Friday 10:00 AM - 9:30 PM, Saturday 10:00 AM - 9:30 PM, Sunday 11:00 AM - 6:00 PM",,,
Tanger Outlet at the Arches,,1542 ARCHES WAY,,DEER PARK,NY,11729,United States,631 667-0391,,,"Monday - Friday 9:00 AM - 9:00 PM, Saturday 9:00 AM  - 9:00 PM, Sunday 10:00 AM - 8:00 PM",,,
Palisades Center,,3340 PALISADES CENTER DR,,WEST NYACK,NY,10994,United States,(845) 358-4361,,,"Monday - Friday 10:00 AM - 9:30 PM, Saturday 10:00 AM - 9:30 PM, Sunday 11:00 AM - 7:00 PM",,,
Riverhead II,,1770 W MAIN STREET,,RIVERHEAD,NY,11901,United States,(631) 208-1537,,,"Monday - Friday 9:00 AM - 9:00 PM, Saturday 9:00 AM  - 9:00 PM, Sunday 10:00 AM - 8:00 PM",,,
Woodbury Commons Premium Outlets,,452 EVERGREEN CT.,,CENTRAL VALLEY,NY,10917,United States,(854) 928-1014,,,"Monday - Friday 10:00 AM - 9:00 PM, Saturday 10:00 AM - 9:00 PM, Sunday 10:00 AM - 9:00 PM",,,
Sunrise Mall,,ONE SUNRISE MALL,,MASSAPEQUA,NY,11758,United States,(516) 797-1547,,,"Monday - Friday 10:00 AM - 9:30 PM, Saturday 10:00 AM - 9:30 PM, Sunday 11:00 AM - 6:00 PM",,,
Fashion Outlets of Niagara Falls,,1988 MILITARY ROAD,,NIAGARA FALLS,NY,14304,United States,(716) 297-0026,,,"Monday - Friday 10:00 AM - 9:00 PM, Saturday 10:00 AM - 9:00 PM, Sunday 11:00 AM - 6:00 PM",,,
Lake George Plaza,,424 STATE ROUTE 9,,LAKE GEORGE,NY,12845,United States,(518) 761-9163,,,"Monday - Friday 9:30 AM - 9:00 PM, Saturday 9:30 AM  - 9:00 PM, Sunday 10:00 AM - 6:00 PM",,,
Poughkeepsie Galleria,,2001 SOUTH ROAD,,POUGHKEEPSIE,NY,12601,United States,(845) 297-7240,,,"Monday - Friday 10:00 AM - 9:30 PM, Saturday 10:00 AM - 9:30 PM, Sunday 11:00 AM - 6:00 PM",,,
Carolina Place,,11025 CAROLINA PL PKWY,,PINEVILLE,NC,28134,United States,(704) 543-3140,,,"Monday - Friday 10:00 AM - 9:00 PM, Saturday 10:00 AM - 9:00 PM, Sunday 12:00 PM - 6:00 PM",,,
Hanes Mall,,3320 SILAS CREEK PKWY,,WINSTON-SALEM,NC,27103,United States,(336) 760-1336,,,"Monday - Friday 10:00 AM - 9:00 PM, Saturday 10:00 AM - 9:00 PM, Sunday 12:00 PM - 6:00 PM",,,
Crabtree Valley Mall,,4325 GLENWOOD AVENUE,,RALEIGH,NC,27612,United States,(919) 571-1636,,,"Monday - Friday 10:00 AM - 9:00 PM, Saturday 10:00 AM - 9:00 PM, Sunday 12:00 PM - 7:00 PM",,,
Colonial Mall Greenville,,714 S.E. GREENVILLE BLVD.,,GREENVILLE,NC,27858,United States,(252) 353-1022,,,"Monday - Friday 10:00 AM - 9:00 PM, Saturday 10:00 AM - 9:00 PM, Sunday 1:00 PM  - 6:00 PM",,,
Triangle Town Center,,5959 TRIANGLE TOWN BLVD.,,RALEIGH,NC,27616,United States,(919) 792-2217,,,"Monday - Friday 10:00 AM - 9:00 PM, Saturday 10:00 AM - 9:00 PM, Sunday 12:00 PM - 6:00 PM",,,
Northlake Mall,,6801 NORTHLAKE MALL DR,,CHARLOTTE,NC,28216,United States,(704) 596-0189,,,"Monday - Friday 10:00 AM - 9:00 PM, Saturday 10:00 AM - 9:00 PM, Sunday 12:00 PM - 6:00 PM",,,
Carolina Premium Outlets,,1025 OUTLET CENTER DR.,,SMITHFIELD,NC,27577,United States,(919) 934-6660,,,"Monday - Friday 10:00 AM - 9:00 PM, Saturday 10:00 AM - 9:00 PM, Sunday 12:00 PM - 6:00 PM",,,
Charlotte Premium Outlets,,5512 NEW FASHION WAY,,CHARLOTTE,NC,28278,United States,7045873852,,,"Monday - Friday 10:00 AM - 9:00 PM, Saturday 10:00 AM - 9:00 PM, Sunday 10:00 AM - 7:00 PM",,,
Concord Mills,,8111 CONCORD MILLS BLVD,,CONCORD,NC,28027,United States,(704) 979 6121,,,"Monday - Friday 10:00 AM - 9:00 PM, Saturday 10:00 AM - 9:00 PM, Sunday 12:00 PM - 7:00 PM",,,
Independence Mall,,3500 OLEANDER DRIVE,,WILMINGTON,NC,28403,United States,(910) 793-3805,,,"Monday - Friday 10:00 AM - 9:00 PM, Saturday 10:00 AM - 9:00 PM, Sunday 12:00 PM - 6:00 PM",,,
Jacksonville Mall,,386 JACKSONVILLE MALL,,JACKSONVILLE,NC,28546,United States,(910) 353-9932,,,"Monday - Friday 10:00 AM - 9:00 PM, Saturday 10:00 AM - 9:00 PM, Sunday 12:00 PM - 6:00 PM",,,
Asheville Mall,,3 SOUTH TUNNEL ROAD,,ASHEVILLE,NC,28805,United States,(828) 298-5442,,,"Monday - Friday 10:00 AM - 9:00 PM, Saturday 10:00 AM - 9:00 PM, Sunday 12:00 PM - 6:00 PM",,,
Four Seasons Towne Center,,109 FOUR SEASONS TWN CTR,,GREENSBORO,NC,27407,United States,(336) 855-4142,,,"Monday - Friday 10:00 AM - 9:00 PM, Saturday 10:00 AM - 9:00 PM, Sunday 12:00 PM - 7:00 PM",,,
Cross Creek Mall,,429 CROSS CREEK MALL,,FAYETTEVILLE,NC,28303,United States,(910) 867-6067,,,"Monday - Friday 10:00 AM - 9:00 PM, Saturday 10:00 AM - 9:00 PM, Sunday 12:00 PM - 6:00 PM",,,
Kirkwood Mall,,717 KIRKWOOD MALL,,BISMARCK,ND,58504,United States,(701) 323-7200,,,"Monday - Friday 10:00 AM - 9:00 PM, Saturday 10:00 AM - 7:00 PM, Sunday 12:00 PM - 6:00 PM",,,
Dakota Square,,2400 10TH STREET SW,,MINOT,ND,58701-6917,United States,(701) 839-3509,,,"Monday - Friday 10:00 AM - 9:00 PM, Saturday 10:00 AM - 7:00 PM, Sunday 11:00 AM - 6:00 PM",,,
Kenwood Towne Center,,7875 MONTGOMERY ROAD,,CINCINNATI,OH,45236,United States,(513) 791-0858,,,"Monday - Friday 10:00 AM - 9:00 PM, Saturday 10:00 AM - 9:00 PM, Sunday 12:00 PM - 6:00 PM",,,
SouthPark Center,,1028 SOUTHPARK CENTER,,STRONGSVILLE,OH,44136,United States,(440) 238-2989,,,"Monday - Friday 10:00 AM - 9:00 PM, Saturday 10:00 AM - 9:00 PM, Sunday 11:00 AM - 6:00 PM",,,
Town Center at Easton,,115 EASTON TOWN CENTER,,COLUMBUS,OH,43219,United States,(614) 471-8537,,,"Monday - Friday 10:00 AM - 9:00 PM, Saturday 10:00 AM - 9:00 PM, Sunday 12:00 PM - 6:00 PM",,,
Mall at Fairfield Commons,,2727 FARIFIELD COMMONS,,BEAVERCREEK,OH,45431,United States,(937) 320-1377,,,"Monday - Friday 10:00 AM - 9:00 PM, Saturday 10:00 AM - 9:00 PM, Sunday 12:00 PM - 6:00 PM",,,
Great Lakes Mall,,7850 MENTOR AVENUE,,MENTOR,OH,44060,United States,(440) 974-1177,,,"Monday - Friday 10:00 AM - 9:00 PM, Saturday 10:00 AM - 9:00 PM, Sunday 11:00 AM - 6:00 PM",,,
Dayton Mall,,2700 MIAMISBURG-CNTRVILLE,,DAYTON,OH,45459,United States,(937) 438-3007,,,"Monday - Friday 10:00 AM - 9:00 PM, Saturday 10:00 AM - 9:00 PM, Sunday 12:00 PM - 6:00 PM",,,
Tuttle Crossing,,5043 TUTTLE CROSSING,,DUBLIN,OH,43016,United States,(614) 766-5980,,,"Monday - Friday 10:00 AM - 9:00 PM, Saturday 10:00 AM - 9:00 PM, Sunday 11:00 AM - 6:00 PM",,,
Westfield Franklin Park,,5001 MONROE STREET,,TOLEDO,OH,43623,United States,(419) 474-5237,,,"Monday - Friday 10:00 AM - 9:00 PM, Saturday 10:00 AM - 9:00 PM, Sunday 11:00 AM - 6:00 PM",,,
Belden Village,,4176 BELDEN VILLAGE,,CANTON,OH,44718,United States,(330) 305-9604,,,"Monday - Friday 10:00 AM - 9:00 PM, Saturday 10:00 AM - 9:00 PM, Sunday 11:00 AM - 6:00 PM",,,
Summit Mall,,3265 W MARKET STREET,,AKRON,OH,44333,United States,(330) 873-9434,,,"Monday - Friday 10:00 AM - 9:00 PM, Saturday 10:00 AM - 9:00 PM, Sunday 11:00 AM - 6:00 PM",,,
Southern Park Mall,,7401 MARKET STREET,,YOUNGSTOWN,OH,44512,United States,(330) 965-9730,,,"Monday - Friday 10:00 AM - 9:00 PM, Saturday 10:00 AM - 9:00 PM, Sunday 11:00 AM - 6:00 PM",,,
Eastwood Mall,,5555 YOUNGSTOWN-WARREN RD,,NILES,OH,44446,United States,(330) 505-0327,,,"Monday - Friday 10:00 AM - 9:00 PM, Saturday 10:00 AM - 9:00 PM, Sunday 11:00 AM - 6:00 PM",,,
Polaris Fashion Place,,1500 POLARIS PARKWAY,,COLUMBUS,OH,43240,United States,(614) 438-0599,,,"Monday - Friday 10:00 AM - 9:00 PM, Saturday 10:00 AM - 9:30 PM, Sunday 12:00 PM - 6:00 PM",,,
Aurora Premium Outlets,,549 S. CHILLICOTHE RD.,,AURORA,OH,44202,United States,(330) 995-6282,,,"Monday - Friday 10:00 AM - 9:00 PM, Saturday 10:00 AM - 9:00 PM, Sunday 10:00 AM - 6:00 PM",,,
Cincinnati Premium Outlets,,123 PREMIUM OUTLET DRIVE,,MONROE,OH,45050,United States,513 539-8814,,,"Monday - Friday 10:00 AM - 9:00 PM, Saturday 10:00 AM - 9:00 PM, Sunday 10:00 AM - 7:00 PM",,,
Liberty Center,,7100 FOUNDRY ROW,,LIBERTY TOWNSHIP,OH,45069,United States,(513) 755-0974,,,"Monday - Friday 10:00 AM - 9:00 PM, Saturday 10:00 AM - 9:00 PM, Sunday 12:00 AM - 6:00 PM",,,
Beachwood Place,,26300 CEDAR RD.,,BEACHWOOD,OH,44122,United States,2163789281,,,"Monday - Friday 10:00 AM - 9:00 PM, Saturday 10:00 AM - 9:00 PM, Sunday 12:00 AM - 6:00 PM",,,
Quail Springs Mall,,2501 W MEMORIAL ROAD,,OKLAHOMA CITY,OK,73134,United States,(405) 752-5099,,,"Monday - Friday 10:00 AM - 9:00 PM, Saturday 10:00 AM - 9:00 PM, Sunday 12:00 PM - 6:00 PM",,,
Penn Square Mall,,1901 NW EXPRESSWAY,,OKLAHOMA CITY,OK,73118,United States,(405) 840-5321,,,"Monday - Friday 10:00 AM - 9:00 PM, Saturday 10:00 AM - 9:00 PM, Sunday 12:00 PM - 6:00 PM",,,
Sooner Fashion Mall,,3363 W. MAIN STREET,,NORMAN,OK,73072,United States,(405) 292-2108,,,"Monday - Friday 10:00 AM - 9:00 PM, Saturday 10:00 AM - 9:00 PM, Sunday 12:00 PM - 6:00 PM",,,
Woodland Hills Mall,,7021 S. MEMORIAL DR. #219,,TULSA,OK,74133,United States,(918) 461-9102,,,"Monday - Friday 10:00 AM - 9:00 PM, Saturday 10:00 AM - 9:00 PM, Sunday 12:00 PM - 7:00 PM",,,
Clackamas Town Center,,12000 SE 82ND AVENUE,,PORTLAND,OR,97266,United States,15036520683,,,"Monday - Friday 10:00 AM - 9:00 PM, Saturday 10:00 AM - 9:00 PM, Sunday 11:00 AM - 6:00 PM",,,
Salem Center,,"480 CENTER STREET, NE",,SALEM,OR,97301,United States,(503) 391-5306,,,"Monday - Friday 10:00 AM - 8:00 PM, Saturday 10:00 AM - 8:00 PM, Sunday 11:00 AM - 6:00 PM",,,
Rogue Valley Mall,,1600 N RIVERSIDE DRIVE,,MEDFORD,OR,97501,United States,(541) 608-7763,,,"Monday - Friday 10:00 AM - 9:00 PM, Saturday 10:00 AM - 9:00 PM, Sunday 11:00 AM - 7:00 PM",,,
Shops at Old Mill,,425 SW POWERHOUSE DR,,BEND,OR,97702,United States,(541) 385-7263,,,"Monday - Friday 10:00 AM - 8:00 PM, Saturday 10:00 AM - 8:00 PM, Sunday 11:00 AM - 6:00 PM",,,
Valley River Center,,521 VALLEY RIVER CENTER,,EUGENE,OR,97401,United States,(214) 485-7844,,,"Monday - Friday 10:00 AM - 9:00 PM, Saturday 10:00 AM - 9:00 PM, Sunday 11:00 AM - 6:00 PM",,,
Streets of Tanasbourne,,2270 N W ALLIE AVE,,HILLSBORO,OR,97124,United States,(503) 533-9630,,,"Monday - Friday 10:00 AM - 9:00 PM, Saturday 10:00 AM - 9:00 PM, Sunday 11:00 AM - 6:00 PM",,,
Washington Square,,9483 SW WASHINGTON SQUARE,,TIGARD,OR,97223,United States,503 670-7906,,,"Monday - Friday 10:00 AM - 9:00 PM, Saturday 10:00 AM - 9:00 PM, Sunday 10:00 AM - 7:00 PM",,,
Woodburn Premium Outlets,,1001 N ARNEY ROAD,,WOODBURN,OR,97071,United States,(503) 982-3031,,,"Monday - Friday 10:00 AM - 9:00 PM, Saturday 10:00 AM - 9:00 PM, Sunday 10:00 AM - 7:00 PM",,,
Park City Center,,735 PARK CITY CENTER,,LANCASTER,PA,17601,United States,(717) 399-7934,,,"Monday - Friday 10:00 AM - 9:30 PM, Saturday 10:00 AM - 9:30 PM, Sunday 11:00 AM - 6:00 PM",,,
Springfield Mall,,1250 BALTIMORE PIKE,,SPRINGFIELD,PA,19064,United States,(610) 338-0370,,,"Monday - Friday 10:00 AM - 9:00 PM, Saturday 10:00 AM - 9:00 PM, Sunday 11:00 AM - 6:00 PM",,,
Logan Valley Mall,,5580 GOODS LANE,,ALTOONA,PA,16602,United States,(814) 942-3900,,,"Monday - Friday 10:00 AM - 9:00 PM, Saturday 10:00 AM - 9:00 PM, Sunday 12:00 PM - 6:00 PM",,,
South Hills Village,,2035 SOUTH HILLS VILLAGE,,PITTSBURGH,PA,15241,United States,(412) 854-4088,,,"Monday - Friday 10:00 AM - 9:00 PM, Saturday 10:00 AM - 9:00 PM, Sunday 11:00 AM - 6:00 PM",,,
Willow Grove Park,,2500 W MORELAND ROAD,,WILLOW GROVE,PA,19090,United States,(215) 657-7923,,,"Monday - Friday 10:00 AM - 9:00 PM, Saturday 10:00 AM - 9:00 PM, Sunday 11:00 AM - 6:00 PM",,,
Montgomery Mall,,203 MONTGOMERY MALL,,NORTH WALES,PA,19454,United States,(215) 393-8115,,,"Monday - Friday 10:00 AM - 9:00 PM, Saturday 10:00 AM - 9:00 PM, Sunday 11:00 AM - 6:00 PM",,,
Oxford Valley Mall,,2300 E LINCOLN HWY,,LANGHORNE,PA,19047,United States,(215) 702-0885,,,"Monday - Friday 10:00 AM - 9:00 PM, Saturday 10:00 AM - 9:00 PM, Sunday 11:00 AM - 6:00 PM",,,
King of Prussia,,160 N GULPH ROAD,,KING OF PRUSSIA,PA,19406,United States,(610) 337-4480,,,"Monday - Friday 10:00 AM - 9:00 PM, Saturday 10:00 AM - 9:00 PM, Sunday 11:00 AM - 6:00 PM",,,
Lehigh Valley Mall,,165 LEHIGH VALLEY MALL,,WHITEHALL,PA,18052,United States,(610) 266-6668,,,"Monday - Friday 10:00 AM - 9:00 PM, Saturday 10:00 AM - 9:00 PM, Sunday 11:00 AM - 6:00 PM",,,
Mall at Robinson,,100 ROBINSON CENTER DR.,,PITTSBURGH,PA,15205,United States,(412) 809-0360,,,"Monday - Friday 10:00 AM - 9:00 PM, Saturday 10:00 AM - 9:30 PM, Sunday 11:00 AM - 6:00 PM",,,
Berkshire Mall,,1665 STATE HILL ROAD,,WYOMISSING,PA,19610,United States,(610) 374-5045,,,"Monday - Friday 10:00 AM - 9:30 PM, Saturday 10:00 AM - 9:30 PM, Sunday 11:00 AM - 6:00 PM",,,
The Crossings Premium Outlets,,1000 ROUTE 611,,TANNERSVILLE,PA,18372,United States,(570) 629-9600,,,"Monday - Friday 10:00 AM - 9:00 PM, Saturday 10:00 AM - 9:00 PM, Sunday 10:00 AM - 8:00 PM",,,
Philadelphia Premium Outlets,,18 W LIGHTCAP RD,,POTTSTOWN,PA,19464,United States,6103261813,,,"Monday - Friday 10:00 AM - 9:00 PM, Saturday 10:00 AM - 9:00 PM, Sunday 10:00 AM - 7:00 PM",,,
Promenade Shopes at Saucon Valley,,2805 CENTER VLY PKWY,,CENTER VALLEY,PA,18034,United States,(610) 797-2312,,,"Monday - Friday 10:00 AM - 9:00 PM, Saturday 10:00 AM - 9:00 PM, Sunday 11:00 AM - 6:00 PM",,,
Beaver Valley Mall,,244 BEAVER VALLEY MALL,,MONACA,PA,15061,United States,(724) 773-9882,,,"Monday - Friday 10:00 AM - 9:00 PM, Saturday 10:00 AM - 9:00 PM, Sunday 11:00 AM - 6:00 PM",,,
Westmoreland Mall,,ROUTE 30 EAST,,GREENSBURG,PA,15601,United States,(724) 832-8686,,,"Monday - Friday 10:00 AM - 9:00 PM, Saturday 10:00 AM - 9:00 PM, Sunday 11:00 AM - 5:00 PM",,,
Grove City Premium Outlets,,1911 LEESBURG GROVE CITY,,GROVE CITY,PA,16127,United States,(724) 748-9107,,,"Monday - Friday 10:00 AM - 9:00 PM, Saturday 10:00 AM - 9:00 PM, Sunday 10:00 AM - 7:00 PM",,,
Wyoming Valley Mall,,EAST END BLVD,,WILKES-BARRE,PA,18702,United States,(570) 829-5504,,,"Monday - Friday 10:00 AM - 9:00 PM, Saturday 10:00 AM - 9:00 PM, Sunday 11:00 AM - 6:00 PM",,,
Exton Square,,294 EXTON SQUARE PARKWAY,,EXTON,PA,19341,United States,(484) 875-9560,,,"Monday - Friday 10:00 AM - 9:00 PM, Saturday 10:00 AM - 9:00 PM, Sunday 11:00 AM - 6:00 PM",,,
Ross Park Mall,,1000 ROSS PARK MALL DR,,PITTSBURGH,PA,15237,United States,(412) 367-9122,,,"Monday - Friday 10:00 AM - 9:00 PM, Saturday 10:00 AM - 9:00 PM, Sunday 11:00 AM - 6:00 PM",,,
Plaza Carolina,,AVE FRAGOSO & 65 INFANTRY,,CAROLINA,PR,00983,United States,(787) 776-3140,,,"Monday - Friday 9:00 AM - 9:00 PM, Saturday 9:00 AM  - 9:00 PM, Sunday 11:00 AM - 6:00 PM",,,
Plaza Del Sol,,501 W MAIN AVE,,BAYAMON,PR,00961,United States,(787) 778-1037,,,"Monday - Friday 10:00 AM - 9:00 PM, Saturday 9:00 AM  - 9:00 PM, Sunday 11:00 AM - 7:00 PM",,,
Montehiedra Town Center,,9410 LOS ROMEROS AVE,,RIO PIEDRAS,PR,00926,United States,(787) 790-2269,,,"Monday - Friday 10:00 AM - 9:00 PM, Saturday 10:00 AM - 9:00 PM, Sunday 11:00 AM - 7:00 PM",,,
Plaza Las Americas,,525 FD ROOSEVELT AVE,,HATOREY,PR,00918-8001,United States,(787) 764-3451,,,"Monday - Friday 9:00 AM - 9:00 PM, Saturday 9:00 AM  - 9:00 PM, Sunday 11:00 AM - 7:00 PM",,,
Plaza Del Caribe,,2050 PONCE BY PASS,,PONCE,PR,00732,United States,(787) 259-8010,,,"Monday - Friday 9:00 AM - 9:00 PM, Saturday 9:00 AM  - 9:00 PM, Sunday 9:00 AM  - 9:00 PM",,,
Mayaguez Mall,,975 HOSTOS AVE,,MAYAGUEZ,PR,00680,United States,(787) 833-6635,,,"Monday - Friday 9:00 AM - 7:00 PM, Saturday 9:00 AM  - 9:00 PM, Sunday 11:00 AM - 5:00 PM",,,
Las Catalinas Mall,,"PR 52, CORNER PR156",,CAGUAS,PR,00725,United States,(787) 258-3695,,,"Monday - Friday 10:00 AM - 9:00 PM, Saturday 10:00 AM - 9:00 PM, Sunday 11:00 AM - 7:00 PM",,,
Puerto Rico Premium Outlets,,ONE PRIME OUTLETS BL,,BARCELONETA,PR,00617,United States,(787) 846-4172,,,"Monday - Friday 9:00 AM - 9:00 PM, Saturday 9:00 AM  - 9:00 PM, Sunday 11:00 AM - 7:00 PM",,,
Belz Factory Outlets PR,,KN 18.4 STATE ROAD,,CANOVANAS,PR,00729,United States,(787) 256-2145,,,"Monday - Friday 9:00 AM - 9:00 PM, Saturday 9:00 AM  - 9:00 PM, Sunday 11:00 AM - 5:00 PM",,,
Providence Place,,66 PROVIDENCE PL,,PROVIDENCE,RI,02903,United States,(401) 270 4064,,,"Monday - Friday 10:00 AM - 9:00 PM, Saturday 10:00 AM - 9:00 PM, Sunday 12:00 PM - 6:00 PM",,,
Hilton Head Factory Stores,,1414 FORDING ISLAND RD,,BLUFFTON,SC,29910,United States,(843) 836-2457,,,"Monday - Friday 10:00 AM - 9:00 PM, Saturday 10:00 AM - 9:00 PM, Sunday 10:00 AM - 6:00 PM",,,
Haywood Mall,,700 HAYWOOD ROAD,,GREENVILLE,SC,29607,United States,(864) 234-4750,,,"Monday - Friday 10:00 AM - 9:00 PM, Saturday 10:00 AM - 9:00 PM, Sunday 12:30 PM - 6:00 PM",,,
Coastal Grand,,2000 COASTAL GRAND CIRCLE,,MYRTLE BEACH,SC,29577,United States,(843) 839-3290,,,"Monday - Friday 10:00 AM - 9:00 PM, Saturday 10:00 AM - 9:00 PM, Sunday 12:00 PM - 6:00 PM",,,
Gaffney Premium Outlets,,140 FACTORY SHOPS BL,,GAFFNEY,SC,29341,United States,(864) 488-1411,,,"Monday - Friday 10:00 AM - 9:00 PM, Saturday 10:00 AM - 9:00 PM, Sunday 1:30 PM  - 7:30 PM",,,
Northwoods Mall,,2150 NORTHWOODS BLVD,,NORTH CHARLESTON,SC,29406,United States,(843) 863-9536,,,"Monday - Friday 10:00 AM - 9:00 PM, Saturday 10:00 AM - 9:00 PM, Sunday 12:00 PM - 6:00 PM",,,
Myrtle Beach Factory Stores,,4618 FACTORY STORES BLVD,,MYRTLE BEACH,SC,29579,United States,(843) 236-0274,,,"Monday - Friday 10:00 AM - 9:00 PM, Saturday 10:00 AM - 9:00 PM, Sunday 10:00 AM - 7:00 PM",,,
Empire Mall,,4001 W. 41ST ST.,,SIOUX FALLS,SD,57106,United States,(605) 361-8489,,,"Monday - Friday 10:00 AM - 9:00 PM, Saturday 10:00 AM - 9:00 PM, Sunday 11:00 AM - 7:00 PM",,,
Stones River Mall,,1720 OLD FORT PKWY,,MURFREESBORO,TN,37129,United States,(615) 895-9358,,,"Monday - Friday 10:00 AM - 9:00 PM, Saturday 10:00 AM - 9:00 PM, Sunday 12:00 PM - 6:00 PM",,,
West Town Mall,,7600 KINGSTON PIKE,,KNOXVILLE,TN,37919,United States,(865) 694-8448,,,"Monday - Friday 10:00 AM - 9:00 PM, Saturday 10:00 AM - 9:00 PM, Sunday 12:00 PM - 6:00 PM",,,
Governors Square Mall,,2801 WILMA RUDOPH BL 330,,CLARKSVILLE,TN,37040,United States,(931) 906-5200,,,"Monday - Friday 10:00 AM - 9:00 PM, Saturday 10:00 AM - 9:00 PM, Sunday 11:00 AM - 6:00 PM",,,
Rivergate Mall,,1000 RIVERGATE PARKWAY,,GOODLETTSVILLE,TN,37072,United States,(615) 859-2458,,,"Monday - Friday 10:00 AM - 9:00 PM, Saturday 10:00 AM - 9:00 PM, Sunday 12:00 PM - 6:00 PM",,,
Wolfchase Galleria,,2760 N GERMANTOWN RD,,MEMPHIS,TN,38133,United States,(901) 382-9050,,,"Monday - Friday 10:00 AM - 9:00 PM, Saturday 10:00 AM - 9:00 PM, Sunday 12:00 PM - 6:00 PM",,,
Lebanon Premium Outlets,,445 OUTLET VILLAGE BL,,LEBANON,TN,37090,United States,(615) 443-7934,,,"Monday - Friday 10:00 AM - 9:00 PM, Saturday 10:00 AM - 9:00 PM, Sunday 10:00 AM - 7:00 PM",,,
Cool Springs Galleria,,1800 GALLERIA BLVD,,FRANKLIN,TN,37067,United States,615 771-7928,,,"Monday - Friday 10:00 AM - 9:00 PM, Saturday 10:00 AM - 9:00 PM, Sunday 12:00 PM - 6:00 PM",,,
Hamilton Place,,2100 HAMILTON PLACE BLVD.,,CHATTANOOGA,TN,37421,United States,(423) 893-8227,,,"Monday - Friday 10:00 AM - 9:00 PM, Saturday 10:00 AM - 9:00 PM, Sunday 12:00 PM - 6:00 PM",,,
Opry Mills,,432 OPRY MILLS DRIVE,,NASHVILLE,TN,37214,United States,(615) 514-4060,,,"Monday - Friday 10:00 AM - 9:00 PM, Saturday 10:00 AM - 9:00 PM, Sunday 11:00 AM - 6:00 PM",,,
Tanger Five Oaks Outlet,,TANGER OUTLET CTR @ FI,,SEVIERVILLE,TN,37862,United States,(865) 908-9737,,,"Monday - Friday 9:00 AM - 9:00 PM, Saturday 9:00 AM  - 9:00 PM, Sunday 10:00 AM - 7:00 PM",,,
Midland Park Mall,,4511 N MIDKIFF,,MIDLAND,TX,79705,United States,(432) 694-3314,,,"Monday - Friday 10:00 AM - 9:00 PM, Saturday 10:00 AM - 9:00 PM, Sunday 12:00 PM - 6:00 PM",,,
La Palmera Mall,,5488 S.PADRE ISLAND DR,,CORPUS CHRISTI,TX,78411,United States,(361) 991-4383,,,"Monday - Friday 10:00 AM - 9:00 PM, Saturday 10:00 AM - 9:00 PM, Sunday 11:00 AM - 7:00 PM",,,
Westgate Mall,,7701 WEST I-40,,AMARILLO,TX,79121,United States,(806) 352-5906,,,"Monday - Friday 10:00 AM - 9:00 PM, Saturday 10:00 AM - 9:00 PM, Sunday 12:00 PM - 6:00 PM",,,
South Park Mall,,2310 SW MILITARY DRIVE,,SAN ANTONIO,TX,78224,United States,(210) 924-2339,,,"Monday - Friday 10:00 AM - 9:00 PM, Saturday 10:00 AM - 9:00 PM, Sunday 12:00 PM - 6:00 PM",,,
Broadway Square,,4601 S BROADWAY,,TYLER,TX,75703,United States,(903) 581-1883,,,"Monday - Friday 10:00 AM - 9:00 PM, Saturday 10:00 AM - 9:00 PM, Sunday 12:00 PM - 6:00 PM",,,
Woodlands Mall,,1201 LAKE WOODLANDS DR,,THE WOODLANDS,TX,77380,United States,(281) 362-0470,,,"Monday - Friday 10:00 AM - 9:00 PM, Saturday 10:00 AM - 9:00 PM, Sunday 12:00 PM - 6:00 PM",,,
Hulen Mall,,4800 S HULEN STREET,,FORT WORTH,TX,76132,United States,(817) 263-0436,,,"Monday - Friday 10:00 AM - 9:00 PM, Saturday 10:00 AM - 9:00 PM, Sunday 12:00 PM - 6:00 PM",,,
Houston Galleria,,5015 WESTHEIMER RD,,HOUSTON,TX,77056,United States,(713) 871-8409,,,"Monday - Friday 10:00 AM - 9:00 PM, Saturday 10:00 AM - 9:00 PM, Sunday 11:00 AM - 7:00 PM",,,
Parks at Arlington,,3811 S COOPER STREET,,ARLINGTON,TX,76015,United States,(817) 557-1377,,,"Monday - Friday 10:00 AM - 9:00 PM, Saturday 10:00 AM - 9:00 PM, Sunday 12:00 PM - 6:00 PM",,,
Lakeline Mall,,11200 LAKELINE MALL DR.,,CEDAR PARK,TX,78613,United States,(512) 331-5220,,,"Monday - Friday 10:00 AM - 9:00 PM, Saturday 10:00 AM - 9:00 PM, Sunday 12:00 PM - 6:00 PM",,,
First Colony Mall,,16535 SOUTHWEST FREEWAY,,SUGAR LAND,TX,77479,United States,(281) 980-8610,,,"Monday - Friday 10:00 AM - 9:00 PM, Saturday 10:00 AM - 9:00 PM, Sunday 12:00 PM - 6:00 PM",,,
Post Oak Mall,,1500 HARVEY ROAD,,COLLEGE STATION,TX,77840,United States,(979) 693-0322,,,"Monday - Friday 10:00 AM - 9:00 PM, Saturday 10:00 AM - 9:00 PM, Sunday 12:00 PM - 6:00 PM",,,
Stonebriar Centre,,2601 PRESTON ROAD,,FRISCO,TX,75034,United States,(972) 731 0722,,,"Monday - Friday 10:00 AM - 9:00 PM, Saturday 10:00 AM - 9:00 PM, Sunday 12:00 PM - 6:00 PM",,,
La Plaza Mall,,2200 S. 10TH STREET,,MC ALLEN,TX,78503,United States,(956) 683-9302,,,"Monday - Friday 10:00 AM - 9:00 PM, Saturday 10:00 AM - 9:00 PM, Sunday 11:00 AM - 7:00 PM",,,
Rivercenter,,849 E. COMMERCE ST.,,SAN ANTONIO,TX,78205,United States,(210) 223-1909,,,"Monday - Friday 10:00 AM - 9:00 PM, Saturday 10:00 AM - 9:00 PM, Sunday 12:00 PM - 6:00 PM",,,
Killeen Mall,,2100 SWS YOUNG DRIVE,,KILLEEN,TX,76543,United States,(254) 690-1416,,,"Monday - Friday 10:00 AM - 9:00 PM, Saturday 10:00 AM - 9:00 PM, Sunday 12:00 PM - 6:00 PM",,,
Parkdale Mall,,6155 EASTEX FREEWAY,,BEAUMONT,TX,77706,United States,(409) 347-0737,,,"Monday - Friday 10:00 AM - 9:00 PM, Saturday 10:00 AM - 9:00 PM, Sunday 12:00 PM - 6:00 PM",,,
Deerbrook Mall,,20131 HIGHWAY 59,,HUMBLE,TX,77338,United States,(281) 446-5708,,,"Monday - Friday 10:00 AM - 9:00 PM, Saturday 10:00 AM - 9:00 PM, Sunday 12:00 PM - 6:00 PM",,,
Memorial City Mall,,303 MEMORIAL CITY MALL,,HOUSTON,TX,77024,United States,(713) 465-9044,,,"Monday - Friday 10:00 AM - 9:00 PM, Saturday 10:00 AM - 9:00 PM, Sunday 12:00 PM - 7:00 PM",,,
Music City Mall,,4101 E. 42ND STREET,,ODESSA,TX,79762,United States,(432) 366-3099,,,"Monday - Friday 10:00 AM - 9:00 PM, Saturday 10:00 AM - 9:00 PM, Sunday 12:00 PM - 6:00 PM",,,
Rolling Oaks Mall,,6909 N. LOOP 1604 EAST,,SAN ANTONIO,TX,78247,United States,(210) 651-7447,,,"Monday - Friday 10:00 AM - 9:00 PM, Saturday 10:00 AM - 9:00 PM, Sunday 12:00 PM - 6:00 PM",,,
Shops at La Cantera,,15900 LA CANTERA PKWY,,SAN ANTONIO,TX,78256,United States,(210) 558-9154,,,"Monday - Friday 10:00 AM - 9:00 PM, Saturday 10:00 AM - 9:00 PM, Sunday 12:00 PM - 6:00 PM",,,
Round Rock Premium Outlets,,4401 N. IH-35,,ROUND ROCK,TX,78664,United States,(512) 863-5914,,,"Monday - Friday 10:00 AM - 9:00 PM, Saturday 10:00 AM - 9:00 PM, Sunday 11:00 AM - 7:00 PM",,,
Rio Grande Valley Premium Outlets,,5001 E. EXPRESSWAY 83,,MERCEDES,TX,78570,United States,(956) 514-9705,,,"Monday - Friday 10:00 AM - 9:00 PM, Saturday 9:00 AM  - 10:00 PM, Sunday 11:00 AM - 7:00 PM",,,
Houston Premium Outlets,,29300 HEMPSTEAD ROAD,,CYPRESS,TX,77433,United States,(281) 2568032,,,"Monday - Friday 10:00 AM - 9:00 PM, Saturday 10:00 AM - 9:00 PM, Sunday 11:00 AM - 7:00 PM",,,
Grand Prairie Premuim Outlets,,2950 W.INTERSTATE 20,,GRAND PRAIRIE,TX,75052,United States,9726023577,,,"Monday - Friday 10:00 AM - 9:00 PM, Saturday 10:00 AM - 9:00 PM, Sunday 11:00 AM - 7:00 PM",,,
Tanger Houston,,5885 GULF FRWY,,TEXAS CITY,TX,77591,United States,281 337-2585,,,"Monday - Friday 9:00 AM - 9:00 PM, Saturday 9:00 AM  - 9:00 PM, Sunday 10:00 AM - 7:00 PM",,,
North Star Mall,,7400 SAN PEDRO,,SAN ANTONIO,TX,78216,United States,2103488524,,,"Monday - Friday 10:00 AM - 9:00 PM, Saturday 10:00 AM - 9:00 PM, Sunday 12:00 PM - 6:00 PM",,,
Galleria Dallas,,13350 DALLAS PKWY,,DALLAS,TX,75240,United States,(972) 661-0782,,,"Monday - Friday 10:00 AM - 9:00 PM, Saturday 10:00 AM - 9:00 PM, Sunday 12:00 PM - 6:00 PM",,,
Sunset Mall,,4001 SUNSET DR,,SAN ANGELO,TX,76904,United States,(325) 949-1486,,,"Monday - Friday 10:00 AM - 9:00 PM, Saturday 10:00 AM - 9:00 PM, Sunday 12:00 PM - 6:00 PM",,,
Sunland Park Mall,,750 SUNLAND PARK DR,,EL PASO,TX,79912,United States,(915) 760-5516,,,"Monday - Friday 10:00 AM - 9:00 PM, Saturday 10:00 AM - 9:00 PM, Sunday 12:00 PM - 6:00 PM",,,
Firewheel Town Center,,435 CEDAR SAGE DR,,GARLAND,TX,75040,United States,(972) 495-3163,,,"Monday - Friday 10:00 AM - 9:00 PM, Saturday 10:00 AM - 9:00 PM, Sunday 12:00 PM - 6:00 PM",,,
Baybrook Mall,,1338 BAYBROOK MALL,,FRIENDSWOOD,TX,77546,United States,(281) 282-9267,,,"Monday - Friday 10:00 AM - 9:00 PM, Saturday 10:00 AM - 9:00 PM, Sunday 12:00 PM - 6:00 PM",,,
Grapevine Mills,,3000 GRAPEVINE MILLS PKWY,,GRAPEVINE,TX,76051,United States,(972) 539-5203,,,"Monday - Friday 10:00 AM - 9:30 PM, Saturday 10:00 AM - 9:30 PM, Sunday 11:00 AM - 7:00 PM",,,
Katy Mills,,5000 KATY MILLS CIRCLE,,KATY,TX,77494,United States,(281) 644-6555,,,"Monday - Friday 10:00 AM - 9:00 PM, Saturday 10:00 AM - 9:00 PM, Sunday 11:00 AM - 6:00 PM",,,
North East Mall,,1101 MELBOURNE RD,,HURST,TX,76053,United States,(817) 284-2585,,,"Monday - Friday 10:00 AM - 9:00 PM, Saturday 10:00 AM - 9:00 PM, Sunday 12:00 PM - 6:00 PM",,,
Cielo Vista Mall,,8401 GATEWAY BLVD WEST,,EL PASO,TX,79925,United States,(915) 778-8810,,,"Monday - Friday 10:00 AM - 9:00 PM, Saturday 10:00 AM - 9:00 PM, Sunday 12:00 PM - 6:00 PM",,,
Barton Creek Square,,2901 CAPITOL OF TEXAS HWY,,AUSTIN,TX,78746,United States,(512) 306-9592,,,"Monday - Friday 10:00 AM - 9:00 PM, Saturday 10:00 AM - 9:00 PM, Sunday 12:00 PM - 6:00 PM",,,
South Plains Mall,,6002 SLIDE ROAD,,LUBBOCK,TX,79414,United States,(806) 785-4064,,,"Monday - Friday 10:00 AM - 9:00 PM, Saturday 10:00 AM - 9:00 PM, Sunday 12:00 PM - 6:00 PM",,,
San Marcos Outlet,,4015 I-35 SOUTH STE#620,,SAN MARCOS,TX,78666,United States,(512) 392-7811,,,"Monday - Friday 10:00 AM - 9:00 PM, Saturday 10:00 AM - 9:00 PM, Sunday 10:00 AM - 7:00 PM",,,
Allen Premium Outlets,,820 W. STACY RD.,,ALLEN,TX,75013,United States,(972) 678-2690,,,"Monday - Friday 10:00 AM - 9:00 PM, Saturday 10:00 AM - 9:00 PM, Sunday 11:00 AM - 6:00 PM",,,
Ingram Park Mall,,6301 NW LOOP 410,,SAN ANTONIO,TX,78238,United States,(210) 543-2970,,,"Monday - Friday 10:00 AM - 9:00 PM, Saturday 10:00 AM - 9:00 PM, Sunday 12:00 PM - 6:00 PM",,,
South Towne Center,,10450 S STATE ST,,SANDY,UT,84070,United States,(801) 495-0726,,,"Monday - Friday 10:00 AM - 9:00 PM, Saturday 10:00 AM - 9:00 PM, Sunday 12:00 PM - 6:00 PM",,,
Provo Towne Center,,1200 TOWNE CENTRE BLVD,,PROVO,UT,84601,United States,(801) 852-3043,,,"Monday - Friday 10:00 AM - 9:00 PM, Saturday 10:00 AM - 9:00 PM, Sunday 12:00 PM - 6:00 PM",,,
University Mall,,575 E UNIVERSITY PKWY,,OREM,UT,84097,United States,(801) 225-4501,,,"Monday - Friday 10:00 AM - 9:00 PM, Saturday 10:00 AM - 9:00 PM, Sunday CLOSED",,,
Gateway,,66 S. RIO GRANDE ST.,,SALT LAKE CITY,UT,84101,United States,(801) 456-0373,,,"Monday - Friday 10:00 AM - 9:00 PM, Saturday 10:00 AM - 9:00 PM, Sunday 12:00 PM - 6:00 PM",,,
Newgate Mall,,3651 WALL AVE,,OGDEN,UT,84405,United States,(801) 621-4226,,,"Monday - Friday 10:00 AM - 9:00 PM, Saturday 10:00 AM - 9:00 PM, Sunday 12:00 PM - 6:00 PM",,,
Cache Valley Mall,,1300 NORTH MAIN ST,,LOGAN,UT,84341,United States,(435) 713-7076,,,"Monday - Friday 10:00 AM - 9:00 PM, Saturday 10:00 AM - 9:00 PM, Sunday 12:00 PM - 5:00 PM",,,
Fashion Place Mall,,6191 S. STATE ST,,MURRAY,UT,84107,United States,(801) 293-7108,,,"Monday - Friday 10:00 AM - 9:00 PM, Saturday 10:00 AM - 9:00 PM, Sunday 12:00 PM - 6:00 PM",,,
Red Cliffs Mall,,1770 EAST RED CLIFFS DR.,,ST GEORGE,UT,84790,United States,(435) 652-9058,,,"Monday - Friday 10:00 AM - 9:00 PM, Saturday 10:00 AM - 9:00 PM, Sunday 12:00 PM - 5:00 PM",,,
Tanger Outlets Park City,,6699 LANDMARK DRIVE,,PARK CITY,UT,84098,United States,(435) 645-8918,,,"Monday - Friday 10:00 AM - 9:00 PM, Saturday 10:00 AM - 9:00 PM, Sunday 11:00 AM - 6:00 PM",,,
Layton Hills Mall,,1064 LAYTON HILLS MALL,,LAYTON,UT,84041,United States,(801) 593-9212,,,"Monday - Friday 10:00 AM - 9:00 PM, Saturday 10:00 AM - 9:00 PM, Sunday 12:00 PM - 6:00 PM",,,
Burlington Town Center,,49 CHURCH ST STE 1,,BURLINGTON,VT,05401,United States,(802) 651-0578,,,"Monday - Friday 10:00 AM - 9:00 PM, Saturday 10:00 AM - 9:00 PM, Sunday 12:00 AM - 6:00 PM",,,
Greenbrier Mall,,"1401 GREENBRIAR PKWY, S.",,CHESAPEAKE,VA,23320,United States,(757) 361-9257,,,"Monday - Friday 10:00 AM - 9:00 PM, Saturday 10:00 AM - 9:00 PM, Sunday 12:00 PM - 5:30 PM",,,
Dulles Towne Center,,21100 DULLES TOWNE CIRCLE,,STERLING,VA,20166,United States,(703) 421-6022,,,"Monday - Friday 10:00 AM - 9:30 PM, Saturday 10:00 AM - 9:30 PM, Sunday 11:00 AM - 7:00 PM",,,
Tysons Corner Center,,7978L TYSONS CORNER CTR,,MCLEAN,VA,22102,United States,(703) 821-1067,,,"Monday - Friday 10:00 AM - 9:30 PM, Saturday 10:00 AM - 9:30 PM, Sunday 11:00 AM - 6:00 PM",,,
Fair Oaks,,11930-L FAIR OAKS,,FAIRFAX,VA,22030,United States,(703) 359-7895,,,"Monday - Friday 10:00 AM - 9:30 PM, Saturday 10:00 AM - 9:30 PM, Sunday 11:00 AM - 6:00 PM",,,
Lynnhaven Mall,,701 LYNNHAVEN PARKWAY,,VIRGINIA BEACH,VA,23452,United States,(757) 340-8457,,,"Monday - Friday 10:00 AM - 9:00 PM, Saturday 10:00 AM - 9:00 PM, Sunday 12:00 PM - 6:00 PM",,,
Apple Blossom Mall,,1850 APPLE BLOSSOM DRIVE,,WINCHESTER,VA,22601,United States,(540) 667-1300,,,"Monday - Friday 10:00 AM - 9:00 PM, Saturday 10:00 AM - 9:00 PM, Sunday 11:00 AM - 6:00 PM",,,
Short Pump Town Center,,11800 W. BROAD ST.,,RICHMOND,VA,23233,United States,(804) 360-0938,,,"Monday - Friday 10:00 AM - 9:00 PM, Saturday 10:00 AM - 9:00 PM, Sunday 12:00 PM - 6:00 PM",,,
River Ridge Mall,,3405 CANDLERS MOUNTIAN RD,,LYNCHBURG,VA,24502,United States,(434) 239-1501,,,"Monday - Friday 10:00 AM - 9:00 PM, Saturday 10:00 AM - 9:00 PM, Sunday 12:00 PM - 6:00 PM",,,
Valley Mall,,1925 E MARKET ST,,HARRISONBURG,VA,22801,United States,(540) 434-1251,,,"Monday - Friday 10:00 AM - 9:00 PM, Saturday 10:00 AM - 9:00 PM, Sunday 12:30 PM - 5:30 PM",,,
Williamsburg Premium Outlets,,5555 RICHMOND ROAD,,WILLIAMSBURG,VA,23188,United States,757 229-3895,,,"Monday - Friday 10:00 AM - 9:00 PM, Saturday 10:00 AM - 9:00 PM, Sunday 10:00 AM - 7:00 PM",,,
Piedmont Mall,,325 PIEDMONT DR,,DANVILLE,VA,24540,United States,(434) 799-4045,,,"Monday - Friday 10:00 AM - 9:00 PM, Saturday 10:00 AM - 9:00 PM, Sunday 12:00 PM - 6:00 PM",,,
Southpark Mall,,56 SOUTHPARK CIR,,COLONIAL HEIGHTS,VA,23834,United States,(804) 526-3165,,,"Monday - Friday 10:00 AM - 9:00 PM, Saturday 10:00 AM - 9:00 PM, Sunday 12:00 PM - 6:00 PM",,,
Chesterfield Towne Center,,11500 MIDLOTHIAN TURNPIKE,,RICHMOND,VA,23235,United States,(804) 897-4985,,,"Monday - Friday 10:00 AM - 9:00 PM, Saturday 10:00 AM - 9:00 PM, Sunday 12:00 PM - 6:00 PM",,,
Spotsylvania Mall,,240 SPOTSYLVANIA MALL,,FREDERICKSBURG,VA,22407,United States,(540) 548-3782,,,"Monday - Friday 10:00 AM - 9:30 PM, Saturday 10:00 AM - 9:30 PM, Sunday 11:00 AM - 6:00 PM",,,
MacArthur Center,,300 MONTICELLO AVENUE,,NORFOLK,VA,23510,United States,(757) 627-7006,,,"Monday - Friday 10:00 AM - 9:00 PM, Saturday 10:00 AM - 9:00 PM, Sunday 12:00 PM - 6:00 PM",,,
Leesburg Corner Premium Outlets,,"241 FT. EVANS ROAD, NE",,LEESBURG,VA,20176,United States,(703) 737-6077,,,"Monday - Friday 10:00 AM - 9:00 PM, Saturday 10:00 AM - 9:00 PM, Sunday 10:00 AM - 7:00 PM",,,
Valley View Mall,,4802 VALLEY VIEW ROAD,,ROANOKE,VA,24012,United States,(540) 362-8040,,,"Monday - Friday 10:00 AM - 9:00 PM, Saturday 10:00 AM - 9:00 PM, Sunday 12:00 PM - 6:00 PM",,,
Bellevue Square,,1005 BELLEVUE SQUARE,,BELLEVUE,WA,98004,United States,(425) 455-3299,,,"Monday - Friday 9:30 AM - 9:30 PM, Saturday 9:30 AM  - 9:30 PM, Sunday 11:00 AM - 7:00 PM",,,
Northtown Mall,,4750 N DIVISION,,SPOKANE,WA,99207,United States,(509) 483-3650,,,"Monday - Friday 10:00 AM - 9:00 PM, Saturday 8:00 AM  - 10:00 PM, Sunday 10:00 AM - 6:00 PM",,,
Tacoma Mall,,4502 S STEELE,,TACOMA,WA,98409,United States,(253) 472-8258,,,"Monday - Friday 10:00 AM - 9:00 PM, Saturday 10:00 AM - 9:00 PM, Sunday 11:00 AM - 7:00 PM",,,
Alderwood Mall,,"3000 184TH ST, SW",,LYNNWOOD,WA,98037,United States,(425) 771-3296,,,"Monday - Friday 10:00 AM - 9:00 PM, Saturday 10:00 AM - 9:00 PM, Sunday 11:00 AM - 7:00 PM",,,
Spokane Valley Mall,,14700 EAST INDIANA AVE,,SPOKANE,WA,99216,United States,(509) 922-9069,,,"Monday - Friday 10:00 AM - 9:00 PM, Saturday 10:00 AM - 9:00 PM, Sunday 11:00 AM - 6:00 PM",,,
Southcenter Mall,,650 SOUTHCENTER MALL,,TUKWILA,WA,98188,United States,(206) 246-5525,,,"Monday - Friday 10:00 AM - 9:00 PM, Saturday 10:00 AM - 9:00 PM, Sunday 11:00 AM - 7:00 PM",,,
Kitsap Mall,,10315 SILVERDALE WAY NW,,SILVERDALE,WA,98383,United States,(360) 662-0939,,,"Monday - Friday 10:00 AM - 9:00 PM, Saturday 10:00 AM - 9:00 PM, Sunday 11:00 AM - 6:00 PM",,,
Columbia Center,,1321 N COLUMBIA CENTER BL,,KENNEWICK,WA,99336,United States,(509) 735-7124,,,"Monday - Friday 10:00 AM - 9:00 PM, Saturday 10:00 AM - 9:00 PM, Sunday 11:00 AM - 7:00 PM",,,
Valley Mall,,2529 MAIN ST. STE. #138,,UNION GAP,WA,98903,United States,(509) 453-8308,,,"Monday - Friday 10:00 AM - 9:00 PM, Saturday 10:00 AM - 8:00 PM, Sunday 11:00 AM - 6:00 PM",,,
Vancouver Mall,,8700 VANCOUVER MALL DR,,VANCOUVER,WA,98662,United States,(360) 896-1100,,,"Monday - Friday 10:00 AM - 9:00 PM, Saturday 10:00 AM - 9:00 PM, Sunday 11:00 AM - 6:00 PM",,,
Seattle Premium Outlets,,10600 QUIL CEDA BL,,TULALIP,WA,98271,United States,(360) 716-2383,,,"Monday - Friday 10:00 AM - 9:00 PM, Saturday 10:00 AM - 9:00 PM, Sunday 10:00 AM - 7:00 PM",,,
North Bend Premium Outlets,,461 SOUTH FORK AVE SW,,NORTH BEND,WA,98045,United States,(425) 831-0486,,,"Monday - Friday 10:00 AM - 9:00 PM, Saturday 10:00 AM - 9:00 PM, Sunday 10:00 AM - 7:00 PM",,,
South Hill Mall,,3500 SOUTH MERIDIAN,,PUYALLUP,WA,98373,United States,(253) 864 9308,,,"Monday - Friday 10:00 AM - 9:00 PM, Saturday 10:00 AM - 9:00 PM, Sunday 11:00 AM - 6:00 PM",,,
Capital Mall,,625 BLACK LAKE BLVD,,OLYMPIA,WA,98502,United States,(360) 786-0948,,,"Monday - Friday 10:00 AM - 9:00 PM, Saturday 10:00 AM - 9:00 PM, Sunday 11:00 AM - 6:00 PM",,,
Charleston Town Center,,1109 CHARLESTON TOWN CTR,,CHARLESTON,WV,25389,United States,(304) 342-9738,,,"Monday - Friday 10:00 AM - 9:00 PM, Saturday 10:00 AM - 9:00 PM, Sunday 12:30 PM - 6:00 PM",,,
Morgantown Mall,,9500 MALL ROAD,,MORGANTOWN,WV,26505,United States,(304) 983-6170,,,"Monday - Friday 10:00 AM - 9:00 PM, Saturday 10:00 AM - 9:00 PM, Sunday 12:00 PM - 6:00 PM",,,
Huntington Mall,,310 HUNTINGTON MALL,,BARBOURSVILLE,WV,25504,United States,(304) 736-8108,,,"Monday - Friday 10:00 AM - 9:00 PM, Saturday 10:00 AM - 9:00 PM, Sunday 11:00 AM - 6:00 PM",,,
Brookfield Square,,95 N MOORLAND ROAD,,BROOKFIELD,WI,53005,United States,(262) 432-0001,,,"Monday - Friday 10:00 AM - 9:00 PM, Saturday 10:00 AM - 9:00 PM, Sunday 11:00 AM - 6:00 PM",,,
Fox River Mall,,4301 W WISCONSIN AVE,,APPLETON,WI,54913,United States,(920) 830-2850,,,"Monday - Friday 10:00 AM - 9:00 PM, Saturday 9:00 AM  - 9:00 PM, Sunday 10:00 AM - 7:00 PM",,,
Southridge Mall,,5300 SOUTH 76TH STREET,,GREENDALE,WI,53129,United States,(414) 421-1593,,,"Monday - Friday 10:00 AM - 9:00 PM, Saturday 10:00 AM - 9:00 PM, Sunday 11:00 AM - 6:00 PM",,,
Mayfair Mall,,2500 N MAYFAIR ROAD,,WAUWATOSA,WI,53226,United States,(414) 476-5537,,,"Monday - Friday 10:00 AM - 9:00 PM, Saturday 10:00 AM - 9:00 PM, Sunday 11:00 AM - 6:00 PM",,,
Wisconsin Dells,,210 GASSER RD,,BARABOO,WI,53913,United States,(608) 254-5196,,,"Monday - Friday 9:00 AM - 9:00 PM, Saturday 9:00 AM  - 9:00 PM, Sunday 10:00 AM - 7:00 PM",,,
Pleasant Prairie Premium Outlets,,11601 108TH ST,,PLEASANT PRAIRIE,WI,53158,United States,(262) 857-3248,,,"Monday - Friday 10:00 AM - 9:00 PM, Saturday 10:00 AM - 9:00 PM, Sunday 10:00 AM - 7:00 PM",,,
