store_name,store_number,address,address2,city,state,zip_code,country,phone_number,latitude,longitude,store_hours,store_type,other_fields,coming_soon
Geneva Commons,168,514 Commons Drive ,,Geneva ,IL,60134,United States,630-262-0805,41.8964769,-88.3417686,"Saturday 10:00 am-9:00 pm , Sunday 11:00 am-6:00 pm , Monday 10:00 am-9:00 pm , Tuesday 10:00 am-9:00 pm , Wednesday 10:00 am-9:00 pm , Thursday 10:00 am-9:00 pm , Friday 10:00 am-9:00 pm ",,,
White Oaks Mall,184,2501 Wabash Ave ,,Springfield ,IL,62704,United States,217-993-7012,39.765743,-89.7037216,"Saturday 10:00 am-9:00 pm , Sunday 11:00 am-6:00 pm , Monday 10:00 am-9:00 pm , Tuesday 10:00 am-9:00 pm , Wednesday 10:00 am-9:00 pm , Thursday 10:00 am-9:00 pm , Friday 10:00 am-9:00 pm ",,,
Wolfchase Galleria,222,2760 N. Germantown Parkway ,,Memphis ,TN,38133,United States,901-505-6791,35.201246,-89.787779,"Saturday 10:00 am-9:00 pm , Sunday 12:00 pm-6:00 pm , Monday 10:00 am-9:00 pm , Tuesday 10:00 am-9:00 pm , Wednesday 10:00 am-9:00 pm , Thursday 10:00 am-9:00 pm , Friday 10:00 am-9:00 pm ",,,
Hulen Mall,241,4800 S. Hulen St. Suite # 1610 ,,Fort Worth ,TX,76132,United States,817-840-0300,32.678569,-97.398131,"Saturday 10:00 am -9:00 pm , Sunday 12:00 pm-6:00 pm , Monday 10:00 am -9:00 pm , Tuesday 10:00 am - 9:00 pm , Wednesday 10:00 am -9:00 pm , Thursday 10:00 am -9:00 pm , Friday 10:00 am -9:00 pm ",,,
Tanger Outlets San Marcos,212,4015 IH 35 South ,,San Marcos ,TX,78666,United States,830-387-7229,29.82729,-97.9882211,"Saturday 9:00 am-10:00 pm , Sunday 10:00 am-7:00 pm , Monday 9:00 am-9:00 pm , Tuesday 9:00 am-9:00 pm , Wednesday 9:00 am-9:00 pm , Thursday 9:00 am-9:00 pm , Friday 9:00 am-10:00 pm ",,,
Eastland Mall,188,Eastland Mall 800 N. Green River Rd ,,Evansville ,IN,47715,United States,812-250-7026,37.981338,-87.495694,"Saturday 10:00 am-9:00 pm , Sunday 12:00 pm-6:00 pm , Monday 10:00 am-9:00 pm , Tuesday 10:00 am-9:00 pm , Wednesday 10:00 am-9:00 pm , Thursday 10:00 am-9:00 pm , Friday 10:00 am-9:00 pm ",,,
NorthPark Mall,165,320 West Kimberly Rd ,,Davenport ,IA,52806,United States,563-386-8773,41.5602598,-90.5751968,"Saturday 10:00 am-9:00 pm , Sunday 12:00 pm-6:00 pm , Monday 10:00 am-9:00 pm , Tuesday 10:00 am-9:00 pm , Wednesday 10:00 am-9:00 pm , Thursday 10:00 am-9:00 pm , Friday 10:00 am-9:00 pm ",,,
CoolSprings Galleria,228,1800 Galleria Blvd ,,Franklin ,TN,37067,United States,615-656-6173,35.957141,-86.813546,"Saturday 10:00am-9:00pm , Sunday 11:00pm-6:00pm , Monday 10:00am-9:00pm , Tuesday 10:00am-9:00pm , Wednesday 10:00am-9:00pm , Thursday 10:00am-9:00pm , Friday 10:00am-9:00pm ",,,
South Plains Mall,152,6002 Slide Road ,,Lubbock ,TX,79414,United States,806-788-1233,33.540743,-101.9257049,"Saturday 10:00 am-9:00 pm , Sunday 12:00 pm-6:00 pm , Monday 10:00 am-9:00 pm , Tuesday 10:00 am-9:00 pm , Wednesday 10:00 am-9:00 pm , Thursday 10:00 am-9:00 pm , Friday 10:00 am-9:00 pm ",,,
Opry Mills,153,433 Opry Mills Drive ,,Nashville ,TN,37214,United States,615-678-0324,36.203463,-86.692884,"Saturday 10:00 am-9:00 pm , Sunday 11:00 am-7:00 pm , Monday 10:00 am-9:00 pm , Tuesday 10:00 am-9:00 pm , Wednesday 10:00 am-9:00 pm , Thursday 10:00 am-9:00 pm , Friday 10:00 am-9:00 pm ",,,
Empire Mall,147,4001 West 41st Street ,,Sioux Falls ,SD,57106,United States,605-361-2033,43.5148096,-96.7744587,"Saturday 10:00 am-9:00 pm , Sunday 12:00 pm-6:00 pm , Monday 10:00 am-9:00 pm , Tuesday 10:00 am-9:00 pm , Wednesday 10:00 am-9:00 pm , Thursday 10:00 am-9:00 pm , Friday 10:00 am-9:00 pm ",,,
North East Mall,180,1101 Melbourne Road ,,Hurst ,TX,76053,United States,817-893-1144,32.830764,-97.199433,"Saturday 10:00 am-9:00 pm , Sunday 12:00 pm-6:00 pm , Monday 10:00 am-9:00 pm , Tuesday 10:00 am-9:00 pm , Wednesday 10:00 am-9:00 pm , Thursday 10:00 am-9:00 pm , Friday 10:00 am-9:00 pm ",,,
Westroads Mall,183,10000 California Street ,,Omaha ,NE,68114,United States,402-938-3190,41.2641447,-96.068826,"Saturday 10:00 am-9:00 pm , Sunday 11:00 am-6:00 pm , Monday 10:00 am-9:00 pm , Tuesday 10:00 am-9:00 pm , Wednesday 10:00 am-9:00 pm , Thursday 10:00 am-9:00 pm , Friday 10:00 am-9:00 pm ",,,
Town East Mall,204,1024 Town East Mall ,,Mesquite ,TX,75150,United States,214-765-9432,32.8089137,-96.6269187,"Saturday 10:00 am-9:00 pm , Sunday 12:00 pm-6:00 pm , Monday 10:00 am-9:00 pm , Tuesday 10:00 am-9:00 pm , Wednesday 10:00 am-9:00 pm , Thursday 10:00 am-9:00 pm , Friday 10:00 am-9:00 pm ",,,
Nyberg Woods,151,7039 SW Nyberg St. ,,Tualatin ,OR,97062,United States,503-691-1300,45.3827426,-122.7475623,"Saturday 10:00 am-9:00 pm , Sunday 10:00 am-7:00 pm , Monday 10:00 am-9:00 pm , Tuesday 10:00 am-9:00 pm , Wednesday 10:00 am-9:00 pm , Thursday 10:00 am-9:00 pm , Friday 10:00 am-9:00 pm ",,,
Penn Square Mall,211,1901 NW Expressway ,,Oklahoma City ,OK,73118,United States,405-486-7891,35.5247365,-97.5439664,"Saturday 10:00 am-9:00 pm , Sunday 12:00 pm-6:00 pm , Monday 10:00 am-9:00 pm , Tuesday 10:00 am-9:00 pm , Wednesday 10:00 am-9:00 pm , Thursday 10:00 am-9:00 pm , Friday 10:00 am-9:00 pm ",,,
Clackamas Town Center,173,12000 SE 82nd Avenue ,,Happy Valley ,OR,97266,United States,503-513-7104,45.4639927,-122.5790348,"Saturday 10:00 am-9:00 pm , Sunday 11:00 am-7:00 pm , Monday 10:00 am-9:00 pm , Tuesday 10:00 am-9:00 pm , Wednesday 10:00 am-9:00 pm , Thursday 10:00 am-9:00 pm , Friday 10:00 am-9:00 pm ",,,
Independence Center,210,18813 E 39th Street South ,,Independence ,MO,64057,United States,816-448-9476,39.0458558,-94.358041,"Saturday 10:00 am-9:00 pm , Sunday 12:00 pm-6:00 pm , Monday 10:00 am-9:00 pm , Tuesday 10:00 am-9:00 pm , Wednesday 10:00 am-9:00 pm , Thursday 10:00 am-9:00 pm , Friday 10:00 am-9:00 pm ",,,
Santa Rosa Plaza,128,2041 Santa Rosa Plaza ,,Santa Rosa ,CA,95401,United States,707-528-2881,38.4407282,-122.7178633,"Saturday 10:00 am-8:00 pm , Sunday 11:00 am-6:00 pm , Monday 10:00 am-9:00 pm , Tuesday 10:00 am-9:00 pm , Wednesday 10:00 am-9:00 pm , Thursday 10:00 am-9:00 pm , Friday 10:00 am-9:00 pm ",,,
Tacoma Mall,157,4502 South Steel St. ,,Tacoma ,WA,98409,United States,253-475-0940,47.2165784,-122.4675654,"Saturday 10:00 am-9:00 pm , Sunday 11:00 am-7:00 pm , Monday 10:00 am-9:00 pm , Tuesday 10:00 am-9:00 pm , Wednesday 10:00 am-9:00 pm , Thursday 10:00 am-9:00 pm , Friday 10:00 am-9:00 pm ",,,
Pacific Commons,243,43732 Christy St. ,,Fremont ,CA,94538,United States,510-946-8398,37.504,-121.966,"Saturday 10:00 am-9:00 pm , Sunday 11:00 am-7:00 pm , Monday 10:00 am-9:00 pm , Tuesday 10:00 am-9:00 pm , Wednesday 10:00 am-9:00 pm , Thursday 10:00 am-9:00 pm , Friday 10:00 am-9:00 pm ",,,
Great Mall of the Bay Area,063,447 Great Mall Dr. ,,Milpitas ,CA,95035,United States,408-719-8473,37.41559,-121.899423,"Saturday 10:00 am-9:00 pm , Sunday 11:00 am-8:00 pm , Monday 10:00 am-9:00 pm , Tuesday 10:00 am-9:00 pm , Wednesday 10:00 am-9:00 pm , Thursday 10:00 am-9:00 pm , Friday 10:00 am-9:00 pm ",,,
Northgate,116,5800 Northgate Drive ,,San Rafael ,CA,94903,United States,415-499-1262,38.0050584,-122.5456562,"Saturday 10:00 am-9:00 pm , Sunday 10:00 am-6:00 pm , Monday 10:00 am-8:00 pm , Tuesday 10:00 am-8:00 pm , Wednesday 10:00 am-8:00 pm , Thursday 10:00 am-8:00 pm , Friday 10:00 am-9:00 pm ",,,
The Shops at Tanforan,054,1150 El Camino Real ,,San Bruno ,CA,94066,United States,650-872-1678,37.6358529,-122.4188443,"Saturday 10:00 am-9:00 pm , Sunday 11:00 am-7:00 pm , Monday 10:00 am-9:00 pm , Tuesday 10:00 am-9:00 pm , Wednesday 10:00 am-9:00 pm , Thursday 10:00 am-9:00 pm , Friday 10:00 am-9:00 pm ",,,
Sunvalley - NOW OPEN,059,One Sun Valley Mall ,,Concord ,CA,94520,United States,925-691-4382,37.9664662,-122.0613081,"Saturday 10:00 am-9:00 pm , Sunday 11:00 am-7:00 pm , Monday 10:00 am-9:00 pm , Tuesday 10:00 am-9:00 pm , Wednesday 10:00 am-9:00 pm , Thursday 10:00 am-9:00 pm , Friday 10:00 am-9:00 pm ",,,
Plaza Escuela,133,1179 Locust Street Suite B ,,Walnut Creek ,CA,94596,United States,925-937-1172,37.8958317,-122.0614214,"Saturday 10:00 am-9:00 pm , Sunday 10:00 am-7:00 pm , Monday 10:00 am-9:00 pm , Tuesday 10:00 am-9:00 pm , Wednesday 10:00 am-9:00 pm , Thursday 10:00 am-9:00 pm , Friday 10:00 am-9:00 pm ",,,
El Paseo de Saratoga,138,650 El Paseo de Saratoga ,,San Jose ,CA,95130,United States,408-871-1410,37.2886842,-121.9886103,"Saturday 10:00 am-9:00 pm , Sunday 11:00 am-7:00 pm , Monday 10:00 am-9:00 pm , Tuesday 10:00 am-9:00 pm , Wednesday 10:00 am-9:00 pm , Thursday 10:00 am-9:00 pm , Friday 10:00 am-9:00 pm ",,,
Nut Tree Village,066,1641 East Monte Vista Ave. ,,Vacaville ,CA,95688,United States,707-452-0521,38.3692449,-121.962717,"Saturday 10:00 am-9:00 pm , Sunday 10:00 am-7:00 pm , Monday 10:00 am-9:00 pm , Tuesday 10:00 am-9:00 pm , Wednesday 10:00 am-9:00 pm , Thursday 10:00 am-9:00 pm , Friday 10:00 am-9:00 pm ",,,
Hacienda Crossings,049,4980 Dublin Blvd. ,,Dublin ,CA,94568,United States,925-479-9156,37.705329,-121.88554,"Saturday 10:00 am-9:00 pm , Sunday 10:00 am-9:00 pm , Monday 10:00 am-9:00 pm , Tuesday 10:00 am-9:00 pm , Wednesday 10:00 am-9:00 pm , Thursday 10:00 am-9:00 pm , Friday 10:00 am-9:00 pm ",,,
Almaden Plaza Shopping Center,043,5353 Almaden Expressway ,,San Jose ,CA,95118,United States,408-264-3481,37.2531246,-121.8772817,"Saturday 10:00 am-9:00 pm , Sunday 10:00 am-7:00 pm , Monday 10:00 am-9:00 pm , Tuesday 10:00 am-9:00 pm , Wednesday 10:00 am-9:00 pm , Thursday 10:00 am-9:00 pm , Friday 10:00 am-9:00 pm ",,,
Columbia Center,146,1321 N. Columbia Center Blvd ,,Kennewick ,WA,99336,United States,509-737-1116,46.2262656,-119.2262907,"Saturday 10:00 am-9:00 pm , Sunday 11:00 am-7:00 pm , Monday 10:00 am-9:00 pm , Tuesday 10:00 am-9:00 pm , Wednesday 10:00 am-9:00 pm , Thursday 10:00 am-9:00 pm , Friday 10:00 am-9:00 pm ",,,
Edgewater Shopping Center,161,2080 California Ave ,,Sand City ,CA,93955,United States,831-393-0102,36.6191419,-121.8433253,"Saturday 10:00 am-9:00 pm , Sunday 10:00 am-7:00 pm , Monday 10:00 am-9:00 pm , Tuesday 10:00 am-9:00 pm , Wednesday 10:00 am-9:00 pm , Thursday 10:00 am-9:00 pm , Friday 10:00 am-9:00 pm ",,,
Eastridge Mall,058,2200 Eastridge Loop ,,San Jose ,CA,95122,United States,408-238-2418,37.3273291,-121.816313,"Saturday 10:00 am-9:00 pm , Sunday 11:00 am-7:00 pm , Monday 10:00 am-9:00 pm , Tuesday 10:00 am-9:00 pm , Wednesday 10:00 am-9:00 pm , Thursday 10:00 am-9:00 pm , Friday 10:00 am-9:00 pm ",,,
Brentwood,100,2505 Sand Creek Rd. ,,Brentwood ,CA,94513,United States,925-240-1421,37.9457543,-121.7401028,"Saturday 10:00 am-9:00 pm , Sunday 10:00 am-7:00 pm , Monday 10:00 am-9:00 pm , Tuesday 10:00 am-9:00 pm , Wednesday 10:00 am-9:00 pm , Thursday 10:00 am-9:00 pm , Friday 10:00 am-9:00 pm ",,,
Arden Fair,213,1689 Arden Way ,,Sacramento ,CA,95815,United States,916-830-1480,38.601935,-121.427554,"Saturday 10:00 am-9:00 pm , Sunday 11:00 am-7:00 pm , Monday 10:00 am-9:00 pm , Tuesday 10:00 am-9:00 pm , Wednesday 10:00 am-9:00 pm , Thursday 10:00 am-9:00 pm , Friday 10:00 am-9:00 pm ",,,
Harden Ranch Plaza,144,1662 N. Main Street ,,Salinas ,CA,93906,United States,831-442-0102,36.7103142,-121.6539212,"Saturday 10:00 am-9:00 pm , Sunday 11:00 am-7:00 pm , Monday 10:00 am-9:00 pm , Tuesday 10:00 am-9:00 pm , Wednesday 10:00 am-9:00 pm , Thursday 10:00 am-9:00 pm , Friday 10:00 am-9:00 pm ",,,
Northshore Mall,179,210 Andover Street ,,Peabody ,MA,01960,United States,978-531-1147,42.542868,-70.941982,"Saturday 10:00 am-9:00 pm , Sunday 11:00 am-6:00 pm , Monday 10:00 am-9:00 pm , Tuesday 10:00 am-9:00 pm , Wednesday 10:00 am-9:00 pm , Thursday 10:00 am-9:00 pm , Friday 10:00 am-9:00 pm ",,,
Elk Grove Commons,040,9688 Bruceville Rd. ,,Elk Grove ,CA,95757,United States,916-686-0260,38.443201,-121.409862,"Saturday 10:00 am-9:00 pm , Sunday 10:00 am-8:00 pm , Monday 10:00 am-9:00 pm , Tuesday 10:00 am-9:00 pm , Wednesday 10:00 am-9:00 pm , Thursday 10:00 am-9:00 pm , Friday 10:00 am-9:00 pm ",,,
Sunrise Mall,102,6157 Sunrise Mall ,,Citrus Heights ,CA,95610,United States,916-728-6916,38.6780398,-121.2706798,"Saturday 10:00 am-9:00 pm , Sunday 11:00 am-7:00 pm , Monday 10:00 am-9:00 pm , Tuesday 10:00 am-9:00 pm , Wednesday 10:00 am-9:00 pm , Thursday 10:00 am-9:00 pm , Friday 10:00 am-9:00 pm ",,,
Galleria at Roseville,110,1151 Galleria Blvd ,,Roseville ,CA,95678,United States,916-797-1141,38.7735899,-121.2694671,"Saturday 10:00 am-9:00 pm , Sunday 11:00 am-7:00 pm , Monday 10:00 am-9:00 pm , Tuesday 10:00 am-9:00 pm , Wednesday 10:00 am-9:00 pm , Thursday 10:00 am-9:00 pm , Friday 10:00 am-9:00 pm ",,,
South Shore Plaza,174,250 Granite Street ,,Braintree ,MA,02184,United States,781-348-4977,42.2201403,-71.0267006,"Saturday 10:00 am-9:00 pm , Sunday 11:00 am-6:00 pm , Monday 10:00 am-9:00 pm , Tuesday 10:00 am-9:00 pm , Wednesday 10:00 am-9:00 pm , Thursday 10:00 am-9:00 pm , Friday 10:00 am-9:00 pm ",,,
Weberstown Mall,114,4950 Pacific Avenue ,,Stockton ,CA,95207,United States,209-951-2794,37.995775,-121.313927,"Saturday 10:00 am-9:00 pm , Sunday 11:00 am-6:00 pm , Monday 10:00 am-9:00 pm , Tuesday 10:00 am-9:00 pm , Wednesday 10:00 am-9:00 pm , Thursday 10:00 am-9:00 pm , Friday 10:00 am-9:00 pm ",,,
Broadstone Plaza,120,2761 East Bidwell Street Suite 100 ,,Folsom ,CA,95630,United States,916-983-2569,38.65465,-121.124418,"Saturday 10:00 am-9:00 pm , Sunday 11:00 am-8:00 pm , Monday 10:00 am-9:00 pm , Tuesday 10:00 am-9:00 pm , Wednesday 10:00 am-9:00 pm , Thursday 10:00 am-9:00 pm , Friday 10:00 am-9:00 pm ",,,
Vintage Faire,118,3401 Dale Road ,,Modesto ,CA,95356,United States,209-550-0518,37.6898783,-121.0503507,"Saturday 10:00 am-9:00 pm , Sunday 11:00 am-7:00 pm , Monday 10:00 am-9:00 pm , Tuesday 10:00 am-9:00 pm , Wednesday 10:00 am-9:00 pm , Thursday 10:00 am-9:00 pm , Friday 10:00 am-9:00 pm ",,,
Monte Vista Crossing,224,2737 Countryside Drive ,,Turlock ,CA,95380,United States,209-226-7010,37.515189,-120.878002,"Saturday 10:00 am-9:00 pm , Sunday 11:00 am-7:00 pm , Monday 10:00 am-9:00 pm , Tuesday 10:00 am-9:00 pm , Wednesday 10:00 am-9:00 pm , Thursday 10:00 am-9:00 pm , Friday 10:00 am-9:00 pm ",,,
The Crossroads at Santa Maria,154,2348 S. Bradley Rd ,,Santa Maria ,CA,93454,United States,805-346-6281,34.9170851,-120.4207877,"Saturday 10:00 am-9:00 pm , Sunday 10:00 am-7:00 pm , Monday 10:00 am-9:00 pm , Tuesday 10:00 am-9:00 pm , Wednesday 10:00 am-9:00 pm , Thursday 10:00 am-9:00 pm , Friday 10:00 am-9:00 pm ",,,
Merced Mall,143,250 Merced Mall ,,Merced ,CA,95348,United States,209-383-0107,37.320996,-120.482968,"Saturday 10:00 am-9:00 pm , Sunday 11:00 am-6:00 pm , Monday 10:00 am-9:00 pm , Tuesday 10:00 am-9:00 pm , Wednesday 10:00 am-9:00 pm , Thursday 10:00 am-9:00 pm , Friday 10:00 am-9:00 pm ",,,
Camino Real Marketplace,227,7046 Marketplace Drive ,,Goleta ,CA,93117,United States,805-770-6089,34.4294,-119.873066,"Saturday 10:00am-9:00pm , Sunday 10:00am-7:00pm , Monday 10:00am-9:00pm , Tuesday 10:00am-9:00pm , Wednesday 10:00am-9:00pm , Thursday 10:00am-9:00pm , Friday 10:00am-9:00pm ",,,
Marketplace at El Paseo,209,6581 N. Riverside Drive ,,Fresno ,CA,93722,United States,559-470-6810,36.8333348,-119.9064957,"Saturday 10:00 am-9:00 pm , Sunday 11:00 am-7:00 pm , Monday 10:00 am-9:00 pm , Tuesday 10:00 am-9:00 pm , Wednesday 10:00 am-9:00 pm , Thursday 10:00 am-9:00 pm , Friday 10:00 am-9:00 pm ",,,
Shops at Riverpark,071,90 Via del Oro ,,Fresno ,CA,93720,United States,559-436-0548,36.849708,-119.789557,"Saturday 10:00 am-9:00 pm , Sunday 11:00 am-7:00 pm , Monday 10:00 am-9:00 pm , Tuesday 10:00 am-9:00 pm , Wednesday 10:00 am-9:00 pm , Thursday 10:00 am-9:00 pm , Friday 10:00 am-9:00 pm ",,,
State Street,126,917 State Street ,,Santa Barbara ,CA,93101,United States,805-966-4686,34.420741,-119.701479,"Saturday 10:00 am-9:00 pm , Sunday 11:00 am-7:00 pm , Monday 10:00 am-9:00 pm , Tuesday 10:00 am-9:00 pm , Wednesday 10:00 am-9:00 pm , Thursday 10:00 am-9:00 pm , Friday 10:00 am-9:00 pm ",,,
Meadowood Mall,065,5000 Meadowood Mall Circle ,,Reno ,NV,89502,United States,775-826-4519,39.4750313,-119.7798772,"Saturday 10:00 am-9:00 pm , Sunday 11:00 am-7:00 pm , Monday 10:00 am-9:00 pm , Tuesday 10:00 am-9:00 pm , Wednesday 10:00 am-9:00 pm , Thursday 10:00 am-9:00 pm , Friday 10:00 am-9:00 pm ",,,
Fashion Fair Mall,142,697 East Shaw Ave ,,Fresno ,CA,93710,United States,559-226-1601,36.8084467,-119.7763334,"Saturday 10:00 am-9:00 pm , Sunday 11:00 am-7:00 pm , Monday 10:00 am-9:00 pm , Tuesday 10:00 am-9:00 pm , Wednesday 10:00 am-9:00 pm , Thursday 10:00 am-9:00 pm , Friday 10:00 am-9:00 pm ",,,
Clovis Crossing Shopping Center,242,1215 Herndon Ave ,,Clovis ,CA,93612,United States,559-862-2455,36.839498,-119.694002,"Saturday 10:00 am-9:00 pm , Sunday 12:00 pm-6:00 pm , Monday 10:00 am-9:00 pm , Tuesday 10:00 am-9:00 pm , Wednesday 10:00 am-9:00 pm , Thursday 10:00 am-9:00 pm , Friday 10:00 am-9:00 pm ",,,
Tulare,099,1497 Retherford St. ,,Tulare ,CA,93274,United States,559-687-0976,36.23067,-119.334784,"Saturday 10:00 am-9:00 pm , Sunday 10:00 am-7:00 pm , Monday 10:00 am-9:00 pm , Tuesday 10:00 am-9:00 pm , Wednesday 10:00 am-9:00 pm , Thursday 10:00 am-9:00 pm , Friday 10:00 am-9:00 pm ",,,
Esplanade Shopping Center,024,161 W. Esplanade Dr. ,,Oxnard ,CA,93036,United States,805-983-1461,34.2300219,-119.1745774,"Saturday 10:00 am-9:00 pm , Sunday 10:00 am-7:00 pm , Monday 10:00 am-9:00 pm , Tuesday 10:00 am-9:00 pm , Wednesday 10:00 am-9:00 pm , Thursday 10:00 am-9:00 pm , Friday 10:00 am-9:00 pm ",,,
Village at Moorpark,035,33 North Moorpark Rd. # A ,,Thousand Oaks ,CA,91360,United States,805-494-1955,34.179917,-118.876926,"Saturday 10:00 am-9:00 pm , Sunday 10:00 am-8:00 pm , Monday 10:00 am-9:00 pm , Tuesday 10:00 am-9:00 pm , Wednesday 10:00 am-9:00 pm , Thursday 10:00 am-9:00 pm , Friday 10:00 am-9:00 pm ",,,
Packwood Creek,080,4039 South South Mooney Blvd. ,,Visalia ,CA,93277,United States,559-733-3165,36.2941693,-119.3137631,"Saturday 10:00 am-8:00 pm , Sunday 11:00 am-6:00 pm , Monday 10:00 am-9:00 pm , Tuesday 10:00 am-9:00 pm , Wednesday 10:00 am-9:00 pm , Thursday 10:00 am-9:00 pm , Friday 10:00 am-9:00 pm ",,,
Valley Plaza,088,2701 Ming Ave. ,,Bakersfield ,CA,93304,United States,661-833-3598,35.338236,-119.034423,"Saturday 10:00 am-9:00 pm , Sunday 11:00 am-6:00 pm , Monday 7:00 am-9:00 pm , Tuesday 10:00 am-9:00 pm , Wednesday 10:00 am-9:00 pm , Thursday 10:00 am-9:00 pm , Friday 10:00 am-9:00 pm ",,,
The Shoppes at Westlake Village,226,30730 Russell Ranch Rd. ,,Westlake Village ,CA,91362,United States,818-540-4874,34.148951,-118.79496,"Saturday 10:00am-8:00pm , Sunday 10:00am-7:00pm , Monday 10:00am-9:00pm , Tuesday 10:00am-9:00pm , Wednesday 10:00am-9:00pm , Thursday 10:00am-9:00pm , Friday 10:00am-9:00pm ",,,
Mall at Simi Valley Town Center,053,1555 Simi Town Center Way ,,Simi Valley ,CA,93065,United States,805-579-0267,34.2844612,-118.7690765,"Saturday 10:00 am-9:00 pm , Sunday 11:00 am-7:00 pm , Monday 10:00 am-8:00 pm , Tuesday 10:00 am-8:00 pm , Wednesday 10:00 am-8:00 pm , Thursday 10:00 am-9:00 pm , Friday 10:00 am-9:00 pm ",,,
Topanga Plaza,121,6600 Topanga Canyon Blvd ,,Canoga Park ,CA,91303,United States,818-226-0013,34.1904651,-118.604941,"Saturday 10:00 am-9:00 pm , Sunday 11:00 am-7:00 pm , Monday 10:00 am-9:00 pm , Tuesday 10:00 am-9:00 pm , Wednesday 10:00 am-9:00 pm , Thursday 10:00 am-9:00 pm , Friday 10:00 am-9:00 pm ",,,
Porter Ranch Town Center,020,19811 Rinaldi St. ,,Northridge ,CA,91326,United States,818-368-9908,34.2754821,-118.5701253,"Saturday 10:00 am-9:00 pm , Sunday 10:00 am-7:00 pm , Monday 10:00 am-9:00 pm , Tuesday 10:00 am-9:00 pm , Wednesday 10:00 am-9:00 pm , Thursday 10:00 am-9:00 pm , Friday 10:00 am-9:00 pm ",,,
3rd St Promenade,149,1426 3rd Street ,,Promenade Santa Monica ,CA,90401,United States,310-899-6806,34.0150193,-118.4954447,"Saturday 10:00 am-10:00 pm , Sunday 11:00 am-9:00 pm , Monday 10:00 am-9:00 pm , Tuesday 10:00 am-9:00 pm , Wednesday 10:00 am-9:00 pm , Thursday 10:00 am-9:00 pm , Friday 10:00 am-10:00 pm ",,,
Smith Haven Mall,134,230 Smith Haven Mall ,,Lake Grove ,NY,11755,United States,631-724-0575,40.8629915,-73.12965,"Saturday 10:00 am-9:30 pm , Sunday 11:00 am-7:00 pm , Monday 10:00 am-9:30 pm , Tuesday 10:00 am-9:30 pm , Wednesday 10:00 am-9:30 pm , Thursday 10:00 am-9:30 pm , Friday 10:00 am-9:30 pm ",,,
Promenade at Town Center,028,27027 McBean Pkwy. ,,Valencia ,CA,91355,United States,661-255-9282,34.4217439,-118.564752,"Saturday 10:00 am-9:00 pm , Sunday 10:00 am-8:00 pm , Monday 10:00 am-9:00 pm , Tuesday 10:00 am-9:00 pm , Wednesday 10:00 am-9:00 pm , Thursday 10:00 am-9:00 pm , Friday 10:00 am-9:00 pm ",,,
Outlets at Tejon Ranch,217,5701 Outlets at Tejon Pkwy ,,Arvin ,CA,93203,United States,661-606-6002,35.0386313,-118.6436659,"Saturday 10:00 am-9:00 pm , Sunday 10:00 am-8:00 pm , Monday 10:00 am-9:00 pm , Tuesday 10:00 am-9:00 pm , Wednesday 10:00 am-9:00 pm , Thursday 10:00 am-9:00 pm , Friday 10:00 am-9:00 pm ",,,
Galleria at South Bay,029,1815 Hawthorne Blvd. Suite 380 ,,Redondo Beach ,CA,90278,United States,310-542-1170,33.8717412,-118.3545789,"Saturday 10:00 am-8:00 pm , Sunday 11:00 am-7:00 pm , Monday 10:00 am-9:00 pm , Tuesday 10:00 am-9:00 pm , Wednesday 10:00 am-9:00 pm , Thursday 10:00 am-9:00 pm , Friday 10:00 am-9:00 pm ",,,
Rolling Hills Plaza,022,2645 Pacific Coast Hwy. ,,Torrance ,CA,90505,United States,310-534-1642,33.7915402,-118.3323879,"Saturday 10:00 am-9:00 pm , Sunday 10:00 am-8:00 pm , Monday 10:00 am-9:00 pm , Tuesday 10:00 am-9:00 pm , Wednesday 10:00 am-9:00 pm , Thursday 10:00 am-9:00 pm , Friday 10:00 am-9:00 pm ",,,
Burbank Empire Center,025,1751 N. Victory Place ,,Burbank ,CA,91504,United States,818-557-0121,34.1917057,-118.3288696,"Saturday 10:00 am-8:00 pm , Sunday 10:00 am-7:00 pm , Monday 10:00 am-9:00 pm , Tuesday 10:00 am-9:00 pm , Wednesday 10:00 am-9:00 pm , Thursday 10:00 am-9:00 pm , Friday 10:00 am-9:00 pm ",,,
Glendale Galleria,125,2180 Glendale Galleria ,,Glendale ,CA,91210,United States,818-240-0031,34.1456693,-118.2566823,"Saturday 10:00 am-9:00 pm , Sunday 11:00 am-7:00 pm , Monday 10:00 am-9:00 pm , Tuesday 10:00 am-9:00 pm , Wednesday 10:00 am-9:00 pm , Thursday 10:00 am-9:00 pm , Friday 10:00 am-9:00 pm ",,,
Belmont Shore,007,5286 East 2nd St. ,,Long Beach ,CA,90803,United States,562-434-1769,33.7592866,-118.1329588,"Saturday 10:00 am-9:00 pm , Sunday 11:00 am-8:00 pm , Monday 10:00 am-9:00 pm , Tuesday 10:00 am-9:00 pm , Wednesday 10:00 am-9:00 pm , Thursday 10:00 am-9:00 pm , Friday 10:00 am-9:00 pm ",,,
Huntington Shopping Center,166,350 Route 110 ,,Huntington ,NY,11746,United States,631-421-1170,40.8163111,-73.4106248,"Saturday 10:00 am-9:00 pm , Sunday 11:00 am-7:00 pm , Monday 10:00 am-9:00 pm , Tuesday 10:00 am-9:00 pm , Wednesday 10:00 am-9:00 pm , Thursday 10:00 am-9:00 pm , Friday 10:00 am-9:00 pm ",,,
Long Beach Towne Center,017,7350 Carson Blvd. ,,Long Beach ,CA,90808,United States,562-496-0012,33.8275896,-118.0872664,"Saturday 10:00 am-9:00 pm , Sunday 10:00 am-8:00 pm , Monday 10:00 am-9:00 pm , Tuesday 10:00 am-9:00 pm , Wednesday 10:00 am-9:00 pm , Thursday 10:00 am-9:00 pm , Friday 10:00 am-9:00 pm ",,,
Citadel Outlet,135,100 Citadel Dr. ,,City of Commerce ,CA,90040,United States,323-888-2449,34.0074168,-118.1499065,"Saturday 9:30 am-9:30 pm , Sunday 9:30 am-9:30 pm , Monday 9:30 am-9:30 pm , Tuesday 9:30 am-9:30 pm , Wednesday 9:30 am-9:30 pm , Thursday 9:30 am-9:30 pm , Friday 9:30 am-9:30 pm ",,,
Stonewood Center,221,140 Stonewood Street ,,Downey ,CA,90241,United States,562-674-2017,33.9371988,-118.121956,"Saturday 10:00 am-8:00 pm , Sunday 11:00 am-7:00 pm , Monday 10:00 am-9:00 pm , Tuesday 10:00 am-9:00 pm , Wednesday 10:00 am-9:00 pm , Thursday 10:00 am-9:00 pm , Friday 10:00 am-9:00 pm ",,,
Five Points Plaza,004,18545 Main St. ,,Huntington Beach ,CA,92648,United States,714-841-9729,33.6931471,-117.9903302,"Saturday 10:00 am-8:00 pm , Sunday 10:00 am-7:00 pm , Monday 10:00 am-9:00 pm , Tuesday 10:00 am-9:00 pm , Wednesday 10:00 am-9:00 pm , Thursday 10:00 am-9:00 pm , Friday 10:00 am-9:00 pm ",,,
Cypress Plaza,003,6836 Katella Ave. ,,Cypress ,CA,90630,United States,714-892-0129,33.8027888,-118.0141227,"Saturday 10:00 am-8:00 pm , Sunday 10:00 am-7:00 pm , Monday 10:00 am-9:00 pm , Tuesday 10:00 am-9:00 pm , Wednesday 10:00 am-9:00 pm , Thursday 10:00 am-9:00 pm , Friday 10:00 am-9:00 pm ",,,
Antelope Valley Mall,036,1233 West Rancho Vista Rd. Space 1129 ,,Palmdale ,CA,93551,United States,661-273-2093,34.604,-118.152,"Saturday 10:00 am-8:00 pm , Sunday 11:00 am-6:00 pm , Monday 10:00 am-9:00 pm , Tuesday 10:00 am-9:00 pm , Wednesday 10:00 am-9:00 pm , Thursday 10:00 am-9:00 pm , Friday 10:00 am-9:00 pm ",,,
Hastings Village,206,3365 E. Foothill Blvd ,,Pasadena ,CA,91107,United States,626-325-9025,34.1500945,-118.0824856,"Saturday 10:00 am-8:00 pm , Sunday 10:00 am-7:00 pm , Monday 10:00 am-9:00 pm , Tuesday 10:00 am-9:00 pm , Wednesday 10:00 am-9:00 pm , Thursday 10:00 am-9:00 pm , Friday 10:00 am-9:00 pm ",,,
Metro Pointe at South Coast,011,901 K South Coast Drive ,,Costa Mesa ,CA,92626,United States,714-979-8853,33.6887701,-117.8960618,"Saturday 10:00 am-9:00 pm , Sunday 10:00 am-8:00 pm , Monday 10:00 am-9:00 pm , Tuesday 10:00 am-9:00 pm , Wednesday 10:00 am-9:00 pm , Thursday 10:00 am-9:00 pm , Friday 10:00 am-9:00 pm ",,,
Roosevelt Field Mall,140,630 Old Country Rd ,,Garden City ,NY,11530,United States,516-248-0115,40.7399709,-73.6135758,"Saturday 10:00 am-9:30 pm , Sunday 11:00 am-7:00 pm , Monday 10:00 am-9:30 pm , Tuesday 10:00 am-9:30 pm , Wednesday 10:00 am-9:30 pm , Thursday 10:00 am-9:30 pm , Friday 10:00 am-9:30 pm ",,,
The Outlets at Orange,014,20 City Blvd. West Bld K Suite 406 ,,Orange ,CA,92868,United States,714-769-3300,33.7857112,-117.8940738,"Saturday 10:00 am-10:00 pm , Sunday 10:00 am-8:00 pm , Monday 10:00 am-9:00 pm , Tuesday 10:00 am-9:00 pm , Wednesday 10:00 am-9:00 pm , Thursday 10:00 am-9:00 pm , Friday 10:00 am-10:00 pm ",,,
Plaza West Covina,037,112 Plaza Dr. ,,West Covina ,CA,91790,United States,626-962-0017,34.0719592,-117.9346923,"Saturday 10:00 am-9:00 pm , Sunday 11:00 am-7:00 pm , Monday 10:00 am-9:00 pm , Tuesday 10:00 am-9:00 pm , Wednesday 10:00 am-9:00 pm , Thursday 10:00 am-9:00 pm , Friday 10:00 am-9:00 pm ",,,
Fullerton Metro Center,006,1429 South Harbor Blvd. ,,Fullerton ,CA,92832,United States,714-447-1171,33.8560605,-117.9243699,"Saturday 10:00 am-8:00 pm , Sunday 10:00 am-7:00 pm , Monday 10:00 am-9:00 pm , Tuesday 10:00 am-9:00 pm , Wednesday 10:00 am-9:00 pm , Thursday 10:00 am-9:00 pm , Friday 10:00 am-9:00 pm ",,,
The District at Tustin Legacy,075,2403 Park Ave. ,,Tustin ,CA,92782,United States,714-259-1173,33.6986977,-117.8281985,"Saturday 11:00 am-10:00 pm , Sunday 11:00 am-6:00 pm , Monday 11:00 am-9:00 pm , Tuesday 11:00 am-9:00 pm , Wednesday 11:00 am-9:00 pm , Thursday 11:00 am-9:00 pm , Friday 11:00 am-10:00 pm ",,,
Marketplace at Glendora,068,1327 East Gladstone St. ,,Glendora ,CA,91740,United States,909-394-7252,34.1139398,-117.8751627,"Saturday 10:00 am-9:00 pm , Sunday 10:00 am-7:00 pm , Monday 10:00 am-9:00 pm , Tuesday 10:00 am-9:00 pm , Wednesday 10:00 am-9:00 pm , Thursday 10:00 am-9:00 pm , Friday 10:00 am-9:00 pm ",,,
Brea Union Plaza,015,2365 East Imperial Hwy. ,,Brea ,CA,92821,United States,714-256-2817,33.9110558,-117.8706471,"Saturday 10:00 am-8:00 pm , Sunday 10:00 am-8:00 pm , Monday 10:00 am-9:00 pm , Tuesday 10:00 am-9:00 pm , Wednesday 10:00 am-9:00 pm , Thursday 10:00 am-9:00 pm , Friday 10:00 am-9:00 pm ",,,
Irvine Spectrum Center,031,723 Spectrum Center Drive ,,Irvine ,CA,92618,United States,949-788-0781,33.6493519,-117.745016,"Saturday 10:00am-10:00pm , Sunday 10:00am-8:00pm , Monday 10:00am-9:00pm , Tuesday 10:00am-9:00pm , Wednesday 10:00am-9:00pm , Thursday 10:00am-9:00pm , Friday 10:00am-10:00pm ",,,
Marketplace at Laguna Niguel - NOW OPEN,008,27150 Alicia Pkwy. ,,Laguna Niguel ,CA,92677,United States,949-448-0316,33.568412,-117.713606,"Saturday 10:00 am-8:00 pm , Sunday 10:00 am-7:00 pm , Monday 10:00 am-9:00 pm , Tuesday 10:00 am-9:00 pm , Wednesday 10:00 am-9:00 pm , Thursday 10:00 am-9:00 pm , Friday 10:00 am-9:00 pm ",,,
Mercantile East,094,27562 Antonio Pkwy. ,,Ladera Ranch ,CA,92694,United States,949-347-8823,33.5811275,-117.6314144,"Saturday 10:00 am-8:00 pm , Sunday 10:00 am-7:00 pm , Monday 10:00 am-9:00 pm , Tuesday 10:00 am-9:00 pm , Wednesday 10:00 am-9:00 pm , Thursday 10:00 am-9:00 pm , Friday 10:00 am-9:00 pm ",,,
Anaheim Hills Festival,019,8176 E. Santa Ana Canyon Rd. ,,Anaheim Hills ,CA,92808,United States,714-998-5975,33.8683671,-117.7485254,"Saturday 10:00 am-8:00 pm , Sunday 10:00 am-7:00 pm , Monday 10:00 am-9:00 pm , Tuesday 10:00 am-9:00 pm , Wednesday 10:00 am-9:00 pm , Thursday 10:00 am-9:00 pm , Friday 10:00 am-9:00 pm ",,,
Outlets at San Clemente,233,101 West Avenida Vista Hermosa # 154 ,,San Clemente ,CA,92672,United States,949-226-5314,33.439319,-117.628367,"Saturday 10:00am-8:00pm , Sunday 10:00am-8:00pm , Monday 10:00am-8:00pm , Tuesday 10:00am-8:00pm , Wednesday 10:00am-8:00pm , Thursday 10:00am-8:00pm , Friday 10:00am-8:00pm ",,,
Chino Spectrum Towne Center,027,3865 Grand Ave. ,,Chino ,CA,91710,United States,909-627-6060,33.9992126,-117.7200738,"Saturday 10:00 am-9:00 pm , Sunday 10:00 am-7:00 pm , Monday 10:00 am-9:00 pm , Tuesday 10:00 am-9:00 pm , Wednesday 10:00 am-9:00 pm , Thursday 10:00 am-9:00 pm , Friday 10:00 am-9:00 pm ",,,
Santa Margarita Town Center,010,30616 Santa Margarita Pkwy. # C103 ,,Rancho Santa Margarita ,CA,92688,United States,949-888-0318,33.6436608,-117.5950614,"Saturday 10:00 am-8:00 pm , Sunday 10:00 am-7:00 pm , Monday 10:00 am-9:00 pm , Tuesday 10:00 am-9:00 pm , Wednesday 10:00 am-9:00 pm , Thursday 10:00 am-9:00 pm , Friday 10:00 am-9:00 pm ",,,
Montclair Plaza,113,5144 E Montclair Plaza Lane ,,Montclair ,CA,91763,United States,909-624-4034,34.0872924,-117.6916042,"Saturday 10:00 am-8:30 pm , Sunday 11:00 am-7:00 pm , Monday 10:00 am-8:30 pm , Tuesday 10:00 am-8:30 pm , Wednesday 10:00 am-8:30 pm , Thursday 10:00 am-8:30 pm , Friday 10:00 am-8:30 pm ",,,
Colonies Crossroads,185,1257 E 19th Street ,,Upland ,CA,91784,United States,909-244-1942,34.1327554,-117.6373133,"Saturday 10:00 am-9:00 pm , Sunday 10:00 am-7:00 pm , Monday 10:00 am-9:00 pm , Tuesday 10:00 am-9:00 pm , Wednesday 10:00 am-9:00 pm , Thursday 10:00 am-9:00 pm , Friday 10:00 am-9:00 pm ",,,
Eastvale Gateway,069,12327 Limonite Ave. ,,Mira Loma ,CA,91752,United States,951-360-1240,33.9752487,-117.5515891,"Saturday 10:00 am-9:00 pm , Sunday 10:00 am-8:00 pm , Monday 10:00 am-9:00 pm , Tuesday 10:00 am-9:00 pm , Wednesday 10:00 am-9:00 pm , Thursday 10:00 am-9:00 pm , Friday 10:00 am-9:00 pm ",,,
El Camino North Shopping Center,033,2641 Vista Way ,,Oceanside ,CA,92054,United States,760-529-0129,33.18275,-117.330172,"Saturday 10:00 am-9:00 pm , Sunday 10:00 am-8:00 pm , Monday 10:00 am-9:00 pm , Tuesday 10:00 am-9:00 pm , Wednesday 10:00 am-9:00 pm , Thursday 10:00 am-9:00 pm , Friday 10:00 am-9:00 pm ",,,
The Forum Carlsbad,034,1911 Calle Barcelona Suite 150 ,,Carlsbad ,CA,92009,United States,760-635-0259,33.0720397,-117.2661157,"Saturday 10:00 am-9:00 pm , Sunday 11:00 am-7:00 pm , Monday 10:00 am-9:00 pm , Tuesday 10:00 am-9:00 pm , Wednesday 10:00 am-9:00 pm , Thursday 10:00 am-9:00 pm , Friday 10:00 am-9:00 pm ",,,
Victoria Gardens,141,12518 N. Mainstreet ,,Rancho Cucamonga ,CA,91739,United States,909-463-1292,34.1121287,-117.5301061,"Saturday 10:00 am-10:00 pm , Sunday 11:00 am-7:00 pm , Monday 10:00 am-9:00 pm , Tuesday 10:00 am-9:00 pm , Wednesday 10:00 am-9:00 pm , Thursday 10:00 am-9:00 pm , Friday 10:00 am-10:00 pm ",,,
Ontario Mills,012,One Mills Rd. Suite 118 ,,Ontario ,CA,91764,United States,909-481-7112,34.07638,-117.5553084,"Saturday 10:00 am-9:00 pm , Sunday 11:00 am-8:00 pm , Monday 10:00 am-9:00 pm , Tuesday 10:00 am-9:00 pm , Wednesday 10:00 am-9:00 pm , Thursday 10:00 am-9:00 pm , Friday 10:00 am-9:00 pm ",,,
Del Mar Highlands Town Center,129,12875 El Camino Real ,,San Diego ,CA,92130,United States,858-259-0015,32.9514523,-117.2341759,"Saturday 10:00 am-9:00 pm , Sunday 10:00 am-6:00 pm , Monday 10:00 am-9:00 pm , Tuesday 10:00 am-9:00 pm , Wednesday 10:00 am-9:00 pm , Thursday 10:00 am-9:00 pm , Friday 10:00 am-9:00 pm ",,,
Mission Valley Mall,051,1640 Camino Del Rio North Space # 310 ,,San Diego ,CA,92108,United States,619-294-3160,32.7677499,-117.1466784,"Saturday 10:00 am-9:00 pm , Sunday 11:00 am-6:00 pm , Monday 10:00 am-9:00 pm , Tuesday 10:00 am-9:00 pm , Wednesday 10:00 am-9:00 pm , Thursday 10:00 am-9:00 pm , Friday 10:00 am-9:00 pm ",,,
Galleria at Tyler,055,1115 Galleria at Tyler ,,Riverside ,CA,92503,United States,951-637-8428,33.910555,-117.457496,"Saturday 10:00am-9:00pm , Sunday 11:00am-7:00pm , Monday 10:00am-9:00pm , Tuesday 10:00am-9:00pm , Wednesday 10:00am-9:00pm , Thursday 10:00am-9:00pm , Friday 10:00am-9:00pm ",,,
Crossings at Corona,042,3417 Grand Oaks ,,Corona ,CA,92881,United States,951-898-9054,33.8259141,-117.5152264,"Saturday 10:00 am-9:00 pm , Sunday 10:00 am-7:00 pm , Monday 10:00 am-9:00 pm , Tuesday 10:00 am-9:00 pm , Wednesday 10:00 am-9:00 pm , Thursday 10:00 am-9:00 pm , Friday 10:00 am-9:00 pm ",,,
Santee Trolley Square,030,9880 Mission Gorge Rd. ,,Santee ,CA,92071,United States,619-562-2364,32.8418389,-116.9804722,"Saturday 10:00 am-9:00 pm , Sunday 10:00 am-7:00 pm , Monday 10:00 am-9:00 pm , Tuesday 10:00 am-9:00 pm , Wednesday 10:00 am-9:00 pm , Thursday 10:00 am-9:00 pm , Friday 10:00 am-9:00 pm ",,,
Escondido Promenade,021,,,Escondido ,CA,92029,United States,1266-F Auto Park Way,33.112013,-117.098083,"Saturday 10:00 am-9:00 pm , Sunday 10:00 am-8:00 pm , Monday 10:00 am-9:00 pm , Tuesday 10:00 am-9:00 pm , Wednesday 10:00 am-9:00 pm , Thursday 10:00 am-9:00 pm , Friday 10:00 am-9:00 pm ",,,
Mira Mesa Marketplace,127,10661 Westview Parkway ,,San Diego ,CA,92126,United States,858-790-0607,32.9146913,-117.1205883,"Saturday 10:00 am-9:00 pm , Sunday 10:00 am-6:00 pm , Monday 10:00 am-9:00 pm , Tuesday 10:00 am-9:00 pm , Wednesday 10:00 am-9:00 pm , Thursday 10:00 am-9:00 pm , Friday 10:00 am-9:00 pm ",,,
Plaza Bonita,236,3030 Plaza Bonita Rd. Suite # 2415 ,,National City ,CA,91950,United States,619-791-2121,32.656191,-117.065752,"Saturday 10:00am-9:00pm , Sunday 11:00am-7:00pm , Monday 10:00am-9:00pm , Tuesday 10:00am-9:00pm , Wednesday 10:00am-9:00pm , Thursday 10:00am-9:00pm , Friday 10:00am-9:00pm ",,,
Parkway Plaza,052,363 Parkway Plaza ,,El Cajon ,CA,92020,United States,619-401-0879,32.8045561,-116.9666668,"Saturday 10:00am-9:00pm , Sunday 11:00am-7:00pm , Monday 10:00am-9:00pm , Tuesday 10:00am-9:00pm , Wednesday 10:00am-9:00pm , Thursday 10:00am-9:00pm , Friday 10:00am-9:00pm ",,,
Moreno Valley Mall,214,22500 Town Circle ,,Moreno Valley ,CA,92553,United States,951-571-2007,33.9387359,-117.2713013,"Saturday 10:00 am-9:00 pm , Sunday 11:00 am-7:00 pm , Monday 10:00 am-9:00 pm , Tuesday 10:00 am-9:00 pm , Wednesday 10:00 am-9:00 pm , Thursday 10:00 am-9:00 pm , Friday 10:00 am-9:00 pm ",,,
Countryside Marketplace,104,30046 Haun Rd. ,,Menifee ,CA,92584,United States,951-723-1016,33.6842583,-117.1754524,"Saturday 10:00 am-8:00 pm , Sunday 11:00 am-6:00 pm , Monday 10:00 am-9:00 pm , Tuesday 10:00 am-9:00 pm , Wednesday 10:00 am-9:00 pm , Thursday 10:00 am-9:00 pm , Friday 10:00 am-9:00 pm ",,,
Inland Center,131,340 Inland Center Drive ,,San Bernardino ,CA,92408,United States,909-381-1850,34.0911672,-117.2950805,"Saturday 10:00 am-8:00 pm , Sunday 11:00 am-7:00 pm , Monday 10:00 am-9:00 pm , Tuesday 10:00 am-9:00 pm , Wednesday 10:00 am-9:00 pm , Thursday 10:00 am-9:00 pm , Friday 10:00 am-9:00 pm ",,,
Mall of Victor Valley,103,14400 Bear Valley Rd. ,,Victorville ,CA,92392,United States,760-955-7626,34.473356,-117.348231,"Saturday 10:00 am-8:00 pm , Sunday 11:00 am-7:00 pm , Monday 10:00 am-9:00 pm , Tuesday 10:00 am-9:00 pm , Wednesday 10:00 am-9:00 pm , Thursday 10:00 am-9:00 pm , Friday 10:00 am-9:00 pm ",,,
Woodbridge Center,123,400 Woodbridge Center Drive ,,Woodbridge ,NJ,07095,United States,732-634-2468,40.5544874,-74.3010227,"Saturday 10:00 am-9:30 pm , Sunday 11:00 am-7:00 pm , Monday 10:00 am-9:30 pm , Tuesday 10:00 am-9:30 pm , Wednesday 10:00 am-9:30 pm , Thursday 10:00 am-9:30 pm , Friday 10:00 am-9:30 pm ",,,
Promenade in Temecula,016,40820 Winchester Rd. Space 2230 ,,Temecula ,CA,92591,United States,951-296-0967,33.5247986,-117.1530743,"Saturday 10:00 am-9:00 pm , Sunday 11:00 am-7:00 pm , Monday 10:00 am-9:00 pm , Tuesday 10:00 am-9:00 pm , Wednesday 10:00 am-9:00 pm , Thursday 10:00 am-9:00 pm , Friday 10:00 am-9:00 pm ",,,
Ocean County Mall,190,1201 Hooper Ave ,,Toms River ,NJ,08753,United States,732-504-0024,39.9818099,-74.1774203,"Saturday 10:00 am-9:30 pm , Sunday 11:00 am-6:00 pm , Monday 10:00 am-9:30 pm , Tuesday 10:00 am-9:30 pm , Wednesday 10:00 am-9:30 pm , Thursday 10:00 am-9:30 pm , Friday 10:00 am-9:30 pm ",,,
Las Americas Premium Outlets,026,4051 Camino De La Plaza # C98 ,,San Ysidro ,CA,92173,United States,619-690-5200,32.544055,-117.040592,"Saturday 10:00 am-9:00 pm , Sunday 10:00 am-7:00 pm , Monday 10:00 am-9:00 pm , Tuesday 10:00 am-9:00 pm , Wednesday 10:00 am-9:00 pm , Thursday 10:00 am-9:00 pm , Friday 10:00 am-9:00 pm ",,,
Mountain Grove at Citrus Plaza,231,27461 San Bernardino Ave. ,,Redlands ,CA,92374,United States,909-801-3005,34.07725,-117.204377,"Saturday 10:00am-9:00pm , Sunday 11:00am-7:00pm , Monday 10:00am-9:00pm , Tuesday 10:00am-9:00pm , Wednesday 10:00am-9:00pm , Thursday 10:00am-9:00pm , Friday 10:00am-9:00pm ",,,
Hamilton Mall,111,4403 Black Horse Pike ,,Mays Landing ,NJ,08330,United States,609-272-7700,39.454204,-74.643297,"Saturday 10:00 am-9:00 pm , Sunday 11:00 am-6:00 pm , Monday 10:00 am-9:00 pm , Tuesday 10:00 am-9:00 pm , Wednesday 10:00 am-9:00 pm , Thursday 10:00 am-9:00 pm , Friday 10:00 am-9:00 pm ",,,
Freehold,105,3710 Route 9 ,,Freehold ,NJ,07728,United States,732-294-1900,40.2545404,-74.2973614,"Saturday 10:00 am-9:30 pm , Sunday 11:00 am-7:00 pm , Monday 10:00 am-9:30 pm , Tuesday 10:00 am-9:30 pm , Wednesday 10:00 am-9:30 pm , Thursday 10:00 am-9:30 pm , Friday 10:00 am-9:30 pm ",,,
Westfield Palm Desert,032,72840 Highway 111 ,,Space P303 Palm Desert ,CA,92260,United States,760-773-3791,33.7217943,-116.3943243,"Saturday 10:00 am-9:00 pm , Sunday 11:00 am-7:00 pm , Monday 10:00 am-8:00 pm , Tuesday 10:00 am-8:00 pm , Wednesday 10:00 am-8:00 pm , Thursday 10:00 am-8:00 pm , Friday 10:00 am-9:00 pm ",,,
Pembroke Lakes Mall,093,11401 Pines Blvd ,,Pembroke Pines ,FL,33026,United States,954-437-0698,26.010504,-80.30081,"Saturday 10:00 am-9:00 pm , Sunday 10:00 am-6:00 pm , Monday 10:00 am-9:00 pm , Tuesday 10:00 am-9:00 pm , Wednesday 10:00 am-9:00 pm , Thursday 10:00 am-9:00 pm , Friday 10:00 am-9:00 pm ",,,
The Palms at Town and Country,182,8740 Mills Drive ,,Miami ,FL,33183,United States,305-341-0203,25.687091,-80.3859854,"Saturday 10:00 am-9:00 pm , Sunday 12:00 pm-6:00 pm , Monday 10:00 am-9:00 pm , Tuesday 10:00 am-9:00 pm , Wednesday 10:00 am-9:00 pm , Thursday 10:00 am-9:00 pm , Friday 10:00 am-9:00 pm ",,,
Deptford Mall,115,1750 Deptford Center Road ,,Deptford ,NJ,08096,United States,856-384-6400,39.829273,-75.0979739,"Saturday 10:00 am-9:30 pm , Sunday 11:00 am-6:00 pm , Monday 10:00 am-9:30 pm , Tuesday 10:00 am-9:30 pm , Wednesday 10:00 am-9:30 pm , Thursday 10:00 am-9:30 pm , Friday 10:00 am-9:30 pm ",,,
Tower Shops,181,2150 S. University Drive ,,Davie ,FL,33324,United States,954-331-2988,26.0937422,-80.2511708,"Saturday 10:00 am-9:00 pm , Sunday 12:00 pm-6:00 pm , Monday 10:00 am-9:00 pm , Tuesday 10:00 am-9:00 pm , Wednesday 10:00 am-9:00 pm , Thursday 10:00 am-9:00 pm , Friday 10:00 am-9:00 pm ",,,
Gran Plaza Outlets,201,888 West 2nd Street ,,Calexico ,CA,92231,United States,760-618-7089,32.6657742,-115.5071308,"Saturday 10:00 am-9:00 pm , Sunday 10:00 am-7:00 pm , Monday 10:00 am-9:00 pm , Tuesday 10:00 am-9:00 pm , Wednesday 10:00 am-8:30 pm , Thursday 10:00 am-9:00 pm , Friday 10:00 am-9:00 pm ",,,
Coral Square,195,9541 W Atlantic Blvd ,,Coral Springs ,FL,33071,United States,954-688-5999,26.2385893,-80.2475985,"Saturday 10:00 am-9:00 pm , Sunday 12:00 pm-6:00 pm , Monday 10:00 am-9:00 pm , Tuesday 10:00 am-9:00 pm , Wednesday 10:00 am-9:00 pm , Thursday 10:00 am-9:00 pm , Friday 10:00 am-9:00 pm ",,,
Providence Town Center,171,40 Town Center Drive ,,Collegeville ,PA,19426,United States,610-831-2116,40.1939807,-75.4645198,"Saturday 10:00 am-9:30 pm , Sunday 11:00 am-6:00 pm , Monday 10:00 am-9:00 pm , Tuesday 10:00 am-9:00 pm , Wednesday 10:00 am-9:00 pm , Thursday 10:00 am-9:00 pm , Friday 10:00 am-9:00 pm ",,,
Lehigh Valley Mall,130,170 Lehigh Valley Mall ,,Whitehall ,PA,18052,United States,610-231-1554,40.6300603,-75.4830017,"Saturday 10:00 am-9:00 pm , Sunday 11:00 am-6:00 pm , Monday 10:00 am-9:00 pm , Tuesday 10:00 am-9:00 pm , Wednesday 10:00 am-9:00 pm , Thursday 10:00 am-9:00 pm , Friday 10:00 am-9:00 pm ",,,
Lynnhaven Mall,108,701 Lynnhaven Parkway ,,Virginia Beach ,VA,23452,United States,757-340-8480,36.817809,-76.0699998,"Saturday 10:00 am-9:00 pm , Sunday 11:00 am-6:00 pm , Monday 10:00 am-9:00 pm , Tuesday 10:00 am-9:00 pm , Wednesday 10:00 am-9:00 pm , Thursday 10:00 am-9:00 pm , Friday 10:00 am-9:00 pm ",,,
Eastview Mall,197,766 Eastview Mall ,,Victor ,NY,14564,United States,585-421-6014,43.0282887,-77.4486227,"Saturday 10:00 am-9:30 pm , Sunday 11:00 am-6:00 pm , Monday 10:00 am-9:30 pm , Tuesday 10:00 am-9:30 pm , Wednesday 10:00 am-9:30 pm , Thursday 10:00 am-9:30 pm , Friday 10:00 am-9:30 pm ",,,
Palm Beach Outlets,207,1731 Palm Beach Lakes Blvd. ,,West Palm Beach ,FL,33401,United States,561-227-0615,26.7239085,-80.0847149,"Saturday 10:00 am-9:00 pm , Sunday 11:00 am-7:00 pm , Monday 10:00 am-9:00 pm , Tuesday 10:00 am-9:00 pm , Wednesday 10:00 am-9:00 pm , Thursday 10:00 am-9:00 pm , Friday 10:00 am-9:00 pm ",,,
Boca Park Marketplace,039,8800 West Charleston Blvd. ,,Las Vegas ,NV,89117,United States,702-932-0148,36.159126,-115.2865658,"Saturday 10:00 am-9:00 pm , Sunday 10:00 am-7:00 pm , Monday 10:00 am-9:00 pm , Tuesday 10:00 am-9:00 pm , Wednesday 10:00 am-9:00 pm , Thursday 10:00 am-9:00 pm , Friday 10:00 am-9:00 pm ",,,
Rainbow Arroyo Commons,081,7235 Arroyo Crossings Pkwy. ,,Las Vegas ,NV,89113,United States,702-818-1640,36.0633145,-115.2505358,"Saturday 10:00 am-9:00 pm , Sunday 10:00 am-7:00 pm , Monday 10:00 am-9:00 pm , Tuesday 10:00 am-9:00 pm , Wednesday 10:00 am-9:00 pm , Thursday 10:00 am-9:00 pm , Friday 10:00 am-9:00 pm ",,,
Silverado Ranch Plaza,229,9863 S. Eastern Ave. ,,Las Vegas ,NV,89183,United States,702-854-7027,36.009375,-115.117016,"Saturday 10:00am-9:00pm , Sunday 11:00am-6:00pm , Monday 10:00am-8:00pm , Tuesday 10:00am-8:00pm , Wednesday 10:00am-8:00pm , Thursday 10:00am-8:00pm , Friday 10:00am-9:00pm ",,,
Meadows Mall,056,4300 Meadows Lane ,,Las Vegas ,NV,89107,United States,702-821-1416,36.1722752,-115.1966896,"Saturday 10:00 am-9:00 pm , Sunday 10:00 am-6:00 pm , Monday 10:00 am-9:00 pm , Tuesday 10:00 am-9:00 pm , Wednesday 10:00 am-9:00 pm , Thursday 10:00 am-9:00 pm , Friday 10:00 am-9:00 pm ",,,
Galleria at Sunset,038,1300 West Sunset Rd. ,,Henderson ,NV,89014,United States,702-454-1275,36.063823,-115.0404429,"Saturday 10:00 am-9:00 pm , Sunday 11:00 am-6:00 pm , Monday 10:00 am-9:00 pm , Tuesday 10:00 am-9:00 pm , Wednesday 10:00 am-9:00 pm , Thursday 10:00 am-9:00 pm , Friday 10:00 am-9:00 pm ",,,
Westfield Annapolis,106,1170 Annapolis Mall ,,Annapolis ,MD,21401,United States,410-266-0095,38.9877219,-76.5446473,"Saturday 10:00 am-9:00 pm , Sunday 11:00 am-7:00 pm , Monday 10:00 am-9:30 pm , Tuesday 10:00 am-9:30 pm , Wednesday 10:00 am-9:30 pm , Thursday 10:00 am-9:30 pm , Friday 10:00 am-9:30 pm ",,,
Patrick Henry Mall,112,12300 Jefferson Ave ,,Newport News ,VA,23602,United States,757-249-2346,37.112494,-76.495875,"Saturday 10:00 am-9:00 pm , Sunday 12:00 pm-6:00 pm , Monday 10:00 am-9:00 pm , Tuesday 10:00 am-9:00 pm , Wednesday 10:00 am-9:00 pm , Thursday 10:00 am-9:00 pm , Friday 10:00 am-9:00 pm ",,,
Melbourne Square,073,1700 West New Haven Blvd. ,,Melbourne ,FL,32904,United States,321-951-9282,28.080137,-80.6509899,"Saturday 10:00 am-9:00 pm , Sunday 12:00 pm-6:00 pm , Monday 10:00 am-9:00 pm , Tuesday 10:00 am-9:00 pm , Wednesday 10:00 am-9:00 pm , Thursday 10:00 am-9:00 pm , Friday 10:00 am-9:00 pm ",,,
Potomac Mills,139,2700 Potomac Mills Circle ,,Woodbridge ,VA,22192,United States,703-490-3673,38.644076,-77.292638,"Saturday 10:00 am-9:00 pm , Sunday 11:00 am-6:00 pm , Monday 10:00 am-9:00 pm , Tuesday 10:00 am-9:00 pm , Wednesday 10:00 am-9:00 pm , Thursday 10:00 am-9:00 pm , Friday 10:00 am-9:00 pm ",,,
Central park,186,1270 Carl D. Silver Parkway ,,Fredericksburg ,VA,22401,United States,540-736-6005,38.3012028,-77.508238,"Saturday 10:00 am-9:00 pm , Sunday 11:00 am-6:00 pm , Monday 10:00 am-9:00 pm , Tuesday 10:00 am-9:00 pm , Wednesday 10:00 am-9:00 pm , Thursday 10:00 am-9:00 pm , Friday 10:00 am-9:00 pm ",,,
Jacksonville Mall,159,377 Jacksonville Mall ,,Jacksonville ,NC,28546,United States,910-353-3891,34.7540524,-77.4302414,"Saturday 10:00 am-9:00 pm , Sunday 12:00 pm-6:00 pm , Monday 10:00 am-9:00 pm , Tuesday 10:00 am-9:00 pm , Wednesday 10:00 am-9:00 pm , Thursday 10:00 am-9:00 pm , Friday 10:00 am-9:00 pm ",,,
Waterford Lakes Town Center,079,343 North Alafaya Trail ,,Orlando ,FL,32828,United States,407-384-8445,28.5533578,-81.2054764,"Saturday 10:00 am-10:00 pm , Sunday 11:00 am-7:00 pm , Monday 10:00 am-9:00 pm , Tuesday 10:00 am-9:00 pm , Wednesday 10:00 am-9:00 pm , Thursday 10:00 am-9:00 pm , Friday 10:00 am-10:00 pm ",,,
Loop West,095,2613 West Osceola Pkwy. ,,Kissimmee ,FL,34741,United States,407-847-0900,28.341967,-81.4308998,"Saturday 10:00 am-9:00 pm , Sunday 11:00 am-6:00 pm , Monday 10:00 am-9:00 pm , Tuesday 10:00 am-9:00 pm , Wednesday 10:00 am-9:00 pm , Thursday 10:00 am-9:00 pm , Friday 10:00 am-9:00 pm ",,,
Florida Mall,096,8001 South Orange Blossom Trail ,,Orlando ,FL,32809,United States,407-852-5810,28.44511,-81.3973188,"Saturday 10:00 am-10:00 pm , Sunday 12:00 pm-8:00 pm , Monday 10:00 am-9:00 pm , Tuesday 10:00 am-9:00 pm , Wednesday 10:00 am-9:00 pm , Thursday 10:00 am-9:00 pm , Friday 10:00 am-9:00 pm ",,,
Prime Outlets Orlando,119,4967 International Drive ,,Orlando ,FL,32819,United States,407-903-0584,28.4723534,-81.4504764,"Saturday 10:00 am-11:00 pm , Sunday 10:00 am-9:00 pm , Monday 10:00 am-11:00 pm , Tuesday 10:00 am-11:00 pm , Wednesday 10:00 am-11:00 pm , Thursday 10:00 am-11:00 pm , Friday 10:00 am-11:00 pm ",,,
Lakeland Square,132,3800 US Highway 98 North ,,Lakeland ,FL,33809,United States,863-853-4989,28.0911629,-81.9739228,"Saturday 10:00 am-9:00 pm , Sunday 12:00 pm-6:00 pm , Monday 10:00 am-9:00 pm , Tuesday 10:00 am-9:00 pm , Wednesday 10:00 am-9:00 pm , Thursday 10:00 am-9:00 pm , Friday 10:00 am-9:00 pm ",,,
Seminole Towne Center,090,239 Towne Center Circle ,,Sanford ,FL,32771,United States,407-321-0711,28.8038695,-81.3408817,"Saturday 10:00 am-9:00 pm , Sunday 12:00 pm-6:00 pm , Monday 10:00 am-9:00 pm , Tuesday 10:00 am-9:00 pm , Wednesday 10:00 am-9:00 pm , Thursday 10:00 am-9:00 pm , Friday 10:00 am-9:00 pm ",,,
Brandon Mall,072,955 Brandon Town Center ,,Brandon ,FL,33511,United States,813-689-3537,27.936224,-82.298595,"Saturday 10:00 am-9:00 pm , Sunday 11:00 am-6:00 pm , Monday 10:00 am-9:00 pm , Tuesday 10:00 am-9:00 pm , Wednesday 10:00 am-9:00 pm , Thursday 10:00 am-9:00 pm , Friday 10:00 am-9:00 pm ",,,
Tampa Premium Outlets,237,2312 Grand Cypress Drive ,,Lutz ,FL,33559,United States,813-345-3000,28.216479,-82.374687,"Saturday 10:00 am-9:00 pm , Sunday 11:00 am-6:00 pm , Monday 10:00 am-9:00 pm , Tuesday 10:00 am-9:00 pm , Wednesday 10:00 am-9:00 pm , Thursday 10:00 am-9:00 pm , Friday 10:00 am-9:00 pm ",,,
The Shops at Wiregrass,098,28163 Paseo Dr. ,,Wesley Chapel ,FL,33544,United States,813-994-9383,28.1887173,-82.349352,"Saturday 10:00 am-9:00 pm , Sunday 12:00 pm-6:00 pm , Monday 10:00 am-9:00 pm , Tuesday 10:00 am-9:00 pm , Wednesday 10:00 am-9:00 pm , Thursday 10:00 am-9:00 pm , Friday 10:00 am-9:00 pm ",,,
Tyrone Square,087,6933 Tyrone Square ,,St. Petersburg ,FL,33710,United States,727-341-6484,27.794911,-82.7317288,"Saturday 10:00 am-9:00 pm , Sunday 11:00 am-7:00 pm , Monday 10:00 am-9:00 pm , Tuesday 10:00 am-9:00 pm , Wednesday 10:00 am-9:00 pm , Thursday 10:00 am-9:00 pm , Friday 10:00 am-9:00 pm ",,,
Clearwater Countryside Mall,101,27001 US Highway 19 North ,,Clearwater ,FL,33761,United States,727-791-6396,28.017171,-82.730909,"Saturday 10:00 am-9:00 pm , Sunday 12:00 pm-6:00 pm , Monday 10:00 am-9:00 pm , Tuesday 10:00 am-9:00 pm , Wednesday 10:00 am-9:00 pm , Thursday 10:00 am-9:00 pm , Friday 10:00 am-9:00 pm ",,,
Lake Pleasant,084,24640 North Lake Pleasant Pkwy. ,,Peoria ,AZ,85383,United States,623-825-2996,33.707562,-112.273107,"Saturday 10:00 am-8:00 pm , Sunday 11:00 am-7:00 pm , Monday 10:00 am-9:00 pm , Tuesday 10:00 am-9:00 pm , Wednesday 10:00 am-9:00 pm , Thursday 10:00 am-9:00 pm , Friday 10:00 am-9:00 pm ",,,
Arrowhead Towne Center,048,7700 West Arrowhead Towne Center ,,Glendale ,AZ,85308,United States,623-979-9031,33.6415373,-112.2264227,"Saturday 10:00 am-9:00 pm , Sunday 11:00 am-6:00 pm , Monday 10:00 am-9:00 pm , Tuesday 10:00 am-9:00 pm , Wednesday 10:00 am-9:00 pm , Thursday 10:00 am-9:00 pm , Friday 10:00 am-9:00 pm ",,,
Tanger Outlets at Westgate,225,6800 N. 95th Ave. ,,Glendale ,AZ,85305,United States,623-337-8321,33.534859,-112.266495,"Saturday 9:00 am-9:00 pm , Sunday 11:00 am-7:00 pm , Monday 9:00 am-9:00 pm , Tuesday 9:00 am-9:00 pm , Wednesday 9:00 am-9:00 pm , Thursday 9:00 am-9:00 pm , Friday 9:00 am-9:00 pm ",,,
Crossroads Plaza,169,301 Crossroads Blvd ,,Cary ,NC,27518,United States,919-851-0547,35.7608678,-78.7389099,"Saturday 10:00 am-9:00 pm , Sunday 12:00 pm-6:00 pm , Monday 10:00 am-9:00 pm , Tuesday 10:00 am-9:00 pm , Wednesday 10:00 am-9:00 pm , Thursday 10:00 am-9:00 pm , Friday 10:00 am-9:00 pm ",,,
Cross Creek Mall,208,109 Cross Creek Mall ,,Fayetteville ,NC,28303,United States,910-364-0089,35.072285,-78.960733,"Saturday 10:00 am-9:00 pm , Sunday 12:00 pm-6:00 pm , Monday 10:00 am-9:00 pm , Tuesday 10:00 am-9:00 pm , Wednesday 10:00 am-9:00 pm , Thursday 10:00 am-9:00 pm , Friday 10:00 am-9:00 pm ",,,
Station Park,148,170 N. Station Parkway ,,Farmington ,UT,84025,United States,801-451-1988,40.9878501,-111.9108518,"Saturday 10:00 am-9:00 pm , Sunday 12:00 pm-6:00 pm , Monday 10:00 am-9:00 pm , Tuesday 10:00 am-9:00 pm , Wednesday 10:00 am-9:00 pm , Thursday 10:00 am-9:00 pm , Friday 10:00 am-9:00 pm ",,,
Happy Valley Shopping Center,060,2501 West Happy Valley Rd. ,,Phoenix ,AZ,85027,United States,623-581-6673,33.7085241,-112.112914,"Saturday 10:00 am-8:00 pm , Sunday 10:00 am-7:00 pm , Monday 10:00 am-9:00 pm , Tuesday 10:00 am-9:00 pm , Wednesday 10:00 am-9:00 pm , Thursday 10:00 am-9:00 pm , Friday 10:00 am-9:00 pm ",,,
Arizona Mills,050,5000 South Arizona Mills Circle ,,Tempe ,AZ,85282,United States,480-831-3864,33.3852846,-111.964558,"Saturday 10:00 am-9:00 pm , Sunday 11:00 am-6:00 pm , Monday 10:00 am-9:00 pm , Tuesday 10:00 am-9:00 pm , Wednesday 10:00 am-9:00 pm , Thursday 10:00 am-9:00 pm , Friday 10:00 am-9:00 pm ",,,
Chandler Fashion Center,062,3111 West Chandler Blvd. ,,Chandler ,AZ,85226,United States,480-722-1741,33.3022462,-111.897967,"Saturday 10:00 am-9:00 pm , Sunday 11:00 am-6:00 pm , Monday 10:00 am-9:00 pm , Tuesday 10:00 am-9:00 pm , Wednesday 10:00 am-9:00 pm , Thursday 10:00 am-9:00 pm , Friday 10:00 am-9:00 pm ",,,
Jordan Landing ,158,3746 W Center Park Drive ,,West Jordan ,UT,84084,United States,801-280-5099,40.6200255,-111.982897,"Saturday 10:00 am-9:00 pm , Sunday 11:00 am-6:00 pm , Monday 10:00 am-9:00 pm , Tuesday 10:00 am-9:00 pm , Wednesday 10:00 am-9:00 pm , Thursday 10:00 am-9:00 pm , Friday 10:00 am-9:00 pm ",,,
Tempe Marketplace,076,2000 East Rio Salado Pkwy. ,,Tempe ,AZ,85281,United States,480-894-5329,33.4329724,-111.9043028,"Saturday 10:00 am-9:30 pm , Sunday 11:00 am-6:00 pm , Monday 10:00 am-9:00 pm , Tuesday 10:00 am-9:00 pm , Wednesday 10:00 am-9:00 pm , Thursday 10:00 am-9:00 pm , Friday 10:00 am-9:30 pm ",,,
Paradise Valley Mall,046,4550 East Cactus Rd. ,,Phoenix ,AZ,85032,United States,602-867-6673,33.5990432,-111.9812072,"Saturday 10:00 am-9:00 pm , Sunday 11:00 am-6:00 pm , Monday 10:00 am-9:00 pm , Tuesday 10:00 am-9:00 pm , Wednesday 10:00 am-9:00 pm , Thursday 10:00 am-9:00 pm , Friday 10:00 am-9:00 pm ",,,
Desert Ridge Marketplace,145,21001 N Tatum Blvd ,,Phoenix ,AZ,85050,United States,480-563-6413,33.678615,-111.9746066,"Saturday 10:00 am-9:00 pm , Sunday 11:00 am-6:00 pm , Monday 10:00 am-9:00 pm , Tuesday 10:00 am-9:00 pm , Wednesday 10:00 am-9:00 pm , Thursday 10:00 am-9:00 pm , Friday 10:00 am-9:00 pm ",,,
Millcreek Mall,196,185 Millcreek Mall ,,Erie ,PA,16565,United States,814-844-6012,42.0689173,-80.1041419,"Saturday 10:00 am-9:00 pm , Sunday 11:00 am-6:00 pm , Monday 10:00 am-9:00 pm , Tuesday 10:00 am-9:00 pm , Wednesday 10:00 am-9:00 pm , Thursday 10:00 am-9:00 pm , Friday 10:00 am-9:00 pm ",,,
The Promenade at Casa Grande,089,1004 North Promenade Pkwy. ,,Casa Grande ,AZ,85294,United States,520-836-1288,32.88385,-111.68175,"Saturday 10:00 am-9:00 pm , Sunday 11:00 am-7:00 pm , Monday 10:00 am-9:00 pm , Tuesday 10:00 am-9:00 pm , Wednesday 10:00 am-9:00 pm , Thursday 10:00 am-9:00 pm , Friday 10:00 am-9:00 pm ",,,
Promenade at Frank Lloyd Wright Blvd,041,16455 North Scottsdale Rd. ,,Scottsdale ,AZ,85254,United States,480-368-9266,33.6357206,-111.9234645,"Saturday 10:00 am-8:00 pm , Sunday 10:00 am-7:00 pm , Monday 10:00 am-9:00 pm , Tuesday 10:00 am-9:00 pm , Wednesday 10:00 am-9:00 pm , Thursday 10:00 am-9:00 pm , Friday 10:00 am-9:00 pm ",,,
Crossroads Towne Center,045,3885 South Gilbert Rd. ,,Gilbert ,AZ,85297,United States,480-821-4034,33.279265,-111.789624,"Saturday 10:00 am-8:00 pm , Sunday 10:00 am-7:00 pm , Monday 10:00 am-9:00 pm , Tuesday 10:00 am-9:00 pm , Wednesday 10:00 am-9:00 pm , Thursday 10:00 am-9:00 pm , Friday 10:00 am-9:00 pm ",,,
Commons at Southtowne,175,10400 South State Street ,,Sandy ,UT,84070,United States,801-619-3529,40.561961,-111.8908075,"Saturday 10:00 am-9:00 pm , Sunday 12:00 pm-6:00 pm , Monday 10:00 am-9:00 pm , Tuesday 10:00 am-9:00 pm , Wednesday 10:00 am-9:00 pm , Thursday 10:00 am-9:00 pm , Friday 10:00 am-9:00 pm ",,,
Gilbert Gateway Towne Center,044,5034 South Power Rd. ,,Mesa ,AZ,85212,United States,480-988-7081,33.324,-111.687,"Saturday 10:00 am-8:00 pm , Sunday 10:00 am-7:00 pm , Monday 10:00 am-9:00 pm , Tuesday 10:00 am-9:00 pm , Wednesday 10:00 am-9:00 pm , Thursday 10:00 am-9:00 pm , Friday 10:00 am-9:00 pm ",,,
Queen Creek,083,21536 South Ellsworth Loop Rd. ,,Queen Creek ,AZ,85242,United States,480-888-7913,33.252973,-111.639716,"Saturday 10:00 am-8:00 pm , Sunday 10:00 am-7:00 pm , Monday 10:00 am-9:00 pm , Tuesday 10:00 am-9:00 pm , Wednesday 10:00 am-9:00 pm , Thursday 10:00 am-9:00 pm , Friday 10:00 am-9:00 pm ",,,
Tucson Premium Outlets,234,6401 West Marana Center Blvd. # 630 ,,Tucson ,AZ,85653,United States,520-239-1930,32.449404,-111.212975,"Saturday 10:00am-9:00pm , Sunday 10:00am-7:00pm , Monday 10:00am-9:00pm , Tuesday 10:00am-9:00pm , Wednesday 10:00am-9:00pm , Thursday 10:00am-9:00pm , Friday 10:00am-9:00pm ",,,
Superstition Springs Center,047,6555 East Southern Ave. ,,Mesa ,AZ,85206,United States,480-830-1095,33.393763,-111.688955,"Saturday 10:00 am-9:00 pm , Sunday 11:00 am-6:00 pm , Monday 10:00 am-9:00 pm , Tuesday 10:00 am-9:00 pm , Wednesday 10:00 am-9:00 pm , Thursday 10:00 am-9:00 pm , Friday 10:00 am-9:00 pm ",,,
Tucson Spectrum,091,5145 South Calle Santa Cruz ,,Tucson ,AZ,85706,United States,520-741-1845,32.157169,-110.9907492,"Saturday 10:00 am-9:00 pm , Sunday 11:00 am-6:00 pm , Monday 10:00 am-9:00 pm , Tuesday 10:00 am-9:00 pm , Wednesday 10:00 am-9:00 pm , Thursday 10:00 am-9:00 pm , Friday 10:00 am-9:00 pm ",,,
Tucson Mall,074,4500 North Oracle Rd. ,,Tucson ,AZ,85705,United States,520-293-3803,32.290562,-110.973005,"Saturday 10:00 am-9:00 pm , Sunday 12:00 pm-6:00 pm , Monday 10:00 am-9:00 pm , Tuesday 10:00 am-9:00 pm , Wednesday 10:00 am-9:00 pm , Thursday 10:00 am-9:00 pm , Friday 10:00 am-9:00 pm ",,,
Orange Park Mall,086,1910 Wells Rd. ,,Orange Park ,FL,32073,United States,904-264-0892,30.1842718,-81.736452,"Saturday 10:00 am-9:00 pm , Sunday 12:00 pm-6:00 pm , Monday 10:00 am-9:00 pm , Tuesday 10:00 am-9:00 pm , Wednesday 10:00 am-9:00 pm , Thursday 10:00 am-9:00 pm , Friday 10:00 am-9:00 pm ",,,
Southern Park Mall,164,7401 Market Street ,,Youngstown ,OH,44512,United States,330-729-1330,41.021169,-80.659529,"Saturday 10:00 am-9:00 pm , Sunday 12:00 pm-6:00 pm , Monday 10:00 am-9:00 pm , Tuesday 10:00 am-9:00 pm , Wednesday 10:00 am-9:00 pm , Thursday 10:00 am-9:00 pm , Friday 10:00 am-9:00 pm ",,,
Park Place Mall,124,5870 East Broadway ,,Tucson ,AZ,85711,United States,520-512-5502,32.2216089,-110.8676456,"Saturday 10:00 am-9:00 pm , Sunday 12:00 pm-6:00 pm , Monday 10:00 am-9:00 pm , Tuesday 10:00 am-9:00 pm , Wednesday 10:00 am-9:00 pm , Thursday 10:00 am-9:00 pm , Friday 10:00 am-9:00 pm ",,,
Charlotte Premium Outlets,215,5512 New Fashion Way ,,Charlotte ,NC,28217,United States,704-998-6128,35.171889,-80.9714935,"Saturday 10:00 am-9:00 pm , Sunday 10:00 am-7:00 pm , Monday 10:00 am-9:00 pm , Tuesday 10:00 am-9:00 pm , Wednesday 10:00 am-9:00 pm , Thursday 10:00 am-9:00 pm , Friday 10:00 am-9:00 pm ",,,
SouthPark Mall,238,428 SouthPark Center ,,Strongsville ,OH,44136,United States,440-783-3751,41.310994,-81.817843,"Saturday 10:00am-9:00pm , Sunday 11:00am-6:00pm , Monday 10:00am-9:00pm , Tuesday 10:00am-9:00pm , Wednesday 10:00am-9:00pm , Thursday 10:00am-9:00pm , Friday 10:00am-9:00pm ",,,
Lakeside Mall,200,14600 Lakeside Circle ,,Sterling Heights ,MI,48313,United States,586-843-2025,42.622964,-82.985815,"Saturday 10:00 am-9:00 pm , Sunday 12:00 pm-6:00 pm , Monday 10:00 am-9:00 pm , Tuesday 10:00 am-9:00 pm , Wednesday 10:00 am-9:00 pm , Thursday 10:00 am-9:00 pm , Friday 10:00 am-9:00 pm ",,,
Baldwin Commons,162,4812 South Baldwin Road ,,Orion Township ,MI,48359,United States,248-393-1528,42.7099715,-83.307272,"Saturday 10:00 am-9:00 pm , Sunday 11:00 am-6:00 pm , Monday 10:00 am-9:00 pm , Tuesday 10:00 am-9:00 pm , Wednesday 10:00 am-9:00 pm , Thursday 10:00 am-9:00 pm , Friday 10:00 am-9:00 pm ",,,
Cielo Vista Mall,178,8401 Gateway Blvd W ,,El Paso ,TX,79925,United States,915-771-0012,31.775954,-106.377788,"Saturday 10:00 am-9:00 pm , Sunday 12:00 pm-6:00 pm , Monday 10:00 am-9:00 pm , Tuesday 10:00 am-9:00 pm , Wednesday 10:00 am-9:00 pm , Thursday 10:00 am-9:00 pm , Friday 10:00 am-9:00 pm ",,,
Pier Park,085,201 Bluefish Dr. ,,Panama City Beach ,FL,32413,United States,850-230-2655,30.220319,-85.8702799,"Saturday 10:00 am-9:00 pm , Sunday 12:00 pm-7:00 pm , Monday 10:00 am-9:00 pm , Tuesday 10:00 am-9:00 pm , Wednesday 10:00 am-9:00 pm , Thursday 10:00 am-9:00 pm , Friday 10:00 am-9:00 pm ",,,
Easton Market,193,3730 Easton Market ,,Columbus ,OH,43219,United States,614-934-6233,40.0512763,-82.9206276,"Saturday 10:00 am-9:00 pm , Sunday 12:00 pm-6:00 pm , Monday 10:00 am-9:00 pm , Tuesday 10:00 am-9:00 pm , Wednesday 10:00 am-9:00 pm , Thursday 10:00 am-9:00 pm , Friday 10:00 am-9:00 pm ",,,
The Greene,192,4453 Glengarry Drive ,,Beavercreek ,OH,45440,United States,937-912-3527,39.6938529,-84.1047806,"Saturday 9:00 am-10:00 pm , Sunday 12:00 pm-6:00 pm , Monday 10:00 am-9:00 pm , Tuesday 10:00 am-9:00 pm , Wednesday 10:00 am-9:00 pm , Thursday 10:00 am-9:00 pm , Friday 10:00 am-9:00 pm ",,,
RiverTown Crossings,232,3700 RiverTown Parkway # 2054 ,,Grandville ,MI,49418,United States,616-552-6365,42.879803,-85.754384,"Saturday 10:00 am-9:00 pm , Sunday 11:00 am-6:00 pm , Monday 10:00 am-9:00 pm , Tuesday 10:00 am-9:00 pm , Wednesday 10:00 am-9:00 pm , Thursday 10:00 am-9:00 pm , Friday 10:00 am-9:00 pm ",,,
Mall of Georgia,220,3333 Buford Drive ,,Buford ,GA,30519,United States,678-288-0076,34.065175,-83.984964,"Saturday 10:00 am-9:00 pm , Sunday 12:00 pm-6:00 pm , Monday 10:00 am-9:00 pm , Tuesday 10:00 am-9:00 pm , Wednesday 10:00 am-9:00 pm , Thursday 10:00 am-9:00 pm , Friday 10:00 am-9:00 pm ",,,
North Point Mall,163,2164 North Point Circle ,,Alpharetta ,GA,30022,United States,770-569-0184,34.0499867,-84.2975888,"Saturday 10:00 am-9:00 pm , Sunday 12:00 pm-7:00 pm , Monday 10:00 am-9:00 pm , Tuesday 10:00 am-9:00 pm , Wednesday 10:00 am-9:00 pm , Thursday 10:00 am-9:00 pm , Friday 10:00 am-9:00 pm ",,,
Bay Park Square ,150,110A Bay Park Square ,,Green Bay ,WI,54304,United States,920-498-3421,44.4845243,-88.0674359,"Saturday 10:00 am-9:00 pm , Sunday 11:00 am-6:00 pm , Monday 10:00 am-9:00 pm , Tuesday 10:00 am-9:00 pm , Wednesday 10:00 am-9:00 pm , Thursday 10:00 am-9:00 pm , Friday 10:00 am-9:00 pm ",,,
Cordova Mall,092,5100 North 9th Ave. ,,Pensacola ,FL,32504,United States,850-477-4754,30.473695,-87.206432,"Saturday 10:00 am-9:00 pm , Sunday 12:00 pm-6:00 pm , Monday 10:00 am-9:00 pm , Tuesday 10:00 am-9:00 pm , Wednesday 10:00 am-9:00 pm , Thursday 10:00 am-9:00 pm , Friday 10:00 am-9:00 pm ",,,
La Palmera,240,5488 S. Padre Island Dr. # 1538 ,,Corpus Christi ,TX,78411,United States,361-792-7632,27.711338,-97.37345,"Saturday 10:00am-9:00pm , Sunday 11:00am-7:00pm , Monday 10:00am-9:00pm , Tuesday 10:00am-9:00pm , Wednesday 10:00am-9:00pm , Thursday 10:00am-9:00pm , Friday 10:00am-9:00pm ",,,
Glenbrook Square,205,4201 Coldwater Rd ,,Fort Wayne ,IN,46805,United States,260-310-6510,41.1169662,-85.1355063,"Saturday 10:00 am-9:00 pm , Sunday 11:00 am-6:00 pm , Monday 10:00 am-9:00 pm , Tuesday 10:00 am-9:00 pm , Wednesday 10:00 am-9:00 pm , Thursday 10:00 am-9:00 pm , Friday 10:00 am-9:00 pm ",,,
University Park Mall,189,6501 N. Grape Road ,,Mishawaka ,IN,46545,United States,574-400-4174,41.7186752,-86.1902762,"Saturday 10:00 am-9:00 pm , Sunday 11:00 am-6:00 pm , Monday 10:00 am-9:00 pm , Tuesday 10:00 am-9:00 pm , Wednesday 10:00 am-9:00 pm , Thursday 10:00 am-9:00 pm , Friday 10:00 am-9:00 pm ",,,
Coronado Center,187,6600 Menaul Blvd. NE ,,Albuquerque ,NM,87110,United States,505-433-6368,35.1079129,-106.5742268,"Saturday 10:00 am-9:00 pm , Sunday 12:00 pm-6:00 pm , Monday 10:00 am-9:00 pm , Tuesday 10:00 am-9:00 pm , Wednesday 10:00 am-9:00 pm , Thursday 10:00 am-9:00 pm , Friday 10:00 am-9:00 pm ",,,
The Terrace,191,2220 Hamilton Place ,,Chattanooga ,TN,37421,United States,423-242-9633,35.0410294,-85.1545368,"Saturday 10:00 am-9:00 pm , Sunday 12:00 pm-6:00 pm , Monday 10:00 am-9:00 pm , Tuesday 10:00 am-9:00 pm , Wednesday 10:00 am-9:00 pm , Thursday 10:00 am-9:00 pm , Friday 10:00 am-9:00 pm ",,,
Southridge Mall,177,5300 South 76th Street ,,Greendale ,WI,53129,United States,414-421-2596,42.9481131,-88.0044361,"Saturday 10:00 am-9:00 pm , Sunday 11:00 am-6:00 pm , Monday 10:00 am-9:00 pm , Tuesday 10:00 am-9:00 pm , Wednesday 10:00 am-9:00 pm , Thursday 10:00 am-9:00 pm , Friday 10:00 am-9:00 pm ",,,
Brookfield Square Mall,176,95 N. Moorland Road ,,Brookfield ,WI,53005,United States,262-641-8039,43.0324594,-88.1088026,"Saturday 10:00 am-9:00 pm , Sunday 11:00 am-6:00 pm , Monday 10:00 am-9:00 pm , Tuesday 10:00 am-9:00 pm , Wednesday 10:00 am-9:00 pm , Thursday 10:00 am-9:00 pm , Friday 10:00 am-9:00 pm ",,,
Gurnee Mills,202,6170 W. Grand Ave ,,Gurnee ,IL,60031,United States,847-672-2036,42.3832942,-87.9550674,"Saturday 10:00 am-9:30 pm , Sunday 11:00 am-7:00 pm , Monday 10:00 am-9:00 pm , Tuesday 10:00 am-9:00 pm , Wednesday 10:00 am-9:00 pm , Thursday 10:00 am-9:00 pm , Friday 10:00 am-9:00 pm ",,,
Castleton Square Mall,170,6020 East 82nd Street ,,Indianapolis ,IN,46250,United States,317-558-4033,39.9056707,-86.0666123,"Saturday 10:00 am-9:00 pm , Sunday 11:00 am-6:00 pm , Monday 10:00 am-9:00 pm , Tuesday 10:00 am-9:00 pm , Wednesday 10:00 am-9:00 pm , Thursday 10:00 am-9:00 pm , Friday 10:00 am-9:00 pm ",,,
FlatIron Crossing,136,1 W. Flatiron Crossing Drive ,,Broomfield ,CO,80021,United States,303-466-3135,39.930523,-105.135122,"Saturday 10:00 am-9:00 pm , Sunday 11:00 am-6:00 pm , Monday 10:00 am-9:00 pm , Tuesday 10:00 am-9:00 pm , Wednesday 10:00 am-9:00 pm , Thursday 10:00 am-9:00 pm , Friday 10:00 am-9:00 pm ",,,
Twin Cities Premium Outlets,219,3995 Eagan Outlets Pkwy ,,Eagan ,MN,55122,United States,952-229-5045,44.8150585,-93.2140696,"Saturday 10:00 am-9:00 pm , Sunday 10:00 am-7:00 pm , Monday 10:00 am-9:00 pm , Tuesday 10:00 am-9:00 pm , Wednesday 10:00 am-9:00 pm , Thursday 10:00 am-9:00 pm , Friday 10:00 am-9:00 pm ",,,
Village Crossing,194,5415 Touhy Ave ,,Skokie ,IL,60077,United States,847-779-2722,42.0118185,-87.7628074,"Saturday 10:00 am-9:00 pm , Sunday 11:00 am-6:00 pm , Monday 10:00 am-9:00 pm , Tuesday 10:00 am-9:00 pm , Wednesday 10:00 am-9:00 pm , Thursday 10:00 am-9:00 pm , Friday 10:00 am-9:00 pm ",,,
Mall of America,160,246 North Garden ,,Bloomington ,MN,55425,United States,952-814-1035,44.855576,-93.242104,"Saturday 9:00 am-9:30 pm , Sunday 10:00 am-7:00 pm , Monday 10:00 am-9:30 pm , Tuesday 10:00 am-9:30 pm , Wednesday 10:00 am-9:30 pm , Thursday 10:00 am-9:30 pm , Friday 10:00 am-9:30 pm ",,,
Orchard Town Center,082,14647 Delaware St. ,,Westminster ,CO,80023,United States,303-254-5900,39.962021,-104.9915325,"Saturday 10:00 am-9:00 pm , Sunday 11:00 am-6:00 pm , Monday 10:00 am-8:00 pm , Tuesday 10:00 am-8:00 pm , Wednesday 10:00 am-8:00 pm , Thursday 10:00 am-8:00 pm , Friday 10:00 am-9:00 pm ",,,
North Star Mall,239,7400 San Pedro Suite # 342 ,,San Antonio ,TX,78411,United States,210-536-8587,29.518892,-98.496191,"Saturday 10:00am-9:00pm , Sunday 12:00pm-6:00pm , Monday 10:00am-9:00pm , Tuesday 10:00am-9:00pm , Wednesday 10:00am-9:00pm , Thursday 10:00am-9:00pm , Friday 10:00am-9:00pm ",,,
Tippecanoe Mall,167,2415 Sagamore Parkway South ,,Lafayette ,IN,47905,United States,765-446-1105,40.3936266,-86.8518913,"Saturday 10:00 am-9:00 pm , Sunday 12:00 pm-6:00 pm , Monday 10:00 am-9:00 pm , Tuesday 10:00 am-9:00 pm , Wednesday 10:00 am-9:00 pm , Thursday 10:00 am-9:00 pm , Friday 10:00 am-9:00 pm ",,,
Southwest Plaza,235,8501 West Bowles Avenue Suite # 2070 ,,Littleton ,CO,80123,United States,303-927-4249,39.612329,-105.095808,"Saturday 10:00 am-9:00 pm , Sunday 11:00 am-6:00 pm , Monday 10:00 am-9:00 pm , Tuesday 10:00 am-9:00 pm , Wednesday 10:00 am-9:00 pm , Thursday 10:00 am-9:00 pm , Friday 10:00 am-9:00 pm ",,,
Woodfield Mall,218,E314A Woodfield Mall ,,Schaumburg ,IL,60173,United States,847-466-3011,42.0467637,-88.0460894,"Saturday 10:00 am-9:00 pm , Sunday 11:00 am-6:00 pm , Monday 10:00 am-9:00 pm , Tuesday 10:00 am-9:00 pm , Wednesday 10:00 am-9:00 pm , Thursday 10:00 am-9:00 pm , Friday 10:00 am-9:00 pm ",,,
Algonquin Commons,156,1832 S Randall Road ,,Algonquin ,IL,60102,United States,847-854-3798,42.1459429,-88.3358947,"Saturday 10:00 am-9:00 pm , Sunday 11:00 am-6:00 pm , Monday 10:00 am-9:00 pm , Tuesday 10:00 am-9:00 pm , Wednesday 10:00 am-9:00 pm , Thursday 10:00 am-9:00 pm , Friday 10:00 am-9:00 pm ",,,
Park Meadows,230,8505 Park Meadows Center Drive ,,Lone Tree ,CO,80124,United States,303-248-2217,39.562757,-104.876722,"Saturday 10:00 am-9:00 pm , Sunday 10:00 am-6:00 pm , Monday 10:00 am-9:00 pm , Tuesday 10:00 am-9:00 pm , Wednesday 10:00 am-9:00 pm , Thursday 10:00 am-9:00 pm , Friday 10:00 am-9:00 pm ",,,
Southlands Shopping Center,067,6200 South Main St. ,,Aurora ,CO,80016,United States,303-693-2713,39.6043686,-104.7088374,"Saturday 10:00 am-9:00 pm , Sunday 11:00 am-6:00 pm , Monday 10:00 am-8:00 pm , Tuesday 10:00 am-8:00 pm , Wednesday 10:00 am-8:00 pm , Thursday 10:00 am-8:00 pm , Friday 10:00 am-9:00 pm ",,,
Quail Springs Marketplace,172,2240 W. Memorial Road ,,Oklahoma City ,OK,73134,United States,405-486-7387,35.6085339,-97.5517325,"Saturday 10:00 am-9:00 pm , Sunday 12:00 pm-6:00 pm , Monday 10:00 am-9:00 pm , Tuesday 10:00 am-9:00 pm , Wednesday 10:00 am-9:00 pm , Thursday 10:00 am-9:00 pm , Friday 10:00 am-9:00 pm ",,,
Town Center Plaza,199,5000 W 119th Street ,,Leawood ,KS,66209,United States,913-563-1050,38.914673,-94.6436219,"Saturday 10:00 am-9:00 pm , Sunday 12:00 pm-5:00 pm , Monday 10:00 am-9:00 pm , Tuesday 10:00 am-9:00 pm , Wednesday 10:00 am-9:00 pm , Thursday 10:00 am-9:00 pm , Friday 10:00 am-9:00 pm ",,,
Woodland Hills Mall,216,7021 S Memorial Drive ,,Tulsa ,OK,74133,United States,918-505-6135,36.0630982,-95.881269,"Saturday 10:00 am-9:00 pm , Sunday 12:00 pm-7:00 pm , Monday 10:00 am-9:00 pm , Tuesday 10:00 am-9:00 pm , Wednesday 10:00 am-9:00 pm , Thursday 10:00 am-9:00 pm , Friday 10:00 am-9:00 pm ",,,
Towne East Square,203,7700 E Kellogg Drive ,,Wichita ,KS,67207,United States,316-789-7066,37.6831959,-97.2489013,"Saturday 10:00 am-9:00 pm , Sunday 12:00 pm-6:00 pm , Monday 10:00 am-9:00 pm , Tuesday 10:00 am-9:00 pm , Wednesday 10:00 am-9:00 pm , Thursday 10:00 am-9:00 pm , Friday 10:00 am-9:00 pm ",,,
Battlefield Mall,223,2825 S. Glenstone Ave. ,,Springfield ,MO,65804,United States,417-450-6995,37.1627612,-93.2657458,"Saturday 10:00 am-9:00 pm , Sunday 12:00 pm-6:00 pm , Monday 10:00 am-9:00 pm , Tuesday 10:00 am-9:00 pm , Wednesday 10:00 am-9:00 pm , Thursday 10:00 am-9:00 pm , Friday 10:00 am-9:00 pm ",,,
