store_name,store_number,address,address2,city,state,zip_code,country,phone_number,latitude,longitude,store_hours,store_type,other_fields,coming_soon
ARMY NAVY STORE,,320 W 4TH AVENUE,,ANCHORAGEÂ,AK,Â 99501,United States,(907) 279-2401,,,,,,
ARMY NAVY STORE MIDTOWN,,3200 SEWARD HWY #103,,ANCHORAGEÂ,AK,Â 99503,United States,(907) 222-4600,,,,,,
SKINNY RAVEN,,811 W 8TH,,ANCHORAGEÂ,AK,Â 99501,United States,(907) 274-7222,,,,,,
THE CRAIG EMPORIUM,,700 COLD STORAGE ROAD,,CRAIGÂ,AK,Â 99921,United States,(907) 826-3939,,,,,,
BIG RAYS/AIRPORT,,3230 AIRPORT ROAD,,FAIRBANKSÂ,AK,Â 99709,United States,(907) 452-3458,,,,,,
BIG RAYS/FAIRBANKS,,507 2ND AVE,,FAIRBANKSÂ,AK,Â 99701,United States,(907) 452-3458,,,,,,
SENTRY HARDWARE,,250 THIRD STREET #6,,FAIRBANKSÂ,AK,Â 99701,United States,(907) 452-4771,,,,,,
THE NUGGET/ALASKAN OUTFTR,,9107 MENDENHALL MALL BLVD,,JUNEAUÂ,AK,Â 99801,United States,(907) 789-0956,,,,,,
MACK'S SPORT SHOP INC,,212 LOWER MILL BAY,,KODIAKÂ,AK,Â 99615,United States,(907) 486-4276,,,,,,
LEE'S CLOTHING,,212 NORDIC DRIVE,,PETERSBURGÂ,AK,Â 99833,United States,(907) 772-4229,,,,,,
URBACH'S,,218 4TH AVENUE,,SEWARDÂ,AK,Â 99664,United States,(907) 224-3088,,,,,,
KLOTHES RUSH,,499 BROADWAY,,SKAGWAYÂ,AK,Â 99840,United States,(907) 983-2370,,,,,,
SWEENEY'S CLOTHING,,35081 SPUR HWY,,SOLDOTNAÂ,AK,Â 99669,United States,(907) 262-5916,,,,,,
VALDEZ PROSPECTOR,,141 GALENA,,VALDEZÂ,AK,Â 99686,United States,(907) 835-3858,,,,,,
VALDEZ PROSPECTOR,,141 GALENA,,VALDEZÂ,AK,Â 99686,United States,(907) 835-3858,,,,,,
BENNETTS,,215 W WASHINGTON STREET,,ATHENSÂ,AL,Â 35611,United States,(256) 232-8431,,,,,,
UG WHITE MERCANTILE,,101 N JEFFERSON STREET,,ATHENSÂ,AL,Â 35611,United States,(256) 232-4540,,,,,,
ALABAMA OUTDOORS,,3054 INDEPENDENCE DRIVE,,BIRMINGHAMÂ,AL,Â 35209,United States,(800) 966-5372,,,,,,
ALABAMA OUTDOORS,,108 INVERNESS PLAZA,,BIRMINGHAMÂ,AL,Â 35242,United States,(800) 966-5372,,,,,,
ALABAMA OUTDOORS,,161 DISTRIBUTION DRIVE,,BIRMINGHAMÂ,AL,Â 35209,United States,(800) 966-5372,,,,,,
EXTREME CONSCIOUSNESS II,,DBA/MOUNTAIN HIGH OUTFTRS,,BIRMINGHAMÂ,AL,Â 35222,United States,(205) 967-9080,,,,,,
ROGERS TRADING CO INC,,140 RESOURCE CTR PKWY,,BIRMINGHAMÂ,AL,Â 35242,United States,(205) 408-9378,,,,,,
VAN'S SPORTING GOODS,,2045 COUNTY ROAD 222,,CULLMANÂ,AL,Â 35057,United States,(256) 775-4031,,,,,,
WERNER'S TRADING CO,,1115 4TH STREET SW,,CULLMANÂ,AL,Â 35055,United States,(256) 734-5673,,,,,,
EAGLE EYE OUTFITTERS,,3736 ROSS CLARK CIRCLE,,DOTHANÂ,AL,Â 36303,United States,(334) 673-2878,,,,,,
ALABAMA OUTDOORS,,119 N COURT STREET,,FLORENCEÂ,AL,Â 35630,United States,(800) 966-5372,,,,,,
ALABAMA OUTDOORS,,2030 CECIL ASHBURNE DRIVE,,HUNTSVILLEÂ,AL,Â 35802,United States,(800) 966-5372,,,,,,
GREAT OUTDOORS,,2801 S PKWY #262,,HUNTSVILLEÂ,AL,Â 35801,United States,(256) 715-0376,,,,,,
Field and Stream,,Patton Creek,,HooverÂ,AL,Â 35244,United States,(205)421-9971,,,,,,
ALABAMA OUTDOORS,,#9 DURHU DRIVE,,MOBILEÂ,AL,Â 36608,United States,(800) 966-5372,,,,,,
Field and Stream,,McGowin Park,,MobileÂ,AL,Â 36606,United States,(251)450-1334,,,,,,
MCCOY OUTDOORS,,3498 SPRINGHILL AVENUE,,MOBILEÂ,AL,Â 36608,United States,(251) 473-1080,,,,,,
ALABAMA OUTDOORS,,7917 VAUGHN ROAD,,MONTGOMERYÂ,AL,Â 36116,United States,(800) 966-5372,,,,,,
ALABAMA OUTDOORS,,#9 DURHU DRIVE,,MOBILEÂ,AL,Â 36608,United States,(800) 966-5372,,,,,,
Field and Stream,,McGowin Park,,MobileÂ,AL,Â 36606,United States,(251)450-1334,,,,,,
MCCOY OUTDOORS,,3498 SPRINGHILL AVENUE,,MOBILEÂ,AL,Â 36608,United States,(251) 473-1080,,,,,,
ALABAMA OUTDOORS,,4710 FRANK STREET,,TRUSSVILLEÂ,AL,Â 35235,United States,(800) 966-5372,,,,,,
TRI COUNTY FARM & HOME,,455 HWY 62 412,,ASH FLATÂ,AR,Â 72513,United States,(870) 994-7575,,,,,,
BELL-SWARD LLC,,1020 OAK STREET,,CONWAYÂ,AR,Â 72032,United States,(501) 413-4007,,,,,,
WILKINGSON'S MALL,,1212 HARRISON STREET,,CONWAYÂ,AR,Â 72032,United States,(501) 329-6819,,,,,,
THE SPORTS ALLEY,,107 E CEDAR,,EL DORADOÂ,AR,Â 71731,United States,(870) 862-8151,,,,,,
SPRING ST PEDDLER,,29-31 SPRING STREET,,EUREKA SPRINGSÂ,AR,Â 72632,United States,(479) 253-9848,,,,,,
PACK RAT OUTDOOR CENTER,,209 W SUNBRIDGE DRIVE,,FAYETTEVILLEÂ,AR,Â 72703,United States,(479) 521-6340,,,,,,
GENE LOCKWOOD'S SPORTS,,12101 W MARKHAM,,LITTLE ROCKÂ,AR,Â 72211,United States,(501) 227-7678,,,,,,
C & K CLOTHING,,1014 HIGHLAND PARK,,MOUNTAIN HOMEÂ,AR,Â 72653,United States,(501) 425-9455,,,,,,
DIAN'S,,860 HWY 62 E,,MOUNTAIN HOMEÂ,AR,Â 72653,United States,(870) 425-2434,,,,,,
ADIS INC,,DBA/MARTY'S GIFTS,,MT VIEWÂ,AR,Â 72560,United States,(870) 269-8383,,,,,,
MARTY'S,,118 W MAIN STREET,,MT VIEWÂ,AR,Â 72560,United States,(870) 269-8383,,,,,,
LIFESTYLES BY STEVE,,5204 VILLAGE PKWY  #6,,ROGERSÂ,AR,Â 72758,United States,(479) 268-4740,,,,,,
DALE'S CLOTHING & ACCES,,701 W RACE STREET AVENUE,,SEARCYÂ,AR,Â 72143,United States,(501) 388-0086,,,,,,
C-A-L RANCH STORES,,STORE #17,,FLAGSTAFFÂ,AZ,Â 86004,United States,(208) 523-3359,,,,,,
C-A-L RANCH STORES,,STORE #16,,PRESCOTTÂ,AZ,Â 86301,United States,(208) 523-3359,,,,,,
ALAN'S SHOE HOUSE,,6030 N ORACLE ROAD,,TUCSONÂ,AZ,Â 85704,United States,(520) 297-5268,,,,,,
RODEO PLACE,,515 S PALM AVENUE #3,,ALHAMBRAÂ,CA,Â 91803,United States,(626) 588-1678,,,,,,
THE CLOTHES MINE,,1262 S MAIN STREET,,ANGELS CAMPÂ,CA,Â 95222,United States,(209) 890-7532,,,,,,
APTOS SHOES & APPAREL,,20 RANCHO DEL MAR,,APTOSÂ,CA,Â 95003,United States,(831) 688-8007,,,,,,
ARNOLD'S CLOTHING & BOOT,,CO,,ARNOLDÂ,CA,Â 95223,United States,(209) 890-7203,,,,,,
SNAC,,2293 HWY 4,,ARNOLDÂ,CA,Â 95223,United States,(209) 795-9310,,,,,,
MCCAULOU'S #34,,372 ELM AVENUE,,AUBURNÂ,CA,Â 95603,United States,(530) 885-0500,,,,,,
LINGO WEAR,,3540 ROSEDALE HWY,,BAKERSFIELDÂ,CA,Â 93308,United States,(661) 375-7883,,,,,,
BILL'S MENS SHOP,,2386 TELEGRAPH AVENUE,,BERKELEYÂ,CA,Â 94704,United States,(510) 848-5436,,,,,,
CONVERT,,1809B 4TH STREET,,BERKELEYÂ,CA,Â 94710,United States,(510) 649-9759,,,,,,
SLASH,,2840 COLLEGE AVENUE,,BERKELEYÂ,CA,Â 94705,United States,(510) 665-5994,,,,,,
THE SPORTS BASEMENT,,2727 MILVIA STREET,,BERKELEYÂ,CA,Â 94703,United States,(415) 437-0100,,,,,,
MOUNTAIN HARDWARE&SPORTS,,282 BONTA STREET,,BLAIRSDENÂ,CA,Â 96103,United States,(530) 836-2589,,,,,,
A MAN'S STORE,,1343 LINCOLN AVENUE,,CALISTOGAÂ,CA,Â 94515,United States,(707) 942-2280,,,,,,
THE SPORTS BASEMENT,,1875 S BASCOM AVENUE,,CAMPBELLÂ,CA,Â 95008,United States,(415) 437-0100,,,,,,
THERAPY STORES INC,,347 E CAMPBELL AVENUE,,CAMPBELLÂ,CA,Â 95008,United States,(408) 866-8992,,,,,,
MCCAULOU'S #14,,5100 CLAYTON ROAD,,CONCORDÂ,CA,Â 94521,United States,(925) 827-0330,,,,,,
"GRANT BOYS, INC.",,1750 NEWPORT BLVD.,,COSTA MESAÂ,CA,Â 92627,United States,(949) 645-3400,,,,,,
PEOPLE'S MARKET,,DBA/SEED PEOPLE'S MARKET,,COSTA MESAÂ,CA,Â 92626,United States,(714) 708-2277,,,,,,
MCCAULOU'S,,589 SAN RAMON VALLEY BLVD,,DANVILLEÂ,CA,Â 94526,United States,(925) 837-0261,,,,,,
"PICKY, PICKY, PICKY",,600 E STREET,,EUREKAÂ,CA,Â 95501,United States,(707) 444-9201,,,,,,
NORTH SHORE TRADING CO.,,39130 NORTH SHORE DRIVE,,FAWNSKINÂ,CA,Â 92333,United States,(909) 866-3414,,,,,,
VILLAGE WORK GEAR LLC,,10434 TWIN CITIES ROAD,,GALTÂ,CA,Â 95632,United States,(209) 745-4600,,,,,,
BOOTLEG,,754 REDWOOD DRIVE,,GARBERVILLEÂ,CA,Â 95542,United States,(707) 923-2002,,,,,,
QUEEN BEE BOUTIQUE,,HWY 89 & A 14 BLDG 22,,GRAEAGLEÂ,CA,Â 96103,United States,(530) 836-0322,,,,,,
MILL STREET CLOTHING,,117 MILL STREET,,GRASS VALLEYÂ,CA,Â 95945,United States,(530) 477-6404,,,,,,
THE PESCADERO STORE,,508 MAIN STREET,,HALF MOON BAYÂ,CA,Â 94019,United States,(650) 726-9420,,,,,,
EVERYWEAR,,415 HEALDSBURG AVENUE,,HEALDSBURGÂ,CA,Â 95448,United States,(707) 431-1327,,,,,,
XE - LA,,15121 GRAHAM STREET #102,,HUNTINGTON BEACHÂ,CA,Â 92649,United States,(714) 894-8077,,,,,,
JEAN JUNGLE,,713 S HINDRY AVENUE,,INGLEWOODÂ,CA,Â 90301,United States,(310) 417-8806,,,,,,
MCCAULOU'S,,3512 MT. DIABLO BLVD.,,LAFAYETTEÂ,CA,Â 94549,United States,(925) 283-3380,,,,,,
CLASSIQUES,,5343 W IMPERIAL HWY #900,,LOS ANGELESÂ,CA,Â 90045,United States,(502) 435-2526,,,,,,
CO-TE-RIE,,2906 ROWENA AVENUE,,LOS ANGELESÂ,CA,Â 90039,United States,(703) 883-6616,,,,,,
FRED SEGAL MELROSE,,2500 S LA CIENEGA BLVD,,LOS ANGELESÂ,CA,Â 90034,United States,(310) 815-0606,,,,,,
KANJI,,524 S WESTERN AVENUE,,LOS ANGELESÂ,CA,Â 90020,United States,(213) 381-5949,,,,,,
RAG'S STYLE,,830 TRACTION AVENUE,,LOS ANGELESÂ,CA,Â 90013,United States,(213) 622-6924,,,,,,
RONHERMAN,,8100 MELROSE AVENUE,,LOS ANGELESÂ,CA,Â 90046,United States,(323) 653-3221,,,,,,
RUNNING USA,,3301 W 6TH,,LOS ANGELESÂ,CA,Â 90020,United States,(213) 559-7613,,,,,,
RYZEN 7,,811 TRACTION AVENUE  #1D,,LOS ANGELESÂ,CA,Â 90013,United States,(213) 620-9797,,,,,,
FREMONT HOUSE,,5030 HWY 140,,MARIPOSAÂ,CA,Â 95338,United States,(209) 966-3657,,,,,,
MCCLOUD RIVER MERCANTILE,,241 MAIN STREET,,MCCLOUDÂ,CA,Â 96057,United States,(530) 964-2602,,,,,,
CIRCA MEN'S,,530 MAIN STREET,,MENDOCINOÂ,CA,Â 95460,United States,(800) 966-5372,,,,,,
CIRCA MEN'S,,532 MAIN STREET,,MENDOCINOÂ,CA,Â 95460,United States,(800) 966-5372,,,,,,
MCCAULOU'S #2,,1441 MORAGA WAY,,MORAGAÂ,CA,Â 94556,United States,(925) 376-7252,,,,,,
THE EARTH STORE,,310 BROAD STREET,,NEVADA CITYÂ,CA,Â 95959,United States,(530) 265-0448,,,,,,
MCCAULOU'S #5,,6211 MEDAU PLACE,,OAKLANDÂ,CA,Â 94611,United States,(510) 339-2210,,,,,,
RAINS DEPT. STORE,,218 E. OJAI AVENUE,,OJAIÂ,CA,Â 93023,United States,(805) 646-1441,,,,,,
ALVAREZ BROTHERS INC,,ARMY NAVY STORE,,ORANGEÂ,CA,Â 92866,United States,(714) 639-7910,,,,,,
MCCAULOU'S,,120 VILLAGE SQUARE,,ORINDAÂ,CA,Â 94563,United States,(925) 947-1991,,,,,,
MCCAULOU'S #6,,250 VILLAGE SQUARE,,ORINDAÂ,CA,Â 94563,United States,(925) 254-3448,,,,,,
L'ARMOIRE DES REVES,,2562 VIA TEJON,,PALOS VERDES ESTATESÂ,CA,Â 90274,United States,(310) 373-4870,,,,,,
COMBELLACK'S,,339 MAIN STREET,,PLACERVILLEÂ,CA,Â 95667,United States,(530) 622-2582,,,,,,
PLACERVILLE CLOTHING CO.,,327 MAIN ST.,,PLACERVILLEÂ,CA,Â 95667,United States,(530) 626-3554,,,,,,
AYOOB'S DEPT STORE,,515 WEST MAIN STREET,,QUINCYÂ,CA,Â 95971,United States,(530) 283-0940,,,,,,
REDWOOD TRADING POST,,1305 EL CAMINO REAL,,REDWOOD CITYÂ,CA,Â 94063,United States,(650) 363-2033,,,,,,
WONDER BOUTIQUE,,8526 VALLEY BLVD #110,,ROSEMEADÂ,CA,Â 91770,United States,(213) 261-8455,,,,,,
ADVENTURE 16,,4620 ALVARADO CANYON RD,,SAN DIEGOÂ,CA,Â 92120,United States,(619) 283-2362,,,,,,
AGGREGATE SUPPLY,,806 VALENCIA STREET,,SAN FRANCISCOÂ,CA,Â 94110,United States,(415) 336-5364,,,,,,
AZALEA BOUTIQUE INC,,425 HAYES STREET,,SAN FRANCISCOÂ,CA,Â 94102,United States,(415) 634-0884,,,,,,
CONVERT,,556 HAYES STREET,,SAN FRANCISCOÂ,CA,Â 94102,United States,(510) 649-9759,,,,,,
SELDOM SEEN,,415 28TH AVENUE,,SAN FRANCISCOÂ,CA,Â 94121,United States,(415) 272-1819,,,,,,
THE SPORTS BASEMENT,,1590 BRYANT STREET,,SAN FRANCISCOÂ,CA,Â 94103,United States,(415) 437-0100,,,,,,
THE SPORTS BASEMENT,,610 OLD MASON STREET,,SAN FRANCISCOÂ,CA,Â 94129,United States,(415) 437-0100,,,,,,
UNIONMADE & MILL MERCANT,,25 BOUTWELL STREET,,SAN FRANCISCOÂ,CA,Â 94124,United States,(415) 468-1339,,,,,,
MEL COTTONS SPORTING GOODS,,1266 W. SAN CARLOS ST.,,SAN JOSEÂ,CA,Â 95126,United States,(408) 287-5994,,,,,,
SAWYER LAND & SEA SUPPLY,,402 INGALLS STREET,,SANTA CRUZÂ,CA,Â 95060,United States,(831) 455-6725,,,,,,
STRIPE DESIGN GROUP,,107 WALNUT AVENUE,,SANTA CRUZÂ,CA,Â 95060,United States,(831) 421-9252,,,,,,
TUMBLEWEEDS CLTHG STR,,3532 SAGUNTO STREET,,SANTA YNEZÂ,CA,Â 93460,United States,(805) 688-0955,,,,,,
SILK MOON,,195 N MAIN STREET,,SEBASTOPOLÂ,CA,Â 95472,United States,(707) 824-4300,,,,,,
SILK MOON GALLERY,,195 N MAIN ST,,SEBASTOPOLÂ,CA,Â 95472,United States,(707) 824-4310,,,,,,
BEAR MOON CLOTHING CO,,117 E NAPA STREET,,SONOMAÂ,CA,Â 95476,United States,(707) 935-3392,,,,,,
MCCAULOU'S #7,,201 WEST NAPA STREET,,SONOMAÂ,CA,Â 95476,United States,(707) 996-4465,,