store_name,store_number,address,address2,city,state,zip_code,country,phone_number,latitude,longitude,store_hours,store_type,other_fields,coming_soon
7-Eleven Store,,1922 - 20TH AVENUE,,Coaldale,AB,T1M 1M3,CA,4033452744,49.7277061,-112.6221555,,,,
7-Eleven Store,,1702 - 23 STREET NORTH,,Lethbridge,AB,T1H 5B3,CA,4033286177,49.71988,-112.8105087,,,,
7-Eleven Store,,491 MAYOR MAGRATH DR,,Lethbridge,AB,T1J 4C6,CA,4033274504,49.6935268,-112.8101047,,,,
7-Eleven Store,,2004 MAYOR MAGRATH DR,,Lethbridge,AB,T1K 2R9,CA,4033274070,49.6737776,-112.8014522,,,,
7-Eleven Store,,541 13 ST NORTH,,Lethbridge,AB,T1H 2S6,CA,4033274541,49.7074227,-112.8240136,,,,
7-Eleven Store,,10-2607 SCENIC DRIVE N,,Lethbridge,AB,T1H 0A0,CA,4033596790,49.72781,-112.82777,,,,
7-Eleven Store,,5008 - 46TH AVE.,,Taber,AB,T1G 2A6,CA,4032230115,49.781802,-112.1495203,,,,
7-Eleven Store,,5023 50TH AVE,,Taber,AB,T0K 2G0,CA,4032238767,49.786007,-112.14818,,,,
7-Eleven Store,,7981 120 ST,,Delta,BC,V4C 6P6,CA,7785934278,49.14805,-112.89083,,,,
7-Eleven Store,,4701 1ST STREET WEST,,Claresholm,AB,T0L 0T0,CA,4036254221,50.02345,-113.5810899,,,,
7-Eleven Store,,772 MAIN STREET,,Pincher Creek,AB,T0K 1W0,CA,4036272445,49.4855817,-113.9463531,,,,
7-Eleven Store,,203 - 2ND STREET W.,,Brooks,AB,T1R 0E8,CA,4033626311,50.5660424,-111.8991247,,,,
7-Eleven Store,,779 SUTHERLAND DRIVE,,Brooks,AB,T1R 1C5,CA,4033628146,50.5665902,-111.8834427,,,,
7-Eleven Store,,50 - 3RD AVE SW,,High River,AB,T1V 1R6,CA,4036018171,50.58013,-113.87074,,,,
7-Eleven Store,,"#200, 235B MILLIGAN DRIVE",,Okotoks,AB,T1S 0B8,CA,4039383691,50.7322168,-113.9509506,,,,
7-Eleven Store,,111 ELIZABETH STREET,,Okotoks,AB,T1S 1A4,CA,4039380319,50.7254936,-113.9749472,,,,
7-Eleven Store,,503 HWY 1,,Strathmore,AB,T1P 1C1,CA,4033612990,51.0375,-113.401,,,,
7-Eleven Store,,#101-10 COPPERSTONE ST SE,,Calgary,AB,T2Z 0P1,CA,4032570462,50.9155162,-113.9340586,,,,
7-Eleven Store,,1035 NEW BRIGHTON DR SE,,Calgary,AB,T2Z 0A0,CA,5875350142,50.92164,-113.93576,,,,
7-Eleven Store,,208 RAILWAY AVE E,,Drumheller,AB,T0J 0Y4,CA,4038235258,51.4611911,-112.7048011,,,,
7-Eleven Store,,301 - 11 AVENUE EAST,,Kindersley,SK,S0L 1S0,CA,3064636480,51.4742048,-109.167362,,,,
7-Eleven Store,,618 10 STREET,,Wainwright,AB,T9W 1E2,CA,7808422551,52.8376745,-110.8565064,,,,
7-Eleven Store,,7401 34 ST,,Lloydminster,AB,T9V 0A0,CA,7808718090,53.26846,-110.05407,,,,
7-Eleven Store,,3427 50TH AVE,,Lloydminster,SK,S9V 0N9,CA,3068257711,53.2706827,-110.0049335,,,,
7-Eleven Store,,4702 - 44TH STREET,,Lloydminster,SK,S9V 0G6,CA,3068255480,53.2780316,-109.9975798,,,,
7-Eleven Store,,4121 51 STREET,,Vermilion,AB,T9X 1Z4,CA,7808535524,53.34595,-110.85771,,,,
7-Eleven Store,,197 CARRY DR S.E.,,Medicine Hat,AB,T1B 3T2,CA,4035273500,50.0108037,-110.6372752,,,,
7-Eleven Store,,5001 52ND ST,,St Paul,AB,T0A 3A0,CA,7806455139,53.9911164,-111.2953051,,,,
7-Eleven Store,,4819 50TH AVE,,Bonnyville,AB,T9N 1A6,CA,7808267814,54.2666667,-110.75,,,,
7-Eleven Store,,4912 37 ST,,Bonnyville,AB,T9N 0A0,CA,7808262512,54.26789,-110.70916,,,,
7-Eleven Store,,5202 - 55A STREET,,Cold Lake,AB,T9M 1R3,CA,7805947220,54.4163133,-110.2158985,,,,
7-Eleven Store,,4801 50TH AVE.,,Vegreville,AB,T9C 1K9,CA,7806327711,53.4926974,-112.0476973,,,,
7-Eleven Store,,5103 50TH AVENUE,,Whitecourt,AB,T7S 1S8,CA,7807784691,54.1404437,-115.6873962,,,,
7-Eleven Store,,5206-4TH AVE,,Edson,AB,T7E 1L4,CA,7807237511,53.5739035,-116.465171,,,,
7-Eleven Store,,4913 - 50TH AVENUE,,Drayton Valley,AB,T7A 1J5,CA,7805427774,53.2214407,-114.9766983,,,,
7-Eleven Store,,100 - 6TH AVENUE S.W.,,Slave Lake,AB,T0G 2A4,CA,7808492811,55.2788222,-114.7726218,,,,
7-Eleven Store,,4903 - 48TH STREET,,Stony Plain,AB,T7Z 1L8,CA,7809633416,53.5304799,-114.0018794,,,,
7-Eleven Store,,102 GENESIS DRIVE,,Stony Plain,AB,T7Z 0K4,CA,7809687729,53.51195,-114.00211,,,,
7-Eleven Store,,2 SPRUCE RIDGE DRIVE,,Spruce Grove,AB,T7X 4S3,CA,7809600756,53.5537852,-113.9352768,,,,
7-Eleven Store,,2 ASPENGLEN DRIVE,,Spruce Grove,AB,T7X 3J4,CA,7809602080,53.5590167,-113.9171122,,,,
7-Eleven Store,,1-4011 YELLOWHEAD HWY 16,,Smithers,BC,V0J 2N0,CA,2508478086,53.5289873,-116.8320167,,,,
7-Eleven Store,,1 SPRUCE VILLAGE WAY,,Spruce Grove,AB,T7X 0B2,CA,7809628402,53.5584179,-113.8776426,,,,
7-Eleven Store,,136 KING ST,,Spruce Grove,AB,T7X 0J2,CA,7809480190,53.54244,-113.89951,,,,
7-Eleven Store,,141 CENTURY CROSSING,,Spruce Grove,AB,T7X 2C7,CA,7809608702,53.5427396,-113.8797015,,,,
7-Eleven Store,,1 GIROUX RD,,St Albert,AB,T8N 6J8,CA,7805443527,53.65389,-113.631,,,,
7-Eleven Store,,502 ST ALBERT TRAIL,,St Albert,AB,T8N 5Z1,CA,7804602208,53.6483644,-113.6278901,,,,
7-Eleven Store,,17 ST ANNE STREET,,St Albert,AB,T8N 1E8,CA,7804598773,53.635579,-113.624175,,,,
7-Eleven Store,,220 ST ALBERT RD,,St Albert,AB,T8N 5H9,CA,7805443525,53.62673,-113.61826,,,,
7-Eleven Store,,113-23B AKINS DR,,St Albert,AB,T8N 3B3,CA,7804590533,53.630725,-113.592815,,,,
7-Eleven Store,,1017 POTTER GREENS DR NW,,Edmonton,AB,T5T 5Y4,CA,7804442402,53.5147243,-113.6770214,,,,
7-Eleven Store,,17761 100 AVE,,Edmonton,AB,T5S 1R6,CA,7805080096,53.53778,-113.626,,,,
7-Eleven Store,,15606 111 AVE,,Edmonton,AB,T5M 2R7,CA,7805080137,53.55944,-113.591,,,,
7-Eleven Store,,12659 153RD AVE NW,,Edmonton,AB,T5X 5X8,CA,7804573576,53.6169206,-113.5403666,,,,
7-Eleven Store,,#104 16220 STONY PLAIN RD,,Edmonton,AB,T5P 4A4,CA,7804844909,53.5414408,-113.6020297,,,,
7-Eleven Store,,10719 - 156 STREET,,Edmonton,AB,T5P 2S3,CA,7804898700,53.5513661,-113.5904162,,,,
7-Eleven Store,,14110 127 STREET,,Edmonton,AB,T6V 1L7,CA,7804569038,53.6037441,-113.541409,,,,
7-Eleven Store,,11220 171ST AVE NW,,Edmonton,AB,T5X 0A9,CA,7804067521,53.6334058,-113.5175687,,,,
7-Eleven Store,,6211 188TH ST NE,,Edmonton,AB,T5T 5T4,CA,7804447595,53.4960599,-113.6486389,,,,
7-Eleven Store,,14125 118TH AVE,,Edmonton,AB,T5L 2M3,CA,7804091235,53.5699051,-113.5652678,,,,
7-Eleven Store,,15710 STONY PLAIN RD,,Edmonton,AB,T5P 3Z5,CA,7805080128,53.54139,-113.593,,,,
7-Eleven Store,,15430 STONY PLAIN RD,,Edmonton,AB,T5P 3Y9,CA,7804443273,53.5412952,-113.5886781,,,,
7-Eleven Store,,11868 145TH AVE,,Edmonton,AB,T5X 2E3,CA,7804572590,53.6075256,-113.5268689,,,,
7-Eleven Store,,16438 87TH AVE,,Edmonton,AB,T5R 4H2,CA,7805080094,53.51972,-113.609,,,,
7-Eleven Store,,12707 - 127 STREET,,Edmonton,AB,T5L 1A6,CA,7804532611,53.585045,-113.5411799,,,,
7-Eleven Store,,4819 184TH ST NW,,Edmonton,AB,T6M 2X5,CA,7805080165,53.48516,-113.645,,,,
7-Eleven Store,,17604 97TH STREET,,Edmonton,AB,T5X 6B5,CA,7804568254,53.6384742,-113.4924456,,,,
7-Eleven Store,,16703 100 STREET,,Edmonton,AB,T5X 3Z9,CA,7804732694,53.6294319,-113.498269,,,,
7-Eleven Store,,15604 95TH AVE NW,,Edmonton,AB,T5P 0A4,CA,7804842404,53.5315549,-113.5784234,,,,
7-Eleven Store,,9448 149TH ST,,Edmonton,AB,T5R 1C6,CA,7804840146,53.5314932,-113.5780427,,,,
7-Eleven Store,,9515 149 ST,,Edmonton,AB,T5P 1J7,CA,7805080125,53.53188,-113.57744,,,,
7-Eleven Store,,12621 118 AVE,,Edmonton,AB,T5L 2K7,CA,7804541757,53.5700118,-113.5391881,,,,
7-Eleven Store,,9628 153 AVE,,Edmonton,AB,T5Z 0B1,CA,7805080098,53.61444,-113.491,,,,
7-Eleven Store,,13410 97 ST,,Edmonton,AB,T5E 4E1,CA,7805080090,53.595,-113.492,,,,
7-Eleven Store,,12415 102 AVE,,Edmonton,AB,T5N 0M2,CA,7805080092,53.54271,-113.53642,,,,
7-Eleven Store,,8210 - 160 AVE.,,Edmonton,AB,T5Z 3H8,CA,7804751268,53.6208611,-113.4677719,,,,
7-Eleven Store,,12727 97TH ST.,,Edmonton,AB,T5E 4C1,CA,7804761247,53.5856993,-113.4920411,,,,
7-Eleven Store,,16720 76TH STREET,,Edmonton,AB,T5Z 3Y7,CA,7804747092,53.6289395,-113.4598538,,,,
7-Eleven Store,,11528 - 107TH AVE,,Edmonton,AB,T5H 0Y7,CA,7804250280,53.5515839,-113.5206617,,,,
7-Eleven Store,,10904 111 AVE,,Edmonton,AB,T5G 0C7,CA,7805080131,53.55917,-113.509,,,,
7-Eleven Store,,12203 97 STREET,,Edmonton,AB,T5G 1Z2,CA,7804791542,53.5767458,-113.4919301,,,,
7-Eleven Store,,14908 45TH AVE,,Edmonton,AB,T6H 5T5,CA,7804350706,53.4837039,-113.579063,,,,
7-Eleven Store,,7636 - 144 AVENUE,,Edmonton,AB,T5C 2R7,CA,7804782627,53.6070068,-113.4599259,,,,
7-Eleven Store,,11204 JASPER AVE NW,,Edmonton,AB,T5K 2V2,CA,7803953085,53.54115,-113.51426,,,,
7-Eleven Store,,10832 102ND AVE,,Edmonton,AB,T5J 0G3,CA,7804236751,53.5431456,-113.5080032,,,,
7-Eleven Store,,10110 KINGSWAY AVE,,Edmonton,AB,T5H 3V8,CA,7805080133,53.555,-113.494,,,,
7-Eleven Store,,15715 66TH STREET NW,,Edmonton,AB,T5Y 3A5,CA,7804757781,53.619345,-113.4424599,,,,
7-Eleven Store,,8933-118TH AVE,,Edmonton,AB,T5B 0T5,CA,7804798216,53.570325,-113.4792434,,,,
7-Eleven Store,,10357 JASPER AVE NW,,Edmonton,AB,T5J 1Y5,CA,7804219491,53.5409196,-113.4990132,,,,
7-Eleven Store,,103-10065 JASPER AVE NW,,Edmonton,AB,T5J 3B1,CA,7804247457,53.54087,-113.49284,,,,
7-Eleven Store,,10863 82 AVE NW,,Edmonton,AB,T6E 2B2,CA,7805080141,53.51777,-113.51151,,,,
7-Eleven Store,,12654 FORT ROAD,,Edmonton,AB,T5C 3C1,CA,7804755133,53.58512,-113.44345,,,,
7-Eleven Store,,5004 162 AVE,,Edmonton,AB,T5Y 0E7,CA,7804668314,53.6222589,-113.4142967,,,,
7-Eleven Store,,14634 - 50 STREET,,Edmonton,AB,T5A 4W9,CA,7804756076,53.6089533,-113.4172834,,,,
7-Eleven Store,,14204 23 AVE,,Edmonton,AB,T6R 3A8,CA,7805080159,53.45472,-113.566,,,,
7-Eleven Store,,7612 - 104 STREET,,Edmonton,AB,T6E 6B8,CA,7804339831,53.5123278,-113.4979683,,,,
7-Eleven Store,,6651 118TH AVE,,Edmonton,AB,T5B 0P1,CA,7804718052,53.5702286,-113.4442826,,,,
7-Eleven Store,,9884 82 AVE NW,,Edmonton,AB,T6E 1Y8,CA,7805080139,53.51833,-113.486,,,,
7-Eleven Store,,13704 50 ST,,Edmonton,AB,T5A 4Y3,CA,7805080135,53.59778,-113.414,,,,
7-Eleven Store,,341 KIRKNESS RD,,Edmonton,AB,T5Y 2J3,CA,7804785197,53.6070646,-113.395205,,,,
7-Eleven Store,,9104 82ND AVE,,Edmonton,AB,T6C 0Z5,CA,7804699553,53.5180434,-113.4675947,,,,
7-Eleven Store,,280 SADDLEBACK ROAD,,Edmonton,AB,T6J 4R7,CA,7804386417,53.4608487,-113.5291228,,,,
7-Eleven Store,,4939 118TH AVE,,Edmonton,AB,T5W 1B5,CA,7804740702,53.5703606,-113.4182595,,,,
7-Eleven Store,,4950 CALGARY TR NW,,Edmonton,AB,T6H 5H5,CA,7805080147,53.48712,-113.495,,,,
7-Eleven Store,,9655 63RD AVE,,Edmonton,AB,T6E 0G2,CA,7805080155,53.49972,-113.479,,,,
7-Eleven Store,,9726 OTTEWELL RD,,Edmonton,AB,T6B 2E7,CA,7804660466,53.5374747,-113.437844,,,,
7-Eleven Store,,13450 VICTORIA TR,,Edmonton,AB,T5A 5C9,CA,7805080129,53.59639,-113.388,,,,
7-Eleven Store,,3615 CALGARY TR NW,,Edmonton,AB,T6J 5M8,CA,7805080149,53.47,-113.495,,,,
7-Eleven Store,,1903 111 STREET,,Edmonton,AB,T6J 7E7,CA,7804392618,53.4490036,-113.515942,,,,
7-Eleven Store,,5003 101 AVE NW,,Edmonton,AB,T6A 0G7,CA,7805080145,53.54083,-113.419,,,,
7-Eleven Store,,6819 83RD STREET,,Edmonton,AB,T6C 2X9,CA,7804691935,53.5039924,-113.4534557,,,,
7-Eleven Store,,3003 CALGARY TRAIL NW,,Edmonton,AB,T6J 5X8,CA,7804342180,53.4614569,-113.4932438,,,,
7-Eleven Store,,9850 34 AVE NW,,Edmonton,AB,T6E 6L1,CA,7805080143,53.46806,-113.485,,,,
7-Eleven Store,,906 111 ST NW,,Edmonton,AB,T6J 6T6,CA,7805080151,53.43972,-113.519,,,,
7-Eleven Store,,9032 50TH ST,,Edmonton,AB,T6B 2Z5,CA,7804655321,53.5228455,-113.4187183,,,,
7-Eleven Store,,11103 ELLERSLIE RD SW,,Edmonton,AB,T6W 1A2,CA,7805080163,53.42444,-113.518,,,,
7-Eleven Store,,4310 66 ST,,Edmonton,AB,T6K 4A2,CA,7805080153,53.48222,-113.443,,,,
7-Eleven Store,,389 91ST STREET SW,,Edmonton,AB,T6X 0C5,CA,7804626398,53.4295451,-113.4713196,,,,
7-Eleven Store,,5661 23RD AVE NW,,Edmonton,AB,T6L 7B9,CA,7804628618,53.4536477,-113.4272659,,,,
7-Eleven Store,,2308 50TH ST,,Edmonton,AB,T6L 6Z4,CA,7805080157,53.455,-113.421,,,,
7-Eleven Store,,3407 43 AVENUE,,Edmonton,AB,T6L 6G6,CA,7804402710,53.4802635,-113.3940235,,,,
7-Eleven Store,,#6 PRAIRIE DRIVE,,Sherwood Park,AB,T8H 0A3,CA,7804495076,53.559764,-113.3164664,,,,
7-Eleven Store,,2803 MILLWOODS RD,,Edmonton,AB,T6K 4A9,CA,7804681845,53.4596747,-113.4068665,,,,
7-Eleven Store,,7802 95A AVENUE,,Fort Saskatchewan,AB,T8L 4M3,CA,7809989701,53.6894349,-113.2394303,,,,
7-Eleven Store,,8775 84TH STREET,,Fort Saskatchewan,AB,T8L 0A3,CA,7809987610,53.6856315,-113.2353025,,,,
7-Eleven Store,,3341 34TH ST,,Edmonton,AB,T6T 0B8,CA,7805080161,53.46306,-113.393,,,,
7-Eleven Store,,9701A - 90 STREET,,Fort Saskatchewan,AB,T8L 1K5,CA,7809987099,53.6980869,-113.2298448,,,,
7-Eleven Store,,2 SIOUX ROAD,,Sherwood Park,AB,T8A 4X1,CA,7804494197,53.5345208,-113.320546,,,,
7-Eleven Store,,1704 MILL WOODS RD SOUTH,,Edmonton,AB,T6K 4E5,CA,7804508075,53.446153,-113.4021092,,,,
7-Eleven Store,,9817 101 ST,,Fort Saskatchewan,AB,T8L 1V5,CA,7809120090,53.71025,-113.21221,,,,
7-Eleven Store,,10303 99TH AVE,,Fort Saskatchewan,AB,T8L 2X8,CA,7809981002,53.7108148,-113.2102768,,,,
7-Eleven Store,,3049 CLOVER BAR ROAD,,Sherwood Park,AB,T8H 1N8,CA,7804491406,53.5571604,-113.2760595,,,,
7-Eleven Store,,2000 SHERWOOD DR,,Sherwood Park,AB,T8A 0Z1,CA,7804000380,53.5246,-113.29621,,,,
7-Eleven Store,,52 BRENTWOOD BLVD,,Sherwood Park,AB,T8A 2H6,CA,7804672055,53.5150765,-113.2942569,,,,
7-Eleven Store,,240 590 BASLINE RD,,Sherwood Park,AB,T8H 1Y4,CA,7804000384,53.54167,-113.266,,,,
7-Eleven Store,,307 AIRPORT RD,,Edmonton Intl Airport,AB,T9E 0V5,CA,7808903209,53.3087915,-113.5393924,,,,
7-Eleven Store,,"#30, 665 BASELINE RD",,Sherwood Park,AB,T8A 5V9,CA,7804671781,53.5411891,-113.2626375,,,,
7-Eleven Store,,642 WYE RD,,Sherwood Park,AB,T8A 6G3,CA,7804000382,53.5125,-113.276,,,,
7-Eleven Store,,1049 CLOVERBAR RD,,Sherwood Park,AB,T8A 6B7,CA,7804677818,53.5197492,-113.2667556,,,,
7-Eleven Store,,101 WEST HAVEN BLVD,,Leduc,AB,T9E 0J2,CA,7809802986,53.2648473,-113.5914805,,,,
7-Eleven Store,,6502 50TH ST,,Beaumont,AB,T4X 0B6,CA,7809297000,53.36503,-113.41637,,,,
7-Eleven Store,,22305 HWY 16 E,,Sherwood Park,AB,T8E 2M4,CA,7809221730,53.56917,-113.174,,,,
7-Eleven Store,,3805 - 50 STREET,,Leduc,AB,T9E 6R3,CA,7809865670,53.2516339,-113.5426518,,,,
7-Eleven Store,,4003 56TH ST,,Wetaskiwin,AB,T9A 1V1,CA,7803524402,52.9742958,-113.3511212,,,,
7-Eleven Store,,5302 HWY. 2A,,Ponoka,AB,T4J 1L9,CA,4037832770,52.6845444,-113.5792422,,,,
7-Eleven Store,,4602 - 50TH AVE.,,Rocky Mountain House,AB,T4T 1B9,CA,4038454664,52.37444,-114.9129577,,,,
7-Eleven Store,,PARKWOOD RD @ COTTONWOOD,,Blackfalds,AB,T0M 0A0,CA,4038856110,52.38683,-113.78435,,,,
7-Eleven Store,,13203 82ND STREET NW,,Edmonton,AB,T5E 2T6,CA,7804736240,52.325491,-113.8604166,,,,
7-Eleven Store,,7111 50TH AVE,,Red Deer,AB,T4N 4E4,CA,4034060914,52.29694,-113.813,,,,
7-Eleven Store,,6020 67TH ST,,Red Deer,AB,T4P 3M1,CA,4034060916,52.28917,-113.83,,,,
7-Eleven Store,,5925 - 54TH AVE,,Red Deer,AB,T4N 4M7,CA,4033437111,52.279734,-113.8198764,,,,
7-Eleven Store,,4702-50 STREET,,Red Deer,AB,T4N 1X2,CA,4033464406,52.2692096,-113.8051248,,,,
7-Eleven Store,,3803 40TH AVE,,Red Deer,AB,T4N 2W4,CA,4033463688,52.257895,-113.7897987,,,,
7-Eleven Store,,45 GASOLINE ALLEY E,,Red Deer,AB,T4R 1B1,CA,4034060910,52.21583,-113.813,,,,
7-Eleven Store,,37416 HWY 2,,Red Deer County,AB,T4E 1B2,CA,4034060912,52.20444,-113.815,,,,
7-Eleven Store,,8317 - 20 AVENUE,,Coleman,AB,T0K 0M0,CA,4035635233,49.6350584,-114.5025925,,,,
7-Eleven Store,,100 151 WALDEN GATE SE,,Calgary,AB,T2X 0R2,CA,5875350120,50.87538,-114.036,,,,
7-Eleven Store,,1291 HWY 3,,Fernie,BC,V0B 1M0,CA,2504237662,49.5040452,-115.063065,,,,
7-Eleven Store,,15150 MT MCKENZIE DR,,Calgary,AB,T2Z 2L4,CA,4032161309,50.91694,-113.981,,,,
7-Eleven Store,,16311 - 6 ST. S.W.,,Calgary,AB,T2Y 1Y6,CA,4032014657,50.9022074,-114.0764395,,,,
7-Eleven Store,,99 SHAWVILLE BLVD SE,,Calgary,AB,T2Y 3W5,CA,5875350135,50.90435,-114.06699,,,,
7-Eleven Store,,40 MIDLAKE BLVD SE,,Calgary,AB,T2X 2X7,CA,5875350130,50.915,-114.062,,,,
7-Eleven Store,,2335-162 AVE SW,,Calgary,AB,T2Y 4S6,CA,4032010268,50.9055619,-114.1118167,,,,
7-Eleven Store,,3455 DOUGLASDALE BLVD NW,,Calgary,AB,T2Z 2H8,CA,4032362084,50.9326584,-113.9833919,,,,
7-Eleven Store,,2010 CANYON MEADOWS DR SE,,Calgary,AB,T2J 6E7,CA,4032716227,50.9330747,-114.0177668,,,,
7-Eleven Store,,13615 BONAVENTURE DR SE,,Calgary,AB,T2J 6W9,CA,5875350105,50.93055,-114.06333,,,,
7-Eleven Store,,45 EVERRIDGE DR SW,,Calgary,AB,T2Y 4R5,CA,5872914023,50.92083,-114.12388,,,,
7-Eleven Store,,#100-11488 24TH ST SE,,Calgary,AB,T2Z 4C9,CA,4032797608,50.9544383,-114.0003618,,,,
7-Eleven Store,,580 ACADIA DR SE,,Calgary,AB,T2J 0B6,CA,4032812130,50.9644,-114.04804,,,,
7-Eleven Store,,460 WOODBINE BLVD S.W.,,Calgary,AB,T2W 5H7,CA,4032512066,50.9468015,-114.1331568,,,,
7-Eleven Store,,615 SHAWCLIFFE GATE S.W.,,Calgary,AB,T2Y 1C7,CA,4032542995,50.9468015,-114.1331568,,,,
7-Eleven Store,,9835 MCLEOD TR SW,,Calgary,AB,T2J 0P6,CA,5875350100,50.96556,-114.072,,,,
7-Eleven Store,,13 SOUTHLAND CRES SW,,Calgary,AB,T2W 0K4,CA,5872952150,50.96394,-114.08434,,,,
7-Eleven Store,,1919 SOUTHLAND DR SW,,Calgary,AB,T2W 0K1,CA,4032522720,50.9613138,-114.1057842,,,,
7-Eleven Store,,9128 MACLEOD TRAIL SE,,Calgary,AB,T2J 0P5,CA,4032556540,50.9720396,-114.0709674,,,,
7-Eleven Store,,7233 OGDEN RD SE,,Calgary,AB,T2C 1B7,CA,4032795797,50.9871329,-113.998345,,,,
7-Eleven Store,,6815 MACLEOD TR S,,Calgary,AB,T2H 0L5,CA,5872914020,50.99277,-114.07222,,,,
7-Eleven Store,,7102 ELBOW DRIVE S.W.,,Calgary,AB,T2V 1K1,CA,4032520389,50.9914442,-114.0830834,,,,
7-Eleven Store,,4001 MACLEOD TRAIL S.W.,,Calgary,AB,T2G 2R6,CA,4032430228,50.9941501,-114.0716869,,,,
7-Eleven Store,,3963 - 52ND STREET S.E.,,Calgary,AB,T2B 3R3,CA,4032042933,51.0196781,-113.9585106,,,,
7-Eleven Store,,3725 30 AVE SE,,Calgary,AB,T2B 2C7,CA,4032729694,51.026815,-113.9803319,,,,
7-Eleven Store,,3525 26TH AVE SE,,Calgary,AB,T2B 2M9,CA,4032351004,51.029945,-113.9825658,,,,
7-Eleven Store,,1704 61TH ST SE,,Calgary,AB,T2A 4V5,CA,4032737367,51.0382528,-113.9426257,,,,
7-Eleven Store,,5320 - 8TH AVE SE,,Calgary,AB,T2A 4L7,CA,4032726225,51.0452764,-113.9575174,,,,
7-Eleven Store,,4527 8 AVE SE,,Calgary,AB,T2A 0A7,CA,4032724422,51.0451537,-113.9700099,,,,
7-Eleven Store,,4604 37 ST SW,,Calgary,AB,T3E 3C9,CA,4032463676,51.0138456,-114.1397189,,,,
7-Eleven Store,,120 36TH STREET SE,,Calgary,AB,T2A 1B6,CA,4032076027,51.0451306,-113.9815154,,,,
7-Eleven Store,,220 68 ST NE,,Calgary,AB,T2A 6P7,CA,4035091123,51.05283,-113.93447,,,,
7-Eleven Store,,2012 SPILLER RD SE,,Calgary,AB,T2G 4G6,CA,4032655554,51.0348607,-114.0424428,,,,
7-Eleven Store,,2936 RADCLIFFE DRIVE S.E.,,Calgary,AB,T2A 6M8,CA,4032723234,51.0470121,-113.9886314,,,,
7-Eleven Store,,2619 14TH ST SW,,Calgary,AB,T2T 3T9,CA,5874754072,51.03071,-114.09497,,,,
7-Eleven Store,,3508 37TH ST SW,,Calgary,AB,T3E 7B1,CA,5875350140,51.02224,-114.14071,,,,
7-Eleven Store,,1201 1ST SE,,Calgary,AB,T2G 2H7,CA,5874754070,51.041,-114.06136,,,,
7-Eleven Store,,2923 26 AVE SW,,Calgary,AB,T3E 0M6,CA,4032463575,51.029967,-114.129616,,,,
7-Eleven Store,,1440 52 ST NE,,Calgary,AB,T2A 4T8,CA,4032161315,51.06271,-113.95777,,,,
7-Eleven Store,,920 36TH ST NE,,Calgary,AB,T2A 6L8,CA,4032484557,51.0614492,-113.9821156,,,,
7-Eleven Store,,1907 8 AVE NE,,Calgary,AB,T2E 0T2,CA,4032763838,51.0595972,-114.0150853,,,,
7-Eleven Store,,2901 17 AVE SW,,Calgary,AB,T3E 0B1,CA,4032463534,51.0378311,-114.1282319,,,,
7-Eleven Store,,3803 17AVE SW,,Calgary,AB,T3E 0C3,CA,4032671669,51.03747,-114.14167,,,,
7-Eleven Store,,3904 17 AVE SE,,Calgary,AB,T2A 0S6,CA,4032721379,51.0379418,-114.1432282,,,,
7-Eleven Store,,1619 37 ST SW,,Calgary,AB,T3C 1S7,CA,4032463712,51.0389618,-114.1411686,,,,
7-Eleven Store,,3304 64TH ST N E,,Calgary,AB,T1Y 5R4,CA,4032804343,51.0822403,-113.9405021,,,,
7-Eleven Store,,802 - 1ST AVENUE NE,,Calgary,AB,T2E 0C1,CA,4032693648,51.0345274,-114.1909871,,,,
7-Eleven Store,,"#120, 30 SPRINGBOUROUGH",,Calgary,AB,T3H 0N9,CA,4032421341,51.0345274,-114.1909871,,,,
7-Eleven Store,,2604 KENSINGTON RD NW,,Calgary,AB,T2N 3S5,CA,4032835200,51.0526166,-114.1208788,,,,
7-Eleven Store,,311 - 16TH AVE. N.E.,,Calgary,AB,T2E 1K1,CA,4032771041,51.0668449,-114.0562558,,,,
7-Eleven Store,,256 16TH AVE NE,,Calgary,AB,T2E 1J8,CA,5872322400,51.06722,-114.057,,,,
7-Eleven Store,,3550 52ND ST,,Calgary,AB,T1Y 6H1,CA,5874722625,51.08549,-113.95789,,,,
7-Eleven Store,,614 CROWCHILD TR NW,,Calgary,AB,T2N 2R8,CA,5875350115,51.05753,-114.11738,,,,
7-Eleven Store,,402 - 20 AVE NE,,Calgary,AB,T2E 1R2,CA,4032764226,51.0706474,-114.0559355,,,,
7-Eleven Store,,7196 TEMPLE DRIVE NE,,Calgary,AB,T1Y 4E8,CA,4032804333,51.0913491,-113.9569201,,,,
7-Eleven Store,,3510 39TH AVENUE,,Calgary,AB,T1Y 6L1,CA,4037351190,51.0885573,-113.9836727,,,,
7-Eleven Store,,2417 - 4 STREET N.W.,,Calgary,AB,T2M 2Z8,CA,4032899845,51.0742284,-114.071573,,,,
7-Eleven Store,,2903 CENTRE ST N,,Calgary,AB,T2E 2V9,CA,4032764310,51.077893,-114.06254,,,,
7-Eleven Store,,6408 OLD BANFF COACH RD,,Calgary,AB,T3H 2H3,CA,4032492526,51.060171,-114.1800847,,,,
7-Eleven Store,,265 FALSHIRE DR. N.E.,,Calgary,AB,T3J 1T9,CA,4032932055,51.1066512,-113.940681,,,,
7-Eleven Store,,4444 - 16 AVE N.W.,,Calgary,AB,T3B 0M4,CA,4032882164,51.0684578,-114.1587021,,,,
7-Eleven Store,,4105 4TH ST NW,,Calgary,AB,T2K 1A3,CA,4035091120,51.0876664,-114.0716609,,,,
7-Eleven Store,,4700 16 AVE NW,,Calgary,AB,T3B 0N1,CA,5875350132,51.07185,-114.16267,,,,
7-Eleven Store,,"#8, 920 NORTHMOUNT DR NW",,Calgary,AB,T2L 0A9,CA,4032691462,51.0865331,-114.1042393,,,,
7-Eleven Store,,6688 MARTINDALE GATE NE,,Calgary,AB,T3J 4P9,CA,4032936516,51.1119657,-113.9650488,,,,
7-Eleven Store,,5003 CENTRE ST NORTH,,Calgary,AB,T2K 0S9,CA,4032751394,51.0961967,-114.0625291,,,,
7-Eleven Store,,5512 - 4TH STREET NW,,Calgary,AB,T2K 1A9,CA,4032741545,51.100943,-114.0713671,,,,
7-Eleven Store,,1339 NORTHMOUNT DR NW,,Calgary,AB,T2L 0C9,CA,4032823315,51.0930569,-114.1288432,,,,
7-Eleven Store,,6306 BOWNESS RD NW,,Calgary,AB,T3B 0E5,CA,4032863188,51.08499,-114.178369,,,,
7-Eleven Store,,4615 VALIANT DR NW,,Calgary,AB,T3A 0Y2,CA,4032884315,51.090652,-114.1536129,,,,
7-Eleven Store,,904 64TH AVE NW,,Calgary,AB,T2K 0M5,CA,5875350110,51.11071,-114.07822,,,,
7-Eleven Store,,6828 4TH ST NW,,Calgary,AB,T2K 1C2,CA,4032753532,51.1140107,-114.0713703,,,,
7-Eleven Store,,7908 BOWNESS RD NW,,Calgary,AB,T3B 0H2,CA,5875350138,51.08916,-114.19972,,,,
7-Eleven Store,,44 SANDARAC DR NW,,Calgary,AB,T3K 3V2,CA,4032671673,51.13253,-114.09906,,,,
7-Eleven Store,,35 EDENWOLD DR NW,,Calgary,AB,T3A 3S8,CA,4032671667,51.12731,-114.13925,,,,
7-Eleven Store,,150 - 96 AVE N.E.,,Calgary,AB,T3K 5J9,CA,4032266400,51.141718,-114.0658021,,,,
7-Eleven Store,,7712 RANCHVIEW DRIVE NW,,Calgary,AB,T3G 1Y9,CA,4032088032,51.1201123,-114.1786183,,,,
7-Eleven Store,,8080 SILVER SPRINGS BLVD,,Calgary,AB,T3B 5G6,CA,5875350134,51.11631,-114.206,,,,
7-Eleven Store,,407 HAWKWOOD BLVD NW,,Calgary,AB,T3G 3K2,CA,4032396791,51.1304624,-114.176265,,,,
7-Eleven Store,,430 COUNTRY HILLS BLVD NE,,Calgary,AB,T3K 5A5,CA,5875350150,51.15444,-114.06,,,,
7-Eleven Store,,10099 HIDDEN VALLEY DR.,,Calgary,AB,T3A 5C9,CA,4032745670,51.1465521,-114.106083,,,,
7-Eleven Store,,166 CROWFOOT HWY. N.W.,,Calgary,AB,T3G 4M4,CA,4032394993,51.126418,-114.208702,,,,
7-Eleven Store,,6510 COUNTRY HILLS BLVD,,Calgary,AB,T3G 4R8,CA,4032671671,51.14167,-114.183,,,,
7-Eleven Store,,150 CITADEL WAY NW,,Calgary,AB,T3G 5C1,CA,4032399196,51.1432235,-114.1951644,,,,
7-Eleven Store,,900 MARKET ST SE,,Airdrie,AB,T4A 0K9,CA,5872542130,51.27017,-113.994,,,,
7-Eleven Store,,2002 LUXSTONE BLVD,,Airdrie,AB,T4B 3K8,CA,4039453164,51.2720917,-114.0169823,,,,
7-Eleven Store,,800 YANKEE VALLEY BLVD SW,,Airdrie,AB,T4B 3Y2,CA,5877559147,51.2711962,-114.026211,,,,
7-Eleven Store,,HWY 2 N,,Crossfield,AB,T0M 0S0,CA,4039467300,51.41234,-114.001,,,,
7-Eleven Store,,5010 - 48 AVENUE,,Camrose,AB,T4V 0J5,CA,7806721126,53.0180651,-112.8273834,,,,
7-Eleven Store,,4952 52ND ST,,Innisfail,AB,T4G 1S7,CA,4032274850,52.0277736,-113.949733,,,,
7-Eleven Store,,4602-46 ST,,Olds,AB,T4H 0A0,CA,4035592090,51.79528,-114.0965,,,,
7-Eleven Store,,1729 A MOUNTAIN AVE,,Canmore,AB,T1W 2W1,CA,4036096020,51.10289,-115.36226,,,,
7-Eleven Store,,410 - 9TH AVENUE NORTH,,Golden,BC,V0A 1H0,CA,2503447242,51.2998617,-116.9660597,,,,
7-Eleven Store,,1930 - 2ND ST. N.,,Cranbrook,BC,V1C 5A2,CA,2504892116,49.514078,-115.754013,,,,
7-Eleven Store,,525 CRANBROOK STREET,,Cranbrook,BC,V1C 3R5,CA,2504894488,49.5129678,-115.7694002,,,,
7-Eleven Store,,110 SWANSON DR,,Hinton,AB,T7V 1H1,CA,7808657116,53.4161714,-117.5600802,,,,
7-Eleven Store,,702 CONNAUGHT DR,,Jasper,AB,T0E 1E0,CA,7808522010,52.87317,-118.083,,,,
7-Eleven Store,,9707 - 100 STREET,,Grande Prairie,AB,T8V 7P3,CA,7805130711,55.1679185,-118.7947512,,,,
7-Eleven Store,,6843 KATERI DR,,Grande Prairie,AB,T8W 0A0,CA,7805130963,55.14293,-118.80166,,,,
7-Eleven Store,,801-105 AVE @ 8 ST SWC,,Dawson Creek,BC,V1G 2N3,CA,2507827155,55.7542863,-120.2246632,,,,
7-Eleven Store,,10002 FRANKLIN AVENUE,,Fort Mcmurray,AB,T9H 2K6,CA,7807150781,56.7278202,-111.3817382,,,,
7-Eleven Store,,618 - 1ST AVE. W.,,Meadow Lake,SK,S9X 1N7,CA,3062363564,54.1332374,-108.4456344,,,,
7-Eleven Store,,123 ANDERSON ST,,Nelson,BC,V1L 3X6,CA,2503522348,49.4928119,-117.2948343,,,,
7-Eleven Store,,1608 CANYON ROAD,,Creston,BC,V0B 1G0,CA,2504284464,49.0957045,-116.5064484,,,,
7-Eleven Store,,1999 COLUMBIA AVE,,Castlegar,BC,V1N 2W8,CA,2503652712,49.2950153,-117.6533151,,,,
7-Eleven Store,,5001 SOUTH ACCESS ROAD,,Chetwynd,BC,V0C 1J0,CA,2507883710,55.6972519,-121.6299644,,,,
7-Eleven Store,,371 TRANS CANADA HIGHWAY,,Salmon Arm,BC,V1E 4R3,CA,2508327070,50.7001034,-119.2838443,,,,
7-Eleven Store,,3160 SMITH DRIVE,,Armstrong,BC,V0E 1B0,CA,2505462188,50.4453929,-119.1843469,,,,
7-Eleven Store,,401 VICTORIA AVENUE,,Revelstoke,BC,V0E 2S0,CA,2508373611,51.0011322,-118.1970145,,,,
7-Eleven Store,,4800 27TH ST,,Vernon,BC,V1T 4Y9,CA,2505457329,50.28227,-119.26708,,,,
7-Eleven Store,,3201 - 39TH STREET,,Vernon,BC,V1T 5P1,CA,2505420785,50.2701342,-119.273962,,,,
7-Eleven Store,,3400 32ND ST,,Vernon,BC,V1T 5N1,CA,2505452072,50.26694,-119.27416,,,,
7-Eleven Store,,2409 34TH ST,,Vernon,BC,V1T 9E5,CA,2505459076,50.26023,-119.27572,,,,
7-Eleven Store,,1250 MIDDLETON WAY,,Vernon,BC,V1B 2V9,CA,2505458601,50.244575,-119.2592682,,,,
7-Eleven Store,,964 - 8TH STREET,,Kamloops,BC,V2B 2X5,CA,2503760711,50.674522,-120.3272674,,,,
7-Eleven Store,,615 SEYMOUR ST,,Kamloops,BC,V2C 2H2,CA,2503728837,50.674522,-120.3272674,,,,
7-Eleven Store,,1590 SUMMIT DRIVE #1,,Kamloops,BC,V2E 1E9,CA,2503725752,50.6565023,-120.3407891,,,,
7-Eleven Store,,915 W COLUMBIA ST,,Kamloops,BC,V2C 1L5,CA,2508281337,50.66956,-120.35387,,,,
7-Eleven Store,,1790 TRANQUILLE RD,,Kamloops,BC,V2B 3L6,CA,2503765704,50.7070197,-120.3928713,,,,
7-Eleven Store,,1120 ROGERS WAY,,Kamloops,BC,V1S 1N5,CA,2508289534,50.65208,-120.36826,,,,
7-Eleven Store,,9716 HIGHWAY 97 NORTH,,Winfield,BC,V4V 1T6,CA,2507662777,50.022124,-119.406251,,,,
7-Eleven Store,,101-125 HWY 33 EAST,,Kelowna,BC,V1X 2A1,CA,2507652477,49.888766,-119.3875842,,,,
7-Eleven Store,,2380 HWY 97 N,,Kelowna,BC,V1X 4H8,CA,2509809646,49.88427,-119.43033,,,,
7-Eleven Store,,1505 GORDON DRIVE,,Kelowna,BC,V1Y 3G6,CA,2508601741,49.8879519,-119.4960106,,,,
7-Eleven Store,,3968 LAKESHORE ROAD,,Kelowna,BC,V1W 1V5,CA,2507647588,49.8879519,-119.4960106,,,,
7-Eleven Store,,1901 HARVEY AVE,,Kelowna,BC,V1Y 6G5,CA,2507170564,49.88144,-119.4532,,,,
7-Eleven Store,,3135 GORDON DR,,Kelowna,BC,V1W 3N4,CA,2509809643,49.86051,-119.47371,,,,
7-Eleven Store,,102-14404 ROSEDALE AVE,,Summerland,BC,V0H 1Z0,CA,2504947117,49.6063659,-119.677607,,,,
7-Eleven Store,,2903 SKAHA LAKE ROAD,,Penticton,BC,V2A 6G3,CA,2504922502,49.4632626,-119.5879908,,,,
7-Eleven Store,,3002 KALUM ST,,Terrace,BC,V8G 5V6,CA,2506154190,54.51337,-128.58661,,,,
7-Eleven Store,,250 2ND AVE. W,,Prince Rupert,BC,V8J 1G5,CA,2506278348,54.3153475,-130.3249585,,,,
7-Eleven Store,,34896 97TH STREET,,Oliver,BC,V0H 1T0,CA,2504983838,49.1819102,-119.5504853,,,,
7-Eleven Store,,"9131 MAIN ST, COMPT#12",,Osoyoos,BC,V0H 1V2,CA,2504954228,49.0345897,-119.4735519,,,,
7-Eleven Store,,119 MARSH DRIVE,,Quesnel,BC,V2J 3K3,CA,2509927112,52.9817372,-122.4949058,,,,
7-Eleven Store,,2320 MAPLE DRIVE,,Quesnel,BC,V2J 6R7,CA,2507472837,52.9645923,-122.4430422,,,,
7-Eleven Store,,2370 BURRARD AVENUE,,Vanderhoof,BC,V0J 3A0,CA,2505679339,54.0143333,-124.0089444,,,,
7-Eleven Store,,223 DOGWOOD STREET,,Campbell River,BC,V9W 2Y1,CA,2502879716,50.0331226,-125.2733354,,,,
7-Eleven Store,,2016 SOUTH ISLAND HWY,,Campbell River,BC,V9W 1C1,CA,2509232515,50.0331226,-125.2733354,,,,
7-Eleven Store,,2002 NICOLA AVE,,Merritt,BC,V1K 1B8,CA,2503785111,50.1113079,-120.7862222,,,,
7-Eleven Store,,105 CARIBOO HWY 97 S,,100 Mile House,BC,V0K 2E0,CA,2503955171,51.6461618,-121.2962452,,,,
7-Eleven Store,,320 PROCTOR STREET,,Williams Lake,BC,V2G 4P6,CA,2503922711,52.1317165,-122.1429573,,,,
7-Eleven Store,,46299 YALE RD EAST,,Chilliwack,BC,V2P 2P7,CA,6047031505,49.1834017,-121.8000208,,,,
7-Eleven Store,,45632 YALE RD,,Chilliwack,BC,V2P 2N3,CA,6047955155,49.1549232,-121.9612792,,,,
7-Eleven Store,,7680 AMBER DR,,Chilliwack,BC,V2R 3P3,CA,6048471765,49.14222,-121.96982,,,,
7-Eleven Store,,7385 VEDDAR ROAD,,Sardis,BC,V2R 4E6,CA,6048587711,49.131222,-121.960432,,,,
7-Eleven Store,,3027 IMMEL ROAD,,Matsqui,BC,V2S 4L3,CA,6048500977,49.0567327,-122.2721856,,,,
7-Eleven Store,,32081 LOUGHEED HIGHWAY,,Mission,BC,V2V 1A3,CA,6048266705,49.1329455,-122.3261604,,,,
7-Eleven Store,,1915 MCCALLUM RD,,Abbotsford,BC,V2S 3N1,CA,7788802703,49.03667,-122.29396,,,,
7-Eleven Store,,1520 MCCALLUM RD,,Abbotsford,BC,V2S 8B2,CA,6048503512,49.0311151,-122.2928066,,,,
7-Eleven Store,,32770 GEORGE FERGUSON WAY,,Abbotsford,BC,V2T 4V6,CA,6048543722,49.05508,-122.31538,,,,
7-Eleven Store,,2387 MCCALLUM ROAD,,Abbotsford,BC,V2S 3N7,CA,6048526489,49.054587,-122.328026,,,,
7-Eleven Store,,27211 FRASER HWY,,Aldergrove,BC,V4W 3P9,CA,6048571224,49.0580516,-122.470667,,,,
7-Eleven Store,,24009 DEWDNEY TRUNK RD,,Maple Ridge,BC,V4R 1W5,CA,6044671057,49.2204157,-122.5571554,,,,
7-Eleven Store,,23181 DEWDNEY TRUNK RD,,Maple Ridge,BC,V2X 3K4,CA,6044673945,49.22083,-122.57979,,,,
7-Eleven Store,,23180 LOUGHEED HWY,,Maple Ridge,BC,V2X 2W3,CA,6044639721,49.2033313,-122.5800941,,,,
7-Eleven Store,,4010 - 200TH STREET,,Langley,BC,V3A 1K7,CA,6045345596,49.0743308,-122.5593218,,,,
7-Eleven Store,,20296 56TH AVE,,Langley,BC,V3A 3Y7,CA,6045307550,49.0743308,-122.5593218,,,,
7-Eleven Store,,21243 LOUGHEED HIGHWAY,,Maple Ridge,BC,V2X 2R4,CA,6044679992,49.2193226,-122.598398,,,,
7-Eleven Store,,20718 LOUGHEED HWY,,Maple Ridge,BC,V2X 2R1,CA,6044606361,49.21799,-122.64771,,,,
7-Eleven Store,,21612 FRASER HWY,,Langley,BC,V3A 4G9,CA,6045345209,49.09543,-122.62395,,,,
7-Eleven Store,,6036 GLOVER RD,,Langley,BC,V1M 2A3,CA,6045340538,49.11208,-122.64503,,,,
7-Eleven Store,,20250 88TH AVE,,Langley,BC,V1M 2Y4,CA,6048824688,49.16238,-122.66011,,,,
7-Eleven Store,,7272 200TH ST,,Langley,BC,V2Y 1S7,CA,6045346750,49.13404,-122.6678,,,,
7-Eleven Store,,12137 HARRIS ROAD,,Pitt Meadows,BC,V0M 1P0,CA,6044656522,49.2190648,-122.6895165,,,,
7-Eleven Store,,19982 56 AVE,,Langley,BC,V3A 3X9,CA,6045322290,49.10438,-122.66903,,,,
7-Eleven Store,,19712 FRASER HIGHWAY,,Langley,BC,V3A 4C7,CA,6045340574,49.11194,-122.67666,,,,
7-Eleven Store,,"#102, 19188 72ND AVE",,Surrey,BC,V4N 1M9,CA,6045759117,49.1334464,-122.6915827,,,,
7-Eleven Store,,17638 60TH AVE,,Surrey,BC,V3S 4E4,CA,6045748295,49.1114205,-122.7345235,,,,
7-Eleven Store,,3312 COAST MERIDAN ROAD,,Port Coquitlam,BC,V3B 3N6,CA,6049425733,49.2726916,-122.7560195,,,,
7-Eleven Store,,#105-3380 DAVID AVE,,Coquitlam,BC,V3E 3G8,CA,6049413460,49.2925834,-122.7555571,,,,
7-Eleven Store,,2090 LOUGHEED HWY,,Port Coquitlam,BC,V3B 4H3,CA,6049417796,49.26583,-122.77388,,,,
7-Eleven Store,,6021 168TH ST,,Surrey,BC,V3S 3X7,CA,6045747111,49.1132871,-122.7567161,,,,
7-Eleven Store,,101-2540 MARY HILL RD,,Port Coquitlam,BC,V3C 3B2,CA,6049414453,49.2609937,-122.7783345,,,,
7-Eleven Store,,110-14410 108TH AVE,,Surrey,BC,V3R 1V4,CA,6045842077,49.198765,-122.77962,,,,
7-Eleven Store,,15961 FRASER HWY,,Surrey,BC,V4N 0Y3,CA,6045913219,49.1579983,-122.7793168,,,,
7-Eleven Store,,10376 152ND ST,,Surrey,BC,V3R 4G8,CA,6045850979,49.19111,-122.8,,,,
7-Eleven Store,,1130 JOHNSON ST,,Port Coquitlam,BC,V3B 7G5,CA,6049455904,49.27833,-122.80222,,,,
7-Eleven Store,,1-9989 152 ST,,Surrey,BC,V3R 4G5,CA,6045860700,49.18394,-122.80155,,,,
7-Eleven Store,,1198 LANSDOWNE STREET,,Coquitlam,BC,V3E 1J7,CA,6044641615,49.2074612,-122.8086958,,,,
7-Eleven Store,,2640 AUSTIN,,Coquitlam,BC,V3K 6C4,CA,6049392197,49.24882,-122.81926,,,,
7-Eleven Store,,7986 120TH ST,,Surrey,BC,V3W 3N2,CA,6045904166,49.186495,-122.823134,,,,
7-Eleven Store,,103 IOCO RD,,Port Moody,BC,V3H 2V3,CA,6049490254,49.27798,-122.82657,,,,
7-Eleven Store,,2188 AUSTIN AVE,,Coquitlam,BC,V3K 0A0,CA,6049314754,49.2490504,-122.8343346,,,,
7-Eleven Store,,14445 64TH AVE,,Surrey,BC,V3S 1X5,CA,7785914795,49.11944,-122.82277,,,,
7-Eleven Store,,13977 FRASER HWY,,Surrey,BC,V3T 4E6,CA,6045895390,49.1793678,-122.8347919,,,,
7-Eleven Store,,2377 152ND ST,,Surrey,BC,V4A 4P9,CA,7785450842,49.04502,-122.80164,,,,
7-Eleven Store,,1707 AUSTIN AVE,,Coquitlam,BC,V3K 3R2,CA,6049399705,49.24934,-122.84619,,,,
7-Eleven Store,,10416 KING GEORGE BLVD,,Surrey,BC,V3T 2W8,CA,6045858160,49.19224,-122.84489,,,,
7-Eleven Store,,2929 ST JOHN'S ST,,Port Moody,BC,V3H 2C2,CA,6044615414,49.290114,-122.845611,,,,
7-Eleven Store,,1500 AUSTIN ROAD,,Coquitlam,BC,V3K 3P7,CA,6049390212,49.2489975,-122.8523181,,,,
7-Eleven Store,,7195 KING GEORGE BLVD,,Surrey,BC,V3W 5A4,CA,7785914701,49.13283,-122.84625,,,,
7-Eleven Store,,9583 132 ST,,Surrey,BC,V3V 5R2,CA,6045842811,49.1768992,-122.8571127,,,,
7-Eleven Store,,1031 BRUNETTE AVENUE,,Coquitlam,BC,V3K 1E7,CA,6045212940,49.2381982,-122.864876,,,,
7-Eleven Store,,"#2, 6828 128 STREET",,Surrey,BC,V3W 4C9,CA,7785787680,49.1266653,-122.8677139,,,,
7-Eleven Store,,1595 NICHOL RD,,Surrey,BC,V4B 3K2,CA,7785451156,49.03097,-122.83483,,,,
7-Eleven Store,,#110-485 E COLUMBIA ST,,New Westminster,BC,V3L 3X5,CA,6045498711,49.2312846,-122.8928881,,,,
7-Eleven Store,,3965 NORTH RD,,Burnaby,BC,V3J 1S2,CA,6044228495,49.24862,-122.89353,,,,
7-Eleven Store,,6422 120ST,,Surrey,BC,V3W 3M5,CA,7785914695,49.11963,-122.8898,,,,
7-Eleven Store,,340 - 6TH STREET,,New Westminster,BC,V3L 3A8,CA,6045255567,49.2146306,-122.9084194,,,,
7-Eleven Store,,923 - 12TH STREET,,New Westminster,BC,V3M 4K7,CA,6045210827,49.290114,-122.910956,,,,
7-Eleven Store,,11199 - 84TH AVENUE,,Delta,BC,V4C 2K4,CA,6045957018,49.171634,-122.910981,,,,
7-Eleven Store,,6389 120TH STREET,,Delta,BC,V4E 2A6,CA,6045917744,49.171634,-122.910981,,,,
7-Eleven Store,,736 6TH AVE,,New Westminster,BC,V3M 2B4,CA,6045408032,49.21111,-122.92333,,,,
7-Eleven Store,,780 6TH ST,,New Westminster,BC,V3M 2R3,CA,6045402459,49.21559,-122.92389,,,,
7-Eleven Store,,7890 CANADA WAY,,Burnaby,BC,V3N 3L1,CA,6045191307,49.2174539,-122.9312016,,,,
7-Eleven Store,,7275 CANADA WAY,,Burnaby,BC,V5E 3R7,CA,6045258050,49.224034,-122.9414997,,,,
7-Eleven Store,,10108 NORDELL CT,,Delta,BC,V4G 1J7,CA,6045851943,49.14861,-122.94277,,,,
7-Eleven Store,,"#101, 846 20TH STREET",,New Westminster,BC,V3M 4X1,CA,6045225767,49.2046605,-122.950684,,,,
7-Eleven Store,,7089 LOUGHEED HWY,,Burnaby,BC,V5A 1W1,CA,6044209439,49.25908,-122.95669,,,,
7-Eleven Store,,5059 CANADA WAY,,Burnaby,BC,V5E 3N1,CA,6045404278,49.23937,-122.96399,,,,
7-Eleven Store,,5175 KINGSWAY,,Burnaby,BC,V5H 2E6,CA,6044382096,49.2294908,-123.0025753,,,,
7-Eleven Store,,7600 ROYAL OAK AVE.,,Burnaby,BC,V5J 4K3,CA,6044357152,49.2294908,-123.0025753,,,,
7-Eleven Store,,4512 LOUGHEED HWY,,Vancouver,BC,V5B 3Z4,CA,6043206923,49.26604,-123.00265,,,,
7-Eleven Store,,4444 KINGSWAY AVE,,Vancouver,BC,V5H 2A6,CA,6044365090,49.23027,-123.00583,,,,
7-Eleven Store,,2177 DOLLARTON HWY,,North Vancouver,BC,V7H 1B1,CA,6049868131,49.305,-123.01437,,,,
7-Eleven Store,,"#111, 3790 CANADA WAY",,Burnaby,BC,V5G 1G5,CA,6044381711,49.2546047,-123.0207573,,,,
7-Eleven Store,,3720 IMPERIAL ST,,Burnaby,BC,V5J 1A1,CA,6044364591,49.22166,-123.02305,,,,
7-Eleven Store,,3502 E HASTINGS ST,,Vancouver,BC,V5K 2A7,CA,6042989550,49.28075,-123.02785,,,,
7-Eleven Store,,3312 GRANDVIEW HWY,,Vancouver,BC,V5M 2G4,CA,6044530347,49.25788,-123.03319,,,,
7-Eleven Store,,3295 EAST 22ND AVENUE,,Vancouver,BC,V5M 2Y9,CA,6044335727,49.2483257,-123.0338818,,,,
7-Eleven Store,,2747 MOUNTAIN HWY,,North Vancouver,BC,V7J 2N7,CA,6049854395,49.33379,-123.03837,,,,
7-Eleven Store,,2415 EAST 1ST AVE,,Vancouver,BC,V5M 1A2,CA,6042513667,49.269787,-123.056314,,,,
7-Eleven Store,,2092 EAST HASTINGS STREET,,Vancouver,BC,V5L 1T9,CA,6042537818,49.2845755,-123.061622,,,,
7-Eleven Store,,2001 KINGSWAY AVE,,Vancouver,BC,V5N 2T2,CA,6048742162,49.24534,-123.06473,,,,
7-Eleven Store,,304 CHESTERFIELD AVE,,North Vancouver,BC,V7M 3J2,CA,6049846452,49.319647,-123.068237,,,,
7-Eleven Store,,4894 KNIGHT ST,,Vancouver,BC,V5N 3N4,CA,6048730516,49.240287,-123.07632,,,,
7-Eleven Store,,7282 KNIGHT STREET,,Vancouver,BC,V5P 2W8,CA,6047139600,49.21825,-123.07694,,,,
7-Eleven Store,,1245 LONSDALE AVE,,North Vancouver,BC,V7M 2H5,CA,6049806713,49.3197488,-123.0724456,,,,
7-Eleven Store,,1712 LONSDALE AVE,,North Vancouver,BC,V7M 2J7,CA,6049852379,49.32448,-123.0719,,,,
7-Eleven Store,,2930 LONSDALE AVENUE,,North Vancouver,BC,V7N 4H9,CA,6049853883,49.33598,-123.07143,,,,
7-Eleven Store,,106 W QUEENS ST,,North Vancouver,BC,V7N 2K3,CA,6049855493,49.33677,-123.07242,,,,
7-Eleven Store,,4064 FRASER ST,,Vancouver,BC,V5V 0A7,CA,6048744475,49.24891,-123.08952,,,,
7-Eleven Store,,688 SE MARINE DR,,Vancouver,BC,V5X 2T4,CA,6043270621,49.21067,-123.0914,,,,
7-Eleven Store,,2501 WESTVIEW DR,,North Vancouver,BC,V7N 3W9,CA,6049858249,49.33277,-123.08861,,,,
7-Eleven Store,,5723 - 48TH AVENUE,,Delta,BC,V4K 1X5,CA,6049465634,49.090012,-123.082005,,,,
7-Eleven Store,,6904 VICTORIA DRIVE,,Vancouver,BC,V5P 3Y8,CA,6047139601,49.2220326,-123.1059756,,,,
7-Eleven Store,,#1099-88 W PENDER ST,,Vancouver,BC,V6B 6N9,CA,6046012491,49.2843506,-123.1062238,,,,
7-Eleven Store,,596 SEYMOUR STREET,,Vancouver,BC,V6B 3J5,CA,6046680531,49.280285,-123.1066438,,,,
7-Eleven Store,,104-1199 W PENDER,,Vancouver,BC,V6E 2R1,CA,6046893874,49.2811134,-123.1077202,,,,
7-Eleven Store,,99 SMITHE STREET,,Vancouver,BC,V6B 1C3,CA,6046697394,49.261226,-123.1139268,,,,
7-Eleven Store,,#100 - 75 W BROADWAY,,Vancouver,BC,V5Y 1P1,CA,6046892578,49.261226,-123.1139268,,,,
7-Eleven Store,,3304 KINGSWAY,,Vancouver,BC,V5R 5K7,CA,6044340817,49.261226,-123.1139268,,,,
7-Eleven Store,,310 ROBSON STREET,,Vancouver,BC,V6B 2B2,CA,6046788305,49.261226,-123.1139268,,,,
7-Eleven Store,,1294 GRANVILLE ST,,Vancouver,BC,V6Z 1M4,CA,6046012489,49.261226,-123.1139268,,,,
7-Eleven Store,,710 WEST 6TH AVENUE,,Vancouver,BC,V5Z 1A5,CA,6048724835,49.2500865,-123.1203289,,,,
7-Eleven Store,,651 ROBSON STREET,,Vancouver,BC,V6B 1H3,CA,6046699565,49.2811891,-123.119285,,,,
7-Eleven Store,,1093 HOMER ST,,Vancouver,BC,V6B 2X5,CA,6046816366,49.27644,-123.12159,,,,
7-Eleven Store,,982 GRANVILLE ST,,Vancouver,BC,V6Z 1L2,CA,6046825383,49.2794507,-123.1226864,,,,
7-Eleven Store,,904 DAVIE STREET,,Vancouver,BC,V6Z 1B8,CA,6046810106,49.2815864,-123.1233957,,,,
7-Eleven Store,,1565 - 56TH STREET,,Tsawwassen,BC,V4L 2A9,CA,6049434881,49.018038,-123.0818253,,,,
7-Eleven Store,,5680 OAK ST,,Vancouver,BC,V6M 2V6,CA,6042660314,49.2340789,-123.1278301,,,,
7-Eleven Store,,9100 WESTMINSTER,,Richmond,BC,V6X 1B1,CA,6048211569,49.16988,-123.12404,,,,
7-Eleven Store,,6525 OAK ST,,Vancouver,BC,V6P 3Z3,CA,6042664320,49.22627,-123.12896,,,,
7-Eleven Store,,1205 BURRARD ST,,Vancouver,BC,V6Z 1Z5,CA,6046959113,49.27921,-123.13,,,,
7-Eleven Store,,1398 W BROADWAY,,Vancouver,BC,V6H 1H2,CA,6047385527,49.26322,-123.13563,,,,
7-Eleven Store,,8000 NO 3 ROAD,,Richmond,BC,V6Y 2E3,CA,6042782641,49.1665898,-123.133569,,,,
7-Eleven Store,,8360 GRANVILLE AVENUE,,Richmond,BC,V6Y 1P3,CA,6042700808,49.1665898,-123.133569,,,,
7-Eleven Store,,9471 NO. 2 ROAD,,Richmond,BC,V7E 2E2,CA,6042714460,49.1665898,-123.133569,,,,
7-Eleven Store,,8080 WILLIAMS RD,,Richmond,BC,V7A 1G5,CA,6042711442,49.1665898,-123.133569,,,,
7-Eleven Store,,10991 NO. 1 ROAD,,Richmond,BC,V7E 1S4,CA,6042711811,49.1665898,-123.133569,,,,
7-Eleven Store,,5702 GRANVILLE ST,,Vancouver,BC,V6M 3C7,CA,6042661486,49.23384,-123.13898,,,,
7-Eleven Store,,8602 GRANVILLE ST,,Vancouver,BC,V6P 5A1,CA,6042632533,49.2083687,-123.1402817,,,,
7-Eleven Store,,1055 DENMAN STREET,,Vancouver,BC,V6G 2M4,CA,6046878656,49.28896,-123.13992,,,,
7-Eleven Store,,1795 W BROADWAY,,Vancouver,BC,V6J 1Y2,CA,6047388583,49.26399,-123.14513,,,,
7-Eleven Store,,1790 4TH AVE W,,Vancouver,BC,V6J 1M1,CA,6047387214,49.26777,-123.14527,,,,
7-Eleven Store,,3205 ARBUTUS ST,,Vancouver,BC,V6J 3Z4,CA,6047385578,49.25696,-123.15349,,,,
7-Eleven Store,,1503 MARINE DR,,West Vancouver,BC,V7V 1H9,CA,6049227944,49.32863,-123.15731,,,,
7-Eleven Store,,110-13 3880,,Richmond,BC,V7B 0A5,CA,6042079795,49.1929581,-123.1710687,,,,
7-Eleven Store,,1395 MARINE DRIVE,,West Vancouver,BC,V7T 1B6,CA,6049224611,49.3348973,-123.1667847,,,,
7-Eleven Store,,3695 WEST 10TH AVENUE,,Vancouver,BC,V6R 2G2,CA,6047314181,49.2652334,-123.1858282,,,,
7-Eleven Store,,7991 NO 1 RD,,Richmond,BC,V7C 1T7,CA,6042745224,49.15583,-123.18138,,,,
7-Eleven Store,,38471 CLEVELAND AVE,,Squamish,BC,V8B 0E4,CA,6048929286,49.7016339,-123.1558121,,,,
7-Eleven Store,,1901 GARIBALDI HIGHLANDS,,Squamish,BC,V0N 1T0,CA,6048984442,49.7408176,-123.1347893,,,,
7-Eleven Store,,2328 BEACON AVENUE,,Sidney,BC,V8L 1X2,CA,2506562711,48.6502411,-123.399005,,,,
7-Eleven Store,,2471 MT NEWTON CROSS RD,,Saanichton,BC,V8M 2B7,CA,2505442272,48.59388,-123.39694,,,,
7-Eleven Store,,3954 SHELBOURNE ST,,Victoria,BC,V8N 3E2,CA,2503602174,48.46888,-123.33305,,,,
7-Eleven Store,,1700 HILLSIDE AVE,,Victoria,BC,V8P 1A1,CA,2505956583,48.44611,-123.33277,,,,
7-Eleven Store,,4001 QUADRA ST,,Victoria,BC,V8X 1K1,CA,2507040280,48.47034,-123.36442,,,,
7-Eleven Store,,1669 FORT ST,,Victoria,BC,V8R 1H8,CA,2505957816,48.42755,-123.33462,,,,
7-Eleven Store,,10 BURNSIDE ROAD,,Victoria,BC,V9A 1B3,CA,2509532156,48.4592626,-123.3767223,,,,
7-Eleven Store,,4071 SHELBOURNE ST,,Victoria,BC,V8N 5Y1,CA,2503563149,48.4592626,-123.3767223,,,,
7-Eleven Store,,3775 CAREY RD,,Victoria,BC,V8Z 3L8,CA,2504800768,48.45809,-123.37872,,,,
7-Eleven Store,,3896 CAREY ROAD,,Victoria,BC,V8Z 4C9,CA,2504793711,48.4629388,-123.3857771,,,,
7-Eleven Store,,3201 DOUGLAS AVE,,Victoria,BC,V8Z 3K8,CA,2504801289,48.44807,-123.3721,,,,
7-Eleven Store,,811 BAY ST,,Victoria,BC,V8T 1R3,CA,2503827470,48.43546,-123.362291,,,,
7-Eleven Store,,904 YATES ST,,Victoria,BC,V8V 3M2,CA,2509532160,48.4258036,-123.3589607,,,,
7-Eleven Store,,1327 DOUGLAS STREET,,Victoria,BC,V8W 2E9,CA,2503563180,48.4284207,-123.3656444,,,,
7-Eleven Store,,813 DOUGLAS ST,,Victoria,BC,V8W 2B9,CA,2503815332,48.4238609,-123.3659752,,,,
7-Eleven Store,,37A-910 GOVERNMENT ST,,Victoria,BC,V8W 1X3,CA,2502200091,48.4238609,-123.368128,,,,
7-Eleven Store,,4441 JOYCE AVE,,Powell River,BC,V8A 3A7,CA,6044857718,49.8352352,-124.5247062,,,,
7-Eleven Store,,450 RYAN ROAD,,Courtenay,BC,V9N 7R6,CA,2503343351,49.6994664,-124.9904585,,,,
7-Eleven Store,,2295 CLIFFE AVENUE,,Courtenay,BC,V9N 2L2,CA,2503344171,49.6841391,-124.9904493,,,,
7-Eleven Store,,2892 3RD AVENUE,,Port Alberni,BC,V9Y 2A8,CA,2507246033,49.2338882,-124.8055494,,,,
7-Eleven Store,,4233 REDFORD ST,,Port Alberni,BC,V9Y 3R4,CA,2507237741,49.2338882,-124.8055494,,,,
7-Eleven Store,,4934 JOHNSTON ROAD,,Port Alberni,BC,V9Y 5L9,CA,2507244457,49.2338882,-124.8055494,,,,
7-Eleven Store,,310 WALE RD,,Victoria,BC,V9B 0J8,CA,2503911864,48.4411775,-123.4703586,,,,
7-Eleven Store,,2978 JACKLIN RD,,Langford,BC,V9B 0A3,CA,2504742421,48.4412317,-123.5111673,,,,
7-Eleven Store,,2953 JACKLIN RD,,Victoria,BC,V9B 3Y7,CA,2509152802,48.44072,-123.51109,,,,
7-Eleven Store,,955 CRAIGFLOWER RD,,Victoria,BC,V9A 2X8,CA,2504801638,48.44155,-123.40182,,,,
7-Eleven Store,,1006 GOVERNMENT STREET,,Duncan,BC,V9L 1C3,CA,2507484196,48.7786908,-123.7079416,,,,
7-Eleven Store,,321 TRANS CANADA HWY,,Duncan,BC,V9L 3R3,CA,2507484161,48.7786908,-123.7079416,,,,
7-Eleven Store,,400 LAKES ROAD,,Duncan,BC,V9L 5G6,CA,2507486924,48.7786908,-123.7079416,,,,
7-Eleven Store,,434 ESPLANADE AVE,,Ladysmith,BC,V9G 1A6,CA,2502458833,48.99534,-123.8161,,,,
7-Eleven Store,,190 NICOL STREET,,Nanaimo,BC,V9R 4S9,CA,2507165875,49.1580712,-123.9340959,,,,
7-Eleven Store,,6201 BLUEBACK ROAD,,Nanaimo,BC,V9V 1A8,CA,2507518973,49.1658836,-123.9400647,,,,
7-Eleven Store,,1602 BOWEN ROAD,,Nanaimo,BC,V9S 1G3,CA,2507534233,49.1658836,-123.9400647,,,,
7-Eleven Store,,477 TERMINAL AVE,,Nanaimo,BC,V9S 4J8,CA,2507531721,49.1658836,-123.9400647,,,,
7-Eleven Store,,506 - 5TH ST,,Nanaimo,BC,V9R 1P1,CA,2507545631,49.1658836,-123.9400647,,,,
7-Eleven Store,,2875 DEPARTURE BAY RD,,Nanaimo,BC,V9S 3X1,CA,2507580940,49.2059293,-123.9698707,,,,
7-Eleven Store,,2945 HIGHWAY 16 E,,Prince George,BC,V2K 5C4,CA,2509637621,53.90663,-122.67877,,,,
7-Eleven Store,,1720 QUEENSWAY ST,,Prince George,BC,V2L 1L8,CA,2505647118,53.9083614,-122.7422623,,,,
7-Eleven Store,,3333-15 AVE,,Prince George,BC,V2N 1A1,CA,2505631176,53.90998,-122.78279,,,,
7-Eleven Store,,1588 - 20TH AVENUE,,Prince George,BC,V2L 4B5,CA,2505647119,53.9170641,-122.7496693,,,,
7-Eleven Store,,"#1, 490 OSPIKA BLVD S",,Prince George,BC,V2M 3R3,CA,2505639996,53.9209,-122.79378,,,,
7-Eleven Store,,#206-100 SOUTH TABOR BLVD,,Prince George,BC,V2M 5T4,CA,2505632223,53.92654,-122.80249,,,,
7-Eleven Store,,3688 AUSTIN RD W,,Prince George,BC,V2K 2H6,CA,2509622281,53.98946,-122.78841,,,,
7-Eleven Store,,75 CENTENNIAL AVENUE,,Mackenzie,BC,V0J 2C0,CA,2509974141,55.3382895,-123.0918456,,,,
7-Eleven Store,,40 BRANDT STREET,,Steinbach,MB,R5G 0T3,CA,2043261329,49.5284711,-96.6915176,,,,
7-Eleven Store,,7 KILLARNEY AVE,,Winnipeg,MB,R3T 3B1,CA,2049850152,49.789424,-97.157143,,,,
7-Eleven Store,,1622 ST MARY'S ROAD,,Winnipeg,MB,R2M 3W7,CA,2049850179,49.8206443,-97.1135883,,,,
7-Eleven Store,,628 ST ANNE'S,,Winnipeg,MB,R2M 4M3,CA,2049850218,49.835602,-97.091296,,,,
7-Eleven Store,,801 REGENT AVE.,,Winnipeg,MB,R2C 3A7,CA,2049850130,49.8762795,-97.0269405,,,,
7-Eleven Store,,234 ST MARY'S RD,,Winnipeg,MB,R2H 1J6,CA,2049850116,49.833121,-97.114289,,,,
7-Eleven Store,,1124 ST MARY'S RD,,Winnipeg,MB,R2M 3T4,CA,2049850184,49.845573,-97.097099,,,,
7-Eleven Store,,104 REGENT AVENUE,,Winnipeg,MB,R2C 0C1,CA,2049850188,49.9069483,-97.0024108,,,,
7-Eleven Store,,183 MARION STREET,,Winnipeg,MB,R2H 0T2,CA,2049850115,49.855302,-97.112112,,,,
7-Eleven Store,,1490 PEMBINA HWY,,Winnipeg,MB,R3T 2E3,CA,2049850127,49.8354579,-97.150356,,,,
7-Eleven Store,,1393 HENDERSON HWY,,Winnipeg,MB,R2G 1N1,CA,2049850146,49.870986,-97.093305,,,,
7-Eleven Store,,568 OSBORNE ST.,,Winnipeg,MB,R3L 2B4,CA,2049850122,49.8682187,-97.1223145,,,,
7-Eleven Store,,734 ST MARY'S RD,,Winnipeg,MB,R2M 3N4,CA,2049850194,49.874972,-97.117726,,,,
7-Eleven Store,,1131 NAIRN AVENUE,,Winnipeg,MB,R2L 0Y6,CA,2049850137,49.90008,-97.076204,,,,
7-Eleven Store,,920 ARCHIBALD STREET,,Winnipeg,MB,R2J 0Z1,CA,2049850113,49.88152,-97.120323,,,,
7-Eleven Store,,781 CORYDON AVE.,,Winnipeg,MB,R3M 0W5,CA,2049850117,49.870286,-97.154975,,,,
7-Eleven Store,,438 ST ANNE'S ROAD,,Winnipeg,MB,R2M 3B4,CA,2049850178,49.863448,-97.186016,,,,
7-Eleven Store,,627 ELLICE AVE,,Winnipeg,MB,R3G 0A6,CA,2049850108,49.88046,-97.1611011,,,,
7-Eleven Store,,456 TALBOT AVE,,Winnipeg,MB,R2L 0R6,CA,2049850142,49.9177358,-97.0978846,,,,
7-Eleven Store,,554 KEENLYSIDE ST,,Winnipeg,MB,R2K 3H2,CA,2049850135,49.919875,-97.095078,,,,
7-Eleven Store,,427 ACADAMY RD,,Winnipeg,MB,R3N 0C2,CA,2049850100,49.87387,-97.185088,,,,
7-Eleven Store,,891 ARLINGTON ST,,Winnipeg,MB,R3E 3L4,CA,2049850104,49.87387,-97.185088,,,,
7-Eleven Store,,355 HENDERSON HWY,,Winnipeg,MB,R2L 1M9,CA,2049850131,49.917162,-97.11366,,,,
7-Eleven Store,,500 WILLIAM AVE,,Winnipeg,MB,R3A 0J7,CA,2049850112,49.8990702,-97.1517827,,,,
7-Eleven Store,,1184 PORTAGE AVE,,Winnipeg,MB,R3G 0T4,CA,2049850125,49.88326,-97.18294,,,,
7-Eleven Store,,404 EDISON AVE,,Winnipeg,MB,R2G 0M1,CA,2049850150,49.9379934,-97.0795098,,,,
7-Eleven Store,,815 ELLICE AVE,,Winnipeg,MB,R3G 0C3,CA,2049850110,49.8935964,-97.1688541,,,,
7-Eleven Store,,1370 MAIN ST,,Winnipeg,MB,R2W 3T8,CA,2049850156,49.9220907,-97.1170373,,,,
7-Eleven Store,,1091 HENDERSON HWY,,Winnipeg,MB,R2G 4H4,CA,2049850193,49.9371432,-97.093062,,,,
7-Eleven Store,,119 SALTER ST,,Winnipeg,MB,R2W 4J7,CA,2045896084,49.91352,-97.14208,,,,
7-Eleven Store,,909 LORETTE AVE,,Winnipeg,MB,R3M 1V2,CA,2049850120,49.878832,-97.212898,,,,
7-Eleven Store,,1795 PORTAGE AVE,,Winnipeg,MB,R3J 0E8,CA,2049850164,49.879169,-97.2125682,,,,
7-Eleven Store,,1445 CORYDON AVE,,Winnipeg,MB,R3N 0J2,CA,2049850101,49.904157,-97.16802,,,,
7-Eleven Store,,1103 PEMBINA HWY,,Winnipeg,MB,R3T 2A1,CA,2044757711,49.944557,-97.087104,,,,
7-Eleven Store,,630 WATT ST,,Winnipeg,MB,R2K 2R7,CA,2049850144,49.944557,-97.087104,,,,
7-Eleven Store,,1863 HENDERSON HWY,,Winnipeg,MB,R3J 2G7,CA,2049850147,49.952767,-97.075742,,,,
7-Eleven Store,,3510 ROBLIN BLVD,,Winnipeg,MB,R3R 0C9,CA,2049850166,49.8569823,-97.2601743,,,,
7-Eleven Store,,1880 NESS AVE,,Winnipeg,MB,R3J 3M3,CA,2049850160,49.88419,-97.218425,,,,
7-Eleven Store,,1871 MAIN ST,,Winnipeg,MB,R2V 2A5,CA,2049850149,49.939471,-97.115332,,,,
7-Eleven Store,,772 MOUNTAIN AVENUE,,Winnipeg,MB,R2X 1C1,CA,2049850158,49.926522,-97.151027,,,,
7-Eleven Store,,665 MCPHILLIPS ST,,Winnipeg,MB,R2X 2H3,CA,2045867597,49.92361,-97.16886,,,,
7-Eleven Store,,1895 WELLINGTON AVE,,Winnipeg,MB,R3H 0E5,CA,2049850216,49.9017389,-97.2189617,,,,
7-Eleven Store,,1007 MCPHILLIPS STREET,,Winnipeg,MB,R2X 2K3,CA,2049850195,49.9309816,-97.1648431,,,,
7-Eleven Store,,120 KEEWATIN ST,,Winnipeg,MB,R3E 3C8,CA,2049850207,49.9221446,-97.1955396,,,,
7-Eleven Store,,530 DALE BLVD,,Winnipeg,MB,R3R 1P7,CA,2049850128,49.8620586,-97.3142483,,,,
7-Eleven Store,,3021 NESS AVE,,Winnipeg,MB,R2Y 2J1,CA,2049850162,49.8880969,-97.2797396,,,,
7-Eleven Store,,1200 JEFFERSON AVE,,Winnipeg,MB,R2P 0N1,CA,2049850151,49.9501105,-97.1688325,,,,
7-Eleven Store,,"UNIT 7, 3380 PORTAGE AVE",,Winnipeg,MB,R3K 0Z1,CA,2049850215,49.8825878,-97.2989051,,,,
7-Eleven Store,,55 MAIN ST,,Selkirk,MB,R1A 1P9,CA,2047854845,50.1309853,-96.8903145,,,,
7-Eleven Store,,1221 SASKATCHEWAN AVE. W.,,Portage La Prairie,MB,R1N 3H5,CA,2048562001,49.9728234,-98.3068555,,,,
7-Eleven Store,,718 SASKATCHEWAN AVE,,Portage La Prairie,MB,R1N 0K4,CA,2048562010,49.9727134,-98.3067692,,,,
7-Eleven Store,,915 MAIN ST,,Winkler,MB,R6W 0A0,CA,2043255073,49.19305,-97.93904,,,,
7-Eleven Store,,109 MAIN ST. S.,,Dauphin,MB,R7N 1K4,CA,2046223770,51.1489632,-100.05131,,,,
7-Eleven Store,,701 10TH ST,,Brandon,MB,R7A 4G7,CA,2047290221,49.9727134,-99.951463,,,,
7-Eleven Store,,3360 VICTORIA AVE WEST,,Brandon,MB,R7B 2R5,CA,2047290223,49.8418248,-99.9841742,,,,
7-Eleven Store,,5 WILLOWDALE CRES,,Brandon,MB,R7B 2X3,CA,2047290220,49.832971,-99.9746104,,,,
7-Eleven Store,,279 BROADWAY ST EAST,,Yorkton,SK,S3N 4B2,CA,3067820098,51.21062,-102.44327,,,,
7-Eleven Store,,112 BROADWAY STREET W.,,Yorkton,SK,S3N 0M2,CA,3067823050,51.2101201,-102.4700039,,,,
7-Eleven Store,,245 WENTWORTH ST,,Oshawa,ON,L1J 1M9,CA,9055713263,43.8699341,-78.851556,,,,
7-Eleven Store,,2 ROSSLAND RD WEST,,Ajax,ON,L1T 4S7,CA,9054288099,43.8799088,-79.0276752,,,,
7-Eleven Store,,704 KINGSTON RD,,Pickering,ON,L1V 1A8,CA,9054209369,43.8194794,-79.1148649,,,,
7-Eleven Store,,157 HOLLAND ST,,Bradford,ON,L3Z 1X7,CA,9057788662,44.1156881,-79.5591349,,,,
7-Eleven Store,,7389 MCCCOWN RD,,Markham,ON,L3S 3H8,CA,9054159940,43.8412694,-79.2781484,,,,
7-Eleven Store,,2067 RUTHERFORD ROAD,,Vaughan,ON,L4K 5T6,CA,9058790711,43.8382412,-79.5025011,,,,
7-Eleven Store,,4806 YONGE ST,,Toronto,ON,M2N 5M9,CA,4162210381,43.7620052,-79.4111337,,,,
7-Eleven Store,,3711 RUTHERFORD ROAD,,Woodbridge,ON,L4L 1A6,CA,9052641224,43.8265154,-79.5529121,,,,
7-Eleven Store,,3587 BATHURST ST,,Toronto,ON,M6A 2E2,CA,4167818530,43.732205,-79.4327527,,,,
7-Eleven Store,,975 DANFORTH AVE,,Toronto,ON,M4J 1M1,CA,4164698302,43.6802768,-79.3375108,,,,
7-Eleven Store,,1 EGLINTON AVE EAST,,Toronto,ON,M4P 3A1,CA,4164809645,43.7059012,-79.4030564,,,,
7-Eleven Store,,1151 QUEEN ST EAST,,Toronto,ON,M4M 1L2,CA,4164634531,43.6621625,-79.333897,,,,
7-Eleven Store,,680 YONGE ST,,Toronto,ON,M4Y 2A6,CA,4169216795,43.6674286,-79.385749,,,,
7-Eleven Store,,1 CARLTON AVE,,Toronto,ON,M5B 0A0,CA,4165421038,43.666067,-79.3830594,,,,
7-Eleven Store,,"#7, 1033 BAY ST",,Toronto,ON,M5S 3A5,CA,4164139391,43.666067,-79.3877189,,,,
7-Eleven Store,,334 BLOOR STREET WEST,,Toronto,ON,M5S 1W9,CA,4169449490,43.6667143,-79.4042468,,,,
7-Eleven Store,,310 O'CONNOR,,Toronto,ON,M4J 2T9,CA,4164251842,43.653226,-79.3831843,,,,
7-Eleven Store,,1718A WILSON AVE.,,Toronto,ON,M3L 1A6,CA,4162441928,43.7200487,-79.5135798,,,,
7-Eleven Store,,328 YONGE ST,,Toronto,ON,M5B 1R8,CA,4165910949,43.6509357,-79.3814813,,,,
7-Eleven Store,,372 BAY STREET,,Toronto,ON,M5H 2W9,CA,4162038350,43.650934,-79.3817158,,,,
7-Eleven Store,,260 COLLEGE STREET,,Toronto,ON,M5T 1R7,CA,4165916371,43.6579711,-79.399696,,,,
7-Eleven Store,,3657 LAKE SHORE BLVD,,Etobicoke,ON,M8W 1P7,CA,4162530691,43.6778472,-79.4429094,,,,
7-Eleven Store,,883 DUNDAS ST W,,Toronto,ON,M6J 1V8,CA,4163620450,43.6510639,-79.4111096,,,,
7-Eleven Store,,873 QUEEN ST W,,Toronto,ON,M6J 1G4,CA,4167032510,43.6456172,-79.4110227,,,,
7-Eleven Store,,1390 WESTON RD,,Toronto,ON,M6M 4S2,CA,4162486743,43.6912906,-79.5009304,,,,
7-Eleven Store,,1260 DUNDAS ST WEST,,Toronto,ON,M6J 1X6,CA,4165370443,43.6494886,-79.4248938,,,,
7-Eleven Store,,1730 BLOOR STREET W.,,Toronto,ON,M6P 1B3,CA,4167625058,43.6549657,-79.4592461,,,,
7-Eleven Store,,3355 DUNDAS ST WEST,,Toronto,ON,M6S 2R8,CA,4167633891,43.6654812,-79.4822424,,,,
7-Eleven Store,,980 ISLINGTON AVE,,Toronto,ON,M8Z 4P8,CA,4162016872,43.6654812,-79.4822424,,,,
7-Eleven Store,,1169 ST. CLAIR AVE W,,Toronto,ON,M6E 1B2,CA,4166565572,43.6293,-79.5171444,,,,
7-Eleven Store,,2480 LAKESHORE BLVD WEST,,Etobicoke,ON,M8V 1C9,CA,4162599452,43.6127905,-79.489805,,,,
7-Eleven Store,,140 FATHER TOBIN RD,,Brampton,ON,L6R 3P1,CA,9054587199,43.7710005,-79.7565102,,,,
7-Eleven Store,,3260 LAKESHORE BLVD WEST,,Etobicoke,ON,M8V 1M4,CA,4162529275,43.5970216,-79.5229456,,,,
7-Eleven Store,,6145 VISCOUNT RD,,Mississauga,ON,L4V 1T2,CA,9056737953,43.5935033,-79.5371021,,,,
7-Eleven Store,,131 KENNEDY RD,,Brampton,ON,L6V 1X9,CA,9054596512,43.7034595,-79.7599671,,,,
7-Eleven Store,,150 MAIN ST N.,,Brampton,ON,L6V 1N9,CA,9054531282,43.6882255,-79.7630647,,,,
7-Eleven Store,,5980 AIRPORT RD,,Mississauga,ON,L5P 1B1,CA,9056712875,43.5890452,-79.6441198,,,,
7-Eleven Store,,2330 BATTLEFORD ROAD,,Mississauga,ON,L5N 3K6,CA,9058146200,43.5857126,-79.7406689,,,,
7-Eleven Store,,425 UNIVERSITY AVE E,,Waterloo,ON,N2K 4C9,CA,5197458549,43.9178845,-80.1035099,,,,
7-Eleven Store,,6980 LISGAR DRIVE,,Mississauga,ON,L5N 8C8,CA,9058249494,43.5767312,-79.7837583,,,,
7-Eleven Store,,3965 THOMAS STREET,,Mississauga,ON,L5M 7B8,CA,9058170160,43.5488112,-79.7514577,,,,
7-Eleven Store,,333 MOUNTAINVIEW RD S,,Georgetown,ON,L7G 6E8,CA,9058779008,43.6328734,-79.8784056,,,,
7-Eleven Store,,2267 LAKESHORE RD. W.,,Oakville,ON,L6L 1H1,CA,9058253229,43.3991821,-79.7066901,,,,
7-Eleven Store,,314-316 LAKE ST,,Saint Catherines,ON,L2N 4H4,CA,9059345885,43.1861997,-79.2513312,,,,
7-Eleven Store,,104 LAKE ST,,Saint Catherines,ON,L2R 5X8,CA,9056843255,43.1644701,-79.2505359,,,,
7-Eleven Store,,3455 FAIRVIEW ST,,Burlington,ON,L7N 2R4,CA,9056345137,43.3575879,-79.7820962,,,,
7-Eleven Store,,102-106 HARTZELL RD,,Saint Catherines,ON,L2P 1N4,CA,9056824994,43.1593745,-79.2468626,,,,
7-Eleven Store,,735 GUELPH LINE,,Burlington,ON,L7N 3N2,CA,9056810715,43.3451723,-79.7945295,,,,
7-Eleven Store,,4025 DORCHESTER RD,,Niagara Falls,ON,L2E 6N1,CA,9053574523,43.1147107,-79.1128125,,,,
7-Eleven Store,,17 CLAREMONT ST.,,Thorold,ON,L2V 1R2,CA,9052278311,43.1235931,-79.1990152,,,,
7-Eleven Store,,5104 VICTORIA AVE,,Niagara Falls,ON,L2E 4E3,CA,9053573400,43.1003642,-79.0728738,,,,
7-Eleven Store,,7270 DRUMMOND ROAD,,Niagara Falls,ON,L2G 7B5,CA,9053564417,43.0690045,-79.0969382,,,,
7-Eleven Store,,3 HURON STREET,,Woodstock,ON,N4S 6Y9,CA,5195377977,43.5671889,-80.2479292,,,,
7-Eleven Store,,415 MELVIN AVE.,,Hamilton,ON,L8H 2L4,CA,9055472422,43.2411068,-79.7790332,,,,
7-Eleven Store,,1190 MAIN ST E.,,Hamilton,ON,L8M 1P5,CA,9055497780,43.2424975,-79.8202019,,,,
7-Eleven Store,,108 YORK BLVD,,Hamilton,ON,L8R 1R6,CA,9055229294,43.259939,-79.8726669,,,,
7-Eleven Store,,622 UPPER WELLINGTON ST.,,Hamilton,ON,L9A 3R1,CA,9053899670,43.2369525,-79.8678226,,,,
7-Eleven Store,,6 CROWLAND AVE,,Welland,ON,L3B 1W9,CA,9057357806,42.9934371,-79.236358,,,,
7-Eleven Store,,111 CLARENCE STREET,,Port Colborne,ON,L3K 3G2,CA,9058355156,42.8862361,-79.2546496,,,,
7-Eleven Store,,268 BROADWAY @ CENTRE,,Orangeville,ON,L9W 1K8,CA,5199388687,43.5668137,-80.2581249,,,,
7-Eleven Store,,#100 4201 28TH ST,,Stony Plain,AB,T7Z 0K3,CA,7809638011,43.48946,-80.4937781,,,,
7-Eleven Store,,256 KING STREET NORTH,,Waterloo,ON,N2J 2Y9,CA,5198866138,43.4544455,-80.503101,,,,
7-Eleven Store,,585 ERAMOSA RD,,Guelph,ON,N1E 2N4,CA,5198214431,43.4764534,-80.5248599,,,,
7-Eleven Store,,327 ERIE ST,,Stratford,ON,N5A 2N1,CA,5192710862,43.1316151,-80.7473391,,,,
7-Eleven Store,,328 SPEEDVALE AVE E.,,Guelph,ON,N1E 1N5,CA,5198363746,43.3636756,-80.9895688,,,,
7-Eleven Store,,1579 OXFORD ST E,,London,ON,N5V 1W5,CA,5194553032,43.011432,-81.1984016,,,,
7-Eleven Store,,1076 COMMISSIONERS RD E,,London,ON,N5Z 4T4,CA,5196861210,42.9615694,-81.2010991,,,,
7-Eleven Store,,1181 WESTERN RD,,London,ON,N6G 1C6,CA,5194327535,43.0015679,-81.2766457,,,,
7-Eleven Store,,72 WHARNCLIFFE RD. N.,,London,ON,N6H 2A3,CA,5194333025,42.9841643,-81.262895,,,,
7-Eleven Store,,647 WELLINGTON RD,,London,ON,N6C 4R4,CA,5196859381,42.9510295,-81.2286013,,,,
7-Eleven Store,,10 GRAND AVE WEST,,Chatham,ON,N7L 1B5,CA,5193549050,42.4078543,-82.1911557,,,,
7-Eleven Store,,366 CHRISTINA STREET N.,,Sarnia,ON,N7T 5V7,CA,5193378988,42.9786362,-82.4038885,,,,
7-Eleven Store,,146 MITTON STREET S,,Sarnia,ON,N7T 3C7,CA,5193449868,42.968622,-82.3984336,,,,
7-Eleven Store,,138 ERIE STREET S.,,Leamington,ON,N8H 3B7,CA,5193221892,42.0466846,-82.6001894,,,,
7-Eleven Store,,5124 TECUMSEH ROAD,,Windsor,ON,N8T 1C1,CA,5199453085,42.3082682,-82.9633157,,,,
7-Eleven Store,,971 WYANDOTTE ST.E.,,Windsor,ON,N9A 3K1,CA,5192525114,42.3190609,-83.0226105,,,,
7-Eleven Store,,925 OTTAWA ST,,Windsor,ON,N8X 2E2,CA,5192528874,42.3082442,-83.0168152,,,,
7-Eleven Store,,278 TECUMSEH RD E,,Windsor,ON,N8X 2R3,CA,5192568989,42.2972961,-83.020895,,,,
7-Eleven Store,,2585 WYANDOTTE STREET. W,,Windsor,ON,N9B 1K6,CA,5192560331,42.3042979,-83.0652191,,,,
7-Eleven Store,,212 GOVERNMENT STREET,,Dryden,ON,P8N 2R1,CA,8072236048,49.7800938,-92.8369592,,,,
7-Eleven Store,,1015 MCKERCHER DRIVE,,Saskatoon,SK,S7H 5P7,CA,3069756650,52.1154183,-106.5867905,,,,
7-Eleven Store,,1930 8TH ST E,,Saskatoon,SK,S7H 0T7,CA,3069756645,52.1146882,-106.6261582,,,,
7-Eleven Store,,1001-8TH STREET EAST.,,Saskatoon,SK,S7H 0S2,CA,3069756649,52.1150522,-106.6459296,,,,
7-Eleven Store,,835A BROADWAY AVE,,Saskatoon,SK,S7N 1B5,CA,3069756641,52.1168441,-106.6566723,,,,
7-Eleven Store,,1100 CENTRAL AVE,,Saskatoon,SK,S7N 2H1,CA,3069756642,52.139692,-106.5990441,,,,
7-Eleven Store,,380 2ND AVE N.,,Saskatoon,SK,S7K 2B9,CA,3069750921,52.1331781,-106.6615045,,,,
7-Eleven Store,,1528-22 STREET WEST,,Saskatoon,SK,S7M 0T1,CA,3069756647,52.1295974,-106.6934535,,,,
7-Eleven Store,,234 PENDYGRASSE RD,,Saskatoon,SK,S7M 5A4,CA,3069750092,52.1212779,-106.7246342,,,,
7-Eleven Store,,1435 IDYLWYLD DRIVE NORTH,,Saskatoon,SK,S7L 1A7,CA,3069756648,52.1485947,-106.6703742,,,,
7-Eleven Store,,#8 ASSINIBOINE DR,,Saskatoon,SK,S7K 1H2,CA,3069756643,52.161172,-106.6456317,,,,
7-Eleven Store,,3303 33RD ST W,,Saskatoon,SK,S7L 4P5,CA,3069756640,52.143803,-106.7268896,,,,
7-Eleven Store,,740 MAIN STREET,,Humboldt,SK,S0K 2A0,CA,3066825711,52.196404,-105.12287,,,,
7-Eleven Store,,1210 - 13 AVENUE NORTH,,Moose Jaw,SK,S6H 7N4,CA,3066921779,50.4034359,-105.5765996,,,,
7-Eleven Store,,7 CENTENNIAL DR N,,Martensville,SK,S0K 2T0,CA,3062422460,52.28958,-106.66988,,,,
7-Eleven Store,,20 CARIBOU STREET WEST,,Moose Jaw,SK,S6H 2J6,CA,3066926694,50.396856,-105.5348717,,,,
7-Eleven Store,,1106 DEVONSHIRE DR. NORTH,,Regina,SK,S4X 3P2,CA,3067916930,50.4952397,-104.672546,,,,
7-Eleven Store,,1824 9TH AVE N,,Regina,SK,S4R 7T4,CA,3067916911,50.4843621,-104.61026,,,,
7-Eleven Store,,505 ALBERT ST,,Regina,SK,S4R 2P2,CA,3067916912,50.4696754,-104.618025,,,,
7-Eleven Store,,505 BROAD STREET,,Regina,SK,S4R 1X5,CA,3067916929,50.4705987,-104.6061192,,,,
7-Eleven Store,,2101 PASQUA STREET,,Regina,SK,S4T 4M3,CA,3067916919,50.4454084,-104.6409444,,,,
7-Eleven Store,,2934 DEWDNEY ST,,Regina,SK,S4T 0X9,CA,3067916910,50.4551167,-104.6238721,,,,
7-Eleven Store,,2177 BROAD STREET,,Regina,SK,S4P 1Y6,CA,3067916921,50.4440323,-104.6062212,,,,
7-Eleven Store,,3210 MONTAGUE ST,,Regina,SK,S4S 1Z9,CA,3067916920,50.4283382,-104.6297026,,,,
7-Eleven Store,,938 VICTORIA AVE,,Regina,SK,S4N 0R7,CA,3067916915,50.4474293,-104.594907,,,,
7-Eleven Store,,1761 DEWDNEY AVE EAST,,Regina,SK,S4N 4N6,CA,3067916914,50.4550786,-104.5586895,,,,
7-Eleven Store,,4210 ALBERT STREET,,Regina,SK,S4S 3R9,CA,3067916913,50.4122314,-104.618226,,,,
7-Eleven Store,,2323 E. QUANCE STREET,,Regina,SK,S4V 2Z3,CA,3067916934,50.4434998,-104.5495671,,,,
7-Eleven Store,,102 MAIN STREET,,Melfort,SK,S0E 1A0,CA,3067525711,52.8597082,-104.6112856,,,,
7-Eleven Store,,359 100A STREET,,Tisdale,SK,S0E 1T0,CA,3068734349,52.84181,-104.050666,,,,
7-Eleven Store,,606 BRANION DRIVE,,Prince Albert,SK,S6V 2S1,CA,3067648355,53.1913711,-105.7371576,,,,
7-Eleven Store,,215 - 15 AVENUE WEST,,Prince Albert,SK,S6V 3P9,CA,3067642101,53.1989854,-105.7601678,,,,
7-Eleven Store,,#5 - 1ST AVENUE NW,,Weyburn,SK,S4H 1N6,CA,3068427887,49.6683377,-103.858248,,,,
7-Eleven Store,,2061 MILLAR RD,,Weyburn,SK,S4H 3R4,CA,3068426711,49.6681,-103.82417,,,,
7-Eleven Store,,913 - 13 AVENUE,,Estevan,SK,S4A 2L9,CA,3066347111,49.1467697,-102.9919976,,,,
7-Eleven Store,,537 4TH ST,,Estevan,SK,S4A 0V2,CA,3066346100,49.1357783,-102.9825388,,,,
7-Eleven Store,,1752 100 ST (MAIN ST),,North Battleford,SK,S9A 0W8,CA,3064454664,52.783841,-108.2987694,,,,
7-Eleven Store,,219 RAILWAY AVE. W.,,Rosetown,SK,S0L 2V0,CA,3068824535,51.5486666,-107.9925038,,,,
7-Eleven Store,,720 SOUTH SERVICE ROAD E.,,Swift Current,SK,S9H 3X6,CA,3067733711,50.2995977,-107.7904542,,,,
