store_name,store_number,address,address2,city,state,zip_code,country,phone_number,latitude,longitude,store_hours,store_type,other_fields,coming_soon
CTown,41917,131-139 North Duke Street,,York,PA,17401,US,717.848.5480,39.9652590732078,-76.7269418109907,"Monday 8:00am-9:00pm, Tuesday 8:00am-9:00pm, Tuesday 8:00am-9:00pm, Tuesday 8:00am-9:00pm, Tuesday 8:00am-9:00pm, Tuesday 8:00am-9:00pm, Tuesday 8:00am-9:00pm",,,
CTown,41916,451 East King Street,,Lancaster,PA,17602,US,717.397.7561,40.039037755102,-76.2960393877551,"Monday 8:00am-8:00pm, Tuesday 8:00am-8:00pm, Tuesday 8:00am-8:00pm, Tuesday 8:00am-8:00pm, Tuesday 8:00am-8:00pm, Tuesday 8:00am-8:00pm, Tuesday 8:00am-6:00pm",,,
CTown,41981,100 E Commerce Street,,Bridgeton,NJ,08302,US,856.459.3340,39.4289652380952,-75.2333038095238,"Monday 7:00am-9:00pm, Tuesday 7:00am-9:00pm, Tuesday 7:00am-9:00pm, Tuesday 7:00am-9:00pm, Tuesday 7:00am-9:00pm, Tuesday 7:00am-9:00pm, Tuesday 7:00am-9:00pm",,,
CTown,41974,264 South 9Th Street,,Reading,PA,19602,US,610.374.1025,40.3309473170732,-75.9202158536585,"Monday 7:30am-8:00pm, Tuesday 7:30am-8:00pm, Tuesday 7:30am-8:00pm, Tuesday 7:30am-8:00pm, Tuesday 7:30am-8:00pm, Tuesday 7:30am-8:00pm, Tuesday 8:00am-6:00pm",,,
CTown,41975,600 Greenwich Street,,Reading,PA,19601,US,610.375.9239,40.3445,-75.92561,"Monday 7:30am-8:00pm, Tuesday 7:30am-8:00pm, Tuesday 7:30am-8:00pm, Tuesday 7:30am-8:00pm, Tuesday 7:30am-8:00pm, Tuesday 7:30am-8:00pm, Tuesday 8:00am-6:00pm",,,
CTown,41291,702 N 4Th Street,,Allentown,PA,18102,US,484.664.7060,40.61364,-75.4700344444444,"Monday 7:00am-9:00pm, Tuesday 7:00am-9:00pm, Tuesday 7:00am-9:00pm, Tuesday 7:00am-9:00pm, Tuesday 7:00am-9:00pm, Tuesday 7:00am-9:00pm, Tuesday 8:00am-8:00pm",,,
CTown,41292,220/230 East 3rd Street,,Bethlehem,PA,18015,US,610.866.5332,40.6120502040816,-75.3756546938776,"Monday 7:00am-7:30am, Tuesday 7:00am-9:00pm, Tuesday 7:00am-9:00pm, Tuesday 7:00am-9:00pm, Tuesday 7:00am-9:00pm, Tuesday 7:00am-9:00pm, Tuesday 8:00am-8:00pm",,,
CTown,41977,272 Maple Street,,Perth Amboy,NJ,08861,US,732.442.8809,40.509296122449,-74.2721442857143,"Monday 7:30am-9:00pm, Tuesday 7:30am-9:00pm, Tuesday 7:30am-9:00pm, Tuesday 7:30am-9:00pm, Tuesday 7:30am-9:00pm, Tuesday 7:30am-9:00pm, Tuesday 7:30am-9:00pm",,,
Ctown,42007,778 Manor Road,,Staten Island,NY,10314,US,718-370-1012,40.6087552347423,-74.1211582391729,"Monday 8:00am-9:00pm, Tuesday 8:00am-9:00pm, Tuesday 8:00am-9:00pm, Tuesday 8:00am-9:00pm, Tuesday 8:00am-9:00pm, Tuesday 8:00am-9:00pm, Tuesday 8:00am-8:00pm",,,
CTown,41304,2071 Clove Road,,Staten Island,NY,10304,US,718-682-1644,40.6035691452543,-74.0833896393262,"Monday 7:00am-11:00pm, Tuesday 7:00am-11:00pm, Tuesday 7:00am-11:00pm, Tuesday 7:00am-11:00pm, Tuesday 7:00am-11:00pm, Tuesday 7:00am-11:00pm, Tuesday 7:00am-11:00pm",,,
CTown,,910 18th Ave,,Newark,NJ,07106,US,862.234.2239,40.7383666666667,-74.2247833333333,"Monday 8:00am-8:00pm, Tuesday 8:00am-8:00pm, Tuesday 8:00am-8:00pm, Tuesday 8:00am-8:00pm, Tuesday 8:00am-8:00pm, Tuesday 8:00am-8:00pm, Tuesday 8:00am-8:00pm",,,
CTown,41978,120 Clinton Avenue,,Newark,NJ,07114,US,973.642.3663,40.7250514285714,-74.1825442857143,"Monday 8:00am-9:00pm, Tuesday 8:00am-9:00pm, Tuesday 8:00am-9:00pm, Tuesday 8:00am-9:00pm, Tuesday 8:00am-9:00pm, Tuesday 8:00am-9:00pm, Tuesday 8:00am-8:00pm",,,
CTown,41963,782 Broadway,,Bayonne,NJ,07002,US,201.339.1913,40.67377,-74.10992,"Monday 8:00am-9:00pm, Tuesday 8:00am-9:00pm, Tuesday 8:00am-9:00pm, Tuesday 8:00am-9:00pm, Tuesday 8:00am-9:00pm, Tuesday 8:00am-9:00pm, Tuesday 8:00am-7:00pm",,,
CTown,41958,16-26 North Day Street,,Orange,NJ,07050,US,973.672.2244,40.7726540837399,-74.2293415954625,"Monday 8:00am-8:00pm, Tuesday 8:00am-8:00pm, Tuesday 8:00am-8:00pm, Tuesday 8:00am-8:00pm, Tuesday 8:00am-8:00pm, Tuesday 8:00am-8:00pm, Tuesday 8:00am-5:00pm",,,
CTown,41989,2807-15 86th Street,,Brooklyn,NY,11223,US,347.270.8120,40.5927059546097,-73.9785771043801,"Monday 8:00am-9:00pm, Tuesday 8:00am-9:00pm, Tuesday 8:00am-9:00pm, Tuesday 8:00am-9:00pm, Tuesday 8:00am-9:00pm, Tuesday 8:00am-9:00pm, Tuesday 8:00am-8:00pm",,,
CTown,42008,7510 5th Ave,,Brooklyn,NY,11209,US,347-497-4292,40.6294004081633,-74.0226816326531,"Monday 8:00am-9:00pm, Tuesday 8:00am-9:00pm, Tuesday 8:00am-9:00pm, Tuesday 8:00am-9:00pm, Tuesday 8:00am-9:00pm, Tuesday 8:00am-9:00pm, Tuesday 9:00am-8:00pm",,,
CTown,41983,6614 18Th Ave,,Brooklyn,NY,11204,US,718.331.9376,40.6184328571429,-73.9908814285714,"Monday 7:30am-8:00pm, Tuesday 7:30am-8:00pm, Tuesday 7:30am-8:00pm, Tuesday 7:30am-8:00pm, Tuesday 7:30am-8:00pm, Tuesday 7:30am-7:30pm, Tuesday 7:30am-5:00pm",,,
CTown,42009,1709 Avenue U,,Brooklyn,NY,11229,US,718-645-6296,40.599311,-73.954201,"Monday 7:00am-10:00pm, Tuesday 7:00am-10:00pm, Tuesday 7:00am-10:00pm, Tuesday 7:00am-10:00pm, Tuesday 7:00am-10:00pm, Tuesday 7:00am-10:00pm, Tuesday 7:00am-10:00pm",,,
CTown,41919,4705 Fifth Avenue,,Brooklyn,NY,11220,US,718.972.0890,40.6467579591837,-74.0086020408163,"Monday 8:00am-8:00pm, Tuesday 8:00am-8:00pm, Tuesday 8:00am-8:00pm, Tuesday 8:00am-8:00pm, Tuesday 8:00am-8:00pm, Tuesday 8:00am-8:00pm, Tuesday 8:00am-8:00pm",,,
CTown,41314,760 4Th Avenue,,Brooklyn,NY,11232,US,718.832.8900,40.6603755555556,-73.9982111111111,"Monday 7:00am-10:00pm, Tuesday 7:00am-10:00pm, Tuesday 7:00am-10:00pm, Tuesday 7:00am-10:00pm, Tuesday 7:00am-10:00pm, Tuesday 7:00am-10:00pm, Tuesday 8:00am-9:00pm",,,
CTown,41914,597 E 16Th Street,,Brooklyn,NY,11226,US,718.434.2712,40.6356361105135,-73.9624241162428,"Monday 8:00am-9:00pm, Tuesday 8:00am-9:00pm, Tuesday 8:00am-9:00pm, Tuesday 8:00am-9:00pm, Tuesday 8:00am-9:00pm, Tuesday 8:00am-9:00pm, Tuesday 8:00am-7:00pm",,,
CTown,41960,57 Mill St,,Brooklyn,NY,11231,US,718.858.1924,40.6759025,-74.0045265,"Monday 7:30am-8:00pm, Tuesday 7:30am-8:00pm, Tuesday 7:30am-8:00pm, Tuesday 7:30am-9:00pm, Tuesday 7:30am-9:00pm, Tuesday 7:30am-9:00pm, Tuesday 7:30am-8:00pm",,,
CTown,41990,1188 Flatbush Ave,,Brooklyn,NY,11226,US,718.284.1188,40.6412884615385,-73.9564130769231,"Monday 8:00am-9:30pm, Tuesday 8:00am-9:30pm, Tuesday 8:00am-9:30pm, Tuesday 8:00am-9:30pm, Tuesday 8:00am-9:30pm, Tuesday 8:00am-9:30pm, Tuesday 8:00am-7:30pm",,,
CTown,41943,885 Bergen Avenue,,Jersey City,NJ,07306,US,201.795.1740,40.7294469230769,-74.0658653846154,"Monday 7:00am-8:30pm, Tuesday 7:00am-8:30pm, Tuesday 7:00am-8:30pm, Tuesday 7:00am-8:30pm, Tuesday 7:00am-8:30pm, Tuesday 7:00am-8:30pm, Tuesday 7:00am-6:00pm",,,
CTown,41287,329 Ninth Street,,Brooklyn,NY,11215,US,718.768.3219,40.6688847368421,-73.9856615789474,"Monday 7:00am-10:00pm, Tuesday 7:00am-10:00pm, Tuesday 7:00am-10:00pm, Tuesday 7:00am-10:00pm, Tuesday 7:00am-10:00pm, Tuesday 7:00am-10:00pm, Tuesday 7:00am-10:00pm",,,
Ctown,41964,1761 Nostrand Ave,,Brooklyn,NY,11226,US,718.894.9400,40.6429277272727,-73.9487159090909,"Monday 8:00am-8:00pm, Tuesday 8:00am-8:00pm, Tuesday 8:00am-8:00pm, Tuesday 8:00am-8:00pm, Tuesday 8:00am-8:00pm, Tuesday 8:00am-8:00pm, Tuesday 8:00am-6:00pm",,,
CTown,41962,239 Bond Street,,Brooklyn,NY,11217,US,718.852.8542,40.68208625,-73.9881225,"Monday 8:00am-8:00pm, Tuesday 8:00am-8:00pm, Tuesday 8:00am-8:00pm, Tuesday 8:00am-8:00pm, Tuesday 8:00am-8:00pm, Tuesday 8:00am-8:00pm, Tuesday 8:00am-7:00pm",,,
CTown,41965,1362 Nostrand Ave,,Brooklyn,NY,11226,US,718.941.4552,40.6534756,-73.9498596,"Monday 8:00am-8:00pm, Tuesday 8:00am-8:00pm, Tuesday 8:00am-8:00pm, Tuesday 8:00am-8:00pm, Tuesday 8:00am-8:00pm, Tuesday 8:00am-8:00pm, Tuesday 8:00am-6:00pm",,,
CTown,41947,7924 Flatlands Ave,,Brooklyn,NY,11236,US,718.241.4848,40.635134137931,-73.9138637931034,"Monday 7:30am-10:00pm, Tuesday 7:30am-10:00pm, Tuesday 7:30am-10:00pm, Tuesday 7:30am-10:00pm, Tuesday 7:30am-10:00pm, Tuesday 7:30am-10:00pm, Tuesday 7:30am-8:00pm",,,
CTown,41911,5 St James Place,,New York,NY,10038,US,212.732.5653,40.71111,-74.00038,"Monday 7:00am-8:00pm, Tuesday 7:00am-8:00pm, Tuesday 7:00am-8:00pm, Tuesday 7:00am-8:00pm, Tuesday 7:00am-8:00pm, Tuesday 7:00am-8:00pm, Tuesday 9:00am-6:00pm",,,
Ctown,41301,5311 Church Ave,,Brooklyn,NY,11203,US,718-346-4375,40.6523271428571,-73.9274120408163,"Monday 7:00am-10:00pm, Tuesday 7:00am-10:00pm, Tuesday 7:00am-10:00pm, Tuesday 7:00am-10:00pm, Tuesday 7:00am-10:00pm, Tuesday 7:00am-10:00pm, Tuesday 7:00am-10:00pm",,,
CTown,41956,506 Central Ave,,Jersey City,NJ,07307,US,201.798.9293,40.751865,-74.045305,"Monday 8:00am-9:00pm, Tuesday 8:00am-9:00pm, Tuesday 8:00am-9:00pm, Tuesday 8:00am-9:00pm, Tuesday 8:00am-9:00pm, Tuesday 8:00am-9:00pm, Tuesday 8:00am-7:00pm",,,
CTown,41959,330 Utica Avenue,,Brooklyn,NY,11213,US,718.363.0404,40.6666792857143,-73.9313157142857,"Monday 7:00am-10:00pm, Tuesday 7:00am-10:00pm, Tuesday 7:00am-10:00pm, Tuesday 7:00am-10:00pm, Tuesday 7:00am-10:00pm, Tuesday 7:00am-10:00pm, Tuesday 7:00am-10:00pm",,,
CTown,41955,241 Taaffe Place,,Brooklyn,NY,11205,US,718.230.7668,40.6915955769231,-73.9596642307692,"Monday 7:00am-10:00pm, Tuesday 7:00am-10:00pm, Tuesday 7:00am-10:00pm, Tuesday 7:00am-10:00pm, Tuesday 7:00am-10:00pm, Tuesday 7:00am-10:00pm, Tuesday 7:00am-10:00pm",,,
CTown,41322,146 E 98Th Street,,Brooklyn,NY,11212,US,718.773.3124,40.6632646153846,-73.9209984615385,"Monday 8:00am-8:00pm, Tuesday 8:00am-8:00pm, Tuesday 8:00am-8:00pm, Tuesday 8:00am-8:00pm, Tuesday 8:00am-8:00pm, Tuesday 8:00am-8:00pm, Tuesday 8:00am-6:00pm",,,
CTown,41297,29 Belmont Ave,,Brooklyn,NY,11212,US,718.345.8877,40.6686036363636,-73.9093327272727,"Monday 8:00am-8:00pm, Tuesday 8:00am-8:00pm, Tuesday 8:00am-8:00pm, Tuesday 8:00am-8:00pm, Tuesday 8:00am-8:00pm, Tuesday 8:00am-8:00pm, Tuesday 9:00am-8:00pm",,,
CTown,41907,188 Avenue C,,New York,NY,10009,US,212.505.7577,40.72709,-73.97664,"Monday 8:00am-8:00pm, Tuesday 8:00am-8:00pm, Tuesday 8:00am-8:00pm, Tuesday 8:00am-8:00pm, Tuesday 8:00am-8:30pm, Tuesday 8:00am-8:00pm, Tuesday 8:30am-6:00pm",,,
CTown,41932,130 Havemeyer Street,,Brooklyn,NY,11211,US,718.782.6300,40.71222,-73.95714,"Monday 7:00am-10:00pm, Tuesday 7:00am-10:00pm, Tuesday 7:00am-10:00pm, Tuesday 7:00am-10:00pm, Tuesday 7:00am-10:00pm, Tuesday 7:00am-10:00pm, Tuesday 8:00am-8:00pm",,,
CTown,41994,830 Flushing Ave,,Brooklyn,NY,11206,US,718.602.8611,40.7014372727273,-73.93891,"Monday 7:00am-9:00pm, Tuesday 7:00am-9:00pm, Tuesday 7:00am-9:00pm, Tuesday 7:00am-9:00pm, Tuesday 7:00am-9:00pm, Tuesday 7:00am-9:00pm, Tuesday 8:00am-7:00pm",,,
CTown,41968,1781 Broadway,,Brooklyn,NY,11207,US,718.453.3339,40.6822677777778,-73.9093533333333,"Monday 8:00am-8:00pm, Tuesday 8:00am-8:00pm, Tuesday 8:00am-8:00pm, Tuesday 8:00am-8:00pm, Tuesday 8:00am-8:00pm, Tuesday 8:00am-8:00pm, Tuesday 8:00am-5:00pm",,,
CTown,41312,2115 Pitkin Ave,,Brooklyn,NY,11207,US,718.385.0473,40.6721109090909,-73.8943681818182,"Monday 8:00am-8:30pm, Tuesday 8:00am-8:30pm, Tuesday 8:00am-8:30pm, Tuesday 8:00am-8:30pm, Tuesday 8:00am-8:30pm, Tuesday 8:00am-8:30pm, Tuesday 8:00am-7:00pm",,,
CTown,41976,330 Graham Avenue,,Brooklyn,NY,11211,US,718.388.8968,40.713965,-73.94429,"Monday 7:30am-11:00pm, Tuesday 7:30am-11:00pm, Tuesday 7:30am-11:00pm, Tuesday 7:30am-11:00pm, Tuesday 7:30am-11:00pm, Tuesday 7:30am-11:00pm, Tuesday 8:00am-10:00pm",,,
CTown,41996,346 Central Ave,,Brooklyn,NY,11221,US,718.452.4313,40.695005,-73.91973875,"Monday 8:00am-8:00pm, Tuesday 8:00am-8:00pm, Tuesday 8:00am-8:00pm, Tuesday 8:00am-8:00pm, Tuesday 8:00am-8:00pm, Tuesday 8:00am-8:00pm, Tuesday 9:00am-6:00pm",,,
CTown,41319,602 Main Ave,,Passaic,NJ,07055,US,973.777.1299,40.859432323889,-74.1243986694644,"Monday 7:30am-9:00pm, Tuesday 7:30am-9:00pm, Tuesday 7:30am-9:00pm, Tuesday 7:30am-9:00pm, Tuesday 7:30am-9:00pm, Tuesday 7:30am-9:00pm, Tuesday 7:30am-9:00pm",,,
CTown,41910,2869 Fulton Street,,Brooklyn,NY,11207,US,718.235.3247,40.6786463636364,-73.8887754545455,"Monday 8:00am-8:00pm, Tuesday 8:00am-8:00pm, Tuesday 8:00am-8:00pm, Tuesday 8:00am-8:00pm, Tuesday 8:00am-8:00pm, Tuesday 8:00am-8:00pm, Tuesday 8:00am-5:00pm",,,
CTown,41967,953 Manhattan Ave,,Brooklyn,NY,11222,US,718.349.3000,40.7317936363636,-73.95453,"Monday 8:00am-10:00pm, Tuesday 8:00am-10:00pm, Tuesday 8:00am-10:00pm, Tuesday 8:00am-10:00pm, Tuesday 8:00am-10:00pm, Tuesday 8:00am-10:00pm, Tuesday 8:00am-8:00pm",,,
CTown,41982,680 Main St,,Paterson,NJ,07503,US,973.742.1248,40.90298,-74.167272,"Monday 7:00am-8:00pm, Tuesday 7:00am-8:00pm, Tuesday 7:00am-8:00pm, Tuesday 7:00am-8:00pm, Tuesday 7:00am-8:00pm, Tuesday 7:00am-8:00pm, Tuesday 8:00am-7:00pm",,,
CTown,41940,1176 Liberty Avenue,,Brooklyn,NY,11208,US,718.647.6694,40.6788672727273,-73.8658736363636,"Monday 7:30am-8:00pm, Tuesday 7:30am-8:00pm, Tuesday 7:30am-8:00pm, Tuesday 7:30am-8:00pm, Tuesday 7:30am-8:00pm, Tuesday 7:30am-8:00pm, Tuesday 8:00am-6:00pm",,,
CTown,41987,444 20Th Avenue,,Paterson,NJ,07513,US,973.278.4899,40.9077211111111,-74.1506111111111,"Monday 8:00am-9:00pm, Tuesday 8:00am-9:00pm, Tuesday 8:00am-9:00pm, Tuesday 8:00am-9:00pm, Tuesday 8:00am-9:00pm, Tuesday 8:00am-9:00pm, Tuesday 8:00am-8:00pm",,,
CTown,42162,74-39 Jamaica Ave,,Woodhaven,NY,11421,US,718.296.6994,40.6912342857143,-73.8677304081633,"Monday 8:00am-9:00pm, Tuesday 8:00am-9:00pm, Tuesday 8:00am-9:00pm, Tuesday 8:00am-9:00pm, Tuesday 8:00am-9:00pm, Tuesday 8:00am-9:00pm, Tuesday 8:00am-9:00pm",,,
CTown,41286,41-25 Greenpoint Ave,,Long Island City,NY,11104,US,718.482.9840,40.740042244898,-73.9238479591837,"Monday 7:00am-10:00pm, Tuesday 7:00am-10:00pm, Tuesday 7:00am-10:00pm, Tuesday 7:00am-10:00pm, Tuesday 7:00am-10:00pm, Tuesday 7:00am-10:00pm, Tuesday 7:00am-10:00pm",,,
CTown,41928,107-66 Crossbay Blvd,,Ozone Park,NY,11417,US,718.835.0765,40.6783255102041,-73.8442624489796,"Monday 8:00am-8:00pm, Tuesday 8:00am-8:00pm, Tuesday 8:00am-8:00pm, Tuesday 8:00am-8:00pm, Tuesday 8:00am-8:00pm, Tuesday 8:00am-8:00pm, Tuesday 8:00am-6:00pm",,,
CTown,41310,444 Madison Avenue,,Paterson,NJ,07513,US,973.653.3639,40.925565,-74.15157,"Monday 8:00am-8:00pm, Tuesday 8:00am-8:00pm, Tuesday 8:00am-8:00pm, Tuesday 8:00am-8:00pm, Tuesday 8:00am-8:00pm, Tuesday 8:00am-8:00pm, Tuesday 8:00am-8:00pm",,,
CTown,41997,75-43 Metropolitan Ave,,Middle Village,NY,11379,US,718.326.7323,40.7130514285714,-73.8761757142857,"Monday 8:00am-10:00pm, Tuesday 8:00am-10:00pm, Tuesday 8:00am-10:00pm, Tuesday 8:00am-10:00pm, Tuesday 8:00am-10:00pm, Tuesday 8:00am-10:00pm, Tuesday 8:00am-6:00pm",,,
CTown,41296,98-02 Jamaica Ave,,Woodhaven,NY,11421,US,718.847.5930,40.6947751020408,-73.8477134693878,"Monday 8:00am-9:00pm, Tuesday 8:00am-9:00pm, Tuesday 8:00am-9:00pm, Tuesday 8:00am-9:00pm, Tuesday 8:00am-9:00pm, Tuesday 8:00am-9:00pm, Tuesday 8:00am-9:00pm",,,
CTown,41307,34-12 34th Ave,,Astoria,NY,11106,US,718.784.8420,40.7585046938775,-73.9247620408163,"Monday 7:00AM-10:00pm, Tuesday 7:00AM-10:00pm, Tuesday 7:00AM-10:00pm, Tuesday 7:00AM-10:00pm, Tuesday 7:00AM-10:00pm, Tuesday 7:00AM-10:00pm, Tuesday 7:00AM-10:00pm",,,
CTown,41931,1721 First Avenue,,New York,NY,10128,US,212.360.5849,40.77881,-73.94797,"Monday 7:00am-10:00pm, Tuesday 7:00am-10:00pm, Tuesday 7:00am-10:00pm, Tuesday 7:00am-10:00pm, Tuesday 7:00am-10:00pm, Tuesday 7:00am-10:00pm, Tuesday 7:00am-10:00pm",,,
CTown,41909,21-30 Newton Ave,,Astoria,NY,11102,US,718.278.4444,40.7720536734694,-73.92567,"Monday 7:30am-11:00pm, Tuesday 7:30am-11:00pm, Tuesday 7:30am-11:00pm, Tuesday 7:30am-11:00pm, Tuesday 7:30am-11:00pm, Tuesday 7:30am-11:00pm, Tuesday 7:30am-11:00pm",,,
CTown,41306,40-12 28Th Avenue,,Astoria,NY,11103,US,718.278.3000,40.7654334693878,-73.9136020408163,"Monday 7:00am-10:00pm, Tuesday 7:00am-10:00pm, Tuesday 7:00am-10:00pm, Tuesday 7:00am-10:00pm, Tuesday 7:00am-10:00pm, Tuesday 7:00am-10:00pm, Tuesday 7:00am-10:00pm",,,
CTown,41305,94-06 63rd Drive,,Rego Park,NY,11374,US,718.520.0679,40.7286991836735,-73.8632348979592,"Monday 7:00am-9:00pm, Tuesday 7:00am-9:00pm, Tuesday 7:00am-9:00pm, Tuesday 7:00am-9:00pm, Tuesday 7:00am-9:00pm, Tuesday 7:00am-9:00pm, Tuesday 7:00am-8:00pm",,,
CTown,41953,238 W 116Th Street,,New York,NY,10026,US,212.222.1379,40.8037526530612,-73.9538148979592,"Monday 7:00am-11:00pm, Tuesday 7:00am-11:00pm, Tuesday 7:00am-11:00pm, Tuesday 7:00am-11:00pm, Tuesday 7:00am-11:00pm, Tuesday 7:00am-11:00pm, Tuesday 7:00am-10:00pm",,,
CTown,41961,142-32 Foch Blvd,,Jamaica,NY,11436,US,718.529.8040,40.6789297142857,-73.7987951428571,"Monday 7:30am-10:00pm, Tuesday 7:30am-10:00pm, Tuesday 7:30am-10:00pm, Tuesday 7:30am-10:00pm, Tuesday 7:30am-10:00pm, Tuesday 7:30am-10:00pm, Tuesday 8:00am-9:00pm",,,
CTown,41948,134-16 Liberty Ave,,Richmond Hills,NY,11419,US,718.658.8817,40.6914742857143,-73.8125912244898,"Monday -, Tuesday -, Tuesday -, Tuesday -, Tuesday -, Tuesday -, Tuesday -",,,
CTown,42002,81-29 Lefferts Blvd,,Kew Gardens,NY,11415,US,718.805.3670,40.70875,-73.8306,"Monday 8:00am-9:00pm, Tuesday 8:00am-9:00pm, Tuesday 8:00am-9:00pm, Tuesday 8:00am-9:00pm, Tuesday 8:00am-9:00pm, Tuesday 8:00am-9:00pm, Tuesday 9:00am-8:00pm",,,
CTown,41950,85-08 37th Avenue,,Jackson Heights,NY,11372,US,718.478.4207,40.7500481632653,-73.8814440816327,"Monday 8:00am-10:00pm, Tuesday 8:00am-10:00pm, Tuesday 8:00am-10:00pm, Tuesday 8:00am-10:00pm, Tuesday 8:00am-10:00pm, Tuesday 8:00am-10:00pm, Tuesday 8:00am-8:00pm",,,
CTown,41944,102-21 Queens Blvd,,Forest Hills,NY,11375,US,718-897-5959,40.7258097291437,-73.8509310065986,"Monday 7:30am-10:00pm, Tuesday 7:30am-10:00pm, Tuesday 7:30am-10:00pm, Tuesday 7:30am-10:00pm, Tuesday 7:30am-10:00pm, Tuesday 7:30am-10:00pm, Tuesday 7:30am-9:00pm",,,
CTown,41984,72-48 Austin Street,,Forest Hills,NY,11375,US,718.261.8750,40.7187840625,-73.841356875,"Monday 7:00am-11:00pm, Tuesday 7:00am-11:00pm, Tuesday 7:00am-11:00pm, Tuesday 7:00am-11:00pm, Tuesday 7:00am-11:00pm, Tuesday 7:00am-11:00pm, Tuesday 8:00am-9:30pm",,,
CTown,41995,94-53 Corona Avenue,,Elmhurst,NY,11373,US,718.393.0905,40.7422067346939,-73.8686187755102,"Monday 7:00am-10:00pm, Tuesday 7:00am-10:00pm, Tuesday 7:00am-10:00pm, Tuesday 7:00am-10:00pm, Tuesday 7:00am-10:00pm, Tuesday 7:00am-10:00pm, Tuesday 7:00am-10:00pm",,,
CTown,41299,560 W 125Th Street,,New York,NY,10027,US,212.662.2388,40.81515,-73.95782,"Monday 8:00am-9:00pm, Tuesday 8:00am-9:00pm, Tuesday 8:00am-9:00pm, Tuesday 8:00am-9:00pm, Tuesday 8:00am-9:00pm, Tuesday 8:00am-9:00pm, Tuesday 8:00am-7:00pm",,,
CTown,41321,154 State Street,,Hackensack,NJ,07601,US,201.488.3770,40.8832975,-74.045015,"Monday 8:00am-8:00pm, Tuesday 8:00am-8:00pm, Tuesday 8:00am-8:00pm, Tuesday 8:00am-8:00pm, Tuesday 8:00am-8:00pm, Tuesday 8:00am-8:00pm, Tuesday 8:00am-6:00pm",,,
CTown,41294,3320 Broadway,,New York,NY,10031,US,212.234.8100,40.81938,-73.95545,"Monday 8:00am-9:00pm, Tuesday 8:00am-9:00pm, Tuesday 8:00am-9:00pm, Tuesday 8:00am-9:00pm, Tuesday 8:00am-9:00pm, Tuesday 8:00am-9:00pm, Tuesday 8:00am-6:00pm",,,
CTown,41980,108-79 Roosevelt Avenue,,Corona,NY,11368,US,718.424.2622,40.7514044897959,-73.8564359183674,"Monday 7:00am-11:00pm, Tuesday 7:00am-11:00pm, Tuesday 7:00am-11:00pm, Tuesday 7:00am-11:00pm, Tuesday 7:00am-11:00pm, Tuesday 7:00am-11:00pm, Tuesday 7:00am-11:00pm",,,
CTown,41930,3632 Broadway,,New York,NY,10031,US,212.491.7239,40.8293566666667,-73.9482066666667,"Monday 8:00am-9:00pm, Tuesday 8:00am-9:00pm, Tuesday 8:00am-9:00pm, Tuesday 8:00am-9:00pm, Tuesday 8:00am-9:00pm, Tuesday 8:00am-9:00pm, Tuesday 8:00am-7:00pm",,,
CTown,41317,169-15 Hillside Ave,,Jamaica,NY,11432,US,718.657.0722,40.7107636666667,-73.7928976666667,"Monday 7:00am-9:15pm, Tuesday 7:00am-9:15pm, Tuesday 7:00am-9:15pm, Tuesday 7:00am-9:15pm, Tuesday 7:00am-9:15pm, Tuesday 7:00am-9:15pm, Tuesday 7:00am-8:15pm",,,
CTown,41949,2733 3Rd Avenue,,Bronx,NY,10451,US,718.585.8200,40.8142085,-73.9211445,"Monday 7:30am-8:30pm, Tuesday 7:30am-8:30pm, Tuesday 7:30am-8:30pm, Tuesday 7:30am-8:30pm, Tuesday 7:30am-8:30pm, Tuesday 7:30am-8:30pm, Tuesday 8:00am-7:00pm",,,
CTown,41311,1016 St Nicholas Ave,,New York,NY,10032,US,212.795.2877,40.835034,-73.939812,"Monday 8:00am-10:00pm, Tuesday 8:00am-10:00pm, Tuesday 8:00am-10:00pm, Tuesday 8:00am-10:00pm, Tuesday 8:00am-10:00pm, Tuesday 8:00am-10:00pm, Tuesday 8:00am-9:00pm",,,
CTown,41942,564 Southern Blvd,,Bronx,NY,10455,US,718.665.0714,40.8123328076374,-73.9034131903319,"Monday 8:00am-9:00pm, Tuesday 8:00am-9:00pm, Tuesday 8:00am-9:00pm, Tuesday 8:00am-9:00pm, Tuesday 8:00am-9:00pm, Tuesday 8:00am-9:00pm, Tuesday 8:00am-8:00pm",,,
CTown,41908,110-14 Farmers Blvd,,Hollis,NY,11412,US,718.454.1818,40.70275,-73.76657,"Monday 7:00am-9:00pm, Tuesday 7:00am-9:00pm, Tuesday 7:00am-9:00pm, Tuesday 7:00am-9:00pm, Tuesday 7:00am-9:00pm, Tuesday 7:00am-9:00pm, Tuesday 7:00am-9:00pm",,,
CTown,41298,1040 Sherman Ave,,Bronx,NY,10456,US,718.992.0708,40.8302047826087,-73.9179934782609,"Monday 8:00am-9:00pm, Tuesday 8:00am-9:00pm, Tuesday 8:00am-9:00pm, Tuesday 8:00am-9:00pm, Tuesday 8:00am-9:00pm, Tuesday 8:00am-9:00pm, Tuesday 8:00am-7:00pm",,,
CTown,41969,3220 3Rd Avenue,,Bronx,NY,10451,US,718.993.8623,40.8234407142857,-73.9090607142857,"Monday 8:00am-9:00pm, Tuesday 8:00am-9:00pm, Tuesday 8:00am-9:00pm, Tuesday 8:00am-9:00pm, Tuesday 8:00am-9:00pm, Tuesday 8:00am-9:00pm, Tuesday 8:00am-9:00pm",,,
CTown,41946,1314 St Nicholas Avenue,,New York,NY,10033,US,212.923.8888,40.845968,-73.93618,"Monday 8:00am-8:00pm, Tuesday 8:00am-8:00pm, Tuesday 8:00am-8:00pm, Tuesday 8:00am-8:00pm, Tuesday 8:00am-8:00pm, Tuesday 8:00am-8:00pm, Tuesday 8:00am-6:00pm",,,
CTown,41915,809 Southern Blvd,,Bronx,NY,10459,US,718.542.9393,40.8165642857143,-73.8959571428571,"Monday 8:00am-9:00pm, Tuesday 8:00am-9:00pm, Tuesday 8:00am-9:00pm, Tuesday 8:00am-9:00pm, Tuesday 8:00am-9:00pm, Tuesday 8:00am-9:00pm, Tuesday 8:00am-6:00pm",,,
CTown,41309,195-09 Jamaica Ave,,Queens,NY,11423,US,718-479-1700,40.71329,-73.7652133333333,"Monday 8:00am-9:00pm, Tuesday 8:00am-9:00pm, Tuesday 8:00am-9:00pm, Tuesday 8:00am-9:00pm, Tuesday 8:00am-9:00pm, Tuesday 8:00am-9:00pm, Tuesday 8:00am-8:00pm",,,
CTown,41318,1434 Jerome Ave,,Bronx,NY,10452,US,718.293.2005,40.84093625,-73.9171804166667,"Monday 8:00am-9:00pm, Tuesday 8:00am-9:00pm, Tuesday 8:00am-9:00pm, Tuesday 8:00am-9:00pm, Tuesday 8:00am-9:00pm, Tuesday 8:00am-9:00pm, Tuesday 8:00am-7:00pm",,,
CTown,41912,630 E 169Th Street,,Bronx,NY,10456,US,718.861.4750,40.8314474285714,-73.9012814285714,"Monday 8:00am-8:00pm, Tuesday 8:00am-8:00pm, Tuesday 8:00am-8:00pm, Tuesday 8:00am-8:00pm, Tuesday 8:00am-8:00pm, Tuesday 8:00am-8:00pm, Tuesday 8:00am-7:00pm",,,
CTown,41913,3690 Third Ave,,Bronx,NY,10456,US,718.681.6681,40.8349134615385,-73.9035869230769,"Monday 8:00am-8:00pm, Tuesday 8:00am-8:00pm, Tuesday 8:00am-8:00pm, Tuesday 8:00am-8:00pm, Tuesday 8:00am-8:00pm, Tuesday 8:00am-8:00pm, Tuesday 8:00am-6:00pm",,,
CTown,41903,1750 University Ave,,Bronx,NY,10453,US,718.294.3616,40.8491957142857,-73.9171228571429,"Monday 8:00am-9:00pm, Tuesday 8:00am-9:00pm, Tuesday 8:00am-9:00pm, Tuesday 8:00am-9:00pm, Tuesday 8:00am-9:00pm, Tuesday 8:00am-9:00pm, Tuesday 8:00am-7:00pm",,,
CTown,41906,229 E Tremont Ave,,Bronx,NY,10457,US,718.294.6400,40.8490437617881,-73.9045288089405,"Monday 8:00am-9:00pm, Tuesday 8:00am-9:00pm, Tuesday 8:00am-9:00pm, Tuesday 8:00am-9:00pm, Tuesday 8:00am-9:00pm, Tuesday 8:00am-9:00pm, Tuesday 8:00am-8:00pm",,,
CTown,41941,1761 Southern Blvd,,Bronx,NY,10460,US,646.244.6935,40.83738,-73.88775,"Monday 8:00am-8:00pm, Tuesday 8:00am-8:00pm, Tuesday 8:00am-8:00pm, Tuesday 8:00am-8:00pm, Tuesday 8:00am-8:00pm, Tuesday 8:00am-8:00pm, Tuesday 8:00am-7:30pm",,,
CTown,41323,309 E Burnside Ave,,Bronx,NY,10457,US,718.933.6921,40.85073,-73.90133,"Monday 8:00am-9:00pm, Tuesday 8:00am-9:00pm, Tuesday 8:00am-9:00pm, Tuesday 8:00am-9:00pm, Tuesday 8:00am-9:00pm, Tuesday 8:00am-9:00pm, Tuesday 8:00am-8:00pm",,,
CTown,41324,4918 Broadway,,New York,NY,10034,US,212.567.4881,40.8674589655172,-73.9218651724138,"Monday 7:00am-10:00pm, Tuesday 7:00am-10:00pm, Tuesday 7:00am-10:00pm, Tuesday 7:00am-10:00pm, Tuesday 7:00am-10:00pm, Tuesday 7:00am-10:00pm, Tuesday 7:00am-10:00pm",,,
CTown,41993,2276 Creston Avenue,,Bronx,NY,10453,US,718.367.7971,40.85775,-73.90094,"Monday 7:30am-9:00pm, Tuesday 7:30am-9:00pm, Tuesday 7:30am-9:00pm, Tuesday 7:30am-9:00pm, Tuesday 7:30am-10:00pm, Tuesday 7:30am-10:00pm, Tuesday 7:30am-8:00pm",,,
CTown,41308,2358 University Avenue,,Bronx,NY,10468,US,718.295.2776,40.8618314406336,-73.9057730097245,"Monday 8:00am-8:30pm, Tuesday 8:00am-8:30pm, Tuesday 8:00am-8:30pm, Tuesday 8:00am-8:30pm, Tuesday 8:00am-8:30pm, Tuesday 8:00am-8:30pm, Tuesday 8:00am-6:30pm",,,
CTown,41902,100 Hugh J Grant Circle,,Bronx,NY,10472,US,718.823.7685,40.8326847515801,-73.8607571028541,"Monday 8:00am-9:00pm, Tuesday 8:00am-9:00pm, Tuesday 8:00am-9:00pm, Tuesday 8:00am-9:00pm, Tuesday 8:00am-9:00pm, Tuesday 8:00am-9:00pm, Tuesday 8:30am-7:00pm",,,
CTown,41935,668 Crescent Ave,,Bronx,NY,10458,US,718.933.4410,40.8541417647059,-73.8860488235294,"Monday 7:30am-8:00pm, Tuesday 7:30am-8:00pm, Tuesday 7:30am-8:00pm, Tuesday 7:30am-8:00pm, Tuesday 7:30am-8:00pm, Tuesday 7:30am-8:00pm, Tuesday 7:30am-6:00pm",,,
CTown,41300,5249 Broadway,,Bronx,NY,10463,US,718.562.9090,40.87559,-73.9084,"Monday 8:00am-9:00pm, Tuesday 8:00am-9:00pm, Tuesday 8:00am-9:00pm, Tuesday 8:00am-9:00pm, Tuesday 8:00am-9:00pm, Tuesday 8:00am-9:00pm, Tuesday 8:00am-7:00pm",,,
CTown,41295,1580 Unionport Road,,Bronx,NY,10462,US,718.792.5306,40.8397896563268,-73.86193141595,"Monday 7:00am-9:00pm, Tuesday 7:00am-9:00pm, Tuesday 7:00am-9:00pm, Tuesday 7:00am-9:00pm, Tuesday 7:00am-9:00pm, Tuesday 7:00am-9:00pm, Tuesday 8:00am-8:00pm",,,
CTown,41936,2891 Sedgewick Ave,,Bronx,NY,10468,US,718.548.1299,40.8742331365498,-73.9015512459236,"Monday 8:00am-8:00pm, Tuesday 8:00am-8:00pm, Tuesday 8:00am-8:00pm, Tuesday 8:00am-8:00pm, Tuesday 8:00am-8:00pm, Tuesday 8:00am-8:00pm, Tuesday 9:00am-6:00pm",,,
CTown,41966,30 E 198Th Street,,Bronx,NY,10468,US,718.933.2734,40.8712033333333,-73.892745,"Monday 7:30am-9:00pm, Tuesday 7:30am-9:00pm, Tuesday 7:30am-9:00pm, Tuesday 7:30am-9:00pm, Tuesday 7:30am-9:00pm, Tuesday 7:30am-9:00pm, Tuesday 7:30am-9:00pm",,,
CTown,41905,167 Tulip Ave,,Floral Park,NY,11001,US,516.354.1831,40.72417,-73.70298,"Monday 7:30am-8:00pm, Tuesday 7:30am-8:00pm, Tuesday 7:30am-8:00pm, Tuesday 7:30am-9:00pm, Tuesday 7:30am-9:00pm, Tuesday 7:30am-8:00pm, Tuesday 7:30am-7:00pm",,,
CTown,41933,264 East 204Th St,,Bronx,NY,10458,US,718.295.2433,40.8740042857143,-73.8836057142857,"Monday 8:00am-9:00pm, Tuesday 8:00am-9:00pm, Tuesday 8:00am-9:00pm, Tuesday 8:00am-9:00pm, Tuesday 8:00am-9:00pm, Tuesday 8:00am-9:00pm, Tuesday 8:00am-7:00pm",,,
CTown,41920,5686 Mosholu Ave,,Bronx,NY,10471,US,718.543.0497,40.9053885429423,-73.9010388481712,"Monday 8:00am-10:00pm, Tuesday 8:00am-10:00pm, Tuesday 8:00am-10:00pm, Tuesday 8:00am-10:00pm, Tuesday 8:00am-10:00pm, Tuesday 8:00am-10:00pm, Tuesday 8:00am-8:00pm",,,
CTown,41970,445 South Franklin Street,,Hempstead,NY,11550,US,516.281.1771,40.692016,-73.622048,"Monday 7:00am-9:00pm, Tuesday 7:00am-9:00pm, Tuesday 7:00am-9:00pm, Tuesday 7:00am-9:00pm, Tuesday 7:00am-9:00pm, Tuesday 7:00am-9:00pm, Tuesday 7:00am-8:00pm",,,
CTown,41303,4265 Katonah Ave,,Bronx,NY,10470,US,718-547-6417,40.8974928571429,-73.8671728571428,"Monday 6:00am-10:00pm, Tuesday 6:00am-10:00pm, Tuesday 6:00am-10:00pm, Tuesday 6:00am-10:00pm, Tuesday 6:00am-10:00pm, Tuesday 6:00am-10:00pm, Tuesday 6:00am-10:00pm",,,
CTown,41986,3970 Laconia Ave,,Bronx,NY,10466,US,718.652.5451,40.88426,-73.84928,"Monday 7:00am-10:00pm, Tuesday 7:00am-10:00pm, Tuesday 7:00am-10:00pm, Tuesday 7:00am-10:00pm, Tuesday 7:00am-10:00pm, Tuesday 7:00am-10:00pm, Tuesday 7:00am-10:00pm",,,
CTown,42000,4008 Boston Road,,Bronx,NY,10475,US,718.320.0135,40.8846466666667,-73.83166,"Monday 7:00am-9:00pm, Tuesday 7:00am-9:00pm, Tuesday 7:00am-9:00pm, Tuesday 7:00am-9:00pm, Tuesday 7:00am-9:00pm, Tuesday 7:00am-9:00pm, Tuesday 7:00am-9:00pm",,,
CTown,41973,565 Uniondale Ave,,Uniondale,NY,11553,US,516.559.8630,40.7010967053759,-73.5930667749352,"Monday 7:00am-9:00pm, Tuesday 7:00am-9:00pm, Tuesday 7:00am-9:00pm, Tuesday 7:00am-9:00pm, Tuesday 7:00am-9:00pm, Tuesday 7:00am-9:00pm, Tuesday 7:00am-8:00pm",,,
CTown,41945,1 Park Ave,,Mount Vernon,NY,10550,US,914.699.1266,40.91216,-73.83399,"Monday 7:30am-9:00pm, Tuesday 7:30am-9:00pm, Tuesday 7:30am-9:00pm, Tuesday 7:30am-9:00pm, Tuesday 7:30am-9:00pm, Tuesday 7:30am-9:00pm, Tuesday 8:00am-8:00pm",,,
CTown,41938,538 Main Street,,New Rochelle,NY,10801,US,914.633.7367,40.907932,-73.782748,"Monday 7:00am-10:00pm, Tuesday 7:00am-10:00pm, Tuesday 7:00am-10:00pm, Tuesday 7:00am-10:00pm, Tuesday 7:00am-10:00pm, Tuesday 7:00am-10:00pm, Tuesday 7:00am-10:00pm",,,
CTown,41972,721 North Broadway,,Amityville,NY,11701,US,631.789.4052,40.6995189335937,-73.4262587932692,"Monday 7:00am-9:00pm, Tuesday 7:00am-9:00pm, Tuesday 7:00am-9:00pm, Tuesday 7:00am-9:00pm, Tuesday 7:00am-9:00pm, Tuesday 7:00am-9:00pm, Tuesday 7:00am-8:00pm",,,
CTown,41285,114 North Broadway,,Tarrytown,NY,10591,US,914.332.7400,41.0802467941473,-73.8577671270067,"Monday 7:00am-10:00pm, Tuesday 7:00am-10:00pm, Tuesday 7:00am-10:00pm, Tuesday 7:00am-10:00pm, Tuesday 7:00am-10:00pm, Tuesday 7:00am-10:00pm, Tuesday 7:30am-10:00pm",,,
CTown,41290,88 Croton Ave,,Ossining,NY,10562,US,914.923.2394,41.16575,-73.85734,"Monday 7:00am-10:00pm, Tuesday 7:00am-10:00pm, Tuesday 7:00am-10:00pm, Tuesday 7:00am-10:00pm, Tuesday 7:00am-10:00pm, Tuesday 7:00am-10:00pm, Tuesday 7:00am-10:00pm",,,
CTown,41293,1662 New York Ave,,Huntington,NY,11746,US,631.673.5878,40.8413242857143,-73.4121242857143,"Monday 8:00am-8:00pm, Tuesday 8:00am-8:00pm, Tuesday 8:00am-8:00pm, Tuesday 8:00am-8:00pm, Tuesday 8:00am-8:00pm, Tuesday 8:00am-8:00pm, Tuesday 8:00am-7:00pm",,,
CTown,41302,1049 Park Street,,Peekskill,NY,10566,US,914.734.9818,41.290808943079,-73.9183703259927,"Monday 7:00am-9:00pm, Tuesday 7:00am-9:00pm, Tuesday 7:00am-9:00pm, Tuesday 7:00am-9:00pm, Tuesday 7:00am-9:00pm, Tuesday 7:00am-9:00pm, Tuesday 7:00am-9:00pm",,,
CTown,41904,32 Wheeler Road,,CENTRAL ISLIP,NY,11722,US,631-630-1850,40.7923233333333,-73.2033966666667,"Monday 7:00am-10:00pm, Tuesday 7:00am-10:00pm, Tuesday 7:00am-10:00pm, Tuesday 7:00am-10:00pm, Tuesday 7:00am-10:00pm, Tuesday 7:00am-10:00pm, Tuesday 7:00am-10:00pm",,,
CTown,41939,5/7 Washington Ave,,South Norwalk,CT,06854,US,203.838.0888,41.0993659585901,-73.4218739211877,"Monday 7:00am-10:00pm, Tuesday 7:00am-10:00pm, Tuesday 7:00am-10:00pm, Tuesday 7:00am-10:00pm, Tuesday 7:00am-10:00pm, Tuesday 7:00am-10:00pm, Tuesday 7:00am-10:00pm",,,
CTown,41289,1105 Horseblock Rd,,Farmingville,NY,11738,US,631.880.7770,40.8307686924288,-73.0262500873411,"Monday 7:00am-10:00pm, Tuesday 7:00am-10:00pm, Tuesday 7:00am-10:00pm, Tuesday 7:00am-10:00pm, Tuesday 7:00am-10:00pm, Tuesday 7:00am-10:00pm, Tuesday 7:00am-10:00pm",,,
CTown,41937,45 North Street,,Danbury,CT,06810,US,203.748.5466,41.4055816367992,-73.4564101783179,"Monday 7:00am-10:00pm, Tuesday 7:00am-10:00pm, Tuesday 7:00am-10:00pm, Tuesday 7:00am-10:00pm, Tuesday 7:00am-10:00pm, Tuesday 7:00am-10:00pm, Tuesday 7:00am-10:00pm",,,
CTown,41951,360 Boston Avenue,,Stratford,CT,06497,US,203.375.8987,41.1925235186175,-73.1536704614283,"Monday 8:00am-8:00pm, Tuesday 8:00am-8:00pm, Tuesday 8:00am-8:00pm, Tuesday 8:00am-8:00pm, Tuesday 8:00am-8:00pm, Tuesday 8:00am-8:00pm, Tuesday 8:00am-6:00pm",,,
CTown,41316,482 Greenwich Avenue,,New Haven,CT,06519,US,203.773.8998,41.2907135294118,-72.9336691176471,"Monday 8:00am-10:00pm, Tuesday 8:00am-10:00pm, Tuesday 8:00am-10:00pm, Tuesday 8:00am-10:00pm, Tuesday 8:00am-10:00pm, Tuesday 8:00am-10:00pm, Tuesday 8:00am-9:00pm",,,
CTown,41921,325 Ferry Street,,New Haven,CT,06513,US,203.777.3998,41.3089666120827,-72.8954480474812,"Monday 7:30am-10:00pm, Tuesday 7:30am-10:00pm, Tuesday 7:30am-10:00pm, Tuesday 7:30am-10:00pm, Tuesday 7:30am-10:00pm, Tuesday 7:30am-10:00pm, Tuesday 7:30am-10:00pm",,,
CTown,41918,160 Colony St,,Meriden,CT,06451,US,203-235-7000,41.54216,-72.8001,"Monday 7:00am-9:00pm, Tuesday 7:00am-9:00pm, Tuesday 7:00am-9:00pm, Tuesday 7:00am-9:00pm, Tuesday 7:00am-9:00pm, Tuesday 7:00am-9:00pm, Tuesday 7:00am-9:00pm",,,
CTown,41999,47 Main Street,,New Britain,CT,06051,US,860.223.3800,41.665003667965,-72.7807105369671,"Monday 7:30am-9:00pm, Tuesday 7:30am-9:00pm, Tuesday 7:30am-9:00pm, Tuesday 7:30am-9:00pm, Tuesday 7:30am-9:00pm, Tuesday 7:30am-9:00pm, Tuesday 7:30am-8:00pm",,,
CTown,41988,394 New Britain Ave,,Hartford,CT,06106,US,860.525.5984,41.74041,-72.6956866666667,"Monday 8:00am-8:00pm, Tuesday 8:00am-8:00pm, Tuesday 8:00am-8:00pm, Tuesday 8:00am-8:00pm, Tuesday 8:00am-8:00pm, Tuesday 8:00am-8:00pm, Tuesday 8:00am-6:00pm",,,
CTown,42003,1744 Park Street,,Hartford,CT,06106,US,860.236.5520,41.7569841935484,-72.7076261290322,"Monday 7:00am-8:00pm, Tuesday 7:00am-8:00pm, Tuesday 7:00am-8:00pm, Tuesday 7:00am-8:00pm, Tuesday 7:00am-8:00pm, Tuesday 7:00am-8:00pm, Tuesday 7:00am-7:00pm",,,
CTown,41998,165 Wetherfield Avenue,,Hartford,CT,06114,US,860.247.4411,41.7511381481482,-72.6739759259259,"Monday 8:00am-8:00pm, Tuesday 8:00am-8:00pm, Tuesday 8:00am-8:00pm, Tuesday 8:00am-8:00pm, Tuesday 8:00am-8:00pm, Tuesday 8:00am-8:00pm, Tuesday 8:00am-6:00pm",,,
CTown,41992,442 Main Street,,East Hartford,CT,06118,US,860.568.2221,41.7529828571429,-72.6407157142857,"Monday 8:00am-8:00pm, Tuesday 8:00am-8:00pm, Tuesday 8:00am-8:00pm, Tuesday 8:00am-8:00pm, Tuesday 8:00am-8:00pm, Tuesday 8:00am-8:00pm, Tuesday 8:00am-6:00pm",,,
CTown,41991,13 Cabot Street,,Holyoke,MA,01040,US,413.538.8287,42.1975633333333,-72.60391,"Monday 8:00am-9:00pm, Tuesday 8:00am-9:00pm, Tuesday 8:00am-9:00pm, Tuesday 8:00am-9:00pm, Tuesday 8:00am-9:00pm, Tuesday 8:00am-9:00pm, Tuesday 8:00am-7:00pm",,,
