store_name,store_number,address,address2,city,state,zip_code,country,phone_number,latitude,longitude,store_hours,store_type,other_fields,coming_soon
Margot Couturier et Nicole Williams,,"318, Rue Amirault",,Dieppe,NB,E1A 1G3,Canada,506 830-2555,46.084962,-64.733293,"Monday 9 h-21 h, Tuesday 9 h-21 h, Wednesday 9 h-21 h, Thursday 9 h-21 h, Friday 9 h-21 h, Saturday 9 h-17 h, Sunday 11 h-17 h",,,
Robert Anderson,,"150, Rte La Vallee",,Memramcook,NB,E4K 2A6,Canada,506 758-1890,45.998835,-64.571575,"Monday 9 h-18 h, Tuesday 9 h-18 h, Wednesday 9 h-18 h, Thursday 9 h-20 h, Friday 9 h-18 h, Saturday 9 h-16 h, Sunday Ferme",,,
Marie-Claude Cyr,,"1351, Rue Des Fondateurs Cp 148",,Paquetville,NB,E8R 1A3,Canada,506 764-3553,47.668683,-65.106142,"Monday 9 h-17 h 30, Tuesday 9 h-17 h 30, Wednesday 9 h-17 h 30, Thursday 9 h-21 h, Friday 9 h-21 h, Saturday 9 h-17 h, Sunday Ferme",,,
Marie-Claude Cyr,,"879, Rue Principale, Unite 2",,Beresford,NB,E8K 1R3,Canada,506 542-9006,47.699652,-65.704054,"Monday 8 h 30-20 h 30, Tuesday 8 h 30-20 h 30, Wednesday 8 h 30-20 h 30, Thursday 8 h 30-20 h 30, Friday 8 h 30-20 h 30, Saturday 9 h-17 h, Sunday 12 h-17 h",,,
Kevin Smyth,,"138, Rue Principale",,Ste-Anne-Madawaska,NB,E7E 1B8,Canada,506 445-2275,47.249418,-68.031752,"Monday 9 h-18 h, Tuesday 9 h-18 h, Wednesday 9 h-18 h, Thursday 9 h-20 h, Friday 9 h-20 h, Saturday 9 h-17 h, Sunday Ferme",,,
Kevin Smyth et Eric Lee,,"131, Rue De L'eglise",,Edmundston,NB,E3V 1J9,Canada,506 737-9020,47.362794,-68.331076,"Monday 9 h-21 h, Tuesday 9 h-21 h, Wednesday 9 h-21 h, Thursday 9 h-21 h, Friday 9 h-21 h, Saturday 9 h-17 h, Sunday 10 h-16 h",,,
Chantal Landry et Valery Guylaine Levasseur,,"105, 7e Rue Est",,Degelis,QC,G5T 1Y6,Canada,418 853-2223,47.548026,-68.641987,"Monday 9 h-18 h, Tuesday 9 h-18 h, Wednesday 9 h-21 h, Thursday 9 h-21 h, Friday 9 h-21 h, Saturday 9 h-17 h, Sunday Ferme",,,
Eric Lee,,"809, Rue Principale Bureau D",,Clair,NB,E7A 2H7,Canada,506 992-3393,47.250725,-68.605972,"Monday 9 h-18 h, Tuesday 9 h-18 h, Wednesday 9 h-18 h, Thursday 9 h-20 h, Friday 9 h-20 h, Saturday 9 h-16 h, Sunday Ferme",,,
Marcel Post et Mark Hines,,"562, rue Darlington",,Dalhousie,NB,E8C 1N1,Canada,506 684-3381,48.039273,-66.40519,"Monday 9 h-20 h, Tuesday 9 h-20 h, Wednesday 9 h-20 h, Thursday 9 h-20 h, Friday 9 h-20 h, Saturday 9 h-17 h, Sunday 12 h-17 h",,,
Joey Maltais,,"4-B, Boul Perron Est",,Matapedia,QC,G0J 1V0,Canada,418 865-2003,47.974983,-66.941836,"Monday 9 h-19 h, Tuesday 9 h-17 h, Wednesday 9 h-17 h, Thursday 9 h-17 h, Friday 9 h-17 h, Saturday Ferme, Sunday Ferme",,,
Chantal Landry et Valery Guylaine Levasseur,,"2387, Rue Commerciale Sud",,Temiscouata-Sur-Le-Lac,QC,G0L 1X0,Canada,418 899-6708,47.602259,-68.768558,"Monday 9 h-18 h, Tuesday 9 h-18 h, Wednesday 9 h-18 h, Thursday 9 h-21 h, Friday 9 h-21 h, Saturday 9 h-17 h, Sunday 9 h-13 h",,,
Marcel Post et Mark Hines,,"116A, Rue Notre-Dame",,Kedgwick,NB,E8B 1H8,Canada,506 284-9091,47.64581,-67.352228,"Monday 9 h-17 h 30, Tuesday 9 h-17 h 30, Wednesday 9 h-17 h 30, Thursday 9 h-21 h, Friday 9 h-21 h, Saturday 9 h-17 h, Sunday Ferme",,,
Michel Ky-Tran Hohuu et Danh Nguyen,,"26 B, Rue Maple",,Grenville,QC,J0V 1J0,Canada,819 242-1350,45.62296,-74.593858,"Monday 9 h-20 h, Tuesday 9 h-20 h, Wednesday 9 h-20 h, Thursday 9 h-20 h, Friday 9 h-20 h, Saturday 9 h-17 h, Sunday Ferme",,,
Pascale Gagnon,,"225, Boul St-Joseph",,Gatineau,QC,J8Y 3X5,Canada,819 777-1637,45.435254,-75.733175,"Monday 9 h-20 h, Tuesday 9 h-20 h, Wednesday 9 h-20 h, Thursday 9 h-20 h, Friday 9 h-18 h, Saturday 10 h-16 h, Sunday Ferme",,,
Louise Gregoire,,"40, Rue Cite Jardin",,Gatineau,QC,J8T 8P5,Canada,819 243-4444,45.485694,-75.688124,"Monday 10 h-16 h, Tuesday 10 h-16 h, Wednesday 10 h-16 h, Thursday 10 h-16 h, Friday 10 h-16 h, Saturday Ferme, Sunday Ferme",,,
Johanne Giguere et Nathalie Desroches,,"235, Rue De Cannes",,Gatineau,QC,J8T 8C5,Canada,819 243-0775,45.490296,-75.723942,"Monday 9 h-21 h, Tuesday 9 h-21 h, Wednesday 9 h-21 h, Thursday 9 h-21 h, Friday 9 h-21 h, Saturday 9 h-17 h, Sunday 10 h-17 h",,,
Johanne Giguere,,"455, Montee Paiement, Suite 180",,Gatineau,QC,J8P 0B1,Canada,819 663-4141,45.49351,-75.675756,"Monday 9 h-21 h, Tuesday 9 h-21 h, Wednesday 9 h-21 h, Thursday 9 h-21 h, Friday 9 h-21 h, Saturday 9 h-17 h, Sunday 10 h-17 h",,,
Louise Gregoire,,"195, Rue De L'atmosphere",,Gatineau,QC,J9A 3K6,Canada,819 770-5777,45.437951,-75.784696,"Monday 9 h-20 h, Tuesday 9 h-20 h, Wednesday 9 h-20 h, Thursday 9 h-20 h, Friday 9 h-20 h, Saturday 10 h-17 h, Sunday 10 h-17 h",,,
Johanne Giguere,,"710, Montee Paiement",,Gatineau,QC,J8R 4A3,Canada,819 669-1734,45.503465,-75.676921,"Monday 9 h-21 h, Tuesday 7 h 30-21 h, Wednesday 7 h 30-21 h, Thursday 9 h-21 h, Friday 9 h-21 h, Saturday 9 h-17 h, Sunday 9 h-17 h",,,
Marie-Julie Sayde,,"1320, Boul De La Verendrye Est",,Gatineau,QC,J8P 0A9,Canada,819 643-5333,45.506657,-75.609897,"Monday 9 h-21 h, Tuesday 9 h-21 h, Wednesday 9 h-21 h, Thursday 9 h-21 h, Friday 9 h-21 h, Saturday 9 h-17 h, Sunday 10 h-17 h",,,
Johanne Giguere,,"391, Rue Main",,Gatineau,QC,J8P 5K6,Canada,819 663-5377,45.491954,-75.651908,"Monday 9 h-18 h, Tuesday 9 h-18 h, Wednesday 9 h-18 h, Thursday 9 h-20 h, Friday 9 h-18 h, Saturday 9 h-13 h, Sunday Ferme",,,
Johanne Giguere,,"425, Boul De La Verandrye Est",,Gatineau,QC,J8R 2W8,Canada,819 669-1011,45.50112,-75.642508,"Monday 9 h-21 h, Tuesday 9 h-21 h, Wednesday 9 h-21 h, Thursday 9 h-21 h, Friday 9 h-21 h, Saturday 9 h-17 h, Sunday 10 h-17 h",,,
Francois Ethier,,"1797, Route Du Carrefour",,Val-Des-Monts,QC,J8N 7M7,Canada,819 671-7171,45.593857,-75.616662,"Monday 9 h-20 h, Tuesday 9 h-20 h, Wednesday 9 h-20 h, Thursday 9 h-20 h, Friday 9 h-20 h, Saturday 9 h-17 h, Sunday Ferme",,,
Mathieu Sabourin,,"373A, Rue Principale",,Lachute,QC,J8H 2Z7,Canada,450 562-0522,45.655856,-74.341919,"Monday 9 h-21 h, Tuesday 9 h-21 h, Wednesday 9 h-21 h, Thursday 9 h-21 h, Friday 9 h-21 h, Saturday 9 h-17 h, Sunday 9 h-17 h",,,
Marc Aufranc,,"135-A, Rte 148",,Shawville,QC,J0X 2Y0,Canada,819 317-1710,45.596854,-76.48601,"Monday 9 h-18 h, Tuesday 9 h-18 h, Wednesday 9 h-18 h, Thursday 9 h-18 h, Friday 9 h-18 h, Saturday 9 h-16 h, Sunday Ferme",,,
Roland Marcotte,,"275, Boul Du Centenaire Bureau 100",,St-Basile,QC,G0A 3G0,Canada,418 329-3193,46.754515,-71.821858,"Monday 9 h-20 h 30, Tuesday 9 h-20 h 30, Wednesday 9 h-20 h 30, Thursday 9 h-21 h, Friday 9 h-21 h, Saturday 9 h-16 h, Sunday 10 h-12 h",,,
Jean-Philippe Bergeron et Melanie Thibault,,"541, Rue Principale",,St-Marc-Des-Carrieres,QC,G0A 4B0,Canada,418 268-5326,46.676158,-72.039725,"Monday 9 h-21 h, Tuesday 9 h-21 h, Wednesday 9 h-21 h, Thursday 9 h-21 h, Friday 9 h-21 h, Saturday 9 h-17 h, Sunday 10 h-17 h",,,
Gaetan Jacques et Julie Marcotte,,"245, 1re Avenue",,Portneuf,QC,G0A 2Y0,Canada,418 286-3301,46.692198,-71.886839,"Monday 9 h-20 h, Tuesday 9 h-20 h, Wednesday 9 h-20 h, Thursday 9 h-20 h, Friday 9 h-20 h, Saturday 9 h-17 h, Sunday 10 h-17 h",,,
"N. Auger, P-Y Hebert et Y. Ferlatte",,"69, Rue Du College Suite 102",,Pont-Rouge,QC,G3H 0J4,Canada,418 873-2140,46.75021,-71.694999,"Monday 9 h-21 h, Tuesday 9 h-21 h, Wednesday 9 h-21 h, Thursday 9 h-21 h, Friday 9 h-21 h, Saturday 9 h-17 h, Sunday 9 h-17 h",,,
Jean-Philippe Bergeron Pharmacien Inc.,,"429, Boul Chabot",,St-Ubalde,QC,G0A 4L0,Canada,418 277-2500,46.755945,-72.271307,"Monday 9 h-18 h, Tuesday 9 h-18 h, Wednesday 9 h-18 h, Thursday 9 h-21 h, Friday 9 h-21 h, Saturday 9 h-16 h, Sunday Ferme",,,
Nathalie Houde,,"4560, Rte de Fossambault",,Sainte-Catherine-De-La-Jacques-Cartier,QC,G3N 2T6,Canada,418 875-2025,46.841868,-71.611319,"Monday 8 h 30-21 h, Tuesday 8 h 30-21 h, Wednesday 8 h 30-21 h, Thursday 8 h 30-21 h, Friday 8 h 30-21 h, Saturday 9 h-17 h, Sunday 9 h-17 h",,,
Denis Babin,,"86, Boul Gerard D. Levesque Ouest",,Paspebiac,QC,G0C 2K0,Canada,418 752-6635,48.027,-65.256968,"Monday 9 h-20 h, Tuesday 9 h-20 h, Wednesday 9 h-20 h, Thursday 9 h-21 h, Friday 9 h-21 h, Saturday 9 h-17 h, Sunday 12 h-17 h",,,
Marc Cote et Eric St-Pierre,,"411, ave. Sirois, Place Arthur-Buis",,Rimouski,QC,G5L 8B2,Canada,418 724-2124,48.434233,-68.520887,"Monday 8 h 30-18 h, Tuesday 8 h 30-18 h, Wednesday 8 h 30-18 h, Thursday 8 h 30-21 h, Friday 8 h 30-21 h, Saturday 9 h-17 h, Sunday 10 h-17 h",,,
"L. Chaine, M.-A. Cote, B. St-Amand et S. Vallee",,"822, Boul Ste-Anne",,Rimouski,QC,G5M 1J5,Canada,418 721-0011,48.506528,-68.465453,"Monday 9 h-21 h, Tuesday 9 h-21 h, Wednesday 9 h-21 h, Thursday 9 h-21 h, Friday 9 h-21 h, Saturday 9 h-17 h, Sunday 9 h-17 h",,,
Steve Levesque,,"159, Rue Ste-Cecile-du-Bic",,Rimouski,QC,G0L 1B0,Canada,418 736-4338,48.372118,-68.713276,"Monday 9 h-12 h, 13 h-20 h, Tuesday 9 h-12 h, 13 h-17 h 30, Wednesday 9 h-12 h, 13 h-17 h 30, Thursday 9 h-12 h, 13 h-20 h, Friday 9 h-12 h, 13 h-17 h 30, Saturday Ferme, Sunday Ferme",,,
Benoit St-Amand,,"115, 1re Av",,St-Fabien,QC,G0L 2Z0,Canada,418 869-2996,48.290742,-68.876053,"Monday 9 h-12 h, 13 h-17 h, Tuesday 9 h-12 h, 13 h-17 h, Wednesday 9 h-12 h, 13 h-17 h, Thursday 9 h-12 h, 13 h-17 h, Friday 9 h-12 h, 13 h-17 h, Saturday Ferme, Sunday Ferme",,,
Helene Blanchet et Serge St-Hilaire,,"825, Commerciale Nord",,Temiscouata-Sur-Le-Lac,QC,G0L 1E0,Canada,418 854-2764,47.683817,-68.880006,"Monday 9 h-18 h, Tuesday 9 h-18 h, Wednesday 9 h-20 h, Thursday 9 h-21 h, Friday 9 h-21 h, Saturday 9 h-17 h, Sunday 9 h-13 h",,,
Philippe Lepicier et Marie-Helene Miousse,,"197, Rue Principale",,St-Cyprien,QC,G0L 2P0,Canada,418 963-3306,47.894325,-69.016403,"Monday 9 h-17 h 30, Tuesday 9 h-17 h 30, Wednesday 9 h-17 h 30, Thursday 9 h-20 h, Friday 9 h-17 h 30, Saturday 9 h-12 h, Sunday Ferme",,,
Albert Falardeau,,"93, Rue St-Joseph",,Squatec,QC,G0L 4H0,Canada,418 855-2382,47.881438,-68.725974,"Monday 8 h 30-17 h, Tuesday 8 h 30-17 h, Wednesday 8 h 30-17 h, Thursday 8 h 30-21 h, Friday 8 h 30-21 h, Saturday 8 h 30-16 h 30, Sunday Ferme",,,
Philippe Lepicier et Marie-Helene Miousse,,"3, Rue Principale Nord",,St-Hubert-Riviere-Du-Loup,QC,G0L 3L0,Canada,418 497-3925,47.815542,-69.148448,"Monday 9 h-17 h, Tuesday 9 h-17 h, 18 h-20 h, Wednesday 9 h-17 h, Thursday 9 h-17 h, Friday 9 h-17 h, Saturday Ferme, Sunday Ferme",,,
Albert Falardeau,,"74B, Rue Principale",,Lac-Des-Aigles,QC,G0K 1V0,Canada,418 779-2511,47.989361,-68.676086,"Monday 13 h 30-17 h, Tuesday 13 h 30-17 h, Wednesday Ferme, Thursday 13 h 30-17 h, Friday 13 h 30-17 h, Saturday Ferme, Sunday Ferme",,,
Bruno Begin,,"805, Boul Frontenac Est",,Thetford Mines,QC,G6G 6L5,Canada,418 338-4558,46.112528,-71.301566,"Monday 9 h-18 h, Tuesday 9 h-18 h, Wednesday 9 h-18 h, Thursday 9 h-21 h, Friday 9 h-21 h, Saturday 9 h-17 h, Sunday 11 h-17 h",,,
Richard Bellavance et Christine Appleby,,"1492, Rue Notre-Dame Est",,Thetford Mines,QC,G6G 7G4,Canada,418 338-8554,46.10747,-71.277917,"Monday 9 h-21 h, Tuesday 9 h-21 h, Wednesday 9 h-21 h, Thursday 9 h-21 h, Friday 9 h-21 h, Saturday 9 h-17 h, Sunday Ferme",,,
"Nathalie Cloutier, Catherine Dallaire et Steve Roy",,"847, Route 161",,Ham-Nord,QC,G0P 1A0,Canada,819 344-2249,45.900715,-71.649128,"Monday 10 h-18 h, Tuesday 10 h-18 h, Wednesday 10 h-18 h, Thursday 10 h-18 h, Friday 10 h-18 h, Saturday 10 h-14 h, Sunday Ferme",,,
Brigitte Boissonneault et Jean-Patrick Sylvain,,"325, Rue St-Jean-Baptiste Sud",,Princeville,QC,G6L 5A4,Canada,819 364-2121,46.168792,-71.87111,"Monday 9 h-18 h, Tuesday 9 h-18 h, Wednesday 9 h-18 h, Thursday 9 h-21 h, Friday 9 h-20 h, Saturday 9 h-16 h, Sunday 10 h-13 h",,,
Kathleen Harvey et Matthieu Charest,,"95, Rue Lessard",,East Broughton,QC,G0N 1G0,Canada,418 427-2625,46.224242,-71.07447,"Monday 9 h-21 h, Tuesday 9 h-21 h, Wednesday 9 h-21 h, Thursday 9 h-21 h, Friday 9 h-21 h, Saturday 9 h-14 h, Sunday Ferme",,,
Guylaine Lepage,,"33, Boul Ste-Anne Ouest",,Ste-Anne-Des-Monts,QC,G4V 1P8,Canada,418 763-7848,49.125182,-66.488267,"Monday 9 h-18 h, Tuesday 9 h-18 h, Wednesday 9 h-18 h, Thursday 9 h-21 h, Friday 9 h-21 h, Saturday 9 h-17 h, Sunday 10 h-16 h",,,
"Pierre-Yves Hebert, Yves Ferlatte et Annie Leblond",,"618, Boul Renault",,Beauceville,QC,G5X 1M8,Canada,418 774-3343,46.208218,-70.774149,"Monday 9 h-20 h, Tuesday 9 h-20 h, Wednesday 9 h-20 h, Thursday 9 h-21 h, Friday 9 h-21 h, Saturday 9 h-17 h, Sunday 10 h-14 h",,,
Julie Paquet et Patrick Turmel,,"987, Rue St-Luc",,St-Joseph-De-Beauce,QC,G0S 2V0,Canada,418 397-1711,46.303101,-70.874618,"Monday 9 h-21 h, Tuesday 9 h-21 h, Wednesday 9 h-21 h, Thursday 9 h-21 h, Friday 9 h-21 h, Saturday 9 h-17 h, Sunday 9 h-16 h",,,
Julie Paquet et Patrick Turmler,,"377, Rue Langevin",,St-Odilon,QC,G0S 3A0,Canada,418 464-2994,46.357972,-70.676271,"Monday 9 h-17 h, Tuesday 9 h-17 h, Wednesday 9 h-17 h, Thursday 9 h-17 h, Friday 9 h-17 h, Saturday Ferme, Sunday Ferme",,,
Kathleen Harvey et Matthieu Charest,,"412, Rue Principale",,Vallee-Jonction,QC,G0S 3J0,Canada,418 253-5484,46.371916,-70.920531,"Monday 9 h-17 h, Tuesday 9 h-21 h, Wednesday 9 h-17 h, Thursday 9 h-21 h, Friday 9 h-21 h, Saturday 9 h-14 h, Sunday Ferme",,,
Karenne Maheux et Louis Roy,,"8585, Boul Lacroix",,St-Georges-De-Beauce,QC,G5Y 5L6,Canada,418 227-0766,46.13435,-70.699709,"Monday 9 h-21 h, Tuesday 9 h-21 h, Wednesday 9 h-21 h, Thursday 9 h-21 h, Friday 9 h-21 h, Saturday 9 h-17 h, Sunday 11 h-17 h",,,
Denis Roy et Martin Leblond,,"15500, Boul Lacroix",,Saint-Georges,QC,G5Y 1R7,Canada,418 228-2049,46.105223,-70.654444,"Monday 9 h-21 h, Tuesday 9 h-21 h, Wednesday 9 h-21 h, Thursday 9 h-21 h, Friday 9 h-21 h, Saturday 9 h-17 h, Sunday 9 h-17 h",,,
Denis Roy et Martin Leblond,,"899, 17e Rue",,St-Georges-De-Beauce,QC,G5Y 4W1,Canada,418 228-1017,46.111929,-70.68194,"Monday 8 h 30-21 h, Tuesday 8 h 30-21 h, Wednesday 8 h 30-21 h, Thursday 8 h 30-21 h, Friday 8 h 30-21 h, Saturday 9 h-17 h, Sunday 9 h-17 h",,,
Denis Roy et Martin Leblond,,"255-1020, 175e Rue",,Saint-Georges,QC,G5Z 1L4,Canada,418 221-8081,46.100739,-70.635441,"Monday 13 h-17 h, Tuesday 9 h-13 h, Wednesday Ferme, Thursday 9 h-13 h, Friday 13 h-17 h, Saturday Ferme, Sunday Ferme",,,
Kathleen Harvey,,"136, Rue Notre-Dame Sud",,Ste-Marie,QC,G6E 4A4,Canada,418 387-5471,46.436692,-71.020568,"Monday 8 h 30-21 h, Tuesday 8 h 30-21 h, Wednesday 8 h 30-21 h, Thursday 8 h 30-21 h, Friday 8 h 30-21 h, Saturday 9 h-17 h, Sunday 9 h-17 h",,,
Roselyne Fournier,,"1570, Rte 277",,Lac-Etchemin,QC,G0R 1S0,Canada,418 625-7331,46.404557,-70.525962,"Monday 9 h-21 h, Tuesday 9 h-21 h, Wednesday 9 h-21 h, Thursday 9 h-21 h, Friday 9 h-21 h, Saturday 9 h-17 h, Sunday 9 h-17 h",,,
Pierre-Olivier Bertrand,,"1649, Rue St-Georges",,St-Bernard,QC,G0S 2G0,Canada,418 475-6658,46.499878,-71.135094,"Monday 9 h-18 h, Tuesday 9 h-20 h, Wednesday 9 h-18 h, Thursday 9 h-20 h, Friday 9 h-18 h, Saturday 9 h-14 h, Sunday Ferme",,,
Helene Gagnon,,"737, 14e  Avenue",,La Guadeloupe,QC,G0M 1G0,Canada,418 459-3322,45.967629,-70.941168,"Monday 9 h-18 h, Tuesday 9 h-18 h, Wednesday 9 h-18 h, Thursday 9 h-20 h, Friday 9 h-20 h, Saturday 9 h-13 h, Sunday Ferme",,,
Jean-Francois Pepin et Diane Paradis,,"135-7, Rue Principale",,Ste-Justine,QC,G0R 1Y0,Canada,418 383-3036,46.406406,-70.353545,"Monday 8 h 30-18 h, Tuesday 8 h 30-18 h, Wednesday 8 h 30-20 h, Thursday 8 h 30-21 h, Friday 8 h 30-21 h, Saturday 9 h-16 h, Sunday Ferme",,,
Pierre-Yves Hebert et Yves Ferlatte,,"898, Boul Bois-Francs S",,Victoriaville,QC,G6P 5W2,Canada,819 357-8213,46.039942,-71.917836,"Monday 9 h-21 h, Tuesday 9 h-21 h, Wednesday 9 h-21 h, Thursday 9 h-21 h, Friday 9 h-21 h, Saturday 9 h-17 h, Sunday 9 h-17 h",,,
Habib Neji,,"431, 1re Av",,Asbestos,QC,J1T 1Z3,Canada,819 879-4022,45.771351,-71.930169,"Monday 9 h-21 h, Tuesday 9 h-21 h, Wednesday 9 h-21 h, Thursday 9 h-21 h, Friday 9 h-21 h, Saturday 9 h-17 h, Sunday 10 h-16 h",,,
Habib Neji,,"5, Rue Grove Cp 540",,Danville,QC,J0A 1A0,Canada,819 839-2779,45.784909,-72.014432,"Monday 10 h-19 h, Tuesday 10 h-19 h, Wednesday 10 h-19 h, Thursday 10 h-19 h, Friday 10 h-19 h, Saturday 10 h-16 h, Sunday Ferme",,,
Pierre-Yves Hebert et Yves Ferlatte,,"96, Rue St-Dominique",,Victoriaville,QC,G6P 5B7,Canada,819 758-8283,46.054282,-71.955972,"Monday 9 h-20 h, Tuesday 9 h-20 h, Wednesday 9 h-20 h, Thursday 9 h-20 h, Friday 9 h-20 h, Saturday 9 h-17 h, Sunday 9 h-13 h",,,
Daniel Desgagne et Katia Rousseau,,"5, Rue Du Centre-Sportif",,Warwick,QC,J0A 1M0,Canada,819 358-4650,45.94788,-71.99712,"Monday 9 h-20 h, Tuesday 9 h-20 h, Wednesday 9 h-20 h, Thursday 9 h-20 h, Friday 9 h-20 h, Saturday 10 h-16 h, Sunday 10 h-13 h",,,
Frederic Gauthier,,"110, Rue Notre-Dame Suite 200",,Clermont,QC,G4A 1G3,Canada,418 439-2559,47.691005,-70.223732,"Monday 8 h 30-20 h, Tuesday 8 h 30-20 h, Wednesday 8 h 30-20 h, Thursday 8 h 30-21 h, Friday 8 h 30-21 h, Saturday 9 h-17 h, Sunday 9 h-17 h",,,
Denis Rioux,,"395, Boul De Comporte",,La Malbaie,QC,G5A 0B6,Canada,418 665-6822,47.646636,-70.149923,"Monday 8 h 30-20 h, Tuesday 8 h 30-20 h, Wednesday 8 h 30-20 h, Thursday 8 h 30-21 h, Friday 8 h 30-21 h, Saturday 9 h-17 h, Sunday 9 h-17 h",,,
David Villeneuve,,"2409, Route Du Fleuve",,Les Eboulements,QC,G0A 2M0,Canada,418 635-1226,47.48037,-70.31509,"Monday 9 h-12 h, 13 h-17 h, Tuesday 9 h-12 h, 13 h-21 h, Wednesday 9 h-12 h, 13 h-17 h, Thursday 9 h-12 h, 13 h-17 h, Friday 9 h-12 h, 13 h-17 h, Saturday Ferme, Sunday Ferme",,,
Claire Francoeur et Chantal Francoeur,,"491, Rue Notre-Dame",,St-Tite,QC,G0X 3H0,Canada,418 365-5148,46.728305,-72.565437,"Monday 9 h-21 h, Tuesday 9 h-21 h, Wednesday 9 h-21 h, Thursday 9 h-21 h, Friday 9 h-21 h, Saturday 9 h-16 h, Sunday 10 h-13 h",,,
Marie-Maude Carpentier,,"450, Avenue de St-Georges",,Shawinigan,QC,G9T 7E8,Canada,819 533-3939,46.623164,-72.654132,"Monday 8 h 30-21 h, Tuesday 8 h 30-21 h, Wednesday 8 h 30-21 h, Thursday 8 h 30-21 h, Friday 8 h 30-21 h, Saturday 9 h-17 h, Sunday 10 h-17 h",,,
Josee Trottier et Genevieve Bergeron,,"900, 7e Avenue",,Shawinigan,QC,G9T 2B8,Canada,819 538-3311,46.61244,-72.697165,"Monday 9 h-19 h, Tuesday 9 h-19 h, Wednesday 9 h-21 h, Thursday 9 h-21 h, Friday 9 h-21 h, Saturday 9 h-17 h, Sunday 10 h-17 h",,,
Eric Bergeron et Andre Vincent,,"2312, Av St-Marc",,Shawinigan,QC,G9N 2J7,Canada,819 539-5478,46.555364,-72.739763,"Monday 9 h-21 h 30, Tuesday 9 h-21 h 30, Wednesday 9 h-21 h 30, Thursday 9 h-21 h 30, Friday 9 h-21 h 30, Saturday 9 h-18 h, Sunday 11 h-17 h",,,
Christine Beland,,"131, Rue Lacordaire",,Ste-Thecle,QC,G0X 3G0,Canada,418 289-3069,46.81826,-72.505988,"Monday 9 h-21 h, Tuesday 9 h-21 h, Wednesday 9 h-21 h, Thursday 9 h-21 h, Friday 9 h-21 h, Saturday 9 h-16 h, Sunday 10 h-13 h",,,
"M. Descoteaux, K. Dupont et E. Matteau",,"181, Rue Principale Bureau 101",,St-Boniface-De-Shawinigan,QC,G0X 2L0,Canada,819 535-3775,46.503829,-72.827831,"Monday 9 h-20 h, Tuesday 9 h-20 h, Wednesday 9 h-20 h, Thursday 9 h-20 h, Friday 9 h-20 h, Saturday 9 h-17 h, Sunday 10 h-14 h",,,
Annie Masson et Katina Veillette,,"511, Rue Notre-Dame",,St-Narcisse,QC,G0X 2Y0,Canada,418 328-8403,46.562216,-72.474766,"Monday 9 h-18 h, Tuesday 9 h-18 h, Wednesday 9 h-18 h, Thursday 9 h-18 h, Friday 9 h-21 h, Saturday 9 h-15 h, Sunday Ferme",,,
Annie Masson et Katina Veillette,,"1380, Rue Principale",,St-Stanislas-De-Champlain,QC,G0X 3E0,Canada,418 328-3358,46.612161,-72.385255,"Monday 9 h-19 h, Tuesday 9 h-19 h, Wednesday 9 h-19 h, Thursday 9 h-21 h, Friday 9 h-21 h, Saturday 9 h-15 h, Sunday Ferme",,,
Nathalie Hamel,,"4145, Boul De Shawinigan-Sud",,Shawinigan,QC,G9P 4G3,Canada,819 731-0809,46.504081,-72.729433,"Monday 8 h-21 h, Tuesday 8 h-21 h, Wednesday 8 h-21 h, Thursday 8 h-21 h, Friday 8 h-21 h, Saturday 9 h-17 h, Sunday 10 h-17 h",,,
Daniel Deschenes,,"190, Rue St-Honore Bureau 120",,St-Etienne-Des-Gres,QC,G0X 2P0,Canada,819 535-6500,46.442627,-72.770759,"Monday 8 h 30-20 h, Tuesday 8 h 30-20 h, Wednesday 8 h 30-20 h, Thursday 8 h 30-20 h, Friday 8 h 30-20 h, Saturday 9 h-17 h, Sunday Ferme",,,
Frederic Dupere et Andree Gelinas,,"2800, Boul Thibeau",,Trois-Rivieres,QC,G8T 1G2,Canada,819 378-0627,46.419303,-72.588726,"Monday 9 h-21 h, Tuesday 9 h-21 h, Wednesday 9 h-21 h, Thursday 9 h-21 h, Friday 9 h-21 h, Saturday 9 h-17 h, Sunday 10 h-17 h",,,
Christian Beaulieu et Karine Tondreau,,"33, Av Du Centre Communautaire",,St-Michel-De-Bellechasse,QC,G0R 3S0,Canada,418 884-3330,46.873995,-70.90708,"Monday 9 h-17 h 30, Tuesday 9 h-17 h 30, Wednesday 9 h-17 h 30, Thursday 9 h-17 h 30, Friday 9 h-17 h 30, Saturday 9 h-12 h, Sunday Ferme",,,
Anne-Marie Didier et Martin Levesque,,"327, Rte Du Fleuve",,Beaumont,QC,G0R 1C0,Canada,418 837-4200,46.82884,-71.011254,"Monday 9 h-18 h, Tuesday 9 h-18 h, Wednesday 9 h-18 h, Thursday 9 h-21 h, Friday 9 h-18 h, Saturday 9 h-13 h, Sunday Ferme",,,
Christian Beaulieu et Karine Tondreau,,"99, Rue Principale",,St-Raphael,QC,G0R 4C0,Canada,418 243-2040,46.795286,-70.755151,"Monday 9 h-21 h, Tuesday 9 h-17 h 30, Wednesday 9 h-17 h 30, Thursday 9 h-21 h, Friday 9 h-17 h 30, Saturday Ferme, Sunday Ferme",,,
Marc Falardeau,,"1, Rue Du Plateau",,Armagh,QC,G0R 1A0,Canada,418 466-2925,46.740207,-70.589772,"Monday 10 h-18 h, 19 h-20 h, Tuesday 10 h-18 h, Wednesday 10 h-17 h 30, Thursday 10 h-18 h, 19 h-21 h, Friday 10 h-17 h, Saturday Ferme, Sunday Ferme",,,
Maude Gagnon,,"3990, boul. Guillaume-Couture",,Levis,QC,G6W 1H7,Canada,418 837-7879,46.775161,-71.196738,"Monday 9 h-20 h, Tuesday 9 h-20 h, Wednesday 9 h-20 h, Thursday 9 h-21 h, Friday 9 h-21 h, Saturday 9 h-17 h, Sunday 10 h-17 h",,,
Julie-Christine Racicot,,"5555, Rue St-Georges",,Levis,QC,G6V 4M4,Canada,418 835-5555,46.799048,-71.182465,"Monday 8 h 30-21 h, Tuesday 8 h 30-21 h, Wednesday 8 h 30-21 h, Thursday 8 h 30-21 h, Friday 8 h 30-21 h, Saturday 9 h-17 h, Sunday 9 h-17 h",,,
Andre Dumas,,"4495, boul. Guillaume-Couture",,Levis,QC,G6W 6M9,Canada,418 835-5255,46.781047,-71.192577,"Monday 9 h-20 h, Tuesday 9 h-20 h, Wednesday 9 h-20 h, Thursday 9 h-21 h, Friday 9 h-21 h, Saturday 9 h-17 h, Sunday Ferme",,,
Marc Falardeau,,"2725, Rte President Kennedy Bureau 100",,St-Henri De-Levis,QC,G0R 3E0,Canada,418 882-2246,46.703181,-71.07428,"Monday 8 h 30-21 h 30, Tuesday 8 h 30-17 h 30, Wednesday 8 h 30-21 h 30, Thursday 8 h 30-17 h 30, Friday 8 h 30-21 h 30, Saturday 9 h-12 h, Sunday 9 h-12 h",,,
Mathieu Rousseau et Sonia Laflamme,,"5, Rue Gilles-Audet",,St-Anselme,QC,G0R 2N0,Canada,418 885-9641,46.639722,-70.986586,"Monday 9 h-20 h, Tuesday 9 h-21 h, Wednesday 9 h-20 h, Thursday 9 h-21 h, Friday 9 h-21 h, Saturday 9 h-17 h, Sunday 10 h-13 h",,,
"I. Bergeron, E. Boulianne, I. Minier et M. Pare",,"171, 6e Rue",,La Baie,QC,G7B 0A3,Canada,418 544-2881,48.330544,-70.890589,"Monday 8 h 30-21 h, Tuesday 8 h 30-21 h, Wednesday 8 h 30-21 h, Thursday 8 h 30-21 h, Friday 8 h 30-21 h, Saturday 9 h-17 h, Sunday 11 h-17 h",,,
David Lapierre et Eric Tremblay,,"175, Boul Barrette",,Chicoutimi,QC,G7H 0H6,Canada,418 698-2020,48.395051,-71.072388,"Monday 9 h-20 h, Tuesday 9 h-20 h, Wednesday 9 h-20 h, Thursday 9 h-20 h, Friday 9 h-20 h, Saturday 9 h-17 h, Sunday 11 h-17 h",,,
Michel Levesque et Patrice Dallaire,,"1400, Boul Saguenay Est (Riviere-du-Moulin)",,Chicoutimi,QC,G7H 1G8,Canada,418 549-0623,48.427793,-71.024909,"Monday 8 h 30-20 h 30, Tuesday 8 h 30-20 h 30, Wednesday 8 h 30-20 h 30, Thursday 8 h 30-20 h 30, Friday 8 h 30-20 h 30, Saturday 9 h-17 h, Sunday 11 h-17 h",,,
Georges Tremblay et Caroline Savard,,"1445-C, Rue des Champs Elysees",,Chicoutimi,QC,G7H 6J2,Canada,418 549-9889,48.402649,-71.051122,"Monday 9 h-18 h, Tuesday 9 h-18 h, Wednesday 9 h-18 h, Thursday 9 h-21 h, Friday 9 h-21 h, Saturday 9 h-17 h, Sunday 11 h-17 h",,,
Eric Tremblay,,"600, Rue Audet",,Chicoutimi,QC,G7J 2W3,Canada,418 549-2026,48.421282,-71.072401,"Monday 9 h-20 h, Tuesday 9 h-20 h, Wednesday 9 h-20 h, Thursday 9 h-20 h, Friday 9 h-20 h, Saturday 9 h-16 h, Sunday 12 h-16 h",,,
"I. Bergeron, E. Boulianne, I. Minier et M. Pare",,"2075, Boul Mellon Bureau 100",,Jonquiere,QC,G7S 5Z8,Canada,418 548-3188,48.421162,-71.179925,"Monday 8 h 30-21 h, Tuesday 8 h 30-21 h, Wednesday 8 h 30-21 h, Thursday 8 h 30-21 h, Friday 8 h 30-21 h, Saturday 9 h-17 h, Sunday 11 h-17 h",,,
David Lapierre,,"2231, Rue Roussel",,Chicoutimi,QC,G7G 1W4,Canada,418 549-4005,48.437366,-71.06611,"Monday 9 h-20 h, Tuesday 9 h-20 h, Wednesday 9 h-20 h, Thursday 9 h-20 h, Friday 9 h-20 h, Saturday 9 h-17 h, Sunday 11 h-17 h",,,
Veronique Lavoie,,"3867, Rue St-Pierre",,Jonquiere,QC,G7X 3G3,Canada,418 542-3511,48.411558,-71.249526,"Monday 9 h-18 h, Tuesday 9 h-18 h, Wednesday 9 h-21 h, Thursday 9 h-21 h, Friday 9 h-21 h, Saturday 9 h-17 h, Sunday 12 h-16 h",,,
Amelie Houde et Michele Levesque,,"3521, Boul Martel Suite 300",,St-Honore-De-Chicoutimi,QC,G0V 1L0,Canada,418 673-4939,48.533302,-71.086486,"Monday 9 h-20 h 30, Tuesday 9 h-20 h 30, Wednesday 9 h-20 h 30, Thursday 9 h-20 h 30, Friday 9 h-20 h 30, Saturday 9 h-17 h, Sunday 12 h-16 h",,,
Charles Dionne et Josee Kowtaluk,,"470, Rue Simard",,St-Ambroise,QC,G7P 2S5,Canada,418 672-2626,48.556637,-71.32403,"Monday 9 h-21 h, Tuesday 9 h-21 h, Wednesday 9 h-21 h, Thursday 9 h-21 h, Friday 9 h-21 h, Saturday 9 h-17 h, Sunday Ferme",,,
Bruno Begin,,"955, Ave Nordique",,Quebec,QC,G1C 7S8,Canada,418 667-1330,46.889493,-71.192224,"Monday 9 h-20 h, Tuesday 9 h-20 h, Wednesday 9 h-20 h, Thursday 9 h-21 h, Friday 9 h-21 h, Saturday 9 h-17 h, Sunday 10 h-17 h",,,
Daniel Desgagne,,"14008, Boul Henri-Bourassa, local 100",,Quebec,QC,G1G 3Y8,Canada,418 623-5451,46.879121,-71.284678,"Monday 8 h 30-21 h, Tuesday 8 h 30-21 h, Wednesday 8 h 30-21 h, Thursday 8 h 30-21 h, Friday 8 h 30-21 h, Saturday 9 h-16 h, Sunday 9 h-14 h",,,
"P.-Y. Hebert, Y. Ferlatte et M. Parent",,"2398, Ave Maufils",,Quebec,QC,G1J 4K3,Canada,418 661-3774,46.842416,-71.228539,"Monday 9 h-20 h, Tuesday 9 h-20 h, Wednesday 9 h-20 h, Thursday 9 h-20 h, Friday 9 h-20 h, Saturday 9 h-17 h, Sunday 10 h 30-16 h",,,
Lucie Lampron,,"1900, Av Mailloux",,Quebec,QC,G1J 5B9,Canada,418 667-7871,46.842254,-71.219136,"Monday 8 h 30-21 h, Tuesday 8 h 30-21 h, Wednesday 8 h 30-21 h, Thursday 8 h 30-21 h, Friday 8 h 30-21 h, Saturday 9 h-14 h, Sunday Ferme",,,
Jean-Philippe Bergeron et Isabelle Renaud,,"4751, Boul Ste-Anne",,Quebec,QC,G1C 2K3,Canada,418 661-6948,46.875563,-71.156757,"Monday 9 h-21 h, Tuesday 9 h-21 h, Wednesday 9 h-21 h, Thursday 9 h-21 h, Friday 9 h-21 h, Saturday 9 h-17 h, Sunday 10 h-14 h",,,
Pierre-Yves Hebert et Yves Ferlatte,,"163, Rue Des Chenes O",,Quebec,QC,G1L 1K6,Canada,418 626-2525,46.834221,-71.250354,"Monday 9 h-20 h, Tuesday 9 h-20 h, Wednesday 9 h-20 h, Thursday 9 h-20 h, Friday 9 h-20 h, Saturday 9 h-17 h, Sunday 9 h-17 h",,,
"P.-Y. Hebert, Y. Ferlatte et M. Parent",,"770, 1ere Av",,Quebec,QC,G1L 3K2,Canada,418 647-9060,46.823634,-71.231431,"Monday 9 h-17 h, Tuesday 9 h-17 h, Wednesday 9 h-17 h, Thursday 9 h-17 h, Friday 9 h-16 h, Saturday Ferme, Sunday Ferme",,,
Daniel Desgagne et Keven Baril,,"20355, Boul Henri-Bourassa",,Quebec,QC,G2N 1N9,Canada,418 841-8181,46.899947,-71.305645,"Monday 9 h-21 h, Tuesday 9 h-21 h, Wednesday 9 h-21 h, Thursday 9 h-21 h, Friday 9 h-21 h, Saturday 9 h-17 h, Sunday 9 h-15 h",,,
Daniele Ouellet et Pierre Perrault,,"1015, Rte Prevost",,St-Pierre-Ile-D'orleans,QC,G0A 4E0,Canada,418 828-2215,46.873766,-71.096093,"Monday 9 h-21 h, Tuesday 9 h-21 h, Wednesday 9 h-21 h, Thursday 9 h-21 h, Friday 9 h-21 h, Saturday 9 h-17 h, Sunday 10 h-17 h",,,
Daniel Desgagne,,"1300, Boul Lebourgneuf, loc 120",,Quebec,QC,G2K 2N1,Canada,418 626-2556,46.835889,-71.296962,"Monday 8 h 30-20 h 30, Tuesday 8 h 30-20 h 30, Wednesday 8 h 30-20 h 30, Thursday 8 h 30-20 h 30, Friday 8 h 30-20 h 30, Saturday 9 h-16 h, Sunday 9 h-16 h",,,
Vanessa Tremblay,,"224, Av Ste-Brigitte, local 102",,Sainte-Brigitte-de-Laval,QC,G0A 3K0,Canada,418 825-4646,46.981077,-71.198241,"Monday 9 h 30-21 h, Tuesday 9 h 30-21 h, Wednesday 9 h 30-21 h, Thursday 9 h 30-21 h, Friday 9 h 30-21 h, Saturday 10 h-17 h, Sunday 10 h-17 h",,,
Mathieu Labonte,,"2300, Boul Pere-Lelievre",,Quebec,QC,G1P 2X5,Canada,418 681-6351,46.812212,-71.298946,"Monday 9 h-21 h, Tuesday 9 h-21 h, Wednesday 9 h-21 h, Thursday 9 h-21 h, Friday 9 h-21 h, Saturday 9 h-17 h, Sunday 9 h-17 h",,,
Nancy Dubois,,"1200, Rue De La Faune",,Quebec,QC,G3E 1T2,Canada,418 842-5287,46.876665,-71.325638,"Monday 9 h-21 h, Tuesday 9 h-21 h, Wednesday 9 h-21 h, Thursday 9 h-21 h, Friday 9 h-21 h, Saturday 9 h-17 h, Sunday 9 h-17 h",,,
"P.-Y. Hebert, Y. Ferlatte et M. Parent",,"745, 3e Avenue",,Quebec,QC,G1L 2W7,Canada,418 524-4547,46.824868,-71.228457,"Monday 8 h 30-21 h, Tuesday 8 h 30-21 h, Wednesday 8 h 30-21 h, Thursday 8 h 30-21 h, Friday 8 h 30-21 h, Saturday 9 h-18 h, Sunday 9 h-18 h",,,
"M.-H. Gingras, P.-Y. Hebert et Y. Ferlatte",,"75, Boul Charest Est",,Quebec,QC,G1K 3G4,Canada,418 529-5335,46.811588,-71.229662,"Monday 9 h-20 h, Tuesday 9 h-20 h, Wednesday 9 h-20 h, Thursday 9 h-20 h, Friday 9 h-20 h, Saturday 9 h-17 h, Sunday 10 h-14 h",,,
Pierre-Yves Hebert et Yves Ferlatte,,"205, Rue Montmagny Suite 100",,Quebec,QC,G1N 4V3,Canada,418 681-6195,46.809348,-71.244553,"Monday 9 h-20 h, Tuesday 9 h-20 h, Wednesday 9 h-20 h, Thursday 9 h-20 h, Friday 9 h-20 h, Saturday 9 h-17 h, Sunday 9 h-17 h",,,
Andre Villeneuve,,"38, Cote Du Palais",,Quebec,QC,G1R 4H8,Canada,418 692-4252,46.814667,-71.210851,"Monday 9 h-18 h, Tuesday 9 h-18 h, Wednesday 9 h-18 h, Thursday 9 h-18 h, Friday 9 h-18 h, Saturday 9 h-17 h, Sunday 10 h-15 h",,,
"P-Y. Hebert, Y. Ferlatte et J-F Cloutier",,"707, Boul Charest Ouest",,Quebec,QC,G1N 4P6,Canada,418 527-0133,46.804824,-71.242176,"Monday 9 h-21 h, Tuesday 9 h-21 h, Wednesday 9 h-21 h, Thursday 9 h-21 h, Friday 9 h-21 h, Saturday 9 h-18 h, Sunday 9 h-18 h",,,
Andre Villeneuve,,"1020, Rue De Bourlamaque",,Quebec,QC,G1R 2P2,Canada,418 524-2471,46.80318,-71.228359,"Monday 9 h-18 h, Tuesday 9 h-18 h, Wednesday 9 h-18 h, Thursday 9 h-18 h, Friday 9 h-18 h, Saturday 9 h-14 h, Sunday Ferme",,,
Dominique Boivin,,"1325, Ch. Sainte-Foy",,Quebec,QC,G1S 2N2,Canada,418 527-3451,46.794969,-71.253755,"Monday 8 h 30-21 h, Tuesday 8 h 30-21 h, Wednesday 8 h 30-21 h, Thursday 8 h 30-21 h, Friday 8 h 30-21 h, Saturday 9 h-17 h, Sunday 9 h-16 h",,,
"P-Y Hebert, Y. Ferlatte et I. Vaillancourt",,"449, Rue Principale",,Daveluyville,QC,G0Z 1C0,Canada,819 367-2022,46.201017,-72.136663,"Monday 9 h-18 h, Tuesday 9 h-18 h, Wednesday 9 h-18 h, Thursday 9 h-20 h, Friday 9 h-18 h, Saturday 9 h-13 h, Sunday Ferme",,,
Isabelle Fleurent,,"405, Rue Principale",,St-Leonard-D'aston,QC,J0C 1M0,Canada,819 399-2020,46.109213,-72.375685,"Monday 9 h-19 h, Tuesday 9 h-19 h, Wednesday 9 h-21 h, Thursday 9 h-21 h, Friday 9 h-19 h, Saturday 9 h-16 h, Sunday 10 h-13 h",,,
Pascale Lapierre,,"281, Rue Notre-Dame",,Notre-Dame-Du-Bon-Conseil,QC,J0C 1A0,Canada,819 336-2313,45.995076,-72.350457,"Monday 9 h-18 h, Tuesday 9 h-18 h, Wednesday 9 h-18 h, Thursday 9 h-21 h, Friday 9 h-21 h, Saturday 9 h-17 h, Sunday Ferme",,,
Nathalie Cloutier,,"4105, Rue Principale",,St-Cyrille-De-Wendover,QC,J1Z 1C7,Canada,819 397-6066,45.931572,-72.426113,"Monday 9 h-18 h 30, Tuesday 9 h-18 h 30, Wednesday 9 h-18 h 30, Thursday 9 h-20 h, Friday 9 h-18 h 30, Saturday 10 h-17 h, Sunday Ferme",,,
Claude Heon et Andre Lapierre,,"4825, Av Bouvet",,Becancour,QC,G9H 1X5,Canada,819 233-3230,46.27192,-72.50766,"Monday 8 h 30-20 h, Tuesday 8 h 30-20 h, Wednesday 8 h 30-20 h, Thursday 8 h 30-20 h, Friday 8 h 30-20 h, Saturday 9 h-16 h, Sunday Ferme",,,
Andre Lapierre et Claude Heon,,"451, Av Godefroy",,Becancour,QC,G9H 1S3,Canada,819 606-0106,46.298852,-72.541702,"Monday 8 h 30-21 h, Tuesday 8 h 30-21 h, Wednesday 8 h 30-21 h, Thursday 8 h 30-21 h, Friday 8 h 30-21 h, Saturday 9 h-17 h, Sunday 10 h-17 h",,,
"Alain Lauziere, Alexandre Beaudet et Philippe Guay",,"1825, Boul Becancour",,Becancour,QC,G9H 3V4,Canada,819 298-2215,46.403533,-72.273486,"Monday 9 h 30-18 h, Tuesday 9 h 30-18 h, Wednesday 9 h 30-18 h, Thursday 9 h 30-20 h, Friday 9 h 30-18 h, Saturday 9 h 30-15 h, Sunday Ferme",,,
"Daniel Desgagne, Andreane Baril et Julie Laprise",,"175, Rue Racine",,Quebec,QC,G2B 1E5,Canada,418 842-3627,46.853094,-71.357358,"Monday 8 h 30-20 h, Tuesday 8 h 30-20 h, Wednesday 8 h 30-20 h, Thursday 8 h 30-20 h, Friday 8 h 30-20 h, Saturday 9 h-16 h, Sunday 10 h-16 h",,,
Jonathan Santerre,,"2360, Chemin Ste-Foy",,Quebec,QC,G1V 4H2,Canada,418 657-6966,46.786655,-71.281764,"Monday 9 h-21 h, Tuesday 9 h-21 h, Wednesday 9 h-21 h, Thursday 9 h-21 h, Friday 9 h-21 h, Saturday 10 h-17 h, Sunday 10 h-17 h",,,
Pierre-Yves Hebert et Yves Ferlatte,,"822, Av Myrand",,Quebec,QC,G1V 2V5,Canada,418 683-2921,46.788477,-71.27,"Monday 9 h-20 h, Tuesday 9 h-20 h, Wednesday 9 h-20 h, Thursday 9 h-20 h, Friday 9 h-20 h, Saturday 9 h-17 h, Sunday 10 h-14 h",,,
Sylvie Champagne et Stefanie Ouellet,,"1761, Rue Sheppard",,Quebec,QC,G1S 1K5,Canada,418 527-3434,46.783704,-71.249699,"Monday 8 h-20 h, Tuesday 8 h-20 h, Wednesday 8 h-20 h, Thursday 8 h-20 h, Friday 8 h-20 h, Saturday 9 h-17 h, Sunday 9 h-13 h",,,
Sylvie Champagne et Stefanie Ouellet,,"1363, Av Maguire",,Quebec,QC,G1T 1Z2,Canada,418 681-3525,46.780731,-71.251229,"Monday 8 h 30-21 h, Tuesday 8 h 30-21 h, Wednesday 8 h 30-21 h, Thursday 8 h 30-21 h, Friday 8 h 30-21 h, Saturday 9 h-17 h, Sunday 9 h-17 h",,,
Bach Heng Ta et Daniel Morissette,,"3560, Rue Laval",,Lac-Megantic,QC,G6B 2X4,Canada,819 583-3166,45.590109,-70.903531,"Monday 9 h-17 h 30, Tuesday 9 h-17 h 30, Wednesday 9 h-17 h 30, Thursday 9 h-21 h, Friday 9 h-21 h, Saturday 9 h-17 h, Sunday 10 h-16 h",,,
"R. Mercier, M.-C. Jacques et N. Auger",,"1147, Boul. Pie-XI N, Suite 104",,Quebec,QC,G3K 2P8,Canada,418 847-0355,46.857338,-71.420897,"Monday 8 h 30-21 h, Tuesday 8 h 30-21 h, Wednesday 8 h 30-21 h, Thursday 8 h 30-21 h, Friday 8 h 30-21 h, Saturday 8 h 30-17 h, Sunday 8 h 30-17 h",,,
"P-Y Hebert, Y. Ferlatte et C. Page",,"2900, Ch St-Louis",,Quebec,QC,G1W 4R7,Canada,418 651-1374,46.761752,-71.28377,"Monday 9 h-20 h, Tuesday 9 h-20 h, Wednesday 9 h-20 h, Thursday 9 h-21 h, Friday 9 h-21 h, Saturday 9 h-17 h, Sunday 10 h-17 h",,,
Christian Page,,"2789, Ch Ste-Foy",,Quebec,QC,G1V 1V9,Canada,418 658-2470,46.779422,-71.302634,"Monday 9 h-20 h, Tuesday 9 h-20 h, Wednesday 9 h-20 h, Thursday 9 h-20 h, Friday 9 h-18 h, Saturday 9 h-12 h 30, Sunday Ferme",,,
Pierre-Yves Hebert et Yves Ferlatte,,"3207, Ch Ste-Foy",,Quebec,QC,G1X 1R3,Canada,418 651-3230,46.77272,-71.316612,"Monday 8 h 30-21 h, Tuesday 8 h 30-21 h, Wednesday 8 h 30-21 h, Thursday 8 h 30-21 h, Friday 8 h 30-21 h, Saturday 9 h-17 h, Sunday 10 h-17 h",,,
Pierre-Yves Hebert et Yves Ferlatte,,"3232, Boul Neilson",,Quebec,QC,G1W 2V8,Canada,418 656-6422,46.75767,-71.309166,"Monday 9 h-20 h, Tuesday 9 h-20 h, Wednesday 9 h-20 h, Thursday 9 h-20 h, Friday 9 h-20 h, Saturday 9 h-17 h, Sunday 10 h-16 h",,,
Isabelle Duchesne,,"1650, Av Jules-Verne",,Quebec,QC,G2G 2R1,Canada,418 877-7887,46.777478,-71.356793,"Monday 8 h 30-21 h, Tuesday 8 h 30-21 h, Wednesday 8 h 30-21 h, Thursday 8 h 30-21 h, Friday 8 h 30-21 h, Saturday 9 h-17 h, Sunday 10 h-17 h",,,
Julie Theriault,,"9331, Boul Du Centre-Hospitalier",,Levis,QC,G6X 1L7,Canada,418 832-4616,46.724346,-71.257918,"Monday 9 h-21 h, Tuesday 9 h-21 h, Wednesday 9 h-21 h, Thursday 9 h-21 h, Friday 9 h-21 h, Saturday 9 h-17 h, Sunday 10 h-17 h",,,
Maude Smith-Bujold,,"2170, route des Rivieres, local 190",,Levis,QC,G6K 1A5,Canada,418 836-3434,46.703819,-71.286014,"Monday 9 h-21 h, Tuesday 9 h-21 h, Wednesday 9 h-21 h, Thursday 9 h-21 h, Friday 9 h-21 h, Saturday 9 h-17 h, Sunday 9 h-17 h",,,
Anne Lafontaine,,"845, route Marie-Victorin",,Levis,QC,G7A 3S8,Canada,418 831-9661,46.716074,-71.346986,"Monday 9 h-21 h, Tuesday 9 h-21 h, Wednesday 9 h-21 h, Thursday 9 h-21 h, Friday 9 h-21 h, Saturday 9 h-17 h, Sunday 10 h-17 h",,,
Janic Dube et Pierre Perrault,,"7, Rue Laplante",,Chateau-Richer,QC,G0A 1N0,Canada,418 824-4286,46.961224,-71.033374,"Monday 9 h-20 h, Tuesday 9 h-20 h, Wednesday 9 h-20 h, Thursday 9 h-20 h, Friday 9 h-20 h, Saturday 9 h-17 h, Sunday 10 h-17 h",,,
Caroline Martel et Christian Langlois,,"3695, rue de L'Hetriere, #200",,St-Augustin-De-Desmaures,QC,G3A 1X1,Canada,418 874-0150,46.751834,-71.380894,"Monday 8 h-21 h, Tuesday 8 h-21 h, Wednesday 8 h-21 h, Thursday 8 h-21 h, Friday 8 h-21 h, Saturday 9 h-17 h, Sunday 10 h-17 h",,,
"P.-Y. Hebert, Y. Ferlatte et I. Vaillancourt",,"278, Rte 138 Suite 70",,St-Augustin-De-Desmaures,QC,G3A 2C5,Canada,418 878-1514,46.744114,-71.45506,"Monday 9 h-21 h, Tuesday 9 h-21 h, Wednesday 9 h-21 h, Thursday 9 h-21 h, Friday 9 h-21 h, Saturday 9 h-17 h, Sunday 10 h-17 h",,,
Janie Larouche,,"1108, Rue St-Cyrille",,Normandin,QC,G8M 4J4,Canada,418 274-2813,48.837125,-72.529544,"Monday 9 h-18 h, Tuesday 9 h-18 h, Wednesday 9 h-21 h, Thursday 9 h-21 h, Friday 9 h-21 h, Saturday 9 h-17 h, Sunday 10 h 30-15 h",,,
Sara Marceau,,"148, Boul St-Michel",,Dolbeau-Mistassini,QC,G8L 5J8,Canada,418 276-8659,48.894113,-72.204377,"Monday 9 h-18 h, Tuesday 9 h-18 h, Wednesday 9 h-18 h, Thursday 9 h-21 h, Friday 9 h-21 h, Saturday 9 h-17 h, Sunday 10 h-16 h",,,
Maxime Sasseville et Valery Madore,,"1179, Boul St-Felicien, Suite 101",,St-Felicien,QC,G8K 3J1,Canada,418 613-0613,48.655202,-72.459561,"Monday 9 h-18 h, Tuesday 9 h-18 h, Wednesday 9 h-21 h, Thursday 9 h-21 h, Friday 9 h-21 h, Saturday 9 h-17 h, Sunday 9 h-17 h",,,
Sebastien Belanger et Julie Grenier,,"452, Rue Principale",,St-Prime,QC,G8J 1S4,Canada,418 251-5155,48.587747,-72.328947,"Monday 9 h-17 h 30, Tuesday 9 h-17 h 30, Wednesday 9 h-17 h 30, Thursday 9 h-20 h, Friday 9 h-20 h, Saturday 9 h-13 h, Sunday Ferme",,,
Vanessa Tremblay,,"578, Rte 138 Bur 140",,Neuville,QC,G0A 2R0,Canada,418 876-2728,46.698966,-71.57497,"Monday 8 h 30-20 h 30, Tuesday 8 h 30-20 h 30, Wednesday 8 h 30-20 h 30, Thursday 8 h 30-20 h 30, Friday 8 h 30-20 h 30, Saturday 9 h-16 h, Sunday Ferme",,,
Aubert Levesque et Kaven Mc Nicoll,,"20, Rue Du Pont",,Amqui,QC,G5J 2P5,Canada,418 629-1414,48.46532,-67.430823,"Monday 9 h-18 h, Tuesday 9 h-18 h, Wednesday 9 h-18 h, Thursday 9 h-21 h, Friday 9 h-21 h, Saturday 9 h-17 h, Sunday 12 h-17 h",,,
Priscilla Guenette et Kaven Mc Nicoll,,"28, Rue St-Jean-Baptiste, CP 728",,Causapscal,QC,G0J 1J0,Canada,418 756-5033,48.354876,-67.225197,"Monday 9 h 30-17 h 30, Tuesday 9 h 30-17 h 30, Wednesday 9 h 30-17 h 30, Thursday 9 h 30-17 h 30, 18 h 30-20 h, Friday 9 h 30-17 h 30, 18 h 30-20 h, Saturday 9 h 30-12 h, 13 h-15 h, Sunday Ferme",,,
Jean-Philippe Halle et Kaven McNicoll,,"99, Rue De L'eglise",,Sayabec,QC,G0J 3K0,Canada,418 536-1414,48.558886,-67.685184,"Monday 9 h 30-17 h 30, Tuesday 9 h 30-17 h 30, Wednesday 9 h 30-17 h 30, Thursday 9 h 30-17 h 30, 18 h 30-20 h, Friday 9 h 30-17 h 30, 18 h 30-20 h, Saturday 9 h 30-12 h, 13 h-15 h, Sunday Ferme",,,
Albert Falardeau,,"316A, 4eme Av",,St-Paul-De-Montminy,QC,G0R 3Y0,Canada,418 469-3110,46.730523,-70.360785,"Monday 8 h 30-12 h, 13 h-17 h, Tuesday 8 h 30-12 h, 13 h-17 h, Wednesday 8 h 30-12 h, 13 h-17 h, Thursday 8 h 30-12 h, 13 h-20 h, Friday 8 h 30-12 h, 13 h-17 h, Saturday 8 h 30-12 h, Sunday Ferme",,,
Philippe Lepicier et Marie-Helene Miousse,,"535, Rue Du Patrimoine",,Cacouna,QC,G0L 1G0,Canada,418 867-3569,47.909248,-69.508624,"Monday 9 h-18 h, Tuesday 9 h-18 h, Wednesday 9 h-18 h, Thursday 9 h-18 h, Friday 9 h-18 h, Saturday Ferme, Sunday Ferme",,,
"Yvan Duval, Denis Duval et Michel Cadrin",,"254A, Boul De L'hotel-De-Ville",,Riviere-Du-Loup,QC,G5R 1M4,Canada,418 862-3065,47.825257,-69.55226,"Monday 9 h-18 h, Tuesday 9 h-18 h, Wednesday 9 h-18 h, Thursday 9 h-21 h, Friday 9 h-21 h, Saturday 9 h-17 h, Sunday 12 h-17 h",,,
"Yvan Duval, Denis Duval et Michel Cadrin",,"200, Rue Temiscouata",,Riviere-du-Loup,QC,G5R 2Y5,Canada,418 862-2176,47.823291,-69.519698,"Monday 9 h-21 h, Tuesday 9 h-21 h, Wednesday 9 h-21 h, Thursday 9 h-21 h, Friday 9 h-21 h, Saturday 9 h-17 h, Sunday 10 h-17 h",,,
Pierre-Olivier Bertrand,,"709, Rte 289",,St-Alexandre-De-Kamouraska,QC,G0L 2G0,Canada,418 495-2358,47.68248,-69.62363,"Monday 9 h-17 h 30, Tuesday 9 h-17 h 30, Wednesday 9 h-17 h 30, Thursday 9 h-17 h 30, Friday 9 h-17 h 30, Saturday 9 h-12 h, Sunday Ferme",,,
Philippe Lepicier et Marie-Helene Miousse,,"136-A, Rue Du Seigneur-Cote",,L'isle-Verte,QC,G0L 1K0,Canada,418 898-3111,48.015373,-69.338541,"Monday 9 h-18 h, Tuesday 9 h-18 h, Wednesday 9 h-18 h, Thursday 9 h-18 h, Friday 9 h-18 h, Saturday Ferme, Sunday Ferme",,,
Chantal Berube et Gerald Cloutier,,"3100, Rte Lagueux",,Levis,QC,G6J 1J9,Canada,418 831-7009,46.650618,-71.309836,"Monday 8 h-20 h, Tuesday 8 h-20 h, Wednesday 8 h-20 h, Thursday 8 h-21 h, Friday 8 h-21 h, Saturday 9 h-17 h, Sunday 9 h-17 h",,,
Sylvie Gauthier et Magali Plante,,"1125, Rue Principale, Suite 100",,St-Agapit,QC,G0S 1Z0,Canada,418 888-5555,46.561917,-71.432442,"Monday 9 h-19 h, Tuesday 9 h-19 h, Wednesday 9 h-19 h, Thursday 9 h-21 h, Friday 9 h-21 h, Saturday 9 h-17 h, Sunday 12 h-16 h",,,
"Jocelyne Paradis, Sylvie Gauthier et Magali Plante",,"1540, Rue Principale Suite 100",,St-Gilles,QC,G0S 2P0,Canada,418 888-4104,46.510113,-71.36428,"Monday 9 h-18 h, Tuesday 13 h-18 h, Wednesday 13 h-18 h, Thursday 13 h-20 h, Friday 13 h-18 h, Saturday Ferme, Sunday Ferme",,,
Albert Falardeau,,"106, Boul Metivier",,St-Damien-De-Buckland,QC,G0R 2Y0,Canada,418 789-2446,46.621997,-70.657109,"Monday 9 h-18 h, Tuesday 9 h-18 h, Wednesday 9 h-18 h, Thursday 9 h-21 h, Friday 9 h-21 h, Saturday 9 h-17 h, Sunday Ferme",,,
Elise Barrette,,"2450, Rue Becancour",,Lyster,QC,G0S 1V0,Canada,819 389-5333,46.371539,-71.613863,"Monday 9 h-20 h, Tuesday 9 h-17 h, Wednesday 9 h-17 h, Thursday 9 h-17 h, Friday 9 h-17 h, Saturday Ferme, Sunday Ferme",,,
"L. Begin, M.-F. Croteau et I. Boudreau",,"120, Rue De La Station",,Laurier-Station,QC,G0S 1N0,Canada,418 728-2946,46.539855,-71.631627,"Monday 9 h-20 h, Tuesday 9 h-20 h, Wednesday 9 h-20 h, Thursday 9 h-21 h, Friday 9 h-21 h, Saturday 9 h-17 h, Sunday 11 h-17 h",,,
Regis Tremblay et Simon Tremblay,,"210A, Rue Principale",,St-Nazaire,QC,G0W 2V0,Canada,418 668-4453,48.588262,-71.552,"Monday 9 h-17 h 30, Tuesday 9 h-17 h 30, Wednesday 9 h-21 h, Thursday 9 h-21 h, Friday 9 h-21 h, Saturday 9 h-17 h, Sunday Ferme",,,
Sandra Perron et Joelle Turcotte,,"9, Rue Commerciale",,Hebertville,QC,G8N 1N3,Canada,418 344-1266,48.388032,-71.6859,"Monday 9 h-17 h 30, Tuesday 9 h-17 h 30, Wednesday 9 h-17 h 30, Thursday 9 h-21 h, Friday 9 h-21 h, Saturday 9 h-17 h, Sunday 10 h-13 h",,,
Linda Gaudreault,,"195, Boul Dequen",,Alma,QC,G8B 5N4,Canada,418 662-3408,48.555756,-71.649065,"Monday 9 h-21 h, Tuesday 9 h-21 h, Wednesday 9 h-21 h, Thursday 9 h-21 h, Friday 9 h-21 h, Saturday 9 h-17 h, Sunday Ferme",,,
Jessica Bouchard,,"1439, Av Du Manoir Nord",,Alma,QC,G8B 4X3,Canada,418 662-2121,48.577133,-71.627137,"Monday 8 h 30-21 h, Tuesday 8 h 30-21 h, Wednesday 8 h 30-21 h, Thursday 8 h 30-21 h, Friday 8 h 30-21 h, Saturday 9 h-17 h, Sunday 9 h-17 h",,,
Regis Tremblay,,"92, Rue Joseph-W.-Fleury",,Alma,QC,G8E 2K2,Canada,418 347-4646,48.633121,-71.699783,"Monday 9 h-21 h, Tuesday 9 h-21 h, Wednesday 9 h-21 h, Thursday 9 h-21 h, Friday 9 h-21 h, Saturday 9 h-17 h, Sunday Ferme",,,
Isabelle Bouchard et Maude Morin,,"18, Rue St-Basile",,Metabetchouan-Lac-A-La-Croix,QC,G8G 1S7,Canada,418 349-2853,48.426576,-71.871766,"Monday 9 h-21 h, Tuesday 9 h-21 h, Wednesday 9 h-21 h, Thursday 9 h-21 h, Friday 9 h-21 h, Saturday 9 h-16 h, Sunday Ferme",,,
Sebastien Belanger et Julie Grenier,,"854, Boul St-Joseph",,Roberval,QC,G8H 2L7,Canada,418 275-0941,48.518501,-72.221701,"Monday 8 h 30-21 h, Tuesday 8 h 30-21 h, Wednesday 8 h 30-21 h, Thursday 8 h 30-21 h, Friday 8 h 30-21 h, Saturday 9 h-17 h, Sunday 10 h-17 h",,,
Frederic Dupere et Andree Gelinas,,"165, Boul Ste-Madeleine",,Trois-Rivieres,QC,G8T 3L7,Canada,819 371-2204,46.36563,-72.510064,"Monday 9 h-20 h, Tuesday 9 h-20 h, Wednesday 9 h-20 h, Thursday 9 h-20 h, Friday 9 h-20 h, Saturday 9 h-16 h, Sunday 10 h-15 h",,,
Daniel Vermette et Jerome Champagne-Parent,,"776, Boul Du Saint-Maurice",,Trois-Rivieres,QC,G9A 3P6,Canada,819 374-6284,46.352081,-72.546185,"Monday 9 h-21 h, Tuesday 9 h-21 h, Wednesday 9 h-21 h, Thursday 9 h-21 h, Friday 9 h-21 h, Saturday 9 h-17 h, Sunday 10 h-16 h",,,
Claude Heon et Andre Lapierre,,"1785, Boul Du Carmel Suite 103",,Trois-Rivieres,QC,G8Z 3R8,Canada,819 840-2756,46.353176,-72.56024,"Monday 8 h-20 h, Tuesday 8 h-20 h, Wednesday 8 h-20 h, Thursday 8 h-20 h, Friday 8 h-20 h, Saturday 9 h-16 h, Sunday 9 h-15 h",,,
Mylene De Grandpre et Mathieu Houle-Laporte,,"4900, Boul Des Forges",,Trois-Rivieres,QC,G8Y 1X1,Canada,819 841-3668,46.360843,-72.591804,"Monday 9 h-21 h, Tuesday 9 h-21 h, Wednesday 9 h-21 h, Thursday 9 h-21 h, Friday 9 h-21 h, Saturday 9 h-18 h, Sunday 10 h-18 h",,,
"J. Bisson, M. De Grandpre, M. Houle-Laporte",,"4763, Boul Gene-H.-Kruger",,Trois-Rivieres,QC,G9A 4N4,Canada,819 415-1832,46.32277,-72.56584,"Monday 9 h-21 h, Tuesday 9 h-21 h, Wednesday 9 h-21 h, Thursday 9 h-21 h, Friday 9 h-21 h, Saturday 9 h-17 h, Sunday 10 h-17 h",,,
Marie-Eve Gelinas,,"683, Rue Sainte Anne",,Yamachiche,QC,G0X 3L0,Canada,819 296-2222,46.28311,-72.829441,"Monday 9 h-18 h, Tuesday 9 h-18 h, Wednesday 9 h-18 h, Thursday 9 h-18 h, Friday 9 h-18 h, Saturday 10 h-14 h, Sunday Ferme",,,
Pierre Theberge et Judith Savoie,,"80, Place Du 21 Mars",,Nicolet,QC,J3T 1E9,Canada,819 293-2131,46.225473,-72.61755,"Monday 8 h 30-20 h, Tuesday 8 h 30-20 h, Wednesday 8 h 30-20 h, Thursday 8 h 30-21 h, Friday 8 h 30-21 h, Saturday 9 h-17 h, Sunday 10 h-16 h",,,
Daniel Deschenes,,"2851, Rue Lafleche",,St-Paulin,QC,J0K 3G0,Canada,819 268-2697,46.418933,-73.013017,"Monday 9 h-18 h, Tuesday 9 h-18 h, Wednesday 9 h-18 h, Thursday 9 h-20 h, Friday 9 h-20 h, Saturday 9 h-17 h, Sunday Ferme",,,
"G. Lemay, J.-G. Trottier et P.-L. Dube",,"887, Rte Marie-Victorin",,Deschaillons-Sur-Saint-Laurent,QC,G0S 1G0,Canada,819 292-3313,46.557304,-72.113527,"Monday 9 h 30-18 h, Tuesday 9 h 30-18 h, Wednesday 9 h 30-18 h, Thursday 9 h 30-21 h, Friday 9 h 30-21 h, Saturday 9 h 30-17 h, Sunday Ferme",,,
Daniel Deschenes,,"60, Rue Notre-Dame",,St-Alexis-Des-Monts,QC,J0K 1V0,Canada,819 265-2697,46.461363,-73.143806,"Monday 9 h-18 h, Tuesday 9 h-18 h, Wednesday 9 h-18 h, Thursday 9 h-20 h, Friday 9 h-20 h, Saturday 9 h-17 h, Sunday Ferme",,,
Jacinthe Montminy,,"10, Rue Georges Bureau 102",,Pierreville,QC,J0G 1J0,Canada,450 568-2123,46.070372,-72.811394,"Monday 9 h-20 h, Tuesday 9 h-20 h, Wednesday 9 h-20 h, Thursday 9 h-20 h, Friday 9 h-20 h, Saturday 9 h-16 h, Sunday 10 h-14 h",,,
Pharmacie Luc Ouellette Inc.,,"11370, Rue Notre-Dame Est, local 101",,Montreal-Est,QC,H1B 2W6,Canada,514 645-8351,45.631311,-73.495965,"Monday 9 h-21 h, Tuesday 9 h-21 h, Wednesday 9 h-21 h, Thursday 9 h-21 h, Friday 9 h-21 h, Saturday 9 h-17 h, Sunday Ferme",,,
Nguyen Thi Hong Nhung,,"15816, Rue Notre-Dame E",,Pointe-Aux-Trembles,QC,H1A 1X6,Canada,514 498-7572,45.692859,-73.488392,"Monday 9 h-21 h, Tuesday 9 h-21 h, Wednesday 9 h-21 h, Thursday 9 h-21 h, Friday 9 h-21 h, Saturday 9 h-17 h, Sunday 10 h-15 h",,,
Denis Ruel et Isabelle Beaudry,,"7100, Rue Jarry Est",,Anjou,QC,H1J 1G4,Canada,514 352-1500,45.601716,-73.575563,"Monday 9 h-20 h, Tuesday 9 h-20 h, Wednesday 9 h-20 h, Thursday 9 h-20 h, Friday 9 h-20 h, Saturday 9 h-16 h, Sunday 11 h-16 h",,,
Denis Ruel,,"7181, Rue Beaubien Est",,Anjou,QC,H1M 2Y2,Canada,514 355-6465,45.594725,-73.557028,"Monday 9 h-20 h, Tuesday 9 h-20 h, Wednesday 9 h-20 h, Thursday 9 h-20 h, Friday 9 h-20 h, Saturday 9 h-16 h, Sunday 11 h-16 h",,,
Ian-Philip Paul-Hus,,"303, Boul De La Marine Suite 102",,Varennes,QC,J3X 2G6,Canada,450 929-4994,45.657436,-73.42313,"Monday 8 h-20 h, Tuesday 8 h-20 h, Wednesday 8 h-20 h, Thursday 8 h-20 h, Friday 8 h-20 h, Saturday 9 h-17 h, Sunday 10 h-17 h",,,
Julie Lauzon et Isabelle Martin,,"1740, Ch St-Charles",,Terrebonne,QC,J6W 3R3,Canada,450 492-2253,45.695563,-73.614801,"Monday 9 h-21 h, Tuesday 9 h-21 h, Wednesday 9 h-21 h, Thursday 9 h-21 h, Friday 9 h-18 h, Saturday 9 h-14 h, Sunday 9 h-14 h",,,
Julie Lauzon,,"1415, Rue Grande-Allee",,Terrebonne,QC,J6W 5M9,Canada,450 964-4224,45.707736,-73.621952,"Monday 9 h-21 h, Tuesday 9 h-21 h, Wednesday 9 h-21 h, Thursday 9 h-21 h, Friday 9 h-21 h, Saturday 9 h-18 h, Sunday 9 h-17 h",,,
Martin Bertrand,,"7503, Boul Lacordaire",,Montreal,QC,H1S 2A6,Canada,514 315-3660,45.582869,-73.582082,"Monday 9 h-19 h, Tuesday 9 h-19 h, Wednesday 9 h-19 h, Thursday 9 h-19 h, Friday 9 h-19 h, Saturday 10 h-16 h, Sunday 10 h-16 h",,,
Boumediene Sellaf et Haedrian Garotta,,"9200, Boul Lacordaire",,Montreal,QC,H1R 2B7,Canada,514 321-3222,45.596316,-73.609294,"Monday 9 h-21 h, Tuesday 9 h-21 h, Wednesday 9 h-21 h, Thursday 9 h-21 h, Friday 9 h-21 h, Saturday 9 h-19 h, Sunday 9 h-18 h",,,
Daniel Vermette,,"5345, Boul L'assomption Unite 5",,Montreal,QC,H1T 4B3,Canada,514 252-9000,45.573012,-73.55842,"Monday 8 h-21 h, Tuesday 8 h-21 h, Wednesday 8 h-21 h, Thursday 8 h-21 h, Friday 8 h-21 h, Saturday 8 h 30-16 h 30, Sunday 8 h 30-16 h 30",,,
Ian-Philip Paul-Hus,,"1000, boul. de Montarville, suite 100",,Boucherville,QC,J4B 5V9,Canada,450 356-3555,45.590467,-73.435754,"Monday 9 h-18 h, Tuesday 9 h-18 h, Wednesday 9 h-18 h, Thursday 9 h-18 h, Friday 9 h-18 h, Saturday 9 h-17 h, Sunday Ferme",,,
Karine Croteau et Walid Khoder,,"891, Boul Des Seigneurs",,Terrebonne,QC,J6W 1T8,Canada,450 961-1222,45.702195,-73.639854,"Monday 9 h-21 h, Tuesday 9 h-21 h, Wednesday 9 h-21 h, Thursday 9 h-21 h, Friday 9 h-18 h, Saturday 9 h-15 h, Sunday 9 h-15 h",,,
"F. Grondin, D. Ghattas, R. Remy et M. Ghersi",,"1750, Boul Marie-Victorin",,Longueuil,QC,J4G 1A5,Canada,450 442-4808,45.5686,-73.487018,"Monday 9 h-21 h, Tuesday 9 h-21 h, Wednesday 9 h-21 h, Thursday 9 h-21 h, Friday 9 h-21 h, Saturday 9 h-17 h, Sunday 9 h-17 h",,,
Olivier Janelle,,"8770, Boul Provencher",,Saint-Leonard,QC,H1R 3N7,Canada,514 727-3759,45.58108,-73.610874,"Monday 9 h-21 h, Tuesday 9 h-21 h, Wednesday 9 h-21 h, Thursday 9 h-21 h, Friday 9 h-21 h, Saturday 9 h-20 h, Sunday 10 h-19 h",,,
Pierre Malki,,"4420, Rue Jean-Talon Est",,Montreal,QC,H1S 1J7,Canada,438 387-4242,45.569425,-73.588243,"Monday 9 h-19 h, Tuesday 9 h-19 h, Wednesday 9 h-19 h, Thursday 9 h-20 h, Friday 9 h-20 h, Saturday 10 h-17 h, Sunday Ferme",,,
Karine Croteau et Walid Khoder,,"1299, Boul Des Seigneurs Suite 105",,Terrebonne,QC,J6W 5B2,Canada,450 471-1221,45.699491,-73.656184,"Monday 9 h-21 h, Tuesday 9 h-21 h, Wednesday 9 h-21 h, Thursday 9 h-21 h, Friday 8 h 30-21 h, Saturday 9 h-18 h, Sunday 9 h-18 h",,,
Isabelle Halley,,"219, Rue Saint-Paul",,Repentigny,QC,J5Z 2H9,Canada,450 704-4868,45.756976,-73.479252,"Monday 9 h-21 h, Tuesday 9 h-21 h, Wednesday 9 h-21 h, Thursday 9 h-21 h, Friday 9 h-21 h, Saturday 9 h-17 h, Sunday 9 h-17 h",,,
Gabriel Hannouche,,"3871, Rue Belanger",,Montreal,QC,H1X 3M7,Canada,514 722-1108,45.563018,-73.589346,"Monday 8 h 30-21 h, Tuesday 8 h 30-21 h, Wednesday 8 h 30-21 h, Thursday 8 h 30-21 h, Friday 8 h 30-21 h, Saturday 9 h-17 h, Sunday Ferme",,,
"G. Duperron, J.- P Pilon et V. Therrien",,"4790, Rue D'angora",,Terrebonne,QC,J6X 0J6,Canada,450 824-9060,45.714642,-73.65305,"Monday 8 h 30-20 h 30, Tuesday 8 h 30-20 h 30, Wednesday 8 h 30-20 h 30, Thursday 8 h 30-20 h 30, Friday 8 h 30-20 h 30, Saturday 8 h 30-16 h 30, Sunday 8 h 30-16 h 30",,,
Jean-Maurice Weibel,,"3815, Rue Masson",,Montreal,QC,H1X 1S9,Canada,514 729-6353,45.556212,-73.570436,"Monday 9 h-21 h, Tuesday 9 h-21 h, Wednesday 9 h-21 h, Thursday 9 h-21 h, Friday 9 h-21 h, Saturday 9 h-17 h, Sunday 10 h-17 h",,,
Daniel Morin et Amelie Arpin,,"2340, Chemin Gascon",,Terrebonne,QC,J6X 3A5,Canada,450 477-7979,45.723526,-73.665188,"Monday 8 h 30-21 h, Tuesday 8 h 30-21 h, Wednesday 8 h 30-21 h, Thursday 8 h 30-21 h, Friday 8 h 30-21 h, Saturday 9 h-17 h, Sunday 9 h-17 h",,,
Thanh-Thao Isabelle Luu Thi,,"2500, Av Jean-Talon Est",,Montreal,QC,H2A 1T7,Canada,514 727-8967,45.55366,-73.601991,"Monday 9 h-19 h, Tuesday 9 h-19 h, Wednesday 9 h-19 h, Thursday 9 h-20 h, Friday 9 h-20 h, Saturday 9 h-18 h, Sunday Ferme",,,
Simon Boutros,,"1800, Boul Cartier Est (dans Residence Les Ecores)",,Laval,QC,H7G 4R6,Canada,450 668-6686,45.572937,-73.670364,"Monday 10 h-17 h, Tuesday 10 h-17 h, Wednesday 10 h-17 h, Thursday 10 h-17 h, Friday 10 h-17 h, Saturday Ferme, Sunday Ferme",,,
Alain Gaudet et Ariane Malouin,,"1600, Boul De La Concorde Est",,Laval,QC,H7G 2E7,Canada,450 629-9399,45.577905,-73.679868,"Monday 9 h-21 h, Tuesday 9 h-21 h, Wednesday 9 h-21 h, Thursday 9 h-21 h, Friday 9 h-21 h, Saturday 9 h-17 h, Sunday 9 h-17 h",,,
Veronique Magnan,,"7895, Av Papineau, suite 100",,Montreal,QC,H2E 2H4,Canada,514 729-3235,45.552006,-73.615939,"Monday 9 h-19 h, Tuesday 9 h-19 h, Wednesday 9 h-19 h, Thursday 9 h-19 h, Friday 9 h-19 h, Saturday 9 h-17 h, Sunday Ferme",,,
Anne Drolet et Magali Cyr,,"505, Boul Gouin Ouest",,Montreal,QC,H3L 3T2,Canada,514 337-5959,45.547405,-73.68531,"Monday 9 h-16 h, Tuesday 9 h-16 h, Wednesday 9 h-16 h, Thursday 9 h-16 h, Friday 9 h-16 h, Saturday Ferme, Sunday Ferme",,,
Cam Uyen Mai Ba,,"1969, Boul Rosemont",,Montreal,QC,H2G 1S9,Canada,514 274-9301,45.542114,-73.590089,"Monday 9 h-17 h, Tuesday 9 h-17 h, Wednesday 9 h-17 h, Thursday 9 h-18 h, Friday 9 h-17 h, Saturday Ferme, Sunday Ferme",,,
Hiba Abas,,"35, Rue Jean-Talon Ouest",,Montreal,QC,H2R 2W6,Canada,514 303-1115,45.534346,-73.619019,"Monday 8 h-19 h, Tuesday 8 h-19 h, Wednesday 8 h-19 h, Thursday 8 h-19 h, Friday 8 h-19 h, Saturday 9 h-17 h, Sunday 10 h-16 h",,,
Said Khaouam,,"1650, Boul Henri-Bourassa Ouest",,Montreal,QC,H3M 3E3,Canada,514 336-7434,45.536664,-73.678743,"Monday 9 h-20 h, Tuesday 9 h-20 h, Wednesday 9 h-20 h, Thursday 9 h-20 h, Friday 9 h-20 h, Saturday 10 h-15 h, Sunday Ferme",,,
Michelle Costello,,"4689, Rue Papineau",,Montreal,QC,H2H 1V4,Canada,514 526-1001,45.534059,-73.576778,"Monday 10 h-19 h, Tuesday 10 h-19 h, Wednesday 10 h-19 h, Thursday 10 h-19 h, Friday 10 h-19 h, Saturday 10 h-16 h, Sunday Ferme",,,
Jean-Maurice Weibel,,"3495, Rue Hochelaga",,Montreal,QC,H1W 1H6,Canada,514 524-3613,45.546218,-73.552041,"Monday 9 h-21 h, Tuesday 9 h-21 h, Wednesday 9 h-21 h, Thursday 9 h-21 h, Friday 9 h-21 h, Saturday 9 h-17 h, Sunday 10 h-17 h",,,
Jocelyne Mercier,,"3030, Boul Le Carrefour Suite 110",,Laval,QC,H7T 2P5,Canada,450 687-0162,45.568332,-73.749666,"Monday 9 h-19 h 30, Tuesday 9 h-19 h 30, Wednesday 9 h-19 h 30, Thursday 9 h-19 h 30, Friday 9 h-18 h, Saturday 9 h-13 h, Sunday 10 h-13 h",,,
Manon Bourget et Marie-Claude Martel,,"300, Rue Valmont Suite 108",,Repentigny,QC,J5Y 3X6,Canada,450 654-9808,45.767427,-73.445424,"Monday 9 h-21 h, Tuesday 9 h-21 h, Wednesday 9 h-21 h, Thursday 9 h-21 h, Friday 9 h-21 h, Saturday 9 h-18 h, Sunday 9 h-18 h",,,
"Manon Bourget, Elyse Beliveau et Nathalie Pellerin",,"1124, Boul Iberville, Suite 110",,Repentigny,QC,J5Y 3M6,Canada,450 654-4999,45.777587,-73.417868,"Monday 9 h-20 h, Tuesday 9 h-20 h, Wednesday 9 h-21 h, Thursday 9 h-21 h, Friday 9 h-21 h, Saturday 9 h-17 h, Sunday 10 h-17 h",,,
Charles Martel et Marie-France Fortin,,"515, Rue Commerciale",,La Tuque,QC,G9X 3A7,Canada,819 523-7626,47.440607,-72.784986,"Monday 9 h-18 h, Tuesday 9 h-18 h, Wednesday 9 h-18 h, Thursday 9 h-19 h, Friday 9 h-19 h, Saturday 9 h-16 h, Sunday 10 h-15 h",,,
Ngoc Yen Chau,,"3883, Rue Ontario Est",,Montreal,QC,H1W 1S7,Canada,514 522-1147,45.548123,-73.542841,"Monday 9 h 30-19 h, Tuesday 9 h 30-19 h, Wednesday 9 h 30-19 h, Thursday 9 h 30-19 h, Friday 9 h 30-19 h, Saturday 10 h-16 h, Sunday Ferme",,,
Anne Drolet et Magali Cyr,,"4995, Rue De Salaberry",,Montreal,QC,H4J 1H8,Canada,514 331-3339,45.532462,-73.706927,"Monday 9 h-19 h, Tuesday 9 h-19 h, Wednesday 9 h-19 h, Thursday 9 h-19 h, Friday 9 h-19 h, Saturday 9 h-17 h, Sunday Ferme",,,
Stephane Ruest,,"2600, Rue Ontario Est, Bureau 192",,Montreal,QC,H2K 4K4,Canada,514 525-1982,45.533728,-73.551027,"Monday 9 h-20 h, Tuesday 9 h-20 h, Wednesday 9 h-20 h, Thursday 9 h-20 h, Friday 9 h-20 h, Saturday 9 h-17 h, Sunday 10 h-16 h",,,
Pascal Monarque,,"1851, Rue Sherbrooke Est Bureau 110",,Montreal,QC,H2K 4L5,Canada,514 521-2147,45.52907,-73.563906,"Monday 8 h-20 h, Tuesday 8 h-20 h, Wednesday 8 h-20 h, Thursday 8 h-20 h, Friday 8 h-20 h, Saturday 8 h-16 h, Sunday 8 h-16 h",,,
Ginette Lehoux,,"361, Rue St-Jean",,Longueuil,QC,J4H 2X7,Canada,450 677-6331,45.535389,-73.506699,"Monday 9 h-19 h, Tuesday 9 h-19 h, Wednesday 9 h-19 h, Thursday 9 h-19 h, Friday 9 h-19 h, Saturday 10 h-16 h, Sunday 10 h-16 h",,,
Si Ngac Phan,,"1988, Rue Ste-Catherine E",,Montreal,QC,H2K 2H7,Canada,514 524-3650,45.524092,-73.550853,"Monday 9 h-17 h, Tuesday 9 h-17 h, Wednesday 9 h-17 h, Thursday 9 h-17 h, Friday 9 h-17 h, Saturday Ferme, Sunday Ferme",,,
Jean Bernatchez,,"927, Rue Rachel Est",,Montreal,QC,H2J 2J2,Canada,514 524-3659,45.525028,-73.575662,"Monday 9 h-19 h, Tuesday 9 h-19 h, Wednesday 9 h-19 h, Thursday 9 h-20 h, Friday 9 h-20 h, Saturday 9 h-17 h, Sunday Ferme",,,
Jean-Claude Lamarre,,"3865, Rue St-Urbain",,Montreal,QC,H2W 1T9,Canada,514 845-4273,45.514867,-73.578294,"Monday 8 h-18 h, Tuesday 8 h-18 h, Wednesday 8 h-18 h, Thursday 8 h-18 h, Friday 8 h-18 h, Saturday Ferme, Sunday Ferme",,,
Thierry Mvilongo et Mony Pauline Pen,,"7, Av Vincent-D'indy",,Outremont,QC,H2V 4N7,Canada,514 738-4791,45.511266,-73.614856,"Monday 9 h-19 h, Tuesday 9 h-19 h, Wednesday 9 h-19 h, Thursday 9 h-19 h, Friday 9 h-19 h, Saturday 10 h-18 h, Sunday 10 h-18 h",,,
Daniel Marin,,"3771, Boul Levesque Ouest",,Laval,QC,H7V 1G5,Canada,450 681-6403,45.534831,-73.738189,"Monday 9 h-18 h, Tuesday 9 h-18 h, Wednesday 9 h-18 h, Thursday 9 h-18 h, Friday 9 h-18 h, Saturday 9 h-17 h, Sunday Ferme",,,
Charbel Khalil,,"5480, Ave Victoria",,Montreal,QC,H3W 2P8,Canada,514 735-1383,45.491407,-73.631283,"Monday 9 h-19 h, Tuesday 9 h-19 h, Wednesday 9 h-19 h, Thursday 9 h-19 h, Friday 9 h-19 h, Saturday 10 h-17 h, Sunday Ferme",,,
Mariana Dramilarakis,,"933, Boul Rene-Levesque Est",,Montreal,QC,H2L 4S4,Canada,514 286-9789,45.515424,-73.55585,"Monday 8 h-18 h, Tuesday 8 h-18 h, Wednesday 8 h-18 h, Thursday 8 h-18 h, Friday 8 h-17 h, Saturday 9 h-16 h, Sunday Ferme",,,
David St-Jean Gagnon,,"1470, Rue Peel, Tour A, 8e Etage, Suite 850",,Montreal,QC,H3A 1T1,Canada,514 508-1770,45.500679,-73.57439,"Monday 8 h 30-17 h, Tuesday 8 h 30-17 h, Wednesday 8 h 30-17 h, Thursday 8 h 30-17 h, Friday 8 h 30-17 h, Saturday Ferme, Sunday Ferme",,,
Thai-Dau Ly et Bach Heng Ta,,"750-A, Cote de la Place D'armes",,Montreal,QC,H2Y 2X8,Canada,514 508-8860,45.504735,-73.557711,"Monday 9 h-17 h, Tuesday 9 h-17 h, Wednesday 9 h-17 h, Thursday 9 h-17 h, Friday 9 h-17 h, Saturday 9 h-17 h, Sunday Ferme",,,
Frederique Nadeau et Michel Babin,,"1144, Rue St-Laurent Ouest, Suite 110",,Longueuil,QC,J4K 1E2,Canada,450 679-6664,45.522554,-73.512997,"Monday 9 h-18 h, Tuesday 9 h-18 h, Wednesday 9 h-18 h, Thursday 9 h-18 h, Friday 9 h-18 h, Saturday 9 h-13 h, Sunday Ferme",,,
"C. Heon, J.-S. Lefebvre et C.-J. Ratcliff",,"2043, Rue Wellington",,Montreal,QC,H3K 1W7,Canada,514 933-6766,45.47881,-73.559072,"Monday 9 h-20 h, Tuesday 9 h-20 h, Wednesday 9 h-20 h, Thursday 9 h-20 h, Friday 9 h-20 h, Saturday 9 h-17 h, Sunday 10 h-17 h",,,
Samir Bouras et Spiros Fengos,,"4156, Rue Wellington",,Montreal,QC,H4G 1V7,Canada,438 383-4567,45.46207,-73.567063,"Monday 9 h-19 h, Tuesday 9 h-19 h, Wednesday 9 h-19 h, Thursday 9 h-19 h, Friday 9 h-19 h, Saturday 9 h-17 h, Sunday Ferme",,,
Samir Bouras et Spiros Fengos,,"5111, Av Verdun",,Verdun,QC,H4G 1N7,Canada,514 324-5111,45.455353,-73.572183,"Monday 9 h 30-18 h, Tuesday 9 h 30-18 h, Wednesday 9 h 30-18 h, Thursday 9 h 30-18 h, Friday 9 h 30-18 h, Saturday 10 h-15 h, Sunday Ferme",,,
Danielle Hebert et Walid Khoder,,"6562, Boul Monk",,Montreal,QC,H4E 3J1,Canada,514 419-2900,45.4533,-73.594061,"Monday 9 h-19 h, Tuesday 9 h-19 h, Wednesday 9 h-19 h, Thursday 9 h-19 h, Friday 9 h-19 h, Saturday 9 h-17 h, Sunday 10 h-17 h",,,
Fadi Chamoun et Spiros Marinis,,"2424, Boul Lapiniere, Suite 100",,Brossard,QC,J4Z 2K9,Canada,450 676-8383,45.471019,-73.466074,"Monday 8 h 30-21 h, Tuesday 8 h 30-21 h, Wednesday 8 h 30-21 h, Thursday 8 h 30-21 h, Friday 8 h 30-21 h, Saturday 9 h-18 h, Sunday 9 h-18 h",,,
"Kym Archambault, Danielle Hebert et Walid Khoder",,"9105, Boul Taschereau local 109",,Brossard,QC,J4Y 3B8,Canada,450 907-7555,45.437638,-73.474535,"Monday 9 h-21 h, Tuesday 9 h-21 h, Wednesday 9 h-21 h, Thursday 9 h-21 h, Friday 9 h-21 h, Saturday 9 h-17 h, Sunday 9 h-17 h",,,
Mariana Dramilarakis,,"3305, Avenue Broadway, Suite 101",,Brossard,QC,J4Z 2P4,Canada,450 656-4848,45.465297,-73.455171,"Monday 8 h 30-21 h, Tuesday 8 h 30-21 h, Wednesday 8 h 30-21 h, Thursday 8 h 30-21 h, Friday 8 h 30-21 h, Saturday 9 h-18 h, Sunday 9 h-18 h",,,
"Samir Bouras, Spiros Fengos et Isabelle Yuen",,"5415, Boul Grande-Allee",,Brossard,QC,J4Z 3G9,Canada,450 443-6606,45.477975,-73.447963,"Monday 9 h-19 h, Tuesday 9 h-19 h, Wednesday 9 h-19 h, Thursday 9 h-19 h, Friday 9 h-19 h, Saturday 9 h-14 h, Sunday Ferme",,,
Alain Gaudet,,"650, Boul Samson",,Laval,QC,H7X 2T1,Canada,450 689-3535,45.524387,-73.816509,"Monday 9 h-21 h, Tuesday 9 h-21 h, Wednesday 9 h-21 h, Thursday 9 h-21 h, Friday 9 h-21 h, Saturday 9 h-18 h, Sunday 9 h-18 h",,,
"Samir Bouras, Spiros Fengos et Jean-Raphael Itoua",,"1600, ave. Dollard",,Lasalle,QC,H8N 1T6,Canada,514 363-7500,45.427836,-73.629651,"Monday 9 h-20 h, Tuesday 9 h-20 h, Wednesday 9 h-20 h, Thursday 9 h-20 h, Friday 9 h-20 h, Saturday 9 h-17 h, Sunday 9 h-17 h",,,
Vanessa Therrien et Jonathan Therrien,,"4605, Boul Ste-Rose",,Laval,QC,H7R 5S9,Canada,450 627-7477,45.561968,-73.859675,"Monday 9 h-17 h, Tuesday 9 h-17 h, Wednesday 9 h-17 h, Thursday 9 h-17 h, Friday 9 h-17 h, Saturday 9 h-16 h, Sunday Ferme",,,
Nathalie Turgeon,,"308, Ch Du Bord-Du-Lac-Lakeshore",,Pointe-Claire,QC,H9S 4L5,Canada,514 695-9900,45.428798,-73.826616,"Monday 9 h-20 h, Tuesday 9 h-20 h, Wednesday 9 h-20 h, Thursday 9 h-20 h, Friday 9 h-20 h, Saturday 10 h-17 h, Sunday 12 h-17 h",,,
M.-C. Bouwmeester & G. Charbonneau,,"380, Boul Arthur Sauve",,St-Eustache,QC,J7R 2J4,Canada,450 983-3121,45.562577,-73.90373,"Monday 9 h-21 h, Tuesday 9 h-21 h, Wednesday 9 h-21 h, Thursday 9 h-21 h, Friday 9 h-21 h, Saturday 9 h-18 h, Sunday 10 h-17 h",,,
Sophie Bonaventure et Jean-Francois Lafrance,,"384, Boul Adolphe Chapleau",,Bois-Des-Filion,QC,J6Z 1H3,Canada,450 818-9334,45.669338,-73.755385,"Monday 9 h-21 h, Tuesday 9 h-21 h, Wednesday 9 h-21 h, Thursday 9 h-21 h, Friday 9 h-21 h, Saturday 9 h-17 h, Sunday 9 h-17 h",,,
"C. Richard, F. Grondin, R. Remy et M. Ghersi",,"20, Boul Des Chateaux local 108-109",,Blainville,QC,J7B 1Z8,Canada,450 818-7167,45.654297,-73.802795,"Monday 8 h 30-21 h, Tuesday 8 h 30-21 h, Wednesday 8 h 30-21 h, Thursday 8 h 30-21 h, Friday 8 h 30-21 h, Saturday 9 h-18 h, Sunday 10 h-17 h",,,
Mirka Simard,,"1143, Rang St-Francois",,Terrebonne,QC,J6Y 0C7,Canada,450 420-5888,45.690098,-73.781326,"Monday 9 h-21 h, Tuesday 9 h-21 h, Wednesday 9 h-21 h, Thursday 9 h-21 h, Friday 9 h-21 h, Saturday 9 h-17 h, Sunday 10 h-17 h",,,
Pascal Monarque,,"104 - 4800, Rue Ambroise-Lafortune",,Boisbriand,QC,J7H 1S6,Canada,450 420-7343,45.641265,-73.867447,"Monday 8 h-17 h, Tuesday 8 h-17 h, Wednesday 8 h-17 h, Thursday 8 h-17 h, Friday 8 h-17 h, Saturday Ferme, Sunday Ferme",,,
Genevieve Duperron,,"61, 54e Av",,Blainville,QC,J7C 0P3,Canada,450 951-8794,45.670165,-73.871711,"Monday 9 h-15 h 30, Tuesday 9 h-15 h 30, Wednesday 9 h-15 h 30, Thursday 9 h-15 h 30, Friday 9 h-15 h 30, Saturday 9 h-18 h, Sunday 9 h-18 h",,,
Jean-Francois Lafrance,,"5661, Boul Laurier",,La Plaine,QC,J7M 1T7,Canada,450 477-8444,45.755914,-73.711945,"Monday 8 h 30-21 h, Tuesday 8 h 30-21 h, Wednesday 8 h 30-21 h, Thursday 8 h 30-21 h, Friday 8 h 30-21 h, Saturday 9 h-17 h, Sunday 10 h-17 h",,,
Genevieve Duperron,,"1340, Boul Du Cure-Labelle, bureau 100",,Blainville,QC,J7C 2P2,Canada,450 430-1065,45.689067,-73.902865,"Monday 8 h 30-21 h, Tuesday 8 h 30-21 h, Wednesday 8 h 30-21 h, Thursday 8 h 30-21 h, Friday 8 h 30-21 h, Saturday 9 h-18 h, Sunday 9 h-18 h",,,
Genevieve Charbonneau,,"14955, Rue Des Saules",,Mirabel,QC,J7N 2A3,Canada,450 475-8980,45.63313,-73.985734,"Monday 9 h-21 h, Tuesday 9 h-21 h, Wednesday 9 h-21 h, Thursday 9 h-21 h, Friday 9 h-21 h, Saturday 9 h-18 h, Sunday 10 h-17 h",,,
Genevieve Charbonneau,,"3747, Chemin Oka",,Saint-Joseph-Du-Lac,QC,J0N 1M0,Canada,450 472-4730,45.514116,-73.976789,"Monday 9 h-21 h, Tuesday 9 h-21 h, Wednesday 9 h-21 h, Thursday 9 h-21 h, Friday 9 h-21 h, Saturday 9 h-18 h, Sunday 10 h-17 h",,,
Yanick Fournier,,"85, Rue St-Pierre Suite 100",,St-Constant,QC,J5A 1G8,Canada,450 845-4343,45.377475,-73.565076,"Monday 9 h-22 h, Tuesday 9 h-22 h, Wednesday 9 h-22 h, Thursday 9 h-22 h, Friday 9 h-22 h, Saturday 9 h-20 h, Sunday 9 h-20 h",,,
Michel Nadeau et Luc Tremblay,,"985, Boul. Taschereau",,La Prairie,QC,J5R 1W7,Canada,450 659-5449,45.4062,-73.497663,"Monday 8 h 30-21 h, Tuesday 8 h 30-21 h, Wednesday 8 h 30-21 h, Thursday 8 h 30-21 h, Friday 8 h 30-21 h, Saturday 9 h-18 h, Sunday 9 h-18 h",,,
"B. Morand, E. Peladeau, M.-A. Sauve et S. Vinet",,"86, Boul D'anjou",,Chateauguay,QC,J6K 1C3,Canada,450 691-0000,45.360686,-73.734907,"Monday 9 h-20 h 30, Tuesday 9 h-20 h 30, Wednesday 9 h-20 h 30, Thursday 9 h-20 h 30, Friday 9 h-20 h 30, Saturday 9 h-17 h, Sunday 9 h-17 h",,,
Lamia Boutiba,,"2905, Boul De La Gare",,Vaudreuil-Dorion,QC,J7V 9R2,Canada,450 424-7474,45.389894,-74.054948,"Monday 8 h 30-21 h, Tuesday 8 h 30-21 h, Wednesday 8 h 30-21 h, Thursday 8 h 30-21 h, Friday 8 h 30-21 h, Saturday 9 h-18 h, Sunday 9 h-18 h",,,
Kamyab Amouzegar,,"160, Boul Jean-Leman",,Candiac,QC,J5R 5E1,Canada,450 444-4419,45.3772,-73.503859,"Monday 9 h-20 h, Tuesday 9 h-20 h, Wednesday 9 h-20 h, Thursday 9 h-20 h, Friday 9 h-20 h, Saturday 9 h-17 h, Sunday 10 h-17 h",,,
Pierre Leclerc,,"301, Rue Ellice",,Beauharnois,QC,J6N 1X2,Canada,450 225-2000,45.314928,-73.873007,"Monday 9 h-21 h, Tuesday 9 h-21 h, Wednesday 9 h-21 h, Thursday 9 h-21 h, Friday 9 h-21 h, Saturday 9 h-17 h, Sunday 10 h-17 h",,,
Daniel Vermette et Sandra Bordus,,"1811, Ch St-Angelique",,St-Lazare,QC,J7T 2X9,Canada,450 455-4331,45.399723,-74.136815,"Monday 9 h-21 h, Tuesday 9 h-21 h, Wednesday 9 h-21 h, Thursday 9 h-21 h, Friday 9 h-21 h, Saturday 9 h-17 h, Sunday 9 h-17 h",,,
"P. Dufour, J.-F. Thibeault et E. Lefebvre",,"70, Rue Okeefe",,Salaberry-De-Valleyfield,QC,J6S 5C6,Canada,450 377-4443,45.273256,-74.092501,"Monday 9 h-21 h, Tuesday 9 h-21 h, Wednesday 9 h-21 h, Thursday 9 h-21 h, Friday 9 h-21 h, Saturday 9 h-17 h 30, Sunday Ferme",,,
"Vinet, Sauve, Morand et Peladeau",,"521, Boul Du Havre",,Salaberry-De-Valleyfield,QC,J6S 4Z5,Canada,450 373-1611,45.265981,-74.126429,"Monday 9 h-20 h, Tuesday 9 h-20 h, Wednesday 9 h-20 h, Thursday 9 h-20 h, Friday 9 h-18 h, Saturday 9 h-14 h, Sunday Ferme",,,
Michel Vinet,,"21, Route 201",,Coteau-Du-Lac,QC,J0P 1B0,Canada,450 763-1234,45.296396,-74.179022,"Monday 9 h-20 h 30, Tuesday 9 h-20 h 30, Wednesday 9 h-20 h 30, Thursday 9 h-20 h 30, Friday 9 h-20 h 30, Saturday 9 h-17 h, Sunday 10 h-16 h",,,
"Vinet, Sauve, Morand et Peladeau",,"90, Ch Laroque",,Salaberry-De-Valleyfield,QC,J6T 4A5,Canada,450 373-5656,45.253364,-74.135364,"Monday 9 h-20 h, Tuesday 9 h-20 h, Wednesday 9 h-20 h, Thursday 9 h-21 h, Friday 9 h-21 h, Saturday 9 h-17 h, Sunday 9 h-17 h",,,
Alain Brunet,,"640, Rue St-Regis, Bureau 1",,St-Isidore-Laprairie,QC,J0L 2A0,Canada,450 454-5507,45.301488,-73.6806,"Monday 9 h-20 h, Tuesday 9 h-20 h, Wednesday 9 h-20 h, Thursday 9 h-20 h, Friday 9 h-20 h, Saturday 9 h-17 h, Sunday 10 h-13 h",,,
Maurice Benoit,,"207, Rue Principale",,St-Guillaume,QC,J0C 1L0,Canada,819 396-2255,45.887919,-72.760991,"Monday 9 h 30-17 h 30, Tuesday 8 h 30-17 h 30, Wednesday 9 h 30-17 h 30, Thursday 9 h 30-17 h 30, Friday 9 h 30-17 h 30, Saturday 10 h-14 h, Sunday Ferme",,,
Julie Robitaille,,"250, Boul. Fiset",,Sorel-Tracy,QC,J3P 3P7,Canada,450 746-2977,46.039915,-73.09905,"Monday 9 h-20 h, Tuesday 9 h-20 h, Wednesday 9 h-20 h, Thursday 9 h-21 h, Friday 9 h-21 h, Saturday 9 h-17 h, Sunday 10 h-17 h",,,
Chantale Gaboury,,"147, Rte 138 Est",,Maskinonge,QC,J0K 1N0,Canada,819 227-2288,46.223365,-73.012732,"Monday 9 h-18 h, Tuesday 9 h-18 h, Wednesday 9 h-20 h, Thursday 9 h-20 h, Friday 9 h-20 h, Saturday 9 h-17 h, Sunday 10 h-16 h",,,
"I. Fleurent, J.- S. Poisson Et C. Tourigny-Gauvin",,"400, Rue Rose-Ellis",,Drummondville,QC,J2C 0A9,Canada,819 870-2265,45.901865,-72.513833,"Monday 10 h-17 h, Tuesday 10 h-17 h, Wednesday 10 h-17 h, Thursday 10 h-17 h, Friday 10 h-17 h, Saturday 10 h-14 h, Sunday 10 h-14 h",,,
Chantale Gaboury et Marie-Eve Gelinas,,"780, Rue Notre-Dame",,Berthierville,QC,J0K 1A0,Canada,450 836-8288,46.084276,-73.184414,"Monday 9 h-20 h, Tuesday 9 h-20 h, Wednesday 9 h-20 h, Thursday 9 h-21 h, Friday 9 h-21 h, Saturday 9 h-17 h, Sunday 10 h-16 h",,,
Julie Bourgeois,,"44, Chemin de Joliette",,Lanoraie,QC,J0K 1E0,Canada,450 887-1241,45.958368,-73.223535,"Monday 9 h-18 h, Tuesday 9 h-18 h, Wednesday 9 h-18 h, Thursday 9 h-20 h, Friday 9 h-18 h, Saturday 9 h-16 h, Sunday 10 h-16 h",,,
Ghilda Bigdeli-Azari,,"1, Place de L'Estrie, Unite 100",,Bedford,QC,J0J 1A0,Canada,450 248-3348,45.120448,-72.986564,"Monday 8 h 30-18 h, Tuesday 8 h 30-18 h, Wednesday 8 h 30-18 h, Thursday 8 h 30-19 h, Friday 8 h 30-19 h, Saturday 9 h-15 h, Sunday 9 h-13 h",,,
David Rousseau,,"433, Rue Saint-Denis",,St-Alexandre-D'iberville,QC,J0J 1S0,Canada,450 376-2322,45.239145,-73.115898,"Monday 9 h-18 h, Tuesday 9 h-18 h, Wednesday 9 h-18 h, Thursday 9 h-19 h, Friday 9 h-19 h, Saturday 9 h-17 h, Sunday Ferme",,,
Alexandre Robichaud,,"455, Rue Meigs",,Farnham,QC,J2N 2C7,Canada,450 293-7455,45.28441,-72.978211,"Monday 8 h 30-20 h, Tuesday 8 h 30-20 h, Wednesday 8 h 30-20 h, Thursday 8 h 30-20 h 30, Friday 8 h 30-20 h, Saturday 9 h-17 h, Sunday 10 h-17 h",,,
"Pierre, Judith et Francois Marziali",,"1599, Du Sud",,Cowansville,QC,J2K 2Z4,Canada,450 263-2171,45.191227,-72.753328,"Monday 9 h-20 h, Tuesday 9 h-20 h, Wednesday 9 h-20 h, Thursday 9 h-20 h, Friday 9 h-20 h, Saturday 9 h-17 h, Sunday 10 h-16 h",,,
"Michel Clermont, Karl Fortin Et  Xiang-Yang Wang",,"620, Boul Seminaire N",,St-Jean-Sur-Richelieu,QC,J3B 7B4,Canada,450 348-6868,45.319099,-73.264254,"Monday 7 h 45-21 h, Tuesday 7 h 45-21 h, Wednesday 7 h 45-21 h, Thursday 7 h 45-21 h, Friday 7 h 45-21 h, Saturday 9 h-17 h, Sunday 9 h-13 h",,,
Joanne Mailloux,,"300, Boul St-Luc Suite 20",,St-Jean-Sur-Richelieu,QC,J2W 2A3,Canada,450 359-0506,45.356067,-73.298543,"Monday 9 h-21 h, Tuesday 9 h-21 h, Wednesday 9 h-21 h, Thursday 9 h-21 h, Friday 9 h-21 h, Saturday 9 h-17 h, Sunday 9 h-17 h",,,
Marie Normandeau,,"286, Rue Mayrand",,St-Jean-Sur-Richelieu,QC,J3B 3L6,Canada,450 347-1818,45.298921,-73.266466,"Monday 9 h-20 h, Tuesday 9 h-20 h, Wednesday 9 h-20 h, Thursday 9 h-21 h, Friday 9 h-21 h, Saturday 9 h-17 h, Sunday 10 h-16 h",,,
Chantal Gagnon,,"2012, Rte 112",,St-Cesaire,QC,J0L 1T0,Canada,450 469-2099,45.414425,-73.010297,"Monday 9 h-21 h, Tuesday 9 h-21 h, Wednesday 9 h-21 h, Thursday 9 h-21 h, Friday 9 h-21 h, Saturday 9 h-17 h, Sunday 10 h-17 h",,,
Josee Marion,,"320, Boul Antonio-Barrette",,Notre-Dame-Des-Prairies,QC,J6E 1G2,Canada,450 752-0905,46.047194,-73.42467,"Monday 9 h-21 h, Tuesday 9 h-21 h, Wednesday 9 h-21 h, Thursday 9 h-21 h, Friday 9 h-21 h, Saturday 9 h-17 h, Sunday Ferme",,,
Hugo Flamand et Alexandre Comtois,,"3090, Rue Henri L. Chevrette",,St-Felix-De-Valois,QC,J0K 2M0,Canada,450 889-5529,46.166411,-73.439984,"Monday 9 h-20 h, Tuesday 9 h-20 h, Wednesday 9 h-20 h, Thursday 9 h-20 h, Friday 9 h-20 h, Saturday 9 h-17 h, Sunday 10 h-16 h",,,
"J. Houle, A. Lachapelle et M.-E. Laporte",,"25, Ch Du Golf Ouest",,St-Charles-Borromee,QC,J6E 0R7,Canada,450 759-6674,46.041794,-73.450883,"Monday 8 h 30-21 h, Tuesday 8 h 30-21 h, Wednesday 8 h 30-21 h, Thursday 8 h 30-21 h, Friday 8 h 30-21 h, Saturday 9 h-17 h, Sunday 9 h-16 h",,,
Hugo Flamand et Alexandre Comtois,,"157, Rue Beaudry Nord",,Joliette,QC,J6E 6A7,Canada,450 960-5529,46.020248,-73.451556,"Monday 9 h-20 h, Tuesday 9 h-20 h, Wednesday 9 h-20 h, Thursday 9 h-20 h, Friday 9 h-20 h, Saturday 9 h-17 h, Sunday 10 h-16 h",,,
Nathalie Blais,,"77, 8e Rue",,Crabtree,QC,J0K 1B0,Canada,450 754-2822,45.965209,-73.472558,"Monday 9 h-18 h, Tuesday 9 h-18 h, Wednesday 9 h-18 h, Thursday 9 h-20 h, Friday 9 h-18 h, Saturday 9 h-17 h, Sunday Ferme",,,
"Champoux, Gagnon, Brissette et Ouellet",,"110, Rue St-Gabriel",,St-Gabriel-De-Brandon,QC,J0K 2N0,Canada,450 835-4774,46.29152,-73.382868,"Monday 9 h-21 h, Tuesday 9 h-21 h, Wednesday 9 h-21 h, Thursday 9 h-21 h, Friday 9 h-21 h, Saturday 9 h-17 h, Sunday 10 h-17 h",,,
Melanie Boulanger,,"1180, Rue Notre-Dame",,Lavaltrie,QC,J5T 1W8,Canada,450 586-1241,45.881535,-73.28006,"Monday 9 h-21 h, Tuesday 9 h-21 h, Wednesday 9 h-21 h, Thursday 9 h-21 h, Friday 9 h-21 h, Saturday 9 h-17 h 30, Sunday 9 h-17 h 30",,,
Manon Bourget et Eloise Ferland,,"814, Boul L'Ange Gardien Nord, local 1",,L'assomption,QC,J5W 1P6,Canada,450 589-3151,45.838585,-73.413513,"Monday 8 h 30-21 h, Tuesday 8 h 30-21 h, Wednesday 8 h 30-21 h, Thursday 8 h 30-21 h, Friday 8 h 30-21 h, Saturday 8 h 30-19 h, Sunday 8 h 30-19 h",,,
Caroline Lacroix,,"890, Rue Notre-Dame Bureau 106",,St-Sulpice,QC,J5W 3W5,Canada,450 589-3776,45.824134,-73.363028,"Monday 9 h-20 h, Tuesday 9 h-21 h, Wednesday 9 h-21 h, Thursday 9 h-21 h, Friday 9 h-20 h, Saturday 9 h-17 h, Sunday 10 h-16 h",,,
Dominic Noiseux,,"260, Rue Dorval",,L'assomption,QC,J5W 2Z8,Canada,450 589-5659,45.830159,-73.42207,"Monday 9 h-19 h 30, Tuesday 9 h-19 h 30, Wednesday 9 h-19 h 30, Thursday 9 h-19 h 30, Friday 8 h-19 h 30, Saturday 9 h-16 h 30, Sunday 9 h-16 h 30",,,
Philippe Larochelle et Philippe Raymond,,"3240, 1re Av, Suite 101",,Rawdon,QC,J0K 1S0,Canada,450 834-8521,46.03734,-73.698867,"Monday 9 h-21 h, Tuesday 9 h-21 h, Wednesday 9 h-21 h, Thursday 9 h-21 h, Friday 9 h-21 h, Saturday 9 h-17 h, Sunday 9 h-17 h",,,
Jean-Francois Lafrance,,"1270, Rte 125",,Ste-Julienne,QC,J0K 2T0,Canada,450 831-3292,45.960334,-73.707,"Monday 9 h-21 h, Tuesday 9 h-21 h, Wednesday 9 h-21 h, Thursday 9 h-21 h, Friday 9 h-21 h, Saturday 9 h-17 h, Sunday 9 h-17 h",,,
Jean-Francois Lafrance,,"491, Rue Principale",,Ste-Emilie-De-L'energie,QC,J0K 2K0,Canada,450 886-9771,46.326483,-73.638934,"Monday 9 h 30-17 h 30, Tuesday 9 h 30-17 h 30, Wednesday 9 h 30-17 h 30, Thursday 9 h 30-19 h, Friday 9 h 30-19 h, Saturday 9 h 30-13 h, Sunday Ferme",,,
"I. Fleurent, J.-S. Poisson et C. Tourigny-Gauvin",,"832, Rue Principale",,Wickham,QC,J0C 1S0,Canada,819 741-0080,45.758468,-72.500158,"Monday 9 h-19 h, Tuesday 9 h-19 h, Wednesday 9 h-19 h, Thursday 9 h-20 h, Friday 9 h-19 h, Saturday 10 h-16 h, Sunday Ferme",,,
"Yvan Duval, Renee Descoteaux et Rejean Talbot",,"5, Rue Du Carrefour De La Sante",,Roxton Pond,QC,J0E 1Z0,Canada,450 776-1777,45.472912,-72.663995,"Monday 9 h-18 h, Tuesday 9 h-18 h, Wednesday 9 h-18 h, Thursday 9 h-18 h, Friday 9 h-18 h, Saturday 9 h-15 h, Sunday 10 h-14 h",,,
Nathalie Roy,,"825A, Rue St-Joseph",,Valcourt,QC,J0E 2L0,Canada,450 532-6000,45.497183,-72.31521,"Monday 9 h-18 h, Tuesday 9 h-18 h, Wednesday 9 h-18 h, Thursday 9 h-21 h, Friday 9 h-21 h, Saturday 9 h-16 h, Sunday Ferme",,,
Etienne Desjardins,,"110, Rue Robinson Sud",,Granby,QC,J2G 7L4,Canada,450 994-3322,45.404831,-72.743173,"Monday 8 h 30-21 h, Tuesday 8 h 30-21 h, Wednesday 8 h 30-21 h, Thursday 8 h 30-21 h, Friday 8 h 30-21 h, Saturday 9 h-20 h, Sunday 9 h-20 h",,,
Philippe Leng,,"260, Rue Principale N",,Richmond,QC,J0B 2H0,Canada,819 826-2221,45.66077,-72.142972,"Monday 9 h-20 h, Tuesday 9 h-20 h, Wednesday 9 h-20 h, Thursday 9 h-20 h, Friday 9 h-20 h, Saturday 9 h-16 h, Sunday 10 h-16 h",,,
Catherine Lamarre,,"2064, Boul Laurier Est",,St-Hyacinthe,QC,J2T 1K7,Canada,450 773-2131,45.633674,-72.925155,"Monday 9 h-19 h, Tuesday 9 h-19 h, Wednesday 9 h-19 h, Thursday 9 h-21 h, Friday 9 h-19 h, Saturday 9 h-17 h, Sunday Ferme",,,
Catherine Lamarre,,"15265, Av St-Louis",,St-Hyacinthe,QC,J2T 3E5,Canada,450 773-1414,45.626887,-72.936693,"Monday 9 h-19 h, Tuesday 9 h-19 h, Wednesday 9 h-19 h, Thursday 9 h-21 h, Friday 9 h-19 h, Saturday 9 h-17 h, Sunday 9 h-17 h",,,
Catherine Lamarre,,"16405, Av Bourdage Sud",,St-Hyacinthe,QC,J2T 4G9,Canada,450 773-7767,45.617082,-72.943617,"Monday 9 h 15-17 h 15, Tuesday 9 h 15-17 h 15, Wednesday 9 h 15-17 h 15, Thursday 9 h 15-17 h 15, Friday 9 h 25-13 h, Saturday Ferme, Sunday Ferme",,,
Catherine Lamarre,,"1430, Rue Des Cascades",,St-Hyacinthe,QC,J2S 3H5,Canada,450 773-9771,45.625063,-72.94529,"Monday 9 h-18 h, Tuesday 9 h-18 h, Wednesday 9 h-18 h, Thursday 9 h-18 h, Friday 9 h-18 h, Saturday 9 h-16 h, Sunday Ferme",,,
Sebastien Bourque et Pierre Deshaies DAmours,,"2950, boul. Laframboise",,St-Hyacinthe,QC,J2S 4Z2,Canada,450 773-6071,45.634559,-72.96328,"Monday 9 h-20 h, Tuesday 9 h-20 h, Wednesday 9 h-20 h, Thursday 9 h-21 h, Friday 9 h-21 h, Saturday 9 h-17 h, Sunday 9 h-16 h",,,
Sebastien Bourque et Pierre Deshaies DAmours,,"6365, Boul Laframboise Suite 101",,St-Hyacinthe,QC,J2R 1G2,Canada,450 796-3333,45.649481,-72.986343,"Monday 8 h 30-21 h, Tuesday 8 h 30-21 h, Wednesday 8 h 30-21 h, Thursday 8 h 30-21 h, Friday 8 h 30-21 h, Saturday 9 h-17 h, Sunday Ferme",,,
Jean Duquette,,"553, Rue Principale",,St-Amable,QC,J0L 1N0,Canada,450 649-6094,45.642926,-73.305788,"Monday 9 h-21 h, Tuesday 9 h-21 h, Wednesday 9 h-21 h, Thursday 9 h-21 h, Friday 9 h-21 h, Saturday 9 h-17 h, Sunday 9 h-17 h",,,
Valerie Melancon et Marie-Eve Levesque,,"365, Boul Sir-Wilfrid-Laurier, local 108",,Mont-St-Hilaire,QC,J3H 6A2,Canada,450 446-1112,45.563905,-73.188036,"Monday 9 h-20 h, Tuesday 9 h-20 h, Wednesday 9 h-20 h, Thursday 9 h-21 h, Friday 9 h-21 h, Saturday 9 h-17 h, Sunday 9 h-17 h",,,
Judith Cayer et Amelie Provost,,"30, Boul Wilfrid Laurier",,Mcmasterville,QC,J3G 1P8,Canada,450 536-0555,45.548353,-73.22183,"Monday 9 h-21 h, Tuesday 9 h-21 h, Wednesday 9 h-21 h, Thursday 9 h-21 h, Friday 9 h-21 h, Saturday 9 h-19 h, Sunday 9 h-19 h",,,
Julie Dion,,"619, Chemin Ozias-Leduc",,Otterburn Park,QC,J3H 2M7,Canada,450 446-8166,45.54008,-73.189573,"Monday 9 h-20 h, Tuesday 9 h-20 h, Wednesday 9 h-20 h, Thursday 9 h-20 h, Friday 9 h-20 h, Saturday 9 h-17 h, Sunday 10 h-17 h",,,
Nathalie Tellier,,"15, Montee Robert",,St-Basile-Le-Grand,QC,J3N 1L7,Canada,450 461-1211,45.527986,-73.288667,"Monday 9 h-21 h, Tuesday 9 h-21 h, Wednesday 9 h-21 h, Thursday 9 h-21 h, Friday 9 h-21 h, Saturday 9 h-18 h, Sunday 10 h-18 h",,,
Christian DeBlois,,"1556, Boul Montarville",,St-Bruno,QC,J3V 3T7,Canada,450 653-1331,45.526968,-73.341022,"Monday 9 h-21 h, Tuesday 9 h-21 h, Wednesday 9 h-21 h, Thursday 9 h-21 h, Friday 9 h-21 h, Saturday 9 h-17 h, Sunday 9 h-17 h",,,
Danielle Bresciano,,"845, Boul De La Salette",,St-Jerome,QC,J5L 2J4,Canada,450 431-3600,45.790158,-74.053922,"Monday 9 h-21 h, Tuesday 9 h-21 h, Wednesday 9 h-21 h, Thursday 9 h-21 h, Friday 9 h-21 h, Saturday 9 h-17 h, Sunday 10 h-16 h",,,
Odette St-Pierre et Lise Laroque,,"780, Boul Des Hauteurs",,St-Hippolyte,QC,J8A 1H1,Canada,450 224-2956,45.863546,-74.007389,"Monday 9 h-20 h, Tuesday 9 h-20 h, Wednesday 9 h-20 h, Thursday 9 h-21 h, Friday 9 h-21 h, Saturday 9 h-18 h, Sunday 10 h-18 h",,,
Denise Cote,,"889, Boul Grignon",,St-Jerome,QC,J7Y 2Y9,Canada,450 530-9990,45.794599,-74.015081,"Monday 9 h-17 h, Tuesday 9 h-17 h, Wednesday 9 h-17 h, Thursday 9 h-17 h, Friday 9 h-17 h, Saturday 9 h-14 h, Sunday Ferme",,,
Danielle Gauthier,,"707, Ch Du Village Bureau 104",,Morin-Heights,QC,J0R 1H0,Canada,450 226-5222,45.904048,-74.245149,"Monday 9 h-19 h, Tuesday 9 h-19 h, Wednesday 9 h-19 h, Thursday 9 h-19 h, Friday 9 h-19 h, Saturday 9 h-17 h, Sunday 10 h-16 h",,,
Mathieu Sabourin,,"2012, Rue St-Georges",,St-Jerome,QC,J7Y 1M8,Canada,450 438-0999,45.795783,-74.006352,"Monday 9 h-21 h, Tuesday 9 h-21 h, Wednesday 9 h-21 h, Thursday 9 h-21 h, Friday 9 h-21 h, Saturday 9 h-17 h, Sunday 10 h-17 h",,,
Genevieve Duperron et Claudia Lachaine,,"1440, Boul. St-Antoine",,St-Jerome,QC,J7Z 7M2,Canada,450 436-9999,45.770531,-73.972818,"Monday 9 h-21 h, Tuesday 9 h-21 h, Wednesday 9 h-21 h, Thursday 9 h-21 h, Friday 9 h-21 h, Saturday 9 h-17 h, Sunday 9 h-17 h",,,
Lucie Savard,,"1937, Ch Du Village Bureau 101",,St-Adolphe-D'howard,QC,J0T 2B0,Canada,819 327-2322,45.97087,-74.337662,"Monday 9 h-18 h, Tuesday 9 h-18 h, Wednesday 9 h-18 h, Thursday 9 h-18 h, Friday 9 h-18 h, Saturday 9 h-17 h, Sunday 10 h-16 h",,,
Maxim Charland et Veronique Segard-Roussel,,"1291, Rue J-Baptiste Dufresne",,Val-David,QC,J0T 2N0,Canada,819 322-3232,46.029926,-74.205935,"Monday 9 h-20 h, Tuesday 9 h-20 h, Wednesday 9 h-20 h, Thursday 9 h-20 h, Friday 9 h-20 h, Saturday 9 h-17 h, Sunday 10 h-17 h",,,
Jean-Francois Lafrance,,"1014, Rue St-Isidore",,St-Lin-Laurentides,QC,J5M 2V5,Canada,450 439-8444,45.862664,-73.757201,"Monday 9 h-21 h, Tuesday 9 h-21 h, Wednesday 9 h-21 h, Thursday 9 h-21 h, Friday 9 h-21 h, Saturday 9 h-17 h, Sunday 10 h-17 h",,,
Michel Ky-Tran Hohuu et Danh Nguyen,,"4, Rue Bridge Suite A7",,Ormstown,QC,J0S 1K0,Canada,450 829-2367,45.121231,-73.989349,"Monday 9 h-20 h, Tuesday 9 h-20 h, Wednesday 9 h-20 h, Thursday 9 h-21 h, Friday 9 h-21 h, Saturday 9 h-17 h, Sunday 11 h-17 h",,,
Karine Ethier,,"701, Rue Principale",,St-Faustin-Lac-Carre,QC,J0T 1J3,Canada,819 688-6010,46.116911,-74.478495,"Monday 9 h-18 h, Tuesday 9 h-18 h, Wednesday 9 h-18 h, Thursday 9 h-20 h, Friday 9 h-20 h, Saturday 9 h-17 h, Sunday 9 h-17 h",,,
Steve Van Wolvelear,,"1026, Rue Chambly",,Marieville,QC,J3M 1H3,Canada,450 460-4423,45.43305,-73.165554,"Monday 9 h-20 h, Tuesday 9 h-20 h, Wednesday 9 h-20 h, Thursday 9 h-20 h, Friday 9 h-20 h, Saturday 9 h-16 h, Sunday 9 h-13 h",,,
"Francois Grondin, Ricardo Remy et Mohamed Ghersi",,"1111, Ch Des Patriotes",,Richelieu,QC,J3L 4W6,Canada,450 447-0111,45.443052,-73.246344,"Monday 8 h 30-21 h, Tuesday 8 h 30-21 h, Wednesday 8 h 30-21 h, Thursday 8 h 30-21 h, Friday 8 h 30-21 h, Saturday 9 h-18 h, Sunday 10 h-17 h",,,
Allan Haddad,,"860, Rue King Est",,Sherbrooke,QC,J1G 1C9,Canada,819 820-1234,45.407767,-71.870437,"Monday 8 h 30-21 h, Tuesday 8 h 30-21 h, Wednesday 8 h 30-21 h, Thursday 8 h 30-21 h, Friday 8 h 30-21 h, Saturday 9 h-17 h, Sunday 9 h-17 h",,,
Jean-Luc Trottier,,"731, Rue Galt Ouest, suite 100",,Sherbrooke,QC,J1H 1Z1,Canada,819 822-2442,45.394575,-71.896726,"Monday 8 h-21 h, Tuesday 8 h-21 h, Wednesday 8 h-21 h, Thursday 8 h-21 h, Friday 8 h-21 h, Saturday 9 h-18 h, Sunday 9 h-18 h",,,
Lynn Germain,,"2261, Rue King Ouest",,Sherbrooke,QC,J1J 2G2,Canada,819 569-6304,45.398533,-71.928605,"Monday 8 h 30-21 h, Tuesday 8 h 30-21 h, Wednesday 8 h 30-21 h, Thursday 8 h 30-21 h, Friday 8 h 30-21 h, Saturday 9 h-18 h, Sunday 9 h-18 h",,,
Renee Messier et Mathieu Belisle,,"20, Rue de Carillon",,Sherbrooke,QC,J1J 2K8,Canada,819 562-2005,45.398585,-71.934745,"Monday 9 h-18 h, Tuesday 9 h-18 h, Wednesday 9 h-18 h, Thursday 9 h-18 h, Friday 9 h-18 h, Saturday Ferme, Sunday Ferme",,,
Roxane Fournier et Remi Gosselin,,"156, Rue Queen Suite 100",,Sherbrooke,QC,J1M 1J9,Canada,819 565-5868,45.368444,-71.85655,"Monday 9 h-20 h, Tuesday 9 h-20 h, Wednesday 9 h-20 h, Thursday 9 h-21 h, Friday 9 h-21 h, Saturday 9 h-18 h, Sunday 10 h-17 h",,,
Jean-Luc Trottier et Jean-Philippe Cliche,,"6065, Ch De St-Elie",,Sherbrooke,QC,J1R 0P5,Canada,819 829-2112,45.394549,-72.008839,"Monday 8 h 30-21 h, Tuesday 8 h 30-21 h, Wednesday 8 h 30-21 h, Thursday 8 h 30-21 h, Friday 8 h 30-21 h, Saturday 9 h-17 h, Sunday 10 h-17 h",,,
Roxane Fournier et Remi Gosselin,,"347, Rue Gosselin",,Waterville,QC,J0B 3H0,Canada,819 837-0605,45.279612,-71.896706,"Monday 10 h-17 h 30, Tuesday 10 h-17 h 30, Wednesday 10 h-17 h 30, Thursday 10 h-19 h, Friday 10 h-17 h 30, Saturday 9 h-12 h, Sunday Ferme",,,
Renee Messier et Mathieu Belisle,,"2027, Rte 222 Suite 300",,St-Denis-De-Brompton,QC,J0B 2P0,Canada,819 276-1176,45.447896,-72.058584,"Monday 9 h-18 h, Tuesday 9 h-18 h, Wednesday 9 h-18 h, Thursday 9 h-20 h, Friday 9 h-20 h, Saturday 9 h-17 h, Sunday Ferme",,,
Marilyne Isabelle,,"65, Rue St-Georges",,Windsor,QC,J1S 1J6,Canada,819 845-7808,45.570498,-72.002486,"Monday 8 h-21 h, Tuesday 8 h-21 h, Wednesday 8 h-21 h, Thursday 8 h-21 h, Friday 8 h-21 h, Saturday 9 h-17 h, Sunday Ferme",,,
Genevieve Giroux et Francine Robert,,"45, Rue St-Patrice Est",,Magog,QC,J1X 1T5,Canada,819 843-1773,45.265966,-72.14478,"Monday 8 h 30-21 h, Tuesday 8 h 30-21 h, Wednesday 8 h 30-21 h, Thursday 8 h 30-21 h, Friday 8 h 30-21 h, Saturday 9 h-18 h, Sunday 9 h-18 h",,,
Maxim Charland,,"1389, Rue Annonciation Sud",,Riviere-Rouge,QC,J0T 1T0,Canada,819 275-0303,46.399046,-74.865163,"Monday 9 h-20 h, Tuesday 9 h-20 h, Wednesday 9 h-20 h, Thursday 9 h-20 h, Friday 9 h-20 h, Saturday 9 h-17 h, Sunday 10 h-17 h",,,
Karine Ethier et Marianne Rensonnet,,"1060, Rue De Saint-Jovite",,Mont-Tremblant,QC,J8E 3J9,Canada,819 425-6661,46.118423,-74.597706,"Monday 9 h-20 h, Tuesday 9 h-20 h, Wednesday 9 h-20 h, Thursday 9 h-20 h, Friday 9 h-20 h, Saturday 9 h-17 h, Sunday 9 h-17 h",,,
Chantal Richard,,"23, Boul Notre-Dame Ouest",,Stanstead,QC,J0B 3E2,Canada,819 876-5811,45.007375,-72.095114,"Monday 9 h-18 h, Tuesday 9 h-18 h, Wednesday 9 h-18 h, Thursday 9 h-18 h, Friday 9 h-18 h, Saturday 9 h-13 h, Sunday Ferme",,,
Jean-Raphael Itoua et David-Robert Rousseau,,"475, Ch Knowlton",,Lac-Brome,QC,J0E 1V0,Canada,450 242-2113,45.214188,-72.52914,"Monday 9 h-20 h, Tuesday 9 h-20 h, Wednesday 9 h-20 h, Thursday 9 h-21 h, Friday 9 h-21 h, Saturday 9 h-17 h, Sunday 10 h-17 h",,,
Frederique Nadeau,,"1235, Boul Perigny Suite 21",,Chambly,QC,J3L 1W7,Canada,450 447-3377,45.446635,-73.289246,"Monday 8 h 30-20 h, Tuesday 8 h 30-20 h, Wednesday 8 h 30-21 h, Thursday 8 h 30-21 h, Friday 8 h 30-21 h, Saturday 9 h-17 h, Sunday 10 h-17 h",,,
Christian DeBlois et Caroline Lesperance,,"50, Ch. de la Carriere, suite 101",,Carignan,QC,J3L 0N5,Canada,450 403-7103,45.464545,-73.345637,"Monday 9 h-21 h, Tuesday 9 h-21 h, Wednesday 9 h-21 h, Thursday 9 h-21 h, Friday 9 h-21 h, Saturday 9 h-17 h, Sunday 10 h-17 h",,,
Jonathan Lam et Stefanie Lam,,"7485, boul. Grande-Allee, Suite 10",,Brossard,QC,J4Z 0E3,Canada,450 890-6888,45.457504,-73.417422,"Monday 9 h-21 h, Tuesday 9 h-21 h, Wednesday 9 h-21 h, Thursday 9 h-21 h, Friday 9 h-21 h, Saturday 9 h-18 h, Sunday 9 h-17 h",,,
Alain Gaudet,,"3090, Ch De Chambly",,Longueuil,QC,J4L 4N5,Canada,450 670-4420,45.517868,-73.45436,"Monday 8 h-21 h, Tuesday 8 h-21 h, Wednesday 8 h-21 h, Thursday 8 h-21 h, Friday 8 h-21 h, Saturday 9 h-17 h, Sunday 9 h-17 h",,,
Jean-Francois Lafrance,,"112, Rue St-Isidore",,St-Esprit,QC,J0K 2L0,Canada,450 839-7466,45.905092,-73.663705,"Monday 9 h-19 h, Tuesday 9 h-19 h, Wednesday 9 h-19 h, Thursday 9 h-19 h, Friday 9 h-19 h, Saturday Ferme, Sunday Ferme",,,
Michel Deschamps,,"480, Rue Principale Suite 102",,St-Donat,QC,J0T 2C0,Canada,819 424-2626,46.31829,-74.221567,"Monday 9 h-17 h 30, Tuesday 9 h-17 h 30, Wednesday 9 h-17 h 30, Thursday 9 h-17 h 30, Friday 9 h-17 h 30, Saturday 9 h-17 h, Sunday 10 h-16 h",,,
Gina St-Jacques,,"177, Boul Desjardins",,Maniwaki,QC,J9E 2C9,Canada,819 449-3880,46.38505,-75.982239,"Monday 8 h 30-18 h, Tuesday 8 h 30-18 h, Wednesday 8 h 30-18 h, Thursday 8 h 30-21 h, Friday 8 h 30-21 h, Saturday 9 h-17 h, Sunday Ferme",,,
Nathalie Houle,,"70, Rue St-Joseph Cp 510",,Gracefield,QC,J0X 1W0,Canada,819 463-4577,46.091337,-76.05336,"Monday 8 h 30-18 h, Tuesday 8 h 30-18 h, Wednesday 8 h 30-18 h, Thursday 8 h 30-18 h, Friday 8 h 30-20 h, Saturday 9 h-17 h, Sunday Ferme",,,
