store_name,store_number,address,address2,city,state,zip_code,country,phone_number,latitude,longitude,store_hours,store_type,other_fields,coming_soon
"Red Wing - Germantown, MD",,12619 Wisteria Dr,,Germantown,MD,20874,USA,(301) 540-6626,,,"Monday 9:30 am-7:00 pm, Tuesday 9:30 am-7:00 pm, Wednesday 9:30 am-7:00 pm, Thursday 9:30 am-7:00 pm, Friday 9:30 am-7:00 pm, Saturday 10:00 am-5:00 pm, Sunday 11:00 am-4:00 pm",,,
"Red Wing - Glen Burnie, MD",,7106 Ritchie Hwy,,Glen Burnie,MD,21061,USA,(410) 766-8989,,,"Monday 9:00 am-8:00 pm, Tuesday 9:00 am-8:00 pm, Wednesday 9:00 am-8:00 pm, Thursday 9:00 am-8:00 pm, Friday 9:00 am-8:00 pm, Saturday 10:00 am-5:00 pm, Sunday 11:00 am-4:00 pm",,,
"Red Wing - Frederick, MD",,5831 G Buckeystown Pike,,Frederick,MD,21704,USA,(301) 815-5430,,,"Monday 9:30 am-7:00 pm, Tuesday 9:30 am-7:00 pm, Wednesday 9:30 am-7:00 pm, Thursday 9:30 am-7:00 pm, Friday 9:30 am-7:00 pm, Saturday 10:00 am-5:00 pm, Sunday 11:00 am-4:00 pm",,,
"Red Wing - Lanham, MD",,8821 Annapolis Rd,,Lanham,MD,20706,USA,(301) 459-7622,,,"Monday 10:00 am-7:00 pm, Tuesday 10:00 am-7:00 pm, Wednesday 10:00 am-7:00 pm, Thursday 10:00 am-7:00 pm, Friday 10:00 am-7:00 pm, Saturday 10:00 am-5:00 pm, Sunday 11:00 am-4:00 pm",,,
"Red Wing - Laurel, MD",,13919 Baltimore Ave,,Laurel,MD,20707,USA,(301) 497-9009,,,"Monday 10:00 am-8:00 pm, Tuesday 10:00 am-8:00 pm, Wednesday 10:00 am-8:00 pm, Thursday 10:00 am-8:00 pm, Friday 10:00 am-8:00 pm, Saturday 10:00 am-5:00 pm, Sunday 11:00 am-4:00 pm",,,
"Red Wing - Nottingham, MD",,7637 Belair Rd,,Nottingham,MD,21236,USA,(410) 668-0993,,,"Monday 10:00 am-8:00 pm, Tuesday 10:00 am-8:00 pm, Wednesday 10:00 am-8:00 pm, Thursday 10:00 am-8:00 pm, Friday 10:00 am-8:00 pm, Saturday 10:00 am-5:00 pm, Sunday 11:00 am-4:00 pm",,,
"Red Wing - Westminster, MD",,625 G Baltimore Blvd,,Westminster,MD,21157,USA,(410) 840-7794,,,"Monday 9:30 am-7:00 pm, Tuesday 9:30 am-7:00 pm, Wednesday 9:30 am-7:00 pm, Thursday 9:30 am-7:00 pm, Friday 9:30 am-7:00 pm, Saturday 10:00 am-5:00 pm, Sunday 11:00 am-4:00 pm",,,
"Red Wing - Waldorf, MD",,2788 Crain Hwy,,Waldorf,MD,20601,USA,(301) 638-1119,,,"Monday 10:00 am-7:00 pm, Tuesday 10:00 am-7:00 pm, Wednesday 10:00 am-7:00 pm, Thursday 10:00 am-7:00 pm, Friday 10:00 am-7:00 pm, Saturday 10:00 am-5:00 pm, Sunday 12:00 pm-5:00 pm",,,
"Red Wing - Bossier City, LA",,2105 Benton Rd,,Bossier City,LA,71111,USA,(318) 742-2777,,,"Monday 9:00 am-6:00 pm, Tuesday 9:00 am-6:00 pm, Wednesday 9:00 am-6:00 pm, Thursday 9:00 am-6:00 pm, Friday 9:00 am-6:00 pm, Saturday 10:00 am-5:00 pm, Sunday -Closed",,,
"Red Wing - Denham Springs, LA",,121B Bass Pro Blvd,,Denham Springs,LA,70726,USA,(225) 275-2178,,,"Monday 9:00 am-7:00 pm, Tuesday 9:00 am-7:00 pm, Wednesday 9:00 am-7:00 pm, Thursday 9:00 am-7:00 pm, Friday 9:00 am-7:00 pm, Saturday 9:00 am-4:00 pm, Sunday 12:30 pm-4:00 pm",,,
"Red Wing - Covington, LA",,70360 Highway 21,,Covington,LA,70433,USA,(985) 302-5191,,,"Monday 10:00 am-7:00 pm, Tuesday 10:00 am-7:00 pm, Wednesday 10:00 am-7:00 pm, Thursday 10:00 am-7:00 pm, Friday 10:00 am-7:00 pm, Saturday 10:00 am-5:00 pm, Sunday 12:00 pm-4:00 pm",,,
"Red Wing - Gonzales, LA",,2706 S. Cabela Parkway,,Gonzales,LA,70737-5117,USA,(225) 450-3151,,,"Monday 9:00 am-7:00 pm, Tuesday 9:00 am-7:00 pm, Wednesday 9:00 am-7:00 pm, Thursday 9:00 am-7:00 pm, Friday 9:00 am-7:00 pm, Saturday 10:00 am-5:00 pm, Sunday 12:00 pm-5:00 pm",,,
"Red Wing - Metairie, LA",,4100 Veterans Blvd,,Metairie,LA,70002,USA,(504) 467-6001,,,"Monday 9:00 am-7:00 pm, Tuesday 9:00 am-7:00 pm, Wednesday 9:00 am-7:00 pm, Thursday 9:00 am-7:00 pm, Friday 9:00 am-7:00 pm, Saturday 10:00 am-5:00 pm, Sunday 12:00 pm-5:00 pm",,,
"Red Wing - Harvey, LA",,1950 Manhatten Blvd,,Harvey,LA,70058,USA,(504) 367-6212,,,"Monday 9:00 am-7:00 pm, Tuesday 9:00 am-7:00 pm, Wednesday 9:00 am-7:00 pm, Thursday 9:00 am-7:00 pm, Friday 9:00 am-7:00 pm, Saturday 10:00 am-5:00 pm, Sunday 12:00 pm-5:00 pm",,,
"Red Wing - Lafayette, LA",,2207 Kaliste Saloom Rd,,Lafayette,LA,70508,USA,(337) 504-2701,,,"Monday 10:00 am-6:00 pm, Tuesday 10:00 am-6:00 pm, Wednesday 10:00 am-6:00 pm, Thursday 10:00 am-6:00 pm, Friday 10:00 am-6:00 pm, Saturday 10:00 am-6:00 pm, Sunday -Closed",,,
"Red Wing - Shreveport, LA",,6550 Youree Dr,,Shreveport,LA,71105,USA,(318) 797-8984,,,"Monday 9:00 am-6:00 pm, Tuesday 9:00 am-6:00 pm, Wednesday 9:00 am-6:00 pm, Thursday 9:00 am-6:00 pm, Friday 9:00 am-6:00 pm, Saturday 10:00 am-5:00 pm, Sunday -Closed",,,
"Red Wing - Federal Way, WA",,2016 S 314th St,,Federal Way,WA,98003,USA,(253) 941-0755,,,"Monday 9:30 am-7:00 pm, Tuesday 9:30 am-7:00 pm, Wednesday 9:30 am-7:00 pm, Thursday 9:30 am-7:00 pm, Friday 9:30 am-7:00 pm, Saturday 9:30 am-5:00 pm, Sunday 10:30 am-4:00 pm",,,
"Red Wing - Spokane, WA",,9502 N Newport Highway,,Spokane,WA,99218,USA,(509) 466-2404,,,"Monday 10:00 am-7:00 pm, Tuesday 10:00 am-7:00 pm, Wednesday 10:00 am-7:00 pm, Thursday 10:00 am-7:00 pm, Friday 10:00 am-7:00 pm, Saturday 10:00 am-5:00 pm, Sunday 11:00 am-4:00 pm",,,
"Red Wing - Lacey, WA",,701 Sleater Kinney Rd SE,,Lacey,WA,98503,USA,(360) 456-6400,,,"Monday 10:00 am-7:00 pm, Tuesday 10:00 am-7:00 pm, Wednesday 10:00 am-7:00 pm, Thursday 10:00 am-7:00 pm, Friday 10:00 am-7:00 pm, Saturday 10:00 am-5:00 pm, Sunday 11:00 am-4:00 pm",,,
"Red Wing - Lynnwood, WA",,3105 Alderwood Mall Blvd,,Lynnwood,WA,98036,USA,(425) 678-3455,,,"Monday 10:00 am-7:00 pm, Tuesday 10:00 am-7:00 pm, Wednesday 10:00 am-7:00 pm, Thursday 10:00 am-7:00 pm, Friday 10:00 am-7:00 pm, Saturday 10:00 am-5:00 pm, Sunday 11:00 am-4:00 pm",,,
"Red Wing - Tacoma, WA",,1917 S 72 St,,Tacoma,WA,98408,USA,(253) 474-1681,,,"Monday 10:00 am-7:00 pm, Tuesday 10:00 am-7:00 pm, Wednesday 10:00 am-7:00 pm, Thursday 10:00 am-7:00 pm, Friday 10:00 am-7:00 pm, Saturday 10:00 am-5:00 pm, Sunday 11:00 am-4:00 pm",,,
"Red Wing - Tukwila, WA",,17135 Southcenter Parkway,,Tukwila,WA,98188,USA,(206) 575-7441,,,"Monday 10:00 am-7:00 pm, Tuesday 10:00 am-7:00 pm, Wednesday 10:00 am-7:00 pm, Thursday 10:00 am-7:00 pm, Friday 10:00 am-7:00 pm, Saturday 10:00 am-5:00 pm, Sunday 11:00 am-4:00 pm",,,
"Red Wing - Vancouver, WA",,6718 NE 4th Plain,,Vancouver,WA,98661,USA,(360) 699-1152,,,"Monday 9:00 am-7:00 pm, Tuesday 9:00 am-7:00 pm, Wednesday 9:00 am-7:00 pm, Thursday 9:00 am-7:00 pm, Friday 9:00 am-7:00 pm, Saturday 9:00 am-5:00 pm, Sunday 11:00 am-4:00 pm",,,
"Red Wing - Spokane Valley, WA",,4902 E Sprague ave,,Spokane Valley,WA,99212,USA,(509) 315-8123,,,"Monday 10:00 am-7:00 pm, Tuesday 10:00 am-7:00 pm, Wednesday 10:00 am-7:00 pm, Thursday 10:00 am-7:00 pm, Friday 10:00 am-7:00 pm, Saturday 10:00 am-5:00 pm, Sunday 11:00 am-4:00 pm",,,
"Red Wing - Kamloops, BC",,241 A Victoria St,,Kamloops,BC,V2C 2A1,CANADA,(250) 851-2668,,,"Monday 09:00-17:30, Tuesday 09:00-17:30, Wednesday 09:00-17:30, Thursday 09:00-17:30, Friday 09:00-17:30, Saturday 09:30-17:00, Sunday -Closed",,,
"Red Wing - Janesville, WI",,3000 Milton Ave,,Janesville,WI,53545,USA,(608) 752-6382,,,"Monday 10:00 am-6:00 pm, Tuesday 10:00 am-6:00 pm, Wednesday 10:00 am-6:00 pm, Thursday 10:00 am-6:00 pm, Friday 10:00 am-6:00 pm, Saturday 10:00 am-4:00 pm, Sunday 11:00 am-4:00 pm",,,
"Red Wing - Kenosha, WI",,6430 Green Bay Rd,,Kenosha,WI,53142,USA,(262) 764-9176,,,"Monday 10:00 am-8:00 pm, Tuesday 10:00 am-8:00 pm, Wednesday 10:00 am-8:00 pm, Thursday 10:00 am-8:00 pm, Friday 10:00 am-8:00 pm, Saturday 10:00 am-6:00 pm, Sunday 12:00 pm-5:00 pm",,,
"Red Wing - Onalaska, WI",,9360 State Rd 16,,Onalaska,WI,54650,USA,(608) 783-6500,,,"Monday 10:00 am-8:00 pm, Tuesday 10:00 am-8:00 pm, Wednesday 10:00 am-8:00 pm, Thursday 10:00 am-8:00 pm, Friday 10:00 am-8:00 pm, Saturday 9:00 am-5:00 pm, Sunday 12:00 pm-5:00 pm",,,
"Red Wing - Oak Creek, WI",,8907 S Howell Ave,,Oak Creek,WI,53154,USA,(414) 301-5800,,,"Monday 10:00 am-7:00 pm, Tuesday 10:00 am-7:00 pm, Wednesday 10:00 am-7:00 pm, Thursday 10:00 am-7:00 pm, Friday 10:00 am-7:00 pm, Saturday 10:00 am-5:00 pm, Sunday 10:00 am-3:00 pm",,,
"Red Wing - Sheboygan, WI",,2936 South Business Drive,,Sheboygan,WI,53081,USA,(920) 453-0411,,,"Monday 9:30 am-7:00 pm, Tuesday 9:30 am-7:00 pm, Wednesday 9:30 am-7:00 pm, Thursday 9:30 am-7:00 pm, Friday 9:30 am-6:00 pm, Saturday 9:30 am-5:00 pm, Sunday 12:00 pm-4:00 pm",,,
"Red Wing - Wausau, WI",,2111 Stewart Ave,,Wausau,WI,54401,USA,(715) 298-5990,,,"Monday 9:00 am-7:00 pm, Tuesday 9:00 am-7:00 pm, Wednesday 9:00 am-7:00 pm, Thursday 9:00 am-7:00 pm, Friday 9:00 am-7:00 pm, Saturday 9:00 am-5:00 pm, Sunday 12:00 pm-4:00 pm",,,
"Red Wing - Bellingham, WA",,117 Telegraph Rd,,Bellingham,WA,98226,USA,(360) 733-2500,,,"Monday 10:00 am-6:00 pm, Tuesday 10:00 am-6:00 pm, Wednesday 10:00 am-6:00 pm, Thursday 10:00 am-6:00 pm, Friday 10:00 am-6:00 pm, Saturday 10:00 am-5:00 pm, Sunday -Closed",,,
"Red Wing - Bellevue, WA",,14701 NE 20th St,,Bellevue,WA,98007,USA,(425) 746-0414,,,"Monday 10:00 am-7:00 pm, Tuesday 10:00 am-7:00 pm, Wednesday 10:00 am-7:00 pm, Thursday 10:00 am-7:00 pm, Friday 10:00 am-7:00 pm, Saturday 10:00 am-5:00 pm, Sunday 11:00 am-4:00 pm",,,
"Red Wing - Pocatello, ID",,516 Yellowstone Ave,,Pocatello,ID,83201,USA,(208) 233-1320,,,"Monday 8:00 am-6:00 pm, Tuesday 8:00 am-6:00 pm, Wednesday 8:00 am-6:00 pm, Thursday 8:00 am-6:00 pm, Friday 8:00 am-6:00 pm, Saturday 9:00 am-4:00 pm, Sunday -Closed",,,
"Red Wing - Appleton, WI",,4390 W Greenville Dr,,Appleton,WI,54913,USA,(920) 364-0149,,,"Monday 9:00 am-7:00 pm, Tuesday 9:00 am-7:00 pm, Wednesday 9:00 am-7:00 pm, Thursday 9:00 am-7:00 pm, Friday 9:00 am-7:00 pm, Saturday 9:00 am-6:00 pm, Sunday 12:00 pm-4:00 pm",,,
"Red Wing - Cheyenne, WY",,5116 Frontier Mall Dr,,Cheyenne,WY,82009,USA,(307) 634-4012,,,"Monday 9:00 am-6:00 pm, Tuesday 9:00 am-6:00 pm, Wednesday 9:00 am-6:00 pm, Thursday 9:00 am-6:00 pm, Friday 9:00 am-6:00 pm, Saturday 9:00 am-6:00 pm, Sunday -Closed",,,
"Red Wing - Brookfield, WI",,17395 W Bluemound Rd,,Brookfield,WI,53045,USA,(262) 786-2668,,,"Monday 10:00 am-7:00 pm, Tuesday 10:00 am-7:00 pm, Wednesday 10:00 am-7:00 pm, Thursday 10:00 am-7:00 pm, Friday 10:00 am-6:00 pm, Saturday 10:00 am-5:00 pm, Sunday 11:00 am-5:00 pm",,,
"Red Wing - Delafield, WI",,2742 Hillside Dr,,Delafield,WI,53018,USA,(262) 303-4236,,,"Monday 10:00 am-7:00 pm, Tuesday 10:00 am-7:00 pm, Wednesday 10:00 am-7:00 pm, Thursday 10:00 am-7:00 pm, Friday 10:00 am-7:00 pm, Saturday 10:00 am-6:00 pm, Sunday 11:00 am-5:00 pm",,,
"Red Wing - Boise, ID",,1561 Milwaukee St,,Boise,ID,83704,USA,(208) 377-4755,,,"Monday 9:30 am-7:00 pm, Tuesday 9:30 am-7:00 pm, Wednesday 9:30 am-7:00 pm, Thursday 9:30 am-7:00 pm, Friday 9:30 am-7:00 pm, Saturday 10:00 am-6:00 pm, Sunday 11:00 am-5:00 pm",,,
"Red Wing - Green Bay, WI",,2815 Oneida St,,Green Bay,WI,54304,USA,(920) 544-5331,,,"Monday 10:00 am-7:00 pm, Tuesday 10:00 am-7:00 pm, Wednesday 10:00 am-7:00 pm, Thursday 10:00 am-7:00 pm, Friday 10:00 am-7:00 pm, Saturday 9:00 am-4:00 pm, Sunday -Closed",,,
"Red Wing - Greenfield, WI",,3821 S 108th St Hwy,,Greenfield,WI,53228,USA,(414) 321-4742,,,"Monday 9:00 am-8:00 pm, Tuesday 9:00 am-8:00 pm, Wednesday 9:00 am-8:00 pm, Thursday 9:00 am-8:00 pm, Friday 9:00 am-6:00 pm, Saturday 9:00 am-5:00 pm, Sunday 10:00 am-4:00 pm",,,
"Red Wing - Springfield, IL",,2482 Wabash Ave,,Springfield,IL,62704,USA,(217) 793-0771,,,"Monday 9:00 am-8:00 pm, Tuesday 9:00 am-8:00 pm, Wednesday 9:00 am-8:00 pm, Thursday 9:00 am-8:00 pm, Friday 9:00 am-8:00 pm, Saturday 9:00 am-5:00 pm, Sunday 12:00 pm-5:00 pm",,,
"Red Wing - Rockford, IL",,845 S Perryville Rd,,Rockford,IL,61108,USA,(815) 394-1328,,,"Monday 10:00 am-8:00 pm, Tuesday 10:00 am-8:00 pm, Wednesday 10:00 am-8:00 pm, Thursday 10:00 am-8:00 pm, Friday 10:00 am-8:00 pm, Saturday 9:00 am-5:00 pm, Sunday 11:00 am-4:00 pm",,,
"Red Wing - Quincy, IL",,5104 Broadway St,,Quincy,IL,62305,USA,(217) 222-6771,,,"Monday 10:00 am-7:00 pm, Tuesday 10:00 am-7:00 pm, Wednesday 10:00 am-7:00 pm, Thursday 10:00 am-7:00 pm, Friday 10:00 am-7:00 pm, Saturday 10:00 am-5:00 pm, Sunday -Closed",,,
"Red Wing - Streamwood, IL",,114 N Barrington Rd,,Streamwood,IL,60107,USA,(630) 540-1834,,,"Monday 10:00 am-8:00 pm, Tuesday 10:00 am-8:00 pm, Wednesday 10:00 am-8:00 pm, Thursday 10:00 am-8:00 pm, Friday 10:00 am-7:00 pm, Saturday 10:00 am-5:00 pm, Sunday 11:00 am-4:00 pm",,,
"Red Wing - Waukegan, IL",,750 N Green Bay Rd,,Waukegan,IL,60085,USA,(847) 336-1447,,,"Monday 10:00 am-8:00 pm, Tuesday 10:00 am-8:00 pm, Wednesday 10:00 am-8:00 pm, Thursday 10:00 am-8:00 pm, Friday 10:00 am-8:00 pm, Saturday 10:00 am-6:00 pm, Sunday 12:00 pm-5:00 pm",,,
"Red Wing - West Dundee, IL",,320 N 8th St,,West Dundee,IL,60118,USA,(847) 551-1333,,,"Monday 10:00 am-8:00 pm, Tuesday 10:00 am-8:00 pm, Wednesday 10:00 am-8:00 pm, Thursday 10:00 am-8:00 pm, Friday 10:00 am-7:00 pm, Saturday 10:00 am-5:00 pm, Sunday 11:00 am-4:00 pm",,,
"Red Wing - Sycamore, IL",,2692 Dekalb Ave,,Sycamore,IL,60178,USA,(815) 517-0579,,,"Monday 10:00 am-7:00 pm, Tuesday 10:00 am-7:00 pm, Wednesday 10:00 am-7:00 pm, Thursday 10:00 am-7:00 pm, Friday 9:00 am-6:00 pm, Saturday 9:00 am-5:00 pm, Sunday 11:00 am-4:00 pm",,,
"Red Wing - Peoria, IL",,4100 W Willow Knolls Dr,,Peoria,IL,61615,USA,(309) 693-0773,,,"Monday 9:00 am-8:00 pm, Tuesday 9:00 am-8:00 pm, Wednesday 9:00 am-8:00 pm, Thursday 9:00 am-8:00 pm, Friday 9:00 am-8:00 pm, Saturday 9:00 am-5:00 pm, Sunday 12:00 pm-5:00 pm",,,
"Red Wing - Orland Park, IL",,15886 S Lagrange Rd,,Orland Park,IL,60462,USA,(708) 349-6500,,,"Monday 10:00 am-7:00 pm, Tuesday 10:00 am-7:00 pm, Wednesday 10:00 am-7:00 pm, Thursday 10:00 am-7:00 pm, Friday 10:00 am-7:00 pm, Saturday 10:00 am-5:00 pm, Sunday 10:00 am-5:00 pm",,,
"Red Wing - Harwood Heights, IL",,4852 N Harlem Ave,,Harwood Heights,IL,60706,USA,(708) 867-5600,,,"Monday 10:00 am-7:00 pm, Tuesday 10:00 am-7:00 pm, Wednesday 10:00 am-7:00 pm, Thursday 10:00 am-7:00 pm, Friday 10:00 am-7:00 pm, Saturday 10:00 am-5:00 pm, Sunday 11:00 am-4:00 pm",,,
"Red Wing - Homewood, IL",,17927 S Halsted St,,Homewood,IL,60430,USA,(708) 799-3730,,,"Monday 10:00 am-7:00 pm, Tuesday 10:00 am-7:00 pm, Wednesday 10:00 am-7:00 pm, Thursday 10:00 am-7:00 pm, Friday 10:00 am-7:00 pm, Saturday 10:00 am-5:00 pm, Sunday 11:00 am-4:00 pm",,,
"Red Wing - Lombard, IL",,1000 N Rohlwing Rd,,Lombard,IL,60148,USA,(630) 792-0416,,,"Monday 10:00 am-7:00 pm, Tuesday 10:00 am-7:00 pm, Wednesday 10:00 am-7:00 pm, Thursday 10:00 am-7:00 pm, Friday 10:00 am-7:00 pm, Saturday 10:00 am-5:00 pm, Sunday 11:00 am-4:00 pm",,,
"Red Wing - Moline, IL",,3301 Ave Of The Cities,,Moline,IL,61265,USA,(309) 762-4282,,,"Monday 9:00 am-7:00 pm, Tuesday 9:00 am-7:00 pm, Wednesday 9:00 am-7:00 pm, Thursday 9:00 am-7:00 pm, Friday 9:00 am-6:00 pm, Saturday 9:00 am-5:00 pm, Sunday 11:00 am-4:00 pm",,,
"Red Wing - Mchenry, IL",,2210 IL 120,,Mchenry,IL,60050,USA,(815) 344-0882,,,"Monday 10:00 am-7:00 pm, Tuesday 10:00 am-7:00 pm, Wednesday 10:00 am-7:00 pm, Thursday 10:00 am-7:00 pm, Friday 10:00 am-6:00 pm, Saturday 9:00 am-5:00 pm, Sunday 11:00 am-4:00 pm",,,
"Red Wing - Glen Carbon, IL",,4235 State Route 159,,Glen Carbon,IL,62034,USA,(618) 205-3601,,,"Monday 9:00 am-7:00 pm, Tuesday 9:00 am-7:00 pm, Wednesday 9:00 am-7:00 pm, Thursday 9:00 am-7:00 pm, Friday 9:00 am-7:00 pm, Saturday 10:00 am-5:00 pm, Sunday 11:00 am-4:00 pm",,,
"Red Wing - New Lenox, IL",,208 E Maple St Route 30,,New Lenox,IL,60451,USA,(815) 462-9510,,,"Monday 9:00 am-8:00 pm, Tuesday 9:00 am-8:00 pm, Wednesday 9:00 am-8:00 pm, Thursday 9:00 am-8:00 pm, Friday 9:00 am-8:00 pm, Saturday 9:00 am-5:00 pm, Sunday 10:00 am-5:00 pm",,,
"Red Wing - North Riverside, IL",,2518 S Harlem Ave,,North Riverside,IL,60546,USA,(708) 442-5811,,,"Monday 10:00 am-7:00 pm, Tuesday 10:00 am-7:00 pm, Wednesday 10:00 am-7:00 pm, Thursday 10:00 am-7:00 pm, Friday 10:00 am-7:00 pm, Saturday 10:00 am-5:00 pm, Sunday 11:00 am-4:00 pm",,,
"Red Wing - Crystal Lake, IL",,1275 Randall Rd,,Crystal Lake,IL,60014,USA,(815) 459-0882,,,"Monday 10:00 am-7:00 pm, Tuesday 10:00 am-7:00 pm, Wednesday 10:00 am-7:00 pm, Thursday 10:00 am-7:00 pm, Friday 10:00 am-6:00 pm, Saturday 9:00 am-5:00 pm, Sunday 11:00 am-4:00 pm",,,
"Red Wing - Danville, IL",,2418 Georgetown Rd,,Danville,IL,61832,USA,(217) 655-2772,,,"Monday 9:00 am-5:00 pm, Tuesday 9:00 am-8:00 pm, Wednesday 9:00 am-8:00 pm, Thursday 9:00 am-8:00 pm, Friday 9:00 am-8:00 pm, Saturday 8:00 am-4:00 pm, Sunday -Closed",,,
"Red Wing - Downers Grove, IL",,1707 W Ogden Ave,,Downers Grove,IL,60515,USA,(630) 963-3773,,,"Monday 9:00 am-7:00 pm, Tuesday 9:00 am-7:00 pm, Wednesday 9:00 am-7:00 pm, Thursday 9:00 am-7:00 pm, Friday 9:00 am-6:00 pm, Saturday 9:00 am-5:00 pm, Sunday 11:00 am-4:00 pm",,,
"Red Wing - Elk Grove Village, IL",,800 Bonnie Lane,,Elk Grove Village,IL,60007,USA,(847) 593-0225,,,"Monday 8:00 am-5:00 pm, Tuesday 8:00 am-5:00 pm, Wednesday 8:00 am-5:00 pm, Thursday 8:00 am-5:00 pm, Friday 8:00 am-5:00 pm, Saturday -Closed, Sunday -Closed",,,
"Red Wing - Evergreen Park, IL",,3347 W 95th St,,Evergreen Park,IL,60805,USA,(708) 424-3311,,,"Monday 9:00 am-8:00 pm, Tuesday 9:00 am-8:00 pm, Wednesday 9:00 am-8:00 pm, Thursday 9:00 am-8:00 pm, Friday 9:00 am-8:00 pm, Saturday 9:00 am-5:00 pm, Sunday 10:00 am-5:00 pm",,,
"Red Wing - Forsyth, IL",,1260 U.S. 51,,Forsyth,IL,62535,USA,(217) 875-1125,,,"Monday 9:00 am-8:00 pm, Tuesday 9:00 am-8:00 pm, Wednesday 9:00 am-8:00 pm, Thursday 9:00 am-8:00 pm, Friday 9:00 am-8:00 pm, Saturday 9:00 am-5:00 pm, Sunday 12:00 pm-5:00 pm",,,
"Red Wing - Geneva, IL",,1749 S Randall Rd,,Geneva,IL,60134,USA,(630) 845-3128,,,"Monday 10:00 am-7:00 pm, Tuesday 10:00 am-7:00 pm, Wednesday 10:00 am-7:00 pm, Thursday 10:00 am-7:00 pm, Friday 10:00 am-7:00 pm, Saturday 10:00 am-5:00 pm, Sunday 11:00 am-4:00 pm",,,
"Red Wing - Bloomington, IL",,1210 Towanda Plaza,,Bloomington,IL,61701,USA,(309) 827-6370,,,"Monday 9:00 am-6:00 pm, Tuesday 9:00 am-6:00 pm, Wednesday 9:00 am-6:00 pm, Thursday 9:00 am-6:00 pm, Friday 9:00 am-6:00 pm, Saturday 9:00 am-5:00 pm, Sunday 12:00 pm-3:00 pm",,,
"Red Wing - Bolingbrook, IL",,769 E Boughton Rd,,Bolingbrook,IL,60440,USA,(630) 972-9740,,,"Monday 9:00 am-7:00 pm, Tuesday 9:00 am-7:00 pm, Wednesday 9:00 am-7:00 pm, Thursday 9:00 am-7:00 pm, Friday 9:00 am-6:00 pm, Saturday 9:00 am-5:00 pm, Sunday 11:00 am-4:00 pm",,,
"Red Wing - Bourbonnais, IL",,902 N Convent St,,Bourbonnais,IL,60914,USA,(815) 401-7076,,,"Monday 10:00 am-7:00 pm, Tuesday 10:00 am-7:00 pm, Wednesday 10:00 am-7:00 pm, Thursday 10:00 am-7:00 pm, Friday 10:00 am-7:00 pm, Saturday 10:00 am-5:00 pm, Sunday 11:00 am-4:00 pm",,,
"Red Wing - Champaign, IL",,907 W Marketview Dr,,Champaign,IL,61822,USA,(217) 352-5589,,,"Monday 10:00 am-8:00 pm, Tuesday 10:00 am-8:00 pm, Wednesday 10:00 am-8:00 pm, Thursday 10:00 am-8:00 pm, Friday 10:00 am-8:00 pm, Saturday 10:00 am-6:00 pm, Sunday 12:00 pm-5:00 pm",,,
"Red Wing - Chicago, IL",,1845 N Clybourn Ave,,Chicago,IL,60614,USA,(773) 661-6212,,,"Monday 10:00 am-7:00 pm, Tuesday 10:00 am-7:00 pm, Wednesday 10:00 am-7:00 pm, Thursday 10:00 am-7:00 pm, Friday 10:00 am-7:00 pm, Saturday 10:00 am-5:00 pm, Sunday 11:00 am-4:00 pm",,,
"Red Wing - Crest Hill, IL",,1701 N Larkin Ave,,Crest Hill,IL,60403,USA,(815) 725-5583,,,"Monday 10:00 am-8:00 pm, Tuesday 10:00 am-8:00 pm, Wednesday 10:00 am-8:00 pm, Thursday 10:00 am-8:00 pm, Friday 10:00 am-8:00 pm, Saturday 9:00 am-5:00 pm, Sunday 11:00 am-4:00 pm",,,
"Red Wing - Aurora, IL",,1480 Orchard Rd,,Aurora,IL,60506,USA,(630) 907-9730,,,"Monday 10:00 am-7:00 pm, Tuesday 10:00 am-7:00 pm, Wednesday 10:00 am-7:00 pm, Thursday 10:00 am-7:00 pm, Friday 10:00 am-7:00 pm, Saturday 10:00 am-5:00 pm, Sunday 11:00 am-4:00 pm",,,
"Red Wing - Terre Haute, IN",,2501 S 3rd St,,Terre Haute,IN,47802,USA,(812) 232-4024,,,"Monday 9:00 am-7:00 pm, Tuesday 9:00 am-7:00 pm, Wednesday 9:00 am-7:00 pm, Thursday 9:00 am-7:00 pm, Friday 9:00 am-7:00 pm, Saturday 10:00 am-5:00 pm, Sunday 12:30 pm-5:00 pm",,,
"Red Wing - Arlington Heights, IL",,1721 E Central Rd,,Arlington Heights,IL,60005,USA,(847) 593-0666,,,"Monday 10:00 am-7:00 pm, Tuesday 10:00 am-7:00 pm, Wednesday 10:00 am-7:00 pm, Thursday 10:00 am-7:00 pm, Friday 10:00 am-6:00 pm, Saturday 10:00 am-5:00 pm, Sunday 11:00 am-4:00 pm",,,
"Red Wing - Noblesville, IN",,17017 Mercantile Boulevard,,Noblesville,IN,46060,USA,(317) 219-6777,,,"Monday 10:00 am-7:00 pm, Tuesday 10:00 am-7:00 pm, Wednesday 10:00 am-7:00 pm, Thursday 10:00 am-7:00 pm, Friday 10:00 am-7:00 pm, Saturday 10:00 am-5:00 pm, Sunday 12:00 pm-5:00 pm",,,
"Red Wing - Columbus, IN",,1325 N National Rd,,Columbus,IN,47201,USA,(812) 799-1658,,,"Monday 9:00 am-7:00 pm, Tuesday 9:00 am-7:00 pm, Wednesday 9:00 am-7:00 pm, Thursday 9:00 am-7:00 pm, Friday 9:00 am-7:00 pm, Saturday 9:00 am-5:00 pm, Sunday 12:00 pm-5:00 pm",,,
"Red Wing - Evansville, IN",,1526 N Green River Rd,,Evansville,IN,47715,USA,(812) 479-5775,,,"Monday 9:00 am-7:00 pm, Tuesday 9:00 am-7:00 pm, Wednesday 9:00 am-7:00 pm, Thursday 9:00 am-7:00 pm, Friday 9:00 am-8:00 pm, Saturday 9:00 am-5:00 pm, Sunday 12:30 pm-5:00 pm",,,
"Red Wing - Fort Wayne, IN",,1116 E State Blvd,,Fort Wayne,IN,46805,USA,(260) 484-6314,,,"Monday 9:00 am-7:00 pm, Tuesday 9:00 am-7:00 pm, Wednesday 9:00 am-7:00 pm, Thursday 9:00 am-7:00 pm, Friday 9:00 am-7:00 pm, Saturday 9:00 am-5:00 pm, Sunday 12:00 pm-4:00 pm",,,
"Red Wing - Indianapolis, IN",,6011 E Hanna Ave,,Indianapolis,IN,46203,USA,(317) 791-9761,,,"Monday 8:00 am-5:00 pm, Tuesday 8:00 am-5:00 pm, Wednesday 8:00 am-5:00 pm, Thursday 8:00 am-5:00 pm, Friday 8:00 am-5:00 pm, Saturday -Closed, Sunday -Closed",,,
"Red Wing - Indianapolis, IN",,10863 E Washington St,,Indianapolis,IN,46229,USA,(317) 898-5088,,,"Monday 10:00 am-7:00 pm, Tuesday 10:00 am-7:00 pm, Wednesday 10:00 am-7:00 pm, Thursday 10:00 am-7:00 pm, Friday 10:00 am-7:00 pm, Saturday 10:00 am-5:00 pm, Sunday 12:00 pm-5:00 pm",,,
"Red Wing - Indianapolis, IN",,935 E Hanna Ave,,Indianapolis,IN,46227,USA,(317) 783-2442,,,"Monday 10:00 am-7:00 pm, Tuesday 10:00 am-7:00 pm, Wednesday 10:00 am-7:00 pm, Thursday 10:00 am-7:00 pm, Friday 10:00 am-7:00 pm, Saturday 10:00 am-5:00 pm, Sunday 12:00 pm-5:00 pm",,,
"Red Wing - Indianapolis, IN",,6653 E 82nd St,,Indianapolis,IN,46250,USA,(317) 577-0760,,,"Monday 10:00 am-7:00 pm, Tuesday 10:00 am-7:00 pm, Wednesday 10:00 am-7:00 pm, Thursday 10:00 am-7:00 pm, Friday 10:00 am-7:00 pm, Saturday 10:00 am-5:00 pm, Sunday 12:00 pm-5:00 pm",,,
"Red Wing - Lafayette, IN",,3624 State Rd 38 E,,Lafayette,IN,47905,USA,(765) 449-1447,,,"Monday 9:30 am-7:30 pm, Tuesday 9:30 am-7:30 pm, Wednesday 9:30 am-7:30 pm, Thursday 9:30 am-7:30 pm, Friday 9:30 am-8:00 pm, Saturday 9:30 am-6:00 pm, Sunday 12:00 pm-5:00 pm",,,
"Red Wing - Paducah, KY",,3333 Irvin Cobb Dr,,Paducah,KY,42003,USA,(270) 442-2556,,,"Monday 8:30 am-5:00 pm, Tuesday 8:30 am-5:00 pm, Wednesday 8:30 am-5:00 pm, Thursday 8:30 am-5:00 pm, Friday 8:30 am-5:00 pm, Saturday 8:00 am-3:30 pm, Sunday -Closed",,,
"Red Wing - Baton Rouge, LA",,8729 Siegen Lane,,Baton Rouge,LA,70810,USA,(225) 767-8950,,,"Monday 9:00 am-7:00 pm, Tuesday 9:00 am-7:00 pm, Wednesday 9:00 am-7:00 pm, Thursday 9:00 am-7:00 pm, Friday 9:00 am-7:00 pm, Saturday 10:00 am-5:00 pm, Sunday 12:00 pm-5:00 pm",,,
"Red Wing - Mission, KS",,5807 Johnson Dr,,Mission,KS,66202,USA,(913) 831-4488,,,"Monday 9:00 am-7:00 pm, Tuesday 9:00 am-7:00 pm, Wednesday 9:00 am-7:00 pm, Thursday 9:00 am-7:00 pm, Friday 9:00 am-5:00 pm, Saturday 10:00 am-6:00 pm, Sunday -Closed",,,
"Red Wing - Overland Park, KS",,8920 W 95th St,,Overland Park,KS,66212,USA,(913) 648-7860,,,"Monday 9:00 am-7:00 pm, Tuesday 9:00 am-7:00 pm, Wednesday 9:00 am-7:00 pm, Thursday 9:00 am-7:00 pm, Friday 9:00 am-6:00 pm, Saturday 9:00 am-6:00 pm, Sunday 12:00 pm-5:00 pm",,,
"Red Wing - Wichita, KS",,6600 W Kellogg Dr,,Wichita,KS,67209,USA,(316) 941-9700,,,"Monday 9:00 am-7:00 pm, Tuesday 9:00 am-7:00 pm, Wednesday 9:00 am-7:00 pm, Thursday 9:00 am-7:00 pm, Friday 9:00 am-7:00 pm, Saturday 10:00 am-5:00 pm, Sunday 12:00 pm-4:00 pm",,,
"Red Wing - Avon, IN",,9831 E US Hwy 36,,Avon,IN,46123,USA,(317) 486-8180,,,"Monday 10:00 am-7:00 pm, Tuesday 10:00 am-7:00 pm, Wednesday 10:00 am-7:00 pm, Thursday 10:00 am-7:00 pm, Friday 10:00 am-7:00 pm, Saturday 10:00 am-5:00 pm, Sunday 12:00 pm-5:00 pm",,,
"Red Wing - Clarksville, IN",,1408 Eastern Blvd,,Clarksville,IN,47192,USA,(812) 283-0919,,,"Monday 9:00 am-6:00 pm, Tuesday 9:00 am-6:00 pm, Wednesday 9:00 am-6:00 pm, Thursday 9:00 am-6:00 pm, Friday 9:00 am-6:00 pm, Saturday 9:00 am-5:00 pm, Sunday 12:00 pm-4:00 pm",,,
"Red Wing - Merrillville, IN",,2016 W 81st Ave,,Merrillville,IN,46410,USA,(219) 756-0726,,,"Monday 9:00 am-7:00 pm, Tuesday 9:00 am-7:00 pm, Wednesday 9:00 am-7:00 pm, Thursday 9:00 am-7:00 pm, Friday 9:00 am-7:00 pm, Saturday 9:00 am-4:00 pm, Sunday 1:00 pm-5:00 pm",,,
"Red Wing - Florence, KY",,8071 Connector Dr,,Florence,KY,41042,USA,(859) 283-2909,,,"Monday 10:00 am-8:00 pm, Tuesday 10:00 am-8:00 pm, Wednesday 10:00 am-8:00 pm, Thursday 10:00 am-8:00 pm, Friday 10:00 am-8:00 pm, Saturday 10:00 am-5:00 pm, Sunday 12:00 pm-4:00 pm",,,
"Red Wing - Lexington, KY",,1869 Plaudit Place,,Lexington,KY,40509,USA,(859) 263-0352,,,"Monday 10:00 am-8:00 pm, Tuesday 10:00 am-8:00 pm, Wednesday 10:00 am-8:00 pm, Thursday 10:00 am-8:00 pm, Friday 10:00 am-8:00 pm, Saturday 10:00 am-7:00 pm, Sunday 12:00 pm-5:00 pm",,,
"Red Wing - Louisville, KY",,7208 Preston Highway,,Louisville,KY,40219,USA,(502) 969-6998,,,"Monday 9:00 am-6:00 pm, Tuesday 9:00 am-6:00 pm, Wednesday 9:00 am-6:00 pm, Thursday 9:00 am-6:00 pm, Friday 9:00 am-6:00 pm, Saturday 9:00 am-5:00 pm, Sunday 12:00 pm-4:00 pm",,,
"Red Wing - Owensboro, KY",,2928 Heartland Crossing Blvd,,Owensboro,KY,42303,USA,(270) 713-0298,,,"Monday 9:00 am-7:00 pm, Tuesday 9:00 am-7:00 pm, Wednesday 9:00 am-7:00 pm, Thursday 9:00 am-7:00 pm, Friday 9:00 am-7:00 pm, Saturday 9:00 am-5:00 pm, Sunday 12:00 pm-5:00 pm",,,
"Red Wing - Middletown, KY",,12424 Shelbyville Rd,,Middletown,KY,40243,USA,(502) 244-8166,,,"Monday 9:00 am-6:00 pm, Tuesday 9:00 am-6:00 pm, Wednesday 9:00 am-6:00 pm, Thursday 9:00 am-6:00 pm, Friday 9:00 am-6:00 pm, Saturday 9:00 am-5:00 pm, Sunday 12:00 pm-4:00 pm",,,
"Red Wing - Mishawaka, IN",,5776 52 Grape Rd,,Mishawaka,IN,46545,USA,(574) 272-0179,,,"Monday 9:30 am-7:00 pm, Tuesday 9:30 am-7:00 pm, Wednesday 9:30 am-7:00 pm, Thursday 9:30 am-7:00 pm, Friday 9:30 am-7:00 pm, Saturday 9:30 am-5:00 pm, Sunday 12:00 pm-4:00 pm",,,
"Red Wing - Shrewsbury, MA",,50 Boston Turnpike,,Shrewsbury,MA,01545,USA,(508) 860-2038,,,"Monday 10:00 am-8:00 pm, Tuesday 10:00 am-8:00 pm, Wednesday 10:00 am-8:00 pm, Thursday 10:00 am-8:00 pm, Friday 10:00 am-8:00 pm, Saturday 9:00 am-6:00 pm, Sunday 11:00 am-5:00 pm",,,
"Red Wing - Stoneham, MA",,62 Montvale Ave,,Stoneham,MA,02180,USA,(781) 435-0773,,,"Monday 10:00 am-8:00 pm, Tuesday 10:00 am-8:00 pm, Wednesday 10:00 am-8:00 pm, Thursday 10:00 am-8:00 pm, Friday 10:00 am-8:00 pm, Saturday 10:00 am-8:00 pm, Sunday 11:00 am-4:00 pm",,,
"Red Wing - Seekonk, MA",,20 Commerce Way,,Seekonk,MA,02771,USA,(508) 336-6354,,,"Monday 10:00 am-8:00 pm, Tuesday 10:00 am-8:00 pm, Wednesday 10:00 am-8:00 pm, Thursday 10:00 am-8:00 pm, Friday 10:00 am-8:00 pm, Saturday 10:00 am-8:00 pm, Sunday 12:00 pm-5:00 pm",,,
"Red Wing - Braintree, MA",,485 Granite St,,Braintree,MA,02184,USA,(781) 848-8402,,,"Monday 9:30 am-8:00 pm, Tuesday 9:30 am-8:00 pm, Wednesday 9:30 am-8:00 pm, Thursday 9:30 am-8:00 pm, Friday 9:30 am-6:00 pm, Saturday 9:30 am-5:00 pm, Sunday 11:00 am-5:00 pm",,,
"Red Wing - Brockton, MA",,740 Belmont St,,Brockton,MA,02301,USA,(508) 588-4181,,,"Monday 10:00 am-7:00 pm, Tuesday 10:00 am-7:00 pm, Wednesday 10:00 am-7:00 pm, Thursday 10:00 am-7:00 pm, Friday 10:00 am-7:00 pm, Saturday 10:00 am-6:00 pm, Sunday 12:00 pm-5:00 pm",,,
"Red Wing - South Portland, ME",,798 Main St Southside Plaza,,South Portland,ME,04106,USA,(207) 774-2208,,,"Monday 9:30 am-5:00 pm, Tuesday 9:30 am-7:00 pm, Wednesday 9:30 am-5:00 pm, Thursday 9:30 am-5:00 pm, Friday 9:30 am-7:00 pm, Saturday 9:30 am-4:00 pm, Sunday -Closed",,,
"Red Wing - Dartmouth, MA",,31 Faunce Corner Rd,,Dartmouth,MA,02747,USA,(508) 990-3616,,,"Monday 10:00 am-8:00 pm, Tuesday 10:00 am-8:00 pm, Wednesday 10:00 am-8:00 pm, Thursday 10:00 am-8:00 pm, Friday 10:00 am-8:00 pm, Saturday 9:00 am-8:00 pm, Sunday 12:00 pm-5:00 pm",,,
"Red Wing - Danvers, MA",,29 Andover St,,Danvers,MA,01923,USA,(978) 774-2480,,,"Monday 9:00 am-8:00 pm, Tuesday 9:00 am-8:00 pm, Wednesday 9:00 am-8:00 pm, Thursday 9:00 am-8:00 pm, Friday 9:00 am-8:00 pm, Saturday 9:00 am-6:00 pm, Sunday 11:00 am-4:00 pm",,,
"Red Wing - Dedham, MA",,865-875 Providence Highway,,Dedham,MA,02026,USA,(781) 471-7160,,,"Monday 10:00 am-8:00 pm, Tuesday 10:00 am-8:00 pm, Wednesday 10:00 am-8:00 pm, Thursday 10:00 am-8:00 pm, Friday 10:00 am-6:00 pm, Saturday 10:00 am-5:00 pm, Sunday 11:00 am-5:00 pm",,,
"Red Wing - Chicopee, MA",,530 Memorial Drive,,Chicopee,MA,01020,USA,(413) 592-0853,,,"Monday 10:00 am-8:00 pm, Tuesday 10:00 am-8:00 pm, Wednesday 10:00 am-8:00 pm, Thursday 10:00 am-8:00 pm, Friday 10:00 am-8:00 pm, Saturday 10:00 am-8:00 pm, Sunday 11:00 am-4:00 pm",,,
"Red Wing - Natick, MA",,931 Worcester St,,Natick,MA,01760,USA,(508) 653-2620,,,"Monday 10:00 am-8:00 pm, Tuesday 10:00 am-8:00 pm, Wednesday 10:00 am-8:00 pm, Thursday 10:00 am-8:00 pm, Friday 10:00 am-8:00 pm, Saturday 9:00 am-7:00 pm, Sunday 11:00 am-4:00 pm",,,
"Red Wing - Roseville, MI",,32476 Gratiot Ave,,Roseville,MI,48066,USA,(586) 294-8060,,,"Monday 10:00 am-8:00 pm, Tuesday 10:00 am-8:00 pm, Wednesday 10:00 am-8:00 pm, Thursday 10:00 am-8:00 pm, Friday 10:00 am-8:00 pm, Saturday 10:00 am-5:00 pm, Sunday 12:00 pm-4:00 pm",,,
"Red Wing - Saginaw, MI",,4328 Bay Rd,,Saginaw,MI,48603,USA,(989) 792-2911,,,"Monday 10:00 am-8:00 pm, Tuesday 10:00 am-8:00 pm, Wednesday 10:00 am-8:00 pm, Thursday 10:00 am-8:00 pm, Friday 10:00 am-8:00 pm, Saturday 10:00 am-5:30 pm, Sunday 12:00 pm-5:00 pm",,,
"Red Wing - Pontiac, MI",,292 S Telegraph Rd,,Pontiac,MI,48341,USA,(248) 738-4903,,,"Monday 10:00 am-8:00 pm, Tuesday 10:00 am-8:00 pm, Wednesday 10:00 am-8:00 pm, Thursday 10:00 am-8:00 pm, Friday 10:00 am-6:00 pm, Saturday 10:00 am-5:00 pm, Sunday -Closed",,,
"Red Wing - Shelby Township, MI",,13989 Hall Rd,,Shelby Township,MI,48315,USA,(586) 566-9600,,,"Monday 10:00 am-8:00 pm, Tuesday 10:00 am-8:00 pm, Wednesday 10:00 am-8:00 pm, Thursday 10:00 am-8:00 pm, Friday 10:00 am-8:00 pm, Saturday 10:00 am-6:00 pm, Sunday 12:00 pm-4:00 pm",,,
"Red Wing - Southgate, MI",,16054 Eureka Rd,,Southgate,MI,48195,USA,(734) 282-4015,,,"Monday 10:00 am-8:00 pm, Tuesday 10:00 am-8:00 pm, Wednesday 10:00 am-8:00 pm, Thursday 10:00 am-8:00 pm, Friday 10:00 am-8:00 pm, Saturday 10:00 am-5:00 pm, Sunday -Closed",,,
"Red Wing - Sterling Heights, MI",,33289 Mound Rd,,Sterling Heights,MI,48310,USA,(586) 264-4500,,,"Monday 10:00 am-8:00 pm, Tuesday 10:00 am-8:00 pm, Wednesday 10:00 am-8:00 pm, Thursday 10:00 am-8:00 pm, Friday 10:00 am-8:00 pm, Saturday 10:00 am-5:00 pm, Sunday 12:00 pm-4:00 pm",,,
"Red Wing - Flowood, MS",,262 Dogwood Blvd,,Flowood,MS,39232,USA,(601) 992-6013,,,"Monday 9:00 am-7:00 pm, Tuesday 9:00 am-7:00 pm, Wednesday 9:00 am-7:00 pm, Thursday 9:00 am-7:00 pm, Friday 9:00 am-7:00 pm, Saturday 10:00 am-5:00 pm, Sunday 12:00 pm-5:00 pm",,,
"Red Wing - Livonia, MI",,30951 5 Mile Rd,,Livonia,MI,48154,USA,(248) 476-9600,,,"Monday 10:00 am-8:00 pm, Tuesday 10:00 am-8:00 pm, Wednesday 10:00 am-8:00 pm, Thursday 10:00 am-8:00 pm, Friday 10:00 am-8:00 pm, Saturday 10:00 am-5:00 pm, Sunday 12:00 pm-4:00 pm",,,
"Red Wing - Holland, MI",,12465 James St,,Holland,MI,49424,USA,(616) 994-9734,,,"Monday 10:00 am-6:00 pm, Tuesday 10:00 am-6:00 pm, Wednesday 10:00 am-6:00 pm, Thursday 10:00 am-6:00 pm, Friday 10:00 am-7:00 pm, Saturday 10:00 am-3:00 pm, Sunday -Closed",,,
"Red Wing - Holt, MI",,2490 N Cedar St,,Holt,MI,48842,USA,(517) 694-0111,,,"Monday 9:00 am-7:00 pm, Tuesday 9:00 am-7:00 pm, Wednesday 9:00 am-7:00 pm, Thursday 9:00 am-7:00 pm, Friday 9:00 am-7:00 pm, Saturday 10:00 am-5:00 pm, Sunday -Closed",,,
"Red Wing - Lansing, MI",,5855 W Saginaw Hwy,,Lansing,MI,48917,USA,(517) 321-2428,,,"Monday 10:00 am-8:00 pm, Tuesday 10:00 am-8:00 pm, Wednesday 10:00 am-8:00 pm, Thursday 10:00 am-8:00 pm, Friday 10:00 am-8:00 pm, Saturday 10:00 am-5:00 pm, Sunday 12:00 pm-4:00 pm",,,
"Red Wing - Novi, MI",,43438 W Oaks Dr,,Novi,MI,48377,USA,(248) 465-0700,,,"Monday 10:00 am-8:00 pm, Tuesday 10:00 am-8:00 pm, Wednesday 10:00 am-8:00 pm, Thursday 10:00 am-8:00 pm, Friday 10:00 am-8:00 pm, Saturday 10:00 am-6:00 pm, Sunday 12:00 pm-5:00 pm",,,
"Red Wing - Grand Rapids, MI",,3130 Plainfield NE,,Grand Rapids,MI,49525,USA,(616) 363-7965,,,"Monday 9:00 am-9:00 pm, Tuesday 9:00 am-7:00 pm, Wednesday 9:00 am-7:00 pm, Thursday 9:00 am-7:00 pm, Friday 9:00 am-9:00 pm, Saturday 9:00 am-6:00 pm, Sunday -Closed",,,
"Red Wing - Canton, MI",,42517 Ford Rd,,Canton,MI,48187,USA,(734) 844-8857,,,"Monday 10:00 am-8:00 pm, Tuesday 10:00 am-8:00 pm, Wednesday 10:00 am-8:00 pm, Thursday 10:00 am-8:00 pm, Friday 10:00 am-8:00 pm, Saturday 10:00 am-5:00 pm, Sunday 12:00 pm-4:00 pm",,,
"Red Wing - Brighton, MI",,6676 Whitmore Lake Rd,,Brighton,MI,48116,USA,(810) 225-9430,,,"Monday 10:00 am-8:00 pm, Tuesday 10:00 am-8:00 pm, Wednesday 10:00 am-8:00 pm, Thursday 10:00 am-8:00 pm, Friday 10:00 am-8:00 pm, Saturday 10:00 am-6:00 pm, Sunday 12:00 pm-5:00 pm",,,
"Red Wing - Berkley, MI",,28271 N Woodward Ave,,Berkley,MI,48072,USA,(248) 399-4459,,,"Monday 10:00 am-8:00 pm, Tuesday 10:00 am-8:00 pm, Wednesday 10:00 am-8:00 pm, Thursday 10:00 am-8:00 pm, Friday 10:00 am-8:00 pm, Saturday 10:00 am-5:00 pm, Sunday -Closed",,,
"Red Wing - Flint, MI",,3023 S Linden Rd,,Flint,MI,48507,USA,(810) 732-1290,,,"Monday 10:00 am-8:00 pm, Tuesday 10:00 am-8:00 pm, Wednesday 10:00 am-8:00 pm, Thursday 10:00 am-8:00 pm, Friday 10:00 am-8:00 pm, Saturday 10:00 am-6:00 pm, Sunday 12:00 pm-5:00 pm",,,
"Red Wing - Garden City, MI",,33145 Ford Rd,,Garden City,MI,48135,USA,(734) 522-5950,,,"Monday 10:00 am-8:00 pm, Tuesday 10:00 am-8:00 pm, Wednesday 10:00 am-8:00 pm, Thursday 10:00 am-8:00 pm, Friday 10:00 am-8:00 pm, Saturday 10:00 am-5:00 pm, Sunday 12:00 pm-4:00 pm",,,
"Red Wing - St Louis, MO",,8336 Watson Rd,,St Louis,MO,63119,USA,(314) 843-2226,,,"Monday 9:00 am-8:00 pm, Tuesday 9:00 am-8:00 pm, Wednesday 9:00 am-8:00 pm, Thursday 9:00 am-8:00 pm, Friday 9:00 am-8:00 pm, Saturday 9:00 am-5:00 pm, Sunday 1:00 pm-5:00 pm",,,
"Red Wing - Saint Peters, MO",,4085 Veterans Memorial Pkwy,,Saint Peters,MO,63376,USA,(636) 928-5577,,,"Monday 10:00 am-7:00 pm, Tuesday 10:00 am-7:00 pm, Wednesday 10:00 am-7:00 pm, Thursday 10:00 am-7:00 pm, Friday 10:00 am-7:00 pm, Saturday 10:00 am-5:00 pm, Sunday -Closed",,,
"Red Wing - Saint Louis, MO",,136 S County Center Way,,Saint Louis,MO,63129,USA,(314) 845-7473,,,"Monday 9:00 am-8:00 pm, Tuesday 9:00 am-8:00 pm, Wednesday 9:00 am-8:00 pm, Thursday 9:00 am-8:00 pm, Friday 9:00 am-8:00 pm, Saturday 9:00 am-5:00 pm, Sunday 1:00 pm-5:00 pm",,,
"Red Wing - Springfield, MO",,1707 S Campbell,,Springfield,MO,65807,USA,(417) 866-1435,,,"Monday 8:00 am-7:00 pm, Tuesday 8:00 am-7:00 pm, Wednesday 8:00 am-7:00 pm, Thursday 8:00 am-7:00 pm, Friday 8:00 am-7:00 pm, Saturday 9:00 am-5:00 pm, Sunday -Closed",,,
"Red Wing - St Ann, MO",,10816 St Charles Rock Rd,,St Ann,MO,63074,USA,(314) 739-1830,,,"Monday 10:00 am-8:00 pm, Tuesday 10:00 am-8:00 pm, Wednesday 10:00 am-8:00 pm, Thursday 10:00 am-8:00 pm, Friday 10:00 am-8:00 pm, Saturday 10:00 am-5:00 pm, Sunday 12:00 pm-4:00 pm",,,
"Red Wing - Ann Arbor, MI",,3365 Washtenaw Avenue,,Ann Arbor,MI,48104,USA,(734) 997-5325,,,"Monday 10:00 am-8:00 pm, Tuesday 10:00 am-8:00 pm, Wednesday 10:00 am-8:00 pm, Thursday 10:00 am-8:00 pm, Friday 10:00 am-8:00 pm, Saturday 10:00 am-5:00 pm, Sunday 11:00 am-4:00 pm",,,
"Red Wing - Auburn Hills, MI",,4189 Baldwin Rd,,Auburn Hills,MI,48326,USA,(248) 322-9300,,,"Monday 10:00 am-8:00 pm, Tuesday 10:00 am-8:00 pm, Wednesday 10:00 am-8:00 pm, Thursday 10:00 am-8:00 pm, Friday 10:00 am-8:00 pm, Saturday 10:00 am-5:00 pm, Sunday 12:00 pm-4:00 pm",,,
"Red Wing - O'Fallon, MO",,114 W Terra Lane,,O'Fallon,MO,63366,USA,(636) 240-3070,,,"Monday 9:00 am-8:00 pm, Tuesday 9:00 am-8:00 pm, Wednesday 9:00 am-8:00 pm, Thursday 9:00 am-8:00 pm, Friday 9:00 am-8:00 pm, Saturday 9:00 am-5:00 pm, Sunday 1:00 pm-5:00 pm",,,
"Red Wing - West Saint Paul, MN",,2012 S Robert St,,West Saint Paul,MN,55118,USA,(651) 457-0930,,,"Monday 9:30 am-8:00 pm, Tuesday 9:30 am-8:00 pm, Wednesday 9:30 am-8:00 pm, Thursday 9:30 am-8:00 pm, Friday 9:30 am-5:00 pm, Saturday 9:30 am-5:00 pm, Sunday 12:00 pm-4:00 pm",,,
"Red Wing - Saint Cloud, MN",,3401 W Division St,,Saint Cloud,MN,56301,USA,(320) 251-3562,,,"Monday 9:30 am-8:00 pm, Tuesday 9:30 am-8:00 pm, Wednesday 9:30 am-8:00 pm, Thursday 9:30 am-8:00 pm, Friday 9:30 am-8:00 pm, Saturday 9:30 am-5:00 pm, Sunday 11:00 am-4:00 pm",,,
"Red Wing - Independence, MO",,13924 E Noland Court,,Independence,MO,64055,USA,(816) 461-8770,,,"Monday 9:00 am-7:00 pm, Tuesday 9:00 am-7:00 pm, Wednesday 9:00 am-7:00 pm, Thursday 9:00 am-7:00 pm, Friday 9:00 am-6:00 pm, Saturday 10:00 am-6:00 pm, Sunday -Closed",,,
"Red Wing - Joplin, MO",,2914 E 32nd St,,Joplin,MO,64804,USA,(417) 782-1135,,,"Monday 8:00 am-8:00 pm, Tuesday 8:00 am-8:00 pm, Wednesday 8:00 am-8:00 pm, Thursday 8:00 am-8:00 pm, Friday 8:00 am-8:00 pm, Saturday 9:00 am-4:00 pm, Sunday -Closed",,,
"Red Wing - Kansas City, MO",,5408 Antioch Rd,,Kansas City,MO,64119,USA,(816) 452-3828,,,"Monday 9:00 am-8:00 pm, Tuesday 9:00 am-8:00 pm, Wednesday 9:00 am-8:00 pm, Thursday 9:00 am-8:00 pm, Friday 9:00 am-6:00 pm, Saturday 9:00 am-6:00 pm, Sunday 11:00 am-5:00 pm",,,
"Red Wing - Saint Joseph, MO",,411 S Belt Hwy,,Saint Joseph,MO,64506,USA,(816) 232-0377,,,"Monday 9:00 am-7:00 pm, Tuesday 9:00 am-7:00 pm, Wednesday 9:00 am-7:00 pm, Thursday 9:00 am-7:00 pm, Friday 9:00 am-6:30 pm, Saturday 9:00 am-5:00 pm, Sunday -Closed",,,
"Red Wing - Rochester, MN",,3407 22Nd Ave NW,,Rochester,MN,55901,USA,(507) 280-7901,,,"Monday 10:00 am-8:00 pm, Tuesday 10:00 am-8:00 pm, Wednesday 10:00 am-8:00 pm, Thursday 10:00 am-8:00 pm, Friday 10:00 am-8:00 pm, Saturday 9:00 am-5:00 pm, Sunday 12:00 pm-5:00 pm",,,
"Red Wing - Roseville, MN",,1750 N Lexington Ave,,Roseville,MN,55113,USA,(651) 488-3470,,,"Monday 9:30 am-8:00 pm, Tuesday 9:30 am-8:00 pm, Wednesday 9:30 am-8:00 pm, Thursday 9:30 am-8:00 pm, Friday 9:30 am-5:00 pm, Saturday 9:30 am-5:00 pm, Sunday 12:00 pm-4:00 pm",,,
"Red Wing - Red Wing, MN",,315 Main St,,Red Wing,MN,55066,USA,(651) 388-6233,,,"Monday 9:00 am-8:00 pm, Tuesday 9:00 am-8:00 pm, Wednesday 9:00 am-8:00 pm, Thursday 9:00 am-8:00 pm, Friday 9:00 am-8:00 pm, Saturday 9:00 am-6:00 pm, Sunday 11:00 am-5:00 pm",,,
"Red Wing - Maplewood, MN",,2645 White Bear Ave,,Maplewood,MN,55109,USA,(651) 773-3151,,,"Monday 9:00 am-7:00 pm, Tuesday 9:00 am-7:00 pm, Wednesday 9:00 am-7:00 pm, Thursday 9:00 am-7:00 pm, Friday 9:00 am-5:00 pm, Saturday 9:00 am-5:00 pm, Sunday 12:00 pm-4:00 pm",,,
"Red Wing - Maple Grove, MN",,16346 County Road 30,,Maple Grove,MN,55311,USA,(763) 494-4850,,,"Monday 9:30 am-8:00 pm, Tuesday 9:30 am-8:00 pm, Wednesday 9:30 am-8:00 pm, Thursday 9:30 am-8:00 pm, Friday 9:30 am-5:00 pm, Saturday 9:30 am-5:00 pm, Sunday 11:00 am-4:00 pm",,,
"Red Wing - Mankato, MN",,1310 Madison Ave,,Mankato,MN,56001,USA,(507) 388-7958,,,"Monday 9:00 am-8:00 pm, Tuesday 9:00 am-8:00 pm, Wednesday 9:00 am-8:00 pm, Thursday 9:00 am-8:00 pm, Friday 9:00 am-8:00 pm, Saturday 9:00 am-5:00 pm, Sunday 12:00 pm-5:00 pm",,,
"Red Wing - Coon Rapids, MN",,2613 Coon Rapids Blvd,,Coon Rapids,MN,55433,USA,(763) 754-3013,,,"Monday 10:00 am-8:00 pm, Tuesday 10:00 am-8:00 pm, Wednesday 10:00 am-8:00 pm, Thursday 10:00 am-8:00 pm, Friday 10:00 am-8:00 pm, Saturday 9:00 am-4:00 pm, Sunday -Closed",,,
"Red Wing - Columbia Heights, MN",,4357 Central Ave NE,,Columbia Heights,MN,55421,USA,(763) 788-5476,,,"Monday 9:00 am-8:00 pm, Tuesday 9:00 am-8:00 pm, Wednesday 9:00 am-8:00 pm, Thursday 9:00 am-8:00 pm, Friday 9:00 am-8:00 pm, Saturday 9:00 am-5:00 pm, Sunday -Closed",,,
"Red Wing - Crystal, MN",,5542 W Broadway Ave,,Crystal,MN,55428,USA,(763) 316-5929,,,"Monday 9:30 am-8:00 pm, Tuesday 9:30 am-8:00 pm, Wednesday 9:30 am-8:00 pm, Thursday 9:30 am-8:00 pm, Friday 9:30 am-5:00 pm, Saturday 9:30 am-5:00 pm, Sunday 11:00 am-4:00 pm",,,
"Red Wing - Duluth, MN",,913 W Central Entrance,,Duluth,MN,55811,USA,(218) 722-1702,,,"Monday 9:00 am-7:00 pm, Tuesday 9:00 am-7:00 pm, Wednesday 9:00 am-7:00 pm, Thursday 9:00 am-7:00 pm, Friday 9:00 am-7:00 pm, Saturday 9:00 am-5:00 pm, Sunday 11:00 am-4:00 pm",,,
"Red Wing - Hopkins, MN",,11523 Excelsior Blvd,,Hopkins,MN,55343,USA,(952) 933-6777,,,"Monday 9:30 am-8:00 pm, Tuesday 9:30 am-8:00 pm, Wednesday 9:30 am-8:00 pm, Thursday 9:30 am-8:00 pm, Friday 9:30 am-5:00 pm, Saturday 9:30 am-5:00 pm, Sunday 12:00 pm-4:00 pm",,,
"Red Wing - Circle Pines, MN",,8870 Rendova St NE,,Circle Pines,MN,55014,USA,(763) 785-0575,,,"Monday 9:00 am-8:00 pm, Tuesday 9:00 am-8:00 pm, Wednesday 9:00 am-8:00 pm, Thursday 9:00 am-8:00 pm, Friday 9:00 am-8:00 pm, Saturday 9:00 am-5:00 pm, Sunday -Closed",,,
"Red Wing - Cockeysville, MD",,10037 York Rd,,Cockeysville,MD,21030,USA,(410) 628-1240,,,"Monday 9:00 am-7:00 pm, Tuesday 9:00 am-7:00 pm, Wednesday 9:00 am-7:00 pm, Thursday 9:00 am-7:00 pm, Friday 9:00 am-7:00 pm, Saturday 10:00 am-5:00 pm, Sunday 11:00 am-4:00 pm",,,
"Red Wing - Catonsville, MD",,6036 Baltimore National Pike,,Catonsville,MD,21228,USA,(410) 788-7510,,,"Monday 9:00 am-7:00 pm, Tuesday 9:00 am-7:00 pm, Wednesday 9:00 am-7:00 pm, Thursday 9:00 am-7:00 pm, Friday 9:00 am-7:00 pm, Saturday 10:00 am-5:00 pm, Sunday 11:00 am-4:00 pm",,,
"Red Wing - Dundalk, MD",,1413 B Merritt Blvd,,Dundalk,MD,21222,USA,(410) 282-8989,,,"Monday 10:00 am-8:00 pm, Tuesday 10:00 am-8:00 pm, Wednesday 10:00 am-8:00 pm, Thursday 10:00 am-8:00 pm, Friday 10:00 am-8:00 pm, Saturday 10:00 am-5:00 pm, Sunday 11:00 am-4:00 pm",,,
"Red Wing - Bloomington, MN",,9501 Lyndale Ave S,,Bloomington,MN,55420,USA,(952) 854-6286,,,"Monday 10:00 am-8:00 pm, Tuesday 10:00 am-8:00 pm, Wednesday 10:00 am-8:00 pm, Thursday 10:00 am-8:00 pm, Friday 10:00 am-8:00 pm, Saturday 10:00 am-5:00 pm, Sunday -Closed",,,
"Red Wing - Apple Valley, MN",,15465 Cedar Ave,,Apple Valley,MN,55124,USA,(952) 432-1330,,,"Monday 9:30 am-8:00 pm, Tuesday 9:30 am-8:00 pm, Wednesday 9:30 am-8:00 pm, Thursday 9:30 am-8:00 pm, Friday 9:30 am-5:00 pm, Saturday 9:30 am-5:00 pm, Sunday 12:00 pm-4:00 pm",,,
"Red Wing - Burnsville, MN",,3403 Hwy 13 W,,Burnsville,MN,55337,USA,(952) 736-9755,,,"Monday 9:30 am-8:00 pm, Tuesday 9:30 am-8:00 pm, Wednesday 9:30 am-8:00 pm, Thursday 9:30 am-8:00 pm, Friday 9:30 am-5:00 pm, Saturday 9:30 am-5:00 pm, Sunday 12:00 pm-4:00 pm",,,
"Red Wing - Regina, SK",,425 Victoria Ave E,,Regina,AB,S4N 0N8,CANADA,(306) 525-8554,,,"Monday 10:00-18:00, Tuesday 10:00-18:00, Wednesday 10:00-18:00, Thursday 10:00-20:00, Friday 10:00-18:00, Saturday 10:00-18:00, Sunday 13:00-16:00",,,
"Red Wing - Saskatoon, SK",,1701 8th St E,,Saskatoon,AB,S7H 0T4,CANADA,(306) 244-4800,,,"Monday 09:00-21:00, Tuesday 09:00-21:00, Wednesday 09:00-21:00, Thursday 09:00-21:00, Friday 09:00-21:00, Saturday 09:00-18:00, Sunday 12:00-17:00",,,
"Red Wing - Arbutus, MD",,1622 Sulphur Spring Rd,,Arbutus,MD,21227,USA,(410) 565-6217,,,"Monday 8:00 am-7:00 pm, Tuesday 8:00 am-7:00 pm, Wednesday 8:00 am-7:00 pm, Thursday 8:00 am-7:00 pm, Friday 8:00 am-7:00 pm, Saturday 9:00 am-5:00 pm, Sunday 11:00 am-4:00 pm",,,
"Red Wing - Annapolis, MD",,2348-B Solomons Island Rd,,Annapolis,MD,21401,USA,(410) 573-9400,,,"Monday 10:00 am-8:00 pm, Tuesday 10:00 am-8:00 pm, Wednesday 10:00 am-8:00 pm, Thursday 10:00 am-8:00 pm, Friday 10:00 am-8:00 pm, Saturday 10:00 am-6:00 pm, Sunday 11:00 am-5:00 pm",,,
"Red Wing - Bel Air, MD",,5 Bel Air S Pkwy,,Bel Air,MD,21015,USA,(410) 569-1555,,,"Monday 10:00 am-7:00 pm, Tuesday 10:00 am-7:00 pm, Wednesday 10:00 am-7:00 pm, Thursday 10:00 am-7:00 pm, Friday 10:00 am-7:00 pm, Saturday 10:00 am-5:00 pm, Sunday 11:00 am-4:00 pm",,,
"Red Wing - Grande Prairie, AB",,11502 Westgate Dr,,Grande Prairie,AB,T8V 4E9,CANADA,(587) 771-0432,,,"Monday 09:00-21:00, Tuesday 09:00-21:00, Wednesday 09:00-21:00, Thursday 09:00-21:00, Friday 09:00-21:00, Saturday 09:00-18:00, Sunday 11:00-17:00",,,
"Red Wing - Bozeman, MT",,855 S 29th Ave,,Bozeman,MT,59718,USA,(406) 577-2426,,,"Monday 9:00 am-6:00 pm, Tuesday 9:00 am-6:00 pm, Wednesday 9:00 am-6:00 pm, Thursday 9:00 am-6:00 pm, Friday 9:00 am-6:00 pm, Saturday 9:00 am-6:00 pm, Sunday 12:00 pm-5:00 pm",,,
"Red Wing - Billings, MT",,111 S 24th St W,,Billings,MT,59102,USA,(406) 656-6450,,,"Monday 9:00 am-6:00 pm, Tuesday 9:00 am-6:00 pm, Wednesday 9:00 am-6:00 pm, Thursday 9:00 am-6:00 pm, Friday 9:00 am-6:00 pm, Saturday 9:00 am-6:00 pm, Sunday 12:00 pm-5:00 pm",,,
"Red Wing - West Valley City, UT",,3380 W 3500 S,,West Valley City,UT,84119,USA,(801) 966-8891,,,"Monday 10:00 am-7:00 pm, Tuesday 10:00 am-7:00 pm, Wednesday 10:00 am-7:00 pm, Thursday 10:00 am-7:00 pm, Friday 10:00 am-7:00 pm, Saturday 10:00 am-6:00 pm, Sunday 11:00 am-4:00 pm",,,
"Red Wing - Roanoke, VA",,1064 23rd St. SW,,Roanoke,VA,24015,USA,(540) 492-4360,,,"Monday 10:00 am-7:00 pm, Tuesday 10:00 am-7:00 pm, Wednesday 10:00 am-7:00 pm, Thursday 10:00 am-7:00 pm, Friday 10:00 am-7:00 pm, Saturday 10:00 am-5:00 pm, Sunday 1:00 pm-5:00 pm",,,
"Red Wing - Wichita Falls, TX",,4032 Kemp Blvd,,Wichita Falls,TX,76308,USA,(940) 696-3171,,,"Monday 9:30 am-6:00 pm, Tuesday 9:30 am-6:00 pm, Wednesday 9:30 am-6:00 pm, Thursday 9:30 am-6:00 pm, Friday 9:30 am-6:00 pm, Saturday 10:00 am-5:00 pm, Sunday -Closed",,,
"Red Wing - Richmond, VA",,8513 Midlothian Pike,,Richmond,VA,23235,USA,(804) 323-5979,,,"Monday 9:30 am-7:00 pm, Tuesday 9:30 am-7:00 pm, Wednesday 9:30 am-7:00 pm, Thursday 9:30 am-7:00 pm, Friday 9:30 am-7:00 pm, Saturday 9:30 am-5:00 pm, Sunday 12:00 pm-4:00 pm",,,
"Red Wing - Springfield, VA",,6701 D Loisdale Rd,,Springfield,VA,22150,USA,(703) 922-6859,,,"Monday 9:00 am-7:00 pm, Tuesday 9:00 am-7:00 pm, Wednesday 9:00 am-7:00 pm, Thursday 9:00 am-7:00 pm, Friday 9:00 am-7:00 pm, Saturday 10:00 am-5:00 pm, Sunday 11:00 am-4:00 pm",,,
"Red Wing - Layton, UT",,936 North Main St,,Layton,UT,84041,USA,(801) 544-1025,,,"Monday 10:00 am-8:00 pm, Tuesday 10:00 am-8:00 pm, Wednesday 10:00 am-8:00 pm, Thursday 10:00 am-8:00 pm, Friday 10:00 am-8:00 pm, Saturday 10:00 am-6:00 pm, Sunday -Closed",,,
"Red Wing - Orem, UT",,248 N State St,,Orem,UT,84057,USA,(801) 224-2550,,,"Monday 10:00 am-7:00 pm, Tuesday 10:00 am-7:00 pm, Wednesday 10:00 am-7:00 pm, Thursday 10:00 am-7:00 pm, Friday 10:00 am-7:00 pm, Saturday 10:00 am-6:00 pm, Sunday -Closed",,,
"Red Wing - Woodbridge, VA",,14204 Smoketown Rd,,Woodbridge,VA,22192,USA,(571) 492-7004,,,"Monday 10:00 am-8:00 pm, Tuesday 10:00 am-8:00 pm, Wednesday 10:00 am-8:00 pm, Thursday 10:00 am-8:00 pm, Friday 10:00 am-8:00 pm, Saturday 10:00 am-6:00 pm, Sunday 11:00 am-5:00 pm",,,
"Red Wing - Smyrna, TN",,449 W Sam Ridley Parkway,,Smyrna,TN,37167,USA,(615) 462-6196,,,"Monday 10:00 am-7:00 pm, Tuesday 10:00 am-7:00 pm, Wednesday 10:00 am-7:00 pm, Thursday 10:00 am-7:00 pm, Friday 10:00 am-7:00 pm, Saturday 10:00 am-6:00 pm, Sunday 12:00 pm-5:00 pm",,,
"Red Wing - Madison, TN",,1771 Gallatin Pike N,,Madison,TN,37115,USA,(615) 868-8006,,,"Monday 10:00 am-7:00 pm, Tuesday 10:00 am-7:00 pm, Wednesday 10:00 am-7:00 pm, Thursday 10:00 am-7:00 pm, Friday 10:00 am-7:00 pm, Saturday 10:00 am-6:00 pm, Sunday 12:00 pm-5:00 pm",,,
"Red Wing - York, PA",,2148 White St,,York,PA,17404,USA,(717) 845-4966,,,"Monday 10:00 am-8:00 pm, Tuesday 10:00 am-8:00 pm, Wednesday 10:00 am-8:00 pm, Thursday 10:00 am-8:00 pm, Friday 10:00 am-8:00 pm, Saturday 9:00 am-8:00 pm, Sunday 11:00 am-4:00 pm",,,
"Red Wing - Waco, TX",,538 N New Rd,,Waco,TX,76710,USA,(254) 776-0110,,,"Monday 10:00 am-5:30 pm, Tuesday 10:00 am-5:30 pm, Wednesday 10:00 am-5:30 pm, Thursday 10:00 am-5:30 pm, Friday 10:00 am-5:30 pm, Saturday 10:00 am-5:00 pm, Sunday -Closed",,,
"Red Wing - Chattanooga, TN",,6231 Perimeter Dr,,Chattanooga,TN,37421,USA,(423) 894-4931,,,"Monday 9:00 am-7:00 pm, Tuesday 9:00 am-7:00 pm, Wednesday 9:00 am-7:00 pm, Thursday 9:00 am-7:00 pm, Friday 9:00 am-7:00 pm, Saturday 10:00 am-5:00 pm, Sunday 12:00 pm-5:00 pm",,,
"Red Wing - Johnson City, TN",,3101 Browns Mill Rd,,Johnson City,TN,37604,USA,(423) 283-0343,,,"Monday 10:00 am-6:00 pm, Tuesday 10:00 am-6:00 pm, Wednesday 10:00 am-6:00 pm, Thursday 10:00 am-6:00 pm, Friday 10:00 am-6:00 pm, Saturday 10:00 am-5:00 pm, Sunday 12:00 pm-4:00 pm",,,
"Red Wing - Knoxville, TN",,9264 Kingston Pike,,Knoxville,TN,37922,USA,(865) 693-8597,,,"Monday 9:00 am-6:00 pm, Tuesday 9:00 am-6:00 pm, Wednesday 9:00 am-6:00 pm, Thursday 9:00 am-6:00 pm, Friday 9:00 am-7:00 pm, Saturday 10:00 am-5:00 pm, Sunday -Closed",,,
"Red Wing - Memphis, TN",,2542 Covington Pike,,Memphis,TN,38128,USA,(901) 388-0091,,,"Monday 9:00 am-6:00 pm, Tuesday 9:00 am-6:00 pm, Wednesday 9:00 am-6:00 pm, Thursday 9:00 am-6:00 pm, Friday 9:00 am-6:00 pm, Saturday 10:00 am-5:00 pm, Sunday 1:00 pm-5:00 pm",,,
"Red Wing - Tulsa, OK",,8929 S Memorial Dr,,Tulsa,OK,74133,USA,(918) 254-7027,,,"Monday 9:00 am-7:00 pm, Tuesday 9:00 am-7:00 pm, Wednesday 9:00 am-7:00 pm, Thursday 9:00 am-7:00 pm, Friday 9:00 am-7:00 pm, Saturday 10:00 am-5:00 pm, Sunday 12:00 pm-5:00 pm",,,
"Red Wing - Washington, PA",,2000 Park Place Drive,,Washington,PA,15301-2063,USA,(724) 993-4389,,,"Monday 10:00 am-8:00 pm, Tuesday 10:00 am-8:00 pm, Wednesday 10:00 am-8:00 pm, Thursday 10:00 am-8:00 pm, Friday 10:00 am-8:00 pm, Saturday 10:00 am-5:00 pm, Sunday 12:00 pm-5:00 pm",,,
"Red Wing - Willow Grove, PA",,1017 Easton Rd,,Willow Grove,PA,19090,USA,(215) 659-2722,,,"Monday 10:00 am-8:00 pm, Tuesday 10:00 am-8:00 pm, Wednesday 10:00 am-8:00 pm, Thursday 10:00 am-8:00 pm, Friday 10:00 am-8:00 pm, Saturday 9:00 am-6:00 pm, Sunday 11:00 am-4:00 pm",,,
"Red Wing - Springfield, PA",,511 Baltimore Pike,,Springfield,PA,19064,USA,(610) 544-1664,,,"Monday 10:00 am-8:00 pm, Tuesday 10:00 am-8:00 pm, Wednesday 10:00 am-8:00 pm, Thursday 10:00 am-8:00 pm, Friday 10:00 am-8:00 pm, Saturday 9:00 am-6:00 pm, Sunday 11:00 am-4:00 pm",,,
"Red Wing - Edmond, OK",,1380 West Covell Rd,,Edmond,OK,73003,USA,(405) 697-2898,,,,,,
"Red Wing - Oklahoma City, OK",,6300 W Reno Ave,,Oklahoma City,OK,73127,USA,(405) 789-5599,,,"Monday 9:30 am-7:00 pm, Tuesday 9:30 am-7:00 pm, Wednesday 9:30 am-7:00 pm, Thursday 9:30 am-7:00 pm, Friday 9:30 am-6:00 pm, Saturday 9:30 am-5:00 pm, Sunday -Closed",,,
"Red Wing - Memphis, TN",,7464 Winchester Rd,,Memphis,TN,38125,USA,(901) 794-1711,,,"Monday 9:00 am-6:00 pm, Tuesday 9:00 am-6:00 pm, Wednesday 9:00 am-6:00 pm, Thursday 9:00 am-6:00 pm, Friday 9:00 am-6:00 pm, Saturday 10:00 am-5:00 pm, Sunday 1:00 pm-5:00 pm",,,
"Red Wing - Oklahoma City, OK",,2104 Sw 74th St,,Oklahoma City,OK,73159,USA,(405) 685-4040,,,"Monday 10:00 am-6:00 pm, Tuesday 10:00 am-6:00 pm, Wednesday 10:00 am-6:00 pm, Thursday 10:00 am-6:00 pm, Friday 10:00 am-6:00 pm, Saturday 10:00 am-5:00 pm, Sunday 12:00 pm-4:00 pm",,,
"Red Wing - Memphis, TN",,2890 Business Park DR,,Memphis,TN,38118,USA,(901) 363-7636,,,"Monday 8:00 am-5:00 pm, Tuesday 8:00 am-5:00 pm, Wednesday 8:00 am-5:00 pm, Thursday 8:00 am-5:00 pm, Friday 8:00 am-5:00 pm, Saturday -Closed, Sunday -Closed",,,
"Red Wing - Reading, PA",,2747 Paper Mill Rd,,Reading,PA,19610,USA,(610) 921-0571,,,"Monday 10:00 am-8:00 pm, Tuesday 10:00 am-8:00 pm, Wednesday 10:00 am-8:00 pm, Thursday 10:00 am-8:00 pm, Friday 10:00 am-8:00 pm, Saturday 10:00 am-8:00 pm, Sunday 11:00 am-4:00 pm",,,
"Red Wing - Pittsburgh, PA",,5486 Campbells Run Rd,,Pittsburgh,PA,15205,USA,(412) 788-3629,,,"Monday 10:00 am-8:00 pm, Tuesday 10:00 am-8:00 pm, Wednesday 10:00 am-8:00 pm, Thursday 10:00 am-8:00 pm, Friday 10:00 am-8:00 pm, Saturday 10:00 am-6:00 pm, Sunday 11:00 am-4:00 pm",,,
"Red Wing - Monaca, PA",,915 Pennsylvania Ave,,Monaca,PA,15061,USA,(724) 774-2179,,,"Monday 10:00 am-8:00 pm, Tuesday 10:00 am-8:00 pm, Wednesday 10:00 am-8:00 pm, Thursday 10:00 am-8:00 pm, Friday 10:00 am-8:00 pm, Saturday 9:00 am-5:00 pm, Sunday -Closed",,,
"Red Wing - Harrisburg, PA",,5000 Linglestown Rd,,Harrisburg,PA,17112,USA,(717) 545-9460,,,"Monday 10:00 am-6:00 pm, Tuesday 10:00 am-6:00 pm, Wednesday 10:00 am-8:00 pm, Thursday 10:00 am-8:00 pm, Friday 10:00 am-8:00 pm, Saturday 10:00 am-5:00 pm, Sunday -Closed",,,
"Red Wing - Hanover, PA",,437 Eisenhower Dr,,Hanover,PA,17331,USA,(717) 633-7799,,,"Monday 10:00 am-8:00 pm, Tuesday 10:00 am-8:00 pm, Wednesday 10:00 am-8:00 pm, Thursday 10:00 am-8:00 pm, Friday 10:00 am-8:00 pm, Saturday 9:00 am-8:00 pm, Sunday 10:00 am-4:00 pm",,,
"Red Wing - Linden, PA",,7582 US 220,,Linden,PA,17744,USA,(570) 865-6222,,,"Monday 9:00 am-7:00 pm, Tuesday 9:00 am-7:00 pm, Wednesday 9:00 am-7:00 pm, Thursday 9:00 am-7:00 pm, Friday 9:00 am-7:00 pm, Saturday 9:00 am-6:00 pm, Sunday 11:00 am-4:00 pm",,,
"Red Wing - Exton, PA",,598 N Pottstown Pike,,Exton,PA,19341,USA,(610) 363-0782,,,"Monday 9:00 am-7:00 pm, Tuesday 9:00 am-7:00 pm, Wednesday 9:00 am-7:00 pm, Thursday 9:00 am-7:00 pm, Friday 9:00 am-7:00 pm, Saturday 9:00 am-6:00 pm, Sunday 11:00 am-5:00 pm",,,
"Red Wing - Lancaster, PA",,106 S Centerville Rd,,Lancaster,PA,17603,USA,(717) 509-1990,,,"Monday 9:00 am-7:00 pm, Tuesday 9:00 am-7:00 pm, Wednesday 9:00 am-7:00 pm, Thursday 9:00 am-7:00 pm, Friday 9:00 am-7:00 pm, Saturday 9:00 am-4:00 pm, Sunday 11:00 am-4:00 pm",,,
"Red Wing - Philadelphia, PA",,2499 E Aramingo Ave,,Philadelphia,PA,19125,USA,(215) 425-8750,,,"Monday 9:00 am-7:00 pm, Tuesday 9:00 am-7:00 pm, Wednesday 9:00 am-7:00 pm, Thursday 9:00 am-7:00 pm, Friday 9:00 am-7:00 pm, Saturday 9:00 am-6:00 pm, Sunday 11:00 am-4:00 pm",,,
"Red Wing - Cranberry Township, PA",,20018 Route 19,,Cranberry Township,PA,16066,USA,(724) 741-0011,,,"Monday 10:00 am-8:00 pm, Tuesday 10:00 am-8:00 pm, Wednesday 10:00 am-8:00 pm, Thursday 10:00 am-8:00 pm, Friday 10:00 am-8:00 pm, Saturday 9:00 am-7:00 pm, Sunday 11:00 am-5:00 pm",,,
"Red Wing - Camp Hill, PA",,2224 Gettysburg Rd,,Camp Hill,PA,17011,USA,(717) 737-1301,,,"Monday 10:00 am-6:00 pm, Tuesday 10:00 am-6:00 pm, Wednesday 10:00 am-8:00 pm, Thursday 10:00 am-8:00 pm, Friday 10:00 am-8:00 pm, Saturday 10:00 am-5:00 pm, Sunday -Closed",,,
"Red Wing - Portland, OR",,11908 SE Division,,Portland,OR,97266,USA,(503) 761-9656,,,"Monday 9:00 am-7:00 pm, Tuesday 9:00 am-7:00 pm, Wednesday 9:00 am-7:00 pm, Thursday 9:00 am-7:00 pm, Friday 9:00 am-7:00 pm, Saturday 10:00 am-5:00 pm, Sunday 11:00 am-4:00 pm",,,
"Red Wing - Oregon City, OR",,1900 Mcloughlin Blvd,,Oregon City,OR,97045,USA,(503) 656-0101,,,"Monday 10:00 am-7:00 pm, Tuesday 10:00 am-7:00 pm, Wednesday 10:00 am-7:00 pm, Thursday 10:00 am-7:00 pm, Friday 10:00 am-7:00 pm, Saturday 10:00 am-5:00 pm, Sunday 11:00 am-4:00 pm",,,
"Red Wing - Springfield, OR",,1014 Harlow Rd,,Springfield,OR,97477,USA,(541) 746-6747,,,"Monday 10:00 am-7:00 pm, Tuesday 10:00 am-7:00 pm, Wednesday 10:00 am-7:00 pm, Thursday 10:00 am-7:00 pm, Friday 10:00 am-7:00 pm, Saturday 10:00 am-5:00 pm, Sunday 11:00 am-4:00 pm",,,
"Red Wing - Keizer, OR",,6075 Ulali Dr NE,,Keizer,OR,97303,USA,(971) 361-9464,,,"Monday 10:00 am-7:00 pm, Tuesday 10:00 am-7:00 pm, Wednesday 10:00 am-7:00 pm, Thursday 10:00 am-7:00 pm, Friday 10:00 am-7:00 pm, Saturday 10:00 am-5:00 pm, Sunday 11:00 am-4:00 pm",,,
"Red Wing - Bristol, PA",,2014 Ford Rd,,Bristol,PA,19007,USA,(215) 788-4309,,,"Monday 8:00 am-5:00 pm, Tuesday 8:00 am-5:00 pm, Wednesday 8:00 am-5:00 pm, Thursday 8:00 am-5:00 pm, Friday 8:00 am-5:00 pm, Saturday -Closed, Sunday -Closed",,,
"Red Wing - Allentown, PA",,323 S Cedar Crest Blvd,,Allentown,PA,18103,USA,(610) 821-8950,,,"Monday 9:00 am-7:00 pm, Tuesday 9:00 am-7:00 pm, Wednesday 9:00 am-7:00 pm, Thursday 9:00 am-7:00 pm, Friday 9:00 am-7:00 pm, Saturday 9:00 am-5:00 pm, Sunday 11:00 am-4:00 pm",,,
"Red Wing - Pleasant Hills, PA",,10 Old Clairton Rd #4,,Pleasant Hills,PA,15236,USA,(412) 653-0500,,,"Monday 10:00 am-8:00 pm, Tuesday 10:00 am-8:00 pm, Wednesday 10:00 am-8:00 pm, Thursday 10:00 am-8:00 pm, Friday 10:00 am-8:00 pm, Saturday 9:00 am-6:00 pm, Sunday 11:00 am-4:00 pm",,,
"Red Wing - Beaverton, OR",,4130 SW Lombard,,Beaverton,OR,97005,USA,(503) 641-6052,,,"Monday 10:00 am-7:00 pm, Tuesday 10:00 am-7:00 pm, Wednesday 10:00 am-7:00 pm, Thursday 10:00 am-7:00 pm, Friday 10:00 am-7:00 pm, Saturday 10:00 am-5:00 pm, Sunday 11:00 am-4:00 pm",,,
"Red Wing - Cayce, SC",,988 Knox Abbott Dr,,Cayce,SC,29033,USA,(803) 791-1391,,,"Monday 10:00 am-7:00 pm, Tuesday 10:00 am-7:00 pm, Wednesday 10:00 am-6:00 pm, Thursday 10:00 am-6:00 pm, Friday 10:00 am-6:00 pm, Saturday 9:00 am-5:00 pm, Sunday -Closed",,,
"Red Wing - Greenville, SC",,597 Haywood Rd,,Greenville,SC,29607,USA,(864) 244-9622,,,"Monday 9:00 am-7:00 pm, Tuesday 9:00 am-7:00 pm, Wednesday 9:00 am-7:00 pm, Thursday 9:00 am-7:00 pm, Friday 9:00 am-7:00 pm, Saturday 9:00 am-5:00 pm, Sunday -Closed",,,
"Red Wing - North Charleston, SC",,8510 Rivers Ave,,North Charleston,SC,29406,USA,(843) 572-2288,,,"Monday 10:00 am-6:00 pm, Tuesday 10:00 am-6:00 pm, Wednesday 10:00 am-6:00 pm, Thursday 10:00 am-6:00 pm, Friday 10:00 am-6:00 pm, Saturday 10:00 am-6:00 pm, Sunday -Closed",,,
"Red Wing - Tyler, TX",,4133 S Broadway Ave,,Tyler,TX,75701,USA,(903) 561-7090,,,"Monday 8:30 am-5:30 pm, Tuesday 8:30 am-5:30 pm, Wednesday 8:30 am-5:30 pm, Thursday 8:30 am-5:30 pm, Friday 8:30 am-5:30 pm, Saturday 9:00 am-5:00 pm, Sunday -Closed",,,
"Red Wing - Tomball, TX",,14021 FM 2920,,Tomball,TX,77377,USA,(281) 255-0291,,,"Monday 9:30 am-7:00 pm, Tuesday 9:30 am-7:00 pm, Wednesday 9:30 am-7:00 pm, Thursday 9:30 am-7:00 pm, Friday 9:30 am-7:00 pm, Saturday 9:00 am-5:00 pm, Sunday -Closed",,,
"Red Wing - Sioux Falls, SD",,1020 W 41st,,Sioux Falls,SD,57105,USA,(605) 339-1883,,,"Monday 10:00 am-8:00 pm, Tuesday 10:00 am-8:00 pm, Wednesday 10:00 am-8:00 pm, Thursday 10:00 am-8:00 pm, Friday 10:00 am-8:00 pm, Saturday 10:00 am-5:00 pm, Sunday 12:00 pm-5:00 pm",,,
"Red Wing - Texarkana, TX",,1401 N State Line Ave,,Texarkana,TX,75501,USA,(903) 792-2166,,,"Monday 10:00 am-6:00 pm, Tuesday 10:00 am-6:00 pm, Wednesday 10:00 am-6:00 pm, Thursday 10:00 am-6:00 pm, Friday 10:00 am-6:00 pm, Saturday 10:00 am-5:00 pm, Sunday -Closed",,,
"Red Wing - Warwick, RI",,21 A Universal Blvd,,Warwick,RI,02886,USA,(401) 826-2111,,,"Monday 10:00 am-8:00 pm, Tuesday 10:00 am-8:00 pm, Wednesday 10:00 am-8:00 pm, Thursday 10:00 am-8:00 pm, Friday 10:00 am-8:00 pm, Saturday 10:00 am-8:00 pm, Sunday 12:00 pm-6:00 pm",,,
"Red Wing - Rapid City, SD",,922 Main St,,Rapid City,SD,57701,USA,(605) 343-1791,,,"Monday 9:00 am-7:00 pm, Tuesday 9:00 am-7:00 pm, Wednesday 9:00 am-7:00 pm, Thursday 9:00 am-7:00 pm, Friday 9:00 am-7:00 pm, Saturday 9:00 am-5:00 pm, Sunday 11:00 am-4:00 pm",,,
"Red Wing - Sugar Land, TX",,13843 Southwest Freeway,,Sugar Land,TX,77478,USA,(281) 494-0091,,,"Monday 9:00 am-6:00 pm, Tuesday 9:00 am-6:00 pm, Wednesday 9:00 am-6:00 pm, Thursday 9:00 am-6:00 pm, Friday 9:00 am-6:00 pm, Saturday 10:00 am-5:00 pm, Sunday -Closed",,,
"Red Wing - Sherman, TX",,1725 Texoma Parkway,,Sherman,TX,75090,USA,(903) 892-4428,,,"Monday 9:30 am-6:00 pm, Tuesday 9:30 am-6:00 pm, Wednesday 9:30 am-6:00 pm, Thursday 9:30 am-6:00 pm, Friday 9:30 am-6:00 pm, Saturday 10:00 am-5:00 pm, Sunday -Closed",,,
"Red Wing - Richardson, TX",,630 S Central Expwy,,Richardson,TX,75080,USA,(972) 907-1106,,,"Monday 9:00 am-7:00 pm, Tuesday 9:00 am-7:00 pm, Wednesday 9:00 am-7:00 pm, Thursday 9:00 am-7:00 pm, Friday 9:00 am-5:00 pm, Saturday 9:00 am-5:00 pm, Sunday -Closed",,,
"Red Wing - Pleasanton, TX",,1504 2nd St,,Pleasanton,TX,78064,USA,(830) 569-0053,,,"Monday 8:00 am-6:00 pm, Tuesday 8:00 am-6:00 pm, Wednesday 8:00 am-6:00 pm, Thursday 8:00 am-6:00 pm, Friday 8:00 am-6:00 pm, Saturday 9:00 am-4:00 pm, Sunday -Closed",,,
"Red Wing - Round Rock, TX",,1401 S Interstate 35,,Round Rock,TX,78664,USA,(512) 218-1351,,,"Monday 9:30 am-7:00 pm, Tuesday 9:30 am-7:00 pm, Wednesday 9:30 am-7:00 pm, Thursday 9:30 am-7:00 pm, Friday 9:30 am-7:00 pm, Saturday 9:30 am-5:00 pm, Sunday 12:00 pm-5:00 pm",,,
"Red Wing - Plano, TX",,3933 N Central Expressway,,Plano,TX,75023,USA,(972) 398-2828,,,"Monday 9:00 am-6:00 pm, Tuesday 9:00 am-6:00 pm, Wednesday 9:00 am-6:00 pm, Thursday 9:00 am-6:00 pm, Friday 9:00 am-5:00 pm, Saturday 10:00 am-5:00 pm, Sunday -Closed",,,
"Red Wing - San Antonio, TX",,6515 Bandera Rd,,San Antonio,TX,78238,USA,(210) 680-1796,,,"Monday 10:00 am-7:00 pm, Tuesday 10:00 am-7:00 pm, Wednesday 10:00 am-7:00 pm, Thursday 10:00 am-7:00 pm, Friday 10:00 am-7:00 pm, Saturday 10:00 am-6:00 pm, Sunday -Closed",,,
"Red Wing - San Angelo, TX",,3306 Knickerbocker Rd,,San Angelo,TX,76904,USA,(325) 949-1804,,,"Monday 8:30 am-6:00 pm, Tuesday 8:30 am-6:00 pm, Wednesday 8:30 am-6:00 pm, Thursday 8:30 am-6:00 pm, Friday 8:30 am-6:00 pm, Saturday 9:00 am-5:00 pm, Sunday -Closed",,,
"Red Wing - Pearland, TX",,3609 Business Center Dr,,Pearland,TX,77584,USA,(281) 412-0707,,,"Monday 9:00 am-6:00 pm, Tuesday 9:00 am-6:00 pm, Wednesday 9:00 am-6:00 pm, Thursday 9:00 am-6:00 pm, Friday 9:00 am-6:00 pm, Saturday 9:00 am-5:00 pm, Sunday -Closed",,,
"Red Wing - Pasadena, TX",,7219 Fairmont Parkway,,Pasadena,TX,77505,USA,(281) 998-0101,,,"Monday 9:00 am-7:00 pm, Tuesday 9:00 am-7:00 pm, Wednesday 9:00 am-7:00 pm, Thursday 9:00 am-7:00 pm, Friday 9:00 am-7:00 pm, Saturday 9:00 am-5:00 pm, Sunday -Closed",,,
"Red Wing - Midland, TX",,412 Andrews Hwy,,Midland,TX,79701,USA,(432) 682-2651,,,"Monday 8:30 am-6:00 pm, Tuesday 8:30 am-6:00 pm, Wednesday 8:30 am-6:00 pm, Thursday 8:30 am-6:00 pm, Friday 8:30 am-6:00 pm, Saturday 8:30 am-5:00 pm, Sunday -Closed",,,
"Red Wing - McKinney, TX",,1751 North Central Expressway,,McKinney,TX,75070,USA,(214) 842-8917,,,"Monday 10:00 am-6:00 pm, Tuesday 10:00 am-6:00 pm, Wednesday 10:00 am-6:00 pm, Thursday 10:00 am-6:00 pm, Friday 10:00 am-6:00 pm, Saturday 10:00 am-5:00 pm, Sunday -Closed",,,
"Red Wing - North Richland Hills, TX",,6305 Precinct Line Rd,,North Richland Hills,TX,76180,USA,(817) 428-8200,,,"Monday 9:30 am-6:30 pm, Tuesday 9:30 am-6:30 pm, Wednesday 9:30 am-6:30 pm, Thursday 9:30 am-6:30 pm, Friday 9:30 am-6:30 pm, Saturday 9:30 am-6:30 pm, Sunday -Closed",,,
"Red Wing - New Braunfels, TX",,1279 E Common St,,New Braunfels,TX,78130,USA,(830) 629-2400,,,"Monday 9:00 am-6:00 pm, Tuesday 9:00 am-6:00 pm, Wednesday 9:00 am-6:00 pm, Thursday 9:00 am-6:00 pm, Friday 9:00 am-6:00 pm, Saturday 9:00 am-3:00 pm, Sunday -Closed",,,
"Red Wing - Odessa, TX",,2025 N County Road W,,Odessa,TX,79763,USA,(432) 337-0071,,,"Monday 8:00 am-6:30 pm, Tuesday 8:00 am-6:30 pm, Wednesday 8:00 am-6:30 pm, Thursday 8:00 am-6:30 pm, Friday 8:00 am-6:30 pm, Saturday 9:00 am-5:00 pm, Sunday -Closed",,,
"Red Wing - San Antonio, TX",,5368 Walzem Rd,,San Antonio,TX,78218,USA,(210) 637-7288,,,"Monday 10:00 am-7:00 pm, Tuesday 10:00 am-7:00 pm, Wednesday 10:00 am-7:00 pm, Thursday 10:00 am-7:00 pm, Friday 10:00 am-7:00 pm, Saturday 10:00 am-6:00 pm, Sunday -Closed",,,
"Red Wing - San Antonio, TX",,5630 W Loop 1604 N,,San Antonio,TX,78251,USA,(210) 251-2448,,,"Monday 10:00 am-7:00 pm, Tuesday 10:00 am-7:00 pm, Wednesday 10:00 am-7:00 pm, Thursday 10:00 am-7:00 pm, Friday 10:00 am-7:00 pm, Saturday 10:00 am-7:00 pm, Sunday -Closed",,,
"Red Wing - San Antonio, TX",,7105 San Pedro Ave,,San Antonio,TX,78216,USA,(210) 342-4711,,,"Monday 10:00 am-7:00 pm, Tuesday 10:00 am-7:00 pm, Wednesday 10:00 am-7:00 pm, Thursday 10:00 am-7:00 pm, Friday 10:00 am-7:00 pm, Saturday 10:00 am-7:00 pm, Sunday 12:00 pm-5:00 pm",,,
"Red Wing - San Antonio, TX",,1413 SW Military Dr,,San Antonio,TX,78221,USA,(210) 922-2901,,,"Monday 10:00 am-7:00 pm, Tuesday 10:00 am-7:00 pm, Wednesday 10:00 am-7:00 pm, Thursday 10:00 am-7:00 pm, Friday 10:00 am-7:00 pm, Saturday 10:00 am-5:00 pm, Sunday -Closed",,,
"Red Wing - Mcallen, TX",,2013 N 10th St,,Mcallen,TX,78501,USA,(956) 682-8428,,,"Monday 9:00 am-6:00 pm, Tuesday 9:00 am-6:00 pm, Wednesday 9:00 am-6:00 pm, Thursday 9:00 am-6:00 pm, Friday 9:00 am-6:00 pm, Saturday 9:00 am-6:00 pm, Sunday 12:00 pm-4:00 pm",,,
"Red Wing - Lufkin, TX",,2950 S John Redditt Dr,,Lufkin,TX,75904,USA,(936) 630-7463,,,"Monday 9:00 am-6:00 pm, Tuesday 9:00 am-6:00 pm, Wednesday 9:00 am-6:00 pm, Thursday 9:00 am-6:00 pm, Friday 9:00 am-6:00 pm, Saturday 10:00 am-5:00 pm, Sunday -Closed",,,
"Red Wing - Lake Jackson, TX",,106 Hwy 332 West,,Lake Jackson,TX,77566,USA,(979) 480-0944,,,"Monday 9:00 am-7:00 pm, Tuesday 9:00 am-7:00 pm, Wednesday 9:00 am-7:00 pm, Thursday 9:00 am-7:00 pm, Friday 9:00 am-7:00 pm, Saturday 9:00 am-5:00 pm, Sunday 1:00 pm-5:00 pm",,,
"Red Wing - Kenedy, TX",,157 Boardwalk,,Kenedy,TX,78119,USA,(830) 583-0653,,,"Monday 9:00 am-7:00 pm, Tuesday 9:00 am-7:00 pm, Wednesday 9:00 am-7:00 pm, Thursday 9:00 am-7:00 pm, Friday 9:00 am-7:00 pm, Saturday 9:00 am-5:00 pm, Sunday -Closed",,,
"Red Wing - Lewisville, TX",,2403 S Stemmons Freeway,,Lewisville,TX,75067,USA,(214) 488-5191,,,"Monday 9:00 am-7:00 pm, Tuesday 9:00 am-7:00 pm, Wednesday 9:00 am-7:00 pm, Thursday 9:00 am-7:00 pm, Friday 9:00 am-7:00 pm, Saturday 9:00 am-6:00 pm, Sunday 12:00 pm-5:00 pm",,,
"Red Wing - Keller, TX",,801 S Main St,,Keller,TX,76248,USA,(817) 431-5333,,,"Monday 10:00 am-6:00 pm, Tuesday 10:00 am-6:00 pm, Wednesday 10:00 am-6:00 pm, Thursday 10:00 am-6:00 pm, Friday 10:00 am-6:00 pm, Saturday 10:00 am-5:00 pm, Sunday -Closed",,,
"Red Wing - Katy, TX",,21953 Katy Fwy,,Katy,TX,77450,USA,(281) 395-5377,,,"Monday 10:00 am-7:00 pm, Tuesday 10:00 am-7:00 pm, Wednesday 10:00 am-7:00 pm, Thursday 10:00 am-7:00 pm, Friday 10:00 am-7:00 pm, Saturday 10:00 am-5:00 pm, Sunday -Closed",,,
"Red Wing - Longview, TX",,305 West Loop 281,,Longview,TX,75605,USA,(903) 663-6000,,,"Monday 9:00 am-6:00 pm, Tuesday 9:00 am-6:00 pm, Wednesday 9:00 am-6:00 pm, Thursday 9:00 am-6:00 pm, Friday 9:00 am-6:00 pm, Saturday 9:00 am-5:00 pm, Sunday -Closed",,,
"Red Wing - Lubbock, TX",,2718 50th St,,Lubbock,TX,79413,USA,(806) 793-6242,,,"Monday 9:00 am-6:00 pm, Tuesday 9:00 am-6:00 pm, Wednesday 9:00 am-6:00 pm, Thursday 9:00 am-6:00 pm, Friday 9:00 am-6:00 pm, Saturday 9:00 am-5:00 pm, Sunday -Closed",,,
"Red Wing - Irving, TX",,2542 N Belt Line Rd,,Irving,TX,75062,USA,(972) 252-6626,,,"Monday 9:00 am-7:00 pm, Tuesday 9:00 am-7:00 pm, Wednesday 9:00 am-7:00 pm, Thursday 9:00 am-7:00 pm, Friday 9:00 am-7:00 pm, Saturday 9:30 am-6:00 pm, Sunday 12:00 pm-4:30 pm",,,
"Red Wing - Garland, TX",,6226 Broadway Blvd,,Garland,TX,75043,USA,(972) 278-9654,,,"Monday 10:00 am-6:00 pm, Tuesday 10:00 am-6:00 pm, Wednesday 10:00 am-6:00 pm, Thursday 10:00 am-6:00 pm, Friday 10:00 am-6:00 pm, Saturday 10:00 am-5:00 pm, Sunday -Closed",,,
"Red Wing - Fort Worth, TX",,5918 Curzon Ave,,Fort Worth,TX,76107,USA,(817) 731-2271,,,"Monday 10:00 am-6:00 pm, Tuesday 10:00 am-6:00 pm, Wednesday 10:00 am-6:00 pm, Thursday 10:00 am-6:00 pm, Friday 10:00 am-6:00 pm, Saturday 10:00 am-5:00 pm, Sunday -Closed",,,
"Red Wing - Harlingen, TX",,823 Ed Carey Dr,,Harlingen,TX,78550,USA,(956) 423-7469,,,"Monday 9:30 am-7:00 pm, Tuesday 9:30 am-7:00 pm, Wednesday 9:30 am-7:00 pm, Thursday 9:30 am-7:00 pm, Friday 9:30 am-7:00 pm, Saturday 9:30 am-5:00 pm, Sunday 12:00 pm-4:00 pm",,,
"Red Wing - El Paso, TX",,1331 Lee Trevino,,El Paso,TX,79936,USA,(915) 594-0868,,,"Monday 10:00 am-6:00 pm, Tuesday 10:00 am-6:00 pm, Wednesday 10:00 am-6:00 pm, Thursday 10:00 am-6:00 pm, Friday 10:00 am-6:00 pm, Saturday 10:00 am-5:00 pm, Sunday -Closed",,,
"Red Wing - Denton, TX",,1634 W University Dr,,Denton,TX,76201,USA,(940) 382-3512,,,"Monday 9:30 am-6:00 pm, Tuesday 9:30 am-6:00 pm, Wednesday 9:30 am-6:00 pm, Thursday 9:30 am-6:00 pm, Friday 9:30 am-6:00 pm, Saturday 10:00 am-5:00 pm, Sunday -Closed",,,
"Red Wing - Houston, TX",,2139 Farm to Market 1960 Rd West,,Houston,TX,77090,USA,(281) 580-1737,,,"Monday 10:00 am-6:00 pm, Tuesday 10:00 am-6:00 pm, Wednesday 10:00 am-6:00 pm, Thursday 10:00 am-6:00 pm, Friday 10:00 am-6:00 pm, Saturday 10:00 am-5:00 pm, Sunday 12:00 pm-4:00 pm",,,
"Red Wing - Dallas, TX",,1515 N Cockrell Hill Rd,,Dallas,TX,75211,USA,(214) 339-1284,,,"Monday 9:00 am-7:00 pm, Tuesday 9:00 am-7:00 pm, Wednesday 9:00 am-7:00 pm, Thursday 9:00 am-7:00 pm, Friday 9:00 am-7:00 pm, Saturday 9:00 am-5:00 pm, Sunday 12:00 pm-5:00 pm",,,
"Red Wing - Houston, TX",,14095 NW Freeway,,Houston,TX,77040,USA,(713) 680-3101,,,"Monday 9:00 am-7:00 pm, Tuesday 9:00 am-7:00 pm, Wednesday 9:00 am-7:00 pm, Thursday 9:00 am-7:00 pm, Friday 9:00 am-7:00 pm, Saturday 10:00 am-5:00 pm, Sunday -Closed",,,
"Red Wing - Corpus Christi, TX",,4315 S Port Ave,,Corpus Christi,TX,78415,USA,(361) 853-9481,,,"Monday 9:00 am-7:00 pm, Tuesday 9:00 am-7:00 pm, Wednesday 9:00 am-7:00 pm, Thursday 9:00 am-7:00 pm, Friday 9:00 am-7:00 pm, Saturday 9:00 am-6:00 pm, Sunday 12:00 pm-4:00 pm",,,
"Red Wing - Conroe, TX",,2105 West Davis,,Conroe,TX,77304,USA,(936) 539-2668,,,"Monday 9:00 am-6:00 pm, Tuesday 9:00 am-6:00 pm, Wednesday 9:00 am-6:00 pm, Thursday 9:00 am-6:00 pm, Friday 9:00 am-6:00 pm, Saturday 9:00 am-5:00 pm, Sunday -Closed",,,
"Red Wing - Corpus Christi, TX",,6028 S Padre Island,,Corpus Christi,TX,78412,USA,(361) 992-7777,,,"Monday 9:00 am-7:00 pm, Tuesday 9:00 am-7:00 pm, Wednesday 9:00 am-7:00 pm, Thursday 9:00 am-7:00 pm, Friday 9:00 am-7:00 pm, Saturday 9:00 am-6:00 pm, Sunday 12:00 pm-4:00 pm",,,
"Red Wing - Cypress, TX",,22220 Northwest Freeway,,Cypress,TX,77429,USA,(281) 469-1577,,,"Monday 9:00 am-6:00 pm, Tuesday 9:00 am-6:00 pm, Wednesday 9:00 am-6:00 pm, Thursday 9:00 am-6:00 pm, Friday 9:00 am-6:00 pm, Saturday 10:00 am-5:00 pm, Sunday 11:00 am-3:00 pm",,,
"Red Wing - Houston, TX",,9930 Katy Freeway,,Houston,TX,77055,USA,(713) 932-0430,,,"Monday 10:00 am-7:00 pm, Tuesday 10:00 am-7:00 pm, Wednesday 10:00 am-7:00 pm, Thursday 10:00 am-7:00 pm, Friday 10:00 am-7:00 pm, Saturday 10:00 am-5:00 pm, Sunday -Closed",,,
"Red Wing - Houston, TX",,13421 E Freeway,,Houston,TX,77015,USA,(713) 451-2008,,,"Monday 9:00 am-7:00 pm, Tuesday 9:00 am-7:00 pm, Wednesday 9:00 am-7:00 pm, Thursday 9:00 am-7:00 pm, Friday 9:00 am-7:00 pm, Saturday 9:00 am-5:00 pm, Sunday -Closed",,,
"Red Wing - Houston, TX",,2710 Reed Rd,,Houston,TX,77051,USA,(713) 738-5200,,,"Monday 8:00 am-6:00 pm, Tuesday 8:00 am-6:00 pm, Wednesday 8:00 am-6:00 pm, Thursday 8:00 am-6:00 pm, Friday 8:00 am-6:00 pm, Saturday 10:00 am-4:00 pm, Sunday 12:00 pm-4:00 pm",,,
"Red Wing - Humble, TX",,9441 FM 1960 Bypass Rd W,,Humble,TX,77338,USA,(832) 644-9403,,,"Monday 9:00 am-7:00 pm, Tuesday 9:00 am-7:00 pm, Wednesday 9:00 am-7:00 pm, Thursday 9:00 am-7:00 pm, Friday 9:00 am-7:00 pm, Saturday 9:00 am-5:00 pm, Sunday -Closed",,,
"Red Wing - Carrollton, TX",,1918 East Beltline Rd,,Carrollton,TX,75006,USA,(972) 416-1432,,,"Monday 9:00 am-6:00 pm, Tuesday 9:00 am-6:00 pm, Wednesday 9:00 am-6:00 pm, Thursday 9:00 am-6:00 pm, Friday 9:00 am-6:00 pm, Saturday 9:00 am-5:00 pm, Sunday -Closed",,,
"Red Wing - Bryan, TX",,3700 S Texas Ave,,Bryan,TX,77802,USA,(979) 846-3813,,,"Monday 10:00 am-7:00 pm, Tuesday 10:00 am-7:00 pm, Wednesday 10:00 am-7:00 pm, Thursday 10:00 am-7:00 pm, Friday 10:00 am-7:00 pm, Saturday 10:00 am-5:00 pm, Sunday -Closed",,,
"Red Wing - Burleson, TX",,1001 SW Wilshire Blvd,,Burleson,TX,76028,USA,(817) 426-0030,,,"Monday 9:00 am-6:00 pm, Tuesday 9:00 am-6:00 pm, Wednesday 9:00 am-6:00 pm, Thursday 9:00 am-6:00 pm, Friday 9:00 am-6:00 pm, Saturday 10:00 am-5:00 pm, Sunday -Closed",,,
"Red Wing - Baytown, TX",,4810 East Freeway,,Baytown,TX,77521,USA,(281) 420-2143,,,"Monday 9:00 am-7:00 pm, Tuesday 9:00 am-7:00 pm, Wednesday 9:00 am-7:00 pm, Thursday 9:00 am-7:00 pm, Friday 9:00 am-7:00 pm, Saturday 9:00 am-5:00 pm, Sunday -Closed",,,
"Red Wing - Bellaire, TX",,5407 Bellaire Blvd,,Bellaire,TX,77401,USA,(713) 666-8311,,,"Monday 9:30 am-7:00 pm, Tuesday 9:30 am-7:00 pm, Wednesday 9:30 am-7:00 pm, Thursday 9:30 am-7:00 pm, Friday 9:30 am-7:00 pm, Saturday 9:00 am-5:00 pm, Sunday -Closed",,,
"Red Wing - Austin, TX",,8440 Burnet Rd,,Austin,TX,78757,USA,(512) 452-1575,,,"Monday 9:30 am-7:00 pm, Tuesday 9:30 am-7:00 pm, Wednesday 9:30 am-7:00 pm, Thursday 9:30 am-7:00 pm, Friday 9:30 am-7:00 pm, Saturday 9:30 am-5:00 pm, Sunday 12:00 pm-5:00 pm",,,
"Red Wing - Austin, TX",,3005 S Lamar,,Austin,TX,78704,USA,(512) 443-3766,,,"Monday 9:30 am-7:00 pm, Tuesday 9:30 am-7:00 pm, Wednesday 9:30 am-7:00 pm, Thursday 9:30 am-7:00 pm, Friday 9:30 am-7:00 pm, Saturday 9:30 am-5:00 pm, Sunday 12:00 pm-5:00 pm",,,
"Red Wing - Amarillo, TX",,3333 S Coulter St,,Amarillo,TX,79106,USA,(806) 355-5991,,,"Monday 9:00 am-6:00 pm, Tuesday 9:00 am-6:00 pm, Wednesday 9:00 am-6:00 pm, Thursday 9:00 am-6:00 pm, Friday 9:00 am-6:00 pm, Saturday 9:00 am-6:00 pm, Sunday -Closed",,,
"Red Wing - Abilene, TX",,3124 N 1st St,,Abilene,TX,79603,USA,(325) 673-9631,,,"Monday 9:00 am-6:00 pm, Tuesday 9:00 am-6:00 pm, Wednesday 9:00 am-6:00 pm, Thursday 9:00 am-6:00 pm, Friday 9:00 am-6:00 pm, Saturday 9:30 am-6:00 pm, Sunday -Closed",,,
"Red Wing - Arlington, TX",,3751 Matlock Rd,,Arlington,TX,76015,USA,(817) 468-8171,,,"Monday 10:00 am-7:00 pm, Tuesday 10:00 am-7:00 pm, Wednesday 10:00 am-7:00 pm, Thursday 10:00 am-7:00 pm, Friday 10:00 am-7:00 pm, Saturday 10:00 am-5:00 pm, Sunday 1:00 pm-5:00 pm",,,
"Red Wing - Beaumont, TX",,3936 Eastex Freeway,,Beaumont,TX,77703,USA,(409) 896-5080,,,"Monday 9:00 am-7:00 pm, Tuesday 9:00 am-7:00 pm, Wednesday 9:00 am-7:00 pm, Thursday 9:00 am-7:00 pm, Friday 9:00 am-7:00 pm, Saturday 9:00 am-5:00 pm, Sunday 12:00 pm-5:00 pm",,,
"Red Wing - Fredericksburg, VA",,3579 Plank Road,,Fredericksburg,VA,22407,USA,(540) 548-4775,,,"Monday 10:00 am-7:00 pm, Tuesday 10:00 am-7:00 pm, Wednesday 10:00 am-7:00 pm, Thursday 10:00 am-7:00 pm, Friday 10:00 am-7:00 pm, Saturday 10:00 am-5:00 pm, Sunday 12:00 pm-4:00 pm",,,
"Red Wing - Hampton, VA",,70 Coliseum Crossing,,Hampton,VA,23666,USA,(757) 825-1309,,,,,,
"Red Wing - Fairfax, VA",,10955 Fairfax Blvd,,Fairfax,VA,22030,USA,(703) 277-3450,,,"Monday 10:00 am-8:00 pm, Tuesday 10:00 am-8:00 pm, Wednesday 10:00 am-8:00 pm, Thursday 10:00 am-8:00 pm, Friday 10:00 am-8:00 pm, Saturday 10:00 am-6:00 pm, Sunday 11:00 am-4:00 pm",,,
"Red Wing - Henrico, VA",,8191 Brook Rd,,Henrico,VA,23227,USA,(804) 261-2277,,,"Monday 9:30 am-7:00 pm, Tuesday 9:30 am-7:00 pm, Wednesday 9:30 am-7:00 pm, Thursday 9:30 am-7:00 pm, Friday 9:30 am-7:00 pm, Saturday 9:30 am-5:00 pm, Sunday -Closed",,,
"Red Wing - Charlottesville, VA",,1926 Abbey Rd,,Charlottesville,VA,22911,USA,(434) 529-6761,,,"Monday 9:30 am-7:00 pm, Tuesday 9:30 am-7:00 pm, Wednesday 9:30 am-7:00 pm, Thursday 9:30 am-7:00 pm, Friday 9:30 am-7:00 pm, Saturday 9:30 am-5:00 pm, Sunday -Closed",,,
"Red Wing - Chester, VA",,2633 W Hundred Rd,,Chester,VA,23831,USA,(804) 706-1712,,,"Monday 9:30 am-7:00 pm, Tuesday 9:30 am-7:00 pm, Wednesday 9:30 am-7:00 pm, Thursday 9:30 am-7:00 pm, Friday 9:30 am-7:00 pm, Saturday 9:30 am-5:00 pm, Sunday -Closed",,,
"Red Wing - Chesapeake, VA",,681 A N Battlefield Blvd,,Chesapeake,VA,23320,USA,(757) 548-2232,,,"Monday 9:00 am-7:00 pm, Tuesday 9:00 am-7:00 pm, Wednesday 9:00 am-7:00 pm, Thursday 9:00 am-7:00 pm, Friday 9:00 am-7:00 pm, Saturday 9:00 am-5:00 pm, Sunday 11:00 am-4:00 pm",,,
"Red Wing - Manassas, VA",,7428 Sudley Rd,,Manassas,VA,20109,USA,(703) 479-2709,,,"Monday 10:00 am-7:00 pm, Tuesday 10:00 am-7:00 pm, Wednesday 10:00 am-7:00 pm, Thursday 10:00 am-7:00 pm, Friday 10:00 am-7:00 pm, Saturday 11:00 am-5:00 pm, Sunday 11:00 am-4:00 pm",,,
"Red Wing - Yonkers, NY",,2355 Central Park Ave,,Yonkers,NY,10710,USA,(914) 779-0131,,,"Monday 10:00 am-8:00 pm, Tuesday 10:00 am-8:00 pm, Wednesday 10:00 am-8:00 pm, Thursday 10:00 am-8:00 pm, Friday 10:00 am-8:00 pm, Saturday 9:00 am-6:00 pm, Sunday 11:00 am-4:00 pm",,,
"Red Wing - Westerville, OH",,87 W Schrock Rd,,Westerville,OH,43081,USA,(614) 899-0366,,,"Monday 10:00 am-7:00 pm, Tuesday 10:00 am-7:00 pm, Wednesday 10:00 am-7:00 pm, Thursday 10:00 am-7:00 pm, Friday 10:00 am-6:00 pm, Saturday 9:00 am-5:00 pm, Sunday 12:00 pm-5:00 pm",,,
"Red Wing - Wickliffe, OH",,29670 Euclid Ave,,Wickliffe,OH,44092,USA,(440) 585-5923,,,"Monday 10:00 am-6:00 pm, Tuesday 10:00 am-6:00 pm, Wednesday 10:00 am-6:00 pm, Thursday 10:00 am-6:00 pm, Friday 10:00 am-6:00 pm, Saturday 9:00 am-5:00 pm, Sunday -Closed",,,
"Red Wing - Westbury, NY",,1610 Old Country Rd,,Westbury,NY,11590,USA,(516) 222-6239,,,"Monday 10:00 am-8:00 pm, Tuesday 10:00 am-8:00 pm, Wednesday 10:00 am-8:00 pm, Thursday 10:00 am-8:00 pm, Friday 10:00 am-8:00 pm, Saturday 9:00 am-6:00 pm, Sunday 11:00 am-5:00 pm",,,
"Red Wing - Rochester, NY",,2680 W Ridge Rd,,Rochester,NY,14626,USA,(585) 453-9294,,,"Monday 9:00 am-8:00 pm, Tuesday 9:00 am-8:00 pm, Wednesday 9:00 am-8:00 pm, Thursday 9:00 am-8:00 pm, Friday 9:00 am-8:00 pm, Saturday 9:00 am-5:00 pm, Sunday 11:00 am-4:00 pm",,,
"Red Wing - Rochester, NY",,3333 W Henrietta Rd,,Rochester,NY,14623,USA,(585) 427-8840,,,"Monday 9:00 am-8:00 pm, Tuesday 9:00 am-8:00 pm, Wednesday 9:00 am-8:00 pm, Thursday 9:00 am-8:00 pm, Friday 9:00 am-8:00 pm, Saturday 9:00 am-6:00 pm, Sunday 11:00 am-4:00 pm",,,
"Red Wing - Sunnyside, NY",,47 01 Queens Blvd,,Sunnyside,NY,11104,USA,(718) 392-2242,,,"Monday 9:00 am-8:00 pm, Tuesday 9:00 am-8:00 pm, Wednesday 9:00 am-8:00 pm, Thursday 9:00 am-8:00 pm, Friday 9:00 am-8:00 pm, Saturday 9:00 am-6:00 pm, Sunday 11:00 am-5:00 pm",,,
"Red Wing - Miller Place, NY",,691 Rt 25A,,Miller Place,NY,11764,USA,(631) 849-5599,,,"Monday 10:00 am-7:00 pm, Tuesday 10:00 am-7:00 pm, Wednesday 10:00 am-8:00 pm, Thursday 10:00 am-7:00 pm, Friday 10:00 am-7:00 pm, Saturday 10:00 am-5:00 pm, Sunday -Closed",,,
"Red Wing - Huntington Station, NY",,125 Walt Whitman Rd,,Huntington Station,NY,11746,USA,(631) 683-5288,,,"Monday 10:00 am-8:00 pm, Tuesday 10:00 am-8:00 pm, Wednesday 10:00 am-8:00 pm, Thursday 10:00 am-8:00 pm, Friday 10:00 am-8:00 pm, Saturday 10:00 am-6:00 pm, Sunday 11:00 am-5:00 pm",,,
"Red Wing - Howard Beach, NY",,157-02 Crossbay Blvd,,Howard Beach,NY,11414,USA,(718) 845-8300,,,"Monday 9:00 am-8:00 pm, Tuesday 9:00 am-8:00 pm, Wednesday 9:00 am-8:00 pm, Thursday 9:00 am-8:00 pm, Friday 9:00 am-8:00 pm, Saturday 9:00 am-6:00 pm, Sunday 11:00 am-4:00 pm",,,
"Red Wing - Massapequa, NY",,6120 Sunrise Hwy,,Massapequa,NY,11758,USA,(516) 799-2027,,,"Monday 10:00 am-8:00 pm, Tuesday 10:00 am-8:00 pm, Wednesday 10:00 am-8:00 pm, Thursday 10:00 am-8:00 pm, Friday 10:00 am-8:00 pm, Saturday 9:00 am-6:00 pm, Sunday 11:00 am-5:00 pm",,,
"Red Wing - Holbrook, NY",,5801 Sunrise Hwy,,Holbrook,NY,11741,USA,(631) 563-7571,,,"Monday 10:00 am-8:00 pm, Tuesday 10:00 am-8:00 pm, Wednesday 10:00 am-8:00 pm, Thursday 10:00 am-8:00 pm, Friday 10:00 am-8:00 pm, Saturday 9:00 am-6:00 pm, Sunday 11:00 am-5:00 pm",,,
"Red Wing - Clifton Park, NY",,22 Clifton Country Rd,,Clifton Park,NY,12065,USA,(518) 280-0155,,,"Monday 10:00 am-8:00 pm, Tuesday 10:00 am-8:00 pm, Wednesday 10:00 am-8:00 pm, Thursday 10:00 am-8:00 pm, Friday 10:00 am-8:00 pm, Saturday 10:00 am-5:00 pm, Sunday 11:00 am-4:00 pm",,,
"Red Wing - Cicero, NY",,7901 Brewerton Rd,,Cicero,NY,13039,USA,(315) 699-7187,,,"Monday 10:00 am-8:00 pm, Tuesday 10:00 am-8:00 pm, Wednesday 10:00 am-8:00 pm, Thursday 10:00 am-8:00 pm, Friday 10:00 am-8:00 pm, Saturday 9:00 am-5:00 pm, Sunday 11:00 am-4:00 pm",,,
"Red Wing - Brooklyn, NY",,346 4th Ave,,Brooklyn,NY,11215,USA,(718) 855-8190,,,"Monday 9:00 am-8:00 pm, Tuesday 9:00 am-8:00 pm, Wednesday 9:00 am-8:00 pm, Thursday 9:00 am-8:00 pm, Friday 9:00 am-8:00 pm, Saturday 9:00 am-6:00 pm, Sunday 11:00 am-4:00 pm",,,
"Red Wing - Depew, NY",,6354 Transit Rd,,Depew,NY,14043,USA,(716) 681-2060,,,"Monday 10:00 am-8:00 pm, Tuesday 10:00 am-8:00 pm, Wednesday 10:00 am-8:00 pm, Thursday 10:00 am-8:00 pm, Friday 10:00 am-8:00 pm, Saturday 9:00 am-5:00 pm, Sunday 11:00 am-4:00 pm",,,
"Red Wing - Springfield, OH",,227 E Home Rd,,Springfield,OH,45503,USA,(937) 399-6436,,,"Monday 9:00 am-6:00 pm, Tuesday 9:00 am-6:00 pm, Wednesday 9:00 am-6:00 pm, Thursday 9:00 am-6:00 pm, Friday 9:00 am-6:00 pm, Saturday 10:00 am-3:00 pm, Sunday -Closed",,,
"Red Wing - Tallmadge, OH",,444 West Ave,,Tallmadge,OH,44278,USA,(330) 633-0075,,,"Monday 10:00 am-8:00 pm, Tuesday 10:00 am-8:00 pm, Wednesday 10:00 am-8:00 pm, Thursday 10:00 am-8:00 pm, Friday 10:00 am-6:00 pm, Saturday 9:00 am-5:00 pm, Sunday 11:00 am-3:00 pm",,,
"Red Wing - Toledo, OH",,20 E Alexis Rd,,Toledo,OH,43612,USA,(419) 478-4007,,,"Monday 10:00 am-8:00 pm, Tuesday 10:00 am-8:00 pm, Wednesday 10:00 am-8:00 pm, Thursday 10:00 am-8:00 pm, Friday 10:00 am-8:00 pm, Saturday 10:00 am-5:00 pm, Sunday -Closed",,,
"Red Wing - Reynoldsburg, OH",,6587 E Main St,,Reynoldsburg,OH,43068,USA,(614) 864-2809,,,"Monday 10:00 am-7:00 pm, Tuesday 10:00 am-7:00 pm, Wednesday 10:00 am-7:00 pm, Thursday 10:00 am-7:00 pm, Friday 10:00 am-6:00 pm, Saturday 9:00 am-5:00 pm, Sunday 12:00 pm-5:00 pm",,,
"Red Wing - Toledo, OH",,2122 N Reynolds Rd,,Toledo,OH,43615,USA,(419) 531-1948,,,"Monday 9:00 am-8:00 pm, Tuesday 9:00 am-8:00 pm, Wednesday 9:00 am-8:00 pm, Thursday 9:00 am-8:00 pm, Friday 9:00 am-8:00 pm, Saturday 9:00 am-5:00 pm, Sunday 12:00 pm-4:00 pm",,,
"Red Wing - Tonawanda, NY",,1060 Niagara Falls Blvd,,Tonawanda,NY,14150,USA,(716) 836-5424,,,"Monday 10:00 am-8:00 pm, Tuesday 10:00 am-8:00 pm, Wednesday 10:00 am-8:00 pm, Thursday 10:00 am-8:00 pm, Friday 10:00 am-8:00 pm, Saturday 9:00 am-5:00 pm, Sunday 11:00 am-4:00 pm",,,
"Red Wing - Brownsville, TX",,2404 Boca Chica Blvd,,Brownsville,TX,78521,USA,(956) 546-0595,,,"Monday 10:00 am-7:00 pm, Tuesday 10:00 am-7:00 pm, Wednesday 10:00 am-7:00 pm, Thursday 10:00 am-7:00 pm, Friday 10:00 am-7:00 pm, Saturday 10:00 am-6:00 pm, Sunday 1:00 pm-5:00 pm",,,
"Red Wing - North Olmsted, OH",,4585 Great Northern Blvd,,North Olmsted,OH,44070,USA,(440) 777-6525,,,"Monday 10:00 am-7:00 pm, Tuesday 10:00 am-7:00 pm, Wednesday 10:00 am-7:00 pm, Thursday 10:00 am-7:00 pm, Friday 10:00 am-7:00 pm, Saturday 9:00 am-5:00 pm, Sunday 12:00 pm-5:00 pm",,,
"Red Wing - Niles, OH",,6261 Youngstown Warren Rd,,Niles,OH,44446,USA,(330) 544-5955,,,"Monday 10:00 am-8:00 pm, Tuesday 10:00 am-8:00 pm, Wednesday 10:00 am-8:00 pm, Thursday 10:00 am-8:00 pm, Friday 10:00 am-6:00 pm, Saturday 10:00 am-5:00 pm, Sunday 11:00 am-3:00 pm",,,
"Red Wing - Miamisburg, OH",,8114 S Springboro Pk,,Miamisburg,OH,45342,USA,(937) 439-3887,,,"Monday 10:00 am-8:00 pm, Tuesday 10:00 am-8:00 pm, Wednesday 10:00 am-8:00 pm, Thursday 10:00 am-8:00 pm, Friday 10:00 am-8:00 pm, Saturday 10:00 am-5:00 pm, Sunday -Closed",,,
"Red Wing - Middleburg Heights, OH",,7562 Pearl Rd,,Middleburg Heights,OH,44130,USA,(440) 260-0224,,,"Monday 10:00 am-7:00 pm, Tuesday 10:00 am-7:00 pm, Wednesday 10:00 am-7:00 pm, Thursday 10:00 am-7:00 pm, Friday 10:00 am-7:00 pm, Saturday 9:00 am-5:00 pm, Sunday 12:00 pm-5:00 pm",,,
"Red Wing - Maumee, OH",,209 Conant St,,Maumee,OH,43537,USA,(419) 893-8647,,,"Monday 9:00 am-8:00 pm, Tuesday 9:00 am-8:00 pm, Wednesday 9:00 am-8:00 pm, Thursday 9:00 am-8:00 pm, Friday 9:00 am-8:00 pm, Saturday 9:00 am-4:00 pm, Sunday 10:00 am-2:00 pm",,,
"Red Wing - Middletown, OH",,3525 Roosevelt Blvd,,Middletown,OH,45044,USA,(513) 422-1226,,,"Monday 9:00 am-7:00 pm, Tuesday 9:00 am-6:00 pm, Wednesday 9:00 am-6:00 pm, Thursday 9:00 am-6:00 pm, Friday 9:00 am-6:00 pm, Saturday 10:00 am-3:00 pm, Sunday -Closed",,,
"Red Wing - Kettering, OH",,3012 Woodman Dr,,Kettering,OH,45420,USA,(937) 294-6188,,,"Monday 9:00 am-7:00 pm, Tuesday 9:00 am-7:00 pm, Wednesday 9:00 am-7:00 pm, Thursday 9:00 am-7:00 pm, Friday 9:00 am-7:00 pm, Saturday 10:00 am-5:00 pm, Sunday -Closed",,,
"Red Wing - Lima, OH",,541 W North St,,Lima,OH,45801,USA,(419) 228-3039,,,"Monday 9:30 am-6:00 pm, Tuesday 9:30 am-6:00 pm, Wednesday 9:30 am-6:00 pm, Thursday 9:30 am-6:00 pm, Friday 9:30 am-6:00 pm, Saturday 9:30 am-5:00 pm, Sunday -Closed",,,
"Red Wing - Macedonia, OH",,8210 Macedonia Commons Blvd,,Macedonia,OH,44056,USA,(330) 467-0720,,,"Monday 10:00 am-7:00 pm, Tuesday 10:00 am-7:00 pm, Wednesday 10:00 am-7:00 pm, Thursday 10:00 am-7:00 pm, Friday 10:00 am-6:00 pm, Saturday 9:00 am-5:00 pm, Sunday 12:00 pm-4:00 pm",,,
"Red Wing - Huber Heights, OH",,6455 Chambersburg Rd,,Huber Heights,OH,45424,USA,(937) 236-1405,,,"Monday 10:00 am-7:00 pm, Tuesday 10:00 am-7:00 pm, Wednesday 10:00 am-7:00 pm, Thursday 10:00 am-7:00 pm, Friday 10:00 am-7:00 pm, Saturday 10:00 am-5:00 pm, Sunday -Closed",,,
"Red Wing - Cincinnati, OH",,10128 Princeton Glendale Rd,,Cincinnati,OH,45246,USA,(513) 874-7720,,,"Monday 10:00 am-6:00 pm, Tuesday 10:00 am-6:00 pm, Wednesday 10:00 am-6:00 pm, Thursday 10:00 am-7:00 pm, Friday 10:00 am-6:00 pm, Saturday 10:00 am-2:00 pm, Sunday -Closed",,,
"Red Wing - Cincinnati, OH",,8715 Fields-Ertel Rd,,Cincinnati,OH,45249,USA,(513) 247-9119,,,"Monday 10:00 am-8:00 pm, Tuesday 10:00 am-8:00 pm, Wednesday 10:00 am-8:00 pm, Thursday 10:00 am-8:00 pm, Friday 10:00 am-8:00 pm, Saturday 10:00 am-6:00 pm, Sunday 12:00 pm-5:00 pm",,,
"Red Wing - Cincinnati, OH",,6259 Glenway Ave,,Cincinnati,OH,45211,USA,(513) 661-7463,,,"Monday 10:00 am-8:00 pm, Tuesday 10:00 am-8:00 pm, Wednesday 10:00 am-8:00 pm, Thursday 10:00 am-8:00 pm, Friday 10:00 am-8:00 pm, Saturday 10:00 am-5:00 pm, Sunday 12:00 pm-4:00 pm",,,
"Red Wing - Canton, OH",,4131 Tuscarawas St W,,Canton,OH,44708,USA,(330) 478-1101,,,"Monday 10:00 am-8:00 pm, Tuesday 10:00 am-8:00 pm, Wednesday 10:00 am-8:00 pm, Thursday 10:00 am-8:00 pm, Friday 10:00 am-8:00 pm, Saturday 10:00 am-5:00 pm, Sunday 12:00 pm-4:00 pm",,,
"Red Wing - Akron, OH",,3900 Medina Rd,,Akron,OH,44333,USA,(330) 666-7410,,,"Monday 10:00 am-8:00 pm, Tuesday 10:00 am-8:00 pm, Wednesday 10:00 am-8:00 pm, Thursday 10:00 am-8:00 pm, Friday 10:00 am-8:00 pm, Saturday 9:00 am-5:00 pm, Sunday 11:00 am-3:00 pm",,,
"Red Wing - Cincinnati, OH",,761 Eastgate South Dr,,Cincinnati,OH,45245,USA,(513) 752-5501,,,"Monday 9:30 am-8:00 pm, Tuesday 9:30 am-8:00 pm, Wednesday 9:30 am-8:00 pm, Thursday 9:30 am-8:00 pm, Friday 9:30 am-8:00 pm, Saturday 10:00 am-5:00 pm, Sunday 11:00 am-4:00 pm",,,
"Red Wing - Columbus, OH",,6650 Sawmill Rd,,Columbus,OH,43235,USA,(614) 792-2668,,,"Monday 10:00 am-7:00 pm, Tuesday 10:00 am-7:00 pm, Wednesday 10:00 am-7:00 pm, Thursday 10:00 am-7:00 pm, Friday 10:00 am-6:00 pm, Saturday 9:00 am-5:00 pm, Sunday 12:00 pm-5:00 pm",,,
"Red Wing - Columbus, OH",,4901 W Broad St,,Columbus,OH,43228,USA,(614) 878-0569,,,"Monday 10:00 am-7:00 pm, Tuesday 10:00 am-7:00 pm, Wednesday 10:00 am-7:00 pm, Thursday 10:00 am-7:00 pm, Friday 10:00 am-6:00 pm, Saturday 9:00 am-5:00 pm, Sunday 12:00 pm-5:00 pm",,,
"Red Wing - Findlay, OH",,325 S Main St,,Findlay,OH,45840,USA,(419) 423-9990,,,"Monday 9:30 am-5:30 pm, Tuesday 9:30 am-5:30 pm, Wednesday 9:30 am-5:30 pm, Thursday 9:30 am-5:30 pm, Friday 9:30 am-5:30 pm, Saturday 9:30 am-5:00 pm, Sunday -Closed",,,
"Red Wing - Reno, NV",,299 E Plumb Lane,,Reno,NV,89502,USA,(775) 323-4966,,,"Monday 10:00 am-7:00 pm, Tuesday 10:00 am-7:00 pm, Wednesday 10:00 am-7:00 pm, Thursday 10:00 am-7:00 pm, Friday 10:00 am-7:00 pm, Saturday 10:00 am-5:00 pm, Sunday 11:00 am-4:00 pm",,,
"Red Wing - Carson City, NV",,444 E William St,,Carson City,NV,89701,USA,(775) 882-2319,,,"Monday 9:30 am-6:00 pm, Tuesday 9:30 am-6:00 pm, Wednesday 9:30 am-6:00 pm, Thursday 9:30 am-6:00 pm, Friday 9:30 am-6:00 pm, Saturday 9:30 am-5:00 pm, Sunday 11:00 am-4:00 pm",,,
"Red Wing - Las Vegas, NV",,2600 W Sahara Ave,,Las Vegas,NV,89102,USA,(702) 527-5596,,,"Monday 10:00 am-7:00 pm, Tuesday 10:00 am-7:00 pm, Wednesday 10:00 am-7:00 pm, Thursday 10:00 am-7:00 pm, Friday 10:00 am-7:00 pm, Saturday 10:00 am-6:00 pm, Sunday 11:00 am-5:00 pm",,,
"Red Wing - Albuquerque, NM",,9780 Coors Blvd,,Albuquerque,NM,87114,USA,(505) 792-4923,,,"Monday 9:00 am-7:00 pm, Tuesday 9:00 am-7:00 pm, Wednesday 9:00 am-7:00 pm, Thursday 9:00 am-7:00 pm, Friday 9:00 am-7:00 pm, Saturday 9:00 am-6:00 pm, Sunday 11:00 am-5:00 pm",,,
"Red Wing - Wayne, NJ",,57 Route 23 South,,Wayne,NJ,07470,USA,(973) 256-3323,,,"Monday 10:00 am-8:00 pm, Tuesday 10:00 am-8:00 pm, Wednesday 10:00 am-8:00 pm, Thursday 10:00 am-8:00 pm, Friday 10:00 am-8:00 pm, Saturday 9:00 am-6:00 pm, Sunday 11:00 am-4:00 pm",,,
"Red Wing - Union, NJ",,2264 US HWY 22 East,,Union,NJ,07083,USA,(908) 688-3666,,,"Monday 9:00 am-8:00 pm, Tuesday 9:00 am-8:00 pm, Wednesday 9:00 am-8:00 pm, Thursday 9:00 am-8:00 pm, Friday 9:00 am-8:00 pm, Saturday 9:00 am-6:00 pm, Sunday 11:00 am-4:00 pm",,,
"Red Wing - Amherst, NH",,124 Route 101A,,Amherst,NH,03031,USA,(603) 889-6481,,,"Monday 10:00 am-8:00 pm, Tuesday 10:00 am-8:00 pm, Wednesday 10:00 am-8:00 pm, Thursday 10:00 am-8:00 pm, Friday 10:00 am-8:00 pm, Saturday 10:00 am-8:00 pm, Sunday 12:00 pm-5:00 pm",,,
"Red Wing - Bedford, NH",,119 South River Rd,,Bedford,NH,03110,USA,(603) 626-4948,,,"Monday 10:00 am-8:00 pm, Tuesday 10:00 am-8:00 pm, Wednesday 10:00 am-8:00 pm, Thursday 10:00 am-8:00 pm, Friday 10:00 am-8:00 pm, Saturday 10:00 am-8:00 pm, Sunday 12:00 pm-5:00 pm",,,
"Red Wing - New Brunswick, NJ",,7B Jules Lane,,New Brunswick,NJ,08901-3611,USA,(732) 246-1071,,,"Monday 8:00 am-5:00 pm, Tuesday 8:00 am-5:00 pm, Wednesday 8:00 am-5:00 pm, Thursday 8:00 am-5:00 pm, Friday 8:00 am-5:00 pm, Saturday -Closed, Sunday -Closed",,,
"Red Wing - Hackensack, NJ",,450 Hackensack Ave,,Hackensack,NJ,07601,USA,(201) 342-5558,,,"Monday 10:00 am-8:00 pm, Tuesday 10:00 am-8:00 pm, Wednesday 10:00 am-8:00 pm, Thursday 10:00 am-8:00 pm, Friday 10:00 am-8:00 pm, Saturday 9:00 am-6:00 pm, Sunday -Closed",,,
"Red Wing - Green Brook, NJ",,263 US Hwy 22,,Green Brook,NJ,08812,USA,(732) 926-8080,,,"Monday 10:00 am-7:00 pm, Tuesday 10:00 am-7:00 pm, Wednesday 10:00 am-7:00 pm, Thursday 10:00 am-7:00 pm, Friday 10:00 am-7:00 pm, Saturday 10:00 am-5:00 pm, Sunday 11:00 am-4:00 pm",,,
"Red Wing - Edison, NJ",,1010 Rt 1 North,,Edison,NJ,08817,USA,(732) 548-6060,,,"Monday 10:00 am-8:00 pm, Tuesday 10:00 am-8:00 pm, Wednesday 10:00 am-8:00 pm, Thursday 10:00 am-8:00 pm, Friday 10:00 am-8:00 pm, Saturday 9:00 am-6:00 pm, Sunday 11:00 am-4:00 pm",,,
"Red Wing - Cherry Hill, NJ",,2000 Route 70 W,,Cherry Hill,NJ,08002,USA,(856) 665-0291,,,"Monday 10:00 am-8:00 pm, Tuesday 10:00 am-8:00 pm, Wednesday 10:00 am-8:00 pm, Thursday 10:00 am-8:00 pm, Friday 10:00 am-8:00 pm, Saturday 9:00 am-6:00 pm, Sunday 11:00 am-5:00 pm",,,
"Red Wing - Eatontown, NJ",,255 Route 35,,Eatontown,NJ,07724,USA,(732) 389-0964,,,"Monday 10:00 am-8:00 pm, Tuesday 10:00 am-8:00 pm, Wednesday 10:00 am-8:00 pm, Thursday 10:00 am-8:00 pm, Friday 10:00 am-8:00 pm, Saturday 9:00 am-6:00 pm, Sunday 11:00 am-4:00 pm",,,
"Red Wing - Albuquerque, NM",,5318 Menaul Blvd NE,,Albuquerque,NM,87110,USA,(505) 881-8311,,,"Monday 9:00 am-5:00 pm, Tuesday 9:00 am-5:00 pm, Wednesday 9:00 am-5:00 pm, Thursday 9:00 am-5:00 pm, Friday 9:00 am-5:00 pm, Saturday 9:00 am-5:00 pm, Sunday 11:00 am-5:00 pm",,,
"Red Wing - Las Vegas, NV",,4570 N Rancho Dr,,Las Vegas,NV,89130,USA,(702) 839-2668,,,"Monday 9:30 am-6:00 pm, Tuesday 9:30 am-6:00 pm, Wednesday 9:30 am-6:00 pm, Thursday 9:30 am-6:00 pm, Friday 9:30 am-6:00 pm, Saturday 9:00 am-5:00 pm, Sunday 11:00 am-4:00 pm",,,
"Red Wing - Las Vegas, NV",,2370 E Serene Ave,,Las Vegas,NV,89123,USA,(702) 598-0223,,,"Monday 10:30 am-7:00 pm, Tuesday 10:30 am-7:00 pm, Wednesday 10:30 am-7:00 pm, Thursday 10:30 am-7:00 pm, Friday 10:30 am-7:00 pm, Saturday 9:30 am-6:00 pm, Sunday 10:00 am-4:00 pm",,,
"Red Wing - Omaha, NE",,5018 20 S 108th St,,Omaha,NE,68137,USA,(402) 339-1542,,,"Monday 9:00 am-8:00 pm, Tuesday 9:00 am-6:00 pm, Wednesday 9:00 am-6:00 pm, Thursday 9:00 am-8:00 pm, Friday 9:00 am-6:00 pm, Saturday 9:00 am-5:00 pm, Sunday -Closed",,,
"Red Wing - Williston, ND",,433 Reiger Dr,,Williston,ND,58801,USA,(701) 713-4246,,,"Monday 10:00 am-7:00 pm, Tuesday 10:00 am-7:00 pm, Wednesday 10:00 am-7:00 pm, Thursday 10:00 am-7:00 pm, Friday 10:00 am-7:00 pm, Saturday 9:00 am-6:00 pm, Sunday 12:00 pm-5:00 pm",,,
"Red Wing - Minot, ND",,1315 S Broadway,,Minot,ND,58701,USA,(701) 838-1055,,,"Monday 9:30 am-7:00 pm, Tuesday 9:30 am-7:00 pm, Wednesday 9:30 am-7:00 pm, Thursday 9:30 am-7:00 pm, Friday 9:30 am-7:00 pm, Saturday 9:30 am-5:00 pm, Sunday -Closed",,,
"Red Wing - Watford City, ND",,113 6th Ave SE,,Watford City,ND,58854,USA,(701) 842-6450,,,"Monday 10:00 am-7:00 pm, Tuesday 10:00 am-7:00 pm, Wednesday 10:00 am-7:00 pm, Thursday 10:00 am-7:00 pm, Friday 10:00 am-7:00 pm, Saturday 9:00 am-6:00 pm, Sunday 12:00 pm-5:00 pm",,,
"Red Wing - Winston Salem, NC",,615 Peters Creek Parkway,,Winston Salem,NC,27103,USA,(336) 723-0709,,,"Monday 9:30 am-6:00 pm, Tuesday 9:30 am-6:00 pm, Wednesday 9:30 am-6:00 pm, Thursday 9:30 am-7:00 pm, Friday 9:30 am-6:00 pm, Saturday 9:30 am-5:00 pm, Sunday -Closed",,,
"Red Wing - Grand Forks, ND",,2475 32nd Ave S,,Grand Forks,ND,58201,USA,(701) 772-4641,,,"Monday 10:00 am-8:00 pm, Tuesday 10:00 am-8:00 pm, Wednesday 10:00 am-8:00 pm, Thursday 10:00 am-8:00 pm, Friday 10:00 am-8:00 pm, Saturday 10:00 am-6:00 pm, Sunday 12:00 pm-5:00 pm",,,
"Red Wing - Raleigh, NC",,3200 S Wilmington St,,Raleigh,NC,27603,USA,(919) 772-5000,,,,,,
"Red Wing - Raleigh, NC",,3408 Olympia Dr,,Raleigh,NC,27603,USA,(984) 200-2418,,,"Monday 9:00 am-7:00 pm, Tuesday 9:00 am-7:00 pm, Wednesday 9:00 am-7:00 pm, Thursday 9:00 am-7:00 pm, Friday 9:00 am-7:00 pm, Saturday 10:00 am-5:00 pm, Sunday 12:00 pm-5:00 pm",,,
"Red Wing - Des Moines, IA",,5035 NE 14th St,,Des Moines,IA,50313,USA,(515) 262-7972,,,"Monday 9:30 am-7:00 pm, Tuesday 9:30 am-7:00 pm, Wednesday 9:30 am-7:00 pm, Thursday 9:30 am-7:00 pm, Friday 9:30 am-7:00 pm, Saturday 9:30 am-5:00 pm, Sunday 12:00 pm-5:00 pm",,,
"Red Wing - Smyrna, GA",,2437 Cobb Parkway SE,,Smyrna,GA,30080,USA,(770) 955-1437,,,"Monday 9:00 am-7:00 pm, Tuesday 9:00 am-7:00 pm, Wednesday 9:00 am-7:00 pm, Thursday 9:00 am-7:00 pm, Friday 9:00 am-7:00 pm, Saturday 10:00 am-5:00 pm, Sunday 12:00 pm-5:00 pm",,,
"Red Wing - Wilmington, NC",,3909 A Oleander Dr,,Wilmington,NC,28403,USA,(910) 395-0620,,,"Monday 9:00 am-6:00 pm, Tuesday 9:00 am-6:00 pm, Wednesday 9:00 am-6:00 pm, Thursday 9:00 am-6:00 pm, Friday 9:00 am-6:00 pm, Saturday 9:00 am-5:00 pm, Sunday -Closed",,,
"Red Wing - Woodstock, GA",,8265 Hwy 92,,Woodstock,GA,30189,USA,(678) 540-8085,,,"Monday 10:00 am-7:00 pm, Tuesday 10:00 am-7:00 pm, Wednesday 10:00 am-7:00 pm, Thursday 10:00 am-7:00 pm, Friday 10:00 am-7:00 pm, Saturday 10:00 am-5:00 pm, Sunday 12:00 pm-5:00 pm",,,
"Red Wing - Thornton, CO",,9740 Grant St,,Thornton,CO,80229,USA,(303) 288-3820,,,"Monday 9:00 am-7:00 pm, Tuesday 9:00 am-7:00 pm, Wednesday 9:00 am-7:00 pm, Thursday 9:00 am-7:00 pm, Friday 9:00 am-7:00 pm, Saturday 9:00 am-6:00 pm, Sunday 11:00 am-5:00 pm",,,
"Red Wing - Newark, DE",,112 Astro Shopping Center,,Newark,DE,19711,USA,(302) 733-0622,,,"Monday 9:00 am-7:00 pm, Tuesday 9:00 am-7:00 pm, Wednesday 9:00 am-7:00 pm, Thursday 9:00 am-7:00 pm, Friday 9:00 am-7:00 pm, Saturday 9:00 am-6:00 pm, Sunday 11:00 am-4:00 pm",,,
"Red Wing - Pueblo, CO",,820 Highway 50 West,,Pueblo,CO,81008,USA,(719) 546-0392,,,"Monday 9:00 am-7:00 pm, Tuesday 9:00 am-6:00 pm, Wednesday 9:00 am-6:00 pm, Thursday 9:00 am-6:00 pm, Friday 9:00 am-7:00 pm, Saturday 9:00 am-6:00 pm, Sunday 11:00 am-5:00 pm",,,
"Red Wing - Longmont, CO",,1240 Ken Pratt Blvd,,Longmont,CO,80501,USA,(720) 494-1589,,,"Monday 10:00 am-7:00 pm, Tuesday 10:00 am-7:00 pm, Wednesday 10:00 am-7:00 pm, Thursday 10:00 am-7:00 pm, Friday 10:00 am-7:00 pm, Saturday 10:00 am-6:00 pm, Sunday 12:00 pm-4:00 pm",,,
"Red Wing - Tempe, AZ",,655 W Warner Rd,,Tempe,AZ,85284,USA,(480) 785-8997,,,"Monday 9:00 am-6:00 pm, Tuesday 9:00 am-6:00 pm, Wednesday 9:00 am-6:00 pm, Thursday 9:00 am-6:00 pm, Friday 9:00 am-6:00 pm, Saturday 9:00 am-5:00 pm, Sunday 11:00 am-3:00 pm",,,
"Red Wing - Tucson, AZ",,3906 N Oracle Rd,,Tucson,AZ,85705,USA,(520) 293-4264,,,"Monday 9:30 am-7:00 pm, Tuesday 9:30 am-7:00 pm, Wednesday 9:30 am-7:00 pm, Thursday 9:30 am-7:00 pm, Friday 9:30 am-7:00 pm, Saturday 9:30 am-5:00 pm, Sunday 11:00 am-4:00 pm",,,
"Red Wing - Montgomery, AL",,340 A Eastdale Circle,,Montgomery,AL,36117,USA,(334) 272-4499,,,"Monday 10:00 am-7:00 pm, Tuesday 10:00 am-7:00 pm, Wednesday 10:00 am-7:00 pm, Thursday 10:00 am-7:00 pm, Friday 10:00 am-7:00 pm, Saturday 10:00 am-5:00 pm, Sunday -Closed",,,
"Red Wing - Mobile, AL",,3871 Airport Blvd,,Mobile,AL,36608,USA,(251) 380-6289,,,"Monday 10:00 am-7:00 pm, Tuesday 10:00 am-7:00 pm, Wednesday 10:00 am-7:00 pm, Thursday 10:00 am-7:00 pm, Friday 10:00 am-7:00 pm, Saturday 10:00 am-5:00 pm, Sunday 12:00 pm-4:00 pm",,,
"Red Wing - Tucson, AZ",,3829 E Broadway Blvd,,Tucson,AZ,85716,USA,(520) 327-3364,,,"Monday 9:30 am-7:00 pm, Tuesday 9:30 am-7:00 pm, Wednesday 9:30 am-7:00 pm, Thursday 9:30 am-7:00 pm, Friday 9:30 am-7:00 pm, Saturday 9:30 am-5:00 pm, Sunday 11:00 am-4:00 pm",,,
"Red Wing - Anchorage, AK",,530 E Benson Blvd,,Anchorage,AK,99503,USA,(907) 258-5799,,,"Monday 10:00 am-6:00 pm, Tuesday 10:00 am-6:00 pm, Wednesday 10:00 am-6:00 pm, Thursday 10:00 am-6:00 pm, Friday 10:00 am-6:00 pm, Saturday 10:00 am-5:00 pm, Sunday -Closed",,,
"Red Wing - Huntsville, AL",,6125 University Dr,,Huntsville,AL,35806,USA,(256) 971-2727,,,"Monday 9:00 am-7:00 pm, Tuesday 9:00 am-7:00 pm, Wednesday 9:00 am-7:00 pm, Thursday 9:00 am-7:00 pm, Friday 9:00 am-7:00 pm, Saturday 9:00 am-6:00 pm, Sunday -Closed",,,
"Red Wing - Birmingham, AL",,1938 Hwy 31 S,,Birmingham,AL,35244,USA,(205) 444-0360,,,"Monday 9:00 am-6:00 pm, Tuesday 9:00 am-7:30 pm, Wednesday 9:00 am-6:00 pm, Thursday 9:00 am-6:00 pm, Friday 9:00 am-6:00 pm, Saturday 9:00 am-6:00 pm, Sunday -Closed",,,
"Red Wing - Birmingham, AL",,1423 Gadsden Hwy,,Birmingham,AL,35235,USA,(205) 655-9288,,,"Monday 9:00 am-6:00 pm, Tuesday 9:00 am-6:00 pm, Wednesday 9:00 am-7:30 pm, Thursday 9:00 am-6:00 pm, Friday 9:00 am-6:00 pm, Saturday 9:00 am-6:00 pm, Sunday -Closed",,,
"Red Wing - Little Rock, AR",,13900 Cantrell Rd,,Little Rock,AR,72223,USA,(501) 414-8784,,,"Monday 10:00 am-6:00 pm, Tuesday 10:00 am-6:00 pm, Wednesday 10:00 am-6:00 pm, Thursday 10:00 am-6:00 pm, Friday 10:00 am-6:00 pm, Saturday 10:00 am-6:00 pm, Sunday -Closed",,,
"Red Wing - Springdale, AR",,2576 W Sunset Ave,,Springdale,AR,72762,USA,(479) 750-7463,,,"Monday 9:00 am-7:00 pm, Tuesday 9:00 am-7:00 pm, Wednesday 9:00 am-7:00 pm, Thursday 9:00 am-7:00 pm, Friday 9:00 am-7:00 pm, Saturday 10:00 am-5:00 pm, Sunday 1:00 pm-5:00 pm",,,
"Red Wing - Phoenix, AZ",,3937 E Thomas Rd,,Phoenix,AZ,85018,USA,(602) 275-2329,,,"Monday 9:30 am-6:00 pm, Tuesday 9:30 am-6:00 pm, Wednesday 9:30 am-6:00 pm, Thursday 9:30 am-6:00 pm, Friday 9:30 am-6:00 pm, Saturday 9:30 am-5:00 pm, Sunday -Closed",,,
"Red Wing - Phoenix, AZ",,7333 W Thomas Rd,,Phoenix,AZ,85033,USA,(623) 846-7463,,,"Monday 10:00 am-6:00 pm, Tuesday 10:00 am-6:00 pm, Wednesday 10:00 am-6:00 pm, Thursday 10:00 am-6:00 pm, Friday 10:00 am-6:00 pm, Saturday 9:00 am-5:00 pm, Sunday -Closed",,,
"Red Wing - Glendale, AZ",,6070 W Bell Rd,,Glendale,AZ,85308,USA,(602) 978-3338,,,"Monday 10:00 am-6:00 pm, Tuesday 10:00 am-6:00 pm, Wednesday 10:00 am-6:00 pm, Thursday 10:00 am-6:00 pm, Friday 10:00 am-6:00 pm, Saturday 9:00 am-5:00 pm, Sunday -Closed",,,
"Red Wing - Mesa, AZ",,1911 W Broadway,,Mesa,AZ,85202,USA,(480) 833-4631,,,"Monday 9:30 am-6:00 pm, Tuesday 9:30 am-6:00 pm, Wednesday 9:30 am-6:00 pm, Thursday 9:30 am-6:00 pm, Friday 9:30 am-6:00 pm, Saturday 9:30 am-5:00 pm, Sunday -Closed",,,
"Red Wing - Whittier, CA",,11867 Whittier Blvd,,Whittier,CA,90601,USA,(562) 695-1612,,,"Monday 10:00 am-7:00 pm, Tuesday 10:00 am-7:00 pm, Wednesday 10:00 am-7:00 pm, Thursday 10:00 am-7:00 pm, Friday 10:00 am-7:00 pm, Saturday 10:00 am-5:00 pm, Sunday 11:00 am-4:00 pm",,,
"Red Wing - Gilbert, AZ",,3126 S Higley Rd,,Gilbert,AZ,85295,USA,(480) 822-1000,,,"Monday 9:30 am-6:00 pm, Tuesday 9:30 am-6:00 pm, Wednesday 9:30 am-6:00 pm, Thursday 9:30 am-6:00 pm, Friday 9:30 am-6:00 pm, Saturday 9:30 am-5:00 pm, Sunday -Closed",,,
"Red Wing - Visalia, CA",,3320 A S Mooney Blvd,,Visalia,CA,93277,USA,(559) 733-2239,,,"Monday 9:00 am-5:30 pm, Tuesday 9:00 am-5:30 pm, Wednesday 9:00 am-5:30 pm, Thursday 10:00 am-5:30 pm, Friday 9:00 am-5:30 pm, Saturday 9:00 am-4:00 pm, Sunday 11:00 am-1:00 pm",,,
"Red Wing - Westminster, CA",,14254 Beach Blvd,,Westminster,CA,92683,USA,(714) 898-1106,,,"Monday 10:00 am-7:00 pm, Tuesday 10:00 am-5:30 pm, Wednesday 10:00 am-5:30 pm, Thursday 10:00 am-5:30 pm, Friday 10:00 am-5:30 pm, Saturday 10:00 am-5:00 pm, Sunday -Closed",,,
"Red Wing - Torrance, CA",,18533 Hawthorne Blvd,,Torrance,CA,90504,USA,(310) 371-5068,,,"Monday 10:00 am-7:00 pm, Tuesday 9:00 am-8:00 pm, Wednesday 9:00 am-8:00 pm, Thursday 9:00 am-8:00 pm, Friday 9:00 am-8:00 pm, Saturday 9:00 am-6:00 pm, Sunday 10:00 am-4:00 pm",,,
"Red Wing - Upland, CA",,291 S Mountain Ave,,Upland,CA,91786,USA,(909) 931-4018,,,"Monday 10:00 am-8:00 pm, Tuesday 10:00 am-8:00 pm, Wednesday 10:00 am-8:00 pm, Thursday 10:00 am-8:00 pm, Friday 10:00 am-8:00 pm, Saturday 10:00 am-6:00 pm, Sunday 10:00 am-6:00 pm",,,
"Red Wing - Temecula, CA",,40573 Margarita Road,,Temecula,CA,92591,USA,(951) 296-0480,,,"Monday 10:00 am-7:00 pm, Tuesday 10:00 am-7:00 pm, Wednesday 10:00 am-7:00 pm, Thursday 10:00 am-7:00 pm, Friday 10:00 am-7:00 pm, Saturday 11:00 am-5:00 pm, Sunday 11:00 am-5:00 pm",,,
"Red Wing - Thousand Oaks, CA",,757 E Thousand Oaks Blvd,,Thousand Oaks,CA,91360,USA,(805) 495-5444,,,"Monday 9:30 am-6:00 pm, Tuesday 9:30 am-6:00 pm, Wednesday 9:30 am-6:00 pm, Thursday 9:30 am-7:00 pm, Friday 9:30 am-5:00 pm, Saturday 10:00 am-5:00 pm, Sunday 11:00 am-4:00 pm",,,
"Red Wing - Santa Rosa, CA",,2200 Cleveland Ave,,Santa Rosa,CA,95403,USA,(707) 526-1717,,,"Monday 9:00 am-6:00 pm, Tuesday 9:00 am-6:00 pm, Wednesday 9:00 am-6:00 pm, Thursday 9:00 am-6:00 pm, Friday 9:00 am-6:00 pm, Saturday 10:00 am-5:00 pm, Sunday 11:00 am-4:00 pm",,,
"Red Wing - Stockton, CA",,6032 Pacific Ave,,Stockton,CA,95207,USA,(209) 957-1378,,,"Monday 9:30 am-6:00 pm, Tuesday 9:30 am-6:00 pm, Wednesday 9:30 am-6:00 pm, Thursday 9:30 am-8:00 pm, Friday 9:30 am-6:00 pm, Saturday 9:30 am-5:30 pm, Sunday -Closed",,,
"Red Wing - Santa Maria, CA",,1523 S Broadway,,Santa Maria,CA,93454,USA,(805) 925-1144,,,"Monday 10:00 am-6:00 pm, Tuesday 10:00 am-6:00 pm, Wednesday 10:00 am-6:00 pm, Thursday 10:00 am-6:00 pm, Friday 10:00 am-6:00 pm, Saturday 10:00 am-5:00 pm, Sunday -Closed",,,
"Red Wing - Phoenix, AZ",,7114 N 35th Ave,,Phoenix,AZ,85051,USA,(602) 864-9464,,,"Monday 10:00 am-6:00 pm, Tuesday 10:00 am-6:00 pm, Wednesday 10:00 am-6:00 pm, Thursday 10:00 am-6:00 pm, Friday 10:00 am-6:00 pm, Saturday 9:00 am-5:00 pm, Sunday -Closed",,,
"Red Wing - Hot Springs, AR",,1303 Malvern Ave,,Hot Springs,AR,71901,USA,(501) 538-1357,,,"Monday 10:00 am-6:00 pm, Tuesday 10:00 am-6:00 pm, Wednesday 10:00 am-6:00 pm, Thursday 10:00 am-6:00 pm, Friday 10:00 am-6:00 pm, Saturday 10:00 am-6:00 pm, Sunday 10:00 am-6:00 pm",,,
"Red Wing - Santa Cruz, CA",,916 Soquel Ave,,Santa Cruz,CA,95062,USA,(831) 423-5111,,,"Monday 10:00 am-7:00 pm, Tuesday 10:00 am-7:00 pm, Wednesday 10:00 am-7:00 pm, Thursday 10:00 am-7:00 pm, Friday 10:00 am-7:00 pm, Saturday 10:00 am-5:00 pm, Sunday 12:00 pm-5:00 pm",,,
"Red Wing - Santa Clarita, CA",,23336 Valencia Blvd,,Santa Clarita,CA,91355,USA,(661) 799-7710,,,"Monday 10:00 am-7:00 pm, Tuesday 10:00 am-7:00 pm, Wednesday 10:00 am-7:00 pm, Thursday 10:00 am-7:00 pm, Friday 10:00 am-7:00 pm, Saturday 10:00 am-5:00 pm, Sunday 10:00 am-4:00 pm",,,
"Red Wing - Santa Barbara, CA",,3333 State St Loreto Plaza,,Santa Barbara,CA,93105,USA,(805) 682-1010,,,"Monday 10:00 am-5:30 pm, Tuesday 10:00 am-5:30 pm, Wednesday 10:00 am-5:30 pm, Thursday 10:00 am-5:30 pm, Friday 10:00 am-5:30 pm, Saturday 10:00 am-3:00 pm, Sunday 11:00 am-3:00 pm",,,
"Red Wing - San Leandro, CA",,699 Lewelling Blvd,,San Leandro,CA,94579,USA,(510) 483-1888,,,"Monday 9:00 am-7:00 pm, Tuesday 9:00 am-7:00 pm, Wednesday 9:00 am-7:00 pm, Thursday 9:00 am-7:00 pm, Friday 9:00 am-7:00 pm, Saturday 9:00 am-6:00 pm, Sunday 11:00 am-5:00 pm",,,
"Red Wing - Santa Ana, CA",,1427 S Main St,,Santa Ana,CA,92707,USA,(714) 543-1449,,,"Monday 10:00 am-7:00 pm, Tuesday 10:00 am-5:30 pm, Wednesday 10:00 am-5:30 pm, Thursday 10:00 am-5:30 pm, Friday 10:00 am-5:30 pm, Saturday 10:00 am-5:00 pm, Sunday -Closed",,,
"Red Wing - San Diego, CA",,8199 Clairemont Mesa Blvd,,San Diego,CA,92111,USA,(858) 278-4585,,,"Monday 10:00 am-6:00 pm, Tuesday 10:00 am-6:00 pm, Wednesday 10:00 am-6:00 pm, Thursday 10:00 am-6:00 pm, Friday 10:00 am-6:00 pm, Saturday 10:00 am-6:00 pm, Sunday -Closed",,,
"Red Wing - San Jose, CA",,1510 Oakland Rd,,San Jose,CA,95112,USA,(408) 453-6391,,,"Monday 9:00 am-6:00 pm, Tuesday 9:00 am-6:00 pm, Wednesday 9:00 am-6:00 pm, Thursday 9:00 am-6:00 pm, Friday 9:00 am-6:00 pm, Saturday 10:00 am-5:00 pm, Sunday 12:00 pm-4:00 pm",,,
"Red Wing - Sacramento, CA",,3880 Truxel  Rd,,Sacramento,CA,95834,USA,(916) 419-1054,,,"Monday 10:00 am-6:00 pm, Tuesday 10:00 am-6:00 pm, Wednesday 10:00 am-6:00 pm, Thursday 10:00 am-6:00 pm, Friday 10:00 am-6:00 pm, Saturday 10:00 am-5:00 pm, Sunday 11:00 am-5:00 pm",,,
"Red Wing - Roseville, CA",,6706 Stanford Ranch Rd,,Roseville,CA,95678,USA,(916) 772-6912,,,"Monday 10:00 am-6:00 pm, Tuesday 10:00 am-6:00 pm, Wednesday 10:00 am-6:00 pm, Thursday 10:00 am-6:00 pm, Friday 10:00 am-6:00 pm, Saturday 9:30 am-5:30 pm, Sunday 11:00 am-5:00 pm",,,
"Red Wing - Redwood City, CA",,820 Veterans Blvd,,Redwood City,CA,94063,USA,(650) 365-3470,,,"Monday 10:00 am-7:00 pm, Tuesday 10:00 am-7:00 pm, Wednesday 10:00 am-7:00 pm, Thursday 10:00 am-7:00 pm, Friday 10:00 am-7:00 pm, Saturday 10:00 am-5:00 pm, Sunday 11:00 am-4:00 pm",,,
"Red Wing - San Bernardino, CA",,645B E Hospitality Lane,,San Bernardino,CA,92408,USA,(909) 890-1799,,,"Monday 9:30 am-7:00 pm, Tuesday 9:30 am-7:00 pm, Wednesday 9:30 am-7:00 pm, Thursday 9:30 am-7:00 pm, Friday 9:30 am-7:00 pm, Saturday 9:30 am-6:00 pm, Sunday 11:00 am-5:00 pm",,,
"Red Wing - Pasadena, CA",,3124 E Colorado Blvd,,Pasadena,CA,91107,USA,(626) 792-9181,,,"Monday 10:00 am-7:00 pm, Tuesday 10:00 am-7:00 pm, Wednesday 10:00 am-7:00 pm, Thursday 10:00 am-7:00 pm, Friday 10:00 am-7:00 pm, Saturday 10:00 am-5:00 pm, Sunday 11:00 am-4:00 pm",,,
"Red Wing - Redding, CA",,1340 Churn Creek Rd,,Redding,CA,96003,USA,(530) 221-7463,,,"Monday 10:00 am-6:00 pm, Tuesday 10:00 am-6:00 pm, Wednesday 10:00 am-6:00 pm, Thursday 10:00 am-6:00 pm, Friday 10:00 am-6:00 pm, Saturday 10:00 am-5:00 pm, Sunday -Closed",,,
"Red Wing - Orange, CA",,1432 E Katella Ave,,Orange,CA,92867,USA,(714) 639-5900,,,"Monday 10:00 am-7:00 pm, Tuesday 10:00 am-5:30 pm, Wednesday 10:00 am-5:30 pm, Thursday 10:00 am-5:30 pm, Friday 10:00 am-5:30 pm, Saturday 10:00 am-5:00 pm, Sunday -Closed",,,
"Red Wing - Oxnard, CA",,4708 E Vineyard Ave,,Oxnard,CA,93036,USA,(805) 485-4409,,,"Monday 8:00 am-7:00 pm, Tuesday 8:00 am-7:00 pm, Wednesday 8:00 am-7:00 pm, Thursday 8:00 am-7:00 pm, Friday 8:00 am-7:00 pm, Saturday 10:00 am-6:00 pm, Sunday 10:00 am-6:00 pm",,,
"Red Wing - National City, CA",,3460 Highland Ave,,National City,CA,91950,USA,(619) 476-9720,,,"Monday 10:30 am-7:00 pm, Tuesday 10:30 am-7:00 pm, Wednesday 10:30 am-7:00 pm, Thursday 10:30 am-7:00 pm, Friday 10:30 am-7:00 pm, Saturday 10:30 am-7:00 pm, Sunday 11:00 am-4:00 pm",,,
"Red Wing - Napa, CA",,1515 Trancas St,,Napa,CA,94558,USA,(707) 224-5470,,,"Monday 10:00 am-6:00 pm, Tuesday 10:00 am-6:00 pm, Wednesday 10:00 am-6:00 pm, Thursday 10:00 am-6:00 pm, Friday 10:00 am-6:00 pm, Saturday 10:00 am-5:00 pm, Sunday 11:00 am-4:00 pm",,,
"Red Wing - Modesto, CA",,2221 Mc Henry Ave,,Modesto,CA,95350,USA,(209) 529-0447,,,"Monday 9:30 am-6:00 pm, Tuesday 9:30 am-6:00 pm, Wednesday 9:30 am-6:00 pm, Thursday 9:30 am-8:00 pm, Friday 9:30 am-6:00 pm, Saturday 9:30 am-5:30 pm, Sunday -Closed",,,
"Red Wing - Norwalk, CA",,11864 Rosecrans Ave,,Norwalk,CA,90650,USA,(562) 864-2411,,,"Monday 10:00 am-7:00 pm, Tuesday 10:00 am-7:00 pm, Wednesday 10:00 am-7:00 pm, Thursday 10:00 am-7:00 pm, Friday 10:00 am-7:00 pm, Saturday 10:00 am-5:00 pm, Sunday 11:00 am-4:00 pm",,,
"Red Wing - San Jose, CA",,447 B Blossom Hill Rd,,San Jose,CA,95123,USA,(408) 229-2668,,,"Monday 10:00 am-7:00 pm, Tuesday 10:00 am-7:00 pm, Wednesday 10:00 am-7:00 pm, Thursday 10:00 am-7:00 pm, Friday 10:00 am-7:00 pm, Saturday 10:00 am-6:00 pm, Sunday 11:00 am-5:00 pm",,,
"Red Wing - San Jose, CA",,5192 Stevens Creek Blvd,,San Jose,CA,95129,USA,(408) 246-9090,,,"Monday 10:00 am-7:00 pm, Tuesday 10:00 am-7:00 pm, Wednesday 10:00 am-7:00 pm, Thursday 10:00 am-7:00 pm, Friday 10:00 am-7:00 pm, Saturday 10:00 am-6:00 pm, Sunday 11:00 am-5:00 pm",,,
"Red Wing - Millbrae, CA",,1135 El Camino Real,,Millbrae,CA,94030,USA,(650) 742-9574,,,"Monday 10:00 am-7:00 pm, Tuesday 10:00 am-7:00 pm, Wednesday 10:00 am-7:00 pm, Thursday 10:00 am-7:00 pm, Friday 10:00 am-7:00 pm, Saturday 10:00 am-5:00 pm, Sunday 11:00 am-4:00 pm",,,
"Red Wing - Merced, CA",,2802 North G St,,Merced,CA,95340,USA,(209) 722-1811,,,"Monday 10:00 am-6:00 pm, Tuesday 10:00 am-6:00 pm, Wednesday 10:00 am-6:00 pm, Thursday 10:00 am-6:00 pm, Friday 10:00 am-6:00 pm, Saturday 10:00 am-5:00 pm, Sunday -Closed",,,
"Red Wing - Long Beach, CA",,4284 Atlantic Ave,,Long Beach,CA,90807,USA,(562) 426-6898,,,"Monday 10:00 am-6:30 pm, Tuesday 10:00 am-6:30 pm, Wednesday 10:00 am-6:30 pm, Thursday 10:00 am-6:30 pm, Friday 10:00 am-6:30 pm, Saturday 10:00 am-5:00 pm, Sunday 10:00 am-5:00 pm",,,
"Red Wing - Fresno, CA",,5351 N Blackstone,,Fresno,CA,93710,USA,(559) 435-1555,,,"Monday 9:00 am-6:00 pm, Tuesday 9:00 am-6:00 pm, Wednesday 9:00 am-6:00 pm, Thursday 9:00 am-6:00 pm, Friday 9:00 am-6:00 pm, Saturday 9:00 am-5:00 pm, Sunday -Closed",,,
"Red Wing - Granada Hills, CA",,16933 Devonshire St,,Granada Hills,CA,91344,USA,(747) 239-3220,,,"Monday 10:00 am-7:00 pm, Tuesday 10:00 am-7:00 pm, Wednesday 10:00 am-7:00 pm, Thursday 10:00 am-7:00 pm, Friday 10:00 am-7:00 pm, Saturday 10:00 am-5:00 pm, Sunday 10:00 pm-4:00 pm",,,
"Red Wing - Lake Forest, CA",,22741 Lambert St,,Lake Forest,CA,92630,USA,(949) 951-1988,,,"Monday 10:00 am-7:00 pm, Tuesday 10:00 am-5:30 pm, Wednesday 10:00 am-5:30 pm, Thursday 10:00 am-5:30 pm, Friday 10:00 am-5:30 pm, Saturday 10:00 am-5:00 pm, Sunday -Closed",,,
"Red Wing - Fremont, CA",,40972 Fremont Blvd,,Fremont,CA,94538,USA,(510) 656-5616,,,"Monday 10:00 am-7:00 pm, Tuesday 10:00 am-7:00 pm, Wednesday 10:00 am-7:00 pm, Thursday 10:00 am-7:00 pm, Friday 10:00 am-7:00 pm, Saturday 10:00 am-5:00 pm, Sunday 12:00 pm-5:00 pm",,,
"Red Wing - Emeryville, CA",,3850 San Pablo Ave,,Emeryville,CA,94608,USA,(510) 547-8335,,,"Monday 9:00 am-7:00 pm, Tuesday 9:00 am-7:00 pm, Wednesday 9:00 am-7:00 pm, Thursday 9:00 am-7:00 pm, Friday 9:00 am-7:00 pm, Saturday 10:00 am-6:00 pm, Sunday 11:00 am-5:00 pm",,,
"Red Wing - Fontana, CA",,16701 Valley Blvd,,Fontana,CA,92335,USA,(909) 823-0042,,,"Monday 10:00 am-7:00 pm, Tuesday 10:00 am-7:00 pm, Wednesday 10:00 am-7:00 pm, Thursday 10:00 am-7:00 pm, Friday 10:00 am-7:00 pm, Saturday 10:00 am-6:00 pm, Sunday 11:00 am-4:00 pm",,,
"Red Wing - Fairfield, CA",,1350 Gateway Blvd,,Fairfield,CA,94533,USA,(707) 422-9228,,,"Monday 9:00 am-7:00 pm, Tuesday 9:00 am-7:00 pm, Wednesday 9:00 am-7:00 pm, Thursday 9:00 am-7:00 pm, Friday 9:00 am-7:00 pm, Saturday 9:00 am-5:00 pm, Sunday 12:00 pm-5:00 pm",,,
"Red Wing - Elk Grove, CA",,8246 Laguna Blvd,,Elk Grove,CA,95758,USA,(916) 684-4408,,,"Monday 10:00 am-6:00 pm, Tuesday 10:00 am-6:00 pm, Wednesday 10:00 am-6:00 pm, Thursday 10:00 am-6:00 pm, Friday 10:00 am-6:00 pm, Saturday 10:00 am-5:00 pm, Sunday 11:00 am-5:00 pm",,,
"Red Wing - Daly City, CA",,227 Westlake Center,,Daly City,CA,94015,USA,(650) 994-6836,,,"Monday 10:00 am-7:00 pm, Tuesday 10:00 am-7:00 pm, Wednesday 10:00 am-7:00 pm, Thursday 10:00 am-7:00 pm, Friday 10:00 am-7:00 pm, Saturday 10:00 am-7:00 pm, Sunday 11:00 am-6:00 pm",,,
"Red Wing - El Cajon, CA",,941 Broadway St,,El Cajon,CA,92021,USA,(619) 444-2448,,,"Monday 10:00 am-6:00 pm, Tuesday 10:00 am-6:00 pm, Wednesday 10:00 am-6:00 pm, Thursday 10:00 am-6:00 pm, Friday 10:00 am-6:00 pm, Saturday 10:00 am-6:00 pm, Sunday -Closed",,,
"Red Wing - El Monte, CA",,10930 Valley Blvd,,El Monte,CA,91731,USA,(626) 444-8111,,,"Monday 10:00 am-7:00 pm, Tuesday 10:00 am-7:00 pm, Wednesday 10:00 am-7:00 pm, Thursday 10:00 am-7:00 pm, Friday 10:00 am-7:00 pm, Saturday 10:00 am-5:00 pm, Sunday 10:00 am-4:00 pm",,,
"Red Wing - Culver City, CA",,10714 Washington Blvd,,Culver City,CA,90232,USA,(310) 839-3271,,,"Monday 10:00 am-7:00 pm, Tuesday 10:00 am-7:00 pm, Wednesday 10:00 am-7:00 pm, Thursday 10:00 am-7:00 pm, Friday 10:00 am-7:00 pm, Saturday 10:00 am-5:00 pm, Sunday 11:00 am-4:00 pm",,,
"Red Wing - Costa Mesa, CA",,2180 Harbor Blvd,,Costa Mesa,CA,92627,USA,(949) 631-0661,,,"Monday 10:00 am-7:00 pm, Tuesday 10:00 am-5:30 pm, Wednesday 10:00 am-5:30 pm, Thursday 10:00 am-5:30 pm, Friday 10:00 am-5:30 pm, Saturday 10:00 am-5:00 pm, Sunday -Closed",,,
"Red Wing - Corona, CA",,635 N Main St,,Corona,CA,92880,USA,(951) 340-3521,,,"Monday 10:00 am-7:00 pm, Tuesday 10:00 am-7:00 pm, Wednesday 10:00 am-7:00 pm, Thursday 10:00 am-7:00 pm, Friday 10:00 am-7:00 pm, Saturday 10:00 am-5:00 pm, Sunday 10:00 am-5:00 pm",,,
"Red Wing - Covina, CA",,114 Shoppers Lane,,Covina,CA,91723,USA,(626) 966-3114,,,"Monday 10:00 am-7:00 pm, Tuesday 10:00 am-7:00 pm, Wednesday 10:00 am-7:00 pm, Thursday 10:00 am-7:00 pm, Friday 10:00 am-7:00 pm, Saturday 10:00 am-6:00 pm, Sunday 11:00 am-5:00 pm",,,
"Red Wing - Concord, CA",,1847 C Willow Pass,,Concord,CA,94520,USA,(925) 689-4482,,,"Monday 10:00 am-8:00 pm, Tuesday 10:00 am-8:00 pm, Wednesday 10:00 am-8:00 pm, Thursday 10:00 am-8:00 pm, Friday 10:00 am-8:00 pm, Saturday 10:00 am-6:00 pm, Sunday 11:00 am-5:00 pm",,,
"Red Wing - Citrus Heights, CA",,6400 Sunrise Blvd,,Citrus Heights,CA,95610,USA,(916) 969-7463,,,"Monday 10:00 am-6:00 pm, Tuesday 10:00 am-6:00 pm, Wednesday 10:00 am-6:00 pm, Thursday 10:00 am-6:00 pm, Friday 10:00 am-6:00 pm, Saturday 9:30 am-5:30 pm, Sunday 11:00 am-5:00 pm",,,
"Red Wing - Commerce, CA",,6180 S Eastern Ave,,Commerce,CA,90040,USA,(323) 721-9222,,,"Monday 9:00 am-5:00 pm, Tuesday 9:00 am-5:00 pm, Wednesday 9:00 am-5:00 pm, Thursday 9:00 am-5:00 pm, Friday 9:00 am-5:00 pm, Saturday 10:00 am-2:00 pm, Sunday 10:00 am-2:00 pm",,,
"Red Wing - Burbank, CA",,3307 W Magnolia Blvd,,Burbank,CA,91505,USA,(818) 842-4910,,,"Monday 10:00 am-7:00 pm, Tuesday 10:00 am-7:00 pm, Wednesday 10:00 am-7:00 pm, Thursday 10:00 am-7:00 pm, Friday 10:00 am-7:00 pm, Saturday 10:00 am-5:00 pm, Sunday 11:00 am-5:00 pm",,,
"Red Wing - Brentwood, CA",,5601 Lone Tree Way,,Brentwood,CA,94513,USA,(925) 240-1823,,,"Monday 10:00 am-7:00 pm, Tuesday 10:00 am-7:00 pm, Wednesday 10:00 am-7:00 pm, Thursday 10:00 am-7:00 pm, Friday 10:00 am-7:00 pm, Saturday 10:00 am-5:00 pm, Sunday 11:00 am-4:00 pm",,,
"Red Wing - Lone Tree, CO",,8353 S Willow St,,Lone Tree,CO,80124,USA,(303) 694-4111,,,"Monday 9:00 am-7:00 pm, Tuesday 9:00 am-7:00 pm, Wednesday 9:00 am-7:00 pm, Thursday 9:00 am-7:00 pm, Friday 9:00 am-7:00 pm, Saturday 9:00 am-6:00 pm, Sunday 11:00 am-5:00 pm",,,
"Red Wing - Anaheim, CA",,941 N Euclid Ave,,Anaheim,CA,92801,USA,(714) 772-1449,,,"Monday 10:00 am-7:00 pm, Tuesday 10:00 am-5:30 pm, Wednesday 10:00 am-5:30 pm, Thursday 10:00 am-5:30 pm, Friday 10:00 am-5:30 pm, Saturday 10:00 am-5:00 pm, Sunday -Closed",,,
"Red Wing - Bakersfield, CA",,2025 Chester Ave,,Bakersfield,CA,93301,USA,(661) 323-6700,,,"Monday 9:30 am-6:00 pm, Tuesday 9:30 am-6:00 pm, Wednesday 9:30 am-6:00 pm, Thursday 9:30 am-6:00 pm, Friday 9:30 am-6:00 pm, Saturday 9:30 am-6:00 pm, Sunday 10:00 am-5:00 pm",,,
"Red Wing - Littleton, CO",,8116 W Bowles Ave,,Littleton,CO,80123,USA,(303) 948-4897,,,"Monday 10:00 am-7:00 pm, Tuesday 10:00 am-7:00 pm, Wednesday 10:00 am-7:00 pm, Thursday 10:00 am-7:00 pm, Friday 10:00 am-7:00 pm, Saturday 10:00 am-6:00 pm, Sunday 11:00 am-5:00 pm",,,
"Red Wing - Grand Junction, CO",,2454 Hwy 6 and 50,,Grand Junction,CO,81505,USA,(970) 697-1500,,,"Monday 9:00 am-7:00 pm, Tuesday 9:00 am-7:00 pm, Wednesday 9:00 am-7:00 pm, Thursday 9:00 am-7:00 pm, Friday 9:00 am-7:00 pm, Saturday 9:00 am-6:00 pm, Sunday 11:00 am-5:00 pm",,,
"Red Wing - Greeley, CO",,3133 W 10th St,,Greeley,CO,80634,USA,(970) 353-7585,,,"Monday 8:30 am-6:30 pm, Tuesday 8:30 am-6:30 pm, Wednesday 8:30 am-6:30 pm, Thursday 8:30 am-6:30 pm, Friday 8:30 am-6:30 pm, Saturday 9:00 am-6:00 pm, Sunday -Closed",,,
"Red Wing - Lakewood, CO",,98 N Wadsworth Blvd,,Lakewood,CO,80226,USA,(303) 233-2430,,,"Monday 9:00 am-7:00 pm, Tuesday 9:00 am-7:00 pm, Wednesday 9:00 am-7:00 pm, Thursday 9:00 am-7:00 pm, Friday 9:00 am-7:00 pm, Saturday 9:00 am-6:00 pm, Sunday 11:00 am-5:00 pm",,,
"Red Wing - Fort Collins, CO",,3645 S College Ave,,Fort Collins,CO,80525,USA,(970) 223-5660,,,"Monday 9:00 am-7:00 pm, Tuesday 9:00 am-7:00 pm, Wednesday 9:00 am-7:00 pm, Thursday 9:00 am-7:00 pm, Friday 9:00 am-6:00 pm, Saturday 9:30 am-5:00 pm, Sunday 12:00 pm-4:00 pm",,,
"Red Wing - Boulder, CO",,2707 Arapahoe Ave,,Boulder,CO,80302,USA,(303) 442-8723,,,"Monday 10:00 am-7:00 pm, Tuesday 10:00 am-7:00 pm, Wednesday 10:00 am-7:00 pm, Thursday 10:00 am-7:00 pm, Friday 10:00 am-7:00 pm, Saturday 9:00 am-5:00 pm, Sunday 11:00 am-4:00 pm",,,
"Red Wing - Colorado Springs, CO",,975 N Academy Blvd,,Colorado Springs,CO,80909,USA,(719) 597-7463,,,"Monday 9:00 am-7:00 pm, Tuesday 9:00 am-7:00 pm, Wednesday 9:00 am-7:00 pm, Thursday 9:00 am-7:00 pm, Friday 9:00 am-7:00 pm, Saturday 9:00 am-6:00 pm, Sunday 11:00 am-5:00 pm",,,
"Red Wing - Aurora, CO",,14048 E Mississippi Ave,,Aurora,CO,80012,USA,(303) 755-7707,,,"Monday 9:00 am-7:00 pm, Tuesday 9:00 am-7:00 pm, Wednesday 9:00 am-7:00 pm, Thursday 9:00 am-7:00 pm, Friday 9:00 am-7:00 pm, Saturday 9:00 am-6:00 pm, Sunday 11:00 am-5:00 pm",,,
"Red Wing - Arvada, CO",,8410 Wadsworth Blvd,,Arvada,CO,80003,USA,(303) 422-8677,,,"Monday 9:00 am-7:00 pm, Tuesday 9:00 am-7:00 pm, Wednesday 9:00 am-7:00 pm, Thursday 9:00 am-7:00 pm, Friday 9:00 am-7:00 pm, Saturday 9:00 am-6:00 pm, Sunday 11:00 am-5:00 pm",,,
"Red Wing - Dover, DE",,260A S Dupont Hwy,,Dover,DE,19901,USA,(302) 526-2979,,,"Monday 9:00 am-7:00 pm, Tuesday 9:00 am-7:00 pm, Wednesday 9:00 am-7:00 pm, Thursday 9:00 am-7:00 pm, Friday 9:00 am-7:00 pm, Saturday 10:00 am-5:00 pm, Sunday 11:00 am-4:00 pm",,,
"Red Wing - Newington, CT",,2434 Berlin Tpke,,Newington,CT,06111,USA,(860) 667-9038,,,"Monday 9:00 am-7:00 pm, Tuesday 9:00 am-7:00 pm, Wednesday 9:00 am-7:00 pm, Thursday 9:00 am-7:00 pm, Friday 9:00 am-7:00 pm, Saturday 9:00 am-5:00 pm, Sunday 11:00 am-4:00 pm",,,
"Red Wing - Orange, CT",,297 Boston Post Rd,,Orange,CT,06477,USA,(203) 795-3330,,,"Monday 9:00 am-7:00 pm, Tuesday 9:00 am-7:00 pm, Wednesday 9:00 am-7:00 pm, Thursday 9:00 am-7:00 pm, Friday 9:00 am-7:00 pm, Saturday 10:00 am-5:00 pm, Sunday 11:00 am-4:00 pm",,,
"Red Wing - West Palm Beach, FL",,2505 G Okeechobee Blvd,,West Palm Beach,FL,33409,USA,(561) 471-0382,,,"Monday 10:00 am-7:00 pm, Tuesday 10:00 am-7:00 pm, Wednesday 10:00 am-7:00 pm, Thursday 10:00 am-7:00 pm, Friday 10:00 am-7:00 pm, Saturday 9:00 am-5:00 pm, Sunday 12:00 pm-4:00 pm",,,
"Red Wing - West Melbourne, FL",,705 Palm Bay Rd,,West Melbourne,FL,32904,USA,(321) 729-0257,,,"Monday 10:00 am-7:00 pm, Tuesday 10:00 am-7:00 pm, Wednesday 10:00 am-7:00 pm, Thursday 10:00 am-7:00 pm, Friday 10:00 am-7:00 pm, Saturday 10:00 am-5:00 pm, Sunday 12:00 pm-5:00 pm",,,
"Red Wing - Tampa, FL",,11614 N Dale Mabry Hwy,,Tampa,FL,33618,USA,(813) 971-3111,,,"Monday 9:00 am-7:00 pm, Tuesday 9:00 am-7:00 pm, Wednesday 9:00 am-7:00 pm, Thursday 9:00 am-7:00 pm, Friday 9:00 am-7:00 pm, Saturday 9:00 am-5:00 pm, Sunday 12:00 pm-5:00 pm",,,
"Red Wing - Sunrise, FL",,2766 N University Dr,,Sunrise,FL,33322,USA,(954) 748-3399,,,"Monday 9:00 am-6:00 pm, Tuesday 9:00 am-6:00 pm, Wednesday 9:00 am-6:00 pm, Thursday 9:00 am-6:00 pm, Friday 9:00 am-6:00 pm, Saturday 9:00 am-6:00 pm, Sunday 11:00 am-5:00 pm",,,
"Red Wing - Tallahassee, FL",,800 Capital Circle SE,,Tallahassee,FL,32301,USA,(850) 999-1680,,,"Monday 10:00 am-7:00 pm, Tuesday 10:00 am-7:00 pm, Wednesday 10:00 am-7:00 pm, Thursday 10:00 am-7:00 pm, Friday 10:00 am-7:00 pm, Saturday 10:00 am-5:00 pm, Sunday 12:00 pm-5:00 pm",,,
"Red Wing - Port Charlotte, FL",,1100 El Jobean,,Port Charlotte,FL,33948,USA,(941) 249-4596,,,"Monday 9:00 am-7:00 pm, Tuesday 9:00 am-7:00 pm, Wednesday 9:00 am-7:00 pm, Thursday 9:00 am-7:00 pm, Friday 9:00 am-7:00 pm, Saturday 9:00 am-6:00 pm, Sunday 11:00 am-5:00 pm",,,
"Red Wing - Palm Harbor, FL",,35959 US Highway 19 N,,Palm Harbor,FL,34684,USA,(727) 444-0940,,,"Monday 9:00 am-7:00 pm, Tuesday 9:00 am-7:00 pm, Wednesday 9:00 am-7:00 pm, Thursday 9:00 am-7:00 pm, Friday 9:00 am-7:00 pm, Saturday 9:00 am-5:00 pm, Sunday 12:00 pm-5:00 pm",,,
"Red Wing - Margate, FL",,5436 W Sample Rd,,Margate,FL,33073,USA,(954) 917-6744,,,"Monday 10:00 am-7:00 pm, Tuesday 10:00 am-7:00 pm, Wednesday 10:00 am-7:00 pm, Thursday 10:00 am-7:00 pm, Friday 10:00 am-7:00 pm, Saturday 10:00 am-5:00 pm, Sunday 12:00 pm-4:00 pm",,,
"Red Wing - Miami, FL",,7800 NW 25th St,,Miami,FL,33122,USA,(305) 200-5621,,,"Monday 10:00 am-7:00 pm, Tuesday 10:00 am-7:00 pm, Wednesday 10:00 am-7:00 pm, Thursday 10:00 am-7:00 pm, Friday 10:00 am-7:00 pm, Saturday 10:00 am-5:00 pm, Sunday 12:00 pm-4:00 pm",,,
"Red Wing - Naples, FL",,3375 Pine Ridge Rd,,Naples,FL,34109,USA,(239) 261-3948,,,"Monday 9:00 am-6:00 pm, Tuesday 9:00 am-6:00 pm, Wednesday 9:00 am-6:00 pm, Thursday 9:00 am-6:00 pm, Friday 9:00 am-6:00 pm, Saturday 9:00 am-5:00 pm, Sunday -Closed",,,
"Red Wing - Orlando, FL",,8956 Turkey Lake Rd,,Orlando,FL,32819,USA,(407) 859-3913,,,"Monday 9:00 am-7:00 pm, Tuesday 9:00 am-7:00 pm, Wednesday 9:00 am-7:00 pm, Thursday 9:00 am-7:00 pm, Friday 9:00 am-7:00 pm, Saturday 10:00 am-5:00 pm, Sunday 12:00 pm-5:00 pm",,,
"Red Wing - Orlando, FL",,2516 S Semoran Blvd,,Orlando,FL,32822,USA,(407) 381-3403,,,"Monday 9:00 am-7:00 pm, Tuesday 9:00 am-7:00 pm, Wednesday 9:00 am-7:00 pm, Thursday 9:00 am-7:00 pm, Friday 9:00 am-7:00 pm, Saturday 10:00 am-5:00 pm, Sunday 12:00 pm-5:00 pm",,,
"Red Wing - Lakeland, FL",,1621 E Edgewood Dr,,Lakeland,FL,33803,USA,(863) 688-2232,,,"Monday 9:00 am-7:00 pm, Tuesday 9:00 am-7:00 pm, Wednesday 9:00 am-7:00 pm, Thursday 9:00 am-7:00 pm, Friday 9:00 am-7:00 pm, Saturday 9:00 am-5:00 pm, Sunday 1:00 pm-5:00 pm",,,
"Red Wing - Jacksonville, FL",,4375 Southside Blvd,,Jacksonville,FL,32216,USA,(904) 565-9393,,,"Monday 9:00 am-7:00 pm, Tuesday 9:00 am-7:00 pm, Wednesday 9:00 am-7:00 pm, Thursday 9:00 am-7:00 pm, Friday 9:00 am-7:00 pm, Saturday 9:00 am-5:00 pm, Sunday 12:00 pm-5:00 pm",,,
"Red Wing - Gainesville, FL",,1133 NW 76th Blvd,,Gainesville,FL,32606,USA,(352) 332-2912,,,"Monday 9:00 am-7:00 pm, Tuesday 9:00 am-7:00 pm, Wednesday 9:00 am-7:00 pm, Thursday 9:00 am-7:00 pm, Friday 9:00 am-7:00 pm, Saturday 10:00 am-5:00 pm, Sunday 12:00 pm-5:00 pm",,,
"Red Wing - Daytona Beach, FL",,2525 W Int'L Speedway Blvd,,Daytona Beach,FL,32114,USA,(386) 255-9005,,,"Monday 9:00 am-7:00 pm, Tuesday 9:00 am-7:00 pm, Wednesday 9:00 am-7:00 pm, Thursday 9:00 am-7:00 pm, Friday 9:00 am-7:00 pm, Saturday 9:00 am-5:00 pm, Sunday 12:00 pm-5:00 pm",,,
"Red Wing - Fern Park, FL",,181 Semoran Blvd,,Fern Park,FL,32730,USA,(407) 331-4822,,,"Monday 9:00 am-7:00 pm, Tuesday 9:00 am-7:00 pm, Wednesday 9:00 am-7:00 pm, Thursday 9:00 am-7:00 pm, Friday 9:00 am-7:00 pm, Saturday 10:00 am-5:00 pm, Sunday 12:00 pm-5:00 pm",,,
"Red Wing - Fort Pierce, FL",,2333 S Federal Hwy,,Fort Pierce,FL,34982,USA,(772) 468-3678,,,"Monday 9:30 am-6:30 pm, Tuesday 9:30 am-6:30 pm, Wednesday 9:30 am-6:30 pm, Thursday 9:30 am-6:30 pm, Friday 9:30 am-6:30 pm, Saturday 10:00 am-5:00 pm, Sunday 12:00 pm-4:00 pm",,,
"Red Wing - Fort Myers, FL",,11150 South Cleveland Avenue,,Fort Myers,FL,33907,USA,(239) 887-3494,,,"Monday 10:00 am-7:00 pm, Tuesday 10:00 am-7:00 pm, Wednesday 10:00 am-7:00 pm, Thursday 10:00 am-7:00 pm, Friday 10:00 am-7:00 pm, Saturday 10:00 am-5:00 pm, Sunday 12:00 pm-4:00 pm",,,
"Red Wing - Hialeah Gardens, FL",,13155 W Okeechobee Rd,,Hialeah Gardens,FL,33018,USA,(786) 857-6959,,,"Monday 10:00 am-7:00 pm, Tuesday 10:00 am-7:00 pm, Wednesday 10:00 am-7:00 pm, Thursday 10:00 am-7:00 pm, Friday 10:00 am-7:00 pm, Saturday 10:00 am-5:00 pm, Sunday 12:00 pm-4:00 pm",,,
"Red Wing - Jacksonville, FL",,1203 Lane Ave S,,Jacksonville,FL,32205,USA,(904) 783-6264,,,"Monday 9:00 am-7:00 pm, Tuesday 9:00 am-7:00 pm, Wednesday 9:00 am-7:00 pm, Thursday 9:00 am-7:00 pm, Friday 9:00 am-7:00 pm, Saturday 9:00 am-5:00 pm, Sunday 12:00 pm-5:00 pm",,,
"Red Wing - Pensacola, FL",,5912 N Davis Hwy,,Pensacola,FL,32503,USA,(850) 505-9910,,,"Monday 10:00 am-7:00 pm, Tuesday 10:00 am-7:00 pm, Wednesday 10:00 am-7:00 pm, Thursday 10:00 am-7:00 pm, Friday 10:00 am-7:00 pm, Saturday 10:00 am-5:00 pm, Sunday 12:00 pm-4:00 pm",,,
"Red Wing - Pinellas Park, FL",,5406 Park Blvd,,Pinellas Park,FL,33781,USA,(727) 541-6213,,,"Monday 9:00 am-7:00 pm, Tuesday 9:00 am-7:00 pm, Wednesday 9:00 am-7:00 pm, Thursday 9:00 am-7:00 pm, Friday 9:00 am-7:00 pm, Saturday 9:00 am-5:00 pm, Sunday 12:00 pm-5:00 pm",,,
"Red Wing - Pooler, GA",,1370 E US Hwy 80,,Pooler,GA,31322,USA,(912) 712-3199,,,"Monday 9:00 am-6:00 pm, Tuesday 9:00 am-6:00 pm, Wednesday 9:00 am-6:00 pm, Thursday 9:00 am-6:00 pm, Friday 9:00 am-6:00 pm, Saturday 10:00 am-5:00 pm, Sunday -Closed",,,
"Red Wing - Roswell, GA",,875 Mansell Rd,,Roswell,GA,30076,USA,(770) 558-4400,,,"Monday 9:00 am-6:00 pm, Tuesday 9:00 am-6:00 pm, Wednesday 9:00 am-6:00 pm, Thursday 9:00 am-6:00 pm, Friday 9:00 am-6:00 pm, Saturday 10:00 am-5:00 pm, Sunday 12:00 pm-5:00 pm",,,
"Red Wing - Brandon, FL",,1927 W Brandon Blvd,,Brandon,FL,33511,USA,(813) 651-0931,,,"Monday 9:00 am-7:00 pm, Tuesday 9:00 am-7:00 pm, Wednesday 9:00 am-7:00 pm, Thursday 9:00 am-7:00 pm, Friday 9:00 am-7:00 pm, Saturday 10:00 am-5:00 pm, Sunday 12:00 pm-5:00 pm",,,
"Red Wing - Bradenton, FL",,3106 53rd Ave E,,Bradenton,FL,34203,USA,(941) 756-2932,,,"Monday 9:00 am-7:00 pm, Tuesday 9:00 am-7:00 pm, Wednesday 9:00 am-7:00 pm, Thursday 9:00 am-7:00 pm, Friday 9:00 am-7:00 pm, Saturday 9:00 am-6:00 pm, Sunday 11:00 am-5:00 pm",,,
"Red Wing - Newnan, GA",,311 Bullsboro Dr,,Newnan,GA,30263,USA,(770) 502-0042,,,"Monday 9:00 am-7:00 pm, Tuesday 9:00 am-7:00 pm, Wednesday 9:00 am-7:00 pm, Thursday 9:00 am-7:00 pm, Friday 9:00 am-7:00 pm, Saturday 10:00 am-5:00 pm, Sunday -Closed",,,
"Red Wing - Morrow, GA",,1286 Citizens Pkwy,,Morrow,GA,30260,USA,(770) 960-2662,,,"Monday 8:00 am-5:00 pm, Tuesday 8:00 am-5:00 pm, Wednesday 8:00 am-5:00 pm, Thursday 8:00 am-5:00 pm, Friday 8:00 am-5:00 pm, Saturday -Closed, Sunday -Closed",,,
"Red Wing - Mcdonough, GA",,1975 Jonesboro Rd,,Mcdonough,GA,30253,USA,(678) 782-3588,,,"Monday 10:00 am-7:00 pm, Tuesday 10:00 am-7:00 pm, Wednesday 10:00 am-7:00 pm, Thursday 10:00 am-7:00 pm, Friday 10:00 am-7:00 pm, Saturday 10:00 am-6:00 pm, Sunday 1:00 pm-5:00 pm",,,
"Red Wing - Macon, GA",,3755 Bloomfield Rd,,Macon,GA,31206,USA,(478) 474-7128,,,"Monday 9:00 am-7:00 pm, Tuesday 9:00 am-7:00 pm, Wednesday 9:00 am-7:00 pm, Thursday 9:00 am-7:00 pm, Friday 9:00 am-7:00 pm, Saturday 9:00 am-5:00 pm, Sunday 12:00 pm-5:00 pm",,,
"Red Wing - Duluth, GA",,2131 Pleasant Hill Rd,,Duluth,GA,30096,USA,(770) 623-0075,,,"Monday 9:00 am-7:00 pm, Tuesday 9:00 am-7:00 pm, Wednesday 9:00 am-7:00 pm, Thursday 9:00 am-7:00 pm, Friday 9:00 am-7:00 pm, Saturday 10:00 am-6:00 pm, Sunday 12:00 pm-5:00 pm",,,
"Red Wing - Conyers, GA",,1895 Georgia Highway 20 SE,,Conyers,GA,30013,USA,(678) 806-5979,,,"Monday 10:00 am-7:00 pm, Tuesday 10:00 am-7:00 pm, Wednesday 10:00 am-7:00 pm, Thursday 10:00 am-7:00 pm, Friday 10:00 am-7:00 pm, Saturday 10:00 am-6:00 pm, Sunday 1:00 pm-5:00 pm",,,
"Red Wing - Augusta, GA",,270 Bobby Jones Expy,,Augusta,GA,30907,USA,(706) 210-3009,,,"Monday 10:00 am-7:00 pm, Tuesday 10:00 am-7:00 pm, Wednesday 10:00 am-7:00 pm, Thursday 10:00 am-7:00 pm, Friday 10:00 am-7:00 pm, Saturday 10:00 am-5:00 pm, Sunday -Closed",,,
"Red Wing - Honolulu, HI",,1130 N. Nimitz Highway,,Honolulu,HI,96817,USA,(808) 533-3292,,,"Monday 9:30 am-8:00 pm, Tuesday 9:30 am-8:00 pm, Wednesday 9:30 am-8:00 pm, Thursday 9:30 am-8:00 pm, Friday 9:30 am-8:00 pm, Saturday 9:00 am-5:00 pm, Sunday 10:00 am-4:00 pm",,,
"Red Wing - Aiea, HI",,98 1277 Kaahumanu St,,Aiea,HI,96701,USA,(808) 486-3292,,,"Monday 9:30 am-8:00 pm, Tuesday 9:30 am-8:00 pm, Wednesday 9:30 am-8:00 pm, Thursday 9:30 am-8:00 pm, Friday 9:30 am-8:00 pm, Saturday 9:00 am-5:00 pm, Sunday 10:00 am-4:00 pm",,,
"Red Wing - Davenport, IA",,3014 E 53rd St,,Davenport,IA,52807,USA,(563) 344-5822,,,"Monday 9:30 am-8:00 pm, Tuesday 9:30 am-8:00 pm, Wednesday 9:30 am-8:00 pm, Thursday 9:30 am-8:00 pm, Friday 9:30 am-6:00 pm, Saturday 9:00 am-5:00 pm, Sunday 12:00 pm-4:00 pm",,,
"Red Wing - Cedar Rapids, IA",,5200 Fountains Dr NE,,Cedar Rapids,IA,52411,USA,(319) 447-9649,,,"Monday 9:00 am-7:00 pm, Tuesday 9:00 am-7:00 pm, Wednesday 9:00 am-7:00 pm, Thursday 9:00 am-7:00 pm, Friday 9:00 am-6:00 pm, Saturday 9:00 am-5:00 pm, Sunday 12:00 pm-4:00 pm",,,
"Red Wing - Pineville, NC",,301 B North Polk St,,Pineville,NC,28134,USA,(704) 889-7100,,,"Monday 9:00 am-6:00 pm, Tuesday 9:00 am-6:00 pm, Wednesday 9:00 am-6:00 pm, Thursday 9:00 am-6:00 pm, Friday 9:00 am-6:00 pm, Saturday 9:00 am-5:00 pm, Sunday 1:00 pm-5:00 pm",,,
"Red Wing - Greensboro, NC",,1627 Stanley Rd,,Greensboro,NC,27407,USA,(336) 292-8892,,,"Monday 10:00 am-6:00 pm, Tuesday 10:00 am-6:00 pm, Wednesday 10:00 am-6:00 pm, Thursday 10:00 am-6:00 pm, Friday 10:00 am-6:00 pm, Saturday 10:00 am-6:00 pm, Sunday -Closed",,,
"Red Wing - Durham, NC",,4914 N Roxboro Rd,,Durham,NC,27704,USA,(919) 477-6800,,,"Monday 9:30 am-6:00 pm, Tuesday 9:30 am-6:00 pm, Wednesday 9:30 am-6:00 pm, Thursday 9:30 am-6:00 pm, Friday 9:30 am-6:00 pm, Saturday 9:30 am-4:00 pm, Sunday -Closed",,,
"Red Wing - Concord, NC",,5720 Concord Pkwy S,,Concord,NC,28027,USA,(704) 454-5899,,,"Monday 9:30 am-6:00 pm, Tuesday 9:30 am-6:00 pm, Wednesday 9:30 am-6:00 pm, Thursday 9:30 am-6:00 pm, Friday 9:30 am-6:00 pm, Saturday 9:30 am-4:00 pm, Sunday -Closed",,,
"Red Wing - Fargo, ND",,3003 Main Ave,,Fargo,ND,58103,USA,(701) 280-1380,,,"Monday 9:00 am-7:00 pm, Tuesday 9:00 am-7:00 pm, Wednesday 9:00 am-7:00 pm, Thursday 9:00 am-7:00 pm, Friday 9:00 am-6:00 pm, Saturday 9:00 am-4:00 pm, Sunday 12:00 pm-4:00 pm",,,
"Red Wing - Bismarck, ND",,529 E Broadway Ave,,Bismarck,ND,58501,USA,(701) 223-2445,,,"Monday 9:00 am-7:00 pm, Tuesday 9:00 am-7:00 pm, Wednesday 9:00 am-7:00 pm, Thursday 9:00 am-7:00 pm, Friday 9:00 am-6:00 pm, Saturday 9:30 am-5:30 pm, Sunday 12:00 pm-4:00 pm",,,
