store_name,store_number,address,address2,city,state,zip_code,country,phone_number,latitude,longitude,store_hours,store_type,other_fields,coming_soon
Lloydminster,,7309 44th St,"(Ray Nelson Drive),",Lloydminster,AB,T9V 2X1,Canada,T: 780.872.7030,53.2781046,-110.0303437,Mon - Sun: 7am - 9pm,,,
Spruce Grove,,"Unit F, 70 Macleod Ave",,Spruce Grove,AB,T7X 3C7,Canada,T: 780.960.5053,53.5418091,-113.9154817,"Mon - Sat: 6:30am - 9pm , Sun   Holidays: 7am - 9pm",,,
St. Albert at Gervais,,100 140 St. Albert Trail,,St. Albert,AB,T8N 7C8,Canada,"T: 780.418.0699 , F: 780.418.8891",53.6202569,-113.6117064,"Mon - Thurs: 7am - 8pm , Fri   Sat: 7am - 9pm , Sun   Holidays: 8am - 8pm",,,
170th Holiday Inn,,11330 170 St NW,,Edmonton,AB,T5S 2X1,Canada,T: 780.444.3110,53.562126,-113.616354,"Mon - Fri: 6:30am - 10:00pm , Sat: 7:00am - 10:00pm , Sun: 7:00am - 9:30pm",,,
West Lawn,,9917 170th St,,Edmonton,AB,T5P 4S2,Canada,"T: 780.486.7109 , F: 780.486.3493",53.5394905,-113.6149646,"Mon - Thurs: 6am - 9pm , Fri   Sat: 6am -  10pm , Sun: 7am - 9pm , Holidays: 8am - 8pm",,,
Castledowns,,12707-140th Ave,,Edmonton,T6V 1G5,,Canada,T: 780.456.7688,53.601929,-113.542018,"Mon-Sat 7:00am-9:00pm  ,  Sun   Holidays 8:00am-8:00pm",,,
Namao,,15987 97 Street NW,,Edmonton,AB,T5X 0C7,Canada,"T: 780.476.8861 , F: 780.476.8892",53.6214302,-113.4917476,"Mon - Wed: 8am - 8pm , Thurs - Sat: 7am - 9pm , Sun   Holidays: 8am - 8pm",,,
Kingsway,,11431 Kingsway Ave NW,,Edmonton,AB,T5G 3E8,Canada,"T: 780.488.8238 , F: 780.488.8915",53.5650172,-113.5185614,"Mon - Sat: 7am - 9pm , Sun: 7am - 8pm , Holidays 8am-8pm",,,
Jasper Avenue,,10140 109th St,,Edmonton,AB,T5J 1M7,Canada,"T: 780.421.7546 , F: 780.421.7586",53.5438865,-113.5082072,"Mon - Thurs: 6:30am - 8pm  , Fri   Sat: 6:30am - 9pm , Sun   Hol: 8am - 8pm",,,
South Edmonton Common,,10004 21st Ave NW,,Edmonton,AB,T6N 0A1,Canada,"T: 780.461.3011 , F: 780.461.3080",53.4514052,-113.4876821,"Mon - Thurs: 7am - 9pm , Fri   Sat: 7am - 10pm , Sun   Holidays: 8am - 8pm",,,
Fort Saskatchewan,,8770 84 St,,Fort Saskatchewan,AB,T8L 4R5,Canada,"T: 780.997.0606 , F: 780.997.0626",53.6850133,-113.2350349,"Mon - Wed: 7am - 9pm , Thurs - Sat: 7am - 11pm , Sun: 7am - 9pm , Holidays: 8am - 8pm",,,
Mill Woods,,6108 28th Ave,,Edmonton,AB,T6L 6N4,Canada,"T: 780.758.7676 , F: 780.756.7677",53.4593812,-113.4273796,"Mon - Sat: 7am - 9pm , Sun   Holidays: 8am - 8pm",,,
Sherwood Park,,170-1020 Sherwood Drive,,Sherwood Park,AB,T8A 2G4,Canada,"T: 780-467-7484 , F:780.467.7487",53.5127825,-113.3194736,"Mon - Thurs: 7am - 9pm , Fri   Sat: 7am - 10pm , Sun   Holidays: 8am - 8pm",,,
Leduc North,,8116 Sparrow Crescent,,Leduc,AB,T9E 8B7,Canada,"T: 780.986.1760 , F: 780.986.1782",53.3037074,-113.5449826,"Mon - Fri: 9am - 11pm , Sat   Sun: 8am - 11pm",,,
Leduc Common,,101 5401 Discovery Way,,Leduc,AB,T9E 8N4,Canada,"T: 780.980.9448 , F: 780.980.9438",53.2694029,-113.5659552,"Mon - Thurs: 7am - 8pm , Fri   Sat: 7am - 9pm , Sun   Holidays 8am-8pm",,,
Lethbridge,,2420 Fairway Plaza Rd S,,Lethbridge,AB,T1K 6Z3,Canada,"T: 403.327.3088 , F: 403.327.3263",49.6680729,-112.7946804,"Mon - Sat: 7am - 9pm , Sun: 8am - 8pm , Holidays: 8am - 8pm",,,
Brooks,,1119 2nd Street West,,Brooks,AB,T1R 0N9,Canada,"T: 403.793.8000 , F:403.362.8362",50.580843,-111.897161,"Mon - Fri: 7:00am - 9pm , Sat: 7am - 10pm , Sun   Holidays: 7am - 9pm",,,
Medicine Hat,,910 Redcliffe Drive S,,Medicine Hat,AB,T1A 5E4,Canada,403.504.4111,50.03007,-110.7054264,"Sun - Thurs: 7am - 9:00pm , Fri   Sat: 7am - 10:00pm  , Holidays: 8am - 8pm",,,
Okotoks,,747 201 Southridge Drive,,Okotoks,AB,T1S 2E1,Canada,T: 403.995.0982,50.7065834,-113.9748536,"Mon - Sat: 8am - 9pm , Sun and Holidays: 8am - 8pm",,,
Seton,,19489 Seton Crescent SE,,Calgary,AB,3M1T4,Canada,T: 403.570.9420,50.8783965,-113.9598902,"Mon - Sat: 7am - 9pm , Sun   Holidays: 8am - 8pm",,,
Red Deer,,Unit #901-6702 Golden West Ave,,Red Deer,AB,T4P 1A8,Canada,"T: 403.314.2330  ,  F: 1.866.488.1734",52.2898277,-113.8492554,"Mon - Sat: 7am - 9pm  ,   Sun 8am-8pm  ,  Holidays 8am-8pm",,,
Red Deer South,,163 Leva Avenue,,Red Deer,AB,T4E 1B9,Canada,"T: 403.348.5522 , F: 403.348.5511",52.2134709,-113.8160377,"Mon to Thurs: 6:30am - 9pm , Fri   Sat: 6:30am - 10pm , Sun: 7am - 9pm",,,
Bonnyville (OPENING SOON!),,,,Bonnyville,AB,,Canada,,54.266667,-110.75,,,,
Airdrie,,404-988 Yankee Valley Blvd. SE,,Airdrie,AB,T4A 2E4,Canada,"T: 403.912.8082 , F: 403.912.8020",51.2708806,-113.9911891,"Sun - Thurs: 7am - 10pm , Fri   Sat: 7am - 11pm",,,
Harvest Hills,,622 500 Country Hills Blvd NE,,Calgary,AB,T3K 4Y7,Canada,"T: 403.226.2771 , F: 403.226.2771",51.1554609,-114.0533007,"Mon - Sat: 7am - 9pm , Sun: 8am - 8pm",,,
Edgemont,,510 5149 Country Hills Blvd NW,,Calgary,AB,T3A 5K8,Canada,"T: 403.547.9362 , F: 403.547.9363",51.1382018,-114.1574584,"Mon - Sat: 7am - 9pm , Sun   Holidays: 8am - 8pm",,,
Crowfoot,,7 Crowfoot Rise NW,,Calgary,AB,T3G 2L5,Canada,"T: 403.208.3000 , F: 403.208.2897",51.1254598,-114.2130994,"Mon - Sat: 7am - 8pm , Sun 8am - 7pm , Holidays: 8am - 4pm",,,
Aviation,,#14 - 252 Aviation Blvd. NE,,Calgary,AB,T2E 5T1,Canada,587.538.9755,51.1011414,-114.0292961,"Mon - Sat: 7am - 9pm , Sun   Holidays: 8am - 8pm",,,
Sunridge,,3321 20th Ave NE,,Calgary,AB,T1Y 7A8,Canada,"T: 403.571.3220 , F: 403.571.3222",51.0707226,-113.9885176,"Mon   Tues: 7am - 9pm , Wed   Thurs: 6:30am - 9pm ,
Fri   Sat - Thurs: 6:30am - 10pm , Sun: 7am - 8pm , Holidays: 8am - 8pm",,,
North Hill,,1668 1632 14 Ave NW,,Calgary,AB,T2N 1M7,Canada,"T: 403.289.8218 , F: 403.289.2383",51.0654324,-114.0996443,"Mon - Sat: 7am - 9pm , Sun   Holidays: 8am - 9pm",,,
Chinook,,6262 Macleod Trail S,,Calgary,AB,T2H 0K6,Canada,"T: 403.252.2909 , F: 403.258.1510",50.9969246,-114.0714241,"Mon - Thurs: 6am - 9pm , Fri   Sat: 6am - 10pm , Sun: 7am - 8pm , Holidays 8am-8pm",,,
Deerfoot Meadows,,"860, 8180 11th Street SE",,Calgary,AB,T2H 3B5,Canada,"T: 403.266.1616 , 403.252.1662",50.9777819,-114.042207,"Mon - Fri: 7am - 9pm , Sat: 7am - 10pm , Sun: 8am - 8pm",,,
Douglas Square,,"#658, 11520 - 24th Street SE",,Calgary,AB,T2Z 3E9,Canada,T: 403.720.6600,50.952895,-113.999798,"Mon - Thurs: 7am - 8pm , Fri   Sat: 7am - 9pm , Sun   Holidays 8am - 8pm",,,
Bonavista,,606 12101 Lake Fraser Drive SE,,Calgary,AB,T2J 7G4,Canada,"T: 403.225.6534 , F: 403.225.6535",50.9391985,-114.0674024,"Mon - Sat: 7am - 9pm , Sun   Holidays: 8am - 8pm",,,
South Trail,,207 4307 130th Ave SE,,Calgary,AB,T2Z 3V8,Canada,"T: 403.257.6658 , F: 403.257.6659",50.9308500,-113.9689153,"Mon - Sat: 7am - 8pm , Sun 8am - 7pm , Holidays: 8am - 4pm",,,
Shawnessy,,277 Shawville Blvd SE,,Calgary,AB,T2Y 3H9,Canada,"T: 403.543.7200 , F: 403.543.7201",50.9014560,-114.0657020,"Mon - Sat: 7am - 9pm , Sun: 8am - 8pm",,,
Banff,,333 Banff Avenue,,Banff,AB,T1L 1B1,Canada,"T: 403.760.3298 , F: 403 760 3290",51.1797542,-115.5704690,Call restaurant for hours,,,
Golden,,1049a Trans Canada Highway,,Golden,BC,V0A 1H2,Canada,250-344-7661,51.3114438,-116.9719905,"Sunday â€“ Saturday:
7:00 am to 10:00 pm",,,
Grande Prairie,,12335 99 Street,,Grande Prairie,AB,T8V 6Y5,Canada,"T: 780.533.3353 , F: 780.533.3356",55.1900743,-118.7905754,"Sun - Thurs 8am-8pm , Fri 8am-9pm , Sat 7am-9pm",,,
Creston,,1809 Northwest Blvd,,Creston,BC,V0B 1G8,Canada,T: 250-428-8826,49.1197523,-116.5236045,"Sun - Wed: 7am - 9:30pm , Thurs - Sat: 7am - 11pm , Holidays: 8am - 8pm",,,
Vernon,,4795 34th Street,,Vernon,BC,V1T 5Y9,Canada,T: 250.558.4525,50.2817546,-119.2758063,"Mon - Thurs: 7am - 9pm , Fri   Sat: 7am - 10pm , Sun   Holidays: 8am - 8pm",,,
Kelowna,,1140 Harvey Ave,,,V1Y,9K8,Canada,(250) 712-7690,49.883796,-119.476619,"Mon - Sun: 7:00am - 9:00pm ,  Holiday Hours: 8:00am - 8:00pm",,,
Campbell River,,811 13th Ave,,Campell River,BC,V9W 4G9,Canada,"T: 250.286.3448 , F: 250.286.3458",50.0279619,-125.2524878,"Mon - Sat: 6am - 8pm , Sunday: 7am - 8pm , Holidays: 7am - 7pm",,,
Chilliwack,,45389 Luckakuck Way,,Chilliwack,BC,V2R 3C7,Canada,"T: 604.858.5663 , F: 604.858.5699",49.1410842,-121.9669641,"Sun - Thurs: 6:30am - 9pm , Fri   Sat: 6:30am - 10pm",,,
Murrayville,,22314 Fraser Hwy,,Langley,BC,V3A 8M6,Canada,"T: 604.530.4317 , F: 604.530.4147",49.0907308,-122.6057522,"Sun - Thurs: 6:30am - 9pm , Fri   Sat: 6:30am - 10pm , Holidays: 8am - 8pm",,,
Walnut Grove,,8720 204 Street,,Langley,BC,V1M 2Y5,Canada,"T: 604.888.4211 , F: 604.882.0231",49.1618774,-122.6569178,"Mon - Sun: 6:30am - 9pm , Holidays: 8am - 8pm",,,
Willowbrook,,Unit 101 20125 64th Ave,,Langley,BC,V2Y 1M9,Canada,"T: 604.533.8911 , F: 604.533.8917",49.1194427,-122.665085,"Sun - Thurs: 6:30am - 9pm , Fri   Sat: 6:30am - 10pm",,,
Cloverdale,,17830 56th Ave,,Cloverdale,BC,V3S 1C7,Canada,"T: 604.574.9912 , F: 604.574.7789",49.104133,-122.7283374,"Mon - Sat: 6am - 9pm , Sun  Holidays: 7am - 8pm",,,
Coquitlam,,Unit 2660 2929 Barnet Hwy,,Coquitlam,BC,V3B 5R5,Canada,"T: 604.468.8000 , F: 604.468.8053",49.2784614,-122.7985418,"Mon - Tues: 7:30am - 7pm , Wed - Fri: 7:30am - 9pm , Sat: 7:30am - 7:30pm , Sun   Hol: 8am - 7pm",,,
Evergreen,,8958 152nd St,,Surrey,BC,V3R 4E7,Canada,"T: 604.581.3212 , F: 604.581.9284",49.1655605,-122.8013977,"Mon - Sun: 7am - 9pm , Holidays: 8am - 8pm",,,
Central City,,1076 Central City,,Surrey,BC,V3T 2W1,Canada,"T: 604.582.2545 , F: 604.930.4186",49.189999,-122.83,"Mon - Thurs: 7am - 9pm , Fri: 7am - 10pm , Sat: 7am - 9pm , Sun   Holidays: 7am - 7pm",,,
Lougheed,,116 - 1090 Lougheed Highway,,Coquitlam,BC,V3K 6G9,Canada,"T: 604.553.3828 , F: 604.553.2824",49.2346374,-122.8628579,"Mon - Thurs: 8am - 9pm , Fri - Sat: 8am - 10pm , Sun: 8am - 9pm , Holidays: 8am - 8pm",,,
Scottsdale,,7135 120th St,,Surrey,BC,V4E 2A9,Canada,"T: 604.599.1784 , F: 604.599.1784",49.1333231,-122.8904574,"Mon - Sat: 7am - 9pm , Sun   Hol: 7am - 8pm",,,
Ladner,,5239 Ladner Trunk Rd,,Ladner,BC,V4K 1W4,Canada,"T: 604.940.0833 , F: 604.940.0833",49.0902448,-123.0770044,"Mon - Thurs: 7am - 9pm , Fri: 7am - 10pm , Sat: 7am - 9pm , Sun: 7am - 8pm",,,
Dunsmuir,,1 111 Dunsmuir St,,Vancouver,BC,V6B 6A3,Canada,"T: 604.602.9233 , F: 604.568.4733",49.2799477,-123.1107088,"Mon - Thurs: 8am - 7pm , Fri - Sun: 8am - 8pm , Holidays: 8am - 8pm , Open late on event nights",,,
Sechelt,,5500 Sunshine Coast Highway,,Sechelt,BC,V0N 3A0,Canada,"T: 778-458-3048 , F: 778-458-3050",49.4739842,-123.74786,"Mon - Wed: 7am-9pm , Thurs   Fri: 7am-10pm , Sat 7am-10pm ,  Sun 7am - 9pm , Holidays 8am-8pm",,,
Victoria Douglas,,2900 Douglas St,,Victoria,BC,VBT 4N4,Canada,T: 250-590-0892,48.4424191,-123.3696346,"Mon - Fri: 7:00-9pm , Sat   Sun: 7am - 9pm",,,
Nanaimo South - Days Inn,,809 Island Hwy S. at Days Inn,,Nanaimo,BC,,Canada,(250) 754-8171,49.1480753,-123.9335279,Mon-Sun: 7am-9pm,,,
Courtenay,,795 Ryan Rd,,Courtenay,BC,V9N 3R6,Canada,"T: 250.334.9638 , F: 250.334.2541",49.698857,-124.9872787,"Mon - Wed: 7am - 9pm  , Thurs   Sat: 7am - 10pm , Sun   Holidays: 8am - 8pm",,,
Woodgrove,,6550 Island Hwy N,,Nanaimo,BC,V9T 1W9,Canada,"T: 250.390.1227 , F: 250.390.1228",49.2343679,-124.0443078,Mon - Sun: 6:30am - 9pm,,,
Whitehorse,,2288 2nd Avenue,,Whitehorse,YT,Y1A 1C8,Canada,"T: 867.633.5524 , F: 867.668.6105",60.728755,-135.0664657,Mon - Sun: 7am - 8pm,,,
Prince George,,103 - 5935 O&#039Grady Road,,Prince George,BC,V2N 6Z5,Canada,250.964.1626,53.8619662,-122.7789071,"Mon - Wed: 9am -7pm , Thurs: 8am - 8pm , Fri   Sat: 8am - 8pm , Sun   Holidays: 8am - 6pm",,,
Lockport,,5753 Highway 9 at Highway 44,,Lockport,MB,R1A 2R7,Canada,"T: 204.757.4700 , F: 204.757.7837",50.1280035,-96.8940888,"Mon - Wed: 8am - 9pm , Thurs - Sat: 8am - 10pm , Sun: 8am-9pm",,,
Peterborough,,Unit 4b 898 Monaghan Road,,Peterborough,ON,K9J 5K4,Canada,"705.749.1100 , 705.749.6986",44.2872790,-78.3284,"Sun to Wed: 7am - 9pm , Thurs to Sat: 7am - 10pm",,,
BURLINGTON,,2535 Appleby Line,,Burlington,Ontario,L7L 0B6,Canada,T: 905-331-0503,43.4066465,-79.8078111,"Mon - Wed: 7:00am - 9:00pm , Thurs - Fri 7:00am-10:00pm , Sat: 7:00am - 10:00pm , Sun: 8:00am - 8:00pm",,,
Grasslands (NOW OPEN!),,4875 Harbour Landing Dr.,,Regina,SK,S4W 0B7,Canada,"T: 306.585.8010 , F: 306.585.8011",50.418253,-104.648779,"Mon - Sun: 7am - 10pm , Holidays: 7am - 10pm",,,
ALBERT ST.,,777 Albert St,,Regina,SK,S4R 2P6,Canada,"T: 306.775.3000 , F: 306.565.2577",50.4658502,-104.6171594,"Mon - Sun: 7am - 10pm , Holidays: 7am - 10pm",,,
Prince Albert,,800 15th St E,,Prince Albert,SK,S6V 8E3,Canada,"T: 306.922.0909 , F: 306.922.0913",53.2011614,-105.7290316,"Mon - Thurs: 7am - 9pm , Fri   Sat: 7am - 10pm , Sun: 8am - 9pm",,,
Saskatoon,,1715 Idylwyld Dr N,,Saskatoon,SK,S7L 1B4,Canada,"T: 306.652.3222 , F: 306.652.4660",52.1531238,-106.6702787,"Mon - Sun: 7am - 9pm , Holidays: 8am - 8pm",,,
