store_name,store_number,address,address2,city,state,zip_code,country,phone_number,latitude,longitude,store_hours,store_type,other_fields,coming_soon
,,1701 1st Ave S Unit 105,,Birmingham,AL,35233,United States,(205) 518-0025,,,"Mon 7:00AM - 8:00PM, Tue 7:00AM - 8:00PM, Wed 7:00AM - 8:00PM, Thu 7:00AM - 8:00PM, Fri 7:00AM - 8:00PM, Sat 10:00AM - 6:00PM, Sun 12:00PM - 6:00PM",,,0
,,4700 Hwy 280 South Suite 10,,Birmingham,AL,35242,United States,(205) 995-8803,,,"Mon 7:00AM - 7:00PM, Tue 7:00AM - 7:00PM, Wed 7:00AM - 7:00PM, Thu 7:00AM - 7:00PM, Fri 7:00AM - 7:00PM, Sat 10:00AM - 6:00PM, Sun 12:00PM - 6:00PM",,,0
,,"1917 Oxmoor Road, Suite 100",,Homewood,AL,35244,United States,(205) 985-8902,,,"Mon 7:00AM - 7:00PM, Tue 7:00AM - 7:00PM, Wed 7:00AM - 7:00PM, Thu 7:00AM - 7:00PM, Fri 7:00AM - 7:00PM, Sat 10:00AM - 6:00PM, Sun 12:00PM - 6:00PM",,,0
,,2737 Hwy 280,,Mountain Brook,AL,35223,United States,(205) 871-8142,,,"Mon 7:00AM - 7:00PM, Tue 7:00AM - 7:00PM, Wed 7:00AM - 7:00PM, Thu 7:00AM - 7:00PM, Fri 7:00AM - 7:00PM, Sat 10:00AM - 6:00PM, Sun 12:00PM - 6:00PM",,,0
,,1573 N Dysart Rd. #B2,,Avondale,AZ,85392,United States,(623) 547-2286,,,"Mon 7:00AM - 9:00PM, Tue 7:00AM - 9:00PM, Wed 7:00AM - 9:00PM, Thu 7:00AM - 9:00PM, Fri 7:00AM - 9:00PM, Sat 7:00AM - 9:00PM, Sun 9:00AM - 7:00PM",,,0
,,444 West Main St,,Mesa,AZ,85201,United States,(480) 964-0104,,,"Mon 7:00AM - 7:00PM, Tue 7:00AM - 7:00PM, Wed 7:00AM - 7:00PM, Thu 7:00AM - 7:00PM, Fri 7:00AM - 7:00PM, Sat 8:00AM - 7:00PM, Sun Closed - Closed",,,0
,,7315 North Oracle Rd,,Tucson,AZ,85704,United States,(520) 638-7883,,,"Mon 7:00AM - 9:00PM, Tue 7:00AM - 9:00PM, Wed 7:00AM - 9:00PM, Thu 7:00AM - 9:00PM, Fri 7:00AM - 9:00PM, Sat 7:00AM - 9:00PM, Sun 9:00AM - 7:00PM",,,0
,,"102 Markham Park Dr., Ste A",,Little Rock,AR,72211,United States,(501) 227-6399,,,"Mon 7:00AM - 7:00PM, Tue 7:00AM - 7:00PM, Wed 7:00AM - 7:00PM, Thu 7:00AM - 7:00PM, Fri 7:00AM - 7:00PM, Sat 9:00AM - 4:00PM, Sun 12:00PM - 4:00PM",,,0
,,5701 Outlets at Tejon Pkwy #870,,Arvin,CA,93203,United States,(661) 858-2899,,,"Mon 10:00AM - 9:00PM, Tue 10:00AM - 9:00PM, Wed 10:00AM - 9:00PM, Thu 10:00AM - 9:00PM, Fri 10:00AM - 9:00PM, Sat 10:00AM - 9:00PM, Sun 10:00AM - 8:00PM",,,0
,,9301 Tampa Ave #83A,,Northridge,CA,91324,United States,(818) 718-7669,,,"Mon 10:00AM - 9:00PM, Tue 10:00AM - 9:00PM, Wed 10:00AM - 9:00PM, Thu 10:00AM - 9:00PM, Fri 10:00AM - 9:00PM, Sat 10:00AM - 9:00PM, Sun 11:00AM - 7:00PM",,,0
,,7451 Pleasant Grove Blvd Suite 130,,Roseville,CA,95678,United States,,,,,,,1
,,526 Wilshire Boulevard,,Santa Monica,CA,90401,United States,(310) 857-6030,,,"Mon 8:00AM - 10:00PM, Tue 8:00AM - 10:00PM, Wed 8:00AM - 10:00PM, Thu 8:00AM - 10:00PM, Fri 8:00AM - 11:00PM, Sat 8:00AM - 11:00PM, Sun 8:00AM - 10:00PM",,,0
,,"380 South State Road 434, #1003",,Altamonte Springs,FL,32714,United States,(407) 682-2044,,,"Mon 7:00AM - 10:00PM, Tue 7:00AM - 10:00PM, Wed 7:00AM - 10:00PM, Thu 7:00AM - 10:00PM, Fri 7:00AM - 10:00PM, Sat 8:00AM - 10:00PM, Sun 9:00AM - 9:00PM",,,0
,,155 Cranes Roost Blvd.,,Altamonte Springs,FL,32701,United States,(407) 478-2979,,,"Mon 7:00AM - 10:00PM, Tue 7:00AM - 10:00PM, Wed 7:00AM - 10:00PM, Thu 7:00AM - 10:00PM, Fri 7:00AM - 10:30PM, Sat 8:00AM - 10:30PM, Sun 9:00AM - 9:00PM",,,0
,,1923 W Brandon Blvd,,Brandon,FL,33511,United States,(813) 653-9515,,,"Mon 7:00AM - 9:00PM, Tue 7:00AM - 9:00PM, Wed 7:00AM - 9:00PM, Thu 7:00AM - 9:00PM, Fri 7:00AM - 9:00PM, Sat 10:00AM - 10:00PM, Sun 10:00AM - 7:00PM",,,0
,,"3950 S. US Hwy 17-92, #1088",,Casselberry,FL,32707,United States,(407) 960-4744,,,"Mon 7:00AM - 9:00PM, Tue 7:00AM - 9:00PM, Wed 7:00AM - 9:00PM, Thu 7:00AM - 9:00PM, Fri 7:00AM - 9:00PM, Sat 8:00AM - 9:00PM, Sun 9:00AM - 8:00PM",,,0
,,2525 Howell Branch Rd,,Casselberry,FL,32707,United States,(407) 478-8987,,,"Mon 6:30AM - 10:00PM, Tue 6:30AM - 10:00PM, Wed 6:30AM - 10:00PM, Thu 6:30AM - 10:00PM, Fri 6:30AM - 10:00PM, Sat 7:00AM - 10:00PM, Sun 8:00AM - 8:00PM",,,0
,,2443 South Hwy 27,,Clermont,FL,34711,United States,(352) 988-5442,,,"Mon 7:00AM - 10:00PM, Tue 7:00AM - 10:00PM, Wed 7:00AM - 10:00PM, Thu 7:00AM - 10:00PM, Fri 7:00AM - 10:00PM, Sat 8:00AM - 10:00PM, Sun 8:00AM - 8:00PM",,,0
,,1935 Don Wickham Dr.,,Clermont,FL,34711,United States,(352) 536-9003,,,"Mon 7:00AM - 7:00PM, Tue 7:00AM - 7:00PM, Wed 7:00AM - 7:00PM, Thu 7:00AM - 7:00PM, Fri 7:00AM - 7:00PM, Sat 9:00AM - 4:00PM, Sun 9:00AM - 4:00PM",,,0
,,1564 South Dixie Highway,,Coral Gables,FL,33146,United States,(305) 603-7884,,,"Mon 8:00AM - 8:00PM, Tue 8:00AM - 8:00PM, Wed 8:00AM - 8:00PM, Thu 8:00AM - 8:00PM, Fri 8:00AM - 8:00PM, Sat 9:00AM - 7:00PM, Sun Closed - Closed",,,0
,,1855 South University Drive,,Davie,FL,33324,United States,(954) 769-1467,,,"Mon 9:00AM - 9:00PM, Tue 9:00AM - 9:00PM, Wed 9:00AM - 9:00PM, Thu 9:00AM - 9:00PM, Fri 9:00AM - 9:00PM, Sat 9:00AM - 9:00PM, Sun 10:00AM - 7:00PM",,,0
,,2525 West International Speedway Blvd #100,,Daytona Beach,FL,32114,United States,(386) 333-9041,,,"Mon 7:00AM - 9:00PM, Tue 7:00AM - 9:00PM, Wed 7:00AM - 9:00PM, Thu 7:00AM - 9:00PM, Fri 7:00AM - 9:00PM, Sat 7:00AM - 9:00PM, Sun 9:00AM - 7:00PM",,,0
,,1100 Cornerstone Blvd Suite 12,,Daytona Beach,FL,32117,United States,,,,,,,1
,,9709 NW 41st Street,,Doral,FL,33178,United States,(305) 463-9220,,,"Mon 7:00AM - 10:00PM, Tue 7:00AM - 10:00PM, Wed 7:00AM - 10:00PM, Thu 7:00AM - 10:00PM, Fri 7:00AM - 10:00PM, Sat 9:00AM - 10:00PM, Sun 10:00AM - 9:00PM",,,0
,,2245 Plantation Center Dr.,,Fleming Island,FL,32003,United States,(904) 215-0350,,,"Mon 8:00AM - 8:00PM, Tue 8:00AM - 8:00PM, Wed 8:00AM - 8:00PM, Thu 8:00AM - 8:00PM, Fri 8:00AM - 8:00PM, Sat 8:00AM - 8:00PM, Sun 11:00AM - 6:00PM",,,0
,,3832 Newberry Rd. Ste. 1-E,,Gainesville,FL,32607,United States,(352) 337-2850,,,"Mon 11:00AM - 9:00PM, Tue 11:00AM - 9:00PM, Wed 11:00AM - 9:00PM, Thu 11:00AM - 9:00PM, Fri 11:00AM - 9:00PM, Sat 11:00AM - 9:00PM, Sun 11:00AM - 9:00PM",,,0
,,3310-B SW 35th Blvd,,Gainesville,FL,32608,United States,(352) 377-4474,,,"Mon 7:00AM - 10:00PM, Tue 7:00AM - 10:00PM, Wed 7:00AM - 10:00PM, Thu 7:00AM - 10:00PM, Fri 7:00AM - 10:00PM, Sat 9:00AM - 10:00PM, Sun 10:00AM - 10:00PM",,,0
,,1620 W. University Ave.,,Gainesville,FL,32603,United States,(352) 377-9400,,,"Mon 8:00AM - 9:00PM, Tue 8:00AM - 9:00PM, Wed 8:00AM - 9:00PM, Thu 8:00AM - 9:00PM, Fri 8:00AM - 9:00PM, Sat 9:00AM - 9:00PM, Sun 11:00AM - 7:00PM",,,0
,,1547-1 University Blvd W,,Jacksonville,FL,32217,United States,(904) 419-6161,,,"Mon 7:00AM - 9:00PM, Tue 7:00AM - 9:00PM, Wed 7:00AM - 9:00PM, Thu 7:00AM - 9:00PM, Fri 7:00AM - 9:00PM, Sat 8:00AM - 9:00PM, Sun 10:00AM - 7:00PM",,,0
,,"14866 Old St. Augustine Rd., Suite 114",,Jacksonville,FL,32258,United States,(904) 503-7134,,,,,,1
,,1210 S International Parkway,,Lake Mary,FL,32746,United States,(407) 805-3225,,,"Mon 7:00AM - 9:00PM, Tue 7:00AM - 9:00PM, Wed 7:00AM - 9:00PM, Thu 7:00AM - 9:00PM, Fri 7:00AM - 9:00PM, Sat 8:00AM - 9:00PM, Sun 9:00AM - 8:00PM",,,0
,,2209 Collier Parkway,,Land O Lakes,FL,34639,United States,(813) 816-0053,,,"Mon 8:00AM - 9:00PM, Tue 8:00AM - 9:00PM, Wed 8:00AM - 9:00PM, Thu 8:00AM - 9:00PM, Fri 8:00AM - 9:00PM, Sat 9:00AM - 9:00PM, Sun 10:00AM - 7:00PM",,,0
,,18845 State Rd 54,,Lutz,FL,33558,United States,(813) 345-8539,,,"Mon 8:30AM - 9:00PM, Tue 8:30AM - 9:00PM, Wed 8:30AM - 9:00PM, Thu 8:30AM - 9:00PM, Fri 8:30AM - 9:00PM, Sat 10:00AM - 9:00PM, Sun 10:00AM - 7:00PM",,,0
,,5723 NW 7th Street,,Miami,FL,33126,United States,(305) 267-7795,,,"Mon 8:00AM - 9:00PM, Tue 8:00AM - 9:00PM, Wed 8:00AM - 9:00PM, Thu 8:00AM - 9:00PM, Fri 8:00AM - 9:00PM, Sat 8:00AM - 9:00PM, Sun 9:00AM - 9:00PM",,,0
,,2400 Immokalee Road,,Naples,FL,34110,United States,(239) 597-8666,,,"Mon 7:00AM - 8:00PM, Tue 7:00AM - 8:00PM, Wed 7:00AM - 8:00PM, Thu 7:00AM - 8:00PM, Fri 7:00AM - 8:00PM, Sat 9:00AM - 6:00PM, Sun 11:00AM - 5:00PM",,,0
,,6420 Naples Blvd #101,,Naples,FL,34109,United States,(239) 513-1700,,,"Mon 8:00AM - 10:00PM, Tue 8:00AM - 10:00PM, Wed 8:00AM - 10:00PM, Thu 8:00AM - 10:00PM, Fri 8:00AM - 10:00PM, Sat 8:00AM - 10:00PM, Sun 9:00AM - 9:00PM",,,0
,,937 Harley Strickland Blvd #600,,Orange City,FL,32763,United States,(386) 774-1079,,,"Mon 7:00AM - 9:00PM, Tue 7:00AM - 9:00PM, Wed 7:00AM - 9:00PM, Thu 7:00AM - 9:00PM, Fri 7:00AM - 9:00PM, Sat 9:00AM - 9:00PM, Sun 10:00AM - 6:00PM",,,0
,,2441 South Orange Avenue,,Orlando,FL,32806,United States,(407) 480-3552,,,"Mon 7:00AM - 9:00PM, Tue 7:00AM - 9:00PM, Wed 7:00AM - 9:00PM, Thu 7:00AM - 9:00PM, Fri 7:00AM - 9:00PM, Sat 10:00AM - 7:00PM, Sun 10:00AM - 7:00PM",,,0
,,9352 Narcoossee Rd,,Orlando,FL,32827,United States,(407) 704-4651,,,"Mon 7:00AM - 9:30PM, Tue 7:00AM - 9:30PM, Wed 7:00AM - 9:30PM, Thu 7:00AM - 9:30PM, Fri 7:00AM - 9:30PM, Sat 8:00AM - 9:30PM, Sun 9:00AM - 8:00PM",,,0
,,4104 Millenia Blvd Suite 110,,Orlando,FL,32839,United States,(407) 903-0440,,,"Mon 7:00AM - 10:00PM, Tue 7:00AM - 10:00PM, Wed 7:00AM - 10:00PM, Thu 7:00AM - 10:00PM, Fri 7:00AM - 10:00PM, Sat 8:00AM - 9:00PM, Sun 8:00AM - 9:00PM",,,0
,,7824 W Sandlake Rd,,Orlando,FL,32819,United States,(407) 447-1404,,,"Mon 7:00AM - 9:00PM, Tue 7:00AM - 9:00PM, Wed 7:00AM - 9:00PM, Thu 7:00AM - 9:00PM, Fri 7:00AM - 9:00PM, Sat 8:00AM - 8:00PM, Sun 9:00AM - 8:00PM",,,0
,,13851 S John Young Pkwy,,Orlando,FL,32837,United States,(407) 447-0938,,,"Mon 6:30AM - 10:00PM, Tue 6:30AM - 10:00PM, Wed 6:30AM - 10:00PM, Thu 6:30AM - 10:00PM, Fri 6:30AM - 10:00PM, Sat 7:00AM - 10:00PM, Sun 7:00AM - 10:00PM",,,0
,,469 N. Alafaya Trail,,Orlando,FL,32828,United States,(407) 282-1100,,,"Mon 7:00AM - 10:00PM, Tue 7:00AM - 10:00PM, Wed 7:00AM - 10:00PM, Thu 7:00AM - 10:00PM, Fri 7:00AM - 10:00PM, Sat 8:00AM - 10:00PM, Sun 8:00AM - 9:00PM",,,0
,,2561 S Kirkman Rd.,,Orlando,FL,32811,United States,(407) 296-9409,,,"Mon 7:00AM - 9:00PM, Tue 7:00AM - 9:00PM, Wed 7:00AM - 9:00PM, Thu 7:00AM - 9:00PM, Fri 7:00AM - 9:00PM, Sat 8:00AM - 9:00PM, Sun 9:00AM - 8:00PM",,,0
,,6607 South Semoran Blvd,,Orlando,FL,32822,United States,(407) 770-1738,,,"Mon 7:00AM - 9:00PM, Tue 7:00AM - 9:00PM, Wed 7:00AM - 9:00PM, Thu 7:00AM - 9:00PM, Fri 7:00AM - 9:00PM, Sat 9:00AM - 9:00PM, Sun 9:00AM - 7:00PM",,,0
,,4860 New Broad St,,Orlando,FL,32814,United States,(407) 898-1911,,,"Mon 6:30AM - 10:00PM, Tue 6:30AM - 10:00PM, Wed 6:30AM - 10:00PM, Thu 6:30AM - 10:00PM, Fri 6:30AM - 10:00PM, Sat 7:00AM - 10:00PM, Sun 8:00AM - 8:00PM",,,0
,,8827 Conroy-Windermere Rd,,Orlando,FL,32835,United States,(407) 217-7235,,,"Mon 7:00AM - 9:00PM, Tue 7:00AM - 9:00PM, Wed 7:00AM - 9:00PM, Thu 7:00AM - 9:00PM, Fri 7:00AM - 9:00PM, Sat 8:00AM - 9:00PM, Sun 9:00AM - 8:00PM",,,0
,,486 North Orange Ave,,Orlando,FL,32801,United States,(407) 930-1566,,,,,,1
,,12720 S. Orange Blossom Trail,,Orlando,FL,32837,United States,(407) 859-5966,,,"Mon 7:00AM - 10:00PM, Tue 7:00AM - 10:00PM, Wed 7:00AM - 10:00PM, Thu 7:00AM - 10:00PM, Fri 7:00AM - 10:00PM, Sat 8:00AM - 8:00PM, Sun 9:00AM - 7:00PM",,,0
,,1185 Oviedo Mall Boulevard,,Oviedo,FL,32765,United States,(407) 366-7400,,,"Mon 10:00AM - 9:00PM, Tue 10:00AM - 9:00PM, Wed 10:00AM - 9:00PM, Thu 10:00AM - 9:00PM, Fri 10:00AM - 9:00PM, Sat 10:00AM - 9:00PM, Sun 12:00PM - 6:00PM",,,0
,,7 Alafaya Woods Blvd Suite 2000,,Oviedo,FL,32765,United States,(407) 977-5050,,,"Mon 6:30AM - 10:00PM, Tue 6:30AM - 10:00PM, Wed 6:30AM - 10:00PM, Thu 6:30AM - 10:00PM, Fri 6:30AM - 10:00PM, Sat 7:00AM - 10:00PM, Sun 8:00AM - 8:00PM",,,0
,,3750 Park Blvd,,Pinellas Park,FL,33781,United States,(727) 527-5200,,,"Mon 8:00AM - 8:00PM, Tue 8:00AM - 8:00PM, Wed 8:00AM - 8:00PM, Thu 8:00AM - 8:00PM, Fri 8:00AM - 8:00PM, Sat 9:00AM - 8:00PM, Sun 10:00AM - 7:00PM",,,0
,,278 Towne Center Circle,,Sanford,FL,32771,United States,(407) 328-5088,,,"Mon 10:00AM - 9:00PM, Tue 10:00AM - 9:00PM, Wed 10:00AM - 9:00PM, Thu 10:00AM - 9:00PM, Fri 10:00AM - 9:00PM, Sat 10:00AM - 9:00PM, Sun 12:00PM - 6:00PM",,,0
,,4067 13th Street,,St. Cloud,FL,34769,United States,(407) 957-4663,,,"Mon 7:30AM - 9:00PM, Tue 7:30AM - 9:00PM, Wed 7:30AM - 9:00PM, Thu 7:30AM - 9:00PM, Fri 7:30AM - 9:00PM, Sat 8:00AM - 8:00PM, Sun 10:00AM - 6:00PM",,,0
,,11681 West Hillsborough Ave,,Tampa,FL,33635,United States,(813) 891-4243,,,"Mon 7:00AM - 8:00PM, Tue 7:00AM - 8:00PM, Wed 7:00AM - 8:00PM, Thu 7:00AM - 8:00PM, Fri 7:00AM - 8:00PM, Sat 9:00AM - 8:00PM, Sun 10:00AM - 7:00PM",,,0
,,11852 Bruce B Downs Blvd,,Tampa,FL,33612,United States,(813) 979-1737,,,"Mon 8:00AM - 8:00PM, Tue 8:00AM - 8:00PM, Wed 8:00AM - 8:00PM, Thu 8:00AM - 8:00PM, Fri 8:00AM - 8:00PM, Sat 9:00AM - 8:00PM, Sun 10:30AM - 7:00PM",,,0
,,2270 Town Center Ave.,,Viera,FL,32940,United States,(321) 872-0226,,,"Mon 7:00AM - 9:00PM, Tue 7:00AM - 9:00PM, Wed 7:00AM - 9:00PM, Thu 7:00AM - 9:00PM, Fri 7:00AM - 10:00PM, Sat 8:00AM - 10:00PM, Sun 9:00AM - 7:00PM",,,0
,,225 Palm Bay Road #189,,W Melbourne,FL,32904,United States,(321) 608-3697,,,"Mon 7:00AM - 9:00PM, Tue 7:00AM - 9:00PM, Wed 7:00AM - 9:00PM, Thu 7:00AM - 9:00PM, Fri 7:00AM - 10:00PM, Sat 8:00AM - 10:00PM, Sun 9:00AM - 7:00PM",,,0
,,16412 New Independence,,Winter Garden,FL,34787,United States,,,,,,,1
,,3025 Daniels Road,,Winter Garden,FL,34787,United States,(407) 656-6574,,,"Mon 7:00AM - 9:00PM, Tue 7:00AM - 9:00PM, Wed 7:00AM - 9:00PM, Thu 7:00AM - 9:00PM, Fri 7:00AM - 9:00PM, Sat 8:00AM - 9:00PM, Sun 9:00AM - 7:00PM",,,0
,,415 N. Orlando Avenue,,Winter Park,FL,32789,United States,(407) 622-4577,,,"Mon 7:00AM - 9:00PM, Tue 7:00AM - 9:00PM, Wed 7:00AM - 9:00PM, Thu 7:00AM - 9:00PM, Fri 7:00AM - 9:00PM, Sat 8:00AM - 9:00PM, Sun 10:00AM - 7:00PM",,,0
,,1425 Tuskawilla Road,,Winter Springs,FL,32708,United States,(407) 695-5030,,,"Mon 7:00AM - 9:00PM, Tue 7:00AM - 9:00PM, Wed 7:00AM - 9:00PM, Thu 7:00AM - 9:00PM, Fri 7:00AM - 9:00PM, Sat 8:00AM - 9:00PM, Sun 9:00AM - 9:00PM",,,0
,,1993 Barnett Shoals Road,,Athens,GA,30601,United States,(706) 353-8181,,,"Mon 7:00AM - 9:00PM, Tue 7:00AM - 9:00PM, Wed 7:00AM - 9:00PM, Thu 7:00AM - 9:00PM, Fri 7:00AM - 9:00PM, Sat 9:00AM - 10:00PM, Sun 12:00PM - 9:00PM",,,0
,,"1791 Oconee Connector, Ste 520",,Athens,GA,30606,United States,,,,,,,1
,,196 Alps Road,,Athens,GA,30606,United States,(706) 316-3090,,,"Mon 9:00AM - 10:00PM, Tue 9:00AM - 10:00PM, Wed 9:00AM - 10:00PM, Thu 9:00AM - 10:00PM, Fri 9:00AM - 10:00PM, Sat 9:00AM - 10:00PM, Sun 12:00PM - 10:00PM",,,0
,,231 Peachtree Street,,Atlanta,GA,30303,United States,(404) 420-9222,,,"Mon 8:00AM - 6:00PM, Tue 8:00AM - 6:00PM, Wed 8:00AM - 6:00PM, Thu 8:00AM - 6:00PM, Fri 8:00AM - 6:00PM, Sat Closed - Closed, Sun Closed - Closed",,,0
,,3393 Peachtree Road NW,,Atlanta,GA,30326,United States,(404) 816-1438,,,"Mon 10:00AM - 9:00PM, Tue 10:00AM - 9:00PM, Wed 10:00AM - 9:00PM, Thu 10:00AM - 9:00PM, Fri 10:00AM - 9:00PM, Sat 10:00AM - 9:00PM, Sun 12:00PM - 6:00PM",,,0
,,2331 NW Bolton Rd,,Atlanta,GA,30318,United States,(404) 458-3985,,,"Mon 7:00AM - 9:00PM, Tue 7:00AM - 9:00PM, Wed 7:00AM - 9:00PM, Thu 7:00AM - 9:00PM, Fri 7:00AM - 9:00PM, Sat 9:00AM - 8:00PM, Sun 9:00AM - 8:00PM",,,0
,,2014 Powers Ferry Road SE Suite 350,,Atlanta,GA,30339,United States,(770) 859-0080,,,"Mon 7:00AM - 7:00PM, Tue 7:00AM - 7:00PM, Wed 7:00AM - 7:00PM, Thu 7:00AM - 7:00PM, Fri 7:00AM - 7:00PM, Sat 9:00AM - 7:00PM, Sun Closed - Closed",,,0
,,2900 Peachtree Road NW,,Atlanta,GA,30305,United States,(404) 844-0660,,,"Mon 8:00AM - 10:00PM, Tue 8:00AM - 10:00PM, Wed 8:00AM - 10:00PM, Thu 8:00AM - 10:00PM, Fri 8:00AM - 10:00PM, Sat 9:00AM - 10:00PM, Sun 10:00AM - 9:00PM",,,0
,,2463 Hamilton Mill Parkway,,Dacula,GA,30019,United States,,,,,,,1
,,2148 Duluth Hwy NW,,Duluth,GA,30097,United States,(678) 349-2081,,,"Mon 8:00AM - 8:00PM, Tue 8:00AM - 8:00PM, Wed 8:00AM - 8:00PM, Thu 8:00AM - 8:00PM, Fri 8:00AM - 8:00PM, Sat 9:00AM - 9:00PM, Sun 12:00PM - 6:00PM",,,0
,,"5370 Cambellton Fairburn Rd, Suite 104B",,Fairburn,GA,30213,United States,,,,,,,1
,,5900 Spout Springs Rd,,Flowery Branch,GA,30542,United States,(678) 617-5380,,,"Mon 7:30AM - 7:00PM, Tue 7:30AM - 7:00PM, Wed 7:30AM - 7:00PM, Thu 7:30AM - 7:00PM, Fri 7:30AM - 8:00PM, Sat 9:00AM - 8:00PM, Sun 12:00PM - 6:00PM",,,0
,,4225 Northwest Wade Green Road,,Kennesaw,GA,30144,United States,() -,,,,,,1
,,2929 Turner Hill Rd,,Lithonia,GA,30038,United States,(770) 482-4888,,,"Mon 10:00AM - 9:00PM, Tue 10:00AM - 9:00PM, Wed 10:00AM - 9:00PM, Thu 10:00AM - 9:00PM, Fri 10:00AM - 9:00PM, Sat 10:00AM - 9:00PM, Sun 12:00PM - 6:00PM",,,0
,,330 Kennestone Hospital Blvd,,Marietta,GA,30060,United States,(678) 337-7366,,,"Mon 7:00AM - 8:00PM, Tue 7:00AM - 8:00PM, Wed 7:00AM - 8:00PM, Thu 7:00AM - 8:00PM, Fri 7:00AM - 8:00PM, Sat 9:00AM - 2:00PM, Sun Closed - Closed",,,0
,,"4805 Canton Rd, Suite 300",,Marietta,GA,30066,United States,(770) 763-8956,,,"Mon 7:00AM - 10:00PM, Tue 7:00AM - 10:00PM, Wed 7:00AM - 10:00PM, Thu 7:00AM - 10:00PM, Fri 7:00AM - 10:00PM, Sat 8:00AM - 10:00PM, Sun 10:00AM - 8:00PM",,,0
,,1609 HWY 20 W,,McDonough,GA,30252,United States,(770) 954-3424,,,"Mon 9:00AM - 9:00PM, Tue 9:00AM - 9:00PM, Wed 9:00AM - 9:00PM, Thu 9:00AM - 9:00PM, Fri 9:00AM - 9:00PM, Sat 10:00AM - 9:00PM, Sun 12:00PM - 6:00PM",,,0
,,1841 Mt. Zion Rd.,,Morrow,GA,30260,United States,(770) 961-1899,,,"Mon 8:00AM - 9:00PM, Tue 8:00AM - 9:00PM, Wed 8:00AM - 9:00PM, Thu 8:00AM - 9:00PM, Fri 8:00AM - 9:00PM, Sat 10:00AM - 9:00PM, Sun 11:00AM - 8:00PM",,,0
,,"90 Glenda Trace, Suite E",,Newnan,GA,30265,United States,(770) 755-7527,,,"Mon 7:00AM - 9:00PM, Tue 7:00AM - 9:00PM, Wed 7:00AM - 9:00PM, Thu 7:00AM - 9:00PM, Fri 7:00AM - 9:00PM, Sat 9:00AM - 9:00PM, Sun 11:00AM - 7:00PM",,,0
,,109 Newnan Crossing Bypass,,Newnan,GA,30263,United States,(770) 304-1538,,,"Mon 7:00AM - 9:00PM, Tue 7:00AM - 9:00PM, Wed 7:00AM - 9:00PM, Thu 7:00AM - 9:00PM, Fri 7:00AM - 9:30PM, Sat 9:00AM - 9:30PM, Sun 11:00AM - 7:30PM",,,0
,,1267 North Peachtree Pkwy,,Peachtree City,GA,30269,United States,(770) 486-9425,,,"Mon 8:00AM - 8:00PM, Tue 8:00AM - 8:00PM, Wed 8:00AM - 8:00PM, Thu 8:00AM - 8:00PM, Fri 8:00AM - 8:00PM, Sat 9:00AM - 8:00PM, Sun 11:00AM - 7:00PM",,,0
,,320 Town Center Avenue,,Suwanee,GA,30024,United States,(770) 945-8785,,,"Mon 7:00AM - 9:00PM, Tue 7:00AM - 9:00PM, Wed 7:00AM - 9:00PM, Thu 7:00AM - 9:00PM, Fri 7:00AM - 9:00PM, Sat 8:00AM - 9:00PM, Sun 10:00AM - 8:00PM",,,0
,,1120 Vickers Ave,,Honolulu,HI,96853,United States,(808) 449-1145,,,"Mon 7:00AM - 8:00PM, Tue 7:00AM - 8:00PM, Wed 7:00AM - 8:00PM, Thu 7:00AM - 8:00PM, Fri 7:00AM - 8:00PM, Sat 8:00AM - 2:00PM, Sun Closed - Closed",,,0
,,"2201 W. War Memorial Dr., Room DUI4B",,Peoria,IL,61613,United States,,,,,,,1
,,4517 Williams Blvd,,Kenner,LA,70065,United States,,,,,,,1
,,6800 Oxon Hill Rd Suite 895,,Oxon Hill,MD,20745,United States,(301) 839-3704,,,"Mon 9:00AM - 9:00PM, Tue 9:00AM - 9:00PM, Wed 9:00AM - 9:00PM, Thu 9:00AM - 9:00PM, Fri 9:00AM - 9:00PM, Sat 9:00AM - 9:00PM, Sun 11:00AM - 7:00PM",,,0
,,250 Granite St,,Braintree,MA,02184,United States,(781) 849-0911,,,"Mon 10:00AM - 9:00PM, Tue 10:00AM - 9:00PM, Wed 10:00AM - 9:00PM, Thu 10:00AM - 9:00PM, Fri 10:00AM - 9:00PM, Sat 10:00AM - 9:00PM, Sun 11:00AM - 6:00PM",,,0
,,999 South Washington Street,,North Attleboro,MA,02760,United States,(508) 695-1811,,,"Mon 10:00AM - 9:00PM, Tue 10:00AM - 9:00PM, Wed 10:00AM - 9:00PM, Thu 10:00AM - 9:00PM, Fri 10:00AM - 9:00PM, Sat 10:00AM - 9:00PM, Sun 11:00AM - 6:00PM",,,0
,,179 Grandview Blvd Suite 945,,Madison,MS,39110,United States,,,,"Mon 7:00AM - 10:00PM, Tue 7:00AM - 10:00PM, Wed 7:00AM - 10:00PM, Thu 7:00AM - 10:00PM, Fri 7:00AM - 10:00PM, Sat 9:00AM - 10:00PM, Sun 11:00AM - 8:00PM",,,0
,,21355 Nebraska Crossing Drive,,Gretna,NE,68028,United States,(402) 332-5133,,,"Mon 10:00AM - 9:00PM, Tue 10:00AM - 9:00PM, Wed 10:00AM - 9:00PM, Thu 10:00AM - 9:00PM, Fri 10:00AM - 9:00PM, Sat 10:00AM - 9:00PM, Sun 11:00PM - 6:00PM",,,0
,,1701 West Edgar Road,,Linden,NJ,07036,United States,() -,,,,,,1
,,3701 McKinley Parkway,,Buffalo,NY,14219,United States,(716) 826-0620,,,"Mon 10:00AM - 9:00PM, Tue 10:00AM - 9:00PM, Wed 10:00AM - 9:00PM, Thu 10:00AM - 9:00PM, Fri 10:00AM - 9:00PM, Sat 10:00AM - 9:00PM, Sun 11:00AM - 6:00PM",,,0
,,1750 Veterans Memorial Highway Unit 35,,Islandia,NY,11749,United States,,,,,,,1
,,523 Amsterdam,,New York,NY,10024,United States,(212) 496-1466,,,"Mon 11:00AM - 10:00PM, Tue 11:00AM - 10:00PM, Wed 11:00AM - 10:00PM, Thu 11:00AM - 10:00PM, Fri 11:00AM - 10:00PM, Sat 7:00AM - 10:00PM, Sun 11:00AM - 10:00PM",,,0
,,One Penn Plaza,,New York,NY,10019,United States,(212) 631-0521,,,"Mon 7:00AM - 11:00PM, Tue 7:00AM - 11:00PM, Wed 7:00AM - 11:00PM, Thu 7:00AM - 11:00PM, Fri 7:00AM - 11:00PM, Sat 7:00AM - 11:00PM, Sun 8:00AM - 10:00PM",,,0
,,345 W 42nd St. C/O House and Home,,New York,NY,10036,United States,,,,,,,1
,,One Penn Plaza,,New York,NY,10019,United States,(212) 594-7817,,,"Mon 6:00AM - 12:00AM, Tue 6:00AM - 12:00AM, Wed 6:00AM - 12:00AM, Thu 6:00AM - 12:00AM, Fri 6:00AM - 12:00AM, Sat 6:00AM - 12:00AM, Sun 6:00AM - 12:00AM",,,0
,,1281 Arthur Kill Road,,Staten Island,NY,10312,United States,(718) 967-8200,,,"Mon 10:00AM - 10:00PM, Tue 10:00AM - 10:00PM, Wed 10:00AM - 10:00PM, Thu 10:00AM - 10:00PM, Fri 10:00AM - 10:00PM, Sat 10:00AM - 10:00PM, Sun 10:00AM - 10:00PM",,,0
,,3 South Tunnel Rd.,,Asheville,NC,28805,United States,(828) 298-5884,,,"Mon 10:00AM - 9:00PM, Tue 10:00AM - 9:00PM, Wed 10:00AM - 9:00PM, Thu 10:00AM - 9:00PM, Fri 10:00AM - 9:00PM, Sat 7:00AM - 9:00PM, Sun 12:00PM - 6:00PM",,,0
,,90 Cornerstone Drive,,Cary,NC,27519,United States,(919) 460-6064,,,"Mon 8:00AM - 8:00PM, Tue 8:00AM - 8:00PM, Wed 8:00AM - 8:00PM, Thu 8:00AM - 8:00PM, Fri 8:00AM - 8:00PM, Sat 8:00AM - 8:00PM, Sun 11:00AM - 6:00PM",,,0
,,5506 New Fashion Way #325,,Charlotte,NC,28278,United States,(704) 504-9002,,,"Mon 10:00AM - 9:00PM, Tue 10:00AM - 9:00PM, Wed 10:00AM - 9:00PM, Thu 10:00AM - 9:00PM, Fri 10:00AM - 9:00PM, Sat 10:00AM - 9:00PM, Sun 10:00AM - 7:00PM",,,0
,,4400 Sharon Rd.,,Charlotte,NC,28211,United States,(704) 364-9933,,,"Mon 10:00AM - 9:00PM, Tue 10:00AM - 9:00PM, Wed 10:00AM - 9:00PM, Thu 10:00AM - 9:00PM, Fri 10:00AM - 9:00PM, Sat 10:00AM - 9:00PM, Sun 12:00PM - 6:00PM",,,0
,,1058 W Club Blvd Space 572,,Durham,NC,27701,United States,(919) 416-8595,,,"Mon 10:00AM - 9:00PM, Tue 10:00AM - 9:00PM, Wed 10:00AM - 9:00PM, Thu 10:00AM - 9:00PM, Fri 10:00AM - 9:00PM, Sat 10:00AM - 9:00PM, Sun 12:00PM - 6:00PM",,,0
,,"11025 Carolina Place Parkway, D-29",,Pineville,NC,28134,United States,(704) 544-7050,,,"Mon 10:00AM - 9:00PM, Tue 10:00AM - 9:00PM, Wed 10:00AM - 9:00PM, Thu 10:00AM - 9:00PM, Fri 10:00AM - 10:00PM, Sat 10:00AM - 9:00PM, Sun 12:00PM - 6:00PM",,,0
,,2237-103 Avent Ferry Rd,,Raleigh,NC,27607,United States,(919) 839-0022,,,"Mon 8:00AM - 8:00PM, Tue 8:00AM - 8:00PM, Wed 8:00AM - 8:00PM, Thu 8:00AM - 8:00PM, Fri 8:00AM - 8:00PM, Sat 8:00AM - 8:00PM, Sun 11:00AM - 6:00PM",,,0
,,6325 Falls of Neuse Road,,Raleigh,NC,27610,United States,(919) 875-0010,,,"Mon 8:00AM - 8:00PM, Tue 8:00AM - 8:00PM, Wed 8:00AM - 8:00PM, Thu 8:00AM - 8:00PM, Fri 8:00AM - 8:00PM, Sat 8:00AM - 8:00PM, Sun 11:00AM - 6:00PM",,,0
,,1427 Military Cutoff Road,,Wilmington,NC,28403,United States,(910) 679-4519,,,"Mon 7:00AM - 9:00PM, Tue 7:00AM - 9:00PM, Wed 7:00AM - 9:00PM, Thu 7:00AM - 9:00PM, Fri 7:00AM - 9:00PM, Sat 8:00AM - 9:00PM, Sun 10:00AM - 7:30PM",,,0
,,430 Miamisburg Centerville Rd.,,Dayton,OH,45459,United States,(937) 610-1100,,,"Mon 8:30AM - 8:30AM, Tue 8:30AM - 8:30AM, Wed 8:30AM - 8:30AM, Thu 8:30AM - 8:30AM, Fri 8:30AM - 8:30PM, Sat 9:00AM - 8:00PM, Sun 11:00AM - 6:00PM",,,0
,,8605 Columbus Pike,,Lewis Center,OH,43240,United States,(614) 847-8040,,,"Mon 6:30AM - 9:00PM, Tue 6:30AM - 9:00PM, Wed 6:30AM - 9:00PM, Thu 6:30AM - 9:00PM, Fri 6:30AM - 9:00PM, Sat 8:00AM - 9:00PM, Sun 12:00PM - 8:00PM",,,0
,,9696 Sawmill Pkwy,,Powell,OH,43065,United States,(614) 659-7655,,,"Mon 6:30AM - 9:00PM, Tue 6:30AM - 9:00PM, Wed 6:30AM - 9:00PM, Thu 6:30AM - 9:00PM, Fri 6:30AM - 9:00PM, Sat 8:00AM - 9:00PM, Sun 9:30AM - 8:00PM",,,0
,,9282 Allen Rd,,West Chester,OH,45069,United States,(513) 330-6315,,,"Mon 11:00AM - 9:00PM, Tue 11:00AM - 9:00PM, Wed 11:00AM - 9:00PM, Thu 11:00AM - 9:00PM, Fri 11:00AM - 7:00PM, Sat 9:30AM - 4:00PM, Sun 11:00AM - 9:00PM",,,0
,,7578 Cox Lane,,West Chester,OH,45069,United States,(513) 755-9400,,,"Mon 7:00AM - 9:00PM, Tue 7:00AM - 9:00PM, Wed 7:00AM - 9:00PM, Thu 7:00AM - 9:00PM, Fri 7:00AM - 9:00PM, Sat 9:00AM - 9:00PM, Sun 11:00AM - 8:00PM",,,0
,,186 W. State St.,,Doylestown,PA,18901,United States,(215) 340-1009,,,"Mon 8:00AM - 8:00PM, Tue 8:00AM - 8:00PM, Wed 8:00AM - 8:00PM, Thu 8:00AM - 8:00PM, Fri 8:00AM - 9:00PM, Sat 9:00AM - 8:00PM, Sun 10:00AM - 8:00PM",,,0
,,777 Old Willow Rd,,Honesdale,PA,18431,United States,,,,"Mon 10:00AM - 9:00PM, Tue 10:00AM - 9:00PM, Wed 10:00AM - 9:00PM, Thu 10:00AM - 9:00PM, Fri 10:00AM - 10:00PM, Sat 10:00AM - 10:00PM, Sun 11:00AM - 7:00PM",,,0
,,29 Wyoming Valley Mall,,Wilkes Barre,PA,18702,United States,(570) 823-6112,,,"Mon 10:00AM - 9:00PM, Tue 10:00AM - 9:00PM, Wed 10:00AM - 9:00PM, Thu 10:00AM - 9:00PM, Fri 10:00AM - 9:00PM, Sat 10:00AM - 9:00PM, Sun 11:00AM - 6:00PM",,,0
,,2150 Wilkes Barre Township Marketplace (Wal-Mart),,Wilkes Barre,PA,18702,United States,(570) 825-5112,,,"Mon 10:00AM - 9:00PM, Tue 10:00AM - 9:00PM, Wed 10:00AM - 9:00PM, Thu 10:00AM - 9:00PM, Fri 10:00AM - 10:00PM, Sat 10:00AM - 10:00PM, Sun 11:00AM - 7:00PM",,,0
,,461-1 Town Center Plaza,,Columbia,SC,29229,United States,(803) 699-2322,,,,,,1
,,700 Haywood Road,,Greenville,SC,29607,United States,(864) 284-0577,,,"Mon 10:00AM - 9:00PM, Tue 10:00AM - 9:00PM, Wed 10:00AM - 9:00PM, Thu 10:00AM - 9:00PM, Fri 10:00AM - 9:00PM, Sat 10:00AM - 9:00PM, Sun 12:30PM - 6:00PM",,,0
,,1944 Augusta Street,,Greenville,SC,29605,United States,(864) 271-0257,,,"Mon 7:00AM - 9:00PM, Tue 7:00AM - 9:00PM, Wed 7:00AM - 9:00PM, Thu 7:00AM - 9:00PM, Fri 7:00AM - 9:00PM, Sat 8:00AM - 9:00PM, Sun 11:00AM - 7:00PM",,,0
,,1414 Jenkins Rd,,Chattanooga,TN,37421,United States,,,,,,,1
,,20829 Kingsland Blvd,,Katy,TX,77450,United States,(281) 578-7328,,,"Mon 6:00AM - 9:00PM, Tue 6:00AM - 9:00PM, Wed 6:00AM - 9:00PM, Thu 6:00AM - 9:00PM, Fri 6:00AM - 9:00PM, Sat 8:00AM - 9:00PM, Sun 11:00AM - 8:00PM",,,0
,,2014 West University Drive,,McKinney,TX,75071,United States,(972) 542-2251,,,"Mon 7:00AM - 8:00PM, Tue 7:00AM - 8:00PM, Wed 7:00AM - 8:00PM, Thu 7:00AM - 8:00PM, Fri 7:00AM - 8:00PM, Sat 9:00AM - 8:00PM, Sun 11:00AM - 8:00PM",,,0
,,135 Marshall Avenue,,Hampton,VA,23669,United States,(757) 728-6228,,,"Mon 9:30AM - 10:30PM, Tue 9:30AM - 10:30PM, Wed 9:30AM - 10:30PM, Thu 9:30AM - 10:30PM, Fri 9:30AM - 10:30PM, Sat 12:00AM - 12:00PM, Sun 2:00PM - 7:00PM",,,0
