store_name,store_number,address,address2,city,state,zip_code,country,phone_number,latitude,longitude,store_hours,store_type,other_fields,coming_soon
,,785 Star St Suite 112,,Phoenixville,Pennsylvania,19460,USA,484-974-2266,,,"Monday 6:00 am - 1:00 pm 3:00 pm - 8:00 pm , Tuesday 8:00 am - 1:00 pm 3:00 pm - 8:00 pm , Wednesday 6:00 am - 1:00 pm 3:00 pm - 8:00 pm , Thursday 8:00 am - 1:00 pm 3:00 pm - 8:00 pm , Friday 8:00 am - 1:00 pm 3:00 pm - 6:30 pm , Saturday 8:00 am - 1:00 pm ",,,0
,,3967 Ford Rd,,Philadelphia,Pennsylvania,19131,USA,215-877-9RND (9763),,,,,,0
,,6501 E. Greenway Parkway Suite 109,,Scottsdale,Arizona,85254,USA,480-607-4948,,,"Monday 9:00 am - 1:30 pm 3:30 pm - 8:00 pm , Tuesday 9:00 am - 1:30 pm 3:30 pm - 8:00 pm , Wednesday 9:00 am - 1:30 pm 3:30 pm - 8:00 pm , Thursday 9:00 am - 1:30 pm 3:30 pm - 8:00 pm , Friday 9:00 am - 1:30 pm 3:30 pm - 6:00 pm , Saturday 9:00 am - 1:00 pm ",,,0
,,6071 Chandler Court,,Westerville,Ohio,43082,USA,614-392-2788,,,"Monday 6:00 am - 1:00 pm 3:00 pm - 8:00 pm , Tuesday 8:00 am - 1:00 pm 3:00 pm - 8:00 pm , Wednesday 6:00 am - 1:00 pm 3:00 pm - 8:00 pm , Thursday 8:00 am - 1:00 pm 3:00 pm - 8:00 pm , Friday 6:00 am - 1:00 pm 3:00 pm - 7:00 pm , Saturday 8:00 am - 1:00 pm ",,,0
,,1221 El Paseo Rd,,Las Cruces,New Mexico,88001,USA,575-652-1071,,,"Monday 8:00 am - 1:30 pm 3:30 pm - 8:00 pm , Tuesday 8:00 am - 1:30 pm 3:30 pm - 8:00 pm , Wednesday 8:00 am - 1:30 pm 3:30 pm - 8:00 pm , Thursday 8:00 am - 1:30 pm 3:30 pm - 8:00 pm , Friday 8:00 am - 1:30 pm 3:30 pm - 7:00 pm , Saturday 8:00 am - 12:00 pm ",,,0
,,2553 Kirsten Lane S #204,,Fargo,North Dakota,58104,USA,(701) 478-KICK,,,"Monday 5:30 am - 1:00 pm 3:00 pm - 8:00 pm , Tuesday 5:30 am - 1:00 pm 3:00 pm - 8:00 pm , Wednesday 5:30 am - 1:00 pm 3:00 pm - 8:00 pm , Thursday 5:30 am - 1:00 pm 3:00 pm - 8:00 pm , Friday 9:00 am - 1:00 pm 3:00 pm - 6:00 pm , Saturday 8:00 am - 12:00 pm , Sunday 1:00 pm - 4:00 pm ",,,0
,,6909 W Hefner Ste. B-6,,Oklahoma City,Oklahoma,73162,USA,405-470-1946,,,"Monday 9:00 am - 1:30 pm 3:30 pm - 8:00 pm , Tuesday 6:00 am - 1:30 pm 3:30 pm - 8:00 pm , Wednesday 9:00 am - 1:30 pm 3:30 pm - 8:00 pm , Thursday 9:00 am - 1:30 pm 3:30 pm - 8:00 pm , Friday 9:00 am - 1:30 pm 3:30 pm - 7:00 pm , Saturday 9:00 am - 1:00 pm ",,,0
,,3291 Del Rey Blvd #9,,Las Cruces,New Mexico,88012,USA,575-652-2138,,,"Monday 5:00 am - 1:30 pm 3:30 pm - 8:00 pm , Tuesday 5:00 am - 1:30 pm 3:30 pm - 8:00 pm , Wednesday 5:00 am - 1:30 pm 3:30 pm - 8:00 pm , Thursday 5:30 am - 1:30 pm 3:30 pm - 8:00 pm , Friday 5:30 am - 1:30 pm 3:30 pm - 7:00 pm , Saturday 8:00 am - 12:00 pm ",,,0
,,423 Larchmont Blvd,,Mount Laurel,New Jersey,08054,USA,856-722-9200,,,"Monday 8:00 am - 1:00 pm 3:00 pm - 8:00 pm , Tuesday 5:30 am - 10:30 am 3:00 pm - 8:00 pm , Wednesday 8:00 am - 1:00 pm 3:00 pm - 8:00 pm , Thursday 5:30 am - 10:30 am 3:00 pm - 8:00 pm , Friday 8:00 am - 1:00 pm 3:00 pm - 7:00 pm , Saturday 8:00 am - 12:00 pm , Sunday 8:00 am - 12:00 pm ",,,0
,,8605 W. 26th St.,,Sioux Falls,South Dakota,57106,USA,605.275.8855,,,"Monday 5:30 am - 9:00 am 11:00 am - 1:00 pm 3:00 pm - 7:00 pm , Tuesday 5:30 am - 9:00 am 11:00 am - 1:00 pm 3:00 pm - 7:00 pm , Wednesday 5:30 am - 9:00 am 11:00 am - 1:00 pm 3:00 pm - 7:00 pm , Thursday 5:30 am - 9:00 am 11:00 am - 1:00 pm 3:00 pm - 7:00 pm , Friday 5:30 am - 9:00 am 11:00 am - 1:00 pm 3:00 pm - 7:00 pm , Saturday 8:00 am - 12:00 pm ",,,0
,,625 Crown Pointe Lane,,Rock Hill,South Carolina,29730,USA,803-792-0319,,,"Monday 7:00 am - 1:30 pm 4:00 pm - 8:00 pm , Tuesday 8:00 am - 1:30 pm 4:00 pm - 8:00 pm , Wednesday 7:00 am - 1:30 pm 4:00 pm - 8:00 pm , Thursday 8:00 am - 1:30 pm 4:00 pm - 8:00 pm , Friday 7:00 am - 1:30 pm 4:00 pm - 6:30 pm , Saturday 8:00 am - 12:00 pm ",,,0
,,109 Grandview Dr.,,Summerville,South Carolina,29483,USA,1 843 291-9464,,,"Monday 7:00 am - 12:30 pm 3:30 pm - 8:00 pm , Tuesday 8:00 am - 1:30 pm 3:30 pm - 8:30 pm , Wednesday 8:00 am - 1:30 pm 3:30 pm - 8:30 pm , Thursday 8:00 am - 1:30 pm 3:30 pm - 8:30 pm , Friday 7:00 am - 12:30 pm 3:30 pm - 7:00 pm , Saturday 8:00 am - 12:00 pm ",,,0
,,3283 Reidville Rd,,Spartanburg,South Carolina,29301,USA,(864) 308-8330,,,"Monday 8:00 am - 1:00 pm 3:30 pm - 8:00 pm , Tuesday 8:00 am - 1:00 pm 3:30 pm - 8:00 pm , Wednesday 8:00 am - 1:00 pm 3:30 pm - 8:00 pm , Thursday 8:00 am - 1:00 pm 3:30 pm - 8:00 pm , Friday 8:00 am - 1:00 pm 3:30 pm - 7:00 pm , Saturday 9:00 am - 1:00 pm ",,,0
,,318 E. Silver Spring Dr.,,Whitefish Bay,Wisconsin,53217,USA,(414) 967-8778,,,"Monday 6:00 am - 1:30 pm 3:30 pm - 8:00 pm , Tuesday 6:00 am - 1:30 pm 3:30 pm - 8:00 pm , Wednesday 8:00 am - 1:30 pm 3:30 pm - 8:00 pm , Thursday 6:00 am - 1:30 pm 3:30 pm - 8:00 pm , Friday 8:00 am - 1:30 pm 3:30 pm - 7:00 pm , Saturday 8:00 am - 1:00 pm ",,,0
,,926 N.E. Main St Suite A1,,Simpsonville,South Carolina,29681,USA,864-228-9191,,,"Monday 5:30 am - 1:00 pm 3:30 pm - 8:00 pm , Tuesday 8:00 am - 1:00 pm 3:30 pm - 8:00 pm , Wednesday 5:30 am - 1:00 pm 3:30 pm - 8:00 pm , Thursday 8:00 am - 1:00 pm 3:30 pm - 8:00 pm , Friday 8:00 am - 1:00 pm 3:30 pm - 7:00 pm , Saturday 8:00 am - 12:00 pm ",,,0
,,2225 East Main Street suite I,,Spartanburg,South Carolina,29307,USA,864-308-8999,,,"Monday 7:00 am - 1:30 pm 3:30 pm - 8:00 pm , Tuesday 8:30 am - 1:30 pm 3:30 pm - 8:00 pm , Wednesday 7:00 am - 1:30 pm 3:30 pm - 8:00 pm , Thursday 8:30 am - 1:30 pm 3:30 pm - 8:00 pm , Friday 7:00 am - 1:30 pm 3:30 pm - 6:00 pm , Saturday 8:00 am - 12:00 pm ",,,0
,,7954 Harwood Ave Suite 140,,Wauwatosa,Wisconsin,53213,USA,(414) 395-8545,,,"Monday 6:00 am - 1:00 pm 3:00 pm - 8:00 pm , Tuesday 6:00 am - 1:00 pm 3:00 pm - 8:00 pm , Wednesday 6:00 am - 1:00 pm 3:00 pm - 8:00 pm , Thursday 6:00 am - 1:00 pm 3:00 pm - 8:00 pm , Friday 6:00 am - 1:00 pm 3:00 pm - 7:00 pm , Saturday 8:00 am - 12:00 pm , Sunday 8:00 am - 12:00 pm ",,,0
,,1280 Brown St. Unit F,,Oconomowoc,Wisconsin,53066,USA,262-244-0631,,,"Monday 7:00 am - 1:30 pm 3:30 pm - 7:00 pm , Tuesday 7:00 am - 1:30 pm 3:30 pm - 7:00 pm , Wednesday 7:00 am - 1:30 pm 3:30 pm - 7:00 pm , Thursday 7:00 am - 1:30 pm 3:30 pm - 7:00 pm , Friday 7:00 am - 1:30 pm 3:30 pm - 6:00 pm , Saturday 8:00 am - 12:00 pm ",,,0
,,6100 Washington Ave Suite E2,,Racine,Wisconsin,53406,USA,262-484-9910,,,"Monday 8:00 am - 12:00 pm 2:00 pm - 8:00 pm , Tuesday 7:00 am - 12:00 pm 2:00 pm - 8:00 pm , Wednesday 8:00 am - 12:00 pm 2:00 pm - 8:00 pm , Thursday 7:00 am - 12:00 pm 2:00 pm - 8:00 pm , Friday 8:00 am - 12:00 pm 2:00 pm - 8:00 pm , Saturday 8:00 am - 12:00 pm ",,,0
,,"2014 W. Silvernail Rd. Waukesha, WI",,Waukesha,Wisconsin,53072,USA,262-574-6909,,,"Monday 6:00 am - 2:00 pm 4:00 pm - 8:00 pm , Tuesday 6:00 am - 2:00 pm 4:00 pm - 8:00 pm , Wednesday 6:00 am - 2:00 pm 4:00 pm - 8:00 pm , Thursday 6:00 am - 2:00 pm 4:00 pm - 8:00 pm , Friday 6:00 am - 2:00 pm 4:00 pm - 7:00 pm , Saturday 8:00 am - 12:00 pm ",,,0
,,329 Harrison Bridge Rd,,Simpsonville,South Carolina,29680,USA,864-963-9294,,,"Monday 5:30 am - 8:00 pm , Tuesday 5:30 am - 8:00 pm , Wednesday 5:30 am - 8:00 pm , Thursday 5:30 am - 8:00 pm , Friday 5:30 am - 8:00 pm , Saturday 8:00 am - 3:00 pm ",,,0
,,1150 Deer Park Avenue (Sunset Plaza Strip Mall),,North Babylon,New York,11703,USA,631 - 940 - 4960,,,"Monday 8:00 am - 1:30 pm 3:30 pm - 8:00 pm , Tuesday 8:00 am - 1:30 pm 3:30 pm - 8:00 pm , Wednesday 8:00 am - 1:30 pm 3:30 pm - 8:00 pm , Thursday 8:00 am - 1:30 pm 3:30 pm - 8:00 pm , Friday 8:00 am - 1:30 pm 3:30 pm - 7:00 pm , Saturday 8:00 am - 1:00 pm ",,,0
,,"8907 S Howell Ave, Unit 1000",,Oak Creek,Wisconsin,53154,USA,414-764-6680,,,"Monday 6:00 am - 11:00 am 1:00 pm - 8:00 pm , Tuesday 6:00 am - 11:00 am 1:00 pm - 8:00 pm , Wednesday 6:00 am - 11:00 am 1:00 pm - 8:00 pm , Thursday 6:00 am - 11:00 am 1:00 pm - 8:00 pm , Friday 6:00 am - 11:00 am 1:00 pm - 7:00 pm , Saturday 7:00 am - 12:00 pm , Sunday 8:00 am - 12:00 pm ",,,0
,,W189 S7835 Racine Ave,,Muskego,Wisconsin,53150,USA,262-682-4050,,,"Monday 8:00 am - 1:00 pm 3:00 pm - 8:00 pm , Tuesday 8:00 am - 1:00 pm 3:00 pm - 8:00 pm , Wednesday 8:00 am - 1:00 pm 3:00 pm - 8:00 pm , Thursday 8:00 am - 1:00 pm 3:00 pm - 8:00 pm , Friday 8:00 am - 1:00 pm 3:00 pm - 6:00 pm , Saturday 8:00 am - 12:00 pm ",,,0
,,6636 Mineral Point Rd,,Madison,Wisconsin,53717,USA,608-831-0108,,,"Monday 6:00 am - 2:00 pm 3:30 pm - 8:00 pm , Tuesday 8:00 am - 2:00 pm 3:30 pm - 8:00 pm , Wednesday 6:00 am - 2:00 pm 3:30 pm - 8:00 pm , Thursday 8:00 am - 2:00 pm 3:30 pm - 8:00 pm , Friday 6:00 am - 2:00 pm 3:30 pm - 7:00 pm , Saturday 8:00 am - 12:00 pm ",,,0
,,6186 W Layton Ave,,Greenfield,Wisconsin,53220,USA,414.346.7080,,,"Monday 8:00 am - 12:00 pm 2:00 pm - 8:00 pm , Tuesday 8:00 am - 12:00 pm 2:00 pm - 8:00 pm , Wednesday 8:00 am - 12:00 pm 2:00 pm - 8:00 pm , Thursday 8:00 am - 12:00 pm 2:00 pm - 8:00 pm , Friday 8:00 am - 12:00 pm 2:00 pm - 8:00 pm , Saturday 8:00 am - 12:00 pm ",,,0
,,N56W15454 Silver Spring Dr in the Pilgrim Spring Marketplace (corner of Silver Spring Dr and Pilgrim Rd),,Menomonee Falls,Wisconsin,53051,USA,Call or Text: 262-297-4544,,,"Monday 6:00 am - 1:00 pm 3:00 pm - 8:00 pm , Tuesday 8:00 am - 1:00 pm 3:00 pm - 8:00 pm , Wednesday 6:00 am - 1:00 pm 3:00 pm - 8:00 pm , Thursday 8:00 am - 1:00 pm 3:00 pm - 8:00 pm , Friday 6:00 am - 1:00 pm 3:00 pm - 6:00 pm , Saturday 8:00 am - 12:00 pm ",,,0
,,545 Bay View Rd. Suite D,,Mukwonago,Wisconsin,53149,USA,262-278-6200,,,"Monday 8:00 am - 1:30 pm 3:30 pm - 8:00 pm , Tuesday 8:00 am - 1:30 pm 3:30 pm - 8:00 pm , Wednesday 8:00 am - 1:30 pm 3:30 pm - 8:00 pm , Thursday 8:00 am - 1:30 pm 3:30 pm - 8:00 pm , Friday 8:00 am - 1:30 pm 3:30 pm - 8:00 pm , Saturday 8:00 am - 12:00 pm ",,,0
,,275 W Wisconsin Ave. (Temporary location on 2nd floor)  *First workout is free with a local ID*,,Milwaukee,Wisconsin,53203,USA,Call/Text (414) 751-6170,,,"Monday 6:00 am - 8:00 pm , Tuesday 6:00 am - 8:00 pm , Wednesday 6:00 am - 8:00 pm , Thursday 6:00 am - 8:00 pm , Friday 6:00 am - 6:00 pm , Saturday 8:00 am - 12:00 pm ",,,0
,,N112W16510 Mequon Road,,Germantown,Wisconsin,53022,USA,262.253.1381,,,"Monday 6:00 am - 12:00 pm 3:00 pm - 7:00 pm , Tuesday 7:30 am - 12:00 pm 3:00 pm - 7:00 pm , Wednesday 6:00 am - 12:00 pm 3:00 pm - 7:00 pm , Thursday 7:30 am - 12:00 pm 3:00 pm - 7:00 pm , Friday 6:00 am - 12:00 pm 3:00 pm - 6:00 pm , Saturday 7:00 am - 11:00 am ",,,0
,,"4522 E Washington Ave., Suite 5",,Madison,Wisconsin,53704,USA,608-310-5220,,,"Monday 9:00 am - 1:30 pm 3:00 pm - 8:00 pm , Tuesday 9:00 am - 1:30 pm 3:00 pm - 8:00 pm , Wednesday 9:00 am - 1:30 pm 3:00 pm - 8:00 pm , Thursday 9:00 am - 1:30 pm 3:00 pm - 8:00 pm , Friday 9:00 am - 1:30 pm 3:00 pm - 7:00 pm , Saturday 8:00 am - 12:00 pm ",,,0
,,15157 W National Ave,,New Berlin,Wisconsin,53151,USA,262-439-8102,,,"Monday 8:00 am - 1:00 pm 3:00 pm - 8:00 pm , Tuesday 6:00 am - 1:00 pm 3:00 pm - 8:00 pm , Wednesday 8:00 am - 1:00 pm 3:00 pm - 8:00 pm , Thursday 6:00 am - 1:00 pm 3:00 pm - 8:00 pm , Friday 8:00 am - 1:00 pm 3:00 pm - 7:00 pm , Saturday 8:00 am - 12:00 pm ",,,0
,,"7720 S Lovers Lane Rd, Suite 200",,Franklin,Wisconsin,53132,USA,414-377-9770,,,"Monday 6:00 am - 1:00 pm 3:00 pm - 8:00 pm , Tuesday 8:00 am - 1:00 pm 3:00 pm - 8:00 pm , Wednesday 6:00 am - 1:00 pm 3:00 pm - 8:00 pm , Thursday 8:00 am - 1:00 pm 3:00 pm - 8:00 pm , Friday 8:00 am - 1:00 pm 3:00 pm - 6:00 pm , Saturday 8:00 am - 12:00 pm ",,,0
,,1359 Port Washington Road,,Grafton,Wisconsin,53024,USA,262-385-4985,,,"Monday 5:00 am - 1:00 pm 3:00 pm - 8:00 pm , Tuesday 8:00 am - 1:00 pm 3:00 pm - 8:00 pm , Wednesday 5:00 am - 1:00 pm 3:00 pm - 8:00 pm , Thursday 8:00 am - 1:00 pm 3:00 pm - 8:00 pm , Friday 5:00 am - 1:00 pm 3:00 pm - 7:00 pm , Saturday 8:00 am - 12:00 pm ",,,0
,,2217A Fairfax Steet,,Eau Claire,Wisconsin,54701,USA,(715) 225-3032,,,"Monday 6:00 am - 1:00 pm 3:00 pm - 8:00 pm , Tuesday 8:00 am - 1:00 pm 3:00 pm - 8:00 pm , Wednesday 6:00 am - 1:00 pm 3:00 pm - 8:00 pm , Thursday 8:00 am - 1:00 pm 3:00 pm - 8:00 pm , Friday 6:00 am - 1:00 pm 3:00 pm - 7:00 pm , Saturday 8:00 am - 1:00 pm ",,,0
,,"Unit 6,   Halter Drive",,Piedmont,South Carolina,29673,USA,864 252 4783,,,"Monday 8:00 am - 1:30 pm 3:30 pm - 8:00 pm , Tuesday 8:00 am - 1:30 pm 3:30 pm - 8:00 pm , Wednesday 8:00 am - 1:30 pm 3:30 pm - 8:00 pm , Thursday 8:00 am - 1:30 pm 3:30 pm - 8:00 pm , Friday 8:00 am - 1:30 pm 4:00 pm - 7:00 pm , Saturday 8:00 am - 12:00 pm ",,,0
,,201-D Fresh Drive (off International Drive),,Myrtle Beach,South Carolina,29579-4461,USA,843-796-3147,,,"Monday 7:00 am - 1:30 pm 3:30 pm - 8:00 pm , Tuesday 8:00 am - 1:30 pm 3:30 pm - 8:00 pm , Wednesday 7:00 am - 1:30 pm 3:30 pm - 8:00 pm , Thursday 8:00 am - 1:30 pm 3:30 pm - 8:00 pm , Friday 7:00 am - 1:30 pm 3:30 pm - 7:00 pm , Saturday 8:00 am - 12:00 pm ",,,0
,,18895 W Bluemound Rd #4,,Brookfield,Wisconsin,53045,USA,262-797-9541,,,"Monday 6:00 am - 1:00 pm 3:30 pm - 8:00 pm , Tuesday 6:00 am - 1:00 pm 3:30 pm - 8:00 pm , Wednesday 6:00 am - 1:00 pm 3:30 pm - 8:00 pm , Thursday 6:00 am - 1:00 pm 3:30 pm - 8:00 pm , Friday 6:00 am - 1:00 pm 3:30 pm - 7:00 pm , Saturday 8:00 am - 12:00 pm ",,,0
,,113 W Main St,,Pickens,South Carolina,29671,USA,(864) 507-3142,,,"Monday 8:00 am - 1:00 pm 3:00 pm - 8:00 pm , Tuesday 8:00 am - 1:00 pm 3:00 pm - 8:00 pm , Wednesday 8:00 am - 1:00 pm 3:00 pm - 8:00 pm , Thursday 8:00 am - 1:00 pm 3:00 pm - 8:00 pm , Friday 8:00 am - 1:00 pm 3:00 pm - 6:30 pm , Saturday 8:00 am - 1:00 pm ",,,0
,,3377 South Morgan's Point Rd.  #409,,Mt. Pleasant,South Carolina,29466,USA,843-972-3229,,,"Monday 7:30 am - 1:30 pm 3:30 pm - 8:00 pm , Tuesday 6:15 am - 1:30 pm 3:30 pm - 8:00 pm , Wednesday 7:30 am - 1:30 pm 3:30 pm - 8:00 pm , Thursday 6:15 am - 1:30 pm 3:30 pm - 8:00 pm , Friday 7:30 am - 1:30 pm 3:30 pm - 6:30 pm , Saturday 9:00 am - 1:00 pm ",,,0
,,5343-J Sunset Blvd,,Lexington,South Carolina,29072,USA,803-399-1468,,,"Monday 6:00 am - 1:30 pm 3:30 pm - 8:00 pm , Tuesday 8:00 am - 1:30 pm 3:30 pm - 8:00 pm , Wednesday 6:00 am - 1:30 pm 3:30 pm - 8:00 pm , Thursday 8:00 am - 1:30 pm 3:30 pm - 8:00 pm , Friday 6:00 am - 1:30 pm 3:30 pm - 7:00 pm , Saturday 9:00 am - 1:00 pm ",,,0
,,221 Latitude Lane,,Lake Wylie,South Carolina,29710,USA,803-619-4533,,,"Monday 5:30 am - 12:00 pm 3:00 pm - 8:00 pm , Tuesday 5:30 am - 12:00 pm 3:00 pm - 8:00 pm , Wednesday 5:30 am - 12:00 pm 3:00 pm - 8:00 pm , Thursday 5:30 am - 12:00 pm 3:00 pm - 8:00 pm , Friday 5:30 am - 12:00 pm 3:00 pm - 7:00 pm , Saturday 8:00 am - 12:00 pm ",,,0
,,569 Belle Station Blvd.,,Mt. Pleasant,South Carolina,29464,USA,843-725-8899,,,"Monday 6:15 am - 1:30 pm 3:30 pm - 8:00 pm , Tuesday 7:30 am - 1:30 pm 3:30 pm - 8:00 pm , Wednesday 6:15 am - 1:30 pm 3:30 pm - 8:00 pm , Thursday 7:30 am - 1:30 pm 3:30 pm - 8:00 pm , Friday 6:15 am - 1:30 pm 3:30 pm - 6:30 pm , Saturday 9:00 am - 1:00 pm ",,,0
,,11899 Hwy 707 (Burgess Rd.),,Murrells Inlet,South Carolina,29576,USA,8433579800,,,"Monday 5:30 am - 1:00 pm 3:30 pm - 8:00 pm , Tuesday 8:00 am - 1:00 pm 3:30 pm - 8:00 pm , Wednesday 5:30 am - 1:00 pm 3:30 pm - 8:00 pm , Thursday 8:00 am - 1:00 pm 3:30 pm - 8:00 pm , Friday 5:30 am - 1:00 pm 3:30 pm - 6:00 pm , Saturday 8:00 am - 1:00 pm ",,,0
,,13041 Asheville Hwy Unit B,,Inman,South Carolina,29349,USA,864-708-3091,,,"Monday 5:30 am - 1:30 pm 3:30 pm - 8:00 pm , Tuesday 5:30 am - 1:30 pm 3:30 pm - 8:00 pm , Wednesday 8:00 am - 1:30 pm 3:30 pm - 8:00 pm , Thursday 5:30 am - 1:30 pm 3:30 pm - 8:00 pm , Friday 8:00 am - 1:30 pm 3:30 pm - 6:00 pm , Saturday 8:00 am - 12:00 pm ",,,0
,,10739 Broad River Rd Suite F,,Irmo,South Carolina,29063,USA,803-764-1957,,,"Monday 8:00 am - 1:30 pm 3:30 pm - 8:00 pm , Tuesday 8:00 am - 1:30 pm 3:30 pm - 8:00 pm , Wednesday 8:00 am - 1:30 pm 3:30 pm - 8:00 pm , Thursday 8:00 am - 1:30 pm 3:30 pm - 8:00 pm , Friday 8:00 am - 1:30 pm 3:30 pm - 7:00 pm , Saturday 9:00 am - 1:00 pm ",,,0
,,340 N Westhill Blvd,,Appleton,Wisconsin,54914,USA,(920) 540-8090,,,"Monday 6:00 am - 1:30 pm 3:30 pm - 8:00 pm , Tuesday 8:00 am - 1:30 pm 3:30 pm - 8:00 pm , Wednesday 6:00 am - 1:30 pm 3:30 pm - 8:00 pm , Thursday 8:00 am - 1:30 pm 3:30 pm - 8:00 pm , Friday 6:00 am - 1:30 pm 3:30 pm - 7:00 pm , Saturday 8:00 am - 1:30 pm ",,,0
,,201 W. Wade Hampton Blvd,,Greer,South Carolina,29650,USA,864-879-2461,,,"Monday 7:30 am - 1:00 pm 4:00 pm - 8:00 pm , Tuesday 7:30 am - 1:00 pm 4:00 pm - 8:00 pm , Wednesday 7:30 am - 1:00 pm 4:00 pm - 8:00 pm , Thursday 7:30 am - 1:00 pm 4:00 pm - 8:00 pm , Friday 8:30 am - 1:00 pm 4:00 pm - 7:00 pm , Saturday 8:00 am - 12:00 pm ",,,0
,,1099 E. Butler Rd Suite 109,,Greenville,South Carolina,29607,USA,864-297-0015,,,"Monday 8:00 am - 1:30 pm 3:30 pm - 8:00 pm , Tuesday 5:30 am - 1:30 pm 3:30 pm - 8:00 pm , Wednesday 8:00 am - 1:30 pm 3:30 pm - 8:00 pm , Thursday 5:30 am - 1:30 pm 3:30 pm - 8:00 pm , Friday 8:00 am - 1:30 pm 3:30 pm - 7:00 pm , Saturday 9:00 am - 1:00 pm , Sunday 1:00 pm - 4:00 pm ",,,0
,,5000 Old Buncombe Rd. #48,,Greenville,South Carolina,29617,USA,864-246-4479,,,"Monday 5:30 am - 8:00 pm , Tuesday 5:30 am - 8:00 pm , Wednesday 5:30 am - 8:00 pm , Thursday 5:30 am - 8:00 pm , Friday 5:30 am - 8:00 pm , Saturday 8:00 am - 3:00 pm ",,,0
,,3712 Pelham Rd.,,Greenville,South Carolina,29615,USA,864-213-9862,,,"Monday 9:00 am - 2:00 pm 3:30 pm - 8:00 pm , Tuesday 6:00 am - 2:00 pm 3:30 pm - 8:00 pm , Wednesday 9:00 am - 2:00 pm 3:30 pm - 8:00 pm , Thursday 6:00 am - 2:00 pm 3:30 pm - 8:00 pm , Friday 9:00 am - 2:00 pm 3:30 pm - 7:00 pm , Saturday 8:00 am - 12:00 pm ",,,0
,,2728 Wade Hampton Blvd.,,Greenville,South Carolina,29615,USA,864-244-0190,,,"Monday 5:30 am - 1:30 pm 3:30 pm - 8:00 pm , Tuesday 8:00 am - 1:30 pm 3:30 pm - 8:00 pm , Wednesday 5:30 am - 1:30 pm 3:30 pm - 8:00 pm , Thursday 8:00 am - 1:30 pm 3:30 pm - 8:00 pm , Friday 8:00 am - 1:30 pm 3:30 pm - 7:00 pm , Saturday 9:00 am - 1:00 pm ",,,0
,,521B Highway 72 NW.,,Greenwood,South Carolina,29649,USA,(864) 223-8809,,,"Monday 8:00 am - 1:00 pm 3:30 pm - 8:00 pm , Tuesday 8:00 am - 1:00 pm 3:30 pm - 8:00 pm , Wednesday 8:00 am - 1:00 pm 3:30 pm - 8:00 pm , Thursday 8:00 am - 1:00 pm 3:30 pm - 8:00 pm , Friday 8:00 am - 1:00 pm 3:30 pm - 7:00 pm , Saturday 9:00 am - 1:00 pm ",,,0
,,1429 West Floyd Baker Blvd,,Gaffney,South Carolina,29341,USA,864-489-7774,,,"Monday 8:00 am - 1:00 pm 3:00 pm - 8:00 pm , Tuesday 8:00 am - 1:00 pm 3:00 pm - 8:00 pm , Wednesday 8:00 am - 1:00 pm 3:00 pm - 8:00 pm , Thursday 8:00 am - 1:00 pm 3:00 pm - 8:00 pm , Friday 8:00 am - 1:00 pm 3:00 pm - 6:00 pm , Saturday 8:00 am - 12:00 pm ",,,0
,,"2151 W. Evans St, Suite F",,Florence,South Carolina,29501,USA,843-799-1497,,,"Monday 6:00 am - 1:30 pm 3:30 pm - 8:00 pm , Tuesday 8:00 am - 1:30 pm 3:30 pm - 8:00 pm , Wednesday 6:00 am - 1:30 pm 3:30 pm - 8:00 pm , Thursday 8:00 am - 1:30 pm 3:30 pm - 8:00 pm , Friday 8:00 am - 1:30 pm 3:30 pm - 7:00 pm , Saturday 8:00 am - 12:00 pm ",,,0
,,604 St. James Avenue Suite I,,Goose Creek,South Carolina,29445,USA,843-212-5838,,,"Monday 8:00 am - 1:00 pm 3:30 pm - 8:00 pm , Tuesday 7:00 am - 1:00 pm 3:30 pm - 8:00 pm , Wednesday 8:00 am - 1:00 pm 3:30 pm - 8:00 pm , Thursday 7:00 am - 1:00 pm 3:30 pm - 8:00 pm , Friday 8:00 am - 1:00 pm 3:30 pm - 7:00 pm , Saturday 8:00 am - 12:00 pm ",,,0
,,601 Williams Ave Ste C.,,Easley,South Carolina,29640,USA,864-810-3418,,,"Monday 6:00 am - 1:00 pm 4:00 pm - 8:00 pm , Tuesday 8:00 am - 1:00 pm 4:00 pm - 8:00 pm , Wednesday 6:00 am - 1:00 pm 4:00 pm - 8:00 pm , Thursday 8:00 am - 1:00 pm 4:00 pm - 8:00 pm , Friday 8:00 am - 1:00 pm 3:00 pm - 6:30 pm , Saturday 8:00 am - 12:30 pm ",,,0
,,833 Stockbridge Drive,,Fort Mill,South Carolina,29708,USA,(980) 272-1704,,,"Monday 5:00 am - 10:00 am 3:00 pm - 8:00 pm , Tuesday 5:00 am - 10:00 am 3:00 pm - 8:00 pm , Wednesday 5:00 am - 10:00 am 3:00 pm - 8:00 pm , Thursday 5:00 am - 10:00 am 3:00 pm - 8:00 pm , Friday 5:00 am - 10:00 am 3:00 pm - 6:00 pm , Saturday 8:00 am - 12:00 pm ",,,0
,,4611 Hard Scrabble Rd. Ste 103,,Columbia,South Carolina,29229,USA,803-728-0056,,,"Monday 8:00 am - 1:30 pm 3:30 pm - 8:00 pm , Tuesday 8:00 am - 1:30 pm 3:30 pm - 8:00 pm , Wednesday 8:00 am - 1:30 pm 3:30 pm - 8:00 pm , Thursday 8:00 am - 1:30 pm 3:30 pm - 8:00 pm , Friday 8:00 am - 1:30 pm 3:30 pm - 7:00 pm , Saturday 9:00 am - 1:00 pm ",,,0
,,285 Columbiana Dr.,,Columbia,South Carolina,29212,USA,803-708-9384,,,"Monday 9:00 am - 1:30 pm 3:30 pm - 8:00 pm , Tuesday 9:00 am - 1:30 pm 3:30 pm - 8:00 pm , Wednesday 9:00 am - 1:30 pm 3:30 pm - 8:00 pm , Thursday 9:00 am - 1:30 pm 3:30 pm - 8:00 pm , Friday 9:00 am - 1:30 pm 3:30 pm - 7:00 pm , Saturday 8:00 am - 12:00 pm ",,,0
,,650 Lincoln Street,,Columbia,South Carolina,29201,USA,803-521-0034,,,"Monday 8:00 am - 1:00 pm 3:00 pm - 8:00 pm , Tuesday 6:00 am - 1:00 pm 3:00 pm - 8:00 pm , Wednesday 8:00 am - 1:00 pm 3:00 pm - 8:00 pm , Thursday 6:00 am - 1:00 pm 3:00 pm - 8:00 pm , Friday 8:00 am - 12:00 pm 2:00 pm - 6:00 pm , Saturday 8:00 am - 12:00 pm ",,,0
,,5424 Forest Drive Suite 120 (Walmart-Sam's Club  Shopping Center),,Columbia,South Carolina,29206,USA,(803) 497-3647,,,"Monday 9:00 am - 1:30 pm 3:30 pm - 8:00 pm , Tuesday 6:00 am - 1:30 pm 3:30 pm - 8:00 pm , Wednesday 9:00 am - 1:30 pm 3:30 pm - 8:00 pm , Thursday 6:00 am - 1:30 pm 3:30 pm - 8:00 pm , Friday 9:00 am - 1:30 pm 3:30 pm - 6:00 pm , Saturday 9:00 am - 1:00 pm ",,,0
,,101 McCollum St.,,Clemson,South Carolina,29631,USA,864-653-9910,,,"Monday 7:00 am - 1:30 pm 3:30 pm - 8:00 pm , Tuesday 9:00 am - 1:30 pm 3:30 pm - 8:00 pm , Wednesday 7:00 am - 1:30 pm 3:30 pm - 8:00 pm , Thursday 9:00 am - 1:30 pm 3:30 pm - 8:00 pm , Friday 9:00 am - 1:30 pm 3:30 pm - 6:30 pm , Saturday 9:00 am - 1:00 pm ",,,0
,,2242 Boiling Springs Rd.,,Boiling Springs,South Carolina,29316,USA,864-599-8989,,,"Monday 9:00 am - 2:00 pm 3:30 pm - 8:00 pm , Tuesday 9:00 am - 2:00 pm 3:30 pm - 8:00 pm , Wednesday 9:00 am - 2:00 pm 3:30 pm - 8:00 pm , Thursday 9:00 am - 2:00 pm 3:30 pm - 8:00 pm , Friday 9:00 am - 2:00 pm 3:30 pm - 7:00 pm , Saturday 9:00 am - 1:00 pm ",,,0
,,3014 Augusta St  Ste B,,Greenville,South Carolina,29605,USA,864-528-5155,,,"Monday 6:00 am - 1:30 pm 3:30 pm - 8:00 pm , Tuesday 9:00 am - 1:30 pm 3:30 pm - 8:00 pm , Wednesday 6:00 am - 1:30 pm 3:30 pm - 8:00 pm , Thursday 9:00 am - 1:30 pm 3:30 pm - 8:00 pm , Friday 6:00 am - 1:30 pm 3:30 pm - 7:00 pm , Saturday 8:00 am - 12:00 pm , Sunday 1:00 pm - 4:00 pm ",,,0
,,8445 Charlotte Highway | Doby's Bridge Commons  (next to the Gate gas station),,Indian Land,South Carolina,29707,USA,(803) 552-9608  -  (704) 620-4905,,,"Monday 5:00 am - 1:00 pm 3:00 pm - 8:00 pm , Tuesday 8:00 am - 1:00 pm 3:00 pm - 8:00 pm , Wednesday 5:00 am - 1:00 pm 3:00 pm - 8:00 pm , Thursday 8:00 am - 1:00 pm 3:00 pm - 8:00 pm , Friday 5:00 am - 1:00 pm 3:00 pm - 6:30 pm , Saturday 8:00 am - 12:00 pm ",,,0
,,457 Main Street,,Metuchen,New Jersey,08840,USA,732-310-5099,,,"Monday 6:00 am - 1:00 pm 3:00 pm - 8:00 pm , Tuesday 6:00 am - 1:00 pm 3:00 pm - 9:00 pm , Wednesday 6:00 am - 1:00 pm 3:00 pm - 8:00 pm , Thursday 6:00 am - 1:00 pm 3:00 pm - 9:00 pm , Friday 6:00 am - 1:00 pm 3:00 pm - 7:00 pm , Saturday 8:00 am - 1:00 pm ",,,0
,,"326 Route 22 West, Suite 3A",,Green Brook,New Jersey,08812,USA,732-424-1099,,,"Monday 6:00 am - 1:00 pm 3:30 pm - 9:00 pm , Tuesday 7:00 am - 1:00 pm 3:30 pm - 8:00 pm , Wednesday 7:00 am - 1:00 pm 3:30 pm - 8:00 pm , Thursday 6:00 am - 1:00 pm 3:30 pm - 9:00 pm , Friday 7:00 am - 1:00 pm 3:30 pm - 7:00 pm , Saturday 8:00 am - 12:00 pm ",,,0
,,4118-A Clemson Blvd.,,Anderson,South Carolina,29621,USA,864-401-8047,,,"Monday 8:00 am - 1:30 pm 3:30 pm - 8:00 pm , Tuesday 8:00 am - 1:30 pm 3:30 pm - 8:00 pm , Wednesday 8:00 am - 1:30 pm 3:30 pm - 8:00 pm , Thursday 8:00 am - 1:30 pm 3:30 pm - 8:00 pm , Friday 8:00 am - 1:30 pm 3:30 pm - 6:00 pm , Saturday 9:00 am - 1:00 pm ",,,0
,,1815 E. Greenville St Suite D,,Anderson,South Carolina,29621,USA,864-226-1633,,,"Monday 8:00 am - 2:00 pm 3:30 pm - 8:00 pm , Tuesday 8:00 am - 2:00 pm 3:30 pm - 8:00 pm , Wednesday 8:00 am - 2:00 pm 3:30 pm - 8:00 pm , Thursday 8:00 am - 2:00 pm 3:30 pm - 8:00 pm , Friday 8:00 am - 2:00 pm 3:30 pm - 6:30 pm , Saturday 9:00 am - 12:00 pm ",,,0
,,1890 Sam Rittenberg Blvd.,,Charleston,South Carolina,29407,USA,843-566-2099,,,"Monday 8:00 am - 1:30 pm 3:30 pm - 8:00 pm , Tuesday 8:00 am - 1:30 pm 3:30 pm - 8:00 pm , Wednesday 8:00 am - 1:30 pm 3:30 pm - 8:00 pm , Thursday 8:00 am - 1:30 pm 3:30 pm - 8:00 pm , Friday 8:00 am - 1:30 pm 3:30 pm - 6:30 pm , Saturday 9:00 am - 1:00 pm ",,,0
,,111 SPARKLEBERRY CROSSING RD STE 2,,Columbia,South Carolina,29229,USA,803-724-8484,,,"Monday 6:00 am - 1:30 pm 3:30 pm - 8:00 pm , Tuesday 9:00 am - 1:30 pm 3:30 pm - 8:00 pm , Wednesday 6:00 am - 1:30 pm 3:30 pm - 8:00 pm , Thursday 9:00 am - 1:30 pm 3:30 pm - 8:00 pm , Friday 8:00 am - 1:30 pm 3:30 pm - 7:00 pm , Saturday 9:00 am - 1:00 pm ",,,0
,,"3470 Erie Blvd East, Suite 600",,DeWitt,New York,13214,USA,315-928-6415,,,"Monday 8:00 am - 1:00 pm 3:00 pm - 8:00 pm , Tuesday 8:00 am - 1:00 pm 3:00 pm - 8:00 pm , Wednesday 8:00 am - 1:00 pm 3:00 pm - 8:00 pm , Thursday 8:00 am - 1:00 pm 3:00 pm - 8:00 pm , Friday 8:00 am - 1:00 pm 3:00 pm - 7:00 pm , Saturday 8:00 am - 12:00 pm ",,,0
,,408 Oswego St.,,Liverpool,New York,13088,USA,315-870-9680,,,"Monday 8:00 am - 1:00 pm 3:00 pm - 8:00 pm , Tuesday 6:00 am - 1:00 pm 3:00 pm - 8:00 pm , Wednesday 8:00 am - 1:00 pm 3:00 pm - 8:00 pm , Thursday 6:00 am - 1:00 pm 3:00 pm - 8:00 pm , Friday 8:00 am - 1:00 pm 3:00 pm - 7:00 pm , Saturday 8:00 am - 12:00 pm ",,,0
,,1400 Kings Highway  N,,Cherry Hill,New Jersey,08034,USA,(856) 375-2711,,,"Monday 8:00 am - 1:00 pm 3:00 pm - 8:00 pm , Tuesday 8:00 am - 1:00 pm 3:00 pm - 8:00 pm , Wednesday 8:00 am - 1:00 pm 3:00 pm - 8:00 pm , Thursday 8:00 am - 1:00 pm 3:00 pm - 8:00 pm , Friday 8:00 am - 1:00 pm 3:00 pm - 8:00 pm , Saturday 9:00 am - 12:00 pm ",,,0
,,1216 E. 57th St.,,Sioux Falls,South Dakota,57108,USA,605-274-9977,,,"Monday 5:30 am - 10:00 am 11:00 am - 1:00 pm 3:30 pm - 8:00 pm , Tuesday 5:30 am - 10:00 am 11:00 am - 1:00 pm 3:30 pm - 8:00 pm , Wednesday 5:30 am - 10:00 am 11:00 am - 1:00 pm 3:30 pm - 8:00 pm , Thursday 5:30 am - 10:00 am 11:00 am - 1:00 pm 3:30 pm - 8:00 pm , Friday 5:30 am - 10:00 am 11:00 am - 1:00 pm 3:30 pm - 7:00 pm , Saturday 8:00 am - 12:00 pm ",,,0
,,1900 S. Clinton Ave,,Brighton,New York,14618,USA,585-363-5529,,,"Monday 8:00 am - 1:30 pm 3:30 pm - 8:00 pm , Tuesday 8:00 am - 1:30 pm 3:30 pm - 8:00 pm , Wednesday 8:00 am - 1:30 pm 3:30 pm - 8:00 pm , Thursday 8:00 am - 1:30 pm 3:30 pm - 8:00 pm , Friday 8:00 am - 1:30 pm 3:30 pm - 7:00 pm , Saturday 8:00 am - 12:00 pm ",,,0
,,656 Nostrand Avenue,,Brooklyn,New York,11216,USA,718-303-0203,,,,,,0
,,210 W. Bridge Street,,Catskill,New York,12414,USA,518-894-KICK,,,"Monday 8:00 am - 1:00 pm 3:00 pm - 8:00 pm , Tuesday 8:00 am - 1:00 pm 3:00 pm - 8:00 pm , Wednesday 8:00 am - 1:00 pm 3:00 pm - 8:00 pm , Thursday 8:00 am - 1:00 pm 3:00 pm - 8:00 pm , Friday 8:00 am - 1:00 pm 3:00 pm - 8:00 pm , Saturday 8:00 am - 12:00 pm ",,,0
,,8586 Transit Rd  (Transit & Klein),,East Amherst,New York,14051,USA,716-689-0090,,,"Monday 7:00 am - 12:00 pm 3:30 pm - 8:00 pm , Tuesday 6:00 am - 12:00 pm 3:30 pm - 8:00 pm , Wednesday 7:00 am - 12:00 pm 3:30 pm - 8:00 pm , Thursday 6:00 am - 12:00 pm 3:30 pm - 8:00 pm , Friday 6:00 am - 12:00 pm 3:30 pm - 6:00 pm , Saturday 8:00 am - 12:00 pm ",,,0
,,4654 W. Houston St.,,Broken Arrow,Oklahoma,74012,USA,918-986-3797,,,"Monday 8:00 am - 1:30 pm 3:30 pm - 8:00 pm , Tuesday 8:00 am - 1:30 pm 3:30 pm - 8:00 pm , Wednesday 8:00 am - 1:30 pm 3:30 pm - 8:00 pm , Thursday 8:00 am - 1:30 pm 3:30 pm - 8:00 pm , Friday 8:00 am - 1:30 pm 3:30 pm - 7:00 pm , Saturday 9:00 am - 1:00 pm ",,,0
,,4940 Martin View Ln,,Winston Salem,North Carolina,27104,USA,336-934-4190,,,"Monday 6:00 am - 1:30 pm 3:30 pm - 8:00 pm , Tuesday 8:00 am - 1:30 pm 3:30 pm - 8:00 pm , Wednesday 6:00 am - 1:30 pm 3:30 pm - 8:00 pm , Thursday 8:00 am - 1:30 pm 3:30 pm - 8:00 pm , Friday 6:00 am - 1:30 pm 3:30 pm - 6:00 pm , Saturday 9:00 am - 1:00 pm ",,,0
,,1131 Falls River Ave Unit #102,,Raleigh,North Carolina,27614,USA,919-769-1002,,,"Monday 6:00 am - 1:30 pm 3:30 pm - 8:00 pm , Tuesday 6:00 am - 1:30 pm 3:30 pm - 8:00 pm , Wednesday 6:00 am - 1:30 pm 3:30 pm - 8:00 pm , Thursday 6:00 am - 1:30 pm 3:30 pm - 8:00 pm , Friday 6:00 am - 1:30 pm 3:30 pm - 6:00 pm , Saturday 9:00 am - 1:00 pm ",,,0
,,3466 E. Broad Street,,Statesville,North Carolina,28625,USA,704-872-3987,,,"Monday 7:00 am - 1:30 pm 3:30 pm - 8:00 pm , Tuesday 7:00 am - 1:30 pm 3:30 pm - 8:00 pm , Wednesday 7:00 am - 1:30 pm 3:30 pm - 8:00 pm , Thursday 7:00 am - 1:30 pm 3:30 pm - 8:00 pm , Friday 7:00 am - 1:30 pm 3:30 pm - 6:00 pm , Saturday 8:00 am - 1:30 pm ",,,0
,,1230-5 East Dixon Boulevard,,Shelby,North Carolina,28152,USA,980-404-1161,,,"Monday 8:00 am - 1:00 pm 4:00 pm - 8:00 pm , Tuesday 8:00 am - 1:00 pm 4:00 pm - 8:00 pm , Wednesday 8:00 am - 1:00 pm 4:00 pm - 8:00 pm , Thursday 8:00 am - 1:00 pm 4:00 pm - 8:00 pm , Friday 8:00 am - 1:00 pm 4:00 pm - 6:00 pm ",,,0
,,279 Williamson Rd. Ste B,,Mooresville,North Carolina,28117,USA,704-664-4419,,,"Monday 5:30 am - 2:00 pm 4:00 pm - 8:00 pm , Tuesday 5:30 am - 2:00 pm 4:00 pm - 8:00 pm , Wednesday 5:30 am - 2:00 pm 4:00 pm - 8:00 pm , Thursday 5:30 am - 2:00 pm 4:00 pm - 8:00 pm , Friday 9:00 am - 2:00 pm 4:00 pm - 6:00 pm , Saturday 9:00 am - 1:00 pm ",,,0
,,6443-B Old Monroe Rd.,,Indian Trail,North Carolina,28079,USA,980-265-1574,,,"Monday 8:00 am - 1:00 pm 3:00 pm - 7:30 pm , Tuesday 5:30 am - 1:00 pm 3:00 pm - 7:30 pm , Wednesday 8:00 am - 1:00 pm 3:00 pm - 7:30 pm , Thursday 5:30 am - 1:00 pm 3:00 pm - 7:30 pm , Friday 8:00 am - 1:00 pm 3:00 pm - 6:00 pm , Saturday 8:00 am - 12:00 pm ",,,0
,,8111 Rowlock Way #105,,Raleigh,North Carolina,27613,USA,919-446-KICK,,,"Monday 6:00 am - 12:00 pm 4:00 pm - 8:00 pm , Tuesday 6:00 am - 12:00 pm 4:00 pm - 8:00 pm , Wednesday 6:00 am - 12:00 pm 4:00 pm - 8:00 pm , Thursday 6:00 am - 12:00 pm 4:00 pm - 8:00 pm , Friday 6:00 am - 12:00 pm 4:00 pm - 6:00 pm , Saturday 8:00 am - 12:00 pm ",,,0
,,"3901 Providence Rd, Suite F",,Waxhaw,North Carolina,28173,USA,704-843-KICK or text us at 704-493-5866,,,"Monday 8:00 am - 1:00 pm 3:30 pm - 8:00 pm , Tuesday 7:00 am - 1:00 pm 3:30 pm - 8:00 pm , Wednesday 7:00 am - 1:00 pm 3:30 pm - 8:00 pm , Thursday 7:00 am - 1:00 pm 3:30 pm - 8:00 pm , Friday 8:00 am - 1:00 pm 3:30 pm - 6:00 pm , Saturday 8:00 am - 12:00 pm ",,,0
,,1010 N. Santa Fe,,Edmond,Oklahoma,73003,USA,405-562-1836,,,"Monday 9:00 am - 1:30 pm 3:30 pm - 8:00 pm , Tuesday 6:00 am - 1:30 pm 3:30 pm - 8:00 pm , Wednesday 9:00 am - 1:30 pm 3:30 pm - 8:00 pm , Thursday 6:00 am - 1:30 pm 3:30 pm - 8:00 pm , Friday 9:00 am - 1:30 pm 3:30 pm - 7:00 pm , Saturday 9:00 am - 1:00 pm ",,,0
,,2923 N. Center St. Suite B,,Hickory,North Carolina,28601,USA,828.855.0955,,,"Monday 7:00 am - 1:30 pm 3:30 pm - 8:00 pm , Tuesday 8:00 am - 1:30 pm 3:30 pm - 8:00 pm , Wednesday 7:00 am - 1:30 pm 3:30 pm - 8:00 pm , Thursday 8:00 am - 1:30 pm 3:30 pm - 8:00 pm , Friday 7:00 am - 1:30 pm 3:30 pm - 7:00 pm , Saturday 8:00 am - 12:00 pm ",,,0
,,"6816 Matthews Mint Hill Road, Suite 103",,Mint Hill,North Carolina,28227,USA,980 498 2203,,,"Monday 5:30 am - 1:00 pm 3:30 pm - 8:00 pm , Tuesday 5:30 am - 1:00 pm 3:30 pm - 8:00 pm , Wednesday 5:30 am - 1:00 pm 3:30 pm - 8:00 pm , Thursday 5:30 am - 1:00 pm 3:30 pm - 8:00 pm , Friday 5:30 am - 1:00 pm 3:30 pm - 6:00 pm , Saturday 8:30 am - 1:00 pm ",,,0
,,929 Park Center Drive - Ste 102,,Matthews,North Carolina,28105,USA,Gym:       704-321-0999,,,"Monday 8:00 am - 1:00 pm 4:00 pm - 8:00 pm , Tuesday 7:00 am - 1:00 pm 4:00 pm - 8:00 pm , Wednesday 7:00 am - 1:00 pm 4:00 pm - 8:00 pm , Thursday 7:00 am - 1:00 pm 4:00 pm - 8:00 pm , Friday 8:00 am - 1:00 pm 4:00 pm - 6:00 pm , Saturday 9:00 am - 1:00 pm ",,,0
,,825 Spartanburg Hwy  Unit 14,,Hendersonville,North Carolina,28792,USA,828-698-5566,,,"Monday 9:00 am - 1:00 pm 4:00 pm - 8:00 pm , Tuesday 9:00 am - 1:00 pm 4:00 pm - 8:00 pm , Wednesday 9:00 am - 1:00 pm 4:00 pm - 8:00 pm , Thursday 9:00 am - 1:30 pm 4:00 pm - 8:00 pm , Friday 9:00 am - 1:00 pm 4:00 pm - 7:00 pm , Saturday 8:00 am - 12:00 pm ",,,0
,,7585 Hwy 73,,Denver,North Carolina,28037,USA,704-252-4156,,,"Monday 8:00 am - 1:00 pm 4:00 pm - 8:00 pm , Tuesday 8:00 am - 1:00 pm 4:00 pm - 8:00 pm , Wednesday 8:00 am - 1:00 pm 4:00 pm - 8:00 pm , Thursday 8:00 am - 1:00 pm 4:00 pm - 8:00 pm , Friday 8:00 am - 1:00 pm 4:00 pm - 7:00 pm , Saturday 8:00 am - 12:00 pm ",,,0
,,7276 GB Alford Hwy,,Holly Springs,North Carolina,27540,USA,919-285-0926,,,"Monday 5:30 am - 1:30 pm 3:30 pm - 8:00 pm , Tuesday 7:00 am - 1:30 pm 3:30 pm - 8:00 pm , Wednesday 5:30 am - 1:30 pm 3:30 pm - 8:00 pm , Thursday 7:00 am - 1:30 pm 3:30 pm - 8:00 pm , Friday 5:30 am - 1:30 pm 3:30 pm - 6:00 pm , Saturday 8:00 am - 12:00 pm ",,,0
,,7288 Caldwell Road,,Harrisburg,North Carolina,28075,USA,704-455-7535,,,"Monday 5:00 am - 1:00 pm 3:00 pm - 8:00 pm , Tuesday 8:00 am - 1:00 pm 3:00 pm - 8:00 pm , Wednesday 5:00 am - 1:00 pm 3:00 pm - 8:00 pm , Thursday 8:00 am - 1:00 pm 3:00 pm - 8:00 pm , Friday 5:00 am - 1:00 pm 3:00 pm - 6:00 pm , Saturday 8:00 am - 12:00 pm ",,,0
,,2609 S. New Hope Rd,,Gastonia,North Carolina,28056,USA,704-691-7876,,,"Monday 6:00 am - 12:00 pm 3:00 pm - 8:00 pm , Tuesday 6:00 am - 12:00 pm 3:00 pm - 8:00 pm , Wednesday 6:00 am - 12:00 pm 3:00 pm - 8:00 pm , Thursday 6:00 am - 12:00 pm 3:00 pm - 8:00 pm , Friday 6:00 am - 12:00 pm 3:00 pm - 7:00 pm , Saturday 8:00 am - 12:00 pm ",,,0
,,3010 Traemoor Village Dr. Suite 160,,Fayetteville,North Carolina,28306,USA,910-423-0055,,,"Monday 6:00 am - 1:00 pm 3:30 pm - 8:00 pm , Tuesday 8:00 am - 1:00 pm 3:30 pm - 8:00 pm , Wednesday 6:00 am - 1:00 pm 3:30 pm - 8:00 pm , Thursday 8:00 am - 1:00 pm 3:30 pm - 8:00 pm , Friday 6:00 am - 1:00 pm 3:30 pm - 6:00 pm , Saturday 9:00 am - 1:00 pm ",,,0
,,2002 New Garden Road,,Greensboro,North Carolina,27410,USA,336-763-5853,,,"Monday 6:00 am - 1:00 pm 3:30 pm - 8:00 pm , Tuesday 7:00 am - 1:00 pm 3:30 pm - 8:00 pm , Wednesday 6:00 am - 1:00 pm 3:30 pm - 8:00 pm , Thursday 7:00 am - 1:00 pm 3:30 pm - 8:00 pm , Friday 6:00 am - 1:00 pm 3:30 pm - 7:00 pm , Saturday 8:00 am - 1:00 pm ",,,0
,,19930 West Catawba Ave. Ste 200,,Cornelius,North Carolina,28031,USA,704-997-5862,,,"Monday 9:00 am - 2:00 pm 4:00 pm - 8:00 pm , Tuesday 9:00 am - 2:00 pm 4:00 pm - 8:00 pm , Wednesday 9:00 am - 2:00 pm 4:00 pm - 8:00 pm , Thursday 9:00 am - 2:00 pm 4:00 pm - 8:00 pm , Friday 9:00 am - 2:00 pm 4:00 pm - 6:00 pm , Saturday 9:00 am - 1:00 pm ",,,0
,,2115 E. Arbors Dr.,,Charlotte,North Carolina,28262,USA,980-224-8512,,,"Monday 5:30 am - 1:30 pm 3:30 pm - 8:00 pm , Tuesday 6:30 am - 1:30 pm 3:30 pm - 8:00 pm , Wednesday 5:30 am - 1:30 pm 3:30 pm - 8:00 pm , Thursday 6:30 am - 1:30 pm 3:30 pm - 8:00 pm , Friday 5:30 am - 1:30 pm 3:30 pm - 6:00 pm , Saturday 8:00 am - 12:00 pm ",,,0
,,289 Paragon Pkwy.,,Clyde,North Carolina,28721,USA,828-246-9855,,,"Monday 8:00 am - 1:00 pm 3:30 pm - 8:00 pm , Tuesday 8:00 am - 1:00 pm 3:30 pm - 8:00 pm , Wednesday 5:30 am - 1:00 pm 3:30 pm - 8:00 pm , Thursday 8:00 am - 1:00 pm 3:30 pm - 8:00 pm , Friday 8:00 am - 1:00 pm 3:30 pm - 7:00 pm , Saturday 8:00 am - 12:00 pm ",,,0
,,5110 Park Rd,,Charlotte,North Carolina,28209,USA,980.430.1479,,,"Monday 6:00 am - 1:30 pm 3:30 pm - 8:00 pm , Tuesday 6:00 am - 1:30 pm 3:30 pm - 8:00 pm , Wednesday 6:00 am - 1:30 pm 3:30 pm - 8:00 pm , Thursday 6:00 am - 1:30 pm 3:30 pm - 8:00 pm , Friday 6:00 am - 1:30 pm 3:30 pm - 7:00 pm , Saturday 7:00 am - 12:00 pm ",,,0
,,300 S. Sharon Amity Rd,,Charlotte,North Carolina,28211,USA,(704) 247-4105,,,"Monday 6:00 am - 1:30 pm 3:30 pm - 8:00 pm , Tuesday 6:00 am - 1:30 pm 3:30 pm - 8:00 pm , Wednesday 6:00 am - 1:30 pm 3:30 pm - 8:00 pm , Thursday 6:00 am - 1:30 pm 3:30 pm - 8:00 pm , Friday 6:00 am - 1:30 pm 3:30 pm - 7:00 pm , Saturday 8:00 am - 1:00 pm ",,,0
,,7510 Pineville Matthews Road Suite 6A,,Charlotte,North Carolina,28226,USA,704-543-5685,,,"Monday 5:30 am - 1:30 pm 3:30 pm - 7:30 pm , Tuesday 8:00 am - 1:30 pm 3:30 pm - 7:30 pm , Wednesday 5:30 am - 1:30 pm 3:30 pm - 7:30 pm , Thursday 8:00 am - 1:30 pm 3:30 pm - 7:30 pm , Friday 8:00 am - 1:30 pm 3:30 pm - 6:00 pm , Saturday 8:00 am - 12:00 pm ",,,0
,,"2424 N. Davidson, Suite 112B",,Charlotte,North Carolina,28205,USA,704-457-9366,,,"Monday 6:00 am - 1:00 pm 3:30 pm - 8:00 pm , Tuesday 6:00 am - 1:00 pm 3:30 pm - 8:00 pm , Wednesday 6:00 am - 1:00 pm 3:30 pm - 8:00 pm , Thursday 6:00 am - 1:00 pm 3:30 pm - 8:00 pm , Friday 7:00 am - 1:00 pm 3:30 pm - 6:00 pm , Saturday 8:00 am - 12:00 pm ",,,0
,,11301 Golf Links Drive N. Suite 101,,Charlotte,North Carolina,28277,USA,980-339-5124,,,"Monday 7:00 am - 12:00 pm 3:00 pm - 8:00 pm , Tuesday 5:30 am - 12:00 pm 3:00 pm - 8:00 pm , Wednesday 7:00 am - 12:00 pm 3:00 pm - 8:00 pm , Thursday 5:30 am - 12:00 pm 3:00 pm - 8:00 pm , Friday 7:00 am - 12:00 pm 3:00 pm - 7:00 pm , Saturday 8:00 am - 1:00 pm ",,,0
,,3805 Concord parkway south,,Concord,North Carolina,28027,USA,704-795-2716,,,"Monday 5:00 am - 1:30 pm 3:30 pm - 7:30 pm , Tuesday 8:00 am - 1:30 pm 3:30 pm - 7:30 pm , Wednesday 5:00 am - 1:30 pm 3:30 pm - 7:30 pm , Thursday 8:00 am - 1:30 pm 3:30 pm - 7:30 pm , Friday 8:00 am - 1:30 pm 3:30 pm - 6:30 pm , Saturday 8:00 am - 12:00 pm ",,,0
,,4841 Shopton Rd,,Charlotte,North Carolina,28278,USA,(980) 209-9415,,,"Monday 5:30 am - 1:00 pm 3:30 pm - 8:00 pm , Tuesday 8:00 am - 1:00 pm 3:30 pm - 8:00 pm , Wednesday 5:30 am - 1:00 pm 3:30 pm - 8:00 pm , Thursday 8:00 am - 1:00 pm 3:30 pm - 8:00 pm , Friday 8:00 am - 1:00 pm 3:30 pm - 7:00 pm , Saturday 8:00 am - 12:00 pm ",,,0
,,16721 Orchard Stone Run Suite 120,,Charlotte,North Carolina,28277,USA,704-542-9982,,,"Monday 5:00 am - 12:30 pm 3:30 pm - 8:00 pm , Tuesday 5:00 am - 12:30 pm 3:30 pm - 8:00 pm , Wednesday 5:00 am - 12:30 pm 3:30 pm - 8:00 pm , Thursday 5:00 am - 12:30 pm 3:30 pm - 8:00 pm , Friday 5:00 am - 12:30 pm 3:30 pm - 6:00 pm , Saturday 7:30 am - 12:00 pm ",,,0
,,3635 Mt. Holly-Huntersville Rd.,,Charlotte,North Carolina,28216,USA,980-406-3838,,,"Monday 8:00 am - 1:00 pm 3:30 pm - 8:00 pm , Tuesday 8:00 am - 1:00 pm 3:30 pm - 8:00 pm , Wednesday 5:30 am - 1:00 pm 3:30 pm - 8:00 pm , Thursday 8:00 am - 1:00 pm 3:30 pm - 8:00 pm , Friday 8:00 am - 1:00 pm 3:30 pm - 6:00 pm , Saturday 8:00 am - 12:00 pm ",,,0
,,1412 East Blvd.,,Charlotte,North Carolina,28203,USA,704-498-4667,,,"Monday 7:00 am - 1:00 pm 3:30 pm - 8:00 pm , Tuesday 6:00 am - 1:00 pm 3:30 pm - 8:00 pm , Wednesday 6:00 am - 1:00 pm 3:30 pm - 8:00 pm , Thursday 6:00 am - 1:00 pm 3:30 pm - 8:00 pm , Friday 6:00 am - 1:00 pm 3:30 pm - 6:00 pm , Saturday 8:00 am - 1:00 pm , Sunday 11:00 am - 2:00 pm ",,,0
,,61 N. Merrimon Ave. Suite 105,,Asheville,North Carolina,28804,USA,828-424-7260,,,"Monday 7:00 am - 1:00 pm 3:00 pm - 8:00 pm , Tuesday 8:00 am - 1:00 pm 3:00 pm - 8:00 pm , Wednesday 7:00 am - 1:00 pm 3:00 pm - 8:00 pm , Thursday 8:00 am - 1:00 pm 3:00 pm - 8:00 pm , Friday 7:00 am - 1:00 pm 3:00 pm - 6:00 pm , Saturday 8:00 am - 12:00 pm ",,,0
,,2370 Jack Warner Parkway NE A104,,Tuscaloosa,Alabama,35401,USA,205-248-7641,,,"Monday 6:00 am - 2:30 pm 3:30 pm - 8:00 pm , Tuesday 6:00 am - 2:30 pm 3:30 pm - 8:00 pm , Wednesday 6:00 am - 2:30 pm 3:30 pm - 8:00 pm , Thursday 6:00 am - 2:30 pm 3:30 pm - 8:00 pm , Friday 8:00 am - 2:30 pm 3:30 pm - 7:00 pm , Saturday 8:00 am - 12:00 pm ",,,0
,,774 West Williams Street,,Apex,North Carolina,27502,USA,(919) 526-0973,,,"Monday 6:30 am - 1:30 pm 4:00 pm - 8:00 pm , Tuesday 6:30 am - 1:30 pm 4:00 pm - 8:00 pm , Wednesday 6:30 am - 1:30 pm 4:00 pm - 8:00 pm , Thursday 6:30 am - 1:30 pm 4:00 pm - 8:00 pm , Friday 6:30 am - 1:30 pm 4:00 pm - 6:00 pm , Saturday 9:00 am - 1:00 pm ",,,0
,,80 McFarland Blvd Suite 9,,Northport,Alabama,35476,USA,205-758-1269,,,"Monday 6:00 am - 1:30 pm 2:30 pm - 8:00 pm , Tuesday 6:00 am - 1:30 pm 2:30 pm - 8:00 pm , Wednesday 6:00 am - 1:30 pm 2:30 pm - 8:00 pm , Thursday 6:00 am - 1:30 pm 2:30 pm - 8:00 pm , Friday 8:00 am - 1:30 pm 2:30 pm - 7:00 pm , Saturday 8:00 am - 12:00 pm ",,,0
,,"1079 Balch Rd,  Suite E",,Madison,Alabama,35758,USA,256-858-1189,,,"Monday 8:00 am - 1:30 pm 3:30 pm - 8:00 pm , Tuesday 6:00 am - 1:30 pm 3:30 pm - 8:00 pm , Wednesday 8:00 am - 1:30 pm 3:30 pm - 8:00 pm , Thursday 6:00 am - 1:30 pm 3:30 pm - 8:00 pm , Friday 8:00 am - 1:30 pm 3:30 pm - 7:00 pm , Saturday 8:00 am - 12:00 pm ",,,0
,,280 Meeting St,,Cary,North Carolina,27518,USA,919-803-5495,,,"Monday 6:30 am - 1:00 pm 3:30 pm - 8:00 pm , Tuesday 8:00 am - 1:00 pm 3:30 pm - 8:00 pm , Wednesday 6:30 am - 1:00 pm 3:30 pm - 8:00 pm , Thursday 8:00 am - 1:00 pm 3:30 pm - 8:00 pm , Friday 6:30 am - 1:00 pm 3:30 pm - 8:00 pm , Saturday 8:00 am - 1:00 pm ",,,0
,,1987 Hendersonville Road Ste G,,Asheville,North Carolina,28803,USA,828-684-6390,,,"Monday 6:30 am - 12:00 pm 4:00 pm - 8:00 pm , Tuesday 9:00 am - 1:00 pm 4:00 pm - 8:00 pm , Wednesday 6:30 am - 12:00 pm 4:00 pm - 8:00 pm , Thursday 9:00 am - 1:00 pm 4:00 pm - 8:00 pm , Friday 6:30 am - 12:00 pm 4:00 pm - 7:00 pm , Saturday 9:00 am - 1:00 pm ",,,0
,,11310 South Memorial Parkway,,Huntsville,Alabama,35803,USA,256-429-9011,,,"Monday 8:00 am - 1:30 pm 3:30 pm - 8:00 pm , Tuesday 8:00 am - 1:30 pm 3:30 pm - 8:00 pm , Wednesday 8:00 am - 1:30 pm 3:30 pm - 8:00 pm , Thursday 8:00 am - 1:30 pm 3:30 pm - 8:00 pm , Friday 8:00 am - 1:30 pm 3:30 pm - 7:00 pm , Saturday 8:00 am - 12:00 pm ",,,0
,,4577 Wall Triana Hwy,,Madison,Alabama,35758,USA,256-772-2008,,,"Monday 8:00 am - 1:30 pm 3:30 pm - 8:00 pm , Tuesday 6:00 am - 1:30 pm 3:30 pm - 8:00 pm , Wednesday 8:00 am - 1:30 pm 3:30 pm - 8:00 pm , Thursday 6:00 am - 1:30 pm 3:30 pm - 8:00 pm , Friday 8:00 am - 1:30 pm 3:30 pm - 7:00 pm , Saturday 8:00 am - 12:00 pm ",,,0
,,"309 Pelham Ave, Ste. B3",,Huntsville,Alabama,35801,USA,(256) 970-4797,,,"Monday 6:00 am - 1:30 pm 3:30 pm - 8:00 pm , Tuesday 8:00 am - 1:30 pm 3:30 pm - 8:00 pm , Wednesday 6:00 am - 1:30 pm 3:30 pm - 8:00 pm , Thursday 8:00 am - 1:30 pm 3:30 pm - 8:00 pm , Friday 8:00 am - 1:30 pm 3:30 pm - 7:00 pm , Saturday 8:00 am - 12:00 pm ",,,0
,,2659 Valleydale Rd,,Birmingham,Alabama,35244,USA,(205) 995-0708,,,"Monday 8:00 am - 1:30 pm 3:30 pm - 8:00 pm , Tuesday 8:00 am - 1:30 pm 3:30 pm - 8:00 pm , Wednesday 8:00 am - 1:30 pm 3:30 pm - 8:00 pm , Thursday 8:00 am - 1:30 pm 3:30 pm - 8:00 pm , Friday 8:00 am - 1:30 pm 3:30 pm - 7:00 pm , Saturday 9:00 am - 12:00 pm ",,,0
,,7132 Cincinnati-Dayton Rd. Unit #800,,West Chester,Ohio,45069,USA,513-847-4620,,,"Monday 8:00 am - 1:00 pm 3:00 pm - 8:00 pm , Tuesday 8:00 am - 1:00 pm 3:00 pm - 8:00 pm , Wednesday 8:00 am - 1:00 pm 3:00 pm - 8:00 pm , Thursday 8:00 am - 1:00 pm 3:00 pm - 8:00 pm , Friday 8:00 am - 1:00 pm 3:00 pm - 6:00 pm , Saturday 8:00 am - 1:00 pm ",,,0
,,153 South Main Street,,Washington Court House,Ohio,43160,USA,740-620-4189,,,"Monday 8:00 am - 1:30 pm 3:30 pm - 8:00 pm , Tuesday 8:00 am - 1:30 pm 3:30 pm - 8:00 pm , Wednesday 8:00 am - 1:30 pm 3:30 pm - 8:00 pm , Thursday 8:00 am - 1:30 pm 3:30 pm - 8:00 pm , Friday 8:00 am - 1:30 pm 3:30 pm - 7:00 pm , Saturday 8:00 am - 12:00 pm ",,,0
,,19341 Detroit Road,,Rocky River,Ohio,44116,USA,440-772-0009,,,"Monday 8:00 am - 1:30 pm 3:30 pm - 8:00 pm , Tuesday 8:00 am - 1:30 pm 3:30 pm - 8:00 pm , Wednesday 8:00 am - 1:30 pm 3:30 pm - 8:00 pm , Thursday 8:00 am - 1:30 pm 3:30 pm - 8:00 pm , Friday 8:00 am - 1:30 pm 3:30 pm - 6:30 pm , Saturday 7:00 am - 12:00 pm ",,,0
,,2766 John Hawkins Pkwy Suite 100,,Hoover,Alabama,35244,USA,205-518-6160,,,"Monday 8:00 am - 1:30 pm 3:30 pm - 8:00 pm , Tuesday 8:00 am - 1:30 pm 3:30 pm - 8:00 pm , Wednesday 8:00 am - 1:30 pm 3:30 pm - 8:00 pm , Thursday 8:00 am - 1:30 pm 3:30 pm - 8:00 pm , Friday 8:00 am - 1:30 pm 3:30 pm - 7:00 pm , Saturday 8:00 am - 12:00 pm ",,,0
,,9711 G Sawmill Parkway,,Powell,Ohio,43065,USA,(614) 659-7735,,,"Monday 8:00 am - 12:30 pm 3:00 pm - 8:00 pm , Tuesday 5:30 am - 12:30 pm 3:00 pm - 8:00 pm , Wednesday 8:00 am - 12:30 pm 3:00 pm - 8:00 pm , Thursday 5:30 am - 12:30 pm 3:00 pm - 8:00 pm , Friday 8:00 am - 12:30 pm 3:00 pm - 7:00 pm , Saturday 8:00 am - 1:00 pm ",,,0
,,8927 S. OLD STATE ROAD,,Lewis Center,Ohio,43035,USA,614-781-2146,,,"Monday 6:00 am - 1:30 pm 3:30 pm - 8:00 pm , Tuesday 8:00 am - 1:30 pm 3:30 pm - 8:00 pm , Wednesday 6:00 am - 1:30 pm 3:30 pm - 8:00 pm , Thursday 8:00 am - 1:30 pm 3:30 pm - 8:00 pm , Friday 8:00 am - 1:30 pm 3:30 pm - 7:00 pm , Saturday 8:00 am - 1:00 pm ",,,0
,,2606 Hilliard-Rome Rd,,Hilliard,Ohio,43026,USA,614-541-2475,,,"Monday 5:30 am - 1:30 pm 3:30 pm - 8:00 pm , Tuesday 8:00 am - 1:30 pm 3:30 pm - 8:00 pm , Wednesday 5:30 am - 1:30 pm 3:30 pm - 8:00 pm , Thursday 8:00 am - 1:30 pm 3:30 pm - 8:00 pm , Friday 5:30 am - 1:30 pm 3:30 pm - 6:30 pm , Saturday 8:00 am - 1:00 pm ",,,0
,,1506 S. Reynolds Rd,,Maumee,Ohio,43537,USA,419-794-0042,,,"Monday 8:00 am - 1:00 pm 3:30 pm - 8:00 pm , Tuesday 8:00 am - 1:00 pm 3:30 pm - 8:00 pm , Wednesday 8:00 am - 1:00 pm 3:30 pm - 8:00 pm , Thursday 8:00 am - 1:00 pm 3:30 pm - 8:00 pm , Friday 8:00 am - 1:00 pm 3:30 pm - 8:00 pm , Saturday 7:00 am - 12:00 pm ",,,0
,,3391 McDowell Rd,,Grove City,Ohio,43123,USA,614-305-7213,,,"Monday 5:30 am - 1:30 pm 3:30 pm - 8:00 pm , Tuesday 8:00 am - 1:30 pm 3:30 pm - 8:00 pm , Wednesday 5:30 am - 1:30 pm 3:30 pm - 8:00 pm , Thursday 8:00 am - 1:30 pm 3:30 pm - 8:00 pm , Friday 5:30 am - 1:30 pm 3:30 pm - 6:30 pm , Saturday 8:00 am - 1:00 pm ",,,0
,,3870-F Paxton Road,,CINCINNATI,Ohio,45209,USA,513-533-9333,,,,,,0
,,55 Ghent Rd,,Fairlawn,Ohio,44333,USA,(234) 678-5457,,,"Monday 8:00 am - 1:30 pm 3:30 pm - 8:00 pm , Tuesday 6:00 am - 1:30 pm 3:30 pm - 8:00 pm , Wednesday 8:00 am - 1:30 pm 3:30 pm - 8:00 pm , Thursday 6:00 am - 1:30 pm 3:30 pm - 8:00 pm , Friday 8:00 am - 1:30 pm 3:30 pm - 6:30 pm , Saturday 8:00 am - 12:00 pm ",,,0
,,4219 North High Street,,Columbus,Ohio,43214,USA,1-614-299-0998,,,"Monday 8:00 am - 1:30 pm 3:30 pm - 8:00 pm , Tuesday 6:00 am - 1:30 pm 3:30 pm - 8:00 pm , Wednesday 8:00 am - 1:30 pm 3:30 pm - 8:00 pm , Thursday 6:00 am - 1:30 pm 3:30 pm - 8:00 pm , Friday 8:00 am - 1:30 pm 3:30 pm - 7:00 pm , Saturday 8:00 am - 1:00 pm ",,,0
,,8315 Beechmont Avenue,,CINCINNATI,Ohio,45255,USA,513-474-2200,,,"Monday 8:30 am - 1:30 pm 3:30 pm - 8:00 pm , Tuesday 8:30 am - 1:30 pm 3:30 pm - 8:00 pm , Wednesday 8:30 am - 1:30 pm 3:30 pm - 8:00 pm , Thursday 8:30 am - 1:30 pm 3:30 pm - 8:00 pm , Friday 8:30 am - 1:30 pm 3:30 pm - 6:00 pm , Saturday 8:00 am - 12:00 pm ",,,0
,,126 W. South Boundary,,Perrysburg,Ohio,43551,USA,419-873-7377,,,"Monday 6:00 am - 1:00 pm 3:30 pm - 8:00 pm , Tuesday 8:00 am - 1:00 pm 3:30 pm - 8:00 pm , Wednesday 6:00 am - 1:00 pm 3:30 pm - 8:00 pm , Thursday 8:00 am - 1:00 pm 3:30 pm - 8:00 pm , Friday 6:00 am - 1:00 pm 3:30 pm - 6:00 pm , Saturday 8:00 am - 12:00 pm , Sunday 9:00 am - 12:00 pm ",,,0
,,"5035 Ooltewah-Ringgold Road, Suite 110",,Ooltewah,Tennessee,37363,USA,423-615-0183,,,"Monday 8:00 am - 1:00 pm 3:00 pm - 8:00 pm , Tuesday 8:00 am - 1:00 pm 3:00 pm - 8:00 pm , Wednesday 8:00 am - 1:00 pm 3:00 pm - 8:00 pm , Thursday 8:00 am - 1:00 pm 3:00 pm - 8:00 pm , Friday 8:00 am - 1:00 pm 3:00 pm - 6:30 pm , Saturday 9:00 am - 1:00 pm , Sunday 10:00 am - 2:00 pm ",,,0
,,1251 N. Bridge St. Suite J,,Chillicothe,Ohio,45601,USA,740-779-9090,,,"Monday 8:00 am - 1:30 pm 3:30 pm - 8:00 pm , Tuesday 8:00 am - 1:30 pm 3:30 pm - 8:00 pm , Wednesday 8:00 am - 1:30 pm 3:30 pm - 8:00 pm , Thursday 8:00 am - 1:30 pm 3:30 pm - 8:00 pm , Friday 8:00 am - 1:30 pm 3:30 pm - 7:00 pm , Saturday 8:00 am - 12:00 pm ",,,0
,,2658 New Salem Hwy Unit A9,,Murfreesboro,Tennessee,37128,USA,6159567618,,,"Monday 8:00 am - 1:30 pm 3:30 pm - 8:00 pm , Tuesday 6:00 am - 1:30 pm 3:30 pm - 8:00 pm , Wednesday 8:00 am - 1:30 pm 3:30 pm - 8:00 pm , Thursday 6:00 am - 1:30 pm 3:30 pm - 8:00 pm , Friday 8:00 am - 1:30 pm 3:30 pm - 8:00 pm , Saturday 9:00 am - 1:00 pm ",,,0
,,4200 J Aero Dr,,Mason,Ohio,45040,USA,513-800-9755,,,"Monday 7:00 am - 1:00 pm 3:00 pm - 8:00 pm , Tuesday 8:00 am - 1:00 pm 3:00 pm - 8:00 pm , Wednesday 7:00 am - 1:00 pm 3:00 pm - 8:00 pm , Thursday 8:00 am - 1:00 pm 3:00 pm - 8:00 pm , Friday 8:00 am - 1:00 pm 3:00 pm - 6:00 pm , Saturday 8:00 am - 1:00 pm ",,,0
,,9733 Kenwood Road,,Blue Ash,Ohio,45242,USA,513-891-3700,,,"Monday 8:30 am - 1:30 pm 3:30 pm - 8:00 pm , Tuesday 6:30 am - 1:30 pm 3:30 pm - 8:00 pm , Wednesday 8:30 am - 1:30 pm 3:30 pm - 8:00 pm , Thursday 6:30 am - 1:30 pm 3:30 pm - 8:00 pm , Friday 8:30 am - 1:30 pm 3:30 pm - 6:00 pm , Saturday 8:00 am - 12:00 pm ",,,0
,,2100 Center Road,,Avon,Ohio,44011,USA,440-937-0360,,,"Monday 8:00 am - 1:30 pm 3:30 pm - 8:00 pm , Tuesday 7:00 am - 1:30 pm 3:30 pm - 8:00 pm , Wednesday 8:00 am - 1:30 pm 3:30 pm - 8:00 pm , Thursday 7:00 am - 1:30 pm 3:30 pm - 8:00 pm , Friday 8:00 am - 1:30 pm 3:30 pm - 6:30 pm , Saturday 7:00 am - 12:00 pm ",,,0
,,2109 Abbott Martin Rd Suite 4,,Nashville,Tennessee,37215,USA,615-610-2655,,,"Monday 8:00 am - 1:30 pm 3:30 pm - 8:00 pm , Tuesday 6:00 am - 1:30 pm 3:30 pm - 8:00 pm , Wednesday 8:00 am - 1:30 pm 3:30 pm - 8:00 pm , Thursday 6:00 am - 1:30 pm 3:30 pm - 8:00 pm , Friday 8:00 am - 1:30 pm 3:30 pm - 7:00 pm , Saturday 8:00 am - 12:00 pm ",,,0
,,"3061 Highway 45 Bypass, Suite A",,Jackson,Tennessee,38305,USA,731-424-5200,,,"Monday 5:30 am - 1:30 pm 3:00 pm - 8:00 pm , Tuesday 8:00 am - 1:30 pm 3:00 pm - 8:00 pm , Wednesday 5:30 am - 1:30 pm 3:00 pm - 8:00 pm , Thursday 8:00 am - 1:30 pm 3:00 pm - 8:00 pm , Friday 5:30 am - 1:30 pm 3:00 pm - 6:00 pm , Saturday 8:00 am - 12:00 pm ",,,0
,,330 Mayfield Dr.  Suite A-14,,Franklin,Tennessee,37067,USA,615-815-6961,,,"Monday 8:00 am - 1:30 pm 3:30 pm - 8:00 pm , Tuesday 6:00 am - 1:30 pm 3:30 pm - 8:00 pm , Wednesday 8:00 am - 1:30 pm 3:30 pm - 8:00 pm , Thursday 6:00 am - 1:30 pm 3:30 pm - 8:00 pm , Friday 8:00 am - 1:30 pm 3:30 pm - 7:00 pm , Saturday 8:00 am - 12:00 pm ",,,0
,,10612 Hardin Valley Rd Suite 104,,Knoxville,Tennessee,37932,USA,865-690-0534,,,"Monday 8:00 am - 1:30 pm 3:30 pm - 8:00 pm , Tuesday 8:00 am - 1:30 pm 3:30 pm - 8:00 pm , Wednesday 8:00 am - 1:30 pm 3:30 pm - 8:00 pm , Thursday 8:00 am - 1:30 pm 3:30 pm - 8:00 pm , Friday 8:00 am - 1:30 pm 3:30 pm - 7:00 pm , Saturday 8:00 am - 1:00 pm ",,,0
,,1050 Glenbrook Way Suite #310,,Hendersonville,Tennessee,37075,USA,615-800-9088,,,"Monday 6:00 am - 1:30 pm 3:30 pm - 8:00 pm , Tuesday 8:00 am - 1:30 pm 3:30 pm - 8:00 pm , Wednesday 6:00 am - 1:30 pm 3:30 pm - 8:00 pm , Thursday 8:00 am - 1:30 pm 3:30 pm - 8:00 pm , Friday 6:00 am - 1:30 pm 3:30 pm - 7:00 pm , Saturday 8:00 am - 12:00 pm ",,,0
,,7550 East Brainerd Rd.,,Chattanooga,Tennessee,37421,USA,423-475-6805,,,"Monday 8:00 am - 2:00 pm 3:30 pm - 8:00 pm , Tuesday 8:00 am - 2:00 pm 3:30 pm - 8:00 pm , Wednesday 8:00 am - 2:00 pm 3:30 pm - 8:00 pm , Thursday 8:00 am - 2:00 pm 3:30 pm - 8:00 pm , Friday 8:00 am - 2:00 pm 3:30 pm - 8:00 pm , Saturday 9:00 am - 1:00 pm ",,,0
,,5450 Hwy 153,,Hixson,Tennessee,37343,USA,423-803-0300,,,"Monday 8:00 am - 2:00 pm 3:30 pm - 8:00 pm , Tuesday 8:00 am - 2:00 pm 3:30 pm - 8:00 pm , Wednesday 8:00 am - 2:00 pm 3:30 pm - 8:00 pm , Thursday 8:00 am - 2:00 pm 3:30 pm - 8:00 pm , Friday 8:00 am - 2:00 pm 3:30 pm - 8:00 pm , Saturday 9:00 am - 1:00 pm ",,,0
,,139 West End Ave,,Farragut,Tennessee,37934,USA,865-392-6463,,,"Monday 6:00 am - 1:00 pm 3:00 pm - 8:00 pm , Tuesday 8:00 am - 1:00 pm 3:00 pm - 8:00 pm , Wednesday 6:00 am - 1:00 pm 3:00 pm - 8:00 pm , Thursday 8:00 am - 1:00 pm 3:00 pm - 8:00 pm , Friday 6:00 am - 1:00 pm 3:00 pm - 6:00 pm , Saturday 8:00 am - 12:00 pm ",,,0
,,566 Sgt Paul Huff Parkway,,Cleveland,Tennessee,37312,USA,423-473-3355,,,"Monday 7:30 am - 1:00 pm 3:00 pm - 8:00 pm , Tuesday 7:30 am - 1:00 pm 3:00 pm - 8:00 pm , Wednesday 7:30 am - 1:00 pm 3:00 pm - 8:00 pm , Thursday 7:30 am - 1:00 pm 3:00 pm - 8:00 pm , Friday 7:30 am - 1:00 pm 3:00 pm - 5:00 pm , Sunday 1:00 pm - 5:00 pm ",,,0
,,750 N. Germantown Parkway Suite 104,,Cordova,Tennessee,38018,USA,901-756-8896,,,"Monday 6:00 am - 1:30 pm 3:00 pm - 8:00 pm , Tuesday 6:00 am - 1:30 pm 3:00 pm - 8:00 pm , Wednesday 6:00 am - 1:30 pm 3:00 pm - 8:00 pm , Thursday 6:00 am - 1:30 pm 3:00 pm - 8:00 pm , Friday 8:00 am - 1:30 pm 3:00 pm - 6:00 pm , Saturday 8:00 am - 12:00 pm ",,,0
,,16621 Champion Way #200,,Sandy,Oregon,97055,USA,503.826.9464,,,"Monday 7:00 am - 12:00 pm 3:00 pm - 7:00 pm , Tuesday 6:00 am - 12:00 pm 3:00 pm - 7:30 pm , Wednesday 7:00 am - 12:00 pm 3:00 pm - 7:00 pm , Thursday 6:00 am - 12:00 pm 3:00 pm - 7:30 pm , Friday 7:00 am - 12:00 pm 3:00 pm - 6:00 pm , Saturday 8:00 am - 12:00 pm ",,,0
,,1839 Pioneer Pkwy East,,Springfield,Oregon,97477,USA,541-736-9999,,,"Monday 6:00 am - 1:30 pm 4:00 pm - 8:00 pm , Tuesday 9:30 am - 1:30 pm 4:00 pm - 8:00 pm , Wednesday 6:00 am - 1:30 pm 4:00 pm - 8:00 pm , Thursday 9:30 am - 1:30 pm 4:00 pm - 8:00 pm , Friday 6:00 am - 1:30 pm 4:00 pm - 8:00 pm , Saturday 8:00 am - 12:00 pm ",,,0
,,5247 Commercial Street SE,,Salem,Oregon,97306,USA,971-599-1011,,,,,,0
,,19502 Molalla Avenue Suite 115,,Oregon City,Oregon,97045,USA,503.387.5248,,,"Monday 5:30 am - 1:00 pm 3:00 pm - 7:00 pm , Tuesday 8:00 am - 1:00 pm 3:00 pm - 7:30 pm , Wednesday 5:30 am - 1:00 pm 3:00 pm - 7:00 pm , Thursday 8:00 am - 1:00 pm 3:00 pm - 7:30 pm , Friday 5:30 am - 1:00 pm 3:00 pm - 7:00 pm , Saturday 8:00 am - 12:00 pm ",,,0
,,1404 NE 3rd St. Ste. 1,,Bend,Oregon,97701,USA,541-797-7959,,,"Monday 6:00 am - 1:00 pm 3:00 pm - 8:00 pm , Tuesday 8:00 am - 1:00 pm 3:00 pm - 8:00 pm , Wednesday 6:00 am - 1:00 pm 3:00 pm - 8:00 pm , Thursday 8:00 am - 1:00 pm 3:00 pm - 8:00 pm , Friday 6:00 am - 1:00 pm 3:00 pm - 7:00 pm , Saturday 8:00 am - 12:00 pm ",,,0
,,8618 Highway 58 Suite 101 ( FOOD CITY strip mall beside GAS N' GO @ Greenwood Rd.),,Harrison,Tennessee,37341,USA,423-702-9999,,,,,,0
,,"4105 SW 117th Ave, Suite D",,Beaverton,Oregon,97005,USA,(503) 372-5166,,,"Monday 5:30 am - 1:00 pm 3:30 pm - 8:00 pm , Tuesday 8:00 am - 1:00 pm 3:30 pm - 8:00 pm , Wednesday 5:30 am - 1:00 pm 3:30 pm - 8:00 pm , Thursday 8:00 am - 1:00 pm 3:30 pm - 8:00 pm , Friday 5:30 am - 1:00 pm 3:30 pm - 7:00 pm , Saturday 8:00 am - 12:00 pm ",,,0
,,3339 Washington Road,,McMurray,Pennsylvania,15317,USA,(724) 260-5693,,,"Monday 7:00 am - 1:30 pm 3:30 pm - 8:00 pm , Tuesday 7:00 am - 1:30 pm 3:30 pm - 8:00 pm , Wednesday 7:00 am - 1:30 pm 3:30 pm - 8:00 pm , Thursday 7:00 am - 1:30 pm 3:30 pm - 8:00 pm , Friday 7:00 am - 1:30 pm 3:30 pm - 7:00 pm , Saturday 8:00 am - 12:00 pm ",,,0
,,541 Signal Mountain Rd ( Wal-Mart Plaza NEXT to Verizon Wireless across from KOMATSU ),,Chattanooga,Tennessee,37405,USA,423-803-9999,,,"Monday 5:30 am - 1:30 pm 3:30 pm - 8:00 pm , Tuesday 8:00 am - 1:30 pm 3:30 pm - 8:00 pm , Wednesday 5:30 am - 1:30 pm 3:30 pm - 8:00 pm , Thursday 8:00 am - 1:30 pm 3:30 pm - 8:00 pm , Friday 5:30 am - 1:00 pm 3:00 pm - 6:00 pm , Saturday 8:00 am - 12:00 pm ",,,0
,,"20411 Rt 19, Unit 8, LaSalle Plaza",,Cranberry Twp,Pennsylvania,16066,USA,724-591-5400,,,"Monday 7:00 am - 9:00 pm , Tuesday 7:00 am - 9:00 pm , Wednesday 7:00 am - 9:00 pm , Thursday 7:00 am - 9:00 pm , Friday 7:00 am - 7:00 pm , Saturday 8:00 am - 1:00 pm ",,,0
,,"3650 Nazareth Pike, Rt 191",,Bethlehem,Pennsylvania,18020,USA,610-694-8107,,,"Monday 6:00 am - 1:00 pm 3:30 pm - 8:00 pm , Tuesday 6:00 am - 11:00 am 2:00 pm - 4:00 pm , Wednesday 8:00 am - 1:00 pm 3:30 pm - 8:00 pm , Thursday 8:00 am - 1:00 pm 3:30 pm - 8:00 pm , Friday 6:00 am - 11:00 am 2:00 pm - 4:00 pm , Saturday 8:00 am - 1:00 pm ",,,0
,,9343 E. Shea Blvd. #145,,Scottsdale,Arizona,85260,USA,480-407-6140,,,"Monday 6:00 am - 1:00 pm 3:30 pm - 8:00 pm , Tuesday 8:00 am - 1:00 pm 3:30 pm - 8:00 pm , Wednesday 6:00 am - 1:00 pm 3:30 pm - 8:00 pm , Thursday 8:00 am - 1:00 pm 3:30 pm - 8:00 pm , Friday 6:00 am - 1:00 pm 3:30 pm - 6:00 pm , Saturday 8:00 am - 12:00 pm ",,,0
,,906 NW 14th Avenue,,Portland,Oregon,97209,USA,503.477.8525,,,"Monday 9:00 am - 7:00 pm , Tuesday 7:00 am - 7:00 pm , Wednesday 9:00 am - 4:00 pm , Thursday 7:00 am - 7:00 pm , Friday 9:00 am - 7:00 pm , Saturday 9:00 am - 12:30 pm ",,,0
,,21 South State Street,,Lake Oswego,Oregon,97034,USA,503.387.5798,,,"Monday 8:00 am - 8:00 pm , Tuesday 6:00 am - 8:00 pm , Wednesday 8:00 am - 8:00 pm , Thursday 6:00 am - 8:00 pm , Friday 8:00 am - 8:00 pm , Saturday 8:00 am - 1:00 pm ",,,0
,,2700 S Zero St Suite 6,,Ft. Smith,Arkansas,72908,USA,(479) 522-0236,,,"Monday 6:30 am - 2:00 pm 4:00 pm - 8:00 pm , Tuesday 6:30 am - 2:00 pm 4:00 pm - 8:00 pm , Wednesday 6:30 am - 2:00 pm 4:00 pm - 8:00 pm , Thursday 6:30 am - 2:00 pm 4:00 pm - 8:00 pm , Friday 6:30 am - 2:00 pm 4:00 pm - 6:00 pm , Saturday 8:00 am - 12:00 pm ",,,0
,,"2487 S. Gilbert Road, Suite 115",,Gilbert,Arizona,85295,USA,480-899-4066,,,"Monday 5:30 am - 1:00 pm 3:30 pm - 8:00 pm , Tuesday 8:00 am - 1:00 pm 3:30 pm - 8:00 pm , Wednesday 5:30 am - 1:00 pm 3:30 pm - 8:00 pm , Thursday 8:00 am - 1:00 pm 3:30 pm - 8:00 pm , Friday 5:30 am - 6:00 pm , Saturday 8:00 am - 12:00 pm ",,,0
,,2200 SE J Street Suite 6,,Bentonville,Arkansas,72712,USA,(479) 845-5900,,,"Monday 6:00 am - 1:30 pm 3:30 pm - 8:00 pm , Tuesday 6:00 am - 1:30 pm 3:30 pm - 8:00 pm , Wednesday 6:00 am - 1:30 pm 3:30 pm - 8:00 pm , Thursday 6:00 am - 1:30 pm 3:30 pm - 8:00 pm , Friday 6:00 am - 1:30 pm 3:30 pm - 6:30 pm , Saturday 8:00 am - 12:00 pm ",,,0
,,28112 Newhall Ranch Rd,,Valencia,California,91355,USA,661-670-8166,,,,,,0
,,5001 W. Pauline Whitaker Suite 125,,Rogers,Arkansas,72758,USA,(479) 877-1200,,,"Monday 5:30 am - 1:30 pm 3:30 pm - 8:00 pm , Tuesday 5:30 am - 1:30 pm 3:30 pm - 8:00 pm , Wednesday 5:30 am - 1:30 pm 3:30 pm - 8:00 pm , Thursday 5:30 am - 1:30 pm 3:30 pm - 8:00 pm , Friday 5:30 am - 1:30 pm 3:30 pm - 6:30 pm , Saturday 8:00 am - 12:00 pm ",,,0
,,1267 Steamboat Dr. Suite 1,,Fayetteville,Arkansas,72704,USA,(479) 316-8280,,,"Monday 5:30 am - 1:30 pm 3:30 pm - 8:00 pm , Tuesday 5:30 am - 1:30 pm 3:30 pm - 8:00 pm , Wednesday 5:30 am - 1:30 pm 3:30 pm - 8:00 pm , Thursday 5:30 am - 1:30 pm 3:30 pm - 8:00 pm , Friday 5:30 am - 1:30 pm 3:30 pm - 6:30 pm , Saturday 8:00 am - 12:00 pm ",,,0
,,"4040 W. Ray Rd., Suite D4",,Chandler,Arizona,85226,USA,480-756-6608,,,"Monday 6:00 am - 1:00 pm 3:30 pm - 8:00 pm , Tuesday 8:00 am - 1:00 pm 3:30 pm - 8:00 pm , Wednesday 6:00 am - 1:00 pm 3:30 pm - 8:00 pm , Thursday 8:00 am - 1:00 pm 3:30 pm - 8:00 pm , Friday 6:00 am - 1:00 pm 3:30 pm - 7:00 pm , Saturday 8:00 am - 12:00 pm ",,,0
,,2260 Oak Grove Road,,Walnut Creek,California,94598,USA,(925) 988-0710,,,"Monday 8:00 am - 2:00 pm 4:00 pm - 8:00 pm , Tuesday 6:00 am - 2:00 pm 4:00 pm - 8:00 pm , Wednesday 8:00 am - 2:00 pm 4:00 pm - 8:00 pm , Thursday 6:00 am - 2:00 pm 4:00 pm - 8:00 pm , Friday 8:00 am - 2:00 pm 4:00 pm - 6:30 pm , Saturday 8:00 am - 12:00 pm ",,,0
,,1508 Sunnyvale Ave,,Walnut Creek,California,94597,USA,925-900-1036,,,"Monday 8:00 am - 2:00 pm 4:00 pm - 8:00 pm , Tuesday 6:00 am - 2:00 pm 4:00 pm - 8:00 pm , Wednesday 8:00 am - 2:00 pm 4:00 pm - 8:00 pm , Thursday 6:00 am - 2:00 pm 4:00 pm - 8:00 pm , Friday 8:00 am - 2:00 pm 4:00 pm - 6:30 pm , Saturday 8:00 am - 12:00 pm ",,,0
,,2764 Cochran Street,,Simi Valley,California,93065,USA,(805) 428-9411,,,"Monday 6:00 am - 12:00 pm 3:30 pm - 8:00 pm , Tuesday 6:00 am - 12:00 pm 3:30 pm - 8:00 pm , Wednesday 6:00 am - 12:00 pm 3:30 pm - 8:00 pm , Thursday 6:00 am - 12:00 pm 3:30 pm - 8:00 pm , Friday 7:00 am - 12:00 pm 3:30 pm - 7:00 pm , Saturday 8:00 am - 12:00 pm ",,,0
,,"32483 Temecula Parkway, Suite 116",,Temecula,California,92592,USA,951-302-7603,,,"Monday 8:00 am - 1:30 pm 3:30 pm - 8:00 pm , Tuesday 8:00 am - 1:30 pm 3:30 pm - 8:00 pm , Wednesday 8:00 am - 1:30 pm 3:30 pm - 8:00 pm , Thursday 8:00 am - 1:30 pm 3:30 pm - 8:00 pm , Friday 8:00 am - 1:30 pm 3:30 pm - 7:00 pm , Saturday 8:00 am - 1:00 pm ",,,0
,,2415 San Ramon Valley Blvd Suite 12,,San Ramon,California,94583,USA,(925) 837-2976,,,"Monday 8:00 am - 2:00 pm 4:00 pm - 8:00 pm , Tuesday 6:00 am - 2:00 pm 4:00 pm - 8:00 pm , Wednesday 8:00 am - 2:00 pm 4:00 pm - 8:00 pm , Thursday 6:00 am - 2:00 pm 4:00 pm - 8:00 pm , Friday 8:00 am - 2:00 pm 4:00 pm - 6:30 pm , Saturday 8:00 am - 12:00 pm ",,,0
,,700 S. Rancho Santa Fe Rd Suite C,,San Marcos,California,92078,USA,760-891-0272,,,"Monday 8:00 am - 1:30 pm 3:30 pm - 8:00 pm , Tuesday 8:00 am - 1:30 pm 3:30 pm - 8:00 pm , Wednesday 8:00 am - 1:30 pm 3:30 pm - 8:00 pm , Thursday 8:00 am - 1:30 pm 3:30 pm - 8:00 pm , Friday 8:00 am - 1:30 pm 3:30 pm - 7:00 pm , Saturday 8:30 am - 12:00 pm ",,,0
,,"2370 Crenshaw Blvd, Suite E",,Torrance,California,90501,USA,424.731.8180,,,"Monday 6:00 am - 1:30 pm 3:30 pm - 8:00 pm , Tuesday 6:00 am - 1:30 pm 3:30 pm - 8:00 pm , Wednesday 6:00 am - 1:30 pm 3:30 pm - 8:00 pm , Thursday 6:00 am - 1:30 pm 3:30 pm - 8:00 pm , Friday 6:00 am - 1:30 pm 3:30 pm - 7:00 pm , Saturday 9:00 am - 1:00 pm ",,,0
,,"31742 Rancho Viejo Road, Suite D",,San Juan Capistrano,California,92675,USA,(949) 429-6059,,,"Monday 6:00 am - 1:00 pm 3:30 pm - 8:00 pm , Tuesday 7:00 am - 1:00 pm 3:30 pm - 8:00 pm , Wednesday 6:00 am - 1:00 pm 3:30 pm - 8:00 pm , Thursday 7:00 am - 1:00 pm 3:30 pm - 8:00 pm , Friday 7:00 am - 1:00 pm 3:30 pm - 7:00 pm , Saturday 8:00 am - 12:00 pm ",,,0
,,"7875 Highlands Village Place, Suite B104",,San Diego,California,92129,USA,858-240-7268,,,"Monday 6:00 am - 1:00 pm 3:30 pm - 8:00 pm , Tuesday 6:00 am - 1:00 pm 3:30 pm - 8:00 pm , Wednesday 7:00 am - 1:00 pm 3:30 pm - 8:00 pm , Thursday 6:00 am - 1:00 pm 3:30 pm - 8:00 pm , Friday 7:00 am - 1:00 pm 3:30 pm - 7:00 pm , Saturday 8:00 am - 12:00 pm ",,,0
,,12125 Alta Carmel Court,,San Diego,California,92128,USA,858-485-9292,,,"Monday 8:00 am - 1:30 pm 3:30 pm - 8:00 pm , Tuesday 7:00 am - 1:30 pm 3:30 pm - 8:00 pm , Wednesday 7:00 am - 1:30 pm 3:30 pm - 8:00 pm , Thursday 7:00 am - 1:30 pm 3:30 pm - 8:00 pm , Friday 8:00 am - 1:30 pm 3:30 pm - 7:00 pm , Saturday 8:00 am - 12:00 pm ",,,0
,,6110 Friars Road,,San Diego,California,92108,USA,619-684-5632,,,"Monday 8:00 am - 1:00 pm 3:00 pm - 8:00 pm , Tuesday 6:00 am - 1:00 pm 3:00 pm - 8:00 pm , Wednesday 8:00 am - 1:00 pm 3:00 pm - 8:00 pm , Thursday 6:00 am - 1:00 pm 3:00 pm - 8:00 pm , Friday 8:00 am - 1:00 pm 3:00 pm - 7:00 pm , Saturday 8:00 am - 12:00 pm ",,,0
,,1914 P Street - Midtown,,Sacramento,California,95811,USA,(916) 758-8225,,,"Monday 8:00 am - 1:00 pm 4:00 pm - 8:00 pm , Tuesday 6:00 am - 1:00 pm 4:00 pm - 8:00 pm , Wednesday 8:00 am - 1:00 pm 4:00 pm - 8:00 pm , Thursday 6:00 am - 1:00 pm 4:00 pm - 8:00 pm , Friday 8:00 am - 1:00 pm 4:00 pm - 7:00 pm , Saturday 8:00 am - 12:00 pm ",,,0
,,4411 Mercury St,,San Diego,California,92111,USA,(858) 430-6414,,,"Monday 6:00 am - 1:00 pm 3:00 pm - 8:00 pm , Tuesday 8:00 am - 1:00 pm 3:00 pm - 8:00 pm , Wednesday 6:00 am - 1:00 pm 3:00 pm - 8:00 pm , Thursday 8:00 am - 1:00 pm 3:00 pm - 8:00 pm , Friday 8:00 am - 1:00 pm 3:00 pm - 7:00 pm , Saturday 8:00 am - 12:00 pm ",,,0
,,"3555 Rosecrans St,  Suite 110B",,San Diego,California,92110,USA,619-844-0044,,,"Monday 7:00 am - 12:30 pm 3:00 pm - 8:30 pm , Tuesday 7:00 am - 12:30 pm 3:00 pm - 8:30 pm , Wednesday 7:00 am - 12:30 pm 3:00 pm - 8:30 pm , Thursday 7:00 am - 12:30 pm 3:00 pm - 8:30 pm , Friday 8:00 am - 12:30 pm 3:00 pm - 8:30 pm , Saturday 8:00 am - 12:00 pm ",,,0
,,4730 Natomas Blvd. Unit #130,,Sacramento,California,95835,USA,916-900-4698,,,"Monday 8:00 am - 1:00 pm 3:30 pm - 8:30 pm , Tuesday 5:30 am - 1:00 pm 3:30 pm - 8:30 pm , Wednesday 5:30 am - 1:00 pm 3:30 pm - 8:30 pm , Thursday 5:30 am - 1:00 pm 3:30 pm - 8:30 pm , Friday 8:00 am - 1:00 pm 3:30 pm - 7:00 pm , Saturday 8:00 am - 1:00 pm ",,,0
,,5050 Rocklin Road Suite A3,,Rocklin,California,95677,USA,916-824-2973,,,"Monday 8:00 am - 1:30 pm 3:30 pm - 8:00 pm , Tuesday 8:00 am - 1:30 pm 3:30 pm - 8:00 pm , Wednesday 8:00 am - 1:30 pm 3:30 pm - 8:00 pm , Thursday 8:00 am - 1:30 pm 3:30 pm - 8:00 pm , Friday 8:00 am - 1:30 pm 3:30 pm - 6:30 pm , Saturday 8:00 am - 1:00 pm ",,,0
,,8160 Haven Ave Ste 102,,Rancho Cucamonga,California,91730,USA,909-466-6719,,,"Monday 8:00 am - 1:00 pm 3:00 pm - 8:00 pm , Tuesday 8:00 am - 1:00 pm 3:00 pm - 8:00 pm , Wednesday 8:00 am - 1:00 pm 3:00 pm - 8:00 pm , Thursday 8:00 am - 1:00 pm 3:00 pm - 8:00 pm , Friday 8:00 am - 1:00 pm 3:00 pm - 7:00 pm , Saturday 8:00 am - 1:00 pm ",,,0
,,2340 Sunset Blvd Suite 180,,Rocklin,California,95765,USA,916-872-1274,,,"Monday 6:00 am - 1:30 pm 3:30 pm - 8:00 pm , Tuesday 6:00 am - 1:30 pm 3:30 pm - 8:00 pm , Wednesday 6:00 am - 1:30 pm 3:30 pm - 8:00 pm , Thursday 6:00 am - 1:30 pm 3:30 pm - 8:00 pm , Friday 6:00 am - 1:30 pm 3:30 pm - 7:00 pm , Saturday 8:00 am - 1:00 pm ",,,0
,,"4275 Rosewood Drive, Suite 23",,Pleasanton,California,94588,USA,925-251-0081,,,"Monday 8:00 am - 1:00 pm 3:00 pm - 8:00 pm , Tuesday 8:00 am - 1:00 pm 3:00 pm - 8:00 pm , Wednesday 8:00 am - 1:00 pm 3:00 pm - 8:00 pm , Thursday 8:00 am - 1:00 pm 3:00 pm - 8:00 pm , Friday 8:00 am - 1:00 pm 3:00 pm - 7:00 pm , Saturday 8:00 am - 12:00 pm ",,,0
,,"29851 Aventura, Suite J",,Rancho Santa Margarita,California,92688,USA,949-478-1852,,,"Monday 6:00 am - 1:00 pm 3:30 pm - 8:00 pm , Tuesday 6:00 am - 1:00 pm 3:30 pm - 8:00 pm , Wednesday 6:00 am - 1:00 pm 3:30 pm - 8:00 pm , Thursday 6:00 am - 1:00 pm 3:30 pm - 8:00 pm , Friday 6:00 am - 1:00 pm 3:30 pm - 7:00 pm , Saturday 8:00 am - 12:00 pm ",,,0
,,"4021 Woodcreek Oaks Blvd., Suite 180",,Roseville,California,95747,USA,916-742-5794,,,"Monday 6:00 am - 1:30 pm 3:30 pm - 8:00 pm , Tuesday 6:00 am - 1:30 pm 3:30 pm - 8:00 pm , Wednesday 6:00 am - 1:30 pm 3:30 pm - 8:00 pm , Thursday 6:00 am - 1:30 pm 3:30 pm - 8:00 pm , Friday 6:00 am - 1:30 pm 3:30 pm - 7:00 pm , Saturday 8:00 am - 1:30 pm ",,,0
,,3135 N. Glassell St,,Orange,California,92865,USA,714-721-9942,,,"Monday 6:00 am - 1:30 pm 3:30 pm - 8:00 pm , Tuesday 6:00 am - 1:30 pm 3:30 pm - 8:00 pm , Wednesday 6:00 am - 1:30 pm 3:30 pm - 8:00 pm , Thursday 6:00 am - 1:30 pm 3:30 pm - 8:00 pm , Friday 6:00 am - 1:30 pm 3:30 pm - 7:00 pm , Saturday 8:00 am - 12:00 pm ",,,0
,,"1295 E. Dunne Avenue, Suite #160",,Morgan Hill,California,95037,USA,408-763-4701,,,"Monday 8:00 am - 1:30 pm 3:30 pm - 8:00 pm , Tuesday 9:00 am - 1:30 pm 3:30 pm - 8:00 pm , Wednesday 8:00 am - 1:30 pm 3:30 pm - 8:00 pm , Thursday 9:00 am - 1:30 pm 3:30 pm - 8:00 pm , Friday 8:00 am - 1:30 pm 3:30 pm - 6:30 pm , Saturday 9:00 am - 1:00 pm ",,,0
,,925 Lakeville St,,Petaluma,California,94952,USA,707 774 6190,,,"Monday 8:00 am - 1:30 pm 3:30 pm - 8:00 pm , Tuesday 8:00 am - 1:30 pm 3:30 pm - 8:00 pm , Wednesday 8:00 am - 1:30 pm 3:30 pm - 8:00 pm , Thursday 8:00 am - 1:30 pm 3:30 pm - 8:00 pm , Friday 8:00 am - 1:30 pm 3:30 pm - 7:00 pm , Saturday 9:00 am - 1:00 pm ",,,0
,,1490 N. Vasco Rd,,Livermore,California,94551,USA,925-583-5525,,,"Monday 8:00 am - 1:00 pm 3:00 pm - 8:00 pm , Tuesday 8:00 am - 1:00 pm 3:00 pm - 8:00 pm , Wednesday 8:00 am - 1:00 pm 3:00 pm - 8:00 pm , Thursday 8:00 am - 1:00 pm 3:00 pm - 8:00 pm , Friday 8:00 am - 1:00 pm 3:00 pm - 7:00 pm , Saturday 8:00 am - 12:00 pm ",,,0
,,547 West Channel Islands Blvd,,Port Hueneme,California,93041,USA,805-946-2999,,,,,,0
,,24550 Village Walk Place,,Murrieta,California,92562,USA,951-677-8087,,,"Monday 8:30 am - 1:30 pm 3:30 pm - 8:00 pm , Tuesday 6:30 am - 1:30 pm 3:30 pm - 8:00 pm , Wednesday 8:30 am - 1:30 pm 3:30 pm - 8:00 pm , Thursday 6:30 am - 1:30 pm 3:30 pm - 8:00 pm , Friday 8:30 am - 1:30 pm 3:30 pm - 6:30 pm , Saturday 8:30 am - 12:30 pm ",,,0
,,132 E.12th Street,,Oakland,California,94606,USA,510-808-5186,,,"Monday 7:00 am - 1:00 pm 3:00 pm - 8:00 pm , Tuesday 6:00 am - 1:00 pm 3:00 pm - 8:00 pm , Wednesday 7:00 am - 1:00 pm 3:00 pm - 8:00 pm , Thursday 6:00 am - 1:00 pm 3:00 pm - 8:00 pm , Friday 7:00 am - 1:00 pm 3:00 pm - 6:00 pm , Saturday 9:00 am - 1:00 pm ",,,0
,,"6831 Hollister Ave, Suite I",,Goleta,California,93117,USA,805-966-3888,,,"Monday 8:00 am - 1:30 pm 3:30 pm - 8:00 pm , Tuesday 7:00 am - 1:30 pm 3:30 pm - 8:00 pm , Wednesday 8:00 am - 1:30 pm 3:30 pm - 8:00 pm , Thursday 7:00 am - 1:30 pm 3:30 pm - 8:00 pm , Friday 8:00 am - 1:30 pm 3:30 pm - 6:00 pm , Saturday 8:00 am - 12:00 pm ",,,0
,,7074 Edinger Ave,,Huntington Beach,California,92647,USA,714-375-0180,,,"Monday 6:00 am - 1:30 pm 3:30 pm - 8:00 pm , Tuesday 6:00 am - 1:30 pm 3:30 pm - 8:00 pm , Wednesday 6:00 am - 1:30 pm 3:30 pm - 8:00 pm , Thursday 6:00 am - 1:30 pm 3:30 pm - 8:00 pm , Friday 6:00 am - 1:30 pm 3:30 pm - 7:00 pm , Saturday 8:00 am - 1:00 pm ",,,0
,,"92 Corporate Park, Suite I",,Irvine,California,92606,USA,949-522-1188,,,,,,0
,,18595 Brookhurst Street (near Albertson's at Brookhurst & Ellis),,Fountain Valley,California,92708,USA,714-782-0601,,,"Monday 5:00 am - 1:30 pm 3:30 pm - 8:00 pm , Tuesday 5:00 am - 1:30 pm 3:30 pm - 8:00 pm , Wednesday 5:00 am - 1:30 pm 3:30 pm - 8:00 pm , Thursday 5:00 am - 1:30 pm 3:30 pm - 8:00 pm , Friday 5:00 am - 1:30 pm 3:30 pm - 7:00 pm , Saturday 7:00 am - 12:00 pm ",,,0
,,"2203 Francisco Drive, Unit 160",,El Dorado Hills,California,95762,USA,916-936-0924,,,"Monday 7:00 am - 1:00 pm 3:30 pm - 8:00 pm , Tuesday 6:00 am - 1:00 pm 3:30 pm - 8:00 pm , Wednesday 7:00 am - 1:00 pm 3:30 pm - 8:00 pm , Thursday 6:00 am - 1:00 pm 3:30 pm - 8:00 pm , Friday 7:00 am - 1:00 pm 3:30 pm - 7:00 pm , Saturday 8:00 am - 1:00 pm ",,,0
,,11882 De Palma Rd. Suite 2-H,,Corona,California,92883,USA,951-258-5556,,,"Monday 6:00 am - 12:30 pm 2:30 pm - 8:00 pm , Tuesday 7:30 am - 12:30 pm 2:30 pm - 8:00 pm , Wednesday 6:00 am - 12:30 pm 2:30 pm - 8:00 pm , Thursday 7:30 am - 12:30 pm 2:30 pm - 8:00 pm , Friday 6:00 am - 12:30 pm 2:30 pm - 6:00 pm , Saturday 7:30 am - 12:00 pm ",,,0
,,6624 Laguna Blvd. #104,,Elk Grove,California,95758,USA,916-400-9913,,,"Monday 7:00 am - 1:30 pm 3:30 pm - 8:00 pm , Tuesday 5:30 am - 1:30 pm 3:30 pm - 8:00 pm , Wednesday 7:00 am - 1:30 pm 3:30 pm - 8:00 pm , Thursday 5:30 am - 1:30 pm 3:30 pm - 8:00 pm , Friday 7:00 am - 1:30 pm 3:30 pm - 7:00 pm , Saturday 8:00 am - 1:00 pm ",,,0
,,1175 Baker Street Suite A-5,,Costa Mesa,California,92626,USA,714-662-1477,,,"Monday 5:00 am - 1:30 pm 3:30 pm - 8:00 pm , Tuesday 5:00 am - 8:00 pm , Wednesday 5:00 am - 1:30 pm 3:30 pm - 8:00 pm , Thursday 5:00 am - 8:00 pm , Friday 5:00 am - 1:30 pm 3:30 pm - 8:00 pm , Saturday 8:00 am - 1:00 pm , Sunday 8:00 am - 1:00 pm ",,,0
,,330 W Foothill Pkwy Suite 104,,Corona,California,92882,USA,(951 ) 808-9896,,,"Monday 6:00 am - 2:00 pm 3:30 pm - 8:30 pm , Tuesday 7:45 am - 2:00 pm 3:30 pm - 8:30 pm , Wednesday 6:00 am - 2:00 pm 3:30 pm - 8:30 pm , Thursday 7:45 am - 2:00 pm 3:30 pm - 8:00 pm , Friday 6:00 am - 2:00 pm 3:30 pm - 7:00 pm , Saturday 7:00 am - 11:30 am ",,,0
,,"30100 Town Center Drive, Suite S",,Laguna Niguel,California,92677,USA,949-218-6611,,,"Monday 7:00 am - 1:00 pm 3:30 pm - 8:00 pm , Tuesday 6:00 am - 1:00 pm 3:30 pm - 8:00 pm , Wednesday 7:00 am - 1:00 pm 3:30 pm - 8:00 pm , Thursday 6:00 am - 1:00 pm 3:30 pm - 8:00 pm , Friday 7:00 am - 1:00 pm 3:30 pm - 7:00 pm , Saturday 8:00 am - 12:00 pm ",,,0
,,"1741 Eastlake Parkway, Suite 105",,Chula Vista,California,91915,USA,619 -737-9136,,,"Monday 7:00 am - 1:30 pm 3:30 pm - 8:30 pm , Tuesday 5:30 am - 1:30 pm 3:30 pm - 8:30 pm , Wednesday 7:00 am - 1:30 pm 3:30 pm - 8:30 pm , Thursday 5:30 am - 1:30 pm 3:30 pm - 8:30 pm , Friday 7:00 am - 1:30 pm 3:30 pm - 7:00 pm , Saturday 8:00 am - 12:30 pm ",,,0
,,"14230 Chino Hills Pkwy, Ste E",,Chino Hills,California,91709,USA,909-342-7055,,,"Monday 8:00 am - 1:30 pm 3:30 pm - 8:00 pm , Tuesday 8:00 am - 1:30 pm 3:30 pm - 8:00 pm , Wednesday 8:00 am - 1:30 pm 3:30 pm - 8:00 pm , Thursday 8:00 am - 1:30 pm 3:30 pm - 8:00 pm , Friday 8:00 am - 1:30 pm 3:30 pm - 7:00 pm , Saturday 8:00 am - 12:00 pm ",,,0
,,1550-K East H Street,,Chula Vista,California,91913,USA,619-6233606,,,"Monday 6:00 am - 8:30 pm , Tuesday 7:00 am - 8:30 pm , Wednesday 6:00 am - 8:30 pm , Thursday 7:00 am - 8:30 pm , Friday 7:00 am - 7:00 pm , Saturday 8:00 am - 12:30 pm ",,,0
,,11140 Washington Blvd,,Culver City,California,90232,USA,310-751-0673,,,"Monday 7:00 am - 1:30 pm 3:30 pm - 8:00 pm , Tuesday 7:00 am - 1:30 pm 3:30 pm - 8:00 pm , Wednesday 7:00 am - 1:30 pm 3:30 pm - 8:00 pm , Thursday 7:00 am - 1:30 pm 3:30 pm - 8:00 pm , Friday 8:00 am - 1:30 pm 3:30 pm - 7:00 pm , Saturday 8:00 am - 1:00 pm ",,,0
,,6994 El Camino Real.  Suite 110,,Carlsbad,California,92009,USA,760-936-3198,,,"Monday 6:00 am - 12:30 pm 3:30 pm - 6:30 pm , Tuesday 8:00 am - 12:30 pm 3:30 pm - 6:30 pm , Wednesday 6:00 am - 12:30 pm 3:30 pm - 6:30 pm , Thursday 8:00 am - 12:30 pm 3:30 pm - 6:30 pm , Friday 6:00 am - 12:30 pm 3:30 pm - 5:30 pm , Saturday 8:00 am - 11:30 am ",,,0
,,2360 D Las Posas Road,,Camarillo,California,93010,USA,805-244-5510,,,"Monday 6:00 am - 1:30 pm 3:30 pm - 8:00 pm , Tuesday 6:00 am - 1:30 pm 3:30 pm - 8:00 pm , Wednesday 6:00 am - 1:30 pm 3:30 pm - 8:00 pm , Thursday 6:00 am - 1:30 pm 3:30 pm - 8:00 pm , Friday 8:00 am - 1:30 pm 3:30 pm - 6:00 pm , Saturday 8:00 am - 12:00 pm ",,,0
,,"26895 Aliso Creek Rd, Suite C",,Aliso Viejo,California,92656,USA,(949) 415-6181,,,,,,0
,,1157 Riley Street,,Folsom,California,95630,USA,(916) 235-4006,,,"Monday 6:00 am - 1:30 pm 3:30 pm - 8:00 pm , Tuesday 6:00 am - 1:30 pm 3:30 pm - 8:00 pm , Wednesday 6:00 am - 1:30 pm 3:30 pm - 8:00 pm , Thursday 6:00 am - 1:30 pm 3:30 pm - 8:00 pm , Friday 6:00 am - 1:30 pm 3:30 pm - 7:00 pm , Saturday 8:00 am - 1:00 pm ",,,0
,,2714 NE 114th Ave. Ste. 2,,Vancouver,Washington,98684,USA,360-448-7473,,,"Monday 8:00 am - 1:00 pm 3:00 pm - 8:00 pm , Tuesday 8:00 am - 1:00 pm 3:00 pm - 8:00 pm , Wednesday 8:00 am - 1:00 pm 3:00 pm - 8:00 pm , Thursday 8:00 am - 1:00 pm 3:00 pm - 8:00 pm , Friday 8:00 am - 1:00 pm 3:00 pm - 7:00 pm , Saturday 8:00 am - 12:00 pm ",,,0
,,"748 South Meadows Parkway, #A-7",,Reno,Nevada,89521,USA,775-737-9877,,,"Monday 6:00 am - 1:30 pm 3:30 pm - 8:00 pm , Tuesday 6:00 am - 1:30 pm 3:30 pm - 8:00 pm , Wednesday 6:00 am - 1:30 pm 3:30 pm - 8:00 pm , Thursday 6:00 am - 1:30 pm 3:30 pm - 8:00 pm , Friday 6:00 am - 1:30 pm 3:30 pm - 7:00 pm , Saturday 8:00 am - 12:00 pm ",,,0
,,13220 E Sprague Ave,,Spokane Valley,Washington,99216,USA,509-241-3736,,,"Monday 6:00 am - 1:00 pm 3:00 pm - 8:00 pm , Tuesday 6:00 am - 1:00 pm 3:00 pm - 8:00 pm , Wednesday 6:00 am - 1:00 pm 3:00 pm - 8:00 pm , Thursday 6:00 am - 1:00 pm 3:00 pm - 8:00 pm , Friday 6:00 am - 1:00 pm 3:00 pm - 8:00 pm , Saturday 7:00 am - 12:00 pm ",,,0
,,15514 Spaulding Plaza Suite D109,,Omaha,Nebraska,68116,USA,402-506-4567,,,"Monday 5:00 am - 1:00 pm 3:00 pm - 8:00 pm , Tuesday 5:00 am - 1:00 pm 3:00 pm - 8:00 pm , Wednesday 5:00 am - 1:00 pm 3:00 pm - 8:00 pm , Thursday 5:00 am - 1:00 pm 3:00 pm - 8:00 pm , Friday 5:00 am - 1:00 pm 3:00 pm - 6:00 pm , Saturday 8:00 am - 12:00 pm ",,,0
,,5005 Victory Blvd,,Yorktown,Virginia,23693,USA,757-369-8343,,,"Monday 6:00 am - 1:30 pm 4:00 pm - 8:00 pm , Tuesday 8:00 am - 1:30 pm 4:00 pm - 8:00 pm , Wednesday 6:00 am - 1:30 pm 4:00 pm - 8:00 pm , Thursday 8:00 am - 1:30 pm 4:00 pm - 8:00 pm , Friday 8:00 am - 1:30 pm 4:00 pm - 7:00 pm , Saturday 8:00 am - 12:00 pm ",,,0
,,"2875 Crain Highway,  Suite 5A",,Waldorf,Maryland,20601,USA,(301) 710-5376,,,"Monday 8:00 am - 1:00 pm 3:00 pm - 8:00 pm , Tuesday 6:30 am - 1:00 pm 3:00 pm - 8:00 pm , Wednesday 8:00 am - 1:00 pm 3:00 pm - 8:00 pm , Thursday 8:00 am - 1:00 pm 3:00 pm - 9:00 pm , Friday 8:00 am - 1:00 pm 3:00 pm - 7:00 pm , Saturday 8:00 am - 12:30 pm ",,,0
,,18204 Wright Street Omaha NE 68130,,Omaha,Nebraska,68130,USA,402-431-3184,,,"Monday 5:00 am - 1:30 pm 2:30 pm - 8:00 pm , Tuesday 5:00 am - 1:30 pm 2:30 pm - 8:00 pm , Wednesday 5:00 am - 1:30 pm 2:30 pm - 8:00 pm , Thursday 5:00 am - 1:30 pm 2:30 pm - 8:00 pm , Friday 5:00 am - 1:30 pm 2:30 pm - 6:00 pm , Saturday 7:00 am - 12:00 pm ",,,0
,,65 James St,,Worcester,Massachusetts,01603,USA,774-823-3341,,,"Monday 8:00 am - 12:00 pm 4:00 pm - 8:00 pm , Tuesday 8:00 am - 12:00 pm 4:00 pm - 8:00 pm , Wednesday 8:00 am - 12:00 pm 4:00 pm - 8:00 pm , Thursday 8:00 am - 12:00 pm 4:00 pm - 8:00 pm , Friday 8:00 am - 12:00 pm 3:00 pm - 7:00 pm , Saturday 8:00 am - 12:00 pm ",,,0
,,815 South Main St,,Royal Oak,Michigan,48067,USA,(248) 607-0646,,,"Monday 7:00 am - 12:45 pm 3:00 pm - 8:00 pm , Tuesday 6:30 am - 12:45 pm 3:00 pm - 8:00 pm , Wednesday 7:00 am - 12:45 pm 3:00 pm - 8:00 pm , Thursday 6:30 am - 12:45 pm 3:00 pm - 8:00 pm , Friday 7:00 am - 12:45 pm 3:00 pm - 7:00 pm , Saturday 8:00 am - 12:30 pm ",,,0
,,72 Mirona Rd Ste 1,,Portsmouth,New Hampshire,03801,USA,603-294-1404,,,"Monday 8:00 am - 1:00 pm 4:00 pm - 8:00 pm , Tuesday 8:00 am - 1:00 pm 4:00 pm - 8:00 pm , Wednesday 8:00 am - 1:00 pm 4:00 pm - 8:00 pm , Thursday 8:00 am - 1:00 pm 4:00 pm - 8:00 pm , Friday 8:00 am - 1:00 pm 4:00 pm - 7:00 pm , Saturday 8:00 am - 12:00 pm ",,,0
,,17185 New College Avenue,,Wildwood,Missouri,63040,USA,636-422-1074,,,"Monday 5:30 am - 1:00 pm 3:00 pm - 8:00 pm , Tuesday 8:00 am - 1:00 pm 3:00 pm - 8:00 pm , Wednesday 5:30 am - 1:00 pm 3:00 pm - 8:00 pm , Thursday 8:00 am - 1:00 pm 3:00 pm - 8:00 pm , Friday 8:00 am - 1:00 pm 3:00 pm - 6:30 pm , Saturday 8:00 am - 12:00 pm ",,,0
,,46670 W. Pontiac Trail STE# 9,,Commerce Township,Michigan,48390,USA,248-859-2098,,,"Monday 8:00 am - 1:00 pm 3:00 pm - 8:00 pm , Tuesday 8:00 am - 1:00 pm 3:00 pm - 8:00 pm , Wednesday 8:00 am - 1:00 pm 3:00 pm - 8:00 pm , Thursday 8:00 am - 1:00 pm 3:00 pm - 8:00 pm , Friday 8:00 am - 1:00 pm 3:00 pm - 7:00 pm , Saturday 9:00 am - 1:00 pm ",,,0
,,15404 Haggerty Road,,PLYMOUTH,Michigan,48170,USA,734-420-4909,,,"Monday 8:00 am - 1:00 pm 3:00 pm - 8:00 pm , Tuesday 8:00 am - 1:00 pm 3:00 pm - 8:00 pm , Wednesday 8:00 am - 1:00 pm 3:00 pm - 8:00 pm , Thursday 8:00 am - 1:00 pm 3:00 pm - 8:00 pm , Friday 8:00 am - 1:00 pm 3:00 pm - 7:00 pm , Saturday 8:00 am - 1:00 pm , Sunday 11:00 am - 2:00 pm ",,,0
,,19364 E 10 Mile Road,,Eastpointe,Michigan,48021,USA,(586)859-5353,,,"Monday 7:00 am - 1:00 pm 3:00 pm - 8:00 pm , Tuesday 7:00 am - 1:00 pm 3:00 pm - 8:00 pm , Wednesday 7:00 am - 1:00 pm 3:00 pm - 8:00 pm , Thursday 7:00 am - 1:00 pm 3:00 pm - 8:00 pm , Friday 7:00 am - 1:00 pm 3:00 pm - 8:00 pm , Saturday 9:00 am - 1:00 pm ",,,0
,,22441 Michigan Ave.,,Dearborn,Michigan,48124,USA,313-992-2277,,,,,,0
,,41880 Garfield Rd.,,Charter Township of Clinton,Michigan,48038,USA,586-960-KICK (5425),,,"Monday 8:00 am - 1:30 pm 3:30 pm - 8:00 pm , Tuesday 8:00 am - 1:30 pm 3:30 pm - 8:00 pm , Wednesday 8:00 am - 1:30 pm 3:30 pm - 8:00 pm , Thursday 8:00 am - 1:30 pm 3:30 pm - 8:00 pm , Friday 8:00 am - 1:30 pm 3:30 pm - 8:00 pm , Saturday 9:00 am - 1:00 pm ",,,0
,,5700 Jackson Road Suite 3,,Ann Arbor,Michigan,48103,USA,734-769-KICK,,,"Monday 8:00 am - 12:30 pm 3:30 pm - 8:00 pm , Tuesday 8:00 am - 12:30 pm 3:30 pm - 8:00 pm , Wednesday 8:00 am - 12:30 pm 3:30 pm - 8:00 pm , Thursday 8:00 am - 12:30 pm 3:30 pm - 8:00 pm , Friday 8:00 am - 12:30 pm 3:30 pm - 7:00 pm , Saturday 9:00 am - 1:00 pm ",,,0
,,1255 Main Street Unit 3,,Weymouth,Massachusetts,02190,USA,339-201-4970,,,"Monday 5:30 am - 10:30 am 3:30 pm - 8:00 pm , Tuesday 5:30 am - 10:30 am 3:30 pm - 8:00 pm , Wednesday 5:30 am - 10:30 am 3:30 pm - 8:00 pm , Thursday 5:30 am - 10:30 am 3:30 pm - 8:00 pm , Friday 8:00 am - 12:00 pm 3:30 pm - 6:30 pm , Saturday 8:00 am - 11:00 am ",,,0
,,1717 Haggerty Rd,,Commerce Charter Township,Michigan,48390,USA,(248) 671-HIT1,,,"Monday 8:00 am - 1:00 pm 3:00 pm - 8:00 pm , Tuesday 8:00 am - 1:00 pm 3:00 pm - 8:00 pm , Wednesday 8:00 am - 1:00 pm 3:00 pm - 8:00 pm , Thursday 8:00 am - 1:00 pm 3:00 pm - 8:00 pm , Friday 8:00 am - 1:00 pm 3:00 pm - 7:00 pm , Saturday 9:00 am - 1:00 pm ",,,0
,,110 Elm St,,Millbury,Massachusetts,01527,USA,508-865-0800,,,,,,0
,,2406 Franklin Rd,,Bloomfield Hills,Michigan,48302,USA,248.592.7519,,,"Monday 5:30 am - 12:30 pm 3:30 pm - 8:00 pm , Tuesday 8:00 am - 12:30 pm 3:30 pm - 8:00 pm , Wednesday 5:30 am - 12:30 pm 3:30 pm - 8:00 pm , Thursday 8:00 am - 12:30 pm 3:30 pm - 8:00 pm , Friday 5:30 am - 12:30 pm 3:30 pm - 7:00 pm , Saturday 9:00 am - 1:00 pm ",,,0
,,246 1st Street West,,Waconia,Minnesota,55387,USA,952 442 3304,,,"Monday 6:30 am - 1:00 pm 3:30 pm - 8:00 pm , Tuesday 8:00 am - 1:00 pm 3:30 pm - 8:00 pm , Wednesday 6:30 am - 1:00 pm 3:30 pm - 8:00 pm , Thursday 8:00 am - 1:00 pm 3:30 pm - 8:00 pm , Friday 6:30 am - 1:00 pm , Saturday 8:00 am - 12:00 pm ",,,0
,,157 Bedford St,,Burlington,Massachusetts,01803,USA,781-330-7052,,,"Monday 6:00 am - 1:00 pm 4:00 pm - 8:00 pm , Tuesday 8:00 am - 1:00 pm 4:00 pm - 8:00 pm , Wednesday 6:00 am - 1:00 pm 4:00 pm - 8:00 pm , Thursday 8:00 am - 1:00 pm 4:00 pm - 8:00 pm , Friday 6:00 am - 1:00 pm 4:00 pm - 6:30 pm , Saturday 8:00 am - 12:00 pm ",,,0
,,235 Great Road,,Littleton,Massachusetts,01460,USA,978-894-5897,,,"Monday 9:00 am - 12:30 pm 3:00 pm - 8:00 pm , Tuesday 6:00 am - 12:30 pm 3:00 pm - 8:00 pm , Wednesday 9:00 am - 12:30 pm 3:00 pm - 8:00 pm , Thursday 6:00 am - 12:30 pm 3:00 pm - 8:00 pm , Friday 9:00 am - 12:30 pm 3:00 pm - 6:00 pm , Saturday 8:00 am - 12:00 pm ",,,0
,,29220 Orchard Lake Road,,Farmington Hills,Michigan,48334,USA,(248) 973-7937,,,"Monday 7:00 am - 12:30 pm 3:30 pm - 7:00 pm , Tuesday 7:00 am - 12:30 pm 3:30 pm - 8:00 pm , Wednesday 7:00 am - 12:30 pm 3:30 pm - 7:00 pm , Thursday 7:00 am - 12:30 pm 3:30 pm - 8:00 pm , Friday 7:00 am - 12:30 pm 3:30 pm - 6:00 pm , Saturday 8:00 am - 1:30 pm ",,,0
,,5749 Egan Dr.,,Savage,Minnesota,55378,USA,(952) 226-5425,,,"Monday 8:00 am - 1:00 pm 4:00 pm - 8:00 pm , Tuesday 5:30 am - 11:00 am 4:00 pm - 8:00 pm , Wednesday 8:00 am - 1:00 pm 4:00 pm - 8:00 pm , Thursday 5:30 am - 11:00 am 4:00 pm - 8:00 pm , Friday 8:00 am - 1:00 pm 4:00 pm - 6:30 pm , Saturday 8:00 am - 12:00 pm ",,,0
,,3 Village Square,,Westminster,Massachusetts,01473,USA,978-668-5543,,,"Monday 6:30 am - 1:00 pm 4:00 pm - 8:00 pm , Tuesday 8:30 am - 1:00 pm 4:00 pm - 8:00 pm , Wednesday 6:30 am - 1:00 pm 4:00 pm - 8:00 pm , Thursday 8:30 am - 1:00 pm 4:00 pm - 8:00 pm , Friday 8:30 am - 1:00 pm 4:00 pm - 6:30 pm , Saturday 8:00 am - 12:00 pm ",,,0
,,"2571 Clare Ln NE, Suite 101",,Rochester,Minnesota,55906,USA,(507) 206-3515,,,"Monday 5:30 am - 1:30 pm 3:30 pm - 8:00 pm , Tuesday 9:00 am - 1:30 pm 3:30 pm - 8:00 pm , Wednesday 5:30 am - 1:30 pm 3:30 pm - 8:00 pm , Thursday 9:00 am - 1:30 pm 3:30 pm - 8:00 pm , Friday 5:30 am - 1:30 pm 3:30 pm - 7:00 pm , Saturday 9:00 am - 1:00 pm ",,,0
,,"3270 19th Street, NW, Suite 104",,Rochester,Minnesota,55901,USA,(507) 258-5015,,,"Monday 9:00 am - 1:30 pm 3:30 pm - 8:00 pm , Tuesday 5:30 am - 1:30 pm 3:30 pm - 8:00 pm , Wednesday 9:00 am - 1:30 pm 3:30 pm - 8:00 pm , Thursday 5:30 am - 1:30 pm 3:30 pm - 8:00 pm , Friday 9:00 am - 1:30 pm 3:30 pm - 7:00 pm , Saturday 8:00 am - 12:00 pm ",,,0
,,316 Clydesdale Trail,,Medina,Minnesota,55340,USA,(763) 478-6017,,,"Monday 6:00 am - 11:30 am 3:30 pm - 8:00 pm , Tuesday 6:00 am - 11:30 am 3:30 pm - 8:00 pm , Wednesday 6:00 am - 11:30 am 3:30 pm - 8:00 pm , Thursday 6:00 am - 11:30 am 3:30 pm - 8:00 pm , Friday 6:00 am - 11:30 am 3:30 pm - 7:00 pm , Saturday 8:00 am - 1:00 pm ",,,0
,,8026 Olson Memorial Hwy,,Golden Valley,Minnesota,55427,USA,763-545-8786,,,"Monday 5:30 am - 12:00 pm 3:30 pm - 8:00 pm , Tuesday 5:30 am - 12:00 pm 3:30 pm - 8:00 pm , Wednesday 5:30 am - 12:00 pm 3:30 pm - 8:00 pm , Thursday 5:30 am - 12:00 pm 3:30 pm - 8:00 pm , Friday 5:30 am - 12:00 pm 3:30 pm - 7:00 pm , Saturday 8:00 am - 12:00 pm ",,,0
,,2609 Cenex Drive,,Fergus Falls,Minnesota,56537,USA,218-531-2222,,,"Monday 6:00 am - 1:30 pm 3:30 pm - 7:00 pm , Tuesday 6:00 am - 1:30 pm 3:30 pm - 7:00 pm , Wednesday 9:00 am - 1:30 pm 3:30 pm - 7:00 pm , Thursday 6:00 am - 1:30 pm 3:30 pm - 7:00 pm , Friday 9:00 am - 1:30 pm 3:30 pm - 6:00 pm , Saturday 9:00 am - 12:00 pm ",,,0
,,187 Cheshire Ln N (next to Holiday gas station),,Plymouth,Minnesota,55441,USA,(763) 476-5002,,,"Monday 6:30 am - 1:00 pm 4:00 pm - 8:00 pm , Tuesday 7:30 am - 1:00 pm 4:00 pm - 8:00 pm , Wednesday 6:30 am - 1:00 pm 4:00 pm - 8:00 pm , Thursday 7:30 am - 1:00 pm 4:00 pm - 8:00 pm , Friday 6:30 am - 1:00 pm 4:00 pm - 6:30 pm , Saturday 8:00 am - 12:00 pm ",,,0
,,8023 Glen Lane,,Eden Prairie,Minnesota,55344,USA,612-276-6483,,,"Monday 6:30 am - 1:00 pm 4:00 pm - 8:00 pm , Tuesday 7:30 am - 1:00 pm 4:00 pm - 8:00 pm , Wednesday 6:30 am - 1:00 pm 4:00 pm - 8:00 pm , Thursday 7:30 am - 1:00 pm 4:00 pm - 8:00 pm , Friday 6:30 am - 1:00 pm 4:00 pm - 6:30 pm , Saturday 8:00 am - 12:00 pm , Sunday 8:00 am - 12:00 pm ",,,0
,,"15050 Cedar Ave, Unit # 117",,Apple Valley,Minnesota,55124,USA,952-683-9697,,,"Monday 8:00 am - 1:00 pm 3:30 pm - 8:00 pm , Tuesday 7:00 am - 12:00 pm 3:30 pm - 8:00 pm , Wednesday 8:00 am - 1:00 pm 3:30 pm - 8:00 pm , Thursday 7:00 am - 12:00 pm 3:30 pm - 8:00 pm , Friday 8:00 am - 1:00 pm 3:30 pm - 6:00 pm , Saturday 8:00 am - 12:00 pm ",,,0
,,1095 Diffley Rd,,Eagan,Minnesota,55123,USA,Call/Text (651) 321-3489  or (651) 321-FIT9,,,"Monday 6:00 am - 12:00 pm 3:30 pm - 7:30 pm , Tuesday 8:00 am - 12:00 pm 3:30 pm - 7:30 pm , Wednesday 6:00 am - 12:00 pm 3:30 pm - 7:30 pm , Thursday 8:00 am - 12:00 pm 3:30 pm - 7:30 pm , Friday 6:00 am - 12:00 pm 3:30 pm - 6:30 pm , Saturday 8:00 am - 11:30 am ",,,0
,,449 Amherst Street Unit 7,,Nashua,New Hampshire,03063,USA,603-402-1630 or 978-758-9010,,,"Monday 6:00 am - 1:00 pm 3:30 pm - 8:00 pm , Tuesday 10:00 am - 1:00 pm 3:30 pm - 8:00 pm , Wednesday 6:00 am - 1:00 pm 3:30 pm - 8:00 pm , Thursday 10:00 am - 1:00 pm 3:30 pm - 8:00 pm , Friday 6:00 am - 1:00 pm 3:30 pm - 6:30 pm , Saturday 8:00 am - 12:00 pm ",,,0
,,416 Daniel Webster Hwy,,Merrimack,New Hampshire,03054,USA,603-420-8145,,,,,,0
,,1334 W. Arrowhead Rd.,,Duluth,Minnesota,55811,USA,218.203.9993,,,,,,0
,,"10700 France Avenue South, Suite 114",,Bloomington,Minnesota,55431,USA,952-426-4829,,,"Monday 5:30 am - 1:00 pm 3:30 pm - 8:00 pm , Tuesday 7:30 am - 1:00 pm 3:30 pm - 8:00 pm , Wednesday 5:30 am - 1:00 pm 3:30 pm - 8:00 pm , Thursday 7:30 am - 1:00 pm 3:30 pm - 8:00 pm , Friday 5:30 am - 1:00 pm 3:30 pm - 6:30 pm , Saturday 8:00 am - 12:00 pm ",,,0
,,290 West River Road,,Hooksett,New Hampshire,03106,USA,603-325-4114,,,"Monday 8:00 am - 12:30 pm 3:30 pm - 8:00 pm , Tuesday 6:00 am - 12:30 pm 3:30 pm - 8:00 pm , Wednesday 8:00 am - 12:30 pm 3:30 pm - 8:00 pm , Thursday 6:00 am - 12:30 pm 3:30 pm - 8:00 pm , Friday 8:00 am - 12:30 pm 3:30 pm - 6:30 pm , Saturday 8:00 am - 12:00 pm ",,,0
,,8409 W. Broadway Ave.,,Brooklyn Park,Minnesota,55445,USA,(763) 200-9289,,,"Monday 7:00 am - 12:30 pm 3:30 pm - 8:00 pm , Tuesday 7:00 am - 12:30 pm 3:30 pm - 8:00 pm , Wednesday 7:00 am - 12:30 pm 3:30 pm - 8:00 pm , Thursday 7:00 am - 12:30 pm 3:30 pm - 8:00 pm , Friday 7:00 am - 12:30 pm 3:30 pm - 7:00 pm , Saturday 8:00 am - 12:00 pm ",,,0
,,912 Coronado blvd located in Coronado Square,,Universal City,Texas,78148,USA,210 399 9197,,,"Monday 8:30 am - 2:00 pm 4:00 pm - 8:30 pm , Tuesday 8:30 am - 2:00 pm 4:00 pm - 8:30 pm , Wednesday 8:30 am - 2:00 pm 4:00 pm - 8:30 pm , Thursday 8:30 am - 2:00 pm 4:00 pm - 8:30 pm , Friday 8:30 am - 2:00 pm 4:00 pm - 7:00 pm , Saturday 9:00 am - 1:00 pm ",,,0
,,586 Nashua St,,Milford,New Hampshire,03055,USA,603-275-8089,,,"Monday 8:30 am - 1:00 pm 4:00 pm - 8:00 pm , Tuesday 8:30 am - 1:00 pm 4:00 pm - 8:00 pm , Wednesday 8:30 am - 1:00 pm 4:00 pm - 8:00 pm , Thursday 8:30 am - 1:00 pm 4:00 pm - 8:00 pm , Friday 8:30 am - 1:00 pm 4:00 pm - 6:30 pm , Saturday 8:00 am - 12:00 pm ",,,0
,,7 Colby Court #3,,Bedford,New Hampshire,03110,USA,603-758-6860,,,"Monday 6:00 am - 12:30 pm 3:30 pm - 8:00 pm , Tuesday 8:00 am - 12:30 pm 3:30 pm - 8:00 pm , Wednesday 6:00 am - 12:30 pm 3:30 pm - 8:00 pm , Thursday 8:00 am - 12:30 pm 3:30 pm - 8:00 pm , Friday 6:00 am - 12:30 pm 3:30 pm - 6:30 pm , Saturday 8:00 am - 12:00 pm ",,,0
,,"30420 FM 2978, Suite 170",,The Woodlands,Texas,77354,USA,832-922-7040,,,"Monday 6:00 am - 1:00 pm 3:30 pm - 8:00 pm , Tuesday 8:00 am - 1:00 pm 3:30 pm - 8:00 pm , Wednesday 6:00 am - 1:00 pm 3:30 pm - 8:00 pm , Thursday 8:00 am - 1:00 pm 3:30 pm - 8:00 pm , Friday 6:00 am - 1:00 pm 3:30 pm - 7:00 pm , Saturday 8:00 am - 12:00 pm ",,,0
,,Brickyard Square - 24 Calef HWY,,Epping,New Hampshire,03042,USA,603-693-7100,,,"Monday 6:00 am - 12:30 pm 3:30 pm - 8:00 pm , Tuesday 8:00 am - 12:30 pm 3:30 pm - 8:00 pm , Wednesday 8:00 am - 12:30 pm 3:30 pm - 8:00 pm , Thursday 6:00 am - 12:30 pm 3:30 pm - 8:00 pm , Friday 8:00 am - 12:30 pm 3:30 pm - 6:30 pm , Saturday 8:00 am - 12:00 pm ",,,0
,,"2260 Buckthorne Pl, #179",,The Woodlands,Texas,77380,USA,(281) 719-0591,,,"Monday 8:00 am - 1:00 pm 3:00 pm - 8:00 pm , Tuesday 8:00 am - 1:00 pm 3:00 pm - 8:00 pm , Wednesday 8:00 am - 1:00 pm 3:00 pm - 8:00 pm , Thursday 8:00 am - 1:00 pm 3:00 pm - 8:00 pm , Friday 8:00 am - 1:00 pm 3:00 pm - 7:00 pm , Saturday 8:00 am - 12:00 pm ",,,0
,,"3759 Farm to Market Rd 1488, #475",,The Woodlands,Texas,77384,USA,(936) 224-5937,,,"Monday 9:00 am - 1:00 pm 3:00 pm - 8:00 pm , Tuesday 9:00 am - 1:00 pm 3:00 pm - 8:00 pm , Wednesday 9:00 am - 1:00 pm 3:00 pm - 8:00 pm , Thursday 9:00 am - 1:00 pm 3:00 pm - 8:00 pm , Friday 9:00 am - 1:00 pm 3:00 pm - 7:00 pm , Saturday 8:00 am - 12:00 pm ",,,0
,,"24914 Kuykendahl Rd, suite D",,The Woodlands,Texas,77375,USA,281-303-5707,,,"Monday 6:00 am - 1:00 pm 3:30 pm - 8:30 pm , Tuesday 7:00 am - 1:00 pm 3:30 pm - 8:30 pm , Wednesday 7:00 am - 1:00 pm 3:30 pm - 8:30 pm , Thursday 7:00 am - 1:00 pm 3:30 pm - 8:30 pm , Friday 6:00 am - 1:30 pm 3:30 pm - 7:00 pm , Saturday 8:00 am - 1:30 pm , Sunday 10:00 am - 3:00 pm ",,,0
,,17310 W Grand Pkwy,,Sugar Land,Texas,77479,USA,832-363-1574,,,"Monday 6:00 am - 1:30 pm 3:30 pm - 7:30 pm , Tuesday 8:00 am - 1:30 pm 3:30 pm - 7:30 pm , Wednesday 6:00 am - 1:30 pm 3:30 pm - 7:30 pm , Thursday 8:00 am - 1:30 pm 3:30 pm - 7:30 pm , Friday 6:00 am - 12:00 pm 2:00 pm - 6:00 pm , Saturday 8:00 am - 12:00 pm , Sunday 12:00 pm - 4:00 pm ",,,0
,,18610 Kuykendahl Rd suite 4,,Spring,Texas,77379,USA,281-516-8983,,,"Monday 7:00 am - 1:00 pm 3:30 pm - 7:30 pm , Tuesday 7:00 am - 1:00 pm 3:30 pm - 7:30 pm , Wednesday 7:00 am - 1:00 pm 3:30 pm - 7:30 pm , Thursday 7:00 am - 1:00 pm 3:30 pm - 7:30 pm , Friday 7:00 am - 1:00 pm 3:30 pm - 7:00 pm , Saturday 8:00 am - 1:30 pm ",,,0
,,4775 W Panther Creek Dr,,The Woodlands,Texas,77381,USA,281-651-2746,,,"Monday 7:00 am - 1:00 pm 3:30 pm - 8:30 pm , Tuesday 7:00 am - 1:00 pm 3:30 pm - 8:30 pm , Wednesday 7:00 am - 1:00 pm 3:30 pm - 8:30 pm , Thursday 7:00 am - 1:00 pm 3:30 pm - 8:30 pm , Friday 7:00 am - 1:00 pm 3:30 pm - 7:00 pm , Saturday 8:00 am - 1:30 pm ",,,0
,,20444 Kuykendahl Rd    Suite B,,Spring,Texas,77379,USA,832-299-5103,,,,,,0
,,9822 Potranco Rd. Ste 103,,San Antonio,Texas,78251,USA,210-374-9RND,,,"Monday 9:00 am - 1:00 pm 3:00 pm - 8:00 pm , Tuesday 9:00 am - 1:00 pm 3:00 pm - 8:00 pm , Wednesday 9:00 am - 1:00 pm 3:00 pm - 8:00 pm , Thursday 9:00 am - 1:00 pm 3:00 pm - 8:00 pm , Friday 9:00 am - 1:00 pm 3:00 pm - 7:00 pm , Saturday 9:00 am - 1:00 pm ",,,0
,,5017 West Park Blvd,,Texarkana,Texas,75503,USA,9033060128,,,"Monday 8:00 am - 2:00 pm 4:00 pm - 8:00 pm , Tuesday 5:30 am - 2:00 pm 4:00 pm - 8:00 pm , Wednesday 8:00 am - 2:00 pm 4:00 pm - 8:00 pm , Thursday 5:30 am - 2:00 pm 4:00 pm - 8:00 pm , Friday 8:00 am - 2:00 pm 4:00 pm - 7:00 pm , Saturday 9:00 am - 1:00 pm ",,,0
,,535 Minonite Rd. Suite 106,,Rosenberg,Texas,77469,USA,832-344-0232,,,"Monday 8:00 am - 1:00 pm 3:00 pm - 8:00 pm , Tuesday 8:00 am - 1:00 pm 3:00 pm - 8:00 pm , Wednesday 8:00 am - 1:00 pm 3:00 pm - 8:00 pm , Thursday 8:00 am - 1:00 pm 3:00 pm - 8:00 pm , Friday 8:00 am - 1:00 pm 3:00 pm - 7:00 pm , Saturday 8:00 am - 12:00 pm ",,,0
,,"Stone Canyon Crossing, 20210 Stone Oak Pkwy, Suite #103",,San Antonio,Texas,78258,USA,210-551-9224,,,"Monday 5:30 am - 1:30 pm 4:00 pm - 8:00 pm , Tuesday 8:00 am - 1:30 pm 4:00 pm - 8:00 pm , Wednesday 5:30 am - 1:30 pm 4:00 pm - 8:00 pm , Thursday 8:00 am - 1:30 pm 4:00 pm - 8:00 pm , Friday 8:00 am - 1:30 pm 4:00 pm - 7:00 pm , Saturday 9:00 am - 1:00 pm ",,,0
,,14439 NW Military Hwy,,San Antonio,Texas,78230,USA,210-943-5955,,,"Monday 6:00 am - 1:00 pm 4:00 pm - 8:00 pm , Tuesday 8:00 am - 1:00 pm 4:00 pm - 8:00 pm , Wednesday 6:00 am - 1:00 pm 4:00 pm - 8:00 pm , Thursday 8:00 am - 1:00 pm 4:00 pm - 8:00 pm , Friday 6:00 am - 1:00 pm 4:00 pm - 7:00 pm , Saturday 8:00 am - 12:00 pm ",,,0
,,7338 Louis Pasteur Dr,,San Antonio,Texas,78229,USA,210-346-1288,,,"Monday 6:00 am - 1:00 pm 4:00 pm - 8:00 pm , Tuesday 8:00 am - 1:00 pm 4:00 pm - 8:00 pm , Wednesday 6:00 am - 1:00 pm 4:00 pm - 8:00 pm , Thursday 8:00 am - 1:00 pm 4:00 pm - 8:00 pm , Friday 6:00 am - 1:00 pm 4:00 pm - 7:00 pm , Saturday 8:00 am - 12:00 pm ",,,0
,,825 Plantation Dr. Ste 130,,Richmond,Texas,77406,USA,832-240-1444/832-526-5990,,,"Monday 6:00 am - 1:00 pm 3:00 pm - 8:00 pm , Tuesday 8:00 am - 1:00 pm 3:00 pm - 8:00 pm , Wednesday 6:00 am - 1:00 pm 3:00 pm - 8:00 pm , Thursday 8:00 am - 1:00 pm 3:00 pm - 8:00 pm , Friday 6:00 am - 1:00 pm 3:00 pm - 7:00 pm , Saturday 8:00 am - 12:00 pm ",,,0
,,"3020 Legacy Drive, Suite 110",,Plano,Texas,75023,USA,(972) 618-7089,,,"Monday 5:00 am - 1:00 pm 3:30 pm - 8:00 pm , Tuesday 5:00 am - 1:00 pm 3:30 pm - 8:00 pm , Wednesday 5:00 am - 1:00 pm 3:30 pm - 8:00 pm , Thursday 5:00 am - 1:00 pm 3:30 pm - 8:00 pm , Friday 5:00 am - 1:00 pm 3:30 pm - 7:00 pm , Saturday 8:00 am - 12:00 pm ",,,0
,,3600 Billy Hext Rd. Suite 101,,Odessa,Texas,79765,USA,432-552-8588,,,"Monday 5:00 am - 2:00 pm 4:00 pm - 8:00 pm , Tuesday 8:30 am - 2:00 pm 4:00 pm - 8:00 pm , Wednesday 5:00 am - 2:00 pm 4:00 pm - 8:00 pm , Thursday 8:30 am - 2:00 pm 4:00 pm - 8:00 pm , Friday 5:00 am - 2:00 pm 4:00 pm - 8:00 pm , Saturday 8:00 am - 1:00 pm ",,,0
,,7930 W Grand Parkway S suite 160,,Richmond,Texas,77406,USA,346-247-9171,,,"Monday 6:00 am - 1:00 pm 3:00 pm - 8:00 pm , Tuesday 6:00 am - 1:00 pm 3:00 pm - 8:00 pm , Wednesday 6:00 am - 1:00 pm 3:00 pm - 8:00 pm , Thursday 6:00 am - 1:00 pm 3:00 pm - 8:00 pm , Friday 6:00 am - 1:00 pm 3:00 pm - 8:00 pm , Saturday 8:00 am - 1:00 pm ",,,0
,,2310 E. Expressway 83 Suite 6,,Mission,Texas,78572,USA,956-606-4630,,,"Monday 5:30 am - 1:30 pm 3:30 pm - 8:00 pm , Tuesday 5:30 am - 1:30 pm 3:30 pm - 8:00 pm , Wednesday 5:30 am - 1:30 pm 3:30 pm - 8:00 pm , Thursday 5:30 am - 1:30 pm 3:30 pm - 8:00 pm , Friday 5:30 am - 1:30 pm 3:30 pm - 7:00 pm , Saturday 8:00 am - 12:00 pm ",,,0
,,1020 Andrews Hwy Ste 1024A,,Midland,Texas,79701,USA,432-247-5850,,,,,,0
,,5113 North 10th Street Suite B,,McAllen,Texas,78504,USA,956-800-4411,,,"Monday 6:30 am - 1:30 pm 3:30 pm - 8:00 pm , Tuesday 6:30 am - 1:30 pm 3:30 pm - 8:00 pm , Wednesday 6:30 am - 1:30 pm 3:30 pm - 8:00 pm , Thursday 6:30 am - 1:30 pm 3:30 pm - 8:00 pm , Friday 7:00 am - 1:30 pm 3:30 pm - 7:00 pm , Saturday 10:00 am - 1:30 pm ",,,0
,,900 S MAIN SUITE 340,,Keller,Texas,76248,USA,817-929-8913,,,"Monday 6:00 am - 1:30 pm 3:30 pm - 8:00 pm , Tuesday 8:00 am - 1:30 pm 3:30 pm - 8:00 pm , Wednesday 6:00 am - 1:30 pm 3:30 pm - 8:00 pm , Thursday 8:00 am - 1:30 pm 3:30 pm - 8:00 pm , Friday 6:00 am - 1:30 pm 3:30 pm - 7:00 pm , Saturday 8:00 am - 12:30 pm ",,,0
,,2906 South Bagdad Rd Suite 280,,Leander,Texas,78641,USA,512-843-3925,,,"Monday 8:00 am - 1:00 pm 3:00 pm - 8:00 pm , Tuesday 8:00 am - 1:00 pm 3:00 pm - 8:00 pm , Wednesday 8:00 am - 1:00 pm 3:00 pm - 8:00 pm , Thursday 8:00 am - 1:00 pm 3:00 pm - 8:00 pm , Friday 8:00 am - 1:00 pm 3:00 pm - 7:00 pm , Saturday 8:00 am - 12:00 pm ",,,0
,,"1400 E Old Settlers Blvd, Suite 301",,Round Rock,Texas,78665,USA,512-943-8057,,,"Monday 5:00 am - 1:00 pm 3:00 pm - 8:00 pm , Tuesday 8:00 am - 1:00 pm 3:00 pm - 8:00 pm , Wednesday 5:00 am - 1:00 pm 3:00 pm - 8:00 pm , Thursday 8:00 am - 1:00 pm 3:00 pm - 8:00 pm , Friday 5:00 am - 1:00 pm 3:00 pm - 7:00 pm , Saturday 8:00 am - 12:00 pm ",,,0
,,1806 Avenue D Suite 108,,Katy,Texas,77493,USA,281-371-0080,,,"Monday 5:00 am - 1:00 pm 3:00 pm - 8:00 pm , Tuesday 8:00 am - 1:00 pm 3:00 pm - 8:00 pm , Wednesday 5:00 am - 1:00 pm 3:00 pm - 8:00 pm , Thursday 8:00 am - 1:00 pm 3:00 pm - 8:00 pm , Friday 5:00 am - 1:00 pm 3:00 pm - 7:00 pm , Saturday 8:00 am - 12:00 pm ",,,0
,,"15718 South Fwy, Ste 150",,Pearland,Texas,77584,USA,832-328-7800,,,"Monday 8:00 am - 1:00 pm 3:30 pm - 8:00 pm , Tuesday 6:00 am - 1:00 pm 3:30 pm - 8:00 pm , Wednesday 8:00 am - 1:00 pm 3:30 pm - 8:00 pm , Thursday 6:00 am - 1:00 pm 3:30 pm - 8:00 pm , Friday 8:00 am - 1:00 pm 3:00 pm - 7:00 pm , Saturday 9:00 am - 1:00 pm ",,,0
,,5017 W. Plano Pkwy.,,Plano,Texas,75093,USA,(214) 377-9280,,,"Monday 8:00 am - 1:30 pm 3:30 pm - 8:00 pm , Tuesday 8:00 am - 1:30 pm 3:30 pm - 8:00 pm , Wednesday 8:00 am - 1:30 pm 3:30 pm - 8:00 pm , Thursday 8:00 am - 1:30 pm 3:30 pm - 8:00 pm , Friday 8:00 am - 1:30 pm 3:30 pm - 7:00 pm , Saturday 8:00 am - 1:00 pm ",,,0
,,725 Airport Freeway Suite H (Precinct Line Road and Airport Freeway -  By Target next to Subway),,Hurst,Texas,76053,USA,(817) 282-0807,,,"Monday 8:00 am - 1:00 pm 3:30 pm - 8:00 pm , Tuesday 8:00 am - 1:00 pm 3:30 pm - 8:00 pm , Wednesday 8:00 am - 1:00 pm 3:30 pm - 8:00 pm , Thursday 8:00 am - 1:00 pm 3:30 pm - 8:00 pm , Friday 8:00 am - 1:00 pm 3:30 pm - 7:00 pm , Saturday 8:00 am - 12:00 pm ",,,0
,,"6420 FM 1463 Road, Suite 500",,Katy,Texas,77494,USA,281-884-3785,,,"Monday 5:00 am - 1:00 pm 3:00 pm - 8:00 pm , Tuesday 8:00 am - 1:00 pm 3:00 pm - 8:00 pm , Wednesday 5:00 am - 1:00 pm 3:00 pm - 8:00 pm , Thursday 8:00 am - 1:00 pm 3:00 pm - 8:00 pm , Friday 5:00 am - 1:00 pm 3:00 pm - 7:00 pm , Saturday 8:00 am - 12:00 pm ",,,0
,,15455 Memorial Drive Suite 200,,Houston,Texas,77079,USA,(832) 766-2644,,,"Monday 6:00 am - 1:00 pm 3:00 pm - 8:00 pm , Tuesday 8:00 am - 1:00 pm 3:00 pm - 8:00 pm , Wednesday 6:00 am - 1:00 pm 3:00 pm - 8:00 pm , Thursday 8:00 am - 1:00 pm 3:00 pm - 8:00 pm , Friday 8:00 am - 1:00 pm 4:00 pm - 7:00 pm , Saturday 8:00 am - 12:00 pm ",,,0
,,9785 FM 1960 Bypass Rd. East,,Humble,Texas,77338,USA,281-570-6147,,,"Monday 8:00 am - 12:30 pm 3:30 pm - 8:00 pm , Tuesday 7:00 am - 12:30 pm 3:30 pm - 8:00 pm , Wednesday 8:00 am - 12:30 pm 3:30 pm - 8:00 pm , Thursday 7:00 am - 12:30 pm 3:30 pm - 8:00 pm , Friday 8:00 am - 12:30 pm 3:30 pm - 8:00 pm , Saturday 8:00 am - 12:30 pm ",,,0
,,7613 Katy Freeway,,Houston,Texas,77024,USA,281-888-3790,,,,,,0
,,2027 South Shepherd Drive,,Houston,Texas,77019,USA,8325668004,,,"Monday 8:00 am - 1:00 pm 3:00 pm - 8:00 pm , Tuesday 6:00 am - 1:00 pm 3:00 pm - 8:00 pm , Wednesday 8:00 am - 1:00 pm 3:00 pm - 8:00 pm , Thursday 6:00 am - 1:00 pm 3:00 pm - 8:00 pm , Friday 8:00 am - 1:00 pm 3:00 pm - 7:00 pm , Saturday 9:00 am - 1:00 pm ",,,0
,,6134 Westheimer Rd. Suite B1,,Houston,Texas,77057,USA,832-341-0377,,,"Monday 8:00 am - 1:00 pm 4:00 pm - 8:00 pm , Tuesday 6:30 am - 1:00 pm 4:00 pm - 8:00 pm , Wednesday 6:30 am - 1:00 pm 4:00 pm - 8:00 pm , Thursday 6:30 am - 1:00 pm 4:00 pm - 8:00 pm , Friday 8:00 am - 1:00 pm 4:00 pm - 7:00 pm , Saturday 9:00 am - 1:00 pm ",,,0
,,10220 Louetta Rd #600,,Houston,Texas,77070,USA,713-510-1300,,,"Monday 7:00 am - 1:00 pm 4:00 pm - 8:00 pm , Tuesday 8:00 am - 1:00 pm 4:00 pm - 8:00 pm , Wednesday 7:00 am - 1:00 pm 4:00 pm - 8:00 pm , Thursday 8:00 am - 1:00 pm 4:00 pm - 8:00 pm , Friday 7:00 am - 1:00 pm 4:00 pm - 7:00 pm , Saturday 8:00 am - 12:00 pm ",,,0
,,8811 Teel Pkwy Ste # 120,,Frisco,Texas,75034,USA,(972) 294-5098,,,"Monday 6:00 am - 1:30 pm 4:00 pm - 8:00 pm , Tuesday 8:00 am - 1:30 pm 4:00 pm - 8:00 pm , Wednesday 6:00 am - 1:30 pm 4:00 pm - 8:00 pm , Thursday 8:00 am - 1:30 pm 4:00 pm - 8:00 pm , Friday 6:00 am - 1:30 pm 4:00 pm - 7:00 pm , Saturday 8:00 am - 12:00 pm ",,,0
,,5411 Basswood Blvd Suite 221,,Fort Worth,Texas,76137,USA,817-849-9FIT (9348),,,"Monday 8:00 am - 1:30 pm 3:30 pm - 8:00 pm , Tuesday 5:30 am - 1:30 pm 3:30 pm - 8:00 pm , Wednesday 8:00 am - 1:30 pm 3:30 pm - 8:00 pm , Thursday 5:30 am - 1:30 pm 3:30 pm - 8:00 pm , Friday 8:00 am - 1:30 pm 3:30 pm - 6:30 pm , Saturday 9:00 am - 2:00 pm ",,,0
,,301 East Highway 377 Suite 120,,Granbury,Texas,76049,USA,817-578-2399,,,"Monday 6:00 am - 1:30 pm 3:30 pm - 8:00 pm , Tuesday 8:00 am - 1:30 pm 3:30 pm - 8:00 pm , Wednesday 6:00 am - 1:30 pm 3:30 pm - 8:00 pm , Thursday 8:00 am - 1:30 pm 3:30 pm - 8:00 pm , Friday 6:00 am - 1:30 pm 3:30 pm - 7:00 pm , Saturday 8:00 am - 12:00 pm ",,,0
,,3049 Greene Ave,,Fort Worth,Texas,76109,USA,(817) 921-0502,,,"Monday 6:30 am - 1:30 pm 3:30 pm - 7:30 pm , Tuesday 6:30 am - 1:30 pm 3:30 pm - 7:30 pm , Wednesday 6:30 am - 1:30 pm 3:30 pm - 7:30 pm , Thursday 6:30 am - 1:30 pm 3:30 pm - 7:30 pm , Friday 8:00 am - 1:30 pm 3:30 pm - 6:00 pm , Saturday 8:00 am - 12:00 pm ",,,0
,,1901 Long Prairie Rd.,,Flower Mound,Texas,75022,USA,972-355-5425,,,"Monday 6:00 am - 1:30 pm 3:30 pm - 8:00 pm , Tuesday 8:00 am - 1:30 pm 3:30 pm - 8:00 pm , Wednesday 6:00 am - 1:30 pm 3:30 pm - 8:00 pm , Thursday 8:00 am - 1:30 pm 3:30 pm - 8:00 pm , Friday 6:00 am - 1:30 pm 3:30 pm - 7:00 pm , Saturday 8:00 am - 12:00 pm ",,,0
,,5331 E. Mockingbird Ln,,Dallas,Texas,75206,USA,469-554-0368,,,,,,0
,,"145 W. Sunset, Suite B-100",,El Paso,Texas,79922,USA,915-584-2400,,,,,,0
,,2150 Justin Rd,,Highland Village,Texas,75077,USA,(972) 317-3333 Call or Text,,,"Monday 6:00 am - 1:00 pm 4:00 pm - 8:00 pm , Tuesday 8:00 am - 1:00 pm 4:00 pm - 8:00 pm , Wednesday 6:00 am - 1:00 pm 4:00 pm - 8:00 pm , Thursday 8:00 am - 1:00 pm 4:00 pm - 8:00 pm , Friday 6:00 am - 1:00 pm 4:00 pm - 7:00 pm , Saturday 8:00 am - 12:00 pm ",,,0
,,"1513 N. Zaragoza Rd, Suite B",,El Paso,Texas,79936,USA,915-849-8006,,,"Monday 5:30 am - 1:00 pm 3:30 pm - 8:00 pm , Tuesday 5:30 am - 1:00 pm 3:30 pm - 8:00 pm , Wednesday 5:30 am - 1:00 pm 3:30 pm - 8:00 pm , Thursday 6:00 am - 1:00 pm 3:30 pm - 8:00 pm , Friday 6:00 am - 1:00 pm 3:30 pm - 7:00 pm , Saturday 9:00 am - 1:00 pm ",,,0
,,7426 S. Staples St. STE 208,,Corpus Christi,Texas,78413,USA,361-844-9454,,,,,,0
,,2216 Texas Avenue South,,College Station,Texas,77840,USA,979-696-2150,,,"Monday 8:00 am - 1:30 pm 3:30 pm - 8:00 pm , Tuesday 8:00 am - 1:30 pm 3:30 pm - 8:00 pm , Wednesday 8:00 am - 1:30 pm 3:30 pm - 8:00 pm , Thursday 8:00 am - 1:30 pm 3:30 pm - 8:00 pm , Friday 8:00 am - 1:30 pm 3:30 pm - 7:00 pm , Saturday 8:00 am - 12:00 pm ",,,0
,,11851 Bandera Rd Suite 109,,Helotes,Texas,78023,USA,(210)699-HITT,,,"Monday 5:30 am - 1:00 pm 3:00 pm - 8:00 pm , Tuesday 8:00 am - 1:00 pm 3:00 pm - 8:00 pm , Wednesday 5:30 am - 1:00 pm 3:00 pm - 8:00 pm , Thursday 8:00 am - 1:00 pm 3:00 pm - 8:00 pm , Friday 8:00 am - 1:00 pm 3:00 pm - 6:00 pm , Saturday 8:00 am - 12:00 pm ",,,0
,,"14034 Grant Rd, Suite 120",,Cypress,Texas,77429,USA,713.510.1400,,,"Monday 7:00 am - 12:00 pm 3:00 pm - 8:00 pm , Tuesday 6:00 am - 12:00 pm 3:00 pm - 8:00 pm , Wednesday 7:00 am - 12:00 pm 3:00 pm - 8:00 pm , Thursday 6:00 am - 12:00 pm 3:00 pm - 8:00 pm , Friday 7:00 am - 12:00 pm 3:00 pm - 7:00 pm , Saturday 8:00 am - 12:00 pm ",,,0
,,"10900 Research Blvd, Suite 150",,Austin,Texas,78759,USA,512-372-1030,,,"Monday 6:00 am - 1:30 pm 4:00 pm - 8:00 pm , Tuesday 8:00 am - 1:30 pm 4:00 pm - 8:00 pm , Wednesday 6:00 am - 1:30 pm 4:00 pm - 8:00 pm , Thursday 8:00 am - 1:30 pm 4:00 pm - 8:00 pm , Friday 6:00 am - 1:30 pm 4:00 pm - 7:00 pm , Saturday 9:00 am - 1:00 pm ",,,0
,,401 Cypress Creek Rd. #400,,Cedar Park,Texas,78613,USA,512-506-9339,,,"Monday 5:00 am - 1:00 pm 3:00 pm - 8:00 pm , Tuesday 8:00 am - 1:00 pm 3:00 pm - 8:00 pm , Wednesday 5:00 am - 1:00 pm 3:00 pm - 8:00 pm , Thursday 8:00 am - 1:00 pm 3:00 pm - 8:00 pm , Friday 5:00 am - 1:00 pm 3:00 pm - 7:00 pm , Saturday 8:00 am - 12:00 pm ",,,0
,,"10539 Fry Rd, Suite 400",,Cypress,Texas,77433,USA,713.510.1500,,,,,,0
,,5700 Fisher Lane. Suite B,,Rockville,Maryland,20852,USA,301-881-3841,,,"Monday 7:30 am - 3:00 pm , Wednesday 7:30 am - 1:00 pm 3:00 pm - 8:00 pm , Thursday 7:30 am - 1:00 pm 3:00 pm - 8:00 pm , Friday 7:30 am - 1:00 pm 3:00 pm - 6:00 pm , Saturday 9:30 am - 3:00 pm ",,,0
,,4631 Airport Blvd #119,,Austin,Texas,78751,USA,(512)792-4224,,,"Monday 8:00 am - 1:00 pm 3:00 pm - 8:00 pm , Tuesday 6:00 am - 1:00 pm 4:00 pm - 8:00 pm , Wednesday 8:00 am - 1:00 pm 3:00 pm - 8:00 pm , Thursday 6:00 am - 1:00 pm 4:00 pm - 8:00 pm , Friday 8:00 am - 1:00 pm 3:00 pm - 7:00 pm , Saturday 8:00 am - 12:00 pm ",,,0
,,"2299 Johns Hopkins Road, Suite B",,Gambrills,Maryland,21054,USA,(410) 451-5972,,,"Monday 8:00 am - 1:00 pm 3:00 pm - 8:00 pm , Tuesday 8:00 am - 1:00 pm 3:00 pm - 8:00 pm , Wednesday 8:00 am - 1:00 pm 3:00 pm - 8:00 pm , Thursday 8:00 am - 1:00 pm 3:00 pm - 8:00 pm , Friday 8:00 am - 1:00 pm 3:00 pm - 7:00 pm , Saturday 8:00 am - 12:00 pm ",,,0
,,3469 Fort Meade Road (Maryland City Plaza),,Laurel,Maryland,20724,USA,(301) 685-6000,,,"Monday 8:00 am - 1:00 pm 3:00 pm - 8:00 pm , Tuesday 7:00 am - 1:00 pm 3:00 pm - 8:00 pm , Wednesday 8:00 am - 1:00 pm 3:00 pm - 8:00 pm , Thursday 7:00 am - 1:00 pm 3:00 pm - 8:00 pm , Friday 8:00 am - 1:00 pm 3:00 pm - 6:30 pm , Saturday 9:00 am - 2:00 pm , Sunday 11:00 am - 3:00 pm ",,,0
,,7696 Belair Rd,,Baltimore,Maryland,21236,USA,443-937-3181,,,,,,0
,,3713 Boston Street,,Baltimore,Maryland,21224,USA,(443) 937-3181,,,"Monday 6:00 am - 1:00 pm 4:00 pm - 8:00 pm , Tuesday 7:00 am - 1:00 pm 4:00 pm - 8:00 pm , Wednesday 6:00 am - 1:00 pm 4:00 pm - 8:00 pm , Thursday 7:00 am - 1:00 pm 4:00 pm - 8:00 pm , Friday 6:00 am - 1:00 pm 4:00 pm - 8:00 pm , Saturday 10:00 am - 4:00 pm , Sunday 10:00 am - 4:00 pm ",,,0
,,"16 Plaza 94, St. Peters MO 63376",,St. Peters,Missouri,63304,USA,636-244-3219,,,"Monday 8:00 am - 1:00 pm 3:00 pm - 8:00 pm , Tuesday 5:30 am - 1:00 pm 3:00 pm - 8:00 pm , Wednesday 8:00 am - 1:00 pm 3:00 pm - 8:00 pm , Thursday 5:30 am - 1:00 pm 3:00 pm - 8:00 pm , Friday 8:00 am - 1:00 pm 3:00 pm - 6:00 pm , Saturday 8:00 am - 12:00 pm ",,,0
,,2655 South 70th St. Suite C,,Lincoln,Nebraska,68506,USA,402-480-6911,,,"Monday 6:00 am - 1:30 pm 3:30 pm - 7:30 pm , Tuesday 8:00 am - 1:30 pm 3:30 pm - 7:30 pm , Wednesday 6:00 am - 1:30 pm 3:30 pm - 7:30 pm , Thursday 8:00 am - 1:30 pm 3:30 pm - 7:30 pm , Friday 6:00 am - 1:30 pm 3:30 pm - 6:30 pm , Saturday 8:00 am - 12:00 pm ",,,0
,,2093 Washington Crossing,,Washington,Missouri,63090,USA,636-432-1979,,,"Monday 8:00 am - 1:00 pm 3:30 pm - 8:00 pm , Tuesday 5:30 am - 1:00 pm 3:30 pm - 8:00 pm , Wednesday 5:30 am - 1:00 pm 3:30 pm - 8:00 pm , Thursday 8:00 am - 1:00 pm 3:30 pm - 8:00 pm , Friday 5:30 am - 1:00 pm 3:30 pm - 6:00 pm , Saturday 8:00 am - 12:00 pm ",,,0
,,3341 Pablo Kisel Suite P,,Brownsville,Texas,78521,USA,956-622-7717,,,"Monday 6:30 am - 12:00 pm 3:30 pm - 8:00 pm , Tuesday 6:30 am - 12:00 pm 3:30 pm - 8:00 pm , Wednesday 6:30 am - 12:00 pm 3:30 pm - 8:00 pm , Thursday 6:30 am - 12:00 pm 3:30 pm - 8:00 pm , Friday 6:30 am - 12:00 pm 3:30 pm - 8:00 pm , Saturday 9:00 am - 2:00 pm ",,,0
,,1440 W. Republic Rd. Suite 128,,Springfield,Missouri,65807,USA,417.889.9RND (9763),,,"Monday 5:30 am - 1:00 pm 3:00 pm - 8:00 pm , Tuesday 8:00 am - 1:00 pm 3:00 pm - 8:00 pm , Wednesday 5:30 am - 1:00 pm 3:00 pm - 8:00 pm , Thursday 8:00 am - 1:00 pm 3:00 pm - 8:00 pm , Friday 5:30 am - 1:00 pm 3:00 pm - 7:00 pm , Saturday 8:00 am - 12:00 pm ",,,0
,,5609 S. 27th St. Suite A,,Lincoln,Nebraska,68512,USA,402-420-KICK,,,"Monday 5:30 am - 1:00 pm 3:00 pm - 8:00 pm , Tuesday 5:30 am - 1:00 pm 3:00 pm - 8:00 pm , Wednesday 5:30 am - 1:00 pm 3:00 pm - 8:00 pm , Thursday 5:30 am - 1:00 pm 3:00 pm - 8:00 pm , Friday 5:30 am - 1:00 pm 3:00 pm - 7:00 pm , Saturday 7:00 am - 12:00 pm ",,,0
,,14462 US-169,,Smithville,Missouri,64089,USA,816-841-4749,,,"Monday 5:00 am - 8:00 pm , Tuesday 5:30 am - 8:00 pm , Wednesday 5:00 am - 8:00 pm , Thursday 5:30 am - 8:00 pm , Friday 5:00 am - 6:00 pm , Saturday 8:00 am - 12:00 pm ",,,0
,,3026 Winghaven Blvd,,O'Fallon,Missouri,63368,USA,636-265-0716,,,"Monday 5:30 am - 1:00 pm 3:00 pm - 8:00 pm , Tuesday 8:00 am - 1:00 pm 3:00 pm - 8:00 pm , Wednesday 5:30 am - 1:00 pm 3:00 pm - 8:00 pm , Thursday 8:00 am - 1:00 pm 3:00 pm - 8:00 pm , Friday 8:00 am - 1:00 pm 3:00 pm - 6:30 pm , Saturday 8:00 am - 12:00 pm ",,,0
,,2407 Prairie View Road,,Platte City,Missouri,64079,USA,816-858-6335,,,"Monday 5:30 am - 1:30 pm 3:30 pm - 8:00 pm , Tuesday 8:00 am - 1:30 pm 3:30 pm - 8:00 pm , Wednesday 5:30 am - 1:30 pm 3:30 pm - 8:00 pm , Thursday 8:00 am - 1:30 pm 3:30 pm - 8:00 pm , Friday 5:30 am - 1:30 pm 3:30 pm - 7:00 pm , Saturday 8:00 am - 12:00 pm ",,,0
,,3731 SW Hollywood Dr,,Lee's Summit,Missouri,64082,USA,8166233122,,,"Monday 5:30 am - 1:00 pm 3:00 pm - 8:00 pm , Tuesday 5:30 am - 1:00 pm 3:00 pm - 8:00 pm , Wednesday 5:30 am - 1:00 pm 3:00 pm - 8:00 pm , Thursday 5:30 am - 1:00 pm 3:00 pm - 8:00 pm , Friday 5:30 am - 1:00 pm 3:00 pm - 6:30 pm , Saturday 8:00 am - 1:00 pm ",,,0
,,8944 NW Skyview Ave,,Kansas City,Missouri,64154,USA,816-587-6999,,,"Monday 5:00 am - 1:30 pm 3:30 pm - 8:00 pm , Tuesday 5:30 am - 1:30 pm 3:30 pm - 8:00 pm , Wednesday 5:00 am - 1:30 pm 3:30 pm - 8:00 pm , Thursday 5:30 am - 1:30 pm 3:30 pm - 8:00 pm , Friday 5:00 am - 1:30 pm 3:30 pm - 6:00 pm , Saturday 8:00 am - 12:00 pm ",,,0
,,1125 NE Rice Rd,,Lee's Summit,Missouri,64086,USA,816-524-5795,,,"Monday 5:30 am - 1:00 pm 3:00 pm - 8:00 pm , Tuesday 5:30 am - 1:00 pm 3:00 pm - 8:00 pm , Wednesday 5:30 am - 1:00 pm 3:00 pm - 8:00 pm , Thursday 5:30 am - 1:00 pm 3:00 pm - 8:00 pm , Friday 5:30 am - 1:00 pm 3:00 pm - 6:30 pm , Saturday 8:00 am - 1:00 pm ",,,0
,,10203 N Oak Trafficway,,Kansas City,Missouri,64155,USA,816-734-9900,,,"Monday 5:00 am - 8:00 pm , Tuesday 5:30 am - 8:00 pm , Wednesday 5:00 am - 8:00 pm , Thursday 5:30 am - 8:00 pm , Friday 5:00 am - 6:00 pm , Saturday 8:00 am - 12:00 pm ",,,0
,,7964 Wornall Rd,,Kansas City,Missouri,64114,USA,816-333-3500,,,"Monday 5:30 am - 12:00 pm 3:30 pm - 8:00 pm , Tuesday 8:00 am - 1:00 pm 3:30 pm - 8:00 pm , Wednesday 8:00 am - 1:00 pm 3:30 pm - 8:00 pm , Thursday 8:00 am - 1:00 pm 3:30 pm - 8:00 pm , Friday 5:30 am - 12:00 pm 3:30 pm - 6:30 pm , Saturday 8:00 am - 12:00 pm ",,,0
,,"19321 E. US 40 Highway, Suite K",,Independence,Missouri,64055,USA,816-982-9912,,,"Monday 5:30 am - 1:00 pm 3:00 pm - 8:00 pm , Tuesday 6:00 am - 1:00 pm 3:00 pm - 8:00 pm , Wednesday 5:30 am - 1:00 pm 3:00 pm - 8:00 pm , Thursday 6:00 am - 1:00 pm 3:00 pm - 8:00 pm , Friday 5:30 am - 1:00 pm 3:00 pm - 6:00 pm , Saturday 8:00 am - 1:00 pm ",,,0
,,"11752 Manchester Rd, Des Peres, MO",,Des Peres,Missouri,63131,USA,314-394-0959,,,"Monday 5:30 am - 1:00 pm 3:00 pm - 8:00 pm , Tuesday 8:00 am - 1:00 pm 3:00 pm - 8:00 pm , Wednesday 5:30 am - 1:00 pm 3:00 pm - 8:00 pm , Thursday 8:00 am - 1:00 pm 3:00 pm - 8:00 pm , Friday 8:00 am - 1:00 pm 3:00 pm - 6:30 pm , Saturday 8:00 am - 12:00 pm ",,,0
,,"105 S. Jefferson St., B-1,",,Kearney,Missouri,64060,USA,(816) 635-9800,,,"Monday 5:15 am - 2:00 pm 3:00 pm - 8:00 pm , Tuesday 5:15 am - 2:00 pm 3:00 pm - 8:00 pm , Wednesday 5:15 am - 2:00 pm 3:00 pm - 8:00 pm , Thursday 5:15 am - 2:00 pm 3:00 pm - 8:00 pm , Friday 5:15 am - 2:00 pm 3:00 pm - 6:00 pm , Saturday 8:00 am - 12:00 pm ",,,0
,,5765 NE Antioch Road,,Gladstone,Missouri,64119,USA,(816) 455-9RND (9763),,,"Monday 5:30 am - 1:00 pm 3:00 pm - 8:00 pm , Tuesday 8:00 am - 1:00 pm 3:00 pm - 8:00 pm , Wednesday 5:30 am - 1:00 pm 3:00 pm - 8:00 pm , Thursday 8:00 am - 1:00 pm 3:00 pm - 8:00 pm , Friday 5:30 am - 1:00 pm 3:00 pm - 6:00 pm , Saturday 8:00 am - 12:00 pm ",,,0
,,"12536 Olive Blvd, Ste. G",,Creve Coeur,Missouri,63141-6391,USA,314-392-9305,,,"Monday 5:30 am - 1:00 pm 3:00 pm - 8:00 pm , Tuesday 8:00 am - 1:00 pm 3:00 pm - 8:00 pm , Wednesday 5:30 am - 1:00 pm 3:00 pm - 8:00 pm , Thursday 8:00 am - 1:00 pm 3:00 pm - 8:00 pm , Friday 8:00 am - 1:00 pm 3:00 pm - 6:30 pm , Saturday 8:00 am - 12:00 pm ",,,0
,,104 S.Providence Rd,,Columbia,Missouri,65203,USA,573-441-KICK (5425),,,"Monday 5:00 am - 1:00 pm 3:00 pm - 8:00 pm , Tuesday 8:00 am - 1:00 pm 3:00 pm - 8:00 pm , Wednesday 5:00 am - 1:00 pm 3:00 pm - 8:00 pm , Thursday 8:00 am - 1:00 pm 3:00 pm - 8:00 pm , Friday 5:00 am - 1:00 pm 3:00 pm - 6:30 pm , Saturday 8:00 am - 12:00 pm , Sunday 12:00 pm - 4:00 pm ",,,0
,,901 E. Nifong Blvd,,Columbia,Missouri,65201,USA,573-445-3152,,,"Monday 8:00 am - 1:00 pm 3:00 pm - 8:00 pm , Tuesday 5:00 am - 1:00 pm 3:00 pm - 8:00 pm , Wednesday 8:00 am - 1:00 pm 3:00 pm - 8:00 pm , Thursday 5:00 am - 1:00 pm 3:00 pm - 8:00 pm , Friday 8:00 am - 1:00 pm 3:00 pm - 6:30 pm , Saturday 8:00 am - 2:00 pm ",,,0
,,2338 Grand Ave.,,Billings,Montana,59102,USA,(406) 969-5741,,,"Monday 5:30 am - 1:00 pm 3:30 pm - 8:00 pm , Tuesday 5:30 am - 1:00 pm 3:30 pm - 8:00 pm , Wednesday 5:30 am - 1:00 pm 3:30 pm - 8:00 pm , Thursday 5:30 am - 1:00 pm 3:30 pm - 8:00 pm , Friday 5:30 am - 1:00 pm 3:30 pm - 6:30 pm , Saturday 8:00 am - 12:00 pm ",,,0
,,6304 N Chatham Ave.,,Kansas City,Missouri,64151,USA,816-505-9991,,,"Monday 5:00 am - 1:30 pm 3:30 pm - 8:00 pm , Tuesday 5:30 am - 1:30 pm 3:30 pm - 8:00 pm , Wednesday 5:00 am - 1:30 pm 3:30 pm - 8:00 pm , Thursday 5:30 am - 1:30 pm 3:30 pm - 8:00 pm , Friday 5:00 am - 1:30 pm 3:30 pm - 6:00 pm , Saturday 8:00 am - 12:00 pm ",,,0
,,"4793 Point Fosdick Dr. NW, Suite 100",,Gig Harbor,Washington,98335,USA,(253) 514-6670,,,"Monday 8:00 am - 1:00 pm 3:30 pm - 8:00 pm , Tuesday 8:00 am - 1:00 pm 3:30 pm - 8:00 pm , Wednesday 8:00 am - 1:00 pm 3:30 pm - 8:00 pm , Thursday 8:00 am - 1:00 pm 3:30 pm - 8:00 pm , Friday 8:00 am - 1:00 pm 3:30 pm - 7:00 pm , Saturday 8:00 am - 12:00 pm ",,,0
,,9758 N Ash Avenue,,Kansas City,Missouri,64157,USA,1-816-792-9995,,,"Monday 5:00 am - 8:00 pm , Tuesday 5:00 am - 8:00 pm , Wednesday 5:00 am - 8:00 pm , Thursday 5:00 am - 8:00 pm , Friday 5:00 am - 6:00 pm , Saturday 8:00 am - 12:00 pm , Sunday 11:30 am - 2:30 pm ",,,0
,,1412 SW MO 7 Hwy,,Blue Springs,Missouri,64014,USA,(816) 224-1990,,,"Monday 5:00 am - 1:00 pm 3:00 pm - 8:00 pm , Tuesday 5:30 am - 1:00 pm 3:00 pm - 8:00 pm , Wednesday 5:00 am - 1:00 pm 3:00 pm - 8:00 pm , Thursday 5:30 am - 1:00 pm 3:00 pm - 8:00 pm , Friday 5:00 am - 1:00 pm 3:00 pm - 6:00 pm , Saturday 8:00 am - 1:00 pm ",,,0
,,824 W. Foxwood Drive,,Raymore,Missouri,64083,USA,8163883688,,,"Monday 5:30 am - 1:00 pm 3:30 pm - 8:00 pm , Tuesday 5:30 am - 1:00 pm 3:30 pm - 8:00 pm , Wednesday 5:30 am - 1:00 pm 3:30 pm - 8:00 pm , Thursday 5:30 am - 1:00 pm 3:30 pm - 8:00 pm , Friday 5:30 am - 1:00 pm 3:30 pm - 6:30 pm , Saturday 8:00 am - 1:00 pm ",,,0
,,12660-A 164th Ave SE,,Renton,Washington,98059,USA,425.207.8300,,,"Monday 8:00 am - 1:00 pm 3:30 pm - 8:00 pm , Tuesday 5:30 am - 1:00 pm 3:30 pm - 8:00 pm , Wednesday 8:00 am - 1:00 pm 3:30 pm - 8:00 pm , Thursday 5:30 am - 1:00 pm 3:30 pm - 8:00 pm , Friday 8:00 am - 1:00 pm 3:30 pm - 7:00 pm , Saturday 8:00 am - 12:00 pm ",,,0
,,400 Tiffany Drive,,Waynesboro,Virginia,22980,USA,540-221-4609,,,"Monday 6:00 am - 1:30 pm 3:00 pm - 8:00 pm , Tuesday 6:00 am - 1:30 pm 3:00 pm - 8:00 pm , Wednesday 6:00 am - 1:30 pm 3:00 pm - 8:00 pm , Thursday 6:00 am - 1:30 pm 3:00 pm - 8:00 pm , Friday 6:00 am - 1:30 pm 3:00 pm - 7:00 pm , Saturday 9:00 am - 1:00 pm ",,,0
,,20825 Highway 410,,Bonney Lake,Washington,98390,USA,253-501-6983,,,,,,0
,,373 Garrisonville Rd. Suite 101,,Stafford,Virginia,22554,USA,(540) 300-2234,,,"Monday 7:00 am - 1:30 pm 3:30 pm - 9:00 pm , Tuesday 8:00 am - 1:30 pm 3:30 pm - 9:00 pm , Wednesday 7:00 am - 1:30 pm 3:30 pm - 9:00 pm , Thursday 8:00 am - 1:00 pm 3:30 pm - 9:00 pm , Friday 8:00 am - 1:30 pm 3:30 pm - 7:00 pm , Saturday 8:00 am - 12:00 pm ",,,0
,,2301 Urchin Rd,,Virginia Beach,Virginia,23451,USA,757-321-2933,,,"Monday 8:00 am - 1:00 pm 3:30 pm - 8:00 pm , Tuesday 6:00 am - 10:00 am 11:00 am - 1:00 pm 3:30 pm - 8:00 pm , Wednesday 6:00 am - 10:00 am 11:00 am - 1:00 pm 3:30 pm - 8:00 pm , Thursday 6:00 am - 10:00 am 11:00 am - 1:00 pm 3:30 pm - 8:00 pm , Friday 8:00 am - 1:00 pm 3:30 pm - 7:00 pm , Saturday 8:00 am - 12:00 pm ",,,0
,,3330 South Crater Road,,Petersburg,Virginia,23805,USA,(804)541-7678,,,"Monday 8:00 am - 1:00 pm 3:00 pm - 8:00 pm , Tuesday 8:00 am - 1:00 pm 3:00 pm - 8:00 pm , Wednesday 8:00 am - 1:00 pm 3:00 pm - 8:00 pm , Thursday 8:00 am - 1:00 pm 3:00 pm - 8:00 pm , Friday 8:00 am - 1:00 pm 3:00 pm - 7:00 pm , Saturday 8:00 am - 1:00 pm ",,,0
,,2243-C Old Bridge Rd,,Lake Ridge,Virginia,22192,USA,703-491-3000 or 3001,,,"Monday 8:30 am - 1:30 pm 3:30 pm - 8:00 pm , Tuesday 8:30 am - 1:30 pm 3:30 pm - 9:00 pm , Wednesday 8:30 am - 1:30 pm 3:30 pm - 8:00 pm , Thursday 8:30 am - 1:30 pm 3:30 pm - 9:00 pm , Friday 8:30 am - 1:30 pm 3:30 pm - 7:00 pm , Saturday 9:00 am - 2:00 pm ",,,0
,,"13965 Raised Antler Circle, Midlothian, VA 23112",,Midlothian,Virginia,23112,USA,804.404-2448,,,"Monday 8:00 am - 1:30 pm 3:30 pm - 8:00 pm , Tuesday 6:00 am - 1:30 pm 3:30 pm - 8:00 pm , Wednesday 8:00 am - 1:30 pm 3:30 pm - 8:00 pm , Thursday 6:00 am - 1:30 pm 3:30 pm - 8:00 pm , Friday 8:00 am - 1:30 pm 3:30 pm - 7:00 pm , Saturday 8:00 am - 1:00 pm ",,,0
,,3442 Lauderdale Dr,,Henrico,Virginia,23233,USA,804-447-6884,,,"Monday 7:00 am - 1:00 pm 3:30 pm - 8:00 pm , Tuesday 5:30 am - 1:00 pm 3:30 pm - 8:00 pm , Wednesday 7:00 am - 1:00 pm 3:30 pm - 8:00 pm , Thursday 5:30 am - 1:00 pm 3:30 pm - 8:00 pm , Friday 7:00 am - 1:00 pm 3:30 pm - 7:00 pm , Saturday 8:00 am - 12:00 pm ",,,0
,,5556 Staples Mill Plaza,,Woodbridge,Virginia,22193,USA,703-910-3315,,,"Monday 6:00 am - 11:00 am 3:00 pm - 8:00 pm , Tuesday 6:00 am - 11:00 am 3:00 pm - 8:00 pm , Wednesday 6:00 am - 11:00 am 3:00 pm - 8:00 pm , Thursday 6:00 am - 11:00 am 3:00 pm - 8:00 pm , Friday 6:00 am - 11:00 am 3:00 pm - 7:00 pm , Saturday 8:00 am - 12:00 pm ",,,0
,,3940 Plank Road,,Fredericksburg,Virginia,22407,USA,540-300-2234,,,"Monday 8:00 am - 1:30 pm 3:30 pm - 9:00 pm , Tuesday 8:00 am - 1:30 pm 3:30 pm - 9:00 pm , Wednesday 8:00 am - 1:30 pm 3:30 pm - 9:00 pm , Thursday 8:00 am - 1:30 pm 3:30 pm - 9:00 pm , Friday 8:00 am - 1:30 pm 3:30 pm - 7:00 pm , Saturday 8:00 am - 12:00 pm ",,,0
,,6649 Arlington Blvd,,Falls Church,Virginia,22042,USA,703-276-9763,,,"Monday 4:00 pm - 9:00 pm , Tuesday 6:30 am - 9:30 am 4:00 pm - 9:00 pm , Wednesday 4:00 pm - 9:00 pm , Thursday 6:30 am - 9:30 am 4:00 pm - 9:00 pm , Friday 6:30 am - 9:30 am 4:00 pm - 7:00 pm , Saturday 10:00 am - 2:00 pm ",,,0
,,"2131 General Booth Blvd, unit 124",,Virginia Beach,Virginia,23454,USA,757-689-4734,,,"Monday 6:00 am - 9:30 am 11:00 am - 1:00 pm 3:30 pm - 8:00 pm , Tuesday 8:00 am - 1:00 pm 3:30 pm - 8:00 pm , Wednesday 6:00 am - 9:30 am 11:00 am - 1:00 pm 3:30 pm - 8:00 pm , Thursday 8:00 am - 1:00 pm 3:30 pm - 8:00 pm , Friday 8:00 am - 1:00 pm 3:30 pm - 8:00 pm , Saturday 8:00 am - 12:00 pm ",,,0
,,1770 TIMBERWOOD BLVD STE 105,,Charlottesville,Virginia,22911-7501,USA,434-974-9000,,,"Monday 8:30 am - 1:30 pm 4:00 pm - 8:00 pm , Tuesday 6:30 am - 1:30 pm 4:00 pm - 7:30 pm , Wednesday 8:30 am - 1:30 pm 4:00 pm - 8:00 pm , Thursday 6:30 am - 1:30 pm 4:00 pm - 7:30 pm , Friday 8:30 am - 1:30 pm 4:00 pm - 6:30 pm , Saturday 8:30 am - 12:00 pm ",,,0
,,4321 E. Claiborne Square,,Hampton,Virginia,23666,USA,757-825-1504,,,"Monday 8:00 am - 1:30 pm 3:30 pm - 8:00 pm , Tuesday 8:00 am - 1:30 pm 3:30 pm - 8:00 pm , Wednesday 8:00 am - 1:30 pm 3:30 pm - 8:00 pm , Thursday 8:00 am - 1:30 pm 3:30 pm - 8:00 pm , Friday 8:00 am - 1:30 pm 3:30 pm - 7:00 pm , Saturday 8:00 am - 12:00 pm ",,,0
,,"1320 Kempsville Rd,",,Chesapeake,Virginia,23320,USA,757-410-8653,,,"Monday 8:00 am - 1:00 pm 3:30 pm - 8:00 pm , Tuesday 6:00 am - 9:30 am 11:00 am - 1:00 pm 3:30 pm - 8:00 pm , Wednesday 8:00 am - 1:00 pm 3:30 pm - 8:00 pm , Thursday 6:00 am - 9:30 am 11:00 am - 1:00 pm 3:30 pm - 8:00 pm , Friday 8:00 am - 1:00 pm 3:30 pm - 7:00 pm , Saturday 8:00 am - 12:00 pm ",,,0
,,1956 Abbey Rd / Pantops Giant Shopping Center,,Charlottesville,Virginia,22911,USA,434-295-9000,,,"Monday 6:30 am - 1:30 pm 4:00 pm - 7:30 pm , Tuesday 8:30 am - 1:30 pm 4:00 pm - 7:30 pm , Wednesday 6:30 am - 1:30 pm 4:00 pm - 7:30 pm , Thursday 8:30 am - 1:30 pm 4:00 pm - 7:30 pm , Friday 8:30 am - 1:30 pm 4:00 pm - 6:30 pm , Saturday 8:30 am - 12:00 pm ",,,0
,,6410 Brandon Avenue,,Springfield,Virginia,22150,USA,(703) 923-0900,,,"Monday 9:00 am - 1:00 pm 3:30 pm - 8:00 pm , Tuesday 6:00 am - 11:00 am 3:30 pm - 8:00 pm , Wednesday 9:00 am - 1:00 pm 3:30 pm - 8:00 pm , Thursday 6:00 am - 11:00 am 3:30 pm - 8:00 pm , Friday 9:00 am - 1:00 pm 3:30 pm - 8:00 pm , Saturday 9:00 am - 1:00 pm ",,,0
,,717 S Battlefield Blvd. Suite 12 (Glenwood Square),,Chesapeake,Virginia,23322,USA,757-819-6678,,,"Monday 5:30 am - 11:00 am 3:30 pm - 8:00 pm , Tuesday 8:00 am - 1:00 pm 3:30 pm - 8:00 pm , Wednesday 5:30 am - 11:00 am 3:30 pm - 8:00 pm , Thursday 8:00 am - 1:00 pm 3:30 pm - 8:00 pm , Friday 5:30 am - 11:00 am 3:30 pm - 7:00 pm , Saturday 8:00 am - 12:00 pm ",,,0
,,"22621 Amendola Terrace, Suite #185",,Ashburn,Virginia,20148,USA,703.832.8044,,,"Monday 6:30 am - 11:00 am 4:00 pm - 8:00 pm , Tuesday 6:30 am - 11:00 am 4:00 pm - 8:00 pm , Wednesday 7:00 am - 11:00 am 4:00 pm - 8:00 pm , Thursday 6:30 am - 11:00 am 4:00 pm - 5:45 pm , Friday 7:00 am - 11:00 am 4:00 pm - 7:00 pm , Saturday 8:00 am - 12:30 pm ",,,0
,,69305 Hwy 21,,Covington,Louisiana,70433,USA,985-276-4688,,,"Monday 7:00 am - 1:00 pm 3:30 pm - 8:00 pm , Tuesday 8:00 am - 1:00 pm 3:00 pm - 8:00 pm , Wednesday 7:00 am - 1:00 pm 3:30 pm - 8:00 pm , Thursday 8:00 am - 1:00 pm 3:30 pm - 8:00 pm , Friday 7:00 am - 1:00 pm 3:30 pm - 6:00 pm , Saturday 7:00 am - 12:00 pm ",,,0
,,4139 SHELBYVILLE RD,,ST MATTHEWS,Kentucky,40207-3203,USA,(502) 822-3505,,,"Monday 8:00 am - 1:30 pm 3:30 pm - 8:00 pm , Tuesday 8:00 am - 1:30 pm 3:30 pm - 8:00 pm , Wednesday 8:00 am - 1:30 pm 3:30 pm - 8:00 pm , Thursday 8:00 am - 1:30 pm 3:30 pm - 8:00 pm , Friday 8:00 am - 1:30 pm 3:30 pm - 7:00 pm , Saturday 8:00 am - 1:30 pm ",,,0
,,"9217-H, US HWY 42  (in the Prospect Professional Center)",,Prospect,Kentucky,40059,USA,502-822-2499,,,"Monday 7:00 am - 1:00 pm 3:00 pm - 8:00 pm , Tuesday 7:00 am - 1:00 pm 3:00 pm - 8:00 pm , Wednesday 7:00 am - 1:00 pm 3:00 pm - 8:00 pm , Thursday 7:00 am - 1:00 pm 3:00 pm - 8:00 pm , Friday 7:00 am - 1:00 pm 3:00 pm - 6:30 pm , Saturday 8:00 am - 12:30 pm ",,,0
,,8323 West 135th Street,,Overland Park,Kansas,66223,USA,913-402-9999,,,"Monday 6:00 am - 1:00 pm 3:30 pm - 8:00 pm , Tuesday 6:00 am - 1:00 pm 3:30 pm - 8:00 pm , Wednesday 6:00 am - 1:00 pm 3:30 pm - 8:00 pm , Thursday 6:00 am - 1:00 pm 3:30 pm - 8:00 pm , Friday 8:00 am - 1:00 pm 3:30 pm - 6:00 pm , Saturday 8:00 am - 12:00 pm ",,,0
,,18583 W 151st St,,Olathe,Kansas,66062,USA,Call or Text Us 913-390-1174,,,"Monday 5:30 am - 1:30 pm 3:30 pm - 8:00 pm , Tuesday 8:00 am - 1:30 pm 3:30 pm - 8:00 pm , Wednesday 5:30 am - 1:30 pm 3:30 pm - 8:00 pm , Thursday 8:00 am - 1:30 pm 3:30 pm - 8:00 pm , Friday 5:30 am - 1:30 pm 3:30 pm - 6:00 pm , Saturday 8:00 am - 12:00 pm ",,,0
,,1905 Kaliste Saloom Rd. Suite 102,,Lafayette,Louisiana,70508,USA,337.415.9763,,,"Monday 7:00 am - 1:30 pm 3:30 pm - 7:00 pm , Tuesday 7:00 am - 1:30 pm 3:30 pm - 7:00 pm , Wednesday 7:00 am - 1:30 pm 3:30 pm - 7:00 pm , Thursday 7:00 am - 1:30 pm 3:30 pm - 7:00 pm , Friday 7:00 am - 3:00 pm , Saturday 9:00 am - 12:00 pm ",,,0
,,1428 Towne Lake Parkway suite 106,,Woodstock,Georgia,30189,USA,678.483.6044,,,"Monday 8:00 am - 1:30 pm 3:30 pm - 8:00 pm , Tuesday 8:00 am - 1:30 pm 3:30 pm - 8:00 pm , Wednesday 8:00 am - 1:30 pm 3:30 pm - 8:00 pm , Thursday 8:00 am - 1:30 pm 3:30 pm - 8:00 pm , Friday 8:00 am - 1:30 pm 3:30 pm - 7:00 pm , Saturday 8:00 am - 12:00 pm ",,,0
,,13217 Shawnee Mission Parkway,,Shawnee,Kansas,66216,USA,913-730-8681,,,"Monday 6:00 am - 1:00 pm 3:30 pm - 8:00 pm , Tuesday 6:00 am - 1:00 pm 3:30 pm - 8:00 pm , Wednesday 6:00 am - 1:00 pm 3:30 pm - 8:00 pm , Thursday 6:00 am - 1:00 pm 3:30 pm - 8:00 pm , Friday 6:00 am - 1:00 pm 3:30 pm - 6:00 pm , Saturday 8:00 am - 12:00 pm ",,,0
,,3993 E 120th Ave,,Thornton,Colorado,80241,USA,720-408-2758,,,"Monday 6:00 am - 11:00 am 3:30 pm - 8:00 pm , Tuesday 6:00 am - 11:00 am 3:30 pm - 8:00 pm , Wednesday 6:00 am - 11:00 am 3:30 pm - 8:00 pm , Thursday 6:00 am - 11:00 am 3:30 pm - 8:00 pm , Friday 6:00 am - 11:00 am 3:30 pm - 6:00 pm , Saturday 8:00 am - 12:00 pm ",,,0
,,1001 W. 75th Street,,Woodridge,Illinois,60517,USA,630-930-8439,,,"Monday 5:30 am - 1:00 pm 3:30 pm - 8:00 pm , Tuesday 8:00 am - 1:00 pm 3:30 pm - 8:00 pm , Wednesday 5:30 am - 1:00 pm 3:30 pm - 8:00 pm , Thursday 8:00 am - 1:00 pm 3:30 pm - 8:00 pm , Friday 5:30 am - 1:00 pm 3:30 pm - 7:00 pm , Saturday 8:00 am - 12:00 pm , Sunday 9:00 am - 12:00 pm ",,,0
,,5645 Pebble Village Lane,,Noblesville,Indiana,46062,USA,317-219-3456,,,"Monday 8:00 am - 1:30 pm 3:30 pm - 8:00 pm , Tuesday 6:00 am - 1:30 pm 3:30 pm - 8:00 pm , Wednesday 8:00 am - 1:30 pm 3:30 pm - 8:00 pm , Thursday 6:00 am - 1:30 pm 3:30 pm - 8:00 pm , Friday 8:00 am - 1:30 pm 3:30 pm - 6:00 pm , Saturday 8:00 am - 12:00 pm ",,,0
,,4565 New Linden Hill Rd,,Wilmington,Delaware,19808,USA,302-525-6045,,,"Monday 5:30 am - 1:30 pm 3:30 pm - 8:00 pm , Tuesday 5:30 am - 1:30 pm 3:30 pm - 8:00 pm , Wednesday 5:30 am - 1:30 pm 3:30 pm - 8:00 pm , Thursday 5:30 am - 1:30 pm 3:30 pm - 8:00 pm , Friday 5:30 am - 1:30 pm 3:30 pm - 6:30 pm , Saturday 7:30 am - 1:00 pm ",,,0
,,"1201 Winter Garden Vineland Road, suite 6-B",,Winter Garden,Florida,34787,USA,(407) 347-7644,,,"Monday 8:00 am - 1:30 pm 4:00 pm - 8:00 pm , Tuesday 8:00 am - 1:30 pm 4:00 pm - 8:00 pm , Wednesday 8:00 am - 1:30 pm 4:00 pm - 8:00 pm , Thursday 8:00 am - 1:30 pm 4:00 pm - 8:00 pm , Friday 8:00 am - 1:30 pm 4:00 pm - 7:00 pm , Saturday 8:00 am - 12:00 pm ",,,0
,,280 Branford Road,,North Branford,Connecticut,06471,USA,203-488-1341,,,"Monday 6:00 am - 1:00 pm 3:00 pm - 8:00 pm , Tuesday 8:00 am - 1:00 pm 3:00 pm - 8:00 pm , Wednesday 6:00 am - 1:00 pm 3:00 pm - 8:00 pm , Thursday 8:00 am - 1:00 pm 3:00 pm - 8:00 pm , Friday 6:00 am - 1:00 pm 3:00 pm - 6:30 pm , Saturday 8:00 am - 12:00 pm ",,,0
,,785 Boston Post Road,,Old Saybrook,Connecticut,06475,USA,(860) 661-5138,,,"Monday 6:00 am - 1:00 pm 3:00 pm - 8:00 pm , Tuesday 8:00 am - 1:00 pm 3:00 pm - 8:00 pm , Wednesday 6:00 am - 1:00 pm 3:00 pm - 8:00 pm , Thursday 8:00 am - 1:00 pm 3:00 pm - 8:00 pm , Friday 6:00 am - 1:00 pm 3:00 pm - 6:30 pm , Saturday 8:00 am - 12:00 pm ",,,0
,,665 North Colony Road,,Wallingford,Connecticut,06492,USA,203-626-9691,,,"Monday 6:00 am - 1:00 pm 3:00 pm - 8:00 pm , Tuesday 8:00 am - 1:00 pm 3:00 pm - 8:00 pm , Wednesday 6:00 am - 1:00 pm 3:00 pm - 8:00 pm , Thursday 8:00 am - 1:00 pm 3:00 pm - 8:00 pm , Friday 6:00 am - 1:00 pm 3:00 pm - 6:30 pm , Saturday 8:00 am - 12:00 pm ",,,0
,,1007 Waukegan Road,,Northbrook,Illinois,60062,USA,224-235-4840,,,"Monday 7:30 am - 11:00 am 12:30 pm - 8:00 pm , Tuesday 7:30 am - 11:00 am 12:30 pm - 8:00 pm , Wednesday 6:00 am - 11:00 am 12:30 pm - 8:00 pm , Thursday 7:30 am - 11:00 am 12:30 pm - 8:00 pm , Friday 6:00 am - 11:00 am 12:30 pm - 6:00 pm , Saturday 7:30 am - 2:00 pm ",,,0
,,779-807 Newfield Street,,Middletown,Connecticut,06457,USA,860-349-2321,,,"Monday 6:00 am - 1:00 pm 3:00 pm - 8:00 pm , Tuesday 8:00 am - 1:00 pm 3:00 pm - 8:00 pm , Wednesday 6:00 am - 1:00 pm 3:00 pm - 8:00 pm , Thursday 8:00 am - 1:00 pm 3:00 pm - 8:00 pm , Friday 6:00 am - 1:00 pm 3:00 pm - 6:30 pm , Saturday 8:00 am - 12:00 pm ",,,0
,,1348 Patriot Blvd,,Glenview,Illinois,60026,USA,224-616-3348,,,"Monday 7:30 am - 1:00 pm 3:00 pm - 8:00 pm , Tuesday 6:00 am - 1:00 pm 3:00 pm - 8:00 pm , Wednesday 7:30 am - 1:00 pm 3:00 pm - 8:00 pm , Thursday 6:00 am - 1:00 pm 3:00 pm - 8:00 pm , Friday 6:30 am - 1:00 pm 3:00 pm - 6:00 pm , Saturday 8:00 am - 12:00 pm , Sunday 9:00 am - 1:00 pm ",,,0
,,1706 Central Street,,Evanston,Illinois,60201,USA,224-714-3003,,,"Monday 5:00 am - 1:00 pm 3:00 pm - 8:00 pm , Tuesday 5:00 am - 1:00 pm 3:00 pm - 8:00 pm , Wednesday 5:00 am - 1:00 pm 3:00 pm - 8:00 pm , Thursday 5:00 am - 1:00 pm 3:00 pm - 8:00 pm , Friday 5:00 am - 1:00 pm 3:00 pm - 8:00 pm , Saturday 8:00 am - 12:00 pm , Sunday 8:00 am - 12:00 pm ",,,0
,,2128 East Grand Avenue,,Lindenhurst,Illinois,60046,USA,1 847 356 6309,,,"Monday 8:00 am - 1:30 pm 3:30 pm - 8:00 pm , Tuesday 7:30 am - 1:30 pm 3:30 pm - 8:00 pm , Wednesday 8:00 am - 1:30 pm 3:30 pm - 8:00 pm , Thursday 7:30 am - 1:30 pm 3:30 pm - 8:00 pm , Friday 8:00 am - 1:30 pm 3:30 pm - 7:00 pm , Saturday 7:00 am - 12:00 pm , Sunday 10:00 am - 1:00 pm ",,,0
,,100 S. Atkinson,,Grayslake,Illinois,60030,USA,847-356-6309,,,"Monday 8:00 am - 1:30 pm 3:30 pm - 8:00 pm , Tuesday 8:00 am - 1:30 pm 3:30 pm - 8:00 pm , Wednesday 8:00 am - 1:30 pm 3:30 pm - 8:00 pm , Thursday 8:00 am - 1:30 pm 3:30 pm - 8:00 pm , Friday 8:00 am - 1:30 pm 3:30 pm - 7:00 pm , Saturday 8:00 am - 1:00 pm , Sunday 10:00 am - 1:00 pm ",,,0
,,"1063 S. State Route 157, Suite 1",,Edwardsville,Illinois,62025,USA,618-307-5105,,,"Monday 5:30 am - 1:00 pm 3:00 pm - 8:00 pm , Tuesday 8:00 am - 1:00 pm 3:00 pm - 8:00 pm , Wednesday 5:30 am - 1:00 pm 3:00 pm - 8:00 pm , Thursday 8:00 am - 1:00 pm 3:00 pm - 8:00 pm , Friday 5:30 am - 1:00 pm 3:00 pm - 6:00 pm , Saturday 8:00 am - 12:00 pm ",,,0
,,1744 W. Division St.,,Chicago,Illinois,60622,USA,(773) 295-0810,,,"Monday 6:30 am - 12:00 pm 4:00 pm - 8:00 pm , Tuesday 6:30 am - 12:00 pm 4:00 pm - 8:00 pm , Wednesday 6:30 am - 12:00 pm 4:00 pm - 8:00 pm , Thursday 6:30 am - 12:00 pm 4:00 pm - 8:00 pm , Friday 6:30 am - 12:00 pm 4:00 pm - 7:00 pm , Saturday 9:00 am - 1:00 pm ",,,0
,,133 Park Ave,,Barrington,Illinois,60010,USA,847-924-1336,,,"Monday 6:00 am - 8:00 pm , Tuesday 6:00 am - 8:00 pm , Wednesday 6:00 am - 8:00 pm , Thursday 6:00 am - 8:00 pm , Friday 6:00 am - 8:00 pm , Saturday 8:00 am - 1:30 pm ",,,0
,,972 West Main St,,Branford,Connecticut,06405,USA,855-9ROUND1,,,"Monday 6:00 am - 1:00 pm 3:00 pm - 8:00 pm , Tuesday 8:00 am - 1:00 pm 3:00 pm - 8:00 pm , Wednesday 6:00 am - 1:00 pm 3:00 pm - 8:00 pm , Thursday 8:00 am - 1:00 pm 3:00 pm - 8:00 pm , Friday 6:00 am - 1:00 pm 3:00 pm - 6:30 pm , Saturday 8:00 am - 12:00 pm ",,,0
,,239 S State Road 135,,Greenwood,Indiana,46142,USA,(317) 300-1830,,,"Monday 6:00 am - 1:30 pm 3:30 pm - 8:00 pm , Tuesday 8:00 am - 1:30 pm 3:30 pm - 8:00 pm , Wednesday 6:00 am - 1:30 pm 3:30 pm - 8:00 pm , Thursday 8:00 am - 1:30 pm 3:30 pm - 8:00 pm , Friday 6:00 am - 1:30 pm 3:30 pm - 6:00 pm , Saturday 8:00 am - 1:30 pm ",,,0
,,15 South Dunton Ave.,,Arlington Heights,Illinois,60010,USA,847 398 7600,,,"Monday 6:00 am - 8:00 pm , Tuesday 6:00 am - 8:00 pm , Wednesday 6:00 am - 8:00 pm , Thursday 6:00 am - 8:00 pm , Friday 6:00 am - 8:00 pm , Saturday 8:00 am - 1:30 pm ",,,0
,,10357 Illinois Rd,,Fort Wayne,Indiana,46814,USA,260-271-1494,,,"Monday 8:00 am - 1:30 pm 3:30 pm - 8:00 pm , Tuesday 8:00 am - 1:30 pm 3:30 pm - 8:00 pm , Wednesday 8:00 am - 1:30 pm 3:30 pm - 8:00 pm , Thursday 8:00 am - 1:30 pm 3:30 pm - 8:00 pm , Friday 8:00 am - 1:30 pm 3:30 pm - 7:00 pm , Saturday 8:00 am - 12:00 pm ",,,0
,,1257 W. Fullerton Ave.,,Chicago,Illinois,60614,USA,773-649-5757,,,"Monday 8:00 am - 12:00 pm 3:00 pm - 8:00 pm , Tuesday 8:00 am - 12:00 pm 3:00 pm - 8:00 pm , Wednesday 8:00 am - 12:00 pm 3:00 pm - 8:00 pm , Thursday 8:00 am - 12:00 pm 3:00 pm - 8:00 pm , Friday 8:00 am - 12:00 pm 3:00 pm - 8:00 pm , Saturday 10:00 am - 2:00 pm ",,,0
,,"1601 Concord Pike , suite 17 & 19",,Wilmington,Delaware,19803,USA,(302) 428-9922,,,"Monday 6:00 am - 8:00 pm , Tuesday 6:00 am - 8:00 pm , Wednesday 6:00 am - 8:00 pm , Thursday 6:00 am - 8:00 pm , Friday 6:00 am - 6:30 pm , Saturday 7:30 am - 1:00 pm ",,,0
,,"9873 N. Michigan Road, Suite 135",,Carmel,Indiana,46032,USA,317-731-7249,,,"Monday 6:00 am - 1:30 pm 3:30 pm - 8:00 pm , Tuesday 5:30 am - 1:30 pm 3:30 pm - 8:00 pm , Wednesday 6:00 am - 1:30 pm 3:30 pm - 8:00 pm , Thursday 8:00 am - 1:30 pm 3:30 pm - 8:00 pm , Friday 6:00 am - 1:30 pm 3:30 pm - 6:00 pm , Saturday 8:00 am - 12:00 pm ",,,0
,,"7045 Emblem Drive, Suite D",,Indianapolis,Indiana,46237,USA,(317) 883-1374,,,"Monday 6:00 am - 1:30 pm 3:30 pm - 8:00 pm , Tuesday 8:00 am - 1:30 pm 3:30 pm - 8:00 pm , Wednesday 6:00 am - 1:30 pm 3:30 pm - 8:00 pm , Thursday 8:00 am - 1:30 pm 3:30 pm - 8:00 pm , Friday 6:00 am - 1:30 pm 3:30 pm - 6:00 pm , Saturday 8:00 am - 1:30 pm ",,,0
,,7615 East US Highway 36,,Avon,Indiana,46123,USA,(317) 268-6486,,,"Monday 6:00 am - 1:30 pm 3:30 pm - 8:00 pm , Tuesday 8:00 am - 1:30 pm 3:30 pm - 8:00 pm , Wednesday 6:00 am - 1:30 pm 3:30 pm - 8:00 pm , Thursday 8:00 am - 1:30 pm 3:30 pm - 8:00 pm , Friday 6:00 am - 1:30 pm 3:30 pm - 6:00 pm , Saturday 8:00 am - 1:30 pm ",,,0
,,1434 Keystone Way,,Carmel,Indiana,46032,USA,765-278-2661,,,"Monday 8:00 am - 1:30 pm 3:30 pm - 8:00 pm , Tuesday 6:00 am - 1:30 pm 3:30 pm - 8:00 pm , Wednesday 8:00 am - 1:30 pm 3:30 pm - 8:00 pm , Thursday 6:00 am - 1:30 pm 3:30 pm - 8:00 pm , Friday 8:00 am - 1:30 pm 3:30 pm - 5:30 pm ",,,0
,,375 S. McCaslin Blvd. Suite A,,Louisville,Colorado,80027,USA,720-398-9977,,,"Monday 6:00 am - 1:00 pm 3:30 pm - 7:30 pm , Tuesday 6:00 am - 1:00 pm 3:30 pm - 7:30 pm , Wednesday 6:00 am - 1:00 pm 3:30 pm - 7:30 pm , Thursday 6:00 am - 1:00 pm 3:30 pm - 7:30 pm , Friday 6:00 am - 1:00 pm 3:30 pm - 6:30 pm , Saturday 8:00 am - 12:00 pm ",,,0
,,978 E. Eisenhower,,Loveland,Colorado,80537,USA,(970) 619-8291,,,"Monday 6:00 am - 1:00 pm 3:30 pm - 8:00 pm , Tuesday 9:00 am - 1:00 pm 3:30 pm - 8:00 pm , Wednesday 6:00 am - 1:00 pm 3:30 pm - 8:00 pm , Thursday 9:00 am - 1:00 pm 3:30 pm - 8:00 pm , Friday 6:00 am - 1:00 pm 3:30 pm - 6:00 pm , Saturday 8:00 am - 12:00 pm ",,,0
,,"1631 Pace St., Suite B-11",,Longmont,Colorado,80504,USA,303-772-8888,,,"Monday 5:30 am - 1:00 pm 3:30 pm - 8:00 pm , Tuesday 8:00 am - 1:00 pm 3:30 pm - 8:00 pm , Wednesday 5:30 am - 1:00 pm 3:30 pm - 8:00 pm , Thursday 8:00 am - 1:00 pm 3:30 pm - 8:00 pm , Friday 6:00 am - 1:00 pm 3:30 pm - 6:00 pm , Saturday 7:30 am - 12:00 pm ",,,0
,,9385 S Colorado Blvd Suite 105,,Highlands Ranch,Colorado,80126,USA,720-583-5237,,,"Monday 5:30 am - 1:00 pm 3:30 pm - 7:30 pm , Tuesday 8:00 am - 1:00 pm 3:30 pm - 7:30 pm , Wednesday 5:30 am - 1:00 pm 3:30 pm - 7:30 pm , Thursday 8:00 am - 1:00 pm 3:30 pm - 7:30 pm , Friday 5:30 am - 1:00 pm 3:30 pm - 6:00 pm , Saturday 8:00 am - 12:00 pm ",,,0
,,14065 Mundy Drive,,Fishers,Indiana,46038,USA,317-678-8120,,,"Monday 8:00 am - 1:30 pm 3:30 pm - 8:00 pm , Tuesday 6:00 am - 1:30 pm 3:30 pm - 8:00 pm , Wednesday 8:00 am - 1:30 pm 3:30 pm - 8:00 pm , Thursday 6:00 am - 1:30 pm 3:30 pm - 8:00 pm , Friday 8:00 am - 1:30 pm 3:30 pm - 6:30 pm , Saturday 8:00 am - 12:00 pm ",,,0
,,116 S Indiana Ave.,,Bloomington,Indiana,47408,USA,812-323-9494,,,"Monday 9:00 am - 1:30 pm 2:30 pm - 8:00 pm , Tuesday 9:00 am - 1:30 pm 2:30 pm - 8:00 pm , Wednesday 9:00 am - 1:30 pm 2:30 pm - 8:00 pm , Thursday 9:00 am - 1:30 pm 2:30 pm - 8:00 pm , Friday 9:00 am - 1:30 pm 2:30 pm - 8:00 pm , Saturday 9:00 am - 1:00 pm ",,,0
,,487 S. Broadway  #100,,Denver,Colorado,80209,USA,303-722-0318,,,"Monday 6:00 am - 1:30 pm 3:30 pm - 8:00 pm , Tuesday 6:00 am - 1:30 pm 3:30 pm - 8:00 pm , Wednesday 6:00 am - 1:30 pm 3:30 pm - 8:00 pm , Thursday 6:00 am - 1:30 pm 3:30 pm - 8:00 pm , Friday 6:00 am - 1:30 pm 3:30 pm - 8:00 pm , Saturday 8:00 am - 12:00 pm ",,,0
,,310 E 17th Ave,,Denver,Colorado,80203,USA,303-997-8295,,,"Monday 6:00 am - 1:30 pm 3:30 pm - 8:00 pm , Tuesday 6:00 am - 1:30 pm 3:30 pm - 8:00 pm , Wednesday 6:00 am - 1:30 pm 3:30 pm - 8:00 pm , Thursday 6:00 am - 1:30 pm 3:30 pm - 8:00 pm , Friday 6:00 am - 1:30 pm 3:30 pm - 6:30 pm , Saturday 8:00 am - 12:00 pm ",,,0
,,16522 Keystone Blvd. Unit K,,Parker,Colorado,80134,USA,720-343-7822,,,"Monday 6:00 am - 1:00 pm 2:30 pm - 8:00 pm , Tuesday 6:00 am - 1:00 pm 2:30 pm - 8:00 pm , Wednesday 6:00 am - 1:00 pm 2:30 pm - 8:00 pm , Thursday 6:00 am - 1:00 pm 2:30 pm - 8:00 pm , Friday 6:00 am - 1:00 pm 2:30 pm - 6:30 pm , Saturday 8:30 am - 12:30 pm ",,,0
,,1001 South Tejon,,Colorado Springs,Colorado,80903,USA,(719) 473-5755,,,"Monday 5:30 am - 1:30 pm 4:00 pm - 7:30 pm , Tuesday 5:30 am - 1:30 pm 4:00 pm - 7:30 pm , Wednesday 7:30 am - 1:30 pm 4:00 pm - 7:30 pm , Thursday 5:30 am - 1:30 pm 4:00 pm - 7:30 pm , Friday 7:30 am - 1:30 pm 4:00 pm - 6:30 pm , Saturday 9:00 am - 12:00 pm , Sunday 11:00 am - 2:00 pm ",,,0
,,"4730 Centennial Blvd, Suite 101",,Colorado Springs,Colorado,80919,USA,719-528-6005,,,"Monday 5:30 am - 1:30 pm 4:00 pm - 7:30 pm , Tuesday 7:30 am - 1:30 pm 4:00 pm - 7:30 pm , Wednesday 5:30 am - 1:30 pm 4:00 pm - 7:30 pm , Thursday 7:30 am - 1:30 pm 4:00 pm - 7:30 pm , Friday 5:30 am - 1:30 pm 4:00 pm - 6:30 pm , Saturday 9:00 am - 12:00 pm ",,,0
,,5490 Powers Center Point Suite 156,,Colorado Springs,Colorado,80920,USA,719-282-8563,,,"Monday 5:30 am - 1:30 pm 4:00 pm - 7:30 pm , Tuesday 9:00 am - 1:30 pm 4:00 pm - 7:30 pm , Wednesday 5:30 am - 1:30 pm 4:00 pm - 7:30 pm , Thursday 9:00 am - 1:30 pm 4:00 pm - 7:30 pm , Friday 5:30 am - 1:30 pm 4:00 pm - 6:30 pm , Saturday 9:00 am - 12:00 pm ",,,0
,,1655 28th st,,Boulder,Colorado,80301,USA,303-443-5678,,,"Monday 8:00 am - 1:00 pm 3:30 pm - 8:00 pm , Tuesday 9:00 am - 1:00 pm 3:30 pm - 8:00 pm , Wednesday 8:00 am - 1:00 pm 3:30 pm - 8:00 pm , Thursday 9:00 am - 1:00 pm 3:30 pm - 8:00 pm , Friday 8:00 am - 1:00 pm 3:30 pm - 6:00 pm , Saturday 8:00 am - 12:00 pm ",,,0
,,5448 Central Florida Parkway,,Williamsburg,Florida,32821,USA,407-778-4616,,,"Monday 6:00 am - 1:00 pm 4:00 pm - 8:00 pm , Tuesday 6:00 am - 1:00 pm 4:00 pm - 8:00 pm , Wednesday 6:00 am - 1:00 pm 4:00 pm - 8:00 pm , Thursday 6:00 am - 1:00 pm 4:00 pm - 8:00 pm , Friday 6:00 am - 1:00 pm 4:00 pm - 7:00 pm , Saturday 8:00 am - 12:00 pm ",,,0
,,74 Capulet Dr. Suite 207,,St. Augustine,Florida,32092,USA,904-494-8308,,,"Monday 6:00 am - 12:30 pm 3:30 pm - 7:30 pm , Tuesday 7:00 am - 12:30 pm 3:30 pm - 7:30 pm , Wednesday 6:00 am - 12:30 pm 3:30 pm - 7:30 pm , Thursday 6:00 am - 12:30 pm 3:30 pm - 7:30 pm , Friday 7:00 am - 12:30 pm 3:30 pm - 6:30 pm , Saturday 8:00 am - 12:00 pm ",,,0
,,"13860 Wellington Trace, Suite 15",,Wellington,Florida,33414,USA,561-660-6131,,,,,,0
,,10930 Cross Creek Blvd.,,Tampa,Florida,33647,USA,813-803-7379,,,"Monday 5:00 am - 11:00 am 3:30 pm - 8:00 pm , Tuesday 8:00 am - 12:00 pm 3:30 pm - 8:00 pm , Wednesday 5:00 am - 11:00 am 3:30 pm - 8:00 pm , Thursday 8:00 am - 12:00 pm 3:30 pm - 8:00 pm , Friday 5:00 am - 11:00 am 3:30 pm - 7:00 pm , Saturday 8:00 am - 12:00 pm ",,,0
,,"11051 Southern Blvd., Suite 200",,Royal Palm,Florida,33411,USA,561-204-9699,,,"Monday 6:00 am - 1:00 pm 3:00 pm - 8:00 pm , Tuesday 6:00 am - 1:00 pm 3:00 pm - 8:00 pm , Wednesday 6:00 am - 1:00 pm 3:00 pm - 8:00 pm , Thursday 6:00 am - 1:00 pm 3:00 pm - 8:00 pm , Friday 6:00 am - 1:00 pm 3:00 pm - 8:00 pm , Saturday 8:00 am - 12:00 pm , Sunday 8:00 am - 12:00 pm ",,,0
,,2104 N. Flamingo Rd,,Pembroke Pines,Florida,33028,USA,954-251-3351,,,"Monday 8:00 am - 1:00 pm 4:00 pm - 8:00 pm , Tuesday 6:00 am - 1:00 pm 4:00 pm - 8:00 pm , Wednesday 8:00 am - 1:00 pm 4:00 pm - 8:00 pm , Thursday 6:00 am - 1:00 pm 4:00 pm - 8:00 pm , Friday 8:00 am - 1:00 pm 4:00 pm - 7:00 pm , Saturday 8:00 am - 12:00 pm ",,,0
,,3814 Northlake Blvd.,,Palm Beach Gardens,Florida,33403,USA,561-410-5959,,,"Monday 6:00 am - 1:30 pm 3:30 pm - 8:00 pm , Tuesday 6:00 am - 1:30 pm 3:30 pm - 8:00 pm , Wednesday 6:00 am - 1:30 pm 3:30 pm - 8:00 pm , Thursday 6:00 am - 1:30 pm 3:30 pm - 8:00 pm , Friday 8:00 am - 1:30 pm 3:30 pm - 7:00 pm , Saturday 8:00 am - 12:00 pm ",,,0
,,8130 W. Broward Blvd,,Plantation,Florida,33324,USA,954-370-4500,,,"Monday 8:30 am - 1:30 pm 4:00 pm - 8:00 pm , Tuesday 6:00 am - 1:30 pm 4:00 pm - 8:00 pm , Wednesday 8:30 am - 1:30 pm 4:00 pm - 8:00 pm , Thursday 6:00 am - 1:30 pm 4:00 pm - 8:00 pm , Friday 8:30 am - 1:30 pm 4:00 pm - 7:00 pm , Saturday 8:30 am - 12:30 pm , Sunday 8:30 am - 12:30 pm ",,,0
,,1100 4TH ST N  Ste 101,,St Petersburg,Florida,33701,USA,(727) 519-6947,,,"Monday 5:30 am - 1:00 pm 3:30 pm - 8:00 pm , Tuesday 5:30 am - 1:00 pm 3:30 pm - 8:00 pm , Wednesday 5:30 am - 1:00 pm 3:30 pm - 8:00 pm , Thursday 5:30 am - 1:00 pm 3:30 pm - 8:00 pm , Friday 5:30 am - 1:00 pm 3:30 pm - 7:00 pm , Saturday 8:00 am - 12:00 pm ",,,0
,,"2101 N Federal Highway, Suite 202",,Pompano Beach,Florida,33062,USA,9545325606,,,"Monday 8:00 am - 1:30 pm 3:30 pm - 8:00 pm , Tuesday 6:00 am - 1:30 pm 3:30 pm - 8:00 pm , Wednesday 8:00 am - 1:30 pm 3:30 pm - 8:00 pm , Thursday 6:00 am - 1:30 pm 3:30 pm - 8:00 pm , Friday 8:00 am - 1:30 pm 3:30 pm - 8:00 pm , Saturday 8:00 am - 12:00 pm ",,,0
,,18391  Pines Blvd,,Pembroke Pines,Florida,33029,USA,954-951-3507,,,"Monday 8:00 am - 1:00 pm 4:00 pm - 8:00 pm , Tuesday 6:00 am - 1:00 pm 4:00 pm - 8:00 pm , Wednesday 8:00 am - 1:00 pm 4:00 pm - 8:00 pm , Thursday 6:00 am - 1:00 pm 4:00 pm - 8:00 pm , Friday 8:00 am - 1:00 pm 4:00 pm - 7:00 pm , Saturday 8:00 am - 12:00 pm , Sunday 8:30 am - 12:00 pm ",,,0
,,3150 South Orange Ave,,ORLANDO,Florida,32806,USA,(321)441-4999,,,"Monday 6:00 am - 1:30 pm 3:30 pm - 8:00 pm , Tuesday 5:30 am - 1:30 pm 3:30 pm - 8:00 pm , Wednesday 6:00 am - 1:30 pm 3:30 pm - 8:00 pm , Thursday 5:30 am - 1:30 pm 3:30 pm - 8:00 pm , Friday 7:00 am - 1:30 pm 3:30 pm - 7:00 pm , Saturday 9:00 am - 2:00 pm ",,,0
,,1816 Jake Street,,ORLANDO,Florida,32814,USA,407-801-4818,,,"Monday 6:00 am - 1:30 pm 3:30 pm - 8:00 pm , Tuesday 6:00 am - 1:30 pm 3:30 pm - 8:00 pm , Wednesday 6:00 am - 1:30 pm 3:30 pm - 8:00 pm , Thursday 6:00 am - 1:30 pm 3:30 pm - 8:00 pm , Friday 6:00 am - 1:30 pm 3:30 pm - 7:00 pm , Saturday 9:00 am - 1:00 pm ",,,0
,,1954 W State Rd 426 #1160,,Oviedo,Florida,32765,USA,(407) 542-8118,,,"Monday 8:00 am - 1:00 pm 3:30 pm - 8:00 pm , Tuesday 6:00 am - 1:00 pm 3:30 pm - 8:00 pm , Wednesday 8:00 am - 1:00 pm 3:30 pm - 8:00 pm , Thursday 6:00 am - 1:00 pm 3:30 pm - 8:00 pm , Friday 8:00 am - 1:00 pm 3:30 pm - 7:00 pm , Saturday 8:00 am - 1:00 pm ",,,0
,,2791 Old Winter Garden Road,,Ocoee,Florida,34761,USA,407-654-4660,,,"Monday 5:30 am - 1:30 pm 3:30 pm - 8:00 pm , Tuesday 5:30 am - 1:30 pm 3:30 pm - 8:00 pm , Wednesday 5:30 am - 1:30 pm 3:30 pm - 8:00 pm , Thursday 5:30 am - 1:30 pm 3:30 pm - 8:00 pm , Friday 5:30 am - 1:30 pm 3:30 pm - 7:00 pm , Saturday 8:00 am - 12:00 pm , Sunday 8:00 am - 12:00 pm ",,,0
,,1326 Seven Springs Blvd,,New Port Richey,Florida,34655,USA,(727) 597-7325,,,"Monday 7:00 am - 1:30 pm 3:30 pm - 9:00 pm , Tuesday 7:00 am - 1:30 pm 3:30 pm - 9:00 pm , Wednesday 7:00 am - 1:30 pm 3:30 pm - 9:00 pm , Thursday 7:00 am - 1:30 pm 3:30 pm - 9:00 pm , Friday 7:00 am - 1:30 pm 3:30 pm - 9:00 pm , Saturday 8:00 am - 12:00 pm ",,,0
,,14612 SW 8TH ST,,Miami,Florida,33184,USA,786-712-0384 / 786-712-0385,,,"Monday 6:30 am - 12:00 pm 3:00 pm - 9:00 pm , Tuesday 6:30 am - 12:00 pm 3:00 pm - 9:00 pm , Wednesday 6:30 am - 12:00 pm 3:00 pm - 9:00 pm , Thursday 6:30 am - 12:00 pm 3:00 pm - 9:00 pm , Friday 6:30 am - 12:00 pm 3:00 pm - 7:00 pm , Saturday 8:00 am - 12:00 pm ",,,0
,,"9999 SW 72 Street, Suite 108",,Miami,Florida,33173,USA,(786) 391-0580,,,,,,0
,,3350 NW 62nd Ave.,,Margate,Florida,33063,USA,954-972-8070,,,"Monday 6:00 am - 2:00 pm 4:00 pm - 8:00 pm , Tuesday 8:00 am - 2:00 pm 4:00 pm - 8:00 pm , Wednesday 6:00 am - 2:00 pm 4:00 pm - 8:00 pm , Thursday 8:00 am - 2:00 pm 4:00 pm - 8:00 pm , Friday 8:00 am - 2:00 pm 4:00 pm - 8:00 pm , Saturday 8:00 am - 12:00 pm , Sunday 8:00 am - 12:00 pm ",,,0
,,2153 E County Road 540A,,Lakeland,Florida,33813,USA,863-606-5742,,,,,,0
,,1500 E Commercial Blvd,,Oakland Park,Florida,33334,USA,754-600-9269,,,,,,0
,,11252 SW 137 Avenue,,Kendall,Florida,33186,USA,786 536 2259,,,"Monday 8:00 am - 1:00 pm 4:00 pm - 8:00 pm , Tuesday 8:00 am - 1:00 pm 4:00 pm - 9:00 pm , Wednesday 8:00 am - 1:00 pm 4:00 pm - 8:00 pm , Thursday 8:00 am - 1:00 pm 4:00 pm - 9:00 pm , Friday 8:00 am - 1:00 pm 4:00 pm - 8:00 pm , Saturday 8:00 am - 1:00 pm ",,,0
,,12525 Philips Highway,,Jacksonville,Florida,32256,USA,904-619-4830,,,"Monday 8:00 am - 1:30 pm 3:30 pm - 8:00 pm , Tuesday 8:00 am - 1:30 pm 3:30 pm - 8:00 pm , Wednesday 8:00 am - 1:30 pm 3:30 pm - 8:00 pm , Thursday 8:00 am - 1:30 pm 3:30 pm - 8:00 pm , Friday 8:00 am - 1:30 pm 3:30 pm - 7:00 pm , Saturday 8:00 am - 12:00 pm ",,,0
,,4820 Deer Lake Dr West,,Jacksonville,Florida,32246,USA,904-723-1214,,,"Monday 8:00 am - 1:30 pm 3:30 pm - 8:00 pm , Tuesday 6:00 am - 1:30 pm 3:30 pm - 8:00 pm , Wednesday 6:00 am - 1:30 pm 3:30 pm - 8:00 pm , Thursday 6:00 am - 1:30 pm 3:30 pm - 8:00 pm , Friday 8:00 am - 1:30 pm 3:30 pm - 7:00 pm , Saturday 8:00 am - 12:00 pm ",,,0
,,1511 Main St.,,Dunedin,Florida,34698,USA,727-251-1550,,,"Monday 6:00 am - 1:30 pm 3:30 pm - 8:00 pm , Tuesday 6:00 am - 1:30 pm 3:30 pm - 8:00 pm , Wednesday 6:00 am - 1:30 pm 3:30 pm - 8:00 pm , Thursday 6:00 am - 1:30 pm 3:30 pm - 8:00 pm , Friday 6:00 am - 1:30 pm 3:30 pm - 7:00 pm , Saturday 8:00 am - 12:00 pm ",,,0
,,4115 SR 7,,Lake Worth,Florida,33449,USA,561-619-5670,,,"Monday 5:00 am - 1:00 pm 3:00 pm - 9:00 pm , Tuesday 5:00 am - 1:00 pm 3:00 pm - 9:00 pm , Wednesday 5:00 am - 1:00 pm 3:00 pm - 9:00 pm , Thursday 5:00 am - 1:00 pm 3:00 pm - 9:00 pm , Friday 5:00 am - 1:00 pm 3:00 pm - 9:00 pm , Saturday 8:00 am - 1:00 pm ",,,0
,,1031 N Federal Hwy,,Fort Lauderdale,Florida,33304,USA,954-626-0780,,,"Monday 6:00 am - 1:00 pm 4:00 pm - 8:00 pm , Tuesday 8:00 am - 1:00 pm 4:00 pm - 8:00 pm , Wednesday 6:00 am - 1:00 pm 4:00 pm - 8:00 pm , Thursday 8:00 am - 1:00 pm 4:00 pm - 8:00 pm , Friday 6:00 am - 1:00 pm 4:00 pm - 7:00 pm , Saturday 8:00 am - 12:00 pm , Sunday 8:30 am - 12:00 pm ",,,0
,,"1200 Yamato Rd, Suite B-1",,Boca Raton,Florida,33431,USA,Call/Text 561 419 7003,,,"Monday 7:30 am - 1:00 pm 4:00 pm - 8:00 pm , Tuesday 6:00 am - 1:00 pm 4:00 pm - 8:00 pm , Wednesday 8:00 am - 1:00 pm 4:00 pm - 8:00 pm , Thursday 6:00 am - 1:00 pm 4:00 pm - 8:00 pm , Friday 7:30 am - 1:00 pm 4:00 pm - 7:00 pm , Saturday 8:00 am - 12:00 pm ",,,0
,,"12226 Beach Blvd., #8",,Jacksonville,Florida,32246,USA,Phone/Text 904-516-7155,,,"Monday 8:00 am - 1:00 pm 4:00 pm - 8:00 pm , Tuesday 5:30 am - 1:00 pm 4:00 pm - 8:00 pm , Wednesday 8:00 am - 1:00 pm 4:00 pm - 8:00 pm , Thursday 5:30 am - 1:00 pm 4:00 pm - 6:30 pm , Friday 8:00 am - 1:00 pm 4:00 pm - 6:00 pm , Saturday 8:00 am - 12:00 pm ",,,0
,,3335 Sheridan St,,Hollywood,Florida,33021,USA,754-217-4323,,,"Monday 7:00 am - 1:00 pm 3:30 pm - 8:00 pm , Tuesday 8:00 am - 1:00 pm 4:00 pm - 8:00 pm , Wednesday 7:00 am - 1:00 pm 3:30 pm - 8:00 pm , Thursday 8:00 am - 1:00 pm 4:00 pm - 8:00 pm , Friday 7:00 am - 1:00 pm 3:30 pm - 8:00 pm , Saturday 8:00 am - 12:00 pm , Sunday 8:30 am - 12:00 pm ",,,0
,,2425 2nd Street Suite 4,,Coralville,Iowa,52241,USA,319-688-2600,,,"Monday 5:00 am - 1:30 pm 3:30 pm - 7:30 pm , Tuesday 8:00 am - 1:30 pm 3:30 pm - 7:30 pm , Wednesday 5:00 am - 1:30 pm 3:30 pm - 7:30 pm , Thursday 8:00 am - 1:30 pm 3:30 pm - 7:30 pm , Friday 8:00 am - 1:30 pm 3:30 pm - 6:30 pm , Saturday 8:00 am - 12:00 pm ",,,0
,,4635 Cortez Road W,,Bradenton,Florida,34210,USA,941-216-3326,,,"Monday 6:00 am - 1:00 pm 3:00 pm - 8:00 pm , Tuesday 8:00 am - 1:00 pm 3:00 pm - 8:00 pm , Wednesday 6:00 am - 1:00 pm 3:00 pm - 8:00 pm , Thursday 8:00 am - 1:00 pm 3:00 pm - 8:00 pm , Friday 6:00 am - 1:00 pm 3:00 pm - 7:00 pm , Saturday 8:00 am - 12:00 pm ",,,0
,,2663 Gulf to Bay Blvd #950,,Clearwater,Florida,33759,USA,727-726-8616,,,"Monday 8:00 am - 12:30 pm 3:30 pm - 8:00 pm , Tuesday 8:00 am - 12:30 pm 3:30 pm - 8:00 pm , Wednesday 8:00 am - 12:30 pm 3:30 pm - 8:00 pm , Thursday 8:00 am - 12:30 pm 3:30 pm - 8:00 pm , Friday 8:00 am - 12:30 pm 3:30 pm - 7:00 pm , Saturday 8:00 am - 12:00 pm ",,,0
,,3157 Sugarloaf Pkwy Suite 180,,Lawrenceville,Georgia,30045,USA,678-235-5949,,,"Monday 6:30 am - 1:30 pm 3:30 pm - 8:00 pm , Tuesday 8:00 am - 1:30 pm 3:30 pm - 8:00 pm , Wednesday 6:30 am - 1:30 pm 3:30 pm - 8:00 pm , Thursday 8:00 am - 1:30 pm 3:30 pm - 8:00 pm , Friday 6:30 am - 1:30 pm 3:30 pm - 7:00 pm , Saturday 8:00 am - 12:00 pm ",,,0
,,"2100 Roswell Rd., #2186",,Marietta,Georgia,30062,USA,(470) 377-4285,,,"Monday 7:00 am - 1:30 pm 3:30 pm - 8:00 pm , Tuesday 7:00 am - 1:30 pm 3:30 pm - 8:00 pm , Wednesday 7:00 am - 1:30 pm 3:30 pm - 8:00 pm , Thursday 7:00 am - 1:30 pm 3:30 pm - 8:00 pm , Friday 7:00 am - 1:30 pm 3:30 pm - 7:00 pm , Saturday 8:00 am - 1:00 pm ",,,0
,,2649 Battlefield Parkway,,Fort Oglethorpe,Georgia,30742,USA,706-406-2558,,,"Monday 8:00 am - 1:30 pm 3:30 pm - 8:00 pm , Tuesday 5:30 am - 1:30 pm 3:30 pm - 8:00 pm , Wednesday 8:00 am - 1:30 pm 3:30 pm - 8:00 pm , Thursday 5:30 am - 1:30 pm 3:30 pm - 8:00 pm , Friday 8:00 am - 1:30 pm 3:30 pm - 7:00 pm , Saturday 9:00 am - 1:00 pm ",,,0
,,"831 Auburn Road, Suite 100",,Dacula,Georgia,30019,USA,678-743-4506,,,"Monday 8:00 am - 1:30 pm 3:30 pm - 8:00 pm , Tuesday 8:00 am - 1:30 pm 3:30 pm - 8:00 pm , Wednesday 8:00 am - 1:30 pm 3:30 pm - 8:00 pm , Thursday 8:00 am - 1:30 pm 3:30 pm - 8:00 pm , Friday 6:00 am - 1:30 pm 3:30 pm - 6:00 pm , Saturday 9:00 am - 1:00 pm ",,,0
,,2899-B North Decatur Rd,,Decatur,Georgia,30033,USA,(404) 343-0286,,,"Monday 8:00 am - 1:30 pm 3:30 pm - 8:00 pm , Tuesday 8:00 am - 1:30 pm 3:30 pm - 8:00 pm , Wednesday 8:00 am - 1:30 pm 3:30 pm - 8:00 pm , Thursday 8:00 am - 1:30 pm 3:30 pm - 8:00 pm , Friday 8:00 am - 1:30 pm 3:30 pm - 6:00 pm , Saturday 8:00 am - 1:00 pm ",,,0
,,2080 Timothy Rd Suite B,,Athens,Georgia,30606,USA,706-353-6999,,,"Monday 5:00 am - 1:30 pm 3:30 pm - 8:00 pm , Tuesday 8:00 am - 1:30 pm 3:30 pm - 8:00 pm , Wednesday 5:00 am - 1:30 pm 3:30 pm - 8:00 pm , Thursday 8:00 am - 1:30 pm 3:30 pm - 8:00 pm , Friday 5:00 am - 1:30 pm 3:30 pm - 6:00 pm , Saturday 9:00 am - 1:00 pm ",,,0
,,1860 Barnett Shoals Rd. Suite 407,,Athens,Georgia,30605,USA,706-850-4999,,,"Monday 8:00 am - 1:30 pm 3:30 pm - 8:00 pm , Tuesday 6:00 am - 1:30 pm 3:30 pm - 8:00 pm , Wednesday 8:00 am - 1:30 pm 3:30 pm - 8:00 pm , Thursday 6:00 am - 1:30 pm 3:30 pm - 8:00 pm , Friday 8:00 am - 1:30 pm 3:30 pm - 6:00 pm , Saturday 8:00 am - 12:00 pm ",,,0
,,11408 Ford Avenue,,Richmond Hill,Georgia,31324,USA,912-445-5201,,,"Monday 6:00 am - 1:30 pm 3:30 pm - 8:00 pm , Tuesday 8:00 am - 1:30 pm 3:30 pm - 8:00 pm , Wednesday 6:00 am - 1:30 pm 3:30 pm - 8:00 pm , Thursday 8:00 am - 1:30 pm 3:30 pm - 8:00 pm , Friday 8:00 am - 1:30 pm 3:30 pm - 7:00 pm , Saturday 8:00 am - 12:00 pm ",,,0
,,910 North Congress Ave.,,Boynton Beach,Florida,33426,USA,561-732-9889,,,"Monday 6:00 am - 1:00 pm 3:00 pm - 8:00 pm , Tuesday 6:00 am - 1:00 pm 3:00 pm - 8:00 pm , Wednesday 6:00 am - 1:00 pm 3:00 pm - 8:00 pm , Thursday 6:00 am - 1:00 pm 3:00 pm - 8:00 pm , Friday 6:00 am - 1:00 pm 3:00 pm - 8:00 pm , Saturday 8:00 am - 12:00 pm , Sunday 8:00 am - 12:00 pm ",,,0
,,13344 College Blvd,,Lenexa,Kansas,66210,USA,913-296-8342,,,"Monday 6:30 am - 1:30 pm 3:30 pm - 8:00 pm , Tuesday 7:00 am - 1:30 pm 3:30 pm - 8:00 pm , Wednesday 6:30 am - 1:30 pm 3:30 pm - 8:00 pm , Thursday 7:00 am - 1:30 pm 3:30 pm - 8:00 pm , Friday 6:30 am - 1:30 pm 3:30 pm - 6:00 pm , Saturday 8:00 am - 1:00 pm ",,,0
,,2329 S. Iowa Street,,Lawrence,Kansas,66047,USA,785-842-1231,,,"Monday 6:00 am - 1:00 pm 3:30 pm - 8:00 pm , Tuesday 3:30 pm - 8:00 pm , Wednesday 6:00 am - 1:00 pm 3:30 pm - 8:00 pm , Thursday 3:30 pm - 8:00 pm , Friday 6:00 am - 12:00 pm 3:30 pm - 6:30 pm , Saturday 8:00 am - 12:00 pm ",,,0
,,"13401 Shelbyville Road, Suite 102",,Middletown,Kentucky,40223,USA,(502) 410-2929,,,"Monday 8:00 am - 1:00 pm 4:00 pm - 8:00 pm , Tuesday 8:00 am - 1:00 pm 4:00 pm - 8:00 pm , Wednesday 8:00 am - 1:00 pm 4:00 pm - 8:00 pm , Thursday 8:00 am - 1:00 pm 4:00 pm - 8:00 pm , Friday 8:00 am - 1:00 pm 4:00 pm - 7:00 pm , Saturday 8:00 am - 12:00 pm ",,,0
,,1512 Bardstown Road,,Louisville,Kentucky,40205,USA,502-654-7155,,,"Monday 7:00 am - 1:30 pm 3:30 pm - 8:00 pm , Tuesday 7:00 am - 1:30 pm 3:30 pm - 8:00 pm , Wednesday 7:00 am - 1:30 pm 3:30 pm - 8:00 pm , Thursday 7:00 am - 1:30 pm 3:30 pm - 8:00 pm , Friday 7:00 am - 1:30 pm 3:30 pm - 6:00 pm , Saturday 8:00 am - 1:00 pm ",,,0
,,3560 Browns Bridge Rd Suite #900,,Cumming,Georgia,30028,USA,(470) 239-4114,,,"Monday 8:00 am - 1:30 pm 3:30 pm - 8:00 pm , Tuesday 8:00 am - 1:30 pm 3:30 pm - 8:00 pm , Wednesday 8:00 am - 1:30 pm 3:30 pm - 8:00 pm , Thursday 8:00 am - 1:30 pm 3:30 pm - 8:00 pm , Friday 8:00 am - 1:30 pm 3:30 pm - 7:00 pm , Saturday 8:30 am - 12:00 pm ",,,0
,,6516 Martway,,Mission,Kansas,66202,USA,(913) 808-5650,,,"Monday 5:30 am - 1:00 pm 3:30 pm - 8:00 pm , Tuesday 6:00 am - 1:00 pm 3:30 pm - 8:00 pm , Wednesday 5:30 am - 1:00 pm 3:30 pm - 8:00 pm , Thursday 6:00 am - 1:00 pm 3:30 pm - 8:00 pm , Friday 5:30 am - 1:00 pm 3:30 pm - 6:00 pm , Saturday 8:00 am - 12:00 pm ",,,0
,,2036 Harris RD,,Independence,Kentucky,41051,USA,859-474-8658,,,"Monday 8:30 am - 1:00 pm 4:00 pm - 8:00 pm , Tuesday 7:30 am - 12:00 pm 4:00 pm - 7:00 pm , Wednesday 8:30 am - 1:00 pm 4:00 pm - 8:00 pm , Thursday 8:30 am - 1:00 pm 4:00 pm - 8:00 pm , Friday 8:30 am - 1:00 pm 4:00 pm - 7:00 pm , Saturday 8:30 am - 12:00 pm ",,,0
,,4646 Chamberlain Ln,,Louisville,Kentucky,40241,USA,(502) 509-1450,,,"Monday 8:00 am - 1:00 pm 4:00 pm - 8:00 pm , Tuesday 8:00 am - 1:00 pm 4:00 pm - 8:00 pm , Wednesday 8:00 am - 1:00 pm 4:00 pm - 8:00 pm , Thursday 8:00 am - 1:00 pm 4:00 pm - 8:00 pm , Friday 8:00 am - 1:00 pm 4:00 pm - 7:00 pm , Saturday 8:00 am - 12:00 pm ",,,0
,,789 Middle Road,,Bettendorf,Iowa,52722,USA,563-355-4600,,,"Monday 5:00 am - 1:30 pm 3:30 pm - 7:30 pm , Tuesday 5:00 am - 1:30 pm 3:30 pm - 7:30 pm , Wednesday 5:00 am - 1:30 pm 3:30 pm - 7:30 pm , Thursday 5:00 am - 1:30 pm 3:30 pm - 7:30 pm , Friday 5:00 am - 1:30 pm 3:30 pm - 6:30 pm , Saturday 8:00 am - 12:00 pm ",,,0
