store_name,store_number,address,address2,city,state,zip_code,country,phone_number,latitude,longitude,store_hours,store_type,other_fields,coming_soon
,,1105 S. Il Route 31,,Crystal Lake,IL,60014,US,815-356-3100,42.211557,-88.286548,"Branch Hours: Mon: 09:00-17:00, Tue: 09:00-17:00, Wed: 09:00-17:00, Thur: 09:00-17:00, Fri: 09:00-17:00, Sat: 09:00-12:30, Sun: closed-closed, Drive Up: Mon: 09:00-17:00, Tue: 09:00-17:00, Wed: 09:00-17:00, Thur: 09:00-17:00, Fri: 09:00-17:30, Sat: 09:00-12:30, Sun: closed-closed",,,
,,10604 Illinois 47,,Huntley,IL,60142,US,847-669-5151,42.1753696,-88.4272674,"Branch Hours: Mon: 09:00-17:00, Tue: 09:00-17:00, Wed: 09:00-17:00, Thur: 09:00-17:00, Fri: 09:00-17:00, Sat: 09:00-12:30, Sun: closed-closed, Drive Up: Mon: 09:00-17:00, Tue: 09:00-17:00, Wed: 09:00-17:00, Thur: 09:00-17:00, Fri: 09:00-17:30, Sat: 09:00-12:30, Sun: closed-closed",,,
,,5545 Northwest Highway,,Crystal Lake,IL,60014,US,815-455-0202,42.22614532,-88.30418948,"Branch Hours: Mon: 09:00-17:00, Tue: 09:00-17:00, Wed: 09:00-17:00, Thur: 09:00-17:00, Fri: 09:00-17:00, Sat: 09:00-12:30, Sun: closed-closed, Drive Up: Mon: 08:30-17:30, Tue: 08:30-17:30, Wed: 08:30-17:30, Thur: 08:30-17:30, Fri: 08:00-18:00, Sat: 08:30-13:00, Sun: closed-closed",,,
,,761 W. 78Th St.,,Chanhassen,MN,55317,US,952-698-1400,44.86222033,-93.54196129,"Branch Hours: Mon: 09:00-17:00, Tue: 09:00-17:00, Wed: 09:00-17:00, Thur: 09:00-17:00, Fri: 09:00-17:00, Sat: 09:00-12:00, Sun: closed-closed, Drive Up: Mon: 08:00-17:30, Tue: 08:00-17:30, Wed: 08:00-17:30, Thur: 08:00-17:30, Fri: 08:00-17:30, Sat: 09:00-12:00, Sun: closed-closed",,,
,,5035 Shoreline Road,,Lake Barrington,IL,60010,US,847-756-7940,42.227541,-88.146227,"Branch Hours: Mon: 09:00-17:00, Tue: 09:00-17:00, Wed: 09:00-17:00, Thur: 09:00-17:00, Fri: 09:00-17:00, Sat: 09:00-12:30, Sun: closed-closed, Drive Up: Mon: 09:00-17:00, Tue: 09:00-17:00, Wed: 09:00-17:00, Thur: 09:00-17:00, Fri: 09:00-17:00, Sat: 09:00-12:30, Sun: closed-closed",,,
,,17636 Kenwood Trail,,Lakeville,MN,55044,US,952-953-5970,44.69352635,-93.28443431,"Branch Hours: Mon: 09:00-17:00, Tue: 09:00-17:00, Wed: 09:00-17:00, Thur: 09:00-17:00, Fri: 09:00-17:00, Sat: 09:00-12:00, Sun: closed-closed, Drive Up: Mon: 08:00-17:30, Tue: 08:00-17:30, Wed: 08:00-17:30, Thur: 08:00-17:30, Fri: 08:00-17:30, Sat: 09:00-12:00, Sun: closed-closed",,,
,,860 Northwest Hwy.,,Fox River Grove,IL,60021,US,847-639-5008,42.193463,-88.210345,"Branch Hours: Mon: 09:00-17:00, Tue: 09:00-17:00, Wed: 09:00-17:00, Thur: 09:00-17:00, Fri: 09:00-17:00, Sat: 09:00-12:30, Sun: closed-closed, Drive Up: Mon: 09:00-17:00, Tue: 09:00-17:00, Wed: 09:00-17:00, Thur: 09:00-17:00, Fri: 09:00-17:00, Sat: 09:00-12:30, Sun: closed-closed",,,
,,122 W Main St,,Cary,IL,60013,US,847-639-5000,42.208666,-88.241677,"Branch Hours: Mon: 09:00-17:00, Tue: 09:00-17:00, Wed: 09:00-17:00, Thur: 09:00-17:00, Fri: 09:00-17:00, Sat: 09:00-12:30, Sun: closed-closed, Drive Up: Mon: 09:00-17:00, Tue: 09:00-17:00, Wed: 09:00-17:00, Thur: 09:00-17:00, Fri: 09:00-17:00, Sat: 09:00-12:30, Sun: closed-closed, Mon: 09:00-17:00, Tue: 09:00-17:00, Wed: 09:00-17:00, Thur: 09:00-17:00, Fri: 09:00-17:00, Sat: 09:00-12:30, Sun: closed-closed",,,
,,4100 Durand Ave.,,Racine,WI,53405,US,262-554-1166,42.69686,-87.82845,"Branch Hours: Mon: 09:00-17:00, Tue: 09:00-17:00, Wed: 09:00-17:00, Thur: 09:00-17:00, Fri: 09:00-17:30, Sat: 09:00-12:00, Sun: closed-closed, Drive Up: Mon: 08:00-17:30, Tue: 08:00-17:30, Wed: 08:00-17:30, Thur: 08:00-17:30, Fri: 08:00-17:30, Sat: 08:30-12:00, Sun: closed-closed",,,
,,5101 Spring St.,,Racine,WI,53406,US,262-886-8040,42.73675958,-87.84118351,"Branch Hours: Mon: 09:00-17:00, Tue: 09:00-17:00, Wed: 09:00-17:00, Thur: 09:00-17:00, Fri: 09:00-17:30, Sat: 09:00-12:00, Sun: closed-closed, Drive Up: Mon: 07:30-17:30, Tue: 07:30-17:30, Wed: 07:30-17:30, Thur: 07:30-17:30, Fri: 07:30-17:30, Sat: 08:30-12:00, Sun: closed-closed",,,
,,1001 Marquette Ave.,,South Milwaukee,WI,53172,US,414-571-2400,42.90784,-87.86085,"Branch Hours: Mon: 09:00-17:00, Tue: 09:00-17:00, Wed: 09:00-17:00, Thur: 09:00-17:00, Fri: 09:00-17:30, Sat: 09:00-12:00, Sun: closed-closed, Drive Up: Mon: 08:00-17:30, Tue: 08:00-17:30, Wed: 08:00-17:30, Thur: 08:00-17:30, Fri: 08:00-17:30, Sat: 08:30-12:00, Sun: closed-closed",,,
,,21900 Shawnee Mission Pkwy.,,Shawnee,KS,66226,US,913-441-7900,39.00831,-94.83944,"Branch Hours: Mon: 09:00-17:00, Tue: 09:00-17:00, Wed: 09:00-17:00, Thur: 09:00-17:00, Fri: 09:00-17:00, Sat: 09:00-12:00, Sun: closed-closed, Drive Up: Mon: 09:00-17:00, Tue: 09:00-17:00, Wed: 09:00-17:00, Thur: 09:00-17:00, Fri: 09:00-17:00, Sat: 09:00-12:00, Sun: closed-closed",,,
,,1341 Greenwood Ct.,,Shakopee,MN,55379,US,952-233-8440,44.774612,-93.507374,"Branch Hours: Mon: 09:00-17:00, Tue: 09:00-17:00, Wed: 09:00-17:00, Thur: 09:00-17:00, Fri: 09:00-17:00, Sat: 09:00-12:00, Sun: closed-closed, Drive Up: Mon: 08:00-17:30, Tue: 08:00-17:30, Wed: 08:00-17:30, Thur: 08:00-17:30, Fri: 08:00-17:30, Sat: 09:00-12:00, Sun: closed-closed",,,
,,6333 Long St.,,Shawnee,KS,66216,US,913-631-9144,39.01389766,-94.73079014,"Branch Hours: Mon: 09:00-17:00, Tue: 09:00-17:00, Wed: 09:00-17:00, Thur: 09:00-17:00, Fri: 09:00-17:00, Sat: 09:00-12:00, Sun: closed-closed, Drive Up: Mon: 09:00-17:00, Tue: 09:00-17:00, Wed: 09:00-17:00, Thur: 09:00-17:00, Fri: 09:00-17:00, Sat: 09:00-12:00, Sun: closed-closed",,,
,,1 Main St.,,Racine,WI,53403,US,262-638-6200,42.73289,-87.78422,"Branch Hours: Mon: 09:00-17:00, Tue: 09:00-17:00, Wed: 09:00-17:00, Thur: 09:00-17:00, Fri: 09:00-17:00, Sat: closed-closed, Sun: closed-closed, Drive Up: Mon: 08:00-17:00, Tue: 08:00-17:00, Wed: 08:00-17:00, Thur: 08:00-17:00, Fri: 08:00-17:00, Sat: closed-closed, Sun: closed-closed",,,
,,2440 Four Mile Rd.,,Racine,WI,53402,US,262-681-4333,42.78463404,-87.80706717,"Branch Hours: Mon: 09:00-17:00, Tue: 09:00-17:00, Wed: 09:00-17:00, Thur: 09:00-17:00, Fri: 09:00-17:30, Sat: 09:00-12:00, Sun: closed-closed, Drive Up: Mon: 08:00-17:30, Tue: 08:00-17:30, Wed: 08:00-17:30, Thur: 08:00-17:30, Fri: 08:00-17:30, Sat: 08:30-12:00, Sun: closed-closed",,,
,,105 N Stewart Court,,Liberty,MO,64068,US,816-407-3000,39.24636365,-94.45313908,"Branch Hours: Mon: 09:00-17:00, Tue: 09:00-17:00, Wed: 09:00-17:00, Thur: 09:00-17:00, Fri: 09:00-17:00, Sat: closed-closed, Sun: closed-closed, Drive Up: Mon: 09:00-17:00, Tue: 09:00-17:00, Wed: 09:00-17:00, Thur: 09:00-17:00, Fri: 09:00-17:00, Sat: closed-closed, Sun: closed-closed",,,
,,1101 Walnut St.,,Kansas City,MO,64106,US,816-283-8600,39.10108,-94.58201,"Branch Hours: Mon: 09:00-17:00, Tue: 09:00-17:00, Wed: 09:00-17:00, Thur: 09:00-17:00, Fri: 09:00-17:00, Sat: closed-closed, Sun: closed-closed",,,
,,1201 Nw Briarcliff Pkwy.,,Kansas City,MO,64116,US,816-741-4344,39.16854,-94.59587,"Branch Hours: Mon: 90:0-17:00, Tue: 90:0-17:00, Wed: 90:0-17:00, Thur: 90:0-17:00, Fri: 90:0-17:00, Sat: 90:0-12:00, Sun: closed-closed, Drive Up: Mon: 90:0-17:00, Tue: 90:0-17:00, Wed: 90:0-17:00, Thur: 90:0-17:00, Fri: 90:0-17:00, Sat: 90:0-12:00, Sun: closed-closed",,,
,,2955 E. Chandler Heights Rd.,,Chandler,AZ,85249,US,480-802-8640,33.23329,-111.79087,"Branch Hours: Mon: 09:00-17:00, Tue: 09:00-17:00, Wed: 09:00-17:00, Thur: 09:00-17:00, Fri: 09:00-17:00, Sat: closed-closed, Sun: closed-closed, Drive Up: Mon: 09:00-17:00, Tue: 09:00-17:00, Wed: 09:00-17:00, Thur: 09:00-17:00, Fri: 09:00-17:00, Sat: closed-closed, Sun: closed-closed",,,
,,11612 E. Shea Blvd.,,Scottsdale,AZ,85259,US,480-314-3520,33.58251939,-111.830447,"Branch Hours: Mon: 09:00-17:00, Tue: 09:00-17:00, Wed: 09:00-17:00, Thur: 09:00-17:00, Fri: 09:00-17:00, Sat: closed-closed, Sun: closed-closed, Drive Up: Mon: 09:00-17:00, Tue: 09:00-17:00, Wed: 09:00-17:00, Thur: 09:00-17:00, Fri: 09:00-17:00, Sat: closed-closed, Sun: closed-closed",,,
,,4305 Frederick Blvd,,St Joseph,MO,64508,US,816-236-1800,39.7770557,-94.79080769,"Branch Hours: Mon: 09:00-17:00, Tue: 09:00-17:00, Wed: 09:00-17:00, Thur: 09:00-17:00, Fri: 09:00-17:00, Sat: 09:00-12:00, Sun: closed-closed, Drive Up: Mon: 09:00-17:00, Tue: 09:00-17:00, Wed: 09:00-17:00, Thur: 09:00-17:00, Fri: 09:00-17:00, Sat: 09:00-12:00, Sun: closed-closed",,,
,,9953 E. Baseline Rd.,,Mesa,AZ,85209,US,480-357-3320,33.37904,-111.6214948,"Branch Hours: Mon: 09:00-17:00, Tue: 09:00-17:00, Wed: 09:00-17:00, Thur: 09:00-17:00, Fri: 09:00-17:00, Sat: 09:00-12:00, Sun: closed-closed, Drive Up: Mon: 09:00-17:00, Tue: 09:00-17:00, Wed: 09:00-17:00, Thur: 09:00-17:00, Fri: 09:00-17:00, Sat: 09:00-12:00, Sun: closed-closed",,,
,,2740 N. Power Rd.,,Mesa,AZ,85215,US,480-324-5060,33.46568848,-111.6840529,"Branch Hours: Mon: 09:00-17:00, Tue: 09:00-17:00, Wed: 09:00-17:00, Thur: 09:00-17:00, Fri: 09:00-17:00, Sat: 09:00-12:00, Sun: closed-closed, Drive Up: Mon: 09:00-17:00, Tue: 09:00-17:00, Wed: 09:00-17:00, Thur: 09:00-17:00, Fri: 09:00-17:00, Sat: 09:00-12:00, Sun: closed-closed",,,
,,1990 W. Chandler Blvd.,,Chandler,AZ,85224,US,480-792-6300,33.30606,-111.8762435,"Branch Hours: Mon: 09:00-17:00, Tue: 09:00-17:00, Wed: 09:00-17:00, Thur: 09:00-17:00, Fri: 09:00-17:00, Sat: 09:00-12:00, Sun: closed-closed, Drive Up: Mon: 09:00-17:00, Tue: 09:00-17:00, Wed: 09:00-17:00, Thur: 09:00-17:00, Fri: 09:00-17:00, Sat: 09:00-12:00, Sun: closed-closed",,,
,,160 N. McQueen Rd.,,Gilbert,AZ,85233,US,480-558-6360,33.35262561,-111.8244786,"Branch Hours: Mon: 09:00-17:00, Tue: 09:00-17:00, Wed: 09:00-17:00, Thur: 09:00-17:00, Fri: 09:00-17:00, Sat: closed-closed, Sun: closed-closed, Drive Up: Mon: 09:00-17:00, Tue: 09:00-17:00, Wed: 09:00-17:00, Thur: 09:00-17:00, Fri: 09:00-17:00, Sat: closed-closed, Sun: closed-closed",,,
,,1490 S. Arizona Ave.,,Chandler,AZ,85286,US,480-855-8020,33.28406434,-111.8414408,"Branch Hours: Mon: 09:00-17:00, Tue: 09:00-17:00, Wed: 09:00-17:00, Thur: 09:00-17:00, Fri: 09:00-17:00, Sat: closed-closed, Sun: closed-closed, Drive Up: Mon: 09:00-17:00, Tue: 09:00-17:00, Wed: 09:00-17:00, Thur: 09:00-17:00, Fri: 09:00-17:00, Sat: closed-closed, Sun: closed-closed",,,
,,1481 E. Williams Field Rd.,,Gilbert,AZ,85295,US,480-224-4960,33.30674455,-111.7559409,"Branch Hours: Mon: 09:00-17:00, Tue: 09:00-17:00, Wed: 09:00-17:00, Thur: 09:00-17:00, Fri: 09:00-17:00, Sat: 09:00-12:00, Sun: closed-closed, Drive Up: Mon: 09:00-17:00, Tue: 09:00-17:00, Wed: 09:00-17:00, Thur: 09:00-17:00, Fri: 09:00-17:00, Sat: 09:00-12:00, Sun: closed-closed",,,
,,10655 N. Oracle Rd.,,Oro Valley,AZ,85737,US,520-878-2360,32.39926755,-110.9562897,"Branch Hours: Mon: 09:00-17:00, Tue: 09:00-17:00, Wed: 09:00-17:00, Thur: 09:00-17:00, Fri: 09:00-17:00, Sat: 09:00-12:00, Sun: closed-closed, Drive Up: Mon: 09:00-17:00, Tue: 09:00-17:00, Wed: 09:00-17:00, Thur: 09:00-17:00, Fri: 09:00-17:00, Sat: 09:00-12:00, Sun: closed-closed",,,
,,35 N. Houghton Rd.,,Tucson,AZ,85748,US,520-751-6700,32.22124242,-110.7726769,"Branch Hours: Mon: 09:00-17:00, Tue: 09:00-17:00, Wed: 09:00-17:00, Thur: 09:00-17:00, Fri: 09:00-17:00, Sat: 09:00-12:00, Sun: closed-closed, Drive Up: Mon: 09:00-17:00, Tue: 09:00-17:00, Wed: 09:00-17:00, Thur: 09:00-17:00, Fri: 09:00-17:00, Sat: 09:00-12:00, Sun: closed-closed",,,
,,1755 S. Greenfield Rd.,,Mesa,AZ,85206,US,480-497-7400,33.38233703,-111.7389374,"Branch Hours: Mon: 09:00-17:00, Tue: 09:00-17:00, Wed: 09:00-17:00, Thur: 09:00-17:00, Fri: 09:00-17:00, Sat: 09:00-12:00, Sun: closed-closed, Drive Up: Mon: 09:00-17:00, Tue: 09:00-17:00, Wed: 09:00-17:00, Thur: 09:00-17:00, Fri: 09:00-17:00, Sat: 09:00-12:00, Sun: closed-closed",,,
,,4380 N Campbell Ave,,Tucson,AZ,85718,US,520-577-1122,32.28625,-110.9436255,"Branch Hours: Mon: 09:00-17:00, Tue: 09:00-17:00, Wed: 09:00-17:00, Thur: 09:00-17:00, Fri: 09:00-17:00, Sat: 09:00-12:00, Sun: closed-closed, Drive Up: Mon: 09:00-17:00, Tue: 09:00-17:00, Wed: 09:00-17:00, Thur: 09:00-17:00, Fri: 09:00-17:00, Sat: 09:00-12:00, Sun: closed-closed",,,
,,3155 N. 124Th St.,,Brookfield,WI,53005,US,262-781-9600,43.07541863,-88.06668964,"Branch Hours: Mon: 09:00-17:00, Tue: 09:00-17:00, Wed: 09:00-17:00, Thur: 09:00-17:00, Fri: 09:00-17:30, Sat: 09:00-12:00, Sun: closed-closed, Drive Up: Mon: 08:00-18:00, Tue: 08:00-18:00, Wed: 08:00-18:00, Thur: 08:00-18:00, Fri: 08:00-18:00, Sat: 08:30-12:00, Sun: closed-closed",,,
,,5454 S. 76Th St.,,Greendale,WI,53129,US,414-423-2380,42.94625862,-88.00840483,"Branch Hours: Mon: 09:00-17:00, Tue: 09:00-17:00, Wed: 09:00-17:00, Thur: 09:00-17:00, Fri: 09:00-17:30, Sat: 09:00-12:00, Sun: closed-closed, Drive Up: Mon: 08:00-17:30, Tue: 08:00-17:30, Wed: 08:00-17:30, Thur: 08:00-17:30, Fri: 08:00-17:30, Sat: 08:30-12:00, Sun: closed-closed",,,
,,8300 W. Silver Spring Dr.,,Milwaukee,WI,53218,US,414-466-8200,43.11964,-88.01412,"Branch Hours: Mon: 09:00-17:00, Tue: 09:00-17:00, Wed: 09:00-17:00, Thur: 09:00-17:00, Fri: 09:00-17:30, Sat: 09:00-12:00, Sun: closed-closed, Drive Up: Mon: 07:30-17:30, Tue: 07:30-17:30, Wed: 07:30-17:30, Thur: 07:30-17:30, Fri: 07:30-17:30, Sat: 08:30-12:00, Sun: closed-closed",,,
,,1200 N. Wilmot Rd.,,Tucson,AZ,85712,US,520-731-6600,32.23785,-110.85777,"Branch Hours: Mon: 09:00-17:00, Tue: 09:00-17:00, Wed: 09:00-17:00, Thur: 09:00-17:00, Fri: 09:00-17:00, Sat: 09:00-12:00, Sun: closed-closed, Drive Up: Mon: 09:00-17:00, Tue: 09:00-17:00, Wed: 09:00-17:00, Thur: 09:00-17:00, Fri: 09:00-17:00, Sat: 09:00-12:00, Sun: closed-closed",,,
,,2555 S. 108Th St.,,West Allis,WI,53227,US,414-327-2555,42.99791006,-88.04707559,"Branch Hours: Mon: 09:00-17:00, Tue: 09:00-17:00, Wed: 09:00-17:00, Thur: 09:00-17:00, Fri: 09:00-17:30, Sat: 09:00-12:00, Sun: closed-closed, Drive Up: Mon: 08:00-18:00, Tue: 08:00-18:00, Wed: 08:00-18:00, Thur: 08:00-18:00, Fri: 08:00-18:00, Sat: 08:30-12:00, Sun: closed-closed",,,
,,9210 W. North Ave.,,Wauwatosa,WI,53226-2698,US,414-258-7200,43.060441,-88.027632,"Branch Hours: Mon: 09:00-17:00, Tue: 09:00-17:00, Wed: 09:00-17:00, Thur: 09:00-17:00, Fri: 09:00-17:30, Sat: 09:00-12:00, Sun: closed-closed, Drive Up: Mon: 08:00-17:30, Tue: 08:00-17:30, Wed: 08:00-17:30, Thur: 08:00-17:30, Fri: 08:00-17:30, Sat: closed-closed, Sun: closed-closed",,,
,,7600 W. Layton Ave.,,Milwaukee,WI,53220,US,414-282-4470,42.95933,-88.0084,"Branch Hours: Mon: 09:00-17:00, Tue: 09:00-17:00, Wed: 09:00-17:00, Thur: 09:00-17:00, Fri: 09:00-17:30, Sat: 09:00-12:00, Sun: closed-closed, Drive Up: Mon: 08:00-17:30, Tue: 08:00-17:30, Wed: 08:00-17:30, Thur: 08:00-17:30, Fri: 08:00-17:30, Sat: 08:30-12:00, Sun: closed-closed",,,
,,10529 W. North Ave.,,Milwaukee,WI,53226,US,414-771-8100,43.06016429,-88.04404857,"Branch Hours: Mon: 12:00-17:00, Tue: 12:00-17:00, Wed: 12:00-17:00, Thur: 12:00-17:00, Fri: 12:00-17:00, Sat: closed-closed, Sun: closed-closed",,,
,,4677 S. Packard Ave.,,Cudahy,WI,53110,US,414-482-4700,42.95947571,-87.86003393,"Branch Hours: Mon: 09:00-17:00, Tue: 09:00-17:00, Wed: 09:00-17:00, Thur: 09:00-17:00, Fri: 09:00-17:30, Sat: 09:00-12:00, Sun: closed-closed, Drive Up: Mon: 08:00-17:30, Tue: 08:00-17:30, Wed: 08:00-17:30, Thur: 08:00-17:30, Fri: 08:00-17:30, Sat: 08:30-12:00, Sun: closed-closed",,,
,,5300 S. Howell Ave.,,Milwaukee,WI,53207,US,414-747-1630,42.94789,-87.90959,"Branch Hours: Mon: 07:00-15:00, Tue: 07:00-15:00, Wed: 07:00-15:00, Thur: 07:00-15:00, Fri: 07:00-15:00, Sat: closed-closed, Sun: closed-closed",,,
,,231 W. Silver Spring Dr.,,Glendale,WI,53217,US,414-961-5263,43.11857,-87.91202074,"Branch Hours: Mon: 07:30-18:00, Tue: 07:30-18:00, Wed: 07:30-18:00, Thur: 07:30-18:00, Fri: 07:30-18:00, Sat: 08:30-12:00, Sun: closed-closed",,,
,,7501 W. North Ave.,,Wauwatosa,WI,53213,US,414-258-2200,43.06073505,-88.00623192,"Branch Hours: Mon: 09:00-17:00, Tue: 09:00-17:00, Wed: 09:00-17:00, Thur: 09:00-17:00, Fri: 09:00-17:30, Sat: 09:00-12:00, Sun: closed-closed, Drive Up: Mon: 08:00-17:30, Tue: 08:00-17:30, Wed: 08:00-17:30, Thur: 08:00-17:30, Fri: 08:00-17:30, Sat: 08:30-12:00, Sun: closed-closed",,,
,,6645 W. Oklahoma Ave.,,Milwaukee,WI,53219,US,414-327-7900,42.98826551,-87.99569245,"Branch Hours: Mon: 09:00-17:00, Tue: 09:00-17:00, Wed: 09:00-17:00, Thur: 09:00-17:00, Fri: 09:00-17:30, Sat: 09:00-12:00, Sun: closed-closed, Drive Up: Mon: 08:00-17:30, Tue: 08:00-17:30, Wed: 08:00-17:30, Thur: 08:00-17:30, Fri: 08:00-17:30, Sat: 08:30-12:00, Sun: closed-closed",,,
,,177 E. Silver Spring Dr.,,Whitefish Bay,WI,53217,US,414-963-9900,43.11856458,-87.90850917,"Branch Hours: Mon: 09:00-17:00, Tue: 09:00-17:00, Wed: 09:00-17:00, Thur: 09:00-17:00, Fri: 09:00-17:30, Sat: 09:00-12:00, Sun: closed-closed",,,
,,7635 W. Bluemound Rd.,,Milwaukee,WI,53213,US,414-778-2265,43.03516796,-88.00769265,"Branch Hours: Mon: 09:00-17:00, Tue: 09:00-17:00, Wed: 09:00-17:00, Thur: 09:00-17:00, Fri: 09:00-17:30, Sat: 09:00-12:00, Sun: closed-closed, Drive Up: Mon: 08:00-17:30, Tue: 08:00-17:30, Wed: 08:00-17:30, Thur: 08:00-17:30, Fri: 08:00-17:30, Sat: 08:30-12:00, Sun: closed-closed",,,
,,7000 W. Greenfield Ave.,,West Allis,WI,53214,US,414-476-0900,43.01666,-88.00008,"Branch Hours: Mon: 09:00-17:00, Tue: 09:00-17:00, Wed: 09:00-17:00, Thur: 09:00-17:00, Fri: 09:00-17:30, Sat: 09:00-12:00, Sun: closed-closed, Drive Up: Mon: 08:00-17:30, Tue: 08:00-17:30, Wed: 08:00-17:30, Thur: 08:00-17:30, Fri: 08:00-17:30, Sat: 08:30-12:00, Sun: closed-closed",,,
,,2701 S. Kinnickinnic Ave.,,Milwaukee,WI,53207,US,414-482-4800,42.99563,-87.89611,"Branch Hours: Mon: 09:00-17:00, Tue: 09:00-17:00, Wed: 09:00-17:00, Thur: 09:00-17:00, Fri: 09:00-17:30, Sat: 09:00-12:00, Sun: closed-closed, Drive Up: Mon: 08:00-17:30, Tue: 08:00-17:30, Wed: 08:00-17:30, Thur: 08:00-17:30, Fri: 08:00-17:30, Sat: 08:30-12:00, Sun: closed-closed",,,
,,2266 South 13Th St,,Milwaukee,WI,53215,US,414-671-6510,43.0032629,-87.927876,"Branch Hours: Mon: 09:00-17:00, Tue: 09:00-17:00, Wed: 09:00-17:00, Thur: 09:00-17:00, Fri: 09:00-17:30, Sat: 09:00-12:00, Sun: closed-closed, Drive Up: Mon: 08:30-17:30, Tue: 08:30-17:30, Wed: 08:30-17:30, Thur: 08:30-17:30, Fri: 08:30-17:30, Sat: 08:30-12:00, Sun: closed-closed",,,
,,3131 S. 13Th St.,,Milwaukee,WI,53215,US,414-645-1207,42.987386,-87.929179,"Branch Hours: Mon: 09:00-17:00, Tue: 09:00-17:00, Wed: 09:00-17:00, Thur: 09:00-17:00, Fri: 09:00-17:30, Sat: 09:00-12:00, Sun: closed-closed, Drive Up: Mon: 08:30-17:30, Tue: 08:30-17:30, Wed: 08:30-17:30, Thur: 08:30-17:30, Fri: 08:30-17:30, Sat: 08:30-12:00, Sun: closed-closed",,,
,,3536 W. Fond Du Lac Ave.,,Milwaukee,WI,53216,US,414-445-8200,43.07553429,-87.9577198,"Branch Hours: Mon: 09:00-17:00, Tue: 09:00-17:00, Wed: 09:00-17:00, Thur: 09:00-17:00, Fri: 09:00-17:30, Sat: closed-closed, Sun: closed-closed, Drive Up: Mon: 08:30-17:30, Tue: 08:30-17:30, Wed: 08:30-17:30, Thur: 08:30-17:30, Fri: 08:30-17:30, Sat: closed-closed, Sun: closed-closed",,,
,,2701 W. National Ave.,,Milwaukee,WI,53215,US,414-384-8000,43.02218,-87.94788,"Branch Hours: Mon: 09:00-17:00, Tue: 09:00-17:00, Wed: 09:00-17:00, Thur: 09:00-17:00, Fri: 09:00-18:00, Sat: 09:00-12:00, Sun: closed-closed, Drive Up: Mon: 08:30-18:00, Tue: 08:30-18:00, Wed: 08:30-18:00, Thur: 08:30-18:00, Fri: 08:30-18:00, Sat: 08:30-12:00, Sun: closed-closed",,,
,,414 W. National Ave.,,Milwaukee,WI,53204,US,414-649-2929,43.02324,-87.91561714,"Branch Hours: Mon: 09:00-17:00, Tue: 09:00-17:00, Wed: 09:00-17:00, Thur: 09:00-17:00, Fri: 09:00-18:00, Sat: 09:00-12:00, Sun: closed-closed",,,
,,2745 N Dr. Martin Luther King Dr.,,Milwaukee,WI,53212,US,414-562-7272,43.06851483,-87.91402931,"Branch Hours: Mon: 09:00-17:00, Tue: 09:00-17:00, Wed: 09:00-17:00, Thur: 09:00-17:00, Fri: 09:00-17:30, Sat: 09:00-12:00, Sun: closed-closed, Drive Up: Mon: 08:30-17:30, Tue: 08:30-17:30, Wed: 08:30-17:30, Thur: 08:30-17:30, Fri: 08:30-17:30, Sat: 08:30-12:00, Sun: closed-closed",,,
,,2120 W. Wisconsin Ave.,,Milwaukee,WI,53233,US,414-345-3280,43.03876592,-87.93960286,"Branch Hours: Mon: 09:00-17:00, Tue: 09:00-17:00, Wed: 09:00-17:00, Thur: 09:00-17:00, Fri: 09:00-17:30, Sat: 09:00-12:00, Sun: closed-closed, Drive Up: Mon: 08:30-17:30, Tue: 08:30-17:30, Wed: 08:30-17:30, Thur: 08:30-17:30, Fri: 08:30-17:30, Sat: 08:30-12:00, Sun: closed-closed",,,
,,28215 N. Tatum Blvd,,Cave Creek,AZ,85331,US,480-419-5560,33.74165849,-111.97806,"Branch Hours: Mon: 09:00-17:00, Tue: 09:00-17:00, Wed: 09:00-17:00, Thur: 09:00-17:00, Fri: 09:00-17:00, Sat: 09:00-12:00, Sun: closed-closed, Drive Up: Mon: 09:00-17:00, Tue: 09:00-17:00, Wed: 09:00-17:00, Thur: 09:00-17:00, Fri: 09:00-17:00, Sat: 09:00-12:00, Sun: closed-closed",,,
,,33703 N. Scottsdale Rd.,,Scottsdale,AZ,85262,US,480-595-8940,33.78920735,-111.9258102,"Branch Hours: Mon: 09:00-17:00, Tue: 09:00-17:00, Wed: 09:00-17:00, Thur: 09:00-17:00, Fri: 09:00-17:00, Sat: 09:00-12:00, Sun: closed-closed, Drive Up: Mon: 09:00-17:00, Tue: 09:00-17:00, Wed: 09:00-17:00, Thur: 09:00-17:00, Fri: 09:00-17:00, Sat: 09:00-12:00, Sun: closed-closed",,,
,,422 E. Mason St,,Milwaukee,WI,53202,US,414-765-7414,43.03998571,-87.90632612,"Branch Hours: Mon: 08:00-18:00, Tue: 08:00-18:00, Wed: 08:00-18:00, Thur: 08:00-18:00, Fri: 08:00-18:00, Sat: closed-closed, Sun: closed-closed, Drive Up: Mon: 07:30-18:00, Tue: 07:30-18:00, Wed: 07:30-18:00, Thur: 07:30-18:00, Fri: 07:30-18:30, Sat: closed-closed, Sun: closed-closed, Mon: 07:30-18:00, Tue: 07:30-18:00, Wed: 07:30-18:00, Thur: 07:30-18:00, Fri: 07:30-18:00, Sat: closed-closed, Sun: closed-closed",,,
,,770 N. Water St.,,Milwaukee,WI,53202,US,414-765-7500,43.04035196,-87.90925198,"Branch Hours: Mon: 09:00-17:00, Tue: 09:00-17:00, Wed: 09:00-17:00, Thur: 09:00-17:00, Fri: 09:00-17:30, Sat: closed-closed, Sun: closed-closed, Drive Up: Mon: 08:00-18:00, Tue: 08:00-18:00, Wed: 08:00-18:00, Thur: 08:00-18:00, Fri: 08:00-18:00, Sat: 08:30-13:00, Sun: closed-closed",,,
,,2828 N. Litchfield Rd.,,Goodyear,AZ,85395,US,623-547-4500,33.477903,-112.358332,"Branch Hours: Mon: 09:00-17:00, Tue: 09:00-17:00, Wed: 09:00-17:00, Thur: 09:00-17:00, Fri: 09:00-17:00, Sat: 09:00-12:00, Sun: closed-closed, Drive Up: Mon: 09:00-17:00, Tue: 09:00-17:00, Wed: 09:00-17:00, Thur: 09:00-17:00, Fri: 09:00-17:00, Sat: 09:00-12:00, Sun: closed-closed",,,
,,4623 E. Carefree Highway,,Cave Creek,AZ,85331,US,480-437-3500,33.79907,-111.99556,"Branch Hours: Mon: 09:00-17:00, Tue: 09:00-17:00, Wed: 09:00-17:00, Thur: 09:00-17:00, Fri: 09:00-17:00, Sat: closed-closed, Sun: closed-closed, Drive Up: Mon: 09:00-17:00, Tue: 09:00-17:00, Wed: 09:00-17:00, Thur: 09:00-17:00, Fri: 09:00-17:00, Sat: closed-closed, Sun: closed-closed",,,
,,19828 N. 27Th Ave.,,Phoenix,AZ,85027,US,623-869-9600,33.66618286,-112.1172457,"Branch Hours: Mon: 09:00-17:00, Tue: 09:00-17:00, Wed: 09:00-17:00, Thur: 09:00-17:00, Fri: 09:00-17:00, Sat: closed-closed, Sun: closed-closed, Drive Up: Mon: 09:00-17:00, Tue: 09:00-17:00, Wed: 09:00-17:00, Thur: 09:00-17:00, Fri: 09:00-17:00, Sat: closed-closed, Sun: closed-closed",,,
,,1875 W. Happy Valley Rd.,,Phoenix,AZ,85085,US,623-445-2040,33.712725,-112.099441,"Branch Hours: Mon: 09:00-17:00, Tue: 09:00-17:00, Wed: 09:00-17:00, Thur: 09:00-17:00, Fri: 09:00-17:00, Sat: 09:00-12:00, Sun: closed-closed, Drive Up: Mon: 09:00-17:00, Tue: 09:00-17:00, Wed: 09:00-17:00, Thur: 09:00-17:00, Fri: 09:00-17:00, Sat: 09:00-12:00, Sun: closed-closed",,,
,,13250 N. Del Webb Blvd.,,Sun City,AZ,85351,US,623-876-6560,33.6044,-112.28997,"Branch Hours: Mon: 09:00-17:00, Tue: 09:00-17:00, Wed: 09:00-17:00, Thur: 09:00-17:00, Fri: 09:00-17:00, Sat: closed-closed, Sun: closed-closed, Drive Up: Mon: 09:00-17:00, Tue: 09:00-17:00, Wed: 09:00-17:00, Thur: 09:00-17:00, Fri: 09:00-17:00, Sat: closed-closed, Sun: closed-closed",,,
,,1160 S. Watson Rd.,,Buckeye,AZ,85326,US,623-925-3280,33.43605082,-112.5563848,"Branch Hours: Mon: 09:00-17:00, Tue: 09:00-17:00, Wed: 09:00-17:00, Thur: 09:00-17:00, Fri: 09:00-17:00, Sat: closed-closed, Sun: closed-closed, Drive Up: Mon: 09:00-17:00, Tue: 09:00-17:00, Wed: 09:00-17:00, Thur: 09:00-17:00, Fri: 09:00-17:00, Sat: closed-closed, Sun: closed-closed",,,
,,16890 W. Bell Rd.,,Surprise,AZ,85374,US,623-975-5900,33.63858,-112.35013,"Branch Hours: Mon: 09:00-17:00, Tue: 09:00-17:00, Wed: 09:00-17:00, Thur: 09:00-17:00, Fri: 09:00-17:00, Sat: closed-closed, Sun: closed-closed, Drive Up: Mon: 09:00-17:00, Tue: 09:00-17:00, Wed: 09:00-17:00, Thur: 09:00-17:00, Fri: 09:00-17:00, Sat: closed-closed, Sun: closed-closed",,,
,,13926 W. Bell Rd.,,Surprise,AZ,85374,US,623-556-5600,33.63870865,-112.3600012,"Branch Hours: Mon: 09:00-17:00, Tue: 09:00-17:00, Wed: 09:00-17:00, Thur: 09:00-17:00, Fri: 09:00-17:00, Sat: closed-closed, Sun: closed-closed, Drive Up: Mon: 09:00-17:00, Tue: 09:00-17:00, Wed: 09:00-17:00, Thur: 09:00-17:00, Fri: 09:00-17:00, Sat: closed-closed, Sun: closed-closed",,,
,,19428 North R.H. Johnson Blvd.,,Sun City West,AZ,85375,US,623-584-6828,33.660135,-112.355795,"Branch Hours: Mon: 09:00-17:00, Tue: 09:00-17:00, Wed: 09:00-17:00, Thur: 09:00-17:00, Fri: 09:00-17:00, Sat: 09:00-12:00, Sun: closed-closed, Drive Up: Mon: 09:00-17:00, Tue: 09:00-17:00, Wed: 09:00-17:00, Thur: 09:00-17:00, Fri: 09:00-17:00, Sat: 09:00-12:00, Sun: closed-closed",,,
,,9035 W. Union Hills Dr.,,Peoria,AZ,85382,US,623-815-4360,33.6526297,-112.2535939,"Branch Hours: Mon: 09:00-17:00, Tue: 09:00-17:00, Wed: 09:00-17:00, Thur: 09:00-17:00, Fri: 09:00-17:00, Sat: 09:00-12:00, Sun: closed-closed, Drive Up: Mon: 09:00-17:00, Tue: 09:00-17:00, Wed: 09:00-17:00, Thur: 09:00-17:00, Fri: 09:00-17:00, Sat: 09:00-12:00, Sun: closed-closed",,,
,,2010 W. State Route 89A,,Sedona,AZ,86336,US,928-282-2277,34.887029,-111.734356,"Branch Hours: Mon: 09:00-17:00, Tue: 09:00-17:00, Wed: 09:00-17:00, Thur: 09:00-17:00, Fri: 09:00-17:00, Sat: 09:00-12:00, Sun: closed-closed, Drive Up: Mon: 09:00-17:00, Tue: 09:00-17:00, Wed: 09:00-17:00, Thur: 09:00-17:00, Fri: 09:00-17:00, Sat: 09:00-12:00, Sun: closed-closed",,,
,,7221 E. Florentine Rd.,,Prescott Valley,AZ,86314,US,928-775-7600,34.58881883,-112.3386389,"Branch Hours: Mon: 09:00-17:00, Tue: 09:00-17:00, Wed: 09:00-17:00, Thur: 09:00-17:00, Fri: 09:00-17:00, Sat: closed-closed, Sun: closed-closed, Drive Up: Mon: 09:00-17:00, Tue: 09:00-17:00, Wed: 09:00-17:00, Thur: 09:00-17:00, Fri: 09:00-17:00, Sat: closed-closed, Sun: closed-closed",,,
,,355 Corporate Park Dr.,,Clayton,MO,63105,US,314-727-7070,38.64159,-90.34447,"Branch Hours: Mon: 09:00-17:00, Tue: 09:00-17:00, Wed: 09:00-17:00, Thur: 09:00-17:00, Fri: 09:00-17:30, Sat: 09:00-12:00, Sun: closed-closed",,,
,,3095 Clarkson Rd.,,Chesterfield,MO,63017,US,636-527-1560,38.60512667,-90.58568111,"Branch Hours: Mon: 09:00-17:00, Tue: 09:00-17:00, Wed: 09:00-17:00, Thur: 09:00-17:00, Fri: 09:00-17:00, Sat: 09:00-12:00, Sun: closed-closed, Drive Up: Mon: 09:00-17:00, Tue: 09:00-17:00, Wed: 09:00-17:00, Thur: 09:00-17:00, Fri: 09:00-17:30, Sat: 09:00-12:00, Sun: closed-closed",,,
,,100 S. Fourth St.,,St. Louis,MO,63102,US,314-621-0000,38.62423,-90.18921,"Branch Hours: Mon: 09:00-17:00, Tue: 09:00-17:00, Wed: 09:00-17:00, Thur: 09:00-17:00, Fri: 09:00-17:00, Sat: closed-closed, Sun: closed-closed",,,
,,303 N. Montezuma St.,,Prescott,AZ,86301,US,928-776-1010,34.545799,-112.469574,"Branch Hours: Mon: 09:00-17:00, Tue: 09:00-17:00, Wed: 09:00-17:00, Thur: 09:00-17:00, Fri: 09:00-17:00, Sat: 09:00-12:00, Sun: closed-closed, Drive Up: Mon: 09:00-17:00, Tue: 09:00-17:00, Wed: 09:00-17:00, Thur: 09:00-17:00, Fri: 09:00-17:00, Sat: 09:00-12:00, Sun: closed-closed",,,
,,417 N. Broadway,,Pittsburg,KS,66762,US,620-231-2000,37.4112598,-94.70481327,"Branch Hours: Mon: 09:00-17:00, Tue: 09:00-17:00, Wed: 09:00-17:00, Thur: 09:00-17:00, Fri: 09:00-17:00, Sat: closed-closed, Sun: closed-closed",,,
,,700 Corporate Park Dr,,Clayton,MO,63105,US,314-727-7070,38.64329555,-90.34568909,"Branch Hours: Mon: 09:00-17:00, Tue: 09:00-17:00, Wed: 09:00-17:00, Thur: 09:00-17:00, Fri: 09:00-17:00, Sat: closed-closed, Sun: closed-closed",,,
,,13205 Manchester Rd.,,St. Louis,MO,63131,US,314-543-3300,38.60198781,-90.46421872,"Branch Hours: Mon: 09:00-17:00, Tue: 09:00-17:00, Wed: 09:00-17:00, Thur: 09:00-17:00, Fri: 09:00-17:00, Sat: 09:00-12:00, Sun: closed-closed, Drive Up: Mon: 09:00-17:00, Tue: 09:00-17:00, Wed: 09:00-17:00, Thur: 09:00-17:00, Fri: 09:00-17:30, Sat: 09:00-12:00, Sun: closed-closed",,,
,,2301 S. Kingshighway Blvd.,,St. Louis,MO,63110,US,314-776-5200,38.61266,-90.26765,"Branch Hours: Mon: 09:00-17:00, Tue: 09:00-17:00, Wed: 09:00-17:00, Thur: 09:00-17:00, Fri: 09:00-17:00, Sat: 09:00-12:00, Sun: closed-closed, Drive Up: Mon: 09:00-17:00, Tue: 09:00-17:00, Wed: 09:00-17:00, Thur: 09:00-17:00, Fri: 09:00-17:30, Sat: 09:00-12:00, Sun: closed-closed",,,
,,4210 S. Kingshighway Blvd.,,St. Louis,MO,63109,US,314-352-5797,38.59130306,-90.27339306,"Branch Hours: Mon: 09:00-17:00, Tue: 09:00-17:00, Wed: 09:00-17:00, Thur: 09:00-17:00, Fri: 09:00-17:00, Sat: 09:00-12:00, Sun: closed-closed, Drive Up: Mon: 09:00-17:00, Tue: 09:00-17:00, Wed: 09:00-17:00, Thur: 09:00-17:00, Fri: 09:00-17:30, Sat: 09:00-12:00, Sun: closed-closed",,,
,,9206 Watson Rd,,St. Louis,MO,63126,US,314-842-5455,38.5598,-90.37447,"Branch Hours: Mon: 09:00-17:00, Tue: 09:00-17:00, Wed: 09:00-17:00, Thur: 09:00-17:00, Fri: 09:00-17:00, Sat: 09:00-12:00, Sun: closed-closed, Drive Up: Mon: 09:00-17:00, Tue: 09:00-17:00, Wed: 09:00-17:00, Thur: 09:00-17:00, Fri: 09:00-17:30, Sat: 09:00-12:00, Sun: closed-closed",,,
,,#2 Carlyle Plaza Dr.,,Belleville,IL,62221,US,618-233-9288,38.5171,-89.95362,"Branch Hours: Mon: 09:00-17:00, Tue: 09:00-17:00, Wed: 09:00-17:00, Thur: 09:00-17:00, Fri: 09:00-17:00, Sat: 09:00-12:00, Sun: closed-closed, Drive Up: Mon: 09:00-17:00, Tue: 09:00-17:00, Wed: 09:00-17:00, Thur: 09:00-17:00, Fri: 09:00-17:30, Sat: 09:00-12:00, Sun: closed-closed",,,
,,10705 Broadway,,Crown Point,IN,46307,US,219-663-7963,41.4233959,-87.334785,"Branch Hours: Mon: 09:00-17:00, Tue: 09:00-17:00, Wed: 09:00-17:00, Thur: 09:00-17:00, Fri: 09:00-17:00, Sat: 09:00-12:00, Sun: closed-closed, Drive Up: Mon: 09:00-17:00, Tue: 09:00-17:00, Wed: 09:00-17:00, Thur: 09:00-17:00, Fri: 09:00-17:00, Sat: 09:00-12:00, Sun: closed-closed",,,
,,5256 S. Lindbergh Blvd.,,St. Louis,MO,63126,US,314-842-2265,38.52604269,-90.36538615,"Branch Hours: Mon: 09:00-17:00, Tue: 09:00-17:00, Wed: 09:00-17:00, Thur: 09:00-17:00, Fri: 09:00-17:00, Sat: 09:00-12:00, Sun: closed-closed, Drive Up: Mon: 09:00-17:00, Tue: 09:00-17:00, Wed: 09:00-17:00, Thur: 09:00-17:00, Fri: 09:00-17:30, Sat: 09:00-12:00, Sun: closed-closed",,,
,,3701 S. Lindbergh Blvd.,,Sunset Hills,MO,63127,US,314-984-9090,38.55106,-90.40703,"Branch Hours: Mon: 09:00-17:00, Tue: 09:00-17:00, Wed: 09:00-17:00, Thur: 09:00-17:00, Fri: 09:00-17:00, Sat: 09:00-12:00, Sun: closed-closed, Drive Up: Mon: 09:00-17:00, Tue: 09:00-17:00, Wed: 09:00-17:00, Thur: 09:00-17:00, Fri: 09:00-17:30, Sat: 09:00-12:00, Sun: closed-closed",,,
,,1060 Jeffco Blvd.,,Arnold,MO,63010,US,636-282-9949,38.44418,-90.37377,"Branch Hours: Mon: 09:00-17:00, Tue: 09:00-17:00, Wed: 09:00-17:00, Thur: 09:00-17:00, Fri: 09:00-17:00, Sat: 09:00-12:00, Sun: closed-closed, Drive Up: Mon: 09:00-17:00, Tue: 09:00-17:00, Wed: 09:00-17:00, Thur: 09:00-17:00, Fri: 09:00-17:30, Sat: 09:00-12:00, Sun: closed-closed",,,
,,7701 Broadway,,Merrillville,IN,46410,US,219-769-7700,41.478076,-87.335935,"Branch Hours: Mon: 09:00-17:00, Tue: 09:00-17:00, Wed: 09:00-17:00, Thur: 09:00-17:00, Fri: 09:00-17:00, Sat: 09:00-12:00, Sun: closed-closed, Drive Up: Mon: 09:00-17:00, Tue: 09:00-17:00, Wed: 09:00-17:00, Thur: 09:00-17:00, Fri: 09:00-17:00, Sat: 09:00-12:00, Sun: closed-closed",,,
,,6001 E. Melton Road,,Gary,IN,46403,US,219-939-0164,41.59655,-87.265064,"Branch Hours: Mon: 09:00-17:00, Tue: 09:00-17:00, Wed: 09:00-17:00, Thur: 09:00-17:00, Fri: 09:00-17:00, Sat: closed-closed, Sun: closed-closed, Drive Up: Mon: 09:00-17:00, Tue: 09:00-17:00, Wed: 09:00-17:00, Thur: 09:00-17:00, Fri: 09:00-17:00, Sat: closed-closed, Sun: closed-closed",,,
,,750 S. Washington,,Valparaiso,IN,46383,US,219-531-6497,41.46002007,-87.0631441,"Branch Hours: Mon: 09:00-17:00, Tue: 09:00-17:00, Wed: 09:00-17:00, Thur: 09:00-17:00, Fri: 09:00-17:00, Sat: closed-closed, Sun: closed-closed, Drive Up: Mon: 09:00-17:00, Tue: 09:00-17:00, Wed: 09:00-17:00, Thur: 09:00-17:00, Fri: 09:00-17:00, Sat: closed-closed, Sun: closed-closed",,,
,,3500 Calumet Ave.,,Valparaiso,IN,46383,US,219-462-0105,41.499947,-87.041821,"Branch Hours: Mon: 09:00-17:00, Tue: 09:00-17:00, Wed: 09:00-17:00, Thur: 09:00-17:00, Fri: 09:00-17:00, Sat: 09:00-12:00, Sun: closed-closed, Drive Up: Mon: 09:00-17:00, Tue: 09:00-17:00, Wed: 09:00-17:00, Thur: 09:00-17:00, Fri: 09:00-17:00, Sat: 09:00-12:00, Sun: closed-closed",,,
,,2746 W. 5Th Avenue,,Gary,IN,46404,US,219-886-1352,41.60193,-87.371184,"Branch Hours: Mon: 09:00-17:00, Tue: 09:00-17:00, Wed: 09:00-17:00, Thur: 09:00-17:00, Fri: 09:00-17:00, Sat: 09:00-12:00, Sun: closed-closed, Drive Up: Mon: 09:00-17:00, Tue: 09:00-17:00, Wed: 09:00-17:00, Thur: 09:00-17:00, Fri: 09:00-17:00, Sat: 09:00-12:00, Sun: closed-closed",,,
,,2206 West Sycamore Street,,Kokomo,IN,46901,US,765-868-3551,40.487867,-86.160327,"Branch Hours: Mon: 09:00-17:00, Tue: 09:00-17:00, Wed: 09:00-17:00, Thur: 09:00-17:00, Fri: 09:00-18:00, Sat: 09:00-12:00, Sun: closed-closed, Drive Up: Mon: 09:00-17:00, Tue: 09:00-17:00, Wed: 09:00-17:00, Thur: 09:00-17:00, Fri: 09:00-18:00, Sat: 09:00-12:00, Sun: closed-closed",,,
,,6015 Us 6,,Portage,IN,46368,US,219-764-2442,41.550491,-87.182039,"Branch Hours: Mon: 09:00-17:00, Tue: 09:00-17:00, Wed: 09:00-17:00, Thur: 09:00-17:00, Fri: 09:00-17:00, Sat: 09:00-12:00, Sun: closed-closed, Drive Up: Mon: 09:00-17:00, Tue: 09:00-17:00, Wed: 09:00-17:00, Thur: 09:00-17:00, Fri: 09:00-17:00, Sat: 09:00-12:00, Sun: closed-closed",,,
,,502 E 1100 N,,Chesterton,IN,46304,US,219-926-8534,41.594389,-87.043282,"Branch Hours: Mon: 09:00-17:00, Tue: 09:00-17:00, Wed: 09:00-17:00, Thur: 09:00-17:00, Fri: 09:00-17:00, Sat: closed-closed, Sun: closed-closed, Drive Up: Mon: 09:00-17:00, Tue: 09:00-17:00, Wed: 09:00-17:00, Thur: 09:00-17:00, Fri: 09:00-17:00, Sat: closed-closed, Sun: closed-closed",,,
,,421 North Main Street,,Kokomo,IN,46902,US,765-868-3518,40.489631,-86.13152,"Branch Hours: Mon: 09:00-17:00, Tue: 09:00-17:00, Wed: 09:00-17:00, Thur: 09:00-17:00, Fri: 09:00-17:00, Sat: closed-closed, Sun: closed-closed",,,
,,14708 Greyhound Plaza,,Carmel,IN,46032,US,317-575-1134,40.0066561,-86.1450878,"Branch Hours: Mon: 09:00-17:00, Tue: 09:00-17:00, Wed: 09:00-17:00, Thur: 09:00-17:00, Fri: 09:00-18:00, Sat: 09:00-12:00, Sun: closed-closed",,,
,,2389 N. Morton St.,,Franklin,IN,46131,US,317-736-5168,39.50675391,-86.07003357,"Branch Hours: Mon: 09:00-17:00, Tue: 09:00-17:00, Wed: 09:00-17:00, Thur: 09:00-17:00, Fri: 09:00-18:00, Sat: 09:00-12:00, Sun: closed-closed, Drive Up: Mon: 09:00-17:00, Tue: 09:00-17:00, Wed: 09:00-17:00, Thur: 09:00-17:00, Fri: 09:00-18:00, Sat: 09:00-12:00, Sun: closed-closed",,,
,,2135 North Washington,,Kokomo,IN,46901-5839,US,765-868-3401,40.506364,-86.134222,"Branch Hours: Mon: 09:00-17:00, Tue: 09:00-17:00, Wed: 09:00-17:00, Thur: 09:00-17:00, Fri: 09:00-18:00, Sat: closed-closed, Sun: closed-closed, Drive Up: Mon: 09:00-17:00, Tue: 09:00-17:00, Wed: 09:00-17:00, Thur: 09:00-17:00, Fri: 09:00-18:00, Sat: closed-closed, Sun: closed-closed",,,
,,2800 South Reed Road,,Kokomo,IN,46902,US,765-236-4400,40.454852,-86.11244,"Branch Hours: Mon: 09:00-17:00, Tue: 09:00-17:00, Wed: 09:00-17:00, Thur: 09:00-17:00, Fri: 09:00-18:00, Sat: 09:00-12:00, Sun: closed-closed, Drive Up: Mon: 09:00-17:00, Tue: 09:00-17:00, Wed: 09:00-17:00, Thur: 09:00-17:00, Fri: 09:00-18:00, Sat: 09:00-12:00, Sun: closed-closed",,,
,,111 East Main St.,,Westfield,IN,46074,US,317-896-2313,40.04274,-86.12694667,"Branch Hours: Mon: 09:00-17:00, Tue: 09:00-17:00, Wed: 09:00-17:00, Thur: 09:00-17:00, Fri: 09:00-17:00, Sat: 09:00-12:00, Sun: closed-closed",,,
,,350 Logan St.,,Noblesville,IN,46060,US,317-770-4662,40.04885695,-86.02298809,"Branch Hours: Mon: 09:00-17:00, Tue: 09:00-17:00, Wed: 09:00-17:00, Thur: 09:00-17:00, Fri: 09:00-18:00, Sat: 09:00-12:00, Sun: closed-closed, Drive Up: Mon: 09:00-17:00, Tue: 09:00-17:00, Wed: 09:00-17:00, Thur: 09:00-17:00, Fri: 09:00-18:00, Sat: 09:00-12:00, Sun: closed-closed",,,
,,110 East Jefferson Street,,Tipton,IN,46072,US,765-675-2172,40.282264,-86.041039,"Branch Hours: Mon: 09:00-17:00, Tue: 09:00-17:00, Wed: 09:00-17:00, Thur: 09:00-17:00, Fri: 09:00-17:00, Sat: 09:00-12:00, Sun: closed-closed, Drive Up: Mon: 09:00-17:00, Tue: 09:00-17:00, Wed: 09:00-17:00, Thur: 09:00-17:00, Fri: 09:00-17:00, Sat: 09:00-12:00, Sun: closed-closed",,,
,,17269 Mercantile Blvd.,,Noblesville,IN,46060,US,317-776-7510,40.03881303,-85.99349202,"Branch Hours: Mon: 09:00-17:00, Tue: 09:00-17:00, Wed: 09:00-17:00, Thur: 09:00-17:00, Fri: 09:00-18:00, Sat: 09:00-12:00, Sun: closed-closed, Drive Up: Mon: 09:00-17:00, Tue: 09:00-17:00, Wed: 09:00-17:00, Thur: 09:00-17:00, Fri: 09:00-18:00, Sat: 09:00-12:00, Sun: closed-closed",,,
,,201 Harcourt Way,,Rushville,IN,46173,US,765-932-2912,39.62322369,-85.44396546,"Branch Hours: Mon: 09:00-17:00, Tue: 09:00-17:00, Wed: 09:00-17:00, Thur: 09:00-17:00, Fri: 09:00-17:00, Sat: 09:00-12:00, Sun: closed-closed, Drive Up: Mon: 09:00-17:00, Tue: 09:00-17:00, Wed: 09:00-17:00, Thur: 09:00-17:00, Fri: 09:00-17:00, Sat: 09:00-12:00, Sun: closed-closed",,,
,,12620 E. 116Th Street,,Fishers,IN,46037,US,317-570-2500,39.95769263,-85.94178658,"Branch Hours: Mon: 09:00-17:00, Tue: 09:00-17:00, Wed: 09:00-17:00, Thur: 09:00-17:00, Fri: 09:00-18:00, Sat: closed-closed, Sun: closed-closed, Drive Up: Mon: 09:00-17:00, Tue: 09:00-17:00, Wed: 09:00-17:00, Thur: 09:00-17:00, Fri: 09:00-18:00, Sat: closed-closed, Sun: closed-closed",,,
,,115 West State St.,,Pendleton,IN,46064,US,765-778-2196,40.00248,-85.74658853,"Branch Hours: Mon: 09:00-17:00, Tue: 09:00-17:00, Wed: 09:00-17:00, Thur: 09:00-17:00, Fri: 09:00-17:00, Sat: 09:00-12:00, Sun: closed-closed, Drive Up: Mon: 09:00-17:00, Tue: 09:00-17:00, Wed: 09:00-17:00, Thur: 09:00-17:00, Fri: 09:00-17:00, Sat: 09:00-12:00, Sun: closed-closed",,,
,,13225 Tegler Dr.,,Noblesville,IN,46060,US,317-774-2420,39.99393,-85.9233679,"Branch Hours: Mon: 09:00-17:00, Tue: 09:00-17:00, Wed: 09:00-17:00, Thur: 09:00-17:00, Fri: 09:00-17:00, Sat: 09:00-12:00, Sun: closed-closed, Drive Up: Mon: 09:00-17:00, Tue: 09:00-17:00, Wed: 09:00-17:00, Thur: 09:00-17:00, Fri: 09:00-17:00, Sat: 09:00-12:00, Sun: closed-closed",,,
,,1777 Tamiami Trail,,Port Charlotte,FL,33948,US,941-625-4444,27.00734944,-82.13439231,"Branch Hours: Mon: 09:00-16:00, Tue: 09:00-16:00, Wed: 09:00-16:00, Thur: 09:00-16:00, Fri: 09:00-17:00, Sat: closed-closed, Sun: closed-closed, Drive Up: Mon: 09:00-17:00, Tue: 09:00-17:00, Wed: 09:00-17:00, Thur: 09:00-17:00, Fri: 09:00-17:00, Sat: closed-closed, Sun: closed-closed",,,
,,1201 S. Beneva Rd.,,Sarasota,FL,34232,US,941-330-8808,27.32283,-82.49748,"Branch Hours: Mon: 09:00-16:00, Tue: 09:00-16:00, Wed: 09:00-16:00, Thur: 09:00-16:00, Fri: 09:00-17:00, Sat: closed-closed, Sun: closed-closed, Drive Up: Mon: 09:00-17:00, Tue: 09:00-17:00, Wed: 09:00-17:00, Thur: 09:00-17:00, Fri: 09:00-17:00, Sat: closed-closed, Sun: closed-closed",,,
,,240 S. Pineapple Ave.,,Sarasota,FL,34236,US,941-361-2888,27.334494,-82.54060771,"Branch Hours: Mon: 09:00-16:00, Tue: 09:00-16:00, Wed: 09:00-16:00, Thur: 09:00-16:00, Fri: 09:00-17:00, Sat: closed-closed, Sun: closed-closed",,,
,,240 S Pineapple Ave,,Sarasota,FL,34236,US,941-364-9977,27.334499,-82.540624,"Branch Hours: Mon: 09:00-16:00, Tue: 09:00-16:00, Wed: 09:00-16:00, Thur: 09:00-16:00, Fri: 09:00-16:00, Sat: closed-closed, Sun: closed-closed",,,
,,5931 Brookhill Blvd.,,Sarasota,FL,34232,US,941-556-4949,27.337382,-82.450882,"Branch Hours: Mon: 09:00-16:00, Tue: 09:00-16:00, Wed: 09:00-16:00, Thur: 09:00-16:00, Fri: 09:00-17:00, Sat: closed-closed, Sun: closed-closed, Drive Up: Mon: 09:00-17:00, Tue: 09:00-17:00, Wed: 09:00-17:00, Thur: 09:00-17:00, Fri: 09:00-17:00, Sat: closed-closed, Sun: closed-closed",,,
,,5225 University Pkwy,,University Park,FL,34201,US,941-556-6555,27.38875,-82.44744,"Branch Hours: Mon: 09:00-16:00, Tue: 09:00-16:00, Wed: 09:00-16:00, Thur: 09:00-16:00, Fri: 09:00-17:00, Sat: closed-closed, Sun: closed-closed, Drive Up: Mon: 09:00-17:00, Tue: 09:00-17:00, Wed: 09:00-17:00, Thur: 09:00-17:00, Fri: 09:00-17:00, Sat: closed-closed, Sun: closed-closed",,,
,,6821 15Th St. East,,Sarasota,FL,34243,US,941-727-7511,27.41970654,-82.54673515,"Branch Hours: Mon: 09:00-16:00, Tue: 09:00-16:00, Wed: 09:00-16:00, Thur: 09:00-16:00, Fri: 09:00-17:00, Sat: closed-closed, Sun: closed-closed, Drive Up: Mon: 09:00-17:30, Tue: 09:00-17:30, Wed: 09:00-17:30, Thur: 09:00-17:30, Fri: 09:00-18:00, Sat: closed-closed, Sun: closed-closed",,,
,,11535 Palmbrush Trail,,Bradenton,FL,34202,US,941-757-4501,27.43094582,-82.42704568,"Branch Hours: Mon: 09:00-16:00, Tue: 09:00-16:00, Wed: 09:00-16:00, Thur: 09:00-16:00, Fri: 09:00-17:00, Sat: closed-closed, Sun: closed-closed, Drive Up: Mon: 09:00-17:00, Tue: 09:00-17:00, Wed: 09:00-17:00, Thur: 09:00-17:00, Fri: 09:00-17:00, Sat: closed-closed, Sun: closed-closed",,,
,,5503 Manatee Ave. West,,Bradenton,FL,34209,US,941-795-2235,27.49591,-82.61616,"Branch Hours: Mon: 09:00-16:00, Tue: 09:00-16:00, Wed: 09:00-16:00, Thur: 09:00-16:00, Fri: 09:00-17:30, Sat: closed-closed, Sun: closed-closed, Drive Up: Mon: 09:00-17:30, Tue: 09:00-17:30, Wed: 09:00-17:30, Thur: 09:00-17:30, Fri: 09:00-17:30, Sat: closed-closed, Sun: closed-closed",,,
,,4502 Cortez Rd. West,,Bradenton,FL,34210,US,941-761-2150,27.46255508,-82.6060894,"Branch Hours: Mon: 09:00-16:00, Tue: 09:00-16:00, Wed: 09:00-16:00, Thur: 09:00-16:00, Fri: 09:00-17:30, Sat: closed-closed, Sun: closed-closed, Drive Up: Mon: 09:00-17:00, Tue: 09:00-17:00, Wed: 09:00-17:00, Thur: 09:00-17:00, Fri: 09:00-17:30, Sat: closed-closed, Sun: closed-closed",,,
,,4115 Us Highway 301 North,,Ellenton,FL,34222,US,941-729-2118,27.52180559,-82.52262907,"Branch Hours: Mon: 09:00-16:00, Tue: 09:00-16:00, Wed: 09:00-16:00, Thur: 09:00-16:00, Fri: 09:00-17:30, Sat: closed-closed, Sun: closed-closed, Drive Up: Mon: 09:00-17:00, Tue: 09:00-17:00, Wed: 09:00-17:00, Thur: 09:00-17:00, Fri: 09:00-17:30, Sat: closed-closed, Sun: closed-closed",,,
,,1301 8Th Ave. West,,Palmetto,FL,34221,US,941-723-6933,27.52486,-82.57294,"Branch Hours: Mon: 09:00-16:00, Tue: 09:00-16:00, Wed: 09:00-16:00, Thur: 09:00-16:00, Fri: 09:00-17:30, Sat: closed-closed, Sun: closed-closed, Drive Up: Mon: 09:00-17:00, Tue: 09:00-17:00, Wed: 09:00-17:00, Thur: 09:00-17:00, Fri: 09:00-17:30, Sat: closed-closed, Sun: closed-closed",,,
,,103 W. Bloomingdale Ave.,,Brandon,FL,33511,US,813-643-8800,27.89363,-82.28578041,"Branch Hours: Mon: 09:00-16:00, Tue: 09:00-16:00, Wed: 09:00-16:00, Thur: 09:00-16:00, Fri: 09:00-17:00, Sat: closed-closed, Sun: closed-closed, Drive Up: Mon: 09:00-17:00, Tue: 09:00-17:00, Wed: 09:00-17:00, Thur: 09:00-17:00, Fri: 09:00-17:00, Sat: closed-closed, Sun: closed-closed",,,
,,610 W. Northfield Dr.,,Brownsburg,IN,46112,US,317-852-2683,39.85895816,-86.40737784,"Branch Hours: Mon: 09:00-17:00, Tue: 09:00-17:00, Wed: 09:00-17:00, Thur: 09:00-17:00, Fri: 09:00-18:00, Sat: 09:00-12:00, Sun: closed-closed, Drive Up: Mon: 09:00-17:00, Tue: 09:00-17:00, Wed: 09:00-17:00, Thur: 09:00-17:00, Fri: 09:00-18:00, Sat: 09:00-12:00, Sun: closed-closed",,,
,,5461 N. Us Highway 41,,Apollo Beach,FL,33572,US,813-649-0400,27.7482906,-82.41381113,"Branch Hours: Mon: 09:00-16:00, Tue: 09:00-16:00, Wed: 09:00-16:00, Thur: 09:00-16:00, Fri: 09:00-17:00, Sat: closed-closed, Sun: closed-closed, Drive Up: Mon: 09:00-17:00, Tue: 09:00-17:00, Wed: 09:00-17:00, Thur: 09:00-17:00, Fri: 09:00-17:00, Sat: closed-closed, Sun: closed-closed",,,
,,501 E. Kennedy Blvd.,,Tampa,FL,33602,US,813-204-1900,27.94828,-82.45625,"Branch Hours: Mon: 09:00-16:00, Tue: 09:00-16:00, Wed: 09:00-16:00, Thur: 09:00-16:00, Fri: 09:00-17:00, Sat: closed-closed, Sun: closed-closed",,,
,,7150 E 116Th Street,,Fishers,IN,46038,US,317-849-7397,39.957108,-86.042953,"Branch Hours: Mon: 09:00-17:00, Tue: 09:00-17:00, Wed: 09:00-17:00, Thur: 09:00-17:00, Fri: 09:00-18:00, Sat: 09:00-12:00, Sun: closed-closed, Drive Up: Mon: 09:00-17:00, Tue: 09:00-17:00, Wed: 09:00-17:00, Thur: 09:00-17:00, Fri: 09:00-18:00, Sat: 09:00-12:00, Sun: closed-closed",,,
,,1350 West Oak,,Zionsville,IN,46077,US,317-873-4678,39.9500752,-86.27815803,"Branch Hours: Mon: 09:00-17:00, Tue: 09:00-17:00, Wed: 09:00-17:00, Thur: 09:00-17:00, Fri: 09:00-18:00, Sat: 09:00-12:00, Sun: closed-closed, Drive Up: Mon: 09:00-17:00, Tue: 09:00-17:00, Wed: 09:00-17:00, Thur: 09:00-17:00, Fri: 09:00-18:00, Sat: 09:00-12:00, Sun: closed-closed",,,
,,270 Merchants Square Dr.,,Carmel,IN,46032,US,317-844-1660,39.958006,-86.118703,"Branch Hours: Mon: 09:00-17:00, Tue: 09:00-17:00, Wed: 09:00-17:00, Thur: 09:00-17:00, Fri: 09:00-18:00, Sat: 09:00-12:00, Sun: closed-closed, Drive Up: Mon: 09:00-17:00, Tue: 09:00-17:00, Wed: 09:00-17:00, Thur: 09:00-17:00, Fri: 09:00-18:00, Sat: 09:00-12:00, Sun: closed-closed",,,
,,11592 Westfield Blvd,,Carmel,IN,46032,US,317-571-1216,39.9564118,-86.1267591,"Branch Hours: Mon: 09:00-17:00, Tue: 09:00-17:00, Wed: 09:00-17:00, Thur: 09:00-17:00, Fri: 09:00-18:00, Sat: 09:00-12:00, Sun: closed-closed, Drive Up: Mon: 09:00-17:00, Tue: 09:00-17:00, Wed: 09:00-17:00, Thur: 09:00-17:00, Fri: 09:00-18:00, Sat: 09:00-12:00, Sun: closed-closed",,,
,,7503 Beechwood Center Rd.,,Avon,IN,46123,US,317-272-5650,39.7642,-86.3938,"Branch Hours: Mon: 09:00-17:00, Tue: 09:00-17:00, Wed: 09:00-17:00, Thur: 09:00-17:00, Fri: 09:00-18:00, Sat: 09:00-12:00, Sun: closed-closed, Drive Up: Mon: 09:00-17:00, Tue: 09:00-17:00, Wed: 09:00-17:00, Thur: 09:00-17:00, Fri: 09:00-18:00, Sat: 09:00-12:00, Sun: closed-closed",,,
,,9775 Fall Creek Road,,Indianapolis,IN,46256,US,317-845-9619,39.89814,-85.99556,"Branch Hours: Mon: 09:00-17:00, Tue: 09:00-17:00, Wed: 09:00-17:00, Thur: 09:00-17:00, Fri: 09:00-17:00, Sat: 09:00-12:00, Sun: closed-closed, Drive Up: Mon: 09:00-17:00, Tue: 09:00-17:00, Wed: 09:00-17:00, Thur: 09:00-17:00, Fri: 09:00-17:00, Sat: 09:00-12:00, Sun: closed-closed",,,
,,2609 Main St,,Plainfield,IN,46168,US,317-839-3501,39.715897,-86.360025,"Branch Hours: Mon: 09:00-17:00, Tue: 09:00-17:00, Wed: 09:00-17:00, Thur: 09:00-17:00, Fri: 09:00-18:00, Sat: closed-closed, Sun: closed-closed, Drive Up: Mon: 09:00-17:00, Tue: 09:00-17:00, Wed: 09:00-17:00, Thur: 09:00-17:00, Fri: 09:00-18:00, Sat: closed-closed, Sun: closed-closed",,,
,,1696 Meridian Oaks Dr.,,Greenwood,IN,46142,US,317-884-3640,39.61469,-86.15845485,"Branch Hours: Mon: 09:00-17:00, Tue: 09:00-17:00, Wed: 09:00-17:00, Thur: 09:00-17:00, Fri: 09:00-18:00, Sat: 09:00-12:00, Sun: closed-closed, Drive Up: Mon: 09:00-17:00, Tue: 09:00-17:00, Wed: 09:00-17:00, Thur: 09:00-17:00, Fri: 09:00-18:00, Sat: 09:00-12:00, Sun: closed-closed",,,
,,5835 Sunnyside Rd.,,Indianapolis,IN,46235,US,317-823-2064,39.86270898,-85.97273612,"Branch Hours: Mon: 09:00-17:00, Tue: 09:00-17:00, Wed: 09:00-17:00, Thur: 09:00-17:00, Fri: 09:00-17:00, Sat: closed-closed, Sun: closed-closed, Drive Up: Mon: 09:00-17:00, Tue: 09:00-17:00, Wed: 09:00-17:00, Thur: 09:00-17:00, Fri: 09:00-17:00, Sat: closed-closed, Sun: closed-closed",,,
,,7652 N. Shadeland Ave.,,Indianapolis,IN,46250,US,317-576-6340,39.89343796,-86.04611,"Branch Hours: Mon: 09:00-17:00, Tue: 09:00-17:00, Wed: 09:00-17:00, Thur: 09:00-17:00, Fri: 09:00-18:00, Sat: 09:00-12:00, Sun: closed-closed, Drive Up: Mon: 09:00-17:00, Tue: 09:00-17:00, Wed: 09:00-17:00, Thur: 09:00-17:00, Fri: 09:00-18:00, Sat: 09:00-12:00, Sun: closed-closed",,,
,,1402 East 86Th St.,,Indianapolis,IN,46240,US,317-816-4450,39.91258,-86.13650585,"Branch Hours: Mon: 09:00-17:00, Tue: 09:00-17:00, Wed: 09:00-17:00, Thur: 09:00-17:00, Fri: 09:00-18:00, Sat: 09:00-12:00, Sun: closed-closed, Drive Up: Mon: 09:00-17:00, Tue: 09:00-17:00, Wed: 09:00-17:00, Thur: 09:00-17:00, Fri: 09:00-18:00, Sat: 09:00-12:00, Sun: closed-closed",,,
,,2260 West 86Th St.,,Indianapolis,IN,46260,US,317-874-4616,39.9120457,-86.20050205,"Branch Hours: Mon: 09:00-17:00, Tue: 09:00-17:00, Wed: 09:00-17:00, Thur: 09:00-17:00, Fri: 09:00-18:00, Sat: 09:00-12:00, Sun: closed-closed, Drive Up: Mon: 09:00-17:00, Tue: 09:00-17:00, Wed: 09:00-17:00, Thur: 09:00-17:00, Fri: 09:00-18:00, Sat: 09:00-12:00, Sun: closed-closed",,,
,,1253 North Emerson Ave.,,Greenwood,IN,46143,US,317-865-6545,39.63591197,-86.08273623,"Branch Hours: Mon: 09:00-17:00, Tue: 09:00-17:00, Wed: 09:00-17:00, Thur: 09:00-17:00, Fri: 09:00-18:00, Sat: 09:00-12:00, Sun: closed-closed, Drive Up: Mon: 09:00-17:00, Tue: 09:00-17:00, Wed: 09:00-17:00, Thur: 09:00-17:00, Fri: 09:00-18:00, Sat: 09:00-12:00, Sun: closed-closed",,,
,,6410 Intech Commons Dr.,,Indianapolis,IN,46278,US,317-275-3090,39.88020583,-86.27312588,"Branch Hours: Mon: 09:00-17:00, Tue: 09:00-17:00, Wed: 09:00-17:00, Thur: 09:00-17:00, Fri: 09:00-17:00, Sat: closed-closed, Sun: closed-closed, Drive Up: Mon: 09:00-17:00, Tue: 09:00-17:00, Wed: 09:00-17:00, Thur: 09:00-17:00, Fri: 09:00-17:00, Sat: closed-closed, Sun: closed-closed",,,
,,6205 Allisonville Rd.,,Indianapolis,IN,46220,US,317-255-3165,39.86877808,-86.09693026,"Branch Hours: Mon: 09:00-17:00, Tue: 09:00-17:00, Wed: 09:00-17:00, Thur: 09:00-17:00, Fri: 09:00-18:00, Sat: 09:00-12:00, Sun: closed-closed, Drive Up: Mon: 09:00-17:00, Tue: 09:00-17:00, Wed: 09:00-17:00, Thur: 09:00-17:00, Fri: 09:00-18:00, Sat: 09:00-12:00, Sun: closed-closed",,,
,,10040 E. Washington St.,,Indianapolis,IN,46229,US,317-895-3767,39.77502593,-85.98893481,"Branch Hours: Mon: 09:00-17:00, Tue: 09:00-17:00, Wed: 09:00-17:00, Thur: 09:00-17:00, Fri: 09:00-18:00, Sat: 09:00-12:00, Sun: closed-closed, Drive Up: Mon: 09:00-17:00, Tue: 09:00-17:00, Wed: 09:00-17:00, Thur: 09:00-17:00, Fri: 09:00-18:00, Sat: 09:00-12:00, Sun: closed-closed",,,
,,714 Broad Ripple Ave.,,Indianapolis,IN,46220,US,317-254-3135,39.86967305,-86.14596143,"Branch Hours: Mon: 09:00-17:00, Tue: 09:00-17:00, Wed: 09:00-17:00, Thur: 09:00-17:00, Fri: 09:00-17:00, Sat: closed-closed, Sun: closed-closed, Drive Up: Mon: 09:00-17:00, Tue: 09:00-17:00, Wed: 09:00-17:00, Thur: 09:00-17:00, Fri: 09:00-17:00, Sat: closed-closed, Sun: closed-closed",,,
,,1402 N. Shadeland Ave.,,Indianapolis,IN,46219,US,317-352-7020,39.78729894,-86.04543,"Branch Hours: Mon: 09:00-17:00, Tue: 09:00-17:00, Wed: 09:00-17:00, Thur: 09:00-17:00, Fri: 09:00-18:00, Sat: 09:00-12:00, Sun: closed-closed, Drive Up: Mon: 09:00-17:00, Tue: 09:00-17:00, Wed: 09:00-17:00, Thur: 09:00-17:00, Fri: 09:00-18:00, Sat: 09:00-12:00, Sun: closed-closed",,,
,,925 N. High School Rd.,,Indianapolis,IN,46214,US,317-247-5002,39.77839625,-86.2730481,"Branch Hours: Mon: 09:00-17:00, Tue: 09:00-17:00, Wed: 09:00-17:00, Thur: 09:00-17:00, Fri: 09:00-18:00, Sat: 09:00-12:00, Sun: closed-closed, Drive Up: Mon: 09:00-17:00, Tue: 09:00-17:00, Wed: 09:00-17:00, Thur: 09:00-17:00, Fri: 09:00-18:00, Sat: 09:00-12:00, Sun: closed-closed",,,
,,8675 Us 31 South,,Indianapolis,IN,46227,US,317-887-2133,39.64032011,-86.13009722,"Branch Hours: Mon: 09:00-17:00, Tue: 09:00-17:00, Wed: 09:00-17:00, Thur: 09:00-17:00, Fri: 09:00-18:00, Sat: closed-closed, Sun: closed-closed, Drive Up: Mon: 09:00-17:00, Tue: 09:00-17:00, Wed: 09:00-17:00, Thur: 09:00-17:00, Fri: 09:00-18:00, Sat: closed-closed, Sun: closed-closed",,,
,,4200 South East St.,,Indianapolis,IN,46227,US,317-782-4110,39.70456,-86.14898,"Branch Hours: Mon: 09:00-17:00, Tue: closed-closed, Wed: 09:00-17:00, Thur: closed-closed, Fri: 09:00-17:00, Sat: closed-closed, Sun: closed-closed",,,
,,4200 South East St,,Indianapolis,IN,46227,US,317-782-1043,39.7034125,-86.1526936,"Branch Hours: Mon: 09:00-17:00, Tue: 09:00-17:00, Wed: 09:00-17:00, Thur: 09:00-17:00, Fri: 09:00-17:00, Sat: 09:00-12:00, Sun: closed-closed",,,
,,135 N. Pennsylvania,,Indianapolis,IN,46204,US,317-269-1304,39.76922941,-86.15613882,"Branch Hours: Mon: 09:00-17:00, Tue: 09:00-17:00, Wed: 09:00-17:00, Thur: 09:00-17:00, Fri: 09:00-17:30, Sat: closed-closed, Sun: closed-closed",,,
,,7138 E. Thunderbird Rd,,Scottsdale,AZ,85254,US,480-315-6640,33.61126191,-111.9271432,"Branch Hours: Mon: 09:00-17:00, Tue: 09:00-17:00, Wed: 09:00-17:00, Thur: 09:00-17:00, Fri: 09:00-17:00, Sat: 09:00-12:00, Sun: closed-closed, Drive Up: Mon: 09:00-17:00, Tue: 09:00-17:00, Wed: 09:00-17:00, Thur: 09:00-17:00, Fri: 09:00-17:00, Sat: 09:00-12:00, Sun: closed-closed",,,
,,5504 W. Bell Rd.,,Glendale,AZ,85308,US,602-863-5800,33.63895818,-112.1779255,"Branch Hours: Mon: 09:00-17:00, Tue: 09:00-17:00, Wed: 09:00-17:00, Thur: 09:00-17:00, Fri: 09:00-17:00, Sat: 09:00-12:00, Sun: closed-closed, Drive Up: Mon: 09:00-17:00, Tue: 09:00-17:00, Wed: 09:00-17:00, Thur: 09:00-17:00, Fri: 09:00-17:00, Sat: 09:00-12:00, Sun: closed-closed",,,
,,9333 N. 90Th St.,,Scottsdale,AZ,85258,US,480-551-6780,33.56991192,-111.8872982,"Branch Hours: Mon: 09:00-17:00, Tue: 09:00-17:00, Wed: 09:00-17:00, Thur: 09:00-17:00, Fri: 09:00-17:00, Sat: 09:00-12:00, Sun: closed-closed, Drive Up: Mon: 09:00-17:00, Tue: 09:00-17:00, Wed: 09:00-17:00, Thur: 09:00-17:00, Fri: 09:00-17:00, Sat: 09:00-12:00, Sun: closed-closed",,,
,,2839 W. Bell Rd.,,Phoenix,AZ,85053,US,602-548-6020,33.63980515,-112.1205506,"Branch Hours: Mon: 09:00-17:00, Tue: 09:00-17:00, Wed: 09:00-17:00, Thur: 09:00-17:00, Fri: 09:00-17:00, Sat: closed-closed, Sun: closed-closed, Drive Up: Mon: 09:00-17:00, Tue: 09:00-17:00, Wed: 09:00-17:00, Thur: 09:00-17:00, Fri: 09:00-17:00, Sat: closed-closed, Sun: closed-closed",,,
,,1510 W. Southern Ave.,,Mesa,AZ,85202,US,480-898-7150,33.39314902,-111.8639461,"Branch Hours: Mon: 09:00-17:00, Tue: 09:00-17:00, Wed: 09:00-17:00, Thur: 09:00-17:00, Fri: 09:00-17:00, Sat: 09:00-12:00, Sun: closed-closed, Drive Up: Mon: 09:00-17:00, Tue: 09:00-17:00, Wed: 09:00-17:00, Thur: 09:00-17:00, Fri: 09:00-17:00, Sat: 09:00-12:00, Sun: closed-closed",,,
,,4574 E. Cactus Rd.,,Phoenix,AZ,85032,US,602-765-7805,33.5996222,-111.983064,"Branch Hours: Mon: 09:00-17:00, Tue: 09:00-17:00, Wed: 09:00-17:00, Thur: 09:00-17:00, Fri: 09:00-17:00, Sat: 09:00-12:00, Sun: closed-closed, Drive Up: Mon: 09:00-17:00, Tue: 09:00-17:00, Wed: 09:00-17:00, Thur: 09:00-17:00, Fri: 09:00-17:00, Sat: 09:00-12:00, Sun: closed-closed",,,
,,4835 E. Warner Rd.,,Phoenix,AZ,85044,US,480-496-8350,33.33088756,-111.9800402,"Branch Hours: Mon: 09:00-17:00, Tue: 09:00-17:00, Wed: 09:00-17:00, Thur: 09:00-17:00, Fri: 09:00-17:00, Sat: 09:00-12:00, Sun: closed-closed, Drive Up: Mon: 09:00-17:00, Tue: 09:00-17:00, Wed: 09:00-17:00, Thur: 09:00-17:00, Fri: 09:00-17:00, Sat: 09:00-12:00, Sun: closed-closed",,,
,,5704 W. Glenn Dr.,,Glendale,AZ,85301,US,623-463-6100,33.53983,-112.1813667,"Branch Hours: Mon: 09:00-17:00, Tue: 09:00-17:00, Wed: 09:00-17:00, Thur: 09:00-17:00, Fri: 09:00-17:00, Sat: 09:00-12:00, Sun: closed-closed, Drive Up: Mon: 09:00-17:00, Tue: 09:00-17:00, Wed: 09:00-17:00, Thur: 09:00-17:00, Fri: 09:00-17:00, Sat: 09:00-12:00, Sun: closed-closed",,,
,,7510 W. Lower Buckeye Rd.,,Phoenix,AZ,85043,US,623-474-8540,33.42294839,-112.2213969,"Branch Hours: Mon: 09:00-17:00, Tue: 09:00-17:00, Wed: 09:00-17:00, Thur: 09:00-17:00, Fri: 09:00-17:00, Sat: closed-closed, Sun: closed-closed, Drive Up: Mon: 09:00-17:00, Tue: 09:00-17:00, Wed: 09:00-17:00, Thur: 09:00-17:00, Fri: 09:00-17:00, Sat: closed-closed, Sun: closed-closed",,,
,,9050 N. 19Th Ave,,Phoenix,AZ,85021,US,602-216-6160,33.56836551,-112.0996151,"Branch Hours: Mon: 09:00-17:00, Tue: 09:00-17:00, Wed: 09:00-17:00, Thur: 09:00-17:00, Fri: 09:00-17:00, Sat: closed-closed, Sun: closed-closed, Drive Up: Mon: 09:00-17:00, Tue: 09:00-17:00, Wed: 09:00-17:00, Thur: 09:00-17:00, Fri: 09:00-17:00, Sat: closed-closed, Sun: closed-closed",,,
,,526 S Mill Ave.,,Tempe,AZ,85281,US,480-829-3480,33.42519755,-111.9400473,"Branch Hours: Mon: 10:00-18:00, Tue: 10:00-18:00, Wed: 10:00-18:00, Thur: 10:00-18:00, Fri: 10:00-18:00, Sat: closed-closed, Sun: closed-closed",,,
,,2077 S. Priest Dr.,,Tempe,AZ,85282,US,480-377-6000,33.40649417,-111.96077,"Branch Hours: Mon: 09:00-17:00, Tue: 09:00-17:00, Wed: 09:00-17:00, Thur: 09:00-17:00, Fri: 09:00-17:00, Sat: 09:00-12:00, Sun: closed-closed, Drive Up: Mon: 09:00-17:00, Tue: 09:00-17:00, Wed: 09:00-17:00, Thur: 09:00-17:00, Fri: 09:00-17:00, Sat: 09:00-12:00, Sun: closed-closed",,,
,,3100 W. Indian School Rd.,,Phoenix,AZ,85017,US,602-995-6080,33.49495,-112.12563,"Branch Hours: Mon: 09:00-17:00, Tue: 09:00-17:00, Wed: 09:00-17:00, Thur: 09:00-17:00, Fri: 09:00-17:00, Sat: closed-closed, Sun: closed-closed, Drive Up: Mon: 09:00-17:00, Tue: 09:00-17:00, Wed: 09:00-17:00, Thur: 09:00-17:00, Fri: 09:00-17:00, Sat: closed-closed, Sun: closed-closed",,,
,,One E. Camelback Rd.,,Phoenix,AZ,85012,US,602-241-6505,33.50932,-112.07376,"Branch Hours: Mon: 09:00-17:00, Tue: 09:00-17:00, Wed: 09:00-17:00, Thur: 09:00-17:00, Fri: 09:00-17:00, Sat: closed-closed, Sun: closed-closed",,,
,,2196 N. Elston,,Chicago,IL,60614,US,773-384-8600,41.921421,-87.672195,"Branch Hours: Mon: 09:00-17:00, Tue: 09:00-17:00, Wed: 09:00-17:00, Thur: 09:00-17:00, Fri: 09:00-18:00, Sat: 09:00-13:00, Sun: closed-closed, Drive Up: Mon: 09:00-17:00, Tue: 09:00-17:00, Wed: 09:00-17:00, Thur: 09:00-17:00, Fri: 09:00-18:00, Sat: 09:00-13:00, Sun: closed-closed",,,
,,558 A. West Webster Ave,,Chicago,IL,60614,US,773-883-7333,41.922256,-87.643561,"Branch Hours: Mon: 09:00-17:00, Tue: 09:00-17:00, Wed: 09:00-17:00, Thur: 09:00-17:00, Fri: 09:00-18:00, Sat: 09:00-13:00, Sun: closed-closed",,,
,,1400 W. 18Th Street,,Chicago,IL,60608,US,312-432-8700,41.857859,-87.661301,"Branch Hours: Mon: 09:00-17:00, Tue: 09:00-17:00, Wed: 09:00-17:00, Thur: 09:00-17:00, Fri: 09:00-18:00, Sat: 09:00-13:00, Sun: closed-closed",,,
,,1242 N. Ashland Ave,,Chicago,IL,60622,US,773-292-7680,41.904573,-87.667533,"Branch Hours: Mon: 09:00-17:00, Tue: 09:00-17:00, Wed: 09:00-17:00, Thur: 09:00-17:00, Fri: 09:00-18:00, Sat: 09:00-13:00, Sun: closed-closed",,,
,,1000 N. Lakeshore Drive (Oak & Michigan),,Chicago,IL,60610,US,312-649-5000,41.901173,-87.624648,"Branch Hours: Mon: 09:00-17:00, Tue: 09:00-17:00, Wed: 09:00-17:00, Thur: 09:00-17:00, Fri: 09:00-17:00, Sat: 09:00-13:00, Sun: closed-closed",,,
,,352 E. Illinois Street,,Chicago,IL,60611,US,312-222-5200,41.891041,-87.618648,"Branch Hours: Mon: 09:00-17:00, Tue: 09:00-17:00, Wed: 09:00-17:00, Thur: 09:00-17:00, Fri: 09:00-17:00, Sat: closed-closed, Sun: closed-closed",,,
,,33 W. Ohio St.,,Chicago,IL,60610,US,312-245-2715,41.89247009,-87.62935996,"Branch Hours: Mon: 09:00-17:00, Tue: 09:00-17:00, Wed: 09:00-17:00, Thur: 09:00-17:00, Fri: 09:00-17:00, Sat: closed-closed, Sun: closed-closed",,,
,,1300 S. Wabash Ave.,,Chicago,IL,60605,US,312-922-8300,41.86558,-87.626234,"Branch Hours: Mon: 09:00-17:00, Tue: 09:00-17:00, Wed: 09:00-17:00, Thur: 09:00-17:00, Fri: 09:00-17:00, Sat: 09:00-13:00, Sun: closed-closed",,,
,,99 W. Washington Street,,Chicago,IL,60602,US,312-346-4200,41.883081,-87.6307,"Branch Hours: Mon: 08:00-17:00, Tue: 08:00-17:00, Wed: 08:00-17:00, Thur: 08:00-17:00, Fri: 08:00-17:00, Sat: closed-closed, Sun: closed-closed",,,
,,14201 Grand Ave. South,,Burnsville,MN,55337,US,952-898-8020,44.74633192,-93.28134622,"Branch Hours: Mon: 09:00-17:00, Tue: 09:00-17:00, Wed: 09:00-17:00, Thur: 09:00-17:00, Fri: 09:00-17:00, Sat: 09:00-12:00, Sun: closed-closed, Drive Up: Mon: 08:00-17:30, Tue: 08:00-17:30, Wed: 08:00-17:30, Thur: 08:00-17:30, Fri: 08:00-17:30, Sat: 09:00-12:00, Sun: closed-closed",,,
,,7095 151St Street West,,Apple Valley,MN,55124,US,952-431-8660,44.7305945,-93.20883617,"Branch Hours: Mon: 09:00-17:00, Tue: 09:00-17:00, Wed: 09:00-17:00, Thur: 09:00-17:00, Fri: 09:00-17:00, Sat: 09:00-12:00, Sun: closed-closed, Drive Up: Mon: 08:00-17:30, Tue: 08:00-17:30, Wed: 08:00-17:30, Thur: 08:00-17:30, Fri: 08:00-17:30, Sat: 09:00-12:00, Sun: closed-closed",,,
,,2417 Monetary Blvd.,,Hudson,WI,54016,US,715-531-1852,44.95331,-92.7236996,"Branch Hours: Mon: 09:00-17:00, Tue: 09:00-17:00, Wed: 09:00-17:00, Thur: 09:00-17:00, Fri: 09:00-17:00, Sat: 09:00-12:00, Sun: closed-closed, Drive Up: Mon: 09:00-17:00, Tue: 09:00-17:00, Wed: 09:00-17:00, Thur: 09:00-17:00, Fri: 09:00-17:00, Sat: 09:00-12:00, Sun: closed-closed",,,
,,522 W. Roosevelt,,Chicago,IL,60607,US,312-922-4800,41.86724,-87.640089,"Branch Hours: Mon: 09:00-17:00, Tue: 09:00-17:00, Wed: 09:00-17:00, Thur: 09:00-17:00, Fri: 09:00-18:00, Sat: 09:00-13:00, Sun: closed-closed, Drive Up: Mon: 09:00-17:00, Tue: 09:00-17:00, Wed: 09:00-17:00, Thur: 09:00-17:00, Fri: 09:00-18:00, Sat: 09:00-13:00, Sun: closed-closed",,,
,,9935 Hudson Pl.,,Woodbury,MN,55125,US,651-702-7320,44.94510308,-92.90505428,"Branch Hours: Mon: 09:00-17:00, Tue: 09:00-17:00, Wed: 09:00-17:00, Thur: 09:00-17:00, Fri: 09:00-17:00, Sat: 09:00-12:00, Sun: closed-closed, Drive Up: Mon: 08:00-17:30, Tue: 08:00-17:30, Wed: 08:00-17:30, Thur: 08:00-17:30, Fri: 08:00-17:30, Sat: 09:00-12:00, Sun: closed-closed",,,
,,1049 N. Campbell St.,,Prescott,WI,54021,US,715-262-3241,44.76092776,-92.79198571,"Branch Hours: Mon: 09:00-17:00, Tue: 09:00-17:00, Wed: 09:00-17:00, Thur: 09:00-17:00, Fri: 09:00-17:00, Sat: 09:00-12:00, Sun: closed-closed, Drive Up: Mon: 09:00-17:00, Tue: 09:00-17:00, Wed: 09:00-17:00, Thur: 09:00-17:00, Fri: 09:00-17:00, Sat: 09:00-12:00, Sun: closed-closed",,,
,,3500 129Th Ave. Nw,,Coon Rapids,MN,55448,US,763-421-2044,45.20541831,-93.35290967,"Branch Hours: Mon: 09:00-17:00, Tue: 09:00-17:00, Wed: 09:00-17:00, Thur: 09:00-17:00, Fri: 09:00-17:00, Sat: 09:00-12:00, Sun: closed-closed, Drive Up: Mon: 08:00-17:30, Tue: 08:00-17:30, Wed: 08:00-17:30, Thur: 08:00-17:30, Fri: 08:00-17:30, Sat: 09:00-12:00, Sun: closed-closed",,,
,,13798 Rogers Dr.,,Rogers,MN,55374,US,763-428-7400,45.20516036,-93.55047702,"Branch Hours: Mon: 09:00-17:00, Tue: 09:00-17:00, Wed: 09:00-17:00, Thur: 09:00-17:00, Fri: 09:00-17:00, Sat: 09:00-12:00, Sun: closed-closed, Drive Up: Mon: 08:00-17:30, Tue: 08:00-17:30, Wed: 08:00-17:30, Thur: 08:00-17:30, Fri: 08:00-17:30, Sat: 09:00-12:00, Sun: closed-closed",,,
,,103 S. Second St.,,River Falls,WI,54022,US,715-425-8131,44.85812857,-92.62450061,"Branch Hours: Mon: 09:00-17:00, Tue: 09:00-17:00, Wed: 09:00-17:00, Thur: 09:00-17:00, Fri: 09:00-17:00, Sat: 09:00-12:00, Sun: closed-closed, Drive Up: Mon: 09:00-17:00, Tue: 09:00-17:00, Wed: 09:00-17:00, Thur: 09:00-17:00, Fri: 09:00-17:00, Sat: 09:00-12:00, Sun: closed-closed",,,
,,2005 West Route 34,,Plano,IL,60545,US,630-552-3154,41.65897,-88.548995,"Branch Hours: Mon: 09:00-17:00, Tue: 09:00-17:00, Wed: 09:00-17:00, Thur: 09:00-17:00, Fri: 09:00-17:00, Sat: 09:00-12:00, Sun: closed-closed, Drive Up: Mon: 09:00-17:00, Tue: 09:00-17:00, Wed: 09:00-17:00, Thur: 09:00-17:00, Fri: 09:00-17:00, Sat: 09:00-12:00, Sun: closed-closed",,,
,,207 W. Mondamin,,Minooka,IL,60447,US,815-467-2126,41.455525,-88.263984,"Branch Hours: Mon: 09:00-17:00, Tue: 09:00-17:00, Wed: 09:00-17:00, Thur: 09:00-17:00, Fri: 09:00-17:00, Sat: 09:00-12:00, Sun: closed-closed, Drive Up: Mon: 09:00-17:00, Tue: 09:00-17:00, Wed: 09:00-17:00, Thur: 09:00-17:00, Fri: 09:00-17:00, Sat: 09:00-12:00, Sun: closed-closed",,,
,,27121 W. Eames Street,,Channahon,IL,60410,US,815-467-2800,41.418684,-88.267649,"Branch Hours: Mon: 09:00-17:00, Tue: 09:00-17:00, Wed: 09:00-17:00, Thur: 09:00-17:00, Fri: 09:00-17:00, Sat: 09:00-12:00, Sun: closed-closed, Drive Up: Mon: 09:00-17:00, Tue: 09:00-17:00, Wed: 09:00-17:00, Thur: 09:00-17:00, Fri: 09:00-17:00, Sat: 09:00-12:00, Sun: closed-closed",,,
,,1970 Caterpiller Drive,,Montgomery,IL,60538,US,630-844-7007,41.71825245,-88.37925326,"Branch Hours: Mon: 09:00-17:00, Tue: 09:00-17:00, Wed: 09:00-17:00, Thur: 09:00-17:00, Fri: 09:00-17:00, Sat: closed-closed, Sun: closed-closed, Drive Up: Mon: 09:00-17:00, Tue: 09:00-17:00, Wed: 09:00-17:00, Thur: 09:00-17:00, Fri: 09:00-17:00, Sat: closed-closed, Sun: closed-closed",,,
,,2251 S Route 59,,Plainfield,IL,60586,US,815-254-5600,41.562712,-88.200261,"Branch Hours: Mon: 09:00-17:00, Tue: 09:00-17:00, Wed: 09:00-17:00, Thur: 09:00-17:00, Fri: 09:00-18:00, Sat: 09:00-13:00, Sun: closed-closed, Drive Up: Mon: 08:30-17:00, Tue: 08:30-17:00, Wed: 08:30-17:00, Thur: 08:30-17:00, Fri: 08:30-18:00, Sat: 08:30-13:00, Sun: closed-closed",,,
,,24745 West Eames Street,,Channahon,IL,60410,US,815-467-3800,41.43752,-88.214461,"Branch Hours: Mon: 09:00-17:00, Tue: 09:00-17:00, Wed: 09:00-17:00, Thur: 09:00-17:00, Fri: 09:00-17:00, Sat: closed-closed, Sun: closed-closed, Drive Up: Mon: 09:00-17:00, Tue: 09:00-17:00, Wed: 09:00-17:00, Thur: 09:00-17:00, Fri: 09:00-17:00, Sat: closed-closed, Sun: closed-closed",,,
,,709 West Jefferson Street,,Shorewood,IL,60404,US,815-741-6464,41.521489,-88.204922,"Branch Hours: Mon: 09:00-17:00, Tue: 09:00-17:00, Wed: 09:00-17:00, Thur: 09:00-17:00, Fri: 09:00-17:30, Sat: 09:00-13:00, Sun: closed-closed, Drive Up: Mon: 08:30-17:30, Tue: 08:30-17:30, Wed: 08:30-17:30, Thur: 08:30-17:30, Fri: 08:30-17:30, Sat: 08:30-13:00, Sun: closed-closed",,,
,,920 Fourth Ave,,Rockford,IL,61104,US,815-961-7095,42.26298259,-89.08278644,"Branch Hours: Mon: 08:00-18:00, Tue: 08:00-18:00, Wed: 08:00-18:00, Thur: 08:00-18:00, Fri: 08:00-18:00, Sat: closed-closed, Sun: closed-closed",,,
,,15101 S. Route 59,,Plainfield,IL,60544,US,815-436-2265,41.608469,-88.202178,"Branch Hours: Mon: 09:00-17:00, Tue: 09:00-17:00, Wed: 09:00-17:00, Thur: 09:00-17:00, Fri: 09:00-17:00, Sat: 09:00-12:00, Sun: closed-closed, Drive Up: Mon: 09:00-17:00, Tue: 09:00-17:00, Wed: 09:00-17:00, Thur: 09:00-17:00, Fri: 09:00-17:00, Sat: 09:00-12:00, Sun: closed-closed",,,
,,801 Essington Road,,Joliet,IL,60435,US,815-741-5600,41.536478,-88.16062,"Branch Hours: Mon: 09:00-17:00, Tue: 09:00-17:00, Wed: 09:00-17:00, Thur: 09:00-17:00, Fri: 09:00-18:00, Sat: 09:00-13:00, Sun: closed-closed, Drive Up: Mon: 08:00-17:30, Tue: 08:00-17:30, Wed: 08:00-17:30, Thur: 08:00-17:30, Fri: 08:00-18:00, Sat: 08:00-13:00, Sun: closed-closed",,,
,,1275 Benington Rd,,Rockford,IL,61103,US,815-921-0800,42.318799,-89.078351,"Branch Hours: Mon: 09:00-17:00, Tue: 09:00-17:00, Wed: 09:00-17:00, Thur: 09:00-17:00, Fri: 09:00-17:00, Sat: 09:00-13:00, Sun: closed-closed, Drive Up: Mon: 08:00-18:00, Tue: 08:00-18:00, Wed: 08:00-18:00, Thur: 08:00-18:00, Fri: 08:00-18:00, Sat: 08:30-13:00, Sun: closed-closed",,,
,,207 North Midland Avenue,,Joliet,IL,60435,US,815-741-5630,41.525837,-88.11524,"Branch Hours: Mon: 09:00-17:00, Tue: 09:00-17:00, Wed: 09:00-17:00, Thur: 09:00-17:00, Fri: 09:00-18:00, Sat: 09:00-13:00, Sun: closed-closed, Drive Up: Mon: 08:00-17:30, Tue: 08:00-17:30, Wed: 08:00-17:30, Thur: 08:00-17:30, Fri: 08:00-18:00, Sat: 08:00-13:00, Sun: closed-closed",,,
,,15901 S. Division St,,Plainfield,IL,60586,US,815-254-5020,41.593542,-88.200838,"Branch Hours: Mon: 09:00-17:00, Tue: 09:00-17:00, Wed: 09:00-17:00, Thur: 09:00-17:00, Fri: 09:00-17:30, Sat: closed-closed, Sun: closed-closed, Drive Up: Mon: 09:00-17:00, Tue: 09:00-17:00, Wed: 09:00-17:00, Thur: 09:00-17:00, Fri: 09:00-17:30, Sat: closed-closed, Sun: closed-closed",,,
,,501 Seventh St,,Rockford,IL,61104,US,815-969-1500,42.262537,-89.080802,"Branch Hours: Mon: 09:00-17:00, Tue: 09:00-17:00, Wed: 09:00-17:00, Thur: 09:00-17:00, Fri: 09:00-17:00, Sat: closed-closed, Sun: closed-closed",,,
,,1480 S Alpine Rd,,Rockford,IL,61108,US,815-227-6300,42.252008,-89.028907,"Branch Hours: Mon: 09:00-17:00, Tue: 09:00-17:00, Wed: 09:00-17:00, Thur: 09:00-17:00, Fri: 09:00-17:00, Sat: 09:00-13:00, Sun: closed-closed, Drive Up: Mon: 08:00-18:00, Tue: 08:00-18:00, Wed: 08:00-18:00, Thur: 08:00-18:00, Fri: 08:00-18:00, Sat: 08:30-13:00, Sun: closed-closed",,,
,,3202 N McFarland Rd,,Rockford,IL,61114,US,815-921-0850,42.307392,-88.978103,"Branch Hours: Mon: 09:00-17:00, Tue: 09:00-17:00, Wed: 09:00-17:00, Thur: 09:00-17:00, Fri: 09:00-17:00, Sat: 09:00-13:00, Sun: closed-closed, Drive Up: Mon: 08:00-18:00, Tue: 08:00-18:00, Wed: 08:00-18:00, Thur: 08:00-18:00, Fri: 08:00-18:00, Sat: 08:30-13:00, Sun: closed-closed",,,
,,4844 Hononegah Rd,,Roscoe,IL,61073,US,815-623-2322,42.432067,-89.022614,"Branch Hours: Mon: 09:00-17:00, Tue: 09:00-17:00, Wed: 09:00-17:00, Thur: 09:00-17:00, Fri: 09:00-17:00, Sat: 09:00-13:00, Sun: closed-closed, Drive Up: Mon: 08:00-18:00, Tue: 08:00-18:00, Wed: 08:00-18:00, Thur: 08:00-18:00, Fri: 08:00-18:00, Sat: 08:30-13:00, Sun: closed-closed",,,
,,2705 N Mulford Rd,,Rockford,IL,61114,US,815-921-0825,42.299428,-88.999488,"Branch Hours: Mon: 09:00-17:00, Tue: 09:00-17:00, Wed: 09:00-17:00, Thur: 09:00-17:00, Fri: 09:00-17:00, Sat: 09:00-13:00, Sun: closed-closed, Drive Up: Mon: 08:00-18:00, Tue: 08:00-18:00, Wed: 08:00-18:00, Thur: 08:00-18:00, Fri: 08:00-18:00, Sat: 08:30-13:00, Sun: closed-closed",,,
,,1530 West Ln,,Machesney Park,IL,61115,US,815-921-0888,42.365634,-89.021669,"Branch Hours: Mon: 09:00-17:00, Tue: 09:00-17:00, Wed: 09:00-17:00, Thur: 09:00-17:00, Fri: 09:00-17:00, Sat: 09:00-13:00, Sun: closed-closed, Drive Up: Mon: 08:00-18:00, Tue: 08:00-18:00, Wed: 08:00-18:00, Thur: 08:00-18:00, Fri: 08:00-18:00, Sat: 08:30-13:00, Sun: closed-closed",,,
,,2510 S Alpine Rd,,Rockford,IL,61108,US,815-227-6363,42.23951,-89.028926,"Branch Hours: Mon: 09:00-17:00, Tue: 09:00-17:00, Wed: 09:00-17:00, Thur: 09:00-17:00, Fri: 09:00-17:00, Sat: 09:00-13:00, Sun: closed-closed, Drive Up: Mon: 08:00-18:00, Tue: 08:00-18:00, Wed: 08:00-18:00, Thur: 08:00-18:00, Fri: 08:00-18:00, Sat: 08:30-13:00, Sun: closed-closed",,,
,,100 Wisconsin Ave.,,Denmark,WI,54208,US,920-863-2185,44.34794,-87.82684,"Branch Hours: Mon: 09:00-17:00, Tue: 09:00-17:00, Wed: 09:00-17:00, Thur: 09:00-17:00, Fri: 09:00-17:30, Sat: closed-closed, Sun: closed-closed, Drive Up: Mon: 08:30-17:00, Tue: 08:30-17:00, Wed: 08:30-17:00, Thur: 08:30-17:00, Fri: 08:30-17:30, Sat: closed-closed, Sun: closed-closed",,,
,,401 Southtowne Dr,,Belvidere,IL,61008,US,815-544-4004,42.241004,-88.843566,"Branch Hours: Mon: 09:00-17:00, Tue: 09:00-17:00, Wed: 09:00-17:00, Thur: 09:00-17:00, Fri: 09:00-17:00, Sat: 09:00-13:00, Sun: closed-closed, Drive Up: Mon: 08:00-18:00, Tue: 08:00-18:00, Wed: 08:00-18:00, Thur: 08:00-18:00, Fri: 08:00-18:00, Sat: 08:30-13:00, Sun: closed-closed",,,
,,N70 W5185 Columbia Rd,,Cedarburg,WI,53012,US,262-377-9000,43.3005938,-87.9774419,"Branch Hours: Mon: 07:30-17:30, Tue: 07:30-17:30, Wed: 07:30-17:30, Thur: 07:30-17:30, Fri: 07:30-17:30, Sat: 08:30-12:00, Sun: closed-closed",,,
,,N69 W5269 Columbia Rd.,,Cedarburg,WI,53012,US,262-377-9000,43.30111,-87.976146,"Branch Hours: Mon: 09:00-17:00, Tue: 09:00-17:00, Wed: 09:00-17:00, Thur: 09:00-17:00, Fri: 09:00-17:00, Sat: 09:00-12:00, Sun: closed-closed",,,
,,826 East Ninth Street,,Lockport,IL,60441,US,815-838-8600,41.589172,-88.045429,"Branch Hours: Mon: 09:00-17:00, Tue: 09:00-17:00, Wed: 09:00-17:00, Thur: 09:00-17:00, Fri: 09:00-17:00, Sat: 09:00-13:00, Sun: closed-closed, Drive Up: Mon: 08:30-17:00, Tue: 08:30-17:00, Wed: 08:30-17:00, Thur: 08:30-17:00, Fri: 08:30-17:30, Sat: 08:30-13:00, Sun: closed-closed",,,
,,110 W. Maple Street,,New Lenox,IL,60451,US,815-485-7500,41.513806,-87.967348,"Branch Hours: Mon: 09:00-17:00, Tue: 09:00-17:00, Wed: 09:00-17:00, Thur: 09:00-17:00, Fri: 09:00-17:00, Sat: closed-closed, Sun: closed-closed, Drive Up: Mon: 09:00-17:00, Tue: 09:00-17:00, Wed: 09:00-17:00, Thur: 09:00-17:00, Fri: 09:00-17:00, Sat: closed-closed, Sun: closed-closed",,,
,,626 Townhall Drive,,Romeoville,IL,60446,US,815-886-1900,41.652783,-88.084317,"Branch Hours: Mon: 09:00-17:00, Tue: 09:00-17:00, Wed: 09:00-17:00, Thur: 09:00-17:00, Fri: 09:00-17:30, Sat: 09:00-12:00, Sun: closed-closed, Drive Up: Mon: 09:00-17:00, Tue: 09:00-17:00, Wed: 09:00-17:00, Thur: 09:00-17:00, Fri: 09:00-17:30, Sat: 09:00-12:00, Sun: closed-closed",,,
,,360 W. Maple Street,,New Lenox,IL,60451,US,815-485-7550,41.516479,-87.978361,"Branch Hours: Mon: 09:00-17:00, Tue: 09:00-17:00, Wed: 09:00-17:00, Thur: 09:00-17:00, Fri: 09:00-17:00, Sat: 09:00-13:00, Sun: closed-closed, Drive Up: Mon: 08:00-18:00, Tue: 08:00-18:00, Wed: 08:00-18:00, Thur: 08:00-18:00, Fri: 08:00-18:00, Sat: 08:00-15:00, Sun: closed-closed",,,
,,18084 S. Wolf Rd,,Orland Park,IL,60467,US,708-478-4774,41.560395,-87.8903,"Branch Hours: Mon: 09:00-17:00, Tue: 09:00-17:00, Wed: 09:00-17:00, Thur: 09:00-17:00, Fri: 09:00-17:00, Sat: 09:00-12:00, Sun: closed-closed, Drive Up: Mon: 09:00-17:00, Tue: 09:00-17:00, Wed: 09:00-17:00, Thur: 09:00-17:00, Fri: 09:00-17:00, Sat: 09:00-12:00, Sun: closed-closed",,,
,,11041 W. Lincoln Hwy,,Frankfort,IL,60423,US,815-469-3600,41.503668,-87.884978,"Branch Hours: Mon: 09:00-17:00, Tue: 09:00-17:00, Wed: 09:00-17:00, Thur: 09:00-17:00, Fri: 09:00-17:00, Sat: 09:00-12:00, Sun: closed-closed, Drive Up: Mon: 09:00-17:00, Tue: 09:00-17:00, Wed: 09:00-17:00, Thur: 09:00-17:00, Fri: 09:00-17:00, Sat: 09:00-12:00, Sun: closed-closed",,,
,,4501 N. Vernon Blvd.,,Madison,WI,53705,US,608-231-5430,43.06935,-89.45237,"Branch Hours: Mon: 08:30-17:30, Tue: 08:30-17:30, Wed: 08:30-17:30, Thur: 08:30-17:30, Fri: 08:30-17:30, Sat: 09:00-12:00, Sun: closed-closed",,,
,,1 W. Main St.,,Madison,WI,53703,US,608-252-5800,43.07394,-89.38309,"Branch Hours: Mon: 09:00-17:00, Tue: 09:00-17:00, Wed: 09:00-17:00, Thur: 09:00-17:00, Fri: 09:00-17:00, Sat: closed-closed, Sun: closed-closed, Drive Up: Mon: 08:30-17:30, Tue: 08:30-17:30, Wed: 08:30-17:30, Thur: 08:30-17:30, Fri: 08:30-18:00, Sat: 09:00-12:00, Sun: closed-closed",,,
,,1202 N. Sherman Ave,,Madison,WI,53703,US,608-249-0123,43.11288727,-89.36376939,"Branch Hours: Mon: 09:00-17:00, Tue: 09:00-17:00, Wed: 09:00-17:00, Thur: 09:00-17:00, Fri: 09:00-17:00, Sat: 09:00-12:00, Sun: closed-closed, Drive Up: Mon: 08:00-17:30, Tue: 08:00-17:30, Wed: 08:00-17:30, Thur: 08:00-17:30, Fri: 08:00-17:30, Sat: 09:00-12:00, Sun: closed-closed",,,
,,4613 Monona Dr.,,Monona,WI,53716,US,608-221-7960,43.07029959,-89.32609122,"Branch Hours: Mon: 08:30-17:30, Tue: 08:30-17:30, Wed: 08:30-17:30, Thur: 08:30-17:30, Fri: 08:30-17:30, Sat: 09:00-12:00, Sun: closed-closed, Drive Up: Mon: 08:30-17:30, Tue: 08:30-17:30, Wed: 08:30-17:30, Thur: 08:30-17:30, Fri: 08:30-17:30, Sat: 09:00-12:00, Sun: closed-closed",,,
,,401 N. Segoe Rd.,,Madison,WI,53705,US,608-238-9373,43.07096,-89.45471,"Branch Hours: Mon: 09:00-17:00, Tue: 09:00-17:00, Wed: 09:00-17:00, Thur: 09:00-17:00, Fri: 09:00-17:00, Sat: 09:00-12:00, Sun: closed-closed",,,
,,4522 Cottage Grove Rd.,,Madison,WI,53716,US,608-223-3061,43.08424898,-89.30498204,"Branch Hours: Mon: 08:30-17:30, Tue: 08:30-17:30, Wed: 08:30-17:30, Thur: 08:30-17:30, Fri: 08:30-17:30, Sat: 09:00-12:00, Sun: closed-closed",,,
,,2900 Fish Hatchery Rd.,,Madison,WI,53713,US,608-273-5620,43.02896265,-89.41099734,"Branch Hours: Mon: 09:00-17:00, Tue: 09:00-17:00, Wed: 09:00-17:00, Thur: 09:00-17:00, Fri: 09:00-17:00, Sat: closed-closed, Sun: closed-closed, Drive Up: Mon: 08:00-17:30, Tue: 08:00-17:30, Wed: 08:00-17:30, Thur: 08:00-17:30, Fri: 08:00-17:30, Sat: 09:00-12:00, Sun: closed-closed",,,
,,4711 Monona Dr.,,Monona,WI,53716,US,608-222-1222,43.06903492,-89.32613126,"Branch Hours: Mon: 09:00-17:00, Tue: 09:00-17:00, Wed: 09:00-17:00, Thur: 09:00-17:00, Fri: 09:00-17:00, Sat: 09:00-12:00, Sun: closed-closed",,,
,,4702 Verona Rd,,Madison,WI,53711,US,608-278-2717,43.033391,-89.458027,"Branch Hours: Mon: 09:00-17:00, Tue: 09:00-17:00, Wed: 09:00-17:00, Thur: 09:00-17:00, Fri: 09:00-17:00, Sat: closed-closed, Sun: closed-closed, Drive Up: Mon: 09:00-17:00, Tue: 09:00-17:00, Wed: 09:00-17:00, Thur: 09:00-17:00, Fri: 09:00-17:00, Sat: closed-closed, Sun: closed-closed",,,
,,201 W. Grand Ave,,Bensenville,IL,60106,US,630-595-4000,41.9316,-87.946848,"Branch Hours: Mon: 09:00-17:00, Tue: 09:00-17:00, Wed: 09:00-17:00, Thur: 09:00-17:00, Fri: 09:00-17:30, Sat: 09:00-12:30, Sun: closed-closed, Drive Up: Mon: 08:30-17:30, Tue: 08:30-17:30, Wed: 08:30-17:30, Thur: 08:30-17:30, Fri: 08:30-17:30, Sat: 09:00-12:30, Sun: closed-closed",,,
,,4726 E. Towne Blvd.,,Madison,WI,53704,US,608-249-8638,43.12941199,-89.30383705,"Branch Hours: Mon: 09:00-17:00, Tue: 09:00-17:00, Wed: 09:00-17:00, Thur: 09:00-17:00, Fri: 09:00-17:00, Sat: 09:00-12:00, Sun: closed-closed, Drive Up: Mon: 08:00-17:30, Tue: 08:00-17:30, Wed: 08:00-17:30, Thur: 08:00-17:30, Fri: 08:00-17:30, Sat: 09:00-12:00, Sun: closed-closed",,,
,,7801 Mineral Point Rd.,,Madison,WI,53717,US,608-833-6000,43.0605,-89.51755,"Branch Hours: Mon: 09:00-17:00, Tue: 09:00-17:00, Wed: 09:00-17:00, Thur: 09:00-17:00, Fri: 09:00-17:00, Sat: 09:00-12:00, Sun: closed-closed, Drive Up: Mon: 08:00-17:30, Tue: 08:00-17:30, Wed: 08:00-17:30, Thur: 08:00-17:30, Fri: 08:00-17:30, Sat: 09:00-12:00, Sun: closed-closed",,,
,,5250 Verona Rd.,,Madison,WI,53711,US,608-274-5250,43.02218,-89.47006,"Branch Hours: Mon: 09:00-17:00, Tue: 09:00-17:00, Wed: 09:00-17:00, Thur: 09:00-17:00, Fri: 09:00-17:00, Sat: 09:00-12:00, Sun: closed-closed, Drive Up: Mon: 08:00-17:30, Tue: 08:00-17:30, Wed: 08:00-17:30, Thur: 08:00-17:30, Fri: 08:00-17:30, Sat: 09:00-12:00, Sun: closed-closed",,,
,,127 Jefferson St.,,Oregon,WI,53575,US,608-835-3141,42.92641604,-89.38490402,"Branch Hours: Mon: 09:00-17:00, Tue: 09:00-17:00, Wed: 09:00-17:00, Thur: 09:00-17:00, Fri: 09:00-17:00, Sat: closed-closed, Sun: closed-closed, Drive Up: Mon: 07:30-18:00, Tue: 07:30-18:00, Wed: 07:30-18:00, Thur: 07:30-18:00, Fri: 07:30-18:00, Sat: 09:00-12:00, Sun: closed-closed",,,
,,220 N. Century Ave.,,Waunakee,WI,53597,US,608-849-2401,43.19267837,-89.46176204,"Branch Hours: Mon: 09:00-17:00, Tue: 09:00-17:00, Wed: 09:00-17:00, Thur: 09:00-17:00, Fri: 09:00-17:00, Sat: closed-closed, Sun: closed-closed, Drive Up: Mon: 08:00-17:30, Tue: 08:00-17:30, Wed: 08:00-17:30, Thur: 08:00-17:30, Fri: 08:00-17:30, Sat: 09:00-12:00, Sun: closed-closed",,,
,,7447 University Ave.,,Middleton,WI,53562,US,608-836-1511,43.09689184,-89.50980265,"Branch Hours: Mon: 09:00-17:00, Tue: 09:00-17:00, Wed: 09:00-17:00, Thur: 09:00-17:00, Fri: 09:00-17:00, Sat: 09:00-12:00, Sun: closed-closed, Drive Up: Mon: 08:00-17:30, Tue: 08:00-17:30, Wed: 08:00-17:30, Thur: 08:00-17:30, Fri: 08:00-17:30, Sat: 09:00-12:00, Sun: closed-closed",,,
,,610 W Verona Ave,,Verona,WI,53593,US,608-497-4505,42.988384,-89.548957,"Branch Hours: Mon: 09:00-17:00, Tue: 09:00-17:00, Wed: 09:00-17:00, Thur: 09:00-17:00, Fri: 09:00-17:00, Sat: 09:00-12:00, Sun: closed-closed, Drive Up: Mon: 08:30-17:30, Tue: 08:30-17:30, Wed: 08:30-17:30, Thur: 08:30-17:30, Fri: 08:30-17:30, Sat: 09:00-12:00, Sun: closed-closed",,,
,,20820 S Lagrange Road,,Frankfort,IL,60423,US,815-464-2340,41.511023,-87.850279,"Branch Hours: Mon: 09:00-17:00, Tue: 09:00-17:00, Wed: 09:00-17:00, Thur: 09:00-17:00, Fri: 09:00-17:00, Sat: 09:00-13:00, Sun: closed-closed, Drive Up: Mon: 09:00-17:00, Tue: 09:00-17:00, Wed: 09:00-17:00, Thur: 09:00-17:00, Fri: 09:00-17:00, Sat: 09:00-13:00, Sun: closed-closed",,,
,,1140 W. Main St.,,Sun Prairie,WI,53590,US,608-837-7373,43.18041551,-89.23167041,"Branch Hours: Mon: 09:00-17:00, Tue: 09:00-17:00, Wed: 09:00-17:00, Thur: 09:00-17:00, Fri: 09:00-17:00, Sat: 09:00-12:00, Sun: closed-closed, Drive Up: Mon: 08:00-17:30, Tue: 08:00-17:30, Wed: 08:00-17:30, Thur: 08:00-17:30, Fri: 08:00-17:30, Sat: 09:00-12:00, Sun: closed-closed",,,
,,507 S. Washington Street,,Naperville,IL,60540,US,630-548-7950,41.769717,-88.148404,"Branch Hours: Mon: 09:00-17:00, Tue: 09:00-17:00, Wed: 09:00-17:00, Thur: 09:00-17:00, Fri: 09:00-17:00, Sat: closed-closed, Sun: closed-closed, Drive Up: Mon: 09:00-17:00, Tue: 09:00-17:00, Wed: 09:00-17:00, Thur: 09:00-17:00, Fri: 09:00-17:00, Sat: closed-closed, Sun: closed-closed",,,
,,12747 W. 143Rd Street,,Homer Glen,IL,60491,US,708-301-2265,41.628874,-87.930822,"Branch Hours: Mon: 09:00-17:00, Tue: 09:00-17:00, Wed: 09:00-17:00, Thur: 09:00-17:00, Fri: 09:00-17:00, Sat: 09:00-13:00, Sun: closed-closed, Drive Up: Mon: 08:00-18:00, Tue: 08:00-18:00, Wed: 08:00-18:00, Thur: 08:00-18:00, Fri: 08:00-18:00, Sat: 08:00-13:00, Sun: closed-closed",,,
,,710 S. Weber Rd.,,Bolingbrook,IL,60490,US,630-226-5330,41.67515,-88.125451,"Branch Hours: Mon: 09:00-17:00, Tue: 09:00-17:00, Wed: 09:00-17:00, Thur: 09:00-17:00, Fri: 09:00-17:00, Sat: 09:00-12:00, Sun: closed-closed, Drive Up: Mon: 09:00-17:00, Tue: 09:00-17:00, Wed: 09:00-17:00, Thur: 09:00-17:00, Fri: 09:00-17:00, Sat: 09:00-12:00, Sun: closed-closed",,,
,,1284 Rickert Road,,Naperville,IL,60540,US,630-527-2140,41.74944,-88.168569,"Branch Hours: Mon: 09:00-17:00, Tue: 09:00-17:00, Wed: 09:00-17:00, Thur: 09:00-17:00, Fri: 09:00-17:00, Sat: 09:00-12:00, Sun: closed-closed, Drive Up: Mon: 09:00-17:00, Tue: 09:00-17:00, Wed: 09:00-17:00, Thur: 09:00-17:00, Fri: 09:00-17:00, Sat: 09:00-12:00, Sun: closed-closed",,,
,,15901 Wolf Road,,Orland Park,IL,60467,US,708-460-2265,41.6002,-87.891389,"Branch Hours: Mon: 09:00-17:00, Tue: 09:00-17:00, Wed: 09:00-17:00, Thur: 09:00-17:00, Fri: 09:00-17:00, Sat: closed-closed, Sun: closed-closed, Drive Up: Mon: 09:00-17:00, Tue: 09:00-17:00, Wed: 09:00-17:00, Thur: 09:00-17:00, Fri: 09:00-17:00, Sat: closed-closed, Sun: closed-closed",,,
,,225 Lily Cache Lane,,Bolingbrook,IL,60440,US,630-759-1234,41.691095,-88.074922,"Branch Hours: Mon: 09:00-17:00, Tue: 09:00-17:00, Wed: 09:00-17:00, Thur: 09:00-17:00, Fri: 09:00-17:00, Sat: closed-closed, Sun: closed-closed, Drive Up: Mon: 09:00-17:00, Tue: 09:00-17:00, Wed: 09:00-17:00, Thur: 09:00-17:00, Fri: 09:00-17:00, Sat: closed-closed, Sun: closed-closed",,,
,,1795 S. Washington Street,,Naperville,IL,60563,US,630-548-7960,41.735032,-88.128424,"Branch Hours: Mon: 09:00-17:00, Tue: 09:00-17:00, Wed: 09:00-17:00, Thur: 09:00-17:00, Fri: 09:00-17:00, Sat: closed-closed, Sun: closed-closed",,,
,,2975 Cedar Glade Drive,,Naperville,IL,60564,US,630-961-9500,41.711004,-88.201149,"Branch Hours: Mon: 09:00-17:00, Tue: 09:00-17:00, Wed: 09:00-17:00, Thur: 09:00-17:00, Fri: 09:00-17:00, Sat: 09:00-12:00, Sun: closed-closed, Drive Up: Mon: 09:00-17:00, Tue: 09:00-17:00, Wed: 09:00-17:00, Thur: 09:00-17:00, Fri: 09:00-18:00, Sat: 09:00-12:00, Sun: closed-closed",,,
,,503 N. Washington Street,,Naperville,IL,60563,US,630-420-3500,41.781158,-88.147518,"Branch Hours: Mon: 09:00-17:00, Tue: 09:00-17:00, Wed: 09:00-17:00, Thur: 09:00-17:00, Fri: 09:00-17:00, Sat: 09:00-12:00, Sun: closed-closed, Drive Up: Mon: 09:00-17:00, Tue: 09:00-17:00, Wed: 09:00-17:00, Thur: 09:00-17:00, Fri: 09:00-17:00, Sat: 09:00-12:00, Sun: closed-closed",,,
,,320 W. Diehl Road,,Naperville,IL,60563,US,630-548-7940,41.801289,-88.152839,"Branch Hours: Mon: 09:00-17:00, Tue: 09:00-17:00, Wed: 09:00-17:00, Thur: 09:00-17:00, Fri: 09:00-17:00, Sat: closed-closed, Sun: closed-closed, Drive Up: Mon: 08:00-18:00, Tue: 08:00-18:00, Wed: 08:00-18:00, Thur: 08:00-18:00, Fri: 08:00-18:00, Sat: 08:00-13:00, Sun: closed-closed",,,
,,123 Main St.,,Casco,WI,54205,US,920-837-2207,44.55895491,-87.61124243,"Branch Hours: Mon: 09:00-17:00, Tue: 09:00-17:00, Wed: 09:00-17:00, Thur: 09:00-17:00, Fri: 09:00-17:30, Sat: closed-closed, Sun: closed-closed, Drive Up: Mon: 08:00-17:00, Tue: 08:00-17:00, Wed: 08:00-17:00, Thur: 08:00-17:00, Fri: 08:00-17:30, Sat: 08:30-12:00, Sun: closed-closed",,,
,,1200 Washington St.,,Grafton,WI,53024,US,262-377-4000,43.31996,-87.951759,"Branch Hours: Mon: 09:00-17:00, Tue: 09:00-17:00, Wed: 09:00-17:00, Thur: 09:00-17:00, Fri: 09:00-18:00, Sat: 09:00-12:00, Sun: closed-closed, Drive Up: Mon: 07:30-18:00, Tue: 07:30-18:00, Wed: 07:30-18:00, Thur: 07:30-18:00, Fri: 07:30-18:00, Sat: 08:30-12:00, Sun: closed-closed",,,
,,859 E. Green Bay Ave.,,Saukville,WI,53080,US,262-284-4491,43.38489188,-87.92196482,"Branch Hours: Mon: 09:00-17:00, Tue: 09:00-17:00, Wed: 09:00-17:00, Thur: 09:00-17:00, Fri: 09:00-17:30, Sat: 09:00-12:00, Sun: closed-closed, Drive Up: Mon: 07:30-17:30, Tue: 07:30-17:30, Wed: 07:30-17:30, Thur: 07:30-17:30, Fri: 07:30-17:30, Sat: 08:00-12:00, Sun: closed-closed",,,
,,2002 Eastern Ave.,,Plymouth,WI,53073,US,920-893-5944,43.74711,-87.95715444,"Branch Hours: Mon: 09:00-17:00, Tue: 09:00-17:00, Wed: 09:00-17:00, Thur: 09:00-17:00, Fri: 09:00-17:00, Sat: closed-closed, Sun: closed-closed, Drive Up: Mon: 08:30-17:00, Tue: 08:30-17:00, Wed: 08:30-17:00, Thur: 08:30-17:00, Fri: 08:30-17:30, Sat: 09:00-12:00, Sun: closed-closed",,,
,,201 Allen St,,Random Lake,WI,53075,US,920-994-4362,43.550942,-87.963609,"Branch Hours: Mon: 08:30-17:00, Tue: 08:30-17:00, Wed: 08:30-17:00, Thur: 08:30-17:00, Fri: 08:30-17:30, Sat: 09:00-12:00, Sun: closed-closed, Drive Up: Mon: 08:30-17:00, Tue: 08:30-17:00, Wed: 08:30-17:00, Thur: 08:00-17:00, Fri: 08:30-18:00, Sat: 08:30-12:00, Sun: closed-closed",,,
,,1701 Sheridan Road,,Wilmette,IL,60091,US,847-256-5610,42.08832,-87.702338,"Branch Hours: Mon: 09:00-17:00, Tue: 09:00-17:00, Wed: 09:00-17:00, Thur: 09:00-17:00, Fri: 09:00-17:00, Sat: 09:00-12:30, Sun: closed-closed, Drive Up: Mon: 09:00-17:00, Tue: 09:00-17:00, Wed: 09:00-17:00, Thur: 09:00-17:00, Fri: 09:00-17:00, Sat: 09:00-12:30, Sun: closed-closed",,,
,,1187 North Eola Rd,,Aurora,IL,60502,US,630-236-9200,41.781164,-88.240685,"Branch Hours: Mon: 09:00-17:00, Tue: 09:00-17:00, Wed: 09:00-17:00, Thur: 09:00-17:00, Fri: 09:00-17:00, Sat: 09:00-12:00, Sun: closed-closed, Drive Up: Mon: 09:00-17:00, Tue: 09:00-17:00, Wed: 09:00-17:00, Thur: 09:00-17:00, Fri: 09:00-17:00, Sat: 09:00-12:00, Sun: closed-closed",,,
,,1638 Maple Ave,,Evanston,IL,60201,US,847-866-9090,42.047662,-87.684969,"Branch Hours: Mon: 09:00-17:00, Tue: 09:00-17:00, Wed: 09:00-17:00, Thur: 09:00-17:00, Fri: 09:00-17:00, Sat: 09:00-12:30, Sun: closed-closed",,,
,,6556 N. Sheridan Road,,Chicago,IL,60626,US,773-381-7000,42.001052,-87.660725,"Branch Hours: Mon: 09:00-17:00, Tue: 09:00-17:00, Wed: 09:00-17:00, Thur: 09:00-17:00, Fri: 09:00-18:00, Sat: 09:00-13:00, Sun: closed-closed",,,
,,1050 Maple Ave,,Lisle,IL,60532,US,630-963-2300,41.787834,-88.074294,"Branch Hours: Mon: 09:00-17:00, Tue: 09:00-17:00, Wed: 09:00-17:00, Thur: 09:00-17:00, Fri: 09:00-17:00, Sat: 09:00-12:00, Sun: closed-closed, Drive Up: Mon: 09:00-17:00, Tue: 09:00-17:00, Wed: 09:00-17:00, Thur: 09:00-17:00, Fri: 09:00-17:00, Sat: 09:00-12:00, Sun: closed-closed",,,
,,250 Dundee Ave,,Elgin,IL,60120,US,847-931-3370,42.041671,-88.279616,"Branch Hours: Mon: 09:00-17:00, Tue: 09:00-17:00, Wed: 09:00-17:00, Thur: 09:00-17:00, Fri: 09:00-17:00, Sat: 09:00-12:00, Sun: closed-closed, Drive Up: Mon: 09:00-17:00, Tue: 09:00-17:00, Wed: 09:00-17:00, Thur: 09:00-17:00, Fri: 09:00-17:00, Sat: 09:00-12:00, Sun: closed-closed",,,
,,2821 Central St,,Evanston,IL,60201,US,847-869-5200,42.064459,-87.713759,"Branch Hours: Mon: 09:00-17:00, Tue: 09:00-17:00, Wed: 09:00-17:00, Thur: 09:00-17:00, Fri: 09:00-17:00, Sat: 09:00-12:30, Sun: closed-closed, Drive Up: Mon: 09:00-17:00, Tue: 09:00-17:00, Wed: 09:00-17:00, Thur: 09:00-17:00, Fri: 09:00-17:00, Sat: 09:00-12:30, Sun: closed-closed",,,
,,720 S. Eighth Street,,West Dundee,IL,60118,US,847-426-8878,42.090188,-88.289359,"Branch Hours: Mon: 09:00-17:00, Tue: 09:00-17:00, Wed: 09:00-17:00, Thur: 09:00-17:00, Fri: 09:00-17:00, Sat: 09:00-12:30, Sun: closed-closed, Drive Up: Mon: 09:00-17:00, Tue: 09:00-17:00, Wed: 09:00-17:00, Thur: 09:00-17:00, Fri: 09:00-17:00, Sat: 09:00-12:30, Sun: closed-closed",,,
,,170 N McLean Blvd,,Elgin,IL,60123,US,847-931-4950,42.039114,-88.311899,"Branch Hours: Mon: 09:00-17:00, Tue: 09:00-17:00, Wed: 09:00-17:00, Thur: 09:00-17:00, Fri: 09:00-17:00, Sat: 09:00-12:00, Sun: closed-closed, Drive Up: Mon: 09:00-17:00, Tue: 09:00-17:00, Wed: 09:00-17:00, Thur: 09:00-17:00, Fri: 09:00-17:00, Sat: 09:00-12:00, Sun: closed-closed",,,
,,473 Redington Dr,,South Elgin,IL,60177,US,847-695-2299,41.979416,-88.341987,"Branch Hours: Mon: 09:00-17:00, Tue: 09:00-17:00, Wed: 09:00-17:00, Thur: 09:00-17:00, Fri: 09:00-17:00, Sat: 09:00-12:00, Sun: closed-closed, Drive Up: Mon: 09:00-17:00, Tue: 09:00-17:00, Wed: 09:00-17:00, Thur: 09:00-17:00, Fri: 09:00-17:00, Sat: 09:00-12:00, Sun: closed-closed",,,
,,185 W Irving Park Rd,,Streamwood,IL,60107,US,630-830-1050,42.014779,-88.187705,"Branch Hours: Mon: 09:00-17:00, Tue: 09:00-17:00, Wed: 09:00-17:00, Thur: 09:00-17:00, Fri: 09:00-17:30, Sat: 09:00-13:00, Sun: closed-closed, Drive Up: Mon: 08:30-17:30, Tue: 08:30-17:30, Wed: 08:30-17:30, Thur: 08:30-17:30, Fri: 08:30-17:30, Sat: 08:30-13:00, Sun: closed-closed",,,
,,94 N Kennedy Memorial Dr,,Carpentersville,IL,60110,US,847-836-2815,42.105753,-88.258317,"Branch Hours: Mon: 09:00-17:00, Tue: 09:00-17:00, Wed: 09:00-17:00, Thur: 09:00-17:00, Fri: 09:00-17:00, Sat: 09:00-12:30, Sun: closed-closed",,,
,,7227 Calumet Ave.,,Hammond,IN,46324,US,219-933-3910,41.581954,-87.508669,"Branch Hours: Mon: 09:00-17:00, Tue: 09:00-17:00, Wed: 09:00-17:00, Thur: 09:00-17:00, Fri: 09:00-17:00, Sat: 09:00-12:00, Sun: closed-closed, Drive Up: Mon: 09:00-17:00, Tue: 09:00-17:00, Wed: 09:00-17:00, Thur: 09:00-17:00, Fri: 09:00-17:00, Sat: 09:00-12:00, Sun: closed-closed",,,
,,335 S. Main Street,,Bartlett,IL,60103,US,630-837-2611,41.989143,-88.184375,"Branch Hours: Mon: 09:00-17:00, Tue: 09:00-17:00, Wed: 09:00-17:00, Thur: 09:00-17:00, Fri: 09:00-17:00, Sat: 09:00-12:00, Sun: closed-closed, Drive Up: Mon: 09:00-17:00, Tue: 09:00-17:00, Wed: 09:00-17:00, Thur: 09:00-17:00, Fri: 09:00-17:00, Sat: 09:00-12:00, Sun: closed-closed",,,
,,915 Ridge Road,,Munster,IN,46321,US,219-836-5038,41.56096,-87.506659,"Branch Hours: Mon: 09:00-17:00, Tue: 09:00-17:00, Wed: 09:00-17:00, Thur: 09:00-17:00, Fri: 09:00-17:00, Sat: 09:00-12:00, Sun: closed-closed, Drive Up: Mon: 09:00-17:00, Tue: 09:00-17:00, Wed: 09:00-17:00, Thur: 09:00-17:00, Fri: 09:00-17:00, Sat: 09:00-12:00, Sun: closed-closed",,,
,,27 E Sibley St,,Hammond,IN,46320,US,219-852-1000,41.62039975,-87.52472146,"Branch Hours: Mon: 09:00-17:00, Tue: 09:00-17:00, Wed: 09:00-17:00, Thur: 09:00-17:00, Fri: 09:00-17:00, Sat: closed-closed, Sun: closed-closed, Drive Up: Mon: 09:00-17:00, Tue: 09:00-17:00, Wed: 09:00-17:00, Thur: 09:00-17:00, Fri: 09:00-17:00, Sat: closed-closed, Sun: closed-closed",,,
,,530 Torrence Ave,,Calumet City,IL,60409,US,708-862-1500,41.619562,-87.559164,"Branch Hours: Mon: 09:00-17:00, Tue: 09:00-17:00, Wed: 09:00-17:00, Thur: 09:00-17:00, Fri: 09:00-17:00, Sat: 09:00-12:00, Sun: closed-closed, Drive Up: Mon: 09:00-17:00, Tue: 09:00-17:00, Wed: 09:00-17:00, Thur: 09:00-17:00, Fri: 09:00-17:00, Sat: 09:00-12:00, Sun: closed-closed",,,
,,17600 Halsted,,Homewood,IL,60430,US,708-798-1100,41.56947,-87.636339,"Branch Hours: Mon: 09:00-17:00, Tue: 09:00-17:00, Wed: 09:00-17:00, Thur: 09:00-17:00, Fri: 09:00-17:00, Sat: 09:00-12:00, Sun: closed-closed, Drive Up: Mon: 09:00-17:00, Tue: 09:00-17:00, Wed: 09:00-17:00, Thur: 09:00-17:00, Fri: 09:00-17:00, Sat: 09:00-12:00, Sun: closed-closed",,,
,,10020 Calumet Ave.,,Munster,IN,46321,US,219-922-3550,41.529712,-87.509885,"Branch Hours: Mon: 09:00-17:00, Tue: 09:00-17:00, Wed: 09:00-17:00, Thur: 09:00-17:00, Fri: 09:00-17:00, Sat: closed-closed, Sun: closed-closed, Drive Up: Mon: 09:00-17:00, Tue: 09:00-17:00, Wed: 09:00-17:00, Thur: 09:00-17:00, Fri: 09:00-17:00, Sat: closed-closed, Sun: closed-closed",,,
,,801 Joliet Street (U.S. 30),,Dyer,IN,46311,US,219-864-8317,41.492819,-87.507865,"Branch Hours: Mon: 09:00-17:00, Tue: 09:00-17:00, Wed: 09:00-17:00, Thur: 09:00-17:00, Fri: 09:00-17:00, Sat: 09:00-12:00, Sun: closed-closed, Drive Up: Mon: 09:00-17:00, Tue: 09:00-17:00, Wed: 09:00-17:00, Thur: 09:00-17:00, Fri: 09:00-17:00, Sat: 09:00-12:00, Sun: closed-closed",,,
,,44 W. 162Nd St.,,South Holland,IL,60473,US,708-331-7400,41.600903,-87.618653,"Branch Hours: Mon: 09:00-17:00, Tue: 09:00-17:00, Wed: 09:00-17:00, Thur: 09:00-17:00, Fri: 09:00-17:00, Sat: closed-closed, Sun: closed-closed",,,
,,10 S. Villa Ave.,,Villa Park,IL,60181,US,630-834-0800,41.889873,-87.969197,"Branch Hours: Mon: 09:00-17:00, Tue: 09:00-17:00, Wed: 09:00-17:00, Thur: 09:00-17:00, Fri: 09:00-18:00, Sat: 09:00-13:00, Sun: closed-closed, Drive Up: Mon: 09:00-17:00, Tue: 09:00-17:00, Wed: 09:00-17:00, Thur: 09:00-17:00, Fri: 09:00-18:00, Sat: 09:00-13:00, Sun: closed-closed",,,
,,17 W 695 Roosevelt Road,,Oakbrook Terrace,IL,60181,US,630-495-3100,41.8601339,-87.9736565,"Branch Hours: Mon: 09:00-17:00, Tue: 09:00-17:00, Wed: 09:00-17:00, Thur: 09:00-17:00, Fri: 09:00-17:00, Sat: 09:00-12:00, Sun: closed-closed, Drive Up: Mon: 09:00-17:00, Tue: 09:00-17:00, Wed: 09:00-17:00, Thur: 09:00-17:00, Fri: 09:00-17:00, Sat: 09:00-12:00, Sun: closed-closed",,,
,,115 W. Third Street,,Elmhurst,IL,60126,US,630-833-5900,41.90401,-87.941539,"Branch Hours: Mon: 09:00-17:00, Tue: 09:00-17:00, Wed: 09:00-17:00, Thur: 09:00-17:00, Fri: 09:00-17:00, Sat: closed-closed, Sun: closed-closed, Drive Up: Mon: 09:00-17:00, Tue: 09:00-17:00, Wed: 09:00-17:00, Thur: 09:00-17:00, Fri: 09:00-17:00, Sat: closed-closed, Sun: closed-closed",,,
,,7549 W. 63Rd Street,,Summit,IL,60501,US,708-458-5800,41.777115,-87.809412,"Branch Hours: Mon: 09:00-17:00, Tue: 09:00-17:00, Wed: 09:00-17:00, Thur: 09:00-17:00, Fri: 09:00-18:00, Sat: 09:00-13:00, Sun: closed-closed",,,
,,6400 S. Pulaski Road,,Chicago,IL,60629,US,773-735-2121,41.77683,-87.722709,"Branch Hours: Mon: 09:00-17:00, Tue: 09:00-17:00, Wed: 09:00-17:00, Thur: 09:00-17:00, Fri: 09:00-18:00, Sat: 09:00-13:00, Sun: closed-closed, Drive Up: Mon: 09:00-17:00, Tue: 09:00-17:00, Wed: 09:00-17:00, Thur: 09:00-17:00, Fri: 09:00-18:00, Sat: 09:00-13:00, Sun: closed-closed",,,
,,1630 Chicago Road,,Chicago Heights,IL,60411,US,708-755-9063,41.501445,-87.640453,"Branch Hours: Mon: 09:00-17:00, Tue: 09:00-17:00, Wed: 09:00-17:00, Thur: 09:00-17:00, Fri: 09:00-17:00, Sat: 09:00-12:00, Sun: closed-closed, Drive Up: Mon: 09:00-17:00, Tue: 09:00-17:00, Wed: 09:00-17:00, Thur: 09:00-17:00, Fri: 09:00-17:00, Sat: 09:00-12:00, Sun: closed-closed",,,
,,1000 S. La Grange Road,,La Grange,IL,60525,US,708-482-5450,41.795623,-87.869367,"Branch Hours: Mon: 09:00-17:00, Tue: 09:00-17:00, Wed: 09:00-17:00, Thur: 09:00-17:00, Fri: 09:00-17:00, Sat: 09:00-12:00, Sun: closed-closed, Drive Up: Mon: 09:00-17:00, Tue: 09:00-17:00, Wed: 09:00-17:00, Thur: 09:00-17:00, Fri: 09:00-17:00, Sat: 09:00-12:00, Sun: closed-closed",,,
,,1007 W. Euclid,,Arlington Heights,IL,60005,US,847-506-1007,42.08832,-87.995168,"Branch Hours: Mon: 09:00-17:00, Tue: 09:00-17:00, Wed: 09:00-17:00, Thur: 09:00-17:00, Fri: 09:00-17:00, Sat: 09:00-12:30, Sun: closed-closed, Drive Up: Mon: 09:00-17:00, Tue: 09:00-17:00, Wed: 09:00-17:00, Thur: 09:00-17:00, Fri: 09:00-17:00, Sat: 09:00-12:30, Sun: closed-closed",,,
,,6343 W. 63Rd Street,,Chicago,IL,60638,US,773-788-4500,41.777702,-87.77991,"Branch Hours: Mon: 09:00-17:00, Tue: 09:00-17:00, Wed: 09:00-17:00, Thur: 09:00-17:00, Fri: 09:00-18:00, Sat: 09:00-13:00, Sun: closed-closed, Drive Up: Mon: 09:00-17:00, Tue: 09:00-17:00, Wed: 09:00-17:00, Thur: 09:00-17:00, Fri: 09:00-18:00, Sat: 09:00-13:00, Sun: closed-closed",,,
,,7100 Ogden Ave,,Berwyn,IL,60402,US,708-484-2900,41.824255,-87.800202,"Branch Hours: Mon: 09:00-17:00, Tue: 09:00-17:00, Wed: 09:00-17:00, Thur: 09:00-17:00, Fri: 09:00-17:00, Sat: 09:00-13:00, Sun: closed-closed, Drive Up: Mon: 09:00-17:00, Tue: 09:00-17:00, Wed: 09:00-17:00, Thur: 09:00-17:00, Fri: 09:00-18:00, Sat: 09:00-13:00, Sun: closed-closed",,,
,,6655 Cermak Road,,Berwyn,IL,60402,US,708-749-1900,41.850665,-87.790015,"Branch Hours: Mon: 09:00-17:00, Tue: 09:00-17:00, Wed: 09:00-17:00, Thur: 09:00-17:00, Fri: 09:00-18:00, Sat: 09:00-13:00, Sun: closed-closed, Drive Up: Mon: 09:00-17:00, Tue: 09:00-17:00, Wed: 09:00-17:00, Thur: 09:00-17:00, Fri: 09:00-18:00, Sat: 09:00-13:00, Sun: closed-closed",,,
,,9101 Cermark Rd,,North Riverside,IL,60546,US,708-447-7500,41.8502896,-87.8035467,"Branch Hours: Mon: 90:0-17:00, Tue: 90:0-17:00, Wed: 90:0-17:00, Thur: 90:0-17:00, Fri: 90:0-17:00, Sat: 90:0-12:00, Sun: closed-closed",,,
,,901 Burlington Ave.,,Western Springs,IL,60558,US,708-246-1575,41.808781,-87.900691,"Branch Hours: Mon: 09:00-17:00, Tue: 09:00-17:00, Wed: 09:00-17:00, Thur: 09:00-17:00, Fri: 09:00-17:00, Sat: closed-closed, Sun: closed-closed",,,
,,6811 Stanley Ave,,Berwyn,IL,60402,US,708-795-1075,41.833513,-87.793458,"Branch Hours: Mon: 09:00-17:00, Tue: 09:00-17:00, Wed: 09:00-17:00, Thur: 09:00-17:00, Fri: 09:00-18:00, Sat: 09:00-13:00, Sun: closed-closed, Drive Up: Mon: 09:00-17:00, Tue: 09:00-17:00, Wed: 09:00-17:00, Thur: 09:00-17:00, Fri: 09:00-18:00, Sat: 09:00-13:00, Sun: closed-closed",,,
,,9043 W Cermak Road,,North Riverside,IL,60546,US,708-447-7462,41.849273,-87.849072,"Branch Hours: Mon: 09:00-17:00, Tue: 09:00-17:00, Wed: 09:00-17:00, Thur: 09:00-17:00, Fri: 09:00-17:00, Sat: closed-closed, Sun: closed-closed",,,
,,2223 W Roosevelt Rd,,Broadview,IL,60155,US,708-681-2250,41.863892,-87.859432,"Branch Hours: Mon: 09:00-17:00, Tue: 09:00-17:00, Wed: 09:00-17:00, Thur: 09:00-17:00, Fri: 09:00-17:00, Sat: 09:00-12:00, Sun: closed-closed, Drive Up: Mon: 09:00-17:00, Tue: 09:00-17:00, Wed: 09:00-17:00, Thur: 09:00-17:00, Fri: 09:00-17:00, Sat: 09:00-12:00, Sun: closed-closed",,,
,,10500 W. Cermak Road,,Westchester,IL,60154,US,708-562-3100,41.848797,-87.884404,"Branch Hours: Mon: 09:00-17:00, Tue: 09:00-17:00, Wed: 09:00-17:00, Thur: 09:00-17:00, Fri: 09:00-17:00, Sat: 09:00-12:00, Sun: closed-closed, Drive Up: Mon: 09:00-17:00, Tue: 09:00-17:00, Wed: 09:00-17:00, Thur: 09:00-17:00, Fri: 09:00-17:00, Sat: 09:00-12:00, Sun: closed-closed",,,
,,1121 S. York Road,,Elmhurst,IL,60126,US,630-530-4300,41.867592,-87.933104,"Branch Hours: Mon: 09:00-17:00, Tue: 09:00-17:00, Wed: 09:00-17:00, Thur: 09:00-17:00, Fri: 09:00-17:00, Sat: 09:00-12:00, Sun: closed-closed, Drive Up: Mon: 09:00-17:00, Tue: 09:00-17:00, Wed: 09:00-17:00, Thur: 09:00-17:00, Fri: 09:00-17:00, Sat: 09:00-12:00, Sun: closed-closed",,,
,,3225 Kirchoff Road,,Rolling Meadows,IL,60008,US,847-870-4470,42.078352,-88.020283,"Branch Hours: Mon: 09:00-17:00, Tue: 09:00-17:00, Wed: 09:00-17:00, Thur: 09:00-17:00, Fri: 09:00-17:00, Sat: 09:00-12:30, Sun: closed-closed, Drive Up: Mon: 09:00-17:00, Tue: 09:00-17:00, Wed: 09:00-17:00, Thur: 09:00-17:00, Fri: 09:00-17:00, Sat: 09:00-12:30, Sun: closed-closed",,,
,,215 E. Palatine Road,,Arlington Heights,IL,60004,US,847-398-2600,42.109752,-87.979252,"Branch Hours: Mon: 09:00-17:00, Tue: 09:00-17:00, Wed: 09:00-17:00, Thur: 09:00-17:00, Fri: 09:00-17:00, Sat: 09:00-12:30, Sun: closed-closed, Drive Up: Mon: 09:00-17:00, Tue: 09:00-17:00, Wed: 09:00-17:00, Thur: 09:00-17:00, Fri: 09:00-17:00, Sat: 09:00-12:30, Sun: closed-closed",,,
,,8400 W. 159Th Street,,Orland Park,IL,60462,US,708-403-6060,41.601821,-87.823421,"Branch Hours: Mon: 09:00-17:00, Tue: 09:00-17:00, Wed: 09:00-17:00, Thur: 09:00-17:00, Fri: 09:00-17:00, Sat: 09:00-12:00, Sun: closed-closed, Drive Up: Mon: 09:00-17:00, Tue: 09:00-17:00, Wed: 09:00-17:00, Thur: 09:00-17:00, Fri: 09:00-17:00, Sat: 09:00-12:00, Sun: closed-closed",,,
,,4475 Grand Ave.,,Western Springs,IL,60558,US,708-246-6752,41.8083,-87.901847,"Branch Hours: Mon: 09:00-17:00, Tue: 09:00-17:00, Wed: 09:00-17:00, Thur: 09:00-17:00, Fri: 09:00-17:00, Sat: closed-closed, Sun: closed-closed, Drive Up: Mon: 09:00-17:00, Tue: 09:00-17:00, Wed: 09:00-17:00, Thur: 09:00-17:00, Fri: 09:00-17:00, Sat: closed-closed, Sun: closed-closed",,,
,,19500 S. Harlem,,Frankfort,IL,60423,US,815-464-2360,41.536389,-87.791547,"Branch Hours: Mon: 09:00-17:00, Tue: 09:00-17:00, Wed: 09:00-17:00, Thur: 09:00-17:00, Fri: 09:00-17:00, Sat: 09:00-12:00, Sun: closed-closed, Drive Up: Mon: 09:00-17:00, Tue: 09:00-17:00, Wed: 09:00-17:00, Thur: 09:00-17:00, Fri: 09:00-17:00, Sat: 09:00-12:00, Sun: closed-closed",,,
,,8150 W. 143Rd Street,,Orland Park,IL,60462,US,708-873-8150,41.631134,-87.818458,"Branch Hours: Mon: 09:00-17:00, Tue: 09:00-17:00, Wed: 09:00-17:00, Thur: 09:00-17:00, Fri: 09:00-17:00, Sat: closed-closed, Sun: closed-closed, Drive Up: Mon: 09:00-17:00, Tue: 09:00-17:00, Wed: 09:00-17:00, Thur: 09:00-17:00, Fri: 09:00-17:00, Sat: 09:00-12:00, Sun: closed-closed",,,
,,12534 S. Harlem Ave.,,Palos Heights,IL,60463,US,708-671-6200,41.663254,-87.796911,"Branch Hours: Mon: 09:00-17:00, Tue: 09:00-17:00, Wed: 09:00-17:00, Thur: 09:00-17:00, Fri: 09:00-17:00, Sat: 09:00-12:00, Sun: closed-closed, Drive Up: Mon: 09:00-17:00, Tue: 09:00-17:00, Wed: 09:00-17:00, Thur: 09:00-17:00, Fri: 09:00-17:00, Sat: 09:00-12:00, Sun: closed-closed",,,
,,5151 W. 95Th Street,,Oak Lawn,IL,60453,US,708-952-5000,41.719933,-87.749665,"Branch Hours: Mon: 09:00-17:00, Tue: 09:00-17:00, Wed: 09:00-17:00, Thur: 09:00-17:00, Fri: 09:00-18:00, Sat: 09:00-13:00, Sun: closed-closed, Drive Up: Mon: 09:00-17:00, Tue: 09:00-17:00, Wed: 09:00-17:00, Thur: 09:00-17:00, Fri: 09:00-18:00, Sat: 09:00-13:00, Sun: closed-closed",,,
,,7601 W. 63Rd Street,,Summit,IL,60501,US,708-496-2445,41.777,-87.8101,"Branch Hours: Mon: 09:00-17:00, Tue: 09:00-17:00, Wed: 09:00-17:00, Thur: 09:00-17:00, Fri: 09:00-18:00, Sat: 09:00-13:00, Sun: closed-closed",,,
,,1951 S. Plum Grove Road,,Palatine,IL,60067,US,847-202-5788,42.089203,-88.043819,"Branch Hours: Mon: 09:00-17:00, Tue: 09:00-17:00, Wed: 09:00-17:00, Thur: 09:00-17:00, Fri: 09:00-17:00, Sat: 09:00-12:30, Sun: closed-closed, Drive Up: Mon: 09:00-17:00, Tue: 09:00-17:00, Wed: 09:00-17:00, Thur: 09:00-17:00, Fri: 09:00-17:00, Sat: 09:00-12:30, Sun: closed-closed",,,
,,10 Huntington Lane,,Wheeling,IL,60090,US,847-808-1888,42.139012,-87.955344,"Branch Hours: Mon: 09:00-17:00, Tue: 09:00-17:00, Wed: 09:00-17:00, Thur: 09:00-17:00, Fri: 09:00-17:00, Sat: 09:00-12:30, Sun: closed-closed, Drive Up: Mon: 09:00-17:00, Tue: 09:00-17:00, Wed: 09:00-17:00, Thur: 09:00-17:00, Fri: 09:00-17:00, Sat: 09:00-12:30, Sun: closed-closed",,,
,,50 North Brockway,,Palatine,IL,60067,US,847-359-1070,42.1117,-88.046189,"Branch Hours: Mon: 09:00-17:00, Tue: 09:00-17:00, Wed: 09:00-17:00, Thur: 09:00-17:00, Fri: 09:00-17:00, Sat: 09:00-12:30, Sun: closed-closed, Drive Up: Mon: 09:00-17:00, Tue: 09:00-17:00, Wed: 09:00-17:00, Thur: 09:00-17:00, Fri: 09:00-17:00, Sat: 09:00-12:30, Sun: closed-closed",,,
,,205 E. Central Road,,Des Plaines,IL,60016,US,847-699-7300,42.065266,-87.917664,"Branch Hours: Mon: 09:00-17:00, Tue: 09:00-17:00, Wed: 09:00-17:00, Thur: 09:00-17:00, Fri: 09:00-17:00, Sat: 09:00-12:30, Sun: closed-closed, Drive Up: Mon: 09:00-17:00, Tue: 09:00-17:00, Wed: 09:00-17:00, Thur: 09:00-17:00, Fri: 09:00-17:00, Sat: 09:00-12:30, Sun: closed-closed",,,
,,800 E. Northwest Highway,,Palatine,IL,60074,US,847-202-5748,42.10226,-88.023639,"Branch Hours: Mon: 09:00-17:00, Tue: 09:00-17:00, Wed: 09:00-17:00, Thur: 09:00-17:00, Fri: 09:00-17:00, Sat: 09:00-12:30, Sun: closed-closed, Drive Up: Mon: 09:00-17:00, Tue: 09:00-17:00, Wed: 09:00-17:00, Thur: 09:00-17:00, Fri: 09:00-17:00, Sat: 09:00-12:30, Sun: closed-closed",,,
,,1450 S. Elmhurst Road,,Mount Prospect,IL,60056,US,847-758-8200,42.0396657,-87.940774,"Branch Hours: Mon: 09:00-17:00, Tue: 09:00-17:00, Wed: 09:00-17:00, Thur: 09:00-17:00, Fri: 09:00-17:00, Sat: 09:00-12:30, Sun: closed-closed, Drive Up: Mon: 09:00-17:00, Tue: 09:00-17:00, Wed: 09:00-17:00, Thur: 09:00-17:00, Fri: 09:00-17:00, Sat: 09:00-12:30, Sun: closed-closed",,,
,,205 W. Northwest Highway,,Palatine,IL,60067,US,847-202-1052,42.122486,-88.048643,"Branch Hours: Mon: 09:00-17:00, Tue: 09:00-17:00, Wed: 09:00-17:00, Thur: 09:00-17:00, Fri: 09:00-17:00, Sat: 09:00-12:30, Sun: closed-closed, Drive Up: Mon: 09:00-17:00, Tue: 09:00-17:00, Wed: 09:00-17:00, Thur: 09:00-17:00, Fri: 09:00-17:00, Sat: 09:00-12:30, Sun: closed-closed",,,
,,1350 N. Rand Road,,Palatine,IL,60074,US,847-358-4500,42.136088,-88.017504,"Branch Hours: Mon: 09:00-17:00, Tue: 09:00-17:00, Wed: 09:00-17:00, Thur: 09:00-17:00, Fri: 09:00-17:00, Sat: 09:00-12:30, Sun: closed-closed, Drive Up: Mon: 09:00-17:00, Tue: 09:00-17:00, Wed: 09:00-17:00, Thur: 09:00-17:00, Fri: 09:00-17:00, Sat: 09:00-12:30, Sun: closed-closed",,,
,,108 E. Court St.,,Richland Center,WI,53581,US,608-647-6303,43.33551918,-90.38527959,"Branch Hours: Mon: 08:30-16:30, Tue: 08:30-16:30, Wed: 08:30-16:30, Thur: 08:30-16:30, Fri: 08:30-17:00, Sat: closed-closed, Sun: closed-closed",,,
,,1467 Highway 14 East,,Richland Center,WI,53581,US,608-647-2424,43.31939978,-90.36755895,"Branch Hours: Mon: 08:00-17:00, Tue: 08:00-17:00, Wed: 08:00-17:00, Thur: 08:00-17:00, Fri: 08:00-17:00, Sat: 08:00-12:00, Sun: closed-closed",,,
,,302 N. Iowa St.,,Dodgeville,WI,53533,US,608-935-3349,42.96175798,-90.13029811,"Branch Hours: Mon: 08:30-16:00, Tue: 08:30-16:00, Wed: 08:30-16:00, Thur: 08:30-16:00, Fri: 08:30-17:00, Sat: closed-closed, Sun: closed-closed, Drive Up: Mon: 08:00-17:30, Tue: 08:00-17:30, Wed: 08:00-17:30, Thur: 08:00-17:30, Fri: 08:00-18:00, Sat: 08:00-12:00, Sun: closed-closed, Mon: 08:00-17:30, Tue: 08:00-17:30, Wed: 08:00-17:30, Thur: 08:00-17:30, Fri: 08:00-18:00, Sat: 08:00-12:00, Sun: closed-closed",,,
,,1300 Rose St.,,La Crosse,WI,54603,US,608-782-6866,43.84137,-91.24825,"Branch Hours: Mon: 09:00-17:00, Tue: 09:00-17:00, Wed: 09:00-17:00, Thur: 09:00-17:00, Fri: 09:00-17:00, Sat: closed-closed, Sun: closed-closed, Drive Up: Mon: 08:00-17:00, Tue: 08:00-17:00, Wed: 08:00-17:00, Thur: 08:00-17:00, Fri: 08:00-17:00, Sat: 08:00-12:00, Sun: closed-closed",,,
,,1145 Main St.,,Onalaska,WI,54650,US,608-783-1511,43.88433653,-91.22143041,"Branch Hours: Mon: 09:00-17:00, Tue: 09:00-17:00, Wed: 09:00-17:00, Thur: 09:00-17:00, Fri: 09:00-17:00, Sat: closed-closed, Sun: closed-closed, Drive Up: Mon: 08:00-17:00, Tue: 08:00-17:00, Wed: 08:00-17:00, Thur: 08:00-17:00, Fri: 08:00-17:00, Sat: 08:00-12:00, Sun: closed-closed",,,
,,7000 S. 76Th St.,,Franklin,WI,53132,US,414-529-2252,42.917991,-88.009038,"Branch Hours: Mon: 09:00-17:00, Tue: 09:00-17:00, Wed: 09:00-17:00, Thur: 09:00-17:00, Fri: 09:00-17:30, Sat: 09:00-12:00, Sun: closed-closed, Drive Up: Mon: 08:00-17:30, Tue: 08:00-17:30, Wed: 08:00-17:30, Thur: 08:00-17:30, Fri: 08:00-17:30, Sat: 08:30-12:00, Sun: closed-closed",,,
,,3500 State Road 16,,La Crosse,WI,54601,US,608-781-8834,43.7912939,-91.2085698,"Branch Hours: Mon: 09:00-17:00, Tue: 09:00-17:00, Wed: 09:00-17:00, Thur: 09:00-17:00, Fri: 09:00-17:00, Sat: closed-closed, Sun: closed-closed, Drive Up: Mon: 07:30-17:00, Tue: 07:30-17:00, Wed: 07:30-17:00, Thur: 07:30-17:00, Fri: 07:30-17:00, Sat: 08:00-12:00, Sun: closed-closed",,,
,,1 Arlington Heights Road,,Elk Grove Village,IL,60007,US,847-640-7144,42.026721,-87.986353,"Branch Hours: Mon: 09:00-17:00, Tue: 09:00-17:00, Wed: 09:00-17:00, Thur: 09:00-17:00, Fri: 09:00-17:00, Sat: 09:00-12:30, Sun: closed-closed, Drive Up: Mon: 09:00-17:00, Tue: 09:00-17:00, Wed: 09:00-17:00, Thur: 09:00-17:00, Fri: 09:00-17:00, Sat: 09:00-12:30, Sun: closed-closed",,,
,,100 N. Main St.,,Janesville,WI,53545,US,608-754-7771,42.6837,-89.02334,"Branch Hours: Mon: 09:00-16:30, Tue: 09:00-16:30, Wed: 09:00-16:30, Thur: 09:00-16:30, Fri: 09:00-17:00, Sat: closed-closed, Sun: closed-closed, Drive Up: Mon: 08:30-17:30, Tue: 08:30-17:30, Wed: 08:30-17:30, Thur: 08:30-17:30, Fri: 08:30-17:30, Sat: closed-closed, Sun: closed-closed",,,
,,209 E. Jefferson St.,,Spring Green,WI,53588,US,608-588-2526,43.17684163,-90.06664735,"Branch Hours: Mon: 09:00-16:00, Tue: 09:00-16:00, Wed: 09:00-16:00, Thur: 09:00-16:00, Fri: 09:00-17:00, Sat: closed-closed, Sun: closed-closed, Drive Up: Mon: 08:00-17:00, Tue: 08:00-17:00, Wed: 08:00-17:00, Thur: 08:00-17:00, Fri: 08:00-17:30, Sat: 09:00-12:00, Sun: closed-closed",,,
,,2608 Center Ave.,,Janesville,WI,53546,US,608-755-4268,42.66433,-89.03134,"Branch Hours: Mon: 09:00-17:00, Tue: 09:00-17:00, Wed: 09:00-17:00, Thur: 09:00-17:00, Fri: 09:00-17:30, Sat: closed-closed, Sun: closed-closed, Drive Up: Mon: 08:30-17:30, Tue: 08:30-17:30, Wed: 08:30-17:30, Thur: 08:30-17:30, Fri: 08:30-17:30, Sat: closed-closed, Sun: closed-closed",,,
,,1404 Creston Park Dr.,,Janesville,WI,53545,US,608-755-4259,42.7016596,-89.00543966,"Branch Hours: Mon: 09:00-17:00, Tue: 09:00-17:00, Wed: 09:00-17:00, Thur: 09:00-17:00, Fri: 09:00-17:30, Sat: 09:00-12:00, Sun: closed-closed, Drive Up: Mon: 07:30-17:30, Tue: 07:30-17:30, Wed: 07:30-17:30, Thur: 07:30-17:30, Fri: 07:30-17:30, Sat: 08:30-12:00, Sun: closed-closed",,,
,,4323 Milton Ave.,,Janesville,WI,53546,US,608-755-4275,42.73338068,-88.98721021,"Branch Hours: Mon: 09:00-17:00, Tue: 09:00-17:00, Wed: 09:00-17:00, Thur: 09:00-17:00, Fri: 09:00-17:30, Sat: 09:00-13:00, Sun: closed-closed, Drive Up: Mon: 08:30-17:30, Tue: 08:30-17:30, Wed: 08:30-17:30, Thur: 08:30-17:30, Fri: 08:30-17:30, Sat: 08:30-13:00, Sun: closed-closed",,,
,,2850 Prairie Ave.,,Beloit,WI,53511,US,608-363-7408,42.54948,-89.01158,"Branch Hours: Mon: 09:00-17:00, Tue: 09:00-17:00, Wed: 09:00-17:00, Thur: 09:00-17:00, Fri: 09:00-17:00, Sat: 09:00-12:00, Sun: closed-closed, Drive Up: Mon: 08:30-17:30, Tue: 08:30-17:30, Wed: 08:30-17:30, Thur: 08:30-17:30, Fri: 08:30-17:30, Sat: 09:00-12:00, Sun: closed-closed",,,
,,1015 N. Main St.,,Edgerton,WI,53534,US,608-884-3376,42.84487186,-89.06016562,"Branch Hours: Mon: 09:00-16:30, Tue: 09:00-16:30, Wed: 09:00-16:30, Thur: 09:00-16:30, Fri: 09:00-17:00, Sat: closed-closed, Sun: closed-closed, Drive Up: Mon: 08:30-17:30, Tue: 08:30-17:30, Wed: 08:30-17:30, Thur: 08:30-17:30, Fri: 08:30-17:30, Sat: 09:00-12:00, Sun: closed-closed",,,
,,500 E. Grand Ave.,,Beloit,WI,53511,US,608-365-2221,42.49961,-89.03361,"Branch Hours: Mon: 09:00-17:00, Tue: 09:00-17:00, Wed: 09:00-17:00, Thur: 09:00-17:00, Fri: 09:00-17:00, Sat: closed-closed, Sun: closed-closed, Drive Up: Mon: 08:30-17:30, Tue: 08:30-17:30, Wed: 08:30-17:30, Thur: 08:30-17:30, Fri: 08:30-17:30, Sat: 09:00-12:00, Sun: closed-closed",,,
,,1580 E. Moreland Blvd.,,Waukesha,WI,53186,US,262-544-8780,43.02539939,-88.20383163,"Branch Hours: Mon: 09:00-17:00, Tue: 09:00-17:00, Wed: 09:00-17:00, Thur: 09:00-17:00, Fri: 09:00-17:30, Sat: 09:00-12:00, Sun: closed-closed, Drive Up: Mon: 08:00-17:30, Tue: 08:00-17:30, Wed: 08:00-17:30, Thur: 08:00-17:30, Fri: 08:00-17:30, Sat: 08:30-12:00, Sun: closed-closed",,,
,,3063 Dundee Road,,Northbrook,IL,60062,US,847-291-4500,42.138364,-87.854953,"Branch Hours: Mon: 09:00-17:00, Tue: 09:00-17:00, Wed: 09:00-17:00, Thur: 09:00-17:00, Fri: 09:00-17:00, Sat: 09:00-12:30, Sun: closed-closed",,,
,,130 W Devon Ave.,,Wood Dale,IL,60191,US,847-640-3500,41.992773,-87.981776,"Branch Hours: Mon: 09:00-17:00, Tue: 09:00-17:00, Wed: 09:00-17:00, Thur: 09:00-17:00, Fri: 09:00-17:30, Sat: 09:00-13:00, Sun: closed-closed, Drive Up: Mon: 08:30-17:30, Tue: 08:30-17:30, Wed: 08:30-17:30, Thur: 08:30-17:30, Fri: 08:30-17:30, Sat: 08:30-13:00, Sun: closed-closed",,,
,,N14 W23999 Stone Ridge Dr.,,Waukesha,WI,53188,US,262-549-9292,43.0211,-88.2628,"Branch Hours: Mon: 09:00-17:00, Tue: 09:00-17:00, Wed: 09:00-17:00, Thur: 09:00-17:00, Fri: 09:00-17:30, Sat: 09:00-12:00, Sun: closed-closed, Drive Up: Mon: 08:00-17:30, Tue: 08:00-17:30, Wed: 08:00-17:30, Thur: 08:00-17:30, Fri: 08:00-17:30, Sat: 08:30-12:00, Sun: closed-closed",,,
,,3470 Gateway Rd.,,Brookfield,WI,53045,US,262-781-0100,43.08159,-88.18115,"Branch Hours: Mon: 09:00-17:00, Tue: 09:00-17:00, Wed: 09:00-17:00, Thur: 09:00-17:00, Fri: 09:00-17:30, Sat: 09:00-12:00, Sun: closed-closed, Drive Up: Mon: 08:30-17:30, Tue: 08:30-17:30, Wed: 08:30-17:30, Thur: 08:30-17:30, Fri: 08:30-17:30, Sat: 08:30-12:00, Sun: closed-closed",,,
,,16570 W. Bluemound Rd.,,Brookfield,WI,53005,US,262-797-4400,43.03698407,-88.11893832,"Branch Hours: Mon: 09:00-17:00, Tue: 09:00-17:00, Wed: 09:00-17:00, Thur: 09:00-17:00, Fri: 09:00-17:30, Sat: 09:00-12:00, Sun: closed-closed, Drive Up: Mon: 08:00-17:30, Tue: 08:00-17:30, Wed: 08:00-17:30, Thur: 08:00-17:30, Fri: 08:00-17:30, Sat: 08:30-12:00, Sun: closed-closed",,,
,,2100 Omro Rd.,,Oshkosh,WI,54904,US,920-236-6920,44.03277,-88.58547,"Branch Hours: Mon: 08:30-17:00, Tue: 08:30-17:00, Wed: 08:30-17:00, Thur: 08:30-17:00, Fri: 08:30-17:00, Sat: 08:30-12:00, Sun: closed-closed, Drive Up: Mon: 07:30-17:30, Tue: 07:30-17:30, Wed: 07:30-17:30, Thur: 07:30-17:30, Fri: 07:30-17:30, Sat: 08:30-12:30, Sun: closed-closed",,,
,,900 Elm Grove Rd.,,Elm Grove,WI,53122,US,262-796-4200,43.0406,-88.07945,"Branch Hours: Mon: 09:00-17:00, Tue: 09:00-17:00, Wed: 09:00-17:00, Thur: 09:00-17:00, Fri: 09:00-17:30, Sat: 09:00-12:00, Sun: closed-closed, Drive Up: Mon: 08:00-17:30, Tue: 08:00-17:30, Wed: 08:00-17:30, Thur: 08:00-17:30, Fri: 08:00-17:30, Sat: 08:30-12:00, Sun: closed-closed",,,
,,643 S. Green Bay Rd.,,Neenah,WI,54956,US,920-722-2570,44.17944942,-88.4850141,"Branch Hours: Mon: 08:30-17:00, Tue: 08:30-17:00, Wed: 08:30-17:00, Thur: 08:30-17:00, Fri: 08:30-17:30, Sat: closed-closed, Sun: closed-closed, Drive Up: Mon: 08:00-17:00, Tue: 08:00-17:00, Wed: 08:00-17:00, Thur: 08:00-17:00, Fri: 08:00-17:30, Sat: 09:00-12:00, Sun: closed-closed",,,
,,19105 W. Capitol Dr.,,Brookfield,WI,53045,US,262-790-2900,43.089991,-88.150364,"Branch Hours: Mon: 09:00-17:00, Tue: 09:00-17:00, Wed: 09:00-17:00, Thur: 09:00-17:00, Fri: 09:00-17:30, Sat: 09:00-12:00, Sun: closed-closed, Drive Up: Mon: 08:30-17:30, Tue: 08:30-17:30, Wed: 08:30-17:30, Thur: 08:30-17:30, Fri: 08:30-17:30, Sat: 08:30-12:00, Sun: closed-closed",,,
,,15450 W. National Ave,,New Berlin,WI,53151,US,262-786-8698,42.97787096,-88.10643753,"Branch Hours: Mon: 09:00-17:00, Tue: 09:00-17:00, Wed: 09:00-17:00, Thur: 09:00-17:00, Fri: 09:00-17:30, Sat: 09:00-12:00, Sun: closed-closed, Drive Up: Mon: 07:30-17:30, Tue: 07:30-17:30, Wed: 07:30-17:30, Thur: 07:30-17:30, Fri: 07:30-17:30, Sat: 08:30-12:00, Sun: closed-closed",,,
,,2225 N. Calhoun Rd.,,Brookfield,WI,53005,US,262-782-2930,43.05963778,-88.12621485,"Branch Hours: Mon: 09:00-17:00, Tue: 09:00-17:00, Wed: 09:00-17:00, Thur: 09:00-17:00, Fri: 09:00-17:30, Sat: 09:00-12:00, Sun: closed-closed, Drive Up: Mon: 08:00-17:30, Tue: 08:00-17:30, Wed: 08:00-17:30, Thur: 08:00-17:30, Fri: 08:00-17:30, Sat: 08:30-12:00, Sun: closed-closed",,,
,,185 S. Randall Road,,Batavia,IL,60510,US,630-879-5090,41.847028,-88.340064,"Branch Hours: Mon: 09:00-17:00, Tue: 09:00-17:00, Wed: 09:00-17:00, Thur: 09:00-17:00, Fri: 09:00-17:00, Sat: 09:00-12:00, Sun: closed-closed, Drive Up: Mon: 09:00-17:00, Tue: 09:00-17:00, Wed: 09:00-17:00, Thur: 09:00-17:00, Fri: 09:00-17:00, Sat: 09:00-12:00, Sun: closed-closed",,,
,,N64 W25050 Prospect Cir.,,Sussex,WI,53089,US,262-246-7380,43.13462,-88.24405,"Branch Hours: Mon: 09:00-17:00, Tue: 09:00-17:00, Wed: 09:00-17:00, Thur: 09:00-17:00, Fri: 09:00-17:30, Sat: 09:00-12:00, Sun: closed-closed, Drive Up: Mon: 08:00-17:30, Tue: 08:00-17:30, Wed: 08:00-17:30, Thur: 08:00-17:30, Fri: 08:00-17:30, Sat: 08:30-12:00, Sun: closed-closed",,,
,,2700 Golf Rd.,,Delafield,WI,53018,US,262-646-9700,43.05345,-88.37637,"Branch Hours: Mon: 09:00-17:00, Tue: 09:00-17:00, Wed: 09:00-17:00, Thur: 09:00-17:00, Fri: 09:00-17:30, Sat: 09:00-12:00, Sun: closed-closed, Drive Up: Mon: 08:00-17:30, Tue: 08:00-17:30, Wed: 08:00-17:30, Thur: 08:00-17:30, Fri: 08:00-17:30, Sat: 08:30-12:00, Sun: closed-closed",,,
,,50 Pearl Ave.,,Oshkosh,WI,54901,US,920-236-5300,44.01611,-88.53834,"Branch Hours: Mon: 08:30-17:00, Tue: 08:30-17:00, Wed: 08:30-17:00, Thur: 08:30-17:00, Fri: 08:30-17:00, Sat: closed-closed, Sun: closed-closed, Drive Up: Mon: 08:00-17:30, Tue: 08:00-17:30, Wed: 08:00-17:30, Thur: 08:00-17:30, Fri: 08:00-17:30, Sat: 09:00-12:00, Sun: closed-closed",,,
,,S69 W15563 Janesville Rd.,,Muskego,WI,53150,US,414-422-2244,42.91213,-88.12087,"Branch Hours: Mon: 09:00-17:00, Tue: 09:00-17:00, Wed: 09:00-17:00, Thur: 09:00-17:00, Fri: 09:00-17:30, Sat: 09:00-12:00, Sun: closed-closed, Drive Up: Mon: 08:00-17:30, Tue: 08:00-17:30, Wed: 08:00-17:30, Thur: 08:00-17:30, Fri: 08:00-17:30, Sat: 08:30-12:00, Sun: closed-closed",,,
,,730 Fox St.,,Mukwonago,WI,53149,US,262-363-1980,42.86936389,-88.3213809,"Branch Hours: Mon: 09:00-17:00, Tue: 09:00-17:00, Wed: 09:00-17:00, Thur: 09:00-17:00, Fri: 09:00-17:30, Sat: 09:00-12:00, Sun: closed-closed, Drive Up: Mon: 08:00-17:30, Tue: 08:00-17:30, Wed: 08:00-17:30, Thur: 08:00-17:30, Fri: 08:00-17:30, Sat: 08:30-12:00, Sun: closed-closed",,,
,,112 E. Capitol Dr.,,Hartland,WI,53029,US,262-367-6061,43.10460378,-88.34689283,"Branch Hours: Mon: 09:00-17:00, Tue: 09:00-17:00, Wed: 09:00-17:00, Thur: 09:00-17:00, Fri: 09:00-17:30, Sat: 09:00-12:00, Sun: closed-closed, Drive Up: Mon: 08:00-17:30, Tue: 08:00-17:30, Wed: 08:00-17:30, Thur: 08:00-17:30, Fri: 08:00-17:30, Sat: 08:30-12:00, Sun: closed-closed",,,
,,N82 W15415 Appleton Ave.,,Menomonee Falls,WI,53051,US,262-255-4600,43.17311,-88.11033,"Branch Hours: Mon: 09:00-17:00, Tue: 09:00-17:00, Wed: 09:00-17:00, Thur: 09:00-17:00, Fri: 09:00-18:00, Sat: 09:00-12:00, Sun: closed-closed, Drive Up: Mon: 07:30-19:00, Tue: 07:30-19:00, Wed: 07:30-19:00, Thur: 07:30-19:00, Fri: 07:30-19:00, Sat: 08:30-12:00, Sun: closed-closed",,,
,,1000 Garlands Lane,,Barrington,IL,60010,US,847-756-5590,42.157379,-88.125814,"Branch Hours: Mon: 09:00-15:00, Tue: closed-closed, Wed: 09:00-15:00, Thur: closed-closed, Fri: 09:00-15:00, Sat: closed-closed, Sun: closed-closed",,,
,,150 Washington Street,,Barrington,IL,60010,US,847-756-5603,42.156352,-88.135441,"Branch Hours: Mon: 09:00-16:00, Tue: 09:00-16:00, Wed: 09:00-16:00, Thur: 09:00-16:00, Fri: 09:00-16:00, Sat: 09:00-12:00, Sun: closed-closed",,,
,,333 N. Northwest Highway,,Barrington,IL,60010,US,847-381-3500,42.157392,-88.127807,"Branch Hours: Mon: 09:00-17:00, Tue: 09:00-17:00, Wed: 09:00-17:00, Thur: 09:00-17:00, Fri: 09:00-17:00, Sat: 09:00-12:30, Sun: closed-closed, Drive Up: Mon: 09:00-17:00, Tue: 09:00-17:00, Wed: 09:00-17:00, Thur: 09:00-17:00, Fri: 09:00-17:00, Sat: 09:00-12:30, Sun: closed-closed",,,
,,1355 W. Lake Street,,Addison,IL,60101,US,630-458-1444,41.94483,-88.019521,"Branch Hours: Mon: 09:00-17:00, Tue: 09:00-17:00, Wed: 09:00-17:00, Thur: 09:00-17:00, Fri: 09:00-17:30, Sat: 09:00-12:30, Sun: closed-closed, Drive Up: Mon: 08:30-17:30, Tue: 08:30-17:30, Wed: 08:30-17:30, Thur: 08:30-17:30, Fri: 08:30-17:30, Sat: 09:00-12:30, Sun: closed-closed",,,
,,1433 Pabst Farms Circle,,Oconomowoc,WI,53066,US,262-200-2265,43.07183017,-88.46425867,"Branch Hours: Mon: 09:00-17:00, Tue: 09:00-17:00, Wed: 09:00-17:00, Thur: 09:00-17:00, Fri: 09:00-17:30, Sat: 09:00-12:00, Sun: closed-closed, Drive Up: Mon: 08:00-17:30, Tue: 08:00-17:30, Wed: 08:00-17:30, Thur: 08:00-17:30, Fri: 08:00-17:30, Sat: 08:30-12:00, Sun: closed-closed",,,
,,625 W Army Trail Blvd.,,Addison,IL,60101,US,630-543-5800,41.930908,-88.003921,"Branch Hours: Mon: 09:00-17:00, Tue: 09:00-17:00, Wed: 09:00-17:00, Thur: 09:00-17:00, Fri: 09:00-17:30, Sat: 09:00-13:00, Sun: closed-closed, Drive Up: Mon: 08:30-17:30, Tue: 08:30-17:30, Wed: 08:30-17:30, Thur: 08:30-17:30, Fri: 08:30-17:30, Sat: 09:00-13:00, Sun: closed-closed",,,
,,1134 Willow Rd,,Northbrook,IL,60062,US,847-509-3550,42.105638,-87.824305,"Branch Hours: Mon: 09:00-17:00, Tue: 09:00-17:00, Wed: 09:00-17:00, Thur: 09:00-17:00, Fri: 09:00-17:00, Sat: 09:00-12:30, Sun: closed-closed, Drive Up: Mon: 09:00-17:00, Tue: 09:00-17:00, Wed: 09:00-17:00, Thur: 09:00-17:00, Fri: 09:00-17:00, Sat: 09:00-12:30, Sun: closed-closed",,,
,,615 Busse Highway,,Park Ridge,IL,60068,US,847-692-6772,42.018324,-87.844745,"Branch Hours: Mon: 09:00-17:00, Tue: 09:00-17:00, Wed: 09:00-17:00, Thur: 09:00-17:00, Fri: 09:00-17:00, Sat: 09:00-12:30, Sun: closed-closed, Drive Up: Mon: 09:00-17:00, Tue: 09:00-17:00, Wed: 09:00-17:00, Thur: 09:00-17:00, Fri: 09:00-17:30, Sat: 09:00-12:30, Sun: closed-closed",,,
,,120 W. Hinsdale Avenue,,Hinsdale,IL,60521,US,630-920-6895,41.802112,-87.931103,"Branch Hours: Mon: 08:00-18:00, Tue: 08:00-18:00, Wed: 08:00-18:00, Thur: 08:00-18:00, Fri: 08:00-18:00, Sat: 08:00-14:00, Sun: closed-closed, Drive Up: Mon: 08:00-18:00, Tue: 08:00-18:00, Wed: 08:00-18:00, Thur: 08:00-18:00, Fri: 08:00-18:00, Sat: 08:00-14:00, Sun: closed-closed",,,
,,101 Burr Ridge Parkway,,Burr Ridge,IL,60527,US,630-323-4000,41.750598,-87.914773,"Branch Hours: Mon: 09:00-17:00, Tue: 09:00-17:00, Wed: 09:00-17:00, Thur: 09:00-17:00, Fri: 09:00-17:00, Sat: 09:00-12:00, Sun: closed-closed, Drive Up: Mon: 09:00-17:00, Tue: 09:00-17:00, Wed: 09:00-17:00, Thur: 09:00-17:00, Fri: 09:00-17:00, Sat: 09:00-12:00, Sun: closed-closed",,,
,,191 E. Lake Street,,Bloomingdale,IL,60108,US,630-351-5200,41.957536,-88.071716,"Branch Hours: Mon: 09:00-17:00, Tue: 09:00-17:00, Wed: 09:00-17:00, Thur: 09:00-17:00, Fri: 09:00-17:30, Sat: 09:00-13:00, Sun: closed-closed, Drive Up: Mon: 08:30-17:30, Tue: 08:30-17:30, Wed: 08:30-17:30, Thur: 08:30-17:30, Fri: 08:30-17:30, Sat: 09:00-13:00, Sun: closed-closed",,,
,,50 South Lincoln Street,,Hinsdale,IL,60521,US,630-920-7000,41.801779,-87.930409,"Branch Hours: Mon: 09:00-17:00, Tue: 09:00-17:00, Wed: 09:00-17:00, Thur: 09:00-17:00, Fri: 09:00-17:00, Sat: 09:00-13:00, Sun: closed-closed",,,
,,520 Green Bay Road,,Winnetka,IL,60093,US,847-441-4444,42.105625,-87.733649,"Branch Hours: Mon: 09:00-17:00, Tue: 09:00-17:00, Wed: 09:00-17:00, Thur: 09:00-17:00, Fri: 09:00-17:00, Sat: 09:00-12:30, Sun: closed-closed, Drive Up: Mon: 09:00-17:00, Tue: 09:00-17:00, Wed: 09:00-17:00, Thur: 09:00-17:00, Fri: 09:00-17:00, Sat: 09:00-12:30, Sun: closed-closed",,,
,,9731 Skokie Blvd,,Skokie,IL,60077,US,847-675-6300,42.056968,-87.746804,"Branch Hours: Mon: 09:00-17:00, Tue: 09:00-17:00, Wed: 09:00-17:00, Thur: 09:00-17:00, Fri: 09:00-17:00, Sat: 09:00-12:30, Sun: closed-closed",,,
,,6820 N. Lincoln Ave,,Lincolnwood,IL,60712,US,847-982-9350,42.005052,-87.730831,"Branch Hours: Mon: 09:00-17:00, Tue: 09:00-17:00, Wed: 09:00-17:00, Thur: 09:00-17:00, Fri: 09:00-18:00, Sat: 09:00-13:00, Sun: closed-closed",,,
,,400 E. Irving Park Road,,Roselle,IL,60172,US,630-980-2749,41.98336,-88.071019,"Branch Hours: Mon: 08:30-18:00, Tue: 08:30-18:00, Wed: 08:30-18:00, Thur: 08:30-18:00, Fri: 08:30-18:00, Sat: 08:30-13:00, Sun: closed-closed",,,
,,5960 W. Irving Park Road,,Chicago,IL,60634,US,773-282-7144,41.953239,-87.776523,"Branch Hours: Mon: 09:00-17:00, Tue: 09:00-17:00, Wed: 09:00-17:00, Thur: 09:00-17:00, Fri: 09:00-18:00, Sat: 09:00-13:00, Sun: closed-closed, Drive Up: Mon: 09:00-17:00, Tue: 09:00-17:00, Wed: 09:00-17:00, Thur: 09:00-17:00, Fri: 09:00-18:00, Sat: 09:00-13:00, Sun: closed-closed",,,
,,333 Park Ave,,Glencoe,IL,60022,US,847-835-5400,42.134785,-87.758992,"Branch Hours: Mon: 09:00-17:00, Tue: 09:00-17:00, Wed: 09:00-17:00, Thur: 09:00-17:00, Fri: 09:00-17:00, Sat: 09:00-12:30, Sun: closed-closed, Drive Up: Mon: 09:00-17:00, Tue: 09:00-17:00, Wed: 09:00-17:00, Thur: 09:00-17:00, Fri: 09:00-17:00, Sat: 09:00-12:30, Sun: closed-closed",,,
,,7077 W. Dempster St,,Niles,IL,60714,US,847-967-8000,42.040897,-87.803624,"Branch Hours: Mon: 09:00-17:00, Tue: 09:00-17:00, Wed: 09:00-17:00, Thur: 09:00-17:00, Fri: 09:00-17:00, Sat: 09:00-12:30, Sun: closed-closed, Drive Up: Mon: 08:30-17:00, Tue: 08:30-17:00, Wed: 08:30-17:00, Thur: 08:30-17:00, Fri: 08:30-17:30, Sat: 09:00-12:30, Sun: closed-closed",,,
,,500 Skokie Blvd,,Northbrook,IL,60062,US,847-291-2029,42.142128,-87.79439,"Branch Hours: Mon: 09:00-17:00, Tue: 09:00-17:00, Wed: 09:00-17:00, Thur: 09:00-17:00, Fri: 09:00-17:00, Sat: 09:00-12:30, Sun: closed-closed, Drive Up: Mon: 09:00-17:00, Tue: 09:00-17:00, Wed: 09:00-17:00, Thur: 09:00-17:00, Fri: 09:00-17:00, Sat: 09:00-12:30, Sun: closed-closed",,,
,,4050 147Th Street,,Midlothian,IL,60445,US,708-388-8000,41.625523,-87.719332,"Branch Hours: Mon: 09:00-17:00, Tue: 09:00-17:00, Wed: 09:00-17:00, Thur: 09:00-17:00, Fri: 09:00-17:00, Sat: 09:00-12:00, Sun: closed-closed, Drive Up: Mon: 09:00-17:00, Tue: 09:00-17:00, Wed: 09:00-17:00, Thur: 09:00-17:00, Fri: 09:00-17:00, Sat: 09:00-12:00, Sun: closed-closed",,,
,,9770 Wicker Ave.,,St. John,IN,46373,US,219-365-3565,41.441541,-87.470003,"Branch Hours: Mon: 09:00-17:00, Tue: 09:00-17:00, Wed: 09:00-17:00, Thur: 09:00-17:00, Fri: 09:00-17:00, Sat: 09:00-12:00, Sun: closed-closed, Drive Up: Mon: 09:00-17:00, Tue: 09:00-17:00, Wed: 09:00-17:00, Thur: 09:00-17:00, Fri: 09:00-17:00, Sat: 09:00-12:00, Sun: closed-closed",,,
,,2602 Flossmoor Road,,Flossmoor,IL,60422,US,708-647-9900,41.542591,-87.680079,"Branch Hours: Mon: 09:00-17:00, Tue: 09:00-17:00, Wed: 09:00-17:00, Thur: 09:00-17:00, Fri: 09:00-17:00, Sat: closed-closed, Sun: closed-closed",,,
,,1380 Main Street,,Crete,IL,60417,US,708-672-7272,41.443596,-87.631237,"Branch Hours: Mon: 09:00-17:00, Tue: 09:00-17:00, Wed: 09:00-17:00, Thur: 09:00-17:00, Fri: 09:00-17:00, Sat: 09:00-12:00, Sun: closed-closed, Drive Up: Mon: 09:00-17:00, Tue: 09:00-17:00, Wed: 09:00-17:00, Thur: 09:00-17:00, Fri: 09:00-17:00, Sat: 09:00-12:00, Sun: closed-closed",,,
,,8300 South Holland Rd,,Chicago,IL,60620,US,773-651-7200,41.743289,-87.6322651,"Branch Hours: Mon: 09:00-17:00, Tue: 09:00-17:00, Wed: 09:00-17:00, Thur: 09:00-17:00, Fri: 09:00-18:00, Sat: 09:00-13:00, Sun: closed-closed",,,
,,1620 W. 95Th Street,,Chicago,IL,60643,US,773-238-4200,41.721272,-87.663056,"Branch Hours: Mon: 09:00-17:00, Tue: 09:00-17:00, Wed: 09:00-17:00, Thur: 09:00-17:00, Fri: 09:00-18:00, Sat: 09:00-13:00, Sun: closed-closed, Drive Up: Mon: 09:00-17:00, Tue: 09:00-17:00, Wed: 09:00-17:00, Thur: 09:00-17:00, Fri: 09:00-18:00, Sat: 08:00-13:00, Sun: closed-closed",,,
,,9950 S. Kedzie Ave,,Evergreen Park,IL,60805,US,708-424-2800,41.71257,-87.701559,"Branch Hours: Mon: 09:00-17:00, Tue: 09:00-17:00, Wed: 09:00-17:00, Thur: 09:00-17:00, Fri: 09:00-18:00, Sat: 09:00-13:00, Sun: closed-closed, Drive Up: Mon: 09:00-17:00, Tue: 09:00-17:00, Wed: 09:00-17:00, Thur: 09:00-17:00, Fri: 09:00-18:00, Sat: 09:00-13:00, Sun: closed-closed",,,
,,4940 211Th St.,,Matteson,IL,60443,US,708-747-7300,41.50619898,-87.73425117,"Branch Hours: Mon: 09:00-17:00, Tue: 09:00-17:00, Wed: 09:00-17:00, Thur: 09:00-17:00, Fri: 09:00-17:00, Sat: 09:00-13:00, Sun: closed-closed, Drive Up: Mon: 09:00-17:00, Tue: 09:00-17:00, Wed: 09:00-17:00, Thur: 09:00-17:00, Fri: 09:00-17:00, Sat: 09:00-13:00, Sun: closed-closed",,,
,,94 N. Kennedy Memorial Dr,,Carpentersville,IL,60110,US,847-836-2826,42.1211364,-88.2578582,"Branch Hours: Mon: 09:00-17:00, Tue: 09:00-17:00, Wed: 09:00-17:00, Thur: 09:00-17:00, Fri: 09:00-17:00, Sat: 09:00-12:30, Sun: closed-closed",,,
,,354 N. Milwaukee Avenue,,Libertyville,IL,60048,US,847-362-3500,42.286088,-87.95329,"Branch Hours: Mon: 09:00-17:00, Tue: 09:00-17:00, Wed: 09:00-17:00, Thur: 09:00-17:00, Fri: 09:00-17:00, Sat: 09:00-12:30, Sun: closed-closed, Drive Up: Mon: 09:00-17:00, Tue: 09:00-17:00, Wed: 09:00-17:00, Thur: 09:00-17:00, Fri: 09:00-17:00, Sat: 09:00-12:30, Sun: closed-closed",,,
,,3890 East Main Street,,St. Charles,IL,60174,US,630-377-4192,41.922018,-88.263675,"Branch Hours: Mon: 09:00-17:00, Tue: 09:00-17:00, Wed: 09:00-17:00, Thur: 09:00-17:00, Fri: 09:00-17:00, Sat: 09:00-12:00, Sun: closed-closed, Drive Up: Mon: 09:00-17:00, Tue: 09:00-17:00, Wed: 09:00-17:00, Thur: 09:00-17:00, Fri: 09:00-17:00, Sat: 09:00-12:00, Sun: closed-closed",,,
,,40 South Barrington Road,,Barrington,IL,60010,US,847-765-1350,42.07316,-88.141291,"Branch Hours: Mon: 09:00-17:00, Tue: 09:00-17:00, Wed: 09:00-17:00, Thur: 09:00-17:00, Fri: 09:00-17:00, Sat: 09:00-12:30, Sun: closed-closed, Drive Up: Mon: 09:00-17:00, Tue: 09:00-17:00, Wed: 09:00-17:00, Thur: 09:00-17:00, Fri: 09:00-17:00, Sat: 09:00-12:30, Sun: closed-closed",,,
,,2401 W. Schaumburg Road,,Schaumburg,IL,60194,US,847-301-2265,42.024959,-88.139667,"Branch Hours: Mon: 09:00-17:00, Tue: 09:00-17:00, Wed: 09:00-17:00, Thur: 09:00-17:00, Fri: 09:00-17:30, Sat: 09:00-13:00, Sun: closed-closed, Drive Up: Mon: 08:30-17:30, Tue: 08:30-17:30, Wed: 08:30-17:30, Thur: 08:30-17:30, Fri: 08:30-17:30, Sat: 08:30-13:00, Sun: closed-closed",,,
,,1746 Second Street,,Highland Park,IL,60035,US,847-681-9900,42.184079,-87.800654,"Branch Hours: Mon: 09:00-17:00, Tue: 09:00-17:00, Wed: 09:00-17:00, Thur: 09:00-17:00, Fri: 09:00-17:00, Sat: 09:00-12:30, Sun: closed-closed, Drive Up: Mon: 09:00-17:00, Tue: 09:00-17:00, Wed: 09:00-17:00, Thur: 09:00-17:00, Fri: 09:00-17:00, Sat: 09:00-12:30, Sun: closed-closed",,,
,,101 Laura K Drive,,O'Fallon,MO,63366,US,636-696-7200,38.794,-90.7205,"Branch Hours: Mon: 09:00-17:00, Tue: 09:00-17:00, Wed: 09:00-17:00, Thur: 09:00-17:00, Fri: 09:00-17:00, Sat: closed-closed, Sun: closed-closed, Drive Up: Mon: 09:00-17:00, Tue: 09:00-17:00, Wed: 09:00-17:00, Thur: 09:00-17:00, Fri: 09:00-17:30, Sat: closed-closed, Sun: closed-closed",,,
,,3001 Winghaven Blvd.,,O'Fallon,MO,63368,US,636-696-4500,38.74919,-90.75016,"Branch Hours: Mon: 09:00-17:00, Tue: 09:00-17:00, Wed: 09:00-17:00, Thur: 09:00-17:00, Fri: 09:00-17:00, Sat: 09:00-12:00, Sun: closed-closed, Drive Up: Mon: 09:00-17:00, Tue: 09:00-17:00, Wed: 09:00-17:00, Thur: 09:00-17:00, Fri: 09:00-17:30, Sat: 09:00-12:00, Sun: closed-closed",,,
,,6900 Huntley Road,,Carpentersville,IL,60110,US,847-836-9700,42.123272,-88.329491,"Branch Hours: Mon: 09:00-17:00, Tue: 09:00-17:00, Wed: 09:00-17:00, Thur: 09:00-17:00, Fri: 09:00-17:00, Sat: 09:00-12:30, Sun: closed-closed, Drive Up: Mon: 09:00-17:00, Tue: 09:00-17:00, Wed: 09:00-17:00, Thur: 09:00-17:00, Fri: 09:00-17:00, Sat: 09:00-12:30, Sun: closed-closed",,,
,,685 S. Route 83,,Mundelein,IL,60060,US,847-247-7251,42.25469,-88.021179,"Branch Hours: Mon: 09:00-17:00, Tue: 09:00-17:00, Wed: 09:00-17:00, Thur: 09:00-17:00, Fri: 09:00-17:00, Sat: 09:00-12:30, Sun: closed-closed, Drive Up: Mon: 09:00-17:00, Tue: 09:00-17:00, Wed: 09:00-17:00, Thur: 09:00-17:00, Fri: 09:00-17:00, Sat: 09:00-12:30, Sun: closed-closed",,,
,,985 E. Grand Avenue,,Lake Villa,IL,60046,US,847-265-8200,42.41542,-88.058188,"Branch Hours: Mon: 09:00-17:00, Tue: 09:00-17:00, Wed: 09:00-17:00, Thur: 09:00-17:00, Fri: 09:00-17:00, Sat: 09:00-12:30, Sun: closed-closed, Drive Up: Mon: 09:00-17:00, Tue: 09:00-17:00, Wed: 09:00-17:00, Thur: 09:00-17:00, Fri: 09:00-17:30, Sat: 09:00-12:30, Sun: closed-closed",,,
,,890 S. Milwaukee Ave,,Libertyville,IL,60048,US,847-247-2180,42.273427,-87.951335,"Branch Hours: Mon: 09:00-17:00, Tue: 09:00-17:00, Wed: 09:00-17:00, Thur: 09:00-17:00, Fri: 09:00-17:00, Sat: 09:00-12:30, Sun: closed-closed, Drive Up: Mon: 09:00-17:00, Tue: 09:00-17:00, Wed: 09:00-17:00, Thur: 09:00-17:00, Fri: 09:00-17:30, Sat: 09:00-12:30, Sun: closed-closed",,,
,,500 Half Day Road,,Buffalo Grove,IL,60089,US,847-465-0202,42.197676,-87.969438,"Branch Hours: Mon: 09:00-17:00, Tue: 09:00-17:00, Wed: 09:00-17:00, Thur: 09:00-17:00, Fri: 09:00-17:00, Sat: 09:00-12:30, Sun: closed-closed, Drive Up: Mon: 09:00-17:00, Tue: 09:00-17:00, Wed: 09:00-17:00, Thur: 09:00-17:00, Fri: 09:00-17:00, Sat: 09:00-12:30, Sun: closed-closed",,,
,,1425 Tower Ave,,Superior,WI,54880,US,715-394-8840,46.7209443,-92.1041582,"Branch Hours: Mon: 08:30-17:00, Tue: 08:30-17:00, Wed: 08:30-17:00, Thur: 08:30-17:00, Fri: 08:30-17:00, Sat: closed-closed, Sun: closed-closed, Drive Up: Mon: 07:30-17:30, Tue: 07:30-17:30, Wed: 07:30-17:30, Thur: 07:30-17:30, Fri: 07:30-17:30, Sat: 09:00-12:00, Sun: closed-closed",,,
,,1190 McHenry Road,,Buffalo Grove,IL,60089,US,847-459-9300,42.173772,-87.984308,"Branch Hours: Mon: 09:00-17:00, Tue: 09:00-17:00, Wed: 09:00-17:00, Thur: 09:00-17:00, Fri: 09:00-17:00, Sat: 09:00-12:30, Sun: closed-closed",,,
,,1680 W Algonquin Road,,Hoffman Estates,IL,60192,US,847-705-9000,42.091072,-88.121065,"Branch Hours: Mon: 09:00-17:00, Tue: 09:00-17:00, Wed: 09:00-17:00, Thur: 09:00-17:00, Fri: 09:00-17:00, Sat: 09:00-12:30, Sun: closed-closed, Drive Up: Mon: 09:00-17:00, Tue: 09:00-17:00, Wed: 09:00-17:00, Thur: 09:00-17:00, Fri: 09:00-17:00, Sat: 09:00-12:30, Sun: closed-closed",,,
,,1400 Gannon Dr,,Hoffman Estates,IL,60194,US,847-885-0700,42.050628,-88.107674,"Branch Hours: Mon: 09:00-17:00, Tue: 09:00-17:00, Wed: 09:00-17:00, Thur: 09:00-17:00, Fri: 09:00-17:00, Sat: 09:00-12:30, Sun: closed-closed, Drive Up: Mon: 09:00-17:00, Tue: 09:00-17:00, Wed: 09:00-17:00, Thur: 09:00-17:00, Fri: 09:00-17:00, Sat: 09:00-12:30, Sun: closed-closed",,,
,,935 W. Rollins Road,,Round Lake Heights,IL,60073,US,847-740-2265,42.379566,-88.10511,"Branch Hours: Mon: 09:00-17:00, Tue: 09:00-17:00, Wed: 09:00-17:00, Thur: 09:00-17:00, Fri: 09:00-17:00, Sat: 09:00-12:30, Sun: closed-closed, Drive Up: Mon: 08:00-17:30, Tue: 08:00-17:30, Wed: 08:00-17:30, Thur: 08:00-17:30, Fri: 08:00-18:00, Sat: 08:30-13:00, Sun: closed-closed",,,
,,1 East Main Street,,St. Charles,IL,60174,US,630-377-4100,41.91371,-88.313199,"Branch Hours: Mon: 09:00-17:00, Tue: 09:00-17:00, Wed: 09:00-17:00, Thur: 09:00-17:00, Fri: 09:00-17:00, Sat: closed-closed, Sun: closed-closed",,,
,,409 S. First Street,,St. Charles,IL,60174,US,630-377-4148,41.910261,-88.313478,"Branch Hours: Mon: 09:00-17:00, Tue: 09:00-17:00, Wed: 09:00-17:00, Thur: 09:00-17:00, Fri: 09:00-17:00, Sat: 09:00-12:00, Sun: closed-closed, Drive Up: Mon: 09:00-17:00, Tue: 09:00-17:00, Wed: 09:00-17:00, Thur: 09:00-17:00, Fri: 09:00-17:00, Sat: 09:00-12:00, Sun: closed-closed",,,
,,300 South Randall Road,,St. Charles,IL,60174,US,630-377-4115,41.90753,-88.339939,"Branch Hours: Mon: 09:00-17:00, Tue: 09:00-17:00, Wed: 09:00-17:00, Thur: 09:00-17:00, Fri: 09:00-17:00, Sat: 09:00-12:00, Sun: closed-closed, Drive Up: Mon: 09:00-17:00, Tue: 09:00-17:00, Wed: 09:00-17:00, Thur: 09:00-17:00, Fri: 09:00-17:00, Sat: 09:00-12:00, Sun: closed-closed",,,
,,824 N Western Ave,,Lake Forest,IL,60045,US,847-234-4004,42.254403,-87.841044,"Branch Hours: Mon: 09:00-17:00, Tue: 09:00-17:00, Wed: 09:00-17:00, Thur: 09:00-17:00, Fri: 09:00-17:00, Sat: 09:00-12:30, Sun: closed-closed, Drive Up: Mon: 09:00-17:00, Tue: 09:00-17:00, Wed: 09:00-17:00, Thur: 09:00-17:00, Fri: 09:00-17:00, Sat: 09:00-12:30, Sun: closed-closed",,,
,,225 S. Randall Road,,Algonquin,IL,60102,US,847-854-7474,42.173534,-88.3354,"Branch Hours: Mon: 09:00-17:00, Tue: 09:00-17:00, Wed: 09:00-17:00, Thur: 09:00-17:00, Fri: 09:00-17:00, Sat: 09:00-12:30, Sun: closed-closed, Drive Up: Mon: 08:00-17:30, Tue: 08:00-17:30, Wed: 08:00-17:30, Thur: 08:00-17:30, Fri: 08:00-18:00, Sat: 08:30-13:00, Sun: closed-closed",,,
,,6547 Grand Ave,,Gurnee,IL,60031,US,847-855-3180,42.385394,-87.964673,"Branch Hours: Mon: 09:00-17:00, Tue: 09:00-17:00, Wed: 09:00-17:00, Thur: 09:00-17:00, Fri: 09:00-17:00, Sat: 09:00-12:30, Sun: closed-closed, Drive Up: Mon: 08:00-17:30, Tue: 08:00-17:30, Wed: 08:00-17:30, Thur: 08:00-17:30, Fri: 08:00-18:00, Sat: 08:30-13:00, Sun: closed-closed",,,
,,850 W. Army Trail Road,,Carol Stream,IL,60188,US,630-830-4700,41.940524,-88.148828,"Branch Hours: Mon: 09:00-17:00, Tue: 09:00-17:00, Wed: 09:00-17:00, Thur: 09:00-17:00, Fri: 09:00-18:00, Sat: 09:00-13:00, Sun: closed-closed, Drive Up: Mon: 08:00-18:00, Tue: 08:00-18:00, Wed: 08:00-18:00, Thur: 08:00-18:00, Fri: 08:00-18:00, Sat: 08:00-13:00, Sun: closed-closed",,,
,,9055 76Th St.,,Pleasant Prairie,WI,53158,US,262-697-7440,42.56545,-87.91724887,"Branch Hours: Mon: 09:00-17:00, Tue: 09:00-17:00, Wed: 09:00-17:00, Thur: 09:00-17:00, Fri: 09:00-17:30, Sat: 09:00-12:00, Sun: closed-closed, Drive Up: Mon: 08:00-17:30, Tue: 08:00-17:30, Wed: 08:00-17:30, Thur: 08:00-17:30, Fri: 08:00-17:30, Sat: 08:30-12:00, Sun: closed-closed",,,
,,3113 North Lewis Ave,,Waukegan,IL,60087,US,847-782-3255,42.408899,-87.854338,"Branch Hours: Mon: 09:00-17:00, Tue: 09:00-17:00, Wed: 09:00-17:00, Thur: 09:00-17:00, Fri: 09:00-17:00, Sat: 09:00-12:30, Sun: closed-closed",,,
,,24616 75Th St.,,Salem,WI,53168,US,262-843-2366,42.56826838,-88.10612939,"Branch Hours: Mon: 09:00-17:00, Tue: 09:00-17:00, Wed: 09:00-17:00, Thur: 09:00-17:00, Fri: 09:00-17:30, Sat: 09:00-12:00, Sun: closed-closed, Drive Up: Mon: 08:00-17:00, Tue: 08:00-17:00, Wed: 08:00-17:00, Thur: 08:00-17:00, Fri: 08:00-17:30, Sat: 08:00-12:00, Sun: closed-closed",,,
,,2315 S. Business Dr.,,Sheboygan,WI,53081,US,920-459-5886,43.72972697,-87.73117768,"Branch Hours: Mon: 08:30-17:00, Tue: 08:30-17:00, Wed: 08:30-17:00, Thur: 08:30-17:00, Fri: 08:30-17:00, Sat: closed-closed, Sun: closed-closed, Drive Up: Mon: 08:30-17:00, Tue: 08:30-17:00, Wed: 08:30-17:00, Thur: 08:30-17:00, Fri: 08:30-17:00, Sat: 09:00-12:00, Sun: closed-closed",,,
,,1441 N. Taylor Dr.,,Sheboygan,WI,53081,US,920-458-9000,43.75992433,-87.74954,"Branch Hours: Mon: 08:30-17:00, Tue: 08:30-17:00, Wed: 08:30-17:00, Thur: 08:30-17:00, Fri: 08:30-17:00, Sat: closed-closed, Sun: closed-closed, Drive Up: Mon: 08:30-17:30, Tue: 08:30-17:30, Wed: 08:30-17:30, Thur: 08:30-17:30, Fri: 08:30-17:30, Sat: 09:00-12:00, Sun: closed-closed",,,
,,1013 S. 8Th St.,,Manitowoc,WI,54220,US,920-683-5740,44.088326,-87.65778,"Branch Hours: Mon: 08:30-17:00, Tue: 08:30-17:00, Wed: 08:30-17:00, Thur: 08:30-17:00, Fri: 08:30-17:00, Sat: closed-closed, Sun: closed-closed, Drive Up: Mon: 08:30-17:00, Tue: 08:30-17:00, Wed: 08:30-17:00, Thur: 08:30-17:00, Fri: 08:30-17:00, Sat: 08:30-12:00, Sun: closed-closed",,,
,,414 Buffalo St.,,Sheboygan Falls,WI,53085,US,920-467-6211,43.72904429,-87.81279143,"Branch Hours: Mon: 08:30-17:00, Tue: 08:30-17:00, Wed: 08:30-17:00, Thur: 08:30-17:00, Fri: 08:30-17:00, Sat: closed-closed, Sun: closed-closed, Drive Up: Mon: 08:30-17:00, Tue: 08:30-17:00, Wed: 08:30-17:00, Thur: 08:30-17:00, Fri: 08:30-17:00, Sat: 09:00-12:00, Sun: closed-closed",,,
,,1399 E. State Street,,Geneva,IL,60134,US,630-232-9695,41.886586,-88.279352,"Branch Hours: Mon: 09:00-17:00, Tue: 09:00-17:00, Wed: 09:00-17:00, Thur: 09:00-17:00, Fri: 09:00-17:00, Sat: 09:00-12:00, Sun: closed-closed, Drive Up: Mon: 09:00-17:00, Tue: 09:00-17:00, Wed: 09:00-17:00, Thur: 09:00-17:00, Fri: 09:00-17:00, Sat: 09:00-12:00, Sun: closed-closed",,,
,,1100 N. Roselle Road,,Hoffman Estates,IL,60169,US,847-885-5858,42.048267,-88.0802719,"Branch Hours: Mon: 09:00-17:00, Tue: 09:00-17:00, Wed: 09:00-17:00, Thur: 09:00-17:00, Fri: 09:00-17:00, Sat: 09:00-12:30, Sun: closed-closed, Drive Up: Mon: 09:00-17:00, Tue: 09:00-17:00, Wed: 09:00-17:00, Thur: 09:00-17:00, Fri: 09:00-17:00, Sat: 09:00-12:30, Sun: closed-closed",,,
,,590 Roselle Road,,Schaumburg,IL,60193,US,847-301-5466,42.0164685,-88.08020353,"Branch Hours: Mon: 09:00-17:00, Tue: 09:00-17:00, Wed: 09:00-17:00, Thur: 09:00-17:00, Fri: 09:00-18:00, Sat: 09:00-13:00, Sun: closed-closed, Drive Up: Mon: 08:30-18:00, Tue: 08:30-18:00, Wed: 08:30-18:00, Thur: 08:30-18:00, Fri: 08:30-18:00, Sat: 08:30-13:00, Sun: closed-closed",,,
,,12920 S Route 47,,Huntley,IL,60142,US,847-515-8282,42.14161758,-88.43266726,"Branch Hours: Mon: 09:00-17:00, Tue: 09:00-17:00, Wed: 09:00-17:00, Thur: 09:00-17:00, Fri: 09:00-17:00, Sat: 09:00-12:30, Sun: closed-closed, Drive Up: Mon: 09:00-17:00, Tue: 09:00-17:00, Wed: 09:00-17:00, Thur: 09:00-17:00, Fri: 09:00-17:30, Sat: 09:00-12:30, Sun: closed-closed",,,
,,201 S. Grove Ave,,Barrington,IL,60010,US,847-382-5800,42.153005,-88.13431,"Branch Hours: Mon: 09:00-17:00, Tue: 09:00-17:00, Wed: 09:00-17:00, Thur: 09:00-17:00, Fri: 09:00-17:00, Sat: 09:00-12:30, Sun: closed-closed",,,
,,310 W. Walnut St,,Green Bay,WI,54303,US,920-436-1800,44.51606061,-88.02095592,"Branch Hours: Mon: 08:30-17:00, Tue: 08:30-17:00, Wed: 08:30-17:00, Thur: 08:30-17:00, Fri: 08:30-17:30, Sat: closed-closed, Sun: closed-closed",,,
,,110 E. Irving Park Road,,Roselle,IL,60172,US,630-980-2700,41.983893,-88.076955,"Branch Hours: Mon: 09:00-17:00, Tue: 09:00-17:00, Wed: 09:00-17:00, Thur: 09:00-17:00, Fri: 09:00-17:30, Sat: 09:00-13:00, Sun: closed-closed",,,
,,270 W. Continental Rd.,,Green Valley,AZ,85614,US,520-648-2511,31.85189496,-110.9976749,"Branch Hours: Mon: 08:00-16:00, Tue: 08:00-16:00, Wed: 08:00-16:00, Thur: 08:00-16:00, Fri: 08:00-16:00, Sat: closed-closed, Sun: closed-closed, Drive Up: Mon: 08:00-16:00, Tue: 08:00-16:00, Wed: 08:00-16:00, Thur: 08:00-16:00, Fri: 08:00-16:00, Sat: closed-closed, Sun: closed-closed",,,
,,201 S. Military Ave.,,Green Bay,WI,54303,US,920-497-5200,44.52821833,-88.06088583,"Branch Hours: Mon: 08:30-17:00, Tue: 08:30-17:00, Wed: 08:30-17:00, Thur: 08:30-17:00, Fri: 08:30-17:30, Sat: 08:30-12:00, Sun: closed-closed, Drive Up: Mon: 08:00-17:30, Tue: 08:00-17:30, Wed: 08:00-17:30, Thur: 08:00-17:30, Fri: 08:00-17:30, Sat: 08:30-12:00, Sun: closed-closed",,,
,,412 Howard St.,,Green Bay,WI,54303,US,920-436-1815,44.515582,-88.023128,"Branch Hours: Mon: 08:30-17:30, Tue: 08:30-17:30, Wed: 08:30-17:30, Thur: 08:30-17:30, Fri: 08:30-17:30, Sat: 08:30-12:00, Sun: closed-closed",,,
,,2223 Main St.,,Green Bay,WI,54302,US,920-468-5751,44.48463357,-87.97023879,"Branch Hours: Mon: 08:30-17:00, Tue: 08:30-17:00, Wed: 08:30-17:00, Thur: 08:30-17:00, Fri: 08:30-17:30, Sat: 08:30-12:00, Sun: closed-closed, Drive Up: Mon: 08:00-17:30, Tue: 08:00-17:30, Wed: 08:00-17:30, Thur: 08:00-17:30, Fri: 08:00-17:30, Sat: 08:30-12:00, Sun: closed-closed",,,
,,2700 S. Oneida St.,,Green Bay,WI,54304,US,920-494-3407,44.4768725,-88.0738825,"Branch Hours: Mon: 08:30-17:00, Tue: 08:30-17:00, Wed: 08:30-17:00, Thur: 08:30-17:00, Fri: 08:30-17:30, Sat: 08:30-12:00, Sun: closed-closed, Drive Up: Mon: 08:00-17:30, Tue: 08:00-17:30, Wed: 08:00-17:30, Thur: 08:00-17:30, Fri: 08:00-17:30, Sat: 08:30-12:00, Sun: closed-closed",,,
,,2614 W. Mason St.,,Green Bay,WI,54303,US,920-494-8422,44.52425663,-88.10001607,"Branch Hours: Mon: 08:30-17:00, Tue: 08:30-17:00, Wed: 08:30-17:00, Thur: 08:30-17:00, Fri: 08:30-17:30, Sat: 08:30-12:00, Sun: closed-closed, Drive Up: Mon: 08:00-17:30, Tue: 08:00-17:30, Wed: 08:00-17:30, Thur: 08:00-17:30, Fri: 08:00-17:30, Sat: 08:30-12:00, Sun: closed-closed",,,
,,945 Cardinal Ln.,,Green Bay,WI,54313,US,920-434-8090,44.56682,-88.084728,"Branch Hours: Mon: 08:30-17:00, Tue: 08:30-17:00, Wed: 08:30-17:00, Thur: 08:30-17:00, Fri: 08:30-17:30, Sat: 08:30-12:00, Sun: closed-closed, Drive Up: Mon: 08:00-17:30, Tue: 08:00-17:30, Wed: 08:00-17:30, Thur: 08:00-17:30, Fri: 08:00-17:30, Sat: 08:30-12:00, Sun: closed-closed",,,
,,1964 Dickinson Rd.,,De Pere,WI,54115,US,920-336-0044,44.43753429,-88.03025143,"Branch Hours: Mon: 08:30-17:00, Tue: 08:30-17:00, Wed: 08:30-17:00, Thur: 08:30-17:00, Fri: 08:30-17:30, Sat: 08:30-12:00, Sun: closed-closed, Drive Up: Mon: 08:00-17:30, Tue: 08:00-17:30, Wed: 08:00-17:30, Thur: 08:00-17:30, Fri: 08:00-17:30, Sat: 08:30-12:00, Sun: closed-closed",,,
,,2042 Lime Kiln Rd.,,Green Bay,WI,54311,US,920-406-1000,44.46462245,-87.98282614,"Branch Hours: Mon: 08:30-17:00, Tue: 08:30-17:00, Wed: 08:30-17:00, Thur: 08:30-17:00, Fri: 08:30-17:30, Sat: 08:30-12:00, Sun: closed-closed, Drive Up: Mon: 08:00-17:30, Tue: 08:00-17:30, Wed: 08:00-17:30, Thur: 08:00-17:30, Fri: 08:00-17:30, Sat: 08:30-12:00, Sun: closed-closed",,,
,,2413 75Th Street,,Woodridge,IL,60517,US,630-985-8100,41.750213,-88.041894,"Branch Hours: Mon: 09:00-17:00, Tue: 09:00-17:00, Wed: 09:00-17:00, Thur: 09:00-17:00, Fri: 09:00-17:00, Sat: 09:00-12:00, Sun: closed-closed, Drive Up: Mon: 09:00-17:00, Tue: 09:00-17:00, Wed: 09:00-17:00, Thur: 09:00-17:00, Fri: 09:00-17:00, Sat: 09:00-12:00, Sun: closed-closed",,,
,,2275 75Th Street,,Darien,IL,60561,US,630-271-4000,41.751382,-88.002026,"Branch Hours: Mon: 09:00-17:00, Tue: 09:00-17:00, Wed: 09:00-17:00, Thur: 09:00-17:00, Fri: 09:00-17:00, Sat: 09:00-12:00, Sun: closed-closed, Drive Up: Mon: 09:00-17:00, Tue: 09:00-17:00, Wed: 09:00-17:00, Thur: 09:00-17:00, Fri: 09:00-17:00, Sat: 09:00-12:00, Sun: closed-closed",,,
,,2505 Farnsworth Ave,,Aurora,IL,60502,US,630-862-2460,41.805407,-88.282096,"Branch Hours: Mon: 09:00-17:00, Tue: 09:00-17:00, Wed: 09:00-17:00, Thur: 09:00-17:00, Fri: 09:00-17:00, Sat: closed-closed, Sun: closed-closed, Drive Up: Mon: 09:00-17:00, Tue: 09:00-17:00, Wed: 09:00-17:00, Thur: 09:00-17:00, Fri: 09:00-17:00, Sat: closed-closed, Sun: closed-closed",,,
,,1044 N. Farnsworth Ave.,,Aurora,IL,60505,US,630-692-2980,41.778815,-88.281756,"Branch Hours: Mon: 09:00-17:00, Tue: 09:00-17:00, Wed: 09:00-17:00, Thur: 09:00-17:00, Fri: 09:00-18:00, Sat: 09:00-13:00, Sun: closed-closed",,,
,,4 Blanchard Circle,,Wheaton,IL,60189,US,630-665-1111,41.83662304,-88.10232324,"Branch Hours: Mon: 09:00-17:00, Tue: 09:00-17:00, Wed: 09:00-17:00, Thur: 09:00-17:00, Fri: 09:00-17:30, Sat: 09:00-12:00, Sun: closed-closed, Drive Up: Mon: 09:00-17:00, Tue: 09:00-17:00, Wed: 09:00-17:00, Thur: 09:00-17:00, Fri: 09:00-17:30, Sat: 09:00-12:00, Sun: closed-closed",,,
,,1252 N. Lake St,,Aurora,IL,60506,US,630-844-5000,41.783663,-88.318561,"Branch Hours: Mon: 09:00-17:00, Tue: 09:00-17:00, Wed: 09:00-17:00, Thur: 09:00-17:00, Fri: 09:00-17:00, Sat: 09:00-13:00, Sun: closed-closed, Drive Up: Mon: 09:00-17:00, Tue: 09:00-17:00, Wed: 09:00-17:00, Thur: 09:00-17:00, Fri: 09:00-17:30, Sat: 09:00-13:00, Sun: closed-closed",,,
,,237 W. Maple St.,,Lancaster,WI,53813,US,608-723-4166,42.84796531,-90.71128082,"Branch Hours: Mon: 08:30-16:00, Tue: 08:30-16:00, Wed: 08:30-16:00, Thur: 08:30-16:00, Fri: 08:30-17:00, Sat: closed-closed, Sun: closed-closed, Drive Up: Mon: 08:30-17:00, Tue: 08:30-17:00, Wed: 08:30-17:00, Thur: 08:30-17:00, Fri: 08:30-17:30, Sat: 08:30-11:30, Sun: closed-closed",,,
,,405 Pennsylvania Ave,,Glen Ellyn,IL,60137,US,630-790-1102,41.87652,-88.070987,"Branch Hours: Mon: 09:00-17:00, Tue: 09:00-17:00, Wed: 09:00-17:00, Thur: 09:00-17:00, Fri: 09:00-17:00, Sat: 09:00-12:00, Sun: closed-closed, Drive Up: Mon: 09:00-17:00, Tue: 09:00-17:00, Wed: 09:00-17:00, Thur: 09:00-17:00, Fri: 09:00-17:30, Sat: 09:00-12:00, Sun: closed-closed",,,
,,1201 W. Ogden Ave,,Downers Grove,IL,60515,US,630-353-6300,41.808237,-88.014366,"Branch Hours: Mon: 09:00-17:00, Tue: 09:00-17:00, Wed: 09:00-17:00, Thur: 09:00-17:00, Fri: 09:00-17:00, Sat: 09:00-12:00, Sun: closed-closed",,,
,,155 W. Wilson Street,,Batavia,IL,60510,US,630-879-2600,41.849993,-88.309457,"Branch Hours: Mon: 09:00-17:00, Tue: 09:00-17:00, Wed: 09:00-17:00, Thur: 09:00-17:00, Fri: 09:00-17:00, Sat: 09:00-12:00, Sun: closed-closed, Drive Up: Mon: 09:00-17:00, Tue: 09:00-17:00, Wed: 09:00-17:00, Thur: 09:00-17:00, Fri: 09:00-17:00, Sat: 09:00-12:00, Sun: closed-closed",,,
,,345 S. Main Street,,Lombard,IL,60148,US,630-261-2530,41.880822,-88.017845,"Branch Hours: Mon: 09:00-17:00, Tue: 09:00-17:00, Wed: 09:00-17:00, Thur: 09:00-17:00, Fri: 09:00-17:00, Sat: 09:00-12:00, Sun: closed-closed, Drive Up: Mon: 09:00-17:00, Tue: 09:00-17:00, Wed: 09:00-17:00, Thur: 09:00-17:00, Fri: 09:00-17:00, Sat: 09:00-12:00, Sun: closed-closed",,,
,,2409 E. 141St Street,,East Chicago,IN,46312,US,219-398-4400,41.638874,-87.442372,"Branch Hours: Mon: 09:00-17:00, Tue: 09:00-17:00, Wed: 09:00-17:00, Thur: 09:00-17:00, Fri: 09:00-17:00, Sat: closed-closed, Sun: closed-closed, Drive Up: Mon: 09:00-17:00, Tue: 09:00-17:00, Wed: 09:00-17:00, Thur: 09:00-17:00, Fri: 09:00-17:00, Sat: closed-closed, Sun: closed-closed",,,
,,200 W. Ridge Road,,Griffith,IN,46319,US,219-972-7400,41.551113,-87.428611,"Branch Hours: Mon: 09:00-17:00, Tue: 09:00-17:00, Wed: 09:00-17:00, Thur: 09:00-17:00, Fri: 09:00-17:00, Sat: 09:00-12:00, Sun: closed-closed, Drive Up: Mon: 09:00-17:00, Tue: 09:00-17:00, Wed: 09:00-17:00, Thur: 09:00-17:00, Fri: 09:00-17:00, Sat: 09:00-12:00, Sun: closed-closed",,,
,,790 E. Lincoln Highway (U.S. 30),,Schererville,IN,46375,US,219-322-8203,41.481864,-87.432827,"Branch Hours: Mon: 09:00-17:00, Tue: 09:00-17:00, Wed: 09:00-17:00, Thur: 09:00-17:00, Fri: 09:00-17:00, Sat: closed-closed, Sun: closed-closed, Drive Up: Mon: 09:00-17:00, Tue: 09:00-17:00, Wed: 09:00-17:00, Thur: 09:00-17:00, Fri: 09:00-17:00, Sat: closed-closed, Sun: closed-closed",,,
,,3514 - 169Th Street,,Hammond,IN,46323,US,219-933-3744,41.588192,-87.444021,"Branch Hours: Mon: 09:00-17:00, Tue: 09:00-17:00, Wed: 09:00-17:00, Thur: 09:00-17:00, Fri: 09:00-17:00, Sat: 09:00-12:00, Sun: closed-closed, Drive Up: Mon: 09:00-17:00, Tue: 09:00-17:00, Wed: 09:00-17:00, Thur: 09:00-17:00, Fri: 09:00-17:00, Sat: 09:00-12:00, Sun: closed-closed",,,
,,7250 Indianapolis Blvd.,,Hammond,IN,46324,US,219-933-3940,41.581301,-87.481308,"Branch Hours: Mon: 09:00-17:00, Tue: 09:00-17:00, Wed: 09:00-17:00, Thur: 09:00-17:00, Fri: 09:00-17:00, Sat: closed-closed, Sun: closed-closed, Drive Up: Mon: 09:00-17:00, Tue: 09:00-17:00, Wed: 09:00-17:00, Thur: 09:00-17:00, Fri: 09:00-17:00, Sat: closed-closed, Sun: closed-closed",,,
,,220 Douglas Road,,Oswego,IL,60543,US,630-906-4000,41.717131,-88.319559,"Branch Hours: Mon: 09:00-17:00, Tue: 09:00-17:00, Wed: 09:00-17:00, Thur: 09:00-17:00, Fri: 09:00-18:00, Sat: 09:00-13:00, Sun: closed-closed, Drive Up: Mon: 09:00-17:00, Tue: 09:00-17:00, Wed: 09:00-17:00, Thur: 09:00-17:00, Fri: 09:00-18:00, Sat: 09:00-13:00, Sun: closed-closed",,,
,,1590 North Larkin Avenue,,Joliet,IL,60435,US,815-741-2274,41.551485,-88.125842,"Branch Hours: Mon: 10:00-19:00, Tue: 10:00-19:00, Wed: 10:00-19:00, Thur: 10:00-19:00, Fri: 10:00-19:00, Sat: 10:00-16:00, Sun: closed-closed",,,
,,78 North Chicago Street,,Joliet,IL,60432,US,815-726-4371,41.525725,-88.081571,"Branch Hours: Mon: 09:00-17:00, Tue: 09:00-17:00, Wed: 09:00-17:00, Thur: 09:00-17:00, Fri: 09:00-18:00, Sat: 09:00-13:00, Sun: closed-closed, Drive Up: Mon: 09:00-17:00, Tue: 09:00-17:00, Wed: 09:00-17:00, Thur: 09:00-17:00, Fri: 09:00-18:00, Sat: 09:00-13:00, Sun: closed-closed",,,
,,61 East Jefferson Street,,Joliet,IL,60432,US,815-774-4105,41.525019,-88.079607,"Branch Hours: Mon: 09:00-17:00, Tue: 09:00-17:00, Wed: 09:00-17:00, Thur: 09:00-17:00, Fri: 09:00-17:00, Sat: closed-closed, Sun: closed-closed",,,
,,505 State Street,,Manhattan,IL,60442,US,815-478-3202,41.41936,-87.985046,"Branch Hours: Mon: 09:00-17:00, Tue: 09:00-17:00, Wed: 09:00-17:00, Thur: 09:00-17:00, Fri: 09:00-17:00, Sat: 09:00-12:00, Sun: closed-closed, Drive Up: Mon: 09:00-17:00, Tue: 09:00-17:00, Wed: 09:00-17:00, Thur: 09:00-17:00, Fri: 09:00-17:00, Sat: 09:00-12:00, Sun: closed-closed",,,
,,80 South Weber Road,,Romeoville,IL,60446,US,815-293-2440,41.62118,-88.123629,"Branch Hours: Mon: 09:00-17:00, Tue: 09:00-17:00, Wed: 09:00-17:00, Thur: 09:00-17:00, Fri: 09:00-17:00, Sat: closed-closed, Sun: closed-closed, Drive Up: Mon: 09:00-17:00, Tue: 09:00-17:00, Wed: 09:00-17:00, Thur: 09:00-17:00, Fri: 09:00-17:00, Sat: closed-closed, Sun: closed-closed",,,
,,2412 Indian Trail Rd,,Aurora,IL,60506,US,630-907-3900,41.780917,-88.375984,"Branch Hours: Mon: 09:00-17:00, Tue: 09:00-17:00, Wed: 09:00-17:00, Thur: 09:00-17:00, Fri: 09:00-17:00, Sat: 09:00-12:00, Sun: closed-closed, Drive Up: Mon: 09:00-17:00, Tue: 09:00-17:00, Wed: 09:00-17:00, Thur: 09:00-17:00, Fri: 09:00-17:00, Sat: 09:00-12:00, Sun: closed-closed",,,
,,228 S Main St,,Rockford,IL,61101,US,815-961-7808,42.270141,-89.095318,"Branch Hours: Mon: 09:00-17:00, Tue: 09:00-17:00, Wed: 09:00-17:00, Thur: 09:00-17:00, Fri: 09:00-17:00, Sat: 09:00-13:00, Sun: closed-closed, Drive Up: Mon: 08:00-18:00, Tue: 08:00-18:00, Wed: 08:00-18:00, Thur: 08:00-18:00, Fri: 08:00-18:00, Sat: 08:30-13:00, Sun: closed-closed",,,
,,5935 7Th Ave.,,Kenosha,WI,53140,US,262-658-4861,42.58131677,-87.81884087,"Branch Hours: Mon: 09:00-17:00, Tue: 09:00-17:00, Wed: 09:00-17:00, Thur: 09:00-17:00, Fri: 09:00-17:00, Sat: closed-closed, Sun: closed-closed, Drive Up: Mon: 08:00-17:00, Tue: 08:00-17:00, Wed: 08:00-17:00, Thur: 08:00-17:00, Fri: 08:00-17:00, Sat: closed-closed, Sun: closed-closed",,,
,,8900 S. Howell Ave.,,Oak Creek,WI,53154,US,414-762-0164,42.88298522,-87.91228724,"Branch Hours: Mon: 09:00-17:00, Tue: 09:00-17:00, Wed: 09:00-17:00, Thur: 09:00-17:00, Fri: 09:00-17:30, Sat: 09:00-12:00, Sun: closed-closed, Drive Up: Mon: 08:00-17:30, Tue: 08:00-17:30, Wed: 08:00-17:30, Thur: 08:00-17:30, Fri: 08:00-17:30, Sat: 08:00-12:00, Sun: closed-closed",,,
,,4235 52Nd St.,,Kenosha,WI,53144,US,262-605-6800,42.58841,-87.86017041,"Branch Hours: Mon: 09:00-17:00, Tue: 09:00-17:00, Wed: 09:00-17:00, Thur: 09:00-17:00, Fri: 09:00-17:30, Sat: 09:00-12:00, Sun: closed-closed, Drive Up: Mon: 08:00-17:30, Tue: 08:00-17:30, Wed: 08:00-17:30, Thur: 08:00-17:30, Fri: 08:00-17:30, Sat: 08:30-12:00, Sun: closed-closed",,,
,,8740 N. Port Washington Rd.,,Fox Point,WI,53217,US,414-351-7240,43.17584611,-87.91271701,"Branch Hours: Mon: 09:00-17:00, Tue: 09:00-17:00, Wed: 09:00-17:00, Thur: 09:00-17:00, Fri: 09:00-17:30, Sat: 09:00-12:00, Sun: closed-closed, Drive Up: Mon: 07:30-17:30, Tue: 07:30-17:30, Wed: 07:30-17:30, Thur: 07:30-17:30, Fri: 07:30-18:00, Sat: 08:30-12:00, Sun: closed-closed",,,
,,623 W. Grand Ave.,,Port Washington,WI,53074,US,262-284-1000,43.38705,-87.882369,"Branch Hours: Mon: 09:00-17:00, Tue: 09:00-17:00, Wed: 09:00-17:00, Thur: 09:00-17:00, Fri: 09:00-17:30, Sat: 09:00-12:00, Sun: closed-closed, Drive Up: Mon: 07:30-17:30, Tue: 07:30-17:30, Wed: 07:30-17:30, Thur: 07:30-17:30, Fri: 07:30-17:30, Sat: 08:30-12:00, Sun: closed-closed",,,
,,7535 Pershing Blvd.,,Kenosha,WI,53142,US,262-697-5880,42.56527,-87.85762,"Branch Hours: Mon: 09:00-17:00, Tue: 09:00-17:00, Wed: 09:00-17:00, Thur: 09:00-17:00, Fri: 09:00-17:30, Sat: 09:00-12:00, Sun: closed-closed, Drive Up: Mon: 08:00-17:30, Tue: 08:00-17:30, Wed: 08:00-17:30, Thur: 08:00-17:30, Fri: 08:00-17:30, Sat: 08:30-12:00, Sun: closed-closed",,,
,,1425 W Mequon Rd,,Mequon,WI,53092,US,262-241-2000,43.2212993,-87.9263586,"Branch Hours: Mon: 09:00-17:00, Tue: 09:00-17:00, Wed: 09:00-17:00, Thur: 09:00-17:00, Fri: 09:00-18:00, Sat: 09:00-12:00, Sun: closed-closed, Drive Up: Mon: 73:0-18:00, Tue: 73:0-18:00, Wed: 73:0-18:00, Thur: 73:0-18:00, Fri: 73:0-18:00, Sat: 08:30-12:00, Sun: closed-closed",,,
,,9000 Bonita Beach Rd. Se,,Bonita Springs,FL,34135,US,239-390-8100,26.3307,-81.80383,"Branch Hours: Mon: 09:00-16:00, Tue: 09:00-16:00, Wed: 09:00-16:00, Thur: 09:00-16:00, Fri: 09:00-17:00, Sat: closed-closed, Sun: closed-closed, Drive Up: Mon: 09:00-17:00, Tue: 09:00-17:00, Wed: 09:00-17:00, Thur: 09:00-17:00, Fri: 09:00-17:00, Sat: closed-closed, Sun: closed-closed",,,
,,320 Lake St. East,,Minneapolis,MN,55408,US,612-238-8700,44.94835,-93.27156,"Branch Hours: Mon: 09:00-17:00, Tue: 09:00-17:00, Wed: 09:00-17:00, Thur: 09:00-17:00, Fri: 09:00-17:00, Sat: 09:00-13:00, Sun: closed-closed, Drive Up: Mon: 08:00-17:30, Tue: 08:00-17:30, Wed: 08:00-17:30, Thur: 08:00-17:30, Fri: 08:00-17:30, Sat: 09:00-13:00, Sun: closed-closed",,,
,,1780 West Highway 36,,Roseville,MN,55113,US,651-288-6300,45.00830538,-93.17619749,"Branch Hours: Mon: 09:00-17:00, Tue: 09:00-17:00, Wed: 09:00-17:00, Thur: 09:00-17:00, Fri: 09:00-17:00, Sat: 09:00-12:00, Sun: closed-closed, Drive Up: Mon: 08:00-17:30, Tue: 08:00-17:30, Wed: 08:00-17:30, Thur: 08:00-17:30, Fri: 08:00-17:30, Sat: 09:00-12:00, Sun: closed-closed",,,
,,5775 Wayzata Blvd.,,St. Louis Park,MN,55416,US,952-544-3100,44.96998192,-93.35394561,"Branch Hours: Mon: 09:00-17:00, Tue: 09:00-17:00, Wed: 09:00-17:00, Thur: 09:00-17:00, Fri: 09:00-17:00, Sat: 09:00-12:00, Sun: closed-closed, Drive Up: Mon: 08:00-17:30, Tue: 08:00-17:30, Wed: 08:00-17:30, Thur: 08:00-17:30, Fri: 08:00-17:30, Sat: 09:00-12:00, Sun: closed-closed",,,
,,522 Snelling Ave. S,,St. Paul,MN,55116,US,651-291-4910,44.925722,-93.16702,"Branch Hours: Mon: 09:00-17:00, Tue: 09:00-17:00, Wed: 09:00-17:00, Thur: 09:00-17:00, Fri: 09:00-17:00, Sat: 09:00-12:00, Sun: closed-closed, Drive Up: Mon: 08:00-17:30, Tue: 08:00-17:30, Wed: 08:00-17:30, Thur: 08:00-17:30, Fri: 08:00-17:30, Sat: 09:00-12:00, Sun: closed-closed",,,
,,5050 France Ave. S,,Edina,MN,55410,US,952-836-3000,44.91161143,-93.3290598,"Branch Hours: Mon: 09:00-17:00, Tue: 09:00-17:00, Wed: 09:00-17:00, Thur: 09:00-17:00, Fri: 09:00-17:00, Sat: 09:00-12:00, Sun: closed-closed, Drive Up: Mon: 08:00-17:30, Tue: 08:00-17:30, Wed: 08:00-17:30, Thur: 08:00-17:30, Fri: 08:00-17:30, Sat: 09:00-12:00, Sun: closed-closed",,,
,,2375 Tamiami Trail N.,,Naples,FL,34103,US,239-403-2240,26.17656875,-81.79987875,"Branch Hours: Mon: 09:00-16:00, Tue: 09:00-16:00, Wed: 09:00-16:00, Thur: 09:00-16:00, Fri: 09:00-17:00, Sat: closed-closed, Sun: closed-closed, Drive Up: Mon: 09:00-17:00, Tue: 09:00-17:00, Wed: 09:00-17:00, Thur: 09:00-17:00, Fri: 09:00-17:00, Sat: closed-closed, Sun: closed-closed",,,
,,21479 S. Ellsworth Rd.,,Queen Creek,AZ,85142,US,480-882-3000,33.2526076,-111.6345709,"Branch Hours: Mon: 09:00-17:00, Tue: 09:00-17:00, Wed: 09:00-17:00, Thur: 09:00-17:00, Fri: 09:00-17:00, Sat: 09:00-12:00, Sun: closed-closed, Drive Up: Mon: 09:00-17:00, Tue: 09:00-17:00, Wed: 09:00-17:00, Thur: 09:00-17:00, Fri: 09:00-17:00, Sat: 09:00-12:00, Sun: closed-closed",,,
,,3905 W. 69Th St.,,Edina,MN,55435,US,952-698-1440,44.87805477,-93.32915526,"Branch Hours: Mon: 09:00-17:00, Tue: 09:00-17:00, Wed: 09:00-17:00, Thur: 09:00-17:00, Fri: 09:00-17:00, Sat: 09:00-12:00, Sun: closed-closed, Drive Up: Mon: 08:00-17:30, Tue: 08:00-17:30, Wed: 08:00-17:30, Thur: 08:00-17:30, Fri: 08:00-17:30, Sat: 09:00-12:00, Sun: closed-closed",,,
,,6625 Lyndale Avenue South,,Richfield,MN,55423,US,612-798-3379,44.8826797,-93.2863133,"Branch Hours: Mon: 09:00-17:00, Tue: 09:00-17:00, Wed: 09:00-17:00, Thur: 09:00-17:00, Fri: 09:00-17:00, Sat: 09:00-12:00, Sun: closed-closed, Drive Up: Mon: 08:00-17:30, Tue: 08:00-17:30, Wed: 08:00-17:30, Thur: 08:00-17:30, Fri: 08:00-17:30, Sat: 09:00-12:00, Sun: closed-closed",,,
,,3245 Vicksburg Ln. North,,Plymouth,MN,55447,US,763-383-9830,45.01686729,-93.48191576,"Branch Hours: Mon: 09:00-17:00, Tue: 09:00-17:00, Wed: 09:00-17:00, Thur: 09:00-17:00, Fri: 09:00-17:00, Sat: 09:00-12:00, Sun: closed-closed, Drive Up: Mon: 08:00-17:30, Tue: 08:00-17:30, Wed: 08:00-17:30, Thur: 08:00-17:30, Fri: 08:00-17:30, Sat: 09:00-12:00, Sun: closed-closed",,,
,,11455 Viking Dr.,,Eden Prairie,MN,55344,US,952-943-2300,44.86378768,-93.42187582,"Branch Hours: Mon: 09:00-17:00, Tue: 09:00-17:00, Wed: 09:00-17:00, Thur: 09:00-17:00, Fri: 09:00-17:00, Sat: 09:00-12:00, Sun: closed-closed, Drive Up: Mon: 08:00-17:30, Tue: 08:00-17:30, Wed: 08:00-17:30, Thur: 08:00-17:30, Fri: 08:00-17:30, Sat: 09:00-12:00, Sun: closed-closed",,,
,,11915 Elm Creek Blvd N,,Maple Grove,MN,55369,US,763-315-7950,45.09460273,-93.43011727,"Branch Hours: Mon: 09:00-17:00, Tue: 09:00-17:00, Wed: 09:00-17:00, Thur: 09:00-17:00, Fri: 09:00-17:00, Sat: 09:00-12:00, Sun: closed-closed, Drive Up: Mon: 08:00-17:30, Tue: 08:00-17:30, Wed: 08:00-17:30, Thur: 08:00-17:30, Fri: 08:00-17:30, Sat: 09:00-12:00, Sun: closed-closed",,,
,,9320 Ensign Ave. South,,Bloomington,MN,55438,US,952-698-5560,44.83253889,-93.39764798,"Branch Hours: Mon: 09:00-17:00, Tue: 09:00-17:00, Wed: 09:00-17:00, Thur: 09:00-17:00, Fri: 09:00-17:00, Sat: 09:00-12:00, Sun: closed-closed, Drive Up: Mon: 08:00-17:30, Tue: 08:00-17:30, Wed: 08:00-17:30, Thur: 08:00-17:30, Fri: 08:00-17:30, Sat: 09:00-12:00, Sun: closed-closed",,,
,,1200 E. Wayzata Blvd.,,Wayzata,MN,55391,US,952-697-4500,44.97113,-93.49909,"Branch Hours: Mon: 09:00-17:00, Tue: 09:00-17:00, Wed: 09:00-17:00, Thur: 09:00-17:00, Fri: 09:00-17:00, Sat: 09:00-12:00, Sun: closed-closed, Drive Up: Mon: 08:00-17:30, Tue: 08:00-17:30, Wed: 08:00-17:30, Thur: 08:00-17:30, Fri: 08:00-17:30, Sat: 09:00-12:00, Sun: closed-closed",,,
,,7225 Renner Rd.,,Shawnee Mission,KS,66217,US,913-962-1400,38.99713453,-94.77997558,"Branch Hours: Mon: 09:00-17:00, Tue: 09:00-17:00, Wed: 09:00-17:00, Thur: 09:00-17:00, Fri: 09:00-17:00, Sat: closed-closed, Sun: closed-closed, Drive Up: Mon: 09:00-17:00, Tue: 09:00-17:00, Wed: 09:00-17:00, Thur: 09:00-17:00, Fri: 09:00-17:00, Sat: closed-closed, Sun: closed-closed",,,
,,1520 109Th Ave. Ne,,Blaine,MN,55449,US,763-792-8420,45.16815184,-93.2319894,"Branch Hours: Mon: 09:00-17:00, Tue: 09:00-17:00, Wed: 09:00-17:00, Thur: 09:00-17:00, Fri: 09:00-17:00, Sat: 09:00-12:00, Sun: closed-closed, Drive Up: Mon: 08:00-17:30, Tue: 08:00-17:30, Wed: 08:00-17:30, Thur: 08:00-17:30, Fri: 08:00-17:30, Sat: 09:00-12:00, Sun: closed-closed",,,
,,21911 N. Scottsdale Rd.,,Scottsdale,AZ,85255,US,480-513-6020,33.68625,-111.9254211,"Branch Hours: Mon: 09:00-17:00, Tue: 09:00-17:00, Wed: 09:00-17:00, Thur: 09:00-17:00, Fri: 09:00-17:00, Sat: closed-closed, Sun: closed-closed, Drive Up: Mon: 09:00-17:00, Tue: 09:00-17:00, Wed: 09:00-17:00, Thur: 09:00-17:00, Fri: 09:00-17:00, Sat: closed-closed, Sun: closed-closed",,,
,,8840 State Line Rd,,Leawood,KS,66206,US,913-693-1600,38.96877889,-94.6081901,"Branch Hours: Mon: 09:00-17:00, Tue: 09:00-17:00, Wed: 09:00-17:00, Thur: 09:00-17:00, Fri: 09:00-17:00, Sat: closed-closed, Sun: closed-closed, Drive Up: Mon: 09:00-17:00, Tue: 09:00-17:00, Wed: 09:00-17:00, Thur: 09:00-17:00, Fri: 09:00-17:00, Sat: closed-closed, Sun: closed-closed",,,
,,800 W. 47Th St.,,Kansas City,MO,64112,US,816-561-1000,39.04239,-94.59673,"Branch Hours: Mon: 09:00-17:00, Tue: 09:00-17:00, Wed: 09:00-17:00, Thur: 09:00-17:00, Fri: 09:00-17:00, Sat: closed-closed, Sun: closed-closed, Drive Up: Mon: 09:00-17:00, Tue: 09:00-17:00, Wed: 09:00-17:00, Thur: 09:00-17:00, Fri: 09:00-17:00, Sat: closed-closed, Sun: closed-closed",,,
,,15203 W. 119Th St.,,Olathe,KS,66062,US,913-254-6600,38.91269121,-94.76215879,"Branch Hours: Mon: 09:00-17:00, Tue: 09:00-17:00, Wed: 09:00-17:00, Thur: 09:00-17:00, Fri: 09:00-17:00, Sat: 09:00-12:00, Sun: closed-closed, Drive Up: Mon: 09:00-17:00, Tue: 09:00-17:00, Wed: 09:00-17:00, Thur: 09:00-17:00, Fri: 09:00-17:00, Sat: 09:00-12:00, Sun: closed-closed",,,
,,11301 Nall Ave.,,Leawood,KS,66211,US,913-663-3228,38.92306,-94.64889,"Branch Hours: Mon: 09:00-17:00, Tue: 09:00-17:00, Wed: 09:00-17:00, Thur: 09:00-17:00, Fri: 09:00-17:00, Sat: 09:00-12:00, Sun: closed-closed, Drive Up: Mon: 09:00-17:00, Tue: 09:00-17:00, Wed: 09:00-17:00, Thur: 09:00-17:00, Fri: 09:00-17:00, Sat: 09:00-12:00, Sun: closed-closed",,,
,,18811 E. Valley View Pkwy.,,Independence,MO,64055,US,816-350-9333,39.03235189,-94.35802981,"Branch Hours: Mon: 09:00-17:00, Tue: 09:00-17:00, Wed: 09:00-17:00, Thur: 09:00-17:00, Fri: 09:00-17:00, Sat: 09:00-12:00, Sun: closed-closed, Drive Up: Mon: 09:00-17:00, Tue: 09:00-17:00, Wed: 09:00-17:00, Thur: 09:00-17:00, Fri: 09:00-17:00, Sat: 09:00-12:00, Sun: closed-closed",,,
,,50 S 6Th Street,,Minneapolis,MN,55402,US,612-337-7720,44.9783873,-93.27206,"Branch Hours: Mon: 08:00-17:00, Tue: 08:00-17:00, Wed: 08:00-17:00, Thur: 08:00-17:00, Fri: 08:00-17:00, Sat: closed-closed, Sun: closed-closed",,,
,,800 N. Collier Blvd.,,Marco Island,FL,34145,US,239-389-5100,25.95304,-81.72841,"Branch Hours: Mon: 09:00-16:00, Tue: 09:00-16:00, Wed: 09:00-16:00, Thur: 09:00-16:00, Fri: 09:00-17:00, Sat: closed-closed, Sun: closed-closed, Drive Up: Mon: 09:00-17:00, Tue: 09:00-17:00, Wed: 09:00-17:00, Thur: 09:00-17:00, Fri: 09:00-17:00, Sat: closed-closed, Sun: closed-closed",,,
,,10911 Olive Blvd.,,Creve Coeur,MO,63141,US,314-205-3400,38.67289395,-90.41948501,"Branch Hours: Mon: 09:00-17:00, Tue: 09:00-17:00, Wed: 09:00-17:00, Thur: 09:00-17:00, Fri: 09:00-17:00, Sat: 09:00-12:00, Sun: closed-closed, Drive Up: Mon: 09:00-17:00, Tue: 09:00-17:00, Wed: 09:00-17:00, Thur: 09:00-17:00, Fri: 09:00-17:30, Sat: 09:00-12:00, Sun: closed-closed",,,
,,12452 Olive Street Rd.,,Creve Coeur,MO,63141,US,314-434-3200,38.68079,-90.49359,"Branch Hours: Mon: 09:00-17:00, Tue: 09:00-17:00, Wed: 09:00-17:00, Thur: 09:00-17:00, Fri: 09:00-17:00, Sat: closed-closed, Sun: closed-closed, Drive Up: Mon: 09:00-17:00, Tue: 09:00-17:00, Wed: 09:00-17:00, Thur: 09:00-17:00, Fri: 09:00-17:30, Sat: closed-closed, Sun: closed-closed",,,
,,2110 Burton Lane,,Martinsville,IN,46151,US,765-342-7200,39.406536,-86.437123,"Branch Hours: Mon: 09:00-17:00, Tue: 09:00-17:00, Wed: 09:00-17:00, Thur: 09:00-17:00, Fri: 09:00-18:00, Sat: 09:00-12:00, Sun: closed-closed, Drive Up: Mon: 09:00-17:00, Tue: 09:00-17:00, Wed: 09:00-17:00, Thur: 09:00-17:00, Fri: 09:00-18:00, Sat: 09:00-12:00, Sun: closed-closed",,,
,,10 North Sycamore Street,,Martinsville,IN,46151,US,765-342-5511,39.42699,-86.426089,"Branch Hours: Mon: 09:00-17:00, Tue: 09:00-17:00, Wed: 09:00-17:00, Thur: 09:00-17:00, Fri: 09:00-18:00, Sat: 09:00-12:00, Sun: closed-closed",,,
,,89 North Jefferson Street,,Martinsville,IN,46151,US,765-342-5511,39.427762,-86.427325,"Branch Hours: Mon: 09:00-17:00, Tue: 09:00-17:00, Wed: 09:00-17:00, Thur: 09:00-17:00, Fri: 09:00-17:00, Sat: closed-closed, Sun: closed-closed",,,
,,46 Springmill Ct.,,Mooresville,IN,46158,US,317-831-3640,39.60586635,-86.36451442,"Branch Hours: Mon: 09:00-17:00, Tue: 09:00-17:00, Wed: 09:00-17:00, Thur: 09:00-17:00, Fri: 09:00-18:00, Sat: 09:00-12:00, Sun: closed-closed, Drive Up: Mon: 09:00-17:00, Tue: 09:00-17:00, Wed: 09:00-17:00, Thur: 09:00-17:00, Fri: 09:00-18:00, Sat: 09:00-12:00, Sun: closed-closed",,,
,,33 West Main,,Mooresville,IN,46158,US,317-831-8016,39.61278,-86.375786,"Branch Hours: Mon: 09:00-17:00, Tue: closed-closed, Wed: 09:00-17:00, Thur: closed-closed, Fri: 09:00-18:00, Sat: 09:00-12:00, Sun: closed-closed",,,
,,901 E. 47Th Street,,Chicago,IL,60615,US,773-451-2600,41.80954,-87.603906,"Branch Hours: Mon: 09:00-17:00, Tue: 09:00-17:00, Wed: 09:00-17:00, Thur: 09:00-17:00, Fri: 09:00-18:00, Sat: 09:00-13:00, Sun: closed-closed, Drive Up: Mon: 09:00-17:00, Tue: 09:00-17:00, Wed: 09:00-17:00, Thur: 09:00-17:00, Fri: 09:00-18:00, Sat: 09:00-13:00, Sun: closed-closed",,,
,,402 North Walnut Street,,Pittsburg,KS,66762,US,620-235-7250,37.41111102,-94.70781,"Branch Hours: Mon: 09:00-17:00, Tue: 09:00-17:00, Wed: 09:00-17:00, Thur: 09:00-17:00, Fri: 09:00-17:30, Sat: 09:00-12:00, Sun: closed-closed",,,
,,3440 S. Archer Ave.,,Chicago,IL,60608,US,773-847-3535,41.83161,-87.675635,"Branch Hours: Mon: 09:00-17:00, Tue: 09:00-17:00, Wed: 09:00-17:00, Thur: 09:00-17:00, Fri: 09:00-18:00, Sat: 09:00-13:00, Sun: closed-closed",,,
,,3601 N. Halsted,,Chicago,IL,60613,US,773-327-3600,41.947331,-87.649456,"Branch Hours: Mon: 09:00-17:00, Tue: 09:00-17:00, Wed: 09:00-17:00, Thur: 09:00-17:00, Fri: 09:00-18:00, Sat: 09:00-13:00, Sun: closed-closed, Drive Up: Mon: 09:00-17:00, Tue: 09:00-17:00, Wed: 09:00-17:00, Thur: 09:00-17:00, Fri: 09:00-18:00, Sat: 09:00-13:00, Sun: closed-closed",,,
,,3900 W. Madison Street,,Chicago,IL,60624,US,773-265-5100,41.881212,-87.723718,"Branch Hours: Mon: 09:00-17:00, Tue: 09:00-17:00, Wed: 09:00-17:00, Thur: 09:00-17:00, Fri: 09:00-18:00, Sat: 09:00-13:00, Sun: closed-closed",,,
,,2927 W. Addison Street,,Chicago,IL,60618,US,773-539-9576,41.9466769,-87.7011305,"Branch Hours: Mon: 09:00-17:00, Tue: 09:00-17:00, Wed: 09:00-17:00, Thur: 09:00-17:00, Fri: 09:00-18:00, Sat: 09:00-13:00, Sun: closed-closed",,,
,,558 W. Diversey Pkwy,,Chicago,IL,60614,US,773-880-2150,41.932821,-87.643608,"Branch Hours: Mon: 09:00-17:00, Tue: 09:00-17:00, Wed: 09:00-17:00, Thur: 09:00-17:00, Fri: 09:00-17:00, Sat: 09:00-13:00, Sun: closed-closed",,,
,,5401 S Wentworth Ave #13,,Chicago,IL,60609,US,773-548-5948,41.795966,-87.630536,"Branch Hours: Mon: 09:00-17:00, Tue: 09:00-17:00, Wed: 09:00-17:00, Thur: 09:00-17:00, Fri: 09:00-18:00, Sat: 09:00-13:00, Sun: closed-closed",,,
,,2865 N. Milwaukee Ave,,Chicago,IL,60618,US,773-342-5900,41.9329566,-87.7137621,"Branch Hours: Mon: 09:00-17:00, Tue: 09:00-17:00, Wed: 09:00-17:00, Thur: 09:00-17:00, Fri: 09:00-18:00, Sat: 09:00-13:00, Sun: closed-closed",,,
,,4723 S. Kedzie Ave,,Chicago,IL,60632,US,773-843-7230,41.80738,-87.703947,"Branch Hours: Mon: 09:00-17:00, Tue: 09:00-17:00, Wed: 09:00-17:00, Thur: 09:00-17:00, Fri: 09:00-18:00, Sat: 09:00-13:00, Sun: closed-closed",,,
,,5493 S. Cornell Street,,Chicago,IL,60615,US,773-241-5100,41.795387,-87.585411,"Branch Hours: Mon: 09:00-17:00, Tue: 09:00-17:00, Wed: 09:00-17:00, Thur: 09:00-17:00, Fri: 09:00-15:00, Sat: 09:00-13:00, Sun: closed-closed",,,
,,4531 N. Broadway St,,Chicago,IL,60640,US,773-561-0800,41.964632,-87.656629,"Branch Hours: Mon: 09:00-17:00, Tue: 09:00-17:00, Wed: 09:00-17:00, Thur: 09:00-17:00, Fri: 09:00-18:00, Sat: 09:00-13:00, Sun: closed-closed, Drive Up: Mon: 09:00-17:00, Tue: 09:00-17:00, Wed: 09:00-17:00, Thur: 09:00-17:00, Fri: 09:00-18:00, Sat: 09:00-13:00, Sun: closed-closed",,,
,,4959 W. North Ave,,Chicago,IL,60639,US,773-252-2440,41.909572,-87.750277,"Branch Hours: Mon: 09:00-17:00, Tue: 09:00-17:00, Wed: 09:00-17:00, Thur: 09:00-17:00, Fri: 09:00-18:00, Sat: 09:00-13:00, Sun: closed-closed, Drive Up: Mon: 09:00-17:00, Tue: 09:00-17:00, Wed: 09:00-17:00, Thur: 09:00-17:00, Fri: 09:00-18:00, Sat: 09:00-13:00, Sun: closed-closed",,,
,,4819 N. Central Ave.,,Phoenix,AZ,85012,US,602-279-3620,33.50762714,-112.0737682,"Branch Hours: Mon: 09:00-17:00, Tue: 09:00-17:00, Wed: 09:00-17:00, Thur: 09:00-17:00, Fri: 09:00-17:00, Sat: 09:00-12:00, Sun: closed-closed",,,
,,5711 N. Clark Street,,Chicago,IL,60660,US,773-293-3700,41.9858598,-87.6691692,"Branch Hours: Mon: 09:00-17:00, Tue: 09:00-17:00, Wed: 09:00-17:00, Thur: 09:00-17:00, Fri: 09:00-18:00, Sat: 09:00-13:00, Sun: closed-closed",,,
,,2903 S. Cicero Ave,,Cicero,IL,60804,US,708-780-3800,41.840255,-87.743879,"Branch Hours: Mon: 09:00-17:00, Tue: 09:00-17:00, Wed: 09:00-17:00, Thur: 09:00-17:00, Fri: 09:00-18:00, Sat: 09:00-13:00, Sun: closed-closed, Drive Up: Mon: 09:00-17:00, Tue: 09:00-17:00, Wed: 09:00-17:00, Thur: 09:00-17:00, Fri: 09:00-18:00, Sat: 09:00-13:00, Sun: closed-closed",,,
,,111 W. Monroe St,,Chicago,IL,60603,US,312-461-2323,41.880329,-87.631559,"Branch Hours: Mon: 08:00-17:00, Tue: 08:00-17:00, Wed: 08:00-17:00, Thur: 08:00-17:00, Fri: 08:00-17:00, Sat: closed-closed, Sun: closed-closed",,,
