store_name,store_number,address,address2,city,state,zip_code,country,phone_number,latitude,longitude,store_hours,store_type,other_fields,coming_soon
Calgary  16th Ave - Boyd Autobody & Glass,207,1808 - 16th Ave,,Calgary,Alberta,T2E 1L2,CAN,403-250-7777,51.06804,-114.017116,"Sun Closed, Mon 8:00 AM-5:00 PM, Tue 8:00 AM-5:00 PM, Wed 8:00 AM-5:00 PM, Thu 8:00 AM-5:00 PM, Fri 8:00 AM-5:00 PM, Sat Closed",,,
Calgary  1st St - Boyd Autobody & Glass,208,4303 - 1st St,,Calgary,Alberta,T2G 2L2,CAN,403-287-3576,51.015028,-114.062043,"Sun Closed, Mon 8:00 AM-5:00 PM, Tue 8:00 AM-5:00 PM, Wed 8:00 AM-5:00 PM, Thu 8:00 AM-5:00 PM, Fri 8:00 AM-5:00 PM, Sat Closed",,,
Calgary  29th St - Boyd Autobody & Glass,209,11450 - 29th St,,Calgary,Alberta,T2Z 3V5,CAN,403-723-0350,50.951945,-113.994247,"Sun Closed, Mon 8:00 AM-5:00 PM, Tue 8:00 AM-5:00 PM, Wed 8:00 AM-5:00 PM, Thu 8:00 AM-5:00 PM, Fri 8:00 AM-5:00 PM, Sat Closed",,,
Calgary  32nd St - Boyd Autobody & Glass,210,3520 - 32 St,,Calgary,Alberta,T1Y 6G7,CAN,403-291-4962,51.084327,-113.988151,"Sun Closed, Mon 8:00 AM-5:00 PM, Tue 8:00 AM-5:00 PM, Wed 8:00 AM-5:00 PM, Thu 8:00 AM-5:00 PM, Fri 8:00 AM-5:00 PM, Sat Closed",,,
Calgary  Edmonton Trail - Boyd Autobody & Glass,211,3807 Edmonton Trail,,Calgary,Alberta,T2E 3P5,CAN,403-276-9328,51.086268,-114.052144,"Sun Closed, Mon 8:00 AM-5:00 PM, Tue 8:00 AM-5:00 PM, Wed 8:00 AM-5:00 PM, Thu 8:00 AM-5:00 PM, Fri 8:00 AM-5:00 PM, Sat Closed",,,
Edmonton  103rd Ave - Boyd Autobody & Glass,212,17511 - 103rd Ave,,Edmonton,Alberta,T5S 1J4,CAN,780-489-2000,53.544913,-113.623155,"Sun Closed, Mon 8:00 AM-5:00 PM, Tue 8:00 AM-5:00 PM, Wed 8:00 AM-5:00 PM, Thu 8:00 AM-5:00 PM, Fri 8:00 AM-5:00 PM, Sat Closed",,,
Edmonton  76th Ave - Boyd Autobody & Glass,213,4903 - 76th Ave,,Edmonton,Alberta,T6B 2S7,CAN,780-468-4944,53.512011,-113.417346,"Sun Closed, Mon 8:00 AM-5:00 PM, Tue 8:00 AM-5:00 PM, Wed 8:00 AM-5:00 PM, Thu 8:00 AM-5:00 PM, Fri 8:00 AM-5:00 PM, Sat Closed",,,
Edmonton  Yellowhead Trail - Boyd Autobody & Glass,214,7940 Yellowhead Trail,,Edmonton,Alberta,T5B 1G3,CAN,780-454-6591,53.58302,-113.463428,"Sun Closed, Mon 8:00 AM-5:00 PM, Tue 8:00 AM-5:00 PM, Wed 8:00 AM-5:00 PM, Thu 8:00 AM-5:00 PM, Fri 8:00 AM-5:00 PM, Sat Closed",,,
Olds - Boyd Autobody & Glass,215,4609 - 49 Ave,,Olds,Alberta,T4H 1C9,CAN,403-556-2929,51.79454,-114.102036,"Sun Closed, Mon 8:00 AM-5:00 PM, Tue 8:00 AM-5:00 PM, Wed 8:00 AM-5:00 PM, Thu 8:00 AM-5:00 PM, Fri 8:00 AM-5:00 PM, Sat Closed",,,
Red Deer - Boyd Autobody & Glass,216,7668 - 49 Ave,,Red Deer,Alberta,T4P 1M4,CAN,403-346-4220,52.305644,-113.810613,"Sun Closed, Mon 8:00 AM-5:00 PM, Tue 8:00 AM-5:00 PM, Wed 8:00 AM-5:00 PM, Thu 8:00 AM-5:00 PM, Fri 8:00 AM-5:00 PM, Sat Closed",,,
Sherwood Park - Boyd Autobody & Glass,217,113 Cree Rd,,Sherwood Park,Alberta,T8A 3X9,CAN,780-467-8441,53.537968,-113.328071,"Sun Closed, Mon 8:00 AM-5:00 PM, Tue 8:00 AM-5:00 PM, Wed 8:00 AM-5:00 PM, Thu 8:00 AM-5:00 PM, Fri 8:00 AM-5:00 PM, Sat Closed",,,
St Albert - Boyd Autobody & Glass,218,35 Riel Dr,,St Albert,Alberta,T8N 3Z2,CAN,780-418-1414,53.624123,-113.643714,"Sun Closed, Mon 8:00 AM-5:00 PM, Tue 8:00 AM-5:00 PM, Wed 8:00 AM-5:00 PM, Thu 8:00 AM-5:00 PM, Fri 8:00 AM-5:00 PM, Sat Closed",,,
Anthem - Gerber Collision & Glass,2,41801 N 41st Dr,,Anthem,Arizona,85086,USA,623-551-2221,33.865578,-112.147031,"Sun Closed, Mon 7:30 AM-5:30 PM, Tue 7:30 AM-5:30 PM, Wed 7:30 AM-5:30 PM, Thu 7:30 AM-5:30 PM, Fri 7:30 AM-5:30 PM, Sat 8:00 AM-12:00 PM",,,
Avondale - Gerber Collision & Glass,3,775 N Dysart Rd,,Avondale,Arizona,85323,USA,623-935-6133,33.440193,-112.340556,"Sun Closed, Mon 7:30 AM-5:30 PM, Tue 7:30 AM-5:30 PM, Wed 7:30 AM-5:30 PM, Thu 7:30 AM-5:30 PM, Fri 7:30 AM-5:30 PM, Sat 8:00 AM-12:00 PM",,,
Casa Grande - Gerber Collision & Glass,697,3114 N Lear Ave,,Casa Grande,Arizona,85122,USA,520-836-6161,32.949272,-111.7598977,"Sun Closed, Mon 7:30 AM-5:30 PM, Tue 7:30 AM-5:30 PM, Wed 7:30 AM-5:30 PM, Thu 7:30 AM-5:30 PM, Fri 7:30 AM-5:30 PM, Sat 8:00 AM-12:00 PM",,,
Chandler - Gerber Collision & Glass,696,725 E Chandler Blvd,,Chandler,Arizona,85225,USA,480-917-8833,33.3057937,-111.8294432,"Sun Closed, Mon 7:30 AM-5:30 PM, Tue 7:30 AM-5:30 PM, Wed 7:30 AM-5:30 PM, Thu 7:30 AM-5:30 PM, Fri 7:30 AM-5:30 PM, Sat 8:00 AM-12:00 PM",,,
Gilbert  Cooper Rd - Gerber Collision & Glass,249,477 N Cooper Rd,,Gilbert,Arizona,85233,USA,(480) 632-4747,33.358491,-111.806671,"Sun Closed, Mon 7:30 AM-5:30 PM, Tue 7:30 AM-5:30 PM, Wed 7:30 AM-5:30 PM, Thu 7:30 AM-5:30 PM, Fri 7:30 AM-5:30 PM, Sat 8:00 AM-12:00 PM",,,
Mesa  Main St - Gerber Collision & Glass,542,3145 E Main St,,Mesa,Arizona,85213,USA,480-981-8500,33.414763,-111.763064,"Sun Closed, Mon 7:30 AM-5:30 PM, Tue 7:30 AM-5:30 PM, Wed 7:30 AM-5:30 PM, Thu 7:30 AM-5:30 PM, Fri 7:30 AM-5:30 PM, Sat 8:00 AM-12:00 PM",,,
Mesa  Hampton Ave - Gerber Collision & Glass,258,7530 E Hampton Ave,,Mesa,Arizona,85209,USA,(480) 981-8293,33.392059,-111.669689,"Sun Closed, Mon 7:00 AM-6:00 PM, Tue 7:00 AM-6:00 PM, Wed 7:00 AM-6:00 PM, Thu 7:00 AM-6:00 PM, Fri 7:00 AM-6:00 PM, Sat 8:00 AM-12:00 PM",,,
Mesa  Broadway Rd - Gerber Collision & Glass,4,1015 W Broadway Rd,,Mesa,Arizona,85210,USA,480-969-5485,33.40723,-111.852892,"Sun Closed, Mon 7:30 AM-5:30 PM, Tue 7:30 AM-5:30 PM, Wed 7:30 AM-5:30 PM, Thu 7:30 AM-5:30 PM, Fri 7:30 AM-5:30 PM, Sat 8:00 AM-12:00 PM",,,
Mesa  Omaha St - Gerber Collision & Glass,6,2934 N Omaha NE,,Mesa,Arizona,85215,USA,480-985-8255,33.469332,-111.739663,"Sun Closed, Mon 7:30 AM-5:30 PM, Tue 7:30 AM-5:30 PM, Wed 7:30 AM-5:30 PM, Thu 7:30 AM-5:30 PM, Fri 7:30 AM-5:30 PM, Sat 8:00 AM-12:00 PM",,,
Phoenix  Chandler Blvd (Intake Center only) - Gerber Collision & Glass,698,4206 E Chandler Blvd,,Phoenix,Arizona,85048,USA,480-704-2220,33.3059286,-111.9923001,"Sun Closed, Mon 7:30 AM-5:30 PM, Tue 7:30 AM-5:30 PM, Wed 7:30 AM-5:30 PM, Thu 7:30 AM-5:30 PM, Fri 7:30 AM-5:30 PM, Sat 8:00 AM-12:00 PM",,,
Phoenix  43rd Ave - Gerber Collision & Glass,699,7101 N 43rd Ave,,Phoenix,Arizona,85051,USA,602-559-9000,33.5392871,-112.1506207,"Sun Closed, Mon 7:30 AM-5:30 PM, Tue 7:30 AM-5:30 PM, Wed 7:30 AM-5:30 PM, Thu 7:30 AM-5:30 PM, Fri 7:30 AM-5:30 PM, Sat 8:00 AM-12:00 PM",,,
Scottsdale  Raintree Dr - Gerber Collision & Glass,7,8150 E Raintree Dr,,Scottsdale,Arizona,85260,USA,480-998-5030,33.619548,-111.905201,"Sun Closed, Mon 7:30 AM-5:30 PM, Tue 7:30 AM-5:30 PM, Wed 7:30 AM-5:30 PM, Thu 7:30 AM-5:30 PM, Fri 7:30 AM-5:30 PM, Sat 8:00 AM-12:00 PM",,,
Scottsdale  San Victor Dr - Gerber Collision & Glass,250,8910 E San Victor Dr,,Scottsdale,Arizona,85258,USA,(480) 391-7000,33.571689,-111.888815,"Sun Closed, Mon 7:30 AM-5:30 PM, Tue 7:30 AM-5:30 PM, Wed 7:30 AM-5:30 PM, Thu 7:30 AM-5:30 PM, Fri 7:30 AM-5:30 PM, Sat 8:00 AM-12:00 PM",,,
Tempe  University Dr - Gerber Collision & Glass,251,2100 W University Dr,,Tempe,Arizona,85281,USA,(480) 774-9999,33.422317,-111.971089,"Sun Closed, Mon 7:30 AM-5:30 PM, Tue 7:30 AM-5:30 PM, Wed 7:30 AM-5:30 PM, Thu 7:30 AM-5:30 PM, Fri 7:30 AM-5:30 PM, Sat 8:00 AM-12:00 PM",,,
Tempe  3rd St - Gerber Collision & Glass,259,1841 E 3rd St,,Tempe,Arizona,85281,USA,(480) 829-8048,33.427037,-111.907174,"Sun Closed, Mon 7:30 AM-5:30 PM, Tue 7:30 AM-5:30 PM, Wed 7:30 AM-5:30 PM, Thu 7:30 AM-5:30 PM, Fri 7:30 AM-5:30 PM, Sat 8:00 AM-12:00 PM",,,
Tempe  Priest Dr - Gerber Collision & Glass,9,8045 S Priest Dr,,Tempe,Arizona,85284,USA,480-422-3870,33.343205,-111.962442,"Sun Closed, Mon 7:00 AM-6:00 PM, Tue 7:00 AM-6:00 PM, Wed 7:00 AM-6:00 PM, Thu 7:00 AM-6:00 PM, Fri 7:00 AM-6:00 PM, Sat 8:00 AM-12:00 PM",,,
Tucson  Lakeside Pkwy - Gerber Collision & Glass,10,7940 E Lakeside Parkway,,Tucson,Arizona,85730,USA,520-298-5332,32.189819,-110.823059,"Sun Closed, Mon 7:30 AM-5:30 PM, Tue 7:30 AM-5:30 PM, Wed 7:30 AM-5:30 PM, Thu 7:30 AM-5:30 PM, Fri 7:30 AM-5:30 PM, Sat 8:00 AM-12:00 PM",,,
Tucson  Travel Center Dr - Gerber Collision & Glass,11,6108 N Travel Center Dr,,Tucson,Arizona,85741,USA,520-219-4388,32.317806,-111.045828,"Sun Closed, Mon 7:00 AM-6:00 PM, Tue 7:00 AM-6:00 PM, Wed 7:00 AM-6:00 PM, Thu 7:00 AM-6:00 PM, Fri 7:00 AM-6:00 PM, Sat 8:00 AM-12:00 PM",,,
Tucson  Palo Verde Rd - Gerber Collision & Glass,12,4670 S Palo Verde Rd,,Tucson,Arizona,85714,USA,520-514-0450,32.166353,-110.919237,"Sun Closed, Mon 7:30 AM-5:30 PM, Tue 7:30 AM-5:30 PM, Wed 7:30 AM-5:30 PM, Thu 7:30 AM-5:30 PM, Fri 7:30 AM-5:30 PM, Sat 8:00 AM-12:00 PM",,,
Yuma - Gerber Collision & Glass,13,3260 S Arizona Ave,,Yuma,Arizona,85365,USA,928-341-7184,32.668045,-114.616686,"Sun Closed, Mon 7:30 AM-5:30 PM, Tue 7:30 AM-5:30 PM, Wed 7:30 AM-5:30 PM, Thu 7:30 AM-5:30 PM, Fri 7:30 AM-5:30 PM, Sat 8:00 AM-12:00 PM",,,
Abbotsford - Boyd Autobody & Glass,190,30860 Peardonville Rd,,Abbotsford,British Columbia,V2T 6J9,CAN,604-855-7884,49.044899,-122.368493,"Sun Closed, Mon 8:00 AM-5:00 PM, Tue 8:00 AM-5:00 PM, Wed 8:00 AM-5:00 PM, Thu 8:00 AM-5:00 PM, Fri 8:00 AM-5:00 PM, Sat Closed",,,
Burnaby  Imperial St - Boyd Autobody & Glass,191,5608 Imperial St,,Burnaby,British Columbia,V5J 1E9,CAN,604-437-5420,49.221565,-122.982801,"Sun Closed, Mon 8:00 AM-5:00 PM, Tue 8:00 AM-5:00 PM, Wed 8:00 AM-5:00 PM, Thu 8:00 AM-5:00 PM, Fri 8:00 AM-5:00 PM, Sat Closed",,,
Burnaby  6th St - Boyd Autobody & Glass,678,7378 6th St,,Burnaby,British Columbia,V3N 3L4,CAN,604-527-0504,49.225517,-122.9355268,"Sun Closed, Mon 8:00 AM-5:00 PM, Tue 8:00 AM-5:00 PM, Wed 8:00 AM-5:00 PM, Thu 8:00 AM-5:00 PM, Fri 8:00 AM-5:00 PM, Sat Closed",,,
Coquitlam - Boyd Autobody & Glass,192,1099 Lansdowne Dr,,Coquitlam,British Columbia,V3B 4T7,CAN,604-464-8888,49.276752,-122.808091,"Sun Closed, Mon 8:00 AM-5:00 PM, Tue 8:00 AM-5:00 PM, Wed 8:00 AM-5:00 PM, Thu 8:00 AM-5:00 PM, Fri 8:00 AM-5:00 PM, Sat Closed",,,
Keating - Boyd Autobody & Glass,629,25 - 6809 Kirkpatrick Crescent,,Keating,British Columbia,V8M 1Z8,CAN,250-652-9833,48.567385,-123.41917,"Sun Closed, Mon 8:00 AM-5:00 PM, Tue 8:00 AM-5:00 PM, Wed 8:00 AM-5:00 PM, Thu 8:00 AM-5:00 PM, Fri 8:00 AM-5:00 PM, Sat Closed",,,
Kelowna  Byland Rd - Boyd Autobody & Glass,193,1838 Byland Rd,,Kelowna,British Columbia,V1Z 3E5,CAN,250-769-5550,49.858561,-119.593422,"Sun Closed, Mon 8:00 AM-5:00 PM, Tue 8:00 AM-5:00 PM, Wed 8:00 AM-5:00 PM, Thu 8:00 AM-5:00 PM, Fri 8:00 AM-5:00 PM, Sat Closed",,,
Kelowna  McCurdy Place - Boyd Autobody & Glass,194,100 - 880 McCurdy Place,,Kelowna,British Columbia,V1X 8C8,CAN,236-420-2693,49.899755,-119.412699,"Sun Closed, Mon 8:00 AM-5:00 PM, Tue 8:00 AM-5:00 PM, Wed 8:00 AM-5:00 PM, Thu 8:00 AM-5:00 PM, Fri 8:00 AM-5:00 PM, Sat Closed",,,
Kelowna  Dayton St - Boyd Autobody & Glass,195,1960 Dayton St,,Kelowna,British Columbia,V1Y 7W6,CAN,250-868-2693,49.878456,-119.461446,"Sun Closed, Mon 8:00 AM-5:00 PM, Tue 8:00 AM-5:00 PM, Wed 8:00 AM-5:00 PM, Thu 8:00 AM-5:00 PM, Fri 8:00 AM-5:00 PM, Sat Closed",,,
Langley - Boyd Autobody & Glass,196,5726 Landmark Way,,Langley,British Columbia,V3S 7H1,CAN,604-530-9818,49.106639,-122.683672,"Sun Closed, Mon 8:00 AM-5:00 PM, Tue 8:00 AM-5:00 PM, Wed 8:00 AM-5:00 PM, Thu 8:00 AM-5:00 PM, Fri 8:00 AM-5:00 PM, Sat Closed",,,
Maple Ridge - Boyd Autobody & Glass,197,22715 Dewdney Trunk Rd,,Maple Ridge,British Columbia,V2X 3K3,CAN,604-463-7002,49.220818,-122.59272,"Sun Closed, Mon 8:00 AM-5:00 PM, Tue 8:00 AM-5:00 PM, Wed 8:00 AM-5:00 PM, Thu 8:00 AM-5:00 PM, Fri 8:00 AM-5:00 PM, Sat Closed",,,
New Westminster - Boyd Autobody & Glass,198,1321 - 3rd Ave,,New Westminster,British Columbia,V3M 1R3,CAN,604-526-5444,49.20169,-122.927977,"Sun Closed, Mon 8:00 AM-5:00 PM, Tue 8:00 AM-5:00 PM, Wed 8:00 AM-5:00 PM, Thu 8:00 AM-5:00 PM, Fri 8:00 AM-5:00 PM, Sat Closed",,,
Penticton - Boyd Autobody & Glass,199,1120 Carmi Ave,,Penticton,British Columbia,V2A 3H2,CAN,250-492-2323,49.482831,-119.569401,"Sun Closed, Mon 8:00 AM-5:00 PM, Tue 8:00 AM-5:00 PM, Wed 8:00 AM-5:00 PM, Thu 8:00 AM-5:00 PM, Fri 8:00 AM-5:00 PM, Sat Closed",,,
Port Coquitlam - Boyd Autobody & Glass,200,2635 Kingsway Ave,,Port Coquitlam,British Columbia,V3C 1T5,CAN,604-464-3612,49.265665,-122.788483,"Sun Closed, Mon 8:00 AM-5:00 PM, Tue 8:00 AM-5:00 PM, Wed 8:00 AM-5:00 PM, Thu 8:00 AM-5:00 PM, Fri 8:00 AM-5:00 PM, Sat 9:00 AM-12:00 PM",,,
Richmond - Boyd Autobody & Glass,201,12211 Bridgeport Rd,,Richmond,British Columbia,V6V 1J4,CAN,604-273-7670,49.192139,-123.088624,"Sun Closed, Mon 8:00 AM-5:00 PM, Tue 8:00 AM-5:00 PM, Wed 8:00 AM-5:00 PM, Thu 8:00 AM-5:00 PM, Fri 8:00 AM-5:00 PM, Sat Closed",,,
Sidney - Boyd Autobody & Glass,630,103 - 2031 Malaview Ave,,Sidney,British Columbia,V8L 5X6,CAN,250-655-3230,48.656826,-123.415298,"Sun Closed, Mon 8:00 AM-5:00 PM, Tue 8:00 AM-5:00 PM, Wed 8:00 AM-5:00 PM, Thu 8:00 AM-5:00 PM, Fri 8:00 AM-5:00 PM, Sat Closed",,,
Surrey  Cloverdale - Boyd Autobody & Glass,202,17511 - 56A Ave,,Surrey,British Columbia,V3S 1G2,CAN,604-574-7322,49.105195,-122.737857,"Sun Closed, Mon 8:00 AM-5:00 PM, Tue 8:00 AM-5:00 PM, Wed 8:00 AM-5:00 PM, Thu 8:00 AM-5:00 PM, Fri 8:00 AM-5:00 PM, Sat Closed",,,
Surrey  King George Blvd - Boyd Autobody & Glass,203,9666 King George Blvd,,Surrey,British Columbia,V3T 2V4,CAN,604-588-2693,49.178454,-122.844509,"Sun Closed, Mon 8:00 AM-5:00 PM, Tue 8:00 AM-5:00 PM, Wed 8:00 AM-5:00 PM, Thu 8:00 AM-5:00 PM, Fri 8:00 AM-5:00 PM, Sat Closed",,,
Vancouver - Boyd Autobody & Glass,204,1111 - 73rd Ave,,Vancouver,British Columbia,V6P 3E6,CAN,604-263-0811,49.204388,-123.132339,"Sun Closed, Mon 8:00 AM-5:00 PM, Tue 8:00 AM-5:00 PM, Wed 8:00 AM-5:00 PM, Thu 8:00 AM-5:00 PM, Fri 8:00 AM-5:00 PM, Sat Closed",,,
Victoria  Sooke Rd - Boyd Autobody & Glass,205,2663 Sooke Rd,,Victoria,British Columbia,V9B 1Y3,CAN,250-478-0021,48.432472,-123.521742,"Sun Closed, Mon 8:00 AM-5:00 PM, Tue 8:00 AM-5:00 PM, Wed 8:00 AM-5:00 PM, Thu 8:00 AM-5:00 PM, Fri 8:00 AM-5:00 PM, Sat Closed",,,
Victoria  John St - Boyd Autobody & Glass,206,540 John St,,Victoria,British Columbia,V8T 1T6,CAN,250-384-0400,48.436569,-123.37167,"Sun Closed, Mon 8:00 AM-5:00 PM, Tue 8:00 AM-5:00 PM, Wed 8:00 AM-5:00 PM, Thu 8:00 AM-5:00 PM, Fri 8:00 AM-5:00 PM, Sat Closed",,,
Boulder - Gerber Collision & Glass,184,4700 Pearl St,,Boulder,Colorado,80301,USA,303-447-8633,40.024714,-105.243461,"Sun Closed, Mon 7:30 AM-5:30 PM, Tue 7:30 AM-5:30 PM, Wed 7:30 AM-5:30 PM, Thu 7:30 AM-5:30 PM, Fri 7:30 AM-5:30 PM, Sat 8:00 AM-12:00 PM",,,
Colorado Springs  Palmer Park - Gerber Collision & Glass,87,5900 Palmer Park Blvd,,Colorado Springs,Colorado,80915,USA,719-574-3000,38.856623,-104.716541,"Sun Closed, Mon 7:30 AM-5:30 PM, Tue 7:30 AM-5:30 PM, Wed 7:30 AM-5:30 PM, Thu 7:30 AM-5:30 PM, Fri 7:30 AM-5:30 PM, Sat 8:00 AM-12:00 PM",,,
Colorado Springs  Garden of Gods - Gerber Collision & Glass,88,4401 Mark Dabling Blvd,,Colorado Springs,Colorado,80907,USA,719-262-0900,38.89552,-104.825085,"Sun Closed, Mon 7:30 AM-5:30 PM, Tue 7:30 AM-5:30 PM, Wed 7:30 AM-5:30 PM, Thu 7:30 AM-5:30 PM, Fri 7:30 AM-5:30 PM, Sat 8:00 AM-12:00 PM",,,
Denver  Colorado Blvd - Gerber Collision & Glass,185,2228 S Colorado Blvd,,Denver,Colorado,80222,USA,303-691-2639,39.675979,-104.940399,"Sun Closed, Mon 7:30 AM-5:30 PM, Tue 7:30 AM-5:30 PM, Wed 7:30 AM-5:30 PM, Thu 7:30 AM-5:30 PM, Fri 7:30 AM-5:30 PM, Sat 8:00 AM-12:00 PM",,,
Denver  Santa Fe - Gerber Collision & Glass,91,2555 S Santa Fe Dr,,Denver,Colorado,80223,USA,303-282-0700,39.670336,-104.99647,"Sun Closed, Mon 7:30 AM-5:30 PM, Tue 7:30 AM-5:30 PM, Wed 7:30 AM-5:30 PM, Thu 7:30 AM-5:30 PM, Fri 7:30 AM-5:30 PM, Sat 8:00 AM-12:00 PM",,,
Englewood - Gerber Collision & Glass,86,6750 S Dawson Circle,,Englewood,Colorado,80112,USA,303-693-6500,39.594404,-104.818098,"Sun Closed, Mon 7:30 AM-5:30 PM, Tue 7:30 AM-5:30 PM, Wed 7:30 AM-5:30 PM, Thu 7:30 AM-5:30 PM, Fri 7:30 AM-5:30 PM, Sat 8:00 AM-12:00 PM",,,
Glenwood Springs - Gerber Collision & Glass,555,1210 Devereux Rd,,Glenwood Springs,Colorado,81601,USA,970-384-2299,39.557277,-107.339541,"Sun Closed, Mon 7:30 AM-5:30 PM, Tue 7:30 AM-5:30 PM, Wed 7:30 AM-5:30 PM, Thu 7:30 AM-5:30 PM, Fri 7:30 AM-5:30 PM, Sat 8:00 AM-12:00 PM",,,
Grand Junction  25 12 Rd - Gerber Collision & Glass,556,569 25 12 Rd,,Grand Junction,Colorado,81505,USA,970-243-2244,39.087662,-108.580889,"Sun Closed, Mon 7:30 AM-5:30 PM, Tue 7:30 AM-5:30 PM, Wed 7:30 AM-5:30 PM, Thu 7:30 AM-5:30 PM, Fri 7:30 AM-5:30 PM, Sat 8:00 AM-12:00 PM",,,
Grand Junction  South Ave - Gerber Collision & Glass,685,939 South Ave,,Grand Junction,Colorado,81501,USA,970-245-5779,39.0631809,-108.5566084,"Sun Closed, Mon 7:30 AM-5:30 PM, Tue 7:30 AM-5:30 PM, Wed 7:30 AM-5:30 PM, Thu 7:30 AM-5:30 PM, Fri 7:30 AM-5:30 PM, Sat 8:00 AM-12:00 PM",,,
Greeley - Gerber Collision & Glass,186,2820 S 31 Ave,,Greeley,Colorado,80631,USA,970-330-5893,40.391451,-104.727166,"Sun Closed, Mon 7:30 AM-5:30 PM, Tue 7:30 AM-5:30 PM, Wed 7:30 AM-5:30 PM, Thu 7:30 AM-5:30 PM, Fri 7:30 AM-5:30 PM, Sat 8:00 AM-12:00 PM",,,
Highlands Ranch - Gerber Collision & Glass,554,6208 E County Line Rd,,Highlands Ranch,Colorado,80126,USA,303-220-8630,39.565389,-104.916148,"Sun Closed, Mon 7:30 AM-5:30 PM, Tue 7:30 AM-5:30 PM, Wed 7:30 AM-5:30 PM, Thu 7:30 AM-5:30 PM, Fri 7:30 AM-5:30 PM, Sat 8:00 AM-12:00 PM",,,
Lakewood  Colfax Ave - Gerber Collision & Glass,187,6700 W Colfax Ave,,Lakewood,Colorado,80214,USA,303-238-0518,39.73991,-105.071058,"Sun Closed, Mon 7:30 AM-5:30 PM, Tue 7:30 AM-5:30 PM, Wed 7:30 AM-5:30 PM, Thu 7:30 AM-5:30 PM, Fri 7:30 AM-5:30 PM, Sat 8:00 AM-12:00 PM",,,
Lakewood  Cedar Dr - Gerber Collision & Glass,89,12520 W Cedar Dr,,Lakewood,Colorado,80228,USA,303-988-2679,39.711626,-105.13884,"Sun Closed, Mon 7:30 AM-5:30 PM, Tue 7:30 AM-5:30 PM, Wed 7:30 AM-5:30 PM, Thu 7:30 AM-5:30 PM, Fri 7:30 AM-5:30 PM, Sat 8:00 AM-12:00 PM",,,
Longmont - Gerber Collision & Glass,188,205 3rd Ave,,Longmont,Colorado,80501,USA,303-772-2701,40.163666,-105.09677,"Sun Closed, Mon 7:30 AM-5:30 PM, Tue 7:30 AM-5:30 PM, Wed 7:30 AM-5:30 PM, Thu 7:30 AM-5:30 PM, Fri 7:30 AM-5:30 PM, Sat 8:00 AM-12:00 PM",,,
Loveland - Gerber Collision & Glass,256,1425 S Lincoln Ave,,Loveland,Colorado,80537,USA,(970) 612-0370,40.377313,-105.073701,"Sun Closed, Mon 7:30 AM-5:30 PM, Tue 7:30 AM-5:30 PM, Wed 7:30 AM-5:30 PM, Thu 7:30 AM-5:30 PM, Fri 7:30 AM-5:30 PM, Sat 8:00 AM-12:00 PM",,,
Morrison - Gerber Collision & Glass,189,19396 Goddard Ranch Crt,,Morrison,Colorado,80465,USA,303-697-2500,39.58624,-105.221079,"Sun Closed, Mon 7:30 AM-5:30 PM, Tue 7:30 AM-5:30 PM, Wed 7:30 AM-5:30 PM, Thu 7:30 AM-5:30 PM, Fri 7:30 AM-5:30 PM, Sat 8:00 AM-12:00 PM",,,
Pueblo - Gerber Collision & Glass,90,275 Enterprise Dr,,Pueblo West,Colorado,81007,USA,719-547-0300,38.333465,-104.733234,"Sun Closed, Mon 7:30 AM-5:30 PM, Tue 7:30 AM-5:30 PM, Wed 7:30 AM-5:30 PM, Thu 7:30 AM-5:30 PM, Fri 7:30 AM-5:30 PM, Sat 8:00 AM-12:00 PM",,,
Altamonte Springs - Gerber Collision & Glass,146,1040 Sunshine Lane,,Altamonte Springs,Florida,32714,USA,407-682-1868,28.655258,-81.425052,"Sun Closed, Mon 7:30 AM-5:30 PM, Tue 7:30 AM-5:30 PM, Wed 7:30 AM-5:30 PM, Thu 7:30 AM-5:30 PM, Fri 7:30 AM-5:30 PM, Sat 8:00 AM-12:00 PM",,,
Apopka - Gerber Collision & Glass,147,1990 S Orange Blossom Trail,,Apopka,Florida,32703,USA,321-322-0020,28.646754,-81.463077,"Sun Closed, Mon 7:30 AM-5:30 PM, Tue 7:30 AM-5:30 PM, Wed 7:30 AM-5:30 PM, Thu 7:30 AM-5:30 PM, Fri 7:30 AM-5:30 PM, Sat 8:00 AM-12:00 PM",,,
Cape Coral - Gerber Collision & Glass,344,1403 SE 10th St,,Cape Coral,Florida,33990,USA,(239) 574-2324,26.634315,-81.944232,"Sun Closed, Mon 7:30 AM-5:30 PM, Tue 7:30 AM-5:30 PM, Wed 7:30 AM-5:30 PM, Thu 7:30 AM-5:30 PM, Fri 7:30 AM-5:30 PM, Sat 8:00 AM-12:00 PM",,,
Clermont - Gerber Collision & Glass,148,12635 Hwy 27,,Clermont,Florida,34711,USA,352-243-2022,28.531387,-81.735286,"Sun Closed, Mon 7:00 AM-6:00 PM, Tue 7:00 AM-6:00 PM, Wed 7:00 AM-6:00 PM, Thu 7:00 AM-6:00 PM, Fri 7:00 AM-6:00 PM, Sat 8:00 AM-12:00 PM",,,
Cocoa - Gerber Collision & Glass,456,802 S Cocoa Blvd,,Cocoa,Florida,32922,USA,321-639-3230,28.350639,-80.730139,"Sun Closed, Mon 8:00 AM-5:00 PM, Tue 8:00 AM-5:00 PM, Wed 8:00 AM-5:00 PM, Thu 8:00 AM-5:00 PM, Fri 8:00 AM-5:00 PM, Sat Closed",,,
Crestview - Gerber Collision & Glass,692,5165 S Ferdon Blvd,,Crestview,Florida,32539,USA,850-423-0691,30.7093219,-86.5698548,"Sun Closed, Mon 7:30 AM-5:30 PM, Tue 7:30 AM-5:30 PM, Wed 7:30 AM-5:30 PM, Thu 7:30 AM-5:30 PM, Fri 7:30 AM-5:30 PM, Sat 8:00 AM-12:00 PM",,,
Deland - Gerber Collision & Glass,149,1925 S Woodland Blvd,,Deland,Florida,32720,USA,386-738-0333,28.994562,-81.301587,"Sun Closed, Mon 7:30 AM-5:30 PM, Tue 7:30 AM-5:30 PM, Wed 7:30 AM-5:30 PM, Thu 7:30 AM-5:30 PM, Fri 7:30 AM-5:30 PM, Sat 8:00 AM-12:00 PM",,,
Estero - Gerber Collision & Glass,563,10491 Corkscrew Commons Dr,,Estero,Florida,33928,USA,239-949-6050,26.43532,-81.78024,"Sun Closed, Mon 7:00 AM-6:00 PM, Tue 7:00 AM-6:00 PM, Wed 7:00 AM-6:00 PM, Thu 7:00 AM-6:00 PM, Fri 7:00 AM-6:00 PM, Sat 8:00 AM-12:00 PM",,,
Fort Myers  12791 Metro Pkwy - Gerber Collision & Glass,345,12791 Metro Pkwy,,Fort Myers,Florida,33966,USA,(239) 225-0600,26.556726,-81.852196,"Sun Closed, Mon 7:30 AM-5:30 PM, Tue 7:30 AM-5:30 PM, Wed 7:30 AM-5:30 PM, Thu 7:30 AM-5:30 PM, Fri 7:30 AM-5:30 PM, Sat 8:00 AM-12:00 PM",,,
Fort Myers  13081 Metro Pkwy - Gerber Collision & Glass,325,13081 Metro Pkwy #1,,Fort Myers,Florida,33966,USA,(239) 768-3900,26.552355,-81.85224,"Sun Closed, Mon 7:30 AM-5:30 PM, Tue 7:30 AM-5:30 PM, Wed 7:30 AM-5:30 PM, Thu 7:30 AM-5:30 PM, Fri 7:30 AM-5:30 PM, Sat 8:00 AM-12:00 PM",,,
Ft Walton Beach - Gerber Collision & Glass,693,227 Green Acres Rd,,Ft Walton Beach,Florida,32547,USA,850-862-0750,30.455464,-86.641538,"Sun Closed, Mon 7:30 AM-5:30 PM, Tue 7:30 AM-5:30 PM, Wed 7:30 AM-5:30 PM, Thu 7:30 AM-5:30 PM, Fri 7:30 AM-5:30 PM, Sat 8:00 AM-12:00 PM",,,
Gainesville  33rd Ave - Gerber Collision & Glass,150,101 NE 33rd Ave,,Gainesville,Florida,32609,USA,352-372-2100,29.681849,-82.323626,"Sun Closed, Mon 7:30 AM-5:30 PM, Tue 7:30 AM-5:30 PM, Wed 7:30 AM-5:30 PM, Thu 7:30 AM-5:30 PM, Fri 7:30 AM-5:30 PM, Sat 8:00 AM-12:00 PM",,,
Gainesville  6th St - Gerber Collision & Glass,151,4319 NW 6th St,,Gainesville,Florida,32609,USA,352-372-6258,29.694351,-82.333672,"Sun Closed, Mon 7:30 AM-5:30 PM, Tue 7:30 AM-5:30 PM, Wed 7:30 AM-5:30 PM, Thu 7:30 AM-5:30 PM, Fri 7:30 AM-5:30 PM, Sat 8:00 AM-12:00 PM",,,
Jacksonville  Main St - Gerber Collision & Glass,152,13349 N Main St,,Jacksonville,Florida,32218,USA,904-757-6500,30.479302,-81.628022,"Sun Closed, Mon 7:30 AM-5:30 PM, Tue 7:30 AM-5:30 PM, Wed 7:30 AM-5:30 PM, Thu 7:30 AM-5:30 PM, Fri 7:30 AM-5:30 PM, Sat 8:00 AM-12:00 PM",,,
Jacksonville  Debutante Dr - Gerber Collision & Glass,153,1638 Debutante Dr,,Jacksonville,Florida,32246,USA,904-721-7781,30.321946,-81.536185,"Sun Closed, Mon 7:30 AM-5:30 PM, Tue 7:30 AM-5:30 PM, Wed 7:30 AM-5:30 PM, Thu 7:30 AM-5:30 PM, Fri 7:30 AM-5:30 PM, Sat 8:00 AM-12:00 PM",,,
Jacksonville  Cassat Ave - Gerber Collision & Glass,154,1340 Cassat Ave,,Jacksonville,Florida,32205,USA,904-381-6530,30.297589,-81.731022,"Sun Closed, Mon 7:00 AM-6:00 PM, Tue 7:00 AM-6:00 PM, Wed 7:00 AM-6:00 PM, Thu 7:00 AM-6:00 PM, Fri 7:00 AM-6:00 PM, Sat 8:00 AM-12:00 PM",,,
Jacksonville  Lee Rd - Gerber Collision & Glass,155,48 Lee Rd,,Jacksonville,Florida,32225,USA,904-722-1556,30.32434,-81.536448,"Sun Closed, Mon 7:30 AM-5:30 PM, Tue 7:30 AM-5:30 PM, Wed 7:30 AM-5:30 PM, Thu 7:30 AM-5:30 PM, Fri 7:30 AM-5:30 PM, Sat 8:00 AM-12:00 PM",,,
Jacksonville  Philips Hwy - Gerber Collision & Glass,156,9417 Philips Hwy,,Jacksonville,Florida,32256,USA,904-464-0044,30.196164,-81.568657,"Sun Closed, Mon 7:00 AM-6:00 PM, Tue 7:00 AM-6:00 PM, Wed 7:00 AM-6:00 PM, Thu 7:00 AM-6:00 PM, Fri 7:00 AM-6:00 PM, Sat 8:00 AM-12:00 PM",,,
Jacksonville  San Jose Blvd - Gerber Collision & Glass,480,12608 San Jose Blvd,,Jacksonville,Florida,32223,USA,904-470-3978,30.138629,-81.633324,"Sun Closed, Mon 7:30 AM-5:30 PM, Tue 7:30 AM-5:30 PM, Wed 7:30 AM-5:30 PM, Thu 7:30 AM-5:30 PM, Fri 7:30 AM-5:30 PM, Sat 8:00 AM-12:00 PM",,,
Lake City - Gerber Collision & Glass,543,673 E Duval St,,Lake City,Florida,32055,USA,386-755-0245,30.189507,-82.627532,"Sun Closed, Mon 7:30 AM-5:30 PM, Tue 7:30 AM-5:30 PM, Wed 7:30 AM-5:30 PM, Thu 7:30 AM-5:30 PM, Fri 7:30 AM-5:30 PM, Sat 8:00 AM-12:00 PM",,,
Lakeland - Gerber Collision & Glass,157,1233 W Memorial Blvd,,Lakeland,Florida,33815,USA,863-274-7225,28.055139,-81.974919,"Sun Closed, Mon 7:30 AM-5:30 PM, Tue 7:30 AM-5:30 PM, Wed 7:30 AM-5:30 PM, Thu 7:30 AM-5:30 PM, Fri 7:30 AM-5:30 PM, Sat 8:00 AM-12:00 PM",,,
Leesburg - Gerber Collision & Glass,158,2325 US Hwy 441,,Leesburg,Florida,34748,USA,352-459-0333,28.822791,-81.833602,"Sun Closed, Mon 7:30 AM-5:30 PM, Tue 7:30 AM-5:30 PM, Wed 7:30 AM-5:30 PM, Thu 7:30 AM-5:30 PM, Fri 7:30 AM-5:30 PM, Sat 8:00 AM-12:00 PM",,,
Lutz - Gerber Collision & Glass,159,26615 Wesley Chapel Blvd,,Lutz,Florida,33559,USA,813-762-0011,28.229,-82.376401,"Sun Closed, Mon 7:30 AM-5:30 PM, Tue 7:30 AM-5:30 PM, Wed 7:30 AM-5:30 PM, Thu 7:30 AM-5:30 PM, Fri 7:30 AM-5:30 PM, Sat 8:00 AM-12:00 PM",,,
Macclenny - Gerber Collision & Glass,160,180 S Lowder St,,Macclenny,Florida,32063,USA,904-259-3001,30.277528,-82.134763,"Sun Closed, Mon 7:30 AM-5:30 PM, Tue 7:30 AM-5:30 PM, Wed 7:30 AM-5:30 PM, Thu 7:30 AM-5:30 PM, Fri 7:30 AM-5:30 PM, Sat 8:00 AM-12:00 PM",,,
Melbourne  Hibiscus - Gerber Collision & Glass,458,805 E Hibiscus Blvd,,Melbourne,Florida,32901,USA,321-723-5259,28.084774,-80.607379,"Sun Closed, Mon 8:00 AM-5:00 PM, Tue 8:00 AM-5:00 PM, Wed 8:00 AM-5:00 PM, Thu 8:00 AM-5:00 PM, Fri 8:00 AM-5:00 PM, Sat Closed",,,
Melbourne  Harbor City - Gerber Collision & Glass,461,800 S Harbor City Blvd,,Melbourne,Florida,32901,USA,321-952-0256,28.097661,-80.612941,"Sun Closed, Mon 8:00 AM-5:00 PM, Tue 8:00 AM-5:00 PM, Wed 8:00 AM-5:00 PM, Thu 8:00 AM-5:00 PM, Fri 8:00 AM-5:00 PM, Sat Closed",,,
Merritt Island - Gerber Collision & Glass,459,135 Palmetto Ave,,Merritt Island,Florida,32953,USA,321-453-2181,28.358471,-80.697523,"Sun Closed, Mon 8:00 AM-5:00 PM, Tue 8:00 AM-5:00 PM, Wed 8:00 AM-5:00 PM, Thu 8:00 AM-5:00 PM, Fri 8:00 AM-5:00 PM, Sat Closed",,,
Naples  Pine Ridge Rd - Gerber Collision & Glass,346,1851 Pine Ridge Rd,,Naples,Florida,34109,USA,(239) 566-2101,26.211745,-81.781767,"Sun Closed, Mon 7:30 AM-5:30 PM, Tue 7:30 AM-5:30 PM, Wed 7:30 AM-5:30 PM, Thu 7:30 AM-5:30 PM, Fri 7:30 AM-5:30 PM, Sat 8:00 AM-12:00 PM",,,
Naples  Market Ave - Gerber Collision & Glass,442,4824 Market Ave,,Naples,Florida,34104,USA,(239) 529-6988,26.155643,-81.75149,"Sun Closed, Mon 7:30 AM-5:30 PM, Tue 7:30 AM-5:30 PM, Wed 7:30 AM-5:30 PM, Thu 7:30 AM-5:30 PM, Fri 7:30 AM-5:30 PM, Sat 8:00 AM-12:00 PM",,,
Orange Park  Blanding Blvd - Gerber Collision & Glass,161,1011 Blanding Blvd,,Orange Park,Florida,32065,USA,904-298-2982,30.135123,-81.777566,"Sun Closed, Mon 7:00 AM-6:00 PM, Tue 7:00 AM-6:00 PM, Wed 7:00 AM-6:00 PM, Thu 7:00 AM-6:00 PM, Fri 7:00 AM-6:00 PM, Sat 8:00 AM-12:00 PM",,,
Orange Park  Park Ave - Gerber Collision & Glass,162,629 Park Ave,,Orange Park,Florida,32073,USA,904-269-8101,30.182531,-81.70096,"Sun Closed, Mon 7:30 AM-5:30 PM, Tue 7:30 AM-5:30 PM, Wed 7:30 AM-5:30 PM, Thu 7:30 AM-5:30 PM, Fri 7:30 AM-5:30 PM, Sat 8:00 AM-12:00 PM",,,
Orlando  Orange Blossom Trail - Gerber Collision & Glass,163,11725 S Orange Blossom Trail,,Orlando,Florida,32837,USA,407-857-8089,28.396089,-81.404016,"Sun Closed, Mon 7:30 AM-5:30 PM, Tue 7:30 AM-5:30 PM, Wed 7:30 AM-5:30 PM, Thu 7:30 AM-5:30 PM, Fri 7:30 AM-5:30 PM, Sat 8:00 AM-12:00 PM",,,
Orlando  Semoran Blvd - Gerber Collision & Glass,164,4765 S Semoran Blvd,,Orlando,Florida,32822,USA,407-277-8778,28.494371,-81.309352,"Sun Closed, Mon 7:00 AM-6:00 PM, Tue 7:00 AM-6:00 PM, Wed 7:00 AM-6:00 PM, Thu 7:00 AM-6:00 PM, Fri 7:00 AM-6:00 PM, Sat 8:00 AM-12:00 PM",,,
Orlando  McLeod Rd - Gerber Collision & Glass,165,5520 LB McLeod Rd,,Orlando,Florida,32811,USA,407-447-9538,28.504167,-81.455211,"Sun Closed, Mon 7:30 AM-5:30 PM, Tue 7:30 AM-5:30 PM, Wed 7:30 AM-5:30 PM, Thu 7:30 AM-5:30 PM, Fri 7:30 AM-5:30 PM, Sat 8:00 AM-12:00 PM",,,
Orlando  Amelia St - Gerber Collision & Glass,166,909 W Amelia St,,Orlando,Florida,32805,USA,407-581-9079,28.549914,-81.392774,"Sun Closed, Mon 7:30 AM-5:30 PM, Tue 7:30 AM-5:30 PM, Wed 7:30 AM-5:30 PM, Thu 7:30 AM-5:30 PM, Fri 7:30 AM-5:30 PM, Sat 8:00 AM-12:00 PM",,,
Orlando  Kirkman Rd - Gerber Collision & Glass,167,420 N Kirkman Rd,,Orlando,Florida,32811,USA,407-581-0520,28.547232,-81.458575,"Sun Closed, Mon 7:30 AM-5:30 PM, Tue 7:30 AM-5:30 PM, Wed 7:30 AM-5:30 PM, Thu 7:30 AM-5:30 PM, Fri 7:30 AM-5:30 PM, Sat 8:00 AM-12:00 PM",,,
Orlando  Forsyth Rd - Gerber Collision & Glass,168,2435 Forsyth Rd,,Orlando,Florida,32808,USA,407-581-0530,28.580323,-81.293913,"Sun Closed, Mon 7:30 AM-5:30 PM, Tue 7:30 AM-5:30 PM, Wed 7:30 AM-5:30 PM, Thu 7:30 AM-5:30 PM, Fri 7:30 AM-5:30 PM, Sat 8:00 AM-12:00 PM",,,
Palatka - Gerber Collision & Glass,169,3517 Reid St,,Palatka,Florida,32177,USA,386-328-2671,29.656017,-81.6654,"Sun Closed, Mon 7:30 AM-5:30 PM, Tue 7:30 AM-5:30 PM, Wed 7:30 AM-5:30 PM, Thu 7:30 AM-5:30 PM, Fri 7:30 AM-5:30 PM, Sat 8:00 AM-12:00 PM",,,
Palm Bay - Gerber Collision & Glass,462,2730 Palm Bay Rd NE,,Palm Bay,Florida,32905,USA,321-727-2050,28.034074,-80.590277,"Sun Closed, Mon 8:00 AM-5:00 PM, Tue 8:00 AM-5:00 PM, Wed 8:00 AM-5:00 PM, Thu 8:00 AM-5:00 PM, Fri 8:00 AM-5:00 PM, Sat Closed",,,
Panama City Beach - Gerber Collision & Glass,694,8105 Front Beach Rd,,Panama City Beach,Florida,32407,USA,850-233-2888,30.1845166,-85.7755149,"Sun Closed, Mon 7:30 AM-5:30 PM, Tue 7:30 AM-5:30 PM, Wed 7:30 AM-5:30 PM, Thu 7:30 AM-5:30 PM, Fri 7:30 AM-5:30 PM, Sat 8:00 AM-12:00 PM",,,
Pompano Beach - Gerber Glass,290,1909 W Copans Rd,,Pompano Beach,Florida,33064,USA,(877) 743-7237,26.260742,-80.149506,"Sun Closed, Mon 7:30 AM-5:30 PM, Tue 7:30 AM-5:30 PM, Wed 7:30 AM-5:30 PM, Thu 7:30 AM-5:30 PM, Fri 7:30 AM-5:30 PM, Sat 8:00 AM-12:00 PM",,,
Punta Gorda - Gerber Collision & Glass,632,23119 Foster Ave,,Punta Gorda,Florida,33980,USA,941-613-2102,26.960118,-82.070171,"Sun Closed, Mon 7:30 AM-5:30 PM, Tue 7:30 AM-5:30 PM, Wed 7:30 AM-5:30 PM, Thu 7:30 AM-5:30 PM, Fri 7:30 AM-5:30 PM, Sat 8:00 AM-12:00 PM",,,
Ruskin - Gerber Collision & Glass,171,2020 College Ave E,,Ruskin,Florida,33570,USA,813-645-3730,27.713586,-82.406796,"Sun Closed, Mon 7:30 AM-5:30 PM, Tue 7:30 AM-5:30 PM, Wed 7:30 AM-5:30 PM, Thu 7:30 AM-5:30 PM, Fri 7:30 AM-5:30 PM, Sat 8:00 AM-12:00 PM",,,
Sanford - Gerber Collision & Glass,172,3941 W State Rd 46,,Sanford,Florida,32771,USA,407-936-0051,28.810804,-81.319356,"Sun Closed, Mon 7:30 AM-5:30 PM, Tue 7:30 AM-5:30 PM, Wed 7:30 AM-5:30 PM, Thu 7:30 AM-5:30 PM, Fri 7:30 AM-5:30 PM, Sat 8:00 AM-12:00 PM",,,
Sebastian - Gerber Collision & Glass,677,5700 Micco Rd,,Sebastian,Florida,32976,USA,772-664-5000,27.880689,-80.502811,"Sun Closed, Mon 7:30 AM-5:30 PM, Tue 7:30 AM-5:30 PM, Wed 7:30 AM-5:30 PM, Thu 7:30 AM-5:30 PM, Fri 7:30 AM-5:30 PM, Sat 8:00 AM-12:00 PM",,,
St Augustine  Dobbs Rd - Gerber Collision & Glass,712,1700 Dobbs Rd,,St Augustine,Florida,32804,USA,904-615-8170,29.8703736,-81.3342854,"Sun Closed, Mon 7:30 AM-5:30 PM, Tue 7:30 AM-5:30 PM, Wed 7:30 AM-5:30 PM, Thu 7:30 AM-5:30 PM, Fri 7:30 AM-5:30 PM, Sat 8:00 AM-12:00 PM",,,
St Augustine - Gerber Collision & Glass,173,2120 State Rd 16,,St Augustine,Florida,32084,USA,904-829-3769,29.915609,-81.400013,"Sun Closed, Mon 7:30 AM-5:30 PM, Tue 7:30 AM-5:30 PM, Wed 7:30 AM-5:30 PM, Thu 7:30 AM-5:30 PM, Fri 7:30 AM-5:30 PM, Sat 8:00 AM-12:00 PM",,,
St Cloud - Gerber Collision & Glass,174,3550 13th St,,St Cloud,Florida,34769,USA,321-805-5000,28.249626,-81.30814,"Sun Closed, Mon 7:30 AM-5:30 PM, Tue 7:30 AM-5:30 PM, Wed 7:30 AM-5:30 PM, Thu 7:30 AM-5:30 PM, Fri 7:30 AM-5:30 PM, Sat 8:00 AM-12:00 PM",,,
Tallahassee  Gilliam Lane - Gerber Collision & Glass,175,2111 Gilliam Lane,,Tallahassee,Florida,32308,USA,850-422-3699,30.492027,-84.240457,"Sun Closed, Mon 7:30 AM-5:30 PM, Tue 7:30 AM-5:30 PM, Wed 7:30 AM-5:30 PM, Thu 7:30 AM-5:30 PM, Fri 7:30 AM-5:30 PM, Sat 8:00 AM-12:00 PM",,,
Tallahassee  Tennessee St - Gerber Collision & Glass,176,5845 W Tennessee St,,Tallahassee,Florida,32304,USA,850-576-7159,30.454952,-84.37208,"Sun Closed, Mon 7:30 AM-5:30 PM, Tue 7:30 AM-5:30 PM, Wed 7:30 AM-5:30 PM, Thu 7:30 AM-5:30 PM, Fri 7:30 AM-5:30 PM, Sat 8:00 AM-12:00 PM",,,
Tampa  Hwy 301 - Gerber Collision & Glass,177,9816 US Hwy 301 N,,Tampa,Florida,33637,USA,813-988-4332,28.036645,-82.349839,"Sun Closed, Mon 7:30 AM-5:30 PM, Tue 7:30 AM-5:30 PM, Wed 7:30 AM-5:30 PM, Thu 7:30 AM-5:30 PM, Fri 7:30 AM-5:30 PM, Sat 8:00 AM-12:00 PM",,,
Tampa  Adamo Dr - Gerber Collision & Glass,178,9002 Adamo Dr,,Tampa,Florida,33619,USA,813-740-2998,27.949993,-82.356377,"Sun Closed, Mon 7:00 AM-6:00 PM, Tue 7:00 AM-6:00 PM, Wed 7:00 AM-6:00 PM, Thu 7:00 AM-6:00 PM, Fri 7:00 AM-6:00 PM, Sat 8:00 AM-12:00 PM",,,
Tampa  Busch Blvd - Gerber Collision & Glass,179,1812 E Busch Blvd,,Tampa,Florida,33612,USA,813-933-7641,28.032926,-82.438014,"Sun Closed, Mon 7:30 AM-5:30 PM, Tue 7:30 AM-5:30 PM, Wed 7:30 AM-5:30 PM, Thu 7:30 AM-5:30 PM, Fri 7:30 AM-5:30 PM, Sat 8:00 AM-12:00 PM",,,
Tampa  Westshore Blvd - Gerber Collision & Glass,180,5002 S Westshore Blvd,,Tampa,Florida,33611,USA,813-839-2830,27.891977,-82.526421,"Sun Closed, Mon 7:30 AM-5:30 PM, Tue 7:30 AM-5:30 PM, Wed 7:30 AM-5:30 PM, Thu 7:30 AM-5:30 PM, Fri 7:30 AM-5:30 PM, Sat 8:00 AM-12:00 PM",,,
Titusville - Gerber Collision & Glass,663,808 S Hopkins Ave,,Titusville,Florida,32780,USA,321-268-0531,28.606389,-80.808794,"Sun Closed, Mon 7:30 AM-5:30 PM, Tue 7:30 AM-5:30 PM, Wed 7:30 AM-5:30 PM, Thu 7:30 AM-5:30 PM, Fri 7:30 AM-5:30 PM, Sat 8:00 AM-12:00 PM",,,
Valrico - Gerber Collision & Glass,181,2566 E State Rd 60,,Valrico,Florida,33594,USA,813-685-5585,27.938779,-82.242843,"Sun Closed, Mon 7:30 AM-5:30 PM, Tue 7:30 AM-5:30 PM, Wed 7:30 AM-5:30 PM, Thu 7:30 AM-5:30 PM, Fri 7:30 AM-5:30 PM, Sat 8:00 AM-12:00 PM",,,
West Melbourne - Gerber Collision & Glass,460,6933 Vickie Cir,,West Melbourne,Florida,32904,USA,321-725-7450,28.094083,-80.669001,"Sun Closed, Mon 8:00 AM-5:00 PM, Tue 8:00 AM-5:00 PM, Wed 8:00 AM-5:00 PM, Thu 8:00 AM-5:00 PM, Fri 8:00 AM-5:00 PM, Sat Closed",,,
Winter Park - Gerber Collision & Glass,182,7603 Citrus Ave,,Winter Park,Florida,32792,USA,407-671-4839,28.61131,-81.284658,"Sun Closed, Mon 7:30 AM-5:30 PM, Tue 7:30 AM-5:30 PM, Wed 7:30 AM-5:30 PM, Thu 7:30 AM-5:30 PM, Fri 7:30 AM-5:30 PM, Sat 8:00 AM-12:00 PM",,,
Zephyrhills - Gerber Collision & Glass,183,35534 State Rd 54,,Zephyrhills,Florida,33541,USA,813-627-8687,28.227014,-82.228363,"Sun Closed, Mon 7:30 AM-5:30 PM, Tue 7:30 AM-5:30 PM, Wed 7:30 AM-5:30 PM, Thu 7:30 AM-5:30 PM, Fri 7:30 AM-5:30 PM, Sat 8:00 AM-12:00 PM",,,
Alpharetta - Gerber Collision & Glass,14,6060 Atlanta Hwy N,,Alpharetta,Georgia,30004,USA,770-751-6699,34.135083,-84.25012,"Sun Closed, Mon 7:30 AM-5:30 PM, Tue 7:30 AM-5:30 PM, Wed 7:30 AM-5:30 PM, Thu 7:30 AM-5:30 PM, Fri 7:30 AM-5:30 PM, Sat 8:00 AM-12:00 PM",,,
Atlanta  Buckhead - Gerber Collision & Glass,15,2441 Cheshire Bridge Rd,,Atlanta,Georgia,30324,USA,404-320-7077,33.821344,-84.350587,"Sun Closed, Mon 7:30 AM-5:30 PM, Tue 7:30 AM-5:30 PM, Wed 7:30 AM-5:30 PM, Thu 7:30 AM-5:30 PM, Fri 7:30 AM-5:30 PM, Sat 8:00 AM-12:00 PM",,,
Atlanta  Midtown - Gerber Collision & Glass,441,589 Willow St,,Atlanta,Georgia,30308,USA,(404) 892-6919,33.770567,-84.382719,"Sun Closed, Mon 7:30 AM-5:30 PM, Tue 7:30 AM-5:30 PM, Wed 7:30 AM-5:30 PM, Thu 7:30 AM-5:30 PM, Fri 7:30 AM-5:30 PM, Sat Closed",,,
Austell - Gerber Collision & Glass,700,7115 Oak Ridge Pkwy,,Austell,Georgia,30168,USA,770-745-8880,33.784198,-84.607107,"Sun Closed, Mon 7:30 AM-5:30 PM, Tue 7:30 AM-5:30 PM, Wed 7:30 AM-5:30 PM, Thu 7:30 AM-5:30 PM, Fri 7:30 AM-5:30 PM, Sat 8:00 AM-12:00 PM",,,
Brunswick - Gerber Collision & Glass,452,3620 Community Rd,,Brunswick,Georgia,31520,USA,(912) 261-0111,31.196331,-81.489588,"Sun Closed, Mon 7:30 AM-5:30 PM, Tue 7:30 AM-5:30 PM, Wed 7:30 AM-5:30 PM, Thu 7:30 AM-5:30 PM, Fri 7:30 AM-5:30 PM, Sat 8:00 AM-12:00 PM",,,
Cartersville - Gerber Collision & Glass,16,850 Joe Frank Harris Parkway SE,,Cartersville,Georgia,30120,USA,678-792-5600,34.194699,-84.788703,"Sun Closed, Mon 7:30 AM-5:30 PM, Tue 7:30 AM-5:30 PM, Wed 7:30 AM-5:30 PM, Thu 7:30 AM-5:30 PM, Fri 7:30 AM-5:30 PM, Sat 8:00 AM-12:00 PM",,,
Conyers - Gerber Collision & Glass,631,1290 Portman Dr,,Conyers,Georgia,30094,USA,770-929-5606,33.653728,-84.015556,"Sun Closed, Mon 7:30 AM-5:30 PM, Tue 7:30 AM-5:30 PM, Wed 7:30 AM-5:30 PM, Thu 7:30 AM-5:30 PM, Fri 7:30 AM-5:30 PM, Sat 8:00 AM-12:00 PM",,,
Dallas - Gerber Collision & Glass,659,1577 Charles Hardy Pkwy,,Dallas,Georgia,30157,USA,678-363-0305,33.921379,-84.761791,"Sun Closed, Mon 7:30 AM-5:30 PM, Tue 7:30 AM-5:30 PM, Wed 7:30 AM-5:30 PM, Thu 7:30 AM-5:30 PM, Fri 7:30 AM-5:30 PM, Sat 8:00 AM-12:00 PM",,,
Decatur - Gerber Collision & Glass,17,725 Dekalb Industrial Way,,Decatur,Georgia,30033,USA,404-214-1775,33.797947,-84.278893,"Sun Closed, Mon 7:30 AM-5:30 PM, Tue 7:30 AM-5:30 PM, Wed 7:30 AM-5:30 PM, Thu 7:30 AM-5:30 PM, Fri 7:30 AM-5:30 PM, Sat 8:00 AM-12:00 PM",,,
Douglasville - Gerber Collision & Glass,255,6436 E Broad St,,Douglasville,Georgia,30134,USA,(770) 852-6500,33.753896,-84.741149,"Sun Closed, Mon 7:30 AM-5:30 PM, Tue 7:30 AM-5:30 PM, Wed 7:30 AM-5:30 PM, Thu 7:30 AM-5:30 PM, Fri 7:30 AM-5:30 PM, Sat 8:00 AM-12:00 PM",,,
Duluth - Gerber Collision & Glass,18,3030 Satellite Blvd,,Duluth,Georgia,30096,USA,770-232-1200,33.962272,-84.112893,"Sun Closed, Mon 7:30 AM-5:30 PM, Tue 7:30 AM-5:30 PM, Wed 7:30 AM-5:30 PM, Thu 7:30 AM-5:30 PM, Fri 7:30 AM-5:30 PM, Sat 8:00 AM-12:00 PM",,,
Hinesville - Gerber Collision & Glass,703,992 E Oglethorpe Hwy,,Hinesville,Georgia,31313,USA,912-415-9010,31.8534862,-81.5782291,"Sun Closed, Mon 7:30 AM-5:30 PM, Tue 7:30 AM-5:30 PM, Wed 7:30 AM-5:30 PM, Thu 7:30 AM-5:30 PM, Fri 7:30 AM-5:30 PM, Sat 8:00 AM-12:00 PM",,,
Kennesaw - Gerber Collision & Glass,19,2395 Cobb Parkway,,Kennesaw,Georgia,30152,USA,770-544-0100,34.011027,-84.611408,"Sun Closed, Mon 7:30 AM-5:30 PM, Tue 7:30 AM-5:30 PM, Wed 7:30 AM-5:30 PM, Thu 7:30 AM-5:30 PM, Fri 7:30 AM-5:30 PM, Sat 8:00 AM-12:00 PM",,,
McDonough - Gerber Collision & Glass,21,553 Industrial Blvd,,McDonough,Georgia,30253,USA,770-954-0450,33.421488,-84.172357,"Sun Closed, Mon 7:30 AM-5:30 PM, Tue 7:30 AM-5:30 PM, Wed 7:30 AM-5:30 PM, Thu 7:30 AM-5:30 PM, Fri 7:30 AM-5:30 PM, Sat 8:00 AM-12:00 PM",,,
Morrow - Gerber Collision & Glass,22,1053 Mount Zion Rd,,Morrow,Georgia,30260,USA,770-968-0057,33.570986,-84.356649,"Sun Closed, Mon 7:30 AM-5:30 PM, Tue 7:30 AM-5:30 PM, Wed 7:30 AM-5:30 PM, Thu 7:30 AM-5:30 PM, Fri 7:30 AM-5:30 PM, Sat 8:00 AM-12:00 PM",,,
Newnan - Gerber Collision & Glass,23,24 Amlajack Blvd,,Newnan,Georgia,30265,USA,(770) 251-1418,33.402637,-84.751811,"Sun Closed, Mon 7:30 AM-5:30 PM, Tue 7:30 AM-5:30 PM, Wed 7:30 AM-5:30 PM, Thu 7:30 AM-5:30 PM, Fri 7:30 AM-5:30 PM, Sat 8:00 AM-12:00 PM",,,
Rome - Gerber Collision & Glass,24,2230 Redmond Circle NW,,Rome,Georgia,30165,USA,706-622-3344,34.281437,-85.226674,"Sun Closed, Mon 7:30 AM-5:30 PM, Tue 7:30 AM-5:30 PM, Wed 7:30 AM-5:30 PM, Thu 7:30 AM-5:30 PM, Fri 7:30 AM-5:30 PM, Sat 8:00 AM-12:00 PM",,,
Roswell  Historic District - Gerber Collision & Glass,25,55 Oak St,,Roswell,Georgia,30075,USA,770-992-1408,34.019546,-84.359519,"Sun Closed, Mon 7:30 AM-5:30 PM, Tue 7:30 AM-5:30 PM, Wed 7:30 AM-5:30 PM, Thu 7:30 AM-5:30 PM, Fri 7:30 AM-5:30 PM, Sat 8:00 AM-12:00 PM",,,
Roswell  Alpharetta Hwy - Gerber Collision & Glass,26,11200 Alpharetta Hwy,,Roswell,Georgia,30076,USA,770-475-4600,34.053266,-84.33304,"Sun Closed, Mon 7:30 AM-5:30 PM, Tue 7:30 AM-5:30 PM, Wed 7:30 AM-5:30 PM, Thu 7:30 AM-5:30 PM, Fri 7:30 AM-5:30 PM, Sat 8:00 AM-12:00 PM",,,
Savannah - Gerber Collision & Glass,27,12056 Abercorn St,,Savannah,Georgia,31419,USA,912-925-5150,31.982496,-81.156182,"Sun Closed, Mon 7:30 AM-5:30 PM, Tue 7:30 AM-5:30 PM, Wed 7:30 AM-5:30 PM, Thu 7:30 AM-5:30 PM, Fri 7:30 AM-5:30 PM, Sat 8:00 AM-12:00 PM",,,
Woodstock - Gerber Collision & Glass,455,803 Bascomb Commercial Pkwy,,Woodstock,Georgia,30189,USA,(678) 445-4848,34.103403,-84.580029,"Sun Closed, Mon 7:30 AM-5:30 PM, Tue 7:30 AM-5:30 PM, Wed 7:30 AM-5:30 PM, Thu 7:30 AM-5:30 PM, Fri 7:30 AM-5:30 PM, Sat 8:00 AM-12:00 PM",,,
Coeur d'Alene - Gerber Collision & Glass,453,2414 N 4th St,,Coeur d'Alene,Idaho,83814,USA,(208) 765-6742,47.699434,-116.780131,"Sun Closed, Mon 7:30 AM-5:30 PM, Tue 7:30 AM-5:30 PM, Wed 7:30 AM-5:30 PM, Thu 7:30 AM-5:30 PM, Fri 7:30 AM-5:30 PM, Sat 8:00 AM-12:00 PM",,,
Addison - Gerber Collision & Glass,301,401 Grace St,,Addison,Illinois,60101,USA,(630) 628-5848,41.919209,-88.007291,"Sun Closed, Mon 7:30 AM-5:30 PM, Tue 7:30 AM-5:30 PM, Wed 7:30 AM-5:30 PM, Thu 7:30 AM-5:30 PM, Fri 7:30 AM-5:30 PM, Sat 8:00 AM-12:00 PM",,,
Arlington Heights - Gerber Collision & Glass,302,1430 W Northwest Hwy,,Arlington Heights,Illinois,60004,USA,(847) 255-6485,42.092431,-88.000822,"Sun Closed, Mon 7:30 AM-5:30 PM, Tue 7:30 AM-5:30 PM, Wed 7:30 AM-5:30 PM, Thu 7:30 AM-5:30 PM, Fri 7:30 AM-5:30 PM, Sat 8:00 AM-12:00 PM",,,
Aurora  New York St - Gerber Collision & Glass,303,2424 E New York St,,Aurora,Illinois,60504,USA,(630) 375-9000,41.760472,-88.256154,"Sun Closed, Mon 7:30 AM-5:30 PM, Tue 7:30 AM-5:30 PM, Wed 7:30 AM-5:30 PM, Thu 7:30 AM-5:30 PM, Fri 7:30 AM-5:30 PM, Sat 8:00 AM-12:00 PM",,,
Aurora  Rt 59 - Gerber Collision & Glass,28,19 S Route 59,,Aurora,Illinois,60504,USA,630-862-2800,41.755436,-88.206608,"Sun Closed, Mon 7:30 AM-5:30 PM, Tue 7:30 AM-5:30 PM, Wed 7:30 AM-5:30 PM, Thu 7:30 AM-5:30 PM, Fri 7:30 AM-5:30 PM, Sat 8:00 AM-12:00 PM",,,
Aurora  Lake St - Gerber Collision & Glass,29,1313 N Lake St,,Aurora,Illinois,60506,USA,630-801-1290,41.78615,-88.319257,"Sun Closed, Mon 7:30 AM-5:30 PM, Tue 7:30 AM-5:30 PM, Wed 7:30 AM-5:30 PM, Thu 7:30 AM-5:30 PM, Fri 7:30 AM-5:30 PM, Sat 8:00 AM-12:00 PM",,,
Bloomington - Gerber Collision & Glass,304,1 Gilmore Dr,,Bloomington,Illinois,61701,USA,(309) 663-5011,40.460114,-88.977985,"Sun Closed, Mon 7:30 AM-5:30 PM, Tue 7:30 AM-5:30 PM, Wed 7:30 AM-5:30 PM, Thu 7:30 AM-5:30 PM, Fri 7:30 AM-5:30 PM, Sat 8:00 AM-12:00 PM",,,
Bourbonnais - Gerber Collision & Glass,305,1493 N State Rte 50,,Bourbonnais,Illinois,60914,USA,(815) 935-7918,41.169944,-87.854579,"Sun Closed, Mon 7:30 AM-5:30 PM, Tue 7:30 AM-5:30 PM, Wed 7:30 AM-5:30 PM, Thu 7:30 AM-5:30 PM, Fri 7:30 AM-5:30 PM, Sat 8:00 AM-12:00 PM",,,
Buffalo Grove - Gerber Collision & Glass,30,20445 Milwaukee Ave,,Buffalo Grove,Illinois,60089,USA,847-520-7400,42.159618,-87.917425,"Sun Closed, Mon 7:00 AM-6:00 PM, Tue 7:00 AM-6:00 PM, Wed 7:00 AM-6:00 PM, Thu 7:00 AM-6:00 PM, Fri 7:00 AM-6:00 PM, Sat 8:00 AM-12:00 PM",,,
Champaign - Gerber Collision & Glass,306,1110 W Bloomington Rd,,Champaign,Illinois,61821,USA,(217) 359-5886,40.135481,-88.264593,"Sun Closed, Mon 7:30 AM-5:30 PM, Tue 7:30 AM-5:30 PM, Wed 7:30 AM-5:30 PM, Thu 7:30 AM-5:30 PM, Fri 7:30 AM-5:30 PM, Sat 8:00 AM-12:00 PM",,,
Chicago  63rd St - Gerber Collision & Glass,308,3518 W 63rd St,,Chicago,Illinois,60629-3712,USA,(773) 776-5888,41.779073,-87.711362,"Sun Closed, Mon 7:30 AM-5:30 PM, Tue 7:30 AM-5:30 PM, Wed 7:30 AM-5:30 PM, Thu 7:30 AM-5:30 PM, Fri 7:30 AM-5:30 PM, Sat 8:00 AM-12:00 PM",,,
Chicago  Kedzie Ave - Gerber Collision & Glass,347,3029 N Kedzie Ave,,Chicago,Illinois,60618,USA,(773) 463-0070,41.936325,-87.707139,"Sun Closed, Mon 7:00 AM-6:00 PM, Tue 7:00 AM-6:00 PM, Wed 7:00 AM-6:00 PM, Thu 7:00 AM-6:00 PM, Fri 7:00 AM-6:00 PM, Sat 8:00 AM-12:00 PM",,,
Chicago  Huron St - Gerber Collision & Glass,32,1060 W Huron St,,Chicago,Illinois,60642,USA,312-491-0482,41.894558,-87.654721,"Sun Closed, Mon 7:00 AM-6:00 PM, Tue 7:00 AM-6:00 PM, Wed 7:00 AM-6:00 PM, Thu 7:00 AM-6:00 PM, Fri 7:00 AM-6:00 PM, Sat 8:00 AM-12:00 PM",,,
Chicago  Halsted St - Gerber Collision & Glass,33,3425 N Halsted St,,Chicago,Illinois,60657,USA,773-296-0555,41.944322,-87.649233,"Sun Closed, Mon 7:00 AM-6:00 PM, Tue 7:00 AM-6:00 PM, Wed 7:00 AM-6:00 PM, Thu 7:00 AM-6:00 PM, Fri 7:00 AM-6:00 PM, Sat 8:00 AM-12:00 PM",,,
Chicago  NW Hwy - Gerber Collision & Glass,34,5948 N Northwest Hwy,,Chicago,Illinois,60631,USA,773-774-9450,41.989051,-87.793998,"Sun Closed, Mon 7:30 AM-5:30 PM, Tue 7:30 AM-5:30 PM, Wed 7:30 AM-5:30 PM, Thu 7:30 AM-5:30 PM, Fri 7:30 AM-5:30 PM, Sat 8:00 AM-12:00 PM",,,
Chicago  Elston Ave - Gerber Collision & Glass,35,4545 N Elston Ave,,Chicago,Illinois,60630,USA,773-725-7200,41.963473,-87.73312,"Sun Closed, Mon 7:00 AM-6:00 PM, Tue 7:00 AM-6:00 PM, Wed 7:00 AM-6:00 PM, Thu 7:00 AM-6:00 PM, Fri 7:00 AM-6:00 PM, Sat 8:00 AM-12:00 PM",,,
Crystal Lake - Gerber Collision & Glass,36,6200 Berkshire Dr,,Crystal Lake,Illinois,60014,USA,815-455-4050,42.219459,-88.318402,"Sun Closed, Mon 7:30 AM-5:30 PM, Tue 7:30 AM-5:30 PM, Wed 7:30 AM-5:30 PM, Thu 7:30 AM-5:30 PM, Fri 7:30 AM-5:30 PM, Sat 8:00 AM-12:00 PM",,,
Des Plaines - Gerber Collision & Glass,309,1001 Lee St,,Des Plaines,Illinois,60018,USA,(847) 553-3200,42.034828,-87.892527,"Sun Closed, Mon 7:00 AM-6:00 PM, Tue 7:00 AM-6:00 PM, Wed 7:00 AM-6:00 PM, Thu 7:00 AM-6:00 PM, Fri 7:00 AM-6:00 PM, Sat 8:00 AM-12:00 PM",,,
Downers Grove - Gerber Collision & Glass,37,2360 Ogden Ave,,Downers Grove,Illinois,60515,USA,630-960-2500,41.806632,-88.042468,"Sun Closed, Mon 7:30 AM-5:30 PM, Tue 7:30 AM-5:30 PM, Wed 7:30 AM-5:30 PM, Thu 7:30 AM-5:30 PM, Fri 7:30 AM-5:30 PM, Sat 8:00 AM-12:00 PM",,,
Elgin - Gerber Collision & Glass,38,801 N State,,Elgin,Illinois,60123,USA,847-888-9381,42.053058,-88.294746,"Sun Closed, Mon 7:30 AM-5:30 PM, Tue 7:30 AM-5:30 PM, Wed 7:30 AM-5:30 PM, Thu 7:30 AM-5:30 PM, Fri 7:30 AM-5:30 PM, Sat 8:00 AM-12:00 PM",,,
Elmhurst - Gerber Collision & Glass,39,400 W Grand Ave,,Elmhurst,Illinois,60126,USA,630-832-0670,41.929967,-87.95439,"Sun Closed, Mon 7:30 AM-5:30 PM, Tue 7:30 AM-5:30 PM, Wed 7:30 AM-5:30 PM, Thu 7:30 AM-5:30 PM, Fri 7:30 AM-5:30 PM, Sat 8:00 AM-12:00 PM",,,
Evanston - Gerber Collision & Glass,40,2664 Green Bay Rd,,Evanston,Illinois,60201,USA,847-328-4575,42.066298,-87.70085,"Sun Closed, Mon 7:30 AM-5:30 PM, Tue 7:30 AM-5:30 PM, Wed 7:30 AM-5:30 PM, Thu 7:30 AM-5:30 PM, Fri 7:30 AM-5:30 PM, Sat 8:00 AM-12:00 PM",,,
Glendale Heights - Gerber Collision & Glass,310,1245 Pearl Ave,,Glendale Heights,Illinois,60139,USA,(630) 790-0876,41.904489,-88.070871,"Sun Closed, Mon 7:30 AM-5:30 PM, Tue 7:30 AM-5:30 PM, Wed 7:30 AM-5:30 PM, Thu 7:30 AM-5:30 PM, Fri 7:30 AM-5:30 PM, Sat 8:00 AM-12:00 PM",,,
Glenview  Lehigh - Gerber Collision & Glass,41,1904 Lehigh Ave,,Glenview,Illinois,60025,USA,224-521-2970,42.089086,-87.813202,"Sun Closed, Mon 7:00 AM-6:00 PM, Tue 7:00 AM-6:00 PM, Wed 7:00 AM-6:00 PM, Thu 7:00 AM-6:00 PM, Fri 7:00 AM-6:00 PM, Sat 8:00 AM-12:00 PM",,,
Highland Park - Gerber Collision & Glass,311,1325 Park Ave W,,Highland Park,Illinois,60035,USA,(847) 432-5353,42.189745,-87.82321,"Sun Closed, Mon 7:00 AM-6:00 PM, Tue 7:00 AM-6:00 PM, Wed 7:00 AM-6:00 PM, Thu 7:00 AM-6:00 PM, Fri 7:00 AM-6:00 PM, Sat 8:00 AM-12:00 PM",,,
Joliet  Larkin Ave - Gerber Collision & Glass,313,901 S Larkin Ave,,Joliet,Illinois,60436,USA,(815) 725-1028,41.506676,-88.125351,"Sun Closed, Mon 7:30 AM-5:30 PM, Tue 7:30 AM-5:30 PM, Wed 7:30 AM-5:30 PM, Thu 7:30 AM-5:30 PM, Fri 7:30 AM-5:30 PM, Sat 8:00 AM-12:00 PM",,,
La Grange - Gerber Collision & Glass,43,300 Washington Ave,,La Grange,Illinois,60525,USA,708-579-1200,41.812402,-87.861206,"Sun Closed, Mon 7:30 AM-5:30 PM, Tue 7:30 AM-5:30 PM, Wed 7:30 AM-5:30 PM, Thu 7:30 AM-5:30 PM, Fri 7:30 AM-5:30 PM, Sat 8:00 AM-12:00 PM",,,
Loves Park - Gerber Collision & Glass,44,7902 Forest Hills Rd,,Loves Park,Illinois,61111,USA,815-633-1139,42.334067,-89.020877,"Sun Closed, Mon 7:30 AM-5:30 PM, Tue 7:30 AM-5:30 PM, Wed 7:30 AM-5:30 PM, Thu 7:30 AM-5:30 PM, Fri 7:30 AM-5:30 PM, Sat 8:00 AM-12:00 PM",,,
Matteson - Gerber Collision & Glass,45,21319 Central Ave,,Matteson,Illinois,60443,USA,708-720-8300,41.502524,-87.750606,"Sun Closed, Mon 7:30 AM-5:30 PM, Tue 7:30 AM-5:30 PM, Wed 7:30 AM-5:30 PM, Thu 7:30 AM-5:30 PM, Fri 7:30 AM-5:30 PM, Sat 8:00 AM-12:00 PM",,,
McHenry - Gerber Collision & Glass,46,3006 W IL Route 120,,McHenry,Illinois,60050,USA,815-344-4158,42.343951,-88.256153,"Sun Closed, Mon 7:30 AM-5:30 PM, Tue 7:30 AM-5:30 PM, Wed 7:30 AM-5:30 PM, Thu 7:30 AM-5:30 PM, Fri 7:30 AM-5:30 PM, Sat 8:00 AM-12:00 PM",,,
Melrose Park - Gerber Collision & Glass,314,2311 N Mannheim Rd,,Melrose Park,Illinois,60164,USA,(847) 451-0636,41.919959,-87.883436,"Sun Closed, Mon 7:30 AM-5:30 PM, Tue 7:30 AM-5:30 PM, Wed 7:30 AM-5:30 PM, Thu 7:30 AM-5:30 PM, Fri 7:30 AM-5:30 PM, Sat 8:00 AM-12:00 PM",,,
Mundelein - Gerber Collision & Glass,326,1500 McCormick Blvd,,Mundelein,Illinois,60060,USA,(847) 566-7469,42.240154,-87.982713,"Sun Closed, Mon 7:30 AM-5:30 PM, Tue 7:30 AM-5:30 PM, Wed 7:30 AM-5:30 PM, Thu 7:30 AM-5:30 PM, Fri 7:30 AM-5:30 PM, Sat 8:00 AM-12:00 PM",,,
Naperville  Ogden Ave - Gerber Collision & Glass,47,900 E Ogden Ave,,Naperville,Illinois,60563,USA,630-357-4241,41.788403,-88.132903,"Sun Closed, Mon 7:30 AM-5:30 PM, Tue 7:30 AM-5:30 PM, Wed 7:30 AM-5:30 PM, Thu 7:30 AM-5:30 PM, Fri 7:30 AM-5:30 PM, Sat 8:00 AM-12:00 PM",,,
Naperville  La Salle Ave - Gerber Collision & Glass,48,1880 La Salle Ave,,Naperville,Illinois,60563,USA,630-983-0900,41.793771,-88.204993,"Sun Closed, Mon 7:30 AM-5:30 PM, Tue 7:30 AM-5:30 PM, Wed 7:30 AM-5:30 PM, Thu 7:30 AM-5:30 PM, Fri 7:30 AM-5:30 PM, Sat 8:00 AM-12:00 PM",,,
Normal - Gerber Collision & Glass,315,2010 Eagle Rd,,Normal,Illinois,61761,USA,(309) 862-4783,40.542879,-88.993386,"Sun Closed, Mon 7:30 AM-5:30 PM, Tue 7:30 AM-5:30 PM, Wed 7:30 AM-5:30 PM, Thu 7:30 AM-5:30 PM, Fri 7:30 AM-5:30 PM, Sat 8:00 AM-12:00 PM",,,
Oak Forest - Gerber Collision & Glass,316,6140 W 159th St,,Oak Forest,Illinois,60452,USA,(708) 687-0428,41.603131,-87.770021,"Sun Closed, Mon 7:30 AM-5:30 PM, Tue 7:30 AM-5:30 PM, Wed 7:30 AM-5:30 PM, Thu 7:30 AM-5:30 PM, Fri 7:30 AM-5:30 PM, Sat 8:00 AM-12:00 PM",,,
Oak Lawn  Central Ave - Gerber Collision & Glass,49,10933 S Central Ave,,Oak Lawn,Illinois,60453,USA,708-857-7000,41.692941,-87.758824,"Sun Closed, Mon 7:30 AM-5:30 PM, Tue 7:30 AM-5:30 PM, Wed 7:30 AM-5:30 PM, Thu 7:30 AM-5:30 PM, Fri 7:30 AM-5:30 PM, Sat 8:00 AM-12:00 PM",,,
Oak Lawn  SW Hwy - Gerber Collision & Glass,50,4718 Southwest Hwy,,Oak Lawn,Illinois,60453,USA,708-423-4959,41.724357,-87.739346,"Sun Closed, Mon 7:30 AM-5:30 PM, Tue 7:30 AM-5:30 PM, Wed 7:30 AM-5:30 PM, Thu 7:30 AM-5:30 PM, Fri 7:30 AM-5:30 PM, Sat 8:00 AM-12:00 PM",,,
Orland Park  153rd St - Gerber Collision & Glass,51,7041 W 153rd St,,Orland Park,Illinois,60462,USA,708-429-3313,41.613075,-87.792594,"Sun Closed, Mon 7:30 AM-5:30 PM, Tue 7:30 AM-5:30 PM, Wed 7:30 AM-5:30 PM, Thu 7:30 AM-5:30 PM, Fri 7:30 AM-5:30 PM, Sat 8:00 AM-12:00 PM",,,
Orland Park  SW Hwy - Gerber Collision & Glass,52,13433 Southwest Hwy,,Orland Park,Illinois,60462,USA,708-361-1211,41.646724,-87.843067,"Sun Closed, Mon 7:30 AM-5:30 PM, Tue 7:30 AM-5:30 PM, Wed 7:30 AM-5:30 PM, Thu 7:30 AM-5:30 PM, Fri 7:30 AM-5:30 PM, Sat 8:00 AM-12:00 PM",,,
Palatine - Gerber Collision & Glass,53,20338 N Rand Rd,,Palatine,Illinois,60074,USA,847-438-4303,42.157869,-88.045959,"Sun Closed, Mon 7:30 AM-5:30 PM, Tue 7:30 AM-5:30 PM, Wed 7:30 AM-5:30 PM, Thu 7:30 AM-5:30 PM, Fri 7:30 AM-5:30 PM, Sat 8:00 AM-12:00 PM",,,
Pekin - Gerber Collision & Glass,317,2321 Lakecrest Dr,,Pekin,Illinois,61554,USA,(309) 478-1555,40.599886,-89.635525,"Sun Closed, Mon 7:30 AM-5:30 PM, Tue 7:30 AM-5:30 PM, Wed 7:30 AM-5:30 PM, Thu 7:30 AM-5:30 PM, Fri 7:30 AM-5:30 PM, Sat 8:00 AM-12:00 PM",,,
Peoria - Gerber Collision & Glass,318,8018 N University St,,Peoria,Illinois,61615,USA,(309) 692-5102,40.785303,-89.620914,"Sun Closed, Mon 7:30 AM-5:30 PM, Tue 7:30 AM-5:30 PM, Wed 7:30 AM-5:30 PM, Thu 7:30 AM-5:30 PM, Fri 7:30 AM-5:30 PM, Sat 8:00 AM-12:00 PM",,,
Plainfield - Gerber Collision & Glass,319,16000 S Lincoln Hwy,,Plainfield,Illinois,60544,USA,(815) 439-7401,41.591641,-88.18579,"Sun Closed, Mon 7:30 AM-5:30 PM, Tue 7:30 AM-5:30 PM, Wed 7:30 AM-5:30 PM, Thu 7:30 AM-5:30 PM, Fri 7:30 AM-5:30 PM, Sat 8:00 AM-12:00 PM",,,
Pontiac - Gerber Collision & Glass,320,440 Deerfield Rd,,Pontiac,Illinois,61764,USA,(815) 842-0770,40.875449,-88.666258,"Sun Closed, Mon 7:30 AM-5:30 PM, Tue 7:30 AM-5:30 PM, Wed 7:30 AM-5:30 PM, Thu 7:30 AM-5:30 PM, Fri 7:30 AM-5:30 PM, Sat 8:00 AM-12:00 PM",,,
Rockford - Gerber Collision & Glass,55,6801 Mill Rd,,Rockford,Illinois,61108,USA,815-397-1182,42.265817,-88.983705,"Sun Closed, Mon 7:30 AM-5:30 PM, Tue 7:30 AM-5:30 PM, Wed 7:30 AM-5:30 PM, Thu 7:30 AM-5:30 PM, Fri 7:30 AM-5:30 PM, Sat 8:00 AM-12:00 PM",,,
Romeoville - Gerber Collision & Glass,321,635 N Independence Blvd,,Romeoville,Illinois,60446,USA,(815) 886-0705,41.65085,-88.079872,"Sun Closed, Mon 7:30 AM-5:30 PM, Tue 7:30 AM-5:30 PM, Wed 7:30 AM-5:30 PM, Thu 7:30 AM-5:30 PM, Fri 7:30 AM-5:30 PM, Sat 8:00 AM-12:00 PM",,,
Round Lake - Gerber Collision & Glass,56,830 W Belvidere Rd,,Round Lake,Illinois,60073,USA,847-546-7877,42.338501,-88.102953,"Sun Closed, Mon 7:30 AM-5:30 PM, Tue 7:30 AM-5:30 PM, Wed 7:30 AM-5:30 PM, Thu 7:30 AM-5:30 PM, Fri 7:30 AM-5:30 PM, Sat 8:00 AM-12:00 PM",,,
Schaumburg  Estes Ave - Gerber Collision & Glass,57,819 Estes Ave,,Schaumburg,Illinois,60193,USA,847-534-2277,42.002429,-88.100579,"Sun Closed, Mon 7:30 AM-5:30 PM, Tue 7:30 AM-5:30 PM, Wed 7:30 AM-5:30 PM, Thu 7:30 AM-5:30 PM, Fri 7:30 AM-5:30 PM, Sat 8:00 AM-12:00 PM",,,
Schaumburg  Woodfield - Gerber Collision & Glass,58,1001 Remington Rd,,Schaumburg,Illinois,60173,USA,847-882-5031,42.05241,-88.054366,"Sun Closed, Mon 7:30 AM-5:30 PM, Tue 7:30 AM-5:30 PM, Wed 7:30 AM-5:30 PM, Thu 7:30 AM-5:30 PM, Fri 7:30 AM-5:30 PM, Sat 8:00 AM-12:00 PM",,,
Schaumburg  Remington Rd - Cars Collision Center,675,1000 Remington Rd,,Schaumburg,Illinois,60173,USA,847-490-1671,42.053336,-88.054815,"Sun Closed, Mon 7:30 AM-5:30 PM, Tue 7:30 AM-5:30 PM, Wed 7:30 AM-5:30 PM, Thu 7:30 AM-5:30 PM, Fri 7:30 AM-5:30 PM, Sat Closed",,,
Skokie - Gerber Collision & Glass,59,8250 N Skokie Blvd,,Skokie,Illinois,60077,USA,847-679-0510,42.031362,-87.748018,"Sun Closed, Mon 7:00 AM-6:00 PM, Tue 7:00 AM-6:00 PM, Wed 7:00 AM-6:00 PM, Thu 7:00 AM-6:00 PM, Fri 7:00 AM-6:00 PM, Sat 8:00 AM-12:00 PM",,,
South Elgin - Gerber Collision & Glass,60,275 Sundown Rd,,South Elgin,Illinois,60177,USA,847-697-9142,42.003749,-88.298086,"Sun Closed, Mon 7:30 AM-5:30 PM, Tue 7:30 AM-5:30 PM, Wed 7:30 AM-5:30 PM, Thu 7:30 AM-5:30 PM, Fri 7:30 AM-5:30 PM, Sat 8:00 AM-12:00 PM",,,
South Holland - Gerber Collision & Glass,61,16100 Suntone Dr,,South Holland,Illinois,60473,USA,708-333-2810,41.602283,-87.622772,"Sun Closed, Mon 7:30 AM-5:30 PM, Tue 7:30 AM-5:30 PM, Wed 7:30 AM-5:30 PM, Thu 7:30 AM-5:30 PM, Fri 7:30 AM-5:30 PM, Sat 8:00 AM-12:00 PM",,,
St Charles - Gerber Collision & Glass,322,3415 Stern Ave,,St Charles,Illinois,60174,USA,(630) 513-9770,41.910433,-88.27696,"Sun Closed, Mon 7:30 AM-5:30 PM, Tue 7:30 AM-5:30 PM, Wed 7:30 AM-5:30 PM, Thu 7:30 AM-5:30 PM, Fri 7:30 AM-5:30 PM, Sat 8:00 AM-12:00 PM",,,
Anderson - Gerber Collision & Glass,639,1301 E 60th St,,Anderson,Indiana,46013,USA,765-649-3050,40.053153,-85.662962,"Sun Closed, Mon 7:30 AM-5:30 PM, Tue 7:30 AM-5:30 PM, Wed 7:30 AM-5:30 PM, Thu 7:30 AM-5:30 PM, Fri 7:30 AM-5:30 PM, Sat 8:00 AM-12:00 PM",,,
Cedar Lake - Gerber Collision & Glass,92,9905 W 109th Ave,,Cedar Lake,Indiana,46303,USA,219-365-4700,41.419172,-87.454251,"Sun Closed, Mon 7:30 AM-5:30 PM, Tue 7:30 AM-5:30 PM, Wed 7:30 AM-5:30 PM, Thu 7:30 AM-5:30 PM, Fri 7:30 AM-5:30 PM, Sat 8:00 AM-12:00 PM",,,
Chesterton - Gerber Collision & Glass,93,244 Melton Rd,,Chesterton,Indiana,46304,USA,219-787-0600,41.603659,-87.113627,"Sun Closed, Mon 7:30 AM-5:30 PM, Tue 7:30 AM-5:30 PM, Wed 7:30 AM-5:30 PM, Thu 7:30 AM-5:30 PM, Fri 7:30 AM-5:30 PM, Sat 8:00 AM-12:00 PM",,,
Elkhart - Gerber Collision & Glass,298,2525 Bypass Rd,,Elkhart,Indiana,46515,USA,(574) 970-7711,41.685883,-86.008795,"Sun Closed, Mon 7:30 AM-5:00 PM, Tue 8:00 AM-5:00 PM, Wed 8:00 AM-5:00 PM, Thu 8:00 AM-5:00 PM, Fri 8:00 AM-5:30 PM, Sat Closed",,,
Fishers - Gerber Collision & Glass,640,11175 Allisonville Rd,,Fishers,Indiana,46038,USA,317-588-1040,39.95122,-86.041568,"Sun Closed, Mon 7:30 AM-5:30 PM, Tue 7:30 AM-5:30 PM, Wed 7:30 AM-5:30 PM, Thu 7:30 AM-5:30 PM, Fri 7:30 AM-5:30 PM, Sat 8:00 AM-12:00 PM",,,
Ft Wayne  Illinois Rd - Gerber Collision & Glass,682,3710 Illinois Rd,,Ft Wayne,Indiana,46804,USA,260-407-0074,41.075961,-85.189391,"Sun Closed, Mon 7:30 AM-5:30 PM, Tue 7:30 AM-5:30 PM, Wed 7:30 AM-5:30 PM, Thu 7:30 AM-5:30 PM, Fri 7:30 AM-5:30 PM, Sat 8:00 AM-12:00 PM",,,
Ft Wayne  Merkler St - Gerber Collision & Glass,323,424 Merkler St,,Ft Wayne,Indiana,46825,USA,(260) 484-2367,41.120318,-85.148631,"Sun Closed, Mon 7:30 AM-5:30 PM, Tue 7:30 AM-5:30 PM, Wed 7:30 AM-5:30 PM, Thu 7:30 AM-5:30 PM, Fri 7:30 AM-5:30 PM, Sat 8:00 AM-12:00 PM",,,
Gary - Gerber Collision & Glass,94,3790 Grant St,,Gary,Indiana,46408,USA,219-887-0600,41.549852,-87.356148,"Sun Closed, Mon 7:30 AM-5:30 PM, Tue 7:30 AM-5:30 PM, Wed 7:30 AM-5:30 PM, Thu 7:30 AM-5:30 PM, Fri 7:30 AM-5:30 PM, Sat 8:00 AM-12:00 PM",,,
Hammond - Gerber Collision & Glass,95,2010 167th St,,Hammond,Indiana,46323,USA,219-844-0900,41.591746,-87.480462,"Sun Closed, Mon 7:30 AM-5:30 PM, Tue 7:30 AM-5:30 PM, Wed 7:30 AM-5:30 PM, Thu 7:30 AM-5:30 PM, Fri 7:30 AM-5:30 PM, Sat 8:00 AM-12:00 PM",,,
Highland - Gerber Collision & Glass,96,9429 S Indianapolis Blvd,,Highland,Indiana,46322,USA,219-924-4700,41.541953,-87.470616,"Sun Closed, Mon 7:30 AM-5:30 PM, Tue 7:30 AM-5:30 PM, Wed 7:30 AM-5:30 PM, Thu 7:30 AM-5:30 PM, Fri 7:30 AM-5:30 PM, Sat 8:00 AM-12:00 PM",,,
Kokomo - Gerber Collision & Glass,641,418 Kentucky Dr,,Kokomo,Indiana,46902,USA,765-453-7181,40.435431,-86.125258,"Sun Closed, Mon 7:30 AM-5:30 PM, Tue 7:30 AM-5:30 PM, Wed 7:30 AM-5:30 PM, Thu 7:30 AM-5:30 PM, Fri 7:30 AM-5:30 PM, Sat 8:00 AM-12:00 PM",,,
La Porte - Gerber Collision & Glass,676,911 Boyd Blvd,,La Porte,Indiana,46350,USA,219-326-8351,41.609312,-86.686796,"Sun Closed, Mon 7:30 AM-5:30 PM, Tue 7:30 AM-5:30 PM, Wed 7:30 AM-5:30 PM, Thu 7:30 AM-5:30 PM, Fri 7:30 AM-5:30 PM, Sat 8:00 AM-12:00 PM",,,
Lafayette  Fairfield Ct - Gerber Collision & Glass,626,3431 Fairfield Ct,,Lafayette,Indiana,47909,USA,765-471-8899,40.367598,-86.854538,"Sun Closed, Mon 7:30 AM-5:30 PM, Tue 7:30 AM-5:30 PM, Wed 7:30 AM-5:30 PM, Thu 7:30 AM-5:30 PM, Fri 7:30 AM-5:30 PM, Sat 8:00 AM-12:00 PM",,,
Lafayette  Farabee Dr - Gerber Collision & Glass,627,600 Farabee Dr,,Lafayette,Indiana,47905,USA,765-447-2999,40.410928,-86.852492,"Sun Closed, Mon 7:30 AM-5:30 PM, Tue 7:30 AM-5:30 PM, Wed 7:30 AM-5:30 PM, Thu 7:30 AM-5:30 PM, Fri 7:30 AM-5:30 PM, Sat 8:00 AM-12:00 PM",,,
Marion - Gerber Collision & Glass,642,1420 N Baldwin Ave,,Marion,Indiana,46952,USA,765-293-8070,40.578059,-85.668463,"Sun Closed, Mon 7:30 AM-5:30 PM, Tue 7:30 AM-5:30 PM, Wed 7:30 AM-5:30 PM, Thu 7:30 AM-5:30 PM, Fri 7:30 AM-5:30 PM, Sat 8:00 AM-12:00 PM",,,
Merrillville - Gerber Collision & Glass,97,7901 Taft St,,Merrillville,Indiana,46410,USA,219-769-4700,41.473461,-87.364564,"Sun Closed, Mon 7:30 AM-5:30 PM, Tue 7:30 AM-5:30 PM, Wed 7:30 AM-5:30 PM, Thu 7:30 AM-5:30 PM, Fri 7:30 AM-5:30 PM, Sat 8:00 AM-12:00 PM",,,
Muncie - Gerber Collision & Glass,643,1700 E McGalliard Rd,,Muncie,Indiana,47303,USA,765-284-0576,40.219352,-85.367408,"Sun Closed, Mon 7:30 AM-5:30 PM, Tue 7:30 AM-5:30 PM, Wed 7:30 AM-5:30 PM, Thu 7:30 AM-5:30 PM, Fri 7:30 AM-5:30 PM, Sat 8:00 AM-12:00 PM",,,
Munster - Gerber Collision & Glass,324,490 - 45th St,,Munster,Indiana,46321,USA,(219) 924-4722,41.541558,-87.515579,"Sun Closed, Mon 7:30 AM-5:30 PM, Tue 7:30 AM-5:30 PM, Wed 7:30 AM-5:30 PM, Thu 7:30 AM-5:30 PM, Fri 7:30 AM-5:30 PM, Sat 8:00 AM-12:00 PM",,,
Portage - Gerber Collision & Glass,98,5353 US Hwy 6,,Portage,Indiana,46368,USA,219-762-0762,41.549867,-87.207986,"Sun Closed, Mon 7:30 AM-5:30 PM, Tue 7:30 AM-5:30 PM, Wed 7:30 AM-5:30 PM, Thu 7:30 AM-5:30 PM, Fri 7:30 AM-5:30 PM, Sat 8:00 AM-12:00 PM",,,
Portage  Commercial & RV - Gerber Collision & Glass,679,5900 Southport Rd,,Portage,Indiana,46368,USA,219-841-5060,41.6027888,-87.1862192,"Sun Closed, Mon 7:30 AM-5:30 PM, Tue 7:30 AM-5:30 PM, Wed 7:30 AM-5:30 PM, Thu 7:30 AM-5:30 PM, Fri 7:30 AM-5:30 PM, Sat 8:00 AM-12:00 PM",,,
Schererville  65th St - Gerber Collision & Glass,564,720 65th S,,Schererville,Indiana,46375,USA,219-322-1841,41.500929,-87.469715,"Sun Closed, Mon 7:30 AM-5:30 PM, Tue 7:30 AM-5:30 PM, Wed 7:30 AM-5:30 PM, Thu 7:30 AM-5:30 PM, Fri 7:30 AM-5:30 PM, Sat 8:00 AM-12:00 PM",,,
Schererville  Wicker Ave - Gerber Collision & Glass,99,1349 Wicker Ave,,Schererville,Indiana,46375,USA,219-864-0900,41.496874,-87.469313,"Sun Closed, Mon 7:30 AM-5:30 PM, Tue 7:30 AM-5:30 PM, Wed 7:30 AM-5:30 PM, Thu 7:30 AM-5:30 PM, Fri 7:30 AM-5:30 PM, Sat 8:00 AM-12:00 PM",,,
Valparaiso - Gerber Collision & Glass,100,1460 West St,,Valparaiso,Indiana,46385,USA,219-531-4700,41.461468,-87.078824,"Sun Closed, Mon 7:30 AM-5:30 PM, Tue 7:30 AM-5:30 PM, Wed 7:30 AM-5:30 PM, Thu 7:30 AM-5:30 PM, Fri 7:30 AM-5:30 PM, Sat 8:00 AM-12:00 PM",,,
Westfield - Gerber Collision & Glass,644,17549 Gunther Blvd,,Westfield,Indiana,46074,USA,317-399-5540,40.041683,-86.103257,"Sun Closed, Mon 7:30 AM-5:30 PM, Tue 7:30 AM-5:30 PM, Wed 7:30 AM-5:30 PM, Thu 7:30 AM-5:30 PM, Fri 7:30 AM-5:30 PM, Sat 8:00 AM-12:00 PM",,,
Wichita - Gerber Collision & Glass,63,5617 W Kellogg Ave,,Wichita,Kansas,67209,USA,316-945-7007,37.672423,-97.408712,"Sun Closed, Mon 7:30 AM-5:30 PM, Tue 7:30 AM-5:30 PM, Wed 7:30 AM-5:30 PM, Thu 7:30 AM-5:30 PM, Fri 7:30 AM-5:30 PM, Sat 8:00 AM-12:00 PM",,,
Southgate - Gerber Collision & Glass,673,2350 Alexandria Pike,,Southgate,Kentucky,41071,USA,859-581-4666,39.0742182,-84.474997,"Sun Closed, Mon 7:30 AM-5:30 PM, Tue 7:30 AM-5:30 PM, Wed 7:30 AM-5:30 PM, Thu 7:30 AM-5:30 PM, Fri 7:30 AM-5:30 PM, Sat Closed",,,
Baton Rouge  Greenwell Springs Rd - Gerber Collision & Glass,686,10500 Greenwell Springs Rd,,Baton Rouge,Louisiana,70814,USA,225-273-2520,30.4921841,-91.0670432,"Sun Closed, Mon 7:30 AM-5:30 PM, Tue 7:30 AM-5:30 PM, Wed 7:30 AM-5:30 PM, Thu 7:30 AM-5:30 PM, Fri 7:30 AM-5:30 PM, Sat Closed",,,
Baton Rouge  Siegen Lane - Gerber Collision & Glass,444,6137 Siegen Lane,,Baton Rouge,Louisiana,70809,USA,225-293-0200,30.393641,-91.057946,"Sun Closed, Mon 7:30 AM-5:30 PM, Tue 7:30 AM-5:30 PM, Wed 7:30 AM-5:30 PM, Thu 7:30 AM-5:30 PM, Fri 7:30 AM-5:30 PM, Sat Closed",,,
Hammond - Gerber Collision & Glass,445,500 S Morrison Blvd,,Hammond,Louisiana,70403,USA,985-543-0059,30.496115,-90.484119,"Sun Closed, Mon 7:30 AM-5:30 PM, Tue 7:30 AM-5:30 PM, Wed 7:30 AM-5:30 PM, Thu 7:30 AM-5:30 PM, Fri 7:30 AM-5:30 PM, Sat Closed",,,
Harvey - Gerber Collision & Glass,449,3621 Lapalco Blvd,,Harvey,Louisiana,70058,USA,504-341-7100,29.870811,-90.080155,"Sun Closed, Mon 7:30 AM-5:30 PM, Tue 7:30 AM-5:30 PM, Wed 7:30 AM-5:30 PM, Thu 7:30 AM-5:30 PM, Fri 7:30 AM-5:30 PM, Sat Closed",,,
Kenner - Gerber Collision & Glass,446,1601 22nd St,,Kenner,Louisiana,70062,USA,504-468-2288,29.99586,-90.245684,"Sun Closed, Mon 7:30 AM-5:30 PM, Tue 7:30 AM-5:30 PM, Wed 7:30 AM-5:30 PM, Thu 7:30 AM-5:30 PM, Fri 7:30 AM-5:30 PM, Sat Closed",,,
Mandeville - Gerber Collision & Glass,448,2501 Florida St,,Mandeville,Louisiana,70448,USA,985-624-8422,30.368341,-90.069459,"Sun Closed, Mon 7:30 AM-5:30 PM, Tue 7:30 AM-5:30 PM, Wed 7:30 AM-5:30 PM, Thu 7:30 AM-5:30 PM, Fri 7:30 AM-5:30 PM, Sat Closed",,,
New Orleans  Carrollton Ave - Gerber Collision & Glass,447,4047 S Carrollton Ave,,New Orleans,Louisiana,70119,USA,504-488-5000,29.968673,-90.107385,"Sun Closed, Mon 7:30 AM-5:30 PM, Tue 7:30 AM-5:30 PM, Wed 7:30 AM-5:30 PM, Thu 7:30 AM-5:30 PM, Fri 7:30 AM-5:30 PM, Sat Closed",,,
New Orleans  Edwards Ave - Gerber Collision & Glass,450,200 Edwards Ave,,New Orleans,Louisiana,70123,USA,504-734-5000,29.945507,-90.186721,"Sun Closed, Mon 7:30 AM-5:30 PM, Tue 7:30 AM-5:30 PM, Wed 7:30 AM-5:30 PM, Thu 7:30 AM-5:30 PM, Fri 7:30 AM-5:30 PM, Sat Closed",,,
Slidell - Gerber Collision & Glass,674,111 W Hall Ave,,Slidell,Louisiana,70460,USA,985-326-7312,30.2841458,-89.7811101,"Sun Closed, Mon 7:30 AM-5:30 PM, Tue 7:30 AM-5:30 PM, Wed 7:30 AM-5:30 PM, Thu 7:30 AM-5:30 PM, Fri 7:30 AM-5:30 PM, Sat Closed",,,
Brandon - Boyd Autobody & Glass,221,702 - 1st St,,Brandon,Manitoba,R7A 2X4,CAN,204-727-2693,49.838834,-99.939786,"Sun Closed, Mon 8:00 AM-5:00 PM, Tue 8:00 AM-5:00 PM, Wed 8:00 AM-5:00 PM, Thu 8:00 AM-5:00 PM, Fri 8:00 AM-5:00 PM, Sat Closed",,,
Portage la Prairie - Boyd Autobody & Glass,222,1520 Saskatchewan Ave E,,Portage la Prairie,Manitoba,R1N 3B5,CAN,204-857-6947,49.972412,-98.268818,"Sun Closed, Mon 8:00 AM-5:30 PM, Tue 8:00 AM-5:30 PM, Wed 8:00 AM-5:30 PM, Thu 8:00 AM-5:30 PM, Fri 8:00 AM-5:30 PM, Sat Closed",,,
Selkirk - Boyd Autobody & Glass,223,139 Main St,,Selkirk,Manitoba,R1A 1R2,CAN,(204) 482-9888,50.133065,-96.887357,"Sun Closed, Mon 7:30 AM-5:30 PM, Tue 7:30 AM-5:30 PM, Wed 7:30 AM-5:30 PM, Thu 7:30 AM-5:30 PM, Fri 7:30 AM-5:30 PM, Sat Closed",,,
Winnipeg  Regent Ave - Boyd Autobody & Glass,224,1462 Regent Ave W,,Winnipeg,Manitoba,R2C 3A8,CAN,204-421-9350,49.895121,-97.04734,"Sun Closed, Mon 7:30 AM-5:30 PM, Tue 7:30 AM-5:30 PM, Wed 7:30 AM-5:30 PM, Thu 7:30 AM-5:30 PM, Fri 7:30 AM-5:30 PM, Sat Closed",,,
Winnipeg  Henderson Hwy - Boyd Autobody & Glass,225,951 Henderson Hwy,,Winnipeg,Manitoba,R2K 2M3,CAN,204-667-9559,49.933293,-97.097033,"Sun Closed, Mon 7:30 AM-6:00 PM, Tue 7:30 AM-6:00 PM, Wed 7:30 AM-6:00 PM, Thu 7:30 AM-6:00 PM, Fri 7:30 AM-6:00 PM, Sat Closed",,,
Winnipeg  Lakewood Blvd - Boyd Autobody & Glass,226,20 Lakewood Blvd,,Winnipeg,Manitoba,R2J 2M6,CAN,204-253-7910,49.855397,-97.080036,"Sun Closed, Mon 7:30 AM-6:00 PM, Tue 7:30 AM-6:00 PM, Wed 7:30 AM-6:00 PM, Thu 7:30 AM-6:00 PM, Fri 7:30 AM-6:00 PM, Sat 9:00 AM-1:00 PM",,,
Winnipeg  McPhillips St - Boyd Autobody & Glass,227,8 - 2140 McPhillips St,,Winnipeg,Manitoba,R2V 3C8,CAN,204-632-1332,49.949462,-97.152492,"Sun Closed, Mon 7:30 AM-6:00 PM, Tue 7:30 AM-6:00 PM, Wed 7:30 AM-6:00 PM, Thu 7:30 AM-6:00 PM, Fri 7:30 AM-6:00 PM, Sat Closed",,,
Winnipeg  King Edward St - Boyd Autobody & Glass,228,120 King Edward St E,,Winnipeg,Manitoba,R3H 0N8,CAN,204-788-0080,49.892351,-97.207314,"Sun Closed, Mon 7:30 AM-6:00 PM, Tue 7:30 AM-6:00 PM, Wed 7:30 AM-6:00 PM, Thu 7:30 AM-6:00 PM, Fri 7:30 AM-6:00 PM, Sat 9:00 AM-1:00 PM",,,
Winnipeg  Marion St - Boyd Autobody & Glass,229,15 Marion St,,Winnipeg,Manitoba,R2H 0S8,CAN,204-237-0658,49.882047,-97.128507,"Sun Closed, Mon 7:30 AM-5:30 PM, Tue 7:30 AM-5:30 PM, Wed 7:30 AM-5:30 PM, Thu 7:30 AM-5:30 PM, Fri 7:30 AM-5:30 PM, Sat Closed",,,
Winnipeg  Dudley Ave - Boyd Autobody & Glass,230,614 Dudley Ave,,Winnipeg,Manitoba,R3M 1R7,CAN,204-453-5931,49.867756,-97.145352,"Sun Closed, Mon 7:30 AM-6:00 PM, Tue 7:30 AM-6:00 PM, Wed 7:30 AM-6:00 PM, Thu 7:30 AM-6:00 PM, Fri 7:30 AM-6:00 PM, Sat Closed",,,
Winnipeg  Pembina Hwy - Boyd Autobody & Glass,231,2405 Pembina Hwy,,Winnipeg,Manitoba,R3T 2H4,CAN,204-269-5520,49.804235,-97.157641,"Sun Closed, Mon 7:30 AM-6:00 PM, Tue 7:30 AM-6:00 PM, Wed 7:30 AM-6:00 PM, Thu 7:30 AM-6:00 PM, Fri 7:30 AM-6:00 PM, Sat 9:00 AM-1:00 PM",,,
Winnipeg  Portage Ave - Boyd Autobody & Glass,232,3570 Portage Ave,,Winnipeg,Manitoba,R3K 0Z8,CAN,204-895-1297,49.881728,-97.308825,"Sun Closed, Mon 7:30 AM-6:00 PM, Tue 7:30 AM-6:00 PM, Wed 7:30 AM-6:00 PM, Thu 7:30 AM-6:00 PM, Fri 7:30 AM-6:00 PM, Sat Closed",,,
Winnipeg  Nairn Ave - Boyd Autobody & Glass,233,730 Nairn Ave,,Winnipeg,Manitoba,R2L 0X7,CAN,204-654-4455,49.90184,-97.090596,"Sun Closed, Mon 7:30 AM-6:00 PM, Tue 7:30 AM-6:00 PM, Wed 7:30 AM-6:00 PM, Thu 7:30 AM-6:00 PM, Fri 7:30 AM-6:00 PM, Sat Closed",,,
Winnipeg  Scurfield Blvd - Boyd Autobody & Glass,234,84 Scurfield Blvd,,Winnipeg,Manitoba,R3Y 1G4,CAN,204-488-2407,49.817789,-97.189393,"Sun Closed, Mon 7:30 AM-6:00 PM, Tue 7:30 AM-6:00 PM, Wed 7:30 AM-6:00 PM, Thu 7:30 AM-6:00 PM, Fri 7:30 AM-6:00 PM, Sat Closed",,,
Catonsville - Gerber Collision & Glass,252,609 Frederick Rd,,Catonsville,Maryland,21228,USA,(410) 788-4600,39.272237,-76.729598,"Sun Closed, Mon 8:00 AM-5:30 PM, Tue 8:00 AM-5:30 PM, Wed 8:00 AM-5:30 PM, Thu 8:00 AM-5:30 PM, Fri 8:00 AM-5:30 PM, Sat Closed",,,
College Park - Gerber Collision & Glass,102,5106 Branchville Rd,,College Park,Maryland,20740,USA,301-474-4844,38.999226,-76.920984,"Sun Closed, Mon 8:00 AM-5:30 PM, Tue 8:00 AM-5:30 PM, Wed 8:00 AM-5:30 PM, Thu 8:00 AM-5:30 PM, Fri 8:00 AM-5:30 PM, Sat Closed",,,
Dundalk - Gerber Collision & Glass,103,1123 Old North Point Rd,,Dundalk,Maryland,21222,USA,410-284-2556,39.284995,-76.503652,"Sun Closed, Mon 7:00 AM-5:30 PM, Tue 7:00 AM-5:30 PM, Wed 7:00 AM-5:30 PM, Thu 7:00 AM-5:30 PM, Fri 7:00 AM-5:30 PM, Sat Closed",,,
Ellicott City  Ellicott Center - Gerber Collision & Glass,253,3420 Ellicott Center Dr,,Ellicott City,Maryland,21043,USA,(410) 418-4600,39.2776,-76.814835,"Sun Closed, Mon 8:00 AM-5:30 PM, Tue 8:00 AM-5:30 PM, Wed 8:00 AM-5:30 PM, Thu 8:00 AM-5:30 PM, Fri 8:00 AM-5:30 PM, Sat Closed",,,
Ellicott City  Norris - Gerber Collision & Glass,257,8528 Baltimore National Pike,,Ellicott City,Maryland,21043,USA,(410) 750-3016,39.285128,-76.807928,"Sun Closed, Mon 8:00 AM-5:30 PM, Tue 8:00 AM-5:30 PM, Wed 8:00 AM-5:30 PM, Thu 8:00 AM-5:30 PM, Fri 8:00 AM-5:30 PM, Sat Closed",,,
Gaithersburg - Gerber Collision & Glass,104,8211 Snouffer School Rd,,Gaithersburg,Maryland,20879,USA,301-417-2850,39.165734,-77.168748,"Sun Closed, Mon 8:00 AM-5:30 PM, Tue 8:00 AM-5:30 PM, Wed 8:00 AM-5:30 PM, Thu 8:00 AM-5:30 PM, Fri 8:00 AM-5:30 PM, Sat 9:00 AM-12:00 PM",,,
Gambrills - Gerber Collision & Glass,105,1047 Maryland Rt 3 N,,Gambrills,Maryland,21054,USA,410-721-3700,39.026743,-76.686452,"Sun Closed, Mon 8:00 AM-5:30 PM, Tue 8:00 AM-5:30 PM, Wed 8:00 AM-5:30 PM, Thu 8:00 AM-5:30 PM, Fri 8:00 AM-5:30 PM, Sat Closed",,,
Germantown - Gerber Collision & Glass,106,19560 Frederick Rd,,Germantown,Maryland,20876,USA,301-916-9081,39.176509,-77.239262,"Sun Closed, Mon 8:00 AM-5:30 PM, Tue 8:00 AM-5:30 PM, Wed 8:00 AM-5:30 PM, Thu 8:00 AM-5:30 PM, Fri 8:00 AM-5:30 PM, Sat 9:00 AM-12:00 PM",,,
Jessup - Gerber Collision & Glass,107,7706 Race Rd,,Jessup,Maryland,20794,USA,410-799-5680,39.14545,-76.758401,"Sun Closed, Mon 8:00 AM-5:30 PM, Tue 8:00 AM-5:30 PM, Wed 8:00 AM-5:30 PM, Thu 8:00 AM-5:30 PM, Fri 8:00 AM-5:30 PM, Sat Closed",,,
Laurel - Gerber Collision & Glass,108,9943 Washington Blvd,,Laurel,Maryland,20723,USA,301-953-1086,39.111612,-76.835071,"Sun Closed, Mon 8:00 AM-5:30 PM, Tue 8:00 AM-5:30 PM, Wed 8:00 AM-5:30 PM, Thu 8:00 AM-5:30 PM, Fri 8:00 AM-5:30 PM, Sat Closed",,,
Allendale - Gerber Collision & Glass,261,5245 Lake Michigan Dr,,Allendale,Michigan,49401,USA,(616) 895-6285,42.973026,-85.915309,"Sun Closed, Mon 7:30 AM-5:00 PM, Tue 8:00 AM-5:00 PM, Wed 8:00 AM-5:00 PM, Thu 8:00 AM-5:00 PM, Fri 7:30 AM-5:30 PM, Sat Closed",,,
Ann Arbor - Gerber Collision & Glass,330,3345 Washtenaw Ave,,Ann Arbor,Michigan,48104,USA,(734) 971-2500,42.256659,-83.693161,"Sun Closed, Mon 7:00 AM-6:00 PM, Tue 7:00 AM-6:00 PM, Wed 7:00 AM-6:00 PM, Thu 7:00 AM-6:00 PM, Fri 7:00 AM-6:00 PM, Sat 9:00 AM-12:00 PM",,,
Battle Creek  Capital Ave - Gerber Collision & Glass,683,1508 Capital Ave NE,,Battle Creek,Michigan,49017,USA,269-962-0703,42.3453402,-85.1533057,"Sun Closed, Mon 7:30 AM-5:00 PM, Tue 8:00 AM-5:00 PM, Wed 8:00 AM-5:00 PM, Thu 8:00 AM-5:00 PM, Fri 7:30 AM-5:30 PM, Sat Closed",,,
Battle Creek  Dickman Rd - Gerber Collision & Glass,486,2637 W Dickman Rd,,Battle Creek,Michigan,49037,USA,269-969-3650,42.317762,-85.227567,"Sun Closed, Mon 7:30 AM-5:00 PM, Tue 8:00 AM-5:00 PM, Wed 8:00 AM-5:00 PM, Thu 8:00 AM-5:00 PM, Fri 7:30 AM-5:30 PM, Sat Closed",,,
Benton Harbor - Gerber Collision & Glass,264,1435 Townline Rd,,Benton Harbor,Michigan,49022,USA,(269) 934-7995,42.073641,-86.42388,"Sun Closed, Mon 7:30 AM-5:00 PM, Tue 8:00 AM-5:00 PM, Wed 8:00 AM-5:00 PM, Thu 8:00 AM-5:00 PM, Fri 7:30 AM-5:30 PM, Sat Closed",,,
Big Rapids - Gerber Collision & Glass,265,18209 Northland Dr,,Big Rapids,Michigan,49307,USA,(231) 796-4807,43.731302,-85.504208,"Sun Closed, Mon 7:30 AM-5:00 PM, Tue 8:00 AM-5:00 PM, Wed 8:00 AM-5:00 PM, Thu 8:00 AM-5:00 PM, Fri 7:30 AM-5:30 PM, Sat Closed",,,
Cadillac - Gerber Collision & Glass,266,1815 N Mitchell St,,Cadillac,Michigan,49601,USA,(231) 876-9020,44.276542,-85.406885,"Sun Closed, Mon 7:30 AM-5:00 PM, Tue 8:00 AM-5:00 PM, Wed 8:00 AM-5:00 PM, Thu 8:00 AM-5:00 PM, Fri 7:30 AM-5:30 PM, Sat Closed",,,
Clawson - Gerber Collision & Glass,331,165 W 14 Mile Rd,,Clawson,Michigan,48017,USA,(248) 435-5850,42.533153,-83.14934,"Sun Closed, Mon 8:00 AM-5:00 PM, Tue 8:00 AM-5:00 PM, Wed 8:00 AM-5:00 PM, Thu 8:00 AM-5:00 PM, Fri 8:00 AM-5:00 PM, Sat 9:00 AM-12:00 PM",,,
Clinton - Gerber Collision & Glass,332,44700 Enterprise Dr,,Clinton,Michigan,48038,USA,(586) 954-3850,42.62703,-82.911231,"Sun Closed, Mon 7:00 AM-6:00 PM, Tue 7:00 AM-6:00 PM, Wed 7:00 AM-6:00 PM, Thu 7:00 AM-6:00 PM, Fri 7:00 AM-6:00 PM, Sat 9:00 AM-12:00 PM",,,
Commerce Twp - Gerber Collision & Glass,451,3055 E West Maple Rd,,Commerce Twp,Michigan,48390,USA,248-669-1075,42.543852,-83.443999,"Sun Closed, Mon 8:00 AM-5:00 PM, Tue 8:00 AM-5:00 PM, Wed 8:00 AM-5:00 PM, Thu 8:00 AM-5:00 PM, Fri 8:00 AM-5:00 PM, Sat 9:00 AM-12:00 PM",,,
Comstock Park - Gerber Collision & Glass,267,5707 Alpine Ave,,Comstock Park,Michigan,49321,USA,(616) 785-4770,43.06761,-85.691845,"Sun Closed, Mon 7:30 AM-5:00 PM, Tue 8:00 AM-5:00 PM, Wed 8:00 AM-5:00 PM, Thu 8:00 AM-5:00 PM, Fri 7:30 AM-5:30 PM, Sat Closed",,,
Dearborn - Gerber Collision & Glass,687,25353 Trowbridge St,,Dearborn,Michigan,48124,USA,313-791-6100,42.2954739,-83.2853972,"Sun Closed, Mon 7:30 AM-5:00 PM, Tue 8:00 AM-5:00 PM, Wed 8:00 AM-5:00 PM, Thu 8:00 AM-5:00 PM, Fri 7:30 AM-5:30 PM, Sat Closed",,,
Farmington Hills - Gerber Collision & Glass,688,28829 Orchard Lake Rd,,Farmington Hills,Michigan,48334,USA,248-553-7500,42.5088826,-83.3597374,"Sun Closed, Mon 7:30 AM-5:00 PM, Tue 8:00 AM-5:00 PM, Wed 8:00 AM-5:00 PM, Thu 8:00 AM-5:00 PM, Fri 7:30 AM-5:30 PM, Sat Closed",,,
Fremont - Gerber Collision & Glass,268,7439 W 48th St,,Fremont,Michigan,49412,USA,(231) 924-2781,43.467927,-85.985292,"Sun Closed, Mon 8:00 AM-5:00 PM, Tue 8:00 AM-5:00 PM, Wed 8:00 AM-5:00 PM, Thu 8:00 AM-5:00 PM, Fri 8:00 AM-5:30 PM, Sat Closed",,,
Grand Rapids  Plainfield - Gerber Collision & Glass,269,3300 Plainfield NE,,Grand Rapids,Michigan,49525,USA,(616) 363-3545,43.023088,-85.632211,"Sun Closed, Mon 7:30 AM-5:00 PM, Tue 8:00 AM-5:00 PM, Wed 8:00 AM-5:00 PM, Thu 8:00 AM-5:00 PM, Fri 7:30 AM-5:30 PM, Sat Closed",,,
Grand Rapids (Fleet) - Gerber Collision & Glass,270,7580 Expressway Dr (Fleet),,Grand Rapids,Michigan,49548,USA,(616) 608-8360,42.826688,-85.667295,"Sun Closed, Mon 7:30 AM-5:00 PM, Tue 7:30 AM-5:00 PM, Wed 7:30 AM-5:00 PM, Thu 7:30 AM-5:00 PM, Fri 7:30 AM-5:00 PM, Sat Closed",,,
Grand Rapids  Expressway Dr - Gerber Collision & Glass,271,7580 Expressway Dr,,Grand Rapids,Michigan,49548,USA,(616) 608-8355,42.826688,-85.667295,"Sun Closed, Mon 7:30 AM-5:00 PM, Tue 8:00 AM-5:00 PM, Wed 8:00 AM-5:00 PM, Thu 8:00 AM-5:00 PM, Fri 7:30 AM-5:30 PM, Sat Closed",,,
Holland  Blue Star Hwy - Gerber Collision & Glass,273,4276 Blue Star Hwy,,Holland,Michigan,49423,USA,(616) 396-8406,42.730934,-86.116228,"Sun Closed, Mon 7:30 AM-5:00 PM, Tue 8:00 AM-5:00 PM, Wed 8:00 AM-5:00 PM, Thu 8:00 AM-5:00 PM, Fri 7:30 AM-5:30 PM, Sat Closed",,,
Holland  136th Ave - Gerber Collision & Glass,274,6259 136th Ave,,Holland,Michigan,49424,USA,(616) 786-9440,42.88264,-86.120283,"Sun Closed, Mon 7:30 AM-5:00 PM, Tue 8:00 AM-5:00 PM, Wed 8:00 AM-5:00 PM, Thu 8:00 AM-5:00 PM, Fri 7:30 AM-5:30 PM, Sat Closed",,,
Holland  Watertower Ct - Gerber Collision & Glass,275,11007 Watertower Ct,,Holland,Michigan,49424,USA,(616) 396-7079,42.803138,-86.053418,"Sun Closed, Mon 7:30 AM-5:30 PM, Tue 7:30 AM-5:30 PM, Wed 7:30 AM-5:30 PM, Thu 7:30 AM-5:30 PM, Fri 7:30 AM-5:30 PM, Sat 9:00 AM-12:00 PM",,,
Hudsonville - Gerber Collision & Glass,276,4330 New Holland St,,Hudsonville,Michigan,49426,USA,(616) 669-3960,42.855399,-85.889266,"Sun Closed, Mon 7:30 AM-5:00 PM, Tue 8:00 AM-5:00 PM, Wed 8:00 AM-5:00 PM, Thu 8:00 AM-5:00 PM, Fri 7:30 AM-5:30 PM, Sat Closed",,,
Kalamazoo  Michigan Ave - Gerber Collision & Glass,277,"5015 E Michigan Ave, Suite G",,Kalamazoo,Michigan,49048,USA,(269) 383-4450,42.290377,-85.529396,"Sun Closed, Mon 7:30 AM-5:00 PM, Tue 8:00 AM-5:00 PM, Wed 8:00 AM-5:00 PM, Thu 8:00 AM-5:00 PM, Fri 7:30 AM-5:30 PM, Sat Closed",,,
Kalamazoo  Lake St (Fleet) - Gerber Collision & Glass,278,3232 Lake St (Fleet),,Kalamazoo,Michigan,49001,USA,(269) 381-1557,42.281057,-85.539778,"Sun Closed, Mon 7:30 AM-5:00 PM, Tue 7:30 AM-5:00 PM, Wed 7:30 AM-5:00 PM, Thu 7:30 AM-5:00 PM, Fri 7:30 AM-5:00 PM, Sat Closed",,,
Kalamazoo  Stadium Dr - Gerber Collision & Glass,656,3820 Stadium Dr,,Kalamazoo,Michigan,49008,USA,269-488-0688,42.272042,-85.637519,"Sun Closed, Mon 7:30 AM-5:00 PM, Tue 8:00 AM-5:00 PM, Wed 8:00 AM-5:00 PM, Thu 8:00 AM-5:00 PM, Fri 7:30 AM-5:30 PM, Sat Closed",,,
Kentwood - Gerber Collision & Glass,272,3800 Broadmoor Ave,,Kentwood,Michigan,49512,USA,(616) 942-2827,42.894306,-85.572892,"Sun Closed, Mon 7:30 AM-5:30 PM, Tue 7:30 AM-5:30 PM, Wed 7:30 AM-5:30 PM, Thu 7:30 AM-5:30 PM, Fri 7:30 AM-5:30 PM, Sat 9:00 AM-12:00 PM",,,
Livonia - Gerber Collision & Glass,333,11727 Merriman Rd,,Livonia,Michigan,48150,USA,(734) 427-8787,42.370139,-83.353488,"Sun Closed, Mon 8:00 AM-5:00 PM, Tue 8:00 AM-5:00 PM, Wed 8:00 AM-5:00 PM, Thu 8:00 AM-5:00 PM, Fri 8:00 AM-5:00 PM, Sat 9:00 AM-12:00 PM",,,
Manistee - Gerber Collision & Glass,254,270 E Merkey Rd,,Manistee,Michigan,49660,USA,(231) 299-1060,44.227462,-86.309529,"Sun Closed, Mon 7:30 AM-5:00 PM, Tue 8:00 AM-5:00 PM, Wed 8:00 AM-5:00 PM, Thu 8:00 AM-5:00 PM, Fri 7:30 AM-5:30 PM, Sat Closed",,,
Marysville - Gerber Collision & Glass,689,1505 Michigan Ave,,Marysville,Michigan,48040,USA,810-364-6413,42.907257,-82.4793059,"Sun Closed, Mon 7:30 AM-5:00 PM, Tue 8:00 AM-5:00 PM, Wed 8:00 AM-5:00 PM, Thu 8:00 AM-5:00 PM, Fri 7:30 AM-5:30 PM, Sat Closed",,,
Muskegon  Apple Ave - Gerber Collision & Glass,279,2469 Apple Ave,,Muskegon,Michigan,49442,USA,(231) 777-7350,43.233293,-86.182199,"Sun Closed, Mon 7:30 AM-5:00 PM, Tue 8:00 AM-5:00 PM, Wed 8:00 AM-5:00 PM, Thu 8:00 AM-5:00 PM, Fri 7:30 AM-5:30 PM, Sat Closed",,,
Muskegon  Sternberg Rd - Gerber Collision & Glass,280,1908 E Sternberg Rd,,Muskegon,Michigan,49444,USA,(231) 799-9696,43.154728,-86.198023,"Sun Closed, Mon 7:30 AM-5:00 PM, Tue 8:00 AM-5:00 PM, Wed 8:00 AM-5:00 PM, Thu 8:00 AM-5:00 PM, Fri 7:30 AM-5:30 PM, Sat Closed",,,
Newaygo - Gerber Collision & Glass,281,8479 Mason Dr,,Newaygo,Michigan,49337,USA,(231) 652-9292,43.40072,-85.801306,"Sun Closed, Mon 7:30 AM-5:00 PM, Tue 8:00 AM-5:00 PM, Wed 8:00 AM-5:00 PM, Thu 8:00 AM-5:00 PM, Fri 7:30 AM-5:30 PM, Sat Closed",,,
Northville - Gerber Collision & Glass,690,17000 Northville Rd,,Northville,Michigan,48167,USA,248-344-4720,42.4092203,-83.4686224,"Sun Closed, Mon 7:30 AM-5:00 PM, Tue 8:00 AM-5:00 PM, Wed 8:00 AM-5:00 PM, Thu 8:00 AM-5:00 PM, Fri 7:30 AM-5:30 PM, Sat Closed",,,
Novi - Gerber Collision & Glass,334,25180 Novi Rd,,Novi,Michigan,48375,USA,(248) 344-4300,42.473932,-83.473934,"Sun Closed, Mon 7:00 AM-6:00 PM, Tue 7:00 AM-6:00 PM, Wed 7:00 AM-6:00 PM, Thu 7:00 AM-6:00 PM, Fri 7:00 AM-6:00 PM, Sat 9:00 AM-12:00 PM",,,
Orion - Gerber Collision & Glass,336,921 Brown Rd,,Orion,Michigan,48359,USA,(248) 393-8355,42.708072,-83.283917,"Sun Closed, Mon 8:00 AM-5:00 PM, Tue 8:00 AM-5:00 PM, Wed 8:00 AM-5:00 PM, Thu 8:00 AM-5:00 PM, Fri 8:00 AM-5:00 PM, Sat 9:00 AM-12:00 PM",,,
Plainwell - Gerber Collision & Glass,488,291 12th St,,Plainwell,Michigan,49080,USA,269-685-1783,42.441938,-85.661854,"Sun Closed, Mon 8:00 AM-5:00 PM, Tue 8:00 AM-5:00 PM, Wed 8:00 AM-5:00 PM, Thu 8:00 AM-5:00 PM, Fri 8:00 AM-5:00 PM, Sat Closed",,,
Rochester Hills - Gerber Collision & Glass,337,1998 Rochester Industrial Dr,,Rochester Hills,Michigan,48309,USA,(248) 608-9000,42.652283,-83.159059,"Sun Closed, Mon 7:00 AM-6:00 PM, Tue 7:00 AM-6:00 PM, Wed 7:00 AM-6:00 PM, Thu 7:00 AM-6:00 PM, Fri 7:00 AM-6:00 PM, Sat 9:00 AM-12:00 AM",,,
Rockford - Gerber Collision & Glass,282,1201 Northland Dr,,Rockford,Michigan,49341,USA,(616) 863-9370,43.142064,-85.551513,"Sun Closed, Mon 7:30 AM-5:00 PM, Tue 8:00 AM-5:00 PM, Wed 8:00 AM-5:00 PM, Thu 8:00 AM-5:00 PM, Fri 7:30 AM-5:30 PM, Sat Closed",,,
Roseville - Gerber Collision & Glass,443,29187 Gratiot Ave,,Roseville,Michigan,48066,USA,(586) 200-3254,42.511327,-82.928148,"Sun Closed, Mon 8:00 AM-5:00 PM, Tue 8:00 AM-5:00 PM, Wed 8:00 AM-5:00 PM, Thu 8:00 AM-5:00 PM, Fri 8:00 AM-5:00 PM, Sat 9:00 AM-12:00 AM",,,
Southfield - Gerber Collision & Glass,691,23859 Telegraph Rd,,Southfield,Michigan,48033,USA,248-356-6888,42.4637802,-83.2797281,"Sun Closed, Mon 7:30 AM-5:00 PM, Tue 8:00 AM-5:00 PM, Wed 8:00 AM-5:00 PM, Thu 8:00 AM-5:00 PM, Fri 7:30 AM-5:30 PM, Sat Closed",,,
Sterling Heights - Gerber Collision & Glass,338,6227 15 Mile Rd,,Sterling Heights,Michigan,48312,USA,(586) 264-8200,42.551303,-83.045244,"Sun Closed, Mon 7:00 AM-6:00 PM, Tue 7:00 AM-6:00 PM, Wed 7:00 AM-6:00 PM, Thu 7:00 AM-6:00 PM, Fri 7:00 AM-6:00 PM, Sat 9:00 AM-12:00 PM",,,
Traverse City - Gerber Collision & Glass,283,797 S Airport Rd W,,Traverse City,Michigan,49686,USA,(231) 929-1110,44.732842,-85.590583,"Sun Closed, Mon 7:30 AM-5:30 PM, Tue 7:30 AM-5:30 PM, Wed 7:30 AM-5:30 PM, Thu 7:30 AM-5:30 PM, Fri 7:30 AM-5:30 PM, Sat Closed",,,
Warren - Gerber Collision & Glass,339,13741 9 Mile Rd,,Warren,Michigan,48089,USA,(586) 772-8877,42.464226,-82.98392,"Sun Closed, Mon 8:00 AM-5:00 PM, Tue 8:00 AM-5:00 PM, Wed 8:00 AM-5:00 PM, Thu 8:00 AM-5:00 PM, Fri 8:00 AM-5:00 PM, Sat 9:00 AM-12:00 PM",,,
Washington - Gerber Collision & Glass,340,62386 Van Dyke Rd,,Washington,Michigan,48094,USA,(586) 752-2100,42.753178,-83.020603,"Sun Closed, Mon 8:00 AM-5:00 PM, Tue 8:00 AM-5:00 PM, Wed 8:00 AM-5:00 PM, Thu 8:00 AM-5:00 PM, Fri 8:00 AM-5:00 PM, Sat 9:00 AM-12:00 PM",,,
Waterford - Gerber Collision & Glass,341,1630 Airport Rd,,Waterford,Michigan,48327,USA,(248) 674-3191,42.661686,-83.405468,"Sun Closed, Mon 8:00 AM-5:00 PM, Tue 8:00 AM-5:00 PM, Wed 8:00 AM-5:00 PM, Thu 8:00 AM-5:00 PM, Fri 8:00 AM-5:00 PM, Sat Closed",,,
Wayne - Gerber Collision & Glass,342,38970 Michigan Ave,,Wayne,Michigan,48184,USA,(734) 326-8400,42.279199,-83.423004,"Sun Closed, Mon 8:00 AM-5:00 PM, Tue 8:00 AM-5:00 PM, Wed 8:00 AM-5:00 PM, Thu 8:00 AM-5:00 PM, Fri 8:00 AM-5:00 PM, Sat 9:00 AM-12:00 PM",,,
Woodhaven - Gerber Collision & Glass,343,23965 Allen Rd,,Woodhaven,Michigan,48183,USA,(734) 675-3400,42.133627,-83.224159,"Sun Closed, Mon 8:00 AM-5:00 PM, Tue 8:00 AM-5:00 PM, Wed 8:00 AM-5:00 PM, Thu 8:00 AM-5:00 PM, Fri 8:00 AM-5:00 PM, Sat 9:00 AM-12:00 PM",,,
Wyoming - Gerber Collision & Glass,284,2929 Burlingame Ave SW,,Wyoming,Michigan,49509,USA,(616) 406-3260,42.911491,-85.705914,"Sun Closed, Mon 7:30 AM-5:00 PM, Tue 8:00 AM-5:00 PM, Wed 8:00 AM-5:00 PM, Thu 8:00 AM-5:00 PM, Fri 7:30 AM-5:30 PM, Sat Closed",,,
Cary - Gerber Collision & Glass,109,201 Maynard Crossing Ct,,Cary,North Carolina,27513,USA,919-467-5210,35.786595,-78.812229,"Sun Closed, Mon 7:30 AM-5:30 PM, Tue 7:30 AM-5:30 PM, Wed 7:30 AM-5:30 PM, Thu 7:30 AM-5:30 PM, Fri 7:30 AM-5:30 PM, Sat Closed",,,
Charlotte  Wilkinson Blvd - Gerber Collision & Glass,625,5010 Wilkinson Blvd,,Charlotte,North Carolina,28208,USA,704-394-1898,35.231934,-80.921949,"Sun Closed, Mon 7:30 AM-5:30 PM, Tue 7:30 AM-5:30 PM, Wed 7:30 AM-5:30 PM, Thu 7:30 AM-5:30 PM, Fri 7:30 AM-5:30 PM, Sat Closed",,,
Clayton - Gerber Collision & Glass,110,11537 US Hwy 70 W,,Clayton,North Carolina,27520,USA,919-359-9200,35.652354,-78.473044,"Sun Closed, Mon 7:30 AM-5:30 PM, Tue 7:30 AM-5:30 PM, Wed 7:30 AM-5:30 PM, Thu 7:30 AM-5:30 PM, Fri 7:30 AM-5:30 PM, Sat Closed",,,
Concord - Gerber Collision & Glass,111,6013 Victory Lane,,Concord,North Carolina,28027,USA,704-454-5553,35.342919,-80.676346,"Sun Closed, Mon 7:30 AM-5:30 PM, Tue 7:30 AM-5:30 PM, Wed 7:30 AM-5:30 PM, Thu 7:30 AM-5:30 PM, Fri 7:30 AM-5:30 PM, Sat Closed",,,
Durham  Miami Blvd - Gerber Collision & Glass,112,1426 S Miami Blvd,,Durham,North Carolina,27703,USA,919-226-1135,35.95407,-78.841045,"Sun Closed, Mon 7:30 AM-5:30 PM, Tue 7:30 AM-5:30 PM, Wed 7:30 AM-5:30 PM, Thu 7:30 AM-5:30 PM, Fri 7:30 AM-5:30 PM, Sat Closed",,,
Durham  Chapel Hill - Gerber Collision & Glass,113,3410 Durham-Chapel Hill Blvd,,Durham,North Carolina,27707,USA,919-489-9067,35.972353,-78.947255,"Sun Closed, Mon 7:30 AM-5:30 PM, Tue 7:30 AM-5:30 PM, Wed 7:30 AM-5:30 PM, Thu 7:30 AM-5:30 PM, Fri 7:30 AM-5:30 PM, Sat Closed",,,
Fayetteville - Gerber Collision & Glass,114,3506 Bragg Blvd,,Fayetteville,North Carolina,28303,USA,910-764-1540,35.079757,-78.939453,"Sun Closed, Mon 7:30 AM-5:30 PM, Tue 7:30 AM-5:30 PM, Wed 7:30 AM-5:30 PM, Thu 7:30 AM-5:30 PM, Fri 7:30 AM-5:30 PM, Sat Closed",,,
Fayetteville  Fort Bragg - Gerber Collision & Glass,115,5110 Bragg Blvd,,Fayetteville,North Carolina,28303,USA,910-764-2381,35.094585,-78.955229,"Sun Closed, Mon 7:30 AM-5:30 PM, Tue 7:30 AM-5:30 PM, Wed 7:30 AM-5:30 PM, Thu 7:30 AM-5:30 PM, Fri 7:30 AM-5:30 PM, Sat Closed",,,
Fayetteville  Raeford Rd - Gerber Collision & Glass,263,5130 Raeford Rd,,Fayetteville,North Carolina,28304,USA,910-354-3988,35.043467,-78.963123,"Sun Closed, Mon 7:30 AM-5:30 PM, Tue 7:30 AM-5:30 PM, Wed 7:30 AM-5:30 PM, Thu 7:30 AM-5:30 PM, Fri 7:30 AM-5:30 PM, Sat Closed",,,
Garner - Gerber Collision & Glass,116,1429 Mechanical Blvd,,Garner,North Carolina,27529,USA,919-773-0420,35.71819,-78.629823,"Sun Closed, Mon 7:30 AM-5:30 PM, Tue 7:30 AM-5:30 PM, Wed 7:30 AM-5:30 PM, Thu 7:30 AM-5:30 PM, Fri 7:30 AM-5:30 PM, Sat Closed",,,
Gastonia - Gerber Collision & Glass,117,1978 S New Hope Rd,,Gastonia,North Carolina,28054,USA,704-864-2502,35.243504,-81.131479,"Sun Closed, Mon 7:00 AM-6:00 PM, Tue 7:00 AM-6:00 PM, Wed 7:00 AM-6:00 PM, Thu 7:00 AM-6:00 PM, Fri 7:00 AM-6:00 PM, Sat Closed",,,
Greensboro - Gerber Collision & Glass,118,712 Sunshine Way,,Greensboro,North Carolina,27409,USA,336-885-1631,36.068338,-79.958838,"Sun Closed, Mon 7:30 AM-5:30 PM, Tue 7:30 AM-5:30 PM, Wed 7:30 AM-5:30 PM, Thu 7:30 AM-5:30 PM, Fri 7:30 AM-5:30 PM, Sat Closed",,,
Greenville  10th St - Gerber Collision & Glass,681,3005 E 10th St,,Greenville,North Carolina,27858,USA,252-751-9005,35.601783,-77.336506,"Sun Closed, Mon 7:30 AM-5:30 PM, Tue 7:30 AM-5:30 PM, Wed 7:30 AM-5:30 PM, Thu 7:30 AM-5:30 PM, Fri 7:30 AM-5:30 PM, Sat Closed",,,
Greenville  Hooker Rd - Gerber Collision & Glass,684,1510 Hooker Rd,,Greenville,North Carolina,27834,USA,252-355-2800,35.5776315,-77.3908179,"Sun Closed, Mon 7:30 AM-5:30 PM, Tue 7:30 AM-5:30 PM, Wed 7:30 AM-5:30 PM, Thu 7:30 AM-5:30 PM, Fri 7:30 AM-5:30 PM, Sat Closed",,,
Havelock - Gerber Collision & Glass,119,562 US Hwy 70 W,,Havelock,North Carolina,28532,USA,252-447-3274,34.912247,-76.937268,"Sun Closed, Mon 7:30 AM-5:30 PM, Tue 7:30 AM-5:30 PM, Wed 7:30 AM-5:30 PM, Thu 7:30 AM-5:30 PM, Fri 7:30 AM-5:30 PM, Sat Closed",,,
Hickory - Gerber Collision & Glass,120,1140 US Hwy 70 SE,,Hickory,North Carolina,28602,USA,828-322-3487,35.709771,-81.316593,"Sun Closed, Mon 7:30 AM-5:30 PM, Tue 7:30 AM-5:30 PM, Wed 7:30 AM-5:30 PM, Thu 7:30 AM-5:30 PM, Fri 7:30 AM-5:30 PM, Sat Closed",,,
Highpoint - Gerber Collision & Glass,121,255 E Parris Ave,,High Point,North Carolina,27262,USA,336-841-3747,35.986745,-80.017635,"Sun Closed, Mon 7:30 AM-5:30 PM, Tue 7:30 AM-5:30 PM, Wed 7:30 AM-5:30 PM, Thu 7:30 AM-5:30 PM, Fri 7:30 AM-5:30 PM, Sat Closed",,,
Holly Springs - Gerber Collision & Glass,122,801 N Main St,,Holly Springs,North Carolina,27540,USA,919-552-3169,35.661594,-78.83643,"Sun Closed, Mon 7:30 AM-5:30 PM, Tue 7:30 AM-5:30 PM, Wed 7:30 AM-5:30 PM, Thu 7:30 AM-5:30 PM, Fri 7:30 AM-5:30 PM, Sat Closed",,,
Huntersville - Gerber Collision & Glass,123,13516 Old Statesville Rd,,Huntersville,North Carolina,28078,USA,704-875-6703,35.402921,-80.839254,"Sun Closed, Mon 7:30 AM-5:30 PM, Tue 7:30 AM-5:30 PM, Wed 7:30 AM-5:30 PM, Thu 7:30 AM-5:30 PM, Fri 7:30 AM-5:30 PM, Sat Closed",,,
Jacksonville  Onslow Dr - Gerber Collision & Glass,248,2447 Onslow Dr,,Jacksonville,North Carolina,28540,USA,(910) 347-3077,34.762454,-77.417807,"Sun Closed, Mon 7:30 AM-5:30 PM, Tue 7:30 AM-5:30 PM, Wed 7:30 AM-5:30 PM, Thu 7:30 AM-5:30 PM, Fri 7:30 AM-5:30 PM, Sat Closed",,,
Jacksonville  New Bern Hwy - Gerber Collision & Glass,552,2501 New Bern Hwy,,Jacksonville,North Carolina,28546,USA,910-938-7620,34.78829,-77.37837,"Sun Closed, Mon 7:30 AM-5:30 PM, Tue 7:30 AM-5:30 PM, Wed 7:30 AM-5:30 PM, Thu 7:30 AM-5:30 PM, Fri 7:30 AM-5:30 PM, Sat Closed",,,
Monroe - Gerber Collision & Glass,695,2460 W Roosevelt Blvd,,Monroe,North Carolina,28110,USA,704-283-2516,35.0125945,-80.5671215,"Sun Closed, Mon 7:30 AM-5:30 PM, Tue 7:30 AM-5:30 PM, Wed 7:30 AM-5:30 PM, Thu 7:30 AM-5:30 PM, Fri 7:30 AM-5:30 PM, Sat Closed",,,
Mooresville - Gerber Collision & Glass,124,111 Commons Dr,,Mooresville,North Carolina,28117,USA,704-662-6110,35.588528,-80.839344,"Sun Closed, Mon 7:00 AM-6:00 PM, Tue 7:00 AM-6:00 PM, Wed 7:00 AM-6:00 PM, Thu 7:00 AM-6:00 PM, Fri 7:00 AM-6:00 PM, Sat Closed",,,
Morganton - Gerber Collision & Glass,125,212 Old Salem Rd,,Morganton,North Carolina,28655,USA,828-437-0062,35.711271,-81.702265,"Sun Closed, Mon 7:30 AM-5:30 PM, Tue 7:30 AM-5:30 PM, Wed 7:30 AM-5:30 PM, Thu 7:30 AM-5:30 PM, Fri 7:30 AM-5:30 PM, Sat Closed",,,
Raleigh  Ice Dr - Gerber Collision & Glass,126,8813 Ice Dr,,Raleigh,North Carolina,27617,USA,919-781-3637,35.902954,-78.758983,"Sun Closed, Mon 7:30 AM-5:30 PM, Tue 7:30 AM-5:30 PM, Wed 7:30 AM-5:30 PM, Thu 7:30 AM-5:30 PM, Fri 7:30 AM-5:30 PM, Sat Closed",,,
Raleigh  Capital Blvd - Gerber Collision & Glass,127,2821 Capital Blvd,,Raleigh,North Carolina,27604,USA,919-872-2213,35.819465,-78.597228,"Sun Closed, Mon 7:00 AM-6:00 PM, Tue 7:00 AM-6:00 PM, Wed 7:00 AM-6:00 PM, Thu 7:00 AM-6:00 PM, Fri 7:00 AM-6:00 PM, Sat Closed",,,
Raleigh  New Bern Ave - Gerber Collision & Glass,128,4802 New Bern Ave,,Raleigh,North Carolina,27610,USA,919-231-5404,35.796214,-78.555455,"Sun Closed, Mon 7:30 AM-5:30 PM, Tue 7:30 AM-5:30 PM, Wed 7:30 AM-5:30 PM, Thu 7:30 AM-5:30 PM, Fri 7:30 AM-5:30 PM, Sat Closed",,,
Rocky Mount - Gerber Collision & Glass,653,2723 S Browntown Rd,,Rocky Mount,North Carolina,27804,USA,252-443-0060,35.999364,-77.834998,"Sun Closed, Mon 7:30 AM-5:30 PM, Tue 7:30 AM-5:30 PM, Wed 7:30 AM-5:30 PM, Thu 7:30 AM-5:30 PM, Fri 7:30 AM-5:30 PM, Sat Closed",,,
Statesville - Gerber Collision & Glass,662,804 Salisbury Rd,,Statesville,North Carolina,28677,USA,704-873-9631,35.7762,-80.872318,"Sun Closed, Mon 7:30 AM-5:30 PM, Tue 7:30 AM-5:30 PM, Wed 7:30 AM-5:30 PM, Thu 7:30 AM-5:30 PM, Fri 7:30 AM-5:30 PM, Sat Closed",,,
Wilmington  Carolina Beach Rd - Gerber Collision & Glass,130,3705 Carolina Beach Rd,,Wilmington,North Carolina,28412,USA,910-442-4340,34.179169,-77.926696,"Sun Closed, Mon 7:30 AM-5:30 PM, Tue 7:30 AM-5:30 PM, Wed 7:30 AM-5:30 PM, Thu 7:30 AM-5:30 PM, Fri 7:30 AM-5:30 PM, Sat Closed",,,
Wilmington  Market St - Gerber Collision & Glass,131,8125 Market St,,Wilmington,North Carolina,28411,USA,910-686-6233,34.297855,-77.795078,"Sun Closed, Mon 7:30 AM-5:30 PM, Tue 7:30 AM-5:30 PM, Wed 7:30 AM-5:30 PM, Thu 7:30 AM-5:30 PM, Fri 7:30 AM-5:30 PM, Sat Closed",,,
Las Vegas  Decatur Blvd - Gerber Collision & Glass,64,5415 S Decatur Blvd,,Las Vegas,Nevada,89118,USA,702-871-8555,36.091571,-115.208439,"Sun Closed, Mon 7:00 AM-6:00 PM, Tue 7:00 AM-6:00 PM, Wed 7:00 AM-6:00 PM, Thu 7:00 AM-6:00 PM, Fri 7:00 AM-6:00 PM, Sat 8:00 AM-12:00 PM",,,
Las Vegas  Boulder Hwy - Gerber Collision & Glass,65,5947 Boulder Hwy,,Las Vegas,Nevada,89122,USA,702-898-9600,36.09455,-115.042832,"Sun Closed, Mon 7:30 AM-5:30 PM, Tue 7:30 AM-5:30 PM, Wed 7:30 AM-5:30 PM, Thu 7:30 AM-5:30 PM, Fri 7:30 AM-5:30 PM, Sat 8:00 AM-12:00 PM",,,
Las Vegas  Cheyenne Ave - Gerber Collision & Glass,66,4920 W Cheyenne Ave,,Las Vegas,Nevada,89130,USA,702-395-6511,36.217928,-115.209253,"Sun Closed, Mon 7:30 AM-5:30 PM, Tue 7:30 AM-5:30 PM, Wed 7:30 AM-5:30 PM, Thu 7:30 AM-5:30 PM, Fri 7:30 AM-5:30 PM, Sat 8:00 AM-12:00 PM",,,
Las Vegas  Post Rd - Gerber Collision & Glass,67,3009 E Post Rd,,Las Vegas,Nevada,89120,USA,702-434-1101,36.074368,-115.109457,"Sun Closed, Mon 7:30 AM-5:30 PM, Tue 7:30 AM-5:30 PM, Wed 7:30 AM-5:30 PM, Thu 7:30 AM-5:30 PM, Fri 7:30 AM-5:30 PM, Sat 8:00 AM-12:00 PM",,,
Akron - Gerber Collision & Glass,132,25 Green St,,Akron,Ohio,44303,USA,330-376-6100,41.087192,-81.520042,"Sun Closed, Mon 8:00 AM-6:00 PM, Tue 8:00 AM-6:00 PM, Wed 8:00 AM-6:00 PM, Thu 8:00 AM-6:00 PM, Fri 8:00 AM-6:00 PM, Sat 9:00 AM-12:00 PM",,,
Austintown - Gerber Collision & Glass,133,5461 Mahoning Ave,,Austintown,Ohio,44515,USA,330-792-2647,41.098716,-80.761747,"Sun Closed, Mon 8:00 AM-6:00 PM, Tue 8:00 AM-6:00 PM, Wed 8:00 AM-6:00 PM, Thu 8:00 AM-6:00 PM, Fri 8:00 AM-6:00 PM, Sat 9:00 AM-12:00 PM",,,
Blue Ash - Gerber Collision & Glass,664,9323 Blue Ash Rd,,Blue Ash,Ohio,45242,USA,513-984-4445,39.228027,-84.381249,"Sun Closed, Mon 7:00 AM-6:00 PM, Tue 7:00 AM-6:00 PM, Wed 7:00 AM-6:00 PM, Thu 7:00 AM-6:00 PM, Fri 7:00 AM-6:00 PM, Sat 9:00 AM-12:00 PM",,,
Cincinnati  Dalton Ave - Gerber Collision & Glass,665,701 Dalton Ave,,Cincinnati,Ohio,45203,USA,513-421-2700,39.1024707,-84.5367164,"Sun Closed, Mon 8:00 AM-6:00 PM, Tue 8:00 AM-6:00 PM, Wed 8:00 AM-6:00 PM, Thu 8:00 AM-6:00 PM, Fri 8:00 AM-6:00 PM, Sat 9:00 AM-12:00 PM",,,
Cincinnati  Old St Rt 74 - Gerber Collision & Glass,666,580 Old St Rt 74,,Cincinnati,Ohio,45244,USA,513-688-7827,39.1046312,-84.2955953,"Sun Closed, Mon 8:00 AM-6:00 PM, Tue 8:00 AM-6:00 PM, Wed 8:00 AM-6:00 PM, Thu 8:00 AM-6:00 PM, Fri 8:00 AM-6:00 PM, Sat 9:00 AM-12:00 PM",,,
Columbus  Cleveland Ave - Gerber Collision & Glass,134,6101 Cleveland Ave,,Columbus,Ohio,43231,USA,614-890-0990,40.09757,-82.951019,"Sun Closed, Mon 8:00 AM-6:00 PM, Tue 8:00 AM-6:00 PM, Wed 8:00 AM-6:00 PM, Thu 8:00 AM-6:00 PM, Fri 8:00 AM-6:00 PM, Sat 9:00 AM-12:00 PM",,,
Columbus  Dublin Rd - Gerber Collision & Glass,135,1046 Dublin Rd,,Columbus,Ohio,43215,USA,614-487-0990,39.972173,-83.042351,"Sun Closed, Mon 8:00 AM-6:00 PM, Tue 8:00 AM-6:00 PM, Wed 8:00 AM-6:00 PM, Thu 8:00 AM-6:00 PM, Fri 8:00 AM-6:00 PM, Sat 9:00 AM-12:00 PM",,,
Dayton  Alex Bell Rd - Gerber Collision & Glass,557,2645 W Alex Bell Rd,,Dayton,Ohio,45459,USA,937-294-0012,39.672734,-84.214187,"Sun Closed, Mon 8:00 AM-6:00 PM, Tue 8:00 AM-6:00 PM, Wed 8:00 AM-6:00 PM, Thu 8:00 AM-6:00 PM, Fri 8:00 AM-6:00 PM, Sat Closed",,,
Dayton  Executive Blvd - Gerber Collision & Glass,558,6000 Executive Blvd,,Dayton,Ohio,45424,USA,937-233-3182,39.870163,-84.127904,"Sun Closed, Mon 8:00 AM-6:00 PM, Tue 8:00 AM-6:00 PM, Wed 8:00 AM-6:00 PM, Thu 8:00 AM-6:00 PM, Fri 8:00 AM-6:00 PM, Sat Closed",,,
Dublin - Gerber Collision & Glass,136,5820 Shier Rings Rd,,Dublin,Ohio,43016,USA,614-766-0900,40.098229,-83.146534,"Sun Closed, Mon 8:00 AM-6:00 PM, Tue 8:00 AM-6:00 PM, Wed 8:00 AM-6:00 PM, Thu 8:00 AM-6:00 PM, Fri 8:00 AM-6:00 PM, Sat 9:00 AM-12:00 PM",,,
Fairfield - Gerber Collision & Glass,667,5264 Dixie Hwy,,Fairfield,Ohio,45014,USA,513-829-8282,39.3377137,-84.5303058,"Sun Closed, Mon 8:00 AM-6:00 PM, Tue 8:00 AM-6:00 PM, Wed 8:00 AM-6:00 PM, Thu 8:00 AM-6:00 PM, Fri 8:00 AM-6:00 PM, Sat 9:00 AM-12:00 PM",,,
Grove City - Gerber Collision & Glass,137,3965 Brookham Dr,,Grove City,Ohio,43123,USA,614-594-5210,39.880813,-83.050472,"Sun Closed, Mon 8:00 AM-6:00 PM, Tue 8:00 AM-6:00 PM, Wed 8:00 AM-6:00 PM, Thu 8:00 AM-6:00 PM, Fri 8:00 AM-6:00 PM, Sat 9:00 AM-12:00 PM",,,
Hudson - Gerber Collision & Glass,652,5130 Hudson Dr,,Hudson,Ohio,44236,USA,330-342-1077,41.203867,-81.454655,"Sun Closed, Mon 8:00 AM-6:00 PM, Tue 8:00 AM-6:00 PM, Wed 8:00 AM-6:00 PM, Thu 8:00 AM-6:00 PM, Fri 8:00 AM-6:00 PM, Sat 9:00 AM-12:00 PM",,,
Lebanon - Gerber Collision & Glass,668,559 W Main St,,Lebanon,Ohio,45036,USA,513-934-0072,39.4338516,-84.2189451,"Sun Closed, Mon 8:00 AM-6:00 PM, Tue 8:00 AM-6:00 PM, Wed 8:00 AM-6:00 PM, Thu 8:00 AM-6:00 PM, Fri 8:00 AM-6:00 PM, Sat 9:00 AM-12:00 PM",,,
Madeira - Gerber Collision & Glass,669,8003 Euclid Ave,,Madeira,Ohio,45243,USA,513-561-0200,39.19047,-84.3559055,"Sun Closed, Mon 8:00 AM-6:00 PM, Tue 8:00 AM-6:00 PM, Wed 8:00 AM-6:00 PM, Thu 8:00 AM-6:00 PM, Fri 8:00 AM-6:00 PM, Sat 9:00 AM-12:00 PM",,,
Maineville - Gerber Collision & Glass,670,8849 Columbia Rd,,Maineville,Ohio,45039,USA,513-677-5544,39.3068104,-84.2809119,"Sun Closed, Mon 8:00 AM-6:00 PM, Tue 8:00 AM-6:00 PM, Wed 8:00 AM-6:00 PM, Thu 8:00 AM-6:00 PM, Fri 8:00 AM-6:00 PM, Sat 9:00 AM-12:00 PM",,,
Mayfield Heights - Gerber Collision & Glass,559,5943 Mayfield Rd,,Mayfield Heights,Ohio,44124,USA,440-449-5337,41.520856,-81.465356,"Sun Closed, Mon 8:00 AM-6:00 PM, Tue 8:00 AM-6:00 PM, Wed 8:00 AM-6:00 PM, Thu 8:00 AM-6:00 PM, Fri 8:00 AM-6:00 PM, Sat 9:00 AM-12:00 PM",,,
Milford - Gerber Collision & Glass,671,830 St Rt 28,,Milford,Ohio,45150,USA,513-831-8123,39.1894026,-84.2582747,"Sun Closed, Mon 8:00 AM-6:00 PM, Tue 8:00 AM-6:00 PM, Wed 8:00 AM-6:00 PM, Thu 8:00 AM-6:00 PM, Fri 8:00 AM-6:00 PM, Sat 9:00 AM-12:00 PM",,,
Powell - Gerber Collision & Glass,138,394 W Olentangy St,,Powell,Ohio,43065,USA,614-889-6222,40.158818,-83.085861,"Sun Closed, Mon 8:00 AM-6:00 PM, Tue 8:00 AM-6:00 PM, Wed 8:00 AM-6:00 PM, Thu 8:00 AM-6:00 PM, Fri 8:00 AM-6:00 PM, Sat 9:00 AM-12:00 PM",,,
Warren - Gerber Collision & Glass,139,3912 Youngstown Rd,,Warren,Ohio,44484,USA,(330) 399-6659,41.2161,-80.773812,"Sun Closed, Mon 8:00 AM-6:00 PM, Tue 8:00 AM-6:00 PM, Wed 8:00 AM-6:00 PM, Thu 8:00 AM-6:00 PM, Fri 8:00 AM-6:00 PM, Sat 9:00 AM-12:00 PM",,,
Wilmington - Gerber Collision & Glass,672,1850 Rombach Ave,,Wilmington,Ohio,45177,USA,937-655-8285,39.4494153,-83.7962821,"Sun Closed, Mon 8:00 AM-6:00 PM, Tue 8:00 AM-6:00 PM, Wed 8:00 AM-6:00 PM, Thu 8:00 AM-6:00 PM, Fri 8:00 AM-6:00 PM, Sat 9:00 AM-12:00 PM",,,
Youngstown - Gerber Collision & Glass,140,8090 Southern Blvd,,Youngstown,Ohio,44512,USA,330-758-6587,41.003874,-80.653716,"Sun Closed, Mon 8:00 AM-6:00 PM, Tue 8:00 AM-6:00 PM, Wed 8:00 AM-6:00 PM, Thu 8:00 AM-6:00 PM, Fri 8:00 AM-6:00 PM, Sat 9:00 AM-12:00 PM",,,
Broken Arrow - Gerber Collision & Glass,68,701 W Freeport St,,Broken Arrow,Oklahoma,74012,USA,918-251-0616,36.056087,-95.797965,"Sun Closed, Mon 7:00 AM-6:00 PM, Tue 7:00 AM-6:00 PM, Wed 7:00 AM-6:00 PM, Thu 7:00 AM-6:00 PM, Fri 7:00 AM-6:00 PM, Sat 8:00 AM-12:00 PM",,,
Claremore - Gerber Collision & Glass,69,407 W 5th St,,Claremore,Oklahoma,74017,USA,918-341-2947,36.31337,-95.613085,"Sun Closed, Mon 7:30 AM-5:30 PM, Tue 7:30 AM-5:30 PM, Wed 7:30 AM-5:30 PM, Thu 7:30 AM-5:30 PM, Fri 7:30 AM-5:30 PM, Sat 8:00 AM-12:00 PM",,,
Owasso - Gerber Collision & Glass,70,11440 E 81st St N,,Owasso,Oklahoma,74055,USA,918-272-7000,36.269789,-95.845768,"Sun Closed, Mon 7:30 AM-5:30 PM, Tue 7:30 AM-5:30 PM, Wed 7:30 AM-5:30 PM, Thu 7:30 AM-5:30 PM, Fri 7:30 AM-5:30 PM, Sat 8:00 AM-12:00 PM",,,
Sapulpa - Gerber Collision & Glass,654,1205 W Dewey Ave,,Sapulpa,Oklahoma,74066,USA,918-224-7117,35.993288,-96.139392,"Sun Closed, Mon 7:30 AM-5:30 PM, Tue 7:30 AM-5:30 PM, Wed 7:30 AM-5:30 PM, Thu 7:30 AM-5:30 PM, Fri 7:30 AM-5:30 PM, Sat 8:00 AM-12:00 PM",,,
Tulsa  Memorial Dr - Gerber Collision & Glass,655,10607 S Memorial Dr,,Tulsa,Oklahoma,74133,USA,918-369-3165,36.008673,-95.88568,"Sun Closed, Mon 7:30 AM-5:30 PM, Tue 7:30 AM-5:30 PM, Wed 7:30 AM-5:30 PM, Thu 7:30 AM-5:30 PM, Fri 7:30 AM-5:30 PM, Sat 8:00 AM-12:00 PM",,,
Kitchener - Queensway Auto Body,327,200 Gage Ave,,Kitchener,Ontario,N2M 2C8,CAN,519-576-9450,43.446909,-80.514796,"Sun Closed, Mon 8:00 AM-5:30 PM, Tue 8:00 AM-5:30 PM, Wed 8:00 AM-5:30 PM, Thu 8:00 AM-5:30 PM, Fri 8:00 AM-5:30 PM, Sat Closed",,,
Gresham - Gerber Collision & Glass,561,1661 E Powell Blvd,,Gresham,Oregon,97030,USA,503-666-4846,45.498278,-122.415492,"Sun Closed, Mon 7:30 AM-5:30 PM, Tue 7:30 AM-5:30 PM, Wed 7:30 AM-5:30 PM, Thu 7:30 AM-5:30 PM, Fri 7:30 AM-5:30 PM, Sat 8:00 AM-12:00 PM",,,
McMinnville - Gerber Collision & Glass,701,110 NE Hwy 99 W,,McMinnville,Oregon,97128,USA,503-472-5413,45.2203369,-123.197074,"Sun Closed, Mon 7:30 AM-5:30 PM, Tue 7:30 AM-5:30 PM, Wed 7:30 AM-5:30 PM, Thu 7:30 AM-5:30 PM, Fri 7:30 AM-5:30 PM, Sat Closed",,,
Milwaukie - Gerber Collision & Glass,635,16420 SE McLoughlin Blvd,,Milwaukie,Oregon,97267,USA,503-653-5500,45.404684,-122.621823,"Sun Closed, Mon 7:30 AM-5:30 PM, Tue 7:30 AM-5:30 PM, Wed 7:30 AM-5:30 PM, Thu 7:30 AM-5:30 PM, Fri 7:30 AM-5:30 PM, Sat 8:00 AM-12:00 PM",,,
Newberg - Gerber Collision & Glass,702,801 E 1st St,,Newberg,Oregon,97132,USA,503-538-2965,45.3005437,-122.9712881,"Sun Closed, Mon 7:30 AM-5:30 PM, Tue 7:30 AM-5:30 PM, Wed 7:30 AM-5:30 PM, Thu 7:30 AM-5:30 PM, Fri 7:30 AM-5:30 PM, Sat Closed",,,
Oregon City - Gerber Collision & Glass,636,128 S McLoughlin Blvd,,Oregon City,Oregon,97045,USA,503-655-1109,45.350306,-122.615393,"Sun Closed, Mon 7:30 AM-5:30 PM, Tue 7:30 AM-5:30 PM, Wed 7:30 AM-5:30 PM, Thu 7:30 AM-5:30 PM, Fri 7:30 AM-5:30 PM, Sat 8:00 AM-12:00 PM",,,
Portland  7th Ave - Gerber Collision & Glass,637,2227 SE 7th Ave,,Portland,Oregon,97214,USA,503-236-9802,45.506718,-122.659031,"Sun Closed, Mon 7:30 AM-5:30 PM, Tue 7:30 AM-5:30 PM, Wed 7:30 AM-5:30 PM, Thu 7:30 AM-5:30 PM, Fri 7:30 AM-5:30 PM, Sat 8:00 AM-12:00 PM",,,
Portland  Broadway St - Gerber Collision & Glass,638,603 NE Broadway St,,Portland,Oregon,97232,USA,503-280-1983,45.535338,-122.65933,"Sun Closed, Mon 7:30 AM-5:30 PM, Tue 7:30 AM-5:30 PM, Wed 7:30 AM-5:30 PM, Thu 7:30 AM-5:30 PM, Fri 7:30 AM-5:30 PM, Sat 8:00 AM-12:00 PM",,,
Portland  Cully Blvd - Gerber Collision & Glass,661,4225 NE Cully Blvd,,Portland,Oregon,97218,USA,503-281-2711,45.553664,-122.602784,"Sun Closed, Mon 7:30 AM-5:30 PM, Tue 7:30 AM-5:30 PM, Wed 7:30 AM-5:30 PM, Thu 7:30 AM-5:30 PM, Fri 7:30 AM-5:30 PM, Sat 8:00 AM-12:00 PM",,,
Salem  Broadway St - Gerber Collision & Glass,709,1365 Broadway St NE,,Salem,Oregon,97301,USA,503-363-9271,44.9524739,-123.0311561,"Sun Closed, Mon 7:30 AM-5:30 PM, Tue 7:30 AM-5:30 PM, Wed 7:30 AM-5:30 PM, Thu 7:30 AM-5:30 PM, Fri 7:30 AM-5:30 PM, Sat Closed",,,
Bath - Gerber Collision & Glass,142,6650 Chrisphalt Dr,,Bath,Pennsylvania,18014,USA,610-837-8724,40.718418,-75.392099,"Sun Closed, Mon 8:00 AM-5:30 PM, Tue 8:00 AM-5:30 PM, Wed 8:00 AM-5:30 PM, Thu 8:00 AM-5:30 PM, Fri 8:00 AM-5:30 PM, Sat Closed",,,
Easton - Gerber Collision & Glass,143,1000 Meyer Ln,,Easton,Pennsylvania,18045,USA,610-691-7700,40.664171,-75.301243,"Sun Closed, Mon 8:00 AM-5:30 PM, Tue 8:00 AM-5:30 PM, Wed 8:00 AM-5:30 PM, Thu 8:00 AM-5:30 PM, Fri 8:00 AM-5:30 PM, Sat Closed",,,
Fogelsville - Gerber Collision & Glass,144,153 Pennsylvania 100,,Fogelsville,Pennsylvania,18051,USA,610-395-0199,40.574972,-75.619593,"Sun Closed, Mon 8:00 AM-5:30 PM, Tue 8:00 AM-5:30 PM, Wed 8:00 AM-5:30 PM, Thu 8:00 AM-5:30 PM, Fri 8:00 AM-5:30 PM, Sat Closed",,,
Pen Argyl - Gerber Collision & Glass,145,1016 Pennsylvania Ave,,Pen Argyl,Pennsylvania,18072,USA,610-863-6648,40.856028,-75.276357,"Sun Closed, Mon 8:00 AM-5:30 PM, Tue 8:00 AM-5:30 PM, Wed 8:00 AM-5:30 PM, Thu 8:00 AM-5:30 PM, Fri 8:00 AM-5:30 PM, Sat Closed",,,
Pittsburgh  Prospect Rd - Gerber Collision & Glass,481,1735 Prospect Rd,,Pittsburgh,Pennsylvania,15236,USA,412-885-8787,40.358775,-79.958316,"Sun Closed, Mon 8:00 AM-6:00 PM, Tue 8:00 AM-6:00 PM, Wed 8:00 AM-6:00 PM, Thu 8:00 AM-6:00 PM, Fri 8:00 AM-6:00 PM, Sat 9:00 AM-12:00 PM",,,
North Battleford - Boyd Autobody & Glass,219,2491 - 98th St N,,North Battleford,Saskatchewan,S9A 3W1,CAN,306-446-3330,52.794784,-108.303424,"Sun Closed, Mon 8:00 AM-5:00 PM, Tue 8:00 AM-5:00 PM, Wed 8:00 AM-5:00 PM, Thu 8:00 AM-5:00 PM, Fri 8:00 AM-5:00 PM, Sat Closed",,,
Saskatoon - Boyd Autobody & Glass,220,225 - 103rd St E,,Saskatoon,Saskatchewan,S7N 1Y8,CAN,306-374-4585,52.129719,-106.595417,"Sun Closed, Mon 8:00 AM-5:00 PM, Tue 8:00 AM-5:00 PM, Wed 8:00 AM-5:00 PM, Thu 8:00 AM-5:00 PM, Fri 8:00 AM-5:00 PM, Sat Closed",,,
Kerrville - Gerber Glass,294,"1810 Junction Hwy, Ste 302",,Kerrville,Texas,78028,USA,(877) 743-7237,30.069114,-99.183738,"Sun Closed, Mon 7:30 AM-5:30 PM, Tue 7:30 AM-5:30 PM, Wed 7:30 AM-5:30 PM, Thu 7:30 AM-5:30 PM, Fri 7:30 AM-5:30 PM, Sat 8:00 AM-12:00 PM",,,
San Antonio - Gerber Glass,296,10805 Nacogdoches Rd,,San Antonio,Texas,78217,USA,(877) 743-7237,29.538126,-98.424749,"Sun Closed, Mon 7:30 AM-5:30 PM, Tue 7:30 AM-5:30 PM, Wed 7:30 AM-5:30 PM, Thu 7:30 AM-5:30 PM, Fri 7:30 AM-5:30 PM, Sat 8:00 AM-12:00 PM",,,
Murray - Gerber Collision & Glass,489,4460 South 500 West,,Murray,Utah,84123,USA,801-268-2638,40.675693,-111.9062,"Sun Closed, Mon 8:00 AM-5:00 PM, Tue 8:00 AM-5:00 PM, Wed 8:00 AM-5:00 PM, Thu 8:00 AM-5:00 PM, Fri 8:00 AM-5:00 PM, Sat Closed",,,
Ogden - Gerber Collision & Glass,490,3261 South Midland Dr,,Ogden,Utah,84401,USA,801-392-5599,41.20559,-112.022545,"Sun Closed, Mon 8:00 AM-5:00 PM, Tue 8:00 AM-5:00 PM, Wed 8:00 AM-5:00 PM, Thu 8:00 AM-5:00 PM, Fri 8:00 AM-5:00 PM, Sat Closed",,,
Orem - Gerber Collision & Glass,710,899 N Industrial Park Rd,,Orem,Utah,84057,USA,801-225-1966,40.3138839,-111.7289232,"Sun Closed, Mon 7:30 AM-5:30 PM, Tue 7:30 AM-5:30 PM, Wed 7:30 AM-5:30 PM, Thu 7:30 AM-5:30 PM, Fri 7:30 AM-5:30 PM, Sat Closed",,,
Salt Lake City - Gerber Collision & Glass,491,3218 South West Temple,,Salt Lake City,Utah,84115,USA,801-467-5737,40.700885,-111.89431,"Sun Closed, Mon 8:00 AM-5:00 PM, Tue 8:00 AM-5:00 PM, Wed 8:00 AM-5:00 PM, Thu 8:00 AM-5:00 PM, Fri 8:00 AM-5:00 PM, Sat Closed",,,
Sandy - Gerber Collision & Glass,538,8555 South 700 West,,Sandy,Utah,84070,USA,801-561-5061,40.595157,-111.909528,"Sun Closed, Mon 8:00 AM-5:00 PM, Tue 8:00 AM-5:00 PM, Wed 8:00 AM-5:00 PM, Thu 8:00 AM-5:00 PM, Fri 8:00 AM-5:00 PM, Sat Closed",,,
Airway Heights - Gerber Collision & Glass,657,11425 W Sunset Hwy,,Airway Heights,Washington,99001,USA,509-244-9277,47.642286,-117.569866,"Sun Closed, Mon 7:30 AM-5:30 PM, Tue 7:30 AM-5:30 PM, Wed 7:30 AM-5:30 PM, Thu 7:30 AM-5:30 PM, Fri 7:30 AM-5:30 PM, Sat 9:00 AM-12:00 PM",,,
Bellevue - Gerber Collision & Glass,71,1700 137th PL NE,,Bellevue,Washington,98005,USA,425-643-0444,47.624984,-122.157326,"Sun Closed, Mon 7:30 AM-5:30 PM, Tue 7:30 AM-5:30 PM, Wed 7:30 AM-5:30 PM, Thu 7:30 AM-5:30 PM, Fri 7:30 AM-5:30 PM, Sat 8:00 AM-12:00 PM",,,
Bellingham - Gerber Collision & Glass,72,2034 Moore St,,Bellingham,Washington,98229,USA,360-676-4584,48.757526,-122.460227,"Sun Closed, Mon 7:30 AM-5:30 PM, Tue 7:30 AM-5:30 PM, Wed 7:30 AM-5:30 PM, Thu 7:30 AM-5:30 PM, Fri 7:30 AM-5:30 PM, Sat 8:00 AM-12:00 PM",,,
Bremerton - Gerber Collision & Glass,562,327 N Montgomery Ave,,Bremerton,Washington,98312,USA,360-373-0888,47.566459,-122.652418,"Sun Closed, Mon 7:30 AM-5:30 PM, Tue 7:30 AM-5:30 PM, Wed 7:30 AM-5:30 PM, Thu 7:30 AM-5:30 PM, Fri 7:30 AM-5:30 PM, Sat 8:00 AM-12:00 PM",,,
Burlington - Gerber Collision & Glass,73,1970 S Burlington Blvd,,Burlington,Washington,98233,USA,360-757-4484,48.448873,-122.334801,"Sun Closed, Mon 7:30 AM-5:30 PM, Tue 7:30 AM-5:30 PM, Wed 7:30 AM-5:30 PM, Thu 7:30 AM-5:30 PM, Fri 7:30 AM-5:30 PM, Sat 8:00 AM-12:00 PM",,,
Everett - Gerber Collision & Glass,74,125 SW Everett Mall Way,,Everett,Washington,98204,USA,425-903-5330,47.906658,-122.235949,"Sun Closed, Mon 7:30 AM-5:30 PM, Tue 7:30 AM-5:30 PM, Wed 7:30 AM-5:30 PM, Thu 7:30 AM-5:30 PM, Fri 7:30 AM-5:30 PM, Sat 8:00 AM-12:00 PM",,,
Kent - Gerber Collision & Glass,75,821 Central Ave S,,Kent,Washington,98032,USA,253-854-2234,47.373581,-122.230816,"Sun Closed, Mon 7:30 AM-5:30 PM, Tue 7:30 AM-5:30 PM, Wed 7:30 AM-5:30 PM, Thu 7:30 AM-5:30 PM, Fri 7:30 AM-5:30 PM, Sat 8:00 AM-12:00 PM",,,
Lacey - Gerber Collision & Glass,76,1124 Carpenter Rd SE,,Lacey,Washington,98503,USA,360-455-5316,47.036399,-122.800131,"Sun Closed, Mon 7:30 AM-5:30 PM, Tue 7:30 AM-5:30 PM, Wed 7:30 AM-5:30 PM, Thu 7:30 AM-5:30 PM, Fri 7:30 AM-5:30 PM, Sat 8:00 AM-12:00 PM",,,
Lakewood - Gerber Collision & Glass,560,4001 100th St SW,,Lakewood,Washington,98499,USA,253-203-9970,47.167642,-122.491372,"Sun Closed, Mon 7:30 AM-5:30 PM, Tue 7:30 AM-5:30 PM, Wed 7:30 AM-5:30 PM, Thu 7:30 AM-5:30 PM, Fri 7:30 AM-5:30 PM, Sat 8:00 AM-12:00 PM",,,
Lynnwood - Gerber Collision & Glass,77,21101 Hwy 99 S,,Lynnwood,Washington,98036,USA,425-778-6570,47.807658,-122.325414,"Sun Closed, Mon 7:30 AM-5:30 PM, Tue 7:30 AM-5:30 PM, Wed 7:30 AM-5:30 PM, Thu 7:30 AM-5:30 PM, Fri 7:30 AM-5:30 PM, Sat 8:00 AM-12:00 PM",,,
Marysville - Gerber Collision & Glass,78,14810 Smokey Point Blvd,,Marysville,Washington,98271,USA,360-659-0855,48.130871,-122.183677,"Sun Closed, Mon 7:00 AM-6:00 PM, Tue 7:00 AM-6:00 PM, Wed 7:00 AM-6:00 PM, Thu 7:00 AM-6:00 PM, Fri 7:00 AM-6:00 PM, Sat 8:00 AM-12:00 PM",,,
Redmond - Gerber Collision & Glass,79,14955 NE 90th St,,Redmond,Washington,98052,USA,425-883-8556,47.681952,-122.140921,"Sun Closed, Mon 7:30 AM-5:30 PM, Tue 7:30 AM-5:30 PM, Wed 7:30 AM-5:30 PM, Thu 7:30 AM-5:30 PM, Fri 7:30 AM-5:30 PM, Sat 8:00 AM-12:00 PM",,,
Renton - Gerber Collision & Glass,80,365 Rainier Ave N,,Renton,Washington,98055,USA,425-430-0498,47.48753,-122.218533,"Sun Closed, Mon 7:30 AM-5:30 PM, Tue 7:30 AM-5:30 PM, Wed 7:30 AM-5:30 PM, Thu 7:30 AM-5:30 PM, Fri 7:30 AM-5:30 PM, Sat 8:00 AM-12:00 PM",,,
Seattle  17th Ave - Gerber Collision & Glass,454,9827 17th Ave SW,,Seattle,Washington,98106,USA,(206) 767-4808,47.514714,-122.356816,"Sun Closed, Mon 7:30 AM-5:30 PM, Tue 7:30 AM-5:30 PM, Wed 7:30 AM-5:30 PM, Thu 7:30 AM-5:30 PM, Fri 7:30 AM-5:30 PM, Sat 8:00 AM-12:00 PM",,,
Seattle  Thorndyke Ave - Gerber Collision & Glass,83,3441 Thorndyke Ave W,,Seattle,Washington,98119,USA,206-204-0410,47.651178,-122.378771,"Sun Closed, Mon 7:30 AM-5:30 PM, Tue 7:30 AM-5:30 PM, Wed 7:30 AM-5:30 PM, Thu 7:30 AM-5:30 PM, Fri 7:30 AM-5:30 PM, Sat 8:00 AM-12:00 PM",,,
Spokane - Gerber Collision & Glass,84,1627 E Francis Ave,,Spokane,Washington,99208,USA,509-483-4113,47.715247,-117.385751,"Sun Closed, Mon 7:30 AM-5:30 PM, Tue 7:30 AM-5:30 PM, Wed 7:30 AM-5:30 PM, Thu 7:30 AM-5:30 PM, Fri 7:30 AM-5:30 PM, Sat 8:00 AM-12:00 PM",,,
Spokane  2nd Ave - Gerber Collision & Glass,440,1318 W 2nd Ave,,Spokane,Washington,99201,USA,(509) 747-2442,47.654739,-117.431927,"Sun Closed, Mon 7:30 AM-5:30 PM, Tue 7:30 AM-5:30 PM, Wed 7:30 AM-5:30 PM, Thu 7:30 AM-5:30 PM, Fri 7:30 AM-5:30 PM, Sat 8:00 AM-12:00 PM",,,
Spokane Valley - Gerber Collision & Glass,482,3106 N Argonne Rd,,Spokane Valley,Washington,99212,USA,509-474-1933,47.685619,-117.282471,"Sun Closed, Mon 7:30 AM-5:30 PM, Tue 7:30 AM-5:30 PM, Wed 7:30 AM-5:30 PM, Thu 7:30 AM-5:30 PM, Fri 7:30 AM-5:30 PM, Sat 8:00 AM-12:00 PM",,,
Stanwood - Gerber Collision & Glass,85,8530 Cedarhome Dr,,Stanwood,Washington,98292,USA,360-629-8166,48.241783,-122.347764,"Sun Closed, Mon 7:30 AM-5:30 PM, Tue 7:30 AM-5:30 PM, Wed 7:30 AM-5:30 PM, Thu 7:30 AM-5:30 PM, Fri 7:30 AM-5:30 PM, Sat 8:00 AM-12:00 PM",,,
Woodinville - Gerber Collision & Glass,82,14201 NE 190 St,,Woodinville,Washington,98072,USA,425-486-8556,47.764697,-122.149871,"Sun Closed, Mon 7:00 AM-6:00 PM, Tue 7:00 AM-6:00 PM, Wed 7:00 AM-6:00 PM, Thu 7:00 AM-6:00 PM, Fri 7:00 AM-6:00 PM, Sat 8:00 AM-12:00 PM",,,
