store_name,store_number,address,address2,city,state,zip_code,country,phone_number,latitude,longitude,store_hours,store_type,other_fields,coming_soon
Meineke-Car Care Center,2177,2175 NE 27th Street ,,Mcminnville ,OR,97128,United States,(503) 376-9307,,,"Center Hours: Closed Now, M-F 7:30 AM - 6:00 PM, SAT 7:30 AM - 6:00 PM, SUN Closed",,,
Meineke-Car Care Center,1092,6220 St. Andrews Road ,,Irmo ,SC,29212-3124,United States,(803) 764-9652,,,"Center Hours: Closed Now, M-F 7:30 AM - 6:00 PM, SAT 7:30 AM - 4:00 PM, SUN Closed",,,
Meineke-Car Care Center,1440,15510 East Mill Plain Blvd. ,,Vancouver ,WA,98684,United States,(360) 989-3556,,,"Center Hours: Closed Now, M-F 7:30 AM - 6:00 PM, SAT 7:30 AM - 6:00 PM, SUN Closed",,,
Meineke-Car Care Center,1176,810 West 4th Street ,,Reno ,NV,89503-5203,United States,(775) 391-5161,,,"Center Hours: Closed Now, M-F 7:30 AM - 4:00 PM, SAT 8:00 AM - 4:00 PM, SUN Closed",,,
Meineke-Car Care Center,2005,710 North Aspen Avenue ,,Broken Arrow ,OK,74012,United States,(918) 615-4586,,,"Center Hours: Closed Now, M-F 7:30 AM - 6:00 PM, SAT 7:30 AM - 5:00 PM, SUN Closed",,,
Meineke-Car Care Center,731,248 Lafayette Road-Route 1 ,,Seabrook ,NH,03874-4510,United States,(603) 760-7247,,,"Center Hours: Closed Now, M-F 7:30 AM - 6:00 PM, SAT 8:00 AM - 4:00 PM, SUN Closed",,,
Meineke-Car Care Center,2129,5229 West 12th Street ,,Sioux Falls ,SD,57106,United States,(605) 782-9087,,,"Center Hours: Closed Now, M-F 7:30 AM - 6:00 PM, SAT 8:00 AM - 4:00 PM, SUN Closed",,,
Meineke-Car Care Center,4329,2085 North Hill Field Road ,,Layton ,UT,84041,United States,(801) 896-8451,,,"Center Hours: Closed Now, M-F 7:30 AM - 6:00 PM, SAT 8:00 AM - 4:00 PM, SUN Closed",,,
Meineke-Car Care Center,2715,Santa Rosa Shopping Mall Lot # 38A ,,Bayamon ,PR,00959,Puert Rico,(787) 395-7896,,,"Center Hours: Closed Now, M-F 7:00 AM - 6:00 PM, SAT 7:00 AM - 6:00 PM, SUN Closed",,,
Meineke-Car Care Center,2716,Los Jardines Shopping Center Lot A1 ,,Guaynabo ,PR,00969,Puert Rico,(787) 705-7628,,,"Center Hours: Closed Now, M-F 7:00 AM - 6:00 PM, SAT 7:00 AM - 6:00 PM, SUN Closed",,,
Meineke-Car Care Center,2282,3420 E. Fourth Plain Blvd. ,,Vancouver ,WA,98661,United States,(360) 450-0117,,,"Center Hours: Closed Now, M-F 7:30 AM - 6:00 PM, SAT 8:00 AM - 4:30 PM, SUN Closed",,,
Meineke-Car Care Center,1433,4420 Rodeo Road Rt. 27 ,,Santa Fe ,NM,87505-9700,United States,(505) 819-0912,,,"Center Hours: Closed Now, M-F 8:00 AM - 6:00 PM, SAT 8:00 AM - 4:00 PM, SUN Closed",,,
Meineke-Car Care Center,2608,861 Lila Ave ,,Milford ,OH,45150-1616,United States,(513) 924-4080,,,"Center Hours: Closed Now, M-F 8:00 AM - 6:00 PM, SAT 8:00 AM - 4:00 PM, SUN Closed",,,
Meineke-Car Care Center,1591,1812 Juan Tabo NE ,,Albuquerque ,NM,87112-4433,United States,(505) 273-8481,,,"Center Hours: Closed Now, M-F 7:30 AM - 5:30 PM, SAT 7:30 AM - 4:00 PM, SUN Closed",,,
Meineke-Car Care Center,132,7530 Colerain ,,Cincinnati ,OH,45239-5310,United States,(513) 448-0349,,,"Center Hours: Closed Now, M-F 7:30 AM - 6:00 PM, SAT 7:30 AM - 4:00 PM, SUN Closed",,,
Meineke-Car Care Center,2631,4670 South 900 East ,,Murray ,UT,84117,United States,(801) 452-7153,,,"Center Hours: Closed Now, M-F 7:30 AM - 6:00 PM, SAT 7:30 AM - 5:00 PM, SUN Closed",,,
Meineke-Car Care Center,1013,94 Kings Highway ,,East Fairfield ,CT,06825-4824,United States,(203) 864-6082,,,"Center Hours: Closed Now, M-F 7:30 AM - 6:00 PM, SAT 7:30 AM - 6:00 PM, SUN Closed",,,
Meineke-Car Care Center,2281,8721 San Pedro Drive NE ,,Albuquerque ,NM,87113,United States,(505) 273-8171,,,"Center Hours: Closed Now, M-F 7:30 AM - 6:00 PM, SAT 8:00 AM - 4:00 PM, SUN Closed",,,
Meineke-Car Care Center,2027,875 US Highway 9 ,,Manahawkin ,NJ,08050,United States,(609) 607-7126,,,"Center Hours: Closed Now, M-F 7:30 AM - 6:00 PM, SAT 7:30 AM - 4:00 PM, SUN Closed",,,
Meineke-Car Care Center,105,1295 Route 300 ,,Newburgh ,NY,12550,United States,(845) 219-5721,,,"Center Hours: Closed Now, M-F 8:00 AM - 6:00 PM, SAT 8:00 AM - 4:00 PM, SUN Closed",,,
Meineke-Car Care Center,269,7784 Montgomery Road ,,Kenwood ,OH,45236-4202,United States,(513) 713-0395,,,"Center Hours: Closed Now, M-F 7:30 AM - 6:00 PM, SAT 8:00 AM - 4:00 PM, SUN 9:00 AM - 4:00 PM",,,
Meineke-Car Care Center,1673,10754 Harrison Avenue ,,Harrison ,OH,45030,United States,(513) 202-4994,,,"Center Hours: Closed Now, M-F 7:30 AM - 6:00 PM, SAT 7:30 AM - 4:00 PM, SUN Closed",,,
Meineke-Car Care Center,162,200 North Main Street ,,Pleasantville ,NJ,08232-2118,United States,(609) 277-3661,,,"Center Hours: Closed Now, M-F 7:30 AM - 6:00 PM, SAT 7:30 AM - 6:00 PM, SUN Closed",,,
Meineke-Car Care Center,135,1745 North Olden Avenue ,,Trenton ,NJ,08638-3101,United States,(609) 359-9548,,,"Center Hours: Closed Now, M-F 8:00 AM - 6:00 PM, SAT 8:00 AM - 4:00 PM, SUN Closed",,,
Meineke-Car Care Center,2636,507 East Baltimore Pike ,,West Grove ,PA,19390,United States,(484) 643-5088,,,"Center Hours: Closed Now, M-F 7:30 AM - 6:00 PM, SAT 7:30 AM - 4:00 PM, SUN Closed",,,
Meineke-Car Care Center,555,4209 W. Lancaster Avenue ,,Downingtown ,PA,19335,United States,(610) 370-6718,,,"Center Hours: Closed Now, M-F 7:30 AM - 6:00 PM, SAT 7:30 AM - 4:00 PM, SUN Closed",,,
Meineke-Car Care Center,2505,4041 Boat Club Road Fort ,,Worth ,TX,76135,United States,(817) 349-6173,,,"Center Hours: Closed Now, M-F 7:30 AM - 6:00 PM, SAT 7:30 AM - 6:00 PM, SUN Closed",,,
Meineke-Car Care Center,1798,303 West Pulaski Hwy. ,,Elkton ,MD,21921,United States,(410) 670-5039,,,"Center Hours: Closed Now, M-F 7:30 AM - 6:00 PM, SAT 7:30 AM - 6:00 PM, SUN 9:00 AM - 4:00 PM",,,
Meineke-Car Care Center,302,125 Route 1 (Lincoln Highway) ,,Fairless Hills ,PA,19030-1007,United States,(215) 309-8821,,,"Center Hours: Closed Now, M-F 8:00 AM - 6:00 PM, SAT 8:00 AM - 4:00 PM, SUN Closed",,,
Meineke-Car Care Center,428,750 Chestnut Hill Road ,,Ogletown ,DE,19713,United States,(302) 525-8423,,,"Center Hours: Closed Now, M-F 8:00 AM - 6:00 PM, SAT 8:00 AM - 6:00 PM, SUN 9:00 AM - 4:00 PM",,,
Meineke-Car Care Center,1062,280 W Lincoln Hwy ,,Exton ,PA,19341,United States,(610) 674-0746,,,"Center Hours: Closed Now, M-F 7:30 AM - 6:00 PM, SAT 7:30 AM - 4:00 PM, SUN Closed",,,
Meineke-Car Care Center,905,815 North Easton Road ,,Doylestown ,PA,18902,United States,(215) 596-4840,,,"Center Hours: Closed Now, M-F 7:30 AM - 6:00 PM, SAT 7:30 AM - 4:00 PM, SUN Closed",,,
Meineke-Car Care Center,1077,850 U.S. Highway 206 ,,Bordentown ,NJ,08505,United States,(609) 372-2168,,,"Center Hours: Closed Now, M-F 8:00 AM - 6:00 PM, SAT 8:00 AM - 4:00 PM, SUN Closed",,,
Meineke-Car Care Center,569,1512 Kirkwood Highway ,,Wilmington ,DE,19805-4916,United States,(302) 660-0911,,,"Center Hours: Closed Now, M-F 8:00 AM - 6:00 PM, SAT 8:00 AM - 6:00 PM, SUN 9:00 AM - 4:00 PM",,,
Meineke-Car Care Center,2001,630 South West End Boulevard ,,Quakertown ,PA,18951-1410,United States,(215) 309-8816,,,"Center Hours: Closed Now, M-F 7:30 AM - 6:00 PM, SAT 7:30 AM - 4:00 PM, SUN Closed",,,
Meineke-Car Care Center,2303,1119 West Chester Pike ,,West Chester ,PA,19382,United States,(610) 816-0278,,,"Center Hours: Closed Now, M-F 7:30 AM - 6:00 PM, SAT 7:30 AM - 4:00 PM, SUN Closed",,,
Meineke-Car Care Center,227,555 Route 13 ,,Bristol ,PA,19007,United States,(215) 874-0750,,,"Center Hours: Closed Now, M-F 8:00 AM - 6:00 PM, SAT 8:00 AM - 4:00 PM, SUN Closed",,,
Meineke-Car Care Center,2295,3225 Sunset Lane ,,Hatboro ,PA,19040,United States,(215) 596-4848,,,"Center Hours: Closed Now, M-F 8:00 AM - 5:00 PM, SAT 8:00 AM - 4:00 PM, SUN Closed",,,
Meineke-Car Care Center,331,1036 West Germantown Pike ,,Norristown ,PA,19403-3906,United States,(610) 616-2584,,,"Center Hours: Closed Now, M-F 8:00 AM - 6:00 PM, SAT 8:00 AM - 4:00 PM, SUN Closed",,,
Meineke-Car Care Center,2118,933 Route 130 North ,,Burlington ,NJ,08016,United States,(609) 964-0044,,,"Center Hours: Closed Now, M-F 7:30 AM - 6:00 PM, SAT 7:30 AM - 4:00 PM, SUN Closed",,,
Meineke-Car Care Center,380,1835 Street Road ,,Bensalem ,PA,19020-4351,United States,(215) 645-5576,,,"Center Hours: Closed Now, M-F 7:30 AM - 6:00 PM, SAT 7:30 AM - 4:00 PM, SUN Closed",,,
Meineke-Car Care Center,414,1261 N. Delsea Drive ,,Vineland ,NJ,08360,United States,(856) 457-3087,,,"Center Hours: Closed Now, M-F 7:30 AM - 6:00 PM, SAT 7:30 AM - 4:00 PM, SUN Closed",,,
Meineke-Car Care Center,949,120 North Dupont Highway ,,New Castle ,DE,19720-3102,United States,(302) 414-0450,,,"Center Hours: Closed Now, M-F 8:00 AM - 6:00 PM, SAT 8:00 AM - 6:00 PM, SUN 9:00 AM - 4:00 PM",,,
Meineke-Car Care Center,2581,306 W. Central Ave ,,Paoli ,PA,19301,United States,(610) 314-7028,,,"Center Hours: Closed Now, M-F 7:30 AM - 6:00 PM, SAT 7:30 AM - 6:00 PM, SUN Closed",,,
Meineke-Car Care Center,2669,8051 Oxford Ave ,,Philadelphia ,PA,19111,United States,(267) 388-1793,,,"Center Hours: Closed Now, M-F 7:30 AM - 6:00 PM, SAT 8:00 AM - 4:00 PM, SUN Closed",,,
Meineke-Car Care Center,671,3005 Philadelphia Pike ,,Claymont ,DE,19703-2524,United States,(302) 746-2026,,,"Center Hours: Closed Now, M-F 8:00 AM - 6:00 PM, SAT 8:00 AM - 6:00 PM, SUN 9:00 AM - 4:00 PM",,,
Meineke-Car Care Center,745,3105 West Chester Pike ,,Newtown Square ,PA,19073-4329,United States,(610) 816-0268,,,"Center Hours: Closed Now, M-F 7:30 AM - 6:00 PM, SAT 7:30 AM - 6:00 PM, SUN Closed",,,
Meineke-Car Care Center,287,6140 Frankford Avenue ,,Philadelphia ,PA,19135-4409,United States,(215) 543-6813,,,"Center Hours: Closed Now, M-F 7:30 AM - 5:30 PM, SAT 7:30 AM - 4:00 PM, SUN Closed",,,
Meineke-Car Care Center,207,7600 Ridge Avenue ,,Philadelphia ,PA,19128-3138,United States,(215) 987-3557,,,"Center Hours: Closed Now, M-F 7:00 AM - 6:00 PM, SAT 7:00 AM - Call, SUN Closed",,,
Meineke-Car Care Center,563,201 U. S. Highway 130 South ,,Cinnaminson ,NJ,08077,United States,(856) 499-4764,,,"Center Hours: Closed Now, M-F 8:00 AM - 6:00 PM, SAT 8:00 AM - 5:00 PM, SUN Closed",,,
Meineke-Car Care Center,367,7825 Ogontz Avenue ,,Philadelphia ,PA,19150-1407,United States,(215) 987-5350,,,"Center Hours: Closed Now, M-F 7:30 AM - 6:00 PM, SAT 7:30 AM - 6:00 PM, SUN Closed",,,
Meineke-Car Care Center,2645,3275 CONCORD RD ,,Aston ,PA,19014,United States,(610) 816-0088,,,"Center Hours: Closed Now, M-F 7:30 AM - 6:00 PM, SAT 7:30 AM - 6:00 PM, SUN Closed",,,
Meineke-Car Care Center,373,400 State Highway # 70 ,,Marlton ,NJ,08053,United States,(856) 872-4313,,,"Center Hours: Closed Now, M-F 7:30 AM - 6:00 PM, SAT 7:30 AM - 4:00 PM, SUN Closed",,,
Meineke-Car Care Center,174,19 South White Horse Pike ,,Berlin ,NJ,08009-2323,United States,(856) 202-7715,,,"Center Hours: Closed Now, M-F 8:00 AM - 6:00 PM, SAT 8:00 AM - 4:00 PM, SUN Closed",,,
Meineke-Car Care Center,564,645 North Broad Street ,,Philadelphia ,PA,19123-2417,United States,(215) 995-4123,,,"Center Hours: Closed Now, M-F 7:30 AM - 6:00 PM, SAT 7:30 AM - 4:00 PM, SUN Closed",,,
Meineke-Car Care Center,921,9909 North East Ave. ,,Philadelphia ,PA,19115,United States,(215) 268-6028,,,"Center Hours: Closed Now, M-F 7:30 AM - 6:00 PM, SAT 7:30 AM - 4:00 PM, SUN Closed",,,
Meineke-Car Care Center,539,4846 Spruce Street ,,Philadelphia ,PA,19139-4225,United States,(215) 596-4916,,,"Center Hours: Closed Now, M-F 8:00 AM - 6:00 PM, SAT 8:00 AM - 4:00 PM, SUN Closed",,,
Meineke-Car Care Center,550,368 North Delsea Drive ,,Glassboro ,NJ,08028,United States,(856) 244-7543,,,"Center Hours: Closed Now, M-F 7:30 AM - 6:00 PM, SAT 7:30 AM - 4:00 PM, SUN 8:00 AM - 3:00 PM",,,
Meineke-Car Care Center,2439,2749 West Hunting Park ,,Philadelphia ,PA,19129,United States,(267) 528-0077,,,"Center Hours: Closed Now, M-F 8:00 AM - 6:00 PM, SAT 8:00 AM - 4:00 PM, SUN Closed",,,
Meineke-Car Care Center,2247,305 South White Horse Pike ,,Clementon ,NJ,08021,United States,(856) 344-3126,,,"Center Hours: Closed Now, M-F 7:30 AM - 6:00 PM, SAT 7:30 AM - 4:00 PM, SUN Closed",,,
Meineke-Car Care Center,366,704 West Lancaster Avenue ,,Wayne ,PA,19087,United States,(610) 365-7858,,,"Center Hours: Closed Now, M-F 7:30 AM - 6:00 PM, SAT 7:30 AM - 4:00 PM, SUN Closed",,,
Meineke-Car Care Center,696,5281 Route 42 ,,Turnersville ,NJ,08012-1701,United States,(856) 718-9964,,,"Center Hours: Closed Now, M-F 7:30 AM - 6:00 PM, SAT 7:30 AM - 4:00 PM, SUN 8:00 AM - 3:00 PM",,,
Meineke-Car Care Center,733,2217 Edgemont Avenue ,,Chester ,PA,19013-5129,United States,(484) 816-5781,,,"Center Hours: Closed Now, M-F 7:30 AM - 6:00 PM, SAT 7:30 AM - 5:00 PM, SUN Closed",,,
Meineke-Car Care Center,157,195 MacDade Boulevard ,,Darby ,PA,19023-1812,United States,(610) 228-0327,,,"Center Hours: Closed Now, M-F 7:30 AM - 6:00 PM, SAT 7:30 AM - 5:00 PM, SUN Closed",,,
Meineke-Car Care Center,59,458 Portion Road ,,Ronkonkoma ,NY,11779-4564,United States,(631) 615-7410,,,"Center Hours: Closed Now, M-F 7:30 AM - 6:00 PM, SAT 7:30 AM - 5:00 PM, SUN Closed",,,
Meineke-Car Care Center,2587,1106 N Black Horse Pike ,,Blackwood ,NJ,08012,United States,(856) 481-3082,,,"Center Hours: Closed Now, M-F 7:30 AM - 6:00 PM, SAT 7:30 AM - 4:00 PM, SUN Closed",,,
Meineke-Car Care Center,479,6811 Route 9 ,,Howell ,NJ,07731,United States,(732) 523-0908,,,"Center Hours: Closed Now, M-F 8:00 AM - 6:00 PM, SAT 8:00 AM - 4:00 PM, SUN Closed",,,
Meineke-Car Care Center,137,3411 Route 9 ,,Freehold ,NJ,07728,United States,(732) 702-0653,,,"Center Hours: Closed Now, M-F 7:30 AM - 6:00 PM, SAT 7:30 AM - 5:00 PM, SUN Closed",,,
Meineke-Car Care Center,205,504 Black Horse Pike ,,Audubon ,NJ,08059-1811,United States,(856) 473-4439,,,"Center Hours: Closed Now, M-F 7:30 AM - 6:00 PM, SAT 7:30 AM - 5:00 PM, SUN Closed",,,
Meineke-Car Care Center,294,14 Broad Street ,,Eatontown ,NJ,07724-1553,United States,(732) 982-4363,,,"Center Hours: Closed Now, M-F 7:30 AM - 6:00 PM, SAT 7:00 AM - 6:00 PM, SUN Closed",,,
Meineke-Car Care Center,2312,39 Finderne Ave. ,,Bridgewater ,NJ,08807,United States,(908) 448-2932,,,"Center Hours: Closed Now, M-F 8:00 AM - 6:00 PM, SAT 8:00 AM - 4:00 PM, SUN Closed",,,
Meineke-Car Care Center,340,2401-05 Vare Avenue ,,Philadelphia ,PA,19145,United States,(215) 309-4760,,,"Center Hours: Closed Now, M-F 8:00 AM - 6:00 PM, SAT 8:00 AM - 6:00 PM, SUN 8:00 AM - 3:00 PM",,,
Meineke-Car Care Center,327,1365 Route 46 ,,Ledgewood ,NJ,07852,United States,(973) 668-4546,,,"Center Hours: Closed Now, M-F 7:30 AM - 6:00 PM, SAT 7:30 AM - 5:00 PM, SUN Closed",,,
Meineke-Car Care Center,1701,300 Rt. 18 Mid State Mall ,,East Brunswick ,NJ,08816,United States,(732) 387-5172,,,"Center Hours: Closed Now, M-F 7:30 AM - 6:00 PM, SAT 7:30 AM - 6:00 PM, SUN Closed",,,
Meineke-Car Care Center,51,655 E. Jericho Turnpike ,,Huntington Station ,NY,11746-3609,United States,(631) 629-6059,,,"Center Hours: Closed Now, M-F 8:00 AM - 6:00 PM, SAT 8:00 AM - 6:00 PM, SUN Closed",,,
Meineke-Car Care Center,60,967 East Main Street- U.S. 1 ,,Stamford ,CT,06902,United States,(203) 998-0805,,,"Center Hours: Closed Now, M-F 8:00 AM - 5:00 PM, SAT 8:00 AM - 4:00 PM, SUN Closed",,,
Meineke-Car Care Center,148,1836 Route 27-Lincoln Highway ,,Edison ,NJ,08817,United States,(732) 640-8773,,,"Center Hours: Closed Now, M-F 7:30 AM - 6:00 PM, SAT 7:30 AM - 4:00 PM, SUN Closed",,,
Meineke-Car Care Center,545,157 S Highland Ave RT 9 ,,Ossining ,NY,10562,United States,(914) 373-6762,,,"Center Hours: Closed Now, M-F 7:30 AM - 6:00 PM, SAT 7:30 AM - 4:00 PM, SUN Closed",,,
Meineke-Car Care Center,156,235 EAST MCFARLAN ST ,,Dover ,NJ,07801-3649,United States,(973) 556-4913,,,"Center Hours: Closed Now, M-F 7:30 AM - 6:00 PM, SAT 7:30 AM - 6:00 PM, SUN Closed",,,
Meineke-Car Care Center,1987,195 Route 36 ,,Middletown ,NJ,07748,United States,(732) 201-5277,,,"Center Hours: Closed Now, M-F 7:30 AM - 6:00 PM, SAT 7:30 AM - 6:00 PM, SUN Closed",,,
Meineke-Car Care Center,353,1574F Route 23 ,,Butler ,NJ,07405,United States,(973) 283-5708,,,"Center Hours: Closed Now, M-F 8:00 AM - 6:00 PM, SAT 8:00 AM - 4:00 PM, SUN Closed",,,
Meineke-Car Care Center,2061,1049 St. Georges Avenue ,,Colonia ,NJ,07067,United States,(732) 374-3666,,,"Center Hours: Closed Now, M-F 7:30 AM - 6:00 PM, SAT 7:30 AM - 4:00 PM, SUN Closed",,,
Meineke-Car Care Center,249,3251 Hamilton Boulevard ,,South Plainfield ,NJ,07080-1203,United States,(732) 400-5185,,,"Center Hours: Closed Now, M-F 7:30 AM - 6:00 PM, SAT 7:30 AM - 4:00 PM, SUN Closed",,,
Meineke-Car Care Center,571,1162 Rossville Avenue ,,Staten Island ,NY,10309-1225,United States,(718) 355-8720,,,"Center Hours: Closed Now, M-F 7:30 AM - 6:00 PM, SAT 7:30 AM - 4:00 PM, SUN Closed",,,
Meineke-Car Care Center,1539,34 East Merrick Road ,,Valley Stream ,NY,11580,United States,(516) 341-2332,,,"Center Hours: Closed Now, M-F 8:00 AM - 6:00 PM, SAT 8:00 AM - 6:00 PM, SUN Closed",,,
Meineke-Car Care Center,1024,166 Fulton Street ,,White Plains ,NY,10606,United States,(914) 468-4711,,,"Center Hours: Closed Now, M-F 7:30 AM - 6:00 PM, SAT 7:30 AM - 4:00 PM, SUN Closed",,,
Meineke-Car Care Center,2161,1148 State Hwy 34 ,,Aberdeen ,NJ,07747,United States,(732) 705-7601,,,"Center Hours: Closed Now, M-F 7:30 AM - 6:00 PM, SAT 7:30 AM - 6:00 PM, SUN Closed",,,
Meineke-Car Care Center,112,536 Route 17 ,,North Ramsey ,NJ,07446,United States,(201) 749-5424,,,"Center Hours: Closed Now, M-F 7:30 AM - 6:00 PM, SAT 7:30 AM - 4:00 PM, SUN Closed",,,
Meineke-Car Care Center,474,530 U. S. Highway 130 ,,Hightstown ,NJ,08520-2625,United States,(609) 336-5800,,,"Center Hours: Closed Now, M-F 7:30 AM - 6:00 PM, SAT 7:30 AM - 4:00 PM, SUN Closed",,,
Meineke-Car Care Center,217,1071 Bloomfield Avenue ,,West Caldwell ,NJ,07006-7103,United States,(973) 567-7988,,,"Center Hours: Closed Now, M-F 7:30 AM - 6:00 PM, SAT 7:30 AM - 4:00 PM, SUN Closed",,,
Meineke-Car Care Center,50,3718 Hempstead Turnpike ,,Levittown ,NY,11756-5601,United States,(516) 704-9445,,,"Center Hours: Closed Now, M-F 8:00 AM - 6:00 PM, SAT 8:00 AM - 4:00 PM, SUN Closed",,,
Meineke-Car Care Center,77,207-02 Jamaica Avenue ,,Queens Village ,NY,11428-1545,United States,(718) 354-8278,,,"Center Hours: Closed Now, M-F 7:30 AM - 6:00 PM, SAT 7:30 AM - 5:00 PM, SUN Closed",,,
Meineke-Car Care Center,115,130 Rahway Avenue ,,Elizabeth ,NJ,07202-2011,United States,(908) 316-8579,,,"Center Hours: Closed Now, M-F 8:00 AM - 6:00 PM, SAT 8:00 AM - 4:00 PM, SUN Closed",,,
Meineke-Car Care Center,2721,495 St. George Ave. ,,Roselle ,NJ,07203,United States,(908) 986-3932,,,"Center Hours: Closed Now, M-F 8:00 AM - 6:00 PM, SAT 8:00 AM - 4:00 PM, SUN Closed",,,
Meineke-Car Care Center,303,1741 Coney Island Avenue ,,Brooklyn ,NY,11230-6501,United States,(718) 804-5287,,,"Center Hours: Closed Now, M-F 8:00 AM - 6:00 PM, SAT 8:00 AM - 4:00 PM, SUN Closed",,,
Meineke-Car Care Center,1171,1796 Springfield Avenue ,,Maplewood ,NJ,07040-2902,United States,(973) 821-4955,,,"Center Hours: Closed Now, M-F 7:30 AM - 5:00 PM, SAT 7:30 AM - 4:00 PM, SUN Closed",,,
Meineke-Car Care Center,511,184 Goffle Road ,,Hawthorne ,NJ,07506-3605,United States,(973) 310-2219,,,"Center Hours: Closed Now, M-F 7:30 AM - 6:00 PM, SAT 7:30 AM - 4:00 PM, SUN Closed",,,
Meineke-Car Care Center,164,4054 Boston Road ,,Bronx ,NY,10475-1109,United States,(718) 772-0527,,,"Center Hours: Closed Now, M-F 8:00 AM - 6:00 PM, SAT 8:00 AM - 4:00 PM, SUN Closed",,,
Meineke-Car Care Center,245,2097 Forest Avenue ,,Staten Island ,NY,10303-1735,United States,(718) 407-4620,,,"Center Hours: Closed Now, M-F 7:30 AM - 5:30 PM, SAT 7:30 AM - 4:00 PM, SUN Closed",,,
Meineke-Car Care Center,453,270 Pompton Ave. ,,Cedar Grove ,NJ,07009,United States,(973) 433-6986,,,"Center Hours: Closed Now, M-F 7:30 AM - 6:00 PM, SAT 7:30 AM - 4:00 PM, SUN Closed",,,
Meineke-Car Care Center,296,640 North Avenue ,,New Rochelle ,NY,10801-5715,United States,(914) 740-1152,,,"Center Hours: Closed Now, M-F 8:00 AM - 6:00 PM, SAT 8:00 AM - 4:00 PM, SUN Closed",,,
Meineke-Car Care Center,524,245 Elizabeth Avenue ,,Newark ,NJ,07108-2706,United States,(973) 536-2455,,,"Center Hours: Closed Now, M-F 7:30 AM - 6:00 PM, SAT 7:30 AM - 4:30 PM, SUN Closed",,,
Meineke-Car Care Center,2362,36-14 Broadway ,,Fair Lawn ,NJ,07410,United States,(201) 228-9807,,,"Center Hours: Closed Now, M-F 8:00 AM - 6:00 PM, SAT 8:00 AM - 4:00 PM, SUN Closed",,,
Meineke-Car Care Center,194,645 4th Avenue ,,Brooklyn ,NY,11232-1002,United States,(718) 804-5106,,,"Center Hours: Closed Now, M-F 7:30 AM - 5:30 PM, SAT 7:30 AM - 5:00 PM, SUN Closed",,,
Meineke-Car Care Center,239,655 McCarter Highway ,,Newark ,NJ,07102,United States,(973) 536-2384,,,"Center Hours: Closed Now, M-F 7:30 AM - 6:00 PM, SAT 7:30 AM - 4:00 PM, SUN Closed",,,
Meineke-Car Care Center,468,1029 Atlantic Avenue ,,Brooklyn ,NY,11238-2902,United States,(718) 618-5588,,,"Center Hours: Closed Now, M-F 7:30 AM - 5:30 PM, SAT 7:30 AM - 5:00 PM, SUN Closed",,,
Meineke-Car Care Center,317,60-17 ELIOT AVE ,,Maspeth ,NY,11378-3545,United States,(718) 417-9393,,,"Center Hours: Closed Now, M-F 7:30 AM - 6:00 PM, SAT 7:30 AM - 6:00 PM, SUN Closed",,,
Meineke-Car Care Center,1935,1613 JF Kennedy Blvd. ,,Jersey City ,NJ,07305,United States,(201) 984-4846,,,"Center Hours: Closed Now, M-F 7:30 AM - 6:00 PM, SAT 7:30 AM - 4:00 PM, SUN Closed",,,
Meineke-Car Care Center,1320,241 Bloomfield Avenue ,,Newark ,NJ,07104-1105,United States,(973) 536-2158,,,"Center Hours: Closed Now, M-F 7:30 AM - 6:00 PM, SAT 7:00 AM - 4:00 PM, SUN Closed",,,
Meineke-Car Care Center,81,351 Grand Avenue ,,Englewood ,NJ,07631-4104,United States,(201) 399-4331,,,"Center Hours: Closed Now, M-F 8:00 AM - 6:00 PM, SAT 8:00 AM - 4:00 PM, SUN Closed",,,
Meineke-Car Care Center,1740,811 Main Avenue ,,Passaic ,NJ,07055,United States,(973) 928-0815,,,"Center Hours: Closed Now, M-F 8:00 AM - 6:00 PM, SAT 8:00 AM - 4:00 PM, SUN Closed",,,
Meineke-Car Care Center,1081,3900 West Montgomery Road ,,Loveland ,OH,45140-1595,United States,(513) 760-1133,,,"Center Hours: Closed Now, M-F 7:30 AM - 6:00 PM, SAT 8:00 AM - 4:00 PM, SUN Closed",,,
Meineke-Car Care Center,325,7760 Reading Road ,,Cincinnati ,OH,45237-2141,United States,(513) 823-9240,,,"Center Hours: Closed Now, M-F 7:30 AM - 6:00 PM, SAT 7:30 AM - 5:00 PM, SUN Closed",,,
Meineke-Car Care Center,37,171 U.S. Highway 46 ,,West Lodi ,NJ,07644-3603,United States,(973) 813-4113,,,"Center Hours: Closed Now, M-F 7:30 AM - 5:30 PM, SAT 7:30 AM - 4:00 PM, SUN Closed",,,
Meineke-Car Care Center,726,700 Tonnele Ave ,,Jersey City ,NJ,07307,United States,(201) 898-0901,,,"Center Hours: Closed Now, M-F 7:30 AM - 6:00 PM, SAT 7:30 AM - 4:30 PM, SUN Closed",,,
Meineke-Car Care Center,67,6500 Kennedy Boulevard ,,West New York ,NJ,07093-5313,United States,(201) 293-0104,,,"Center Hours: Closed Now, M-F 8:00 AM - 6:00 PM, SAT 8:00 AM - 4:00 PM, SUN Closed",,,
Meineke-Car Care Center,791,606 Northland Blvd ,,Tri-County Forest Park ,OH,45240,United States,(513) 401-7592,,,"Center Hours: Closed Now, M-F 7:30 AM - 6:00 PM, SAT 7:30 AM - 5:00 PM, SUN Closed",,,
Meineke-Car Care Center,1846,4980 Western Center Boulevard ,,Fort Worth ,TX,76137,United States,(817) 576-1422,,,"Center Hours: Closed Now, M-F 7:30 AM - 6:00 PM, SAT 7:30 AM - 6:00 PM, SUN Closed",,,
Meineke-Car Care Center,186,8914 Church Avenue ,,Brooklyn ,NY,11236-1005,United States,(718) 498-2100,,,"Center Hours: Closed Now, M-F 7:30 AM - 5:30 PM, SAT 7:30 AM - 5:00 PM, SUN Closed",,,
Meineke-Car Care Center,2478,820 SW Green Oaks ,,Arlington ,TX,76017,United States,(682) 238-5326,,,"Center Hours: Closed Now, M-F 7:30 AM - 6:00 PM, SAT 7:30 AM - 5:00 PM, SUN Closed",,,
Meineke-Car Care Center,2479,3201 W Pioneer Pkwy ,,Pantego ,TX,76013,United States,(817) 264-7719,,,"Center Hours: Closed Now, M-F 7:30 AM - 6:00 PM, SAT 7:30 AM - 5:00 PM, SUN Closed",,,
Meineke-Car Care Center,2085,8401 N. Harwood Road ,,North Richland Hills ,TX,76180,United States,(817) 918-4130,,,"Center Hours: Closed Now, M-F 7:30 AM - 6:00 PM, SAT 7:30 AM - 6:00 PM, SUN Closed",,,
Meineke-Car Care Center,4169,5980 Poly Webb Road ,,Arlington ,TX,76016,United States,(817) 476-1272,,,"Center Hours: Closed Now, M-F 7:30 AM - 6:00 PM, SAT 7:30 AM - 5:00 PM, SUN Closed",,,
Meineke-Car Care Center,456,316 River Road ,,North Arlington ,NJ,07031,United States,(201) 299-6390,,,"Center Hours: Closed Now, M-F 7:30 AM - 6:00 PM, SAT 7:30 AM - 4:00 PM, SUN Closed",,,
Meineke-Car Care Center,2487,195 N Stonebridge Drive ,,Mckinney ,TX,75071,United States,(469) 213-8408,,,"Center Hours: Closed Now, M-F 7:30 AM - 6:00 PM, SAT 7:30 AM - 6:00 PM, SUN Closed",,,
Meineke-Car Care Center,2098,11613 East Northwest Highway ,,Dallas ,TX,75218,United States,(214) 270-1387,,,"Center Hours: Closed Now, M-F 7:30 AM - 6:00 PM, SAT 7:30 AM - 4:00 PM, SUN Closed",,,
Meineke-Car Care Center,2316,5615 Broadway Blvd. ,,Garland ,TX,75043,United States,(972) 905-6953,,,"Center Hours: Closed Now, M-F 7:30 AM - 6:00 PM, SAT 7:30 AM - 5:00 PM, SUN Closed",,,
Meineke-Car Care Center,2252,217 Coit Road ,,Plano ,TX,75075,United States,(972) 372-9311,,,"Center Hours: Closed Now, M-F 7:30 AM - 6:00 PM, SAT 7:30 AM - 4:00 PM, SUN Closed",,,
Meineke-Car Care Center,4180,1911 West 15th Street ,,Plano ,TX,75075,United States,(972) 468-0808,,,"Center Hours: Closed Now, M-F 7:30 AM - 6:00 PM, SAT 7:30 AM - 4:00 PM, SUN Closed",,,
Meineke-Car Care Center,1730,1506 FM Road 157 N ,,Mansfield ,TX,76063,United States,(817) 405-4383,,,"Center Hours: Closed Now, M-F 7:30 AM - 6:00 PM, SAT 7:30 AM - 6:00 PM, SUN Closed",,,
Meineke-Car Care Center,2300,3461 W. FM-544 ,,Wylie ,TX,75098,United States,(972) 468-0905,,,"Center Hours: Closed Now, M-F 7:30 AM - 6:00 PM, SAT 7:30 AM - 4:00 PM, SUN Closed",,,
Meineke-Car Care Center,2513,1411 NW Broad Street ,,Murfreesboro ,TN,37129,United States,(615) 713-2375,,,"Center Hours: Closed Now, M-F 7:30 AM - 6:00 PM, SAT 7:30 AM - 4:00 PM, SUN Closed",,,
Meineke-Car Care Center,1332,216 Loudon Road ,,Concord ,NH,03301,United States,(603) 369-6392,,,"Center Hours: Closed Now, M-F 7:30 AM - 6:00 PM, SAT 7:30 AM - 4:00 PM, SUN Closed",,,
Meineke-Car Care Center,1672,9339 Princeton-Glendale Road ,,West Chester ,OH,45011,United States,(513) 816-0310,,,"Center Hours: Closed Now, M-F 7:30 AM - 6:00 PM, SAT 7:30 AM - Call, SUN Closed",,,
Meineke-Car Care Center,727,227 Daniel Webster Highway ,,Merrimack ,NH,03054-4807,United States,(603) 261-2302,,,"Center Hours: Closed Now, M-F 7:30 AM - 6:00 PM, SAT 8:00 AM - 4:00 PM, SUN Closed",,,
Meineke-Car Care Center,1331,22 East Hollis Street ,,Nashua ,NH,03060,United States,(603) 718-3701,,,"Center Hours: Closed Now, M-F 7:30 AM - 6:00 PM, SAT 7:30 AM - 4:00 PM, SUN Closed",,,
Meineke-Car Care Center,689,88 Route 101A ,,Amherst ,NH,03031,United States,(603) 769-3019,,,"Center Hours: Closed Now, M-F 7:30 AM - 5:30 PM, SAT 7:30 AM - 4:00 PM, SUN Closed",,,
Meineke-Car Care Center,2369,1810 N Story Rd ,,Irving ,TX,75061,United States,(972) 893-1312,,,"Center Hours: Closed Now, M-F 7:30 AM - 6:00 PM, SAT 7:30 AM - 4:00 PM, SUN Closed",,,
Meineke-Car Care Center,384,7 Crystal Avenue ,,Derry ,NH,03038-2415,United States,(603) 505-4051,,,"Center Hours: Closed Now, M-F 7:30 AM - 6:00 PM, SAT 7:30 AM - 4:00 PM, SUN Closed",,,
Meineke-Car Care Center,794,899 Central Avenue ,,Dover ,NH,03820,United States,(603) 617-4634,,,"Center Hours: Closed Now, M-F 7:30 AM - 6:00 PM, SAT 7:30 AM - 4:00 PM, SUN Closed",,,
Meineke-Car Care Center,4241,1550 West Main Street ,,Lewisville ,TX,75067,United States,(972) 301-8377,,,"Center Hours: Closed Now, M-F 7:30 AM - 6:00 PM, SAT 7:30 AM - 5:00 PM, SUN Closed",,,
Meineke-Car Care Center,1064,50 Winthrop Ave ,,Lawrence ,MA,01843,United States,(978) 965-2887,,,"Center Hours: Closed Now, M-F 7:30 AM - 6:00 PM, SAT 7:30 AM - 4:00 PM, SUN Closed",,,
Meineke-Car Care Center,533,323 South Broadway ,,Salem ,NH,03079-4522,United States,(603) 952-3231,,,"Center Hours: Closed Now, M-F 7:00 AM - 6:00 PM, SAT 7:30 AM - 4:00 PM, SUN Closed",,,
Meineke-Car Care Center,332,13 Plaistow Road Route 125 ,,Plaistow ,NH,03865,United States,(603) 819-4233,,,"Center Hours: Closed Now, M-F 7:30 AM - 6:00 PM, SAT 7:30 AM - 4:00 PM, SUN Closed",,,
Meineke-Car Care Center,1114,2200 Lafayette Road ,,Portsmouth ,NH,03801-5609,United States,(603) 319-4998,,,"Center Hours: Closed Now, M-F 7:30 AM - 6:00 PM, SAT 7:30 AM - Call, SUN Closed",,,
Meineke-Car Care Center,2004,4751 South Memorial Drive ,,Tulsa ,OK,74145,United States,(918) 641-4879,,,"Center Hours: Closed Now, M-F 7:30 AM - 6:00 PM, SAT 7:30 AM - 5:00 PM, SUN Closed",,,
Meineke-Car Care Center,491,168 Eastern Avenue ,,Gloucester ,MA,01930-1808,United States,(978) 381-5739,,,"Center Hours: Closed Now, M-F 7:30 AM - 6:00 PM, SAT 7:30 AM - 4:00 PM, SUN Closed",,,
Meineke-Car Care Center,2342,790 Merritt Boulevard ,,Dundalk ,MD,21222,United States,(410) 934-0724,,,"Center Hours: Closed Now, M-F 7:30 AM - 6:00 PM, SAT 7:30 AM - 4:00 PM, SUN Closed",,,
Meineke-Car Care Center,229,1930 Prater Way ,,Sparks ,NV,89431-4707,United States,(775) 624-7191,,,"Center Hours: Closed Now, M-F 8:00 AM - 5:00 PM, SAT 8:00 AM - 4:00 PM, SUN Closed",,,
Meineke-Car Care Center,1901,131 Farmington Road ,,Rochester ,NH,03867,United States,(603) 280-4618,,,"Center Hours: Closed Now, M-F 7:30 AM - 6:00 PM, SAT 7:30 AM - 4:00 PM, SUN Closed",,,
Meineke-Car Care Center,814,3425 North Chatham Road ,,Ellicott City ,MD,21042-3905,United States,(410) 690-4234,,,"Center Hours: Closed Now, M-F 7:30 AM - 6:00 PM, SAT 7:30 AM - 6:00 PM, SUN Closed",,,
Meineke-Car Care Center,1351,4497 Penn Avenue ,,Sinking Spring ,PA,19608,United States,(610) 314-7222,,,"Center Hours: Closed Now, M-F 7:30 AM - 6:00 PM, SAT 7:30 AM - 4:00 PM, SUN Closed",,,
Meineke-Car Care Center,586,2825 Kietzke Lane ,,Reno ,NV,89502-4353,United States,(775) 432-0550,,,"Center Hours: Closed Now, M-F 7:30 AM - 5:00 PM, SAT 8:00 AM - 4:00 PM, SUN Closed",,,
Meineke-Car Care Center,670,1233 Liberty Road-Route 26 ,,Eldersburg ,MD,21784,United States,(410) 970-4445,,,"Center Hours: Closed Now, M-F 7:30 AM - 6:00 PM, SAT 7:30 AM - 4:00 PM, SUN Closed",,,
Meineke-Car Care Center,298,9918 York Road ,,Cockeysville ,MD,21030-3401,United States,(410) 216-4047,,,"Center Hours: Closed Now, M-F 7:30 AM - 6:00 PM, SAT 7:30 AM - 4:00 PM, SUN Closed",,,
Meineke-Car Care Center,1184,1040 South State Street ,,Ephrata ,PA,17522-2355,United States,(717) 271-7563,,,"Center Hours: Closed Now, M-F 7:30 AM - 6:00 PM, SAT 7:30 AM - 4:00 PM, SUN Closed",,,
Meineke-Car Care Center,828,1220 Manheim Pike ,,Lancaster ,PA,17601-3122,United States,(717) 553-0471,,,"Center Hours: Closed Now, M-F 7:30 AM - 6:00 PM, SAT 7:30 AM - 4:00 PM, SUN Closed",,,
Meineke-Car Care Center,712,1401 East Chocolate Avenue ,,Hershey ,PA,17033-1165,United States,(717) 508-4253,,,"Center Hours: Closed Now, M-F 7:30 AM - 6:00 PM, SAT 7:30 AM - 4:00 PM, SUN Closed",,,
Meineke-Car Care Center,251,5520 Baltimore Nat'L PIKE RT40 ,,Catonsville ,MD,21228,United States,(410) 690-4168,,,"Center Hours: Closed Now, M-F 7:30 AM - 6:00 PM, SAT 7:30 AM - 6:00 PM, SUN 9:00 AM - 3:00 PM",,,
Meineke-Car Care Center,240,6510 Carlisle Pike ,,Mechanicsburg ,PA,17050,United States,(717) 516-2604,,,"Center Hours: Closed Now, M-F 7:30 AM - 6:00 PM, SAT 7:30 AM - 5:00 PM, SUN Closed",,,
Meineke-Car Care Center,495,4509 Jonestown Road ,,Harrisburg ,PA,17109-6213,United States,(717) 695-8723,,,"Center Hours: Closed Now, M-F 7:30 AM - 6:00 PM, SAT 7:30 AM - 5:00 PM, SUN Closed",,,
Meineke-Car Care Center,2639,855 South Queen Street ,,York ,PA,17403,United States,(717) 814-5282,,,"Center Hours: Closed Now, M-F 7:30 AM - 6:00 PM, SAT 7:30 AM - 4:00 PM, SUN Closed",,,
Meineke-Car Care Center,1314,1775 Rodney Road ,,York ,PA,17408,United States,(717) 781-2898,,,"Center Hours: Closed Now, M-F 7:30 AM - 6:00 PM, SAT 7:30 AM - 6:00 PM, SUN Closed",,,
Meineke-Car Care Center,70,3149 South State Street ,,Salt Lake City ,UT,84115-3822,United States,(801) 448-7926,,,"Center Hours: Closed Now, M-F 8:00 AM - 6:00 PM, SAT 8:00 AM - 5:00 PM, SUN Closed",,,
Meineke-Car Care Center,2596,2301 E Market Street ,,York ,PA,17402,United States,(717) 819-1759,,,"Center Hours: Closed Now, M-F 7:30 AM - 6:00 PM, SAT 7:30 AM - 4:00 PM, SUN Closed",,,
Meineke-Car Care Center,820,341 Broad Street ,,Sumter ,SC,29150-4152,United States,(803) 720-5686,,,"Center Hours: Closed Now, M-F 7:30 AM - 6:00 PM, SAT 7:30 AM - 4:00 PM, SUN Closed",,,
Meineke-Car Care Center,892,3098 Paxton Street ,,Harrisburg ,PA,17111-1327,United States,(717) 461-9015,,,"Center Hours: Closed Now, M-F 7:30 AM - 6:00 PM, SAT 7:30 AM - 4:00 PM, SUN Closed",,,
Meineke-Car Care Center,2158,4238 S. Redwood Road ,,Taylorsville ,UT,84123,United States,(801) 839-4887,,,"Center Hours: Closed Now, M-F 8:00 AM - 6:00 PM, SAT 8:00 AM - 4:00 PM, SUN Closed",,,
Meineke-Car Care Center,99,7604 Harford Road ,,Baltimore ,MD,21234-6402,United States,(410) 657-2847,,,"Center Hours: Closed Now, M-F 7:00 AM - 7:00 PM, SAT 7:00 AM - 7:00 PM, SUN 9:00 AM - 5:00 PM",,,
Meineke-Car Care Center,1738,4429 Hard Scrabble Road ,,Columbia ,SC,29229,United States,(803) 764-9970,,,"Center Hours: Closed Now, M-F 7:30 AM - 6:00 PM, SAT 7:30 AM - 4:00 PM, SUN Closed",,,
Meineke-Car Care Center,695,144 Rubber Avenue ,,Naugatuck ,CT,06770-3951,United States,(203) 490-4090,,,"Center Hours: Closed Now, M-F 7:30 AM - 6:00 PM, SAT 7:30 AM - 4:00 PM, SUN Closed",,,
Meineke-Car Care Center,131,536 Medford Avenue ,,Patchogue ,NY,11772-1321,United States,(631) 317-2755,,,"Center Hours: Closed Now, M-F 7:30 AM - 6:00 PM, SAT 7:00 AM - 5:00 PM, SUN Closed",,,
Meineke-Car Care Center,122,1175 Whalley Avenue ,,New Haven ,CT,06515-1758,United States,(203) 800-7122,,,"Center Hours: Closed Now, M-F 7:30 AM - 6:00 PM, SAT 7:30 AM - 6:00 PM, SUN Closed",,,
Meineke-Car Care Center,53,258 Middle Country Road ,,Coram ,NY,11727,United States,(631) 946-8738,,,"Center Hours: Closed Now, M-F 8:00 AM - 6:00 PM, SAT 8:00 AM - 4:30 PM, SUN Closed",,,
Meineke-Car Care Center,476,820 Boston Post Road Old ,,Saybrook ,CT,06475-2129,United States,(860) 577-2690,,,"Center Hours: Closed Now, M-F 7:30 AM - 6:00 PM, SAT 7:30 AM - 6:00 PM, SUN Closed",,,
Meineke-Car Care Center,440,472 Main Street ,,Ansonia ,CT,06401-2307,United States,(203) 446-4432,,,"Center Hours: Closed Now, M-F 7:30 AM - 6:00 PM, SAT 7:30 AM - 6:00 PM, SUN Closed",,,
Meineke-Car Care Center,121,70 Bridgeport Avenue-Route 1 ,,Milford ,CT,06460,United States,(203) 701-8630,,,"Center Hours: Closed Now, M-F 7:30 AM - 6:00 PM, SAT 7:30 AM - 6:00 PM, SUN Closed",,,
Meineke-Car Care Center,1256,2295 Vestal Parkway ,,East Vestal ,NY,13850,United States,(607) 744-6948,,,"Center Hours: Closed Now, M-F 7:30 AM - 6:00 PM, SAT 7:30 AM - 6:00 PM, SUN Closed",,,
Meineke-Car Care Center,54,760 Wolcott Street ,,Waterbury ,CT,06705-1314,United States,(203) 721-7302,,,"Center Hours: Closed Now, M-F 7:30 AM - 6:00 PM, SAT 7:30 AM - 6:00 PM, SUN Closed",,,
Meineke-Car Care Center,966,1191 North Colony Road ,,Wallingford ,CT,06492,United States,(203) 679-9976,,,"Center Hours: Closed Now, M-F 7:30 AM - 6:00 PM, SAT 7:30 AM - 4:00 PM, SUN Closed",,,
Meineke-Car Care Center,1420,1434 Upper Front Street ,,Binghamton ,NY,13901,United States,(607) 296-0948,,,"Center Hours: Closed Now, M-F 7:30 AM - 6:00 PM, SAT 7:30 AM - 6:00 PM, SUN Closed",,,
Meineke-Car Care Center,316,471 West Main St. ,,Branford ,CT,06405-3413,United States,(203) 208-8649,,,"Center Hours: Closed Now, M-F 7:30 AM - 6:00 PM, SAT 7:30 AM - 6:00 PM, SUN Closed",,,
Meineke-Car Care Center,180,1030 Montauk Highway ,,Mastic ,NY,11950-2900,United States,(631) 729-0288,,,"Center Hours: Closed Now, M-F 7:30 AM - 6:00 PM, SAT 7:30 AM - 5:00 PM, SUN Closed",,,
Meineke-Car Care Center,722,585 Main Street ,,Monroe ,CT,06468,United States,(203) 590-1242,,,"Center Hours: Closed Now, M-F 7:30 AM - 6:00 PM, SAT 7:30 AM - 6:00 PM, SUN Closed",,,
Meineke-Car Care Center,125,1 Main Street ,,Danbury ,CT,06810-8011,United States,(203) 501-1582,,,"Center Hours: Closed Now, M-F 7:30 AM - 6:00 PM, SAT 7:30 AM - 5:00 PM, SUN Closed",,,
Meineke-Car Care Center,214,350 Atlantic City Boulevard ,,South Toms River ,NJ,08757,United States,(732) 606-4690,,,"Center Hours: Closed Now, M-F 7:30 AM - 6:00 PM, SAT 7:30 AM - 6:00 PM, SUN Closed",,,
Meineke-Car Care Center,482,1897 Brighton Henrietta T.L. Road ,,Rochester ,NY,14623-2509,United States,(585) 666-0742,,,"Center Hours: Closed Now, M-F 7:30 AM - 6:00 PM, SAT 7:30 AM - 6:00 PM, SUN Closed",,,
Meineke-Car Care Center,768,75 County Road 39 ,,Southampton ,NY,11968,United States,(631) 259-6838,,,"Center Hours: Closed Now, M-F 7:30 AM - 6:00 PM, SAT 7:30 AM - 4:00 PM, SUN Closed",,,
Meineke-Car Care Center,45,497 Brick Boulevard ,,Brick Town ,NJ,08723-6055,United States,(732) 965-3313,,,"Center Hours: Closed Now, M-F 7:30 AM - 5:00 PM, SAT 7:30 AM - 4:00 PM, SUN Closed",,,
Meineke-Car Care Center,1113,3147 Lake Road ,,Horseheads ,NY,14845-3117,United States,(607) 442-6443,,,"Center Hours: Closed Now, M-F 8:00 AM - 4:30 PM, SAT 8:00 AM - 4:00 PM, SUN Closed",,,
Meineke-Car Care Center,146,621 Winsted Road ,,Torrington ,CT,06790-2934,United States,(860) 626-5289,,,"Center Hours: Closed Now, M-F 7:30 AM - 6:00 PM, SAT 7:30 AM - 4:00 PM, SUN Closed",,,
Meineke-Car Care Center,2191,226 Old Bridge Street Building A ,,East Syracuse ,NY,13057,United States,(315) 748-5764,,,"Center Hours: Closed Now, M-F 7:30 AM - 6:00 PM, SAT 7:30 AM - 4:00 PM, SUN Closed",,,
Meineke-Car Care Center,140,392 West Main Street ,,Meriden ,CT,06451-3802,United States,(203) 599-0788,,,"Center Hours: Closed Now, M-F 7:30 AM - 6:00 PM, SAT 7:30 AM - 4:00 PM, SUN Closed",,,
Meineke-Car Care Center,607,1312 South Dupont Highway ,,Dover ,DE,19901-4404,United States,(302) 257-6638,,,"Center Hours: Closed Now, M-F 7:30 AM - 6:00 PM, SAT 7:30 AM - 4:00 PM, SUN Closed",,,
Meineke-Car Care Center,520,3955 Harlem Road ,,Amherst ,NY,14226-4705,United States,(716) 262-9691,,,"Center Hours: Closed Now, M-F 8:00 AM - 6:00 PM, SAT 8:00 AM - 4:00 PM, SUN Closed",,,
Meineke-Car Care Center,2020,1021 Central Avenue ,,Albany ,NY,12205,United States,(518) 708-6944,,,"Center Hours: Closed Now, M-F 7:30 AM - 6:00 PM, SAT 7:30 AM - 6:00 PM, SUN Closed",,,
Meineke-Car Care Center,787,967 Rt U S 22 Memorial Pkwy ,,Phillipsburg ,NJ,08865,United States,(908) 777-0326,,,"Center Hours: Closed Now, M-F 7:30 AM - 6:00 PM, SAT 7:30 AM - 5:00 PM, SUN Closed",,,
Meineke-Car Care Center,2160,1458 Chestnut St. ,,Emmaus ,PA,18049,United States,(610) 628-3495,,,"Center Hours: Closed Now, M-F 7:00 AM - 6:00 PM, SAT 7:00 AM - 4:00 PM, SUN Closed",,,
Meineke-Car Care Center,530,1517 Stefko Boulevard ,,Bethlehem ,PA,18017-6228,United States,(610) 726-1614,,,"Center Hours: Closed Now, M-F 7:30 AM - 6:00 PM, SAT 7:30 AM - 4:00 PM, SUN Closed",,,
Meineke-Car Care Center,263,1634 Northampton Street ,,Easton ,PA,18042-3161,United States,(610) 421-4328,,,"Center Hours: Closed Now, M-F 7:30 AM - 6:00 PM, SAT 7:30 AM - 6:00 PM, SUN Closed",,,
Meineke-Car Care Center,691,1611 North 9th St. Suite 100 ,,Stroudsburg ,PA,18360-8209,United States,(570) 420-7289,,,"Center Hours: Closed Now, M-F 8:00 AM - 5:30 PM, SAT 7:30 AM - 4:00 PM, SUN Closed",,,
Meineke-Car Care Center,1019,2717 MacArthur Road ,,Whitehall ,PA,18052-3632,United States,(484) 268-1325,,,"Center Hours: Closed Now, M-F 7:30 AM - 6:00 PM, SAT 7:30 AM - 4:00 PM, SUN Closed",,,
Meineke-Car Care Center,529,1744 South 4th Street ,,Allentown ,PA,18103-4924,United States,(610) 857-7000,,,"Center Hours: Closed Now, M-F 7:30 AM - 6:00 PM, SAT 7:30 AM - 5:00 PM, SUN Closed",,,
Meineke-Car Care Center,381,716 Ulster Avenue ,,Kingston ,NY,12401-1710,United States,(845) 768-3645,,,"Center Hours: Closed Now, M-F 7:30 AM - 6:00 PM, SAT 7:30 AM - 4:00 PM, SUN 9:00 AM - 4:00 PM",,,
Meineke-Car Care Center,1542,2607 West 41st Street ,,Sioux Falls ,SD,57105,United States,(605) 610-9993,,,"Center Hours: Closed Now, M-F 7:30 AM - 6:00 PM, SAT 8:00 AM - 4:00 PM, SUN Closed",,,
Meineke-Car Care Center,398,119 Rantoul Street ,,Beverly ,MA,01915-4239,United States,(978) 522-3193,,,"Center Hours: Closed Now, M-F 8:00 AM - 5:30 PM, SAT 8:00 AM - 4:00 PM, SUN Closed",,,
Meineke-Car Care Center,682,3125 Cranberry Hwy Rt 28 ,,East Wareham ,MA,02538,United States,(508) 743-7042,,,"Center Hours: Closed Now, M-F 7:30 AM - 6:00 PM, SAT 7:30 AM - 6:00 PM, SUN Closed",,,
Meineke-Car Care Center,425,948 Gorham Street ,,Lowell ,MA,01852,United States,(978) 703-8519,,,"Center Hours: Closed Now, M-F 7:30 AM - 6:00 PM, SAT 7:30 AM - 4:00 PM, SUN Closed",,,
Meineke-Car Care Center,1121,411 Broad Street Route 1A ,,Lynn ,MA,01901-1514,United States,(781) 731-9867,,,"Center Hours: Closed Now, M-F 7:30 AM - 6:00 PM, SAT 7:30 AM - 4:00 PM, SUN 9:00 AM - 3:00 PM",,,
Meineke-Car Care Center,1408,287 Main Street ,,Wilmington ,MA,01887,United States,(978) 253-0474,,,"Center Hours: Closed Now, M-F 7:30 AM - 6:00 PM, SAT 7:30 AM - 4:00 PM, SUN Closed",,,
Meineke-Car Care Center,2475,1050 Main St ,,Willimantic ,CT,06226,United States,(860) 634-5732,,,"Center Hours: Closed Now, M-F 7:30 AM - 6:00 PM, SAT 7:30 AM - 4:00 PM, SUN Closed",,,
Meineke-Car Care Center,2675,543 Dartmouth Street ,,South Dartmouth ,MA,02748,United States,(508) 593-4888,,,"Center Hours: Closed Now, M-F 7:30 AM - 6:00 PM, SAT 7:30 AM - 4:00 PM, SUN Closed",,,
Meineke-Car Care Center,1151,7 Donlan Street ,,Gardner ,MA,01440-3041,United States,(978) 730-5042,,,"Center Hours: Closed Now, M-F 7:30 AM - 6:00 PM, SAT 7:30 AM - 4:00 PM, SUN Closed",,,
Meineke-Car Care Center,928,972 Main Street ,,Winchester ,MA,01890-1929,United States,(781) 369-9570,,,"Center Hours: Closed Now, M-F 7:30 AM - 6:00 PM, SAT 7:30 AM - 6:00 PM, SUN Closed",,,
Meineke-Car Care Center,365,462 Highland Avenue Route 107 ,,Salem ,MA,01970,United States,(978) 666-4327,,,"Center Hours: Closed Now, M-F 7:30 AM - 6:00 PM, SAT 7:30 AM - 4:00 PM, SUN Closed",,,
Meineke-Car Care Center,886,662 Southern ,,Artery Quincy ,MA,02169,United States,(617) 934-2456,,,"Center Hours: Closed Now, M-F 7:30 AM - 6:00 PM, SAT 7:30 AM - 4:00 PM, SUN Closed",,,
Meineke-Car Care Center,231,117 Main Street-Route 28 ,,Reading ,MA,01867,United States,(781) 670-3123,,,"Center Hours: Closed Now, M-F 7:30 AM - 6:00 PM, SAT 7:30 AM - 4:00 PM, SUN Closed",,,
Meineke-Car Care Center,1083,11 Faneuil Street ,,Brighton ,MA,02135-1901,United States,(617) 208-4797,,,"Center Hours: Closed Now, M-F 7:00 AM - 6:00 PM, SAT 7:30 AM - 4:00 PM, SUN Closed",,,
Meineke-Car Care Center,1287,1555 Route 44 ,,Raynham ,MA,02767,United States,(508) 802-5505,,,"Center Hours: Closed Now, M-F 7:30 AM - 6:00 PM, SAT 7:30 AM - 4:00 PM, SUN Closed",,,
Meineke-Car Care Center,119,53 Broadway ,,Malden ,MA,02148-6001,United States,(781) 338-5614,,,"Center Hours: Closed Now, M-F 7:30 AM - 6:00 PM, SAT 7:30 AM - 4:00 PM, SUN Closed",,,
Meineke-Car Care Center,290,609 Oak Street ,,Brockton ,MA,02301-1345,United States,(508) 436-2185,,,"Center Hours: Closed Now, M-F 7:30 AM - 6:00 PM, SAT 7:30 AM - 6:00 PM, SUN Closed",,,
Meineke-Car Care Center,1790,391 West Center Street ,,West Bridgewater ,MA,02379,United States,(508) 436-4542,,,"Center Hours: Closed Now, M-F 7:30 AM - 6:00 PM, SAT 7:30 AM - 4:00 PM, SUN Closed",,,
Meineke-Car Care Center,257,661 Park Avenue ,,Worcester ,MA,01603-2034,United States,(508) 556-4557,,,"Center Hours: Closed Now, M-F 7:30 AM - 6:00 PM, SAT 7:30 AM - 4:00 PM, SUN Closed",,,
Meineke-Car Care Center,1074,550 Washington Street ,,Stoughton ,MA,02072,United States,(781) 573-3221,,,"Center Hours: Closed Now, M-F 7:30 AM - 6:00 PM, SAT 7:30 AM - 5:00 PM, SUN Closed",,,
Meineke-Car Care Center,917,74 West Thames St.- Route 32 ,,Norwich ,CT,06360-2206,United States,(860) 237-3165,,,"Center Hours: Closed Now, M-F 7:30 AM - 6:00 PM, SAT 7:30 AM - 4:00 PM, SUN Closed",,,
Meineke-Car Care Center,866,1150 Providence Highway ,,Norwood ,MA,02062-5018,United States,(781) 680-5829,,,"Center Hours: Closed Now, M-F 7:30 AM - 6:00 PM, SAT 7:30 AM - 4:00 PM, SUN Closed",,,
Meineke-Car Care Center,1840,626 South Main Street ,,Webster ,MA,01570,United States,(508) 461-2113,,,"Center Hours: Closed Now, M-F 7:30 AM - 6:00 PM, SAT 7:30 AM - 4:00 PM, SUN Closed",,,
Meineke-Car Care Center,1303,47 Chauncy Street Route 106 ,,Mansfield ,MA,02048,United States,(508) 964-3712,,,"Center Hours: Closed Now, M-F 7:30 AM - 6:00 PM, SAT 7:30 AM - Call, SUN Closed",,,
Meineke-Car Care Center,822,20 Beaver Street ,,Milford ,MA,01757-2804,United States,(508) 244-4455,,,"Center Hours: Closed Now, M-F 8:00 AM - 6:00 PM, SAT 7:30 AM - 4:00 PM, SUN Closed",,,
Meineke-Car Care Center,836,271 Washington St.-Route 18 ,,Abington ,MA,02351,United States,(781) 763-7224,,,"Center Hours: Closed Now, M-F 7:30 AM - 6:00 PM, SAT 7:30 AM - 4:00 PM, SUN Closed",,,
Meineke-Car Care Center,840,240 South Main Street ,,Woonsocket ,RI,02895-4258,United States,(401) 531-0290,,,"Center Hours: Closed Now, M-F 7:30 AM - 6:00 PM, SAT 7:30 AM - 4:00 PM, SUN Closed",,,
Meineke-Car Care Center,592,375 Washington Street ,,South Attleboro ,MA,02703-5916,United States,(508) 915-4201,,,"Center Hours: Closed Now, M-F 7:30 AM - 6:00 PM, SAT 8:00 AM - 5:00 PM, SUN Closed",,,
Meineke-Car Care Center,1255,206 North Lombard Street ,,Portland ,OR,97217,United States,(503) 894-7625,,,"Center Hours: Closed Now, M-F 7:30 AM - 6:00 PM, SAT 7:30 AM - 6:00 PM, SUN Closed",,,
Meineke-Car Care Center,272,3635 SE 82nd Ave ,,Portland ,OR,97266,United States,(503) 345-6550,,,"Center Hours: Closed Now, M-F 7:30 AM - 6:00 PM, SAT 7:30 AM - 6:00 PM, SUN Closed",,,
Meineke-Car Care Center,1442,19368 South Molalla Avenue ,,Oregon City ,OR,97045,United States,(503) 479-8335,,,"Center Hours: Closed Now, M-F 7:30 AM - 6:00 PM, SAT 7:30 AM - 6:00 PM, SUN Closed",,,
Meineke-Car Care Center,865,507 Boston Turnpike-Route 9 ,,Shrewsbury ,MA,01545-5969,United States,(508) 719-8565,,,"Center Hours: Closed Now, M-F 7:30 AM - 6:00 PM, SAT 7:30 AM - 4:00 PM, SUN Closed",,,
Meineke-Car Care Center,951,532 West Boylston Street ,,Worcester ,MA,01606-2027,United States,(508) 471-4207,,,"Center Hours: Closed Now, M-F 7:30 AM - 6:00 PM, SAT 7:30 AM - Call, SUN Closed",,,
Meineke-Car Care Center,1250,2901 SE 73rd Avenue ,,Hillsboro ,OR,97123,United States,(503) 567-7843,,,"Center Hours: Closed Now, M-F 7:30 AM - 6:00 PM, SAT 7:30 AM - 6:00 PM, SUN Closed",,,
Meineke-Car Care Center,2374,705 A North Springbrook Rd ,,Newberg ,OR,97132,United States,(503) 489-9531,,,"Center Hours: Closed Now, M-F 8:00 AM - 6:00 PM, SAT 8:00 AM - 6:00 PM, SUN Closed",,,
Meineke-Car Care Center,1222,4263 South Mason Fort ,,Collins ,CO,80525,United States,(970) 286-0100,,,"Center Hours: Closed Now, M-F 8:00 AM - 5:30 PM, SAT 8:00 AM - 4:00 PM, SUN Closed",,,
Meineke-Car Care Center,1347,1627 DELL RANGE BLVD ,,Cheyenne ,WY,82009-4846,United States,(307) 316-5099,,,"Center Hours: Closed Now, M-F 7:30 AM - 6:00 PM, SAT 7:30 AM - 6:00 PM, SUN Closed",,,
Meineke-Car Care Center,720,10717 Southeast 82nd Avenue ,,Happy Valley ,OR,97086,United States,(503) 765-7299,,,"Center Hours: Closed Now, M-F 7:30 AM - 6:00 PM, SAT 7:30 AM - 5:00 PM, SUN Closed",,,
Meineke-Car Care Center,2345,18081 SE Division Street ,,Portland ,OR,97236,United States,(503) 766-3882,,,"Center Hours: Closed Now, M-F 7:30 AM - 6:00 PM, SAT 7:30 AM - 4:00 PM, SUN Closed",,,
Meineke-Car Care Center,991,13203 S.W. Canyon Road ,,Beaverton ,OR,97005-2002,United States,(503) 214-2718,,,"Center Hours: Closed Now, M-F 7:30 AM - 6:00 PM, SAT 7:30 AM - 6:00 PM, SUN Closed",,,
Meineke-Car Care Center,396,2155 Cy Avenue ,,Casper ,WY,82604-3424,United States,(307) 462-4819,,,"Center Hours: Closed Now, M-F 7:30 AM - 5:30 PM, SAT 8:00 AM - 4:00 PM, SUN Closed",,,
Meineke-Car Care Center,935,13707 South West Pacific Highway Suite 100 ,,Portland ,OR,97223,United States,(503) 567-7889,,,"Center Hours: Closed Now, M-F 7:30 AM - 6:00 PM, SAT 7:30 AM - 6:00 PM, SUN Closed",,,
Meineke-Car Care Center,1541,1022 Union Avenue ,,Laconia ,NH,03246,United States,(603) 556-4629,,,"Center Hours: Closed Now, M-F 7:30 AM - 6:00 PM, SAT 7:30 AM - 4:00 PM, SUN Closed",,,
Meineke-Car Care Center,1257,13985 SW Tualatin-Sherwood Rd ,,Sherwood ,OR,97140,United States,(503) 925-4140,,,"Center Hours: Closed Now, M-F 8:00 AM - 6:00 PM, SAT 8:00 AM - 6:00 PM, SUN Closed",,,
Meineke-Car Care Center,2351,237 Gorham Road ,,Scarborough ,ME,04074,United States,(207) 573-7044,,,"Center Hours: Closed Now, M-F 7:30 AM - 6:00 PM, SAT 7:30 AM - 4:00 PM, SUN Closed",,,
Meineke-Car Care Center,243,1155 Forest Avenue ,,Portland ,ME,04103-3325,United States,(207) 370-6149,,,"Center Hours: Closed Now, M-F 7:30 AM - 6:00 PM, SAT 7:30 AM - Call, SUN Closed",,,
Meineke-Car Care Center,1264,1880 Fort Campbell Boulevard ,,Clarksville ,TN,37042,United States,(931) 444-7028,,,"Center Hours: Closed Now, M-F 8:00 AM - 6:00 PM, SAT 8:00 AM - 4:00 PM, SUN Closed",,,
Meineke-Car Care Center,1853,10045 Ridgeway Industrial Drive ,,Olive Branch ,MS,38654,United States,(662) 638-0976,,,"Center Hours: Closed Now, M-F 7:30 AM - 6:00 PM, SAT 8:00 AM - 5:00 PM, SUN Closed",,,
Meineke-Car Care Center,2590,720 Highway 321 N ,,Lenoir City ,TN,37771,United States,(865) 816-9424,,,"Center Hours: Closed Now, M-F 8:00 AM - 6:00 PM, SAT 8:00 AM - 4:00 PM, SUN Closed",,,
Meineke-Car Care Center,1072,1009 West Market Street ,,Johnson City ,TN,37604-5332,United States,(423) 930-8559,,,"Center Hours: Closed Now, M-F 7:30 AM - 6:00 PM, SAT 7:30 AM - Call, SUN Closed",,,
Meineke-Car Care Center,1668,1851 Goodman Road West ,,Horn Lake ,MS,38637,United States,(662) 253-7114,,,"Center Hours: Closed Now, M-F 7:30 AM - 6:00 PM, SAT 8:00 AM - 5:00 PM, SUN Closed",,,
Meineke-Car Care Center,2460,925 Delaware Ave ,,Marysville ,OH,43040,United States,(937) 303-8679,,,"Center Hours: Closed Now, M-F 7:30 AM - 6:00 PM, SAT 7:30 AM - 5:00 PM, SUN 9:00 AM - 5:00 PM",,,
Meineke-Car Care Center,1325,4399 Cemetery Road ,,Hilliard ,OH,43026,United States,(614) 951-9287,,,"Center Hours: Closed Now, M-F 7:30 AM - 6:00 PM, SAT 7:30 AM - 4:00 PM, SUN Closed",,,
Meineke-Car Care Center,1172,8858 Kingston Pike ,,Knoxville ,TN,37923-5001,United States,(865) 622-5596,,,"Center Hours: Closed Now, M-F 8:00 AM - 6:00 PM, SAT 8:00 AM - 4:00 PM, SUN Closed",,,
Meineke-Car Care Center,1536,5933 Sawmill Road ,,Dublin ,OH,43017-9629,United States,(614) 726-1523,,,"Center Hours: Closed Now, M-F 7:30 AM - 7:00 PM, SAT 8:00 AM - 4:00 PM, SUN Closed",,,
Meineke-Car Care Center,1065,5970 Scarborough Boulevard ,,Reynoldsburg ,OH,43232-4747,United States,(614) 729-8322,,,"Center Hours: Closed Now, M-F 7:30 AM - 6:00 PM, SAT 7:30 AM - 4:00 PM, SUN Closed",,,
Meineke-Car Care Center,337,2740 Old Courtright Road ,,Columbus ,OH,43232,United States,(614) 434-6947,,,"Center Hours: Closed Now, M-F 7:30 AM - 6:00 PM, SAT 7:30 AM - 4:00 PM, SUN Closed",,,
Meineke-Car Care Center,1323,228 Park Road ,,Columbus ,OH,43235,United States,(614) 987-8703,,,"Center Hours: Closed Now, M-F 7:30 AM - 6:00 PM, SAT 7:30 AM - 4:00 PM, SUN Closed",,,
Meineke-Car Care Center,535,2666 Lamar Avenue ,,Memphis ,TN,38114-4351,United States,(901) 881-5960,,,"Center Hours: Closed Now, M-F 8:00 AM - 6:00 PM, SAT 8:00 AM - 4:00 PM, SUN Closed",,,
Meineke-Car Care Center,1626,5284 Ridge Road ,,Parma ,OH,44129,United States,(216) 539-2555,,,"Center Hours: Closed Now, M-F 8:00 AM - 6:00 PM, SAT 8:00 AM - 4:00 PM, SUN Closed",,,
Meineke-Car Care Center,1863,951 North Parkway ,,Jackson ,TN,38305,United States,(731) 300-1433,,,"Center Hours: Closed Now, M-F 7:30 AM - 6:00 PM, SAT 7:30 AM - 5:30 PM, SUN Closed",,,
Meineke-Car Care Center,1535,746 Grandview Avenue ,,Columbus ,OH,43215-1122,United States,(614) 600-2654,,,"Center Hours: Closed Now, M-F 7:30 AM - 6:00 PM, SAT 7:30 AM - 4:00 PM, SUN Closed",,,
Meineke-Car Care Center,2530,704 S. Boulder Hwy ,,Henderson ,NV,89015,United States,(702) 802-0541,,,"Center Hours: Closed Now, M-F 7:30 AM - 6:00 PM, SAT 7:30 AM - 6:00 PM, SUN Closed",,,
Meineke-Car Care Center,2517,290 Curry Hollow Rd ,,Pleasant Hills ,PA,15236-4621,United States,(412) 943-7733,,,"Center Hours: Closed Now, M-F 8:00 AM - 6:00 PM, SAT 8:00 AM - 4:00 PM, SUN Closed",,,
Meineke-Car Care Center,2124,1312 SE Washington Street ,,Idabel ,OK,74745,United States,(580) 245-6098,,,"Center Hours: Closed Now, M-F 8:00 AM - 6:00 PM, SAT 8:00 AM - 4:00 PM, SUN Closed",,,
Meineke-Car Care Center,1800,20845 Route 19 ,,Cranberry Township ,PA,16066,United States,(724) 900-2888,,,"Center Hours: Closed Now, M-F 8:00 AM - 6:00 PM, SAT 8:00 AM - 4:00 PM, SUN Closed",,,
Meineke-Car Care Center,2533,2640 Sunridge Heights Pkwy ,,Henderson ,NV,89052,United States,(702) 948-7749,,,"Center Hours: Closed Now, M-F 7:30 AM - 6:00 PM, SAT 7:30 AM - 6:00 PM, SUN Closed",,,
Meineke-Car Care Center,765,3655 Library Road ,,Castle Shannon ,PA,15234-2230,United States,(412) 502-5396,,,"Center Hours: Closed Now, M-F 8:00 AM - 6:00 PM, SAT 8:00 AM - 4:00 PM, SUN Closed",,,
Meineke-Car Care Center,610,12780 Route 30 North ,,Huntingdon ,PA,15642-1324,United States,(724) 590-0591,,,"Center Hours: Closed Now, M-F 8:00 AM - 6:00 PM, SAT 8:00 AM - 6:00 PM, SUN Closed",,,
Meineke-Car Care Center,849,2200 Freeport Road ,,Harmar Township ,PA,15238-1404,United States,(412) 265-4298,,,"Center Hours: Closed Now, M-F 7:30 AM - 6:00 PM, SAT 7:30 AM - 6:00 PM, SUN Closed",,,
Meineke-Car Care Center,512,2667 Monroeville Boulevard ,,Monroeville ,PA,15146-2301,United States,(412) 229-7144,,,"Center Hours: Closed Now, M-F 7:30 AM - 6:00 PM, SAT 7:30 AM - 4:00 PM, SUN Closed",,,
Meineke-Car Care Center,758,422 Main Street Route 40 ,,Bridgeport ,OH,43912,United States,(740) 738-3650,,,"Center Hours: Closed Now, M-F 7:30 AM - 6:00 PM, SAT 8:00 AM - 4:00 PM, SUN Closed",,,
Meineke-Car Care Center,582,6902 5th Avenue ,,Pittsburgh ,PA,15208-1707,United States,(412) 924-8929,,,"Center Hours: Closed Now, M-F 7:30 AM - 6:00 PM, SAT 7:30 AM - 4:00 PM, SUN Closed",,,
Meineke-Car Care Center,1417,4103 Kennywood Boulevard ,,West Mifflin ,PA,15122-2233,United States,(412) 451-8968,,,"Center Hours: Closed Now, M-F 7:30 AM - 6:00 PM, SAT 7:30 AM - 5:00 PM, SUN Closed",,,
Meineke-Car Care Center,1109,5290 Steubenville Pike ,,Pittsburgh ,PA,15205,United States,(412) 489-0892,,,"Center Hours: Closed Now, M-F 8:00 AM - 6:00 PM, SAT 7:30 AM - 4:00 PM, SUN Closed",,,
Meineke-Car Care Center,4146,4897 South Rainbow Boulevard ,,Las Vegas ,NV,89103,United States,(702) 625-4403,,,"Center Hours: Closed Now, M-F 7:30 AM - 6:00 PM, SAT 7:30 AM - 6:00 PM, SUN Closed",,,
Meineke-Car Care Center,2527,5833 W Tropicana Ave. ,,Las Vegas ,NV,89103,United States,(702) 381-4830,,,"Center Hours: Closed Now, M-F 7:30 AM - 6:00 PM, SAT 7:30 AM - 6:00 PM, SUN Closed",,,
Meineke-Car Care Center,2435,5140 S. Maryland Parkway ,,Las Vegas ,NV,89119,United States,(702) 919-0117,,,"Center Hours: Closed Now, M-F 7:30 AM - 6:00 PM, SAT 7:30 AM - 4:00 PM, SUN Closed",,,
Meineke-Car Care Center,716,66 Camp Horne Road ,,Pittsburgh ,PA,15202-1601,United States,(412) 307-4783,,,"Center Hours: Closed Now, M-F 7:30 AM - 6:00 PM, SAT 7:30 AM - 4:00 PM, SUN Closed",,,
Meineke-Car Care Center,2531,8550 W. Sahara Ave. ,,Las Vegas ,NV,89117,United States,(702) 608-9919,,,"Center Hours: Closed Now, M-F 7:30 AM - 6:00 PM, SAT 7:30 AM - 6:00 PM, SUN Closed",,,
Meineke-Car Care Center,232,3265 Babcock Boulevard ,,Pittsburgh ,PA,15237-2840,United States,(412) 536-7086,,,"Center Hours: Closed Now, M-F 7:30 AM - 6:00 PM, SAT 7:30 AM - 6:00 PM, SUN Closed",,,
Meineke-Car Care Center,2737,6565 E Lake Mead Blvd ,,Las Vegas ,NV,89156,United States,(702) 948-7882,,,"Center Hours: Closed Now, M-F 7:30 AM - 6:00 PM, SAT 7:30 AM - 6:00 PM, SUN Closed",,,
Meineke-Car Care Center,2532,500 S. Buffalo ,,Las Vegas ,NV,89145,United States,(702) 660-6630,,,"Center Hours: Closed Now, M-F 7:30 AM - 6:00 PM, SAT 7:30 AM - 6:00 PM, SUN Closed",,,
Meineke-Car Care Center,2684,2005 S. Decatur Blvd. ,,Las Vegas ,NV,89102,United States,(702) 706-1145,,,"Center Hours: Closed Now, M-F 7:30 AM - 6:00 PM, SAT 7:30 AM - 4:00 PM, SUN Closed",,,
Meineke-Car Care Center,176,4236 Walnut Street ,,Mckeesport ,PA,15132-7330,United States,(412) 228-3610,,,"Center Hours: Closed Now, M-F 8:00 AM - 6:00 PM, SAT 8:00 AM - 4:00 PM, SUN Closed",,,
Meineke-Car Care Center,2656,3186 S Nellis Blvd. ,,Las Vegas ,NV,89121-2010,United States,(702) 545-6821,,,"Center Hours: Closed Now, M-F 7:30 AM - 6:00 PM, SAT 7:30 AM - 6:00 PM, SUN Closed",,,
Meineke-Car Care Center,1603,1860 East Serene Avenue ,,Las Vegas ,NV,89123,United States,(702) 425-7739,,,"Center Hours: Closed Now, M-F 7:30 AM - 6:00 PM, SAT 7:30 AM - 6:00 PM, SUN Closed",,,
Meineke-Car Care Center,2110,3840 Blue Diamond Road ,,Las Vegas ,NV,89139,United States,(702) 706-0679,,,"Center Hours: Closed Now, M-F 7:30 AM - 6:00 PM, SAT 7:30 AM - 6:00 PM, SUN Closed",,,
Meineke-Car Care Center,2529,4430 N. Decatur ,,Las Vegas ,NV,89130,United States,(702) 608-0834,,,"Center Hours: Closed Now, M-F 7:30 AM - 6:00 PM, SAT 7:30 AM - 6:00 PM, SUN Closed",,,
Meineke-Car Care Center,2712,5128 Camino Al Norte Suite 100 ,,North Las Vegas ,NV,89031,United States,(702) 605-5260,,,"Center Hours: Closed Now, M-F 7:30 AM - 6:00 PM, SAT 7:30 AM - 6:00 PM, SUN Closed",,,
Meineke-Car Care Center,4075,4337 E. Sunset Rd. ,,Henderson ,NV,89014,United States,(702) 570-9254,,,"Center Hours: Closed Now, M-F 7:30 AM - 6:00 PM, SAT 7:30 AM - 6:00 PM, SUN Closed",,,
Meineke-Car Care Center,4086,842 N. Nellis ,,Las Vegas ,NV,89110,United States,(702) 577-1436,,,"Center Hours: Closed Now, M-F 7:30 AM - 6:00 PM, SAT 7:30 AM - 6:00 PM, SUN Closed",,,
Meineke-Car Care Center,4168,7652 West Lake Mead Boulevard ,,Las Vegas ,NV,89128,United States,(702) 625-9908,,,"Center Hours: Closed Now, M-F 7:30 AM - 6:00 PM, SAT 7:30 AM - 6:00 PM, SUN Closed",,,
Meineke-Car Care Center,2710,4320 East Craig Road ,,Las Vegas ,NV,89115,United States,(702) 660-6658,,,"Center Hours: Closed Now, M-F 7:30 AM - 6:00 PM, SAT 7:30 AM - 6:00 PM, SUN Closed",,,
Meineke-Car Care Center,2067,455 Katy Fort Bend Road # 310 ,,Katy ,TX,77494,United States,(281) 394-1934,,,"Center Hours: Closed Now, M-F 8:00 AM - 6:00 PM, SAT 8:00 AM - 6:00 PM, SUN Closed",,,
Meineke-Car Care Center,4139,1525 S.W. Military Drive ,,San Antonio ,TX,78221,United States,(210) 265-6757,,,"Center Hours: Closed Now, M-F 8:00 AM - 6:00 PM, SAT 8:00 AM - 4:00 PM, SUN Closed",,,
Meineke-Car Care Center,477,7081 Bandera Road ,,San Antonio ,TX,78238-1266,United States,(210) 951-1993,,,"Center Hours: Closed Now, M-F 8:00 AM - 6:00 PM, SAT 8:00 AM - 4:00 PM, SUN Closed",,,
Meineke-Car Care Center,2193,3201 Knickerbocker Rd ,,San Angelo ,TX,76904,United States,(325) 704-7591,,,"Center Hours: Closed Now, M-F 7:30 AM - 6:00 PM, SAT 7:30 AM - 6:00 PM, SUN Closed",,,
Meineke-Car Care Center,2307,3408 Saint Michael Drive ,,Texarkana ,TX,75503,United States,(903) 669-1260,,,"Center Hours: Closed Now, M-F 7:30 AM - 6:00 PM, SAT 7:30 AM - 5:00 PM, SUN Closed",,,
Meineke-Car Care Center,1818,304 South Logan ,,Boulevard-Lakemont Altoona ,PA,16602,United States,(814) 414-4183,,,"Center Hours: Closed Now, M-F 7:30 AM - 5:30 PM, SAT 7:30 AM - 4:00 PM, SUN Closed",,,
Meineke-Car Care Center,160,215 North Frazier ,,Conroe ,TX,77301-2828,United States,(936) 647-3822,,,"Center Hours: Closed Now, M-F 7:30 AM - 6:00 PM, SAT 7:30 AM - 6:00 PM, SUN Closed",,,
Meineke-Car Care Center,2718,12761 Nacogdoches Rd ,,San Antonio ,TX,78217,United States,(210) 951-2253,,,"Center Hours: Closed Now, M-F 7:30 AM - 6:00 PM, SAT 7:30 AM - 4:00 PM, SUN Closed",,,
Meineke-Car Care Center,1577,1632 Pat Booker Road Suite 112 ,,Universal City ,TX,78148,United States,(210) 951-2138,,,"Center Hours: Closed Now, M-F 7:30 AM - 6:00 PM, SAT 7:30 AM - 6:00 PM, SUN Closed",,,
Meineke-Car Care Center,2664,319 E Ben White Blvd ,,Austin ,TX,78704,United States,(512) 920-3943,,,"Center Hours: Closed Now, M-F 7:30 AM - 7:00 PM, SAT 8:00 AM - 4:00 PM, SUN Closed",,,
Meineke-Car Care Center,4156,2712 William Cannon Drive West ,,Austin ,TX,78745,United States,(512) 377-1066,,,"Center Hours: Closed Now, M-F 7:30 AM - 6:00 PM, SAT 7:30 AM - 5:00 PM, SUN Closed",,,
Meineke-Car Care Center,483,12732 Research Boulevard ,,Austin ,TX,78759-4324,United States,(512) 518-4988,,,"Center Hours: Closed Now, M-F 7:30 AM - 6:00 PM, SAT 7:30 AM - 6:00 PM, SUN Closed",,,
Meineke-Car Care Center,742,1305 West Central Texas Expressway ,,Killeen ,TX,76541-7455,United States,(254) 220-4612,,,"Center Hours: Closed Now, M-F 7:30 AM - 6:00 PM, SAT 7:30 AM - 5:00 PM, SUN Closed",,,
Meineke-Car Care Center,1599,1252 Highway 123 ,,San Marcos ,TX,78666,United States,(512) 518-5251,,,"Center Hours: Closed Now, M-F 8:00 AM - 6:00 PM, SAT 8:00 AM - 4:00 PM, SUN Closed",,,
Meineke-Car Care Center,2504,2204 SW H K Dodgen Loop ,,Temple ,TX,76504,United States,(254) 534-6898,,,"Center Hours: Closed Now, M-F 7:30 AM - 6:00 PM, SAT 7:30 AM - 4:00 PM, SUN Closed",,,
Meineke-Car Care Center,490,1270 Rock Canyon Dr Suite G (Mason Road) ,,Katy ,TX,77450-3870,United States,(281) 394-1773,,,"Center Hours: Closed Now, M-F 8:00 AM - 6:00 PM, SAT 8:00 AM - 6:00 PM, SUN Closed",,,
Meineke-Car Care Center,202,4030 Avenue H ,,Rosenberg ,TX,77471-2810,United States,(281) 393-7139,,,"Center Hours: Closed Now, M-F 7:30 AM - 6:00 PM, SAT 7:30 AM - 6:00 PM, SUN Closed",,,
Meineke-Car Care Center,4144,9420 Culebra Road FM 471 ,,W San Antonio ,TX,78251,United States,(210) 272-7049,,,"Center Hours: Closed Now, M-F 8:00 AM - 6:00 PM, SAT 8:00 AM - 4:00 PM, SUN Closed",,,
Meineke-Car Care Center,210,11614 Jones Road ,,Houston ,TX,77070-5904,United States,(281) 671-8730,,,"Center Hours: Closed Now, M-F 8:00 AM - 6:00 PM, SAT 8:00 AM - 6:00 PM, SUN Closed",,,
Meineke-Car Care Center,1460,2324 West Pecan Street ,,Pflugerville ,TX,78660,United States,(512) 782-8011,,,"Center Hours: Closed Now, M-F 7:30 AM - 6:00 PM, SAT 7:30 AM - 5:00 PM, SUN Closed",,,
Meineke-Car Care Center,1136,3515 FM 1960 East ,,Humble ,TX,77338-5320,United States,(281) 973-4742,,,"Center Hours: Closed Now, M-F 8:00 AM - 6:00 PM, SAT 8:00 AM - 6:00 PM, SUN Closed",,,
Meineke-Car Care Center,2605,7829 Burnet Rd ,,Austin ,TX,78757,United States,(512) 910-8471,,,"Center Hours: Closed Now, M-F 7:30 AM - 6:00 PM, SAT 7:30 AM - 6:00 PM, SUN Closed",,,
Meineke-Car Care Center,1644,1902 FM 1092 ,,Missouri City ,TX,77459,United States,(281) 969-4123,,,"Center Hours: Closed Now, M-F 8:00 AM - 6:00 PM, SAT 8:00 AM - 6:00 PM, SUN Closed",,,
Meineke-Car Care Center,4,5809 SW Freeway ,,Houston ,TX,77057-7509,United States,(713) 581-9062,,,"Center Hours: Closed Now, M-F 7:30 AM - 6:00 PM, SAT 7:30 AM - 4:00 PM, SUN Closed",,,
Meineke-Car Care Center,2510,9140 Telge Rd ,,Houston ,TX,77095-5103,United States,(281) 815-2513,,,"Center Hours: Closed Now, M-F 7:30 AM - 6:00 PM, SAT 8:00 AM - 5:00 PM, SUN Closed",,,
Meineke-Car Care Center,24,10829 South Post ,,Oak Houston ,TX,77035-3101,United States,(713) 893-0901,,,"Center Hours: Closed Now, M-F 8:00 AM - 6:00 PM, SAT 8:00 AM - 6:00 PM, SUN Closed",,,
Meineke-Car Care Center,10,932 North Shepherd ,,Houston ,TX,77008-6527,United States,(713) 364-0088,,,"Center Hours: Closed Now, M-F 8:00 AM - 6:00 PM, SAT 8:00 AM - 4:00 PM, SUN Closed",,,
Meineke-Car Care Center,8,9939 Long Point ,,Houston ,TX,77055-4115,United States,(713) 491-2175,,,"Center Hours: Closed Now, M-F 7:30 AM - 6:00 PM, SAT 7:30 AM - 4:00 PM, SUN Closed",,,
Meineke-Car Care Center,593,2339 North Austin Street ,,Pearland ,TX,77581-4003,United States,(281) 810-9602,,,"Center Hours: Closed Now, M-F 8:00 AM - 6:00 PM, SAT 8:00 AM - 6:00 PM, SUN Closed",,,
Meineke-Car Care Center,126,414 W. NASA Parkway ,,Webster ,TX,77598,United States,(281) 724-5216,,,"Center Hours: Closed Now, M-F 7:30 AM - 6:00 PM, SAT 7:30 AM - 4:00 PM, SUN Closed",,,
Meineke-Car Care Center,2583,11753 W Bellfort St Suite 121 ,,Stafford ,TX,77477-1327,United States,(281) 870-2038,,,"Center Hours: Closed Now, M-F 8:00 AM - 6:00 PM, SAT 8:00 AM - 6:00 PM, SUN Closed",,,
Meineke-Car Care Center,19,1215 Decker Drive ,,Baytown ,TX,77520-4438,United States,(281) 839-2171,,,"Center Hours: Closed Now, M-F 8:00 AM - 6:00 PM, SAT 8:00 AM - 6:00 PM, SUN Closed",,,
Meineke-Car Care Center,2490,13020 FM 529 ,,Houston ,TX,77041,United States,(713) 581-8218,,,"Center Hours: Closed Now, M-F 8:00 AM - 6:00 PM, SAT 8:00 AM - 4:00 PM, SUN Closed",,,
Meineke-Car Care Center,1094,1121 Uvalde ,,Houston ,TX,77015-3744,United States,(713) 491-2183,,,"Center Hours: Closed Now, M-F 8:00 AM - 6:00 PM, SAT 8:00 AM - 6:00 PM, SUN Closed",,,
Meineke-Car Care Center,33,5820 Kirby Drive ,,Houston ,TX,77005-2410,United States,(713) 364-0761,,,"Center Hours: Closed Now, M-F 8:00 AM - 6:00 PM, SAT 8:00 AM - 6:00 PM, SUN Closed",,,
Meineke-Car Care Center,4327,4448 Cypress Creek Parkway ,,Houston ,TX,77068,United States,(281) 377-3371,,,"Center Hours: Closed Now, M-F 7:30 AM - 6:00 PM, SAT 7:30 AM - 5:00 PM, SUN Closed",,,
Meineke-Car Care Center,2064,3012 Altamesa Blvd ,,Fort Worth ,TX,76133,United States,(817) 935-8865,,,"Center Hours: Closed Now, M-F 7:30 AM - 6:00 PM, SAT 7:30 AM - 5:00 PM, SUN Closed",,,
Meineke-Car Care Center,1809,1765 North Major Drive ,,Beaumont ,TX,77706,United States,(409) 299-8368,,,"Center Hours: Closed Now, M-F 7:30 AM - 6:00 PM, SAT 7:30 AM - 4:00 PM, SUN Closed",,,
Meineke-Car Care Center,430,1815 Nederland Avenue ,,Nederland ,TX,77627-5130,United States,(409) 344-5412,,,"Center Hours: Closed Now, M-F 7:30 AM - 6:00 PM, SAT Closed, SUN Closed",,,
Meineke-Car Care Center,2096,2547-B Judson Rd. ,,Longview ,TX,75605,United States,(903) 331-0098,,,"Center Hours: Closed Now, M-F 7:30 AM - 6:00 PM, SAT 7:30 AM - 4:00 PM, SUN Closed",,,
Meineke-Car Care Center,1903,4615 34th Street ,,Lubbock ,TX,79410,United States,(806) 589-3504,,,"Center Hours: Closed Now, M-F 7:30 AM - 6:00 PM, SAT 7:30 AM - 6:00 PM, SUN Closed",,,
Meineke-Car Care Center,1963,1500 Redd Road ,,El Paso ,TX,79911,United States,(915) 201-2342,,,"Center Hours: Closed Now, M-F 7:30 AM - 6:00 PM, SAT 7:30 AM - 4:00 PM, SUN Closed",,,
Meineke-Car Care Center,2717,204 Southwest Pkwy E ,,College Station ,TX,77840-4662,United States,(979) 431-3016,,,"Center Hours: Closed Now, M-F 7:30 AM - 6:00 PM, SAT 8:00 AM - 4:00 PM, SUN Closed",,,
Meineke-Car Care Center,2468,2137 Hendersonville Rd ,,Arden ,NC,28704,United States,(828) 490-4035,,,"Center Hours: Closed Now, M-F 7:30 AM - 5:30 PM, SAT 8:00 AM - 4:00 PM, SUN Closed",,,
Meineke-Car Care Center,1363,1805 South Grand Street ,,Amarillo ,TX,79103,United States,(806) 410-2662,,,"Center Hours: Closed Now, M-F 7:30 AM - 6:00 PM, SAT 7:30 AM - 4:00 PM, SUN Closed",,,
Meineke-Car Care Center,2453,5994 S NC 16 Highway ,,Maiden ,NC,28650-8113,United States,(704) 257-7532,,,"Center Hours: Closed Now, M-F 7:30 AM - 6:00 PM, SAT 7:30 AM - 4:00 PM, SUN Closed",,,
Meineke-Car Care Center,2159,2009 East Main Street ,,Lincolnton ,NC,28092,United States,(704) 276-6767,,,"Center Hours: Closed Now, M-F 7:30 AM - 6:00 PM, SAT 7:30 AM - 4:00 PM, SUN Closed",,,
Meineke-Car Care Center,1808,1310 West Main Street ,,Lexington ,SC,29072,United States,(803) 426-9577,,,"Center Hours: Closed Now, M-F 8:00 AM - 5:30 PM, SAT 8:00 AM - 4:00 PM, SUN Closed",,,
Meineke-Car Care Center,1969,2351 Dick Pond Road ,,Myrtle Beach ,SC,29575,United States,(843) 256-3624,,,"Center Hours: Closed Now, M-F 8:00 AM - 6:00 PM, SAT 8:00 AM - 4:00 PM, SUN Closed",,,
Meineke-Car Care Center,4000,901 Concord Parkway South HWY 29 ,,Concord ,NC,28027,United States,(704) 960-1337,,,"Center Hours: Closed Now, M-F 7:30 AM - 6:00 PM, SAT 7:30 AM - 4:00 PM, SUN Closed",,,
Meineke-Car Care Center,1931,190 E. Plaza Drive ,,Mooresville ,NC,28115,United States,(704) 746-9034,,,"Center Hours: Closed Now, M-F 7:30 AM - 6:00 PM, SAT 7:30 AM - 4:00 PM, SUN Closed",,,
Meineke-Car Care Center,2056,7270 NC Highway 73 ,,Denver ,NC,28037,United States,(704) 951-4703,,,"Center Hours: Closed Now, M-F 7:00 AM - 6:00 PM, SAT 7:00 AM - 4:00 PM, SUN Closed",,,
Meineke-Car Care Center,2267,5021 Beatties Ford Road ,,Charlotte ,NC,28216,United States,(704) 900-0705,,,"Center Hours: Closed Now, M-F 7:30 AM - 6:00 PM, SAT 7:30 AM - 6:00 PM, SUN Closed",,,
Meineke-Car Care Center,2443,362 George Bishop Parkway ,,Myrtle Beach ,SC,29579,United States,(843) 492-0970,,,"Center Hours: Closed Now, M-F 8:00 AM - 6:00 PM, SAT 8:00 AM - 4:00 PM, SUN Closed",,,
Meineke-Car Care Center,1921,12270 Highway 17 Bypass ,,Murrells Inlet ,SC,29576,United States,(843) 548-0041,,,"Center Hours: Closed Now, M-F 7:30 AM - 6:00 PM, SAT 7:30 AM - 5:00 PM, SUN Closed",,,
Meineke-Car Care Center,2467,124 Patton Ave ,,Asheville ,NC,28801,United States,(828) 782-3953,,,"Center Hours: Closed Now, M-F 7:30 AM - 6:00 PM, SAT 7:30 AM - 6:00 PM, SUN Closed",,,
Meineke-Car Care Center,4302,6936 Albemarle Road ,,Charlotte ,NC,28227,United States,(980) 228-9992,,,"Center Hours: Closed Now, M-F 7:30 AM - 6:00 PM, SAT 7:30 AM - 6:00 PM, SUN 9:00 AM - 4:00 PM",,,
Meineke-Car Care Center,49,1111 Pecan Avenue ,,Charlotte ,NC,28205,United States,(704) 705-7062,,,"Center Hours: Closed Now, M-F 7:30 AM - 6:00 PM, SAT 8:00 AM - 4:30 PM, SUN Closed",,,
Meineke-Car Care Center,1596,801 Fairview Road Suite 14 ,,Asheville ,NC,28803,United States,(828) 782-3811,,,"Center Hours: Closed Now, M-F 7:30 AM - 5:30 PM, SAT 8:00 AM - 4:00 PM, SUN Closed",,,
Meineke-Car Care Center,1669,9507 E. Independence Blvd. ,,Matthews ,NC,28105,United States,(704) 321-4554,,,"Center Hours: Closed Now, M-F 7:30 AM - 6:00 PM, SAT 7:30 AM - 4:00 PM, SUN Closed",,,
Meineke-Car Care Center,104,5238 South Boulevard ,,Charlotte ,NC,28217-2711,United States,(704) 247-6378,,,"Center Hours: Closed Now, M-F 7:30 AM - 6:00 PM, SAT 7:30 AM - 4:00 PM, SUN Closed",,,
Meineke-Car Care Center,608,10515-A Centrum Parkway ,,Pineville ,NC,28134-8814,United States,(704) 594-1749,,,"Center Hours: Closed Now, M-F 7:30 AM - 6:00 PM, SAT 7:30 AM - 4:00 PM, SUN Closed",,,
Meineke-Car Care Center,1791,6650 Kee Lane ,,Harrisburg ,NC,28075,United States,(704) 624-7662,,,"Center Hours: Closed Now, M-F 7:30 AM - 6:00 PM, SAT 7:30 AM - 4:00 PM, SUN Closed",,,
Meineke-Car Care Center,1892,200 Corporate Blvd. ,,Indian Trail ,NC,28079,United States,(704) 935-4643,,,"Center Hours: Closed Now, M-F 7:30 AM - 6:00 PM, SAT 8:00 AM - 4:00 PM, SUN Closed",,,
Meineke-Car Care Center,1821,913 South Georgia Street ,,Amarillo ,TX,79102,United States,(806) 341-9013,,,"Center Hours: Closed Now, M-F 7:30 AM - 6:00 PM, SAT 7:30 AM - 6:00 PM, SUN Closed",,,
Meineke-Car Care Center,116,3401 South Western ,,Amarillo ,TX,79109-4437,United States,(806) 410-2647,,,"Center Hours: Closed Now, M-F 7:30 AM - 6:00 PM, SAT 7:30 AM - 6:00 PM, SUN Closed",,,
Meineke-Car Care Center,1134,2366 Dave Lyle Boulevard ,,Rock Hill ,SC,29730-8931,United States,(803) 306-6011,,,"Center Hours: Closed Now, M-F 7:30 AM - 6:00 PM, SAT 7:30 AM - 4:00 PM, SUN Closed",,,
Meineke-Car Care Center,577,820 Spartanburg Hwy.-Route 176 ,,Hendersonville ,NC,28739,United States,(828) 595-4282,,,"Center Hours: Closed Now, M-F 7:30 AM - 6:00 PM, SAT 7:30 AM - 4:00 PM, SUN Closed",,,
Meineke-Car Care Center,2183,3507-A Clemson Blvd. ,,Anderson ,SC,29621,United States,(864) 642-0985,,,"Center Hours: Closed Now, M-F 7:30 AM - 6:00 PM, SAT 7:30 AM - 4:00 PM, SUN Closed",,,
Meineke-Car Care Center,2197,8795 Charlotte Highway ,,Indian Land ,SC,29707,United States,(803) 306-6012,,,"Center Hours: Closed Now, M-F 7:30 AM - 6:00 PM, SAT 7:30 AM - 4:00 PM, SUN Closed",,,
Meineke-Car Care Center,2111,2390 Laurens Road ,,Greenville ,SC,29607,United States,(864) 326-2953,,,"Center Hours: Closed Now, M-F 7:30 AM - 6:00 PM, SAT 7:30 AM - 4:00 PM, SUN Closed",,,
Meineke-Car Care Center,2203,1654 Carolina Place ,,Fort Mill ,SC,29708,United States,(803) 746-0859,,,"Center Hours: Closed Now, M-F 7:30 AM - 6:00 PM, SAT 7:30 AM - 4:00 PM, SUN Closed",,,
Meineke-Car Care Center,2102,432 West Blackstock Road ,,Spartanburg ,SC,29301,United States,(864) 256-3470,,,"Center Hours: Closed Now, M-F 7:30 AM - 6:00 PM, SAT 7:30 AM - 4:00 PM, SUN Closed",,,
Meineke-Car Care Center,841,1850 W. Roosevelt Blvd.-Hwy.74 ,,Monroe ,NC,28110,United States,(704) 774-8674,,,"Center Hours: Closed Now, M-F 7:30 AM - 6:00 PM, SAT 7:30 AM - 4:00 PM, SUN Closed",,,
Meineke-Car Care Center,1979,227 Mt. Holly-Huntersville Road ,,Charlotte ,NC,28214,United States,(704) 951-4097,,,"Center Hours: Closed Now, M-F 7:30 AM - 6:00 PM, SAT 7:30 AM - 4:00 PM, SUN Closed",,,
Meineke-Car Care Center,730,330 East Garrison Boulevard ,,Gastonia ,NC,28054-418,United States,(704) 271-4444,,,"Center Hours: Closed Now, M-F 7:30 AM - 6:00 PM, SAT 7:30 AM - 4:00 PM, SUN Closed",,,
Meineke-Car Care Center,2036,1411 West Floyd Baker Boulevard ,,Gaffney ,SC,29341,United States,(864) 761-4362,,,"Center Hours: Closed Now, M-F 7:30 AM - 6:00 PM, SAT 7:30 AM - 4:00 PM, SUN Closed",,,
Meineke-Car Care Center,1882,212 North Main Street ,,Greer ,SC,29650,United States,(864) 469-4943,,,"Center Hours: Closed Now, M-F 7:30 AM - 6:00 PM, SAT 7:30 AM - 4:00 PM, SUN Closed",,,
Meineke-Car Care Center,2190,905 Wesley Court ,,Boiling Springs ,SC,29316,United States,(864) 529-9657,,,"Center Hours: Closed Now, M-F 7:30 AM - 6:00 PM, SAT 7:30 AM - 4:00 PM, SUN Closed",,,
Meineke-Car Care Center,2352,1224 E. Highway 44 ,,Rapid City ,SD,57703,United States,(605) 939-3872,,,"Center Hours: Closed Now, M-F 8:00 AM - 5:30 PM, SAT 8:00 AM - 4:00 PM, SUN Closed",,,
Meineke-Car Care Center,355,1826 S. Stoughton Road ,,Madison ,WI,53716,United States,(608) 467-1442,,,"Center Hours: Closed Now, M-F 7:30 AM - 6:00 PM, SAT 7:30 AM - 4:00 PM, SUN Closed",,,
Meineke-Car Care Center,2474,222 W. Cottage Grove Road ,,Cottage Grove ,WI,53527,United States,(608) 406-4915,,,"Center Hours: Closed Now, M-F 7:30 AM - 6:00 PM, SAT 7:30 AM - 4:00 PM, SUN Closed",,,
Meineke-Car Care Center,2602,1001 Bluefield Ave ,,Bluefield ,WV,24701,United States,(304) 800-2983,,,"Center Hours: Closed Now, M-F 8:00 AM - 6:30 PM, SAT 8:00 AM - 5:00 PM, SUN Closed",,,
Meineke-Car Care Center,2586,2621 Villa Park Dr ,,Highland ,IL,62249,United States,(618) 623-4213,,,"Center Hours: Closed Now, M-F 7:30 AM - 6:00 PM, SAT 7:30 AM - 4:00 PM, SUN Closed",,,
Meineke-Car Care Center,2306,805 N. Russell Street Suite 1 ,,Missoula ,MT,59808,United States,(406) 203-5152,,,"Center Hours: Closed Now, M-F 7:30 AM - 6:00 PM, SAT 7:30 AM - 4:00 PM, SUN Closed",,,
Meineke-Car Care Center,2126,13835 Johnson Street NE ,,Ham Lake ,MN,55304,United States,(763) 575-7170,,,"Center Hours: Closed Now, M-F 7:30 AM - 6:00 PM, SAT 8:00 AM - 4:00 PM, SUN Closed",,,
Meineke-Car Care Center,2384,23900 Firdale Avenue ,,Edmonds ,WA,98020,United States,(206) 745-6119,,,"Center Hours: Closed Now, M-F 7:30 AM - 6:00 PM, SAT 7:30 AM - 6:00 PM, SUN Closed",,,
Meineke-Car Care Center,1138,268 State Street Suite # 2 ,,Augusta ,ME,04330-6404,United States,(207) 573-7067,,,"Center Hours: Closed Now, M-F 8:00 AM - 6:00 PM, SAT 8:00 AM - 4:00 PM, SUN Closed",,,
Meineke-Car Care Center,611,"14235 U"" Street ",,Omaha ,NE,68137,United States,(402) 913-3639,,,"Center Hours: Closed Now, M-F 7:30 AM - 6:00 PM, SAT 7:30 AM - 4:00 PM, SUN Closed",,,
Meineke-Car Care Center,1632,803 North Gloster ,,Tupelo ,MS,38804,United States,(662) 205-0971,,,"Center Hours: Closed Now, M-F 7:30 AM - 6:00 PM, SAT 8:00 AM - 5:00 PM, SUN Closed",,,
Meineke-Car Care Center,2566,18728-E N Pointe Drive ,,Hagerstown ,MD,21742,United States,(240) 347-0534,,,"Center Hours: Closed Now, M-F 7:00 AM - 6:00 PM, SAT 7:00 AM - 4:00 PM, SUN Closed",,,
Meineke-Car Care Center,472,23035 Douglas Court Unit # 132 ,,Sterling ,VA,20166-9451,United States,(703) 638-1938,,,"Center Hours: Closed Now, M-F 7:30 AM - 6:00 PM, SAT 7:30 AM - 4:00 PM, SUN Closed",,,
Meineke-Car Care Center,2154,2290 Valley Avenue ,,Winchester ,VA,22601,United States,(540) 773-2859,,,"Center Hours: Closed Now, M-F 8:00 AM - 5:30 PM, SAT 8:00 AM - 5:00 PM, SUN Closed",,,
Meineke-Car Care Center,4174,6747 State Highway 303 NE ,,Bremerton ,WA,98311,United States,(360) 447-6341,,,"Center Hours: Closed Now, M-F 8:00 AM - 6:00 PM, SAT 8:00 AM - 6:00 PM, SUN Closed",,,
Meineke-Car Care Center,2240,2600 NW Randall Way Suite 115 ,,Silverdale ,WA,98383,United States,(360) 443-1757,,,"Center Hours: Closed Now, M-F 8:00 AM - 6:00 PM, SAT 8:00 AM - 6:00 PM, SUN Closed",,,
Meineke-Car Care Center,4374,1445 Olney Avenue ,,Port Orchard ,WA,98366,United States,(360) 602-2894,,,"Center Hours: Closed Now, M-F 8:00 AM - 6:00 PM, SAT 8:00 AM - 6:00 PM, SUN Closed",,,
Meineke-Car Care Center,2389,465 S. Holgate Street ,,Seattle ,WA,98134,United States,(206) 962-8590,,,"Center Hours: Closed Now, M-F 7:30 AM - 6:00 PM, SAT 7:30 AM - 6:00 PM, SUN Closed",,,
Meineke-Car Care Center,2388,1702 SW Roxbury ,,Seattle ,WA,98106,United States,(206) 962-8587,,,"Center Hours: Closed Now, M-F 7:30 AM - 6:00 PM, SAT 7:30 AM - 6:00 PM, SUN Closed",,,
Meineke-Car Care Center,1649,414 Commerce Drive ,,Madison ,WI,53719,United States,(608) 957-8544,,,"Center Hours: Closed Now, M-F 7:30 AM - 6:00 PM, SAT 7:30 AM - 4:00 PM, SUN Closed",,,
Meineke-Car Care Center,2379,517 4th Avenue E. ,,Olympia ,WA,98501,United States,(360) 515-9880,,,"Center Hours: Closed Now, M-F 7:30 AM - 6:00 PM, SAT 7:30 AM - 6:00 PM, SUN Closed",,,
Meineke-Car Care Center,2169,955 Brompton Lane ,,Greenville ,NC,27834,United States,(252) 347-0837,,,"Center Hours: Closed Now, M-F 7:30 AM - 6:00 PM, SAT 7:30 AM - 4:00 PM, SUN Closed",,,
Meineke-Car Care Center,2382,5309 Pt. Fosdick Dr. NW ,,Gig Harbor ,WA,98335,United States,(253) 358-2038,,,"Center Hours: Closed Now, M-F 8:00 AM - 6:00 PM, SAT 8:00 AM - 5:00 PM, SUN Closed",,,
Meineke-Car Care Center,2385,64 Logan Avenue S. ,,Renton ,WA,98057,United States,(425) 529-9425,,,"Center Hours: Closed Now, M-F 7:30 AM - 6:00 PM, SAT 7:30 AM - 6:00 PM, SUN 9:00 AM - 5:00 PM",,,
Meineke-Car Care Center,2378,2701 Bridgeport Way W. ,,Tacoma ,WA,98466,United States,(253) 777-3247,,,"Center Hours: Closed Now, M-F 7:30 AM - 6:00 PM, SAT 7:30 AM - 6:00 PM, SUN Closed",,,
Meineke-Car Care Center,2377,4021 S. Meridian ,,Puyallup ,WA,98373,United States,(253) 200-1485,,,"Center Hours: Closed Now, M-F 7:30 AM - 6:00 PM, SAT 7:30 AM - 6:00 PM, SUN 9:00 AM - 5:00 PM",,,
Meineke-Car Care Center,4164,8724 South Tacoma Way ,,Lakewood ,WA,98499,United States,(253) 203-1500,,,"Center Hours: Closed Now, M-F 7:30 AM - 6:00 PM, SAT 7:30 AM - 6:00 PM, SUN Closed",,,
Meineke-Car Care Center,2376,13101 Pacific Avenue SE ,,Tacoma ,WA,98444,United States,(253) 203-6261,,,"Center Hours: Closed Now, M-F 7:30 AM - 6:00 PM, SAT 7:30 AM - 6:00 PM, SUN 9:00 AM - 5:00 PM",,,
Meineke-Car Care Center,2698,5916 Pacific Avenue S.E. ,,Lacey ,WA,98503,United States,(360) 419-6778,,,"Center Hours: Closed Now, M-F 7:30 AM - 6:00 PM, SAT 7:30 AM - 6:00 PM, SUN Closed",,,
Meineke-Car Care Center,2425,600 Southcross Drive W ,,Burnsville ,MN,55306-7901,United States,(952) 232-1054,,,"Center Hours: Closed Now, M-F 7:30 AM - 6:00 PM, SAT 8:00 AM - 4:00 PM, SUN Closed",,,
Meineke-Car Care Center,360,199 Court Street ,,Auburn ,ME,04210-5909,United States,(207) 520-2313,,,"Center Hours: Closed Now, M-F 7:30 AM - 5:00 PM, SAT 7:30 AM - 4:00 PM, SUN Closed",,,
Meineke-Car Care Center,2569,8088 Brooklyn Blvd ,,Brooklyn Park ,MN,55445,United States,(763) 515-9254,,,"Center Hours: Closed Now, M-F 7:30 AM - 6:00 PM, SAT 8:00 AM - 4:00 PM, SUN Closed",,,
Meineke-Car Care Center,1916,4360 Central Avenue NE ,,Columbia Heights ,MN,55421,United States,(763) 515-8685,,,"Center Hours: Closed Now, M-F 7:30 AM - 6:00 PM, SAT 8:00 AM - 4:00 PM, SUN Closed",,,
Meineke-Car Care Center,2380,433 N. Meridian ,,Puyallup ,WA,98371,United States,(253) 200-0776,,,"Center Hours: Closed Now, M-F 7:30 AM - 6:00 PM, SAT 7:30 AM - 6:00 PM, SUN Closed",,,
Meineke-Car Care Center,622,4839 North 90th Street ,,Omaha ,NE,68134-2704,United States,(402) 513-0481,,,"Center Hours: Closed Now, M-F 7:30 AM - 6:00 PM, SAT 8:00 AM - 4:00 PM, SUN Closed",,,
Meineke-Car Care Center,990,6 Topsham Fair Mall Road ,,Topsham ,ME,04086,United States,(207) 573-7042,,,"Center Hours: Closed Now, M-F 7:30 AM - 6:00 PM, SAT 7:30 AM - 4:00 PM, SUN Closed",,,
Meineke-Car Care Center,2253,23100 Pacific Hwy ,,South Des Moines ,WA,98198,United States,(206) 429-5857,,,"Center Hours: Closed Now, M-F 7:30 AM - 6:00 PM, SAT 7:30 AM - 6:00 PM, SUN Closed",,,
Meineke-Car Care Center,1849,730 W. Firetower Road ,,Winterville ,NC,28590,United States,(252) 375-8347,,,"Center Hours: Closed Now, M-F 8:00 AM - 6:00 PM, SAT 8:00 AM - 4:00 PM, SUN Closed",,,
Meineke-Car Care Center,407,4021 West Outer Road ,,Arnold ,MO,63010,United States,(636) 525-1392,,,"Center Hours: Closed Now, M-F 7:30 AM - 6:00 PM, SAT 7:30 AM - 4:00 PM, SUN Closed",,,
Meineke-Car Care Center,2585,922 W. Main St ,,Mascoutah ,IL,62258-1163,United States,(618) 566-6903,,,"Center Hours: Closed Now, M-F 7:30 AM - 6:00 PM, SAT 7:30 AM - 4:00 PM, SUN Closed",,,
Meineke-Car Care Center,469,715 Highway K O ,,Fallon ,MO,63366-2969,United States,(636) 614-4545,,,"Center Hours: Closed Now, M-F 7:30 AM - 6:00 PM, SAT 7:30 AM - 4:00 PM, SUN Closed",,,
Meineke-Car Care Center,395,3322 Leavenworth ,,Omaha ,NE,68105-1916,United States,(402) 671-0944,,,"Center Hours: Closed Now, M-F 7:30 AM - 6:00 PM, SAT 7:30 AM - 4:00 PM, SUN Closed",,,
Meineke-Car Care Center,2375,3024 6th Avenue ,,Tacoma ,WA,98406,United States,(253) 666-4051,,,"Center Hours: Closed Now, M-F 7:30 AM - 6:00 PM, SAT 7:30 AM - 6:00 PM, SUN Closed",,,
Meineke-Car Care Center,1652,5757 Telegraph Road ,,Oakville ,MO,63129,United States,(314) 334-3676,,,"Center Hours: Closed Now, M-F 7:30 AM - 6:00 PM, SAT 7:30 AM - 4:00 PM, SUN Closed",,,
Meineke-Car Care Center,790,1074 Gravois Road ,,Fenton ,MO,63026-5009,United States,(636) 492-2453,,,"Center Hours: Closed Now, M-F 7:30 AM - 6:00 PM, SAT 7:30 AM - 6:00 PM, SUN Closed",,,
Meineke-Car Care Center,1856,3608 North Belt West ,,Belleville ,IL,62226,United States,(618) 207-3176,,,"Center Hours: Closed Now, M-F 7:30 AM - 6:00 PM, SAT 7:30 AM - 4:00 PM, SUN Closed",,,
Meineke-Car Care Center,310,2307 Old Collinsville Road ,,Belleville ,IL,62221-7480,United States,(618) 509-5541,,,"Center Hours: Closed Now, M-F 7:30 AM - 6:00 PM, SAT 7:30 AM - 4:00 PM, SUN Closed",,,
Meineke-Car Care Center,2588,10500 Excelsior Blvd ,,Hopkins ,MN,55343,United States,(952) 388-0727,,,"Center Hours: Closed Now, M-F 7:30 AM - 6:00 PM, SAT 8:00 AM - 4:00 PM, SUN Closed",,,
Meineke-Car Care Center,279,14935 Manchester Road ,,Ballwin ,MO,63011-4624,United States,(636) 200-8114,,,"Center Hours: Closed Now, M-F 7:30 AM - 6:00 PM, SAT 7:30 AM - 5:00 PM, SUN Closed",,,
Meineke-Car Care Center,418,10712 Lincoln Trail ,,Fairview Heights ,IL,62208-2008,United States,(618) 688-4626,,,"Center Hours: Closed Now, M-F 7:30 AM - 6:00 PM, SAT 7:30 AM - 4:00 PM, SUN Closed",,,
Meineke-Car Care Center,1340,4245 North Saint Peters Parkway ,,Saint Peters ,MO,63304,United States,(636) 851-9393,,,"Center Hours: Closed Now, M-F 7:30 AM - 6:00 PM, SAT 7:30 AM - 4:00 PM, SUN Closed",,,
Meineke-Car Care Center,1655,165 Long Road ,,Chesterfield ,MO,63005,United States,(636) 735-3385,,,"Center Hours: Closed Now, M-F 7:30 AM - 6:00 PM, SAT 7:30 AM - 4:00 PM, SUN Closed",,,
Meineke-Car Care Center,154,2315 West Clay St. ,,Saint Charles ,MO,63301,United States,(636) 352-1388,,,"Center Hours: Closed Now, M-F 7:30 AM - 6:00 PM, SAT 7:30 AM - 4:00 PM, SUN 10:00 AM - 4:00 PM",,,
Meineke-Car Care Center,28,3722 Lemay Ferry Road ,,St. Louis ,MO,63125-4506,United States,(314) 329-0500,,,"Center Hours: Closed Now, M-F 7:30 AM - 6:00 PM, SAT 7:30 AM - 4:00 PM, SUN Closed",,,
Meineke-Car Care Center,897,1990 East County Road D ,,Maplewood ,MN,55109,United States,(651) 968-8204,,,"Center Hours: Closed Now, M-F 7:30 AM - 6:00 PM, SAT 7:30 AM - 4:00 PM, SUN Closed",,,
Meineke-Car Care Center,264,2701 Washington Avenue ,,Alton ,IL,62002-5469,United States,(618) 208-1540,,,"Center Hours: Closed Now, M-F 8:00 AM - 6:00 PM, SAT 8:00 AM - 5:00 PM, SUN Closed",,,
Meineke-Car Care Center,195,9100 Manchester Road ,,Brentwood ,MO,63144-2626,United States,(314) 684-8476,,,"Center Hours: Closed Now, M-F 7:30 AM - 6:00 PM, SAT 7:30 AM - 4:00 PM, SUN Closed",,,
Meineke-Car Care Center,591,702 Martin Luther King Dr East ,,Saint Louis ,IL,62201-2907,United States,(618) 215-5796,,,"Center Hours: Closed Now, M-F 7:30 AM - 6:00 PM, SAT 7:30 AM - 4:00 PM, SUN Closed",,,
Meineke-Car Care Center,2644,1250 Miland Street ,,Wood River ,IL,62095,United States,(618) 216-5718,,,"Center Hours: Closed Now, M-F 7:30 AM - 6:00 PM, SAT 7:30 AM - 4:00 PM, SUN Closed",,,
Meineke-Car Care Center,262,411 Belt Line Road ,,Collinsville ,IL,62234-4407,United States,(618) 223-5286,,,"Center Hours: Closed Now, M-F 7:30 AM - 6:00 PM, SAT 7:30 AM - 4:00 PM, SUN Closed",,,
Meineke-Car Care Center,376,11831 St. Charles Rock Road ,,Bridgeton ,MO,63044-2611,United States,(314) 684-8116,,,"Center Hours: Closed Now, M-F 7:30 AM - 6:00 PM, SAT 7:30 AM - 4:00 PM, SUN Closed",,,
Meineke-Car Care Center,2176,311 Jarvis Court ,,Troy ,IL,62294,United States,(618) 505-1024,,,"Center Hours: Closed Now, M-F 7:30 AM - 6:00 PM, SAT 7:30 AM - 4:00 PM, SUN Closed",,,
Meineke-Car Care Center,1479,720 Cambridge Boulevard ,,O Fallon ,IL,62269,United States,(618) 589-8014,,,"Center Hours: Closed Now, M-F 7:30 AM - 6:00 PM, SAT 7:30 AM - 4:00 PM, SUN Closed",,,
Meineke-Car Care Center,153,402 South Florissant Road ,,Ferguson ,MO,63135-2948,United States,(314) 656-8934,,,"Center Hours: Closed Now, M-F 7:30 AM - 6:00 PM, SAT 7:30 AM - 4:00 PM, SUN Closed",,,
Meineke-Car Care Center,26,545 North Highway 67 ,,Florissant ,MO,63031-5103,United States,(314) 266-4151,,,"Center Hours: Closed Now, M-F 7:30 AM - 6:00 PM, SAT 7:30 AM - 4:00 PM, SUN Closed",,,
Meineke-Car Care Center,392,10617 New Halls Ferry Road ,,St. Louis ,MO,63136-4428,United States,(314) 656-8296,,,"Center Hours: Closed Now, M-F 7:30 AM - 6:00 PM, SAT 7:30 AM - 4:00 PM, SUN Closed",,,
Meineke-Car Care Center,2057,2518 Ironwood Drive ,,Sun Prairie ,WI,53590,United States,(608) 478-0191,,,"Center Hours: Closed Now, M-F 7:30 AM - 6:00 PM, SAT 7:30 AM - 4:00 PM, SUN Closed",,,
Meineke-Car Care Center,557,2250 Madison Avenue ,,Granite City ,IL,62040-4705,United States,(618) 219-8570,,,"Center Hours: Closed Now, M-F 7:30 AM - 6:00 PM, SAT 7:30 AM - 4:00 PM, SUN Closed",,,
Meineke-Car Care Center,30,4426 South Kingshighway ,,St. Louis ,MO,63109-2425,United States,(314) 732-4614,,,"Center Hours: Closed Now, M-F 7:30 AM - 6:00 PM, SAT 7:30 AM - 4:00 PM, SUN Closed",,,
Meineke-Car Care Center,1837,3501 13th Avenue ,,Fargo ,ND,58103,United States,(701) 552-5811,,,"Center Hours: Closed Now, M-F 7:30 AM - 6:30 PM, SAT 7:30 AM - 5:30 PM, SUN Closed",,,
Meineke-Car Care Center,295,3900 N Kings Hwy Blvd ,,St. Louis ,MO,63115-1716,United States,(314) 499-1399,,,"Center Hours: Closed Now, M-F 8:00 AM - 6:00 PM, SAT 8:00 AM - 4:00 PM, SUN Closed",,,
Meineke-Car Care Center,1422,1902 Woodson Road ,,Overland ,MO,63114-5650,United States,(314) 684-8481,,,"Center Hours: Closed Now, M-F 7:30 AM - 6:00 PM, SAT 7:30 AM - 4:00 PM, SUN Closed",,,
Meineke-Car Care Center,2649,2470 W Stadium Blvd ,,Ann Arbor ,MI,48103,United States,(734) 619-0380,,,"Center Hours: Closed Now, M-F 7:30 AM - 6:00 PM, SAT 7:30 AM - 6:00 PM, SUN Closed",,,
Meineke-Car Care Center,2702,15224 Creosote Rd ,,Gulfport ,MS,39503,United States,(228) 284-1405,,,"Center Hours: Closed Now, M-F 7:30 AM - 6:00 PM, SAT 7:30 AM - 4:00 PM, SUN Closed",,,
Meineke-Car Care Center,400,2139 28th Street Southwest ,,Wyoming ,MI,49509-2383,United States,(616) 828-5890,,,"Center Hours: Closed Now, M-F 7:30 AM - 6:00 PM, SAT 7:30 AM - Call, SUN Closed",,,
Meineke-Car Care Center,1334,10606 D'Iberville Blvd ,,D'iberville ,MS,39532,United States,(228) 207-5528,,,"Center Hours: Closed Now, M-F 7:30 AM - 6:00 PM, SAT 7:30 AM - 6:00 PM, SUN Closed",,,
Meineke-Car Care Center,1923,4370 Haggerty Road ,,Walled Lake ,MI,48390,United States,(248) 716-3083,,,"Center Hours: Closed Now, M-F 8:00 AM - 6:00 PM, SAT 8:00 AM - 4:00 PM, SUN Closed",,,
Meineke-Car Care Center,2122,50945 Design Lane ,,Shelby Township ,MI,48315,United States,(586) 932-5216,,,"Center Hours: Closed Now, M-F 7:30 AM - 6:00 PM, SAT 7:30 AM - 4:00 PM, SUN Closed",,,
Meineke-Car Care Center,2023,1032 Glenway Drive ,,Statesville ,NC,28625,United States,(704) 883-5919,,,"Center Hours: Closed Now, M-F 7:30 AM - 6:00 PM, SAT 7:30 AM - 4:00 PM, SUN Closed",,,
Meineke-Car Care Center,419,1319 Country Club Road ,,Jacksonville ,NC,28546-6026,United States,(910) 939-3562,,,"Center Hours: Closed Now, M-F 8:00 AM - 6:00 PM, SAT 8:00 AM - 4:00 PM, SUN Closed",,,
Meineke-Car Care Center,1980,407 E. Main Street ,,Carrboro ,NC,27510,United States,(919) 590-3305,,,"Center Hours: Closed Now, M-F 7:30 AM - 6:00 PM, SAT 7:30 AM - 4:00 PM, SUN Closed",,,
Meineke-Car Care Center,1830,1410 East Broad Street ,,Fuquay Varina ,NC,27526,United States,(919) 346-6485,,,"Center Hours: Closed Now, M-F 7:30 AM - 6:00 PM, SAT 7:30 AM - 6:00 PM, SUN Closed",,,
Meineke-Car Care Center,2370,11577 US 70 Business Highway W ,,Clayton ,NC,27520,United States,(919) 585-1618,,,"Center Hours: Closed Now, M-F 7:30 AM - 6:00 PM, SAT 7:30 AM - 6:00 PM, SUN Closed",,,
Meineke-Car Care Center,2084,2105 NC Highway 54 ,,Durham ,NC,27713,United States,(919) 213-7468,,,"Center Hours: Closed Now, M-F 7:30 AM - 6:00 PM, SAT 7:30 AM - 5:00 PM, SUN Closed",,,
Meineke-Car Care Center,4394,1188 West Main Street ,,Sylva ,NC,28779,United States,(828) 477-4604,,,"Center Hours: Closed Now, M-F 7:30 AM - 5:30 PM, SAT 8:00 AM - 4:00 PM, SUN Closed",,,
Meineke-Car Care Center,374,3908 Western Boulevard ,,Raleigh ,NC,27606-1937,United States,(919) 480-8794,,,"Center Hours: Closed Now, M-F 7:30 AM - 6:00 PM, SAT 7:30 AM - 4:00 PM, SUN Closed",,,
Meineke-Car Care Center,1312,3421 West Millbrook Road ,,Raleigh ,NC,27612,United States,(919) 999-3445,,,"Center Hours: Closed Now, M-F 7:30 AM - 6:00 PM, SAT 7:30 AM - 5:00 PM, SUN Closed",,,
Meineke-Car Care Center,1942,9320 Forum Road ,,Raleigh ,NC,27615,United States,(919) 789-1974,,,"Center Hours: Closed Now, M-F 7:30 AM - 6:00 PM, SAT 7:30 AM - 4:00 PM, SUN Closed",,,
Meineke-Car Care Center,1786,9515 Chapel Hill Road ,,Morrisville ,NC,27560,United States,(919) 323-8051,,,"Center Hours: Closed Now, M-F 7:00 AM - 6:00 PM, SAT 7:00 AM - 6:00 PM, SUN Closed",,,
Meineke-Car Care Center,1875,10121 Capital Blvd ,,Wake Forest ,NC,27857,United States,(919) 809-5316,,,"Center Hours: Closed Now, M-F 7:30 AM - 6:00 PM, SAT 7:30 AM - 5:00 PM, SUN Closed",,,
Meineke-Car Care Center,2042,74 Sawmill Village Lane ,,Franklin ,NC,28734,United States,(828) 634-7283,,,"Center Hours: Closed Now, M-F 8:00 AM - 6:00 PM, SAT 8:00 AM - 4:00 PM, SUN Closed",,,
Meineke-Car Care Center,1475,2375 Carolina Beach Road ,,Wilmington ,NC,28401,United States,(910) 338-0439,,,"Center Hours: Closed Now, M-F 7:30 AM - 6:00 PM, SAT 8:00 AM - 4:00 PM, SUN Closed",,,
Meineke-Car Care Center,282,3805 Market Street ,,Wilmington ,NC,28403-1401,United States,(910) 805-8676,,,"Center Hours: Closed Now, M-F 7:30 AM - 6:00 PM, SAT 8:00 AM - 4:00 PM, SUN Closed",,,
Meineke-Car Care Center,188,4513 West Market Street ,,Greensboro ,NC,27407-1229,United States,(336) 645-9783,,,"Center Hours: Closed Now, M-F 7:30 AM - 6:00 PM, SAT 7:30 AM - 4:00 PM, SUN Closed",,,
Meineke-Car Care Center,2304,405 W. Main Street ,,Jamestown ,NC,27282,United States,(336) 899-0510,,,"Center Hours: Closed Now, M-F 7:30 AM - 6:00 PM, SAT 8:00 AM - 4:00 PM, SUN Closed",,,
Meineke-Car Care Center,2235,2642 S. Saunders St. ,,Raleigh ,NC,27603,United States,(919) 500-5240,,,"Center Hours: Closed Now, M-F 8:00 AM - 6:00 PM, SAT 8:00 AM - 6:00 PM, SUN Closed",,,
Meineke-Car Care Center,1269,4434 West Wendover Avenue ,,Greensboro ,NC,27407,United States,(336) 645-9898,,,"Center Hours: Closed Now, M-F 7:30 AM - 6:00 PM, SAT 7:30 AM - 4:00 PM, SUN Closed",,,
Meineke-Car Care Center,2394,5267 Neal Trail Dr ,,Walkertown ,NC,27051,United States,(336) 791-0276,,,"Center Hours: Closed Now, M-F 7:30 AM - 6:00 PM, SAT 7:30 AM - 4:00 PM, SUN Closed",,,
Meineke-Car Care Center,2222,949 Gateway Commons Circle ,,Wake Forest ,NC,27587,United States,(919) 263-0126,,,"Center Hours: Closed Now, M-F 7:30 AM - 6:00 PM, SAT 7:30 AM - 5:00 PM, SUN Closed",,,
Meineke-Car Care Center,2140,104 Woodland Drive ,,Leland ,NC,28451,United States,(910) 726-3218,,,"Center Hours: Closed Now, M-F 8:00 AM - 6:00 PM, SAT 8:00 AM - 4:00 PM, SUN Closed",,,
Meineke-Car Care Center,2731,3384 W US Hwy 421 ,,Wilkesboro ,NC,28697,United States,(336) 443-9954,,,"Center Hours: Closed Now, M-F 7:30 AM - 6:00 PM, SAT 7:30 AM - 4:00 PM, SUN Closed",,,
Meineke-Car Care Center,1917,250 US Highway # 70 West ,,Garner ,NC,27529,United States,(919) 999-3459,,,"Center Hours: Closed Now, M-F 7:30 AM - 6:00 PM, SAT 7:30 AM - 5:00 PM, SUN Closed",,,
Meineke-Car Care Center,1955,2689 Lewisville-Clemmons Road ,,Clemmons ,NC,27012,United States,(336) 546-5865,,,"Center Hours: Closed Now, M-F 7:30 AM - 6:00 PM, SAT 7:30 AM - 5:00 PM, SUN Closed",,,
Meineke-Car Care Center,2199,1800 S. Croatan Highway ,,Kill Devil Hills ,NC,27948,United States,(252) 564-7851,,,"Center Hours: Closed Now, M-F 7:30 AM - 6:00 PM, SAT 7:30 AM - 4:00 PM, SUN Closed",,,
Meineke-Car Care Center,628,6017 Yadkin Road ,,Fayetteville ,NC,28303-2652,United States,(910) 779-4433,,,"Center Hours: Closed Now, M-F 7:30 AM - 6:00 PM, SAT 7:30 AM - 4:00 PM, SUN Closed",,,
Meineke-Car Care Center,1843,2550 West Battlefield Road ,,Springfield ,MO,65807,United States,(417) 429-4380,,,"Center Hours: Closed Now, M-F 7:30 AM - 6:00 PM, SAT 7:30 AM - 4:00 PM, SUN Closed",,,
Meineke-Car Care Center,446,201 E Sunshine Street ,,Springfield ,MO,65807,United States,(417) 429-2200,,,"Center Hours: Closed Now, M-F 7:30 AM - 6:00 PM, SAT 7:30 AM - 4:00 PM, SUN Closed",,,
Meineke-Car Care Center,300,3412 Raeford Road ,,Fayetteville ,NC,28303-5323,United States,(910) 475-7421,,,"Center Hours: Closed Now, M-F 7:30 AM - 6:00 PM, SAT 7:30 AM - 4:00 PM, SUN Closed",,,
Meineke-Car Care Center,1380,1306 East Santa Fe Street ,,Olathe ,KS,66061,United States,(913) 274-1404,,,"Center Hours: Closed Now, M-F 7:30 AM - 6:00 PM, SAT 7:30 AM - 6:00 PM, SUN Closed",,,
Meineke-Car Care Center,1375,12300 West 95th Street ,,Lenexa ,KS,66215,United States,(913) 213-0484,,,"Center Hours: Closed Now, M-F 7:30 AM - 6:00 PM, SAT 7:30 AM - 6:00 PM, SUN Closed",,,
Meineke-Car Care Center,1707,1724 S.W.US 40 Hwy. ,,Eastbound Blue Springs ,MO,64015,United States,(816) 295-6201,,,"Center Hours: Closed Now, M-F 8:00 AM - 6:00 PM, SAT 8:00 AM - 4:00 PM, SUN Closed",,,
Meineke-Car Care Center,1667,320 Northeast 291 Highway Lee's Summit ,,,MO,64086,United States,(816) 607-8053,,,"Center Hours: Closed Now, M-F 7:30 AM - 6:00 PM, SAT 7:30 AM - 4:00 PM, SUN Closed",,,
Meineke-Car Care Center,1377,7525 Metcalf Avenue ,,Overland Park ,KS,66204,United States,(913) 871-9764,,,"Center Hours: Closed Now, M-F 7:30 AM - 6:00 PM, SAT 7:30 AM - 6:00 PM, SUN Closed",,,
Meineke-Car Care Center,1381,2535 South Iowa ,,Lawrence ,KS,66046,United States,(785) 330-5622,,,"Center Hours: Closed Now, M-F 7:30 AM - 6:00 PM, SAT 7:30 AM - 6:00 PM, SUN Closed",,,
Meineke-Car Care Center,1696,813 Valley Creek Drive ,,Farmington ,MO,63640,United States,(573) 747-4166,,,"Center Hours: Closed Now, M-F 7:30 AM - 6:00 PM, SAT 7:30 AM - 5:00 PM, SUN Closed",,,
Meineke-Car Care Center,938,399 Second Street ,,Williamsburg ,VA,23185,United States,(757) 585-4492,,,"Center Hours: Closed Now, M-F 7:30 AM - 6:00 PM, SAT 7:30 AM - 5:00 PM, SUN Closed",,,
Meineke-Car Care Center,584,79 West Mercury Boulevard ,,Hampton ,VA,23669-2508,United States,(757) 690-7689,,,"Center Hours: Closed Now, M-F 7:30 AM - 6:00 PM, SAT 7:30 AM - 5:00 PM, SUN Closed",,,
Meineke-Car Care Center,1372,7584 West 119th Street ,,Overland Park ,KS,66213,United States,(913) 284-0205,,,"Center Hours: Closed Now, M-F 7:30 AM - 6:00 PM, SAT 7:30 AM - 6:00 PM, SUN Closed",,,
Meineke-Car Care Center,2373,2610 Church St ,,Norfolk ,VA,23504,United States,(757) 264-6315,,,"Center Hours: Closed Now, M-F 8:00 AM - 6:00 PM, SAT 8:00 AM - 4:00 PM, SUN Closed",,,
Meineke-Car Care Center,1088,415 Oriana Road ,,Denbigh ,VA,23608,United States,(757) 814-2724,,,"Center Hours: Closed Now, M-F 7:30 AM - 6:00 PM, SAT 7:30 AM - 5:00 PM, SUN Closed",,,
Meineke-Car Care Center,2278,610 West Custer Avenue ,,Helena ,MT,59601,United States,(406) 204-4125,,,"Center Hours: Closed Now, M-F 8:00 AM - 6:00 PM, SAT 8:00 AM - 4:00 PM, SUN Closed",,,
Meineke-Car Care Center,312,1837 Laskin Road ,,Virginia Beach ,VA,23454-4504,United States,(757) 918-7618,,,"Center Hours: Closed Now, M-F 7:30 AM - 6:00 PM, SAT 7:30 AM - 4:00 PM, SUN Closed",,,
Meineke-Car Care Center,352,2359 Solomons Island Road ,,Annapolis ,MD,21401,United States,(410) 216-4233,,,"Center Hours: Closed Now, M-F 8:00 AM - 6:00 PM, SAT 8:00 AM - 4:00 PM, SUN Closed",,,
Meineke-Car Care Center,998,5216 West Broad Street ,,Richmond ,VA,23230-3010,United States,(804) 297-0985,,,"Center Hours: Closed Now, M-F 7:30 AM - 6:00 PM, SAT 7:30 AM - 4:00 PM, SUN Closed",,,
Meineke-Car Care Center,781,19600 North Frederick Road ,,Germantown ,MD,20876-1304,United States,(301) 637-0291,,,"Center Hours: Closed Now, M-F 8:00 AM - 6:00 PM, SAT 8:00 AM - 4:00 PM, SUN Closed",,,
Meineke-Car Care Center,394,800 West Patapsco Avenue ,,Baltimore ,MD,21230-3413,United States,(410) 202-0177,,,"Center Hours: Closed Now, M-F 7:30 AM - 6:00 PM, SAT 7:30 AM - 4:00 PM, SUN Closed",,,
Meineke-Car Care Center,2514,5271 S. Laburnum Avenue ,,Richmond ,VA,23231,United States,(804) 297-0840,,,"Center Hours: Closed Now, M-F 8:00 AM - 6:00 PM, SAT 8:00 AM - 6:00 PM, SUN 8:00 AM - 2:00 PM",,,
Meineke-Car Care Center,1226,970 East Parham Road ,,Richmond ,VA,23228-6511,United States,(804) 297-0934,,,"Center Hours: Closed Now, M-F 7:30 AM - 6:00 PM, SAT 7:30 AM - 4:00 PM, SUN Closed",,,
Meineke-Car Care Center,702,712 Boulevard ,,Colonial Heights ,VA,23834-3237,United States,(804) 324-3782,,,"Center Hours: Closed Now, M-F 7:30 AM - 6:00 PM, SAT 7:30 AM - 4:00 PM, SUN Closed",,,
Meineke-Car Care Center,544,2490 Airline Boulevard ,,Portsmouth ,VA,23701-2912,United States,(757) 394-9281,,,"Center Hours: Closed Now, M-F 7:30 AM - 6:00 PM, SAT 7:30 AM - 5:00 PM, SUN Closed",,,
Meineke-Car Care Center,851,4609 George Wash'tn Mem Hwy ,,Grafton ,VA,23692-2766,United States,(757) 847-9155,,,"Center Hours: Closed Now, M-F 7:30 AM - 6:00 PM, SAT 7:30 AM - 5:00 PM, SUN Closed",,,
Meineke-Car Care Center,197,6399 Indian River Road ,,Virginia Beach ,VA,23464-3500,United States,(757) 932-2985,,,"Center Hours: Closed Now, M-F 7:30 AM - 6:00 PM, SAT 7:30 AM - 5:00 PM, SUN Closed",,,
Meineke-Car Care Center,2071,15127 Frederick Road ,,Rockville ,MD,20850,United States,(301) 825-5780,,,"Center Hours: Closed Now, M-F 7:30 AM - 6:00 PM, SAT 7:30 AM - 6:00 PM, SUN Closed",,,
Meineke-Car Care Center,2038,1770 Ball Street ,,Tappahannock ,VA,22560,United States,(804) 445-2358,,,"Center Hours: Closed Now, M-F 7:30 AM - 6:00 PM, SAT 7:30 AM - 4:00 PM, SUN Closed",,,
Meineke-Car Care Center,554,11711 Hull Street Road ,,Chesterfield ,VA,23112-2901,United States,(804) 655-0927,,,"Center Hours: Closed Now, M-F 7:30 AM - 6:00 PM, SAT 7:30 AM - 4:00 PM, SUN Closed",,,
Meineke-Car Care Center,297,8314 Annapolis Road-Route 450 ,,New Carrollton ,MD,20784,United States,(301) 364-4839,,,"Center Hours: Closed Now, M-F 8:00 AM - 6:00 PM, SAT 8:00 AM - 4:00 PM, SUN Closed",,,
Meineke-Car Care Center,1499,18134 Forest Road Forest ,,,VA,24551,United States,(434) 485-5711,,,"Center Hours: Closed Now, M-F 7:30 AM - 6:00 PM, SAT 7:30 AM - 4:00 PM, SUN Closed",,,
Meineke-Car Care Center,763,6311-D Coventry Way ,,Clinton ,MD,20735,United States,(301) 909-5777,,,"Center Hours: Closed Now, M-F 7:30 AM - 6:00 PM, SAT 7:30 AM - 4:00 PM, SUN Closed",,,
Meineke-Car Care Center,824,9225 Berger Road Suite 130 ,,Columbia ,MD,21046-1672,United States,(410) 697-4072,,,"Center Hours: Closed Now, M-F 7:30 AM - 6:00 PM, SAT 7:30 AM - 6:00 PM, SUN Closed",,,
Meineke-Car Care Center,879,8900 Old Rhode Island Avenue ,,College Park ,MD,20740-4122,United States,(301) 276-5929,,,"Center Hours: Closed Now, M-F 7:30 AM - 6:00 PM, SAT 7:30 AM - 4:00 PM, SUN Closed",,,
Meineke-Car Care Center,435,8220 Georgia Avenue ,,Silver Spring ,MD,20910-4519,United States,(301) 960-3853,,,"Center Hours: Closed Now, M-F 7:30 AM - 6:00 PM, SAT 7:30 AM - 6:00 PM, SUN Closed",,,
Meineke-Car Care Center,1943,1524 Spring Hill Road Unit BB ,,Mclean ,VA,22102,United States,(703) 635-3370,,,"Center Hours: Closed Now, M-F 7:30 AM - 6:00 PM, SAT 7:30 AM - 4:00 PM, SUN Closed",,,
Meineke-Car Care Center,274,9881 Fairfax Boulevard ,,Fairfax ,VA,22030-1738,United States,(703) 349-0162,,,"Center Hours: Closed Now, M-F 7:30 AM - 6:00 PM, SAT 7:30 AM - 4:00 PM, SUN Closed",,,
Meineke-Car Care Center,943,9871 Main Street ,,Damascus ,MD,20872,United States,(301) 637-0951,,,"Center Hours: Closed Now, M-F 7:30 AM - 6:00 PM, SAT 7:30 AM - 5:00 PM, SUN Closed",,,
Meineke-Car Care Center,1490,10046 Jefferson Davis Highway ,,Fredericksburg ,VA,22407,United States,(540) 645-5001,,,"Center Hours: Closed Now, M-F 7:30 AM - 6:00 PM, SAT 7:30 AM - 4:00 PM, SUN Closed",,,
Meineke-Car Care Center,169,11770 Holly Auto Center Lane ,,Waldorf ,MD,20601-2813,United States,(301) 861-3036,,,"Center Hours: Closed Now, M-F 7:30 AM - 6:00 PM, SAT 7:30 AM - 4:00 PM, SUN Closed",,,
Meineke-Car Care Center,1288,# 9 Dorothy Lane ,,Stafford ,VA,22554,United States,(540) 318-7842,,,"Center Hours: Closed Now, M-F 7:30 AM - 6:00 PM, SAT 7:30 AM - 4:00 PM, SUN Closed",,,
Meineke-Car Care Center,766,3401A Spotsylvania Mall Dr ,,Fredericksburg ,VA,22407-1103,United States,(540) 736-7516,,,"Center Hours: Closed Now, M-F 7:30 AM - 6:00 PM, SAT 7:30 AM - 4:00 PM, SUN Closed",,,
Meineke-Car Care Center,950,17422 Jefferson Davis Highway ,,Dumfries ,VA,22026-2200,United States,(703) 291-1899,,,"Center Hours: Closed Now, M-F 7:30 AM - 6:00 PM, SAT 7:30 AM - 4:00 PM, SUN Closed",,,
Meineke-Car Care Center,880,5026 Melrose Avenue ,,Roanoke ,VA,24017-2340,United States,(540) 339-7484,,,"Center Hours: Closed Now, M-F 7:30 AM - 6:00 PM, SAT 7:30 AM - Call, SUN Closed",,,
Meineke-Car Care Center,1944,8164-D Richmond Hwy ,,Alexandria ,VA,22309,United States,(703) 879-2633,,,"Center Hours: Closed Now, M-F 8:00 AM - 6:00 PM, SAT 8:00 AM - 5:00 PM, SUN Closed",,,
Meineke-Car Care Center,556,4998 South Amherst Highway ,,Madison Heights ,VA,24572,United States,(434) 338-6841,,,"Center Hours: Closed Now, M-F 7:30 AM - 6:00 PM, SAT 7:30 AM - 4:00 PM, SUN Closed",,,
Meineke-Car Care Center,1492,6530 Crain Highway ,,La Plata ,MD,20646,United States,(301) 392-7421,,,"Center Hours: Closed Now, M-F 7:30 AM - 6:00 PM, SAT 7:30 AM - 4:00 PM, SUN Closed",,,
Meineke-Car Care Center,342,1906 Emmet Street ,,Charlottesville ,VA,22901-2815,United States,(434) 227-4147,,,"Center Hours: Closed Now, M-F 7:30 AM - 6:00 PM, SAT 7:30 AM - 5:00 PM, SUN Closed",,,
Meineke-Car Care Center,2383,10501 State Avenue ,,Marysville ,WA,98271,United States,(360) 547-7276,,,"Center Hours: Closed Now, M-F 7:30 AM - 6:00 PM, SAT 7:30 AM - 6:00 PM, SUN Closed",,,
Meineke-Car Care Center,4333,9424 Evergreen Way ,,Everett ,WA,98204,United States,(425) 953-1310,,,"Center Hours: Closed Now, M-F 7:30 AM - 6:00 PM, SAT 7:30 AM - 6:00 PM, SUN 9:00 AM - 5:00 PM",,,
Meineke-Car Care Center,1435,18795 West Bluemound Road ,,Brookfield ,WI,53045,United States,(262) 923-8299,,,"Center Hours: Closed Now, M-F 7:00 AM - 6:00 PM, SAT 7:00 AM - 4:00 PM, SUN Closed",,,
Meineke-Car Care Center,558,2094 South Elmhurst Road ,,Mount Prospect ,IL,60056-5713,United States,(847) 979-0379,,,"Center Hours: Closed Now, M-F 7:00 AM - 6:00 PM, SAT 7:00 AM - 4:00 PM, SUN Closed",,,
Meineke-Car Care Center,2271,6006 21st Street ,,Racine ,WI,53406,United States,(262) 324-6279,,,"Center Hours: Closed Now, M-F 7:30 AM - 6:00 PM, SAT 7:30 AM - 4:00 PM, SUN Closed",,,
Meineke-Car Care Center,2136,1708 W. Wisconsin Avenue ,,Appleton ,WI,54914,United States,(920) 268-0287,,,"Center Hours: Closed Now, M-F 7:30 AM - 6:00 PM, SAT 7:30 AM - 4:00 PM, SUN Closed",,,
Meineke-Car Care Center,265,811A West Higgins Road ,,Schaumburg ,IL,60195-3201,United States,(847) 805-8034,,,"Center Hours: Closed Now, M-F 8:00 AM - 6:00 PM, SAT 8:00 AM - 4:00 PM, SUN Closed",,,
Meineke-Car Care Center,1718,1103 Palmetto Drive ,,Pineville ,LA,71360,United States,(318) 303-4110,,,"Center Hours: Closed Now, M-F 7:30 AM - 6:00 PM, SAT 7:30 AM - 4:00 PM, SUN Closed",,,
Meineke-Car Care Center,1970,420 West Seltice Way ,,Post Falls ,ID,83854,United States,(208) 262-4691,,,"Center Hours: Closed Now, M-F 8:00 AM - 5:00 PM, SAT 8:00 AM - 4:00 PM, SUN Closed",,,
Meineke-Car Care Center,2194,2401 Westown Parkway ,,West Des Moines ,IA,50266,United States,(515) 218-2280,,,"Center Hours: Closed Now, M-F 7:30 AM - 6:00 PM, SAT 7:30 AM - 4:00 PM, SUN Closed",,,
Meineke-Car Care Center,2431,11514 Shelbyville Road ,,Louisville ,KY,40243,United States,(502) 792-0745,,,"Center Hours: Closed Now, M-F 7:30 AM - 6:00 PM, SAT 7:30 AM - 5:00 PM, SUN Closed",,,
Meineke-Car Care Center,1811,2438 Limestone Parkway ,,Gainesville ,GA,30501,United States,(770) 872-4271,,,"Center Hours: Closed Now, M-F 8:00 AM - 6:00 PM, SAT 8:00 AM - 4:00 PM, SUN Closed",,,
Meineke-Car Care Center,1012,3861 Stone Mountain Highway ,,Snellville ,GA,30039,United States,(770) 729-4891,,,"Center Hours: Closed Now, M-F 7:30 AM - 6:00 PM, SAT 7:30 AM - 4:00 PM, SUN Closed",,,
Meineke-Car Care Center,1522,3626 Flakes Mill Road ,,Decatur ,GA,30034,United States,(678) 534-8135,,,"Center Hours: Closed Now, M-F 7:30 AM - 6:00 PM, SAT 7:30 AM - 4:00 PM, SUN Closed",,,
Meineke-Car Care Center,2687,1400 N. Dixie Hwy. ,,Elizabethtown ,KY,42701,United States,(270) 872-4661,,,"Center Hours: Closed Now, M-F 7:30 AM - 6:00 PM, SAT 7:30 AM - 5:00 PM, SUN Closed",,,
Meineke-Car Care Center,1957,2810 W Highway 54 ,,Peachtree City ,GA,30269,United States,(770) 884-4596,,,"Center Hours: Closed Now, M-F 7:30 AM - 6:00 PM, SAT 7:30 AM - 4:00 PM, SUN Closed",,,
Meineke-Car Care Center,509,4330 Jonesboro Road ,,Forest Park ,GA,30297,United States,(404) 692-7473,,,"Center Hours: Closed Now, M-F 7:30 AM - 6:00 PM, SAT 7:30 AM - 4:00 PM, SUN Closed",,,
Meineke-Car Care Center,639,1800 South Walnut Street ,,Bloomington ,IN,47401-7719,United States,(812) 318-1825,,,"Center Hours: Closed Now, M-F 7:00 AM - 6:00 PM, SAT 7:00 AM - 6:00 PM, SUN Closed",,,
Meineke-Car Care Center,4366,5445 West State Road 46 ,,Bloomington ,IN,47404,United States,(812) 307-9898,,,"Center Hours: Closed Now, M-F 7:00 AM - 6:00 PM, SAT 7:00 AM - 4:00 PM, SUN Closed",,,
Meineke-Car Care Center,1859,1440 East Semoran Boulevard Suite 101 ,,Apopka ,FL,32703,United States,(407) 753-2011,,,"Center Hours: Closed Now, M-F 7:30 AM - 6:00 PM, SAT 7:30 AM - 4:30 PM, SUN Closed",,,
Meineke-Car Care Center,2634,1178 S Nova Rd ,,Holly Hill ,FL,32117,United States,(386) 492-6994,,,"Center Hours: Closed Now, M-F 7:30 AM - 6:00 PM, SAT 7:30 AM - 4:00 PM, SUN Closed",,,
Meineke-Car Care Center,2486,185 S. Semoran Blvd. ,,Orlando ,FL,32807,United States,(321) 206-3215,,,"Center Hours: Closed Now, M-F 8:00 AM - 6:00 PM, SAT 8:00 AM - 4:00 PM, SUN Closed",,,
Meineke-Car Care Center,2171,2197 South Dixie Blvd. ,,Radcliff ,KY,40160,United States,(270) 936-8000,,,"Center Hours: Closed Now, M-F 7:30 AM - 6:00 PM, SAT 7:30 AM - 5:00 PM, SUN Closed",,,
Meineke-Car Care Center,2265,321 Market Street ,,Charlestown ,IN,47111,United States,(812) 406-0976,,,"Center Hours: Closed Now, M-F 7:30 AM - 6:00 PM, SAT 7:30 AM - 5:00 PM, SUN Closed",,,
Meineke-Car Care Center,1906,1301 S. Woodland Blvd ,,De Land ,FL,32720,United States,(386) 490-8535,,,"Center Hours: Closed Now, M-F 7:30 AM - 6:00 PM, SAT 7:30 AM - 6:00 PM, SUN Closed",,,
Meineke-Car Care Center,2592,3949 Shelbyville Rd ,,St. Matthews ,KY,40207,United States,(502) 526-5357,,,"Center Hours: Closed Now, M-F 7:30 AM - 6:00 PM, SAT 7:30 AM - 5:00 PM, SUN Closed",,,
Meineke-Car Care Center,1867,3939 Industrial Blvd ,,Bloomington ,IN,47403,United States,(812) 269-8245,,,"Center Hours: Closed Now, M-F 7:00 AM - 6:00 PM, SAT 7:00 AM - 6:00 PM, SUN Closed",,,
Meineke-Car Care Center,2010,1910 North Nelson Drive ,,Derby ,KS,67037,United States,(316) 768-4929,,,"Center Hours: Closed Now, M-F 7:30 AM - 6:00 PM, SAT 7:30 AM - 5:00 PM, SUN Closed",,,
Meineke-Car Care Center,1407,701 East Broadway ,,Louisville ,KY,40202,United States,(502) 792-7467,,,"Center Hours: Closed Now, M-F 7:30 AM - 6:00 PM, SAT 7:30 AM - 5:00 PM, SUN Closed",,,
Meineke-Car Care Center,1248,7103 Preston Highway ,,Louisville ,KY,40219,United States,(502) 792-0747,,,"Center Hours: Closed Now, M-F 7:30 AM - 6:00 PM, SAT 7:30 AM - 5:00 PM, SUN Closed",,,
Meineke-Car Care Center,1898,990 N. Morton Street ,,Franklin ,IN,46131,United States,(317) 412-9083,,,"Center Hours: Closed Now, M-F 7:30 AM - 6:00 PM, SAT 7:30 AM - 4:00 PM, SUN Closed",,,
Meineke-Car Care Center,1204,999 Duluth Highway ,,Lawrenceville ,GA,30043,United States,(770) 676-1380,,,"Center Hours: Closed Now, M-F 7:30 AM - 6:00 PM, SAT 7:30 AM - 4:00 PM, SUN Closed",,,
Meineke-Car Care Center,1819,7495 Douglas Boulevard ,,Douglasville ,GA,30135,United States,(770) 285-7961,,,"Center Hours: Closed Now, M-F 8:00 AM - 6:00 PM, SAT 8:00 AM - 4:00 PM, SUN Closed",,,
Meineke-Car Care Center,850,4062 Glenwood Road ,,Decatur ,GA,30032-4716,United States,(404) 369-3693,,,"Center Hours: Closed Now, M-F 8:00 AM - 6:00 PM, SAT 8:00 AM - 4:00 PM, SUN Closed",,,
Meineke-Car Care Center,1468,6420 Outer Loop ,,Louisville ,KY,40228,United States,(502) 694-7399,,,"Center Hours: Closed Now, M-F 7:30 AM - 6:00 PM, SAT 7:30 AM - 5:00 PM, SUN Closed",,,
Meineke-Car Care Center,2732,2585 Fredom Pkwy ,,Cumming ,GA,30041,United States,(770) 744-4742,,,"Center Hours: Closed Now, M-F 8:00 AM - 6:00 PM, SAT 8:00 AM - 4:00 PM, SUN Closed",,,
Meineke-Car Care Center,1858,3723 Charlestown Road ,,New Albany ,IN,47150,United States,(812) 590-8674,,,"Center Hours: Closed Now, M-F 7:30 AM - 6:00 PM, SAT 7:30 AM - 5:00 PM, SUN Closed",,,
Meineke-Car Care Center,171,1145 Hemphill Avenue Northwest ,,Atlanta ,GA,30318-5442,United States,(404) 692-5127,,,"Center Hours: Closed Now, M-F 7:30 AM - 6:00 PM, SAT 7:30 AM - 4:00 PM, SUN Closed",,,
Meineke-Car Care Center,505,3861 North Druid Hills Rd ,,Decatur ,GA,30033-3001,United States,(404) 865-1955,,,"Center Hours: Closed Now, M-F 7:30 AM - 6:00 PM, SAT 7:30 AM - 4:00 PM, SUN Closed",,,
Meineke-Car Care Center,1297,4170 Bardstown Road ,,Louisville ,KY,40218,United States,(502) 526-5358,,,"Center Hours: Closed Now, M-F 7:30 AM - 6:00 PM, SAT 7:30 AM - 5:00 PM, SUN Closed",,,
Meineke-Car Care Center,2537,4810 Peachtree Industrial Blvd. ,,Norcross ,GA,30071,United States,(770) 729-4808,,,"Center Hours: Closed Now, M-F 7:30 AM - 6:00 PM, SAT 7:30 AM - 6:00 PM, SUN Closed",,,
Meineke-Car Care Center,161,5364 Buford Highway ,,Atlanta ,GA,30340-1108,United States,(770) 676-1126,,,"Center Hours: Closed Now, M-F 8:00 AM - 6:00 PM, SAT 8:00 AM - 4:00 PM, SUN Closed",,,
Meineke-Car Care Center,292,4000 Atlanta Road ,,Smyrna ,GA,30080-1137,United States,(678) 498-2592,,,"Center Hours: Closed Now, M-F 7:30 AM - 6:00 PM, SAT 7:30 AM - 4:00 PM, SUN Closed",,,
Meineke-Car Care Center,4184,8600 Roswell Road ,,Atlanta ,GA,30350,United States,(770) 729-4683,,,"Center Hours: Closed Now, M-F 7:30 AM - 6:00 PM, SAT 7:30 AM - 4:00 PM, SUN Closed",,,
Meineke-Car Care Center,2541,1830 Mars Hill Road NW ,,Acworth ,GA,30101,United States,(770) 676-3190,,,"Center Hours: Closed Now, M-F 7:30 AM - 6:00 PM, SAT 7:30 AM - 6:00 PM, SUN Closed",,,
Meineke-Car Care Center,646,11220 Alpharetta Highway ,,Roswell ,GA,30076,United States,(770) 729-4751,,,"Center Hours: Closed Now, M-F 7:00 AM - 6:30 PM, SAT 7:30 AM - 4:00 PM, SUN Closed",,,
Meineke-Car Care Center,1260,10885 Jones Bridge Road ,,Alpharetta ,GA,30022-4943,United States,(770) 729-4791,,,"Center Hours: Closed Now, M-F 7:30 AM - 6:00 PM, SAT 7:30 AM - 6:00 PM, SUN Closed",,,
Meineke-Car Care Center,1247,5326 DIXIE HWY ,,Louisville ,KY,40216,United States,(502) 792-0754,,,"Center Hours: Closed Now, M-F 7:30 AM - 6:00 PM, SAT 7:30 AM - 5:00 PM, SUN Closed",,,
Meineke-Car Care Center,2542,2455 Dallas Hwy ,,Marietta ,GA,30064,United States,(770) 676-3164,,,"Center Hours: Closed Now, M-F 7:30 AM - 6:00 PM, SAT 7:30 AM - 6:00 PM, SUN Closed",,,
Meineke-Car Care Center,2540,4434 NW Cobb Pkwy ,,Acworth ,GA,30101,United States,(770) 628-1228,,,"Center Hours: Closed Now, M-F 7:30 AM - 6:00 PM, SAT 7:30 AM - 6:00 PM, SUN Closed",,,
Meineke-Car Care Center,2544,4295 Wade Green Road ,,Kennesaw ,GA,30144,United States,(770) 884-7419,,,"Center Hours: Closed Now, M-F 7:30 AM - 6:00 PM, SAT 7:30 AM - 6:00 PM, SUN Closed",,,
Meineke-Car Care Center,2609,472 Cobb Pkwy. N ,,Marietta ,GA,30062,United States,(678) 905-7589,,,"Center Hours: Closed Now, M-F 7:30 AM - 6:00 PM, SAT Closed, SUN Closed",,,
Meineke-Car Care Center,2538,885 Marathon Pkwy ,,Lawrenceville ,GA,30045,United States,(678) 710-9022,,,"Center Hours: Closed Now, M-F 7:30 AM - 6:00 PM, SAT 7:30 AM - 6:00 PM, SUN Closed",,,
Meineke-Car Care Center,2539,3058 Eagle Drive ,,Woodstock ,GA,30189,United States,(770) 627-7660,,,"Center Hours: Closed Now, M-F 7:30 AM - 6:00 PM, SAT 7:30 AM - 6:00 PM, SUN Closed",,,
Meineke-Car Care Center,2103,9777 Highway 92 ,,Woodstock ,GA,30188,United States,(770) 615-7236,,,"Center Hours: Closed Now, M-F 7:30 AM - 6:00 PM, SAT 7:30 AM - 4:00 PM, SUN Closed",,,
Meineke-Car Care Center,1743,920 Commercial Drive ,,Richmond ,KY,40475,United States,(859) 661-4039,,,"Center Hours: Closed Now, M-F 7:00 AM - 6:00 PM, SAT 7:00 AM - 5:00 PM, SUN Closed",,,
Meineke-Car Care Center,1784,3130 Pimlico Parkway Suite 119 ,,Lexington ,KY,40517,United States,(859) 475-1706,,,"Center Hours: Closed Now, M-F 7:30 AM - 6:00 PM, SAT 7:30 AM - 4:00 PM, SUN Closed",,,
Meineke-Car Care Center,1783,220 Crossfield Drive ,,Versailles ,KY,40383,United States,(859) 251-6463,,,"Center Hours: Closed Now, M-F 7:30 AM - 6:00 PM, SAT 7:30 AM - 4:00 PM, SUN Closed",,,
Meineke-Car Care Center,124,1303 West McGalliard Road ,,Muncie ,IN,47303-2132,United States,(765) 876-3368,,,"Center Hours: Closed Now, M-F 7:30 AM - 6:00 PM, SAT 7:30 AM - 4:00 PM, SUN Closed",,,
Meineke-Car Care Center,1592,7290 West Washington Street ,,Indianapolis ,IN,46241,United States,(317) 643-5988,,,"Center Hours: Closed Now, M-F 7:30 AM - 6:00 PM, SAT 7:30 AM - 4:00 PM, SUN Closed",,,
Meineke-Car Care Center,1697,4905 South Emerson Avenue ,,Indianapolis ,IN,46203,United States,(317) 759-2009,,,"Center Hours: Closed Now, M-F 7:30 AM - 6:00 PM, SAT 7:30 AM - 4:00 PM, SUN Closed",,,
Meineke-Car Care Center,913,3150 South Madison Avenue ,,Indianapolis ,IN,46227-1126,United States,(317) 429-0983,,,"Center Hours: Closed Now, M-F 7:30 AM - 6:00 PM, SAT 7:30 AM - 4:00 PM, SUN Closed",,,
Meineke-Car Care Center,599,1283 U. S. Route 31 ,,North Greenwood ,IN,46142,United States,(317) 300-5554,,,"Center Hours: Closed Now, M-F 7:30 AM - 6:00 PM, SAT 7:30 AM - 4:00 PM, SUN Closed",,,
Meineke-Car Care Center,2610,2575 E. Main Street ,,Plainfield ,IN,46168,United States,(317) 204-2288,,,"Center Hours: Closed Now, M-F 7:30 AM - 6:00 PM, SAT 7:30 AM - 4:00 PM, SUN Closed",,,
Meineke-Car Care Center,940,8410 East Washington Street ,,Indianapolis ,IN,46219-6820,United States,(317) 982-5731,,,"Center Hours: Closed Now, M-F 7:30 AM - 6:00 PM, SAT 7:30 AM - 4:00 PM, SUN Closed",,,
Meineke-Car Care Center,1913,5323 W. 38th Street ,,Indianapolis ,IN,46254,United States,(317) 543-7206,,,"Center Hours: Closed Now, M-F 7:30 AM - 6:00 PM, SAT 7:30 AM - 6:00 PM, SUN Closed",,,
Meineke-Car Care Center,704,3702 West 86th Street ,,Indianapolis ,IN,46268-1903,United States,(317) 220-6940,,,"Center Hours: Closed Now, M-F 7:30 AM - 6:00 PM, SAT 7:30 AM - 4:00 PM, SUN Closed",,,
Meineke-Car Care Center,2543,3610 Marietta Hwy ,,Canton ,GA,30114,United States,(678) 235-9883,,,"Center Hours: Closed Now, M-F 7:30 AM - 6:00 PM, SAT 7:30 AM - 6:00 PM, SUN Closed",,,
Meineke-Car Care Center,1832,1395 South 10th Street ,,Noblesville ,IN,46060,United States,(317) 678-0076,,,"Center Hours: Closed Now, M-F 7:30 AM - 6:00 PM, SAT 7:30 AM - 4:00 PM, SUN Closed",,,
Meineke-Car Care Center,944,6401 East 82nd Street ,,Castleton ,IN,46250-1501,United States,(317) 537-8123,,,"Center Hours: Closed Now, M-F 7:30 AM - 6:00 PM, SAT 7:30 AM - 4:00 PM, SUN Closed",,,
Meineke-Car Care Center,2615,925 E. Central Avenue ,,Wichita ,KS,67202,United States,(316) 633-4838,,,"Center Hours: Closed Now, M-F 7:30 AM - 6:00 PM, SAT 7:30 AM - 5:00 PM, SUN Closed",,,
Meineke-Car Care Center,2616,660 N. Webb Road ,,Wichita ,KS,67206,United States,(316) 202-3723,,,"Center Hours: Closed Now, M-F 7:30 AM - 6:00 PM, SAT 7:30 AM - 5:00 PM, SUN Closed",,,
Meineke-Car Care Center,4362,3450 North Woodlawn Boulevard ,,Wichita ,KS,67220,United States,(316) 847-7241,,,"Center Hours: Closed Now, M-F 7:30 AM - 6:00 PM, SAT 7:30 AM - 5:00 PM, SUN Closed",,,
Meineke-Car Care Center,2007,3430 North Woodlawn Boulevard ,,Wichita ,KS,67220,United States,(316) 252-1627,,,"Center Hours: Closed Now, M-F 7:30 AM - 6:00 PM, SAT 7:30 AM - 5:00 PM, SUN Closed",,,
Meineke-Car Care Center,2009,2344 South Seneca ,,Wichita ,KS,67213,United States,(316) 448-0317,,,"Center Hours: Closed Now, M-F 7:30 AM - 6:00 PM, SAT 7:30 AM - 5:00 PM, SUN Closed",,,
Meineke-Car Care Center,2008,1810 West 21st Street ,,Wichita ,KS,67203,United States,(316) 665-7405,,,"Center Hours: Closed Now, M-F 7:30 AM - 6:00 PM, SAT 7:30 AM - 5:00 PM, SUN Closed",,,
Meineke-Car Care Center,625,4101 North Keystone Avenue ,,Indianapolis ,IN,46205-2842,United States,(317) 982-5556,,,"Center Hours: Closed Now, M-F 7:30 AM - 6:00 PM, SAT 7:30 AM - 4:00 PM, SUN Closed",,,
Meineke-Car Care Center,980,2726 Scatterfield Road ,,Anderson ,IN,46016,United States,(765) 313-7700,,,"Center Hours: Closed Now, M-F 7:30 AM - 6:00 PM, SAT 7:30 AM - 4:00 PM, SUN Closed",,,
Meineke-Car Care Center,648,219 South Main Street ,,Statesboro ,GA,30458-5127,United States,(912) 225-6558,,,"Center Hours: Closed Now, M-F 7:30 AM - 6:00 PM, SAT 7:30 AM - 4:00 PM, SUN Closed",,,
Meineke-Car Care Center,1270,1905 B First Street ,,East Vidalia ,GA,30474,United States,(912) 386-1697,,,"Center Hours: Closed Now, M-F 8:00 AM - 5:00 PM, SAT 7:30 AM - 4:00 PM, SUN Closed",,,
Meineke-Car Care Center,1143,7352 Pendleton Pike ,,Indianapolis ,IN,46226-5134,United States,(317) 429-0353,,,"Center Hours: Closed Now, M-F 7:30 AM - 6:00 PM, SAT 7:30 AM - 4:00 PM, SUN Closed",,,
Meineke-Car Care Center,250,8510 White Bluff Road ,,Savannah ,GA,31406,United States,(912) 200-6328,,,"Center Hours: Closed Now, M-F 7:30 AM - 6:00 PM, SAT 7:30 AM - 4:00 PM, SUN Closed",,,
Meineke-Car Care Center,155,910 Veterans Parkway ,,Columbus ,GA,31901-2821,United States,(706) 223-1744,,,"Center Hours: Closed Now, M-F 7:30 AM - 6:00 PM, SAT 7:30 AM - 4:00 PM, SUN Closed",,,
Meineke-Car Care Center,2012,1503 Park Avenue ,,Muscatine ,IA,52761,United States,(563) 554-2964,,,"Center Hours: Closed Now, M-F 7:30 AM - 6:00 PM, SAT 7:30 AM - 4:00 PM, SUN Closed",,,
Meineke-Car Care Center,2013,4720 Elmore Avenue ,,Davenport ,IA,52807,United States,(563) 293-6602,,,"Center Hours: Closed Now, M-F 7:30 AM - 6:00 PM, SAT 7:30 AM - 4:00 PM, SUN Closed",,,
Meineke-Car Care Center,594,20033 South Dixie Highway ,,Perrine ,FL,33189-5527,United States,(305) 680-0222,,,"Center Hours: Closed Now, M-F 8:00 AM - 6:00 PM, SAT 8:00 AM - 5:00 PM, SUN Closed",,,
Meineke-Car Care Center,451,5261 Council Street NE ,,Cedar Rapids ,IA,52402,United States,(319) 774-5118,,,"Center Hours: Closed Now, M-F 7:30 AM - 6:00 PM, SAT 7:30 AM - 4:00 PM, SUN Closed",,,
Meineke-Car Care Center,904,265 South Wickham Road ,,West Melbourne ,FL,32904-1133,United States,(321) 586-2286,,,"Center Hours: Closed Now, M-F 7:30 AM - 6:00 PM, SAT 7:30 AM - 6:00 PM, SUN Closed",,,
Meineke-Car Care Center,2011,410 North Roosevelt ,,Burlington ,IA,52601,United States,(319) 576-0157,,,"Center Hours: Closed Now, M-F 7:30 AM - 6:00 PM, SAT 7:30 AM - 5:00 PM, SUN Closed",,,
Meineke-Car Care Center,2033,14395 Spring Hill Drive ,,Spring Hill ,FL,34609,United States,(352) 593-3027,,,"Center Hours: Closed Now, M-F 7:30 AM - 6:00 PM, SAT 7:30 AM - 4:00 PM, SUN Closed",,,
Meineke-Car Care Center,2567,7300 W Flagler St ,,Miami ,FL,33144,United States,(786) 352-8493,,,"Center Hours: Closed Now, M-F 8:00 AM - 5:30 PM, SAT 8:00 AM - 5:00 PM, SUN 9:00 AM - 3:00 PM",,,
Meineke-Car Care Center,2555,10815 NW 14th Street ,,Miami ,FL,33172,United States,(786) 607-0762,,,"Center Hours: Closed Now, M-F 7:30 AM - 5:30 PM, SAT 7:30 AM - 4:00 PM, SUN Closed",,,
Meineke-Car Care Center,2714,319 E Boynton Beach Blvd ,,Boynton Beach ,FL,33435,United States,(561) 200-0985,,,"Center Hours: Closed Now, M-F 7:30 AM - 6:00 PM, SAT 8:00 AM - 4:00 PM, SUN Closed",,,
Meineke-Car Care Center,2473,2632 Land O' Lakes Boulevard ,,Land O Lakes ,FL,34639,United States,(813) 527-0006,,,"Center Hours: Closed Now, M-F 7:30 AM - 6:00 PM, SAT 7:00 AM - 4:00 PM, SUN Closed",,,
Meineke-Car Care Center,1227,6850 N. Dale Mabry Highway ,,Tampa ,FL,33614,United States,(813) 586-2531,,,"Center Hours: Closed Now, M-F 7:30 AM - 6:00 PM, SAT 7:30 AM - 4:00 PM, SUN Closed",,,
Meineke-Car Care Center,1713,606 East Brandon Boulevard ,,Brandon ,FL,33511,United States,(813) 445-8460,,,"Center Hours: Closed Now, M-F 8:00 AM - 5:00 PM, SAT 7:00 AM - 5:00 PM, SUN Closed",,,
Meineke-Car Care Center,2408,8478 Seminole Blvd ,,Seminole ,FL,33772,United States,(727) 490-6847,,,"Center Hours: Closed Now, M-F 7:30 AM - 6:00 PM, SAT 7:30 AM - 4:00 PM, SUN Closed",,,
Meineke-Car Care Center,2578,7878-B NW 103rd Street ,,Hialeah Gardens ,FL,33016,United States,(786) 600-4417,,,"Center Hours: Closed Now, M-F 8:00 AM - 6:00 PM, SAT 8:00 AM - 4:00 PM, SUN Closed",,,
Meineke-Car Care Center,1659,2436 Gulf to Bay Boulevard ,,Clearwater ,FL,33765,United States,(727) 223-6352,,,"Center Hours: Closed Now, M-F 7:30 AM - 6:00 PM, SAT 8:00 AM - 5:00 PM, SUN Closed",,,
Meineke-Car Care Center,341,90 Northwest Spanish River Boulevard ,,Boca Raton ,FL,33431-4214,United States,(561) 221-1204,,,"Center Hours: Closed Now, M-F 7:30 AM - 6:00 PM, SAT 7:30 AM - 4:00 PM, SUN Closed",,,
Meineke-Car Care Center,2617,10491 66th Street ,,North Pinellas Park ,FL,33782,United States,(727) 219-1527,,,"Center Hours: Closed Now, M-F 7:30 AM - 6:00 PM, SAT 7:30 AM - 4:00 PM, SUN Closed",,,
Meineke-Car Care Center,2534,23193 Sandalfoot Plaza Dr Suite A ,,Boca Raton ,FL,33428,United States,(561) 288-0749,,,"Center Hours: Closed Now, M-F 8:00 AM - 6:00 PM, SAT 8:00 AM - 4:00 PM, SUN Closed",,,
Meineke-Car Care Center,2058,2871 West Michigan Avenue ,,Pensacola ,FL,32526,United States,(850) 912-9592,,,"Center Hours: Closed Now, M-F 8:00 AM - 6:00 PM, SAT 7:30 AM - 4:00 PM, SUN Closed",,,
Meineke-Car Care Center,2251,2765 North Dixie Highway ,,Wilton Manors ,FL,33334,United States,(954) 900-9296,,,"Center Hours: Closed Now, M-F 7:30 AM - 6:00 PM, SAT 7:30 AM - 4:00 PM, SUN Closed",,,
Meineke-Car Care Center,1311,2629 Weston Road ,,Weston ,FL,33331,United States,(954) 406-9808,,,"Center Hours: Closed Now, M-F 7:00 AM - 7:00 PM, SAT 7:00 AM - 6:00 PM, SUN 9:00 AM - 5:00 PM",,,
Meineke-Car Care Center,43,3005 North Federal Highway ,,Pompano Beach ,FL,33064-6851,United States,(954) 590-0658,,,"Center Hours: Closed Now, M-F 7:30 AM - 6:00 PM, SAT 7:30 AM - 4:00 PM, SUN Closed",,,
Meineke-Car Care Center,2254,4917 North University Drive ,,Lauderhill ,FL,33351,United States,(954) 406-9671,,,"Center Hours: Closed Now, M-F 8:00 AM - 6:00 PM, SAT 8:00 AM - 4:00 PM, SUN Closed",,,
Meineke-Car Care Center,2134,5503 S. University Drive ,,Davie ,FL,33328,United States,(954) 900-9119,,,"Center Hours: Closed Now, M-F 8:00 AM - 6:00 PM, SAT 8:00 AM - 4:00 PM, SUN Closed",,,
Meineke-Car Care Center,1973,2508 1st Street ,,West Bradenton ,FL,34208,United States,(941) 216-1960,,,"Center Hours: Closed Now, M-F 7:30 AM - 6:00 PM, SAT 7:30 AM - 6:00 PM, SUN Closed",,,
Meineke-Car Care Center,645,2195 Central Avenue ,,Dubuque ,IA,52001-3504,United States,(563) 552-0091,,,"Center Hours: Closed Now, M-F 7:30 AM - 6:00 PM, SAT 7:30 AM - 4:00 PM, SUN Closed",,,
Meineke-Car Care Center,2358,5717 University Blvd W. ,,Jacksonville ,FL,32216,United States,(904) 302-9803,,,"Center Hours: Closed Now, M-F 7:30 AM - 5:30 PM, SAT 8:00 AM - 4:00 PM, SUN Closed",,,
Meineke-Car Care Center,2077,3029 Fowler Street ,,Fort Myers ,FL,33901,United States,(239) 690-6323,,,"Center Hours: Closed Now, M-F 7:30 AM - 6:00 PM, SAT 7:30 AM - 4:00 PM, SUN Closed",,,
Meineke-Car Care Center,1078,1940 Del Prado Blvd. ,,South Cape Coral ,FL,33990-4501,United States,(239) 829-5117,,,"Center Hours: Closed Now, M-F 7:30 AM - 6:00 PM, SAT 7:30 AM - 4:00 PM, SUN Closed",,,
Meineke-Car Care Center,890,16373 S.Tamiami Trail-U.S. 41 Ft. ,,Myers ,FL,33908,United States,(239) 236-4781,,,"Center Hours: Closed Now, M-F 7:30 AM - 6:00 PM, SAT 7:30 AM - 4:00 PM, SUN Closed",,,
Meineke-Car Care Center,2572,211 Louisville Avenue ,,Monroe ,LA,71201,United States,(318) 460-0368,,,"Center Hours: Closed Now, M-F 7:30 AM - 5:30 PM, SAT 8:00 AM - 4:00 PM, SUN Closed",,,
Meineke-Car Care Center,1714,6911 West Park Avenue ,,Houma ,LA,70364,United States,(985) 262-7803,,,"Center Hours: Closed Now, M-F 8:00 AM - 6:00 PM, SAT 8:00 AM - 4:00 PM, SUN Closed",,,
Meineke-Car Care Center,62,1503 East Prien Lake Road Lake ,,Charles ,LA,70601-8967,United States,(337) 419-2997,,,"Center Hours: Closed Now, M-F 7:30 AM - 5:00 PM, SAT 7:30 AM - 4:00 PM, SUN Closed",,,
Meineke-Car Care Center,2436,1202 Albertson Parkway ,,Broussard ,LA,70518,United States,(337) 446-2707,,,"Center Hours: Closed Now, M-F 8:00 AM - 5:30 PM, SAT 8:00 AM - 4:00 PM, SUN Closed",,,
Meineke-Car Care Center,16,3401 Westbank Expressway ,,Harvey ,LA,70058-2645,United States,(504) 662-9549,,,"Center Hours: Closed Now, M-F 8:00 AM - 6:00 PM, SAT 8:00 AM - 5:00 PM, SUN Closed",,,
Meineke-Car Care Center,2554,149 McKinley Road ,,Pocatello ,ID,83201,United States,(208) 417-0344,,,"Center Hours: Closed Now, M-F 8:00 AM - 6:00 PM, SAT 8:00 AM - 5:00 PM, SUN Closed",,,
Meineke-Car Care Center,4251,5115 West State Street ,,Boise ,ID,83703,United States,(208) 391-4687,,,"Center Hours: Closed Now, M-F 7:30 AM - 6:00 PM, SAT 8:00 AM - 5:00 PM, SUN Closed",,,
Meineke-Car Care Center,2410,970 N Main St ,,Moscow ,ID,83843,United States,(208) 997-2003,,,"Center Hours: Closed Now, M-F 7:30 AM - 6:00 PM, SAT 8:00 AM - 5:00 PM, SUN Closed",,,
Meineke-Car Care Center,1732,5036 Ambassador Caffery Pkwy. ,,Lafayette ,LA,70508,United States,(337) 326-5156,,,"Center Hours: Closed Now, M-F 7:30 AM - 5:30 PM, SAT 7:30 AM - 4:00 PM, SUN Closed",,,
Meineke-Car Care Center,2150,8829 US Highway 24 W ,,Fort Wayne ,IN,46804,United States,(260) 205-8595,,,"Center Hours: Closed Now, M-F 8:00 AM - 6:00 PM, SAT 8:00 AM - 4:00 PM, SUN Closed",,,
Meineke-Car Care Center,4305,1975 East Fairview Avenue ,,Meridian ,ID,83642,United States,(208) 391-4169,,,"Center Hours: Closed Now, M-F 7:30 AM - 6:00 PM, SAT 7:30 AM - 5:00 PM, SUN Closed",,,
Meineke-Car Care Center,1223,2276 College Drive ,,Baton Rouge ,LA,70808,United States,(225) 910-6011,,,"Center Hours: Closed Now, M-F 7:30 AM - 6:00 PM, SAT 7:30 AM - 4:00 PM, SUN Closed",,,
Meineke-Car Care Center,4326,1630 South Hadley Avenue ,,Boise ,ID,83709,United States,(208) 391-5498,,,"Center Hours: Closed Now, M-F 7:30 AM - 6:00 PM, SAT 8:00 AM - 5:00 PM, SUN Closed",,,
Meineke-Car Care Center,4310,12367 West Chinden Boulevard ,,Boise ,ID,83713,United States,(208) 391-4138,,,"Center Hours: Closed Now, M-F 7:30 AM - 6:00 PM, SAT 8:00 AM - 5:00 PM, SUN Closed",,,
Meineke-Car Care Center,2390,9688 W. Fairview Ave. ,,Boise ,ID,83704,United States,(208) 391-4051,,,"Center Hours: Closed Now, M-F 7:30 AM - 6:00 PM, SAT 8:00 AM - 5:00 PM, SUN Closed",,,
Meineke-Car Care Center,2262,13550 Coursey Blvd ,,Baton Rouge ,LA,70817,United States,(225) 963-5477,,,"Center Hours: Closed Now, M-F 7:30 AM - 6:00 PM, SAT 7:30 AM - 4:00 PM, SUN Closed",,,
Meineke-Car Care Center,1600,305 S. 34th Avenue ,,Caldwell ,ID,83605,United States,(208) 402-5534,,,"Center Hours: Closed Now, M-F 7:30 AM - 6:00 PM, SAT 7:30 AM - 5:00 PM, SUN Closed",,,
Meineke-Car Care Center,4393,1227 Caldwell Blvd. ,,Nampa ,ID,83651,United States,(208) 936-2270,,,"Center Hours: Closed Now, M-F 8:00 AM - 6:00 PM, SAT 8:00 AM - 5:00 PM, SUN Closed",,,
Meineke-Car Care Center,581,10139 Roosevelt Road ,,Westchester ,IL,60154-2643,United States,(708) 498-0602,,,"Center Hours: Closed Now, M-F 7:30 AM - 6:00 PM, SAT 7:30 AM - 4:00 PM, SUN Closed",,,
Meineke-Car Care Center,2275,376 Sundown Rd ,,South Elgin ,IL,60177,United States,(847) 531-4239,,,"Center Hours: Closed Now, M-F 7:30 AM - 6:00 PM, SAT 7:30 AM - 4:00 PM, SUN Closed",,,
Meineke-Car Care Center,201,1301 North Lake Street ,,Aurora ,IL,60506-2454,United States,(630) 618-2794,,,"Center Hours: Closed Now, M-F 7:00 AM - 6:00 PM, SAT 7:00 AM - 4:00 PM, SUN Closed",,,
Meineke-Car Care Center,182,35 East 162nd Street ,,South Holland ,IL,60473-2106,United States,(708) 953-8160,,,"Center Hours: Closed Now, M-F 7:30 AM - 6:00 PM, SAT 7:30 AM - 4:00 PM, SUN Closed",,,
Meineke-Car Care Center,801,1500 East Vernon Avenue ,,Normal ,IL,61761-4000,United States,(309) 808-6066,,,"Center Hours: Closed Now, M-F 7:00 AM - 6:00 PM, SAT 7:00 AM - 4:00 PM, SUN Closed",,,
Meineke-Car Care Center,515,3722 North Prospect Road ,,Peoria ,IL,61614,United States,(309) 340-4841,,,"Center Hours: Closed Now, M-F 7:30 AM - 6:00 PM, SAT 7:30 AM - 4:00 PM, SUN Closed",,,
Meineke-Car Care Center,2052,20712 Gaskin Drive ,,Romeoville ,IL,60446,United States,(815) 524-8423,,,"Center Hours: Closed Now, M-F 7:30 AM - 6:30 PM, SAT 7:30 AM - 6:00 PM, SUN Closed",,,
Meineke-Car Care Center,1776,1330 West Boughton Road ,,Bolingbrook ,IL,60490,United States,(630) 296-8706,,,"Center Hours: Closed Now, M-F 7:30 AM - 6:30 PM, SAT 8:00 AM - 6:00 PM, SUN 9:00 AM - 3:00 PM",,,
Meineke-Car Care Center,226,10716 South Western Avenue ,,Chicago ,IL,60643-3136,United States,(773) 672-3007,,,"Center Hours: Closed Now, M-F 7:00 AM - 6:00 PM, SAT 7:00 AM - 4:00 PM, SUN Closed",,,
Meineke-Car Care Center,2482,1127 W. Stearns Road ,,Bartlett ,IL,60103,United States,(630) 246-2269,,,"Center Hours: Closed Now, M-F 8:00 AM - 6:00 PM, SAT 8:00 AM - 4:00 PM, SUN Closed",,,
Meineke-Car Care Center,884,594 William Latham Drive ,,Bourbonnais ,IL,60914-2320,United States,(815) 216-5845,,,"Center Hours: Closed Now, M-F 7:00 AM - 5:00 PM, SAT Closed, SUN Closed",,,
Meineke-Car Care Center,1939,5740-44 North Western Avenue ,,Chicago ,IL,60659,United States,(773) 649-6319,,,"Center Hours: Closed Now, M-F 7:30 AM - 6:00 PM, SAT 7:30 AM - 4:00 PM, SUN Closed",,,
Meineke-Car Care Center,266,311 South Larkin ,,Joliet ,IL,60436-1249,United States,(815) 768-3206,,,"Center Hours: Closed Now, M-F 7:30 AM - 6:00 PM, SAT 7:30 AM - 4:00 PM, SUN Closed",,,
Meineke-Car Care Center,1726,2424 Plainfield Road ,,Crest Hill ,IL,60403,United States,(815) 782-2400,,,"Center Hours: Closed Now, M-F 8:00 AM - 6:00 PM, SAT 8:00 AM - 4:00 PM, SUN Closed",,,
Meineke-Car Care Center,493,6135 South Cass Avenue ,,Westmont ,IL,60559-2612,United States,(630) 324-0213,,,"Center Hours: Closed Now, M-F 7:30 AM - 6:00 PM, SAT 7:30 AM - 4:00 PM, SUN Closed",,,
Meineke-Car Care Center,2263,313 S. Schmale Rd ,,Carol Stream ,IL,60188,United States,(630) 517-2341,,,"Center Hours: Closed Now, M-F 7:30 AM - 6:00 PM, SAT 7:00 AM - 4:00 PM, SUN Closed",,,
Meineke-Car Care Center,293,716 West Lake Street ,,Addison ,IL,60101-2005,United States,(630) 592-4640,,,"Center Hours: Closed Now, M-F 7:30 AM - 6:00 PM, SAT 7:30 AM - 4:00 PM, SUN Closed",,,
Meineke-Car Care Center,261,9740 Southwest Hwy. ,,Oak Lawn ,IL,60453-2355,United States,(708) 572-4247,,,"Center Hours: Closed Now, M-F 7:30 AM - 6:00 PM, SAT 7:30 AM - 4:00 PM, SUN Closed",,,
Meineke-Car Care Center,1982,1580 West Ogden Avenue ,,Naperville ,IL,60540,United States,(630) 687-9738,,,"Center Hours: Closed Now, M-F 7:30 AM - 8:00 PM, SAT 7:30 AM - 4:00 PM, SUN Closed",,,
Meineke-Car Care Center,259,1032 East Ogden Avenue ,,Naperville ,IL,60563-2839,United States,(630) 687-1276,,,"Center Hours: Closed Now, M-F 7:30 AM - 6:00 PM, SAT 7:30 AM - 4:00 PM, SUN Closed",,,
Meineke-Car Care Center,1664,4458 West 147th Street ,,Midlothian ,IL,60445,United States,(708) 897-2440,,,"Center Hours: Closed Now, M-F 8:00 AM - 6:00 PM, SAT 8:00 AM - 4:00 PM, SUN Closed",,,
Meineke-Car Care Center,225,815 Ogden Avenue ,,Downers Grove ,IL,60515-2937,United States,(630) 743-6707,,,"Center Hours: Closed Now, M-F 7:00 AM - 6:00 PM, SAT 7:00 AM - 4:00 PM, SUN Closed",,,
Meineke-Car Care Center,306,1975 Green Bay Road ,,Evanston ,IL,60201-3534,United States,(847) 563-4887,,,"Center Hours: Closed Now, M-F 7:30 AM - 6:00 PM, SAT 7:30 AM - 4:00 PM, SUN Closed",,,
Meineke-Car Care Center,871,9401 Golf Road ,,Des Plaines ,IL,60016-2471,United States,(847) 969-5292,,,"Center Hours: Closed Now, M-F 7:30 AM - 6:00 PM, SAT 7:30 AM - 4:00 PM, SUN Closed",,,
Meineke-Car Care Center,2230,905 Pyott Rd ,,Crystal Lake ,IL,60014,United States,(815) 261-4564,,,"Center Hours: Closed Now, M-F 8:00 AM - 6:00 PM, SAT 8:00 AM - 4:00 PM, SUN Closed",,,
Meineke-Car Care Center,2060,313 Town Line Road ,,Mundelein ,IL,60060,United States,(847) 393-8882,,,"Center Hours: Closed Now, M-F 7:30 AM - 6:00 PM, SAT 7:30 AM - 4:00 PM, SUN Closed",,,
Meineke-Car Care Center,415,3402 Milwaukee Avenue ,,Northbrook ,IL,60062-7128,United States,(847) 416-0861,,,"Center Hours: Closed Now, M-F 7:30 AM - 6:00 PM, SAT 8:00 AM - 4:00 PM, SUN Closed",,,
Meineke-Car Care Center,812,440 Bernardston Road ,,Greenfield ,MA,01301,United States,(413) 376-4939,,,"Center Hours: Closed Now, M-F 7:30 AM - 5:30 PM, SAT 7:30 AM - 4:00 PM, SUN Closed",,,
Meineke-Car Care Center,437,266 Bridge Street ,,Groton ,CT,06340-3739,United States,(860) 629-8252,,,"Center Hours: Closed Now, M-F 7:30 AM - 6:00 PM, SAT 7:30 AM - 4:00 PM, SUN Closed",,,
Meineke-Car Care Center,178,665 Broad Street ,,New London ,CT,06320,United States,(860) 333-8376,,,"Center Hours: Closed Now, M-F 7:30 AM - 6:00 PM, SAT 7:30 AM - 4:00 PM, SUN Closed",,,
Meineke-Car Care Center,2231,493 Norwich Avenue ,,Colchester ,CT,06415,United States,(860) 531-2349,,,"Center Hours: Closed Now, M-F 7:30 AM - 6:00 PM, SAT 7:30 AM - 4:00 PM, SUN Closed",,,
Meineke-Car Care Center,1888,1616 Northampton Street ,,Holyoke ,MA,01040,United States,(413) 315-4403,,,"Center Hours: Closed Now, M-F 8:00 AM - 6:00 PM, SAT 8:00 AM - 4:00 PM, SUN Closed",,,
Meineke-Car Care Center,1008,290-A Broad Street ,,Manchester ,CT,06040-4034,United States,(860) 281-7009,,,"Center Hours: Closed Now, M-F 7:30 AM - 6:00 PM, SAT 7:30 AM - 4:00 PM, SUN Closed",,,
Meineke-Car Care Center,165,1012 New Britain Ave. ,,West Hartford ,CT,06110,United States,(860) 952-3009,,,"Center Hours: Closed Now, M-F 7:30 AM - 6:00 PM, SAT 7:30 AM - 6:00 PM, SUN Closed",,,
Meineke-Car Care Center,576,1633 Memorial Drive ,,Chicopee ,MA,01020-3132,United States,(413) 561-4451,,,"Center Hours: Closed Now, M-F 7:30 AM - 6:00 PM, SAT 7:30 AM - 4:00 PM, SUN Closed",,,
Meineke-Car Care Center,536,66 Enfield Street ,,Enfield ,CT,06082-1910,United States,(860) 265-6353,,,"Center Hours: Closed Now, M-F 8:00 AM - 6:00 PM, SAT 8:00 AM - 4:00 PM, SUN Closed",,,
Meineke-Car Care Center,1423,370A Hartford Turnpike ,,Vernon Rockville ,CT,06066-4747,United States,(860) 375-5014,,,"Center Hours: Closed Now, M-F 7:30 AM - 6:00 PM, SAT 7:30 AM - 4:00 PM, SUN Closed",,,
Meineke-Car Care Center,2434,2000 Silas Deane Hwy ,,Rocky Hill ,CT,06067,United States,(860) 856-8335,,,"Center Hours: Closed Now, M-F 7:30 AM - 6:00 PM, SAT 7:30 AM - 6:00 PM, SUN Closed",,,
Meineke-Car Care Center,338,512 Washington Street ,,Middletown ,CT,06457-2513,United States,(860) 398-4439,,,"Center Hours: Closed Now, M-F 8:00 AM - 6:00 PM, SAT 8:00 AM - 6:00 PM, SUN Closed",,,
Meineke-Car Care Center,553,46 Washington Street ,,New Britain ,CT,06051-2210,United States,(860) 438-6659,,,"Center Hours: Closed Now, M-F 7:30 AM - 6:00 PM, SAT 7:30 AM - 4:00 PM, SUN Closed",,,
Meineke-Car Care Center,1855,9300 South 27th Street ,,Oak Creek ,WI,53154,United States,(414) 892-7692,,,"Center Hours: Closed Now, M-F 7:30 AM - 6:00 PM, SAT 8:00 AM - 4:00 PM, SUN Closed",,,
Meineke-Car Care Center,1675,4320 South 27th Street ,,Milwaukee ,WI,53221,United States,(414) 455-2010,,,"Center Hours: Closed Now, M-F 7:30 AM - 6:00 PM, SAT 7:30 AM - 4:00 PM, SUN Closed",,,
Meineke-Car Care Center,2707,213 W Main St ,,Avon ,CT,06001,United States,(860) 255-4588,,,"Center Hours: Closed Now, M-F 7:30 AM - 6:00 PM, SAT 7:30 AM - 4:00 PM, SUN Closed",,,
Meineke-Car Care Center,346,1114 Farmington Avenue ,,Bristol ,CT,06010-4752,United States,(860) 261-2888,,,"Center Hours: Closed Now, M-F 7:30 AM - 6:00 PM, SAT 7:30 AM - 6:00 PM, SUN Closed",,,
Meineke-Car Care Center,1645,658 Berlin Turnpike ,,Berlin ,CT,06037-2307,United States,(860) 348-5290,,,"Center Hours: Closed Now, M-F 7:30 AM - 6:00 PM, SAT 7:30 AM - 4:00 PM, SUN Closed",,,
Meineke-Car Care Center,304,3020 Canton Road Ste. 1 ,,Marietta ,GA,30066,United States,(678) 331-7544,,,"Center Hours: Closed Now, M-F 7:30 AM - 6:00 PM, SAT 7:30 AM - 4:00 PM, SUN Closed",,,
Meineke-Car Care Center,1638,5250 Peachtree Industrial Blvd ,,Norcross ,GA,30071,United States,(770) 729-4749,,,"Center Hours: Closed Now, M-F 7:30 AM - 6:00 PM, SAT 7:30 AM - 6:00 PM, SUN Closed",,,
Meineke-Car Care Center,2461,7625 University Blvd ,,Winter Park ,FL,32792,United States,(407) 961-6904,,,"Center Hours: Closed Now, M-F 8:00 AM - 6:00 PM, SAT 8:00 AM - 4:00 PM, SUN Closed",,,
Meineke-Car Care Center,675,701 Joe Frank Harris Parkway ,,Cartersville ,GA,30120-2313,United States,(678) 792-4810,,,"Center Hours: Closed Now, M-F 7:30 AM - 6:00 PM, SAT 7:30 AM - 4:00 PM, SUN Closed",,,
Meineke-Car Care Center,1954,16753 Coastal Highway ,,Lewes ,DE,19958,United States,(302) 313-2820,,,"Center Hours: Closed Now, M-F 7:30 AM - 6:00 PM, SAT 7:30 AM - 5:00 PM, SUN Closed",,,
Meineke-Car Care Center,4195,742 South Main Avenue ,,Fallbrook ,CA,92028,United States,(760) 990-4204,,,"Center Hours: Closed Now, M-F 7:30 AM - 6:00 PM, SAT 7:30 AM - 5:00 PM, SUN 8:00 AM - 4:00 PM",,,
Meineke-Car Care Center,2104,1418 West Walnut Street ,,Rogers ,AR,72756,United States,(479) 282-1725,,,"Center Hours: Closed Now, M-F 7:30 AM - 6:00 PM, SAT 7:30 AM - 4:00 PM, SUN Closed",,,
Meineke-Car Care Center,2682,425 Dave Ward Drive ,,Conway ,AR,72032,United States,(501) 329-7366,,,"Center Hours: Closed Now, M-F 7:00 AM - 6:00 PM, SAT 7:00 AM - 4:00 PM, SUN Closed",,,
Meineke-Car Care Center,4060,3550 West Florida Avenue ,,Hemet ,CA,92545,United States,(951) 330-4606,,,"Center Hours: Closed Now, M-F 7:30 AM - 6:00 PM, SAT 7:30 AM - 5:00 PM, SUN Closed",,,
Meineke-Car Care Center,1959,2075 Florence Boulevard ,,Florence ,AL,35630,United States,(256) 275-4123,,,"Center Hours: Closed Now, M-F 7:30 AM - 5:30 PM, SAT 8:00 AM - 5:00 PM, SUN Closed",,,
Meineke-Car Care Center,1700,5700 B Atlanta Highway ,,Montgomery ,AL,36117,United States,(334) 647-6893,,,"Center Hours: Closed Now, M-F 7:30 AM - 5:00 PM, SAT 7:30 AM - 4:00 PM, SUN Closed",,,
Meineke-Car Care Center,4384,2700 West 28th Avenue ,,Pine Bluff ,AR,71603,United States,(870) 280-2481,,,"Center Hours: Closed Now, M-F 7:30 AM - 5:30 PM, SAT 7:30 AM - 4:00 PM, SUN Closed",,,
Meineke-Car Care Center,931,5801 East County Line Place ,,Highlands Ranch ,CO,80126-1920,United States,(303) 647-4887,,,"Center Hours: Closed Now, M-F 7:30 AM - 6:00 PM, SAT 7:30 AM - 5:00 PM, SUN Closed",,,
Meineke-Car Care Center,1165,10667 East Briarwood Circle ,,Centennial ,CO,80112,United States,(303) 578-0949,,,"Center Hours: Closed Now, M-F 7:30 AM - 6:00 PM, SAT 7:30 AM - 4:00 PM, SUN Closed",,,
Meineke-Car Care Center,2105,215 East Crandall Avenue ,,Harrison ,AR,72601,United States,(870) 626-0542,,,"Center Hours: Closed Now, M-F 7:30 AM - 6:00 PM, SAT 7:30 AM - 4:00 PM, SUN Closed",,,
Meineke-Car Care Center,1115,8 Wilcox Street ,,Castle Rock ,CO,80104-1905,United States,(303) 578-0912,,,"Center Hours: Closed Now, M-F 7:30 AM - 6:00 PM, SAT 7:30 AM - 5:00 PM, SUN Closed",,,
Meineke-Car Care Center,2681,7121 John F Kennedy Blvd ,,North Little Rock ,AR,72116,United States,(501) 712-3697,,,"Center Hours: Closed Now, M-F 7:00 AM - 6:00 PM, SAT 7:00 AM - 4:00 PM, SUN Closed",,,
Meineke-Car Care Center,1723,10168 West Chatfield Avenue ,,Littleton ,CO,80127,United States,(303) 800-3422,,,"Center Hours: Closed Now, M-F 7:30 AM - 6:00 PM, SAT 7:30 AM - 4:00 PM, SUN Closed",,,
Meineke-Car Care Center,739,5101 South Broadway ,,Englewood ,CO,80110-6705,United States,(303) 816-8097,,,"Center Hours: Closed Now, M-F 7:30 AM - 6:00 PM, SAT 7:30 AM - 5:00 PM, SUN Closed",,,
Meineke-Car Care Center,359,18771 East Hampden Avenue ,,Aurora ,CO,80013-3557,United States,(303) 647-5151,,,"Center Hours: Closed Now, M-F 7:30 AM - 6:00 PM, SAT 7:30 AM - 5:00 PM, SUN Closed",,,
Meineke-Car Care Center,782,7637 East Iliff Avenue ,,Denver ,CO,80231-5315,United States,(303) 732-6520,,,"Center Hours: Closed Now, M-F 7:30 AM - 6:00 PM, SAT 7:30 AM - 5:00 PM, SUN Closed",,,
Meineke-Car Care Center,642,1658 South Broadway ,,Denver ,CO,80210,United States,(303) 785-8565,,,"Center Hours: Closed Now, M-F 7:30 AM - 6:00 PM, SAT 7:30 AM - 5:00 PM, SUN Closed",,,
Meineke-Car Care Center,1120,4839 East Colfax Avenue ,,Denver ,CO,80220-1205,United States,(303) 558-6715,,,"Center Hours: Closed Now, M-F 8:00 AM - 6:00 PM, SAT 8:00 AM - 5:00 PM, SUN Closed",,,
Meineke-Car Care Center,1688,7352 McLaughlin Road ,,Falcon ,CO,80831,United States,(719) 602-4860,,,"Center Hours: Closed Now, M-F 7:30 AM - 6:00 PM, SAT 7:30 AM - 4:00 PM, SUN Closed",,,
Meineke-Car Care Center,455,6650 North Academy Boulevard ,,Colorado Springs ,CO,80918-1205,United States,(719) 900-3966,,,"Center Hours: Closed Now, M-F 7:30 AM - 6:00 PM, SAT 7:30 AM - 5:00 PM, SUN Closed",,,
Meineke-Car Care Center,413,225 South Limit Street ,,Colorado Springs ,CO,80904-1427,United States,(719) 373-1396,,,"Center Hours: Closed Now, M-F 7:30 AM - 6:00 PM, SAT 7:30 AM - 5:00 PM, SUN Closed",,,
Meineke-Car Care Center,1547,1370 Ainsworth Street ,,Colorado Springs ,CO,80915,United States,(719) 247-2455,,,"Center Hours: Closed Now, M-F 7:30 AM - 6:00 PM, SAT 7:30 AM - 5:00 PM, SUN Closed",,,
Meineke-Car Care Center,1521,515 North Grand Avenue ,,Pueblo ,CO,81003-3112,United States,(719) 423-6064,,,"Center Hours: Closed Now, M-F 7:30 AM - 6:00 PM, SAT 7:30 AM - 5:00 PM, SUN Closed",,,
Meineke-Car Care Center,1699,21 North 42nd Avenue ,,Brighton ,CO,80601,United States,(720) 523-1561,,,"Center Hours: Closed Now, M-F 7:30 AM - 6:00 PM, SAT 7:30 AM - 4:00 PM, SUN Closed",,,
Meineke-Car Care Center,267,6350-C North Sheridan Blvd. ,,Arvada ,CO,80003-6602,United States,(303) 766-5468,,,"Center Hours: Closed Now, M-F 7:30 AM - 6:00 PM, SAT 7:30 AM - 4:00 PM, SUN Closed",,,
Meineke-Car Care Center,1397,3200 Seward Highway Suite 101 ,,Anchorage ,AK,99503-4150,United States,(907) 885-0337,,,"Center Hours: Closed Now, M-F 7:30 AM - 6:00 PM, SAT 7:30 AM - 6:00 PM, SUN Closed",,,
Meineke-Car Care Center,4226,651 East 120th Avenue ,,Thornton ,CO,80233,United States,(303) 502-9134,,,"Center Hours: Closed Now, M-F 7:30 AM - 6:00 PM, SAT 7:30 AM - 5:00 PM, SUN Closed",,,
Meineke-Car Care Center,624,1940 N. Main Street ,,Longmont ,CO,80501-1914,United States,(303) 416-6950,,,"Center Hours: Closed Now, M-F 7:30 AM - 6:00 PM, SAT 7:30 AM - 4:00 PM, SUN Closed",,,
Meineke-Car Care Center,4181,27685 Jefferson Ave. ,,Temecula ,CA,92590,United States,(951) 225-3761,,,"Center Hours: Closed Now, M-F 7:30 AM - 6:00 PM, SAT 8:00 AM - 5:00 PM, SUN Closed",,,
Meineke-Car Care Center,2093,17060 Devonshire Street ,,Northridge ,CA,91325,United States,(818) 923-6348,,,"Center Hours: Closed Now, M-F 7:30 AM - 6:00 PM, SAT 7:30 AM - 6:00 PM, SUN Closed",,,
Meineke-Car Care Center,4024,694 E. Highland Ave. ,,San Bernardino ,CA,92404,United States,(909) 474-7032,,,"Center Hours: Closed Now, M-F 8:00 AM - 6:00 PM, SAT 8:00 AM - 4:00 PM, SUN Closed",,,
Meineke-Car Care Center,4074,31700 Casino Drive ,,Lake Elsinore ,CA,92530,United States,(951) 291-0101,,,"Center Hours: Closed Now, M-F 7:30 AM - 6:00 PM, SAT 7:30 AM - 6:00 PM, SUN 9:00 AM - 5:00 PM",,,
Meineke-Car Care Center,2032,6670 Camden Boulevard ,,Fountain ,CO,80817,United States,(719) 602-5615,,,"Center Hours: Closed Now, M-F 7:30 AM - 6:00 PM, SAT 8:00 AM - 5:00 PM, SUN Closed",,,
Meineke-Car Care Center,2224,24005 Hawthorne Blvd ,,Torrance ,CA,90505,United States,(310) 870-1114,,,"Center Hours: Closed Now, M-F 8:00 AM - 6:00 PM, SAT 8:00 AM - 6:00 PM, SUN 10:00 AM - 4:00 PM",,,
Meineke-Car Care Center,4065,2225 Club Way ,,San Bernardino ,CA,92408,United States,(909) 699-0906,,,"Center Hours: Closed Now, M-F 8:00 AM - 6:00 PM, SAT 8:00 AM - 5:00 PM, SUN Closed",,,
Meineke-Car Care Center,2285,4754 Bell Hill Road ,,Bessemer ,AL,35022,United States,(205) 417-1382,,,"Center Hours: Closed Now, M-F 8:00 AM - 6:00 PM, SAT 8:00 AM - 4:00 PM, SUN Closed",,,
Meineke-Car Care Center,2302,1020 Highway 287 ,,Broomfield ,CO,80020,United States,(303) 732-6614,,,"Center Hours: Closed Now, M-F 8:00 AM - 6:00 PM, SAT 8:00 AM - 5:00 PM, SUN Closed",,,
Meineke-Car Care Center,4129,22932 Glenwood Drive ,,Aliso Viejo ,CA,92656,United States,(949) 427-1573,,,"Center Hours: Closed Now, M-F 7:00 AM - 7:00 PM, SAT 7:00 AM - 5:00 PM, SUN Closed",,,
Meineke-Car Care Center,4034,5267 Paramount Blvd. ,,Lakewood ,CA,90712,United States,(562) 912-2024,,,"Center Hours: Closed Now, M-F 8:00 AM - 6:00 PM, SAT 8:00 AM - 6:00 PM, SUN Closed",,,
Meineke-Car Care Center,4237,1254 South Hover Street ,,Longmont ,CO,80501,United States,(303) 872-6093,,,"Center Hours: Closed Now, M-F 7:30 AM - 6:00 PM, SAT 7:30 AM - 5:00 PM, SUN Closed",,,
Meineke-Car Care Center,2256,2049 Harbor Blvd ,,Costa Mesa ,CA,92627,United States,(949) 423-6750,,,"Center Hours: Closed Now, M-F 7:30 AM - 6:00 PM, SAT 7:30 AM - 6:00 PM, SUN Closed",,,
Meineke-Car Care Center,4114,195 North McKinley Street ,,Corona ,CA,92879,United States,(951) 444-9652,,,"Center Hours: Closed Now, M-F 7:30 AM - 6:00 PM, SAT 7:30 AM - 6:00 PM, SUN 9:00 AM - 5:00 PM",,,
Meineke-Car Care Center,2432,121 E Whittier Blvd ,,Montebello ,CA,90640,United States,(323) 767-8010,,,"Center Hours: Closed Now, M-F 8:00 AM - 6:00 PM, SAT 8:00 AM - 5:00 PM, SUN Closed",,,
Meineke-Car Care Center,4009,6962 Chapman Avenue ,,Garden Grove ,CA,92845,United States,(714) 248-0852,,,"Center Hours: Closed Now, M-F 8:00 AM - 6:00 PM, SAT 8:00 AM - 5:00 PM, SUN Closed",,,
Meineke-Car Care Center,4054,135 Washburn Circle ,,Corona ,CA,92882,United States,(951) 356-0805,,,"Center Hours: Closed Now, M-F 8:00 AM - 5:00 PM, SAT 8:00 AM - 5:00 PM, SUN 9:00 AM - 2:00 PM",,,
Meineke-Car Care Center,4155,22270 La Palma ,,Yorba Linda ,CA,92887,United States,(714) 455-9473,,,"Center Hours: Closed Now, M-F 7:30 AM - 6:00 PM, SAT 7:30 AM - 6:00 PM, SUN Closed",,,
Meineke-Car Care Center,4047,5500 Van Buren Boulevard ,,Riverside ,CA,92503,United States,(951) 643-4521,,,"Center Hours: Closed Now, M-F 7:30 AM - 6:00 PM, SAT 7:30 AM - 6:00 PM, SUN 9:00 AM - 5:00 PM",,,
Meineke-Car Care Center,4046,17025 Imperial Highway ,,Yorba Linda ,CA,92886,United States,(714) 984-6485,,,"Center Hours: Closed Now, M-F 7:30 AM - 6:00 PM, SAT 7:30 AM - 4:00 PM, SUN Closed",,,
Meineke-Car Care Center,2697,4559 Artesia Blvd ,,Lawndale ,CA,90260,United States,(310) 870-1125,,,"Center Hours: Closed Now, M-F 7:30 AM - 6:00 PM, SAT 7:30 AM - 6:00 PM, SUN Closed",,,
Meineke-Car Care Center,4154,100 W. Chapman Ave. ,,Placentia ,CA,92870,United States,(714) 646-6130,,,"Center Hours: Closed Now, M-F 7:30 AM - 6:00 PM, SAT 7:30 AM - 6:00 PM, SUN 9:00 AM - 5:00 PM",,,
Meineke-Car Care Center,2334,718 W Lincoln Ave ,,Anaheim ,CA,92805,United States,(714) 855-3175,,,"Center Hours: Closed Now, M-F 7:30 AM - 6:00 PM, SAT 7:30 AM - 6:00 PM, SUN Closed",,,
Meineke-Car Care Center,4097,2309 North Perris Boulevard ,,Perris ,CA,92571,United States,(951) 345-4121,,,"Center Hours: Closed Now, M-F 7:30 AM - 6:00 PM, SAT 7:30 AM - 5:00 PM, SUN 9:00 AM - 5:00 PM",,,
Meineke-Car Care Center,4378,6905 East Broadway Boulevard ,,Tucson ,AZ,85710,United States,(520) 355-3915,,,"Center Hours: Closed Now, M-F 7:30 AM - 6:00 PM, SAT 7:30 AM - 6:00 PM, SUN Closed",,,
Meineke-Car Care Center,2227,2650 E Alessandro Blvd. ,,Riverside ,CA,92508-2305,United States,(951) 472-2662,,,"Center Hours: Closed Now, M-F 7:30 AM - 6:00 PM, SAT 7:30 AM - 6:00 PM, SUN Closed",,,
Meineke-Car Care Center,4217,8040 N. Oracle Rd ,,Tucson ,AZ,85704,United States,(520) 549-2160,,,"Center Hours: Closed Now, M-F 7:30 AM - 6:00 PM, SAT 7:30 AM - 6:00 PM, SUN 9:00 AM - 5:00 PM",,,
Meineke-Car Care Center,4236,900 North Alma School Road ,,Chandler ,AZ,85224,United States,(480) 582-0982,,,"Center Hours: Closed Now, M-F 7:30 AM - 6:00 PM, SAT 7:00 AM - 4:00 PM, SUN Closed",,,
Meineke-Car Care Center,4089,3332 North Oracle Road ,,Tucson ,AZ,85705,United States,(520) 441-6227,,,"Center Hours: Closed Now, M-F 7:30 AM - 6:00 PM, SAT 7:30 AM - 6:00 PM, SUN Closed",,,
Meineke-Car Care Center,4342,10380 N. 91st Ave. ,,Peoria ,AZ,85345,United States,(623) 748-1632,,,"Center Hours: Closed Now, M-F 7:30 AM - 6:00 PM, SAT 8:00 AM - 5:00 PM, SUN Closed",,,
Meineke-Car Care Center,4337,42410 N. Vision Way ,,Anthem ,AZ,85086,United States,(623) 688-5423,,,"Center Hours: Closed Now, M-F 7:30 AM - 6:00 PM, SAT 7:30 AM - 4:00 PM, SUN Closed",,,
Meineke-Car Care Center,4135,7950 East Thomas Road ,,Scottsdale ,AZ,85251,United States,(480) 295-7154,,,"Center Hours: Closed Now, M-F 7:30 AM - 6:00 PM, SAT 7:00 AM - 4:00 PM, SUN Closed",,,
Meineke-Car Care Center,1593,13546 N 83rd Avenue ,,Peoria ,AZ,85381,United States,(623) 432-9460,,,"Center Hours: Closed Now, M-F 7:30 AM - 6:00 PM, SAT 7:30 AM - 6:00 PM, SUN Closed",,,
Meineke-Car Care Center,4234,4115 East Chandler Boulevard ,,Phoenix ,AZ,85044,United States,(480) 389-2204,,,"Center Hours: Closed Now, M-F 7:30 AM - 6:00 PM, SAT 7:00 AM - 4:00 PM, SUN Closed",,,
Meineke-Car Care Center,4350,8880 W. Bell Rd ,,Peoria ,AZ,85382,United States,(623) 432-9307,,,"Center Hours: Closed Now, M-F 7:30 AM - 6:00 PM, SAT 7:00 AM - 4:00 PM, SUN Closed",,,
Meineke-Car Care Center,2128,2630 E Bell Road Suite 1 ,,Phoenix ,AZ,85032,United States,(602) 842-0795,,,"Center Hours: Closed Now, M-F 7:30 AM - 6:00 PM, SAT 8:00 AM - 4:00 PM, SUN Closed",,,
Meineke-Car Care Center,4338,15494 West Bell Road ,,Surprise ,AZ,85374,United States,(623) 208-5871,,,"Center Hours: Closed Now, M-F 7:30 AM - 6:00 PM, SAT 7:00 AM - 4:00 PM, SUN Closed",,,
Meineke-Car Care Center,4264,6757 East Southern Avenue ,,Mesa ,AZ,85206,United States,(480) 359-1625,,,"Center Hours: Closed Now, M-F 7:30 AM - 6:00 PM, SAT 7:00 AM - 4:00 PM, SUN Closed",,,
Meineke-Car Care Center,4369,7105 North 51st Avenue Building A ,,Glendale ,AZ,85301,United States,(623) 688-5502,,,"Center Hours: Closed Now, M-F 7:30 AM - 6:00 PM, SAT 7:00 AM - 4:00 PM, SUN Closed",,,
Meineke-Car Care Center,4128,2402 East Osborn Road ,,Phoenix ,AZ,85016,United States,(602) 842-6361,,,"Center Hours: Closed Now, M-F 7:30 AM - 6:00 PM, SAT 7:00 AM - 4:00 PM, SUN Closed",,,
Meineke-Car Care Center,4286,1830 East Route 66 ,,Flagstaff ,AZ,86004,United States,(928) 255-0907,,,"Center Hours: Closed Now, M-F 7:30 AM - 6:00 PM, SAT 7:30 AM - 6:00 PM, SUN Closed",,,
Meineke-Car Care Center,2604,326 West Grant Line Road ,,Tracy ,CA,95376,United States,(209) 597-3567,,,"Center Hours: Closed Now, M-F 8:00 AM - 5:00 PM, SAT 8:00 AM - 5:00 PM, SUN Closed",,,
Meineke-Car Care Center,4052,2011 N. Oxnard Blvd. ,,Oxnard ,CA,93036,United States,(805) 351-4563,,,"Center Hours: Closed Now, M-F 7:30 AM - 6:00 PM, SAT 7:30 AM - 6:00 PM, SUN Closed",,,
Meineke-Car Care Center,2489,525 Cirby Way ,,Roseville ,CA,95678,United States,(916) 367-0307,,,"Center Hours: Closed Now, M-F 7:30 AM - 6:00 PM, SAT 7:30 AM - 6:00 PM, SUN 8:00 AM - 5:00 PM",,,
Meineke-Car Care Center,4229,740 Dennery Road ,,San Diego ,CA,92154,United States,(619) 591-8413,,,"Center Hours: Closed Now, M-F 7:30 AM - 6:00 PM, SAT 7:00 AM - 5:00 PM, SUN Closed",,,
Meineke-Car Care Center,4130,6970 West Lane ,,Stockton ,CA,95210,United States,(209) 425-1104,,,"Center Hours: Closed Now, M-F 7:30 AM - 6:00 PM, SAT 7:30 AM - 6:00 PM, SUN 9:00 AM - 5:00 PM",,,
Meineke-Car Care Center,2364,713 Silverado Trail ,,Napa ,CA,94559-2722,United States,(707) 690-1767,,,"Center Hours: Closed Now, M-F 7:30 AM - 6:00 PM, SAT 7:30 AM - 6:00 PM, SUN Closed",,,
Meineke-Car Care Center,2284,1925 Del Monte Blvd ,,Seaside ,CA,93955,United States,(831) 204-1480,,,"Center Hours: Closed Now, M-F 7:30 AM - 6:00 PM, SAT 8:00 AM - 5:00 PM, SUN Closed",,,
Meineke-Car Care Center,4107,770 Lawrence Drive ,,San Luis Obispo ,CA,93401,United States,(805) 242-9878,,,"Center Hours: Closed Now, M-F 7:30 AM - 6:00 PM, SAT 7:30 AM - 5:30 PM, SUN Closed",,,
Meineke-Car Care Center,2355,2259 Sunrise Blvd ,,Gold River ,CA,95670-4341,United States,(916) 970-1910,,,"Center Hours: Closed Now, M-F 7:30 AM - 6:00 PM, SAT 7:30 AM - 4:00 PM, SUN Closed",,,
Meineke-Car Care Center,1990,111 East Roemer Way ,,Santa Maria ,CA,93454,United States,(805) 357-9618,,,"Center Hours: Closed Now, M-F 7:30 AM - 6:00 PM, SAT 8:00 AM - 5:00 PM, SUN Closed",,,
Meineke-Car Care Center,4059,6990 Watt Avenue ,,North Highlands ,CA,95660,United States,(916) 550-9274,,,"Center Hours: Closed Now, M-F 7:30 AM - 6:00 PM, SAT 7:30 AM - 6:00 PM, SUN Closed",,,
Meineke-Car Care Center,2221,190 Welburn Ave ,,Gilroy ,CA,95020,United States,(408) 337-6981,,,"Center Hours: Closed Now, M-F 7:30 AM - 6:00 PM, SAT 7:30 AM - 6:00 PM, SUN Closed",,,
Meineke-Car Care Center,2354,2725 W. Capitol Ave ,,West Sacramento ,CA,95691,United States,(916) 596-3366,,,"Center Hours: Closed Now, M-F 7:30 AM - 6:00 PM, SAT 7:30 AM - 4:00 PM, SUN Closed",,,
Meineke-Car Care Center,933,1355 Santa Rosa Avenue ,,Santa Rosa ,CA,95404-5424,United States,(707) 327-2003,,,"Center Hours: Closed Now, M-F 7:30 AM - 6:00 PM, SAT 7:30 AM - 6:00 PM, SUN Closed",,,
Meineke-Car Care Center,4113,2924 Damon Ave. ,,San Diego ,CA,92109,United States,(858) 952-1760,,,"Center Hours: Closed Now, M-F 8:00 AM - 6:00 PM, SAT 8:00 AM - 6:00 PM, SUN 10:00 AM - 5:00 PM",,,
Meineke-Car Care Center,1981,68725 Ramon Road ,,Cathedral City ,CA,92234,United States,(760) 537-0199,,,"Center Hours: Closed Now, M-F 7:30 AM - 5:30 PM, SAT 7:30 AM - 4:00 PM, SUN Closed",,,
Meineke-Car Care Center,1711,9551 Mission Gorge Road ,,Santee ,CA,92071,United States,(619) 592-8360,,,"Center Hours: Closed Now, M-F 7:30 AM - 5:00 PM, SAT 7:30 AM - 4:00 PM, SUN Closed",,,
Meineke-Car Care Center,4197,13506 Pomerado Rd ,,Poway ,CA,92064,United States,(858) 391-6354,,,"Center Hours: Closed Now, M-F 7:30 AM - 6:00 PM, SAT 7:30 AM - 4:30 PM, SUN Closed",,,
Meineke-Car Care Center,4023,1618 Mission Ave. ,,Oceanside ,CA,92054,United States,(760) 687-9688,,,"Center Hours: Closed Now, M-F 7:30 AM - 6:00 PM, SAT 7:30 AM - 6:00 PM, SUN Closed",,,
Meineke-Car Care Center,4202,4519 Telephone Road ,,Ventura ,CA,93003,United States,(805) 666-0972,,,"Center Hours: Closed Now, M-F 7:30 AM - 6:00 PM, SAT 7:30 AM - 5:00 PM, SUN Closed",,,
Meineke-Car Care Center,2192,1493 East 6th ,,Beaumont ,CA,92223,United States,(951) 267-9109,,,"Center Hours: Closed Now, M-F 7:30 AM - 6:00 PM, SAT 7:30 AM - 5:00 PM, SUN Closed",,,
Meineke-Car Care Center,4063,9025 Folsom Boulevard ,,Sacramento ,CA,95826,United States,(916) 822-6439,,,"Center Hours: Closed Now, M-F 7:30 AM - 6:00 PM, SAT 7:30 AM - 6:00 PM, SUN 9:00 AM - 5:00 PM",,,
Meineke-Car Care Center,699,3041 Middlefield Road ,,Redwood City ,CA,94063-3764,United States,(650) 381-9814,,,"Center Hours: Closed Now, M-F 7:30 AM - 6:00 PM, SAT 7:30 AM - 6:00 PM, SUN Closed",,,
Meineke-Car Care Center,2328,8686 Elk Grove Blvd. ,,Elk Grove ,CA,95624,United States,(916) 385-0709,,,"Center Hours: Closed Now, M-F 7:30 AM - 6:00 PM, SAT 7:30 AM - 6:00 PM, SUN Closed",,,
Meineke-Car Care Center,2296,4701 Hamilton Ave. ,,San Jose ,CA,95130,United States,(408) 680-8140,,,"Center Hours: Closed Now, M-F 7:30 AM - 6:00 PM, SAT 7:30 AM - 6:00 PM, SUN Closed",,,
Meineke-Car Care Center,2492,2336 El Camino Real ,,Santa Clara ,CA,95050-4059,United States,(408) 780-0374,,,"Center Hours: Closed Now, M-F 7:30 AM - 6:00 PM, SAT 8:00 AM - 5:00 PM, SUN Closed",,,
Meineke-Car Care Center,2469,2660 S El Camino Real ,,San Mateo ,CA,94403,United States,(650) 389-9285,,,"Center Hours: Closed Now, M-F 8:00 AM - 5:00 PM, SAT 8:00 AM - 5:00 PM, SUN 9:00 AM - 4:00 PM",,,
Meineke-Car Care Center,2028,185 South Union Road ,,Manteca ,CA,95337,United States,(209) 665-0545,,,"Center Hours: Closed Now, M-F 7:30 AM - 5:30 PM, SAT 7:30 AM - 5:00 PM, SUN Closed",,,
Meineke-Car Care Center,2672,2151 Monument Blvd ,,Concord ,CA,94520-3808,United States,(925) 471-5881,,,"Center Hours: Closed Now, M-F 7:30 AM - 6:00 PM, SAT 7:30 AM - 6:00 PM, SUN Closed",,,
Meineke-Car Care Center,2401,401 Bangs Ave Ste F ,,Modesto ,CA,95356,United States,(209) 353-0107,,,"Center Hours: Closed Now, M-F 8:00 AM - 6:00 PM, SAT 8:00 AM - 5:30 PM, SUN Closed",,,
Meineke-Car Care Center,2661,411 E. 18th Street ,,Antioch ,CA,94509,United States,(925) 237-1927,,,"Center Hours: Closed Now, M-F 7:30 AM - 6:00 PM, SAT 7:30 AM - 6:00 PM, SUN Closed",,,
Meineke-Car Care Center,4316,1641 North Carpenter Road ,,Modesto ,CA,95351,United States,(209) 353-0076,,,"Center Hours: Closed Now, M-F 7:30 AM - 6:00 PM, SAT 7:30 AM - 6:00 PM, SUN 9:00 AM - 5:00 PM",,,
Meineke-Car Care Center,2536,1206 N. Golden State Blvd ,,Turlock ,CA,95380,United States,(209) 585-3655,,,"Center Hours: Closed Now, M-F 8:00 AM - 5:00 PM, SAT 8:00 AM - 4:00 PM, SUN Closed",,,
Meineke-Car Care Center,4068,3844 Plaza Drive ,,Oceanside ,CA,92056,United States,(760) 691-1296,,,"Center Hours: Closed Now, M-F 7:30 AM - 6:00 PM, SAT 7:30 AM - 4:00 PM, SUN Closed",,,
Meineke-Car Care Center,2397,3464 Foothill Blvd. ,,Oakland ,CA,94601,United States,(510) 698-2118,,,"Center Hours: Closed Now, M-F 8:00 AM - 6:00 PM, SAT 8:00 AM - 5:00 PM, SUN Closed",,,
Meineke-Car Care Center,1781,1525-B Holiday Lane ,,Fairfield ,CA,94534,United States,(707) 416-2183,,,"Center Hours: Closed Now, M-F 7:30 AM - 6:00 PM, SAT 7:30 AM - 6:00 PM, SUN 9:00 AM - 5:00 PM",,,
Meineke-Car Care Center,4067,2035 N. Texas St. ,,Fairfield ,CA,94533,United States,(707) 416-0978,,,"Center Hours: Closed Now, M-F 7:30 AM - 6:00 PM, SAT 7:30 AM - 6:00 PM, SUN 9:00 AM - 5:00 PM",,,
Meineke-Car Care Center,2465,2425 Pacheco Blvd. ,,Martinez ,CA,94553,United States,(925) 269-4551,,,"Center Hours: Closed Now, M-F 7:30 AM - 6:00 PM, SAT 7:30 AM - 6:00 PM, SUN Closed",,,
Meineke-Car Care Center,975,6541 White Lane Suite M ,,Bakersfield ,CA,93309-7793,United States,(661) 527-4267,,,"Center Hours: Closed Now, M-F 7:30 AM - 6:00 PM, SAT 7:30 AM - 6:00 PM, SUN Closed",,,
Meineke-Car Care Center,1598,2813 South Caraway Road ,,Jonesboro ,AR,72401,United States,(870) 726-4025,,,"Center Hours: Closed Now, M-F 7:30 AM - 6:00 PM, SAT 7:30 AM - 4:00 PM, SUN Closed",,,
Meineke-Car Care Center,873,2163 28th Street ,,Boulder ,CO,80301-1108,United States,(303) 900-2936,,,"Center Hours: Closed Now, M-F 7:30 AM - 6:00 PM, SAT 7:30 AM - 4:00 PM, SUN Closed",,,
Meineke-Car Care Center,4118,3956 State Street ,,Santa Barbara ,CA,93105,United States,(805) 259-3587,,,"Center Hours: Closed Now, M-F 7:30 AM - 6:00 PM, SAT 7:30 AM - 6:00 PM, SUN Closed",,,
Meineke-Car Care Center,2272,1223 East 30th Avenue ,,Hutchinson ,KS,67502,United States,(620) 860-0949,,,"Center Hours: Closed Now, M-F 7:30 AM - 6:00 PM, SAT 7:30 AM - 5:00 PM, SUN Closed",,,
Meineke-Car Care Center,347,241 Newbury Street-Rt 1 ,,North Peabody ,MA,01960-1315,United States,(978) 548-6395,,,"Center Hours: Closed Now, M-F 7:00 AM - 6:00 PM, SAT 7:00 AM - 6:00 PM, SUN Closed",,,
Meineke-Car Care Center,109,22 Massachusetts Avenue ,,Arlington ,MA,02474,United States,(781) 819-2431,,,"Center Hours: Closed Now, M-F 7:30 AM - 5:30 PM, SAT 7:30 AM - 4:00 PM, SUN Closed",,,
Meineke-Car Care Center,743,663 Main Street- Route 38 ,,Tewksbury ,MA,01876-1842,United States,(978) 674-5577,,,"Center Hours: Closed Now, M-F 8:00 AM - 5:30 PM, SAT 8:00 AM - 4:00 PM, SUN Closed",,,
Meineke-Car Care Center,2200,4515 Towson Avenue ,,Fort Smith ,AR,72901,United States,(479) 274-8684,,,"Center Hours: Closed Now, M-F 7:30 AM - 6:00 PM, SAT 7:30 AM - 4:00 PM, SUN Closed",,,
Meineke-Car Care Center,889,5 PELHAM RD. ,,Hudson ,NH,03051-4831,United States,(603) 546-7101,,,"Center Hours: Closed Now, M-F 7:30 AM - 6:00 PM, SAT 7:30 AM - 4:00 PM, SUN Closed",,,
Meineke-Car Care Center,1810,4896 Ashley Phosphate Road North ,,Charleston ,SC,29418,United States,(843) 405-7905,,,"Center Hours: Closed Now, M-F 7:30 AM - 6:00 PM, SAT 7:30 AM - 6:00 PM, SUN Closed",,,
Meineke-Car Care Center,145,597 Central Park Avenue ,,Yonkers ,NY,10704,United States,(914) 410-6950,,,"Center Hours: Closed Now, M-F 7:30 AM - 5:30 PM, SAT 8:00 AM - 4:00 PM, SUN Closed",,,
Meineke-Car Care Center,2195,122 Main Street ,,Port Washington ,NY,11050,United States,(516) 858-2508,,,"Center Hours: Closed Now, M-F 7:30 AM - 6:00 PM, SAT 7:30 AM - 4:00 PM, SUN Closed",,,
Meineke-Car Care Center,39,2096 Jericho Turnpike ,,New Hyde Park ,NY,11040-4729,United States,(516) 360-2935,,,"Center Hours: Closed Now, M-F 8:00 AM - 6:00 PM, SAT 8:00 AM - 4:00 PM, SUN Closed",,,
Meineke-Car Care Center,4239,2540 Old Denton Road Suite # 7 ,,Carrollton ,TX,75006,United States,(972) 591-0608,,,"Center Hours: Closed Now, M-F 7:30 AM - 6:00 PM, SAT 7:30 AM - 5:00 PM, SUN Closed",,,
Meineke-Car Care Center,288,533 Elm Street ,,Manchester ,NH,03101,United States,(603) 606-5924,,,"Center Hours: Closed Now, M-F 7:30 AM - 6:00 PM, SAT 7:30 AM - 4:00 PM, SUN Closed",,,
Meineke-Car Care Center,2344,2972 FM 423 ,,Little Elm ,TX,75068,United States,(214) 705-2635,,,"Center Hours: Closed Now, M-F 7:30 AM - 6:00 PM, SAT 8:00 AM - 5:00 PM, SUN 10:00 AM - 4:00 PM",,,
Meineke-Car Care Center,179,912 Haddonfield Road ,,Cherry Hill ,NJ,08002-2204,United States,(856) 324-4718,,,"Center Hours: Closed Now, M-F 8:00 AM - 6:00 PM, SAT 8:00 AM - 4:00 PM, SUN Closed",,,
Meineke-Car Care Center,528,1639 ROUTE 38 ,,WEST Lumberton ,NJ,08048,United States,(609) 288-2063,,,"Center Hours: Closed Now, M-F 8:00 AM - 6:00 PM, SAT 8:00 AM - 5:00 PM, SUN Closed",,,
Meineke-Car Care Center,228,87 Dolson Avenue ,,Middletown ,NY,10940,United States,(845) 688-8692,,,"Center Hours: Closed Now, M-F 8:00 AM - 6:00 PM, SAT 8:00 AM - 4:00 PM, SUN Closed",,,
Meineke-Car Care Center,538,548 Mantua Avenue ,,Woodbury ,NJ,08096-3214,United States,(856) 202-3649,,,"Center Hours: Closed Now, M-F 7:30 AM - 6:00 PM, SAT 7:30 AM - 4:00 PM, SUN 8:00 AM - 3:00 PM",,,
Meineke-Car Care Center,309,1149 U.S. Highway 22 East ,,Mountainside ,NJ,07092-2808,United States,(908) 379-8848,,,"Center Hours: Closed Now, M-F 7:30 AM - 6:00 PM, SAT 7:30 AM - 4:30 PM, SUN Closed",,,
Meineke-Car Care Center,334,743 Route 347 ,,Smithtown ,NY,11787-5128,United States,(631) 406-5973,,,"Center Hours: Closed Now, M-F 7:00 AM - 6:00 PM, SAT 8:00 AM - 4:00 PM, SUN Closed",,,
Meineke-Car Care Center,196,1106 North Gallatin Pike ,,Madison ,TN,37115,United States,(615) 200-9329,,,"Center Hours: Closed Now, M-F 7:30 AM - 6:00 PM, SAT 7:30 AM - 4:00 PM, SUN Closed",,,
Meineke-Car Care Center,246,7344 Governor Ritchie Highway ,,Glen Burnie ,MD,21061,United States,(410) 999-1403,,,"Center Hours: Closed Now, M-F 7:30 AM - 6:00 PM, SAT 7:30 AM - 4:00 PM, SUN Closed",,,
Meineke-Car Care Center,2502,10920 E 21st St ,,Tulsa ,OK,74129,United States,(918) 921-4995,,,"Center Hours: Closed Now, M-F 7:30 AM - 6:00 PM, SAT 7:30 AM - 6:00 PM, SUN Closed",,,
Meineke-Car Care Center,2593,865 University Ave W ,,Saint Paul ,MN,55104,United States,(651) 447-5426,,,"Center Hours: Closed Now, M-F 7:30 AM - 6:00 PM, SAT 8:00 AM - 4:00 PM, SUN Closed",,,
