store_name,store_number,address,address2,city,state,zip_code,country,phone_number,latitude,longitude,store_hours,store_type,other_fields,coming_soon
PHOENIX,801,,,PHOENIX,AZ,00000,United States,,33.4483771,-112.0740373,,,,
Ulta Camelback Colonnade Shopping Center,906,"1949 E. Camelback Road, Suite 146",,Phoenix,AZ,85016,United States,602-264-0003,33.507867,-112.040416,,,,
GLENDALE,515,,,GLENDALE,AZ,00000,United States,,33.5386523,-112.1859866,,,,
Macys Scottsdale Fashion Square,57,"7014 East Camelback Road, Suite 5000",,Scottsdale,AZ,85251,United States,480-840-0333,33.5028371,-111.9294198,,,,
Ulta Tempe Marketplace,1033,"55 S. McClintock Drive, Suite 155",,Tempe,AZ,85281,United States,480-968-8200,33.4311205,-111.9083706,,,,
Tempe Marketplace,822,1900 E. Rio Salado Pkwy Ste 140,,TEMPE,AZ,85281,United States,480-829-3555,33.4293143,-111.9042027,,,,
Ulta Casa Paloma,1279,"7131 W. Ray Road, Suite 12",,Chandler,AZ,85226,United States,480-753-7076,33.319795,-111.9669284,,,,
Ulta Village Fair North Shopping Center,907,12867 N. Tatum Blvd.,,Phoenix,AZ,85032,United States,602-953-5009,33.6034933,-111.9765061,,,,
Ulta Scottsdale Pavilions,905,9019 E. Indian Bend Road,,Scottsdale,AZ,85250,United States,480-905-1099,33.5375865,-111.8878586,,,,
Ulta Peoria Crossings,1007,9280 W. Northern Avenue,,Glendale,AZ,85305,United States,623-772-0733,33.554293,-112.258826,,,,
Sephora CHANDLER,241,"3111 W. Chandler Blvd, Space 1144",,Chandler,AZ,85226,United States,(480) 726-7733,33.3056732,-111.8977556,,,,
Ulta Chandler Festival,954,2680 W. Chandler Blvd.,,Chandler,AZ,85224,United States,480-792-0457,33.3078579,-111.8880159,,,,
Sephora SCOTTSDALE QUARTER,421,"15169 N Scottsdale Rd., Suite #110",,Scottsdale,AZ,85254,United States,(480) 991-0915,33.623659,-111.9251533,,,,
PALM VALLEY CORNERST,798,13333 W MCDOWELL RD,,Goodyear,AZ,85395-2631,United States,,33.4642161,-112.341621,,,,
Ulta The Promenade @ Frank Lloyd Wright Blvd.,933,16231 N. Scottsdale Road,,Scottsdale,AZ,85254,United States,480-609-1009,33.6338127,-111.9223748,,,,
Ulta Arrowhead Crossing Shopping Center,915,7665 W. Bell Road,,Peoria,AZ,85382,United States,623-486-5055,33.6370611,-112.2239376,,,,
Ulta The Shoppes at Gilbert Commons,1201,857 East Baseline Road,,Gilbert,AZ,85233,United States,480-813-5985,33.3788305,-111.8128493,,,,
Sephora ARROWHEAD,150,"7700 W Arrowhead Towne Center, Suite 1199",,Glendale,AZ,85308,United States,(623) 334-8700,33.6420894,-112.2254067,,,,
Macys Arrowhead Towne Center,58,7600 Arrowhead Towne Center,,Glendale,AZ,85308,United States,,33.6421682,-112.2259479,,,,
Ulta Palm Valley Pavilions West,1005,1450 N. Litchfield,,Goodyear,AZ,85395,United States,623-935-4186,33.4637235,-112.3611616,,,,
Ulta Desert Ridge Shopping Center,961,"21001 N. Tatum Blvd., Suite 72",,Phoenix,AZ,85050,United States,480-502-4331,33.6759013,-111.9747066,,,,
Ulta Happy Valley Towne Center,1032,"2501 W. Happy Valley Rd., Suite 38",,Phoenix,AZ,85027,United States,623-581-6766,33.7083381,-112.1137839,,,,
Mill Crossing,487,2180 S Gilbert Rd,,CHANDLER,AZ,85286,United States,480-281-4637,33.2751798,-111.7917359,,,,
Ulta Surprise Marketplace,1024,13707 West Bell Road,,Surprise,AZ,85374,United States,623-214-2779,33.6367114,-112.3507666,,,,
Sephora SAN TAN VILLAGE,187,"2206 E Williams Field Rd, Suite 114",,Gilbert,AZ,85295,United States,(480) 917-4555,33.3068228,-111.7524734,,,,
Ulta San Tan Village Phase II,1031,2779 South Market Street,,Gilbert,AZ,85295,United States,480-726-3777,33.2994164,-111.741747,,,,
Ulta Lake Pleasant Towne Center,1076,10084 W. Happy Valley Parkway,,Peoria,AZ,85383,United States,623-825-2652,33.7144074,-112.2764116,,,,
SUPERST'N SPRINGS ML,715,6525 E SOUTHERN AVE,,Mesa,AZ,85206-3711,United States,,33.389727,-111.6909193,,,,
Ulta Mesa Pavilions at Superstition Springs,918,6948 E. Hampton Avenue,,Mesa,AZ,85209,United States,480-396-7440,33.390802,-111.681092,,,,
Ulta Superstition Gateway,1073,1614 S. Signal Butte Road,,Mesa,AZ,85209,United States,480-357-8181,33.3848567,-111.6014786,,,,
Ulta Queen Creek Marketplace,1203,21118 S. Ellsworth Loop Road,,Queen Creek,AZ,85242,United States,480-882-3454,33.2555183,-111.6382829,,,,
Casa Grande Regional Center,847,1041 N. Promenade Pkwy,,CASA GRANDE,AZ,85222,United States,520-836-1557,32.8825693,-111.685214,,,,
Ulta Promenade at Casa Grande,1144,"1004 N. Promenade Parkway, Suite 136",,Casa Grande,AZ,85222,United States,520-836-2313,32.8838062,-111.681924,,,,
Sephora TUCSON,324,4500 N. Oracle Road Box 295,,Tucson,AZ,85705,United States,(520) 888-3440,32.551529,-110.8580935,,,,
Ulta Oro Valley Marketplace,1202,11875 N. Oracle Road,,Oro Valley,AZ,85755,United States,520-742-8956,32.4220718,-110.9382766,,,,
Ulta Oracle Wetmore,1047,4368 North Oracle,,Tucson,AZ,85705,United States,520-888-0806,32.2861315,-110.9781026,,,,
Tucson Spectrum,829,5265 S Calle Santa Cruz,,Tucson,AZ,85706,United States,520-917-3280,32.1560824,-110.9899874,,,,
Ulta Park Place Mall,1018,"5870 E. Broadway Blvd., Suite 442",,Tucson,AZ,85711,United States,520-512-4645,32.2192056,-110.8655909,,,,
The Shops at Lake Havasu,851,5651 Hwy 95 North,,LAKE HAVASU CITY,AZ,86404,United States,928-764-1800,34.5697042,-114.3663269,,,,
Yuma Palms Shopping Center,795,1375 S Yuma Palms Pkwy,,YUMA,AZ,85365,United States,928-782-5782,32.7020091,-114.6034828,,,,
EL CENTRO,785,,,EL CENTRO,CA,00000,United States,,32.792,-115.5630514,,,,
Ulta Stephanie Street Shopping Center,920,543 N. Stephanie Street,,Henderson,NV,89014,United States,702-451-6090,36.0586029,-115.0468247,,,,
GALLERIA/SUNSET MALL,740,1312 W SUNSET RD,,HENDERSON,NV,89014-6606,United States,702-451-4545,36.0638008,-115.0421311,,,,
Ulta Silverado Ranch Plaza,955,9857 S. Eastern Avenue,,Las Vegas,NV,89183,United States,702-270-2410,36.0101564,-115.1221979,,,,
Sephora PALM DESERT,402,"73505 El Paseo, Suite 1620",,Palm Desert,CA,92260,United States,(760) 837-1970,33.7197187,-116.3828952,,,,
"Ulta Palm Desert, CA (RELO #114)",1369,72-369 Highway 111,,Palm Desert,CA,92260,United States,760-346-8029,33.7271557,-116.4023498,,,,
Macys Palm Desert,81,72-810 Highway 111,,Palm Desert,CA,92260,United States,,33.7271557,-116.4023498,,,,
HOUSTON,817,,,HOUSTON,TX,00000,United States,,29.7604267,-95.3698028,,,,
"Ulta Houston, TX (River Oaks)",1459,,,Houston,TX,77098,United States,713-807-7959,29.7604267,-95.3698028,,,,
Ulta River Oaks,1460,3025 Kirby Drive,,Houston,TX,77098,United States,713-807-7959,29.7378304,-95.4181448,,,,
Sephora VILLAGE ARCADE,306,"2401 Times Blvd, Suite 150",,Houston,TX,77005,United States,(713) 942-0113,29.7164334,-95.4155014,,,,
Sephora HOUSTON GALLERIA,136,"5015 Westheimer, Suite 2380",,Houston,TX,77056,United States,(713) 961-3580,29.7408058,-95.4608911,,,,
Ulta Plaza on Richmond,997,5140 Richmond Avenue,,Houston,TX,77056,United States,713-621-9120,29.7327723,-95.4650139,,,,
Meyerland Plaza,561,730 Meyerland Plaza Mall,,HOUSTON,TX,77096,United States,713-666-3861,29.6871898,-95.4618819,,,,
Sephora MEMORIAL CITY,140,"303 Memorial City Way, Suite 700",,Houston,TX,77024,United States,(713) 932-0848,29.7806697,-95.5379936,,,,
Macys Memorial City,97,900 Memorial City Mall,,Houston,TX,77024,United States,713-461-0400,29.7804611,-95.5433719,,,,
PASADENA,820,,,PASADENA,TX,00000,United States,,29.6910625,-95.2091006,,,,
Ulta Town & Country Village,1249,"12850 Memorial Drive,",,Houston,TX,77024,United States,713-331-0065,29.7731832,-95.5614967,,,,
The Shops at Stone Park,892,5858 E Sam Houston Pkwy N,,HOUSTON,TX,77049,United States,281-504-1092,29.8109384,-95.1607259,,,,
Ulta Silver Lake Village Shopping Center,1013,3133 Silver Lake Village Drive,,Pearland,TX,77581,United States,713-436-6955,29.5520992,-95.3851644,,,,
PEARLAND,818,,,PEARLAND,TX,00000,United States,,29.5635666,-95.2860474,,,,
"Ulta Pasadena, TX",1384,5696 Fairmont Parkway,,Pasadena,TX,77505,United States,281-991-1890,29.646548,-95.1541523,,,,
Macys Willowbrook (TX),98,4000 Willowbrook Mall,,Houston,TX,77070,United States,281-955-4300,29.957474,-95.538096,,,,
Sephora WILLOWBROOK PARK,141,"7925 FM 1960 Willowbrook Mall, Space 1502",,Houston,TX,77070,United States,(281) 807-4900,29.9599898,-95.5393111,,,,
Willowbrook Mall,690,7925 FM 1960 RD STE 7000,,HOUSTON,TX,77070,United States,281-469-0033,29.961382,-95.5451646,,,,
Ulta Commons at Willowbrook,998,7744 F.M. 1960 West,,Houston,TX,77070,United States,281-894-7182,29.9626725,-95.5452414,,,,
DEERBROOK MALL,763,20131 HWY 59N STE 3000,,Humble,TX,77338-2327,United States,,30.0112362,-95.2693699,,,,
Ulta Deerbrook Marketplace,939,20530 US Highway 59 North,,Humble,TX,77338,United States,281-548-0180,30.015113,-95.2613333,,,,
Ulta The Market at Town Center,914,2601 North Town Center Blvd.,,Sugarland,TX,77479,United States,281-265-9304,29.5935849,-95.6187592,,,,
Sephora FIRST COLONY,320,16535 Southwest Freeway Suite #3012,,Sugarland,TX,77479,United States,(281) 277-7900,29.5929163,-95.6230478,,,,
FIRST COLONY MALL,753,16529 SOUTHWEST FRWY,,SUGARLAND,TX,77479-2317,United States,281-565-1596,29.5913292,-95.6345547,,,,
Sephora BAYBROOK,168,1168 Baybrook Mall,,Friendswood,TX,77546,United States,(281)461-7400,29.5442379,-95.1504538,,,,
BAYBROOK MALL,799,100 BAYBROOK MALL,,FRIENDSWOOD,TX,77546-2707,United States,281-218-7000,29.5415715,-95.1496525,,,,
Macys Baybrook,100,200 Baybrook Mall,,Friendswood,TX,77546,United States,,29.540107,-95.147189,,,,
Macys Baybrook,101,200 Baybrook Mall,,Friendswood,TX,77546,United States,,29.540107,-95.147189,,,,
Ulta Baybrook Village,937,1507B West Bay Area Blvd.,,Webster,TX,77598,United States,281-557-1715,29.537515,-95.1498529,,,,
"Ulta Spring, TX",1411,"19507 North Freeway, Suite 600",,Spring,TX,77388,United States,281-528-0024,30.049946,-95.4347742,,,,
Ulta Greentree Retail Center,948,455 South Fry Road,,Katy,TX,77450,United States,281-646-8808,29.7811225,-95.7189022,,,,
Cy Fair Town Ctr,855,25646 Northwest Freeway,,CYPRESS,TX,77429,United States,281-373-4103,29.9682654,-95.6879967,,,,
West Grand Promenade,806,23523 Grand Circle Blvd,,KATY,TX,77449,United States,281-574-3311,29.7914332,-95.7754141,,,,
Ulta Shops at Bella Terra,1413,5458 West Grand Parkway South,,Richmond,TX,77406,United States,832-595-0546,29.6945501,-95.776618,,,,
"Ulta Richmond, TX (Bella Tera)",1412,,,Richmond,TX,77406,United States,832-595-0546,29.5821811,-95.7607832,,,,
"Ulta Rosenburg, TX",1418,23735 Brazos Town Crossing,,Rosenburg,TX,77471,United States,832-595-8944,29.5437149,-95.7461943,,,,
Brazos Town Commons,872,24201 Brazos Town Crossing,,ROSENBERG,TX,77469,United States,281-232-3270,29.5422204,-95.7490644,,,,
WOODLANDS MALL,769,1201 LAKE WOODLANDS DR STE 500,,The Woodlands,TX,77380-5001,United States,,30.1627025,-95.4550852,,,,
Macys Woodlands,99,1201 Lake Woodlands Drive,,The Woodlands,TX,77386,United States,281-362-6100,30.1644128,-95.4556496,,,,
Sephora WOODLANDS,145,1201 Lake Woodlands Dr,,The Woodlands,TX,77380,United States,(281) 298-8882,30.1644128,-95.4556496,,,,
Ulta The Pinecroft II Shopping Center,929,1600 A Lake Woodlands Drive,,Woodlands,TX,77380,United States,281-419-7405,30.1671711,-95.459093,,,,
Ulta Conroe Marketplace,1107,2928 I-45 North,,Conroe,TX,77303,United States,936-494-4030,30.3482953,-95.4811045,,,,
Teas Crossing,881,3165 Interstate 45 North,,CONROE,TX,77304,United States,936-756-7567,30.3538654,-95.487729,,,,
PARKDALE MALL,662,6455 EASTEX FRWY,,BEAUMONT,TX,77706-6784,United States,409-898-2552,30.12703,-94.161055,,,,
Ulta Parkdale Mall,1072,"6155 Eastex Freeway, suite C-350",,Beaumont,TX,77706,United States,409-892-2083,30.1258916,-94.1574121,,,,
Ulta Gateway Center,1173,"1505 University Drive East,  #205",,College Station,TX,77840,United States,979-595-1000,30.6400592,-96.3163308,,,,
VICTORIA MALL,699,8106 N NAVARRO ST,,VICTORIA,TX,77904-2698,United States,361-578-1511,28.870107,-96.994215,,,,
PRIEN LAKE MALL,733,312 W PRIEN LAKE RD,,LAKE CHARLES,LA,70601-8453,United States,337-478-5110,30.2007709,-93.2247219,,,,
AUSTIN,680,,,AUSTIN,TX,00000,United States,,30.267153,-97.7430608,,,,
AUSTIN,819,,,AUSTIN,TX,00000,United States,,30.267153,-97.7430608,,,,
Ulta Round Rock,946,"2701 Parker Road, Buildaing C",,Round Rock,TX,78681,United States,512-310-7051,30.4820358,-97.6794521,,,,
Ulta Southpark Meadows Shopping Center,1119,"9500 S. IH 35 Service Road SB, BLDG 1",,Austin,TX,78748,United States,512-292-1784,30.162851,-97.791557,,,,
SOUTHPRK MEADOWS S/C,824,9500 S IH-35 STE H,,Austin,TX,78748-1752,United States,,30.1610561,-97.7920239,,,,
Ulta Gateway Market Shopping Center,932,"9607 Research Blvd., Suite 600",,Austin,TX,78759,United States,512-794-0708,30.387915,-97.7426815,,,,
Sephora ARBORETUM,139,"9722 Great Hills Trail, Suite 115",,Austin,TX,78759,United States,(512) 342-8484,30.3954239,-97.7515661,,,,
Falcon Head Shopping Ctr,845,151 University Oaks Blvd,,ROUNDROCK,TX,78664,United States,512-341-0764,30.554462,-97.689286,,,,
Sephora BARTON CREEK,178,"2901 Capitol of Texas Hwy So., Suite M02A",,Austin,TX,78746,United States,(512) 327-4600,30.2576953,-97.8069052,,,,
Ulta Sunset Valley Homestead,1221,5207 Brodie Lane,,Sunset Valley,TX,78745,United States,512-891-1581,30.2303198,-97.8167809,,,,
"Ulta Temple, TX",1387,"2112 SW HK Dodgen Loop, Suite 143?",,Temple,TX,76504,United States,254-771-2079,31.0788059,-97.3780613,,,,
Sephora WOLF RANCH,188,"1015 W. University Ave., Suite 400",,Georgetown,TX,78628,United States,(512) 868-4960,30.6302756,-97.6936314,,,,
Ulta Lakeline Plaza,935,"11066 Pecan Park Blvd., Suite 303",,Cedar Park,TX,78613,United States,512-331-0012,30.4705482,-97.8011211,,,,
Ulta Red Oak Village,1322,"1050 McKinley Place, Suite 120",,San Marcos,TX,78666,United States,512-392-3308,29.8525865,-97.9539808,,,,
Creekside Square,883,800 Barnes Drive,,San Marcos,TX,78666,United States,512-392-6860,29.8451921,-97.9723391,,,,
Ulta Shops at the Galleria,1368,"12909 Shops Parkway, Suite 400",,Bee Cave,TX,78738,United States,512-263-7085,30.3054194,-97.9446368,,,,
New Braunfels Town Center at Creekside,736,215 Creekside Way,,New Braunfels,TX,78130,United States,830-632-2113,29.7298595,-98.0716563,,,,
Ulta Market Heights Shopping Center,1148,"201 E. Central Texas Expressway, Suite 400",,Harker Heights,TX,76548,United States,254-690-1329,31.0745577,-97.6633671,,,,
Ulta Broadway Crossing,1238,"5510 S. Broadway, Suite 200",,Tyler,TX,75703,United States,903-581-7318,32.2888595,-95.3010331,,,,
Broadway Square Mall,574,4401 S Broadway,,TYLER,TX,75703,United States,903-561-3333,32.3010624,-95.3028419,,,,
Ulta Northwoods Shopping Center - Phase III,1235,"1742 N. Loop 1604,, Suite 104",,San Antonio,TX,78232,United States,210-495-0439,29.6063274,-98.4646857,,,,
Ulta La Palmera,1251,"5488 S. Padre Island Dr, Suite 5002",,Corpus Christi,TX,78411,United States,361-985-7401,27.7115364,-97.3700334,,,,
Padre-Staples Mall,602,5488 S Padre Island Dr Ste 4000,,CORPUS CHRISTI,TX,78411,United States,361-991-7251,27.7115364,-97.3700334,,,,
Ulta Quarry Market,1208,"255 E. Basse Road, Suite 1010",,San Antonio,TX,78209,United States,210-824-5031,29.4939809,-98.4828937,,,,
Sephora NORTH STAR,138,"7400 San Pedro, #104",,San Antonio,TX,78216,United States,(210) 541-0979,29.5188287,-98.4951982,,,,
North Star Mall,850,7400 San Pedro Ave,,SAN ANTONIO,TX,78216,United States,210-348-2958,29.5174091,-98.4982007,,,,
SAN ANTONIO,815,,,SAN ANTONIO,TX,00000,United States,,29.4241219,-98.4936282,,,,
SOUTH PARK MALL,573,2418 SW MILITARY DR,,SAN ANTONIO,TX,78224-1497,United States,210-923-5461,29.3549548,-98.5313085,,,,
Ulta The Rim,1064,17414 La Cantera Parkway,,San Antonio,TX,78257,United States,210-877-9908,29.6057221,-98.5987053,,,,
Sephora LA CANTERA,152,"15900 La Cantera Parkway, Suite 7720",,San Antonio,TX,78256,United States,(210) 694-4448,29.5923758,-98.6108605,,,,
INGRAM PARK MALL,540,6301 NW LOOP 410,,San Antonio,TX,78238-9893,United States,,29.4690915,-98.6211278,,,,
Ulta Longview Towne Crossing,1261,"3096 N. Eastman Road, Suite 105",,Longview,TX,75605,United States,903-663-8693,32.5502368,-94.7244697,,,,
Sephora LAFAYETTE,327,5725 Johnston Street Space B130,,Lafayette,LA,70503,United States,(337) 984-2202,30.1712085,-92.0758348,,,,
"Ulta Lafayette, LA",1382,"609 Settlers Trace Blvd., #100",,Lafayette,LA,70508,United States,337-981-6815,30.158068,-92.0529097,,,,
Alamo Ranch,889,5535 West Loop 1604 North,,SAN ANTONIO,TX,78253,United States,210-301-2001,29.4912621,-98.7063763,,,,
Ulta Alamo Ranch,1155,"5347 W Loop 1604 N, Suite 109",,San Antonio,TX,78253,United States,210-681-2077,29.4906553,-98.711142,,,,
Alexandria Mall,544,3541 Masonic Dr,,ALEXANDRIA,LA,71301,United States,318-448-3231,31.27689,-92.46227,,,,
Stirling Lafayette Shopping Ctr,868,3125 Louisiana Ave,,LAFAYETTE,LA,70501,United States,337-233-1801,30.2634549,-91.996006,,,,
Ulta Regal Court Shopping Center,1191,7467 Youree Drive,,Shreveport,LA,71105,United States,318-797-2013,32.4386445,-93.7116176,,,,
Regal Court Shopping Center,839,7451 Youree Dr,,SHREVEPORT,LA,71105,United States,318-797-5611,32.4395636,-93.7119002,,,,
Cedar Hill Village,790,333 N Hwy 67,,CEDAR HILL,TX,75104,United States,972-293-0273,32.5935792,-96.9466354,,,,
Ulta Stirling Bossier,1313,2745 Beene Blvd,,Bossier City,LA,71111,United States,318-746-2790,32.5592608,-93.7068376,,,,
Ulta Uptown Village at Cedar Hill,1154,"305 West FM 1382, Suite 530",,Cedar Hill,TX,75104,United States,972-291-3587,32.6033667,-96.9423899,,,,
Ulta Market East Phase 1,901,"1515 Town East Blvd., Suite 117",,Mesquite,TX,75150,United States,972-270-6622,32.8108749,-96.6214469,,,,
Towne East Mall,708,6000 Towne East Blvd,,MESQUITE,TX,75150,United States,972-279-4100,32.8102953,-96.6272067,,,,
BURELSON,796,,,BURELSON,TX,00000,United States,,32.5420821,-97.3208492,,,,
Ulta Gateway Station,1027,12864 South Freeway,,Burleson,TX,76028,United States,817-426-4428,32.5703365,-97.3206781,,,,
Rockwall Crossing,857,1015 East I-30,,ROCKWALL,TX,75087,United States,972-961-9239,32.8961443,-96.4717352,,,,
Ulta Arlington Highlands,1053,"4000 Retail Connection Way, Suite 113",,Arlington,TX,76018,United States,817-468-2244,32.6800072,-97.1117982,,,,
Ulta Plaza at Rockwall,1118,999 East I.H. 30,,Rockwall,TX,75087,United States,972-772-5014,32.9077531,-96.4517493,,,,
Sephora ARLINGTON,414,"3811 South Cooper St.,  Space #1102",,Arlington,TX,76015,United States,(817) 375-0070,32.6801298,-97.1290691,,,,
Parks Mall,751,3851 S. Cooper Street,,ARLINGTON,TX,76015,United States,817-557-9292,32.6835279,-97.1328739,,,,
Shoppes at Timber Creek,492,6051 Skillman Street,,Dallas,TX,75231,United States,972-892-2050,32.8628475,-96.7522515,,,,
Macys Northpark Center,95,8687 North Central Expressway,,Dallas,TX,75225,United States,469-232-3600,32.867231,-96.7727483,,,,
Ulta Park Lane,1244,"8160 Park Lane, Suite 330",,Dallas,TX,75231,United States,214-363-0638,32.869477,-96.7680004,,,,
Sephora NORTHPARK,137,"8687 N Cntral Expwy, Suite 2232",,Northpark,TX,75225,United States,(214) 378-8177,32.869223,-96.773599,,,,
"Ulta Arlington, TX",1401,120 Lincoln Square,,Arlington,TX,76011,United States,817-459-2550,32.7566046,-97.1004332,,,,
Ulta Firewheel Town Center,1338,180 Cedar Sage Dr.,,Garland,TX,75040,United States,972-495-0100,32.953881,-96.6133786,,,,
Ulta Preston Forest Village,911,"11661 Preston Road, Suite 232",,Dallas,TX,75230,United States,214-739-3091,32.9085804,-96.8058618,,,,
Macys GALLERIA (DALLAS),96,13375 Noel road,,Dallas,TX,75240,United States,214-295-1300,32.9302326,-96.8188553,,,,
Sephora DALLAS GALLERIA,135,"13350 N. Dallas Parkway, Suite 1250",,Dallas,TX,75240,United States,(972) 934-3056,32.9299455,-96.8198347,,,,
Ulta Trinity Commons,938,"3000 South Hulen, Suite 130",,Fort Worth,TX,76109,United States,817-292-9575,32.7061222,-97.3902384,,,,
Ulta Prestonwood Town Center,1035,"5301 Belt Line Road, #114",,Dallas,TX,75248,United States,972-788-4071,32.9562353,-96.8158526,,,,
Ulta MacArthur Park Shopping Center,1248,7757 N. MacArthur Blvd.,,Irving,TX,75063,United States,972-409-6831,32.9125045,-96.9587752,,,,
Sephora FORT WORTH,143,1001 Melbourne Road,,Fort Worth,TX,76053,United States,(817)284-1939,32.8270816,-97.1979845,,,,
Ulta The Shops at North East Mall,949,880 NE Mall Blvd.,,Hurst,TX,76053,United States,817-590-8057,32.8264181,-97.2005073,,,,
Ulta Collin Creek Village,942,"721 North Central Expressway, Suite 300",,Plano,TX,75075,United States,972-633-3853,33.0102342,-96.7095596,,,,
North East Mall,656,1105 Melbourne Dr,,HURST,TX,76053,United States,817-284-4761,32.8319212,-97.1993453,,,,
Ridgmar Mall,613,1900 Green Oaks Rd,,FORT WORTH,TX,76116,United States,817-731-6371,32.7388504,-97.433889,,,,
"Ulta Carrollton, TX",1370,"2660 N Josey Lane, #150",,Carrollton,TX,75007,United States,972-242-2876,32.988829,-96.8887535,,,,
"Ulta Plano, TX (Preston Towne Crossing)",1431,"2400 Preston Road, Suite 300",,Plano,TX,75093,United States,972-596-2839,33.0294639,-96.7927873,,,,
Sephora WILLOW BEND,384,"6121 W Park Blvd, Sp C110",,Plano,TX,75093,United States,(469) 366-0852,33.0304543,-96.8317351,,,,
Ulta Gateway Plaza,947,"2900 East Southlake Blvd., Suite 200",,Southlake,TX,76092,United States,817-749-0582,32.9396785,-97.1066299,,,,
Sephora WATTERS CREEK,213,919 Garden Park Drive,,Allen,TX,75013,United States,(972) 649-6601,33.0879989,-96.6845309,,,,
Sephora SOUTHLAKE TOWN SQUARE,413,312 Grand Avenue West,,Southlake,TX,76092,United States,(817) 421-4433,32.9444648,-97.1306285,,,,
Villages @ Fairview,882,301 Stacy Road,,FAIRVIEW,TX,75069-1640,United States,972-549-4094,33.1297467,-96.656633,,,,
"Ulta Fairview, TX",1486,132 Town Place,,Fairview,TX,75069,United States,972-886-4180,33.1318965,-96.6528814,,,,
Sephora STONEBRIAR CENTRE,146,"2601 Preston Rd, Space 1230",,Frisco,TX,75034,United States,(972) 712-8886,33.0982299,-96.805935,,,,
Stonebriar Centre,776,2607 Preston Rd,,Frisco,TX,75034,United States,972-712-27071,33.0984713,-96.8059022,,,,
Ulta Alliance Town Center,1153,9561 Sage Meadow Trail,,Fort Worth,TX,76177,United States,817-750-1400,32.9118812,-97.3157077,,,,
Alliance Town Center,825,3001 Texas Sage Trl,,FORT WORTH,TX,76177-8590,United States,817-745-4800,32.9135017,-97.3127562,,,,
Ulta Center At Preston Ridge,953,3333 Preston Road,,Frisco,TX,75034,United States,972-668-4171,33.1061831,-96.8058333,,,,
Robertsons Creek,834,5751 Long Prairie Rd,,FLOWER MOUND,TX,75028-5619,United States,972-874-6725,33.0610442,-97.0759369,,,,
Ulta Robertson's Creek,1123,"5801 Long Prairie Road, Suite 120",,Flower Mound,TX,75028,United States,972-539-3762,33.0654886,-97.0839957,,,,
Urban Decay Plaza Bonita,1764,3030 Plaza Bonita Road,,National City,CA,91950,United States,(619)267-1910,32.656898,-117.066284,,,,
Urban Decay Valley Plaza Mall,700,2701 Ming Ave,,Bakersfield,CA,93304,United States,(661) 396-3025 ext. 3025,35.338236,-119.034423,,,,
Urban Decay Fashion Island,1731,1085 Newport Center Dr.,,Newport Beach,CA,92660,United States,(949) 644-6550,33.6149907,-117.8783303,,,,
Urban Decay Del Amo,1763,21540 Hawthorne Blvd,Space 412A,Torrance,CA,90503,United States,(310) 214-1922,33.8328248,-118.3507255,,,,
Glendale Galleria,549,333 W COLORADO ST,,GLENDALE,CA,91210,United States,818-240-8700,34.1439327,-118.2592571,,,,
Sephora AMERICANA - GLENDALE,401,230 Americana Way,,Glendale,CA,91210,United States,(818) 502-9787,34.1444165,-118.2553823,,,,
Ulta West Hollywood Gateway,1004,7100 Santa Monica Blvd.,,West Hollywood,CA,90046,United States,323-878-2524,34.0904126,-118.3457921,,,,
Sephora HOLLYWOOD AND HIGHLAND,120,6801 Hollywood Blvd. Space B2-245,,Hollywood,CA,90028,United States,(323) 462-6898,34.1021467,-118.3403645,,,,
Macys Glendale Count,69,2100 Glendale Galleria,,Glendale,CA,91210,United States,818-240-8411,34.146431,-118.258598,,,,
Macys Beverly Center,72,8500 Beverly Blvd,,Los Angeles,CA,90048,United States,,34.0753309,-118.3774933,,,,
Sephora BEVERLY CENTER,131,"8500 Beverly Blvd., #756",,Los Angeles,CA,90048,United States,(310) 657-9670,34.0753309,-118.3774933,,,,
Sephora PASADENA,121,13 W. Colorado Boulevard,,Pasadena,CA,91105,United States,(626) 683-3100,34.1459431,-118.1509923,,,,
Montebello Mall,698,1600 Town Center Dr,,MONTEBELLO,CA,90640,United States,323-727-7833,34.036251,-118.0860747,,,,
Macys Montebello,61,1900 Montebello Town Center,,Montebello,CA,90640,United States,323-201-2111,34.0359121,-118.083758,,,,
EAGLE PASS,689,,,EAGLE PASS,TX,00000,United States,,28.7091433,-100.4995214,,,,
Ulta Independence Plaza,1276,2450 Monarch Drive,,Laredo,TX,78045,United States,956-724-1960,27.6089429,-99.4718993,,,,
Mall Del Norte S/C,545,5300 San Dario,,LAREDO,TX,78041,United States,956-718-9961,27.5478219,-99.503138,,,,
Ulta Sunset Mall,1348,"4001 Sunset Drive, Suite 1226",,San Angelo,TX,76904,United States,325-949-0948,31.4277851,-100.4979218,,,,
Ulta Mall of Abilene,1255,"4310 Buffalo Gap Road, #31",,Abilene,TX,79606,United States,325-691-1394,32.3989946,-99.7594704,,,,
The Shops @ Rio Grande Valley,866,419 Trenton Rd,,EDINBURG,TX,78541,United States,956-380-0820,26.264201,-98.1678419,,,,
Fox Hills Mall,626,6000 S Hannum Ave,,CULVER CITY,CA,90230,United States,310-390-8966,33.9880672,-118.3931116,,,,
Macys Culver City Center,73,6200 Slauson Ave,,Culver City,CA,90230,United States,,33.9884625,-118.3939573,,,,
"Ulta Culver City, CA",1407,6000 Sepulveda Blvd. Suite 3470,,Culver City,CA,90230,United States,310-390-1420,33.9852298,-118.3948123,,,,
Sephora CULVER CITY,422,"6000 Sepulveda Blvd., Suite #1341",,Culver City,CA,90230,United States,(310) 915-1542,33.9852298,-118.3948123,,,,
Macys Burbank Town Center,70,200 East Cypress Ave,,Burbank,CA,91502,United States,818-841-2100,34.184122,-118.313287,,,,
Sephora CENTURY CITY,142,"10250 Santa Monica Blvd., Suite 450",,Los Angeles,CA,90067,United States,(310) 843-0123,34.0599972,-118.4200306,,,,
Ulta Burbank Empire Center,1108,1351 N. Victory Place,,Burbank,CA,91502,United States,818-565-5646,34.1883398,-118.3268329,,,,
Stonewood S/C,603,100 Stonewood Ct,,DOWNEY,CA,90241,United States,562-869-4541,33.936957,-118.121235,,,,
Ulta Hastings Village Shopping Center,991,3393 E. Foothill Blvd.,,Pasadena,CA,91107,United States,626-351-3297,34.1500999,-118.0806658,,,,
"Ulta San Diego, CA",1205,3315 Rosecrans St. #A,,San Diego,CA,92110,United States,619-222-0697,32.7475728,-117.2065121,,,,
"Ulta San Diego, CA (Mission Valley)",1433,1001 Camino Del Rio North,,San Diego,CA,92108,United States,619-220-0597,32.7660833,-117.1540277,,,,
Macys Fashion Valley Count,84,7017 Friars Rd,,San Diego,CA,92108,United States,619-299-9811,32.7673248,-117.1674142,,,,
Fashion Valley Mall,658,6987 Friars Rd,,SAN DIEGO,CA,92108,United States,619-291-6050,32.767248,-117.1693432,,,,
Sephora FASHION VALLEY,122,"7007 Friars Road, Suite 314",,San Diego,CA,92108,United States,(619) 220-0771,32.7684887,-117.1659598,,,,
Plaza Bonita,541,3040 Plaza Bonita Rd,,NATIONAL CITY,CA,91950,United States,619-267-6000,32.655642,-117.0664664,,,,
CHULA VISTA SHOPPING CTR,599,591 BROADWAY,,CHULA VISTA,CA,91910-5307,United States,619-427-1050,32.6280996,-117.0883333,,,,
Ulta La Jolla Village Square,967,8657 Villa La Jolla Drive,,La Jolla,CA,92037,United States,858-202-0612,32.8657504,-117.2317263,,,,
Ulta Palms Crossing,1175,"3300 Expressway 83, Bldg 300",,McAllen,TX,78501,United States,956-631-1338,26.1969393,-98.2578804,,,,
Sephora LA PLAZA,149,"2200 S. 10th Street, Space C04",,McAllen,TX,78503,United States,(956) 687-1500,26.1852376,-98.2362856,,,,
LA PLAZA,509,2200 S 10TH ST,,MCALLEN,TX,78503-5478,United States,956-682-9431,26.1852376,-98.2362856,,,,
Valley Crossing Shopping Ctr,578,715 E Expressway 83,,WESLACO,TX,78596,United States,956-447-3500,26.175258,-97.9844741,,,,
VALLE VISTA SHOPPING CTR,693,2006 S EXPY 83,,HARLINGEN,TX,78552-5999,United States,956-425-4211,26.1870316,-97.7179525,,,,
Ulta Weatherford Ridge,1194,"225 Adams, Suite 215",,Weatherford,TX,76086,United States,817-594-4634,32.7334325,-97.7877046,,,,
Sunrise Mall,781,2370 N Expwy Ste 2000,,BROWNSVILLE,TX,78526,United States,956-504-0134,25.9842716,-97.4870306,,,,
Sephora SANTA ANITA,177,400 S. Baldwin Ave Suite 448-L,,Arcaida,CA,91007,United States,(626) 445-0400,34.1333981,-118.0530153,,,,
WESTFLD SANTA ANITA,612,400 S BALDWIN AVE,,ARCADIA,CA,91007-1900,United States,626-445-6454,34.1349204,-118.0509968,,,,
WHITTER,532,,,WHITTER,CA,00000,United States,,33.9791793,-118.032844,,,,
Macys Sherman Oaks,68,14000 Riverside Dr,,Sherman Oaks,CA,91423,United States,,34.1571138,-118.4354635,,,,
Sephora FASHION SQUARE,116,14006 Riverside Drive,,Sherman Oaks,CA,91423,United States,(818) 817-0900,34.156802,-118.4372817,,,,
Ulta South Bay South,1302,1513 Hawthorne Blvd,,Redondo Beach,CA,90278,United States,310-303-3790,33.8683522,-118.3540089,,,,
Sephora SANTA MONICA,118,1244 Third Street,,Santa Monica,CA,90401,United States,(310) 395-3460,34.0176888,-118.4985891,,,,
Lakewood Center Mall,514,67 Lakewood Center Mall,,LAKEWOOD,CA,90712,United States,562-634-7000,33.848328,-118.140513,,,,
Sephora LOS CERRITOS,158,161 Los Cerritos Center,,Cerritos,CA,90703,United States,(562) 860-4499,33.8632248,-118.0956077,,,,
Sephora UNIVERSITY TOWNE CENTER,123,"4545 La Jolla Village Dr., Suite C16",,San Diego,CA,92122,United States,(858) 457-1983,32.8717334,-117.2104538,,,,
"Ulta El Cajon, CA",1428,415 Parkway Plaza,,El Cajon,CA,92020,United States,619-588-1218,32.8048081,-116.9676624,,,,
Westfield Shopping Towncenter,713,355 Fletcher Pkwy,,EL CAJON,CA,92020,United States,619-444-3100,32.804467,-116.965854,,,,
Sephora OTAY RANCH,216,"2015 Birch Road, Suite 605",,Chula Vista,CA,91915,United States,(619) 482-4400,32.6245184,-116.9649271,,,,
"Ulta San Ysidro, CA",1458,"3951 Camino de la Plaza, Suite 105",,San Ysidro,CA,92173,United States,619-662-1535,32.5433955,-117.046499,,,,
N County Fair Mall,697,290 E Via Rancho Pkwy,,ESCONDIDO,CA,92025,United States,760-480-4500,33.0681854,-117.065185,,,,
Ulta The Forum at Carlsbad,981,"1905 Calle Barcelona, Suite 110",,Carlsbad,CA,92009,United States,760-635-1625,33.0706893,-117.2660673,,,,
Macys Carlsbad,85,2559 El Camino Road,,Carlsbad,CA,92008,United States,760-729-9121,33.1289252,-117.1980947,,,,
Ulta Grand Plaza,1092,185 S. Las Posas Drive,,San Marcos,CA,92078,United States,760-744-0853,33.1383268,-117.193004,,,,
Plaza Camino Real,534,2555 El Camino Real,,CARLSBAD,CA,92008,United States,760-729-7991,33.1793918,-117.3268596,,,,
Ulta Cerritos Towne Center,1003,12771 Towne Center Drive,,Cerritos,CA,90703,United States,562-403-0229,33.8704069,-118.062572,,,,
Macys Del Amo Fashion Center,71,21600 Hawthorne Blvd,,Torrance,CA,90503,United States,,33.831725,-118.3521839,,,,
Del Amo Center,640,21840 S Hawthorne Blvd,,TORRANCE,CA,90503,United States,310-371-6577,33.8303958,-118.3517361,,,,
Sephora MANHATTAN BEACH,134,3200 Sepulveda Blvd.,,Manhattan Beach,CA,90266,United States,(310) 546-8889,33.8251379,-118.3474754,,,,
Macys West Covina,62,1111 Plaza Drive,,West Covina,CA,91790,United States,626-962-5400,34.0704444,-117.9293297,,,,
West Covina Fashion Plaza,621,1203 Plaza Dr,,WEST COVINA,CA,91790,United States,626-960-3711,34.0704869,-117.9286391,,,,
"Ulta Seal Beach, CA",1449,12339 Seal Beach Blvd.,,Seal Beach,CA,90740,United States,562-936-0077,33.7832521,-118.07372,,,,
"Ulta Long Beach, CA",1442,6310 East Pacific Coast Highway,,Long Beach,CA,90803,United States,562-795-6780,33.7606091,-118.1154414,,,,
Northridge Fashion Center,748,9301 Tampa Ave,,NORTHRIDGE,CA,91324,United States,818-885-1464,34.2393118,-118.556196,,,,
Urbandecay,797,31510 Gratiot Ave,,Roseville,MI,00000,United States,586-296-2907,42.5279274,-82.9164728,,,,
Urbandecay,875,43690 Ford Rd,,CANTON,MI,48188,United States,734-456-5109,42.3222086,-83.4760289,,,,
Urbandecay,732,1201 S DIRKSEN PKWY,,SPRINGFIELD,IL,62703-2122,United States,217-789-0550,39.7887528,-89.6058754,,,,
Ulta Chicago-State Street,1165,114 S. State Street,,Chicago,IL,60603,United States,312-279-5081,41.8803454,-87.627743,,,,
Sephora STATE STREET,397,108 North State Street Unit #134,,Chicago,IL,60602,United States,(312) 263-8688,41.8838856,-87.6283459,,,,
"Ulta Chicago, IL (Gateway)",1482,16 S. Halsted St.,,Chicago,IL,60661,United States,312-243-0411,41.8811129,-87.647683,,,,
Ulta El Camino North,984,"2645 Vista Way Retail, Space D",,Oceanside,CA,92054,United States,760-439-2704,33.1827111,-117.3297785,,,,
TEMECULA,774,,,TEMECULA,CA,00000,United States,,33.4936391,-117.1483648,,,,
Macys Temecula Promenade,82,40780 Winchester Blvd,,Temecula,CA,92591,United States,951-541-3333,33.5259358,-117.1583411,,,,
Sephora TEMECULA,331,40772 Winchester Road #770,,Temecula,CA,92591,United States,(915) 296-1788,33.5259661,-117.1583003,,,,
Sephora MISSION VIEJO,130,498 The Shops at Mission Viejo,,Mission Viejo,CA,92691,United States,(949) 364-3449,33.5588774,-117.6679198,,,,
Ulta Rancho Santa Margarita Town Center,1347,30682 Santa Margarita Parkway,,Rancho Santa Margarita,CA,92688,United States,949-635-9301,33.6437537,-117.5945696,,,,
LAGUNA HILLS MALL,593,24200 LAGUNA HILLS MALL,,LAGUNA HILLS,CA,92653-3695,United States,949-581-7700,33.6116488,-117.707958,,,,
"Ulta Lake Forest, CA",1312,"23608 El Toro Road, Suite M-2A",,Lake Forest,CA,92630,United States,949-470-9531,33.6188174,-117.7004468,,,,
Macys Newport Fashion Island,78,101 Newport Center Drive,,Newport Bch,CA,92660,United States,949-640-8333,33.6144147,-117.875665,,,,
"Ulta Newport Beach, CA",1462,427 Newport Center Drive,,Newport Beach,CA,92660,United States,949-640-0726,33.6158984,-117.8756421,,,,
WILLOW GROVE,501,,,WILLOW GROVE,CA,00000,United States,,33.6811898,-117.7870963,,,,
Sephora NORTHRIDGE FASHION,418,"9301 Tampa Ave., Space #118",,Northridge,CA,91324,United States,818-866-6500,34.2393118,-118.556196,,,,
Macys Northridge Fashion Ctr,63,9301 Tampa Ave.,,Northridge,CA,91324,United States,818-885-6611,34.2393118,-118.556196,,,,
Sephora BREA,151,"1065 Brea Mall, Space 1023",,Brea,CA,92821,United States,(714) 674-0333,33.9154766,-117.8864137,,,,
Macys Brea Count,75,200 Brea Mall,,Brea,CA,92821,United States,714-990-1400,33.9147788,-117.8852389,,,,
Sephora TOPANGA,195,6600 Topanga Canyon Blvd.,,Canoga Park,CA,91303,United States,(818) 704-4600,34.1901874,-118.6032891,,,,
Ulta Glendora Marketplace,1297,1229 S. Lone Hill Avenue,,Glendora,CA,91740,United States,909-592-5393,34.118375,-117.8290202,,,,
Macys Westminster,76,300 Westminster Mall,,Westminster,CA,92683,United States,816-525-2642,33.7472466,-118.0123634,,,,
Sephora ANAHEIM,119,1570 S. Disneyland Drive,,Anaheim,CA,92802,United States,(714) 758-1700,33.8084811,-117.9221577,,,,
Sephora NORTHBRIDGE,222,"520 N. Michigan Ave., Suite 129",,Chicago,IL,60611,United States,(312) 494-9598,41.8914107,-87.6249548,,,,
Macys Water Tower Place,29,835 North Michigan Ave,,Chicago,IL,60611,United States,312-335-7700,41.8979675,-87.6235594,,,,
Sephora WATERTOWER PLACE,283,845 N. Michigan Ave,,Chicago,IL,60611,United States,(312) 335-9391,41.8980056,-87.6232355,,,,
Sephora Lincoln Park,443,938 West North Avenue,,Chicago,IL,60642,United States,,41.911112,-87.6526729,,,,
Ulta North & Sheffield Commons,902,"1000 W. North Avenue, Suite D103",,Chicago,IL,60622,United States,312-664-0230,41.911067,-87.6539512,,,,
Ulta Clark & Wellington Shopping Center,913,3015 N. Clark St.,,Chicago,IL,60657,United States,773-348-7315,41.9371514,-87.6474626,,,,
Ulta Clybourn Square,971,"2754 N. Clybourn Ave, Space A2",,Chicago,IL,60614,United States,773-472-6720,41.9312012,-87.6771372,,,,
NORTH RIVERSIDE MALL,606,7507 W CERMAK RD,,North Riverside,IL,60546-1474,United States,,41.8502366,-87.8082079,,,,
Ulta Westcliff Plaza,987,1080 Irvine Avenue,,Newport Beach,CA,92660,United States,949-548-4806,33.6286057,-117.9070053,,,,
Ulta The District at Tustin Legacy,1056,2863 Park Avenue,,Tustin,CA,92780,United States,714-566-1706,33.6957224,-117.8265526,,,,
Sephora SOUTH COAST PLAZA,115,"3333 Bristol Street, Suite 2800",,Costa Mesa,CA,92626,United States,(714) 429-9130,33.6908608,-117.887914,,,,
Macys South Coast Plaza,74,3333 Bristol St,,Costa Mesa,CA,92626,United States,714-556-0611,33.6908608,-117.887914,,,,
Ulta The Crossing at Corona,1060,"2541 Tuscany Street, #103",,Corona,CA,92881,United States,951-582-0833,33.8260083,-117.5177117,,,,
Santa Ana MainPlace,832,2890 N. Main St,,SANTA ANA,CA,92705,United States,714-953-9640,33.7746592,-117.8674236,,,,
Macys Santa Ana Mainplace,77,2850 North Main St,,Santa Ana,CA,92701,United States,,33.7760532,-117.8690666,,,,
Macys Riverside,83,3500 Tyler Mall,,Riverside,CA,92503,United States,951-687-2200,33.908266,-117.456188,,,,
Sephora RIVERSIDE,191,2077 Galleria at Tyler,,Riverside,CA,92503,United States,(951) 785-0717,33.909612,-117.45699,,,,
MORENO VALLEY MALL,727,22450 TOWN CIR,,Moreno Valley,CA,92553-7506,United States,,33.9378081,-117.272319,,,,
Ulta Huntington Beach,1014,7777 Edinger Avenue,,Huntington Beach,CA,92647,United States,714-891-9708,33.7328566,-117.9940881,,,,
Sephora MALIBU,423,3896 Cross Creek Rd.,,Malibu,CA,90265,United States,3103176767,34.0351516,-118.6841284,,,,
Ulta Chino Spectrum Towne Center,994,4041 Grand Avenue,,Chino,CA,91710,United States,909-627-2466,33.99705,-117.7156036,,,,
VALENCIA TOWN CENTER,525,24140 MAGIC MOUNTAIN PKY,,Santa Clarita,CA,91355-3913,United States,,34.4151509,-118.5572996,,,,
Macys Santa Clarita Count,64,26450 Santa Mcbean Pkwy,,Santa Clarita,CA,91355,United States,661-287-5911,34.415557,-118.558918,,,,
Sephora VALENCIA,389,"24201 West Valencia Blvd.,  Suite #3628",,Valencia,CA,91355,United States,(661) 253-0003,34.4174993,-118.5601015,,,,
Rancho Del Chino Shopping Center,848,14659 Ramona Ave,,CHINO,CA,91710,United States,909-393-5099,33.9875505,-117.7063826,,,,
"Ulta Valencia, CA",1320,24235 Magic Mountain Pkwy,,Valencia,CA,91355,United States,661-288-2219,34.4196692,-118.5588193,,,,
Sephora MONTCLAIR,193,2061 Montclair Plaza Lane,,Montclair,CA,91763,United States,(909) 447-4174,34.0867427,-117.6936206,,,,
MONTCLAIR PLAZA,631,5100 MONTCLAIR PLAZA LANE,,Montclair,CA,91763-1598,United States,,34.0897676,-117.6927055,,,,
Ulta Colonies Crossroads,1022,1927 North Campus Avenue,,Upland,CA,91784,United States,909-931-0608,34.1331016,-117.6369051,,,,
Ulta The Gap Shopping Center,909,4115 N. Harlem Avenue,,Norridge,IL,60706,United States,708-457-1708,41.9553594,-87.8071937,,,,
Ulta Village Crossing Shopping Center,986,5481 Touhy Avenue,,Skokie,IL,60077,United States,847-329-1445,42.0107533,-87.7660068,,,,
NILES,571,,,NILES,IL,00000,United States,,42.0189191,-87.8028402,,,,
Ulta The Quarry Shopping Center,898,"9270 Joliet Road, Bldg C",,Hodgkins,IL,60525,United States,708-485-9120,41.7799974,-87.8605493,,,,
Ulta Old Orchard Place Mall,952,9635 Skokie Blvd.,,Skokie,IL,60077,United States,847-675-7320,42.0565952,-87.7451301,,,,
Macys Old Orchard,28,1 Old Orchard Shop Ctr.,,Skokie,IL,60077,United States,847-329-2700,42.0587645,-87.7498796,,,,
Sephora OLD ORCHARD,224,4999 Old Orchard Center Suite E9,,Skokie,IL,60077,United States,(847) 568-0323,42.0590521,-87.7494086,,,,
Sephora OAKBROOK,227,70 Oakbrook Center,,Oakbrook,IL,60523,United States,(630) 368-3322,41.8497458,-87.9536297,,,,
RIVERSIDE,664,,,RIVERSIDE,CA,00000,United States,,33.9533487,-117.3961564,,,,
Redlands Town Center,803,10000 Alabama St,,REDLANDS,CA,92374,United States,909-335-8111,34.0714708,-117.2088747,,,,
Ulta Victoria Gardens,1006,7905 Kew Avenue,,Rancho Cucamonga,CA,91739,United States,909-646-7012,34.1098602,-117.5308891,,,,
Macys Rancho Cucamonga,80,7855 Kew Avenue,,Rancho Cucamonga,CA,91739,United States,909-646-3333,34.1108263,-117.5301602,,,,
Victoria Gardens Mall,787,12399 S Mainstreet,,RANCHO CUCAMONGA,CA,91739,United States,909-646-8911,34.1108807,-117.5334978,,,,
Sephora RANCHO CUCAMONGA,144,"12506 N. Main Street, Suite 3510",,Rancho Cucamonga,CA,91739,United States,(909) 646-7299,34.1121857,-117.5325942,,,,
VICTORVILLE,504,,,VICTORVILLE,CA,00000,United States,,34.5362184,-117.2927641,,,,
"Ulta Palmdale Marketplace, LLC",1229,39246 10th Street West,,Palmdale,CA,93551,United States,661-274-4307,34.5966947,-118.1451006,,,,
Macys Center City,25,1300 Market Street,,Philadelphia,PA,19107,United States,,39.951378,-75.1621144,,,,
Sephora CHESTNUT ST.,243,1714 Chestnut Street,,Philadelphia,PA,19103,United States,(215) 563-6112,39.951542,-75.1693264,,,,
"Ulta Philadelphia, PA",1470,1619 Walnut St.,,Philadelphia,PA,19103,United States,215-640-9602,39.9498699,-75.1683971,,,,
Macys Cherry Hill,18,RT 38 & Haddonfield Rd.,,Cherry Hill,NJ,08002,United States,856-665-5000,39.9375235,-75.0304856,,,,
Sephora THE OAKS,117,338 W. Hillcrest Drive,,Thousand Oaks,CA,91360,United States,(805) 370-9833,34.1846932,-118.8857133,,,,
THOUSAND OAKS MALL,595,280 HILLCREST DR W,,THOUSAND OAKS,CA,91360-4294,United States,805-497-6811,34.1853921,-118.8882464,,,,
Antelope Valley Mall,711,1131 W Rancho Vista Blvd,,PALMDALE,CA,93551,United States,661-947-3169,34.6039346,-118.1515786,,,,
Ulta The Esplanade Shopping Center,992,431 West Esplanade,,Oxnard,CA,93036,United States,805-988-9220,34.2372403,-119.1792652,,,,
Macys Ventura - Pacific View,65,477 South Mills Road,,Ventura,CA,93003,United States,805-642-7511,34.2672879,-119.2478009,,,,
PACIFIC VIEW MALL,747,377 S MILLS RD,,Ventura,CA,93003-3437,United States,,34.2687345,-119.247798,,,,
Macys Oakbrook Center,27,1 Oak Brook Ctr.,,Oak Brook,IL,60523,United States,630-684-2400,41.8486052,-87.9542446,,,,
Macys Oakbrook Center,26,1 Oak Brook Center,,Oak Brook,IL,60523,United States,,41.8486052,-87.9542446,,,,
Ulta The Shops at Oak Brook Place,922,2155 W. 22nd Street,,Oak Brook,IL,60523,United States,630-573-9324,41.8462245,-87.9695101,,,,
Ulta Glen Tower Center,993,1940 Tower Drive,,Glenview,IL,60026,United States,847-486-9925,42.089428,-87.8252053,,,,
Yorktown Shopping Ctr,589,175 Yorktown Shopping Ctr,,LOMBARD,IL,60148,United States,630-629-7750,41.8421329,-88.0037313,,,,
ORLAND PARK MALL,512,3 ORLAND SQ DR,,ORLAND PARK,IL,60462-6596,United States,708-349-7300,41.620888,-87.8469937,,,,
Macys Orland Square,32,1 Orland Square,,Orland Park,IL,60462,United States,,41.620815,-87.84973,,,,
Sephora NORTHBROOK,226,1314 Northbrook Court,,Northbrook,IL,60062,United States,(847) 714-0505,42.1524058,-87.8170552,,,,
Ulta Deerbrook Mall,921,130B South Waukegan Road,,Deerfield,IL,60015,United States,847-509-8066,42.1493701,-87.8350108,,,,
Ulta Lakeview Plaza,896,15754 S. LaGrange Road,,Orland Park,IL,60462,United States,708-349-8898,41.6044604,-87.8541505,,,,
Sephora VENTURA,396,3301-1242 E. Main Street,,Ventura,CA,93003,United States,(805) 658-1100,34.2687175,-119.2487706,,,,
Sephora SANTA BARBARA,148,701 Paseo Nuevo,,Santa Barbara,CA,93101,United States,(805) 962-5410,34.419035,-119.699953,,,,
"Ulta Goleta, CA",1394,7000 Marketplace Drive,,Goleta,CA,93117,United States,805-685-2060,34.4293996,-119.8716182,,,,
Sephora BAKERSFIELD,155,"2701 Ming Ave., Space 187",,Bakersfield,CA,93304,United States,(661) 832-6300,35.3373098,-119.0338361,,,,
Ulta The Marketplace,1314,9000 Ming Avenue Suite L2/3,,Bakersfield,CA,93311,United States,661-664-1402,35.341761,-119.1046944,,,,
Macys Santa Maria Count,67,302 Town Center East,,Santa Maria,CA,93454,United States,805-349-8940,34.951567,-120.435064,,,,
Macys Santa Maria,66,302 Town Center East,,Santa Maria,CA,93454,United States,,34.951567,-120.435064,,,,
Ulta Towne Place at Garden State Park,1132,"907 Haddonfield Road, Suite A",,Cherry Hill,NJ,08002,United States,856-662-2947,39.9258463,-75.0328203,,,,
Cherry Hill Mall,513,2000 Rt 38 Ste 1000,,CHERRY HILL,NJ,08002,United States,856-488-0330,39.9423869,-75.0251931,,,,
Ulta Deptford Crossing,944,1800 Clements Bridge Road,,Deptford,NJ,08096,United States,856-853-4200,39.8354479,-75.0955059,,,,
DEPTFORD,772,,,DEPTFORD,NJ,00000,United States,,39.8227054,-75.1195107,,,,
"Ulta Springfield, PA",1400,1250 Baltimore Pike,,Springfield,PA,19064,United States,610-328-1657,39.9150986,-75.3519958,,,,
Ulta East Gate Square,958,1470 Nixon Drive,,Mt. Laurel,NJ,08054,United States,856-642-7390,39.9430721,-74.9571209,,,,
Ulta Metroplex Shopping Center,956,2540 Chemical Road,,Plymouth Meeting,PA,19462,United States,610-834-8323,40.1037968,-75.2924542,,,,
Sephora SAN LUIS OBISPO,305,"1090 Court Street,  Suite 205",,SanLuis Obispo,CA,93401,United States,(805) 783-2200,35.2812608,-120.6613089,,,,
Macys Visalia Count,56,2211 S Mooney Blvd,,Visalia,CA,93277,United States,559-622-1111,36.3105713,-119.3144909,,,,
Visalia Mall,643,2115 S Mooney Blvd,,VISALIA,CA,93277,United States,559-732-4171,36.311158,-119.316794,,,,
Ulta The Marketplace at Hanford,1473,168 N. 12th Ave.,,Hanford,CA,93230,United States,559-587-9433,36.3244566,-119.6760834,,,,
Fresno Fashion Fair,652,555 E Shaw Ave,,FRESNO,CA,93710,United States,559-224-8330,36.806536,-119.7777584,,,,
Macys Fresno Count,44,4888 North Fresno St,,Fresno,CA,93726,United States,559-228-3333,36.8063256,-119.7796677,,,,
Sephora FRESNO,147,"639 East Shaw Ave., Suite 123",,Fresno,CA,93710,United States,(559) 222-3434,36.8080578,-119.7763712,,,,
Ulta Clovis Crossing,1472,1315 Herndon Avenue,,Clovis,CA,93611,United States,559-325-6009,36.8388502,-119.6924184,,,,
Ulta Villaggio Retail Center,1134,7911 N. Blackstone Avenue,,Fresno,CA,93720,United States,559-490-0907,36.8504561,-119.7943915,,,,
Sephora ORLAND,210,"730 Square Drive, Space G08B",,Orland Park,IL,60462,United States,(708) 349-0100,41.5973794,-87.8488178,,,,
Centerpointe,837,7400 WOODWARD AVE,,WOODRIDGE,IL,60517,United States,630-353-2800,41.7535244,-88.0335184,,,,
Ulta Woodfield Village Green,900,1480 Golf Road,,Schaumburg,IL,60173,United States,847-240-2723,42.0513536,-88.0009995,,,,
Ulta The Promenade at Bolingbrook,1117,"641 E. Boughton Road, Suite 100",,Bolingbrook,IL,60440,United States,630-783-0018,41.7198177,-88.0416919,,,,
Macys Woodfield,31,1 Woodfield Mall,,Schamumberg,IL,60173,United States,847-706-6200,42.0472425,-88.0360098,,,,
Sephora WOODFIELD MALL,225,#5 Woodfield Shopping Center Store J 308,,Schaumburg,IL,60173,United States,(847) 330-0203,42.0464163,-88.0371252,,,,
Ulta North Point Shopping Center,895,456 E. Rand Road,,Arlington Heights,IL,60004,United States,847-577-0375,42.1112484,-87.9762303,,,,
Woodfield Mall,657,3 Woodfield Mall,,SCHAUMBURG,IL,60173,United States,847-240-5000,42.0481959,-88.0384303,,,,
Ulta Brookside Marketplace,1058,7350 W. 191st Street,,Tinley Park,IL,60477,United States,815-806-2659,41.5473221,-87.7982042,,,,
Ulta Danada Square West,897,112 Danada Square West,,Wheaton,IL,60187,United States,630-221-0215,41.8304004,-88.1083441,,,,
Ulta Cameron Crossing,1078,"1751 N. Central Expressway, Bldg G, #100",,McKinney,TX,75070,United States,972-542-9192,33.215811,-96.6399394,,,,
Ulta Denton Crossing West,1291,"1800 S. Loop 288, Suite 300",,Denton,TX,76205,United States,940-566-5170,33.1937772,-97.098949,,,,
Ulta Quail Creek Crossing,1212,"3201 Lawrence Road, Suite 200",,Wichita Falls,TX,76308,United States,940-692-1163,33.8754424,-98.5379007,,,,
TEXARKANA,636,,,TEXARKANA,TX,00000,United States,,33.425125,-94.0476882,,,,
Ulta University Town Center,1289,1620 24th Avenue NW,,Norman,OK,73069,United States,405-307-9358,35.2386275,-97.4841919,,,,
The Shops @ Moore,852,2400 South I-35 Service Rd,,MOORE,OK,73160,United States,405-237-1542,35.3158297,-97.4873975,,,,
Ulta Town Center Plaza,1204,7209 SE 29th Street,,Midwest City,OK,73110,United States,405-739-0410,35.4352969,-97.404208,,,,
Sephora WILLOW GROVE,244,"2500 Moreland Rd., Suite 1103",,Willow Grove,PA,19090,United States,(215) 659-0969,40.1431085,-75.1200995,,,,
Ulta Willow Ridge Plaza,960,720 Route 73S,,Marlton,NJ,08053,United States,856-596-9484,39.8698277,-74.92108,,,,
Ulta Horsham Gate,1113,"100 Welsh Road, Suit 102",,Horsham,PA,19044,United States,215-659-1816,40.1589096,-75.1436961,,,,
Sephora KING OF PRUSSIA,279,"160 North Gulph Road, Space #2108",,King of Prussia,PA,19406,United States,(610)  265-8888,40.0879189,-75.3897744,,,,
KING OF PRUSSIA PLAZA,568,160 N GULPH RD STE 5000,,KING OF PRUSSIA,PA,19406-2990,United States,610-992-1096,40.0879189,-75.3897744,,,,
Ulta Montgomery Square,943,1221 Knapp Road,,North Wales,PA,19454,United States,215-616-4601,40.2281367,-75.2404564,,,,
Montgomery Mall,489,300 Montgomery Mall,,NORTH WALES,PA,19454,United States,215-362-2100,40.2334662,-75.2442924,,,,
Sephora Oxford,440,2300 East Lincoln Highway #127,,Langhome,PA,19047,United States,(215) 757-1899,40.1790766,-74.8796319,,,,
Oxford Valley Mall,625,2300 E Lincoln Hwy,,LANGHORNE,PA,19047,United States,215-752-2350,40.1827095,-74.8818898,,,,
Ulta Arroyo Market Square,1075,"7265 Arroyo Crossing Parkway, Suite 110",,Las Vegas,NV,89113,United States,702-263-0315,36.0633458,-115.2504674,,,,
Sephora TOWN SQUARE,160,"6671 Las Vegas Blvd.,  Space A-131",,Las Vegas,NV,89119,United States,(702) 361-3727,36.0694855,-115.1722747,,,,
Sephora CAESAR'S PALACE,419,"3500 Las Vegas Blvd S, Suite N13",,Las Vegas,NV,89109,United States,(702) 228-3535,36.1190372,-115.176005,,,,
Sephora VENETIAN,125,"3377 Las Vegas Blvd., Suite 1001",,Las Vegas,NV,89109,United States,(702) 735-3896,36.1218691,-115.1696529,,,,
Macys Las Vegas Fashion Show,79,3200 S. Las Vegas Blvd,,Las Vegas,NV,89109,United States,702-731-5111,36.1274412,-115.1705433,,,,
Ulta Best in the West,1149,2186 N. Rainbow Blvd,,Las Vegas,NV,89108,United States,702-631-3668,36.1991104,-115.241118,,,,
The Meadows S/C,639,4400 Meadows Lane,,LAS VEGAS,NV,89107,United States,702-870-9182,36.1723286,-115.198712,,,,
"Ulta Bloomingdale, IL (RELO #17)",1298,"362 W Army Trail Rd., Suite 100",,Bloomingdale,IL,60108,United States,630-307-7130,41.9391985,-88.112453,,,,
Ulta Highland Grove,1231,10333 Indianapolis Blvd,,Highland,IN,46322,United States,219-924-1318,41.5263896,-87.4680594,,,,
Lincoln Market Place,860,4450 Promenade Way,,MATTESON,IL,60443,United States,708-441-6141,41.4998978,-87.731318,,,,
Ulta Washington Street,1096,"103 S. Washington Street, Suite 109",,Naperville,IL,60540,United States,630-718-0609,41.7737266,-88.148125,,,,
Ulta Scharrington Square,1275,2431 W. Schaumburg Road,,Schaumburg,IL,60194,United States,847-923-1739,42.0230637,-88.1416647,,,,
Ulta The Shops at Kildeer,964,"20505 N. Rand Road, Suite 220",,Kildeer,IL,60047,United States,847-550-9309,42.1625245,-88.0501051,,,,
Sephora DEER PARK,211,"20530 North Rand Road, Suite #244",,Deer Park,IL,60010,United States,(847) 438-8885,42.1617746,-88.0536523,,,,
Mokena Marketplace,876,11325 W. Lincoln Hwy,,MOKENA,IL,60448,United States,815-277-4061,41.5017309,-87.8918179,,,,
Ulta Rivertree Court,989,"701 N. Milwaukee Ave, Suite 200",,Vernon Hills,IL,60061,United States,847-918-0795,42.2400002,-87.9433895,,,,
Sephora Hawthorn,439,411 Hawthorne Center,,Vernon Hills,IL,60061,United States,,42.2416271,-87.9460908,,,,
Town Center Plaza,853,7271 SE 29th St,,MIDWEST CITY,OK,73110,United States,405-739-0130,35.4375401,-97.3974381,,,,
Ulta Westgate Marketplace,1128,6417 SW 3rd Street,,Oklahoma City,OK,73127,United States,405-491-6223,35.461718,-97.6321254,,,,
Penn Square Mall,750,1901 NW Expressway Ste 1200,,OkLAHOMA CITY,OK,73118,United States,405-840-4522,35.5246909,-97.5440106,,,,
Sephora PENN SQUARE,308,"1901 N.W. Expressway,  Space #2032A",,Oklahoma City,OK,73118,United States,(405) 848-0000,35.5246909,-97.5440106,,,,
Ulta Quail Springs Marketplace,977,2340 W. Memorial Road,,Oklahoma City,OK,73134,United States,405-302-4900,35.606929,-97.553605,,,,
Quail Springs Mall,580,2501 W Memorial Rd,,OKLAHOMA CITY,OK,73134,United States,405-755-5500,35.6124114,-97.5604692,,,,
Ulta Fort Smith Pavilion,1084,3985 Phoenix Avenue,,Fort Smith,AR,72903,United States,479-646-7236,35.3412828,-94.3884866,,,,
Central Mall,665,5111 Rogers Ave,,FORT SMITH,AR,72903,United States,479-452-2420,35.366924,-94.375116,,,,
Ulta Tulsa Hills Shopping Center,1237,7505 S. Olympia Avenue W,,Tulsa,OK,74132,United States,918-447-0917,36.0545003,-96.0018051,,,,
Ulta Concord Mall,941,"4803 Concord Pike, Unit 910",,Wilmington,DE,19803,United States,302-479-9917,39.8260766,-75.5430801,,,,
Ulta Providence Town Center,1209,"40 Town Center Drive, Suite2",,Collegeville,PA,19426,United States,610-489-8232,40.1646352,-75.4786243,,,,
Ulta The Court of Oxford Valley,940,146 Commerce Blvd.,,Fairless Hills,PA,19030,United States,215-269-9848,40.1851779,-74.8651607,,,,
Ulta Whiteland Towne Center,1042,"187 West Lincoln Highway, Suite 200",,Exton,PA,19341,United States,610-280-0888,40.0301576,-75.6343598,,,,
Sephora CHRISTIANA,388,118 Christiana Mall,,Newark,DE,19702,United States,(303) 738-9000,39.6795178,-75.6526179,,,,
Macys Christiana,19,501 Christiana Mall,,Newark,DE,19702,United States,302-366-5800,39.678007,-75.653546,,,,
Sephora Quaker Bridge,437,174 Quaker Bridge Mall,,Lawrenceville,NJ,08648,United States,(609) 799-5019,40.2908612,-74.6816314,,,,
Ulta Nassau Park Pavilion,962,"540 Nassau Park Blvd., Unit 8",,Princeton,NJ,08540,United States,609-452-1266,40.3055307,-74.6799567,,,,
VERNON HILLS,746,,,VERNON HILLS,IL,00000,United States,,42.2393323,-87.9653565,,,,
Ulta West Ridge Court,945,"2707 Aurora Avenue, Suite #123",,Naperville,IL,60540,United States,630-527-0065,41.7645517,-88.2003978,,,,
FOX VALLEY S/C,576,4 FOX VALLEY CTR,,Aurora,IL,60504-4194,United States,,41.7596015,-88.2132888,,,,
Ulta The Crossings at Hobart,910,2395 E. 81st Avenue,,Merrillville,IN,46410,United States,219-736-5287,41.4718359,-87.3073162,,,,
Southlake Mall,615,1890 Southlake Mall,,MERRILLVILLE,IN,46410,United States,219-738-2155,41.467988,-87.3124518,,,,
JOLIET,618,,,JOLIET,IL,00000,United States,,41.525031,-88.0817251,,,,
Ogden Hill of Montgomery,841,1100 Ogden Ave,,MONTGOMERY,IL,60538,United States,630-851-5019,41.7184739,-88.2876896,,,,
Ulta Randall Square,927,1560 S. Randall Road,,Geneva,IL,60134,United States,630-232-1320,41.8722527,-88.3428314,,,,
Sephora GEVEVA COMMONS,409,406 Commons Drive,,Geneva,IL,60134,United States,(630) 262-3330,41.8946546,-88.3431458,,,,
"Ulta Stillwater, OK",1409,519 N Main St.,,Stillwater,OK,74075,United States,405-372-7142,36.1285845,-97.0569052,,,,
Sephora WOODLAND HILLS,183,"7021 S. Memorial Drive, Suite 125",,Tulsa,OK,74133,United States,(918) 307-8434,36.061174,-95.8862806,,,,
Ulta Eastside Market,979,11123 East 71st Street,,Tulsa,OK,74133,United States,918-249-8025,36.06287,-95.8517854,,,,
Ulta Southroads Shopping Center,980,4915 A East 41st Street,,Tulsa,OK,74135,United States,918-664-5916,36.1058207,-95.9202625,,,,
The Center @ Owasso,735,9056 N 121st East Ave,,Owasso,OK,74055,United States,918-401-2435,36.2906754,-95.841271,,,,
NEWARK,559,,,NEWARK,DE,00000,United States,,39.6837226,-75.7496572,,,,
Ulta Richland Marketplace,1272,622 North West End Blvd,,Quakertown,PA,18951,United States,215-536-3845,40.4604596,-75.3728971,,,,
Ulta Wrangleboro Consumer Square,1088,214 Consumer Square,,Mays Landing,NJ,08330,United States,609-272-8200,39.4505882,-74.6298042,,,,
Ulta Airport Center,1216,940 Airport Center Drive,,Allentown,PA,18109,United States,610-264-1065,40.6394123,-75.4359665,,,,
Ulta Stafford Park,1225,227 Stafford Park Blvd.,,Manahawkin,NJ,08050,United States,609-489-0103,39.7085183,-74.2857554,,,,
LEHIGH VALLEY MALL,482,500 LEHIGH VALLEY MALL,,Whitehall,PA,18052-5797,United States,,40.6310839,-75.4818356,,,,
FREEHOLD RACEWAY MALL,725,3710 HWY 9,,FREEHOLD,NJ,07728-1600,United States,732-780-4001,40.2532995,-74.3002341,,,,
Sephora FREEHOLD,269,"3710 Route 9, Space D220",,Freehols,NJ,07728,United States,(732) 780-4232,40.2532995,-74.3002341,,,,
Ulta Broadcasting Square Shopping Center,951,"2755 Paper Mill Road, Space L",,Wyomissing,PA,19610,United States,610-372-9939,40.3578992,-75.9799784,,,,
Ulta Prairie Market,1093,2510 Route 34,,Oswego,IL,60543,United States,630-554-4625,41.7010268,-88.3080002,,,,
North Aurora Towne Center,842,1600 Orchard Gateway Blvd,,NORTH AURORA,IL,60542,United States,630-301-6300,41.79812,-88.3608018,,,,
Ulta Grand Hunt Shopping Center,925,6517 Grand Avenue,,Gurnee,IL,60031,United States,847-856-1002,42.3852491,-87.9639578,,,,
Ulta Algonquin Commons,1125,1804 S. Randall Road,,Algonquin,IL,60102,United States,847-458-0743,42.1483445,-88.3358288,,,,
Sephora Inside JC Penny,858,800 S Randall Rd,,ALGONQUIN,IL,60102,United States,847-915-3267,42.1603496,-88.3357613,,,,
Ulta Kendall Marketplace,1206,955 Erica Lane,,Yorkville,IL,60560,United States,630-553-4927,41.6647444,-88.4646896,,,,
Ulta The Shops at Fox Valley,1082,3206 Shoppers Drive,,McHenry,IL,60050,United States,815-344-2028,42.3650287,-88.2646651,,,,
The Shop @ Fox River,859,2940 Comerce Rd,,JOHNSBURG,IL,60050,United States,815-271-9147,42.3698362,-88.2667747,,,,
Ulta Bradley Commons Phase 2,1185,2058 N. State Route 50,,Bourbonnais,IL,60914,United States,815-935-1451,41.1884459,-87.8475509,,,,
Ocean County Mall,564,1201 Hooper Ave Ste B,,TOMS RIVER,NJ,08753,United States,732-240-5400,39.978964,-74.182638,,,,
BRUNSWICK SQ MALL,624,755 STATE RT 18 STE 600,,E BRUNSWICK,NJ,08816-4995,United States,732-238-3900,40.4247186,-74.3833344,,,,
Ulta Summerhill Square,1367,601 Route 18 South,,East Brunswick,NJ,08816,United States,732-432-0459,40.4346611,-74.3909666,,,,
DOVER,569,,,DOVER,DE,00000,United States,,39.158168,-75.5243682,,,,
Sephora MENLO PARK,208,55 Parsonage Rd Suite 1215A,,Edison,NJ,08837,United States,(732) 635-0023,40.5480869,-74.3343192,,,,
Ulta Watchung Square,969,"1515 Route 22 West, Suite 22",,Watchung,NJ,07060,United States,908-561-4499,40.6393515,-74.4218999,,,,
Macys Woodbridge Center,6,237 Woodbridge Center Drive,,Woodbridge,NJ,07095,United States,732-636-2450,40.5553555,-74.3000637,,,,
Woodbridge Center,675,428 Woodbridge Ctr Dr,,WOODBRIDGE,NJ,07095,United States,732-636-6000,40.5566738,-74.2973571,,,,
Sephora LANCASTER,176,319 Park City Center,,Lancaster,PA,17601,United States,(717) 207-0505,40.0652734,-76.3366987,,,,
Ulta Holmdel Commons,975,2130 Route 35 South,,Holmdel,NJ,07733,United States,732-796-9300,40.411804,-74.141974,,,,
Shoppes of Prairie Ridge,490,10225 77th Street,,PLEASANT PRAIRIE,WI,53158-1142,United States,262-237-6193,42.5637991,-87.9309795,,,,
Ulta Shoppes at Prairie Ridge,1192,"10033 77th Street, Suite 420",,Pleasant Prairie,WI,53158,United States,262-697-0379,42.564061,-87.9300766,,,,
"Ulta DeKalb, IL",1457,2062 Sycamore Road,,DeKalb,IL,60115,United States,815-748-0990,41.9492306,-88.7291481,,,,
Ulta Rockford Crossing,1217,6620 E State St,,Rockford,IL,61108,United States,815-394-1248,42.2701744,-88.9877055,,,,
Sephora UNIVERSITY PARK,207,6501 North Grape Road #472A,,Mishawaka,IN,46545,United States,(574) 272-1600,41.71949,-86.1910125,,,,
Ulta University Park Mall,1141,6501 N. Grape Rd.,,Mishawaka,IN,45645,United States,574-247-1541,41.71949,-86.1910125,,,,
ROCKFORD,793,,,ROCKFORD,IL,00000,United States,,42.2711311,-89.0939952,,,,
"Ulta Waukesha, WI",1435,"1160 W Sunset Drive, Suite 134",,Waukesha,WI,53189,United States,262-574-0387,42.9916632,-88.2557796,,,,
Ulta Brookfield Fashion Center,1025,"16970 West Blue Mound Road, #210",,Brookfield,WI,53005,United States,262-785-0980,43.0382291,-88.1236656,,,,
Crossroads Shopping Center,862,18515 County Line Rd,,MENOMONEE FALLS,WI,53051,United States,262-415-1237,43.1921008,-88.1395399,,,,
"Ulta Warsaw, IN",1404,600 W 300 N,,Warsaw,IN,46582,United States,574-267-5630,41.2790661,-85.8551007,,,,
Ulta Felch Street Center,1277,"12635 Felch Street, Suite 20",,Holland,MI,49424,United States,616-994-0534,42.8213517,-86.0945641,,,,
Ulta Southland Mall,1195,6142 South Westnedge Ave.,,Portage,MI,49002,United States,269-321-0326,42.2272374,-85.5916673,,,,
Ulta The Plant,1127,31 Curtner Ave.,,San Jose,CA,95125,United States,408-924-0718,37.3034726,-121.8638709,,,,
Sephora VALLEY FAIR,114,2855 Stevens Creek Blvd. Suite 1061,,Santa Clara,CA,95050,United States,(408) 248-7095,37.325845,-121.9456152,,,,
Macys Valley Fair,43,2801 Stevens Creek Blvd,,Santa Clara,CA,95050,United States,408-248-3333,37.3241803,-121.9483679,,,,
Macys Eastridge,46,2210 Tully Road,,San Jose,CA,95122,United States,408-238-3333,37.3277844,-121.8177873,,,,
Eastridge Shopping Center,651,2230 Eastridge Loop,,SAN JOSE,CA,95122,United States,408-238-0300,37.3277319,-121.8157326,,,,
Macys Oakridge,45,5411 Thornwood Drive,,San Jose,CA,95123,United States,408-224-3333,37.253498,-121.863317,,,,
Sephora OAKRIDGE,175,925 Blossom Hill Road Suite #1198,,San Jose,CA,95123,United States,(408) 224-7404,37.2515431,-121.8624492,,,,
Ulta El Paseo de Saratoga,1339,600 El Paseo de Saratoga,,San Jose,CA,95130,United States,408-370-7687,37.2886837,-121.9910048,,,,
CUPERTINO SQUARE,523,10150 N WOLFE RD,,CUPERTINO,CA,95014-2508,United States,408-446-9600,37.3268517,-122.0126719,,,,
Ulta Fremont Hub Retail Center,1020,39221 Fremont Hub,,Fremont,CA,94538,United States,510-796-1437,37.5438034,-121.9878674,,,,
Sephora STANFORD,127,355 Stanford Shopping Center,,Palo Alto,CA,94304,United States,(650) 327-5180,37.4414946,-122.1715942,,,,
PARK CITY S/C,594,400 PARK CITY S/C,,Lancaster,PA,17601-2799,United States,,40.0678464,-76.3417071,,,,
Monmouth Mall,584,St Hwy 35 and 36,,EATONTOWN,NJ,07724,United States,732-544-8600,40.2908062,-74.0500328,,,,
Staten Island Mall,722,140 Marsh Ave,,STATEN ISLAND,NY,10314,United States,718-982-9330,40.5815757,-74.1637499,,,,
Macys Staten Island,5,100 Richmond Hill Rd.,,Staten Island,NY,10314,United States,718-494-4094,40.5832984,-74.1653785,,,,
Sephora SHORT HILLS,253,"1200 Morris Turnpike, #C205",,Short Hills,NJ,07078,United States,(973) 258-1919,40.7396366,-74.3656369,,,,
BEL AIR,502,,,BEL AIR,MD,00000,United States,,39.5359406,-76.3482931,,,,
CROSSROADS MALL,674,6580 S WESTNEDGE AVE,,PORTAGE,MI,49024-3593,United States,269-323-7711,42.2224058,-85.5894705,,,,
Ulta Lakes Crossing,1356,5711-A  South Harvey Street,,Norton Shores,MI,49444,United States,231-798-2371,43.1486805,-86.2096453,,,,
THE LAKES MALL,782,5690 HARVEY ST,,MUSKEGON,MI,49444-8766,United States,231-798-6107,43.1480979,-86.2058419,,,,
Sephora GRAND RAPIDS,390,"3700 RiverTown Parkway,  Suite #1058",,Grandville,MI,49418,United States,(616) 530-7969,42.8794012,-85.7561264,,,,
Ulta Eastland Mall,1242,1615 E. Empire Street,,Bloomington,IL,61701,United States,309-664-5929,40.485889,-88.956401,,,,
"Ulta Grandville, MI",1446,"3160 44th Street, Suite A",,Grandville,MI,49418,United States,616-534-7739,42.8819155,-85.7412466,,,,
Ulta East Town Plaza,1468,2185 Zeier Road,,Madison,WI,53704,United States,608-244-3983,43.1285813,-89.3016091,,,,
Sephora CHAMPAIGN,392,"2000 North Neil Street, Suite 600",,Champaign,IL,61820,United States,(217) 351-3482,40.1423318,-88.2429304,,,,
Ulta Baytowne Square,1311,2023 N. Prospect Ave,,Champaign,IL,61822,United States,217-355-5234,40.1403711,-88.2601179,,,,
WEST TOWNE MALL,592,23 WEST TOWNE MALL,,MADISON,WI,53719-1087,United States,608-833-9011,43.0588435,-89.5058928,,,,
Macys Southland,42,800 Southland Mall,,Hayward,CA,94545,United States,510-786-4300,37.6501716,-122.104354,,,,
Macys Pleasanton,40,1300 Stoneridge Mall Rd,,Pleasanton,CA,94588,United States,925-463-3333,37.6935797,-121.9282172,,,,
Macys Pleasanton,39,1300 Stoneridge Mall Road,,Pleasanton,CA,94588,United States,,37.6935797,-121.9282172,,,,
Stoneridge Mall,522,1500 Stoneridge Mall Rd,,PLEASANTON,CA,94588,United States,925-463-9780,37.696498,-121.9300186,,,,
Sephora STONERIDGE,113,2125 Stoneridge Mall,,Pleasanton,CA,94588,United States,(925) 737-0616,37.6982421,-121.9288317,,,,
Ulta Hacienda Crossings,996,4948 Dublin Blvd.,,Dublin,CA,94568,United States,925-828-5040,37.7055863,-121.8839741,,,,
Ulta Bridgepointe Shopping Center,1050,3010 Bridgepointe Pkwy.,,San Mateo,CA,94404,United States,650-638-1473,37.5613227,-122.2800065,,,,
Sephora BURLINGAME,129,1205 Burlingame Avenue,,Burlingame,CA,94010,United States,(650) 347-6700,37.5789237,-122.3462357,,,,
Tanforan S/C,663,1122 El Camino Real,,SAN BRUNO,CA,94066,United States,650-873-4100,37.6355662,-122.4174472,,,,
Rockaway Town Square,528,100 Rockaway Town Sq Mall Ste 121,,ROCKAWAY,NJ,07866,United States,973-361-4500,40.9016788,-74.5509924,,,,
Ulta Rockaway Towne Plaza,1034,"395 Mt. Hope Road, Suite 450",,Rockaway,NJ,07866,United States,973-361-4644,40.9167957,-74.5337334,,,,
Ulta York Town Center,1057,2835 Concord Road,,York,PA,17402,United States,717-751-0422,39.9843178,-76.669244,,,,
Ulta The Avenue at White Marsh,1061,8165-C Honeygo Boulevard,,Baltimore,MD,21236,United States,410-931-4902,39.3717659,-76.4624229,,,,
NEWPORT CTR,705,10 MALL DR W,,Jersey City,NJ,07310-1601,United States,,40.7255896,-74.0384404,,,,
Macys Kings Plaza,4,5400 Avenue U,,Brooklyn,NY,11234,United States,718-253-3100,40.6111201,-73.919789,,,,
Sephora NEWPORT CENTRE,156,"30 Mall Drive West, Space A#585B",,Jersey City,NJ,07310,United States,(201) 610-0026,40.7270588,-74.0384239,,,,
Macys Newport Centre,24,20 Mall Drive East,,Jersey City,NY,07310,United States,201-255-5200,40.7263156,-74.0371544,,,,
Sephora MADISON,180,71 West Towne Mall,,Madison,WI,53719,United States,(608) 827-5958,43.0570899,-89.5093181,,,,
Ulta Boulevard Crossing,1284,2134 East Boulevard Street,,Kokomo,IN,46901,United States,765-236-0681,40.4647997,-86.1056993,,,,
WOODLAND SHOPG CNTR,627,3225 28TH ST SE,,GRAND RAPIDS,MI,49512-1675,United States,616-949-7600,42.9124992,-85.587479,,,,
Ulta Deer Trace I & II Shopping Center,1288,4073 Highway 28,,Sheboygan Falls,WI,53085,United States,920-459-8487,43.6976787,-87.8991805,,,,
Ulta Alpine Summit Shopping Center,1115,"3165 Alpine Avenue, Suit B",,Walker,MI,49544,United States,616-784-2410,43.0215686,-85.6917567,,,,
"Ulta Grand Rapids, MI",1425,3665 28th Street SE,,Grand Rapids,MI,49512,United States,616-285-7024,42.9157728,-85.5784762,,,,
Northwood Shopping Center,543,2200 W War Memorial Dr Ste997,,PEORIA,IL,61613,United States,309-685-6111,40.7399472,-89.6285208,,,,
Ulta Westlake Shopping Center,1353,2601 West Lake Street,,Peoria,IL,61615,United States,309-681-4604,40.7400982,-89.6339406,,,,
"Ulta East Peoria, IL",1478,470 W. Washington St.,,East Peoria,IL,61611,United States,309-698-7961,40.671953,-89.5832674,,,,
Ulta Jefferson Pointe Shopping Center,965,"4220 W. Jefferson Blvd., Suite 04",,Ft. Wayne,IN,46804,United States,260-459-0041,41.0715649,-85.1982064,,,,
GLENBROOK MALL,670,4201 COLDWATER RD,,FORT WAYNE,IN,46805-1176,United States,260-482-4661,41.1152068,-85.1392108,,,,
Ulta The Shops at Tanofran,1023,"1140 El Camino Real, #209",,San Bruno,CA,94066,United States,650-873-4225,37.6360119,-122.4189679,,,,
SERRAMONTE CTR,497,63 SERRAMONTE CTR,,DALY CITY,CA,94015-2345,United States,650-731-3401,37.671948,-122.469169,,,,
"Ulta Colma, CA",1415,119 Colma Blvd.,,Colma,CA,94014,United States,650-755-5971,37.6771009,-122.467141,,,,
"Ulta Colma, CA",1414,119 Colma Blvd,,Colma,CA,94014,United States,650-755-5971,37.6771009,-122.467141,,,,
Sephora WALNUT CREEK,202,"1149 Broadway Plaza, Space C-70",,Walnut Creek,CA,94596,United States,(925) 933-3433,37.8970024,-122.0587024,,,,
Sephora EMERYVILLE,161,5626 Bay Street,,Emeryville,CA,94608,United States,(510) 547-6200,37.8346206,-122.2922136,,,,
Sephora POWELL,132,33 Powell Street,,San Francisco,CA,94102,United States,(415) 362-9360,37.784885,-122.408149,,,,
Macys Union Sq Count,53,170 O'Farrell St,,San Francisco,CA,94102,United States,415-397-3333,37.7867986,-122.4073963,,,,
Ulta Streets of Brentwood,1200,"2465 Sand Creek Road, Suite 101",,Brentwood,CA,94513,United States,925-513-8183,37.9449179,-121.7374159,,,,
White Marsh Mall,647,8200 Perry Hall Blvd,,BALTIMORE,MD,21236,United States,410-931-7550,39.3752198,-76.4688291,,,,
Sephora 150 BROADWAY,162,150 Broadway,,New York,NY,10038,United States,(212) 566-8600,40.7091841,-74.0100953,,,,
Sephora WILLOWBROOK,255,1760 Willowbrook Mall,,Wayne,NJ,07470,United States,(973) 837-0990,40.8902818,-74.2604233,,,,
Macys Willowbrook,21,100 Rte 46 1100 Willowbrook Mall,,Willowbrook,NJ,07470,United States,973-785-9525,40.890406,-74.257924,,,,
Wayne Towne Center,587,260 Wayne Towne Center,,WAYNE,NJ,07470,United States,973-785-3200,40.890057,-74.252898,,,,
Ulta Clifton Towne Square,1464,"225 Allwood Road, Unit #3",,Clifton,NJ,07012,United States,973-777-1066,40.8361184,-74.1504231,,,,
Sephora SOHO,246,555 Broadway,,New York,NY,10012,United States,(212) 625-1309,40.7238617,-73.9984253,,,,
Sephora MEATPACKING,403,21-27 Ninth Avenue,,New York,NY,10014,United States,(212) 510-7941,40.7401801,-74.0062068,,,,
Sephora UNION SQUARE,289,45 E. 17th Street,,New York,NY,10003,United States,(212) 995-8833,40.736892,-73.989367,,,,
Sephora FLATIRON,248,119 Fifth Avenue,,New York,NY,10003,United States,(212) 674-3570,40.7391214,-73.9909639,,,,
Manhattan Mall,491,"901 6th Avenue, Ste. 137",,NEW YORK,NY,10001-3511,United States,212-295-6120,40.7491669,-73.9891134,,,,
Sephora 34th STREET,249,130 West 34th Street,,New York,NY,10001,United States,(212) 629-9135,40.75015,-73.9893948,,,,
Macys HERALD SQUARE,3,151 West 34th St.,,New York,NY,10001,United States,212-695-4400,40.7507917,-73.9895261,,,,
Sephora 5 TIMES SQUARE,372,200 W 42nd Street,,New York,NY,10036,United States,(212) 764-2525,40.7561401,-73.9874418,,,,
Sephora TIMES SQUARE,247,1500 Broadway #304,,New York,NY,10036,United States,(212) 944-6789,40.7568064,-73.9856769,,,,
Ulta Northridge - Mall 1,1273,4016 E 53rd Street,,Davenport,IA,52807,United States,563-355-2230,41.577194,-90.5160216,,,,
"Ulta Carmel, IN",1474,2009-7 East Greyhound Pass,,Carmel,IN,46032,United States,317-844-5818,40.0007303,-86.1246589,,,,
NORTHPARK SHOPG CNTR,666,320 W KIMBERLY RD STE 409,,DAVENPORT,IA,52806-5972,United States,563-391-4800,41.5633732,-90.5756053,,,,
Sephora KEYSTONE,232,"8702 Keystone Crossing, Suite 35B",,Indianapolis,IN,46240,United States,(317) 587-0700,39.9145535,-86.1096145,,,,
Ulta Fashion Mall Commons,1016,"8487 Union Chapel Road, Unit 720",,Indianapolis,IN,46240,United States,317-251-0920,39.9090513,-86.1075753,,,,
Ulta Hamilton Town Center,1162,"14002 Hoard Drive, Suite 100",,Noblesville,IN,46060,United States,317-770-8531,39.9923942,-85.9279672,,,,
Hamilton Town Center,835,13900 Hoard Dr,,NOBLESVILLE,IN,46060,United States,317-773-0670,39.991231,-85.9292447,,,,
Castleton Square Mall,505,6020 E 82nd St Ste 700,,INDIANAPOLIS,IN,46250,United States,317-849-6500,39.9089327,-86.0648858,,,,
Metropolis,791,2611 E Main Street,,PLAINFIELD,IN,46168,United States,317-837-0042,39.7140277,-86.3584281,,,,
Ulta Metropolis,1059,301 Metropolis Mile. Suite 120,,Plainfield,IN,46168,United States,317-837-9652,39.7134655,-86.3579169,,,,
"Ulta Dubuque, IA",1373,"555 JFK Road, Unit #592",,Dubuque,IA,52002,United States,563-582-5087,42.496376,-90.7249251,,,,
INDIANAPOLIS,821,,,INDIANAPOLIS,IN,00000,United States,,39.768403,-86.158068,,,,
Sephora UNION STREET,199,2083 Union St.,,San Francisco,CA,94123,United States,(415) 614-2704,37.7973497,-122.4335525,,,,
The Orchard at Slatten Ranch,863,4951 Slatten Ranch Rd,,ANTIOCH,CA,94531,United States,925-752-9405,37.9665702,-121.7354038,,,,
Macys Concord Count,36,341 Sun Valley Mall,,Concord,CA,94520,United States,925-689-3333,37.9676843,-122.0615259,,,,
Northridge Mall,596,100 Northridge Mall,,SALINAS,CA,93906,United States,831-449-8111,36.716929,-121.657856,,,,
Promenade Shops at Orchid Valley,894,1060 Perimeter Drive,,Manteca,CA,95337,United States,209-923-6213,37.781368,-121.2316491,,,,
"Ulta Sand City, CA",1437,2080 California Avenue,,Sand City,CA,93955,United States,831-393-9397,36.6193483,-121.8432062,,,,
Ulta Vintage Commons,1116,"3900 Sisk Road, Suite B-2",,Modesto,CA,95356,United States,209-543-3871,37.6940795,-121.0628165,,,,
Macys Modesto,41,500 Vintage Faire,,Modesto,CA,95356,United States,209-575-3333,37.6887363,-121.0540259,,,,
VINTAGE FAIRE MALL,575,3401 DALE RD,,MODESTO,CA,95356-0505,United States,209-527-5000,37.6871609,-121.0517748,,,,
Sephora MODESTO,326,3401 Dale Road Suite # 658,,Modesto,CA,95356,United States,(209) 341-0100,37.6871609,-121.0517748,,,,
Weberstown Shopping Center,585,4915 Claremont Ave,,STOCKTON,CA,95207,United States,209-951-1110,37.9951285,-121.3104602,,,,
Ulta Sherwood Mall,1161,5410 Pacific Ave.,,Stockton,CA,95207,United States,209-235-1209,37.999997,-121.3160508,,,,
"Ulta Turlock, CA",1421,2841 Countryside Drive,,Turlock,CA,95380,United States,209-664-1725,37.5187279,-120.8827886,,,,
Sephora NOVATO,204,"208 Vintage Oaks, K-3",,Novato,CA,94945,United States,(415) 878-2004,38.0900737,-122.5535365,,,,
Sephora 42nd & MADISON,287,"300 Madison Ave, Space # 01-01",,New York,NY,10017,United States,(212) 503-0800,40.7526519,-73.9800751,,,,
Sephora 5th AVENUE,278,597 5th Ave,,New York,NY,10017,United States,(212) 980-6534,40.7573487,-73.9776851,,,,
Sephora COLUMBUS CIRCLE,275,"10 Columbus Circle, Sp 204",,New York,NY,10019,United States,(212) 823-9383,40.7682584,-73.9837722,,,,
Sephora 711 LEXINGTON,159,711 Lexington Ave,,New York,NY,10022,United States,(646) 521-2200,40.761171,-73.968585,,,,
Sephora 67th & 3rd,261,1149 Third Avenue,,New York,NY,10021,United States,(212) 452-3336,40.7665303,-73.9629544,,,,
Sephora 76th & BROADWAY,250,2164 Broadway,,New York,NY,10024,United States,(917) 441-4760,40.781871,-73.9806414,,,,
Ulta Hunt Valley Towne Centre,988,"118 Shawan Road, Suite O",,Hunt Valley,MD,21030,United States,410-527-9960,39.4971188,-76.6551527,,,,
Ulta City Place at the Promenade,973,82 The Promenade,,Edgewater,NJ,07020,United States,201-313-0049,40.8063107,-73.9886271,,,,
Sephora 86th & LEXINGTON,163,144 E. 86th Street New York,,New York,NY,10028,United States,(212) 426-6199,40.7790905,-73.955239,,,,
Sephora 99th & COLUMBUS,395,808 Columbus ave.,,New York,NY,10025,United States,(212) 280-2525,40.7946822,-73.9667275,,,,
Macys Queens Center,2,90-01 Queens Blvd.,,Elmhurst,NY,11373,United States,718-271-7200,40.7345187,-73.8713968,,,,
Queens Center,784,92-59 59TH AVE,,ELMHURST,NY,11373,United States,718-592-1800,40.734956,-73.867754,,,,
Ulta Rego Center,1329,61-35 Junction Blvd,,Rego Park,NY,11374,United States,718-699-9004,40.7333304,-73.8635717,,,,
Ulta Fox River Mall,1170,4301 West Wisconsin Ave.,,Appleton,WI,54913,United States,920-831-0240,44.2696721,-88.4700678,,,,
Sephora GREENWOOD,375,1251 US Highway 31 N,,Greenwood,IN,46142,United States,(317) 859-8491,39.6329483,-86.120412,,,,
Greenwood Park Mall,520,1251 US 31 N,,GREENWOOD,IN,46142,United States,317-882-7339,39.6309859,-86.1234505,,,,
Ulta Meridian Towne Center,1196,4886 Marsh Rd,,Okemos,MI,48864,United States,517-318-0413,42.723965,-84.4130197,,,,
Ulta Pilgrim & Oneida St. Shopping Center,1264,"803 Pilgrim Way,, Unit 5",,Green Bay,WI,54304,United States,920-494-7035,44.4804354,-88.0672465,,,,
ASHWAUBENON,808,,,ASHWAUBENON,WI,00000,United States,,44.4822137,-88.0701033,,,,
Ulta White Oaks Plaza,1177,2733 Veteran's Parkway,,Springfield,IL,62704,United States,217-726-0849,39.7683527,-89.709011,,,,
LIMA MALL,645,2400 ELIDA RD,,LIMA,OH,45805-1223,United States,419-331-0361,40.7650037,-84.1505515,,,,
Ulta Cranbrook Village Shopping Center,1187,928 W. Eisenhower Pkwy,,Ann Arbor,MI,48103,United States,734-205-2093,42.2476786,-83.7576609,,,,
Sephora BRIARWOOD,242,"876 Briarwood Circle, Space #136",,Ann Arbor,MI,48101,United States,(734) 622-8200,42.2402978,-83.7463152,,,,
Ulta Green Oak Village Place,1086,9830 Village Place Blvd.,,Brighton,MI,48116,United States,810-225-0365,42.5093769,-83.7559355,,,,
Green Oak Village Place,833,9480 Village Place Blvd,,BRIGHTON,MI,48116,United States,810-229-7598,42.5083428,-83.7548905,,,,
SOLANO MALL,519,1330 TRAVIS BLVD,,FAIRFIELD,CA,94533-4699,United States,707-422-0320,38.2598009,-122.0511526,,,,
Macys Fairfield,38,1544 Travis Blvd,,Fairfield,CA,94533,United States,,38.2597506,-122.0552966,,,,
"Ulta Vacaville, CA",1393,"1641-C East Monte Vista Avenue, Suite # I-102",,Vacaville,CA,95688,United States,707-455-8369,38.3687831,-121.9635587,,,,
"Ulta Napa, CA",1477,"1725 Trancas Street, Suite A",,Napa,CA,94558,United States,707-224-1117,38.3219237,-122.3047634,,,,
Ulta Laguna Gateway,963,9141 West Stockton Blvd.,,Elk Grove,CA,95758,United States,916-478-2610,38.4258576,-121.3996788,,,,
Ulta Santa Rose Marketplace,1278,2080 Santa Rosa Ave,,Santa Rosa,CA,95407,United States,707-542-1042,38.4178907,-122.713549,,,,
Macys Sacramento Downtown Plaza,48,600 K. St.,,Sacramento,CA,95814,United States,916-444-3333,38.579652,-121.4986785,,,,
Macys Santa Rosa Count,37,800 Santa Rosa Plaza,,Santa Rosa,CA,95401,United States,707-523-3333,38.4404697,-122.717135,,,,
CODDINGTOWN CTR,622,800 CODDINGTOWN CTR,,SANTA ROSA,CA,95401-3570,United States,707-542-2014,38.4572226,-122.7318104,,,,
Ulta Howe 'Bout Arden Shopping Center,970,"2100 Arden Way, Suite 100",,Sacramento,CA,95825,United States,916-614-0184,38.5950955,-121.4168808,,,,
Arden Fair Mall,724,1695 ARDEN WAY,,SACRAMENTO,CA,95815,United States,916-564-0315,38.599926,-121.42743,,,,
Macys Arden Fair,49,1701 Arden Way,,Sacramento,CA,95815,United States,916-925-2845,38.5997648,-121.4246874,,,,
Sephora ARDEN FAIR,128,"1689 Arden Way, Space 1274",,Sacramento,CA,95815,United States,(916) 649-1010,38.6015342,-121.4273544,,,,
Ulta The Promenade at Sacramento Gateway,1037,3591 N. Freeway Blvd,,Sacramento,CA,95834,United States,916-285-6450,38.6410428,-121.4996954,,,,
Ulta Marketplace at Birdcage,974,5927 Sunrise Blvd.,,Citrus Heights,CA,95610,United States,916-535-0021,38.673729,-121.273078,,,,
Sephora FOREST HILLS,276,7130 Austin Street,,Forest Hills,NY,11375,United States,(718) 544-0009,40.7195877,-73.8437685,,,,
Garden State Plaza,637,502 Garden State Plaza,,PARAMUS,NJ,07652,United States,201-843-2910,40.9178559,-74.0781984,,,,
Macys Garden State Plaza,20,500 Garden State Plaza,,Paramus,NJ,07652,United States,201-843-9100,40.9176203,-74.0759081,,,,
Sephora GARDEN STATE,254,"Routes 4 & 17, #E2",,Paramus,NJ,07652,United States,(201) 845-7071,40.9207562,-74.0727788,,,,
Ulta Bergen Town Center,1246,45 West Spring Valley Avenue,,Maywood,NJ,07607,United States,201-368-0496,40.9142838,-74.060921,,,,
BALTIMORE,572,,,BALTIMORE,MD,00000,United States,,39.2903848,-76.6121893,,,,
Sephora Paramus Park,435,1460 Paramus Park Mall,,Paramus,NJ,07652,United States,2012612811,40.9566399,-74.0688694,,,,
Macys Green Acres (NY),8,1000 Green Acres Mall,,Valley Stream,NY,11580,United States,516-561-6100,40.662918,-73.721903,,,,
HARRISBURG,816,,,HARRISBURG,PA,00000,United States,,40.2731911,-76.8867008,,,,
"Ulta Ramsey, NJ",1359,1255 Route 17 South,,Ramsey,NJ,07446,United States,201-327-3018,41.070714,-74.139323,,,,
Bay Plaza Mall,759,100 Baychester Ave,,BRONX,NY,10475,United States,718-8629125,40.8647084,-73.8264845,,,,
Ulta Arena Hub Plaza,1262,493 Arena Hub Plaza,,Wilkes-Barre,PA,18711,United States,570-820-6267,41.2405266,-75.8398532,,,,
Macys Cross County SC (NY),23,800 Central Park Ave,,Yonkers,NY,10704,United States,914-964-6680,40.9278872,-73.8570591,,,,
WYOMING VALLEY MALL,668,34 WYOMING VALLEY MALL,,WILKES BARRE,PA,18702-6810,United States,570-829-0531,41.2500067,-75.8425625,,,,
"Ulta Hanover, PA",1395,411 Eisenhower Drive,,Hanover,PA,17331,United States,717-632-0920,39.8234541,-76.980106,,,,
Regency Sq Mall,479,9501 Arlington Expy Ste 105,,JACKSONVILLE,FL,32225,United States,904-721-2820,30.3241619,-81.5525881,,,,
Sephora ST. JOHNS,296,10281 Midtown Parkway Space D Suite 167,,Jacksonville,FL,32246,United States,(904) 997-1212,30.2567181,-81.5281435,,,,
Ulta The Markets at Town Center,1224,4860 Big Island Drive,,Jacksonville,FL,32246,United States,904-641-6032,30.2538021,-81.5297313,,,,
"Ulta Jacksonville, FL (Parkway Shops)",1489,"14964 Duval Rd. Building 400, Suite B-102",,Jacksonville,FL,32218,United States,904-696-6933,30.4823166,-81.6472359,,,,
Orange Park Mall,685,1910 Wells Rd,,ORANGE PARK,FL,32073,United States,904-264-2772,30.1847281,-81.7356529,,,,
The Avenues Center,716,10308 Southside Blvd,,JACKSONVILLE,FL,32256,United States,904-363-1741,30.1834676,-81.5546264,,,,
Ulta Oakleaf Town Center,1143,9625 Crosshill Blvd.,,Jacksonville,FL,32222,United States,904-771-1162,30.1993603,-81.8282241,,,,
Ulta Glynn Isles Market,1292,190 Glynn Isles,,Brunswick,GA,31525,United States,912-554-2172,31.2005904,-81.4800262,,,,
Sephora GAINESVILLE,376,6689 Newberry Road,,Gainesville,FL,32605,United States,(352) 331-8880,29.6595853,-82.4136373,,,,
Oaks Mall,526,6481 Newberry Rd,,GAINESVILLE,FL,32605,United States,352-331-2222,29.6572589,-82.4128518,,,,
"Ulta Gainesville, FL",1417,6843 West Newberry Road,,Gainesville,FL,32605,United States,352-333-0552,29.6582396,-82.4156254,,,,
DAYTONA BEACH,539,,,DAYTONA BEACH,FL,00000,United States,,29.2108147,-81.0228331,,,,
Ulta Arborland Center,1467,3527 Washtenaw Ave.,,Ann Arbor,MI,48104,United States,734-477-0150,42.2571331,-83.6898354,,,,
Ulta Marketplace on First,1069,"4651 1st  Avenue SE, Suite 3",,Cedar Rapids,IA,52403,United States,319-294-3100,42.0233447,-91.6216086,,,,
Sephora FRANKLIN PARK,215,"5001 Monroe St, Suite 1610",,Toledo,OH,43623,United States,(419) 471-0707,41.6947913,-83.6405727,,,,
Ulta Westfield Franklin Park Mall,1199,"5001 Monroe St., Unit S-30",,Toledo,OH,43623,United States,419-474-4254,41.6929051,-83.6383684,,,,
GENESEE VALLEY CNTR,673,3535 S LINDEN RD,,FLINT,MI,48507-3041,United States,810-733-7300,42.9754218,-83.771939,,,,
"Ulta Saginaw, MI",1371,3321 Tittabawasse Road,,Saginaw,MI,48604,United States,989-799-1465,43.4772813,-83.9821973,,,,
Fashion Square Mall,542,4600 Bay Rd,,SAGINAW,MI,48604,United States,989-799-8550,43.4754542,-83.9754777,,,,
NOVI,632,,,NOVI,MI,00000,United States,,42.48059,-83.4754913,,,,
Macys Twelve Oaks (MI),34,27550 Novi Road,,Novi,MI,48377,United States,248-344-6800,42.4927616,-83.4761093,,,,
Sephora TWELVE OAKS,230,27846 Novi Road,,Novi,MI,48377,United States,(248) 347-1518,42.4963379,-83.4762563,,,,
Ulta Novi Town Center,1331,26110 Ingersol Drive,,Novi,MI,48375,United States,248-449-5221,42.4830658,-83.4721826,,,,
"Ulta Novi, MI",1332,26110 Ingersol Drive,,Novi,MI,48375,United States,248-449-5221,42.4830658,-83.4721826,,,,
Sunrise Mall,590,6100 Sunrise Blvd,,CITRUS HTS,CA,95610,United States,916-726-8811,38.6772179,-121.2714467,,,,
Ulta Folsom-Gateway II,1236,2381 Iron Point Road,,Folsom,CA,95630,United States,916-984-7582,38.6442608,-121.1232338,,,,
Sephora ROSEVILLE,385,1151 Galleria Blvd #1140,,Roseville,CA,95678,United States,(916) 786-6333,38.7734416,-121.2692829,,,,
Roseville Galleria,777,1125 Galleria Blvd,,ROSEVILLE,CA,95678,United States,916-772-8800,38.7736562,-121.2681856,,,,
Ulta Creekside Town Center,957,"1232 Galleria Blvd., Suite 100",,Roseville,CA,95678,United States,916-780-1117,38.7736716,-121.2656466,,,,
Macys Roseville,50,1197 Galleria Blvd,,Roseville,CA,95678,United States,916-771-3333,38.7753003,-121.2683993,,,,
Ulta Carson Valley Plaza,1476,911 Topsy Lane #228,,Carson City,NV,89705,United States,775-267-1176,39.1072624,-119.7762679,,,,
Sephora SUMMIT RENO,124,"13915 S. Virginia Street, Suite 110",,Reno,NV,89511,United States,(775) 853-9090,39.4070385,-119.7498314,,,,
Ulta Reno Villiage Commons,1046,"6667 S, Virginia St.",,Reno,NV,89511,United States,775-853-5600,39.4656781,-119.7856944,,,,
Macys Reno,51,5100 Meadowood Mall,,Reno,NV,89502,United States,775-826-8333,39.4758641,-119.7830968,,,,
Ulta Sparks Crossing,1051,177 Los Altos Parkway,,Sparks,NV,89436,United States,775-626-5325,39.5809047,-119.7412886,,,,
Macys Redding - Mount Shasta Mall,52,1291 Hilltop Dr,,Redding,CA,96003,United States,,40.5893386,-122.3556677,,,,
HANOVER,508,,,HANOVER,PA,00000,United States,,39.8006553,-76.9830358,,,,
Sephora MANHASSET,259,1950 Northern Boulevard,,Manhasset,NY,11030,United States,(516) 365-9008,40.7957591,-73.6750172,,,,
Sephora YONKERS,405,163 Market St,,Yonkers,NY,10710,United States,(914) 376-1200,40.9633666,-73.8561654,,,,
Sephora ROOSEVELT FIELD,251,630 Old Country Road #1122,,Garden City,NY,11530,United States,(516) 746-3933,40.7399709,-73.6135758,,,,
ROOSEVELT FIELD S/C,570,630 OLD COUNTRY RD UNIT A2,,GARDEN CITY L I,NY,11530-3600,United States,516-877-1100,40.7399709,-73.6135758,,,,
Macys Roosevelt Field,17,630 Old Country Road,,Garden City,NY,11530,United States,516-746-8200,40.7399709,-73.6135758,,,,
"Ulta Westbury, NY",1392,900 Old Country Road,,Garden City,NY,11530,United States,516-794-7416,40.7436727,-73.6049648,,,,
ANNAPOLIS MALL,688,1695 ANNAPOLIS MALL,,Annapolis,MD,21401-7624,United States,,38.989182,-76.5439027,,,,
Sephora ANNAPOLIS MALL,171,"2002 Annapolis Mall, Space #1803",,Annapolis,MD,21401,United States,(410) 573-1888,38.9881368,-76.5453331,,,,
Ulta Silver Springs Square,1094,"6416 Carlisle Pike, Suite 2300",,Mechanicsburg,PA,17050,United States,717-766-7100,40.2471263,-77.0101587,,,,
Ulta Annapolis Harbour Center,1214,2566Solomons Island Road,,Annapolis,MD,21401,United States,410-571-1575,38.9732546,-76.5435424,,,,
Sephora PALISADES,286,"1000 Palisades Center Dr,  # F106A",,West Nayak,NY,10994,United States,(845) 353-1033,41.0980374,-73.9567637,,,,
Ulta Gateway Overlook,1083,8241 Gateway Overlook Drive,,Elkridge,MD,21075,United States,410-290-0022,39.1851174,-76.7940551,,,,
Ulta Levittown Mews,916,3377 Hempstead Turnpike,,Levittown,NY,11756,United States,516-579-5163,40.7260728,-73.5101174,,,,
Ulta Market Street at Heathbrook,1176,"4414 SW College Road, #1710",,Ocala,FL,34474,United States,352-237-0163,29.1413031,-82.1921423,,,,
Ulta The Pavilion at Port Orange,1211,"5511 S. Williamson Blvd, #210",,Port Orange,FL,32128,United States,386-760-0289,29.1067595,-81.0330299,,,,
SEMINOLE TOWNE CTR,551,310 TOWNE CTR CIR,,SANFORD,FL,32771-7410,United States,407-323-1310,28.8050278,-81.3394495,,,,
"Ulta Sanford, FL",1385,1751 WP Ball Blvd,,Sanford,FL,32771,United States,407-321-0854,28.7987887,-81.3334269,,,,
Ulta Altamonte Mall,1011,451 E. Altamonte Drive,,Altamonte Springs,FL,32701,United States,407-260-6563,28.6667899,-81.3773017,,,,
ALTAMONTE SPRINGS,518,,,ALTAMONTE SPRINGS,FL,00000,United States,,28.6611089,-81.3656242,,,,
Ulta Abercorn Common,1070,"8108 Abercorn Street, Suite 310",,Savannah,GA,31406,United States,912-920-3316,32.0027334,-81.1224178,,,,
Ulta Winter Park Village,1063,"520 N. Orlando Avenue, #110",,Winter Park,FL,32789,United States,407-643-9129,28.6029623,-81.3629093,,,,
Clermont Landing,880,2345 HWY 27,,CLERMONT,FL,34714,United States,352-241-0206,28.5335068,-81.7355171,,,,
Ulta Winter Garden Village at Fowler Grove,1077,3203 Daniels Road,,Winter Garden,FL,34787,United States,407-656-0051,28.5233078,-81.5850424,,,,
SAVANNAH,682,,,SAVANNAH,GA,00000,United States,,32.0835407,-81.0998342,,,,
Ulta Waterford Lakes Town Center,1000,841 Alafaya Trail,,Orlando,FL,32828,United States,407-384-8488,28.5570501,-81.2069564,,,,
Macys Orlando Millenia,110,4298 Millenia Boulevard,,Orlando,FL,32839,United States,407-264-2300,28.4865728,-81.432451,,,,
Ulta Millenia Crossing,1335,"4048 Eastgate Dr, Suite B104",,Orlando,FL,32839,United States,407-351-9894,28.4846911,-81.4271479,,,,
Ulta Orlando Square,1010,1718 W. Sand Lake Road,,Orlando,FL,32809,United States,407-858-9893,28.450171,-81.4012798,,,,
Sephora FLORIDA MALL,294,"8001 S. Orange Blossom Trail,  #1128B",,Orlando,FL,32809,United States,(407) 240-6634,28.4501555,-81.4007649,,,,
Village Lakes,874,300 Town Center Blvd,,WHITE LAKE TWP,MI,48386,United States,248-779-6070,42.6475791,-83.4985928,,,,
"Ulta Northville Township, MI",1408,17615 Haggerty Rd,,Northville Township,MI,48167,United States,248-449-5367,42.414214,-83.4354078,,,,
Courtland Center,890,4190 E Court St Ste 500,,BURTON,MI,48509,United States,810-275-9178,43.0169162,-83.6311534,,,,
"Ulta Traverse City, MI",1429,2556 Crossing Circle Dr,,Traverse City,MI,49684,United States,231-941-7280,44.7258257,-85.6324392,,,,
"Ulta Livonia, MI",1463,Middlebelt Road,,Livonia,MI,48150,United States,734-425-2460,42.3969956,-83.3344263,,,,
Ulta Hunters Square,1065,30837 Orchard Lake Road,,Farmington Hills,MI,48334,United States,248-539-5819,42.5235576,-83.3612961,,,,
LA CROSSE,591,,,LA CROSSE,WI,00000,United States,,43.8013556,-91.2395807,,,,
Ulta Woodhaven Plaza,1321,19255 West Road,,Woodhaven,MI,48183,United States,734-676-4357,42.1375671,-83.223879,,,,
"Ulta Bloomfield Hills, MI",1365,2161 S. Telegraph Road,,Bloomfield Hills,MI,48302,United States,248-858-2611,42.6065997,-83.2968939,,,,
Ulta Baldwin Commons,1105,"4830 South Baldwin, Lot 5B",,Orion Township,MI,48359,United States,248-393-2769,42.7097792,-83.3072655,,,,
Ulta Fairlane Green Phase I,1189,3150 Fairlane Drive,,Allen Park,MI,48101,United States,313-749-1470,42.2826859,-83.2054604,,,,
DAYTON,731,,,DAYTON,OH,00000,United States,,39.7589478,-84.1916069,,,,
Sephora SOMERSET,231,2800 W. Big Beaver Road #S 218,,Troy,MI,48084,United States,(248) 458-0100,42.5630759,-83.184354,,,,
Macys Somerset Collection,33,2750 W Big Beaver Rd.,,Troy,MI,48084,United States,248-816-4000,42.562926,-83.182275,,,,
Ulta Waugh Chapel Towne Centre,1447,"1410 S. Main Chapel Way, Suite 108",,Gambrills,MD,21054,United States,410-451-0758,39.0334991,-76.6833152,,,,
Sephora COLUMBIA MALL,314,"10300 Little Patuxent Parkway,  Space 2080",,Columbia,MD,21044,United States,(410) 992-7700,39.2153109,-76.8612159,,,,
Columbia Town Center,760,10300 Little Patuxent Pkwy,,COLUMBIA,MD,21044,United States,410-715-8700,39.2153109,-76.8612159,,,,
Sephora WESTCHESTER,256,"125 Westchester Avenue, Suite 1001",,White Plains,NY,10601,United States,(914) 761-7727,41.0315151,-73.7585505,,,,
"Ulta Port Chester, NY",1438,445 Boston Post Road,,Port Chester,NY,10573,United States,914-937-1430,40.9921004,-73.6728504,,,,
Viewmont Mall,582,80 Viewmont Mall,,SCRANTON,PA,18508,United States,570-346-8401,41.4584653,-75.6540417,,,,
Ulta Harriman Commons,1247,128 Bailey Farm Road,,Monroe,NY,10950,United States,845-783-3544,41.3171696,-74.1533144,,,,
Ulta The Commons (Phase I),1480,2715 N. Salisbury Blvd.,,Salisbury,MD,21801,United States,443-260-1725,38.4166583,-75.5651339,,,,
Sephora GREENWICH,245,75 Greenwich Ave,,Greenwich,CT,06830,United States,(203) 422-2191,41.029669,-73.6265233,,,,
Macys Huntington - Walt Whitman,22,170 Walt Whitman Rd,,Huntington Station,NY,11746,United States,,40.8259295,-73.4120113,,,,
Ulta The Shoppes at Orange Plaza,1062,444 Route 211 East,,Middletown,NY,10940,United States,845-344-1997,41.4533033,-74.3806192,,,,
Crystal Run Mall,730,One N Galleria Dr,,MIDDLETOWN,NY,10941,United States,845-692-4700,41.4551427,-74.371531,,,,
WOODMORE TN CTR@GLEN,496,9100 MCHUGH STE 576,,LANHAM,MD,20706,United States,301-341-2700,38.9210951,-76.8483792,,,,
SOUTH SHORE MALL,533,1701 SUNRISE HWY,,BAYSHORE L I,NY,11706-6081,United States,631-666-3000,40.7401179,-73.2464897,,,,
The Florida Mall,683,8001 S Orange Blossom Ste700,,ORLANDO,FL,32809,United States,407-851-5200,28.4501555,-81.4007649,,,,
Macys Florida Mall,112,8001 Orange Blossom Trail,,Orlando,FL,32809,United States,407-854-2310,28.4501555,-81.4007649,,,,
Ulta Loop West,1182,2609 W. Osceola Parkway,,Kissimmee,FL,34741,United States,407-846-0149,28.3443107,-81.4270528,,,,
Loop West,856,2001 W Osceola Pkwy,,KISSIMMEE,FL,34741,United States,407-847-5922,28.3431784,-81.4255336,,,,
"Ulta Bluffton, SC",1465,1460 Fording Island Road #160,,Bluffton,SC,29910,United States,843-815-2073,32.239666,-80.8142319,,,,
Nature Coast Commons,873,5181 Pepper St,,SPRINGHILL,FL,34607,United States,352-683-4715,28.4567078,-82.6322486,,,,
Posner Commons,884,6200 Grand View Pkwy,,DAVENPORT,FL,33837,United States,863-424-7137,28.235315,-81.6405176,,,,
Ulta The Grove at Wesley Chapel,1101,5953 Wesley Grove Blvd.,,Wesley Chapel,FL,33543,United States,813-991-7220,28.2427469,-82.3515859,,,,
Wiregrass Commons,804,28151 State Rd 56,,Wesley Chapel,FL,33543,United States,813-907-7266,28.1875274,-82.3516621,,,,
Governors Square,672,1500 Apalachee Pkwy,,TALAHASSEE,FL,32301,United States,850-878-8111,30.4373197,-84.2535477,,,,
Ulta Governor's Marketplace,1487,1554 Governor's Square Boulevard,,Tallahassee,FL,32301,United States,850-402-9527,30.4409214,-84.2570966,,,,
Sephora Tallahassee,431,"1500 Apalachee Pkwy, Space #1425",,Tallahassee,FL,32301,United States,8504020105,30.436058,-84.257679,,,,
LAKELAND SQ,714,3800 US HWY 98 N STE 200,,LAKELAND,FL,33809-3800,United States,863-858-7900,28.0911645,-81.9739215,,,,
"Ulta Rib Mountain, WI",1423,3505 Rib Mountain Drive,,Rib Mountain,WI,54401,United States,715-241-0089,44.9253659,-89.652465,,,,
TROY,604,,,TROY,MI,00000,United States,,42.6064095,-83.1497751,,,,
Ulta Oakland Plaza,1287,560 John R. Road,,Troy,MI,48083,United States,248-581-0524,42.5393195,-83.1045597,,,,
Ulta Hampton Village Center,1198,2813 S. Rochester Road,,Rochester Hills,MI,48307,United States,248-853-1538,42.6392081,-83.1279893,,,,
Dayton Mall,752,2700 Miamisburg-Centerville Rd,,CENTERVILLE,OH,45459,United States,937-436-5465,39.6346641,-84.2202472,,,,
Ulta Dayton Mall - Streetscape,1111,"2700 Miamisburg-Centerville Road, #864",,Dayton,OH,45459,United States,937-291-0196,39.6346641,-84.2202472,,,,
Ulta Beavercreek Pavillion,1346,2720 Towne Dr.. Suite 450,,Beavercreek,OH,45431,United States,937-429-9744,39.7674538,-84.0495344,,,,
Ulta Bridgewater Falls,1121,3347 Princeton Road,,Hamilton,OH,45011,United States,513-863-6200,39.3906143,-84.5041702,,,,
BRIDGEWATER FALLS SC,805,3459 PRINCETON RD,,HAMILTON,OH,45011-7956,United States,513-671-2511,39.389099,-84.499729,,,,
Sephora DAYTON,234,"4421 Glengarry Drive, Suite 126",,Dayton,OH,45440,United States,(937) 431-9300,39.6933561,-84.1022003,,,,
Stone Creek Town Ctr,854,3675 Stone Creek Blvd,,COLERAIN,OH,45251,United States,513-245-9800,39.2506687,-84.6009901,,,,
"Ulta Cincinnati, OH (Northgate)",1443,9481 Colerain Avenue,,Cincinnati,OH,45251,United States,513-245-1602,39.243586,-84.595435,,,,
Ulta Hall Road Crossing,1354,13955 Hall Road,,Shelby Twp.,MI,48315,United States,586-566-1548,42.629202,-82.9910378,,,,
Macys Lakeside - MI,35,14200 Lakeside Circle,,Sterling Heights,MI,48313,United States,,42.623629,-82.985572,,,,
LAKESIDE S/C,614,14300 LAKESIDE CIR,,Sterling Hts,MI,48313-1368,United States,,42.6226095,-82.9837463,,,,
Sephora PARTRIDGE CREEK,194,"17410 Hall Rd., Suite 167",,Clinton Township,MI,48038,United States,(586) 286-7788,42.6276777,-82.9480238,,,,
Ulta King Kullen Plaza,926,78 Veterans Memorial Highway,,Commack,NY,11725,United States,631-499-2639,40.8410086,-73.2858451,,,,
Sephora SMITH HAVEN,186,313 Smith Haven Mall,,Lake Grove,NY,11755,United States,(631) 863-3070,40.8636861,-73.1299238,,,,
Ulta Lake Grove,917,2005 Smith Haven Plaza,,Lake Grove,NY,11755,United States,516-979-3473,40.868303,-73.1300916,,,,
Ulta Gateway Plaza,924,499 Sunrise Highway,,Patchogue,NY,11772,United States,631-758-4603,40.7791651,-73.0375765,,,,
Sephora DANBURY FAIR,277,"7 Backus Ave., Suite 364",,Danbury,CT,06810,United States,(203) 778-3200,41.3806589,-73.4807815,,,,
Ulta Florence Square,1333,7673 Mall Rd.,,Florence,KY,41042,United States,859-282-8561,38.9977905,-84.655847,,,,
Florence Mall,557,6000 Florence Mall,,FLORENCE,KY,41042,United States,859-525-1170,38.9958339,-84.6491806,,,,
Sephora CRESTVIEW HILLS,410,2854 Town Center Blvd.Crestview Hills,,Crestview Hills,KY,41017,United States,(859) 426-9400,39.025231,-84.5785473,,,,
Mall @ Prince Georges,761,3500 East West Hwy Ste 1000,,HYATTSVILLE,MD,20782,United States,301-270-3400,38.9686274,-76.9575033,,,,
Wheaton Plaza,762,11160 Veirs Mill Rd,,WHEATON,MD,20902,United States,301-929-5100,39.0384223,-77.0530309,,,,
Ulta Downtown Silver Spring,1002,914 Ellsworth Drive,,Silver Spring,MD,20910,United States,301-588-8744,38.9958458,-77.0262646,,,,
FOREST VILLAGE PARK,659,3401 DONNELL DR,,FORESTVILLE,MD,20747-3289,United States,301-420-3400,38.8459851,-76.8869471,,,,
Ulta Congressional Plaza,1015,1631 Rockville Pike,,Rockville,MD,20852,United States,301-231-5386,39.0625439,-77.1275458,,,,
Lake Forest Mall,516,701 Russell Ave,,GAITHERSBURG,MD,20877,United States,301-840-0010,39.1541789,-77.2046849,,,,
Sephora CHEVY CHASE,379,5330-E Western Avenue,,Chevy Chase,MD,20815,United States,(301) 718-3050,38.9606162,-77.0859527,,,,
Macys Montgomery (MD),11,7125 Democracy Blvd.,,Bethesda,MD,20817,United States,301-469-6800,39.0240582,-77.1455742,,,,
Sephora MONTGOMERY,271,"7101 Democracy Blvd., #2042",,Bethesda,MD,20817,United States,(301) 365-9590,39.0257717,-77.1475762,,,,
Sephora GEORGETOWN,265,3065 M St. NW,,Washington,DC,20007,United States,(202) 338-5644,38.905484,-77.060774,,,,
Ulta Lycoming Crossings Shopping Center,1319,350 S. Lycoming Mall Rd,,Muncy,PA,17756,United States,570-546-2361,41.2423465,-76.8358144,,,,
Ulta Frederick Crossing,1336,7310 Guilford Drive,,Frederick,MD,21704,United States,301-662-0852,39.3972446,-77.4154224,,,,
Sephora PENTAGON CITY,266,"1100 S. Hayes Street,  Suite G6-G8",,Arlington,VA,22202,United States,(703) 415-4501,38.8633646,-77.0604807,,,,
"Ulta Waldorf, MD",1375,2945 Festival Way,,Waldorf,MD,20601,United States,301-396-4579,38.6312323,-76.909135,,,,
Sephora CITRUS PARK,404,7965 Citrus Park Town Center,,Tampa,FL,33625,United States,(813) 920-6200,28.0692443,-82.5762395,,,,
Ulta The Plaza at Citrus Park,1001,12715 Citrus Park Drive,,Tampa,FL,33625,United States,813-926-7110,28.0637996,-82.5754831,,,,
MELBOURNE,687,,,MELBOURNE,FL,00000,United States,,28.0836269,-80.6081089,,,,
Ulta Hammock Landing,1210,"205 Palm Bay Road, Suite 121",,West Melbourne,FL,32904,United States,321-953-2642,28.0377924,-80.6651198,,,,
Ulta Regeny Square,1282,2442 W. Brandon Blvd,,Brandon,FL,33511,United States,813-651-2768,27.9391631,-82.3228195,,,,
BRANDON TOWN CTR,555,331 BRANDON TOWN CTR MALL,,BRANDON,FL,33511-4723,United States,813-681-9800,27.9348204,-82.326688,,,,
Sephora BRANDON TOWN CENTER,302,912 Brandon Town Center Mall,,Brandon,FL,33511,United States,(813) 651-1800,27.931136,-82.3256001,,,,
Sephora INTERNATIONAL PLAZA,312,"2223 N Westshore Blvd,  Space 145",,Tampa,FL,33607,United States,(813) 872-2600,27.9640468,-82.5216049,,,,
COUNTRYSIDE MALL,620,27001 US HWY 19 N,,CLEARWATER,FL,33761-3499,United States,727-796-2191,28.0173889,-82.7342675,,,,
ALBANY MALL,707,2601 DAWSON RD,,ALBANY,GA,31707-6801,United States,229-435-1401,31.6134922,-84.2158938,,,,
"Ulta Clearwater, FL",1379,"2683 Gulf To Bay Blvd., Space 37",,Clearwater,FL,33759,United States,727-724-6498,27.9591592,-82.7266421,,,,
TYRONE SQ,654,7000 TYRONE SQ,,ST PETERSBURG,FL,33710-3937,United States,727-344-2611,27.7950306,-82.7355496,,,,
Ulta Mt. Pleasant Towne Center,1049,1740 Towne Center Way,,Mt. Pleasant,SC,29464,United States,843-856-8500,32.8288118,-79.8310836,,,,
Northwoods Mall,553,2150 Northwoods Blvd Unit E100,,N CHARLESTON,SC,29406,United States,843-824-8113,32.944166,-80.0444721,,,,
Ulta Deerfield Towne Center,1188,5145 Deerfield Blvd.,,Mason,OH,45040,United States,513-204-1929,39.3052064,-84.316697,,,,
Governor's Plaza,879,9365 Fileds Ertel Rd,,CINCINNATI,OH,45249,United States,513-697-0454,39.2909162,-84.3032012,,,,
Sephora TRUMBULL,399,"5065 Main Street, Space #2090",,Trumball,CT,06611,United States,(203) 373-7344,41.229463,-73.2197118,,,,
"Ulta Milford, CT",1317,1201 Boston Post Road,,Milford,CT,06460,United States,203-876-4766,41.236614,-73.0362329,,,,
CONN POST MALL,723,1201 BOSTON POST RD,,Milford,CT,06460-2703,United States,,41.236614,-73.0362329,,,,
"Ulta Milford, CT",1316,1201 Boston Post Road,,Milford,CT,06460,United States,203-876-4766,41.236614,-73.0362329,,,,
Sephora POUGHKEEPSIE,425,"2001 South Road., Space A208",,Poughkeepsie,NY,12601,United States,(845) 297-5354,41.624351,-73.9204922,,,,
Poughkeepsie Galleria,702,2001 South Rd (Rt 9),,POUGHKEEPSIE,NY,12601,United States,845-298-0572,41.624351,-73.9204922,,,,
Ulta North Haven Commons,1135,370 North Universal Drive,,North Haven,CT,06473,United States,203-234-1489,41.3530055,-72.8744524,,,,
BRASS MILL CTR,749,525 UNION ST,,Waterbury,CT,06706-1246,United States,,41.5463204,-73.0259446,,,,
Sephora WESTFARMS,258,"307 Westfarms Mall, #D114",,West Hartford,CT,06110,United States,(860) 521-7669,41.722523,-72.7620098,,,,
Sephora FARMINGTON,323,110 Albany turnpike Suite #607,,Canton,CT,06019,United States,(860) 693-8955,41.8224465,-72.8829132,,,,
Ulta Avon Marketplace,1267,380 West Main St,,Avon,CT,06601,United States,860-674-1835,41.8156153,-72.8627549,,,,
Ulta The Plaza @ Buckland Hills,1280,1464  Pleasant Valley Road,,Manchester,CT,06040,United States,860-648-9260,41.8052585,-72.5584485,,,,
Sephora Evergreen Walk,432,"200 Evergreen Wy., Suite #264",,South Windsor,CT,06074,United States,(860) 648-4000,41.8110836,-72.5570457,,,,
Sephora MOHEGAN SUN,412,"1 Mohegan Sun Blvd., Space #C-120",,Uncasville,CT,06382,United States,(860) 886-0433,41.4917983,-72.0903993,,,,
Greentree Mall,597,757 E Lewis & Clark Pkwy Ste701,,CLARKSVILLE,IN,47129,United States,812-282-0401,38.314988,-85.7637073,,,,
Macys Kenwood Town Center,86,7875 Montgomery Road,,Cincinnati,OH,45236,United States,513-745-5380,39.2025027,-84.3770223,,,,
Ulta Sycamore Plaza,1271,7800 Montgomery Road,,Cincinnati,OH,45236,United States,513-793-5100,39.1977201,-84.378572,,,,
Ulta The Summit at Louisville,966,4292 Summit Plaza Drive,,Louisville,KY,40241,United States,502-326-9958,38.3094981,-85.5777237,,,,
Mall St Matthews,600,5000 Shelbyville Rd,,LOUISVILLE,KY,40207,United States,502-897-3161,38.2504447,-85.6246095,,,,
Macys Oxmoor Center,88,7900 Shelbyville Road,,Louisville,KY,40222,United States,502-423-3000,38.2473268,-85.6100489,,,,
Sephora OXMOOR,205,"7900 Shelbyville Road, #D5",,Louisville,KY,40222,United States,(502) 326-2966,38.2465422,-85.6103634,,,,
EASTGATE MALL,650,4621 EASTGATE BLVD,,Cincinnati,OH,45245-1297,United States,,39.1042768,-84.2767826,,,,
Jefferson Mall,634,4803 Outer Loop Rd,,LOUISVILLE,KY,40219,United States,502-968-3381,38.137844,-85.6698288,,,,
"Ulta Evansville, IN",1363,"6601 E Lloyd Expressway, Suite 1A",,Evansville,IN,47715,United States,812-401-8430,37.9749046,-87.4700422,,,,
Sephora EVANSVILLE,332,800 N. Green River Rd Space # 136,,Evansville,IN,47715,United States,(812) 475-8800,37.9839976,-87.4960356,,,,
Ulta South Park Shopping Center,978,3220 Nicholasville Road,,Lexington,KY,40503,United States,859-272-1022,37.9939931,-84.5224477,,,,
Sephora TYSONS CORNER,268,"7924 Tysons Corner Center,  Space #E4U",,McLean,VA,22102,United States,(703) 917-0002,38.9167494,-77.2197647,,,,
St Charles Towne Center,719,11130 Mall Circle,,WALDORF,MD,20603,United States,301-645-3925,38.6174444,-76.9270209,,,,
Ulta Best Buy Center,990,6575 Frontier Drive,,Springfield,VA,22150,United States,703-971-7900,38.7742226,-77.1715479,,,,
Springfield Mall,619,6699 Springfield Mall,,SPRINGFIELD,VA,22150,United States,703-971-8850,38.773922,-77.1778444,,,,
Sephora RESTON,380,11960 Market Street,,Reston,VA,20190,United States,(703) 435-9099,38.958861,-77.3596136,,,,
Ulta Fair City Mall,1026,9600-U Main Street,,Fairfax,VA,22031,United States,703-426-5313,38.8425605,-77.2742905,,,,
DULLES TOWN CTR,765,21030 DULLES TOWN CIR,,Sterling,VA,20166-2416,United States,,39.0313704,-77.4246488,,,,
HAGERSTOWN,529,,,HAGERSTOWN,MD,00000,United States,,39.6417629,-77.7199932,,,,
Ulta Dulles 28,1213,"22000 Dulles Retail Center, Suite 136",,Sterling,VA,20166,United States,703-444-4081,39.0064221,-77.4370235,,,,
Ulta Centre at Hagerstown,1207,17758 Garland Groh Blvd.,,Hagerstown,MD,21740,United States,301-797-5843,39.6555915,-77.7532042,,,,
Sephora FAIR OAKS,263,11828L Fair Oaks,,Fairfax,VA,22033,United States,(703) 591-8036,38.8643243,-77.3564553,,,,
Fair Oaks Mall,495,11801 Fair Oaks Mall,,FAIRFAX,VA,22033,United States,703-385-1500,38.8616475,-77.3585411,,,,
Ulta Fair Lakes Center,1087,13048 A  Fair Lakes Center,,Fairfax,VA,22033,United States,703-222-6060,38.8568513,-77.3942451,,,,
WOODBRIDGE,500,,,WOODBRIDGE,VA,00000,United States,,38.6581722,-77.2497049,,,,
Ulta Town Square Mall,1390,2417 Vestal Parkway East,,"Vestal,",NY,13850,United States,607-797-3069,42.0970137,-76.0122317,,,,
"Ulta Vestal, NY",1391,2417 Vestal Parkway East,,Vestal,NY,13850,United States,607-797-3069,42.0970137,-76.0122317,,,,
Ulta Azalea Square,1270,434 Azalea Square Blvd.,,Summerville,SC,29483,United States,843-821-4059,33.0405676,-80.1582438,,,,
Ulta University Town Center,1130,103 North Cattlemen Road,,Sarasota,FL,34232,United States,941-351-6037,27.3859055,-82.4583118,,,,
SARASOTA,565,,,SARASOTA,FL,00000,United States,,27.3364347,-82.5306527,,,,
Ulta The Shoppes at River Crossing,1197,5080 Riverside Drive,,Macon,GA,31210,United States,478-471-0171,32.9250006,-83.7151055,,,,
Sephora AUGUSTA,317,3450 Wrightsboro road Suite #2520,,Augusta,GA,30909,United States,(706) 736-6511,33.465722,-82.081031,,,,
Ulta Sarasota Pavillion,1054,6515 S. Tamiami Trail,,Sarasota,FL,34240,United States,941-923-5700,27.2608382,-82.5211893,,,,
"Ulta Augusta, GA",1378,257 Robert C. Daniels Jr. Pkwy.,,Augusta,GA,30909,United States,706-736-5202,33.4872751,-82.0820104,,,,
Ulta The Landing at Tradition,1120,10740 SW Village Parkway,,Port St. Lucie,FL,34987,United States,772-345-2740,27.2686818,-80.4262463,,,,
"Ulta Stuart, FL",1386,2455 NW Federal Highway,,Stuart,FL,34994,United States,772-232-4925,27.2352007,-80.266675,,,,
Ulta Dothan Pavilion,1138,"4401 Montgomery Hwy., Suite 500",,Dothan,AL,36303,United States,334-671-7003,31.2647673,-85.4438291,,,,
Ulta Columbus Park Crossing,1110,"5550 Whittlesey Road, Suit 600",,Columbus,GA,31909,United States,706-660-1858,32.5395812,-84.9546867,,,,
"Ulta Lisbon, CT",1461,"160 River Road, Suite A-140",,Lisbon,CT,06351,United States,860-376-4288,41.586108,-71.9917283,,,,
Sephora HOLYOKE,172,50 Holyoke street Space #C327,,Holyoke,MA,01040,United States,(413)-536-7500,42.167247,-72.6413271,,,,
HOLYOKE,535,,,HOLYOKE,MA,00000,United States,,42.2042586,-72.6162009,,,,
Crossgates Mall,681,Store:120 Washington Ave Ext Ste 40,,ALBANY,NY,12203,United States,518-456-0824,42.687934,-73.847441,,,,
Sephora COLONIE CENTER,233,"131 Colonie Center, Space 130",,Albany,NY,12205,United States,(518) 453-9900,42.7114469,-73.8150962,,,,
Ulta Warwick Center,1167,1350 East Bald Hill Road,,Warwick,RI,02886,United States,401-826-3295,41.7020678,-71.4927442,,,,
Warwick Mall,521,400 Bald Hill Rd,,WARWICK,RI,02886,United States,401-739-7010,41.721194,-71.482661,,,,
CLIFTON PARK CTR,629,22 CLIFTON COUNTRY RD STE 2,,CLIFTON PARK,NY,12065-3810,United States,518-371-1500,42.8584127,-73.7782145,,,,
Macys Warwick Mall,15,400 Warwick Mall,,Warwick,RI,02886,United States,401-727-3800,41.7242279,-71.4763161,,,,
Sephora Worcester,438,"70 Worcester-Providence Turnpike, Space #509",,Millbury,MA,01527,United States,5088656699,42.195447,-71.778282,,,,
Sephora PROVIDENCE PLACE,280,168 Providence Place,,Providence,RI,02903,United States,(401) 270-8989,41.8289204,-71.4172798,,,,
Ulta North Attleboro Marketplace,1147,"1360 S. Washington Street, Unit 1",,North Attleboro,MA,02760,United States,508-695-0512,41.9377478,-71.3456252,,,,
Macys Fayette,87,3301 Nicholasville Rd.,,Lexington,KY,40503,United States,859-271-7200,37.9909565,-84.5270732,,,,
Sephora FAYETTE MALL,239,"3401 Nicholasville Road, Suite C326",,Lexington,KY,40503,United States,(859) 245-0601,37.9890031,-84.5271844,,,,
Ulta Owensboro Towne Center,1355,"5241 Frederica Street, Suite D",,Owensboro,KY,42301,United States,270-683-3760,37.7159699,-87.1227387,,,,
Ulta Hamburg Pavilion,1230,1956 Pavilion Way,,Lexington,KY,40509,United States,859-232-8947,38.0232448,-84.4152628,,,,
Macys Turtle Crossing,90,5123 Turtle Corssings Blvd,,Dublin,OH,43016,United States,614-760-1201,40.0724695,-83.1328862,,,,
Tuttle Crossing Mall,754,5083 Tuttle Crossing Blvd,,DUBLIN,OH,43016,United States,614-717-0399,40.0737919,-83.1317326,,,,
Ulta Polaris Towne Center,1269,1285 Polaris Pkwy,,Columbus,OH,43240,United States,614-785-0594,40.1398779,-82.9858354,,,,
Macys Polaris Fashion Place,91,1300 Polaris Parkway,,Columbus,OH,43240,United States,614-880-6300,40.1442721,-82.9839499,,,,
Polaris Mall,778,1450 Polaris Pkwy,,COLUMBUS,OH,43240,United States,614-846-1807,40.1414431,-82.979156,,,,
Sephora POLARIS,223,1500 Polaris Parkway,,Columbus,OH,43240,United States,(614) 785-9990,40.1414554,-82.9789514,,,,
Ulta Easton Market,1268,3720 Easton Market,,Columbus,OH,43230,United States,614-473-9146,40.0522881,-82.924902,,,,
"Ulta Winchester, VA",1344,2420 S. Pleasant Valley Road,,Winchester,VA,22601,United States,540-662-1450,39.1547272,-78.1725966,,,,
Ulta Central Park Shopping Center,1012,1696 Carl D. Silver Parkway,,Fredericksburg,VA,22404,United States,540-786-3338,38.3038541,-77.5110521,,,,
Ulta Logan Town Center,1052,205 Falon Lane,,Altoona,PA,16602,United States,814-942-8571,40.4851767,-78.385215,,,,
HORSEHEADS,556,,,HORSEHEADS,NY,00000,United States,,42.167019,-76.8205119,,,,
Ulta Southern Tier Crossing,1240,1520 County Road 64,,Horseheads,NY,14845,United States,607-796-2769,42.1601145,-76.8577509,,,,
GALLERIA MALL,729,560 GALLERIA DR,,JOHNSTOWN,PA,15904-8909,United States,814-269-2171,40.3010644,-78.833619,,,,
"Ulta Glen Allen, VA",1396,9930 Brook Road,,Glen Allen,VA,23059,United States,804-264-7984,37.6701493,-77.4643869,,,,
The Marquis,836,500 Marquis Parkway,,WILLIAMSBURG,VA,23187,United States,757-229-2195,37.2579961,-76.6379899,,,,
"Ulta Williamsburg, VA",1402,5225 Settlers Market Blvd.,,Williamsburg,VA,23188,United States,757-220-8830,37.2775016,-76.7509306,,,,
Ulta Settler's Market at New Town,1403,5225 Settlers Market Blvd #170,,Williamsburgh,VA,23188,United States,757-220-8830,37.2775016,-76.7509306,,,,
The Shops at White Oak Village,583,4541 S. Laburnum Avenue,,Richmond,VA,23231,United States,804-222-2168,37.5311111,-77.3525219,,,,
Ulta Short Pump Station,1250,11351 W. Broad Street,,Glen Allen,VA,23060,United States,804-360-1284,37.6498382,-77.6072943,,,,
Sephora REGENCY SQUARE,264,"1420 Parham Road,  Suite S-129",,Richmond,VA,23229,United States,(804) 750-2800,37.6017464,-77.5672115,,,,
Ulta Jefferson Commons,1030,"12551 Jefferson Ave., Suite 121",,Newport News,VA,23602,United States,757-872-6640,37.12901,-76.5150014,,,,
Peninsula Town Ctr,846,2071 Coliseum Dr,,HAMPTON,VA,23666,United States,757-896-1924,37.0458178,-76.3924083,,,,
Sephora Easton Town Center,436,4174 The Strand,,Columbus,OH,43219,United States,(614) 414-0366,40.053798,-82.9148748,,,,
Macys Easton Town Center,89,4141 Easton Loop East,,Columbus,OH,43219,United States,614-342-2300,40.0530753,-82.9130812,,,,
"Ulta Lancaster, OH",1389,"1635 River Valley Circle South, Suite 101",,Lancaster,OH,43130,United States,740-654-2704,39.73213,-82.628202,,,,
"Ulta Heath, OH",1479,"771 South 30th Street, Store 353",,Heath,OH,43056,United States,740-522-8167,40.0312898,-82.4439172,,,,
"Ulta Sandusky, OH",1283,"4020 Milan Rd., Unit #915",,Sandusky,OH,44870,United States,419-621-1345,41.4213883,-82.67243,,,,
Ashland Town Center,737,500 Winchester Ave,,ASHLAND,KY,41101,United States,606-324-0168,38.4838122,-82.653046,,,,
Ulta West Market Plaza,1286,"3879 Medina Road, Suite 10",,Akron,OH,44333,United States,330-665-5341,41.1379083,-81.6382862,,,,
Sephora AKRON,382,3282 W. Market St.,,Fairlawn,OH,44333,United States,(330) 864-1000,41.1322,-81.6183383,,,,
AKRON,800,,,AKRON,OH,00000,United States,,41.0814447,-81.5190053,,,,
Ulta Cotswold Village Shops,995,236 South Sharon Amity Road,,Charlotte,NC,28211,United States,704-442-8404,35.177091,-80.8016064,,,,
Sephora SOUTH PARK,272,4400 Sharon Road #E 11A,,Charlotte,NC,28211,United States,(704) 366-5080,35.1518494,-80.8317485,,,,
"Belk, SouthPark Mall",1624,4400 Sharon Rd.,,Charlotte,NC,28211,United States,(704) 364-4411 x250,35.1518374,-80.8304036,,,,
Ulta University Place Shopping Center,1090,8720-5 J.W. Clay Blvd.,,Charlotte,NC,28262,United States,704-510-3646,35.311937,-80.75125,,,,
Carolina Place Mall,717,11017 Carolina Place Pkwy,,PINEVILLE,NC,28134,United States,704-543-4197,35.083179,-80.876232,,,,
MATTHEWS,499,,,MATTHEWS,NC,00000,United States,,35.1168131,-80.7236804,,,,
Ulta Stonecrest Center,983,7844 Rea Road,,Charlotte,NC,28277,United States,704-540-9090,35.0604215,-80.8169489,,,,
Ulta Gaston Mall,1301,415-140 Cox Road,,Gastonia,NC,28054,United States,704-865-9220,35.2635487,-81.1336009,,,,
"Ulta Rock Hill, SC",1491,544 John Ross Parkway,,Rock Hill,SC,29730,United States,803-329-8582,34.9422019,-80.9766796,,,,
ROCK HILL,483,,,ROCK HILL,SC,00000,United States,,34.9248667,-81.0250784,,,,
EMERALD SQ MALL,701,1019 S WASHINGTON ST,,NORTH ATTLEBORO,MA,02760-3651,United States,508-699-6700,41.9460414,-71.3471662,,,,
Ulta Northborough Crossing,1296,8106 Shops Way,,Northborough,MA,01532,United States,508-393-2813,42.293167,-71.672289,,,,
SOLOMON POND MALL,757,573 DONALD LYNCH BLVD,,MARLBOROUGH,MA,01752-4725,United States,508-624-6070,42.3537487,-71.6144144,,,,
NORTH DARTMOUTH,695,,,NORTH DARTMOUTH,MA,00000,United States,,41.640396,-70.9694555,,,,
LEOMINSTER,745,,,LEOMINSTER,MA,00000,United States,,42.5250906,-71.759794,,,,
"Ulta Foxborough, MA",1481,384 Patriot Place,,Foxborough,MA,02035,United States,508-698-5293,42.091649,-71.2686774,,,,
Ulta Sherwood Plaza East,1234,1286 Worcester St.,,Natick,MA,01760,United States,508-655-1535,42.2981544,-71.3821218,,,,
Natick Collection,849,1245 Worcester St,,NATICK,MA,01760,United States,508-651-7041,42.301113,-71.3819171,,,,
Sephora NATICK,284,1245 Worcester St,,Natick,MA,01760,United States,(508) 650-9000,42.301113,-71.3819171,,,,
SANGERTOWN SQ MALL,617,1 SANGERTOWN SQ STE 55,,NEW HARTFORD,NY,13413-1597,United States,315-797-6010,43.0837767,-75.3162279,,,,
Ulta New Hartford Consumer Square,1157,4733 Commercial Dr.,,New Hartford,NY,13413,United States,315-768-7864,43.0930582,-75.3094994,,,,
Sephora DEDHAM,406,512 Legacy Place,,Dedham,MA,02026,United States,(781) 326-0662,42.2308614,-71.1784286,,,,
Sephora CHESTNUT MALL,267,"199 Boylston Street, Space 5203-5205",,Chestnut Hill,MA,02467,United States,(617) 964-0800,42.3214068,-71.1760576,,,,
Ulta Greenwood Mall,1337,"2625 Scottsville Road,, Space 340",,Bowling Green,KY,42104,United States,270-842-3704,36.950738,-86.431789,,,,
St Clair Square,616,245 St Clair Square,,FAIRVIEW HTS,IL,62208,United States,618-632-2300,38.5954731,-89.9832582,,,,
Ulta Fairview Center,1256,6621 N. Illinois Street,,Fairview Heights,IL,62208,United States,618-398-6274,38.5962074,-89.9850857,,,,
HUNTINGTON MALL,633,PO BOX 4220,,BARBOURSVILLE,WV,25504-4220,United States,304-733-0088,38.4095298,-82.2945923,,,,
"Ulta Florissant, MO",1430,"2419 N. Hwy 67, Suite #102",,Florrssant,MO,63033,United States,314-921-2834,38.8057878,-90.3087986,,,,
Sephora ST. LOUIS GALLERIA,157,"2407 St Louis Galleria, Space 2407",,St Louis,MO,63117,United States,(314) 863-2600,38.6349583,-90.3480971,,,,
Macys St Louis Galleria,94,1550 St. Louis Galleria,,St. Louiis,MO,63117,United States,314-359-8858,38.633841,-90.348223,,,,
Ulta Glenbrook North Shopping Center,1328,1032 Glenbrook Way,,Hendersonville,TN,37075,United States,615-824-6567,36.3318029,-86.6239187,,,,
SOUTH COUNTY CTR,607,100 S COUNTY CENTER WAY,,ST LOUIS,MO,63129-1094,United States,314-487-2500,38.506085,-90.329762,,,,
RIVERGATE MALL,667,1000 RIVERGATE PKWY STE 3,,Goodlettsville,TN,37072-2498,United States,,36.303029,-86.698135,,,,
Sephora West County Mall,238,"37 West County Center, #A2",,Des Peres,MO,63131,United States,(314)821-5200,38.601097,-90.4466222,,,,
WEST COUNTY CTR,655,90 W COUNTY CTR,,DES PERES,MO,63131-3701,United States,314-965-9100,38.598773,-90.447613,,,,
Chesterfield Mall,768,11500 Midlothian Turnpike,,RICHMOND,VA,23235,United States,804-897-1288,37.5084707,-77.6090864,,,,
Ulta Chesterfield Towne Center,1019,"11500 Midlothian Turnpike, #800",,Richmond,VA,23235,United States,804-594-7040,37.5084707,-77.6090864,,,,
Sephora CHARLOTTSVILLE,192,1600 Rio Rd E.,,Charlottsville,VA,22901,United States,(434) 974-7887,38.0777655,-78.4745036,,,,
Ulta Fairmount Fair,1243,3541 W. Genesee Street,,Syracuse,NY,13219,United States,315-468-2156,43.0468878,-76.2328967,,,,
Sephora SYRACUSE,398,"9090 Carousel Center, Space #B205",,Syracuse,NY,13290,United States,(315) 472-0709,43.0674803,-76.1711213,,,,
Southpark Mall,704,6 Southpark Mall,,COLONIAL HTS,VA,23834,United States,804-526-1487,37.254185,-77.392182,,,,
Sephora VIRGINIA BEACH,318,"701 Lynnhaven Park ,  Suite #1068",,Virginia Beach,VA,23452,United States,(757) 498-3888,36.8165135,-76.0708276,,,,
Ulta Barracks Road Shopping Center,1285,977 Emmet Street,,Charlottesville,VA,22903,United States,434-293-4958,38.0508927,-78.5035705,,,,
Ulta Landstown Commons,1227,"3300 Princess Anne Road, Suite 731",,Virginia Beach,VA,23456,United States,757-368-2089,36.7725314,-76.0850607,,,,
CHESAPEAKE,794,,,CHESAPEAKE,VA,00000,United States,,36.7682088,-76.2874927,,,,
Westmoreland Mall,586,5256 Route 30,,GREENSBURG,PA,15601,United States,724-836-8110,40.2948045,-79.4718103,,,,
EASTVIEW MALL,524,600 EASTVIEW MALL,,VICTOR,NY,14564-1002,United States,585-425-7700,43.0308519,-77.4470897,,,,
MONROEVILLE,498,,,MONROEVILLE,PA,00000,United States,,40.4211798,-79.7881024,,,,
TARENTUM,802,,,TARENTUM,PA,00000,United States,,40.6014555,-79.7597709,,,,
Ulta Monroeville Mall,1017,701 Monroeville Mall,,Monroeville,PA,15146,United States,412-374-1318,40.429777,-79.7911061,,,,
Sephora STRONGSVILLE,167,26 Southpark Center,,Strongsville,OH,44136,United States,(440) 572-5700,41.3102816,-81.823772,,,,
Ulta The Plaza At Southpark,1122,16640 Royalton Road,,Strongsville,OH,44136,United States,440-238-0371,41.313099,-81.8159216,,,,
Avon Crossing,739,1301 Center Rd,,AVON,OH,44011,United States,440-695-3011,41.4708866,-82.0194988,,,,
Sephora CROCKER PARK,166,160 Crocker Park Blvd,,Westlake,OH,44145,United States,(440) 617-0708,41.4600123,-81.9512458,,,,
"Ulta Stow, OH",1410,4278-4282-4286 Kent Rd.,,Stow,OH,44224,United States,330-686-2465,41.1533337,-81.4100774,,,,
Ulta Westgate Mall,1139,3181 Westgate,,Fairview Park,OH,44126,United States,440-331-4078,41.46052,-81.8498488,,,,
The Highlands,878,515 Cabela Dr,,TRIADELPHIA,WV,26059,United States,304-547-9640,40.055481,-80.6017828,,,,
"Ulta Solon, OH",1419,6025 Kruse Drive,,Solon,OH,44139,United States,440-248-5618,41.3930186,-81.4427703,,,,
"Ulta Charleston, WV",1406,"216 RHL Boulevard, Suite A",,Charleston,WV,25309,United States,304-744-5459,38.3290449,-81.7146234,,,,
Sephora BEACHWOOD,237,26300 Cedar Road #1110,,Beachwood,OH,44122,United States,(216) 514-9984,41.4985554,-81.4943391,,,,
Sephora Charleston WV,428,1019 Charleston Town Center,,Charleston,WV,25389,United States,3043457900,38.3528417,-81.6381971,,,,
TOWN CTR,686,401 LEE ST E,,CHARLESTON,WV,25301-1595,United States,304-345-9075,38.353503,-81.636365,,,,
Ulta Eastgate Shopping Center,1326,1405 SOM Center Rd,,Mayfield Heights,OH,44124,United States,440-683-9015,41.5221098,-81.4372735,,,,
SOUTHERN PARK MALL,653,7401 MARKET ST,,BOARDMAN,OH,44512-5694,United States,330-758-6451,41.020759,-80.6627327,,,,
Ulta Mooresville Crossing,1079,609 River Highway,,Mooresville,NC,28117,United States,704-664-2745,35.5938426,-80.8731537,,,,
VALLEY HILLS MALL,706,1970 US HWY 70 SE,,HICKORY,NC,28602-5158,United States,828-328-2661,35.7024621,-81.3050078,,,,
Hanes Mall,601,3320 Silas Creek Pkwy Ste 460,,WINSTON-SALEM,NC,27103,United States,336-768-2510,36.0718123,-80.2993359,,,,
"Ulta Spartanburg, SC",1452,1506 W. O. Ezell Blvd,,Spartanburg,SC,29301,United States,864-595-3682,34.9380226,-81.9887286,,,,
Ulta The Village at Sandhill,1055,214 Forum Drive,,Columbia,SC,29229,United States,803-462-1488,34.1295614,-80.8764714,,,,
Ulta Southern Pines Village,1488,"174 Brucewood, Road",,Southern Pines,NC,28387,United States,910-246-2410,35.1713505,-79.4212454,,,,
Sephora Columbiana,429,"100 Columbiana Cir, Space #1056",,Columbia,SC,29212,United States,8037490780,34.0806036,-81.1574037,,,,
Ulta Columbiana on Park,1307,320 Harbison Blvd. Suite C,,Columbia,SC,29212,United States,803-749-5757,34.0782839,-81.1523837,,,,
"Ulta Columbia, SC (Columbiana Pk)",1308,320 Harbison Blvd. Suite C,,Columbia,SC,29212,United States,803-749-5757,34.0782839,-81.1523837,,,,
Ulta The Shops at Friendly Center,1178,"3350 West Friendly Avenue, Suite 111",,Greensboro,NC,27410,United States,336-299-9495,36.0879825,-79.8400224,,,,
Sephora Greensboro,434,803B Friendly Center Rd,,Greensboro,NC,27408,United States,3368528990,36.0869607,-79.8309321,,,,
COLUMBIA,812,,,COLUMBIA,SC,00000,United States,,34.0007104,-81.0348144,,,,
Ulta Columbia. SC (Cross  Hill),1475,"702 Cross Hill Road, Suite  300C",,Columbia,SC,29205,United States,803-790-8009,33.9926126,-80.9753454,,,,
Ulta The Shops at Greenridge,1040,"1125 Woodruff Road, Suite 101",,Greenville,SC,29607,United States,864-288-7444,34.8308057,-82.2983116,,,,
Sephora Greenville,433,"700 Haywood Rd., Ste. #1011",,Greenville,SC,29607,United States,(864) 676-2884,34.849955,-82.3330837,,,,
HAYWOOD MALL,547,700 HAYWOOD RD,,GREENVILLE,SC,29607-2794,United States,864-297-3550,34.849955,-82.3330837,,,,
"Ulta Florence, SC",1397,1945 Palmetto St.,,Florence,SC,29501,United States,843-662-3097,34.1881954,-79.8106652,,,,
Macys South Shore,13,250 Granite Street,,Braintree,MA,02184,United States,,42.2200925,-71.0226617,,,,
"Ulta Braintree, MA",1374,350 Grossman Dr,,Braintree,MA,02184,United States,781-356-1792,42.2139042,-70.9993424,,,,
Sephora PRUDENTIAL CENTER,270,"800 Bolyston Street, Sp 157",,Boston,MA,02199,United States,(617) 262-4200,42.344306,-71.0978871,,,,
Sephora BURLINGTON,260,75 Middlesex Turnpike #1061,,Burlington,MA,01803,United States,(781) 270-2382,42.481127,-71.216752,,,,
Macys Burlington (MA),14,1300 Middlesex Turnpike,,Burlington,MA,01803,United States,781-272-6000,42.4809813,-71.212533,,,,
Sephora CAMBRIDGESIDE,190,100 CambridgeSide Place space E114,,Cambridge,MA,02141,United States,(617) 577-1005,42.3681263,-71.076239,,,,
Macys Boston (Downtown),10,450 Washington Street,,Boston,MA,02111,United States,617-357-3000,42.3544687,-71.0603491,,,,
Ulta Webster Square,1343,260 Daniel Webster Highway,,Nashua,NH,03060,United States,603-888-5698,42.7081338,-71.4413513,,,,
Ulta The Village at Colony Place,1137,188 Colony Place,,Plymouth,MA,02360,United States,508-746-4811,41.9527951,-70.713515,,,,
Ulta Gateway Center,1168,15 Mystic View Road,,Everett,MA,02149,United States,617-381-0040,42.4001035,-71.0676507,,,,
Macys Salem - Rockingham,16,85 Rockingham Park Blvd,,Salem,NH,00000,United States,,42.7661111,-71.2303136,,,,
Sephora ROCKINGHAM,262,"99 Rockingham Park Blvd,  Space E211C",,Salem,NH,03079,United States,(603) 870-0005,42.7661196,-71.2303197,,,,
NORTHSHORE MALL,742,210 ANDOVER ST,,PEABODY,MA,01960-1525,United States,978-977-3050,42.5412609,-70.9439664,,,,
Ulta Northshore Mall,1303,210 Andover St,,Peabody,MA,01960,United States,978-531-0246,42.5412609,-70.9439664,,,,
"Ulta Fenton, MO",1427,189 Gravois Bluffs Blvd.,,Fenton,MO,63026,United States,636-326-1486,38.5016632,-90.4447586,,,,
Summit  @ Gravois Bluff,891,798 Gravois Bluffs Blvd,,FENTON,MO,63026,United States,636-203-9338,38.5035094,-90.4554778,,,,
Ulta Manchester Highlands,1142,121 Highlands Blvd. Drive,,Manchester,MO,63011,United States,636-527-6974,38.593953,-90.5056583,,,,
MT JULIET,809,,,MT JULIET,TN,00000,United States,,36.200055,-86.5186054,,,,
MID RIVERS MALL,741,4 MID RIVERS MALL,,ST PETERS,MO,63376-4301,United States,636-970-2115,38.797185,-90.6205885,,,,
Sephora CHESTERFIELD MALL,217,2008 Chesterfield Mall,,Chesterfield,MO,63017,United States,(636) 536-6999,38.6528061,-90.5648029,,,,
Ulta Chesterfield Commons East,1222,46 THF Blvd,,Chesterfield,MO,63005,United States,636-534-2828,38.6665248,-90.5866769,,,,
Ulta The Shops at Boardman Park,1325,403 Boardman Poland Road,,Boardman,OH,44512,United States,330-629-6276,41.0243161,-80.6501325,,,,
Ulta Shoppes of Mentor,1152,9623 Mentor Ave.,,Mentor,OH,44060,United States,440-354-6277,41.6853073,-81.2947705,,,,
Macys Robinson Mall,93,3000 Robinsons Center Drive,,Pittsburgh,PA,15205,United States,412-787-9777,40.4562148,-80.1580334,,,,
Robinson Town Center,779,2000 Robinson Town Center,,PITTSBURG,PA,15205,United States,412-787-9778,40.4555211,-80.1577974,,,,
Ulta Settler Ridge,1330,1310 Settler Ridge Center Dr,,Pittsburgh,PA,15205,United States,412-787-8780,40.4397935,-80.1478133,,,,
Sephora SOUTH HILLS VILLAGE,301,"301 South Hills Village,  Space 1405A",,Pittsburgh,PA,15241,United States,(412) 854-1111,40.3423756,-80.0560528,,,,
Ulta North Hills Village Mall,1038,"4801 McKnight Road, #11",,Pittsburgh,PA,15237,United States,412-367-5166,40.522828,-80.006531,,,,
Macys Ross Park,92,1004 Ross Park Mall,,Pittsburgh,PA,15237,United States,412-366-1400,40.5410497,-80.0084278,,,,
Sephora ROSS PARK,235,"1000 Ross Park Mall Dr, Space C07A",,Pittsburgh,PA,15237,United States,(412) 364-3311,40.5445585,-80.0087394,,,,
Sephora SHADYSIDE,281,5526 Walnut St.,,Pittsburgh,PA,15232,United States,(412) 687-2484,40.451502,-79.9327691,,,,
Ulta The Stacks at the Waterfront,968,105 W. Bridge Street,,Homestead,PA,15160,United States,412-461-4913,40.408704,-79.9163454,,,,
Ulta University Commons,1089,1461-B University Drive,,Burlington,NC,27215,United States,336-538-2025,36.0680517,-79.5195739,,,,
Sephora ALAMANCE,329,921 Boston Dr,,Burlington,NC,27215,United States,(336) 584-1214,36.0706812,-79.5082501,,,,
Alamance Crossing,823,3141 Watermill Dr,,BURLINGTON,NC,27215,United States,336-524-9012,36.0689154,-79.5060905,,,,
Ulta Asheville Mall,1223,3 South Tunnel Road,,Asheville,NC,28805,United States,828-298-0399,35.580897,-82.5266687,,,,
Ulta Cross Point Center,1067,5075 Morganton Rd,,Fayetteville,NC,28314,United States,910-487-0281,35.0678495,-78.9638399,,,,
Cross Creek Mall,484,300 Cross Creek Mall,,FAYETTEVILLE,NC,00000,United States,910-864-2525,35.0483272,-78.877269,,,,
Ulta Midtown Park,1254,3516 Clemson Blvd.,,Anderson,SC,29621,United States,864-226-3357,34.5502617,-82.6755344,,,,
THE MALL,676,2011 N ROAN ST,,JOHNSON CITY,TN,37601-3130,United States,423-282-6606,36.3382979,-82.3776241,,,,
Ulta Beaver Creek Crossing,1099,1521 Beaver Creek Commons Drive,,Apex,NC,27502,United States,919362-0415,35.7447957,-78.8850699,,,,
"Ulta Holly Springs, NC",1434,"1004 New Hill Road, Suite #205",,Holly Springs,NC,27540,United States,919-557-0167,35.659968,-78.850152,,,,
Sephora SOUTHPOINT,282,"6910 Fayetville Rd, Suite 181",,Durham,NC,27713,United States,(919) 544-4905,35.9034513,-78.9431065,,,,
Ulta Renaissance Center IV,1029,6923 Fayetteville Road,,Durham,NC,27713,United States,919-405-2223,35.9035555,-78.9386141,,,,
Ulta Cary Crossroads,976,409 Crossroads Blvd.,,Cary,NC,27511,United States,919-859-1970,35.7616331,-78.735708,,,,
Sephora CRABTREE MALL,133,4325 Glenwood Avenue,,Suite 2088 Raleigh,NC,27612,United States,(919) 781-9622,35.8399958,-78.6791983,,,,
Macys Northshore,12,210 Andover Street,,Peabody,MA,01960,United States,978-531-3800,42.5412609,-70.9439664,,,,
SALEM,486,,,SALEM,NH,00000,United States,,42.7885553,-71.2008912,,,,
Sephora Cape Cod,427,"793 Iyannough Rd, Space S182A",,Hyannis,MA,02601,United States,5087905757,41.6675395,-70.2963224,,,,
Ulta Mall of New Hampshire,1295,"1500 South Willow Street, Space S157A",,Manchester,NH,03103,United States,603-623-9147,42.9553882,-71.4327448,,,,
LEBANON,609,,,LEBANON,NH,00000,United States,,43.6422934,-72.2517569,,,,
"Ulta Newington, NH",1444,45 Gosling Road,,Newington,NH,03801,United States,603-431-4498,43.0932831,-70.8003829,,,,
Ulta Towne Center at Watertown,1360,"21835 Towne Center Drive,, Suite D 5",,Watertown,NY,13601,United States,315-785-1013,43.9711353,-75.9645373,,,,
Ulta Webster Towne Center,1171,913 Holt Road,,Webster,NY,14580,United States,585-872-0750,43.2138642,-77.4466302,,,,
Ulta Market Place Square,1166,"720 Jefferson Road, Suite 100",,Rochester,NY,14623,United States,585-292-1250,43.0885546,-77.6239881,,,,
Ulta Waterside Marketplace,1109,50523 Waterside Drive,,Chesterfield Township,MI,48051,United States,586-949-4617,42.6695048,-82.8320547,,,,
Waterside Marketplace,871,50753 Waterside Drive,,CHESTERFIELD TWP,MI,48051,United States,586-913-8001,42.6707243,-82.8295418,,,,
Mill Creek Mall,635,840 Mill Creek Mall,,ERIE,PA,16565,United States,814-868-5261,42.07108,-80.2233422,,,,
Ulta Kingsport Pavilion,1219,"2626 E. Stone Dr., suite 130",,Kingsport,TN,37660,United States,423-245-1076,36.5507415,-82.495921,,,,
"Ulta Roanoke, VA",1451,"4802 Valley View Blvd, Suite LF 248",,Roanoke,VA,24012,United States,540-561-0809,37.3042322,-79.9612638,,,,
"Belk, Crabtree Valley Mall",1623,4325 Glenwood Ave.,,Raleigh,NC,27612,United States,(919) 782-7010 x262,35.8399958,-78.6791983,,,,
Ulta White Oak Crossing,1306,165 Shenstone Blvd.,,Garner,NC,27529,United States,919-662-8268,35.6943035,-78.5802626,,,,
Ulta Triangle Towne Plaza,1044,"3604 Sumner Blvd., Suite 108",,Raleigh,NC,27616,United States,919-792-9000,35.8621455,-78.5774073,,,,
Ulta Coastal Grand Mall,1124,710 Coastal Grand Circle,,Myrtle Beach,SC,29577,United States,843-448-0900,33.7047681,-78.9248843,,,,
Coastal Grand Mall,887,1800 Coastal Grand Circle,,MYRTLE BEACH,SC,29577,United States,843-849-0088,33.7017067,-78.9216402,,,,
"Ulta Knoxville, TN",1469,,,Knoxville,TN,37934,United States,865-966-7222,35.9606384,-83.9207392,,,,
Ulta McEver's Corners,1193,"983 Dawsonville Highway, N.W., Suite B,",,Gainesville,GA,30501,United States,770-535-3636,34.3003985,-83.8589528,,,,
Ulta Mayfaire Towne Center,1041,840 Inspiration Drive,,Wilmington,NC,28405,United States,910-509-2122,34.2437071,-77.8302966,,,,
Turkey Creek,738,11534 Parkside Dr,,FARRAGUT,TN,37934,United States,865-288-6708,35.8974456,-84.1693062,,,,
Ulta Mall of Georgia Crossing,936,"3205 Woodward Crossing Blvd., Suite 220",,Buford,GA,30519,United States,678-482-1887,34.0703302,-83.9811196,,,,
Sephora MALL OF GEORGIA,299,"3333 Buford Drive,  Space #1046B",,Buford,GA,30519,United States,(770) 614-3499,34.0636658,-83.9835785,,,,
MALL OF GEORGIA,773,3333 BUFORD DR,,BUFORD,GA,30519-4930,United States,770-831-0252,34.0651493,-83.9847659,,,,
Ulta Lynncroft Shopping Center,1215,"3120 Evans Street, suite 105",,Greenville,NC,27834,United States,252-215-1090,35.5746589,-77.3830567,,,,
Ulta Jacksonville Mall,1233,"361 Jacksonville Mall, Unit K",,Jacksonville,NC,28546,United States,910-353-0918,34.7653549,-77.3810673,,,,
Ulta Marketplace Boulevard,1068,2295 Market Place Blvd.,,Cumming,GA,30040,United States,770-887-2429,34.1947856,-84.1287235,,,,
Ulta Snellville Pavilion,934,"2059 Scenic Highway, Suite 107",,Snellville,GA,30078,United States,770-979-7151,33.8636386,-84.0181221,,,,
ALPHARETTA,560,,,ALPHARETTA,GA,00000,United States,,34.0753762,-84.2940899,,,,
Sephora NORTH POINT,310,"1000 North Point Circle,  Space 1034",,Apharetta,GA,30022,United States,(770) 475-4878,34.0471436,-84.2951268,,,,
Ulta Mansell Crossings Shopping Center,899,"7671 North Point Parkway, 5B",,Alpharetta,GA,30022,United States,770-992-2245,34.0411467,-84.3067968,,,,
MALL @ STONECREST,780,8040 MALL PKWY,,LITHONIA,GA,30038-2542,United States,770-484-5604,33.6922299,-84.0915742,,,,
Ulta Canton Marketplace,1133,"1810 Cumming Hwy, Suite 640",,Canton,GA,30114,United States,770-479-4656,34.2365046,-84.4591529,,,,
Ulta Perimeter Village Shopping Center,908,4737 Ashford Dunwoody Road,,Dunwoody,GA,30338,United States,770-698-8337,33.9338419,-84.3376415,,,,
Ulta Merchants Walk,1334,"1311 Johnson Ferry Rd., Suite 556",,Marietta,GA,30068,United States,770-578-3352,33.9804759,-84.4279467,,,,
Sephora LENOX SQUARE,315,"3393 Peachtree Rd. NE, Suite 3042",,Atlanta,GA,30326,United States,(404) 816-0123,33.8466715,-84.3619433,,,,
Sephora El Paso,387,"8401 Gateway Boulevard West, Space E11B",,El Paso,TX,79925,United States,9157710203,31.7754938,-106.3793949,,,,
Cielo Vista Mall,550,8401 Gateway W,,El PASO,TX,79925,United States,915-779-2000,31.7748442,-106.3793053,,,,
Ulta Sunland Plaza,1151,"813 Sunland Park Drive, Suite B",,El Paso,TX,79922,United States,915-581-0314,31.8184751,-106.5496109,,,,
El Mercado Plaza,867,1950 Joe Battle Blvd,,EL PASO,TX,79938,United States,915-856-0437,31.7668405,-106.2670722,,,,
Ulta El Paseo Marketplace,1150,1864 Joe Battle Blvd.,,El Paso,TX,79936,United States,915-857-0632,31.7579806,-106.265041,,,,
Ulta Cottonwood Mall,1281,"10,000 Coors Blvd. N.W.",,Albuquerque,NM,87114,United States,505-792-0834,35.0800363,-106.7103845,,,,
Sephora ALBUQUERQUE,321,6600 Menaul NE Space M1,,Albuquerque,NM,87110,United States,(505) 816-0112,35.1071069,-106.572767,,,,
Coronado Center,718,6600 Menaul Blvd NE Ste 3439,,ALBUQUERQUE,NM,87110,United States,505-883-5800,35.1071069,-106.572767,,,,
Cottonwood Mall,756,10000 Coors Bypass NW,,ALBUQUERQUE,NM,87114,United States,505-890-8727,35.198731,-106.657663,,,,
MUSIC CITY MALL,536,4101 E 42ND ST,,Odessa,TX,79762-7287,United States,,31.8924701,-102.3412492,,,,
"Ulta Odessa, TX",1341,350 Route 110,,Odessa,TX,79762,United States,432-362-0287,31.8814189,-102.285316,,,,
Macys Lenox Square,102,3393 Peachtree Rd. NE,,Atlanta,GA,30326,United States,404-231-2800,33.8478479,-84.3636018,,,,
Ulta Buckhead Station Shopping Center,930,"3495 Buckhead Loop, Suite 120",,Atlanta,GA,30326,United States,404-266-3559,33.849788,-84.370181,,,,
Ulta Woodstock Shopping Center,959,"124 Woodstock Square Ave., Suite 600",,Woodstock,GA,30189,United States,678-494-0081,34.08332,-84.546434,,,,
Ulta The District at Howell Mill,1071,"1801 Howell Mill Road, Suite 240",,Atlanta,GA,30318,United States,404-355-1326,33.8032756,-84.4119187,,,,
Ulta Heritage Point Shopping Center,912,2540 Cumberland Blvd.,,Smyrna,GA,30080,United States,770-432-4775,33.8885479,-84.4777318,,,,
Town Center Mall,771,400  Ernest W Barrett Pkwy NW,,KENNESAW,GA,30144,United States,770-514-7101,34.0139948,-84.5614171,,,,
Macys Town Center at the Cobb,103,400 Ernest Barrett Pkwy.,,Kennesaw,GA,30144,United States,678-290-2500,34.0139948,-84.5614171,,,,
Sephora KENNESAW,374,400 Barrett Pkwy suite #236,,Kennesaw,GA,30144,United States,(770) 426-1418,34.018009,-84.5642655,,,,
South Point Shopping Center,811,1380 Hwy 20 West,,MCDONOUGH,GA,30253,United States,770-957-0312,33.4247593,-84.1865433,,,,
Ulta Barrett Pavilion,904,680 Barrett Parkway,,Kennesaw,GA,30144,United States,770-419-2755,34.0086653,-84.5737265,,,,
Ulta Fayette Pavilion Center,1098,110A Pavilion Parkway,,Fayetteville,GA,30214,United States,770-461-1319,33.4785313,-84.4391535,,,,
Hiram Square,488,5043 Jimmy Lee Smith Pkwy.,,HIRAM,GA,30141-2733,United States,770-250-1860,33.888601,-84.7456104,,,,
Ulta McKinley Mall,1158,"3701 McKinley Parkway, Suite 202",,Buffalo,NY,14219,United States,716-826-2152,42.7868784,-78.8111532,,,,
McKinley Mall,720,6 McKinley Mall,,BLASDELL,NY,14219,United States,716-822-1166,42.7847777,-78.8074512,,,,
Boulevard Mall,623,1303 Niagra Falls Blvd,,AMHERST,NY,14226,United States,716-837-2100,42.9898899,-78.8195329,,,,
Ulta The Terrace,1156,"2220 Hamilton Place Blvd, Suite 110",,Chattanooga,TN,37421,United States,423-893-0598,35.0394252,-85.1542138,,,,
Hamilton Place,493,2100 Hamilton Place Blvd,,CHATTANOOGA,TN,37421,United States,423-894-2330,35.0345929,-85.158861,,,,
Sephora CHATTANOOGA,408,"2100 Hamilton Place Blvd., Suite 256",,Chattanooga,TN,37421,United States,(423) 893-6181,35.0345929,-85.158861,,,,
Ulta Boulevard Consumer Square,1179,1701 Niagara Falls Blvd.,,Amherst,NY,14228,United States,716-836-0658,43.000758,-78.8205041,,,,
Macys Walden,1,4 Walden Galleria,,Cheektowaga,NY,14225,United States,,42.911036,-78.763142,,,,
Macys Valley Fair,111,4 Walden Galleria,,Cheektowaga,NY,14225,United States,,42.911036,-78.763142,,,,
Walden Galleria,710,3 Walden Galleria Dr,,CHEEKTOWAGA,NY,14225,United States,716-681-5100,42.91288,-78.76232,,,,
Eastern Hills Mall,669,4545 Transit Rd,,WILLIAMSVILLE,NY,14221,United States,716-633-2500,42.9719318,-78.6931906,,,,
SOUTHAVEN,788,,,SOUTHAVEN,MS,00000,United States,,34.9918587,-90.0022958,,,,
Ulta Countrywood Crossing,1163,2273 N. Germantown Parkway,,Cordova,TN,38016,United States,901-377-4819,35.1871607,-89.7951683,,,,
Sephora WOLFCHASE,311,"2760 N. Germantown Parkway,  Suite #271",,Memphis,TN,38133,United States,(901) 388-8466,35.20067,-89.7931468,,,,
Ulta Centennial Commons,1315,7680 Polo Grounds Blvd,,Memphis,TN,38125,United States,901-751-9786,35.0523685,-89.8074323,,,,
Centennial Shopping Center,886,7700 Polo Grounds Blvd,,MEMPHIS,TN,38125,United States,901-620-2800,35.0521397,-89.8061574,,,,
Sephora CARRIAGE CROSSING,303,"4630 Merchants Park Circle,  Suite 709",,Collierville,TN,38017,United States,(901) 861-3400,35.0207052,-89.7199269,,,,
Ulta The Columns,1085,1151 Vann Drive,,Jackson,TN,38305,United States,731-512-0419,35.6656204,-88.8614392,,,,
Ulta Mall at Barnes Crossing,1252,"1001 Barnes Crossing  Rd, #326",,Tupelo,MS,38804,United States,662-842-7074,34.3085524,-88.7016646,,,,
TUPELO,712,,,TUPELO,MS,00000,United States,,34.2576066,-88.7033859,,,,
NORTH LITTLE ROCK,546,,,NORTH LITTLE ROCK,AR,00000,United States,,34.769536,-92.2670941,,,,
"Ulta Little Rock, AR",1453,"207 N. University Ave., Suite 170",,Little Rock,AR,72201,United States,501-660-4096,34.7536015,-92.3396374,,,,
Sephora LITTLE ROCK,328,6000 W Markham Street Space #3130,,Little Rock,AR,72205,United States,(501) 603-9189,34.7535862,-92.3431438,,,,
Shackleford Crossing,830,2600 S. Shackleford Rd,,LITTLE ROCK,AR,72205,United States,501-224-0347,34.7291728,-92.3949916,,,,
"Ulta Florence, AL",1448,374-398 Cox Creek Parkway Unit 7,,Florence,AL,35630,United States,256-764-9323,34.8422923,-87.6383191,,,,
Sephora CHERRY CREEK,373,3000 E first Ave Unit #236,,Denver,CO,80206,United States,(303) 399-8800,39.7175014,-104.952671,,,,
Ulta Lakewood City Commons,950,489 S. Wadsworth Blvd.,,Lakewood,CO,80226,United States,303-984-0202,39.7073438,-105.0833437,,,,
Ulta University Hills Shopping Center,928,"2780 S. Colorado Blvd., Suite 310",,Denver,CO,80222,United States,303-756-7989,39.6659381,-104.9385094,,,,
Northfield at Stapleton,870,8568 E 49th Ave,,DENVER (NE),CO,80238,United States,303-576-6661,39.785447,-104.8885604,,,,
WESTMINSTER,814,,,WESTMINSTER,CO,00000,United States,,39.8366528,-105.0372046,,,,
Ulta Belleview Shores,1274,5284 S. Wadsworth Blvd.,,Littleton,CO,80123,United States,303-973-7244,39.620302,-105.0880186,,,,
Ulta Marketplace @ Northglenn,931,"421 West 104th Avenue, Unit M",,Northglenn,CO,80234,United States,303-450-2333,39.8863966,-104.992122,,,,
Ulta Shoppes at the Meadows,919,8368 S. Willow Street,,Littleton,CO,80124,United States,303-706-9611,39.5646195,-104.8865,,,,
Ulta Cornerstar,1260,"15800 East Briarwood Circle, Unit A",,Aurora,CO,80016,United States,303-680-6033,39.5917389,-104.803047,,,,
LONE TREE,767,,,LONE TREE,CO,00000,United States,,39.536482,-104.8970678,,,,
"Ulta Westminster, CO",1388,14521 Orchard Parkway,,Westminste,CO,80023,United States,303-452-3634,39.960222,-104.9936826,,,,
Sephora FLATIRON CROSSING,184,"One W. Flatiron Crossing Drive, Suite 1008",,Broomfield,CO,80021,United States,(720) 887-9655,39.9321113,-105.1314024,,,,
Ulta Southlands,1104,"24101 E. Orchard Road, Unit D",,Aurora,CO,80016,United States,303-627-0060,39.6089527,-104.7062992,,,,
Prairie Center,579,1950 Prarie Center Pkwy,,Brighton,CO,80601,United States,303-219-9392,39.959733,-104.776111,,,,
WEST PARK MALL,567,200 W PARK MALL,,CAPE GIRARDEAU,MO,63703-6397,United States,573-334-2881,37.298477,-89.5724583,,,,
"Ulta Decatur, AL",1405,2401 6th Ave. SE,,Decatur,AL,35602,United States,256-350-1810,34.564549,-86.974904,,,,
"Ulta Madison, MS",1323,175 Grandview Blvd,,Madison,MS,39110,United States,601-856-8882,32.4643188,-90.1355374,,,,
Sephora JACKSON,378,"1000 Highland Colony Parkway,  Suite #9010",,Ridgeland,MS,39157,United States,(601) 856-8616,32.4339203,-90.147267,,,,
Cool Springs Galleria,577,1780 Galleria Blvd,,FRANKLIN,TN,37067,United States,615-771-7743,35.9594385,-86.8127332,,,,
Sephora HUNTSVILLE,415,"335 The Bridge St., Suite 117",,Huntsville,AL,35806,United States,(256) 327-8737,34.7164141,-86.6740348,,,,
Ulta Bridge Street Town Center,1186,"301 The Bridge Street N.W., Suite 109",,Huntsville,AL,35806,United States,256-327-8571,34.7153731,-86.6740635,,,,
Ulta Market Street Flowood,1239,748 Mackenzie Lane,,Flowood,MS,39232,United States,601-992-7422,32.3373104,-90.0662537,,,,
Market Street @ Flowood,885,200 Market Street,,Flowood,MS,29232,United States,601-863-2021,32.3352661,-90.0671976,,,,
Ulta Midtown Shopping Center,1159,"1800 McFarland Blvd. East, #522",,Tuscaloosa,AL,35404,United States,205-342-2388,33.1945155,-87.5276683,,,,
"Ulta Branson, MO",1471,1033 Branson Hills Parkway,,Branson,MO,65616,United States,417-336-2002,36.6683478,-93.2281658,,,,
Ulta The Avenue at Murfreesboro,1102,"2615 Medical Center Parkway, #800",,Murfreesboro,TN,37129,United States,615-849-7454,35.8628485,-86.4464451,,,,
Sephora BOULDER,214,"1775 29th St, Sp 1086",,Boulder,CO,80301,United States,(303) 443-7700,40.0197695,-105.2562584,,,,
Ulta Harvest Junction North,1100,210 Ken Pratt Blvd.,,Longmont,CO,80501,United States,303-776-0354,40.1533709,-105.0970371,,,,
Sephora FORT COLLINS,330,2720 Council Tree Ave Suite #124,,Ft Collins,CO,80525,United States,(970) 225-1151,40.525125,-105.0260298,,,,
Ulta Front Range Village,1180,4405 Corbett Drive,,Fort Collins,CO,80525,United States,970-266-4949,40.5252777,-105.0270803,,,,
Sephora Colorado Springs,426,"1645 Briargate Parkway, Suite 207",,Colorado Spring,CO,80920,United States,(719) 260-8686,38.9648683,-104.7955511,,,,
Ulta The Shops at Briargate,982,"1845 Briargate Parkway, Suite 407",,Colorado Springs,CO,80920,United States,719-548-9895,38.9625618,-104.7942916,,,,
FORT COLLINS,831,,,FORT COLLINS,CO,00000,United States,,40.5852602,-105.084423,,,,
First & Main Town Center,869,3650 New Center PT,,COLORADO SPRINGS (E),CO,80922,United States,719-550-4660,38.8837374,-104.7177609,,,,
River Landing S/C,843,3400 rio Grande Ave,,MONTROSE,CO,81401,United States,970-249-1988,38.4447495,-107.8701878,,,,
Ulta Canyon View Marketplace,1160,"632 Market St., Ste 500",,Grand Junction,CO,81505,United States,970-263-5440,39.0967513,-108.6037727,,,,
MURFREESBORO,826,,,MURFREESBORO,TN,00000,United States,,35.8456213,-86.39027,,,,
"Ulta Monroe, LA",1358,"4429 Pecanland Mall Drive, Suite 8",,Monroe,LA,71203,United States,318-361-0984,32.4991424,-92.0674401,,,,
Ulta Patton Creek Shopping Center,1174,"4371 Creekside Avenue, Suite 109",,Hoover,AL,35244,United States,205-982-2551,33.3758956,-86.8176831,,,,
TRUSSVILLE,810,,,TRUSSVILLE,AL,00000,United States,,33.6198251,-86.6088756,,,,
Sephora BIRMINGHAM,165,"225 Summit Boulevard, Suite 1100",,Birmingham,AL,35243,United States,(205) 969-4848,33.4488281,-86.7275925,,,,
Ulta Brook Highland Plaza,1183,5267 Highway 280,,Birmingham,AL,35242,United States,205-991-1012,33.4200824,-86.6833443,,,,
Ulta Primrose Marketplace,1445,3434 S. Glenstone Avenue,,Springfield,MO,65804,United States,417-877-0108,37.1511794,-93.2611799,,,,
Battlefield Mall,588,2825 S Glenstone Ave Ste 200,,SPRINGFIELD,MO,65804,United States,417-883-4220,37.1627417,-93.2656737,,,,
NW ARKANSAS MALL,758,4201 N SHILOH DR,,FAYETTEVILLE,AR,72703-3877,United States,479-521-2771,36.1285803,-94.1457625,,,,
Ulta Spring Creek Centre,1263,"3835 N. Mall Avenue, Suite 2",,Fayetteville,AR,72703,United States,479-575-9298,36.1209963,-94.1507349,,,,
Ulta Pinnacle Hills Plaza,1265,"2203 Promenade Blvd, Suite20245",,Rogers,AR,72758,United States,479-631-0038,36.3040235,-94.1738658,,,,
Sephora PINNACLE HILLS,169,"2203 S. 45th Street, Suite 1140",,Rogers,AR,72758,United States,(479) 636-9191,36.3195613,-94.1831155,,,,
Sephora DOWNTOWN SEATTLE,203,415 Pine Street,,Seattle,WA,98101,United States,(206) 624-7003,47.6112837,-122.3363818,,,,
Sephora UNIVERSITY VILLAGE,201,2618 NE University Village St,,Seattle,WA,98105,United States,(206) 526-9110,47.6632666,-122.2993427,,,,
Sephora BELLEVUE SQUARE,200,141 Bellevue Square,,Bellevue,WA,98004,United States,(425) 467-1337,47.6149953,-122.2035083,,,,
Ulta Northgate Mall,1129,"401 NE Northgate Way, Suite 1110",,Seattle,WA,98125,United States,206-367-3462,47.7082792,-122.3236823,,,,
NORTHGATE MALL,485,401 NE NORTHGATE WAY STE 475,,SEATTLE,WA,98125-8514,United States,206-361-2500,47.7082792,-122.3236823,,,,
Macys Southcenter,54,500 South Center Mall,,Tukwila,WA,98188,United States,425-656-6000,47.459807,-122.259188,,,,
Macys Southcenter,55,500 Southcenter Mall,,Tukwila,WA,98188,United States,,47.459807,-122.259188,,,,
Southcenter Mall,548,1249 Southcenter Mall,,SEATTLE,WA,98188,United States,206-246-0850,47.4592301,-122.2576926,,,,
Sephora SOUTHCENTER,181,616 Southcenter Mall,,Seattle,WA,98188,United States,(206) 444-4724,47.4586676,-122.256222,,,,
Ulta Bear Creek Village Shopping Center,1351,"17170 NE Redmond Way, Suite 100",,Redmond,WA,98052,United States,425-497-9117,47.6721643,-122.1117106,,,,
Ulta Parkway Super Center,1039,17320 Southcenter Pkwy,,Tukwila,WA,98188,United States,206-575-1444,47.4483623,-122.2611557,,,,
Ulta Alderwood,1028,"19401 Alderwood Mall Pkwy, #130",,Lynnwood,WA,98036,United States,425-673-0405,47.8218888,-122.2697358,,,,
Macys Alderwood,47,18700 Alderwood Mall Blvd,,Lynnwood,WA,98037,United States,425-712-6850,47.8272155,-122.2688092,,,,
Alderwood Mall,678,18601 33rd Ave W,,LYNNWOOD,WA,98037,United States,425-771-9555,47.829638,-122.276363,,,,
Sephora ALDERWOOD,198,"3000 184 St. SW, Space 302/304",,Lynwood,WA,98037,United States,(425) 776-8010,47.8299542,-122.2725709,,,,
Kitsap Mall,709,PO Box 1070,,SILVERDALE,WA,98383,United States,360-692-1222,47.6445386,-122.6948697,,,,
Ulta Everett Mall,1466,"1402 S.E. Everett Mall Way, Suite 510",,Everett,WA,98208,United States,425-265-7600,47.9096929,-122.2131937,,,,
TACOMA MALL,511,4502 S STEELE STE 200,,TACOMA,WA,98409-7265,United States,253-475-4510,47.2164165,-122.4678568,,,,
South Hill Mall,537,3500 S Meridian Street,,PUYALLUP,WA,98373,United States,253-845-6669,47.157457,-122.2986755,,,,
"Ulta Puyallup, WA",1399,16908 Meridian East,,Puyallup,WA,98375,United States,253-445-6932,47.1028066,-122.2942027,,,,
OLYMPIA,558,,,OLYMPIA,WA,00000,United States,,47.0378741,-122.9006951,,,,
Ulta Valley Mall Plaza,1241,1734 E. Washington,,Union Gap,WA,98903,United States,509-457-7280,46.5687223,-120.4788338,,,,
UNION GAP,507,,,UNION GAP,WA,00000,United States,,46.5573492,-120.4750638,,,,
Vancouver Mall,641,8900 NE Vancouver Mall Dr,,VANCOUVER,WA,98662,United States,360-254-3800,45.6586297,-122.5809513,,,,
Columbia Tech Center,893,19005 SE Mill Plain Blvd,,VANCOUVER,WA,98683,United States,360-253-9550,45.6168215,-122.4783885,,,,
Ulta Columbia Tech Center,1081,"16521 SE Mill Plain Blvd., Building 8A",,Vancouver,WA,98684,United States,360-896-4397,45.6148324,-122.5013788,,,,
"Ulta Portland, OR",1456,2201 Lloyd Center,,Portland,OR,97232,United States,503-281-6290,45.5328454,-122.6531869,,,,
Sephora PORTLAND,420,413 SW Morrison Street,,Portland,OR,97204,United States,(503) 224-7300,45.5190492,-122.6768341,,,,
Ulta Gresham Station,1169,839 NW 12th Avenue,,Gresham,OR,97030,United States,503-665-6838,45.5060298,-122.4414484,,,,
Ulta Madrona Park,1340,18140 NW Evergreen Parkway,,Beaverton,OR,97006,United States,503-466-0206,45.5358268,-122.8657154,,,,
Ulta Cedar Hills Crossings,1036,"3255 SW Cedar Hills Blvd., #150",,Beaverton,OR,97005,United States,503-643-7080,45.4958701,-122.8108047,,,,
Sephora WASHINGTON SQUARE,197,"9329 SW Washington Sq Rd, #T07",,Portland,OR,97223,United States,(503) 684-9693,45.4506366,-122.7823645,,,,
Washington Square,517,9500 SW Washington Sq Rd,,PORTLAND,OR,97223,United States,503-620-0750,45.450281,-122.7822476,,,,
Sephora CLACKAMAS,319,12000 SE 82nd Avenue suite #1070,,Portland,OR,97086,United States,(503) 659-2631,45.4342512,-122.5723596,,,,
Clackamas Town Center,480,12300 SE 82nd Ave,,PORTLAND,OR,97086,United States,503-653-8830,45.4340797,-122.5791597,,,,
Ulta Nyberg Woods,1106,7081 SW Nyberg Street,,Tualatin,OR,97062,United States,503-692-1501,45.3829538,-122.7479722,,,,
"Ulta Kennewick, WA",1361,1321 N. Columbia Center Blvd. Suite A01,,Kennewick,WA,99336,United States,509-783-1083,46.226354,-119.2279546,,,,
Columbia Center,598,1321 N Columbia Ctr Blvd #100,,KENNEWICK,WA,99336,United States,509-783-4111,46.2262597,-119.2269634,,,,
Ulta Keizer Station,1309,6361 Ulali Dr.  NE,,Keizer,OR,97303,United States,503-393-2738,45.0127324,-122.9995946,,,,
Salem Center,644,305 Liberty St NE,,SALEM,OR,97301,United States,503-585-4535,44.9426749,-123.038071,,,,
Sephora Spokane,441,808 West Main Avenue #233,,Spokane,WA,99201,United States,,47.6595722,-117.4236155,,,,
Ulta Northtown Square Shopping Center,1228,4727 N Division Street,,Spokane,WA,99207,United States,509-489-0125,47.7016369,-117.4128748,,,,
Northtown Mall,728,4730 N Division Street,,SPOKANE,WA,99207,United States,509-487-2223,47.7021918,-117.4103985,,,,
Spokane Valley Mall,764,14730 E Indiana Ave,,SPOKANE,WA,99216,United States,509-922-0288,47.6739438,-117.206344,,,,
Valley River Crossing,554,300 Valley River Center,,EUGENE,OR,97401,United States,541-342-6211,44.0686414,-123.1068189,,,,
Ulta The Maine Mall,1257,366 Maine Mall Road,,South Portland,ME,04106,United States,207-773-7786,43.6339237,-70.338317,,,,
Sephora MAINE MALL,381,"364 Maine Mall Road,  Space W115",,S. Portland,ME,04106,United States,(207) 879-5900,43.6342134,-70.3367879,,,,
Ulta The Augusta Marketplace,1258,10 Stephen King Drive,,Augusta,ME,04330,United States,207-629-5422,44.3422494,-69.7859923,,,,
UNIVERSITY MALL,530,155 DORSET ST,,South Burlington,VT,05403-6280,United States,,44.4649003,-73.1841659,,,,
BANGOR,563,,,BANGOR,ME,00000,United States,,44.8011821,-68.7778138,,,,
"Ulta Bangor, ME",1439,482 B-2 Stillwater Avenue,,Bangor,ME,04401,United States,207-941-1406,44.8277266,-68.7575628,,,,
Ulta The Forum at Ashley Park,1074,338 Newnan Crossing Bypass,,Newnan,GA,30265,United States,770-252-2268,33.3888248,-84.7641244,,,,
TOWNE WEST SQUARE,628,4600 W KELLOGG RD,,WICHITA,KS,67209-2546,United States,316-945-0141,37.6769186,-97.3969153,,,,
Ulta Eastgate Plaza Shopping Center,1327,8141 E Kellogg Dr,,Wichita,KS,67207,United States,316-684-1116,37.6790916,-97.240254,,,,
TOWNE EAST SQUARE,562,7700 E KELLOGG DR,,WICHITA,KS,67207-1771,United States,316-685-6261,37.6834039,-97.2470994,,,,
Sephora WICHITA,411,"2000 N. Rock Road, Suite 118",,Witchita,KS,67206,United States,(316) 636-5500,37.7172777,-97.2427623,,,,
Ulta New Market Square Shopping Center,1318,"2441 N. Maize Rd, Suite 2101",,Wichita,KS,67205,United States,316-729-5566,37.7276388,-97.4648798,,,,
"Ulta Joplin, MO (as-is)",1364,101 North Rangeline Road Suite #275,,Joplin,MO,64801,United States,417-627-0089,37.0908261,-94.4742996,,,,
Westgate Mall,696,7701 W I-40 Ste 600,,AMARILLO,TX,79121,United States,806-355-7241,35.1840669,-101.9277713,,,,
"Ulta Medford, OR",1345,25 Rossanley Drive,,Medford,OR,97501,United States,541-773-2749,42.3441153,-122.8812635,,,,
Ulta Oakwood Mall,1455,4800 Golf Road,,Eau Clair,WI,54701,United States,715-831-0973,44.7750124,-91.4414522,,,,
"Ulta Eau Claire, WI",1454,4800 Golf Road,,Eau Claire,WI,54701,United States,715-831-0973,44.7750124,-91.4414522,,,,
Ulta Plaza Santa Fe,1483,3513 Zafarano Boulevard,,Sante Fe,NM,87507,United States,505-424-3650,35.6420136,-106.0123411,,,,
"Ulta St. George, UT",1304,"15 South River Road, Suite 220",,St. George,UT,84790,United States,435-673-2180,37.1066761,-113.5540787,,,,
Sephora ZONA ROSA,325,8758 NW Prairie View Road,,Kansas City,MO,64153,United States,(816) 382-3700,39.2526514,-94.6652969,,,,
The Plaza at Shoal Creek,861,8100 N Flintock Rd @ NE 82nd,,KANSAS CITY (NE),MO,64158,United States,816-415-2397,39.2420642,-94.4655544,,,,
Tiffany Springs Marketplace,734,9100 NW Skyview Avenue,,KANSAS CITY,MO,64154,United States,816-410-2960,39.2650567,-94.6565122,,,,
Ulta Tiffany Springs Market Center,1190,9120 NW Skyview Avenue,,Kansas City,MO,64154,United States,816-741-8779,39.2652034,-94.656503,,,,
Sephora INDEPENDENCE,196,2018 Independence Center Dr.,,Independence,MO,64057,United States,(816) 795-1469,39.0473532,-94.3579058,,,,
Oak Park Shopping Center,608,11801 W. 95th Street,,OVERLAND PARK,KS,66214,United States,913-492-8150,38.9536693,-94.7224153,,,,
Legends @ Village West,828,10904 Stadium Pkwy,,KANSAS CITY,KS,66111,United States,913-334-0285,39.1257422,-94.8327747,,,,
Summit Fair,494,990 NW Blue Pkwy.,,LEE'S SUMMIT,MO,64086-5718,United States,816-600-3253,38.9327267,-94.4028131,,,,
"Ulta Lee's Summit, MO",1398,1664 NW Chipman Road,,Lee's Summit,MO,64081,United States,816-524-5427,38.9272181,-94.4063869,,,,
Corbin Park,888,6901 W 135th St,,OVERLAND PARK,KS,66223,United States,913-982-4149,38.8807396,-94.6654742,,,,
Ulta Olathe Point,1045,"14677 West 119th, Space l",,Olathe,KS,66062,United States,913-390-9938,38.90976,-94.7583889,,,,
Ulta Adams Dairy Landing Shopping Center,1349,1260 NE Coronado Drive,,Blue Springs,MO,64014,United States,816-228-2268,39.023375,-94.2465755,,,,
"Ulta Blue Springs, MO",1350,1260 NE Coronado Drive,,Blue Springs,MO,64014,United States,816-228-2268,39.023375,-94.2465755,,,,
East Hills Shopping Center,648,3702 Frederick Ave Ste 7,,ST. JOSEPH,MO,64506,United States,816-279-6381,39.7743622,-94.7999835,,,,
Columbia Mall,703,2301 W Worley,,COLUMBIA,MO,65203,United States,573-445-7001,38.962907,-92.3759232,,,,
Ulta Shoppes at Stadium,1352,"221 N. Stadium Blvd, Suite 101",,Columbia,MO,65203,United States,573-445-5831,38.9579256,-92.3714261,,,,
"Ulta Lincoln, NE",1383,3120 Pine Lake Rd.,,Lincoln,NE,68516,United States,402-423-0586,40.7424152,-96.6745671,,,,
Ulta Shadow Lake Towne Center,1140,7701 Towne Center Parkway,,Papillion,NE,68046,United States,402592-1190,41.1330654,-96.0292258,,,,
Shadow Lake Towne Center,827,7751 Towne Center PkWY,,PAPILLION,NE,68046,United States,402-592-1825,41.1337397,-96.031063,,,,
Gateway Mall,744,68 Gateway Mall,,LINCOLN,NE,68505,United States,402-466-2222,40.8154599,-96.63599,,,,
"Ulta Council Bluffs, IA",1380,"3502 Metro Drive, Suite 100",,Council Bluffs,IA,51501,United States,712-366-8093,41.2229259,-95.8404417,,,,
The Market Place,877,3333 Market Place Drive,,COUNCIL BLUFFS,IA,51501,United States,712-336-1107,41.22779,-95.8776405,,,,
OMAHA,566,,,OMAHA,NE,00000,United States,,41.2523634,-95.9979883,,,,
Ulta L Street Marketplace,1112,12430 K Plaza,,Omaha,NE,68137,United States,402-330-1569,41.2146117,-96.1072593,,,,
OAK VIEW MALL,552,3202 OAKVIEW DR,,Omaha,NE,68144-5633,United States,,41.2293306,-96.1333972,,,,
Sephora VILLAGE POINTE,212,"17101 Davenport Street , Suite #103",,Omaha,NE,68118,United States,(402) 289-3939,41.2606324,-96.1817969,,,,
Ulta Jordan Creek Town Center,1043,"6805 Mills Civic Pkwy., Suite 110",,West Des Moines,IA,50266,United States,515-224-4717,41.5642818,-93.8010038,,,,
Sephora JORDAN CREEK,206,"101 Jordan Creek Parkway, Suite 11240",,West Des Moines,IA,50266,United States,(515) 457-1200,41.5702624,-93.8070392,,,,
Valley West Mall,630,1551 Valley West Dr,,W DES MOINES,IA,50266,United States,515-223-5353,41.597501,-93.749512,,,,
Ulta Merle Hay Mall,1181,"3800 Merle Hay Road, Unit 507",,Des Moines,IA,50310,United States,515-276-0410,41.6314163,-93.7011499,,,,
Ulta Tiger Town  (Phase IV),1226,2690 Enterprise Drive,,Opelika,AL,36801,United States,334-749-2593,32.6186956,-85.406289,,,,
Ulta Eastchase Market Center,1146,7981 Eastchase Parkway,,Montgomery,AL,36117,United States,334-271-2656,32.3632482,-86.1538851,,,,
High Point Center,864,411 Old Farm Lane South,,Prattville,AL,36066,United States,334-450-2274,32.4599405,-86.402573,,,,
SIOUX CITY,786,,,SIOUX CITY,IA,00000,United States,,42.4999942,-96.4003069,,,,
The Empire Plaza,503,3200 W Empire Mall,,SIOUX FALLS,SD,57106,United States,605-361-6123,43.5101751,-96.7713708,,,,
"Ulta Sioux Falls, SD",1485,3800 S Louise Avenue #304A,,Sioux Falls,SD,57106,United States,605-362-5765,43.5112693,-96.7688009,,,,
Sephora Empire Mall,444,"4001 W. 41st Street Suite# 0134B Sioux Falls, SD 57106",,Sioux Falls,SD,57106,United States,,43.5118966,-96.7745923,,,,
Ulta River Hills Mall,1290,"1850 Adams Street, Suite 100",,Mankato,MN,56001,United States,507-625-5530,44.1729626,-93.9535766,,,,
Ulta Miracle Marketplace,1066,"3301 SW 22nd Street, Suite 203",,Miami,FL,33145,United States,305-704-6811,25.7500867,-80.2495718,,,,
Sephora SOUTH BEACH,290,721 Collins Avenue,,Miami Beach,FL,33139,United States,(305) 532-0904,25.777328,-80.1324314,,,,
Ulta ULTA - Miami Beach,1097,337 Lincoln Road,,Miami Beach,FL,33139,United States,305-538-7316,25.7907527,-80.1314561,,,,
Dadeland Mall,605,7201 N Kendall Dr,,MIAMI,FL,33156,United States,305-666-1911,25.6908031,-80.3102477,,,,
Sephora DADELAND,295,"7479 N. Kendall Drive,  #2105",,Miami,FL,33156,United States,(305) 740-3445,25.6902599,-80.313779,,,,
Macys DADELAND,109,7303 S.W. 88th St.,,Miami,FL,33176,United States,305-662-3400,25.6906371,-80.3153391,,,,
Westland Mall,660,1655 W 49th St Ste 1200,,HIALEAH,FL,33012,United States,305-823-9880,25.8688925,-80.3176969,,,,
Macys Westland (FL),108,1777 W 49th Street,,Haialeah,FL,33012,United States,305-825-7300,25.8682116,-80.3208115,,,,
Sephora MIAMI INTERNATIONAL,416,"1455 NW 107th Ave.,  Unit #292B",,Miami,FL,33172,United States,786-464-1313,25.786656,-80.3649414,,,,
Macys Miami International,106,1245 NW 107th Avenue,,Miami,FL,33172,United States,305-594-6300,25.781998,-80.3686459,,,,
Miami International Mall,726,1603 NW 107th Ave,,MIAMI,FL,33172,United States,305-477-1786,25.788808,-80.3687,,,,
Ulta Kendallgate Shopping Center,1008,12054 SW 88th Street,,Miami,FL,33186,United States,305-598-2440,25.6846446,-80.3926771,,,,
Sephora AVENTURA,293,"19575 Biscayne Blvd., #723",,Aventura,FL,33180,United States,(305) 931-9579,25.9574275,-80.1468159,,,,
Aventura Mall,684,19525 BISCAYNE BLVD,,AVENTURA,FL,33180,United States,305-937-0022,25.9581646,-80.1468334,,,,
Macys Aventura,105,19535 Biscayne Blvd.,,N. Miami,FL,33180,United States,305-682-3300,25.9581689,-80.1468334,,,,
Ulta Aventura Commons,1293,21065 Biscayne Blvd,,Aventura,FL,33180,United States,305-466-1478,25.9704842,-80.1414627,,,,
Ulta Southland Mall,1091,"20505 S. Dixie Highway, #605",,Miami,FL,33189,United States,305-969-8029,25.5746698,-80.3689995,,,,
Ulta Pembroke Crossings,1009,11850 Pines Boulevard,,Pembroke Pines,FL,33026,United States,954-438-6330,26.0061844,-80.3078711,,,,
Macys Pembroke Lakes,107,11605 Pines Blvd.,,Pembroke Pines,FL,33026,United States,954-438-2400,26.0078416,-80.3043728,,,,
Pembroke Lakes Mall,721,11401 Pines Blvd,,PEMBROKE PINES,FL,33026,United States,954-433-2445,26.0105739,-80.3046137,,,,
Sephora PEMBROKE GARDENS,309,516 SW 145th Terrace,,Pembroke Pines,FL,33027,United States,(954) 438-2030,26.0032724,-80.3371913,,,,
"Ulta Davie, FL",1426,1950 S. University Drive,,Davie,FL,33324,United States,954-916-0433,26.095415,-80.2482087,,,,
BROWARD MALL,661,8000 W BROWARD BLVD STE 900,,PLANTATION,FL,33388-0900,United States,954-472-2500,26.1207421,-80.254579,,,,
Sephora FORT LAUDERDALE,313,"2414 E Sunrise Blvd,  Space 2204",,Ft Lauderdale,FL,33304,United States,(954) 630-3636,26.137129,-80.113431,,,,
Ulta Bal Harbour Square,1232,1746 North Federal Highway,,Fort Lauderdale,FL,33305,United States,954-390-7458,26.151202,-80.1182098,,,,
CORAL SQUARE MALL,692,9303 W ATLANTIC BLVD,,CORAL SPRINGS,FL,33071-6900,United States,954-752-8116,26.2396585,-80.2512968,,,,
"Ulta Coral Springs, FL",1422,4601 N. University Drive,,Coral Springs,FL,33067,United States,954-757-6981,26.2874593,-80.2477834,,,,
"Ulta Boca Raton, FL",1424,9882 Glades Road,,Boca Raton,FL,33434,United States,561-482-9050,26.3647653,-80.2019944,,,,
Sephora BOCA RATON,292,"6000 W. Glades,  Suite 1024B",,Boca Raton,FL,33431,United States,(561) 391-1221,26.3659017,-80.1343467,,,,
Macys Boca Raton,104,5700 West Glades Rd,,Boca Raton,FL,33431,United States,,26.3660599,-80.131771,,,,
BOYNTON BEACH MALL,694,801 N CONGRESS AVE,,BOYNTON BEACH,FL,33426-3399,United States,561-736-8500,26.5357511,-80.0907252,,,,
Wellington Green S/C,775,10308 W Forest Hill Blvd,,Wellington,FL,33414,United States,561-333-3399,26.6511058,-80.2089393,,,,
Ulta Shops at Isla Verde,1095,1020 S. State Road 7,,Wellington,FL,33414,United States,561-204-2446,26.663576,-80.2009777,,,,
Sephora CITY PLACE,300,"550 S. Rosemary Ave, Suite 144",,West Palm Beach,FL,33401,United States,(561) 651-7633,26.709079,-80.0565311,,,,
Sephora THE GARDENS,291,"3101 PGA Blvd., #229",,Palm Beach Gardens,FL,33410,United States,(561) 622-1057,26.8473981,-80.0853836,,,,
COASTLAND S/C,691,2076 9TH ST N,,Naples,FL,34102-4895,United States,,26.1701519,-81.7994469,,,,
Ulta The Mercato,1131,"9100 Strada Place, Suite 2105",,Naples,FL,34108,United States,239-514-0151,26.2540014,-81.7999713,,,,
Sephora COCONUT POINT,304,"23161 Fashion Drive,  Suite 113",,Estero,FL,33928,United States,(239) 390-9889,26.401403,-81.8067255,,,,
Ulta Shops at Coconut Point,1048,8054 Mediterranean Drive,,Estero,FL,33928,United States,239-992-0361,26.405459,-81.806386,,,,
Ulta Bell Tower,999,13499 S. Cleveland Avenue,,Ft. Myers,FL,33907,United States,239-334-0659,26.5498127,-81.8691658,,,,
FORT MYERS,646,,,FORT MYERS,FL,00000,United States,,26.640628,-81.8723084,,,,
Sephora ROSEDALE,185,2100 Rosedale Center Space #800,,Roseville,MN,55113,United States,(651) 697-6577,45.0126817,-93.172023,,,,
Rosedale S/C,527,1700 W County Rd B-2,,ROSEVILLE,MN,55113,United States,651-631-3330,45.0139754,-93.1729186,,,,
Ulta Crossroads of Roseville,1103,1655 County Road B2 West,,Roseville,MN,55113,United States,651-239-1640,45.0161122,-93.1702942,,,,
Sephora Southdale,430,"10 Southdale Center, Space #1555",,Edina,MN,55435,United States,(952) 922-8340,44.8806577,-93.3247802,,,,
"Ulta Richfield, MN (RELO #120)",1450,W 78th Street,,Richfield,MN,55423,United States,612-869-0150,44.8623686,-93.2947205,,,,
Sephora RIDGEDALE,220,12669 Wayzata Blvd.,,Minnetonka,MN,55305,United States,(952) 513-1306,44.9687691,-93.4358464,,,,
Macys Mall of America,30,4000 SW Court,,Bloomington,MN,55425,United States,952-888-3333,44.853284,-93.244066,,,,
Ulta Ridgehaven Mall,923,13145 Ridgedale Drive,,Minnetonka,MN,55305,United States,952-540-1012,44.9688411,-93.4475457,,,,
MINNETONKA,610,,,MINNETONKA,MN,00000,United States,,44.9211836,-93.4687489,,,,
Eden Prairie Center,838,8201 Flying Cloud Dr,,EDEN PRAIRIE,MN,55344,United States,952-944-6807,44.855684,-93.4235086,,,,
Ulta The Shoppes at Arbor Lakes,985,12181 Elm Creek Blvd.,,Maple Grove,MN,55369,United States,763-425-5385,45.0927731,-93.4346429,,,,
GROVE SQ S/C,792,13701 GROVE DR,,Maple Grove,MN,55311-4412,United States,,45.1029304,-93.4555397,,,,
BURNSVILLE,481,,,BURNSVILLE,MN,00000,United States,,44.7677424,-93.2777226,,,,
WOODBURY,807,,,WOODBURY,MN,00000,United States,,44.9238552,-92.9593797,,,,
Riverdale Village,789,12550 Riverdale Blvd,,COON RAPIDS,MN,55448,United States,763-323-1339,45.1987,-93.3506142,,,,
Ulta Burnhaven Mall,1136,830 County Road 42W,,Burnsville,MN,55337,United States,952-435-0001,44.7487849,-93.2906325,,,,
Ulta Riverdale Village,972,3583 River Rapids Drive,,Coon Rapids,MN,55448,United States,763-323-0664,45.1994785,-93.3558278,,,,
Ulta Tamarack Shopping Center,1021,8290 Tamarack Village,,Woodbury,MN,55125,United States,651-738-1654,44.9416194,-92.940832,,,,
Ulta Fischer Marketplace Shopping Center,1362,"14929 Florence Trl, Suite 100",,Apple Valley,MN,55124,United States,952-891-2450,44.7325556,-93.2038257,,,,
Ulta Rivertown Village,1259,3959 2nd Street South. Suite 101,,St Cloud,MN,56301,United States,320-251-0048,45.5516899,-94.2069385,,,,
CROSSROADS CTR,649,4101 W DIVISION ST,,ST CLOUD,MN,56301-6600,United States,320-252-6020,45.5534374,-94.2093614,,,,
WEST ACRES S/C,677,3902 13TH AVE SW STE 200,,FARGO,ND,58103-3399,United States,701-282-9770,46.8592736,-96.8488546,,,,
Ulta Fargo Retail Center,1310,4420 13th Avenue S.,,Fargo,ND,58103,United States,701-281-4831,46.8614115,-96.8607021,,,,
GRETNA,755,,,GRETNA,LA,00000,United States,,29.9146493,-90.0539603,,,,
METAIRE,531,,,METAIRE,LA,00000,United States,,29.9840922,-90.1528519,,,,
Sephora LAKESIDE,322,3301 Veterans Memorial Blvd Suite #74,,Metairie,LA,70002,United States,(504) 830-4567,30.0062985,-90.1573105,,,,
"Ulta Harahan, LA",1376,"1126 S. Clearview Pwy, Suite A",,Harahan,LA,70123,United States,504-731-6628,29.9610744,-90.1856914,,,,
"Ulta Harahan, LA",1377,"1126 S. Clearview Pkwy, Suite A",,Harahan,LA,70123,United States,504-731-6628,29.9610744,-90.1856914,,,,
"Ulta Covington, LA",1381,69276 Highway 21,,Covington,LA,70433,United States,985-871-8853,30.4416983,-90.1445828,,,,
Ulta Hammond Square Shopping Center,1220,2026 Hammond Square Dr.,,Hammond,LA,70403,United States,985-345-2096,30.4805791,-90.4613116,,,,
"Ulta Houma, LA",1299,1779 Martin Luther King Blvd.,,Houma,LA,70360,United States,985-872-3753,29.6159085,-90.7596185,,,,
Ulta Mall of Louisiana,1184,"9330 Mall of Louisiana Blvd., Suite 400",,Baton Rouge,LA,70809,United States,225-769-2237,30.3872517,-91.0810946,,,,
MALL OF LOUISIANA,766,6201 BLUEBONNET BLVD,,BATON ROUGE,LA,70836-6200,United States,225-766-4410,30.3933683,-91.0879032,,,,
Sephora MALL OF LOUISIANA,240,"6401 Bluebonnet Blvd., Suite 620",,Baton Rouge,LA,70836,United States,(225) 767-3040,30.392031,-91.089788,,,,
Ulta The Promenade,1253,3869 Promenade Parkway C,,D'Iberville,MS,39540,United States,228-392-1562,30.4546412,-88.8997884,,,,
Bel Air Mall,506,3400 Bell Air Mall,,MOBILE,AL,36606,United States,251-476-4560,30.6718573,-88.1216915,,,,
Ulta Springdale Mall,1324,"3250 Airport Blvd., Ste E-32",,Mobile,AL,36606,United States,251-450-2362,30.6796131,-88.1243739,,,,
Ulta Jubilee Square,1357,"6850 US Highway 90, Suite 11",,Daphne,AL,36526,United States,251-621-9512,30.6539054,-87.906705,,,,
Spanish Fort Town Center,813,22500 Town Center Ave,,SPANISH FORT,AL,36527,United States,251-625-4930,30.6610435,-87.9040863,,,,
Sephora Pensacola,442,5100 N 9th Ave,,Pensacola,FL,32504,United States,,30.475326,-87.207522,,,,
"Ulta Pensacola, FL",1441,"1650 Airport Blvd., Space #450",,Pensacola,FL,32504,United States,850-476-6211,30.481849,-87.2077162,,,,
Sephora DESTIN,407,4236 Legendary Dr.,,Destin,FL,32541,United States,(850) 269-1858,30.3912257,-86.4261749,,,,
Ulta Shoppes at Paradise Isle,1172,"34940 Emerald Coast Parkway, Unit 120",,Destin,FL,32550,United States,850-654-1364,30.3877542,-86.4251768,,,,
Macys Ala Count,59,1450 Ala Moana Blvd,,Honolulu,HI,96814,United States,808-941-2345,21.2904632,-157.84373,,,,
Sephora ALA MOANA,153,"1450 Ala Moana Blvd., #2058",,Honolulu,HI,96814,United States,(808) 944-9797,21.2904632,-157.84373,,,,
Sephora KALAKAUA,393,"2250 Kaladaua Avenue, Suite 153",,Honolulu,HI,96815,United States,(808) 923-3301,21.2792738,-157.828535,,,,
Sephora PEARLRIDGE,164,"98-1005 Moanalua Rd, Suite 224",,Aiea,HI,96701,United States,(808) 487-0660,21.385418,-157.9416305,,,,
Macys Pearlridge,60,98-205 Kaonohi Street,,Aiea,HI,96701,United States,808-486-6701,21.3850696,-157.9427887,,,,
Sephora MAUI,417,"2435 Ka'anapali Pkwy, Space #D3",,"Lahaina, Maui",HI,96761,United States,(808) 667-2545,20.9210674,-156.6943726,,,,
5TH AVENUE MALL-SUR,642,3202 ARCTIC BLVD,,ANCHORAGE,AK,99503-4591,United States,907-279-5656,61.1911224,-149.897963,,,,
South Plains Mall,538,6002 Slide Rd Bld A,,LUBBOCK,TX,79414,United States,806-792-6841,33.5396522,-101.9224805,,,,
Ulta Canyon West,1080,6070 Marsha Sharp Freeway,,Lubbock,TX,79407,United States,806-799-2212,33.5472862,-101.954452,,,,
MIDLAND PARK MALL,679,4511 N MIDKIFF RD,,Midland,TX,79705-3208,United States,,32.0302876,-102.1307221,,,,
Ulta Midland Park Mall,1164,4511 N. Midkiff Dr.,,Midland,TX,79705,United States,432-689-0369,32.0302876,-102.1307221,,,,
Ulta The Shops at Soncy,1126,2814 S. Soncy Road,,Amarillo,TX,79124,United States,806-355-1176,35.1814406,-101.9399397,,,,
Sephora BOISE,174,"350 North Milwaukee, Suite 1031",,Boise,ID,83704,United States,(208) 322-6278,43.6086365,-116.2781046,,,,
"Ulta Boise, ID",1420,500 N. Milwaukee,,Boise,ID,83704,United States,208-375-7472,43.6075412,-116.2826095,,,,
Nampa Gateway Center,844,1200 N. Happy Valley Rd,,NAMPA,ID,83687,United States,208-442-5511,43.5951275,-116.5131446,,,,
Ulta Treasure Valley Marketplace,1305,16475 N Marketplace Blvd.,,Nampa,ID,83687,United States,208-467-0982,43.6118233,-116.5919682,,,,
Ulta Pier Park Town Center,1145,"15565 Starfish Street, Suite 110",,Panama City Beach,FL,32413,United States,850-233-4808,30.219808,-85.8692006,,,,
"Ulta Coeur D'Alene, ID",1436,450 W. Wilbur Ave.,,Coeur D'Alene,ID,83814,United States,208-762-0776,47.7350075,-116.7942313,,,,
Sephora DOWNTOWN SALT LAKE,424,50 South Main Street,,Salt Lake City,UT,84101,United States,(801) 532-4232,40.7682419,-111.8911476,,,,
VALLEY FAIR MALL,611,3601 S 2700 W,,Salt Lake City,UT,84119-3746,United States,,40.6936142,-111.9556094,,,,
Sephora FASHION PLACE,377,"6191 S. State Street, Unit 212",,Murray,UT,84107,United States,(801) 263-6800,40.6381663,-111.888805,,,,
Ulta Plaza at Jordan Landing,1245,"3736 Center Park Drive, Suite 110",,West Jordan,UT,84084,United States,801-280-7900,40.6224903,-111.9795641,,,,
Ulta The Commons at Southtowne,1114,10409 South State Street,,Sandy,UT,84070,United States,801-572-0382,40.5622028,-111.8906078,,,,
SANDY,510,,,SANDY,UT,00000,United States,,40.5649781,-111.8389726,,,,
Ulta Station Park,1300,320 North Station Parkway,,Farmington,UT,84025,United States,801-451-8403,40.9860957,-111.903461,,,,
LAYTON HILLS MALL,743,1050 LAYTON HILLS MALL,,LAYTON,UT,84041-2103,United States,801-543-2225,41.0783834,-111.9775624,,,,
Ulta Riverdale Center IV,1218,4249 South Riverdale Road,,Riverdale,UT,84405,United States,801-621-4639,41.1857051,-111.9884352,,,,
Riverdale III,865,4185 S. Riverdale Road,,RIVERDALE,UT,84405,United States,801-621-2575,41.1871384,-111.987886,,,,
Povo Towne Center,770,1200 Towne Center Blvd Ste B,,PROVO,UT,84601,United States,801-852-3500,40.2174826,-111.6629499,,,,
Ulta Cache Valley Plaza,1366,1050 N. Main St. Suite #110,,Logan,UT,84341,United States,435-753-7970,41.7510685,-111.832389,,,,
BISMARCK,638,,,BISMARCK,ND,00000,United States,,46.8083268,-100.7837392,,,,
DAKOTA SQUARE,671,2400 10TH ST SW,,Minot,ND,58701-6997,United States,,48.2062908,-101.311629,,,,
RIMROCK MALL,783,140 S 24TH ST W,,BILLINGS,MT,59102-5688,United States,406-652-4000,45.7672918,-108.5762932,,,,
"Ulta Billings, MT",1490,915 Shiloh Crossing Boulevard,,Billings,MT,59102,United States,406-656-2189,45.7524694,-108.6134707,,,,
"Ulta Bozeman, MT",1294,"2855 North 19th Ave., Suite C",,Bozeman,MT,59718,United States,406-586-2682,45.7093411,-111.0674893,,,,
"Ulta Helena, MT",1484,2005 Cromwell Dixon Lane,,Helena,MT,59602,United States,406-449-2335,46.6146097,-112.0048519,,,,
