store_name,store_number,address,address2,city,state,zip_code,country,phone_number,latitude,longitude,store_hours,store_type,other_fields,coming_soon
Mor Furniture for Less | Lynnwood,,4029 Alderwood Mall Blvd ,,Lynnwood ,Washington,98036,United States, (866) 466-7435,,,"Sun:10:00 - 8:00, Mon:10:00 - 9:00, Tue:10:00 - 9:00, Wed:10:00 - 9:00, Thur:10:00 - 9:00, Fri:10:00 - 9:00, Sat:10:00 - 9:00",,,
Mor Furniture for Less | Mesa,,1515 S Power Rd ,,Mesa ,Arizona,85206,United States, (866) 466-7435,,,"Sun:10:00 - 8:00, Mon:10:00 - 9:00, Tue:10:00 - 9:00, Wed:10:00 - 9:00, Thur:10:00 - 9:00, Fri:10:00 - 9:00, Sat:10:00 - 9:00",,,
Mor Furniture for Less | Kent,,8301 S 180th St ,,Kent ,Washington,98032,United States, (866) 466-7435,,,"Sun:10:00 - 8:00, Mon:10:00 - 9:00, Tue:10:00 - 9:00, Wed:10:00 - 9:00, Thur:10:00 - 9:00, Fri:10:00 - 9:00, Sat:10:00 - 9:00",,,
Mor Furniture for Less | 44th & E McDowell,,4416 E McDowell Rd ,,Phoenix ,Arizona,85008,United States, 866-466-7435,,,"Sun:10:00 - 8:00, Mon:10:00 - 9:00, Tue:10:00 - 9:00, Wed:10:00 - 9:00, Thur:10:00 - 9:00, Fri:10:00 - 9:00, Sat:10:00 - 9:00",,,
Mor Furniture for Less | Fresno,,5156 N Blackstone Ave ,,Fresno ,California,93710,United States, (866) 466-7435,,,"Sun:10:00 - 8:00, Mon:10:00 - 9:00, Tue:10:00 - 9:00, Wed:10:00 - 9:00, Thur:10:00 - 9:00, Fri:10:00 - 9:00, Sat:10:00 - 9:00",,,
Mor Furniture for Less | Miramar,,6965 Consolidated Way ,,San Diego ,California,92121,United States, (866) 466-7436,,,"Sun:10:00 - 8:00, Mon:10:00 - 9:00, Tue:10:00 - 9:00, Wed:10:00 - 9:00, Thur:10:00 - 9:00, Fri:10:00 - 9:00, Sat:10:00 - 9:00",,,
Mor Furniture for Less | Lacey,,5400 Martin Way East Suite F ,,Lacey ,Washington,98516,United States, 866-466-7435,,,"Sun:10:00 - 8:00, Mon:10:00 - 9:00, Tue:10:00 - 9:00, Wed:10:00 - 9:00, Thur:10:00 - 9:00, Fri:10:00 - 9:00, Sat:10:00 - 9:00",,,
Mor Furniture for Less | Albuquerque,,4920 Menaul Blvd NE ,,Albuquerque ,Mexico,87110,United States, (866) 466-7435,,,"Sun:10:00 - 8:00, Mon:10:00 - 9:00, Tue:10:00 - 9:00, Wed:10:00 - 9:00, Thur:10:00 - 9:00, Fri:10:00 - 9:00, Sat:10:00 - 9:00",,,
Mor Furniture for Less | Bakersfield,,2200 Wible Rd ,,Bakersfield ,California,93304,United States, (866) 466-7435,,,"Sun:10:00 - 8:00, Mon:10:00 - 9:00, Tue:10:00 - 9:00, Wed:10:00 - 9:00, Thur:10:00 - 9:00, Fri:10:00 - 9:00, Sat:10:00 - 9:00",,,
Mor Furniture for Less | Delta Park,,1100 N Hayden Meadows Dr ,,Portland ,Oregon,97217,United States, (866) 466-7435,,,"Sun:10:00 - 8:00, Mon:10:00 - 9:00, Tue:10:00 - 9:00, Wed:10:00 - 9:00, Thur:10:00 - 9:00, Fri:10:00 - 9:00, Sat:10:00 - 9:00",,,
Mor Furniture for Less | Casa Grande,,1314-1 E. Florence Blvd ,,Casa Grande ,Arizona,85122,United States, 866-466-7435,,,"Sun:10:00 - 8:00, Mon:10:00 - 9:00, Tue:10:00 - 9:00, Wed:10:00 - 9:00, Thur:10:00 - 9:00, Fri:10:00 - 9:00, Sat:10:00 - 9:00",,,
Mor Furniture for Less | Cathedral City,,67555 East Palm Canyon Drive ,,Cathedral City ,California,92234,United States, (866) 466-7436,,,"Sun:10:00 - 8:00, Mon:9:00 - 8:00, Tue:9:00 - 8:00, Wed:9:00 - 8:00, Thur:9:00 - 8:00, Fri:9:00 - 8:00, Sat:9:00 - 8:00",,,
Mor Furniture for Less | Tri-Cities,,1430 Tapteal Dr ,,Richland ,Washington,99352,United States, (866) 466-7435,,,"Sun:10:00 - 8:00, Mon:10:00 - 9:00, Tue:10:00 - 9:00, Wed:10:00 - 9:00, Thur:10:00 - 9:00, Fri:10:00 - 9:00, Sat:10:00 - 9:00",,,
Mor Furniture for Less | Tigard,,10487 SW Cascade Ave ,,Tigard ,Oregon,97223,United States, (866) 466-7435,,,"Sun:10:00 - 8:00, Mon:10:00 - 9:00, Tue:10:00 - 9:00, Wed:10:00 - 9:00, Thur:10:00 - 9:00, Fri:10:00 - 9:00, Sat:10:00 - 9:00",,,
Mor Furniture for Less | Boise,,5621 W Fairview Ave ,,Boise ,Idaho,83706,United States, (866) 466-7435,,,"Sun:10:00 - 8:00, Mon:10:00 - 9:00, Tue:10:00 - 9:00, Wed:10:00 - 9:00, Thur:10:00 - 9:00, Fri:10:00 - 9:00, Sat:10:00 - 9:00",,,
Mor Furniture for Less | Visalia,,3000 S Mooney Blvd ,,Visalia ,California,93277,United States, (866) 466-7435,,,"Sun:10:00 - 8:00, Mon:10:00 - 9:00, Tue:10:00 - 9:00, Wed:10:00 - 9:00, Thur:10:00 - 9:00, Fri:10:00 - 9:00, Sat:10:00 - 9:00",,,
Mor Furniture for Less | Spokane,,1201 N Division St ,,Spokane ,Washington,99202,United States, (866) 466-7436,,,"Sun:10:00 - 8:00, Mon:10:00 - 9:00, Tue:10:00 - 9:00, Wed:10:00 - 9:00, Thur:10:00 - 9:00, Fri:10:00 - 9:00, Sat:10:00 - 9:00",,,
Mor Furniture for Less | Smokey Point,,17016 Twin Lakes Avenue ,,Marysville ,Washington,98271,United States, (866) 466-7436,,,"Sun:10:00 - 8:00, Mon:10:00 - 9:00, Tue:10:00 - 9:00, Wed:10:00 - 9:00, Thur:10:00 - 9:00, Fri:10:00 - 9:00, Sat:10:00 - 9:00",,,
Mor Furniture for Less | Glendale,,5735 W Bell Rd ,,Glendale ,Arizona,85308,United States, (866) 466-7436,,,"Sun:10:00 - 8:00, Mon:10:00 - 9:00, Tue:10:00 - 9:00, Wed:10:00 - 9:00, Thur:10:00 - 9:00, Fri:10:00 - 9:00, Sat:10:00 - 9:00",,,
Mor Furniture for Less | E Portland,,10015 SE Stark St ,,Portland ,Oregon,97216,United States, (866) 466-7435,,,"Sun:10:00 - 8:00, Mon:10:00 - 9:00, Tue:10:00 - 9:00, Wed:10:00 - 9:00, Thur:10:00 - 9:00, Fri:10:00 - 9:00, Sat:10:00 - 9:00",,,
Mor Furniture for Less | El Cajon,,880 Arnele Ave ,,El Cajon ,California,92020,United States, (866) 466-7435,,,"Sun:10:00 - 8:00, Mon:10:00 - 9:00, Tue:10:00 - 9:00, Wed:10:00 - 9:00, Thur:10:00 - 9:00, Fri:10:00 - 9:00, Sat:10:00 - 9:00",,,
Mor Furniture for Less | Salem,,4040 Market Street Northeast ,,Salem ,Oregon,97301,United States, (866) 466-7435,,,"Sun:10:00 - 8:00, Mon:10:00 - 9:00, Tue:10:00 - 9:00, Wed:10:00 - 9:00, Thur:10:00 - 9:00, Fri:10:00 - 9:00, Sat:10:00 - 9:00",,,
"Mor Furniture for Less | Nampa, ID",,1509 Caldwell Blvd # 1000 ,,Nampa ,Idaho,83651,United States, 866-466-7435,,,"Sun:10:00 - 8:00, Mon:10:00 - 9:00, Tue:10:00 - 9:00, Wed:10:00 - 9:00, Thur:10:00 - 9:00, Fri:10:00 - 9:00, Sat:10:00 - 9:00",,,
Mor Furniture for Less | Tempe,,1270 W Elliot Rd ,,Tempe ,Arizona,85284,United States, (866) 466-7435,,,"Sun:10:00 - 8:00, Mon:10:00 - 9:00, Tue:10:00 - 9:00, Wed:10:00 - 9:00, Thur:10:00 - 9:00, Fri:10:00 - 9:00, Sat:10:00 - 9:00",,,
Mor Furniture for Less | South Bay,,1608 Sweetwater Rd ,,National City ,California,91950,United States, (866) 466-7435,,,"Sun:10:00 - 8:00, Mon:10:00 - 9:00, Tue:10:00 - 9:00, Wed:10:00 - 9:00, Thur:10:00 - 9:00, Fri:10:00 - 9:00, Sat:10:00 - 9:00",,,
Mor Furniture for Less | Rancho Mirage,,72115 Highway 111 ,,Rancho Mirage ,California,92270,United States, (866) 466-7435,,,"Sun:10:00 - 8:00, Mon:9:00 - 8:00, Tue:9:00 - 8:00, Wed:9:00 - 8:00, Thur:9:00 - 8:00, Fri:9:00 - 8:00, Sat:9:00 - 8:00",,,
Mor Furniture for Less | Rancho Cucamonga,,12689 Foothill Blvd ,,Rancho Cucamonga ,California,91739,United States, (866) 466-7435,,,"Sun:10:00 - 8:00, Mon:10:00 - 9:00, Tue:10:00 - 9:00, Wed:10:00 - 9:00, Thur:10:00 - 9:00, Fri:10:00 - 9:00, Sat:10:00 - 9:00",,,
Mor Furniture for Less | Murrieta,,39825 Avenida Acacias ,,Murrieta ,California,92563,United States, (866) 466-7435,,,"Sun:10:00 - 8:00, Mon:10:00 - 9:00, Tue:10:00 - 9:00, Wed:10:00 - 9:00, Thur:10:00 - 9:00, Fri:10:00 - 9:00, Sat:10:00 - 9:00",,,
Mor Furniture for Less | Moreno Valley,,6155 Valley Springs Pkwy ,,Riverside ,California,92507,United States, (866) 466-7435,,,"Sun:10:00 - 8:00, Mon:10:00 - 9:00, Tue:10:00 - 9:00, Wed:10:00 - 9:00, Thur:10:00 - 9:00, Fri:10:00 - 9:00, Sat:10:00 - 9:00",,,
Mor Furniture for Less | Reno,,2212 Harvard Way ,,Reno ,Nevada,89502,United States, (866) 466-7435,,,"Sun:10:00 - 8:00, Mon:10:00 - 9:00, Tue:10:00 - 9:00, Wed:10:00 - 9:00, Thur:10:00 - 9:00, Fri:10:00 - 9:00, Sat:10:00 - 9:00",,,
Mor Furniture for Less | N Phoenix,,4712 E Thunderbird Rd ,,Phoenix ,Arizona,85032,United States, (866) 466-7435,,,"Sun:10:00 - 8:00, Mon:10:00 - 9:00, Tue:10:00 - 9:00, Wed:10:00 - 9:00, Thur:10:00 - 9:00, Fri:10:00 - 9:00, Sat:10:00 - 9:00",,,
Mor Furniture for Less | San Marcos,,900 Los Vallecitos Blvd ,,San Marcos ,California,92069,United States, (866) 466-7435,,,"Sun:10:00 - 8:00, Mon:10:00 - 9:00, Tue:10:00 - 9:00, Wed:10:00 - 9:00, Thur:10:00 - 9:00, Fri:10:00 - 9:00, Sat:10:00 - 9:00",,,
