store_name,store_number,address,address2,city,state,zip_code,country,phone_number,latitude,longitude,store_hours,store_type,other_fields,coming_soon
Outer Loop,,4255 Outer Loop,,Louisville,KY,40219,United States,(502) 966-0307,38.138296,-85.683469,"Monday 11am-10pm, Tuesday 11am-10pm, Wednesday 11am-10pm, Thursday 11am-10pm, Friday 11am-11pm, Saturday 11am-11pm, Sunday 11am-11pm",0,,
Henderson,,1868 U. S. Hwy 41 North,,Henderson,KY,42420,United States,(270) 869-9800,37.872939,-87.569339,"Monday 11am-10pm, Tuesday 11am-10pm, Wednesday 11am-10pm, Thursday 11am-10pm, Friday 11am-11pm, Saturday 11am-11pm, Sunday 11am-10pm",0,,
Stony Brook,,8609 Citadel Way,,Louisville,KY,40220,United States,(502) 493-0905,38.211651,-85.598117,"Monday 11am-10pm, Tuesday 11am-10pm, Wednesday 11am-10pm, Thursday 11am-10pm, Friday 11am-11pm, Saturday 11am-11pm, Sunday 11am-10pm",0,,
Chillicothe,,1150 N Bridge Street,,Chillicothe,OH,45601,United States,(740) 779-6195,39.348146,-82.976299,"Monday 11:00am-10:00pm, Tuesday 11:00am-10:00pm, Wednesday 11:00am-10:00pm, Thursday 11:00am-10:00pm, Friday 11am-11pm, Saturday 11am-11pm, Sunday 11:00am-10:00pm",0,,
Wooster,,4147 Burbank Road,,Wooster,OH,44691,United States,(330) 345-1550,40.85039,-81.946811,"Monday 11am-10pm, Tuesday 11am-10pm, Wednesday 11am-10pm, Thursday 11am-10pm, Friday 11am-11pm, Saturday 11am-11pm, Sunday 11am-10pm",0,,
Shelbyville,,1700 Midland Trail,,Shelbyville,KY,40065,United States,(502) 647-4651,38.212721,-85.241475,"Monday 11am-10pm, Tuesday 11am-10pm, Wednesday 11am-10pm, Thursday 11am-10pm, Friday 11am-11pm, Saturday 11am-11pm, Sunday 11am-10pm",0,,
Charlestown Crossing,,3005 Charlestown Crossing,,New Albany,IN,47150,United States,(812) 945-9333,38.35064,-85.7970397,"Monday 11am-10pm, Tuesday 11am-10pm, Wednesday 11am-10pm, Thursday 11am-10pm, Friday 11am-11pm, Saturday 11am-11pm, Sunday 11am-10pm",0,,
Madisonville,,401 Madison Square Dr.,,Madisonville,KY,42431,United States,(270) 326-2004,37.326838,-87.480141,"Monday 11am-9pm, Tuesday 11am-9pm, Wednesday 11am-9pm, Thursday 11am-9pm, Friday 11am-10pm, Saturday 11am-10pm, Sunday 11am-9pm",0,,
Bellefontaine,,2241 South Main Street,,Bellefontaine,OH,43311,United States,(937) 593-6555,40.329887,-83.761399,"Monday 11am-10pm, Tuesday 11am-10pm, Wednesday 11am-10pm, Thursday 11am-10pm, Friday 11am-11pm, Saturday 11am-11pm, Sunday 11am-10pm",0,,
Brooks Road,,380 Brenton Way,,Shepherdsville,KY,40165,United States,(502) 955-5747,38.064513,-85.695548,"Monday 11am-10pm, Tuesday 11am-10pm, Wednesday 11am-10pm, Thursday 11am-10pm, Friday 11am-11pm, Saturday 11am-11pm, Sunday 11am-10pm",0,,
Bashford Manor,,3602 Bardstown Road,,Louisville,KY,40218,United States,(502) 454-2727,38.201969,-85.66356,"Monday 11am-10pm, Tuesday 11am-10pm, Wednesday 11am-10pm, Thursday 11am-10pm, Friday 11am-11pm, Saturday 11am-11pm, Sunday 11am-10pm",0,,
Jeffersonville,,2784 Jefferson Centre Way,,Jeffersonville,IN,47130,United States,(812) 282-9333,38.3266707,-85.7108411,"Monday 11am-10pm, Tuesday 11am-10pm, Wednesday 11am-10pm, Thursday 11am-10pm, Friday 11am-11pm, Saturday 11am-11pm, Sunday 11am-10pm",0,,
Heath,,899 Hebron Road,,Heath,OH,43056,United States,(740) 522-4800,40.028135,-82.443712,"Monday 11am-10pm, Tuesday 11am-10pm, Wednesday 11am-10pm, Thursday 11am-10pm, Friday 11am-11pm, Saturday 11am-11pm, Sunday 11am-10pm",0,,
Zanesville,,746 Monroe Street,,Zanesville,OH,43701,United States,(740) 450-7760,39.945556,-81.99973,"Monday 11am-10pm, Tuesday 11am-10pm, Wednesday 11am-10pm, Thursday 11am-10pm, Friday 11am-11pm, Saturday 11am-11pm, Sunday 11am-10pm",0,,
State Street,,2005 State Street,,New Albany,IN,47150,United States,(812) 945-0177,38.302105,-85.83631,"Monday 11am-10pm, Tuesday 11am-10pm, Wednesday 11am-10pm, Thursday 11am-10pm, Friday 11am-11pm, Saturday 11am-11pm, Sunday 11am-10pm",0,,
Maysville,,511 Marketsquare Drive,,Maysville,KY,41056,United States,(606) 759-8876,38.627096,-83.791158,"Monday 11am-10pm, Tuesday 11am-10pm, Wednesday 11am-10pm, Thursday 11am-10pm, Friday 11am-11pm, Saturday 11am-11pm, Sunday 11am-10pm",0,,
Valley Station,,9701 Dixie Highway,,Louisville,KY,40272,United States,(502) 937-9951,38.115569,-85.860863,"Monday 11am-10pm, Tuesday 11am-10pm, Wednesday 11am-10pm, Thursday 11am-10pm, Friday 11am-11pm, Saturday 11am-11pm, Sunday 11am-10pm",0,,
Springhurst,,3550 Springhurst Commons Dr,,Louisville,KY,40241,United States,(502) 412-8172,38.296925,-85.561077,"Monday 11am-10pm, Tuesday 11am-10pm, Wednesday 11am-10pm, Thursday 11am-10pm, Friday 11am-11pm, Saturday 11am-11pm, Sunday 11am-1-pm",0,,
Highlander Point,,718 Highlander Point Drive,,Floyd's Knobs,IN,47119,United States,(812) 923-6011,38.3154694,-85.900039,"Monday 11am-10pm, Tuesday 11am-10pm, Wednesday 11am-10pm, Thursday 11am-10pm, Friday 11am-11pm, Saturday 11am-11pm, Sunday 11am-10pm",0,,
