store_name,store_number,address,address2,city,state,zip_code,country,phone_number,latitude,longitude,store_hours,store_type,other_fields,coming_soon
Dana Park Village Square,,1758 South Val Vista Drive,,Mesa,AZ,85204,United States,480-545-8507,,,Store Hours: Sun 10-8,,,
Stonebriar Mall,,2601 Preston Rd Unit 1204,,Frisco,TX,75034,United States,,,,Store Hours: Sun 11-7,,,
Plano/Creekwalk Village,,801 West 15th St Suite E,,Plano,TX,75075,United States,972-422-3372,,,Store Hours: Sun 10-9,,,
Surprise Marketplace,,13719 West Bell Road,,Surprise,AZ,85374,United States,,,,Store Hours: Sun 10-8,,,
The Parks at Arlington Mall,,3881 S. Cooper St # 2027,,Arlington,TX,76015,United States,817-472-7559,,,Store Hours: Sun 11-9,,,
Thousand Oaks,,160 S. Westlake Blvd.,,Thousand Oaks,CA,91362,United States,,,,Store Hours: Sun-Thu 9-10,,,
Crystal Lake,,5380 Route 14,,Crystal Lake,IL,60014,United States,815-444-0824,,,Store Hours: Sun 10-8,,,
Preston & Park,,2201 Preston Rd Suite E,,Plano,TX,75093,United States,,,,Store Hours: Sun 10-9,,,
Oceanside,,2615 Vista Way,,Oceanside,CA,92054,United States,760-529-0106,,,Store Hours: Sun-Thu 9-10,,,
Spring Hill Mall,,1468 Springhill Mall Blvd,,West Dundee,IL,60118,United States,,,,Store Hours: Sun 10-7,,,
Lewisville,,2325 S Stemmons Fwy Suite 401,,Lewisville,TX,75067,United States,972-315-7966,,,Store Hours: Sun 11-9,,,
The Centre in Copperfield,,7026 Hwy 6 North,,Houston,TX,77095,United States,,,,Store Hours: Sun 10-9,,,
Fullerton,,1923 West Malvern Avenue,,Fullerton,CA,92833,United States,714-871-9855,,,Store Hours: 9-10 Every Day,,,
Valparaiso,,150 Silhavy Road Suite 120,,Valparaiso,IN,46383,United States,219-531-6551,,,Store Hours: Sun 10-9,,,
Del Amo,,21400 Hawthorne Blvd,,Torrance,CA,90503,United States,310-370-5552,,,Store Hours: Sun-Wed 9-10,,,
Olympia,,1530 Black Lake Blvd SW,,Olympia,WA,98502,United States,,,,Store Hours: 9-10 Every Day,,,
Carson & 605,,7651 Carson St,,Long Beach,CA,90808,United States,562-938-8330,,,Store Hours: Sun-Thu 9-10,,,
3rd Street Promenade,,1201 3rd Street,,Santa Monica,CA,90401,United States,,,,Store Hours: Sun-Thu 9-10,,,
Hamilton,,425 Marketplace Boulevard,,Hamilton,NJ,08691,United States,609-581-2523,,,Store Hours: Sun 10-9,,,
Deerbrook Mall,,20131 Highway 59 N,,Humble,TX,77338,United States,,,,Store Hours: Sun 11-7,,,
Media City Center,,731 N San Fernando Blvd.,,Burbank,CA,91502,United States,818-558-1383,,,Store Hours: Sun-Thurs 10-10,,,
Manhattan Beach,,1800 Rosecrans Avenue Building B,,Manhattan Beach,CA,90266,United States,310-725-7025,,,Store Hours: 9-10 Every Day,,,
Glendale Americana,,210 Americana Way,,Glendale,CA,91210,United States,818-545-9146,,,Store Hours: 9-11 Every Day,,,
Tustin,,13712 Jamboree Road,,Irvine,CA,92602,United States,714-508-9707,,,Store Hours: 9-10 Every Day,,,
Smith Haven Mall,,600 Smith Haven Mall,,Lake Grove,NY,11755,United States,,,,Store Hours: Sun 9-9,,,
West Oaks Village,,2450 State Hwy 6,,Houston,TX,77077,United States,,,,Store Hours: Sun 11-8,,,
Bookstar/Studio City,,12136 Ventura Blvd.,,Studio City,CA,91604,United States,818-505-9528,,,Store Hours: 9-10 Every Day,,,
Marina Del Rey,,13400 Maxella,,Marina Del Rey,CA,90292,United States,,,,Store Hours: 9-10 Every Day,,,
The Grove at Farmers Market,,189 The Grove Drive Suite K 30,,Los Angeles,CA,90036,United States,,,,Store Hours: 9-11 Every Day,,,
Town & Country,,12850 Memorial Drive Suite 1600,,Houston,TX,77024,United States,713-465-5616,,,Store Hours: Sun 10-9,,,
Westheimer,,7626 Westheimer,,Houston,TX,77063,United States,713-783-6016,,,Store Hours: Sun 11-9,,,
Houston Champions,,5303 FM 1960 West,,Houston,TX,77069,United States,,,,Store Hours: Sun 11-9,,,
River Oaks Shopping Center,,2030 W. Gray Street,,Houston,TX,77019,United States,,,,Store Hours: Sun 10-9,,,
Escondido,,810 West Valley Parkway,,Escondido,CA,92025,United States,760-480-2760,,,Store Hours: 9-10 Every Day,,,
Pasadena,,5656 Fairmont Parkway,,Pasadena,TX,77505,United States,281-991-8011,,,Store Hours: Sun 10-9,,,
Encinitas,,1040 N. El Camino Real Drive,,Encinitas,CA,92024,United States,760-943-6400,,,Store Hours: 9-10 Every Day,,,
Pearland,,11200 Broadway  Unit 500,,Pearland,TX,77584,United States,,,,Store Hours: Sun 10-9,,,
Mira Mesa,,10775 Westview Parkway,,San Diego,CA,92126,United States,858-684-3166,,,Store Hours: Sun-Thu 9-10,,,
Bookstar/Costa Verde,,8650 Genesee Ave. Ste 230,,San Diego,CA,92122,United States,858-457-7561,,,Store Hours: 10-9 Every Day,,,
Grossmont Ctr,,5500 Grossmont Ctr Dr Suite 331,,La Mesa,CA,91942,United States,619-667-2870,,,Store Hours: Sun-Thu 9-10,,,
Vanderbilt Sq,,3003 W Holcombe Blvd,,Houston,TX,77025,United States,713-349-0050,,,Store Hours: Sun 10-9,,,
Trolley Square,,9938 Mission Gorge Road,,Santee,CA,92071,United States,619-562-1755,,,Store Hours: Sun-Thu 9-9,,,
Rancho Bernardo,,11744 Carmel Mountain Road,,San Diego,CA,92128,United States,858-674-1055,,,Store Hours: 9-9 Every Day,,,
Geneva Commons,,102 Commons Drive,,Geneva,IL,60134,United States,,,,Store Hours: Sun 10-8,,,
Bookstar/Loma Theatre,,3150 Rosecrans Place,,San Diego,CA,92110,United States,619-225-0465,,,Store Hours: Sun 10-7,,,
Deer Park,,20600 North Rand Road,,Deer Park,IL,60010,United States,847-438-7444,,,Store Hours: Sun 10-8,,,
Joliet,,2621 Plainfield Road,,Joliet,IL,60435,United States,,,,Store Hours: Sun 10-9,,,
Lakewood,,5711 Main Street SW,,Lakewood,WA,98499,United States,253-983-0852,,,Store Hours: 9-10 Every Day,,,
Federal Way,,31325 Pacific Highway South,,Federal Way,WA,98003,United States,253-839-2535,,,Store Hours: Sun-Thu 9-9,,,
Alderwood,,19401 Alderwood Mall Parkway,,Lynnwood,WA,98036,United States,,,,Store Hours: Sun-Thu 9-10,,,
Vernon Hills,,720 Hawthorne Center,,Vernon Hills,IL,60061,United States,,,,Store Hours: Sun 10-8,,,
Kitsap Mall,,10315 Silverdale Way NW,,Silverdale,WA,98383,United States,360-698-0945,,,Store Hours: Sun 10-9,,,
Eastlake,,2015 Birch Road Suite 700,,Chula Vista,CA,91915,United States,619-216-0182,,,Store Hours: Sun-Thu 10-10,,,
Issaquah,,1530 11th Avenue NW,,Issaquah,WA,98027,United States,425-557-8808,,,Store Hours: 9-9 Every Day,,,
South Center,,300 Andover Park W Ste 200,,Tukwila,WA,98188,United States,,,,Store Hours: 9-10 Every Day,,,
Bellevue,,626 106th Ave NE,,Bellevue,WA,98004,United States,,,,Store Hours: 10-10 Every Day,,,
Woodinville,,18025 Garden Way N.E.,,Woodinville,WA,98072,United States,425-398-1990,,,Store Hours: 9-10 Every Day,,,
Downtown,,600 Pine St Suite 107,,Seattle,WA,98101,United States,206-264-0156,,,Store Hours: Sun-Thu 9-10,,,
Naperville,,47 East Chicago Ave. Suite #132,,Naperville,IL,60540,United States,,,,Store Hours: Sun 10-8,,,
Montclair Place,,5183 Montclair Plaza Lane,,Montclair,CA,91763,United States,,,,Store Hours: Sun-Thu 9-10,,,
Valencia,,23630 Valencia Blvd.,,Santa Clarita,CA,91355,United States,661-254-6604,,,Store Hours: Sun-Thu 9-10,,,
Chino Hills,,3625 Grand Ave,,Chino Hills,CA,91709,United States,,,,Store Hours: 9-10 Every Day,,,
Mission Valley,,7610 Hazard Center Drive #315,,San Diego,CA,92108,United States,619-220-0175,,,Store Hours: Sun 10-9,,,
Bloomingdale,,200 South Gary Avenue,,Bloomingdale,IL,60108,United States,,,,Store Hours: Sun 10-7,,,
Orange,,791 South Main Street Suite 100,,Orange,CA,92868,United States,714-558-0028,,,Store Hours: 9-10 Every Day,,,
Northgate,,401 NE Northgate Way #1100,,Seattle,WA,98125,United States,206-417-2967,,,Store Hours: Sun-Thu 9-10,,,
Huntington Beach,,7881 Edinger Ave. #110,,Huntington Beach,CA,92647,United States,714-897-8781,,,Store Hours: Sun-Thu 9-10,,,
Calabasas,,4735 Commons Way,,Calabasas,CA,91302,United States,818-222-0542,,,Store Hours: Sun-Thu 9-10,,,
Glendora,,1315 E Gladstone Street,,Glendora,CA,91740,United States,,,,Store Hours: 9-11 Every Day,,,
Schaumburg,,590 East Golf Road,,Schaumburg,IL,60173,United States,847-310-0450,,,Store Hours: Sun 10-8,,,
Bolingbrook,,631 E. Boughton Road Suite 100,,Bolingbrook,IL,60440,United States,630-783-0009,,,Store Hours: Sun 10-7,,,
Orland Park Place,,160 Orland Park Place,,Orland Park,IL,60462,United States,,,,Store Hours: Sun 10-9,,,
Oakbrook Center,,297 Oakbrook Center,,Oak Brook,IL,60523,United States,,,,Store Hours: Sun 10-8,,,
Long Beach,,6326 East Pacific Coast Hwy,,Long Beach,CA,90803,United States,562-431-2253,,,Store Hours: 9-10 Every Day,,,
Sherman Plaza,,1630 Sherman Avenue,,Evanston,IL,60201,United States,,,,Store Hours: Sun 10-8,,,
State and Elm,,1130 North State Street,,Chicago,IL,60610,United States,,,,Store Hours: Sun-Thu 9-8,,,
Deerfield Square,,728 North Waukegan Road,,Deerfield,IL,60015,United States,,,,Store Hours: Sun 10-8,,,
Skokie Old Orchard,,55 Old Orchard Center,,Skokie,IL,60077,United States,,,,Store Hours: Sun 9-8,,,
Galleria at Tyler,,3485 Tyler Street,,Riverside,CA,92503,United States,,,,Store Hours: 9-11 Every Day,,,
Clybourn,,1441 West Webster Avenue,,Chicago,IL,60614,United States,773-871-3610,,,Store Hours: Sun 10-8,,,
Rancho Cucamonga,,11090 Foothill Blvd,,Rancho Cucamonga,CA,91730,United States,,,,Store Hours: Sun 10-9,,,
Spectrum,,728 Spectrum Center Drive,,Irvine,CA,92618,United States,949-585-0233,,,Store Hours: Sun-Thu 9-10,,,
Aliso Viejo,,26751 Aliso Creek Road,,Aliso Viejo,CA,92656,United States,949-362-8027,,,Store Hours: 9-10 Every Day,,,
South Corona,,2470 Tuscany Street Suite 101,,Corona,CA,92881,United States,951-735-0038,,,Store Hours: Sun-Thu 9-10,,,
Hulen Center,,4801 Overton Ridge Blvd suite 100,,Ft Worth,TX,76132,United States,817-346-2368,,,Store Hours: Sun 11-9,,,
Palmdale,,39228 10th Street West,,Palmdale,CA,93551,United States,661-272-9958,,,Store Hours: 9-10 Every Day,,,
Golden Triangle Mall,,2201 I-35 East South Space N01B,,Denton,TX,76205,United States,,,,Store Hours: Sun 11-7,,,
Fashion Island,,401 Newport Center Drive Suite A215,,Newport Beach,CA,92660,United States,949-718-0109,,,Store Hours: 9-10 Every Day,,,
Southlake Town Square,,1430 Plaza Place,,Southlake,TX,76092,United States,,,,Store Hours: Sun 10-10,,,
Shops at North East Mall,,861 NE Mall Blvd,,Hurst,TX,76053,United States,,,,Store Hours: Sun 11-9,,,
Skokie Village Crossing,,5405 Touhy Ave,,Skokie,IL,60077,United States,847-329-8460,,,Store Hours: Sun 10-8,,,
Firewheel Mall,,190 Cedar Sage Drive Unit #BB01,,Garland,TX,75040,United States,972-496-2000,,,Store Hours: Sun 10-9,,,
Irvine,,4600 Barranca Parkway,,Irvine,CA,92604,United States,,,,Store Hours: 10-9 Every Day,,,
Highland Village,,4100 Deer Creek Suite 100,,Highland Village,TX,75077,United States,972-966-0099,,,Store Hours: Sun 11-9,,,
Hillside Village,,305 West FM 1382 Suite 520,,Cedar Hill,TX,75104,United States,,,,Store Hours: Sun 11-9,,,
Preston Royal Shopping Center,,5959 Royal Lane Suite 616,,Dallas,TX,75230,United States,,,,Store Hours: Sun 10-9,,,
Prestonwood Center,,5301 Beltline Road Suite 118,,Dallas,TX,75254,United States,,,,Store Hours: Sun 10-9,,,
Lincoln Park,,7700 West Northwest Hwy. Ste. 300,,Dallas,TX,75225,United States,,,,Store Hours: Sun 10-9,,,
Palm Valley Pavillions West,,1446 N. Litchfield Road,,Goodyear,AZ,85395,United States,,,,Store Hours: 9-10 Every Day,,,
Desert Ridge,,21001 N. Tatum Blvd. Suite 42,,Phoenix,AZ,85050,United States,480-538-8520,,,Store Hours: Sun 10-8,,,
Arrowhead,,7685 West Bell Road,,Peoria,AZ,85382,United States,,,,Store Hours: Sun 10-9,,,
Pima & Shea,,10500 N. 90th Street,,Scottsdale,AZ,85258,United States,480-391-0048,,,Store Hours: 9-9 Every Day,,,
Metro,,10235 N Metro Parkway East,,Phoenix,AZ,85051,United States,602-678-0088,,,Store Hours: Sun 9-8,,,
Westwood Village,,2600 SW Barton St Suite E-1,,Seattle,WA,98126,United States,,,,Store Hours: 9-9 Every Day,,,
Tempe Marketplace,,2000 E.Rio Salado Pkwy  #1032,,Tempe,AZ,85281,United States,,,,Store Hours: Sun 10-9,,,
Happy Valley,,2501 West Happy Valley Road Ste 20,,Phoenix,AZ,85085,United States,623-780-3300,,,Store Hours: Sun-Fri 10-9,,,
Staten Island,,2245 Richmond Avenue,,Staten Island,NY,10314,United States,,,,Store Hours: Sun 9-9,,,
Santa Rosa,,700 4th Street,,Santa Rosa,CA,95404,United States,707-576-7494,,,Store Hours: 9-9 Every Day,,,
The Shops @ Riverside,,187 Riverside Square,,Hackensack,NJ,07601,United States,,,,Store Hours: Sun 10-8,,,
Stevens Creek Blvd,,3600 Stevens Creek Blvd,,San Jose,CA,95117,United States,,,,Store Hours: 9-10 Every Day,,,
Eastridge Mall,,2200 Eastridge Loop Space 1420,,San Jose,CA,95122,United States,408-270-9470,,,Store Hours: Sun 11-7,,,
Gateway Courtyard,,1600 Gateway Blvd,,Fairfield,CA,94533,United States,,,,Store Hours: Sun 9-9,,,
Gilroy,,6825 Camino Arroyo,,Gilroy,CA,95020,United States,408-846-5777,,,Store Hours: Sun-Thu 9-9,,,
Dublin,,4972 Dublin Boulevard,,Dublin,CA,94568,United States,925-560-1495,,,Store Hours: Sun 9-9,,,
Chandler Fashion Mall,,3111 W. Chandler Blvd #2054,,Chandler,AZ,85226,United States,,,,Store Hours: Sun 10-7,,,
Blossom Hill,,5353 Almaden Expressway Bldg. B,,San Jose,CA,95118,United States,408-979-0611,,,Store Hours: 9-10 Every Day,,,
Redwood City,,1091 El Camino Real,,Redwood City,CA,94063,United States,,,,Store Hours: Sun 10-8,,,
Hillsdale,,11 West Hillsdale Blvd.,,San Mateo,CA,94403,United States,650-341-5560,,,Store Hours: 9-10 Every Day,,,
San Tan Village,,2150 East Williams Field Rd #105,,Gilbert,AZ,85295,United States,,,,Store Hours: Sun 10-8,,,
Corte Madera,,313 Corte Madera Town Center,,Corte Madera,CA,94925,United States,,,,Store Hours: 9-9 Every Day,,,
Antioch,,5709 Lone Tree Way,,Antioch,CA,94531,United States,925-978-1031,,,Store Hours: Sun 9-9,,,
First Colony Mall,,16535 Southwest Frwy Suite 4000,,Sugar Land,TX,77479,United States,,,,Store Hours: Sun 10-9,,,
El Cerrito,,6050 El Cerrito Plaza,,El Cerrito,CA,94530,United States,510-524-0087,,,Store Hours: Sun-Thu 9-9,,,
The Shops at Tanforan,,1150 El Camino Real Space 277,,San Bruno,CA,94066,United States,,,,Store Hours: Sun-Thu 10-9,,,
86th & Lexington Ave,,150 East 86th Street,,New York,NY,10028,United States,,,,Store Hours: Sun 10-10,,,
The Woodlands,,1201 Lake Woodlands Dr. #3008,,The Woodlands,TX,77381,United States,281-465-8744,,,Store Hours: Sun 10-9,,,
Fifth Ave,,555 Fifth Avenue,,New York,NY,10017,United States,,,,Store Hours: Sun 10-9,,,
Bay Street - Emeryville,,5604 Bay Street,,Emeryville,CA,94608,United States,510-547-0905,,,Store Hours: Sun-Thu 9-10,,,
82nd & Broadway,,2289 Broadway,,New York,NY,10024,United States,,,,Store Hours: 9-10 Every Day,,,
Park Slope,,267 7th Avenue,,Brooklyn,NY,11215,United States,,,,Store Hours: 9-10 Every Day,,,
Court Street,,106 Court Street,,Brooklyn,NY,11201,United States,,,,Store Hours: Sun 10-9,,,
Union Square,,33 East 17th Street,,New York,NY,10003,United States,,,,Store Hours: Sun 10-10,,,
Clifton,,395 Route 3 East,,Clifton,NJ,07014,United States,973-779-5500,,,Store Hours: Sun-Thu 9-10,,,
Tribeca,,97 Warren Street,,New York,NY,10007,United States,,,,Store Hours: Sun 10-7,,,
Bethlehem,,4445 Southmont Way,,Easton,PA,18045,United States,610-515-0376,,,Store Hours: Sun 10-9,,,
Westport,,1076 Post Road East,,Westport,CT,06880,United States,203-221-7955,,,Store Hours: Sun 9-7,,,
Neshaminy Mall,,300 Neshaminy Mall,,Bensalem,PA,19020,United States,,,,Store Hours: Sun 10-7,,,
Christiana Mall,,340 Christiana Mall,,Newark,DE,19702,United States,,,,Store Hours: Sun 10-7,,,
Center Valley,,2960 Center Valley Pkwy Ste 742,,Center Valley,PA,18034,United States,,,,Store Hours: Sun 10-9,,,
The Court @ Oxford Valley,,210 Commerce Blvd,,Fairless Hills,PA,19030,United States,,,,Store Hours: Sun 10-7,,,
Concord Pike,,4801Concord Pike,,Wilmington,DE,19803,United States,302-478-9677,,,Store Hours: Sun 10-7,,,
Montgomeryville,,1271 Knapp Road,,North Wales,PA,19454,United States,215-699-3099,,,Store Hours: Sun 10-9,,,
Valley Forge,,150 West Swedesford Road,,Devon,PA,19333,United States,610-695-6600,,,Store Hours: Sun 10-9,,,
Exton,,301 Main Street,,Exton,PA,19341,United States,610-524-0103,,,Store Hours: Sun 10-9,,,
Baybrook,,1029 W Bay Area Blvd,,Webster,TX,77598,United States,281-554-8224,,,Store Hours: Sun 10-9,,,
Marlton,,200 West Route 70,,Marlton,NJ,08053,United States,,,,Store Hours: Sun 10-9,,,
Plymouth Meeting,,2300 Chemical Road,,Plymouth Meeting,PA,19462,United States,610-567-2900,,,Store Hours: Sun 10-7,,,
Moorestown,,1311 Nixon Drive,,Moorestown,NJ,08057,United States,856-608-1622,,,Store Hours: Sun 10-9,,,
Broomall,,1991 Sproul Rd,,Broomall,PA,19008,United States,,,,Store Hours: Sun 10-8,,,
Bethesda,,4801 Bethesda Avenue,,Bethesda,MD,20814,United States,,,,Store Hours: 9-10 Every Day,,,
Fairfax,,12193 Fair Lakes Promenade Drive,,Fairfax,VA,22033,United States,703-278-0300,,,Store Hours: 9-10 Every Day,,,
Francis Scott Key Mall,,5500 Buckeystown Pike,,Frederick,MD,21703,United States,,,,Store Hours: Sun 10-7,,,
Willow Grove,,102 Park Avenue,,Willow Grove,PA,19090,United States,,,,Store Hours: Sun 10-7,,,
Millbury,,70 Worcester Providence Turnpike #5,,Millbury,MA,01527,United States,508-865-2801,,,Store Hours: Sun 10-8,,,
Leominster,,120 Watertower Plaza,,Leominster,MA,01453,United States,978-537-6009,,,Store Hours: Sun 10-8,,,
Manchester,,1741 South Willow Street,,Manchester,NH,03103,United States,,,,Store Hours: Sun 10-7,,,
Salem,,125 S Broadway Route 28,,Salem,NH,03079,United States,,,,Store Hours: Sun 10-9,,,
Gaithersburg,,21 Grand Corner Ave.,,Gaithersburg,MD,20878,United States,301-721-0860,,,Store Hours: Sun-Thur 10-9,,,
Bellingham,,270 Hartford Avenue,,Bellingham,MA,02019,United States,508-966-7600,,,Store Hours: Sun 10-7,,,
North Dartmouth,,392 State Road Route 6,,North Dartmouth,MA,02747,United States,508-997-0701,,,Store Hours: Sun 10-6,,,
Framingham,,1 Worcester Rd,,Framingham,MA,01701,United States,,,,Store Hours: Sun-Thu 9-10,,,
Walpole Mall,,82 Providence Highway,,Walpole,MA,02032,United States,,,,Store Hours: Sun 10-7,,,
Saugus,,444A Broadway,,Saugus,MA,01906,United States,781-231-4711,,,Store Hours: Sun 10-8,,,
Burlington,,98 Middlesex Turnpike,,Burlington,MA,01803,United States,,,,Store Hours: Sun 10-9,,,
Fredericksburg/ Central Park,,1220 Carl D. Silver Parkway,,Fredericksburg,VA,22401,United States,,,,Store Hours: Sun 11-7,,,
Peabody,,210 Andover Street,,Peabody,MA,01960,United States,978-573-3261,,,Store Hours: Sun 10-9,,,
Manassas,,8117 Sudley Road,,Manassas,VA,20109,United States,703-393-0910,,,Store Hours: 10-9 Every Day,,,
Prudential Center,,800 Boylston Street Suite 179,,Boston,MA,02199,United States,,,,Store Hours: Sun 10-8,,,
Braintree,,150 Granite St,,Braintree,MA,02184,United States,,,,Store Hours: Sun 10-8,,,
Worcester,,541 D Lincoln Street,,Worcester,MA,01605,United States,508-853-2236,,,Store Hours: Sun 10-8,,,
Nashua,,235 Daniel Webster Hwy,,Nashua,NH,03060,United States,,,,Store Hours: Sun 10-9,,,
Springfield,,6646 Loisdale Road,,Springfield,VA,22150,United States,703-971-5383,,,Store Hours: Sun 10-9,,,
Seven Corners,,6260 Seven Corners Center,,Falls Church,VA,22044,United States,,,,Store Hours: Sun 10-8,,,
Clarendon Market Common,,2800 Clarendon Blvd. Suite 500,,Arlington,VA,22201,United States,,,,Store Hours: Sun 10-9,,,
Potomac,,3651 Jefferson Davis Hwy,,Alexandria,VA,22305,United States,703-299-9124,,,Store Hours: 9-10 Every Day,,,
Bowie,,15455 Emerald Way,,Bowie,MD,20716,United States,301-809-1552,,,Store Hours: Sun 10-8,,,
Smithfield,,371 Putnam Pike  Suite 330,,Smithfield,RI,02917,United States,401-231-5828,,,Store Hours: Sun 10-7,,,
Annapolis,,2516 Solomons Island Rd.,,Annapolis,MD,21401,United States,,,,Store Hours: Sun-Thu 9-9,,,
Rockville Pike,,12089 Rockville Pike,,Rockville,MD,20852,United States,301-881-0237,,,Store Hours: 9-10 Every Day,,,
Bel Air,,620 Marketplace Drive,,Bel Air,MD,21014,United States,410-638-7023,,,Store Hours: Sun 10-7:30,,,
Tysons Corner Mall,,7851 L. Tysons Corner Center,,McLean,VA,22102,United States,703-506-2937,,,Store Hours: Sun 10-9,,,
Deptford,,1553 Almonesson Road,,Deptford,NJ,08096,United States,856-232-3123,,,Store Hours: Sun 9-9,,,
Cherry Hill,,911 Haddonfield Road,,Cherry Hill,NJ,08002,United States,856-486-1492,,,Store Hours: Sun 9-9,,,
White Marsh,,8123 Honeygo Blvd. Suite E,,Baltimore,MD,21236,United States,410-933-9670,,,Store Hours: Sun-Thu 9-9,,,
Hingham,,96 Derby Street Suite 300,,Hingham,MA,02043,United States,781-749-3319,,,Store Hours: Sun 11-7,,,
Menlo Park Mall,,55 Parsonage Road,,Edison,NJ,08837,United States,,,,Store Hours: Sun 10-8,,,
Ellicott City,,4300 Montgomery Road,,Ellicott City,MD,21043,United States,410-203-9001,,,Store Hours: Sun 9-9,,,
Pikesville,,1819 Reisterstown Rd.,,Baltimore,MD,21208,United States,,,,Store Hours: Sun 10-9,,,
Power Plant,,601 E. Pratt Street,,Baltimore,MD,21202,United States,410-385-1709,,,Store Hours: Sun-Thu 10-9,,,
Manhasset,,1542 Northern Blvd,,Manhasset,NY,11030,United States,,,,Store Hours: Sun 9-9,,,
Clark,,1180 Raritan Road,,Clark,NJ,07066,United States,,,,Store Hours: Sun 9-9,,,
Paramus,,765 Route 17 South,,Paramus,NJ,07652,United States,,,,Store Hours: Sun Closed,,,
Lake Success,,1424 Union Tpke,,New Hyde Park,NY,11040,United States,516-437-0324,,,Store Hours: Sun 11-6,,,
Livingston,,112 Eisenhower Parkway,,Livingston,NJ,07039,United States,,,,Store Hours: Sun 10-7,,,
NY/Eastchester,,680 Post Road,,Scarsdale,NY,10583,United States,914-472-0689 (main),,,Store Hours: Sun-Thu 9-10,,,
Somerville,,319 Route 202/206,,Bridgewater,NJ,08807,United States,908-526-7425,,,Store Hours: Sun 9-9,,,
Country Glen Center,,91 Old Country Road,,Carle Place,NY,11514,United States,,,,Store Hours: Sun 9-9,,,
Massapequa,,5224 Sunrise Highway,,Massapequa Park,NY,11762,United States,516-541-1456,,,Store Hours: Sun 10-9,,,
Monmouth Mall,,180 Route 35,,Eatontown,NJ,07724,United States,,,,Store Hours: Sun 10-7,,,
East Brunswick,,753 Rt 18 Brunswick Square Space 318,,East Brunswick,NJ,08816,United States,732-432-0100,,,Store Hours: Sun 10-8,,,
Woodland Park,,1156 Route 46 West,,Woodland Park,NJ,07424,United States,973-812-0180,,,Store Hours: Sun 10-9,,,
Palisades,,4416 Palisades Center Drive,,West Nyack,NY,10994,United States,845-348-4701,,,Store Hours: Sun 10-8,,,
Morris Plains,,1940 Route 10 West,,Morris Plains,NJ,07950,United States,,,,Store Hours: Sun 10-9,,,
Holmdel,,2134 State Highway 35,,Holmdel,NJ,07733,United States,732-275-0620,,,Store Hours: Sun 9-9,,,
Princeton/Market Fair,,3535 US Highway 1 Suite 400,,Princeton,NJ,08540,United States,,,,Store Hours: Sun 10-9,,,
Brick,,44 Brick Plaza,,Brick,NJ,08723,United States,,,,Store Hours: Sun 9-9,,,
Bay Shore,,842 Sunrise Highway,,Bay Shore,NY,11706,United States,631-206-0198,,,Store Hours: Sun 9-9,,,
Yonkers,,2614 Central Park Avenue,,Yonkers,NY,10710,United States,914-771-6400,,,Store Hours: Sun-Thu 9-9,,,
Ledgewood,,375 Route 10 E,,Ledgewood,NJ,07852,United States,973-252-9300,,,Store Hours: Sun 10-6,,,
Nanuet,,140 Rockland Plaza,,Nanuet,NY,10954,United States,,,,Store Hours: Sun 10-7,,,
Howell,,4831 US Hwy 9,,Howell,NJ,07731,United States,732-730-2838,,,Store Hours: Sun 10-8,,,
East Northport,,4000 East Jericho Turnpike,,East Northport,NY,11731,United States,631-462-0208,,,Store Hours: Sun 9-9,,,
Mohegan Lake,,3089 E Main Street,,Mohegan Lake,NY,10547,United States,914-528-6275,,,Store Hours: Sun 10-8,,,
Stamford Town Center,,100 Greyrock Place Suite H009,,Stamford,CT,06901,United States,,,,Store Hours: Sun 10-6,,,
Freehold,,3981 US Hwy 9,,Freehold,NJ,07728,United States,,,,Store Hours: Sun 9-9,,,
City Center,,230 Main St,,White Plains,NY,10601,United States,,,,Store Hours: Sun 10-7,,,
Woodbury,,7020 Valley Creek Plaza,,Woodbury,MN,55125,United States,651-739-7274,,,Store Hours: Sun 10-8,,,
Burnsville,,828 West County Road 42,,Burnsville,MN,55337,United States,952-892-9280,,,Store Hours: Sun 10-8,,,
Mall Of Georgia,,3333 Buford Drive Space VA01,,Buford,GA,30519,United States,,,,Store Hours: Sun 11-8,,,
Maple Grove,,8040 Wedgewood Lane,,Maple Grove,MN,55369,United States,,,,Store Hours: Sun 10-8,,,
Newnan,,342 Newnan Crossing Bypass,,Newnan,GA,30265,United States,770-304-2114,,,Store Hours: Sun-Thu 9-9,,,
Maplewood Mall,,3001 White Bear Ave North Ste 1030,,Maplewood,MN,55109,United States,,,,Store Hours: Sun 10-7,,,
The Ave at West Cobb,,3625 Dallas Hwy SW Suite 400,,Marietta,GA,30064,United States,770-424-0511,,,Store Hours: Sun 10-9,,,
Mansell Crossings SC,,7660 Northpoint Parkway Ste 200,,Alpharetta,GA,30022,United States,,,,Store Hours: Sun 10-9,,,
Town Center Prado,,50 Barrett Pkwy Suite 3000 Bldg. 3,,Marietta,GA,30066,United States,,,,Store Hours: Sun 10-9,,,
The Shoppes at Webb Gin,,1350 Scenic Highway Suite 100,,Snellville,GA,30078,United States,,,,Store Hours: Sun 11-9,,,
The Forum,,5141 Peachtree Parkway,,Peachtree Corners,GA,30092,United States,770-209-4244,,,Store Hours: Sun 11-8,,,
Eden Prairie Center,,8251 Flying Cloud Dr. #3000,,Eden Prairie,MN,55344,United States,,,,Store Hours: Sun 11-7,,,
Redlands,,27460 Lugonia Ave,,Redlands,CA,92374,United States,909-793-4322,,,Store Hours: Sun-Thu 9-10,,,
Cumberland,,2952 Cobb Pkwy.,,Atlanta,GA,30339,United States,,,,Store Hours: Sun 9-9,,,
Buckhead,,2900 Peachtree Road NE Suite 310,,Atlanta,GA,30305,United States,,,,Store Hours: Sun 9-9,,,
Victorville Mall,,14400 Bear Valley Road Suite 107,,Victorville,CA,92392,United States,760-245-3370,,,Store Hours: Sun 9-9,,,
Perimeter,,120 Perimeter Center West Ste 300,,Atlanta,GA,30346,United States,,,,Store Hours: Sun 10-9,,,
Edgewood Retail,,1217 Caroline Street at Moreland Av,,Atlanta,GA,30307,United States,404-522-0212,,,Store Hours: Sun 9-9,,,
Temecula,,40570 Winchester Rd.,,Temecula,CA,92591,United States,,,,Store Hours: Sun-Thu 9-10,,,
Mall of America,,118 E. Broadway Suite 238,,Bloomington,MN,55425,United States,,,,Store Hours: Sun 11-7,,,
Southlake,,1939 Mount Zion Road,,Morrow,GA,30260,United States,,,,Store Hours: Sun-Thu 9-9,,,
Eagan,,1291 Promenade Place,,Eagan,MN,55121,United States,651-683-1955,,,Store Hours: Sun 10-8,,,
Calhoun,,3216 West Lake St,,Minneapolis,MN,55416,United States,612-922-3238,,,Store Hours: Sun 10-9,,,
Roseville II,,2100 North Snelling Ave,,Roseville,MN,55113,United States,651-639-9256,,,Store Hours: Sun 9-9,,,
Ridgehaven Mall,,13131 Ridgedale Drive,,Minnetonka,MN,55305,United States,,,,Store Hours: Sun 10-8,,,
The Collection at Forsyth,,410 Peachtree Pkwy,,Cumming,GA,30041,United States,770-781-0867,,,Store Hours: Sun 10-9,,,
MN/Edina,,3230 Galleria,,Edina,MN,55435,United States,952-929-4366 (restaurant),,,Store Hours: Sun 10-9,,,
Northtown,,710 County Highway 10 NE,,Blaine,MN,55434,United States,,,,Store Hours: Sun 10-8,,,
Weberstown,,4950 Pacific Avenue Space 319,,Stockton,CA,95207,United States,209-472-1885,,,Store Hours: Sun 9-7,,,
Cherryvale Mall,,7200 Harrison Ste 5,,Rockford,IL,61112,United States,,,,Store Hours: Sun 10-7,,,
Water Tower Plaza,,1577 North State Route 50,,Bourbonnais,IL,60914,United States,,,,Store Hours: Sun 10-8,,,
Milford,,1375 Boston Post Road,,Milford,CT,06460,United States,,,,Store Hours: Sun 10-9,,,
Newburgh Crossing,,1245 Route 300 (Union Ave),,Newburgh,NY,12550,United States,,,,Store Hours: Sun 9-7,,,
Danbury Square,,15 Backus Ave,,Danbury,CT,06810,United States,,,,Store Hours: Sun 10-7,,,
Buckland Hills Mall,,270 Buckland Hills Dr. Suite 1024,,Manchester,CT,06040,United States,860-648-1008,,,Store Hours: Sun 10-7,,,
Holyoke,,7 Holyoke Street,,Holyoke,MA,01040,United States,,,,Store Hours: Sun 10-7,,,
Enfield,,25 Hazard Ave,,Enfield,CT,06082,United States,860-745-7315,,,Store Hours: Sun 9-8,,,
Warwick,,1350-B Bald Hill Rd,,Warwick,RI,02886,United States,401-826-8885,,,Store Hours: Sun 10-7,,,
Ventura,,4820 Telephone Road,,Ventura,CA,93003,United States,805-339-0990,,,Store Hours: Sun-Thu 9-10,,,
Hadley,,335 Russell Street,,Hadley,MA,01035,United States,413-584-2558,,,Store Hours: Sun 10-8,,,
Middletown,,1311 West Main Road,,Middletown,RI,02842,United States,401-846-3313,,,Store Hours: Sun 10-7,,,
Pembroke Pines,,11820 Pines Blvd,,Pembroke Pines,FL,33026,United States,,,,Store Hours: Sun 10-9,,,
West Kendall,,12405 N Kendall Drive,,Miami,FL,33186,United States,305-598-7727,,,Store Hours: 9-11 Every Day,,,
Sunset,,5701 Sunset Drive Suite 196,,S. Miami,FL,33143,United States,305-662-4770,,,Store Hours: Sun 11-9,,,
Coral Gables,,152 Miracle Mile,,Coral Gables,FL,33134,United States,,,,Store Hours: 9-11 Every Day,,,
Wellington,,10500 West Forest Hill Blvd.,,Wellington,FL,33414,United States,561-792-1292,,,Store Hours: Sun 10-9,,,
Boca Raton,,1400 Glades Rd.,,Boca Raton,FL,33431,United States,561-750-2134,,,Store Hours: Sun-Thu 9-10,,,
Coral Springs,,2790 University Drive,,Coral Springs,FL,33065,United States,,,,Store Hours: Sun-Thurs 9-10,,,
Broward Mall,,591 South University Dr,,Plantation,FL,33324,United States,,,,Store Hours: Sun 10-9,,,
Boynton Beach,,333 N. Congress Avenue,,Boynton Beach,FL,33436,United States,,,,Store Hours: Sun 10-9,,,
Pittsfield,,555 Hubbard Ave,,Pittsfield,MA,01201,United States,,,,Store Hours: Sun 10-6,,,
Farmington,,1599 South East Rd,,Farmington,CT,06032,United States,,,,Store Hours: Sun 10-8,,,
Somerset Square,,175 Glastonbury Blvd.,,Glastonbury,CT,06033,United States,,,,Store Hours: Sun-Thu 9-9,,,
Canton,,110 Albany Tpk #305,,Canton,CT,06019,United States,860-693-0115,,,Store Hours: Sun 9-8,,,
West Hartford,,60 Isham Road,,West Hartford,CT,06107,United States,860-236-9900,,,Store Hours: Sun 11-8,,,
Waterbury,,235 Union Street,,Waterbury,CT,06706,United States,203-759-7125,,,Store Hours: Sun 9-9,,,
North Haven,,470 Universal Drive North,,North Haven,CT,06473,United States,203-234-1805,,,Store Hours: Sun 9-9,,,
Fort Lauderdale,,2051 N. Federal Highway,,Fort Lauderdale,FL,33305,United States,954-561-3732,,,Store Hours: Sun-Thu 9-10,,,
The Promenade Shops at Centerra,,5835 Sky Pond Drive,,Loveland,CO,80537,United States,970-663-9473,,,Store Hours: Sun 10-8,,,
Southlands Town Center,,6300 S. Main Street Suite N101,,Aurora,CO,80016,United States,,,,Store Hours: Sun 9-8,,,
Lone Tree,,8374 S. Willow Street,,Lone Tree,CO,80124,United States,303-706-9660,,,Store Hours: 9-10 Every Day,,,
Denver,,8136 West Bowles Avenue,,Littleton,CO,80123,United States,303-948-9565,,,Store Hours: Sun-Thu 9-9,,,
Crossroads Commons,,2999 Pearl Street,,Boulder,CO,80301,United States,,,,Store Hours: Sun 10-9,,,
College Ave.,,4045 S. College,,Ft. Collins,CO,80525,United States,,,,Store Hours: 9-10 Every Day,,,
West Village,,14347 West Colfax Avenue,,Lakewood,CO,80401,United States,303-215-9060,,,Store Hours: Sun 11-8,,,
Aurora,,170 S. Abilene St.,,Aurora,CO,80012,United States,303-340-4475,,,Store Hours: Sun 10-8,,,
Westminster,,9370 Sheridan Blvd,,Westminster,CO,80030,United States,,,,Store Hours: Sun 10-9,,,
Co. Blvd II,,960 S Colorado Blvd,,Glendale,CO,80246,United States,,,,Store Hours: 9-10 Every Day,,,
Thorncreek Shopping Ctr,,701 E. 120th Avenue,,Thornton,CO,80233,United States,,,,Store Hours: Sun 10-9,,,
Poughkeepsie,,2518 South Road,,Poughkeepsie,NY,12601,United States,,,,Store Hours: Sun 10-8,,,
Palm Beach Gardens,,11380 Legacy Ave,,Palm Beach Gardens,FL,33410,United States,,,,Store Hours: Sun 10-9,,,
Reading,,2751 Paper Mill Road,,Wyomissing,PA,19610,United States,610-236-0100,,,Store Hours: Sun 10-9,,,
Lehigh Valley Mall,,801 Lehigh Lifestyle Center,,Whitehall,PA,18052,United States,,,,Store Hours: Sun 10-7,,,
Wilkes-Barre,,421 Arena Hub Plaza,,Wilkes-Barre,PA,18702,United States,570-829-4210,,,Store Hours: Sun 9-9,,,
Arden Fair,,1725 Arden Way,,Sacramento,CA,95815,United States,,,,Store Hours: Sun 9-9,,,
Natomas,,3561 N.Freeway Blvd,,Sacramento,CA,95834,United States,916-285-0387,,,Store Hours: Sun-Thu 9-9,,,
Portsmouth,,45 Gosling Road The Crossings at Fo,,Newington,NH,03801,United States,603-422-7733,,,Store Hours: Sun 10-8,,,
Palm Desert,,72-840 Highway 111 Suite 425,,Palm Desert,CA,92260,United States,760-346-0725,,,Store Hours: Sun 9-9,,,
Modesto,,3501 McHenry Avenue Suite E,,Modesto,CA,95356,United States,209-521-1118,,,Store Hours: 9-9 Every Day,,,
Mayfair Mall,,2500 N. Mayfair Rd Suite 196,,Wauwatosa,WI,53226,United States,,,,Store Hours: Sun 10-7,,,
Greenfield,,4935 South 76th St,,Greenfield,WI,53220,United States,,,,Store Hours: Sun 10-7,,,
Brookfield Mall,,95 N. Moorland Road Unit C-1,,Brookfield,WI,53005,United States,262-796-8550,,,Store Hours: Sun 10-7,,,
Southland Center,,2710 South Green Bay Rd,,Racine,WI,53406,United States,,,,Store Hours: Sun 10-8,,,
Bayshore Mall,,5755 N Bayshore Drive,,Glendale,WI,53217,United States,,,,Store Hours: Sun 10-7,,,
Birdcage,,6111 Sunrise Blvd.,,Citrus Heights,CA,95610,United States,916-853-1511,,,Store Hours: 9-10 Every Day,,,
Cape Cod Mall,,769 Iyannough Road,,Hyannis,MA,02601,United States,,,,Store Hours: Sun 10-7,,,
Roseville,,1256 Galleria Boulevard,,Roseville,CA,95678,United States,916-788-4320,,,Store Hours: Sun 9-9,,,
Riverbend Market Place,,1442 Turner-McCall Blvd,,Rome,GA,30161,United States,706-232-3202,,,Store Hours: Sun 10-9,,,
Lancaster,,1700 H Fruitville Pike,,Lancaster,PA,17601,United States,717-290-8171,,,Store Hours: Sun 9-9,,,
Kingston,,1177 Ulster Avenue,,Kingston,NY,12401,United States,845-336-0590,,,Store Hours: Sun 10-7,,,
Athens,,3650 Atlanta Highway,,Athens,GA,30606,United States,706-354-1195,,,Store Hours: Sun 10-9,,,
St. Cloud,,3940 Division Street,,St. Cloud,MN,56301,United States,320-251-4537,,,Store Hours: Sun 10-9,,,
Mankato,,1850 Adams Street # 404,,Mankato,MN,56001,United States,507-345-3444,,,Store Hours: Sun 11-7,,,
Citadel,,795 Citadel Drive East,,Colorado Springs,CO,80909,United States,,,,Store Hours: Sun 10-9,,,
Briargate,,1565 Briargate Blvd,,Colorado Springs,CO,80920,United States,,,,Store Hours: Sun 9-9,,,
