store_name,store_number,address,address2,city,state,zip_code,country,phone_number,latitude,longitude,store_hours,store_type,other_fields,coming_soon
Caribou Coffee & Einstein Bros. Bagels,8590,1LMU Drive,,Los Angeles,CA,90045,US,1-888-227-4268,33.969676,-118.416137,,,,
"""Coming Soon"" - Caribou Coffee & Einstein Bros. Bagels",8624,DFW Airport - Terminal C6,,Dallas,TX,75261,US,1-888-227-4268,32.89133071899414,-97.03960418701172,,,,
Caribou Coffee & Einstein Bros. Bagels,1357,2080 W. Northern Ave,,Phoenix,AZ,85021,US,602-973-1556,33.553154692053795,-112.10341393947601,,,,
Caribou Coffee & Einstein Bros. Bagels,3646,725 South Rural Rd.,,Tempe,AZ,85281,US,480-303-6606,33.4228047,-111.9261662,,,,
Caribou Coffee & Einstein Bros. Bagels,3557,10250 N 90th St.,,Scottsdale,AZ,85258,US,480-451-1796,33.57878494,-111.8869019,,,,
Caribou Coffee & Einstein Bros. Bagels,3521,1447 E Williams Field Rd.,,Gilbert,AZ,85295,US,480-857-0486,33.30661476,-111.7584939,,,,
Caribou Coffee,8069,420 University Blvd.,,Indianapolis,IN,46202,US,(317) 274-5157,39.7737532,-86.17612867,,,,
Caribou Coffee,8394,"610 Purdue Mall, Purdue Campus",,West Lafayette,IN,47906,US,(765) 743-1413,40.43266268,-86.91497633,,,,
Caribou Coffee,8185,2700 DeKalb Ave,,Sycamore,IL,60178,US,(815) 756-6174,41.95893339,-88.71902282,,,,
Caribou Coffee,8172,5637 Cleveland Avenue,,Stevensville,MI,49127,US,269-429-1711,42.01563989,-86.49293639,,,,
Caribou Coffee,8162,314 N. Ironwood Dr.,,Mishawaka,IN,46544,US,(574) 259-6348,41.6601146,-86.21438659,,,,
"""Coming Soon"" - Caribou Coffee & Einstein Bros. Bagels",1372,3129 South 27th Street,,Milwaukee,WI,53215,US,1-888-227-4268,42.98776924610138,-87.94840916991234,,,,
"""Coming Soon"" - Caribou Coffee & Einstein Bros. Bagels",1373,544 East Ogden Ave,,Milwaukee,WI,53202,US,1-888-227-4268,43.048215508461,-87.90541134774685,,,,
Caribou Coffee & Einstein Bros. Bagels,1376,180 E. Sunset Dr,,Waukesha,WI,53189,US,262-513-2820,42.9884398,-88.22426297,,,,
"""Coming Soon"" - Caribou Coffee",8646,101 N. East Ave,,Waukesha,WI,53186,US,1-888-227-4268,43.00352,-88.22638,,,,
Caribou Coffee & Einstein Bros. Bagels,1398,17000 W Bluemound Road,,Brookfield,WI,53045-5951,US,262-860-9088,43.037789064828964,-88.12373162811454,,,,
Caribou Coffee & Einstein Bros. Bagels,1490,4301 North Oakland Ave,,Shorewood,WI,53211,US,414 962-9888,43.09487152,-87.88784027,,,,
Caribou Coffee,8315,2021 Broad Avenue,,Findlay,OH,45840,US,419-422-9521,41.0642577,-83.663542,,,,
Caribou Coffee,8074,Detroit Metropolitan Wayne County Airport,,Detroit,MI,48242,US,(734) 229-1044,42.22545841,-83.34846688,,,,
Caribou Coffee,8282,Detroit Metro Airport,,Detroit,MI,48242,US,734-942-6987,42.20837372,-83.35720158,,,,
Caribou Coffee,8591,3801 Jefferson Davis Hwy,,Alexandria,VA,22305,US,703-518-4711,38.839247631472354,-77.05028481781483,,,,
Caribou Coffee,406,100 North Tryon Street,,Charlotte,NC,28202,US,(704) 372-5507,35.2268452,-80.84191103,,,,
Caribou Coffee,8562,1021 Morehead Medical Drive,,Charlotte,NC,28204,US,980-442-3080,35.20590385,-80.83869227,,,,
Caribou Coffee,403,4327 Park Road,,Charlotte,NC,28209,US,(704) 523-6822,35.17324331,-80.84788263,,,,
Caribou Coffee,408,7804 Fairview Road,,Charlotte,NC,28226,US,(704) 367-0050,35.14703565,-80.80908375,,,,
Caribou Coffee,311,3109 Northline Avenue,,Greensboro,NC,27408,US,(336) 292-3202,36.08751722,-79.83100642,,,,
Caribou Coffee,8171,470 Student Union,,Stillwater,OK,74078,US,405-744-3099,36.12120941,-97.06859112,,,,
"""Coming Soon"" - Caribou Coffee & Einstein Bros. Bagels",2569,10950 N. Port Washington Rd,,Mequon,WI,53092,US,1-888-227-4268,43.21777202188969,-87.92394272983074,,,,
Caribou Coffee,8135,3801 East Washington Av,,Madison,WI,53704,US,608-244-4696,43.1180776,-89.31846923,,,,
"""Coming Soon"" - Caribou Coffee",2902,3904 E Washington Ave,,Madison,WI,53704,US,1-888-227-4268,43.12157822,-89.31851959,,,,
Caribou Coffee & Einstein Bros. Bagels,1911,652 State Street,,Madison,WI,53703-1016,US,608 257-9828,43.074902817606926,-89.39637154340744,,,,
"""Coming Soon"" - Caribou Coffee",1382,2839 Fish Hatchery Road,,Fitchburg,WI,53713,US,1-888-227-4268,43.03024,-89.40924,,,,
Caribou Coffee & Einstein Bros. Bagels,1806,2701 University Ave,,Madison,WI,53705,US,608 661-1399,43.07315063,-89.43431854,,,,
Caribou Coffee,8014,1 Richard E Byrd Terminal Dr B Concourse,,Richmond,VA,23250,US,(804) 222-1227,37.5078757,-77.33160376,,,,
Caribou Coffee,8093,1 Richard E Byrd Terminal Dr,,Richmond,VA,23250,US,804-222-1227,37.50887096,-77.33116642,,,,
Caribou Coffee,8015,1 Richard E Byrd Terminal Dr Atrium,,Richmond,VA,23250,US,(804) 222-1227,37.50859559,-77.33323708,,,,
Caribou Coffee,1291,951 16th Street Mall,,Denver,CO,80202,US,303-893-4808,39.74692236,-104.994082,,,,
Caribou Coffee,8300,1001 16th St.,,Denver,CO,80265,US,303-436-1192,39.74732883,-104.9949049,,,,
Caribou Coffee & Einstein Bros. Bagels,3656,300 East Alameda Ave,,Denver,CO,80209,US,303 722-9400,39.71069336,-104.9834213,,,,
Caribou Coffee,1176,1400 East Hampden Avenue,,Cherry Hills,CO,80113,US,(303) 806-0900,39.65295707,-104.9707048,,,,
Caribou Coffee,1216,13700 East Colfax,,Aurora,CO,80011,US,(720) 859-0312,39.73995618,-104.8278703,,,,
Caribou Coffee,8298,5073 S Syracuse St.,,Denver,CO,80237,US,(303) 534-6300,39.62542497,-104.8999194,,,,
Caribou Coffee,1294,14630 W. Colfax Ave,,Lakewood,CO,80401,US,303-278-8229,39.73207054,-105.1639088,,,,
Caribou Coffee & Einstein Bros. Bagels,3350,16495 East 40th Cr.,,Aurora,CO,80011,US,303-307-1234,39.77276993,-104.7960129,,,,
Caribou Coffee,1263,10611 Westminster Boulevard,,Westminster,CO,80020,US,(303)635-8030,39.88906972,-105.0679111,,,,
Caribou Coffee,1202,2721 West 120th Avenue,,Westminster,CO,80031,US,(303) 410-1305,39.91453121,-105.0209319,,,,
Caribou Coffee & Einstein Bros. Bagels,1354,7120 E County Line Road,,Highlands Ranch,CO,80126,US,303-779-0756,39.565559,-104.905258,,,,
Caribou Coffee & Einstein Bros. Bagels,1361,14315 Orchard Parkway,,Westminster,CO,80023,US,(720) 214-7987,39.956264,-104.99416,,,,
Caribou Coffee,1194,12501 East Lincoln Ave.,,Englewood,CO,80112,US,(303) 799-1258,39.53708758,-104.8440664,,,,
Caribou Coffee,8045,8500 Pena Blvd,,Denver,CO,80249,US,(303) 342-6869,39.84940813,-104.6739578,,,,
Caribou Coffee,8048,8500 Pena Blvd,,Denver,CO,80249,US,(303) 342-6857,39.85389097,-104.6737647,,,,
Caribou Coffee,8046,8500 Pena Blvd,,Denver,CO,80249,US,303-342-8397,39.8586612,-104.6738291,,,,
Caribou Coffee,8047,8500 Pena Blvd,,Denver,CO,80249,US,(303) 342-6900,39.86289774,-104.6736574,,,,
Caribou Coffee & Einstein Bros. Bagels,3331,1693 28th St,,Boulder,CO,80302,US,720 565-0413,40.01687877,-105.2585138,,,,
Caribou Coffee & Einstein Bros. Bagels,3605,3993 Limelight Av,,Castle Rock,CO,80109,US,303-802-8589,39.402397,-104.883018,,,,
Caribou Coffee & Einstein Bros. Bagels,3584,104th E 29 Street,,Loveland,CO,80538,US,970 612-4000,40.421279,-105.076416,,,,
Caribou Coffee & Einstein Bros. Bagels,3550,1706 E Woodman Rd,,Colorado Springs,CO,80920,US,719-265-8610,38.93305691,-104.7937735,,,,
Caribou Coffee & Einstein Bros. Bagels,3565,30-32 North Tejon St.,,Colorado Springs,CO,80903,US,719-445-4795,38.835132,-104.823806,,,,
Caribou Coffee,8165,2323 West Broadway,,Council Bluffs,IA,51501,US,712-328-9792,41.26138033,-95.87927023,,,,
Caribou Coffee,8202,1000 South 178th Street,,Omaha,NE,68118,US,(402) 334-4444,41.25016868,-96.19408349,,,,
Caribou Coffee,8318,2496 210th Avenue,,Percival,IA,51648,US,712-382-2323,40.69005999,-95.79024754,,,,
Caribou Coffee,8079,1601 North 84th Street,,Lincoln,NE,68505,US,(402) 467-5505,40.8291712,-96.60789752,,,,
Caribou Coffee,8081,5010 O Street,,Lincoln,NE,68510,US,(402) 483-7707,40.81468879,-96.65044012,,,,
Caribou Coffee,8147,6001 Village Drive,,Lincoln,NE,68516,US,(402) 421-2462,40.75220866,-96.66637193,,,,
Caribou Coffee,8240,4545 Northeast Worlds of Fun Drive,,Kansas City,MO,64161,US,816-454-4545,39.17396148,-94.48831814,,,,
Caribou Coffee,8129,6655 Martway,,Mission,KS,66202,US,(913) 831-4447,39.019374,-94.6622305,,,,
Caribou Coffee,1238,8722 Shawnee Mission Parkway,,Merriam,KS,66202,US,(913) 789-9266,39.0152994,-94.68761857,,,,
Caribou Coffee,1244,6370 North Lucerne,,Kansas City,MO,64151,US,(816) 587-8648,39.21000006,-94.65322179,,,,
Caribou Coffee,8131,8301 North Saint Clair Avenue,,Kansas City,MO,64151,US,(816) 505-1000,39.245264,-94.64573376,,,,
Caribou Coffee,8294,8371 N St Clair Ave,,Kansas City,MO,64151,US,(816) 505-1000,39.24630925,-94.64648657,,,,
Caribou Coffee,8324,8501 West 95th St,,Overland Park,KS,66212,US,913-894-1983,38.95585172,-94.68399394,,,,
Caribou Coffee,8166,109 N Blue Jay Dr.,,Liberty,MO,64068,US,(816) 792-3210,39.24593648,-94.44705158,,,,
Caribou Coffee,8295,200 N Hwy 291,,Liberty,MO,64068,US,(816) 792-3210,39.24553158,-94.44615062,,,,
Caribou Coffee,8280,9050 W 135th Street,,Overland Park,KS,66221,US,913-814-0683,38.88453492,-94.69067485,,,,
Caribou Coffee,8450,920 NE Langsford Road,,Lee's Summit,MO,64086,US,816-554-0359,38.91788905,-94.35807442,,,,
Caribou Coffee,8201,625 Wesy Highway 40,,Blue Springs,MO,64014,US,816-224-4288,39.0105303,-94.27081048,,,,
Caribou Coffee,8205,3504 Clinton Parkway,,Lawrence,KS,66047,US,785-832-0044,38.94428128,-95.28060013,,,,
Caribou Coffee,8354,205 North Belt Highway,,St. Joseph,MO,64506,US,(816) 232-3306,39.76789798,-94.80302687,,,,
Caribou Coffee,8167,201 N Belt Hwy,,St. Joseph,MO,64506,US,(816) 232-9750,39.76841933,-94.80127941,,,,
Caribou Coffee,8080,2951 SW Wanamaker Road,,Topeka,KS,66614,US,785-272-1763,39.01249971,-95.76396197,,,,
Caribou Coffee,242,231 Peachtree Street,,Atlanta,GA,30303,US,(404) 688-3355,33.76070033,-84.38624824,,,,
Caribou Coffee,243,303 Peachtree St. NE,,Atlanta,GA,30308,US,470-355-0854,33.76268663,-84.3865107,,,,
Caribou Coffee,221,303 Peachtree Street NE,,Atlanta,GA,30308,US,(404) 681-0208,33.76268768,-84.38652024,,,,
Caribou Coffee,213,1000 Piedmont Avenue NE,,Atlanta,GA,30309,US,(404) 870-0711,33.78212033,-84.38066128,,,,
Caribou Coffee & Einstein Bros. Bagels,1355,1163 West Peachtree St. NE,,Atlanta,GA,30309,US,678-539-4999,33.78606414794922,-84.38726806640625,,,,
Caribou Coffee,225,3261 Peachtree Road NE,,Atlanta,GA,30305,US,(404) 261-0020,33.84394446,-84.37014332,,,,
Caribou Coffee,8031,6000 N Terminal Pkwy,,Atlanta,GA,30320,US,(404) 209-0065,33.64103487,-84.42594999,,,,
Caribou Coffee,8254,6000 N Terminal Pkwy,,Atlanta,GA,30337,US,404-422-4627,33.64057957,-84.43923521,,,,
"""Coming Soon"" - Caribou Coffee",1368,4324 Lavista Rd,,Tucker,GA,30004,US,1-888-227-4268,33.8478563441926,-84.2413675641035,,,,
Caribou Coffee & Einstein Bros. Bagels,8584,2 E Green St,,Athens,GA,30602,US,706 542-6087,33.94212194,-83.37114975,,,,
Caribou Coffee & Einstein Bros. Bagels,3647,10802 N. Dale Mabry Highway,,Tampa,FL,33618,US,813-968-8868,28.04676056,-82.50514221,,,,
Caribou Coffee & Einstein Bros. Bagels,3662,2519 North McMullen Booth Rd,,Clearwater,FL,33761-4173,US,727-791-3909,28.013160705566406,-82.707763671875,,,,
Caribou Coffee & Einstein Bros. Bagels,3649,3800 South Tamiami Tr,,Sarasota,FL,34239,US,941-952-0300,27.299789,-82.531562,,,,
Caribou Coffee,8393,1025 Outer Park Drive,,Springfield,IL,62704,US,217-726-1025,39.7751565,-89.67010665,,,,
Caribou Coffee,178,"200 South 6th Street, Suite 292",,Minneapolis,MN,55402,US,(612) 338-1170,44.97695078,-93.26781646,,,,
Caribou Coffee & Einstein Bros. Bagels,1348,"550 S. 4th St., Suite 230",,Minneapolis,MN,55415,US,(612) 333-9088,44.97690083,-93.26213869,,,,
Caribou Coffee,11111,550 S 4th Street,,Minneapolis,MN,55414,US,(612) 333-9088,44.976974,-93.26205,,,,
Caribou Coffee,1119,501 Washington Avenue,,Minneapolis,MN,55415,US,(612) 332-8255,44.97856314,-93.26112479,,,,
Caribou Coffee,1191,100 South 5th Street,,Minneapolis,MN,55402,US,(612) 332-0702,44.97742864,-93.26959082,,,,
Caribou Coffee,1279,555 Nicollet Mall,,Minneapolis,MN,55402,US,(612) 338-5613,44.97815101,-93.27117311,,,,
Caribou Coffee,104,651 Nicollet Mall,,Minneapolis,MN,55402,US,(612) 338-3814,44.97743966,-93.27145413,,,,
Caribou Coffee,164,50 S. 6th Street,,Minneapolis,MN,55402,US,(612) 339-2871,44.97826839,-93.27205819,,,,
Caribou Coffee,157,733 Marquette Avenue South #223,,Minneapolis,MN,55402,US,(612) 332-4849,44.97571355,-93.27153727,,,,
Caribou Coffee,106,222 South 9th Street,,Minneapolis,MN,55402,US,(612) 338-0424,44.97368751,-93.26991012,,,,
Caribou Coffee,167,800 Nicollet Mall,,Minneapolis,MN,55405,US,(612) 333-5214,44.97599959,-93.2732501,,,,
Caribou Coffee,1270,900 2nd Avenue South,,Minneapolis,MN,55402,US,(612) 338-2756,44.97399901,-93.27196671,,,,
Caribou Coffee & Einstein Bros. Bagels,1344,1100 Nicollet Mall,,Minneapolis,MN,55402,US,(612) 338-0767,44.97257459,-93.27612922,,,,
Caribou Coffee,1307,501 5th Street N.,,Minneapolis,MN,55401,US,612-330-9961,44.98372713,-93.27888545,,,,
Caribou Coffee,1280,1201 Hennepin Avenue,,Minneapolis,MN,55403,US,612-339-1057,44.97449916,-93.28085662,,,,
Caribou Coffee,1253,25 University Avenue Southeast,,Minneapolis,MN,55414,US,(612) 331-3617,44.98729319,-93.25527318,,,,
Caribou Coffee & Einstein Bros. Bagels,8316,515 Delaware St. SE,,Minneapolis,MN,55455,US,612-624-5970,44.97569275,-93.23358917,,,,
Caribou Coffee,83160,515 Delaware Street SE,,Minneapolis,MN,55455,US,612-624-5970,44.97305922,-93.23166971,,,,
Caribou Coffee,162,2300 Hennepin Ave.,,Minneapolis,MN,55405,US,(612) 374-2884,44.95989507,-93.29413687,,,,
Caribou Coffee,1257,917 Washington Avenue SE,,Minneapolis,MN,55414,US,(612) 331-4121,44.97418559,-93.22477549,,,,
Caribou Coffee,144,1450 West Lake Street,,Minneapolis,MN,55408,US,(612) 825-6720,44.94891234,-93.3003224,,,,
Caribou Coffee,1218,1730 New Brighton Boulevard,,Minneapolis,MN,55413,US,(612) 788-1796,45.00567198,-93.22812576,,,,
Caribou Coffee,153,3044 Excelsior Boulevard #103,,Minneapolis,MN,55416,US,(612) 285-9650,44.94743051,-93.32134617,,,,
Caribou Coffee,1107,4606 Nicollet Avenue South,,Minneapolis,MN,55409,US,(612) 825-6361,44.91956475,-93.27840081,,,,
Caribou Coffee,1277,5330 Cedar Lake Road,,St. Louis Park,MN,55416,US,(952) 545-6281,44.96312112,-93.34801846,,,,
Caribou Coffee,134,1650 Park Place Boulevard,,St. Louis Park,MN,55416,US,(952) 593-9694,44.96628902,-93.35001785,,,,
Caribou Coffee,1265,4745 Cedar Avenue South,,Minneapolis,MN,55407,US,(612) 724-1234,44.91662141,-93.24698178,,,,
Caribou Coffee,131,5725 Duluth Street,,Golden Valley,MN,55422,US,(763) 544-0312,44.99850017,-93.35250134,,,,
Caribou Coffee,1232,5551 Lake Street,,St. Louis Park,MN,55416,US,(952) 929-9536,44.94837333,-93.35003965,,,,
Caribou Coffee,312,3300 Duraleigh Road,,Raleigh,NC,27612,US,(919) 787-9611,35.82528937,-78.7086657,,,,
Caribou Coffee,306,109 Maynard Road,,Cary,NC,27511,US,(919) 319-6265,35.7710073,-78.78276922,,,,
Caribou Coffee,307,8201 Brier Creek Parkway,,Raleigh,NC,27617,US,(919) 405-2802,35.90888097,-78.7845691,,,,
Caribou Coffee,308,1406 East Franklin Street,,Chapel Hill,NC,27514,US,(919) 968-3735,35.92866292,-79.0341021,,,,
Caribou Coffee,8238,I-95,,Kenly,NC,27542,US,919-284-5121,35.58184755,-78.14573681,,,,
Caribou Coffee,1297,115 East 10th Street,,St. Paul,MN,55101,US,651-202-3979,44.95142915,-93.09522174,,,,
Caribou Coffee,161,401 Robert Street,,St. Paul,MN,55101,US,(651) 292-8686,44.94852746,-93.09209102,,,,
Caribou Coffee,191,56 East 6th Street,,St. Paul,MN,55101,US,(651) 225-0844,44.94811068,-93.09407425,,,,
Caribou Coffee,143,444 Cedar Street,,St. Paul,MN,55101,US,(651) 222-3130,44.94796529,-93.0940716,,,,
Caribou Coffee,1267,230 Spring Street,,St. Paul,MN,55102,US,(651) 293-1612,44.94008725,-93.09991276,,,,
Caribou Coffee,112,757 Grand Avenue,,St. Paul,MN,55105,US,(651) 221-0479,44.94026184,-93.13212585,,,,
Caribou Coffee,1260,1720 Rice Street,,Maplewood,MN,55113,US,(651) 489-2384,44.99300073,-93.10549977,,,,
Caribou Coffee,110,1055 Grand Avenue,,St. Paul,MN,55105,US,(651) 221-0140,44.9402179,-93.14443447,,,,
Caribou Coffee,192,1193 South Robert Street,,West St. Paul,MN,55118,US,(651) 450-5511,44.91015118,-93.08137286,,,,
Caribou Coffee,1136,68 Snelling Avenue South,,St. Paul,MN,55105,US,(651) 690-0083,44.93956135,-93.16656125,,,,
Caribou Coffee,8357,2133 Hudson Road,,St. Paul,MN,55119,US,(651) 578-0580,44.95171432,-93.01039042,,,,
Caribou Coffee,1129,1127 Larpenteur Avenue West,,Roseville,MN,55113,US,(651) 487-5502,44.99261297,-93.14788975,,,,
Caribou Coffee,1144,1817 Randolph Avenue,,St. Paul,MN,55105,US,(651) 698-4702,44.92741207,-93.17690043,,,,
Caribou Coffee,1172,720 Main Street,,Mendota Heights,MN,55118,US,(651) 994-7052,44.88446244,-93.12045983,,,,
Caribou Coffee,1166,2340 West 7th Street,,St. Paul,MN,55116,US,(651) 698-0437,44.90396118,-93.1649704,,,,
Caribou Coffee,1250,2111 Snelling Avenue North,,Roseville,MN,55113,US,(651) 636-5655,45.00479876,-93.16731406,,,,
"""Coming Soon"" - Caribou Coffee",1384,175 Century Ave,,Woodbury,MN,55125,US,1-888-227-4268,44.946164,-92.983841,,,,
Caribou Coffee,108,2134 Ford Parkway,,St. Paul,MN,55116,US,(651) 690-9934,44.91746091,-93.19092423,,,,
Caribou Coffee,155,2515 White Bear Ave,,Maplewood,MN,55109,US,(651) 748-9085,45.0180015,-93.02048184,,,,
Caribou Coffee,142,1595 Minnesota 36,,Roseville,MN,55113,US,(651) 633-7322,45.01282133,-93.17223003,,,,
Caribou Coffee,126,2714 Lincoln Drive,,Roseville,MN,55113,US,(651) 636-0976,45.02242777,-93.16846266,,,,
Caribou Coffee,119,1601 West County Road C,,Roseville,MN,55113,US,(651) 633-6960,45.02199894,-93.17059684,,,,
Caribou Coffee,1283,7009 10th Street North,,Oakdale,MN,55128,US,651-730-0581,44.9628658,-92.96370944,,,,
Caribou Coffee,1201,3354 Rice Street,,Little Canada,MN,55126,US,(651) 481-7137,45.04300625,-93.10587669,,,,
Caribou Coffee,1205,5763 Blaine Avenue,,Inver Grove Heights,MN,55076,US,(651) 554-9357,44.86586331,-93.05602831,,,,
Caribou Coffee,154,3001 White Bear Avenue,,Maplewood,MN,55109,US,(651) 770-9454,45.0317462,-93.02191816,,,,
Caribou Coffee,1312,7050 Valley Creek Plaza,,Woodbury,MN,55125,US,651-714-3494,44.92649185,-92.96362773,,,,
Caribou Coffee,1197,3100 White Bear Avenue North,,Maplewood,MN,55109,US,(651) 779-7345,45.03538513,-93.01709747,,,,
"""Coming Soon"" - Caribou Coffee & Einstein Bros. Bagels",1366,800 Wacker Drive,,Dubuque,IA,52002-5224,US,1-888-227-4268,42.49297332763672,-90.71929168701172,,,,
Caribou Coffee,8125,2030 Connector Street,,Auburn,AL,36849,US,(334) 844-7496,32.59287564,-85.49489688,,,,
"""Coming Soon"" - Caribou Coffee & Einstein Bros. Bagels",8585,120 PO Davis Drive,,Auburn,AL,36608,US,1-888-227-4268,32.59576035,-85.48387146,,,,
Caribou Coffee,1200,3220 Ingersoll Avenue,,Des Moines,IA,50312,US,(515) 274-1644,41.58597723,-93.66120228,,,,
Caribou Coffee,8073,4605 Fleur Drive,,Des Moines,IA,50321,US,(515) 285-7266,41.54225898,-93.64316739,,,,
Caribou Coffee,8355,4910 Maple Dr,,Pleasant Hill,IA,50327,US,515-262-7956,41.59846421,-93.51753512,,,,
Caribou Coffee,1289,909 SE Oralabor Road,,Ankeny,IA,50021,US,515-964-1208,41.70250254,-93.58485853,,,,
Caribou Coffee,1301,1551 Valley West Drive,,West Des Moines,IA,50266,US,515-224-5246,41.59753238,-93.75006031,,,,
Caribou Coffee,8110,100 8th Street. SW,,Altoona,IA,50009,US,(515) 967-7676,41.64254165,-93.46643585,,,,
Caribou Coffee & Einstein Bros. Bagels,1347,11895 Hickman Road,,Urbandale,IA,50323,US,515-334-7474,41.61553803,-93.78160024,,,,
Caribou Coffee,1193,12655 University Avenue,,Clive,IA,50325,US,(515) 457-3078,41.60086421,-93.79202188,,,,
Caribou Coffee & Einstein Bros. Bagels,1327,5901 Mills Civic Parkway,,West Des Moines,IA,50266,US,515-225-1219,41.55922875,-93.78500864,,,,
Caribou Coffee,8293,1025 E Hickman Rd,,Waukee,IA,50263,US,515-987-7405,41.6144793,-93.86774081,,,,
Caribou Coffee,8061,"605 Morrill Rd, The Hub",,Ames,IA,50011,US,(515) 294-3529,42.0272081,-93.64842608,,,,
Caribou Coffee,1310,6719 University Ave,,Cedar Falls,IA,50613,US,(319) 266-6029,42.51267613,-92.43929676,,,,
Caribou Coffee,8237,4240 Highway 43,,JOPLIN,MO,64801,US,417-624-3400,37.00700705,-94.55239253,,,,
Caribou Coffee,1203,1924 South Minnesota Avenue,,Sioux Falls,SD,57105,US,(605) 338-9666,43.52779564,-96.73096211,,,,
Caribou Coffee & Einstein Bros. Bagels,1341,2300 South Minnesota Ave.,,Sioux Falls,SD,57105,US,605-271-0687,43.52376868,-96.73092347,,,,
Caribou Coffee & Einstein Bros. Bagels,1328,2404 West 41st. St.,,Sioux Falls,SD,57105,US,605-332-5321,43.51489507,-96.75506562,,,,
Caribou Coffee & Einstein Bros. Bagels,1313,3501 E. 10th St.,,Sioux Falls,SD,57103,US,,43.54620361,-96.6834259,,,,
Caribou Coffee,1220,4001 West 41st Street,,Sioux Falls,SD,57106,US,(605) 361-5091,43.51187283,-96.77583361,,,,
Caribou Coffee & Einstein Bros. Bagels,1322,4200 South Louise,,Sioux Falls,SD,57106,US,602-271-4004,43.507091,-96.770523,,,,
Caribou Coffee,8173,1231 E. 57th Street,,Sioux Falls,SD,57108,US,(605) 271-7171,43.49887526,-96.70863885,,,,
Caribou Coffee,8605,1001 S Western Ave,,Hartford,SD,57033,US,605-528-4622,43.61198043823242,-96.95101165771484,,,,
Caribou Coffee,8204,47051 Highway 50,,Burbank,SD,57010,US,(605) 624-2062,42.78547743,-96.79686117,,,,
Caribou Coffee,8169,1235 Oxford Street,,Worthington,MN,56187,US,507-372-7354,43.63243899,-95.59606031,,,,
Caribou Coffee & Einstein Bros. Bagels,1333,1620 South Burr St.,,Mitchell,SD,57301,US,605-292-0206,43.69436144,-98.01285602,,,,
Caribou Coffee,8556,1800 North Main,,Mitchell,SD,57301,US,605-996-5593,43.72729898,-98.02410856,,,,
Caribou Coffee,8214,1305 West Havens,,Mitchell,SD,57301,US,605-996-8393,43.70129467,-98.04311134,,,,
Caribou Coffee,1155,2799 Hamilton Boulevard,,Sioux City,IA,51104,US,(712) 252-5422,42.52144098,-96.41967148,,,,
Caribou Coffee & Einstein Bros. Bagels,1339,1416 East College Dr.,,Marshall,MN,56258,US,507-532-1006,44.45021253,-95.76243542,,,,
Caribou Coffee,8253,1 State Farm Plaza,,Bloomington,IL,61710,US,309-735-9910,40.47787419,-88.95495611,,,,
Caribou Coffee,8323,202 10th Street SE,,Cedar Rapids,IA,52401,US,319-365-1694,41.98290078,-91.65852252,,,,
Caribou Coffee,8259,3235 Oakland Road NE,,Cedar Rapids,IA,52403,US,319-366-7756,42.01142077,-91.65929087,,,,
"""Coming Soon"" - Caribou Coffee",1381,2870 Edgewood Road SW,,Cedar Rapids,IA,52404,US,1-888-227-4268,41.9494855184699,-91.7161871955277,,,,
Caribou Coffee,1187,2445 2nd Street,,Coralville,IA,52241,US,(319) 354-2297,41.68549246,-91.60214585,,,,
Caribou Coffee,8401,225 Iowa Ave.,,Iowa City,IA,52240,US,319-354-2278,41.66114491,-91.53199506,,,,
Caribou Coffee,8174,1720 Waterfront Dr,,Iowa City,IA,52240,US,319-354-7601,41.64283179,-91.52959171,,,,
Caribou Coffee & Einstein Bros. Bagels,1349,2825 Crossroads Blvd,,Waterloo,IA,50701-4407,US,319-234-4406,42.464115142822266,-92.32450103759766,,,,
Caribou Coffee,8182,755 W. Iowa Rd.,,Walcott,IA,52773,US,(563) 284-6961,41.61774695,-90.78146964,,,,
Caribou Coffee,8350,3700 University Ave,,Waterloo,IA,50701,US,319-232-2156,42.50505483,-92.39932841,,,,
Caribou Coffee,8232,1311 4th Street Southwest,,Waverly,IA,50677,US,319-352-1365,42.71220097,-92.47367874,,,,
Caribou Coffee,8121,750 - 42nd Avenue Drive,,Moline,IL,61265,US,(309) 757-1085,41.46899993,-90.52685656,,,,
Caribou Coffee,8292,1310 West Burlington Ave.,,Fairfield,IA,52556,US,641-472-4119,41.00599462,-91.97879367,,,,
Caribou Coffee,8134,601 Third Place,,Manhattan,KS,66502,US,785-587-8609,39.18507244,-96.56065214,,,,
Caribou Coffee,8153,25 Conley Road,,Columbia,MO,65201,US,573-442-7703,38.94970122,-92.29606849,,,,
Caribou Coffee,8146,405 East Nifong Blvd,,Columbia,MO,65201,US,(573) 442-8595,38.91183521,-92.33356095,,,,
Caribou Coffee,8083,4830 Broadway,,Quincy,IL,62301,US,(217) 223-4829,39.93355179,-91.33797455,,,,
Caribou Coffee,8361,101 11th St. S,,Moorhead,MN,56560,US,218-236-6333,46.87324905,-96.76405621,,,,
Caribou Coffee,8359,1433 South University Drive,,Fargo,ND,58103,US,(701) 237-9481,46.85830395,-96.79934688,,,,
Caribou Coffee,1148,1450 - 25th Street SW,,Fargo,ND,58103,US,(701) 298-7745,46.85991022,-96.81902515,,,,
Caribou Coffee,8432,2605 8th St. South,,Moorhead,MN,56560,US,701-237-3007,46.84963381,-96.76976919,,,,
Caribou Coffee,8360,2510 Broadway North,,Fargo,ND,58102,US,701-293-5444,46.91051878,-96.78891813,,,,
Caribou Coffee,8077,4101 13th Avenue South,,Fargo,ND,58103,US,(701) 282-9431,46.86317569,-96.85059691,,,,
Caribou Coffee,8469,950 40th Ave. South,,Moorhead,MN,56560,US,218-359-4000,46.83434895,-96.76570863,,,,
Caribou Coffee,8078,1532 32nd Avenue South,,Fargo,ND,58103,US,(701) 293-2636,46.83171764,-96.80324156,,,,
Caribou Coffee,8433,3175 25th St. South,,Fargo,ND,58103,US,218-291-9340,46.83354583,-96.82235098,,,,
Caribou Coffee,1175,1625 13th Avenue East,,West Fargo,ND,58078,US,(701) 277-0783,46.86137018,-96.87295407,,,,
Caribou Coffee,8425,1100 13th Ave East,,West Fargo,ND,58078,US,701-277-5566,46.86379608,-96.88124285,,,,
Caribou Coffee,8076,4151 45th Street South,,Fargo,ND,58104,US,(701) 281-1872,46.81763798,-96.86354726,,,,
Caribou Coffee,8498,755 33rd Ave. E,,West Fargo,ND,58078,US,701-281-6002,46.83204137,-96.91257769,,,,
Caribou Coffee,1298,139 Veterans Memorial Parkway,,Detroit Lakes,MN,56501,US,(218) 844-6220,46.81778024,-95.84337205,,,,
Caribou Coffee & Einstein Bros. Bagels,1353,2304 College Way,,Fergus Falls,MN,56537,US,218-531-2027,46.28968723,-96.11320026,,,,
Caribou Coffee,8449,1310 University Ave.,,Crookston,MN,56716,US,218-281-3174,47.78479767,-96.60952759,,,,
Caribou Coffee,8575,300 1st Street West,,Fosston,MN,56542,US,218-435-1454,47.5768967717886,-95.75279653072357,,,,
Caribou Coffee,8514,2771 32nd Ave.,,Grand Forks,ND,58201,US,218-359-4000,47.88787619,-97.06900746,,,,
Caribou Coffee,8513,1950 32nd Ave South,,Grand Forks,ND,58201,US,(218) 681-1515,47.8904686,-97.05479431,,,,
Caribou Coffee,1137,2400 South Washington Street,,Grand Forks,ND,58201,US,(701) 775-3668,47.89637188,-97.04596473,,,,
Caribou Coffee & Einstein Bros. Bagels,1334,1225 S. Colombia Rd.,,Grand Forks,ND,58201,US,701-746-9585,47.90992994,-97.06610262,,,,
Caribou Coffee,8476,306 14th St. NE,,East Grand Forks,MN,56721,US,218-773-2418,47.93941386881794,-97.01636109231569,,,,
Caribou Coffee,1104,"52 U.S. 14, Rochester",,Rochester,MN,55902,US,(507) 288-5117,44.00442821,-92.4799305,,,,
Caribou Coffee,1185,1148 Second Street,,Rochester,MN,55902,US,(507) 281-1052,44.02185339,-92.48092443,,,,
Caribou Coffee,1239,9 Third Avenue NW,,Rochester,MN,55901,US,(507) 280-4375,44.02396457,-92.46750968,,,,
Caribou Coffee,1126,101 First Avenue Southwest,,Rochester,MN,55902,US,(507) 288-6230,44.02222839,-92.46474076,,,,
Caribou Coffee,1308,451 16th Ave NW,,Rochester,MN,55901,US,507-288-0881,44.02925761,-92.48365286,,,,
Caribou Coffee,8118,1315 6th Street NW,,Rochester,MN,55901,US,(507) 288-8233,44.02991484,-92.48144023,,,,
Caribou Coffee & Einstein Bros. Bagels,1352,1603 Broadway Ave N,,Rochester,MN,55906,US,507-289-2764,44.03914354741573,-92.4620720744133,,,,
Caribou Coffee & Einstein Bros. Bagels,1325,1930 36th Ave NW,,Rochester,MN,55901,US,507-281-7975,44.04409021,-92.51732759,,,,
Caribou Coffee,189,3900 Market Place Drive NW,,Rochester,MN,55901,US,(507) 252-0066,44.06390232,-92.5010912,,,,
Caribou Coffee,1271,4662 Maine Avenue SE,,Rochester,MN,55904,US,(507) 292-0952,43.95423318,-92.46195282,,,,
Caribou Coffee,8177,1001 18th Avenue NW,,Austin,MN,55912,US,(507) 433-1063,43.68458662,-92.98559032,,,,
Caribou Coffee,1186,726 Main Street,,Red Wing,MN,55066,US,(651) 388-1910,44.56457348,-92.53950763,,,,
Caribou Coffee,1227,2350 43rd Street NW #105,,Owatonna,MN,55060,US,(507) 451-9589,44.13784344,-93.254587,,,,
Caribou Coffee,1315,1570 Service Drive,,Winona,MN,55987,US,507-452-0000,44.05027353,-91.68004762,,,,
Caribou Coffee & Einstein Bros. Bagels,8589,175 West Mark Street,,Winona,MN,55987,US,1-888-227-4268,44.04556744,-91.64401576,,,,
Caribou Coffee,8233,1920 Grant Street Northwest,,Faribault,MN,55021,US,507-334-2085,44.29507927,-93.29756519,,,,
Caribou Coffee,1162,400 West 5th Street,,Northfield,MN,55057,US,(507) 645-7650,44.4553622,-93.16570101,,,,
Caribou Coffee,8183,2708 Bridge Street,,Albert Lea,MN,56007,US,507-377-2257,43.68458763,-93.35769528,,,,
Caribou Coffee,8279,2717 Bridge Ave.,,Albert Lea,MN,56007,US,507-373-2291,43.68561172,-93.35951996,,,,
Caribou Coffee,8451,1005 Eagle Ridge Drive,,Prescott,WI,54021,US,715-262-5636,44.76246168,-92.78898382,,,,
Caribou Coffee,1117,1823 Market Blvd,,Hastings,MN,55033,US,(651) 480-3708,44.73718423,-92.89376502,,,,
Caribou Coffee,8371,303 S. Main St.,,River Falls,WI,54022,US,715-425-7277,44.85658646,-92.62789154,,,,
Caribou Coffee,1118,17605 Glasgow Avenue,,Lakeville,MN,55044,US,(952) 431-3727,44.69437015,-93.21520692,,,,
Caribou Coffee,181,3868 150th Street West,,Rosemount,MN,55608,US,(651) 322-8344,44.73121147,-93.14359854,,,,
Caribou Coffee,1123,18444 Kenrick Avenue,,Lakeville,MN,55044,US,(952) 898-1550,44.68180394,-93.28817491,,,,
"""Coming Soon"" - Caribou Coffee",1380,17830 Kenwood Trail,,Lakeville,MN,55044,US,1-888-227-4268,44.68995285,-93.28116608,,,,
Caribou Coffee,1101,7145 East Point Douglas Road,,Cottage Grove,MN,55016,US,(651) 768-0794,44.83307839,-92.96004585,,,,
Caribou Coffee,1106,17450 Kenwood Trail,,Lakeville,MN,55044,US,(952) 892-1855,44.6960787,-93.28557359,,,,
Caribou Coffee,156,14638 Cedar Avenue,,Apple Valley,MN,55124,US,(952) 431-4315,44.73641072,-93.2170995,,,,
Caribou Coffee,1145,9008 Cahill Avenue,,Inver Grove Heights,MN,55077,US,(651) 455-9786,44.81918703,-93.03874295,,,,
Caribou Coffee,8492,2440 Raphine Rd.,,Raphine,VA,24472,US,540-377-2111,37.92931169,-79.22945827,,,,
Caribou Coffee,1115,307 Canal Park,,Duluth,MN,55802,US,(218) 786-0985,46.78418929,-92.09500339,,,,
Caribou Coffee & Einstein Bros. Bagels,1345,2100 London Rd,,Duluth,MN,55812,US,218 724-1355,46.80493878,-92.06907723,,,,
Caribou Coffee & Einstein Bros. Bagels,1359,1515 Kenwood Ave,,Duluth,MN,55811,US,218-724-3314,46.82145796716213,-92.10047274827957,,,,
Caribou Coffee,1114,627 West Central Entrance,,Duluth,MN,55811,US,(218) 720-4675,46.80336311,-92.14737452,,,,
Caribou Coffee,1214,1600 Woodland Avenue,,Duluth,MN,55803,US,(218) 724-4749,46.82092094,-92.07236826,,,,
Caribou Coffee,1135,1600 Miller Trunk Highway,,Duluth,MN,55811,US,(218) 727-9154,46.80396499,-92.15887328,,,,
Caribou Coffee,1188,4100 9th Avenue Northwest,,Hibbing,MN,55746,US,(218) 262-0804,47.39968385,-92.9511985,,,,
Caribou Coffee,8557,10514 S. Main Street,,Hayward,WI,54843,US,715-634-8996,46.01325672,-91.48152888,,,,
Caribou Coffee,8621,402 Fire Monument Road,,Hinckley,MN,55037,US,(320) 384-7968,46.01074308911456,-92.93006231366536,,,,
Caribou Coffee,1157,2020 South Pokegama Avenue,,Grand Rapids,MN,55744,US,(218) 326-0542,47.21114795,-93.52804007,,,,
Caribou Coffee,1234,7950 Penn Avenue South,,Bloomington,MN,55431,US,(952) 888-1504,44.85936216,-93.30932513,,,,
Caribou Coffee,1105,7601 Penn Ave S,,Richfield,MN,55423,US,(612) 292-5282,44.86391806,-93.30574219,,,,
Caribou Coffee,1278,7601 Penn Ave S,,Richfield,MN,55423,US,612-292-5282,44.86394561,-93.3057562,,,,
Caribou Coffee,193,3835 West Old Shakopee Rd,,Bloomington,MN,55431,US,(952) 881-4230,44.8103544,-93.329154,,,,
Caribou Coffee,117,7171 France Ave S,,Edina,MN,55435,US,(952) 831-0288,44.87306728,-93.32727814,,,,
Caribou Coffee,1127,8000 Normandale Center Drive,,Bloomington,MN,55437,US,(952) 486-9500,44.8522653,-93.35171655,,,,
Caribou Coffee,128,7101 France Avenue,,Edina,MN,55435,US,(952) 915-1108,44.87443361,-93.32794569,,,,
Caribou Coffee,146,5159 West 98th Street,,Bloomington,MN,55437,US,(952) 837-0832,44.82408294,-93.34951627,,,,
Caribou Coffee,1150,"60 E Broadway, Space 5522",,Bloomington,MN,55425,US,(952) 858-8360,44.85585933,-93.24408592,,,,
Caribou Coffee,140,380 South Avenue,,Bloomington,MN,55425,US,(952) 854-7828,44.85365197,-93.24258216,,,,
Caribou Coffee,1121,6805 York Avenue South,,Edina,MN,55435,US,(952) 929-4734,44.87939634,-93.32060746,,,,
Caribou Coffee,8016,60 E Broadway,,Bloomington,MN,55425,US,(952) 883-8622,44.8548737,-93.24205327,,,,
Caribou Coffee,1299,60 E Broadway,,Bloomington,MN,55425,US,952-854-1031,44.85410672,-93.24115545,,,,
Caribou Coffee,174,194 North Garden,,Bloomington,MN,55425,US,(952) 854-2501,44.85578374,-93.24067004,,,,
Caribou Coffee,136,5195 Southdale Center,,Edina,MN,55435,US,(952) 926-1183,44.88081008,-93.32508355,,,,
Caribou Coffee & Einstein Bros. Bagels,1321,6545 Lyndale Ave. S.,,Richfield,MN,55423,US,612-861-0283,44.8844739,-93.28580864,,,,
Caribou Coffee & Einstein Bros. Bagels,1343,5125 Edina Industrial Blvd.,,Edina,MN,55439,US,952-831-9230,44.86352539,-93.35408783,,,,
Caribou Coffee,170,6228 Penn Avenue South,,Richfield,MN,55423,US,(612) 243-1581,44.88953723,-93.30922546,,,,
Caribou Coffee,1274,1700 66th Street East,,Richfield,MN,55423,US,(612) 866-0426,44.88399139,-93.24982142,,,,
Caribou Coffee,1252,7150 Humphrey Dr #1139,,Minneapolis,MN,55450,US,(612) 726-6289,44.87350632,-93.22869349,,,,
Caribou Coffee,1293,7150 Humphrey Drive,,Minneapolis,MN,55450,US,612-727-1308,44.87365924,-93.22783738,,,,
Caribou Coffee,1208,2001 Cliff Road East,,Burnsville,MN,55337,US,(952) 895-1976,44.78972028,-93.24555016,,,,
Caribou Coffee,1158,12601 Nicollet Avenue,,Burnsville,MN,55337,US,(952) 895-1010,44.77339177,-93.27717394,,,,
Caribou Coffee,122,"4300 Glumack Drive, F Concourse",,Minneapolis,MN,55111,US,(612) 727-1750,44.88367549,-93.21522415,,,,
Caribou Coffee,123,"4300 Glumack Drive, G Concourse",,Minneapolis,MN,55111,US,(612) 727-1653,44.88122757,-93.20972669,,,,
Caribou Coffee,1151,3945 West 50th Street,,Edina,MN,55435,US,(952) 920-1693,44.91179657,-93.33094788,,,,
Caribou Coffee,1174,"4300 Glumack Drive, Main Concourse",,St. Paul,MN,55111,US,(612) 726-9305,44.88320087,-93.21102731,,,,
Caribou Coffee,159,4999 France Avenue South,,Edina,MN,55410,US,(612) 285-5475,44.91346414,-93.32890838,,,,
Caribou Coffee,1139,7635 Jolly Lane,,Brooklyn Park,MN,55428,US,(763) 315-4047,45.09403538,-93.38266978,,,,
Caribou Coffee,1229,9638 Colorado Lane North,,Brooklyn Park,MN,55445,US,(763) 488-1506,45.13186482,-93.35721129,,,,
Caribou Coffee,1225,8881 Jefferson Highway,,Osseo,MN,55369,US,(763) 493-0055,45.11491726,-93.40292176,,,,
Caribou Coffee,152,8559 Edinburgh Centre Drive North,,Brooklyn Park,MN,55443,US,(763) 315-1943,45.11065595,-93.30538742,,,,
Caribou Coffee,1143,351 Willow Bend,,Crystal,MN,55428,US,(763) 537-4844,45.05444603,-93.36880167,,,,
Caribou Coffee & Einstein Bros. Bagels,1338,1180 Shingle Creek Parkway,,Brooklyn Center,MN,55430,US,763-566-0219,45.0576742,-93.31314035,,,,
Caribou Coffee,1221,11627 Fountains Drive North,,Maple Grove,MN,55369,US,(763) 425-1327,45.09299397,-93.42751257,,,,
Caribou Coffee,1141,3900 Lakebreeze Avenue North,,Brooklyn Center,MN,55429,US,(763) 592-2302,45.04380161,-93.33053046,,,,
Caribou Coffee,158,12880 Elm Creek Boulevard,,Maple Grove,MN,55369,US,(763) 494-3450,45.09633713,-93.44422104,,,,
Caribou Coffee,176,4210 Winnetka Avenue,,New Hope,MN,55428,US,(763) 592-5073,45.0338061,-93.37998928,,,,
Caribou Coffee,133,8073 Wedgewood Lane North,,Maple Grove,MN,55369,US,(763) 494-4422,45.10112196,-93.45056323,,,,
Caribou Coffee,1160,12850 Bass Lake Road,,Maple Grove,MN,55369,US,(763) 553-1293,45.06592481,-93.44257712,,,,
Caribou Coffee & Einstein Bros. Bagels,1342,272 57th Ave NE,,Fridley,MN,55432,US,763-276-9770,45.07107274,-93.26663223,,,,
Caribou Coffee,8379,13384 Bass Lake Road,,Maple Grove,MN,55311,US,763-559-6968,45.06884042,-93.4497205,,,,
Caribou Coffee,1246,4345 Nathan Lane North,,Plymouth,MN,55442,US,(763) 551-4762,45.03365767,-93.40900712,,,,
Caribou Coffee,187,8601 Springbrook Drive NE,,Blaine,MN,55433,US,(763) 717-3539,45.12613912,-93.26630457,,,,
Caribou Coffee,1116,11468 Jefferson Court,,Champlin,MN,55316,US,(763) 323-7408,45.1608485,-93.39254303,,,,
Caribou Coffee,1168,9420 36th Avenue North,,New Hope,MN,55427,US,(763) 546-1818,45.02266351,-93.39966852,,,,
Caribou Coffee,1235,8097 Highway 65,,Spring Lake Park,MN,55432,US,(763) 784-8542,45.11484387,-93.24112429,,,,
Caribou Coffee,1109,2022 Northdale Blvd,,Coon Rapids,MN,55433,US,(763) 862-7668,45.18061001,-93.31811004,,,,
Caribou Coffee,150,4130 Berkshire Lane,,Plymouth,MN,55446,US,(763) 383-1497,45.03013205,-93.45554475,,,,
Caribou Coffee,1303,1835 Gateway Drive,,Coon Rapids,MN,55433,US,763-754-1627,45.18522031,-93.31345517,,,,
Caribou Coffee,1304,16393 County Road 30,,Maple Grove,MN,55311,US,(763) 416-4750,45.12541705,-93.4888023,,,,
Caribou Coffee,1173,2585 County Road 10,,Mounds View,MN,55112,US,(763) 786-1529,45.107763,-93.21235433,,,,
Caribou Coffee,139,3536 Main Street,,Coon Rapids,MN,55448,US,(763) 323-8232,45.19707606,-93.35550818,,,,
Caribou Coffee,1264,"2720 Annapolis Circle, Suite F",,Plymouth,MN,55441,US,(763) 551-4873,45.00936008,-93.45065166,,,,
Caribou Coffee,1133,10400 Baltimore Street,,Blaine,MN,55449,US,(763) 792-4994,45.15932523,-93.23441827,,,,
Caribou Coffee,1295,101 West Main Street,,Anoka,MN,55303,US,763-712-5346,45.19955584,-93.39287201,,,,
Caribou Coffee,1169,2700 39th Avenue NE  #A120,,St. Anthony,MN,55421,US,(612) 788-0170,45.03925527,-93.22011646,,,,
Caribou Coffee & Einstein Bros. Bagels,1365,902 Mount Rushmore,,Rapid City,SD,57701,US,605-341-3266,44.07695770263672,-103.23165130615234,,,,
Caribou Coffee & Einstein Bros. Bagels,8610,306 East Pine Knowels Dr,,Flagstaff,AZ,86001,US,1-888-227-4268,35.3718147277832,-111.66219329833984,,,,
Caribou Coffee,147,3500 Vicksburg Lane,,Plymouth,MN,55447,US,(763) 557-5715,45.02025368,-93.48020831,,,,
Caribou Coffee,184,3455 Vicksburg Lane,,Plymouth,MN,55447,US,(763) 383-8770,45.01996244,-93.48504571,,,,
Caribou Coffee,188,1400 County  Road 101,,Plymouth,MN,55447,US,(763) 473-1339,44.99453456,-93.50114982,,,,
Caribou Coffee,1213,10160 6th Avenue North,,Plymouth,MN,55411,US,(763) 544-0862,44.98568361,-93.40975034,,,,
Caribou Coffee,114,13081 Ridgedale Drive,,Minnetonka,MN,55305,US,(952) 545-6945,44.96847023,-93.44594802,,,,
Caribou Coffee & Einstein Bros. Bagels,1358,1700 Plymouth Road,,Minnetonka,MN,55305,US,952 546-1128,44.96743392944336,-93.44351959228516,,,,
Caribou Coffee,1113,11210 Wayzata Blvd,,Minnetonka,MN,55305,US,(952) 545-2140,44.97361102,-93.42170342,,,,
Caribou Coffee,172,12569 Wayzata Blvd. Suite 1150,,Minnetonka,MN,55343,US,(952) 544-0939,44.96819741,-93.43742251,,,,
Caribou Coffee,145,1151 East Wayzata Blvd,,Wayzata,MN,55391,US,(952) 404-0143,44.97232438,-93.50037393,,,,
Caribou Coffee,1296,250 Superior Blvd,,Wayzata,MN,55391,US,(952) 473-1307,44.97114182,-93.50319672,,,,
Caribou Coffee,1120,1 General Mills Blvd,,Golden Valley,MN,55426,US,(763) 293-1111,44.97729181,-93.39798617,,,,
Caribou Coffee,103,609 East Lake Street,,Wayzata,MN,55391,US,(952) 476-1070,44.96968416,-93.5133094,,,,
Caribou Coffee,1275,325 Clydesdale Trail,,Medina,MN,55340,US,(763) 478-3027,45.04474107,-93.53133433,,,,
Caribou Coffee,1231,3434 County Road 101,,Minnetonka,MN,55343,US,(952) 476-5891,44.94115415,-93.50279264,,,,
Caribou Coffee,1245,11400 Highway 7,,Minnetonka,MN,55343,US,(952) 933-9876,44.93385748,-93.42557892,,,,
Caribou Coffee,196,1601 Highway 7,,Hopkins,MN,55305,US,(952) 931-3128,44.93374675,-93.42008438,,,,
Caribou Coffee,1149,8208 Highway 7,,St. Louis Park,MN,55426,US,(952) 933-4592,44.93665622,-93.38392183,,,,
Caribou Coffee & Einstein Bros. Bagels,1332,609 South 3rd St.,,Bismarck,ND,58504,US,701-751-7507,46.79985204,-100.7874329,,,,
Caribou Coffee,1331,706 Kirkwood Mall,,Bismarck,ND,58504,US,701-258-3306,46.79802803,-100.7856868,,,,
Caribou Coffee,8583,3101 N 11th Street,,Bismark,ND,58503,US,701-258-7791,46.840175,-100.774345,,,,
Caribou Coffee & Einstein Bros. Bagels,1336,3122 Yorktown Drive.,,Bismarck,ND,58503,US,701-751-8009,46.83776885,-100.7285014,,,,
Caribou Coffee,8427,620 Mitchell Ave. N.,,Steele,ND,58482,US,701-475-2275,46.86171702,-99.91626285,,,,
Caribou Coffee & Einstein Bros. Bagels,1324,2101 4th street SW,,Mason City,IA,50401,US,641 201-1047,43.14697266,-93.23303986,,,,
Caribou Coffee,1292,2112 Hastings Way,,Eau Claire,WI,54701,US,715-839-7494,44.79730494,-91.4649805,,,,
Caribou Coffee,8561,2615 N. Clairemont Ave,,Eau Claire,WI,54703,US,715-836-6342,44.82603108,-91.54226678,,,,
Caribou Coffee,1290,4732 Golf Road,,Eau Claire,WI,54701,US,715-830-5032,44.77450314,-91.43796988,,,,
Caribou Coffee,8548,1408 9th St. E,,Menomonie,WI,54751,US,715-235-2134,44.86980177,-91.91831422,,,,
Caribou Coffee & Einstein Bros. Bagels,1360,101 Oak Avenue,,Menomonie,WI,54751,US,715 231-2550,44.90439224243164,-91.93086242675781,,,,
Caribou Coffee,1130,2321 Highway 25 North,,Menomonie,WI,54751,US,(715) 235-3627,44.91178535,-91.9350338,,,,
Caribou Coffee,8528,980 Cedar St.,,Baldwin,WI,54002,US,715-684-3307,44.95661544799805,-92.37411499023438,,,,
Caribou Coffee,8558,330 S. Main Street,,Rice Lake,WI,54868,US,715 234-6991,45.495487213134766,-91.73471069335938,,,,
Caribou Coffee,8119,110 West 4th Street,,New Richmond,WI,54017,US,715-246-2668,45.11886033,-92.5390057,,,,
Caribou Coffee,173,105 Carmichael Road,,Hudson,WI,54016,US,(715) 377-7981,44.96584038,-92.72190425,,,,
Caribou Coffee,1314,2360 Badger Drive,,Hudson,WI,54016,US,715-808-8657,44.96145561,-92.72497888,,,,
Caribou Coffee,8098,2351 Coulee Road,,Hudson,WI,54016,US,(715) 381-1413,44.96430926,-92.72646647,,,,
Caribou Coffee,1131,1202 County Road PH,,Onalaska,WI,54650,US,(608) 779-4172,43.86751089,-91.20544102,,,,
Caribou Coffee,163,1830 Market Drive,,Stillwater,MN,55082,US,(651) 430-2405,45.03916704,-92.84195941,,,,
Caribou Coffee,8535,112 Chieftain St.,,Osceola,WI,54020,US,715-294-2158,45.32007598876953,-92.70409393310547,,,,
Caribou Coffee,1152,9955-9965 Hudson Place,,Woodbury,MN,55125,US,(651) 731-5183,44.94404297,-92.90474466,,,,
Caribou Coffee & Einstein Bros. Bagels,1323,365 Radio Drive,,Woodbury,MN,55125,US,651-340-5920,44.94270064,-92.93390885,,,,
Caribou Coffee,125,8320 City Center Drive,,Woodbury,MN,55125,US,(651) 739-7313,44.9208182,-92.93828415,,,,
Caribou Coffee,1167,8368 3rd Street North,,Oakdale,MN,55128,US,(651) 714-9092,44.95187725,-92.93501019,,,,
Caribou Coffee & Einstein Bros. Bagels,8588,720 4th Ave South,,St. Cloud,MN,56301,US,303-308-4373,45.552173,-94.152412,,,,
Caribou Coffee,171,2423 Division Street West,,St. Cloud,MN,56301,US,(320) 202-1889,45.55344437,-94.18777585,,,,
Caribou Coffee,1249,2510 West Division Street,,St. Cloud,MN,56301,US,(320) 253-3065,45.55214685,-94.1893322,,,,
Caribou Coffee,8100,110 First Street South,,Sauk Rapids,MN,56379,US,(320) 252-2141,45.58747399,-94.16389864,,,,
Caribou Coffee,185,4101 West Division Street,,St. Cloud,MN,55301,US,(320) 656-0067,45.55497433,-94.21012735,,,,
Caribou Coffee,1196,4135 West Division Street,,St. Cloud,MN,56301,US,(320) 252-2805,45.55374908,-94.21162415,,,,
Caribou Coffee,8296,1725 Pine Cone Road South,,Sartell,MN,56377,US,(320) 258-4342,45.59597081,-94.2259182,,,,
Caribou Coffee,1161,100 6th Street,,Monticello,MN,55362,US,(763) 295-9773,45.30164602,-93.79775798,,,,
Caribou Coffee,1178,726 Martin Avenue,,Big Lake,MN,55309,US,(763) 262-1660,45.33428226,-93.73487911,,,,
Caribou Coffee,1268,1523 7th Street East,,Monticello,MN,55362,US,(763) 295-2052,45.29308642,-93.77139039,,,,
Caribou Coffee & Einstein Bros. Bagels,1318,703 Northland Dr.,,Princeton,MN,55371,US,763-389-7982,45.5577714,-93.58360291,,,,
Caribou Coffee & Einstein Bros. Bagels,1330,701 3rd Ave NE,,Buffalo,MN,55313,US,763-682-7047,45.17920584,-93.87238754,,,,
Caribou Coffee,1182,11008 61st Street Northeast,,Albertville,MN,55301,US,(763) 428-1030,45.23983394,-93.66384949,,,,
Caribou Coffee,175,19260 Freeport Street NW A-109B,,Elk River,MN,55330,US,(763) 441-1169,45.31946292,-93.56386985,,,,
Caribou Coffee,1211,19425 Evans Street Northwest,,Elk River,MN,55330,US,(763) 441-7607,45.32307332,-93.55984804,,,,
Caribou Coffee,1258,18157 Carson Court,,Elk River,MN,55330,US,(763) 241-0269,45.30044817,-93.5547167,,,,
Caribou Coffee,1165,13635 Northdale Boulevard,,Rogers,MN,55374,US,(763) 428-8107,45.20181413,-93.55519295,,,,
Caribou Coffee,1190,7988 Sunwood Drive NW,,Ramsey,MN,55303,US,(763) 427-7420,45.23521777,-93.46948564,,,,
Caribou Coffee,1110,14050 St. Francis Blvd,,Ramsey,MN,55303,US,(763) 427-8381,45.22557321,-93.39799996,,,,
Caribou Coffee,8560,209 - 6th Ave Northeast,,Isanti,MN,55040,US,763-444-5884 ext 395,45.49224616081425,-93.23529928922653,,,,
Caribou Coffee,1102,3507 Round Lake Blvd,,Anoka,MN,55303,US,(763) 421-4811,45.21762125,-93.35806289,,,,
Caribou Coffee,1189,1595 Second Avenue Northeast,,Cambridge,MN,55008,US,(763) 689-2896,45.57317091,-93.20528872,,,,
Caribou Coffee,1288,6014 Highway 36,,Oakdale,MN,55128,US,651-770-0867,45.02059635,-92.98450509,,,,
Caribou Coffee & Einstein Bros. Bagels,1350,2751 County Road E,,White Bear Lake,MN,55110,US,(651) 493-8136,45.050628,-92.985557,,,,
Caribou Coffee,198,2681 County Road E,,White Bear Lake,MN,55110,US,(651) 429-6273,45.05140906,-92.98753895,,,,
Caribou Coffee,1223,2864 Highway 55,,Eagan,MN,55121,US,(651) 686-5677,44.85402415,-93.13121478,,,,
Caribou Coffee,141,1380 Duckwood Drive #101,,Eagan,MN,55123,US,(651) 994-8950,44.82701148,-93.16580004,,,,
Caribou Coffee,132,1299 Promenade Place,,Eagan,MN,55121,US,(651) 687-0137,44.83299278,-93.1539661,,,,
Caribou Coffee & Einstein Bros. Bagels,1320,3405 Promenade Ave.,,Eagan,MN,55122,US,651-452-2343,44.83377895,-93.15286279,,,,
Caribou Coffee,129,2149 Cliff Road,,Eagan,MN,55122,US,(651) 686-8595,44.79113603,-93.21727968,,,,
Caribou Coffee,151,610 Opperman Drive,,Eagan,MN,55123,US,(651) 687-8529,44.82534769,-93.11332157,,,,
Caribou Coffee,1255,"4300 Glumack Drive, A Concourse",,St. Paul,MN,55111,US,(612) 727-1168,44.8793485,-93.19860332,,,,
Caribou Coffee,148,1100 East County Road 42,,Burnsville,MN,55337,US,(952) 953-6459,44.73798536,-93.25865259,,,,
Caribou Coffee,120,401 E. County Road 42,,Burnsville,MN,55337,US,(952) 435-6223,44.73879717,-93.27016299,,,,
Caribou Coffee,190,14204 Burnhaven Drive,,Burnsville,MN,55306,US,(952) 435-6005,44.74414067,-93.28917667,,,,
Caribou Coffee,118,16506 West 78th Street,,Eden Prairie,MN,55344,US,(952) 934-9720,44.86356646,-93.48718055,,,,
Caribou Coffee,1111,13250 Technology Drive,,Eden Prairie,MN,55344,US,(952) 906-1129,44.85920903,-93.44245062,,,,
Caribou Coffee,1329,970 Prairie Center Dr.,,Eden Prairie,MN,55344,US,952-934-1464,44.86525529682854,-93.44270932178944,,,,
Caribou Coffee,1128,11611 Leona Road,,Eden Prairie,MN,55344,US,(952) 941-9696,44.85907081,-93.42497148,,,,
Caribou Coffee,177,8251 Flying Cloud Drive,,Eden Prairie,MN,55344,US,(952) 944-6944,44.8540913,-93.42407316,,,,
Caribou Coffee,116,800 West 78th Street,,Chanhassen,MN,55317,US,(952) 401-4466,44.86346453,-93.54148612,,,,
Caribou Coffee,1222,14444 Excelsior Boulevard,,Minnetonka,MN,55345,US,(952) 935-5613,44.90605707,-93.46367517,,,,
Caribou Coffee,8554,11000 Optum Circle,,Eden Prairie,MN,55344,US,952-936-3691,44.89085756,-93.41827959,,,,
Caribou Coffee,186,920 West 78th Street,,Chanhassen,MN,55317,US,(952) 380-4953,44.86359598,-93.54471024,,,,
Caribou Coffee,130,10997 Red Circle Drive,,Minnetonka,MN,55343,US,(952) 912-9750,44.89394651,-93.41973299,,,,
Caribou Coffee,1259,"6001 Shady Oak Road, Suite 300",,Minnetonka,MN,55343,US,(952) 933-1810,44.89478212,-93.41976704,,,,
Caribou Coffee,8239,1 Valleyfair Drive,,Shakopee,MN,55379,US,952-496-5328,44.79860424,-93.4541696,,,,
Caribou Coffee,8622,9900 Bren Road,,Minnetonka,MN,55343,US,1-888-227-4268,44.89750799529705,-93.40327302467298,,,,
Caribou Coffee,168,5816 Lincoln Drive,,Edina,MN,55436,US,(952) 935-5346,44.89846943,-93.39999573,,,,
Caribou Coffee,1287,4754 County Road 101,,Minnetonka,MN,55345,US,952-474-4005,44.91791205,-93.50392326,,,,
Caribou Coffee,1132,1361 Heather Street,,Shakopee,MN,55379,US,(952) 445-1004,44.78250156,-93.50681947,,,,
Caribou Coffee,1306,1539 17th Ave E,,Shakopee,MN,55379,US,952-233-7357,44.77424087,-93.50404852,,,,
Caribou Coffee,1184,23520 Highway 7,,Shorewood,MN,55331,US,(952) 470-0404,44.89281461,-93.58013079,,,,
Caribou Coffee,1243,1004 Gateway Drive,,Chaska,MN,55318,US,(952) 361-0035,44.80378153,-93.57806363,,,,
Caribou Coffee & Einstein Bros. Bagels,1340,8360 Hansen Ave,,Shakopee,MN,55379,US,952-403-5144,44.77663703262806,-93.40241365134716,,,,
Caribou Coffee,1108,160  Pioneer Trail,,Chaska,MN,55318,US,(952) 368-0009,44.82977757,-93.60011002,,,,
Caribou Coffee,1164,5663 Manitou Road,,Tonka Bay,MN,55331,US,(952) 401-1067,44.90121556,-93.58860356,,,,
Caribou Coffee,1183,1966 Bunker Lake Boulevard NW,,Andover,MN,55304,US,(763) 754-2121,45.21915378,-93.31587541,,,,
Caribou Coffee,179,12417 Ulysses Street,,Blaine,MN,55434,US,(763) 755-5234,45.19656911,-93.23563593,,,,
Caribou Coffee,1273,8200 Coral Sea St NE,,St. Paul,MN,55112,US,(763) 526-7760,45.11898309,-93.19918332,,,,
Caribou Coffee,182,4345 Pheasant Ridge Drive,,Blaine,MN,55449,US,(763) 784-0677,45.16364559,-93.15994566,,,,
Caribou Coffee,1125,730 Apollo Drive,,Lino Lakes,MN,55014,US,(651) 784-2214,45.1824379,-93.10798645,,,,
Caribou Coffee,1124,7745 Egan Drive,,Savage,MN,55378,US,(952) 226-1191,44.74515187,-93.37895437,,,,
Caribou Coffee,124,113 Village Center Drive,,North Oaks,MN,55127,US,(651) 482-1623,45.08017246,-93.11473064,,,,
Caribou Coffee,1140,3673 Lexington Avenue North,,Arden Hills,MN,55126,US,(651) 490-0227,45.05177205,-93.14764838,,,,
Caribou Coffee,1272,2218 County Road D,,Roseville,MN,55112,US,(651) 631-3548,45.03550574,-93.19455322,,,,
Caribou Coffee,1302,16731 Hwy 13,,Prior Lake,MN,55372,US,952-440-3500,44.70665481,-93.42861869,,,,
Caribou Coffee,8400,2400 Mystic Lake Blvd.,,Prior Lake,MN,55372,US,952-445-9000,44.73088146,-93.4740305,,,,
Caribou Coffee,8446,155 E 12th Street,,Grafton,ND,58237,US,701-352-0770,48.4130259,-97.40866497,,,,
Caribou Coffee,8410,215 Pennington Ave.,,Thief River Falls,MN,56701,US,218-681-1515,48.11470647,-96.17711797,,,,
Caribou Coffee,8072,115 Wilmar Avenue,,Grand Island,NE,68803,US,(308) 381-0271,40.91795084,-98.37923786,,,,
Caribou Coffee,8375,5204 2nd Ave,,Kearney,NE,68845,US,308-236-0050,40.72501112,-99.08467077,,,,
Caribou Coffee,8377,3920 2nd Ave,,Kearney,NE,68847,US,308-236-5488,40.7147819,-99.08478744,,,,
Caribou Coffee,8092,1616 - 2nd Avenue,,Kearney,NE,68847,US,(308) 237-0334,40.69091201,-99.08504936,,,,
Caribou Coffee,101,4408 France Avenue South,,Edina,MN,55424,US,(952) 926-7086,44.92215628,-93.32927159,,,,
Caribou Coffee,121,5350 Excelsior Boulevard,,St. Louis Park,MN,55416,US,(952) 922-6242,44.93180347,-93.34774563,,,,
Caribou Coffee,115,3777 Park Center Blvd,,St. Louis Park,MN,55416,US,(952) 925-0660,44.93505632,-93.34722112,,,,
Caribou Coffee,1317,1930 South Broadway,,Minot,ND,58701,US,701-852-7332,48.211517,-101.297264,,,,
Caribou Coffee,8570,1024 24th Ave SW,,Minot,ND,58701,US,701-838-8919,48.20820236206055,-101.30995178222656,,,,
Caribou Coffee,1316,1700 21st Ave. NW,,Minot,ND,58703,US,701-852-2060,48.2591596,-101.32194,,,,
Caribou Coffee,1305,1680 Warren St.,,Mankato,MN,56001,US,(507) 345-8191,44.14529926,-93.99403912,,,,
Caribou Coffee,8443,1800 Madison Ave,,Mankato,MN,56001,US,507-625-9222,44.16846466,-93.95542145,,,,
Caribou Coffee,1112,1850 Adams Street,,Mankato,MN,56001,US,(507) 345-1103,44.17291972,-93.95303082,,,,
Caribou Coffee,1103,1901 Madison Avenue,,Mankato,MN,56001,US,(507) 625-6101,44.1663911,-93.94849944,,,,
Caribou Coffee,8342,612 South Minnesota Ave,,St. Peter,MN,56082,US,507-931-5541,44.32186128,-93.960243,,,,
Caribou Coffee,8235,907 South State Street,,Fairmont,MN,56031,US,(507) 238-4323,43.645172,-94.446205,,,,
Caribou Coffee,1300,77 Highway 5 West,,Waconia,MN,55387,US,952-442-4488,44.84281351,-93.7874989,,,,
Caribou Coffee,8500,1020 MN-15,,Hutchinson,MN,55350,US,320-587-7655,44.87749972,-94.37904619,,,,
