store_name,store_number,address,address2,city,state,zip_code,country,phone_number,latitude,longitude,store_hours,store_type,other_fields,coming_soon
Stripes Store,182,2600 W. SECOND STREET,,ROSWELL,NM,88201,US,575-622-0641,33.39406,-104.55907,18,stripes,,
Stripes Store,170,600 W. COLLEGE,,ROSWELL,NM,88201,US,575-624-0770,33.40875,-104.531038202247,18,stripes,,
Stripes Store,171,2500 N. MAIN STREET,,ROSWELL,NM,88201,US,575-624-2060,33.42323,-104.52307,18,stripes,,
Stripes Store,141,2010 S.E. MAIN,,ROSWELL,NM,88201,US,575-624-0456,33.4172035483871,-104.52314,18,stripes,,
Stripes Store,172,611 S. MAIN STREET,,ROSWELL,NM,88201,US,575-624-0820,33.3876759183673,-104.52273,18,stripes,,
Stripes Store,138,3800 S. MAIN STREET,,ROSWELL,NM,88201,US,575-624-0168,33.3494800000875,-104.523197178217,24,stripes,,
Stripes Store,140,1219 E. SECOND STREET,,ROSWELL,NM,88201,US,575-624-0386,33.3941534228188,-104.506661946309,18,stripes,,
Stripes Store,186,104 N. FIRST STREET,,ARTESIA,NM,88210,US,575-746-6612,32.8424336355195,-104.39749569159,18,stripes,,
Stripes Store,5051,2005 WEST PIERCE,,CARLSBAD,NM,88220,US,575-887-5545,32.437642785022,-104.251527426725,18,stripes,,
Stripes Store,2282,417 W. 18TH STREET,,PORTALES,NM,88130,US,575-359-3040,34.1714,-103.333676,24,stripes,,
Stripes Store,180,1201 N. CHICAGO,,PORTALES,NM,88130,US,575-359-1556,34.19234,-103.33131,24,stripes,,
Stripes Store,248,3412 N. PRINCE,,CLOVIS,NM,88101,US,575-763-1980,34.4330664646465,-103.196468686869,19,stripes,,
Stripes Store,276,621 S. PRINCE STREET,,CLOVIS,NM,88101,US,575-762-2782,34.3921706993007,-103.196412447552,24,stripes,,
Stripes Store,5060,10 E. BROADWAY,,TATUM,NM,88267,US,575-398-2432,33.25697,-103.317545,24,stripes,,
Stripes Store,185,811 W. AVENUE D,,LOVINGTON,NM,88260,US,575-396-3480,32.943672,-103.359438,18,stripes,,
Stripes Store,241,2900 MABRY DRIVE,,CLOVIS,NM,88101,US,575-763-1337,34.39567,-103.16847,19,stripes,,
Stripes Store,125,702 W. MAIN,,LOVINGTON,NM,88260,US,575-396-5820,32.941838566843,-103.34863,24,stripes,,
Stripes Store,150,225 WHEELER,,TEXICO,NM,88135,US,575-482-9313,34.3887234475593,-103.045327642818,24,stripes,,
Stripes Store,246,812 W. SAN ANTONIO,,MARFA,TX,79843,US,432-729-4541,30.3074053262911,-104.028269705356,18,stripes,,
Stripes Store,5058,109 E. SAN ANTONIO,,MARFA,TX,79843,US,432-729-3933,30.3095018367347,-104.02049,24,stripes,,
Stripes Store,5062,5000 NORTH LOVINGTON HIGHWAY,,HOBBS,NM,88240,US,575-392-8102,32.7564072332711,-103.176656658829,24,stripes,,
Stripes Store,250,3305 W. MARLAND,,HOBBS,NM,88240,US,575-393-4467,32.6966154751183,-103.178341674172,24,stripes,,
Stripes Store,2475,2612 State Highway 17,,Pecos,TX,79772,US,432-445-1606,31.4027815,-103.5209148,24,,,
Stripes Store,123,718 W. MILLEN,,HOBBS,NM,88240,US,575-392-1158,32.754798069675,-103.143604823939,18,stripes,,
Stripes Store,5005,800 PALMER STREET,,PECOS,TX,79772,US,432-447-2311,31.39731,-103.5116,24,stripes,,
Stripes Store,5020,3000 N. GRIMES,,HOBBS,NM,88240,US,575-392-6014,32.73249,-103.14485,18,stripes,,
Stripes Store,251,1600 N. GRIMES,,HOBBS,NM,88240,US,575-393-6774,32.71669,-103.14484,18,stripes,,
Stripes Store,5009,712 W. MARLAND BOULEVARD,,HOBBS,NM,88240,US,575-393-4958,32.69662,-103.143832040816,19,stripes,,
Stripes Store,100,1219 S. CEDAR,,PECOS,TX,79772,US,432-445-9321,31.4169687913417,-103.490200487289,18,stripes,,
Stripes Store,183,3400 N. DAL PASO,,HOBBS,NM,88240,US,575-392-5283,32.74021,-103.12763,18,stripes,,
Stripes Store,5025,2405 N. DAL PASO,,HOBBS,NM,88240,US,575-392-4738,32.7271871457314,-103.12762,24,stripes,,
Stripes Store,2267,4101 S CEDAR STREET,,PECOS,TX,79772,US,432-445-1581,31.40753,-103.48579,24,stripes,,
Stripes Store,5021,1115 S. DAL PASO,,HOBBS,NM,88240,US,575-393-4243,32.6899565974836,-103.127601265561,24,stripes,,
Stripes Store,5084,1201 BOIS D'ARC,,DUNCAN,OK,73533,US,580-252-1179,34.49257,-97.96386,24,stripes,,
Stripes Store,5010,808 E. MARLAND,,HOBBS,NM,88240,US,575-397-3821,32.69656,-103.125826505056,18,stripes,,
Stripes Store,184,HWY 18 AND HWY 128 (BOX 1305),,JAL,NM,88252,US,575-395-2247,32.14359,-103.24779,19,stripes,,
Stripes Store,5017,1900 W. AMERICAN,,MULESHOE,TX,79347,US,806-272-5337,34.23718,-102.74556,18,stripes,,
Stripes Store,134,107 E. AMERICAN BLVD.,,MULESHOE,TX,79347,US,806-272-3978,34.2262514285714,-102.723834489796,24,stripes,,
Stripes Store,5054,700 EAST AVENUE E,,ALPINE,TX,79830,US,432-837-1701,30.3596234,-103.6556736,24,stripes,,
Stripes Store,98,208 E. BROADWAY,,DENVER CITY,TX,79323,US,806-592-8855,32.96439,-102.827974693878,24,stripes,,
Stripes Store,2488,101 STATE HWY 214,,DENVER CITY,TX,79323,US,806-592-7113,32.98078,-102.81906,24,stripes,,
Stripes Store,5001,114 E. HWY. 302,,KERMIT,TX,79745,US,432-586-2912,31.8469393,-103.0900878,24,stripes,,
Stripes Store,2358,4236 SE LEE,,LAWTON,OK,73501,US,580-355-6443,34.5943512080537,-98.3379451006711,24,stripes,,
Stripes Store,2351,2908 N. FT. SILL,,LAWTON,OK,73507,US,580-248-8984,34.6375172,-98.4051798,24,stripes,,
Stripes Store,5082,2108 N. SHERIDAN ROAD,,LAWTON,OK,73505,US,580-353-8423,34.6310697315436,-98.4223797315436,24,stripes,,
Stripes Store,5087,2015 NW CACHE ROAD,,LAWTON,OK,73507,US,580-248-7659,34.6233714285714,-98.4207785714286,24,stripes,,
Stripes Store,5086,2 SW 11TH,,LAWTON,OK,73501,US,580-353-8129,34.60869,-98.40477,24,stripes,,
Stripes Store,5083,604 SW 11TH,,LAWTON,OK,73501,US,580-353-1218,34.6016475200401,-98.4047644081383,24,stripes,,
Stripes Store,2352,601 S. SHERIDAN ROAD,,LAWTON,OK,73505,US,580-353-1228,34.6150304040404,-98.42221,24,stripes,,
Stripes Store,5085,1103 S. 11TH,,LAWTON,OK,73501,US,580-357-8108,34.5959308988764,-98.4047053932584,24,stripes,,
Stripes Store,133,100 S. 25 MILE AVENUE,,HEREFORD,TX,79045,US,806-364-5126,34.81176,-102.40575,24,stripes,,
Stripes Store,89,501 N. MAIN,,SEMINOLE,TX,79360,US,432-758-3951,32.72401,-102.64512,19,stripes,,
Stripes Store,5037,2901 EAST 1ST STREET,,HEREFORD,TX,79045,US,806-363-1030,34.82533,-102.37676,24,stripes,,
Stripes Store,5053,1001 RAILROAD AVENUE,,SEAGRAVES,TX,79359,US,806-546-1037,32.94198,-102.55989,19,stripes,,
Stripes Store,5022,2203 S. STOCKTON AVENUE,,MONAHANS,TX,79756,US,432-943-6621,31.5732353409091,-102.892011022727,24,stripes,,
Stripes Store,5015,700 WEST AVENUE,,LEVELLAND,TX,79336,US,806-894-9487,33.58626,-102.38695,19,stripes,,
Stripes Store,5016,700 E. WAYLON JENNINGS BLVD.,,LITTLEFIELD,TX,79339,US,806-385-6575,33.91737,-102.32886,18,stripes,,
Stripes Store,2271,1723 N. US HWY. 285,,FORT STOCKTON,TX,79735,US,432-336-8861,30.8939730981888,-102.895342097235,24,stripes,,
Stripes Store,5000,1000 NORTH FRONT,,FORT STOCKTON,TX,79735,US,432-336-3258,30.91042,-102.88422,24,stripes,,
Stripes Store,2371,4001 NW CACHE ROAD,,LAWTON,OK,73505,US,580-353-2531,34.62358,-98.44299,24,stripes,,
Stripes Store,2374,3801 W. GORE,,LAWTON,OK,73505,US,580-248-3801,34.60893,-98.43983,24,stripes,,
Stripes Store,2369,5214 NW CACHE ROAD,,LAWTON,OK,73505,US,580-355-0622,34.62344,-98.458035,24,stripes,,
Stripes Store,5089,5120 GORE,,LAWTON,OK,73505,US,580-248-5343,34.6089609756098,-98.4559931707317,24,stripes,,
Stripes Store,2376,6457 NW CACHE ROAD,,LAWTON,OK,73505,US,580-536-2156,34.62344,-98.4730328225806,24,stripes,,
Stripes Store,2367,8 NW 67TH,,LAWTON,OK,73505,US,580-536-7762,34.6090497297297,-98.4747010135135,24,stripes,,
Stripes Store,2365,4018 BURKBURNETT,,WICHITA FALLS,TX,76306,US,940-855-2310,33.9641,-98.51369,24,stripes,,
Stripes Store,2368,1120 FALCON,,ALTUS,OK,73521,US,580-484-1404,34.65238,-99.3207755102041,24,stripes,,
Stripes Store,132,101 N. COLLEGE AVENUE,,LEVELLAND,TX,79336,US,806-894-7142,33.59403,-102.36754,24,stripes,,
Stripes Store,5014,102 CLUBVIEW DRIVE,,LEVELLAND,TX,79336,US,806-894-9486,33.5765653804648,-102.368294619535,18,stripes,,
Stripes Store,5030,2500 HALL AVENUE,,LITTLEFIELD,TX,79339,US,806-385-7522,33.9027989261745,-102.32731,24,stripes,,
Stripes Store,127,1520 N. MAIN,,ANDREWS,TX,79714,US,432-524-7412,32.3349789966555,-102.551640769231,19,stripes,,
Stripes Store,281,1112 S. MAIN,,ANDREWS,TX,79714,US,432-524-9189,32.3075724242424,-102.542922727273,24,stripes,,
Stripes Store,5011,801 SEAGRAVES ROAD,,BROWNFIELD,TX,79316,US,806-637-7464,33.16657,-102.28365,24,stripes,,
Stripes Store,2487,10510 W. 42nd Street,,Odessa,TX,79764,US,432-381-7780,31.855923877551,-102.501198367347,,stripes,,
Stripes Store,2268,7801 WEST UNIVERSITY BOULEVARD,,ODESSA,TX,79764,US,432-381-0025,31.84894,-102.4667,24,stripes,,
Stripes Store,2260,807 N. FM 1936,,ODESSA,TX,79763,US,432-381-2793,31.8315174874372,-102.440300854271,24,stripes,,
Stripes Store,2372,700 E. BROADWAY,,ALTUS,OK,73521,US,580-482-1544,34.63783,-99.3261,24,stripes,,
Stripes Store,2373,421 N. MAIN,,ALTUS,OK,73521,US,580-482-0290,34.6413624489796,-99.3339120408163,24,stripes,,
Stripes Store,5088,1401 BROAD,,WICHITA FALLS,TX,76301,US,940-322-3126,33.90195,-98.49445,24,stripes,,
Stripes Store,2363,1000 HOLLIDAY,,WICHITA FALLS,TX,76301,US,940-322-3415,33.90483,-98.49947,24,stripes,,
Stripes Store,2361,3601 CALLFIELD,,WICHITA FALLS,TX,76308,US,940-692-9518,33.870713370489,-98.536449144907,24,stripes,,
Stripes Store,2366,2200 SW PARKWAY,,WICHITA FALLS,TX,76308,US,940-692-9545,33.8576121,-98.5211503,24,stripes,,
Stripes Store,2362,2731 SW PARKWAY,,WICHITA FALLS,TX,76308,US,940-692-9519,33.8571992,-98.5352089,24,stripes,,
Stripes Store,5023,800 LUBBOCK HWY.,,BROWNFIELD,TX,79316,US,806-637-8111,33.18668,-102.27419,24,stripes,,
Stripes Store,142,406 N. BROADWAY,,DIMMITT,TX,79027,US,806-647-4241,34.3882675379954,-102.11579,24,stripes,,
Stripes Store,5038,1402 EAST TAHOKA HWY.,,BROWNFIELD,TX,79316,US,806-637-9340,33.18105,-102.256904693878,24,stripes,,
Stripes Store,104,4020 KERMIT HWY.,,ODESSA,TX,79764,US,432-366-1413,31.8736834693878,-102.416226530612,24,stripes,,
Stripes Store,5056,101 WEST YUKON ROAD,,ODESSA,TX,79764,US,432-366-7232,31.91062,-102.39388,24,stripes,,
Stripes Store,5042,3210 WEST 16TH STREET,,ODESSA,TX,79763,US,432-332-1460,31.8471490909091,-102.408158181818,24,stripes,,
Stripes Store,105,1350 S. COUNTY RD. W.,,ODESSA,TX,79763,US,432-332-3392,31.8208336144578,-102.383047991968,24,stripes,,
Stripes Store,106,316 S. GRANT,,ODESSA,TX,79761,US,432-332-6107,31.8430651020408,-102.365810816327,18,stripes,,
Stripes Store,5048,1300 EAST 8TH STREET,,ODESSA,TX,79761,US,432-333-3995,31.857669358948,-102.358758826477,24,stripes,,
Stripes Store,5026,1500 S. GRANT,,ODESSA,TX,79761,US,432-332-0652,31.83052,-102.3569,18,stripes,,
Stripes Store,2169,5376 KELL BOULEVARD,,WICHITA FALLS,TX,76310,US,940-692-0491,33.8723578571429,-98.5767760714286,24,stripes,,
Stripes Store,5210,911 Ambassador Caffery Pkwy,,Lafayette,LA,70506,US,337-232-2601,30.232122731134,-92.06248,24,stripes,,
Stripes Store,5215,3300 Ambassador Caffery Pkwy,,Lafayette,LA,70506,US,337-981-3081,30.18135,-92.07501,24,stripes,,
Stripes Store,2434,14000 S US Hwy 281,,SANTO,TX,76472,US,940-769-2434,32.611683201581,-98.1103559288537,24,stripes,,
Stripes Store,2511,3201 Gerstner Memorial Dr.,,Lake Charles,LA,70601,US,337-475-2449,30.1996121,-93.1794664,,,,
Stripes Store,1013,2301 US Highway 190 West,,Livingston,TX,77351,US,936-967-2580,30.7343069,-94.9860027,24,stripes,,
Stripes Store,2448,8256 HWY 6,,WACO,TX,76712,US,254-848-2726,31.5234571979592,-97.0068382263268,24,stripes,,
Stripes Store,2402,5200 JOHN BEN SHEPPERD PARKWAY,,ODESSA,TX,79762,US,432-362-2675,31.9058732628399,-102.337934743202,24,stripes,,
Stripes Store,5207,7821 82nd St,,Lubbock,TX,79424,US,806-866-0138,33.5197179591837,-101.990382857143,24,stripes,,
Stripes Store,5057,5201 EAST 42ND STREET,,ODESSA,TX,79764,US,432-362-5161,31.895124225188,-102.324558087129,24,stripes,,
Stripes Store,2400,3220 MILWAUKEE AVENUE,,LUBBOCK,TX,79412,US,806-771-0201,33.5649361616162,-101.95704979798,24,stripes,,
Stripes Store,2272,3351 FAUDREE RD.,,ODESSA,TX,78765,US,432-362-1062,31.92296,-102.29876,24,stripes,,
Stripes Store,2279,8001 E. HWY. 191,,ODESSA,TX,79765,US,432-563-1809,31.9196658,-102.2924666,24,stripes,,
Stripes Store,5004,423 N. GASTON,,CRANE,TX,79731,US,432-558-3821,31.4066395091447,-102.353126846961,24,stripes,,
Stripes Store,2455,11200 HWY 191,,Midland,TX,79701,US,432-563-1948,31.9719797,-102.2516397,24,stripes,,
Stripes Store,107,3201 EAST HWY. 158,,MIDLAND,TX,79702,US,432-683-8132,31.90981,-102.25817,24,stripes,,
Stripes Store,5006,1401 S. GASTON,,CRANE,TX,79731,US,432-558-3171,31.38987,-102.34829,18,stripes,,
Stripes Store,2449,9400 CHINA SPRING RD.,,WACO,TX,76708,US,254-714-1114,31.62592,-97.22589,24,,,
Stripes Store,2435,2500 FRANKLIN AVENUE,,WACO,TX,76710,US,254-754-9488,31.53972,-97.14929,24,stripes,,
Stripes Store,5097,2401 ROBINSON DR,,WACO,TX,76706,US,254-662-9265,31.52053,-97.131,24,stripes,,
Stripes Store,2427,603 SOUTH VALLEY MILLS DRIVE,,BEVERLY HILLS,TX,76711,US,254-752-1312,31.5266585714286,-97.1544632653061,24,stripes,,
Stripes Store,1049,2530 SAM HOUSTON AVENUE,,HUNTSVILLE,TX,77340,US,936-294-0540,30.7061653489766,-95.545492403395,24,stripes,,
Stripes Store,5093,1801 S. NEW ROAD,,WACO,TX,76712,US,254-752-1341,31.50907,-97.15645,24,stripes,,
Stripes Store,5095,514 SUN VALLEY BOULEVARD,,HEWITT,TX,76643,US,254-666-2259,31.463181766061,-97.1863011812135,24,stripes,,
Stripes Store,2264,106 NORTH 1ST STREET EAST,,HASKELL,TX,79521,US,940-864-3434,33.1575458245086,-99.7295412254283,24,stripes,,
Stripes Store,2439,6317 MILWAUKEE AVENUE,,LUBBOCK,TX,79424,US,806-368-6374,33.5373550753769,-101.95708,24,stripes,,
Stripes Store,273,533 N. FRANKFORD AVENUE,,LUBBOCK,TX,79416,US,806-796-2622,33.6056006130856,-101.939852964319,24,stripes,,
Stripes Store,149,5801 19TH STREET,,LUBBOCK,TX,79407,US,806-792-9682,33.57782,-101.93976,18,stripes,,
Stripes Store,2261,5802 98TH STREET,,LUBBOCK,TX,79424,US,806-771-4733,33.5052189655172,-101.939746551724,24,stripes,,
Stripes Store,2259,8112 INTERSTATE 37,,LUBBOCK,TX,79404,US,806-687-3969,33.5605402,-101.9135686,24,stripes,,
Stripes Store,110,3401 CLOVIS ROAD,,LUBBOCK,TX,79415,US,806-762-5569,33.61461,-101.88784,24,stripes,,
Stripes Store,188,4001 SOUTH FM 1788,,MIDLAND,TX,79706,US,432-563-3211,31.91544,-102.21676,24,stripes,,
Stripes Store,243,4400 N. BRIARWOOD AVENUE,,MIDLAND,TX,79707,US,432-689-8488,32.03178,-102.14656,24,stripes,,
Stripes Store,242,5407 THOMASON,,MIDLAND,TX,79703,US,432-689-4664,31.98184,-102.146542525631,24,stripes,,
Stripes Store,247,4317 ANDREWS HWY.,,MIDLAND,TX,79703,US,432-697-7300,32.0020580766842,-102.135985651972,24,stripes,,
Stripes Store,122,2109 S. MIDKIFF,,MIDLAND,TX,79701,US,432-684-4533,31.9682013900681,-102.108324848699,24,stripes,,
Stripes Store,5033,4508 NORTH BIG SPRING,,MIDLAND,TX,79705,US,432-684-4058,32.0425006122449,-102.085546122449,24,stripes,,
Stripes Store,1082,3600 Jimmy Johnson Blvd,,Port Arthur,TX,77642,US,,29.94438,-93.97608,24,stripes,,
Stripes Store,5080,3600 Jimmy Johnson Blvd,,Port Arthur,TX,77642,US,409-727-1945,29.94438,-93.97608,24,stripes,,
Stripes Store,1076,2300 HWY 265,,PORT ARTHUR,TX,77640,US,409-722-3600,29.94096,-93.99914,24,stripes,,
Stripes Store,1044,1201 E. HOUSTON STREET,,CLEVELAND,TX,77327,US,281-432-0733,30.34108,-95.07433,24,stripes,,
Stripes Store,1041,101 S. DANVILLE STREET,,WILLIS,TX,77378,US,936-666-5055,30.42402,-95.47975,24,stripes,,
Stripes Store,1064,10057 FM 1097 RD WEST,,WILLIS,TX,77311,US,936-856-6471,30.4187988235294,-95.5044376470588,24,stripes,,
Stripes Store,2440,1500 INTERSTATE 20 WEST,,CISCO,TX,76437,US,254-442-1882,32.37505,-98.97325,24,stripes,,
Stripes Store,2406,11225 QUAKER AVE,,LUBBOCK,TX,79424,US,806-771-2404,33.4923135897436,-101.904907435897,24,stripes,,
Stripes Store,5045,3401 98TH STREET,,LUBBOCK,TX,79423,US,806-748-7007,33.50526,-101.88765,24,stripes,,
Stripes Store,109,6519 UNIVERSITY,,LUBBOCK,TX,79413,US,806-792-6452,33.5350247474748,-101.870414040404,24,stripes,,
Stripes Store,5003,2025 CLOVIS ROAD,,LUBBOCK,TX,79415,US,806-762-2250,33.5987706566552,-101.860905247272,18,stripes,,
Stripes Store,2445,2424 NE Loop 289,,LUBBOCK,TX,78412,US,806-771-2478,33.529781,-101.8695987,24,stripes,,
Stripes Store,2253,2412 98TH STREET,,LUBBOCK,TX,79423,US,806-771-6498,33.5053253819857,-101.868142850769,24,stripes,,
Stripes Store,2254,403 AVE Q,,LUBBOCK,TX,79401,US,806-771-2254,33.5920054,-101.8544355,24,stripes,,
Stripes Store,5055,2106 WEST FRONT STREET,,MIDLAND,TX,79701,US,432-682-5152,31.9863769387755,-102.092703673469,24,stripes,,
Stripes Store,2408,1100 E WADLEY AVE,,MIDLAND,TX,79705,US,432-686-7407,32.0317909429038,-102.073537703692,24,stripes,,
Stripes Store,272,2411 RANKIN HWY.,,MIDLAND,TX,79701,US,432-686-7996,31.9739208163265,-102.074500612245,24,stripes,,
Stripes Store,5027,2622 RANKIN HWY.,,MIDLAND,TX,79702,US,432-686-8153,31.970432,-102.073358,24,stripes,,
Stripes Store,5008,200 S. BURLESON AVENUE,,MCCAMEY,TX,79752,US,432-652-3181,31.13688,-102.2247,24,stripes,,
Stripes Store,1056,2325 N. FM 3083 E,,CONROE,TX,77303,US,936-494-0572,30.3430043939382,-95.4292475324654,24,stripes,,
Stripes Store,5074,830 WILSON ROAD,,CONROE,TX,77301,US,936-494-2259,30.3268688928929,-95.4661484866604,24,stripes,,
Stripes Store,2190,923 S. HWY. 37 ACCESS ROAD,,GEORGE WEST,TX,78022,US,361-449-2214,30.7024519,-96.349567,24,stripes,,
Stripes Store,1023,3760 FM 2854,,CONROE,TX,77304,US,936-756-6738,30.314415160927,-95.5097004671274,24,stripes,,
Stripes Store,2438,2218 E. MAIN ST.,,GATESVILLE,TX,76528,US,254-248-1087,31.4348265444403,-97.7338486329479,24,stripes,,
Stripes Store,2474,4300 BOONVILLE ROAD (FM158),,BRYAN,TX,77802,US,979-774-6175,30.66189,-96.30251,24,stripes,,
Stripes Store,2463,600 N EARL RUDDER FWY,,BRYAN,TX,77802,US,979-776-4100,30.66421,-96.32646,24,stripes,,
Stripes Store,1060,811 HIGHWAY 99,,DAYTON,TX,77535,US,936-258-6967,30.0407143,-94.9716529,24,stripes,,
Stripes Store,147,3402 AVENUE Q,,LUBBOCK,TX,79412,US,806-762-4540,33.563015,-101.855822,24,stripes,,
Stripes Store,5002,1601 19TH STREET,,LUBBOCK,TX,79401,US,806-744-0668,33.5779,-101.85246,24,stripes,,
Stripes Store,5046,4315 N. LOOP 289,,LUBBOCK,TX,79415,US,806-762-4661,33.63928,-101.84108,24,stripes,,
Stripes Store,2442,806 34TH STREET,,LUBBOCK,TX,79404,US,806-687-3091,33.5633393877551,-101.843331428571,24,stripes,,
Stripes Store,99,1818 AVENUE A,,LUBBOCK,TX,79401,US,806-763-6399,33.5783193,-101.8367808,18,stripes,,
Stripes Store,5032,202 - 50TH STREET,,LUBBOCK,TX,79404,US,806-763-0360,33.5487496922498,-101.835702929271,24,stripes,,
Stripes Store,121,13001 HWY. 87,,LUBBOCK,TX,79412,US,806-745-3023,33.4763,-101.84424,24,stripes,,
Stripes Store,88,1912 N. DALLAS,,LAMESA,TX,79331,US,806-872-8521,32.75053,-101.9511,24,stripes,,
Stripes Store,2289,411 N. LYNN AVENUE,,LAMESA,TX,79331,US,806-872-0110,32.7359249058763,-101.949951287717,24,stripes,,
Stripes Store,2285,3200 E. STATE HIGHWAY 158,,MIDLAND,TX,79706,US,432-684-7464,31.9763983,-102.0160387,24,stripes,,
Stripes Store,5052,803 W. OAK,,SANDERSON,TX,79848,US,432-345-2747,30.14205,-102.40064,24,stripes,,
Stripes Store,1065,2130 HIGHWAY 146 BYPASS,,LIBERTY,TX,77575,US,936-336-4004,30.0097688158754,-94.8965917996885,24,stripes,,
Stripes Store,2483,2000 S. COLLEGE AVE,,BRYAN,TX,77801,US,979-764-5968,30.65072,-96.36657,24,stripes,,
Stripes Store,2422,1003 WEST CENTRAL AVENUE,,COMANCHE,TX,76442,US,325-356-2422,31.89742,-98.61455,24,stripes,,
Stripes Store,1012,23845 FM - 1314,,PORTER,TX,77365,US,281-354-4350,30.10463,-95.2519830026322,24,stripes,,
Stripes Store,2480,2111 HOLLEMAN DRIVE WEST,,COLLEGE STATION,TX,77840,US,979-764-5968,30.58672,-96.33792,24,stripes,,
Stripes Store,2468,13601 FM 2154,,COLLEGE STATION,TX,77845,US,979-690-0261,30.56371,-96.30218,24,stripes,,
Stripes Store,1046,7955 FM 1488,,MAGNOLIA,TX,77354,US,281-259-7115,30.2208552475247,-95.585317029703,24,stripes,,
Stripes Store,2491,2715 OLTON RD.,,PLAINVIEW,TX,79072,US,806-291-0010,34.1851523919857,-101.735728171593,24,stripes,,
Stripes Store,5208,"1520 SE Loop 289, Lubbock, TX 79404",,Lubbock,TX,79404,US,806-745-1736,33.5319018,-101.802821,24,stripes,,
Stripes Store,258,6502 19TH STREET,,LUBBOCK,TX,79416,US,806-785-2410,33.5783504081633,-101.73161,24,stripes,,
Stripes Store,5044,1405 LOCKWOOD,,TAHOKA,TX,79373,US,806-998-5452,33.1664352525253,-101.792495353535,18,stripes,,
Stripes Store,5035,1308 N. LAMESA,,STANTON,TX,79782,US,432-756-2115,32.1363810387062,-101.805262513824,24,stripes,,
Stripes Store,5018,210 W. HWY. 67,,RANKIN,TX,79778,US,432-693-2472,31.2256277,-101.9333429,19,stripes,,
Stripes Store,5013,100 EAST 6TH STREET,,IRAAN,TX,79744,US,432-639-2584,30.91409,-101.89801,18,stripes,,
Stripes Store,2426,5511 WEST ADAMS AVENUE,,TEMPLE,TX,76502,US,254-773-1776,31.1133010328638,-97.4003869483568,24,stripes,,
Stripes Store,1072,150 FOREST CENTER DR,,KINGWOOD,TX,77339,US,281-358-0706,30.0631,-95.25175,24,stripes,,
Stripes Store,1071,23696 EASTEX FREEWAY,,KINGWOOD,TX,77339,US,281-348-9550,30.0612374626866,-95.2490820149254,24,stripes,,
Stripes Store,1038,28760 BIRNHAM WOODS DRIVE,,SPRING,TX,77386,US,281-907-0690,30.1102083702645,-95.3757769549678,24,stripes,,
Stripes Store,2482,6511 STATE HIGHWAY 317,,TEMPLE,TX,76513,US,254-780-9600,31.116178,-97.4454809,24,stripes,,
Stripes Store,1031,25510 KUYKENDAHL ROAD,,SPRING,TX,77389,US,281-516-9955,30.16775,-95.54306,24,stripes,,
Stripes Store,259,900 HWY. 72,,RALLS,TX,79357,US,806-253-0118,33.6507,-101.38097,24,stripes,,
Stripes Store,5047,115 S. BROADWAY,,POST,TX,79356,US,806-495-4573,33.19067,-101.37826,24,stripes,,
Stripes Store,260,829 W. MAIN,,CROSBYTON,TX,79322,US,806-675-0161,33.6600191436204,-101.250300013357,24,stripes,,
Stripes Store,103,1101 LAMESA DRIVE,,BIG SPRING,TX,79720,US,432-263-3480,32.26203,-101.48894,24,stripes,,
Stripes Store,102,101 E. BROADWAY,,COAHOMA,TX,79511,US,432-394-4970,32.29221,-101.30686,24,stripes,,
Stripes Store,2269,50 WEST 2ND STREET,,BIG LAKE,TX,76932,US,325-844-3092,31.1916713128634,-101.46593998674,24,stripes,,
Stripes Store,2460,410 COLLEGE AVE,,SNYDER,TX,79549,US,325-573-0111,32.7370449883786,-100.918186142525,24,stripes,,
Stripes Store,5059,1300 E. COLISEUM,,SNYDER,TX,79549,US,325-573-8341,32.7054286832306,-100.884217985715,24,stripes,,
Stripes Store,2441,5001 S. 31ST STREET,,TEMPLE,TX,76502,US,254-774-6937,31.05366,-97.37555,24,stripes,,
Stripes Store,2492,1930 State Highway 105 E,,Navasota,TX,77868,US,936-825-6644,30.3763571,-96.0653048,24,stripes,,
Stripes Store,1025,3910 SPRING STEUBNER RD.,,SPRING,TX,77389,US,281-528-9430,30.0829139583333,-95.476513125,24,stripes,,
Stripes Store,5068,3405 FM 2920 ROAD,,SPRING,TX,77388,US,281-288-5310,30.0705713043478,-95.4706630434783,24,stripes,,
Stripes Store,1022,22017 KUYKENDAHL,,SPRING,TX,77379,US,832-717-7417,30.0866923214131,-95.5266717918553,24,stripes,,
Stripes Store,1011,1475 E. MAIN STREET,,TOMBALL,TX,77375,US,281-516-2249,30.099727471457,-95.594390685031,24,stripes,,
Stripes Store,144,1001 4TH AVENUE,,STERLING CITY,TX,76951,US,325-378-2042,31.83661,-100.99393,24,stripes,,
Stripes Store,268,1101 SHEFFIELD ROAD,,OZONA,TX,76943,US,325-392-3779,30.70278,-101.22103,18,stripes,,
Stripes Store,270,1309 AVENUE C,,OZONA,TX,76943,US,325-392-5275,30.7074406122449,-101.203221632653,18,stripes,,
Stripes Store,269,201 DEL RIO,,OZONA,TX,76943,US,325-392-2307,30.70398,-101.20421,18,stripes,,
Stripes Store,5043,1206 AVENUE E,,OZONA,TX,76943,US,325-392-2473,30.7079573,-101.2020684,24,stripes,,
Stripes Store,254,101 EAST IH-20,,COLORADO CITY,TX,79512,US,325-728-2359,32.41055,-100.84859,24,stripes,,
Stripes Store,2459,2272 COUNTRY ROAD 139,,COLORADO CITY,TX,79512,US,325-728-9494,32.4117870222262,-100.84424804431,24,stripes,,
Stripes Store,5050,1101 MAIN,,ROSCOE,TX,79545,US,325-766-3777,32.4389182336486,-100.535945746227,24,stripes,,
Stripes Store,5069,8102 SH 146N NEC,,BAYTOWN,TX,77523,US,281-573-2277,29.79579,-94.86437,24,stripes,,
Stripes Store,1018,4514 LUETTA RD,,SPRING,TX,77388,US,281-528-8112,30.043555,-95.482875,24,stripes,,
Stripes Store,1066,5035 E. WALLISVILLE RD.,,BAYTOWN,TX,77521,US,281-421-1095,29.8207139285714,-94.9881410714286,24,stripes,,
Stripes Store,5218,555 E. Airtex Dr.,,Houston,TX,77536,US,281-874-6863,29.9834051,-95.4145275,24,stripes,,
Stripes Store,1037,27015 TOMBALL PARKWAY,,TOMBALL,TX,77375,US,281-516-7245,30.0676441891892,-95.6246005405405,,stripes,,
Stripes Store,2286,14834 NORTH FREEWAY AKA 14834 IH-45 NORTH,,HOUSTON,TX,77090,US,281-209-0918,29.9811018422657,-95.4219266985938,24,stripes,,
Stripes Store,5031,5665 SHERWOOD WAY,,SAN ANGELO,TX,76904,US,325-944-7832,31.4275774324324,-100.512438783784,24,stripes,,
Stripes Store,256,4560 SHERWOOD WAY,,SAN ANGELO,TX,76901,US,325-223-0302,31.4343246153846,-100.500180559441,24,stripes,,
Stripes Store,117,901 GLENNA,,SAN ANGELO,TX,76901,US,325-944-4128,31.45204,-100.48831,18,stripes,,
Stripes Store,5028,1616 HOWARD,,SAN ANGELO,TX,76901,US,325-949-5123,31.4668720408163,-100.472979795918,24,stripes,,
Stripes Store,130,7410 KNICKERBOCKER,,SAN ANGELO,TX,76904,US,325-942-0138,31.3758881544787,-100.489212864303,24,stripes,,
Stripes Store,5019,2718 SHERWOOD WAY,,SAN ANGELO,TX,76901,US,325-944-1621,31.4491551020408,-100.472769591837,24,stripes,,
Stripes Store,1068,9735 SHELDON RD.,,HOUSTON,TX,77049,US,281-456-0147,29.8573163636364,-95.1279824242424,24,stripes,,
Stripes Store,5078,702 RANKIN RD,,HOUSTON,TX,77073,US,281-821-0290,29.965957,-95.401925,24,stripes,,
Stripes Store,1036,14550 JOHN F. KENNEDY BOULEVARD,,HOUSTON,TX,77032,US,281-776-5225,29.9295912349951,-95.33122,24,stripes,,
Stripes Store,1061,6206 DECKER DRIVE,,BAYTOWN,TX,77520,US,281-424-2825,29.783446,-95.032138,24,stripes,,
Stripes Store,2250,4057 LOOP 322,,ABILENE,TX,79606,US,325-793-0432,32.4022496317598,-99.7148956619577,24,stripes,,
Stripes Store,1083,3418 Garth Road,,Bayton,TX,77512,US,281-420-0033,29.7587511,-94.9772791,24,stripes,,
Stripes Store,5096,2200 E. STAN SCHLUETER LOOP,,KILLEEN,TX,76542,US,254-680-6960,31.0697513539447,-97.7283500375945,24,stripes,,
Stripes Store,265,301 DIVIDE,,ELDORADO,TX,76936,US,325-853-2775,30.85849,-100.60303,19,stripes,,
Stripes Store,5,3902 N. CHADBOURNE,,SAN ANGELO,TX,76903,US,325-653-7707,31.4990103026572,-100.460472947387,24,stripes,,
Stripes Store,255,5201 KNICKERBOCKER,,SAN ANGELO,TX,76904,US,325-949-1800,31.40767,-100.47824,24,stripes,,
Stripes Store,5012,2701 SUNSET BOULEVARD,,SAN ANGELO,TX,76904,US,325-944-8037,31.42187,-100.47493,24,stripes,,
Stripes Store,262,2901 N. BRYANT BLVD.,,SAN ANGELO,TX,76903,US,325-658-4250,31.48432,-100.46256,18,stripes,,
Stripes Store,274,4798 KNICKERBOCKER ROAD,,SAN ANGELO,TX,76904,US,325-942-1500,31.41334,-100.47522,18,stripes,,
Stripes Store,199,3002 KNICKERBOCKER,,SAN ANGELO,TX,76904,US,325-942-6488,31.4253942857143,-100.463121428571,24,stripes,,
Stripes Store,145,1821 N. BRYANT,,SAN ANGELO,TX,76903,US,325-658-1587,31.4759482758621,-100.453115862069,24,stripes,,
Stripes Store,1026,15922 WALLISVILLE ROAD,,CHANNELVIEW,TX,77049,US,281-860-0181,29.8115775149454,-95.1530124515768,24,stripes,,
Stripes Store,2295,2717 INDUSTRIAL BOULEVARD,,ABILENE,TX,79605,US,325-690-6551,32.40137,-99.7557438461538,24,stripes,,
Stripes Store,5070,11530 BAMMEL NORTH HOUSTON ROAD,,HOUSTON,TX,77066,US,281-893-1017,29.9444951020408,-95.497952244898,24,stripes,,
Stripes Store,275,1409 DUB WRIGHT BOULEVARD,,ABILENE,TX,79606,US,325-793-0423,32.43531,-99.8087216666667,24,stripes,,
Stripes Store,2443,8089 TRIMMIER ROAD,,KILLEEN,TX,76541,US,254-501-9539,31.0529812156371,-97.7475498424742,24,,,
Stripes Store,2454,1262 E HWY 190,,COPPERAS COVE,TX,76522,US,254-518-1929,31.1201063636364,-97.8909784848485,24,stripes,,
Stripes Store,267,1005 N. CROCKETT,,SONORA,TX,76950,US,325-387-5605,30.5759048571429,-100.652779714286,18,stripes,,
Stripes Store,97,805 N. CROCKETT,,SONORA,TX,76950,US,325-387-2169,30.5744549000165,-100.651010860023,24,stripes,,
Stripes Store,266,503 HIGHWAY 277 NORTH,,SONORA,TX,76950,US,325-387-5908,30.5777820847565,-100.648854334575,18,stripes,,
Stripes Store,95,935 KNICKERBOCKER,,SAN ANGELO,TX,76903,US,325-658-1317,31.4371821052632,-100.447607368421,18,stripes,,
Stripes Store,5049,802 EAST 19TH STREET,,SAN ANGELO,TX,76903,US,325-655-3708,31.48208,-100.437059183673,24,stripes,,
Stripes Store,146,1322 S. BRYANT,,SAN ANGELO,TX,76903,US,325-658-1423,31.4482483673469,-100.442134489796,24,stripes,,
Stripes Store,261,1802 S. BRYANT BLVD.,,SAN ANGELO,TX,76903,US,325-653-4942,31.4428369387755,-100.441937959184,18,stripes,,
Stripes Store,252,6026 HWY. 277 SOUTH,,ABILENE,TX,79606,US,325-692-5126,32.407195,-99.804815,24,stripes,,
Stripes Store,1027,11720 TOMBALL PRKWY,,HOUSTON,TX,77086,US,281-999-0904,29.900665005548,-95.4650789337232,24,stripes,,
Stripes Store,1081,12557 Woodforest Blvd.,,Houston,TX,77015,US,713-451-5322,29.7907379936032,-95.2075372959885,24,stripes,,
Stripes Store,1034,11350 JONES RD.,,HOUSTON,TX,77070,US,281-894-07-66,29.93857,-95.5847125,24,stripes,,
Stripes Store,1042,1402 FEDERAL ROAD,,HOUSTON,TX,77015,US,713-451-5212,29.7641133333333,-95.2132366666667,24,stripes,,
Stripes Store,1033,7784 FAIRBANKS N. HOUSTON ROAD,,HOUSTON,TX,77040,US,713-856-9434,29.8909099559394,-95.52474,24,stripes,,
Stripes Store,1024,7677 Gessner Road,,Houston,TX,77040,US,713-856-9300,29.8855928070175,-95.5409480701754,,stripes,,
Stripes Store,191,610 S.E. CROCKETT,,SONORA,TX,76950,US,325-287-6181,30.567362378499,-100.644162728032,24,stripes,,
Stripes Store,119,3925 S. BRYANT,,SAN ANGELO,TX,76903,US,325-655-1613,31.4199794006034,-100.440763856093,24,stripes,,
Stripes Store,179,1606 LAFOLLETTE,,SAN ANGELO,TX,76905,US,325-655-0397,31.47628,-100.413002857143,24,stripes,,
Stripes Store,38,1733 PULLIAM STREET,,SAN ANGELO,TX,76905,US,325-653-8664,31.47074,-100.410862222534,24,stripes,,
Stripes Store,131,635 SOUTH BELL,,SAN ANGELO,TX,76903,US,325-655-3236,31.4562479581942,-100.413393075587,18,stripes,,
Stripes Store,5061,4002 S. CHADBOURNE,,SAN ANGELO,TX,76904,US,325-651-1511,31.42386,-100.41946,24,stripes,,
Stripes Store,5007,1542 S. BELL,,SAN ANGELO,TX,76903,US,325-651-4512,31.44264,-100.41341,24,stripes,,
Stripes Store,114,101 SOUTH STATE,,BRONTE,TX,76933,US,325-473-6601,31.88537,-100.29225,24,stripes,,
Stripes Store,5217,2601 W. Main St.,,La Porte,TX,77571,US,281-842-1185,29.6646626,-95.0370189,24,stripes,,
Stripes Store,5075,1700 UNDERWOOD ROAD,,LA PORTE,TX,77571,US,281-842-1500,29.6783111956522,-95.0877914130435,24,stripes,,
Stripes Store,253,601 W. COMMERCE,,BROWNWOOD,TX,76801,US,325-643-1666,31.7296508470314,-98.9901370585953,24,stripes,,
Stripes Store,1045,3002 CENTER STREET,,DEER PARK,TX,77536,US,281-479-7710,29.6843541463415,-95.1234495121951,24,stripes,,
Stripes Store,5072,2817 RED BLUFF,,PASADENA,TX,77503,US,713-534-0472,29.69402,-95.17188,24,stripes,,
Stripes Store,1014,3949 RED BLUFF RD,,PASADENA,TX,77506,US,281-930-1014,29.682366,-95.1521785,24,stripes,,
Stripes Store,2498,3607 VETERANS BLVD,,DEL RIO,TX,78840,US,830-775-9890,29.4044885600614,-100.904630056468,24,stripes,,
Stripes Store,190,2100 VETERANS BLVD.,,DEL RIO,TX,78840,US,830-775-9375,29.38584,-100.9054,24,stripes,,
Stripes Store,5036,2200 SPUR 239,,DEL RIO,TX,78840,US,830-774-1881,29.3456448148148,-100.917627777778,24,stripes,,
Stripes Store,2412,1602 VETERANS BLVD,,DEL RIO,TX,78840,US,830-774-5634,29.3786890861944,-100.903777634478,24,stripes,,
Stripes Store,187,203 VETERANS BLVD.,,DEL RIO,TX,78840,US,830-775-6488,29.3657893877551,-100.897978571429,24,stripes,,
Stripes Store,2493,1300 E GIBBS STREET,,DEL RIO,TX,78840,US,830-775-1604,29.36863,-100.88953,24,stripes,,
Stripes Store,1039,1401 SOUTHMORE AVENUE,,PASADENA,TX,77506,US,713-475-5969,29.6916,-95.19325,24,stripes,,
Stripes Store,5079,8929 FAIRMONT PARKWAY,,LA PORTE,TX,77571,US,281-476-9776,29.651079532248,-95.093382848964,24,stripes,,
Stripes Store,2473,3801 HWY 377 S,,BROWNWOOD,TX,76801,US,325-646-7209,31.68735,-98.99975,24,stripes,,
Stripes Store,1032,19204 FM 529 ROAD,,CYPRESS,TX,77433,US,281-855-3220,29.8797918956867,-95.7055602407518,24,stripes,,
Stripes Store,1035,8040 FRY ROAD,,CYPRESS,TX,77433,US,281-859-0570,29.87967,-95.72387,24,stripes,,
Stripes Store,1004,2329 SOUTHMORE BOULEVARD,,HOUSTON,TX,77004,US,713-942-7811,29.7217328571429,-95.3760914285714,24,stripes,,
Stripes Store,1003,7925 HOWARD DRIVE,,HOUSTON,TX,77017,US,713-644-0424,29.67625,-95.26719,24,stripes,,
Stripes Store,264,107 E. HWY. 67,,MILES,TX,76861,US,325-468-3621,31.58584,-100.19587,18,stripes,,
Stripes Store,1002,6155 SOUTH LOOP EAST,,HOUSTON,TX,77087,US,713-644-0265,29.6954063586576,-95.3190335919792,24,stripes,,
Stripes Store,1084,"4300 Old Spanish Trail, Houston, TX 77021",,Houston,TX,77021,US,713-748-0726,29.7037,-95.34955,24,stripes,,
Stripes Store,1008,21751 CLAY ROAD,,KATY,TX,77449,US,281-579-7226,29.83164,-95.7536836442983,24,stripes,,
Stripes Store,2423,801 NORTH KEY AVE.,,LAMPASAS,TX,76550,US,512-564-1459,31.0740721276596,-98.185864893617,24,stripes,,
Stripes Store,5076,22643 MORTON RANCH RD,,KATY,TX,77449,US,281-579-9298,29.81695,-95.75312,24,stripes,,
Stripes Store,5073,11191 MONROE ROAD,,HOUSTON,TX,77075,US,713-991-2100,29.60205,-95.26627,24,stripes,,
Stripes Store,1040,12091 WEST PARK DRIVE,,HOUSTON,TX,77082,US,281-920-0870,29.7244621,-95.591481,24,stripes,,
Stripes Store,1030,1111 W LEAGUE CITY PARKWAY,,LEAGUE CITY,TX,77573,US,281-554-3222,29.4911531211875,-95.0982402704404,24,stripes,,
Stripes Store,1077,2829 LOOP 197 N,,TEXAS CITY,TX,77590,US,409-949-9190,29.40812,-94.91393,24,stripes,,
Stripes Store,1053,12712 FONDREN RD,,MISSOURI CITY,TX,77071,US,713-723-3667,29.6402207692308,-95.5083338461538,24,stripes,,
Stripes Store,1069,15182 S. Post Oak Rd.,,Houston,TX,77053,US,713-434-8801,29.6060143540789,-95.464872860741,24,stripes,,
Stripes Store,1029,6407 S PEEK RD.,,RICHMOND,TX,77406,US,832-595-8085,29.70116,-95.76018,24,stripes,,
Stripes Store,5071,7421 FM 1464 RD,,RICHMOND,TX,77407,US,281-494-2232,29.63974,-95.68078,24,stripes,,
Stripes Store,5202,3818 Cartwright Rd.,,Missouri City,TX,77459,US,281-208-0091,29.5826196650598,-95.5644572722712,24,stripes,,
Stripes Store,5267,426 E Austin St.,,Giddings,TX,78942,US,979-542-2889,30.181747,-96.9338269,24,stripes,,
Stripes Store,1057,11508 STATE HWY 6,,FRESNO,TX,77545,US,281-431-2300,29.5227329,-95.4915308,24,stripes,,
Stripes Store,249,1306 WEST WALLACE STREET,,SAN SABA,TX,76877,US,325-372-6518,31.1957206122449,-98.7316026530612,18,stripes,,
Stripes Store,1080,20135 MORRIS ROAD,,MANVEL,TX,77578,US,281-489-3931,29.4674016326531,-95.3567818367347,24,stripes,,
Stripes Store,5150,201 W Hwy 290,,Elgin,TX,78621,US,512-285-9893,30.33742,-97.37065,24,stripes,,
Stripes Store,1043,5302 FM 1640,,ROSENBERG,TX,77471,US,281-239-2998,29.5580803815609,-95.773402448197,24,stripes,,
Stripes Store,1028,550 FM 2977,,ROSENBERG,TX,77469,US,832-595-0209,29.53174,-95.74846,24,stripes,,
Stripes Store,5077,1636 Southgate Dr.,,Rosenberg,TX,77471,US,832-933-5833,29.54592,-95.80968,24,stripes,,
Stripes Store,2432,2501 S WATER ST,,BURNET,TX,78611,US,512-756-2521,30.7384,-98.23581,24,stripes,,
Stripes Store,5034,1801 HUTCHINGS,,BALLINGER,TX,76821,US,325-365-2876,31.72827,-99.95741,24,stripes,,
Stripes Store,2293,3501 N. HWY 281,,MARBLE FALLS,TX,78654,US,830-693-7930,30.6130578,-98.2676641,24,stripes,,
Stripes Store,1532,901 STATE HWY 95,,BASTROP,TX,78602,US,512-308-1983,30.11054,-97.3860321386854,24,stripes,,
Stripes Store,244,901 BESSEMER AVENUE,,LLANO,TX,78643,US,325-247-4256,30.75953,-98.67518,24,stripes,,
Stripes Store,2464,200 HIGHTWAY 71 EAST,,LLANO,TX,78643,US,325-247-1010,30.736975,-98.6740859,24,stripes,,
Stripes Store,5024,701 HWY. 87,,BRADY,TX,76825,US,325-597-0175,31.1352239,-99.3404293,24,stripes,,
Stripes Store,101,2013 S. BRIDGE,,BRADY,TX,76825,US,325-597-0200,31.1148084,-99.3351181,24,stripes,,
Stripes Store,1070,101 E. BRAZOS AVE.,,WEST COLUMBIA,TX,77846,US,979-345-1291,29.14457,-95.64802,24,stripes,,
Stripes Store,2249,708 N. US HWY. 77,,SCHULENBURG,TX,78956,US,979-743-6148,29.6963770391061,-96.9027495810056,24,stripes,,
Stripes Store,1059,902 N. BRAZOSPORT BLVD,,FREEPORT,TX,77541,US,979-233-9442,28.9682337040103,-95.3710636750722,24,stripes,,
Stripes Store,1527,19350 IH35,,KYLE,TX,78640,US,512-262-0174,30.03566,-97.84489,24,stripes,,
Stripes Store,2403,521 SOUTH US HWY 281,,JOHNSON CITY,TX,78636,US,830-868-2800,30.2688832653061,-98.3979863265306,24,stripes,,
Stripes Store,2450,1710 S. MECHANIC ST,,EL CAMPO,TX,77437,US,979-543-7701,29.1795982162576,-96.2608775989401,24,stripes,,
Stripes Store,2497,108 US 90,,BRACKETVILLE,TX,78832,US,830-563-2424,29.30431,-100.40466,18,stripes,,
Stripes Store,2291,2427 DEL RIO BLVD.,,EAGLE PASS,TX,78852,US,830-752-1260,28.7403010526316,-100.496241578947,24,stripes,,
Stripes Store,2262,2093 N. VETERANS BLVD.,,EAGLE PASS,TX,78852,US,830-773-0941,28.7195675,-100.4766025,24,stripes,,
Stripes Store,2484,4377 FM 201,,EAGLE PASS,TX,78852,US,830-773-3939,28.6690047556196,-100.453829728466,24,stripes,,
Stripes Store,2294,844 US HWY 83 SOUTH,,LEAKEY,TX,78873,US,830-232-5155,29.714475203252,-99.7632731707317,18,stripes,,
Stripes Store,5063,616 FT. MCKAVITT STREET,,MASON,TX,76856,US,325-347-5133,30.7515132,-99.2371321,24,stripes,,
Stripes Store,2407,312 W MAIN ST,,UVALDE,TX,78801,US,830-278-1626,29.2082758139488,-99.7903801938119,24,stripes,,
Stripes Store,2266,2815 E. MAIN STREET,,UVALDE,TX,78801,US,830-278-3458,29.2306450391669,-99.7553010088252,24,stripes,,
Stripes Store,5041,700 JUNCTION HIGHWAY,,KERRVILLE,TX,78028,US,830-896-4300,30.05626,-99.15885,24,stripes,,
Stripes Store,5039,2109 SIDNEY BAKER,,KERRVILLE,TX,78028,US,830-896-2700,30.0674540493872,-99.1153775086338,24,stripes,,
Stripes Store,5040,3305 MEMORIAL BOULEVARD,,KERRVILLE,TX,78028,US,830-896-3500,30.0159116326531,-99.1190479591837,24,stripes,,
Stripes Store,2280,101 NORTH 1ST STREET,,CARRIZO SPRINGS,TX,78834,US,830-876-3359,28.52113,-99.85727,24,stripes,,
Stripes Store,2430,525 N. US HWY. 83,,CARRIZO SPRINGS,TX,78834,US,830-876-3601,28.51379,-99.854815,24,stripes,,
Stripes Store,257,2204 HWY. 16 SOUTH,,FREDERICKSBURG,TX,78624,US,830-997-3153,30.2511511,-98.895001,18,stripes,,
Stripes Store,2499,6919 US 90,,D'HANIS,TX,78850,US,830-363-4290,29.32896,-99.28506,18,stripes,,
Stripes Store,2495,37101 IH 10 FRONTAGE ROAD,,BOERNE,TX,78006,US,830-249-3233,29.79526,-98.75346,18,stripes,,
Stripes Store,2494,25284 IH 10 WEST,,SAN ANTONIO,TX,78257,US,210-698-3634,29.6992106,-98.6526063,24,stripes,,
Stripes Store,2415,795 N. IH 35,,COTULLA,TX,78014,US,830-879-5354,28.43557,-99.25071,24,stripes,,
Stripes Store,2290,1138 S. US HIGHWAY 281,,BLANCO,TX,78606,US,830-833-5874,30.0842613,-98.4180856,24,stripes,,
Stripes Store,5200,7251 Eckhert Rd.,,San Antonio,TX,78238,US,210-647-9956,29.5055805184624,-98.6305484446127,24,stripes,,
Stripes Store,7462,9304 FM 1472 (MINES ROAD),,LAREDO,TX,78045,US,956-717-2922,27.65392,-99.60909,24,stripes,,
Stripes Store,2229,9219 FM 1472 (MINES ROAD),,LAREDO,TX,78045,US,956-523-0592,27.65392,-99.60909,24,stripes,,
Stripes Store,2409,15118 FM 1472,,LAREDO,TX,78405,US,956-718-2088,27.65392,-99.60909,24,stripes,,
Stripes Store,5201,919 Fredericksburg Rd.,,San Antonio,TX,78201,US,210-731-8294,29.4520463636364,-98.5138963636364,24,stripes,,
Stripes Store,2508,2215 SE Military Dr.,,San Antonio,TX,78223,US,210-531-8850,29.3516734399287,-98.4598457296861,24,stripes,,
Stripes Store,2187,2441 SAN ISIDRO PARKWAY,,LAREDO,TX,78045,US,956-523-0048,27.603639047619,-99.4764747619048,24,stripes,,
Stripes Store,5214,4038 E Houston St,,San Antonio,TX,78220,US,210-337-3994,29.424807755102,-98.4192557142857,24,stripes,,
Stripes Store,7044,101 W. DEL MAR BOULEVARD,,LAREDO,TX,78041,US,956-723-3444,27.56793,-99.49644,24,stripes,,
Stripes Store,7463,8612 MCPHERSON AVENUE,,LAREDO,TX,78045,US,956-717-2848,27.5852509137586,-99.4757184438256,24,stripes,,
Stripes Store,9664,3919 SAN BERNARDO,,LAREDO,TX,78041,US,956-724-2128,27.5347716326531,-99.5043681632653,24,stripes,,
Stripes Store,7453,101 E. HILLSIDE,,LAREDO,TX,78041,US,956-722-1626,27.54658,-99.49436,24,stripes,,
Stripes Store,7459,1200 E. DEL MAR BOULEVARD,,LAREDO,TX,78041,US,956-722-6138,27.5738438995559,-99.4739967364697,24,stripes,,
Stripes Store,5141,3320 SAN BERNARDO AVENUE,,LAREDO,TX,78040,US,956-722-8951,27.5292657142857,-99.5044079591837,24,stripes,,
Stripes Store,9674,2004 SANTA MARIA,,LAREDO,TX,78040,US,956-723-3923,27.5172308163265,-99.5101895918367,24,stripes,,
Stripes Store,9675,2701 SAN BERNARDO,,LAREDO,TX,78040,US,956-723-2655,27.52358,-99.50443,24,stripes,,
Stripes Store,7456,5900 MCPHERSON AVENUE,,LAREDO,TX,78041,US,956-723-4546,27.55441,-99.47991,24,stripes,,
Stripes Store,9659,1002 SANTA MARIA,,LAREDO,TX,78040,US,956-722-5508,27.5079283673469,-99.5103702040816,24,stripes,,
Stripes Store,2174,2501 E. DEL MAR BOULEVARD,,LAREDO,TX,78041,US,956-753-8858,27.57886,-99.4601,24,stripes,,
Stripes Store,2154,5301 MCPHERSON,,LAREDO,TX,78041,US,956-722-8614,27.545105,-99.482625,24,stripes,,
Stripes Store,5219,5102 McPherson Rd,,Laredo,TX,78041,US,956-724-5499,27.5414235665304,-99.4834167085162,24,stripes,,
Stripes Store,9679,1101 SAN BERNARDO,,LAREDO,TX,78040,US,956-722-4769,27.50881,-99.5046,24,stripes,,
Stripes Store,9656,602 WASHINGTON,,LAREDO,TX,78040,US,956-727-5739,27.5087604081633,-99.50172,24,stripes,,
Stripes Store,9668,1120 SAUNDERS,,LAREDO,TX,78041,US,956-728-7381,27.5305720408163,-99.4852797959184,24,stripes,,
Stripes Store,9857,701 GUADALUPE,,LAREDO,TX,78040,US,956-727-4719,27.50659,-99.48969,24,stripes,,
Stripes Store,9653,2401 MEADOW,,LAREDO,TX,78043,US,956-724-4657,27.51767,-99.48037,24,stripes,,
Stripes Store,2297,2519 JACAMAN ROAD,,LAREDO,TX,78041,US,956-723-4929,27.5594548979592,-99.4470312244898,24,stripes,,
Stripes Store,7461,3410 ARKANSAS,,LAREDO,TX,78043,US,956-723-6107,27.5269418367347,-99.4680010204082,24,stripes,,
Stripes Store,5099,7120 BOB BULLOCK LOOP,,LAREDO,TX,78045,US,956-718-4050,27.5586886728765,-99.4456360173316,24,stripes,,
Stripes Store,9654,1701 ARKANSAS,,LAREDO,TX,78041,US,956-727-8846,27.51116,-99.46803,24,stripes,,
Stripes Store,9677,602 N. ZAPATA HWY,,LAREDO,TX,78043,US,956-726-8543,27.501126,-99.469204,24,stripes,,
Stripes Store,5142,2402 E. BLAINE STREET,,LAREDO,TX,78043,US,956-727-3849,27.49053,-99.4715608163265,24,stripes,,
Stripes Store,2275,5002 SAUNDERS,,LAREDO,TX,78041,US,956-717-8539,27.5284270212766,-99.4451117021277,24,stripes,,
Stripes Store,2490,4320 STATE HWY 359,,LAREDO,TX,78043,US,956-728-7702,27.4980498666947,-99.4529619516785,24,stripes,,
Stripes Store,2235,4506 BEN-CHA ROAD,,LAREDO,TX,78043,US,956-726-2453,27.5030154462758,-99.4478189800954,24,stripes,,
Stripes Store,2195,3710 US HWY. 83,,LAREDO,TX,78046,US,956-722-0721,27.44947,-99.47778,24,stripes,,
Stripes Store,2224,101 SIERRA VISTA BOULEVARD,,LAREDO,TX,78046,US,956-729-8621,27.44776,-99.4769,24,stripes,,
Stripes Store,2173,602 PRADA MACHIN DRIVE,,LAREDO,TX,78046,US,956-729-8525,27.4374104081633,-99.4800353061225,24,stripes,,
Stripes Store,2197,5327 HIGHWAY 359,,LAREDO,TX,78046,US,956-722-8777,27.494805,-99.43794,24,stripes,,
Stripes Store,2485,3920 AQUA NIEVE DR.,,LAREDO,TX,78046,US,956-728-7740,27.4717062,-99.4520261,24,stripes,,
Stripes Store,2278,3302 LA PITA MANGANA ROAD,,LAREDO,TX,78046,US,956-729-7577,27.45172,-99.46497,24,stripes,,
Stripes Store,2270,111 WILLOW OAK,,LAREDO,TX,78043,US,956-722-1899,27.4943735338486,-99.4333928233076,24,stripes,,
Stripes Store,2496,1202 OAK STREET,,JOURDANTON,TX,78026,US,830-769-3359,28.9213144827586,-98.5412748275862,24,stripes,,
Stripes Store,2489,3936 IH 35 SOUTH,,SAN MARCOS,TX,78666,US,512-396-0016,29.8290825043835,-97.9845820996808,24,stripes,,
Stripes Store,5203,"1901 N IH 35, San Marcos, TX 78666",,San Marcos,TX,78666,US,512-353-0022,29.8582255,-97.9511551,24,stripes,,
Stripes Store,1512,2101 TEXAS 123,,SAN MARCOS,TX,78666,US,512-392-9576,29.84609,-97.94066,24,stripes,,
Stripes Store,2505,2728 N. Austin,,Seguin,TX,78155,US,830-401-0503,29.6004133333333,-97.9650933333333,24,stripes,,
Stripes Store,2207,102 N. HIGHWAY 83,,ZAPATA,TX,78076,US,956-765-5536,27.0473,-99.44086,24,stripes,,
Stripes Store,2140,100 W. RILEY,,FREER,TX,78357,US,361-394-6610,27.88272,-98.61795,24,stripes,,
Stripes Store,5143,101 S. NORTON,,FREER,TX,78357,US,361-394-6593,27.88166,-98.618,18,stripes,,
Stripes Store,2486,210 E. CENTRAL AVE.,,NIXON,TX,78140,US,830-582-1154,29.2677255102041,-97.7633446938775,24,stripes,,
Stripes Store,2417,1905 S. US HWY 181,,KARNES CITY,TX,78118,US,830-780-2854,28.864811629393,-97.8957927156549,24,stripes,,
Stripes Store,5098,HWY 37 & US 59,,GEORGE WEST,TX,78022,US,361-449-3766,28.2676845,-98.1791171,24,stripes,,
Stripes Store,2209,611 N. SMITH AVENUE,,HEBBRONVILLE,TX,78361,US,361-527-5584,27.3117120408163,-98.6780528571429,24,stripes,,
Stripes Store,2500,102 E MAIN ST,,RUNGE,TX,78151,US,830-239-7440,28.8837057142857,-97.7128467346939,24,stripes,,
Stripes Store,9397,1510 N. ST. MARY'S,,BEEVILLE,TX,78102,US,361-358-6430,28.4153137,-97.7547408,24,stripes,,
Stripes Store,5092,1620 FM 351 EAST,,BEEVILLE,TX,78102,US,361-354-5459,28.4303613935851,-97.7419368644336,24,stripes,,
Stripes Store,9624,600 E. HOUSTON,,BEEVILLE,TX,78102,US,361-358-0317,28.40345,-97.7426,24,stripes,,
Stripes Store,9399,1911 S. WASHINGTON,,BEEVILLE,TX,78102,US,361-358-6432,28.3874209114139,-97.7332336456556,24,stripes,,
Stripes Store,7134,104 SOUTH REYNOLDS,,ORANGE GROVE,TX,78372,US,361-384-2722,27.95652,-97.936975,24,stripes,,
Stripes Store,7049,1723 E. MAIN STREET,,ALICE,TX,78332,US,361-664-1932,27.75951,-98.05229,24,stripes,,
Stripes Store,5094,2902 E GRANT STREET,,ROMA,TX,78584,US,956-847-2425,26.4075625,-98.9792279166667,24,stripes,,
Stripes Store,2456,4200 N. ESPLANADE,,CUERO,TX,77956,US,361-275-8200,29.1200657,-97.2794486,24,stripes,,
Stripes Store,9416,111 E. MORGAN,,CUERO,TX,77954,US,361-275-6761,29.0883108163265,-97.2927771428571,24,stripes,,
Stripes Store,2244,1200 E. BROADWAY STREET,,CUERO,TX,77954,US,361-275-9301,29.087925,-97.274025,24,stripes,,
Stripes Store,2292,401 FM 3167 ROAD N.,,RIO GRANDE CITY,TX,78582,US,956-488-8619,26.42633,-98.84906,24,stripes,,
Stripes Store,2206,2798 W. HWY. 83,,RIO GRANDE CITY,TX,78582,US,956-487-1429,26.3729318,-98.8744569,24,stripes,,
Stripes Store,9657,208 W. PEARL,,GOLIAD,TX,77963,US,361-645-2172,28.6681801332667,-97.3940261252715,24,stripes,,
Stripes Store,9097,106 FAIRWINDS,,HALLETTSVILLE,TX,77964,US,361-798-4761,29.4433939141591,-96.9456702384468,24,stripes,,
Stripes Store,2180,500 EAST RICE,,FALFURRIAS,TX,78355,US,361-325-1337,27.22626,-98.14023,24,stripes,,
Stripes Store,2476,112 NORTH HWY. 281,,FALFURRIAS,TX,78355,US,361-325-2560,27.2266915,-98.1396782,24,stripes,,
Stripes Store,7128,14901 NORTHWEST BOULEVARD,,CORPUS CHRISTI,TX,78410,US,361-387-8705,27.85827,-97.65776,24,stripes,,
Stripes Store,7129,201 N. BYPASS & 4TH,,BISHOP,TX,78343,US,361-584-3378,27.5890089,-97.8098649,24,stripes,,
Stripes Store,7125,HIGHWAY 77 & FM 665 AKA 402 N. HWY. 77,,DRISCOLL,TX,78351,US,361-387-4922,27.67218,-97.7508,24,stripes,,
Stripes Store,2458,800 Voss Avenue,,ODEM,TX,78370,US,361-368-2387,27.948,-97.58451,1,stripes,,
Stripes Store,2129,100 WEST AVE. J,,ROBSTOWN,TX,78380,US,361-387-3016,27.79999,-97.66736,24,stripes,,
Stripes Store,1062,5620 7TH STREET,,BAY CITY,TX,77414,US,979-244-4737,28.99178,-95.92513,24,stripes,,
Stripes Store,2124,3955 HIGHWAY 77,,CORPUS CHRISTI,TX,78410,US,361-387-4766,27.8555852,-97.6309358,24,stripes,,
Stripes Store,2122,204 E. SINTON,,SINTON,TX,78387,US,361-364-3915,28.03669,-97.5091814285714,24,stripes,,
Stripes Store,9437,11901 LEOPARD,,CORPUS CHRISTI,TX,78410,US,361-241-5535,27.85307,-97.59878,24,stripes,,
Stripes Store,2437,7276 E. HIGHWAY 83,,ALTO BONITO,TX,78582,US,956-716-6160,26.3066285,-98.639151,,stripes,,
Stripes Store,2128,11201 LEOPARD,,CORPUS CHRISTI,TX,78410,US,361-241-5422,27.84592,-97.58647,24,stripes,,
Stripes Store,2161,11201 IH 37,,CORPUS CHRISTI,TX,78410,US,361-242-3456,27.8511597401266,-97.5825220343934,24,stripes,,
Stripes Store,9395,628 HIGHWAY 44,,ROBSTOWN,TX,78380,US,361-387-3384,27.7833909677419,-97.6204087096774,24,stripes,,
Stripes Store,9761,905 W. MAIN,,EDNA,TX,77957,US,361-782-5413,28.9739783673469,-96.6552916326531,24,stripes,,
Stripes Store,5139,4901 JOHN STOCKBAUER DRIVE,,VICTORIA,TX,77904,US,361-575-4330,28.85637,-96.98589,24,stripes,,
Stripes Store,9552,10408 ZAC LENTZ PARKWAY,,VICTORIA,TX,77904,US,361-572-9844,28.8608040314508,-97.0192954907528,24,stripes,,
Stripes Store,7098,3002 MCKENZIE ROAD,,CORPUS CHRISTI,TX,78410,US,361-241-7819,27.8389000180661,-97.57366,24,stripes,,
Stripes Store,2192,4402 N. NAVARRO,,VICTORIA,TX,77904,US,361-573-9110,28.8353474713762,-97.001621455948,24,stripes,,
Stripes Store,2288,108 NORTH ALAMO STREET,,REFUGIO,TX,78377,US,361-526-2251,28.3053661635939,-97.2751328951614,24,stripes,,
Stripes Store,7039,1704 SW MOODY STREET,,VICTORIA,TX,77901,US,361-578-3181,28.7904519920048,-97.0206131245235,24,stripes,,
Stripes Store,7130,9360 LEOPARD STREET,,CORPUS CHRISTI,TX,78409,US,361-241-2201,27.8255082378803,-97.5466420704721,24,stripes,,
Stripes Store,7351,2002 N. NAVARRO STREET,,VICTORIA,TX,77901,US,361-575-0538,28.8131093877551,-96.9999514285714,24,stripes,,
Stripes Store,7352,1901 SAM HOUSTON DRIVE,,VICTORIA,TX,77901,US,361-573-6330,28.83106,-96.98382,24,stripes,,
Stripes Store,7342,2501 N. BEN JORDAN STREET,,VICTORIA,TX,77901,US,361-576-1021,28.81414,-96.9831,24,stripes,,
Stripes Store,5064,3204 S. LAURENT,,VICTORIA,TX,77901,US,361-579-0087,28.8229075501361,-96.9922824758331,24,stripes,,
Stripes Store,5140,1302 E. RIO GRANDE STREET,,VICTORIA,TX,77901,US,361-572-9704,28.8061704026846,-96.990970738255,24,stripes,,
Stripes Store,7348,302 N. NAVARRO STREET,,VICTORIA,TX,77901,US,361-575-2211,28.7991988888889,-97.0004455555556,24,stripes,,
Stripes Store,2559,800 E. EXPRESSWAY 83,,SULLIVAN CITY,TX,78595,US,956-485-2037,26.272465,-98.553172,24,stripes,,
Stripes Store,2201,6240 SOUTH HIGHWAY 77,,RIVIERA,TX,78379,US,361-296-3818,27.30396,-97.81675,24,stripes,,
Stripes Store,2421,5702 LEOPARD STREET,,CORPUS CHRISTI,TX,78408,US,361-299-2345,27.7976119209686,-97.4703212460105,24,stripes,,
Stripes Store,7127,4849 LEOPARD STREET,,CORPUS CHRISTI,TX,78408,US,361-882-2038,27.79725415384,-97.4501812304287,24,stripes,,
Store Number,5216,601 South Padre Island Drive,,Corpus Christi,TX,78405,US,3618148207,27.756222,-97.4606661,,,,
Stripes Store,2116,204 HIGHWAY 181,,TAFT,TX,78390,US,361-528-3315,27.9167214,-97.2961456,24,stripes,,
Stripes Store,9391,3306 N. HIGHWAY 35,,FULTON,TX,78358,US,361-729-5200,28.0628677512334,-97.0412221204882,24,stripes,,
Stripes Store,7124,597 SOUTH PADRE ISLAND DRIVE,,CORPUS CHRISTI,TX,78405,US,361-289-7416,27.7562176904587,-97.4607069213083,24,stripes,,
Stripes Store,9432,3238 BUDDY LAWRENCE,,CORPUS CHRISTI,TX,78408,US,361-883-0395,27.8015415345597,-97.4304387127463,24,stripes,,
Stripes Store,9438,4101 AGNES,,CORPUS CHRISTI,TX,78405,US,361-883-0397,27.78623,-97.43711,24,stripes,,
Stripes Store,7051,4900 OLD BROWNSVILLE ROAD,,CORPUS CHRISTI,TX,78405,US,361-853-3271,27.76182,-97.45124,24,stripes,,
Stripes Store,2457,305 W. EXPRESSWAY 83,,LA JOYA,TX,78560,US,956-583-2662,26.2487989,-98.4837893,24,stripes,,
Stripes Store,9831,1050 NUECES BAY BLVD.,,CORPUS CHRISTI,TX,78408,US,361-884-1581,27.799912244898,-97.4252291836735,24,stripes,,
Stripes Store,7122,666 AIRPORT ROAD,,CORPUS CHRISTI,TX,78405,US,361-887-9318,27.775578,-97.4379406666667,24,stripes,,
Stripes Store,9203,102 SUNSET ROAD,,GREGORY,TX,78359,US,361-643-4789,27.9158477157299,-97.2973249885665,24,stripes,,
Stripes Store,7055,1301 MOORE AVENUE,,PORTLAND,TX,78374,US,361-643-7150,27.8817029216567,-97.3333367947927,24,stripes,,
Stripes Store,7115,1650 WILDCAT DRIVE,,PORTLAND,TX,78374,US,361-643-1175,27.8877654682767,-97.3190757981547,24,stripes,,
Stripes Store,2118,4010 STATE HIGHWAY 181,,CORPUS CHRISTI,TX,78402,US,361-882-1610,27.8297846,-97.3866947,24,stripes,,
Stripes Store,2420,2902 HWY 35 NORTH,,ROCKPORT,TX,78382,US,361-790-8814,28.0569333326098,-97.04155,24,stripes,,
Stripes Store,9434,630 S. FULTON BEACH,,ROCKPORT,TX,78382,US,361-729-7187,28.0517029671399,-97.033245780284,24,stripes,,
Stripes Store,2144,601 SOUTH HIGHWAY 35,,ROCKPORT,TX,78382,US,361-729-2301,28.02219,-97.05987,24,stripes,,
Stripes Store,2149,235 W. CLEVELAND,,ARANSAS PASS,TX,78336,US,361-758-8494,27.91121,-97.14268,24,stripes,,
Stripes Store,2125,3302 BALDWIN,,CORPUS CHRISTI,TX,78405,US,361-887-6329,27.77724,-97.4278725,24,stripes,,
Stripes Store,2117,601 S. PORT,,CORPUS CHRISTI,TX,78401,US,361-884-8250,27.7850587,-97.420871,24,stripes,,
Stripes Store,2123,701 N. STAPLES,,CORPUS CHRISTI,TX,78401,US,361-884-4221,27.7964,-97.40302,24,stripes,,
Stripes Store,2120,1601 AGNES,,CORPUS CHRISTI,TX,78401,US,361-884-6521,27.78722,-97.40787,24,stripes,,
Stripes Store,2131,3042 S. PORT,,CORPUS CHRISTI,TX,78405,US,361-882-8057,27.7656962,-97.4197729,24,stripes,,
Stripes Store,2160,2002 MORGAN AVENUE,,CORPUS CHRISTI,TX,78405,US,361-881-8780,27.77816,-97.41204,24,stripes,,
Stripes Store,2179,301 IH 37 ACCESS ROAD,,CORPUS CHRISTI,TX,78401,US,361-887-6767,27.80186,-97.39312,24,stripes,,
Stripes Store,2401,1303 THIRD,,CORPUS CHRISTI,TX,78404,US,361-904-0188,27.7790328571429,-97.3966428571429,24,stripes,,
Stripes Store,2223,301 E. GOODNIGHT AVENUE,,ARANSAS PASS,TX,78336,US,361-758-2804,27.9012199952013,-97.1439794030142,24,stripes,,
Stripes Store,9433,511 COTTER,,PORT ARANSAS,TX,78373,US,361-749-5586,27.8369758016427,-97.0566949728366,24,stripes,,
Stripes Store,2111,232 COTTER,,PORT ARANSAS,TX,78373,US,361-749-6136,27.837797755102,-97.0595932653061,24,stripes,,
Stripes Store,7028,120 E. MCCLUNG AVENUE,,ARANSAS PASS,TX,78336,US,361-758-2912,27.8966595918367,-97.1498534693878,24,stripes,,
Stripes Store,2145,219 N. ALISTER,,PORT ARANSAS,TX,78373,US,361-749-5300,27.8336013043478,-97.0621960869565,24,stripes,,
Stripes Store,2114,701 S. ALISTER,,PORT ARANSAS,TX,78373,US,361-749-4624,27.82819,-97.06702,24,stripes,,
Stripes Store,7058,2042 GOLLIHAR ROAD,,CORPUS CHRISTI,TX,78416,US,361-855-7992,27.74809,-97.4272785714286,24,stripes,,
Stripes Store,5130,6002 AYERS STREET,,CORPUS CHRISTI,TX,78415,US,361-852-2533,27.7210386842105,-97.4364081578947,24,stripes,,
Stripes Store,2103,4502 AYERS,,CORPUS CHRISTI,TX,78415,US,361-853-0691,27.7451438461538,-97.4213576923077,24,stripes,,
Stripes Store,2159,4101 AYERS STREET,,CORPUS CHRISTI,TX,78415,US,361-852-6049,27.75159,-97.41746,24,stripes,,
Stripes Store,2127,3102 AYERS,,CORPUS CHRISTI,TX,78415,US,361-883-7362,27.761525,-97.4113795833333,24,stripes,,
Stripes Store,5131,2754 SOUTH STAPLES STREET,,CORPUS CHRISTI,TX,78404,US,361-853-6221,27.7615654253506,-97.4026540362937,24,stripes,,
Stripes Store,2146,2589 HIGHWAY 361 FORMERLY KNOWN AS 2882 MAIN ST.,,INGLESIDE,TX,78362,US,361-776-7213,27.8832694,-97.2079611,24,stripes,,
Stripes Store,9394,2686 S. MAIN,,INGLESIDE,TX,78362,US,361-776-2591,27.8756050261125,-97.2118814973888,24,stripes,,
Stripes Store,2104,3601 S. STAPLES,,CORPUS CHRISTI,TX,78411,US,361-853-0354,27.74646,-97.39255,24,stripes,,
Stripes Store,2141,322 E. AVENUE G F/K/A 318 E. AVENUE G,,PORT ARANSAS,TX,78373,US,361-749-6133,27.826446,-97.064988,24,stripes,,
Stripes Store,2150,3501 HIGHWAY 361,,PORT ARANSAS,TX,78373,US,361-749-4537,27.8059629,-97.0823348,24,stripes,,
Stripes Store,9386,240 N.A.S. DRIVE,,CORPUS CHRISTI,TX,78419,US,361-937-0251,27.6786786666667,-97.2759972,24,stripes,,
Stripes Store,2212,5500 W. MILE 7 ROAD,,MISSION (OUTSIDE CITY LIMITS),TX,78574,US,956-519-0491,26.32444,-98.37038,24,stripes,,
Stripes Store,7133,5702 KOSTORYZ ROAD,,CORPUS CHRISTI,TX,78415,US,361-855-2396,27.7192181632653,-97.4188302040816,24,stripes,,
Stripes Store,2222,5645 KOSTORYZ ROAD,,CORPUS CHRISTI,TX,78415,US,361-853-7994,27.7200825,-97.4182925,24,stripes,,
Stripes Store,9504,3201 S.P.I.D.,,CORPUS CHRISTI,TX,78415,US,361-857-0822,27.72813,-97.41285,24,stripes,,
Stripes Store,2221,6841 WEBER ROAD,,CORPUS CHRISTI,TX,78413,US,361-855-8865,27.6937937288136,-97.4160701694915,24,stripes,,
Stripes Store,2135,4444 WEBER,,CORPUS CHRISTI,TX,78411,US,361-855-3924,27.7320008163265,-97.3922146938775,24,stripes,,
Stripes Store,2108,4302 S. ALAMEDA,,CORPUS CHRISTI,TX,78412,US,361-993-7435,27.7301499457471,-97.3721122258725,24,stripes,,
Stripes Store,9502,4202 S. STAPLES,,CORPUS CHRISTI,TX,78411,US,361-991-2145,27.72453,-97.377885,24,stripes,,
Stripes Store,2167,4754 SOUTH PADRE ISLAND DRIVE,,CORPUS CHRISTI,TX,78411,US,361-851-0454,27.7156118315648,-97.3855078333811,24,stripes,,
Stripes Store,2165,4747 SOUTH ALAMEDA,,CORPUS CHRISTI,TX,78412,US,361-993-8156,27.7249373321942,-97.3626851922137,24,stripes,,
Stripes Store,9886,6101 OCEAN DRIVE,,CORPUS CHRISTI,TX,78412,US,361-991-2047,27.71911,-97.33419,24,stripes,,
Stripes Store,5119,5702 SOUTH ALAMEDA,,CORPUS CHRISTI,TX,78412,US,361-991-4575,27.7166572335683,-97.3456505401203,24,stripes,,
Stripes Store,2134,10361 S.P.I.D.,,CORPUS CHRISTI,TX,78418,US,361-939-7736,27.6686160783919,-97.2831503166601,24,stripes,,
Stripes Store,2215,9602 SOUTH PADRE ISLAND DRIVE,,CORPUS CHRISTI,TX,78418,US,361-939-9333,27.67523,-97.29618,24,stripes,,
Stripes Store,2570,6220 NORTH LA HOMA ROAD,,MISSION,TX,78574,US,956-585-0516,26.2911,-98.35205,24,stripes,,
Stripes Store,7136,7602-A EVERHART ROAD,,CORPUS CHRISTI,TX,78413,US,361-992-3408,27.6731868,-97.4103616,24,stripes,,
Stripes Store,2213,6801 EVERHART ROAD,,CORPUS CHRISTI,TX,78413,US,361-854-0241,27.68627,-97.40212,24,stripes,,
Stripes Store,2101,5701 EVERHART ROAD,,CORPUS CHRISTI,TX,78413,US,361-855-8930,27.70537,-97.39014,24,stripes,,
Stripes Store,5112,3801 W. 3 MILE ROAD,,MISSION,TX,78574,US,956-424-7879,26.2650842,-98.3665065,24,stripes,,
Stripes Store,2102,5301 S. STAPLES,,CORPUS CHRISTI,TX,78411,US,361-993-9475,27.70454,-97.37195,24,stripes,,
Stripes Store,2168,5939 SOUTH PADRE ISLAND DRIVE,,CORPUS CHRISTI,TX,78412,US,361-991-8948,27.7042433778959,-97.3639562732352,24,stripes,,
Stripes Store,2182,5529 SARATOGA BOULEVARD,,CORPUS CHRISTI,TX,78413,US,361-985-1301,27.6862775609756,-97.3855707317073,24,stripes,,
Stripes Store,2155,5614 SARATOGA BOULEVARD,,CORPUS CHRISTI,TX,78414,US,361-992-2218,27.68516375,-97.3829675,24,stripes,,
Stripes Store,5129,2034 AIRLINE ROAD,,CORPUS CHRISTI,TX,78412,US,361-991-4942,27.69337,-97.36338,24,stripes,,
Stripes Store,2136,15233 S.P.I.D.,,CORPUS CHRISTI,TX,78418,US,361-949-7773,27.63192,-97.23398,24,stripes,,
Stripes Store,2107,14526 S.P.I.D.,,CORPUS CHRISTI,TX,78418,US,361-949-9306,27.63192,-97.23398,24,stripes,,
Stripes Store,5127,7526 MCARDLE ROAD,,CORPUS CHRISTI,TX,78412,US,361-991-7751,27.694270937773,-97.3344397672199,24,stripes,,
Stripes Store,2112,6901 S.P.I.D.,,CORPUS CHRISTI,TX,78412,US,361-991-1044,27.69582,-97.34702,24,stripes,,
Stripes Store,9143,2900 W. 3 MILE ROAD,,MISSION (NOT IN CITY LIMITS-COUNTY ONLY),TX,78574,US,956-583-3181,26.263946,-98.356768,24,stripes,,
Stripes Store,2219,2005 W. PALMA VISTA DRIVE,,PALMVIEW,TX,78572,US,956-585-1804,26.23396,-98.37743,24,stripes,,
Stripes Store,2172,7502 SOUTH STAPLES STREET,,CORPUS CHRISTI,TX,78413,US,361-980-1925,27.6663569354839,-97.3957808064516,24,stripes,,
Stripes Store,7137,7122 SOUTH STAPLES,,CORPUS CHRISTI,TX,78413,US,361-991-2131,27.6732007142857,-97.3915053571428,24,stripes,,
Stripes Store,2198,10935 N. CONWAY AVENUE,,MISSION (NOT IN CITY LIMITS),TX,78574,US,956-581-9878,26.3148971769607,-98.3091354705065,24,stripes,,
Stripes Store,2453,2022 RODD FIELD RD,,CORPUS CHRISTI,TX,78412,US,361-985-0998,27.6847212108302,-97.3469464250686,24,STRIPES,,
Stripes Store,2204,6346 YORKTOWN BOULEVARD,,CORPUS CHRISTI,TX,78414,US,361-906-1291,27.6600968528436,-97.3829753441868,24,stripes,,
Stripes Store,9540,2781 RODDFIELD ROAD,,CORPUS CHRISTI,TX,78414,US,361-991-0430,27.6735802030228,-97.3539177771366,24,stripes,,
Stripes Store,2109,2202 WALDRON,,CORPUS CHRISTI,TX,78418,US,361-937-6839,27.6512262164541,-97.2931421620262,24,stripes,,
Stripes Store,7121,15302 SOUTH PADRE ISLAND DRIVE,,CORPUS CHRISTI,TX,78418,US,361-949-8631,27.6020197959184,-97.2220524489796,24,stripes,,
Stripes Store,9267,3058 LAGUNA SHORES,,CORPUS CHRISTI,TX,78418,US,361-937-2921,27.6316230434783,-97.2902979710145,24,stripes,,
Stripes Store,2106,3053 WALDRON,,CORPUS CHRISTI,TX,78418,US,361-937-6111,27.6373778225165,-97.3018324424382,24,stripes,,
Stripes Store,2470,3621 HIGHWAY 83,,MCALLEN,TX,78501,US,956-686-7717,26.2328408163265,-98.3697406122449,24,stripes,,
Stripes Store,2568,523 W. MAIN AVENUE,,ALTON,TX,78570,US,956-519-6874,26.2877914285714,-98.318967755102,24,stripes,,
Stripes Store,2558,2831 W. HIGHWAY 83,,MCALLEN,TX,78501,US,956-668-0210,26.227709,-98.358933,24,stripes,,
Stripes Store,9111,806 EAST PALMA VISTA DRIVE FKA 2920 W. EXPWY 83,,PALMVIEW,TX,78572,US,956-580-2469,26.22767,-98.3589,24,stripes,,
Stripes Store,7326,200 E. U.S. HIGHWAY 83,,MCALLEN,TX,78501,US,956-630-0406,26.22537,-98.35633,24,stripes,,
Stripes Store,9133,2400 EAST HIGHWAY 83,,MISSION,TX,78572,US,956-585-2819,26.22537,-98.35633,24,stripes,,
Stripes Store,7311,423 E. HIDALGO AVENUE,,RAYMONDVILLE,TX,78580,US,956-689-6363,26.48192,-97.7786133333333,24,stripes,,
Stripes Store,2277,101 SOUTH EXPRESS WAY 77,,RAYMONDVILLE,TX,78580,US,956-689-3707,26.482,-97.76863,24,stripes,,
Stripes Store,9134,123 E. 3 MILE LINE FKA NEC 3 MILE/107,,PALMHURST,TX,78574,US,956-580-0552,26.2583898470948,-98.3187986850153,24,stripes,,
Stripes Store,2220,2107 W. EXPRESSWAY 83,,MISSION,TX,78572,US,956-519-1593,26.2155719,-98.3498826,24,stripes,,
Stripes Store,2554,710 W. GRIFFIN PARKWAY,,MISSION,TX,78572,US,956-519-6035,26.2305802040816,-98.3304302040816,24,stripes,,
Stripes Store,9105,1001 W. MIRACLE MILE,,MCALLEN,TX,78501,US,956-630-3380,26.221414,-98.335451,24,stripes,,
Stripes Store,2478,1095 E. HIDALGO AVENUE,,RAYMONDVILLE,TX,78580,US,956-689-2015,26.4819995959596,-97.769574040404,24,stripes,,
Stripes Store,2404,2202 W MONTE CRISTO RD,,EDINBURG,TX,78541,US,956-287-0902,26.3405919016033,-98.1800311859371,24,stripes,,
Stripes Store,5111,1510 W. MONTE CRISTO ROAD,,EDINBURG,TX,78541,US,956-383-3723,26.3393055555556,-98.1711666666667,24,stripes,,
Stripes Store,2276,102 E. MONTE CRISTO RD.,,EDINBURG,TX,78541,US,956-316-4690,26.3370869692497,-98.1558284479982,24,stripes,,
Stripes Store,2193,5000 PADRE BOULEVARD,,SOUTH PADRE ISLAND,TX,78597,US,956-772-9003,26.12217,-97.17029,24,stripes,,
Stripes Store,9628,4112 PADRE BLVD.,,SOUTH PADRE ISLAND,TX,78597,US,956-761-1825,26.1150827272727,-97.1694815909091,24,stripes,,
Stripes Store,9692,2913 PADRE BLVD.,,SOUTH PADRE ISLAND,TX,78597,US,956-761-5811,26.1053969387755,-97.1683697959184,24,stripes,,
Stripes Store,2153,2000 PADRE BLVD.,,S. PADRE ISLAND,TX,78597,US,956-761-7507,26.0993717204301,-97.1661872043011,24,stripes,,
Stripes Store,9862,331 PADRE BLVD.,,SOUTH PADRE ISLAND,TX,78597,US,956-761-1244,26.0838651212299,-97.1658968598463,24,stripes,,
Stripes Store,2226,28281 FM 106,,RIO HONDO,TX,78583,US,956-748-3404,26.2323968623342,-97.5662105870025,24,stripes,,
Stripes Store,7317,1523 N. CONWAY AVENUE,,MISSION,TX,78572,US,956-581-4881,26.2210544897959,-98.3248440816326,24,stripes,,
Stripes Store,7313,311 N. CONWAY,,MISSION,TX,78572,US,956-581-2289,26.2086530612245,-98.3269216326531,24,stripes,,
Stripes Store,5116,7820 N. SHARY ROAD,,MCALLEN,TX,78504,US,956-585-5386,26.27512,-98.27495,24,stripes,,
Stripes Store,9126,100 EAST EXPRESSWAY 83,,MISSION,TX,78572,US,956-585-6165,26.2004225,-98.3278384,24,stripes,,
Stripes Store,9694,909 N. BRYAN ROAD,,MISSION,TX,78572,US,956-585-1561,26.2133567346939,-98.3098553061225,24,stripes,,
Stripes Store,2265,1600 E. GRIFFIN PARKWAY,,MISSION,TX,78572,US,956-581-2628,26.22636,-98.29951,24,stripes,,
Stripes Store,2228,201 W. HWY. 107,,LA VILLA,TX,78562,US,956-262-8061,26.294573,-97.9240326,24,stripes,,
Stripes Store,9132,4420 W. UNIVERSITY DRIVE,,EDINBURG,TX,78539,US,956-383-8200,26.3077581052632,-98.2068567368421,24,stripes,,
Stripes Store,7791,801 N. CLOSNER BOULEVARD,,EDINBURG,TX,78539,US,956-383-5961,26.30838,-98.16119,24,stripes,,
Stripes Store,7320,721 N. CLOSNER BOULEVARD,,EDINBURG,TX,78539,US,956-383-4003,26.3075920408163,-98.1613332653061,24,stripes,,
Stripes Store,2218,911 W. EDINBURG AVENUE,,ELSA,TX,78543,US,956-262-9727,26.2934954343808,-97.9821763955638,24,stripes,,
Stripes Store,2232,6715 E. STATE HIGHWAY 107,,EDINBURG (OUTSIDE CITY LIMITS),TX,78539,US,956-289-8732,26.2942021,-98.0625954,24,stripes,,
Stripes Store,9125,1606 E. RICHARDSON ROAD,,EDINBURG,TX,78539,US,956-287-1350,26.30355,-98.12681,24,stripes,,
Stripes Store,5081,2502 E. UNIVERSITY DRIVE,,EDINBURG,TX,78539,US,956-292-0614,26.2977320981095,-98.1366650059136,24,stripes,,
Stripes Store,9682,1402 E. UNIVERSITY,,EDINBURG,TX,78539,US,956-383-6961,26.2993865306122,-98.148387755102,24,stripes,,
Stripes Store,9691,102 E. QUEEN ISABELLA,,PORT ISABEL,TX,78578,US,956-943-5011,26.0753518367347,-97.2101212244898,24,stripes,,
Stripes Store,2284,102 EAST HIGHWAY 100,,LAGUNA VISTA,TX,78578,US,956-943-7933,26.07146,-97.22031,24,stripes,,
Stripes Store,9870,1656 WEST HIGHWAY 100 FKA 1653 HWY 100,,PORT ISABEL,TX,78578,US,956-943-3783,26.07207,-97.22393,24,stripes,,
Stripes Store,9117,1685 STATE HIGHWAY 100,,PORT ISABEL,TX,78578,US,956-943-3438,26.0725878,-97.2266877,24,stripes,,
Stripes Store,2242,21469 US 77 EXPRESSWAY,,HARLINGEN (COMBES),TX,78552,US,956-412-1304,26.22807,-97.72117,24,stripes,,
Stripes Store,9839,930 MORGAN BLVD.,,HARLINGEN,TX,78550,US,956-423-3482,26.2014226372363,-97.6774990312219,24,stripes,,
Stripes Store,9651,1250 N. 77 SUNSHINE STRIP,,HARLINGEN,TX,78550,US,956-425-2627,26.2050875510204,-97.6887904081633,24,stripes,,
Stripes Store,9124,2401 E. GRIFFIN PARKWAY,,MISSION,TX,78572,US,956-584-7237,26.22417,-98.28357,24,stripes,,
Stripes Store,2225,5600 N. WARE ROAD,,MCALLEN,TX,78504,US,956-686-6428,26.2576714666667,-98.252994,24,stripes,,
Stripes Store,9680,3620 TULIP,,MCALLEN,TX,78504,US,956-630-3591,26.2494915068493,-98.2542439726027,24,stripes,,
Stripes Store,9130,3901 N. WARE ROAD,,MCALLEN,TX,78501,US,956-630-4845,26.24238,-98.25559,24,stripes,,
Stripes Store,2566,3000 N. WARE ROAD,,MCALLEN,TX,78501,US,956-683-7127,26.23517,-98.25683,24,stripes,,
Stripes Store,5115,1603 W. UNIVERSITY DRIVE,,EDINBURG,TX,78541,US,956-383-3920,26.3037532142857,-98.1783027142857,24,stripes,,
Stripes Store,9648,802 W. UNIVERSITY,,EDINBURG,TX,78539,US,956-381-0066,26.302534,-98.170352,24,stripes,,
Stripes Store,2577,5302 E. HIGHWAY 107,,EDINBURG,TX,78542,US,956-287-7325,26.2925288888889,-98.1064682828283,24,stripes,,
Stripes Store,9110,2824 W. FREDDY GONZALEZ DRIVE,,EDINBURG,TX,78539,US,956-383-8987,26.291412,-98.1962656666667,24,stripes,,
Stripes Store,9773,1611 S. CLOSNER,,EDINBURG,TX,78539,US,956-380-0096,26.2868241625743,-98.1649894053465,24,stripes,,
Stripes Store,9145,2626 SOUTH SUGAR ROAD,,EDINBURG,TX,78539,US,956-380-1475,26.27996,-98.18186,24,stripes,,
Stripes Store,2230,206 VAL VERDE AVENUE,,SANTA ROSA,TX,78593,US,956-636-1348,26.24821,-97.82529,24,stripes,,
Stripes Store,9137,1218 E. CANTON ROAD,,EDINBURG,TX,78539,US,956-380-0447,26.2741571717172,-98.1545929292929,24,stripes,,
Stripes Store,7325,1560 N. 77 SUNSHINE STRIP,,HARLINGEN,TX,78550,US,956-423-7480,26.20771,-97.69438,24,stripes,,
Stripes Store,5147,3201 E. HARRISON AVENUE,,HARLINGEN,TX,78550,US,956-423-5249,26.19077,-97.663413442623,24,stripes,,
Stripes Store,9669,3602 N. COMMERCE,,HARLINGEN,TX,78550,US,956-412-0771,26.2146,-97.71209,24,stripes,,
Stripes Store,9135,2423 E. TYLER AVENUE,,HARLINGEN,TX,78550,US,956-425-1097,26.1905939532202,-97.6687396357391,24,stripes,,
Stripes Store,9629,602 N. 1ST,,HARLINGEN,TX,78550,US,956-428-4492,26.1979737209302,-97.6956304651163,24,stripes,,
Stripes Store,5138,2002 S. 23RD STREET,,HARLINGEN,TX,78550,US,956-421-2447,26.1798674747475,-97.6690828282828,24,stripes,,
Stripes Store,2273,2900 W. NOLANA LOOP,,MCALLEN,TX,78501,US,956-631-6558,26.24125,-98.24763,18,stripes,,
Stripes Store,2214,9224 E. HWY. 107,,EDINBURG (OUTSIDE CITY LIMITS),TX,78539,US,956-386-1487,26.20735,-98.27297,24,stripes,,
Stripes Store,9139,4621 NORTH 23RD STREET,,MCALLEN,TX,78504,US,956-683-7755,26.24732,-98.23829,24,stripes,,
Stripes Store,2466,1901 DOVE AVENUE,,MCALLEN,TX,78504,US,956-631-6558,26.2550936849382,-98.2317723629638,24,stripes,,
Stripes Store,9641,3618  W. PECAN BLVD SUITE A,,MCALLEN,TX,78501,US,956-687-8001,26.2194617624261,-98.2587160813348,24,stripes,,
Stripes Store,9644,3920 N. 23RD STREET,,MCALLEN,TX,78501,US,956-682-0203,26.2402473825503,-98.2394880536913,24,stripes,,
Stripes Store,2509,3703 S. Bus 281,,Edinburg,TX,78539,US,956-318-0701,26.2758149,-98.1701422,24,stripes,,
Stripes Store,2216,3509 SOUTH RAUL LONGORIA ROAD,,EDINBURG (OUTSIDE CITY LIMITS),TX,78539,US,956-316-4728,26.2629404026846,-98.1429869127517,24,stripes,,
Stripes Store,2156,4218 SOUTH MCCOLL,,EDINBURG,TX,78539,US,956-994-0879,26.2674266296215,-98.2015256711639,24,stripes,,
Stripes Store,2481,2100 W. TRENTON RD,,EDINBURG,TX,78539,US,956-686-7337,26.2645447236181,-98.1918261306533,24,stripes,,
Stripes Store,9632,4829 AKA 4825 N. 10TH STREET,,MCALLEN,TX,78504,US,956-682-9843,26.2473965,-98.2232059,24,stripes,,
Stripes Store,2194,2305 N. LOOP 499,,HARLINGEN,TX,78550,US,956-423-9294,26.19591,-97.71143,24,stripes,,
Stripes Store,9652,620 W. HARRISON,,HARLINGEN,TX,78550,US,956-428-1915,26.19066,-97.7013065306122,24,stripes,,
Stripes Store,7075,705 S. COMMERCE STREET,,HARLINGEN,TX,78550,US,956-425-6708,26.1864355555556,-97.6925211111111,24,stripes,,
Stripes Store,2199,2195 W. HWY. 77,,SAN BENITO,TX,78586,US,956-361-5170,26.1599541,-97.6577656,24,stripes,,
Stripes Store,9112,1826 W. TYLER AVENUE,,HARLINGEN,TX,78550,US,956-423-0842,26.1892551810386,-97.7165192758455,24,stripes,,
Stripes Store,2281,101 E. OCEAN BLVD.,,LOS FRESNOS,TX,78566,US,956-233-1019,26.07166,-97.47624,24,stripes,,
Stripes Store,9655,711 ED CAREY DRIVE,,HARLINGEN,TX,78550,US,956-428-9325,26.1657585575556,-97.6783854838454,24,stripes,,
Stripes Store,7795,1725 SOUTH F STREET,,HARLINGEN,TX,78550,US,956-425-5920,26.17589,-97.70208,24,stripes,,
Stripes Store,9683,1622 N. 23RD STREET,,MCALLEN,TX,78501,US,956-687-7934,26.2202758139535,-98.2428825581395,24,stripes,,
Stripes Store,5133,1225 N. 23RD STREET,,MCALLEN,TX,78501,US,956-682-8222,26.2166298989899,-98.2434958585859,24,stripes,,
Stripes Store,9673,621 E. NOLANA,,MCALLEN,TX,78504,US,956-682-2732,26.2387822222222,-98.2196626262626,24,stripes,,
Stripes Store,9650,201 W. NOLANA,,MCALLEN,TX,78504,US,956-631-2452,26.23828,-98.21514,24,stripes,,
Stripes Store,2240,1407 W. NOLANA,,PHARR,TX,78577,US,956-992-0714,26.235902,-98.1969026666667,24,stripes,,
Stripes Store,2243,3939 E. EXPRESSWAY 83,,MERCEDES,TX,78570,US,956-825-7060,26.21783,-97.96383,24,stripes,,
Stripes Store,5146,1313 HAVERFORD BOULEVARD,,HARLINGEN,TX,78552,US,956-428-5811,26.179753794826,-97.7134920671105,24,stripes,,
Stripes Store,5113,1524 E. NOLANA LOOP,,PHARR,TX,78577,US,956-787-1216,26.231117983497,-98.1616428706829,18,stripes,,
Stripes Store,9678,898 N. SAM HOUSTON,,SAN BENITO,TX,78586,US,956-399-5266,26.13812,-97.62612,24,stripes,,
Stripes Store,5124,400 EAST HIGHWAY 77,,SAN BENITO,TX,78586,US,956-399-6941,26.1358085,-97.6233754,24,stripes,,
Stripes Store,9823,202 N. ED CAREY DRIVE,,HARLINGEN,TX,78550,US,956-423-7737,26.1607564759646,-97.6816986166063,24,stripes,,
Stripes Store,9115,2500 WEST EXPRESSWAY 83,,SAN BENITO,TX,78586,US,956-361-1400,26.1412826,-97.6549551,24,stripes,,
Stripes Store,9637,304 S. SAM HOUSTON,,SAN BENITO,TX,78586,US,956-399-0741,26.1299389795918,-97.6335381632653,24,stripes,,
Stripes Store,2189,30984 SH 100,,SAN BENITO,TX,78586,US,956-361-8844,26.0755121,-97.5263879,24,stripes,,
Stripes Store,9667,2800-A N. 10TH STREET,,MCALLEN,TX,78501,US,956-687-1269,26.2286,-98.22575,24,stripes,,
Stripes Store,5149,4712 WEST MILITARY HIGHWAY,,MCALLEN,TX,78503,US,956-928-0433,26.1544167541909,-98.2815831908077,24,stripes,,
Stripes Store,9647,720 N. BICENTENNIAL,,MCALLEN,TX,78501,US,956-687-3131,26.2111179591837,-98.2378073469388,24,stripes,,
Stripes Store,9635,1021 S. 23RD STREET,,MCALLEN,TX,78501,US,956-687-7974,26.1962012244898,-98.2467224489796,24,stripes,,
Stripes Store,9646,1601 N. 10TH STREET,,MCALLEN,TX,78501,US,956-631-1383,26.21783,-98.2276,24,stripes,,
Stripes Store,9123,101 W. NOLANA LOOP,,SAN JUAN,TX,78589,US,956-787-6686,26.2335029292929,-98.1796231313131,24,stripes,,
Stripes Store,9116,100 W. NOLANA LOOP,,PHARR,TX,78577,US,956-781-9362,26.23352,-98.17962,24,stripes,,
Stripes Store,2469,2710 N. CAGE BOULEVARD,,PHARR,TX,78577,US,956-702-5240,26.2181848453873,-98.1798508591021,24,stripes,,
Stripes Store,5105,1901 N. Tesoro Blvd.,,Pharr,TX,78577,US,956-787-1502,26.21316,-98.19227,24,stripes,,
Stripes Store,2211,1837 N. STUART PLACE,,HARLINGEN,TX,78552,US,956-423-2860,26.1735937075672,-97.7578591478546,24,stripes,,
Stripes Store,2203,2426 E. LOOP 499,,HARLINGEN,TX,78550,US,956-425-4430,26.16945,-97.7806,24,stripes,,
Stripes Store,9107,101 EAST EXPRESSWAY 83 FKA 12447 N. EXPRESSWAY 83,,LA FERIA,TX,78559,US,956-797-1449,26.1707793,-97.8084221,24,stripes,,
Stripes Store,2191,2305 FM 511,,BROWNSVILLE,TX,78520,US,956-831-3178,25.97483,-97.43509,24,stripes,,
Stripes Store,2247,221 N. MAIN STREET,,LA FERIA,TX,78559,US,956-797-9682,26.1593809041042,-97.824040610509,24,stripes,,
Stripes Store,2217,9670 ANACUA STREET,,BROWNSVILLE,TX,78520,US,956-350-5810,26.0161836896927,-97.5316916949962,24,stripes,,
Stripes Store,7318,720 SOUTH 10TH STREET,,MCALLEN,TX,78501,US,956-687-3093,26.196816122449,-98.2311826530612,24,stripes,,
Stripes Store,2234,4600 SOUTH 23RD STREET,,MCALLEN,TX,78503,US,956-992-0383,26.1658993311037,-98.2518845819398,24,stripes,,
Stripes Store,9688,1816 S. 10TH STREET,,MCALLEN,TX,78503,US,956-687-7914,26.1878166248295,-98.2326992617928,24,stripes,,
Stripes Store,9625,721 N. MCCOLL ROAD,,MCALLEN,TX,78501,US,956-682-0862,26.2073487755102,-98.2118081632653,24,stripes,,
Stripes Store,9118,6400 SOUTH 23RD STREET,,MCALLEN,TX,78503,US,956-972-0644,26.14974,-98.2544,24,stripes,,
Stripes Store,5110,911 W. FM 495,,SAN JUAN,TX,78589,US,956-702-6755,26.2088863461538,-98.16082,24,stripes,,
Stripes Store,9122,1701 N. RAUL LONGORIA ROAD,,SAN JUAN,TX,78589,US,956-702-4039,26.2077,-98.1524,24,stripes,,
Stripes Store,9640,1100 N. CAGE,,PHARR,TX,78577,US,956-781-3445,26.2048433448784,-98.1822915437186,24,stripes,,
Stripes Store,5148,809 N. CAGE,,PHARR,TX,78577,US,956-787-8631,26.202550675044,-98.182695156572,24,stripes,,
Stripes Store,9642,711 N. NEBRASKA,,SAN JUAN,TX,78589,US,956-781-2057,26.1982236911689,-98.1540181363137,24,stripes,,
Stripes Store,7301,1919 W. BUS. HWY 83 FKA 1 1/2 MILE WEST HIGHWAY 83,,WESLACO (OUTSIDE CITY LIMITS),TX,78599,US,956-969-2175,26.1916573,-97.986535,24,stripes,,
Stripes Store,2251,2455 N. INTERNATIONAL BOULEVARD,,WESLACO,TX,78596,US,956-514-1900,26.1803815625,-97.9588584375,24,stripes,,
Stripes Store,2424,416 W EXPRESSWAY 83,,DONNA,TX,78537,US,956-461-2566,26.182608,-98.061319,24,stripes,,
Stripes Store,2238,4298 FM 511,,BROWNSVILLE,TX,78526,US,956-832-0737,25.9686212078909,-97.4284402434667,24,stripes,,
Stripes Store,2166,1998 ALTON GLOOR,,BROWNSVILLE,TX,78526,US,956-550-1144,25.98228,-97.48507,24,stripes,,
Stripes Store,2263,1180 E. ALTON GLOOR BLVD.,,BROWNSVILLE,TX,78521,US,956-504-7163,25.9799085714286,-97.4980542857143,24,stripes,,
Stripes Store,9109,7401 PADRE ISLAND BLVD. FKA 5999 FM 802,,BROWNSVILLE,TX,78520,US,956-831-7947,25.94406,-97.42703,24,stripes,,
Stripes Store,9138,5700 SOUTH 10TH STREET,,MCALLEN,TX,78503,US,956-682-2619,26.15142,-98.23887,24,stripes,,
Stripes Store,9106,1621 W. SAM HOUSTON,,PHARR,TX,78577,US,956-682-2569,26.1903118367347,-98.2029091836735,24,stripes,,
Stripes Store,9129,1521 W. RIDGE ROAD,,PHARR,TX,78577,US,956-668-9545,26.1833768089291,-98.2058434077428,24,stripes,,
Stripes Store,5134,328 E. U.S. HIGHWAY 83,,PHARR,TX,78577,US,956-781-3247,26.194018,-98.180374,24,stripes,,
Stripes Store,5104,600 E. BUSINESS 83,,SAN JUAN,TX,78589,US,956-787-0247,26.18811,-98.14689,24,stripes,,
Stripes Store,2410,946 N. RUDY VILLARREAL RD.,,ALAMO,TX,78516,US,956-781-1821,26.18647,-98.11562,24,stripes,,
Stripes Store,2210,2201 SOUTH I ROAD,,SAN JUAN,TX,78589,US,956-783-1513,26.17127,-98.17119,24,stripes,,
Stripes Store,2205,1009 EXPRESSWAY 83,,DONNA,TX,78537,US,956-461-6254,26.1811486812642,-98.051602087585,24,stripes,,
Stripes Store,9121,102 WEST EXPRESSWAY 83,,WESLACO,TX,78596,US,956-969-9779,26.1732457,-97.9963246,24,stripes,,
Stripes Store,9120,616 N. DANIEL SALINAS BOULEVARD,,DONNA,TX,78537,US,956-464-3070,26.1782579523477,-98.0414155119131,24,stripes,,
Stripes Store,2287,1006 N. TEXAS BOULEVARD SUITE A,,WESLACO,TX,78596,US,956-969-2303,26.1704217375887,-97.9908893971631,24,stripes,,
Stripes Store,5132,901 W. U.S. HIGHWAY 83,,WESLACO,TX,78596,US,956-696-2131,26.1752500067531,-98.0767775362977,24,stripes,,
Stripes Store,2162,3595 W. ALTON GLOOR,,BROWNSVILLE,TX,78520,US,956-350-3607,25.9779719125567,-97.5198174285132,24,stripes,,
Stripes Store,2258,24523 US HWY. 281,,SAN BENITO,TX,78586,US,956-276-0098,26.0254700929655,-97.6299830399748,24,stripes,,
Stripes Store,2186,3500 FM 802,,BROWNSVILLE,TX,78521,US,956-541-1055,25.94907,-97.46524,24,stripes,,
Stripes Store,2274,510 S INTERNATIONAL BLVD.,,HIDALGO,TX,78557,US,956-843-9953,26.1019471927061,-98.2664743860971,18,stripes,,
Stripes Store,7321,401 E. COMA AVENUE,,HIDALGO,TX,78557,US,956-843-2582,26.1074,-98.25817,24,stripes,,
Stripes Store,5114,6601 S. JACKSON ROAD,,PHARR,TX,78577,US,956-843-2152,26.1320908362369,-98.2153501045296,24,stripes,,
Stripes Store,2152,3302 E. BUSINESS HWY 83,,WESLACO,TX,78596,US,956-565-6058,26.1665085046729,-98.0288986915888,24,stripes,,
Stripes Store,9671,1621 W. BUSINESS HWY 83,,WESLACO,TX,78596,US,956-698-9779,26.1623109466259,-98.0058893011051,18,stripes,,
Stripes Store,9693,725 S. TEXAS BLVD.,,WESLACO,TX,78596,US,956-968-1651,26.1531789795918,-97.9905426530612,24,stripes,,
Stripes Store,9634,602 N. 2ND,,MERCEDES,TX,78570,US,956-565-2591,26.1499695918367,-97.9159628571429,24,stripes,,
Stripes Store,7306,803 S. BRIDGE STREET,,WESLACO,TX,78596,US,956-698-5841,26.15174,-97.9824642857143,24,stripes,,
Stripes Store,5106,6506 S. CAGE BLVD.,,PHARR,TX,78577,US,956-787-1503,26.1313516,-98.1946964,24,stripes,,
Stripes Store,5153,4100 COFFEEPORT ROAD,,BROWNSVILLE,TX,78521,US,956-546-5212,25.9406263380282,-97.4591336619718,24,stripes,,
Stripes Store,9108,1991 FM 802,,BROWNSVILLE,TX,78520,US,956-541-2525,25.9511173469388,-97.4874444897959,24,stripes,,
Stripes Store,9119,6106 SOUTH PADRE ISLAND HIGHWAY,,BROWNSVILLE,TX,78521,US,956-831-0775,25.93287,-97.44585,24,stripes,,
Stripes Store,2465,200 W. MORRISON ROAD,,BROWNSVILLE,TX,78520,US,956-350-9299,25.9627139655172,-97.5376411206897,24,stripes,,
Stripes Store,9142,1501 W. DICKER ROAD FKA 8001 S. JACKSON,,PHARR,TX,78577,US,956-843-2335,26.12586,-98.21503,24,stripes,,
Stripes Store,2565,802 N. JACKSON ROAD,,PHARR,TX,78577,US,956-631-4180,26.10562,-98.2198,18,stripes,,
Stripes Store,2245,1510 W. MILITARY SUITE A,,PHARR,TX,78577,US,956-843-9423,26.0972207037847,-98.2201851275746,24,stripes,,
Stripes Store,9127,435 WEST HIGHWAY 281,,PROGRESO,TX,78579,US,956-565-2207,26.0869596969697,-97.9613448484849,24,stripes,,
Stripes Store,2562,415 W. HIGHWAY 83,,DONNA,TX,78537,US,956-464-0130,26.081681806906,-98.1087175670085,24,stripes,,
Stripes Store,2200,10701 SOUTH CAGE BOULEVARD,,PHARR,TX,78577,US,956-702-9919,26.0847283281551,-98.2021523408679,24,stripes,,
Stripes Store,2196,702 E. US HWY. 281,,LOS INDIOS,TX,78567,US,956-399-7483,26.0521,-97.74399,24,stripes,,
Stripes Store,2188,2684 WEST ALTON GLOOR BOULEVARD,,BROWNSVILLE,TX,78520,US,956-350-5366,25.9609928191306,-97.5397270869195,24,stripes,,
Stripes Store,5145,840 E. RUBEN M. TORRES SR. BOULEVARD,,BROWNSVILLE,TX,78520,US,956-544-2407,25.9492761793834,-97.508933265249,24,stripes,,
Stripes Store,2164,850 OLD PORT ISABEL ROAD,,BROWNSVILLE,TX,78521,US,956-546-8773,25.9321014935534,-97.4752354984478,24,stripes,,
Stripes Store,5121,1645 W. PRICE ROAD,,BROWNSVILLE,TX,78520,US,956-541-2531,25.9356767336683,-97.499471758794,24,stripes,,
Stripes Store,7085,1250 FM 802,,BROWNSVILLE,TX,78526,US,956-541-5021,25.9409601160531,-97.5360485080607,24,stripes,,
Stripes Store,9136,7900 NORTH EXPRESSWAY,,OLMITO (BROWNSVILLE),TX,78575,US,956-350-3902,25.94059,-97.52674,24,stripes,,
Stripes Store,2171,1400 MILITARY ROAD,,BROWNSVILLE,TX,78520,US,956-554-3214,25.93993,-97.53715,24,stripes,,
Stripes Store,2296,2501 CENTRAL BOULEVARD,,BROWNSVILLE,TX,78520,US,956-550-8809,25.93936,-97.50981,24,stripes,,
Stripes Store,9579,1601 CENTRAL BLVD.,,BROWNSVILLE,TX,78520,US,956-541-4494,25.92591,-97.51139,24,stripes,,
Stripes Store,9128,3755 BOCA CHICA BOULEVARD,,BROWNSVILLE,TX,78521,US,956-544-6225,25.9191006061623,-97.4616744798924,24,stripes,,
Stripes Store,2151,105 BILLY MITCHELL ROAD,,BROWNSVILLE,TX,78521,US,956-542-4662,25.9155872808907,-97.4552817764008,24,stripes,,
Stripes Store,5135,3305 INTERNATIONAL BOULEVARD,,BROWNSVILLE,TX,78521,US,956-544-3112,25.9108062875194,-97.474547011346,24,stripes,,
Stripes Store,9793,1544 PALM BLVD.,,BROWNSVILLE,TX,78520,US,956-542-0538,25.915914921466,-97.4990548691099,24,stripes,,
Stripes Store,7310,2004 E. 14TH STREET,,BROWNSVILLE,TX,78521,US,956-542-2575,25.9089983673469,-97.4859685714286,24,stripes,,
Stripes Store,9623,845 INTERNATIONAL BLVD.,,BROWNSVILLE,TX,78520,US,956-542-0543,25.9005485714286,-97.4930175510204,24,stripes,,
Stripes Store,2227,3301 SOUTHMOST ROAD,,BROWNSVILLE,TX,78521,US,956-544-5341,25.90274,-97.45664,24,stripes,,
Stripes Store,9788,1124 INTERNATIONAL BLVD.,,BROWNSVILLE,TX,78520,US,956-550-8073,25.9013005713058,-97.4899802878019,24,stripes,,
Stripes Store,2158,2255 EAST LOOP,,BROWNSVILLE,TX,78520,US,956-986-0348,25.89669,-97.4786,24,stripes,,
Stripes Store,2416,2400 E. University Blvd.,,Brownsville,TX,78521,US,956-443-7016,25.89313,-97.48224,,stripes,,
Stripes Store,2208,7951 SOUTHMOST ROAD,,BROWNSVILLE,TX,78521,US,361-982-6931,25.86603,-97.4251974193548,24,stripes,,
