store_name,store_number,address,address2,city,state,zip_code,country,phone_number,latitude,longitude,store_hours,store_type,other_fields,coming_soon
LCBO Store # 38,38,275 RIDEAU STREETCORNER OF KING EDWARD AND RIDEAU ST,,OTTAWA,,K1N 5Y3,Canada,613-789-5226,,,"Sun 11:00 AM - 6:00 PM, Mon 10:00 AM - 10:00 PM, Tue 10:00 AM - 10:00 PM, Wed 10:00 AM - 10:00 PM, Thu 10:00 AM - 10:00 PM, Fri 10:00 AM - 10:00 PM, Sat 10:00 AM - 10:00 PM",,,0
LCBO Store # 538,538,103A-50 RIDEAU STREETRIDEAU CENTRE,,OTTAWA,,K1N 9J7,Canada,613-569-1879,,,"Sun 11:00 AM - 6:00 PM, Mon 10:00 AM - 9:00 PM, Tue 10:00 AM - 9:00 PM, Wed 10:00 AM - 9:00 PM, Thu 10:00 AM - 9:00 PM, Fri 10:00 AM - 9:00 PM, Sat 10:00 AM - 7:00 PM",,,0
LCBO Store # 547,547,111 ALBERT STREET UNIT 117WORLD EXCHANGE PLAZA,,OTTAWA,,K1P 1A5,Canada,613-233-0394,,,"Sun 11:00 AM - 6:00 PM, Mon 10:00 AM - 6:00 PM, Tue 10:00 AM - 6:00 PM, Wed 10:00 AM - 6:00 PM, Thu 10:00 AM - 8:00 PM, Fri 10:00 AM - 8:00 PM, Sat 10:00 AM - 6:00 PM",,,0
LCBO Store # 384,384,22 ISABELLA STREET,,OTTAWA,,K1S 1V4,Canada,613-232-9689,,,"Sun 11:00 AM - 6:00 PM, Mon 10:00 AM - 9:00 PM, Tue 10:00 AM - 9:00 PM, Wed 10:00 AM - 9:00 PM, Thu 10:00 AM - 9:00 PM, Fri 10:00 AM - 9:00 PM, Sat 10:00 AM - 9:00 PM",,,0
LCBO Store # 526,526,465 BANK STREETBANK AND MCLEOD,,OTTAWA,,K2P 1Z2,Canada,613-567-7108,,,"Sun 11:00 AM - 6:00 PM, Mon 10:00 AM - 9:00 PM, Tue 10:00 AM - 9:00 PM, Wed 10:00 AM - 9:00 PM, Thu 10:00 AM - 9:00 PM, Fri 10:00 AM - 9:00 PM, Sat 10:00 AM - 9:00 PM",,,0
LCBO Store # 140,140,230 MONTREAL ROAD,,OTTAWA-VANIER,,K1L 6C6,Canada,613-745-1523,,,"Sun 11:00 AM - 6:00 PM, Mon 10:00 AM - 9:00 PM, Tue 10:00 AM - 9:00 PM, Wed 10:00 AM - 9:00 PM, Thu 10:00 AM - 9:00 PM, Fri 10:00 AM - 9:00 PM, Sat 10:00 AM - 9:00 PM",,,0
LCBO Store # 500,500,953 BANK STREET,,OTTAWA,,K1S 3W7,Canada,613-238-5614,,,"Sun 11:00 AM - 6:00 PM, Mon 10:00 AM - 9:00 PM, Tue 10:00 AM - 9:00 PM, Wed 10:00 AM - 9:00 PM, Thu 10:00 AM - 9:00 PM, Fri 10:00 AM - 9:00 PM, Sat 10:00 AM - 9:00 PM",,,0
LCBO Store # 598,598,540-1200 ST. LAURENT BLVDST LAURENT SHOPPING CENTER,,OTTAWA,,K1K 3B8,Canada,613-744-4690,,,"Sun 11:00 AM - 6:00 PM, Mon 10:00 AM - 9:00 PM, Tue 10:00 AM - 9:00 PM, Wed 10:00 AM - 9:00 PM, Thu 10:00 AM - 9:00 PM, Fri 10:00 AM - 9:00 PM, Sat 10:00 AM - 9:00 PM",,,0
LCBO Store # 41,41,665 INDUSTRIAL AVENUETHE TRAINYARDS,,OTTAWA,,K1G 0Z1,Canada,613-738-0937,,,"Sun 11:00 AM - 6:00 PM, Mon 9:30 AM - 9:00 PM, Tue 9:30 AM - 9:00 PM, Wed 9:30 AM - 9:00 PM, Thu 9:30 AM - 9:00 PM, Fri 9:30 AM - 9:00 PM, Sat 9:00 AM - 9:00 PM",,,0
LCBO Store # 645,645,981 WELLINGTON STREET WEST,,OTTAWA,,K1Y 2Y1,Canada,613-729-1275,,,"Sun 11:00 AM - 6:00 PM, Mon 10:00 AM - 9:00 PM, Tue 10:00 AM - 9:00 PM, Wed 10:00 AM - 9:00 PM, Thu 10:00 AM - 9:00 PM, Fri 10:00 AM - 9:00 PM, Sat 10:00 AM - 9:00 PM",,,0
LCBO Store # 515,515,"2269 RIVERSIDE DRIVE, UNIT #8BILLINGS BRIDGE PLAZA",,OTTAWA,,K1H 8K2,Canada,613-739-5218,,,"Sun 11:00 AM - 5:00 PM, Mon 9:30 AM - 9:00 PM, Tue 9:30 AM - 9:00 PM, Wed 9:30 AM - 9:00 PM, Thu 9:30 AM - 9:00 PM, Fri 9:30 AM - 9:00 PM, Sat 9:30 AM - 6:00 PM",,,0
LCBO Store # 400,400,1910 ST. LAURENT BOULEVARDELMVALE SHOPPING CENTER,,OTTAWA,,K1G 1A4,Canada,613-731-5617,,,"Sun 11:00 AM - 6:00 PM, Mon 10:00 AM - 6:00 PM, Tue 10:00 AM - 6:00 PM, Wed 10:00 AM - 6:00 PM, Thu 10:00 AM - 8:00 PM, Fri 10:00 AM - 8:00 PM, Sat 10:00 AM - 6:00 PM",,,0
LCBO Store # 443,443,1130 BLAIR ROADGLOUCESTER CITY CENTRE,,OTTAWA-GLOUCESTER,,K1J 1K8,Canada,613-745-9906,,,"Sun 11:00 AM - 6:00 PM, Mon 10:00 AM - 9:00 PM, Tue 10:00 AM - 9:00 PM, Wed 10:00 AM - 9:00 PM, Thu 10:00 AM - 9:00 PM, Fri 10:00 AM - 9:00 PM, Sat 10:00 AM - 9:00 PM",,,0
LCBO Store # 324,324,1385 CARLING AVENUEHAMPTON PARK PLAZA,,OTTAWA,,K1Z 7L6,Canada,613-728-6746,,,"Sun 11:00 AM - 6:00 PM, Mon 10:00 AM - 6:00 PM, Tue 10:00 AM - 6:00 PM, Wed 10:00 AM - 6:00 PM, Thu 10:00 AM - 9:00 PM, Fri 10:00 AM - 9:00 PM, Sat 10:00 AM - 6:00 PM",,,0
LCBO Store # 212,212,222 RICHMOND ROAD,,OTTAWA,,K1Z 6W6,Canada,613-729-1735,,,"Sun 11:00 AM - 6:00 PM, Mon 10:00 AM - 10:00 PM, Tue 10:00 AM - 10:00 PM, Wed 10:00 AM - 10:00 PM, Thu 10:00 AM - 10:00 PM, Fri 10:00 AM - 10:00 PM, Sat 9:30 AM - 10:00 PM",,,0
LCBO Store # 243,243,1980 BANK STREET,,OTTAWA,,K1V 0E8,Canada,613-523-7763,,,"Sun 11:00 AM - 6:00 PM, Mon 10:00 AM - 9:00 PM, Tue 10:00 AM - 9:00 PM, Wed 10:00 AM - 9:00 PM, Thu 10:00 AM - 9:00 PM, Fri 10:00 AM - 9:00 PM, Sat 10:00 AM - 9:00 PM",,,0
LCBO Store # 394,394,2164 CARLING AVENUE,,OTTAWA,,K2A 1H1,Canada,613-828-7145,,,"Sun 11:00 AM - 6:00 PM, Mon 9:30 AM - 9:00 PM, Tue 9:30 AM - 9:00 PM, Wed 9:30 AM - 9:00 PM, Thu 9:30 AM - 9:00 PM, Fri 9:30 AM - 9:00 PM, Sat 9:30 AM - 9:00 PM",,,0
LCBO Store # 431,431,1363 WOODROFFE AVENUE - UNIT ACOLLEGE SQUARE,,OTTAWA-NEPEAN,,K2G 1V7,Canada,613-224-4611,,,"Sun 11:00 AM - 6:00 PM, Mon 10:00 AM - 9:00 PM, Tue 10:00 AM - 9:00 PM, Wed 10:00 AM - 9:00 PM, Thu 10:00 AM - 9:00 PM, Fri 10:00 AM - 9:00 PM, Sat 10:00 AM - 9:00 PM",,,0
LCBO Store # 412,412,543 WEST HUNT CLUB RD.,,OTTAWA-NEPEAN,,K2G 5W5,Canada,613-224-4333,,,"Sun 11:00 AM - 6:00 PM, Mon 9:00 AM - 9:00 PM, Tue 9:00 AM - 9:00 PM, Wed 9:00 AM - 9:00 PM, Thu 9:00 AM - 9:00 PM, Fri 9:00 AM - 9:00 PM, Sat 9:00 AM - 9:00 PM",,,0
LCBO Store # 589,589,6487 JEANNE D'ARC BOULEVARDCONVENT GLEN SHOPPING CENTER,,OTTAWA-ORLEANS,,K1C 2R1,Canada,613-824-8115,,,"Sun 11:00 AM - 6:00 PM, Mon 10:00 AM - 8:00 PM, Tue 10:00 AM - 8:00 PM, Wed 10:00 AM - 8:00 PM, Thu 10:00 AM - 9:00 PM, Fri 10:00 AM - 9:00 PM, Sat 10:00 AM - 8:00 PM",,,0
LCBO Store # 368,368,4750 BANK STREETUNIT 6,,OTTAWA,,K1T 0K8,Canada,613-822-4279,,,"Sun 11:00 AM - 6:00 PM, Mon 10:00 AM - 8:00 PM, Tue 10:00 AM - 8:00 PM, Wed 10:00 AM - 8:00 PM, Thu 10:00 AM - 8:00 PM, Fri 10:00 AM - 8:00 PM, Sat 10:00 AM - 8:00 PM",,,0
LCBO Store # 388,388,1811 ROBERTSON ROADUNIT 1,,OTTAWA-NEPEAN,,K2H 8X3,Canada,613-828-5714,,,"Sun 11:00 AM - 6:00 PM, Mon 10:00 AM - 9:00 PM, Tue 10:00 AM - 9:00 PM, Wed 10:00 AM - 9:00 PM, Thu 10:00 AM - 9:00 PM, Fri 10:00 AM - 9:00 PM, Sat 10:00 AM - 9:00 PM",,,0
LCBO Store # 624,624,4220 INNES RDUNIT #1 BUILDING F,,OTTAWA-ORLEANS,,K4A 5E6,Canada,613-837-5527,,,"Sun 11:00 AM - 6:00 PM, Mon 10:00 AM - 9:00 PM, Tue 10:00 AM - 9:00 PM, Wed 10:00 AM - 9:00 PM, Thu 10:00 AM - 9:00 PM, Fri 10:00 AM - 9:00 PM, Sat 10:00 AM - 9:00 PM",,,0
LCBO Store # 699,699,"4660 LIMEBANK RD.OTTAWA,",,OTTAWA,,K1V 2N8,Canada,613-822-9232,,,"Sun 11:00 AM - 6:00 PM, Mon 10:00 AM - 9:00 PM, Tue 10:00 AM - 9:00 PM, Wed 10:00 AM - 9:00 PM, Thu 10:00 AM - 9:00 PM, Fri 10:00 AM - 9:00 PM, Sat 10:00 AM - 9:00 PM",,,0
LCBO Store # 499,499,120 RIOCAN AVENUEBARRHAVEN MARKET SQUARE,,OTTAWA-NEPEAN,,K2J 5G4,Canada,613-825-1160,,,"Sun 11:00 AM - 6:00 PM, Mon 10:00 AM - 10:00 PM, Tue 10:00 AM - 10:00 PM, Wed 10:00 AM - 10:00 PM, Thu 10:00 AM - 10:00 PM, Fri 10:00 AM - 10:00 PM, Sat 10:00 AM - 10:00 PM",,,0
LCBO Store # 694,694,5150 INNES ROAD,,OTTAWA-ORLEANS,,K4A 0G4,Canada,613-834-9228,,,"Sun 11:00 AM - 6:00 PM, Mon 10:00 AM - 9:00 PM, Tue 10:00 AM - 9:00 PM, Wed 10:00 AM - 9:00 PM, Thu 10:00 AM - 9:00 PM, Fri 9:30 AM - 9:00 PM, Sat 9:30 AM - 9:00 PM",,,0
LCBO Store # 36,36,457 HAZELDEAN RD.UNIT 10,,OTTAWA-KANATA,,K2L 1V1,Canada,613-592-5416,,,"Sun 11:00 AM - 6:00 PM, Mon 10:00 AM - 9:00 PM, Tue 10:00 AM - 9:00 PM, Wed 10:00 AM - 9:00 PM, Thu 10:00 AM - 9:00 PM, Fri 10:00 AM - 9:00 PM, Sat 10:00 AM - 9:00 PM",,,0
LCBO Store # 638,638,858 MARCH ROAD,,OTTAWA-KANATA,,K2W 0C9,Canada,613-592-1594,,,"Sun 11:00 AM - 6:00 PM, Mon 10:00 AM - 9:00 PM, Tue 10:00 AM - 9:00 PM, Wed 10:00 AM - 9:00 PM, Thu 10:00 AM - 9:00 PM, Fri 10:00 AM - 9:00 PM, Sat 10:00 AM - 9:00 PM",,,0
LCBO Store # 521,521,1154 CURRIER STREETP.O. BOX 518,,MANOTICK,,K4M 1A5,Canada,613-692-2503,,,"Sun 11:00 AM - 6:00 PM, Mon 10:00 AM - 8:00 PM, Tue 10:00 AM - 8:00 PM, Wed 10:00 AM - 8:00 PM, Thu 10:00 AM - 9:00 PM, Fri 10:00 AM - 9:00 PM, Sat 10:00 AM - 6:00 PM",,,0
LCBO Store # 556,556,499 TERRY FOX DRIVE,,OTTAWA-KANATA,,K2T 1H7,Canada,613-592-1849,,,"Sun 11:00 AM - 6:00 PM, Mon 9:00 AM - 9:00 PM, Tue 9:00 AM - 9:00 PM, Wed 9:00 AM - 9:00 PM, Thu 9:00 AM - 9:00 PM, Fri 9:00 AM - 9:00 PM, Sat 9:00 AM - 9:00 PM",,,0
LCBO Store # 569,569,6065 HAZELDEAN ROAD,,STITTSVILLE,,K2S 1B9,Canada,613-836-3063,,,"Sun 11:00 AM - 6:00 PM, Mon 10:00 AM - 9:00 PM, Tue 10:00 AM - 9:00 PM, Wed 10:00 AM - 9:00 PM, Thu 10:00 AM - 9:00 PM, Fri 10:00 AM - 9:00 PM, Sat 10:00 AM - 9:00 PM",,,0
LCBO Store # 496,496,"6179 PERTH ST, RICHMOND PLAZAUNIT  220",,RICHMOND,,K0A 2Z0,Canada,613-838-5123,,,"Sun 11:00 AM - 6:00 PM, Mon 10:00 AM - 6:00 PM, Tue 10:00 AM - 6:00 PM, Wed 10:00 AM - 6:00 PM, Thu 10:00 AM - 6:00 PM, Fri 10:00 AM - 9:00 PM, Sat 10:00 AM - 6:00 PM",,,0
LCBO Store # 455,455,461 DONALD B MUNRO DRIVEP.O. BOX 24,,CARP,,K0A 1L0,Canada,613-839-3210,,,"Sun 11:00 AM - 6:00 PM, Mon 10:00 AM - 6:00 PM, Tue 10:00 AM - 6:00 PM, Wed 10:00 AM - 6:00 PM, Thu 10:00 AM - 6:00 PM, Fri 10:00 AM - 6:00 PM, Sat 10:00 AM - 6:00 PM",,,0
LCBO Store # 125,125,3000 RICHELIEU STREET - UNIT 2,,ROCKLAND,,K4K 0B5,Canada,613-446-4472,,,"Sun 11:00 AM - 6:00 PM, Mon 10:00 AM - 8:00 PM, Tue 10:00 AM - 8:00 PM, Wed 10:00 AM - 8:00 PM, Thu 10:00 AM - 8:00 PM, Fri 10:00 AM - 8:00 PM, Sat 10:00 AM - 8:00 PM",,,0
LCBO Store # 99,99,757 NOTRE DAME STREET,,EMBRUN,,K0A 1W1,Canada,613-443-2112,,,"Sun 11:00 AM - 6:00 PM, Mon 10:00 AM - 6:00 PM, Tue 10:00 AM - 6:00 PM, Wed 10:00 AM - 6:00 PM, Thu 10:00 AM - 6:00 PM, Fri 10:00 AM - 8:00 PM, Sat 10:00 AM - 6:00 PM",,,0
LCBO Store # 121,121,3926 CHAMPLAIN STREETP.O. BOX 39,,BOURGET,,K0A 1E0,Canada,613-487-3372,,,"Sun 11:00 AM - 6:00 PM, Mon Closed - , Tue 10:00 AM - 6:00 PM, Wed 10:00 AM - 6:00 PM, Thu 10:00 AM - 6:00 PM, Fri 10:00 AM - 6:00 PM, Sat 10:00 AM - 6:00 PM",,,0
LCBO Store # 211,211,324 COLONNADE DRIVE EAST #100,,KEMPTVILLE,,K0G 1J0,Canada,613-258-3252,,,"Sun 11:00 AM - 6:00 PM, Mon 10:00 AM - 9:00 PM, Tue 10:00 AM - 9:00 PM, Wed 10:00 AM - 9:00 PM, Thu 10:00 AM - 9:00 PM, Fri 10:00 AM - 9:00 PM, Sat 10:00 AM - 9:00 PM",,,0
LCBO Store # 578,578,578 MAIN STREET WESTP.O. BOX 180,,WINCHESTER,,K0C 2K0,Canada,613-774-3648,,,"Sun 11:00 AM - 6:00 PM, Mon 10:00 AM - 6:00 PM, Tue 10:00 AM - 6:00 PM, Wed 10:00 AM - 6:00 PM, Thu 10:00 AM - 6:00 PM, Fri 10:00 AM - 8:00 PM, Sat 10:00 AM - 6:00 PM",,,0
LCBO Store # 301,301,124 QUEEN STREET,,ALMONTE,,K0A 1A0,Canada,613-256-2595,,,"Sun 11:00 AM - 6:00 PM, Mon 10:00 AM - 6:00 PM, Tue 10:00 AM - 6:00 PM, Wed 10:00 AM - 6:00 PM, Thu 10:00 AM - 6:00 PM, Fri 10:00 AM - 8:00 PM, Sat 10:00 AM - 6:00 PM",,,0
LCBO Store # 132,132,525 MCNEELY AVENUE,,CARLETON PLACE,,K7C 0A8,Canada,613-257-1646,,,"Sun 11:00 AM - 6:00 PM, Mon 10:00 AM - 9:00 PM, Tue 10:00 AM - 9:00 PM, Wed 10:00 AM - 9:00 PM, Thu 10:00 AM - 9:00 PM, Fri 10:00 AM - 9:00 PM, Sat 10:00 AM - 9:00 PM",,,0
LCBO Store # 441,441,644 PRINCIPALE STREETP.O. BOX 305,,CASSELMAN,,K0A 1M0,Canada,613-764-5231,,,"Sun 11:00 AM - 6:00 PM, Mon 10:00 AM - 6:00 PM, Tue 10:00 AM - 6:00 PM, Wed 10:00 AM - 6:00 PM, Thu 10:00 AM - 6:00 PM, Fri 10:00 AM - 8:00 PM, Sat 10:00 AM - 6:00 PM",,,0
LCBO Store # 303,303,150 QUEEN STREET,,CHESTERVILLE,,K0C 1H0,Canada,613-448-2020,,,"Sun 11:00 AM - 6:00 PM, Mon 10:00 AM - 6:00 PM, Tue 10:00 AM - 6:00 PM, Wed 10:00 AM - 6:00 PM, Thu 10:00 AM - 6:00 PM, Fri 10:00 AM - 8:00 PM, Sat 10:00 AM - 6:00 PM",,,0
LCBO Store # 85,85,10 WILLIAMS STREET WEST,,ARNPRIOR,,K7S 1J8,Canada,613-623-2842,,,"Sun 11:00 AM - 6:00 PM, Mon 10:00 AM - 6:00 PM, Tue 10:00 AM - 6:00 PM, Wed 10:00 AM - 6:00 PM, Thu 10:00 AM - 8:00 PM, Fri 10:00 AM - 8:00 PM, Sat 10:00 AM - 8:00 PM",,,0
LCBO Store # 375,375,240 OLD HWY. 17P.O. BOX 246,,PLANTAGENET,,K0B 1L0,Canada,613-673-4323,,,"Sun Closed - , Mon 10:00 AM - 6:00 PM, Tue 10:00 AM - 6:00 PM, Wed Closed - , Thu 10:00 AM - 6:00 PM, Fri 10:00 AM - 6:00 PM, Sat 10:00 AM - 6:00 PM",,,0
LCBO Store # 119,119,205 ELGIN STREETBOX 190,,MERRICKVILLE,,K0G 1N0,Canada,613-269-4623,,,"Sun 11:00 AM - 6:00 PM, Mon 10:00 AM - 6:00 PM, Tue 10:00 AM - 6:00 PM, Wed 10:00 AM - 6:00 PM, Thu 10:00 AM - 6:00 PM, Fri 10:00 AM - 9:00 PM, Sat 10:00 AM - 6:00 PM",,,0
LCBO Store # 308,308,2538 ST. ISIDORE STREETP.O. BOX 8,,ST. ISIDORE,,K0C 2B0,Canada,613-524-2170,,,"Sun 11:00 AM - 6:00 PM, Mon 10:00 AM - 6:00 PM, Tue 10:00 AM - 6:00 PM, Wed 10:00 AM - 6:00 PM, Thu 10:00 AM - 6:00 PM, Fri 10:00 AM - 8:00 PM, Sat 10:00 AM - 6:00 PM",,,0
LCBO Store # 466,466,602 ST. PHILIPPE STREETP.O. BOX 219,,ALFRED,,K0B 1A0,Canada,613-679-2973,,,"Sun 11:00 AM - 6:00 PM, Mon 10:00 AM - 6:00 PM, Tue 10:00 AM - 6:00 PM, Wed 10:00 AM - 6:00 PM, Thu 10:00 AM - 6:00 PM, Fri 10:00 AM - 8:00 PM, Sat 10:00 AM - 6:00 PM",,,0
LCBO Store # 70,70,123 LOMBARD STREET,,SMITHS FALLS,,K7A 5B8,Canada,613-283-2358,,,"Sun 11:00 AM - 6:00 PM, Mon 9:30 AM - 8:00 PM, Tue 9:30 AM - 8:00 PM, Wed 9:30 AM - 8:00 PM, Thu 9:30 AM - 9:00 PM, Fri 9:30 AM - 9:00 PM, Sat 9:30 AM - 6:00 PM",,,0
LCBO Store # 309,309,3 MAIN STREETBOX 149,,MAXVILLE,,K0C 1T0,Canada,613-527-2941,,,"Sun Closed - , Mon 10:00 AM - 6:00 PM, Tue 10:00 AM - 6:00 PM, Wed 10:00 AM - 6:00 PM, Thu 10:00 AM - 6:00 PM, Fri 10:00 AM - 6:00 PM, Sat 10:00 AM - 6:00 PM",,,0
LCBO Store # 479,479,99 CLARENCE STREET (& GEORGE)P.O. BOX 220,,LANARK,,K0G 1K0,Canada,613-259-2134,,,"Sun 11:00 AM - 6:00 PM, Mon 10:00 AM - 6:00 PM, Tue 10:00 AM - 6:00 PM, Wed 10:00 AM - 6:00 PM, Thu 10:00 AM - 6:00 PM, Fri 10:00 AM - 8:00 PM, Sat 10:00 AM - 6:00 PM",,,0
LCBO Store # 66,66,137 FOURTH STREETP.O. BOX 1060,,COCHRANE,,P0L 1C0,Canada,705-272-3263,,,"Sun Closed - , Mon 10:00 AM - 6:00 PM, Tue 10:00 AM - 6:00 PM, Wed 10:00 AM - 6:00 PM, Thu 10:00 AM - 6:00 PM, Fri 10:00 AM - 8:00 PM, Sat 10:00 AM - 6:00 PM",,,0
LCBO Store # 75,75,187 DEVONSHIRE AVEP.O.BOX 354,,IROQUOIS FALLS,,P0K 1E0,Canada,705-258-3202,,,"Sun Closed - , Mon 10:00 AM - 6:00 PM, Tue 10:00 AM - 6:00 PM, Wed 10:00 AM - 6:00 PM, Thu 10:00 AM - 6:00 PM, Fri 10:00 AM - 6:00 PM, Sat 10:00 AM - 6:00 PM",,,0
LCBO Store # 189,189,138 HIGHWAY 11 EASTP.O. BOX 10,,SMOOTH ROCK FALLS,,P0L 2B0,Canada,705-338-2912,,,"Sun Closed - , Mon Closed - , Tue 10:00 AM - 6:00 PM, Wed 10:00 AM - 6:00 PM, Thu 10:00 AM - 6:00 PM, Fri 10:00 AM - 6:00 PM, Sat 10:00 AM - 6:00 PM",,,0
LCBO Store # 128,128,65 BRUCE STREET65 BRUCE STREET,,SOUTH PORCUPINE,,P0N 1H0,Canada,705-235-4722,,,"Sun 11:00 AM - 6:00 PM, Mon 10:00 AM - 6:00 PM, Tue 10:00 AM - 6:00 PM, Wed 10:00 AM - 6:00 PM, Thu 10:00 AM - 6:00 PM, Fri 10:00 AM - 8:00 PM, Sat 10:00 AM - 6:00 PM",,,0
LCBO Store # 58,58,100 WATERLOO ROADHOLLINGER COURT,,TIMMINS,,P4N 4X5,Canada,705-268-4600,,,"Sun 11:00 AM - 6:00 PM, Mon 10:00 AM - 9:30 PM, Tue 10:00 AM - 9:30 PM, Wed 10:00 AM - 9:30 PM, Thu 10:00 AM - 9:30 PM, Fri 10:00 AM - 9:30 PM, Sat 10:00 AM - 9:30 PM",,,0
LCBO Store # 162,162,423 HWY. 11P.O. BOX 69,,MATHESON,,P0K 1N0,Canada,705-273-2833,,,"Sun Closed - , Mon 10:00 AM - 6:00 PM, Tue 10:00 AM - 6:00 PM, Wed 10:00 AM - 6:00 PM, Thu 10:00 AM - 6:00 PM, Fri 10:00 AM - 8:00 PM, Sat 10:00 AM - 6:00 PM",,,0
LCBO Store # 159,159,287 HIGHWAY 124 NORTHP.O. BOX 218,,SOUTH RIVER,,P0A 1X0,Canada,705-386-2541,,,"Sun 11:00 AM - 6:00 PM, Mon Closed - , Tue 10:00 AM - 6:00 PM, Wed 10:00 AM - 6:00 PM, Thu 10:00 AM - 6:00 PM, Fri 10:00 AM - 6:00 PM, Sat 10:00 AM - 6:00 PM",,,0
LCBO Store # 613,613,10403 HWY 124PO BOX 222,,SUNDRIDGE,,P0A 1Z0,Canada,705-384-7000,,,"Sun 11:00 AM - 6:00 PM, Mon 10:00 AM - 6:00 PM, Tue 10:00 AM - 6:00 PM, Wed 10:00 AM - 6:00 PM, Thu 10:00 AM - 6:00 PM, Fri 10:00 AM - 7:00 PM, Sat 10:00 AM - 6:00 PM",,,0
LCBO Store # 235,235,601 MAIN STREETP.O. BOX 127,,POWASSAN,,P0H 1Z0,Canada,705-724-2914,,,"Sun 11:00 AM - 6:00 PM, Mon 10:00 AM - 6:00 PM, Tue 10:00 AM - 6:00 PM, Wed 10:00 AM - 6:00 PM, Thu 10:00 AM - 6:00 PM, Fri 10:00 AM - 6:00 PM, Sat 10:00 AM - 6:00 PM",,,0
LCBO Store # 232,232,10 COMMERCIAL DRIVEP.O. BOX 9,,BURK'S FALLS,,P0A 1C0,Canada,705-382-2928,,,"Sun 11:00 AM - 6:00 PM, Mon 10:00 AM - 6:00 PM, Tue 10:00 AM - 6:00 PM, Wed 10:00 AM - 6:00 PM, Thu 10:00 AM - 6:00 PM, Fri 10:00 AM - 9:00 PM, Sat 10:00 AM - 6:00 PM",,,0
LCBO Store # 514,514,12 BIDDY STREETP.O. BOX 22,,MAGNETAWAN,,P0A 1P0,Canada,705-387-3761,,,"Sun 11:00 AM - 6:00 PM, Mon Closed - , Tue 10:00 AM - 6:00 PM, Wed 10:00 AM - 6:00 PM, Thu 10:00 AM - 6:00 PM, Fri 10:00 AM - 6:00 PM, Sat 10:00 AM - 6:00 PM",,,0
LCBO Store # 336,336,86 MAIN STREETP.O. BOX 28,,KEARNEY,,P0A 1M0,Canada,705-636-5931,,,"Sun 11:00 AM - 6:00 PM, Mon 10:00 AM - 6:00 PM, Tue 10:00 AM - 6:00 PM, Wed 10:00 AM - 6:00 PM, Thu 10:00 AM - 6:00 PM, Fri 10:00 AM - 6:00 PM, Sat 10:00 AM - 6:00 PM",,,0
LCBO Store # 492,492,"5 MAIN STREET NORTHP.O. BOX 269, CALLANDER CENTRE",,CALLANDER,,P0H 1H0,Canada,705-752-3511,,,"Sun 11:00 AM - 6:00 PM, Mon 10:00 AM - 6:00 PM, Tue 10:00 AM - 6:00 PM, Wed 10:00 AM - 6:00 PM, Thu 10:00 AM - 6:00 PM, Fri 10:00 AM - 8:00 PM, Sat 10:00 AM - 6:00 PM",,,0
LCBO Store # 595,595,7 CHURCH STREETGENERAL DELIVERY,,DUNCHURCH,,P0A 1G0,Canada,705-389-3023,,,"Sun 11:00 AM - 6:00 PM, Mon 10:00 AM - 6:00 PM, Tue 10:00 AM - 6:00 PM, Wed Closed - , Thu 10:00 AM - 6:00 PM, Fri 10:00 AM - 6:00 PM, Sat 10:00 AM - 6:00 PM",,,0
LCBO Store # 290,290,14 WILSON LAKE CRES.PO BOX 80,,PORT LORING,,P0H 1Y0,Canada,705-757-2880,,,"Sun 11:00 AM - 6:00 PM, Mon Closed - , Tue 10:00 AM - 6:00 PM, Wed 10:00 AM - 6:00 PM, Thu 10:00 AM - 6:00 PM, Fri 10:00 AM - 6:00 PM, Sat 10:00 AM - 6:00 PM",,,0
LCBO Store # 574,574,234 YONGE STREETP.O. BOX 76,,BONFIELD,,P0H 1E0,Canada,705-776-7769,,,"Sun 11:00 AM - 6:00 PM, Mon 10:00 AM - 6:00 PM, Tue Closed - , Wed 10:00 AM - 6:00 PM, Thu 10:00 AM - 6:00 PM, Fri 10:00 AM - 6:00 PM, Sat 10:00 AM - 6:00 PM",,,0
LCBO Store # 363,363,536 LAKESHORE DRIVE,,NORTH BAY,,P1A 2E6,Canada,705-472-0540,,,"Sun 11:00 AM - 6:00 PM, Mon 10:00 AM - 6:00 PM, Tue 10:00 AM - 6:00 PM, Wed 10:00 AM - 6:00 PM, Thu 10:00 AM - 8:00 PM, Fri 10:00 AM - 9:00 PM, Sat 10:00 AM - 6:00 PM",,,0
LCBO Store # 54,54,186 WORTHINGTON STREET WEST,,NORTH BAY,,P1B 3B2,Canada,705-494-4065,,,"Sun 11:00 AM - 6:00 PM, Mon 10:00 AM - 6:00 PM, Tue 10:00 AM - 6:00 PM, Wed 10:00 AM - 6:00 PM, Thu 10:00 AM - 6:00 PM, Fri 10:00 AM - 8:00 PM, Sat 10:00 AM - 6:00 PM",,,0
LCBO Store # 387,387,1711 ALGONQUIN AVENUE,,NORTH BAY,,P1B 4Y8,Canada,705-474-5430,,,"Sun 11:00 AM - 6:00 PM, Mon 10:00 AM - 9:00 PM, Tue 10:00 AM - 9:00 PM, Wed 10:00 AM - 9:00 PM, Thu 10:00 AM - 9:00 PM, Fri 10:00 AM - 9:00 PM, Sat 10:00 AM - 9:00 PM",,,0
LCBO Store # 106,106,91 KING WILLIAM STREET UNIT 1,,HUNTSVILLE,,P1H 1E5,Canada,705-789-2591,,,"Sun 11:00 AM - 6:00 PM, Mon 10:00 AM - 8:00 PM, Tue 10:00 AM - 8:00 PM, Wed 10:00 AM - 8:00 PM, Thu 10:00 AM - 8:00 PM, Fri 10:00 AM - 8:00 PM, Sat 10:00 AM - 8:00 PM",,,0
LCBO Store # 557,557,25846 HWY 35PO BOX GROUP 14,,DWIGHT,,P0A 1H0,Canada,705-635-2891,,,"Sun 11:00 AM - 6:00 PM, Mon Closed - , Tue 10:00 AM - 6:00 PM, Wed 10:00 AM - 6:00 PM, Thu 10:00 AM - 6:00 PM, Fri 10:00 AM - 6:00 PM, Sat 10:00 AM - 6:00 PM",,,0
LCBO Store # 347,347,1145 HIGHWAY 141P.O. BOX 100,,ROSSEAU,,P0C 1J0,Canada,705-732-4632,,,"Sun 11:00 AM - 6:00 PM, Mon Closed - , Tue 10:00 AM - 6:00 PM, Wed 10:00 AM - 6:00 PM, Thu 10:00 AM - 6:00 PM, Fri 10:00 AM - 6:00 PM, Sat 10:00 AM - 6:00 PM",,,0
LCBO Store # 81,81,55 FRONT STREETP.O. BOX 66,,STURGEON FALLS,,P2B 2G8,Canada,705-753-0920,,,"Sun 11:00 AM - 6:00 PM, Mon 10:00 AM - 6:00 PM, Tue 10:00 AM - 6:00 PM, Wed 10:00 AM - 6:00 PM, Thu 10:00 AM - 6:00 PM, Fri 10:00 AM - 8:00 PM, Sat 10:00 AM - 6:00 PM",,,0
LCBO Store # 89,89,450 VALOIS DRIVEP.O. BOX 159,,MATTAWA,,P0H 1V0,Canada,705-744-5381,,,"Sun 11:00 AM - 6:00 PM, Mon 10:00 AM - 6:00 PM, Tue 10:00 AM - 6:00 PM, Wed 10:00 AM - 6:00 PM, Thu 10:00 AM - 6:00 PM, Fri 10:00 AM - 6:00 PM, Sat 10:00 AM - 6:00 PM",,,0
LCBO Store # 410,410,12297 HWY 41 FRONT STREETP.O. BOX 94,,NORTHBROOK,,K0H 2G0,Canada,613-336-2590,,,"Sun Closed - , Mon 10:00 AM - 6:00 PM, Tue 10:00 AM - 6:00 PM, Wed 10:00 AM - 6:00 PM, Thu 10:00 AM - 6:00 PM, Fri 10:00 AM - 6:00 PM, Sat 10:00 AM - 6:00 PM",,,0
LCBO Store # 503,503,7423 HIGHWAY 506PO BOX 111,,PLEVNA,,K0H 2M0,Canada,613-479-2456,,,"Sun Closed - , Mon Closed - , Tue 10:00 AM - 6:00 PM, Wed 10:00 AM - 6:00 PM, Thu 10:00 AM - 6:00 PM, Fri 10:00 AM - 6:00 PM, Sat 10:00 AM - 6:00 PM",,,0
LCBO Store # 476,476,22353 HIGHWAY 41,,DENBIGH,,K0H 1L0,Canada,613-333-2277,,,"Sun Closed - , Mon Closed - , Tue 10:00 AM - 6:00 PM, Wed 10:00 AM - 6:00 PM, Thu 10:00 AM - 6:00 PM, Fri 10:00 AM - 6:00 PM, Sat 10:00 AM - 6:00 PM",,,0
LCBO Store # 174,174,16 BRIDGE STREET EP.O. BOX 268,,TWEED,,K0K 3J0,Canada,613-478-2716,,,"Sun 12:00 PM - 4:00 PM, Mon 10:00 AM - 6:00 PM, Tue 10:00 AM - 6:00 PM, Wed 10:00 AM - 6:00 PM, Thu 10:00 AM - 6:00 PM, Fri 10:00 AM - 8:00 PM, Sat 10:00 AM - 6:00 PM",,,0
LCBO Store # 105,105,714 ADDINGTON STREET EASTP.O. BOX 100,,TAMWORTH,,K0K 3G0,Canada,613-379-2201,,,"Sun 12:00 PM - 4:00 PM, Mon 10:00 AM - 6:00 PM, Tue 10:00 AM - 6:00 PM, Wed 10:00 AM - 6:00 PM, Thu 10:00 AM - 6:00 PM, Fri 10:00 AM - 8:00 PM, Sat 10:00 AM - 6:00 PM",,,0
LCBO Store # 377,377,24593 HIGHWAY 7PO BOX 3126,,SHARBOT LAKE,,K0H 2P0,Canada,613-279-2354,,,"Sun Closed - , Mon 10:00 AM - 6:00 PM, Tue 10:00 AM - 6:00 PM, Wed 10:00 AM - 6:00 PM, Thu 10:00 AM - 6:00 PM, Fri 10:00 AM - 6:00 PM, Sat 10:00 AM - 6:00 PM",,,0
LCBO Store # 135,135,219 RUSSELL STREETPO BOX 101,,MADOC,,K0K 2K0,Canada,613-473-2951,,,"Sun 12:00 PM - 4:00 PM, Mon 10:00 AM - 6:00 PM, Tue 10:00 AM - 6:00 PM, Wed 10:00 AM - 6:00 PM, Thu 10:00 AM - 6:00 PM, Fri 10:00 AM - 8:00 PM, Sat 10:00 AM - 6:00 PM",,,0
LCBO Store # 535,535,8 CENTRE STREETHWY 620/CENTRE ST,,COE HILL,,K0L 1P0,Canada,613-337-1100,,,"Sun 11:00 AM - 6:00 PM, Mon 10:00 AM - 6:00 PM, Tue 10:00 AM - 6:00 PM, Wed 10:00 AM - 6:00 PM, Thu 10:00 AM - 6:00 PM, Fri 10:00 AM - 6:00 PM, Sat 10:00 AM - 6:00 PM",,,0
LCBO Store # 176,176,23 FORSYTH STREET,,MARMORA,,K0K 2M0,Canada,613-472-2745,,,"Sun 12:00 PM - 4:00 PM, Mon 10:00 AM - 6:00 PM, Tue 10:00 AM - 6:00 PM, Wed 10:00 AM - 6:00 PM, Thu 10:00 AM - 6:00 PM, Fri 10:00 AM - 6:00 PM, Sat 10:00 AM - 6:00 PM",,,0
LCBO Store # 208,208,16B STATION STREETP.O. BOX 340,,BANCROFT,,K0L 1C0,Canada,613-332-2660,,,"Sun 12:00 PM - 4:00 PM, Mon 10:00 AM - 6:00 PM, Tue 10:00 AM - 6:00 PM, Wed 10:00 AM - 6:00 PM, Thu 10:00 AM - 6:00 PM, Fri 10:00 AM - 8:00 PM, Sat 10:00 AM - 6:00 PM",,,0
LCBO Store # 111,111,15 CHURCH STREETUNIT #3,,WESTPORT,,K0G 1X0,Canada,613-273-2853,,,"Sun 11:00 AM - 6:00 PM, Mon 10:00 AM - 6:00 PM, Tue 10:00 AM - 6:00 PM, Wed 10:00 AM - 6:00 PM, Thu 10:00 AM - 6:00 PM, Fri 10:00 AM - 8:00 PM, Sat 9:30 AM - 6:00 PM",,,0
LCBO Store # 97,97,10 ALKENBRACK STREETUNIT 1,,NAPANEE,,K7R 0A6,Canada,613-354-5746,,,"Sun 11:00 AM - 6:00 PM, Mon 9:00 AM - 7:00 PM, Tue 9:00 AM - 7:00 PM, Wed 9:00 AM - 7:00 PM, Thu 9:00 AM - 7:00 PM, Fri 9:00 AM - 8:00 PM, Sat 9:00 AM - 8:00 PM",,,0
LCBO Store # 475,475,4387 MILL STREETP.O. BOX 265,,SYDENHAM,,K0H 2T0,Canada,613-376-3057,,,"Sun 12:00 PM - 4:00 PM, Mon 10:00 AM - 6:00 PM, Tue 10:00 AM - 6:00 PM, Wed 10:00 AM - 6:00 PM, Thu 10:00 AM - 6:00 PM, Fri 10:00 AM - 8:00 PM, Sat 10:00 AM - 6:00 PM",,,0
LCBO Store # 414,414,125 NORTH STREETP.O. BOX 250,,STIRLING,,K0K 3E0,Canada,613-395-2605,,,"Sun 12:00 PM - 4:00 PM, Mon 10:00 AM - 6:00 PM, Tue 10:00 AM - 6:00 PM, Wed 10:00 AM - 6:00 PM, Thu 10:00 AM - 6:00 PM, Fri 10:00 AM - 8:00 PM, Sat 10:00 AM - 6:00 PM",,,0
LCBO Store # 433,433,703 MILL STREETP.O. BOX 35,,CALABOGIE,,K0J 1H0,Canada,613-752-2696,,,"Sun Closed - , Mon 10:00 AM - 6:00 PM, Tue 10:00 AM - 6:00 PM, Wed 10:00 AM - 6:00 PM, Thu 10:00 AM - 6:00 PM, Fri 10:00 AM - 6:00 PM, Sat 10:00 AM - 6:00 PM",,,0
LCBO Store # 96,96,78 ST. GEORGE STREETP.O. BOX 278,,DESERONTO,,K0K 1X0,Canada,613-396-2711,,,"Sun 12:00 PM - 4:00 PM, Mon 10:00 AM - 6:00 PM, Tue 10:00 AM - 6:00 PM, Wed 10:00 AM - 6:00 PM, Thu 10:00 AM - 6:00 PM, Fri 10:00 AM - 8:00 PM, Sat 10:00 AM - 6:00 PM",,,0
LCBO Store # 231,231,"30 OTTAWA STREET,P.O. BOX 239",,HAVELOCK,,K0L 1Z0,Canada,705-778-2141,,,"Sun 11:00 AM - 6:00 PM, Mon 10:00 AM - 6:00 PM, Tue 10:00 AM - 6:00 PM, Wed 10:00 AM - 6:00 PM, Thu 10:00 AM - 6:00 PM, Fri 10:00 AM - 8:00 PM, Sat 10:00 AM - 6:00 PM",,,0
LCBO Store # 57,57,190A BELL BOULEVARD,,BELLEVILLE,,K8P 5L2,Canada,613-962-2132,,,"Sun 11:00 AM - 6:00 PM, Mon 9:00 AM - 10:00 PM, Tue 9:00 AM - 10:00 PM, Wed 9:00 AM - 10:00 PM, Thu 9:00 AM - 10:00 PM, Fri 9:00 AM - 10:00 PM, Sat 9:00 AM - 10:00 PM",,,0
LCBO Store # 402,402,470 DUNDAS STREET EASTBAYVIEW MALL,,BELLEVILLE,,K8N 1G1,Canada,613-962-1342,,,"Sun 12:00 PM - 5:00 PM, Mon 9:00 AM - 6:00 PM, Tue 9:00 AM - 6:00 PM, Wed 9:00 AM - 6:00 PM, Thu 9:00 AM - 6:00 PM, Fri 9:00 AM - 8:00 PM, Sat 9:00 AM - 6:00 PM",,,0
LCBO Store # 318,318,3 BURLEIGH STREETP.O. BOX 337,,APSLEY,,K0L 1A0,Canada,705-656-4492,,,"Sun 11:00 AM - 6:00 PM, Mon 10:00 AM - 6:00 PM, Tue 10:00 AM - 6:00 PM, Wed 10:00 AM - 6:00 PM, Thu 10:00 AM - 6:00 PM, Fri 10:00 AM - 8:00 PM, Sat 10:00 AM - 6:00 PM",,,0
LCBO Store # 72,72,80 DUFFERIN STREET,,PERTH,,K7H 3A7,Canada,613-267-1697,,,"Sun 11:00 AM - 6:00 PM, Mon 10:00 AM - 6:00 PM, Tue 10:00 AM - 6:00 PM, Wed 10:00 AM - 6:00 PM, Thu 10:00 AM - 9:00 PM, Fri 10:00 AM - 9:00 PM, Sat 10:00 AM - 8:00 PM",,,0
LCBO Store # 178,178,37 FRONT STREET SOUTHP.O. BOX 460,,CAMPBELLFORD,,K0L 1L0,Canada,705-653-3000,,,"Sun 12:00 PM - 4:00 PM, Mon 10:00 AM - 6:00 PM, Tue 10:00 AM - 6:00 PM, Wed 10:00 AM - 6:00 PM, Thu 10:00 AM - 6:00 PM, Fri 10:00 AM - 8:00 PM, Sat 10:00 AM - 6:00 PM",,,0
LCBO Store # 364,364,14 KING DRIVE NORTHP.O. BOX 399,,FRANKFORD,,K0K 2C0,Canada,613-398-6160,,,"Sun 12:00 PM - 4:00 PM, Mon 10:00 AM - 6:00 PM, Tue 10:00 AM - 6:00 PM, Wed 10:00 AM - 6:00 PM, Thu 10:00 AM - 6:00 PM, Fri 10:00 AM - 8:00 PM, Sat 10:00 AM - 6:00 PM",,,0
LCBO Store # 494,494,2458 DUNDAS STREET WESTWOODCHESTER MALL,,MISSISSAUGA,,L5K 1R8,Canada,905-822-1776,,,"Sun 11:00 AM - 6:00 PM, Mon 10:00 AM - 9:00 PM, Tue 10:00 AM - 10:00 PM, Wed 10:00 AM - 10:00 PM, Thu 10:00 AM - 10:00 PM, Fri 10:00 AM - 10:00 PM, Sat 10:00 AM - 10:00 PM",,,0
LCBO Store # 542,542,3020 ELMCREEK RD.,,MISSISSAUGA,,L5B 4M3,Canada,905-949-6100,,,"Sun 11:00 AM - 6:00 PM, Mon 10:00 AM - 9:00 PM, Tue 10:00 AM - 10:00 PM, Wed 10:00 AM - 10:00 PM, Thu 10:00 AM - 10:00 PM, Fri 10:00 AM - 10:00 PM, Sat 10:00 AM - 10:00 PM",,,0
LCBO Store # 619,619,5100 ERIN MILLS PARKWAYSUITE 5035,,MISSISSAUGA,,L5M 4Z5,Canada,905-607-7900,,,"Sun 11:00 AM - 6:00 PM, Mon 9:30 AM - 9:00 PM, Tue 9:30 AM - 10:00 PM, Wed 9:30 AM - 10:00 PM, Thu 9:30 AM - 10:00 PM, Fri 9:30 AM - 10:00 PM, Sat 9:30 AM - 10:00 PM",,,0
LCBO Store # 371,371,930 SOUTHDOWN ROAD,,MISSISSAUGA,,L5J 2Y4,Canada,905-822-2281,,,"Sun 11:00 AM - 6:00 PM, Mon 10:00 AM - 9:00 PM, Tue 10:00 AM - 9:00 PM, Wed 10:00 AM - 9:00 PM, Thu 10:00 AM - 9:00 PM, Fri 10:00 AM - 9:00 PM, Sat 10:00 AM - 9:00 PM",,,0
LCBO Store # 458,458,25 HILLCREST AVENUE,,MISSISSAUGA,,L5B 1K5,Canada,905-279-6837,,,"Sun 11:00 AM - 6:00 PM, Mon 9:30 AM - 9:00 PM, Tue 9:30 AM - 9:00 PM, Wed 9:30 AM - 9:00 PM, Thu 9:30 AM - 9:00 PM, Fri 9:30 AM - 10:00 PM, Sat 9:30 AM - 10:00 PM",,,0
LCBO Store # 698,698,65 SQUARE ONE DRIVE,,MISSISSAUGA,,L5B 0E2,Canada,905-897-7500,,,"Sun 11:00 AM - 6:00 PM, Mon 10:00 AM - 9:00 PM, Tue 10:00 AM - 9:00 PM, Wed 10:00 AM - 9:00 PM, Thu 10:00 AM - 9:00 PM, Fri 10:00 AM - 9:00 PM, Sat 10:00 AM - 9:00 PM",,,0
LCBO Store # 321,321,128 QUEEN STREET SOUTHCENTRAL PLAZA,,MISSISSAUGA,,L5M 1K8,Canada,905-826-3731,,,"Sun 11:00 AM - 6:00 PM, Mon 10:00 AM - 8:00 PM, Tue 10:00 AM - 8:00 PM, Wed 10:00 AM - 8:00 PM, Thu 10:00 AM - 9:00 PM, Fri 10:00 AM - 9:00 PM, Sat 10:00 AM - 9:00 PM",,,0
LCBO Store # 505,505,5035 HURONTARIO ST.UNIT #9,,MISSISSAUGA,,L4Z 3X7,Canada,905-501-9784,,,"Sun 11:00 AM - 6:00 PM, Mon 10:00 AM - 9:00 PM, Tue 10:00 AM - 10:00 PM, Wed 10:00 AM - 10:00 PM, Thu 10:00 AM - 10:00 PM, Fri 10:00 AM - 10:00 PM, Sat 10:00 AM - 10:00 PM",,,0
LCBO Store # 182,182,200 LAKESHORE ROAD EAST,,MISSISSAUGA,,L5G 1G3,Canada,905-278-7931,,,"Sun 11:00 AM - 6:00 PM, Mon 10:00 AM - 9:00 PM, Tue 10:00 AM - 9:00 PM, Wed 10:00 AM - 9:00 PM, Thu 10:00 AM - 9:00 PM, Fri 10:00 AM - 9:00 PM, Sat 10:00 AM - 9:00 PM",,,0
LCBO Store # 385,385,5925 RODEO DRIVE,,MISSISSAUGA,,L5R 4C1,Canada,905-568-4064,,,"Sun 11:00 AM - 6:00 PM, Mon 10:00 AM - 9:00 PM, Tue 10:00 AM - 10:00 PM, Wed 10:00 AM - 10:00 PM, Thu 10:00 AM - 10:00 PM, Fri 10:00 AM - 10:00 PM, Sat 10:00 AM - 10:00 PM",,,0
LCBO Store # 179,179,1011 UPPER MIDDLE ROAD EASTUPPER OAKVILLE SHOPPING CENTRE,,OAKVILLE,,L6H 4L2,Canada,905-849-9934,,,"Sun 11:00 AM - 6:00 PM, Mon 10:00 AM - 9:00 PM, Tue 10:00 AM - 9:00 PM, Wed 10:00 AM - 9:00 PM, Thu 10:00 AM - 9:00 PM, Fri 10:00 AM - 9:00 PM, Sat 10:00 AM - 9:00 PM",,,0
LCBO Store # 445,445,251 OAK WALK DR.,,OAKVILLE,,L6H 6M3,Canada,905-257-6300,,,"Sun 11:00 AM - 6:00 PM, Mon 10:00 AM - 9:00 PM, Tue 10:00 AM - 10:00 PM, Wed 10:00 AM - 10:00 PM, Thu 10:00 AM - 10:00 PM, Fri 10:00 AM - 10:00 PM, Sat 10:00 AM - 10:00 PM",,,0
LCBO Store # 218,218,1077 NORTH SERVICE ROADAPPLEWOOD VILLAGE PLAZA,,MISSISSAUGA,,L4Y 1A6,Canada,905-897-1092,,,"Sun 11:00 AM - 6:00 PM, Mon 10:00 AM - 9:00 PM, Tue 10:00 AM - 9:00 PM, Wed 10:00 AM - 9:00 PM, Thu 10:00 AM - 9:00 PM, Fri 10:00 AM - 9:00 PM, Sat 10:00 AM - 9:00 PM",,,0
LCBO Store # 334,334,6975 MEADOWVALE TOWN CENTREMEADOWVALE TOWN CENTRE,,MISSISSAUGA,,L5N 2W7,Canada,905-286-0188,,,"Sun 11:00 AM - 6:00 PM, Mon 10:00 AM - 9:00 PM, Tue 10:00 AM - 10:00 PM, Wed 10:00 AM - 10:00 PM, Thu 10:00 AM - 10:00 PM, Fri 10:00 AM - 10:00 PM, Sat 10:00 AM - 10:00 PM",,,0
LCBO Store # 425,425,1125 BLOOR STREET EASTAPPLEWOOD HILLS PLAZA,,MISSISSAUGA,,L4Y 2N6,Canada,905-279-2041,,,"Sun 11:00 AM - 6:00 PM, Mon 10:00 AM - 9:00 PM, Tue 10:00 AM - 9:00 PM, Wed 10:00 AM - 9:00 PM, Thu 10:00 AM - 9:00 PM, Fri 10:00 AM - 9:00 PM, Sat 10:00 AM - 9:00 PM",,,0
LCBO Store # 627,627,1520 DUNDAS STREET EAST,,MISSISSAUGA,,L4X 1L4,Canada,905-566-8359,,,"Sun 11:00 AM - 6:00 PM, Mon 9:30 AM - 9:00 PM, Tue 9:30 AM - 10:00 PM, Wed 9:30 AM - 10:00 PM, Thu 9:30 AM - 10:00 PM, Fri 9:30 AM - 10:00 PM, Sat 9:30 AM - 10:00 PM",,,0
LCBO Store # 486,486,321 CORNWALL ROADUNIT C120,,OAKVILLE,,L6J 7Z5,Canada,905-845-8100,,,"Sun 11:00 AM - 6:00 PM, Mon 9:00 AM - 9:00 PM, Tue 9:00 AM - 9:00 PM, Wed 9:00 AM - 9:00 PM, Thu 9:00 AM - 9:00 PM, Fri 9:00 AM - 9:00 PM, Sat 9:00 AM - 9:00 PM",,,0
LCBO Store # 365,365,276 LAKESHORE ROAD EAST,,OAKVILLE,,L6J 1J1,Canada,905-844-6852,,,"Sun 11:00 AM - 6:00 PM, Mon 10:00 AM - 6:00 PM, Tue 10:00 AM - 6:00 PM, Wed 10:00 AM - 6:00 PM, Thu 10:00 AM - 6:00 PM, Fri 10:00 AM - 8:00 PM, Sat 10:00 AM - 6:00 PM",,,0
LCBO Store # 633,633,3730 LAKESHORE BLVD. WEST,,TORONTO-ETOBICOKE,,M8W 1N6,Canada,416-368-5024,,,"Sun 11:00 AM - 6:00 PM, Mon 10:00 AM - 9:00 PM, Tue 10:00 AM - 9:00 PM, Wed 10:00 AM - 9:00 PM, Thu 10:00 AM - 9:00 PM, Fri 10:00 AM - 9:00 PM, Sat 10:00 AM - 9:00 PM",,,0
LCBO Store # 553,553,1750 THE QUEENSWAY,,TORONTO-ETOBICOKE,,M9C 5H5,Canada,416-620-5390,,,"Sun 11:00 AM - 6:00 PM, Mon 10:00 AM - 8:00 PM, Tue 10:00 AM - 8:00 PM, Wed 10:00 AM - 8:00 PM, Thu 10:00 AM - 9:00 PM, Fri 10:00 AM - 9:00 PM, Sat 10:00 AM - 8:00 PM",,,0
LCBO Store # 640,640,3017 ARGENTIA ROAD,,MISSISSAUGA,,L5N 8P7,Canada,905-785-1138,,,"Sun 11:00 AM - 6:00 PM, Mon 10:00 AM - 9:00 PM, Tue 10:00 AM - 9:00 PM, Wed 10:00 AM - 9:00 PM, Thu 10:00 AM - 9:00 PM, Fri 10:00 AM - 9:00 PM, Sat 10:00 AM - 9:00 PM",,,0
LCBO Store # 148,148,"270 NORTH SERVICE ROAD WESTOAKVILLE TOWN CENTRE W., BLK.C, #16",,OAKVILLE,,L6M 2R8,Canada,905-338-1039,,,"Sun 11:00 AM - 6:00 PM, Mon 10:00 AM - 9:00 PM, Tue 10:00 AM - 10:00 PM, Wed 10:00 AM - 10:00 PM, Thu 10:00 AM - 10:00 PM, Fri 10:00 AM - 10:00 PM, Sat 10:00 AM - 10:00 PM",,,0
LCBO Store # 398,398,662 BURNHAMTHORPE ROADBURNHAMTHORPE MALL,,TORONTO-ETOBICOKE,,M9C 2Z4,Canada,416-621-0954,,,"Sun 11:00 AM - 6:00 PM, Mon 10:00 AM - 10:00 PM, Tue 10:00 AM - 10:00 PM, Wed 10:00 AM - 10:00 PM, Thu 10:00 AM - 10:00 PM, Fri 10:00 AM - 10:00 PM, Sat 10:00 AM - 10:00 PM",,,0
LCBO Store # 207,207,250 THE EAST MALLCLOVERDALE MALL,,TORONTO-ETOBICOKE,,M9B 3Y8,Canada,416-233-6081,,,"Sun 11:00 AM - 6:00 PM, Mon 10:00 AM - 9:00 PM, Tue 10:00 AM - 9:00 PM, Wed 10:00 AM - 9:00 PM, Thu 10:00 AM - 9:00 PM, Fri 10:00 AM - 9:00 PM, Sat 10:00 AM - 9:00 PM",,,0
LCBO Store # 601,601,100 CLEMENTINE DR.,,BRAMPTON,,L6Y 0L8,Canada,905-456-2101,,,"Sun 11:00 AM - 6:00 PM, Mon 10:00 AM - 9:00 PM, Tue 10:00 AM - 9:00 PM, Wed 10:00 AM - 9:00 PM, Thu 10:00 AM - 9:00 PM, Fri 10:00 AM - 9:00 PM, Sat 9:00 AM - 9:00 PM",,,0
LCBO Store # 426,426,1090 THE QUEENSWAY,,TORONTO-ETOBICOKE,,M8Z 1P7,Canada,416-252-7389,,,"Sun 11:00 AM - 6:00 PM, Mon 10:00 AM - 9:00 PM, Tue 10:00 AM - 9:00 PM, Wed 10:00 AM - 9:00 PM, Thu 10:00 AM - 9:00 PM, Fri 10:00 AM - 9:00 PM, Sat 10:00 AM - 9:00 PM",,,0
LCBO Store # 20,20,2762 LAKE SHORE BOULEVARD WEST,,TORONTO-ETOBICOKE,,M8V 1H1,Canada,416-251-2021,,,"Sun 12:00 PM - 6:00 PM, Mon 10:00 AM - 9:00 PM, Tue 10:00 AM - 9:00 PM, Wed 10:00 AM - 9:00 PM, Thu 10:00 AM - 9:00 PM, Fri 10:00 AM - 9:00 PM, Sat 10:00 AM - 9:00 PM",,,0
LCBO Store # 329,329,545 STEELES AVE. E.,,BRAMPTON,,L6W 4S2,Canada,905-454-7980,,,"Sun 11:00 AM - 6:00 PM, Mon 10:00 AM - 10:00 PM, Tue 10:00 AM - 10:00 PM, Wed 10:00 AM - 10:00 PM, Thu 10:00 AM - 10:00 PM, Fri 10:00 AM - 10:00 PM, Sat 10:00 AM - 10:00 PM",,,0
LCBO Store # 437,437,1527 REBECCA STREET,,OAKVILLE,,L6L 1Z8,Canada,905-827-5072,,,"Sun 11:00 AM - 6:00 PM, Mon 10:00 AM - 9:00 PM, Tue 10:00 AM - 9:00 PM, Wed 10:00 AM - 9:00 PM, Thu 10:00 AM - 9:00 PM, Fri 10:00 AM - 9:00 PM, Sat 10:00 AM - 9:00 PM",,,0
LCBO Store # 234,234,211 LLOYD MANOR ROAD,,TORONTO-ETOBICOKE,,M9B 6H6,Canada,416-244-1179,,,"Sun 11:00 AM - 6:00 PM, Mon 10:00 AM - 9:00 PM, Tue 10:00 AM - 9:00 PM, Wed 10:00 AM - 9:00 PM, Thu 10:00 AM - 9:00 PM, Fri 10:00 AM - 9:00 PM, Sat 10:00 AM - 9:00 PM",,,0
LCBO Store # 631,631,830 MAIN STREET EAST,,MILTON,,L9T 0J4,Canada,905-864-7030,,,"Sun 11:00 AM - 6:00 PM, Mon 10:00 AM - 10:00 PM, Tue 10:00 AM - 10:00 PM, Wed 10:00 AM - 10:00 PM, Thu 10:00 AM - 10:00 PM, Fri 10:00 AM - 10:00 PM, Sat 10:00 AM - 10:00 PM",,,0
LCBO Store # 149,149,2946 BLOOR STREET WEST,,TORONTO-ETOBICOKE,,M8X 1B7,Canada,416-239-3065,,,"Sun 11:00 AM - 6:00 PM, Mon 10:00 AM - 9:00 PM, Tue 10:00 AM - 9:00 PM, Wed 10:00 AM - 9:00 PM, Thu 10:00 AM - 9:00 PM, Fri 10:00 AM - 9:00 PM, Sat 10:00 AM - 9:00 PM",,,0
LCBO Store # 669,669,2218 LAKE SHORE BLVD W,,TORONTO-ETOBICOKE,,M8V 0C1,Canada,416-201-0226,,,"Sun 11:00 AM - 6:00 PM, Mon 10:00 AM - 9:00 PM, Tue 10:00 AM - 9:00 PM, Wed 10:00 AM - 9:00 PM, Thu 10:00 AM - 9:00 PM, Fri 10:00 AM - 9:00 PM, Sat 10:00 AM - 9:00 PM",,,0
LCBO Store # 366,366,415 THE WESTWAYMARTINWAY PLAZA,,TORONTO-ETOBICOKE,,M9R 1H5,Canada,416-247-7131,,,"Sun 11:00 AM - 6:00 PM, Mon 10:00 AM - 9:00 PM, Tue 10:00 AM - 9:00 PM, Wed 10:00 AM - 9:00 PM, Thu 10:00 AM - 9:00 PM, Fri 10:00 AM - 9:00 PM, Sat 10:00 AM - 9:00 PM",,,0
LCBO Store # 649,649,1025 BRONTE STREET SOUTH,,MILTON,,L9T 8X3,Canada,905-636-7691,,,"Sun 11:00 AM - 6:00 PM, Mon 10:00 AM - 9:00 PM, Tue 10:00 AM - 9:00 PM, Wed 10:00 AM - 9:00 PM, Thu 10:00 AM - 9:00 PM, Fri 10:00 AM - 9:00 PM, Sat 10:00 AM - 9:00 PM",,,0
LCBO Store # 415,415,259 THE KINGSWAYHUMBERTOWN PLAZA,,TORONTO-ETOBICOKE,,M9A 3T6,Canada,416-231-2446,,,"Sun 11:00 AM - 6:00 PM, Mon 10:00 AM - 8:00 PM, Tue 10:00 AM - 8:00 PM, Wed 10:00 AM - 8:00 PM, Thu 10:00 AM - 9:00 PM, Fri 10:00 AM - 9:00 PM, Sat 10:00 AM - 8:00 PM",,,0
LCBO Store # 214,214,125 THE QUEENSWAYBLDG C,,TORONTO-ETOBICOKE,,M8Y 1H6,Canada,416-259-6476,,,"Sun 11:00 AM - 6:00 PM, Mon 10:00 AM - 9:00 PM, Tue 10:00 AM - 9:00 PM, Wed 10:00 AM - 9:00 PM, Thu 10:00 AM - 9:00 PM, Fri 10:00 AM - 9:00 PM, Sat 10:00 AM - 9:00 PM",,,0
LCBO Store # 183,183,27 GEORGE STREET NORTH,,BRAMPTON,,L6X 1R3,Canada,905-451-3424,,,"Sun 11:00 AM - 6:00 PM, Mon 10:00 AM - 9:00 PM, Tue 10:00 AM - 9:00 PM, Wed 10:00 AM - 9:00 PM, Thu 10:00 AM - 9:00 PM, Fri 10:00 AM - 9:00 PM, Sat 10:00 AM - 9:00 PM",,,0
LCBO Store # 655,655,"9445 MISSISSAUGA RD.,",,BRAMPTON,,L6X 0Z8,Canada,905-456-8145,,,"Sun 11:00 AM - 6:00 PM, Mon 10:00 AM - 10:00 PM, Tue 10:00 AM - 10:00 PM, Wed 10:00 AM - 10:00 PM, Thu 10:00 AM - 10:00 PM, Fri 10:00 AM - 10:00 PM, Sat 10:00 AM - 10:00 PM",,,0
LCBO Store # 255,255,14 MAIN STREET EAST,,MILTON,,L9T 1N3,Canada,905-878-2631,,,"Sun 11:00 AM - 6:00 PM, Mon 10:00 AM - 9:00 PM, Tue 10:00 AM - 9:00 PM, Wed 10:00 AM - 9:00 PM, Thu 10:00 AM - 9:00 PM, Fri 10:00 AM - 9:00 PM, Sat 10:00 AM - 9:00 PM",,,0
LCBO Store # 416,416,80 PEEL CENTRE DRIVEBRAMALEA CITY CENTRE,,BRAMPTON,,L6T 4G8,Canada,905-793-8027,,,"Sun 11:00 AM - 6:00 PM, Mon 9:00 AM - 10:00 PM, Tue 9:00 AM - 10:00 PM, Wed 9:00 AM - 10:00 PM, Thu 9:00 AM - 10:00 PM, Fri 9:00 AM - 10:00 PM, Sat 9:00 AM - 10:00 PM",,,0
LCBO Store # 420,420,2180 BLOOR STREET WEST,,TORONTO-CENTRAL,,M6S 1N3,Canada,416-767-8931,,,"Sun 11:00 AM - 6:00 PM, Mon 10:00 AM - 9:00 PM, Tue 10:00 AM - 9:00 PM, Wed 10:00 AM - 9:00 PM, Thu 10:00 AM - 9:00 PM, Fri 10:00 AM - 9:00 PM, Sat 10:00 AM - 9:00 PM",,,0
LCBO Store # 436,436,7205 GOREWAY DRIVEWESTWOOD MALL,,MISSISSAUGA,,L4T 2T9,Canada,905-677-5977,,,"Sun 12:00 PM - 5:00 PM, Mon 10:00 AM - 9:00 PM, Tue 10:00 AM - 9:00 PM, Wed 10:00 AM - 9:00 PM, Thu 10:00 AM - 9:00 PM, Fri 10:00 AM - 9:00 PM, Sat 10:00 AM - 6:00 PM",,,0
LCBO Store # 295,295,3520 DUNDAS STREET WEST,,TORONTO-CENTRAL,,M6S 2S1,Canada,416-762-8215,,,"Sun 11:00 AM - 6:00 PM, Mon 10:00 AM - 10:00 PM, Tue 10:00 AM - 9:00 PM, Wed 10:00 AM - 10:00 PM, Thu 10:00 AM - 10:00 PM, Fri 10:00 AM - 10:00 PM, Sat 10:00 AM - 10:00 PM",,,0
LCBO Store # 470,470,31 WORTHINGTON AVE.,,BRAMPTON,,L7A 2Y7,Canada,905-495-3881,,,"Sun 11:00 AM - 6:00 PM, Mon 10:00 AM - 10:00 PM, Tue 10:00 AM - 10:00 PM, Wed 10:00 AM - 10:00 PM, Thu 10:00 AM - 10:00 PM, Fri 10:00 AM - 10:00 PM, Sat 9:30 AM - 10:00 PM",,,0
LCBO Store # 456,456,"365 MOUNTAINVIEW RD., SOUTH",,GEORGETOWN,,L7G 5X3,Canada,905-877-9444,,,"Sun 11:00 AM - 6:00 PM, Mon 10:00 AM - 9:00 PM, Tue 10:00 AM - 9:00 PM, Wed 10:00 AM - 9:00 PM, Thu 10:00 AM - 9:00 PM, Fri 10:00 AM - 9:00 PM, Sat 10:00 AM - 9:00 PM",,,0
LCBO Store # 573,573,2000 APPLEBY LINEUNIT F1,,BURLINGTON,,L7L 6M6,Canada,905-336-6200,,,"Sun 11:00 AM - 6:00 PM, Mon 9:30 AM - 10:00 PM, Tue 9:30 AM - 10:00 PM, Wed 9:30 AM - 10:00 PM, Thu 9:30 AM - 10:00 PM, Fri 9:30 AM - 10:00 PM, Sat 9:30 AM - 10:00 PM",,,0
LCBO Store # 19,19,2151 ST. CLAIR AVE. W.,,TORONTO-CENTRAL,,M5N 1K5,Canada,416-653-8202,,,"Sun 11:00 AM - 6:00 PM, Mon 10:00 AM - 9:00 PM, Tue 10:00 AM - 9:00 PM, Wed 10:00 AM - 9:00 PM, Thu 10:00 AM - 9:00 PM, Fri 10:00 AM - 9:00 PM, Sat 10:00 AM - 9:00 PM",,,0
LCBO Store # 534,534,2290 DUNDAS STREET WEST,,TORONTO-CENTRAL,,M6R 1X3,Canada,416-537-1500,,,"Sun 11:00 AM - 6:00 PM, Mon 10:00 AM - 9:00 PM, Tue 10:00 AM - 9:00 PM, Wed 10:00 AM - 9:00 PM, Thu 10:00 AM - 9:00 PM, Fri 10:00 AM - 9:00 PM, Sat 10:00 AM - 9:00 PM",,,0
LCBO Store # 641,641,501 APPLEBY LINE,,BURLINGTON,,L7L 2Y1,Canada,905-639-0337,,,"Sun 11:00 AM - 6:00 PM, Mon 10:00 AM - 10:00 PM, Tue 10:00 AM - 10:00 PM, Wed 10:00 AM - 10:00 PM, Thu 10:00 AM - 10:00 PM, Fri 10:00 AM - 10:00 PM, Sat 10:00 AM - 10:00 PM",,,0
LCBO Store # 117,117,25 LORNE STREET SOUTHP.O. BOX 1707,,CHAPLEAU,,P0M 1K0,Canada,705-864-0392,,,"Sun Closed - , Mon Closed - , Tue 10:00 AM - 6:00 PM, Wed 10:00 AM - 6:00 PM, Thu 10:00 AM - 6:00 PM, Fri 10:00 AM - 8:00 PM, Sat 10:00 AM - 6:00 PM",,,0
LCBO Store # 262,262,17 PLAZA DRIVEP.O. BOX 158,,IROQUOIS,,K0E 1K0,Canada,613-652-4549,,,"Sun 11:00 AM - 6:00 PM, Mon 10:00 AM - 6:00 PM, Tue 10:00 AM - 6:00 PM, Wed 10:00 AM - 6:00 PM, Thu 10:00 AM - 6:00 PM, Fri 10:00 AM - 9:00 PM, Sat 10:00 AM - 6:00 PM",,,0
LCBO Store # 127,127,15 MAIN STREETP.O. BOX MORRISBURG SHOPPING CENTRE,,MORRISBURG,,K0C 1X0,Canada,613-543-2552,,,"Sun 11:00 AM - 6:00 PM, Mon 10:00 AM - 6:00 PM, Tue 10:00 AM - 6:00 PM, Wed 10:00 AM - 6:00 PM, Thu 10:00 AM - 6:00 PM, Fri 10:00 AM - 8:00 PM, Sat 10:00 AM - 6:00 PM",,,0
LCBO Store # 80,80,19 SEGUIN STREET,,PARRY SOUND,,P2A 1B2,Canada,705-746-5591,,,"Sun 11:00 AM - 6:00 PM, Mon 10:00 AM - 6:00 PM, Tue 10:00 AM - 6:00 PM, Wed 10:00 AM - 6:00 PM, Thu 10:00 AM - 6:00 PM, Fri 10:00 AM - 9:00 PM, Sat 10:00 AM - 6:00 PM",,,0
LCBO Store # 403,403,115 MEDORA STREETP O BOX 70,,PORT CARLING,,P0B 1J0,Canada,705-765-5222,,,"Sun 11:00 AM - 6:00 PM, Mon 10:00 AM - 6:00 PM, Tue 10:00 AM - 6:00 PM, Wed 10:00 AM - 6:00 PM, Thu 10:00 AM - 6:00 PM, Fri 10:00 AM - 6:00 PM, Sat 10:00 AM - 6:00 PM",,,0
LCBO Store # 251,251,426 HIGH STREETP.O. BOX 129,,MACTIER,,P0C 1H0,Canada,705-375-2830,,,"Sun 11:00 AM - 6:00 PM, Mon 10:00 AM - 6:00 PM, Tue 10:00 AM - 6:00 PM, Wed 10:00 AM - 6:00 PM, Thu 10:00 AM - 6:00 PM, Fri 10:00 AM - 8:00 PM, Sat 10:00 AM - 6:00 PM",,,0
LCBO Store # 516,516,2641 MUSKOKA ROAD 117 EASTP.O. BOX 171,,BAYSVILLE,,P0B 1A0,Canada,705-767-3866,,,"Sun 11:00 AM - 6:00 PM, Mon 10:00 AM - 6:00 PM, Tue 10:00 AM - 6:00 PM, Wed 10:00 AM - 6:00 PM, Thu 10:00 AM - 6:00 PM, Fri 10:00 AM - 8:00 PM, Sat 10:00 AM - 6:00 PM",,,0
LCBO Store # 130,130,125 MUSKOKA ROAD 118 WEST,,BRACEBRIDGE,,P1L 1T4,Canada,705-645-6956,,,"Sun 11:00 AM - 6:00 PM, Mon 10:00 AM - 8:00 PM, Tue 10:00 AM - 8:00 PM, Wed 10:00 AM - 8:00 PM, Thu 10:00 AM - 9:00 PM, Fri 10:00 AM - 9:00 PM, Sat 10:00 AM - 8:00 PM",,,0
LCBO Store # 219,219,3132 HWY 169P.O. BOX 379,,BALA,,P0C 1A0,Canada,705-762-3220,,,"Sun 11:00 AM - 6:00 PM, Mon 10:00 AM - 6:00 PM, Tue 10:00 AM - 6:00 PM, Wed 10:00 AM - 6:00 PM, Thu 10:00 AM - 6:00 PM, Fri 10:00 AM - 6:00 PM, Sat 10:00 AM - 6:00 PM",,,0
LCBO Store # 399,399,1059 MAIN STREETP.O. BOX 118,,DORSET,,P0A 1E0,Canada,705-766-2471,,,"Sun 11:00 AM - 6:00 PM, Mon 10:00 AM - 6:00 PM, Tue 10:00 AM - 6:00 PM, Wed 10:00 AM - 6:00 PM, Thu 10:00 AM - 6:00 PM, Fri 10:00 AM - 6:00 PM, Sat 10:00 AM - 6:00 PM",,,0
LCBO Store # 323,323,HWY. 69P.O. BOX 8,,POINTE AU BARIL,,P0G 1K0,Canada,705-366-2364,,,"Sun 11:00 AM - 6:00 PM, Mon 10:00 AM - 6:00 PM, Tue 10:00 AM - 6:00 PM, Wed 10:00 AM - 6:00 PM, Thu 10:00 AM - 6:00 PM, Fri 10:00 AM - 6:00 PM, Sat 10:00 AM - 6:00 PM",,,0
LCBO Store # 102,102,155 EDWARD STREET,,GRAVENHURST,,P1P 1K8,Canada,705-687-2641,,,"Sun 11:00 AM - 6:00 PM, Mon 10:00 AM - 6:00 PM, Tue 10:00 AM - 6:00 PM, Wed 10:00 AM - 6:00 PM, Thu 10:00 AM - 6:00 PM, Fri 10:00 AM - 8:00 PM, Sat 10:00 AM - 6:00 PM",,,0
LCBO Store # 677,677,15 YORK STREET,,TORONTO-CENTRAL,,M5J 0A3,Canada,416-594-3838,,,"Sun 11:00 AM - 6:00 PM, Mon 10:00 AM - 9:00 PM, Tue 10:00 AM - 9:00 PM, Wed 10:00 AM - 9:00 PM, Thu 10:00 AM - 9:00 PM, Fri 10:00 AM - 9:00 PM, Sat 10:00 AM - 9:00 PM",,,0
LCBO Store # 217,217,2 COOPER STREETQUEEN'S QUAY,,TORONTO-CENTRAL,,M5E 0B8,Canada,416-864-6777,,,"Sun 11:00 AM - 6:00 PM, Mon 9:00 AM - 9:00 PM, Tue 9:00 AM - 10:00 PM, Wed 9:00 AM - 10:00 PM, Thu 9:00 AM - 10:00 PM, Fri 9:00 AM - 10:00 PM, Sat 9:00 AM - 10:00 PM",,,0
LCBO Store # 483,483,"200 BAY STREET, UNIT 115",,TORONTO-CENTRAL,,M5J 2J2,Canada,416-368-9644,,,"Sun Closed - , Mon 9:00 AM - 8:00 PM, Tue 9:00 AM - 8:00 PM, Wed 9:00 AM - 8:00 PM, Thu 9:00 AM - 8:00 PM, Fri 9:00 AM - 9:00 PM, Sat 10:00 AM - 8:00 PM",,,0
LCBO Store # 532,532,87 FRONT STREET E.ST. LAWRENCE MARKET,,TORONTO-CENTRAL,,M5B 1B8,Canada,416-368-0521,,,"Sun 11:00 AM - 6:00 PM, Mon 9:00 AM - 9:00 PM, Tue 9:00 AM - 9:00 PM, Wed 9:00 AM - 9:00 PM, Thu 9:00 AM - 9:00 PM, Fri 9:00 AM - 9:00 PM, Sat 9:00 AM - 9:00 PM",,,0
LCBO Store # 333,333,100 KING STREET WESTLOWER CONCOURSE,,TORONTO-CENTRAL,,M5X 1B1,Canada,416-594-9040,,,"Sun Closed - , Mon 10:00 AM - 6:00 PM, Tue 10:00 AM - 6:00 PM, Wed 10:00 AM - 6:00 PM, Thu 10:00 AM - 7:00 PM, Fri 10:00 AM - 7:00 PM, Sat Closed - ",,,0
LCBO Store # 511,511,415 KING STREET WEST,,TORONTO-CENTRAL,,M5V 1K1,Canada,416-598-1482,,,"Sun 11:00 AM - 6:00 PM, Mon 9:30 AM - 9:00 PM, Tue 9:30 AM - 11:00 PM, Wed 9:30 AM - 11:00 PM, Thu 9:30 AM - 11:00 PM, Fri 9:30 AM - 11:00 PM, Sat 9:30 AM - 11:00 PM",,,0
LCBO Store # 17,17,222 FRONT STREET EAST,,TORONTO-CENTRAL,,M5A 1E7,Canada,416-214-0311,,,"Sun 12:00 PM - 6:00 PM, Mon 10:00 AM - 9:00 PM, Tue 10:00 AM - 9:00 PM, Wed 10:00 AM - 9:00 PM, Thu 10:00 AM - 10:00 PM, Fri 10:00 AM - 10:00 PM, Sat 10:00 AM - 10:00 PM",,,0
LCBO Store # 656,656,619 QUEEN STREET WEST,,TORONTO-CENTRAL,,M5V 2B7,Canada,416-363-6604,,,"Sun 11:00 AM - 6:00 PM, Mon 10:00 AM - 9:00 PM, Tue 10:00 AM - 10:00 PM, Wed 10:00 AM - 10:00 PM, Thu 10:00 AM - 10:00 PM, Fri 10:00 AM - 10:00 PM, Sat 10:00 AM - 10:00 PM",,,0
LCBO Store # 568,568,595 BAY STREETLOWER CONCOURSE,,TORONTO-CENTRAL,,M5G 2C2,Canada,416-979-9978,,,"Sun 11:00 AM - 6:00 PM, Mon 10:00 AM - 9:00 PM, Tue 10:00 AM - 10:00 PM, Wed 10:00 AM - 10:00 PM, Thu 10:00 AM - 10:00 PM, Fri 10:00 AM - 10:00 PM, Sat 10:00 AM - 10:00 PM",,,0
LCBO Store # 18,18,"85 HANNA AVENUE, UNIT 103",,TORONTO-CENTRAL,,M6K 3S3,Canada,416-538-9200,,,"Sun 11:00 AM - 6:00 PM, Mon 9:30 AM - 9:00 PM, Tue 9:30 AM - 10:00 PM, Wed 9:30 AM - 10:00 PM, Thu 9:30 AM - 10:00 PM, Fri 9:30 AM - 10:00 PM, Sat 9:30 AM - 10:00 PM",,,0
LCBO Store # 14,14,337 SPADINA AVENUE,,TORONTO-CENTRAL,,M5T 2E9,Canada,416-597-0145,,,"Sun 12:00 PM - 6:00 PM, Mon 10:00 AM - 9:00 PM, Tue 10:00 AM - 9:00 PM, Wed 10:00 AM - 9:00 PM, Thu 10:00 AM - 9:00 PM, Fri 10:00 AM - 10:00 PM, Sat 10:00 AM - 10:00 PM",,,0
LCBO Store # 646,646,777 BAY STREET,,TORONTO-CENTRAL,,M5G 2C8,Canada,416-593-9076,,,"Sun 12:00 PM - 5:00 PM, Mon 9:00 AM - 9:00 PM, Tue 9:00 AM - 9:00 PM, Wed 9:00 AM - 9:00 PM, Thu 9:00 AM - 9:00 PM, Fri 9:00 AM - 9:00 PM, Sat 9:00 AM - 6:00 PM",,,0
LCBO Store # 614,614,60 CARLTON ST (SECOND FLOOR),,TORONTO-CENTRAL,,M5B 2H5,Canada,416-599-1967,,,"Sun 11:00 AM - 6:00 PM, Mon 9:30 AM - 9:00 PM, Tue 9:30 AM - 10:00 PM, Wed 9:30 AM - 10:00 PM, Thu 9:30 AM - 10:00 PM, Fri 9:30 AM - 10:00 PM, Sat 9:30 AM - 10:00 PM",,,0
LCBO Store # 673,673,776 QUEEN STREET EAST,,TORONTO-CENTRAL,,M4M 1H4,Canada,416-465-6943,,,"Sun 12:00 PM - 5:00 PM, Mon 10:00 AM - 9:00 PM, Tue 10:00 AM - 9:00 PM, Wed 10:00 AM - 9:00 PM, Thu 10:00 AM - 9:00 PM, Fri 10:00 AM - 9:00 PM, Sat 9:30 AM - 9:00 PM",,,0
LCBO Store # 639,639,549 COLLEGE STREET,,TORONTO-CENTRAL,,M6G 1A9,Canada,416-922-8711,,,"Sun 12:00 PM - 6:00 PM, Mon 10:00 AM - 9:00 PM, Tue 10:00 AM - 9:00 PM, Wed 10:00 AM - 9:00 PM, Thu 10:00 AM - 9:00 PM, Fri 10:00 AM - 9:00 PM, Sat 10:00 AM - 9:00 PM",,,0
LCBO Store # 411,411,547 YONGE STREET,,TORONTO-CENTRAL,,M4Y 1Y5,Canada,416-923-8498,,,"Sun 11:00 AM - 6:00 PM, Mon 10:00 AM - 9:00 PM, Tue 10:00 AM - 10:00 PM, Wed 10:00 AM - 10:00 PM, Thu 10:00 AM - 10:00 PM, Fri 10:00 AM - 10:00 PM, Sat 10:00 AM - 10:00 PM",,,0
LCBO Store # 12,12,512 PARLIAMENT STREET   A,,TORONTO-CENTRAL,,M4X 1P4,Canada,416-923-6966,,,"Sun 11:00 AM - 6:00 PM, Mon 10:00 AM - 9:00 PM, Tue 10:00 AM - 9:00 PM, Wed 10:00 AM - 9:00 PM, Thu 10:00 AM - 9:00 PM, Fri 10:00 AM - 9:00 PM, Sat 10:00 AM - 9:00 PM",,,0
LCBO Store # 3,3,1230 DUNDAS STREET WEST,,TORONTO-CENTRAL,,M6J 1X5,Canada,416-536-4634,,,"Sun 12:00 PM - 6:00 PM, Mon 10:00 AM - 9:00 PM, Tue 10:00 AM - 9:00 PM, Wed 10:00 AM - 9:00 PM, Thu 10:00 AM - 9:00 PM, Fri 10:00 AM - 9:00 PM, Sat 9:30 AM - 9:00 PM",,,0
LCBO Store # 6,6,1357 QUEEN ST. W.,,TORONTO-CENTRAL,,M6K 1M1,Canada,416-532-7283,,,"Sun 11:00 AM - 6:00 PM, Mon 10:00 AM - 9:00 PM, Tue 10:00 AM - 9:00 PM, Wed 10:00 AM - 9:00 PM, Thu 10:00 AM - 10:00 PM, Fri 10:00 AM - 10:00 PM, Sat 10:00 AM - 10:00 PM",,,0
LCBO Store # 528,528,55 BLOOR STREET WESTMANULIFE CENTRE,,TORONTO-CENTRAL,,M4W 1A5,Canada,416-925-5266,,,"Sun 11:00 AM - 6:00 PM, Mon 10:00 AM - 8:00 PM, Tue 10:00 AM - 8:00 PM, Wed 10:00 AM - 8:00 PM, Thu 10:00 AM - 9:00 PM, Fri 10:00 AM - 9:00 PM, Sat 10:00 AM - 9:00 PM",,,0
LCBO Store # 512,512,20 BLOOR STREET EASTSHOPPING CONCOURSE LEVEL,,TORONTO-CENTRAL,,M4W 3G7,Canada,416-925-1434,,,"Sun 11:00 AM - 6:00 PM, Mon 10:00 AM - 8:00 PM, Tue 10:00 AM - 8:00 PM, Wed 10:00 AM - 8:00 PM, Thu 10:00 AM - 9:00 PM, Fri 10:00 AM - 9:00 PM, Sat 10:00 AM - 6:00 PM",,,0
LCBO Store # 11,11,932 GERRARD STREET EAST,,TORONTO-CENTRAL,,M4M 1Z2,Canada,416-466-1209,,,"Sun 11:00 AM - 6:00 PM, Mon 10:00 AM - 8:00 PM, Tue 10:00 AM - 8:00 PM, Wed 10:00 AM - 8:00 PM, Thu 10:00 AM - 9:00 PM, Fri 10:00 AM - 9:00 PM, Sat 10:00 AM - 9:00 PM",,,0
LCBO Store # 9,9,879 BLOOR STREET WEST,,TORONTO-CENTRAL,,M6G 1M4,Canada,416-536-4340,,,"Sun 12:00 PM - 6:00 PM, Mon 10:00 AM - 9:00 PM, Tue 10:00 AM - 9:00 PM, Wed 10:00 AM - 9:00 PM, Thu 10:00 AM - 9:00 PM, Fri 10:00 AM - 9:00 PM, Sat 10:00 AM - 9:00 PM",,,0
LCBO Store # 4,4,200 DANFORTH AVENUE,,TORONTO-CENTRAL,,M4K 1N5,Canada,416-469-4724,,,"Sun 11:00 AM - 6:00 PM, Mon 9:30 AM - 9:00 PM, Tue 9:30 AM - 10:00 PM, Wed 9:30 AM - 10:00 PM, Thu 9:30 AM - 10:00 PM, Fri 9:30 AM - 10:00 PM, Sat 9:30 AM - 10:00 PM",,,0
LCBO Store # 15,15,232 DUPONT STREET,,TORONTO-CENTRAL,,M5R 1V7,Canada,416-922-7066,,,"Sun 11:00 AM - 6:00 PM, Mon 10:00 AM - 10:00 PM, Tue 10:00 AM - 10:00 PM, Wed 10:00 AM - 10:00 PM, Thu 10:00 AM - 10:00 PM, Fri 10:00 AM - 10:00 PM, Sat 10:00 AM - 10:00 PM",,,0
LCBO Store # 10,10,10 SCRIVENER SQUARESUMMERHILL SUBWAY,,TORONTO-CENTRAL,,M4W 3Y9,Canada,416-922-0403,,,"Sun 11:00 AM - 6:00 PM, Mon 9:30 AM - 9:00 PM, Tue 9:30 AM - 10:00 PM, Wed 9:30 AM - 10:00 PM, Thu 9:30 AM - 10:00 PM, Fri 9:30 AM - 10:00 PM, Sat 9:00 AM - 10:00 PM",,,0
LCBO Store # 5,5,1654 QUEEN STREET EAST,,TORONTO-CENTRAL,,M4L 1G3,Canada,416-691-9758,,,"Sun 11:00 AM - 6:00 PM, Mon 10:00 AM - 10:00 PM, Tue 10:00 AM - 10:00 PM, Wed 10:00 AM - 10:00 PM, Thu 10:00 AM - 10:00 PM, Fri 10:00 AM - 10:00 PM, Sat 9:30 AM - 10:00 PM",,,0
LCBO Store # 572,572,1245 DUPONT STREETGALLERIA SHOPPING CENTRE,,TORONTO-CENTRAL,,M6H 2A6,Canada,416-537-1600,,,"Sun 11:00 AM - 6:00 PM, Mon 10:00 AM - 9:00 PM, Tue 10:00 AM - 9:00 PM, Wed 10:00 AM - 9:00 PM, Thu 10:00 AM - 9:00 PM, Fri 10:00 AM - 9:00 PM, Sat 10:00 AM - 9:00 PM",,,0
LCBO Store # 13,13,1145 DANFORTH AVENUE,,TORONTO-CENTRAL,,M4J 1M5,Canada,416-466-9958,,,"Sun 11:00 AM - 6:00 PM, Mon 10:00 AM - 9:00 PM, Tue 10:00 AM - 9:00 PM, Wed 10:00 AM - 9:00 PM, Thu 10:00 AM - 10:00 PM, Fri 10:00 AM - 10:00 PM, Sat 10:00 AM - 10:00 PM",,,0
LCBO Store # 651,651,111 ST. CLAIR AVENUE WEST,,TORONTO-TORONTO - CENTRAL,,M4V 1N5,Canada,416-925-3156,,,"Sun 11:00 AM - 6:00 PM, Mon 10:00 AM - 9:00 PM, Tue 10:00 AM - 9:00 PM, Wed 10:00 AM - 9:00 PM, Thu 10:00 AM - 9:00 PM, Fri 10:00 AM - 9:00 PM, Sat 10:00 AM - 9:00 PM",,,0
LCBO Store # 2,2,396 ST. CLAIR AVE. WEST,,TORONTO-CENTRAL,,M5P 3N3,Canada,416-653-0220,,,"Sun 11:00 AM - 6:00 PM, Mon 10:00 AM - 9:00 PM, Tue 10:00 AM - 10:00 PM, Wed 10:00 AM - 10:00 PM, Thu 10:00 AM - 10:00 PM, Fri 10:00 AM - 10:00 PM, Sat 10:00 AM - 10:00 PM",,,0
LCBO Store # 697,697,1986 QUEEN STREET EASTQUEEN AND WAVERLEY,,TORONTO-CENTRAL,,M4L 1J2,Canada,416-690-9876,,,"Sun 11:00 AM - 6:00 PM, Mon 10:00 AM - 9:00 PM, Tue 10:00 AM - 9:00 PM, Wed 10:00 AM - 9:00 PM, Thu 10:00 AM - 9:00 PM, Fri 10:00 AM - 9:00 PM, Sat 9:00 AM - 9:00 PM",,,0
LCBO Store # 8,8,908 ST. CLAIR AVENUE WEST,,TORONTO-CENTRAL,,M6C 1C6,Canada,416-654-4240,,,"Sun 11:00 AM - 6:00 PM, Mon 10:00 AM - 9:00 PM, Tue 10:00 AM - 9:00 PM, Wed 10:00 AM - 9:00 PM, Thu 10:00 AM - 9:00 PM, Fri 10:00 AM - 9:00 PM, Sat 10:00 AM - 9:00 PM",,,0
LCBO Store # 341,341,420 SPADINA ROAD,,TORONTO-CENTRAL,,M5P 2W2,Canada,416-487-4100,,,"Sun 11:00 AM - 6:00 PM, Mon 10:00 AM - 9:00 PM, Tue 10:00 AM - 9:00 PM, Wed 10:00 AM - 9:00 PM, Thu 10:00 AM - 9:00 PM, Fri 10:00 AM - 9:00 PM, Sat 10:00 AM - 9:00 PM",,,0
LCBO Store # 485,485,1009 COXWELL AVE,,TORONTO-CENTRAL,,M4C 3G4,Canada,416-423-5213,,,"Sun 11:00 AM - 6:00 PM, Mon 10:00 AM - 9:00 PM, Tue 10:00 AM - 9:00 PM, Wed 10:00 AM - 9:00 PM, Thu 10:00 AM - 9:00 PM, Fri 10:00 AM - 9:00 PM, Sat 10:00 AM - 9:00 PM",,,0
LCBO Store # 650,650,1524 BAYVIEW AVENUE,,TORONTO-CENTRAL,,M4G 3B4,Canada,416-483-4700,,,"Sun 11:00 AM - 6:00 PM, Mon 10:00 AM - 9:00 PM, Tue 10:00 AM - 9:00 PM, Wed 10:00 AM - 9:00 PM, Thu 10:00 AM - 9:00 PM, Fri 10:00 AM - 9:00 PM, Sat 10:00 AM - 9:00 PM",,,0
LCBO Store # 636,636,333 EGLINTON AVENUE WESTEGLINTON PLACE,,TORONTO-CENTRAL,,M5N 1A1,Canada,416-488-4700,,,"Sun 12:00 PM - 6:00 PM, Mon 10:00 AM - 9:00 PM, Tue 10:00 AM - 9:00 PM, Wed 10:00 AM - 9:00 PM, Thu 10:00 AM - 9:00 PM, Fri 10:00 AM - 9:00 PM, Sat 10:00 AM - 9:00 PM",,,0
LCBO Store # 7,7,101 EGLINTON AVENUE EASTYONGE AND EGLINTON,,TORONTO-CENTRAL,,M4P 1H4,Canada,416-482-1800,,,"Sun 12:00 PM - 5:00 PM, Mon 10:00 AM - 9:00 PM, Tue 10:00 AM - 9:00 PM, Wed 10:00 AM - 9:00 PM, Thu 10:00 AM - 9:00 PM, Fri 10:00 AM - 9:00 PM, Sat 10:00 AM - 9:00 PM",,,0
LCBO Store # 320,320,45 OVERLEA BOULEVARDEAST YORK TOWN CENTRE,,TORONTO-CENTRAL,,M4H 1C3,Canada,416-421-2238,,,"Sun 11:00 AM - 5:00 PM, Mon 10:00 AM - 9:00 PM, Tue 10:00 AM - 9:00 PM, Wed 10:00 AM - 9:00 PM, Thu 10:00 AM - 9:00 PM, Fri 10:00 AM - 9:00 PM, Sat 9:30 AM - 6:00 PM",,,0
LCBO Store # 457,457,2300 YONGE STREETYONGE EGLINTON CENTRE,,TORONTO-CENTRAL,,M4P 1E4,Canada,416-487-4858,,,"Sun 11:00 AM - 6:00 PM, Mon 10:00 AM - 9:00 PM, Tue 10:00 AM - 9:00 PM, Wed 10:00 AM - 9:00 PM, Thu 10:00 AM - 9:00 PM, Fri 10:00 AM - 9:00 PM, Sat 10:00 AM - 9:00 PM",,,0
LCBO Store # 164,164,65 WICKSTEED AVENUE,,TORONTO-CENTRAL,,M4G 4K1,Canada,416-425-6282,,,"Sun 11:00 AM - 6:00 PM, Mon 9:00 AM - 9:00 PM, Tue 9:00 AM - 9:00 PM, Wed 9:00 AM - 9:00 PM, Thu 9:00 AM - 9:00 PM, Fri 9:00 AM - 9:00 PM, Sat 9:00 AM - 9:00 PM",,,0
LCBO Store # 163,163,3111 DANFORTH AVENUE,,TORONTO-SCARBOROUGH,,M1L 1A9,Canada,416-699-7003,,,"Sun 11:00 AM - 6:00 PM, Mon 10:00 AM - 10:00 PM, Tue 10:00 AM - 10:00 PM, Wed 10:00 AM - 10:00 PM, Thu 10:00 AM - 10:00 PM, Fri 10:00 AM - 10:00 PM, Sat 10:00 AM - 10:00 PM",,,0
LCBO Store # 93,93,1105 THOMPSON ROAD,,FORT ERIE,,L2A 6T7,Canada,905-871-0562,,,"Sun 11:00 AM - 6:00 PM, Mon 10:00 AM - 9:00 PM, Tue 10:00 AM - 9:00 PM, Wed 10:00 AM - 9:00 PM, Thu 10:00 AM - 9:00 PM, Fri 10:00 AM - 9:00 PM, Sat 10:00 AM - 9:00 PM",,,0
LCBO Store # 33,33,7481 OAKWOOD DRIVE,,NIAGARA FALLS,,L2E 6S5,Canada,905-354-7621,,,"Sun 11:00 AM - 6:00 PM, Mon 10:00 AM - 9:00 PM, Tue 10:00 AM - 9:00 PM, Wed 10:00 AM - 9:00 PM, Thu 10:00 AM - 9:00 PM, Fri 10:00 AM - 9:00 PM, Sat 10:00 AM - 9:00 PM",,,0
LCBO Store # 586,586,5389 FERRY STREETFERRY STREET PLAZA,,NIAGARA FALLS,,L2G 1R9,Canada,905-357-4360,,,"Sun 11:00 AM - 6:00 PM, Mon 10:00 AM - 10:00 PM, Tue 10:00 AM - 10:00 PM, Wed 10:00 AM - 10:00 PM, Thu 10:00 AM - 10:00 PM, Fri 10:00 AM - 10:00 PM, Sat 10:00 AM - 10:00 PM",,,0
LCBO Store # 48,48,4694 VICTORIA AVENUE,,NIAGARA FALLS,,L2E 4B9,Canada,905-358-8532,,,"Sun 11:00 AM - 6:00 PM, Mon 10:00 AM - 6:00 PM, Tue 10:00 AM - 6:00 PM, Wed 10:00 AM - 6:00 PM, Thu 10:00 AM - 8:00 PM, Fri 10:00 AM - 8:00 PM, Sat 10:00 AM - 8:00 PM",,,0
LCBO Store # 52,52,815 ONTARIO ROADROSE CITY PLAZA,,WELLAND,,L3B 5V6,Canada,905-734-3132,,,"Sun 11:00 AM - 6:00 PM, Mon 10:00 AM - 6:00 PM, Tue 10:00 AM - 6:00 PM, Wed 10:00 AM - 6:00 PM, Thu 10:00 AM - 6:00 PM, Fri 10:00 AM - 8:00 PM, Sat 10:00 AM - 6:00 PM",,,0
LCBO Store # 401,401,3714 PORTAGE ROAD,,NIAGARA FALLS,,L2J 2K9,Canada,905-356-3972,,,"Sun 11:00 AM - 6:00 PM, Mon 10:00 AM - 9:00 PM, Tue 10:00 AM - 9:00 PM, Wed 10:00 AM - 9:00 PM, Thu 10:00 AM - 9:00 PM, Fri 10:00 AM - 9:00 PM, Sat 10:00 AM - 9:00 PM",,,0
LCBO Store # 24,24,144 CLARENCE STREET,,PORT COLBORNE,,L3K 3G5,Canada,905-834-4643,,,"Sun 11:00 AM - 6:00 PM, Mon 10:00 AM - 6:00 PM, Tue 10:00 AM - 6:00 PM, Wed 10:00 AM - 6:00 PM, Thu 10:00 AM - 6:00 PM, Fri 10:00 AM - 8:00 PM, Sat 10:00 AM - 6:00 PM",,,0
LCBO Store # 312,312,200 FITCH STREETWELLAND SHOPPING CENTRE,,WELLAND,,L3C 4V9,Canada,905-732-3266,,,"Sun 11:00 AM - 6:00 PM, Mon 10:00 AM - 9:00 PM, Tue 10:00 AM - 9:00 PM, Wed 10:00 AM - 9:00 PM, Thu 10:00 AM - 9:00 PM, Fri 10:00 AM - 9:00 PM, Sat 10:00 AM - 9:00 PM",,,0
LCBO Store # 509,509,114 HIGHWAY #20 EASTP.O. BOX 799,,FONTHILL,,L0S 1E0,Canada,905-892-5505,,,"Sun 11:00 AM - 6:00 PM, Mon 10:00 AM - 8:00 PM, Tue 10:00 AM - 8:00 PM, Wed 10:00 AM - 8:00 PM, Thu 10:00 AM - 9:00 PM, Fri 10:00 AM - 9:00 PM, Sat 10:00 AM - 9:00 PM",,,0
LCBO Store # 252,252,343 GLENDALE AVE.,,ST. CATHARINES,,L2T 0A1,Canada,905-641-1169,,,"Sun 11:00 AM - 6:00 PM, Mon 10:00 AM - 10:00 PM, Tue 10:00 AM - 10:00 PM, Wed 10:00 AM - 10:00 PM, Thu 10:00 AM - 10:00 PM, Fri 10:00 AM - 10:00 PM, Sat 10:00 AM - 10:00 PM",,,0
LCBO Store # 47,47,189 KING STREET EAST,,ST. CATHARINES,,L2R 3J5,Canada,905-682-5801,,,"Sun 11:00 AM - 6:00 PM, Mon 10:00 AM - 9:00 PM, Tue 10:00 AM - 9:00 PM, Wed 10:00 AM - 9:00 PM, Thu 10:00 AM - 9:00 PM, Fri 10:00 AM - 9:00 PM, Sat 10:00 AM - 9:00 PM",,,0
LCBO Store # 392,392,420 VANSICKLE ROAD,,ST. CATHARINES,,L2R 6P9,Canada,905-685-8000,,,"Sun 11:00 AM - 6:00 PM, Mon 10:00 AM - 9:00 PM, Tue 10:00 AM - 9:00 PM, Wed 10:00 AM - 9:00 PM, Thu 10:00 AM - 9:00 PM, Fri 10:00 AM - 9:00 PM, Sat 10:00 AM - 9:00 PM",,,0
LCBO Store # 522,522,311 GENEVA STREET,,ST. CATHARINES,,L2N 2G1,Canada,905-646-1818,,,"Sun 11:00 AM - 6:00 PM, Mon 10:00 AM - 10:00 PM, Tue 10:00 AM - 10:00 PM, Wed 10:00 AM - 10:00 PM, Thu 10:00 AM - 10:00 PM, Fri 10:00 AM - 10:00 PM, Sat 10:00 AM - 10:00 PM",,,0
LCBO Store # 124,124,20 QUEEN STREETP.O. BOX 910,,NIAGARA-ON-THE-LAKE,,L0S 1J0,Canada,905-468-3321,,,"Sun 11:00 AM - 6:00 PM, Mon 10:00 AM - 6:00 PM, Tue 10:00 AM - 6:00 PM, Wed 10:00 AM - 6:00 PM, Thu 10:00 AM - 8:00 PM, Fri 10:00 AM - 8:00 PM, Sat 10:00 AM - 6:00 PM",,,0
LCBO Store # 467,467,115 LAKESHORE ROADNORTH END PLAZA,,ST. CATHARINES,,L2N 2T6,Canada,905-934-4822,,,"Sun 11:00 AM - 6:00 PM, Mon 10:00 AM - 6:00 PM, Tue 10:00 AM - 6:00 PM, Wed 10:00 AM - 6:00 PM, Thu 10:00 AM - 8:00 PM, Fri 10:00 AM - 9:00 PM, Sat 10:00 AM - 6:00 PM",,,0
LCBO Store # 446,446,4315 ONTARIO STREETP.O. BOX 940,,BEAMSVILLE,,L0R 1B0,Canada,905-563-4833,,,"Sun 11:00 AM - 6:00 PM, Mon 10:00 AM - 8:00 PM, Tue 10:00 AM - 8:00 PM, Wed 10:00 AM - 8:00 PM, Thu 10:00 AM - 9:00 PM, Fri 10:00 AM - 9:00 PM, Sat 10:00 AM - 9:00 PM",,,0
LCBO Store # 462,462,249 ST. CATHARINE ST.P.O. BOX 98,,SMITHVILLE,,L0R 2A0,Canada,905-957-3064,,,"Sun 11:00 AM - 6:00 PM, Mon 10:00 AM - 6:00 PM, Tue 10:00 AM - 6:00 PM, Wed 10:00 AM - 6:00 PM, Thu 10:00 AM - 8:00 PM, Fri 10:00 AM - 8:00 PM, Sat 10:00 AM - 6:00 PM",,,0
LCBO Store # 28,28,222 BROAD STREET EAST,,DUNNVILLE,,N1A 1G2,Canada,905-774-5312,,,"Sun 11:00 AM - 6:00 PM, Mon 10:00 AM - 6:00 PM, Tue 10:00 AM - 6:00 PM, Wed 10:00 AM - 6:00 PM, Thu 10:00 AM - 6:00 PM, Fri 10:00 AM - 9:00 PM, Sat 10:00 AM - 6:00 PM",,,0
LCBO Store # 101,101,25 ELM STREET,,GRIMSBY,,L3M 1H4,Canada,905-945-4845,,,"Sun 11:00 AM - 6:00 PM, Mon 10:00 AM - 9:00 PM, Tue 10:00 AM - 9:00 PM, Wed 10:00 AM - 9:00 PM, Thu 10:00 AM - 9:00 PM, Fri 10:00 AM - 9:00 PM, Sat 10:00 AM - 9:00 PM",,,0
LCBO Store # 332,332,112 QUEBEC STREETP.O. BOX 120,,NAKINA,,P0T 2H0,Canada,807-329-5366,,,"Sun Closed - , Mon Closed - , Tue 10:00 AM - 6:00 PM, Wed 10:00 AM - 6:00 PM, Thu 10:00 AM - 6:00 PM, Fri 10:00 AM - 6:00 PM, Sat 10:00 AM - 6:00 PM",,,0
LCBO Store # 180,180,222 MAIN STREETP.O. BOX 60,,BEARDMORE,,P0T 1G0,Canada,807-875-2090,,,"Sun Closed - , Mon Closed - , Tue 10:00 AM - 6:00 PM, Wed 10:00 AM - 6:00 PM, Thu 10:00 AM - 6:00 PM, Fri 10:00 AM - 6:00 PM, Sat 10:00 AM - 6:00 PM",,,0
LCBO Store # 129,129,100 MAIN STREETP.O. BOX 310,,GERALDTON,,P0T 1M0,Canada,807-854-1171,,,"Sun Closed - , Mon Closed - , Tue 10:00 AM - 6:00 PM, Wed 10:00 AM - 6:00 PM, Thu 10:00 AM - 6:00 PM, Fri 10:00 AM - 6:00 PM, Sat 10:00 AM - 6:00 PM",,,0
LCBO Store # 367,367,3165 HOWARD AVENUETHE ROUNDHOUSE CENTRE,,WINDSOR,,N8X 3Y9,Canada,519-972-1772,,,"Sun 11:00 AM - 6:00 PM, Mon 10:00 AM - 10:00 PM, Tue 10:00 AM - 10:00 PM, Wed 10:00 AM - 10:00 PM, Thu 10:00 AM - 10:00 PM, Fri 10:00 AM - 10:00 PM, Sat 10:00 AM - 10:00 PM",,,0
LCBO Store # 34,34,1320 WALKER ROAD,,WINDSOR,,N8Y 4T9,Canada,519-254-1543,,,"Sun 11:00 AM - 6:00 PM, Mon 10:00 AM - 9:00 PM, Tue 10:00 AM - 9:00 PM, Wed 10:00 AM - 9:00 PM, Thu 10:00 AM - 9:00 PM, Fri 10:00 AM - 9:00 PM, Sat 10:00 AM - 9:00 PM",,,0
LCBO Store # 490,490,7640 TECUMSEH RD. E.,,WINDSOR,,N8T 1E9,Canada,519-944-4014,,,"Sun 11:00 AM - 6:00 PM, Mon 10:00 AM - 9:00 PM, Tue 10:00 AM - 9:00 PM, Wed 10:00 AM - 9:00 PM, Thu 10:00 AM - 10:00 PM, Fri 10:00 AM - 10:00 PM, Sat 10:00 AM - 10:00 PM",,,0
LCBO Store # 539,539,1550 UNIT 4  HURON CHURCH ROADAMBASSADOR PLAZA,,WINDSOR,,N9C 3Z3,Canada,519-256-5335,,,"Sun 11:00 AM - 6:00 PM, Mon 10:00 AM - 9:00 PM, Tue 10:00 AM - 9:00 PM, Wed 10:00 AM - 9:00 PM, Thu 10:00 AM - 9:00 PM, Fri 10:00 AM - 9:00 PM, Sat 10:00 AM - 9:00 PM",,,0
LCBO Store # 32,32,400 UNIVERSITY AVENUE WEST,,WINDSOR,,N9A 5P8,Canada,519-253-2221,,,"Sun 11:00 AM - 6:00 PM, Mon 10:00 AM - 10:00 PM, Tue 10:00 AM - 10:00 PM, Wed 10:00 AM - 10:00 PM, Thu 10:00 AM - 10:00 PM, Fri 10:00 AM - 10:00 PM, Sat 10:00 AM - 10:00 PM",,,0
LCBO Store # 278,278,15 AMY CROFT,,TECUMSEH,,N9K 1C7,Canada,519-735-2661,,,"Sun 11:00 AM - 6:00 PM, Mon 10:00 AM - 9:00 PM, Tue 10:00 AM - 9:00 PM, Wed 10:00 AM - 9:00 PM, Thu 10:00 AM - 9:00 PM, Fri 10:00 AM - 9:00 PM, Sat 10:00 AM - 9:00 PM",,,0
LCBO Store # 370,370,1550 FRONT ROAD,,LASALLE,,N9J 2B6,Canada,519-734-8688,,,"Sun 11:00 AM - 6:00 PM, Mon 10:00 AM - 6:00 PM, Tue 10:00 AM - 6:00 PM, Wed 10:00 AM - 6:00 PM, Thu 10:00 AM - 9:00 PM, Fri 10:00 AM - 9:00 PM, Sat 10:00 AM - 9:00 PM",,,0
LCBO Store # 166,166,39 ARTHUR AVENUESOUTHDALE PLAZA,,ESSEX,,N8M 2N1,Canada,519-776-8102,,,"Sun 11:00 AM - 6:00 PM, Mon 10:00 AM - 6:00 PM, Tue 10:00 AM - 6:00 PM, Wed 10:00 AM - 6:00 PM, Thu 10:00 AM - 6:00 PM, Fri 10:00 AM - 9:00 PM, Sat 10:00 AM - 6:00 PM",,,0
LCBO Store # 109,109,495 SANDWICH STREET SOUTH,,AMHERSTBURG,,N9V 3G5,Canada,519-736-4171,,,"Sun 11:00 AM - 6:00 PM, Mon 10:00 AM - 6:00 PM, Tue 10:00 AM - 6:00 PM, Wed 10:00 AM - 6:00 PM, Thu 10:00 AM - 8:00 PM, Fri 10:00 AM - 9:00 PM, Sat 10:00 AM - 8:00 PM",,,0
LCBO Store # 193,193,"337 NOTRE DAME STREETP.O. BOX 280, BELLE RIVER PLAZA",,BELLE RIVER,,N0R 1A0,Canada,519-728-1550,,,"Sun 11:00 AM - 6:00 PM, Mon 10:00 AM - 6:00 PM, Tue 10:00 AM - 6:00 PM, Wed 10:00 AM - 6:00 PM, Thu 10:00 AM - 6:00 PM, Fri 10:00 AM - 9:00 PM, Sat 10:00 AM - 6:00 PM",,,0
LCBO Store # 141,141,119 KING STREET WESTP.O BOX 1057,,HARROW,,N0R 1G0,Canada,519-738-4113,,,"Sun 11:00 AM - 6:00 PM, Mon 10:00 AM - 6:00 PM, Tue 10:00 AM - 6:00 PM, Wed 10:00 AM - 6:00 PM, Thu 10:00 AM - 8:00 PM, Fri 10:00 AM - 8:00 PM, Sat 10:00 AM - 6:00 PM",,,0
LCBO Store # 286,286,410 MAIN STREET EAST,,KINGSVILLE,,N9Y 0C1,Canada,519-733-5223,,,"Sun 11:00 AM - 6:00 PM, Mon 10:00 AM - 6:00 PM, Tue 10:00 AM - 6:00 PM, Wed 10:00 AM - 6:00 PM, Thu 10:00 AM - 9:00 PM, Fri 10:00 AM - 9:00 PM, Sat 10:00 AM - 9:00 PM",,,0
LCBO Store # 153,153,16 SEACLIFF DR. EAST,,LEAMINGTON,,N8H 3C4,Canada,519-326-3481,,,"Sun 11:00 AM - 6:00 PM, Mon 10:00 AM - 9:00 PM, Tue 10:00 AM - 9:00 PM, Wed 10:00 AM - 9:00 PM, Thu 10:00 AM - 9:00 PM, Fri 10:00 AM - 9:00 PM, Sat 10:00 AM - 9:00 PM",,,0
LCBO Store # 126,126,34 QUEEN STREET SOUTHP.O. BOX 250,,TILBURY,,N0P 2L0,Canada,519-682-1451,,,"Sun 11:00 AM - 6:00 PM, Mon 10:00 AM - 6:00 PM, Tue 10:00 AM - 6:00 PM, Wed 10:00 AM - 6:00 PM, Thu 10:00 AM - 6:00 PM, Fri 10:00 AM - 8:00 PM, Sat 10:00 AM - 6:00 PM",,,0
LCBO Store # 372,372,676 HIGHWAY #3 EAST,,WHEATLEY,,N0P 2P0,Canada,519-825-4791,,,"Sun 11:00 AM - 6:00 PM, Mon 10:00 AM - 6:00 PM, Tue 10:00 AM - 6:00 PM, Wed 10:00 AM - 6:00 PM, Thu 10:00 AM - 6:00 PM, Fri 10:00 AM - 8:00 PM, Sat 10:00 AM - 6:00 PM",,,0
LCBO Store # 110,110,30 MCNAUGHTON AVENUE UNIT #10,,WALLACEBURG,,N8A 1R9,Canada,519-627-5211,,,"Sun 11:00 AM - 6:00 PM, Mon 10:00 AM - 6:00 PM, Tue 10:00 AM - 6:00 PM, Wed 10:00 AM - 6:00 PM, Thu 10:00 AM - 6:00 PM, Fri 10:00 AM - 9:00 PM, Sat 10:00 AM - 6:00 PM",,,0
LCBO Store # 120,120,1109 WESTSHORE ROAD,,PELEE ISLAND,,N0R 1M0,Canada,519-724-2961,,,"Sun Closed - , Mon 10:00 AM - 6:00 PM, Tue 10:00 AM - 6:00 PM, Wed 10:00 AM - 6:00 PM, Thu 10:00 AM - 6:00 PM, Fri 10:00 AM - 6:00 PM, Sat 10:00 AM - 6:00 PM",,,0
LCBO Store # 427,427,807 ST. CLAIR STREET,,CHATHAM,,N7L 0E9,Canada,519-354-9340,,,"Sun 11:00 AM - 6:00 PM, Mon 10:00 AM - 9:00 PM, Tue 10:00 AM - 9:00 PM, Wed 10:00 AM - 9:00 PM, Thu 10:00 AM - 9:00 PM, Fri 10:00 AM - 9:00 PM, Sat 10:00 AM - 9:00 PM",,,0
LCBO Store # 61,61,210 WELLINGTON STREET WEST,,CHATHAM,,N7M 1J6,Canada,519-354-3790,,,"Sun 11:00 AM - 6:00 PM, Mon 10:00 AM - 8:00 PM, Tue 10:00 AM - 8:00 PM, Wed 10:00 AM - 8:00 PM, Thu 10:00 AM - 8:00 PM, Fri 10:00 AM - 8:00 PM, Sat 10:00 AM - 8:00 PM",,,0
LCBO Store # 337,337,42 THOMPSON STREETP.O. BOX 250,,COURTRIGHT,,N0N 1H0,Canada,519-867-2771,,,"Sun Closed - , Mon 10:00 AM - 6:00 PM, Tue 10:00 AM - 6:00 PM, Wed 10:00 AM - 6:00 PM, Thu 10:00 AM - 6:00 PM, Fri 10:00 AM - 6:00 PM, Sat 10:00 AM - 6:00 PM",,,0
LCBO Store # 161,161,188 LINDSLEY STREET WESTP.O. BOX 638,,DRESDEN,,N0P 1M0,Canada,519-683-4472,,,"Sun 11:00 AM - 6:00 PM, Mon 10:00 AM - 6:00 PM, Tue 10:00 AM - 6:00 PM, Wed 10:00 AM - 6:00 PM, Thu 10:00 AM - 6:00 PM, Fri 10:00 AM - 9:00 PM, Sat 10:00 AM - 6:00 PM",,,0
LCBO Store # 706,706,995 PAISLEY ROAD,,GUELPH,,N1K 1X6,Canada,519-822-2662,,,"Sun 11:00 AM - 6:00 PM, Mon 10:00 AM - 9:00 PM, Tue 10:00 AM - 9:00 PM, Wed 10:00 AM - 9:00 PM, Thu 10:00 AM - 9:00 PM, Fri 10:00 AM - 9:00 PM, Sat 10:00 AM - 9:00 PM",,,0
LCBO Store # 51,51,16 WELLINGTON ST WEST -BUILDING B,,GUELPH,,N1H 3R9,Canada,519-822-4831,,,"Sun 11:00 AM - 6:00 PM, Mon 10:00 AM - 9:00 PM, Tue 10:00 AM - 9:00 PM, Wed 10:00 AM - 9:00 PM, Thu 10:00 AM - 9:00 PM, Fri 10:00 AM - 9:00 PM, Sat 10:00 AM - 9:00 PM",,,0
LCBO Store # 325,325,378 SPEEDVALE AVENUE EASTUNIT 1A,,GUELPH,,N1E 1N5,Canada,519-824-7900,,,"Sun 11:00 AM - 6:00 PM, Mon 10:00 AM - 9:00 PM, Tue 10:00 AM - 9:00 PM, Wed 10:00 AM - 9:00 PM, Thu 10:00 AM - 9:00 PM, Fri 10:00 AM - 9:00 PM, Sat 10:00 AM - 9:00 PM",,,0
LCBO Store # 495,495,615 SCOTTSDALE DRIVE,,GUELPH,,N1G 3P4,Canada,519-823-5080,,,"Sun 11:00 AM - 6:00 PM, Mon 10:00 AM - 10:00 PM, Tue 10:00 AM - 10:00 PM, Wed 10:00 AM - 10:00 PM, Thu 10:00 AM - 10:00 PM, Fri 10:00 AM - 10:00 PM, Sat 10:00 AM - 10:00 PM",,,0
LCBO Store # 634,634,50 CLAIR ROAD EAST,,GUELPH,,N1L 0G6,Canada,519-836-6492,,,"Sun 11:00 AM - 6:00 PM, Mon 10:00 AM - 9:00 PM, Tue 10:00 AM - 9:00 PM, Wed 10:00 AM - 9:00 PM, Thu 10:00 AM - 9:00 PM, Fri 10:00 AM - 9:00 PM, Sat 10:00 AM - 9:00 PM",,,0
LCBO Store # 344,344,"101 HOLIDAY INN DRIVE, UNIT C",,CAMBRIDGE,,N3C 1Z3,Canada,519-658-4261,,,"Sun 11:00 AM - 6:00 PM, Mon 10:00 AM - 9:00 PM, Tue 10:00 AM - 9:00 PM, Wed 10:00 AM - 9:00 PM, Thu 10:00 AM - 9:00 PM, Fri 10:00 AM - 9:00 PM, Sat 10:00 AM - 9:00 PM",,,0
LCBO Store # 544,544,1005 OTTAWA STREET NORTH  UNIT ASTANLEY PARK PLAZA,,KITCHENER,,N2A 1H2,Canada,519-893-6921,,,"Sun 11:00 AM - 6:00 PM, Mon 10:00 AM - 10:00 PM, Tue 10:00 AM - 10:00 PM, Wed 10:00 AM - 10:00 PM, Thu 10:00 AM - 10:00 PM, Fri 10:00 AM - 10:00 PM, Sat 10:00 AM - 10:00 PM",,,0
LCBO Store # 345,345,617 VICTORIA STREET NORTH,,KITCHENER,,N2H 5G3,Canada,519-744-7306,,,"Sun 11:00 AM - 6:00 PM, Mon 10:00 AM - 8:00 PM, Tue 10:00 AM - 8:00 PM, Wed 10:00 AM - 8:00 PM, Thu 10:00 AM - 9:00 PM, Fri 10:00 AM - 9:00 PM, Sat 10:00 AM - 9:00 PM",,,0
LCBO Store # 73,73,1145 KING STREET EAST,,CAMBRIDGE-PRESTON,,N3H 3P7,Canada,519-653-6921,,,"Sun 11:00 AM - 6:00 PM, Mon 10:00 AM - 8:00 PM, Tue 10:00 AM - 8:00 PM, Wed 10:00 AM - 8:00 PM, Thu 10:00 AM - 9:00 PM, Fri 10:00 AM - 9:00 PM, Sat 10:00 AM - 8:00 PM",,,0
LCBO Store # 381,381,655 FAIRWAY ROAD SOUTH,,KITCHENER,,N2C 1X4,Canada,519-894-0710,,,"Sun 11:00 AM - 6:00 PM, Mon 10:00 AM - 9:00 PM, Tue 10:00 AM - 9:00 PM, Wed 10:00 AM - 9:00 PM, Thu 10:00 AM - 9:00 PM, Fri 10:00 AM - 9:00 PM, Sat 10:00 AM - 9:00 PM",,,0
LCBO Store # 43,43,6-607 KING STREET WESTKING'S CROSSING PLAZA,,KITCHENER,,N2G 1C7,Canada,519-743-7551,,,"Sun Closed - , Mon 10:00 AM - 6:00 PM, Tue 10:00 AM - 6:00 PM, Wed 10:00 AM - 6:00 PM, Thu 10:00 AM - 6:00 PM, Fri 10:00 AM - 6:00 PM, Sat 10:00 AM - 6:00 PM",,,0
LCBO Store # 417,417,571 KING STREET NORTH,,WATERLOO,,N2L 5Z7,Canada,519-884-8511,,,"Sun 11:00 AM - 6:00 PM, Mon 10:00 AM - 10:00 PM, Tue 10:00 AM - 10:00 PM, Wed 10:00 AM - 10:00 PM, Thu 10:00 AM - 10:00 PM, Fri 10:00 AM - 10:00 PM, Sat 10:00 AM - 10:00 PM",,,0
LCBO Store # 617,617,721 OTTAWA STREET SOUTHALPINE CENTRE PLAZA,,KITCHENER,,N2E 0A9,Canada,519-576-4523,,,"Sun 11:00 AM - 6:00 PM, Mon 10:00 AM - 9:00 PM, Tue 10:00 AM - 9:00 PM, Wed 10:00 AM - 9:00 PM, Thu 10:00 AM - 9:00 PM, Fri 10:00 AM - 9:00 PM, Sat 10:00 AM - 9:00 PM",,,0
LCBO Store # 461,461,23 METCALFE STREETP.O. BOX 400,,ELORA,,N0B 1S0,Canada,519-846-0141,,,"Sun 11:00 AM - 6:00 PM, Mon 10:00 AM - 6:00 PM, Tue 10:00 AM - 6:00 PM, Wed 10:00 AM - 6:00 PM, Thu 10:00 AM - 8:00 PM, Fri 10:00 AM - 9:00 PM, Sat 10:00 AM - 6:00 PM",,,0
LCBO Store # 115,115,115 KING STREET SOUTH,,WATERLOO,,N2J 5A3,Canada,519-886-4970,,,"Sun 11:00 AM - 6:00 PM, Mon 10:00 AM - 10:00 PM, Tue 10:00 AM - 10:00 PM, Wed 10:00 AM - 10:00 PM, Thu 10:00 AM - 10:00 PM, Fri 10:00 AM - 10:00 PM, Sat 10:00 AM - 10:00 PM",,,0
LCBO Store # 549,549,324 HIGHLAND ROAD WEST UNIT 6HIGHLAND ROAD PLAZA,,KITCHENER,,N2M 5G2,Canada,519-745-8781,,,"Sun 11:00 AM - 6:00 PM, Mon 10:00 AM - 10:00 PM, Tue 10:00 AM - 10:00 PM, Wed 10:00 AM - 10:00 PM, Thu 10:00 AM - 10:00 PM, Fri 10:00 AM - 10:00 PM, Sat 10:00 AM - 10:00 PM",,,0
LCBO Store # 95,95,"200 FRANKLIN BLVD., UNIT FS 3",,CAMBRIDGE,,N1R 8N8,Canada,519-621-6330,,,"Sun 11:00 AM - 6:00 PM, Mon 10:00 AM - 9:00 PM, Tue 10:00 AM - 9:00 PM, Wed 10:00 AM - 9:00 PM, Thu 10:00 AM - 9:00 PM, Fri 10:00 AM - 9:00 PM, Sat 10:00 AM - 9:00 PM",,,0
LCBO Store # 382,382,#45 - 130 CEDAR STREETWESTGATE CENTRE PLAZA,,CAMBRIDGE,,N1S 1W4,Canada,519-621-4900,,,"Sun 11:00 AM - 6:00 PM, Mon 10:00 AM - 8:00 PM, Tue 10:00 AM - 8:00 PM, Wed 10:00 AM - 8:00 PM, Thu 10:00 AM - 9:00 PM, Fri 10:00 AM - 9:00 PM, Sat 10:00 AM - 9:00 PM",,,0
LCBO Store # 229,229,97 PARKSIDE DR WEST,,FERGUS,,N1M 3M5,Canada,519-843-1740,,,"Sun 11:00 AM - 6:00 PM, Mon 10:00 AM - 8:00 PM, Tue 10:00 AM - 8:00 PM, Wed 10:00 AM - 8:00 PM, Thu 10:00 AM - 9:00 PM, Fri 10:00 AM - 9:00 PM, Sat 10:00 AM - 8:00 PM",,,0
LCBO Store # 116,116,31 CHURCH STREET WEST,,ELMIRA,,N3B 1M2,Canada,519-669-5565,,,"Sun 11:00 AM - 6:00 PM, Mon 10:00 AM - 6:00 PM, Tue 10:00 AM - 6:00 PM, Wed 10:00 AM - 6:00 PM, Thu 10:00 AM - 9:00 PM, Fri 10:00 AM - 9:00 PM, Sat 10:00 AM - 6:00 PM",,,0
LCBO Store # 702,702,450 COLUMBIA ST WEST,,WATERLOO,,N2T 2W1,Canada,519-886-1559,,,"Sun 11:00 AM - 6:00 PM, Mon 10:00 AM - 9:00 PM, Tue 10:00 AM - 9:00 PM, Wed 10:00 AM - 9:00 PM, Thu 10:00 AM - 9:00 PM, Fri 10:00 AM - 9:00 PM, Sat 10:00 AM - 9:00 PM",,,0
LCBO Store # 491,491,235 IRA NEEDLES BLVDHIGHLAND AND IRA NEEDLES,,KITCHENER,,N2N 0B2,Canada,519-570-3912,,,"Sun 11:00 AM - 6:00 PM, Mon 10:00 AM - 9:00 PM, Tue 10:00 AM - 9:00 PM, Wed 10:00 AM - 9:00 PM, Thu 10:00 AM - 9:00 PM, Fri 10:00 AM - 9:00 PM, Sat 10:00 AM - 9:00 PM",,,0
LCBO Store # 297,297,256 QUEEN STREET,,ACTON,,L7J 1P6,Canada,519-853-0790,,,"Sun 11:00 AM - 6:00 PM, Mon 10:00 AM - 8:00 PM, Tue 10:00 AM - 8:00 PM, Wed 10:00 AM - 8:00 PM, Thu 10:00 AM - 9:00 PM, Fri 10:00 AM - 9:00 PM, Sat 10:00 AM - 9:00 PM",,,0
LCBO Store # 418,418,41 MAIN STREET,,ERIN,,N0B 1T0,Canada,519-833-9371,,,"Sun 11:00 AM - 6:00 PM, Mon 10:00 AM - 6:00 PM, Tue 10:00 AM - 6:00 PM, Wed 10:00 AM - 6:00 PM, Thu 10:00 AM - 8:00 PM, Fri 10:00 AM - 8:00 PM, Sat 10:00 AM - 6:00 PM",,,0
LCBO Store # 156,156,236 GUELPH ST. UNIT BDELREX MARKET CENTRE,,GEORGETOWN,,L7G 4B1,Canada,905-877-2721,,,"Sun 11:00 AM - 6:00 PM, Mon 10:00 AM - 9:00 PM, Tue 10:00 AM - 9:00 PM, Wed 10:00 AM - 9:00 PM, Thu 10:00 AM - 9:00 PM, Fri 10:00 AM - 9:00 PM, Sat 10:00 AM - 9:00 PM",,,0
LCBO Store # 354,354,366 WATERLOO STREET,,NEW HAMBURG,,N3A 1T6,Canada,519-662-1770,,,"Sun 11:00 AM - 6:00 PM, Mon 10:00 AM - 8:00 PM, Tue 10:00 AM - 8:00 PM, Wed 10:00 AM - 8:00 PM, Thu 10:00 AM - 9:00 PM, Fri 10:00 AM - 9:00 PM, Sat 10:00 AM - 8:00 PM",,,0
LCBO Store # 293,293,151 CATHERINE STREET WESTP.O. BOX 428,,ARTHUR,,N0G 1A0,Canada,519-848-2126,,,"Sun 11:00 AM - 6:00 PM, Mon 10:00 AM - 6:00 PM, Tue 10:00 AM - 6:00 PM, Wed 10:00 AM - 6:00 PM, Thu 10:00 AM - 8:00 PM, Fri 10:00 AM - 9:00 PM, Sat 10:00 AM - 8:00 PM",,,0
LCBO Store # 88,88,25 MECHANIC STREET,,PARIS,,N3L 1K1,Canada,519-442-2541,,,"Sun 11:00 AM - 6:00 PM, Mon 10:00 AM - 6:00 PM, Tue 10:00 AM - 6:00 PM, Wed 10:00 AM - 6:00 PM, Thu 10:00 AM - 8:00 PM, Fri 10:00 AM - 9:00 PM, Sat 10:00 AM - 8:00 PM",,,0
LCBO Store # 559,559,300 KING GEORGE ROADBRANTFORD MALL,,BRANTFORD,,N3R 5L8,Canada,519-756-3712,,,"Sun 11:00 AM - 6:00 PM, Mon 10:00 AM - 9:00 PM, Tue 10:00 AM - 9:00 PM, Wed 10:00 AM - 9:00 PM, Thu 10:00 AM - 9:00 PM, Fri 10:00 AM - 9:00 PM, Sat 10:00 AM - 9:00 PM",,,0
LCBO Store # 326,326,74 DUNDAS STREET EAST,,WATERDOWN,,L9H 0C2,Canada,905-689-6855,,,"Sun 11:00 AM - 6:00 PM, Mon 10:00 AM - 9:00 PM, Tue 10:00 AM - 9:00 PM, Wed 10:00 AM - 9:00 PM, Thu 10:00 AM - 9:00 PM, Fri 10:00 AM - 9:00 PM, Sat 10:00 AM - 9:00 PM",,,0
LCBO Store # 373,373,84 LYNDEN ROADLYNDEN PARK MALL,,BRANTFORD,,N3R 6B8,Canada,519-752-1779,,,"Sun 11:00 AM - 6:00 PM, Mon 10:00 AM - 9:00 PM, Tue 10:00 AM - 9:00 PM, Wed 10:00 AM - 9:00 PM, Thu 10:00 AM - 9:00 PM, Fri 10:00 AM - 9:00 PM, Sat 10:00 AM - 9:00 PM",,,0
LCBO Store # 583,583,22 MAIN STREET SOUTH,,GRAND VALLEY,,L9W 5V4,Canada,519-928-3400,,,"Sun 11:00 AM - 6:00 PM, Mon 10:00 AM - 6:00 PM, Tue 10:00 AM - 6:00 PM, Wed 10:00 AM - 6:00 PM, Thu 10:00 AM - 6:00 PM, Fri 10:00 AM - 9:00 PM, Sat 10:00 AM - 6:00 PM",,,0
LCBO Store # 551,551,3041 WALKERS LINE,,BURLINGTON,,L5L 5Z6,Canada,905-331-5792,,,"Sun 11:00 AM - 6:00 PM, Mon 10:00 AM - 9:00 PM, Tue 10:00 AM - 9:00 PM, Wed 10:00 AM - 9:00 PM, Thu 10:00 AM - 9:00 PM, Fri 10:00 AM - 9:00 PM, Sat 10:00 AM - 9:00 PM",,,0
LCBO Store # 25,25,119 OSLER DRIVEUNIT 13A,,DUNDAS,,L9H 6X4,Canada,905-628-2042,,,"Sun 11:00 AM - 6:00 PM, Mon 9:30 AM - 10:00 PM, Tue 9:30 AM - 10:00 PM, Wed 9:30 AM - 10:00 PM, Thu 9:30 AM - 10:00 PM, Fri 9:30 AM - 10:00 PM, Sat 9:30 AM - 10:00 PM",,,0
LCBO Store # 497,497,2025 GUELPH LINESUPER CENTER,,BURLINGTON,,L7P 3B6,Canada,905-335-0640,,,"Sun 11:00 AM - 6:00 PM, Mon 10:00 AM - 10:00 PM, Tue 10:00 AM - 10:00 PM, Wed 10:00 AM - 10:00 PM, Thu 10:00 AM - 10:00 PM, Fri 10:00 AM - 10:00 PM, Sat 10:00 AM - 10:00 PM",,,0
LCBO Store # 168,168,"510 RIDDELL ROAD,UNIT B",,ORANGEVILLE,,L9W 5L1,Canada,519-941-5800,,,"Sun 11:00 AM - 6:00 PM, Mon 10:00 AM - 9:00 PM, Tue 10:00 AM - 9:00 PM, Wed 10:00 AM - 9:00 PM, Thu 10:00 AM - 9:00 PM, Fri 10:00 AM - 9:00 PM, Sat 10:00 AM - 9:00 PM",,,0
LCBO Store # 665,665,1191 WILSON ST. W,,ANCASTER,,L9G 0E8,Canada,905-648-5301,,,"Sun 11:00 AM - 6:00 PM, Mon 10:00 AM - 9:00 PM, Tue 10:00 AM - 9:00 PM, Wed 10:00 AM - 9:00 PM, Thu 10:00 AM - 9:00 PM, Fri 10:00 AM - 9:00 PM, Sat 10:00 AM - 9:00 PM",,,0
LCBO Store # 21,21,737 GOLF LINKS ROADMEADOWLANDS CENTRE,,ANCASTER,,L9K 1L5,Canada,905-304-9608,,,"Sun 11:00 AM - 6:00 PM, Mon 10:00 AM - 10:00 PM, Tue 10:00 AM - 10:00 PM, Wed 10:00 AM - 10:00 PM, Thu 10:00 AM - 10:00 PM, Fri 10:00 AM - 10:00 PM, Sat 10:00 AM - 10:00 PM",,,0
LCBO Store # 44,44,50 MARKET STREET SOUTH,,BRANTFORD,,N3S 2E3,Canada,519-753-0541,,,"Sun 11:00 AM - 6:00 PM, Mon 9:30 AM - 10:00 PM, Tue 9:30 AM - 10:00 PM, Wed 9:30 AM - 10:00 PM, Thu 9:30 AM - 10:00 PM, Fri 9:30 AM - 10:00 PM, Sat 9:30 AM - 10:00 PM",,,0
LCBO Store # 481,481,1235 FAIRVIEW STREETMAPLE MEWS PLAZA,,BURLINGTON,,L7S 2H9,Canada,905-333-3111,,,"Sun 11:00 AM - 6:00 PM, Mon 9:30 AM - 10:00 PM, Tue 9:30 AM - 10:00 PM, Wed 9:30 AM - 10:00 PM, Thu 9:30 AM - 10:00 PM, Fri 9:30 AM - 10:00 PM, Sat 9:30 AM - 10:00 PM",,,0
LCBO Store # 143,143,233 DUNDURN STREET SOUTH,,HAMILTON,,L8P 4K8,Canada,905-529-8761,,,"Sun 11:00 AM - 6:00 PM, Mon 9:30 AM - 10:00 PM, Tue 9:30 AM - 9:00 PM, Wed 9:30 AM - 10:00 PM, Thu 9:30 AM - 10:00 PM, Fri 9:30 AM - 10:00 PM, Sat 9:30 AM - 10:00 PM",,,0
LCBO Store # 460,460,39 KING STREETP.O. BOX 160,,DELTA,,K0E 1G0,Canada,613-928-2532,,,"Sun 11:00 AM - 6:00 PM, Mon 10:00 AM - 6:00 PM, Tue 10:00 AM - 6:00 PM, Wed 10:00 AM - 6:00 PM, Thu 10:00 AM - 6:00 PM, Fri 10:00 AM - 9:00 PM, Sat 10:00 AM - 6:00 PM",,,0
LCBO Store # 352,352,131 PERTH STREETP.O. BOX 69,,ELGIN,,K0G 1E0,Canada,613-359-5490,,,"Sun 11:00 AM - 6:00 PM, Mon 10:00 AM - 6:00 PM, Tue 10:00 AM - 6:00 PM, Wed 10:00 AM - 6:00 PM, Thu 10:00 AM - 6:00 PM, Fri 10:00 AM - 9:00 PM, Sat 10:00 AM - 6:00 PM",,,0
LCBO Store # 439,439,34 COLBOURNE STREETP.O. BOX 26,,PORTLAND,,K0G 1V0,Canada,613-272-2608,,,"Sun 11:00 AM - 6:00 PM, Mon 10:00 AM - 6:00 PM, Tue 10:00 AM - 6:00 PM, Wed 10:00 AM - 6:00 PM, Thu 10:00 AM - 6:00 PM, Fri 10:00 AM - 9:00 PM, Sat 10:00 AM - 6:00 PM",,,0
LCBO Store # 316,316,19 MAIN STREET EASTP.O. BOX 249,,ATHENS,,K0E 1B0,Canada,613-924-2033,,,"Sun 11:00 AM - 6:00 PM, Mon 10:00 AM - 6:00 PM, Tue 10:00 AM - 6:00 PM, Wed 10:00 AM - 6:00 PM, Thu 10:00 AM - 6:00 PM, Fri 10:00 AM - 9:00 PM, Sat 10:00 AM - 6:00 PM",,,0
LCBO Store # 520,520,"106 DRYNAN WAY, UNIT 10BOX 30",,SEELEY'S BAY,,K0H 2N0,Canada,613-387-3593,,,"Sun 12:00 PM - 4:00 PM, Mon 10:00 AM - 6:00 PM, Tue 10:00 AM - 6:00 PM, Wed 10:00 AM - 6:00 PM, Thu 10:00 AM - 6:00 PM, Fri 10:00 AM - 8:00 PM, Sat 10:00 AM - 6:00 PM",,,0
LCBO Store # 423,423,992 PRINCE STREETP.O. BOX 100,,LANSDOWNE,,K0E 1L0,Canada,613-659-3472,,,"Sun 12:00 PM - 4:00 PM, Mon 10:00 AM - 6:00 PM, Tue 10:00 AM - 6:00 PM, Wed 10:00 AM - 6:00 PM, Thu 10:00 AM - 6:00 PM, Fri 10:00 AM - 8:00 PM, Sat 10:00 AM - 6:00 PM",,,0
LCBO Store # 71,71,189 KING STREET EAST,,GANANOQUE,,K7G 1G3,Canada,613-382-3501,,,"Sun 11:00 AM - 5:00 PM, Mon 10:00 AM - 6:00 PM, Tue 10:00 AM - 6:00 PM, Wed 10:00 AM - 6:00 PM, Thu 10:00 AM - 6:00 PM, Fri 10:00 AM - 8:00 PM, Sat 10:00 AM - 8:00 PM",,,0
LCBO Store # 42,42,179 KING STREET WEST,,BROCKVILLE,,K6V 3R6,Canada,613-342-2202,,,"Sun 11:00 AM - 6:00 PM, Mon 10:00 AM - 6:00 PM, Tue 10:00 AM - 6:00 PM, Wed 10:00 AM - 6:00 PM, Thu 10:00 AM - 6:00 PM, Fri 10:00 AM - 9:00 PM, Sat 10:00 AM - 6:00 PM",,,0
LCBO Store # 351,351,2075 PARKDALE AVE,,BROCKVILLE,,K6V 0B4,Canada,613-342-9814,,,"Sun 11:00 AM - 6:00 PM, Mon 10:00 AM - 9:00 PM, Tue 10:00 AM - 9:00 PM, Wed 10:00 AM - 9:00 PM, Thu 10:00 AM - 9:00 PM, Fri 10:00 AM - 9:00 PM, Sat 10:00 AM - 9:00 PM",,,0
LCBO Store # 654,654,1044 DIVISION STREET,,KINGSTON,,K7K 0C3,Canada,613-547-6079,,,"Sun 11:00 AM - 5:00 PM, Mon 9:00 AM - 9:00 PM, Tue 9:00 AM - 9:00 PM, Wed 9:00 AM - 9:00 PM, Thu 9:00 AM - 9:00 PM, Fri 9:00 AM - 9:00 PM, Sat 9:00 AM - 9:00 PM",,,0
LCBO Store # 56,56,325 KING STREET WESTP.O. BOX #677,,PRESCOTT,,K0E 1T0,Canada,613-925-2702,,,"Sun 11:00 AM - 6:00 PM, Mon 10:00 AM - 6:00 PM, Tue 10:00 AM - 6:00 PM, Wed 10:00 AM - 6:00 PM, Thu 10:00 AM - 6:00 PM, Fri 10:00 AM - 9:00 PM, Sat 10:00 AM - 6:00 PM",,,0
LCBO Store # 40,40,34 BARRACK STREET,,KINGSTON,,K7K 7A9,Canada,613-549-5092,,,"Sun 11:00 AM - 6:00 PM, Mon 9:00 AM - 10:00 PM, Tue 9:00 AM - 10:00 PM, Wed 9:00 AM - 10:00 PM, Thu 9:00 AM - 10:00 PM, Fri 9:00 AM - 10:00 PM, Sat 9:00 AM - 10:00 PM",,,0
LCBO Store # 167,167,905 PRINCESS STREET,,KINGSTON,,K7L 1G7,Canada,613-548-8659,,,"Sun 11:00 AM - 6:00 PM, Mon 9:00 AM - 10:00 PM, Tue 9:00 AM - 10:00 PM, Wed 9:00 AM - 10:00 PM, Thu 9:00 AM - 10:00 PM, Fri 9:00 AM - 10:00 PM, Sat 9:00 AM - 10:00 PM",,,0
LCBO Store # 154,154,1089 MIDLAND AVENUE,,KINGSTON,,K7P 2X8,Canada,613-384-2299,,,"Sun 11:00 AM - 6:00 PM, Mon 9:00 AM - 10:00 PM, Tue 9:00 AM - 10:00 PM, Wed 9:00 AM - 10:00 PM, Thu 9:00 AM - 10:00 PM, Fri 9:00 AM - 10:00 PM, Sat 9:00 AM - 10:00 PM",,,0
LCBO Store # 389,389,1280 BATH ROADBAYOU PLAZA,,KINGSTON,,K7M 4X3,Canada,613-548-8552,,,"Sun 11:00 AM - 6:00 PM, Mon 9:00 AM - 10:00 PM, Tue 9:00 AM - 10:00 PM, Wed 9:00 AM - 10:00 PM, Thu 9:00 AM - 10:00 PM, Fri 9:00 AM - 10:00 PM, Sat 9:00 AM - 10:00 PM",,,0
LCBO Store # 517,517,18 MANITOU CRESENT WESTLOYALIST SHOPPING PLAZA,,AMHERSTVIEW,,K7N 1S3,Canada,613-389-3740,,,"Sun 12:00 PM - 4:00 PM, Mon 10:00 AM - 6:00 PM, Tue 10:00 AM - 6:00 PM, Wed 10:00 AM - 6:00 PM, Thu 10:00 AM - 6:00 PM, Fri 10:00 AM - 8:00 PM, Sat 10:00 AM - 8:00 PM",,,0
LCBO Store # 304,304,"623 HWY. 2, CARDINAL VILLAGE SQUAREP.O. BOX 449",,CARDINAL,,K0E 1E0,Canada,613-657-3305,,,"Sun 11:00 AM - 6:00 PM, Mon 10:00 AM - 6:00 PM, Tue 10:00 AM - 6:00 PM, Wed 10:00 AM - 6:00 PM, Thu 10:00 AM - 6:00 PM, Fri 10:00 AM - 9:00 PM, Sat 10:00 AM - 6:00 PM",,,0
LCBO Store # 190,190,1601 MAIN STREET EASTTRAFFIC CIRCLE,,HAMILTON,,L8H 1C4,Canada,905-549-4647,,,"Sun 11:00 AM - 6:00 PM, Mon 10:00 AM - 8:00 PM, Tue 10:00 AM - 8:00 PM, Wed 10:00 AM - 8:00 PM, Thu 10:00 AM - 9:00 PM, Fri 10:00 AM - 9:00 PM, Sat 10:00 AM - 9:00 PM",,,0
LCBO Store # 23,23,1149 BARTON STREET EASTCENTRE MALL,,HAMILTON,,L8H 2V2,Canada,905-544-8010,,,"Sun 11:00 AM - 6:00 PM, Mon 9:30 AM - 10:00 PM, Tue 9:30 AM - 10:00 PM, Wed 9:30 AM - 10:00 PM, Thu 9:30 AM - 10:00 PM, Fri 9:30 AM - 10:00 PM, Sat 9:30 AM - 10:00 PM",,,0
LCBO Store # 249,249,971 FENNELL AVENUE EASTFENNELL SQUARE,,HAMILTON,,L8T 1R1,Canada,905-385-5383,,,"Sun 11:00 AM - 6:00 PM, Mon 9:30 AM - 9:00 PM, Tue 9:30 AM - 9:00 PM, Wed 9:30 AM - 9:00 PM, Thu 9:30 AM - 10:00 PM, Fri 9:30 AM - 10:00 PM, Sat 9:30 AM - 10:00 PM",,,0
LCBO Store # 165,165,76 MALL ROAD,,HAMILTON,,L8V 4X6,Canada,905-387-0865,,,"Sun 11:00 AM - 6:00 PM, Mon 10:00 AM - 9:00 PM, Tue 10:00 AM - 9:00 PM, Wed 10:00 AM - 9:00 PM, Thu 10:00 AM - 9:00 PM, Fri 10:00 AM - 9:00 PM, Sat 10:00 AM - 9:00 PM",,,0
LCBO Store # 545,545,75 CENTENNIAL PARKWAY NORTHUNIT 6C,,STONEY CREEK,,L8E 2P2,Canada,905-560-4970,,,"Sun 11:00 AM - 6:00 PM, Mon 9:30 AM - 10:00 PM, Tue 9:30 AM - 10:00 PM, Wed 9:30 AM - 10:00 PM, Thu 9:30 AM - 10:00 PM, Fri 9:30 AM - 10:00 PM, Sat 9:30 AM - 10:00 PM",,,0
LCBO Store # 571,571,"2 KING STREET WEST, UNIT #405LLOYD D. JACKSON SQUARE",,HAMILTON,,L8P 1A1,Canada,905-529-7414,,,"Sun 12:00 PM - 5:00 PM, Mon 9:30 AM - 8:00 PM, Tue 9:30 AM - 8:00 PM, Wed 9:30 AM - 8:00 PM, Thu 9:30 AM - 8:00 PM, Fri 9:30 AM - 9:00 PM, Sat 9:30 AM - 8:00 PM",,,0
LCBO Store # 233,233,657 UPPER JAMES STREETUNIT 106,,HAMILTON,,L9C 5R8,Canada,905-383-9344,,,"Sun 11:00 AM - 6:00 PM, Mon 10:00 AM - 10:00 PM, Tue 10:00 AM - 10:00 PM, Wed 10:00 AM - 10:00 PM, Thu 10:00 AM - 10:00 PM, Fri 10:00 AM - 10:00 PM, Sat 10:00 AM - 10:00 PM",,,0
LCBO Store # 250,250,122 HWY. 8STONEY CREEK PLAZA,,STONEY CREEK,,L8G 1C2,Canada,905-662-6031,,,"Sun 11:00 AM - 6:00 PM, Mon 10:00 AM - 9:00 PM, Tue 10:00 AM - 9:00 PM, Wed 10:00 AM - 9:00 PM, Thu 10:00 AM - 9:00 PM, Fri 10:00 AM - 10:00 PM, Sat 10:00 AM - 10:00 PM",,,0
LCBO Store # 667,667,"1550 UPPER JAMES STSOUTH HAMILTON SQUARE, UNIT 11",,HAMILTON,,L9B 1J5,Canada,905-385-3106,,,"Sun 11:00 AM - 6:00 PM, Mon 10:00 AM - 9:00 PM, Tue 10:00 AM - 9:00 PM, Wed 10:00 AM - 9:00 PM, Thu 10:00 AM - 9:00 PM, Fri 10:00 AM - 9:00 PM, Sat 10:00 AM - 9:00 PM",,,0
LCBO Store # 361,361,2273 RYMAL ROAD EAST,,STONEY CREEK,,L8J 2V8,Canada,905-561-2295,,,"Sun 11:00 AM - 6:00 PM, Mon 10:00 AM - 9:00 PM, Tue 10:00 AM - 9:00 PM, Wed 10:00 AM - 9:00 PM, Thu 10:00 AM - 9:00 PM, Fri 10:00 AM - 9:00 PM, Sat 10:00 AM - 9:00 PM",,,0
LCBO Store # 203,203,413 ELIZABETH STREETVILLAGE SQUARE,,BURLINGTON,,L7R 2L8,Canada,905-634-9023,,,"Sun 11:00 AM - 6:00 PM, Mon 10:00 AM - 7:00 PM, Tue 10:00 AM - 7:00 PM, Wed 10:00 AM - 7:00 PM, Thu 10:00 AM - 8:00 PM, Fri 10:00 AM - 9:00 PM, Sat 10:00 AM - 8:00 PM",,,0
LCBO Store # 566,566,3365 FAIRVIEW STREET,,BURLINGTON,,L7N 3N9,Canada,905-637-3248,,,"Sun 11:00 AM - 6:00 PM, Mon 10:00 AM - 9:00 PM, Tue 10:00 AM - 9:00 PM, Wed 10:00 AM - 9:00 PM, Thu 10:00 AM - 9:00 PM, Fri 10:00 AM - 9:00 PM, Sat 10:00 AM - 9:00 PM",,,0
LCBO Store # 268,268,309 ARGYLE STREET SOUTH,,CALEDONIA,,N3W 1K7,Canada,905-765-4577,,,"Sun 11:00 AM - 6:00 PM, Mon 10:00 AM - 9:00 PM, Tue 10:00 AM - 9:00 PM, Wed 10:00 AM - 9:00 PM, Thu 10:00 AM - 9:00 PM, Fri 10:00 AM - 9:00 PM, Sat 10:00 AM - 9:00 PM",,,0
LCBO Store # 160,160,1 TALBOT STREET   WEST,,CAYUGA,,N0A 1E0,Canada,905-772-3371,,,"Sun 11:00 AM - 6:00 PM, Mon 10:00 AM - 6:00 PM, Tue 10:00 AM - 6:00 PM, Wed 10:00 AM - 6:00 PM, Thu 10:00 AM - 6:00 PM, Fri 10:00 AM - 8:00 PM, Sat 10:00 AM - 6:00 PM",,,0
LCBO Store # 430,430,42 MAIN STREET NORTH,,HAGERSVILLE,,N0A 1H0,Canada,905-768-5954,,,"Sun 11:00 AM - 6:00 PM, Mon 10:00 AM - 6:00 PM, Tue 10:00 AM - 6:00 PM, Wed 10:00 AM - 6:00 PM, Thu 10:00 AM - 6:00 PM, Fri 10:00 AM - 8:00 PM, Sat 10:00 AM - 6:00 PM",,,0
LCBO Store # 700,700,21 WILLIAM KITCHEN RD H2KENNEDY COMMONS,,TORONTO-SCARBOROUGH,,M1P 5B7,Canada,416-297-8178,,,"Sun 11:00 AM - 6:00 PM, Mon 10:00 AM - 9:00 PM, Tue 10:00 AM - 9:00 PM, Wed 10:00 AM - 9:00 PM, Thu 10:00 AM - 9:00 PM, Fri 10:00 AM - 9:00 PM, Sat 10:00 AM - 9:00 PM",,,0
LCBO Store # 444,444,2356 KENNEDY ROADAGINCOURT MALL,,TORONTO-SCARBOROUGH,,M1T 3H1,Canada,416-291-5304,,,"Sun 11:00 AM - 6:00 PM, Mon 9:30 AM - 10:00 PM, Tue 9:30 AM - 10:00 PM, Wed 9:30 AM - 10:00 PM, Thu 9:30 AM - 10:00 PM, Fri 9:30 AM - 10:00 PM, Sat 9:30 AM - 10:00 PM",,,0
LCBO Store # 228,228,55 ELLESMERE ROAD,,TORONTO-SCARBOROUGH,,M1R 4B7,Canada,416-447-1941,,,"Sun 11:00 AM - 6:00 PM, Mon 10:00 AM - 10:00 PM, Tue 10:00 AM - 10:00 PM, Wed 10:00 AM - 10:00 PM, Thu 10:00 AM - 10:00 PM, Fri 10:00 AM - 10:00 PM, Sat 10:00 AM - 10:00 PM",,,0
LCBO Store # 584,584,1571 SANDHURST CIRCLEWOODSIDE SQUARE PLAZA,,TORONTO-SCARBOROUGH,,M1V 1V2,Canada,416-291-1638,,,"Sun 11:00 AM - 6:00 PM, Mon 10:00 AM - 9:00 PM, Tue 10:00 AM - 9:00 PM, Wed 10:00 AM - 9:00 PM, Thu 10:00 AM - 9:00 PM, Fri 10:00 AM - 9:00 PM, Sat 10:00 AM - 9:00 PM",,,0
LCBO Store # 564,564,2946 FINCH AVENUE EASTVILLAGE SQUARE,,TORONTO-SCARBOROUGH,,M1W 2T4,Canada,416-497-2253,,,"Sun 11:00 AM - 6:00 PM, Mon 10:00 AM - 9:00 PM, Tue 10:00 AM - 9:00 PM, Wed 10:00 AM - 9:00 PM, Thu 10:00 AM - 9:00 PM, Fri 10:00 AM - 9:00 PM, Sat 10:00 AM - 9:00 PM",,,0
LCBO Store # 269,269,3441 LAWRENCE AVENUE EASTCEDARBRAE MALL,,TORONTO-SCARBOROUGH,,M1H 1B3,Canada,416-431-0791,,,"Sun 11:00 AM - 6:00 PM, Mon 10:00 AM - 9:00 PM, Tue 10:00 AM - 9:00 PM, Wed 10:00 AM - 9:00 PM, Thu 10:00 AM - 9:00 PM, Fri 10:00 AM - 9:00 PM, Sat 10:00 AM - 9:00 PM",,,0
LCBO Store # 546,546,"1800 SHEPPARD AVENUE EASTPO BOX 2080, FAIRVIEW MALL",,TORONTO-NORTH YORK,,M2J 5A7,Canada,416-491-0470,,,"Sun 11:00 AM - 6:00 PM, Mon 10:00 AM - 9:00 PM, Tue 10:00 AM - 9:00 PM, Wed 10:00 AM - 9:00 PM, Thu 10:00 AM - 9:00 PM, Fri 10:00 AM - 9:00 PM, Sat 10:00 AM - 9:00 PM",,,0
LCBO Store # 195,195,1900 EGLINTON AVENUE EAST,,TORONTO-SCARBOROUGH,,M1L 2L9,Canada,416-755-6751,,,"Sun 11:00 AM - 6:00 PM, Mon 10:00 AM - 10:00 PM, Tue 10:00 AM - 10:00 PM, Wed 10:00 AM - 10:00 PM, Thu 10:00 AM - 10:00 PM, Fri 10:00 AM - 10:00 PM, Sat 9:30 AM - 10:00 PM",,,0
LCBO Store # 242,242,510 BRIMLEY ROAD,,TORONTO-SCARBOROUGH,,M1J 1A7,Canada,416-261-6362,,,"Sun 11:00 AM - 6:00 PM, Mon 10:00 AM - 10:00 PM, Tue 10:00 AM - 10:00 PM, Wed 10:00 AM - 10:00 PM, Thu 10:00 AM - 10:00 PM, Fri 10:00 AM - 10:00 PM, Sat 9:30 AM - 10:00 PM",,,0
LCBO Store # 643,643,808 YORK MILLS ROAD,,TORONTO-NORTH YORK,,M3B 1X8,Canada,416-444-3700,,,"Sun 11:00 AM - 6:00 PM, Mon 10:00 AM - 10:00 PM, Tue 10:00 AM - 10:00 PM, Wed 10:00 AM - 10:00 PM, Thu 10:00 AM - 10:00 PM, Fri 10:00 AM - 10:00 PM, Sat 10:00 AM - 10:00 PM",,,0
LCBO Store # 428,428,785 MILNER AVENUE,,TORONTO-SCARBOROUGH,,M1B 3C3,Canada,416-284-5544,,,"Sun 11:00 AM - 6:00 PM, Mon 10:00 AM - 10:00 PM, Tue 10:00 AM - 10:00 PM, Wed 10:00 AM - 10:00 PM, Thu 12:00 AM - 10:00 PM, Fri 10:00 AM - 10:00 PM, Sat 10:00 AM - 10:00 PM",,,0
LCBO Store # 703,703,5979 STEELES AVENUE EAST,,TORONTO-SCARBOROUGH,,M1V 5P7,Canada,416-335-1100,,,"Sun 11:00 AM - 6:00 PM, Mon 10:00 AM - 10:00 PM, Tue 10:00 AM - 10:00 PM, Wed 10:00 AM - 10:00 PM, Thu 10:00 AM - 10:00 PM, Fri 10:00 AM - 10:00 PM, Sat 9:30 AM - 10:00 PM",,,0
LCBO Store # 253,253,195 THE DONWAY WEST,,TORONTO-NORTH YORK,,M3C 0H6,Canada,416-447-0491,,,"Sun 11:00 AM - 6:00 PM, Mon 10:00 AM - 9:00 PM, Tue 10:00 AM - 9:00 PM, Wed 10:00 AM - 9:00 PM, Thu 10:00 AM - 9:00 PM, Fri 10:00 AM - 9:00 PM, Sat 10:00 AM - 9:00 PM",,,0
LCBO Store # 198,198,4525 KINGSTON ROAD,,TORONTO-SCARBOROUGH,,M1E 2P1,Canada,416-282-2034,,,"Sun 11:00 AM - 6:00 PM, Mon 9:00 AM - 10:00 PM, Tue 9:00 AM - 10:00 PM, Wed 9:00 AM - 10:00 PM, Thu 9:00 AM - 10:00 PM, Fri 9:00 AM - 11:00 PM, Sat 9:00 AM - 11:00 PM",,,0
LCBO Store # 355,355,2901 BAYVIEW AVENUE - UNIT #125BAYVIEW VILLAGE MALL,,TORONTO-NORTH YORK,,M2K 1E6,Canada,416-222-7658,,,"Sun 11:00 AM - 6:00 PM, Mon 9:00 AM - 9:00 PM, Tue 9:00 AM - 9:00 PM, Wed 9:00 AM - 9:00 PM, Thu 9:00 AM - 9:00 PM, Fri 9:00 AM - 9:00 PM, Sat 9:00 AM - 9:00 PM",,,0
LCBO Store # 637,637,"1563 STEELES AVENUE EAST, ONLAURELEAF",,TORONTO-NORTH YORK,,M2M 3Y7,Canada,416-250-9200,,,"Sun 12:00 PM - 6:00 PM, Mon 10:00 AM - 9:00 PM, Tue 10:00 AM - 9:00 PM, Wed 10:00 AM - 9:00 PM, Thu 10:00 AM - 9:00 PM, Fri 10:00 AM - 9:00 PM, Sat 10:00 AM - 9:00 PM",,,0
LCBO Store # 580,580,3991 HIGHWAY 7,,MARKHAM,,L3R 5M6,Canada,905-479-9612,,,"Sun 11:00 AM - 6:00 PM, Mon 10:00 AM - 9:00 PM, Tue 10:00 AM - 9:00 PM, Wed 10:00 AM - 9:00 PM, Thu 10:00 AM - 9:00 PM, Fri 10:00 AM - 9:00 PM, Sat 10:00 AM - 9:00 PM",,,0
LCBO Store # 590,590,3075 HIGHWAY 7 EAST,,MARKHAM,,L3R 5Y5,Canada,905-940-2768,,,"Sun 11:00 AM - 6:00 PM, Mon 10:00 AM - 9:00 PM, Tue 10:00 AM - 9:00 PM, Wed 10:00 AM - 9:00 PM, Thu 10:00 AM - 9:00 PM, Fri 10:00 AM - 9:00 PM, Sat 10:00 AM - 9:00 PM",,,0
LCBO Store # 16,16,5095 YONGE STREET A4,,TORONTO-NORTH YORK,,M2N 6Z4,Canada,416-226-3949,,,"Sun 11:00 AM - 6:00 PM, Mon 10:00 AM - 10:00 PM, Tue 10:00 AM - 10:00 PM, Wed 10:00 AM - 10:00 PM, Thu 10:00 AM - 10:00 PM, Fri 10:00 AM - 10:00 PM, Sat 10:00 AM - 10:00 PM",,,0
LCBO Store # 390,390,192 BULLOCK DRIVE,,MARKHAM,,L3P 1W2,Canada,905-472-8600,,,"Sun 11:00 AM - 6:00 PM, Mon 10:00 AM - 10:00 PM, Tue 10:00 AM - 10:00 PM, Wed 10:00 AM - 10:00 PM, Thu 10:00 AM - 10:00 PM, Fri 10:00 AM - 10:00 PM, Sat 9:30 AM - 10:00 PM",,,0
LCBO Store # 533,533,5508 LAWRENCE AVENUE EASTCENTENNIAL PLAZA,,TORONTO-SCARBOROUGH,,M1C 3B2,Canada,416-284-3969,,,"Sun 11:00 AM - 6:00 PM, Mon 10:00 AM - 9:00 PM, Tue 10:00 AM - 9:00 PM, Wed 10:00 AM - 9:00 PM, Thu 10:00 AM - 9:00 PM, Fri 10:00 AM - 9:00 PM, Sat 10:00 AM - 9:00 PM",,,0
LCBO Store # 353,353,219 MAIN STREETP.O.BOX 1230,,MARKHAM,,L3P 1Y6,Canada,905-294-3632,,,"Sun 12:00 PM - 5:00 PM, Mon 10:00 AM - 9:00 PM, Tue 10:00 AM - 9:00 PM, Wed 10:00 AM - 9:00 PM, Thu 10:00 AM - 9:00 PM, Fri 10:00 AM - 9:00 PM, Sat 10:00 AM - 9:00 PM",,,0
LCBO Store # 452,452,1838-1844 AVENUE ROAD,,TORONTO-NORTH YORK,,M5M 3Z5,Canada,416-785-6389,,,"Sun 11:00 AM - 6:00 PM, Mon 10:00 AM - 9:00 PM, Tue 10:00 AM - 10:00 PM, Wed 10:00 AM - 10:00 PM, Thu 10:00 AM - 10:00 PM, Fri 10:00 AM - 10:00 PM, Sat 10:00 AM - 10:00 PM",,,0
LCBO Store # 657,657,502 LAWRENCE AVENUE WEST,,TORONTO-TORONTO - NORTH YORK,,M6A 1A1,Canada,416-785-8851,,,"Sun 11:00 AM - 6:00 PM, Mon 10:00 AM - 9:00 PM, Tue 10:00 AM - 9:00 PM, Wed 10:00 AM - 9:00 PM, Thu 10:00 AM - 9:00 PM, Fri 10:00 AM - 9:00 PM, Sat 10:00 AM - 9:00 PM",,,0
LCBO Store # 623,623,8783 YONGE STREET,,RICHMOND HILL,,L4C 6Z1,Canada,905-886-3511,,,"Sun 11:00 AM - 6:00 PM, Mon 10:00 AM - 9:00 PM, Tue 10:00 AM - 9:00 PM, Wed 10:00 AM - 9:00 PM, Thu 10:00 AM - 9:00 PM, Fri 10:00 AM - 9:00 PM, Sat 9:00 AM - 9:00 PM",,,0
LCBO Store # 523,523,180 PROMENADE CIRCLE,,THORNHILL,,L4J 0E4,Canada,905-889-7787,,,"Sun 11:00 AM - 6:00 PM, Mon 10:00 AM - 9:00 PM, Tue 10:00 AM - 9:00 PM, Wed 10:00 AM - 9:00 PM, Thu 10:00 AM - 9:00 PM, Fri 10:00 AM - 9:00 PM, Sat 10:00 AM - 9:00 PM",,,0
LCBO Store # 434,434,"705 KINGSTON ROAD, UNIT 17WHITES ROAD SHOPPING CENTRE",,PICKERING,,L1V 6K3,Canada,905-831-5436,,,"Sun 11:00 AM - 6:00 PM, Mon 10:00 AM - 9:00 PM, Tue 10:00 AM - 9:00 PM, Wed 10:00 AM - 9:00 PM, Thu 10:00 AM - 9:00 PM, Fri 10:00 AM - 9:00 PM, Sat 10:00 AM - 9:00 PM",,,0
LCBO Store # 629,629,"1520 MAJOR MACKENZIE DR. E.,",,RICHMOND HILL,,L4S 0A1,Canada,905-884-4700,,,"Sun 11:00 AM - 6:00 PM, Mon 10:00 AM - 9:00 PM, Tue 10:00 AM - 9:00 PM, Wed 10:00 AM - 9:00 PM, Thu 10:00 AM - 9:00 PM, Fri 10:00 AM - 9:00 PM, Sat 10:00 AM - 9:00 PM",,,0
LCBO Store # 360,360,675 WILSON AVENUE,,TORONTO-NORTH YORK,,M3K 1E3,Canada,416-636-5349,,,"Sun 11:00 AM - 6:00 PM, Mon 10:00 AM - 9:00 PM, Tue 10:00 AM - 9:00 PM, Wed 10:00 AM - 9:00 PM, Thu 10:00 AM - 9:00 PM, Fri 10:00 AM - 9:00 PM, Sat 10:00 AM - 9:00 PM",,,0
LCBO Store # 642,642,1115 LODESTAR ROAD,,TORONTO-NORTH YORK,,M3J 3C1,Canada,416-633-6197,,,"Sun 11:00 AM - 6:00 PM, Mon 10:00 AM - 9:00 PM, Tue 10:00 AM - 9:00 PM, Wed 10:00 AM - 9:00 PM, Thu 10:00 AM - 9:00 PM, Fri 10:00 AM - 9:00 PM, Sat 10:00 AM - 9:00 PM",,,0
LCBO Store # 107,107,440 MAIN STREET WESTP.O. BOX 58,,PALMERSTON,,N0G 2P0,Canada,519-343-2620,,,"Sun 11:00 AM - 6:00 PM, Mon 10:00 AM - 6:00 PM, Tue 10:00 AM - 6:00 PM, Wed 10:00 AM - 6:00 PM, Thu 10:00 AM - 6:00 PM, Fri 10:00 AM - 9:00 PM, Sat 10:00 AM - 6:00 PM",,,0
LCBO Store # 296,296,69 MAIN STREET SOUTHP.O. BOX 389,,MILVERTON,,N0K 1M0,Canada,519-595-8881,,,"Sun Closed - , Mon 10:00 AM - 6:00 PM, Tue 10:00 AM - 6:00 PM, Wed 10:00 AM - 6:00 PM, Thu 10:00 AM - 6:00 PM, Fri 10:00 AM - 9:00 PM, Sat 10:00 AM - 6:00 PM",,,0
LCBO Store # 276,276,598 MITCHELL ROAD SOUTH,,LISTOWEL,,N4W 3T1,Canada,519-291-2300,,,"Sun 11:00 AM - 6:00 PM, Mon 10:00 AM - 6:00 PM, Tue 10:00 AM - 6:00 PM, Wed 10:00 AM - 6:00 PM, Thu 10:00 AM - 6:00 PM, Fri 10:00 AM - 9:00 PM, Sat 10:00 AM - 8:00 PM",,,0
LCBO Store # 369,369,2 QUEEN STREET SOUTHP.O. BOX 550,,HARRISTON,,N0G 1Z0,Canada,519-338-2302,,,"Sun 11:00 AM - 6:00 PM, Mon 10:00 AM - 6:00 PM, Tue 10:00 AM - 6:00 PM, Wed 10:00 AM - 6:00 PM, Thu 10:00 AM - 6:00 PM, Fri 10:00 AM - 9:00 PM, Sat 10:00 AM - 6:00 PM",,,0
LCBO Store # 302,302,195 KING STREET WEST,,MOUNT FOREST,,N0G 2L0,Canada,519-323-2190,,,"Sun Closed - , Mon 10:00 AM - 6:00 PM, Tue 10:00 AM - 6:00 PM, Wed 10:00 AM - 6:00 PM, Thu 10:00 AM - 8:00 PM, Fri 10:00 AM - 9:00 PM, Sat 10:00 AM - 6:00 PM",,,0
LCBO Store # 644,644,1067 ONTARIO STREETSUITE B6,,STRATFORD,,N5A 6W6,Canada,519-271-5115,,,"Sun 11:00 AM - 6:00 PM, Mon 10:00 AM - 9:00 PM, Tue 10:00 AM - 9:00 PM, Wed 10:00 AM - 9:00 PM, Thu 10:00 AM - 9:00 PM, Fri 10:00 AM - 9:00 PM, Sat 10:00 AM - 8:00 PM",,,0
LCBO Store # 530,530,82 HOPE STREET WESTP.O. BOX 488,,TAVISTOCK,,N0B 2R0,Canada,519-655-2822,,,"Sun 11:00 AM - 6:00 PM, Mon 10:00 AM - 6:00 PM, Tue 10:00 AM - 6:00 PM, Wed 10:00 AM - 6:00 PM, Thu 10:00 AM - 6:00 PM, Fri 10:00 AM - 9:00 PM, Sat 10:00 AM - 6:00 PM",,,0
LCBO Store # 60,60,91 WELLINGTON STREET,,STRATFORD,,N5A 2L3,Canada,519-271-1343,,,"Sun 11:00 AM - 6:00 PM, Mon 10:00 AM - 9:00 PM, Tue 10:00 AM - 9:00 PM, Wed 10:00 AM - 9:00 PM, Thu 10:00 AM - 9:00 PM, Fri 10:00 AM - 9:00 PM, Sat 10:00 AM - 9:00 PM",,,0
LCBO Store # 298,298,40 B BROADWAY,,ORANGEVILLE,,L9W 1J4,Canada,519-942-0188,,,"Sun 11:00 AM - 6:00 PM, Mon 10:00 AM - 10:00 PM, Tue 10:00 AM - 10:00 PM, Wed 10:00 AM - 10:00 PM, Thu 10:00 AM - 10:00 PM, Fri 10:00 AM - 10:00 PM, Sat 10:00 AM - 10:00 PM",,,0
LCBO Store # 541,541,575 TURNBERRY STREETP.O. BOX 279,,BRUSSELS,,N0G 1H0,Canada,519-887-9204,,,"Sun Closed - , Mon Closed - , Tue 10:00 AM - 6:00 PM, Wed 10:00 AM - 6:00 PM, Thu 10:00 AM - 6:00 PM, Fri 10:00 AM - 8:00 PM, Sat 10:00 AM - 6:00 PM",,,0
LCBO Store # 339,339,136 ST. ANDREW STREETP.O. BOX 179,,MITCHELL,,N0K 1N0,Canada,519-348-8681,,,"Sun Closed - , Mon 10:00 AM - 6:00 PM, Tue 10:00 AM - 6:00 PM, Wed 10:00 AM - 6:00 PM, Thu 10:00 AM - 6:00 PM, Fri 10:00 AM - 9:00 PM, Sat 10:00 AM - 6:00 PM",,,0
LCBO Store # 419,419,702 MAIN STREET EAST,,SHELBURNE,,L9V 2Z4,Canada,519-925-3803,,,"Sun 11:00 AM - 6:00 PM, Mon 10:00 AM - 8:00 PM, Tue 10:00 AM - 8:00 PM, Wed 10:00 AM - 8:00 PM, Thu 10:00 AM - 8:00 PM, Fri 10:00 AM - 9:00 PM, Sat 10:00 AM - 6:00 PM",,,0
LCBO Store # 621,621,1024 HIGHWAY #9P.O. BOX 219,,MILDMAY,,N0G 2J0,Canada,519-367-5608,,,"Sun 11:00 AM - 6:00 PM, Mon 10:00 AM - 6:00 PM, Tue 10:00 AM - 6:00 PM, Wed 10:00 AM - 6:00 PM, Thu 10:00 AM - 6:00 PM, Fri 10:00 AM - 9:00 PM, Sat 10:00 AM - 6:00 PM",,,0
LCBO Store # 317,317,114 GARAFRAXA STREET SOUTHP.O. BOX 346,,DURHAM,,N0G 1R0,Canada,519-369-2407,,,"Sun Closed - , Mon 10:00 AM - 6:00 PM, Tue 10:00 AM - 6:00 PM, Wed 10:00 AM - 6:00 PM, Thu 10:00 AM - 6:00 PM, Fri 10:00 AM - 8:00 PM, Sat 10:00 AM - 6:00 PM",,,0
LCBO Store # 450,450,772200 HWY 10P.O. BOX 400,,DUNDALK,,N0C 1B0,Canada,519-923-3033,,,"Sun 11:00 AM - 6:00 PM, Mon 10:00 AM - 6:00 PM, Tue 10:00 AM - 6:00 PM, Wed 10:00 AM - 6:00 PM, Thu 10:00 AM - 6:00 PM, Fri 10:00 AM - 8:00 PM, Sat 10:00 AM - 6:00 PM",,,0
LCBO Store # 64,64,959 DUNDAS STREET,,WOODSTOCK,,N4S 1H2,Canada,519-537-3311,,,"Sun 11:00 AM - 6:00 PM, Mon 10:00 AM - 9:00 PM, Tue 10:00 AM - 9:00 PM, Wed 10:00 AM - 9:00 PM, Thu 10:00 AM - 9:00 PM, Fri 10:00 AM - 9:00 PM, Sat 10:00 AM - 9:00 PM",,,0
LCBO Store # 65,65,150 FRONT STREET,,TRENTON,,K8V 4N8,Canada,613-392-3797,,,"Sun 11:00 AM - 6:00 PM, Mon 9:00 AM - 10:00 PM, Tue 9:00 AM - 10:00 PM, Wed 9:00 AM - 10:00 PM, Thu 9:00 AM - 10:00 PM, Fri 9:00 AM - 10:00 PM, Sat 9:00 AM - 10:00 PM",,,0
LCBO Store # 474,474,5503 PRINCE EDWARD SQUAREHWY 62 SOUTH & COUNTY ROAD 28,,ROSSMORE,,K8N 4Z7,Canada,613-969-9947,,,"Sun 12:00 PM - 4:00 PM, Mon 10:00 AM - 6:00 PM, Tue 10:00 AM - 6:00 PM, Wed 10:00 AM - 6:00 PM, Thu 10:00 AM - 6:00 PM, Fri 10:00 AM - 8:00 PM, Sat 10:00 AM - 6:00 PM",,,0
LCBO Store # 449,449,462 MAIN STREETP.O. BOX 248,,WELLINGTON,,K0K 3L0,Canada,613-399-3320,,,"Sun 12:00 PM - 4:00 PM, Mon 10:00 AM - 6:00 PM, Tue 10:00 AM - 6:00 PM, Wed 10:00 AM - 6:00 PM, Thu 10:00 AM - 6:00 PM, Fri 10:00 AM - 8:00 PM, Sat 10:00 AM - 6:00 PM",,,0
LCBO Store # 247,247,11 PARK STREETP.O. BOX 484,,BRIGHTON,,K0K 1H0,Canada,613-475-2712,,,"Sun 12:00 PM - 4:00 PM, Mon 10:00 AM - 6:00 PM, Tue 10:00 AM - 6:00 PM, Wed 10:00 AM - 6:00 PM, Thu 10:00 AM - 6:00 PM, Fri 10:00 AM - 8:00 PM, Sat 10:00 AM - 6:00 PM",,,0
LCBO Store # 84,84,2 LAKE STREETP.O. BOX 8135,,PICTON,,K0K 2T0,Canada,613-476-2862,,,"Sun 12:00 PM - 5:00 PM, Mon 9:00 AM - 7:00 PM, Tue 9:00 AM - 7:00 PM, Wed 9:00 AM - 7:00 PM, Thu 9:00 AM - 9:00 PM, Fri 9:00 AM - 9:00 PM, Sat 9:00 AM - 9:00 PM",,,0
LCBO Store # 380,380,"9 TORONTO ROAD, HWY 2P.O. BOX 640",,COLBORNE,,K0K 1S0,Canada,905-355-2842,,,"Sun 12:00 PM - 4:00 PM, Mon 10:00 AM - 6:00 PM, Tue 10:00 AM - 6:00 PM, Wed 10:00 AM - 6:00 PM, Thu 10:00 AM - 6:00 PM, Fri 10:00 AM - 8:00 PM, Sat 10:00 AM - 6:00 PM",,,0
LCBO Store # 472,472,44 CHURCH STREETP.O. BOX 193,,WARKWORTH,,K0K 3K0,Canada,705-924-2161,,,"Sun 12:00 PM - 4:00 PM, Mon 10:00 AM - 6:00 PM, Tue 10:00 AM - 6:00 PM, Wed 10:00 AM - 6:00 PM, Thu 10:00 AM - 6:00 PM, Fri 10:00 AM - 8:00 PM, Sat 10:00 AM - 6:00 PM",,,0
LCBO Store # 142,142,18  FRONT STREET WESTP.O. BOX 21,,HASTINGS,,K0L 1Y0,Canada,705-696-2291,,,"Sun 11:00 AM - 6:00 PM, Mon 10:00 AM - 6:00 PM, Tue 10:00 AM - 6:00 PM, Wed 10:00 AM - 6:00 PM, Thu 10:00 AM - 6:00 PM, Fri 10:00 AM - 7:00 PM, Sat 10:00 AM - 6:00 PM",,,0
LCBO Store # 504,504,4246 HWY. # 7BOX 298,,NORWOOD,,K0L 2V0,Canada,705-639-5251,,,"Sun 11:00 AM - 6:00 PM, Mon 10:00 AM - 6:00 PM, Tue 10:00 AM - 6:00 PM, Wed 10:00 AM - 6:00 PM, Thu 10:00 AM - 6:00 PM, Fri 10:00 AM - 9:00 PM, Sat 10:00 AM - 6:00 PM",,,0
LCBO Store # 39,39,63 ALBERT STREET,,COBOURG,,K9A 2P8,Canada,905-372-7932,,,"Sun 11:00 AM - 6:00 PM, Mon 10:00 AM - 6:00 PM, Tue 10:00 AM - 6:00 PM, Wed 10:00 AM - 6:00 PM, Thu 10:00 AM - 6:00 PM, Fri 10:00 AM - 6:00 PM, Sat 10:00 AM - 6:00 PM",,,0
LCBO Store # 609,609,1111 ELGIN STREET WESTUNIT FS2,,COBOURG,,K9A 5H7,Canada,905-372-5283,,,"Sun 11:00 AM - 6:00 PM, Mon 10:00 AM - 9:00 PM, Tue 10:00 AM - 9:00 PM, Wed 10:00 AM - 9:00 PM, Thu 10:00 AM - 9:00 PM, Fri 10:00 AM - 10:00 PM, Sat 10:00 AM - 9:00 PM",,,0
LCBO Store # 570,570,906 WATER STREETP.O. BOX #94,,WARSAW,,K0L 3A0,Canada,705-652-7400,,,"Sun 11:00 AM - 6:00 PM, Mon 10:00 AM - 6:00 PM, Tue 10:00 AM - 6:00 PM, Wed 10:00 AM - 6:00 PM, Thu 10:00 AM - 6:00 PM, Fri 10:00 AM - 8:00 PM, Sat 10:00 AM - 6:00 PM",,,0
LCBO Store # 79,79,15 ONTARIO STREET,,PORT HOPE,,L1A 2T7,Canada,905-885-5668,,,"Sun 11:00 AM - 6:00 PM, Mon 10:00 AM - 6:00 PM, Tue 10:00 AM - 6:00 PM, Wed 10:00 AM - 6:00 PM, Thu 10:00 AM - 6:00 PM, Fri 10:00 AM - 8:00 PM, Sat 10:00 AM - 6:00 PM",,,0
LCBO Store # 594,594,5087 RICE LAKE DRIVE NORTHBOX 507,,BEWDLEY,,K0L 1E0,Canada,905-797-2077,,,"Sun 11:00 AM - 6:00 PM, Mon 10:00 AM - 6:00 PM, Tue 10:00 AM - 6:00 PM, Wed 10:00 AM - 6:00 PM, Thu 10:00 AM - 6:00 PM, Fri 10:00 AM - 8:00 PM, Sat 10:00 AM - 6:00 PM",,,0
LCBO Store # 343,343,400 LANSDOWNE STREET EASTWILLOWCREEK PLAZA,,PETERBOROUGH,,K9L 0B2,Canada,705-745-0372,,,"Sun 11:00 AM - 6:00 PM, Mon 10:00 AM - 8:00 PM, Tue 10:00 AM - 8:00 PM, Wed 10:00 AM - 8:00 PM, Thu 10:00 AM - 8:00 PM, Fri 10:00 AM - 8:00 PM, Sat 9:00 AM - 8:00 PM",,,0
LCBO Store # 45,45,196 SHERBROOKE STREET,,PETERBOROUGH,,K9J 2N3,Canada,705-745-1333,,,"Sun 11:00 AM - 6:00 PM, Mon 10:00 AM - 8:00 PM, Tue 10:00 AM - 8:00 PM, Wed 10:00 AM - 8:00 PM, Thu 10:00 AM - 9:00 PM, Fri 10:00 AM - 9:00 PM, Sat 10:00 AM - 9:00 PM",,,0
LCBO Store # 35,35,879 LANSDOWNE STREET WEST,,PETERBOROUGH,,K9J 1Z5,Canada,705-743-9955,,,"Sun 11:00 AM - 6:00 PM, Mon 9:00 AM - 10:00 PM, Tue 9:00 AM - 10:00 PM, Wed 9:00 AM - 10:00 PM, Thu 9:00 AM - 10:00 PM, Fri 9:00 AM - 10:00 PM, Sat 9:00 AM - 10:00 PM",,,0
LCBO Store # 261,261,2 NICHOLS STP.O. BOX 340,,LAKEFIELD,,K0L 2H0,Canada,705-652-7031,,,"Sun 11:00 AM - 6:00 PM, Mon 10:00 AM - 6:00 PM, Tue 10:00 AM - 6:00 PM, Wed 10:00 AM - 6:00 PM, Thu 10:00 AM - 6:00 PM, Fri 10:00 AM - 8:00 PM, Sat 10:00 AM - 6:00 PM",,,0
LCBO Store # 358,358,1154 CHEMONG ROAD,,PETERBOROUGH,,K9H 7J6,Canada,705-745-3302,,,"Sun 11:00 AM - 6:00 PM, Mon 9:00 AM - 10:00 PM, Tue 9:00 AM - 10:00 PM, Wed 9:00 AM - 10:00 PM, Thu 9:00 AM - 10:00 PM, Fri 9:00 AM - 10:00 PM, Sat 9:00 AM - 10:00 PM",,,0
LCBO Store # 429,429,29 PARK AVENUEP.O. BOX 70,,BURFORD,,N0E 1A0,Canada,519-449-5322,,,"Sun 11:00 AM - 6:00 PM, Mon 10:00 AM - 6:00 PM, Tue 10:00 AM - 6:00 PM, Wed 10:00 AM - 6:00 PM, Thu 10:00 AM - 6:00 PM, Fri 10:00 AM - 9:00 PM, Sat 10:00 AM - 6:00 PM",,,0
LCBO Store # 453,453,17365 LESLIE STREET,,NEWMARKET,,L3Y 9A3,Canada,905-898-1062,,,"Sun 12:00 PM - 5:00 PM, Mon 10:00 AM - 9:00 PM, Tue 10:00 AM - 9:00 PM, Wed 10:00 AM - 9:00 PM, Thu 10:00 AM - 9:00 PM, Fri 10:00 AM - 9:00 PM, Sat 10:00 AM - 9:00 PM",,,0
LCBO Store # 658,658,94 FIRST COMMERCE DRIVE,,AURORA,,L4G 0H5,Canada,905-751-0684,,,"Sun 11:00 AM - 6:00 PM, Mon 10:00 AM - 9:00 PM, Tue 10:00 AM - 9:00 PM, Wed 10:00 AM - 9:00 PM, Thu 10:00 AM - 9:00 PM, Fri 10:00 AM - 9:00 PM, Sat 10:00 AM - 9:00 PM",,,0
LCBO Store # 630,630,15830 BAYVIEW AVE.,,AURORA,,L4G 7Y3,Canada,905-727-7288,,,"Sun 11:00 AM - 6:00 PM, Mon 10:00 AM - 10:00 PM, Tue 10:00 AM - 10:00 PM, Wed 10:00 AM - 10:00 PM, Thu 10:00 AM - 10:00 PM, Fri 10:00 AM - 10:00 PM, Sat 10:00 AM - 10:00 PM",,,0
LCBO Store # 226,226,17555 YONGE STREET,,NEWMARKET,,L3Y 5H6,Canada,905-895-6341,,,"Sun 11:00 AM - 6:00 PM, Mon 10:00 AM - 10:00 PM, Tue 10:00 AM - 10:00 PM, Wed 10:00 AM - 10:00 PM, Thu 10:00 AM - 10:00 PM, Fri 10:00 AM - 10:00 PM, Sat 10:00 AM - 10:00 PM",,,0
LCBO Store # 391,391,180 GREEN LANE EAST,,EAST GWILLIMBURY,,L9N 0A2,Canada,905-836-7945,,,"Sun 11:00 AM - 6:00 PM, Mon 10:00 AM - 9:00 PM, Tue 10:00 AM - 9:00 PM, Wed 10:00 AM - 9:00 PM, Thu 10:00 AM - 9:00 PM, Fri 10:00 AM - 9:00 PM, Sat 10:00 AM - 9:00 PM",,,0
LCBO Store # 311,311,14824 YONGE ST.,,AURORA,,L4G 1N3,Canada,905-727-9722,,,"Sun 12:00 PM - 5:00 PM, Mon 10:00 AM - 9:00 PM, Tue 10:00 AM - 9:00 PM, Wed 10:00 AM - 9:00 PM, Thu 10:00 AM - 9:00 PM, Fri 10:00 AM - 9:00 PM, Sat 10:00 AM - 9:00 PM",,,0
LCBO Store # 404,404,5710 MAIN STREET UNIT 1UNIT #1,,STOUFFVILLE,,L4A 8A9,Canada,905-640-3771,,,"Sun 11:00 AM - 6:00 PM, Mon 10:00 AM - 9:00 PM, Tue 10:00 AM - 9:00 PM, Wed 10:00 AM - 9:00 PM, Thu 10:00 AM - 9:00 PM, Fri 10:00 AM - 9:00 PM, Sat 10:00 AM - 9:00 PM",,,0
LCBO Store # 554,554,12300 YONGE STREET,,RICHMOND HILL,,L4E 0W5,Canada,905-773-5275,,,"Sun 11:00 AM - 6:00 PM, Mon 10:00 AM - 9:00 PM, Tue 10:00 AM - 9:00 PM, Wed 10:00 AM - 9:00 PM, Thu 10:00 AM - 9:00 PM, Fri 10:00 AM - 9:00 PM, Sat 10:00 AM - 9:00 PM",,,0
LCBO Store # 386,386,"2B WELWOOD DRIVE, UNIT 1",,UXBRIDGE,,L9P 1Z7,Canada,905-852-6581,,,"Sun 11:00 AM - 6:00 PM, Mon 10:00 AM - 9:00 PM, Tue 10:00 AM - 9:00 PM, Wed 10:00 AM - 9:00 PM, Thu 10:00 AM - 9:00 PM, Fri 10:00 AM - 9:00 PM, Sat 10:00 AM - 9:00 PM",,,0
LCBO Store # 671,671,1700 KING ROADUNIT #55 BUILDING B,,KING CITY,,L7B 0N1,Canada,905-833-0641,,,"Sun 11:00 AM - 6:00 PM, Mon 10:00 AM - 9:00 PM, Tue 10:00 AM - 9:00 PM, Wed 10:00 AM - 9:00 PM, Thu 10:00 AM - 9:00 PM, Fri 10:00 AM - 9:00 PM, Sat 10:00 AM - 9:00 PM",,,0
LCBO Store # 145,145,484 HOLLAND STREET WESTUNIT #1,,BRADFORD,,L3Z 0A2,Canada,905-775-3481,,,"Sun 11:00 AM - 6:00 PM, Mon 10:00 AM - 9:00 PM, Tue 10:00 AM - 9:00 PM, Wed 10:00 AM - 9:00 PM, Thu 10:00 AM - 9:00 PM, Fri 10:00 AM - 9:00 PM, Sat 10:00 AM - 9:00 PM",,,0
LCBO Store # 340,340,76 ARLINGTON DRIVE,,KESWICK,,L4P 0A9,Canada,905-476-5322,,,"Sun 11:00 AM - 6:00 PM, Mon 10:00 AM - 9:00 PM, Tue 10:00 AM - 9:00 PM, Wed 10:00 AM - 9:00 PM, Thu 10:00 AM - 9:00 PM, Fri 10:00 AM - 9:00 PM, Sat 10:00 AM - 9:00 PM",,,0
LCBO Store # 248,248,10375 YONGE STREET NORTH,,RICHMOND HILL,,L4C 3C2,Canada,905-884-7321,,,"Sun 11:00 AM - 6:00 PM, Mon 10:00 AM - 9:00 PM, Tue 10:00 AM - 9:00 PM, Wed 10:00 AM - 9:00 PM, Thu 10:00 AM - 9:00 PM, Fri 10:00 AM - 9:00 PM, Sat 10:00 AM - 9:00 PM",,,0
LCBO Store # 383,383,9970 DUFFERIN STREET,,VAUGHAN,,L6A 4K5,Canada,905-879-1139,,,"Sun 11:00 AM - 6:00 PM, Mon 10:00 AM - 9:00 PM, Tue 10:00 AM - 9:00 PM, Wed 10:00 AM - 9:00 PM, Thu 10:00 AM - 9:00 PM, Fri 10:00 AM - 9:00 PM, Sat 10:00 AM - 9:00 PM",,,0
LCBO Store # 635,635,9310 BATHURST STREET,,MAPLE,,L6A 4N9,Canada,905-303-9290,,,"Sun 12:00 PM - 5:00 PM, Mon 10:00 AM - 9:00 PM, Tue 10:00 AM - 9:00 PM, Wed 10:00 AM - 9:00 PM, Thu 10:00 AM - 9:00 PM, Fri 10:00 AM - 9:00 PM, Sat 10:00 AM - 9:00 PM",,,0
LCBO Store # 139,139,20954 DALTON RDSUTTON WEST PLAZA,,SUTTON,,L0E 1R0,Canada,905-722-3641,,,"Sun 11:00 AM - 6:00 PM, Mon 10:00 AM - 9:00 PM, Tue 10:00 AM - 9:00 PM, Wed 10:00 AM - 9:00 PM, Thu 10:00 AM - 9:00 PM, Fri 10:00 AM - 9:00 PM, Sat 10:00 AM - 9:00 PM",,,0
LCBO Store # 612,612,17240 HWY 27,,SCHOMBERG,,L0G 1T0,Canada,905-939-8191,,,"Sun 11:00 AM - 6:00 PM, Mon 10:00 AM - 6:00 PM, Tue 10:00 AM - 6:00 PM, Wed 10:00 AM - 6:00 PM, Thu 10:00 AM - 9:00 PM, Fri 10:00 AM - 9:00 PM, Sat 10:00 AM - 6:00 PM",,,0
LCBO Store # 536,536,2943 MAJOR MACKENZIE DRIVEUNIT 1,,MAPLE,,L6A 1C6,Canada,905-832-1367,,,"Sun 11:00 AM - 6:00 PM, Mon 10:00 AM - 9:00 PM, Tue 10:00 AM - 9:00 PM, Wed 10:00 AM - 9:00 PM, Thu 10:00 AM - 9:00 PM, Fri 10:00 AM - 9:00 PM, Sat 10:00 AM - 9:00 PM",,,0
LCBO Store # 397,397,3631 MAJOR MACKENZIE DRIVEBUILDING B,,VAUGHAN,,L4H 0A2,Canada,905-417-1102,,,"Sun 11:00 AM - 6:00 PM, Mon 10:00 AM - 9:00 PM, Tue 10:00 AM - 9:00 PM, Wed 10:00 AM - 9:00 PM, Thu 10:00 AM - 9:00 PM, Fri 10:00 AM - 9:00 PM, Sat 10:00 AM - 9:00 PM",,,0
LCBO Store # 596,596,17 HASTINGS ROAD,,PEFFERLAW,,L0E 1N0,Canada,705-437-2900,,,"Sun 11:00 AM - 6:00 PM, Mon 10:00 AM - 6:00 PM, Tue 10:00 AM - 6:00 PM, Wed 10:00 AM - 6:00 PM, Thu 10:00 AM - 6:00 PM, Fri 10:00 AM - 8:00 PM, Sat 10:00 AM - 6:00 PM",,,0
LCBO Store # 477,477,13255 HIGHWAY 27,,NOBLETON,,L0G 1N0,Canada,905-859-1264,,,"Sun 11:00 AM - 6:00 PM, Mon 10:00 AM - 8:00 PM, Tue 10:00 AM - 8:00 PM, Wed 10:00 AM - 8:00 PM, Thu 10:00 AM - 8:00 PM, Fri 10:00 AM - 9:00 PM, Sat 10:00 AM - 9:00 PM",,,0
LCBO Store # 53,53,52 QUEEN STREETUNIT 6,,COOKSTOWN,,L0L 1L0,Canada,705-458-0692,,,"Sun 11:00 AM - 6:00 PM, Mon 10:00 AM - 8:00 PM, Tue 10:00 AM - 8:00 PM, Wed 10:00 AM - 8:00 PM, Thu 10:00 AM - 8:00 PM, Fri 10:00 AM - 8:00 PM, Sat 10:00 AM - 6:00 PM",,,0
LCBO Store # 221,221,1535 HWY 7A,,PORT PERRY,,L9L 1B5,Canada,905-985-2392,,,"Sun 11:00 AM - 6:00 PM, Mon 10:00 AM - 9:00 PM, Tue 10:00 AM - 9:00 PM, Wed 10:00 AM - 9:00 PM, Thu 10:00 AM - 9:00 PM, Fri 10:00 AM - 9:00 PM, Sat 10:00 AM - 9:00 PM",,,0
LCBO Store # 191,191,1979 SALEM ROAD NORTH,,AJAX,,L1T 0J9,Canada,905-427-2920,,,"Sun 11:00 AM - 6:00 PM, Mon 10:00 AM - 9:00 PM, Tue 10:00 AM - 9:00 PM, Wed 10:00 AM - 9:00 PM, Thu 10:00 AM - 9:00 PM, Fri 10:00 AM - 9:00 PM, Sat 10:00 AM - 9:00 PM",,,0
LCBO Store # 605,605,1465 INNISFIL BEACH ROADUNIT #7,,INNISFIL,,L9S 4B2,Canada,705-436-7182,,,"Sun 11:00 AM - 6:00 PM, Mon 10:00 AM - 9:00 PM, Tue 10:00 AM - 9:00 PM, Wed 10:00 AM - 9:00 PM, Thu 10:00 AM - 9:00 PM, Fri 10:00 AM - 9:00 PM, Sat 10:00 AM - 9:00 PM",,,0
LCBO Store # 618,618,2181 STEELES AVE W UNIT 17UNIT #17,,TORONTO-NORTH YORK,,M3J 3N2,Canada,416-736-8495,,,"Sun 11:00 AM - 6:00 PM, Mon 10:00 AM - 9:00 PM, Tue 10:00 AM - 9:00 PM, Wed 10:00 AM - 9:00 PM, Thu 10:00 AM - 9:00 PM, Fri 10:00 AM - 9:00 PM, Sat 10:00 AM - 9:00 PM",,,0
LCBO Store # 776,776,1899 BROCK RD UNIT K3,,PICKERING,,L1V 4H7,Canada,905-427-9830,,,"Sun 11:00 AM - 6:00 PM, Mon 10:00 AM - 9:00 PM, Tue 10:00 AM - 9:00 PM, Wed 10:00 AM - 9:00 PM, Thu 10:00 AM - 9:00 PM, Fri 10:00 AM - 9:00 PM, Sat 10:00 AM - 9:00 PM",,,0
LCBO Store # 237,237,11 WINCHESTER ROAD EAST,,BROOKLIN,,L1M 2J7,Canada,905-655-7300,,,"Sun 11:00 AM - 6:00 PM, Mon 10:00 AM - 9:00 PM, Tue 10:00 AM - 9:00 PM, Wed 10:00 AM - 9:00 PM, Thu 10:00 AM - 9:00 PM, Fri 10:00 AM - 9:00 PM, Sat 10:00 AM - 9:00 PM",,,0
LCBO Store # 346,346,7850 WESTON ROADBUILDING C5,,WOODBRIDGE,,L4L 9N8,Canada,905-851-2500,,,"Sun 11:00 AM - 6:00 PM, Mon 10:00 AM - 9:00 PM, Tue 10:00 AM - 9:00 PM, Wed 10:00 AM - 9:00 PM, Thu 10:00 AM - 9:00 PM, Fri 10:00 AM - 9:00 PM, Sat 10:00 AM - 9:00 PM",,,0
LCBO Store # 771,771,"40 KINGSTON ROAD - EASTDURHAM CENTRE, UNIT 104",,AJAX,,L1Z 1G1,Canada,905-683-5306,,,"Sun 11:00 AM - 6:00 PM, Mon 10:00 AM - 9:00 PM, Tue 10:00 AM - 9:00 PM, Wed 10:00 AM - 9:00 PM, Thu 10:00 AM - 9:00 PM, Fri 10:00 AM - 9:00 PM, Sat 10:00 AM - 9:00 PM",,,0
LCBO Store # 279,279,1339 LAWRENCE AVE. WESTNORTH PARK PLAZA,,TORONTO-NORTH YORK,,M6L 1A5,Canada,416-249-1391,,,"Sun 11:00 AM - 6:00 PM, Mon 10:00 AM - 9:00 PM, Tue 10:00 AM - 9:00 PM, Wed 10:00 AM - 9:00 PM, Thu 10:00 AM - 10:00 PM, Fri 10:00 AM - 10:00 PM, Sat 10:00 AM - 10:00 PM",,,0
LCBO Store # 422,422,HWY. 544P.O. BOX 370,,ONAPING,,P0M 2R0,Canada,705-966-2331,,,"Sun Closed - , Mon Closed - , Tue 10:00 AM - 6:00 PM, Wed 10:00 AM - 6:00 PM, Thu 10:00 AM - 6:00 PM, Fri 10:00 AM - 8:00 PM, Sat 10:00 AM - 6:00 PM",,,0
LCBO Store # 236,236,3468 ERRINGTON AVENUEP.O. BOX 338,,CHELMSFORD,,P0M 1L0,Canada,705-855-4964,,,"Sun 11:00 AM - 6:00 PM, Mon 10:00 AM - 6:00 PM, Tue 10:00 AM - 6:00 PM, Wed 10:00 AM - 6:00 PM, Thu 10:00 AM - 6:00 PM, Fri 10:00 AM - 9:00 PM, Sat 10:00 AM - 6:00 PM",,,0
LCBO Store # 405,405,93 NOTRE DAME ST. W.P.O. BOX 508,,AZILDA,,P0M 1B0,Canada,705-983-4393,,,"Sun 11:00 AM - 6:00 PM, Mon 10:00 AM - 6:00 PM, Tue 10:00 AM - 6:00 PM, Wed 10:00 AM - 6:00 PM, Thu 10:00 AM - 6:00 PM, Fri 10:00 AM - 9:00 PM, Sat 10:00 AM - 6:00 PM",,,0
LCBO Store # 552,552,"3140 HWY. 69 NORTHUNIT 24, VAL EST SHOPPING MALL",,VAL CARON,,P3N 1G3,Canada,705-897-5500,,,"Sun 11:00 AM - 6:00 PM, Mon 10:00 AM - 6:00 PM, Tue 10:00 AM - 6:00 PM, Wed 10:00 AM - 6:00 PM, Thu 10:00 AM - 9:00 PM, Fri 10:00 AM - 9:00 PM, Sat 10:00 AM - 6:00 PM",,,0
LCBO Store # 327,327,5-5085 HWY 69HANMER VALLEY SHOPPING CENTRE,,HANMER,,P3P 1P7,Canada,705-969-2088,,,"Sun 11:00 AM - 6:00 PM, Mon 10:00 AM - 6:00 PM, Tue 10:00 AM - 6:00 PM, Wed 10:00 AM - 6:00 PM, Thu 10:00 AM - 9:00 PM, Fri 10:00 AM - 9:00 PM, Sat 10:00 AM - 6:00 PM",,,0
LCBO Store # 395,395,R.R. #1WALDEN PLAZA,,LIVELY,,P3Y 1J1,Canada,705-692-3810,,,"Sun 11:00 AM - 6:00 PM, Mon 10:00 AM - 6:00 PM, Tue 10:00 AM - 6:00 PM, Wed 10:00 AM - 6:00 PM, Thu 10:00 AM - 6:00 PM, Fri 10:00 AM - 9:00 PM, Sat 10:00 AM - 6:00 PM",,,0
LCBO Store # 531,531,12 SERPENTINE STREETP.O. BOX 1101,,COPPER CLIFF,,P0M 1N0,Canada,705-682-0946,,,"Sun Closed - , Mon 10:00 AM - 6:00 PM, Tue 10:00 AM - 6:00 PM, Wed 10:00 AM - 6:00 PM, Thu 10:00 AM - 6:00 PM, Fri 10:00 AM - 6:00 PM, Sat 10:00 AM - 6:00 PM",,,0
LCBO Store # 118,118,12 HANNA STREETP.O. BOX 968,,CAPREOL,,P0M 1H0,Canada,705-858-1552,,,"Sun 11:00 AM - 6:00 PM, Mon 10:00 AM - 6:00 PM, Tue 10:00 AM - 6:00 PM, Wed 10:00 AM - 6:00 PM, Thu 10:00 AM - 6:00 PM, Fri 10:00 AM - 9:00 PM, Sat 10:00 AM - 6:00 PM",,,0
LCBO Store # 50,50,190 CEDAR STREET,,SUDBURY-DOWNTOWN,,P3E 1B4,Canada,705-675-5391,,,"Sun 11:00 AM - 6:00 PM, Mon 10:00 AM - 6:00 PM, Tue 10:00 AM - 6:00 PM, Wed 10:00 AM - 6:00 PM, Thu 10:00 AM - 9:00 PM, Fri 10:00 AM - 9:00 PM, Sat 10:00 AM - 6:00 PM",,,0
LCBO Store # 287,287,1467 LASALLE BOULEVARDSUPERMALL,,SUDBURY-NEW SUDBURY,,P3A 1Z8,Canada,705-566-3882,,,"Sun 11:00 AM - 6:00 PM, Mon 10:00 AM - 10:00 PM, Tue 10:00 AM - 10:00 PM, Wed 10:00 AM - 10:00 PM, Thu 10:00 AM - 10:00 PM, Fri 10:00 AM - 10:00 PM, Sat 10:00 AM - 10:00 PM",,,0
LCBO Store # 407,407,2400 LONG LAKE ROAD,,SUDBURY-SOUTH END,,P3E 5H5,Canada,705-522-8000,,,"Sun 11:00 AM - 6:00 PM, Mon 10:00 AM - 10:00 PM, Tue 10:00 AM - 10:00 PM, Wed 10:00 AM - 10:00 PM, Thu 10:00 AM - 10:00 PM, Fri 10:00 AM - 10:00 PM, Sat 10:00 AM - 10:00 PM",,,0
LCBO Store # 652,652,1099 MARCUS DRIVE,,SUDBURY,,P3B 4K6,Canada,705-560-4652,,,"Sun 11:00 AM - 6:00 PM, Mon 10:00 AM - 9:00 PM, Tue 10:00 AM - 9:00 PM, Wed 10:00 AM - 9:00 PM, Thu 10:00 AM - 9:00 PM, Fri 10:00 AM - 9:00 PM, Sat 10:00 AM - 9:00 PM",,,0
LCBO Store # 103,103,139 BARBER STREETBOX 4073,,ESPANOLA,,P5E 1S4,Canada,705-869-1950,,,"Sun 11:00 AM - 6:00 PM, Mon 10:00 AM - 6:00 PM, Tue 10:00 AM - 6:00 PM, Wed 10:00 AM - 6:00 PM, Thu 10:00 AM - 6:00 PM, Fri 10:00 AM - 8:00 PM, Sat 10:00 AM - 6:00 PM",,,0
LCBO Store # 507,507,3060 FALCONBRIDGE HWY.UNIT 10,,GARSON,,P3L 1P6,Canada,705-693-5940,,,"Sun 11:00 AM - 6:00 PM, Mon 10:00 AM - 6:00 PM, Tue 10:00 AM - 6:00 PM, Wed 10:00 AM - 6:00 PM, Thu 10:00 AM - 6:00 PM, Fri 10:00 AM - 9:00 PM, Sat 10:00 AM - 6:00 PM",,,0
LCBO Store # 576,576,"24 - 5 AMANDA STREETP.O. BOX 368, AMANDA CENTRE",,CONISTON,,P0M 1M0,Canada,705-694-4542,,,"Sun 11:00 AM - 6:00 PM, Mon 10:00 AM - 6:00 PM, Tue 10:00 AM - 6:00 PM, Wed 10:00 AM - 6:00 PM, Thu 10:00 AM - 6:00 PM, Fri 10:00 AM - 9:00 PM, Sat 10:00 AM - 6:00 PM",,,0
LCBO Store # 256,256,250 IMPERIAL STREET S.P.O. BOX 519,,MASSEY,,P0P 1P0,Canada,705-865-2033,,,"Sun 11:00 AM - 6:00 PM, Mon 10:00 AM - 6:00 PM, Tue 10:00 AM - 6:00 PM, Wed 10:00 AM - 6:00 PM, Thu 10:00 AM - 6:00 PM, Fri 10:00 AM - 8:00 PM, Sat 10:00 AM - 6:00 PM",,,0
LCBO Store # 349,349,23 MILL STREETPO BOX 959,,VANKLEEK HILL,,K0B 1R0,Canada,613-678-2001,,,"Sun 11:00 AM - 6:00 PM, Mon 10:00 AM - 6:00 PM, Tue 10:00 AM - 6:00 PM, Wed 10:00 AM - 6:00 PM, Thu 10:00 AM - 6:00 PM, Fri 10:00 AM - 8:00 PM, Sat 10:00 AM - 6:00 PM",,,0
LCBO Store # 98,98,372 MAIN STREET SOUTH,,ALEXANDRIA,,K0C 1A0,Canada,613-525-3010,,,"Sun 11:00 AM - 6:00 PM, Mon 10:00 AM - 6:00 PM, Tue 10:00 AM - 6:00 PM, Wed 10:00 AM - 6:00 PM, Thu 10:00 AM - 6:00 PM, Fri 10:00 AM - 8:00 PM, Sat 10:00 AM - 6:00 PM",,,0
LCBO Store # 83,83,56 MAIN STREET EAST,,HAWKESBURY,,K6A 1A3,Canada,613-632-2121,,,"Sun 11:00 AM - 6:00 PM, Mon 10:00 AM - 9:00 PM, Tue 10:00 AM - 9:00 PM, Wed 10:00 AM - 9:00 PM, Thu 10:00 AM - 9:00 PM, Fri 10:00 AM - 9:00 PM, Sat 10:00 AM - 9:00 PM",,,0
LCBO Store # 123,123,16 MOLAN STREET,,LANCASTER,,K0C 1N0,Canada,613-347-2056,,,"Sun 11:00 AM - 6:00 PM, Mon 10:00 AM - 6:00 PM, Tue 10:00 AM - 6:00 PM, Wed 10:00 AM - 6:00 PM, Thu 10:00 AM - 6:00 PM, Fri 10:00 AM - 6:00 PM, Sat 10:00 AM - 6:00 PM",,,0
LCBO Store # 49,49,1315-B SECOND STREET,,CORNWALL,,K6H 7C4,Canada,613-932-1950,,,"Sun 11:00 AM - 6:00 PM, Mon 9:30 AM - 8:00 PM, Tue 9:30 AM - 8:00 PM, Wed 9:30 AM - 8:00 PM, Thu 9:30 AM - 9:00 PM, Fri 9:30 AM - 9:00 PM, Sat 9:30 AM - 9:00 PM",,,0
LCBO Store # 540,540,11-960 BROOKDALE AVENUEBROOKDALE MALL,,CORNWALL,,K6J 4P5,Canada,613-933-1723,,,"Sun 11:00 AM - 6:00 PM, Mon 9:30 AM - 9:00 PM, Tue 9:30 AM - 9:00 PM, Wed 9:30 AM - 9:00 PM, Thu 9:30 AM - 9:00 PM, Fri 9:30 AM - 9:00 PM, Sat 9:30 AM - 9:00 PM",,,0
LCBO Store # 435,435,"33 LONG SAULT DRIVE, LONG SAULT SCP.O. BOX 130",,LONG SAULT,,K0C 1P0,Canada,613-534-2481,,,"Sun 11:00 AM - 6:00 PM, Mon 10:00 AM - 6:00 PM, Tue 10:00 AM - 6:00 PM, Wed 10:00 AM - 6:00 PM, Thu 10:00 AM - 6:00 PM, Fri 10:00 AM - 6:00 PM, Sat 10:00 AM - 6:00 PM",,,0
LCBO Store # 238,238,117 MARKET STREET EAST,,PORT DOVER,,N0A 1N0,Canada,519-583-1900,,,"Sun 11:00 AM - 6:00 PM, Mon 10:00 AM - 6:00 PM, Tue 10:00 AM - 6:00 PM, Wed 10:00 AM - 6:00 PM, Thu 10:00 AM - 6:00 PM, Fri 10:00 AM - 8:00 PM, Sat 10:00 AM - 6:00 PM",,,0
LCBO Store # 74,74,154 QUEENSWAY ROAD EAST,,SIMCOE,,N3Y 2N6,Canada,519-426-2115,,,"Sun 11:00 AM - 6:00 PM, Mon 10:00 AM - 9:00 PM, Tue 10:00 AM - 9:00 PM, Wed 10:00 AM - 9:00 PM, Thu 10:00 AM - 9:00 PM, Fri 10:00 AM - 9:00 PM, Sat 10:00 AM - 9:00 PM",,,0
LCBO Store # 299,299,37 ST. JAMES STREETPO BOX 419,,WATERFORD,,N0E 1Y0,Canada,519-443-5214,,,"Sun 11:00 AM - 6:00 PM, Mon 10:00 AM - 6:00 PM, Tue 10:00 AM - 6:00 PM, Wed 10:00 AM - 6:00 PM, Thu 10:00 AM - 6:00 PM, Fri 10:00 AM - 8:00 PM, Sat 10:00 AM - 6:00 PM",,,0
LCBO Store # 181,181,249 JAMES STREET,,DELHI,,N4B 2B2,Canada,519-582-2610,,,"Sun 11:00 AM - 6:00 PM, Mon 10:00 AM - 6:00 PM, Tue 10:00 AM - 6:00 PM, Wed 10:00 AM - 6:00 PM, Thu 10:00 AM - 8:00 PM, Fri 10:00 AM - 8:00 PM, Sat 10:00 AM - 6:00 PM",,,0
LCBO Store # 240,240,3 CENTRE ST.P.O. BOX 188,,PORT ROWAN,,N0E 1M0,Canada,519-586-2151,,,"Sun 11:00 AM - 6:00 PM, Mon 10:00 AM - 6:00 PM, Tue 10:00 AM - 6:00 PM, Wed 10:00 AM - 6:00 PM, Thu 10:00 AM - 6:00 PM, Fri 10:00 AM - 6:00 PM, Sat 10:00 AM - 6:00 PM",,,0
LCBO Store # 510,510,67 QUEEN STREETP.O. BOX 69,,LANGTON,,N0E 1G0,Canada,519-875-2661,,,"Sun 11:00 AM - 6:00 PM, Mon 10:00 AM - 6:00 PM, Tue 10:00 AM - 6:00 PM, Wed 10:00 AM - 6:00 PM, Thu 10:00 AM - 6:00 PM, Fri 10:00 AM - 8:00 PM, Sat 10:00 AM - 6:00 PM",,,0
LCBO Store # 558,558,93 MAIN STREET WESTP.O. BOX 640,,NORWICH,,N0J 1P0,Canada,519-863-3710,,,"Sun 11:00 AM - 6:00 PM, Mon 10:00 AM - 6:00 PM, Tue 10:00 AM - 6:00 PM, Wed 10:00 AM - 6:00 PM, Thu 10:00 AM - 6:00 PM, Fri 10:00 AM - 8:00 PM, Sat 10:00 AM - 6:00 PM",,,0
LCBO Store # 199,199,200 BROADWAY STREETTOWN CENTRE,,TILLSONBURG,,N4G 5A7,Canada,519-842-4191,,,"Sun 11:00 AM - 6:00 PM, Mon 10:00 AM - 6:00 PM, Tue 10:00 AM - 6:00 PM, Wed 10:00 AM - 6:00 PM, Thu 10:00 AM - 8:00 PM, Fri 10:00 AM - 9:00 PM, Sat 10:00 AM - 6:00 PM",,,0
LCBO Store # 289,289,115 PARKVIEW DRIVEP.O. BOX 278,,ST. MARYS,,N4X 1B1,Canada,519-284-2300,,,"Sun 11:00 AM - 6:00 PM, Mon 10:00 AM - 6:00 PM, Tue 10:00 AM - 6:00 PM, Wed 10:00 AM - 6:00 PM, Thu 10:00 AM - 6:00 PM, Fri 10:00 AM - 9:00 PM, Sat 10:00 AM - 6:00 PM",,,0
LCBO Store # 169,169,68 CHARLES STREET WESTINGERSOLL PLAZA,,INGERSOLL,,N5C 2L6,Canada,519-485-3401,,,"Sun 11:00 AM - 6:00 PM, Mon 10:00 AM - 6:00 PM, Tue 10:00 AM - 6:00 PM, Wed 10:00 AM - 6:00 PM, Thu 10:00 AM - 6:00 PM, Fri 10:00 AM - 9:00 PM, Sat 10:00 AM - 6:00 PM",,,0
LCBO Store # 254,254,4 CENTRE STREETP.O. BOX 268,,MILLBROOK,,L0A 1G0,Canada,705-932-2753,,,"Sun 11:00 AM - 6:00 PM, Mon 10:00 AM - 6:00 PM, Tue 10:00 AM - 6:00 PM, Wed 10:00 AM - 6:00 PM, Thu 10:00 AM - 6:00 PM, Fri 10:00 AM - 8:00 PM, Sat 10:00 AM - 6:00 PM",,,0
LCBO Store # 489,489,34 BEAVER STREET,,NEWCASTLE,,L1B 1H6,Canada,905-987-4843,,,"Sun 11:00 AM - 6:00 PM, Mon 10:00 AM - 6:00 PM, Tue 10:00 AM - 6:00 PM, Wed 10:00 AM - 6:00 PM, Thu 10:00 AM - 8:00 PM, Fri 10:00 AM - 9:00 PM, Sat 10:00 AM - 8:00 PM",,,0
LCBO Store # 543,543,91 MILL STREETP.O. BOX 369,,ORONO,,L0B 1M0,Canada,905-983-9200,,,"Sun 11:00 AM - 6:00 PM, Mon 10:00 AM - 6:00 PM, Tue 10:00 AM - 6:00 PM, Wed 10:00 AM - 6:00 PM, Thu 10:00 AM - 6:00 PM, Fri 10:00 AM - 6:00 PM, Sat 10:00 AM - 6:00 PM",,,0
LCBO Store # 611,611,646 DRUM ROADCANADA POST OFFICE BOX #250,,PONTYPOOL,,L0A 1K0,Canada,705-277-3131,,,"Sun Closed - , Mon 10:00 AM - 6:00 PM, Tue 10:00 AM - 6:00 PM, Wed 10:00 AM - 6:00 PM, Thu 10:00 AM - 6:00 PM, Fri 10:00 AM - 6:00 PM, Sat 10:00 AM - 6:00 PM",,,0
LCBO Store # 263,263,2344 HIGHWAY #2,,BOWMANVILLE,,L1C 0K5,Canada,905-623-2391,,,"Sun 11:00 AM - 6:00 PM, Mon 10:00 AM - 9:00 PM, Tue 10:00 AM - 9:00 PM, Wed 10:00 AM - 9:00 PM, Thu 10:00 AM - 9:00 PM, Fri 10:00 AM - 9:00 PM, Sat 10:00 AM - 9:00 PM",,,0
LCBO Store # 281,281,4 KING STREETP.O. BOX 29,,OMEMEE,,K0L 2W0,Canada,705-799-5212,,,"Sun 11:00 AM - 6:00 PM, Mon 10:00 AM - 6:00 PM, Tue 10:00 AM - 6:00 PM, Wed 10:00 AM - 6:00 PM, Thu 10:00 AM - 6:00 PM, Fri 10:00 AM - 8:00 PM, Sat 10:00 AM - 6:00 PM",,,0
LCBO Store # 468,468,861 WARD STREETP.O. BOX 149,,BRIDGENORTH,,K0L 1H0,Canada,705-292-9801,,,"Sun 11:00 AM - 6:00 PM, Mon 10:00 AM - 6:00 PM, Tue 10:00 AM - 6:00 PM, Wed 10:00 AM - 6:00 PM, Thu 10:00 AM - 6:00 PM, Fri 10:00 AM - 8:00 PM, Sat 10:00 AM - 6:00 PM",,,0
LCBO Store # 653,653,1437 KING STREET EAST,,COURTICE,,L1E 2J7,Canada,905-576-8074,,,"Sun 11:00 AM - 6:00 PM, Mon 10:00 AM - 9:00 PM, Tue 10:00 AM - 9:00 PM, Wed 10:00 AM - 9:00 PM, Thu 10:00 AM - 9:00 PM, Fri 10:00 AM - 9:00 PM, Sat 10:00 AM - 9:00 PM",,,0
LCBO Store # 465,465,1409 HARMONY RD,,OSHAWA,,L1H 7K5,Canada,905-576-5223,,,"Sun 11:00 AM - 6:00 PM, Mon 9:00 AM - 9:00 PM, Tue 9:00 AM - 9:00 PM, Wed 9:00 AM - 9:00 PM, Thu 9:00 AM - 9:00 PM, Fri 9:00 AM - 9:00 PM, Sat 9:00 AM - 9:00 PM",,,0
LCBO Store # 563,563,555 ROSSLAND ROAD EASTROSSLAND SQUARE,,OSHAWA,,L1K 1K8,Canada,905-579-6563,,,"Sun 11:00 AM - 6:00 PM, Mon 10:00 AM - 6:00 PM, Tue 10:00 AM - 6:00 PM, Wed 10:00 AM - 6:00 PM, Thu 10:00 AM - 9:00 PM, Fri 10:00 AM - 9:00 PM, Sat 10:00 AM - 9:00 PM",,,0
LCBO Store # 152,152,199 WENTWORTH STREET WESTLAKE VISTA PLAZA,,OSHAWA,,L1J 6P4,Canada,905-725-9535,,,"Sun 11:00 AM - 6:00 PM, Mon 10:00 AM - 6:00 PM, Tue 10:00 AM - 6:00 PM, Wed 10:00 AM - 6:00 PM, Thu 10:00 AM - 6:00 PM, Fri 10:00 AM - 9:00 PM, Sat 10:00 AM - 6:00 PM",,,0
LCBO Store # 90,90,45 RICHMOND STREET WEST,,OSHAWA,,L1G 1C9,Canada,905-723-7033,,,"Sun 11:00 AM - 6:00 PM, Mon 10:00 AM - 6:00 PM, Tue 10:00 AM - 6:00 PM, Wed 10:00 AM - 6:00 PM, Thu 10:00 AM - 6:00 PM, Fri 10:00 AM - 9:00 PM, Sat 10:00 AM - 6:00 PM",,,0
LCBO Store # 378,378,400 GIBB ST.OSHAWA CENTRE,,OSHAWA,,L1J 0B2,Canada,905-723-5721,,,"Sun 11:00 AM - 6:00 PM, Mon 10:00 AM - 9:00 PM, Tue 10:00 AM - 9:00 PM, Wed 10:00 AM - 9:00 PM, Thu 10:00 AM - 9:00 PM, Fri 10:00 AM - 10:00 PM, Sat 10:00 AM - 9:00 PM",,,0
LCBO Store # 587,587,74 THICKSON ROAD SOUTH,,WHITBY,,L1N 7T2,Canada,905-665-3244,,,"Sun 11:00 AM - 6:00 PM, Mon 10:00 AM - 9:00 PM, Tue 10:00 AM - 9:00 PM, Wed 10:00 AM - 9:00 PM, Thu 10:00 AM - 9:00 PM, Fri 10:00 AM - 9:00 PM, Sat 10:00 AM - 9:00 PM",,,0
LCBO Store # 188,188,111 GILBERT STREET EAST,,WHITBY,,L1N 1R1,Canada,905-668-3241,,,"Sun 11:00 AM - 6:00 PM, Mon 10:00 AM - 9:00 PM, Tue 10:00 AM - 9:00 PM, Wed 10:00 AM - 9:00 PM, Thu 10:00 AM - 9:00 PM, Fri 10:00 AM - 9:00 PM, Sat 10:00 AM - 9:00 PM",,,0
LCBO Store # 82,82,449 KENT STREET WEST,,LINDSAY,,K9V 6C3,Canada,705-324-5511,,,"Sun 11:00 AM - 6:00 PM, Mon 9:00 AM - 10:00 PM, Tue 9:00 AM - 10:00 PM, Wed 9:00 AM - 10:00 PM, Thu 9:00 AM - 10:00 PM, Fri 9:00 AM - 10:00 PM, Sat 9:00 AM - 10:00 PM",,,0
LCBO Store # 695,695,629 VICTORIA ST W,,WHITBY,,L1N 0E4,Canada,905-665-2613,,,"Sun 11:00 AM - 6:00 PM, Mon 10:00 AM - 9:00 PM, Tue 10:00 AM - 9:00 PM, Wed 10:00 AM - 9:00 PM, Thu 10:00 AM - 9:00 PM, Fri 10:00 AM - 9:00 PM, Sat 10:00 AM - 9:00 PM",,,0
LCBO Store # 432,432,170 TAUNTON ROAD WEST,,WHITBY,,L1R 3H8,Canada,905-655-6090,,,"Sun 11:00 AM - 6:00 PM, Mon 10:00 AM - 9:00 PM, Tue 10:00 AM - 9:00 PM, Wed 10:00 AM - 9:00 PM, Thu 10:00 AM - 9:00 PM, Fri 10:00 AM - 9:00 PM, Sat 10:00 AM - 9:00 PM",,,0
LCBO Store # 561,561,1976 LAKEHURST ROADGENERAL DELIVERY,,BUCKHORN,,K0L 1J0,Canada,705-657-3211,,,"Sun 11:00 AM - 6:00 PM, Mon 10:00 AM - 6:00 PM, Tue 10:00 AM - 6:00 PM, Wed 10:00 AM - 6:00 PM, Thu 10:00 AM - 6:00 PM, Fri 10:00 AM - 8:00 PM, Sat 10:00 AM - 6:00 PM",,,0
LCBO Store # 222,222,37 KING STREET EASTP.O. BOX 130,,BOBCAYGEON,,K0M 1A0,Canada,705-738-2591,,,"Sun 11:00 AM - 6:00 PM, Mon 10:00 AM - 6:00 PM, Tue 10:00 AM - 6:00 PM, Wed 10:00 AM - 6:00 PM, Thu 10:00 AM - 6:00 PM, Fri 10:00 AM - 8:00 PM, Sat 10:00 AM - 6:00 PM",,,0
LCBO Store # 201,201,105 BAYLY STREET WESTBAYWOOD CENTRE,,AJAX,,L1S 7K7,Canada,905-683-5370,,,"Sun 11:00 AM - 6:00 PM, Mon 10:00 AM - 9:00 PM, Tue 10:00 AM - 9:00 PM, Wed 10:00 AM - 9:00 PM, Thu 10:00 AM - 9:00 PM, Fri 10:00 AM - 9:00 PM, Sat 10:00 AM - 9:00 PM",,,0
LCBO Store # 239,239,30 WELLINGTON STREET,,AYLMER,,N5H 2K2,Canada,519-773-7122,,,"Sun 11:00 AM - 6:00 PM, Mon 10:00 AM - 6:00 PM, Tue 10:00 AM - 6:00 PM, Wed 10:00 AM - 6:00 PM, Thu 10:00 AM - 6:00 PM, Fri 10:00 AM - 9:00 PM, Sat 10:00 AM - 6:00 PM",,,0
LCBO Store # 62,62,30 - 1010 TALBOT STREET,,ST. THOMAS,,N5P 4N2,Canada,519-631-5000,,,"Sun 11:00 AM - 6:00 PM, Mon 10:00 AM - 9:00 PM, Tue 10:00 AM - 9:00 PM, Wed 10:00 AM - 9:00 PM, Thu 10:00 AM - 9:00 PM, Fri 10:00 AM - 9:00 PM, Sat 10:00 AM - 9:00 PM",,,0
LCBO Store # 548,548,210 CAESAR ROADP.O. BOX 61,,BELMONT,,N0L 1B0,Canada,519-644-1500,,,"Sun 11:00 AM - 6:00 PM, Mon 10:00 AM - 6:00 PM, Tue 10:00 AM - 6:00 PM, Wed 10:00 AM - 6:00 PM, Thu 10:00 AM - 6:00 PM, Fri 10:00 AM - 9:00 PM, Sat 10:00 AM - 6:00 PM",,,0
LCBO Store # 330,330,325 BRIDGE STREET,,PORT STANLEY,,N5L 1C5,Canada,519-782-3367,,,"Sun 11:00 AM - 6:00 PM, Mon 10:00 AM - 6:00 PM, Tue 10:00 AM - 6:00 PM, Wed 10:00 AM - 6:00 PM, Thu 10:00 AM - 6:00 PM, Fri 10:00 AM - 9:00 PM, Sat 10:00 AM - 6:00 PM",,,0
LCBO Store # 527,527,4349 HAMILTON ROAD,,DORCHESTER,,N0L 1G3,Canada,519-268-7791,,,"Sun 11:00 AM - 6:00 PM, Mon 10:00 AM - 6:00 PM, Tue 10:00 AM - 6:00 PM, Wed 10:00 AM - 6:00 PM, Thu 10:00 AM - 6:00 PM, Fri 10:00 AM - 9:00 PM, Sat 10:00 AM - 6:00 PM",,,0
LCBO Store # 575,575,1073 WELLINGTON ROAD SOUTH,,LONDON,,N6E 1W4,Canada,519-681-4242,,,"Sun 11:00 AM - 6:00 PM, Mon 10:00 AM - 9:00 PM, Tue 10:00 AM - 9:00 PM, Wed 10:00 AM - 9:00 PM, Thu 10:00 AM - 10:00 PM, Fri 10:00 AM - 10:00 PM, Sat 10:00 AM - 10:00 PM",,,0
LCBO Store # 413,413,30 ROBINSON STREETP.O. BOX 160,,PORT BURWELL,,N0J 1T0,Canada,519-874-4653,,,"Sun Closed - , Mon Closed - , Tue 10:00 AM - 6:00 PM, Wed 10:00 AM - 6:00 PM, Thu 10:00 AM - 6:00 PM, Fri 10:00 AM - 6:00 PM, Sat 10:00 AM - 6:00 PM",,,0
LCBO Store # 413,413,30 ROBINSON STREETP.O. BOX 160,,PORT BURWELL,,N0J 1T0,Canada,519-874-4653,,,"Sun Closed - , Mon Closed - , Tue 10:00 AM - 6:00 PM, Wed 10:00 AM - 6:00 PM, Thu 10:00 AM - 6:00 PM, Fri 10:00 AM - 6:00 PM, Sat 10:00 AM - 6:00 PM",,,0
LCBO Store # 502,502,"2490 MAIN STREETP.O. BOX 1186, LAMBETH STN.",,LONDON,,N6P 1R2,Canada,519-652-5964,,,"Sun Closed - , Mon 10:00 AM - 6:00 PM, Tue 10:00 AM - 6:00 PM, Wed 10:00 AM - 6:00 PM, Thu 10:00 AM - 6:00 PM, Fri 10:00 AM - 8:00 PM, Sat 10:00 AM - 6:00 PM",,,0
LCBO Store # 438,438,3050 WONDERLAND ROAD SOUTHUNIT B,,LONDON,,N6L 1A6,Canada,519-471-4930,,,"Sun 11:00 AM - 6:00 PM, Mon 10:00 AM - 9:00 PM, Tue 10:00 AM - 9:00 PM, Wed 10:00 AM - 9:00 PM, Thu 10:00 AM - 9:00 PM, Fri 10:00 AM - 10:00 PM, Sat 10:00 AM - 10:00 PM",,,0
LCBO Store # 192,192,85 WELLINGTON ROAD,,LONDON,,N6C 4M7,Canada,519-433-3479,,,"Sun 11:00 AM - 6:00 PM, Mon 10:00 AM - 9:00 PM, Tue 10:00 AM - 9:00 PM, Wed 10:00 AM - 9:00 PM, Thu 10:00 AM - 9:00 PM, Fri 10:00 AM - 9:00 PM, Sat 10:00 AM - 9:00 PM",,,0
LCBO Store # 200,200,348 CLARKE ROADARGYLE MALL,,LONDON,,N5W 6G4,Canada,519-451-0220,,,"Sun 11:00 AM - 6:00 PM, Mon 10:00 AM - 9:00 PM, Tue 10:00 AM - 9:00 PM, Wed 10:00 AM - 9:00 PM, Thu 10:00 AM - 9:00 PM, Fri 10:00 AM - 9:00 PM, Sat 10:00 AM - 9:00 PM",,,0
LCBO Store # 26,26,71 YORK STREET,,LONDON,,N6A 1A6,Canada,519-432-1831,,,"Sun 11:00 AM - 6:00 PM, Mon 10:00 AM - 6:00 PM, Tue 10:00 AM - 6:00 PM, Wed 10:00 AM - 6:00 PM, Thu 10:00 AM - 6:00 PM, Fri 10:00 AM - 9:00 PM, Sat 10:00 AM - 6:00 PM",,,0
LCBO Store # 27,27,900 OXFORD STREET EASTBELLWOOD PLAZA,,LONDON,,N5Y 5A1,Canada,519-451-7143,,,"Sun 11:00 AM - 6:00 PM, Mon 10:00 AM - 9:00 PM, Tue 10:00 AM - 9:00 PM, Wed 10:00 AM - 9:00 PM, Thu 10:00 AM - 9:00 PM, Fri 10:00 AM - 9:00 PM, Sat 10:00 AM - 9:00 PM",,,0
LCBO Store # 593,593,1240 COMMISSIONERS ROAD WEST,,LONDON,,N6K 1C7,Canada,519-473-9612,,,"Sun 11:00 AM - 6:00 PM, Mon 10:00 AM - 9:00 PM, Tue 10:00 AM - 9:00 PM, Wed 10:00 AM - 9:00 PM, Thu 10:00 AM - 9:00 PM, Fri 10:00 AM - 9:00 PM, Sat 10:00 AM - 9:00 PM",,,0
LCBO Store # 310,310,681 WONDERLAND NORTH,,LONDON,,N6H 0H9,Canada,519-432-7951,,,"Sun 11:00 AM - 6:00 PM, Mon 10:00 AM - 9:00 PM, Tue 10:00 AM - 9:00 PM, Wed 10:00 AM - 9:00 PM, Thu 10:00 AM - 9:00 PM, Fri 10:00 AM - 10:00 PM, Sat 10:00 AM - 10:00 PM",,,0
LCBO Store # 518,518,1225 WONDERLAND ROAD NORTH,,LONDON,,N6G 2V9,Canada,519-472-5480,,,"Sun Closed - , Mon 10:00 AM - 6:00 PM, Tue 10:00 AM - 6:00 PM, Wed 10:00 AM - 6:00 PM, Thu 10:00 AM - 6:00 PM, Fri 10:00 AM - 8:00 PM, Sat 10:00 AM - 6:00 PM",,,0
LCBO Store # 393,393,109 FANSHAWE PARK ROAD,,LONDON,,N5X 3W1,Canada,519-660-1366,,,"Sun 11:00 AM - 6:00 PM, Mon 10:00 AM - 9:00 PM, Tue 10:00 AM - 9:00 PM, Wed 10:00 AM - 9:00 PM, Thu 10:00 AM - 9:00 PM, Fri 10:00 AM - 10:00 PM, Sat 10:00 AM - 10:00 PM",,,0
LCBO Store # 741,741,1981 HYDE PARK RD.,,LONDON,,N6H 0A3,Canada,519-474-4021,,,"Sun 11:00 AM - 6:00 PM, Mon 10:00 AM - 9:00 PM, Tue 10:00 AM - 9:00 PM, Wed 10:00 AM - 9:00 PM, Thu 10:00 AM - 9:00 PM, Fri 10:00 AM - 9:00 PM, Sat 10:00 AM - 9:00 PM",,,0
LCBO Store # 213,213,234 MARY STREET,,DUTTON,,N0L 1J0,Canada,519-762-2200,,,"Sun 11:00 AM - 6:00 PM, Mon 10:00 AM - 6:00 PM, Tue 10:00 AM - 6:00 PM, Wed 10:00 AM - 6:00 PM, Thu 10:00 AM - 6:00 PM, Fri 10:00 AM - 8:00 PM, Sat 10:00 AM - 6:00 PM",,,0
LCBO Store # 216,216,70 CARROLL STREET EASTUNIT A1,,STRATHROY,,N7G 4G2,Canada,519-245-1371,,,"Sun 11:00 AM - 6:00 PM, Mon 10:00 AM - 6:00 PM, Tue 10:00 AM - 6:00 PM, Wed 10:00 AM - 6:00 PM, Thu 10:00 AM - 8:00 PM, Fri 10:00 AM - 9:00 PM, Sat 10:00 AM - 9:00 PM",,,0
LCBO Store # 264,264,196 MAIN STREETP.O. BOX 239,,LUCAN,,N0M 2J0,Canada,519-227-4279,,,"Sun 11:00 AM - 6:00 PM, Mon 10:00 AM - 6:00 PM, Tue 10:00 AM - 6:00 PM, Wed 10:00 AM - 6:00 PM, Thu 10:00 AM - 6:00 PM, Fri 10:00 AM - 8:00 PM, Sat 10:00 AM - 6:00 PM",,,0
LCBO Store # 294,294,228 CURRIE STREETP.O. BOX 336,,GLENCOE,,N0L 1M0,Canada,519-287-2844,,,"Sun 11:00 AM - 6:00 PM, Mon 10:00 AM - 6:00 PM, Tue 10:00 AM - 6:00 PM, Wed 10:00 AM - 6:00 PM, Thu 10:00 AM - 6:00 PM, Fri 10:00 AM - 9:00 PM, Sat 10:00 AM - 6:00 PM",,,0
LCBO Store # 350,350,243 FURNIVAL ROADP.O. BOX 98,,RODNEY,,N0L 2C0,Canada,519-785-0780,,,"Sun Closed - , Mon 10:00 AM - 6:00 PM, Tue 10:00 AM - 6:00 PM, Wed Closed - , Thu 10:00 AM - 6:00 PM, Fri 10:00 AM - 9:00 PM, Sat 10:00 AM - 6:00 PM",,,0
LCBO Store # 374,374,264 MAIN STREETP.O. BOX 518,,PARKHILL,,N0M 2K0,Canada,519-294-6694,,,"Sun 11:00 AM - 6:00 PM, Mon 10:00 AM - 6:00 PM, Tue 10:00 AM - 6:00 PM, Wed 10:00 AM - 6:00 PM, Thu 10:00 AM - 6:00 PM, Fri 10:00 AM - 9:00 PM, Sat 10:00 AM - 6:00 PM",,,0
LCBO Store # 138,138,125 OAK STREET WEST,,BOTHWELL,,N0P 1C0,Canada,519-695-2720,,,"Sun Closed - , Mon 10:00 AM - 6:00 PM, Tue 10:00 AM - 6:00 PM, Wed Closed - , Thu 10:00 AM - 6:00 PM, Fri 10:00 AM - 6:00 PM, Sat 10:00 AM - 6:00 PM",,,0
LCBO Store # 328,328,538 HURON STREETP.O. BOX 280,,WATFORD,,N0M 2S0,Canada,519-876-2914,,,"Sun 11:00 AM - 6:00 PM, Mon 10:00 AM - 6:00 PM, Tue 10:00 AM - 6:00 PM, Wed 10:00 AM - 6:00 PM, Thu 10:00 AM - 6:00 PM, Fri 10:00 AM - 9:00 PM, Sat 10:00 AM - 6:00 PM",,,0
LCBO Store # 275,275,146 MAIN STREET SOUTH,,EXETER,,N0M 1S1,Canada,519-235-1942,,,"Sun 11:00 AM - 6:00 PM, Mon 10:00 AM - 6:00 PM, Tue 10:00 AM - 6:00 PM, Wed 10:00 AM - 6:00 PM, Thu 10:00 AM - 6:00 PM, Fri 10:00 AM - 9:00 PM, Sat 10:00 AM - 6:00 PM",,,0
LCBO Store # 260,260,893 10TH STREET,,HANOVER,,N4N 1S4,Canada,519-364-2980,,,"Sun 11:00 AM - 6:00 PM, Mon 10:00 AM - 8:00 PM, Tue 10:00 AM - 8:00 PM, Wed 10:00 AM - 8:00 PM, Thu 10:00 AM - 9:00 PM, Fri 10:00 AM - 9:00 PM, Sat 10:00 AM - 9:00 PM",,,0
LCBO Store # 30,30,3 VICTORIA STREET NORTHP.O. BOX 307,,WALKERTON,,N0G 2V0,Canada,519-881-1362,,,"Sun 11:00 AM - 6:00 PM, Mon 10:00 AM - 6:00 PM, Tue 10:00 AM - 6:00 PM, Wed 10:00 AM - 6:00 PM, Thu 10:00 AM - 6:00 PM, Fri 10:00 AM - 9:00 PM, Sat 10:00 AM - 6:00 PM",,,0
LCBO Store # 610,610,"1 INDUSTRIAL ROAD, UNIT BP.O. BOX 239",,TEESWATER,,N0G 2S0,Canada,519-392-6837,,,"Sun Closed - , Mon Closed - , Tue 10:00 AM - 6:00 PM, Wed 10:00 AM - 6:00 PM, Thu 10:00 AM - 6:00 PM, Fri 10:00 AM - 8:00 PM, Sat 10:00 AM - 6:00 PM",,,0
LCBO Store # 271,271,16 ALBERT STREET WESTP.O. BOX 600,,WINGHAM,,N0G 2W0,Canada,519-357-2120,,,"Sun 11:00 AM - 6:00 PM, Mon 10:00 AM - 6:00 PM, Tue 10:00 AM - 6:00 PM, Wed 10:00 AM - 6:00 PM, Thu 10:00 AM - 6:00 PM, Fri 10:00 AM - 9:00 PM, Sat 10:00 AM - 6:00 PM",,,0
LCBO Store # 284,284,115 FIRST AVENUE NORTHP.O. BOX 428,,CHESLEY,,N0G 1L0,Canada,519-363-3303,,,"Sun 11:00 AM - 6:00 PM, Mon 10:00 AM - 6:00 PM, Tue 10:00 AM - 6:00 PM, Wed 10:00 AM - 6:00 PM, Thu 10:00 AM - 6:00 PM, Fri 10:00 AM - 8:00 PM, Sat 10:00 AM - 6:00 PM",,,0
LCBO Store # 205,205,155 TORONTO STREETP.O. BOX 494,,MARKDALE,,N0C 1H0,Canada,519-986-2500,,,"Sun 11:00 AM - 6:00 PM, Mon 10:00 AM - 6:00 PM, Tue 10:00 AM - 6:00 PM, Wed 10:00 AM - 6:00 PM, Thu 10:00 AM - 6:00 PM, Fri 10:00 AM - 8:00 PM, Sat 10:00 AM - 6:00 PM",,,0
LCBO Store # 440,440,566 WILLOUGHBY STREETP.O. BOX 310,,LUCKNOW,,N0G 2H0,Canada,519-528-2335,,,"Sun 11:00 AM - 6:00 PM, Mon 10:00 AM - 6:00 PM, Tue 10:00 AM - 6:00 PM, Wed 10:00 AM - 6:00 PM, Thu 10:00 AM - 6:00 PM, Fri 10:00 AM - 9:00 PM, Sat 10:00 AM - 6:00 PM",,,0
LCBO Store # 615,615,277 QUEEN STREET NORTHP.O. BOX 489,,PAISLEY,,N0G 2N0,Canada,519-353-5343,,,"Sun Closed - , Mon Closed - , Tue 10:00 AM - 6:00 PM, Wed 10:00 AM - 6:00 PM, Thu 10:00 AM - 6:00 PM, Fri 10:00 AM - 8:00 PM, Sat 10:00 AM - 6:00 PM",,,0
LCBO Store # 273,273,50 MAIN STREET NORTHP.O. BOX 658,,SEAFORTH,,N0K 1W0,Canada,519-527-0970,,,"Sun 11:00 AM - 6:00 PM, Mon 10:00 AM - 6:00 PM, Tue 10:00 AM - 6:00 PM, Wed 10:00 AM - 6:00 PM, Thu 10:00 AM - 6:00 PM, Fri 10:00 AM - 8:00 PM, Sat 10:00 AM - 6:00 PM",,,0
LCBO Store # 282,282,95 MAPLE STREETP.O. BOX 391,,CLINTON,,N0M 1L0,Canada,519-482-7323,,,"Sun Closed - , Mon 10:00 AM - 6:00 PM, Tue 10:00 AM - 6:00 PM, Wed 10:00 AM - 6:00 PM, Thu 10:00 AM - 6:00 PM, Fri 10:00 AM - 9:00 PM, Sat 10:00 AM - 6:00 PM",,,0
LCBO Store # 210,210,781 BROADWAY STREETUNIT #2,,KINCARDINE,,N2Z 2G1,Canada,519-396-2923,,,"Sun 11:00 AM - 6:00 PM, Mon 10:00 AM - 8:00 PM, Tue 10:00 AM - 8:00 PM, Wed 10:00 AM - 8:00 PM, Thu 10:00 AM - 9:00 PM, Fri 10:00 AM - 9:00 PM, Sat 10:00 AM - 9:00 PM",,,0
LCBO Store # 270,270,520 HURON ROADUNIT 2,,GODERICH,,N7A 3X8,Canada,519-524-9053,,,"Sun 11:00 AM - 6:00 PM, Mon 10:00 AM - 8:00 PM, Tue 10:00 AM - 8:00 PM, Wed 10:00 AM - 8:00 PM, Thu 10:00 AM - 9:00 PM, Fri 10:00 AM - 9:00 PM, Sat 10:00 AM - 9:00 PM",,,0
LCBO Store # 306,306,27 FRANCIS STREET WEST,,FENELON FALLS,,K0M 1N0,Canada,705-887-3220,,,"Sun 11:00 AM - 6:00 PM, Mon 10:00 AM - 6:00 PM, Tue 10:00 AM - 6:00 PM, Wed 10:00 AM - 6:00 PM, Thu 10:00 AM - 6:00 PM, Fri 10:00 AM - 8:00 PM, Sat 10:00 AM - 6:00 PM",,,0
LCBO Store # 305,305,13 ALBERT STREET,,COBOCONK,,K0M 1K0,Canada,705-454-3992,,,"Sun 11:00 AM - 6:00 PM, Mon 10:00 AM - 6:00 PM, Tue 10:00 AM - 6:00 PM, Wed 10:00 AM - 6:00 PM, Thu 10:00 AM - 6:00 PM, Fri 10:00 AM - 7:00 PM, Sat 10:00 AM - 6:00 PM",,,0
LCBO Store # 307,307,4094 HIGHWAY 121P.O. BOX 9,,KINMOUNT,,K0M 2A0,Canada,705-488-2341,,,"Sun 11:00 AM - 6:00 PM, Mon 10:00 AM - 6:00 PM, Tue 10:00 AM - 6:00 PM, Wed 10:00 AM - 6:00 PM, Thu 10:00 AM - 6:00 PM, Fri 10:00 AM - 6:00 PM, Sat 10:00 AM - 6:00 PM",,,0
LCBO Store # 471,471,1002 PORTAGE ROAD,,KIRKFIELD,,K0M 2B0,Canada,705-438-3422,,,"Sun 11:00 AM - 6:00 PM, Mon 10:00 AM - 6:00 PM, Tue 10:00 AM - 6:00 PM, Wed 10:00 AM - 6:00 PM, Thu 10:00 AM - 6:00 PM, Fri 10:00 AM - 8:00 PM, Sat 10:00 AM - 6:00 PM",,,0
LCBO Store # 562,562,25 CAMERON STREET EASTP.O. BOX 449,,CANNINGTON,,L0E 1E0,Canada,705-432-2841,,,"Sun 11:00 AM - 6:00 PM, Mon 10:00 AM - 6:00 PM, Tue 10:00 AM - 6:00 PM, Wed 10:00 AM - 6:00 PM, Thu 10:00 AM - 6:00 PM, Fri 10:00 AM - 8:00 PM, Sat 10:00 AM - 6:00 PM",,,0
LCBO Store # 607,607,"1007 GOODERHAM STREETBOX #157, GERERAL DELIVERY",,GOODERHAM,,K0M 1R0,Canada,705-447-2557,,,"Sun 11:00 AM - 6:00 PM, Mon 10:00 AM - 6:00 PM, Tue 10:00 AM - 6:00 PM, Wed 10:00 AM - 6:00 PM, Thu 10:00 AM - 6:00 PM, Fri 10:00 AM - 8:00 PM, Sat 10:00 AM - 6:00 PM",,,0
LCBO Store # 224,224,336 BAY STREET,,BEAVERTON,,L0K 1A0,Canada,705-426-7373,,,"Sun 11:00 AM - 6:00 PM, Mon 10:00 AM - 6:00 PM, Tue 10:00 AM - 6:00 PM, Wed 10:00 AM - 6:00 PM, Thu 10:00 AM - 6:00 PM, Fri 9:30 AM - 9:00 PM, Sat 9:30 AM - 6:00 PM",,,0
LCBO Store # 136,136,18 WATER STREETP.O. BOX 208,,MINDEN,,K0M 2K0,Canada,705-286-1311,,,"Sun 11:00 AM - 6:00 PM, Mon 10:00 AM - 6:00 PM, Tue 10:00 AM - 6:00 PM, Wed 10:00 AM - 6:00 PM, Thu 10:00 AM - 6:00 PM, Fri 10:00 AM - 8:00 PM, Sat 10:00 AM - 6:00 PM",,,0
LCBO Store # 581,581,KING STREET SOUTHP.O. BOX 129,,BRECHIN,,L0K 1B0,Canada,705-484-0012,,,"Sun 11:00 AM - 6:00 PM, Mon 10:00 AM - 6:00 PM, Tue 10:00 AM - 6:00 PM, Wed 10:00 AM - 6:00 PM, Thu 10:00 AM - 6:00 PM, Fri 10:00 AM - 8:00 PM, Sat 10:00 AM - 6:00 PM",,,0
LCBO Store # 223,223,230 HIGHLAND STREETP.O. BOX 479,,HALIBURTON,,K0M 1S0,Canada,705-457-2631,,,"Sun 11:00 AM - 6:00 PM, Mon 10:00 AM - 6:00 PM, Tue 10:00 AM - 6:00 PM, Wed 10:00 AM - 6:00 PM, Thu 10:00 AM - 8:00 PM, Fri 10:00 AM - 8:00 PM, Sat 10:00 AM - 6:00 PM",,,0
LCBO Store # 447,447,2763 ESSONVILLE ROADP.O. BOX 149,,WILBERFORCE,,K0L 3C0,Canada,705-448-2721,,,"Sun 11:00 AM - 6:00 PM, Mon 10:00 AM - 6:00 PM, Tue 10:00 AM - 6:00 PM, Wed 10:00 AM - 6:00 PM, Thu 10:00 AM - 6:00 PM, Fri 10:00 AM - 8:00 PM, Sat 10:00 AM - 6:00 PM",,,0
LCBO Store # 622,622,24 LONDON ROADP.O. BOX 09,,HENSALL,,N0M 1X0,Canada,519-263-3003,,,"Sun Closed - , Mon Closed - , Tue 10:00 AM - 6:00 PM, Wed 10:00 AM - 6:00 PM, Thu 10:00 AM - 6:00 PM, Fri 10:00 AM - 6:00 PM, Sat 10:00 AM - 6:00 PM",,,0
LCBO Store # 274,274,11 MAIN STREETP.O. BOX 88,,ZURICH,,N0M 2T0,Canada,519-236-4901,,,"Sun Closed - , Mon 10:00 AM - 6:00 PM, Tue Closed - , Wed 10:00 AM - 6:00 PM, Thu 10:00 AM - 6:00 PM, Fri 10:00 AM - 7:00 PM, Sat 10:00 AM - 6:00 PM",,,0
LCBO Store # 322,322,142 ST DAVID STREET NORTHP.O. BOX 124,,NOELVILLE,,P0M 2N0,Canada,705-898-2802,,,"Sun Closed - , Mon Closed - , Tue 10:00 AM - 6:00 PM, Wed 10:00 AM - 6:00 PM, Thu 10:00 AM - 6:00 PM, Fri 10:00 AM - 6:00 PM, Sat 10:00 AM - 6:00 PM",,,0
LCBO Store # 604,604,524 HWY 64P.O. BOX 219,,ALBAN,,P0M 1A0,Canada,705-857-2185,,,"Sun 11:00 AM - 6:00 PM, Mon 10:00 AM - 6:00 PM, Tue 10:00 AM - 6:00 PM, Wed Closed - , Thu 10:00 AM - 6:00 PM, Fri 10:00 AM - 6:00 PM, Sat 10:00 AM - 6:00 PM",,,0
LCBO Store # 488,488,8 KING STREET EASTP.O. BOX 99,,ST. CHARLES,,P0M 2W0,Canada,705-867-2966,,,"Sun Closed - , Mon Closed - , Tue 10:00 AM - 6:00 PM, Wed 10:00 AM - 6:00 PM, Thu 10:00 AM - 6:00 PM, Fri 10:00 AM - 6:00 PM, Sat 10:00 AM - 6:00 PM",,,0
LCBO Store # 524,524,7260 HWY 535GENERAL DELIVERY,,HAGAR,,P0M 1X0,Canada,705-967-0521,,,"Sun 11:00 AM - 6:00 PM, Mon 10:00 AM - 6:00 PM, Tue 10:00 AM - 6:00 PM, Wed Closed - , Thu 10:00 AM - 6:00 PM, Fri 10:00 AM - 9:00 PM, Sat 10:00 AM - 6:00 PM",,,0
LCBO Store # 588,588,10442 HWY. 17BOX 340,,VERNER,,P0H 2M0,Canada,705-594-2254,,,"Sun 11:00 AM - 6:00 PM, Mon 10:00 AM - 6:00 PM, Tue 10:00 AM - 6:00 PM, Wed 10:00 AM - 6:00 PM, Thu 10:00 AM - 6:00 PM, Fri 10:00 AM - 6:00 PM, Sat 10:00 AM - 6:00 PM",,,0
LCBO Store # 550,550,71 MAIN STREET SOUTHPO BOX 219,,BAYFIELD,,N0M 1G0,Canada,519-565-2444,,,"Sun 11:00 AM - 6:00 PM, Mon 10:00 AM - 6:00 PM, Tue 10:00 AM - 6:00 PM, Wed 10:00 AM - 6:00 PM, Thu 10:00 AM - 6:00 PM, Fri 10:00 AM - 8:00 PM, Sat 10:00 AM - 6:00 PM",,,0
LCBO Store # 196,196,"49 MAIN STREET EAST, BUILDING AP.O. BOX 370",,GRAND BEND,,N0M 1T0,Canada,519-238-2191,,,"Sun 11:00 AM - 6:00 PM, Mon 10:00 AM - 6:00 PM, Tue 10:00 AM - 6:00 PM, Wed 10:00 AM - 6:00 PM, Thu 10:00 AM - 8:00 PM, Fri 10:00 AM - 9:00 PM, Sat 10:00 AM - 6:00 PM",,,0
LCBO Store # 172,172,109 LOUISA STREETP.O. BOX 122,,THEDFORD,,N0M 2N0,Canada,519-296-4982,,,"Sun Closed - , Mon 10:00 AM - 6:00 PM, Tue 10:00 AM - 6:00 PM, Wed Closed - , Thu 10:00 AM - 6:00 PM, Fri 10:00 AM - 8:00 PM, Sat 10:00 AM - 6:00 PM",,,0
LCBO Store # 277,277,8 MAIN STREET SOUTHP.O. BOX 389,,FOREST,,N0N 1J0,Canada,519-786-5051,,,"Sun 11:00 AM - 6:00 PM, Mon 10:00 AM - 6:00 PM, Tue 10:00 AM - 6:00 PM, Wed 10:00 AM - 6:00 PM, Thu 10:00 AM - 6:00 PM, Fri 10:00 AM - 9:00 PM, Sat 10:00 AM - 6:00 PM",,,0
LCBO Store # 591,591,"4475 LONDON LINE, REECES CORNERSP.O. BOX 587      WYOMING",,REECES CORNERS,,N0N 1T0,Canada,519-845-0120,,,"Sun Closed - , Mon 10:00 AM - 6:00 PM, Tue 10:00 AM - 6:00 PM, Wed 10:00 AM - 6:00 PM, Thu 10:00 AM - 6:00 PM, Fri 10:00 AM - 6:00 PM, Sat 10:00 AM - 6:00 PM",,,0
LCBO Store # 348,348,85 CATHERINE STREET EASTP.O. BOX 777,,BLENHEIM,,N0P 1A0,Canada,519-676-3227,,,"Sun 11:00 AM - 6:00 PM, Mon 10:00 AM - 6:00 PM, Tue 10:00 AM - 6:00 PM, Wed 10:00 AM - 6:00 PM, Thu 10:00 AM - 6:00 PM, Fri 10:00 AM - 9:00 PM, Sat 10:00 AM - 6:00 PM",,,0
LCBO Store # 567,567,99 INDUSTRIAL ROADP.O. BOX 188,,THAMESVILLE,,N0P 2K0,Canada,519-692-5078,,,"Sun 11:00 AM - 6:00 PM, Mon 10:00 AM - 6:00 PM, Tue 10:00 AM - 6:00 PM, Wed 10:00 AM - 6:00 PM, Thu 10:00 AM - 6:00 PM, Fri 10:00 AM - 9:00 PM, Sat 10:00 AM - 6:00 PM",,,0
LCBO Store # 131,131,20 MAIN STREET WEST,,RIDGETOWN,,N0P 2C0,Canada,519-674-3303,,,"Sun Closed - , Mon 10:00 AM - 6:00 PM, Tue 10:00 AM - 6:00 PM, Wed 10:00 AM - 6:00 PM, Thu 10:00 AM - 6:00 PM, Fri 10:00 AM - 8:00 PM, Sat 10:00 AM - 6:00 PM",,,0
LCBO Store # 133,133,4353 PETROLIA STREETP.O. BOX 539,,PETROLIA,,N0N 1R0,Canada,519-882-2010,,,"Sun 11:00 AM - 6:00 PM, Mon 10:00 AM - 6:00 PM, Tue 10:00 AM - 6:00 PM, Wed 10:00 AM - 6:00 PM, Thu 10:00 AM - 6:00 PM, Fri 10:00 AM - 8:00 PM, Sat 10:00 AM - 6:00 PM",,,0
LCBO Store # 603,603,408 LYNDOCK STREETP.O. BOX 936,,CORUNNA,,N0N 1G0,Canada,519-862-3456,,,"Sun 11:00 AM - 6:00 PM, Mon 10:00 AM - 6:00 PM, Tue 10:00 AM - 6:00 PM, Wed 10:00 AM - 6:00 PM, Thu 10:00 AM - 6:00 PM, Fri 10:00 AM - 8:00 PM, Sat 10:00 AM - 6:00 PM",,,0
LCBO Store # 46,46,250 NORTH CHRISTINA STREET,,SARNIA,,N7T 7V3,Canada,519-337-2631,,,"Sun 11:00 AM - 6:00 PM, Mon 10:00 AM - 6:00 PM, Tue 10:00 AM - 6:00 PM, Wed 10:00 AM - 6:00 PM, Thu 10:00 AM - 6:00 PM, Fri 10:00 AM - 6:00 PM, Sat 10:00 AM - 6:00 PM",,,0
LCBO Store # 459,459,1450 QUINN DRIVE,,SARNIA,,N7S 6M8,Canada,519-542-6836,,,"Sun 11:00 AM - 6:00 PM, Mon 10:00 AM - 9:00 PM, Tue 10:00 AM - 9:00 PM, Wed 10:00 AM - 9:00 PM, Thu 10:00 AM - 10:00 PM, Fri 10:00 AM - 10:00 PM, Sat 10:00 AM - 10:00 PM",,,0
LCBO Store # 246,246,692 LITE STREET,,POINT EDWARD,,N7V 1A5,Canada,519-332-8711,,,"Sun Closed - , Mon 10:00 AM - 6:00 PM, Tue 10:00 AM - 6:00 PM, Wed 10:00 AM - 6:00 PM, Thu 10:00 AM - 6:00 PM, Fri 10:00 AM - 9:00 PM, Sat 10:00 AM - 6:00 PM",,,0
LCBO Store # 202,202,1142 LAKESHORE ROAD,,SARNIA,,N7V 2V8,Canada,519-542-7410,,,"Sun 11:00 AM - 6:00 PM, Mon 10:00 AM - 8:00 PM, Tue 10:00 AM - 8:00 PM, Wed 10:00 AM - 8:00 PM, Thu 10:00 AM - 8:00 PM, Fri 10:00 AM - 8:00 PM, Sat 10:00 AM - 6:00 PM",,,0
LCBO Store # 144,144,910 O'BRIEN ROADBLDG. A,,RENFREW,,K7V 3Z4,Canada,613-432-2383,,,"Sun 11:00 AM - 6:00 PM, Mon 10:00 AM - 6:00 PM, Tue 10:00 AM - 6:00 PM, Wed 10:00 AM - 6:00 PM, Thu 10:00 AM - 8:00 PM, Fri 10:00 AM - 8:00 PM, Sat 10:00 AM - 8:00 PM",,,0
LCBO Store # 442,442,22 TRUELOVE ST.P.O. BOX 249,,COBDEN,,K0J 1K0,Canada,613-646-7738,,,"Sun Closed - , Mon 10:00 AM - 6:00 PM, Tue 10:00 AM - 6:00 PM, Wed 10:00 AM - 6:00 PM, Thu 10:00 AM - 6:00 PM, Fri 10:00 AM - 6:00 PM, Sat 10:00 AM - 6:00 PM",,,0
LCBO Store # 94,94,234 BONNECHERE STREET,,EGANVILLE,,K0J 1T0,Canada,613-628-2100,,,"Sun 11:00 AM - 6:00 PM, Mon 10:00 AM - 6:00 PM, Tue 10:00 AM - 6:00 PM, Wed 10:00 AM - 6:00 PM, Thu 10:00 AM - 6:00 PM, Fri 10:00 AM - 8:00 PM, Sat 10:00 AM - 6:00 PM",,,0
LCBO Store # 597,597,35 LAPASSE ROAD,,BEACHBURG,,K0J 1C0,Canada,613-582-3975,,,"Sun Closed - , Mon Closed - , Tue 10:00 AM - 6:00 PM, Wed 10:00 AM - 6:00 PM, Thu 10:00 AM - 6:00 PM, Fri 10:00 AM - 6:00 PM, Sat 10:00 AM - 6:00 PM",,,0
LCBO Store # 314,314,161 QUEEN STREETP.O. BOX 40,,KILLALOE,,K0J 2A0,Canada,613-757-2366,,,"Sun 11:00 AM - 6:00 PM, Mon 10:00 AM - 6:00 PM, Tue 10:00 AM - 6:00 PM, Wed 10:00 AM - 6:00 PM, Thu 10:00 AM - 6:00 PM, Fri 10:00 AM - 6:00 PM, Sat 10:00 AM - 6:00 PM",,,0
LCBO Store # 55,55,1050 PEMBROKE STREET EAST,,PEMBROKE,,K8A 6Z3,Canada,613-732-2878,,,"Sun 11:00 AM - 6:00 PM, Mon 10:00 AM - 8:00 PM, Tue 10:00 AM - 8:00 PM, Wed 10:00 AM - 8:00 PM, Thu 10:00 AM - 8:00 PM, Fri 10:00 AM - 8:00 PM, Sat 10:00 AM - 8:00 PM",,,0
LCBO Store # 113,113,18 DUNN STREETPO BOX 279,,BARRY'S BAY,,K0J 1B0,Canada,613-756-2022,,,"Sun 11:00 AM - 6:00 PM, Mon 10:00 AM - 6:00 PM, Tue 10:00 AM - 6:00 PM, Wed 10:00 AM - 6:00 PM, Thu 10:00 AM - 6:00 PM, Fri 10:00 AM - 8:00 PM, Sat 10:00 AM - 6:00 PM",,,0
LCBO Store # 266,266,2 RENFREW STREET,,PETAWAWA,,K8H 2H3,Canada,613-687-4672,,,"Sun 11:00 AM - 6:00 PM, Mon 10:00 AM - 6:00 PM, Tue 10:00 AM - 6:00 PM, Wed 10:00 AM - 6:00 PM, Thu 10:00 AM - 6:00 PM, Fri 10:00 AM - 8:00 PM, Sat 10:00 AM - 6:00 PM",,,0
LCBO Store # 335,335,4793 HWY 11/17PO BOX 100,,KAKABEKA FALLS,,P0T 1W0,Canada,807-473-9421,,,"Sun 12:00 PM - 4:00 PM, Mon 10:00 AM - 6:00 PM, Tue 10:00 AM - 6:00 PM, Wed 10:00 AM - 6:00 PM, Thu 10:00 AM - 6:00 PM, Fri 10:00 AM - 6:00 PM, Sat 10:00 AM - 6:00 PM",,,0
LCBO Store # 602,602,1095 ARTHUR STREET WEST,,THUNDER BAY,,P7E 5R8,Canada,807-475-4833,,,"Sun 12:00 PM - 5:00 PM, Mon 10:00 AM - 10:00 PM, Tue 10:00 AM - 10:00 PM, Wed 10:00 AM - 10:00 PM, Thu 10:00 AM - 10:00 PM, Fri 10:00 AM - 10:00 PM, Sat 10:00 AM - 10:00 PM",,,0
LCBO Store # 616,616,969 FORT WILLIAM ROAD,,THUNDER BAY,,P7B 3A6,Canada,807-623-8484,,,"Sun 12:00 PM - 5:00 PM, Mon 10:00 AM - 9:00 PM, Tue 10:00 AM - 9:00 PM, Wed 10:00 AM - 9:00 PM, Thu 10:00 AM - 9:00 PM, Fri 10:00 AM - 9:00 PM, Sat 10:00 AM - 9:00 PM",,,0
LCBO Store # 501,501,1010 DAWSON ROADTHE LANDMARK INN,,THUNDER BAY,,P7B 5J4,Canada,807-767-8882,,,"Sun 12:00 PM - 5:00 PM, Mon 10:00 AM - 9:00 PM, Tue 10:00 AM - 9:00 PM, Wed 10:00 AM - 9:00 PM, Thu 10:00 AM - 9:00 PM, Fri 10:00 AM - 9:00 PM, Sat 10:00 AM - 9:00 PM",,,0
LCBO Store # 155,155,100 NORTH CUMBERLAND STREET,,THUNDER BAY,,P7A 4L9,Canada,807-345-1550,,,"Sun 12:00 PM - 5:00 PM, Mon 10:00 AM - 6:00 PM, Tue 10:00 AM - 6:00 PM, Wed 10:00 AM - 6:00 PM, Thu 10:00 AM - 6:00 PM, Fri 10:00 AM - 9:00 PM, Sat 10:00 AM - 6:00 PM",,,0
LCBO Store # 632,632,8260 HWY. # 27,,WOODBRIDGE,,L4H 0R9,Canada,905-264-7366,,,"Sun 11:00 AM - 6:00 PM, Mon 10:00 AM - 9:00 PM, Tue 10:00 AM - 9:00 PM, Wed 10:00 AM - 9:00 PM, Thu 10:00 AM - 9:00 PM, Fri 10:00 AM - 9:00 PM, Sat 10:00 AM - 9:00 PM",,,0
LCBO Store # 408,408,1 YORK GATE BOULEVARD,,TORONTO-NORTH YORK,,M3N 3A1,Canada,416-661-2635,,,"Sun 12:00 PM - 5:00 PM, Mon 10:00 AM - 9:00 PM, Tue 10:00 AM - 9:00 PM, Wed 10:00 AM - 9:00 PM, Thu 10:00 AM - 9:00 PM, Fri 10:00 AM - 9:00 PM, Sat 9:30 AM - 6:00 PM",,,0
LCBO Store # 265,265,30 MCEWAN DRIVE EAST,,BOLTON,,L7E 2Y3,Canada,905-857-2620,,,"Sun 11:00 AM - 6:00 PM, Mon 10:00 AM - 9:00 PM, Tue 10:00 AM - 9:00 PM, Wed 10:00 AM - 9:00 PM, Thu 10:00 AM - 9:00 PM, Fri 10:00 AM - 9:00 PM, Sat 10:00 AM - 9:00 PM",,,0
LCBO Store # 362,362,1530 ALBION ROADALBION MALL,,TORONTO-ETOBICOKE,,M9V 1B4,Canada,416-740-1857,,,"Sun 12:00 PM - 5:00 PM, Mon 10:00 AM - 9:00 PM, Tue 10:00 AM - 9:00 PM, Wed 10:00 AM - 9:00 PM, Thu 10:00 AM - 9:00 PM, Fri 10:00 AM - 9:00 PM, Sat 10:00 AM - 6:00 PM",,,0
LCBO Store # 186,186,1618 WILSON AVENUESHERIDAN MALL,,TORONTO-NORTH YORK,,M3L 1A3,Canada,416-241-3018,,,"Sun 11:00 AM - 6:00 PM, Mon 10:00 AM - 9:00 PM, Tue 10:00 AM - 9:00 PM, Wed 10:00 AM - 9:00 PM, Thu 10:00 AM - 9:00 PM, Fri 10:00 AM - 9:00 PM, Sat 10:00 AM - 9:00 PM",,,0
LCBO Store # 1,1,2625D WESTON ROAD,,TORONTO-NORTH YORK,,M9N 3W2,Canada,416-243-3320,,,"Sun 11:00 AM - 6:00 PM, Mon 9:00 AM - 11:00 PM, Tue 9:00 AM - 11:00 PM, Wed 9:00 AM - 11:00 PM, Thu 9:00 AM - 11:00 PM, Fri 9:00 AM - 11:00 PM, Sat 9:00 AM - 11:00 PM",,,0
LCBO Store # 555,555,"9970 AIRPORT RD.,",,BRAMPTON,,L6S 0C5,Canada,905-792-7010,,,"Sun 11:00 AM - 6:00 PM, Mon 10:00 AM - 10:00 PM, Tue 10:00 AM - 10:00 PM, Wed 10:00 AM - 10:00 PM, Thu 10:00 AM - 10:00 PM, Fri 10:00 AM - 10:00 PM, Sat 10:00 AM - 10:00 PM",,,0
LCBO Store # 661,661,"11785 BRAMALEA RD, BUILDING C2",,BRAMPTON,,L6R 3S9,Canada,905-458-6327,,,"Sun 11:00 AM - 6:00 PM, Mon 10:00 AM - 9:00 PM, Tue 10:00 AM - 9:00 PM, Wed 10:00 AM - 9:00 PM, Thu 10:00 AM - 9:00 PM, Fri 10:00 AM - 9:00 PM, Sat 10:00 AM - 9:00 PM",,,0
LCBO Store # 69,69,210 THIRD STREET EAST,,FORT FRANCES,,P9A 1P7,Canada,807-274-3851,,,"Sun 12:00 PM - 4:00 PM, Mon 10:00 AM - 6:00 PM, Tue 10:00 AM - 6:00 PM, Wed 10:00 AM - 6:00 PM, Thu 10:00 AM - 6:00 PM, Fri 10:00 AM - 9:00 PM, Sat 10:00 AM - 6:00 PM",,,0
LCBO Store # 285,285,HWY. 11P.O. BOX 178,,EMO,,P0W 1E0,Canada,807-482-2463,,,"Sun Closed - , Mon Closed - , Tue 10:00 AM - 6:00 PM, Wed 10:00 AM - 6:00 PM, Thu 10:00 AM - 6:00 PM, Fri 10:00 AM - 6:00 PM, Sat 10:00 AM - 6:00 PM",,,0
LCBO Store # 175,175,201 MISSISSAGA STREET EAST,,ORILLIA,,L3V 1W1,Canada,705-326-6591,,,"Sun 11:00 AM - 6:00 PM, Mon 10:00 AM - 6:00 PM, Tue 10:00 AM - 6:00 PM, Wed 10:00 AM - 6:00 PM, Thu 10:00 AM - 8:00 PM, Fri 10:00 AM - 8:00 PM, Sat 10:00 AM - 8:00 PM",,,0
LCBO Store # 469,469,8409 COUNTY ROAD 169P.O. BOX 130,,WASHAGO,,L0K 2B0,Canada,705-689-5110,,,"Sun 11:00 AM - 6:00 PM, Mon 10:00 AM - 6:00 PM, Tue 10:00 AM - 6:00 PM, Wed 10:00 AM - 6:00 PM, Thu 10:00 AM - 6:00 PM, Fri 10:00 AM - 8:00 PM, Sat 10:00 AM - 6:00 PM",,,0
LCBO Store # 579,579,293 COLDWATER ROADCOUNTRY FAIR PLAZA,,ORILLIA,,L3V 3M1,Canada,705-325-9413,,,"Sun 11:00 AM - 6:00 PM, Mon 10:00 AM - 9:00 PM, Tue 10:00 AM - 9:00 PM, Wed 10:00 AM - 9:00 PM, Thu 10:00 AM - 9:00 PM, Fri 10:00 AM - 9:00 PM, Sat 10:00 AM - 9:00 PM",,,0
LCBO Store # 259,259,48 COLDWATER ROADP.O. BOX 191,,COLDWATER,,L0K 1E0,Canada,705-686-3300,,,"Sun 11:00 AM - 6:00 PM, Mon 10:00 AM - 6:00 PM, Tue 10:00 AM - 6:00 PM, Wed 10:00 AM - 6:00 PM, Thu 10:00 AM - 6:00 PM, Fri 10:00 AM - 8:00 PM, Sat 10:00 AM - 6:00 PM",,,0
LCBO Store # 22,22,461 BIG BAY POINT ROAD,,BARRIE,,L4N 3Z3,Canada,705-739-0162,,,"Sun 11:00 AM - 6:00 PM, Mon 10:00 AM - 9:00 PM, Tue 10:00 AM - 9:00 PM, Wed 10:00 AM - 9:00 PM, Thu 10:00 AM - 9:00 PM, Fri 10:00 AM - 9:00 PM, Sat 10:00 AM - 9:00 PM",,,0
LCBO Store # 59,59,55 MARY STREET,,BARRIE,,L4N 1T2,Canada,705-728-3868,,,"Sun 11:00 AM - 6:00 PM, Mon 10:00 AM - 6:00 PM, Tue 10:00 AM - 6:00 PM, Wed 10:00 AM - 6:00 PM, Thu 10:00 AM - 6:00 PM, Fri 10:00 AM - 8:00 PM, Sat 10:00 AM - 6:00 PM",,,0
LCBO Store # 187,187,534 BAYFIELD STREET,,BARRIE,,L4M 5A2,Canada,705-722-1046,,,"Sun 11:00 AM - 6:00 PM, Mon 10:00 AM - 10:00 PM, Tue 10:00 AM - 10:00 PM, Wed 10:00 AM - 10:00 PM, Thu 10:00 AM - 10:00 PM, Fri 10:00 AM - 10:00 PM, Sat 10:00 AM - 10:00 PM",,,0
LCBO Store # 288,288,37 CAPLAN AVENUEUNIT #4,,BARRIE,,L4N 6K3,Canada,705-726-6220,,,"Sun 11:00 AM - 6:00 PM, Mon 10:00 AM - 9:00 PM, Tue 10:00 AM - 9:00 PM, Wed 10:00 AM - 9:00 PM, Thu 10:00 AM - 9:00 PM, Fri 10:00 AM - 9:00 PM, Sat 10:00 AM - 9:00 PM",,,0
LCBO Store # 197,197,47 CHAMPLAIN AVENUEP.O. BOX 219,,DEEP RIVER,,K0J 1P0,Canada,613-584-2290,,,"Sun 11:00 AM - 6:00 PM, Mon 10:00 AM - 6:00 PM, Tue 10:00 AM - 6:00 PM, Wed 10:00 AM - 6:00 PM, Thu 10:00 AM - 6:00 PM, Fri 10:00 AM - 8:00 PM, Sat 10:00 AM - 6:00 PM",,,0
LCBO Store # 194,194,10 SHAW STREET,,ELMVALE,,L0L 1P0,Canada,705-322-2771,,,"Sun 11:00 AM - 6:00 PM, Mon 10:00 AM - 6:00 PM, Tue 10:00 AM - 6:00 PM, Wed 10:00 AM - 6:00 PM, Thu 10:00 AM - 6:00 PM, Fri 10:00 AM - 8:00 PM, Sat 10:00 AM - 6:00 PM",,,0
LCBO Store # 406,406,7 COMMERCE ROADUNIT 7,,ANGUS,,L0M 1B2,Canada,705-424-5811,,,"Sun 11:00 AM - 6:00 PM, Mon 10:00 AM - 6:00 PM, Tue 10:00 AM - 6:00 PM, Wed 10:00 AM - 6:00 PM, Thu 10:00 AM - 9:00 PM, Fri 10:00 AM - 9:00 PM, Sat 10:00 AM - 9:00 PM",,,0
LCBO Store # 560,560,144 ALBERT STREETP.O. BOX 119,,VICTORIA HARBOUR,,L0K 2A0,Canada,705-534-3626,,,"Sun 11:00 AM - 6:00 PM, Mon 10:00 AM - 6:00 PM, Tue 10:00 AM - 6:00 PM, Wed 10:00 AM - 6:00 PM, Thu 10:00 AM - 6:00 PM, Fri 10:00 AM - 6:00 PM, Sat 10:00 AM - 6:00 PM",,,0
LCBO Store # 482,482,3238 PORT SEVERN ROADP.O. BOX 176,,PORT SEVERN,,L0K 1S0,Canada,705-538-2500,,,"Sun 11:00 AM - 6:00 PM, Mon 10:00 AM - 6:00 PM, Tue 10:00 AM - 6:00 PM, Wed 10:00 AM - 6:00 PM, Thu 10:00 AM - 6:00 PM, Fri 10:00 AM - 6:00 PM, Sat 10:00 AM - 6:00 PM",,,0
LCBO Store # 608,608,779 NEY AVENUE,,PORT MCNICOLL,,L0K 1R0,Canada,705-534-4234,,,"Sun Closed - , Mon Closed - , Tue 10:00 AM - 6:00 PM, Wed 10:00 AM - 6:00 PM, Thu 10:00 AM - 6:00 PM, Fri 10:00 AM - 6:00 PM, Sat 10:00 AM - 6:00 PM",,,0
LCBO Store # 227,227,930 JONES ROAD,,MIDLAND,,L4R 4K3,Canada,705-526-6911,,,"Sun 11:00 AM - 6:00 PM, Mon 10:00 AM - 8:00 PM, Tue 10:00 AM - 8:00 PM, Wed 10:00 AM - 8:00 PM, Thu 10:00 AM - 8:00 PM, Fri 10:00 AM - 9:00 PM, Sat 10:00 AM - 8:00 PM",,,0
LCBO Store # 313,313,90 MOSLEYP.O. BOX 42,,WASAGA BEACH,,L9Z 2K3,Canada,705-429-2514,,,"Sun 11:00 AM - 6:00 PM, Mon 10:00 AM - 6:00 PM, Tue 10:00 AM - 6:00 PM, Wed 10:00 AM - 6:00 PM, Thu 10:00 AM - 6:00 PM, Fri 10:00 AM - 8:00 PM, Sat 10:00 AM - 6:00 PM",,,0
LCBO Store # 209,209,36 YOUNG STREETALLISTON MILLS SHOPPING CENTRE,,ALLISTON,,L9R 1P8,Canada,705-435-7332,,,"Sun 11:00 AM - 6:00 PM, Mon 10:00 AM - 9:00 PM, Tue 10:00 AM - 9:00 PM, Wed 10:00 AM - 9:00 PM, Thu 10:00 AM - 9:00 PM, Fri 10:00 AM - 9:00 PM, Sat 10:00 AM - 9:00 PM",,,0
LCBO Store # 77,77,UNIT #1162 POYNTZ STREET,,PENETANG,,L9M 1M2,Canada,705-549-2526,,,"Sun 11:00 AM - 6:00 PM, Mon 10:00 AM - 6:00 PM, Tue 10:00 AM - 6:00 PM, Wed 10:00 AM - 6:00 PM, Thu 10:00 AM - 6:00 PM, Fri 10:00 AM - 9:00 PM, Sat 10:00 AM - 6:00 PM",,,0
LCBO Store # 244,244,1900 MOSLEY STREETUNIT #3,,WASAGA BEACH,,L9Z 1Z3,Canada,705-429-7300,,,"Sun 11:00 AM - 6:00 PM, Mon 10:00 AM - 9:00 PM, Tue 10:00 AM - 9:00 PM, Wed 10:00 AM - 9:00 PM, Thu 10:00 AM - 9:00 PM, Fri 10:00 AM - 9:00 PM, Sat 10:00 AM - 9:00 PM",,,0
LCBO Store # 448,448,2669 MUSKOKA RD. 5P.O. BOX 69,,HONEY HARBOUR,,P0E 1E0,Canada,705-756-2593,,,"Sun Closed - , Mon Closed - , Tue 10:00 AM - 6:00 PM, Wed 10:00 AM - 6:00 PM, Thu 10:00 AM - 6:00 PM, Fri 10:00 AM - 6:00 PM, Sat 10:00 AM - 6:00 PM",,,0
LCBO Store # 513,513,204 BEECH STREETP.O. BOX 819,,STAYNER,,L0M 1S0,Canada,705-428-3511,,,"Sun Closed - , Mon 10:00 AM - 6:00 PM, Tue 10:00 AM - 6:00 PM, Wed 10:00 AM - 6:00 PM, Thu 10:00 AM - 6:00 PM, Fri 10:00 AM - 8:00 PM, Sat 10:00 AM - 6:00 PM",,,0
LCBO Store # 529,529,"55 QUEEN STREET SOUTHP.O. BOX 340, TOTTENHAM MALL",,TOTTENHAM,,L0G 1W0,Canada,905-936-2821,,,"Sun 11:00 AM - 6:00 PM, Mon 10:00 AM - 6:00 PM, Tue 10:00 AM - 6:00 PM, Wed 10:00 AM - 6:00 PM, Thu 10:00 AM - 6:00 PM, Fri 10:00 AM - 8:00 PM, Sat 10:00 AM - 6:00 PM",,,0
LCBO Store # 267,267,12 ELIZABETH ST. E.,,CREEMORE,,L0M 1G0,Canada,705-466-2110,,,"Sun 11:00 AM - 6:00 PM, Mon 10:00 AM - 6:00 PM, Tue 10:00 AM - 6:00 PM, Wed 10:00 AM - 6:00 PM, Thu 10:00 AM - 6:00 PM, Fri 10:00 AM - 8:00 PM, Sat 10:00 AM - 6:00 PM",,,0
LCBO Store # 171,171,170 SANDALWOOD PARKWAY E.HEART LAKE TOWN CENTRE,,BRAMPTON,,L6Z 1Y5,Canada,905-846-4373,,,"Sun 11:00 AM - 6:00 PM, Mon 10:00 AM - 10:00 PM, Tue 10:00 AM - 10:00 PM, Wed 10:00 AM - 10:00 PM, Thu 10:00 AM - 10:00 PM, Fri 10:00 AM - 10:00 PM, Sat 9:00 AM - 10:00 PM",,,0
LCBO Store # 599,599,16000 AIRPORT ROAD,,CALEDON,,L7C 1E8,Canada,905-584-9455,,,"Sun 11:00 AM - 6:00 PM, Mon 10:00 AM - 8:00 PM, Tue 10:00 AM - 8:00 PM, Wed 10:00 AM - 9:00 PM, Thu 10:00 AM - 9:00 PM, Fri 10:00 AM - 9:00 PM, Sat 10:00 AM - 9:00 PM",,,0
LCBO Store # 626,626,336 B RUE LAFONTAINE ROAD WESTTINY,,LAFONTAINE,,L9M 0H1,Canada,705-533-4080,,,"Sun 11:00 AM - 6:00 PM, Mon 10:00 AM - 6:00 PM, Tue 10:00 AM - 6:00 PM, Wed 10:00 AM - 6:00 PM, Thu 10:00 AM - 6:00 PM, Fri 10:00 AM - 6:00 PM, Sat 10:00 AM - 6:00 PM",,,0
LCBO Store # 31,31,1 FIRST STREET,,COLLINGWOOD,,L9Y 1A1,Canada,705-445-3341,,,"Sun 11:00 AM - 6:00 PM, Mon 10:00 AM - 9:00 PM, Tue 10:00 AM - 9:00 PM, Wed 10:00 AM - 9:00 PM, Thu 10:00 AM - 9:00 PM, Fri 10:00 AM - 10:00 PM, Sat 10:00 AM - 10:00 PM",,,0
LCBO Store # 537,537,105 ARTHUR ST WPO BOX #179,,THORNBURY,,N0H 2P0,Canada,519-599-3545,,,"Sun 11:00 AM - 6:00 PM, Mon 10:00 AM - 9:00 PM, Tue 10:00 AM - 9:00 PM, Wed 10:00 AM - 9:00 PM, Thu 10:00 AM - 9:00 PM, Fri 10:00 AM - 9:00 PM, Sat 10:00 AM - 9:00 PM",,,0
LCBO Store # 331,331,31 NELSON STREETP.O. BOX 3322,,MEAFORD,,N4L 1A5,Canada,519-538-2590,,,"Sun 11:00 AM - 6:00 PM, Mon 10:00 AM - 6:00 PM, Tue 10:00 AM - 6:00 PM, Wed 10:00 AM - 6:00 PM, Thu 10:00 AM - 6:00 PM, Fri 10:00 AM - 8:00 PM, Sat 10:00 AM - 6:00 PM",,,0
LCBO Store # 300,300,1613 9TH AVENUE EAST,,OWEN SOUND,,N4K 3G5,Canada,519-376-0761,,,"Sun 11:00 AM - 6:00 PM, Mon 10:00 AM - 9:00 PM, Tue 10:00 AM - 9:00 PM, Wed 10:00 AM - 9:00 PM, Thu 10:00 AM - 9:00 PM, Fri 10:00 AM - 9:00 PM, Sat 10:00 AM - 9:00 PM",,,0
LCBO Store # 606,606,"#1 FERNDALE ROAD,P.O. BOX 130",,LION'S HEAD,,N0H 1W0,Canada,519-793-3355,,,"Sun 11:00 AM - 6:00 PM, Mon 10:00 AM - 6:00 PM, Tue 10:00 AM - 6:00 PM, Wed 10:00 AM - 6:00 PM, Thu 10:00 AM - 6:00 PM, Fri 10:00 AM - 6:00 PM, Sat 10:00 AM - 6:00 PM",,,0
LCBO Store # 29,29,415 WILLIAM STREETBOX 190,,WIARTON,,N0H 2T0,Canada,519-534-1170,,,"Sun 11:00 AM - 6:00 PM, Mon 10:00 AM - 6:00 PM, Tue 10:00 AM - 6:00 PM, Wed 10:00 AM - 6:00 PM, Thu 10:00 AM - 6:00 PM, Fri 10:00 AM - 9:00 PM, Sat 10:00 AM - 6:00 PM",,,0
LCBO Store # 283,283,23 BROCK STREETP.O. BOX 100,,TOBERMORY,,N0H 2R0,Canada,519-596-2213,,,"Sun Closed - , Mon Closed - , Tue 10:00 AM - 6:00 PM, Wed 10:00 AM - 6:00 PM, Thu 10:00 AM - 6:00 PM, Fri 10:00 AM - 6:00 PM, Sat 10:00 AM - 6:00 PM",,,0
LCBO Store # 582,582,611 MAIN STREETSAUBLE BEACH,,SAUBLE BEACH,,N0H 2G0,Canada,519-422-2004,,,"Sun 11:00 AM - 6:00 PM, Mon 10:00 AM - 6:00 PM, Tue 10:00 AM - 6:00 PM, Wed 10:00 AM - 6:00 PM, Thu 10:00 AM - 6:00 PM, Fri 10:00 AM - 8:00 PM, Sat 10:00 AM - 6:00 PM",,,0
LCBO Store # 146,146,11 GROSVENORP.O. BOX 105,,SOUTHAMPTON,,N0H 2L0,Canada,519-797-3545,,,"Sun 11:00 AM - 6:00 PM, Mon 10:00 AM - 6:00 PM, Tue 10:00 AM - 6:00 PM, Wed 10:00 AM - 6:00 PM, Thu 10:00 AM - 6:00 PM, Fri 10:00 AM - 6:00 PM, Sat 10:00 AM - 6:00 PM",,,0
LCBO Store # 454,454,216 GODERICH STREETELGIN PLACE MALL,,PORT ELGIN,,N0H 2C1,Canada,519-832-5641,,,"Sun 11:00 AM - 6:00 PM, Mon 10:00 AM - 8:00 PM, Tue 10:00 AM - 8:00 PM, Wed 10:00 AM - 8:00 PM, Thu 10:00 AM - 8:00 PM, Fri 10:00 AM - 9:00 PM, Sat 10:00 AM - 8:00 PM",,,0
LCBO Store # 280,280,55 FIRST STREETP.O. BOX 99,,ELK LAKE,,P0J 1G0,Canada,705-678-2253,,,"Sun Closed - , Mon Closed - , Tue 10:00 AM - 6:00 PM, Wed 10:00 AM - 6:00 PM, Thu 10:00 AM - 6:00 PM, Fri 10:00 AM - 6:00 PM, Sat 10:00 AM - 6:00 PM",,,0
LCBO Store # 92,92,65 FOURTH AVENUEP.O. BOX 160,,ENGLEHART,,P0J 1H0,Canada,705-544-2549,,,"Sun 11:00 AM - 6:00 PM, Mon 10:00 AM - 6:00 PM, Tue 10:00 AM - 6:00 PM, Wed 10:00 AM - 6:00 PM, Thu 10:00 AM - 6:00 PM, Fri 10:00 AM - 8:00 PM, Sat 10:00 AM - 6:00 PM",,,0
LCBO Store # 506,506,4 - 10TH AVENUE SOUTHP.O. BOX 307,,EARLTON,,P0J 1E0,Canada,705-563-2274,,,"Sun Closed - , Mon Closed - , Tue 10:00 AM - 6:00 PM, Wed 10:00 AM - 6:00 PM, Thu 10:00 AM - 6:00 PM, Fri 10:00 AM - 6:00 PM, Sat 10:00 AM - 6:00 PM",,,0
LCBO Store # 91,91,5 SUMMER HAYES AVENUEP.O. BOX 306,,KIRKLAND LAKE,,P2N 3H7,Canada,705-567-3686,,,"Sun 11:00 AM - 6:00 PM, Mon 10:00 AM - 6:00 PM, Tue 10:00 AM - 6:00 PM, Wed 10:00 AM - 6:00 PM, Thu 10:00 AM - 6:00 PM, Fri 10:00 AM - 9:00 PM, Sat 10:00 AM - 6:00 PM",,,0
LCBO Store # 78,78,55 ARMSTRONG STREETP.O. BOX 1469,,NEW LISKEARD,,P0J 1P0,Canada,705-647-4071,,,"Sun 11:00 AM - 6:00 PM, Mon 10:00 AM - 6:00 PM, Tue 10:00 AM - 6:00 PM, Wed 10:00 AM - 6:00 PM, Thu 10:00 AM - 6:00 PM, Fri 10:00 AM - 9:00 PM, Sat 10:00 AM - 6:00 PM",,,0
LCBO Store # 67,67,316 BROADWAY STREETP.O. BOX 682,,HAILEYBURY,,P0J 1K0,Canada,705-672-3747,,,"Sun 11:00 AM - 6:00 PM, Mon 10:00 AM - 6:00 PM, Tue 10:00 AM - 6:00 PM, Wed 10:00 AM - 6:00 PM, Thu 10:00 AM - 6:00 PM, Fri 10:00 AM - 9:00 PM, Sat 10:00 AM - 6:00 PM",,,0
LCBO Store # 76,76,28 SILVER STREETP.O. BOX 639,,COBALT,,P0J 1C0,Canada,705-679-5536,,,"Sun Closed - , Mon Closed - , Tue 10:00 AM - 6:00 PM, Wed 10:00 AM - 6:00 PM, Thu 10:00 AM - 6:00 PM, Fri 10:00 AM - 6:00 PM, Sat 10:00 AM - 6:00 PM",,,0
LCBO Store # 258,258,13 SPRAGGE & QUEEN STREETP.O. BOX 99,,MANITOWANING,,P0P 1N0,Canada,705-859-3292,,,"Sun 11:00 AM - 6:00 PM, Mon 10:00 AM - 6:00 PM, Tue 10:00 AM - 6:00 PM, Wed 10:00 AM - 6:00 PM, Thu 10:00 AM - 6:00 PM, Fri 10:00 AM - 6:00 PM, Sat 10:00 AM - 6:00 PM",,,0
LCBO Store # 158,158,17 MANITOWANING ROADP.O. BOX 668,,LITTLE CURRENT,,P0P 1K0,Canada,705-368-2483,,,"Sun 11:00 AM - 6:00 PM, Mon 10:00 AM - 6:00 PM, Tue 10:00 AM - 6:00 PM, Wed 10:00 AM - 6:00 PM, Thu 10:00 AM - 6:00 PM, Fri 10:00 AM - 6:00 PM, Sat 10:00 AM - 6:00 PM",,,0
LCBO Store # 157,157,1 DAWSON STREETP.O. BOX 223,,GORE BAY,,P0P 1H0,Canada,705-282-2320,,,"Sun 11:00 AM - 6:00 PM, Mon 10:00 AM - 6:00 PM, Tue 10:00 AM - 6:00 PM, Wed 10:00 AM - 6:00 PM, Thu 10:00 AM - 6:00 PM, Fri 10:00 AM - 6:00 PM, Sat 10:00 AM - 6:00 PM",,,0
LCBO Store # 409,409,17 CHANNEL STREET,,KILLARNEY,,P0M 2A0,Canada,705-287-2054,,,"Sun Closed - , Mon Closed - , Tue 10:00 AM - 6:00 PM, Wed 10:00 AM - 6:00 PM, Thu 10:00 AM - 6:00 PM, Fri 10:00 AM - 6:00 PM, Sat 10:00 AM - 6:00 PM",,,0
LCBO Store # 565,565,4 GODERICH ROADP.O. BOX 340,,SPANISH,,P0P 2A0,Canada,705-844-2244,,,"Sun Closed - , Mon Closed - , Tue 10:00 AM - 6:00 PM, Wed 10:00 AM - 6:00 PM, Thu 10:00 AM - 6:00 PM, Fri 10:00 AM - 6:00 PM, Sat 10:00 AM - 6:00 PM",,,0
LCBO Store # 184,184,20 GANLEY STREETP.O. BOX 325,,WAWA,,P0S 1K0,Canada,705-856-4470,,,"Sun 11:00 AM - 6:00 PM, Mon 10:00 AM - 6:00 PM, Tue 10:00 AM - 6:00 PM, Wed 10:00 AM - 6:00 PM, Thu 10:00 AM - 6:00 PM, Fri 10:00 AM - 6:00 PM, Sat 10:00 AM - 6:00 PM",,,0
LCBO Store # 114,114,318 ATWOOD AVENUEP.O. BOX 175,,RAINY RIVER,,P0W 1L0,Canada,807-852-3262,,,"Sun Closed - , Mon 10:00 AM - 6:00 PM, Tue 10:00 AM - 6:00 PM, Wed Closed - , Thu 10:00 AM - 6:00 PM, Fri 10:00 AM - 6:00 PM, Sat 10:00 AM - 6:00 PM",,,0
LCBO Store # 68,68,546 PARK STREETKENORA SHOPPERS MALL,,KENORA,,P9N 1A1,Canada,807-468-8022,,,"Sun 12:00 PM - 5:00 PM, Mon 10:00 AM - 6:00 PM, Tue 10:00 AM - 6:00 PM, Wed 10:00 AM - 6:00 PM, Thu 10:00 AM - 6:00 PM, Fri 10:00 AM - 9:00 PM, Sat 10:00 AM - 6:00 PM",,,0
LCBO Store # 230,230,202 10TH STREETP.O. BOX 79,,KEEWATIN,,P0X 1C0,Canada,807-547-2898,,,"Sun 12:00 PM - 4:00 PM, Mon 10:00 AM - 6:00 PM, Tue 10:00 AM - 6:00 PM, Wed 10:00 AM - 6:00 PM, Thu 10:00 AM - 6:00 PM, Fri 10:00 AM - 6:00 PM, Sat 10:00 AM - 6:00 PM",,,0
LCBO Store # 376,376,HIGHWAY 17 & ROCKY RIDGE ROADC/O 546 PARK STREET,,KENORA,,P9N 1A1,Canada,807-733-2428,,,"Sun 11:00 AM - 6:00 PM, Mon 10:00 AM - 6:00 PM, Tue 10:00 AM - 6:00 PM, Wed 10:00 AM - 6:00 PM, Thu 10:00 AM - 6:00 PM, Fri 10:00 AM - 9:00 PM, Sat 10:00 AM - 6:00 PM",,,0
LCBO Store # 257,257,HWY. 71P.O. BOX 120,,SIOUX NARROWS,,P0X 1N0,Canada,807-226-5262,,,"Sun Closed - , Mon Closed - , Tue 10:00 AM - 6:00 PM, Wed 10:00 AM - 6:00 PM, Thu 10:00 AM - 6:00 PM, Fri 10:00 AM - 6:00 PM, Sat 10:00 AM - 6:00 PM",,,0
LCBO Store # 225,225,11 CHARLES WALK,,ELLIOT LAKE,,P5A 2A2,Canada,705-848-7391,,,"Sun 11:00 AM - 6:00 PM, Mon 10:00 AM - 6:00 PM, Tue 10:00 AM - 6:00 PM, Wed 10:00 AM - 6:00 PM, Thu 10:00 AM - 6:00 PM, Fri 10:00 AM - 8:00 PM, Sat 10:00 AM - 6:00 PM",,,0
LCBO Store # 108,108,30 WOODWARD AVENUEP.O. BOX 1900,,BLIND RIVER,,P0R 1B0,Canada,705-356-9881,,,"Sun Closed - , Mon 10:00 AM - 6:00 PM, Tue 10:00 AM - 6:00 PM, Wed 10:00 AM - 6:00 PM, Thu 10:00 AM - 6:00 PM, Fri 10:00 AM - 6:00 PM, Sat 10:00 AM - 6:00 PM",,,0
LCBO Store # 487,487,1 JAMES STREETP.O. BOX 250,,IRON BRIDGE,,P0R 1H0,Canada,705-843-2203,,,"Sun Closed - , Mon Closed - , Tue 10:00 AM - 6:00 PM, Wed 10:00 AM - 6:00 PM, Thu 10:00 AM - 6:00 PM, Fri 10:00 AM - 6:00 PM, Sat 10:00 AM - 6:00 PM",,,0
LCBO Store # 104,104,163 MAIN STREETBOX 8,,THESSALON,,P0R 1L0,Canada,705-842-2112,,,"Sun 11:00 AM - 6:00 PM, Mon 10:00 AM - 6:00 PM, Tue 10:00 AM - 6:00 PM, Wed 10:00 AM - 6:00 PM, Thu 10:00 AM - 6:00 PM, Fri 10:00 AM - 6:00 PM, Sat 10:00 AM - 6:00 PM",,,0
LCBO Store # 112,112,25 BRUNETVILLE ROADMODEL CITY MALL,,KAPUSKASING,,P5N 2E9,Canada,705-335-2835,,,"Sun 11:00 AM - 5:00 PM, Mon 10:00 AM - 6:00 PM, Tue 10:00 AM - 6:00 PM, Wed 10:00 AM - 6:00 PM, Thu 10:00 AM - 6:00 PM, Fri 10:00 AM - 9:00 PM, Sat 10:00 AM - 6:00 PM",,,0
LCBO Store # 577,577,33A HIGHWAY 11P.O. BOX 112,,MOONBEAM,,P0L 1V0,Canada,705-367-2388,,,"Sun Closed - , Mon Closed - , Tue 10:00 AM - 6:00 PM, Wed 10:00 AM - 6:00 PM, Thu 10:00 AM - 6:00 PM, Fri 10:00 AM - 6:00 PM, Sat 10:00 AM - 6:00 PM",,,0
LCBO Store # 463,463,275 KING STREET EP.O. BOX 248,,MATTICE,,P0L 1T0,Canada,705-364-2201,,,"Sun Closed - , Mon Closed - , Tue 10:00 AM - 6:00 PM, Wed 10:00 AM - 6:00 PM, Thu 10:00 AM - 6:00 PM, Fri 10:00 AM - 6:00 PM, Sat 10:00 AM - 6:00 PM",,,0
LCBO Store # 484,484,275 SECOND LINE WESTMARKET SQUARE,,SAULT STE. MARIE,,P6C 2J4,Canada,705-759-6392,,,"Sun 11:00 AM - 6:00 PM, Mon 10:00 AM - 6:00 PM, Tue 10:00 AM - 6:00 PM, Wed 10:00 AM - 6:00 PM, Thu 10:00 AM - 6:00 PM, Fri 10:00 AM - 9:00 PM, Sat 10:00 AM - 6:00 PM",,,0
LCBO Store # 63,63,293 BAY STREETSTATION MALL,,SAULT STE. MARIE,,P6A 1X3,Canada,705-256-3015,,,"Sun 12:00 PM - 5:00 PM, Mon 9:30 AM - 9:00 PM, Tue 9:30 AM - 9:00 PM, Wed 9:30 AM - 9:00 PM, Thu 9:30 AM - 9:00 PM, Fri 9:30 AM - 9:00 PM, Sat 9:30 AM - 5:30 PM",,,0
LCBO Store # 359,359,616 GREAT NORTHERN ROAD,,SAULT STE. MARIE,,P6B 4Z9,Canada,705-759-7740,,,"Sun 11:00 AM - 6:00 PM, Mon 10:00 AM - 9:30 PM, Tue 10:00 AM - 9:30 PM, Wed 10:00 AM - 9:30 PM, Thu 10:00 AM - 9:30 PM, Fri 10:00 AM - 9:30 PM, Sat 10:00 AM - 9:30 PM",,,0
LCBO Store # 473,473,3040 HWY 17 NORTH,,GOULAIS RIVER,,P0S 1E0,Canada,705-649-2254,,,"Sun 11:00 AM - 6:00 PM, Mon 10:00 AM - 6:00 PM, Tue 10:00 AM - 6:00 PM, Wed 10:00 AM - 6:00 PM, Thu 10:00 AM - 6:00 PM, Fri 10:00 AM - 6:00 PM, Sat 10:00 AM - 6:00 PM",,,0
LCBO Store # 519,519,3213 HWY 17 B EASTP.O. BOX 9,,ECHO BAY,,P0S 1C0,Canada,705-248-2643,,,"Sun 11:00 AM - 6:00 PM, Mon 10:00 AM - 6:00 PM, Tue 10:00 AM - 6:00 PM, Wed 10:00 AM - 6:00 PM, Thu 10:00 AM - 6:00 PM, Fri 10:00 AM - 8:00 PM, Sat 10:00 AM - 6:00 PM",,,0
LCBO Store # 451,451,1198 RICHARD STREETP.O. BOX 130,,RICHARD'S LANDING,,P0R 1J0,Canada,705-246-2404,,,"Sun Closed - , Mon 10:00 AM - 6:00 PM, Tue 10:00 AM - 6:00 PM, Wed Closed - , Thu 10:00 AM - 6:00 PM, Fri 10:00 AM - 6:00 PM, Sat 10:00 AM - 6:00 PM",,,0
LCBO Store # 421,421,"9226 TAYLOR STREETPO BOX 178, ROBINSON & HWY 17 EAST",,BRUCE MINES,,P0R 1C0,Canada,705-785-3772,,,"Sun 11:00 AM - 6:00 PM, Mon 10:00 AM - 6:00 PM, Tue 10:00 AM - 6:00 PM, Wed 10:00 AM - 6:00 PM, Thu 10:00 AM - 6:00 PM, Fri 10:00 AM - 6:00 PM, Sat 10:00 AM - 6:00 PM",,,0
LCBO Store # 86,86,99 KING STREET NORTH,,DRYDEN,,P8N 1C1,Canada,807-223-4029,,,"Sun 12:00 PM - 4:00 PM, Mon 10:00 AM - 6:00 PM, Tue 10:00 AM - 6:00 PM, Wed 10:00 AM - 6:00 PM, Thu 10:00 AM - 6:00 PM, Fri 10:00 AM - 9:00 PM, Sat 10:00 AM - 6:00 PM",,,0
LCBO Store # 315,315,HWY. 17 & 142 TOWER ROAD,,VERMILION BAY,,P0V 2V0,Canada,807-227-2041,,,"Sun Closed - , Mon Closed - , Tue 10:00 AM - 6:00 PM, Wed 10:00 AM - 6:00 PM, Thu 10:00 AM - 6:00 PM, Fri 10:00 AM - 6:00 PM, Sat 10:00 AM - 6:00 PM",,,0
LCBO Store # 480,480,35 SECOND STREETPO BOX 10,,HUDSON,,P0V 1X0,Canada,807-582-3205,,,"Sun 12:00 PM - 4:00 PM, Mon Closed - , Tue 10:00 AM - 6:00 PM, Wed 10:00 AM - 6:00 PM, Thu 10:00 AM - 6:00 PM, Fri 10:00 AM - 6:00 PM, Sat 10:00 AM - 6:00 PM",,,0
LCBO Store # 87,87,44 FRONT STREETP.O. BOX 9,,SIOUX LOOKOUT,,P8T 1A1,Canada,807-737-1753,,,"Sun Closed - , Mon 10:00 AM - 6:00 PM, Tue 10:00 AM - 6:00 PM, Wed 10:00 AM - 6:00 PM, Thu 10:00 AM - 6:00 PM, Fri 10:00 AM - 6:00 PM, Sat 10:00 AM - 6:00 PM",,,0
LCBO Store # 241,241,3 WILDFLOWER AVENUEP.O. BOX 117,,TEMAGAMI,,P0H 2H0,Canada,705-569-3410,,,"Sun Closed - , Mon Closed - , Tue 10:00 AM - 6:00 PM, Wed 10:00 AM - 6:00 PM, Thu 10:00 AM - 6:00 PM, Fri 10:00 AM - 6:00 PM, Sat 10:00 AM - 6:00 PM",,,0
