store_name,store_number,address,address2,city,state,zip_code,country,phone_number,latitude,longitude,store_hours,store_type,other_fields,coming_soon
"Jackson, MS",,1220 E. NORTHSIDE DRIVE,,JACKSON,MS,39211,United States,(601) 362-1781,,,"Monday-Saturday 9-8, sunday 12-6",,,
"West Des Moines, IA",,6630 Mills Civic Pkwy,,West Des Moines,IA,50265,United States,515-457-3036,,,"Monday-Saturday 9-9, sunday 11-6",,,
"Wichita, KS",,2210 N. Rock Road,,WICHITA,KS,67226,United States,(316) 612-9658,,,"Monday-Saturday 9-9, sunday 11-6",,,
"South Portland, ME",,335 MAINE MALL ROAD,,SOUTH PORTLAND,ME,04106,United States,(207) 761-9907,,,"Monday-Saturday 9-9, sunday 11-6",,,
"Davenport, IA",,5270 ELMORE AVE,,DAVENPORT,IA,52807,United States,563-355-7476,,,"Monday-Saturday 9-9, sunday 11-6",,,
"Council Bluffs, IA",,3815 METRO DRIVE,,COUNCIL BLUFFS,IA,51501,United States,(712) 366-7803,,,"Monday-Saturday 9-9, sunday 11-6",,,
"Westminster, MD",,631a W. BALTIMORE BLVD,,WESTMINSTER,MD,21157,United States,(410) 848-7621,,,"Monday-Saturday 10-9, sunday 11-6",,,
"Woodbury, MN",,8960 Hudson Road,,Woodbury,MN,55125,United States,(651) 578-6875,,,"Monday-Saturday 9-9, sunday 11-6",,,
"St. Paul, MN",,472 HAMLINE AVE NORTH,,SAINT PAUL,MN,55104,United States,(651) 644-2429,,,"Monday-Saturday 9-9, sunday 11-6",,,
"St. Cloud, MN",,4041 DIVISION STREET,,SAINT CLOUD,MN,56301,United States,(320) 253-3417,,,"Monday-Saturday 9-8, sunday 11-6",,,
"Woburn, MA",,103 A COMMERCE WAY,,WOBURN,MA,01801,United States,(781) 933-5653,,,"Monday-Saturday 9-9, sunday 11-6",,,
"Nampa, ID",,16375 N. MERCHANT WAY,,NAMPA,ID,83686,United States,(208) 442-7892,,,,,,
"Lahaina, HI",,305 Keawe Street,,Lahaina,HI,96761,United States,(808) 667-5834,,,"Monday-Saturday 10-8, sunday 10-5",,,
"Kapolei, HI",,4480 KAPOLEI PKWAY,,KAPOLEI,HI,96707,United States,(808) 674-9629,,,"Monday-Saturday 9-9, sunday 10-6",,,
"Kaneohe, HI",,46-047 Kamehameha Highway,,Kaneohe,HI,96744,United States,(808) 235-8705,,,"Monday-Saturday 10-9, sunday 10-6",,,
"Warner Robins, GA",,2971 WATSON BLVD,,WARNER ROBINS,GA,31093,United States,(478) 953-5940,,,"Monday-Saturday 10-9, sunday 12-6",,,
"Wauwatosa, WI",,2543 Mayfair Road,,Wauwatosa,WI,53226,United States,(414) 258-9133,,,"Monday-Friday 9-9, Saturday 9-8, sunday 10-6",,,
"Greenfield, WI",,7515 West Layton Avenue,,Greenfield,WI,53220,United States,(414) 282-8973,,,"Monday-Friday 9-9, Saturday 9-8, sunday 10-6",,,
"Madison East, WI",,4620 East Washington Ave,,Madison,WI,53704,United States,(608) 242-9146,,,"Monday-Saturday 10-9, sunday 11-6",,,
"Madison West, WI",,7066 Mineral Point Road,,Madison,WI,53717,United States,(608) 827-9577,,,"Monday-Saturday 10-9, sunday 11-6",,,
"Brookfield, WI",,15455 Bluemound Round,,Brookfield,WI,53005,United States,(262) 784-2030,,,"Monday-Friday 9-9, Saturday 9-8, sunday 10-6",,,
"Snellville, GA",,2118 Scenic Highway,,SNELLVILLE,GA,30078,United States,(770) 972-8057,,,"Monday-Saturday 10-9, sunday 12-6",,,
"Savannah, GA",,7929 ABERCORN STREET,,SAVANNAH,GA,31406,United States,(912) 925-2581,,,"Monday-Saturday 10-9, sunday 11-6",,,
"Newnan, GA",,335 Newnan Crossing Bypass,,NEWNAN,GA,30265,United States,(678) 423-4238,,,"Monday-Saturday 10-9, sunday 12-6",,,
"Southlake, GA",,1951 Mount Zion Road,,MORROW,GA,30260,United States,(678) 479-6636,,,"Monday-Saturday 10-9, sunday 11-6",,,
"McDonough, GA",,1438 HIGHWAY 20 WEST,,MCDONOUGH,GA,30253,United States,(678) 565-4636,,,"Monday-Saturday 10-9, sunday 12-6",,,
"Appleton, WI",,4359 West Wisconsin Avenue,,Appleton,WI,54913,United States,(920) 733-3768,,,"Monday-Friday 9-9, Saturday 9-8, sunday 10-6",,,
"Kennesaw, GA",,2555 PRADO LANE,,MARIETTA,GA,30066,United States,770-419-3492,,,"Monday-Saturday 10-9, sunday 12-6",,,
"Vernon Hills, IL",,325 North Milwaukee Ave,,Vernon Hills,IL,60061,United States,(847) 520-2574,,,"Monday-Saturday 10-8, sunday 11-6",,,
"Springfield, IL",,2802 SW PLAZA DRIVE,,SPRINGFIELD,IL,62704,United States,(217) 546-3843,,,"Monday-Saturday 9-9, sunday 11-6",,,
"Skokie, IL",,9410 North Skokie Boulevard,,Skokie,IL,60077,United States,(847) 673-5010,,,"Monday-Saturday 9-9, sunday 11-6",,,
"South Elgin, IL",,414 RANDALL RD,,SOUTH ELGIN,IL,60177,United States,(847) 468-1447,,,"Monday-Friday 10-9, Saturday 9-8, sunday 11-6",,,
"Rockford, IL",,5946 East State Street,,ROCKFORD,IL,61108,United States,(815) 397-9244,,,"Monday-Friday 10-9, Saturday 10-8, sunday 11-6",,,
"Peoria, IL",,5116 NORTH BIG HOLLOW ROAD,,Peoria,IL,61615,United States,309-691-6954,,,"Monday-Saturday 9-9, sunday 11-6",,,
"Wheaton, IL",,1901 South Naperville Road,,Wheaton,IL,60187,United States,(630) 690-0512,,,"Monday-Saturday 9-9, sunday 11-6",,,
"Oswego, IL",,2734 RT. 34,,OSWEGO,IL,60543,United States,(630) 554-5315,,,"Monday-Saturday 9-9, sunday 11-6",,,
"Schaumburg, IL",,681 East Golf Road,,Schaumburg,IL,60173,United States,(847) 285-3289,,,"Monday-Friday 10-9, Saturday 9-8, sunday 11-6",,,
"Orland Park, IL",,15131 South La Grange Road,,Orland Park,IL,60462,United States,(708) 226-0566,,,"Monday-Saturday 9-9, sunday 11-6",,,
"Oakbrook, IL",,17W700 22nd Street,,Oakbrook Terrace,IL,60181,United States,(630) 705-1170,,,"Monday-Saturday 10-9, sunday 11-6",,,
"Oak Lawn, IL",,6310 WEST 95TH STREET,,OAK LAWN,IL,60453,United States,(708) 598-6279,,,"Monday-Saturday 9-9, sunday 11-6",,,
"Niles, IL",,8600 West Golf Road,,Niles,IL,60714,United States,(847) 759-9805,,,"Monday-Saturday 9-9, sunday 11-6",,,
"Norridge, IL",,4275 N. Harlem Avenue,,Norridge,IL,60656,United States,(708) 457-1937,,,"Monday-Saturday 9-9, sunday 11-6",,,
"Naperville, IL",,1995 W JEFFERSON AVE,,NAPERVILLE,IL,60540,United States,(630) 637-8260,,,"Monday-Friday 9-9, Saturday 9-8, sunday 11-6",,,
"Melrose Park, IL",,1350 WINSTON PLAZA,,MELROSE PARK,IL,60160,United States,(708) 345-6150,,,"Monday-Saturday 9-9, sunday 11-6",,,
"Palm Beach Lakes, FL",,1815 PALM BEACH LAKES BLVD,,WEST PALM BEACH,FL,33401,United States,(561) 684-1913,,,"Monday-Saturday 9-9, sunday 11-6",,,
"West Palm Beach, FL",,4587 Okeechobee Boulevard,,West Palm Beach,FL,33417,United States,(561) 682-9959,,,"Monday-Saturday 9-9, sunday 11-6",,,
"Wesley Chapel, FL",,28150 WILLET WAY,,WESLEY CHAPEL,FL,33543,United States,(813) 907-6679,,,"Monday-Saturday 10-9, sunday 11-6",,,
"Wellington, FL",,10590 Forest Hill Blvd,,Wellington,FL,33414,United States,(561) 784-2565,,,"Monday-Saturday 9-9, sunday 11-6",,,
"Vero Beach, FL",,6280 20th Street,,Vero Beach,FL,32966,United States,(772) 978-7219,,,"Monday-Saturday 9-9, sunday 11-6",,,
"Venice, FL",,4254 TAMIAMI TRL S.,,VENICE,FL,34293,United States,(941) 493-1925,,,"Monday-Saturday 9-7, sunday 11-6",,,
"Fowler, FL",,2201 East Fowler Avenue,,Tampa,FL,33612,United States,(813) 615-9292,,,"Monday-Saturday 9-8, sunday 11-6",,,
South Tampa FL,,102 North Dale Mabry Hwy,,TAMPA,FL,33609,United States,(813) 874-3107,,,"Monday-Saturday 9-9, sunday 11-6",,,
"Citrus Park, FL",,8019 Citrus Park Drive,,Tampa,FL,33624,United States,(813) 792-0125,,,"Monday-Saturday 10-9, sunday 11-6",,,
"Tallahassee, FL",,1313 Apalachee Pkwy,,Tallahassee,FL,32301,United States,(850) 216-1618,,,"Monday-Saturday 9-9, sunday 11-6",,,
"St Petersburg, Fl",,2301 Tyrone Boulevard,,St Petersburg,FL,33710,United States,(727) 347-2283,,,"Monday-Saturday 9-9, sunday 11-6",,,
"St. Petersburg, FL",,2700 4th Street North,,ST PETERSBURG,FL,33704,United States,(727) 822-8102,,,"Monday-Saturday 9-9, sunday 11-6",,,
"St. Augustine, FL",,2125 US HIGHWAY 1 SOUTH,,ST AUGUSTINE,FL,32086,United States,(904) 797-1578,,,"Monday-Saturday 10-8, sunday 11-6",,,
"Dadeland, FL",,8303 South Dixie Highway,,South Miami,FL,33143,United States,(305) 666-2878,,,"Monday-Saturday 9-9, sunday 11-6",,,
"Sarasota, FL",,4104 S Tamiami Trail (US 41),,Sarasota,FL,34231,United States,(941) 921-2173,,,"Monday-Saturday 9-9, sunday 11-6",,,
"Sanford, FL",,1516 RINEHART RD,,SANFORD,FL,32771,United States,(407) 302-7256,,,"Monday-Saturday 9-9, sunday 11-6",,,
"ST CLOUD, FL #877",,4301 13TH STREET,,SAINT CLOUD,FL,34769,United States,,,,,,,
"Port St. Lucie, FL",,1780 SW St. Lucie West Blvd,,Port St Lucie,FL,34986,United States,(772) 879-2405,,,"Monday-Saturday 9-9, sunday 11-6",,,
"Port Charlotte, FL",,1851 TAMIAMI TRAIL,,PORT CHARLOTTE,FL,33948,United States,(941) 627-5012,,,"Monday-Saturday 9-8, sunday 11-6",,,
"Pompano Beach, FL",,413 N Federal Hwy,,Pompano Beach,FL,33062,United States,(954) 786-9323,,,"Monday-Saturday 9-9, sunday 11-6",,,
"Sunrise, FL",,1723 N University Drive,,Plantation,FL,33322,United States,(954) 472-7644,,,"Monday-Saturday 10-9, sunday 11-6",,,
"Coconut Creek, FL",,5463 Lyons Road,,POMPANO BEACH,FL,33073,United States,(954) 354-1999,,,"Monday-Friday 9-9, Saturday 9-8, sunday 11-6",,,
"Plantation, FL",,268 South University Drive,,Plantation,FL,33324,United States,(954) 424-1850,,,"Monday-Saturday 10-9, sunday 11-6",,,
"Pensacola, FL",,5090 N 9th Ave,,Pensacola,FL,32504,United States,(850) 474-0561,,,"Monday-Saturday 9-9, sunday 11-6",,,
"Pembrook Pines, FL",,10800 Pines Blvd.,,Pembroke Pines,FL,33026,United States,(954) 538-0994,,,"Monday-Saturday 10-9, sunday 11-6",,,
"Panama City, FL",,2296 Martin Luther King Boulevard,,Panama City,FL,32405,United States,(850) 522-8803,,,"Monday-Saturday 9-9, sunday 11-6",,,
"Palm Harbor, FL",,33470 US Hwy 19,,Palm Harbor,FL,34684,United States,(727) 781-8293,,,"Monday-Saturday 9-9, sunday 11-6",,,
"Palm Coast, FL",,5234 State Road 100,,Palm Coast,FL,32164,United States,(386) 313-2650,,,"Monday-Saturday 9-8, sunday 11-6",,,
"Palm Beach Gardens, FL",,11320 Legacy Ave,,Palm Beach Gardens,FL,33410,United States,(561) 622-1679,,,"Monday-Saturday 9-9, sunday 11-6",,,
"East Colonial, FL",,3807 East Colonial Drive,,Orlando,FL,32803,United States,(407) 895-9989,,,"Monday-Saturday 9-9, sunday 11-6",,,
"Florida Mall, FL",,1233 West Sand Lake Road,,Orlando,FL,32809,United States,(407) 854-0343,,,"Monday-Saturday 10-8, sunday 11-6",,,
"Millenia Mall, FL",,4012 Eastgate Drive,,Orlando,FL,32839,United States,(407) 370-2556,,,"Monday-Saturday 10-9, sunday 11-7",,,
"Orange Park, FL",,62 Blanding Boulevard,,Orange Park,FL,32073,United States,(904) 298-1525,,,"Monday-Saturday 9-8, sunday 11-6",,,
"Waterford Lakes, FL",,464 N Alafaya Trail,,Orlando,FL,32828,United States,(407) 273-8159,,,"Monday-Saturday 9-9, sunday 11-6",,,
"Ocoee, FL",,9693 W Colonial Dr,,Ocoee,FL,34761,United States,(407) 532-0386,,,"Monday-Saturday 9-9, sunday 11-6",,,
"Ocala, Fl",,2701 SW College Rd,,Ocala,FL,34474,United States,(352) 873-9012,,,"Monday-Saturday 9-9, sunday 11-6",,,
"North Miami, FL",,12301 NE Biscayne Blvd,,North Miami,FL,33181,United States,(305) 892-7235,,,"Monday-Saturday 9-9, sunday 11-6",,,
"Naples, FL",,6434 Naples Blvd,,Naples,FL,34109,United States,(239) 254-0834,,,"Monday-Saturday 9-9, sunday 11-6",,,
"North Kendall, FL",,16383 SW 88th St,,MIAMI,FL,33196,United States,(305) 385-7924,,,"Monday-Saturday 10-9, sunday 11-6",,,
"Cutler Bay, FL",,19270 S DIXIE HWY,,MIAMI,FL,33157,United States,(305) 233-4013,,,"Monday-Saturday 10-9, sunday 11-6",,,
"West Kendall, FL",,8707 S W 124th Ave,,Miami,FL,33183,United States,(305) 412-7777,,,"Monday-Saturday 10-9, sunday 11-6",,,
"Coral Gables, FL",,3301 SW 22nd Street,,Miami,FL,33145,United States,(305) 569-0525,,,"Monday-Saturday 9-9, sunday 11-6",,,
Mt Dora FL,,17355 US 441,,MOUNT DORA,FL,32757,United States,(352) 357-2124,,,"Monday-Saturday 9-8, sunday 11-6",,,
"Westchester, FL",,8655 CORAL WAY,,MIAMI,FL,33155,United States,305.269.3190,,,"Monday-Saturday 9-9, sunday 11-6",,,
"Merritt Island, FL",,800 E. Merritt Island Causeway,,Merritt Island,FL,32952,United States,(321) 454-9434,,,"Monday-Saturday 10-8, sunday 11-6",,,
"Largo, FL",,13100 SEMINOLE BLVD.,,LARGO,FL,33778,United States,(727) 581-2592,,,"Monday-Saturday 9-9, sunday 11-6",,,
"Melbourne, FL",,1653 West New Haven Ave,,Melbourne,FL,32904,United States,(321) 952-2690,,,"Monday-Saturday 9-9, sunday 11-6",,,
"Lakeland, FL",,3813 US Highway 98 North,,Lakeland,FL,33809,United States,(863) 815-6020,,,"Monday-Saturday 9-9, sunday 11-6",,,
"Kissimmee, FL",,3312 GREENWALD WAY NORTH,,KISSIMMEE,FL,34741,United States,(407) 931-2023),,,"Monday-Saturday 10-9, sunday 11-6",,,
"The Villages, FL",,564 NORTH US HIGHWAY 441,,LADY LAKE,FL,32159,United States,(352) 205-7536,,,"Monday-Saturday 9-8, sunday 11-6",,,
"Jupiter, FL",,903 W Indiantown Road,,Jupiter,FL,33458,United States,(561) 747-9561,,,"Monday-Saturday 9-9, sunday 11-6",,,
"Mandarin, FL",,11200 SAN JOSE BOULEVARD,,JACKSONVILLE,FL,32223,United States,(904) 886-2711,,,"Monday-Saturday 9-8, sunday 11-6",,,
"Jacksonville,FL",,4668 Town Crossing Drive,,Jacksonville,FL,32246,United States,(904) 928-9268,,,"Monday-Saturday 10-9, sunday 11-6",,,
"Jensen, FL",,2960 North Federal Highway,,Jensen Beach,FL,34957,United States,(772) 692-7878,,,"Monday-Saturday 9-9, sunday 11-6",,,
"Jacksonville (River City), FL",,15128 MAX LEGGET PARKWAY,,JACKSONVILLE,FL,32218,United States,(904) 757-7079,,,"Monday-Saturday 10-9, sunday 11-6",,,
"Homestead, FL",,1806 NE 8th Street,,HOMESTEAD,FL,33033,United States,(305) 248-7659,,,"Monday-Saturday 10-9, sunday 11-6",,,
"Hialeah, FL",,1195 West 49th Street,,Hialeah,FL,33012,United States,(305) 231-7732,,,"Monday-Saturday 9-9, sunday 11-6",,,
"Gainsville, FL",,6921 West Newberry Road,,Gainesville,FL,32605,United States,352-331-1708,,,"Monday-Saturday 9-9, sunday 11-6",,,
"Miami Beach, FL",,1101 5th Street,,Miami Beach,FL,33139,United States,(305) 673-6396,,,"Monday-Saturday 10-9, sunday 11-6",,,
"E. Fort Myers, FL",,9390 Six Mile Cypress Pkwy,,Fort Myers,FL,33966,United States,(239) 274-1299,,,"Monday-Saturday 9-8, sunday 11-6",,,
"Fort Myers, FL",,11741 S. Cleveland Ave,,Fort Myers,FL,33907,United States,(239) 274-6182,,,"Monday-Saturday 9-8, sunday 11-6",,,
"Fort Lauderdale, FL",,2205 N. Federal Highway,,Fort Lauderdale,FL,33305,United States,(954) 564-3232,,,"Monday-Saturday 9-9, sunday 11-6",,,
"Deerfield Beach, FL",,35 South Federal Highway,,Deerfield Beach,FL,33441,United States,(954) 420-5587,,,"Monday-Saturday 9-9, sunday 11-6",,,
"Delray Place, FL",,1811 FEDERAL HWY,,DELRAY BEACH,FL,33483,United States,(561) 278-1579,,,"Monday-Saturday 9-9, sunday 11-6",,,
"Destin, FL",,34737 Emerald Parkway,,Destin,FL,32541,United States,(850) 650-0393,,,"Monday-Saturday 9-9, sunday 11-6",,,
"Daytona Beach, FL",,2266 International Speedway Blvd,,Daytona Beach,FL,32114,United States,(386) 238-8854,,,"Monday-Saturday 9-8, sunday 11-6",,,
"Dania/Hollywood, FL",,1780 Striling Road,,Dania Beach,FL,33004,United States,(954) 922-8861,,,"Monday-Saturday 10-9, sunday 11-6",,,
"Coral Springs, FL",,1400 University Drive,,Coral Springs,FL,33071,United States,(954) 340-3656,,,"Monday-Saturday 10-9, sunday 11-6",,,
"Bonita Springs, FL",,23210 Via Villagio,,Estero,FL,33928,United States,(239) 390-9376,,,"Monday-Saturday 10-8, sunday 11-6",,,
"Clermont, FL",,1500 Oakley Seaver Drive,,Clermont,FL,34711,United States,(352) 241-0175,,,"Monday-Saturday 9-9, sunday 11-6",,,
"Brooksville, FL",,12970 CORTEZ BLVD,,BROOKSVILLE,FL,34613,United States,(352) 597-9091,,,"Monday-Saturday 9-9, sunday 11-6",,,
"Bradenton, FL",,4022 14th street,,Bradenton,FL,34205,United States,(941) 708-3281,,,"Monday-Saturday 9-9, sunday 11-6",,,
"Boynton Beach, FL",,302 N. Congress Ave,,BOYNTON BEACH,FL,33426,United States,(561) 733-8058,,,"Monday-Saturday 9-9, sunday 11-6",,,
"Boca - Mizner, FL",,880 N FEDERAL HWY,,BOCA RATON,FL,33432,United States,(561) 417-5342,,,"Monday-Saturday 9-9, sunday 11-6",,,
"Boca Raton, FL",,20600 Lyons Road,,Boca Raton,FL,33434,United States,(561) 479-4223,,,"Monday-Saturday 9-9, sunday 11-6",,,
"Clearwater, FL",,2719 Gulf to Bay Boulevard,,Clearwater,FL,33759,United States,(727) 799-1757,,,"Monday-Saturday 9-9, sunday 11-6",,,
"Aventura, FL",,18199 BISCAYNE BLVD.,,AVENTURA,FL,33160,United States,(305) 933-4017,,,"Monday-Saturday 9-9, sunday 11-6",,,
"Altamonte Springs, FL",,275 E. Altamonte Drive,,Altamonte Springs,FL,32701,United States,(407) 260-7144,,,"Monday-Saturday 9-9, sunday 11-6",,,
"Matteson, IL",,4803 Lincoln Highway,,MATTESON,IL,60443,United States,(708) 283-7059,,,"Monday-Saturday 9-9, sunday 11-6",,,
"Lincolnwood, IL",,7140 MC CORMICK BLVD,,LINCOLNWOOD,IL,60712,United States,(847) 763-1230,,,"Monday-Saturday 10-9, sunday 11-6",,,
"Lake Zurich, IL",,440 SOUTH RAND RD,,LAKE ZURICH,IL,60047,United States,(847) 550-1841,,,"Monday-Saturday 9-9, sunday 11-6",,,
"Gurnee,IL",,6447 GRAND AVENUE,,GURNEE,IL,60031,United States,(847) 855-2534,,,"Monday-Saturday 9-9, sunday 11-6",,,
"Geneva, IL",,1034 Commons Drive,,Geneva,IL,60134,United States,(630) 845-0891,,,"Monday-Friday 10-9, Saturday 10-8, sunday 11-6",,,
"Evergreen Park, IL",,2501 W 95TH STREET,,EVERGREEN PARK,IL,60805,United States,(708) 229-0370,,,"Monday-Saturday 9:30-8:30, sunday 11-6",,,
"Darien, IL",,2415 75th Street,,Darien,IL,60561,United States,(630) 427-1458,,,"Monday-Friday 9-9, Saturday 9-7, sunday 10-6",,,
"Deerfield, IL",,110 South Waukegan Road,,Deerfield,IL,60015,United States,(847) 400-5925,,,"Monday-Saturday 9-9, sunday 11-6",,,
"Brandon, FL",,101 Brandon Town Center Drive,,Brandon,FL,33511,United States,(813) 643-1010,,,"Monday-Saturday 9-9, sunday 11-6",,,
"Crystal Lake, IL",,815 Cog Circle,,Crystal Lake,IL,60014,United States,(815) 356-9460,,,"Monday-Saturday 9-9, sunday 11-6",,,
"Countryside, IL",,6005 S. LAGRANGE RD,,COUNTRYSIDE,IL,60525,United States,(708) 352-1832,,,"Monday-Saturday 9-9, sunday 11-6",,,
"Ashland  and  School, IL",,3325 N. ASHLAND AVE,,CHICAGO,IL,60657,United States,(773) 348-7987,,,"Monday-Saturday 9:30-9, sunday 11-6",,,
"Irving Park, IL",,4000 N Cicero,,Chicago,IL,60641,United States,(773) 685-1432,,,"Monday-Saturday 9-8, sunday 11-6",,,
"Wicker Park, IL",,1303 NORTH MILWAUKEE AVE,,Chicago,IL,60622,United States,(773) 252-4081,,,"Monday-Saturday 9:30-9, sunday 11-6",,,
"Elston  and  Logan, IL",,2705 N. Elston Ave,,Chicago,IL,60647,United States,(773) 235-8370,,,"Monday-Saturday 9-9, sunday 10-7",,,
"Champaign, IL",,901A W. ANTHONY DRIVE,,CHAMPAIGN,IL,61820,United States,(217) 398-0970,,,"Monday-Saturday 9-9, sunday 11-6",,,
"Lincoln Park, IL",,1590 North Clybourn Ave,,Chicago,IL,60614,United States,(312) 202-0117,,,"Monday-Saturday 9-9, sunday 11-6",,,
"South Loop, IL",,601 WEST ROOSEVELT BLVD,,CHICAGO,IL,60607,United States,(312) 243-0094,,,"Monday-Friday 9:30-7, Saturday 9:30-6, sunday 11-5",,,
"Calumet City, IL",,1243 Torrence Ave,,Calumet City,IL,60409,United States,(708) 862-3498,,,"Monday-Saturday 9-9, sunday 11-6",,,
"Burbank, IL",,7782 S. Cicero Avenue,,Burbank,IL,60459,United States,(708) 499-1316,,,"Monday-Friday 10-9, Saturday 9-8, sunday 11-6",,,
"Bolingbrook, IL",,123 NORTH WEBER ROAD,,BOLINGBROOK,IL,60490,United States,(630) 759-1392,,,"Monday-Saturday 9-9, sunday 11-6",,,
"Berwyn, IL",,7180 W CERMAK RD.,,BERWYN,IL,60402,United States,(708) 788-5097,,,"Monday-Saturday 10-9, sunday 11-6",,,
"Bloomington, IL",,1511 EAST VERNON AVENUE,,BLOOMINGTON,IL,61701,United States,(309) 661-2414,,,"Monday-Saturday 9-9, sunday 11-6",,,
"Bloomingdale, IL",,383 W Army Trail Road,,Bloomingdale,IL,60108,United States,(630) 893-0769,,,"Monday-Saturday 9-9, sunday 11-6",,,
"Macon, GA",,167 GATEWAY DR,,MACON,GA,31210,United States,(478) 471-0533,,,"Monday-Saturday 10-9, sunday 12-6",,,
"Algonquin, IL",,1496 S. Randall Road,,Algonquin,IL,60102,United States,(847) 854-8218,,,"Monday-Saturday 9-9, sunday 11-6",,,
"Gainesville, GA",,675 DAWSONVILLE HIGHWAY,,GAINESVILLE,GA,30501,United States,(770) 535-9215,,,"Monday-Saturday 10-9, sunday 12-6",,,
"Gwinnett, GA",,2130 Pleasant Hill Road,,DULUTH,GA,30096,United States,(678) 957-0101,,,"Monday-Saturday 10-9, sunday 12-6",,,
"Cumming, GA",,1690 MARKETPLACE BOULEVARD,,CUMMING,GA,30041,United States,(678) 513-9965,,,"Monday-Saturday 9-9, sunday 11-6",,,
"Douglasville, GA",,2911 CHAPEL HILL ROAD,,DOUGLASVILLE,GA,30134,United States,(678) 715-1541,,,"Monday-Saturday 10-9, sunday 11-6",,,
"Conyers,GA",,1285 B HWY 138,,CONYERS,GA,30013,United States,(770) 760-0663,,,"Monday-Saturday 10-9, sunday 12-6",,,
"Columbus,GA",,5555 Whittlesey Boulevard,,COLUMBUS,GA,31909,United States,(706) 653-2588,,,"Monday-Friday 10-9, Saturday 9-9, sunday 11-6",,,
"Buford, GA",,3226 Buford Drive,,BUFORD,GA,30519,United States,(770) 904-5964,,,"Monday-Saturday 10-9, sunday 12-6",,,
"Augusta, GA",,238 ROBERT C. DANIEL JR PKWY,,AUGUSTA,GA,30909,United States,(706) 733-2028,,,"Monday-Saturday 10-9, sunday 12-6",,,
"Atlanta, GA",,1209 Caroline Street,,ATLANTA,GA,30307,United States,(404) 659-3127,,,"Monday-Saturday 10-9, sunday 12-6",,,
"Akers Mills, GA",,2937 Cobb Pkwy,,ATLANTA,GA,30339,United States,(770) 980-1231,,,"Monday-Saturday 10-9, sunday 11-6",,,
"Camp Creek, GA",,3440 Camp Creek Parkway,,ATLANTA,GA,30344,United States,(404) 494-3125,,,"Monday-Saturday 10-9, sunday 11-6",,,
"Athens, GA",,1789 OCONEE CONNECTOR,,ATHENS,GA,30606,United States,(706) 583 9411,,,"Monday-Saturday 10-9, sunday 12-6",,,
"Buckhead, GA",,3261 Peachtree Road,,ATLANTA,GA,30305,United States,(404) 262-0400,,,"Monday-Saturday 10-9, sunday 11-6",,,
"Arlington, IL",,1 West Rand Road,,Arlington Heights,IL,60004,United States,(847) 577-2388,,,"Monday-Saturday 9-9, sunday 11-6",,,
"Acworth, GA",,3329 COBB PKWY,,ACWORTH,GA,30101,United States,(770) 966-5390,,,"Monday-Saturday 10-9, sunday 12-6",,,
"Perimeter Mall, GA",,1165 Perimeter Center West,,ATLANTA,GA,30338,United States,(770) 396-7152,,,"Monday-Saturday 10-9, sunday 12-6",,,
"Honolulu, HI",,1555 Kapiolani Blvd,,Honolulu,HI,96814,United States,(808) 949-5424,,,"Monday-Saturday 9:30-9, sunday 10-7",,,
"Kona, HI",,74-5452 Makala Blvd,,Kailua Kona,HI,96740,United States,(808) 334-1501,,,"Monday-Friday 9-9, Saturday 9-8, sunday 10-6",,,
"Hilo, HI",,303 MAKAALA ST,,HILO,HI,96720,United States,(808) 935-7582,,,"Monday-Saturday 9-8, sunday 11-6",,,
"Pearl Kai, HI",,98-199 Kamehameha Highway,,Aiea,HI,96701,United States,(808) 487-6180,,,"Monday-Saturday 9-9, sunday 10-6",,,
"Boise, ID",,347 N. Milwaukee Street,,BOISE,ID,83704,United States,(208) 672-3445,,,"Monday-Saturday 9-9, sunday 11-6",,,
"Coeur d Alene, ID",,403 W NEIDER AVENUE,,COEUR D ALENE,ID,83815,United States,(208)665-1500,,,"Monday-Saturday 9-9, sunday 11-7",,,
"Walker, MI",,3303 ALPINE AVE,,WALKER,MI,49544,United States,(616) 647-0229,,,"Monday-Saturday 9-9, sunday 11-6",,,
"Alpharetta, GA",,7300 NORTH POINT PKWY,,ALPHARETTA,GA,30022,United States,(770) 410-7628,,,"Monday-Saturday 10-9, sunday 12-6",,,
"Troy, MI",,300 John R. Road,,Troy,MI,48083,United States,(248) 307-1227,,,"Monday-Saturday 9-9, sunday 11-6",,,
"Taylor, MI",,21901 EUREKA RD,,TAYLOR,MI,48180,United States,(734) 287-0075,,,"Monday-Saturday 9-9, sunday 11-6",,,
"Shelby Township, MI",,14771 Hall Road,,Shelby Township,MI,48315,United States,(586) 532-1335,,,"Monday-Saturday 9-9, sunday 11-6",,,
"Saginaw, MI",,4875 BAY RD,,SAGINAW,MI,48603,United States,(989) 791-1241,,,"Monday-Saturday 9-9, sunday 11-6",,,
"Roseville, MI",,31945 Gratiot Avenue,,Roseville,MI,48066,United States,(586) 415-1960,,,"Monday-Saturday 9-9, sunday 11-6",,,
"Royal Oak, MI",,31753 Woodward Ave,,Royal Oak,MI,48073,United States,(248) 549-8927,,,"Monday-Saturday 9-9, sunday 11-6",,,
"Rochester Hills, MI",,2603 S. Rochester Road,,Rochester Hills,MI,48307,United States,(248) 852-8280,,,"Monday-Saturday 9-9, sunday 11-6",,,
"Portage, MI",,6278 South Westnedge Ave,,Portage,MI,49002,United States,(269) 321-0045,,,"Monday-Saturday 9-9, sunday 11-6",,,
"Northville, MI",,20580 HAGGERTY ROAD,,NORTHVILLE,MI,48167,United States,(734) 462-4064,,,"Monday-Saturday 10-9, sunday 11-6",,,
"Okemos, MI",,2090 W. GRAND RIVER AVE,,OKEMOS,MI,48864,United States,(517) 347-1009,,,"Monday-Saturday 10-8, sunday 11-6",,,
"Livonia, MI",,12687 MIDDLEBELT RD,,LIVONIA,MI,48150,United States,(734) 524-0343,,,"Monday-Saturday 9-8, sunday 11-6",,,
"Lansing, MI",,5924 W SAGINAW HWY,,LANSING,MI,48917,United States,(517) 327-0950,,,"Monday-Saturday 10-8, sunday 11-6",,,
Brighton. MI,,8533 W GRAND RIVER AVE,,BRIGHTON,MI,48116,United States,(810) 229-2238,,,"Monday-Saturday 10-9, sunday 11-6",,,
"Auburn Hills, MI",,3970 Baldwin Road,,Auburn Hills,MI,48326,United States,(248) 338-0643,,,"Monday-Saturday 9-9, sunday 11-6",,,
"Grand Rapids, MI",,3689 28TH STREET SOUTHEAST,,GRAND RAPIDS,MI,49512,United States,(616) 575-0247,,,"Monday-Saturday 9-8, sunday 11-6",,,
"Farmington Hills, MI",,30730 Orchard Lake Road,,Farmington Hills,MI,48334,United States,(248) 538-8301,,,"Monday-Saturday 9-9, sunday 11-6",,,
"Ann Arbor, MI",,3365 Washtenaw Ave,,Ann Arbor,MI,48104,United States,(734) 477-6897,,,"Monday-Saturday 9-9, sunday 11-6",,,
"Allen Park, MI",,23051 Outer Drive,,Allen Park,MI,48101,United States,(313) 278-5979,,,"Monday-Saturday 9-9, sunday 11-6",,,
"Noblesville, IN",,17143 MERCANTILE BLVD,,NOBLESVILLE,IN,46060,United States,(317) 776-1381,,,"Monday-Saturday 10-9, sunday 11-6",,,
"Muncie, IN",,613 EAST MCGALLIARD RD,,MUNCIE,IN,47303,United States,(765) 282-2145,,,"Monday-Saturday 10-9, sunday 11-6",,,
"Lafayette, IN",,1 Sagamore Parkway South,,Lafayette,IN,47901,United States,(765) 448-3620,,,"Monday-Saturday 9-9, sunday 11-6",,,
"Merrillville, IN",,2217 East 80th Avenue,,Merrillville,IN,46410,United States,(219) 756-0599,,,"Monday-Saturday 9-9, sunday 11-6",,,
"Indianapolis, IN",,10110 EAST WASHINGTON ST,,INDIANAPOLIS,IN,46229,United States,(317) 897-3913,,,"Monday-Saturday 9-9, sunday 11-6",,,
"Highland, IN",,10343 SOUTH INDIANAPOLIS BLVD,,HIGHLAND,IN,46322,United States,(219) 924-1789,,,"Monday-Saturday 9-9, sunday 11-6",,,
"Greenwood, IN",,1234 Hwy 31 North,,Greenwood,IN,46142,United States,(317) 881-5358,,,"Monday-Saturday 9-9, sunday 11-6",,,
"South Bend, IN",,5724 Grape Avenue,,Mishawaka,IN,46545,United States,(574) 277-3432,,,"Monday-Friday 9-9, Saturday 9-8, sunday 11-6",,,
"Indianapolis, IN",,3730 East 82nd Street,,Indianapolis,IN,46240,United States,(317) 570-9358,,,"Monday-Saturday 9-9, sunday 11-6",,,
"Fort Wayne, IN",,4601-4605 Illinois Road,,Fort Wayne,IN,46804,United States,(260) 459-0361,,,"Monday-Saturday 9-9, sunday 11-6",,,
"Evansville, IN",,1031 NORTH GREEN RIVER ROAD,,EVANSVILLE,IN,47715,United States,(812) 471-9167,,,"Monday-Saturday 9-9, sunday 11-6",,,
"Avon, IN",,10979 East US Highway 36,,Avon,IN,46123,United States,(317) 273-0476,,,"Monday-Saturday 9-9, sunday 11-6",,,
"Anderson, IN",,4672 S SCATTERFIELD RD,,ANDERSON,IN,46013,United States,(765) 649-4480,,,"Monday-Saturday 10-9, sunday 11-6",,,
"Shrewsbury, MA",,77A BOSTON TURNPIKE,,SHREWSBURY,MA,01545,United States,(508) 792-1856,,,"Monday-Saturday 9-9, sunday 11-6",,,
"Saugus, MA",,735 Broadway Hillside Plaza,,Saugus,MA,01906,United States,(781) 231-7424,,,"Monday-Saturday 9-9, sunday 11-6",,,
"Peabody, MA",,300 Andover Street (Route 114),,Peabody,MA,01960,United States,(978) 532-1199,,,"Monday-Saturday 9-9, sunday 11-6",,,
"North Attleboro, MA",,1400 SOUTH WASHINGTON STREET,,NORTH ATTLEBORO,MA,02760,United States,(508) 699-0516,,,"Monday-Saturday 9-9, sunday 11-6",,,
"Newton, MA",,170 NEEDHAM STREET,,NEWTON,MA,02464,United States,(617) 527-7500,,,"Monday-Saturday 9-8, sunday 11-6",,,
"Marlborough, MA",,423 LAKESIDE AVE,,MARLBOROUGH,MA,01752,United States,(508) 229-1740,,,"Monday-Saturday 10-9, sunday 11-6",,,
"Leominster, MA",,40 ORCHARD HILL PARK DRIVE,,LEOMINSTER,MA,01453,United States,(978) 534-2409,,,"Monday-Saturday 9-9, sunday 11-6",,,
"North Andover, MA",,435 WINTHROP AVENUE,,Lawrence,MA,01843,United States,(978) 681-9162,,,"Monday-Saturday 9-9, sunday 11-6",,,
"Hyannis, MA",,1070 Iyannough Road,,Hyannis,MA,02601,United States,(508) 771-0741,,,"Monday-Friday 9-8, Saturday 10-7, sunday 11-6",,,
"Holyoke, MA",,239 WHITING FARMS ROAD,,HOLYOKE,MA,01040,United States,(413) 538-4775,,,"Monday-Saturday 9-9, sunday 11-6",,,
"Framingham, MA",,30 WORCESTER ROAD,,FRAMINGHAM,MA,01702,United States,(508) 620-8909,,,"Monday-Saturday 9-9, sunday 11-6",,,
"Everett,MA",,23 Mystic View Rd,,EVERETT,MA,02149,United States,(617) 387-1595,,,"Monday-Saturday 9-9, sunday 11-6",,,
"Hingham, MA",,2 Shipyard Drive,,Hingham,MA,02043,United States,(781) 749-4956,,,"Monday-Saturday 9-9, sunday 11-6",,,
"Dedham, MA",,800 Providence Highway,,Dedham,MA,02026,United States,(781) 329-0951,,,"Monday-Saturday 9-9, sunday 11-6",,,
"Cambridge, MA",,359 FRESH POND PARKWAY,,CAMBRIDGE,MA,02138,United States,(617) 520-2085,,,"Monday-Saturday 9-8, sunday 11-6",,,
"Burlington, MA",,91 MIDDLESEX TURNPIKE,,BURLINGTON,MA,01803,United States,(781) 270-0444,,,"Monday-Saturday 9-9, sunday 11-6",,,
"Braintree, MA",,30 FORBES ROAD,,BRAINTREE,MA,02184,United States,(781) 843-1354,,,"Monday-Saturday 9-9, sunday 11-6",,,
"Auburn, MA",,434 SOUTHBRIDGE STREET,,AUBURN,MA,01501,United States,(508) 832-5714,,,"Monday-Saturday 10-8, sunday 11-6",,,
"Roseville, MN",,1777 West County Road B2,,ROSEVILLE,MN,55113,United States,(651) 633-4514,,,"Monday-Saturday 9-9, sunday 11-6",,,
"Uptown, MN",,3052 Excelsior Blvd,,Minneapolis,MN,55416,United States,(612) 926-8068,,,"Monday-Saturday 9-9, sunday 11-6",,,
"Maplewood, MN",,1987 COUNTY ROAD D,,MAPLEWOOD,MN,55109,United States,(651) 773-6537,,,"Monday-Saturday 9-9, sunday 11-6",,,
"Littleton, MA",,503 CONSTITUTION AVE,,LITTLETON,MA,01460,United States,(978) 486-3050,,,"Monday-Saturday 10-7, sunday 11-6",,,
"Edina, MN",,6996 FRANCE AVENUE,,EDINA,MN,55435,United States,(952) 929-1682,,,"Monday-Saturday 9-9, sunday 11-6",,,
"Washington Street, Boston, MA",,268 Washington Street,,Boston,MA,02108,United States,(617) 742-0730,,,"Monday-Friday 8-7, Saturday 10-7, sunday 12-6",,,
"Duluth, MN",,2104 MAPLE GROVE RD,,DULUTH,MN,55811,United States,(218) 722-4925,,,"Monday-Saturday 10-8, sunday 11-6",,,
"Coon Rapids, MN",,3388 River Rapids Drive,,Coon Rapids,MN,55448,United States,(763) 323-3188,,,"Monday-Saturday 9-9, sunday 11-6",,,
"Slidell, LA",,179 Northshore Blvd,,Slidell,LA,70460,United States,(985) 646-2294,,,"Monday-Saturday 9-8, sunday 11-6",,,
"Burnsville, MN",,550 W County Road 42,,BURNSVILLE,MN,55337,United States,(952) 435-8724,,,"Monday-Saturday 9-9, sunday 11-6",,,
"Shreveport, LA",,7503 Youree Drive,,Shreveport,LA,71105,United States,(318) 797-6376,,,"Monday-Saturday 9-9, sunday 11-6",,,
"Lake Charles, LA",,339 WEST PRIEN LAKE ROAD,,LAKE CHARLES,LA,70601,United States,(337) 477-3335,,,"Monday-Saturday 9-9, sunday 11-6",,,
"Lafayette, LA",,5702 JOHNSTON ST.,,LAFAYETTE,LA,70503,United States,(337) 406-1093,,,"Monday-Saturday 9-8, sunday 11-6",,,
"Harvey, LA",,1523 MANHATTAN BLVD,,HARVEY,LA,70058,United States,(504) 362-2093,,,"Monday-Saturday 9-9, sunday 11-6",,,
"Shelbyville Rd, KY",,4600 Shelbyville Road,,Louisville,KY,40207,United States,(502) 899-9794,,,"Monday-Saturday 10-9, sunday 11-6",,,
"Florence, KY",,7508 Mall Road,,Florence,KY,41042,United States,(859) 746-0015,,,"Monday-Saturday 9-9, sunday 11-6",,,
"Bowling Green, KY",,2800 Scottsville Road,,Bowling Green,KY,42104,United States,(270) 843-2295,,,"Monday-Saturday 9-9, sunday 11-6",,,
"Waldorf, MD",,3144 Crain Highway,,Waldorf,MD,20603,United States,(301) 638-7110,,,"Monday-Saturday 9-9, sunday 11-6",,,
"Baton Rouge, LA",,7601 ANDREA DRIVE,,BATON ROUGE,LA,70809,United States,(225)292-5927,,,"Monday-Saturday 9-8, sunday 11-6",,,
"Springhurst, KY",,4000 TOWNE CENTER DRIVE,,Louisville,KY,40241,United States,(502) 425-1362,,,"Monday-Saturday 10-9, sunday 11-6",,,
"New Orleans, LA",,4935 Magazine Street,,New Orleans,LA,70115,United States,(504) 895-2238,,,"Monday-Saturday 9-7, sunday 11-6",,,
"Lexington, KY",,4005 Nicholasville Road,,Lexington,KY,40503,United States,(859) 272-2227,,,"Monday-Saturday 9-9, sunday 11-6",,,
"Eldersburg, MD",,6400 RIDGE ROAD,,SYKESVILLE,MD,21784,United States,(410) 795-2527,,,"Monday-Saturday 10-8, sunday 11-6",,,
"Silver Spring, MD",,10 WEST UNIVERSITY BLVD,,SILVER SPRING,MD,20901,United States,(301) 593-0595,,,"Monday-Saturday 10-9, sunday 11-6",,,
"Rockville, MD",,1803 Rockville Pike,,Rockville,MD,20852,United States,(301) 231-7900,,,"Monday-Saturday 9-9, sunday 11-6",,,
"Salisbury, MD",,2657 N. Salisbury Blvd,,Salisbury,MD,21804,United States,(410) 341-6945,,,"Monday-Saturday 10-9, sunday 11-6",,,
"Owings Mills, MD",,9404 Reisterstown Road,,Owings Mills,MD,21117,United States,(443) 394-8787,,,"Monday-Saturday 9-9, sunday 11-6",,,
"Lutherville, MD",,1313 York Road,,Lutherville,MD,21093,United States,(410) 821-1611,,,"Monday-Saturday 9-9, sunday 11-6",,,
"Laurel,  MD",,14815 Baltimore Avenue,,Laurel,MD,20707,United States,(240) 568-9100,,,"Monday-Saturday 9-9, sunday 11-6",,,
"Arundel Mills, MD",,7069-B Arundel Mills Boulevard,,Hanover,MD,21076,United States,(443) 755-9445,,,"Monday-Saturday 10-9, sunday 11-6",,,
"Metairie, LA",,4015 VETERANS MEMORIAL BLVD,,METAIRIE,LA,70002,United States,(504) 883-5129,,,"Monday-Saturday 9-9, sunday 11-6",,,
"Hagerstown, MD",,1730 MASSEY BLVD.,,HAGERSTOWN,MD,21740,United States,(301) 790-0635,,,"Monday-Saturday 9-9, sunday 11-6",,,
"Gambrills (Crofton), MD",,2385 BRANDERMILL BLVD,,GAMBRILLS,MD,21054,United States,(410) 721-5987,,,"Monday-Saturday 9-9, sunday 11-6",,,
"Gaithersburg, MD",,300 N. Fredrick Avenue,,Gaithersburg,MD,20877,United States,(301) 527-1282,,,"Monday-Saturday 9-9, sunday 11-6",,,
"Glen Burnie, MD",,6731 Richie Hwy,,Glen Burnie,MD,21061,United States,(410) 553-0687,,,"Monday-Saturday 9-8, sunday 11-6",,,
"Frederick, MD",,5525 URBANA PIKE,,FREDERICK,MD,21704,United States,(301) 663-7821,,,"Monday-Saturday 9-9, sunday 11-6",,,
"Columbia,  MD",,6250 L Columbia Crossing Circle,,Columbia,MD,21044,United States,(410) 872-0440,,,"Monday-Saturday 9-9, sunday 11-6",,,
"Frederick, MD",,1328 W. Patrick Street,,Frederick,MD,21702,United States,(301) 668-1010,,,"Monday-Saturday 9-9, sunday 11-6",,,
"Catonsville, MD",,6026 Baltimore National Pike,,Catonsville,MD,21228,United States,(410) 744-6197,,,"Monday-Saturday 9-9, sunday 11-6",,,
"Baltimore, MD",,3719 BOSTON ST,,BALTIMORE,MD,21224,United States,(410) 327-5174,,,"Monday-Saturday 10-9, sunday 11-6",,,
"Annapolis, MD",,2315 Forest Drive,,Annapolis,MD,21401,United States,(410) 571-9838,,,"Monday-Saturday 10-9, sunday 11-6",,,
"Capitol Heights, MD",,9101 ALAKING COURT,,CAPITOL HEIGHTS,MD,20743,United States,(301) 336-1450,,,"Monday-Saturday 9-9, sunday 11-6",,,
"Bangor, ME",,569 A STILLWATER AVE,,BANGOR,ME,04401,United States,(207) 941-8524,,,"Monday-Saturday 10-8, sunday 11-6",,,
"Olathe, KS",,11963 S Blackbob Road,,Olathe,KS,66062,United States,(913) 764-1114,,,"Monday-Saturday 9-9, sunday 11-6",,,
"Overland Park, KS",,11821 Metcalf,,Overland Park,KS,66210,United States,(913) 327-7515,,,"Monday-Saturday 9-9, sunday 11-6",,,
"Bel Air, MD",,699 Baltimore Pike,,Bel Air,MD,21014,United States,(410) 420-9781,,,"Monday-Saturday 9-9, sunday 11-6",,,
"Sandy, UT",,10515 S. STATE ROAD,,SANDY,UT,84070,United States,(801) 571-1472,,,"Monday-Saturday 9-9, sunday 11-6",,,
"Salt Lake City, UT",,1010 EAST 2100 SOUTH,,SALT LAKE CITY,UT,84106,United States,(801) 467-2683,,,"Monday-Saturday 9-9, sunday 11-6",,,
"Woodbridge, VA",,14065 Shoppers Best Way,,Woodbridge,VA,22192,United States,(703) 583-1479,,,"Monday-Saturday 10-9, sunday 11-6",,,
"Winchester, VA",,2500 S. Pleasant Valley Road,,WINCHESTER,VA,22601,United States,(540) 678-4109,,,"Monday-Saturday 9-9, sunday 11-6",,,
"Green Hills (Nashville), TN",,3904 HILLSBORO ROAD,,NASHVILLE,TN,37215,United States,(615) 383-3015,,,"Monday-Saturday 9-9, sunday 11-6",,,
"Warwick, RI",,1376 Bald Hill Road,,Warwick,RI,02886,United States,(401) 828-1956,,,"Monday-Saturday 9-9, sunday 11-6",,,
"Murfreesboro, TN",,510 N. THOMPSON LANE,,MURFREESBORO,TN,37129,United States,(615)907-6307,,,"Monday-Saturday 9-9, sunday 11-6",,,
"Caguas, PR",,RAFAEL CORDERO AVE,,CAGUAS,PR,00725,United States,(787) 704-7259,,,"Monday-Saturday 10-9, sunday 12-6",,,
"Bayamon, PR",,505 Avenida Ramon Luis Rivera,,BAYAMON,PR,00961,United States,(787) 251-4444,,,"Monday-Saturday 10-9, sunday 12-6",,,
"Salem, OR",,498 LANCASTER DRIVE NE,,SALEM,OR,97301,United States,(503) 364-9181,,,"Monday-Saturday 9-8, sunday 11-6",,,
"Llyod Center, Portland, OR",,1407 NE Halsey St.,,Portland,OR,97232,United States,(503) 281-0428,,,"Monday-Saturday 9-8, sunday 11-6",,,
"Downtown Portland,  OR",,1016 W BURNSIDE STREET,,PORTLAND,OR,97209,United States,(503)222-2029,,,"Monday-Saturday 10-9, sunday 11-6",,,
"Pearland, TX",,11414 Broadway Blvd.,,Pearland,TX,77581,United States,(713) 340-1736,,,"Monday-Friday 10-9, Saturday 9-9, sunday 11-6",,,
"Medford, OR",,61 ROSSANLY DR.,,MEDFORD,OR,97501,United States,(541) 779-4936,,,"Monday-Saturday 9-9, sunday 11-6",,,
"Happy Valley, OR",,9620 SE 82ND AVE,,HAPPY VALLEY,OR,97086,United States,(503) 775-2517,,,"Monday-Saturday 9-8, sunday 11-6",,,
"Guaynabo, PR",,Edif.3 Suite,,GUAYNABO,PR,00968,United States,(787) 781-8501,,,"Monday-Saturday 9-9, sunday 11-6",,,
"PASADENA,TX",,5683 Fairmont Parkway,,Pasadena,TX,77505,United States,(281) 991-0264,,,"Monday-Saturday 9-9, sunday 11-6",,,
"Winston Salem, NC",,114 Hanes Mall Blvd,,Winston Salem,NC,27103,United States,(336) 768-8947,,,"Monday-Saturday 9-9, sunday 11-6",,,
"Wilmington, NC",,3912 Oleander Drive,,Wilmington,NC,28403,United States,(910) 313-2480,,,"Monday-Saturday 9-9, sunday 11-6",,,
"Wake Forest,NC",,12616 CAPITAL BLVD,,WAKE FOREST,NC,27587,United States,(919) 569-0015,,,"Monday-Saturday 10-9, sunday 11-6",,,
"Raleigh Six Forks, NC",,411 East Six Forks Road,,Raleigh,NC,27609,United States,(919) 828-8673,,,"Monday-Saturday 9-9, sunday 11-6",,,
"Sanford, NC",,3106 SOUTH HORNER BLVD,,SANFORD,NC,27332,United States,(919) 718-0844,,,"Monday-Saturday 10-9, sunday 11-6",,,
"Greer, SC",,5790 WADE HAMPTON RD,,TAYLORS,SC,29687,United States,(864) 877-1535,,,"Monday-Saturday 10-9, sunday 12-6",,,
"Spartanburg, SC",,1509 W.O EZELL Blvd,,SPARTANBURG,SC,29301,United States,(864)574-7570,,,"Monday-Saturday 10-9, sunday 12-6",,,
"Sumter, SC",,1177 BROAD STREET,,SUMTER,SC,29150,United States,(803) 469-8856,,,"Monday-Saturday 10-9, sunday 12-6",,,
"North Myrtle Beach, SC",,1502 HIGHWAY 17,,NORTH MYRTLE BEACH,SC,29582,United States,(843) 249-0001,,,"Monday-Saturday 10-9, sunday 11-6",,,
"Rock Hill, SC",,1969 CANTERBURY GLEN LANE,,ROCK HILL,SC,29730,United States,(803) 329-9950,,,"Monday-Saturday 10-9, sunday 12-6",,,
"Charleston, SC",,2115 Ashley Phosphate Road,,North Charleston,SC,29406,United States,(843) 569-1866,,,"Monday-Saturday 9-9, sunday 11-6",,,
"Myrtle Beach, SC",,1315 Oak Forest Lane,,Myrtle Beach,SC,29577,United States,(843) 444-2497,,,"Monday-Saturday 10-9, sunday 11-6",,,
"Lexington, SC",,5449 SUNSET BLVD,,LEXINGTON,SC,29072,United States,(803) 356-6884,,,"Monday-Friday 10-9, Saturday 9-9, sunday 12-6",,,
"Greenville, SC",,1129 Woodruff Road,,Greenville,SC,29607,United States,(864) 987-9947,,,"Monday-Saturday 9-9, sunday 12-6",,,
"Forest Acres, SC",,2130 North Beltline Blvd,,Forest Acres,SC,29206,United States,(803) 738-2370,,,"Monday-Saturday 10-9, sunday 12-6",,,
"Florence, SC",,2590 David H. McLeod Blvd,,Florence,SC,29501,United States,(843) 669-3347,,,"Monday-Saturday 10-9, sunday 12-6",,,
"Easley, SC",,4839 C CALHOUN MEMORIAL HWY US 123,,EASLEY,SC,29640,United States,(864) 859-8615,,,"Monday-Saturday 10-9, sunday 12-6",,,
"Columbia, SC",,195 Harbison Boulevard,,Columbia,SC,29212,United States,(803) 749-1433,,,"Monday-Saturday 9-9, sunday 12-6",,,
"Anderson, SC",,3324 N. Main Street,,Anderson,SC,29621,United States,(864) 226-8513,,,"Monday-Saturday 10-9, sunday 12-6",,,
"Columbia, SC",,10266 TWO NOTCH RD.,,COLUMBIA,SC,29229,United States,(803) 736-7155,,,"Monday-Saturday 10-9, sunday 12-6",,,
"Yonkers, NY",,2363/55 Central Park Avenue,,YONKERS,NY,10710,United States,(914) 779-5232,,,"Monday-Saturday 9-9, sunday 11-6",,,
"Aiken,SC",,1963 WHISKEY ROAD,,AIKEN,SC,29803,United States,(803) 648-1718,,,"Monday-Friday 10-9, Saturday 9-9, sunday 12-6",,,
"White Plains, NY",,455 Central Avenue,,White Plains,NY,10606,United States,(914) 948-1048,,,"Monday-Saturday 9-9, sunday 11-6",,,
"West Babylon, NY",,1063 MONTAUK HWY,,WEST BABYLON,NY,11704,United States,(631) 587-1273,,,"Monday-Saturday 9-9, sunday 11-6",,,
"Vestal, NY",,2545 VESTAL PARKWAY,,VESTAL,NY,13850,United States,(607) 729-4960,,,"Monday-Saturday 9-9, sunday 11-6",,,
"Tonawanda, NY",,1250 Niagra Falls Blvd,,TONAWANDA,NY,14150,United States,(716) 832-3058,,,"Monday-Saturday 10-9, sunday 11-6",,,
"Valley Stream, NY",,672 W. Sunrise Highway,,Valley Stream,NY,11581,United States,(516) 256-4392,,,"Monday-Saturday 9-9, sunday 11-6",,,
"Syosset, NY",,190 Jericho Turnpike,,Syosset,NY,11791,United States,(516) 364-6880,,,"Monday-Friday 9-9, Saturday 9-8, sunday 11-6",,,
"Lake Grove, NY",,1320 Stony Brook Road,,STONY BROOK,NY,11790,United States,(631) 689-8315,,,"Monday-Saturday 9-9, sunday 11-6",,,
"Dewitt, NY",,3425 Erie Blvd,,SYRACUSE,NY,13214,United States,(315) 446-2128,,,"Monday-Saturday 9-9, sunday 11-6",,,
"Staten Island, NY",,2535 Richmond Avenue,,Staten Island,NY,10314,United States,(718) 477-1967,,,"Monday-Saturday 9-9, sunday 10-7",,,
"Staten Island, NY",,2602 HYLAND BOULEVARD,,STATEN ISLAND,NY,10306,United States,(718) 351-5827,,,"Monday-Saturday 9-9, sunday 11-6",,,
"Niskayuna, NY",,437 BALLTOWN ROAD,,SCHENECTADY,NY,12309,United States,(518) 377-0815,,,"Monday-Saturday 9-9, sunday 11-6",,,
"Pittsford, NY",,3240 Monroe Avenue,,ROCHESTER,NY,14618,United States,(585) 264-9570,,,"Monday-Friday 10-9, Saturday 10-8, sunday 11-6",,,
"Riverhead, NY",,1755 OLD COUNTRY RD,,RIVERHEAD,NY,11901,United States,(631) 727-7354,,,"Monday-Saturday 9-9, sunday 11-6",,,
"Rego Park, NY",,61-35 JUNCTION BLVD.,,REGO PARK,NY,11374,United States,(718) 271-7314,,,"Monday-Saturday 10-9, sunday 11-6",,,
"Poughkeepsie, NY",,1936 South Road,,Poughkeepsie,NY,12601,United States,(845) 296-0790,,,"Monday-Saturday 9-9, sunday 11-6",,,
"Portchester, NY",,535 Boston Post Road,,Portchester,NY,10573,United States,(914) 939-5189,,,"Monday-Saturday 9-9, sunday 11-6",,,
"Pelham Manor, NY",,818 Pelham Parkway,,Pelham Manor,NY,10803,United States,(914) 654-4812,,,"Monday-Saturday 9-9, sunday 11-6",,,
"Oceanside, NY",,3463 Long Beach Road,,Oceanside,NY,11572,United States,(516) 536-4752,,,"Monday-Saturday 9-9, sunday 11-6",,,
"21st  and  6th Ave, NY",,655 6th Ave,,New York,NY,10010,United States,(212) 647-7093,,,"Monday-Friday 9-9, Saturday 10-7, sunday 11-6",,,
"Newburgh, NY",,1217 RTE 300,,NEWBURGH,NY,12550,United States,(845) 567-1850,,,"Monday-Saturday 9-9, sunday 11-6",,,
"931  8th Avenue,  NY",,931 8th Ave,,New York,NY,10019,United States,(212) 582-8965,,,"Monday-Friday 9-9, Saturday 10-7, sunday 11-6",,,
"Raleigh, NC",,8421 Brier Creek Parkway,,Raleigh,NC,27617,United States,(919) 484-1243,,,"Monday-Saturday 10-9, sunday 11-6",,,
"Raleigh, NC",,5505 CAPITAL BLVD.,,RALEIGH,NC,27616,United States,(919) 713-2168,,,"Monday-Saturday 10-9, sunday 11-6",,,
"Pineville, NC",,9620 Pineville-Matthew Road,,Pineville,NC,28134,United States,(704) 540-2841,,,"Monday-Saturday 9-9, sunday 11-6",,,
"Mooresville, NC",,489 RIVER HWY,,MOORESVILLE,NC,28117,United States,(704) 360-1013,,,"Monday-Saturday 9-9, sunday 11-6",,,
"Matthews, NC",,1908 Matthews Township Pkwy,,Matthews,NC,28105,United States,(704) 845-4661,,,"Monday-Saturday 9-9, sunday 11-6",,,
"High Point, NC",,2309 NORTH MAIN STREET,,HIGH POINT,NC,27262,United States,(336) 885-0281,,,"Monday-Saturday 10-9, sunday 12-6",,,
"Greensboro, NC",,4502 West Wendover Avenue,,Greensboro,NC,27409,United States,(336) 834-1910,,,"Monday-Saturday 9-9, sunday 11-6",,,
"Greenville, NC",,701 SE Greenville Blvd,,Greenville,NC,27858,United States,(252) 355-4528,,,"Monday-Saturday 9-9, sunday 12-6",,,
"Jacksonville, NC",,1345 WESTERN BLVD,,JACKSONVILLE,NC,28546,United States,(910) 989-0206,,,"Monday-Saturday 9-9, sunday 11-6",,,
"Hickory, NC",,2369 Highway 70 SE,,Hickory,NC,28602,United States,(828) 267-8800,,,"Monday-Saturday 10-9, sunday 12-6",,,
"Goldsboro, NC",,501 N. BERKLEY DRIVE,,GOLDSBORO,NC,27534,United States,(919) 778-7980,,,"Monday-Saturday 10-9, sunday 11-6",,,
"Gastonia, NC",,409 COX ROAD,,GASTONIA,NC,28054,United States,(704) 864-2315,,,"Monday-Saturday 9-9, sunday 11-6",,,
"Monroe, NC",,2319 W. ROOSEVELT BLVD,,MONROE,NC,28110,United States,(704) 225-0597,,,"Monday-Saturday 9-9, sunday 12-5",,,
"Fuquay Varina, NC",,1241 NORTH MAIN STREET,,FUQUAY VARINA,NC,27526,United States,(919) 567-0088,,,"Monday-Saturday 9-9, sunday 11-6",,,
"Fayetteville, NC",,5075 Morganton Road,,FAYETTEVILLE,NC,28314,United States,(910) 864-3013,,,"Monday-Saturday 9-9, sunday 11-6",,,
"Durham, NC",,6917 Fayetteville Road,,Durham,NC,27713,United States,(919) 572-1754,,,"Monday-Saturday 10-9, sunday 12-6",,,
"Northlake, NC",,9815 Northlake Center Parkway,,Charlotte,NC,28216,United States,(704) 921-4599,,,"Monday-Saturday 10-9, sunday 12-6",,,
"Charlotte, NC",,243 S. KINGS DRIVE,,CHARLOTTE,NC,28204,United States,(704) 333-2826,,,"Monday-Saturday 9-9, sunday 12-6",,,
"Burlington, NC",,1348 Java Lane,,Burlington,NC,27215,United States,(336) 584-9607,,,"Monday-Saturday 10-8, sunday 12-5",,,
"Asheville, NC",,148 TUNNEL ROAD,,ASHEVILLE,NC,28805,United States,(828) 251-7387,,,"Monday-Saturday 9-8, sunday 12-5",,,
"Wall St, NY",,174 Broadway,,New York,NY,10038,United States,(212) 608-1540,,,"Monday-Friday 7:30-8, Saturday 10-7, sunday 11-6",,,
"14th St  and  1st Ave, NY",,237 1st Avenue,,New York,NY,10003,United States,(212)533-4748,,,"Monday-Friday 9-9, Saturday 10-7, sunday 11-6",,,
"Cary, NC",,2121 Walnut Street,,Cary,NC,27511,United States,(919) 233-0427,,,"Monday-Saturday 10-9, sunday 11-6",,,
"181st St  and  Broadway, NY",,661 West 181st Street,,New York,NY,10033,United States,(212) 927-2849,,,"Monday-Saturday 9-8, sunday 11-6",,,
"Concord, NC",,8046 CONCORD MILLS BLVD,,CONCORD,NC,28027,United States,704-971-1646,,,"Monday-Saturday 10-9, sunday 12-6",,,
"41st St.  and  3rd Ave, NY",,639 Third Ave,,New York,NY,10017,United States,(212) 867-5515,,,"Monday-Friday 8-8, Saturday 11-6, sunday 11-5",,,
"69th St  and  3rd Ave, NY",,1193 3rd Avenue,,New York,NY,10022,United States,(212) 288-6053,,,"Monday-Friday 9-8, Saturday 10-7, sunday 11-6",,,
"Astor Pl  and  Broadway, NY",,740 Broadway,,New York,NY,10003,United States,(212) 995-8716,,,"Monday-Friday 9-9, Saturday 10-8, sunday 11-7",,,
"110th St  and  Broadway, NY",,2841 Broadway,,New York,NY,10025,United States,(212) 316-4681,,,"Monday-Friday 9-8, Saturday 10-7, sunday 11-6",,,
"92nd St  and  Broadway, NY",,2478 Broadway,,New York,NY,10025,United States,(212) 724-2430,,,"Monday-Friday 9-9, Saturday 10-7, sunday 11-7",,,
"35th St  and  7th Ave, NY",,460 7th Avenue,,New York,NY,10001,United States,(212) 736-6137,,,"Monday-Friday 8-8, Saturday 11-6, sunday 11-5",,,
"79th St   and  1st Ave, NY",,1513 First Ave,,New York,NY,10075,United States,(212) 249-3540,,,"Monday-Friday 10-8, Saturday 10-7, sunday 11-6",,,
"23rd St  and  Park Ave, NY",,100 E. 23rd Street (ON PARK SOUTH),,New York,NY,10010,United States,(212) 777-0060,,,"Monday-Friday 7-8, Saturday 11-6, sunday 12-6",,,
"57th St  and  Lexington Ave, NY",,139 E. 57th Street,,New York,NY,10022,United States,(212) 371-3850,,,"Monday-Friday 8-8, Saturday 9-7, sunday 11-6",,,
"72nd St  and  Broadway, NY",,2086-A Broadway,,New York,NY,10023,United States,(212) 580-7620,,,"Monday-Friday 8-9, Saturday 10-7, sunday 11-7",,,
"East 86th St  and  2nd Ave, NY",,244 E 86th  Street,,New York,NY,10028,United States,(212) 585-3091,,,"Monday-Friday 9-9, Saturday 10-8, sunday 11-7",,,
"Union Sqr, NY",,24-30 Union Square East,,New York,NY,10003,United States,(212) 254-8816,,,"Monday-Friday 8-8, Saturday 10-7, sunday 11-6",,,
"23rd St.  and  8th Ave., NY",,257 8th Avenue,,New York,NY,10011,United States,(212) 243-0086,,,"Monday-Friday 8-9, Saturday 10-7, sunday 11-7",,,
"36th St.  and  5th Ave, NYC",,385 5th Avenue,,New York,NY,10016,United States,(212) 532-4534,,,"Monday-Friday 8-8, Saturday 10-7, sunday 12-5",,,
"Garden CIty Park, NY",,2330 JERICHO TURNPIKE,,NEW HYDE PARK,NY,11040,United States,(516) 741-4780,,,"Monday-Saturday 9-9, sunday 11-6",,,
"New Hartford, NY",,4610 Commercial Drive,,NEW HARTFORD,NY,13413,United States,(315) 768-4266,,,"Monday-Saturday 9-8, sunday 11-6",,,
"Middletown, NY",,473 Route 211 East,,Middletown,NY,10940,United States,(845) 343-4047,,,"Monday-Saturday 9-9, sunday 11-6",,,
"Nanuet, NY",,49 East Route 59,,Nanuet,NY,10954,United States,(845) 624-0220,,,"Monday-Saturday 9-9, sunday 11-6",,,
"Merrick, NY",,2100 Merrick Road,,Merrick,NY,11566,United States,(516) 771-4955,,,"Monday-Friday 9-9, Saturday 9-8, sunday 11-6",,,
"Massapequa, NY",,1050 Sunrise Highway,,Massapequa,NY,11758,United States,(516) 795-9511,,,"Monday-Saturday 9-9, sunday 11-6",,,
"Manhasset, NY",,1514 Northern Blvd,,Manhasset,NY,11030,United States,(516) 627-0769,,,"Monday-Saturday 9-9, sunday 11-6",,,
"Jackson Heights, NY",,81-27 37th Avenue,,Jackson Heights,NY,11372,United States,(718) 396-2822,,,"Monday-Friday 9-8, Saturday 10-7, sunday 11-6",,,
"Levittown, NY",,3145 Hempstead Turnpike,,LEVITTOWN,NY,11756,United States,(516) 520-5408,,,"Monday-Saturday 9-9, sunday 11-6",,,
"Kingston,NY",,1273 ULSTER AVENUE,,KINGSTON,NY,12401,United States,(845) 382-6910,,,,,,
"Ithaca, NY",,719 SOUTH MEADOW DRIVE,,ITHACA,NY,14850,United States,(607) 277-0327,,,"Monday-Saturday 9-9, sunday 11-6",,,
"Garden City, NY",,502 OLD COUNTRY ROAD,,GARDEN CITY,NY,11530,United States,(516) 570-2999,,,"Monday-Saturday 9-9, sunday 11-6",,,
"Huntington, NY",,191 Walt Whitman Road (Rt. 110),,Huntington Station,NY,11746,United States,(631) 427-6779,,,"Monday-Saturday 9-9, sunday 11-6",,,
"Forest Hills, NY",,107-60 Queens Boulevard,,Forest Hills,NY,11375,United States,(718) 520-8147,,,"Monday-Friday 9-8, Saturday 10-7, sunday 11-6",,,
"Big Flats, NY",,950 COUNTY ROAD 64,,ELMIRA,NY,14903,United States,(607)739-3059,,,"Monday-Saturday 9-9, sunday 11-6",,,
"Cheektowaga, NY",,1775 Walden Ave,,BUFFALO,NY,14225,United States,(716) 893-4716,,,"Monday-Saturday 9-9, sunday 11-6",,,
"East Northport, NY",,4199 East Jericho Turnpike,,East Northport,NY,11731,United States,(631) 462-0139,,,"Monday-Saturday 9-9, sunday 11-6",,,
"Cortland, NY",,3025 EAST MAIN ST  and  WESTBROOK DRIVE,,CORTLANDT MANOR,NY,10567,United States,(914) 526-4145,,,"Monday-Saturday 9-9, sunday 11-6",,,
"Williamsville, NY",,5095 TRANSIT ROAD,,BUFFALO,NY,14221,United States,(716) 635-4756,,,"Monday-Saturday 9-9, sunday 11-6",,,
"Kings Plaza, NY",,2475 FLATBUSH AVE,,BROOKLYN,NY,11234,United States,(718) 377-0431,,,"Monday-Saturday 9-9, sunday 11-6",,,
"Flatbush Triangle, NY",,1596 FLATBUSH AVE,,BROOKLYN,NY,11210,United States,(718) 859-0837,,,"Monday-Friday 9-9, Saturday 10-7, sunday 11-6",,,
"Canarsie  (Brooklyn), NY",,8929 AVENUE D,,BROOKLYN,NY,11236,United States,(718) 629-2076,,,"Monday-Saturday 9-9, sunday 11-6",,,
"Bensonhurst, NY",,2007  86th STREET,,BROOKLYN,NY,11214,United States,(718) 373-2392,,,"Monday-Friday 9-9, Saturday 10-7, sunday 11-6",,,
"Ceasars Bay, NY",,1628 SHORE PKWY,,BROOKLYN,NY,11214,United States,(718) 266-0690,,,"Monday-Friday 10-9, Saturday 10-8, sunday 11-6",,,
"Bayridge, NY",,469 86th Street,,Brooklyn,NY,11209,United States,(718) 491-9768,,,"Monday-Saturday 9:30-8:30, sunday 11-6",,,
"Kings Highway (Brooklyn), NY",,1326 KINGS HWY,,BROOKLYN,NY,11229,United States,(718) 382-2535,,,"Monday-Friday 9-9, Saturday 10-9, sunday 11-6",,,
"Court St  and  Remsen St, NY",,32 Court Street,,Brooklyn,NY,11201,United States,(718) 596-0466,,,"Monday-Friday 8:30-8, Saturday 9-6, sunday 11-5",,,
"Flatbush  and  4th Ave, NY",,12 4th Avenue,,Brooklyn,NY,11217,United States,(718) 858-8314,,,"Monday-Friday 9-9, Saturday 10-7, sunday 11-6",,,
"Riverdale, NY",,5510 BROADWAY,,BRONX,NY,10463,United States,(718) 884-2984,,,"Monday-Saturday 9-9, sunday 11-6",,,
"Fordham Rd (Brx), NY",,311 East Fordham Rd,,Bronx,NY,10458,United States,(718) 733-0934,,,"Monday-Saturday 9-8, sunday 11-6",,,
"Bohemia, NY",,5171 Sunrise Highway,,Bohemia,NY,11716,United States,(631) 244-9527,,,"Monday-Saturday 9-9, sunday 11-6",,,
"Bayshore, NY",,1675 Sunrise Highway,,Bay Shore,NY,11706,United States,(631) 969-4565,,,"Monday-Friday 9:30-9, Saturday 9-8, sunday 11-6",,,
"Bayside, NY",,205-04 NORTHERN BLVD,,BAYSIDE,NY,11360,United States,(718) 225-3209,,,"Monday-Saturday 9-9, sunday 11-6",,,
"Woodmere, OH",,27820 CHAGRIN BLVD,,WOODMERE,OH,44122,United States,(216) 595-3910,,,"Monday-Saturday 9-9, sunday 11-6",,,
"Fitworks, OH",,34877 Euclid Ave,,Willoughby,OH,44094,United States,(440) 975-1023,,,"Monday-Friday 9-8, Saturday 9-6, sunday 11-6",,,
"Toledo, OH",,5055 Monroe Street,,Toledo,OH,43623,United States,(419) 475-1445,,,"Monday-Saturday 9-9, sunday 11-6",,,
"Albany, NY",,108 Wolf Road,,ALBANY,NY,12205,United States,(518) 435-2401,,,"Monday-Saturday 9-9, sunday 11-6",,,
"Strongsville,OH",,17887 Southpark Center,,Strongsville,OH,44136,United States,(440) 238-5987,,,"Monday-Saturday 9-9, sunday 11-6",,,
"Steinway Street, NY",,31-26 Steinway Street,,Astoria,NY,11103,United States,(718) 545-0444,,,"Monday-Friday 9-8, Saturday 10-7, sunday 11-6",,,
"Springdale, OH",,5 East Kemper Rd,,Springdale,OH,45246,United States,(513) 671-0021,,,"Monday-Saturday 9-9, sunday 11-6",,,
"North Olmsted,  OH",,26532 Lorrain Road,,North Olmsted,OH,44070,United States,(440) 801-1020,,,"Monday-Saturday 9-9, sunday 11-6",,,
"Perrysburg, OH",,10000 OLDE US 20,,ROSSFORD,OH,43460,United States,(419) 874-3104,,,"Monday-Saturday 10-9, sunday 11-6",,,
"Parma, OH",,7749 DAY DRIVE,,PARMA,OH,44129,United States,(440) 886-1650,,,"Monday-Saturday 9-9, sunday 11-6",,,
"Niles, OH",,5704 YOUNGSTOWN WARREN ROAD,,NILES,OH,44446,United States,(330) 349-9050,,,"Monday-Saturday 9-9, sunday 11-6",,,
"Mentor, OH",,7837 Mentor Avenue,,Mentor,OH,44060,United States,(440) 205-9511,,,"Monday-Saturday 9-9, sunday 11-6",,,
"Mayfield Heights, OH",,6255 Mayfield Road,,Mayfield Heights,OH,44124,United States,(440) 646-0233,,,"Monday-Saturday 9-9, sunday 11-6",,,
"Santa Fe, NM",,3538 ZAFARANO DRIVE,,SANTA FE,NM,87507,United States,(505) 438-1184),,,"Monday-Saturday 9-8, sunday 11-6",,,
"Albuquerque, NM",,6010 Menual Blvd NE,,Albuquerque,NM,87110,United States,(505) 872-0086,,,"Monday-Saturday 9-8, sunday 11-6",,,
"Mansfield, OH",,771 N. Lexington Springmill Road,,Mansfield,OH,44906,United States,(419) 747-4034,,,"Monday-Saturday 9-9, sunday 11-6",,,
"Macedonia, OH",,463 E AURORA RD,,MACEDONIA,OH,44056,United States,(330) 908-2985,,,"Monday-Saturday 9-8, sunday 11-6",,,
"Dayton, OH",,2405 Miamisburg-Centerville,,Dayton,OH,45459,United States,(937) 439-0925,,,"Monday-Saturday 9-9, sunday 11-6",,,
"Beavercreek, OH",,2650 N Fairfield Road,,Dayton,OH,45431,United States,(937) 320-9605,,,"Monday-Saturday 9-9, sunday 11-6",,,
"Cuyahoga Falls, OH",,1190 MAIN STREET,,CUYAHOGA FALLS,OH,44221,United States,(330) 922-4445,,,"Monday-Saturday 10-9, sunday 11-6",,,
"Easton Columbus, OH",,4053 MORSE CROSSING,,COLUMBUS,OH,43219,United States,(614)478-2803,,,"Monday-Saturday 9-9, sunday 11-6",,,
"West Albuquerque, NM",,9935 Coors Blvd,,Albuquerque,NM,87114,United States,(505) 897-1725,,,"Monday-Saturday 9-8, sunday 11-6",,,
"Hillard Columbus, OH",,1505 HILLARD ROME RD.,,COLUMBUS,OH,43228,United States,(614) 878-6597,,,"Monday-Saturday 9-9, sunday 11-6",,,
"Lennox Columbus, OH",,1540 OLENTANGY RIVER RD,,COLUMBUS,OH,43212,United States,(614) 299-2253,,,"Monday-Saturday 9-9, sunday 11-6",,,
"Polaris, OH",,1370 Polaris Parkway,,Columbus,OH,43240,United States,(614) 985-3185,,,"Monday-Saturday 9-9, sunday 11-6",,,
"Fields Ertel, Cincinnati, OH",,9950 WATERSTONE BLVD,,CINCINNATI,OH,45249,United States,(513) 583-0148,,,"Monday-Saturday 9-9, sunday 11-6",,,
"Cincinnati, OH",,3831 EDWARDS RD,,CINCINNATI,OH,45209,United States,(513) 351-3380,,,"Monday-Saturday 9-9, sunday 11-6",,,
"North Canton, OH",,4333 Everhard Road,,Canton,OH,44718,United States,(330) 966-8361,,,"Monday-Saturday 9-9, sunday 11-6",,,
"Boardman Park, OH",,439 Boardman Poland Road,,Boardman,OH,44512,United States,(330) 965-0697,,,"Monday-Saturday 10-9, sunday 11-6",,,
"Avon, OH",,35825 Detroit Road,,AVON,OH,44011,United States,(440) 937-0730,,,"Monday-Saturday 9-9, sunday 11-6",,,
"Baybrook-Webster, TX",,19411 Gulf Freeway,,Webster,TX,77598,United States,(281) 554-2364,,,"Monday-Saturday 9-9, sunday 11-6",,,
"Waco, TX",,2456 W Loop 340,,Waco,TX,76711,United States,(254) 662-6921,,,"Monday-Saturday 9-8, sunday 11-6",,,
"Sunset Valley, TX",,5400 BRODIE LANE,,SUNSET VALLEY,TX,78745,United States,(512) 891-0748,,,"Monday-Saturday 10-9, sunday 11-6",,,
"Grand Parkway -  Houston, TX",,6705 N. GRAND PARKWAY W.,,SPRING,TX,77389,United States,(832) 717-0288,,,"Monday-Saturday 9-9, sunday 11-6",,,
"Southlake, TX",,2600 East Southlake Boulevard,,Southlake,TX,76092,United States,(817) 749-0444,,,"Monday-Saturday 9-9, sunday 11-6",,,
"The Woodlands, TX",,19075 Interstate 45 North,,Shenandoah,TX,77385,United States,(936) 321-2234,,,"Monday-Saturday 9-8, sunday 11-6",,,
"Park North San Antonio, TX",,438 NW Loop 410,,San Antonio,TX,78216,United States,(210) 541-6749,,,"Monday-Saturday 9-9, sunday 11-6",,,
"San Antonio, TX",,17602 La Cantera Parkway,,San Antonio,TX,78257,United States,(210) 694-2195,,,"Monday-Saturday 9-9, sunday 11-6",,,
"San Antonio, TX",,2350 SOUTHWEST MILITARY DR.,,SAN ANTONIO,TX,78224,United States,(210) 922-1594,,,"Monday-Saturday 10-9, sunday 11-6",,,
"Tyler, TX",,8922 S BROADWAY AVE,,TYLER,TX,75703,United States,(903) 581-3976,,,"Monday-Saturday 9-9, sunday 11-6",,,
"Alamo Ranch (San Antonio), TX",,5531 NW Loop 1604,,San Antonio,TX,78253,United States,(210) 647-0723,,,"Monday-Saturday 10-9, sunday 11-6",,,
"Round Rock, TX",,3151 South IH35,,Round Rock,TX,78664,United States,(512) 310-5718,,,"Monday-Saturday 10-9, sunday 11-6",,,
"Hill Country Village, TX",,1803 N. LOOP 1604 E.,,San Antonio,TX,78259,United States,(210) 491-4311,,,"Monday-Saturday 10-9, sunday 11-6",,,
"East Plano, TX",,1001 North Central Expressway,,Plano,TX,75075,United States,(972) 422-4106,,,"Monday-Saturday 9-9, sunday 11-6",,,
"Rockwall, TX",,1035 IH-30,,ROCKWALL,TX,75087,United States,(214) 771-4360,,,"Monday-Saturday 9-9, sunday 11-6",,,
"Midland, TX",,2820 W LOOP 250 NORTH,,MIDLAND,TX,79705,United States,(432) 689-2728,,,"Monday-Saturday 10-9, sunday 11-6",,,
"Mesquite, TX",,18661 LBJ Freeway,,MESQUITE,TX,75150,United States,(972) 270-8004,,,"Monday-Saturday 9-9, sunday 11-6",,,
"McAllen, TX",,4001 N. 10th Street,,McAllen,TX,78504,United States,(956) 682-6239,,,"Monday-Saturday 9-9, sunday 11-6",,,
"Laredo, TX",,7305 SAN DARIO AVE,,LAREDO,TX,78045,United States,(956) 753-3068,,,"Monday-Saturday 10-9, sunday 11-6",,,
"Las Colinas, TX",,800 Market Place Blvd,,Irving,TX,75060,United States,(972) 501-0395,,,"Monday-Saturday 9-9, sunday 11-6",,,
"Lewisville, TX",,2397 South Stemmons Freeway,,Lewisville,TX,75067,United States,(972) 459-9513,,,"Monday-Saturday 9-9, sunday 11-6",,,
"Hurst, TX",,1495 West Pipeline Road,,Hurst,TX,76053,United States,(817) 282-9650,,,"Monday-Saturday 9-9, sunday 11-6",,,
"Humble, TX",,19723 HWY 59 N,,HUMBLE,TX,77338,United States,(281) 540-7279,,,"Monday-Saturday 9-8, sunday 11-6",,,
"West Plano, TX",,5930 W. Park Blvd.,,Plano,TX,75093,United States,(972) 250-2365,,,"Monday-Saturday 9-9, sunday 11-6",,,
"Westheimer-Houston, TX",,7501 Westheimer Road,,Houston,TX,77063,United States,(713) 435-0929,,,"Monday-Saturday 9-9, sunday 11-6",,,
"West Oakes, TX",,13341 Westheimer Road,,Houston,TX,77077,United States,(281) 531-7122,,,"Monday-Friday 10-9, Saturday 9-9, sunday 11-6",,,
"Memorial City, TX",,10201-A Katy Freeway,,Houston,TX,77024,United States,(713) 467-6784,,,"Monday-Saturday 9-8, sunday 11-6",,,
"Copperfield, TX",,7009 Highway 6 North,,Houston,TX,77095,United States,(281) 463-4193,,,"Monday-Saturday 9-9, sunday 11-6",,,
"Rice Village-Houston, TX",,5829 Kirby Drive,,Houston,TX,77005,United States,(713) 528-2531,,,"Monday-Saturday 9-8, sunday 11-6",,,
"Katy, TX",,19712 Katy Freeway,,HOUSTON,TX,77094,United States,(281) 829-3315,,,"Monday-Friday 9-9, Saturday 9-8, sunday 11-6",,,
"Sawyer Heights, TX",,2423 Katy Freeway,,Houston,TX,77007,United States,(713) 868-3775,,,"Monday-Saturday 9-9, sunday 11-6",,,
"Harker Heights,  TX",,201 EAST CENTRAL TEXAS EXPRESSWAY,,HARKER HEIGHTS,TX,76548,United States,(254) 699-0230,,,"Monday-Saturday 10-9, sunday 11-6",,,
"Frisco, TX",,2995 Preston Road,,Frisco,TX,75034,United States,(972) 334-9920,,,"Monday-Saturday 9-9, sunday 11-6",,,
"Georgetown, TX",,1003 West University,,Georgetown,TX,78628,United States,(512) 868-2035,,,"Monday-Saturday 9-8, sunday 11-6",,,
"Hulen, TX",,4801 S. Hulen Street,,Fort Worth,TX,76132,United States,(817) 423-4326,,,"Monday-Saturday 9-9, sunday 11-6",,,
"Flower Mound, TX",,6230 Long Pririe Road,,Flower Mound,TX,75022,United States,(972) 355-4953,,,"Monday-Saturday 9-9, sunday 11-6",,,
"Alliance, TX",,2317 NORTH TARRANT PARKWAY,,FORT WORTH,TX,76177,United States,(817) 306-4640,,,"Monday-Saturday 9-9, sunday 11-6",,,
"Sunland, TX",,655 SUNLAND Park Dr.,,EL PASO,TX,79912,United States,(915) 584-4995,,,"Monday-Saturday 9-9, sunday 11-6",,,
"Denton, TX",,1507 S LOOP 288,,DENTON,TX,76205,United States,(940) 383-2111,,,"Monday-Saturday 9-9, sunday 11-6",,,
"Hawkins, TX",,8889 GATEWAY,,EL PASO,TX,79925,United States,(915) 599-8587,,,"Monday-Saturday 9-9, sunday 11-6",,,
"East El Paso, TX",,1921 Zaragosa Road,,El Paso,TX,79938,United States,(915) 855-3791,,,"Monday-Saturday 9-9, sunday 11-6",,,
"Dallas, TX",,4117 LEMMON AVENUE,,DALLAS,TX,75219,United States,(214) 780-0143,,,"Monday-Saturday 9-9, sunday 11-6",,,
"Northpark, TX",,5425 Greenville Avenue,,Dallas,TX,75206,United States,(214) 750-8064,,,"Monday-Saturday 9-9, sunday 11-6",,,
"Cedar Hill,  TX",,719 Highway 67 N,,Cedar Hill,TX,75104,United States,(972) 291-7684,,,"Monday-Saturday 9-9, sunday 11-6",,,
"Brownsville, TX",,101 E MORRISON ROAD,,Brownsville,TX,78520,United States,(956) 350-0494,,,"Monday-Saturday 10-9, sunday 11-6",,,
"Willowbrook, TX",,7504 FM 1960 W,,Houston,TX,77070,United States,(281) 955-5290,,,"Monday-Saturday 9-9, sunday 11-6",,,
"Austin, TX",,4615 N. LAMAR BLVD,,AUSTIN,TX,78751,United States,(512) 371-9875,,,"Monday-Saturday 10-9, sunday 11-6",,,
"Beaumont, TX",,5899 Eastex Freeway,,Beaumont,TX,77701,United States,(409) 924-9123,,,"Monday-Saturday 9-8, sunday 11-6",,,
"Baytown, TX",,4567 GARTH RD,,BAYTOWN,TX,77521,United States,(281) 420-7497,,,"Monday-Friday 10-9, Saturday 9-9, sunday 11-6",,,
"Arboretum ( Austin ), TX",,10225 Research Blvd,,Austin,TX,78759,United States,(512) 342-6920,,,"Monday-Saturday 9:30-9, sunday 11-6",,,
"Arlington, TX",,4701 S. Cooper Street,,Arlington,TX,76017,United States,(817) 472-5478,,,"Monday-Saturday 9-9, sunday 11-6",,,
"Allen, TX",,"190 East Stacy Road, Building 300",,Allen,TX,75013,United States,(972) 678-1751,,,"Monday-Saturday 9-9, sunday 11-6",,,
"Corpus Christi, TX",,5425 SOUTH PADRE ISLAND DRIVE,,Corpus Christi,TX,78411,United States,(361) 906-0729,,,"Monday-Saturday 9-9, sunday 11-6",,,
"Eugene, OR",,391 COBURG ROAD,,EUGENE,OR,97401,United States,(541)685-7285,,,"Monday-Saturday 9-8, sunday 11-6",,,
"Tanasbourne, OR",,2711 NW Towne Center Drive,,Beaverton,OR,97006,United States,(503) 614-8517,,,"Monday-Saturday 9-8, sunday 11-6",,,
"Beaverton, OR",,2612 SW CEDAR HILLS BOULEVARD,,BEAVERTON,OR,97005,United States,(971)205-5726,,,"Monday-Saturday 9-8, sunday 11-7",,,
"Clackamas, OR",,9919 SE SUNNYSIDE ROAD,,CLACKAMAS,OR,97015,United States,(503)794-9355,,,"Monday-Saturday 9-9, sunday 11-7",,,
"York, PA",,415 Loucks Road,,York,PA,17404,United States,(717) 846-6192,,,"Monday-Saturday 9-9, sunday 11-6",,,
"Wyomissing, PA",,2719 North Meridian Boulevard,,Wyomissing,PA,19610,United States,(610) 396-1490,,,"Monday-Saturday 9-9, sunday 11-6",,,
"Wilkes Barre, PA",,280 MUNDY STREET,,WILKES BARRE,PA,18702,United States,(570) 822-2072,,,"Monday-Saturday 9-9, sunday 11-6",,,
"Springfield, PA",,1058 Baltimore Pike,,Springfield,PA,19064,United States,(610) 541-0601,,,"Monday-Saturday 9-9, sunday 11-6",,,
"Robinson, PA",,210 Settlers Ridge Center Drive,,Pittsburgh,PA,15205,United States,(412) 787-0369,,,"Monday-Saturday 9-9, sunday 11-6",,,
"North Hills (Pittsburgh), PA",,4850 McKnight Road,,Pittsburgh,PA,15237,United States,(412) 364-3569,,,"Monday-Saturday 9-9, sunday 11-6",,,
"State College, PA",,1894 N. ATHERTON STREET,,STATE COLLEGE,PA,16803,United States,(814) 231-1509,,,"Monday-Saturday 9-9, sunday 11-6",,,
"Stroudsburg, PA",,300 COMMERCE BLVD,,STROUDSBURG,PA,18360,United States,(570) 421-1545,,,"Monday-Saturday 9-9, sunday 11-6",,,
"Whitehall, PA",,2365 MacArthur Road,,Whitehall,PA,18052,United States,(610) 437-9004,,,"Monday-Saturday 9-9, sunday 11-6",,,
"Cottman Avenue, PA",,2383 COTTMAN AVE,,PHILADELPHIA,PA,19149,United States,(215) 331-2023,,,"Monday-Saturday 10-9, sunday 11-6",,,
"Chestnut Street, Phila., PA",,1701 Chestnut Street,,Philadelphia,PA,19103,United States,(215) 568-4898,,,"Monday-Friday 8-7, Saturday 9-7, sunday 12-6",,,
"Paoli, PA",,23 Leopard Rd (Rt 252),,PAOLI,PA,19301,United States,(610) 644-3015,,,"Monday-Saturday 9-9, sunday 11-6",,,
"Lancaster, PA",,1480 HARRISBURG PIKE,,LANCASTER,PA,17601,United States,(717) 299-1798,,,"Monday-Saturday 9-9, sunday 11-6",,,
"Montgomeryville, PA",,757 Bethlehem Pike,,Montgomeryville,PA,18936,United States,(215) 368-8144,,,"Monday-Saturday 9-9, sunday 11-6",,,
"Monroeville, PA",,4145 WILLIAN PENN HWY,,MONROEVILLE,PA,15146,United States,(412) 380-1493,,,"Monday-Saturday 9-9, sunday 11-6",,,
"King of Prussia, PA",,445 WEST DEKALB PIKE,,KING OF PRUSSIA,PA,19406,United States,(610) 337-0417,,,"Monday-Saturday 9-9, sunday 11-6",,,
"Waterfront, PA",,380 Waterfront Drive East,,Homestead,PA,15120,United States,(412) 461-2367,,,"Monday-Saturday 10-9, sunday 12-6",,,
"East Harrisburg, PA",,5125 Jonestown Road,,Harrisburg,PA,17112,United States,(717) 541-8900,,,"Monday-Saturday 9-9, sunday 11-6",,,
"Langhorne, PA",,620 COMMERCE DRIVE,,FAIRLESS HILLS,PA,19030,United States,(215) 943-1848,,,"Monday-Saturday 9-9, sunday 11-6",,,
"Exton, PA",,219 Pottstown Pike,,Exton,PA,19341,United States,(484) 875-9390,,,"Monday-Saturday 9-9, sunday 11-6",,,
"Havertown, PA",,116 W. TOWNSHIP LINE RD,,HAVERTOWN,PA,19083,United States,(610) 789-1823,,,"Monday-Saturday 9-9, sunday 11-6",,,
"Feasterville, PA",,192 EAST STREET ROAD,,FEASTERVILLE,PA,19053,United States,(215) 322-7629,,,"Monday-Friday 9-9, Saturday 9-8, sunday 11-6",,,
"Chadds Ford, PA",,1731 WILMINGTON PIKE,,GLEN MILLS,PA,19342,United States,(610) 358-4367,,,"Monday-Saturday 9-9, sunday 11-6",,,
"Erie, PA",,7000 PEACH STREET,,ERIE,PA,16509,United States,(814) 864-3159,,,"Monday-Saturday 10-9, sunday 11-6",,,
"Easton, PA",,3862 DRYLAND WAY,,EASTON,PA,18045,United States,(610) 253-6924,,,"Monday-Saturday 9-9, sunday 11-6",,,
"Cranberry, PA",,20273 Route 19,,Cranberry Township,PA,16066,United States,(724) 742-0985,,,"Monday-Saturday 9-9, sunday 10-5",,,
"Dickson City, PA",,1249 COMMERCE BLVD,,DICKSON CITY,PA,18519,United States,(570) 489-1457,,,"Monday-Saturday 9-9, sunday 11-6",,,
"Bryn Mawr, PA",,715 W. Lancaster Avenue,,Bryn Mawr,PA,19010,United States,(610) 519-0249,,,"Monday-Saturday 9-9, sunday 11-6",,,
"Bala Cynwyd, PA",,31 EAST CITY AVE,,Bala Cynwyd,PA,19004,United States,(610) 667-1527,,,"Monday-Saturday 9-9, sunday 11-6",,,
"Mechanicsburg, PA",,6455 CARLISLE PK,,MECHANICSBURG,PA,17050,United States,(717) 791-0120,,,"Monday-Saturday 9-9, sunday 11-6",,,
"Abington, PA",,1817 Old York Road,,Abington,PA,19001,United States,(215) 659-1660,,,"Monday-Saturday 9-9, sunday 11-6",,,
"Tulsa, OK",,8247 E. 71ST STREET,,TULSA,OK,74133,United States,(918) 307-2212,,,"Monday-Saturday 9-9, sunday 11-6",,,
"Oklahoma City West, OK",,6501 SOUTHWEST 3RD STREET,,OKLAHOMA CITY,OK,73128,United States,(405) 491-2619,,,"Monday-Saturday 9-9, sunday 11-6",,,
"Oklahoma City, OK",,2408 WEST MEMORIAL RD,,OKLAHOMA CITY,OK,73134,United States,(405) 302-4850,,,"Monday-Saturday 9-9, sunday 11-6",,,
North Providence RI,,1650 MINERAL SPRING AVE,,NORTH PROVIDENCE,RI,02911,United States,(401) 353-2376,,,"Monday-Saturday 9-9, sunday 11-6",,,
"Hazel Dell, WA",,320 NE 78TH STREET,,VANCOUVER,WA,98665,United States,(855)235-9432,,,"Monday-Saturday 9-8, sunday 11-6",,,
"Tacoma, WA",,5902 6TH AVENUE,,TACOMA,WA,98406,United States,(253)565-1028,,,"Monday-Saturday 9-9, sunday 11-7",,,
"Tacoma, WA",,3801 S STEELE STREET,,TACOMA,WA,98409,United States,(253) 475-5116,,,"Monday-Saturday 9-9, sunday 11-6",,,
"Spokane Valley, WA",,6630 E SPRAGUE AVENUE,,SPOKANE,WA,99212,United States,(509)456-3660,,,"Monday-Saturday 9-9, sunday 11-7",,,
"Cascade Park,  WA",,305 SE CHKALOV DRIVE,,VANCOUVER,WA,98683,United States,(360)418-7090,,,"Monday-Saturday 9-9, sunday 11-7",,,
"Spokane City, WA",,2525 N RUBY STREET,,SPOKANE,WA,99207,United States,(509)326-8505,,,"Monday-Saturday 9-9, sunday 11-7",,,
"Northgate, WA",,301 NE 103rd St,,SEATTLE,WA,98125,United States,(206)523-3130,,,"Monday-Saturday 10-8, sunday 11-6",,,
"Interbay, WA",,1154 ELLIOTT AVENUE W,,SEATTLE,WA,98119,United States,(206)838-5980,,,"Monday-Saturday 9-9, sunday 11-7",,,
"Tukwila, WA",,17401 Southcenter Pkwy,,Tukwila,WA,98188,United States,(206) 575-2286,,,"Monday-Saturday 10-8, sunday 11-6",,,
"West Seattle, WA",,6451 FAUNTLEROY WAY SW,,SEATTLE,WA,98136,United States,(206)838-5981,,,"Monday-Saturday 9-7, sunday 10-7",,,
"Burien, WA",,15870 1ST AVENUE SOUTH,,SEATTLE,WA,98148,United States,(855)715-8530,,,"Monday-Saturday 9-9, sunday 11-7",,,
"North Seattle, WA",,13500 AURORA AVENUE N,,SEATTLE,WA,98133,United States,206-365-5240,,,"Monday-Saturday 9-9, sunday 11-7",,,
"University District, WA",,4336 ROOSEVELT WAY NE,,SEATTLE,WA,98105,United States,(206)633-4428,,,"Monday-Saturday 9-9, sunday 11-7",,,
"Renton, WA",,707 RAINER AVENUE S,,RENTON,WA,98057,United States,(425)226-2112,,,"Monday-Saturday 9-9, sunday 11-7",,,
"Redmond, WA",,17980 REDMOND WAY,,REDMOND,WA,98052,United States,(452)641-0241,,,"Monday-Saturday 9-9, sunday 11-7",,,
"Puyallup,  WA",,4307 S MERIDIAN STREET,,PUYALLUP,WA,98373,United States,(253)604-0700,,,"Monday-Saturday 9-9, sunday 11-7",,,
"Puyallup, WA",,4227 S. MERIDIAN  St,,PUYALLUP,WA,98373,United States,(253) 841-5642,,,"Monday-Saturday 9-8, sunday 11-6",,,
"Olympia, WA",,4101 MARTIN WAY E,,OLYMPIA,WA,98516,United States,(360)438-6963,,,"Monday-Saturday 9-9, sunday 11-7",,,
"Lynnwood, WA",,2701 184TH STREET SW,,LYNNWOOD,WA,98037,United States,(425) 640-5077,,,"Monday-Saturday 10-9, sunday 11-6",,,
"Lakewood, WA",,10011 BRIDGEPORT WAY SW,,LAKEWOOD,WA,98499,United States,(253)584-7300,,,"Monday-Saturday 9-9, sunday 11-7",,,
"Kennewick, WA",,5200 W CLEARWATER AVENUE,,KENNEWICK,WA,99336,United States,(509)736-6390,,,"Monday-Saturday 9-7, sunday 11-7",,,
"Lynnwood - S, WA",,19925 44TH AVE WEST,,LYNNWOOD,WA,98036,United States,(425)775-0805,,,"Monday-Saturday 9-9, sunday 11-7",,,
"Maple Valley, WA",,26710 MAPLE VALLEY-BLACK DIAMOND RD,,MAPLE VALLEY,WA,98038,United States,(855)235-9431,,,"Monday-Saturday 9-9, sunday 11-7",,,
"Kenmore, WA",,6806 NE 175TH STREET,,KENMORE,WA,98028,United States,(425)402-8822,,,"Monday-Saturday 9-9, sunday 11-7",,,
"Issaquah, WA",,6150 E Lake Sammamish Pkwy,,Issaquah,WA,98029,United States,(425) 369-2543,,,"Monday-Saturday 9-8, sunday 11-6",,,
"Federal Way, WA",,1401 S 348TH STREET,,FEDERAL WAY,WA,98003,United States,(253)529-0636,,,"Monday-Saturday 9-9, sunday 10-7",,,
"Everett, WA",,1510 SE Everett Mall Way,,Everett,WA,98208,United States,(425) 355-0560,,,"Monday-Saturday 10-9, sunday 10-6",,,
"Everett - S, WA",,4031 COLBY AVENUE,,EVERETT,WA,98201,United States,(425)293-0373,,,"Monday-Saturday 9-9, sunday 10-7",,,
"Olympia, WA",,1111 Cooper Point Way SW,,Olympia,WA,98502,United States,(360) 357-0798,,,"Monday-Saturday 9-8, sunday 11-6",,,
"Burlington, WA",,1761 S BURLINGTON BOULEVARD,,BURLINGTON,WA,98233,United States,(360)757-4949,,,"Monday-Saturday 9-9, sunday 11-7",,,
"Bremerton, WA",,3324 WHEATON WAY,,BREMERTON,WA,98310,United States,(360)782-0909,,,"Monday-Saturday 9-9, sunday 11-7",,,
"Bellingham, WA",,1300 ELLIS STREET,,BELLINGHAM,WA,98225,United States,(360)676-9922,,,"Monday-Saturday 9-7, sunday 11-7",,,
"Bellevue, WA",,10415 NE 4th Street,,Bellevue,WA,98004,United States,(425)454-0581,,,"Monday-Friday 9-8, Saturday 10-6, sunday 11-6",,,
"Bellevue, WA",,14733 NE 8TH STREET,,BELLEVUE,WA,98007,United States,(425)957-0787,,,"Monday-Saturday 9-9, sunday 11-7",,,
"Memphis, TN",,7670 WINCHESTER RD,,MEMPHIS,TN,38125,United States,(901) 309-3470,,,"Monday-Saturday 9-9, sunday 11-6",,,
"Knoxville, TN",,7833 Kingston Pike,,KNOXVILLE,TN,37919,United States,(865) 670-8927,,,"Monday-Saturday 10-9, sunday 11-6",,,
"Memphis, TN",,780-101 Truse Parkway,,Memphis,TN,38117,United States,(901) 682-0334,,,"Monday-Saturday 9-9, sunday 11-6",,,
"Madison, TN",,2225 Gallatin Pike North,,Madison,TN,37115,United States,(615) 859-4696,,,"Monday-Saturday 9-9, sunday 11-6",,,
"Johnson City, TN",,3120 Peoples Street,,Johnson City,TN,37604,United States,(423) 282-2507,,,"Monday-Saturday 9-9, sunday 11-6",,,
"Jackson, TN",,1133 Vann Drive,,Jackson,TN,38305,United States,(731) 660-1008,,,"Monday-Saturday 9-9, sunday 11-6",,,
"Cordova, TN",,2286 N. GERMANTOWN PKWY,,CORDOVA,TN,38016,United States,(901) 384-4909,,,"Monday-Saturday 9-9, sunday 11-6",,,
"Chattanooga, TN",,2021 Gun Barrel Road,,CHATTANOOGA,TN,37421,United States,(423) 553-9099,,,"Monday-Saturday 10-9, sunday 12-6",,,
"Williamsburg, VA",,5226 MONTICELLO AVE,,WILLIAMSBURG,VA,23188,United States,(757) 229-0680,,,"Monday-Saturday 10-9, sunday 11-6",,,
"Clarksville, TN",,2807 WILMA RUDOLPH BLVD,,CLARKSVILLE,TN,37040,United States,(931) 551-3885,,,"Monday-Saturday 9-9, sunday 11-6",,,
"Sioux Falls, SD",,4207 W. 41ST STREET,,SIOUX FALLS,SD,57106,United States,(605) 361-4312,,,"Monday-Saturday 10-8, sunday 11-6",,,
"Franklin, TN",,1770-B Galleria Boulevard,,Franklin,TN,37067,United States,(615) 771-9745,,,"Monday-Saturday 9-9, sunday 11-6",,,
"Virginia Beach, VA",,1721 LASKIN ROAD,,VIRGINIA BEACH,VA,23454,United States,(757) 422-0681,,,"Monday-Friday 10-9, Saturday 9-9, sunday 11-6",,,
"Tysons Corner, Vienna, VA",,1927 Old Gallows Road,,Vienna,VA,22182,United States,(703) 883-2999,,,"Monday-Saturday 10-9, sunday 11-6",,,
"Sterling, VA",,45450 Dulles Crossing Plaza,,STERLING,VA,20166,United States,(571) 434-0624,,,"Monday-Friday 10-9, Saturday 9-9, sunday 11-6",,,
"Virginia Beach, VA",,233 Independence Boulevard,,Virginia Beach,VA,23462,United States,(757) 456-0797,,,"Monday-Saturday 9-9, sunday 11-6",,,
"Springfield, VA",,6701-A Loisdale Road,,Springfield,VA,22150,United States,(703) 971-6420,,,"Monday-Saturday 9-9, sunday 11-6",,,
"Roanoke, VA",,4750 Valley View Blvd NW,,ROANOKE,VA,24012,United States,(540) 366-0595,,,"Monday-Saturday 10-8, sunday 12-6",,,
"Richmond (Libbies Place),VA",,5701 W Broad Street,,RICHMOND,VA,23230,United States,(804) 282-1867,,,"Monday-Saturday 9-9, sunday 11-6",,,
"Hixson, TN",,5546 HIGHWAY 153,,HIXSON,TN,37343,United States,(423) 870-6605,,,"Monday-Saturday 10-9, sunday 11-6",,,
"Chesterfield, VA",,11440 A Midlothian Turnpike,,RICHMOND,VA,23235,United States,(804) 379-6259,,,"Monday-Saturday 10-9, sunday 11-6",,,
"Norfolk, VA",,729 W. 21ST STREET,,NORFOLK,VA,23517,United States,(757) 627-1701,,,"Monday-Saturday 10-9, sunday 11-6",,,
"Newport News, VA",,12266 Jefferson Avenue,,Newport News,VA,23602,United States,(757) 249-3697,,,"Monday-Saturday 10-9, sunday 11-6",,,
"Manassas, VA",,10944 Bulloch Drive,,MANASSAS,VA,20109,United States,(703) 392-6950,,,"Monday-Saturday 9-9, sunday 11-6",,,
"Lynchburg, VA",,3919 Wards Road,,LYNCHBURG,VA,24502,United States,(434) 239-5417,,,"Monday-Saturday 9-9, sunday 11-6",,,
"Glen Allen, VA",,10097 Brook Road,,GLEN ALLEN,VA,23059,United States,(804) 515-8221,,,"Monday-Saturday 10-9, sunday 11-6",,,
"Short Pump ( Richmond ), VA",,11301 W Broad Street,,GLEN ALLEN,VA,23060,United States,(804) 360-2456,,,"Monday-Saturday 10-9, sunday 11-6",,,
"Fredericksburg, VA",,1471 Carl D. Silver Pkwy,,Fredericksburg,VA,22401,United States,(540) 548-2295,,,"Monday-Saturday 9-9, sunday 11-6",,,
"Fairfax, VA",,11015-B Fairfax Boulevard,,Fairfax,VA,22030,United States,(703) 352-4925,,,"Monday-Saturday 10-9, sunday 11-6",,,
"Charlottesville, VA",,1650 Rio Road East,,CHARLOTTESVILLE,VA,22901,United States,(434) 964-1213,,,"Monday-Saturday 10-9, sunday 11-6",,,
"Chesapeake, VA",,1412 Greenbrier Parkway,,CHESAPEAKE,VA,23320,United States,(757) 366-9494,,,"Monday-Saturday 9-9, sunday 11-6",,,
"Colonial Heights, VA",,551 SOUTHPARK BLVD,,COLONIAL HEIGHTS,VA,23834,United States,(804) 526-5974,,,"Monday-Saturday 9-8, sunday 11-6",,,
"Baileys Crossraods, VA",,5524 Leesburg Pike,,Baileys Crossroads,VA,22041,United States,(703) 671-2445,,,"Monday-Saturday 9-9, sunday 11-6",,,
AO Location - 490,,112 The Vitamin Shoppe Way,,Ashland,VA,23005,United States,,,,,,,
"Pentagon Row, VA",,1101 S Joyce Street,,ARLINGTON,VA,22202,United States,(703) 413-1210,,,"Monday-Saturday 10-9, sunday 11-6",,,
"Alexandria, VA",,3725-B Jefferson Davis Highway,,Alexandria,VA,22305,United States,(703) 535-6500,,,"Monday-Saturday 9-9, sunday 11-6",,,
"Mount Vernon, VA",,7713 Fordson Road,,ALEXANDRIA,VA,22306,United States,(703) 619-7922,,,"Monday-Saturday 10-9, sunday 11-6",,,
"Orem, UT",,160 E. UNIVERSITY PARKWAY,,OREM,UT,84058,United States,(801) 224-3529,,,Monday-Saturday 9-9,,,
"University Mall, VT",,195 Dorset Street,,SOUTH BURLINGTON,VT,05403,United States,(802) 862-3958,,,"Monday-Saturday 9-8, sunday 11-6",,,
"Deptford, NJ",,1188 Hurfville Road,,Deptford,NJ,08096,United States,(856) 845-8349,,,"Monday-Saturday 9-9, sunday 11-6",,,
"Clifton, NJ",,370 Route 3 West,,Clifton,NJ,07014,United States,(973) 916-5070,,,"Monday-Saturday 9-9, sunday 11-6",,,
"Clark,NJ",,1255 RARITAN RD,,CLARK,NJ,07066,United States,(732) 388-0105,,,"Monday-Saturday 9-9, sunday 11-6",,,
"Cherry Hill, NJ",,2010 Marlton Pike West,,Cherry Hill,NJ,08002,United States,(856) 317-0191,,,"Monday-Saturday 9-9, sunday 11-6",,,
"Butler, NJ",,1224 STATE RT 23 NORTH,,BUTLER,NJ,07405,United States,(973) 492-1747,,,"Monday-Saturday 9-9, sunday 11-6",,,
"Brick, NJ",,588 Route 70,,Brick,NJ,08723,United States,(732) 920-0829,,,"Monday-Saturday 9-9, sunday 11-6",,,
"Wayne, NJ",,1428 ROUTE 23 NORTH,,WAYNE,NJ,07470,United States,(973) 628-5382,,,"Monday-Saturday 9-9, sunday 11-6",,,
"Omaha, NE",,3404/06 SOUTH 144TH STREET,,OMAHA,NE,68144,United States,(402) 334-0114,,,"Monday-Saturday 9-9, sunday 11-6",,,
"Reno, NV",,6135 S Virginia Street,,Reno,NV,89502,United States,(775) 852-7158,,,"Monday-Saturday 9-9, sunday 11-6",,,
"Lincoln, NE",,6105 O STREET,,LINCOLN,NE,68505,United States,(402) 465-8294,,,"Monday-Saturday 9-9, sunday 11-6",,,
"Las Vegas, NV",,230 N. NELLIS BLVD,,LAS VEGAS,NV,89110,United States,(702) 453-0134,,,"Monday-Saturday 9-8, sunday 11-6",,,
"Stamford, CT",,1003 High Ridge Road,,Stamford,CT,06905,United States,(203) 609-0147,,,"Monday-Saturday 9-9, sunday 11-6",,,
"Littleton, CO",,5392 S Wadsworth Blvd,,Lakewood,CO,80123,United States,(303) 948-5417,,,"Monday-Saturday 9-8, sunday 11-6",,,
"Northglenn, CO",,11985 Washington Street,,Northglenn,CO,80233,United States,(303) 920-9292,,,"Monday-Saturday 9-8, sunday 11-6",,,
"Fort Collins, CO",,2600 S College Ave,,Fort Collins,CO,80525,United States,(970) 204-6653,,,"Monday-Friday 9-8, Saturday 9-7, sunday 11-6",,,
"Tuscaloosa,AL",,1320 MCFARLAND BLVD EAST,,TUSCALOOSA,AL,35405,United States,(205) 758-6709,,,"Monday-Saturday 9-9, sunday 11-6",,,
"Montgomery, AL",,7345 E. Chase Blvd,,MONTGOMERY,AL,36117,United States,(334) 279-4061,,,"Monday-Saturday 10-9, sunday 12-6",,,
"Mobile, AL",,3659 Airport Blvd,,Mobile,AL,36608,United States,(251) 342-2967,,,"Monday-Saturday 9:30-8, sunday 12-6",,,
"Huntsville, AL",,6275 University Drive NW,,Huntsville,AL,35806,United States,(256) 971-6907,,,"Monday-Saturday 10-9, sunday 11-6",,,
"Trussville,AL",,3220 MORROW ROAD,,BIRMINGHAM,AL,35235,United States,(205) 661-0024,,,"Monday-Saturday 10-9, sunday 11-6",,,
"North Little Rock, AR",,4302 EAST MCCAIN BLVD,,NORTH LITTLE ROCK,AR,72117,United States,(501) 945-8042,,,"Monday-Saturday 10-9, sunday 11-6",,,
"Yuma, AZ",,1418 S YUMA PALMS PARKWAY,,YUMA,AZ,85365,United States,(928) 782-1052,,,"Monday-Saturday 9-9, sunday 11-6",,,
"Hoover, AL",,1713 Montgomery Hwy,,BIRMINGHAM,AL,35244,United States,(205) 987-5328,,,"Monday-Saturday 10-9, sunday 11-6",,,
"Tucson, AZ (Oracle)",,4329 N ORACLE ROAD,,TUCSON,AZ,85705,United States,(520) 293-7150,,,"Monday-Saturday 9-9, sunday 11-6",,,
"Norwalk, CT",,561-565 Connecticut Avenue,,Norwalk,CT,06854,United States,(203) 866-6837,,,"Monday-Saturday 9-9, sunday 11-6",,,
"Tucson, AZ  (Broadway)",,5545 E. BROADWAY BLVD,,TUCSON,AZ,85711,United States,(520) 777-5476,,,"Monday-Saturday 9-9, sunday 11-6",,,
"Surprise, AZ",,13714 W. BELL ROAD,,SURPRISE,AZ,85374,United States,(623) 214-2156,,,"Monday-Saturday 9-9, sunday 11-6",,,
"Ahwatukee, AZ",,4910 EAST RAY ROAD,,PHOENIX,AZ,85044,United States,(480) 753-4775,,,"Monday-Saturday 9-9, sunday 11-6",,,
"North Scottsdale, AZ",,15811 N. FRANK LLOYD WRIGHT,,SCOTTSDALE,AZ,85260,United States,(480) 614-5722,,,"Monday-Saturday 9-9, sunday 11-6",,,
"Phoenix/Camelback, AZ",,1935 East Camelback Road,,Phoenix,AZ,85016,United States,(602) 277-0660,,,"Monday-Saturday 9-8, sunday 11-6",,,
"Metro Center, AZ",,3033 West Peoria Avenue,,Phoenix,AZ,85029,United States,(602) 674-3409,,,"Monday-Friday 9-9, Saturday 9-8, sunday 11-6",,,
"Mesa (Val Vista), AZ",,1740 S Val Vista Drive,,Mesa,AZ,85204,United States,(480) 545-2785,,,"Monday-Saturday 9-8, sunday 11-6",,,
"Arrowhead,  AZ",,7708 W Bell Road,,Glendale,AZ,85308,United States,(623) 979-7387,,,"Monday-Friday 9-9, Saturday 9-8, sunday 11-6",,,
Avondale  AZ,,10020 W. McDowell Road,,Avondale,AZ,85392,United States,(623) 478-0898,,,"Monday-Friday 9-9, Saturday 9-8, sunday 10-6",,,
"Denver, CO",,385 S Colorado Blvd,,Denver,CO,80246,United States,(303) 321-0379,,,"Monday-Saturday 9-8, sunday 11-6",,,
"Centennial, CO",,8283 S. Akron Street,,ENGLEWOOD,CO,80112,United States,(303) 708-8861,,,"Monday-Saturday 9-7, sunday 11-6",,,
"Colorado Springs, CO",,2002 Southgate Road,,Colorado Springs,CO,80906,United States,(719) 667-1232,,,"Monday-Saturday 9-7, sunday 11-6",,,
"Colorado Springs, CO",,7325 N. Academy Boulevard,,Colorado Springs,CO,80920,United States,(719) 598-0638,,,"Monday-Friday 9-8, Saturday 9-7, sunday 11-6",,,
"Boulder, CO",,1905 29th Street,,Boulder,CO,80301,United States,(303) 443-0219,,,"Monday-Saturday 10-9, sunday 11-6",,,
"Fort Smith, AR",,3901 PHOENIX AVE,,FORT SMITH,AR,72903,United States,(479) 646-2492,,,"Monday-Saturday 10-9, sunday 11-6",,,
"North Haven, CT",,417 Universal Drive  North,,North Haven,CT,06473,United States,(203) 234-2028,,,"Monday-Saturday 9-9, sunday 11-6",,,
"Newington, CT",,3391 Berlin Turnpike  and  Pane Road,,NEWINGTON,CT,06111,United States,(860) 594-8634,,,"Monday-Saturday 9-9, sunday 11-6",,,
"Manchester, CT",,105 Buckland Hills Drive,,Manchester,CT,06040,United States,(860) 644-2834,,,"Monday-Saturday 9-9, sunday 11-6",,,
"Woodland Hills, CA",,21436 W. Victory Boulevard,,Woodland Hills,CA,91367,United States,(818) 883-2342,,,"Monday-Saturday 9-9, sunday 11-6",,,
"West Los Angeles, CA",,1901 Westwood Blvd,,West Los Angeles,CA,90025,United States,(310) 234-2718,,,"Friday 10-8, Monday-Thursday 10-9, Saturday 10-7, sunday 11-6",,,
"West Covina, CA",,235 N Citrus Street,,West Covina,CA,91791,United States,(626) 331-7125,,,"Monday-Saturday 9-9, sunday 11-6",,,
"Walnut Creek, CA",,1601 Mt. Diablo Blvd,,Walnut Creek,CA,94596,United States,(925) 939-3460,,,"Monday-Saturday 10-9, sunday 11-6",,,
"Bell Road, AZ",,475 E BELL ROAD,,Phoenix,AZ,85022,United States,(602) 687-8504,,,"Monday-Saturday 9-9, sunday 11-6",,,
"VISALIA,CA",,4009 S Mooney Blvd,,Visalia,CA,93277,United States,(559) 732-5936,,,"Monday-Saturday 9-9, sunday 11-6",,,
"Victorville, CA",,14130 Bear Valley Road,,Victorville,CA,92392,United States,(760) 951-7048,,,"Monday-Saturday 9-9, sunday 11-6",,,
"Ventura, CA",,4860 Telephone Road,,Ventura,CA,93003,United States,(805) 642-1072,,,"Monday-Saturday 9-9, sunday 10:30-6:30",,,
"Valencia, CA",,24280 VALENCIA BLVD,,VALENCIA,CA,91355,United States,(661) 255-5148,,,"Monday-Saturday 9-9, sunday 11-6",,,
"Vacaville, CA",,1615 E MONTE VISTA AVE,,VACAVILLE,CA,95688,United States,(707) 452-0934,,,"Monday-Saturday 9-9, sunday 11-6",,,
"Union City, CA",,32109 Union Landing Blvd,,Union City,CA,94587,United States,(510) 475-1067,,,"Monday-Saturday 9-9, sunday 11-6",,,
"Upland, CA",,1895 North Campus Avenue,,Upland,CA,91784,United States,(909) 920-6719,,,"Monday-Saturday 9-9, sunday 11-6",,,
"Torrance, CA",,19510 HAWTHORNE BLVD,,TORRANCE,CA,90503,United States,(310) 921-3574,,,"Monday-Saturday 9-9, sunday 11-6",,,
"Thousand Oaks, CA",,75 E Thousand Oaks Blvd,,Thousand Oaks,CA,91360,United States,(805) 418-6190,,,"Monday-Saturday 9-9, sunday 11-6",,,
"Temecula, CA",,40758 Winchester Road,,Temecula,CA,92591,United States,(951) 694-3285,,,"Monday-Saturday 9-9, sunday 11-6",,,
"Sunnyvale, CA",,126 EAST EL CAMINO REAL,,SUNNYVALE,CA,94087,United States,(408) 739-2084,,,"Monday-Saturday 9-9, sunday 11-6",,,
"Studio City, CA",,12741 VENTURA BLVD,,STUDIO CITY,CA,91604,United States,(818) 761-1826,,,"Monday-Saturday 9-9, sunday 11-6",,,
"Simi Valley, CA",,2931 COCHRAN STREET,,SIMI VALLEY,CA,93065,United States,(805) 583-5279,,,"Monday-Saturday 9-8, sunday 11-6",,,
"Seaside, CA",,1962 Del Monte Blvd,,Seaside,CA,93955,United States,(831) 392-0225,,,"Monday-Saturday 9-9, sunday 11-6",,,
"Milford, CT",,1260-1270 Boston Post Road,,Milford,CT,06460,United States,(203) 882-9231,,,"Monday-Saturday 9-9, sunday 11-6",,,
"Santa Rosa, CA",,2661 Santa Rosa Avenue,,Santa Rosa,CA,95407,United States,(707) 573-9664,,,"Monday-Saturday 9-9, sunday 11-6",,,
"Santa Monica, CA",,2838 WILSHIRE BLVD,,SANTA MONICA,CA,90403,United States,(310) 828-8138,,,"Monday-Saturday 10-8, sunday 11-6",,,
"Costa Mesa, CA",,3929 South Bristol Street,,SANTA ANA,CA,92704,United States,(714) 424-9515,,,"Monday-Saturday 9-9, sunday 11-6",,,
"San Yisidro, CA",,3975 CAMINO DE LA PLAZA,,SAN YSIDRO,CA,92173,United States,(619) 690-9211,,,"Monday-Saturday 10-9, sunday 11-6",,,
"Westgate, CA",,1692 SARATOGA AVE,,SAN JOSE,CA,95129,United States,(408) 379-1406,,,"Monday-Saturday 9-9, sunday 11-6",,,
"San Luis Obispo, CA",,1507 Froom Ranch Way,,San Luis Obispo,CA,93401,United States,(805) 547-1216,,,"Monday-Saturday 9-8, sunday 11-6",,,
"San Jose, CA",,3150 Stevens Creek Boulevard,,San Jose,CA,95117,United States,(408) 247-3498,,,"Monday-Saturday 9-9, sunday 11-6",,,
"Balboa-Mesa, CA",,5575 BALBOA AVE,,SAN DIEGO,CA,92111,United States,(858) 694-0346,,,"Monday-Saturday 10-9, sunday 11-6",,,
"Mount Carmel, CA",,11144 Rancho Carmel Drive,,San Diego,CA,92128,United States,(858) 674-1084,,,"Monday-Saturday 9-8, sunday 11-6",,,
"Potrero, CA",,2300 16TH STREET,,SAN FRANCISCO,CA,94103,United States,(415) 255-9544,,,"Monday-Saturday 9-9, sunday 11-6",,,
"San Diego, CA",,3111 Sports Arena Blvd,,San Diego,CA,92110,United States,(619) 758-0831,,,"Monday-Saturday 9-9, sunday 11-6",,,
"South Gate, CA",,4741 FIRESTONE BLVD,,SOUTH GATE,CA,90280,United States,(323) 567-2687,,,"Monday-Saturday 9-9, sunday 11-6",,,
"Salinas, CA",,1974 N. MAIN STREET,,SALINAS,CA,93906,United States,(831) 449-2230,,,"Monday-Saturday 9-9, sunday 11-6",,,
"Arden Way Sacramento, CA",,1740 ARDEN WAY,,SACRAMENTO,CA,95815,United States,(916) 921-5643,,,"Monday-Saturday 9-9, sunday 11-6",,,
"Roseville, CA",,1230 Roseville Pkwy,,Roseville,CA,95678,United States,(916) 771-5559,,,"Monday-Saturday 9-9, sunday 11-6",,,
"San Jose-Blossom Hill, CA",,5592-A Santa Teresa Boulevard,,San Jose,CA,95123,United States,(408) 629-3278,,,"Monday-Saturday 9-9, sunday 11-6",,,
"Riverside, CA",,3660 CENTRAL AVE,,RIVERSIDE,CA,92506,United States,(951) 684-4970,,,"Monday-Saturday 9-9, sunday 11-6",,,
"Redwood City, CA",,1200 EL CAMINO REAL,,REDWOOD CITY,CA,94062,United States,(650) 701-0273,,,"Monday-Saturday 9-9, sunday 11-6",,,
"Rancho Cucamonga, CA",,12181 Foothill Blvd.,,Rancho Cucamonga,CA,91739,United States,(909) 646-7146,,,"Monday-Saturday 9-9, sunday 11-6",,,
"Moreno Valley, CA",,2692 CANYON SPRINGS PKWY,,RIVERSIDE,CA,92507,United States,(951) 653-3270,,,"Monday-Saturday 9-9, sunday 11-6",,,
"Redding, CA",,1315 CHURN CREEK RD,,REDDING,CA,96003,United States,(530) 223-3094,,,"Monday-Saturday 9-9, sunday 11-6",,,
"Redlands, CA",,27310 Lugonia Avenue,,Redlands,CA,92374,United States,(909) 793-9520,,,"Monday-Saturday 9-9, sunday 11-6",,,
"Pleasant Hill, CA",,2152 CONTRA COSTA BLVD,,PLEASANT HILL,CA,94523,United States,(925) 691-5154,,,"Monday-Saturday 9-9, sunday 11-6",,,
"Pinole, CA",,1471 Fitzgerald Drive,,Pinole,CA,94564,United States,(510) 223-4681,,,"Monday-Saturday 9-9, sunday 11-6",,,
"Pasadena, CA",,181 South Lake Avenue,,PASADENA,CA,91109,United States,(626) 405-0209,,,"Monday-Saturday 9-9, sunday 11-6",,,
"East Pasadena, CA",,3535 E FOOTHILL BLVD,,PASADENA,CA,91107,United States,(626) 351-9560,,,"Monday-Saturday 9-9, sunday 11-6",,,
"Orange, CA",,1300 N. TUSTIN AVENUE,,ORANGE,CA,92867,United States,(714) 771-2205,,,"Monday-Saturday 10-8, sunday 11-6",,,
"Main Place, CA",,655 South Main Street,,ORANGE,CA,92868,United States,(714) 564-0660,,,"Monday-Saturday 10-8, sunday 11-6",,,
"Oceanside, CA",,2641-A VISTA WAY,,OCEANSIDE,CA,92054,United States,(760) 433-4109,,,"Monday-Saturday 9-9, sunday 11-6",,,
"Northridge,CA",,9100 Tampa Avenue,,Northridge,CA,91324,United States,(818) 718-6514,,,"Monday-Saturday 9-9, sunday 11-6",,,
"Napa, CA",,1735-A TRANCAS STREET,,NAPA,CA,94558,United States,(707) 254-9060,,,"Monday-Saturday 9-9, sunday 11-6",,,
"Modesto, CA",,3801 Pelandale Ave,,Modesto,CA,95356,United States,(209) 545-9138,,,"Monday-Saturday 9-9, sunday 11-6",,,
"Mission Viejo, CA",,28211 Marguerite Parkway,,Mission Viejo,CA,92692,United States,(949) 347-1915,,,"Monday-Saturday 9-8, sunday 11-6",,,
"Menifee, CA",,30120 Haun Raod,,Menifee,CA,92584,United States,(951) 672-4097,,,"Monday-Saturday 9-9, sunday 11-6",,,
"Palm Desert, CA",,72333 Highway 111,,Palm Desert,CA,92260,United States,(760) 341-8457,,,"Monday-Saturday 9-9, sunday 11-6",,,
"Manhattan Beach, CA",,1800-G Rosecrans Blvd.,,MANHATTAN BEACH,CA,90266,United States,(310) 643-5634,,,"Monday-Saturday 9-9, sunday 11-6",,,
"Marina Del Rey, CA",,13376 Washington Blvd,,Los Angeles,CA,90066,United States,(310) 301-3590,,,"Monday-Saturday 9-9, sunday 11-6",,,
"Los Altos, CA",,4756 El Camino Real,,Los Altos,CA,94022,United States,(650) 559-7780,,,"Monday-Saturday 9-9, sunday 11-6",,,
"Fairfax, CA",,101 North Fairfax Avenue,,Los Angeles,CA,90036,United States,(323) 936-6839,,,"Monday-Saturday 9-9, sunday 11-6",,,
"Long Beach, CA",,5600 E 7th Street,,Long Beach,CA,90814,United States,(562) 494-3804,,,"Monday-Saturday 9-9, sunday 11-6",,,
"Lakewood, CA",,4327 CANDLEWOOD STREET,,LAKEWOOD,CA,90712,United States,(562) 531-1580,,,"Monday-Saturday 9-9, sunday 11-6",,,
"La Verne, CA",,2298 FOOTHILL BLVD,,LA VERNE,CA,91750,United States,(909) 596-3615,,,"Monday-Saturday 9-9, sunday 11-6",,,
"La Quinta, CA",,78-692 HIGHWAY 111,,LA QUINTA,CA,92253,United States,(760) 564-5987,,,"Monday-Saturday 9-9, sunday 11-6",,,
"Palmdale, CA",,39256 10th Street West,,Palmdale,CA,93551,United States,(661) 273-9864,,,"Monday-Saturday 9-9, sunday 11-6",,,
"La Mesa, CA",,5500 Grossmont Center Drive,,La Mesa,CA,91942,United States,(619) 667-3590,,,"Monday-Saturday 9-9, sunday 11-6",,,
"Huntington Beach, CA",,7672 Edinger Avenue,,Huntington Beach,CA,92647,United States,(714) 847-7651,,,"Monday-Saturday 9-9, sunday 11-6",,,
"Corte Madera, CA",,2062 Redwood Highway,,Greenbrae,CA,94904,United States,(415) 924-2141,,,"Monday-Saturday 9-9, sunday 10-6",,,
"Goleta, CA",,6900 HOLLISTER AVE,,GOLETA,CA,93117,United States,(805) 562-3590,,,"Monday-Saturday 9-9, sunday 11-6",,,
"Irvine, CA",,13662 JAMBOREE ROAD,,IRVINE,CA,92602,United States,(714) 734-3684,,,"Monday-Saturday 9-8, sunday 11-6",,,
"Gilroy, CA",,6965 Camino Arroyo Circle,,Gilroy,CA,95020,United States,(408) 848-0327,,,"Monday-Saturday 9-9, sunday 11-6",,,
"Fresno, CA",,7641 N. Blackstone Ave,,Fresno,CA,93720,United States,(559) 436-8204,,,"Monday-Saturday 9-9, sunday 11-6",,,
"Glendale, CA",,401 North Glendale Avenue,,Glendale,CA,91206,United States,(818) 240-3679,,,"Monday-Saturday 9-9, sunday 11-6",,,
"Fremont, CA",,43425 CHRISTY STREET,,FREMONT,CA,94538,United States,(510) 661-9815,,,"Monday-Saturday 9-9, sunday 11-6",,,
"Folsom, CA",,2405 IRON POINT RD,,FOLSOM,CA,95630,United States,(916) 983-3529,,,"Monday-Saturday 9-9, sunday 11-6",,,
"Encino, CA",,16624 VENTURA BLVD,,ENCINO,CA,91436,United States,(818) 386-0284,,,"Monday-Saturday 9-9, sunday 11-6",,,
"Encinitas, CA",,110 N. El Camino Real,,Encinitas,CA,92024,United States,(760) 753-1956,,,"Monday-Saturday 9-9, sunday 11-6",,,
"Elk Grove, CA",,8255 LAGUNA BLVD,,ELK GROVE,CA,95758,United States,(916) 684-0099,,,"Monday-Saturday 9-9, sunday 11-6",,,
"El Centro, CA",,500 E. DANENBERG DR,,EL CENTRO,CA,92243,United States,(760) 353-1282,,,"Monday-Saturday 10-9, sunday 11-6",,,
"Dublin, CA",,3734 FALLON RD,,DUBLIN,CA,94568,United States,(925) 875-9136,,,"Monday-Saturday 9-9, sunday 11-6",,,
"Cupertino,CA",,20803 STEVENS CREEK BLVD,,CUPERTINO,CA,95014,United States,(408) 873-8461,,,"Monday-Saturday 9-9, sunday 11-6",,,
"Downey, CA",,12136 LAKEWOOD BLVD,,DOWNEY,CA,90242,United States,(562) 803-7854,,,"Monday-Saturday 9-9, sunday 11-6",,,
"Newport Beach,CA",,462 EAST 17TH ST,,COSTA MESA,CA,92627,United States,(949) 650-0079,,,"Monday-Saturday 10-8, sunday 11-6",,,
"Corona, CA",,3539 Grand Oaks,,Corona,CA,92881,United States,(951) 279-5283,,,"Monday-Saturday 9-9, sunday 11-6",,,
"Colma, CA",,115 COLMA BLVD,,COLMA,CA,94014,United States,(650) 756-2257,,,"Monday-Saturday 9-9, sunday 11-6",,,
"Clovis, CA",,1205 HERNDON AVE,,CLOVIS,CA,93612,United States,(559) 324-8606,,,"Monday-Saturday 9-9, sunday 11-6",,,
"City of Industry, CA",,17501 Colima Road,,City Of Industry,CA,91748,United States,(626) 810-8381,,,"Monday-Saturday 9-9, sunday 11-6",,,
"Citrus Heights, CA",,6147 Sunrise Boulevard,,Citrus Heights,CA,95610,United States,(916) 725-1616,,,"Monday-Saturday 9-9, sunday 11-6",,,
"Brea, CA",,299 South Randolph Street,,Brea,CA,92821,United States,(714) 257-9971,,,"Monday-Saturday 9-9, sunday 11-6",,,
"Chino, CA",,4005 GRAND AVE,,CHINO,CA,91710,United States,(909) 590-7278,,,"Monday-Saturday 9-9, sunday 11-6",,,
"Bakersfield, CA",,5300 Stockdale Highway,,Bakersfield,CA,93309,United States,(661) 634-9789,,,"Monday-Saturday 9-9, sunday 11-6",,,
"Antioch, CA",,5779 Lone Tree Way,,Antioch,CA,94531,United States,(925) 706-8982,,,"Monday-Saturday 9-9, sunday 11-6",,,
"Fairfield, CT",,2183 BLACK ROCK TURNPIKE,,FAIRFIELD,CT,06825,United States,(203) 335-0581,,,"Monday-Saturday 9-7, sunday 10-6",,,
"Aliso Viejo, CA",,26831 Aliso Creek Road,,Aliso Viejo,CA,92656,United States,(949) 349-0690,,,"Monday-Saturday 9-9, sunday 11-6",,,
Enfield CT,,103 ELM STREET,,ENFIELD,CT,06083,United States,(860) 253-9082,,,"Monday-Saturday 9-9, sunday 11-6",,,
"Canton, CT",,110 Albany Turnpike,,Canton,CT,06019,United States,(860) 693-1137,,,"Monday-Saturday 10-9, sunday 11-6",,,
"Danbury, CT",,21 Federal Road,,Brookfield,CT,06804,United States,(203) 775-3103,,,"Monday-Saturday 9-9, sunday 11-6",,,
"Kirkwood Highway, DE",,3847 Kirkwood Highway,,Wilmington,DE,19808,United States,(302) 993-1374,,,"Monday-Saturday 9-9, sunday 11-6",,,
"West Hartford, CT",,1600 S East Road,,Farmington,CT,06032,United States,(860) 674-9057,,,"Monday-Saturday 9-9, sunday 11-6",,,
"Concord Pike, DE",,4609 Concord Pike,,Wilmington,DE,19803,United States,(302) 479-9080,,,"Monday-Saturday 9-9, sunday 11-6",,,
"Dover, DE",,1141 N. DUPPONT HIGHWAY,,DOVER,DE,19901,United States,(302) 734-8041,,,"Monday-Saturday 10-9, sunday 11-6",,,
Dakota Crossing Washington DC,,2460 MARKET ST NE,,WASHINGTON,DC,20018,United States,(202) 269-0809,,,"Monday-Saturday 10-9, sunday 11-6",,,
"DC - USA, DC",,3100 NW 14th Street,,Washington,DC,20010,United States,(202) 588-7034,,,"Monday-Saturday 9-8, sunday 11-6",,,
"Springfield, MO",,1315 EAST BATTLE FIELD RD,,SPRINGFIELD,MO,65804,United States,(417) 887-1302,,,"Monday-Saturday 9-9, sunday 11-6",,,
"St. Louis, MO",,7025 S LINDBERGH BLVD,,SAINT LOUIS,MO,63125,United States,(314) 845-1671,,,"Monday-Saturday 9-9, sunday 11-6",,,
"St. Peter, MO",,338 MID RIVERS CENTER DRIVE,,SAINT PETERS,MO,63376,United States,(636) 278-1201,,,"Monday-Saturday 9-9, sunday 11-6",,,
"Lee's Summit, MO",,905NW CHIPMAN RD,,LEES SUMMIT,MO,64063,United States,(816) 554-0348,,,"Monday-Saturday 9-9, sunday 11-6",,,
"Kansas City, MO",,9 W 62nd TERRACE,,KANSAS CITY,MO,64113,United States,816-363-1223,,,"Monday-Saturday 9-9, sunday 11-6",,,
"Kansas City, MO",,8948 NW Skyview Ave,,Kansas City,MO,64154,United States,(816) 746-1921,,,"Monday-Saturday 9-9, sunday 11-6",,,
"Independence, MO",,17820 E 39th Street South,,Independence,MO,64055,United States,(816) 478-3580,,,"Monday-Saturday 9-9, sunday 11-6",,,
"Brentwood, MO",,1490 S. HANLEY RD.,,BRENTWOOD,MO,63144,United States,(314) 647-2548,,,"Monday-Saturday 9-9, sunday 11-6",,,
Las Vegas (Rainbow) NV,,7040 S. RAINBOW BLVD.,,LAS VEGAS,NV,89113,United States,(702) 534-1663,,,"Monday-Saturday 9-9, sunday 11-6",,,
"Flamingo  and  Grand, NV",,4115 SOUTH GRAND CANYON DRIVE,,LAS VEGAS,NV,89147,United States,(702) 257-0379,,,"Monday-Saturday 9-8, sunday 11-6",,,
"Summerlin, NV",,8820 W Charleston Blvd   #102 Pad J,,Las Vegas,NV,89117,United States,(702) 586-3671,,,"Monday-Saturday 9-9, sunday 11-6",,,
"Henderson, NV",,10251 SOUTH EASTERN AVENUE,,HENDERSON,NV,89052,United States,(702) 407-0357,,,"Monday-Saturday 9-9, sunday 11-6",,,
"Henderson, NV",,1205 West Sunset Road,,Henderson,NV,89014,United States,(702) 263-2168,,,"Monday-Saturday 9-8, sunday 11-6",,,
"Seabrook,NH",,652 LAFAYETTE ROAD,,SEABROOK,NH,03874,United States,(603) 474-0126,,,"Monday-Saturday 9-9, sunday 11-6",,,
"Salem, NH",,291 SOUTH BROADWAY,,SALEM,NH,03079,United States,(603) 890-4669,,,"Monday-Saturday 9-9, sunday 11-6",,,
"Portsmouth, NH",,1600 Woodbury Ave,,Portsmouth,NH,03801,United States,(603) 430-9402,,,"Monday-Saturday 10-8, sunday 11-6",,,
"Nashua, NH",,274 Daniel Webster Highway,,Nashua,NH,03060,United States,(603) 888-2631,,,"Monday-Saturday 9-8, sunday 11-6",,,
"Manchester, NH",,1753 South Willow Street,,Manchester,NH,03103,United States,(603) 625-1425,,,"Monday-Saturday 9-9, sunday 11-6",,,
"Concord,NH",,240 LOUDON ROAD,,CONCORD,NH,03302,United States,(603) 224-0450,,,"Monday-Saturday 9-9, sunday 11-6",,,
"Watchung, NJ",,1579 Highway 22 West,,Watchung,NJ,07069,United States,(908) 322-1240,,,"Monday-Saturday 9-9, sunday 10-6",,,
"Voorhees,NJ",,148 ROUTE 73,,VOORHEES,NJ,08043,United States,(856) 809-0106,,,"Monday-Saturday 10-9, sunday 11-6",,,
"Turnersville, NJ",,610 CROSS KEYS ROAD,,SICKLERVILLE,NJ,08081,United States,(856) 740-5080,,,"Monday-Saturday 10-9, sunday 11-6",,,
"Ramsey, NJ",,984 ROUTE 17 NORTH,,RAMSEY,NJ,07446,United States,(201) 327-2932,,,"Monday-Saturday 9-9, sunday 11-6",,,
"Raritan, NJ",,397 Rt. 28,,RARITAN,NJ,08869,United States,(908) 231-7589,,,"Monday-Saturday 9-9, sunday 11-6",,,
"Princeton, NJ",,721 Nassau Park Boulevard,,PRINCETON,NJ,08540,United States,(609) 716-9400,,,"Monday-Saturday 9-9, sunday 11-6",,,
"Rt 17 Paramus, NJ",,556 Route 17 North,,Paramus,NJ,07652,United States,(201) 447-0055,,,"Monday-Saturday 9-9, sunday 11-5",,,
"Las Vegas, NV",,6640 N. DURANGO DRIVE,,LAS VEGAS,NV,89149,United States,(702) 396-1018,,,"Monday-Saturday 9-9, sunday 11-6",,,
"Rt 4 Paramus, NJ",,137 Route 4 West,,Paramus,NJ,07652,United States,(201) 556-1117,,,"Monday-Saturday 9-9, sunday 11-5",,,
"Toms River, NJ",,1232 Hooper Avenue,,Toms River,NJ,08753,United States,(732) 244-4444,,,"Monday-Saturday 9-9, sunday 11-6",,,
BDS RUSH SHIPMENT 170,,2101 91st Street,,NORTH BERGEN,NJ,07047,United States,,,,,,,
"Union, NJ",,2702 Route 22 West,,Union,NJ,07083,United States,(908) 624-9115,,,"Monday-Saturday 9-9, sunday 10-6",,,
"North Bergen, NJ",,2100 88th Street,,North Bergen,NJ,07047,United States,(201) 758-0404,,,"Monday-Saturday 9-9, sunday 11-6",,,
"BDS locaiton, #714",,2101 91st st,,NORTH BERGEN,NJ,07047,United States,,,,,,,
"Mount Laurel, NJ",,1490 Nixon Drive,,Mount Laurel,NJ,08054,United States,(856) 234-4488,,,"Monday-Saturday 9-9, sunday 11-6",,,
"Marlboro, NJ",,67 US HWY 9,,MORGANVILLE,NJ,07751,United States,(732) 972-1251,,,"Monday-Saturday 9-9, sunday 11-6",,,
"Vineland,NJ",,2229 NORTH 2ND ST,,MILLVILLE,NJ,08332,United States,(856) 825-0479,,,"Monday-Saturday 9-9, sunday 11-6",,,
"Woodbridge, NJ",,185 Route 1 South,,Metuchen,NJ,08840,United States,(732) 635-1790,,,"Monday-Saturday 9-9, sunday 11-6",,,
"Mays Landing, NJ",,2300 Wrangleboro Road,,Mays Landing,NJ,08330,United States,(609) 646-1062,,,"Monday-Friday 9-9, Saturday 9-8, sunday 11-6",,,
"Manahawkin, NJ",,237 Stafford Park Blvd,,Manahawkin,NJ,08050,United States,(609) 978-2975,,,"Monday-Friday 9-9, Saturday 9-8, sunday 11-6",,,
"Ledgewood, NJ",,450 Route 10 West,,Ledgewood,NJ,07852,United States,(973) 598-9901,,,"Monday-Saturday 9-9, sunday 11-6",,,
"Little Falls, NJ",,1565 Route 46 East,,Little Falls,NJ,07424,United States,(973) 785-4700,,,"Monday-Saturday 9-9, sunday 10-7",,,
"Holmdel, NJ",,2128 Highway RT. 35,,Holmdel,NJ,07733,United States,(732) 275-6800,,,"Monday-Saturday 9-9, sunday 11-6",,,
"Freehold, NJ",,3681 Route 9 North,,Freehold,NJ,07728,United States,(732) 866-8885,,,"Monday-Friday 9-9, Saturday 9-8, sunday 10-6",,,
"Edgewater, NJ",,12 Promenade,,Edgewater,NJ,07020,United States,(201) 945-5967,,,"Monday-Saturday 9-9, sunday 11-6",,,
"Eatontown, NJ",,41 Highway Route 36,,Eatontown,NJ,07724,United States,(732) 389-7523,,,"Monday-Saturday 9-9, sunday 11-6",,,
"East Rutherford, NJ",,130 RTE 17 NORTH,,EAST RUTHERFORD,NJ,07073,United States,(201) 460-3405,,,"Monday-Saturday 9-9, sunday 11-6",,,
"East Hanover, NJ",,327 Route 10,,East Hanover,NJ,07936,United States,(973) 428-8606,,,"Monday-Saturday 9-9, sunday 11-6",,,
"East Brunswick, NJ",,415 Highway 18 South,,East Brunswick,NJ,08816,United States,(732) 698-9001,,,"Monday-Saturday 9-9, sunday 11-6",,,
