store_name,store_number,address,address2,city,state,zip_code,country,phone_number,latitude,longitude,store_hours,store_type,other_fields,coming_soon
"Dallas, TX (Addison)",,4520 Frankford Road Suite 100A,,Dallas,TX,75287,United States,214-484-4392,,,Mon-Sun: 7:00 AM - 2:00 PM,,,
"Alpharetta, GA",,4075 Old Milton Parkway,,Alpharetta,GA,30005,United States,770-837-3440,,,Mon-Sun: 7:00 AM - 2:00 PM,,,
"Asheville, NC",,27 Schneck Parkway,,Asheville,NC,28803,United States,828-676-2823,,,Mon-Sun: 7:00 AM - 2:00 PM,,,
"Miamisburg, OH (Austin Landing)",,3450 Rigby Road,,Miamisburg,OH,45342,United States,937-866-4510,,,Mon-Sun: 7:00 AM - 2:00 PM,,,
"Charlotte, NC (Ballantyne)",,11324 North Community House Road,,Charlotte,NC,28277,United States,980-207-4407,,,Mon-Sun: 7:00 AM - 2:00 PM,,,
"Baton Rouge, LA (Citiplace)",,"2531 Citiplace Court, Suite 100",,Baton Rouge,LA,70808,United States,225-615-8461,,,Mon-Sun: 7:00 AM - 2:00 PM,,,
"Baton Rouge, LA (Downtown)",,555 Lafayette St,,Baton Rouge,LA,70802,United States,225-960-7191,,,Mon-Sun: 6:30 AM - 2:00 PM,,,
"Baton Rouge, LA (Perkins)",,9655 Perkins Road,,Baton Rouge,LA,70810,United States,225-757-5793,,,Mon-Sun: 7:00 AM - 2:00 PM,,,
"Mountain Brook, AL (Birmingham)",,2418 Montevallo Rd,,Mountain Brook,AL,35223,United States,205-871-7849,,,Mon-Fri: 6:30 AM - 2:00 PM Sat-Sun: 7:00 AM - 2:00 PM,,,
"Boca Raton, FL",,"508 Via DePalmas, Suite 76",,Boca Raton,FL,33432,United States,561-405-6940,,,Mon-Sun: 7:00 AM - 2:00 PM,,,
"Atlanta, GA (Buckhead)",,2355 Peachtree Road Northeast,,Atlanta,GA,30305,United States,404-254-0219,,,Mon-Sun: 7:00 AM - 2:00 PM,,,
"Burbank, CA",,250 East Olive Avenue,,Burbank,CA,91502,United States,818-563-3344,,,Mon-Sun: 7:00 AM - 2:00 PM,,,
"Cary, NC",,1103 Parkside Main Street,,Cary,NC,27519,United States,919-466-0718,,,Mon-Sun: 7:00 AM - 2:00 PM,,,
"Charleston, SC",,"99 Market Street, Suite 4",,Charleston,SC,29401,United States,843-202-0417,,,Mon-Sun: 7:00 AM - 2:00 PM,,,
"Clearwater, FL",,2554 North McMullen Booth Road,,Clearwater,FL,33761,United States,727-240-0655,,,Mon-Sun: 7:00 AM - 2:00 PM,,,
"Dallas, TX",,1152 North Buckner Boulevard,,Dallas,TX,75218,United States,214-954-7182,,,Mon-Sun: 7:00 AM - 2:00 PM,,,
"Delray Beach, FL",,"430 East Linton Boulevard, Suite 900",,Delray Beach,FL,33483,United States,561-276-7466,,,Mon-Sun: 7:00 AM - 2:00 PM,,,
"Destin, FL",,"979 Highway 98 East, Suite F",,Destin,FL,32541,United States,850-650-0499,,,Mon-Sun: 7:00 AM - 2:00 PM,,,
"Atlanta, GA (Dunwoody)",,4745B Ashford Dunwoody Road,,Atlanta,GA,30338,United States,770-408-0110,,,Mon-Sun: 7:00 AM - 2:00 PM,,,
"Durham, NC",,"2608 Erwin Road, Suite 120",,Durham,NC,27705,United States,919-381-5172,,,Mon-Sun: 7:00 AM - 2:00 PM,,,
"Fairhope, AL",,300 Fairhope Avenue,,Fairhope,AL,36532,United States,251-210-6901,,,Mon-Sun: 7:00 AM - 2:00 PM,,,
"Santa Rosa Beach, FL (Grayton Beach)",,51 Uptown Grayton Circle,,Santa Rosa Beach,FL,32459,United States,850-231-7835,,,Mon-Sun: 7:30 AM - 2:00 PM,,,
"Greenville, SC",,1025 Woodruff Road,,Greenville,SC,29067,United States,864-627-7710,,,Mon-Sun: 7:00 AM - 2:00 PM,,,
"Houston, TX",,"118 A Vintage Park Boulevard, Building G",,Houston,TX,77070,United States,281-257-3447,,,Mon-Sun: 7:00 AM - 2:00 PM,,,
"Pearland, TX",,"2510 Smith Ranch Road, Suite 109",,Pearland,TX,77584,United States,713-436-3447,,,Mon-Sun: 7:00 AM - 2:00 PM,,,
"Huntsville, AL",,2722 Carl T Jones Drive,,Huntsville,AL,35802,United States,256-883-2915,,,Mon-Sun: 7:00 AM - 2:00 PM,,,
"Indianapolis, IN",,9435 North Meridian Street,,Indianapolis,IN,46260,United States,317-818-1700,,,Mon-Sun: 7:00 AM - 2:00 PM,,,
"Jacksonville, FL",,"4828 Deer Lake Drive West, Suite C11",,Jacksonville,FL,32246,United States,904-516-4757,,,Mon-Sun: 7:00 AM - 2:00 PM,,,
"Atlanta, GA (Johns Creek)",,11030 Medlock Bridge Road #110,,Atlanta,GA,30097,United States,770-232-1572,,,Mon-Sun: 7:00 AM - 2:00 PM,,,
"Jupiter, FL",,117 North Coastal Way,,Jupiter,FL,33477,United States,561-406-6556,,,Mon-Sun: 7:00 AM - 2:00 PM,,,
"Lafayette, LA",,112 Rue Promenade,,Lafayette,LA,70508,United States,337-504-3365,,,Mon-Sun: 7:00 AM - 2:00 PM,,,
"Lake Mary, FL",,920 International Parkway,,Lake Mary,FL,32746,United States,321-363-0548,,,Mon-Sun: 7:00 AM - 2:00 PM,,,
"Lakewood Ranch, FL",,6115 Exchange Way,,Lakewood Ranch,FL,34202,United States,941-388-6898,,,Mon-Sun: 7:00 AM - 2:00 PM,,,
"Mandeville, LA",,"1901 Highway 190, Suite 7",,Mandeville,LA,70448,United States,985-951-2246,,,Mon-Sun: 7:00 AM - 2:00 PM,,,
"Memphis, TN (Park Avenue)",,6063 Park Avenue,,Memphis,TN,38119,United States,901-729-7020,,,Mon-Sun: 7:00 AM - 2:00 PM,,,
"Memphis, TN (South Highland)",,65 South Highland Street,,Memphis,TN,38111,United States,901-623-7122,,,Mon-Sun: 7:00 AM - 2:00 PM,,,
"Miramar Beach, FL",,"755 Grand Boulevard, Suite B-107",,Miramar Beach,FL,32550,United States,850-424-3416,,,Mon-Sun: 7:00 AM - 2:00 PM,,,
"Morrisville, NC",,1121 Market Center Drive,,Morrisville,NC,27560,United States,919-465-1079,,,Mon-Sun: 7:00 AM - 2:00 PM,,,
"Mt. Pleasant, SC",,608-A Long Point Road,,Mount Pleasant,SC,29464,United States,843-352-9833,,,Mon-Sun: 7:00 AM - 2:00 PM,,,
"Naples, FL",,670 Tamiami Trail North,,Naples,FL,34102,United States,239-300-0696,,,Mon-Sun: 7:00 AM - 2:00 PM,,,
"Nashville, TN",,208 Commerce Street,,Nashville,TN,37201,United States,615-913-3923,,,Mon-Sun: 7:00 AM - 2:00 PM,,,
"New Orleans, LA (Harrison Avenue)",,607 Harrison Avenue,,New Orleans,LA,70124,United States,504-301-4667,,,Mon-Sun: 7:00 AM - 2:00 PM,,,
"New Orleans, LA (Magazine Street)",,2917 Magazine Street,,New Orleans,LA,70115,United States,504-301-2771,,,Mon-Sun: 7:00 AM - 2:00 PM,,,
"Orange Beach, AL",,"25910 Canal Road, Suite K",,Orange Beach,AL,36561,United States,251-981-7780,,,Mon-Sun: 7:00 AM - 2:00 PM,,,
"North Beach Clearwater, FL",,470 Poinsettia Ave,,Clearwater Beach,FL,33767,United States,727-240-4682,,,Mon-Sun: 7:00 AM - 2:00 PM,,,
"Owensboro, KY",,701 West 1st Street,,Owensboro,KY,42301,United States,270-691-8960,,,Mon-Sun: 7:00 AM - 2:00 PM,,,
"Panama City Beach, FL",,11535 Hutchison Boulevard,,Panama City Beach,FL,32407,United States,850-249-2007,,,Mon-Sun: 7:00 AM - 2:00 PM,,,
"Pembroke Pines, FL",,175 Hiatus Road,,Pembroke Pines,FL,33026,United States,954-438-7256,,,Mon-Sun: 7:00 AM - 2:00 PM,,,
"Pensacola, FL",,721 East Gregory Street,,Pensacola,FL,32502,United States,850-912-8347,,,Mon-Sun: 7:00 AM - 2:00 PM,,,
"Raleigh, NC",,"160 Park at North Hills Street, Suite 127",,Raleigh,NC,27609,United States,919-307-8195,,,Mon-Sun: 7:00 AM - 2:00 PM,,,
"Ridgeland, MS",,"1000 Highland Colony Parkway, Suite 1009",,Ridgeland,MS,39157,United States,601-790-9170,,,Mon-Sun: 7:00 AM - 2:00 PM,,,
"Roswell, GA",,"10800 Alpharetta Hwy, Suite 501",,Roswell,GA,30076,United States,678-878-2210,,,Mon-Sun: 7:00 AM - 2:00 PM,,,
"Sandestin Village, FL",,"9100 Baytowne Wharf Boulevard, Suite A-4",,Sandestin,FL,32550,United States,850-622-2050,,,Mon-Sun: 7:00 AM - 2:00 PM,,,
"Shenandoah, TX",,"19075 Interstate 45, Suite 102",,Shenandoah,TX,77385,United States,936-273-2011,,,Mon-Sun: 7:00 AM - 2:00 PM,,,
"Siesta Key, FL",,140 Avenida Messina,,Siesta Key,FL,34242,United States,941-552-8320,,,Mon-Sun: 7:00 AM - 2:00 PM,,,
"Southlake, TX",,410 West Southlake Blvd. Suite 160,,Southlake,TX,76092,United States,817-912-1506,,,Mon-Sun: 7:00 AM - 2:00 PM,,,
"Tampa, FL",,4041 S. Dale Mabry Highway,,Tampa,FL,33611,United States,813-769-9906,,,Mon-Sun: 7:00 AM - 2:00 PM,,,
"The Colony, TX",,3700 Plano Parkway,,The Colony,TX,75056,United States,972-668-4073,,,Mon-Sun: 7:00 AM - 2:00 PM,,,
"Tuscaloosa, AL",,1650 Jack Warner Parkway,,Tuscaloosa,AL,35401,United States,205-750-2120,,,Mon-Sun: 6:30 AM - 2:00 PM,,,
"Vinings, GA",,4300 Paces Ferry Road,,Vinings,GA,30339,United States,770-384-0012,,,Mon-Sun: 7:00 AM - 3:00 PM,,,
"West Lafayette, IN",,516 Northwestern Avenue,,West Lafayette,IN,47906,United States,765-250-3861,,,Mon-Fri: 7:00 AM - 4:00 PM; Sat-Sun: 7:00 AM - 2:00 PM,,,
"Winter Park, FL",,"410 North Orlando Avenue, Suite N100A",,Winter Park,FL,32789,United States,407-790-7868,,,Mon-Sun: 7:00 AM - 2:00 PM,,,
"Madison, AL",,"7504 Highway 72 West, Suite A1",,Madison,AL,35758,United States,256-430-5476,,,Mon-Sun: 7:00 AM - 2:00 PM,,,
"Shreveport, LA",,"855 Pierremont Road, Suite 132",,Shreeport,LA,71106,United States,318-865-1124,,,Mon-Sun: 7:00 AM - 2:00 PM,,,
