store_name,store_number,address,address2,city,state,zip_code,country,phone_number,latitude,longitude,store_hours,store_type,other_fields,coming_soon
DKNY Costa Mesa,,3333 Bristol Street,Suite #1616,Costa Mesa,CA,92626,US,714.557.4408,,," 10:00 AM - 9:00 PM,  10:00 AM - 9:00 PM,  10:00 AM - 9:00 PM,  10:00 AM - 9:00 PM,  10:00 AM - 9:00 PM,  10:00 AM - 8:00 PM,  10:00 AM - 6:30 PM",,,
DKNY Las Vegas,,3500 Las Vegas Boulevard,Suite N-12,Las Vegas,NV,89109,US,702.650.9670,,," 10:00 AM - 11:00 PM,  10:00 AM - 11:00 PM,  10:00 AM - 11:00 PM,   - ,  10:00 AM - 12:00 AM,  10:00 AM - 12:00 AM,  10:00 AM - 11:00 PM",,,
DKNY New York,,420 West Broadway,,New York,NY,10012,US,646.613.1100,,," 10:00 AM - 8:00 PM,  10:00 AM - 8:00 PM,  10:00 AM - 8:00 PM,  10:00 AM - 8:00 PM,  10:00 AM - 8:00 PM,  10:00 AM - 8:00 PM,  10:00 AM - 6:00 PM",,,
DKNY Accessories Marina Mall,,Marina Mall Ring Rd,Floor 1,Abu Dhabi,,,AE,+971.2.658.0010,,," 10:00 AM - 10:00 PM,  10:00 AM - 10:00 PM,  10:00 AM - 10:00 PM,  10:00 AM - 10:00 PM,  1:00 PM - 10:00 PM,  10:00 AM - 10:00 PM,  10:00 AM - 10:00 PM",,,
DKNY Sowwah Islands,,Al Falah St,GF,Abu Dhabi,,,AE,+971.2.679.7669,,," 10:00 AM - 12:00 AM,  10:00 AM - 12:00 AM,  10:00 AM - 12:00 AM,  10:00 AM - 12:00 AM,  10:00 AM - 12:00 AM,  10:00 AM - 12:00 AM,  10:00 AM - 12:00 AM",,,
DKNY Abu Dhabi Mall,,10th St,,Abu Dhabi,,,AE,+971.2.645.4858,,," 10:00 AM - 10:00 PM,  10:00 AM - 10:00 PM,  10:00 AM - 10:00 PM,  10:00 AM - 11:00 PM,  10:00 AM - 11:00 PM,  10:00 AM - 10:00 PM,  10:00 AM - 10:00 PM",,,
DKNY Accessories World Trade Center,,Khalifa Bin Zayed The 1st Street,GF,Abu Dhabi,,,AE,+971.2.626.1539,,," 10:00 AM - 10:00 PM,  10:00 AM - 10:00 PM,  10:00 AM - 10:00 PM,  10:00 AM - 11:00 PM,  10:00 AM - 11:00 PM,  10:00 AM - 10:00 PM,  10:00 AM - 10:00 PM",,,
DKNY Yas Mall,,Yas West,Floor 1,Abu Dhabi,,,AE,+971.2.563.0878,,," 10:00 AM - 10:00 PM,  10:00 AM - 10:00 PM,  10:00 AM - 10:00 PM,  10:00 AM - 12:00 AM,  10:00 AM - 12:00 AM,  10:00 AM - 10:00 PM,  10:00 AM - 10:00 PM",,,
DKNY Accessories Al Ain,,Othman Bin Affan St,Floor 1,Al Ain,,,AE,+971.3.737.0866,,," 10:00 AM - 10:00 PM,  10:00 AM - 10:00 PM,  10:00 AM - 10:00 PM,  10:00 AM - 12:00 AM,  10:00 AM - 12:00 AM,  10:00 AM - 10:00 PM,  10:00 AM - 10:00 PM",,,
DKNY New Burjuman,,Khalid Bin Al Waleed Rd,Floor 1,Dubai,,,AE,+971.4.351.3788,,," 10:00 AM - 12:00 AM,  10:00 AM - 12:00 AM,  10:00 AM - 12:00 AM,  10:00 AM - 11:00 PM,  10:00 AM - 11:00 PM,  10:00 AM - 12:00 AM,  10:00 AM - 12:00 AM",,,
DKNY Dubai Mall,,Financial Centre Road,GF,Dubai,,,AE,+971.4.325.3438,,," 10:00 AM - 12:00 AM,  10:00 AM - 12:00 AM,  10:00 AM - 12:00 AM,  10:00 AM - 12:00 AM,  10:00 AM - 12:00 AM,  10:00 AM - 12:00 AM,  10:00 AM - 12:00 AM",,,
DKNY Festival City,,Festival Blvd,Floor 1,Dubai,,,AE,+971.4.228.2886,,," 10:00 AM - 10:00 PM,  10:00 AM - 10:00 PM,  10:00 AM - 10:00 PM,  10:00 AM - 12:00 AM,  10:00 AM - 12:00 AM,  10:00 AM - 10:00 PM,  10:00 AM - 10:00 PM",,,
DKNY Accessories Mirdif,,Sheikh Mohammed Bin Zayed Rd,Floor 1,Dubai,,,AE,+971.4.255.9363,,," 10:00 AM - 12:00 AM,  10:00 AM - 12:00 AM,  10:00 AM - 12:00 AM,  10:00 AM - 1:00 AM,  10:00 AM - 1:00 AM,  10:00 AM - 12:00 AM,  10:00 AM - 12:00 AM",,,
DKNY Mall of Emirates,,Al Barsha 1,Floor 1,Dubai,,,AE,+971.4.341.4343,,," 10:00 AM - 11:00 PM,  10:00 AM - 11:00 PM,  10:00 AM - 11:00 PM,  10:00 AM - 11:00 PM,  10:00 AM - 11:00 PM,  10:00 AM - 11:00 PM,  10:00 AM - 11:00 PM",,,
DKNY City Center Mall,,Rd No 2819,Floor 1,Manama,,,BH,+973.171.780.60,,," 10:00 AM - 10:00 PM,  10:00 AM - 10:00 PM,  10:00 AM - 10:00 PM,  10:00 AM - 12:00 AM,  10:00 AM - 12:00 AM,  10:00 AM - 10:00 PM,  10:00 AM - 10:00 PM",,,
DKNY West Edmonton Mall,,8882 170 St NW,#2311,Edmonton,AB,T5T4J2,CA,+587.521.8338,,," 10:00 AM - 9:00 PM,  10:00 AM - 9:00 PM,  10:00 AM - 9:00 PM,  10:00 AM - 9:00 PM,  10:00 AM - 9:00 PM,  10:00 AM - 9:00 PM,  11:00 AM - 6:00 PM",,,
DKNY Oakridge Center Mall,,650 West 41st Avenue,Unit #121,Vancouver,BC,V5Z2M9,CA,+604.263.8889,,," 10:00 AM - 10:00 PM,  10:00 AM - 10:00 PM,  10:00 AM - 10:00 PM,  10:00 AM - 10:00 PM,  10:00 AM - 10:00 PM,  10:00 AM - 10:00 PM,  11:00 AM - 7:30 PM",,,
DKNY Enda B,,4346 West 10th Avenue,,Vancouver,BC,V6R2H7,CA,+604.22.1214,,," 10:00 AM - 6:00 PM,  10:00 AM - 6:00 PM,  10:00 AM - 6:00 PM,  10:00 AM - 6:00 PM,  10:00 AM - 7:00 PM,  10:00 AM - 6:00 PM,  12:00 PM - 5:00 PM",,,
DKNY Les Cours Mont - Royal,,1455 Pell Street,,Montreal,QC,H3A1T5,CA,+514.284.3569,,," 10:00 AM - 7:00 PM,  10:00 AM - 7:00 PM,  10:00 AM - 7:00 PM,  10:00 AM - 9:00 PM,  10:00 AM - 9:00 PM,  10:00 AM - 6:00 PM,  12:00 PM - 5:00 PM",,,
DKNY China World,,No. 1 Jianguomenwai Avenue,SB132,Beijing,,100004,CN,+86.10.650.526.38,,," 10:00 AM - 9:30 PM,  10:00 AM - 9:30 PM,  10:00 AM - 9:30 PM,  10:00 AM - 9:30 PM,  10:00 AM - 9:30 PM,  10:00 AM - 9:30 PM,  10:00 AM - 9:30 PM",,,
DKNY Xidan Joy City,,No. 131 North Xidan Avenue,1F Shop 1F-23A,Beijing,,100032,CN,+86.10.597.166.87,,," 10:00 AM - 10:00 PM,  10:00 AM - 10:00 PM,  10:00 AM - 10:00 PM,  10:00 AM - 10:00 PM,  10:00 AM - 10:00 PM,  9:30 AM - 10:00 PM,  9:30 AM - 10:00 PM",,,
DKNY Chaoyang Joy City,,No. 101 Chaoyang North Road,1F -19,Beijing,,100123,CN,+86.10.855.127.60,,," 10:00 AM - 10:00 PM,  10:00 AM - 10:00 PM,  10:00 AM - 10:00 PM,  10:00 AM - 10:00 PM,  10:00 AM - 10:00 PM,  10:00 AM - 10:00 PM,  10:00 AM - 10:00 PM",,,
DKNY Maison Mode,,No. 478 Furong Centre Road,BF Shop S-309,Changsha,,410007,CN,+86.731.8512.0676,,," 10:00 AM - 10:00 PM,  10:00 AM - 10:00 PM,  10:00 AM - 10:00 PM,  10:00 AM - 10:00 PM,  10:00 AM - 10:00 PM,  10:00 AM - 10:00 PM,  10:00 AM - 10:00 PM",,,
DKNY Parkland,,Shop G38 Parkland No.19 Jiefang Road,LG Shop G38,Dallian,,116000,CN,+86.411.628.868.01,,," 9:30 AM - 9:30 PM,  9:30 AM - 9:30 PM,  9:30 AM - 9:30 PM,  9:30 AM - 9:30 PM,  9:30 AM - 9:30 PM,  9:30 AM - 9:30 PM,  9:30 AM - 9:30 PM",,,
DKNY Men's Thaihot,,No. 6 Zhuyu Road,L106-3,Fuzhou,,350000,CN,+86.591.836.097.67,,," 10:00 AM - 10:00 PM,  10:00 AM - 10:00 PM,  10:00 AM - 10:00 PM,  10:00 AM - 10:00 PM,  10:00 AM - 10:00 PM,  10:00 AM - 10:00 PM,  10:00 AM - 10:00 PM",,,
DKNY Haitang Bay Cdf Mall,,No. 118 Haitang Bei Road,1F,Hainan,,572000,CN,+86.018.889.773.211,,," 10:00 AM - 9:00 PM,  10:00 AM - 9:00 PM,  10:00 AM - 9:00 PM,  10:00 AM - 9:00 PM,  10:00 AM - 9:00 PM,  10:00 AM - 9:00 PM,  10:00 AM - 9:00 PM",,,
DKNY Sanya Summer Mall,,No. 1 Haiyun Avenue Dadong Sea,1F,Hainan,,572021,CN,+86.898.882.392.19,,," 10:00 AM - 9:00 PM,  10:00 AM - 9:00 PM,  10:00 AM - 9:00 PM,  10:00 AM - 9:00 PM,  10:00 AM - 9:00 PM,  10:00 AM - 9:00 PM,  10:00 AM - 9:00 PM",,,
DKNY Harbin Charter,,No. 106 Anlong Street,L2 No. 2202,Harbin,,150000,CN,+86.451.877.368.96,,," 10:00 AM - 9:00 PM,  10:00 AM - 9:00 PM,  10:00 AM - 9:00 PM,  10:00 AM - 9:00 PM,  10:00 AM - 9:00 PM,  10:00 AM - 9:00 PM,  10:00 AM - 9:00 PM",,,
DKNY Shuncheng Shopping Mall,,No. 7 West Dongfeng Road,1F Shop E1-03,Kunming,,650031,CN,+86.871.636.020.01,,," 10:00 AM - 10:00 PM,  10:00 AM - 10:00 PM,  10:00 AM - 10:00 PM,  10:00 AM - 10:00 PM,  10:00 AM - 10:00 PM,  10:00 AM - 10:00 PM,  10:00 AM - 10:00 PM",,,
DKNY Deji Plaza 2,,8 Century Avenue,3F Shop 307,Nanjing,,200120,CN,+86.25.867.773.07,,," 10:00 AM - 10:00 PM,  10:00 AM - 10:00 PM,  10:00 AM - 10:00 PM,  10:00 AM - 10:00 PM,  10:00 AM - 10:00 PM,  10:00 AM - 10:00 PM,  10:00 AM - 10:00 PM",,,
DKNY Mixc,,No. 1 Qingnian Street,L2 Shop L-217,Qingdao,,266071,CN,+86.532.555.757.28,,," 10:00 AM - 10:00 PM,  10:00 AM - 10:00 PM,  10:00 AM - 10:00 PM,  10:00 AM - 10:00 PM,  10:00 AM - 10:00 PM,  10:00 AM - 10:00 PM,  10:00 AM - 10:00 PM",,,
DKNY Beiguo Commercial Building,,No. 188 Zhongsha East Road Hebei,L1,Shijiazhuang,,050011,CN,+86.311.896.691.69,,," 10:00 AM - 10:00 PM,  10:00 AM - 10:00 PM,  10:00 AM - 10:00 PM,  10:00 AM - 10:00 PM,  10:00 AM - 10:00 PM,  10:00 AM - 10:00 PM,  10:00 AM - 10:00 PM",,,
DKNY Tianmei Plaza,,Erqi Road And Taikang Road Intersection,3F,Taiyuan,,030006,CN,+86.351.837.6331,,," 10:00 AM - 10:00 PM,  10:00 AM - 10:00 PM,  10:00 AM - 10:00 PM,  10:00 AM - 10:00 PM,  10:00 AM - 10:00 PM,  10:00 AM - 10:00 PM,  10:00 AM - 10:00 PM",,,
DKNY Grand Orient,,No. 188 Zhongsha East Road,1F,Wuxi,,214123,CN,+86.510.827.063.39,,," 10:00 AM - 10:00 PM,  10:00 AM - 10:00 PM,  10:00 AM - 10:00 PM,  10:00 AM - 10:00 PM,  10:00 AM - 10:00 PM,  10:00 AM - 10:00 PM,  10:00 AM - 10:00 PM",,,
DKNY Dennis Department Stores,,Qianjin Road,2F,Zhengzhou,,450099,CN,+86.371.657.014.50,,," 10:00 AM - 10:00 PM,  10:00 AM - 10:00 PM,  10:00 AM - 10:00 PM,  10:00 AM - 10:00 PM,  10:00 AM - 10:00 PM,  10:00 AM - 10:00 PM,  10:00 AM - 10:00 PM",,,
DKNY David Department Store,,No. 5999 Middle Jiasong Road,2F Shop Dkny,Zhengzhou,,450099,CN,+86.371.561.502.75,,," 10:00 AM - 10:00 PM,  10:00 AM - 10:00 PM,  10:00 AM - 10:00 PM,  10:00 AM - 10:00 PM,  10:00 AM - 10:00 PM,  10:00 AM - 10:00 PM,  10:00 AM - 10:00 PM",,,
DKNY Sanlitun Taikoo Li,,No. 11 Sanlitun Road,LG Nlg - 44,Beijing,,100600,CN,+86.10.641.632.60,,," 10:00 AM - 10:00 PM,  10:00 AM - 10:00 PM,  10:00 AM - 10:00 PM,  10:00 AM - 10:00 PM,  10:00 AM - 10:00 PM,  10:00 AM - 10:00 PM,  10:00 AM - 10:00 PM",,,
DKNY SKP Beijing,,No. 87 Jianguo Road,B1 Shop B1007,Beijing,,100025,CN,+86.10.653.075.60,,," 10:00 AM - 10:00 PM,  10:00 AM - 10:00 PM,  10:00 AM - 10:00 PM,  10:00 AM - 10:00 PM,  10:00 AM - 10:00 PM,  10:00 AM - 10:00 PM,  10:00 AM - 10:00 PM",,,
DKNY Oriental Plaza,,No. 1 Chang An Avenue,B1 Shop Bb37&39,Beijing,,100004,CN,+86.10. 851.805.83,,," 10:00 AM - 10:00 PM,  10:00 AM - 10:00 PM,  10:00 AM - 10:00 PM,  10:00 AM - 10:00 PM,  10:00 AM - 10:00 PM,  10:00 AM - 10:00 PM,  10:00 AM - 10:00 PM",,,
DKNY Capital Mall Crystal,,No. 51 Fuxing Road,1F #01-24,Beijing,,100036,CN,+86.10.682.608.18,,," 10:00 AM - 10:00 PM,  10:00 AM - 10:00 PM,  10:00 AM - 10:00 PM,  10:00 AM - 10:00 PM,  10:00 AM - 10:00 PM,  10:00 AM - 10:00 PM,  10:00 AM - 10:00 PM",,,
DKNY Shuang An,,No. 38 Beisanhuan Xilu,L2,Beijing,,100086,CN,+86.10.621.653.02,,," 10:00 AM - 10:00 PM,  10:00 AM - 10:00 PM,  10:00 AM - 10:00 PM,  10:00 AM - 10:00 PM,  10:00 AM - 10:00 PM,  10:00 AM - 10:00 PM,  10:00 AM - 10:00 PM",,,
DKNY Accessories Landmark,,No. 28 Jiangnan Avenue,G1 G012,Chongqing,,400065,CN,+86.23.626.258.22,,," 10:00 AM - 10:00 PM,  10:00 AM - 10:00 PM,  10:00 AM - 10:00 PM,  10:00 AM - 10:00 PM,  10:00 AM - 10:00 PM,  10:00 AM - 10:00 PM,  10:00 AM - 10:00 PM",,,
DKNY Times Square,,100 Zourong Road,L3 L306,Chongqing,,400065,CN,+86.23.638.292.11,,," 10:00 AM - 10:00 PM,  10:00 AM - 10:00 PM,  10:00 AM - 10:00 PM,  10:00 AM - 10:00 PM,  10:00 AM - 10:00 PM,  10:00 AM - 10:00 PM,  10:00 AM - 10:00 PM",,,
DKNY Starlight 68,,No. 68 Yangheyi Road,L220,Chongqing,,400021,CN,+86.23.679.991.33,,," 10:00 AM - 10:00 PM,  10:00 AM - 10:00 PM,  10:00 AM - 10:00 PM,  10:00 AM - 10:00 PM,  10:00 AM - 10:00 PM,  10:00 AM - 10:00 PM,  10:00 AM - 10:00 PM",,,
DKNY Modern Capital,,No. 1 North Zhonghua Road,2F Shop A6,Guiyang,,550007,CN,+86.851.868.852.69,,," 10:00 AM - 10:00 PM,  10:00 AM - 10:00 PM,  10:00 AM - 10:00 PM,  10:00 AM - 10:00 PM,  10:00 AM - 10:00 PM,  10:00 AM - 10:00 PM,  10:00 AM - 10:00 PM",,,
DKNY Time Fortune,,No. 95 97 Yanlin West Road,2F,Changzhou,,213003,CN,+86.519.868.169.30,,," 10:00 AM - 10:00 PM,  10:00 AM - 10:00 PM,  10:00 AM - 10:00 PM,  10:00 AM - 10:00 PM,  10:00 AM - 10:00 PM,  10:00 AM - 10:00 PM,  10:00 AM - 10:00 PM",,,
DKNY Ouya Commercial Capital,,No. 1128 Gongnong Rd,L1,Changchun,,130021,CN,+86.431.891.838.98,,," 9:00 AM - 8:30 PM,  9:00 AM - 8:30 PM,  9:00 AM - 8:30 PM,  9:00 AM - 8:30 PM,  9:00 AM - 8:30 PM,  9:00 AM - 8:30 PM,  9:00 AM - 8:30 PM",,,
DKNY Hisense,,No 1551 West Nanjing Rd,Shop 0122,Qingdao,,266000,CN,+86.532.667.882.04,,," 10:00 AM - 10:00 PM,  10:00 AM - 10:00 PM,  10:00 AM - 10:00 PM,  10:00 AM - 10:00 PM,  10:00 AM - 10:00 PM,  10:00 AM - 10:00 PM,  10:00 AM - 10:00 PM",,,
DKNY IFC Mall,,Shop No. Lg1-71 Shanghai Ifc 8 Century Avenue,Lg1-25,Lujiazui,,200120,CN,+86.21.501.208.39,,," 10:00 AM - 10:00 PM,  10:00 AM - 10:00 PM,  10:00 AM - 10:00 PM,  10:00 AM - 10:00 PM,  10:00 AM - 10:00 PM,  10:00 AM - 10:00 PM,  10:00 AM - 10:00 PM",,,
DKNY Wangfujing,,No. 15 Zongfu Road,2F,Chengdu,,610042,CN,+86.28.865.328.51,,," 10:00 AM - 10:00 PM,  10:00 AM - 10:00 PM,  10:00 AM - 10:00 PM,  10:00 AM - 10:00 PM,  10:00 AM - 10:00 PM,  10:00 AM - 10:00 PM,  10:00 AM - 10:00 PM",,,
DKNY London,,27 Old Bond St,,London,Greater London,W1S 4QE,GB,+44.207.499.6238,,," 10:00 AM - 7:00 PM,  10:00 AM - 7:00 PM,  10:00 AM - 7:00 PM,  10:00 AM - 7:00 PM,  10:00 AM - 7:00 PM,  10:00 AM - 7:00 PM,  12:00 PM - 6:00 PM",,,
DKNY Manchester,,76-80 King St,,Manchester,Greater Manchester,M2 4NH,GB,+44.161.819.1048,,," 10:00 AM - 6:00 PM,  10:00 AM - 6:00 PM,  10:00 AM - 6:00 PM,  10:00 AM - 6:00 PM,  10:00 AM - 6:00 PM,  10:00 AM - 6:00 PM,  11:00 AM - 5:00 PM",,,
DKNY Accessories Miramar Shopping Centre,,132 Nathan Road,Shop G28-29 G/F,Hong Kong,,,HK,+852.275.528.99,,," 11:30 AM - 10:00 PM,  11:30 AM - 10:00 PM,  11:30 AM - 10:00 PM,  11:30 AM - 10:00 PM,  11:30 AM - 10:00 PM,  11:30 AM - 10:00 PM,  11:30 AM - 10:00 PM",,,
DKNY Festival Walk,,80 Tat Chee Avenue,Unit Lg1-51 Level Lg1,Hong Kong,,,HK,+852.277.689.93,,," 11:00 AM - 9:00 PM,  11:00 AM - 9:00 PM,  11:00 AM - 9:00 PM,  11:00 AM - 9:00 PM,  11:00 AM - 9:00 PM,  11:00 AM - 9:00 PM,  11:00 AM - 9:00 PM",,,
DKNY Fashion Walk,,11-19 Great George Street,Shop 26-28 G/F,Hong Kong,,,HK,+852.250.522.18,,," 10:30 AM - 9:30 PM,  10:30 AM - 9:30 PM,  10:30 AM - 9:30 PM,  10:30 AM - 9:30 PM,  10:30 AM - 9:30 PM,  10:30 AM - 9:30 PM,  10:30 AM - 9:30 PM",,,
DKNY City Plaza,,18 Taikoo Shing Road,Shop 238 2/F,Hong Kong,,,HK,+852.275.501.16,,," 11:00 AM - 9:00 PM,  11:00 AM - 9:00 PM,  11:00 AM - 9:00 PM,  11:00 AM - 9:00 PM,  11:00 AM - 9:00 PM,  11:00 AM - 9:00 PM,  11:00 AM - 9:00 PM",,,
DKNY Galeries Lafayette Pacific Place,,Jl.Jend.Sudirman Kav 52-53,Level 1,Jakarta,,12190,ID,+62.21.364.800.80,,," 10:00 AM - 10:00 PM,  10:00 AM - 10:00 PM,  10:00 AM - 10:00 PM,  10:00 AM - 10:00 PM,  10:00 AM - 10:00 PM,  10:00 AM - 10:00 PM,  10:00 AM - 10:00 PM",,,
DKNY Senayan City,,Jl.Asia Afrika No 19.,Ground Floor Unit 18.,Jakarta,,10270,ID,+62.21.727.813.86,,," 10:00 AM - 10:00 PM,  10:00 AM - 10:00 PM,  10:00 AM - 10:00 PM,  10:00 AM - 10:00 PM,  10:00 AM - 10:00 PM,  10:00 AM - 10:00 PM,  10:00 AM - 10:00 PM",,,
DKNY Grand Indonesia At Central,,Jl.M.H Thamrin No. 1,Ground Floor East Mall,Jakarta,,10310,ID,+62.21.257948355,,," 10:00 AM - 10:00 PM,  10:00 AM - 10:00 PM,  10:00 AM - 10:00 PM,  10:00 AM - 10:00 PM,  10:00 AM - 10:00 PM,  10:00 AM - 10:00 PM,  10:00 AM - 10:00 PM",,,
DKNY Accessories Courtyard,,Dlf Place Courtyard Saket District Center,GF,Delhi,,110017,IN,+91.11.461.517.96,,," 10:30 AM - 9:00 PM,  10:30 AM - 9:00 PM,  10:30 AM - 9:00 PM,  10:30 AM - 9:00 PM,  10:30 AM - 9:00 PM,  10:30 AM - 9:00 PM,  10:30 AM - 9:00 PM",,,
DKNY Accessories Promenade,,Nelson Mandella Road,GF,Delhi,,110070,IN,+91.11.460.756.69,,," 10:00 AM - 10:00 PM,  10:00 AM - 10:00 PM,  10:00 AM - 10:00 PM,  10:00 AM - 10:00 PM,  10:00 AM - 10:00 PM,  10:00 AM - 10:00 PM,  10:00 AM - 10:00 PM",,,
DKNY Emporio,,Nelson Mandela Road,Floor 1 Shop No 162,Delhi,,110070,IN,+91.11.460.407.53,,," 11:00 AM - 9:00 PM,  11:00 AM - 9:00 PM,  11:00 AM - 9:00 PM,  11:00 AM - 9:00 PM,  11:00 AM - 9:00 PM,  11:00 AM - 9:00 PM,  11:00 AM - 9:00 PM",,,
DKNY Accessories Ambience,,Ambience Mall,GF,Gurgaon,,122002,IN,+91.12.446.655.62,,," 11:00 AM - 9:00 PM,  11:00 AM - 9:00 PM,  11:00 AM - 9:00 PM,  11:00 AM - 9:00 PM,  11:00 AM - 9:00 PM,  11:00 AM - 9:00 PM,  11:00 AM - 9:00 PM",,,
DKNY Accessories Kurla,,Kurla West Kamani Junction Lbs Marg,UG,Kurla,,400070,IN,+91.22.618.015.19,,," 11:00 AM - 11:30 PM,  11:00 AM - 11:30 PM,  11:00 AM - 11:30 PM,  11:00 AM - 11:30 PM,  11:00 AM - 11:30 PM,  11:00 AM - 11:30 PM,  11:00 AM - 11:30 PM",,,
DKNY Accessories Mumbai Airport T2,,Sahara Road Andheri (E),T2 Departure Check In Area Level -04 Csia Terminal T2,Mumbai,,400099,IN,+91.88.793.306.74,,,"  - ,   - ,   - ,   - ,   - ,   - ,   - ",,,
DKNY Palladium,,462 Senapaty Bapat Marg Phoenix Mill Compound Lower Parel,Floor 2,Mumbai,,400013,IN,+91.22.400.553.91,,," 11:00 AM - 9:00 PM,  11:00 AM - 9:00 PM,  11:00 AM - 9:00 PM,  11:00 AM - 9:00 PM,  11:00 AM - 9:00 PM,  11:00 AM - 9:00 PM,  11:00 AM - 9:00 PM",,,
DKNY Accessories Mall Of India,,Plot No. 03 Sector -18 Up,GF,Noida,,201301,IN,+91.120.259.5024,,," 10:30 AM - 10:30 PM,  10:30 AM - 10:30 PM,  10:30 AM - 10:30 PM,  10:30 AM - 10:30 PM,  10:30 AM - 10:30 PM,  10:30 AM - 10:30 PM,  10:30 AM - 10:30 PM",,,
DKNY Accessories Quest Mall,,Syed Amir Ali Avenue,Floor 1,Kolkata,,700017,IN,+91.33.228.709.33,,," 10:00 AM - 7:15 PM,  10:00 AM - 7:15 PM,  10:00 AM - 7:15 PM,  10:00 AM - 7:15 PM,  10:00 AM - 7:15 PM,  10:00 AM - 7:15 PM,  10:00 AM - 7:15 PM",,,
DKNY Accessories Family Fun,,Peshawa Qazi,GF,Erbil,,44001,IQ,+964.66.264.1497,,," 10:00 AM - 11:00 PM,  10:00 AM - 11:00 PM,  10:00 AM - 11:00 PM,  10:00 AM - 11:00 PM,  11:00 AM - 12:00 AM,  10:00 AM - 11:00 PM,  10:00 AM - 11:00 PM",,,
DKNY Accessories City Mall,,King Abdullah II Bin Al Hussein St,,Amman,,11821,JO,+962.6.586.8500,,," 10:00 AM - 10:00 PM,  10:00 AM - 10:00 PM,  10:00 AM - 10:00 PM,  10:00 AM - 10:00 PM,  2:00 PM - 10:00 PM,  10:00 AM - 10:00 PM,  10:00 AM - 10:00 PM",,,
DKNY Men's Lotte Pyeongchon,,180 Simin-Daero,,Anyang,,14073,KR,+82.31.808.694.54,,," 10:30 AM - 8:00 PM,  10:30 AM - 8:00 PM,  10:30 AM - 8:00 PM,  10:30 AM - 8:00 PM,  10:30 AM - 8:30 PM,  10:30 AM - 8:30 PM,  10:30 AM - 8:30 PM",,,
DKNY Accessories Lotte Pyeongchon,,180 Simin-Daero,,Anyang,,14073,KR,3180869387,,," 10:30 AM - 8:00 PM,  10:30 AM - 8:00 PM,  10:30 AM - 8:00 PM,  10:30 AM - 8:00 PM,  10:30 AM - 8:00 PM,  10:30 AM - 8:00 PM,  10:30 AM - 8:00 PM",,,
DKNY Lotte Pyeongchon,,180 Simin-Daero,,Anyang,,14073,KR,+82.31.808.692.26,,," 10:30 AM - 8:00 PM,  10:30 AM - 8:00 PM,  10:30 AM - 8:00 PM,  10:30 AM - 8:00 PM,  10:30 AM - 8:30 PM,  10:30 AM - 8:30 PM,  10:30 AM - 8:30 PM",,,
DKNY Lotte Jungdong,,300 Gilju-Ro,,Bucheon,,14548,KR,+82.32.320.7278,,," 10:30 AM - 8:00 PM,  10:30 AM - 8:00 PM,  10:30 AM - 8:00 PM,  10:30 AM - 8:00 PM,  10:30 AM - 8:30 PM,  10:30 AM - 8:30 PM,  10:30 AM - 8:30 PM",,,
DKNY Hyundai Jungdong,,180 Gilju-Ro,,Bucheon,,14546,KR,+82.32.623.2363,,," 10:30 AM - 8:00 PM,  10:30 AM - 8:00 PM,  10:30 AM - 8:00 PM,  10:30 AM - 8:00 PM,  10:30 AM - 8:30 PM,  10:30 AM - 8:30 PM,  10:30 AM - 8:30 PM",,,
DKNY Men's Hyundai Jungdong,,180 Gilju-Ro,,Bucheon,,14546,KR,+82.32.623.2561,,," 10:30 AM - 8:00 PM,  10:30 AM - 8:00 PM,  10:30 AM - 8:00 PM,  10:30 AM - 8:00 PM,  10:30 AM - 8:30 PM,  10:30 AM - 8:30 PM,  10:30 AM - 8:30 PM",,,
DKNY Accessories Lotte Jungdong,,300 Gilju-Ro,,Bucheon,,14548,KR,+82.32.320.7465,,," 10:30 AM - 8:00 PM,  10:30 AM - 8:00 PM,  10:30 AM - 8:00 PM,  10:30 AM - 8:00 PM,  10:30 AM - 8:30 PM,  10:30 AM - 8:30 PM,  10:30 AM - 8:30 PM",,,
DKNY Men's Lotte Jungdong,,300 Gilju-Ro,,Bucheon,,14548,KR,+82.32.320.7263,,," 10:30 AM - 8:00 PM,  10:30 AM - 8:00 PM,  10:30 AM - 8:00 PM,  10:30 AM - 8:00 PM,  10:30 AM - 8:30 PM,  10:30 AM - 8:30 PM,  10:30 AM - 8:30 PM",,,
DKNY Shinsegae Centumcity,,35 Centum Nam-Daero,,Busan,,48058,KR,+82.51.745.2421,,," 10:30 AM - 10:00 PM,  10:30 AM - 10:00 PM,  10:30 AM - 10:00 PM,  10:30 AM - 10:00 PM,  10:30 AM - 10:00 PM,  10:30 AM - 10:00 PM,  10:30 AM - 10:00 PM",,,
DKNY Men's Shinsegae Centumcity,,35 Centum Nam-Daero,,Busan,,48058,KR,+82.5.174.528.28,,," 10:30 AM - 10:00 PM,  10:30 AM - 10:00 PM,  10:30 AM - 10:00 PM,  10:30 AM - 10:00 PM,  10:30 AM - 10:00 PM,  10:30 AM - 10:00 PM,  10:30 AM - 10:00 PM",,,
DKNY Lotte Centumcity,,59 Centum Nam-Daero,,Busan,,48058,KR,+82.51.730.3441,,," 10:30 AM - 8:00 PM,  10:30 AM - 8:00 PM,  10:30 AM - 8:00 PM,  10:30 AM - 8:00 PM,  10:30 AM - 9:00 PM,  10:30 AM - 9:00 PM,  10:30 AM - 9:00 PM",,,
DKNY Accessories Lotte Centumcity,,59 Centum Nam-Daero,,Busan,,48058,KR,+82.51.730.3297,,," 10:30 AM - 8:00 PM,  10:30 AM - 8:00 PM,  10:30 AM - 8:00 PM,  10:30 AM - 8:00 PM,  10:30 AM - 9:00 PM,  10:30 AM - 9:00 PM,  10:30 AM - 9:00 PM",,,
DKNY Men's Lotte Busan,,772 Gaya-Daero,,Busan,,47285,KR,+82.51.810.3489,,," 10:30 AM - 8:00 PM,  10:30 AM - 8:00 PM,  10:30 AM - 8:00 PM,  10:30 AM - 8:00 PM,  10:30 AM - 9:00 PM,  10:30 AM - 9:00 PM,  10:30 AM - 9:00 PM",,,
DKNY Accessories Lotte Busan,,772 Gaya-Daero,,Busan,,47285,KR,+82.51.810.4282,,," 10:30 AM - 8:00 PM,  10:30 AM - 8:00 PM,  10:30 AM - 8:00 PM,  10:30 AM - 8:00 PM,  10:30 AM - 9:00 PM,  10:30 AM - 9:00 PM,  10:30 AM - 9:00 PM",,,
DKNY Lotte Gwangbok,,2 Jungang-Daero,,Busan,,48944,KR,+82.51.678.3434,,," 10:30 AM - 8:00 PM,  10:30 AM - 8:00 PM,  10:30 AM - 8:00 PM,  10:30 AM - 8:00 PM,  10:30 AM - 9:00 PM,  10:30 AM - 9:00 PM,  10:30 AM - 9:00 PM",,,
DKNY Hyundai Busan,,125 Beomil-Ro,,Busan,,48735,KR,+82.51.667.0263,,," 10:30 AM - 8:00 PM,  10:30 AM - 8:00 PM,  10:30 AM - 8:00 PM,  10:30 AM - 8:00 PM,  10:30 AM - 9:00 PM,  10:30 AM - 9:00 PM,  10:30 AM - 9:00 PM",,,
DKNY Lotte Busan,,772 Gaya-Daero,,Busan,,47285,KR,+82.51.810.4244,,," 10:30 AM - 8:00 PM,  10:30 AM - 8:00 PM,  10:30 AM - 8:00 PM,  10:30 AM - 8:00 PM,  10:30 AM - 8:30 PM,  10:30 AM - 8:30 PM,  10:30 AM - 8:30 PM",,,
DKNY Lotte Changwon,,124 Jungang-Daero,,Changwon,,51720,KR,+82.55.279.3386,,," 10:30 AM - 8:00 PM,  10:30 AM - 8:00 PM,  10:30 AM - 8:00 PM,  10:30 AM - 8:00 PM,  10:30 AM - 8:30 PM,  10:30 AM - 8:30 PM,  10:30 AM - 8:30 PM",,,
DKNY Shinsegae Masan,,251 Happo-Ro,,Changwon,,51330,KR,+82.55.240.1307,,," 10:30 AM - 8:00 PM,  10:30 AM - 8:00 PM,  10:30 AM - 8:00 PM,  10:30 AM - 8:00 PM,  10:30 AM - 8:30 PM,  10:30 AM - 8:30 PM,  10:30 AM - 8:30 PM",,,
DKNY Galleria Centercity,,227 Gongwon-Ro,,Cheonan,,31168,KR,+82.41.412.9472,,," 10:30 AM - 8:00 PM,  10:30 AM - 8:00 PM,  10:30 AM - 8:00 PM,  10:30 AM - 8:00 PM,  10:30 AM - 8:30 PM,  10:30 AM - 8:30 PM,  10:30 AM - 8:30 PM",,,
DKNY Men's Galleria Centercity,,227 Gongwon-Ro,,Cheonan,,31168,KR,+82.41.412.9516,,," 10:30 AM - 8:00 PM,  10:30 AM - 8:00 PM,  10:30 AM - 8:00 PM,  10:30 AM - 8:00 PM,  10:30 AM - 8:30 PM,  10:30 AM - 8:30 PM,  10:30 AM - 8:30 PM",,,
DKNY Shinsegae Chungcheong,,43 Mannam-Ro,,Cheonan,,31120,KR,+82.41.640.5242,,," 10:30 AM - 8:00 PM,  10:30 AM - 8:00 PM,  10:30 AM - 8:00 PM,  10:30 AM - 8:00 PM,  10:30 AM - 8:00 PM,  10:30 AM - 8:00 PM,  10:30 AM - 8:00 PM",,,
DKNY Men's Hyundai Chungcheong,,308 Jikjidae-Ro,,Cheongju,,28424,KR,+82.43.909.4461,,," 11:00 AM - 8:30 PM,  11:00 AM - 8:30 PM,  11:00 AM - 8:30 PM,  11:00 AM - 8:30 PM,  11:00 AM - 8:30 PM,  11:00 AM - 8:30 PM,  11:00 AM - 8:30 PM",,,
DKNY Hyundai Chungcheong,,308 Jikjidae-Ro,,Cheongju,,28424,KR,+82.43.909.4251,,," 11:00 AM - 8:30 PM,  11:00 AM - 8:30 PM,  11:00 AM - 8:30 PM,  11:00 AM - 8:30 PM,  11:00 AM - 8:30 PM,  11:00 AM - 8:30 PM,  11:00 AM - 8:30 PM",,,
DKNY Lotte Daegu,,161 Taepyeong-Ro,,Daegu,,41581,KR,+82.53.660.3377,,," 10:30 AM - 8:00 PM,  10:30 AM - 8:00 PM,  10:30 AM - 8:00 PM,  10:30 AM - 8:00 PM,  10:30 AM - 8:30 PM,  10:30 AM - 8:30 PM,  10:30 AM - 8:30 PM",,,
DKNY Hyundai Daegu,,2077 Dalgubeoldae-Ro,,Daegu,,41936,KR,+82.53.245.2361,,," 10:30 AM - 8:00 PM,  10:30 AM - 8:00 PM,  10:30 AM - 8:00 PM,  10:30 AM - 8:00 PM,  10:30 AM - 8:30 PM,  10:30 AM - 8:30 PM,  10:30 AM - 8:30 PM",,,
DKNY Men's Lotte Daegu,,161 Taepyeong-Ro,,Daegu,,41581,KR,+82.53.660.3678,,," 10:30 AM - 8:00 PM,  10:30 AM - 8:00 PM,  10:30 AM - 8:00 PM,  10:30 AM - 8:00 PM,  10:30 AM - 8:30 PM,  10:30 AM - 8:30 PM,  10:30 AM - 8:30 PM",,,
DKNY Men's Hyundai Daegu,,2077 Dalgubeoldae-Ro,,Daegu,,41936,KR,+82.53.245.2526,,," 10:30 AM - 8:00 PM,  10:30 AM - 8:00 PM,  10:30 AM - 8:00 PM,  10:30 AM - 8:00 PM,  10:30 AM - 8:30 PM,  10:30 AM - 8:30 PM,  10:30 AM - 8:30 PM",,,
DKNY Daebec Plaza,,333 Myeongdeok-Ro,,Daegu,,41953,KR,+82.53.253.8549,,," 10:30 AM - 8:00 PM,  10:30 AM - 8:00 PM,  10:30 AM - 8:00 PM,  10:30 AM - 8:00 PM,  10:30 AM - 8:30 PM,  10:30 AM - 8:30 PM,  10:30 AM - 8:30 PM",,,
DKNY Galleria Timeworld,,211 Daedeokdaero,,Daejeon,,35229,KR,+82.42.472.0076,,," 10:30 AM - 8:00 PM,  10:30 AM - 8:00 PM,  10:30 AM - 8:00 PM,  10:30 AM - 8:00 PM,  10:30 AM - 8:30 PM,  10:30 AM - 8:30 PM,  10:30 AM - 8:30 PM",,,
DKNY Lotte Daejeon,,598 Gyeryong-Ro,,Daejeon,,35299,KR,+82.42.601.2335,,," 10:30 AM - 8:00 PM,  10:30 AM - 8:00 PM,  10:30 AM - 8:00 PM,  10:30 AM - 8:00 PM,  10:30 AM - 8:30 PM,  10:30 AM - 8:30 PM,  10:30 AM - 8:30 PM",,,
DKNY Men's Hyundai Kintex,,817 Hosu-Ro,,Goyang,,10391,KR,+82.31.822.3631,,," 10:30 AM - 8:00 PM,  10:30 AM - 8:00 PM,  10:30 AM - 8:00 PM,  10:30 AM - 8:00 PM,  10:30 AM - 8:30 PM,  10:30 AM - 8:30 PM,  10:30 AM - 8:30 PM",,,
DKNY Lotte Ilsan,,1283 Jungang-Ro,,Goyang,,10401,KR,+82.31.909.3365,,," 10:30 AM - 8:00 PM,  10:30 AM - 8:00 PM,  10:30 AM - 8:00 PM,  10:30 AM - 8:00 PM,  10:30 AM - 8:30 PM,  10:30 AM - 8:30 PM,  10:30 AM - 8:30 PM",,,
DKNY Accessories Lotte Ilsan,,1283 Jungang-Ro,,Goyang,,10401,KR,+82.31.909.3140,,," 10:30 AM - 8:00 PM,  10:30 AM - 8:00 PM,  10:30 AM - 8:00 PM,  10:30 AM - 8:00 PM,  10:30 AM - 8:30 PM,  10:30 AM - 8:30 PM,  10:30 AM - 8:30 PM",,,
DKNY Hyundai Kintex,,817 Hosu-Ro,,Goyang,,10391,KR,+82.31.822.3352,,," 10:30 AM - 8:00 PM,  10:30 AM - 8:00 PM,  10:30 AM - 8:00 PM,  10:30 AM - 8:00 PM,  10:30 AM - 8:30 PM,  10:30 AM - 8:30 PM,  10:30 AM - 8:30 PM",,,
DKNY Men's Lotte Ilsan,,1283 Jungang-Ro,,Goyang,,10401,KR,+82.31.909.3628,,," 10:30 AM - 8:00 PM,  10:30 AM - 8:00 PM,  10:30 AM - 8:00 PM,  10:30 AM - 8:00 PM,  10:30 AM - 8:30 PM,  10:30 AM - 8:30 PM,  10:30 AM - 8:30 PM",,,
DKNY Accessories Lotte Guri,,261 Gyungchoon-Ro,,Guri,,11922,KR,315507132,,," 10:30 AM - 8:00 PM,  10:30 AM - 8:00 PM,  10:30 AM - 8:00 PM,  10:30 AM - 8:00 PM,  10:30 AM - 8:30 PM,  10:30 AM - 8:30 PM,  10:30 AM - 8:30 PM",,,
DKNY Shinsegae Gwangju,,932 Mujin-Daero,,Gwangju,,61937,KR,+82.62.360.1830,,," 10:30 AM - 8:00 PM,  10:30 AM - 8:00 PM,  10:30 AM - 8:00 PM,  10:30 AM - 8:00 PM,  10:30 AM - 8:30 PM,  10:30 AM - 8:30 PM,  10:30 AM - 8:30 PM",,,
DKNY Men's Shinsegae Gwangju,,932 Mujin-Daero,,Gwangju,,61937,KR,+82.62.360.1431,,," 10:30 AM - 8:00 PM,  10:30 AM - 8:00 PM,  10:30 AM - 8:00 PM,  10:30 AM - 8:00 PM,  10:30 AM - 8:30 PM,  10:30 AM - 8:30 PM,  10:30 AM - 8:30 PM",,,
DKNY Accessories Lotte Gwangju,,268 Dongnip-Ro,,Gwangju,,61470,KR,+82.62.221.1265,,," 10:30 AM - 8:00 PM,  10:30 AM - 8:00 PM,  10:30 AM - 8:00 PM,  10:30 AM - 8:00 PM,  10:30 AM - 8:30 PM,  10:30 AM - 8:30 PM,  10:30 AM - 8:30 PM",,,
DKNY Lotte Gwangju,,268 Dongnip-Ro,,Gwangju,,61470,KR,+82.62.221.1336,,," 10:30 AM - 8:00 PM,  10:30 AM - 8:00 PM,  10:30 AM - 8:00 PM,  10:30 AM - 8:00 PM,  10:30 AM - 8:30 PM,  10:30 AM - 8:30 PM,  10:30 AM - 8:30 PM",,,
DKNY Men's Lotte Gwangju,,268 Dongnip-Ro,,Gwangju,,61470,KR,+82.62.221.1726,,," 10:30 AM - 8:00 PM,  10:30 AM - 8:00 PM,  10:30 AM - 8:00 PM,  10:30 AM - 8:00 PM,  10:30 AM - 8:30 PM,  10:30 AM - 8:30 PM,  10:30 AM - 8:30 PM",,,
DKNY Shinsegae Incheon,,35 Yeonnam-Ro,,Incheon,,22242,KR,+82.32.430.1717,,," 10:30 AM - 8:00 PM,  10:30 AM - 8:00 PM,  10:30 AM - 8:00 PM,  10:30 AM - 8:00 PM,  10:30 AM - 8:30 PM,  10:30 AM - 8:30 PM,  10:30 AM - 8:30 PM",,,
DKNY Lotte Incheon,,148 Yesul-Ro,,Incheon,,21573,KR,+82 32 450 2315,,," 10:30 AM - 8:00 PM,  10:30 AM - 8:00 PM,  10:30 AM - 8:00 PM,  10:30 AM - 8:00 PM,  10:30 AM - 8:30 PM,  10:30 AM - 8:30 PM,  10:30 AM - 8:30 PM",,,
DKNY Men's Shinsegae Incheon,,35 Yeonnam-Ro,,Incheon,,22242,KR,+82.32.430.1408,,," 10:30 AM - 8:00 PM,  10:30 AM - 8:00 PM,  10:30 AM - 8:00 PM,  10:30 AM - 8:00 PM,  10:30 AM - 8:30 PM,  10:30 AM - 8:30 PM,  10:30 AM - 8:30 PM",,,
DKNY Hyundai Pangyo,,20 Pankyoyeok-Ro,146 Beon-Gil,Seongnam,,13529,KR,+82.31.517.012.88,,," 10:30 AM - 8:00 PM,  10:30 AM - 8:00 PM,  10:30 AM - 8:00 PM,  10:30 AM - 8:00 PM,  10:30 AM - 8:30 PM,  10:30 AM - 8:30 PM,  10:30 AM - 8:30 PM",,,
DKNY Men's Ak Bundang,,42 Hwangsaeul-Ro 360 Beon-Gil,,Seongnam,,13591,KR,+82.31.708.8958,,," 10:30 AM - 8:00 PM,  10:30 AM - 8:00 PM,  10:30 AM - 8:00 PM,  10:30 AM - 8:00 PM,  10:30 AM - 8:30 PM,  10:30 AM - 8:30 PM,  10:30 AM - 8:30 PM",,,
DKNY Ak Bundang,,42 Hwangsaeul-Ro 360Beon-Gil,,Seongnam,,13591,KR,+82.31.709.8959,,," 10:30 AM - 8:00 PM,  10:30 AM - 8:00 PM,  10:30 AM - 8:00 PM,  10:30 AM - 8:00 PM,  10:30 AM - 8:30 PM,  10:30 AM - 8:30 PM,  10:30 AM - 8:30 PM",,,
DKNY Galleria West,,343 Apgujeong-Ro,,Seoul,,06008,KR,+82.2.541.9040,,," 10:30 AM - 8:00 PM,  10:30 AM - 8:00 PM,  10:30 AM - 8:00 PM,  10:30 AM - 8:00 PM,  10:30 AM - 8:30 PM,  10:30 AM - 8:30 PM,  10:30 AM - 8:30 PM",,,
DKNY Men's Hyundai Shincheon,,83 Shincheon-Ro,,Seoul,,03789,KR,+82.2.314.525.53,,," 10:30 AM - 8:00 PM,  10:30 AM - 8:00 PM,  10:30 AM - 8:00 PM,  10:30 AM - 8:00 PM,  10:30 AM - 8:30 PM,  10:30 AM - 8:30 PM,  10:30 AM - 8:30 PM",,,
DKNY Hyundai Main,,165 Apgujeong-Ro,,Seoul,,06001,KR,+82.2.343.861.36,,," 10:30 AM - 8:00 PM,  10:30 AM - 8:00 PM,  10:30 AM - 8:00 PM,  10:30 AM - 8:00 PM,  10:30 AM - 8:30 PM,  10:30 AM - 8:30 PM,  10:30 AM - 8:30 PM",,,
DKNY Accessories Lotte Yeongdeungpo,,846 Gyeongin-Ro,,Seoul,,07306,KR,+82.2.263.067.26,,," 10:30 AM - 8:00 PM,  10:30 AM - 8:00 PM,  10:30 AM - 8:00 PM,  10:30 AM - 8:00 PM,  10:30 AM - 8:30 PM,  10:30 AM - 8:30 PM,  10:30 AM - 8:30 PM",,,
DKNY Lotte Jamsil,,240 Olympic-Ro,,Seoul,,05554,KR,+82.2.214.374.43,,," 10:30 AM - 8:00 PM,  10:30 AM - 8:00 PM,  10:30 AM - 8:00 PM,  10:30 AM - 8:00 PM,  10:30 AM - 8:30 PM,  10:30 AM - 8:30 PM,  10:30 AM - 8:30 PM",,,
DKNY Accessories Lotte Jamsil,,240 Olympic-Ro,,Seoul,,05554,KR,+82.2.214.373.50,,," 10:30 AM - 8:00 PM,  10:30 AM - 8:00 PM,  10:30 AM - 8:00 PM,  10:30 AM - 8:00 PM,  10:30 AM - 8:30 PM,  10:30 AM - 8:30 PM,  10:30 AM - 8:30 PM",,,
DKNY Men's Shinsegae Yeongdeungpo,,9 Yeoungjung-Ro,,Seoul,,07305,KR,+82.2.263.914.11,,," 10:30 AM - 8:00 PM,  10:30 AM - 8:00 PM,  10:30 AM - 8:00 PM,  10:30 AM - 8:00 PM,  10:30 AM - 8:30 PM,  10:30 AM - 8:30 PM,  10:30 AM - 8:30 PM",,,
DKNY Men's Lotte Jamsil,,240 Olympic-Ro,,Seoul,,05554,KR,+82.2.214.376.46,,," 10:30 AM - 8:00 PM,  10:30 AM - 8:00 PM,  10:30 AM - 8:00 PM,  10:30 AM - 8:00 PM,  10:30 AM - 8:30 PM,  10:30 AM - 8:30 PM,  10:30 AM - 8:30 PM",,,
DKNY Hyundai Mia,,315 Dongsomun-Ro,,Seoul,,02730,KR,+82.2.211.712.46,,," 10:30 AM - 8:00 PM,  10:30 AM - 8:00 PM,  10:30 AM - 8:00 PM,  10:30 AM - 8:00 PM,  10:30 AM - 8:30 PM,  10:30 AM - 8:30 PM,  10:30 AM - 8:30 PM",,,
DKNY Men's Hyundai Coex,,517 Teheran-Ro,,Seoul,,06164,KR,+82.2.346.786.69,,," 10:30 AM - 8:00 PM,  10:30 AM - 8:00 PM,  10:30 AM - 8:00 PM,  10:30 AM - 8:00 PM,  10:30 AM - 8:30 PM,  10:30 AM - 8:30 PM,  10:30 AM - 8:30 PM",,,
DKNY Hyundai Coex,,517 Teheran-Ro,,Seoul,,06164,KR,+82.2.346.789.48,,," 10:30 AM - 8:00 PM,  10:30 AM - 8:00 PM,  10:30 AM - 8:00 PM,  10:30 AM - 8:00 PM,  10:30 AM - 8:30 PM,  10:30 AM - 8:30 PM,  10:30 AM - 8:30 PM",,,
DKNY Shinsegae Yeongdeungpo,,9 Yeongjung-Ro,,Seoul,,07305,KR,+82.2.263.942.77,,," 10:30 AM - 8:00 PM,  10:30 AM - 8:00 PM,  10:30 AM - 8:00 PM,  10:30 AM - 8:00 PM,  10:30 AM - 8:30 PM,  10:30 AM - 8:30 PM,  10:30 AM - 8:30 PM",,,
DKNY Men's Hyundai Main,,165 Apgujeong-Ro,,Seoul,,06001,KR,+82.2.343.861.71,,," 10:30 AM - 8:00 PM,  10:30 AM - 8:00 PM,  10:30 AM - 8:00 PM,  10:30 AM - 8:00 PM,  10:30 AM - 8:30 PM,  10:30 AM - 8:30 PM,  10:30 AM - 8:30 PM",,,
DKNY Men's Lotte Nowon,,1414 Dongil-Ro,,Seoul,,01695,KR,+82.2.950.2529,,," 10:30 AM - 8:00 PM,  10:30 AM - 8:00 PM,  10:30 AM - 8:00 PM,  10:30 AM - 8:00 PM,  10:30 AM - 8:30 PM,  10:30 AM - 8:30 PM,  10:30 AM - 8:30 PM",,,
DKNY Lotte Nowon,,1414 Dongil-Ro,,Seoul,,01695,KR,+82.2.950.2328,,," 10:30 AM - 8:00 PM,  10:30 AM - 8:00 PM,  10:30 AM - 8:00 PM,  10:30 AM - 8:00 PM,  10:30 AM - 8:30 PM,  10:30 AM - 8:30 PM,  10:30 AM - 8:30 PM",,,
DKNY Lotte Main,,1 Sogongdong,,Seoul,,04533,KR,+82.2.772.3358,,," 10:30 AM - 8:00 PM,  10:30 AM - 8:00 PM,  10:30 AM - 8:00 PM,  10:30 AM - 8:00 PM,  10:30 AM - 8:30 PM,  10:30 AM - 8:30 PM,  10:30 AM - 8:30 PM",,,
DKNY Accessories Lotte Nowon,,1414 Dongil-Ro,,Seoul,,01695,KR,+82.2.950.2191,,," 10:30 AM - 8:00 PM,  10:30 AM - 8:00 PM,  10:30 AM - 8:00 PM,  10:30 AM - 8:00 PM,  10:30 AM - 8:30 PM,  10:30 AM - 8:30 PM,  10:30 AM - 8:30 PM",,,
DKNY Lotte Cheounyanri,,205 Wangsan-Ro,,Seoul,,02559,KR,+82.2.370.713.49,,," 10:30 AM - 8:00 PM,  10:30 AM - 8:00 PM,  10:30 AM - 8:00 PM,  10:30 AM - 8:00 PM,  10:30 AM - 8:30 PM,  10:30 AM - 8:30 PM,  10:30 AM - 8:30 PM",,,
DKNY Men's Lotte Main,,1 Sogongdong,,Seoul,,04533,KR,+82.2.772.3520,,," 10:30 AM - 8:00 PM,  10:30 AM - 8:00 PM,  10:30 AM - 8:00 PM,  10:30 AM - 8:00 PM,  10:30 AM - 8:00 PM,  10:30 AM - 8:00 PM,  10:30 AM - 8:00 PM",,,
DKNY Men's Galleria Timeworld,,211 Dunsan 2-Dong,,Seoul,,35229,KR,+82.42.488.5949,,," 10:30 AM - 8:00 PM,  10:30 AM - 8:00 PM,  10:30 AM - 8:00 PM,  10:30 AM - 8:00 PM,  10:30 AM - 8:30 PM,  10:30 AM - 8:30 PM,  10:30 AM - 8:30 PM",,,
DKNY Men's Shinsagae Main,,63 Sogong-Ro,,Seoul,,04530,KR,+82.2.310.5282,,," 10:30 AM - 8:00 PM,  10:30 AM - 8:00 PM,  10:30 AM - 8:00 PM,  10:30 AM - 8:00 PM,  10:30 AM - 8:30 PM,  10:30 AM - 8:30 PM,  10:30 AM - 8:30 PM",,,
DKNY Shinsegae Gangnam,,176 Sinbanpo-Ro,,Seoul,,06546,KR,+82.2.347.917.82,,," 10:30 AM - 8:00 PM,  10:30 AM - 8:00 PM,  10:30 AM - 8:00 PM,  10:30 AM - 8:00 PM,  10:30 AM - 8:30 PM,  10:30 AM - 8:30 PM,  10:30 AM - 8:30 PM",,,
DKNY Accessories Lotte Kimpogonghang,,38 Haneul-Gil,,Seoul,,07505,KR,+82.2.611.629.58,,," 10:30 AM - 8:00 PM,  10:30 AM - 8:00 PM,  10:30 AM - 8:00 PM,  10:30 AM - 8:00 PM,  10:30 AM - 8:30 PM,  10:30 AM - 8:30 PM,  10:30 AM - 8:30 PM",,,
DKNY Hyundai Mokdong,,257 Mokdongdong-Ro,,Seoul,,07998,KR,+82.2.2163.1387,,," 10:30 AM - 8:00 PM,  10:30 AM - 8:00 PM,  10:30 AM - 8:00 PM,  10:30 AM - 8:00 PM,  10:30 AM - 8:30 PM,  10:30 AM - 8:30 PM,  10:30 AM - 8:30 PM",,,
DKNY Lotte Yeongdeungpo,,846 Gyeongin-Ro,,Seoul,,07306,KR,+82.2.216.451.73,,," 10:30 AM - 8:00 PM,  10:30 AM - 8:00 PM,  10:30 AM - 8:00 PM,  10:30 AM - 8:00 PM,  10:30 AM - 8:30 PM,  10:30 AM - 8:30 PM,  10:30 AM - 8:30 PM",,,
DKNY Men's Shinsegae Gangnam,,176 Sinbanpo-Ro,,Seoul,,06546,KR,+82.2.347.962.55,,," 10:30 AM - 8:00 PM,  10:30 AM - 8:00 PM,  10:30 AM - 8:00 PM,  10:30 AM - 8:00 PM,  10:30 AM - 8:30 PM,  10:30 AM - 8:30 PM,  10:30 AM - 8:30 PM",,,
DKNY Men's Hyundai Cheonho,,1005 Cheonhodae-Ro,,Seoul,,05328,KR,+82.2.222.576.33,,," 10:30 AM - 8:00 PM,  10:30 AM - 8:00 PM,  10:30 AM - 8:00 PM,  10:30 AM - 8:00 PM,  10:30 AM - 8:30 PM,  10:30 AM - 8:30 PM,  10:30 AM - 8:30 PM",,,
DKNY Hyundai Cheonho,,1005 Cheonhodae-Ro,,Seoul,,05328,KR,+82.2.2225.7369,,," 10:30 AM - 8:00 PM,  10:30 AM - 8:00 PM,  10:30 AM - 8:00 PM,  10:30 AM - 8:00 PM,  10:30 AM - 8:30 PM,  10:30 AM - 8:30 PM,  10:30 AM - 8:30 PM",,,
DKNY Men's Hyundai Mokdong,,257 Mokdongdong-Ro,,Seoul,,07998,KR,+82.2.216.318.70,,," 10:30 AM - 8:00 PM,  10:30 AM - 8:00 PM,  10:30 AM - 8:00 PM,  10:30 AM - 8:00 PM,  10:30 AM - 8:30 PM,  10:30 AM - 8:30 PM,  10:30 AM - 8:30 PM",,,
DKNY Cheongdam,,428 Apgujeong-Ro,,Seoul,,06015,KR,+82.2.515.6708,,," 10:00 AM - 8:00 PM,  10:00 AM - 8:00 PM,  10:00 AM - 8:00 PM,  10:00 AM - 8:00 PM,  10:00 AM - 8:00 PM,  10:00 AM - 9:00 PM,  10:00 AM - 9:00 PM",,,
DKNY Accessories Lotte Main,,1 Sogongdong,,Seoul,,04533,KR,+82.2.772.3096,,," 10:30 AM - 8:00 PM,  10:30 AM - 8:00 PM,  10:30 AM - 8:00 PM,  10:30 AM - 8:00 PM,  10:30 AM - 8:30 PM,  10:30 AM - 8:30 PM,  10:30 AM - 8:30 PM",,,
DKNY Men's Lotte Suwon,,134 Sehwa-Ro,,Suwon,,16621,KR,+82.31.806.606.54,,," 10:30 AM - 8:00 PM,  10:30 AM - 8:00 PM,  10:30 AM - 8:00 PM,  10:30 AM - 8:00 PM,  10:30 AM - 8:30 PM,  10:30 AM - 8:30 PM,  10:30 AM - 8:30 PM",,,
DKNY Men's Ak Suwon,,924 Deogyeong-Daero,,Suwon,,16622,KR,+82.31.240.1487,,," 10:30 AM - 8:00 PM,  10:30 AM - 8:00 PM,  10:30 AM - 8:00 PM,  10:30 AM - 8:00 PM,  10:30 AM - 8:30 PM,  10:30 AM - 8:30 PM,  10:30 AM - 8:30 PM",,,
DKNY Ak Suwon,,924 Deogyeong-Daero,,Suwon,,16622,KR,+82.31.240.1774,,," 10:30 AM - 8:00 PM,  10:30 AM - 8:00 PM,  10:30 AM - 8:00 PM,  10:30 AM - 8:00 PM,  10:30 AM - 8:30 PM,  10:30 AM - 8:30 PM,  10:30 AM - 8:30 PM",,,
DKNY Galleria Suwon,,282 Hyowon-Ro,,Suwon,,16491,KR,+82.31.267.0060,,," 10:30 AM - 8:00 PM,  10:30 AM - 8:00 PM,  10:30 AM - 8:00 PM,  10:30 AM - 8:00 PM,  10:30 AM - 8:30 PM,  10:30 AM - 8:30 PM,  10:30 AM - 8:30 PM",,,
DKNY Shinsegae Uijeongbu,,525 Pyeonghwa-Ro,,Uijeongbu,,11696,KR,+82.31.808.205.13,,," 10:30 AM - 8:00 PM,  10:30 AM - 8:00 PM,  10:30 AM - 8:00 PM,  10:30 AM - 8:00 PM,  10:30 AM - 8:30 PM,  10:30 AM - 8:30 PM,  10:30 AM - 8:30 PM",,,
DKNY Men's Hyundai Ulsan,,261 Samsan-Ro,,Ulsan,,44705,KR,+82.52.228.0352,,," 10:30 AM - 8:00 PM,  10:30 AM - 8:00 PM,  10:30 AM - 8:00 PM,  10:30 AM - 8:00 PM,  10:30 AM - 8:30 PM,  10:30 AM - 8:30 PM,  10:30 AM - 8:30 PM",,,
DKNY Hyundai Ulsan,,261 Samsan-Ro,,Ulsan,,44705,KR,+82.52.228.0314,,," 10:30 AM - 8:00 PM,  10:30 AM - 8:00 PM,  10:30 AM - 8:00 PM,  10:30 AM - 8:00 PM,  10:30 AM - 8:30 PM,  10:30 AM - 8:30 PM,  10:30 AM - 8:30 PM",,,
DKNY Lotte Ulsan,,288 Samsan-Ro,,Ulsan,,44719,KR,+82.52.960.5160,,," 10:30 AM - 8:00 PM,  10:30 AM - 8:00 PM,  10:30 AM - 8:00 PM,  10:30 AM - 8:00 PM,  10:30 AM - 8:30 PM,  10:30 AM - 8:30 PM,  10:30 AM - 8:30 PM",,,
DKNY Men's Shinsegae Gyeonggi,,536 Poeun-Daero,,Yongin,,16896,KR,+82.31.695.1412,,," 10:30 AM - 8:00 PM,  10:30 AM - 8:00 PM,  10:30 AM - 8:00 PM,  10:30 AM - 8:00 PM,  10:30 AM - 9:00 PM,  10:30 AM - 9:00 PM,  10:30 AM - 9:00 PM",,,
DKNY Shinsegae Gyeonggi,,536 Poeun-Daero,,Yongin,,16896,KR,+82.31.695.2225,,," 10:30 AM - 9:00 PM,  10:30 AM - 9:00 PM,  10:30 AM - 9:00 PM,  10:30 AM - 9:00 PM,  10:30 AM - 9:00 PM,  10:30 AM - 9:00 PM,  10:30 AM - 9:00 PM",,,
DKNY Accessories Promenade,,Tunisia St,GF,Kuwait City,,,KW,+965.222.498.41,,," 10:00 AM - 10:00 PM,  10:00 AM - 10:00 PM,  10:00 AM - 10:00 PM,  10:00 AM - 10:00 PM,  1:00 PM - 10:00 PM,  10:00 AM - 10:00 PM,  10:00 AM - 10:00 PM",,,
DKNY Accessories Marina Mall,,Arabian Gulf Street,GF,Kuwait City,,,KW,+965.222.448.42,,," 10:00 AM - 10:00 PM,  10:00 AM - 10:00 PM,  10:00 AM - 10:00 PM,  10:00 AM - 10:00 PM,  1:00 PM - 10:00 PM,  10:00 AM - 10:00 PM,  10:00 AM - 10:00 PM",,,
DKNY Avenues Mall,,5th Ring Road,GF,Kuwait City,,,KW,+965.225.971.11,,," 10:00 AM - 10:00 PM,  10:00 AM - 10:00 PM,  10:00 AM - 10:00 PM,  10:00 AM - 11:00 PM,  1:00 PM - 10:00 PM,   - ,  10:00 AM - 10:00 PM",,,
DKNY Accessories 360 Mall,,800001 Faris Abdulrahman Al Waqayan St,GF,Kuwait City,,,KW,+965.253.099.11,,," 10:00 AM - 10:00 PM,  10:00 AM - 10:00 PM,  10:00 AM - 10:00 PM,  10:00 AM - 11:00 PM,  1:00 PM - 10:00 PM,  10:00 AM - 11:00 PM,  10:00 AM - 10:00 PM",,,
DKNY Solidere,,Independence St,GF,Beirut,,,LB,+961.1.992.337,,," 10:00 AM - 10:00 PM,  10:00 AM - 10:00 PM,  10:00 AM - 10:00 PM,  10:00 AM - 10:00 PM,  10:00 AM - 10:00 PM,  10:00 AM - 10:00 PM,  10:00 AM - 10:00 PM",,,
DKNY Sands Cotai Central,,Shop 2003A 2/F Shoppes Cotai Central Sands Cotai Central Macua Sar,L2 Shop 2003A,Macau,,999078,MO,+853.2885.3064,,," 9:30 AM - 11:00 PM,  9:30 AM - 11:00 PM,  9:30 AM - 11:00 PM,  9:30 AM - 11:00 PM,  9:30 AM - 11:00 PM,  9:30 AM - 11:00 PM,  9:30 AM - 11:00 PM",,,
DKNY Galaxy,,Shop 1014 Galaxy Macau™ Cotai Macau Sar,1F Shop 1014,Macau,,,MO,+853.2882.5670,,,"  - ,   - ,   - ,   - ,  10:00 AM - 12:00 AM,  10:00 AM - 12:00 AM,   - ",,,
DKNY One Central,,Shop 212 2/F One Central Macau Avenida De Sagres Nape Macau Sar,2F Shop 212,Macau,,999078,MO,+853.2850.8130,,," 10:00 AM - 11:00 PM,  10:00 AM - 11:00 PM,  10:00 AM - 11:00 PM,  10:00 AM - 11:00 PM,  10:00 AM - 11:00 PM,  10:00 AM - 11:00 PM,  10:00 AM - 11:00 PM",,,
DKNY Kuala Lumpur The Gardens Midvalley,,The Gardens Mid Valley City Lingkaran Syed Putra,GF Lot G-217,Kuala Lumpur,,59200,MY,+603.228.761.91,,," 10:00 AM - 10:00 PM,  10:00 AM - 10:00 PM,  10:00 AM - 10:00 PM,  10:00 AM - 10:00 PM,  10:00 AM - 10:00 PM,  10:00 AM - 10:00 PM,  10:00 AM - 10:00 PM",,,
DKNY Kuala Lumpur Suria Klcc,,Suria Klcc,1F Lot 132B & 133B,Kuala Lumpur,,50088,MY,+603.216.437.63,,," 10:00 AM - 10:00 PM,  10:00 AM - 10:00 PM,  10:00 AM - 10:00 PM,  10:00 AM - 10:00 PM,  10:00 AM - 10:00 PM,  10:00 AM - 10:00 PM,  10:00 AM - 10:00 PM",,,
DKNY Accessories Kuala Lumpur Isetan The Gardens Midvalley,,Lingkaran Syed Putra,GF,Kuala Lumpur,,59200,MY,+603.2287.1181,,," 10:00 AM - 9:30 PM,  10:00 AM - 9:30 PM,  10:00 AM - 9:30 PM,  10:00 AM - 9:30 PM,  10:00 AM - 9:30 PM,  10:00 AM - 9:30 PM,  10:00 AM - 9:30 PM",,,
DKNY Accessories Kuala Lumpur Parkson Pavilion,,168 Jalan Bukit Bintang,L3 Lot 3.54,Kuala Lumpur,,50088,MY,+603.214.196.60,,," 10:00 AM - 10:00 PM,  10:00 AM - 10:00 PM,  10:00 AM - 10:00 PM,  10:00 AM - 10:00 PM,  10:00 AM - 10:00 PM,  10:00 AM - 10:00 PM,  10:00 AM - 10:00 PM",,,
DKNY Kuala Lumpur Pavilion,,168 Jalan Bukit Bintang,L2 Lot 2.44 2.45 & 2.47,Kuala Lumpur,,55100,MY,+603.214.197.70,,," 10:00 AM - 10:00 PM,  10:00 AM - 10:00 PM,  10:00 AM - 10:00 PM,  10:00 AM - 10:00 PM,  10:00 AM - 10:00 PM,  10:00 AM - 10:00 PM,  10:00 AM - 10:00 PM",,,
DKNY Selangor One Utama,,No. 1 Lebuh Bandar Utama,GF G310,Kuala Lumpur,,47800,MY,+603.772.256.60,,," 10:00 AM - 10:00 PM,  10:00 AM - 10:00 PM,  10:00 AM - 10:00 PM,  10:00 AM - 10:00 PM,  10:00 AM - 10:00 PM,  10:00 AM - 10:00 PM,  10:00 AM - 10:00 PM",,,
DKNY Accessories Kuala Lumpur Parkson KLCC,,Suria KLCC,1F,Kuala Lumpur,,50088,MY,+603.216.228.22,,," 10:00 AM - 10:00 PM,  10:00 AM - 10:00 PM,  10:00 AM - 10:00 PM,  10:00 AM - 10:00 PM,  10:00 AM - 10:00 PM,  10:00 AM - 10:00 PM,  10:00 AM - 10:00 PM",,,
DKNY Power Plant Mall,,Rockwell Drive Corner Estrella Street,GF,Makati City,,1200,PH,+632.898.2405,,," 11:00 AM - 9:00 PM,  11:00 AM - 9:00 PM,  11:00 AM - 9:00 PM,  11:00 AM - 9:00 PM,  11:00 AM - 10:00 PM,  10:00 AM - 10:00 PM,  10:00 AM - 9:00 PM",,,
DKNY Accessories Rustan's Makati,,Ayala Avenue,2F,Makati City,,1224,PH,+632.840.0730,,," 11:00 AM - 9:00 PM,  11:00 AM - 9:00 PM,  11:00 AM - 9:00 PM,  11:00 AM - 9:00 PM,  10:00 AM - 10:00 PM,  10:00 AM - 10:00 PM,  11:00 AM - 9:00 PM",,,
DKNY Shangri-La Plaza Mall - East Wing,,Edsa Corner Shaw Boulevard,1F,Mandaluyong City,,1552,PH,+632.621.1022,,," 11:00 AM - 9:00 PM,  11:00 AM - 9:00 PM,  11:00 AM - 9:00 PM,  11:00 AM - 9:00 PM,  11:00 AM - 10:00 PM,  10:00 AM - 10:00 PM,  10:00 AM - 9:00 PM",,,
DKNY Accessories Alabang Town Center,,Madrigal Avenue Corner Commerce Avenue,GF,Muntinlupa City,,1780,PH,+632.842.4244,,," 11:00 AM - 9:00 PM,  11:00 AM - 9:00 PM,  11:00 AM - 9:00 PM,  11:00 AM - 9:00 PM,  11:00 AM - 9:00 PM,  10:00 AM - 10:00 PM,  10:00 AM - 9:00 PM",,,
DKNY Accessories Newport Mall,,Resorts World Manila,GF,Pasay City,,1309,PH,+632.239.1408,,," 12:00 PM - 12:00 AM,  12:00 PM - 12:00 AM,  12:00 PM - 12:00 AM,  12:00 PM - 12:00 AM,  12:00 PM - 12:00 AM,  10:00 AM - 12:00 AM,  10:00 AM - 12:00 AM",,,
DKNY Bhs Central,,5th Avenue Corner 28th Street,C1,Taguig City,,1634,PH,+632.625.4299,,," 11:00 AM - 10:00 PM,  11:00 AM - 10:00 PM,  11:00 AM - 10:00 PM,  11:00 AM - 10:00 PM,  10:00 AM - 10:00 PM,  10:00 AM - 10:00 PM,  10:00 AM - 9:00 PM",,,
DKNY Lagoona,,West Bay Zone 66,GF,Doha,,,QA,+974.448.397.06,,," 10:00 AM - 10:00 PM,  10:00 AM - 10:00 PM,  10:00 AM - 10:00 PM,  10:00 AM - 10:00 PM,  10:00 AM - 10:00 PM,  10:00 AM - 10:00 PM,  10:00 AM - 10:00 PM",,,
DKNY Mall Of Qatar,,Al Rayyan,,Doha,,,QA,44839706,,,,,,
DKNY Accessories Kapitoliy,,Vernadsky Prospekt 6,Floor 1,Moscow,,119334,RU,+7.499.951.4936,,," 10:00 AM - 10:00 PM,  10:00 AM - 10:00 PM,  10:00 AM - 10:00 PM,  10:00 AM - 10:00 PM,  10:00 AM - 10:00 PM,  10:00 AM - 10:00 PM,  10:00 AM - 10:00 PM",,,
DKNY Accessories Neglinnaya,,Trubnaya Square 2,Floor 1,Moscow,,127051,RU,+7.495.705.9834,,," 10:00 AM - 10:00 PM,  10:00 AM - 10:00 PM,  10:00 AM - 10:00 PM,  10:00 AM - 10:00 PM,  10:00 AM - 10:00 PM,  10:00 AM - 10:00 PM,  10:00 AM - 10:00 PM",,,
DKNY 4 Seasons,,Kutuzovsky Prospekt 48,Floor 2,Moscow,,121352,RU,+7.495.287.1264,,," 10:00 AM - 10:00 PM,  10:00 AM - 10:00 PM,  10:00 AM - 10:00 PM,  10:00 AM - 10:00 PM,  10:00 AM - 10:00 PM,  10:00 AM - 10:00 PM,  10:00 AM - 10:00 PM",,,
DKNY Accessories Atrium,,Zemlyanoy Val 33,Floor 2,Moscow,,105064,RU,+7.495.970.1446,,," 10:00 AM - 10:00 PM,  10:00 AM - 10:00 PM,  10:00 AM - 10:00 PM,  10:00 AM - 10:00 PM,  10:00 AM - 10:00 PM,  10:00 AM - 10:00 PM,  10:00 AM - 10:00 PM",,,
DKNY Accessories Mega Teply Stan,,Kaluga Highway 21 Km,Floor 1,Moscow,,142770,RU,+7.499.922.1866,,," 10:00 AM - 10:00 PM,  10:00 AM - 10:00 PM,  10:00 AM - 10:00 PM,  10:00 AM - 10:00 PM,  10:00 AM - 10:00 PM,  10:00 AM - 10:00 PM,  10:00 AM - 10:00 PM",,,
DKNY Gum,,Red Square 3,Floor 2,Moscow,,109012,RU,+7.495.620.3724,,," 10:00 AM - 10:00 PM,  10:00 AM - 10:00 PM,  10:00 AM - 10:00 PM,  10:00 AM - 10:00 PM,  10:00 AM - 10:00 PM,  10:00 AM - 10:00 PM,  10:00 AM - 10:00 PM",,,
DKNY Accessories Mega Balaya Dacha,,First Pokrovsky Drive Mkad 5,Floor 1,Moscow,,140053,RU,+7.495.641.2441,,," 10:00 AM - 10:00 PM,  10:00 AM - 10:00 PM,  10:00 AM - 10:00 PM,  10:00 AM - 10:00 PM,  10:00 AM - 10:00 PM,  10:00 AM - 10:00 PM,  10:00 AM - 10:00 PM",,,
DKNY Metropolis,,Leningrad Highway 16A,Bld. 4 Floor 2,Moscow,,125171,RU,+7.495.287.7061,,," 10:00 AM - 11:00 PM,  10:00 AM - 11:00 PM,  10:00 AM - 11:00 PM,  10:00 AM - 11:00 PM,  10:00 AM - 11:00 PM,  10:00 AM - 11:00 PM,  10:00 AM - 11:00 PM",,,
DKNY Accessories Otrada,,Pyatnitskiy Highway Ow. 2,Floor 1,Moscow,,143442,RU,+7.495.780.4246,,," 10:00 AM - 10:00 PM,  10:00 AM - 10:00 PM,  10:00 AM - 10:00 PM,  10:00 AM - 10:00 PM,  10:00 AM - 10:00 PM,  10:00 AM - 10:00 PM,  10:00 AM - 10:00 PM",,,
DKNY Astor Plaza,,Budennovsky Avenue 49/97,Floor 1,Rostov-On Don,,344082,RU,+7.863.295.7975,,," 10:00 AM - 10:00 PM,  10:00 AM - 10:00 PM,  10:00 AM - 10:00 PM,  10:00 AM - 10:00 PM,  10:00 AM - 10:00 PM,  10:00 AM - 10:00 PM,  10:00 AM - 10:00 PM",,,
DKNY Accessories Horizont,,Avenue M.Nagibina 32/2,Floor 1,Rostov-On Don,,344000,RU,+7.863.272.5244,,," 10:00 AM - 10:00 PM,  10:00 AM - 10:00 PM,  10:00 AM - 10:00 PM,  10:00 AM - 10:00 PM,  10:00 AM - 10:00 PM,  10:00 AM - 10:00 PM,  10:00 AM - 10:00 PM",,,
DKNY Galeria Mall,,Ligovsky Avenue 30,Floor 1 Litera A,St. Petersburg,,191040,RU,+7.812.449.4374,,," 10:00 AM - 10:00 PM,  10:00 AM - 10:00 PM,  10:00 AM - 10:00 PM,  10:00 AM - 10:00 PM,  10:00 AM - 10:00 PM,  10:00 AM - 10:00 PM,  10:00 AM - 10:00 PM",,,
DKNY Europa Mall,,Lenin Avenue 25,Floor 1,Yekaterinburg,,620000,RU,+7.343.253.7086,,," 10:00 AM - 10:00 PM,  10:00 AM - 10:00 PM,  10:00 AM - 10:00 PM,  10:00 AM - 10:00 PM,  10:00 AM - 10:00 PM,  10:00 AM - 10:00 PM,  10:00 AM - 10:00 PM",,,
DKNY Accessories Greenwich,,8 March Avenue 46,,Yekaterinburg,,620000,RU,+7.343.311.1484,,," 10:00 AM - 10:00 PM,  10:00 AM - 10:00 PM,  10:00 AM - 10:00 PM,  10:00 AM - 10:00 PM,  10:00 AM - 10:00 PM,  10:00 AM - 10:00 PM,  10:00 AM - 10:00 PM",,,
DKNY Rashid,,Prince Mohammad Bin Nasser Road Jazan,Floor 1,Dammam,,,SA,+966.13.865.3718 / +966.56.709.8366,,," 8:00 AM - 2:00 AM,  8:00 AM - 2:00 AM,  8:00 AM - 2:00 AM,  8:00 AM - 2:00 AM,  12:30 PM - 2:00 AM,  8:00 AM - 2:00 AM,  8:00 AM - 2:00 AM",,,
DKNY Dahran,,Doha Al Janubiyah,Floor 1,Dammam,,,SA,+966.13.868.1562 / +966.59.088.5225,,," 9:30 AM - 11:30 PM,  9:30 AM - 11:30 PM,  9:30 AM - 11:30 PM,  9:30 AM - 11:30 PM,  1:00 PM - 11:30 PM,   - ,  9:30 AM - 11:30 PM",,,
DKNY Bougainvillea,,Abdul Ghani Dada Al-Zahra'A,Floor 1,Jeddah,,,SA,+966.12.206.4188,,," 10:00 AM - 12:00 AM,  10:00 AM - 12:00 AM,  10:00 AM - 12:00 AM,  10:00 AM - 12:00 AM,  12:30 PM - 11:30 PM,  10:00 AM - 12:00 AM,  10:00 AM - 12:00 AM",,,
DKNY Mall Of Arabia,,Al-Nuzhah,Floor 1,Jeddah,,,SA,+966.12.655.3180,,," 10:00 AM - 12:00 AM,  10:00 AM - 12:00 AM,  10:00 AM - 12:00 AM,  10:00 AM - 12:00 AM,  12:30 PM - 11:30 PM,   - ,  10:00 AM - 12:00 AM",,,
DKNY Accessories Aziz Mall,,Prince Majid Rd,Floor 1,Jeddah,,,SA,+966.12.639.2092,,," 9:00 AM - 11:30 PM,  9:00 AM - 11:30 PM,  9:00 AM - 11:30 PM,  9:00 AM - 11:30 PM,  4:00 PM - 1:00 AM,   - ,  9:00 AM - 11:30 PM",,,
DKNY Accessories Red Sea Mall,,King Abdulaziz Branch Rd,Floor 1,Jeddah,,,SA,+966.12.215.1014,,," 10:00 AM - 12:00 AM,  10:00 AM - 12:00 AM,  10:00 AM - 12:00 AM,  10:00 AM - 12:00 AM,  4:30 PM - 12:00 AM,   - ,  10:00 AM - 12:00 AM",,,
DKNY Accessories Mall Of Makkah,,King Abdullah Rd,Floor 1,Makkah,,,SA,+966.12.524.2688,,," 10:00 AM - 12:00 AM,  10:00 AM - 12:00 AM,  10:00 AM - 12:00 AM,  10:00 AM - 12:00 AM,  12:30 PM - 11:30 PM,   - ,  10:00 AM - 12:00 AM",,,
DKNY Accessories Sahara Mall,,King Abdul Aziz Branch Rd,GF,Riyadh,,,SA,+966.11.452.0314,,," 9:30 AM - 11:30 PM,  9:30 AM - 11:30 PM,  9:30 AM - 11:30 PM,  9:30 AM - 11:30 PM,  9:30 AM - 11:30 PM,  4:00 PM - 11:00 PM,  9:30 AM - 11:30 PM",,,
DKNY Accessories Hyatt Mall,,King Abdul Aziz Rd King Fahd,GF,Riyadh,,,SA,+966.09.225.3907,,," 8:00 AM - 1:00 AM,  8:00 AM - 1:00 AM,  8:00 AM - 1:00 AM,  8:00 AM - 1:00 AM,  8:00 AM - 1:00 AM,  8:00 AM - 1:00 AM,  8:00 AM - 1:00 AM",,,
DKNY Granada Mall,,Eastern Ring Rd Ash Shuhada,GF,Riyadh,,,SA,+966.11.249.5531,,," 10:00 AM - 12:00 AM,  10:00 AM - 12:00 AM,  10:00 AM - 12:00 AM,  10:00 AM - 12:00 AM,  10:00 AM - 12:00 AM,  10:00 AM - 12:00 AM,  10:00 AM - 12:00 AM",,,
DKNY Nakheel Mall,,2976 Al Imam Saud Ibn Abdul Aziz Branch Rd,GF,Riyadh,,,SA,+966.6.385.2504,,," 9:30 AM - 11:00 PM,  9:30 AM - 11:00 PM,  9:30 AM - 11:00 PM,  9:30 AM - 11:00 PM,  4:00 PM - 12:00 AM,   - ,  9:30 AM - 11:00 PM",,,
DKNY Accessories Takashimaya Ngee Ann City,,L2,391A Orchard Road,Singapore,,238873,SG,+65.812.155.14,,," 10:00 AM - 9:30 PM,  10:00 AM - 9:30 PM,  10:00 AM - 9:30 PM,  10:00 AM - 9:30 PM,  10:00 AM - 9:30 PM,  10:00 AM - 9:30 PM,  10:00 AM - 9:30 PM",,,
DKNY Isetan Scotts,,350 Orchard Road,L2 Shaw House,Singapore,,228208,SG,+65.630.413.92,,," 11:00 AM - 9:00 PM,  11:00 AM - 9:00 PM,  11:00 AM - 9:00 PM,  11:00 AM - 9:00 PM,  11:00 AM - 9:30 PM,  11:00 AM - 9:30 PM,  11:00 AM - 9:00 PM",,,
DKNY Accessories Isetan Scotts,,350 Orchard Road,L1 Shaw House,Singapore,,228208,SG,+65.673.311.11,,," 11:00 AM - 9:00 PM,  11:00 AM - 9:00 PM,  11:00 AM - 9:00 PM,  11:00 AM - 9:00 PM,  11:00 AM - 9:30 PM,  11:00 AM - 9:30 PM,  11:00 AM - 9:00 PM",,,
DKNY Takashimaya Ngee Ann City,,391A Orchard Road,L2,Singapore,,238873,SG,+65.630.413.81,,," 10:00 AM - 9:30 PM,  10:00 AM - 9:30 PM,  10:00 AM - 9:30 PM,  10:00 AM - 9:30 PM,  10:00 AM - 9:30 PM,  10:00 AM - 9:30 PM,  10:00 AM - 9:30 PM",,,
DKNY Accessories Vivo City,,1 Harbourfront Walk,L1 204/205,Singapore,,098585,SG,+65.630.435.61,,," 11:00 AM - 9:00 PM,  11:00 AM - 9:00 PM,  11:00 AM - 9:00 PM,  11:00 AM - 9:00 PM,  11:00 AM - 9:30 PM,  11:00 AM - 9:30 PM,  11:00 AM - 9:00 PM",,,
DKNY Ion Orchard,,2 Orchard Turn,L3 03-12,Singapore,,238801,SG,+65.630.413.95,,," 10:30 AM - 9:30 PM,  10:30 AM - 9:30 PM,  10:30 AM - 9:30 PM,  10:30 AM - 9:30 PM,  10:30 AM - 9:30 PM,  10:30 AM - 9:30 PM,  10:30 AM - 9:30 PM",,,
DKNY Paragon,,290 Orchard Road,L2 #02-43,Singapore,,238859,SG,+65.630.413.44,,," 10:30 AM - 9:00 PM,  10:30 AM - 9:00 PM,  10:30 AM - 9:00 PM,  10:30 AM - 9:00 PM,  10:30 AM - 9:00 PM,  10:30 AM - 9:00 PM,  10:30 AM - 9:00 PM",,,
DKNY Central Childlom,,1027 Ploenchit Road,1F,Bangkok,,10330,TH,+662.252.0279,,," 10:00 AM - 10:00 PM,  10:00 AM - 10:00 PM,  10:00 AM - 10:00 PM,  10:00 AM - 10:00 PM,  10:00 AM - 10:00 PM,  10:00 AM - 10:00 PM,  10:00 AM - 10:00 PM",,,
DKNY Accessories Central Ladprao,,1693 Phaholyothin Road,1F,Bangkok,,10900,TH,+662.541.1534,,," 10:00 AM - 10:00 PM,  10:00 AM - 10:00 PM,  10:00 AM - 10:00 PM,  10:00 AM - 10:00 PM,  10:00 AM - 10:00 PM,  10:00 AM - 10:00 PM,  10:00 AM - 10:00 PM",,,
DKNY Accessories Central Childlom,,1027 Ploenchit Road,2F,Bangkok,,10330,TH,+662.252.0279,,," 10:00 AM - 10:00 PM,  10:00 AM - 10:00 PM,  10:00 AM - 10:00 PM,  10:00 AM - 10:00 PM,  10:00 AM - 10:00 PM,  10:00 AM - 10:00 PM,  10:00 AM - 10:00 PM",,,
DKNY Central Festival Phuket,,74-75 Moo 5 Vichitsongkram Road,1F,Phuket,,83000,TH,+667.620.9414,,," 10:30 AM - 10:00 PM,  10:30 AM - 10:00 PM,  10:30 AM - 10:00 PM,  10:30 AM - 10:00 PM,  10:30 AM - 10:00 PM,  10:30 AM - 10:00 PM,  10:30 AM - 10:00 PM",,,
DKNY Accessories Siam Paragon,,991/1 Rama I Rd,LM,Bangkok,,10330,TH,+662.610.7860,,," 10:00 AM - 10:00 PM,  10:00 AM - 10:00 PM,  10:00 AM - 10:00 PM,  10:00 AM - 10:00 PM,  10:00 AM - 10:00 PM,  10:00 AM - 10:00 PM,  10:00 AM - 10:00 PM",,,
DKNY Emquartier Shopping Complex,,8 Sukhumvit Road,LM The Waterfall BuildingThe Emquartier,Bangkok,,10110,TH,+662.021.2188,,," 11:00 AM - 8:00 PM,  11:00 AM - 8:00 PM,  11:00 AM - 8:00 PM,  11:00 AM - 8:00 PM,  10:00 AM - 9:00 PM,  10:00 AM - 9:00 PM,  10:00 AM - 9:00 PM",,,
DKNY Siam Paragon,,991/1 Rama I Rd,L1,Bangkok,,10330,TH,+662.610.7860,,," 10:00 AM - 10:00 PM,  10:00 AM - 10:00 PM,  10:00 AM - 10:00 PM,  10:00 AM - 10:00 PM,  10:00 AM - 10:00 PM,  10:00 AM - 10:00 PM,  10:00 AM - 10:00 PM",,,
DKNY Kavaklidere,,Atatürk Bulvarı Ilbank Sitesi Blokları No. 243,C-51,Ankara,,,TR,+90.312.428.2476,,," 10:00 AM - 8:00 PM,  10:00 AM - 8:00 PM,  10:00 AM - 8:00 PM,  10:00 AM - 8:00 PM,  10:00 AM - 8:00 PM,  10:00 AM - 8:00 PM,  10:00 AM - 8:00 PM",,,
DKNY Nisantasi,,Abdi Ipekçi Cad. Polat Palas No:63,,Istanbul,,,TR,+90.212.241.6049,,," 10:00 AM - 8:00 PM,  10:00 AM - 8:00 PM,  10:00 AM - 8:00 PM,  10:00 AM - 8:00 PM,  10:00 AM - 8:00 PM,  10:00 AM - 8:00 PM,  10:00 AM - 8:00 PM",,,
DKNY Istinye Park,,Istinye Park Alışveriş MerkeziPınarIstinye Bayırı Cd.,,Istynie,,,TR,+90.212.345.5098,,," 10:00 AM - 10:00 PM,  10:00 AM - 10:00 PM,  10:00 AM - 10:00 PM,  10:00 AM - 10:00 PM,  10:00 AM - 10:00 PM,  10:00 AM - 10:00 PM,  10:00 AM - 10:00 PM",,,
DKNY Far Eastern Paoching,,No. 32 Paocing Road,2F,Taipei,,10422,TW,+886.2.238.981.13,,," 11:00 AM - 9:30 PM,  11:00 AM - 9:30 PM,  11:00 AM - 9:30 PM,  11:00 AM - 9:30 PM,  11:00 AM - 10:00 PM,  11:00 AM - 10:00 PM,  11:00 AM - 9:30 PM",,,
DKNY Han Shin - Kaoshiung,,No. 266 Chenggong 1st Road,2F,Kaohsiung City,,80146,TW,+886.7.215.0315,,," 11:00 AM - 10:00 PM,  11:00 AM - 10:00 PM,  11:00 AM - 10:00 PM,  11:00 AM - 10:00 PM,  11:00 AM - 10:30 PM,  10:30 AM - 10:30 PM,  10:30 AM - 10:30 PM",,,
DKNY Mitsukoshi - Taichung,,No.301 Sec. 3 Taiwan Blvd.,3F,Taichung City,,40756,TW,+886.4.225.590.60,,," 11:00 AM - 10:00 PM,  11:00 AM - 10:00 PM,  11:00 AM - 10:00 PM,  11:00 AM - 10:00 PM,  11:00 AM - 10:00 PM,  10:30 AM - 10:00 PM,  10:30 AM - 10:00 PM",,,
DKNY Accessories Kuang San Sogo,,No 459 Sec. 2 Taiwan Blvd.,2F,Taichung City,,40360,TW,+886.4.232.849.92,,," 11:00 AM - 10:00 PM,  11:00 AM - 10:00 PM,  11:00 AM - 10:00 PM,  11:00 AM - 10:00 PM,  11:00 AM - 10:00 PM,  10:30 AM - 10:00 PM,  10:30 AM - 10:00 PM",,,
DKNY Miramar Entertainment Park,,No. 20 Ji-Ye 3rd Road,1F,Taipei,,10466,TW,+886.2.850.253.72,,," 11:00 AM - 10:00 PM,  11:00 AM - 10:00 PM,  11:00 AM - 10:00 PM,  11:00 AM - 10:00 PM,  11:00 AM - 10:00 PM,  11:00 AM - 10:00 PM,  11:00 AM - 10:00 PM",,,
DKNY Breeze Song Gao,,No. 16 Song-Gao Rd.,1F,Taipei,,11073,TW,287869913,,," 11:00 AM - 10:00 PM,  11:00 AM - 10:00 PM,  11:00 AM - 10:00 PM,  11:00 AM - 10:00 PM,  11:00 AM - 10:00 PM,  10:30 AM - 10:00 PM,  10:30 AM - 10:00 PM",,,
DKNY Breeze Center,,No. 39 Sec. 1 Fusing S. Road,GF,Taipei,,10556,TW,+886.2.877.256.49,,," 11:00 AM - 9:30 PM,  11:00 AM - 9:30 PM,  11:00 AM - 9:30 PM,  11:00 AM - 10:00 PM,  11:00 AM - 10:00 PM,  11:00 AM - 10:00 PM,  11:00 AM - 9:30 PM",,,
DKNY The Mall,,No. 203 Sec. 2 Tun Hua S. Road,3F,Taipei,,10602,TW,+886.2.273.980.63,,," 11:00 AM - 9:30 PM,  11:00 AM - 9:30 PM,  11:00 AM - 9:30 PM,  11:00 AM - 9:30 PM,  11:00 AM - 10:00 PM,  11:00 AM - 10:00 PM,  11:00 AM - 9:30 PM",,,
DKNY Accessories Mitsukoshi Nanxi Store One,,No. 12 Nanking W. Road,2F,Taipei,,10444,TW,+886.2.256.789.62,,," 11:00 AM - 9:30 PM,  11:00 AM - 9:30 PM,  11:00 AM - 9:30 PM,  11:00 AM - 9:30 PM,  11:00 AM - 10:00 PM,  11:00 AM - 10:00 PM,  11:00 AM - 9:30 PM",,,
DKNY Vincom Bà Triệu,,191 Ba Trieu Street,,Hanoi,,,VN,+84.4.397.499.99,,," 9:30 AM - 10:00 PM,  9:30 AM - 10:00 PM,  9:30 AM - 10:00 PM,  9:30 AM - 10:00 PM,  9:30 AM - 10:00 PM,  9:30 AM - 10:00 PM,  9:30 AM - 10:00 PM",,,
DKNY Vincom B Center,,72 Le Thanh Ton Street,,Ho Chi Minh,,,VN,+84.8.391.005.00,,," 9:30 AM - 10:00 PM,  9:30 AM - 10:00 PM,  9:30 AM - 10:00 PM,  9:30 AM - 10:00 PM,  9:30 AM - 10:00 PM,  9:30 AM - 10:00 PM,  9:30 AM - 10:00 PM",,,
DKNY Phoenix,,4976 Premium Outlets Way,Suite 616,Chandler,AZ,85226,US,480.639.1713,,," 10:00 AM - 9:00 PM,  10:00 AM - 9:00 PM,  10:00 AM - 9:00 PM,  10:00 AM - 9:00 PM,  10:00 AM - 9:00 PM,  10:00 AM - 9:00 PM,  10:00 AM - 7:00 PM",,,
DKNY Cabazon,,48650 Seminole Rd,Suite 126,Cabazon,CA,92230,US,951.849.2416,,," 10:00 AM - 9:00 PM,  10:00 AM - 9:00 PM,  10:00 AM - 9:00 PM,  10:00 AM - 9:00 PM,  10:00 AM - 9:00 PM,  10:00 AM - 9:00 PM,  10:00 AM - 8:00 PM",,,
DKNY Camarillo,,950 Camarillo Center Dr,Suite 930,Camarillo,CA,93010,US,805.987.2477,,," 10:00 AM - 9:00 PM,  10:00 AM - 9:00 PM,  10:00 AM - 9:00 PM,  10:00 AM - 9:00 PM,  10:00 AM - 9:00 PM,  10:00 AM - 9:00 PM,  10:00 AM - 8:00 PM",,,
DKNY Gilroy,,8300 Arroyo Circle,Suite B370,Gilroy,CA,95020,US,408.847.2785,,," 10:00 AM - 9:00 PM,  10:00 AM - 9:00 PM,  10:00 AM - 9:00 PM,  10:00 AM - 9:00 PM,  10:00 AM - 9:00 PM,  10:00 AM - 9:00 PM,  10:00 AM - 9:00 PM",,,
DKNY Livermore,,2778 Livermore Outlets Drive,,Livermore,CA,94551,US,925.456.0599,,," 10:00 AM - 9:00 PM,  10:00 AM - 9:00 PM,  10:00 AM - 9:00 PM,  10:00 AM - 9:00 PM,  10:00 AM - 9:00 PM,  10:00 AM - 9:00 PM,  10:00 AM - 7:00 PM",,,
DKNY Citadel,,100 Citadel Drive,Suite 329,Los Angelas,CA,90040,US,323.728.8996,,," 9:00 AM - 9:00 PM,  10:00 AM - 9:00 PM,  10:00 AM - 9:00 PM,  10:00 AM - 9:00 PM,  10:00 AM - 9:00 PM,  9:00 AM - 9:00 PM,  9:00 AM - 9:00 PM",,,
DKNY Milpitas,,447 Great Mall Drive,Suite 526 A,Milpitas,CA,95053,US,408.586.8679,,," 10:00 AM - 9:00 PM,  10:00 AM - 9:00 PM,  10:00 AM - 9:00 PM,  10:00 AM - 9:00 PM,  10:00 AM - 9:00 PM,  10:00 AM - 9:00 PM,  11:00 AM - 8:00 PM",,,
DKNY Ontario Mills,,One Mills Circle,Suite 904A,Ontario,CA,91764,US,909.484.1201,,," 10:00 AM - 9:00 PM,  10:00 AM - 9:00 PM,  10:00 AM - 9:00 PM,  10:00 AM - 9:00 PM,  10:00 AM - 9:00 PM,  10:00 AM - 9:00 PM,  11:00 AM - 8:00 PM",,,
DKNY Orange,,20 City Boulevard West,Suite 505A,Orange,CA,92868,US,714.456.9072,,," 10:00 AM - 9:00 PM,  10:00 AM - 9:00 PM,  10:00 AM - 9:00 PM,  10:00 AM - 9:00 PM,  10:00 AM - 10:00 PM,  10:00 AM - 10:00 PM,  11:00 AM - 9:00 PM",,,
DKNY Vacaville,,364 Nut Tree Road,,Vacaville,CA,95687,US,707.447.4541,,," 10:00 AM - 9:00 PM,  10:00 AM - 9:00 PM,  10:00 AM - 9:00 PM,  10:00 AM - 9:00 PM,  10:00 AM - 9:00 PM,  10:00 AM - 9:00 PM,  10:00 AM - 7:00 PM",,,
DKNY Clinton,,20-A Killingsworth Tpke,Suite 232,Clinton,CT,06413,US,860.664.9007,,," 10:00 AM - 9:00 PM,  10:00 AM - 9:00 PM,  10:00 AM - 9:00 PM,  10:00 AM - 9:00 PM,  10:00 AM - 9:00 PM,  10:00 AM - 9:00 PM,  10:00 AM - 6:00 PM",,,
DKNY Ellenton,,5105 Factory Shops Blvd,,Ellenton,FL,34222,US,941.722.4763,,," 10:00 AM - 9:00 PM,  10:00 AM - 9:00 PM,  10:00 AM - 9:00 PM,  10:00 AM - 9:00 PM,  9:00 AM - 9:00 PM,  9:00 AM - 9:00 PM,  10:00 AM - 8:00 PM",,,
DKNY Miami,,11401 NW 12th St,Suite 158,Miami,FL,33172,US,305.593.9955,,," 10:00 AM - 9:30 PM,  10:00 AM - 9:30 PM,  10:00 AM - 9:30 PM,  10:00 AM - 9:30 PM,  10:00 AM - 9:30 PM,  10:00 AM - 9:30 PM,  11:00 AM - 8:00 PM",,,
DKNY Orlando Vineland,,8200 Vineland Ave,Suite 1213,Orlando,FL,32831,US,407.238.2003,,," 10:00 AM - 11:00 PM,  10:00 AM - 11:00 PM,  10:00 AM - 11:00 PM,  10:00 AM - 11:00 PM,  10:00 AM - 11:00 PM,  10:00 AM - 11:00 PM,  10:00 AM - 9:00 PM",,,
DKNY Orlando International,,4955 International Drive,Suite 2B01,Orlando,FL,32819,US,407.351.4481,,," 10:00 AM - 11:00 PM,  10:00 AM - 11:00 PM,  10:00 AM - 11:00 PM,  10:00 AM - 11:00 PM,  10:00 AM - 11:00 PM,  10:00 AM - 11:00 PM,  10:00 AM - 9:00 PM",,,
DKNY Sawgrass,,12801 West Sunrise Blvd,Suite 5070,Sunrise,FL,33323,US,954.846.8349,,," 10:00 AM - 9:30 PM,  10:00 AM - 9:30 PM,  10:00 AM - 9:30 PM,  10:00 AM - 9:30 PM,  10:00 AM - 9:30 PM,  10:00 AM - 9:30 PM,  11:00 AM - 8:00 PM",,,
DKNY Palm Beach,,1771 Palm Beach Lakes Blvd,Suite W303,West Palm Beach,FL,33401,US,561.689.7149,,," 10:00 AM - 6:00 PM,  10:00 AM - 9:00 PM,  10:00 AM - 9:00 PM,  10:00 AM - 9:00 PM,  10:00 AM - 9:00 PM,  10:00 AM - 9:00 PM,  11:00 AM - 7:00 PM",,,
DKNY Waikele,,94-796 Lumiaina Street,Suite 303,Waipahu,HI,96797,US,808.676.2225,,," 9:00 AM - 9:00 PM,  9:00 AM - 9:00 PM,  9:00 AM - 9:00 PM,  9:00 AM - 9:00 PM,  9:00 AM - 9:00 PM,   - ,  10:00 AM - 6:00 PM",,,
DKNY Aurora,,1650 Premium Outlets Blvd,Suite 667,Aurora,IL,60502,US,630.236.8900,,," 10:00 AM - 9:00 PM,  10:00 AM - 9:00 PM,  10:00 AM - 9:00 PM,  10:00 AM - 9:00 PM,  10:00 AM - 9:00 PM,  10:00 AM - 9:00 PM,  10:00 AM - 7:00 PM",,,
DKNY Rosemont,,5220 Fashion Outlet Way,Suite 2179,Rosemont,IL,60018,US,847.737.2479,,," 10:00 AM - 9:00 PM,  10:00 AM - 9:00 PM,  10:00 AM - 9:00 PM,  10:00 AM - 9:00 PM,  10:00 AM - 9:00 PM,  10:00 AM - 9:00 PM,  10:00 AM - 7:00 PM",,,
DKNY Wrentham,,1 Premium Outlets Blvd,Suite 195,Wrentham,MA,02093,US,508.384.5954,,," 10:00 AM - 9:00 PM,  10:00 AM - 9:00 PM,  10:00 AM - 9:00 PM,  10:00 AM - 9:00 PM,  10:00 AM - 9:00 PM,  10:00 AM - 9:00 PM,  10:00 AM - 7:00 PM",,,
DKNY Great Lakes Crossing,,4192 Baldwin Road,Suite 326,Auburn Hills,MI,48326,US,248.332.4922,,," 10:00 AM - 9:00 PM,  10:00 AM - 9:00 PM,  10:00 AM - 9:00 PM,  10:00 AM - 9:00 PM,  10:00 AM - 9:00 PM,  10:00 AM - 9:00 PM,  11:00 AM - 6:00 PM",,,
DKNY St Louis,,18511 Outlet Blvd,Suite 833,Chesterfiield,MO,63005,US,636.778.1330,,," 10:00 AM - 9:00 PM,  10:00 AM - 9:00 PM,  10:00 AM - 9:00 PM,  10:00 AM - 9:00 PM,  10:00 AM - 9:00 PM,  10:00 AM - 9:00 PM,  11:00 AM - 7:00 PM",,,
DKNY Merrimack,,80 Premium Outlets Blvd,Suite 279,Merrimack,NH,03054,US,603.424.7511,,," 10:00 AM - 9:00 PM,  10:00 AM - 9:00 PM,  10:00 AM - 9:00 PM,  10:00 AM - 9:00 PM,  10:00 AM - 9:00 PM,  10:00 AM - 9:00 PM,   - ",,,
DKNY Atlantic City,,29 Michigan Ave,,Atlantic City,NJ,08401,US,609.345.3402,,," 9:00 AM - 9:00 PM,  9:00 AM - 9:00 PM,  9:00 AM - 9:00 PM,  9:00 AM - 9:00 PM,  9:00 AM - 9:00 PM,  9:00 AM - 9:00 PM,  10:00 AM - 7:00 PM",,,
DKNY Tinton Falls,,1 Premium Blvd,Suite 199,Tinton Falls,NJ,07753,US,732.493.2200,,," 10:00 AM - 9:00 PM,  10:00 AM - 9:00 PM,  10:00 AM - 9:00 PM,  10:00 AM - 9:00 PM,  10:00 AM - 9:00 PM,  10:00 AM - 9:00 PM,  10:00 AM - 7:00 PM",,,
DKNY Las Vegas South,,7400 Las Vegas Blvd S,Suite 244,Las Vegas,NV,89123,US,702.399.7772,,," 9:00 AM - 9:00 PM,  9:00 AM - 9:00 PM,  9:00 AM - 9:00 PM,  9:00 AM - 9:00 PM,  9:00 AM - 9:00 PM,  9:00 AM - 9:00 PM,  9:00 AM - 8:00 PM",,,
DKNY Las Vegas North,,805 S. Grand Central Parkway,Suite 1949,Las Vegas,NV,89106,US,702.474.9851,,," 9:00 AM - 9:00 PM,  9:00 AM - 9:00 PM,  9:00 AM - 9:00 PM,  9:00 AM - 9:00 PM,  9:00 AM - 9:00 PM,  9:00 AM - 9:00 PM,  9:00 AM - 9:00 PM",,,
DKNY Primm,,32100 Las Vegas Blvd,Suite 218,Primm,NV,89019,US,702.874.0054,,," 10:00 AM - 9:00 PM,  10:00 AM - 9:00 PM,  10:00 AM - 9:00 PM,  10:00 AM - 9:00 PM,  10:00 AM - 9:00 PM,  10:00 AM - 9:00 PM,  10:00 AM - 8:00 PM",,,
DKNY Woodbury Common,,273 Red Apple Court,Suite 20,Central Valley,NY,10917,US,845.928.8438,,," 9:00 AM - 9:00 PM,  9:00 AM - 9:00 PM,  9:00 AM - 9:00 PM,  9:00 AM - 9:00 PM,  9:00 AM - 9:00 PM,  9:00 AM - 9:00 PM,  9:00 AM - 9:00 PM",,,
DKNY Niagara Falls,,1760 Military Road,,Niagara Falls,NY,14304,US,716.297.0752,,," 10:00 AM - 9:00 PM,  10:00 AM - 9:00 PM,  10:00 AM - 9:00 PM,  10:00 AM - 9:00 PM,  10:00 AM - 9:00 PM,  10:00 AM - 9:00 PM,  11:00 AM - 7:00 PM",,,
DKNY Riverhead,,1770 W Main Street,Suite 508,Riverhead,NY,11901,US,631.369.2820,,," 9:00 AM - 9:00 PM,  9:00 AM - 9:00 PM,  9:00 AM - 9:00 PM,  9:00 AM - 9:00 PM,  9:00 AM - 9:00 PM,  9:00 AM - 9:00 PM,  10:00 AM - 8:00 PM",,,
DKNY Bethlehem,,77 Sands Boulevard,Suite 237,Bethlehem,PA,18015,US,610.625.4410,,," 10:00 AM - 9:00 PM,  10:00 AM - 9:00 PM,  10:00 AM - 9:00 PM,  10:00 AM - 9:00 PM,  10:00 AM - 9:00 PM,  10:00 AM - 11:00 PM,  10:00 AM - 9:00 PM",,,
DKNY Limerick,,18 West Lightcap Road,Suite 1261,Limerick,PA,19464,US,610.705.3856,,," 10:00 AM - 9:00 PM,  10:00 AM - 9:00 PM,  10:00 AM - 9:00 PM,  10:00 AM - 9:00 PM,  10:00 AM - 9:00 PM,   - ,   - ",,,
DKNY Houston Premium,,29300 Hempstead Road,Suite 946,Cypress,TX,77433,US,281.256.3661,,," 10:00 AM - 9:00 PM,  10:00 AM - 9:00 PM,  10:00 AM - 9:00 PM,  10:00 AM - 9:00 PM,  10:00 AM - 9:00 PM,  10:00 AM - 9:00 PM,  11:00 AM - 7:00 PM",,,
DKNY Grand Prairie,,2950 West Interstate 20,Suite 436,Grand Prairie,TX,75052,US,972.606.4929,,," 10:00 AM - 9:00 PM,  10:00 AM - 9:00 PM,  10:00 AM - 9:00 PM,  10:00 AM - 9:00 PM,  10:00 AM - 9:00 PM,  10:00 AM - 9:00 PM,  11:00 AM - 6:00 PM",,,
DKNY San Marcos,,3939-1H-35 S,Suite 201,San Marcos,TX,78666,US,512.396.3569,,," 10:00 AM - 9:00 PM,  10:00 AM - 9:00 PM,  10:00 AM - 9:00 PM,  10:00 AM - 9:00 PM,  10:00 AM - 9:00 PM,  10:00 AM - 9:00 PM,  10:00 AM - 9:00 PM",,,
DKNY Leesburg,,241 Fort Evans Road NE,Suite 617,Leesburg,VA,20176,US,703.669.5090,,," 10:00 AM - 9:00 PM,  10:00 AM - 9:00 PM,  10:00 AM - 9:00 PM,  10:00 AM - 9:00 PM,  10:00 AM - 9:00 PM,  10:00 AM - 9:00 PM,  10:00 AM - 7:00 PM",,,
DKNY Seattle Premium Outlets,,10600 Quil Ceda Blvd,Suite 916,Tulalip,WA,98271,US,360.716.3517,,," 10:00 AM - 9:00 PM,  10:00 AM - 9:00 PM,  10:00 AM - 9:00 PM,  10:00 AM - 9:00 PM,  10:00 AM - 9:00 PM,  10:00 AM - 9:00 PM,  10:00 AM - 7:00 PM",,,
DKNY Calgary,,261055 Crossiron Blvd,Suite 176,Calgary,AB,T4A0G3,CA,+1.587.296.4895,,," 10:00 AM - 9:00 PM,  10:00 AM - 9:00 PM,  10:00 AM - 9:00 PM,  10:00 AM - 9:00 PM,  10:00 AM - 9:00 PM,  10:00 AM - 9:00 PM,  11:00 AM - 6:00 PM",,,
DKNY Halton Hills,,13850 Steeles Ave West,Suite 415,Halton Hills,ON,L7G0J1,CA,+1.905.814.4265,,," 10:00 AM - 9:00 PM,  10:00 AM - 9:00 PM,  10:00 AM - 9:00 PM,  10:00 AM - 9:00 PM,  10:00 AM - 9:00 PM,  10:00 AM - 9:00 PM,  11:00 AM - 7:00 PM",,,
DKNY Niagara,,300 Taylor Road,Suite 707,Niagara,ON,L0S1J0,CA,+1.905.687.8160,,," 10:00 AM - 9:00 PM,  10:00 AM - 9:00 PM,  10:00 AM - 9:00 PM,  10:00 AM - 9:00 PM,  10:00 AM - 9:00 PM,  10:00 AM - 9:00 PM,  10:00 AM - 6:00 PM",,,
DKNY Vaughan,,1 Bass Pro Mills Drive,Suite 203,Vaughan,ON,L4K5W4,CA,+1.905.264.4680,,," 10:00 AM - 9:00 PM,  10:00 AM - 9:00 PM,  10:00 AM - 9:00 PM,  10:00 AM - 9:00 PM,  10:00 AM - 9:00 PM,  10:00 AM - 9:00 PM,  11:00 AM - 7:00 PM",,,
DKNY Bicester,,51 Pingle Drive,Suite 24,Bicester Village,,OX26 6WD,GB,+44.186.932.2451,,," 10:00 AM - 8:00 PM,  10:00 AM - 8:00 PM,  10:00 AM - 8:00 PM,  10:00 AM - 8:00 PM,  10:00 AM - 8:00 PM,  9:00 AM - 8:00 PM,  10:00 AM - 6:00 PM",,,
DKNY Kildare Villge,,Kildare Village Nurney Road,Suite 48,Kildare,,,IE,+353.45.531.162,,," 9:00 AM - 8:00 PM,  9:00 AM - 8:00 PM,  9:00 AM - 8:00 PM,  9:00 AM - 9:00 PM,  9:00 AM - 8:00 PM,  9:00 AM - 8:00 PM,  10:00 AM - 8:00 PM",,,
