store_name,store_number,address,address2,city,state,zip_code,country,phone_number,latitude,longitude,store_hours,store_type,other_fields,coming_soon
Tampa: Waters,,5706 W. Waters Avenue,,Tampa,FL,33634,United States,813-864-8003,,,10:30AM to 10PM 7 days a week,,,
Pembroke Pines,,11211 Pines Blvd,,Pembroke Pines,FL,33026,United States,754-484-3853,,,10:30AM to 10PM 7 days a week ,,,
Sanford,,1610 Rinehart Road,,Sanford,FL,32771,United States,407-792-1763,,,10:30AM to 10PM 7 days a week,,,
St. Petersburg,,4526 4th Street North,,St. Petersburg,FL,33703,United States,727-873-7999,,,10:30AM to 10PM 7 days a week,,,
Pinellas Park,,4601 Park Blvd,,Pinellas Park,FL,33781,United States,727-362-1007,,,10:30AM to 10PM 7 days a week,,,
Sarasota,,5164 S. Tamiami Trail,,Sarasota,FL,34231,United States,941-866-1311,,,10:30AM to 10PM 7 days a week,,,
South Tampa,,2207 S. Dale Mabry Highway,,Tampa,FL,33629,United States,813-254-7373,,,10:30AM to 10PM 7 days a week,,,
Riverview,,10441 Big Bend Road,,Riverview,FL,33579,United States,813-864-8006,,,10:30AM to 10PM 7 days a week,,,
Pompano Beach,,2341 N. Federal Highway,,Pompano Beach,FL,33062,United States,954-785-6285,,,10:30AM to 10PM 7 days a week ,,,
Orlando: Lake Nona,,11906 Narcoosee Rd,,Orlando,FL,32832,United States,,,,,,,
Ocala,,3410 SW College Road,,Ocala,FL,34474,United States,352-484-0365,,,10:30AM to 10PM 7 days a week,,,
Lehi,,3550 North Digital Drive,,Lehi,UT,84043,United States,,,,,,,
Jacksonville: Beach and Hodges,,3260 Hodges Blvd,,Jacksonville,FL,32224,United States,904-758-3325,,,10:30AM to 10PM 7 days a week,,,
Jacksonville: Julington Creek,,194 N. State Road 13,,St. Johns,FL,32259,United States,904-638-5959,,,10:30AM to 10PM 7 days a week,,,
Plano,,1151 Preston Road,,Plano,TX,75093,United States,214-233-7290,,,10:30AM to 9PM 7 days a week,,,
Oakland Park,,3359 N. Federal Highway,,Oakland Park,FL,33306,United States,954-874-8528,,,10:30AM to 10PM 7 days a week ,,,
Lakeland,,4714 S. Florida Avenue,,Lakeland,FL,33813,United States,863-808-5474,,,10:30AM to 10PM 7 days a week,,,
Murphy,,104 East FM 544,,Murphy,TX,75094,United States,972-423-4660,,,10:30AM to 10PM Monday - Saturday 10:30AM to 9PM Sunday,,,
Miami: Fountain Square,,10121 West Flagler Street,,Miami,FL,33174,United States,305-257-3032,,,10:30AM to 10PM 7 days a week ,,,
Houston: Bunker Hill,,9440 Katy Fwy,,Houston,TX,77055,United States,713-469-3948,,,10:30AM to 10PM 7 days a week,,,
Houston: Vintage Park,,10723 Louetta Road,,Houston,TX,77070,United States,281-520-4015,,,10:30AM to 10PM 7 days a week,,,
Frisco,,4585 Preston Road,,Frisco,TX,75034,United States,972-292-7673,,,10:30AM to 10PM Mon - Sat 10:30AM to 9PM Sun,,,
Cypress,,25686 NW Freeway,,Cypress,TX,77429,United States,832-365-7399,,,10:30AM to 10PM 7 days a week,,,
Cinco Ranch,,23703 Cinco Ranch Blvd,,Katy,TX,77494,United States,281-786-3239,,,10:30AM to 10PM 7 days a week,,,
Austin: Lakeline Blvd.,,2920 South Lakeline Blvd,,Cedar Park,TX,78613,United States,512-222-1503,,,10:30AM to 10PM 7 days a week,,,
Greenville,,3906 Pelham Road,,Greenville,SC,29615,United States,864-640-4959,,,10:30AM to 9PM 7 days a week,,,
Oklahoma City: Quail Springs,,14215 N. Pennsylvania Ave.,,Oklahoma City,OK,73134,United States,,,,,,,
Columbia,,4456 Devine Street,,Columbia,SC,29205,United States,803-403-9135,,,10:30AM to 10PM 7 days a week,,,
Edmond,,1600 E. 2nd Street,,Edmond,OK,73034,United States,,,,,,,
Cedar Park,,4501 183A Toll Road,,Cedar Park,TX,78613,United States,512-697-4990,,,10:30AM to 10PM 7 days a week,,,
Winslow Township: Sicklerville,,610 Cross Keys Road,,Sicklerville,NJ,08081,United States,856-831-4601,,,10:30AM to 10PM 7 days a week,,,
Las Vegas: Sahara,,3010 W. Sahara Avenue,,Las Vegas,NV,89102,United States,702-944-1823,,,10:30AM to 9PM Monday - Saturday 10:30AM to 8PM Sunday,,,
Wake Forest,,11690 Northpark Drive,,Wake Forest,NC,27587,United States,919-648-4221,,,10:30AM to 10PM 7 days a week,,,
North Las Vegas: Craig Road,,3737 West Craig Road,,North Las Vegas,NV,89032,United States,702-410-6747,,,10:30AM to 10PM 7 days a week,,,
Fayetteville,,552 N. McPherson Church Road,,Fayetteville,NC,28303,United States,910-550-2518,,,10:30AM to 9PM Sunday - Thursday 10:30AM to 10PM Friday-Saturday,,,
Cherry Hill,,614 Haddonfield Road,,Cherry Hill,NJ,08002,United States,856-335-3239,,,10:30AM to 10PM 7 days a week,,,
Durham,,3301 Watkins Road,,Durham,NC,27707,United States,919-436-3753,,,10:30AM to 9PM Sunday - Thursday 10:30AM to 10PM Friday - Saturday,,,
Concord,,8665 Concord Mills Blvd,,Concord,NC,28027,United States,704-498-4609,,,10:30AM to 10PM 7 days a week,,,
Cornelius (Tenders),,18341 Statesville Road,,Cornelius,NC,28031,United States,704-895-6017,,,11AM to 9PM Sun - Thurs 11AM to 10PM Fri - Sat,,,
Wheaton,,167 Danada Square,,Wheaton,IL,60187,United States,,,,,,,
Augusta,,2999 Washington Road,,Augusta,GA,30909,United States,706-247-8780,,,10:30AM to 9PM 7 days a week,,,
Cary,,9025 Winston Hill Drive,,Cary,NC,27513,United States,919-380-0060,,,10:30AM to 9PM 7 days a week,,,
Wesley Chapel,,27757 SR 56,,Wesley Chapel,FL,33544,United States,813-528-8770,,,10:30AM to 10PM 7 days a week,,,
West Palm Beach,,2015 Okeechobee Blvd,,West Palm Beach,FL,33409,United States,561-594-1906,,,10:30AM to 10PM 7 days a week ,,,
Wellington,,2781 S. State Road 7,,Wellington,FL,33414,United States,561-210-4350,,,10:30AM to 10PM 7 days a week ,,,
The Villages,,300 Colony Blvd,,The Villages,FL,32162,United States,352-459-0269,,,10:30AM to 9PM 7 days a week,,,
Jacksonville Town Center,,4816 Gate Parkway,,Jacksonville,FL,32246,United States,,,,,,,
Winston-Salem,,285 Harvey Street,,Winston-Salem,NC,27103,United States,336-306-5174,,,10:30AM to 10PM 7 days a week,,,
Hickory,,2060 U.S. 70 SE,,Hickory,NC,28602,United States,828-475-0281,,,10:30AM to 9PM Sunday - Thursday 10:30AM to 10PM Friday - Saturday,,,
Ft. Myers: Gulf Coast Town Center,,17470 Ben Hill Griffin Parkway,,Ft. Myers,FL,33913,United States,239-220-5751,,,10:30AM to 10PM 7 days a week,,,
Clermont,,1660 E. Highway 50,,Clermont,FL,34711,United States,352-484-0368,,,10:30AM to 10PM 7 days a week,,,
Raleigh,,6305 Falls of Neuse Road,,Raleigh,NC,27615,United States,919-803-1171,,,10:30AM to 10PM 7 days a week,,,
Ft. Lauderdale: 17th Street,,1207 S.E. 17th Street,,Ft. Lauderdale,FL,33316,United States,954-644-5208,,,10:30AM to 10PM 7 days a week ,,,
Ft. Myers: Cleveland Avenue,,12499 South Cleveland Avenue,,Ft. Myers,FL,33907,United States,239-220-5727,,,10:30AM to 10PM 7 days a week,,,
Clearwater,,2181 Gulf to Bay Blvd,,Clearwater,FL,33765,United States,727-362-1006,,,10:30AM to 10PM 7 days a week,,,
Gainesville: University,,3403 W. University Avenue,,Gainesville,FL,32607,United States,352-353-0100,,,10:30AM to 10:30PM 7 days a week,,,
Mobile,,116 S. University Blvd,,Mobile,AL,36608,United States,251-202-0959,,,10:30AM to 9PM 7 days a week,,,
Phoenix: Paradise Valley,,4514 E. Cactus Rd,,Phoenix,AZ,85032,United States,,,,,,,
Brandon,,134 S. Gornto Lake Road,,Brandon,FL,33511,United States,813-864-8519,,,10:30AM to 10PM 7 days a week,,,
Carrollwood,,12650 N. Dale Mabry Highway,,Tampa,FL,33618,United States,813-443-8336,,,10:30AM to 10PM 7 days a week,,,
Jacksonville: Bartram Park,,13702 Old St. Augustine Road,,Jacksonville,FL,32258,United States,904-758-3326,,,10:30AM to 10PM 7 days a week,,,
Evans,,4311 Washington Road,,Evans,GA,30809,United States,706-478-0086,,,10:30AM to 9PM 7 days a week,,,
Bradenton,,5484 Lena Road,,Bradenton,FL,34211,United States,941-209-4883,,,10:30AM to 10PM 7 days a week,,,
