store_name,store_number,address,address2,city,state,zip_code,country,phone_number,latitude,longitude,store_hours,store_type,other_fields,coming_soon
Mondou Beauport,2035,747 Clemenceau,,Beauport,Quebec,G1C 7T9,Canada,(418) 660-3535,,,"Monday 9:00 AM-6:00 PM, Tuesday 9:00 AM-6:00 PM, Wednesday 9:00 AM-9:00 PM, Thursday 9:00 AM-9:00 PM, Friday 9:00 AM-9:00 PM, Saturday 9:00 AM-5:00 PM, Sunday 9:00 AM-5:00 PM",,,
Mondou Shawinigan (d`Youville),2053,1753  rue d'Youville,,Shawinigan,Quebec,G9N 8S7,Canada,(819) 536-3222,,,"Monday 9:00 AM-6:00 PM, Tuesday 9:00 AM-6:00 PM, Wednesday 9:00 AM-6:00 PM, Thursday 9:00 AM-9:00 PM, Friday 9:00 AM-9:00 PM, Saturday 9:00 AM-5:00 PM, Sunday 10:00 AM-5:00 PM",,,
Mondou Anjou,2014,10400 Renaude-Lapointe,,Montreal,Quebec,H1J 2V7,Canada,(514) 322-8645,,,"Monday 9:00 AM-9:00 PM, Tuesday 9:00 AM-9:00 PM, Wednesday 9:00 AM-9:00 PM, Thursday 9:00 AM-9:00 PM, Friday 9:00 AM-9:00 PM, Saturday 9:00 AM-5:00 PM, Sunday 9:00 AM-5:00 PM",,,
Mondou Laval,2040,1670 Boul. De L'Avenir,,Laval,Quebec,H7S 2N4,Canada,(450) 681-9229,,,"Monday 9:00 AM-7:00 PM, Tuesday 9:00 AM-7:00 PM, Wednesday 9:00 AM-7:00 PM, Thursday 9:00 AM-9:00 PM, Friday 9:00 AM-9:00 PM, Saturday 9:00 AM-5:00 PM, Sunday 10:00 AM-5:00 PM",,,
Mondou Sorel-Tracy,2049,348 Boul. Poliquin,,Sorel-Tracy,Quebec,J3P 0G4,Canada,(450) 742-0808,,,"Monday 9:00 AM-6:00 PM, Tuesday 9:00 AM-6:00 PM, Wednesday 9:00 AM-6:00 PM, Thursday 9:00 AM-9:00 PM, Friday 9:00 AM-9:00 PM, Saturday 9:00 AM-5:00 PM, Sunday 10:00 AM-5:00 PM",,,
Mondou Chateauguay,2024,219 Boul. St-Jean Baptiste,,Chateauguay,Quebec,J6K 3B9,Canada,(450) 692-4042,,,"Monday 9:00 AM-7:00 PM, Tuesday 9:00 AM-7:00 PM, Wednesday 9:00 AM-9:00 PM, Thursday 9:00 AM-9:00 PM, Friday 9:00 AM-9:00 PM, Saturday 9:00 AM-5:00 PM, Sunday 10:00 AM-5:00 PM",,,
Mondou rue Sherbrooke,2026,6390 rue Sherbrooke Est,,Montreal,Quebec,H1N 1C1,Canada,(514) 251-2646,,,"Monday 9:00 AM-7:00 PM, Tuesday 9:00 AM-7:00 PM, Wednesday 9:00 AM-7:00 PM, Thursday 9:00 AM-9:00 PM, Friday 9:00 AM-9:00 PM, Saturday 9:00 AM-5:00 PM, Sunday 9:00 AM-5:00 PM",,,
Mondou Fabreville,2029,407 Boul. Cure-Labelle,,Fabreville,Quebec,H7P 2P3,Canada,(450) 625-5282,,,"Monday 9:00 AM-9:00 PM, Tuesday 9:00 AM-9:00 PM, Wednesday 9:00 AM-9:00 PM, Thursday 9:00 AM-9:00 PM, Friday 9:00 AM-9:00 PM, Saturday 9:00 AM-5:00 PM, Sunday 9:00 AM-5:00 PM",,,
Mondou Cote St-Luc,2010,5580 CH. Cote St-Luc,,Montreal,Quebec,H3X 2E3,Canada,(514) 481-1407,,,"Monday 9:00 AM-7:00 PM, Tuesday 9:00 AM-7:00 PM, Wednesday 9:00 AM-7:00 PM, Thursday 9:00 AM-9:00 PM, Friday 9:00 AM-9:00 PM, Saturday 9:00 AM-5:00 PM, Sunday 10:00 AM-5:00 PM",,,
Mondou Greenfield Park,2009,2032 Ave. Victoria,,Greenfield Park,Quebec,J4V 1M7,Canada,(450) 672-5080,,,"Monday 9:00 AM-9:00 PM, Tuesday 9:00 AM-9:00 PM, Wednesday 9:00 AM-9:00 PM, Thursday 9:00 AM-9:00 PM, Friday 9:00 AM-9:00 PM, Saturday 9:00 AM-5:00 PM, Sunday 10:00 AM-5:00 PM",,,
Mondou Lasalle,2008,8001 Boul. Newman,,Lasalle,Quebec,H8N 2N9,Canada,(514) 595-5160,,,"Monday 9:00 AM-9:00 PM, Tuesday 9:00 AM-9:00 PM, Wednesday 9:00 AM-9:00 PM, Thursday 9:00 AM-9:00 PM, Friday 9:00 AM-9:00 PM, Saturday 9:00 AM-5:00 PM, Sunday 9:00 AM-5:00 PM",,,
Mondou Repentigny,2011,219 Boul. Brien,,Repentigny,Quebec,J6A 6M4,Canada,(450) 657-2682,,,"Monday 9:00 AM-9:00 PM, Tuesday 9:00 AM-9:00 PM, Wednesday 9:00 AM-9:00 PM, Thursday 9:00 AM-9:00 PM, Friday 9:00 AM-9:00 PM, Saturday 9:00 AM-5:00 PM, Sunday 10:00 AM-5:00 PM",,,
Mondou Dollard Des Ormeaux,2021,4067 Boul. St-Jean,,Dollard Des Ormeaux,Quebec,H9G 2R4,Canada,(514) 620-7716,,,"Monday 9:00 AM-7:00 PM, Tuesday 9:00 AM-7:00 PM, Wednesday 9:00 AM-7:00 PM, Thursday 9:00 AM-9:00 PM, Friday 9:00 AM-9:00 PM, Saturday 9:00 AM-5:00 PM, Sunday 10:00 AM-5:00 PM",,,
Mondou St-Jerome,2038,23 Gauthier,,St-Jerome,Quebec,J7Y 0A3,Canada,(450) 431-2497,,,"Monday 9:00 AM-9:00 PM, Tuesday 9:00 AM-9:00 PM, Wednesday 9:00 AM-9:00 PM, Thursday 9:00 AM-9:00 PM, Friday 9:00 AM-9:00 PM, Saturday 9:00 AM-5:00 PM, Sunday 9:00 AM-5:00 PM",,,
Mondou Drummondville,2017,495 Boul. St-Joseph,,Drummondville,Quebec,J2C 2B6,Canada,(819) 475-2442,,,"Monday 9:00 AM-6:00 PM, Tuesday 9:00 AM-6:00 PM, Wednesday 9:00 AM-6:00 PM, Thursday 9:00 AM-9:00 PM, Friday 9:00 AM-9:00 PM, Saturday 9:00 AM-5:00 PM, Sunday 10:00 AM-5:00 PM",,,
Mondou L'Ancienne-Lorette,2036,1305 Ave. Jules-Verne,,L'Ancienne-Lorette,Quebec,G2E 6L6,Canada,(418) 871-3584,,,"Monday 9:00 AM-9:00 PM, Tuesday 9:00 AM-9:00 PM, Wednesday 9:00 AM-9:00 PM, Thursday 9:00 AM-9:00 PM, Friday 9:00 AM-9:00 PM, Saturday 9:00 AM-5:00 PM, Sunday 9:00 AM-5:00 PM",,,
Mondou Boucherville,2028,680 A Ave. De Montbrun,,Boucherville,Quebec,J4B 8H2,Canada,(450) 641-2511,,,"Monday 9:00 AM-6:00 PM, Tuesday 9:00 AM-6:00 PM, Wednesday 9:00 AM-6:00 PM, Thursday 9:00 AM-9:00 PM, Friday 9:00 AM-9:00 PM, Saturday 9:00 AM-5:00 PM, Sunday 10:00 AM-5:00 PM",,,
Mondou Hull (St-Joseph),2058,655 Boul. Saint-Joseph,,Gatineau,Quebec,J8Y 4B2,Canada,(819) 205-5225,,,"Monday 9:00 AM-6:00 PM, Tuesday 9:00 AM-6:00 PM, Wednesday 9:00 AM-6:00 PM, Thursday 9:00 AM-9:00 PM, Friday 9:00 AM-9:00 PM, Saturday 9:00 AM-5:00 PM, Sunday 10:00 AM-5:00 PM",,,
Mondou Ville  Mont-Royal,2046,1242 Ave. Beaumont,,Ville Mont-Royal,Quebec,H3P 3E5,Canada,(514) 657-3205,,,"Monday 9:00 AM-7:00 PM, Tuesday 9:00 AM-7:00 PM, Wednesday 9:00 AM-7:00 PM, Thursday 9:00 AM-9:00 PM, Friday 9:00 AM-9:00 PM, Saturday 9:00 AM-5:00 PM, Sunday 10:00 AM-5:00 PM",,,
Mondou De L`Ormiere (Chauveau),2055,9105 Boul. De L`Ormier,,Quebec,Quebec,G2B 3K2,Canada,(418) 915-9697,,,"Monday 9:00 AM-6:00 PM, Tuesday 9:00 AM-6:00 PM, Wednesday 9:00 AM-6:00 PM, Thursday 9:00 AM-9:00 PM, Friday 9:00 AM-9:00 PM, Saturday 9:00 AM-5:00 PM, Sunday 9:00 AM-5:00 PM",,,
Mondou St-Jean-sur-le-Richelieu,2018,955 Boul. Du Seminaire Nord,,St-Jean-sur-le-Richelieu,Quebec,J3A 1K1,Canada,(450) 349-5558,,,"Monday 9:00 AM-6:00 PM, Tuesday 9:00 AM-6:00 PM, Wednesday 9:00 AM-9:00 PM, Thursday 9:00 AM-9:00 PM, Friday 9:00 AM-9:00 PM, Saturday 9:00 AM-5:00 PM, Sunday 10:00 AM-5:00 PM",,,
Mondou St-Constant,2023,380 Route 132,# 100,St-Constant,Quebec,J5A 2L5,Canada,(450) 632-2707,,,"Monday 9:00 AM-7:00 PM, Tuesday 9:00 AM-7:00 PM, Wednesday 9:00 AM-7:00 PM, Thursday 9:00 AM-9:00 PM, Friday 9:00 AM-9:00 PM, Saturday 9:00 AM-5:00 PM, Sunday 10:00 AM-5:00 PM",,,
Mondou Trois-Rivieres,2047,2700 Boul. Des Recollets,,Trois-Rivieres,Quebec,G8Z 3X7,Canada,(819) 379-8989,,,"Monday 9:00 AM-6:00 PM, Tuesday 9:00 AM-6:00 PM, Wednesday 9:00 AM-6:00 PM, Thursday 9:00 AM-9:00 PM, Friday 9:00 AM-9:00 PM, Saturday 9:00 AM-5:00 PM, Sunday 9:00 AM-5:00 PM",,,
Mondou Duvernay,2020,3079 Boul. De La Concorde,,Duvernay,Quebec,H7E 2C1,Canada,(450) 664-0465,,,"Monday 9:00 AM-6:00 PM, Tuesday 9:00 AM-6:00 PM, Wednesday 9:00 AM-6:00 PM, Thursday 9:00 AM-9:00 PM, Friday 9:00 AM-9:00 PM, Saturday 9:00 AM-5:00 PM, Sunday 10:00 AM-5:00 PM",,,
Mondou Valleyfield,2025,1980 Boul. Monseigneur-Langlois,Suite 100,Valleyfield,Quebec,J6S 5R1,Canada,(450) 377-0127,,,"Monday 9:00 AM-6:00 PM, Tuesday 9:00 AM-6:00 PM, Wednesday 9:00 AM-6:00 PM, Thursday 9:00 AM-9:00 PM, Friday 9:00 AM-9:00 PM, Saturday 9:00 AM-5:00 PM, Sunday 10:00 AM-5:00 PM",,,
Mondou Sherbrooke,2034,2925 Boul. De Portland,,Sherbrooke,Quebec,J1L 2Y7,Canada,(819) 346-0081,,,"Monday 9:00 AM-6:00 PM, Tuesday 9:00 AM-6:00 PM, Wednesday 9:00 AM-6:00 PM, Thursday 9:00 AM-9:00 PM, Friday 9:00 AM-9:00 PM, Saturday 9:00 AM-5:00 PM, Sunday 10:00 AM-5:00 PM",,,
Mondou Pointe-Aux-Trembles,2032,12455 rue Sherbrooke Est,,Montreal,Quebec,H1B 1C8,Canada,(514) 498-1365,,,"Monday 9:00 AM-7:00 PM, Tuesday 9:00 AM-7:00 PM, Wednesday 9:00 AM-9:00 PM, Thursday 9:00 AM-9:00 PM, Friday 9:00 AM-9:00 PM, Saturday 9:00 AM-5:00 PM, Sunday 9:00 AM-5:00 PM",,,
Mondou Terrebonne,2006,2320 Chemin Gascon,,Terrebonne,Quebec,J6X 3A5,Canada,(450) 492-9556,,,"Monday 9:00 AM-7:00 PM, Tuesday 9:00 AM-7:00 PM, Wednesday 9:00 AM-7:00 PM, Thursday 9:00 AM-9:00 PM, Friday 9:00 AM-9:00 PM, Saturday 9:00 AM-5:00 PM, Sunday 10:00 AM-5:00 PM",,,
Mondou Boisbriand (Faubourg),2056,2314 Boul. Du Faubourg,,Boisbriand,Quebec,J7H 1S3,Canada,(450) 419-2225,,,"Monday 9:00 AM-7:00 PM, Tuesday 9:00 AM-7:00 PM, Wednesday 9:00 AM-7:00 PM, Thursday 9:00 AM-9:00 PM, Friday 9:00 AM-9:00 PM, Saturday 9:00 AM-5:00 PM, Sunday 10:00 AM-5:00 PM",,,
Mondou Gatineau (de la Savane),2051,25 Chemin De La Savane,,Gatineau,Quebec,J8T 8A4,Canada,(819) 243-4413,,,"Monday 9:00 AM-9:00 PM, Tuesday 9:00 AM-9:00 PM, Wednesday 9:00 AM-9:00 PM, Thursday 9:00 AM-9:00 PM, Friday 9:00 AM-9:00 PM, Saturday 9:00 AM-5:00 PM, Sunday 10:00 AM-5:00 PM",,,
Mondou Granby,2041,224 St-Jude Nord,,Granby,Quebec,J2J 2R8,Canada,(450) 361-8272,,,"Monday 9:00 AM-6:00 PM, Tuesday 9:00 AM-6:00 PM, Wednesday 9:00 AM-6:00 PM, Thursday 9:00 AM-9:00 PM, Friday 9:00 AM-9:00 PM, Saturday 9:00 AM-5:00 PM, Sunday 10:00 AM-5:00 PM",,,
Mondou Langelier,2030,7172 Boul. Langelier,,Montreal,Quebec,H1S 2X6,Canada,(514) 255-7888,,,"Monday 9:00 AM-7:00 PM, Tuesday 9:00 AM-7:00 PM, Wednesday 9:00 AM-7:00 PM, Thursday 9:00 AM-9:00 PM, Friday 9:00 AM-9:00 PM, Saturday 9:00 AM-5:00 PM, Sunday 9:00 AM-5:00 PM",,,
Mondou Chomedey,2007,1830 Boul. Cure-Labelle,,Laval,Quebec,H7T 1L2,Canada,(450) 973-4979,,,"Monday 9:00 AM-6:00 PM, Tuesday 9:00 AM-6:00 PM, Wednesday 9:00 AM-6:00 PM, Thursday 9:00 AM-9:00 PM, Friday 9:00 AM-9:00 PM, Saturday 9:00 AM-5:00 PM, Sunday 10:00 AM-5:00 PM",,,
Mondou Levis,2045,79C Rte President-Kennedy,# 100,Levis,Quebec,G6V 6C8,Canada,(418) 838-9056,,,"Monday 9:00 AM-6:00 PM, Tuesday 9:00 AM-6:00 PM, Wednesday 9:00 AM-6:00 PM, Thursday 9:00 AM-9:00 PM, Friday 9:00 AM-9:00 PM, Saturday 9:00 AM-5:00 PM, Sunday 9:00 AM-5:00 PM",,,
Mondou Mont-Royal,2016,4310 De La Roche,,Montreal,Quebec,H2J 3H9,Canada,(514) 521-9491,,,"Monday 9:00 AM-6:00 PM, Tuesday 9:00 AM-6:00 PM, Wednesday 9:00 AM-6:00 PM, Thursday 9:00 AM-9:00 PM, Friday 9:00 AM-9:00 PM, Saturday 9:00 AM-5:00 PM, Sunday 10:00 AM-5:00 PM",,,
Mondou Ste-Therese,2004,50 Boul. Cure-Labelle,,Ste-Therese,Quebec,J7E 2X3,Canada,(450) 430-8235,,,"Monday 9:00 AM-6:00 PM, Tuesday 9:00 AM-6:00 PM, Wednesday 9:00 AM-6:00 PM, Thursday 9:00 AM-9:00 PM, Friday 9:00 AM-9:00 PM, Saturday 9:00 AM-5:00 PM, Sunday 10:00 AM-5:00 PM",,,
Mondou Ste-Julie (Fer-a-Cheval),2057,1615 Chemin du Fer-a-Cheval,,Ste-Julie,Quebec,J3E 1G3,Canada,(450) 338-4366,,,"Monday 9:00 AM-6:00 PM, Tuesday 9:00 AM-6:00 PM, Wednesday 9:00 AM-6:00 PM, Thursday 9:00 AM-9:00 PM, Friday 9:00 AM-9:00 PM, Saturday 9:00 AM-5:00 PM, Sunday 10:00 AM-5:00 PM",,,
Mondou Jarry,2001,6530 Jarry Est,,Montreal,Quebec,H1P 1W3,Canada,(514) 322-2002,,,"Monday 9:00 AM-6:00 PM, Tuesday 9:00 AM-6:00 PM, Wednesday 9:00 AM-6:00 PM, Thursday 9:00 AM-9:00 PM, Friday 9:00 AM-9:00 PM, Saturday 9:00 AM-5:00 PM, Sunday 10:00 AM-5:00 PM",,,
Mondou Charlesbourg,2037,5755 Boul. Des Gradins,,Lebourgneuf,Quebec,G2J 1V1,Canada,(418) 623-4661,,,"Monday 9:00 AM-9:00 PM, Tuesday 9:00 AM-9:00 PM, Wednesday 9:00 AM-9:00 PM, Thursday 9:00 AM-9:00 PM, Friday 9:00 AM-9:00 PM, Saturday 9:00 AM-5:00 PM, Sunday 9:00 AM-5:00 PM",,,
Mondou St-Eustache (A.-Sauve),2031,404 Boul. Arthur-Sauve,,St-Eustache,Quebec,J7R 2J5,Canada,(450) 974-9144,,,"Monday 9:00 AM-7:00 PM, Tuesday 9:00 AM-7:00 PM, Wednesday 9:00 AM-7:00 PM, Thursday 9:00 AM-9:00 PM, Friday 9:00 AM-9:00 PM, Saturday 9:00 AM-5:00 PM, Sunday 10:00 AM-5:00 PM",,,
Mondou Vaudreuil-Dorion,2043,22800 Chemin Dumberry,#2,Vaudreuil,Quebec,J7V 0M8,Canada,(450) 424-4630,,,"Monday 9:00 AM-9:00 PM, Tuesday 9:00 AM-9:00 PM, Wednesday 9:00 AM-9:00 PM, Thursday 9:00 AM-9:00 PM, Friday 9:00 AM-9:00 PM, Saturday 9:00 AM-5:00 PM, Sunday 10:00 AM-5:00 PM",,,
Mondou Longueuil (R.-Therrien),2013,530 Boul. Roland-Therrien,,Longueuil,Quebec,J4H 3B9,Canada,(450) 674-6666,,,"Monday 9:00 AM-7:00 PM, Tuesday 9:00 AM-7:00 PM, Wednesday 9:00 AM-9:00 PM, Thursday 9:00 AM-9:00 PM, Friday 9:00 AM-9:00 PM, Saturday 9:00 AM-5:00 PM, Sunday 10:00 AM-5:00 PM",,,
Mondou Kirkland,2003,2907 Boulevard St-Charles,,Kirkland,Quebec,H9H 3B5,Canada,(514) 694-1104,,,"Monday 9:00 AM-7:00 PM, Tuesday 9:00 AM-7:00 PM, Wednesday 9:00 AM-7:00 PM, Thursday 9:00 AM-9:00 PM, Friday 9:00 AM-9:00 PM, Saturday 9:00 AM-5:00 PM, Sunday 10:00 AM-5:00 PM",,,
Mondou Lachine (Victoria),2059,2700 Rue Victoria,,Lachine,Quebec,H8S 1Z3,Canada,(514) 538-6683,,,"Monday 9:00 AM-6:00 PM, Tuesday 9:00 AM-6:00 PM, Wednesday 9:00 AM-6:00 PM, Thursday 9:00 AM-9:00 PM, Friday 9:00 AM-9:00 PM, Saturday 9:00 AM-5:00 PM, Sunday 10:00 AM-5:00 PM",,,
Mondou Blainville (Cure-Labelle),2052,923 Boul. Du Cure-Labelle,,Blainville,Quebec,J7C 2L6,Canada,(450) 951-2520,,,"Monday 9:00 AM-7:00 PM, Tuesday 9:00 AM-7:00 PM, Wednesday 9:00 AM-7:00 PM, Thursday 9:00 AM-9:00 PM, Friday 9:00 AM-9:00 PM, Saturday 9:00 AM-5:00 PM, Sunday 10:00 AM-5:00 PM",,,
Mondou St-Hyacinthe,2044,3255 Boul. Laframboise,,St-Hyacinthe,Quebec,J2S 4Z6,Canada,(450) 771-4531,,,"Monday 9:00 AM-6:00 PM, Tuesday 9:00 AM-6:00 PM, Wednesday 9:00 AM-6:00 PM, Thursday 9:00 AM-9:00 PM, Friday 9:00 AM-9:00 PM, Saturday 9:00 AM-5:00 PM, Sunday 9:00 AM-5:00 PM",,,
Mondou Jonquiere (Harvey),2054,3821 Boul. Harvey,,Jonquiere,Quebec,G7X 2Z8,Canada,(418)412-4712,,,"Monday 9:00 AM-6:00 PM, Tuesday 9:00 AM-6:00 PM, Wednesday 9:00 AM-6:00 PM, Thursday 9:00 AM-9:00 PM, Friday 9:00 AM-9:00 PM, Saturday 9:00 AM-5:00 PM, Sunday 10:00 AM-5:00 PM",,,
Mondou St-Hubert,2005,5125 Chemin Chambly,,St-Hubert,Quebec,J3Y 3N2,Canada,(450) 443-8781,,,"Monday 9:00 AM-7:00 PM, Tuesday 9:00 AM-7:00 PM, Wednesday 9:00 AM-9:00 PM, Thursday 9:00 AM-9:00 PM, Friday 9:00 AM-9:00 PM, Saturday 9:00 AM-5:00 PM, Sunday 10:00 AM-5:00 PM",,,
Mondou D.D.O. (Des Sources),2048,3369 Boul. Des Sources,,Dollard Des Ormeaux,Quebec,H9B 1Z8,Canada,(514) 684-5000,,,"Monday 9:00 AM-7:00 PM, Tuesday 9:00 AM-7:00 PM, Wednesday 9:00 AM-7:00 PM, Thursday 9:00 AM-9:00 PM, Friday 9:00 AM-9:00 PM, Saturday 9:00 AM-5:00 PM, Sunday 10:00 AM-5:00 PM",,,
Mondou Victoriaville (Bois-Francs S),2060,366 Boul Des Bois-Francs Sud,,Victoriaville,Quebec,G6P 4T1,Canada,(819) 604-7788,,,"Monday 9:00 AM-6:00 PM, Tuesday 9:00 AM-6:00 PM, Wednesday 9:00 AM-6:00 PM, Thursday 9:00 AM-9:00 PM, Friday 9:00 AM-9:00 PM, Saturday 9:00 AM-5:00 PM, Sunday 9:00 AM-5:00 PM",,,
Mondou Longueuil (Ch. Chambly),2022,2496 Chemin Chambly,,Longueuil,Quebec,J4L 3X6,Canada,(450) 651-2850,,,"Monday 9:00 AM-7:00 PM, Tuesday 9:00 AM-7:00 PM, Wednesday 9:00 AM-9:00 PM, Thursday 9:00 AM-9:00 PM, Friday 9:00 AM-9:00 PM, Saturday 9:00 AM-5:00 PM, Sunday 10:00 AM-5:00 PM",,,
Mondou Mascouche,2039,250 Montee Masson,,Mascouche,Quebec,J7K 3B5,Canada,(450) 474-7227,,,"Monday 9:00 AM-9:00 PM, Tuesday 9:00 AM-9:00 PM, Wednesday 9:00 AM-9:00 PM, Thursday 9:00 AM-9:00 PM, Friday 9:00 AM-9:00 PM, Saturday 9:00 AM-5:00 PM, Sunday 9:00 AM-5:00 PM",,,
Mondou St-Romuald (de la Concorde),2061,1200 De la Concorde,,Levis,Quebec,G6W 0M7,Canada,(418) 834-9837,,,"Monday 9:00 AM-9:00 PM, Tuesday 9:00 AM-9:00 PM, Wednesday 9:00 AM-9:00 PM, Thursday 9:00 AM-9:00 PM, Friday 9:00 AM-9:00 PM, Saturday 9:00 AM-5:00 PM, Sunday 9:00 AM-5:00 PM",,,
Mondou Lajeunesse,2033,10315 Lajeunesse,,Montreal,Quebec,H3L 2E4,Canada,(514) 381-4747,,,"Monday 9:00 AM-9:00 PM, Tuesday 9:00 AM-9:00 PM, Wednesday 9:00 AM-9:00 PM, Thursday 9:00 AM-9:00 PM, Friday 9:00 AM-9:00 PM, Saturday 9:00 AM-5:00 PM, Sunday 9:00 AM-5:00 PM",,,
Mondou St-Eustache (H.-Lanth.),2015,277 Hector-Lanthier,,St-Eustache,Quebec,J7P 5R1,Canada,(450) 974-3000v,,,"Monday 9:00 AM-7:00 PM, Tuesday 9:00 AM-7:00 PM, Wednesday 9:00 AM-7:00 PM, Thursday 9:00 AM-9:00 PM, Friday 9:00 AM-9:00 PM, Saturday 9:00 AM-5:00 PM, Sunday 10:00 AM-5:00 PM",,,
Mondou rue Sherbrooke (Hochelaga),2042,2793 Sherbrooke Est,,Montreal,Quebec,H2K 1G9,Canada,(514) 522-1312,,,"Monday 9:00 AM-9:00 PM, Tuesday 9:00 AM-9:00 PM, Wednesday 9:00 AM-9:00 PM, Thursday 9:00 AM-9:00 PM, Friday 9:00 AM-9:00 PM, Saturday 9:00 AM-5:00 PM, Sunday 10:00 AM-5:00 PM",,,
Mondou Jean-Talon,2002,90 Jean-Talon Est,,Montreal,Quebec,H2R 2S6,Canada,(514) 271-5503,,,"Monday 9:00 AM-7:00 PM, Tuesday 9:00 AM-7:00 PM, Wednesday 9:00 AM-7:00 PM, Thursday 9:00 AM-9:00 PM, Friday 9:00 AM-9:00 PM, Saturday 9:00 AM-5:00 PM, Sunday 9:00 AM-5:00 PM",,,
Mondou Vimont,2012,2087 Boul. Des Laurentides,,Laval,Quebec,H7M 4M2,Canada,(450) 629-3222,,,"Monday 9:00 AM-9:00 PM, Tuesday 9:00 AM-9:00 PM, Wednesday 9:00 AM-9:00 PM, Thursday 9:00 AM-9:00 PM, Friday 9:00 AM-9:00 PM, Saturday 9:00 AM-5:00 PM, Sunday 9:00 AM-5:00 PM",,,
Mondou Beloeil,2027,264 Sir Wilfrid Laurier,,Beloeil,Quebec,J3G 4G7,Canada,(450) 467-9559,,,"Monday 9:00 AM-6:00 PM, Tuesday 9:00 AM-6:00 PM, Wednesday 9:00 AM-6:00 PM, Thursday 9:00 AM-9:00 PM, Friday 9:00 AM-9:00 PM, Saturday 9:00 AM-5:00 PM, Sunday 10:00 AM-5:00 PM",,,
Mondou Magog (Sherbrooke),2050,1852 Rue Sherbrooke,,Magog,Quebec,J1X 2T3,Canada,(819) 769-8700,,,"Monday 9:00 AM-6:00 PM, Tuesday 9:00 AM-6:00 PM, Wednesday 9:00 AM-6:00 PM, Thursday 9:00 AM-9:00 PM, Friday 9:00 AM-9:00 PM, Saturday 9:00 AM-5:00 PM, Sunday 10:00 AM-5:00 PM",,,
Mondou Rimouski (Industrielle),2062,392 Montee Industrielle,,Rimouski,Quebec,G5M 1X1,Canada,(418) 732-1582,,,"Monday 9:00 AM-6:00 PM, Tuesday 9:00 AM-6:00 PM, Wednesday 9:00 AM-6:00 PM, Thursday 9:00 AM-9:00 PM, Friday 9:00 AM-9:00 PM, Saturday 9:00 AM-5:00 PM, Sunday 9:00 AM-5:00 PM",,,
Mondou Pierrefonds,2063,14910 Boul De Pierrefonds,,Pierrefonds,Quebec,H9H 4G2,Canada,(514) 626-8377,,,"Monday 9:00 AM-6:00 PM, Tuesday 9:00 AM-6:00 PM, Wednesday 9:00 AM-6:00 PM, Thursday 9:00 AM-9:00 PM, Friday 9:00 AM-9:00 PM, Saturday 9:00 AM-5:00 PM, Sunday 10:00 AM-5:00 PM",,,
