store_name,store_number,address,address2,city,state,zip_code,country,phone_number,latitude,longitude,store_hours,store_type,other_fields,coming_soon
"Great Western Bank, 714 S. Burr Street. Mitchell, SD",,"714 S. Burr Street, Suite 101",,Mitchell,SD,57301,United States,605-996-8100,,,"Monday 9:00 AM - 5:00 PM, Tuesday 9:00 AM - 5:00 PM, Wednesday 9:00 AM - 5:00 PM, Thursday 9:00 AM - 5:00 PM, Friday 9:00 AM - 5:00 PM, Saturday Closed, Sunday Closed",,,
"Great Western Bank, 302 S Main St. Milbank, SD",,302 S Main St,,Milbank,SD,57252,United States,605-432-1500,,,"Monday 9:00 AM - 4:00 PM, Tuesday 9:00 AM - 4:00 PM, Wednesday 9:00 AM - 4:00 PM, Thursday 9:00 AM - 4:00 PM, Friday 9:00 AM - 4:00 PM, Saturday Closed, Sunday Closed",,,
"Great Western Bank, 301 N Egan Ave. Madison, SD",,301 N Egan Ave,,Madison,SD,57042,United States,605-256-6532,,,"Monday 9:00 AM - 4:00 PM, Tuesday 9:00 AM - 4:00 PM, Wednesday 9:00 AM - 4:00 PM, Thursday 9:00 AM - 4:00 PM, Friday 9:00 AM - 4:00 PM, Saturday Closed, Sunday Closed",,,
"Great Western Bank, 209 S. Main. Lennox, SD",,209 S. Main P.O. Box 385,,Lennox,SD,57039,United States,605-647-2818,,,"Monday 9:00 AM - 4:00 PM, Tuesday 9:00 AM - 4:00 PM, Wednesday 9:00 AM - 4:00 PM, Thursday 9:00 AM - 4:00 PM, Friday 9:00 AM - 4:00 PM, Saturday Closed, Sunday Closed",,,
"Great Western Bank, 111 N East St. Gettysburg, SD",,111 N East St,,Gettysburg,SD,57442,United States,605-765-2491,,,"Monday 8:30 AM - 4:00 PM, Tuesday 8:30 AM - 4:00 PM, Wednesday 8:30 AM - 4:00 PM, Thursday 8:30 AM - 4:00 PM, Friday 8:30 AM - 4:00 PM, Saturday Closed, Sunday Closed",,,
"Great Western Bank, 217 Main St. McIntosh, SD",,217 Main St,,Mc Intosh,SD,57641,United States,605-273-4501,,,"Monday 9:00 AM - 3:30 PM, Tuesday 9:00 AM - 3:30 PM, Wednesday 9:00 AM - 3:30 PM, Thursday 9:00 AM - 3:30 PM, Friday 9:00 AM - 3:30 PM, Saturday Closed, Sunday Closed",,,
"Great Western Bank, 4th & Poplar. Freeman, SD",,117 E 4th Street Freeman,,Freeman,SD,57029,United States,605-925-4239,,,"Monday 9:00 AM - 4:30 PM, Tuesday 9:00 AM - 4:30 PM, Wednesday 9:00 AM - 4:30 PM, Thursday 9:00 AM - 4:30 PM, Friday 9:00 AM - 4:30 PM, Saturday Closed, Sunday Closed",,,
"Great Western Bank, 3002 N. Campbell Ave. Tucson, AZ",,3002 N. Campbell Ave.,,Tucson,AZ,85719,United States,520-325-1135,,,"Monday 9:00 AM - 5:00 PM, Tuesday 9:00 AM - 5:00 PM, Wednesday 9:00 AM - 5:00 PM, Thursday 9:00 AM - 5:00 PM, Friday 9:00 AM - 5:00 PM, Saturday Closed, Sunday Closed",,,
"Great Western Bank, 4141 N Scottsdale Rd. Scottsdale, AZ",,4141 N Scottsdale Rd #101,,Scottsdale,AZ,85251,United States,480-865-2180,,,"Monday 9:00 AM - 4:00 PM, Tuesday 9:00 AM - 4:00 PM, Wednesday 9:00 AM - 4:00 PM, Thursday 9:00 AM - 4:00 PM, Friday 9:00 AM - 4:00 PM, Saturday Closed, Sunday Closed",,,
"Great Western Bank, 3601 Minnesota Drive. Bloomington, MN",,3601 Minnesota Drive,,Bloomington,MN,55435,United States,952-562-5990,,,"Monday 9:00 AM - 4:00 PM, Tuesday 9:00 AM - 4:00 PM, Wednesday 9:00 AM - 4:00 PM, Thursday 9:00 AM - 4:00 PM, Friday 9:00 AM - 4:00 PM, Saturday Closed, Sunday Closed",,,
"Great Western Bank, 3800 E 15th St. Loveland, CO",,3800 E 15th St,,Loveland,CO,80538,United States,970.624.0550,,,"Monday 9:00 AM - 5:00 PM, Tuesday 9:00 AM - 5:00 PM, Wednesday 9:00 AM - 5:00 PM, Thursday 9:00 AM - 5:00 PM, Friday 9:00 AM - 5:00 PM, Saturday Closed, Sunday Closed",,,
"Great Western Bank, 2100 Main St. Longmont, CO",,2100 Main St,,Longmont,CO,80501,United States,303.772.0777,,,"Monday 9:00 AM - 5:00 PM, Tuesday 9:00 AM - 5:00 PM, Wednesday 9:00 AM - 5:00 PM, Thursday 9:00 AM - 5:00 PM, Friday 9:00 AM - 5:00 PM, Saturday Closed, Sunday Closed",,,
"Great Western Bank, 200 W Littleton Blvd. Littleton, CO",,200 W Littleton Blvd,,Littleton,CO,80120,United States,303.794.4221,,,"Monday 8:30 AM - 5:00 PM, Tuesday 8:30 AM - 5:00 PM, Wednesday 8:30 AM - 5:00 PM, Thursday 8:30 AM - 5:00 PM, Friday 8:30 AM - 5:00 PM, Saturday Closed, Sunday Closed",,,
"Great Western Bank, 215 Union Blvd. Lakewood, CO",,215 Union Blvd,,Lakewood,CO,80228,United States,303.988.2300,,,"Monday 8:30 AM - 5:00 PM, Tuesday 8:30 AM - 5:00 PM, Wednesday 8:30 AM - 5:00 PM, Thursday 8:30 AM - 5:00 PM, Friday 8:30 AM - 5:00 PM, Saturday Closed, Sunday Closed",,,
"Great Western Bank, 120 S 68th St. West Des Moines, IA",,120 S 68th St,,West Des Moines,IA,50266,United States,515-226-0800,,,"Monday 9:00 AM - 5:00 PM, Tuesday 9:00 AM - 5:00 PM, Wednesday 9:00 AM - 5:00 PM, Thursday 9:00 AM - 5:00 PM, Friday 9:00 AM - 5:00 PM, Saturday Closed, Sunday Closed",,,
"Great Western Bank, 5675 26th Avenue S. Fargo, ND",,5675 26th Avenue South,,Fargo,ND,58104,United States,701-639-0615,,,"Monday 9:00 AM - 5:00 PM, Tuesday 9:00 AM - 5:00 PM, Wednesday 9:00 AM - 5:00 PM, Thursday 9:00 AM - 5:00 PM, Friday 9:00 AM - 5:00 PM, Saturday Closed, Sunday Closed",,,
"Great Western Bank, 202 SD-38. Hartford, SD",,202 SD-38,,Hartford,SD,57033,United States,605-528-7428,,,"Monday 9:00 AM - 5:00 PM, Tuesday 9:00 AM - 5:00 PM, Wednesday 9:00 AM - 5:00 PM, Thursday 9:00 AM - 5:00 PM, Friday 9:00 AM - 5:00 PM, Saturday Closed, Sunday Closed",,,
"Great Western Bank, 610 4th St. Sully, IA",,610 4th St,,Sully,IA,50251,United States,641-594-4400,,,"Monday 9:00 AM - 4:00 PM, Tuesday 9:00 AM - 4:00 PM, Wednesday 9:00 AM - 4:00 PM, Thursday 9:00 AM - 4:00 PM, Friday 9:00 AM - 4:00 PM, Saturday Closed, Sunday Closed",,,
"Great Western Bank, 522 Broad St. Story City, IA",,522 Broad St,,Story City,IA,50248,United States,515-733-4322,,,"Monday 8:30 AM - 4:30 PM, Tuesday 8:30 AM - 4:30 PM, Wednesday 8:30 AM - 4:30 PM, Thursday 8:30 AM - 4:30 PM, Friday 8:30 AM - 5:00 PM, Saturday 8:30 AM - 11:00 AM, Sunday Closed",,,
"Great Western Bank, 401 Broad Ave. Stanton, IA",,401 Broad Ave,,Stanton,IA,51573,United States,712-829-2737,,,"Monday 9:00 AM - 4:00 PM, Tuesday 9:00 AM - 4:00 PM, Wednesday 9:00 AM - 4:00 PM, Thursday 9:00 AM - 4:00 PM, Friday 9:00 AM - 4:00 PM, Saturday 9:00 AM - 12:00 PM, Sunday Closed",,,
"Great Western Bank, 2936 University Ave. Waterloo, IA",,2936 University Ave,,Waterloo,IA,50701,United States,(319) 242-7510,,,"Monday 9:00 AM - 5:00 PM, Tuesday 9:00 AM - 5:00 PM, Wednesday 9:00 AM - 5:00 PM, Thursday 9:00 AM - 5:00 PM, Friday 9:00 AM - 5:30 PM, Saturday 9:00 AM - 12:00 PM, Sunday Closed",,,
"Great Western Bank, 1028 Toledo St. Sidney, NE",,1028 Toledo St,,Sidney,NE,69162,United States,308-254-7330,,,"Monday 9:00 AM - 5:00 PM, Tuesday 9:00 AM - 5:00 PM, Wednesday 9:00 AM - 5:00 PM, Thursday 9:00 AM - 5:00 PM, Friday 9:00 AM - 5:00 PM, Saturday Closed, Sunday Closed",,,
"Great Western Bank, 2001 Broadway. Scottsbluff, NE",,2001 Broadway,,Scottsbluff,NE,69361,United States,308-635-3400,,,"Monday 8:30 AM - 4:30 PM, Tuesday 8:30 AM - 4:30 PM, Wednesday 8:30 AM - 4:30 PM, Thursday 8:30 AM - 4:30 PM, Friday 8:30 AM - 4:30 PM, Saturday Closed, Sunday Closed",,,
"Great Western Bank, 1401 S Washington Street, Suite A. Papillion, NE",,"1401 S Washington Street, Suite A",,Papillion,NE,68046,United States,402-554-8181,,,"Monday 9:00 AM - 5:30 PM, Tuesday 9:00 AM - 5:30 PM, Wednesday 9:00 AM - 5:30 PM, Thursday 9:00 AM - 5:30 PM, Friday 9:00 AM - 5:30 PM, Saturday 9:00 AM - 12:00 PM, Sunday Closed",,,
"Great Western Bank, 1504 L St. Ord, NE",,1504 L St,,Ord,NE,68862,United States,308-728-3611,,,"Monday 8:30 AM - 4:00 PM, Tuesday 8:30 AM - 4:00 PM, Wednesday 8:30 AM - 4:00 PM, Thursday 8:30 AM - 4:00 PM, Friday 8:30 AM - 4:00 PM, Saturday Closed, Sunday Closed",,,
"Great Western Bank at 111 S Dewey St in Downtown North Platte, NE",,111 S Dewey St,,North Platte,NE,69101,United States,308-532-2300,,,"Monday 8:30 AM - 5:00 PM, Tuesday 8:30 AM - 5:00 PM, Wednesday 8:30 AM - 5:00 PM, Thursday 8:30 AM - 5:00 PM, Friday 8:30 AM - 5:00 PM, Saturday Closed, Sunday Closed",,,
"Great Western Bank, 608 N Linden St. Wahoo, NE",,608 N Linden St,,Wahoo,NE,68066,United States,402-443-4633,,,"Monday 8:30 AM - 5:00 PM, Tuesday 8:30 AM - 5:00 PM, Wednesday 8:30 AM - 5:00 PM, Thursday 8:30 AM - 5:00 PM, Friday 8:30 AM - 5:00 PM, Saturday Closed, Sunday Closed",,,
"Great Western Bank, 1016 Central Ave. Nebraska City, NE",,1016 Central Ave,,Nebraska City,NE,68410,United States,402-873-3367,,,"Monday 8:30 AM - 5:30 PM, Tuesday 8:30 AM - 5:30 PM, Wednesday 8:30 AM - 5:30 PM, Thursday 8:30 AM - 5:30 PM, Friday 8:30 AM - 5:30 PM, Saturday Closed, Sunday Closed",,,
"Great Western Bank, 211 W C St. McCook, NE",,211 W C St,,McCook,NE,69001,United States,308-345-5620,,,"Monday 9:00 AM - 5:00 PM, Tuesday 9:00 AM - 5:00 PM, Wednesday 9:00 AM - 5:00 PM, Thursday 9:00 AM - 5:00 PM, Friday 9:00 AM - 5:00 PM, Saturday Closed, Sunday Closed",,,
"Great Western Bank. 2408 North Broadway. Yankton, SD",,2408 North Broadway P.O. Box 17,,Yankton,SD,57078,United States,605-260-8674,,,"Monday 9:00 AM - 5:00 PM, Tuesday 9:00 AM - 5:00 PM, Wednesday 9:00 AM - 5:00 PM, Thursday 9:00 AM - 5:00 PM, Friday 9:00 AM - 5:00 PM, Saturday Closed, Sunday Closed",,,
"Great Western Bank, 2120 1st Ave. Kearney, NE",,2120 1st Ave,,Kearney,NE,68847,United States,308-234-2473,,,"Monday 8:30 AM - 5:00 PM, Tuesday 8:30 AM - 5:00 PM, Wednesday 8:30 AM - 5:00 PM, Thursday 8:30 AM - 5:00 PM, Friday 8:30 AM - 5:00 PM, Saturday 9:00 AM - 12:00 PM, Sunday Closed",,,
"Great Western Bank, 330 E Douglas St. O'Neill, NE",,330 E Douglas St,,O' Neill,NE,68763,United States,402-336-2261,,,"Monday 8:30 AM - 4:00 PM, Tuesday 8:30 AM - 4:00 PM, Wednesday 8:30 AM - 4:00 PM, Thursday 8:30 AM - 4:00 PM, Friday 8:30 AM - 4:00 PM, Saturday Closed, Sunday Closed",,,
"Great Western Bank, 700 N Burlington Ave. Hastings, NE",,700 N Burlington Ave,,Hastings,NE,68901,United States,402-463-1391,,,"Monday 8:30 AM - 4:30 PM, Tuesday 8:30 AM - 4:30 PM, Wednesday 8:30 AM - 4:30 PM, Thursday 8:30 AM - 4:30 PM, Friday 8:30 AM - 4:30 PM, Saturday 9:00 AM - 12:00 PM, Sunday Closed",,,
"Great Western Bank, 1418 E. College Drive. Marshall, MN",,1418 E. College Drive,,Marshall,MN,56258,United States,507-532-3056,,,"Monday 9:00 AM - 5:00 PM, Tuesday 9:00 AM - 5:00 PM, Wednesday 9:00 AM - 5:00 PM, Thursday 9:00 AM - 5:00 PM, Friday 9:00 AM - 5:00 PM, Saturday Closed, Sunday Closed",,,
"Great Western Bank, 114 W 15th St. Falls City, NE",,114 W 15th St,,Falls City,NE,68355,United States,402-245-4481,,,"Monday 8:30 AM - 5:00 PM, Tuesday 8:30 AM - 5:00 PM, Wednesday 8:30 AM - 5:00 PM, Thursday 8:30 AM - 5:00 PM, Friday 8:30 AM - 5:00 PM, Saturday Closed, Sunday Closed",,,
"Great Western Bank, 400 W Braasch Ave. Norfolk, NE",,400 W Braasch Ave,,Norfolk,NE,68701,United States,402-371-9388,,,"Monday 8:30 AM - 5:00 PM, Tuesday 8:30 AM - 5:00 PM, Wednesday 8:30 AM - 5:00 PM, Thursday 8:30 AM - 5:00 PM, Friday 8:30 AM - 5:00 PM, Saturday Closed, Sunday Closed",,,
"Great Western Bank, 101 E Kimball St. Callaway, NE",,101 E Kimball St,,Callaway,NE,68825,United States,308-836-2233,,,"Monday 8:30 AM - 3:30 PM, Tuesday 8:30 AM - 3:30 PM, Wednesday 8:30 AM - 3:30 PM, Thursday 8:30 AM - 3:30 PM, Friday 8:30 AM - 4:00 PM, Saturday Closed, Sunday Closed",,,
"Great Western Bank, 1301 Main Ave. Crete, NE",,1301 Main Ave,,Crete,NE,68333,United States,402-826-4349,,,"Monday 8:30 AM - 5:00 PM, Tuesday 8:30 AM - 5:00 PM, Wednesday 8:30 AM - 5:00 PM, Thursday 8:30 AM - 5:00 PM, Friday 8:30 AM - 5:00 PM, Saturday 9:00 AM - 12:00 PM, Sunday Closed",,,
"Great Western Bank, 901 S D St. Broken Bow, NE",,901 S D St,,Broken Bow,NE,68822,United States,308-872-6808,,,"Monday 8:30 AM - 5:00 PM, Tuesday 8:30 AM - 5:00 PM, Wednesday 8:30 AM - 5:00 PM, Thursday 8:30 AM - 5:00 PM, Friday 8:30 AM - 5:00 PM, Saturday Closed, Sunday Closed",,,
"Great Western Bank, 1000 Court St. Beatrice, NE",,1000 Court St,,Beatrice,NE,68310,United States,402-223-5225,,,"Monday 8:30 AM - 5:00 PM, Tuesday 8:30 AM - 5:00 PM, Wednesday 8:30 AM - 5:00 PM, Thursday 8:30 AM - 5:00 PM, Friday 8:30 AM - 5:00 PM, Saturday Closed, Sunday Closed",,,
"Great Western Bank, 118 E State St. Atkinson, NE",,118 E State St,,Atkinson,NE,68713,United States,402-925-5200,,,"Monday 9:00 AM - 4:00 PM, Tuesday 9:00 AM - 4:00 PM, Wednesday 9:00 AM - 4:00 PM, Thursday 9:00 AM - 4:00 PM, Friday 9:00 AM - 4:00 PM, Saturday Closed, Sunday Closed",,,
"Great Western Bank, 900 Illinois St. Sidney, IA",,900 Illinois St,,Sidney,IA,51652,United States,712-374-2655,,,"Monday 9:00 AM - 3:00 PM, Tuesday 9:00 AM - 3:00 PM, Wednesday 9:00 AM - 3:00 PM, Thursday 9:00 AM - 3:00 PM, Friday 9:00 AM - 3:00 PM, Saturday Closed, Sunday Closed",,,
"Great Western Bank, 700 W Thomas Ave. Shenandoah, IA",,700 W Thomas Ave,,Shenandoah,IA,51601,United States,712-246-2119,,,"Monday 9:00 AM - 4:00 PM, Tuesday 9:00 AM - 4:00 PM, Wednesday 9:00 AM - 4:00 PM, Thursday 9:00 AM - 4:00 PM, Friday 9:00 AM - 4:00 PM, Saturday Closed, Sunday Closed",,,
"Great Western Bank, 2100 Commerce Dr. Red Oak, IA",,2100 Commerce Dr,,Red Oak,IA,51566,United States,712-623-9809,,,"Monday 9:00 AM - 4:00 PM, Tuesday 9:00 AM - 4:00 PM, Wednesday 9:00 AM - 4:00 PM, Thursday 9:00 AM - 4:00 PM, Friday 9:00 AM - 4:00 PM, Saturday Closed, Sunday Closed",,,
"Great Western Bank, 304 S Commerce Dr. Prairie City, IA",,304 S Commerce Dr,,Prairie City,IA,50228,United States,515-994-2619,,,"Monday 9:00 AM - 3:30 PM, Tuesday 9:00 AM - 3:30 PM, Wednesday 9:00 AM - 3:30 PM, Thursday 9:00 AM - 3:30 PM, Friday 9:00 AM - 5:00 PM, Saturday Closed, Sunday Closed",,,
"Great Western Bank, 1111 141st St. Perry, IA",,1111 141st St,,Perry,IA,50220,United States,515-465-3187,,,"Monday 9:00 AM - 4:00 PM, Tuesday 9:00 AM - 4:00 PM, Wednesday 9:00 AM - 4:00 PM, Thursday 9:00 AM - 4:00 PM, Friday 9:00 AM - 5:00 PM, Saturday 9:00 AM - 12:00 PM, Sunday Closed",,,
"Great Western Bank, 610 W McLane St. Osceola, IA",,610 W McLane St,,Osceola,IA,50213,United States,641-342-4140,,,"Monday 9:00 AM - 4:00 PM, Tuesday 9:00 AM - 4:00 PM, Wednesday 9:00 AM - 4:00 PM, Thursday 9:00 AM - 4:00 PM, Friday 9:00 AM - 4:00 PM, Saturday 9:00 AM - 12:00 PM, Sunday Closed",,,
"Great Western Bank, 501 Pioneer Ave. Oakland, IA",,501 Pioneer Ave,,Oakland,IA,51560,United States,712-482-6457,,,"Monday 9:00 AM - 4:00 PM, Tuesday 9:00 AM - 4:00 PM, Wednesday 9:00 AM - 4:00 PM, Thursday 9:00 AM - 4:00 PM, Friday 9:00 AM - 4:00 PM, Saturday Closed, Sunday Closed",,,
"Great Western Bank, 655 Community Dr. North Liberty, IA",,655 Community Dr. PO Box 306,,North Liberty,IA,52317,United States,319-471-4570,,,"Monday 9:00 AM - 5:30 PM, Tuesday 9:00 AM - 5:30 PM, Wednesday 9:00 AM - 5:30 PM, Thursday 9:00 AM - 5:30 PM, Friday 9:00 AM - 5:30 PM, Saturday 9:00 AM - 12:00 PM, Sunday Closed",,,
"Great Western Bank, 511 1st Ave E. Newton, IA",,511 1st Ave E,,Newton,IA,50208,United States,641-792-9832,,,"Monday 9:00 AM - 4:00 PM, Tuesday 9:00 AM - 4:00 PM, Wednesday 9:00 AM - 4:00 PM, Thursday 9:00 AM - 4:00 PM, Friday 9:00 AM - 5:00 PM, Saturday 9:00 AM - 11:00 AM, Sunday Closed",,,
"Great Western Bank, 404 Lincoln Hwy. Nevada, IA",,404 Lincoln Hwy,,Nevada,IA,50201,United States,515-382-5408,,,"Monday 9:00 AM - 4:30 PM, Tuesday 9:00 AM - 4:30 PM, Wednesday 9:00 AM - 4:30 PM, Thursday 9:00 AM - 4:30 PM, Friday 9:00 AM - 4:30 PM, Saturday 9:00 AM - 11:00 AM, Sunday Closed",,,
"Great Western Bank, 102 S Main St. Mt. Pleasant, IA",,102 S Main St,,Mt Pleasant,IA,52641,United States,319-385-8000,,,"Monday 9:00 AM - 4:00 PM, Tuesday 9:00 AM - 4:00 PM, Wednesday 9:00 AM - 4:00 PM, Thursday 9:00 AM - 4:00 PM, Friday 9:00 AM - 5:00 PM, Saturday Closed, Sunday Closed",,,
"Great Western Bank, 100 E South St. Mount Ayr, IA",,100 E South St,,Mount Ayr,IA,50854,United States,641-464-3888,,,"Monday 9:00 AM - 3:00 PM, Tuesday 9:00 AM - 3:00 PM, Wednesday 9:00 AM - 3:00 PM, Thursday 9:00 AM - 3:00 PM, Friday 9:00 AM - 3:00 PM, Saturday 8:30 AM - 12:00 PM, Sunday Closed",,,
"Great Western Bank, 2228 Main St. Unionville, MO",,2228 Main St,,Unionville,MO,63565,United States,660-947-4000,,,"Monday 9:00 AM - 4:00 PM, Tuesday 9:00 AM - 4:00 PM, Wednesday 9:00 AM - 4:00 PM, Thursday 9:00 AM - 4:00 PM, Friday 9:00 AM - 4:00 PM, Saturday 9:00 AM - 12:00 PM, Sunday Closed",,,
"Great Western Bank, 21783 US Hwy 65. Princeton, MO",,"21783 US Hwy 65, P.O. Box 226",,Princeton,MO,64673,United States,660-748-4000,,,"Monday 9:00 AM - 5:00 PM, Tuesday 9:00 AM - 5:00 PM, Wednesday 9:00 AM - 5:00 PM, Thursday 9:00 AM - 5:00 PM, Friday 9:00 AM - 5:00 PM, Saturday 9:00 AM - 12:00 PM, Sunday Closed",,,
"Great Western Bank, 520 N Pearl St. Milan, MO",,520 N Pearl St,,Milan,MO,63556,United States,660-265-4000,,,"Monday 9:00 AM - 4:00 PM, Tuesday 9:00 AM - 4:00 PM, Wednesday 9:00 AM - 4:00 PM, Thursday 9:00 AM - 5:00 PM, Friday 9:00 AM - 5:00 PM, Saturday 9:00 AM - 12:00 PM, Sunday Closed",,,
"Great Western Bank, 2 W 4th St. Grant City, MO",,2 W 4th St,,Grant City,MO,64456,United States,660-564-4000,,,"Monday 7:45 AM - 4:00 PM, Tuesday 7:45 AM - 4:00 PM, Wednesday 7:45 AM - 4:00 PM, Thursday 7:45 AM - 4:00 PM, Friday 7:45 AM - 4:30 PM, Saturday 8:30 AM - 12:00 PM, Sunday Closed",,,
"Great Western Bank, 203 S 25th St. Bethany, MO",,203 S 25th St,,Bethany,MO,64424,United States,660-425-4000,,,"Monday 8:30 AM - 4:00 PM, Tuesday 8:30 AM - 4:00 PM, Wednesday 8:30 AM - 4:00 PM, Thursday 8:30 AM - 4:00 PM, Friday 8:30 AM - 5:00 PM, Saturday 9:00 AM - 12:00 PM, Sunday Closed",,,
"Great Western Bank, 224 W Wood St. Albany, MO",,224 W Wood St,,Albany,MO,64402,United States,660-726-4000,,,"Monday 8:30 AM - 4:00 PM, Tuesday 8:30 AM - 4:00 PM, Wednesday 8:30 AM - 4:00 PM, Thursday 8:30 AM - 4:00 PM, Friday 8:30 AM - 5:00 PM, Saturday 9:00 AM - 12:00 PM, Sunday Closed",,,
"Great Western Bank, 600 Pierce St. Sioux City, IA",,600 Pierce St,,Sioux City,IA,51101,United States,712-522-4430,,,"Monday 9:00 AM - 5:00 PM, Tuesday 9:00 AM - 5:00 PM, Wednesday 9:00 AM - 5:00 PM, Thursday 9:00 AM - 5:00 PM, Friday 9:00 AM - 5:00 PM, Saturday Closed, Sunday Closed",,,
"Great Western Bank, 111 N Main St. Leon, IA",,111 N Main St,,Leon,IA,50144,United States,641-446-4841,,,"Monday 9:00 AM - 4:00 PM, Tuesday 9:00 AM - 4:00 PM, Wednesday 9:00 AM - 4:00 PM, Thursday 9:00 AM - 4:00 PM, Friday 9:00 AM - 4:00 PM, Saturday 9:00 AM - 12:00 PM, Sunday Closed",,,
"Great Western Bank, 206 Broad St. Humeston, IA",,206 Broad St,,Humeston,IA,50123,United States,641-877-2341,,,"Monday 9:00 AM - 3:00 PM, Tuesday 9:00 AM - 3:00 PM, Wednesday 9:00 AM - 3:00 PM, Thursday 9:00 AM - 3:00 PM, Friday 9:00 AM - 3:00 PM, Saturday 9:00 AM - 11:00 AM, Sunday Closed",,,
"Great Western Bank, 205 E Erie St. Missouri Valley, IA",,205 E Erie St,,Missouri Valley,IA,51555,United States,712-642-4151,,,"Monday 8:30 AM - 5:00 PM, Tuesday 8:30 AM - 5:00 PM, Wednesday 8:30 AM - 5:00 PM, Thursday 8:30 AM - 5:00 PM, Friday 8:30 AM - 5:00 PM, Saturday Closed, Sunday Closed",,,
"Great Western Bank, 1030 Broad St. Grinnell, IA",,1030 Broad St,,Grinnell,IA,50112,United States,641-236-7544,,,"Monday 8:30 AM - 4:30 PM, Tuesday 8:30 AM - 4:30 PM, Wednesday 8:30 AM - 4:30 PM, Thursday 8:30 AM - 4:30 PM, Friday 8:30 AM - 4:30 PM, Saturday 8:30 AM - 11:00 AM, Sunday Closed",,,
"Great Western Bank, 201 S Locust St. Glenwood, IA",,201 S Locust St,,Glenwood,IA,51534,United States,712-527-4826,,,"Monday 9:00 AM - 5:00 PM, Tuesday 9:00 AM - 5:00 PM, Wednesday 9:00 AM - 5:00 PM, Thursday 9:00 AM - 5:00 PM, Friday 9:00 AM - 5:00 PM, Saturday Closed, Sunday Closed",,,
"Great Western Bank, 401 2nd St. Gladbrook, IA",,401 2nd St,,Gladbrook,IA,50635,United States,641-473-2023,,,"Monday 9:00 AM - 4:00 PM, Tuesday 9:00 AM - 4:00 PM, Wednesday 9:00 AM - 4:00 PM, Thursday 9:00 AM - 4:00 PM, Friday 9:00 AM - 5:00 PM, Saturday 9:00 AM - 11:00 AM, Sunday Closed",,,
"Great Western Bank, 1552 E 23rd St. Fremont, NE",,1552 E 23rd St,,Fremont,NE,68025,United States,402-721-3110,,,"Monday 8:30 AM - 5:00 PM, Tuesday 8:30 AM - 5:00 PM, Wednesday 8:30 AM - 5:00 PM, Thursday 8:30 AM - 5:00 PM, Friday 8:30 AM - 5:00 PM, Saturday Closed, Sunday Closed",,,
"Great Western Bank, 1402 Washington St. Eldora, IA",,1402 Washington St,,Eldora,IA,50627,United States,641-858-5411,,,"Monday 9:00 AM - 3:30 PM, Tuesday 9:00 AM - 3:30 PM, Wednesday 9:00 AM - 3:30 PM, Thursday 9:00 AM - 3:30 PM, Friday 9:00 AM - 4:00 PM, Saturday Closed, Sunday Closed",,,
"Great Western Bank, 1347 E Euclid Ave. Des Moines, IA",,1347 E Euclid Ave,,Des Moines,IA,50316,United States,515/265-0182,,,"Monday 9:00 AM - 5:00 PM, Tuesday 9:00 AM - 5:00 PM, Wednesday 9:00 AM - 5:00 PM, Thursday 9:00 AM - 5:00 PM, Friday 9:00 AM - 5:00 PM, Saturday 9:00 AM - 12:00 PM, Sunday Closed",,,
"Great Western Bank, 103 W Taylor St. Creston, IA",,103 W Taylor St,,Creston,IA,50801,United States,641-782-9300,,,"Monday 9:00 AM - 3:00 PM, Tuesday 9:00 AM - 3:00 PM, Wednesday 9:00 AM - 3:00 PM, Thursday 9:00 AM - 3:00 PM, Friday 9:00 AM - 3:00 PM, Saturday Closed, Sunday Closed",,,
"Great Western Bank, 509 W Broadway. Downtown Council Bluffs, IA",,509 W Broadway,,Council Bluffs,IA,51503,United States,402-952-6000,,,"Monday 9:00 AM - 5:30 PM, Tuesday 9:00 AM - 5:30 PM, Wednesday 9:00 AM - 5:30 PM, Thursday 9:00 AM - 5:30 PM, Friday 9:00 AM - 5:30 PM, Saturday 9:00 AM - 12:00 PM, Sunday Closed",,,
"Great Western Bank, 309 E Jefferson St. Corydon, IA",,309 E Jefferson St,,Corydon,IA,50060,United States,641-872-1400,,,"Monday 9:00 AM - 3:00 PM, Tuesday 9:00 AM - 3:00 PM, Wednesday 9:00 AM - 3:00 PM, Thursday 9:00 AM - 3:00 PM, Friday 9:00 AM - 4:00 PM, Saturday 9:00 AM - 12:00 PM, Sunday Closed",,,
"Great Western Bank, 301 E Washington St. Clarinda, IA",,301 E Washington St,,Clarinda,IA,51632,United States,712-542-5605,,,"Monday 9:00 AM - 4:00 PM, Tuesday 9:00 AM - 4:00 PM, Wednesday 9:00 AM - 4:00 PM, Thursday 9:00 AM - 4:00 PM, Friday 9:00 AM - 4:00 PM, Saturday Closed, Sunday Closed",,,
"Great Western Bank, 1020 Main St. Hamburg, IA",,1020 Main St,,Hamburg,IA,51640,United States,712-382-1212,,,"Monday 9:00 AM - 3:00 PM, Tuesday 9:00 AM - 3:00 PM, Wednesday 9:00 AM - 3:00 PM, Thursday 9:00 AM - 3:00 PM, Friday 9:00 AM - 3:00 PM, Saturday Closed, Sunday Closed",,,
"Great Western Bank, 100 N 1st St. Carlisle, IA",,100 N 1st St,,Carlisle,IA,50047,United States,515-989-3255,,,"Monday 9:00 AM - 4:00 PM, Tuesday 9:00 AM - 4:00 PM, Wednesday 9:00 AM - 4:00 PM, Thursday 9:00 AM - 4:00 PM, Friday 9:00 AM - 5:00 PM, Saturday 9:00 AM - 12:00 PM, Sunday Closed",,,
"Great Western Bank, 423 W 3rd St. Alliance, NE",,423 W 3rd St,,Alliance,NE,69301,United States,308-762-2160,,,"Monday 8:30 AM - 5:00 PM, Tuesday 8:30 AM - 5:00 PM, Wednesday 8:30 AM - 5:00 PM, Thursday 8:30 AM - 5:00 PM, Friday 8:30 AM - 5:00 PM, Saturday Closed, Sunday Closed",,,
"Great Western Bank, 201 N Main St. Chariton, IA",,201 N Main St,,Chariton,IA,50049,United States,641-774-4700,,,"Monday 9:00 AM - 4:00 PM, Tuesday 9:00 AM - 4:00 PM, Wednesday 9:00 AM - 4:00 PM, Thursday 9:00 AM - 4:00 PM, Friday 9:00 AM - 4:00 PM, Saturday 8:30 AM - 12:00 PM, Sunday Closed",,,
"Great Western Bank, 2110 SE Delaware Ave. Ankeny, IA",,2110 SE Delaware Ave,,Ankeny,IA,50021,United States,515-963-4488,,,"Monday 9:00 AM - 5:00 PM, Tuesday 9:00 AM - 5:00 PM, Wednesday 9:00 AM - 5:00 PM, Thursday 9:00 AM - 5:00 PM, Friday 9:00 AM - 5:00 PM, Saturday 9:00 AM - 12:00 PM, Sunday Closed",,,
"Great Western Bank, 316 S Duff Ave. Ames, IA",,316 S Duff Ave,,Ames,IA,50010,United States,515.232.4304,,,"Monday 9:00 AM - 5:00 PM, Tuesday 9:00 AM - 5:00 PM, Wednesday 9:00 AM - 5:00 PM, Thursday 9:00 AM - 5:00 PM, Friday 9:00 AM - 5:00 PM, Saturday 9:00 AM - 11:30 AM, Sunday Closed",,,
"Great Western Bank, 163 Grand Ave. Burwell, NE",,163 Grand Ave,,Burwell,NE,68823,United States,308-346-4700,,,"Monday 8:30 AM - 4:00 PM, Tuesday 8:30 AM - 4:00 PM, Wednesday 8:30 AM - 4:00 PM, Thursday 8:30 AM - 4:00 PM, Friday 8:30 AM - 4:00 PM, Saturday Closed, Sunday Closed",,,
"Great Western Bank, 785 Cheeseman St. Erie, CO",,785 Cheeseman St,,Erie,CO,80516,United States,303.828.0888,,,"Monday 9:00 AM - 5:00 PM, Tuesday 9:00 AM - 5:00 PM, Wednesday 9:00 AM - 5:00 PM, Thursday 9:00 AM - 5:00 PM, Friday 9:00 AM - 5:00 PM, Saturday Closed, Sunday Closed",,,
"Great Western Bank, 1407 E 7th St. Atlantic, IA",,1407 E 7th St,,Atlantic,IA,50022,United States,712-243-6229,,,"Monday 9:00 AM - 4:00 PM, Tuesday 9:00 AM - 4:00 PM, Wednesday 9:00 AM - 4:00 PM, Thursday 9:00 AM - 4:00 PM, Friday 9:00 AM - 4:00 PM, Saturday Closed, Sunday Closed",,,
"Great Western Bank, 110 S 9th St. Canon City, CO",,110 S 9th St,,Canon City,CO,81212,United States,719.275.7468,,,"Monday 9:00 AM - 5:00 PM, Tuesday 9:00 AM - 5:00 PM, Wednesday 9:00 AM - 5:00 PM, Thursday 9:00 AM - 5:00 PM, Friday 9:00 AM - 5:00 PM, Saturday Closed, Sunday Closed",,,
"Great Western Bank, 5720 W 120th Ave. Broomfield, CO",,5720 W 120th Ave,,Broomfield,CO,80020,United States,303.460.0333,,,"Monday 9:00 AM - 5:00 PM, Tuesday 9:00 AM - 5:00 PM, Wednesday 9:00 AM - 5:00 PM, Thursday 9:00 AM - 5:00 PM, Friday 9:00 AM - 5:00 PM, Saturday Closed, Sunday Closed",,,
"Great Western Bank, 19750 N John Wayne Pkwy. Maricopa, AZ",,19750 N John Wayne Pkwy,,Maricopa,AZ,85139,United States,520-568-4230,,,"Monday 9:00 AM - 4:00 PM, Tuesday 9:00 AM - 4:00 PM, Wednesday 9:00 AM - 4:00 PM, Thursday 9:00 AM - 4:00 PM, Friday 9:00 AM - 6:00 PM, Saturday 9:00 AM - 12:00 PM, Sunday Closed",,,
"Great Western Bank, 161 W Oak St. Globe, AZ",,161 W Oak St,,Globe,AZ,85501,United States,928-402-8491,,,"Monday 9:00 AM - 4:00 PM, Tuesday 9:00 AM - 4:00 PM, Wednesday 9:00 AM - 4:00 PM, Thursday 9:00 AM - 4:00 PM, Friday 9:00 AM - 6:00 PM, Saturday 9:00 AM - 12:00 PM, Sunday Closed",,,
"Great Western Bank, 2015 Clubhouse Dr. Greeley, CO",,2015 Clubhouse Dr,,Greeley,CO,80634,United States,970-515-7070,,,"Monday 9:00 AM - 5:00 PM, Tuesday 9:00 AM - 5:00 PM, Wednesday 9:00 AM - 5:00 PM, Thursday 9:00 AM - 5:00 PM, Friday 9:00 AM - 5:00 PM, Saturday Closed, Sunday Closed",,,
"Great Western Bank, 1721 N Arizona Ave. Chandler, AZ",,1721 N Arizona Ave,,Chandler,AZ,85225,United States,480-732-0732,,,"Monday 9:00 AM - 4:00 PM, Tuesday 9:00 AM - 4:00 PM, Wednesday 9:00 AM - 4:00 PM, Thursday 9:00 AM - 4:00 PM, Friday 9:00 AM - 4:00 PM, Saturday Closed, Sunday Closed",,,
"Great Western Bank, 712 Main St. Eloy, AZ",,712 Main St,,Eloy,AZ,85131,United States,520-466-7339,,,"Monday 9:00 AM - 4:00 PM, Tuesday 9:00 AM - 4:00 PM, Wednesday 9:00 AM - 4:00 PM, Thursday 9:00 AM - 4:00 PM, Friday 9:00 AM - 6:00 PM, Saturday 9:00 AM - 12:00 PM, Sunday Closed",,,
"Great Western Bank at 1300 E Florence Blvd in Casa Grande, AZ",,1300 E Florence Blvd,,Casa Grande,AZ,85122,United States,520-836-4666,,,"Monday 9:00 AM - 5:00 PM, Tuesday 9:00 AM - 5:00 PM, Wednesday 9:00 AM - 5:00 PM, Thursday 9:00 AM - 5:00 PM, Friday 9:00 AM - 5:00 PM, Saturday 9:00 AM - 12:00 PM, Sunday Closed",,,
"Great Western Bank, 2770 8th St. Altoona, IA",,2770 8th St SW,,Altoona,IA,50009,United States,515-967-1495,,,"Monday 9:00 AM - 5:00 PM, Tuesday 9:00 AM - 5:00 PM, Wednesday 9:00 AM - 5:00 PM, Thursday 9:00 AM - 5:00 PM, Friday 9:00 AM - 5:00 PM, Saturday 9:00 AM - 12:00 PM, Sunday Closed",,,
"Great Western Bank, 635 N Arizona Blvd. Coolidge, AZ",,635 N Arizona Blvd,,Coolidge,AZ,85128,United States,520-723-9511,,,"Monday 9:00 AM - 4:00 PM, Tuesday 9:00 AM - 4:00 PM, Wednesday 9:00 AM - 4:00 PM, Thursday 9:00 AM - 4:00 PM, Friday 9:00 AM - 4:00 PM, Saturday Closed, Sunday Closed",,,
"Great Western Bank, 10307 Metcalf Ave. Overland Park, KS",,10307 Metcalf Ave,,Overland Park,KS,66212,United States,913-385-1000,,,"Monday 9:00 AM - 5:00 PM, Tuesday 9:00 AM - 5:00 PM, Wednesday 9:00 AM - 5:00 PM, Thursday 9:00 AM - 5:00 PM, Friday 9:00 AM - 5:00 PM, Saturday Closed, Sunday Closed",,,
Spearfish - Main,,526 N Main St,,Spearfish,SD,57783,United States,605-642-2232,,,"Monday 8:30 AM - 5:00 PM, Tuesday 8:30 AM - 5:00 PM, Wednesday 8:30 AM - 5:00 PM, Thursday 8:30 AM - 5:00 PM, Friday 8:30 AM - 5:00 PM, Saturday Closed, Sunday Closed",,,
"Great Western Bank, 407 Main St. Bedford, IA",,407 Main St,,Bedford,IA,50833,United States,712-523-3611,,,"Monday 9:00 AM - 3:00 PM, Tuesday 9:00 AM - 3:00 PM, Wednesday 9:00 AM - 3:00 PM, Thursday 9:00 AM - 3:00 PM, Friday 9:00 AM - 4:00 PM, Saturday Closed, Sunday Closed",,,
"Great Western Bank, 10610 Shawnee Mission Pkwy. Shawnee, KS",,10610 Shawnee Mission Pkwy,,Shawnee,KS,66203,United States,913-248-3300,,,"Monday 9:00 AM - 5:00 PM, Tuesday 9:00 AM - 5:00 PM, Wednesday 9:00 AM - 5:00 PM, Thursday 9:00 AM - 5:00 PM, Friday 9:00 AM - 5:00 PM, Saturday Closed, Sunday Closed",,,
"Great Western Bank, 1 W Main St. Rosholt, SD",,1 W Main St,,Rosholt,SD,57260,United States,605-537-4211,,,"Monday 8:30 AM - 4:00 PM, Tuesday 8:30 AM - 4:00 PM, Wednesday 8:30 AM - 4:00 PM, Thursday 8:30 AM - 4:00 PM, Friday 8:30 AM - 4:00 PM, Saturday Closed, Sunday Closed",,,
"Great Western Bank, 106 E 7th Ave. Redfield, SD",,106 E 7th Ave,,Redfield,SD,57469,United States,605-472-2200,,,"Monday 8:30 AM - 4:00 PM, Tuesday 8:30 AM - 4:00 PM, Wednesday 8:30 AM - 4:00 PM, Thursday 8:30 AM - 4:00 PM, Friday 8:30 AM - 4:00 PM, Saturday Closed, Sunday Closed",,,
"Great Western Bank, 408 Highway 77. Dell Rapids, SD",,408 Highway 77,,Dell Rapids,SD,57022,United States,605-428-3076,,,"Monday 9:00 AM - 4:30 PM, Tuesday 9:00 AM - 4:30 PM, Wednesday 9:00 AM - 4:30 PM, Thursday 9:00 AM - 4:30 PM, Friday 9:00 AM - 4:30 PM, Saturday Closed, Sunday Closed",,,
"Great Western Bank, 1301 Main St. Webster, SD",,1301 Main St,,Webster,SD,57274,United States,605-345-4671,,,"Monday 9:00 AM - 4:00 PM, Tuesday 9:00 AM - 4:00 PM, Wednesday 9:00 AM - 4:00 PM, Thursday 9:00 AM - 4:00 PM, Friday 9:00 AM - 4:00 PM, Saturday Closed, Sunday Closed",,,
"Great Western Bank, 118 North Main. Colman, SD",,118 North Main P.O. Box C,,Colman,SD,57017,United States,605-534-3553,,,"Monday 9:30 AM - 4:00 PM, Tuesday 9:30 AM - 4:00 PM, Wednesday 9:30 AM - 4:00 PM, Thursday 9:30 AM - 4:00 PM, Friday 9:30 AM - 4:00 PM, Saturday Closed, Sunday Closed",,,
"Great Western Bank, 101 E King Ave. Chamberlain, SD",,101 E King Ave,,Chamberlain,SD,57325,United States,605-734-6531,,,"Monday 9:00 AM - 4:00 PM, Tuesday 9:00 AM - 4:00 PM, Wednesday 9:00 AM - 4:00 PM, Thursday 9:00 AM - 4:00 PM, Friday 9:00 AM - 4:00 PM, Saturday Closed, Sunday Closed",,,
"Great Western Bank, 302 Main St. Morristown, SD",,302 Main St,,Morristown,SD,57645,United States,605-524-3613,,,"Monday 8:30 AM - 3:30 PM, Tuesday 8:30 AM - 3:30 PM, Wednesday 8:30 AM - 3:30 PM, Thursday 8:30 AM - 3:30 PM, Friday 8:30 AM - 3:30 PM, Saturday Closed, Sunday Closed",,,
"Great Western Bank, 1302 6th Street. Brookings, SD",,1302 6th Street,,Brookings,SD,57006,United States,605-692-7100,,,"Monday 9:00 AM - 5:00 PM, Tuesday 9:00 AM - 5:00 PM, Wednesday 9:00 AM - 5:00 PM, Thursday 9:00 AM - 5:00 PM, Friday 9:00 AM - 5:00 PM, Saturday Closed, Sunday Closed",,,
"Great Western Bank, 1305 E. Cedar. Brandon, SD",,1305 E. Cedar P.O. Box 135,,Brandon,SD,57005,United States,605-582-2311,,,"Monday 9:00 AM - 5:00 PM, Tuesday 9:00 AM - 5:00 PM, Wednesday 9:00 AM - 5:00 PM, Thursday 9:00 AM - 5:00 PM, Friday 9:00 AM - 5:00 PM, Saturday Closed, Sunday Closed",,,
"Great Western Bank, 102 W. 5th Street. Canton, SD",,102 W. 5th Street P.O. Box 69,,Canton,SD,57013,United States,605-987-2668,,,"Monday 9:00 AM - 4:00 PM, Tuesday 9:00 AM - 4:00 PM, Wednesday 9:00 AM - 4:00 PM, Thursday 9:00 AM - 4:00 PM, Friday 9:00 AM - 4:00 PM, Saturday Closed, Sunday Closed",,,
"Great Western Bank, 505 N Main St. Mobridge, SD",,505 N Main St,,Mobridge,SD,57601,United States,605-845-7233,,,"Monday 9:00 AM - 4:00 PM, Tuesday 9:00 AM - 4:00 PM, Wednesday 9:00 AM - 4:00 PM, Thursday 9:00 AM - 4:00 PM, Friday 9:00 AM - 4:00 PM, Saturday Closed, Sunday Closed",,,
"Great Western Bank, 210 North West Ave. Crooks, SD",,210 North West Ave. P.O. Box 607,,Crooks,SD,57020,United States,605-543-5660,,,"Monday 9:00 AM - 4:00 PM, Tuesday 9:00 AM - 4:00 PM, Wednesday 9:00 AM - 4:00 PM, Thursday 9:00 AM - 4:00 PM, Friday 9:00 AM - 4:00 PM, Saturday Closed, Sunday Closed",,,
