store_name,store_number,address,address2,city,state,zip_code,country,phone_number,latitude,longitude,store_hours,store_type,other_fields,coming_soon
,,1414 Brandt Rd Apt 21,,Vancouver,Washington,98661,United States,(360) 281-0421,,,,,,
,,14451 Whirlwind Ave,,Jacksonville,Florida,32218,United States,(904) 741-3252,,,,,,
,,3154 Interstate 40,,Wheatley,Arkansas,72392,United States,,,,,,,
,,1030 Highway 78 N,,Wheatley,Arkansas,72392,United States,(870) 457-2322,,,,,,
,,3401 John F Kennedy Blvd,,North Little Rock,Arkansas,72116,United States,(501) 753-2237,,,,,,
,,1521 N Missouri St,,West Memphis,Arkansas,72301,United States,(870) 735-9681,,,,,,
,,3262 Interstate 55,,Marion,Arkansas,72364,United States,,,,,,,
,,1020 Third St,,Newport,Arkansas,72112,United States,(870) 523-8310,,,,,,
,,10340 Highway 107,,Sherwood,Arkansas,72120,United States,(501) 835-1908,,,,,,
,,600 Highway 463 S,,Trumann,Arkansas,72472,United States,(870) 483-2554,,,,,,
,,610 Chickamauga Ave,,Rossville,Georgia,30741,United States,(706) 861-7147,,,,,,
,,399 Cloud Springs Rd,,Rossville,Georgia,30741,United States,(706) 861-4637,,,,,,
,,815 Chickamauga Ave,,Rossville,Georgia,30741,United States,(706) 866-9189,,,,,,
,,1700 Lakeview Dr,,Rossville,Georgia,30741,United States,(706) 866-9370,,,,,,
,,955 Highway 299,,Wildwood,Georgia,30757,United States,(706) 820-0896,,,,,,
,,405 Highway 299,,Wildwood,Georgia,30757,United States,(706) 820-2005,,,,,,
,,5090 Highway 136,,Trenton,Georgia,30752,United States,(706) 657-5633,,,,,,
,,2403 Cloud Springs Rd,,Rossville,Georgia,30741,United States,(706) 858-5500,,,,,,
,,6672 Alabama Hwy,,Ringgold,Georgia,30736,United States,,,,,,,
,,6966 Alabama Hwy,,Ringgold,Georgia,30736,United States,(706) 935-3917,,,,,,
,,3668 Battlefield Pkwy,,Ringgold,Georgia,30736,United States,,,,,,,
,,2707 Highway 41,,Ringgold,Georgia,30736,United States,(706) 935-3370,,,,,,
,,4317 Cloud Springs Rd,,Ringgold,Georgia,30736,United States,(706) 891-3323,,,,,,
,,104 Gtm Pkwy,,Rockmart,Georgia,30153,United States,(770) 684-2929,,,,,,
,,315 Deer Head Cove Rd,,Rising Fawn,Georgia,30738,United States,(706) 462-2604,,,,,,
,,802 Cartersville Hwy,,Rockmart,Georgia,30153,United States,(678) 757-0541,,,,,,
,,2224 Chattanooga Rd,,Rocky Face,Georgia,30740,United States,(706) 279-1300,,,,,,
,,601 Lafayette Rd,,Rocky Face,Georgia,30740,United States,(706) 673-3977,,,,,,
,,8040 N Highway 27,,Rock Spring,Georgia,30739,United States,(706) 375-8090,,,,,,
,,2918 Martha Berry Hwy NE,,Rome,Georgia,30165,United States,(706) 232-2749,,,,,,
,,1050 Cartersville Hwy SE,,Rome,Georgia,30161,United States,,,,,,,
,,4343 Highway 136,,Trenton,Georgia,30752,United States,(706) 657-7432,,,,,,
,,2900 E Tudor Rd,,Anchorage,Alaska,99507,United States,(907) 563-5463,,,,,,
,,24 Green St Ste B,,Warner Robins,Georgia,31093,United States,(478) 922-8500,,,,,,
,,5420 W 12th St,,Little Rock,Arkansas,72204,United States,(501) 664-3099,,,,,,
,,43118 US Highway 72,,Stevenson,Alabama,35772,United States,(256) 437-9579,,,,,,
,,109 N Illinois St,,Harrisburg,Arkansas,72432,United States,(870) 578-5224,,,,,,
,,545 E Dave Ward Dr,,Conway,Arkansas,72032,United States,(501) 329-3810,,,,,,
,,1415 N Main St,,Brinkley,Arkansas,72021,United States,(870) 734-3414,,,,,,
,,401 Memorial Dr,,Piedmont,Alabama,36272,United States,(256) 447-1436,,,,,,
,,14590 US Highway 411,,Odenville,Alabama,35120,United States,(205) 629-5121,,,,,,
,,7670 Vaughn Rd,,Montgomery,Alabama,36116,United States,(334) 244-2092,,,,,,
,,88810 Highway 9,,Lineville,Alabama,36266,United States,(256) 396-5283,,,,,,
,,45235 US Highway 78,,Lincoln,Alabama,35096,United States,(205) 763-9189,,,,,,
,,905 Memorial Pkwy NW,,Huntsville,Alabama,35801,United States,(256) 288-1015,,,,,,
,,8890 Highway 72 W,,Madison,Alabama,35758,United States,(256) 830-6756,,,,,,
,,Us Hwy 231 & Al Hwy 22,,Rockford,Alabama,35136,United States,(256) 377-4308,,,,,,
,,20146 US Highway 431,,Guntersville,Alabama,35976,United States,(256) 582-7933,,,,,,
,,5202 Greenhill Blvd NW,,Fort Payne,Alabama,35968,United States,(256) 845-0897,,,,,,
,,1401 Glenn Blvd SW,,Fort Payne,Alabama,35968,United States,(256) 845-3085,,,,,,
,,275 Snow Dr,,Birmingham,Alabama,35209,United States,(205) 917-1188,,,,,,
,,946 Hillabee St,,Alexander City,Alabama,35010,United States,(256) 234-3837,,,,,,
,,22065 AL Highway 21,,Alpine,Alabama,35014,United States,(256) 362-1010,,,,,,
,,15690 E Limestone Rd,,Athens,Alabama,35613,United States,(256) 233-4911,,,,,,
,,801 S Jefferson St,,Athens,Alabama,35611,United States,(256) 233-1770,,,,,,
,,2411 Darby Dr,,Florence,Alabama,35630,United States,(256) 246-2078,,,,,,
,,1115 Greenhill Blvd NW,,Fort Payne,Alabama,35967,United States,(256) 845-6347,,,,,,
,,1202 Wallace Ave NE,,Fort Payne,Alabama,35967,United States,(256) 845-6604,,,,,,
,,501 Gault Ave N,,Fort Payne,Alabama,35967,United States,(256) 845-5077,,,,,,
,,1006 Harvest Rd,,Harvest,Alabama,35749,United States,(256) 837-5587,,,,,,
,,1415 N Main St,,Brinkley,Arkansas,72021,United States,(870) 589-2226,,,,,,
,,700 N Railroad Ave,,Roswell,New Mexico,88201,United States,(575) 622-4764,,,,,,
,,2515 Goodman Rd W,,Horn Lake,Mississippi,38637,United States,(662) 393-2100,,,,,,
,,2218 Highway 72 E,,Corinth,Mississippi,38834,United States,(662) 287-8613,,,,,,
,,100 Main St,,Texarkana,Texas,75501,United States,(903) 831-1704,,,,,,
,,10007 James Madison Hwy,,Warrenton,Virginia,20187,United States,(540) 439-2245,,,,,,
,,6460 Boydton Plank Rd,,North Dinwiddie,Virginia,23803,United States,(804) 733-9592,,,,,,
,,10150 Hull Street Rd,,Midlothian,Virginia,23112,United States,(804) 276-0417,,,,,,
,,626 Warrenton Rd,,Fredericksburg,Virginia,22406,United States,(540) 899-3923,,,,,,
,,4707 County Dr,,Disputanta,Virginia,23842,United States,(804) 732-0139,,,,,,
,,13200 Kingston Ave,,Chester,Virginia,23836,United States,(804) 530-2106,,,,,,
,,801 England St,,Ashland,Virginia,23005,United States,(804) 798-9633,,,,,,
,,364 Old Gallatin Rd,,Scottsville,Kentucky,42164,United States,,,,,,,
,,14506 Robert L Madon Byp,,Pineville,Kentucky,40977,United States,(606) 337-7788,,,,,,
,,5285 New Highway 31 E,,Westmoreland,Tennessee,37186,United States,(615) 644-3137,,,,,,
,,101 Cedar Ln,,Tullahoma,Tennessee,37388,United States,(931) 455-6653,,,,,,
,,128 E Broad St,,Smithville,Tennessee,37166,United States,(615) 597-5266,,,,,,
,,3720 Taft Hwy,,Signal Mountain,Tennessee,37377,United States,(423) 886-5876,,,,,,
,,1206 Taft Hwy,,Signal Mountain,Tennessee,37377,United States,(423) 517-0304,,,,,,
,,1883 Almaville Rd,,Smyrna,Tennessee,37167,United States,(615) 355-1024,,,,,,
,,1218 Hazelwood Dr,,Smyrna,Tennessee,37167,United States,(615) 459-6204,,,,,,
,,14816 Dayton Pike,,Sale Creek,Tennessee,37373,United States,(423) 332-5485,,,,,,
,,404 S Broadway St,,Portland,Tennessee,37148,United States,(615) 325-3940,,,,,,
,,1425 Robinson Rd,,Old Hickory,Tennessee,37138,United States,(615) 847-8517,,,,,,
,,4337 Saundersville Rd,,Old Hickory,Tennessee,37138,United States,(615) 758-0330,,,,,,
,,1339 Highway 411,,Old Fort,Tennessee,37362,United States,(423) 338-0122,,,,,,
,,9101 Lee Hwy,,Ooltewah,Tennessee,37363,United States,(423) 238-9858,,,,,,
,,2732 York Rd,,Pleasant View,Tennessee,37146,United States,(615) 746-8325,,,,,,
,,925 Tennessee Ave S,,Parsons,Tennessee,38363,United States,(731) 847-4581,,,,,,
,,250 W Broadway,,Newport,Tennessee,37821,United States,(423) 623-5406,,,,,,
,,194 S Mount Juliet Rd,,Mount Juliet,Tennessee,37122,United States,(615) 758-5049,,,,,,
,,7790 US Highway 51 N,,Millington,Tennessee,38053,United States,(901) 872-7357,,,,,,
,,6379 Navy Rd,,Millington,Tennessee,38053,United States,(901) 872-4161,,,,,,
,,5550 Saundersville Rd,,Mount Juliet,Tennessee,37122,United States,(615) 758-8642,,,,,,
,,519 W Main St,,Monteagle,Tennessee,37356,United States,(931) 924-3980,,,,,,
,,85 N Mount Juliet Rd,,Mount Juliet,Tennessee,37122,United States,(615) 758-7232,,,,,,
,,11247 Lebanon Rd,,Mount Juliet,Tennessee,37122,United States,(615) 758-7091,,,,,,
,,1251 S Church St,,Murfreesboro,Tennessee,37130,United States,(615) 895-3767,,,,,,
,,1415 Memorial Blvd,,Murfreesboro,Tennessee,37129,United States,(615) 893-6154,,,,,,
,,2010 NW Broad St,,Murfreesboro,Tennessee,37129,United States,(615) 896-2291,,,,,,
,,1320 Memorial Blvd,,Murfreesboro,Tennessee,37129,United States,(615) 895-1127,,,,,,
,,2430 S Church St,,Murfreesboro,Tennessee,37127,United States,(615) 895-4110,,,,,,
,,2924 Old Fort Pkwy,,Murfreesboro,Tennessee,37128,United States,(615) 896-0359,,,,,,
,,7725 Highway 70 S,,Nashville,Tennessee,37221,United States,(615) 646-0237,,,,,,
,,7101 Highway 70 S,,Nashville,Tennessee,37221,United States,(615) 662-2233,,,,,,
,,7600 Highway 70 S,,Nashville,Tennessee,37221,United States,,,,,,,
,,4805 Trousdale Dr,,Nashville,Tennessee,37220,United States,(615) 833-4918,,,,,,
,,2101 Murfreesboro Pike,,Nashville,Tennessee,37217,United States,(615) 360-3582,,,,,,
,,1701 Murfreesboro Pike,,Nashville,Tennessee,37217,United States,(615) 367-2499,,,,,,
,,1090 Murfreesboro Pike,,Nashville,Tennessee,37217,United States,(615) 367-2828,,,,,,
,,4104 Hillsboro Pike,,Nashville,Tennessee,37215,United States,(615) 259-5487,,,,,,
,,4134 Gallatin Pike,,Nashville,Tennessee,37216,United States,(615) 228-2842,,,,,,
,,2406 Elm Hill Pike,,Nashville,Tennessee,37214,United States,(615) 889-3326,,,,,,
,,160 McGavock Pike Ste A,,Nashville,Tennessee,37214,United States,(615) 883-1455,,,,,,
,,585 Stewarts Ferry Pike,,Nashville,Tennessee,37214,United States,(615) 889-1556,,,,,,
,,710 Stewarts Ferry Pike,,Nashville,Tennessee,37214,United States,(615) 889-8548,,,,,,
,,465 Donelson Pike,,Nashville,Tennessee,37214,United States,(615) 883-7828,,,,,,
,,550 Donelson Pike,,Nashville,Tennessee,37214,United States,(615) 232-5118,,,,,,
,,3043 Nolensville Pike,,Nashville,Tennessee,37211,United States,(615) 781-3712,,,,,,
,,440 Harding Pl,,Nashville,Tennessee,37211,United States,(615) 333-6081,,,,,,
,,5040 Nolensville Pike,,Nashville,Tennessee,37211,United States,(615) 832-3432,,,,,,
,,311 Harding Pl,,Nashville,Tennessee,37211,United States,(615) 331-9281,,,,,,
,,5001 Linbar Dr,,Nashville,Tennessee,37211,United States,(615) 331-3637,,,,,,
,,4190 Nolensville Pike,,Nashville,Tennessee,37211,United States,(615) 834-4635,,,,,,
,,18 E Thompson Ln,,Nashville,Tennessee,37211,United States,(615) 833-1416,,,,,,
,,1500 Lebanon Pike,,Nashville,Tennessee,37210,United States,(615) 889-8762,,,,,,
,,553 Murfreesboro Pike,,Nashville,Tennessee,37210,United States,(615) 255-8036,,,,,,
,,4211 Charlotte Ave,,Nashville,Tennessee,37209,United States,(615) 298-5474,,,,,,
,,6624 Charlotte Pike,,Nashville,Tennessee,37209,United States,(615) 352-3439,,,,,,
,,481 Old Hickory Blvd,,Nashville,Tennessee,37209,United States,(615) 352-1551,,,,,,
,,629 Old Hickory Blvd,,Nashville,Tennessee,37209,United States,(615) 352-1233,,,,,,
,,626 Old Hickory Blvd,,Nashville,Tennessee,37209,United States,(615) 353-0805,,,,,,
,,611 51st Ave N,,Nashville,Tennessee,37209,United States,(615) 269-0449,,,,,,
,,6509 Charlotte Pike,,Nashville,Tennessee,37209,United States,(615) 352-0374,,,,,,
,,801 Jefferson St,,Nashville,Tennessee,37208,United States,(615) 242-4943,,,,,,
,,3053 Dickerson Pike,,Nashville,Tennessee,37207,United States,(615) 226-4154,,,,,,
,,2201 Whites Creek Pike,,Nashville,Tennessee,37207,United States,(615) 227-1383,,,,,,
,,2813 Dickerson Pike,,Nashville,Tennessee,37207,United States,(615) 262-1765,,,,,,
,,712 Main St,,Nashville,Tennessee,37206,United States,(615) 244-7858,,,,,,
,,4314 Harding Pike,,Nashville,Tennessee,37205,United States,(615) 385-5160,,,,,,
,,4401 Harding Pike,,Nashville,Tennessee,37205,United States,(615) 292-9954,,,,,,
,,4677 Trousdale Dr,,Nashville,Tennessee,37204,United States,(615) 781-2435,,,,,,
,,2616 Franklin Pike,,Nashville,Tennessee,37204,United States,(615) 297-2792,,,,,,
,,800 Jefferson St,,Nashville,Tennessee,37208,United States,(615) 244-0909,,,,,,
,,2103 21st Ave S,,Nashville,Tennessee,37212,United States,(615) 298-5875,,,,,,
,,1507 21st Ave S,,Nashville,Tennessee,37212,United States,(615) 329-2003,,,,,,
,,401 21st Ave S,,Nashville,Tennessee,37203,United States,(615) 232-4201,,,,,,
,,3410 West End Ave,,Nashville,Tennessee,37203,United States,(615) 783-0062,,,,,,
,,1909 8th Ave S,,Nashville,Tennessee,37203,United States,(615) 269-0495,,,,,,
,,15131 Old Hickory Blvd,,Nashville,Tennessee,37211,United States,(615) 833-3788,,,,,,
,,15109 Old Hickory Blvd,,Nashville,Tennessee,37211,United States,(615) 333-9134,,,,,,
,,924 Mill St,,Pulaski,Tennessee,38478,United States,(931) 363-6148,,,,,,
,,104 Sequoyah Rd,,Soddy-Daisy,Tennessee,37379,United States,(423) 332-6875,,,,,,
,,137 E Bockman Way,,Sparta,Tennessee,38583,United States,(931) 836-2526,,,,,,
,,315 E Lincoln St,,Tullahoma,Tennessee,37388,United States,(931) 455-7256,,,,,,
,,100 Highway 76,,White House,Tennessee,37188,United States,(615) 672-5170,,,,,,
,,2100 Sycamore View Rd,,Memphis,Tennessee,38134,United States,(901) 386-1210,,,,,,
,,234 Beersheba Hwy,,Mcminnville,Tennessee,37110,United States,(931) 473-4229,,,,,,
,,1302 Neelys Bend Rd,,Madison,Tennessee,37115,United States,(615) 865-2341,,,,,,
,,1201 Gallatin Pike S,,Madison,Tennessee,37115,United States,(615) 865-6063,,,,,,
,,1516 Gallatin Pike S,,Madison,Tennessee,37115,United States,(615) 860-7989,,,,,,
,,2590 E Broadway Ave,,Maryville,Tennessee,37804,United States,(865) 982-6044,,,,,,
,,588 Waldron Rd,,La Vergne,Tennessee,37086,United States,(615) 793-6680,,,,,,
,,111 Luyben Hills Rd,,Kingston Springs,Tennessee,37082,United States,(615) 952-3898,,,,,,
,,4409 Western Ave,,Knoxville,Tennessee,37921,United States,(865) 524-4359,,,,,,
,,5756 Old Hickory Blvd,,Hermitage,Tennessee,37076,United States,(615) 889-3200,,,,,,
,,3900 Lebanon Pike,,Hermitage,Tennessee,37076,United States,(615) 885-6123,,,,,,
,,4711 Andrew Jackson Pkwy,,Hermitage,Tennessee,37076,United States,(615) 889-3573,,,,,,
,,5400 Old Hickory Blvd,,Hermitage,Tennessee,37076,United States,(615) 883-0289,,,,,,
,,140 Rowland Dr,,Jasper,Tennessee,37347,United States,(423) 942-1499,,,,,,
,,301 Long Hollow Pike,,Goodlettsville,Tennessee,37072,United States,(615) 859-2198,,,,,,
,,985 Greensboro Dr,,Gallatin,Tennessee,37066,United States,(615) 451-1233,,,,,,
,,1781 Kirby Pkwy,,Germantown,Tennessee,38138,United States,(901) 756-0221,,,,,,
,,7002 City Center Way,,Fairview,Tennessee,37062,United States,(615) 799-6222,,,,,,
,,1501 Murfreesboro Rd,,Franklin,Tennessee,37067,United States,(615) 790-8663,,,,,,
,,406 S Water Ave,,Gallatin,Tennessee,37066,United States,(615) 451-1452,,,,,,
,,I-65 & Tn-96,,Franklin,Tennessee,37067,United States,(615) 794-5382,,,,,,
,,1501 New Highway 96 W,,Franklin,Tennessee,37064,United States,(615) 599-3014,,,,,,
,,501 Liberty Pike,,Franklin,Tennessee,37064,United States,(615) 599-3710,,,,,,
,,2408 Goose Creek Byp,,Franklin,Tennessee,37064,United States,(615) 261-0518,,,,,,
,,240 Franklin Rd,,Franklin,Tennessee,37064,United States,(615) 791-0368,,,,,,
,,883 Hartsville Pike,,Gallatin,Tennessee,37066,United States,(615) 451-6795,,,,,,
,,6120 Highway 58,,Harrison,Tennessee,37341,United States,(423) 344-1858,,,,,,
,,1301 S Dickerson Rd,,Goodlettsville,Tennessee,37072,United States,(615) 859-6247,,,,,,
,,770 E Main St,,Hendersonville,Tennessee,37075,United States,(615) 824-4896,,,,,,
,,1187 W Main St,,Hendersonville,Tennessee,37075,United States,(615) 822-6008,,,,,,
,,5500 Highway 153,,Hixson,Tennessee,37343,United States,(423) 870-8667,,,,,,
,,1933 Hamill Rd,,Hixson,Tennessee,37343,United States,(423) 870-2279,,,,,,
,,4323 Chapman Hwy,,Knoxville,Tennessee,37920,United States,(865) 577-3397,,,,,,
,,7001 Kingston Pike,,Knoxville,Tennessee,37919,United States,(865) 584-5232,,,,,,
,,7901 Kingston Pike,,Knoxville,Tennessee,37919,United States,(865) 690-8005,,,,,,
,,7301 Middlebrook Pike,,Knoxville,Tennessee,37909,United States,(865) 670-0021,,,,,,
,,4607 Kingston Pike,,Knoxville,Tennessee,37919,United States,(865) 588-1903,,,,,,
,,5300 Central Avenue Pike,,Knoxville,Tennessee,37912,United States,(865) 687-5159,,,,,,
,,240 Highway 109 N,,Lebanon,Tennessee,37090,United States,(615) 443-2322,,,,,,
,,803 S Cumberland St,,Lebanon,Tennessee,37087,United States,(615) 444-5733,,,,,,
,,1000 Red Boiling Springs Rd,,Lafayette,Tennessee,37083,United States,(615) 666-5708,,,,,,
,,6215 Macon Rd,,Memphis,Tennessee,38134,United States,(901) 385-5403,,,,,,
,,667 Leeville Pike,,Lebanon,Tennessee,37087,United States,(615) 443-4641,,,,,,
,,2214 Whitten Rd,,Memphis,Tennessee,38133,United States,(901) 372-3374,,,,,,
,,4311 New Allen Rd,,Memphis,Tennessee,38128,United States,(901) 358-6601,,,,,,
,,4000 Raleigh Millington Rd,,Memphis,Tennessee,38128,United States,(901) 372-6537,,,,,,
,,2120 Frayser Blvd,,Memphis,Tennessee,38127,United States,(901) 358-7685,,,,,,
,,272 S Danny Thomas Blvd,,Memphis,Tennessee,38126,United States,(901) 526-6191,,,,,,
,,459 E Eh Crump Blvd,,Memphis,Tennessee,38126,United States,(901) 947-4320,,,,,,
,,5325 Summer Ave,,Memphis,Tennessee,38122,United States,(901) 761-4799,,,,,,
,,3051 Republican Dr,,Memphis,Tennessee,38118,United States,(901) 794-8886,,,,,,
,,4210 Louis Carruthers Dr,,Memphis,Tennessee,38118,United States,(901) 346-5896,,,,,,
,,3271 E Shelby Dr,,Memphis,Tennessee,38118,United States,(901) 794-5040,,,,,,
,,2185 Winchester Rd,,Memphis,Tennessee,38116,United States,(901) 332-4077,,,,,,
,,979 E Brooks Rd,,Memphis,Tennessee,38116,United States,(901) 332-2401,,,,,,
,,1505 E Brooks Rd,,Memphis,Tennessee,38116,United States,(901) 398-2184,,,,,,
,,3175 Lenox Park Blvd Ste 111,,Memphis,Tennessee,38115,United States,(901) 565-7301,,,,,,
,,2799 S Mendenhall Rd,,Memphis,Tennessee,38115,United States,(901) 365-0119,,,,,,
,,2767 Mount Moriah Rd,,Memphis,Tennessee,38115,United States,(901) 795-9809,,,,,,
,,6566 Winchester Rd,,Memphis,Tennessee,38115,United States,(901) 360-1809,,,,,,
,,3210 Hickory Hill Rd,,Memphis,Tennessee,38115,United States,(901) 363-3428,,,,,,
,,6193 Mount Moriah Road Ext,,Memphis,Tennessee,38115,United States,(901) 368-0344,,,,,,
,,3278 Summer Ave,,Memphis,Tennessee,38112,United States,(901) 327-7151,,,,,,
,,5263 S 3rd St,,Memphis,Tennessee,38109,United States,(901) 785-3072,,,,,,
,,3703 Jackson Ave,,Memphis,Tennessee,38108,United States,(901) 372-3909,,,,,,
,,645 Chelsea Ave,,Memphis,Tennessee,38107,United States,(901) 526-7928,,,,,,
,,3161 S 3rd St,,Memphis,Tennessee,38109,United States,(901) 332-7760,,,,,,
,,1723 Jackson Ave,,Memphis,Tennessee,38107,United States,(901) 725-4467,,,,,,
,,2454 Elvis Presley Blvd,,Memphis,Tennessee,38106,United States,(901) 947-4609,,,,,,
,,2142 Central Ave,,Memphis,Tennessee,38104,United States,(901) 274-6928,,,,,,
,,3017 N Wilson Rd,,Hutchinson,Kansas,67502,United States,(620) 662-7712,,,,,,
,,8767 E Old Cedar Grove Rd,,Cross Plains,Tennessee,37049,United States,(615) 654-8500,,,,,,
,,10 N Willow Ave,,Cookeville,Tennessee,38501,United States,(931) 526-2483,,,,,,
,,8631 Highway 25 E,,Cross Plains,Tennessee,37049,United States,(615) 654-2599,,,,,,
,,1775 Madison St,,Clarksville,Tennessee,37043,United States,(931) 553-0822,,,,,,
,,8126 E Brainerd Rd,,Chattanooga,Tennessee,37421,United States,(423) 485-9511,,,,,,
,,999 Hoover Rd,,Burns,Tennessee,37029,United States,(615) 446-1706,,,,,,
,,213 N Main St,,Ashland City,Tennessee,37015,United States,(615) 792-4515,,,,,,
,,7102 Commerce Way,,Brentwood,Tennessee,37027,United States,(615) 771-6701,,,,,,
,,8009 Moores Ln,,Brentwood,Tennessee,37027,United States,(615) 370-3304,,,,,,
,,158 Franklin Rd,,Brentwood,Tennessee,37027,United States,(615) 377-1914,,,,,,
,,1101 Bell Rd,,Antioch,Tennessee,37013,United States,(615) 731-1183,,,,,,
,,1226 Lula Lake Rd,,Lookout Mountain,Georgia,30750,United States,(706) 820-1142,,,,,,
,,765 Bell Rd,,Antioch,Tennessee,37013,United States,(615) 731-2041,,,,,,
,,3405 Highway 411 N,,Chatsworth,Georgia,30705,United States,(706) 695-7882,,,,,,
,,118 N Tennessee St,,Cartersville,Georgia,30120,United States,(770) 382-5807,,,,,,
,,1410 Buchanan Hwy,,Cedartown,Georgia,30125,United States,(770) 748-1401,,,,,,
,,1010 N 3rd Ave,,Chatsworth,Georgia,30705,United States,(706) 422-8391,,,,,,
,,1029 Highway 411 S,,Chatsworth,Georgia,30705,United States,(706) 695-0765,,,,,,
,,973 Rome Rd SW,,Calhoun,Georgia,30701,United States,(706) 602-0555,,,,,,
,,1217 N 3rd Ave,,Chatsworth,Georgia,30705,United States,(706) 695-9893,,,,,,
,,6434 Joe Frank Harris Pkwy NW,,Adairsville,Georgia,30103,United States,(770) 769-9443,,,,,,
,,1420 Kellogg Creek Rd,,Acworth,Georgia,30102,United States,(770) 928-7208,,,,,,
,,1194 Highway 76,,Chatsworth,Georgia,30705,United States,(706) 517-1685,,,,,,
,,630 S 3rd Ave,,Chatsworth,Georgia,30705,United States,(706) 517-0474,,,,,,
,,1210 Dawnville Rd NE,,Dalton,Georgia,30721,United States,(706) 259-7914,,,,,,
,,200 Carbondale Rd SW,,Dalton,Georgia,30721,United States,(706) 277-9854,,,,,,
,,2900 Airport Rd,,Dalton,Georgia,30721,United States,(706) 226-8760,,,,,,
,,2112 Cleveland Hwy,,Dalton,Georgia,30721,United States,(706) 259-9565,,,,,,
,,324 N Glenwood Ave,,Dalton,Georgia,30721,United States,(706) 278-8966,,,,,,
,,1950 Chattanooga Rd,,Dalton,Georgia,30720,United States,(706) 278-0226,,,,,,
,,1406 Cleveland Hwy,,Dalton,Georgia,30721,United States,(706) 259-6237,,,,,,
,,1822 Dug Gap Rd,,Dalton,Georgia,30720,United States,(706) 275-6380,,,,,,
,,26 Tusculum Rd,,Antioch,Tennessee,37013,United States,(615) 331-6476,,,,,,
,,133 N Central Ave,,Centerville,Tennessee,37033,United States,(931) 729-3214,,,,,,
,,8107 Standifer Gap Rd,,Chattanooga,Tennessee,37421,United States,(423) 892-6502,,,,,,
,,7701 Lee Hwy,,Chattanooga,Tennessee,37421,United States,(423) 899-6339,,,,,,
,,6200 Lee Hwy,,Chattanooga,Tennessee,37421,United States,(423) 510-1439,,,,,,
,,200 Browns Ferry Rd,,Chattanooga,Tennessee,37419,United States,(423) 825-5058,,,,,,
,,201 Browns Ferry Rd,,Chattanooga,Tennessee,37419,United States,(423) 825-5515,,,,,,
,,3709 Cummings Hwy,,Chattanooga,Tennessee,37419,United States,(423) 821-7437,,,,,,
,,8604 N Hickory Valley Rd,,Chattanooga,Tennessee,37416,United States,(423) 326-0926,,,,,,
,,4600 Highway 58,,Chattanooga,Tennessee,37416,United States,(423) 894-7569,,,,,,
,,4500 Dayton Blvd,,Chattanooga,Tennessee,37415,United States,(423) 870-5338,,,,,,
,,314 Morrison Springs Rd,,Chattanooga,Tennessee,37415,United States,(423) 877-4750,,,,,,
,,6514 Ringgold Rd,,Chattanooga,Tennessee,37412,United States,(423) 893-5210,,,,,,
,,3956 Brainerd Rd,,Chattanooga,Tennessee,37411,United States,(423) 698-7201,,,,,,
,,4711 Brainerd Rd,,Chattanooga,Tennessee,37411,United States,(423) 698-6306,,,,,,
,,2130 Amnicola Hwy,,Chattanooga,Tennessee,37406,United States,(423) 624-5306,,,,,,
,,3410 Brainerd Rd,,Chattanooga,Tennessee,37411,United States,(423) 622-8072,,,,,,
,,1265 E 3rd St,,Chattanooga,Tennessee,37404,United States,(423) 622-8414,,,,,,
,,1227 E Main St,,Chattanooga,Tennessee,37408,United States,(423) 756-5160,,,,,,
,,2727 Rossville Blvd,,Chattanooga,Tennessee,37404,United States,(423) 629-4993,,,,,,
,,2491 Fort Campbell Blvd,,Clarksville,Tennessee,37042,United States,(931) 431-6270,,,,,,
,,1900 Candies Ln NW,,Cleveland,Tennessee,37312,United States,(423) 476-9459,,,,,,
,,795 W Poplar Ave,,Collierville,Tennessee,38017,United States,(901) 853-9793,,,,,,
