store_name,store_number,address,address2,city,state,zip_code,country,phone_number,latitude,longitude,store_hours,store_type,other_fields,coming_soon
Big Y Supermarket,IRI_00649341,503 Memorial Ave Ste 1,,West Springfield,MA,1089,United States,(413) 504-6003,42.096062,-72.606032,,,,
Stop & Shop,IRI_00647516,1282 Springfield St,,Feeding Hills,MA,1030,United States,(413) 789-2224,42.067799,-72.672871,,,,
Big Y Supermarket,IRI_00284124,802 Williams St,,Longmeadow,MA,1106,United States,(413) 504-6013,42.055625,-72.555092,,,,
Stop & Shop,IRI_00286851,935 Riverdale Rd Rt 5,,West Springfield,MA,1089,United States,(413) 737-8770,42.1294666,-72.6261646,,,,
Walmart Supercenter,IRI_00649027,141 Springfield Rd,,Westfield,MA,1085,United States,(413) 572-0400,42.1063769,-72.6969941,,,,
Stop & Shop,IRI_00651383,470 N Main St,,East Longmeadow,MA,1028,United States,(413) 525-5747,42.078822,-72.529337,,,,
Big Y Supermarket,IRI_00272152,441 N Main St,,East Longmeadow,MA,1028,United States,(413) 504-6014,42.07867,-72.527866,,,,
Stop & Shop,IRI_00235972,1277 Liberty St,,Springfield,MA,1104,United States,(413) 732-6150,42.13712,-72.583439,,,,
Big Y Supermarket,IRI_00229732,1090 St James Ave,,Springfield,MA,1104,United States,(413) 504-6001,42.137863,-72.570363,,,,
Big Y Supermarket,IRI_00271790,475 E Main St,,Westfield,MA,1085,United States,(413) 504-6068,42.112488,-72.720185,,,,
Shoprite,IRI_00268307,40 Hazard Ave,,Enfield,CT,6082,United States,(860) 745-1621,41.98972,-72.579998,,,,
Stop & Shop,IRI_00277877,54 Hazard Ave Rt 190,,Enfield,CT,6082,United States,(860) 741-2200,41.9894229,-72.5757664,,,,
Big Y Supermarket,IRI_00244660,175 University Dr,,Amherst,MA,1002,United States,(413) 504-6046,42.375101,-72.532561,,,,
Stop & Shop,IRI_00272014,440 Russell St Rt 9,,Hadley,MA,1035,United States,(413) 253-3227,42.35515,-72.56975,,,,
Big Y Supermarket,IRI_00213944,136 N King St Rte 5,,Northampton,MA,1060,United States,(413) 504-6007,42.3242173,-72.6329804,,,,
Stop & Shop,IRI_00647908,228 King St Rts 5 10,,Northampton,MA,1060,United States,(413) 584-9200,42.3284048,-72.6337552,,,,
Stop & Shop,IRI_01079546,40 George Hannum St,,Belchertown,MA,1007,United States,(413) 323-6546,42.2904424,-72.4101515,,,,
Big Y Supermarket,IRI_00668889,44 Willimansett St,,South Hadley,MA,1075,United States,(413) 504-6050,42.221887,-72.572348,,,,
Big Y Supermarket,IRI_00225449,10 College Hwy Rte 10,,Southampton,MA,1073,United States,(413) 504-6011,42.2528369,-72.6981854,,,,
Big Y Supermarket,IRI_00254407,237 Mohawk Trail Rte 2,,Greenfield,MA,1301,United States,(413) 504-6063,42.586462,-72.627107,,,,
Stop & Shop,IRI_00258333,28 Lincoln St,,Holyoke,MA,1040,United States,(413) 536-1247,42.2150236,-72.6172108,,,,
Stop & Shop,IRI_00205881,89 French King Hwy Rt 2a,,Greenfield,MA,1301,United States,(413) 774-6096,42.6069291,-72.574978,,,,
Stop & Shop,IRI_00648765,672 Memorial Dr Rt 33,,Chicopee,MA,1020,United States,(413) 593-1111,42.176381,-72.5768072,,,,
Big Y Supermarket,IRI_00534239,650 Memorial Dr,,Chicopee,MA,1020,United States,(413) 504-6052,42.175657,-72.576593,,,,
Walmart Supercenter,IRI_00653593,352 Palmer Rd,,Ware,MA,1082,United States,(413) 967-0040,42.2431109,-72.2731193,,,,
Big Y Supermarket,IRI_00238522,148 W St,,Ware,MA,1082,United States,(413) 504-6021,42.2554272,-72.2519716,,,,
Big Y Supermarket,IRI_00271136,433 Center St Ste 3,,Ludlow,MA,1056,United States,(413) 504-6019,42.1684848,-72.481263,,,,
Walmart Supercenter,IRI_01188887,591 Memorial Dr,,Chicopee,MA,1020,United States,(413) 593-3192,42.1739856,-72.5761365,,,,
Walmart Supercenter,IRI_00649022,677 Timpany Blvd,,Gardner,MA,1440,United States,(978) 630-3244,42.5520119,-71.9925084,,,,
Hannaford,IRI_00532889,21 Timpany Blvd,,Gardner,MA,1440,United States,(978) 632-6139,42.57014,-71.993241,,,,
Price Chopper,IRI_08074306,560 Main St,,Gardner,MA,1440,United States,(978) 730-1040,42.568255,-71.98473,,,,
Hannaford,IRI_00274685,5 Gilbert St,,North Brookfield,MA,1535,United States,(508) 867-6809,42.2665,-72.08455,,,,
Hannaford,IRI_00240464,150 New Athol Rd,,Athol,MA,1331,United States,(978) 249-7955,42.5832,-72.2627,,,,
Big Y Supermarket,IRI_00217595,160 Reservoir St Rte 31,,Holden,MA,1520,United States,(413) 504-6029,42.3550813,-71.8552269,,,,
Price Chopper,IRI_00237419,133 Main St,,Spencer,MA,1562,United States,(508) 885-3199,42.243949,-71.993493,,,,
Big Y Supermarket,IRI_00654046,62 W Main St,,Spencer,MA,1562,United States,(413) 504-6027,42.234617,-72.012017,,,,
Walmart Supercenter,IRI_01188682,20 Soojian Dr,,Leicester,MA,1524,United States,(508) 892-9461,42.24719,-71.91868,,,,
Price Chopper,IRI_01108269,72 Pullman St,,Worcester,MA,1606,United States,(508) 854-8474,42.323481,-71.798173,,,,
Big Y Supermarket,IRI_01187746,2035 Boston Rd,,Wilbraham,MA,1095,United States,(413) 504-6086,42.149238,-72.475443,,,,
Stop & Shop,IRI_06002836,1600 Boston Rd,,Springfield,MA,1129,United States,(413) 543-1041,42.142654,-72.490035,,,,
Walmart Supercenter,IRI_00643847,1105 Boston Rd,,Springfield,MA,1119,United States,(413) 782-6699,42.1386242,-72.5083278,,,,
Stop & Shop,IRI_00810351,57 Main St,,Westfield,MA,1085,United States,(413) 562-2300,42.120576,-72.746663,,,,
Big Y Supermarket,IRI_00225629,1 E Silver St,,Westfield,MA,1085,United States,(413) 504-6010,42.11402,-72.747341,,,,
Big Y Supermarket,IRI_00247159,195 College Hwy,,Southwick,MA,1077,United States,(413) 504-6008,42.02367,-72.787255,,,,
Stop & Shop,IRI_00931046,2265 Northampton St,,Holyoke,MA,1040,United States,(413) 536-9287,42.182213,-72.631365,,,,
Stop & Shop,IRI_00933638,120 Salmon Brook Dr,,Granby,CT,6035,United States,(860) 844-8331,41.9348376,-72.7901339,,,,
Fresh Acres,IRI_00247097,1941 Wilbraham Rd,,Springfield,MA,1129,United States,(413) 504-6016,42.114502,-72.496761,,,,
Big Y Supermarket,IRI_00655405,300 Cooley St,,Springfield,MA,1128,United States,(413) 504-6066,42.095467,-72.498351,,,,
Stop & Shop,IRI_01186699,415 Cooley St,,Springfield,MA,1128,United States,(413) 426-9504,42.092514,-72.499456,,,,
Shaws,IRI_00220369,178 Main St,,Sturbridge,MA,1566,United States,(508) 347-3003,42.093371,-72.068333,,,,
Walmart,IRI_00689318,100 Charlton Rd,,Sturbridge,MA,1566,United States,(508) 347-4993,42.1255847,-72.0557012,,,,
Stop & Shop,IRI_00688241,100 Charlton Rd,,Sturbridge,MA,1566,United States,(508) 347-9500,42.1255847,-72.0557012,,,,
Big Y Supermarket,IRI_00656126,505 E Main St,,Southbridge,MA,1550,United States,(413) 504-6024,42.070786,-72.013024,,,,
Big Y Supermarket,IRI_00219444,87 W Stafford Rd Rte 190,,Stafford Springs,CT,6076,United States,(413) 504-6017,41.9691659,-72.3311478,,,,
Market 32,IRI_00652159,555 Hubbard Ave,,Pittsfield,MA,1201,United States,(413) 442-7696,42.4683139,-73.1962847,,,,
Big Y Supermarket,IRI_01028454,10 Pleasant St,,Lee,MA,1238,United States,(413) 504-6037,42.2961489,-73.2388553,,,,
Price Chopper,IRI_00234140,495 Pittsfield Rd,,Lenox,MA,1240,United States,(413) 443-5449,42.4046471,-73.2654174,,,,
Stop & Shop,IRI_00213290,660 Merrill Rd,,Pittsfield,MA,1201,United States,(413) 499-0745,42.4659423,-73.2045529,,,,
Stop & Shop,IRI_00648764,Dan Fox Dr Rt 7,,Pittsfield,MA,1201,United States,(413) 442-7600,42.45941,-73.2896,,,,
Target,IRI_01124491,655 Cheshire Rd,,Lanesboro,MA,1237,United States,(413) 236-4210,42.52732,-73.202989,,,,
Big Y Supermarket,IRI_00213592,1 Myrtle St,,Adams,MA,1220,United States,(413) 504-6025,42.620119,-73.119942,,,,
Big Y Supermarket,IRI_00248128,200 W St Ste 4,,Pittsfield,MA,1201,United States,(413) 504-6023,42.4478671,-73.26001,,,,
Price Chopper,IRI_00273915,300 Stockbridge Rd,,Great Barrington,MA,1230,United States,(413) 528-8415,42.209505,-73.345901,,,,
Big Y Supermarket,IRI_00286988,740 Main St Ste 2,,Great Barrington,MA,1230,United States,(413) 504-6022,42.180563,-73.364365,,,,
Stop & Shop,IRI_00248012,200 New Hartford Rd,,Winsted,CT,6098,United States,(860) 379-9995,41.912119,-73.051566,,,,
Stop & Shop,IRI_01129155,11 East Main St,,North Canaan,CT,6018,United States,(860) 824-7016,42.023923,-73.322452,,,,
Walmart Supercenter,IRI_08079013,1415 Curran Memorial Hwy,,North Adams,MA,1247,United States,(413) 664-4004,42.6697426,-73.1078211,,,,
Shaws,IRI_00284152,68 Stafford St,,Worcester,MA,1603,United States,(508) 754-0876,42.24107,-71.841357,,,,
Big Y Supermarket,IRI_00686689,100 Mayfield St,,Worcester,MA,1602,United States,(413) 504-6043,42.258999,-71.82443,,,,
Shaws,IRI_00200488,14 W Boylston St,,Worcester,MA,1605,United States,(508) 852-7670,42.288932,-71.807157,,,,
Price Chopper,IRI_00252372,221 Park Ave # 223,,Worcester,MA,1609,United States,(508) 798-5178,42.271073,-71.815607,,,,
Price Chopper,IRI_01083568,50 Cambridge St,,Worcester,MA,1603,United States,(508) 363-4870,42.244114,-71.829347,,,,
Big Y Supermarket,IRI_00272579,45 Veterans Memorial Dr,,North Adams,MA,1247,United States,(413) 504-6026,42.700216,-73.111701,,,,
Stop & Shop,IRI_00534944,876 State Rd Rt 2,,North Adams,MA,1247,United States,(413) 664-8100,42.6897535,-73.0826015,,,,
Big Y Supermarket,IRI_00681067,65 Palomba Dr,,Enfield,CT,6082,United States,(413) 504-6048,41.991183,-72.571697,,,,
Hannaford,IRI_01129092,2967 Rte 9 Ste 400,,Valatie,NY,12184,United States,(518) 758-8800,42.42763,-73.68831,,,,
Walmart Supercenter,IRI_00653036,210 Northside Dr,,Bennington,VT,5201,United States,(802) 447-1614,42.8984996,-73.2088402,,,,
Price Chopper,IRI_00214636,214 Northside Dr,,Bennington,VT,5201,United States,(802) 447-9940,42.898604,-73.208835,,,,
Big Y Supermarket,IRI_01187161,504 Winsted Rd,,Torrington,CT,6790,United States,(413) 504-6059,41.826816,-73.111598,,,,
Stop & Shop,IRI_00250631,211 High St,,Torrington,CT,6790,United States,(860) 482-4460,41.80043,-73.128867,,,,
Market 32,IRI_00661416,990 Torringford St,,Torrington,CT,6790,United States,(860) 496-5051,41.819538,-73.081273,,,,
Stop & Shop,IRI_08053457,931 Torringford St,,Torrington,CT,6790,United States,(860) 482-5125,41.81847,-73.081707,,,,
Stop & Shop,IRI_00224277,331 W St,,Litchfield,CT,6759,United States,(860) 567-0075,41.7451345,-73.2046271,,,,
Price Chopper,IRI_08088480,2614 Rte 66,,Ghent,NY,12075,United States,(518) 392-9007,42.29803,-73.63385,,,,
Hannaford,IRI_08068483,32 State Rte 82,,Hudson,NY,12534,United States,(518) 851-2098,42.175282,-73.758731,,,,
Shoprite,IRI_00220702,70 Healy Blvd,,Hudson,NY,12534,United States,(518) 828-0192,42.2526798,-73.7590905,,,,
Price Chopper,IRI_00648100,351 Fairview Ave,,Hudson,NY,12534,United States,(518) 822-0017,42.271465,-73.760588,,,,
Hannaford,IRI_01182776,Rte 43 & 150,,West Sand Lake,NY,12196,United States,(518) 674-2846,42.64341,-73.60844,,,,
Shaws,IRI_00212648,97 E Main St,,Wilmington,VT,5363,United States,(802) 464-2161,42.865519,-72.863117,,,,
Hannaford,IRI_00647824,141 Hannaford Sq Ste 2,,Bennington,VT,5201,United States,(802) 442-1521,42.906938,-73.222379,,,,
Walmart Supercenter,IRI_00648989,460 Fairview Ave,,Hudson,NY,12534,United States,(518) 822-0160,42.283057,-73.75573,,,,
Price Chopper,IRI_00681792,320 W Bridge St,,Catskill,NY,12414,United States,(518) 943-3239,42.214272,-73.885459,,,,
Hannaford,IRI_01085050,35 Hannaford Dr,,Red Hook,NY,12571,United States,(845) 758-9330,41.979802,-73.880856,,,,
Walmart Supercenter,IRI_00643838,724 Brattleboro Rd,,Hinsdale,NH,3451,United States,(603) 336-5538,42.8077128,-72.5306863,,,,
Price Chopper,IRI_00254904,499 Canal St Unit#2,,Brattleboro,VT,5301,United States,(802) 254-3424,42.838597,-72.565338,,,,
Hannaford,IRI_00659179,896 Putney Rd Unit 5,,Brattleboro,VT,5301,United States,(802) 254-1160,42.878933,-72.559648,,,,
Price Chopper,IRI_01120248,16 Ash Brook Rd,,Keene,NH,3431,United States,(603) 352-0957,42.924713,-72.306086,,,,
Hannaford,IRI_00224280,481 West St,,Keene,NH,3431,United States,(603) 357-2832,42.93374,-72.296388,,,,
Hannaford,IRI_00673567,752 Rte 202,,Rindge,NH,3461,United States,(603) 899-2110,42.75109,-72.03012,,,,
K Mart,IRI_06001349,140 Whalon St,,Fitchburg,MA,1420,United States,(978) 345-7362,42.55373,-71.784325,,,,
Shaws,IRI_01194550,135 Dublin Rd,,Peterborough,NH,3458,United States,(603) 924-9192,42.8774,-71.9769,,,,
Hannaford,IRI_01109691,927 Merriam Ave,,Leominster,MA,1453,United States,(978) 534-9323,42.552446,-71.783139,,,,
Shaws,IRI_00259016,25 Water Tower Plz,,Leominster,MA,1453,United States,(508) 537-8908,42.543874,-71.758522,,,,
Hannaford,IRI_00649196,333 Mass Ave,,Lunenburg,MA,1462,United States,(978) 582-0215,42.58955,-71.7206,,,,
Hannaford,IRI_00232970,118 Lancaster St,,Leominster,MA,1453,United States,(978) 537-1327,42.520628,-71.754554,,,,
Walmart Supercenter,IRI_01188819,11 Jungle Rd,,Leominster,MA,1453,United States,(978) 466-1313,42.4918721,-71.7276716,,,,
Hannaford,IRI_00246285,18 M St Harbor Village,,Townsend,MA,1469,United States,(978) 597-5909,42.6616,-71.69769,,,,
Shaws,IRI_00232903,1175 Main St,,Clinton,MA,1510,United States,(978) 368-0306,42.435305,-71.685532,,,,
Hannaford,IRI_00203648,333 Brook St,,Clinton,MA,1510,United States,(978) 368-7909,42.423492,-71.688333,,,,
Shaws,IRI_00281702,586 Nashua St,,Milford,NH,3055,United States,(603) 672-3336,42.823643,-71.624832,,,,
Shaws,IRI_01118091,760 A Boston Road,,Groton,MA,1450,United States,(978) 448-0419,42.579833,-71.522023,,,,
Shaws,IRI_00673317,155 Great Rd,,Stow,MA,1775,United States,(978) 897-5140,42.433791,-71.487607,,,,
Stop & Shop,IRI_00220100,100 Powder Mill Rd,,Acton,MA,1720,United States,(978) 897-6449,42.441342,-71.428652,,,,
Stop & Shop,IRI_00222752,10 Technology Dr,,Hudson,MA,1749,United States,(978) 562-4111,42.376327,-71.564252,,,,
Walmart Supercenter,IRI_00643848,280 Washington St,,Hudson,MA,1749,United States,(978) 568-3383,42.3720657,-71.5618914,,,,
Price Chopper,IRI_00675483,240 E Main St,,Marlborough,MA,1752,United States,(508) 480-0109,42.351229,-71.535152,,,,
Shaws,IRI_00222124,213 Daniel Webster Hwy,,Nashua,NH,3060,United States,(603) 891-1649,42.714194,-71.442807,,,,
Walmart,IRI_00688633,66 Parkhurst Rd,,Chelmsford,MA,1824,United States,(978) 459-1818,42.6227661,-71.3601297,,,,
Hannaford,IRI_00205066,66-2 Drum Hill Shopping Ctr,,Chelmsford,MA,1824,United States,(978) 459-9304,42.59029,-71.35635,,,,
Hannaford,IRI_00654485,175 Coliseum Ave,,Nashua,NH,3063,United States,(603) 889-3700,42.758891,-71.499638,,,,
Shaws,IRI_00260067,300 Main St,,Nashua,NH,3060,United States,(603) 579-6966,42.753116,-71.46171,,,,
Stop & Shop,IRI_08065062,299 Chelmsford St,,Chelmsford,MA,1824,United States,(978) 250-4102,42.612468,-71.330965,,,,
Stop & Shop,IRI_00642126,337 Great Rd,,Bedford,MA,1730,United States,(781) 271-9400,42.48594,-71.261347,,,,
Hannaford,IRI_01129091,777 Rogers St,,Lowell,MA,1852,United States,(978) 446-7862,42.629813,-71.277581,,,,
Hannaford,IRI_00670799,301 Pleasant St,,Dracut,MA,1826,United States,(978) 459-0059,42.665015,-71.312968,,,,
Walmart Supercenter,IRI_06006570,85 State Rte 101a,,Amherst,NH,3031,United States,(603) 672-3421,42.8093,-71.5737,,,,
Hannaford,IRI_00219249,77 Derry Rd,,Hudson,NH,3051,United States,(603) 883-6112,42.7829318,-71.4502465,,,,
Stop & Shop,IRI_00668871,940 W Boylston St,,Worcester,MA,1606,United States,(508) 852-0505,42.3270935,-71.791786,,,,
Shaws,IRI_00266545,368 Southbridge St,,Auburn,MA,1501,United States,(508) 832-0440,42.204846,-71.835761,,,,
Price Chopper,IRI_00668828,564 Sw Cutoff,,Worcester,MA,1607,United States,(508) 752-3737,42.212242,-71.797378,,,,
Walmart Supercenter,IRI_08055751,25 Tobias Boland Way,,Worcester,MA,1607,United States,(774) 314-3157,42.22662,-71.78902,,,,
Walmart Supercenter,IRI_00643878,742 Main St,,North Oxford,MA,1537,United States,(508) 987-1444,42.1711226,-71.8807074,,,,
Price Chopper,IRI_00259078,29 Sunderland Rd,,Worcester,MA,1604,United States,(508) 752-7061,42.246746,-71.772333,,,,
Stop & Shop,IRI_00659623,949 Grafton St Rt 122,,Worcester,MA,1604,United States,(508) 791-8855,42.2459855,-71.7594471,,,,
Hannaford,IRI_00661845,193 Boston Post Rd W 20,,Marlborough,MA,1752,United States,(508) 480-9670,42.338996,-71.589977,,,,
Walmart Supercenter,IRI_00653594,200 Otis St,,Northborough,MA,1532,United States,(508) 393-4385,42.2860736,-71.6553783,,,,
Stop & Shop,IRI_00220705,290 Tpke Rd Rt 9,,Westborough,MA,1581,United States,(508) 366-9215,42.26796,-71.61518,,,,
Stop & Shop,IRI_00931045,32 Lyman St,,Westborough,MA,1581,United States,(508) 366-3961,42.282789,-71.607201,,,,
Price Chopper,IRI_08057433,731 Boston Tpke,,Shrewsbury,MA,1545,United States,(508) 791-7142,42.277366,-71.697568,,,,
Stop & Shop,IRI_00534243,539-571 Boston Tpke,,Shrewsbury,MA,1545,United States,(508) 842-1911,42.28423,-71.71546,,,,
Stop & Shop,IRI_01079544,541a Lincoln St,,Worcester,MA,1605,United States,(508) 853-8791,42.2953057,-71.7718027,,,,
Shaws,IRI_00683971,50 Boston Turnpike Rd,,Shrewsbury,MA,1545,United States,(508) 797-1126,42.274349,-71.752776,,,,
Stop & Shop,IRI_01109682,70 Pulaski Blvd,,Bellingham,MA,2019,United States,(508) 883-2179,42.018116,-71.49712,,,,
Stop & Shop,IRI_00532824,595 Smithfield Rd,,North Smithfield,RI,2896,United States,(401) 769-0112,41.983441,-71.517577,,,,
Walmart Supercenter,IRI_08065554,7 Dowling Village Blvd,,North Smithfield,RI,2896,United States,(401) 766-1961,41.97328,-71.55083,,,,
Hannaford,IRI_00241977,158 N Main St,,Uxbridge,MA,1569,United States,(508) 278-2487,42.082417,-71.638145,,,,
Walmart,IRI_06006726,250 Hartford Ave,,Bellingham,MA,2019,United States,(508) 966-7633,42.1144169,-71.4653015,,,,
Stop & Shop,IRI_00689749,622 George Washington Hwy,,Lincoln,RI,2865,United States,(401) 334-6006,41.935203,-71.47669,,,,
Stop & Shop,IRI_00224209,W Central St Rt 140,,Franklin,MA,2038,United States,(508) 520-4102,42.08592,-71.41127,,,,
Shaws,IRI_00217279,93 Prospect St,,Milford,MA,1757,United States,(508) 478-4519,42.138441,-71.534892,,,,
Shaws,IRI_00256376,255 E Central St,,Franklin,MA,2038,United States,(508) 520-6880,42.080506,-71.386021,,,,
Big Y Supermarket,IRI_08072610,348 E Central St,,Franklin,MA,2038,United States,(413) 504-6038,42.080063,-71.382083,,,,
Hannaford,IRI_00649415,7 Medway Rd,,Milford,MA,1757,United States,(508) 422-9300,42.150234,-71.502846,,,,
Stop & Shop,IRI_00247257,196 E Main St Rt 16,,Milford,MA,1757,United States,(508) 478-8941,42.1510169,-71.5010797,,,,
Price Chopper,IRI_08078363,2 Worcester Rd,,Webster,MA,1570,United States,(508) 943-7232,42.060508,-71.863647,,,,
Walmart Supercenter,IRI_00689304,100 Valley Pkwy,,Whitinsville,MA,1588,United States,(508) 234-9034,42.1059784,-71.7008477,,,,
Shaws,IRI_00651191,1177 Providence Rd,,Whitinsville,MA,1588,United States,(508) 234-0457,42.125418,-71.646417,,,,
Stop & Shop,IRI_00688242,100 Worcester St Rte 122,,Grafton,MA,1536,United States,(508) 887-9500,42.2194172,-71.6976371,,,,
Stop & Shop,IRI_00649281,60 Providence Tpke,,Putnam,CT,6260,United States,(860) 963-2640,41.9251253,-71.8765779,,,,
Price Chopper,IRI_06002012,251 Kennedy Dr,,Putnam,CT,6260,United States,(860) 928-3030,41.919887,-71.907708,,,,
Price Chopper,IRI_08070219,167 W Main St,,Hopkinton,MA,1748,United States,(508) 625-3263,42.209975,-71.552325,,,,
Stop & Shop,IRI_00246314,19 Temple St,,Framingham,MA,1701,United States,(508) 879-4044,42.297446,-71.44907,,,,
Stop & Shop,IRI_00647947,235 Old Connecticut Path,,Framingham,MA,1701,United States,(508) 820-0900,42.306673,-71.402141,,,,
Shaws,IRI_00275960,509 Boston Post Rd,,Sudbury,MA,1776,United States,(978) 443-7066,42.359919,-71.429124,,,,
Stop & Shop,IRI_00290340,829 Worcester St Rt,,Natick,MA,1760,United States,(508) 650-4050,42.3005261,-71.356583,,,,
Stop & Shop,IRI_08075183,400 Poston Post Rd,,Wayland,MA,1778,United States,(508) 358-0740,42.35871,-71.35903,,,,
Shaws,IRI_00260505,301 Pond St,,Ashland,MA,1721,United States,(508) 881-5125,42.241447,-71.431601,,,,
Star Market,IRI_01093331,65 Main St,,Medway,MA,2053,United States,(508) 533-0606,42.153137,-71.404531,,,,
Shaws,IRI_00220365,230 Main St,,Medfield,MA,2052,United States,(508) 359-8713,42.195035,-71.288771,,,,
Stop & Shop,IRI_00266034,36 Bedford St,,Lexington,MA,2420,United States,(781) 861-0457,42.452091,-71.231949,,,,
Shaws,IRI_01089120,180 A Cambridge St,,Burlington,MA,1803,United States,(781) 221-3002,42.510504,-71.199992,,,,
Shaws,IRI_00229217,1070 Lexington St,,Waltham,MA,2452,United States,(781) 899-3332,42.412562,-71.23329,,,,
Stop & Shop,IRI_00200527,2 Elm Rd,,Woburn,MA,1801,United States,(781) 935-0821,42.4863784,-71.1285638,,,,
Stop & Shop,IRI_00284586,695 Main St Rt 38,,Winchester,MA,1890,United States,(781) 721-1028,42.4563846,-71.1380701,,,,
Stop & Shop,IRI_00292593,905 Massachusetts Ave,,Arlington,MA,2476,United States,(781) 646-3625,42.418007,-71.165062,,,,
Hannaford,IRI_00688260,55 Russell St,,Waltham,MA,2453,United States,(781) 893-6776,42.375455,-71.244428,,,,
Shaws,IRI_06004452,130 River St,,Waltham,MA,2453,United States,(781) 647-5341,42.369742,-71.220836,,,,
Stop & Shop,IRI_00649189,700 Pleasant St,,Watertown,MA,2472,United States,(617) 923-3007,42.367056,-71.212703,,,,
Star Market,IRI_00249340,2040 Commonwealth Ave,,Auburndale,MA,2466,United States,(617) 965-1793,42.347488,-71.245617,,,,
Walmart Supercenter,IRI_00654058,333 Main St,,Tewksbury,MA,1876,United States,(978) 851-6265,42.6211147,-71.2618911,,,,
Shaws,IRI_00200005,33 Austin St,,Newtonville,MA,2460,United States,(617) 964-6825,42.350533,-71.208317,,,,
Walmart Supercenter,IRI_00648995,550 Providence Hwy,,Walpole,MA,2081,United States,(508) 668-4144,42.14749,-71.26013,,,,
Stop & Shop,IRI_00220459,Rte 1a Main St,,Walpole,MA,2081,United States,(508) 668-7722,42.14741,-71.26016,,,,
Hannaford,IRI_00271750,434 Walpole St,,Norwood,MA,2062,United States,(781) 769-0905,42.1802,-71.2201,,,,
Stop & Shop,IRI_00244095,171 Watertown St,,Watertown,MA,2472,United States,(617) 969-6410,42.362287,-71.193171,,,,
Stop & Shop,IRI_00256625,259 Main St Rt 28,,Stoneham,MA,2180,United States,(781) 438-3737,42.4843066,-71.1003459,,,,
Stop & Shop,IRI_01181712,25 Walkers Brook Dr,,Reading,MA,1867,United States,(781) 944-2919,42.519015,-71.093855,,,,
Shaws,IRI_01131243,134 Water St,,Wakefield,MA,1880,United States,(781) 245-0032,42.502603,-71.064929,,,,
Shaws,IRI_00264643,34 Essex St,,Melrose,MA,2176,United States,(781) 665-8512,42.45643,-71.065927,,,,
Stop & Shop,IRI_00273658,471 Salem St,,Medford,MA,2155,United States,(781) 391-1638,42.423551,-71.09045,,,,
Stop & Shop,IRI_00228509,105 Alewife Brook Pkwy,,Somerville,MA,2144,United States,(617) 625-1546,42.406901,-71.1333107,,,,
Walmart,IRI_00689313,72 Main St,,North Reading,MA,1864,United States,(978) 664-3262,42.5713603,-71.1098582,,,,
Stop & Shop,IRI_00200552,265 Main St,,North Reading,MA,1864,United States,(978) 664-0164,42.591243,-71.117388,,,,
Walmart Supercenter,IRI_08091490,770 Broadway,,Saugus,MA,1906,United States,(781) 816-5370,42.4754442,-71.0233791,,,,
Stop & Shop,IRI_00243151,164 Main St Rt 1,,Saugus,MA,1906,United States,(781) 231-5120,42.462952,-70.9412433,,,,
Stop & Shop,IRI_08062061,209 N Main St,,Andover,MA,1810,United States,(978) 623-9912,42.664201,-71.145564,,,,
Stop & Shop,IRI_00681657,757 Tpke St Rt 114,,North Andover,MA,1845,United States,(978) 683-9666,42.6607661,-71.1090038,,,,
Stop & Shop,IRI_00689264,90 Pleasant Valley St,,Methuen,MA,1844,United States,(978) 837-6660,42.742244,-71.15582,,,,
Hannaford,IRI_01110132,150 Bridge St,,Pelham,NH,3076,United States,(603) 635-3001,42.725884,-71.318696,,,,
Shaws,IRI_01119145,43 Indian Rock Rd,,Windham,NH,3087,United States,(603) 432-2607,42.80606,-71.292275,,,,
Walmart Supercenter,IRI_00649767,326 N Broadway,,Salem,NH,3079,United States,(603) 894-5642,42.799591,-71.2398814,,,,
Shaws,IRI_00268221,4 Plaistow Rd,,Plaistow,NH,3865,United States,(603) 382-0489,42.8157959,-71.1031977,,,,
Hannaford,IRI_00681738,305 Sandown Rd,,East Hampstead,NH,3826,United States,(603) 329-0182,42.89398,-71.144541,,,,
Shaws,IRI_00222576,45 Storey Ave,,Newburyport,MA,1950,United States,(978) 462-7121,42.820918,-70.90679,,,,
Stop & Shop,IRI_00930905,100 Macy St,,Amesbury,MA,1913,United States,(978) 388-7588,42.846443,-70.908815,,,,
Shaws,IRI_00238177,146 High St,,Ipswich,MA,1938,United States,(978) 356-8451,42.690607,-70.853063,,,,
Stop & Shop,IRI_00684021,301 Newbury St,,Danvers,MA,1923,United States,(978) 762-4444,42.586074,-70.96618,,,,
Walmart,IRI_00689267,55 Brooksby Village Way,,Danvers,MA,1923,United States,(978) 777-6977,42.575,-70.95004,,,,
Stop & Shop,IRI_00266598,37 Enon St,,Beverly,MA,1915,United States,(978) 921-0920,42.5860311,-70.8848557,,,,
Shaws,IRI_06003887,71 Dodge St,,Beverly,MA,1915,United States,(978) 232-9104,42.577899,-70.889316,,,,
Walmart Supercenter,IRI_08088606,700 Lafayette Rd Unit 1,,Seabrook,NH,3874,United States,(603) 474-2037,42.8954986,-70.8707708,,,,
Hannaford,IRI_00282846,637 Lowell St,,West Peabody,MA,1960,United States,(978) 536-3200,42.550452,-70.999262,,,,
Hannaford,IRI_08086046,141 Portsmouth Ave,,Exeter,NH,3833,United States,(603) 772-1783,42.9903395,-70.9295182,,,,
Hannaford,IRI_00282527,630 Lafayette Rd,,Hampton,NH,3842,United States,(603) 926-9808,42.945624,-70.83366,,,,
Shaws,IRI_01109001,100 Shaws Lane,,Stratham,NH,3885,United States,(603) 773-9994,43.0007,-70.9208,,,,
Stop & Shop,IRI_00640922,99 Charles St,,Malden,MA,2148,United States,(781) 397-0006,42.423623,-71.070993,,,,
Stop & Shop,IRI_06004202,760 Fellsway,,Medford,MA,2155,United States,(781) 391-5869,42.409265,-71.08442,,,,
Star Market,IRI_00274323,49 White St,,Cambridge,MA,2140,United States,(617) 492-5566,42.389326,-71.117691,,,,
Shaws,IRI_00271395,43 State St,,Lynn,MA,1901,United States,(781) 599-8473,42.46174,-70.949252,,,,
Stop & Shop,IRI_00659565,35 Washington St,,Lynn,MA,1904,United States,(781) 596-1882,42.4701955,-70.9577845,,,,
Walmart,IRI_00651496,780 Lynnway,,Lynn,MA,1905,United States,(781) 592-4300,42.4493187,-70.9632938,,,,
Stop & Shop,IRI_00640913,450 Paradise Rd,,Swampscott,MA,1907,United States,(781) 596-1445,42.478569,-70.907168,,,,
Shaws,IRI_00220364,11 Traders Way,,Salem,MA,1970,United States,(978) 741-8660,42.5012726,-70.9214656,,,,
Stop & Shop,IRI_00681627,19 Howley St,,Peabody,MA,1960,United States,(978) 977-3900,42.523967,-70.91885,,,,
Stop & Shop,IRI_00689748,540 Squire Rd,,Revere,MA,2151,United States,(781) 286-2200,42.430451,-71.020229,,,,
Shaws,IRI_00205533,114-128 Essex Centre Dr,,Peabody,MA,1960,United States,(978) 532-5434,42.53377,-70.97269,,,,
Stop & Shop,IRI_01111576,40 Furlong Dr,,Revere,MA,2151,United States,(781) 284-0717,42.399437,-71.0020287,,,,
Stop & Shop,IRI_00671447,224 Elliott St,,Beverly,MA,1915,United States,(978) 232-9359,42.556487,-70.890101,,,,
Stop & Shop,IRI_00933865,1690 Revere Beach Pkwy,,Everett,MA,2149,United States,(617) 381-1647,42.4016815,-71.0427916,,,,
Shaws,IRI_00669923,246 Border St,,East Boston,MA,2128,United States,(617) 567-4116,42.376444,-71.039889,,,,
Walmart Supercenter,IRI_01090948,35 Fresh River Rd,,Epping,NH,3042,United States,(603) 679-5919,43.0302046,-71.0703399,,,,
Walmart Supercenter,IRI_00649012,2460 Lafayette Rd,,Portsmouth,NH,3801,United States,(603) 433-6008,43.0332602,-70.7839212,,,,
Shaws,IRI_00295231,7 Railroad Ave,,Gloucester,MA,1930,United States,(978) 283-2601,42.615798,-70.66477,,,,
Shaws,IRI_00295230,127 Eastern Ave,,Gloucester,MA,1930,United States,(978) 281-4844,42.623767,-70.640686,,,,
Stop & Shop,IRI_00280181,6 Thatcher Rd,,Gloucester,MA,1930,United States,(978) 281-0010,42.618575,-70.639479,,,,
Hannaford,IRI_00288711,800 Islington St,,Portsmouth,NH,3801,United States,(603) 436-6669,43.068605,-70.772898,,,,
Shaws,IRI_00214367,1600 Woodbury Ave Suite 28,,Portsmouth,NH,3801,United States,(603) 436-0323,43.089013,-70.79061,,,,
Stop & Shop,IRI_01108277,468 Washington St,,Norwell,MA,2061,United States,(781) 982-9876,42.1591432,-70.853387,,,,
Walmart,IRI_01188357,1775 Washington St,,Hanover,MA,2339,United States,(781) 826-0606,42.1452714,-70.8445732,,,,
Walmart,IRI_00931313,740 Middle St,,Weymouth,MA,2188,United States,(781) 331-0063,42.1999573,-70.9459211,,,,
Stop & Shop,IRI_00284873,700 Middle St,,Weymouth,MA,2188,United States,(781) 331-9565,42.201364,-70.945541,,,,
Shaws,IRI_00281387,610 Middle St,,Weymouth,MA,2189,United States,(781) 331-5108,42.203738,-70.943943,,,,
Stop & Shop,IRI_00651403,375 Centre St Rt 123,,Abington,MA,2351,United States,(781) 871-0020,42.1114744,-70.929362,,,,
Stop & Shop,IRI_00262610,300 Grove St,,Braintree,MA,2184,United States,(781) 356-1730,42.189137,-70.986005,,,,
Stop & Shop,IRI_00288333,400 Chief Justice Cushing,,Cohasset,MA,2025,United States,(781) 383-2101,42.233045,-70.8206066,,,,
Stop & Shop,IRI_00681656,400 Lincoln St,,Hingham,MA,2043,United States,(781) 749-1143,42.248904,-70.92239,,,,
Shaws,IRI_00669924,739 Chief Justice Cushing,,Cohasset,MA,2025,United States,(781) 383-2315,42.223107,-70.804343,,,,
Shaws,IRI_00534571,125 Pearl St,,Braintree,MA,2184,United States,(781) 356-4467,42.202468,-71.001224,,,,
Shaws,IRI_00645063,35 Columbia Rd,,Hanover,MA,2339,United States,(781) 826-2864,42.1074,-70.809,,,,
Star Market,IRI_00214777,1 Snow Rd,,Marshfield,MA,2050,United States,(781) 837-5100,42.091332,-70.704537,,,,
Stop & Shop,IRI_00214020,Rt 139 N River Plaza,,Pembroke,MA,2359,United States,(781) 826-9802,42.06561,-70.80113,,,,
Hannaford,IRI_01109686,182 Summer St,,Kingston,MA,2364,United States,(781) 585-7423,42.009684,-70.731554,,,,
Stop & Shop,IRI_00642900,160 Summer St Rt 3a,,Kingston,MA,2364,United States,(781) 582-3700,41.9890296,-70.7210819,,,,
Stop & Shop,IRI_08069042,24 Mattakeesett St,,Pembroke,MA,2359,United States,(781) 293-1262,42.067777,-70.812205,,,,
Stop & Shop,IRI_00680575,127 Samoset St Rt 44,,Plymouth,MA,2360,United States,(508) 746-1444,41.87846,-70.63048,,,,
Walmart Supercenter,IRI_00656159,300 Colony Place Rd,,Plymouth,MA,2360,United States,(508) 830-9555,41.9535583,-70.7179335,,,,
Shaws,IRI_00211278,476 Liberty St,,Hanson,MA,2341,United States,(781) 293-3008,42.066648,-70.87061,,,,
Stop & Shop,IRI_01108928,341 Plymouth St,,Halifax,MA,2338,United States,(781) 293-1961,41.9933797,-70.8474069,,,,
Walmart,IRI_00689273,301 Falls Blvd,,Quincy,MA,2169,United States,(617) 745-4390,42.2380809,-70.9884834,,,,
Stop & Shop,IRI_00933690,495 Southern Artery Rt 3a,,Quincy,MA,2169,United States,(617) 773-4510,42.2535423,-70.9946269,,,,
Shaws,IRI_06003420,95 Washington St Cobbs Corne,,Canton,MA,2021,United States,(781) 828-1446,42.140857,-71.148577,,,,
Stop & Shop,IRI_00258257,278 Washington St Rt 138,,Stoughton,MA,2072,United States,(781) 341-1797,42.1379933,-71.1020573,,,,
Stop & Shop,IRI_00675469,1415 Boston Providence Hwy,,Norwood,MA,2062,United States,(781) 255-1141,42.1646165,-71.199154,,,,
Shaws,IRI_00237601,134 Nahatan St,,Norwood,MA,2062,United States,(781) 762-0610,42.194875,-71.200514,,,,
Shaws,IRI_00236876,121 Memorial Pkwy,,Randolph,MA,2368,United States,(781) 963-6995,42.163028,-71.045039,,,,
Big Y Supermarket,IRI_01085909,1111 Providence Hwy Rte 1,,Walpole,MA,2081,United States,(413) 504-6065,42.14081,-71.22556,,,,
Stop & Shop,IRI_00227758,1025 Truman Hwy,,Hyde Park,MA,2136,United States,(617) 333-0273,42.2421682,-71.1265752,,,,
Star Market,IRI_01087990,795 Providence Highway,,Dedham,MA,2026,United States,(781) 251-3367,42.237926,-71.178335,,,,
Shaws,IRI_00238152,1377 Hyde Park Ave,,Hyde Park,MA,2136,United States,(617) 364-9375,42.251667,-71.12554,,,,
Walmart,IRI_00689130,700 Oak St,,Brockton,MA,2301,United States,(508) 584-2333,42.1008549,-71.0587385,,,,
Stop & Shop,IRI_01107066,160 Providence Hwy Rt 1,,Dedham,MA,2026,United States,(781) 320-1050,42.2615551,-71.1687577,,,,
Shaws,IRI_00287280,75 Spring St,,West Roxbury,MA,2132,United States,(617) 327-0564,42.277554,-71.16303,,,,
Stop & Shop,IRI_00294106,950 American Legion Hwy,,Roslindale,MA,2131,United States,(617) 327-2160,42.275392,-71.115766,,,,
Shaws,IRI_01084869,4 River St,,Mattapan,MA,2126,United States,(617) 298-1462,42.272367,-71.069563,,,,
Stop & Shop,IRI_00657080,301 Centre St,,Jamaica Plain,MA,2130,United States,(617) 522-4300,42.322971,-71.103091,,,,
Stop & Shop,IRI_00933866,460 Blue Hill Ave,,Roxbury,MA,2121,United States,(617) 427-6752,42.309169,-71.082652,,,,
Hannaford,IRI_01123223,25 Robert Dr,,Easton,MA,2375,United States,(508) 238-6305,42.024199,-71.142387,,,,
Shaws,IRI_01085997,390 West St,,Mansfield,MA,2048,United States,(508) 339-3987,42.0263299,-71.2330484,,,,
Stop & Shop,IRI_00651472,377 Chauncy St Rt 106,,Mansfield,MA,2048,United States,(508) 337-9450,42.0319394,-71.2362538,,,,
Shaws,IRI_00284654,690 Depot St,,North Easton,MA,2356,United States,(508) 238-0165,42.026416,-71.117474,,,,
Stop & Shop,IRI_00933863,141 Main St,,Foxboro,MA,2035,United States,(508) 543-5791,42.0749791,-71.2617079,,,,
Shaws,IRI_00288116,780 S Main St,,Sharon,MA,2067,United States,(781) 784-5995,42.094936,-71.221174,,,,
Stop & Shop,IRI_00931368,469 Pleasant St,,Attleboro,MA,2703,United States,(508) 226-2400,41.952466,-71.269958,,,,
Stop & Shop,IRI_01129755,109 Taunton St,,Plainville,MA,2762,United States,(508) 643-2603,42.033468,-71.314344,,,,
Walmart Supercenter,IRI_08086430,160 Broadway,,Raynham,MA,2767,United States,(508) 692-6046,41.9342707,-71.0829092,,,,
Stop & Shop,IRI_00644551,206 E Washington St,,North Attleboro,MA,2760,United States,(508) 695-1999,41.971213,-71.332152,,,,
Stop & Shop,IRI_00652152,683 Belmont St Rt 123,,Brockton,MA,2301,United States,(508) 427-5500,42.0704082,-71.0461537,,,,
Shaws,IRI_00933949,641 Belmont St,,Brockton,MA,2301,United States,(508) 588-7746,42.071183,-71.044864,,,,
Star Market,IRI_00236335,130 Granite St,,Quincy,MA,2169,United States,(617) 770-0841,42.245323,-71.006559,,,,
Shaws,IRI_00535653,125 Toner Blvd,,North Attleboro,MA,2760,United States,(508) 643-2259,41.97051,-71.33695,,,,
Walmart Supercenter,IRI_00688585,1470 S Washington St,,North Attleboro,MA,2760,United States,(508) 699-0277,41.9387933,-71.349343,,,,
Walmart Supercenter,IRI_00649008,30 Memorial Dr,,Avon,MA,2322,United States,(508) 427-9460,42.1218027,-71.0330037,,,,
Stop & Shop,IRI_01088014,932 N Montello St,,Brockton,MA,2301,United States,(508) 427-0537,42.109433,-71.025256,,,,
Star Market,IRI_00286970,14 Mcgrath Hwy,,Somerville,MA,2143,United States,(617) 625-4070,42.3744915,-71.0841467,,,,
Star Market,IRI_00681055,20 Sidney St,,Cambridge,MA,2139,United States,(617) 494-5250,42.362297,-71.100242,,,,
Stop & Shop,IRI_01119153,1100 Mass Ave,,Dorchester,MA,2125,United States,(617) 541-4700,42.31641,-71.05699,,,,
Stop & Shop,IRI_00285913,713 E Broadway St,,Boston,MA,2127,United States,(617) 269-7989,42.3354629,-71.0368763,,,,
Stop & Shop,IRI_01085994,1620 Tremont St,,Boston,MA,2120,United States,(617) 232-3572,42.333695,-71.103579,,,,
Stop & Shop,IRI_01108320,779 Mcgrathy Hwy,,Somerville,MA,2145,United States,(617) 666-1024,42.3909165,-71.0866696,,,,
K Mart,IRI_06000604,77 Middlesex Ave,,Somerville,MA,2145,United States,(617) 628-9500,42.393312,-71.083163,,,,
Star Market,IRI_00668924,45 Morrissey Blvd,,Dorchester,MA,2124,United States,(617) 265-1776,42.317768,-71.049545,,,,
Stop & Shop,IRI_00241623,155 Harvard St,,Brookline,MA,2446,United States,(617) 566-4559,42.338208,-71.121352,,,,
Stop & Shop,IRI_00675388,60 Everett St,,Allston,MA,2134,United States,(617) 779-9116,42.35566,-71.138666,,,,
Stop & Shop,IRI_00278165,545 Freeport St,,Dorchester,MA,2122,United States,(617) 287-9193,42.2919875,-71.0482632,,,,
Stop & Shop,IRI_00657979,65 Newport Ave,,Quincy,MA,2171,United States,(617) 328-4477,42.272627,-71.02772,,,,
Hannaford,IRI_01109687,475 Hancock St,,North Quincy,MA,2171,United States,(617) 769-0088,42.271818,-71.023025,,,,
Shaws,IRI_00286009,715 Crescent St,,Brockton,MA,2302,United States,(508) 583-2581,42.0810613,-70.9903627,,,,
Stop & Shop,IRI_01081229,475 Bedford St,,Whitman,MA,2382,United States,(781) 447-7817,42.0745675,-70.9471078,,,,
Stop & Shop,IRI_00681625,36 New State Hwy Rt 44,,Raynham,MA,2767,United States,(508) 824-8800,41.9052843,-71.0635638,,,,
Walmart Supercenter,IRI_00643887,36 Paramount Dr,,Raynham,MA,2767,United States,(508) 822-4900,41.9044944,-71.0354964,,,,
Shaws,IRI_00219926,300 New State Hwy,,Raynham,MA,2767,United States,(508) 822-5660,41.905708,-71.054112,,,,
Hannaford,IRI_01109684,8 Merchants Way,,Middleboro,MA,2346,United States,(508) 947-4787,41.884081,-70.912308,,,,
Shaws,IRI_01114931,100 N Main St,,Carver,MA,2330,United States,(508) 866-2168,41.923954,-70.805641,,,,
Shaws,IRI_01116259,127 Marion Rd,,Wareham,MA,2571,United States,(508) 295-7813,41.758535,-70.728526,,,,
Stop & Shop,IRI_00220750,2991 Cranberry Hwy,,East Wareham,MA,2538,United States,(508) 295-3377,41.759363,-70.663499,,,,
Stop & Shop,IRI_00220589,Rt 3a State Rd,,Manomet,MA,2345,United States,(508) 224-4066,41.91573,-70.55486,,,,
Shaws,IRI_00643077,2260 State Rd,,Plymouth,MA,2360,United States,(508) 833-2975,41.820694,-70.551397,,,,
Shaws,IRI_00648753,20 Pilgrim Rd,,Plymouth,MA,2360,United States,(508) 747-2325,41.85938,-70.528119,,,,
Hannaford,IRI_01123224,255 Joseph E Warner Blvd,,Taunton,MA,2780,United States,(508) 828-3940,41.885857,-71.120018,,,,
Stop & Shop,IRI_00280190,65d Rte 6a,,Sandwich,MA,2563,United States,(508) 833-1302,41.765557,-70.5094324,,,,
Stop & Shop,IRI_01107109,71 Quaker Meeting House Rd,,Sandwich,MA,2563,United States,(508) 477-1449,41.699472,-70.486877,,,,
Stop & Shop,IRI_00689964,25 Faunce Corner Rd,,North Dartmouth,MA,2747,United States,(508) 999-7200,41.6989,-70.9873,,,,
Shaws,IRI_00270500,4171 N Main St,,Fall River,MA,2720,United States,(508) 677-0940,41.75066,-71.122657,,,,
Stop & Shop,IRI_00654387,1001 Kings Hwy,,New Bedford,MA,2745,United States,(508) 998-2000,41.678264,-70.941872,,,,
Stop & Shop,IRI_00647909,39 Nathan B Ellis Hwy Aka 10,,Mashpee,MA,2649,United States,(508) 539-1800,41.61991,-70.49028,,,,
Stop & Shop,IRI_01108278,3900 Falmouth Rd,,Marstons Mills,MA,2648,United States,(508) 428-1278,41.6475623,-70.4268483,,,,
Shaws,IRI_00238057,137 Tea Ticket Hwy,,East Falmouth,MA,2536,United States,(508) 457-6324,41.563948,-70.596235,,,,
Stop & Shop,IRI_00210759,20 Teaticket Hwy,,East Falmouth,MA,2536,United States,(508) 540-7481,41.5616263,-70.598784,,,,
Stop & Shop,IRI_08070807,425 Attucks Ln,,Hyannis,MA,2601,United States,(508) 771-0709,41.6767937,-70.3058209,,,,
Stop & Shop,IRI_00688243,221 Huttleson Ave,,Fairhaven,MA,2719,United States,(508) 990-4500,41.641473,-70.878241,,,,
Walmart,IRI_06006569,42 Fairhaven Commons Way,,Fairhaven,MA,2719,United States,(508) 993-8100,41.6444377,-70.8860452,,,,
Stop & Shop,IRI_01088019,50 S Water St,,Vineyard Haven,MA,2568,United States,(508) 693-8339,41.454902,-70.601369,,,,
Stop & Shop,IRI_01082474,225 Upper Main St,,Edgartown,MA,2539,United States,(508) 627-9522,41.3929411,-70.5246183,,,,
Stop & Shop,IRI_01097115,438 Dartmouth St,,New Bedford,MA,2740,United States,(508) 996-1643,41.6161423,-70.9368636,,,,
Shaws,IRI_00240394,15 State Road,,Dartmouth,MA,2747,United States,(508) 993-9995,41.6367,-70.960483,,,,
Shaws,IRI_00202524,1070 Iyannough Rd,,Hyannis,MA,2601,United States,(508) 775-7611,41.672749,-70.304292,,,,
Star Market,IRI_00282362,625 W Main St,,Hyannis,MA,2601,United States,(508) 775-3421,41.652007,-70.31787,,,,
K Mart,IRI_06000187,768 Iyannough Rd,,Hyannis,MA,2601,United States,(508) 771-0012,41.668759,-70.295148,,,,
Stop & Shop,IRI_01187157,474 Station Ave,,South Yarmouth,MA,2664,United States,(508) 394-0431,41.689067,-70.213257,,,,
Stop & Shop,IRI_00214957,9 Salem St,,Nantucket,MA,2554,United States,(508) 825-8833,41.2832362,-70.0970308,,,,
Stop & Shop,IRI_08095834,31 Sparks Ave Ste A,,Nantucket,MA,2554,United States,(774) 325-3280,41.2716163,-70.0929499,,,,
Stop & Shop,IRI_00534242,55 Long Pond Dr,,South Yarmouth,MA,2664,United States,(508) 394-1234,41.658115,-70.206083,,,,
Shaws,IRI_00229484,1108 Route 28,,South Yarmouth,MA,2664,United States,(508) 394-0995,41.663928,-70.19759,,,,
Star Market,IRI_00245052,18 Sisson Rd,,Harwich Port,MA,2646,United States,(508) 432-3433,41.672465,-70.091646,,,,
Stop & Shop,IRI_00218074,500 Rt 134 Patriot Sq Mall,,South Dennis,MA,2660,United States,(508) 760-2178,41.71389,-70.15317,,,,
Stop & Shop,IRI_00534241,Rt 39 And Rt 137,,Harwich,MA,2645,United States,(508) 432-5000,41.7026,-70.06486,,,,
Star Market,IRI_00295233,9 West Rd,,Orleans,MA,2653,United States,(508) 240-1021,41.780862,-70.000477,,,,
Stop & Shop,IRI_00204553,24 Rte 6a,,Orleans,MA,2653,United States,(508) 255-5288,41.7942473,-69.9840722,,,,
Stop & Shop,IRI_00535546,56 Shank Painter Rd,,Provincetown,MA,2657,United States,(508) 487-4903,42.050651,-70.195417,,,,
Stop & Shop,IRI_01094620,815 Grand Army Hwy,,Somerset,MA,2726,United States,(508) 965-5362,41.7310004,-71.1704528,,,,
Stop & Shop,IRI_00671449,501 Rodman St,,Fall River,MA,2721,United States,(508) 672-2177,41.694366,-71.151324,,,,
Target,IRI_00279478,579 Gar Hwy Ste 5,,Swansea,MA,2777,United States,(774) 488-3684,41.7479845,-71.2071544,,,,
Walmart Supercenter,IRI_08080667,638 Quequechan St,,Fall River,MA,2721,United States,(508) 730-2677,41.6869926,-71.1415064,,,,
Walmart Supercenter,IRI_00933489,262 Swansea Mall Dr,,Swansea,MA,2777,United States,(508) 677-3775,41.7565455,-71.2167216,,,,
Stop & Shop,IRI_00264242,333 Mariano Bishop Blvd,,Fall River,MA,2721,United States,(508) 675-0391,41.672636,-71.164643,,,,
Stop & Shop,IRI_01129754,251 Washington St,,Attleboro,MA,2703,United States,(508) 399-6019,41.9251794,-71.3565419,,,,
Stop & Shop,IRI_00240132,1475 Newman Ave,,Seekonk,MA,2771,United States,(508) 399-5624,41.886948,-71.333763,,,,
Stop & Shop,IRI_00649190,70 Mendon Rd,,Cumberland,RI,2864,United States,(401) 722-3300,41.912919,-71.403582,,,,
Stop & Shop,IRI_01108391,368-398 Cottage St,,Pawtucket,RI,2861,United States,(401) 721-9821,41.87885,-71.35242,,,,
Stop & Shop,IRI_00231696,1128 Mineral Spring Ave,,North Providence,RI,2904,United States,(401) 727-3400,41.868166,-71.428188,,,,
Stop & Shop,IRI_00237976,1360 W Main Rd,,Middletown,RI,2842,United States,(401) 849-5510,41.5363682,-71.292336,,,,
Stop & Shop,IRI_00255709,250 Bellevue Ave,,Newport,RI,2840,United States,(401) 848-7200,41.481082,-71.30841,,,,
Shaws,IRI_00645029,71 E Main Rd,,Middletown,RI,2842,United States,(401) 848-7560,41.517489,-71.298036,,,,
Stop & Shop,IRI_00642131,605 Metacom Ave Rt 136,,Bristol,RI,2809,United States,(401) 254-2525,41.6962309,-71.2642095,,,,
Shaws,IRI_00246039,186 County Rd,,Barrington,RI,2806,United States,(401) 245-5882,41.737163,-71.304061,,,,
Shaws,IRI_00228713,1050 Willet Ave,,Riverside,RI,2915,United States,(401) 433-3180,41.759253,-71.343546,,,,
Stop & Shop,IRI_01088015,125 Highland Ave,,Seekonk,MA,2771,United States,(508) 336-2550,41.801331,-71.336243,,,,
Stop & Shop,IRI_00642486,1925 Pawtucket Ave,,East Providence,RI,2914,United States,(401) 431-0450,41.823113,-71.355272,,,,
Shaws,IRI_01190016,585 Taunton Ave,,East Providence,RI,2914,United States,(401) 434-0029,41.8215932,-71.3574382,,,,
Stop & Shop,IRI_00654388,333 W River St,,Providence,RI,2904,United States,(401) 861-9300,41.845349,-71.4132535,,,,
Shaws,IRI_00652135,15 Smithfield Rd,,North Providence,RI,2904,United States,(401) 353-2075,41.854705,-71.446968,,,,
Stop & Shop,IRI_08064296,275 Warwick Ave,,Cranston,RI,2905,United States,(401) 941-6100,41.769251,-71.405375,,,,
Walmart,IRI_00687840,199 Connell Hwy,,Newport,RI,2840,United States,(401) 848-5167,41.5119786,-71.3177175,,,,
Stop & Shop,IRI_00688996,199 Connell Hwy Newport Mall,,Newport,RI,2840,United States,(401) 845-2220,41.4774,-71.31865,,,,
Stop & Shop,IRI_00266607,91 Voluntown Rd,,Stonington,CT,6379,United States,(860) 535-8234,41.40534,-71.846006,,,,
Stop & Shop,IRI_08053098,149 Franklin St Unit 3,,Westerly,RI,2891,United States,(401) 596-0169,41.358271,-71.809523,,,,
Walmart Supercenter,IRI_00643844,258 Post Rd,,Westerly,RI,2891,United States,(401) 322-0790,41.3519864,-71.7655209,,,,
Stop & Shop,IRI_00673352,3 Stilson Rd,,Richmond,RI,2898,United States,(401) 539-8800,41.5125594,-71.687643,,,,
Big Y Supermarket,IRI_00671522,79 Stonington Rd,,Mystic,CT,6355,United States,(413) 504-6005,41.344748,-71.951314,,,,
Stop & Shop,IRI_00244092,91 Point Judith Rd,,Narragansett,RI,2882,United States,(401) 783-9614,41.431442,-71.481557,,,,
Shaws,IRI_00670911,160 Old Tower Hill Rd,,Wakefield,RI,2879,United States,(401) 792-9888,41.44247,-71.481454,,,,
Walmart,IRI_00649034,150 Gold Star Hwy,,Groton,CT,6340,United States,(860) 448-2022,41.3689047,-72.0631861,,,,
Walmart Supercenter,IRI_00932933,180 River Rd,,Lisbon,CT,6351,United States,(860) 376-3254,41.5833274,-71.9965439,,,,
Stop & Shop,IRI_00252037,220 Rt 12,,Groton,CT,6340,United States,(860) 445-4440,41.3685574,-72.0699769,,,,
Stop & Shop,IRI_01136537,1300 Ten Rod Rd,,North Kingstown,RI,2852,United States,(401) 268-3808,41.579993,-71.505157,,,,
Big Y Supermarket,IRI_00414132,83 Lathrop Rd,,Plainfield,CT,6374,United States,(413) 504-6033,41.66269,-71.9123,,,,
Stop & Shop,IRI_01089689,2470 Warwick Ave,,Warwick,RI,2889,United States,(401) 732-4616,41.709885,-71.397993,,,,
Shaws,IRI_06004458,320 Warwick Ave,,Warwick,RI,2888,United States,(401) 823-1820,41.7660832,-71.4048815,,,,
Stop & Shop,IRI_00933504,204 Garfield Ave,,Cranston,RI,2920,United States,(401) 943-7601,41.79657,-71.441939,,,,
Shoprite,IRI_00934423,351 N Frontage Rd,,New London,CT,6320,United States,(860) 447-1295,41.37007,-72.118466,,,,
Walmart Supercenter,IRI_00689115,1031 Ten Rod Rd,,North Kingstown,RI,2852,United States,(401) 294-0025,41.58658,-71.46209,,,,
Walmart Supercenter,IRI_00653622,650 Centre Of New England Bl,,Coventry,RI,2816,United States,(401) 823-7780,41.661608,-71.552581,,,,
Stop & Shop,IRI_00292073,90 Frenchtown Rd Rt 402,,North Kingstown,RI,2852,United States,(401) 884-9400,41.6311978,-71.4697567,,,,
Stop & Shop,IRI_00640915,900 Tiogue Ave Rt 3,,Coventry,RI,2816,United States,(401) 823-1515,41.6803436,-71.570258,,,,
Stop & Shop,IRI_00260126,300 Quaker Ln Rt 2,,Warwick,RI,2886,United States,(401) 828-9360,41.68813,-71.5007064,,,,
Stop & Shop,IRI_00648615,446 Putnam Pike Rt 44,,Greenville,RI,2917,United States,(401) 949-4800,41.8701129,-71.532895,,,,
Stop & Shop,IRI_01187158,1092 Killingly Commons Dr,,Killingly,CT,6241,United States,(860) 779-7869,41.842188,-71.882612,,,,
Stop & Shop,IRI_00229868,11 Commerce Way Rt 5,,Johnston,RI,2919,United States,(401) 861-7610,41.8206673,-71.4981439,,,,
Stop & Shop,IRI_00650811,850 Manton Ave,,Providence,RI,2909,United States,(401) 453-3899,41.833465,-71.465894,,,,
Stop & Shop,IRI_00247836,200 Atwood Ave Rt 5,,Cranston,RI,2920,United States,(401) 944-6300,41.7809285,-71.4724169,,,,
Shaws,IRI_01113050,8 Chapel View Blvd,,Cranston,RI,2920,United States,(401) 464-8388,41.7559,-71.4607,,,,
K Mart,IRI_00933598,296 Garfield Ave,,Cranston,RI,2920,United States,(401) 946-3400,41.795557,-71.444644,,,,
Stop & Shop,IRI_01190120,575 Greenwich Ave,,Warwick,RI,2886,United States,(401) 737-2605,41.720777,-71.465549,,,,
Big Y Supermarket,IRI_00652624,70 Wauregan Rd,,Danielson,CT,6239,United States,(413) 504-6031,41.74598,-71.912235,,,,
Stop & Shop,IRI_00220458,117 Boston Post Rd Rt 1,,Waterford,CT,6385,United States,(860) 444-6772,41.3422486,-72.1246821,,,,
Hannaford,IRI_01191568,4 Jenkins Rd,,Bedford,NH,3110,United States,(603) 472-2627,42.921517,-71.537407,,,,
Shaws,IRI_01127060,7 Continental Blvd,,Merrimack,NH,3054,United States,(603) 429-0714,42.838381,-71.498392,,,,
Shaws,IRI_01082443,570 Daniel Webster Hwy,,Merrimack,NH,3054,United States,(603) 424-3759,42.880299,-71.481392,,,,
Hannaford,IRI_01093246,7 Kilton Rd,,Bedford,NH,3110,United States,(603) 625-5431,42.956961,-71.479417,,,,
Hannaford,IRI_00533128,605 Mast Rd,,Manchester,NH,3102,United States,(603) 626-4488,42.997442,-71.512687,,,,
Hannaford,IRI_00533127,201 John Devine Dr,,Manchester,NH,3103,United States,(603) 626-4567,42.958937,-71.441076,,,,
Hannaford,IRI_00291136,859 Hanover St,,Manchester,NH,3104,United States,(603) 624-4442,42.987673,-71.42826,,,,
K Mart,IRI_06000318,1267 Hooksett Rd,,Hooksett,NH,3106,United States,(603) 625-5741,43.048161,-71.436241,,,,
Hannaford,IRI_00452578,79 Bicentennial Dr,,Manchester,NH,3104,United States,(603) 644-2106,43.033233,-71.455467,,,,
Shaws,IRI_00204838,1328 Hooksett Rd,,Hooksett,NH,3106,United States,(603) 623-8846,43.056146,-71.440819,,,,
Hannaford,IRI_00688259,35 Manchester Rd Rte 28,,Derry,NH,3038,United States,(603) 434-5099,42.899216,-71.3375,,,,
Walmart Supercenter,IRI_06006536,11 Ashleigh Dr,,Derry,NH,3038,United States,(603) 434-3589,42.89752,-71.331717,,,,
Shaws,IRI_00204609,55 Crystal Ave,,Derry,NH,3038,United States,(603) 432-9592,42.892375,-71.326871,,,,
Hannaford,IRI_01114064,6 Hampton Dr & Rte #102,,Londonderry,NH,3053,United States,(603) 421-0921,42.86677,-71.346569,,,,
Shaws,IRI_00214926,1 Orchard View Dr,,Londonderry,NH,3053,United States,(603) 432-8846,42.8626,-71.351697,,,,
Hannaford,IRI_00247587,2 Freetown Rd,,Raymond,NH,3077,United States,(603) 895-0010,43.038395,-71.162244,,,,
Hannaford,IRI_01078109,174 First Nh Tpke Rt 202,,Northwood,NH,3261,United States,(603) 942-8842,43.191992,-71.146289,,,,
Walmart Supercenter,IRI_00643902,344 Loudon Rd,,Concord,NH,3301,United States,(603) 226-9312,43.2279061,-71.4834279,,,,
Shaws,IRI_00933437,20 D'amante Dr,,Concord,NH,3301,United States,(603) 228-1440,43.223068,-71.489527,,,,
Shaws,IRI_00205807,20 Fort Eddy Rd,,Concord,NH,3301,United States,(603) 228-0770,43.210233,-71.531404,,,,
Hannaford,IRI_00634616,73 Fort Eddy Rd,,Concord,NH,3301,United States,(603) 228-2060,43.214309,-71.531547,,,,
Hannaford,IRI_01182777,30 Grapevine Dr,,Dover,NH,3820,United States,(603) 749-2096,43.1628,-70.8907,,,,
Walmart,IRI_00931295,2200 Woodbury Ave,,Newington,NH,3801,United States,(603) 430-9985,43.1000578,-70.8043752,,,,
Shaws,IRI_01089687,276 W Main St,,Hillsborough,NH,3244,United States,(603) 464-5110,43.111343,-71.913488,,,,
Walmart Supercenter,IRI_01082075,683 Tenney Mountain Hwy,,Plymouth,NH,3264,United States,(603) 536-5352,43.7712971,-71.73776,,,,
Hannaford,IRI_01191064,35 Nh Rte 25 Unit,,Meredith,NH,3253,United States,(603) 279-1451,43.6592587,-71.4972442,,,,
Hannaford,IRI_00218265,Rte 25 Hatch Shopping Plz,,Plymouth,NH,3264,United States,(603) 536-3400,43.72389,-71.70636,,,,
Hannaford,IRI_00220738,Mountain Valley Mall Rte 16,,North Conway,NH,3860,United States,(603) 356-6341,44.020591,-71.11319,,,,
Shaws,IRI_00687303,1150 Eastman Rd,,Center Conway,NH,3813,United States,(603) 356-5471,44.016343,-71.109852,,,,
Walmart Supercenter,IRI_00689266,46 N S Rd,,North Conway,NH,3860,United States,(603) 356-0130,44.017573,-71.108795,,,,
Hannaford,IRI_00220728,Rte 16 Ames Plz,,Ossipee,NH,3864,United States,(603) 539-7531,43.69265,-71.10993,,,,
Walmart Supercenter,IRI_06000041,1458 Lake Shore Rd,,Gilford,NH,3249,United States,(603) 528-8011,43.5646859,-71.4386611,,,,
Shaws,IRI_00688669,1400 Lakeshore Dr,,Gilford,NH,3249,United States,(603) 528-2929,43.563004,-71.444895,,,,
Hannaford,IRI_08064984,1425 Lake Shore Rd Unit D,,Gilford,NH,3249,United States,(603) 524-1849,43.563043,-71.44177,,,,
Shaws,IRI_00932209,625 Meadow St,,Littleton,NH,3561,United States,(603) 444-1017,44.30597,-71.80318,,,,
Walmart Supercenter,IRI_01188778,4901 Dartmouth College Hwy,,Woodsville,NH,3785,United States,(603) 747-8250,44.1418543,-72.024748,,,,
Shaws,IRI_00218312,96 Daniel Webster Hwy,,Belmont,NH,3220,United States,(603) 524-3941,43.513847,-71.492622,,,,
Walmart Supercenter,IRI_08086429,33 Sherwood Dr,,Tilton,NH,3276,United States,(603) 286-7673,43.4532851,-71.5779604,,,,
Hannaford,IRI_00533129,952 Central St Rte 3,,Franklin,NH,3235,United States,(603) 934-2515,43.446986,-71.621692,,,,
Hannaford,IRI_01115459,295 Newport Rd,,New London,NH,3257,United States,(603) 526-6951,43.423649,-72.002416,,,,
Hannaford,IRI_01129088,80 Wolfeboro Hwy,,Alton,NH,3809,United States,(603) 875-4300,43.456748,-71.215733,,,,
Walmart Supercenter,IRI_00687802,116 Farmington Rd,,Rochester,NH,3867,United States,(603) 332-4300,43.3386345,-71.0151613,,,,
Hannaford,IRI_00225530,290 N Main St,,Rochester,NH,3867,United States,(603) 332-9580,43.306752,-70.986495,,,,
Shaws,IRI_01087987,48 John Stark Hwy,,Newport,NH,3773,United States,(603) 863-4173,43.359356,-72.176732,,,,
Hannaford,IRI_00252082,220 Washington St,,Claremont,NH,3743,United States,(603) 543-1681,43.369705,-72.325636,,,,
Walmart Supercenter,IRI_00643851,14 Bowen St,,Claremont,NH,3743,United States,(603) 542-2703,43.3756645,-72.3292388,,,,
Shaws,IRI_01087982,2 Chester Rd,,Springfield,VT,5156,United States,(802) 885-8450,43.30369,-72.492406,,,,
Shaws,IRI_01087984,32 Ames Plaza Ln #441,,Walpole,NH,3608,United States,(603) 756-3771,43.105755,-72.427622,,,,
Hannaford,IRI_08079746,586 Lower Plain,,Bradford,VT,5033,United States,(802) 222-3370,43.9849865,-72.1224246,,,,
Shaws,IRI_00240368,15 Forest St,,Woodsville,NH,3785,United States,(603) 747-3461,44.143026,-72.029624,,,,
Price Chopper,IRI_00224237,370 Miracle Mile,,Lebanon,NH,3766,United States,(603) 448-3970,43.636421,-72.287939,,,,
K Mart,IRI_06001603,21 Lilac Mall,,Rochester,NH,3867,United States,(603) 332-2430,43.319356,-70.975131,,,,
Hannaford,IRI_00211291,26 Lilac Mall #2,,Rochester,NH,3867,United States,(603) 332-9611,43.319458,-70.97505,,,,
Hannaford,IRI_08064419,8 Market St,,West Lebanon,NH,3784,United States,(603) 298-6642,43.64416,-72.29722,,,,
Price Chopper,IRI_00688984,285 Plainfield Rd,,West Lebanon,NH,3784,United States,(603) 298-9670,43.624133,-72.3256887,,,,
Shaws,IRI_00645027,10 Benning Dr,,West Lebanon,NH,3784,United States,(603) 298-0388,43.63298,-72.317095,,,,
Price Chopper,IRI_00652155,857 Memorial Dr Ste 1,,Saint Johnsbury,VT,5819,United States,(802) 748-1109,44.444598,-72.015489,,,,
Shaws,IRI_00248521,199 Main St,,Lancaster,NH,3584,United States,(603) 788-4065,44.48817,-71.569595,,,,
Shaws,IRI_00291001,851 Central Ave,,Dover,NH,3820,United States,(603) 749-5389,43.216002,-70.880476,,,,
Hannaford,IRI_00290487,833 Central Ave,,Dover,NH,3820,United States,(603) 749-9232,43.215253,-70.878654,,,,
Walmart Supercenter,IRI_06006532,59 Waltons Way,,Somersworth,NH,3878,United States,(603) 692-6346,43.25258,-70.88446,,,,
Walmart Supercenter,IRI_00689307,561 Main St,,Gorham,NH,3581,United States,(603) 752-4621,44.4230449,-71.1942814,,,,
Hannaford,IRI_00203486,456 S Barre Rd,,Barre,VT,5641,United States,(802) 479-3326,44.17466,-72.506716,,,,
Hannaford,IRI_00211301,520 Waldo St,,Rumford,ME,4276,United States,(207) 364-3771,44.555046,-70.550758,,,,
Hannaford,IRI_00647961,1603 Main St,,Oxford,ME,4270,United States,(207) 743-2522,44.19549,-70.525515,,,,
Hannaford,IRI_01123290,109 Portland Rd,,Bridgton,ME,4009,United States,(207) 647-2015,44.047192,-70.701013,,,,
Walmart Supercenter,IRI_00688085,1240 Main St,,Oxford,ME,4270,United States,(207) 743-0882,44.1716078,-70.5096915,,,,
Price Chopper,IRI_01128762,56 Commons Dr,,Derby,VT,5829,United States,(802) 334-1475,44.95294,-72.08185,,,,
Shaws,IRI_01104382,4340 Us Rt 5,,Derby,VT,5829,United States,(802) 334-8466,44.951714,-72.154759,,,,
Hannaford,IRI_00653451,Rt 100 80 Fairground Plz,,Morrisville,VT,5661,United States,(802) 888-9848,44.57265,-72.59621,,,,
Price Chopper,IRI_00649795,15 Munson Ave,,Morrisville,VT,5661,United States,(802) 888-1220,44.569093,-72.594428,,,,
Hannaford,IRI_00218143,131 Hannaford Dr Ste 1,,Farmington,ME,4938,United States,(207) 778-0434,44.651923,-70.150764,,,,
Walmart Supercenter,IRI_06006763,615 Wilton Rd,,Farmington,ME,4938,United States,(207) 778-5344,44.6283927,-70.1566577,,,,
Price Chopper,IRI_00202593,168 Ames Dr Ste 1,,Barre,VT,5641,United States,(802) 479-9078,44.222608,-72.546446,,,,
Walmart Supercenter,IRI_00689316,282 Berlin Mall Rd Ste 1,,Berlin,VT,5602,United States,(802) 229-7792,44.215072,-72.565892,,,,
Shaws,IRI_00660501,160 Paine Turnpike N,,Berlin,VT,5602,United States,(802) 223-2652,44.21241,-72.575045,,,,
Shaws,IRI_00247605,2 Main St,,Montpelier,VT,5602,United States,(802) 223-7587,44.257876,-72.577614,,,,
Hannaford,IRI_00218411,15 Jay Plz Ln,,Jay,ME,4239,United States,(207) 897-4376,44.502849,-70.1756805,,,,
Hannaford,IRI_00223199,225 Upper Main St,,Madison,ME,4950,United States,(207) 696-3949,44.83441,-69.80211,,,,
Hannaford,IRI_00689404,71 Jay View Rd,,Enosburg Falls,VT,5450,United States,(802) 933-6657,44.9125844,-72.7967701,,,,
Shaws,IRI_00212625,213 Main St,,Ludlow,VT,5149,United States,(802) 228-8468,43.395927,-72.703265,,,,
Shaws,IRI_00688570,127 Vt Hwy 12s,,Randolph,VT,5060,United States,(802) 728-3584,43.912703,-72.664395,,,,
Hannaford,IRI_00687129,5 Hannaford Dr,,York,ME,3909,United States,(207) 363-5357,43.150312,-70.672514,,,,
Hannaford,IRI_08098108,23 Somersworth Rd,,North Berwick,ME,3906,United States,(207) 676-2177,43.299423,-70.742111,,,,
Walmart Supercenter,IRI_00649036,30 Landing Rd,,Windham,ME,4062,United States,(207) 893-0603,43.8392819,-70.4456921,,,,
Hannaford,IRI_00222999,797 Roosevelt Trail,,Windham,ME,4062,United States,(207) 892-2532,43.839101,-70.442493,,,,
Hannaford,IRI_00688323,20 Sokokis Trail,,Waterboro,ME,4087,United States,(207) 247-8000,43.5644,-70.6971,,,,
Hannaford,IRI_00289960,800 Main St,,Sanford,ME,4073,United States,(207) 324-1554,43.444237,-70.783385,,,,
Shaws,IRI_00212787,1364 Main St,,Sanford,ME,4073,United States,(207) 490-5309,43.413885,-70.746984,,,,
Walmart Supercenter,IRI_00643843,1930 Main St,,Sanford,ME,4073,United States,(207) 490-1988,43.4010717,-70.7059822,,,,
Hannaford,IRI_00534940,111 Ossipee Trail,,Standish,ME,4084,United States,(207) 642-5533,43.7308364,-70.5418613,,,,
Hannaford,IRI_00535993,107 Wells Plz,,Wells,ME,4090,United States,(207) 646-4111,43.301819,-70.583374,,,,
Hannaford,IRI_08053058,65 Portland Rd,,Kennebunk,ME,4043,United States,(207) 985-9135,43.396937,-70.530162,,,,
Hannaford,IRI_01183468,24 Portland Rd,,Buxton,ME,4093,United States,(207) 929-3100,43.6144762,-70.5240455,,,,
Target,IRI_01132659,430 Mariner Way,,Biddeford,ME,4005,United States,(207) 284-2510,43.473725,-70.512591,,,,
Walmart Supercenter,IRI_00653597,50 Boulder Way,,Biddeford,ME,4005,United States,(207) 286-9551,43.4764879,-70.4984164,,,,
Hannaford,IRI_00262238,299 Elm St,,Biddeford,ME,4005,United States,(207) 284-8677,43.488389,-70.465809,,,,
Hannaford,IRI_00277620,532 Main St,,Saco,ME,4072,United States,(207) 282-4152,43.510721,-70.433491,,,,
Shaws,IRI_00219106,251 Us Hwy 1,,Falmouth,ME,4105,United States,(207) 781-6581,43.724718,-70.232122,,,,
Hannaford,IRI_00295066,50 Cottage Rd,,South Portland,ME,4106,United States,(207) 799-7359,43.637158,-70.250643,,,,
Shaws,IRI_00245101,180 Waterman Dr,,South Portland,ME,4106,United States,(207) 799-8149,43.636288,-70.256277,,,,
Hannaford,IRI_00259543,295 Forest Ave,,Portland,ME,4101,United States,(207) 761-5965,43.663301,-70.272104,,,,
Shaws,IRI_00292814,91 Auburn St,,Portland,ME,4103,United States,(207) 797-4304,43.703669,-70.289412,,,,
Shaws,IRI_00238003,1364 Congress St,,Portland,ME,4102,United States,(207) 774-7661,43.658962,-70.296286,,,,
Hannaford,IRI_00688677,65 Gray Rd Rte 100,,Falmouth,ME,4105,United States,(207) 878-0050,43.733697,-70.296479,,,,
Hannaford,IRI_00221881,756 Rte #1 Shoppers Village,,Yarmouth,ME,4096,United States,(207) 846-5941,43.804184,-70.1787587,,,,
Hannaford,IRI_01112995,787 Riverside St,,Portland,ME,4103,United States,(207) 878-0191,43.700692,-70.321871,,,,
Shaws,IRI_01109002,17 Main St,,Westbrook,ME,4092,United States,(207) 857-9299,43.677629,-70.332043,,,,
Hannaford,IRI_00270348,415 Philbrook Ave,,South Portland,ME,4106,United States,(207) 761-2729,43.634293,-70.331102,,,,
Hannaford,IRI_01085020,7 Hannaford Dr,,Westbrook,ME,4092,United States,(207) 854-4631,43.6743,-70.3552,,,,
Walmart Supercenter,IRI_06006571,500 Gallery Blvd,,Scarborough,ME,4074,United States,(207) 885-5567,43.58998,-70.36817,,,,
Hannaford,IRI_00536018,31 Hannaford Dr Rte 1,,Scarborough,ME,4074,United States,(207) 883-7670,43.591416,-70.333519,,,,
Shaws,IRI_00645030,417 Payne Rd,,Scarborough,ME,4074,United States,(207) 883-2443,43.620415,-70.351538,,,,
Target,IRI_00933348,200 Running Hill Rd,,South Portland,ME,4106,United States,(207) 871-1156,43.63328,-70.350898,,,,
Hannaford,IRI_00294827,99 Main St,,Gorham,ME,4038,United States,(207) 839-6553,43.680789,-70.439369,,,,
Hannaford,IRI_00222851,49 Topsham Fair Mall Rd,,Topsham,ME,4086,United States,(207) 729-5124,43.937871,-69.97917,,,,
Target,IRI_01124492,125 Topsham Fair Mall Rd,,Topsham,ME,4086,United States,(207) 504-5050,43.933244,-69.982778,,,,
Walmart Supercenter,IRI_06006904,15 Tibbetts Dr,,Brunswick,ME,4011,United States,(207) 725-0773,43.9083489,-69.9104368,,,,
Shaws,IRI_00211230,1 Chandler Dr,,Bath,ME,4530,United States,(207) 443-9179,43.9158,-69.8338,,,,
Shaws,IRI_00204388,147 Bath Rd,,Brunswick,ME,4011,United States,(207) 721-9996,43.906545,-69.928268,,,,
Hannaford,IRI_00217434,35 Elm St,,Brunswick,ME,4011,United States,(207) 725-8701,43.912391,-69.966522,,,,
Shaws,IRI_01101333,670 Bath Road,,Wiscasset,ME,4578,United States,(207) 882-8424,43.974139,-69.710059,,,,
Hannaford,IRI_00284516,692 Sabattus St,,Lewiston,ME,4240,United States,(207) 784-0721,44.102388,-70.182259,,,,
Shaws,IRI_01093339,200 Lower Main St,,Freeport,ME,4032,United States,(207) 865-0094,43.842978,-70.118294,,,,
Shaws,IRI_01082790,27 E Ave,,Lewiston,ME,4240,United States,(207) 784-6900,44.085793,-70.201963,,,,
Hannaford,IRI_00225757,40 Main Ave,,Gardiner,ME,4345,United States,(207) 582-3470,44.2314,-69.7718,,,,
Hannaford,IRI_00218286,180 Townsend Ave,,Boothbay Harbor,ME,4538,United States,(207) 633-6465,43.860483,-69.626575,,,,
Shaws,IRI_00219777,770 Roosevelt Trail,,Windham,ME,4062,United States,(207) 892-5159,43.836761,-70.440621,,,,
Hannaford,IRI_01198158,130 Shaker Rd,,Gray,ME,4039,United States,(207) 657-5800,43.902123,-70.345177,,,,
Hannaford,IRI_00294090,95 Spring St,,Auburn,ME,4210,United States,(207) 784-6497,44.096361,-70.229406,,,,
Hannaford,IRI_08080584,23 Snell Hill Rd,,Turner,ME,4282,United States,(207) 225-5140,44.2506902,-70.26183,,,,
Walmart Supercenter,IRI_06006718,100 Mount Auburn Ave,,Auburn,ME,4210,United States,(207) 784-0738,44.1205856,-70.2307059,,,,
Shaws,IRI_00280286,600 Center St,,Auburn,ME,4210,United States,(207) 784-6971,44.121126,-70.22543,,,,
K Mart,IRI_06000169,603 Center St,,Auburn,ME,4210,United States,(207) 784-2911,44.121148,-70.225101,,,,
Hannaford,IRI_00222158,399 Main St,,Winthrop,ME,4364,United States,(207) 377-3150,44.30721,-69.958795,,,,
Walmart Supercenter,IRI_00643898,201 Civic Center Dr,,Augusta,ME,4330,United States,(207) 623-8223,44.3430657,-69.7927248,,,,
Shaws,IRI_00255991,251 Kennedy Memorial Dr,,Waterville,ME,4901,United States,(207) 873-6224,44.543419,-69.665471,,,,
Hannaford,IRI_00533150,29 Whitten Rd,,Augusta,ME,4330,United States,(207) 622-3137,44.31455,-69.812634,,,,
Hannaford,IRI_00652558,100 Fairgrounds Marketplace,,Skowhegan,ME,4976,United States,(207) 858-4800,44.7711,-69.7219,,,,
Hannaford,IRI_00659204,190 Kennedy Memorial Dr,,Waterville,ME,4901,United States,(207) 873-0788,44.542714,-69.661897,,,,
Target,IRI_01185457,119 Crossing Way,,Augusta,ME,4330,United States,(207) 622-8000,44.311398,-69.808066,,,,
Shaws,IRI_00224309,150 Western Ave,,Augusta,ME,4330,United States,(207) 623-4520,44.312815,-69.794056,,,,
Hannaford,IRI_01197095,118 Cony St,,Augusta,ME,4330,United States,(207) 621-2570,44.316166,-69.765001,,,,
Walmart Supercenter,IRI_00649016,60 Fairgrounds Mkt Pl,,Skowhegan,ME,4976,United States,(207) 474-2126,44.7800151,-69.7311431,,,,
Hannaford,IRI_01198159,33 Hannaford Dr,,China,ME,4358,United States,(207) 445-3385,44.431,-69.5342,,,,
Hannaford,IRI_00267139,140 Elm Plz,,Waterville,ME,4901,United States,(207) 877-0700,44.568636,-69.640848,,,,
Walmart Supercenter,IRI_01112961,80 Waterville Commons Dr,,Waterville,ME,4901,United States,(207) 877-8774,44.569798,-69.6420511,,,,
Hannaford,IRI_00218656,Rtes 1 & 32,,Waldoboro,ME,4572,United States,(207) 832-4358,44.101332,-69.385707,,,,
Hannaford,IRI_00214940,469 Main St,,Damariscotta,ME,4543,United States,(207) 563-8131,44.03564,-69.51255,,,,
Walmart Supercenter,IRI_08082019,55 Thomaston Commons Way,,Thomaston,ME,4861,United States,(207) 596-0885,44.09372,-69.17603,,,,
Hannaford,IRI_00213173,75 Maverick St,,Rockland,ME,4841,United States,(207) 594-2173,44.116464,-69.106651,,,,
Shaws,IRI_00203819,235 Camden St,,Rockland,ME,4841,United States,(207) 594-8615,44.123575,-69.09925,,,,
Hannaford,IRI_00283432,653 Broadway,,Bangor,ME,4401,United States,(207) 947-8338,44.823282,-68.779168,,,,
Hannaford,IRI_00231893,1133 Union St Airport Mall,,Bangor,ME,4401,United States,(207) 942-0100,44.818198,-68.812563,,,,
Hannaford,IRI_00287972,773 Stillwater Ave,,Bangor,ME,4401,United States,(207) 947-6735,44.834942,-68.749434,,,,
Walmart Supercenter,IRI_06006674,900 Stillwater Ave,,Bangor,ME,4401,United States,(207) 947-5254,44.8393304,-68.7459701,,,,
Shaws,IRI_00658297,353 Main St,,Bangor,ME,4401,United States,(207) 942-9441,44.79387,-68.775291,,,,
Hannaford,IRI_00200578,383 Wilson St,,Brewer,ME,4412,United States,(207) 989-2500,44.784697,-68.752916,,,,
Hannaford,IRI_08056714,77 Western Ave,,Hampden,ME,4444,United States,(207) 862-5444,44.744855,-68.845236,,,,
Hannaford,IRI_00295223,500 Stillwater Ave,,Old Town,ME,4468,United States,(207) 827-2700,44.926797,-68.666773,,,,
Hannaford,IRI_00212151,53 Us Route 1,,Bucksport,ME,4416,United States,(207) 469-3282,44.5738,-68.7835,,,,
Shaws,IRI_00536442,175 High St,,Ellsworth,ME,4605,United States,(207) 667-2293,44.536038,-68.412345,,,,
Hannaford,IRI_00240444,225 High St Ste 1,,Ellsworth,ME,4605,United States,(207) 667-5300,44.532064,-68.407566,,,,
Walmart Supercenter,IRI_00643840,17 Myrick St,,Lamoine,ME,4605,United States,(207) 667-6780,44.5248044,-68.3972977,,,,
Shaws,IRI_01110959,1073 W Main St,,Dover Foxcroft,ME,4426,United States,(207) 564-3500,45.182214,-69.255506,,,,
Hannaford,IRI_00290777,843 Central Ave,,Millinocket,ME,4462,United States,(207) 723-8047,45.657319,-68.68786,,,,
Walmart,IRI_06006727,250 W Broadway,,Lincoln,ME,4457,United States,(207) 794-8436,45.3567351,-68.5260371,,,,
Hannaford,IRI_00223819,22 Goding Ave,,Lincoln,ME,4457,United States,(207) 794-6122,45.361744,-68.516053,,,,
Walmart Supercenter,IRI_00649028,379 S St,,Calais,ME,4619,United States,(207) 454-8178,45.172584,-67.278502,,,,
Hannaford,IRI_00649194,33 Ludlow Rd,,Houlton,ME,4730,United States,(207) 532-2605,46.1416467,-67.8431255,,,,
Walmart,IRI_00643850,17 Ludlow Rd,,Houlton,ME,4730,United States,(207) 532-2181,46.1416522,-67.8431907,,,,
Hannaford,IRI_00205077,Rte 1 Box 29 A Dublin St,,Machias,ME,4654,United States,(207) 255-3201,44.76219,-67.54911,,,,
Hannaford,IRI_00535212,93 Licclnville Ave,,Belfast,ME,4915,United States,(207) 338-5377,44.419277,-69.017861,,,,
Hannaford,IRI_00203817,145 Elm St,,Camden,ME,4843,United States,(207) 236-8577,44.196803,-69.080101,,,,
Walmart Supercenter,IRI_06006729,781 Main St,,Presque Isle,ME,4769,United States,(207) 764-8485,46.7000075,-68.0105721,,,,
Hannaford,IRI_00206583,114 Hight St,,Caribou,ME,4736,United States,(207) 498-8824,46.90472,-68.02041,,,,
Hannaford,IRI_00291149,86 Cottage St,,Bar Harbor,ME,4609,United States,(207) 288-5680,44.38925,-68.208851,,,,
Hannaford,IRI_01185410,318 Main St,,Rutland,VT,5701,United States,(802) 775-8900,43.591312,-72.96893,,,,
Price Chopper,IRI_00647895,38 Rutland Shopping Plz,,Rutland,VT,5701,United States,(802) 747-7880,43.6115,-72.9622,,,,
Hannaford,IRI_01130532,71 Supermarket Dr,,Brandon,VT,5733,United States,(802) 247-4113,43.797334,-73.089405,,,,
Price Chopper,IRI_00224356,Rte 4a Westway Mall,,West Rutland,VT,5777,United States,(802) 438-6119,43.56052,-73.05749,,,,
Shaws,IRI_00219243,27 Mad River Canoe Rd,,Waitsfield,VT,5673,United States,(802) 496-5330,44.185195,-72.837053,,,,
Shaws,IRI_01123467,820 Waterbury Stowe Rd,,Waterbury,VT,5676,United States,(802) 241-4113,44.347137,-72.74537,,,,
Shaws,IRI_00268165,7 Prince Lane,,Bristol,VT,5443,United States,(802) 453-4865,44.13363,-73.078367,,,,
Hannaford,IRI_01104156,260 Court St Unit 6,,Middlebury,VT,5753,United States,(802) 388-1017,44.002875,-73.154553,,,,
Shaws,IRI_00224116,8 Washington St,,Middlebury,VT,5753,United States,(802) 388-0930,44.014652,-73.164882,,,,
Shaws,IRI_00217507,751 Maple St,,Stowe,VT,5672,United States,(802) 253-4793,44.470066,-72.675893,,,,
Price Chopper,IRI_00220476,Rte 11 & Rte 30,,Manchester Center,VT,5255,United States,(802) 362-9896,43.187126,-73.002953,,,,
Shaws,IRI_00211934,64 Equinox Terrace,,Manchester Center,VT,5255,United States,(802) 362-4479,43.1720906,-73.0607372,,,,
Price Chopper,IRI_00661488,8648 State Rte 22,,Granville,NY,12832,United States,(518) 642-9755,43.394892,-73.264693,,,,
Hannaford,IRI_00689804,1165 State Rte 29,,Greenwich,NY,12834,United States,(518) 692-3177,43.102097,-73.514836,,,,
Hannaford,IRI_01129090,3758 Burgoyne Ave,,Hudson Falls,NY,12839,United States,(518) 746-2040,43.319115,-73.571428,,,,
K Mart,IRI_00649981,308 Dix Ave,,Queensbury,NY,12804,United States,(518) 743-0290,43.315325,-73.610837,,,,
Hannaford,IRI_01125973,27-41 Gansevoort Rd,,South Glens Falls,NY,12803,United States,(518) 798-7991,43.288024,-73.637756,,,,
Price Chopper,IRI_00647893,1 Price Chopper Plaza Rt4 &,,Mechanicville,NY,12118,United States,(518) 664-1112,42.908308,-73.683196,,,,
Shaws,IRI_00640828,195 Old Rt 22a,,Fair Haven,VT,5743,United States,(802) 265-8100,43.636007,-73.297148,,,,
Walmart Supercenter,IRI_00656157,760 Hoosick Rd,,Troy,NY,12180,United States,(518) 279-0685,42.746715,-73.639885,,,,
Price Chopper,IRI_00659334,716 Hoosick Rd,,Troy,NY,12180,United States,(518) 266-9035,42.743509,-73.645489,,,,
Hannaford,IRI_00414916,Nine 126th St,,Troy,NY,12182,United States,(518) 233-8196,42.788162,-73.672089,,,,
Shaws,IRI_00659790,66 Mountain View,,Colchester,VT,5446,United States,(802) 654-7803,44.4971722,-73.1593434,,,,
Hannaford,IRI_00250188,21a Essex Way,,Essex Junction,VT,5452,United States,(802) 878-0274,44.506548,-73.079038,,,,
Price Chopper,IRI_00219387,90 Center Rd Ste 3,,Essex Junction,VT,5452,United States,(802) 875-5163,44.510807,-73.068229,,,,
Price Chopper,IRI_00269662,41 Hinesburg Rd,,South Burlington,VT,5403,United States,(802) 864-9176,44.465912,-73.171184,,,,
Hannaford,IRI_00251586,217 Dorset St University,,South Burlington,VT,5403,United States,(802) 863-6311,44.463567,-73.180904,,,,
Shaws,IRI_00934121,71 Boxwood St,,Williston,VT,5495,United States,(802) 878-9770,44.447012,-73.108865,,,,
Hannaford,IRI_00657831,78 Marshall Ave,,Williston,VT,5495,United States,(802) 878-0032,44.444774,-73.113992,,,,
Walmart,IRI_00688579,863 Harvest Ln,,Williston,VT,5495,United States,(802) 878-5233,44.4428095,-73.1191684,,,,
Shaws,IRI_01083242,570 Shelburn Rd,,Burlington,VT,5401,United States,(802) 860-2255,44.450227,-73.208945,,,,
Price Chopper,IRI_00685912,595 Shelburne Rd,,Burlington,VT,5401,United States,(802) 651-9826,44.449885,-73.209132,,,,
Hannaford,IRI_00935026,1127 N Ave Ste 11,,Burlington,VT,5408,United States,(802) 862-8040,44.506877,-73.244964,,,,
Hannaford,IRI_00221844,218 Hannaford Dr,,South Burlington,VT,5403,United States,(802) 864-0105,44.441895,-73.214218,,,,
Hannaford,IRI_08081916,259 Rte 7 S,,Milton,VT,5468,United States,(802) 893-0554,44.6224815,-73.1225845,,,,
Price Chopper,IRI_01127190,860 State Rte 11 Po Box 2332,,Champlain,NY,12919,United States,(518) 298-2400,44.978441,-73.442777,,,,
Hannaford,IRI_00225417,139 1st St,,Swanton,VT,5488,United States,(802) 868-2637,44.921559,-73.111398,,,,
Hannaford,IRI_00220412,277 Swanton Rd,,Saint Albans,VT,5478,United States,(802) 524-2157,44.83855,-73.081908,,,,
Price Chopper,IRI_00675484,170 Swanton Rd Rte 7,,Saint Albans,VT,5478,United States,(802) 524-2033,44.83646,-73.080616,,,,
Target,IRI_06003611,60 Smithfield Blvd Ste 49,,Plattsburgh,NY,12901,United States,(518) 247-4961,44.7028077,-73.4947046,,,,
Hannaford,IRI_00250166,7 Pyramid Dr,,Plattsburgh,NY,12901,United States,(518) 562-2204,44.702552,-73.494965,,,,
Price Chopper,IRI_00689254,475 State Rte 3,,Plattsburgh,NY,12901,United States,(518) 562-3560,44.69634,-73.494314,,,,
Walmart Supercenter,IRI_00643911,25 Consumer Sq,,Plattsburgh,NY,12901,United States,(518) 561-0195,44.692587,-73.488006,,,,
K Mart,IRI_06001432,57 Centre Dr,,Plattsburgh,NY,12901,United States,(518) 561-8900,44.693665,-73.495502,,,,
Shaws,IRI_01087983,115c Monkton Rd,,Vergennes,VT,5491,United States,(802) 877-3418,44.171737,-73.240923,,,,
Price Chopper,IRI_08087484,16 Lake George Plaza Rd,,Warrensburg,NY,12845,United States,(528) 964-6500,43.43106,-73.70709,,,,
Hannaford,IRI_00277430,190 Quaker Rd,,Queensbury,NY,12804,United States,(518) 798-8676,43.331959,-73.655736,,,,
Price Chopper,IRI_00282676,677 Upper Glen St,,Queensbury,NY,12804,United States,(518) 792-7456,43.32658,-73.665786,,,,
Walmart Supercenter,IRI_08065043,24 Quaker Ridge Blvd,,Queensbury,NY,12804,United States,(518) 746-4155,43.330704,-73.672425,,,,
Hannaford,IRI_00532842,175 Broad St,,Glens Falls,NY,12801,United States,(518) 793-0028,43.303724,-73.659989,,,,
Big Y Supermarket,IRI_00256403,255 W Main St,,Avon,CT,6001,United States,(413) 504-6053,41.8120686,-72.8522543,,,,
Stop & Shop,IRI_00642902,498 Bushy Hill Rd,,Simsbury,CT,6070,United States,(203) 651-4784,41.82202,-72.860287,,,,
Shoprite,IRI_01107166,110 Albany Tpke,,Canton,CT,6019,United States,(860) 693-3666,41.823979,-72.884005,,,,
Stop & Shop,IRI_00245677,1799 Farmington Ave,,Unionville,CT,6085,United States,(860) 404-0341,41.75691,-72.883391,,,,
Stop & Shop,IRI_00235184,1235 Farmington Ave,,West Hartford,CT,6107,United States,(860) 521-8010,41.7546335,-72.7659268,,,,
Big Y Supermarket,IRI_00287947,772 N Main St,,West Hartford,CT,6117,United States,(413) 504-6018,41.787624,-72.747895,,,,
Walmart,IRI_00931296,1400 Farmington Ave,,Bristol,CT,6010,United States,(860) 585-1700,41.6987158,-72.8969273,,,,
Shoprite,IRI_00233607,1200 Farmington Ave & Rt 6,,Bristol,CT,6010,United States,(860) 584-8022,41.6974076,-72.9035312,,,,
Stop & Shop,IRI_00264042,313 Cottage Grove Rd,,Bloomfield,CT,6002,United States,(860) 242-5954,41.817342,-72.712703,,,,
Shoprite,IRI_00255344,46 Kane St,,West Hartford,CT,6119,United States,(860) 233-1713,41.751589,-72.717156,,,,
Stop & Shop,IRI_01108279,597 Famington Ave,,Bristol,CT,6010,United States,(860) 582-5674,41.68113,-72.94062,,,,
Big Y Supermarket,IRI_00648076,275 New Britain Ave,,Plainville,CT,6062,United States,(413) 504-6036,41.675169,-72.839437,,,,
Price Chopper,IRI_01181051,675 Poquonock Ave,,Windsor,CT,6095,United States,(860) 687-1411,41.872218,-72.660253,,,,
Stop & Shop,IRI_00641336,1095 Kennedy Rd,,Windsor,CT,6095,United States,(860) 688-0860,41.894086,-72.650829,,,,
Stop & Shop,IRI_00648766,150 New Park Ave,,Hartford,CT,6106,United States,(860) 232-8777,41.752663,-72.709228,,,,
Walmart Supercenter,IRI_01112941,495 Flatbush Ave,,Hartford,CT,6106,United States,(860) 953-0040,41.742544,-72.711706,,,,
Walmart Supercenter,IRI_08082021,44 Prospect Hill Rd,,East Windsor,CT,6088,United States,(860) 292-1235,41.917121,-72.6108171,,,,
Stop & Shop,IRI_01081354,1739 Ellington Rd,,South Windsor,CT,6074,United States,(860) 648-4026,41.82674,-72.554856,,,,
Big Y Supermarket,IRI_00933473,67 Prospect Hill Rd,,East Windsor,CT,6088,United States,(413) 504-6060,41.923299,-72.606374,,,,
Walmart Supercenter,IRI_06006683,420 Buckland Hills Dr,,Manchester,CT,6042,United States,(860) 644-5100,41.8078778,-72.5392685,,,,
Stop & Shop,IRI_00647910,940 Silver Ln,,East Hartford,CT,6118,United States,(203) 569-7050,41.7654408,-72.6032876,,,,
Shoprite,IRI_00251254,214 Spencer St,,Manchester,CT,6040,United States,(860) 645-3240,41.766911,-72.569631,,,,
Big Y Supermarket,IRI_00657010,234 Tolland Tpke,,Manchester,CT,6042,United States,(413) 504-6045,41.810654,-72.515824,,,,
Stop & Shop,IRI_00535460,286 Broad St,,Manchester,CT,6040,United States,(860) 645-8050,41.779381,-72.534382,,,,
Price Chopper,IRI_06003363,121 Farmington Ave,,Bristol,CT,6010,United States,(860) 582-2876,41.684661,-72.939198,,,,
Walmart Neighborhood Market,IRI_00653437,325 Oakland St,,Bristol,CT,6010,United States,(860) 506-2263,41.6873328,-72.9372044,,,,
Stop & Shop,IRI_00684020,747 Pine St,,Bristol,CT,6010,United States,(860) 582-3154,41.668929,-72.895383,,,,
Shoprite,IRI_00286539,750 Queen St,,Southington,CT,6489,United States,(860) 736-0044,41.636438,-72.87381,,,,
Price Chopper,IRI_06001323,410 Queen St,,Southington,CT,6489,United States,(860) 621-2083,41.62779,-72.873676,,,,
Walmart,IRI_00688626,235 Queen St,,Southington,CT,6489,United States,(860) 621-9540,41.62295,-72.8729366,,,,
Stop & Shop,IRI_00642903,505 N Main St,,Southington,CT,6489,United States,(860) 620-9161,41.613439,-72.874236,,,,
Stop & Shop,IRI_00653931,50 Windsorville Rd,,Vernon Rockville,CT,6066,United States,(860) 871-0498,41.864951,-72.481162,,,,
Big Y Supermarket,IRI_01132114,135 W Rd,,Ellington,CT,6029,United States,(413) 504-6073,41.8886118,-72.4634731,,,,
Stop & Shop,IRI_00671068,10 Pitkin Rd,,Vernon Rockville,CT,6066,United States,(860) 871-0897,41.830384,-72.494101,,,,
Price Chopper,IRI_01109316,35 Talcottville Rd,,Vernon,CT,6066,United States,(860) 875-1211,41.82688,-72.496957,,,,
Walmart Supercenter,IRI_00689271,161 Berlin Rd,,Cromwell,CT,6416,United States,(860) 635-0458,41.6075767,-72.7138923,,,,
Stop & Shop,IRI_01118195,1135 Farmington Ave,,Berlin,CT,6037,United States,(860) 828-0276,41.62933,-72.757655,,,,
Stop & Shop,IRI_00247176,195 W St,,Cromwell,CT,6416,United States,(203) 635-8300,41.603181,-72.6767277,,,,
Walmart,IRI_00933128,3164 Berlin Tpke,,Newington,CT,6111,United States,(860) 667-7657,41.6625825,-72.7214159,,,,
Price Chopper,IRI_06004257,2985 Berlin Turnpike,,Newington,CT,6111,United States,(860) 665-8342,41.667768,-72.719033,,,,
Big Y Supermarket,IRI_00675337,1040 Elm St,,Rocky Hill,CT,6067,United States,(413) 504-6044,41.6584,-72.676235,,,,
Price Chopper,IRI_08053572,855 Washington St,,Middletown,CT,6457,United States,(860) 740-7700,41.554296,-72.680985,,,,
Stop & Shop,IRI_00656563,206 Kitts Ln,,Newington,CT,6111,United States,(860) 665-8166,41.6810737,-72.7090292,,,,
Walmart,IRI_00689131,80 Town Line Rd,,Rocky Hill,CT,6067,United States,(860) 563-4355,41.6820886,-72.6579575,,,,
Stop & Shop,IRI_00288653,80 Town Line Rd,,Rocky Hill,CT,6067,United States,(860) 513-1538,41.6820886,-72.6579575,,,,
Stop & Shop,IRI_00930907,1309 Corbins Ave,,New Britain,CT,6053,United States,(860) 348-9856,41.6693012,-72.8056698,,,,
Stop & Shop,IRI_00535459,44 Fenn Rd,,Newington,CT,6111,United States,(860) 667-8380,41.696971,-72.756679,,,,
Stop & Shop,IRI_01079545,55 Oak St,,Glastonbury,CT,6033,United States,(860) 652-8925,41.7063838,-72.5939671,,,,
Stop & Shop,IRI_00652132,215 Glastonbury Blvd,,Glastonbury,CT,6033,United States,(860) 659-4553,41.721131,-72.623542,,,,
Shoprite,IRI_00261623,31 Main St,,East Hartford,CT,6118,United States,(860) 895-8390,41.7294377,-72.6191625,,,,
Stop & Shop,IRI_00218564,11 E High St,,East Hampton,CT,6424,United States,(860) 267-2039,41.582983,-72.504651,,,,
Big Y Supermarket,IRI_01116190,33 Fieldstone Commons,,Tolland,CT,6084,United States,(413) 504-6081,41.860384,-72.358786,,,,
Stop & Shop,IRI_00238196,1380 Berlin Tpke Rt 314,,Wethersfield,CT,6109,United States,(860) 956-0477,41.7160659,-72.6963082,,,,
Stop & Shop,IRI_08058121,176 Newington Ave,,West Hartford,CT,6110,United States,(860) 231-8082,41.728081,-72.708958,,,,
Stop & Shop,IRI_00688240,485 Broad St,,Meriden,CT,6450,United States,(203) 238-1235,41.533289,-72.792395,,,,
Stop & Shop,IRI_00287848,77 Centennial Plaza,,Meriden,CT,6451,United States,(203) 238-1778,41.5391289,-72.8234213,,,,
Big Y Supermarket,IRI_00259792,1 Kent Rd Unit 1,,New Milford,CT,6776,United States,(413) 504-6056,41.57428,-73.417577,,,,
Walmart,IRI_01082066,164 Danbury Rd,,New Milford,CT,6776,United States,(860) 350-4823,41.5515024,-73.4175056,,,,
Stop & Shop,IRI_00245077,180 Danbury Rd,,New Milford,CT,6776,United States,(860) 355-3234,41.5480331,-73.4197966,,,,
Stop & Shop,IRI_00657023,727 Beekman Rd,,Hopewell Junction,NY,12533,United States,(845) 227-3163,41.601154,-73.736127,,,,
Price Chopper,IRI_08088002,1220 Storrs Rd,,Mansfield,CT,6268,United States,(860) 553-6555,41.8020585,-72.2415671,,,,
Stop & Shop,IRI_01076584,275 Highland Ave,,Cheshire,CT,6410,United States,(203) 272-5993,41.506322,-72.9003,,,,
Big Y Supermarket,IRI_00203615,533 S Broad St,,Meriden,CT,6450,United States,(413) 504-6088,41.508458,-72.808495,,,,
Big Y Supermarket,IRI_00238945,141b Storrs Rd,,Mansfield,CT,6250,United States,(413) 504-6034,41.737726,-72.198401,,,,
Stop & Shop,IRI_00238328,1391 Main St Rt 32,,Willimantic,CT,6226,United States,(203) 456-8768,41.716458,-72.2317323,,,,
Stop & Shop,IRI_00647862,99 Linwood Ave Rt 16,,Colchester,CT,6415,United States,(860) 537-2361,41.5710948,-72.3370584,,,,
Stop & Shop,IRI_00270652,42 Town St,,Norwich,CT,6360,United States,(860) 887-1611,41.546441,-72.091513,,,,
Shoprite,IRI_00282297,634 W Main St,,Norwich,CT,6360,United States,(860) 887-0409,41.515552,-72.101775,,,,
Big Y Supermarket,IRI_00654047,224 Salem Tpke,,Norwich,CT,6360,United States,(413) 504-6030,41.507356,-72.122792,,,,
Walmart,IRI_00649026,220 Salem Tpke,,Norwich,CT,6360,United States,(860) 889-7745,41.5073388,-72.1220147,,,,
Stop & Shop,IRI_01136536,2020 Norwich New London Tpke,,Montville,CT,6353,United States,(860) 848-6960,41.45303,-72.13791,,,,
Walmart Supercenter,IRI_00656046,155 Waterford Pkwy No,,Waterford,CT,6385,United States,(860) 447-3646,41.368672,-72.157897,,,,
Stop & Shop,IRI_01107107,248 Flanders Rd,,East Lyme,CT,6333,United States,(860) 691-2146,41.363036,-72.2091858,,,,
Big Y Supermarket,IRI_00220649,90 Halls Rd,,Old Lyme,CT,6371,United States,(413) 504-6006,41.323672,-72.336616,,,,
Stop & Shop,IRI_00283472,105 Elm St,,Old Saybrook,CT,6475,United States,(860) 388-0850,41.2959354,-72.3865392,,,,
Big Y Supermarket,IRI_08090113,22 Spencer Plain Rd,,Old Saybrook,CT,6475,United States,(413) 504-6058,41.2877721,-72.4174202,,,,
Shoprite,IRI_00257372,266 E Main St,,Clinton,CT,6413,United States,(860) 669-0107,41.270958,-72.500716,,,,
Stop & Shop,IRI_00251347,215 E Main St Rt 1,,Clinton,CT,6413,United States,(860) 669-2228,41.2728127,-72.5067684,,,,
Big Y Supermarket,IRI_00671371,403 Main St,,Ansonia,CT,6401,United States,(413) 504-6047,41.340422,-73.077742,,,,
Stop & Shop,IRI_00225663,100 Division St,,Ansonia,CT,6401,United States,(203) 732-3901,41.332367,-73.082907,,,,
Shoprite,IRI_00934662,49 Pershing Dr,,Derby,CT,6418,United States,(203) 736-1001,41.3311178,-73.0848312,,,,
Stop & Shop,IRI_00930906,15 Franklin St,,Seymour,CT,6483,United States,(203) 881-2641,41.397083,-73.074849,,,,
Walmart,IRI_00655953,465 Bridgeport Ave,,Shelton,CT,6484,United States,(203) 929-1110,41.2905385,-73.1120281,,,,
Stop & Shop,IRI_00640919,112 Amity Rd Amity Plaza,,New Haven,CT,6515,United States,(203) 389-8600,41.32762,-72.97005,,,,
Stop & Shop,IRI_00291907,898 Bridgeport Ave,,Shelton,CT,6484,United States,(203) 929-7516,41.26414,-73.133656,,,,
Shoprite,IRI_00537168,875 Bridgeport Ave,,Shelton,CT,6484,United States,(203) 225-9224,41.264224,-73.133854,,,,
Stop & Shop,IRI_00256617,259 Bull Hill Ln,,Orange,CT,6477,United States,(203) 795-9731,41.274138,-72.987716,,,,
Shoprite,IRI_00649334,1131 Campbell Ave,,West Haven,CT,6516,United States,(203) 934-5660,41.29014,-72.958922,,,,
Walmart,IRI_01188319,515 Saw Mill Rd,,West Haven,CT,6516,United States,(203) 931-2081,41.2710243,-72.9741734,,,,
Stop & Shop,IRI_08060220,150 Whalley Ave,,New Haven,CT,6511,United States,(203) 503-0105,41.3147916,-72.9376341,,,,
Stop & Shop,IRI_00286566,727 Rubber Ave,,Naugatuck,CT,6770,United States,(203) 729-4182,41.492925,-73.079453,,,,
Big Y Supermarket,IRI_00653352,85 Bridge St Rte 68,,Naugatuck,CT,6770,United States,(413) 504-6032,41.5012735,-73.0440254,,,,
Stop & Shop,IRI_00269759,410 Reidville Dr,,Waterbury,CT,6705,United States,(203) 755-8605,41.538213,-73.000611,,,,
Stop & Shop,IRI_00688477,100 Main St N,,Southbury,CT,6488,United States,(203) 262-4555,41.4789387,-73.21294,,,,
K Mart,IRI_06006802,100 Main St N,,Southbury,CT,6488,United States,(203) 264-7227,41.4789387,-73.21294,,,,
Stop & Shop,IRI_00933151,920 Wolcott Rd,,Waterbury,CT,6701,United States,(203) 755-9489,41.6031078,-72.9863557,,,,
Big Y Supermarket,IRI_00227631,1021 S Main St,,Cheshire,CT,6410,United States,(413) 504-6040,41.4771516,-72.9062569,,,,
Big Y Supermarket,IRI_00649453,535 Monroe Tpke,,Monroe,CT,6468,United States,(413) 504-6035,41.318873,-73.214313,,,,
Stop & Shop,IRI_08004906,470-485 Monroe Tpke Rte 111,,Monroe,CT,6468,United States,(203) 268-0589,41.3150812,-73.2174807,,,,
Stop & Shop,IRI_00453053,228 S Main St,,Newtown,CT,6470,United States,(203) 270-0177,41.375606,-73.272476,,,,
Big Y Supermarket,IRI_08004912,6 Queen St,,Newtown,CT,6470,United States,(413) 504-6049,41.412932,-73.303105,,,,
Shoprite,IRI_00669814,775 Main St S,,Southbury,CT,6488,United States,(203) 262-1477,41.460737,-73.234615,,,,
Stop & Shop,IRI_00684022,100 Quality St,,Trumbull,CT,6611,United States,(203) 445-1006,41.25599,-73.216783,,,,
Stop & Shop,IRI_00237955,136 Samson Rock Dr,,Madison,CT,6443,United States,(203) 245-7204,41.278668,-72.595762,,,,
Big Y Supermarket,IRI_00290365,830 Boston Post Rd,,Guilford,CT,6437,United States,(413) 504-6055,41.288768,-72.675603,,,,
Stop & Shop,IRI_00220645,930 N Colony Rd Rt 5,,Wallingford,CT,6492,United States,(203) 265-6972,41.48536,-72.8094969,,,,
Shoprite,IRI_00680574,846 N Colony Rd,,Wallingford,CT,6492,United States,(203) 626-7760,41.477985,-72.811857,,,,
Big Y Supermarket,IRI_01104160,345 Washington Ave,,North Haven,CT,6473,United States,(413) 504-6077,41.406476,-72.845615,,,,
Walmart,IRI_01082067,910 Wolcott St,,Waterbury,CT,6705,United States,(203) 759-1000,41.5652889,-73.0082807,,,,
Shoprite,IRI_01082480,943 Wolcott St,,Waterbury,CT,6705,United States,(203) 756-5614,41.566904,-73.007613,,,,
Stop & Shop,IRI_00535105,79 Washington Ave,,North Haven,CT,6473,United States,(203) 234-1757,41.39328,-72.858136,,,,
Walmart,IRI_00689269,120 Commercial Pkwy,,Branford,CT,6405,United States,(203) 488-4106,41.280126,-72.8312237,,,,
Stop & Shop,IRI_00251906,22 Leetes Island Rd,,Branford,CT,6405,United States,(203) 488-1325,41.297595,-72.764655,,,,
Stop & Shop,IRI_00266630,370 Hemingway Ave,,East Haven,CT,6512,United States,(203) 469-8895,41.278168,-72.867518,,,,
Shoprite,IRI_00287157,745 Foxon Rd,,East Haven,CT,6513,United States,(475) 202-5180,41.3222207,-72.8560342,,,,
Walmart Supercenter,IRI_01188886,315 Foxon Blvd,,New Haven,CT,6513,United States,(203) 467-7509,41.3214041,-72.875792,,,,
Stop & Shop,IRI_01127195,460 Elm St,,West Haven,CT,6516,United States,(203) 931-8843,41.272432,-72.957572,,,,
Shoprite,IRI_00673525,2100 Dixwell Ave,,Hamden,CT,6514,United States,(203) 230-5000,41.367323,-72.92062,,,,
Stop & Shop,IRI_00654012,2335 Dixwell Ave Rt 10,,Hamden,CT,6514,United States,(203) 248-9615,41.3741248,-72.91585,,,,
Stop & Shop,IRI_00534063,416 E Main St,,Middletown,CT,6457,United States,(203) 346-0380,41.545882,-72.638914,,,,
Big Y Supermarket,IRI_01137186,83 Stony Hill Rd,,Bethel,CT,6801,United States,(413) 504-6082,41.41401,-73.378396,,,,
Shoprite,IRI_00239460,143 Federal Rd,,Brookfield,CT,6804,United States,(203) 775-7078,41.43809,-73.407661,,,,
Stop & Shop,IRI_00214683,72 Newtown Rd,,Danbury,CT,6810,United States,(203) 798-0555,41.406269,-73.418317,,,,
Walmart,IRI_01082064,67 Newtown Rd,,Danbury,CT,6810,United States,(203) 791-1929,41.4052945,-73.4203594,,,,
Shoprite,IRI_00225278,1 Padanaram St,,Danbury,CT,6811,United States,(475) 329-6114,41.412987,-73.457714,,,,
Stop & Shop,IRI_01093338,25 Hwy 36,,New Fairfield,CT,6812,United States,(203) 312-0482,41.48784,-73.48823,,,,
Stop & Shop,IRI_00271962,44 Lake Ave Ext Rt 6,,Danbury,CT,6811,United States,(203) 797-8901,41.3891892,-73.4675765,,,,
Stop & Shop,IRI_00254619,240 Chase Ave,,Waterbury,CT,6704,United States,(203) 756-4678,41.580942,-73.033336,,,,
Stop & Shop,IRI_00661552,1360 E Town Rd,,Milford,CT,6460,United States,(203) 877-1841,41.235745,-73.03111,,,,
Stop & Shop,IRI_00688504,855 Bridgeport Ave,,Milford,CT,6460,United States,(203) 876-0467,41.212677,-73.078261,,,,
K Mart,IRI_06000612,589 Bridgeport Ave,,Milford,CT,6460,United States,(203) 877-6036,41.207677,-73.086503,,,,
Stop & Shop,IRI_00247893,200 E Main St Rt 110,,Stratford,CT,6614,United States,(203) 375-8787,41.2281928,-73.1124792,,,,
Shoprite,IRI_00933899,250 Barnum Ave,,Stratford,CT,6614,United States,(203) 378-4296,41.198862,-73.120774,,,,
Big Y Supermarket,IRI_01185348,355 Hawley Lane,,Stratford,CT,6614,United States,(413) 504-6084,41.236259,-73.146941,,,,
Stop & Shop,IRI_00933639,763 Straits Tpke,,Watertown,CT,6795,United States,(860) 274-7459,41.570974,-73.098914,,,,
Stop & Shop,IRI_00272854,4531 N Main St,,Bridgeport,CT,6606,United States,(203) 371-6972,41.221401,-73.217942,,,,
Stop & Shop,IRI_00287612,760 Villa Ave,,Fairfield,CT,6825,United States,(203) 333-8715,41.176158,-73.226731,,,,
Stop & Shop,IRI_01133406,2145 Fairfield Ave,,Bridgeport,CT,6606,United States,(203) 333-0333,41.165015,-73.219014,,,,
Stop & Shop,IRI_00232625,1160 Kings Hwy,,Fairfield,CT,6824,United States,(203) 254-8478,41.1634969,-73.2360968,,,,
Shoprite,IRI_00247364,1975 Black Rock Turnpike,,Fairfield,CT,6825,United States,(203) 615-0140,41.1806953,-73.2494181,,,,
Stop & Shop,IRI_00535033,1790 Post Rd E,,Westport,CT,6880,United States,(203) 254-8484,41.138271,-73.301515,,,,
Hannaford,IRI_01080453,162 Rte 22,,Pawling,NY,12564,United States,(845) 855-0553,41.536452,-73.584736,,,,
Stop & Shop,IRI_00204830,125 Danbury Rd,,Ridgefield,CT,6877,United States,(203) 438-7317,41.2947644,-73.4930538,,,,
Shoprite,IRI_01137133,1990 W Main St,,Stamford,CT,6902,United States,(203) 978-0464,41.048802,-73.563473,,,,
Stop & Shop,IRI_01129768,1937 W Main St,,Stamford,CT,6902,United States,(203) 323-1068,41.0489165,-73.5616719,,,,
Acme Market,IRI_00242246,160 W Putnam Ave,,Greenwich,CT,6830,United States,(203) 622-2944,41.026729,-73.631496,,,,
Stop & Shop,IRI_00242673,161 W Putman Ave,,Greenwich,CT,6830,United States,(203) 625-0622,41.026839,-73.6317718,,,,
Stop & Shop,IRI_00669925,2200 Bedford St,,Stamford,CT,6905,United States,(203) 356-0109,41.068554,-73.544735,,,,
Shoprite,IRI_00248069,200 Shippan Ave,,Stamford,CT,6902,United States,(203) 964-9500,41.04814,-73.524208,,,,
Grade A Market,IRI_00279002,563 Newfield Ave,,Stamford,CT,6902,United States,(203) 356-1662,41.079544,-73.533833,,,,
Stop & Shop,IRI_00229886,11 Glen Ridge Rd,,Greenwich,CT,6831,United States,(203) 531-0541,41.039036,-73.668105,,,,
Grade A Market,IRI_00274542,495 Hope St,,Stamford,CT,6906,United States,(203) 325-9991,41.076436,-73.52279,,,,
Stop & Shop,IRI_01115347,25 Waterfront Place,,Port Chester,NY,10573,United States,(914) 937-7318,40.9995776,-73.6629039,,,,
Stop & Shop,IRI_00240157,148 Heights Rd,,Darien,CT,6820,United States,(203) 655-8755,41.069178,-73.493226,,,,
Stop & Shop,IRI_00255700,25 N Old King Hwy,,Darien,CT,6820,United States,(203) 662-1227,41.0787997,-73.4663859,,,,
Shoprite,IRI_00245083,184 Rte 52,,Carmel,NY,10512,United States,(845) 225-1011,41.4363009,-73.6818204,,,,
Stop & Shop,IRI_00934344,80 Birdsell Rd Rt 6,,Somers,NY,10589,United States,(914) 628-5602,41.32815,-73.69318,,,,
Walmart,IRI_06002816,680 Connecticut Ave,,Norwalk,CT,6854,United States,(203) 854-5236,41.0951819,-73.4491599,,,,
Stop & Shop,IRI_00684023,385 Connecticut Ave Rt 1,,Norwalk,CT,6854,United States,(203) 299-1715,41.1003407,-73.4405659,,,,
Shoprite,IRI_00643060,360 Connecticut Ave,,Norwalk,CT,6850,United States,(203) 838-0504,41.101245,-73.439147,,,,
Stop & Shop,IRI_00655865,380 Main Ave,,Norwalk,CT,6851,United States,(203) 840-1001,41.1405154,-73.4257238,,,,
Stop & Shop,IRI_01079740,152 Westchester Ave,,White Plains,NY,10601,United States,(914) 997-0715,41.032894,-73.757048,,,,
Stop & Shop,IRI_00237355,1326 Boston Post Rd,,Mamaroneck,NY,10543,United States,(914) 834-0867,40.9545127,-73.7179605,,,,
Stop & Shop,IRI_00283905,670 N Broadway,,White Plains,NY,10603,United States,(914) 682-3279,41.05503,-73.766918,,,,
Shoprite,IRI_08058662,13 City Place,,White Plains,NY,10601,United States,(914) 539-4500,41.033124,-73.7651953,,,,
Walmart,IRI_01188291,650 Main Ave,,Norwalk,CT,6851,United States,(203) 846-4514,41.1596949,-73.4189589,,,,
Stop & Shop,IRI_00274718,5 River Rd Wilton Campus,,Wilton,CT,6897,United States,(203) 834-9735,41.20702,-73.44004,,,,
Shoprite,IRI_00287202,747 Bedford Ave,,Bedford Hills,NY,10507,United States,(914) 666-7990,41.2245253,-73.7143803,,,,
Target,IRI_01111514,195 N Bedford Rd Ste A,,Mount Kisco,NY,10549,United States,(914) 602-0004,41.21509,-73.72011,,,,
K Mart,IRI_06000563,1550 Saint Georges Ave,,Avenel,NJ,7001,United States,(732) 574-3500,40.590878,-74.290578,,,,
Shoprite,IRI_00291506,877 St George Ave,,Woodbridge,NJ,7095,United States,(732) 636-3500,40.55399,-74.28761,,,,
Walmart,IRI_00933495,1601 W Edgar Rd,,Linden,NJ,7036,United States,(908) 474-9055,40.6123478,-74.2561097,,,,
Shoprite,IRI_00288943,801 Roosevelt Ave,,Carteret,NJ,7008,United States,(732) 541-6457,40.590749,-74.228498,,,,
Shoprite,IRI_00934427,637 W Edgar Rd Aviation Plaz,,Linden,NJ,7036,United States,(908) 523-0707,40.62536,-74.23935,,,,
Walmart,IRI_01188349,306 Us Hwy 9 N,,Woodbridge,NJ,7095,United States,(732) 826-4652,40.536078,-74.296416,,,,
Shoprite,IRI_00670862,76 Central Ave,,Clark,NJ,7066,United States,(732) 381-7600,40.62827,-74.305909,,,,
Acme Market,IRI_00228997,1060 Raritan Rd,,Clark,NJ,7066,United States,(732) 340-0056,40.627422,-74.31554,,,,
Shoprite,IRI_00266433,364 Convery Blvd & Fayette S,,Perth Amboy,NJ,8861,United States,(732) 442-1717,40.5161623,-74.2855714,,,,
Stop & Shop,IRI_00229523,1083 Inman Ave,,Edison,NJ,8820,United States,(908) 769-6173,40.596935,-74.362782,,,,
Shoprite,IRI_00933683,563 N Ave E,,Garwood,NJ,7027,United States,(908) 654-0803,40.652516,-74.33045,,,,
Target,IRI_08082012,2873 Richmond Ave,,Staten Island,NY,10314,United States,(917) 791-5851,40.575368,-74.1695134,,,,
Shoprite,IRI_00279667,583 9 Ave C & W 26th St,,Bayonne,NJ,7002,United States,(201) 437-6000,40.66521,-74.11053,,,,
Stop & Shop,IRI_00933868,1 Lefante Way,,Bayonne,NJ,7002,United States,(201) 823-9292,40.661052,-74.098126,,,,
Stop & Shop,IRI_00237856,1351 Forest Ave,,Staten Island,NY,10302,United States,(718) 981-1900,40.625959,-74.134547,,,,
K Mart,IRI_06000579,321 Stadium Plaza Ste 9,,Jersey City,NJ,7305,United States,(201) 435-2102,40.710446,-74.101457,,,,
Shoprite,IRI_00651049,985 Richmond Ave,,Staten Island,NY,10314,United States,(718) 982-8662,40.622904,-74.149262,,,,
Stop & Shop,IRI_00680621,1441 Richmond Ave,,Staten Island,NY,10314,United States,(718) 698-1138,40.613148,-74.158436,,,,
Acme Market,IRI_00654011,281-295 Ferry St,,Newark,NJ,7105,United States,(973) 589-3352,40.728737,-74.151161,,,,
Stop & Shop,IRI_00283222,801 Newark Ave,,Elizabeth,NJ,7208,United States,(908) 436-1344,40.681798,-74.208193,,,,
Foodtown,IRI_00292935,9105-27 3rd Ave,,Brooklyn,NY,11209,United States,(718) 833-5080,40.620087,-74.032369,,,,
Shoprite,IRI_00651571,400 Marin Blvd,,Jersey City,NJ,7302,United States,(201) 418-0300,40.7236195,-74.0404711,,,,
Walmart Supercenter,IRI_01188369,150 Harrison Ave,,Kearny,NJ,7032,United States,(201) 955-0280,40.7483013,-74.1428627,,,,
Shoprite,IRI_00533030,865 W Grand St,,Elizabeth,NJ,7202,United States,(908) 558-9126,40.6635731,-74.2390067,,,,
Stop & Shop,IRI_00291472,875 Bloomfield Ave,,West Caldwell,NJ,7006,United States,(973) 227-0319,40.8514,-74.298509,,,,
Shoprite,IRI_00200016,540 Passaic Ave,,West Caldwell,NJ,7006,United States,(973) 575-1770,40.8490565,-74.2975139,,,,
Shoprite,IRI_00280233,60 Beaver Brook Rd,,Lincoln Park,NJ,7035,United States,(973) 694-1080,40.924738,-74.309838,,,,
Shoprite,IRI_00200350,808 Rte 46 W,,Parsippany,NJ,7054,United States,(973) 335-2625,40.8622967,-74.3750549,,,,
Shoprite,IRI_00203663,171 Browertown Rd,,Little Falls,NJ,7424,United States,(973) 256-0909,40.8813841,-74.2107406,,,,
Walmart,IRI_01188326,300 Wootton St,,Boonton,NJ,7005,United States,(973) 299-3943,40.907843,-74.3993183,,,,
Stop & Shop,IRI_08087811,500 State Rte 23,,Pompton Plains,NJ,7444,United States,(973) 839-5510,40.9669834,-74.2849777,,,,
Acme Market,IRI_00276125,510 Valley Rd,,Montclair,NJ,7043,United States,(973) 746-0058,40.83691,-74.20674,,,,
Stop & Shop,IRI_01081363,1220 Hamburg Tpk Alps Rd,,Wayne,NJ,7470,United States,(973) 305-1333,40.94647,-74.24775,,,,
Shoprite,IRI_00453124,625 Hamburg Tpke,,Wayne,NJ,7470,United States,(973) 595-0079,40.955211,-74.218241,,,,
Shoprite,IRI_00200019,1 Rooney Circle,,West Orange,NJ,7052,United States,(973) 736-9374,40.7930843,-74.2547905,,,,
Walmart,IRI_01188304,48 State Rt 23,,Riverdale,NJ,7457,United States,(973) 835-5812,40.9865568,-74.3053449,,,,
Walmart,IRI_01188338,220 Enterprise Dr,,Rockaway,NJ,7866,United States,(973) 361-6089,40.95211,-74.48738,,,,
Stop & Shop,IRI_00684376,245 Little Town Rd,,Morris Plains,NJ,7950,United States,(973) 683-0100,40.84516,-74.48319,,,,
Shoprite,IRI_00648608,437 Rte 46 E,,Rockaway,NJ,7866,United States,(973) 366-3343,40.8876602,-74.5274723,,,,
Target,IRI_01107000,381 Mount Hope Ave,,Rockaway,NJ,7866,United States,(973) 989-5740,40.903,-74.5462,,,,
Walmart,IRI_06002752,235 Ridgedale Ave,,Cedar Knolls,NJ,7927,United States,(973) 889-8646,40.8096386,-74.4591257,,,,
Shoprite,IRI_08082627,178 E Hanover Ave,,Morristown,NJ,7927,United States,(973) 829-6825,40.8265716,-74.4992772,,,,
Stop & Shop,IRI_00258307,2795 Richmond Ave,,Staten Island,NY,10314,United States,(718) 761-4856,40.577793,-74.1693608,,,,
Stop & Shop,IRI_00271761,4343 Amboy Rd,,Staten Island,NY,10312,United States,(718) 608-8950,40.545666,-74.160133,,,,
Shoprite,IRI_00274125,483 S Livingston Ave,,Livingston,NJ,7039,United States,(973) 740-2004,40.775717,-74.3220874,,,,
Shoprite,IRI_00238925,1409 Broad St,,Bloomfield,NJ,7003,United States,(973) 338-4141,40.838054,-74.18489,,,,
Stop & Shop,IRI_00233105,1185 Brd St,,Clifton,NJ,7013,United States,(973) 365-8040,40.855983,-74.177428,,,,
Shoprite,IRI_00277669,533 Martin Luther King Blvd,,East Orange,NJ,7019,United States,(973) 674-1500,40.764501,-74.215169,,,,
Stop & Shop,IRI_00689426,8 Franklin St,,Bloomfield,NJ,7003,United States,(973) 743-6413,40.783635,-74.183516,,,,
Shoprite,IRI_00271870,437 Franklin Ave,,Nutley,NJ,7110,United States,(973) 235-1213,40.821945,-74.157592,,,,
Shoprite,IRI_00286540,726 Washington Ave,,Belleville,NJ,7109,United States,(973) 302-8600,40.8052321,-74.1459065,,,,
Stop & Shop,IRI_00688410,160 Kingsland Rd,,Clifton,NJ,7014,United States,(973) 779-6697,40.826137,-74.140323,,,,
Shoprite,IRI_00200022,540 New York Ave,,Lyndhurst,NJ,7071,United States,(201) 939-6227,40.8129508,-74.1187736,,,,
Stop & Shop,IRI_00688411,425 Lewandowski St,,Lyndhurst,NJ,7071,United States,(201) 438-1747,40.803667,-74.117264,,,,
Shoprite,IRI_00225839,100 Passaic Ave,,Kearny,NJ,7032,United States,(201) 998-1595,40.756969,-74.161654,,,,
Shoprite,IRI_00200020,503 Paulison Ave,,Passaic,NJ,7055,United States,(973) 471-0868,40.8632146,-74.1409336,,,,
Walmart Supercenter,IRI_08055744,2100 88th St,,North Bergen,NJ,7047,United States,(201) 758-2810,40.8120393,-74.013358,,,,
Shoprite,IRI_00679639,201 Roosevelt Ave,,Palisades Park,NJ,7650,United States,(201) 461-0219,40.8511092,-74.0041504,,,,
D'agostino,IRI_00282702,633 Columbus Ave,,New York,NY,10024,United States,(212) 368-2692,40.78947,-73.969913,,,,
Target,IRI_01197075,700 Exterior St,,Bronx,NY,10451,United States,(718) 401-5651,40.8192,-73.9301,,,,
D'agostino,IRI_00235107,1233 Lexington Ave,,New York,NY,10028,United States,(212) 570-6803,40.778277,-73.956371,,,,
Walmart Supercenter,IRI_01188311,400 Park Pl,,Secaucus,NJ,7094,United States,(201) 325-9280,40.7905176,-74.0437168,,,,
D'agostino,IRI_00229295,1074 Lexington Ave,,New York,NY,10021,United States,(212) 988-8813,40.772881,-73.960483,,,,
Acme Market,IRI_00215359,4100 Park Ave,,Weehawken,NJ,7086,United States,(201) 583-6875,40.773997,-74.020915,,,,
D'agostino,IRI_00934624,815 10th Ave,,New York,NY,10019,United States,(646) 215-7781,40.767508,-73.989823,,,,
Shoprite,IRI_00673050,500 S River St,,Hackensack,NJ,7601,United States,(201) 329-7470,40.863023,-74.035925,,,,
D'agostino,IRI_00240841,1507 York Ave,,New York,NY,10075,United States,(212) 772-9958,40.772247,-73.949885,,,,
Shoprite,IRI_00687736,3147 Kennedy Blvd,,North Bergen,NJ,7047,United States,(201) 553-5700,40.77499,-74.033627,,,,
Walmart Supercenter,IRI_08059733,174 Passaic St,,Garfield,NJ,7026,United States,(973) 330-3550,40.8676014,-74.1017642,,,,
Walmart,IRI_01073744,189 Us Hwy 46,,Saddle Brook,NJ,7663,United States,(201) 226-0575,40.889767,-74.096877,,,,
Shoprite,IRI_00266965,375 Patterson Ave,,Wallington,NJ,7057,United States,(201) 508-8000,40.844329,-74.107494,,,,
Shoprite,IRI_01179353,175 Main St,,Lodi,NJ,7644,United States,(973) 365-2287,40.879323,-74.084671,,,,
Stop & Shop,IRI_00688530,625 Paterson Ave,,Carlstadt,NJ,7072,United States,(201) 842-9993,40.8409413,-74.1014406,,,,
Stop & Shop,IRI_00267150,380 W Pleasantville Ave,,Hackensack,NJ,7601,United States,(201) 342-6030,40.8761247,-74.06693,,,,
Shoprite,IRI_00252071,220 W Passaic St,,Rochelle Park,NJ,7662,United States,(201) 843-1424,40.914298,-74.081013,,,,
Shoprite,IRI_00244236,1717 River Rd,,Fair Lawn,NJ,7410,United States,(201) 475-3750,40.939382,-74.141308,,,,
Target,IRI_01192861,900 Bergen Town Ctr,,Paramus,NJ,7652,United States,(201) 881-7660,40.915181,-74.06078,,,,
Walmart,IRI_00933132,900 Springfield Rd,,Union,NJ,7083,United States,(908) 624-0644,40.6871022,-74.2988744,,,,
Stop & Shop,IRI_00251799,219 Elm St,,Westfield,NJ,7090,United States,(908) 232-1292,40.653315,-74.351197,,,,
Shoprite,IRI_08087017,2401d Us Hwy 22 W,,Union,NJ,7083,United States,(908) 810-6742,40.6905064,-74.2969991,,,,
Stop & Shop,IRI_00233795,1201 Stuyvesant Ave,,Union,NJ,7083,United States,(908) 729-9020,40.698843,-74.266368,,,,
Shoprite,IRI_00252007,220 Main St,,Millburn,NJ,7041,United States,(973) 467-5436,40.717809,-74.307917,,,,
Target,IRI_01188175,2235 Springfield Ave,,Vauxhall,NJ,7088,United States,(908) 622-9002,40.718165,-74.285608,,,,
Stop & Shop,IRI_00269484,407 Valley St,,South Orange,NJ,7079,United States,(973) 762-6608,40.738471,-74.265291,,,,
Shoprite,IRI_00266515,367 Rte 22 W,,Hillside,NJ,7205,United States,(908) 810-4662,40.6994566,-74.2349593,,,,
Shoprite,IRI_00536067,40 Nathaniel Place,,Englewood,NJ,7631,United States,(201) 816-8330,40.896241,-73.97544,,,,
Stop & Shop,IRI_00673415,665 American Legion Dr,,Teaneck,NJ,7666,United States,(201) 287-9400,40.886933,-74.022087,,,,
Stop & Shop,IRI_01104386,961 E 174th St,,Bronx,NY,10460,United States,(718) 860-3139,40.836783,-73.885812,,,,
Shoprite,IRI_00243929,1701 Rte 22 W,,Watchung,NJ,7069,United States,(908) 322-6410,40.64831,-74.4075754,,,,
Stop & Shop,IRI_00934710,1511 Rte 22 W,,Watchung,NJ,7069,United States,(908) 754-6691,40.642086,-74.414316,,,,
Walmart,IRI_01188330,1501 Us Hwy 22,,Watchung,NJ,7069,United States,(908) 756-1925,40.641976,-74.414478,,,,
Stop & Shop,IRI_00410575,404 Springfield Ave,,Berkeley Heights,NJ,7922,United States,(908) 464-8997,40.685718,-74.438298,,,,
Acme Market,IRI_00675478,907 Oak Tree Rd,,South Plainfield,NJ,7080,United States,(908) 822-7110,40.577332,-74.390435,,,,
Acme Market,IRI_08056525,1260 Springfield Ave,,New Providence,NJ,7974,United States,(908) 286-1725,40.706511,-74.404831,,,,
Stop & Shop,IRI_00279290,5716 Broadway,,Bronx,NY,10463,United States,(718) 548-3344,40.882323,-73.902189,,,,
Shoprite,IRI_00535894,727 Morris Tpke,,Springfield,NJ,7081,United States,(973) 376-3028,40.719401,-74.330824,,,,
Shoprite,IRI_01089693,900 Madison Ave,,Hoboken,NJ,7030,United States,(201) 792-6070,40.748755,-74.036232,,,,
D'agostino,IRI_00288335,790 Greenwich St,,New York,NY,10014,United States,(212) 691-9198,40.737199,-74.006557,,,,
D'agostino,IRI_00264853,341 3rd Ave,,New York,NY,10010,United States,(212) 686-0619,40.740172,-73.982083,,,,
D'agostino,IRI_00277354,528 3rd Ave,,New York,NY,10016,United States,(212) 684-3133,40.746589,-73.977572,,,,
D'agostino,IRI_01079571,578 3rd Ave,,New York,NY,10016,United States,(212) 972-4892,40.748347,-73.976329,,,,
D'agostino,IRI_00294449,966 1st Ave,,New York,NY,10022,United States,(212) 319-4870,40.755818,-73.964665,,,,
Stop & Shop,IRI_00657087,4 Union Ave,,Haskell,NJ,7420,United States,(973) 616-1181,41.017905,-74.300345,,,,
Shoprite,IRI_00238419,14 Post Rd,,Oakland,NJ,7436,United States,(201) 337-3900,41.013933,-74.255858,,,,
Stop & Shop,IRI_00410582,133 Main St,,Madison,NJ,7940,United States,(973) 593-8484,40.756549,-74.411524,,,,
Shoprite,IRI_00221898,641 Shunpike Rd,,Chatham,NJ,7928,United States,(973) 377-4788,40.745981,-74.430139,,,,
Shoprite,IRI_00934425,314 Rte 15,,Wharton,NJ,7885,United States,(973) 361-8901,40.939194,-74.592933,,,,
Shoprite,IRI_00232458,1153 Valley Rd,,Stirling,NJ,7980,United States,(908) 604-2129,40.668168,-74.487166,,,,
Stop & Shop,IRI_00278561,553 S Finley Ave,,Basking Ridge,NJ,7920,United States,(908) 221-9400,40.6857,-74.5474,,,,
Shoprite,IRI_00680592,611 W Union Ave,,Bound Brook,NJ,8805,United States,(732) 302-9299,40.568251,-74.560511,,,,
Stop & Shop,IRI_00684372,581 Stelton Rd,,Piscataway,NJ,8854,United States,(732) 968-5100,40.559672,-74.440536,,,,
Walmart,IRI_00689306,1303 Centennial Ave,,Piscataway,NJ,8854,United States,(732) 562-1771,40.5527471,-74.4414722,,,,
Shoprite,IRI_00215561,1306 Centennial Ave,,Piscataway,NJ,8854,United States,(732) 981-9111,40.55219,-74.440979,,,,
Shoprite,IRI_00219566,93 Morristown Rd,,Bernardsville,NJ,7924,United States,(908) 766-3129,40.719591,-74.561954,,,,
Shoprite,IRI_08064948,1 S Davenport St,,Somerville,NJ,8876,United States,(908) 231-8100,40.569526,-74.615988,,,,
Target,IRI_01124473,5000 Hadley Center Dr,,South Plainfield,NJ,7080,United States,(908) 444-2023,40.549776,-74.427267,,,,
Shoprite,IRI_00219209,775 Rte 1 & Old Post Rd,,Edison,NJ,8817,United States,(732) 819-0140,40.515693,-74.358241,,,,
Walmart,IRI_08055677,2220 State Route 27,,Edison,NJ,8817,United States,(732) 650-1297,40.5314933,-74.379486,,,,
Stop & Shop,IRI_00933864,1049 Us Rte 1 S,,Edison,NJ,8820,United States,(732) 906-5600,40.5224875,-74.362662,,,,
Stop & Shop,IRI_00658225,625 Atlantic Ave,,Brooklyn,NY,11217,United States,(718) 399-6161,40.683516,-73.975615,,,,
Stop & Shop,IRI_00263657,337 Franklin Ave,,Wyckoff,NJ,7481,United States,(201) 848-1046,41.010636,-74.167661,,,,
Shoprite,IRI_00654384,2 Interstate Plaza,,Ramsey,NJ,7446,United States,(201) 934-8989,41.0710278,-74.1391297,,,,
Stop & Shop,IRI_00244628,175 Franklin Ave,,Ridgewood,NJ,7450,United States,(201) 444-2800,40.980798,-74.11652,,,,
Stop & Shop,IRI_00671050,816 Franklin Ave,,Franklin Lakes,NJ,7417,United States,(201) 891-9300,41.023926,-74.2096,,,,
Stop & Shop,IRI_00211327,859 S State Rte 17,,Paramus,NJ,7652,United States,(201) 652-9830,40.9767335,-74.0825237,,,,
Shoprite,IRI_00266824,372 Broadway,,Hillsdale,NJ,7642,United States,(201) 666-7821,41.012312,-74.042074,,,,
Shoprite,IRI_00255750,250 Rte 59,,Suffern,NY,10901,United States,(845) 368-0713,41.111778,-74.107407,,,,
Shoprite,IRI_00256706,26 N Middletown Rd,,Pearl River,NY,10965,United States,(845) 735-4871,41.061357,-74.012934,,,,
Stop & Shop,IRI_01186347,600 Kinderkamack Rd,,Emerson,NJ,7630,United States,(201) 262-1834,40.981,-74.0242,,,,
Shoprite,IRI_00223084,Union Valley Marshall Hill,,West Milford,NJ,7480,United States,(973) 728-3458,41.08944,-74.37445,,,,
Stop & Shop,IRI_00202871,130 Skyline Dr Alta Vista Dr,,Ringwood,NJ,7456,United States,(973) 962-0043,41.10763,-74.27455,,,,
Shoprite,IRI_00681069,224 Rt 4 E Forest Ave.,,Paramus,NJ,7652,United States,(201) 843-6616,40.930599,-74.051207,,,,
Shoprite,IRI_00200023,814 River Rd,,New Milford,NJ,7646,United States,(201) 262-8834,40.9281358,-74.0260952,,,,
Walmart,IRI_00689352,230 State Hwy,,Franklin,NJ,7416,United States,(973) 209-4242,41.11258,-74.59292,,,,
Weis Markets,IRI_00686051,140 State Rt 23,,Franklin,NJ,7416,United States,(973) 209-4498,41.110509,-74.579925,,,,
Shoprite,IRI_00257577,270 Rte 23,,Franklin,NJ,7416,United States,(973) 827-6135,41.118064,-74.580498,,,,
Stop & Shop,IRI_08064813,5 Town Center Dr,,Sparta,NJ,7871,United States,(973) 729-9746,41.04677,-74.62466,,,,
Walmart,IRI_00687831,26 Hampton House Rd,,Newton,NJ,7860,United States,(973) 300-1859,41.0755374,-74.738122,,,,
Shoprite,IRI_00219570,125 Water St Rt 206 N,,Newton,NJ,7860,United States,(973) 383-6900,41.0659769,-74.745799,,,,
Weis Markets,IRI_00646491,121 Water St,,Newton,NJ,7860,United States,(973) 383-1912,41.065443,-74.746808,,,,
Price Chopper,IRI_08053571,142 State Hwy 94,,Warwick,NY,10990,United States,(845) 987-6333,41.2338,-74.4163,,,,
Shoprite,IRI_00679640,90-80 Rt 206 N,,Stanhope,NJ,7874,United States,(973) 448-9770,40.92542,-74.71642,,,,
Shoprite,IRI_00241349,153 State Rte 94s,,Warwick,NY,10990,United States,(845) 987-1200,41.237223,-74.38175,,,,
Shoprite,IRI_00222920,10a Rte 23 Tri State Mall,,Montague,NJ,7827,United States,(973) 293-8207,41.29165,-74.74034,,,,
Shoprite,IRI_00254224,78 Brookside Ave Ste 122,,Chester,NY,10918,United States,(845) 469-7400,41.3581442,-74.2846763,,,,
Shoprite,IRI_00235449,125 Dolson Ave,,Middletown,NY,10940,United States,(845) 343-1139,41.430249,-74.424121,,,,
Price Chopper,IRI_01114005,1025 Pennsylvania Ave,,Matamoras,PA,18336,United States,(570) 491-5612,41.363084,-74.706496,,,,
Walmart Supercenter,IRI_00643926,220 Rte 6 & 209,,Milford,PA,18337,United States,(570) 491-4940,41.351931,-74.734257,,,,
Shoprite,IRI_00931369,20 Lloyds Ln,,Middletown,NY,10940,United States,(845) 341-2104,41.4535,-74.4031,,,,
Shoprite,IRI_00218120,785 State Rte 17m Ste 1,,Monroe,NY,10950,United States,(845) 783-4496,41.3331623,-74.192155,,,,
Shoprite,IRI_00271172,425 Old Hook Rd,,Emerson,NJ,7630,United States,(201) 262-0012,40.981882,-74.006441,,,,
Stop & Shop,IRI_00688245,32 S Middletown Rd,,Nanuet,NY,10954,United States,(845) 624-1514,41.0886,-74.0137,,,,
Stop & Shop,IRI_08079226,1 Stevens Way,,Orangeburg,NY,10962,United States,(845) 359-0673,41.04848,-73.95948,,,,
Stop & Shop,IRI_00264665,34 Railrd Ave River Edge Rd,,Tenafly,NJ,7670,United States,(201) 894-5111,40.91757,-73.95303,,,,
Stop & Shop,IRI_00668927,20 Washington Ave,,Dumont,NJ,7628,United States,(201) 385-3652,40.936849,-73.994744,,,,
Stop & Shop,IRI_00688507,400 Demarest Ave,,Closter,NJ,7624,United States,(201) 784-7180,40.9699683,-73.9630399,,,,
Shoprite,IRI_00206301,23 Prospect St Greeway Plaz,,Yonkers,NY,10701,United States,(914) 376-5429,40.94593,-73.88236,,,,
Shoprite,IRI_00258253,278 Tuckahoe Rd,,Yonkers,NY,10710,United States,(914) 793-2214,40.953756,-73.857862,,,,
Shoprite,IRI_00255428,246 Livingston Ave,,Northvale,NJ,7647,United States,(201) 784-0173,41.012235,-73.946281,,,,
Stop & Shop,IRI_00933867,111 Vrendenburg Ave,,Yonkers,NY,10704,United States,(914) 378-9311,40.923623,-73.855253,,,,
Stop & Shop,IRI_00267678,390 Broadway,,Dobbs Ferry,NY,10522,United States,(914) 693-9274,41.014793,-73.870911,,,,
Shoprite,IRI_01081233,243 E Rte 59,,West Nyack,NY,10994,United States,(845) 353-7377,41.094318,-73.960474,,,,
Acme Market,IRI_00681748,616 Newman Springs Rd,,Lincroft,NJ,7738,United States,(732) 936-0668,40.331614,-74.117463,,,,
Stop & Shop,IRI_00219829,Hwy 35 Twin Brooks Ave,,Middletown,NJ,7748,United States,(732) 957-0088,40.3894643,-74.1026312,,,,
Shoprite,IRI_00220606,Rt 35 & Harmony Rd,,Middletown,NJ,7748,United States,(732) 671-9444,40.39494,-74.11566,,,,
K Mart,IRI_06001374,108 Monmouth Rd,,West Long Branch,NJ,7764,United States,(732) 542-5747,40.298493,-74.032347,,,,
Shoprite,IRI_00215329,Rt 36 & 71,,West Long Branch,NJ,7764,United States,(732) 542-5222,40.28847,-74.01818,,,,
Stop & Shop,IRI_08061442,150 W End Court,,Long Branch,NJ,7740,United States,(732) 728-2920,40.283776,-73.988242,,,,
Stop & Shop,IRI_00684371,100 Rte 36,,Keyport,NJ,7735,United States,(732) 203-2233,40.427824,-74.1931803,,,,
Shoprite,IRI_08079208,3120 State Hwy 35,,Hazlet,NJ,7730,United States,(732) 264-4110,40.4201973,-74.1828367,,,,
Shoprite,IRI_00211395,318 Lloyd Rd,,Matawan,NJ,7747,United States,(732) 566-9111,40.396398,-74.222034,,,,
Walmart Supercenter,IRI_01090943,3575 State Rte 66,,Neptune,NJ,7753,United States,(732) 922-8084,40.223365,-74.084362,,,,
Shoprite,IRI_00648799,2200 Hwy 66,,Neptune,NJ,7753,United States,(732) 775-4250,40.2266361,-74.041999,,,,
Stop & Shop,IRI_01079741,1129 Rte 34,,Matawan,NJ,7747,United States,(732) 290-7544,40.3967325,-74.2241204,,,,
Stop & Shop,IRI_00210480,116 3rd Ave Nj Hwy 35,,Neptune City,NJ,7753,United States,(732) 776-7171,40.2019959,-74.0303058,,,,
Shoprite,IRI_00245212,1801 Hwy 35,,Belmar,NJ,7719,United States,(732) 681-0900,40.1671538,-74.0481736,,,,
K Mart,IRI_06001852,1825 Hwy 35,,Wall,NJ,7719,United States,(732) 280-8010,40.165073,-74.049517,,,,
Shoprite,IRI_00689478,2433 Hwy 34,,Manasquan,NJ,8736,United States,(732) 292-9780,40.1219,-74.0797,,,,
Stop & Shop,IRI_08061443,505 Richmond Ave,,Point Pleasant,NJ,8742,United States,(732) 701-6910,40.091627,-74.049796,,,,
Stop & Shop,IRI_00683919,3230 Bridge Ave,,Point Pleasant Beach,NJ,8742,United States,(732) 892-0808,40.0782324,-74.0874618,,,,
Shoprite,IRI_00222077,South St & Rte 9,,Freehold,NJ,7728,United States,(732) 462-3120,40.24003,-74.276004,,,,
Walmart Supercenter,IRI_01188294,326 W Main St,,Freehold,NJ,7728,United States,(732) 780-3048,40.2445892,-74.2975903,,,,
Stop & Shop,IRI_00533220,160 Village Center Dr,,Freehold,NJ,7728,United States,(732) 409-2953,40.240177,-74.307643,,,,
Shoprite,IRI_08095835,4594 Rte 9 S,,Howell,NJ,7731,United States,(999) 999-9999,40.1411137,-74.2255256,,,,
Shoprite,IRI_00934426,260 N County Line Rd,,Jackson,NJ,8527,United States,(732) 886-7009,40.138018,-74.294544,,,,
Stop & Shop,IRI_01089691,4861 Us Hwy 9,,Howell,NJ,7731,United States,(732) 363-2874,40.1340213,-74.2237944,,,,
Walmart Supercenter,IRI_00653604,4900 Us Hwy #9,,Howell,NJ,7731,United States,(732) 886-9100,40.132181,-74.223896,,,,
Target,IRI_01086797,4955 Us Hwy 9,,Howell,NJ,7731,United States,(732) 363-4182,40.132245,-74.223487,,,,
Stop & Shop,IRI_00535890,2275 W County Line Rd,,Jackson,NJ,8527,United States,(732) 905-3300,40.127065,-74.271217,,,,
Shoprite,IRI_00656648,280 Us Hwy 9,,Marlboro,NJ,7751,United States,(732) 617-0404,40.3410787,-74.3078304,,,,
Walmart Supercenter,IRI_00641607,1872 Rte 88,,Brick,NJ,8724,United States,(732) 840-7772,40.07077,-74.123172,,,,
Stop & Shop,IRI_01114065,2754 Hylan Blvd,,Staten Island,NY,10306,United States,(718) 980-0892,40.5653335,-74.1146181,,,,
Acme Market,IRI_00655181,3500 Rte 9,,Old Bridge,NJ,8857,United States,(732) 607-9275,40.4382,-74.3003,,,,
Walmart,IRI_00933131,1126 Us Hwy 9,,Old Bridge,NJ,8857,United States,(732) 525-8030,40.437054,-74.301021,,,,
Shoprite,IRI_08066832,2239 Us 9,,Old Bridge,NJ,8857,United States,(732) 727-3533,40.411527,-74.30537,,,,
Shoprite,IRI_00259276,2909 Washington Rd,,Parlin,NJ,8859,United States,(732) 525-8282,40.465099,-74.313053,,,,
Walmart Supercenter,IRI_08086571,2825 Hwy Rte 18,,Old Bridge,NJ,8857,United States,(732) 955-0139,40.3859482,-74.3333748,,,,
Shoprite,IRI_00220679,668 Rte 70,,Bricktown,NJ,8723,United States,(732) 477-7906,40.060467,-74.141302,,,,
Stop & Shop,IRI_00204359,1600 Perrineville Rd Monroe,,Monroe Township,NJ,8831,United States,(609) 655-8900,40.3160178,-74.4385148,,,,
Shoprite,IRI_00222625,380 Summerhill Rd,,Spotswood,NJ,8884,United States,(732) 251-5202,40.407,-74.387258,,,,
Shoprite,IRI_00675323,319 Rte 130,,Hightstown,NJ,8520,United States,(609) 448-1040,40.2786,-74.53267,,,,
Stop & Shop,IRI_00655117,647 State Rte 18,,East Brunswick,NJ,8816,United States,(732) 967-9410,40.4328729,-74.3877647,,,,
Walmart,IRI_01188295,839 Us Hwy 130,,East Windsor,NJ,8520,United States,(609) 443-6159,40.255298,-74.553408,,,,
Stop & Shop,IRI_00688571,2360 Lakewood Rd,,Toms River,NJ,8755,United States,(732) 942-9860,40.044246,-74.222397,,,,
Stop & Shop,IRI_00259630,2965 Cropsey Ave,,Brooklyn,NY,11214,United States,(718) 266-4935,40.582697,-73.986067,,,,
Shoprite,IRI_00255107,2424 Hylan Blvd,,Staten Island,NY,10306,United States,(718) 979-3303,40.571941,-74.108096,,,,
Shoprite,IRI_00220462,281-031 Rt 10 & Commerce Blv,,Succasunna,NJ,7876,United States,(973) 584-1322,40.87198,-74.64517,,,,
Walmart,IRI_00689290,2569 To 461 Rt 10 Suite 29,,Ledgewood,NJ,7852,United States,(973) 252-7666,40.88414,-74.66372,,,,
Weis Markets,IRI_00535548,293 Us Hwy 206,,Flanders,NJ,7836,United States,(973) 598-8910,40.8310977,-74.708875,,,,
Walmart,IRI_00934051,40 International Dr S,,Flanders,NJ,7836,United States,(973) 347-7400,40.8859515,-74.7076498,,,,
Shoprite,IRI_00687438,90 Bartley Rd,,Flanders,NJ,7836,United States,(973) 252-5160,40.8325,-74.7131,,,,
Shoprite,IRI_00211075,75 Us Hwy 46,,Netcong,NJ,7857,United States,(973) 347-0138,40.8974376,-74.7035673,,,,
Weis Markets,IRI_00932943,2045 State Rte 57,,Hackettstown,NJ,7840,United States,(908) 850-8800,40.82692,-74.832404,,,,
Shoprite,IRI_01091859,1965 Rt 57 W & Allen St,,Hackettstown,NJ,7840,United States,(908) 852-1200,40.82402,-74.83388,,,,
Walmart Supercenter,IRI_00687812,1885 State Rte 57 Ste 100,,Hackettstown,NJ,7840,United States,(908) 979-9342,40.817778,-74.83931,,,,
Shoprite,IRI_00218211,120 Rte 206 S,,Chester,NJ,7930,United States,(908) 879-5836,40.7803931,-74.6980819,,,,
Shoprite,IRI_08051802,2 Clubhouse Dr,,Washington,NJ,7882,United States,(908) 835-0761,40.7406565,-74.9761436,,,,
Walmart Supercenter,IRI_08066782,1300 Us Hwy 22,,Phillipsburg,NJ,8865,United States,(999) 999-9999,40.6786867,-75.1446156,,,,
Weis Markets,IRI_00236824,1309 Blue Valley Dr,,Pen Argyl,PA,18072,United States,(610) 863-6689,40.872937,-75.237347,,,,
Shoprite,IRI_00670871,1207 Rte 22,,Phillipsburg,NJ,8865,United States,(908) 454-8086,40.685305,-75.1505983,,,,
Weis Markets,IRI_08062003,3825 Sullivan Trail,,Easton,PA,18040,United States,(610) 252-6539,40.745621,-75.242933,,,,
Stop & Shop,IRI_00684373,1278 Hwy 22,,Phillipsburg,NJ,8865,United States,(908) 859-8220,40.6793223,-75.1454719,,,,
Target,IRI_01077998,1204 New Brunswick Ave,,Phillipsburg,NJ,8865,United States,(908) 387-1305,40.674133,-75.137316,,,,
Giant,IRI_01078036,301 Town Center Blvd,,Easton,PA,18040,United States,(610) 559-8770,40.712325,-75.2211899,,,,
Giant,IRI_00650555,837 Male Rd,,Wind Gap,PA,18091,United States,(610) 863-8635,40.838073,-75.299735,,,,
Price Chopper,IRI_08079159,4547 Milford Rd,,East Stroudsburg,PA,18302,United States,(570) 223-2410,41.0456,-75.1214995,,,,
Weis Markets,IRI_00223760,19 Village Sc Rte 209 402,,East Stroudsburg,PA,18301,United States,(570) 223-0870,41.03046,-75.17164,,,,
Walmart Supercenter,IRI_00669821,355 Lincoln Ave,,East Stroudsburg,PA,18301,United States,(570) 424-8415,40.991225,-75.182797,,,,
K Mart,IRI_06000534,300 Lincoln Ave,,East Stroudsburg,PA,18301,United States,(570) 424-8700,40.993136,-75.1844,,,,
Weis Markets,IRI_00205312,695 N Courtland St,,East Stroudsburg,PA,18301,United States,(570) 421-8181,41.017859,-75.182365,,,,
Shoprite,IRI_00222797,Third & Mcconnell St,,Stroudsburg,PA,18360,United States,(570) 424-5715,40.96923,-75.28323,,,,
Walmart,IRI_00689117,Rte 513 And I-78,,Clinton,NJ,8809,United States,(908) 730-8665,40.63118,-74.91958,,,,
Shoprite,IRI_00218663,50 Walmart Plaza,,Clinton,NJ,8809,United States,(908) 730-6800,40.6278747,-74.9193076,,,,
Walmart,IRI_01188323,3576 Us Hwy 22,,Branchburg,NJ,8876,United States,(908) 534-7377,40.613176,-74.7304,,,,
Shoprite,IRI_00933007,3166 Rte 22,,Somerville,NJ,8876,United States,(908) 704-3378,40.6032562,-74.6913815,,,,
Weis Markets,IRI_00229219,1070 N 9th St,,Stroudsburg,PA,18360,United States,(570) 421-7070,40.989214,-75.218311,,,,
Target,IRI_00688487,155 Pocono Commons,,Stroudsburg,PA,18360,United States,(570) 426-1050,40.9952575,-75.2446758,,,,
Giant,IRI_08049472,65 Rte 611,,Bartonsville,PA,18321,United States,(570) 421-1797,41.0044399,-75.2786875,,,,
Weis Markets,IRI_00686035,Rte 611 Tannersville Plz,,Tannersville,PA,18372,United States,(570) 619-5300,41.04761,-75.33541,,,,
Stop & Shop,IRI_00220539,Rte 206 Somerset Ave,,Raritan,NJ,8869,United States,(908) 685-1204,40.57224,-74.64177,,,,
Walmart Supercenter,IRI_00689312,100 N Main St,,Manville,NJ,8835,United States,(908) 575-8997,40.5495234,-74.5858722,,,,
Weis Markets,IRI_01082323,315 Rte 206,,Hillsborough,NJ,8844,United States,(908) 431-0115,40.5159197,-74.6318266,,,,
Shoprite,IRI_01182476,435 Elizabeth Ave,,Somerset,NJ,8873,United States,(732) 356-8703,40.530862,-74.539521,,,,
Shoprite,IRI_00286951,601 Us Hwy 206,,Hillsborough,NJ,8844,United States,(908) 359-7400,40.501649,-74.644987,,,,
Walmart,IRI_00643897,709 S Broadway,,Pennsville,NJ,8070,United States,(856) 935-8200,39.612866,-75.5021607,,,,
Walmart,IRI_01188359,1130 Hwy 77,,Bridgeton,NJ,8302,United States,(856) 453-0418,39.469845,-75.206637,,,,
Shoprite,IRI_00931861,1000 Pearl St N,,Bridgeton,NJ,8302,United States,(856) 451-1577,39.456231,-75.211549,,,,
Shoprite,IRI_01115472,143 Bridgeton Pike,,Mullica Hill,NJ,8062,United States,(856) 357-9301,39.723942,-75.220615,,,,
Shoprite,IRI_00661630,201 William L Dalton Dr,,Glassboro,NJ,8028,United States,(856) 863-3700,39.7197821,-75.1044023,,,,
Acme Market,IRI_01091820,1619 Center Square Rd,,Swedesboro,NJ,8085,United States,(856) 467-8936,39.782352,-75.390787,,,,
Food Lion,IRI_08058573,4401 Governor Printz Blvd,,Wilmington,DE,19802,United States,(302) 762-2567,39.753042,-75.507259,,,,
Food Lion,IRI_08048521,1200 Beaver Brook Plaza,,New Castle,DE,19720,United States,(302) 325-9158,39.641492,-75.624883,,,,
Walmart,IRI_00687821,117 Wilton Blvd,,New Castle,DE,19720,United States,(302) 324-0900,39.652733,-75.623339,,,,
Shoprite,IRI_01191597,501 S Walnut St,,Wilmington,DE,19801,United States,(302) 225-6900,39.731212,-75.553998,,,,
Shoprite,IRI_08079119,1255 W Landis Ave,,Vineland,NJ,8360,United States,(856) 691-9395,39.4871388,-75.0492468,,,,
Walmart Supercenter,IRI_08055696,1070 W Landis Ave,,Vineland,NJ,8360,United States,(856) 205-9940,39.4873109,-75.0470178,,,,
Shoprite,IRI_00684103,Rt 70 & Cornell Ave,,Cherry Hill,NJ,8002,United States,(856) 910-2300,39.93119,-75.02502,,,,
Walmart,IRI_01112944,500 Rte 38,,Cherry Hill,NJ,8002,United States,(856) 665-5430,39.936317,-75.046911,,,,
Shoprite,IRI_00649335,1000 Nixon Dr,,Mount Laurel,NJ,8054,United States,(856) 439-9700,39.938924,-74.966934,,,,
Acme Market,IRI_00218111,100 N Blackhorse Pike,,Audubon,NJ,8106,United States,(856) 547-3938,39.8992,-75.093719,,,,
Walmart,IRI_01188322,130 Black Horse Pike,,Audubon,NJ,8106,United States,(856) 310-1470,39.8981571,-75.0928171,,,,
Shoprite,IRI_01191608,141 Rte 130 S Ste K,,Cinnaminson,NJ,8077,United States,(856) 303-7676,39.9889265,-75.0086269,,,,
Shoprite,IRI_00236401,130 N White Horse Pike,,Lawnside,NJ,8045,United States,(856) 547-2590,39.8677616,-75.0406044,,,,
Shoprite,IRI_00654284,400 E Evesham Rd,,Cherry Hill,NJ,8003,United States,(856) 216-1400,39.860616,-74.976224,,,,
Target,IRI_01118139,2701 Castor Ave,,Philadelphia,PA,19134,United States,(215) 305-9050,39.990284,-75.090598,,,,
Target,IRI_00680925,1139 White Horse Rd,,Voorhees,NJ,8043,United States,(856) 566-0900,39.851279,-74.985075,,,,
Shoprite,IRI_00654371,Rt 130 & Browning Rd,,Brooklawn,NJ,8030,United States,(856) 742-8700,39.89045,-75.11833,,,,
Shoprite,IRI_00656663,892 Union Mill Rd,,Mount Laurel,NJ,8054,United States,(856) 365-0341,39.937439,-74.916882,,,,
Acme Market,IRI_00931074,912 W Bay Ave,,Barnegat,NJ,8005,United States,(609) 607-5909,39.758579,-74.24706,,,,
Target,IRI_01188194,209 Stafford Park Blvd,,Manahawkin,NJ,8050,United States,(609) 978-4922,39.71263,-74.283587,,,,
Shoprite,IRI_00218596,295 Rte 72 E,,Manahawkin,NJ,8050,United States,(609) 597-0091,39.6873594,-74.2517856,,,,
Walmart,IRI_06006894,525 Rte 72 W,,Manahawkin,NJ,8050,United States,(609) 978-8300,39.705,-74.2745,,,,
Shoprite,IRI_01186793,501 Rte 9 In The Town Center,,Waretown,NJ,8758,United States,(609) 971-6001,39.79679,-74.25999,,,,
Walmart Supercenter,IRI_08055733,580 Us Hwy 9,,Lanoka Harbor,NJ,8734,United States,(609) 242-4231,39.858232,-74.177123,,,,
Shoprite,IRI_00220202,Rt 9 & First St,,Lanoka Harbor,NJ,8734,United States,(609) 693-1152,39.8622,-74.16692,,,,
Shoprite,IRI_01097100,431 Atlantic City Blvd,,Bayville,NJ,8721,United States,(732) 606-0800,39.914406,-74.154398,,,,
Shoprite,IRI_08065638,2 Rte 37 W,,Toms River,NJ,8753,United States,(732) 286-4500,39.9633,-74.2012,,,,
Stop & Shop,IRI_01137571,400 Lacey Rd,,Whiting,NJ,8759,United States,(732) 716-1580,39.958072,-74.386679,,,,
Stop & Shop,IRI_00233776,353 Hwy 37 E,,Toms River,NJ,8753,United States,(732) 341-1327,39.958077,-74.1721944,,,,
Walmart,IRI_06006762,950 Rte 37 W,,Toms River,NJ,8755,United States,(732) 349-6000,39.974917,-74.242093,,,,
Shoprite,IRI_00220159,Rt 73 & Minck Ave,,West Berlin,NJ,8009,United States,(856) 768-6450,39.75815,-74.93171,,,,
Walmart Supercenter,IRI_06006573,265 N Rte 73,,West Berlin,NJ,8091,United States,(856) 753-8787,39.808294,-74.930923,,,,
Target,IRI_01132664,487 Cross Keys Rd,,Sicklerville,NJ,8081,United States,(856) 740-2173,39.747378,-74.991359,,,,
Acme Market,IRI_01085964,515 Berlin Cross Keys Rd,,Sicklerville,NJ,8081,United States,(856) 728-3674,39.745074,-74.994029,,,,
Target,IRI_00934140,751 Route 73 S,,Evesham,NJ,8053,United States,(856) 810-8442,39.869,-74.9221,,,,
Shoprite,IRI_00656548,542 Berlin Cross Keys Rd,,Sicklerville,NJ,8081,United States,(856) 262-0411,39.741819,-74.997587,,,,
Shoprite,IRI_00200025,307 W Rte 70,,Marlton,NJ,8053,United States,(856) 983-7370,39.8952,-74.8757,,,,
Walmart,IRI_06006720,150 E Rte 70,,Marlton,NJ,8053,United States,(856) 983-2100,39.894154,-74.910746,,,,
Shoprite,IRI_00203116,1224 Blackwood & Clementon,,Clementon,NJ,8021,United States,(856) 627-6500,39.806,-74.99995,,,,
Shoprite,IRI_00203177,100 S Blackhorse Pike,,Williamstown,NJ,8094,United States,(856) 728-5600,39.688407,-74.991584,,,,
Walmart Supercenter,IRI_06006525,3501 Rte 42,,Turnersville,NJ,8012,United States,(856) 629-3888,39.730512,-75.034056,,,,
Target,IRI_00680924,4001 Black Horse Pike,,Turnersville,NJ,8012,United States,(856) 875-0082,39.7355,-75.039075,,,,
Walmart Supercenter,IRI_08069109,1840 S Black Horse Pike,,Williamstown,NJ,8094,United States,(856) 629-2054,39.6608822,-74.9630431,,,,
Shoprite,IRI_00656123,1200 Chews Landing Rd,,Laurel Springs,NJ,8021,United States,(856) 435-0880,39.820019,-75.038713,,,,
Walmart Supercenter,IRI_08059753,1 Coopertown Blvd,,Somerdale,NJ,8083,United States,(856) 545-9052,39.84057,-75.02894,,,,
Acme Market,IRI_00654309,501 E Evesham Rd,,Runnemede,NJ,8078,United States,(856) 939-5403,39.848107,-75.058825,,,,
Shoprite,IRI_00648607,860 Fischer Blvd,,Toms River,NJ,8753,United States,(732) 270-8833,39.971454,-74.134857,,,,
Target,IRI_00685833,1331 Hooper Ave,,Toms River,NJ,8753,United States,(732) 557-0220,39.9882177,-74.1771768,,,,
Walmart Supercenter,IRI_08055683,2000 Clements Bridge Rd Ste,,Woodbury,NJ,8096,United States,(856) 384-3211,39.835196,-75.096258,,,,
Target,IRI_00933388,1900 Deptford Center Rd,,Deptford,NJ,8096,United States,(856) 401-8878,39.828683,-75.092177,,,,
Target,IRI_01124483,4004 Rte 130 N,,Delran,NJ,8075,United States,(856) 544-9050,40.0293,-74.9317,,,,
Shoprite,IRI_00688836,2200 Bristol Rd,,Bensalem,PA,19020,United States,(215) 757-5491,40.1298707,-74.9227864,,,,
Acme Market,IRI_00225979,1336 Bristol Pike Ste 100,,Cornwells Heights,PA,19020,United States,(215) 638-8190,40.071282,-74.966165,,,,
Walmart Supercenter,IRI_08090938,4301 Byberry Rd,,Philadelphia,PA,19154,United States,(215) 281-3159,40.0816872,-74.964776,,,,
Shoprite,IRI_01108285,1310 Fairview Blvd,,Delran,NJ,8075,United States,(856) 824-1100,40.017557,-74.94468,,,,
Walmart,IRI_01188333,3461 Horizon Blvd,,Bensalem,PA,19020,United States,(215) 942-4005,40.10432,-74.93855,,,,
Walmart,IRI_00655149,100 Commerce Cir,,Bristol,PA,19007,United States,(215) 788-5600,40.100441,-74.873235,,,,
Shoprite,IRI_08096536,1817 Mount Holly Rd,,Burlington,NJ,8016,United States,(609) 387-1602,40.0527996,-74.8423403,,,,
Shoprite,IRI_00213511,9910 Frankford Ave,,Philadelphia,PA,19114,United States,(215) 637-1555,40.063536,-74.985362,,,,
Walmart Supercenter,IRI_00643918,2106 Mount Holly Rd,,Burlington,NJ,8016,United States,(609) 386-8400,40.0514956,-74.8414705,,,,
Giant,IRI_00688529,2721 St Rd,,Bensalem,PA,19020,United States,(215) 604-9924,40.10429,-74.93859,,,,
Acme Market,IRI_00202472,3200-09 Red Lion Rd,,Philadelphia,PA,19114,United States,(215) 637-4620,40.081603,-74.994347,,,,
Shoprite,IRI_01083253,401 South Pitney Rd,,Galloway,NJ,8205,United States,(609) 404-4160,39.460318,-74.494619,,,,
Walmart,IRI_01188288,1740 Rte 38,,Lumberton,NJ,8048,United States,(609) 702-9200,39.979492,-74.768671,,,,
Shoprite,IRI_01086008,1520 Rte 38 E,,Hainesport,NJ,8036,United States,(609) 518-5200,39.9818929,-74.807935,,,,
Shoprite,IRI_00681628,208 Rte 700,,Medford,NJ,8055,United States,(609) 953-7700,39.86365,-74.82244,,,,
Shoprite,IRI_01107160,127 Ark Rd,,Mount Laurel,NJ,8054,United States,(856) 359-2180,39.973572,-74.871313,,,,
Shoprite,IRI_00414318,622 Rt 206 & Martin,,Bordentown,NJ,8505,United States,(609) 298-8700,40.17312,-74.6999,,,,
Acme Market,IRI_01180873,260 Dunns Mills Rd,,Bordentown,NJ,8505,United States,(609) 298-2014,40.1275,-74.7026,,,,
Target,IRI_01108864,4 Centerton Rd,,Mount Laurel,NJ,8054,United States,(856) 533-1197,39.969863,-74.916381,,,,
Shoprite,IRI_00649154,1001 Rte 70 W,,Lakehurst,NJ,8733,United States,(732) 657-0700,39.968655,-74.380274,,,,
Shoprite,IRI_01089291,130 Marketplace Blvd,,Hamilton,NJ,8691,United States,(609) 581-5823,40.191453,-74.644183,,,,
Walmart,IRI_01082109,700 Marketplace Blvd,,Hamilton,NJ,8691,United States,(609) 585-1463,40.1967945,-74.6377654,,,,
Shoprite,IRI_01131905,382 Egg Harbor Rd,,Sewell,NJ,8080,United States,(856) 582-6330,39.753495,-75.078164,,,,
Target,IRI_01190394,675 Woodbury Glassboro Rd,,Sewell,NJ,8080,United States,(856) 415-2380,39.766756,-75.133792,,,,
Shoprite,IRI_06003694,80 S Whitehorse Pike,,Hammonton,NJ,8037,United States,(609) 704-7609,39.6455559,-74.7858688,,,,
Shoprite,IRI_01110956,401 Harmony Rd,,Gibbstown,NJ,8027,United States,(856) 423-3440,39.816835,-75.259211,,,,
Walmart,IRI_00931299,1570 Chester Pike,,Eddystone,PA,19022,United States,(610) 447-1860,39.866525,-75.341275,,,,
Shoprite,IRI_01116950,1568 Chester Pike Unit B 1,,Eddystone,PA,19022,United States,(610) 490-1200,39.866532,-75.341262,,,,
The Fresh Grocer,IRI_00275119,5005 Edgemont Ave,,Brookhaven,PA,19015,United States,(610) 872-8855,39.879629,-75.397908,,,,
Giant,IRI_01118193,3400 Concord Rd,,Aston,PA,19014,United States,(610) 497-5375,39.867085,-75.424761,,,,
Food Lion,IRI_00266202,3609 Philadelphia Pike,,Claymont,DE,19703,United States,(302) 798-3079,39.803749,-75.455878,,,,
Walmart,IRI_00931315,605 Conchester Hwy,,Boothwyn,PA,19061,United States,(610) 494-2535,39.849627,-75.444692,,,,
Walmart,IRI_01188373,50 N Macdade Blvd,,Glenolden,PA,19036,United States,(610) 583-2682,39.9056949,-75.2911038,,,,
Target,IRI_08048522,1200 Baltimore Pike,,Springfield,PA,19064,United States,(484) 470-2320,39.913613,-75.349559,,,,
Shoprite,IRI_00238482,140 N Mcdade Blvd,,Glenolden,PA,19036,United States,(610) 461-2572,39.907142,-75.287719,,,,
Giant,IRI_00654936,950 Baltimore Pike,,Springfield,PA,19064,United States,(610) 604-1570,39.914778,-75.341171,,,,
K Mart,IRI_06000206,222 Bridgeton Pike,,Mantua,NJ,8051,United States,(856) 468-7575,39.790957,-75.175128,,,,
Shoprite,IRI_00654486,Rt 45 & Parkville Station Rd,,Woodbury Heights,NJ,8096,United States,(856) 468-8700,39.82963,-75.12773,,,,
Acme Market,IRI_00282620,631 Mantua Ave,,Woodbury,NJ,8096,United States,(856) 848-0224,39.827736,-75.159282,,,,
Walmart Supercenter,IRI_08055728,820 Cooper St,,Woodbury,NJ,8096,United States,(856) 686-0133,39.8306779,-75.1303054,,,,
Shoprite,IRI_01108348,2946 Island Ave,,Philadelphia,PA,19153,United States,(215) 492-1333,39.903459,-75.240416,,,,
Giant,IRI_01127043,4001 New Falls Rd,,Levittown,PA,19056,United States,(215) 949-1408,40.132987,-74.886588,,,,
Walmart Supercenter,IRI_00643907,180 Levittown Ctr,,Levittown,PA,19055,United States,(215) 949-6600,40.1422,-74.8196,,,,
K Mart,IRI_06001382,1061 Whitehorse Ave,,Trenton,NJ,8610,United States,(609) 585-9700,40.206564,-74.694889,,,,
Shoprite,IRI_00217346,547 S Oxford Valley Rd,,Fairless Hills,PA,19030,United States,(215) 547-4600,40.167614,-74.847031,,,,
Target,IRI_00680927,857 Baltimore Pike,,Springfield,PA,19064,United States,(610) 338-0530,39.9159237,-75.3360045,,,,
Walmart,IRI_01188364,1251 Centerville Rd,,Wilmington,DE,19808,United States,(302) 683-9312,39.732383,-75.620121,,,,
Shoprite,IRI_00200063,1600 W Newport Pike,,Wilmington,DE,19804,United States,(302) 999-1227,39.715539,-75.629222,,,,
Target,IRI_08056653,800 Christiana Mall,,Newark,DE,19702,United States,(302) 669-4009,39.677923,-75.648845,,,,
Giant,IRI_00652242,300 Eden Sq,,Bear,DE,19701,United States,(302) 832-0166,39.631547,-75.6557541,,,,
Giant,IRI_00654285,4301 Concord Pike,,Wilmington,DE,19803,United States,(302) 475-5862,39.814392,-75.549523,,,,
Pathmark,IRI_00263884,330 W Oregon Ave,,Philadelphia,PA,19148,United States,(215) 462-4750,39.914343,-75.152967,,,,
Target,IRI_00934952,1 Mifflin St,,Philadelphia,PA,19148,United States,(215) 463-7311,39.923603,-75.14432,,,,
Walmart Supercenter,IRI_00649730,1675 S Christopher Columbus,,Philadelphia,PA,19148,United States,(215) 468-4220,39.92641,-75.144648,,,,
Shoprite,IRI_00675434,24th St & Oregon Ave,,Philadelphia,PA,19145,United States,(215) 336-7300,39.919769,-75.18826,,,,
Walmart Supercenter,IRI_00645021,4620 Black Horse Pike,,Mays Landing,NJ,8330,United States,(609) 625-8200,39.4536214,-74.6513115,,,,
Target,IRI_00671012,380 Consumer Sq,,Mays Landing,NJ,8330,United States,(609) 645-8133,39.453321,-74.63215,,,,
Shoprite,IRI_00266102,3600 E Landis Ave,,Vineland,NJ,8360,United States,(856) 691-0106,39.483037,-74.958265,,,,
Giant,IRI_01107159,200 Dove Run Centre,,Middletown,DE,19709,United States,(302) 828-9180,39.4541447,-75.6883832,,,,
Shoprite,IRI_00414574,1101 Governors Place,,Bear,DE,19701,United States,(302) 392-2900,39.6338,-75.6604,,,,
K Mart,IRI_06006803,401 Governor Place,,Bear,DE,19701,United States,(302) 834-5580,39.633695,-75.663349,,,,
Food Lion,IRI_00658837,501 W Main St,,Middletown,DE,19709,United States,(302) 376-0690,39.449383,-75.725637,,,,
Food Lion,IRI_08050308,1607 Pulaski Hwy,,Bear,DE,19701,United States,(302) 836-6071,39.620136,-75.691277,,,,
Walmart Supercenter,IRI_08055688,705 Middletown Warwick Rd,,Middletown,DE,19709,United States,(302) 449-1254,39.446346,-75.732419,,,,
Walmart,IRI_01081413,2501 Rte 130 S,,Cinnaminson,NJ,8077,United States,(856) 303-2119,40.006297,-74.975866,,,,
Shoprite,IRI_00684245,3745 Aramingo Ave,,Philadelphia,PA,19137,United States,(215) 288-7300,39.99533,-75.093161,,,,
Shoprite,IRI_00200060,6725 Frankford Ave,,Philadelphia,PA,19135,United States,(215) 331-6030,40.0318,-75.052693,,,,
Acme Market,IRI_00206401,6601 Roosevelt Ave,,Philadelphia,PA,19149,United States,(215) 338-4700,40.036322,-75.063532,,,,
Target,IRI_01192866,7400 Bustleton Ave,,Philadelphia,PA,19152,United States,(267) 350-9480,40.049961,-75.058058,,,,
Acme Market,IRI_00290042,8200 Roosevelt Blvd,,Philadelphia,PA,19152,United States,(215) 338-8077,40.059459,-75.044509,,,,
Safeway,IRI_00688670,2522 Foulk Rd,,Wilmington,DE,19810,United States,(302) 475-8803,39.827559,-75.500179,,,,
Shoprite,IRI_00648606,1300 Rocky Run Pkwy,,Wilmington,DE,19803,United States,(302) 477-3270,39.825054,-75.549115,,,,
Target,IRI_00681211,1050 Brandywine Pkwy,,Wilmington,DE,19803,United States,(302) 478-2500,39.832546,-75.542345,,,,
Shoprite,IRI_00681203,6301 Oxford Ave,,Philadelphia,PA,19111,United States,(215) 744-9500,40.044824,-75.088595,,,,
Shoprite,IRI_00224400,616 White Horse Pike,,Absecon,NJ,8201,United States,(609) 646-2448,39.43362,-74.513377,,,,
Shoprite,IRI_00205517,3003 English Creek Ave,,Mckee City,NJ,8234,United States,(609) 645-7553,39.432107,-74.60965,,,,
The Fresh Grocer,IRI_00240652,1501 N Broad St,,Philadelphia,PA,19122,United States,(877) 376-4761,39.9758209,-75.1583051,,,,
Pathmark,IRI_00260797,3021 Grays Fry Ave,,Philadelphia,PA,19146,United States,(215) 551-7275,39.939219,-75.193983,,,,
Walmart,IRI_01188301,3159 Rte 9 S,,Rio Grande,NJ,8242,United States,(609) 465-2204,39.020393,-74.870782,,,,
Shoprite,IRI_00277913,1700 Rte 47 S,,Rio Grande,NJ,8242,United States,(609) 399-3534,39.0107211,-74.8692071,,,,
Shoprite,IRI_01195163,4 W Roosevelt Blvd,,Marmora,NJ,8223,United States,(609) 545-0410,39.264494,-74.64714,,,,
Shoprite,IRI_00220206,23 Bethel Rd,,Somers Point,NJ,8244,United States,(609) 927-8133,39.3334664,-74.5947326,,,,
Shoprite,IRI_01180933,2130 N Second St,,Millville,NJ,8332,United States,(856) 776-2300,39.4220243,-75.0396864,,,,
Target,IRI_01132661,2100 N 2nd St,,Millville,NJ,8332,United States,(856) 327-7340,39.421427,-75.03953,,,,
Walmart,IRI_00649726,2291 N 2nd St,,Millville,NJ,8332,United States,(856) 825-4200,39.4251002,-75.0396607,,,,
Food Lion,IRI_01082449,17232 N Village Main Blvd,,Lewes,DE,19958,United States,(302) 645-6933,38.751364,-75.168089,,,,
Giant,IRI_00684648,19312 Lighthouse Plaza Blvd,,Rehoboth Beach,DE,19971,United States,(302) 227-5950,38.723381,-75.120839,,,,
Safeway,IRI_01120113,19238 Coastal Hwy,,Rehoboth Beach,DE,19971,United States,(302) 226-3073,38.725037,-75.12556,,,,
Walmart,IRI_00933486,18922 Rehoboth Mall Blvd,,Rehoboth Beach,DE,19971,United States,(302) 644-8014,38.727594,-75.132046,,,,
Food Lion,IRI_00213100,19287 Miller Rd Unit 14,,Rehoboth Beach,DE,19971,United States,(302) 227-5756,38.722892,-75.12553,,,,
Food Lion,IRI_01089118,110 Brdkill Rd,,Milton,DE,19968,United States,(302) 684-5880,38.78815,-75.314138,,,,
Food Lion,IRI_00648734,951 N Dupont Blvd,,Milford,DE,19963,United States,(302) 424-0462,38.930706,-75.431219,,,,
Walmart Supercenter,IRI_00932274,939 N Dupont Blvd,,Milford,DE,19963,United States,(302) 422-2854,38.92967,-75.43178,,,,
Giant,IRI_01186348,25939 Plaza Dr,,Millsboro,DE,19966,United States,(302) 947-4370,38.631974,-75.193869,,,,
Food Lion,IRI_00533985,24832 John J Williams Hwy,,Massey's Landing,DE,19966,United States,(302) 947-1113,38.6370402,-75.1939054,,,,
Harris Teeter,IRI_01186792,26370 Bay Farm Rd,,Millsboro,DE,19966,United States,(302) 945-1705,38.62655,-75.195033,,,,
Acme Market,IRI_00658224,301 S Main St,,Vineland,NJ,8360,United States,(856) 507-1101,39.480524,-75.000493,,,,
Walmart Supercenter,IRI_06006520,36 Jerome Dr,,Dover,DE,19901,United States,(302) 674-2159,39.16939,-75.48044,,,,
Target,IRI_00931577,148 John Hunn Brown Rd,,Dover,DE,19901,United States,(302) 741-0434,39.159997,-75.509647,,,,
Safeway,IRI_00933419,190 John Hunn Brown Rd,,Dover,DE,19901,United States,(302) 730-9100,39.15803,-75.508083,,,,
Food Lion,IRI_00681491,215 Stadium St,,Smyrna,DE,19977,United States,(302) 659-5593,39.280807,-75.59114,,,,
Acme Market,IRI_00415155,1001 N Dupont Hwy,,Dover,DE,19901,United States,(302) 674-8307,39.186567,-75.536575,,,,
Food Lion,IRI_00680630,250 Gateway S Blvd,,Dover,DE,19904,United States,(302) 698-1445,39.1234,-75.497188,,,,
Shoprite,IRI_00234702,1225 Rt 33 Hamilton Plaza,,Trenton,NJ,8690,United States,(609) 890-8088,40.2276461,-74.663939,,,,
Acme Market,IRI_00644678,953 Route #33,,Hamilton Sq,NJ,8690,United States,(609) 890-2551,40.229311,-74.670438,,,,
Acme Market,IRI_00219130,2497 Brunswick Ave,,Lawrenceville,NJ,8648,United States,(609) 883-9706,40.259321,-74.725382,,,,
Giant,IRI_08011854,833 W Trenton Ave,,Morrisville,PA,19067,United States,(215) 295-8032,40.209426,-74.798357,,,,
Shoprite,IRI_00657864,1325 Us Hwy 206 N,,Montgomery,NJ,8558,United States,(609) 279-9800,40.4051905,-74.6492101,,,,
Stop & Shop,IRI_00219680,3333 Rte 27,,Franklin Park,NJ,8823,United States,(732) 398-1622,40.4294293,-74.55689,,,,
Stop & Shop,IRI_01193252,1221 Rte 27,,Somerset,NJ,8873,United States,(732) 214-1127,40.4740334,-74.4901114,,,,
Shoprite,IRI_00233775,400 Renaissance Blvd & Rt 13,,North Brunswick,NJ,8902,United States,(732) 940-3112,40.4358023,-74.4898357,,,,
Stop & Shop,IRI_01118204,940 Easton Ave,,Somerset,NJ,8873,United States,(732) 828-0139,40.513465,-74.486601,,,,
Target,IRI_00681848,500 Nassau Park Blvd,,Princeton,NJ,8540,United States,(609) 951-8555,40.304651,-74.677714,,,,
Walmart,IRI_00651683,101 Nassau Park Blvd,,Princeton,NJ,8540,United States,(609) 987-0202,40.3041601,-74.6773973,,,,
Shoprite,IRI_01097099,3373 Brunswick Pike,,Lawrenceville,NJ,8648,United States,(609) 275-8555,40.294479,-74.682962,,,,
Shoprite,IRI_00256464,2555 Pennington Rd,,Pennington,NJ,8534,United States,(609) 882-0711,40.307745,-74.787005,,,,
Stop & Shop,IRI_01127198,800f Denow Rd,,Pennington,NJ,8534,United States,(609) 737-9327,40.2998703,-74.7823303,,,,
Stop & Shop,IRI_01078034,24 Summerfield Blvd,,Dayton,NJ,8810,United States,(732) 329-0398,40.379176,-74.511838,,,,
Shoprite,IRI_00219794,272 Hwy 202 31 N,,Flemington,NJ,8822,United States,(908) 782-2553,40.4977669,-74.8567968,,,,
Giant,IRI_00649350,471 Oxford Valley Rd,,Fairless Hills,PA,19030,United States,(215) 949-8941,40.170955,-74.851816,,,,
Shoprite,IRI_00410581,1750 N Olden Ave,,Ewing,NJ,8638,United States,(609) 219-0202,40.2481571,-74.7696357,,,,
Target,IRI_00680926,2331 E Lincoln Hwy,,Langhorne,PA,19047,United States,(215) 269-0532,40.178825,-74.879731,,,,
Shoprite,IRI_08090156,1603 Big Oak Rd,,Yardley,PA,19067,United States,(215) 595-0078,40.1985869,-74.8649222,,,,
Giant,IRI_00652649,6542 E Logan Sq,,New Hope,PA,18938,United States,(215) 862-9061,40.3568026,-74.9772181,,,,
Giant,IRI_00219910,3 Doublewoods Rd,,Langhorne,PA,19047,United States,(215) 968-0676,40.218303,-74.926157,,,,
Giant,IRI_00284933,700 Stony Hill Rd,,Yardley,PA,19067,United States,(215) 493-3540,40.222085,-74.876142,,,,
Stop & Shop,IRI_00668865,334 Hwy 31,,Flemington,NJ,8822,United States,(908) 782-8700,40.505692,-74.8454113,,,,
Giant,IRI_08048027,4357 W Swamp Rd,,Doylestown,PA,18902,United States,(267) 885-0920,40.3310995,-75.1339018,,,,
Giant,IRI_00931075,2395 York Rd,,Jamison,PA,18929,United States,(215) 918-1220,40.260406,-75.086522,,,,
Weis Markets,IRI_00205230,73 Old Dublin Pke,,Doylestown,PA,18901,United States,(215) 345-1830,40.323479,-75.132886,,,,
Giant,IRI_00279742,5858 Easton Rd,,Plumsteadville,PA,18949,United States,(215) 766-8665,40.3872,-75.1469,,,,
Walmart Supercenter,IRI_08055729,152 Rte 31 N,,Flemington,NJ,8822,United States,(908) 788-6769,40.5238169,-74.8546131,,,,
Giant,IRI_00200055,200 Town Center,,New Britain,PA,18901,United States,(215) 345-0334,40.297535,-75.188795,,,,
Giant,IRI_00661551,168 N Flowers Mill Rd,,Langhorne,PA,19047,United States,(215) 741-3360,40.181669,-74.907435,,,,
Stop & Shop,IRI_00278294,55 Brick Blvd Ste 1,,Brick,NJ,8723,United States,(732) 255-9879,40.0239776,-74.1438999,,,,
Giant,IRI_01111500,801 S 25th St,,Easton,PA,18045,United States,(484) 546-0084,40.6775126,-75.2468672,,,,
Weis Markets,IRI_00260632,3011 William Penn Hwy,,Easton,PA,18045,United States,(610) 923-7501,40.677045,-75.261008,,,,
Target,IRI_01197085,3835 Dryland Way,,Easton,PA,18045,United States,(610) 250-5280,40.7102,-75.28,,,,
Walmart,IRI_00643863,979 Rte#1 S,,North Brunswick,NJ,8902,United States,(732) 545-4499,40.459982,-74.465554,,,,
Shoprite,IRI_00238441,14-22 W Prospect St,,East Brunswick,NJ,8816,United States,(732) 257-7575,40.43224,-74.41304,,,,
Walmart Supercenter,IRI_08091489,290 State Rte 18,,East Brunswick,NJ,8816,United States,(732) 387-1059,40.457837,-74.4012963,,,,
Stop & Shop,IRI_00271083,424 Raritan Ave,,Highland Park,NJ,8904,United States,(732) 572-4155,40.499864,-74.425683,,,,
Walmart,IRI_01188315,3926 Linden St,,Bethlehem,PA,18020,United States,(610) 867-1300,40.6443561,-75.3190188,,,,
Walmart Supercenter,IRI_00656160,3722 Easton Nazareth Hwy,,Easton,PA,18045,United States,(610) 250-8603,40.713877,-75.28408,,,,
Giant,IRI_00220729,859 Nazareth Pike,,Nazareth,PA,18064,United States,(610) 759-7213,40.7308761,-75.3139406,,,,
Vons,IRI_00278899,5610 Lake Isabella Blvd,,Lake Isabella,CA,93240,United States,(760) 379-4461,35.618721,-118.477073,,,,
Target,IRI_00641761,3401 Mall View Rd,,Bakersfield,CA,93306,United States,(661) 872-9929,35.394816,-118.95564,,,,
Walmart Supercenter,IRI_06005371,2601 Fashion Pl,,Bakersfield,CA,93306,United States,(661) 873-7120,35.390527,-118.961514,,,,
Albertsons,IRI_00647770,2691 Mt Vernon Ave,,Bakersfield,CA,93306,United States,(661) 872-3511,35.396663,-118.967389,,,,
Walgreens,IRI_00652534,2628 Mount Vernon Ave,,Bakersfield,CA,93306,United States,(661) 871-3855,35.392601,-118.967629,,,,
Foods Co,IRI_00644549,2505 Haley St,,Bakersfield,CA,93305,United States,(661) 873-2052,35.394047,-118.976274,,,,
Walmart Neighborhood Market,IRI_08097181,5037 E Brundage Ln,,Bakersfield,CA,93307,United States,(999) 999-9999,35.3540916,-118.9480668,,,,
Walmart Neighborhood Market,IRI_08090874,3111 N Chester,,Bakersfield,CA,93308,United States,(661) 368-7010,35.4344072,-119.0215334,,,,
Vons,IRI_00254751,2401 N Chester Ave,,Bakersfield,CA,93308,United States,(661) 399-4301,35.42784,-119.021392,,,,
Albertsons/sav-on,IRI_01083599,1520 Brundage Lane,,Bakersfield,CA,93304,United States,(661) 328-0818,35.354006,-119.019329,,,,
Albertsons,IRI_00648671,775 S Tucker Rd,,Tehachapi,CA,93561,United States,(661) 823-7090,35.124655,-118.467821,,,,
Albertsons,IRI_01082037,6045 Coffee Rd,,Bakersfield,CA,93308,United States,(661) 587-2870,35.413333,-119.092448,,,,
Safeway,IRI_00253478,230 Morehead St,,Chadron,NE,69337,United States,(308) 432-4428,42.83088,-103.003187,,,,
Walmart Supercenter,IRI_00673550,510 Linden St,,Chadron,NE,69337,United States,(308) 432-6999,42.826755,-103.022869,,,,
Safeway,IRI_00274924,500 E Third St,,Alliance,NE,69301,United States,(308) 762-4661,42.097286,-102.864984,,,,
Target,IRI_00641857,1401 Frontage Rd,,Scottsbluff,NE,69361,United States,(308) 632-6223,41.868581,-103.644996,,,,
Walmart Supercenter,IRI_06006198,3322 Ave I,,Scottsbluff,NE,69361,United States,(308) 632-2666,41.879165,-103.675714,,,,
Safeway,IRI_00280539,601 Broadway,,Scottsbluff,NE,69361,United States,(308) 635-1232,41.853674,-103.662431,,,,
Target,IRI_01190046,1415 Eglin St,,Rapid City,SD,57701,United States,(605) 341-8620,44.0994167,-103.1877566,,,,
Family Thrift Center,IRI_00241097,1516 E Saint Patrick St,,Rapid City,SD,57703,United States,(605) 343-4326,44.0676371,-103.1903435,,,,
Family Thrift Center,IRI_00671112,751 Mount View Rd,,Rapid City,SD,57702,United States,(605) 399-1377,44.0212,-103.39004,,,,
Safeway,IRI_00250939,2120 Mount Rushmore Rd,,Rapid City,SD,57701,United States,(605) 348-5125,44.065221,-103.232305,,,,
Safeway,IRI_00234286,1212 Forest Ave,,Pacific Grove,CA,93950,United States,(831) 375-8262,36.6048705,-121.9207795,,,,
Safeway,IRI_00289771,815 Canyon Del Rey Blvd,,Del Rey Oaks,CA,93940,United States,(831) 393-2090,36.597998,-121.849718,,,,
Target,IRI_00668937,2040 California Ave,,Sand City,CA,93955,United States,(831) 392-1990,36.620219,-121.842813,,,,
Safeway,IRI_01131295,5 Crossroads Blvd,,Carmel,CA,93923,United States,(831) 625-8820,36.538395,-121.908546,,,,
Target,IRI_01182797,133 General Stilwell Dr,,Marina,CA,93933,United States,(831) 883-5720,36.666019,-121.811321,,,,
Safeway,IRI_00213305,104 Mid Valley Ctr,,Carmel,CA,93923,United States,(831) 624-4600,36.522368,-121.810964,,,,
Walmart Supercenter,IRI_01188320,150 Beach Rd,,Marina,CA,93933,United States,(831) 883-9138,36.694394,-121.799179,,,,
Walmart Supercenter,IRI_08059755,1375 N Davis Rd,,Salinas,CA,93907,United States,(831) 998-9080,36.705225,-121.666722,,,,
Safeway,IRI_00532751,1546 N Main St,,Salinas,CA,93906,United States,(831) 442-7500,36.711514,-121.654022,,,,
Target,IRI_00641852,1640 N Main St,,Salinas,CA,93906,United States,(831) 442-0547,36.714473,-121.654667,,,,
Walmart Supercenter,IRI_00689275,1800 N Main,,Salinas,CA,93906,United States,(831) 751-0231,36.71733,-121.655244,,,,
Foods Co,IRI_00227978,1030 E Alisal,,Salinas,CA,93905,United States,(831) 424-0455,36.672687,-121.626756,,,,
Albertsons,IRI_00535551,490 N 2nd E,,Rexburg,ID,83440,United States,(208) 356-0555,43.835628,-111.778,,,,
Albertsons,IRI_00248058,200 S 23rd St,,Bozeman,MT,59718,United States,(406) 586-4785,45.676502,-111.06742,,,,
Safeway,IRI_08065576,1735 W Main St,,Bozeman,MT,59715,United States,(406) 587-9017,45.6795071,-111.061106,,,,
Smiths Food & Drug,IRI_00810413,1400 N 19th Ave,,Bozeman,MT,59718,United States,(406) 586-0080,45.694056,-111.062361,,,,
Walmart Supercenter,IRI_00643936,1500 N 7th Ave,,Bozeman,MT,59715,United States,(406) 585-8788,45.694385,-111.046084,,,,
Target,IRI_00686457,2550 Catron Rd,,Bozeman,MT,59718,United States,(406) 582-9669,45.71212,-111.071437,,,,
Albertsons,IRI_00643749,2120 Park St S,,Livingston,MT,59047,United States,(406) 222-1177,45.6701,-110.5469,,,,
Albertsons,IRI_00673086,6999 Jackrabbit Lane,,Belgrade,MT,59714,United States,(406) 388-0901,45.776812,-111.184995,,,,
Albertsons,IRI_00931273,105 Buffalo Way,,Jackson,WY,83001,United States,(307) 733-5950,43.472576,-110.788245,,,,
Safeway,IRI_00681200,570 N Montana St,,Dillon,MT,59725,United States,(406) 683-5002,45.221515,-112.632688,,,,
Smiths Food & Drug,IRI_01079525,1425 S Hwy 89,,Jackson,WY,83001,United States,(307) 733-8908,43.458804,-110.793486,,,,
Fred Meyer,IRI_00661526,1555 Ngate Mile,,Idaho Falls,ID,83401,United States,(208) 535-2520,43.55167,-111.92506,,,,
Walmart Supercenter,IRI_00932936,3555 Mullan Rd,,Missoula,MT,59808,United States,(406) 829-8489,46.885821,-114.047438,,,,
Walgreens,IRI_01113977,2527 N Reserve St,,Missoula,MT,59808,United States,(406) 543-1163,46.888238,-114.03947,,,,
Target,IRI_00650640,2420 N Reserve St,,Missoula,MT,59808,United States,(406) 543-4000,46.887341,-114.039154,,,,
Albertsons,IRI_00650841,2230 N Reserve St,,Missoula,MT,59808,United States,(406) 728-1116,46.885297,-114.039166,,,,
Walmart Supercenter,IRI_00649018,4000 Hwy 93 S,,Missoula,MT,59804,United States,(406) 251-6060,46.83472,-114.04453,,,,
Albertsons,IRI_00252280,2205 Oxford St,,Missoula,MT,59801,United States,(406) 549-5105,46.850574,-114.016636,,,,
Walgreens,IRI_01137099,2100 Brooks St,,Missoula,MT,59801,United States,(406) 728-2089,46.851488,-114.013785,,,,
Albertsons,IRI_00226362,1003 E Broadway St,,Missoula,MT,59802,United States,(406) 549-2351,46.868015,-113.98048,,,,
Albertsons,IRI_00681639,3800 Russell St,,Missoula,MT,59801,United States,(406) 549-1547,46.835888,-114.018177,,,,
Safeway,IRI_06004692,106 S Shore Rte,,Polson,MT,59860,United States,(406) 883-2340,47.689091,-114.123293,,,,
Walmart Supercenter,IRI_08082023,36318 Memory Ln,,Polson,MT,59860,United States,(406) 883-9211,47.72777,-114.23123,,,,
Albertsons,IRI_00533379,1313 N 1st St,,Hamilton,MT,59840,United States,(406) 363-4555,46.261368,-114.157366,,,,
Albertsons,IRI_00292205,900 W Idaho St,,Kalispell,MT,59901,United States,(406) 257-7127,48.200398,-114.32853,,,,
Walgreens,IRI_01110954,40 W Idaho St,,Kalispell,MT,59901,United States,(406) 257-0714,48.201875,-114.315649,,,,
Smiths Food & Drug,IRI_00247172,195 3rd Ave E N,,Kalispell,MT,59901,United States,(406) 752-5037,48.202698,-114.310433,,,,
Target,IRI_01081952,2365 Us Hwy 93 N,,Kalispell,MT,59901,United States,(406) 751-8700,48.2362282,-114.3303183,,,,
Walmart Supercenter,IRI_00652611,170 Hutton Ranch Rd,,Kalispell,MT,59901,United States,(406) 257-7535,48.2432,-114.3358,,,,
Safeway,IRI_00283564,6580 Hwy 93 S,,Whitefish,MT,59937,United States,(406) 862-3006,48.400172,-114.335289,,,,
Walgreens,IRI_01194539,700 E 13th St,,Whitefish,MT,59937,United States,(406) 862-7391,48.399942,-114.332668,,,,
Smiths Food & Drug,IRI_00205688,419 Nucleus Ave,,Columbia Falls,MT,59912,United States,(406) 892-9080,48.374775,-114.181039,,,,
Stop & Shop,IRI_00684375,1009 Flatbush Ave,,Brooklyn,NY,11226,United States,(718) 469-1300,40.646689,-73.958044,,,,
Stop & Shop,IRI_00671604,34-51 48th St,,Long Island City,NY,11101,United States,(718) 728-7724,40.753162,-73.914703,,,,
Stop & Shop,IRI_00689161,1720 Eastchester Rd,,Bronx,NY,10461,United States,(718) 823-6068,40.846822,-73.8446,,,,
Stop & Shop,IRI_00671519,74-17 Grand Ave,,Maspeth,NY,11378,United States,(718) 803-0863,40.72379,-73.90722,,,,
Stop & Shop,IRI_01109317,8989 Union Tpke,,Glendale,NY,11385,United States,(718) 846-3281,40.705905,-73.857703,,,,
Stop & Shop,IRI_00282948,64-66 Myrtle Ave,,Glendale,NY,11385,United States,(718) 381-5136,40.701015,-73.89123,,,,
Stop & Shop,IRI_00293283,92-10 Atlantic Ave,,Ozone Park,NY,11416,United States,(718) 835-7900,40.687583,-73.850345,,,,
Target,IRI_08089195,815 E Hutchinson River Pkwy,,Bronx,NY,10465,United States,(718) 536-2689,40.8231216,-73.8365762,,,,
Stop & Shop,IRI_00255594,249-26 Northern Blvd,,Little Neck,NY,11362,United States,(718) 423-5601,40.767892,-73.737964,,,,
Stop & Shop,IRI_00204594,156-01 Cross Bay Blvd,,Howard Beach,NY,11414,United States,(718) 738-6875,40.664153,-73.840946,,,,
Shoprite,IRI_00670863,1080 Mcdonald Ave At Ave I,,Brooklyn,NY,11230,United States,(718) 252-5770,40.6269736,-73.9766173,,,,
Target,IRI_01185453,1598 Flatbush Ave,,Brooklyn,NY,11210,United States,(718) 637-5005,40.631694,-73.946552,,,,
Stop & Shop,IRI_00251194,2136 Bartow Ave,,Bronx,NY,10475,United States,(999) 999-9999,40.86933,-73.825768,,,,
Stop & Shop,IRI_00687944,691 Co Op City Blvd,,Bronx,NY,10475,United States,(718) 862-2809,40.879992,-73.822955,,,,
Stop & Shop,IRI_01108280,240 E Sandford Blvd,,Mount Vernon,NY,10550,United States,(914) 663-8752,40.900992,-73.824314,,,,
Stop & Shop,IRI_00688248,28 Harrison St New Rochelle,,New Rochelle,NY,10801,United States,(914) 637-2510,40.9120627,-73.7788499,,,,
Shoprite,IRI_08050830,8 Joyce Rd & Palmer Ave,,New Rochelle,NY,10801,United States,(914) 740-9764,40.9188,-73.77687,,,,
Stop & Shop,IRI_00688244,2425 Palmer Ave,,New Rochelle,NY,10801,United States,(914) 632-7084,40.920737,-73.773798,,,,
Stop & Shop,IRI_01093247,65 Shore Rd,,Port Washington,NY,11050,United States,(516) 767-6910,40.838006,-73.703195,,,,
Stop & Shop,IRI_00270736,420 White Plains Rd,,Eastchester,NY,10709,United States,(914) 337-6670,40.955015,-73.814063,,,,
Acme Market,IRI_00253411,23 Quaker Ridge Rd,,New Rochelle,NY,10804,United States,(914) 636-2133,40.947592,-73.795457,,,,
K Mart,IRI_06003354,Rte 118 355 Downing Dr,,Yorktown Heights,NY,10598,United States,(914) 243-3685,41.27454,-73.783495,,,,
Walmart,IRI_00689279,3133 E Main St,,Mohegan Lake,NY,10547,United States,(914) 526-1100,41.312496,-73.868899,,,,
Stop & Shop,IRI_01108908,1831 E Main St,,Peekskill,NY,10566,United States,(914) 739-3356,41.2962516,-73.8950722,,,,
K Mart,IRI_06003377,987 Route 6,,Mahopac,NY,10541,United States,(845) 628-6247,41.392411,-73.723192,,,,
Shoprite,IRI_00218539,2094 E Main St,,Peekskill,NY,10567,United States,(914) 737-4335,41.3034463,-73.8804324,,,,
Shoprite,IRI_00221588,460 S Riverside Ave,,Croton On Hudson,NY,10520,United States,(914) 271-6400,41.192481,-73.877798,,,,
Acme Market,IRI_00246191,1886 Pleasantville Rd,,Briarcliff Manor,NY,10510,United States,(914) 945-7225,41.164075,-73.846157,,,,
Stop & Shop,IRI_00255432,246 S Highland Ave,,Ossining,NY,10562,United States,(914) 923-6550,41.143238,-73.861311,,,,
Shoprite,IRI_08058661,955 Central Park Ave,,Scarsdale,NY,10583,United States,(914) 874-2973,40.9917989,-73.8217741,,,,
Stop & Shop,IRI_08067404,600 White Plains Rd,,Tarrytown,NY,10591,United States,(914) 631-8566,41.0616455,-73.8361362,,,,
Shoprite,IRI_00294326,960 Broadway Rt 141,,Thornwood,NY,10594,United States,(914) 747-1108,41.125983,-73.780029,,,,
Shoprite,IRI_00205197,66 N Main St,,New City,NY,10956,United States,(845) 638-3218,41.14969,-73.9890279,,,,
Stop & Shop,IRI_06002805,180 N Main St,,New City,NY,10956,United States,(845) 634-2687,41.154914,-73.988711,,,,
Shoprite,IRI_08057524,22 Holt Dr,,Stony Point,NY,10980,United States,(845) 429-0692,41.216787,-73.981796,,,,
Stop & Shop,IRI_01185358,7 Samsondale Plaza,,West Haverstraw,NY,10993,United States,(845) 947-2153,41.2079996,-73.9849777,,,,
Shoprite,IRI_01111504,56 W Ramapo Rd,,Garnerville,NY,10923,United States,(845) 786-3006,41.198957,-74.009279,,,,
Stop & Shop,IRI_00219567,1581 Us Hwy 202,,Pomona,NY,10970,United States,(845) 354-9673,41.183373,-74.047373,,,,
Walmart Supercenter,IRI_00643835,26 W Merritt Blvd,,Fishkill,NY,12524,United States,(845) 896-8192,41.529331,-73.895785,,,,
Shoprite,IRI_00218643,738 Rte 9 Ste 2,,Fishkill,NY,12524,United States,(845) 897-2211,41.538742,-73.9004905,,,,
Hannaford,IRI_01089338,2636 Rt 32,,New Windsor,NY,12553,United States,(845) 562-5169,41.4526751,-74.0570994,,,,
K Mart,IRI_00933599,374 Windsor Hwy Route 32,,Vails Gate,NY,12584,United States,(845) 561-2334,41.458055,-74.055124,,,,
Shoprite,IRI_00934422,384 Windsor Hwy,,Vails Gate,NY,12584,United States,(845) 863-1051,41.457641,-74.055378,,,,
Price Chopper,IRI_00656081,115 Temple Hill Rd Ste D,,New Windsor,NY,12553,United States,(845) 565-8637,41.4553,-74.058249,,,,
Price Chopper,IRI_00242669,39 N Plank Rd,,Newburgh,NY,12550,United States,(845) 569-2620,41.522752,-74.028626,,,,
Shoprite,IRI_00249334,88 N Plank Rd,,Newburgh,NY,12550,United States,(845) 561-9420,41.5271998,-74.03381,,,,
Stop & Shop,IRI_00688246,1429 Rte 300,,Newburgh,NY,12550,United States,(845) 566-4214,41.52427,-74.070275,,,,
Stop & Shop,IRI_00534732,60 Brotherhood Plaza Dr,,Washingtonville,NY,10992,United States,(845) 496-8656,41.42977,-74.162093,,,,
Walmart Supercenter,IRI_00930966,288 Larkin Dr,,Monroe,NY,10950,United States,(845) 783-3505,41.320566,-74.150658,,,,
Stop & Shop,IRI_00219420,475 Rte 17m,,Monroe,NY,10950,United States,(845) 774-8448,41.3185016,-74.1758621,,,,
Shoprite,IRI_00651572,99 Hawkins Dr,,Montgomery,NY,12549,United States,(845) 457-4114,41.512325,-74.211153,,,,
Price Chopper,IRI_00535152,511 Schutt Rd Ext,,Middletown,NY,10940,United States,(845) 344-0300,41.449168,-74.382392,,,,
Hannaford,IRI_01089337,31 Ted Dr,,Pine Bush,NY,12566,United States,(845) 744-2113,41.603382,-74.299461,,,,
Hannaford,IRI_00689135,30 Tower Dr,,Middletown,NY,10941,United States,(845) 695-1800,41.464888,-74.372444,,,,
Walmart Supercenter,IRI_06006775,470 Rte 211 E,,Middletown,NY,10940,United States,(845) 342-0222,41.45559,-74.382159,,,,
Hannaford,IRI_00222817,78 Oak St,,Walden,NY,12586,United States,(845) 778-2220,41.563833,-74.191993,,,,
Shoprite,IRI_00647679,1 Shoprite Blvd,,Ellenville,NY,12428,United States,(845) 647-1090,41.7328766,-74.3823593,,,,
Walmart Supercenter,IRI_08082088,7500 Rte 209,,Napanoch,NY,12458,United States,(845) 647-2671,41.7405823,-74.3709886,,,,
Walmart Supercenter,IRI_00648996,1201 Rte 300,,Newburgh,NY,12550,United States,(845) 567-6007,41.544,-74.0617,,,,
Walmart Supercenter,IRI_00687216,41 Anawana Lake Rd,,Monticello,NY,12701,United States,(845) 796-7202,41.668537,-74.67923,,,,
Shoprite,IRI_00934421,46 Thompson Sq,,Monticello,NY,12701,United States,(845) 794-0777,41.6574795,-74.664632,,,,
Shoprite,IRI_00218500,1955 State Rte 52,,Liberty,NY,12754,United States,(845) 292-3336,41.7849508,-74.7241981,,,,
Stop & Shop,IRI_00650627,653 Hillside Ave,,New Hyde Park,NY,11040,United States,(516) 616-9170,40.742564,-73.694936,,,,
Stop & Shop,IRI_00273081,460 Franklin Ave,,Franklin Square,NY,11010,United States,(516) 352-5332,40.695594,-73.682849,,,,
Shoprite,IRI_00655856,2335 New Hyde Park Rd,,New Hyde Park,NY,11042,United States,(516) 352-1603,40.755985,-73.688147,,,,
Stop & Shop,IRI_01137608,50 Cherry Valley Rd,,West Hempstead,NY,11552,United States,(516) 539-7860,40.707168,-73.655747,,,,
Stop & Shop,IRI_00933158,132 Fulton Ave,,Hempstead,NY,11550,United States,(516) 539-1994,40.706406,-73.632389,,,,
Walmart Supercenter,IRI_00651095,77 Green Acres Rd,,Valley Stream,NY,11581,United States,(516) 887-0127,40.662101,-73.724534,,,,
Stop & Shop,IRI_01118194,95 Old Country Rd,,Carle Place,NY,11514,United States,(516) 739-1535,40.742527,-73.619981,,,,
Walmart,IRI_01112945,1220 Old Country Rd,,Westbury,NY,11590,United States,(516) 794-7280,40.745528,-73.601025,,,,
K Mart,IRI_06003445,25301 Rockaway Blvd,,Rosedale,NY,11422,United States,(516) 295-4186,40.636073,-73.740112,,,,
Stop & Shop,IRI_08061444,465 Atlantic Ave,,Oceanside,NY,11572,United States,(516) 594-1019,40.640599,-73.653133,,,,
Shoprite,IRI_00656597,1121 Jerusalem Ave,,Uniondale,NY,11553,United States,(516) 486-0517,40.694242,-73.577788,,,,
Stop & Shop,IRI_00534047,603 Burnside Ave,,Inwood,NY,11096,United States,(516) 239-6617,40.6229,-73.7425,,,,
Stop & Shop,IRI_00265976,3577 Long Beach Rd,,Oceanside,NY,11572,United States,(516) 678-0720,40.624377,-73.639535,,,,
Walmart,IRI_00687824,1123 Jerusalem Ave,,Uniondale,NY,11553,United States,(516) 505-1508,40.694242,-73.577787,,,,
Stop & Shop,IRI_00292576,905 Atlantic Ave,,Baldwin,NY,11510,United States,(516) 867-7301,40.63955,-73.608698,,,,
Stop & Shop,IRI_00933343,177 Forest Ave,,Glen Cove,NY,11542,United States,(516) 759-1440,40.874034,-73.619335,,,,
Stop & Shop,IRI_00689428,530 W Old Country Rd,,Hicksville,NY,11801,United States,(516) 937-7060,40.7574,-73.546001,,,,
Stop & Shop,IRI_08056612,70-20 Rockaway Beach Blvd,,Arverne,NY,11692,United States,(718) 318-6281,40.59514,-73.79614,,,,
Stop & Shop,IRI_00231443,112-15 Beach Channel Dr,,Belle Harbor,NY,11694,United States,(718) 474-6366,40.582745,-73.834743,,,,
Target,IRI_01077987,519 Gateway Dr,,Brooklyn,NY,11239,United States,(718) 235-6032,40.652268,-73.867764,,,,
Shoprite,IRI_08089365,590 Gateway Dr,,Brooklyn,NY,11239,United States,(718) 647-2423,40.6516243,-73.8680945,,,,
Stop & Shop,IRI_00534961,1710 Ave Y,,Brooklyn,NY,11235,United States,(718) 648-0202,40.590165,-73.9527307,,,,
Walmart,IRI_00934052,2465 Hempstead Tpke,,East Meadow,NY,11554,United States,(516) 579-3307,40.724778,-73.544988,,,,
Stop & Shop,IRI_01089688,2525 Hempstead Tpk,,East Meadow,NY,11554,United States,(516) 796-5547,40.724576,-73.542791,,,,
Stop & Shop,IRI_00251549,2160 S Merrick Mall,,Merrick,NY,11566,United States,(516) 867-9892,40.6663861,-73.5515107,,,,
Stop & Shop,IRI_00255381,2450 Jerusalem Ave,,North Bellmore,NY,11710,United States,(516) 826-0880,40.691123,-73.541051,,,,
Stop & Shop,IRI_00269354,4055 Merrick Rd,,Seaford,NY,11783,United States,(516) 826-6767,40.666707,-73.483313,,,,
Stop & Shop,IRI_00258130,275 Pine Hollow Rd,,Oyster Bay,NY,11771,United States,(516) 922-0800,40.860273,-73.535556,,,,
Shoprite,IRI_00272320,444 Woodbury Rd,,Plainview,NY,11803,United States,(516) 938-0240,40.784376,-73.50089,,,,
Stop & Shop,IRI_01088017,8101 Jericho Tpke,,Woodbury,NY,11797,United States,(516) 921-8937,40.815216,-73.472938,,,,
Stop & Shop,IRI_01078041,3750 Hempstead Tpke,,Levittown,NY,11756,United States,(516) 796-0300,40.725438,-73.499079,,,,
Target,IRI_00688491,3850 Hempstead Tpke,,Levittown,NY,11756,United States,(516) 731-9392,40.72545,-73.496013,,,,
Shoprite,IRI_01091819,3901 Hempstead Tpke,,Bethpage,NY,11714,United States,(516) 731-0130,40.7256,-73.4908,,,,
Stop & Shop,IRI_00285213,702 Hicksville Rd,,Massapequa,NY,11758,United States,(516) 797-3063,40.691658,-73.477989,,,,
Shoprite,IRI_00228800,1054 Old Country Rd,,Plainview,NY,11803,United States,(516) 938-2250,40.776204,-73.471019,,,,
Stop & Shop,IRI_08053079,55 Motor Ave,,Farmingdale,NY,11735,United States,(631) 756-5130,40.725056,-73.447789,,,,
Stop & Shop,IRI_00265587,351 Merrick Rd,,Amityville,NY,11701,United States,(631) 691-0304,40.6685568,-73.4078417,,,,
Waldbaums,IRI_00680546,5508 Sunrise Hwy,,Massapequa,NY,11758,United States,(516) 797-9670,40.678503,-73.436318,,,,
Stop & Shop,IRI_01097112,88 Golding Ave,,West Babylon,NY,11704,United States,(631) 587-9452,40.7113774,-73.3617333,,,,
K Mart,IRI_06000902,1000 Montauk Hwy,,West Babylon,NY,11704,United States,(631) 661-1234,40.684453,-73.350873,,,,
Walmart,IRI_01188351,965 Broadhollow Rd,,Farmingdale,NY,11735,United States,(631) 752-8768,40.734269,-73.423296,,,,
Shoprite,IRI_00644915,64 Rte 109,,West Babylon,NY,11704,United States,(631) 587-2943,40.705461,-73.347012,,,,
Stop & Shop,IRI_00661691,575 Montauk Hwy,,West Babylon,NY,11704,United States,(631) 321-9046,40.6874503,-73.3419368,,,,
Stop & Shop,IRI_08050713,400 Union Blvd,,West Islip,NY,11795,United States,(631) 661-8230,40.707566,-73.301283,,,,
Stop & Shop,IRI_00649763,421 Commack Rd,,Deer Park,NY,11729,United States,(631) 274-0931,40.761733,-73.312674,,,,
Shoprite,IRI_00200032,1960 Deer Park Ave,,Deer Park,NY,11729,United States,(631) 918-4087,40.764444,-73.330651,,,,
Stop & Shop,IRI_01135829,533 Montauk Hwy,,Bay Shore,NY,11706,United States,(631) 665-5647,40.7275371,-73.2308246,,,,
Shoprite,IRI_00670838,1905 Sunrise Hwy,,Bay Shore,NY,11706,United States,(631) 666-7737,40.738957,-73.232976,,,,
Stop & Shop,IRI_00246661,191 Montauk Hwy Lincoln Ave,,Sayville,NY,11782,United States,(631) 589-9677,40.73663,-73.08026,,,,
Stop & Shop,IRI_00672965,57-01 Sunrise Hwy,,Holbrook,NY,11741,United States,(631) 218-8626,40.768331,-73.070093,,,,
Shoprite,IRI_08064947,95 Sunrise Hwy,,Patchogue,NY,11772,United States,(631) 286-5000,40.780396,-73.004077,,,,
Stop & Shop,IRI_00684370,2350 N Ocean Ave,,Farmingville,NY,11738,United States,(631) 732-6757,40.827305,-73.020932,,,,
Stop & Shop,IRI_01108321,449 Portion Rd,,Lake Ronkonkoma,NY,11779,United States,(631) 737-1576,40.829598,-73.094816,,,,
Stop & Shop,IRI_00284967,700-60 Patchogue Yaphank,,Medford,NY,11763,United States,(631) 924-4036,40.804907,-72.956997,,,,
Walmart,IRI_01081411,1850 Veterans Hwy,,Islandia,NY,11749,United States,(631) 851-0468,40.801821,-73.175954,,,,
Stop & Shop,IRI_00684374,2650 Sunrise Hwy,,East Islip,NY,11730,United States,(631) 859-5090,40.742395,-73.200845,,,,
Stop & Shop,IRI_00532931,1730 Veterans Memorial Hwy,,Islandia,NY,11722,United States,(631) 348-2556,40.8054614,-73.1808615,,,,
Shoprite,IRI_08073765,71 College Plaza,,Selden,NY,11784,United States,(631) 561-6050,40.857382,-73.046421,,,,
Walmart,IRI_00653606,161 Centereach Mall,,Centereach,NY,11720,United States,(631) 467-4825,40.861376,-73.082529,,,,
Stop & Shop,IRI_00280270,60 Wall St,,Huntington,NY,11743,United States,(631) 434-6852,40.873388,-73.42766,,,,
K Mart,IRI_00932074,839 New York Ave,,Huntington,NY,11743,United States,(631) 421-5005,40.8587104,-73.4170934,,,,
Stop & Shop,IRI_00294992,999 Montauk Hwy,,Shirley,NY,11967,United States,(631) 281-3610,40.802575,-72.859648,,,,
Stop & Shop,IRI_01108390,275 Middle County Rd,,Coram,NY,11727,United States,(631) 736-4772,40.8710486,-72.9964558,,,,
Stop & Shop,IRI_01079529,260 Pond Path,,Centereach,NY,11720,United States,(631) 585-4585,40.883887,-73.102584,,,,
Walmart,IRI_01081412,3990 Nesconset Hwy,,East Setauket,NY,11733,United States,(631) 474-3287,40.903368,-73.074408,,,,
Shoprite,IRI_00684280,335 Nesconset Hwy Rt 347,,Hauppauge,NY,11788,United States,(631) 979-0110,40.827926,-73.203287,,,,
Shoprite,IRI_08058663,1 Garet Place,,Commack,NY,11725,United States,(631) 864-2224,40.808103,-73.286909,,,,
Walmart,IRI_01188341,85 Crooked Hill Rd,,Commack,NY,11725,United States,(631) 864-0806,40.810425,-73.292398,,,,
Stop & Shop,IRI_01089690,3126 Jericho Tpke,,East Northport,NY,11731,United States,(631) 462-5555,40.8395842,-73.3188314,,,,
Stop & Shop,IRI_01078042,385 Rt 25a Miller Place Rd,,Miller Place,NY,11764,United States,(631) 642-1211,40.9418665,-72.9872277,,,,
Stop & Shop,IRI_00241981,158 Route 25a,,East Setauket,NY,11733,United States,(631) 751-1526,40.940208,-73.10901,,,,
Stop & Shop,IRI_00689429,291 W Main St,,Smithtown,NY,11787,United States,(631) 366-0038,40.857132,-73.205866,,,,
Stop & Shop,IRI_01108355,454 Forth Salonga Rd,,Northport,NY,11768,United States,(631) 757-4394,40.8925471,-73.3387029,,,,
Stop & Shop,IRI_01131922,1100 Jericho Tpke,,Huntington,NY,11743,United States,(631) 547-6970,40.8342192,-73.3665596,,,,
Stop & Shop,IRI_01186773,1615 Old Country Rd,,Riverhead,NY,11901,United States,(631) 727-6751,40.924802,-72.698247,,,,
Target,IRI_01086812,1150 Old Country Rd,,Riverhead,NY,11901,United States,(631) 208-9424,40.930859,-72.679375,,,,
Walmart,IRI_00931308,1890 Old Country Rd,,Riverhead,NY,11901,United States,(631) 369-1041,40.922625,-72.7145017,,,,
K Mart,IRI_00651225,605 Old Country Rd,,Riverhead,NY,11901,United States,(631) 369-0040,40.935041,-72.663633,,,,
K Mart,IRI_06003410,2044 Montauk Hwy,,Bridgehampton,NY,11932,United States,(631) 537-6449,40.93697,-72.30214,,,,
Stop & Shop,IRI_01194399,194 W Montauk Hwy,,Hampton Bays,NY,11946,United States,(631) 728-2020,40.87375,-72.537591,,,,
Price Chopper,IRI_00935023,329 Glenmont Rd,,Glenmont,NY,12077,United States,(518) 433-4700,42.60126,-73.790576,,,,
Walmart Supercenter,IRI_01090933,311 Rte 9w,,Glenmont,NY,12077,United States,(518) 432-6120,42.608606,-73.789679,,,,
Price Chopper,IRI_00673053,1395 New Scotland Rd,,Slingerlands,NY,12159,United States,(518) 478-0688,42.637395,-73.856032,,,,
Hannaford,IRI_08080738,233 Main St,,Cairo,NY,12413,United States,(518) 622-8130,42.2938592,-73.9904921,,,,
Shoprite,IRI_08073527,41 Vista Blvd,,Slingerlands,NY,12159,United States,(518) 729-4108,42.6417561,-73.8642369,,,,
Hannaford,IRI_00656517,5 Maple Rd,,Voorheesville,NY,12186,United States,(518) 765-2629,42.649554,-73.924192,,,,
Hannaford,IRI_00238393,180 Delaware Ave,,Delmar,NY,12054,United States,(518) 439-7657,42.6287429,-73.81185,,,,
Price Chopper,IRI_00275159,501 Columbia Tpke,,Rensselaer,NY,12144,United States,(518) 479-4380,42.605567,-73.719141,,,,
Hannaford,IRI_00279944,596 Columbia Tpke Ste 1,,East Greenbush,NY,12061,United States,(518) 477-6483,42.599255,-73.710536,,,,
Market 32,IRI_00268295,40 Delaware Ave,,Albany,NY,12210,United States,(518) 465-2603,42.650322,-73.768541,,,,
Walmart Supercenter,IRI_01188636,30 Catskill Cmns,,Catskill,NY,12414,United States,(518) 943-9423,42.249428,-73.88743,,,,
Target,IRI_06001316,204 Saratoga Rd,,Glenville,NY,12302,United States,(518) 387-3311,42.866564,-73.93265,,,,
Hannaford,IRI_08006679,262 Saratoga Rd Rte 50,,Glenville,NY,12302,United States,(518) 384-0156,42.870711,-73.931651,,,,
Price Chopper,IRI_00259105,290 Saratoga Rd,,Scotia,NY,12302,United States,(518) 399-4011,42.872868,-73.930433,,,,
Walmart Supercenter,IRI_00934302,200 Dutch Meadows Ln,,Glenville,NY,12302,United States,(518) 344-7035,42.840864,-73.942663,,,,
Shoprite,IRI_00657113,2333 Nott St E,,Niskayuna,NY,12309,United States,(518) 243-4565,42.815465,-73.891051,,,,
Price Chopper,IRI_00643865,1640 Eastern Pkwy,,Schenectady,NY,12309,United States,(518) 372-6553,42.806872,-73.913047,,,,
Hannaford,IRI_00655850,3333 Consaul Rd,,Niskayuna,NY,12309,United States,(518) 395-9497,42.782177,-73.89155,,,,
Walmart,IRI_00688580,1320 Altamont Ave,,Schenectady,NY,12303,United States,(518) 355-2596,42.786169,-73.942858,,,,
Hannaford,IRI_00647960,1400 Altamont Ave,,Schenectady,NY,12303,United States,(518) 357-2050,42.785479,-73.944048,,,,
Price Chopper,IRI_00934403,442 Balltown Rd,,Schenectady,NY,12304,United States,(518) 346-0182,42.776313,-73.893527,,,,
Hannaford,IRI_00223739,Village Square 9 Clifton Cou,,Clifton Park,NY,12065,United States,(518) 383-4136,42.8527,-73.7896,,,,
Price Chopper,IRI_00246136,1879b Altamont Ave,,Schenectady,NY,12303,United States,(518) 357-4050,42.780892,-73.954329,,,,
Hannaford,IRI_00214394,115 Hannaford Plz,,Amsterdam,NY,12010,United States,(518) 843-5854,42.9663,-74.187,,,,
Price Chopper,IRI_00652237,141 Sanford Farms Shop Ctr,,Amsterdam,NY,12010,United States,(518) 843-0056,42.9663,-74.187,,,,
Price Chopper,IRI_00213889,N Comrie Ave Ste N,,Johnstown,NY,12095,United States,(518) 762-8981,43.007931,-74.359807,,,,
Hannaford,IRI_08053461,11140 Western Tpke,,Esperance,NY,12066,United States,(518) 875-9410,42.760413,-74.251504,,,,
Hannaford,IRI_00536242,235 Fifth Ave Extension,,Gloversville,NY,12078,United States,(518) 725-0847,43.059662,-74.322895,,,,
Price Chopper,IRI_00265985,358 N Main St,,Gloversville,NY,12078,United States,(518) 775-1464,43.062819,-74.340247,,,,
Walmart Supercenter,IRI_08080863,329 S Kingsboro Ave Ext,,Gloversville,NY,12078,United States,(999) 999-9999,43.0694439,-74.3370707,,,,
Hannaford,IRI_00670064,5239 Western Tpke,,Guilderland,NY,12009,United States,(518) 355-5814,42.716167,-73.935244,,,,
Price Chopper,IRI_00244033,1706 Western Ave,,Albany,NY,12203,United States,(518) 456-0403,42.688052,-73.859497,,,,
Walmart Supercenter,IRI_00649020,141 Washington Ave Extension,,Albany,NY,12205,United States,(518) 869-4694,42.692946,-73.848212,,,,
Price Chopper,IRI_00246241,1892 Central Ave,,Albany,NY,12205,United States,(518) 218-7080,42.734432,-73.852125,,,,
Price Chopper,IRI_01082440,138 Ulster Ave,,Saugerties,NY,12477,United States,(845) 247-4500,42.0806,-73.959968,,,,
Walmart Supercenter,IRI_00687213,601 Frank Stottile Blvd,,Kingston,NY,12401,United States,(845) 336-4159,41.970215,-73.985416,,,,
Price Chopper,IRI_00685913,6025 State Hwy 5,,Palatine Bridge,NY,13428,United States,(518) 673-2333,42.915975,-74.590875,,,,
Price Chopper,IRI_00202900,105 Plaza Ln,,Cobleskill,NY,12043,United States,(518) 234-7845,42.681483,-74.471301,,,,
Hannaford,IRI_00271392,45 Round Lake Rd,,Ballston Lake,NY,12019,United States,(518) 899-2392,42.9353216,-73.81305,,,,
Price Chopper,IRI_00656125,1 Kendall Way,,Malta,NY,12020,United States,(518) 899-2438,42.973278,-73.791982,,,,
Market 32,IRI_00218087,Rte 146 & Plank Rd,,Clifton Park,NY,12065,United States,(518) 383-6780,42.86266,-73.778933,,,,
Target,IRI_01078002,26 Crossing Blvd,,Clifton Park,NY,12065,United States,(518) 371-6520,42.8561,-73.770742,,,,
Hannaford,IRI_00931121,11 Trieble Ave,,Ballston Spa,NY,12020,United States,(518) 885-6384,43.045771,-73.85173,,,,
Hannaford,IRI_00654073,40 Main Ave,,Wynantskill,NY,12198,United States,(518) 283-0538,42.697572,-73.64841,,,,
Walmart Supercenter,IRI_06006772,279 Troy Rd,,Rensselaer,NY,12144,United States,(518) 283-3055,42.641576,-73.699283,,,,
Market 32,IRI_00288323,79 Vandenburgh Ave,,Troy,NY,12180,United States,(518) 266-8711,42.696469,-73.688114,,,,
Price Chopper,IRI_08088656,515 19th St,,Watervliet,NY,12189,United States,(518) 271-7446,42.731086,-73.7045209,,,,
Price Chopper,IRI_00254620,240 Congress St,,Cohoes,NY,12047,United States,(518) 237-6050,42.765368,-73.70088,,,,
Price Chopper,IRI_00247720,865 2nd Ave,,Troy,NY,12182,United States,(518) 235-1920,42.78587,-73.672142,,,,
Price Chopper,IRI_00673181,115 Ballston Ave,,Saratoga Springs,NY,12866,United States,(518) 580-9172,43.071513,-73.792498,,,,
Price Chopper,IRI_08068426,55 Railroad Place Unit 102,,Saratoga Springs,NY,12866,United States,(518) 584-9400,43.081111,-73.788499,,,,
Hannaford,IRI_00644971,95 Weibel Ave,,Saratoga Springs,NY,12866,United States,(518) 587-0360,43.09739,-73.745099,,,,
Walmart Supercenter,IRI_00643923,16 Old Gick Rd,,Saratoga Springs,NY,12866,United States,(518) 581-8035,43.102547,-73.749892,,,,
Market 32,IRI_00452877,3049 Rte 50,,Saratoga Springs,NY,12866,United States,(518) 583-7551,43.1035967,-73.7429184,,,,
Walmart Supercenter,IRI_00933136,1549 Rte 9,,Clifton Park,NY,12065,United States,(518) 373-8457,42.845235,-73.749486,,,,
Price Chopper,IRI_08086559,555 Main St,,Little Falls,NY,13365,United States,(315) 508-3333,43.0437656,-74.8578372,,,,
Hannaford,IRI_00681739,401 East Albany St,,Herkimer,NY,13350,United States,(315) 866-6030,43.028122,-74.979603,,,,
Walmart Supercenter,IRI_00687195,103 N Caroline St,,Herkimer,NY,13350,United States,(315) 717-0023,43.022694,-74.993137,,,,
Price Chopper,IRI_01114004,1 Main St,,Richfield Springs,NY,13439,United States,(315) 858-1171,42.857294,-74.997531,,,,
Market 32,IRI_00228992,1060 Madison Ave,,Albany,NY,12208,United States,(518) 438-6241,42.664984,-73.789734,,,,
Shoprite,IRI_08068414,709 Central Ave,,Albany,NY,12206,United States,(518) 292-1245,42.676766,-73.7859785,,,,
Walmart Supercenter,IRI_00653743,5054 State Hwy 23,,Oneonta,NY,13820,United States,(607) 431-9557,42.44744,-75.024695,,,,
Price Chopper,IRI_00656084,1000 Main St,,Oneonta,NY,13820,United States,(607) 432-8905,42.456838,-75.038426,,,,
Hannaford,IRI_00649195,705 State Hwy 28,,Oneonta,NY,13820,United States,(607) 432-0012,42.4458,-75.0572,,,,
Price Chopper,IRI_06003996,3 Main St,,Delhi,NY,13753,United States,(607) 746-8001,42.268281,-74.922162,,,,
Hannaford,IRI_00292104,900 Central Ave Century Ii,,Albany,NY,12206,United States,(518) 438-7296,42.680596,-73.790718,,,,
Price Chopper,IRI_00652157,873 New Loudon Rd,,Latham,NY,12110,United States,(518) 782-0441,42.754509,-73.758666,,,,
Hannaford,IRI_00642228,579 Troy Schnectady Rd,,Latham,NY,12110,United States,(518) 782-1750,42.752141,-73.76678,,,,
Walmart Supercenter,IRI_08098076,800 Loudon Rd,,Latham,NY,12110,United States,(518) 783-4086,42.7456772,-73.761923,,,,
Target,IRI_01108863,675 Troy Schenectady Rd,,Latham,NY,12110,United States,(518) 782-0348,42.754736,-73.772313,,,,
Shoprite,IRI_08078307,1730 Central Ave,,Albany,NY,12205,United States,(518) 250-5072,42.725343,-73.841796,,,,
Hannaford,IRI_00294321,96 Wolf Rd Windsor Plz,,Colonie,NY,12205,United States,(518) 482-1085,42.715852,-73.810954,,,,
Price Chopper,IRI_00651482,911 Central Ave,,Albany,NY,12206,United States,(518) 482-0280,42.6815835,-73.7914976,,,,
Walmart Supercenter,IRI_00653611,891 Rte #9,,Queensbury,NY,12804,United States,(518) 793-0309,43.334927,-73.67888,,,,
Target,IRI_01111508,578 Aviation Rd Ste 1s,,Queensbury,NY,12804,United States,(518) 792-6016,43.32852,-73.676924,,,,
Price Chopper,IRI_00273799,475 Albany Shaker Rd,,Albany,NY,12204,United States,(518) 459-8720,42.7074351,-73.7776674,,,,
Price Chopper,IRI_00647834,165 Delaware Ave,,Sidney,NY,13838,United States,(607) 563-2733,42.298625,-75.411554,,,,
Walmart Supercenter,IRI_00649006,5396 State Hwy 12,,Norwich,NY,13815,United States,(607) 334-5553,42.6188,-75.5143,,,,
Price Chopper,IRI_00670079,5631 State Hwy 12,,Norwich,NY,13815,United States,(607) 336-2774,42.513331,-75.523023,,,,
Price Chopper,IRI_00214465,50 Auert Ave,,Utica,NY,13502,United States,(315) 732-0507,43.115198,-75.208544,,,,
Hannaford,IRI_00215584,100 Plz Rd,,Kingston,NY,12401,United States,(845) 339-7480,41.936408,-74.015761,,,,
Shoprite,IRI_00220224,801 Miron Ln,,Kingston,NY,12401,United States,(845) 336-7800,41.959483,-73.985384,,,,
Hannaford,IRI_00648370,1261 Ulster Ave,,Kingston,NY,12401,United States,(845) 336-0325,41.967868,-73.989021,,,,
Shoprite,IRI_01132131,258 Main St,,New Paltz,NY,12561,United States,(845) 255-5015,41.74271,-74.069842,,,,
Stop & Shop,IRI_08074501,3999 Albany Post Rd,,Hyde Park,NY,12538,United States,(845) 229-0251,41.763273,-73.9303,,,,
Hannaford,IRI_00283329,3650 Rte 9w,,Highland,NY,12528,United States,(845) 691-9150,41.703876,-73.967494,,,,
Stop & Shop,IRI_00931370,59 Burnett Blvd,,Poughkeepsie,NY,12603,United States,(845) 471-2313,41.699782,-73.888981,,,,
Hannaford,IRI_01182161,2066 Rte 32,,Modena,NY,12548,United States,(845) 883-7407,41.6660598,-74.1067896,,,,
Price Chopper,IRI_00641006,2585 S Rd,,Poughkeepsie,NY,12601,United States,(845) 452-1005,41.665047,-73.93001,,,,
Stop & Shop,IRI_00274126,2540 S Rd,,Poughkeepsie,NY,12601,United States,(845) 483-9000,41.6618383,-73.9298727,,,,
Hannaford,IRI_00240469,1490 Rte 9,,Wappingers Falls,NY,12590,United States,(845) 297-8254,41.5908,-73.9048,,,,
Shoprite,IRI_01132737,1895 S Rd Ste 3b,,Poughkeepsie,NY,12601,United States,(845) 298-0024,41.618626,-73.916867,,,,
Target,IRI_01107007,2001 South Rd,,Poughkeepsie,NY,12601,United States,(845) 297-0938,41.626953,-73.917103,,,,
Walmart Supercenter,IRI_00680603,777 Old Willow Ave,,Honesdale,PA,18431,United States,(570) 251-9543,41.555204,-75.224526,,,,
K Mart,IRI_00651091,650 Old Willow Ave Ste N,,Honesdale,PA,18431,United States,(570) 253-2544,41.551303,-75.23204,,,,
Weis Markets,IRI_00534544,Rt 739 Hcs Box 8406,,Hawley,PA,18428,United States,(570) 775-0391,41.42236,-75.13345,,,,
Weis Markets,IRI_00218536,1199 Texas Palmyra Hwy-ste N,,Honesdale,PA,18431,United States,(570) 253-9797,41.51382,-75.27457,,,,
Weis Markets,IRI_00218522,Village Sc Rte 590,,Hamlin,PA,18427,United States,(570) 689-7791,41.39229,-75.35239,,,,
Weis Markets,IRI_00218521,793 State Rte 590,,Hamlin,PA,18427,United States,(570) 689-9921,41.36837,-75.36199,,,,
Weis Markets,IRI_00686034,97 Brooklyn St,,Carbondale,PA,18407,United States,(570) 281-3300,41.566385,-75.514809,,,,
Weis Markets,IRI_00647682,578 Carbondale Rd,,Scott Township,PA,18447,United States,(570) 585-4007,41.5172,-75.6426,,,,
Price Chopper,IRI_00932394,1930 Saranac Ave,,Lake Placid,NY,12946,United States,(518) 523-2790,44.294619,-74.011529,,,,
Hannaford,IRI_01158473,45 Hadjis Way Ste 6,,Lake Placid,NY,12946,United States,(518) 523-3279,44.296687,-73.999045,,,,
Price Chopper,IRI_00259012,389 E Main St,,Gouverneur,NY,13642,United States,(315) 287-4200,44.340365,-75.45413,,,,
Price Chopper,IRI_00213387,111 E Main St,,Canton,NY,13617,United States,(315) 379-9696,44.597153,-75.148593,,,,
Walmart Supercenter,IRI_08055680,7494 Us Hwy 11,,Potsdam,NY,13676,United States,(315) 268-6900,44.666674,-75.024319,,,,
Price Chopper,IRI_00213118,201 Market St,,Potsdam,NY,13676,United States,(315) 265-2165,44.684024,-74.987063,,,,
Price Chopper,IRI_00203612,60 High St,,W Carthage,NY,13619,United States,(315) 493-6668,43.9704,-75.623241,,,,
Walmart Supercenter,IRI_01188619,3222 State Rte 11,,Malone,NY,12953,United States,(518) 483-5968,44.847248,-74.328499,,,,
Price Chopper,IRI_00685914,53 Finney Blvd,,Malone,NY,12953,United States,(518) 483-8476,44.84596,-74.300721,,,,
K Mart,IRI_06006694,230 W Main St,,Malone,NY,12953,United States,(518) 483-8131,44.848175,-74.307891,,,,
Walmart Supercenter,IRI_01188548,25737 Us Rte #11,,Evans Mills,NY,13637,United States,(315) 629-2124,44.040395,-75.840399,,,,
Price Chopper,IRI_00410573,2981 Ford St Extention 9,,Ogdensburg,NY,13669,United States,(315) 393-7153,44.705764,-75.457605,,,,
Walmart Supercenter,IRI_06006896,43 Stephenville St,,Massena,NY,13662,United States,(315) 769-1072,44.925294,-74.875963,,,,
Price Chopper,IRI_00650527,152 Harte Haven Plz,,Massena,NY,13662,United States,(315) 769-0042,44.920258,-74.88122,,,,
Hannaford,IRI_00532858,Rte 37 St Lawrence Plz,,Massena,NY,13662,United States,(315) 764-5701,44.93979,-74.89489,,,,
Walmart,IRI_00649725,3000 Ford St Ext,,Ogdensburg,NY,13669,United States,(315) 394-8990,44.705868,-75.457515,,,,
Price Chopper,IRI_00689255,4713 Onondaga Blvd,,Syracuse,NY,13219,United States,(315) 472-3812,43.032619,-76.193028,,,,
Price Chopper,IRI_00689253,2515 Erie Blvd E,,Syracuse,NY,13224,United States,(315) 449-2314,43.054035,-76.102641,,,,
Walmart Supercenter,IRI_00649024,6438 Basile Rowe,,East Syracuse,NY,13057,United States,(315) 434-9873,43.063076,-76.059262,,,,
Target,IRI_01182404,3657 W Genesee St,,Syracuse,NY,13219,United States,(315) 233-0600,43.047153,-76.237682,,,,
Price Chopper,IRI_00931822,854 State Rte 13,,Cortland,NY,13045,United States,(607) 756-4994,42.572172,-76.218309,,,,
Walmart Supercenter,IRI_00689293,5399 W Genesee St,,Camillus,NY,13031,United States,(315) 487-0121,43.041003,-76.274386,,,,
Walmart Supercenter,IRI_06006576,819 Bennie Rd,,Cortland,NY,13045,United States,(607) 756-1776,42.566148,-76.218417,,,,
K Mart,IRI_06000967,2803 Brewerton Rd,,Mattydale,NY,13211,United States,(315) 455-7393,43.106369,-76.146181,,,,
Price Chopper,IRI_00279219,5701 E Circle Dr Ste 100,,Cicero,NY,13039,United States,(315) 458-2056,43.147491,-76.119255,,,,
Walmart Supercenter,IRI_01188481,8064 Brewereton Rd,,Cicero,NY,13039,United States,(315) 698-0130,43.160725,-76.120448,,,,
Walmart Supercenter,IRI_06006673,297 Grant Ave,,Auburn,NY,13021,United States,(315) 255-0532,42.954849,-76.544114,,,,
Walmart Supercenter,IRI_00656454,2024 Genesee St,,Oneida,NY,13421,United States,(315) 361-1037,43.076176,-75.692003,,,,
Walmart Supercenter,IRI_06006497,1860 N Rd,,Waterloo,NY,13165,United States,(315) 539-2560,42.909162,-76.840881,,,,
Price Chopper,IRI_01081324,3863 State Rte 31,,Liverpool,NY,13090,United States,(315) 622-6008,43.184587,-76.246848,,,,
Walmart Supercenter,IRI_06006515,990 State Rte 5 And 20,,Geneva,NY,14456,United States,(315) 781-3253,42.858174,-77.023884,,,,
Walmart Supercenter,IRI_06006575,3949 Rte 31,,Liverpool,NY,13090,United States,(315) 622-5401,43.185419,-76.238788,,,,
Walmart Supercenter,IRI_06006473,4238 Recreation Dr,,Canandaigua,NY,14424,United States,(585) 394-5300,42.8779,-77.241936,,,,
Price Chopper,IRI_00239250,142 Genesee St,,Oneida,NY,13421,United States,(315) 363-8927,43.07896,-75.642834,,,,
Price Chopper,IRI_00233368,12 W First St S,,Fulton,NY,13069,United States,(315) 598-4000,43.32363,-76.422973,,,,
Walmart Supercenter,IRI_01188738,1818 State Rte #3,,Fulton,NY,13069,United States,(315) 598-1773,43.32435,-76.44391,,,,
Walmart Supercenter,IRI_00649995,5815 Rome Taberg Rd,,Rome,NY,13440,United States,(315) 338-7900,43.233104,-75.499377,,,,
Hannaford,IRI_01073525,55 Meadow St,,Clinton,NY,13323,United States,(315) 853-5090,43.042527,-75.387587,,,,
Price Chopper,IRI_01073623,1790 Black River Blvd N,,Rome,NY,13440,United States,(315) 337-5086,43.233238,-75.43747,,,,
Price Chopper,IRI_01194551,1050 Madison Market Place,,Hamilton,NY,13346,United States,(315) 824-6040,42.841951,-75.552887,,,,
Price Chopper,IRI_00649260,137 Rte 104,,Oswego,NY,13126,United States,(315) 342-0571,43.460935,-76.485222,,,,
Walmart Supercenter,IRI_06006730,341 State Rte 104,,Oswego,NY,13126,United States,(315) 342-6210,43.4624,-76.4759,,,,
Price Chopper,IRI_08063085,33 Chenango Bridge Rd,,Binghamton,NY,13901,United States,(607) 235-7240,42.168521,-75.884679,,,,
Weis Markets,IRI_00236175,1290 Front St,,Binghamton,NY,13901,United States,(607) 762-5404,42.159079,-75.895528,,,,
Weis Markets,IRI_00207003,800 Hooper Rd Ste 1,,Endicott,NY,13760,United States,(607) 484-0017,42.128175,-76.028568,,,,
Walmart Supercenter,IRI_08059728,2 Gannett Dr,,Johnson City,NY,13790,United States,(607) 240-5040,42.117844,-75.947689,,,,
Price Chopper,IRI_00225466,10 Glenwood Ave 7 Main St,,Binghamton,NY,13905,United States,(607) 770-7151,42.107771,-75.937131,,,,
Weis Markets,IRI_00258247,160 Robinson St,,Binghamton,NY,13904,United States,(607) 762-5409,42.1074065,-75.8891483,,,,
Weis Markets,IRI_00224213,412 Day Hollow Rd,,Endicott,NY,13760,United States,(607) 741-1214,42.1112013,-76.0725169,,,,
Price Chopper,IRI_00204346,4535 Commercial Dr,,New Hartford,NY,13413,United States,(315) 736-8376,43.085075,-75.318009,,,,
Price Chopper,IRI_00673287,42 W Main St,,Owego,NY,13827,United States,(607) 687-5449,42.099161,-76.271475,,,,
Price Chopper,IRI_00643655,911 N St,,Endicott,NY,13760,United States,(607) 748-8080,42.103919,-76.052576,,,,
Walmart Supercenter,IRI_06006578,2405 Vestal Pkwy E,,Vestal,NY,13850,United States,(607) 798-1011,42.094342,-76.013566,,,,
Target,IRI_00659617,3112 Vestal Pkwy E,,Vestal,NY,13850,United States,(607) 729-6611,42.095453,-76.002942,,,,
Weis Markets,IRI_00225852,100 Rano Blvd,,Vestal,NY,13850,United States,(607) 763-8711,42.094165,-76.003682,,,,
Hannaford,IRI_00204345,4593 Commercial Dr,,New Hartford,NY,13413,United States,(315) 768-1851,43.0861621,-75.3157051,,,,
Walmart Supercenter,IRI_01188382,4765 Commercial Dr,,New Hartford,NY,13413,United States,(315) 736-4932,43.093627,-75.306789,,,,
Hannaford,IRI_01129089,50 Kellogg Rd,,New Hartford,NY,13413,United States,(315) 724-0274,43.054667,-75.277066,,,,
Price Chopper,IRI_00246776,1917 Genesee St,,Utica,NY,13501,United States,(315) 732-1031,43.08703,-75.260294,,,,
Walmart Supercenter,IRI_00643852,1400 County Rd 64,,Horseheads,NY,14845,United States,(607) 739-1714,42.160276,-76.856566,,,,
Weis Markets,IRI_00293490,925 Main St,,Vestal,NY,13850,United States,(607) 484-0008,42.071484,-76.047043,,,,
Target,IRI_01130060,930 County Rd 64,,Elmira,NY,14903,United States,(607) 796-5910,42.154212,-76.872953,,,,
Walmart Supercenter,IRI_01188707,425 State Rte 31,,Macedon,NY,14502,United States,(315) 986-1584,43.064459,-77.355258,,,,
Target,IRI_01136608,21800 Towne Center Dr,,Watertown,NY,13601,United States,(315) 786-2540,43.973932,-75.95955,,,,
K Mart,IRI_00651270,21082 Pioneer Plaza Dr,,Watertown,NY,13601,United States,(315) 782-0015,43.973507,-75.954062,,,,
Hannaford,IRI_00532933,21110 Nys Rte 3,,Watertown,NY,13601,United States,(315) 782-7456,43.973734,-75.954131,,,,
Price Chopper,IRI_00220690,1283 Arsenal St,,Watertown,NY,13601,United States,(315) 788-1645,43.975921,-75.946814,,,,
K Mart,IRI_06000887,950 Ridge Rd,,Webster,NY,14580,United States,(585) 787-0030,43.208172,-77.463511,,,,
Walmart Supercenter,IRI_00650754,710 Horatio St,,Utica,NY,13502,United States,(315) 738-1155,43.126207,-75.226801,,,,
Hannaford,IRI_00684657,1122 Mohawk St,,Utica,NY,13501,United States,(315) 734-0373,43.091033,-75.22205,,,,
Price Chopper,IRI_08078364,43615 Nys Rte 12,,Alexandria Bay,NY,13607,United States,(315) 215-7008,44.2983747,-75.9646676,,,,
