store_name,store_number,address,address2,city,state,zip_code,country,phone_number,latitude,longitude,store_hours,store_type,other_fields,coming_soon
Texaco,,1702a US Highway 190,,Huntsville,TX,77340,United States,(936) 295-9561,,,,,,
Texaco,,1565 11th St,,Huntsville,TX,77340,United States,(936) 436-1300,,,,,,
Texaco,,821 E Chestnut St,,Junction City,KS,66441,United States,(785) 762-7772,,,,,,
Texaco,,7101 Pioneer Way,,Gig Harbor,WA,98335,United States,(253) 851-2102,,,,,,
Texaco,,701 Road To Six Flags W,,Arlington,TX,76012,United States,(817) 861-5568,,,,,,
Texaco,,Overseas Hwy,,Islamorada,FL,33036,United States,(305) 664-4853,,,,,,
Texaco,,6828 Pines Rd,,Shreveport,LA,71129,United States,(318) 688-9656,,,,,,
Texaco,,860 N Ellington Pkwy,,Lewisburg,TN,37091,United States,(931) 359-3351,,,,,,
Texaco,,1108 S Jackson St,,Jacksonville,TX,75766,United States,(903) 586-5771,,,,,,
Texaco,,815 N New Braunfels Ave,,San Antonio,TX,78202,United States,(210) 223-6204,,,,,,
Texaco,,4141 Highway 24,,Red Bay,AL,35582,United States,(256) 356-6973,,,,,,
Texaco,,7095 Hwy 43,,Spruce Pine,AL,35585,United States,(256) 332-9033,,,,,,
Texaco,,504 1st Ave W,,Reform,AL,35481,United States,(205) 375-2723,,,,,,
Texaco,,1730 S Prairie Ave,,Pueblo,CO,81005,United States,(719) 564-9586,,,,,,
Texaco,,601 NW 5th St,,Oklahoma City,OK,73160,United States,(405) 799-1230,,,,,,
Texaco,,550 E Abriendo Ave,,Pueblo,CO,81004,United States,(719) 542-8900,,,,,,
Texaco,,2005 S Pueblo Blvd,,Pueblo,CO,81005,United States,(719) 566-0947,,,,,,
Texaco,,228 Bustleton Pike,,Langhorne,PA,19053,United States,(215) 357-1238,,,,,,
Texaco,,925 W Route 70,,Marlton,NJ,08053,United States,(856) 983-7840,,,,,,
Texaco,,47 Delsea Dr,,Westville,NJ,08093,United States,(856) 845-6663,,,,,,
Texaco,,15621 San Carlos Blvd,,Fort Myers,FL,33908,United States,(239) 437-5111,,,,,,
Texaco,,300 S Walnut St,,Wilmington,DE,19801,United States,(302) 652-2726,,,,,,
Texaco,,3362 Tamiami Trl,,Port Charlotte,FL,33952,United States,(941) 629-5507,,,,,,
Texaco,,77 Tamiami Trl,,Punta Gorda,FL,33950,United States,(941) 639-5705,,,,,,
Texaco,,4703 Del Prado Blvd S,,Cape Coral,FL,33904,United States,(239) 549-8211,,,,,,
Texaco,,170 S White Horse Pke,,Williamstown,NJ,08094,United States,(856) 728-5113,,,,,,
Texaco,,750 S Kings Hwy,,Audubon,NJ,08106,United States,(856) 310-1890,,,,,,
Texaco,,851 S White Horse Pike,,Clementon,NJ,08021,United States,(856) 566-3566,,,,,,
Texaco,,1400 Blackwood Clementon Rd,,Clementon,NJ,08021,United States,(856) 309-1701,,,,,,
Texaco,,Black Horse Pike & Greentree R,,Turnersville,NJ,08012,United States,(856) 232-0027,,,,,,
Texaco,,4185 Jackson Ave,,Memphis,TN,38128,United States,(901) 382-8495,,,,,,
Texaco,,13801 Highway 43,,Russellville,AL,35653,United States,(256) 332-7979,,,,,,
Texaco,,28485 Hwy 24,,Russellville,AL,35654,United States,(256) 332-5447,,,,,,
Texaco,,4201 N Market St,,Wilmington,DE,19802,United States,(302) 762-0400,,,,,,
Texaco,,12301 Highway 43,,Russellville,AL,35653,United States,(256) 332-4840,,,,,,
Texaco,,897 Cox Creek Pkwy,,Florence,AL,35630,United States,(256) 718-0093,,,,,,
Texaco,,893 Cox Creek Pkwy,,Florence,AL,35630,United States,(256) 718-0093,,,,,,
Texaco,,710 Avalon Ave,,Muscle Shoals,AL,35661,United States,(256) 381-8300,,,,,,
Texaco,,304 N Main St,,Tuscumbia,AL,35674,United States,(256) 381-6315,,,,,,
Texaco,,103 Jackson Ave S,,Russellville,AL,35653,United States,(256) 331-0093,,,,,,
Texaco,,3975 Summer Ave,,Memphis,TN,38122,United States,(901) 324-5515,,,,,,
Texaco,,2756 Getwell Rd,,Memphis,TN,38118,United States,(901) 365-1545,,,,,,
Texaco,,1708 Winchester Rd,,Memphis,TN,38116,United States,(901) 345-2010,,,,,,
Texaco,,1312 E Shelby Dr,,Memphis,TN,38116,United States,(901) 398-9440,,,,,,
Texaco,,2206 E Shelby Dr,,Memphis,TN,38116,United States,(901) 396-8421,,,,,,
Texaco,,1559 Sycamore View Rd,,Memphis,TN,38134,United States,(901) 386-0503,,,,,,
Texaco,,21352 Highway 11 N,,McCalla,AL,35111,United States,(205) 477-9131,,,,,,
Texaco,,50 Church Rd W,,Southaven,MS,38671,United States,(662) 349-0604,,,,,,
Texaco,,694 Riverside Dr,,Memphis,TN,38103,United States,(901) 527-3946,,,,,,
Texaco,,9095 Poplar Ave,,Germantown,TN,38138,United States,(901) 757-9930,,,,,,
Texaco,,2502 University Blvd E,,Tuscaloosa,AL,35404,United States,(205) 556-4821,,,,,,
Texaco,,854 N Ellington Pkwy,,Lewisburg,TN,37091,United States,(931) 359-3351,,,,,,
Texaco,,1215 W Gaines St,,Lawrenceburg,TN,38464,United States,(931) 762-3922,,,,,,
Texaco,,1434 W Commerce St,,Lewisburg,TN,37091,United States,(931) 359-6237,,,,,,
Texaco,,710 W College St,,Pulaski,TN,38478,United States,(931) 363-5271,,,,,,
Texaco,,7220 Mcfarland Blvd,,Tuscaloosa,AL,35401,United States,(205) 339-0464,,,,,,
Texaco,,705 Gladewater St,,Kilgore,TX,75662,United States,(903) 984-6222,,,,,,
Texaco,,314 E Henderson St,,Bullard,TX,75757,United States,(903) 894-7269,,,,,,
Texaco,,15786 County Road 3108,,Gladewater,TX,75647,United States,(903) 844-8110,,,,,,
Texaco,,RURAL ROUTE 9 BOX 225,,Tyler,TX,75706,United States,(903) 592-2642,,,,,,
Texaco,,13341 Interstate 20 W,,Tyler,TX,75706,United States,(903) 882-9167,,,,,,
Texaco,,903 W Martin Luther King,,Tyler,TX,75702,United States,(903) 535-9551,,,,,,
Texaco,,Us 59 S & Airport,,Atlanta,TX,75551,United States,(903) 796-3186,,,,,,
Texaco,,117 E Arkansas Ave,,Vivian,LA,71082,United States,(318) 375-5823,,,,,,
Texaco,,4130 McFarland Blvd E,,Tuscaloosa,AL,35405,United States,(205) 752-6748,,,,,,
Texaco,,101 E Upshur Ave,,Gladewater,TX,75647,United States,(903) 844-9610,,,,,,
Texaco,,6480 NW Loop 410,,San Antonio,TX,78238,United States,(210) 647-1405,,,,,,
Texaco,,705 E Elmira St,,San Antonio,TX,78212,United States,(210) 224-6021,,,,,,
Texaco,,105 S Walcott St,,Jefferson,TX,75657,United States,(903) 665-2773,,,,,,
Texaco,,1170 W Old Us Highway 90,,San Antonio,TX,78237,United States,(210) 433-3011,,,,,,
Texaco,,702 S Acme Rd,,San Antonio,TX,78237,United States,(210) 436-0804,,,,,,
Texaco,,1025 Pleasanton Rd,,San Antonio,TX,78214,United States,(210) 922-0791,,,,,,
Texaco,,5346 Roosevelt Ave,,San Antonio,TX,78214,United States,(210) 922-4100,,,,,,
Texaco,,1717 S Telephone Rd,,Oklahoma City,OK,73160,United States,(405) 799-9210,,,,,,
Texaco,,527 W Cevallos,,San Antonio,TX,78204,United States,(210) 224-5419,,,,,,
Texaco,,418 Fair Ave,,San Antonio,TX,78223,United States,(210) 533-0953,,,,,,
Texaco,,13437 Ih 35 S,,Von Ormy,TX,78073,United States,(210) 622-3435,,,,,,
Texaco,,Basin System,,Lindsay,OK,73052,United States,(405) 756-2496,,,,,,
Texaco,,1901 W Lindsey St,,Norman,OK,73069,United States,(405) 321-6713,,,,,,
Texaco,,Hgwy 59 B,,Lindsay,OK,73052,United States,(405) 756-2500,,,,,,
Texaco,,RURAL ROUTE 1 BOX 118,,Pauls Valley,OK,73075,United States,(405) 665-5417,,,,,,
Texaco,,2320 W Main St,,Norman,OK,73069,United States,(405) 329-6480,,,,,,
Texaco,,1919 Classen Blvd,,Norman,OK,73071,United States,(405) 447-6811,,,,,,
Texaco,,23031 Pacific Hwy S,,Seattle,WA,98198,United States,(206) 824-3744,,,,,,
Texaco,,3450 Porter St,,Enumclaw,WA,98022,United States,(360) 825-4481,,,,,,
Texaco,,1133 W James St,,Kent,WA,98032,United States,(253) 850-8318,,,,,,
Texaco,,25014 74th Ave S,,Kent,WA,98032,United States,(253) 520-3483,,,,,,
Texaco,,10505 Steele St S,,Tacoma,WA,98444,United States,(253) 582-5725,,,,,,
Texaco,,524 Meridian E,,Milton,WA,98354,United States,(253) 942-4310,,,,,,
Texaco,,129 S Green Ave,,Purcell,OK,73080,United States,(405) 527-2176,,,,,,
Texaco,,347 S Meridian,,Puyallup,WA,98371,United States,(253) 435-6046,,,,,,
Texaco,,1730 W Lindsey St,,Norman,OK,73069,United States,(405) 364-2491,,,,,,
Texaco,,2325 Meridian Ave E,,Puyallup,WA,98371,United States,(253) 952-2299,,,,,,
Texaco,,925 N Belt Line Rd,,Grand Prairie,TX,75050,United States,(972) 263-7008,,,,,,
Texaco,,11404 N Stemmons Fwy,,Dallas,TX,75229,United States,(972) 247-7504,,,,,,
Texaco,,2410 Walnut Hill Ln,,Dallas,TX,75229,United States,(214) 653-9400,,,,,,
Texaco,,5723 Singleton Blvd,,Dallas,TX,75212,United States,(214) 905-9994,,,,,,
Texaco,,7902 Esters Blvd,,Irving,TX,75063,United States,(972) 261-0027,,,,,,
Texaco,,3701 Esters Rd Ste 109,,Irving,TX,75038,United States,(972) 255-5536,,,,,,
Texaco,,2112 N O Connor Rd,,Irving,TX,75061,United States,(972) 721-1014,,,,,,
Texaco,,1901 E Union Bower Rd,,Irving,TX,75061,United States,(972) 438-2662,,,,,,
Texaco,,436 N Davis Ave,,Cleveland,MS,38732,United States,(662) 846-1791,,,,,,
Texaco,,637 Highway 82 W,,Indianola,MS,38751,United States,(662) 887-3006,,,,,,
Texaco,,4002 Bridgeport Way W,,University Place,WA,98466,United States,(253) 564-8391,,,,,,
Texaco,,805 Highway 82 E,,Indianola,MS,38751,United States,(662) 887-1000,,,,,,
Texaco,,507 Basket St,,Itta Bena,MS,38941,United States,(662) 254-6366,,,,,,
Texaco,,81900 Overseas Hwy,,Islamorada,FL,33036,United States,(305) 664-3004,,,,,,
Texaco,,15852 Highway 13 S,,Hurricane Mills,TN,37078,United States,(931) 296-5256,,,,,,
Texaco,,1000 W John Carpenter Fwy,,Irving,TX,75039,United States,(972) 580-1235,,,,,,
Texaco,,15850 Highway 13 S,,Hurricane Mills,TN,37078,United States,(931) 296-5256,,,,,,
Texaco,,15085 Highway 641 S,,Holladay,TN,38341,United States,(731) 584-5381,,,,,,
Texaco,,1100 N Main St,,Euless,TX,76039,United States,(817) 283-4711,,,,,,
Texaco,,4636 Denton Hwy,,Haltom City,TX,76117,United States,(817) 788-4713,,,,,,
Texaco,,6001 Airport Fwy,,Fort Worth,TX,76117,United States,(817) 838-9017,,,,,,
Texaco,,RURAL ROUTE 1 # 142,,Denver,NC,28037,United States,(704) 483-9901,,,,,,
Texaco,,6400 Davis Blvd,,Fort Worth,TX,76180,United States,(817) 581-0728,,,,,,
Texaco,,5009 Davis Blvd,,Fort Worth,TX,76180,United States,(817) 656-8411,,,,,,
Texaco,,3100 W Euless Blvd,,Euless,TX,76040,United States,(817) 354-8448,,,,,,
Texaco,,760 W Pipeline Rd,,Hurst,TX,76053,United States,(817) 329-8865,,,,,,
Texaco,,1401 Eastchase Pkwy,,Fort Worth,TX,76120,United States,(817) 548-9569,,,,,,
Texaco,,5740 Edsall Rd,,Alexandria,VA,22304,United States,(703) 751-5145,,,,,,
Texaco,,1201 Belle Haven Rd,,Alexandria,VA,22307,United States,(703) 768-7758,,,,,,
Texaco,,6551 Grapevine Hwy,,Fort Worth,TX,76180,United States,(817) 284-1019,,,,,,
Texaco,,1800 Belle View Blvd,,Alexandria,VA,22307,United States,(703) 765-2500,,,,,,
Texaco,,3401 King St,,Alexandria,VA,22302,United States,(703) 820-2792,,,,,,
Texaco,,10990 Johns Hopkins Rd,,Laurel,MD,20723,United States,(301) 490-4436,,,,,,
Texaco,,2300 Columbia Pike,,Arlington,VA,22204,United States,(703) 920-2808,,,,,,
Texaco,,2817 S Quincy St,,Arlington,VA,22206,United States,(703) 578-4656,,,,,,
Texaco,,8240 Wisconsin Ave,,Bethesda,MD,20814,United States,(301) 654-7472,,,,,,
Texaco,,442 N Henry St,,Alexandria,VA,22314,United States,(703) 683-0794,,,,,,
Texaco,,5601 Ager Rd,,Hyattsville,MD,20782,United States,(301) 559-5511,,,,,,
Texaco,,3105 S Garnett Rd,,Tulsa,OK,74146,United States,(918) 663-7691,,,,,,
Texaco,,299 Hwy 30 W,,New Albany,MS,38652,United States,(662) 534-0010,,,,,,
Texaco,,4640 Memorial Dr,,Decatur,GA,30032,United States,(404) 296-8326,,,,,,
Texaco,,6051 S Garnett Rd,,Tulsa,OK,74146,United States,(918) 250-8897,,,,,,
Texaco,,1107 SW 6th Ave,,Topeka,KS,66606,United States,(785) 232-0055,,,,,,
Texaco,,914 Rucker Blvd,,Enterprise,AL,36330,United States,(334) 393-5353,,,,,,
Texaco,,18603 Kuykendahl Rd,,Spring,TX,77379,United States,(281) 251-9950,,,,,,
Texaco,,7015 S 2000 E,,Salt Lake City,UT,84121,United States,(801) 942-2878,,,,,,
Texaco,,801 S Semoran Blvd,,Orlando,FL,32807,United States,(407) 275-1570,,,,,,
Texaco,,Us Hwy No 33 & George Dye Rd,,Trenton,NJ,08690,United States,(609) 890-0539,,,,,,
Texaco,,167 County Rd,,De Berry,TX,75639,United States,(903) 622-4511,,,,,,
Texaco,,2395 Lee Hwy,,Mount Sidney,VA,24467,United States,(540) 248-3324,,,,,,
Texaco,,901 E South Temple,,Salt Lake City,UT,84102,United States,(801) 363-2078,,,,,,
Texaco,,317 N 1st Ave,,Durant,OK,74701,United States,(580) 924-5551,,,,,,
Texaco,,11709 N Highway 11,,Salem,SC,29676,United States,(864) 944-0853,,,,,,
Texaco,,2377 Highway 441 S,,Clayton,GA,30525,United States,(706) 782-1511,,,,,,
Texaco,,650 Historic 441 Hwy,,Cornelia,GA,30531,United States,(706) 778-1902,,,,,,
Texaco,,848 S Big A Rd,,Toccoa,GA,30577,United States,(706) 282-5189,,,,,,
Texaco,,1736 W Mcalester Ave,,Sulphur,OK,73086,United States,(580) 622-2604,,,,,,
Texaco,,903 E MAIN ST,,Tishomingo,OK,73460,United States,(580) 371-3584,,,,,,
Texaco,,402 S Oak St,,Seneca,SC,29678,United States,(864) 882-1467,,,,,,
Texaco,,704 Port Republic Rd,,Harrisonburg,VA,22801,United States,(540) 433-8559,,,,,,
Texaco,,895 E Market St,,Harrisonburg,VA,22801,United States,(540) 432-2339,,,,,,
Texaco,,189 S Main St,,Timberville,VA,22853,United States,(540) 896-3939,,,,,,
Texaco,,1000 E Main St,,Nacogdoches,TX,75961,United States,(936) 564-0612,,,,,,
Texaco,,3806 Piping Rock St,,Nacogdoches,TX,75965,United States,(936) 552-7059,,,,,,
Texaco,,36453 Highway 101 N,,Nehalem,OR,97131,United States,(503) 368-5150,,,,,,
Texaco,,RURAL ROUTE 2801 THIRD ST,,Tillamook,OR,97141,United States,(503) 842-2172,,,,,,
Texaco,,803 Hurst St,,Center,TX,75935,United States,(936) 598-7704,,,,,,
Texaco,,Hgwy 59,,Timpson,TX,75975,United States,(936) 254-3719,,,,,,
Texaco,,480 Old Greenville Hwy,,Clemson,SC,29631,United States,(864) 654-3007,,,,,,
Texaco,,416 Main Ave N,,Tillamook,OR,97141,United States,(503) 842-9328,,,,,,
Texaco,,420 Cora St,,Center,TX,75935,United States,(936) 598-9345,,,,,,
Texaco,,9555 E Colonial Dr,,Orlando,FL,32817,United States,(407) 273-3555,,,,,,
Texaco,,1891 N County Road 426,,Oviedo,FL,32765,United States,(407) 359-3734,,,,,,
Texaco,,99 Hurst St,,Center,TX,75935,United States,(936) 598-3393,,,,,,
Texaco,,7373 University Blvd,,Winter Park,FL,32792,United States,(407) 657-6903,,,,,,
Texaco,,5625 N Atlantic Ave,,Cocoa Beach,FL,32931,United States,(321) 783-6552,,,,,,
Texaco,,9245 S 1300 E,,Sandy,UT,84094,United States,(801) 576-9657,,,,,,
Texaco,,8657 Buena Vista Dr,,Sandy,UT,84094,United States,(801) 568-0796,,,,,,
Texaco,,6785 S State St,,Salt Lake City,UT,84107,United States,(801) 266-4560,,,,,,
Texaco,,31862 Tidewater Trl,,Center Cross,VA,22437,United States,(804) 443-4950,,,,,,
Texaco,,1891 N Highway 426,,Oviedo,FL,32765,United States,(407) 359-3734,,,,,,
Texaco,,600 Hampton Hwy,,Yorktown,VA,23693,United States,(757) 867-9568,,,,,,
Texaco,,12730 Jefferson Ave,,Newport News,VA,23602,United States,(757) 988-0095,,,,,,
Texaco,,2245 Pocahontas Trl,,Quinton,VA,23141,United States,(804) 932-4658,,,,,,
Texaco,,6614 Express Dr,,Gloucester,VA,23061,United States,(804) 695-2800,,,,,,
Texaco,,9502 George Washington ME,,Gloucester,VA,23061,United States,(804) 693-4828,,,,,,
Texaco,,460 Cheney Hwy,,Titusville,FL,32780,United States,(321) 267-7511,,,,,,
Texaco,,5443 Richmond Rd,,Williamsburg,VA,23188,United States,(757) 565-3296,,,,,,
Texaco,,9201 Barhamsville Rd,,Toano,VA,23168,United States,(757) 566-1400,,,,,,
Texaco,,10207 S Redwood Rd,,South Jordan,UT,84095,United States,(801) 446-2916,,,,,,
Texaco,,5534 W 3500 S,,Salt Lake City,UT,84120,United States,(801) 966-1899,,,,,,
Texaco,,13648 S 2860 W,,Riverton,UT,84065,United States,(801) 254-3916,,,,,,
Texaco,,8021 S State St,,Midvale,UT,84047,United States,(801) 255-9831,,,,,,
Texaco,,12010 Spring Cypress Rd,,Tomball,TX,77377,United States,(281) 655-9786,,,,,,
Texaco,,7940 Research Forest Dr,,Spring,TX,77382,United States,(281) 292-2700,,,,,,
Texaco,,944 N Main St,,Tooele,UT,84074,United States,(435) 882-1100,,,,,,
Texaco,,5634 Spring Stuebner Rd,,Spring,TX,77389,United States,(281) 353-7170,,,,,,
Texaco,,6115 Root Rd,,Spring,TX,77389,United States,(281) 251-4884,,,,,,
Texaco,,14002 FM 2920 Rd,,Tomball,TX,77377,United States,(281) 351-4355,,,,,,
Texaco,,21950 Meadowhill Dr,,Spring,TX,77388,United States,(281) 355-1114,,,,,,
Texaco,,10500 Gosling Rd,,Spring,TX,77381,United States,(281) 364-8908,,,,,,
Texaco,,State Highway 549 & Burnt Tave,,Brick,NJ,08724,United States,(732) 206-0166,,,,,,
Texaco,,Route 9 & Route 571,,Toms River,NJ,08753,United States,(732) 286-0973,,,,,,
Texaco,,29910 Dobbin Hufsmith Rd,,Magnolia,TX,77354,United States,(281) 356-6130,,,,,,
Texaco,,1093 S Forest Ave,,Luverne,AL,36049,United States,(334) 335-6043,,,,,,
Texaco,,4450 Woodlands Pkwy,,Spring,TX,77381,United States,(281) 298-6557,,,,,,
Texaco,,5476 Jimmy Carter Blvd,,Norcross,GA,30093,United States,(770) 242-8674,,,,,,
Texaco,,2690 Shallowford Rd Ne,,Atlanta,GA,30341,United States,(770) 452-7820,,,,,,
Texaco,,2146 Lawrenceville Hwy,,Decatur,GA,30033,United States,(404) 315-7139,,,,,,
Texaco,,2805 Chamblee Tucker Rd,,Atlanta,GA,30341,United States,(770) 455-0220,,,,,,
Texaco,,5517 Memorial Dr,,Stone Mountain,GA,30083,United States,(404) 292-6228,,,,,,
Texaco,,2889 Chamblee Tucker Rd,,Atlanta,GA,30341,United States,(770) 451-9270,,,,,,
Texaco,,1109 Montreal Rd,,Clarkston,GA,30021,United States,(404) 299-2264,,,,,,
Texaco,,4403 Hugh Howell Rd,,Tucker,GA,30084,United States,(770) 270-1293,,,,,,
Texaco,,63466 Highway 25 N,,Smithville,MS,38870,United States,(662) 651-4522,,,,,,
Texaco,,909 S Brundidge St,,Troy,AL,36081,United States,(334) 566-6176,,,,,,
Texaco,,317 County Road 1529,,Baldwyn,MS,38824,United States,(662) 365-5852,,,,,,
Texaco,,117 Hwy 45 S,,Baldwyn,MS,38824,United States,(662) 365-8251,,,,,,
Texaco,,2832 Lawrenceville Hwy,,Tucker,GA,30084,United States,(770) 934-1962,,,,,,
Texaco,,181 Highway 15 N,,Pontotoc,MS,38863,United States,(662) 489-6900,,,,,,
Texaco,,2006 State Highway 33,,Trenton,NJ,08690,United States,(609) 890-9038,,,,,,
Texaco,,475 E Main St,,Tupelo,MS,38804,United States,(662) 840-4112,,,,,,
Texaco,,2235 W Main St,,Tupelo,MS,38801,United States,(662) 840-5154,,,,,,
Texaco,,1630 N Gloster St,,Tupelo,MS,38804,United States,(662) 840-5111,,,,,,
Texaco,,1341 Cliff Gookin Blvd,,Tupelo,MS,38801,United States,(662) 840-0234,,,,,,
Texaco,,8530 E Speedway Blvd,,Tucson,AZ,85710,United States,(520) 886-4402,,,,,,
Texaco,,4701 E 29th St,,Tucson,AZ,85711,United States,(520) 748-0222,,,,,,
Texaco,,1380 W Prince Rd,,Tucson,AZ,85705,United States,(520) 888-9223,,,,,,
Texaco,,Prince Rd & Flowing Wls,,Tucson,AZ,85705,United States,(520) 888-9223,,,,,,
Texaco,,3901 E 22nd St,,Tucson,AZ,85711,United States,(520) 327-1901,,,,,,
Texaco,,1570 W Grant Rd,,Tucson,AZ,85745,United States,(520) 882-2988,,,,,,
Texaco,,2350 N 1st Ave,,Tucson,AZ,85719,United States,(520) 623-8322,,,,,,
Texaco,,70 N Sheridan Rd,,Tulsa,OK,74115,United States,(918) 838-0334,,,,,,
Texaco,,247 W Oxford St,,Pontotoc,MS,38863,United States,(662) 488-4070,,,,,,
Texaco,,9101 S Memorial Dr,,Tulsa,OK,74133,United States,(918) 250-8977,,,,,,
Texaco,,3774 S 6th Ave,,Tucson,AZ,85713,United States,(520) 884-0645,,,,,,
Texaco,,5 N Yale Ave,,Tulsa,OK,74115,United States,(918) 838-8697,,,,,,
Texaco,,6506 E 101st St,,Tulsa,OK,74133,United States,(918) 299-7538,,,,,,
Texaco,,6111 S Sheridan Rd,,Tulsa,OK,74133,United States,(918) 494-2024,,,,,,
Texaco,,11 Renee Turner Mail,,Tulsa,OK,74102,United States,(918) 560-6057,,,,,,
Texaco,,6060 S Yale Ave,,Tulsa,OK,74135,United States,(918) 493-6193,,,,,,
Texaco,,3601 S Harvard Ave,,Tulsa,OK,74135,United States,(918) 742-8524,,,,,,
Texaco,,1017 N Harborth Ave,,Three Rivers,TX,78071,United States,(361) 786-3995,,,,,,
Texaco,,900 S Main St,,Kernersville,NC,27284,United States,(336) 993-2996,,,,,,
Texaco,,1282 Highway 70 S,,Belle Rose,LA,70341,United States,(985) 369-2629,,,,,,
Texaco,,409 W Hill St,,Thomson,GA,30824,United States,(706) 595-6616,,,,,,
Texaco,,1400 Wheeler Ave,,Texico,NM,88135,United States,(505) 482-9300,,,,,,
Texaco,,824 Richmond Rd,,Texarkana,TX,75503,United States,(903) 792-8315,,,,,,
Texaco,,915 W Government St,,Brandon,MS,39042,United States,(601) 825-0452,,,,,,
Texaco,,2021 N Prince St,,Clovis,NM,88101,United States,(505) 762-9633,,,,,,
Texaco,,10000 Highway 84,,Silas,AL,36919,United States,(251) 542-9969,,,,,,
Texaco,,17218 US Highway 19 N,,Clearwater,FL,33764,United States,(727) 535-4746,,,,,,
Texaco,,3430 Lakeview Pkwy,,Rowlett,TX,75088,United States,(972) 475-6639,,,,,,
Texaco,,8402 N Armenia Ave,,Tampa,FL,33604,United States,(813) 936-5121,,,,,,
Texaco,,4001 N Armenia Ave,,Tampa,FL,33607,United States,(813) 876-8388,,,,,,
Texaco,,409 E Highway 11,,Loudon,TN,37774,United States,(865) 458-3291,,,,,,
Texaco,,118 Appletree Ln,,Murphy,NC,28906,United States,(828) 321-5761,,,,,,
Texaco,,2211 W US Highway 70,,Thatcher,AZ,85552,United States,(928) 428-3131,,,,,,
Texaco,,4047 W Main St,,Thatcher,AZ,85552,United States,(928) 428-0196,,,,,,
Texaco,,202 E Madison Ave,,Athens,TN,37303,United States,(423) 745-3184,,,,,,
Texaco,,8000 New Highway 68,,Tellico Plains,TN,37385,United States,(423) 253-2100,,,,,,
Texaco,,707 W Ventura St,,Fillmore,CA,93015,United States,(805) 524-3435,,,,,,
Texaco,,1005 Lithia Pinecrest Rd,,Brandon,FL,33511,United States,(813) 653-3231,,,,,,
Texaco,,14546 Bruce B Downs Blvd,,Tampa,FL,33613,United States,(813) 978-8630,,,,,,
Texaco,,2210 N Park Rd,,Plant City,FL,33563,United States,(813) 754-3613,,,,,,
Texaco,,1502 Charles Ave,,Plant City,FL,33563,United States,(813) 764-8438,,,,,,
Texaco,,1830 Highway 72 E,,Huntsville,AL,35811,United States,(256) 858-9000,,,,,,
Texaco,,5143 E Busch Blvd,,Tampa,FL,33617,United States,(813) 989-0059,,,,,,
Texaco,,11369 N US Highway 301,,Thonotosassa,FL,33592,United States,(813) 986-2260,,,,,,
Texaco,,4800 N Dale Mabry Hwy,,Tampa,FL,33614,United States,(813) 870-1330,,,,,,
Texaco,,7525 Bailey Cove Rd SE,,Huntsville,AL,35802,United States,(256) 881-0060,,,,,,
Texaco,,823 Paseo Del Pueblo Sur,,Taos,NM,87571,United States,(505) 758-2290,,,,,,
Texaco,,11255 Al Highway 157,,Moulton,AL,35650,United States,(256) 974-5426,,,,,,
Texaco,,1212 Hundley Dr NW,,Huntsville,AL,35801,United States,(256) 534-7588,,,,,,
Texaco,,3200 Bob Wallace Ave SW,,Huntsville,AL,35805,United States,(256) 534-7588,,,,,,
Texaco,,307 Andrew Jackson Way Ne,,Huntsville,AL,35801,United States,(256) 551-0622,,,,,,
Texaco,,1202 Highway 31 NW,,Hartselle,AL,35640,United States,(256) 751-1050,,,,,,
Texaco,,2100 Drake Ave SW A,,Huntsville,AL,35805,United States,(256) 518-2345,,,,,,
Texaco,,1500 Monterey Pass Rd,,Monterey Park,CA,91754,United States,(323) 262-0704,,,,,,
Texaco,,2424 Jordan Ln NW,,Huntsville,AL,35816,United States,(256) 837-3023,,,,,,
Texaco,,24440 Lyons Ave,,Santa Clarita,CA,91321,United States,(661) 259-9133,,,,,,
Texaco,,9915 S Broadway,,Los Angeles,CA,90003,United States,(323) 755-6818,,,,,,
Texaco,,2819 State Road 60 E,,Valrico,FL,33594,United States,(813) 643-1462,,,,,,
Texaco,,4929 Las Virgenes Rd,,Calabasas,CA,91302,United States,(818) 880-8822,,,,,,
Texaco,,565 N Virgil Ave,,Los Angeles,CA,90004,United States,(323) 660-0945,,,,,,
Texaco,,1499 S Belcher Rd,,Clearwater,FL,33764,United States,(727) 535-7665,,,,,,
Texaco,,23030 Al Highway 20,,Tanner,AL,35671,United States,(256) 353-8565,,,,,,
Texaco,,5368 Ehrlich Rd,,Tampa,FL,33624,United States,(813) 960-2991,,,,,,
Texaco,,4560 E Los Angeles Ave,,Simi Valley,CA,93063,United States,(805) 526-5740,,,,,,
Texaco,,3170 Tampa Rd,,Oldsmar,FL,34677,United States,(813) 855-2224,,,,,,
Texaco,,4015 State Rd 54,,New Port Richey,FL,34655,United States,(727) 376-2891,,,,,,
Texaco,,1003 Florida Ave,,Palm Harbor,FL,34683,United States,(727) 787-5588,,,,,,
Texaco,,801 N Pinellas Ave,,Tarpon Springs,FL,34689,United States,(727) 942-3563,,,,,,
Texaco,,9008 State Road 52,,Port Richey,FL,34669,United States,(727) 868-2792,,,,,,
Texaco,,2675 Lakeland Dr,,Flowood,MS,39232,United States,(601) 932-6710,,,,,,
Texaco,,1264 High St,,Jackson,MS,39202,United States,(601) 354-2248,,,,,,
Texaco,,549 Highway 80 W,,Clinton,MS,39056,United States,(601) 924-9502,,,,,,
Texaco,,550 Springridge Rd,,Clinton,MS,39056,United States,(601) 924-9388,,,,,,
Texaco,,18101 Ventura Blvd,,Tarzana,CA,91356,United States,(818) 774-0823,,,,,,
Texaco,,380 E Mcdowell Rd,,Jackson,MS,39204,United States,(601) 372-7232,,,,,,
Texaco,,511 W Cunningham Ave,,Terry,MS,39170,United States,(601) 878-5436,,,,,,
Texaco,,1501 Gulf To Bay Blvd,,Clearwater,FL,33755,United States,(727) 442-9195,,,,,,
Texaco,,4715 Broadway Blvd,,Garland,TX,75043,United States,(972) 240-1407,,,,,,
Texaco,,1101 E Highway 80,,Mesquite,TX,75150,United States,(972) 285-5698,,,,,,
Texaco,,5249 Broadway Blvd,,Garland,TX,75043,United States,(972) 240-0931,,,,,,
Texaco,,106 E Highway 80,,Mesquite,TX,75149,United States,(972) 216-0014,,,,,,
Texaco,,6154 Old Canton Rd,,Jackson,MS,39211,United States,(601) 956-3791,,,,,,
Texaco,,630 Highway 80 E,,Flowood,MS,39232,United States,(601) 939-9215,,,,,,
Texaco,,2210 N Highway 175,,Seagoville,TX,75159,United States,(972) 287-2230,,,,,,
Texaco,,600 E Malloy Bridge Rd,,Seagoville,TX,75159,United States,(972) 287-3240,,,,,,
Texaco,,2225 Ridge Rd,,Rockwall,TX,75087,United States,(972) 771-0671,,,,,,
Texaco,,9000 Spencer Hwy,,La Porte,TX,77571,United States,(281) 930-1766,,,,,,
Texaco,,1433 S Belt Line Rd # 110,,Mesquite,TX,75149,United States,(972) 285-4848,,,,,,
Texaco,,10401 W Fairmont Pkwy,,La Porte,TX,77571,United States,(281) 471-4251,,,,,,
Texaco,,3104 Highway 49 S,,Florence,MS,39073,United States,(601) 845-3579,,,,,,
Texaco,,3504 E FM 528 Rd,,Friendswood,TX,77546,United States,(281) 992-8926,,,,,,
Texaco,,County Rd 169,,Alvin,TX,77511,United States,(281) 331-7488,,,,,,
Texaco,,1910 NASA Pkwy,,Houston,TX,77058,United States,(281) 486-8875,,,,,,
Texaco,,108 N Rockwall St,,Terrell,TX,75160,United States,(972) 563-9918,,,,,,
Texaco,,4610 NASA Pkwy,,Seabrook,TX,77586,United States,(281) 326-4411,,,,,,
Texaco,,1265 Highway 70 S,,Belle Rose,LA,70341,United States,(985) 369-7918,,,,,,
Texaco,,551 S Van Ave,,Houma,LA,70363,United States,(985) 580-3339,,,,,,
Texaco,,1248 Saint Charles St,,Houma,LA,70360,United States,(985) 868-1992,,,,,,
Texaco,,105 FM 517 Rd W,,Dickinson,TX,77539,United States,(281) 337-4512,,,,,,
Texaco,,1810 Bayport Blvd,,Seabrook,TX,77586,United States,(281) 474-4813,,,,,,
Texaco,,711 E 1st St,,Thibodaux,LA,70301,United States,(985) 447-7803,,,,,,
Texaco,,1690 W Main St,,League City,TX,77573,United States,(281) 332-8134,,,,,,
Texaco,,3054 Highway 5,,Thomasville,AL,36784,United States,(334) 636-8288,,,,,,
Texaco,,10327 Randleman Rd,,Randleman,NC,27317,United States,(336) 498-4996,,,,,,
Texaco,,5390 Samet Dr,,High Point,NC,27265,United States,(336) 841-5823,,,,,,
Texaco,,1123 S Main St,,Lexington,NC,27292,United States,(336) 248-6266,,,,,,
Texaco,,6352 Old Us Highway 52,,Lexington,NC,27295,United States,(336) 731-4794,,,,,,
Texaco,,700 Raleigh Rd,,Lexington,NC,27292,United States,(336) 249-8504,,,,,,
Texaco,,2703 N Main St,,High Point,NC,27265,United States,(336) 885-4848,,,,,,
Texaco,,2800 S Main St,,High Point,NC,27263,United States,(336) 861-1898,,,,,,
Texaco,,1402 Texas Ave,,Texas City,TX,77590,United States,(409) 945-2980,,,,,,
Texaco,,609 Randolph St,,Thomasville,NC,27360,United States,(336) 476-0046,,,,,,
Texaco,,1415 National Hwy,,Thomasville,NC,27360,United States,(336) 889-2414,,,,,,
Texaco,,4300 Chandler Rd,,Muskogee,OK,74403,United States,(918) 687-7451,,,,,,
Texaco,,1408 Oxford St,,Worthington,MN,56187,United States,(507) 376-4700,,,,,,
Texaco,,901 E Stanley,,Tahlequah,OK,74464,United States,(918) 456-6251,,,,,,
Texaco,,13818 Purdy Dr NW,,Gig Harbor,WA,98332,United States,(253) 851-4057,,,,,,
Texaco,,2101 Moody Pkwy,,Moody,AL,35004,United States,(205) 640-5909,,,,,,
Texaco,,4015 Fred George Rd,,Tallahassee,FL,32303,United States,(850) 514-1020,,,,,,
Texaco,,91 W State Road 436,,Altamonte Springs,FL,32714,United States,(407) 788-1004,,,,,,
Texaco,,597 W Winnemucca Blvd,,Winnemucca,NV,89445,United States,(775) 623-4440,,,,,,
Texaco,,Route 131,,Ascutney,VT,05030,United States,(802) 674-2667,,,,,,
Texaco,,1773 Bypass Rd,,Winchester,TN,37398,United States,(931) 967-4372,,,,,,
Texaco,,3001 W Colonial Dr,,Orlando,FL,32808,United States,(407) 299-1246,,,,,,
Texaco,,6054 Burke Commons Rd,,Burke,VA,22015,United States,(703) 978-2515,,,,,,
Texaco,,700 Plum St,,Texarkana,TX,75501,United States,(903) 793-3103,,,,,,
Texaco,,6620 Backlick Rd,,Springfield,VA,22150,United States,(703) 569-6041,,,,,,
Texaco,,10215 Main St,,Oakman,AL,35579,United States,(205) 622-2400,,,,,,
Texaco,,2625 Ne Diamond Lake Blvd,,Roseburg,OR,97470,United States,(541) 673-1366,,,,,,
Texaco,,123 Sunset Rd,,Hodges,AL,35571,United States,(205) 935-3977,,,,,,
Texaco,,1230 W Harvard Ave,,Roseburg,OR,97470,United States,(541) 673-4555,,,,,,
Texaco,,102 Cooper Ln,,Winchester,TN,37398,United States,(931) 967-4372,,,,,,
Texaco,,67859 Highway 17,,Detroit,AL,35552,United States,(205) 273-4551,,,,,,
Texaco,,2535 Riley Harp Rd,,Winfield,AL,35594,United States,(205) 465-2621,,,,,,
Texaco,,6908 Winners Cir,,Fairfax Station,VA,22039,United States,(703) 764-1519,,,,,,
Texaco,,150 SW Douglas Blvd,,Winston,OR,97496,United States,(541) 679-3446,,,,,,
Texaco,,10515 Alpharetta St,,Roswell,GA,30075,United States,(770) 998-3995,,,,,,
Texaco,,1515 Temple Ave N,,Fayette,AL,35555,United States,(205) 932-6430,,,,,,
Texaco,,12680 Darby Brook CT,,Woodbridge,VA,22192,United States,(703) 494-5800,,,,,,
Texaco,,8851 Richmond Hwy,,Alexandria,VA,22309,United States,(703) 780-3283,,,,,,
Texaco,,2850 Dale Blvd,,Woodbridge,VA,22193,United States,(703) 670-4996,,,,,,
Texaco,,2850 Dale Blvd,,Dale City,VA,22193,United States,(703) 670-4996,,,,,,
Texaco,,14352 Gideon Dr,,Woodbridge,VA,22192,United States,(703) 497-0052,,,,,,
Texaco,,1005 N Queen St,,Martinsburg,WV,25401,United States,(304) 263-7920,,,,,,
Texaco,,8315 Old Keene Mill Rd,,Springfield,VA,22152,United States,(703) 451-3030,,,,,,
Texaco,,1004 Winchester Ave,,Martinsburg,WV,25401,United States,(304) 263-3133,,,,,,
Texaco,,2 Somerset Village Ctr,,Charles Town,WV,25414,United States,(304) 728-1172,,,,,,
Texaco,,400 S Fairfax Blvd,,Ranson,WV,25438,United States,(304) 725-5476,,,,,,
Texaco,,1000 Foxcroft Ave,,Martinsburg,WV,25401,United States,(304) 267-8489,,,,,,
Texaco,,I 81 RR 51,,Inwood,WV,25428,United States,(304) 229-8613,,,,,,
Texaco,,7947 Main St,,Middletown,VA,22645,United States,(540) 869-5397,,,,,,
Texaco,,55 Main St,,Windsor,VT,05089,United States,(802) 674-2834,,,,,,
Texaco,,2775 Lewisville Clemmons,,Clemmons,NC,27012,United States,(336) 766-5499,,,,,,
Texaco,,725 NC Highway 66 S,,Kernersville,NC,27284,United States,(336) 993-7697,,,,,,
Texaco,,307 E Mountain St,,Kernersville,NC,27284,United States,(336) 993-3741,,,,,,
Texaco,,1208 Berryville Ave,,Winchester,VA,22601,United States,(540) 667-7456,,,,,,
Texaco,,9801 Richmond Hwy,,Lorton,VA,22079,United States,(703) 339-9800,,,,,,
Texaco,,2901 Reynolda Rd,,Winston Salem,NC,27106,United States,(336) 725-1975,,,,,,
Texaco,,386 Rickard Dr,,Winston Salem,NC,27101,United States,(336) 998-1723,,,,,,
Texaco,,511 Cinema Dr,,Kernersville,NC,27284,United States,(336) 993-3088,,,,,,
Texaco,,10761 Alpharetta Hwy,,Roswell,GA,30076,United States,(770) 650-0503,,,,,,
Texaco,,3258 Hwy 65 8,,Germanton,NC,27019,United States,(336) 591-5113,,,,,,
Texaco,,4323 Bells Ferry Rd NW,,Kennesaw,GA,30144,United States,(770) 926-2733,,,,,,
Texaco,,4261 Bells Ferry Rd NW,,Kennesaw,GA,30144,United States,(770) 928-7123,,,,,,
Texaco,,6223 Bells Ferry Rd,,Acworth,GA,30102,United States,(770) 926-7080,,,,,,
Texaco,,2981 Shallowford Rd,,Marietta,GA,30066,United States,(770) 977-2296,,,,,,
Texaco,,9378 Highway 92,,Woodstock,GA,30188,United States,(770) 926-7930,,,,,,
Texaco,,11141 Highway 92,,Woodstock,GA,30188,United States,(770) 928-6424,,,,,,
Texaco,,4101 Springwood Pl,,Marietta,GA,30062,United States,(770) 427-9090,,,,,,
Texaco,,2375 Shallowford Rd,,Marietta,GA,30066,United States,(770) 591-7555,,,,,,
Texaco,,505 S Conway Rd,,Orlando,FL,32807,United States,(407) 275-1210,,,,,,
Texaco,,2610 Edgewater Dr,,Orlando,FL,32804,United States,(407) 841-4846,,,,,,
Texaco,,610 Lee Rd,,Orlando,FL,32810,United States,(407) 645-2755,,,,,,
Texaco,,325 E Par St,,Orlando,FL,32804,United States,(407) 644-5977,,,,,,
Texaco,,17997 SW Lower Boones Fer,,Portland,OR,97224,United States,(503) 639-8917,,,,,,
Texaco,,180 Obrien Rd,,Casselberry,FL,32730,United States,(407) 834-8000,,,,,,
Texaco,,585 Wallace Rd NW,,Salem,OR,97304,United States,(503) 364-5525,,,,,,
Texaco,,201 Highway 436,,Casselberry,FL,32730,United States,(407) 830-9777,,,,,,
Texaco,,3401 River Rd N,,Salem,OR,97303,United States,(503) 463-6399,,,,,,
Texaco,,4390 Terraza CT Ne,,Salem,OR,97301,United States,(503) 623-9910,,,,,,
Texaco,,701 Deborah Rd,,Newberg,OR,97132,United States,(503) 538-1679,,,,,,
Texaco,,1491 Lancaster Dr SE,,Salem,OR,97301,United States,(503) 581-5020,,,,,,
Texaco,,12334 Ehlen Rd Ne,,Aurora,OR,97002,United States,(503) 678-1558,,,,,,
Texaco,,21687 Highway 99e Ne,,Aurora,OR,97002,United States,(503) 678-2600,,,,,,
Texaco,,204 Highway 99w,,Newberg,OR,97132,United States,(503) 538-2226,,,,,,
Texaco,,2410 W Pensacola St,,Tallahassee,FL,32304,United States,(850) 576-3366,,,,,,
Texaco,,2828 N Monroe St,,Tallahassee,FL,32303,United States,(850) 385-2026,,,,,,
Texaco,,100 N Arney Rd,,Woodburn,OR,97071,United States,(503) 981-5833,,,,,,
Texaco,,2030 US Highway 78 E,,Oxford,AL,36203,United States,(256) 835-2109,,,,,,
Texaco,,3130 Mcclellan Blvd,,Anniston,AL,36201,United States,(256) 231-1145,,,,,,
Texaco,,2209 Martin St S,,Pell City,AL,35128,United States,(205) 338-8892,,,,,,
Texaco,,525 Battle St E,,Talladega,AL,35160,United States,(256) 761-1199,,,,,,
Texaco,,202 Grace St,,Oxford,AL,36203,United States,(256) 831-1350,,,,,,
Texaco,,1960 US Highway 78 E,,Oxford,AL,36203,United States,(256) 835-1956,,,,,,
Texaco,,1005 S College Ave,,Newark,DE,19713,United States,(302) 368-5652,,,,,,
Texaco,,409 Stafford Ave,,Newark,DE,19711,United States,(302) 368-4274,,,,,,
Texaco,,380 E Chestnut Hill Rd,,Newark,DE,19713,United States,(302) 737-1154,,,,,,
Texaco,,9082 Warwick Blvd,,Newport News,VA,23607,United States,(757) 244-7658,,,,,,
Texaco,,3701 Kell Blvd,,Wichita Falls,TX,76308,United States,(940) 696-9034,,,,,,
Texaco,,400 Wythe Creek Rd,,Poquoson,VA,23662,United States,(757) 868-7000,,,,,,
Texaco,,2145 Cobb Pkwy NW,,Kennesaw,GA,30152,United States,(770) 424-6242,,,,,,
Texaco,,550 Kidder St,,Wilkes Barre,PA,18702,United States,(570) 823-7222,,,,,,
Texaco,,10967 Melody Dr,,Denver,CO,80234,United States,(303) 252-9420,,,,,,
Texaco,,111 W DIXON RD,,Little Rock,AR,72206,United States,(501) 490-1771,,,,,,
Texaco,,2000 W Mississippi Ave,,Denver,CO,80223,United States,(303) 934-2625,,,,,,
Texaco,,4020 E 104th Ave,,Denver,CO,80233,United States,(303) 452-2543,,,,,,
Texaco,,208 W Service Rd,,West Memphis,AR,72301,United States,(870) 735-9352,,,,,,
Texaco,,1592 W Chester Pike,,West Chester,PA,19382,United States,(610) 918-9833,,,,,,
Texaco,,16002 SE 82nd Dr,,Clackamas,OR,97015,United States,(503) 650-1331,,,,,,
Texaco,,10120 SW Capitol Hwy,,Portland,OR,97219,United States,(503) 245-3848,,,,,,
Texaco,,14115 SE Mcloughlin Blvd,,Portland,OR,97267,United States,(503) 659-5141,,,,,,
Texaco,,645 W Boynton Beach Blvd,,Boynton Beach,FL,33426,United States,(561) 732-2279,,,,,,
Texaco,,12220 Highway A1a Alt,,Palm Beach Gardens,FL,33410,United States,(561) 624-9458,,,,,,
Texaco,,1301 Hypoluxo Rd,,Lake Worth,FL,33462,United States,(561) 533-9015,,,,,,
Texaco,,3025 Atlanta Hwy,,Phenix City,AL,36867,United States,(334) 448-4481,,,,,,
Texaco,,2650 Manchester Expy,,Columbus,GA,31904,United States,(706) 653-8855,,,,,,
Texaco,,3474 Opelika Rd,,Phenix City,AL,36870,United States,(334) 448-5007,,,,,,
Texaco,,16211 Boones Ferry Rd,,Lake Oswego,OR,97035,United States,(503) 636-8037,,,,,,
Texaco,,3764 Opelika Rd,,Phenix City,AL,36870,United States,(334) 448-7695,,,,,,
Texaco,,9119 US Highway 27,,Franklin,GA,30217,United States,(706) 675-1695,,,,,,
Texaco,,11290 SW Bull Mountain Rd,,Portland,OR,97224,United States,(503) 788-4551,,,,,,
Texaco,,4228 SE Woodstock Blvd,,Portland,OR,97206,United States,(503) 771-6909,,,,,,
Texaco,,4703 S Military Trl,,Lake Worth,FL,33463,United States,(561) 641-3839,,,,,,
Texaco,,3639 S Military Trl,,Lake Worth,FL,33463,United States,(561) 641-3025,,,,,,
Texaco,,300 S 6th St,,Opelika,AL,36801,United States,(334) 749-3326,,,,,,
Texaco,,1901 N Dixie Hwy,,Lake Worth,FL,33460,United States,(561) 586-1202,,,,,,
Texaco,,1107 Main St,,Roanoke,AL,36274,United States,(334) 863-4101,,,,,,
Texaco,,50 Haverhill Rd N,,West Palm Beach,FL,33415,United States,(561) 683-9558,,,,,,
Texaco,,200 W 8th St,,West Point,GA,31833,United States,(706) 643-8850,,,,,,
Texaco,,4111 Okeechobee Blvd,,West Palm Beach,FL,33409,United States,(561) 684-0570,,,,,,
Texaco,,5201 S Dixie Hwy,,West Palm Beach,FL,33405,United States,(561) 585-8023,,,,,,
Texaco,,17869 SE Mcloughlin Blvd,,Portland,OR,97267,United States,(503) 513-5823,,,,,,
Texaco,,22355 Willamette Dr,,West Linn,OR,97068,United States,(503) 657-4083,,,,,,
Texaco,,1301 S Sheridan Blvd,,Denver,CO,80232,United States,(303) 935-1148,,,,,,
Texaco,,917 10th St,,West Palm Beach,FL,33403,United States,(561) 844-8796,,,,,,
Texaco,,5400 Brighton Blvd,,Commerce City,CO,80022,United States,(303) 292-0155,,,,,,
Texaco,,1002 Molalla Ave,,Oregon City,OR,97045,United States,(503) 657-1098,,,,,,
Texaco,,6065 W 48th Ave,,Wheat Ridge,CO,80033,United States,(303) 424-9150,,,,,,
Texaco,,9590 Federal Blvd,,Denver,CO,80260,United States,(303) 426-4400,,,,,,
Texaco,,7061 Sheridan Blvd # B,,Arvada,CO,80003,United States,(303) 650-9732,,,,,,
Texaco,,6990 Federal Blvd,,Denver,CO,80221,United States,(303) 657-3320,,,,,,
Texaco,,4885 Kipling St,,Wheat Ridge,CO,80033,United States,(303) 420-4292,,,,,,
Texaco,,943 Highway 53 East SE,,Calhoun,GA,30701,United States,(706) 629-3516,,,,,,
Texaco,,1233 S Sheridan Blvd,,Denver,CO,80232,United States,(303) 937-8338,,,,,,
Texaco,,3791 W 72nd Ave,,Westminster,CO,80030,United States,(303) 429-9098,,,,,,
Texaco,,8815 Federal Blvd,,Denver,CO,80260,United States,(303) 426-7975,,,,,,
Texaco,,2471 Highway 411 NE,,White,GA,30184,United States,(770) 382-8040,,,,,,
Texaco,,650 Riverstone Pkwy,,Canton,GA,30114,United States,(770) 479-7102,,,,,,
Texaco,,5629 Highway 20 NE,,Cartersville,GA,30121,United States,(770) 387-0005,,,,,,
Texaco,,5415 E Sardis Rd,,Hensley,AR,72065,United States,(501) 888-4130,,,,,,
Texaco,,Hwy 167 270,,Sheridan,AR,72150,United States,(870) 942-3950,,,,,,
Texaco,,8816 Ohio River Rd,,Wheelersburg,OH,45694,United States,(740) 574-5145,,,,,,
Texaco,,1500 E Harding Ave,,Pine Bluff,AR,71601,United States,(870) 534-3028,,,,,,
Texaco,,2801 S Hazel St,,Pine Bluff,AR,71603,United States,(870) 536-5264,,,,,,
Texaco,,4116 Us Highway 23,,Portsmouth,OH,45662,United States,(740) 353-7117,,,,,,
Texaco,,3701 Camden Rd,,Pine Bluff,AR,71603,United States,(870) 879-0699,,,,,,
Texaco,,1501 Big Bethel Rd # 100,,Hampton,VA,23666,United States,(757) 766-7690,,,,,,
Texaco,,715 Mayland Dr,,Newport News,VA,23601,United States,(757) 591-1941,,,,,,
Texaco,,288 Christiana Rd,,New Castle,DE,19720,United States,(302) 326-3980,,,,,,
Texaco,,2315 Argillite Rd,,Flatwoods,KY,41139,United States,(606) 833-0608,,,,,,
Texaco,,5203 Dollarway Rd,,White Hall,AR,71602,United States,(870) 247-9954,,,,,,
Texaco,,3932 Concord Pike,,Wilmington,DE,19803,United States,(302) 479-5650,,,,,,
Texaco,,1203 N Brightleaf Blvd,,Smithfield,NC,27577,United States,(919) 938-2700,,,,,,
Texaco,,5821 Limestone Rd,,Hockessin,DE,19707,United States,(302) 239-7190,,,,,,
Texaco,,7730 NC Highway 48,,Battleboro,NC,27809,United States,(252) 977-6883,,,,,,
Texaco,,RURAL ROUTE 2 BOX 442,,Wilson,NC,27893,United States,(252) 237-1422,,,,,,
Texaco,,3800 Kennett Pike,,Wilmington,DE,19807,United States,(302) 571-8920,,,,,,
Texaco,,3625 Kirkwood Hwy,,Wilmington,DE,19808,United States,(302) 994-8445,,,,,,
Texaco,,4107 Edison Ave,,Chino,CA,91710,United States,(909) 613-9011,,,,,,
Texaco,,12130 Mora Dr Ste 1,,Santa Fe Springs,CA,90670,United States,(562) 903-2700,,,,,,
Texaco,,632 S Main St,,Clute,TX,77531,United States,(979) 265-8964,,,,,,
Texaco,,710 Colgate Ln,,Newark,DE,19711,United States,(302) 738-7487,,,,,,
Texaco,,88 9th St Ne,,East Wenatchee,WA,98802,United States,(509) 884-6531,,,,,,
Texaco,,350 Jennings Rd,,Fairfield,CT,06825,United States,(203) 579-8880,,,,,,
Texaco,,227 Old Angleton Rd,,Lake Jackson,TX,77566,United States,(979) 265-9084,,,,,,
Texaco,,1245 Seminole Trl,,Charlottesville,VA,22901,United States,(434) 973-9216,,,,,,
Texaco,,549 NW Highway 131,,Holden,MO,64040,United States,(816) 850-6915,,,,,,
Texaco,,740 S 1st St,,Charlottesville,VA,22902,United States,(434) 293-9143,,,,,,
Texaco,,120 E Riverside Dr,,Saint George,UT,84790,United States,(435) 628-9033,,,,,,
Texaco,,103 N Water St,,La Grange,TX,78945,United States,(979) 968-5156,,,,,,
Texaco,,400 W Street Rd,,Warminster,PA,18974,United States,(215) 443-8576,,,,,,
Texaco,,244 NW 21st Rd,,Warrensburg,MO,64093,United States,(660) 747-8660,,,,,,
Texaco,,880 W Red Cliffs Dr,,Washington,UT,84780,United States,(435) 628-0137,,,,,,
Texaco,,100 10th Ave SE,,Waseca,MN,56093,United States,(507) 835-7464,,,,,,
Texaco,,2095 Diamond Hill Rd,,Cumberland,RI,02864,United States,(401) 333-9870,,,,,,
Texaco,,1541 Cottageville Hwy,,Walterboro,SC,29488,United States,(843) 538-7861,,,,,,
Texaco,,815 N Houston Rd,,Warner Robins,GA,31093,United States,(478) 328-8402,,,,,,
Texaco,,800 Springhill Rd,,Staunton,VA,24401,United States,(540) 886-2002,,,,,,
Texaco,,443 Airport Rd,,Arden,NC,28704,United States,(828) 654-9033,,,,,,
Texaco,,2368 US 70 Hwy,,Swannanoa,NC,28778,United States,(828) 686-5567,,,,,,
Texaco,,701 N Main St,,Hendersonville,NC,28792,United States,(828) 692-9244,,,,,,
Texaco,,RURAL ROUTE 36,,Staunton,VA,24401,United States,(540) 885-2707,,,,,,
Texaco,,171 Weaver Blvd,,Weaverville,NC,28787,United States,(828) 658-0446,,,,,,
Texaco,,2316 Davis Rd,,Waynesboro,VA,22980,United States,(540) 942-2823,,,,,,
Texaco,,185 E Broad St,,Waynesboro,VA,22980,United States,(540) 943-6230,,,,,,
Texaco,,1011 S Jefferies Blvd,,Walterboro,SC,29488,United States,(843) 549-7519,,,,,,
Texaco,,812 Greenville Ave,,Staunton,VA,24401,United States,(540) 885-7365,,,,,,
Texaco,,24 Sky Top Rd,,Ridgefield,CT,06877,United States,(203) 438-8936,,,,,,
Texaco,,819 Federal Rd,,Brookfield,CT,06804,United States,(203) 775-0622,,,,,,
Texaco,,710 W Main St,,New Britain,CT,06053,United States,(860) 827-1697,,,,,,
Texaco,,119 N Turnpike Rd,,Wallingford,CT,06492,United States,(203) 269-3146,,,,,,
Texaco,,30 Reidville Dr,,Waterbury,CT,06705,United States,(203) 755-7812,,,,,,
Texaco,,501 Rife Rd,,Waynesboro,VA,22980,United States,(540) 949-4185,,,,,,
Texaco,,2215 Highway 71 S,,Columbus,TX,78934,United States,(979) 732-2744,,,,,,
Texaco,,14800 State Hwy 2,,Waterville,WA,98858,United States,(509) 745-8682,,,,,,
Texaco,,847 Holub Rd,,Schulenburg,TX,78956,United States,(979) 743-3088,,,,,,
Texaco,,801 S Eagle St,,Weimar,TX,78962,United States,(979) 725-6240,,,,,,
Texaco,,220 Highway 332 W,,Lake Jackson,TX,77566,United States,(979) 292-0836,,,,,,
Texaco,,Damon Hwy,,West Columbia,TX,77486,United States,(979) 345-3525,,,,,,
Texaco,,344 Armistice Blvd,,Pawtucket,RI,02861,United States,(401) 726-8985,,,,,,
Texaco,,76 NEWPORT AVE,,Pawtucket,RI,02861,United States,(401) 722-1295,,,,,,
Texaco,,835 Walnut St,,Columbus,TX,78934,United States,(979) 732-2076,,,,,,
Texaco,,263 Putnam Pike,,Smithfield,RI,02917,United States,(401) 231-8186,,,,,,
Texaco,,24 Lake Avenue EXT,,Danbury,CT,06811,United States,(203) 798-8312,,,,,,
Texaco,,1015 Boston Neck Rd,,Narragansett,RI,02882,United States,(401) 783-3060,,,,,,
Texaco,,835 Bald Hill Rd,,Warwick,RI,02886,United States,(401) 826-2224,,,,,,
Texaco,,173 Danielson Pike,,Foster,RI,02825,United States,(401) 647-3468,,,,,,
Texaco,,7025 Post Rd,,North Kingstown,RI,02852,United States,(401) 884-9434,,,,,,
Texaco,,2400 W Shore Rd,,Warwick,RI,02889,United States,(401) 732-0733,,,,,,
Texaco,,1804 Greenleaf Dr,,West Covina,CA,91792,United States,(626) 912-3006,,,,,,
Texaco,,95 Nooseneck Hill Rd,,West Greenwich,RI,02817,United States,(401) 397-9437,,,,,,
Texaco,,380 E Main St,,Branford,CT,06405,United States,(203) 483-7052,,,,,,
Texaco,,1190 Quaker Ln,,East Greenwich,RI,02818,United States,(401) 884-9733,,,,,,
Texaco,,172 Deming St,,Manchester,CT,06040,United States,(860) 644-4578,,,,,,
Texaco,,107 28th Ave S,,Waite Park,MN,56387,United States,(320) 203-7040,,,,,,
Texaco,,318 Adams St,,Manchester,CT,06040,United States,(860) 646-2899,,,,,,
Texaco,,120 Holden Beach Rd,,South Brunswick,NC,28470,United States,(910) 754-3705,,,,,,
Texaco,,1185 Yellow Bird Rd,,Blackstone,VA,23824,United States,(434) 292-5865,,,,,,
Texaco,,6141 South Loop E,,Houston,TX,77087,United States,(713) 649-3388,,,,,,
Texaco,,116 Louisiana Ave W,,Soperton,GA,30457,United States,(912) 529-4191,,,,,,
Texaco,,5640 Northside Dr NW,,Atlanta,GA,30328,United States,(770) 952-7270,,,,,,
Texaco,,14711 FM 529 Rd,,Houston,TX,77095,United States,(281) 855-7861,,,,,,
Texaco,,5012 Nolensville Rd,,Nashville,TN,37211,United States,(615) 333-9820,,,,,,
Texaco,,2815 Club Dr,,Lawrenceville,GA,30044,United States,(678) 380-3445,,,,,,
Texaco,,9640 Evergreen Way,,Everett,WA,98204,United States,(425) 353-7822,,,,,,
Texaco,,1121 Hwy 290,,Elgin,TX,78621,United States,(512) 281-4887,,,,,,
Texaco,,300 E Six Forks Rd,,Raleigh,NC,27609,United States,(919) 755-0053,,,,,,
Texaco,,333 E Austin St,,Giddings,TX,78942,United States,(979) 542-3872,,,,,,
Texaco,,4305 Jessup Dr,,Garner,NC,27529,United States,(919) 772-1977,,,,,,
Texaco,,1031 Chase Creek CT,,Lawrenceville,GA,30044,United States,(678) 442-7739,,,,,,
Texaco,,247 E State Highway 71,,Smithville,TX,78957,United States,(512) 360-4267,,,,,,
Texaco,,320 3rd Ave,,Smithville,TX,78957,United States,(512) 237-2430,,,,,,
Texaco,,2490 Cruse Rd,,Lawrenceville,GA,30044,United States,(770) 962-7375,,,,,,
Texaco,,490 Pleasant Hill Rd NW,,Lilburn,GA,30047,United States,(770) 279-9786,,,,,,
Texaco,,32 Killian Hill Rd SW,,Lilburn,GA,30047,United States,(678) 380-1412,,,,,,
Texaco,,1000 Grayson Hwy,,Lawrenceville,GA,30045,United States,(770) 962-2847,,,,,,
Texaco,,3320 Capital Blvd,,Raleigh,NC,27604,United States,(919) 954-1995,,,,,,
Texaco,,4720 Atlanta Hwy,,Loganville,GA,30052,United States,(770) 554-1546,,,,,,
Texaco,,5260 Stone Mountain Hwy,,Stone Mountain,GA,30087,United States,(770) 498-4408,,,,,,
Texaco,,3125 Lenora Church Rd,,Snellville,GA,30039,United States,(770) 985-9678,,,,,,
Texaco,,7876 Old Covington Hwy SW,,Conyers,GA,30012,United States,(770) 483-3623,,,,,,
Texaco,,1112 Bell Rd,,Antioch,TN,37013,United States,(615) 731-8980,,,,,,
Texaco,,2723 Murfreesboro Rd,,Antioch,TN,37013,United States,(615) 367-9793,,,,,,
Texaco,,5012 Nolensville Pike,,Nashville,TN,37211,United States,(615) 333-9820,,,,,,
Texaco,,1438 Memorial Blvd,,Murfreesboro,TN,37129,United States,(615) 893-2261,,,,,,
Texaco,,14910 Old Hickory Blvd,,Nashville,TN,37211,United States,(615) 834-0504,,,,,,
Texaco,,722 President Pl,,Smyrna,TN,37167,United States,(615) 355-6559,,,,,,
Texaco,,4360 Floyd Rd SW,,Mableton,GA,30126,United States,(770) 941-2500,,,,,,
Texaco,,824 S Cobb Dr SE,,Marietta,GA,30060,United States,(678) 355-9973,,,,,,
Texaco,,352 N Thompson Ln,,Murfreesboro,TN,37129,United States,(615) 907-2501,,,,,,
Texaco,,824 Cobb Pkwy S,,Marietta,GA,30060,United States,(678) 355-9973,,,,,,
Texaco,,1414 S Cobb Dr SE,,Marietta,GA,30060,United States,(770) 421-1635,,,,,,
Texaco,,4745 S Atlanta Rd SE,,Smyrna,GA,30080,United States,(404) 799-3366,,,,,,
Texaco,,4725 S Atlanta Rd SE,,Smyrna,GA,30080,United States,(404) 799-3366,,,,,,
Texaco,,500 Chaney Rd,,Smyrna,TN,37167,United States,(615) 223-9880,,,,,,
Texaco,,2145 Powers Ferry Rd SE,,Marietta,GA,30067,United States,(770) 226-8433,,,,,,
Texaco,,2671 S Cobb Dr SE,,Smyrna,GA,30080,United States,(770) 434-4225,,,,,,
Texaco,,6719 Evergreen Way,,Everett,WA,98203,United States,(425) 388-4577,,,,,,
Texaco,,5100 Murfreesboro Rd,,La Vergne,TN,37086,United States,(615) 793-7331,,,,,,
Texaco,,5001 Evergreen Way,,Everett,WA,98203,United States,(425) 259-2465,,,,,,
Texaco,,5632 Evergreen Way,,Everett,WA,98203,United States,(425) 347-2321,,,,,,
Texaco,,2411 Broadway,,Everett,WA,98201,United States,(425) 252-8834,,,,,,
Texaco,,801 Vernon Rd,,Everett,WA,98205,United States,(425) 397-2367,,,,,,
Texaco,,19045 Lenton Pl SE,,Monroe,WA,98272,United States,(360) 794-3156,,,,,,
Texaco,,512 2nd St,,Snohomish,WA,98290,United States,(360) 568-2419,,,,,,
Texaco,,1889 Cobb Pkwy S,,Marietta,GA,30060,United States,(770) 952-8905,,,,,,
Texaco,,801 E Atlantic St,,South Hill,VA,23970,United States,(434) 447-7423,,,,,,
Texaco,,7309 Highway Fifty Eight,,Clarksville,VA,23927,United States,(434) 374-0685,,,,,,
Texaco,,10999 Scarsdale Blvd,,Houston,TX,77089,United States,(281) 484-1940,,,,,,
Texaco,,3105 Red Bluff Rd,,Pasadena,TX,77503,United States,(713) 472-0751,,,,,,
Texaco,,11055 S Sam Houston Pkwy,,Houston,TX,77089,United States,(281) 481-0400,,,,,,
Texaco,,7702 Bellfort St,,Houston,TX,77061,United States,(713) 641-4242,,,,,,
Texaco,,14300 Gulf Fwy,,Houston,TX,77034,United States,(281) 484-0909,,,,,,
Texaco,,7930 Airport Blvd,,Houston,TX,77061,United States,(713) 752-4741,,,,,,
Texaco,,7450 Galveston Rd,,Houston,TX,77034,United States,(713) 941-7209,,,,,,
Texaco,,8115 Gulf Fwy,,Houston,TX,77017,United States,(713) 641-5754,,,,,,
Texaco,,17702 Kieth Harrow Blvd,,Houston,TX,77084,United States,(281) 345-9566,,,,,,
Texaco,,7506 Highway 6 N,,Houston,TX,77095,United States,(281) 859-9006,,,,,,
Texaco,,1216 Spencer Hwy,,South Houston,TX,77587,United States,(713) 941-8297,,,,,,
Texaco,,21025 Tomball Pkwy,,Houston,TX,77070,United States,(281) 320-0090,,,,,,
Texaco,,18540 FM 1488 Rd,,Magnolia,TX,77354,United States,(281) 259-8725,,,,,,
Texaco,,2610 Hempstead Hwy,,Waller,TX,77484,United States,(936) 931-3979,,,,,,
Texaco,,15038 Mason Rd,,Cypress,TX,77433,United States,(281) 373-9264,,,,,,
Texaco,,3432 132nd St SE,,Bothell,WA,98012,United States,(425) 357-0440,,,,,,
Texaco,,948 Eddie Dowling Hwy,,North Smithfield,RI,02896,United States,(401) 765-1530,,,,,,
Texaco,,4005 N Blackhawk Rd,,Silver City,NM,88061,United States,(505) 538-2647,,,,,,
Texaco,,9232 Chef Menteur Hwy,,New Orleans,LA,70127,United States,(504) 244-9508,,,,,,
Texaco,,430 Main St,,New Madrid,MO,63869,United States,(573) 748-2318,,,,,,
Texaco,,HWY 60 W,,Sikeston,MO,63801,United States,(573) 471-2476,,,,,,
Texaco,,Hwy 17,,Aliceville,AL,35442,United States,(205) 373-8550,,,,,,
Texaco,,890 Bert Kouns Industrial Loop,,Shreveport,LA,71118,United States,(318) 687-3233,,,,,,
Texaco,,4624 Telephone Rd,,Ventura,CA,93003,United States,(805) 639-0144,,,,,,
Texaco,,580 E 5th St,,Sheridan,WY,82801,United States,(307) 674-6717,,,,,,
Texaco,,1101 Memorial Blvd,,Picayune,MS,39466,United States,(601) 798-8518,,,,,,
Texaco,,1229 E Brundage Ln,,Sheridan,WY,82801,United States,(307) 672-6802,,,,,,
Texaco,,422 Fm Rd,,Seymour,TX,76380,United States,(940) 888-2243,,,,,,
Texaco,,1104 W South St,,Benton,AR,72015,United States,(501) 778-4283,,,,,,
Texaco,,904 Pennsylvania Ave S,,Minneapolis,MN,55426,United States,(763) 545-9854,,,,,,
Texaco,,8900 Stagecoach Rd,,Little Rock,AR,72210,United States,(501) 455-3511,,,,,,
Texaco,,3544 Lyndale Ave S,,Minneapolis,MN,55408,United States,(612) 822-6088,,,,,,
Texaco,,1570 Thomas Center Dr,,Eagan,MN,55122,United States,(651) 405-6990,,,,,,
Texaco,,3830 Sibley Memorial Hwy,,Saint Paul,MN,55122,United States,(651) 681-1488,,,,,,
Texaco,,507 Boston Tpke,,Shrewsbury,MA,01545,United States,(508) 842-8101,,,,,,
Texaco,,255 Triangle Ln N,,Jordan,MN,55352,United States,(952) 492-7737,,,,,,
Texaco,,807 1st Ave E,,Shakopee,MN,55379,United States,(952) 445-2478,,,,,,
Texaco,,2825 Cliff Rd E,,Burnsville,MN,55337,United States,(952) 890-9988,,,,,,
Texaco,,10800 Rhode Island Ave S,,Minneapolis,MN,55438,United States,(952) 944-0010,,,,,,
Texaco,,14801 County Road 5,,Burnsville,MN,55306,United States,(952) 435-9236,,,,,,
Texaco,,401 Kings Hwy,,Shreveport,LA,71104,United States,(318) 865-8382,,,,,,
Texaco,,303 N Main St,,Benton,AR,72015,United States,(501) 315-8986,,,,,,
Texaco,,1570 Thomas Center Dr,,Saint Paul,MN,55122,United States,(651) 405-6990,,,,,,
Texaco,,1040 W 4th St,,Benson,AZ,85602,United States,(520) 586-4645,,,,,,
Texaco,,Highway 145,,Shuqualak,MS,39361,United States,(662) 793-4523,,,,,,
Texaco,,906 Hwy 92,,Bisbee,AZ,85603,United States,(520) 432-3113,,,,,,
Texaco,,350 Voters Rd,,Slidell,LA,70461,United States,(985) 643-6089,,,,,,
Texaco,,5217 S Highway 92,,Sierra Vista,AZ,85650,United States,(520) 378-6981,,,,,,
Texaco,,412 3rd Ave NW,,Aliceville,AL,35442,United States,(205) 373-8550,,,,,,
Texaco,,2500 River Rd,,Piedmont,SC,29673,United States,(864) 269-2568,,,,,,
Texaco,,7118 Highway 613,,Moss Point,MS,39563,United States,(228) 474-6590,,,,,,
Texaco,,743 1st Ave,,Zillah,WA,98953,United States,(509) 829-3636,,,,,,
Texaco,,9990 State Highway 104,,Fairhope,AL,36532,United States,(251) 990-5151,,,,,,
Texaco,,5012 Rigsby Ave,,San Antonio,TX,78222,United States,(210) 648-4840,,,,,,
Texaco,,2315 Harry Wurzbach Rd,,San Antonio,TX,78209,United States,(210) 824-0847,,,,,,
Texaco,,629 N Ridgewood Dr,,Sebring,FL,33870,United States,(863) 382-0001,,,,,,
Texaco,,9791 Ferguson Rd,,Dallas,TX,75228,United States,(214) 321-0615,,,,,,
Texaco,,3901 SW Alaska St,,Seattle,WA,98116,United States,(206) 937-4308,,,,,,
Texaco,,2557 Lummi Dr,,Ferndale,WA,98248,United States,(360) 380-2049,,,,,,
Texaco,,305 E Thomas Rd,,Phoenix,AZ,85012,United States,(602) 234-2778,,,,,,
Texaco,,6573 Highway 431 S,,Owens Cross Roads,AL,35763,United States,(256) 536-2241,,,,,,
Texaco,,100 Pasadena Ave S,,Saint Petersburg,FL,33707,United States,(727) 347-5240,,,,,,
Texaco,,3509 S Broad St,,Scottsboro,AL,35769,United States,(256) 574-2346,,,,,,
Texaco,,23424 John T Reid Pkwy,,Scottsboro,AL,35768,United States,(256) 574-5823,,,,,,
Texaco,,8200 E R L Thornton Fwy,,Dallas,TX,75228,United States,(214) 327-0294,,,,,,
Texaco,,3201 E Willow St,,Scottsboro,AL,35768,United States,(256) 574-1661,,,,,,
Texaco,,219 W Willow St,,Scottsboro,AL,35768,United States,(256) 218-3060,,,,,,
Texaco,,756 W Southern Ave,,Mesa,AZ,85210,United States,(480) 969-2250,,,,,,
Texaco,,13202 N Cave Creek Rd,,Phoenix,AZ,85022,United States,(602) 867-9893,,,,,,
Texaco,,2002 Avenue I,,Scottsbluff,NE,69361,United States,(308) 632-5741,,,,,,
Texaco,,2033 W University Dr,,Mesa,AZ,85201,United States,(480) 890-0607,,,,,,
Texaco,,3243 E Indian School Rd,,Phoenix,AZ,85018,United States,(602) 508-9270,,,,,,
Texaco,,3620 E Indian School Rd,,Phoenix,AZ,85018,United States,(602) 955-4181,,,,,,
Texaco,,RURAL ROUTE 7401E MC DOWELL,,Scottsdale,AZ,85257,United States,(480) 945-1613,,,,,,
Texaco,,15111 N Hayden Rd Ste 100,,Scottsdale,AZ,85260,United States,(480) 951-2611,,,,,,
Texaco,,4001 N Pima Rd,,Scottsdale,AZ,85251,United States,(480) 947-6400,,,,,,
Texaco,,6335 N 7th St,,Phoenix,AZ,85014,United States,(602) 277-5396,,,,,,
Texaco,,1315 Dupont St,,Bellingham,WA,98225,United States,(360) 733-9706,,,,,,
Texaco,,310 Lakeway Dr,,Bellingham,WA,98225,United States,(360) 734-8690,,,,,,
Texaco,,1215 N Lake Samish Dr,,Bellingham,WA,98229,United States,(360) 733-5467,,,,,,
Texaco,,826 SE Midway Blvd,,Oak Harbor,WA,98277,United States,(360) 675-7011,,,,,,
Texaco,,308 SE Everett Mall Way,,Everett,WA,98208,United States,(425) 347-6898,,,,,,
Texaco,,1454 Lake Samish Rd,,Bellingham,WA,98226,United States,(360) 724-0319,,,,,,
Texaco,,9440 Old Highway 99 North,,Burlington,WA,98233,United States,(360) 757-2323,,,,,,
Texaco,,3601 Highway 67,,Mesquite,TX,75150,United States,(972) 279-5518,,,,,,
Texaco,,8470 Lake June Rd,,Dallas,TX,75217,United States,(214) 391-2929,,,,,,
Texaco,,3208 Northwest Ave,,Bellingham,WA,98225,United States,(360) 647-1489,,,,,,
Texaco,,1710 Freeway Dr,,Mount Vernon,WA,98273,United States,(360) 424-8010,,,,,,
Texaco,,802 W State Route 20,,Sedro Woolley,WA,98284,United States,(360) 856-4555,,,,,,
Texaco,,2461 4th Ave S,,Seattle,WA,98134,United States,(206) 623-4294,,,,,,
Texaco,,523 15th Ave E,,Seattle,WA,98112,United States,(206) 324-2256,,,,,,
Texaco,,2555 13th Ave SW,,Seattle,WA,98134,United States,(206) 224-0487,,,,,,
Texaco,,1701 E Madison St,,Seattle,WA,98122,United States,(206) 324-9916,,,,,,
Texaco,,511 S Dearborn St,,Seattle,WA,98134,United States,(206) 625-9212,,,,,,
Texaco,,1013 Ne 45th St,,Seattle,WA,98105,United States,(206) 547-3800,,,,,,
Texaco,,3303 Kenilworth Blvd,,Sebring,FL,33870,United States,(863) 382-6866,,,,,,
Texaco,,2400 E Bay Dr,,Largo,FL,33771,United States,(727) 531-6362,,,,,,
Texaco,,210 Ne 45th St,,Seattle,WA,98105,United States,(206) 632-3495,,,,,,
Texaco,,6903 66th St,,Pinellas Park,FL,33781,United States,(727) 546-3758,,,,,,
Texaco,,3727 Tyrone Blvd N,,Saint Petersburg,FL,33710,United States,(727) 344-7523,,,,,,
Texaco,,13098 Walsingham Rd,,Largo,FL,33774,United States,(727) 596-5974,,,,,,
Texaco,,4797 94th St N,,Saint Petersburg,FL,33708,United States,(727) 391-4757,,,,,,
Texaco,,601 Boren Ave,,Seattle,WA,98104,United States,(206) 623-0954,,,,,,
Texaco,,12434 NACOGDOCHES RD,,San Antonio,TX,78217,United States,(210) 654-0847,,,,,,
Texaco,,7545 Fm 78,,San Antonio,TX,78244,United States,(210) 310-7525,,,,,,
Texaco,,6390 Seminole Blvd,,Seminole,FL,33772,United States,(727) 392-2502,,,,,,
Texaco,,7196 Crestway Dr,,San Antonio,TX,78239,United States,(210) 646-0787,,,,,,
Texaco,,3115 Pat Booker Rd,,Universal City,TX,78148,United States,(210) 659-2266,,,,,,
Texaco,,799 Schertz Pkwy,,Schertz,TX,78154,United States,(210) 659-1937,,,,,,
Texaco,,992 S Business Ih 35,,New Braunfels,TX,78130,United States,(830) 620-7827,,,,,,
Texaco,,715 N Highway 123 Byp,,Seguin,TX,78155,United States,(830) 372-2242,,,,,,
Texaco,,1404 N Dolarway Rd,,Ellensburg,WA,98926,United States,(509) 962-2747,,,,,,
Texaco,,110 W Washington Ave,,Yakima,WA,98903,United States,(509) 457-9268,,,,,,
Texaco,,313 S 1st St,,Selah,WA,98942,United States,(509) 697-6000,,,,,,
Texaco,,101 University Way,,Ellensburg,WA,98926,United States,(509) 925-9216,,,,,,
Texaco,,100 Telegraph Rd,,Mobile,AL,36611,United States,(251) 456-4369,,,,,,
Texaco,,7103 Harlow Dr,,San Antonio,TX,78218,United States,(210) 590-7762,,,,,,
Texaco,,7907 Airport Blvd,,Mobile,AL,36608,United States,(251) 634-1145,,,,,,
Texaco,,2908 Highway 86,,Piedmont,SC,29673,United States,(864) 845-4106,,,,,,
Texaco,,1712 Easley Hwy,,Pelzer,SC,29669,United States,(864) 947-9977,,,,,,
Texaco,,7100 Highway 63,,Moss Point,MS,39563,United States,(228) 474-6303,,,,,,
Texaco,,1500 Broadway,,Seattle,WA,98122,United States,(206) 324-0919,,,,,,
Texaco,,615 Austin Hwy,,San Antonio,TX,78209,United States,(210) 822-4875,,,,,,
Texaco,,Route 88,,Yarmouth,ME,04096,United States,(207) 846-3901,,,,,,
Texaco,,101 Cole St,,Sayre,PA,18840,United States,(570) 888-4341,,,,,,
Texaco,,4846 4th St N,,Saint Petersburg,FL,33703,United States,(727) 521-2835,,,,,,
Texaco,,Hwy 336,,Ridgeland,SC,29936,United States,(843) 726-2195,,,,,,
Texaco,,125 Mathews Dr,,Hilton Head Island,SC,29926,United States,(843) 681-2305,,,,,,
Texaco,,6085 Cat Canyon Rd,,Santa Maria,CA,93454,United States,(805) 937-7216,,,,,,
Texaco,,7209 Waters Ave,,Savannah,GA,31406,United States,(912) 691-2678,,,,,,
Texaco,,791 Route 1,,Yarmouth,ME,04096,United States,(207) 846-3901,,,,,,
Texaco,,236 Drayton St,,Savannah,GA,31401,United States,(912) 232-2067,,,,,,
Texaco,,303 N Summit Ave,,Lake Helen,FL,32744,United States,(386) 228-2286,,,,,,
Texaco,,1006 Valerie Cir,,Santa Fe,NM,87507,United States,(505) 471-4538,,,,,,
Texaco,,9200 Moffett Rd,,Semmes,AL,36575,United States,(251) 645-3884,,,,,,
Texaco,,302 Moffett Pl,,Goleta,CA,93117,United States,(805) 648-1383,,,,,,
Texaco,,2690 W State Road 434,,Longwood,FL,32779,United States,(407) 772-0811,,,,,,
Texaco,,1502 Portesuello Ave,,Santa Barbara,CA,93105,United States,(805) 564-3191,,,,,,
Texaco,,1309 S 500 W,,Bountiful,UT,84010,United States,(801) 295-5146,,,,,,
Texaco,,1301 W 25th St,,Sanford,FL,32771,United States,(407) 321-2832,,,,,,
Texaco,,836 1/2 E Anapamu St,,Santa Barbara,CA,93103,United States,(805) 965-3234,,,,,,
Texaco,,1107 De Narvaez Ave,,Bradenton,FL,34209,United States,(941) 722-6810,,,,,,
Texaco,,6620 Manatee Ave W,,Bradenton,FL,34209,United States,(941) 794-1871,,,,,,
Texaco,,4940 34th St S,,Saint Petersburg,FL,33711,United States,(727) 866-2972,,,,,,
Texaco,,2014 S Belt Hwy,,Saint Joseph,MO,64507,United States,(816) 232-9558,,,,,,
Texaco,,450 Champlain Dr,,Deltona,FL,32725,United States,(386) 424-5774,,,,,,
Texaco,,456 Payne Rd,,Scarborough,ME,04074,United States,(207) 883-1171,,,,,,
Texaco,,19 East Rd,,Sarasota,FL,34240,United States,(941) 377-3262,,,,,,
Texaco,,1801 S Tamiami Trl,,Sarasota,FL,34239,United States,(941) 953-3355,,,,,,
Texaco,,11911 San Pedro Ave,,San Antonio,TX,78216,United States,(210) 494-7914,,,,,,
Texaco,,7275 Thornton Ave,,Newark,CA,94560,United States,(510) 792-2171,,,,,,
Texaco,,2310 A St,,Antioch,CA,94509,United States,(925) 706-9566,,,,,,
Texaco,,305 N 71 Hwy,,Savannah,MO,64485,United States,(816) 324-4726,,,,,,
Texaco,,6001 Bollinger Canyon Rd,,San Ramon,CA,94583,United States,(925) 842-1000,,,,,,
Texaco,,302 N 4th St,,San Jon,NM,88434,United States,(505) 576-2569,,,,,,
Texaco,,1526 N New Braunfels Ave,,San Antonio,TX,78208,United States,(210) 223-3043,,,,,,
Texaco,,1167 Patricia,,San Antonio,TX,78213,United States,(210) 342-5240,,,,,,
Texaco,,2310 Babcock Rd,,San Antonio,TX,78229,United States,(210) 614-1864,,,,,,
Texaco,,6420 Lake Washington Blvd,,Renton,WA,98056,United States,(425) 255-2754,,,,,,
Texaco,,515 Pendleton St,,Greenville,SC,29601,United States,(864) 235-4888,,,,,,
Texaco,,1401 N Chadbourne St,,San Angelo,TX,76903,United States,(325) 658-4312,,,,,,
Texaco,,192 Bernard Rd,,Albemarle,NC,28001,United States,(704) 982-9712,,,,,,
Texaco,,7655 Sunset Hwy,,Mercer Island,WA,98040,United States,(206) 232-8190,,,,,,
Texaco,,527 NW North Albany Rd,,Albany,OR,97321,United States,(541) 791-3530,,,,,,
Texaco,,7424 4th St N,,Saint Petersburg,FL,33702,United States,(727) 527-8148,,,,,,
Texaco,,2525 Pacific Blvd SE,,Albany,OR,97321,United States,(541) 926-2098,,,,,,
Texaco,,3135 Santiam Hwy SE,,Albany,OR,97322,United States,(541) 926-6682,,,,,,
Texaco,,66575 Sargeant Canyon Rd,,San Ardo,CA,93450,United States,(831) 627-2571,,,,,,
Texaco,,3750 Commercial St SE,,Salem,OR,97302,United States,(503) 391-5823,,,,,,
Texaco,,3630 S Main St,,Blacksburg,VA,24060,United States,(540) 552-0605,,,,,,
Texaco,,114 Sheraton Dr,,Salem,VA,24153,United States,(540) 562-2549,,,,,,
Texaco,,5425 Forest Dr,,Columbia,SC,29206,United States,(803) 787-3446,,,,,,
Texaco,,4800 Forest Dr,,Columbia,SC,29206,United States,(803) 787-7146,,,,,,
Texaco,,7603 Williamson Rd,,Roanoke,VA,24019,United States,(540) 366-6579,,,,,,
Texaco,,105 N Main St,,Gaston,SC,29053,United States,(803) 791-5653,,,,,,
Texaco,,1715 Leesburg Rd,,Columbia,SC,29209,United States,(803) 776-3037,,,,,,
Texaco,,721 Harry C Raysor Dr,,Saint Matthews,SC,29135,United States,(803) 874-2811,,,,,,
Texaco,,1041 N Main St,,Mooresville,NC,28115,United States,(704) 664-4555,,,,,,
Texaco,,1410 Monmouth St,,Independence,OR,97351,United States,(503) 838-6343,,,,,,
Texaco,,600 Jake Alexander Blvd W,,Salisbury,NC,28147,United States,(704) 636-3803,,,,,,
Texaco,,927 Elmwood Ave,,Columbia,SC,29201,United States,(803) 779-3445,,,,,,
Texaco,,5115 Davidson Hwy,,Concord,NC,28027,United States,(704) 795-4870,,,,,,
Texaco,,2150 E Main St,,Duncan,SC,29334,United States,(864) 433-9723,,,,,,
Texaco,,1791 Asheville Hwy,,Spartanburg,SC,29303,United States,(864) 583-3655,,,,,,
Texaco,,500 Ozone Dr,,Saluda,NC,28773,United States,(828) 749-2041,,,,,,
Texaco,,1484 Ozone Dr,,Saluda,NC,28773,United States,(828) 749-3029,,,,,,
Texaco,,9620 116th Ave Ne,,Kirkland,WA,98033,United States,(425) 827-7808,,,,,,
Texaco,,2170 Dale St N,,Saint Paul,MN,55113,United States,(651) 488-8800,,,,,,
Texaco,,1155 Prosperity Ave,,Saint Paul,MN,55106,United States,(651) 771-0888,,,,,,
Texaco,,1174 Rice St,,Saint Paul,MN,55117,United States,(651) 489-9901,,,,,,
Texaco,,6976 Cahill Ave,,Inver Grove Heights,MN,55076,United States,(651) 450-9707,,,,,,
Texaco,,2659 148th Ave SE,,Bellevue,WA,98007,United States,(425) 643-2288,,,,,,
Texaco,,520 7th St E,,Saint Paul,MN,55101,United States,(651) 222-7045,,,,,,
Texaco,,14008 Ne 8th St,,Bellevue,WA,98007,United States,(425) 957-4427,,,,,,
Texaco,,1221 Washington Ave S,,Minneapolis,MN,55415,United States,(612) 333-8900,,,,,,
Texaco,,1608 145th Pl SE,,Bellevue,WA,98007,United States,(425) 746-5515,,,,,,
Texaco,,604 Chesnee Hwy,,Spartanburg,SC,29303,United States,(864) 582-1575,,,,,,
Texaco,,106 148th Ave Ne,,Bellevue,WA,98007,United States,(425) 746-1244,,,,,,
Texaco,,401 W Mills St,,Columbus,NC,28722,United States,(828) 894-2096,,,,,,
Texaco,,2936 228th Ave SE,,Sammamish,WA,98075,United States,(425) 392-2663,,,,,,
Texaco,,18065 Redmond Way,,Redmond,WA,98052,United States,(425) 883-2234,,,,,,
Texaco,,106 148th Ave SE,,Bellevue,WA,98007,United States,(425) 747-9533,,,,,,
Texaco,,6303 S Orange Blossom Trl,,Orlando,FL,32809,United States,(407) 855-2890,,,,,,
Texaco,,14195 Clayton Rd,,Chesterfield,MO,63017,United States,(636) 227-1208,,,,,,
Texaco,,9910 Orchard Hills Rd,,Jacksonville,FL,32256,United States,(904) 464-0074,,,,,,
Texaco,,3511 US Route 60,,Huntington,WV,25705,United States,(304) 733-6121,,,,,,
Texaco,,158 Private Drive 8323,,Proctorville,OH,45669,United States,(740) 886-7508,,,,,,
Texaco,,1060 Palm Coast Pkwy NW,,Palm Coast,FL,32137,United States,(386) 446-7981,,,,,,
Texaco,,411 W Landry St,,Opelousas,LA,70570,United States,(337) 948-9060,,,,,,
Texaco,,1102 S Military Hwy,,Chesapeake,VA,23320,United States,(757) 420-9749,,,,,,
Texaco,,1204 University Blvd N,,Jacksonville,FL,32211,United States,(904) 743-9152,,,,,,
Texaco,,1 Sugar Creek Ctr,,Fenton,MO,63026,United States,(636) 349-4445,,,,,,
Texaco,,665 Chicot Park Rd,,Ville Platte,LA,70586,United States,(337) 363-5800,,,,,,
Texaco,,415 Tiffentown Rd,,Vicksburg,MS,39183,United States,(601) 636-6410,,,,,,
Texaco,,812 SE Thornhill Dr,,Port Saint Lucie,FL,34983,United States,(772) 466-8088,,,,,,
Texaco,,1775 N Washington St,,Vicksburg,MS,39183,United States,(601) 638-8380,,,,,,
Texaco,,199 W Main St,,Vernal,UT,84078,United States,(435) 789-9990,,,,,,
Texaco,,1530 Thumb Point Dr,,Fort Pierce,FL,34949,United States,(772) 466-2759,,,,,,
Texaco,,5675 S US Highway 1,,Fort Pierce,FL,34982,United States,(772) 466-5495,,,,,,
Texaco,,7961 S US Highway 1,,Port Saint Lucie,FL,34952,United States,(772) 344-2092,,,,,,
Texaco,,12150 Mall Blvd,,Victorville,CA,92392,United States,(760) 843-1108,,,,,,
Texaco,,33b Fisher Ferry Rd,,Vicksburg,MS,39180,United States,(601) 636-8185,,,,,,
Texaco,,2932 Clay St,,Vicksburg,MS,39183,United States,(601) 638-2936,,,,,,
Texaco,,3060 Indiana Ave,,Vicksburg,MS,39180,United States,(601) 638-8674,,,,,,
Texaco,,5627 Telegraph Rd,,Saint Louis,MO,63129,United States,(314) 846-0500,,,,,,
Texaco,,9520 State Road 60,,Vero Beach,FL,32966,United States,(772) 794-1272,,,,,,
Texaco,,8061 Clayton Rd,,Saint Louis,MO,63117,United States,(314) 727-7800,,,,,,
Texaco,,4460 Clay St,,Vicksburg,MS,39183,United States,(601) 636-2012,,,,,,
Texaco,,3491 Atlanta Hwy,,Hiram,GA,30141,United States,(770) 445-2750,,,,,,
Texaco,,3984 Bankhead Hwy,,Lithia Springs,GA,30122,United States,(770) 944-0891,,,,,,
Texaco,,4321 Brownsville Rd,,Powder Springs,GA,30127,United States,(770) 439-8447,,,,,,
Texaco,,4637 Gravois Rd,,House Springs,MO,63051,United States,(636) 671-0442,,,,,,
Texaco,,301 W 5th St,,Eureka,MO,63025,United States,(636) 938-5746,,,,,,
Texaco,,207 S Central Dryer,,Eureka,MO,63025,United States,(636) 587-3511,,,,,,
Texaco,,2243 N 25th St,,Fort Pierce,FL,34946,United States,(772) 466-8088,,,,,,
Texaco,,1455 Jimmy Campbell Pkwy,,Dallas,GA,30132,United States,(770) 443-5351,,,,,,
Texaco,,7620 Dallas Hwy,,Douglasville,GA,30134,United States,(770) 577-2770,,,,,,
Texaco,,6280 Fairburn Rd,,Douglasville,GA,30134,United States,(770) 942-4225,,,,,,
Texaco,,2980 Highway 5,,Douglasville,GA,30135,United States,(770) 920-0097,,,,,,
Texaco,,10135 E Highway 78,,Villa Rica,GA,30180,United States,(770) 459-3700,,,,,,
Texaco,,738 Carrollton Villa Rica Hwy,,Villa Rica,GA,30180,United States,(770) 456-8091,,,,,,
Texaco,,1435 N Park St,,Carrollton,GA,30117,United States,(770) 836-0353,,,,,,
Texaco,,15209 Manchester Rd,,Ballwin,MO,63011,United States,(636) 256-9199,,,,,,
Texaco,,2750 N Military Hwy,,Norfolk,VA,23518,United States,(757) 855-8705,,,,,,
Texaco,,2416 Princess Anne Rd,,Virginia Beach,VA,23456,United States,(757) 427-1525,,,,,,
Texaco,,6621 Indian River Rd,,Virginia Beach,VA,23464,United States,(757) 420-5441,,,,,,
Texaco,,1900 Centerville Tpke,,Virginia Beach,VA,23464,United States,(757) 479-3778,,,,,,
Texaco,,705 22nd St,,Virginia Beach,VA,23451,United States,(757) 425-1044,,,,,,
Texaco,,720 First Colonial Rd,,Virginia Beach,VA,23451,United States,(757) 422-1613,,,,,,
Texaco,,1213 Gravois Rd,,Saint Clair,MO,63077,United States,(636) 629-6336,,,,,,
Texaco,,5440 Wesleyan Dr,,Virginia Beach,VA,23455,United States,(757) 490-5850,,,,,,
Texaco,,786 E Vista Way,,Vista,CA,92084,United States,(760) 941-4004,,,,,,
Texaco,,4428 Leatherwood Dr,,Virginia Beach,VA,23462,United States,(757) 499-9623,,,,,,
Texaco,,808 B St,,Saint Albans,WV,25177,United States,(304) 722-3126,,,,,,
Texaco,,301 E Farmington Rd,,Virginia Beach,VA,23454,United States,(757) 463-6705,,,,,,
Texaco,,3451 N Ponce DE Leon Blvd,,Saint Augustine,FL,32084,United States,(904) 824-8090,,,,,,
Texaco,,1790 US Highway 1 S,,Saint Augustine,FL,32084,United States,(904) 826-0387,,,,,,
Texaco,,3900 A1a S,,Saint Augustine,FL,32080,United States,(904) 471-7393,,,,,,
Texaco,,651 S Ponce DE Leon Blvd,,Saint Augustine,FL,32084,United States,(904) 829-9403,,,,,,
Texaco,,5211 Janet Ave,,Saint Louis,MO,63136,United States,(314) 381-1175,,,,,,
Texaco,,1322 N Main St,,O Fallon,MO,63366,United States,(636) 281-8860,,,,,,
Texaco,,7498 Delmar Blvd,,Saint Louis,MO,63130,United States,(314) 727-4404,,,,,,
Texaco,,3120 N US Highway 67,,Florissant,MO,63033,United States,(314) 831-3000,,,,,,
Texaco,,7323 N Lindbergh Blvd,,Hazelwood,MO,63042,United States,(314) 921-0991,,,,,,
Texaco,,10701 Page Ave,,Saint Louis,MO,63132,United States,(314) 423-2290,,,,,,
Texaco,,1801 N 2nd St,,Saint Charles,MO,63301,United States,(636) 946-3150,,,,,,
Texaco,,2675 W Clay St,,Saint Charles,MO,63301,United States,(636) 946-5232,,,,,,
Texaco,,5290 Chiswick Cir,,Orlando,FL,32812,United States,(407) 851-7546,,,,,,
Texaco,,3541 N Ponce De Leon Blvd,,Saint Augustine,FL,32084,United States,(904) 824-8090,,,,,,
Texaco,,2889 N Highway 94,,Saint Charles,MO,63301,United States,(636) 940-9981,,,,,,
Texaco,,1078 N Hoagland Blvd,,Kissimmee,FL,34741,United States,(407) 846-1519,,,,,,
Texaco,,2645 Highway 207,,Saint Augustine,FL,32085,United States,(904) 829-5539,,,,,,
Texaco,,3009 W Vine St,,Kissimmee,FL,34741,United States,(407) 933-4250,,,,,,
Texaco,,4701 Meadow Dr,,Saint Cloud,FL,34772,United States,(407) 892-3228,,,,,,
Texaco,,1028 Florida Pkwy,,Kissimmee,FL,34743,United States,(407) 344-0906,,,,,,
Texaco,,3820 Canoe Creek Rd,,Saint Cloud,FL,34772,United States,(407) 957-2878,,,,,,
Texaco,,719 13TH ST,,Saint Cloud,FL,34769,United States,(407) 892-3588,,,,,,
Texaco,,810 Golfair Blvd,,Jacksonville,FL,32209,United States,(904) 355-7610,,,,,,
Texaco,,101 Victoriana,,Kingsland,GA,31548,United States,(912) 729-7028,,,,,,
Texaco,,205 Charlie Smith Sr Hwy,,Saint Marys,GA,31558,United States,(912) 882-2300,,,,,,
Texaco,,4692 W Irlo Bronson Memor,,Kissimmee,FL,34746,United States,(407) 396-0524,,,,,,
Texaco,,14000 Town Loop Blvd,,Orlando,FL,32837,United States,(407) 240-5800,,,,,,
Texaco,,401 Main St,,Vantage,WA,98950,United States,(509) 856-2811,,,,,,
Texaco,,3000 Edgewood Ave W,,Jacksonville,FL,32209,United States,(904) 764-6257,,,,,,
Texaco,,2355 NW Town Center Dr,,Beaverton,OR,97006,United States,(503) 629-8721,,,,,,
Texaco,,5434 SE 72nd Ave,,Portland,OR,97206,United States,(503) 771-7327,,,,,,
Texaco,,2011 E Main St,,Uvalde,TX,78801,United States,(830) 278-9652,,,,,,
Texaco,,2640 100th St,,Urbandale,IA,50322,United States,(515) 270-1010,,,,,,
Texaco,,10275 SW Park Way,,Portland,OR,97225,United States,(503) 292-0974,,,,,,
Texaco,,16010 Road 1 NW,,Quincy,WA,98848,United States,(509) 785-6111,,,,,,
Texaco,,222 Upper Riverdale Rd,,Jonesboro,GA,30236,United States,(770) 991-2866,,,,,,
Texaco,,1226 Mebane Oaks Rd,,Mebane,NC,27302,United States,(919) 563-4681,,,,,,
Texaco,,1750 E Elizabethtown Rd,,Lumberton,NC,28358,United States,(910) 738-6658,,,,,,
Texaco,,301 W Main St,,Bennettsville,SC,29512,United States,(843) 479-2082,,,,,,
Texaco,,3635 N Hills Dr,,Austin,TX,78731,United States,(512) 345-8172,,,,,,
Texaco,,610 Union Chapel Rd,,Pembroke,NC,28372,United States,(910) 521-1727,,,,,,
Texaco,,1121 Highway 39 N,,Meridian,MS,39301,United States,(601) 484-6080,,,,,,
Texaco,,1405 W Whitestone Blvd,,Cedar Park,TX,78613,United States,(512) 331-5539,,,,,,
Texaco,,8224 Burnet Rd,,Austin,TX,78757,United States,(512) 459-8323,,,,,,
Texaco,,7120 Burnet Rd,,Austin,TX,78757,United States,(512) 302-9697,,,,,,
Texaco,,506 E Rundberg Ln,,Austin,TX,78753,United States,(512) 339-1070,,,,,,
Texaco,,5604 Old Dixie Hwy,,Forest Park,GA,30297,United States,(404) 366-7573,,,,,,
Texaco,,3501 Forest Ln,,Garland,TX,75042,United States,(972) 276-6205,,,,,,
Texaco,,5013 Saturn Rd,,Garland,TX,75041,United States,(972) 613-2102,,,,,,
Texaco,,10940 Research Blvd,,Austin,TX,78759,United States,(512) 343-1690,,,,,,
Texaco,,958 W University Ave,,Georgetown,TX,78626,United States,(512) 863-4395,,,,,,
Texaco,,RR 1,,Valley Center,KS,67147,United States,(316) 755-2498,,,,,,
Texaco,,2925 S Shiloh Rd,,Garland,TX,75041,United States,(972) 926-7177,,,,,,
Texaco,,9295 US Highway 74 W,,Rowland,NC,28383,United States,(910) 521-8678,,,,,,
Texaco,,2000 N I H 35,,Round Rock,TX,78681,United States,(512) 244-3533,,,,,,
Texaco,,1016 W Main St,,Durham,NC,27701,United States,(919) 682-0195,,,,,,
Texaco,,1911 Guess Rd,,Durham,NC,27705,United States,(919) 286-3146,,,,,,
Texaco,,114 E University Ave,,Georgetown,TX,78626,United States,(512) 863-0263,,,,,,
Texaco,,10706 N MO Pac Expy,,Austin,TX,78759,United States,(512) 338-4147,,,,,,
Texaco,,207 N Madison Blvd,,Roxboro,NC,27573,United States,(336) 599-1228,,,,,,
Texaco,,1414 US Highway 70 E,,Hillsborough,NC,27278,United States,(919) 732-8372,,,,,,
Texaco,,2434 N Main St,,Danville,VA,24540,United States,(434) 836-5556,,,,,,
Texaco,,4432 20th St,,Meridian,MS,39307,United States,(601) 485-3752,,,,,,
Texaco,,7295 Highway 85,,Riverdale,GA,30274,United States,(770) 991-9657,,,,,,
Texaco,,3816 Washington Rd,,Atlanta,GA,30344,United States,(404) 761-1304,,,,,,
Texaco,,109 E Jackson Rd,,Union,MS,39365,United States,(601) 774-9868,,,,,,
Texaco,,5022 Old National Hwy,,Atlanta,GA,30349,United States,(404) 767-6107,,,,,,
Texaco,,3435 Roosevelt,,Atlanta,GA,30349,United States,(404) 761-1574,,,,,,
Texaco,,4597 Jonesboro Rd,,Union City,GA,30291,United States,(770) 964-1799,,,,,,
Texaco,,3875 Flat Shoals Rd,,Union City,GA,30291,United States,(770) 964-0512,,,,,,
Texaco,,316 SE 123rd Ave # 2b,,Vancouver,WA,98683,United States,(360) 944-1059,,,,,,
Texaco,,1967 SW 4th Ave,,Portland,OR,97201,United States,(503) 224-5353,,,,,,
Texaco,,11330 NW Saint Helens Rd,,Portland,OR,97231,United States,(503) 286-2313,,,,,,
Texaco,,1316 Ne 134th St,,Vancouver,WA,98685,United States,(360) 571-9950,,,,,,
Texaco,,6821 Ne Highway 99,,Vancouver,WA,98665,United States,(360) 695-2763,,,,,,
Texaco,,4221 Washington Rd,,Atlanta,GA,30344,United States,(404) 765-0449,,,,,,
Texaco,,7001 E 4th Plain,,Vancouver,WA,98661,United States,(360) 694-3161,,,,,,
Texaco,,3113 Campbellton Rd SW,,Atlanta,GA,30311,United States,(404) 344-8488,,,,,,
Texaco,,680 Johnson Ferry Rd,,Marietta,GA,30068,United States,(770) 971-1981,,,,,,
Texaco,,1280 Johnson Ferry Rd,,Marietta,GA,30068,United States,(770) 973-6338,,,,,,
Texaco,,903 Main St,,Rosedale,MS,38769,United States,(662) 759-6839,,,,,,
Texaco,,9602 Southwest Fwy,,Houston,TX,77074,United States,(713) 772-8288,,,,,,
Texaco,,905 Redwine Cove Rd SW,,Dalton,GA,30720,United States,(706) 277-1461,,,,,,
Texaco,,615 S Main St,,La Fayette,GA,30728,United States,(706) 638-1546,,,,,,
Texaco,,1215 Red Bud Rd Ne,,Calhoun,GA,30701,United States,(706) 602-0880,,,,,,
Texaco,,460 Valley View Rd,,Ashland,OR,97520,United States,(541) 482-5133,,,,,,
Texaco,,Bryan Hwy,,Hearne,TX,77859,United States,(979) 279-2441,,,,,,
Texaco,,428 E Barnett Rd,,Medford,OR,97501,United States,(541) 779-2370,,,,,,
Texaco,,507 W Highway 21,,Caldwell,TX,77836,United States,(979) 567-3386,,,,,,
Texaco,,890 S Mason Rd,,Katy,TX,77450,United States,(281) 392-5353,,,,,,
Texaco,,802 S Stemmons Fwy,,Lewisville,TX,75067,United States,(972) 221-8390,,,,,,
Texaco,,3605 Western Center Blvd,,Fort Worth,TX,76137,United States,(817) 306-5555,,,,,,
Texaco,,200 E Fayetteville Rd,,Roseboro,NC,28382,United States,(910) 525-5715,,,,,,
Texaco,,3123 Ira E Woods Ave,,Grapevine,TX,76051,United States,(817) 329-8865,,,,,,
Texaco,,1900 Douglas Dr N,,Minneapolis,MN,55422,United States,(763) 546-9514,,,,,,
Texaco,,301 W Round Grove Rd # 100,,Lewisville,TX,75067,United States,(214) 488-5606,,,,,,
Texaco,,560 N Main St,,Alpharetta,GA,30004,United States,(770) 751-8830,,,,,,
Texaco,,3113 Fairview Ave N,,Roseville,MN,55113,United States,(651) 635-9508,,,,,,
Texaco,,8121 Gasoline Aly,,Roanoke,TX,76262,United States,(817) 837-8700,,,,,,
Texaco,,1305 W Cameron Ave,,Rockdale,TX,76567,United States,(512) 446-7161,,,,,,
Texaco,,1620 Elk St,,Rock Springs,WY,82901,United States,(307) 362-6205,,,,,,
Texaco,,5000 Monument Dr,,Grants Pass,OR,97526,United States,(541) 476-9226,,,,,,
Texaco,,301 N Central Ave,,Medford,OR,97501,United States,(541) 734-5823,,,,,,
Texaco,,8524 JFK Kiehl Ave,,North Little Rock,AR,72120,United States,(501) 834-8440,,,,,,
Texaco,,1775 Highway 64 W,,Conway,AR,72032,United States,(501) 336-9200,,,,,,
Texaco,,722 W Cameron Ave,,Rockdale,TX,76567,United States,(512) 446-3636,,,,,,
Texaco,,1310 County Road E W,,Saint Paul,MN,55112,United States,(651) 633-4100,,,,,,
Texaco,,1895 E Oak St,,Conway,AR,72032,United States,(501) 327-0300,,,,,,
Texaco,,125 Depot St,,Rogue River,OR,97537,United States,(541) 582-2088,,,,,,
Texaco,,6915 John F Kennedy Blvd,,North Little Rock,AR,72116,United States,(501) 835-6227,,,,,,
Texaco,,9001 W Markham St,,Little Rock,AR,72205,United States,(501) 224-2203,,,,,,
Texaco,,19500 Cantrell Rd,,Little Rock,AR,72223,United States,(501) 868-5232,,,,,,
Texaco,,507 Turner Mccall Blvd NE,,Rome,GA,30165,United States,(706) 295-7850,,,,,,
Texaco,,301 W 7th St,,Little Rock,AR,72201,United States,(501) 375-1510,,,,,,
Texaco,,906 S Mason Rd,,Katy,TX,77450,United States,(281) 392-8200,,,,,,
Texaco,,12261 Bellaire Blvd,,Houston,TX,77072,United States,(281) 530-0348,,,,,,
Texaco,,13102 Murphy Rd,,Stafford,TX,77477,United States,(281) 240-3666,,,,,,
Texaco,,11905 Bissonnet St,,Houston,TX,77099,United States,(281) 495-0608,,,,,,
Texaco,,2995 Dulles Ave,,Missouri City,TX,77459,United States,(281) 499-0637,,,,,,
Texaco,,17230 Old Richmond Rd,,Sugar Land,TX,77478,United States,(281) 277-3337,,,,,,
Texaco,,1484 Highway 6,,Sugar Land,TX,77478,United States,(281) 265-5545,,,,,,
Texaco,,4520 Avenue H,,Rosenberg,TX,77471,United States,(281) 342-5340,,,,,,
Texaco,,8335 Roswell Rd,,Atlanta,GA,30350,United States,(770) 587-5599,,,,,,
Texaco,,1306 Morrison Pkwy,,Alpharetta,GA,30004,United States,(770) 569-9950,,,,,,
Texaco,,1100 Holcomb Bridge Rd,,Roswell,GA,30076,United States,(770) 992-8659,,,,,,
Texaco,,19500 Cantrell Rd,,Roland,AR,72135,United States,(501) 868-2674,,,,,,
Texaco,,646 S Harkrider St,,Conway,AR,72032,United States,(501) 450-3500,,,,,,
Texaco,,605 Highway 138 W,,Stockbridge,GA,30281,United States,(770) 474-9103,,,,,,
Texaco,,5195 Highway 42,,Ellenwood,GA,30294,United States,(404) 608-9059,,,,,,
Texaco,,5969 Highway 42,,Rex,GA,30273,United States,(678) 422-1066,,,,,,
Texaco,,619 Tyus Rd,,Bowdon,GA,30108,United States,(770) 258-2005,,,,,,
Texaco,,509 Forest Ave,,Richmond,VA,23229,United States,(804) 288-4862,,,,,,
Texaco,,2327 Boundary St,,Beaufort,SC,29902,United States,(843) 521-4980,,,,,,
Texaco,,646 E Main St,,Montrose,CO,81401,United States,(970) 249-6100,,,,,,
Texaco,,3459 S Sterling Ave,,Independence,MO,64052,United States,(816) 254-3679,,,,,,
Texaco,,6600 Martin Luther King J,,Seattle,WA,98118,United States,(206) 722-6951,,,,,,
Texaco,,600 S Michigan St,,Seattle,WA,98108,United States,(206) 762-8012,,,,,,
Texaco,,2309 S Church St,,Burlington,NC,27215,United States,(336) 227-5290,,,,,,
Texaco,,13904 Highway 74,,Indian Trail,NC,28079,United States,(704) 821-0415,,,,,,
Texaco,,215 S Hampton St,,Kershaw,SC,29067,United States,(803) 475-2175,,,,,,
Texaco,,3502 S Church St,,Burlington,NC,27215,United States,(336) 584-0078,,,,,,
Texaco,,3101 Summit Ave,,Greensboro,NC,27405,United States,(336) 375-0022,,,,,,
Texaco,,1765 Mount Hope Church Rd,,McLeansville,NC,27301,United States,(336) 697-9495,,,,,,
Texaco,,3117 Summit Ave,,Greensboro,NC,27405,United States,(336) 621-6604,,,,,,
Texaco,,2150 N Federal Blvd,,Riverton,WY,82501,United States,(307) 856-9086,,,,,,
Texaco,,1 Canterbury Grn FL 8,,Stamford,CT,06901,United States,(203) 367-3000,,,,,,
Texaco,,180 Noroton Ave,,Darien,CT,06820,United States,(203) 656-1639,,,,,,
Texaco,,RURAL ROUTE 1 BOX 862,,Eden,NC,27288,United States,(336) 627-0142,,,,,,
Texaco,,1863 NC Highway 135,,Eden,NC,27288,United States,(336) 627-0142,,,,,,
Texaco,,223 W Main St,,Gibsonville,NC,27249,United States,(336) 449-4422,,,,,,
Texaco,,715 Route 52,,Beacon,NY,12508,United States,(845) 831-0384,,,,,,
Texaco,,3100 Moreland Ave,,Conley,GA,30288,United States,(404) 366-1003,,,,,,
Texaco,,4475 N Henry Blvd,,Stockbridge,GA,30281,United States,(770) 506-7477,,,,,,
Texaco,,1247 Eagles Landing Pkwy,,Stockbridge,GA,30281,United States,(770) 389-3061,,,,,,
Texaco,,5138 E NC Highway 150,,Browns Summit,NC,27214,United States,(336) 656-7224,,,,,,
Texaco,,740 W Harrison St,,Reidsville,NC,27320,United States,(336) 349-9879,,,,,,
Texaco,,705 N Carson St,,Carson City,NV,89701,United States,(775) 883-7919,,,,,,
Texaco,,100 Gentry Way,,Reno,NV,89502,United States,(775) 827-6006,,,,,,
Texaco,,695 N Wells Ave,,Reno,NV,89512,United States,(775) 322-8282,,,,,,
Texaco,,13138 Interurban Ave S,,Seattle,WA,98168,United States,(206) 244-3520,,,,,,
Texaco,,1865 Bronson Rd,,Fairfield,CT,06824,United States,(203) 259-5334,,,,,,
Texaco,,16402 Military Rd S,,Seattle,WA,98188,United States,(206) 244-7085,,,,,,
Texaco,,1801 K Ave,,Plano,TX,75074,United States,(972) 516-6653,,,,,,
Texaco,,1912 Coit Rd,,Plano,TX,75075,United States,(972) 612-0377,,,,,,
Texaco,,3279 Jodeco Rd,,McDonough,GA,30253,United States,(770) 898-5759,,,,,,
Texaco,,17010 International Blvd,,Seattle,WA,98188,United States,(206) 246-1665,,,,,,
Texaco,,11809 Renton Ave S,,Seattle,WA,98178,United States,(206) 772-7717,,,,,,
Texaco,,13010 Preston Rd,,Dallas,TX,75240,United States,(972) 233-9920,,,,,,
Texaco,,1501 N Central Expy,,Plano,TX,75075,United States,(972) 424-2703,,,,,,
Texaco,,1331 S Plano Rd,,Richardson,TX,75081,United States,(972) 234-2804,,,,,,
Texaco,,100 S Greenville Ave,,Richardson,TX,75081,United States,(972) 234-9400,,,,,,
Texaco,,9301 Lyndon B Johnson Fwy,,Dallas,TX,75243,United States,(972) 644-2760,,,,,,
Texaco,,801 W Arapaho Rd Ste 12,,Richardson,TX,75080,United States,(972) 783-0314,,,,,,
Texaco,,13904 Independence Blvd,,Indian Trail,NC,28079,United States,(704) 821-0415,,,,,,
Texaco,,500 E 15th St,,Plano,TX,75074,United States,(972) 424-9124,,,,,,
Texaco,,13910 N Central Expy,,Dallas,TX,75243,United States,(972) 231-3885,,,,,,
Texaco,,RURAL ROUTE 1 BOX 182,,Richburg,SC,29729,United States,(803) 789-3232,,,,,,
Texaco,,8801 NE Birmingham Rd,,Kansas City,MO,64161,United States,(816) 452-6100,,,,,,
Texaco,,1500 W 40 Hwy,,Blue Springs,MO,64015,United States,(816) 224-3007,,,,,,
Texaco,,I-35 & W 92 Hwy,,Kearney,MO,64060,United States,(816) 635-4927,,,,,,
Texaco,,42922 Old Highway 10,,Richmond,MO,64085,United States,(816) 776-3512,,,,,,
Texaco,,4825 W Broad St,,Richmond,VA,23230,United States,(804) 362-1169,,,,,,
Texaco,,1000 NW State Route 7,,Blue Springs,MO,64014,United States,(816) 228-4910,,,,,,
Texaco,,6610 Ne 69 Hwy,,Liberty,MO,64068,United States,(816) 781-0409,,,,,,
Texaco,,3411 Gordon Rd,,York,SC,29745,United States,(803) 328-0033,,,,,,
Texaco,,2021 Chamberlayne Ave,,Richmond,VA,23222,United States,(804) 329-1017,,,,,,
Texaco,,11441 Midlothian Tpke,,Richmond,VA,23235,United States,(804) 379-2546,,,,,,
Texaco,,2906 Hathaway Rd,,Richmond,VA,23225,United States,(804) 272-8081,,,,,,
Texaco,,209 Jefferson Davis Hwy,,Richmond,VA,23224,United States,(804) 232-3059,,,,,,
Texaco,,1764 Poulos Rd,,Chester,SC,29706,United States,(864) 545-6700,,,,,,
Texaco,,5400 Jefferson Davis Hwy,,Richmond,VA,23234,United States,(804) 275-9104,,,,,,
Texaco,,6915 Hull Street Rd,,Richmond,VA,23224,United States,(804) 745-7099,,,,,,
Texaco,,2811 Patterson Ave,,Richmond,VA,23221,United States,(804) 353-0173,,,,,,
Texaco,,101 N Highway 550,,Ridgway,CO,81432,United States,(970) 626-5977,,,,,,
Texaco,,4307 Jeff Davis Hwy,,Richmond,VA,23234,United States,(804) 275-9629,,,,,,
Texaco,,21335 Main St,,Ranburne,AL,36273,United States,(256) 568-7764,,,,,,
Texaco,,2065 Mount Zion Rd,,Morrow,GA,30260,United States,(770) 471-9105,,,,,,
Texaco,,2118 Winchester Ave,,Reedsport,OR,97467,United States,(541) 271-3068,,,,,,
Texaco,,850 W Redlands Blvd,,Redlands,CA,92373,United States,(909) 335-8464,,,,,,
Texaco,,8002 Ne Bothell Way,,Kenmore,WA,98028,United States,(425) 487-6110,,,,,,
Texaco,,5624 Aristide Rd,,Erath,LA,70533,United States,(337) 937-5846,,,,,,
Texaco,,5735 Frank Rd,,Erath,LA,70533,United States,(337) 937-5958,,,,,,
Texaco,,565 Clayton Rd,,Raton,NM,87740,United States,(505) 445-3565,,,,,,
Texaco,,21708 Kings Crossing Ter,,Ashburn,VA,20147,United States,(703) 724-9108,,,,,,
Texaco,,575 NE Bellevue Dr,,Bend,OR,97701,United States,(541) 317-8550,,,,,,
Texaco,,1205 N Germantown Pkwy,,Cordova,TN,38016,United States,(901) 757-8660,,,,,,
Texaco,,6001 Staples Mill Rd,,Richmond,VA,23228,United States,(804) 264-1900,,,,,,
Texaco,,912 NW Newport Ave,,Bend,OR,97701,United States,(541) 389-7415,,,,,,
Texaco,,1001 N Fayetteville St,,Asheboro,NC,27203,United States,(336) 626-5823,,,,,,
Texaco,,1448 N Fayetteville St,,Asheboro,NC,27203,United States,(336) 672-1168,,,,,,
Texaco,,1476 Ross St,,Heflin,AL,36264,United States,(256) 463-7968,,,,,,
Texaco,,7274 Mechanicsville Tpke,,Mechanicsville,VA,23111,United States,(804) 559-4884,,,,,,
Texaco,,1945 Almon St,,Heflin,AL,36264,United States,(256) 463-4646,,,,,,
Texaco,,6007 Farrington Rd,,Chapel Hill,NC,27517,United States,(919) 490-6464,,,,,,
Texaco,,3801 McConnell Rd,,Greensboro,NC,27405,United States,(336) 698-0221,,,,,,
Texaco,,8201 Creedmoor Rd,,Raleigh,NC,27613,United States,(919) 848-1015,,,,,,
Texaco,,9159 Chamberlayne Rd,,Mechanicsville,VA,23116,United States,(804) 730-7759,,,,,,
Texaco,,990 E Broadway Ave,,Moses Lake,WA,98837,United States,(509) 765-6029,,,,,,
Texaco,,1512 Madow Trace Dr APT 3,,Pryor,OK,74361,United States,(918) 825-1726,,,,,,
Texaco,,1745 Ne 3rd St,,Bend,OR,97701,United States,(541) 389-1015,,,,,,
Texaco,,1700 W 7th St,,Frederick,MD,21702,United States,(301) 694-8499,,,,,,
Texaco,,3198 N Highway 97,,Bend,OR,97701,United States,(541) 389-0691,,,,,,
Texaco,,4924 Highway 178 W,,Red Banks,MS,38661,United States,(662) 252-6080,,,,,,
Texaco,,712 SW 5th St,,Redmond,OR,97756,United States,(541) 548-2938,,,,,,
Texaco,,4534 U S Highway 167,,Maurice,LA,70555,United States,(337) 893-8011,,,,,,
Texaco,,19005 Bothell Way Ne,,Bothell,WA,98011,United States,(425) 483-0440,,,,,,
Texaco,,421 S 2nd St,,Raton,NM,87740,United States,(505) 445-9120,,,,,,
Texaco,,91 Highway 72,,Collierville,TN,38017,United States,(901) 861-3044,,,,,,
Texaco,,129 Frontage Rd,,Rayne,LA,70578,United States,(337) 873-8100,,,,,,
Texaco,,1200 W 11th St,,Quanah,TX,79252,United States,(940) 663-5841,,,,,,
Texaco,,13272 100th Ave Ne,,Kirkland,WA,98034,United States,(425) 821-5656,,,,,,
Texaco,,2174 E Broadway Ave,,Maryville,TN,37804,United States,(865) 984-9010,,,,,,
Texaco,,3775 Maynardville Hwy,,Maynardville,TN,37807,United States,(865) 992-2020,,,,,,
Texaco,,3620 N O St,,Fort Smith,AR,72904,United States,(479) 783-4390,,,,,,
Texaco,,3471 Ernest Barrett Pkwy,,Marietta,GA,30064,United States,(770) 427-9090,,,,,,
Texaco,,8239 Rogers Ave,,Fort Smith,AR,72903,United States,(479) 452-2592,,,,,,
Texaco,,12155 SE Foster Rd,,Portland,OR,97266,United States,(503) 760-6943,,,,,,
Texaco,,3200 SE Federal Hwy,,Stuart,FL,34997,United States,(772) 286-4971,,,,,,
Texaco,,523 E 1st St,,Pratt,KS,67124,United States,(620) 672-2290,,,,,,
Texaco,,909 State Highway 35 N,,Port Lavaca,TX,77979,United States,(361) 552-6960,,,,,,
Texaco,,2688 Ne Dixie Hwy,,Jensen Beach,FL,34957,United States,(772) 334-9331,,,,,,
Texaco,,1440 W Granada Blvd,,Ormond Beach,FL,32174,United States,(386) 677-8887,,,,,,
Texaco,,3225 Grand Ave,,Fort Smith,AR,72904,United States,(479) 783-1701,,,,,,
Texaco,,322 State Highway 100,,Port Isabel,TX,78578,United States,(956) 943-5756,,,,,,
Texaco,,911 E 100 N,,Price,UT,84501,United States,(435) 637-4493,,,,,,
Texaco,,215 Ridgewood Ave,,Holly Hill,FL,32117,United States,(386) 252-8868,,,,,,
Texaco,,2810 Dowlen Rd,,Beaumont,TX,77706,United States,(409) 866-2309,,,,,,
Texaco,,2810 Eastex Fwy,,Beaumont,TX,77703,United States,(409) 898-2891,,,,,,
Texaco,,255 Dowlen Rd,,Beaumont,TX,77706,United States,(409) 860-5972,,,,,,
Texaco,,205 N Loop 499,,Harlingen,TX,78550,United States,(956) 412-6040,,,,,,
Texaco,,1595 Gulf,,Beaumont,TX,77701,United States,(409) 833-8742,,,,,,
Texaco,,3590 Washington Blvd,,Beaumont,TX,77705,United States,(409) 840-9993,,,,,,
Texaco,,1449 Battlefield Blvd N,,Chesapeake,VA,23320,United States,(757) 547-4996,,,,,,
Texaco,,1538 Sams Cir,,Chesapeake,VA,23320,United States,(757) 547-3377,,,,,,
Texaco,,1110 N 11th St,,Beaumont,TX,77702,United States,(409) 892-1626,,,,,,
Texaco,,900 Liberty St,,Chesapeake,VA,23324,United States,(757) 543-3577,,,,,,
Texaco,,900 Effingham St,,Portsmouth,VA,23704,United States,(757) 399-6295,,,,,,
Texaco,,3017 Oakley Hall Rd,,Portsmouth,VA,23703,United States,(757) 890-0343,,,,,,
Texaco,,2405 Taylor Rd,,Chesapeake,VA,23321,United States,(757) 488-5823,,,,,,
Texaco,,1434 George Washington Hw,,Chesapeake,VA,23323,United States,(757) 485-4225,,,,,,
Texaco,,3500 High St,,Portsmouth,VA,23707,United States,(757) 397-4770,,,,,,
Texaco,,418 Saint Pauls Blvd,,Norfolk,VA,23510,United States,(757) 625-3774,,,,,,
Texaco,,5701 Portsmouth Blvd,,Portsmouth,VA,23701,United States,(757) 488-7296,,,,,,
Texaco,,1608 Highway 365,,Nederland,TX,77627,United States,(409) 729-6100,,,,,,
Texaco,,4000 Lincoln Ave,,Groves,TX,77619,United States,(409) 962-9443,,,,,,
Texaco,,215 Ridgewood Ave,,Daytona Beach,FL,32117,United States,(386) 258-0719,,,,,,
Texaco,,1027 Mason Ave,,Daytona Beach,FL,32117,United States,(386) 253-1893,,,,,,
Texaco,,600 W Internatl Speedway Blvd,,Daytona Beach,FL,32114,United States,(386) 253-4056,,,,,,
Texaco,,115 S Nova Rd,,Daytona Beach,FL,32114,United States,(386) 238-0445,,,,,,
Texaco,,4040 S Nova Rd,,Daytona Beach,FL,32127,United States,(386) 788-4049,,,,,,
Texaco,,6390 Calder Ave,,Beaumont,TX,77706,United States,(409) 860-5361,,,,,,
Texaco,,1634 Taylor Rd,,Port Orange,FL,32128,United States,(386) 756-8352,,,,,,
Texaco,,1634 Taylor Rd,,Port Orange,FL,32128,United States,(386) 756-8352,,,,,,
Texaco,,1402 N Broadway St,,Poteau,OK,74953,United States,(918) 647-3538,,,,,,
Texaco,,3868 Austell Rd SW,,Austell,GA,30168,United States,(770) 739-7499,,,,,,
Texaco,,2489 Dallas Hwy SW,,Marietta,GA,30064,United States,(770) 428-1222,,,,,,
Texaco,,530 S Atlantic Ave,,Ormond Beach,FL,32176,United States,(386) 615-1510,,,,,,
Texaco,,1600 Ne Jensen Beach Blvd,,Jensen Beach,FL,34957,United States,(772) 334-5321,,,,,,
Texaco,,2670 Alcoa Hwy,,Alcoa,TN,37701,United States,(865) 984-1522,,,,,,
Texaco,,2549 Memorial Blvd,,Port Arthur,TX,77640,United States,(409) 985-3386,,,,,,
Texaco,,1058 E Tri County Blvd,,Oliver Springs,TN,37840,United States,(865) 435-1800,,,,,,
Texaco,,3868 Austell Rd,,Austell,GA,30106,United States,(770) 739-7499,,,,,,
Texaco,,7500 Asheville Hwy,,Knoxville,TN,37924,United States,(865) 633-5823,,,,,,
Texaco,,7106 Maynardville Pike,,Knoxville,TN,37918,United States,(865) 922-7246,,,,,,
Texaco,,6537 Chapman Hwy,,Knoxville,TN,37920,United States,(865) 609-9922,,,,,,
Texaco,,6730 Clinton Hwy,,Powell,TN,37849,United States,(865) 947-1855,,,,,,
Texaco,,9213 Oak Ridge Hwy,,Oak Ridge,TN,37830,United States,(865) 927-5326,,,,,,
Texaco,,7700 S Northshore Dr,,Knoxville,TN,37919,United States,(865) 691-3693,,,,,,
Texaco,,504 S Lincoln St,,Port Angeles,WA,98362,United States,(360) 457-3623,,,,,,
Texaco,,299 State Highway 30 W,,New Albany,MS,38652,United States,(662) 534-0010,,,,,,
Texaco,,13928 NC Highway 125,,Oak City,NC,27857,United States,(252) 798-6371,,,,,,
Texaco,,107 E Mellen St,,Hampton,VA,23663,United States,(757) 723-7554,,,,,,
Texaco,,609 Wilson St,,Plymouth,NC,27962,United States,(252) 793-5353,,,,,,
Texaco,,911 N Columbia St,,Plainview,TX,79072,United States,(806) 293-5528,,,,,,
Texaco,,5th Amarilla,,Plainview,TX,79072,United States,(806) 296-2213,,,,,,
Texaco,,8601 Ohio Dr,,Plano,TX,75024,United States,(972) 387-4922,,,,,,
Texaco,,624 W Kingshighway,,Paragould,AR,72450,United States,(870) 236-6167,,,,,,
Texaco,,1212 N Harper St,,Laurens,SC,29360,United States,(864) 983-2299,,,,,,
Texaco,,6701 W Indian School Rd,,Phoenix,AZ,85033,United States,(623) 848-9445,,,,,,
Texaco,,1450 NW 9th St,,Corvallis,OR,97330,United States,(541) 758-1298,,,,,,
Texaco,,1830 Main St,,Philomath,OR,97370,United States,(541) 929-7313,,,,,,
Texaco,,6448 W Indian School Rd,,Phoenix,AZ,85033,United States,(623) 846-2288,,,,,,
Texaco,,785 NW Cornell Ave,,Corvallis,OR,97330,United States,(541) 757-7042,,,,,,
Texaco,,Crawford Rd & 280 Byp,,Phenix City,AL,36867,United States,(334) 448-4481,,,,,,
Texaco,,5402 W Indian School Rd,,Phoenix,AZ,85031,United States,(623) 247-4149,,,,,,
Texaco,,4129 N 43rd Ave,,Phoenix,AZ,85031,United States,(602) 278-9322,,,,,,
Texaco,,6653 W Mcdowell Rd,,Phoenix,AZ,85035,United States,(623) 873-0448,,,,,,
Texaco,,310 E Main St,,Piggott,AR,72454,United States,(870) 598-5193,,,,,,
Texaco,,3600 14th St,,Plano,TX,75074,United States,(972) 422-0202,,,,,,
Texaco,,2005 E Main St,,Lakeland,FL,33801,United States,(863) 666-5485,,,,,,
Texaco,,6925 Independence Pkwy,,Plano,TX,75023,United States,(972) 618-2877,,,,,,
Texaco,,2300 E Parker Rd,,Plano,TX,75074,United States,(972) 943-9389,,,,,,
Texaco,,511 Tunica Dr W,,Marksville,LA,71351,United States,(318) 253-0693,,,,,,
Texaco,,5115 Masonic Dr,,Alexandria,LA,71301,United States,(318) 484-3718,,,,,,
Texaco,,3206 Monroe Hwy,,Pineville,LA,71360,United States,(318) 641-1244,,,,,,
Texaco,,3305 Coit Rd,,Plano,TX,75093,United States,(972) 867-3699,,,,,,
Texaco,,1605 E Edgewood Dr,,Lakeland,FL,33803,United States,(863) 682-2065,,,,,,
Texaco,,2038 Roxburgh Ln,,Lakeland,FL,33813,United States,(863) 644-2471,,,,,,
Texaco,,2820 S Florida Ave,,Lakeland,FL,33803,United States,(863) 686-5498,,,,,,
Texaco,,7336 Southgate Blvd,,North Lauderdale,FL,33068,United States,(954) 726-1521,,,,,,
Texaco,,3328 W Mercury Blvd,,Hampton,VA,23666,United States,(757) 838-8815,,,,,,
Texaco,,1420 E Sunrise Blvd,,Fort Lauderdale,FL,33304,United States,(954) 527-2554,,,,,,
Texaco,,1291 N State Road 7,,Pompano Beach,FL,33063,United States,(954) 974-0999,,,,,,
Texaco,,2765 N Dixie Hwy,,Fort Lauderdale,FL,33334,United States,(954) 565-2313,,,,,,
Texaco,,1154 N Galloway Rd,,Lakeland,FL,33810,United States,(863) 682-6179,,,,,,
Texaco,,3601 N Dixie Hwy,,Pompano Beach,FL,33064,United States,(954) 784-4090,,,,,,
Texaco,,4353 N Ocean Dr,,Fort Lauderdale,FL,33308,United States,(954) 776-1490,,,,,,
Texaco,,1481 S Powerline Rd,,Pompano Beach,FL,33069,United States,(954) 971-5303,,,,,,
Texaco,,550 S Cypress Rd,,Pompano Beach,FL,33060,United States,(954) 942-5560,,,,,,
Texaco,,1291 N State Road 7,,Margate,FL,33063,United States,(954) 974-0999,,,,,,
Texaco,,4001 W Parker Rd,,Plano,TX,75093,United States,(972) 867-3260,,,,,,
Texaco,,101 E Atlantic Blvd,,Pompano Beach,FL,33060,United States,(954) 785-5855,,,,,,
Texaco,,312 W 9th St,,Mission,TX,78572,United States,(956) 585-8892,,,,,,
Texaco,,2011 S Mckenzie St,,Foley,AL,36535,United States,(251) 943-9677,,,,,,
Texaco,,800 S Cage Blvd,,Pharr,TX,78577,United States,(956) 787-2845,,,,,,
Texaco,,1419 N Conway Ave,,Mission,TX,78572,United States,(956) 585-9052,,,,,,
Texaco,,1557 Montclair Rd,,Birmingham,AL,35210,United States,(205) 956-9676,,,,,,
Texaco,,5117 Richard Arrington Jr,,Birmingham,AL,35212,United States,(205) 592-9944,,,,,,
Texaco,,2801 9th Ave N,,Bessemer,AL,35020,United States,(205) 426-0544,,,,,,
Texaco,,700 Valley Ave,,Birmingham,AL,35209,United States,(205) 942-7632,,,,,,
Texaco,,300 W Washington Ave,,Jonesboro,AR,72401,United States,(870) 932-6027,,,,,,
Texaco,,7550 S University Blvd,,Littleton,CO,80122,United States,(303) 694-0039,,,,,,
Texaco,,60 Highway 87,,Calera,AL,35040,United States,(205) 663-8822,,,,,,
Texaco,,13401 East Fwy,,Houston,TX,77015,United States,(713) 453-4698,,,,,,
Texaco,,1310 Boulevard,,Colonial Heights,VA,23834,United States,(804) 526-6317,,,,,,
Texaco,,16910 Hull Street Rd,,Moseley,VA,23120,United States,(804) 739-9230,,,,,,
Texaco,,21000 W Dodge Rd,,Elkhorn,NE,68022,United States,(402) 289-3334,,,,,,
Texaco,,1325 Wenonah Ave,,Pearisburg,VA,24134,United States,(540) 921-2089,,,,,,
Texaco,,1307 S Saddle Creek Rd,,Omaha,NE,68106,United States,(402) 556-5968,,,,,,
Texaco,,2705 S 114th St,,Omaha,NE,68144,United States,(402) 334-2283,,,,,,
Texaco,,1800 E Military Ave,,Fremont,NE,68025,United States,(402) 727-0737,,,,,,
Texaco,,23822 Airport St,,Petersburg,VA,23803,United States,(804) 732-0888,,,,,,
Texaco,,7955 N Davis Hwy,,Pensacola,FL,32514,United States,(850) 477-8453,,,,,,
Texaco,,3420 S Tower Rd,,Aurora,CO,80013,United States,(303) 400-1585,,,,,,
Texaco,,25407 Ford Ave,,Petersburg,VA,23803,United States,(804) 748-0076,,,,,,
Texaco,,10935 Emmet St,,Omaha,NE,68164,United States,(402) 965-9213,,,,,,
Texaco,,7425 E Arapahoe Rd,,Englewood,CO,80112,United States,(303) 694-6601,,,,,,
Texaco,,5651 County Line Pl,,Littleton,CO,80126,United States,(303) 721-1233,,,,,,
Texaco,,5225 S Walden Cir,,Aurora,CO,80015,United States,(303) 589-1690,,,,,,
Texaco,,925 N Adams St,,Papillion,NE,68046,United States,(402) 537-8617,,,,,,
Texaco,,19220 E Main St,,Parker,CO,80134,United States,(303) 841-2339,,,,,,
Texaco,,5441 S Richfield Way,,Englewood,CO,80111,United States,(303) 699-8210,,,,,,
Texaco,,10553 E Briarwood Cir,,Englewood,CO,80112,United States,(303) 649-9848,,,,,,
Texaco,,16950 E Smoky Hill Rd,,Aurora,CO,80015,United States,(303) 766-0208,,,,,,
Texaco,,RURAL ROUTE 1 BOX 270,,Exmore,VA,23350,United States,(757) 442-9987,,,,,,
Texaco,,11901 S Parker Rd,,Parker,CO,80134,United States,(303) 841-1057,,,,,,
Texaco,,1639 Montgomery Hwy,,Birmingham,AL,35216,United States,(205) 822-0673,,,,,,
Texaco,,2916 Morgan Rd,,Bessemer,AL,35022,United States,(205) 428-0098,,,,,,
Texaco,,851 1st St N,,Alabaster,AL,35007,United States,(205) 663-1690,,,,,,
Texaco,,2308 Pelham Pkwy,,Pelham,AL,35124,United States,(205) 620-9244,,,,,,
Texaco,,851 Highway 31 S,,Alabaster,AL,35007,United States,(205) 663-1690,,,,,,
Texaco,,5400 Highway 280 S,,Birmingham,AL,35242,United States,(205) 980-9112,,,,,,
Texaco,,3250 Morrow Rd,,Birmingham,AL,35235,United States,(205) 661-9539,,,,,,
Texaco,,9401 Parkway E,,Birmingham,AL,35215,United States,(205) 836-3941,,,,,,
Texaco,,2423 Acton Rd,,Birmingham,AL,35243,United States,(205) 823-8923,,,,,,
Texaco,,19046 Greenbush Rd,,Parksley,VA,23421,United States,(757) 665-4277,,,,,,
Texaco,,56309 29 Palms Hwy,,Yucca Valley,CA,92284,United States,(760) 369-1114,,,,,,
Texaco,,12039 Highway 231,,Youngstown,FL,32466,United States,(850) 722-7345,,,,,,
Texaco,,2420 W 23rd St,,Panama City,FL,32405,United States,(850) 872-2030,,,,,,
Texaco,,340 W Granada Blvd,,Ormond Beach,FL,32174,United States,(386) 672-0635,,,,,,
Texaco,,401 S Paseo Dorotea,,Palm Springs,CA,92264,United States,(760) 416-9559,,,,,,
Texaco,,8600 Patterson Ave,,Richmond,VA,23229,United States,(804) 741-1091,,,,,,
Texaco,,2050 Lone Oak Rd,,Paducah,KY,42003,United States,(270) 554-5250,,,,,,
Texaco,,309 E 23rd St,,Panama City,FL,32405,United States,(850) 784-1157,,,,,,
Texaco,,119 W 15th St,,Panama City,FL,32401,United States,(850) 914-9190,,,,,,
Texaco,,3423 Winfield Dunn Pkwy,,Kodak,TN,37764,United States,(865) 933-1301,,,,,,
Texaco,,5233 Wilkesboro Hwy,,Statesville,NC,28625,United States,(704) 592-2612,,,,,,
Texaco,,915 Providence Rd,,Charlotte,NC,28207,United States,(704) 334-8427,,,,,,
Texaco,,2125 Highland Ave S,,Birmingham,AL,35205,United States,(205) 939-6164,,,,,,
Texaco,,3020 12th Ave N,,Birmingham,AL,35234,United States,(205) 324-7177,,,,,,
Texaco,,300 S Summit St,,Crescent City,FL,32112,United States,(386) 698-1113,,,,,,
Texaco,,402 Cloverdale Rd,,Montgomery,AL,36106,United States,(334) 264-9817,,,,,,
Texaco,,2605 Central Ave,,Charlotte,NC,28205,United States,(704) 375-0151,,,,,,
Texaco,,3000 Wilkinson Blvd,,Charlotte,NC,28208,United States,(704) 399-4646,,,,,,
Texaco,,2736 Freedom Dr,,Charlotte,NC,28208,United States,(704) 392-5010,,,,,,
Texaco,,5781 E Highway 150,,Lincolnton,NC,28092,United States,(704) 735-0646,,,,,,
Texaco,,1370 Paradise Ln,,Dandridge,TN,37725,United States,(865) 397-9293,,,,,,
Texaco,,2700 University Blvd,,Birmingham,AL,35233,United States,(205) 322-0895,,,,,,
Texaco,,779 Cosby Hwy,,Newport,TN,37821,United States,(423) 623-5148,,,,,,
Texaco,,2224 W Andrew Johnson Hwy,,Morristown,TN,37814,United States,(423) 587-1122,,,,,,
Texaco,,1104 S Cumberland St,,Morristown,TN,37813,United States,(423) 586-4965,,,,,,
Texaco,,5 S Yonge St,,Ormond Beach,FL,32174,United States,(386) 672-9424,,,,,,
Texaco,,185 1st St,,Hackensack,NJ,07601,United States,(201) 489-2538,,,,,,
Texaco,,3rd St Hgwy 275,,Boyd,MN,56218,United States,(320) 855-2277,,,,,,
Texaco,,603 W Highway 212,,Montevideo,MN,56265,United States,(320) 269-6014,,,,,,
Texaco,,1201 Winnsboro Rd,,Monroe,LA,71202,United States,(318) 387-4750,,,,,,
Texaco,,1230 Crows Landing Rd,,Modesto,CA,95351,United States,(209) 577-5922,,,,,,
Texaco,,13101 Idlewild Rd,,Matthews,NC,28105,United States,(704) 847-1096,,,,,,
Texaco,,401 E Roosevelt Blvd,,Monroe,NC,28112,United States,(704) 292-1322,,,,,,
Texaco,,9970 County Road 81,,Osseo,MN,55369,United States,(763) 425-9511,,,,,,
Texaco,,1730 S Morley St,,Moberly,MO,65270,United States,(660) 263-8648,,,,,,
Texaco,,326 S Main St,,Montesano,WA,98563,United States,(360) 249-4981,,,,,,
Texaco,,1897 N Columbia St,,Milledgeville,GA,31061,United States,(478) 453-8714,,,,,,
Texaco,,1228 Mchenry Ave,,Modesto,CA,95350,United States,(209) 578-5058,,,,,,
Texaco,,6106 Reamer St,,Houston,TX,77074,United States,(713) 298-8256,,,,,,
Texaco,,6588 Old Shawnee Rd,,Milford,DE,19963,United States,(302) 422-5016,,,,,,
Texaco,,6665 S Braeswood Blvd,,Houston,TX,77096,United States,(713) 776-8379,,,,,,
Texaco,,8559 Beechnut St,,Houston,TX,77036,United States,(713) 776-2697,,,,,,
Texaco,,250 Runaway Bay Dr,,Bridgeport,TX,76426,United States,(940) 575-4791,,,,,,
Texaco,,3468 Sartain Rd,,Mineral Wells,TX,76067,United States,(940) 325-2471,,,,,,
Texaco,,16255 S Post Oak Rd,,Houston,TX,77053,United States,(281) 437-0603,,,,,,
Texaco,,9340 Bataan St Ne,,Minneapolis,MN,55449,United States,(763) 784-2663,,,,,,
Texaco,,415 SW 1st St,,Mineral Wells,TX,76067,United States,(940) 325-4701,,,,,,
Texaco,,2 Remsen Ave,,Monsey,NY,10952,United States,(845) 352-1037,,,,,,
Texaco,,2102 E Hubbard St,,Mineral Wells,TX,76067,United States,(940) 328-1042,,,,,,
Texaco,,22727 Bothell Everett Hwy,,Bothell,WA,98021,United States,(425) 486-9880,,,,,,
Texaco,,1984 S Highland Ave,,Jackson,TN,38301,United States,(731) 422-2837,,,,,,
Texaco,,221 W Church St,,Alamo,TN,38001,United States,(731) 286-6726,,,,,,
Texaco,,5500 Andrews Hwy,,Odessa,TX,79762,United States,(432) 366-9059,,,,,,
Texaco,,612 W Front St,,Stanton,TX,79782,United States,(432) 756-3273,,,,,,
Texaco,,11867 N Williams St,,Dunnellon,FL,34432,United States,(352) 489-1494,,,,,,
Texaco,,10401 S Dixie Hwy,,Miami,FL,33156,United States,(305) 661-1895,,,,,,
Texaco,,501 SE Loop 338,,Odessa,TX,79762,United States,(432) 366-8801,,,,,,
Texaco,,7195 W 12th Ave,,Hialeah,FL,33014,United States,(305) 825-4348,,,,,,
Texaco,,2 Ashleigh Dr,,Derry,NH,03038,United States,(603) 425-0777,,,,,,
Texaco,,347 W Hollis St,,Nashua,NH,03060,United States,(603) 886-3915,,,,,,
Texaco,,6795 W 4th Ave,,Hialeah,FL,33012,United States,(305) 556-3990,,,,,,
Texaco,,620 Amherst St,,Nashua,NH,03063,United States,(603) 889-3372,,,,,,
Texaco,,148 Amherst St,,Amherst,NH,03031,United States,(603) 672-6380,,,,,,
Texaco,,11201 SW 40th St,,Miami,FL,33165,United States,(305) 223-3665,,,,,,
Texaco,,11201 Bird Rd,,Miami,FL,33165,United States,(305) 223-3657,,,,,,
Texaco,,1166 N Higley Rd,,Mesa,AZ,85205,United States,(480) 396-3003,,,,,,
Texaco,,7 Exeter Rd,,Epping,NH,03042,United States,(603) 679-9814,,,,,,
Texaco,,1959 S Greenfield Rd,,Mesa,AZ,85206,United States,(480) 633-5515,,,,,,
Texaco,,1953 E Southern Ave,,Mesa,AZ,85204,United States,(480) 892-6007,,,,,,
Texaco,,1210 E Southern Ave,,Mesa,AZ,85204,United States,(480) 962-9493,,,,,,
Texaco,,1821 S Country Club Dr,,Mesa,AZ,85210,United States,(480) 610-2902,,,,,,
Texaco,,7460 SW 40th St,,Miami,FL,33155,United States,(305) 264-4177,,,,,,
Texaco,,4820 US Highway 192,,Melbourne,FL,32904,United States,(321) 952-9794,,,,,,
Texaco,,1600 Aurora Rd,,Melbourne,FL,32935,United States,(321) 751-9963,,,,,,
Texaco,,2244 Sarno Rd,,Melbourne,FL,32935,United States,(321) 751-0494,,,,,,
Texaco,,1115 S Wickham Rd,,Melbourne,FL,32904,United States,(321) 768-2724,,,,,,
Texaco,,498 Daniel Webster Hwy,,Merrimack,NH,03054,United States,(603) 424-2844,,,,,,
Texaco,,2002 S Harbor City Blvd,,Melbourne,FL,32901,United States,(321) 724-2648,,,,,,
Texaco,,2816 S Country Club Dr,,Mesa,AZ,85210,United States,(480) 497-1515,,,,,,
Texaco,,7145 Abbott Ave,,Miami Beach,FL,33141,United States,(305) 866-7651,,,,,,
Texaco,,7200 NW 36th St,,Miami,FL,33166,United States,(305) 592-5588,,,,,,
Texaco,,508 Arthur Godfrey Rd,,Miami Beach,FL,33140,United States,(305) 538-6419,,,,,,
Texaco,,3401 SW College Rd,,Ocala,FL,34474,United States,(352) 237-1020,,,,,,
Texaco,,1708 E Silver Springs Blvd,,Ocala,FL,34470,United States,(352) 351-2900,,,,,,
Texaco,,1206 W University Ave,,Gainesville,FL,32601,United States,(352) 375-3161,,,,,,
Texaco,,755 NW 27th Ave,,Miami,FL,33125,United States,(305) 649-3633,,,,,,
Texaco,,3900 SW 8th St,,Miami,FL,33134,United States,(305) 446-1788,,,,,,
Texaco,,2109 SW 13th St,,Gainesville,FL,32608,United States,(352) 375-4390,,,,,,
Texaco,,17107 SE County Road 234,,Micanopy,FL,32667,United States,(352) 466-0638,,,,,,
Texaco,,336 S Highland Ave,,Jackson,TN,38301,United States,(731) 423-2522,,,,,,
Texaco,,10701 Biscayne Blvd,,Miami,FL,33161,United States,(305) 895-4914,,,,,,
Texaco,,801 W Interstate 20,,Midland,TX,79701,United States,(432) 683-9582,,,,,,
Texaco,,1625 E Chester St,,Jackson,TN,38301,United States,(731) 422-6528,,,,,,
Texaco,,402 E Harding St,,Morrilton,AR,72110,United States,(501) 354-1630,,,,,,
Texaco,,1215 Whitehall St,,Jackson,TN,38301,United States,(731) 422-6064,,,,,,
Texaco,,154 Law Rd,,Jackson,TN,38305,United States,(731) 427-5609,,,,,,
Texaco,,2655 N Highland Ave,,Jackson,TN,38305,United States,(731) 664-1939,,,,,,
Texaco,,2059 Highway 70 E,,Jackson,TN,38305,United States,(731) 424-5002,,,,,,
Texaco,,1020 N Main St,,Milan,TN,38358,United States,(731) 686-7262,,,,,,
Texaco,,9605 S County Road 1218,,Midland,TX,79706,United States,(432) 682-2768,,,,,,
Texaco,,2127 N Highland Ave,,Jackson,TN,38305,United States,(731) 660-7399,,,,,,
Texaco,,11000 W Broad St,,Richmond,VA,23269,United States,(804) 747-3672,,,,,,
Texaco,,11216 Washington Hwy,,Glen Allen,VA,23059,United States,(804) 798-7781,,,,,,
Texaco,,7265 County Road 9,,Meeker,CO,81641,United States,(970) 824-6452,,,,,,
Texaco,,345 Lithia Way,,Ashland,OR,97520,United States,(541) 482-6000,,,,,,
Texaco,,201 N Central Expy,,McKinney,TX,75070,United States,(214) 733-8822,,,,,,
Texaco,,26251 Highway 33,,Fellows,CA,93224,United States,(661) 768-4357,,,,,,
Texaco,,I 15 Interchange,,Meadow,UT,84644,United States,(435) 842-7132,,,,,,
Texaco,,7491 S Westmoreland Rd,,Dallas,TX,75237,United States,(972) 780-0801,,,,,,
Texaco,,2330 Pearson Ave SW,,Birmingham,AL,35211,United States,(205) 923-4925,,,,,,
Texaco,,1003 W University Dr,,McKinney,TX,75069,United States,(972) 542-8626,,,,,,
Texaco,,2123 S Church St,,Burlington,NC,27215,United States,(336) 229-0728,,,,,,
Texaco,,4109 Gary Ave,,Fairfield,AL,35064,United States,(205) 780-5400,,,,,,
Texaco,,20 Salem Cir,,Covington,GA,30016,United States,(770) 786-1205,,,,,,
Texaco,,3998 Highway 42,,Locust Grove,GA,30248,United States,(678) 583-0103,,,,,,
Texaco,,756 Highway 155 S,,McDonough,GA,30253,United States,(770) 954-1486,,,,,,
Texaco,,1202 West Ave SW,,Conyers,GA,30012,United States,(770) 929-0088,,,,,,
Texaco,,5139 Highway 321 N,,Lenoir City,TN,37771,United States,(865) 986-9160,,,,,,
Texaco,,127 Eagle Bluff Rd,,Jacksboro,TN,37757,United States,(423) 566-6666,,,,,,
Texaco,,127 Eagle Bluff Rd # 1,,Jacksboro,TN,37757,United States,(423) 566-6666,,,,,,
Texaco,,1437 Highway 138 SE,,Conyers,GA,30013,United States,(770) 922-0941,,,,,,
Texaco,,219 W Central Ave,,La Follette,TN,37766,United States,(423) 562-1591,,,,,,
Texaco,,840 Hampton Rd,,McDonough,GA,30253,United States,(678) 432-6208,,,,,,
Texaco,,1360 N Interstate 35 E,,Lancaster,TX,75146,United States,(972) 223-1330,,,,,,
Texaco,,724 W Henderson St,,Cleburne,TX,76033,United States,(817) 645-5994,,,,,,
Texaco,,901 S Main St,,Cleburne,TX,76033,United States,(817) 645-6760,,,,,,
Texaco,,211 W Central Ave,,La Follette,TN,37766,United States,(423) 566-9673,,,,,,
Texaco,,1201 E Henderson St,,Cleburne,TX,76031,United States,(817) 641-2222,,,,,,
Texaco,,1595 E Broad St,,Mansfield,TX,76063,United States,(817) 473-9885,,,,,,
Texaco,,1118 S Main St,,Cleburne,TX,76033,United States,(817) 645-3410,,,,,,
Texaco,,3280 S Interstate 35 W,,Burleson,TX,76028,United States,(817) 783-8260,,,,,,
Texaco,,Highway 66,,Maypearl,TX,76064,United States,(972) 435-2510,,,,,,
Texaco,,3646 Reward Rd,,McKittrick,CA,93251,United States,(661) 762-7331,,,,,,
Texaco,,2562 Maple Ave,,Burlington,NC,27215,United States,(336) 227-8140,,,,,,
Texaco,,804 W Mcgregor Dr,,McGregor,TX,76657,United States,(254) 840-4236,,,,,,
Texaco,,1403 N Church St,,Burlington,NC,27217,United States,(336) 228-8107,,,,,,
Texaco,,7025 Cedar Ridge Dr,,Dallas,TX,75236,United States,(972) 296-7644,,,,,,
Texaco,,900 9th Ave SW,,Bessemer,AL,35022,United States,(205) 424-2230,,,,,,
Texaco,,1350 W College St,,Marshall,MO,65340,United States,(660) 886-6004,,,,,,
Texaco,,19129 Highway 87,,Boonville,MO,65233,United States,(660) 882-3581,,,,,,
Texaco,,Fm 147,,Marlin,TX,76661,United States,(254) 883-3231,,,,,,
Texaco,,1406 E College Dr,,Marshall,MN,56258,United States,(507) 532-7386,,,,,,
Texaco,,401 S Ellis St,,Groesbeck,TX,76642,United States,(254) 729-3662,,,,,,
Texaco,,850 Sandy Plains Rd # 7,,Marietta,GA,30066,United States,(770) 590-9335,,,,,,
Texaco,,850 Sandy Plains Rd Ste 7,,Marietta,GA,30066,United States,(770) 590-9335,,,,,,
Texaco,,897 Western Ave,,Manchester,ME,04351,United States,(207) 623-8155,,,,,,
Texaco,,556 Roswell St SE,,Marietta,GA,30060,United States,(770) 422-8428,,,,,,
Texaco,,700 California Pkwy N,,Fort Worth,TX,76115,United States,(817) 921-6383,,,,,,
Texaco,,1001 N Collins St,,Arlington,TX,76011,United States,(817) 275-6012,,,,,,
Texaco,,4901 E California Pkwy,,Fort Worth,TX,76119,United States,(817) 534-7547,,,,,,
Texaco,,5515 Overseas Hwy,,Marathon,FL,33050,United States,(305) 289-2027,,,,,,
Texaco,,435 W Henderson St,,Marion,NC,28752,United States,(828) 659-6731,,,,,,
Texaco,,315 E Parkdale Ave,,Manistee,MI,49660,United States,(231) 723-2239,,,,,,
Texaco,,4401 W Green Oaks Blvd,,Arlington,TX,76016,United States,(817) 483-8386,,,,,,
Texaco,,690 Grants Ferry Rd # 32,,Brandon,MS,39047,United States,(601) 992-2001,,,,,,
Texaco,,690 Grants Ferry Rd,,Brandon,MS,39047,United States,(601) 992-2001,,,,,,
Texaco,,1860 Main St,,Madison,MS,39110,United States,(601) 853-1003,,,,,,
Texaco,,21641 Maple Valley Hwy,,Maple Valley,WA,98038,United States,(425) 432-2653,,,,,,
Texaco,,5001 N Pine Island Rd,,Fort Lauderdale,FL,33351,United States,(954) 742-5112,,,,,,
Texaco,,100 Interstate 20 E,,Arlington,TX,76018,United States,(817) 557-4117,,,,,,
Texaco,,815 Murfreesboro Pike,,Nashville,TN,37217,United States,(615) 399-0803,,,,,,
Texaco,,5851 OLD HICKORY BLVD,,Hermitage,TN,37076,United States,(615) 889-2047,,,,,,
Texaco,,5851 Old Hickory Blvd,,Nashville,TN,37218,United States,(615) 889-2047,,,,,,
Texaco,,580 Donelson Pike,,Nashville,TN,37214,United States,(615) 889-3016,,,,,,
Texaco,,834 Porter Rd,,Nashville,TN,37206,United States,(615) 226-6785,,,,,,
Texaco,,4500 S Bowen Rd,,Arlington,TX,76017,United States,(817) 468-5613,,,,,,
Texaco,,750 Rivergate Pkwy,,Goodlettsville,TN,37072,United States,(615) 356-8318,,,,,,
Texaco,,4050 Lebanon Pike,,Hermitage,TN,37076,United States,(615) 885-7320,,,,,,
Texaco,,333 Cartwright St,,Goodlettsville,TN,37072,United States,(615) 851-5521,,,,,,
Texaco,,4550 N University Dr,,Pompano Beach,FL,33065,United States,(954) 227-8625,,,,,,
Texaco,,8161 Wiles Rd,,Coral Springs,FL,33067,United States,(954) 345-2959,,,,,,
Texaco,,8161 Wiles Rd,,Pompano Beach,FL,33067,United States,(954) 345-2959,,,,,,
Texaco,,413 E Old Hickory Blvd,,Madison,TN,37115,United States,(615) 865-9209,,,,,,
Texaco,,1015 W Main St,,Hendersonville,TN,37075,United States,(615) 826-0408,,,,,,
Texaco,,7336 Southgate Blvd,,Pompano Beach,FL,33068,United States,(954) 720-1067,,,,,,
Texaco,,53 Main St,,Norway,ME,04268,United States,(207) 743-2432,,,,,,
Texaco,,200 Blanding Blvd,,Orange Park,FL,32073,United States,(904) 272-0615,,,,,,
Texaco,,860 Six Flags Rd,,Austell,GA,30168,United States,(770) 948-8288,,,,,,
Texaco,,3263 Bankhead Hwy NW,,Atlanta,GA,30331,United States,(404) 472-0802,,,,,,
Texaco,,9970 W Oakland Park Blvd,,Sunrise,FL,33351,United States,(954) 572-8858,,,,,,
Texaco,,1030 Edgewood Ave N,,Jacksonville,FL,32254,United States,(904) 378-3205,,,,,,
Texaco,,9537 Highway 70,,North Little Rock,AR,72117,United States,(870) 733-9554,,,,,,
Texaco,,819 Aseltine Rd,,Northfield,VT,05663,United States,(802) 485-5601,,,,,,
Texaco,,4160 Fulton Industrial Bl,,Atlanta,GA,30336,United States,(404) 696-1838,,,,,,
Texaco,,8400 W Oakland Park Blvd,,Fort Lauderdale,FL,33351,United States,(954) 748-4528,,,,,,
Texaco,,3701 W Sahara Ave,,Las Vegas,NV,89102,United States,(702) 876-2886,,,,,,
Texaco,,72 King St,,Northampton,MA,01060,United States,(413) 584-0716,,,,,,
Texaco,,7951 Route 30,,North Huntingdon,PA,15642,United States,(724) 864-5860,,,,,,
Texaco,,298 S Decatur Blvd,,Las Vegas,NV,89107,United States,(702) 258-3337,,,,,,
Texaco,,2375 E Sahara Ave,,Las Vegas,NV,89104,United States,(702) 457-7070,,,,,,
Texaco,,5275 E Craig Rd,,Las Vegas,NV,89115,United States,(702) 643-1111,,,,,,
Texaco,,2208 Elmers Ln,,Norfolk,NE,68701,United States,(402) 379-2680,,,,,,
Texaco,,2629 SW 108th St,,Oklahoma City,OK,73170,United States,(405) 691-5316,,,,,,
Texaco,,2014 Ann Rd,,North Las Vegas,NV,89031,United States,(702) 636-1553,,,,,,
Texaco,,1301 N Janeway Ave,,Oklahoma City,OK,73160,United States,(405) 799-7636,,,,,,
Texaco,,1180 N Nellis Blvd # C1,,Las Vegas,NV,89110,United States,(702) 452-3200,,,,,,
Texaco,,5118 E Lake Mead Blvd,,Las Vegas,NV,89156,United States,(702) 459-7157,,,,,,
Texaco,,3283 Las Vegas Blvd N,,Las Vegas,NV,89115,United States,(702) 643-6165,,,,,,
Texaco,,2051 E Sahara Ave,,Las Vegas,NV,89104,United States,(702) 457-2675,,,,,,
Texaco,,7410 BLANDING BLVD,,Jacksonville,FL,32244,United States,(904) 771-9478,,,,,,
Texaco,,714 Cassat Ave,,Jacksonville,FL,32205,United States,(904) 786-4983,,,,,,
Texaco,,14420 468th Ave SE,,North Bend,WA,98045,United States,(425) 888-9764,,,,,,
Texaco,,804 Blanding Blvd,,Orange Park,FL,32065,United States,(904) 272-2430,,,,,,
Texaco,,6409 San Juan Ave,,Jacksonville,FL,32210,United States,(904) 786-4613,,,,,,
Texaco,,6970 103rd St,,Jacksonville,FL,32210,United States,(904) 777-1129,,,,,,
Texaco,,8165 103rd St,,Jacksonville,FL,32210,United States,(904) 779-2295,,,,,,
Texaco,,257 W Macclenny Ave,,Macclenny,FL,32063,United States,(904) 259-6277,,,,,,
Texaco,,7718 NC Highway 704,,Madison,NC,27025,United States,(336) 548-6740,,,,,,
Texaco,,6804 103rd St,,Jacksonville,FL,32210,United States,(904) 772-8665,,,,,,
Texaco,,8616 S Western Ave,,Oklahoma City,OK,73139,United States,(405) 632-7400,,,,,,
Texaco,,1180 N Nellis Blvd Ste C1,,Las Vegas,NV,89110,United States,(702) 452-3200,,,,,,
Texaco,,326 Main St,,Niantic,CT,06357,United States,(860) 739-8424,,,,,,
Texaco,,2585 Wesley Chapel Rd,,Decatur,GA,30035,United States,(770) 593-1387,,,,,,
Texaco,,17395 SW Farmington Rd,,Beaverton,OR,97007,United States,(503) 649-7591,,,,,,
Texaco,,124 Main St,,Jersey,GA,30018,United States,(770) 464-2314,,,,,,
Texaco,,2808 Panola Rd,,Lithonia,GA,30058,United States,(770) 322-8880,,,,,,
Texaco,,1141 Parkway,,Gatlinburg,TN,37738,United States,(865) 436-4109,,,,,,
Texaco,,8740 SW Goldstone Pl,,Beaverton,OR,97007,United States,(503) 521-1014,,,,,,
Texaco,,2428 Junipero Serra Blvd,,Daly City,CA,94015,United States,(650) 992-1285,,,,,,
Texaco,,16617 SW Timberland Dr,,Beaverton,OR,97007,United States,(503) 761-2854,,,,,,
Texaco,,1800 Highway 138 NE,,Conyers,GA,30013,United States,(770) 761-0061,,,,,,
Texaco,,20010 S I H 35,,Buda,TX,78610,United States,(512) 312-0795,,,,,,
Texaco,,200 N Dixie Fwy,,New Smyrna Beach,FL,32168,United States,(386) 427-7363,,,,,,
Texaco,,1700 Hickory Ave,,New Orleans,LA,70123,United States,(504) 738-3962,,,,,,
Texaco,,606 Main St W,,Glencoe,AL,35905,United States,(256) 492-0788,,,,,,
Texaco,,11339 Tamiami Trl E,,Naples,FL,34113,United States,(239) 732-5542,,,,,,
Texaco,,5001 Nolensville Rd,,Nashville,TN,37211,United States,(615) 834-5531,,,,,,
Texaco,,2934 Tamiami Trl E,,Naples,FL,34112,United States,(239) 774-0994,,,,,,
Texaco,,12909 E 21st St,,Tulsa,OK,74134,United States,(918) 438-5702,,,,,,
Texaco,,783 N Brindlee Mountain P,,Arab,AL,35016,United States,(256) 586-7029,,,,,,
Texaco,,502 E 2nd Ave,,Owasso,OK,74055,United States,(918) 272-3517,,,,,,
Texaco,,21850 US Highway 431,,Guntersville,AL,35976,United States,(256) 582-0809,,,,,,
Texaco,,9143 Baymeadows Rd,,Jacksonville,FL,32256,United States,(904) 739-2716,,,,,,
Texaco,,4075 Vinewood Ln N,,Minneapolis,MN,55442,United States,(763) 553-0565,,,,,,
Texaco,,6931 Charlotte Pike,,Nashville,TN,37209,United States,(615) 356-6694,,,,,,
Texaco,,13400 Grove Dr,,Osseo,MN,55369,United States,(763) 494-4090,,,,,,
Texaco,,400 E Cummings Ave,,Opp,AL,36467,United States,(334) 493-6477,,,,,,
Texaco,,12459 Champlin Dr,,Champlin,MN,55316,United States,(763) 421-3035,,,,,,
Texaco,,8866 Baymeadows Rd,,Jacksonville,FL,32256,United States,(904) 733-6326,,,,,,
Texaco,,5295 Sunbeam Rd,,Jacksonville,FL,32257,United States,(904) 733-7670,,,,,,
Texaco,,2009 Warfield Dr,,Nashville,TN,37215,United States,(615) 292-2350,,,,,,
Texaco,,4801 Trousdale Dr,,Nashville,TN,37220,United States,(615) 832-3268,,,,,,
Texaco,,1717 61st Ave N,,Nashville,TN,37209,United States,(615) 350-7077,,,,,,
Texaco,,815 Pelham Rd S # F,,Jacksonville,AL,36265,United States,(256) 782-1100,,,,,,
Texaco,,606 Main St W,,Gadsden,AL,35905,United States,(256) 492-0788,,,,,,
Texaco,,13358 Grove Dr,,Osseo,MN,55369,United States,(763) 494-3700,,,,,,
Texaco,,610 S Timberland Dr,,Lufkin,TX,75901,United States,(936) 634-8158,,,,,,
Texaco,,625 S Bynum St,,Lufkin,TX,75904,United States,(936) 634-3117,,,,,,
Texaco,,12331 San Jose Blvd,,Jacksonville,FL,32223,United States,(904) 268-7849,,,,,,
Texaco,,1105 S Broad St,,Fremont,NE,68025,United States,(402) 721-9815,,,,,,
Texaco,,11 George Rd,,Omak,WA,98841,United States,(509) 826-6097,,,,,,
Texaco,,800 E Riverside Dr,,Omak,WA,98841,United States,(509) 826-2965,,,,,,
Texaco,,Raccoon Township,,Centralia,IL,62801,United States,(618) 532-2027,,,,,,
Texaco,,Interstate 40 and Hwy 27,,Okemah,OK,74859,United States,(918) 623-0858,,,,,,
Texaco,,1010 Highway 41 N,,Inverness,FL,34450,United States,(352) 628-2105,,,,,,
Texaco,,1604 Forestdale Blvd,,Birmingham,AL,35214,United States,(205) 791-0107,,,,,,
Texaco,,6801 Highway 78,,Cordova,AL,35550,United States,(205) 648-9647,,,,,,
Texaco,,3022 Highway 195,,Jasper,AL,35503,United States,(205) 221-0316,,,,,,
Texaco,,757 Crescent Beach Dr,,Eastsound,WA,98245,United States,(360) 376-4076,,,,,,
Texaco,,7001 SE 29th St,,Oklahoma City,OK,73110,United States,(405) 732-8091,,,,,,
Texaco,,22007 Makah Rd,,Edmonds,WA,98020,United States,(425) 774-5880,,,,,,
Texaco,,17255 Aurora Ave N,,Seattle,WA,98133,United States,(206) 542-9666,,,,,,
Texaco,,10105 Highway 78,,Jasper,AL,35501,United States,(205) 483-9490,,,,,,
Texaco,,N Of City,,Goldsmith,TX,79741,United States,(432) 827-3681,,,,,,
Texaco,,6532 Ne Bothell Way,,Kenmore,WA,98028,United States,(425) 485-6069,,,,,,
Texaco,,16827 Bothell Way Ne,,Seattle,WA,98155,United States,(206) 362-9440,,,,,,
Texaco,,3505 Pacific Ave SE,,Olympia,WA,98501,United States,(360) 459-4004,,,,,,
Texaco,,6602 220th St SW,,Mountlake Terrace,WA,98043,United States,(425) 778-8688,,,,,,
Texaco,,2125 Caton Way SW,,Olympia,WA,98502,United States,(360) 236-7298,,,,,,
Texaco,,1480 Minor Pkwy,,Birmingham,AL,35224,United States,(205) 798-1056,,,,,,
Texaco,,19930 44th Ave W,,Lynnwood,WA,98036,United States,(425) 778-2243,,,,,,
Texaco,,500 Airport Rd S,,Jasper,AL,35501,United States,(205) 221-5006,,,,,,
Texaco,,3277 Us Highway 441/27,,Fruitland Park,FL,34731,United States,(352) 365-0080,,,,,,
Texaco,,5215 212th St SW,,Lynnwood,WA,98036,United States,(425) 774-1953,,,,,,
Texaco,,1050 Plum St SE,,Olympia,WA,98501,United States,(360) 753-7514,,,,,,
Texaco,,3302 SW 29th St,,Oklahoma City,OK,73119,United States,(405) 681-5103,,,,,,
Texaco,,2302 Hoots Chapel Rd,,Odin,IL,62870,United States,(618) 548-1803,,,,,,
Texaco,,1801 S Sunnylane Rd,,Oklahoma City,OK,73115,United States,(405) 677-0818,,,,,,
Texaco,,611 University Ave,,Lubbock,TX,79401,United States,(806) 741-0099,,,,,,
Texaco,,7002 Indiana Ave,,Lubbock,TX,79413,United States,(806) 797-9882,,,,,,
Texaco,,2501 82nd St,,Lubbock,TX,79423,United States,(806) 748-1760,,,,,,
Texaco,,6117 Franconia Rd,,Alexandria,VA,22310,United States,(703) 971-5788,,,,,,
Texaco,,1704 Wildwood Ave SE,,Cleveland,TN,37311,United States,(423) 559-1915,,,,,,
Texaco,,454 W Main St,,Apopka,FL,32712,United States,(407) 889-4768,,,,,,
Texaco,,701 W Main St,,Jacksonville,AR,72076,United States,(501) 982-1375,,,,,,
Texaco,,2932 Juan Tabo Blvd Ne,,Albuquerque,NM,87112,United States,(505) 292-1090,,,,,,
Texaco,,3122 Estes Pkwy,,Longview,TX,75602,United States,(903) 753-2376,,,,,,
Texaco,,3568 Memorial Dr,,Decatur,GA,30032,United States,(404) 284-5604,,,,,,
Texaco,,662 Duluth Hwy,,Lawrenceville,GA,30045,United States,(770) 963-1317,,,,,,
Texaco,,2701 Candler Rd,,Decatur,GA,30034,United States,(404) 241-6622,,,,,,
Texaco,,4047 Glenwood Rd,,Decatur,GA,30032,United States,(404) 284-2954,,,,,,
Texaco,,501 Highway 29,,Auburn,GA,30011,United States,(770) 822-0923,,,,,,
Texaco,,3601 Wyoming Blvd Ne,,Albuquerque,NM,87111,United States,(505) 298-1556,,,,,,
Texaco,,3364 Glenwood Rd,,Decatur,GA,30032,United States,(404) 288-9389,,,,,,
Texaco,,301 W Saint Georges Ave,,Linden,NJ,07036,United States,(908) 925-6428,,,,,,
Texaco,,2680 S Federal Blvd,,Denver,CO,80219,United States,(303) 937-3881,,,,,,
Texaco,,2200 W Evans Ave,,Englewood,CO,80110,United States,(303) 922-4949,,,,,,
Texaco,,4800 E Hampden Ave,,Denver,CO,80222,United States,(303) 758-2814,,,,,,
Texaco,,1501 S 4th St,,Chickasha,OK,73018,United States,(405) 224-5300,,,,,,
Texaco,,7220 W Jefferson Ave # 240,,Denver,CO,80235,United States,(303) 302-0225,,,,,,
Texaco,,2500 Snapfinger Rd,,Decatur,GA,30034,United States,(770) 323-9271,,,,,,
Texaco,,1300 Juan Tabo Blvd Ne,,Albuquerque,NM,87112,United States,(505) 275-3994,,,,,,
Texaco,,250 E Dry Creek Rd # 101,,Littleton,CO,80122,United States,(303) 347-1023,,,,,,
Texaco,,2601 2nd St NW,,Albuquerque,NM,87107,United States,(505) 345-7227,,,,,,
Texaco,,5890 S Santa Fe Dr,,Littleton,CO,80120,United States,(303) 794-6175,,,,,,
Texaco,,2930 San Mateo Blvd NE,,Albuquerque,NM,87110,United States,(505) 883-0570,,,,,,
Texaco,,1001 Lead Ave SW,,Albuquerque,NM,87102,United States,(505) 248-0595,,,,,,
Texaco,,12831 Central Ave Ne,,Albuquerque,NM,87123,United States,(505) 294-2883,,,,,,
Texaco,,1200 W Littleton Blvd,,Littleton,CO,80120,United States,(303) 798-4427,,,,,,
Texaco,,1860 Main St NW,,Los Lunas,NM,87031,United States,(505) 866-1933,,,,,,
Texaco,,2309 Central Ave NW,,Albuquerque,NM,87104,United States,(505) 242-1242,,,,,,
Texaco,,2013 Gilmer Rd,,Longview,TX,75604,United States,(903) 759-5884,,,,,,
Texaco,,1100 Jaycee Dr,,Longview,TX,75604,United States,(903) 757-3377,,,,,,
Texaco,,842 Harbins Rd # A,,Dacula,GA,30019,United States,(770) 682-4666,,,,,,
Texaco,,1489 S Main St 25,,Belen,NM,87002,United States,(505) 864-7533,,,,,,
Texaco,,1608 B,,Longview,TX,75601,United States,(903) 758-9749,,,,,,
Texaco,,105 E Loop 281,,Longview,TX,75605,United States,(903) 663-4664,,,,,,
Texaco,,1621 Beville Dr,,Griffin,GA,30224,United States,(770) 227-3836,,,,,,
Texaco,,301 W 2nd St,,Lockport,IL,60441,United States,(815) 838-0770,,,,,,
Texaco,,1101 N 4th St,,Longview,TX,75601,United States,(903) 758-4858,,,,,,
Texaco,,2150 Lafayette Rd,,Fort Oglethorpe,GA,30742,United States,(706) 858-4040,,,,,,
Texaco,,1410 S Lee Hwy,,Cleveland,TN,37311,United States,(423) 472-8962,,,,,,
Texaco,,11200 Tara Blvd,,Hampton,GA,30228,United States,(770) 472-0019,,,,,,
Texaco,,1008 2nd St Ne,,Hickory,NC,28601,United States,(828) 328-3202,,,,,,
Texaco,,RR 1,,Lookout Mountain,GA,30750,United States,(706) 398-3255,,,,,,
Texaco,,2424 Ne Highway 101,,Lincoln City,OR,97367,United States,(541) 994-2416,,,,,,
Texaco,,5111 O St,,Lincoln,NE,68510,United States,(402) 489-6354,,,,,,
Texaco,,4800 Old Cheney Rd,,Lincoln,NE,68516,United States,(402) 421-9294,,,,,,
Texaco,,1745 Indian Trail Rd,,Norcross,GA,30093,United States,(770) 381-9973,,,,,,
Texaco,,1740 Indian Trail Lilburn,,Norcross,GA,30093,United States,(770) 925-0119,,,,,,
Texaco,,1600 S Interstate 35,,Carrollton,TX,75006,United States,(972) 446-2237,,,,,,
Texaco,,8805 NW Highway 45,,Kansas City,MO,64152,United States,(816) 741-6422,,,,,,
Texaco,,88n N Mount Juliet Rd,,Mount Juliet,TN,37122,United States,(615) 758-6888,,,,,,
Texaco,,88 N Mount Juliet Rd,,Mount Juliet,TN,37122,United States,(615) 773-2410,,,,,,
Texaco,,379 N Jefferson Ave,,Lebanon,MO,65536,United States,(417) 532-2062,,,,,,
Texaco,,910 W Main St,,Lebanon,TN,37087,United States,(615) 449-3137,,,,,,
Texaco,,9700 NW Polo Dr,,Kansas City,MO,64153,United States,(816) 741-3831,,,,,,
Texaco,,Lawrenceville Pumping Station,,Lawrenceville,IL,62439,United States,(618) 943-5121,,,,,,
Texaco,,1901 Ne Russell Rd,,Kansas City,MO,64116,United States,(816) 452-0303,,,,,,
Texaco,,2602 Ne Vivion Rd,,Kansas City,MO,64119,United States,(816) 454-4601,,,,,,
Texaco,,2615 Fairfield St,,Lincoln,NE,68521,United States,(402) 435-6600,,,,,,
Texaco,,1321 W 43rd St,,Kansas City,MO,64111,United States,(816) 931-7592,,,,,,
Texaco,,800 N 17th St,,Lincoln,NE,68508,United States,(402) 475-3223,,,,,,
Texaco,,1107 Belmont Ave,,Lincoln,NE,68521,United States,(402) 435-7656,,,,,,
Texaco,,1140 W O St,,Lincoln,NE,68528,United States,(402) 477-8668,,,,,,
Texaco,,1801 Apache Dr,,Albertville,AL,35950,United States,(256) 878-2490,,,,,,
Texaco,,720 Aquahart Rd,,Glen Burnie,MD,21061,United States,(410) 761-5970,,,,,,
Texaco,,209 Greenhill Blvd NW,,Fort Payne,AL,35967,United States,(256) 845-9600,,,,,,
Texaco,,2664 Thurleston Ln,,Duluth,GA,30097,United States,(678) 957-9658,,,,,,
Texaco,,111 N Point Blvd,,Baltimore,MD,21224,United States,(410) 288-1428,,,,,,
Texaco,,3705 Highway 15 N,,Laurel,MS,39440,United States,(601) 425-3556,,,,,,
Texaco,,104 Woodland Way,,Greenwood,SC,29646,United States,(864) 227-6365,,,,,,
Texaco,,8 N Water St,,Burnet,TX,78611,United States,(512) 756-8218,,,,,,
Texaco,,301 Broadway Dr,,Hattiesburg,MS,39401,United States,(601) 583-1416,,,,,,
Texaco,,Hc 221,,Greenville,FL,32331,United States,(850) 948-2678,,,,,,
Texaco,,1897 S Wadsworth Blvd,,Denver,CO,80232,United States,(303) 986-7964,,,,,,
Texaco,,6898 Lake Park Bellville,,Lake Park,GA,31636,United States,(229) 559-4464,,,,,,
Texaco,,2061 Fort Worth Ave,,Dallas,TX,75208,United States,(214) 943-9058,,,,,,
Texaco,,125 80 Foot Rd,,Bartow,FL,33830,United States,(863) 537-1651,,,,,,
Texaco,,4172 Boulder Hwy,,Las Vegas,NV,89121,United States,(702) 458-7900,,,,,,
Texaco,,12550 S Military Trl,,Boynton Beach,FL,33436,United States,(561) 499-6363,,,,,,
Texaco,,801 N Federal Hwy,,Delray Beach,FL,33483,United States,(561) 278-7484,,,,,,
Texaco,,906 S Boulder Hwy,,Henderson,NV,89015,United States,(702) 565-0522,,,,,,
Texaco,,1602 US Highway 27 S,,Haines City,FL,33844,United States,(863) 422-1369,,,,,,
Texaco,,1452 N Boulder Hwy,,Henderson,NV,89015,United States,(702) 564-1222,,,,,,
Texaco,,5400 E Tropicana Ave,,Las Vegas,NV,89122,United States,(702) 433-5823,,,,,,
Texaco,,1805 Sylvan Ave,,Dallas,TX,75208,United States,(214) 653-9300,,,,,,
Texaco,,6716 Paljay CT,,Las Vegas,NV,89103,United States,(702) 253-7101,,,,,,
Texaco,,6115 S Pecos Rd,,Las Vegas,NV,89120,United States,(702) 456-5800,,,,,,
Texaco,,4620 E Russell Rd,,Las Vegas,NV,89120,United States,(702) 434-4633,,,,,,
Texaco,,901 W Sunset Rd Ste C,,Henderson,NV,89015,United States,(702) 454-9300,,,,,,
Texaco,,9111 Las Vegas Blvd S,,Las Vegas,NV,89123,United States,(702) 269-4900,,,,,,
Texaco,,2619 Market St,,Laredo,TX,78043,United States,(956) 727-3853,,,,,,
Texaco,,901 Matamoros St,,Laredo,TX,78040,United States,(956) 727-7268,,,,,,
Texaco,,9804 FM 1472,,Laredo,TX,78045,United States,(956) 717-3779,,,,,,
Texaco,,198 N Pecos Rd,,Henderson,NV,89074,United States,(702) 433-4343,,,,,,
Texaco,,2626 E Highway 190,,Copperas Cove,TX,76522,United States,(254) 547-3418,,,,,,
Texaco,,RR 1 Box 603,,Lampasas,TX,76550,United States,(512) 556-5692,,,,,,
Texaco,,2300 Park Row Ave,,Dallas,TX,75215,United States,(972) 943-9389,,,,,,
Texaco,,619 W Davis St,,Dallas,TX,75208,United States,(214) 946-6463,,,,,,
Texaco,,6210 Marvin D Love Fwy,,Dallas,TX,75237,United States,(214) 330-1455,,,,,,
Texaco,,3200 Audubon Dr,,Laurel,MS,39440,United States,(601) 428-1268,,,,,,
Texaco,,417 Beacon St,,Laurel,MS,39440,United States,(601) 425-4842,,,,,,
Texaco,,2900 S Wadsworth Blvd,,Denver,CO,80227,United States,(303) 984-2900,,,,,,
Texaco,,1219 San Dario Ave,,Laredo,TX,78040,United States,(956) 725-2716,,,,,,
Texaco,,2631 Annapolis Rd,,Hanover,MD,21076,United States,(410) 551-6446,,,,,,
Texaco,,708 Chantilly St,,Laurel,MS,39440,United States,(601) 425-5069,,,,,,
Texaco,,301 W Meighan Blvd,,Gadsden,AL,35901,United States,(256) 549-0345,,,,,,
Texaco,,1900 Ewing Ave,,Gadsden,AL,35901,United States,(256) 547-2215,,,,,,
Texaco,,400 N 12th St,,Gadsden,AL,35901,United States,(256) 549-0663,,,,,,
Texaco,,1202 W Main St,,Centre,AL,35960,United States,(256) 927-2642,,,,,,
Texaco,,120 County Road 317,,Leesburg,AL,35983,United States,(256) 526-8570,,,,,,
Texaco,,2255 Duluth Hwy,,Duluth,GA,30097,United States,(770) 232-4950,,,,,,
Texaco,,2350 Satellite Blvd,,Duluth,GA,30096,United States,(678) 473-1670,,,,,,
Texaco,,1209 Reynolds Ave,,Greenwood,SC,29649,United States,(864) 223-3964,,,,,,
Texaco,,607 E Camp Wisdom Rd,,Duncanville,TX,75116,United States,(972) 298-8441,,,,,,
Texaco,,2890 Jamaica Blvd S,,Lake Havasu City,AZ,86406,United States,(928) 505-3222,,,,,,
Texaco,,615 E Main St,,Knoxville,IA,50138,United States,(641) 842-2417,,,,,,
Texaco,,2901 E Andy Devine Ave,,Kingman,AZ,86401,United States,(928) 753-5925,,,,,,
Texaco,,3115 N Stockton Hill Rd,,Kingman,AZ,86401,United States,(928) 753-5055,,,,,,
Texaco,,547 W New York Ave,,Deland,FL,32720,United States,(386) 734-1724,,,,,,
Texaco,,4938 James Madison Pkwy,,King George,VA,22485,United States,(540) 663-3882,,,,,,
Texaco,,325 S Union St,,Kennewick,WA,99336,United States,(509) 783-1883,,,,,,
Texaco,,13239 Dahlgren Rd,,King George,VA,22485,United States,(540) 663-2040,,,,,,
Texaco,,1766 5th St,,Jellico,TN,37762,United States,(423) 784-8765,,,,,,
Texaco,,455 W Oak Ridge Rd,,Orlando,FL,32809,United States,(407) 857-9028,,,,,,
Texaco,,RURAL ROUTE 1,,Speedwell,TN,37870,United States,(423) 869-2004,,,,,,
Texaco,,219 West St,,Keene,NH,03431,United States,(603) 357-0657,,,,,,
Texaco,,4003 W Oak Ridge Rd,,Orlando,FL,32809,United States,(407) 351-1943,,,,,,
Texaco,,5991 US Highway 1,,Key West,FL,33040,United States,(305) 292-9713,,,,,,
Texaco,,1900 N Roosevelt Blvd,,Key West,FL,33040,United States,(305) 292-3309,,,,,,
Texaco,,1339 S Dairy Ashford St,,Houston,TX,77077,United States,(281) 493-0580,,,,,,
Texaco,,604 W 75th St,,Kansas City,MO,64114,United States,(816) 822-8759,,,,,,
Texaco,,900 E 63rd St,,Kansas City,MO,64110,United States,(816) 333-3340,,,,,,
Texaco,,14754 Memorial Dr,,Houston,TX,77079,United States,(281) 497-0944,,,,,,
Texaco,,47-256 Hui Iwa St,,Kaneohe,HI,96744,United States,(808) 239-5104,,,,,,
Texaco,,14403 Memorial Dr,,Houston,TX,77079,United States,(281) 493-4080,,,,,,
Texaco,,3227 S Main St,,Joplin,MO,64804,United States,(417) 623-9135,,,,,,
Texaco,,5002 S Main St,,Joplin,MO,64804,United States,(417) 782-1668,,,,,,
Texaco,,1219 Highway 6 N,,Houston,TX,77084,United States,(281) 599-0931,,,,,,
Texaco,,1 Oglethorpe Ave,,Fort Stewart,GA,31315,United States,(912) 876-4551,,,,,,
Texaco,,442 S 1st St,,Jesup,GA,31545,United States,(912) 530-8000,,,,,,
Texaco,,2188 Gum Branch Rd,,Jacksonville,NC,28540,United States,(910) 347-5547,,,,,,
Texaco,,2415 W Center St,,Beebe,AR,72012,United States,(501) 882-2233,,,,,,
Texaco,,1120 W Main St,,Cabot,AR,72023,United States,(501) 843-9246,,,,,,
Texaco,,15515 Kuykendahl Rd,,Houston,TX,77090,United States,(281) 440-8365,,,,,,
Texaco,,2540 W Holcombe Blvd,,Houston,TX,77030,United States,(713) 667-4432,,,,,,
Texaco,,34 Aldine Bender Rd,,Houston,TX,77060,United States,(281) 448-9156,,,,,,
Texaco,,1021 S Sam Houston Blvd,,Houston,MO,65483,United States,(417) 967-5550,,,,,,
Texaco,,6034 Bellaire Blvd,,Houston,TX,77081,United States,(713) 666-2020,,,,,,
Texaco,,8402 Hillcroft St,,Houston,TX,77096,United States,(713) 995-8300,,,,,,
Texaco,,8521 Stella Link Rd,,Houston,TX,77025,United States,(713) 661-1897,,,,,,
Texaco,,1402 FM 1960 Rd W,,Houston,TX,77090,United States,(281) 440-9768,,,,,,
Texaco,,2244 Highway 82 E,,Greenville,MS,38703,United States,(662) 332-3636,,,,,,
Texaco,,18040 Highway 59 N,,Humble,TX,77396,United States,(281) 540-1092,,,,,,
Texaco,,1691 12th St,,Hood River,OR,97031,United States,(541) 387-4444,,,,,,
Texaco,,2712 N Hazel St,,Hope,AR,71801,United States,(870) 777-9703,,,,,,
Texaco,,19200 W Lake Houston Pkwy,,Humble,TX,77346,United States,(281) 852-3850,,,,,,
Texaco,,1858 Atlanta Hwy,,Gainesville,GA,30504,United States,(770) 297-7455,,,,,,
Texaco,,215 Peachtree Industrial,,Buford,GA,30518,United States,(770) 945-2559,,,,,,
Texaco,,4362 Highway 124,,Hoschton,GA,30548,United States,(770) 614-3880,,,,,,
Texaco,,18619 Woodland Hills Dr,,Humble,TX,77346,United States,(281) 852-0050,,,,,,
Texaco,,1003 FM 1960 Bypass Rd E,,Humble,TX,77338,United States,(281) 446-4761,,,,,,
Texaco,,10322 Blue Ridge Blvd,,Kansas City,MO,64134,United States,(816) 767-1291,,,,,,
Texaco,,3690 Davie Rd,,Davie,FL,33314,United States,(954) 581-8945,,,,,,
Texaco,,2002 Aldine Bender Rd,,Houston,TX,77032,United States,(281) 449-5202,,,,,,
Texaco,,1501 W State Road 84,,Fort Lauderdale,FL,33315,United States,(954) 524-4776,,,,,,
Texaco,,3625 S State Road 7 Ste F,,Hollywood,FL,33023,United States,(954) 961-4201,,,,,,
Texaco,,1102 N University Dr,,Hollywood,FL,33024,United States,(954) 432-6666,,,,,,
Texaco,,6200 Hollywood Blvd,,Hollywood,FL,33024,United States,(954) 961-3366,,,,,,
Texaco,,24549 Loop 494,,Humble,TX,77339,United States,(281) 358-6590,,,,,,
Texaco,,7999 Pines Blvd,,Hollywood,FL,33024,United States,(954) 961-6601,,,,,,
Texaco,,126 N Federal Hwy,,Hallandale Beach,FL,33009,United States,(954) 457-7268,,,,,,
Texaco,,1739 Tyler St,,Hollywood,FL,33020,United States,(954) 922-4033,,,,,,
Texaco,,126 N Federal Hwy,,Hallandale,FL,33009,United States,(954) 457-7268,,,,,,
Texaco,,2000 Sheridan St,,Hollywood,FL,33020,United States,(954) 927-5255,,,,,,
Texaco,,220 E Wolfcamp Dr,,Hobbs,NM,88240,United States,(505) 392-5205,,,,,,
Texaco,,3415 Walnut Hill CT,,Falls Church,VA,22042,United States,(703) 241-1545,,,,,,
Texaco,,12600 Pines Blvd,,Hollywood,FL,33027,United States,(954) 436-9772,,,,,,
Texaco,,7399 Lee Hwy,,Falls Church,VA,22042,United States,(703) 560-5308,,,,,,
Texaco,,5705 Hampton Forest Way,,Fairfax,VA,22030,United States,(703) 830-3004,,,,,,
Texaco,,11090 Lee Hwy,,Fairfax,VA,22030,United States,(703) 359-7154,,,,,,
Texaco,,43083 John Mosby Hwy,,Chantilly,VA,20152,United States,(703) 327-4263,,,,,,
Texaco,,1408 N State Route 291,,Harrisonville,MO,64701,United States,(816) 380-3630,,,,,,
Texaco,,518 Dabney Dr,,Henderson,NC,27536,United States,(252) 430-8054,,,,,,
Texaco,,45995 Denizen Plz,,Sterling,VA,20165,United States,(703) 764-1519,,,,,,
Texaco,,5784 Union Mill Rd,,Clifton,VA,20124,United States,(703) 802-1170,,,,,,
Texaco,,2200 Longmire Dr,,College Station,TX,77845,United States,(979) 696-0065,,,,,,
Texaco,,Us Highway 63,,Hermitage,AR,71647,United States,(870) 463-2827,,,,,,
Texaco,,1625 Nevada Hwy,,Boulder City,NV,89005,United States,(702) 294-1828,,,,,,
Texaco,,3043 Centreville Rd,,Herndon,VA,20171,United States,(703) 318-7744,,,,,,
Texaco,,301 N Texas Ave,,Bryan,TX,77803,United States,(979) 779-2580,,,,,,
Texaco,,6055 SW Hall Blvd,,Beaverton,OR,97008,United States,(503) 646-4888,,,,,,
Texaco,,6950 NE Cornell Rd,,Hillsboro,OR,97124,United States,(503) 648-1159,,,,,,
Texaco,,1101 E Villa Maria Rd,,Bryan,TX,77802,United States,(979) 846-1454,,,,,,
Texaco,,101 S Smith Ave,,Hebbronville,TX,78361,United States,(361) 527-3951,,,,,,
Texaco,,14495 SW Tualatin Valley Hwy,,Beaverton,OR,97005,United States,(503) 469-8536,,,,,,
Texaco,,19165 SW Tualatin Valley,,Beaverton,OR,97006,United States,(503) 591-7070,,,,,,
Texaco,,46960 Harry Byrd Hwy,,Sterling,VA,20164,United States,(703) 430-1084,,,,,,
Texaco,,400 George Bush Dr,,College Station,TX,77840,United States,(979) 764-8981,,,,,,
Texaco,,248 US Highway 70 W,,Havelock,NC,28532,United States,(252) 447-3241,,,,,,
Texaco,,Hwy 70 E,,Beaufort,NC,28516,United States,(252) 728-5586,,,,,,
Texaco,,8895 N Commerce Dr,,Hayden Lake,ID,83835,United States,(208) 762-8203,,,,,,
Texaco,,840 Main St NE,,Hanceville,AL,35077,United States,(256) 352-6262,,,,,,
Texaco,,380 W 103rd St,,Kansas City,MO,64114,United States,(816) 941-8162,,,,,,
Texaco,,117 2nd Ave SW,,Cullman,AL,35055,United States,(256) 739-5888,,,,,,
Texaco,,3266 Al Highway 157,,Cullman,AL,35058,United States,(256) 737-0255,,,,,,
Texaco,,702 E Main St,,Havelock,NC,28532,United States,(252) 444-4858,,,,,,
Texaco,,401 E Main St,,Green Forest,AR,72638,United States,(870) 438-6696,,,,,,
Texaco,,783 N Brindlee Mountain Pkwy,,Arab,AL,35016,United States,(256) 586-7029,,,,,,
Texaco,,2000 HIGHWAY 61 S,,Hannibal,MO,63401,United States,(573) 221-6038,,,,,,
Texaco,,3601 West Fwy,,Fort Worth,TX,76107,United States,(817) 732-6928,,,,,,
Texaco,,617 N Swenson St,,Stamford,TX,79553,United States,(325) 773-3191,,,,,,
Texaco,,3200 N Sylvania Ave,,Fort Worth,TX,76111,United States,(817) 831-1262,,,,,,
Texaco,,201 Commerce St,,Fort Worth,TX,76102,United States,(817) 390-8763,,,,,,
Texaco,,42750 State Highway 75,,Altoona,AL,35952,United States,(205) 466-7827,,,,,,
Texaco,,1920 SW RR Ave,,Hammond,LA,70403,United States,(985) 345-4630,,,,,,
Texaco,,1801 Commercial Ave,,Anson,TX,79501,United States,(325) 823-3511,,,,,,
Texaco,,33 S Central Ave,,Hamlin,TX,79520,United States,(325) 576-3781,,,,,,
Texaco,,1930 Highway 43 E,,Harrison,AR,72601,United States,(870) 741-3353,,,,,,
Texaco,,3101 Airport Fwy,,Fort Worth,TX,76111,United States,(817) 834-4730,,,,,,
Texaco,,3100 Camp Bowie Blvd,,Fort Worth,TX,76107,United States,(817) 332-7046,,,,,,
Texaco,,6999 Hwy Rd Ste G,,Columbus,OH,43229,United States,(614) 888-8363,,,,,,
Texaco,,1001 Hwy 16 S,,Fredericksburg,TX,78624,United States,(830) 997-4854,,,,,,
Texaco,,800 S Monaco Pkwy,,Denver,CO,80224,United States,(303) 331-0949,,,,,,
Texaco,,236 W Fillmore St,,Colorado Springs,CO,80907,United States,(719) 471-1185,,,,,,
Texaco,,5885 Constitution Ave,,Colorado Springs,CO,80915,United States,(719) 570-7832,,,,,,
Texaco,,17th & Beck,,Cody,WY,82414,United States,(307) 587-6200,,,,,,
Texaco,,215 Saint Paul St Ste 201,,Denver,CO,80206,United States,(303) 948-2848,,,,,,
Texaco,,34 US Highway 87,,Comfort,TX,78013,United States,(830) 995-3824,,,,,,
Texaco,,2930 N Chestnut St,,Colorado Springs,CO,80907,United States,(719) 473-3877,,,,,,
Texaco,,4815 E Kings Canyon Rd,,Fresno,CA,93727,United States,(559) 458-0793,,,,,,
Texaco,,4853 E Mckinley Ave,,Fresno,CA,93703,United States,(559) 452-9041,,,,,,
Texaco,,3335 Springridge Cir,,Colorado Springs,CO,80906,United States,(719) 576-0169,,,,,,
Texaco,,390 W Shaw Ave,,Clovis,CA,93612,United States,(559) 299-2170,,,,,,
Texaco,,225 N Nevada Ave,,Colorado Springs,CO,80903,United States,(719) 632-7473,,,,,,
Texaco,,Highway 42 Hawkins Dr,,Bassfield,MS,39421,United States,(601) 943-5255,,,,,,
Texaco,,500 N College Ave,,Columbia,MO,65201,United States,(573) 449-9500,,,,,,
Texaco,,1001 Cherry St Ste 308,,Columbia,MO,65201,United States,(573) 449-6880,,,,,,
Texaco,,757 Highway 98 Byp,,Columbia,MS,39429,United States,(601) 736-7927,,,,,,
Texaco,,5612 E Saint Charles Rd,,Columbia,MO,65202,United States,(573) 814-0770,,,,,,
Texaco,,180 S Pine St,,Spartanburg,SC,29302,United States,(864) 591-0082,,,,,,
Texaco,,1212 S Bay St,,Eustis,FL,32726,United States,(352) 483-9386,,,,,,
Texaco,,2049 Booger Swamp Rd,,Yadkinville,NC,27055,United States,(336) 679-7401,,,,,,
Texaco,,4100 S Orange Blossom Trl,,Orlando,FL,32839,United States,(407) 425-4590,,,,,,
Texaco,,3003 Ocoee St N,,Cleveland,TN,37312,United States,(423) 476-2966,,,,,,
Texaco,,196 Maple St,,Franklin,NC,28734,United States,(828) 369-6416,,,,,,
Texaco,,207 W 1st St,,Cle Elum,WA,98922,United States,(509) 674-2824,,,,,,
Texaco,,2013 Woodchase Way Ne,,Cleveland,TN,37311,United States,(423) 476-2966,,,,,,
Texaco,,6999 W Colonial Dr,,Orlando,FL,32818,United States,(407) 295-0044,,,,,,
Texaco,,315 W Main St,,Clarksville,TX,75426,United States,(903) 427-2345,,,,,,
Texaco,,249 E Ponce De Leon Ave,,Decatur,GA,30030,United States,(404) 378-9613,,,,,,
Texaco,,601 Hornbuckle Rd,,Clarksville,TN,37043,United States,(931) 358-9447,,,,,,
Texaco,,374 Rossview Rd,,Clarksville,TN,37043,United States,(931) 920-5888,,,,,,
Texaco,,1390 Fort Campbell Blvd,,Clarksville,TN,37042,United States,(931) 552-5436,,,,,,
Texaco,,1869 Madison St,,Clarksville,TN,37043,United States,(931) 905-2522,,,,,,
Texaco,,136 Anderson Blvd,,Clarksdale,MS,38614,United States,(662) 624-4255,,,,,,
Texaco,,1780 Ashland City Rd,,Clarksville,TN,37043,United States,(931) 645-3255,,,,,,
Texaco,,1951 Madison St,,Clarksville,TN,37043,United States,(931) 648-9419,,,,,,
Texaco,,20250 Us Highway 27,,Clermont,FL,34715,United States,(352) 429-0465,,,,,,
Texaco,,1302 N 24th St,,Clear Lake,IA,50428,United States,(641) 357-0813,,,,,,
Texaco,,3001 Fort Campbell Blvd,,Clarksville,TN,37042,United States,(931) 431-3950,,,,,,
Texaco,,7490 Oakmont Blvd,,Fort Worth,TX,76132,United States,(817) 292-8488,,,,,,
Texaco,,3909 Altamesa Blvd,,Fort Worth,TX,76133,United States,(817) 346-9214,,,,,,
Texaco,,104 Avery Rd WA,,Chehalis,WA,98532,United States,(360) 262-3667,,,,,,
Texaco,,11668 James Madison Hwy,,Gordonsville,VA,22942,United States,(434) 589-8789,,,,,,
Texaco,,183 Montevallo Rd,,Centreville,AL,35042,United States,(205) 926-5789,,,,,,
Texaco,,288 Highway 310,,Calera,AL,35040,United States,(205) 668-2950,,,,,,
Texaco,,Route 17,,Dunnsville,VA,22454,United States,(804) 443-1093,,,,,,
Texaco,,195 S Main St,,Cedar City,UT,84720,United States,(435) 586-8164,,,,,,
Texaco,,2521 N Main St,,Cedar City,UT,84720,United States,(435) 586-4819,,,,,,
Texaco,,1495 W 200 N,,Cedar City,UT,84720,United States,(435) 586-1531,,,,,,
Texaco,,1360 Old Hospital Rd,,Centreville,MS,39631,United States,(601) 645-5724,,,,,,
Texaco,,3529 W Northwest Hwy,,Dallas,TX,75220,United States,(214) 350-6102,,,,,,
Texaco,,13400 Highway 113,,Brewton,AL,36426,United States,(251) 296-7252,,,,,,
Texaco,,2520 E Belt Line Rd,,Carrollton,TX,75006,United States,(972) 418-7840,,,,,,
Texaco,,5667 Highway 41,,Brewton,AL,36426,United States,(251) 867-6607,,,,,,
Texaco,,RURAL ROUTE 1,,Castleberry,AL,36432,United States,(251) 966-2877,,,,,,
Texaco,,2703 E Belt Line Rd,,Carrollton,TX,75006,United States,(972) 416-3544,,,,,,
Texaco,,315 S Grand St,,Amarillo,TX,79104,United States,(806) 374-4691,,,,,,
Texaco,,301 S Western St,,Amarillo,TX,79106,United States,(806) 352-9571,,,,,,
Texaco,,3300 S Washington St,,Amarillo,TX,79109,United States,(806) 372-1081,,,,,,
Texaco,,19001 Highway 82,,Carbondale,CO,81623,United States,(970) 963-4693,,,,,,
Texaco,,3401 Bell St,,Amarillo,TX,79109,United States,(806) 352-2688,,,,,,
Texaco,,110 N 23rd St,,Canyon,TX,79015,United States,(806) 655-0102,,,,,,
Texaco,,340 N Zaragoza Rd,,El Paso,TX,79907,United States,(915) 858-3098,,,,,,
Texaco,,8800 Alameda Ave,,El Paso,TX,79907,United States,(915) 858-1776,,,,,,
Texaco,,1511 W 10th Ave,,Amarillo,TX,79101,United States,(806) 371-8464,,,,,,
Texaco,,2901 E Paisano Dr,,El Paso,TX,79905,United States,(915) 533-7979,,,,,,
Texaco,,6031 N Mesa St,,El Paso,TX,79912,United States,(915) 584-1441,,,,,,
Texaco,,849 Talbot Ave,,Canutillo,TX,79835,United States,(915) 877-3700,,,,,,
Texaco,,2100 N Yarbrough Dr,,El Paso,TX,79925,United States,(915) 591-5964,,,,,,
Texaco,,1514 Bob Griffin Rd,,Cameron,MO,64429,United States,(816) 632-2156,,,,,,
Texaco,,509 E Washington Ave,,Camden,AR,71701,United States,(870) 836-7029,,,,,,
Texaco,,20400 California City Blvd,,California City,CA,93505,United States,(760) 373-4080,,,,,,
Texaco,,1803 E Shotwell St,,Bainbridge,GA,39819,United States,(229) 246-4424,,,,,,
Texaco,,1220 S Rock Island Ave,,El Reno,OK,73036,United States,(405) 262-8339,,,,,,
Texaco,,1295 US Highway 84 E,,Cairo,GA,39828,United States,(229) 377-2500,,,,,,
Texaco,,200 N Broadway,,Geary,OK,73040,United States,(405) 884-2732,,,,,,
