store_name,store_number,address,address2,city,state,zip_code,country,phone_number,latitude,longitude,store_hours,store_type,other_fields,coming_soon
Orvis Shop Foligno,1140882892,Via Monte Rosa 7C,,Foligno,,IT-6034,IT,+39 0742 320551,42.96053,12.69567,    ,2,,
Orvis Shop Torino,1140882893,Via Stampatori 19/E,,Torino,,IT-10122,IT,+39 0115 185082,45.07053,7.67698,    ,2,,
Cleere's Angling Centre,1140882927,16B Clane Business Park,Clane,Co. Kildare,,,IE,+353 458 93551,53.3029904,-6.6981778,    ,2,,
Clonanav Fly Fishing Centre,1140882926,Nire Valley,Ballymacarbry,Colnmel,,,IE,+353 523 6765,52.1964435,-7.7171336,    ,2,,
Corrib Tackle,1140882904,Kilkerrin Park,Liosban Ind. Est.,Galway City,,,IE,+353  9176 9974,53.2869639,-9.0358325,    ,2,,
MX Flies,1140882937,Arequipa 889 COL,,Lindavista,,07300,MX,52-55-5914592,19.4922642,-99.1213656,    ,2,,
SBS Sa de CV,1140882687,Av San Francisco NO 16-3,Col San Francisco Cuautlalpan,Naucalpan,,53569,MX,55-5357-0623,19.4484541,-99.2499124,    ,2,,
Articles De Peche,1140882737,16 Rue De La Montagne,,Echternach,,LU-6470,LU,+352 720 356,49.81218,6.42276,    ,7,,
Vesturrost,1140883114,Laugavegur 178,105 Reykjavik,,,,IS,354-551-6770,64.1429644,-21.9078609,    ,2,,
Hokushin Trading,1140882779,18-6 Atago,,"Onahama, Iwaki-Shi",,971-8165,JP,81 246585330,36.9528263,140.8929596,    ,3,,
TIEMCO LTD,1140882976,HIGASHI-NARASHINO 7-656-13,NARASHINO-CITY   CHIBA,,,275-0001,JP,81.356000120,35.7002043,140.0726882,    ,2,,
RIO TRADING,1140882979,5-41-6 NAKAMACHI,SETAGAYA-KU,,,158-0091,JP,81-3-6805-6911,35.6208004,139.6388413,    ,2,,
Pacific Peche,1140883121,BP 50059,,Saint-Gely Du Fesc Cedex,,FR-34983,FR,+33 4676 69472,43.6709684,3.7775251,    ,7,,
K & HD Fishing Supplies,1140883062,Emilienstr.78,Hamburg,20259,,D-20259,DE,+49 4043 208697,53.57302,9.95367,    ,2,,
Mayers Flyfishing  Tackle,1140882514,Am Schlosspark 4,Glucksberg,24960,,D-24960,DE,+49 4631 1840,54.8342230983962,9.54660358454943,    ,2,,
Rosenheimer Angelzentrum,1160244622,Klepperstr.18,Rosenheim,83026,,D-83026,DE,+49 8031 32503,47.84678,12.11599,    ,2,,
AGW Angelgerate Wehnemann,-931651459,Muhlhauser Str.30,Ammern/Muhlhausen,99974,,D-99974,DE,+49 3601 853960,51.23418,10.45615,    ,2,,
Fischimnetz.De,1140882920,Ichtershauser Strasse 74,,Arnstadt,,D-99310,DE,+49 3628 586694,50.85224,10.95654,    ,2,,
Augsburger Angelcenter,1362409196,Hofgartenstraße 9,Flyfishing Haase (Inh. Thomas Haase),Augsburg,,86179,DE,0821 /593602,48.31009,10.90644,    ,2,,
Finest Fly Fishing,1362409374,Borschel Str. 10,,Bedburg-Hau,,47551,DE,+49 (151) 529 12 170,51.77054,6.19246,    ,2,,
Morefly Angelsport Knut Fiebig,1140882747,Joachimstaler Str. 21,,Berlin,,10719,DE,0049 (0) 30 881 25 93,52.50054,13.33087,    ,2,,
Pescado Angelshop,1140882934,Oed 1,,Dietramszell,,83623,DE,00498027 /295,47.88564,11.55729,    ,2,,
Angel Baer,1140882828,Braubachster. 7,,Frankfurt Am Main,,D-60311,DE,+49 6928 3785,50.1117986539138,8.68490733407301,    ,2,,
CPE Fliegenfischermarkt - Peter Ebert,-590812215,Raiffeisenstrasse 19,70499 Stuttgart,Germany,,D-70499,DE,+49 7042 816300,48.81203,9.11267,    ,2,,
Werner Steinsdorfer Fliegenfischerschule Und Shop,1370233854,Platanenallee 41,93333 Neustadt a. d. Donau,Germany,,D-93333,DE,+49 9445 970455,48.7976453419615,11.7652691127408,    ,2,,
Angelgerate Wurmbader,-678651156,Dorfackerstr.35,74248 Ellhofen,Germany,,D-74248,DE,+49 7134 903850,49.14229,9.32239,    ,2,,
Burkert Angelsport,1140882870,Mauerstr. 40,,Goslar,,D-38640,DE,+49 0532 14777,51.90952,10.4262,    ,7,,
Peter's Angelshop (Peter Schröter),1236380305,Boeler Str. 115,,Hagen,,58097,DE,0049 2331 843805,51.3767841603087,7.47327697042452,    ,2,,
Angelgeraete Kapune,1140883139,Goetestr. 40,,Hannover,,D-30169,DE,+49 5111 318422,52.37359,9.72611,    ,2,,
Sepp Egner Fischereigeraete,1362409392,Hauptstr. 17,,Huglfing,,D-82386,DE,+49 8802 1332,47.76527,11.15903,    ,2,,
Go Fishing,1140882940,Dalumvej 67,,Odense Sv,,DK-5250,DK,+45 6612 1500,55.36859,10.3722075,    ,2,,
RW Flyfishing,2000523321,Mammendorferstr. 5,82287,Jensenwang,,D-82287,DE,+49 8146 998002,48.16734,11.13207,    ,2,,
Markus Angelstube,1362409379,Zeltdorfer Weg 18,,Kotzing,,D-93444,DE,+49 9941 8097,49.18041,12.85186,    ,2,,
Angelgerte Hans Wich,-598106923,Klosterstr 8,,Kronach,,D-96317,DE,49-9261-20022,50.2432193663391,11.3225292343224,    ,3,,
Der Heiländer,1140882713,Christopher Heiländer,Pinassenweg 26,Lübeck,,23558,DE,0049 451 2 922 282,53.85016,10.64528,    ,3,,
Angelsport Saecker,1140882829,Knkelstr. 125,,Moenchengladbach,,D-41063,DE,+49 2161 208734,51.20961,6.45919,    ,2,,
Akm / Fly Point,1140883077,Hermann Lingg-Str. 11,,Muenchen,,D-80336,DE,49 89 532480,48.1377983333333,11.551645,    ,3,,
Kalastin Oy,1140883060,Tetlainen Hesperiankatu 12,,Helsinki,,FI-100,FI,+35 8945 40805,60.1477778,24.9241667,    ,2,,
Sportia-Pekka,1218820296,Harjuntausta 5,,Tampere,,FI-33400,FI,+35 8331 421000,61.5148544453731,23.6694043193367,    ,2,,
Spin & Fly S.R.O.,1172961163,Legerova 58,Prague 2,Czech Republic,,CZ-12000,CZ,+42 0225 15351,50.0748363,14.4305101,    ,2,,
Petique,1140882972,37 Pasadora Pl Smith Road,Grand Cayman,,,KY1-1107,KY,,19.4207378725828,-80.8909123234665,    ,2,,
Thomas Bode,1240746585,Gebr. Bode GmbH,Industriestr. 9,Mülheim-Kärlich,,56218,DE,+49 -2 61/9 22 44 40,50.38986,7.50042,    ,2,,
Angel-Und Kodermarkt,1140882815,Hermann Lingg-Str. 11,,Munchen,,D-80336,DE,+49 8953 2480,48.1377983333333,11.551645,    ,2,,
Kalles Angelshop,1140883061,Vor Dem Kremper Tor,,Neustadt/Ostsee,,D-23730,DE,+49 0456 16450,54.10979,10.81664,    ,2,,
Der Futterspezialist,1140882539,Rosenstraße 8,,Nittendorf,,D-93152,DE,0049 9404 6239,49.0224,11.9573,    ,2,,
ADH Fishing Siems GmbH & Co.KG,1140883129,Zur Bergermuhle 3,,Peine - Vohrum,,31228,DE,0049 5171 25255,52.34229,10.18701,    ,2,,
AngelSpezi Olympia,-596537399,Charlottenstr. 107,,Potsdam,,14467,DE,0049 331 601 23713,52.399232,13.053698,    ,2,,
Thomas Duerkop Fly Fishing,1140883050,Bahnhofstr. 9,,Rheda-Wiedenbrueck,,D-33341,DE,+49 5242 967222,51.8552704198578,8.28731958014225,    ,2,,
Lampenstudio Kundolf,1140882496,Armin Kundolf,Provinzialstr. 83,Saarlouis-Lisdorf,,66740,DE,0049 6831 87329,49.31743,6.75142,    ,3,,
Mendoza Fly Shop Chile,1140882566,Rodimenia 315 D 306 p 3,Vina D Mar,Valparaiso,,2520000,CL,,-32.9766298,-71.5404741,    ,2,,
Roberto Gray,-1290838511,San Francisco 447,PO Box 474,,,555 0535,CL,56-65-2-232496,-33.4504047,-70.6468499,    ,,,
"Hifish Angelgeraete, W.Buchhofer",1140883009,Wilhelm-Ostwalds-Str. Of,,Siegsburg,,D-53721,DE,+49 2241 60740,50.79745,7.20283,    ,2,,
Foerg Angelgeraete,1140882990,In Der Wanne 47/1,,Ulm,,D-89075,DE,+49 7315 52743,48.40485,9.95101,    ,2,,
Hobbycenter Wolfach,-1953613047,Friedrichstr 33B,,Wolfach,,D-77709,DE,49-7834 83540,48.30075,8.22522,    ,3,,
Fred's Custom Tackle,446065277,2A-34150 South Fraser Way,,Abbotsford,,V2S 2C6,CA,604-746-1481,49.040634,-122.2787319,    ,2,,
Pronature Amqui,537379638,134 Boulevard St. Benoit Est,,Amqui,,G5J 2C4,CA,418-629-5000,48.458223,-67.421344,    ,2,,
Ecotone Baie-Comeau,537391945,859 Bosse Local 100A,,Baie Comeau,,G5C 3P8,CA,418-859-5251,49.1926301,-68.2580517,    ,2,,
Sail Beloeil,-486553970,"1085, Boul. de I'lndustrie",,Beloeil,,J3G 4S5,CA,450-467-5223,45.595968,-73.1990546,    ,2,,
Sail Brossard,-486553898,"8780, Boul. Leduc",,Brossard,,J4Y 0G4,CA,450-321-1835,45.4514453,-73.4417104,    ,2,,
Sail Brossard,-486553899,"8780, Boul. Leduc",,Brossard,,J4Y 0G4,CA,450-321-1835,45.4514453,-73.4417104,    ,2,,
Sail Burlington,-487488026,2208 Industrail Street,,Burlington,,L7P 0N6,CA,905-529-0722,43.3464659,-79.8158587,    ,2,,
Country Pleasures,1140882567,10816 Macleod Trail South,#100 Willow Park Village,Calgary,,T2J 5N8,CA,403-271-1016,50.9570499136335,-114.071536136049,    ,2,,
Wholesale Sports-Calgary,-487479305,25 Heritage Meadows Way SE,,Calgary,,T2H 0A7,CA,403-253-5566,50.9879255,-114.0440915,    ,2,,
The Fishin' Hole-Calgary,-486545164,3320 Sunridge Way NE,,Calgary,,T1Y 7K5,CA,403-291-3688,51.069417,-113.987525,    ,2,,
Iron Bow Fly Fishing Outfitters,2049095774,163 5005 Dalhousie Dr NW,,Calgary,,T3A 5R8,CA,403-288-3474,51.1090139483331,-114.166233171583,    ,2,,
Sail Cambridge,-487487825,150 Holiday Inn Dr.,,Cambridge,,N3C 1Z4,CA,519-231-0113,43.418324,-80.324848,    ,2,,
Sexton & Sexton,-486552291,"282, Route 299",,Cascapedia St-Jules,,G0C 1T0,CA,418-392-5628,48.2538396,-65.8928141,    ,2,,
Espace Nature,-486554362,"2276, Boul. Talbot",,Chicoutimi,,G7H 1L2,CA,418-545-4440,48.3915147,-71.0732869,    ,2,,
Chilliwack Dart & Tackle,1140882654,2-9120 Young Road,,Chilliwack,,V2P 4R5,CA,604-793-9922,49.14799,-121.94642,    ,2,,
Mountain Man Outdoors,1016393976,901 Baker St,,Cranbrook,,V1C 1A4,CA,250-426-2717,49.511807,-115.768708,    ,2,,
W W Doak,-1650394479,331 Main St.,,Doaktown,,E9C 1E1,CA,506-365-7828,46.5548297,-66.1328081,    ,2,,
The Fishin' Hole-Edmonton (West),-486544841,11283 170 Street,,Edmonton,,T5M 0J1,CA,780-444-1220,53.561069,-113.614137,    ,2,,
Wholesale Sports-Edmonton (South),-487479092,2033-98 Street NW,,Edmonton,,T6N 1K2,CA,780-461-2001,53.450771,-113.4817988,    ,2,,
The Fishin' Hole-Edmonton (South),-486545018,9078 51 Avenue,,Edmonton,,T6E 5X4,CA,780-465-0877,53.488879,-113.466305,    ,2,,
The Fishin' Hole-Edmonton (West),-486544842,11283 170 Street,,Edmonton,,T5M 0J1,CA,780-444-1220,53.561069,-113.614137,    ,2,,
Wholesale Sports -Edmonton (North),-487479193,12610 ST Albert Trail,,Edmonton,,T5L 4S5,CA,780-477-3737,53.5827737,-113.5596013,    ,2,,
Sail Etobicoke,-487487702,"162, North Queen",,Etobicoke,,,CA,416-915-5002,43.6202163,-79.5570481,    ,2,,
Kootenay Fly Shop,-486544453,821 7th Ave,,Fernie,,V0B 1M0,CA,250-423-4483,49.5080416,-115.0648851,    ,,,
Northern Lights Outdoor Essentials,-486544745,7-213 Timberline Dr.,,Fort McMurray,,T9K 1S1,CA,780-743-5121,56.7347081,-111.4240996,    ,2,,
"Fredericton Outfitters & Angling, LTD",1140882693,435 Brookside Dr.,,"Fredericton, New Brunswick",,E3A 8V4,CA,506-450-4044,45.9928189,-66.6522236,    ,2,,
Wholesale Sports -Grand Prairie,-487478962,11120-100 Avenue,,Grand Prairie,,T8V 7L2,CA,780-532-3300,55.1716446,-118.8308059,    ,2,,
"Hook, Line and Sinker Fishing Tackle",1140882549,380 Eramosa Road,,Guelph,,N1E 6R2,CA,519-766-4665,43.56129625,-80.24878875,    ,2,,
Jesse Collins & Sons Ltd.,573895001,165 Main St. PO Box 70,,Hare Bay,,A0G 2P0,CA,709-537-2135,48.859603,-54.002922,    ,2,,
Wholesale Sports-Kamloops,-486551965,925 Notre Dame Drive,,Kamloops,,V2C 5N9,CA,250-377-3966,50.6632255,-120.3653424,    ,2,,
Trout Waters Fly & Tackle,-486544349,101-2340 HWY 97N,,Kelowna,,V1X 4H8,CA,888-823-6633,49.8826056,-119.432987,    ,2,,
LA  Seigneurie de Triton,-487583900,C.P. 4089,,Lac Edouard,,G0X 3N0,CA,819-653-2150,47.6777604,-72.5553875,    ,2,,
Wholesale Sports-Langley,-486551516,20175 Langley Bypass,,Langley,,V3A 6K9,CA,604-530-3413,49.1146764,-122.6638964,    ,2,,
Sail Laval,-486553791,"2850, Avenue Jacques-Bureau",,Laval,,H7P 0B7,CA,450-688-6768,45.5779665,-73.7578838,    ,2,,
Sail Laval,-486553792,"2850, Avenue Jacques-Bureau",,Laval,,H7P 0B7,CA,450-688-6768,45.5779665,-73.7578838,    ,2,,
Wholesale Sports-Lethbridge,-486545700,3160 Fairway Street South,,Lethbridge,,T1K 6T9,CA,403-327-5760,49.662697,-112.793954,    ,2,,
Magasin Latuippe,671875753,1228 rue de la Concorde,,Levis,,G6W 0M7,CA,418-834-0024,46.7305081,-71.261215,    ,2,,
"Angling Sports London, Ltd",-1533142164,681 Highbury Ave. N,,London,,N5L 4L4,CA,519-649-7429,42.9960423,-81.2039002,    ,2,,
Fairmont Kanauk,-486554151,C.P. 9 1000 Chemin Kanauk,,Montelbello,,J0V 1L0,CA,819-423-5832,45.7137962,-74.8953134,    ,2,,
Boutique Salmo Nature,-1208083143,"110 Mcgill St., Local 101",,Montreal,,H2Y 2E5,CA,514-871-8447,45.4994659183673,-73.5549997959184,    ,2,,
OP Fiberglass & Marine Supplies,-1499134381,22 Sagona Ave,,Mount Pearl,,A1N 4R2,CA,709-747-3734,47.51859,-52.83722,    ,2,,
Wholesale Sports-Nanaimo,-486545589,4900 Wellington Rd.,,Nanaimo,,V9T 4B8,CA,250-729-2668,49.2122473,-124.0283736,    ,2,,
Sail Oshawa,-486553711,655 Laval Drive,,Oshawa,,L1J 0B6,CA,905-448-1900,43.8799084,-78.8786335,    ,2,,
Sail Ottawa,-487487187,"175, Trainyards Drive  Unit 2",,Ottawa,,K1G 3X8,CA,613-800-0939,45.4137311,-75.6436555,    ,2,,
Green Drake Outfitters,1140882653,315 Lanark Ave,,Ottawa,,K1Z 6R6,CA,613-828-1915,45.3972137,-75.7561488,    ,2,,
Coast Sportfish,1140882574,202-891 Island Highway West,,Parksville,,V9P 2E9,CA,250-586-6622,49.3219354081633,-124.316830102041,    ,2,,
Wholesale Sports-Prince George,-486545404,1617 Victoria St.,,Prince George,,V2L 2L4,CA,250-563-1689,53.9093954,-122.7552022,    ,2,,
Sail Quebec,-486553389,"5200, Boul. Des Gradins",,Quebec,,G2J 0B8,CA,418-476-7777,46.838483,-71.2726217,    ,2,,
Magasin Latuippe,671874555,637 Saint-Vallier Ouest,,Quebec,,G1N 1C6,CA,418-529-0024,46.8099379,-71.2447496,    ,2,,
Berry's Bait and Tackle,1016395717,14651 Westminster Hwy.,,Richmond,,V6Y 1A4,CA,604-273-5901,49.1700177,-123.0880741,    ,2,,
Ateilier du Moucheur,-486558732,"382,  Boul. Jessop",,Rimouski,,G5L 1M8,CA,418-722-6993,48.4647912,-68.5170848,    ,2,,
Wollaston Lake Lodge LTD,537383002,3910 Tatcher Ave,,Saskatoon,,S7R 1A4,CA,306-688-1061,52.196817,-106.6773779,    ,2,,
Blue Charm Angling,1140882730,5 Waterford Bridge Road,,"St. Johns,",,A1E5M3,CA,709-576-2522,47.54761,-52.72073,    ,2,,
Tackle World LTD,249694775,dba Ramakko's Source for Adventure,2345 Regent Street,Sudbury,,P3E 6K7,CA,705-522-8889,46.4461114,-80.9898509,    ,2,,
Sail Vaughan,-487486569,"137, Chrislea Road  Unit 1",,Vaughan,,L4L 8N6,CA,905-266-1033,43.7936617,-79.5425605,    ,2,,
Robinson's Sporting Goods,1140882559,1307 Broad St,,Victoria,,V8W 2A8,CA,250-385-3429,48.4264757142857,-123.366307142857,    ,2,,
Grindestone Angling,1912622705,24 Mill Street North,,Waterdown,,L0R 2H0,CA,905-689-0880,43.33482,-79.892345,    ,2,,
Wholesale Sports-Westbank,-486545284,3600 Carrington Rd.,,Westbank,,V4T 3W7,CA,250-768-1269,49.8351368,-119.6139617,    ,2,,
Hassani Trading Company,1140882679,Dubai Investment Park 1,Emirates Road,Duabi,,,AE,971-4-899-4444,24.9834388,55.1541397,    ,2,,
Bios Ab - Sweden,1140882790,V:A Industrigatan,Box 106,Malung,,SE-78223,SE,+46 2804 4100,59.463241,17.9052315,    ,7,,
Engadinfisch,1140882454,Via Dal Corvatsch 37,Silvaplana-Surlej,7513,,CH-7513,CH,+41 7944 37450,46.457692,9.8131492,    ,2,,
Andino Reisen Gmbh,1140882827,Mitteldorfstrasse 35,,Buchs,,CH-5033,CH,+41 6282 42978,47.39006,8.06948,    ,2,,
Beutler Fisch,1140882919,Victor-Von-Bruns Str. 15,,Neuhausen Am Rheinfall,,CH-8212,CH,+41 5267 23050,47.679315,8.625875,    ,2,,
Sports-Loisirs Sarl,1140882451,Rue Du Jura 11,,Porrentruy,,CH-2900,CH,+41 3246 65225,47.4186295237555,7.07917670194403,    ,2,,
FunFish AG,1140883115,Neuhofstrasse 5,,Ruti,,CH-8630,CH,+41 5525 12050,47.26761,8.86771,    ,2,,
Apolloni Fischereiartikel,1140882838,Rorschacher Strasse 123,,St. Gallen,,CH-9000,CH,+41 7124 55330,47.43079,9.39326,    ,2,,
Fischereiartikel Bernhard AG,1140882845,Seilereistrasse 19,,Wichtrach,,CH-3114,CH,+41 3178 10177,46.84514,7.56885,    ,7,,
Winti-Fisch,1250442982,Frauendfelderstr. 514,,Winterthur,,CH-8404,CH,+41 5224 20888,47.5234114,8.7531994,    ,2,,
DMD Fliegenfischen,1140882624,Mile Damjanovic,Storchengasse 4,Zofingen,,4800,CH,41 78 679 74 71,47.28724,7.94647,    ,2,,
DMD Fliegenfischen,1510441708,Mile Damjanovic,Storchengasse 4,Zofingen,,4800,CH,+41 78 679 74 71,47.28724,7.94647,    ,7,,
Farlows,1140882671,,,9 Pall Mall,,SW1Y 5NP,UK,02074 841011,51.507427,-0.1320359,    ,2,,
Orvis Company Store (U.K.) Amersham,-511720733,38 High Street,Old Amersham,Amersham,,HP7 0DJ,UK,01494 722727,51.6667168421053,-0.618067894736842,Monday - Saturday: 9:30 AM - 5:30 PM Sunday: 11:00 AM - 5:00 PM   ,1,,
Angus Angling,1140882557,117 High Street,Forfar,Angus,,DD8 2EQ,UK,01307 466366,56.6456,-2.88297,    ,2,,
Game Sport,1140883123,60 Sandgate,Ayr,Ayrshire,,KA7 1BX,UK,01292 263822,55.4633219256832,-4.633351944672,    ,2,,
P & R Torbet Outdoor Leisure,-886838926,15 Strand Street,Kilmarnock,Ayrshire,,KA1 1HU,UK,01563 541734,55.6102735525794,-4.49783473677248,    ,2,,
The Fly Fishing Shop,1140883025,3A Hebden Court,,Bakewell,,DE45 1EE,UK,01629 813531,53.21236,-1.6756,    ,2,,
Orvis Company Store (U.K.) Bakewell,-511720739,Old Town Hall,King Street,Bakewell,,DE45 1DZ,UK,01629 810226,53.212657,-1.676548,Monday - Saturday: 9:00 AM - 5:00 PM Sunday: 10:00 AM - 4:00 PM   ,1,,
Fly Box,1146124554,95 Burren Road,,Ballynahinch,,BT24 8LF,UK,02897 533311,54.394325767428,-5.97545947920591,    ,2,,
James Coburn & Sons,-598104024,32 Scarva Street,,Banbridge,,BT32 3DD,UK,02840 662207,54.3500980645161,-6.27275129032258,    ,2,,
Orvis Company Store (U.K.) Banchory,-511720740,2-8 Bridge Street,,Banchory,,AB31 5SX,UK,01330 824319,57.05027,-2.50169,Monday - Saturday: 9:00 AM - 5:30 PM Sunday: 10:30 AM - 4:30 PM   ,1,,
Orvis Company Store (U.K.) Bath,-511720748,1 Pulteney Bridge,,Bath,,BA2 4AX,UK,01225 331471,51.383011,-2.358281,Monday - Saturday: 9:00 AM - 6:00 PM Sunday: 10:00 AM - 4:00 PM   ,1,,
BVG-Airflo,1140882872,Units 5&6 Ffrwdgrech Ind Est,,Brecon,,LD3 8LA,UK,01874 612814,51.94117,-3.41122,    ,2,,
S. Veal & Son Ltd.,1151024996,61 Old Market Street,,Bristol,,BS2 0EE,UK,01179 260790,51.4526644,-2.5740038,    ,2,,
Orvis Company Store (U.K.) Burford,-511720743,80 High St,,Burford,,OX18 4QF,UK,01993 823566,51.8081,-1.63654,Monday - Saturday: 9:30 AM - 5:30 PM Sunday: 10:00 AM - 4:00 PM   ,1,,
Tackle Up,1140882853,49A St Johns Street,,Bury St Edmunds,,IP33 1SP,UK,01284 755022,52.2497105277945,0.712746251170678,    ,2,,
Orvis Company Store (U.K.) Chichester,-511720745,34 South Street,,Chichester,,PO19 1EL,UK,01243 792140,50.8354150847458,-0.77946220338983,Monday - Saturday: 9:00 AM - 5:30 PM Sunday: 10:00 AM - 4:00 PM   ,1,,
Foxons,1140883100,Penrhewl,St. Asaph,Clwyd,,LL17 0NH,UK,01745 583583,53.25486,-3.45088,    ,2,,
Flyfishing Tackle.co.uk,1140882421,The Old Town Hall,High Street,Credition,,EX17 3LF,UK,01363 777783,50.79085,-3.66095,    ,2,,
Sportarm Of Dorchester,1218109573,The Stables,Princes Street,Dorchester,,DT1 1TW,UK,01305 268001,50.74845,-2.34286,    ,2,,
Orvis Company Store (U.K.) Edinburgh,-511720744,19 Hope Street,,Edinburgh,,EH2 4EL,UK,0131 226 6227,55.95092,-3.20825,Monday - Saturday: 9:00 AM - 5:30 PM Sunday: 11:00 AM - 5:00 PM   ,1,,
Orvis Company Store (U.K.) Exeter,-511720741,4 Cathedral Close,,Exeter,,EX1 1EZ,UK,01392 848606,50.7229834030137,-3.52941083525675,Monday - Saturday: 9:00 AM - 5:00 PM Sunday: 11:00 AM - 5:00 PM   ,1,,
Orvis Company Store (U.K.) Farnham,-511720731,10 Lion And Lamb Yard,,Farnham,,GU9 7LL,UK,01252 821122,51.2152738,-0.8019172,Monday - Friday: 9:30 AM - 5:30 PM Satruday: 9:00 AM - 5:30 PM Sunday: 10:00 AM - 4:00 PM  ,1,,
Glasgow Angling Centre,1140882928,"Unit 1, The Point Retail Park",29 Saracen Street,Glasgow,,G4O 2HY,UK,08709 201120,55.879301,-4.2552606,    ,2,,
Anglers Rendezvous,1140882835,632 Shettleston Road,,Glasgow,,G32 7DZ,UK,01417 786666,55.85272,-4.18209,    ,2,,
Orvis Company Store (U.K.) Harrogate,-511720734,"21-22 West Park,",,Harrogate,,HG1 1BJ,UK,01423 561354,53.9882261294286,-1.53998213953885,Monday - Saturday: 9:30 AM - 5:30 PM Sunday: 10:00 AM - 4:00 PM   ,1,,
Grafham Water Fishing Lodge,1140882678,,West Perry,Huntingdon,,PE18 0BX,UK,01480 810531,52.28914,-0.32177,    ,2,,
Underground,1218109580,10 Francis Street,Stornoway,Isle Of Lewis,,HS1 2XE,UK,01851 703491,58.2086681818182,-6.38633636363636,    ,2,,
Orvis Company Store (U.K.) Kelso,-511720736,11 The Square,,Kelso,,TD5 7HH,UK,01573 225810,55.59839,-2.43422,Monday - Saturday: 8:00 AM - 5:30 PM Sunday: 10:00 AM - 4:00 PM   ,1,,
Orvis Company Store (U.K.) London,-511720730,11b Regent Street,,London,,SW1Y 4LR,UK,0207 930 8521,51.50856,-0.13377,Monday - Wednesday: 9:00 AM - 7:00 PM Thursday: 9:00 AM - 8:00 PM Friday - Saturday: 9:00 AM - 7:00 PM Sunday: 11:00 AM - 5:00 PM ,1,,
Orvis Company Store (U.K.) Ludlow,-511720746,8 High Street,,Ludlow,,SY8 1BS,UK,01584 877876,52.36746,-2.72005,Monday - Saturday: 9:00 AM - 5:00 PM Sunday: 10:00 AM - 4:00 PM   ,1,,
Mortimers,1140882695,3 High Street,Grantown On Spey,Morayshire,,PH26 3HB,UK,01479 872684,57.330805,-3.608195,    ,2,,
Angling Direct,1140882837,277 Aylsham Road,,Norwich,,NR3 2RE,UK,01603 400757,52.64942,1.28099,    ,2,,
Meadow Fishery,1140882691,Mickle Trafford,,Nr Chester,,CH2 4EB,UK,01244 300236,53.22701,-2.82752,    ,2,,
Hart Fly Shop,1146670853,Exe Valley Fishery,Exebridge,Nr Dulverton,,TA22 9AY,UK,01398 323008,51.00996,-3.52719,    ,2,,
Sportfish,1218820250,Winforton,,Nr Hereford,,HR3 6SP,UK,01544 327111,52.11917,-3.02593,    ,7,,
Rutland Water Fishing Lodge,1887972004,Normanton Park,,Oakham,,LE15 8HD,UK,01780 686441,52.63839,-0.62833,    ,2,,
Rutland Fishing,1140882686,,,Oakham,,LE15 6HD,UK,01572 770234,52.6674944,-0.7267212,    ,2,,
John Norris,1140883052,21 Victoria Road,,Penrith,,CA11 8HP,UK,01768 864211,54.6622804899941,-2.7499204899941,    ,2,,
Meon Springs Fly Fishery,1140883110,Whitepool Farm,East Meon,Petersfield,,GU32 1HW,UK,01730 823134,50.96559,-1.02848,    ,2,,
Fishtec,1140882932,Unit 6 Ind Est,Brecon,Powys,,LD3 8LA,UK,08708 004900,51.94117,-3.41122,    ,2,,
Sportfish Reading,1140882804,"Haywards Farm, Station Road",Theale,Reading,,RG7 4AS,UK,01189 303860,51.43474,-1.07604,    ,2,,
Fly Only,1140882864,The Willows Business Park,Near Bank,Shelley,,HD8 8LU,UK,01484 60055,53.59626,-1.68917,    ,2,,
Orvis Company Store (U.K.) Sherborne,-511720732,72 Cheap Street,,Sherborne,,DT9 3BJ,UK,01935 817377,50.94799625,-2.515905,Monday - Saturday: 9:00 AM - 5:00 PM Sunday: 10:00 AM - 4:00 PM   ,1,,
Lance Nicholson,1393917879,9 High Street,Dulverton,Somerset,,TA22 9HB,UK,01398 323409,51.0395547122266,-3.55149758302109,    ,2,,
Orvis Innis Fly Fishery,-886841130,Penwithick,,St. Austell,,PL26 8YH,UK,01726 851162,50.37372,-4.78045,    ,2,,
Anglers Centre Stirling,1140882836,Colquhoun Street,,Stirling,,FK7 7PX,UK,01786 430400,56.10919,-3.92681,    ,2,,
Orvis Company Store (U.K.) Stockbridge,-511720737,Orvis House,High Street,Stockbridge,,SO20 6HB,UK,01264-811019,51.1152,-1.50134,"Monday - Saturday: 8:30 AM - 5:30 PM Sunday: 10:00 AM - 4:00 PM *Women's Clothing store is open 10:00 AM - 5:00 PM, Mon - Sat  ",1,,
Stockport Fly Fishing,1140882969,15 Shaw Road,Heaton Moor,Stockport,,SK4 4AG,UK,01614 317474,53.42314,-2.18486,    ,2,,
Orvis Company Store (U.K.) Tarporley,-511720742,105 High Street,,Tarporley,,CW6 0AR,UK,01829 733072,53.1574252053867,-2.66749767115562,Monday - Saturday: 9:30 AM - 5:00 PM Sunday: 10:00 AM - 4:00 PM   ,1,,
Armeria Alvarez,1371481605,Poligono De Pocomaco,C-13,La Coruna,,ES-15190,ES,+34 9811 79100,43.3112516,-8.4409487,    ,2,,
MADRID FLY FISHING,-642262108,calle gómez de avellaneda,n26 cp28017,Madrid,,,ES,+34 91 5105247,40.43401,-3.64216,    ,2,,
Julian Narro Garcia,1393244032,C/inigo Arista 9-3b,31007,Pamplona,,ES-31007,ES,,42.8070218,-1.6535937,    ,2,,
Orvis Company Store (U.K.) Tenterden,-511720735,4 West Cross,,Tenterden,,TN30 6JL,UK,01580 761999,51.06672,0.68123,Monday - Saturday: 9:00 AM - 5:30 PM Sunday: 10:00 AM - 4:00 PM   ,1,,
Arnfield Fly Fishery,1140882839,Arnfield Reservoir,Crossgates Lane,Tintwistle,,SK13 1HP,UK,01457 856269,53.47344,-1.97647,    ,2,,
Orvis Company Store (U.K.) Westerham,-511720738,Aberdeen House,Vicarage Hill,Westerham,,TN161TL,UK,01959 562255,51.26674,0.0738,Monday - Saturday: 10:00 AM - 5:00 PM Sunday: 10:00 AM - 5:00 PM   ,1,,
Hugo Ross,1140882696,56 High Street,,Wick,,KW1 4BP,UK,01955 604200,58.442852,-3.092336,    ,2,,
PD Malloch,1140883147,259 Old High Street,Perth,,,PH1 5QN,UK,01738 632316,56.41273,-3.40726,    ,2,,
Fosters Of Birmingham,1140883007,Unit K Moor Lane,,,,B6 7HH,UK,01213 443333,52.52666,-1.88357,    ,2,,
House Of Bruar Ltd.,1140883020,By Blair Atholl,,,,PH18 5TW,UK,01796 483374,56.76974,-3.93403,    ,2,,
Peter Bienek,1140882776,Tajovskeho 17,,Zilina,,SK-01008,SK,+42 1417 631158,49.2058196,18.741738,    ,2,,
Lure Fly House,1140882598,"1008-8, Yeongdeok-dong","Giheung-gu, Yong-in-si",Gyeonggi-do,,,KR,,37.2732064,127.0694004,    ,2,,
The Flyfisherman Pty,1657529145,Po Box 342,"Shop 64, The Quarry",3245 Hilton,,,ZA,27-331433394,-29.5543951,30.2994502,    ,3,,
Mile Royal,1140882684,Gubceva 3,,64000 Kranj,,SI-64000,SI,+38 6643 23336,46.2360753,14.3605328,    ,2,,
Lotta Olt,-886730330,Olimpiysky Prospekt 16,Novily Kolisey,Moscow,,RU-129090,RU,+70 9593 57692,55.781495,37.623505,    ,7,,
Puerto Rico Fly Shop,-1508635062,Loiza Station,Po Box 6736,San Juan,,914,PR,787-723-8447,18.4420152,-66.0159655,    ,3,,
Olicaci Pesca,1140882896,R. Apolinario Da Fonseca,34-38,Valenca,,PT-4930,PT,+35 1251 823359,42.02774,-8.64555,    ,2,,
Altitude Outdoors,1016397129,290 S. Washington St,,Afton,WY,83110,US,307-885-8008,42.7276961,-110.9333897,    ,2,,
Pioneer Anglers LLC.,1425839874,451 South Washington,,Afton,WY,00000,US,307-880-3331,42.7242531578947,-110.933565263158,    ,2,,
Three Rivers Resort,1229198603,130 County Rd. 742,Po Box 339,Almont,CO,81210,US,970-641-1303,38.6644522658532,-106.844732211462,    ,2,,
Orvis Retail Store Alpharetta,-511720718,6140 Avalon Boulevard,Avalon,Alpharetta,GA,30009,US,678-367-4767,34.06388,-84.24944,"Monday - Saturday: 10:00 AM - 7:00 PM Sunday: 12:00 - 6:00 PM   12/3/2016 10:00am-8:00pm, 12/4/2016 11:00am-6:00pm, 12/10/2016 10:00am-8:00pm, 12/11/2016 10:00am-6:00pm, 12/12/2016 9:00am-8:00pm, 12/13/2016 9:00am-8:00pm, 12/14/2016 9:00am-8:00pm, 12/15/2016 9:00am-8:00pm, 12/16/2016 9:00am-8:00pm, 12/17/2016 9:00am-9:00pm, 12/18/2016 9:00am-6:00pm, 12/19/2016 9:00am-9:00pm, 12/20/2016 9:00am-9:00pm, 12/21/2016 9:00am-9:00pm, 12/22/2016 9:00am-9:00pm, 12/23/2016 9:00am-9:00pm, 12/24/2016 8:00am-5:00pm, 12/25/2016 Closed, 12/31/2016 10:00am-5:00pm, 1/1/2017 12:00pm-5:00pm",1,,
Alpharetta Outfitters,1950970370,79 South Main St.,,Alpharetta,GA,30009,US,678-762-0027,34.0733772429762,-84.2949951439333,    ,2,,
Top Notch Outfitters,-882555521,2617 Wolfin Village,,Amarillo,TX,79109,US,806-353-9468,35.1913226496518,-101.86469137133,    ,2,,
"Mt. View Sports Center, Inc.",1140882563,3838 Old Seward Hwy,,Anchorage,AK,99503,US,907-563-8600,61.1860447727273,-149.868212954545,    ,2,,
AMI Outfitters,1474855247,505 Pine Ave.,,Anna Maria,FL,34216,US,941-254-4996,27.53141,-82.73308,    ,2,,
Apalach Outfitters,-1726041689,32 Ave D,,Apalachicola,FL,32320,US,850-653-3474,29.7273082,-84.9835475,    ,2,,
Orvis Retail Store Arlington,-511720782,2879 Clarendon Boulevard,,Arlington,VA,22201,US,703-465-0004,38.8880206799304,-77.0928581868524,"Monday - Wednesday : 10:00 AM - 6:00 PM Thursday, Friday: 10:00 AM - 7:00 PM Saturday: 10:00 AM - 6:00 PM Sunday: 12:00 - 5:00 PM 12/3/2016 10:00am-8:00pm, 12/4/2016 11:00am-6:00pm, 12/10/2016 10:00am-8:00pm, 12/11/2016 10:00am-6:00pm, 12/12/2016 9:00am-8:00pm, 12/13/2016 9:00am-8:00pm, 12/14/2016 9:00am-8:00pm, 12/15/2016 9:00am-8:00pm, 12/16/2016 9:00am-8:00pm, 12/17/2016 9:00am-9:00pm, 12/18/2016 9:00am-6:00pm, 12/19/2016 9:00am-9:00pm, 12/20/2016 9:00am-9:00pm, 12/21/2016 9:00am-9:00pm, 12/22/2016 9:00am-9:00pm, 12/23/2016 9:00am-9:00pm, 12/24/2016 8:00am-5:00pm, 12/25/2016 Closed, 12/31/2016 10:00am-5:00pm, 1/1/2017 12:00pm-5:00pm",1,,
Hunter Banks Co.,-1290785898,29 Montford Ave.,,Asheville,NC,28801,US,828-252-3005,35.5971246666667,-82.5600353333333,    ,2,,
Orvis Retail Store Asheville,-511720770,29 Schenck Parkway,Suite 150,Asheville,NC,28803,US,828-687-0301,35.4847721606994,-82.5536072128995,"Monday - Wednesday: 10:00 AM - 6:00 PM Thursday - Saturday: 10:00 AM - 7:00 PM Sunday: 12:00 - 5:00 PM  12/3/2016 10:00am-8:00pm, 12/4/2016 11:00am-6:00pm, 12/10/2016 10:00am-8:00pm, 12/11/2016 10:00am-6:00pm, 12/12/2016 9:00am-8:00pm, 12/13/2016 9:00am-8:00pm, 12/14/2016 9:00am-8:00pm, 12/15/2016 9:00am-8:00pm, 12/16/2016 9:00am-8:00pm, 12/17/2016 9:00am-9:00pm, 12/18/2016 9:00am-6:00pm, 12/19/2016 9:00am-9:00pm, 12/20/2016 9:00am-9:00pm, 12/21/2016 9:00am-9:00pm, 12/22/2016 9:00am-9:00pm, 12/23/2016 9:00am-9:00pm, 12/24/2016 8:00am-5:00pm, 12/25/2016 Closed, 12/26/2016 10:00am-6:00pm, 12/31/2016 10:00am-5:00pm, 1/1/2017 12:00pm-5:00pm",1,,
Green Top Sporting Goods,1016395765,10150 Lakeridge Parkway,,Ashland,VA,23059,US,804-550-2188,37.684564,-77.4539079,    ,2,,
Taylor Creek -Aspen,1140882675,408 E. Cooper St,,Aspen,CO,81611,US,970-920-1128,39.1882795918367,-106.819932857143,    ,2,,
Orvis Retail Store Atlanta,-511720788,3275 Peachtree Road,Buckhead Square,Atlanta,GA,30305,US,404-841-0093,33.84449,-84.37001,"Monday - Friday: 10:00 AM - 7:00 PM Saturday: 10:00 AM - 6:00 PM Sunday: 12:00 - 5:00 PM  12/3/2016 10:00am-8:00pm, 12/4/2016 11:00am-6:00pm, 12/10/2016 10:00am-8:00pm, 12/11/2016 10:00am-6:00pm, 12/12/2016 9:00am-8:00pm, 12/13/2016 9:00am-8:00pm, 12/14/2016 9:00am-8:00pm, 12/15/2016 9:00am-8:00pm, 12/16/2016 9:00am-8:00pm, 12/17/2016 9:00am-9:00pm, 12/18/2016 9:00am-6:00pm, 12/19/2016 9:00am-9:00pm, 12/20/2016 9:00am-9:00pm, 12/21/2016 9:00am-9:00pm, 12/22/2016 9:00am-9:00pm, 12/23/2016 9:00am-9:00pm, 12/24/2016 8:00am-5:00pm, 12/25/2016 Closed, 12/31/2016 10:00am-5:00pm, 1/1/2017 12:00pm-5:00pm",1,,
Rivers & Glen,1230944152,387 Highland Ave.,,Augusta,GA,30909,US,706-738-4536,33.4876345843102,-82.0293725944749,    ,2,,
Orvis Retail Store Austin,-511720795,10000 Research Blvd.,Suite B04B,Austin,TX,78759,US,512-795-8004,30.3927200346911,-97.7469236027753,"Monday - Saturday: 10:00 AM - 7:00 PM Sunday: 12:00 - 6:00 PM   12/3/2016 10:00am-8:00pm, 12/4/2016 11:00am-6:00pm, 12/10/2016 10:00am-8:00pm, 12/11/2016 10:00am-6:00pm, 12/12/2016 9:00am-8:00pm, 12/13/2016 9:00am-8:00pm, 12/14/2016 9:00am-8:00pm, 12/15/2016 9:00am-8:00pm, 12/16/2016 9:00am-8:00pm, 12/17/2016 9:00am-9:00pm, 12/18/2016 9:00am-6:00pm, 12/19/2016 9:00am-9:00pm, 12/20/2016 9:00am-9:00pm, 12/21/2016 9:00am-9:00pm, 12/22/2016 9:00am-9:00pm, 12/23/2016 9:00am-9:00pm, 12/24/2016 8:00am-5:00pm, 12/25/2016 Closed, 12/31/2016 10:00am-5:00pm, 1/1/2017 12:00pm-5:00pm",1,,
Orvis Retail Store Avon,-511720787,380 W Main Street,"Suite 1, Avon Market Place",Avon,CT,06001,US,860-678-7900,41.8158757894737,-72.8637747368421,"Monday - Saturday: 10:00 AM - 6:00 PM Sunday: 12:00 - 5:00 PM   11/28/2016 10:00am-7:00pm, 11/29/2016 10:00am-7:00pm, 11/30/2016 10:00am-7:00pm, 12/1/2016 10:00am-7:00pm, 12/2/2016 10:00am-7:00pm, 12/3/2016 10:00am-8:00pm, 12/4/2016 11:00am-6:00pm, 12/10/2016 10:00am-8:00pm, 12/11/2016 10:00am-6:00pm, 12/12/2016 9:00am-8:00pm, 12/13/2016 9:00am-8:00pm, 12/14/2016 9:00am-8:00pm, 12/15/2016 9:00am-8:00pm, 12/16/2016 9:00am-8:00pm, 12/17/2016 9:00am-9:00pm, 12/18/2016 9:00am-6:00pm, 12/19/2016 9:00am-9:00pm, 12/20/2016 9:00am-9:00pm, 12/21/2016 9:00am-9:00pm, 12/22/2016 9:00am-9:00pm, 12/23/2016 9:00am-9:00pm, 12/24/2016 8:00am-5:00pm, 12/25/2016 Closed, 12/31/2016 10:00am-5:00pm, 1/1/2017 12:00pm-5:00pm",1,,
Fly Fishing Outfitters,1140882800,1060 West Beaver Creek Blvd. #1B,,Avon,CO,81620,US,800-595-8090,39.63582,-106.53799,    ,2,,
Pere Marquette River Lodge,1140882810,8841 South M37,,Baldwin,MI,49304,US,231-745-3972,43.8593297883882,-85.8515132891386,    ,2,,
Tochtermans Fly Shop,-487519543,1925 Eastern Ave,,Baltimore,MD,21231,US,410-327-6942,39.2855706,-76.5892931,    ,2,,
Taylor Creek -Basalt,-596533041,183 Basalt Center Circle,,Basalt,CO,81621,US,970-927-4374,39.3680527946837,-107.033209528506,    ,2,,
Orvis Retail Store Baton Rouge,-511720754,7601 Bluebonnet Blvd.,Perkins Rowe,Baton Rouge,LA,70810,US,225-757-7286,30.3811123885288,-91.0965825111629,"Monday - Saturday: 10:00 AM - 6:00 PM Sunday: 12:00 - 5:00 PM   11/27/2016 11:00am-6:00pm, 11/28/2016 10:00am-7:00pm, 11/29/2016 10:00am-7:00pm, 11/30/2016 10:00am-7:00pm, 12/1/2016 10:00am-7:00pm, 12/2/2016 10:00am-7:00pm, 12/3/2016 10:00am-8:00pm, 12/4/2016 11:00am-6:00pm, 12/10/2016 10:00am-8:00pm, 12/11/2016 10:00am-6:00pm, 12/12/2016 9:00am-8:00pm, 12/13/2016 9:00am-8:00pm, 12/14/2016 9:00am-8:00pm, 12/15/2016 9:00am-8:00pm, 12/16/2016 9:00am-8:00pm, 12/17/2016 9:00am-9:00pm, 12/18/2016 9:00am-6:00pm, 12/19/2016 9:00am-9:00pm, 12/20/2016 9:00am-9:00pm, 12/21/2016 9:00am-9:00pm, 12/22/2016 9:00am-9:00pm, 12/23/2016 9:00am-9:00pm, 12/24/2016 8:00am-5:00pm, 12/25/2016 Closed, 12/26/2016 10:00am-6:00pm, 12/31/2016 10:00am-5:00pm, 1/1/2017 12:00pm-5:00pm",1,,
Bay Street Outfitters,1140882702,825 Bay Street,,Beaufort,SC,29902,US,843-524-5250,32.4307742857143,-80.6710953061224,    ,2,,
Stoneriver Outfitters,1140882659,132 Bedford Center Rd.,,Bedford,NH,03110,US,603-472-3191,42.9417484313796,-71.5219465830863,    ,2,,
Cove Creek Outfitters,1140882582,111 East Pitts St.,,Beford,PA,15522,US,814-623-8400,40.0190451020408,-78.5027059183673,    ,2,,
Orvis Retail Store Bellevue,-511720773,10223 NE 10th Street,,Bellevue,WA,98004,US,425-452-9138,47.619262244898,-122.204113673469,"Monday - Saturday: 10:00 AM - 6:00 PM Sunday: 12:00 - 5:00 PM   11/28/2016 10:00am-7:00pm, 11/29/2016 10:00am-7:00pm, 11/30/2016 10:00am-7:00pm, 12/1/2016 10:00am-7:00pm, 12/2/2016 10:00am-7:00pm, 12/3/2016 10:00am-8:00pm, 12/4/2016 11:00am-6:00pm, 12/10/2016 10:00am-8:00pm, 12/11/2016 10:00am-6:00pm, 12/12/2016 9:00am-8:00pm, 12/13/2016 9:00am-8:00pm, 12/14/2016 9:00am-8:00pm, 12/15/2016 9:00am-8:00pm, 12/16/2016 9:00am-8:00pm, 12/17/2016 9:00am-9:00pm, 12/18/2016 9:00am-6:00pm, 12/19/2016 9:00am-9:00pm, 12/20/2016 9:00am-9:00pm, 12/21/2016 9:00am-9:00pm, 12/22/2016 9:00am-9:00pm, 12/23/2016 9:00am-9:00pm, 12/24/2016 8:00am-5:00pm, 12/25/2016 Closed, 12/26/2016 10:00am-6:00pm, 12/31/2016 10:00am-5:00pm, 1/1/2017 12:00pm-5:00pm",1,,
Confluence Fly Shop,1140882510,375 Powerhouse Dr. Suite A100,,Bend,OR,97702,US,804-221-7748,44.0468852926672,-121.315009778827,    ,2,,
Orvis Retail Store Bethesda,-511720752,7000 Wisconsin Avenue,,Bethesda,MD,20815,US,301-652-3562,38.9792952,-77.0918276,"Monday - Saturday: 10:00 AM - 6:00 PM Sunday: 12:00 - 5:00 PM   11/27/2016 10:00am-6:00pm, 11/28/2016 10:00am-7:00pm, 11/29/2016 10:00am-7:00pm, 11/30/2016 10:00am-7:00pm, 12/1/2016 10:00am-7:00pm, 12/2/2016 10:00am-7:00pm, 12/3/2016 10:00am-8:00pm, 12/4/2016 11:00am-6:00pm, 12/10/2016 10:00am-8:00pm, 12/11/2016 10:00am-6:00pm, 12/12/2016 9:00am-8:00pm, 12/13/2016 9:00am-8:00pm, 12/14/2016 9:00am-8:00pm, 12/15/2016 9:00am-8:00pm, 12/16/2016 9:00am-8:00pm, 12/17/2016 9:00am-9:00pm, 12/18/2016 9:00am-6:00pm, 12/19/2016 9:00am-9:00pm, 12/20/2016 9:00am-9:00pm, 12/21/2016 9:00am-9:00pm, 12/22/2016 9:00am-9:00pm, 12/23/2016 9:00am-9:00pm, 12/24/2016 8:00am-5:00pm, 12/25/2016 Closed, 12/26/2016 10:00am-6:00pm, 12/31/2016 10:00am-5:00pm, 1/1/2017 12:00pm-5:00pm",1,,
East Slope Outdoors,1140882657,47855 Gallatin Rd.,,Big Sky,MT,59716,US,406-995-4369,45.263319,-111.2536326,    ,2,,
Big Bear Sports Center,1140882599,2618 King Ave West,,Billings,MT,59102,US,406-652-5777,45.7551341505318,-108.580997720207,    ,2,,
Orvis Retail Store Birmingham,-511720720,305 Summit Boulevard,The Summit,Birmingham,AL,35243,US,205-970-5176,33.4505393168197,-86.7297124573012,"Monday - Saturday: 10:00 AM - 7:00 PM Sunday: 12:00 - 6:00 PM   11/28/2016 10:00am-9:00pm, 11/29/2016 10:00am-9:00pm, 11/30/2016 10:00am-9:00pm, 12/1/2016 10:00am-9:00pm, 12/2/2016 10:00am-9:00pm, 12/3/2016 10:00am-9:00pm, 12/4/2016 10:00am-9:00pm, 12/5/2016 10:00am-9:00pm, 12/6/2016 10:00am-9:00pm, 12/7/2016 10:00am-9:00pm, 12/8/2016 10:00am-9:00pm, 12/9/2016 10:00am-9:00pm, 12/10/2016 10:00am-9:00pm, 12/11/2016 10:00am-9:00pm, 12/12/2016 10:00am-9:00pm, 12/13/2016 10:00am-9:00pm, 12/14/2016 10:00am-9:00pm, 12/15/2016 10:00am-9:00pm, 12/16/2016 10:00am-9:00pm, 12/17/2016 9:00am-9:00pm, 12/18/2016 9:00am-6:00pm, 12/19/2016 9:00am-9:00pm, 12/20/2016 9:00am-9:00pm, 12/21/2016 9:00am-9:00pm, 12/22/2016 9:00am-9:00pm, 12/23/2016 9:00am-9:00pm, 12/24/2016 8:00am-5:00pm, 12/25/2016 Closed, 12/31/2016 10:00am-5:00pm, 1/1/2017 12:00pm-5:00pm",,,
Mountain High Outfitters,1140882588,14 41st  Street North,,Birmingham,AL,35222,US,205-967-9080,33.52752,-86.77646,    ,2,,
Mark's Outdoor Sports Inc.,1140882699,1400-B Montgomery Highway,,Birmingham,AL,35216,US,205-822-2010,33.4232,-86.79681,    ,2,,
Jl Waters Company,1140882680,204 W Kirkwood,,Bloomington,IN,47404,US,812-334-1845,39.1666,-86.534953,    ,2,,
Blue Ridge Fly Fishing,1140882662,490 East Main Street,,Blue Ridge,GA,30513,US,706-632-1880,34.86822,-84.32196,    ,2,,
Boca Grande Outfitters,226559356,375 Park Ave.,,Boca Grande,FL,33921-1799,US,941-964-2445,26.7502141,-82.2621713,    ,2,,
Ole Florida Fly Shop,1016393851,6353 N. Federal Hwy.,,Boca Raton,FL,33487,US,561-995-1929,26.4060475,-80.0767772,    ,2,,
Ole Florida Fly Shop,915581176,6353 N Federal Hwy,,Boca Raton,FL,33487,US,561-995-1929,26.4060475,-80.0767772,    ,2,,
TCO Fly Shop,196155044,2 East 1st Street,,Boiling Springs,PA,17007,US,717-609-0169,40.1498334,-77.12762,    ,2,,
Anglers,1140882594,7097 W Overland Rd,,Boise,ID,83709,US,208-323-6768,43.5901595121951,-116.27075695122,    ,2,,
Foscoe Fishing Co. & Outfitters,1140882499,8857 NC Highway 105 South,,Boone,NC,28607,US,828-963-6556,36.1584267,-81.7694104,    ,2,,
Front Range Anglers,1345674815,2344 Pearl Street,,Boulder,CO,80302,US,303-494-1375,40.0209612244898,-105.264973877551,    ,2,,
Efinger Sporting Goods,1140882626,513 W Union Avenue,,Bound Brook,NJ,08805,US,732-356-0604,40.56796,-74.5492525,    ,2,,
Fins & Feathers Of Bozeman,1140882525,81801 Gallatin Rd,,Bozeman,MT,59718,US,877-790-5303,45.6699463414634,-111.185646341463,    ,2,,
Breckenridge Outfitters,1140882616,101 North Main St #B,Po Box 6237,Breckenridge,CO,80424,US,970-453-4135,39.48219,-106.04614,    ,2,,
Mountain Sports Ltd.,1140882917,1021 Commonwealth Ave.,,Bristol,VA,24201,US,540-466-8988,36.6073391020747,-82.1931293624686,    ,7,,
Dunkelburgers Sports Outfitter,-487485666,1471 Rte 209,,Broadhead,PA,00000,US,,40.918121,-75.4192099,    ,2,,
TCO Fly Shop,-486558862,895 Penn St.,,Bryn Mawr,PA,19010,US,610-527-3388,40.017317,-75.311342,    ,2,,
Angler's Habitat,1140882617,716 Blaine St.,,Caldwell,ID,83605,US,208-454-8188,43.6655524489796,-116.689823673469,    ,2,,
Royal Gorge Anglers,1140882741,49311 W. Hwy 50,,Canon City,CO,81212,US,719-269-3474,38.4756453,-105.2595739,    ,2,,
Reel Fly Fishing Adventures,1140883131,1642 FM 2673 #3,,Canyon Lake,TX,78133,US,830-964-4823,29.8484528571429,-98.1756328571429,    ,2,,
Orvis Retail Store Carmel,-511720764,14250 Clay Terrace Blvd.,,Carmel,IN,46032,US,317-249-6000,39.9956911571377,-86.1293222850586,"Monday - Saturday: 10:00 AM - 8:00 PM Sunday 11:00 - 5:00 PM   12/4/2016 11:00am-6:00pm, 12/10/2016 10:00am-8:00pm, 12/11/2016 10:00am-6:00pm, 12/12/2016 9:00am-8:00pm, 12/13/2016 9:00am-8:00pm, 12/14/2016 9:00am-8:00pm, 12/15/2016 9:00am-8:00pm, 12/16/2016 9:00am-8:00pm, 12/17/2016 9:00am-9:00pm, 12/18/2016 9:00am-6:00pm, 12/19/2016 9:00am-9:00pm, 12/20/2016 9:00am-9:00pm, 12/21/2016 9:00am-9:00pm, 12/22/2016 9:00am-9:00pm, 12/23/2016 9:00am-9:00pm, 12/24/2016 8:00am-5:00pm, 12/25/2016 Closed, 12/31/2016 10:00am-5:00pm, 1/1/2017 12:00pm-5:00pm",1,,
Brookings,1140882743,49 Pillar Drive,P.O. Box 1069,Cashiers,NC,28717,US,828-743-3768,35.11226,-83.09869,    ,2,,
Ugly Bug Fly Shop,1140882471,240 South Center Street,,Casper,WY,82601,US,307-234-6905,42.84803775,-106.32517275,    ,2,,
Chagrin River Outfitters,1194664476,100 North Main Street  Suite 150,,Chagrin Falls,OH,44022,US,440-247-7110,41.4328,-81.39286,    ,2,,
The Bent Rod,1140882789,1303 East Hwy 93,,Challis,ID,83226,US,208-879-2500,44.521966,-114.2168195,    ,2,,
Overwatch Outpost,175271993,97 Main Street,,Charlemont,MA,01339,US,413-339-8800,42.6277553,-72.8759993,    ,2,,
The Charleston Angler,1140882516,654 St. Andrews Blvd,,Charleston,SC,29407,US,843-571-3899,32.7858353333333,-79.979762,    ,2,,
Orvis Retail Store Charlotte,-511720781,6800 Phillips Place,,Charlotte,NC,28210,US,704-571-6100,35.14652,-80.82761,"Monday - Wednesday: 10:00 AM - 6:00 PM Thursday - Saturday: 10:00 AM - 7:00 PM Sunday: 12:00 - 6:00 PM  11/28/2016 10:00am-7:00pm, 11/29/2016 10:00am-7:00pm, 11/30/2016 10:00am-7:00pm, 12/1/2016 10:00am-7:00pm, 12/2/2016 10:00am-7:00pm, 12/3/2016 10:00am-8:00pm, 12/4/2016 11:00am-6:00pm, 12/10/2016 10:00am-8:00pm, 12/11/2016 10:00am-6:00pm, 12/12/2016 9:00am-8:00pm, 12/13/2016 9:00am-8:00pm, 12/14/2016 9:00am-8:00pm, 12/15/2016 9:00am-8:00pm, 12/16/2016 9:00am-8:00pm, 12/17/2016 9:00am-9:00pm, 12/18/2016 9:00am-6:00pm, 12/19/2016 9:00am-9:00pm, 12/20/2016 9:00am-9:00pm, 12/21/2016 9:00am-9:00pm, 12/22/2016 9:00am-9:00pm, 12/23/2016 9:00am-9:00pm, 12/24/2016 8:00am-5:00pm, 12/25/2016 Closed, 12/26/2016 10:00am-6:00pm, 12/31/2016 10:00am-5:00pm, 1/1/2017 12:00pm-5:00pm",1,,
The Sporting Gent,226558644,2848 Selwyn Ave.,,Charlotte,NC,28209,US,704-896-5600,35.173983,-80.8405474,    ,2,,
"Albemarle Angler, Inc.",-1414316081,1129 Emmet St.,Barracks Rd. Shop Ctr.,Charlottesville,VA,22903,US,434-977-6882,38.0517681896919,-78.5002465115522,    ,2,,
Orvis Retail Store Charlottesville,-511720724,2020 Bond Street,The Shops at Stonefield,Charlottesville,VA,22901,US,434-975-0210,38.0645695,-78.4931283,"Monday - Wednesday: 10:00 AM - 6:00 PM Thursday - Saturday: 10:00 AM - 8:00 PM Sunday: 12:00 - 6:00 PM  11/28/2016 10:00am-7:00pm, 11/29/2016 10:00am-7:00pm, 11/30/2016 10:00am-7:00pm, 12/4/2016 11:00am-6:00pm, 12/11/2016 10:00am-6:00pm, 12/12/2016 9:00am-8:00pm, 12/13/2016 9:00am-8:00pm, 12/14/2016 9:00am-8:00pm, 12/15/2016 9:00am-8:00pm, 12/16/2016 9:00am-8:00pm, 12/17/2016 9:00am-9:00pm, 12/18/2016 9:00am-6:00pm, 12/19/2016 9:00am-9:00pm, 12/20/2016 9:00am-9:00pm, 12/21/2016 9:00am-9:00pm, 12/22/2016 9:00am-9:00pm, 12/23/2016 9:00am-9:00pm, 12/24/2016 8:00am-5:00pm, 12/25/2016 Closed, 12/26/2016 10:00am-6:00pm, 12/31/2016 10:00am-5:00pm, 1/1/2017 12:00pm-5:00pm",1,,
Blue Ridge Fly Fishing,719542280,3882 Dayton Blvd.,,Chattanooga,TN,37415,US,,35.119409,-85.289797,    ,2,,
Orvis Retail Store Chicago,-511720779,142 E Ontario Street,,Chicago,IL,60611,US,312-440-0662,41.8933406896552,-87.6238979310345,"Monday - Friday: 10:00 AM - 6:00 PM Saturday: 9:30 AM - 7:00 PM Sunday: 11:00 AM - 5:00 PM  11/28/2016 10:00am-7:00pm, 11/29/2016 10:00am-7:00pm, 11/30/2016 10:00am-7:00pm, 12/1/2016 10:00am-7:00pm, 12/2/2016 10:00am-7:00pm, 12/3/2016 10:00am-8:00pm, 12/4/2016 11:00am-6:00pm, 12/5/2016 10:00am-7:00pm, 12/6/2016 10:00am-7:00pm, 12/7/2016 10:00am-7:00pm, 12/8/2016 9:00am-8:00pm, 12/9/2016 9:00am-8:00pm, 12/10/2016 10:00am-8:00pm, 12/11/2016 10:00am-6:00pm, 12/12/2016 9:00am-8:00pm, 12/13/2016 9:00am-8:00pm, 12/14/2016 9:00am-8:00pm, 12/15/2016 9:00am-8:00pm, 12/16/2016 9:00am-8:00pm, 12/17/2016 9:00am-9:00pm, 12/18/2016 9:00am-6:00pm, 12/19/2016 9:00am-9:00pm, 12/20/2016 9:00am-9:00pm, 12/21/2016 9:00am-9:00pm, 12/22/2016 9:00am-9:00pm, 12/23/2016 9:00am-9:00pm, 12/24/2016 8:00am-5:00pm, 12/25/2016 Closed, 12/31/2016 10:00am-5:00pm, 1/1/2017 12:00pm-5:00pm",1,,
Chicago Fly Fishing Outfitters,1140882625,1279 N. Clyboum,,Chicago,IL,60610,US,312-947-3474,41.90532,-87.64169,    ,2,,
Orvis Retail Store Kenwood,-511720793,7737 Kenwood Road,,Cincinnati,OH,45236,US,513-791-2325,39.2015972897196,-84.3801671028037,"Monday - Saturday: 10:00 AM - 7:00 PM Sunday: 11:00 AM - 5:00 PM   12/3/2016 10:00am-8:00pm, 12/4/2016 11:00am-6:00pm, 12/10/2016 10:00am-8:00pm, 12/11/2016 10:00am-6:00pm, 12/12/2016 9:00am-8:00pm, 12/13/2016 9:00am-8:00pm, 12/14/2016 9:00am-8:00pm, 12/15/2016 9:00am-8:00pm, 12/16/2016 9:00am-8:00pm, 12/17/2016 9:00am-9:00pm, 12/18/2016 9:00am-6:00pm, 12/19/2016 9:00am-9:00pm, 12/20/2016 9:00am-9:00pm, 12/21/2016 9:00am-9:00pm, 12/22/2016 9:00am-9:00pm, 12/23/2016 9:00am-9:00pm, 12/24/2016 8:00am-5:00pm, 12/25/2016 Closed, 12/31/2016 10:00am-5:00pm, 1/1/2017 12:00pm-5:00pm",1,,
Jim's Sports Center,1140882732,26 N Second St,,Clearfield,PA,16830,US,814-765-3582,41.0226492307692,-78.43809,    ,2,,
Elkmont Trading Company,50184556,"100 Liberty Dr,",,Clemson,SC,29631,US,864-653-7002,34.6874345,-82.8101184,    ,2,,
North Fork Anglers,1140882740,1107 Sheridan Ave,,Cody,WY,82414,US,307-527-7274,44.5260793877551,-109.06582244898,    ,2,,
Anglers Covey,1140883004,295 S 21st Street,,Colorado Springs,CO,80904,US,719-471-2984,38.841219412826,-104.858769752602,    ,2,,
Mad River Outfitters,1140882561,813 Bethel Road,,Columbus,OH,43214,US,614-451-0363,40.0631728571429,-83.0407857142857,    ,2,,
Big Easy Ranch,574089793,2400 Brunes Mill Rd,,Columbus,TX,78934,US,979-733-8635,29.8096465,-96.5830706,    ,2,,
Chattahoochee Rafting Company Inc.,-586943605,dba Whitewater Express,1000 Bay Avenue,Columbus,GA,31901,US,844-431-9710,32.4648,-84.99606,    ,2,,
Kenai Cache Outfitters,1140883096,14899 Sterling Hwy.,,Coope Landing,AK,99572,US,907-595-1401,60.4817918522037,-149.92157036664,    ,2,,
Madison River Flyfishing Outfitters,1140882805,20910 Torrence Chapel Rd.,Suite D-5,Cornelius,NC,28031,US,704-896-3676,35.4870870782149,-80.8759329608937,    ,2,,
Dally's Ozark Fly Fisher,1950970504,1200 West Main St. #7,,Cotter,AR,72626,US,870-435-6166,36.28565,-92.51279,    ,2,,
Northwest Outfitters,1140882998,2171 N. Main St.,,Couer d'Alene,ID,83814,US,208-667-2707,47.6965672608913,-116.809772569757,    ,2,,
Headhunters Fly Shop,1950970478,145 Bridge St.,,Craig,MT,59648,US,406-235-3447,47.0746508108108,-111.963997567568,    ,2,,
Rio Grande Angler,-1476093180,13 Main St,Po Box 544,Creede,CO,81130,US,719-658-2255,37.8527763265306,-106.927043877551,    ,2,,
Werner's Trading Company,1140883111,1115 4Th Street SW,,Cullman,AL,35055,US,205-734-5673,34.1720228571429,-86.8497,    ,2,,
Flint Creek Outfitters,1140882739,14129 7th Street,,Dade City,FL,33525,US,813-681-1888,28.36363,-82.189321,    ,2,,
Orvis Retail Store Dallas,-511720762,8300 Preston Road,Suite 300,Dallas,TX,75225,US,214-265-1600,32.86363,-96.80413,"Monday - Wednesday: 10:00 AM - 6:00 PM Thursday - Saturday: 10:00 AM - 7:00 PM Sunday: 12:00 - 5:00 PM  11/28/2016 10:00am-7:00pm, 11/29/2016 10:00am-7:00pm, 11/30/2016 10:00am-7:00pm, 12/4/2016 10:00am-6:00pm, 12/11/2016 10:00am-6:00pm, 12/12/2016 9:00am-8:00pm, 12/13/2016 9:00am-8:00pm, 12/14/2016 9:00am-8:00pm, 12/15/2016 9:00am-8:00pm, 12/16/2016 9:00am-8:00pm, 12/17/2016 9:00am-9:00pm, 12/18/2016 9:00am-6:00pm, 12/19/2016 9:00am-9:00pm, 12/20/2016 9:00am-9:00pm, 12/21/2016 9:00am-9:00pm, 12/22/2016 9:00am-9:00pm, 12/23/2016 9:00am-9:00pm, 12/24/2016 8:00am-5:00pm, 12/25/2016 Closed, 12/26/2016 10:00am-6:00pm, 12/31/2016 10:00am-5:00pm, 1/1/2017 12:00pm-5:00pm",1,,
Bitterroot Fly Company,1140882523,808 1/2 Main St,,Darby,MT,59829,US,406-821-1624,46.0287775,-114.177704375,    ,2,,
Orvis Retail Store Darien,-511720796,432 Boston Post Road,,Darien,CT,06820,US,203-662-0844,41.0851526086957,-73.4620360869565,"Monday - Saturday: 10:00 AM - 6:00 PM Sunday: 12:00 - 5:00 PM   11/28/2016 10:00am-7:00pm, 11/29/2016 10:00am-7:00pm, 11/30/2016 10:00am-7:00pm, 12/1/2016 10:00am-7:00pm, 12/2/2016 10:00am-7:00pm, 12/3/2016 10:00am-8:00pm, 12/4/2016 11:00am-6:00pm, 12/10/2016 10:00am-8:00pm, 12/11/2016 10:00am-6:00pm, 12/12/2016 9:00am-8:00pm, 12/13/2016 9:00am-8:00pm, 12/14/2016 9:00am-8:00pm, 12/15/2016 9:00am-8:00pm, 12/16/2016 9:00am-8:00pm, 12/17/2016 9:00am-9:00pm, 12/18/2016 9:00am-6:00pm, 12/19/2016 9:00am-9:00pm, 12/20/2016 9:00am-9:00pm, 12/21/2016 9:00am-9:00pm, 12/22/2016 9:00am-9:00pm, 12/23/2016 9:00am-9:00pm, 12/24/2016 8:00am-5:00pm, 12/25/2016 Closed, 12/31/2016 10:00am-5:00pm, 1/1/2017 12:00pm-5:00pm",1,,
Reelflyrod.com,979824676,7635 Wilmington Pike,,Dayton,OH,45458,US,937-434-8472,39.6247929,-84.1063868,    ,2,,
Orvis Retail Store Dedham,-511720757,420 Legacy Place,,Dedham,MA,02026-6806,US,781-329-7214,42.2318231779108,-71.1790189588062,"Monday - Saturday: 10:00 AM - 7:00 PM Thursday - Saturday: 10:00 AM - 7:00 PM Sunday: 12:00 - 5:00 PM  12/4/2016 11:00am-6:00pm, 12/11/2016 10:00am-6:00pm, 12/12/2016 9:00am-9:00pm, 12/13/2016 9:00am-9:00pm, 12/14/2016 9:00am-9:00pm, 12/15/2016 9:00am-9:00pm, 12/16/2016 9:00am-9:00pm, 12/17/2016 9:00am-9:00pm, 12/18/2016 9:00am-6:00pm, 12/19/2016 9:00am-9:00pm, 12/20/2016 9:00am-9:00pm, 12/21/2016 9:00am-9:00pm, 12/22/2016 9:00am-9:00pm, 12/23/2016 9:00am-9:00pm, 12/24/2016 8:00am-5:00pm, 12/25/2016 Closed, 12/31/2016 10:00am-5:00pm, 1/1/2017 12:00pm-5:00pm",1,,
Black Eel Outfitters,-122597864,708 Route 6A,,Dennis,MA,02638,US,508-619-7681,41.7201939,-70.1972178,    ,2,,
Orvis Retail Store Cherry Creek,-511720777,2770 E Second Avenue,,Denver,CO,80206,US,303-355-4554,39.7193718570211,-104.955246066131,"Monday - Thursday: 10:00 AM - 6:00 PM Friday, Saturday: 10:00 AM - 7:00 PM Sunday: 12:00 - 5:00 PM  11/28/2016 10:00am-7:00pm, 11/29/2016 10:00am-7:00pm, 11/30/2016 10:00am-7:00pm, 12/1/2016 10:00am-7:00pm, 12/2/2016 10:00am-7:00pm, 12/3/2016 10:00am-8:00pm, 12/4/2016 11:00am-6:00pm, 12/10/2016 10:00am-8:00pm, 12/11/2016 10:00am-6:00pm, 12/12/2016 9:00am-8:00pm, 12/13/2016 9:00am-8:00pm, 12/14/2016 9:00am-8:00pm, 12/15/2016 9:00am-8:00pm, 12/16/2016 9:00am-8:00pm, 12/17/2016 9:00am-9:00pm, 12/18/2016 9:00am-6:00pm, 12/19/2016 9:00am-9:00pm, 12/20/2016 9:00am-9:00pm, 12/21/2016 9:00am-9:00pm, 12/22/2016 9:00am-9:00pm, 12/23/2016 9:00am-9:00pm, 12/24/2016 8:00am-5:00pm, 12/25/2016 Closed, 12/31/2016 10:00am-5:00pm, 1/1/2017 12:00pm-5:00pm",1,,
Trouts Fly Fishing,1140882729,1303 E 6th Ave.,,Denver,CO,00000,US,303-733-1434,39.72557,-104.971726326531,    ,2,,
Tight Lines Fly Fishing Co.,-487616679,1534 Mid Valley Dr.,,De Pere,WI,00000,US,920-336-4106,44.4360467920774,-88.1043068577272,    ,2,,
A&G Outfitters,1140882595,542 Boulevard Ave,,Dickson City,PA,18519,US,800-841-0508,41.4540866666667,-75.6241166666667,    ,2,,
Tikchik Narrows Lodge,1140883138,690 Main St.,,Dillingham,AK,99576,US,360-379-2842,59.45103,-157.31412,    ,2,,
Southern Outdoor Sports,1560037232,2126 Hartford Hwy.,,Dothan,AL,36301,US,334-793-4590,31.2062888695652,-85.4259867826087,    ,2,,
Orvis Retail Store Downingtown,-511720749,70 Quarry Rd.,Brandywine Square Shopping Ctr.,Downingtown,PA,19335,US,610-873-8400,40.0172039615864,-75.6742460371307,"Monday - Wednesday: 10:00 AM - 6:00 PM Thursday: 10:00 AM - 7:00 PM Friday, Saturday: 10:00 AM - 6:00 PM Sunday: 12:00 PM - 5:00 PM 11/28/2016 10:00am-7:00pm, 11/29/2016 10:00am-7:00pm, 11/30/2016 10:00am-7:00pm, 12/1/2016 10:00am-7:00pm, 12/2/2016 10:00am-7:00pm, 12/3/2016 10:00am-8:00pm, 12/4/2016 11:00am-6:00pm, 12/5/2016 10:00am-7:00pm, 12/6/2016 10:00am-7:00pm, 12/7/2016 10:00am-7:00pm, 12/8/2016 9:00am-8:00pm, 12/9/2016 9:00am-8:00pm, 12/10/2016 10:00am-8:00pm, 12/11/2016 10:00am-6:00pm, 12/12/2016 9:00am-8:00pm, 12/13/2016 9:00am-8:00pm, 12/14/2016 9:00am-8:00pm, 12/15/2016 9:00am-8:00pm, 12/16/2016 9:00am-8:00pm, 12/17/2016 9:00am-9:00pm, 12/18/2016 9:00am-6:00pm, 12/19/2016 9:00am-9:00pm, 12/20/2016 9:00am-9:00pm, 12/21/2016 9:00am-9:00pm, 12/22/2016 9:00am-9:00pm, 12/23/2016 9:00am-9:00pm, 12/24/2016 8:00am-5:00pm, 12/25/2016 Closed, 12/31/2016 10:00am-5:00pm, 1/1/2017 12:00pm-5:00pm",1,,
Mainstream Outfitters,1189922563,1121 N. Easton Rd.,,Doylestown,PA,18902,US,215-766-1244,40.3605979940873,-75.1412230609363,    ,2,,
Three Rivers Ranch-Driggs,1140882476,30 East Little Ave,,Driggs,ID,83422,US,208-652-3750,43.72308,-111.11043875,    ,2,,
Ted Fay Fly Shop,1140882676,5732 Dunsmuir Ave.,,Dunsmuir,CA,96025,US,530-235-2969,41.2115706953868,-122.271691451523,    ,2,,
Three Rivers Ranch-Eagle,-886578928,60 South Eagle Road,,Eagle,ID,83616,US,208-652-3750,43.6946339583333,-116.354026041667,    ,2,,
Down Valley Anglers,-487604425,313 Chambers Ave. Unit F,,Eagle,CO,00000,US,970-328-7223,39.6600850192276,-106.824191782166,    ,2,,
Nomad Anglers,1140882801,2850 East Grand River Ave.,,East Lansing,MI,48823,US,517-349-6696,42.7281568,-84.4561007,    ,2,,
Albrights Gun Shop,1140882718,36 East Dover Street,,Easton,MD,21601,US,800-474-5502,38.7744167647059,-76.0757647058824,    ,2,,
Coop's Bait & Tackle,1369616348,147 West Tisbury Road,Rfd Box 19,Edgartown,MA,02539,US,508-627-3909,41.3888775,-70.5304425,    ,2,,
Murray's Fly Shop,1140882587,121 Main St.,Box 156,Edinburg,VA,22824,US,540-984-4212,38.8211682138287,-78.5641064834438,    ,2,,
Adventure Bound on the Fly,371482750,16 Washington Street,,Ellicottville,NY,14731,US,716-217-4047,42.2779839,-78.668345,    ,2,,
Adventure Bound on the Fly,573841370,16 Washington St.,,Ellicottville,NY,14731,US,716-217-4047,42.2779839,-78.668345,    ,2,,
The Tackle Shop,1140882768,127 E. Main St.,Po Box 625,Ennis,MT,59729,US,406-682-4263,45.3488195880743,-111.729829745069,    ,2,,
Orvis Outlet Essex,-511720807,21 Essex Way,Suite 101,Essex Junction,VT,05452,US,802-878-0206,44.50729,-73.07901,"Monday - Saturday: 10:00 AM - 7:00 PM Sunday: 10:00 AM - 5:00 PM   11/27/2016 10:00am-7:00pm, 12/4/2016 10:00am-7:00pm, 12/11/2016 10:00am-7:00pm, 12/14/2016 10:00am-8:00pm, 12/15/2016 10:00am-8:00pm, 12/16/2016 10:00am-8:00pm, 12/17/2016 10:00am-8:00pm, 12/18/2016 10:00am-6:00pm, 12/19/2016 10:00am-8:00pm, 12/20/2016 10:00am-8:00pm, 12/21/2016 10:00am-8:00pm, 12/22/2016 10:00am-8:00pm, 12/23/2016 10:00am-8:00pm, 12/24/2016 10:00am-5:00pm, 12/25/2016 Closed, 12/26/2016 10:00am-6:00pm, 12/31/2016 10:00am-5:00pm, 1/1/2017 12:00pm-5:00pm",1,,
Estes Angler LLC,-487591469,338 W. Riverside Dr.,,Estes Park,CO,80517,US,970-586-2110,40.3724495,-105.5229672,    ,2,,
Kirks Fly Shop,1140882578,230 E Elkhorn Ave,,Estes Park,CO,80517,US,970-577-0790,40.37685,-105.52055,    ,2,,
The Caddis Fly,-886839852,168 W 6th Ave,,Eugene,OR,97401,US,541-342-7005,44.05324,-123.095328,    ,2,,
Blue Quill Angler,1976923153,1532 Bergen Parkway,,Evergreen,CO,80439,US,303-674-4700,39.6874688679245,-105.361618490566,    ,2,,
Woodlands World,-886487852,4067 National Pike,,Farmington,PA,15437,US,866-472-6969 (toll free),39.7952289445062,-79.5406625163247,    ,2,,
Ace Adventure Gear,1140882568,851 Fayette Station Rd.,,Fayetteville,WV,00000,US,304-574-0306,38.06736,-81.0857,    ,2,,
Red Fox Outfitters,79555101,234 North  Leroy Street,,Fenton,MI,48430,US,810-354-8861,42.7981633,-83.7044096,    ,2,,
Anglers Lane,1218109661,US-221 At Graves Mill Center,Po Box 1265,Forest,VA,24551,US,434-385-0200,37.3792806,-79.2526454,    ,2,,
JAX Ft. Collins,1140882971,1200 N. College Ave.,,Fort Collins,CO,80524,US,970-221-0544,40.6026017857143,-105.076603214286,    ,2,,
Bighorn Angler,1143678715,577 Park Dale Drive,,Fort Smith,MT,00000,US,406-666-2233,45.3066251,-107.9171409,    ,2,,
Hunting Creek Outfitters,-1290838226,29 N. Market Street,,Frederick,MD,21701,US,301-668-4333,39.4145114285714,-77.4109171428571,    ,2,,
Orvis Outlet Freeport,-511720805,24 Bow Street,,Freeport,ME,04032,US,207-865-0542,43.85664,-70.10122,"Monday - Saturday: 10:00 AM - 6:00 PM Sunday: 10:00 AM - 5:00 PM   11/26/2016 9:00am-7:00pm, 11/30/2016 10:00am-7:00pm, 12/1/2016 10:00am-7:00pm, 12/2/2016 10:00am-7:00pm, 12/3/2016 10:00am-8:00pm, 12/8/2016 10:00am-7:00pm, 12/9/2016 10:00am-7:00pm, 12/10/2016 10:00am-7:00pm, 12/15/2016 10:00am-7:00pm, 12/16/2016 10:00am-7:00pm, 12/17/2016 10:00am-7:00pm, 12/18/2016 10:00am-6:00pm, 12/19/2016 10:00am-7:00pm, 12/20/2016 10:00am-7:00pm, 12/21/2016 10:00am-7:00pm, 12/22/2016 10:00am-7:00pm, 12/23/2016 10:00am-7:00pm, 12/24/2016 10:00am-5:00pm, 12/25/2016 Closed, 12/31/2016 10:00am-5:00pm, 1/1/2017 12:00pm-5:00pm",1,,
Herb Bauer's Sporting Goods,1140882983,6264 N. Blackstone Avenue,,Fresno,CA,93710,US,559-435-8600,36.8276901010101,-119.79023030303,    ,2,,
Adventures in Paradise,1950970574,Port Sanibel Marina,14341 Port Comfort Road,Ft Myers,FL,33908,US,239-472-8443,26.50385,-81.92063,    ,2,,
Bob Marriotts Fly Fishing Store,-1956251934,2700 W Orangethorpe Ave,,Fullerton,CA,92833,US,714-525-1827,33.85912,-117.97441,    ,2,,
Orvis Retail Store Westbury,-511720715,934 Old Country Road,The Gallery at Westbury Plaza,Garden City,NY,11530,US,516-794-1681,40.7450433000442,-73.6050168233214,"Monday - Wednesday: 10:00 AM - 6:00 PM Thursday - Saturday: 10:00 AM - 7:00 PM Sunday: 11:00 AM - 5:00 PM  11/28/2016 10:00am-7:00pm, 11/29/2016 10:00am-7:00pm, 11/30/2016 10:00am-7:00pm, 12/4/2016 11:00am-6:00pm, 12/11/2016 10:00am-6:00pm, 12/12/2016 9:00am-8:00pm, 12/13/2016 9:00am-8:00pm, 12/14/2016 9:00am-8:00pm, 12/15/2016 9:00am-8:00pm, 12/16/2016 9:00am-8:00pm, 12/17/2016 9:00am-9:00pm, 12/18/2016 9:00am-6:00pm, 12/19/2016 9:00am-9:00pm, 12/20/2016 9:00am-9:00pm, 12/21/2016 9:00am-9:00pm, 12/22/2016 9:00am-9:00pm, 12/23/2016 9:00am-9:00pm, 12/24/2016 8:00am-5:00pm, 12/25/2016 Closed, 12/31/2016 10:00am-5:00pm, 1/1/2017 12:00pm-5:00pm",1,,
Parks Fly Shop,1218109689,Us-89,Box 196,Gardiner,MT,59030,US,406-848-7314,45.11186,-110.789,    ,2,,
Smoky Mountain Angler,-1953626179,469 Brookside Village Way,,Gatlinburg,TN,37738,US,865-436-9080,35.7159563265306,-83.5023789795918,    ,2,,
Muddy Bay Outfitters,1140882515,815-C Front Street,,Georgetown,SC,29442,US,843-527-2696,33.3666628571429,-79.2837271428571,    ,2,,
Orvis Retail Store Milwaukee,-511720789,585 W Glen Bay Avenue,Space N108,Glendale,WI,53217,US,414-963-8709,43.1219585714286,-87.9160871428572,"Monday - Saturday: 10:00 AM - 6:00 PM Sunday: 11:00 AM - 5:00 PM   11/28/2016 10:00am-7:00pm, 11/29/2016 10:00am-7:00pm, 11/30/2016 10:00am-7:00pm, 12/1/2016 10:00am-7:00pm, 12/2/2016 10:00am-7:00pm, 12/3/2016 10:00am-8:00pm, 12/4/2016 11:00am-6:00pm, 12/10/2016 10:00am-8:00pm, 12/11/2016 10:00am-6:00pm, 12/12/2016 9:00am-8:00pm, 12/13/2016 9:00am-8:00pm, 12/14/2016 9:00am-8:00pm, 12/15/2016 9:00am-8:00pm, 12/16/2016 9:00am-8:00pm, 12/17/2016 9:00am-9:00pm, 12/18/2016 9:00am-6:00pm, 12/19/2016 9:00am-9:00pm, 12/20/2016 9:00am-9:00pm, 12/21/2016 9:00am-9:00pm, 12/22/2016 9:00am-9:00pm, 12/23/2016 9:00am-9:00pm, 12/24/2016 8:00am-5:00pm, 12/25/2016 Closed, 12/31/2016 10:00am-5:00pm, 1/1/2017 12:00pm-5:00pm",1,,
The Sporting Gentleman,-886720434,128 Glen Mills Rd.,,Glen Mills,PA,19342,US,610-361-2001,39.920164,-75.4898,    ,2,,
Roaring Fork Anglers,-1666742305,2205 Grand Ave,,Glenwood Spring,CO,81601,US,970-945-0180,39.5302870725555,-107.325316533953,    ,2,,
C Lazy U Ranch,1478792210,3640 Colorado Hwy 125,PO Box 379,Granby,CO,80446,US,970-887-3344,40.1370757,-105.9977795,    ,2,,
Weatherby's,-487509401,3 Water Street,,Grand Lake Stream,ME,04637,US,207-796-5588,45.1785445,-67.7748765,    ,2,,
Orvis Retail Store Grand Rapids,-169958931,Breton Village,1954 Breton Road SE,Grand Rapids,MI,49506,US,616-974-8336,42.9279474,-85.6091951,"Monday - Saturday: 10:00 AM - 7:00 PM Sunday: 11:00 AM - 5:00 PM   12/3/2016 10:00am-8:00pm, 12/4/2016 11:00am-6:00pm, 12/10/2016 10:00am-8:00pm, 12/11/2016 10:00am-6:00pm, 12/12/2016 9:00am-8:00pm, 12/13/2016 9:00am-8:00pm, 12/14/2016 9:00am-8:00pm, 12/15/2016 9:00am-8:00pm, 12/16/2016 9:00am-8:00pm, 12/17/2016 9:00am-9:00pm, 12/18/2016 9:00am-6:00pm, 12/19/2016 9:00am-9:00pm, 12/20/2016 9:00am-9:00pm, 12/21/2016 9:00am-9:00pm, 12/22/2016 9:00am-9:00pm, 12/23/2016 9:00am-9:00pm, 12/24/2016 8:00am-5:00pm, 12/25/2016 Closed, 12/31/2016 10:00am-5:00pm, 1/1/2017 12:00pm-5:00pm",1,,
Nomad Anglers,1489001876,1600 East Beltine Ave NE,,Grand Rapids,MI,49525,US,616-805-4393,42.9892223255814,-85.5902597674419,    ,2,,
Gates Ausable Lodge,-1650542383,471 S Stephan Bridge Rd,,Grayling,MI,49738,US,517-348-8462,44.67822,-84.57727,    ,2,,
Garretson's Sports Center,-886523703,3817 W. 10th Street,,Greeley,CO,80634,US,970-353-8068,40.4225,-104.74263,    ,2,,
Orvis Retail Store Greensboro,-511720722,627 Friendly Center Road,Friendly Center,Greensboro,NC,27408,US,336-547-7898,36.0838971016,-79.83202715936,Monday - Friday: 10:00 AM - 7:00 PM Saturday: 10:00 AM - 6:00 PM Sunday: 1:00 - 6:00 PM  ,1,,
Orvis Retail Store Greenville,-511720719,1 N Main Street,Suite O,Greenville,SC,29601,US,864-240-4284,34.85075,-82.39899,"Monday - Saturday: 10:00 AM - 7:00 PM Sunday: 12:00 - 6:00 PM   12/3/2016 10:00am-8:00pm, 12/4/2016 11:00am-6:00pm, 12/10/2016 10:00am-8:00pm, 12/11/2016 10:00am-6:00pm, 12/12/2016 9:00am-8:00pm, 12/13/2016 9:00am-8:00pm, 12/14/2016 9:00am-8:00pm, 12/15/2016 9:00am-8:00pm, 12/16/2016 9:00am-8:00pm, 12/17/2016 9:00am-9:00pm, 12/18/2016 9:00am-6:00pm, 12/19/2016 9:00am-9:00pm, 12/20/2016 9:00am-9:00pm, 12/21/2016 9:00am-9:00pm, 12/22/2016 9:00am-9:00pm, 12/23/2016 9:00am-9:00pm, 12/24/2016 8:00am-5:00pm, 12/25/2016 Closed, 12/31/2016 10:00am-5:00pm, 1/1/2017 12:00pm-5:00pm",1,,
Maine Guide Fly Shop,1140882803,S. Main St,Po Box 1202,Greenville,ME,04441,US,207-695-2266,45.45522,-69.59223,    ,2,,
West Branch Angler,1610164916,150 Faulkner Road,,Hancock,NY,13783,US,607-467-5525,42.1104010204368,-75.2508899124138,    ,2,,
W E Sell Sporting Goods,1140882546,106 N Railroad St,,Hanover,PA,17331,US,717-632-1293,39.8048241414141,-76.986741010101,    ,2,,
Mossy Creek,1140882507,1790 E MARKET ST #92,,Harrisonburg,VA,22801,US,540-434-2444,38.4313350470085,-78.8427497805555,    ,2,,
Hayward Fly Fishing Company,50184193,15849 W. 2nd St.,,Hayward,WI,54843,US,715-634-8149,46.014247,-91.484846,    ,2,,
Unicoi Outfitters,-959032516,7280 S Main St,Po Box 419,Helen,GA,30545,US,706-878-3083,34.6932216349157,-83.7135475605707,    ,2,,
Cross Currents,1155276144,326 N. Jackson,,Helena,MT,59601,US,406-449-2292,46.5891390978326,-112.037578353837,    ,2,,
"Casters, Inc",1140882809,2427 North Center St.,,Hickory,NC,28601,US,828-304-2400,35.7636336734694,-81.3327606122449,    ,2,,
Nature's Tackle Box,1394643207,4215 Jimmy Lee Smith Parkway Unit 12B,,Hiram,GA,30141,US,678-567-1211,33.8926374072178,-84.7580940206223,    ,2,,
Omni Homestead Resort & Spa,1140882584,7696 Sam Snead Hwy.,,Hot Springs,VA,00000,US,540-839-3826,37.9982450171755,-79.8323127210271,    ,2,,
Orvis Retail Store Houston,-511720791,5727 Westheimer Rd.,Golden Plaza,Houston,TX,77057,US,713-783-2111,29.7378915789474,-95.478107368421,"Monday - Saturday: 10:00 AM - 6:00 PM Sunday: 12:00 - 5:00 PM   11/28/2016 10:00am-7:00pm, 11/29/2016 10:00am-7:00pm, 11/30/2016 10:00am-7:00pm, 12/1/2016 10:00am-7:00pm, 12/2/2016 10:00am-7:00pm, 12/3/2016 10:00am-8:00pm, 12/4/2016 11:00am-6:00pm, 12/10/2016 10:00am-8:00pm, 12/11/2016 10:00am-6:00pm, 12/12/2016 9:00am-8:00pm, 12/13/2016 9:00am-8:00pm, 12/14/2016 9:00am-8:00pm, 12/15/2016 9:00am-8:00pm, 12/16/2016 9:00am-8:00pm, 12/17/2016 9:00am-9:00pm, 12/18/2016 9:00am-6:00pm, 12/19/2016 9:00am-9:00pm, 12/20/2016 9:00am-9:00pm, 12/21/2016 9:00am-9:00pm, 12/22/2016 9:00am-9:00pm, 12/23/2016 9:00am-9:00pm, 12/24/2016 8:00am-5:00pm, 12/25/2016 Closed, 12/31/2016 10:00am-5:00pm, 1/1/2017 12:00pm-5:00pm",1,,
Hunter Mountain,-2089687378,Route 23A,,Hunter,NY,12442,US,518-263-4223,42.19846,-74.18513,    ,2,,
Orvis Retail Store Huntsville,-511720713,335 The Bridge St. NW,Bridgestreet Town Centre,Huntsville,AL,35806,US,256-327-8760,34.7139125268509,-86.6727918048935,"Monday - Wednesday: 10:00 AM - 8:00 PM Thursday - Saturday: 9:00 AM - 8:00 PM Sunday: 10:00 AM - 7:00 PM  11/26/2016 9:00am-8:00pm, 11/27/2016 10:00am-7:00pm, 11/28/2016 10:00am-8:00pm, 11/29/2016 10:00am-8:00pm, 11/30/2016 10:00am-8:00pm, 12/1/2016 9:00am-8:00pm, 12/2/2016 9:00am-8:00pm, 12/3/2016 9:00am-8:00pm, 12/4/2016 10:00am-7:00pm, 12/5/2016 10:00am-8:00pm, 12/6/2016 10:00am-8:00pm, 12/7/2016 10:00am-8:00pm, 12/8/2016 9:00am-8:00pm, 12/9/2016 9:00am-8:00pm, 12/10/2016 9:00am-8:00pm, 12/11/2016 10:00am-7:00pm, 12/12/2016 9:00am-8:00pm, 12/13/2016 9:00am-8:00pm, 12/14/2016 9:00am-8:00pm, 12/15/2016 9:00am-8:00pm, 12/16/2016 9:00am-8:00pm, 12/17/2016 9:00am-9:00pm, 12/18/2016 9:00am-6:00pm, 12/19/2016 9:00am-9:00pm, 12/20/2016 9:00am-9:00pm, 12/21/2016 9:00am-9:00pm, 12/22/2016 9:00am-9:00pm, 12/23/2016 9:00am-9:00pm, 12/24/2016 8:00am-5:00pm, 12/25/2016 Closed, 12/26/2016 10:00am-6:00pm, 12/31/2016 10:00am-5:00pm, 1/1/2017 12:00pm-5:00pm",1,,
All Seasons Angler,1140882700,275 A Street,,Idaho Falls,ID,83402,US,208-524-7160,43.4920997959184,-112.039338571429,    ,2,,
Fly Masters of Indianapolis,1331127322,8232 Allisonville Rd.,,Indianapolis,IN,46250,US,317-570-9811,39.9055463265306,-86.0785567346939,    ,2,,
Hardcore Outfitters,1140882586,1616 N. Stephenson Ave.,,Iron Mountain,MI,00000,US,906-828-1034,45.8390178571429,-88.0517485714286,    ,2,,
Florida Keys Outfitters,79234897,81219 Overseas Hwy,,Islamorada,FL,33036,US,305-664-5423,24.9123949,-80.6413797,    ,2,,
Orvis Retail Store Jackson Hole,-511720794,485 West Broadway,,Jackson,WY,83001,US,307-733-5407,43.4784455555556,-110.770198888889,Monday - Saturday: 10:00 AM - 6:00 PM Sunday: CLOSED   ,1,,
Black Fly Outfitters,1369616334,11702 Beach Blvd.  Suite 109,,Jacksonville,FL,32246,US,904-997-2220,30.2862987,-81.515724,    ,2,,
Stingray Tackle,79428545,1405 N. Alternate A1A #106,,Jupiter,FL,33469,US,800-257-9461,26.9508807,-80.0866783,    ,2,,
Mystique Fly Shop,537378931,149 Main Street,,Kalispell,MT,59903,US,406-890-2600,48.1970586,-114.3127317,    ,2,,
Orvis Retail Store Ocean Reef,-511720750,1 Fishing Village Drive,,Key Largo,FL,33037,US,305-367-2227,25.31341,-80.28181,"Monday - Sunday: 7:30 AM - 5:00 PM    12/23/2016 7:30am-6:00pm, 12/25/2016 Closed, 1/1/2017 9:00am-5:00pm",1,,
The Saltwater Angler (Hilton Resort & Marina),-886722529,243 Front Street,,Key West,FL,33040,US,800-223-1629,24.5579694736842,-81.8066505263158,    ,2,,
Kenco,1140882640,1000 Hurley Mtn. Road,,Kingston,NY,12401,US,845-338-5021,41.9533549,-74.0490409,    ,2,,
Orvis Outlet Kittery,-511720802,280 US Route 1,Main Gate Outlet Center,Kittery,ME,03904,US,207-438-9097,43.1104161538462,-70.7362376923077,"Monday - Sunday: 10:00 AM - 6:00 PM    11/26/2016 9:00am-7:00pm, 11/30/2016 10:00am-7:00pm, 12/1/2016 10:00am-7:00pm, 12/2/2016 10:00am-7:00pm, 12/3/2016 10:00am-8:00pm, 12/8/2016 10:00am-7:00pm, 12/9/2016 10:00am-7:00pm, 12/10/2016 10:00am-7:00pm, 12/15/2016 10:00am-7:00pm, 12/16/2016 10:00am-7:00pm, 12/17/2016 10:00am-7:00pm, 12/18/2016 10:00am-6:00pm, 12/19/2016 10:00am-7:00pm, 12/20/2016 10:00am-7:00pm, 12/21/2016 10:00am-7:00pm, 12/22/2016 10:00am-7:00pm, 12/23/2016 10:00am-7:00pm, 12/24/2016 10:00am-5:00pm, 12/25/2016 Closed, 12/31/2016 10:00am-5:00pm, 1/1/2017 12:00pm-5:00pm",1,,
ROE Outfitters,-1953614417,9349 Highway 97 South,,Klamath Falls,OR,00000,US,541-884-3825,42.1411492441746,-121.812448451622,    ,2,,
Wildwind Kennels,1140883054,1368 Webb Road,,Knox,ME,04986,US,207-322-6236,44.5315215029322,-69.2070584289266,    ,,,
JAX Lafayette,-487559284,900 US-287,,Lafayette,CO,80026,US,720-266-6160,39.9897177,-105.0974369,    ,2,,
Whitewater Flies,1393913643,222 RT 15,,Lafayette,NJ,00000,US,201-230-5455,41.1155716883007,-74.7097767606685,    ,2,,
Orvis Outlet Store Lancaster,-511720808,35 South Willowdale Drive,"Suite 1100, Rockvale Outlets",Lancaster,PA,17602,US,717-394-9674,40.0221479843421,-76.1974559368914,"Monday - Saturday: 9:30 AM - 7:00 PM Sunday: 11:00 AM - 5:00 PM   12/24/2016 9:30am-5:00pm, 12/25/2016 Closed, 1/1/2017 11:00am-5:00pm",1,,
Lander Fly Shop,573839490,592 Main Street,,Lander,WY,82520,US,307-438-3439,42.834526,-108.7370163,    ,2,,
Four Seasons Angler,1950970367,334 Fillmore St,,Laramie,WY,00000,US,307-721-4047,41.3099565306122,-105.618699591837,    ,2,,
Three Rivers Ranch,-886498425,3386 Highway 20,,Last Chance,ID,83429,US,208-652-3750,44.365464186812,-111.401240472174,    ,2,,
Orvis Retail Store Leawood,-511720729,4537 West 119th St.,Orvis @ One Nineteen,Leawood,KS,66209,US,913-491-6840,38.91283,-94.6383556521739,"Monday - Saturday: 10:00 AM - 7:00 PM Sunday: 12:00 - 6:00 PM   12/3/2016 10:00am-8:00pm, 12/4/2016 11:00am-6:00pm, 12/10/2016 10:00am-8:00pm, 12/11/2016 10:00am-6:00pm, 12/12/2016 9:00am-8:00pm, 12/13/2016 9:00am-8:00pm, 12/14/2016 9:00am-8:00pm, 12/15/2016 9:00am-8:00pm, 12/16/2016 9:00am-8:00pm, 12/17/2016 9:00am-8:00pm, 12/18/2016 9:00am-6:00pm, 12/19/2016 9:00am-8:00pm, 12/20/2016 9:00am-8:00pm, 12/21/2016 9:00am-8:00pm, 12/22/2016 9:00am-8:00pm, 12/23/2016 9:00am-8:00pm, 12/24/2016 8:00am-5:00pm, 12/25/2016 Closed, 12/31/2016 10:00am-5:00pm, 1/1/2017 12:00pm-5:00pm",1,,
Larry's Sporting Goods,1140882651,25976 State Highway 64A,,Lebanon,MO,65536,US,417-532-8678,37.7182982857399,-92.8556041690225,    ,2,,
Orvis Retail Store Leesburg,-511720726,1614 Village Market Blvd SE Suite 110,Village at Leesburg - Town Center,Leesburg,VA,20175,US,703-777-5305,39.0891406912685,-77.5233060369027,"Monday - Wednesday: 10:00 AM - 6:00 PM Thursday - Saturday: 10:00 AM - 7:00 PM Sunday: 11:00 AM - 5:00 PM  11/28/2016 10:00am-7:00pm, 11/29/2016 10:00am-7:00pm, 11/30/2016 10:00am-7:00pm, 12/4/2016 11:00am-6:00pm, 12/5/2016 10:00am-7:00pm, 12/6/2016 10:00am-7:00pm, 12/7/2016 10:00am-7:00pm, 12/11/2016 10:00am-6:00pm, 12/12/2016 9:00am-8:00pm, 12/13/2016 9:00am-8:00pm, 12/14/2016 9:00am-8:00pm, 12/15/2016 9:00am-8:00pm, 12/16/2016 9:00am-8:00pm, 12/17/2016 9:00am-9:00pm, 12/18/2016 9:00am-6:00pm, 12/19/2016 9:00am-9:00pm, 12/20/2016 9:00am-9:00pm, 12/21/2016 9:00am-9:00pm, 12/22/2016 9:00am-9:00pm, 12/23/2016 9:00am-9:00pm, 12/24/2016 8:00am-5:00pm, 12/25/2016 Closed, 12/31/2016 10:00am-5:00pm, 1/1/2017 12:00pm-5:00pm",1,,
Ligonier Orvis Shop,-1912325459,127 W. Main Street,,Ligonier,PA,15658,US,724-238-4900,40.2433023076923,-79.2382276923077,    ,2,,
The Ozark Angler,1140883063,"12305 Chenal Parkway, Suite B",,Little Rock,AR,72211,US,501-225-6504,34.7512219756013,-92.4120152956753,    ,2,,
Yellowstone Angler,480958296,5256 Hwy 89 South,,Livingston,MT,59047,US,406-222-7130,45.6363894,-110.57478,    ,2,,
Orvis Retail Store Yorktown Center,-511720784,306 Yorktown Center,The Shops on Butterfield,Lombard,IL,60148,US,630-932-6573,41.8399281818182,-88.0102563636364,"Monday - Wednesday: 10:00 AM - 6:00 PM Thursday, Friday: 10:00 AM - 7:00 PM Saturday: 10:00 AM - 6:00 PM Sunday: 12:00 PM - 5:00 PM 11/28/2016 10:00am-7:00pm, 11/29/2016 10:00am-7:00pm, 11/30/2016 10:00am-7:00pm, 12/1/2016 10:00am-7:00pm, 12/2/2016 10:00am-7:00pm, 12/3/2016 10:00am-8:00pm, 12/4/2016 11:00am-6:00pm, 12/5/2016 10:00am-7:00pm, 12/6/2016 10:00am-7:00pm, 12/7/2016 10:00am-7:00pm, 12/8/2016 10:00am-7:00pm, 12/9/2016 10:00am-7:00pm, 12/10/2016 10:00am-8:00pm, 12/11/2016 10:00am-6:00pm, 12/12/2016 9:00am-8:00pm, 12/13/2016 9:00am-8:00pm, 12/14/2016 9:00am-8:00pm, 12/15/2016 9:00am-8:00pm, 12/16/2016 9:00am-8:00pm, 12/17/2016 9:00am-9:00pm, 12/18/2016 9:00am-6:00pm, 12/19/2016 9:00am-9:00pm, 12/20/2016 9:00am-9:00pm, 12/21/2016 9:00am-9:00pm, 12/22/2016 9:00am-9:00pm, 12/23/2016 9:00am-9:00pm, 12/24/2016 8:00am-5:00pm, 12/25/2016 Closed, 12/31/2016 10:00am-5:00pm, 1/1/2017 12:00pm-5:00pm",1,,
Orvis Retail Store Park Meadows,-511720792,"Spc 149, 8433 Park Meadows Center Drive",,Lone Tree,CO,80124,US,303-768-9600,39.5620510410404,-104.878068219049,"Monday - Wednesday: 10:00 AM - 7:00 PM Thursday, Friday: 10:00 AM - 7:00 PM Saturday: 10:00 AM - 7:00 PM Sunday: 12:00 - 5:00 PM 12/3/2016 10:00am-8:00pm, 12/4/2016 11:00am-6:00pm, 12/10/2016 10:00am-8:00pm, 12/11/2016 10:00am-6:00pm, 12/12/2016 9:00am-8:00pm, 12/13/2016 9:00am-8:00pm, 12/14/2016 9:00am-8:00pm, 12/15/2016 9:00am-8:00pm, 12/16/2016 9:00am-8:00pm, 12/17/2016 9:00am-9:00pm, 12/18/2016 9:00am-6:00pm, 12/19/2016 9:00am-9:00pm, 12/20/2016 9:00am-9:00pm, 12/21/2016 9:00am-9:00pm, 12/22/2016 9:00am-9:00pm, 12/23/2016 9:00am-9:00pm, 12/24/2016 8:00am-5:00pm, 12/25/2016 Closed, 12/31/2016 10:00am-5:00pm, 1/1/2017 12:00pm-5:00pm",1,,
Sportmans Outfitters,1140883148,2608-2 Gilmer Rd.,,Longview,TX,75604,US,903-759-0638,32.5360604,-94.7896699,    ,2,,
Orvis Retail Store Louisville,-511720716,4288 Summit Plaza Drive,Paddock Shops,Louisville,KY,40241,US,502-425-0198,38.30924,-85.57773,"Monday - Saturday: 10:00 AM - 7:00 PM Sunday: 12:00 - 6:00 PM   12/3/2016 10:00am-8:00pm, 12/4/2016 11:00am-6:00pm, 12/10/2016 10:00am-8:00pm, 12/11/2016 10:00am-6:00pm, 12/12/2016 9:00am-8:00pm, 12/13/2016 9:00am-8:00pm, 12/14/2016 9:00am-8:00pm, 12/15/2016 9:00am-8:00pm, 12/16/2016 9:00am-8:00pm, 12/17/2016 9:00am-9:00pm, 12/18/2016 9:00am-6:00pm, 12/19/2016 9:00am-9:00pm, 12/20/2016 9:00am-9:00pm, 12/21/2016 9:00am-9:00pm, 12/22/2016 9:00am-9:00pm, 12/23/2016 9:00am-9:00pm, 12/24/2016 8:00am-5:00pm, 12/25/2016 Closed, 12/26/2016 10:00am-6:00pm, 12/31/2016 10:00am-5:00pm, 1/1/2017 12:00pm-5:00pm",,,
JAX Loveland,-487561712,950 E. Eisenhower,,Loveland,CO,80537,US,970-776-4540,40.4071379,-105.0649574,    ,2,,
Mountain Hideaway,1314850822,4816 50th Street,Suite A,Lubbock,TX,79414,US,806-797-1064,33.54883,-101.914079090909,    ,2,,
Trout Fly,668997216,2987 Main Street,,Mammoth Lakes,CA,93546,US,760-934-2517,37.6468332,-118.9658029,    ,2,,
Orvis Retail Store Manchester,-511720798,4180 Main St.,,Manchester,VT,05254,US,802-362-3750,43.1694305453624,-73.0661038924561,"Monday - Friday: 10:00 AM - 6:00 PM Saturday: 9:00 AM - 6:00 PM Sunday: 10:00 AM - 5:00 PM  12/17/2016 9:00am-7:00pm, 12/18/2016 9:00am-6:00pm, 12/19/2016 9:00am-7:00pm, 12/20/2016 9:00am-7:00pm, 12/21/2016 9:00am-7:00pm, 12/22/2016 9:00am-7:00pm, 12/23/2016 9:00am-7:00pm, 12/24/2016 8:00am-5:00pm, 12/25/2016 Closed",1,,
Orvis Outlet Manchester,-511720800,4382 Main Street,,Manchester,VT,05254,US,802-366-9134,43.171326,-73.062805,"Monday - Saturday: 10:00 AM - 6:00 PM Sunday: 10:00 AM - 5:00 PM   12/24/2016 10:00am-5:00pm, 12/25/2016 Closed, 1/1/2017 10:00am-5:00pm",1,,
Robin Hollow Outfitters,1140882807,200B Pheasant Drive (Addieville East Farm),,Mapleville,RI,02839,US,401-568-0331,41.9463445931405,-71.6276810759918,    ,2,,
Lees Ferry Angler,1140882851,Mile Post Road N. Hwy. #89A,"Hc 67, Box 30",Marble Canyon,AZ,86036,US,520-355-2261,36.8155553,-111.638578,    ,2,,
Orvis Retail Store Marlton,-511720755,500 Route 73 South,Promenade at Sagemore,Marlton,NJ,08053,US,856-983-0960,39.87463,-74.92187,"Monday - Wednesday: 10:00 AM - 6:00 PM Thursday - Saturday: 10:00 AM - 7:00 PM Sunday: 11:00 AM - 5:00 PM  11/28/2016 10:00am-7:00pm, 11/29/2016 10:00am-7:00pm, 11/30/2016 10:00am-7:00pm, 12/4/2016 11:00am-6:00pm, 12/5/2016 10:00am-7:00pm, 12/6/2016 10:00am-7:00pm, 12/7/2016 10:00am-7:00pm, 12/11/2016 10:00am-6:00pm, 12/12/2016 9:00am-8:00pm, 12/13/2016 9:00am-8:00pm, 12/14/2016 9:00am-8:00pm, 12/15/2016 9:00am-8:00pm, 12/16/2016 9:00am-8:00pm, 12/17/2016 9:00am-9:00pm, 12/18/2016 9:00am-6:00pm, 12/19/2016 9:00am-9:00pm, 12/20/2016 9:00am-9:00pm, 12/21/2016 9:00am-9:00pm, 12/22/2016 9:00am-9:00pm, 12/23/2016 9:00am-9:00pm, 12/24/2016 8:00am-5:00pm, 12/25/2016 Closed, 12/31/2016 10:00am-5:00pm, 1/1/2017 11:00am-5:00pm",1,,
Dixie Pickers Store,-487589376,964 June Rd.,,Memphis,TN,00000,US,901-484-4742,35.104767050947,-89.878701230892,    ,2,,
Orvis Retail Store Memphis,-511720728,4556 Poplar Avenue,Laurelwood Shopping Center,Memphis,TN,38117-7502,US,901-767-3592,35.11759,-89.910165,"Monday - Saturday: 10:00 AM - 7:00 PM Sunday: 12:00 - 6:00 PM   12/3/2016 10:00am-8:00pm, 12/4/2016 11:00am-6:00pm, 12/10/2016 10:00am-8:00pm, 12/11/2016 10:00am-6:00pm, 12/12/2016 9:00am-8:00pm, 12/13/2016 9:00am-8:00pm, 12/14/2016 9:00am-8:00pm, 12/15/2016 9:00am-8:00pm, 12/16/2016 9:00am-8:00pm, 12/17/2016 9:00am-9:00pm, 12/18/2016 9:00am-6:00pm, 12/19/2016 9:00am-9:00pm, 12/20/2016 9:00am-9:00pm, 12/21/2016 9:00am-9:00pm, 12/22/2016 9:00am-9:00pm, 12/23/2016 9:00am-9:00pm, 12/24/2016 8:00am-5:00pm, 12/25/2016 Closed, 12/31/2016 10:00am-5:00pm, 1/1/2017 12:00pm-5:00pm",1,,
Orvis Retail Store Madison,-511720756,1650 Deming Way,Greenway Station,Middleton,WI,53562,US,608-831-3181,43.0926902003152,-89.5269973042108,"Monday - Wednesday: 10:00 AM - 6:00 PM Thursday: 10:00 AM - 7:00 PM Friday, Saturday: 10:00 AM - 6:00 PM Sunday: 12:00 - 5:00 PM 11/28/2016 10:00am-7:00pm, 11/29/2016 10:00am-7:00pm, 11/30/2016 10:00am-7:00pm, 12/1/2016 10:00am-7:00pm, 12/3/2016 10:00am-8:00pm, 12/4/2016 11:00am-6:00pm, 12/5/2016 10:00am-7:00pm, 12/6/2016 10:00am-7:00pm, 12/7/2016 10:00am-7:00pm, 12/9/2016 10:00am-7:00pm, 12/10/2016 10:00am-8:00pm, 12/11/2016 10:00am-6:00pm, 12/12/2016 9:00am-8:00pm, 12/13/2016 9:00am-8:00pm, 12/14/2016 9:00am-8:00pm, 12/15/2016 9:00am-8:00pm, 12/16/2016 9:00am-8:00pm, 12/17/2016 9:00am-9:00pm, 12/18/2016 9:00am-6:00pm, 12/19/2016 9:00am-9:00pm, 12/20/2016 9:00am-9:00pm, 12/21/2016 9:00am-9:00pm, 12/22/2016 9:00am-9:00pm, 12/23/2016 9:00am-9:00pm, 12/24/2016 8:00am-5:00pm, 12/25/2016 Closed, 12/31/2016 10:00am-5:00pm, 1/1/2017 11:00am-5:00pm",1,,
Saltwater Edge,-886518163,1037 Aquidneck Ave.,,Middletown,RI,02842,US,401-842-0062,41.5161566708834,-71.2829679314707,    ,2,,
Little Forks Outfitters,1140882722,143 E. Main Street,,Midland,MI,48640,US,989-832-4100,43.6129314285714,-84.2451985714286,    ,2,,
Orvis Pro Shop Sandanona,-511720763,3047 Sharon Turnpike Road,,Millbrook,NY,12545,US,845-677-9701,41.79425,-73.7130012276796,Monday - Sunday: 9:00 AM - 5:00 PM    ,1,,
Blue Heron Sports,1140882689,5115 State Route 405,,Milton,PA,17847,US,570-742-3228,40.9988094617742,-76.8622504198889,    ,2,,
Mend Provitions,50183833,2719 E. 42nd St.,,Minneapolis,MN,55406,US,612-724-4272,44.9267576,-93.2325482,    ,2,,
Blackfoot River Outfitters,1172961141,3055 N Reserve St.,,Missoula,MT,59808,US,406-859-9500,46.8932,-114.03929,    ,2,,
Grizzly Hackle Fly Shop,1140882632,215 W Front St,,Missoula,MT,59802,US,406-721-8996,46.8708940909091,-113.996911818182,    ,2,,
The Sportsman's Emporium,1194664473,821 Greenbag Rd,,Morgantown,WV,26508,US,304-225-2697,39.6110862354457,-79.936105418159,    ,2,,
The Charleston Angler,1140882788,1113 Market Blvd,,Mt. Pleasant,SC,29464,US,843-884-2095,32.82872,-79.8330866666667,    ,2,,
Orvis Retail Store Myrtle Beach,-511720765,1150 Farrow Parkway,The Market Commons,Myrtle Beach,SC,29577,US,843-839-6900,33.66815,-78.94067,"Monday - Saturday: 10:00 AM - 6:00 PM Sunday: 12:00 - 6:00 PM   11/28/2016 10:00am-7:00pm, 11/29/2016 10:00am-7:00pm, 11/30/2016 10:00am-7:00pm, 12/1/2016 10:00am-7:00pm, 12/2/2016 10:00am-7:00pm, 12/3/2016 10:00am-8:00pm, 12/4/2016 11:00am-6:00pm, 12/10/2016 10:00am-8:00pm, 12/11/2016 10:00am-6:00pm, 12/12/2016 9:00am-8:00pm, 12/13/2016 9:00am-8:00pm, 12/14/2016 9:00am-8:00pm, 12/15/2016 9:00am-8:00pm, 12/16/2016 9:00am-8:00pm, 12/17/2016 9:00am-9:00pm, 12/18/2016 9:00am-6:00pm, 12/19/2016 9:00am-9:00pm, 12/20/2016 9:00am-9:00pm, 12/21/2016 9:00am-9:00pm, 12/22/2016 9:00am-9:00pm, 12/23/2016 9:00am-9:00pm, 12/24/2016 8:00am-5:00pm, 12/25/2016 Closed, 12/31/2016 10:00am-5:00pm, 1/1/2017 12:00pm-5:00pm",1,,
DuPage Fly Fishing Co.,-1357951816,1512 N. Naper Blvd. Ste. 136,,Naperville,IL,60563,US,630-857-3468,41.796425,-88.119125,    ,2,,
Cumberland Transit,-1290786775,2807 W End Ave,,Nashville,TN,37203,US,615-321-4069,36.14505,-86.81236,    ,2,,
Orvis Retail Store Nashville,-511720717,2122 Hillsboro Drive,,Nashville,TN,37215,US,615-383-5553,36.1019758067064,-86.8179244089418,"Monday - Saturday: 10:00 AM - 7:00 PM Sunday: 12:00 - 6:00 PM   12/3/2016 10:00am-8:00pm, 12/4/2016 11:00am-6:00pm, 12/10/2016 10:00am-8:00pm, 12/11/2016 10:00am-6:00pm, 12/12/2016 9:00am-8:00pm, 12/13/2016 9:00am-8:00pm, 12/14/2016 9:00am-8:00pm, 12/15/2016 9:00am-8:00pm, 12/16/2016 9:00am-8:00pm, 12/17/2016 9:00am-9:00pm, 12/18/2016 9:00am-6:00pm, 12/19/2016 9:00am-9:00pm, 12/20/2016 9:00am-9:00pm, 12/21/2016 9:00am-9:00pm, 12/22/2016 9:00am-9:00pm, 12/23/2016 9:00am-9:00pm, 12/24/2016 8:00am-5:00pm, 12/25/2016 Closed, 12/31/2016 10:00am-5:00pm, 1/1/2017 12:00pm-5:00pm",1,,
Abes Motel & Fly Shop,1140883117,Hwy 173 #3391,,Navajo Dam,NM,87419,US,505-632-2194,36.80235,-107.70737,    ,2,,
Orvis Retail Store Fifth Avenue,-511720767,489 Fifth Avenue,,New York,NY,10017,US,212-867-0212,40.75312,-73.9811472727273,"Monday - Wednesday, Friday: 9:00 AM - 6:00 PM Thursday: 9:00 AM - 7:00 PM Saturday: 10:00 AM - 5:00 PM Sunday: 12:00 - 5:00 PM 12/4/2016 11:00am-6:00pm, 12/5/2016 9:00am-7:00pm, 12/6/2016 9:00am-7:00pm, 12/7/2016 9:00am-7:00pm, 12/8/2016 9:00am-7:00pm, 12/9/2016 9:00am-7:00pm, 12/10/2016 10:00am-8:00pm, 12/11/2016 10:00am-6:00pm, 12/12/2016 9:00am-7:00pm, 12/13/2016 9:00am-7:00pm, 12/14/2016 9:00am-8:00pm, 12/15/2016 9:00am-8:00pm, 12/16/2016 9:00am-8:00pm, 12/17/2016 9:00am-9:00pm, 12/18/2016 9:00am-7:00pm, 12/19/2016 9:00am-8:00pm, 12/20/2016 9:00am-8:00pm, 12/21/2016 9:00am-9:00pm, 12/22/2016 9:00am-9:00pm, 12/23/2016 9:00am-9:00pm, 12/24/2016 8:00am-5:00pm, 12/25/2016 Closed",1,,
Two Rivers Fly Shop,-578249558,13718 Hwy. 5 SO. Arkansas 5,,Norfork,AR,72658,US,870-499-3060,36.21408375,-92.28658125,    ,2,,
North Country Angler,1140882808,2888 White Mountain Highway,Po Box 1901,North Conway,NH,03860,US,603-356-6000,44.0573194902367,-71.133200326054,    ,2,,
Fin and Feather Lodge LLC,1950970467,3520 Quaker Lane,,North Kingston,RI,02852,US,401-316-6924,41.6017362667052,-71.4958723794111,    ,2,,
Orvis Outlet Store Norwalk,-511720801,56 Westport Avenue,,Norwalk,CT,06851,US,203-846-5901,41.1218712568907,-73.4044181565602,"Monday - Saturday: 10:00 AM - 6:00 PM Sunday: 11:00 AM - 5:00 PM   11/26/2016 9:00am-7:00pm, 11/27/2016 10:00am-5:00pm, 12/1/2016 10:00am-7:00pm, 12/2/2016 10:00am-7:00pm, 12/3/2016 10:00am-7:00pm, 12/4/2016 10:00am-6:00pm, 12/8/2016 9:00am-7:00pm, 12/9/2016 9:00am-7:00pm, 12/10/2016 9:00am-7:00pm, 12/11/2016 10:00am-5:00pm, 12/15/2016 9:00am-7:00pm, 12/16/2016 9:00am-7:00pm, 12/17/2016 9:00am-7:00pm, 12/18/2016 10:00am-6:00pm, 12/19/2016 10:00am-7:00pm, 12/20/2016 10:00am-7:00pm, 12/21/2016 9:00am-7:00pm, 12/22/2016 9:00am-7:00pm, 12/23/2016 9:00am-7:00pm, 12/24/2016 10:00am-5:00pm, 12/25/2016 Closed, 12/26/2016 10:00am-6:00pm, 12/31/2016 10:00am-5:00pm, 1/1/2017 11:00am-5:00pm",,,
Flint Creek Outfitters,-2105452401,4414 SW College Road #910,,Ocala,FL,34474,US,352-237-5325,29.1410730075188,-82.1942330827068,    ,2,,
"Wilderness Voyageurs Outfitters, Inc.",-1956127628,103 Garrett St.,,Ohiopyle,PA,15470,US,724-329-8336,39.8718824162841,-79.4929419019489,    ,2,,
"Old Forge Hardware, Inc.",1140882505,104 Fulton Street,Po Box 248,Old Forge,NY,13420,US,315-369-6100,43.710145402944,-74.9731505676158,    ,2,,
Harris Outdoors,50183743,889 Boston Post Road,,Old Saybrook,CT,06475,US,860-391-8655,41.2902172,-72.3858776,    ,2,,
Whitetail Country Sports,1200153159,1102 W. State St.,,Olean,NY,00000,US,716-373-2144,42.0774097959184,-78.4422946938775,    ,2,,
Blackfoot Angler & Supplies,1140882575,Main Street,Po Box 84,Ovando,MT,59854,US,406-793-3474,47.02008,-113.13283,    ,2,,
K&K Flyfisher,-151614219,8643 Grant St.,,Overland Park,KS,66212,US,913-341-8118,38.9715532,-94.6954019,    ,2,,
Landry's,500450044,302 South Lamar Boulevard,,Oxford,MS,38655,US,662-281-0846,34.3654761,-89.5192654,    ,2,,
Flyhouse,1140882966,Ul.Soltysowicka 21G,,Wroc?aw,,PL-51-168,PL,+48 713 796 777,51.14037,17.073698,    ,2,,
Ski And Bow Rack,1140882560,354 E. Pagosa Street,,Pagosa Springs,CO,81147,US,970-264-2370,37.269480157458,-106.99758964501,    ,2,,
Jan's,367852047,1600 Park Ave,,Park City,UT,84060,US,435-649-4949,40.6569131,-111.5062855,    ,2,,
Angler's Xstream,1937331767,2109 Camden Ave,,Parkersburg,WV,26101,US,304-485-6911,39.2550234787202,-81.5524987020824,    ,2,,
Orvis Retail Store Pasadena,-511720783,345 South Lake Avenue,The Shops On Lake Avenue,Pasadena,CA,91101,US,626-356-8000,34.1398095134308,-118.132355381949,"Monday - Saturday: 10:00 AM - 6:00 PM Sunday: 12:00 - 5:00 PM   11/28/2016 10:00am-7:00pm, 11/29/2016 10:00am-7:00pm, 11/30/2016 10:00am-7:00pm, 12/1/2016 10:00am-7:00pm, 12/2/2016 10:00am-7:00pm, 12/3/2016 10:00am-8:00pm, 12/4/2016 11:00am-6:00pm, 12/10/2016 10:00am-8:00pm, 12/11/2016 10:00am-6:00pm, 12/12/2016 9:00am-8:00pm, 12/13/2016 9:00am-8:00pm, 12/14/2016 9:00am-8:00pm, 12/15/2016 9:00am-8:00pm, 12/16/2016 9:00am-8:00pm, 12/17/2016 9:00am-9:00pm, 12/18/2016 9:00am-6:00pm, 12/19/2016 9:00am-9:00pm, 12/20/2016 9:00am-9:00pm, 12/21/2016 9:00am-9:00pm, 12/22/2016 9:00am-9:00pm, 12/23/2016 9:00am-9:00pm, 12/24/2016 8:00am-5:00pm, 12/25/2016 Closed, 12/31/2016 10:00am-5:00pm, 1/1/2017 12:00pm-5:00pm",1,,
Anglers Den,1140882719,11 W. Main St. #4,,Pawling,NY,12564,US,845-855-5182,41.5619266666667,-73.60223,    ,2,,
Orvis Retail Store Peabody,-511720766,210 Andover Street,Space P188A,Peabody,MA,01960,US,978-531-0185,42.543335610106,-70.9422071315093,"Monday - Saturday: 10:00 AM - 7:00 PM Sunday: 11:00 AM - 5:00 PM   12/3/2016 10:00am-8:00pm, 12/4/2016 11:00am-6:00pm, 12/10/2016 10:00am-8:00pm, 12/11/2016 10:00am-6:00pm, 12/12/2016 9:00am-8:00pm, 12/13/2016 9:00am-8:00pm, 12/14/2016 9:00am-8:00pm, 12/15/2016 9:00am-8:00pm, 12/16/2016 9:00am-8:00pm, 12/17/2016 9:00am-9:00pm, 12/18/2016 9:00am-6:00pm, 12/19/2016 9:00am-9:00pm, 12/20/2016 9:00am-9:00pm, 12/21/2016 9:00am-9:00pm, 12/22/2016 9:00am-9:00pm, 12/23/2016 9:00am-9:00pm, 12/24/2016 8:00am-5:00pm, 12/25/2016 Closed, 12/31/2016 10:00am-5:00pm, 1/1/2017 12:00pm-5:00pm",1,,
The Hook-up Outfitters,1140883122,8708 West Harbor Blvd.,,Peoria,AZ,85383,US,623-412-3474,33.8479002282117,-112.249753485474,    ,2,,
Nordic Outdoor AS,1140882636,Tromøyveien 18,,4841 Arendal,,,NO,,58.4722883,8.8175115,    ,7,,
Brannens Outfitters LLC,2055186141,106 AG Village Boulevard,,Perry,GA,31069,US,478-952-8017,32.5163212,-83.695814,    ,2,,
Flint Creek Outdoors,1160244609,116 West Broadway,,Phillpsburg,MT,59858,US,406-859-9500,46.3322608163265,-113.294595306122,    ,2,,
Orvis Retail Store Phoenix,460452653,2011 E Camelback Road,Suite C10,Phoenix,AZ,85016,US,602-626-7558,33.5092465,-112.0386674,NOW OPEN! Monday - Saturday: 10:00 AM - 7:00 PM Sunday: 12:00 - 6:00 PM  ,1,,
French Creek Outfitters,1140882923,270 Schuylkill Road,,Phoenixville,PA,19460,US,610-933-7200,40.1370527083333,-75.5436554166667,    ,2,,
Picabo Angler,1475872058,P.O. Box 718,,Picabo,ID,83348,US,208-788-3536,43.29626,-114.07134,    ,2,,
Two Rivers Emporium,-886712380,211 West Pine,Po Box 1218,Pinedale,WY,82941,US,307-367-4131,42.81553,-109.79678,    ,2,,
Bill Jacksons Inc.,573937663,9501 US Hwy 19 North,,Pinellas Park,FL,33782,US,727-576-4169,27.8588725,-82.6965206,    ,2,,
Davidson River Outfitters,1140882622,49 Pisgah Highway  Ste. 6,,Pisgah Forest,NC,28768,US,828-877-4181,35.2736422,-82.7051388,    ,2,,
Lopstick Inc.,1394643732,45 Stewart Young Road,,Pittsburg,NH,03592,US,603-538-9955,45.10394,-71.28831,    ,2,,
Orvis Retail Store Pittsburgh,-511720725,1500 Washington Road,,Pittsburgh,PA,15228,US,412-343-1612,40.35682,-80.05044,"Monday - Friday: 10:00 AM - 7:00 PM Saturday: 10:00 AM - 7:00 PM Sunday: 12:00 - 5:00 PM  12/3/2016 10:00am-8:00pm, 12/4/2016 11:00am-6:00pm, 12/10/2016 10:00am-8:00pm, 12/11/2016 10:00am-6:00pm, 12/12/2016 9:00am-8:00pm, 12/13/2016 9:00am-8:00pm, 12/14/2016 9:00am-8:00pm, 12/15/2016 9:00am-8:00pm, 12/16/2016 9:00am-8:00pm, 12/17/2016 9:00am-9:00pm, 12/18/2016 9:00am-6:00pm, 12/19/2016 9:00am-9:00pm, 12/20/2016 9:00am-9:00pm, 12/21/2016 9:00am-9:00pm, 12/22/2016 9:00am-9:00pm, 12/23/2016 9:00am-9:00pm, 12/24/2016 8:00am-5:00pm, 12/25/2016 Closed, 12/26/2016 10:00am-8:00pm, 12/31/2016 10:00am-5:00pm, 1/1/2017 12:00pm-5:00pm",1,,
International Angler,1140882988,5275 Steubenville Pike,,Pittsburgh,PA,15205,US,412-788-8088,40.4499724564325,-80.1181166638909,    ,2,,
Mosquito Creek Outfitters,1140882573,3000 Mosquito Rd,,Placerville,CA,95667,US,530-391-4961,38.7329029259291,-120.789106394048,    ,2,,
Orvis Retail Store Plano,-511720721,2412 Preston Road,Preston Towne Crossing,Plano,TX,75093,US,972-596-7529,33.0311331440558,-96.7947510531469,"Monday - Saturday: 10:00 AM - 7:00 PM Sunday: 12:00 - 6:00 PM   12/3/2016 10:00am-8:00pm, 12/4/2016 11:00am-6:00pm, 12/10/2016 10:00am-8:00pm, 12/11/2016 10:00am-6:00pm, 12/12/2016 9:00am-8:00pm, 12/13/2016 9:00am-8:00pm, 12/14/2016 9:00am-8:00pm, 12/15/2016 9:00am-8:00pm, 12/16/2016 9:00am-8:00pm, 12/17/2016 9:00am-9:00pm, 12/18/2016 9:00am-6:00pm, 12/19/2016 9:00am-9:00pm, 12/20/2016 9:00am-9:00pm, 12/21/2016 9:00am-9:00pm, 12/22/2016 9:00am-9:00pm, 12/23/2016 9:00am-9:00pm, 12/24/2016 8:00am-5:00pm, 12/25/2016 Closed, 12/31/2016 10:00am-5:00pm, 1/1/2017 12:00pm-5:00pm",1,,
Orvis Retail Store Plymouth Meeting,-511720769,"500 W Germantown Pike, Space 1515",Plymouth Meeting Mall,Plymouth Meeting,PA,19462,US,610-825-1010,40.11482,-75.28552,"Monday - Thursday: 10:00 AM - 7:00 PM Friday: 10:00 AM - 7:00 PM Saturday: 10:00 AM - 7:00 PM Sunday: 12:00 AM - 5:00 PM 12/3/2016 10:00am-8:00pm, 12/4/2016 11:00am-6:00pm, 12/10/2016 10:00am-8:00pm, 12/11/2016 10:00am-6:00pm, 12/12/2016 9:00am-8:00pm, 12/13/2016 9:00am-8:00pm, 12/14/2016 9:00am-8:00pm, 12/15/2016 9:00am-8:00pm, 12/16/2016 9:00am-8:00pm, 12/17/2016 9:00am-9:00pm, 12/18/2016 9:00am-6:00pm, 12/19/2016 9:00am-9:00pm, 12/20/2016 9:00am-9:00pm, 12/21/2016 9:00am-9:00pm, 12/22/2016 9:00am-9:00pm, 12/23/2016 9:00am-9:00pm, 12/24/2016 8:00am-5:00pm, 12/25/2016 Closed, 12/26/2016 10:00am-7:00pm, 12/31/2016 10:00am-5:00pm, 1/1/2017 12:00pm-5:00pm",1,,
Ace Hardware & Element Outfitters,1976923148,222 South 5th,,Pocatello,ID,83204,US,208-232-8722,42.865643877551,-112.442497959184,    ,2,,
Element Outfitters,-934187393,1570 N. Yellowstone,,Pocatello,ID,83201,US,208-238-3500,42.9044906542005,-112.45134,    ,2,,
The Driftless Fly Fishing Co.,1475872072,208 St. Paul Street,,Preston,MN,55965,US,507-327-4276,43.6685206122449,-92.08338,    ,2,,
Orvis Retail Store Princeton,-24371602,Princeton Shopping Center,"301 N Harrison Street, Suite 50",Princeton,NJ,08540,US,609-924-1437,40.3636613,-74.6511145,"Monday - Wednesday: 10:00 AM - 6:00 PM Thursday - Saturday: 10:00 AM - 8:00 PM Sunday: 11:00 AM - 5:00 PM  12/3/2016 10:00am-8:00pm, 12/4/2016 11:00am-6:00pm, 12/10/2016 10:00am-8:00pm, 12/11/2016 10:00am-6:00pm, 12/12/2016 9:00am-8:00pm, 12/13/2016 9:00am-8:00pm, 12/14/2016 9:00am-8:00pm, 12/15/2016 9:00am-8:00pm, 12/16/2016 9:00am-8:00pm, 12/17/2016 9:00am-9:00pm, 12/18/2016 9:00am-6:00pm, 12/19/2016 9:00am-9:00pm, 12/20/2016 9:00am-9:00pm, 12/21/2016 9:00am-9:00pm, 12/22/2016 9:00am-9:00pm, 12/23/2016 9:00am-9:00pm, 12/24/2016 8:00am-5:00pm, 12/25/2016 Closed, 12/31/2016 10:00am-5:00pm, 1/1/2017 12:00pm-5:00pm",1,,
Whitakers Sports Store,1140882795,3707 SR-13,State Route 13,Pulaski,NY,13142,US,315-298-6162,43.56664,-76.18667,    ,2,,
Orvis Outlet Lake George,-511720803,1457 State Route 9,,Queensbury,NY,12845,US,518-792-3979,43.3667846310702,-73.6993316274262,"Monday - Saturday: 10:00 AM - 6:00 PM Sunday: 10:00 AM - 5:00 PM   11/26/2016 9:00am-7:00pm, 11/30/2016 10:00am-7:00pm, 12/1/2016 10:00am-7:00pm, 12/2/2016 10:00am-7:00pm, 12/3/2016 10:00am-8:00pm, 12/8/2016 10:00am-7:00pm, 12/9/2016 10:00am-7:00pm, 12/10/2016 10:00am-7:00pm, 12/15/2016 10:00am-7:00pm, 12/16/2016 10:00am-7:00pm, 12/17/2016 10:00am-7:00pm, 12/18/2016 10:00am-6:00pm, 12/19/2016 10:00am-7:00pm, 12/20/2016 10:00am-7:00pm, 12/21/2016 10:00am-7:00pm, 12/22/2016 10:00am-7:00pm, 12/23/2016 10:00am-7:00pm, 12/24/2016 10:00am-5:00pm, 12/25/2016 Closed, 12/31/2016 10:00am-5:00pm, 1/1/2017 12:00pm-5:00pm",1,,
Orvis Retail Store Raleigh,-511720778,3701 Sumner Blvd.,Triangle Town Commons,Raleigh,NC,27616-2988,US,919-792-9200,35.8634953089278,-78.575967231226,"Monday - Saturday: 10:00 AM - 7:00 PM Sunday 12:00 - 5:00 PM   11/27/2016 11:00am-6:00pm, 11/28/2016 10:00am-8:00pm, 11/29/2016 10:00am-8:00pm, 11/30/2016 10:00am-8:00pm, 12/1/2016 10:00am-8:00pm, 12/2/2016 10:00am-8:00pm, 12/3/2016 10:00am-9:00pm, 12/4/2016 10:00am-6:00pm, 12/5/2016 10:00am-8:00pm, 12/6/2016 10:00am-8:00pm, 12/7/2016 10:00am-8:00pm, 12/8/2016 10:00am-8:00pm, 12/9/2016 10:00am-8:00pm, 12/10/2016 9:00am-9:00pm, 12/11/2016 10:00am-6:00pm, 12/12/2016 9:00am-9:00pm, 12/13/2016 9:00am-9:00pm, 12/14/2016 9:00am-9:00pm, 12/15/2016 9:00am-9:00pm, 12/16/2016 9:00am-9:00pm, 12/17/2016 9:00am-9:00pm, 12/18/2016 9:00am-7:00pm, 12/19/2016 9:00am-9:00pm, 12/20/2016 9:00am-9:00pm, 12/21/2016 9:00am-9:00pm, 12/22/2016 9:00am-9:00pm, 12/23/2016 9:00am-9:00pm, 12/24/2016 8:00am-5:00pm, 12/25/2016 Closed",1,,
Traditional Hengelsport,1140883141,Royaards Van Den Hamkade 95,,3552 Cl Utrecht,,NL-3552 CI,NL,+31 3024 33696,52.10374,5.0992,    ,2,,
King's Elephant,1140882894,Visstraat 14-16,Zierikzee,4301CC,,NL-4301CC,NL,+31 1114 51270,51.6489362753741,3.92085252104196,    ,2,,
Fauna Hengelsport,1140883002,Markt 3,Geertruidenburg,4931BR,,NL-4931BR,NL,+31 1625 13308,51.7010339366094,4.86151963865627,    ,2,,
John Backers Hengelsport,1140883051,Akerstraat-Nord 152,,Hoensbroek,,NL-6431 HR,NL,+31 4552 25999,50.9300825,5.936205,    ,2,,
Van Stekelenburg Hengelsport,1140883003,Carolusdreef 110,,Valkenswaard,,NL-5552 CD,NL,+31 4020 12826,51.355725,5.45748,    ,2,,
Fly Shop of Brasil,1140882660,Thiago de Mello Zanetti,Rua Jose Gava 83 Sob 4  82115-110 Pizarzinho,Curitiba,,,BR,55 41 3387 1586,-25.4289541,-49.267137,    ,2,,
Ramsey Outtdoor,-899907025,835 Route 17 South,,Ramsey,NJ,07446,US,201-327-8141,41.0633663,-74.1276406,    ,2,,
Dakota Angler & Outfitter,-689389517,516 7th St,,Rapid City,SD,57701,US,605-341-2450,44.0812236734694,-103.228912244898,    ,2,,
TCO Fly Shop,1140882763,2229 Penn Ave,,Reading,PA,19609,US,610-678-1899,40.3272385714286,-75.9924428571429,    ,2,,
Fin & Fire,78041821,1604 Hwy 97 #12,,Redmond,OR,97756,US,541-548-1503,44.2602594,-121.1779268,    ,2,,
Dos Amigos Anglers Fly Shop,1854115387,217 W. Main,,Red River,NM,87558,US,575-754-6455,36.7087179591837,-105.407318367347,    ,2,,
Orvis Outlet Rehoboth Beach,-511720804,36454 Seaside Outlet Drive,Suite 1795,Rehoboth Beach,DE,19971,US,302-227-3300,38.7181106532663,-75.1129226130653,"Monday - Saturday: 9:00 AM - 7:00 PM Sunday: 10:00 AM - 7:00 PM   11/26/2016 9:00am-10:00pm, 11/27/2016 10:00am-7:00pm, 12/2/2016 9:00am-10:00pm, 12/3/2016 9:00am-10:00pm, 12/4/2016 10:00am-7:00pm, 12/9/2016 9:00am-10:00pm, 12/10/2016 9:00am-10:00pm, 12/11/2016 10:00am-7:00pm, 12/16/2016 9:00am-10:00pm, 12/17/2016 9:00am-10:00pm, 12/18/2016 10:00am-7:00pm, 12/23/2016 9:00am-10:00pm, 12/24/2016 10:00am-5:00pm, 12/25/2016 Closed, 12/26/2016 10:00am-6:00pm, 12/31/2016 10:00am-5:00pm, 1/1/2017 12:00pm-5:00pm",1,,
Reliance Fly and Tackle,-487618828,588 Childers Creek Rd.,,Reliance,TN,00000,US,423-338-7771,35.1977992798264,-84.4828562921187,    ,2,,
Orvis Retail Store Reno,-511720768,13945 S Virginia Street,Summit Sierra Shopping Center,Reno,NV,89511,US,775-850-2272,39.4060522822962,-119.748328246643,"Monday - Thursday: 10:00 AM - 7:00 PM Friday, Saturday: 10:00 AM - 7:00 PM Sunday: 10:00 AM - 6:00 PM  12/12/2016 9:00am-8:00pm, 12/13/2016 9:00am-8:00pm, 12/14/2016 9:00am-8:00pm, 12/15/2016 9:00am-8:00pm, 12/16/2016 9:00am-8:00pm, 12/17/2016 9:00am-9:00pm, 12/18/2016 9:00am-6:00pm, 12/19/2016 9:00am-9:00pm, 12/20/2016 9:00am-9:00pm, 12/21/2016 9:00am-9:00pm, 12/22/2016 9:00am-9:00pm, 12/23/2016 9:00am-9:00pm, 12/24/2016 8:00am-5:00pm, 12/25/2016 Closed, 12/31/2016 10:00am-5:00pm, 1/1/2017 12:00pm-5:00pm",1,,
Orvis Retail Store Richmond River Rd,460378469,6235 River Road,"River Road Shopping Center, Suite C",Richmond,VA,23229,US,804-282-0492,37.5725461,-77.5474848,"OPENING SOON!    11/28/2016 10:00am-7:00pm, 11/29/2016 10:00am-7:00pm, 11/30/2016 10:00am-7:00pm, 12/1/2016 10:00am-7:00pm, 12/2/2016 10:00am-7:00pm, 12/3/2016 10:00am-8:00pm, 12/4/2016 11:00am-6:00pm, 12/10/2016 10:00am-8:00pm, 12/11/2016 10:00am-6:00pm, 12/12/2016 9:00am-8:00pm, 12/13/2016 9:00am-8:00pm, 12/14/2016 9:00am-8:00pm, 12/15/2016 9:00am-8:00pm, 12/16/2016 9:00am-8:00pm, 12/17/2016 9:00am-9:00pm, 12/18/2016 9:00am-6:00pm, 12/19/2016 9:00am-9:00pm, 12/20/2016 9:00am-9:00pm, 12/21/2016 9:00am-9:00pm, 12/22/2016 9:00am-9:00pm, 12/23/2016 9:00am-9:00pm, 12/24/2016 8:00am-5:00pm, 12/25/2016 Closed, 12/31/2016 10:00am-5:00pm, 1/1/2017 12:00pm-5:00pm",1,,
Dogwood Canyon,1398540497,2038 W St. Hwy 86D,,Ridgedale,MO,65739,US,417-779-5983,36.7124721,-93.1952037,    ,2,,
Orvis Retail Store Jackson,-511720727,"1000 Highland Colony Parkway, #9019",Renaissance at Colony Park,Ridgeland,MS,39157,US,601-856-5347,32.43819,-90.14774,"Monday - Saturday: 10:00 AM - 7:00 PM Sunday: 12:00 PM - 6:00 PM   12/3/2016 10:00am-8:00pm, 12/4/2016 11:00am-6:00pm, 12/10/2016 10:00am-8:00pm, 12/11/2016 10:00am-6:00pm, 12/12/2016 9:00am-8:00pm, 12/13/2016 9:00am-8:00pm, 12/14/2016 9:00am-8:00pm, 12/15/2016 9:00am-8:00pm, 12/16/2016 9:00am-8:00pm, 12/17/2016 9:00am-9:00pm, 12/18/2016 9:00am-6:00pm, 12/19/2016 9:00am-9:00pm, 12/20/2016 9:00am-9:00pm, 12/21/2016 9:00am-9:00pm, 12/22/2016 9:00am-9:00pm, 12/23/2016 9:00am-9:00pm, 12/24/2016 8:00am-5:00pm, 12/25/2016 Closed, 12/31/2016 10:00am-5:00pm, 1/1/2017 12:00pm-5:00pm",1,,
Angler's Den,1140882744,5296 S. Freeway Park Dr.,,Riverdale,UT,84405,US,801-773-1166,41.1672166809604,-112.020462331296,    ,2,,
Orvis Outlet Roanoke,171065140,1709 Blue Hill Drive,,Roanoke,VA,24012,US,540-494-6340,37.3091219,-79.8933368,"Monday - Saturday: 10:00 AM - 6:00 PM Sunday: 11:00 AM - 5:00 PM   12/24/2016 10:00am-4:00pm, 12/25/2016 Closed, 12/31/2016 10:00am-5:00pm, 1/1/2017 11:00am-5:00pm",,,
Orvis Retail Store Roanoke,-511720771,19 Campbell Ave Se,Market Square,Roanoke,VA,24011,US,540-345-3635,37.2718426530612,-79.9403040816326,"Monday - Saturday: 10:00 AM - 6:00 PM Sunday: 12:00 - 5:00 PM   12/2/2016 10:00am-10:00pm, 12/3/2016 10:00am-7:00pm, 12/5/2016 10:00am-5:00pm, 12/6/2016 10:00am-7:00pm, 12/7/2016 10:00am-7:00pm, 12/8/2016 10:00am-7:00pm, 12/9/2016 10:00am-10:00pm, 12/10/2016 10:00am-8:00pm, 12/11/2016 11:00am-5:00pm, 12/12/2016 9:00am-8:00pm, 12/13/2016 9:00am-8:00pm, 12/14/2016 9:00am-8:00pm, 12/15/2016 9:00am-8:00pm, 12/16/2016 10:00am-10:00pm, 12/17/2016 9:00am-9:00pm, 12/18/2016 11:00am-6:00pm, 12/19/2016 9:00am-9:00pm, 12/20/2016 9:00am-9:00pm, 12/21/2016 9:00am-9:00pm, 12/22/2016 9:00am-9:00pm, 12/23/2016 9:00am-9:00pm, 12/24/2016 8:00am-5:00pm, 12/25/2016 Closed",1,,
P & S Flyfishing,1140882952,Schomstraat 96,,Koersel,,3582,BE,0032 11429620,51.0685868867021,5.27804246385088,    ,2,,
Robby Fish Hengelsport,1226432337,Fortbaan 68,,Wommelgem,,2160,BE,+32 (0) 3 /366.45.65,51.2003860380503,4.49689811415091,    ,2,,
Orvis Retail Store Rochester,-511720714,3349 Monroe Avenue,Pittsford Plaza,Rochester,NY,14618,US,585-586-3956,43.1021723858576,-77.5376344875377,"Monday - Saturday: 10:00 AM - 7:00 PM Sunday: 11:00 AM - 5:00 PM   12/3/2016 10:00am-8:00pm, 12/4/2016 11:00am-6:00pm, 12/10/2016 10:00am-8:00pm, 12/11/2016 10:00am-6:00pm, 12/12/2016 9:00am-8:00pm, 12/13/2016 9:00am-8:00pm, 12/14/2016 9:00am-8:00pm, 12/15/2016 9:00am-8:00pm, 12/16/2016 9:00am-8:00pm, 12/17/2016 9:00am-9:00pm, 12/18/2016 9:00am-6:00pm, 12/19/2016 9:00am-9:00pm, 12/20/2016 9:00am-9:00pm, 12/21/2016 9:00am-9:00pm, 12/22/2016 9:00am-9:00pm, 12/23/2016 9:00am-9:00pm, 12/24/2016 8:00am-5:00pm, 12/25/2016 Closed, 12/31/2016 10:00am-5:00pm, 1/1/2017 12:00pm-5:00pm",1,,
Nomad Anglers,-397750995,158 North Adams Road,,Rochester Hills,MI,48309,US,248-608-4875,42.681765,-83.1940595,    ,2,,
Swan Point Landing,1140882714,1723 Cherry   Suite 4,,Rockport,TX,78382,US,361-729-7926,28.0365148359373,-97.043451796866,    ,2,,
Beaverkill Angler,-886824812,52 Stewart Ave,Box 198,Roscoe,NY,12776,US,607-498-5194,41.9320237983768,-74.9136097319941,    ,2,,
Orvis Retail Store Roseville,-511720761,1017 Galleria Boulevard,The Fountains,Roseville,CA,95678,US,916-783-9400,38.7672925,-121.2658875,"Monday - Saturday: 10:00 AM - 7:00 PM Sunday: 11:00 AM - 6:00 PM   12/2/2016 10:00am-9:00pm, 12/3/2016 10:00am-9:00pm, 12/4/2016 10:00am-7:00pm, 12/9/2016 10:00am-9:00pm, 12/10/2016 10:00am-9:00pm, 12/11/2016 10:00am-7:00pm, 12/12/2016 9:00am-8:00pm, 12/13/2016 9:00am-8:00pm, 12/14/2016 9:00am-8:00pm, 12/15/2016 9:00am-8:00pm, 12/16/2016 9:00am-8:00pm, 12/17/2016 9:00am-9:00pm, 12/18/2016 9:00am-7:00pm, 12/19/2016 9:00am-9:00pm, 12/20/2016 9:00am-9:00pm, 12/21/2016 9:00am-9:00pm, 12/22/2016 9:00am-9:00pm, 12/23/2016 9:00am-10:00pm, 12/24/2016 8:00am-5:00pm, 12/25/2016 Closed, 12/31/2016 10:00am-5:00pm, 1/1/2017 12:00pm-5:00pm",1,,
Orvis Retail Store Royal Oak,-511720797,29500 Woodward Avenue,,Royal Oak,MI,48073,US,248-542-5700,42.5072800791743,-83.1757771794761,"Monday - Wednesday: 10:00 AM - 6:00 PM Thursday: 10:00 AM - 8:00 PM Friday, Saturday: 10:00 AM - 6:00 PM Sunday: 12:00 - 5:00 PM 11/28/2016 10:00am-7:00pm, 11/29/2016 10:00am-7:00pm, 11/30/2016 10:00am-7:00pm, 12/1/2016 10:00am-7:00pm, 12/2/2016 10:00am-7:00pm, 12/3/2016 10:00am-8:00pm, 12/4/2016 11:00am-6:00pm, 12/10/2016 10:00am-8:00pm, 12/11/2016 10:00am-6:00pm, 12/12/2016 9:00am-8:00pm, 12/13/2016 9:00am-8:00pm, 12/14/2016 9:00am-8:00pm, 12/15/2016 9:00am-8:00pm, 12/16/2016 9:00am-8:00pm, 12/17/2016 9:00am-9:00pm, 12/18/2016 9:00am-6:00pm, 12/19/2016 9:00am-9:00pm, 12/20/2016 9:00am-9:00pm, 12/21/2016 9:00am-9:00pm, 12/22/2016 9:00am-9:00pm, 12/23/2016 9:00am-9:00pm, 12/24/2016 8:00am-5:00pm, 12/25/2016 Closed, 12/31/2016 10:00am-5:00pm, 1/1/2017 12:00pm-5:00pm",1,,
Kiene's,1416854616,2752 Marconi Ave.,,Sacramento,CA,95821,US,916-486-9958,38.6179750980392,-121.397991176471,    ,2,,
Arkansas River Fly Shop,-1290785554,7500 Highway 50,Us-50,Salida,CO,81201,US,(719) 539-3474,38.51456,-106.07662,    ,2,,
Orvis Retail Store San Antonio,991188373,Park North Shopping Center,"7427 San Pedro Ave., Suite 104",San Antonio,TX,78216,US,210-812-3017,29.5171483080784,-98.49933,Monday & Tuesday: 10:00 AM - 6:00 PM Wednesday & Saturday: 10:00 AM - 7:00 PM Thursday & Friday: 10:00 AM - 8:00 PM Sunday: 11:00 AM - 5:00 PM ,1,,
Orvis Retail Store Sandestin,-511720758,625 Grand Boulevard,,Sandestin,FL,32550,US,850-650-2174,30.3789219418035,-86.313632097378,"Monday - Saturday: 10:00 AM - 9:00 PM Sunday: 11:00 AM - 7:00 PM   12/11/2016 10:00am-7:00pm, 12/12/2016 9:00am-9:00pm, 12/13/2016 9:00am-9:00pm, 12/14/2016 9:00am-9:00pm, 12/15/2016 9:00am-9:00pm, 12/16/2016 9:00am-9:00pm, 12/17/2016 9:00am-9:00pm, 12/18/2016 9:00am-7:00pm, 12/19/2016 9:00am-9:00pm, 12/20/2016 9:00am-9:00pm, 12/21/2016 9:00am-9:00pm, 12/22/2016 9:00am-9:00pm, 12/23/2016 9:00am-9:00pm, 12/24/2016 8:00am-5:00pm, 12/25/2016 Closed, 12/31/2016 10:00am-7:00pm, 1/1/2017 11:00pm-7:00pm",1,,
The Fly Stop,1140882650,9275 Trade Place  Suite E,,San Diego,CA,92126,US,858-500-2761,32.8921313,-117.1529461,    ,2,,
Fishwest,1976923219,47 West  10600 South,,Sandy,UT,84070,US,877-773-5437,40.5579703,-111.8922827,    ,2,,
Stokes,-487502969,29 Route 206 South,,Sandyston,NJ,07826,US,973-948-5448,41.1787554,-74.7945038,    ,2,,
Lost Coast Outfitters,668838704,41A Sussex St,,San Francisco,CA,94131,US,530-209-3108,37.7363203,-122.4336025,    ,2,,
Adventures in Paradise,1140882627,2019 Periwinkle Way,,Sanibel Island,FL,33957,US,239-472-8236,26.4391775,-82.0667341666667,    ,2,,
The Reel Life,1140882596,New Mexico Fishing Co LLC,526 North Guadalupe St.,Santa Fe,NM,87501,US,505-995-8114,35.693296232165,-105.948678054036,    ,2,,
Old Florida Outfitters,1158972295,30 Watercolor Blvd.  Suite 101,,Santa Rosa Beach,FL,32459,US,850-534-4343,30.3231493243243,-86.1446995945946,    ,2,,
Blue Line Sports,1140882668,81 Main Street,,Saranac Lake,NY,12983,US,518-891-4680,44.326828,-74.1316669,    ,2,,
Old Baldy Club,1140882683,Pic Pike Rd (East Of Town),Box 707,Saratoga,WY,82331,US,307-326-5222,41.45335,-106.80244,    ,2,,
Rivers & Glen Trading Company,1140882634,24 Drayton St.,,Savannah,GA,00000,US,912-349-2352,32.07965,-81.09047,    ,2,,
Bennali Outdoors,1016392203,336 SR 179  Suite B102,,Sedona,AZ,86336,US,928-282-1295,34.8621998,-111.7630009,    ,2,,
Seven Springs Outfitters,1657529141,777 Waterwheel Drive,,Seven Springs,PA,15622,US,814-352-7777,40.0220002901292,-79.2951914506462,    ,2,,
Orvis Retail Store Sevierville,-511720772,136 Apple Valley Road,The Apple Barn,Sevierville,TN,37862,US,865-774-4162,35.827657264308,-83.5761994726694,"Monday - Thursday: 10:00 AM - 6:00 PM Friday - Sunday: 10:00 AM - 7:00 PM Sunday: 10:00 AM - 5:00 PM  12/2/2016 10:00am-8:00pm, 12/3/2016 10:00am-8:00pm, 12/4/2016 10:00am-6:00pm, 12/9/2016 10:00am-8:00pm, 12/10/2016 10:00am-8:00pm, 12/11/2016 10:00am-6:00pm, 12/12/2016 9:00am-8:00pm, 12/13/2016 9:00am-8:00pm, 12/14/2016 9:00am-8:00pm, 12/15/2016 9:00am-8:00pm, 12/16/2016 9:00am-8:00pm, 12/17/2016 9:00am-9:00pm, 12/18/2016 9:00am-6:00pm, 12/19/2016 9:00am-9:00pm, 12/20/2016 9:00am-9:00pm, 12/21/2016 9:00am-9:00pm, 12/22/2016 9:00am-9:00pm, 12/23/2016 9:00am-9:00pm, 12/24/2016 8:00am-5:00pm, 12/25/2016 Closed, 12/31/2016 10:00am-5:00pm, 1/1/2017 12:00pm-5:00pm",1,,
Slate Run Tackle Shop,-731818588,Po Box 1 Route 414,,Slate Run,PA,17769,US,570-753-8551,41.46809,-77.50091,    ,2,,
Orvis Outlet Somerville,-511720806,660 Assembly Row,,Somerville,MA,02145,US,617-623-0845,42.3936696,-71.0790254,"Monday - Saturday: 10:00 AM - 7:00 PM Sunday: 11:00 AM - 6:00 PM   12/3/2016 10:00am-8:00pm, 12/4/2016 11:00am-6:00pm, 12/10/2016 10:00am-8:00pm, 12/11/2016 10:00am-6:00pm, 12/12/2016 9:00am-8:00pm, 12/13/2016 9:00am-8:00pm, 12/14/2016 9:00am-8:00pm, 12/15/2016 9:00am-8:00pm, 12/16/2016 9:00am-8:00pm, 12/17/2016 9:00am-9:00pm, 12/18/2016 9:00am-6:00pm, 12/19/2016 9:00am-9:00pm, 12/20/2016 9:00am-9:00pm, 12/21/2016 9:00am-9:00pm, 12/22/2016 9:00am-9:00pm, 12/23/2016 9:00am-9:00pm, 12/24/2016 8:00am-5:00pm, 12/25/2016 Closed, 12/31/2016 10:00am-5:00pm, 1/1/2017 12:00pm-5:00pm",1,,
Orvis Retail Store Southlake,-511720723,1101 E Southlake Boulevard,,Southlake,TX,76092,US,817-251-0262,32.9410517299578,-97.136176371308,"Monday - Saturday: 10:00 AM - 7:00 PM Sunday: 12:00 - 6:00 PM   12/3/2016 10:00am-8:00pm, 12/4/2016 11:00am-6:00pm, 12/10/2016 10:00am-8:00pm, 12/11/2016 10:00am-6:00pm, 12/12/2016 9:00am-8:00pm, 12/13/2016 9:00am-8:00pm, 12/14/2016 9:00am-8:00pm, 12/15/2016 9:00am-8:00pm, 12/16/2016 9:00am-8:00pm, 12/17/2016 9:00am-9:00pm, 12/18/2016 9:00am-6:00pm, 12/19/2016 9:00am-9:00pm, 12/20/2016 9:00am-9:00pm, 12/21/2016 9:00am-9:00pm, 12/22/2016 9:00am-9:00pm, 12/23/2016 9:00am-9:00pm, 12/24/2016 8:00am-5:00pm, 12/25/2016 Closed, 12/31/2016 10:00am-5:00pm, 1/1/2017 12:00pm-5:00pm",1,,
Great Feathers Inc,-1956160646,14824 York Rd,,Sparks,MD,21152,US,410-472-6799,39.5310509012988,-76.6457288289425,    ,2,,
Swedes,1140882585,1611 N. Ash,,Spokane,WA,99205,US,509-323-0500,47.67250625,-117.43702,    ,2,,
Mccoy's Tackle & Gift Shop,-1290785892,Ace Of Diamonds Street,Po Box 210,Stanley,ID,83278,US,208-774-3377,44.21619,-114.93865,    ,2,,
TCO Fly Shop,1140882753,2030 East College Ave,,State College,PA,16801,US,814-689-3654,40.8186534577923,-77.8178832038961,    ,2,,
Flyfishers Paradise,1140882615,2603 East College Ave,,State College,PA,16801,US,814-234-4189,40.827382244898,-77.8074916326531,    ,2,,
Bucking Rainbow Outfitters,1140882802,730 Lincoln Avenue,,Steamboat Springs,CO,80487,US,888-810-8747,40.4857089795918,-106.833923673469,    ,2,,
Feather Craft,1140883137,8307 Manchester Road,,St. Louis,MO,63144,US,314-963-7876,38.6118532764325,-90.3404836238527,    ,2,,
Dunkelbergers Sports Outfitter,1217399235,585 Main St.,,Stroudsburg,PA,18360,US,570-421-7950,40.9857610658435,-75.1926221971571,    ,2,,
Ramsey Outdoor,1140882506,281 Route 10 East,Roxbury Mall,Succasunna,NJ,07876,US,973-584-7798,40.87784,-74.61617,    ,2,,
The Charleston Angler,1140882526,2139 N. Main Street Unit F,,Summerville,SC,29483,US,843-871-9362,33.0459190686385,-80.1115254125272,    ,2,,
Stillwater Fly Shop,-886840821,56898 Enterprise Dr.,,Sunriver,OR,00000,US,541-598-7322,43.8679019,-121.4318007,    ,2,,
The Hook Fly Shop,1393913622,Sunriver Village #22,Box 4548,Sunriver,OR,97707,US,541-593-2358,43.89466,-121.41618,    ,7,,
Savage River Outfitters,1158971909,2721 Savage River Rd,,Swanton,MD,21561,US,301-359-8010,39.4971172822663,-79.1044739734844,    ,2,,
Orvis Pro Shop Pursell Farms,401026302,560 FarmLinks Boulevard,,Sylacauga,AL,35151,US,855-799-2826,33.1285043,-86.4169829,Monday - Sunday: 9:00 AM - 5:00 PM    ,,,
Blackrock Outdoor Co. LLC,-1775726898,570 W. Main St.,,Sylva,NC,28779,US,828-631-4453,35.373567292625,-83.2229248916752,    ,2,,
Troutfitter,1140882618,3008 Erie Blvd. E.,,Syracuse,NY,13224,US,315-446-2047,43.0553383366428,-76.0861682842936,    ,2,,
Kevin's Fine Outdoor Gear & Apparel,1140882708,3350 Capital Circle NE,,Tallahassee,FL,32308,US,850-386-5544,30.4978239117869,-84.2468016522268,    ,2,,
Cape Harbor Outfitters,-1953651085,6267 Old Water Oak Rd.,,Tallahassee,FL,32312,US,850-629-9933,30.5524634,-84.2236336,    ,2,,
Lee Fisher International,1158972123,3916 W. Osborne Ave.,,Tampa,FL,33614,US,813-870-1234,27.98893,-82.50806,    ,2,,
Taos Fly Shop,206332326,338 Paseo Del Pueblo Sur,,Taos,NM,87571,US,575-751-1312,36.3999069,-105.5766131,    ,2,,
Bear's Den Fly Fishing Shop,-1290838584,34 Robert W. Boyden Rd.,,Taunton,MA,02780,US,508-880-6226,41.9511475,-71.1453454,    ,2,,
Telluride Sports,1140882811,162F Society Dr,,Telluride,CO,81435,US,303-728-4477,37.94666,-107.87671,    ,2,,
Orvis Retail Store The Woodlands,-511720760,9595 Six Pines Drive,,The Woodlands,TX,77380,US,281-203-6150,30.164252710898,-95.4611474578204,"Monday - Saturday: 10:00 AM - 7:00 PM Sunday: 12:00 - 6:00 PM   12/3/2016 10:00am-8:00pm, 12/4/2016 11:00am-6:00pm, 12/10/2016 10:00am-8:00pm, 12/11/2016 10:00am-6:00pm, 12/12/2016 9:00am-8:00pm, 12/13/2016 9:00am-8:00pm, 12/14/2016 9:00am-8:00pm, 12/15/2016 9:00am-8:00pm, 12/16/2016 9:00am-8:00pm, 12/17/2016 9:00am-9:00pm, 12/18/2016 9:00am-6:00pm, 12/19/2016 9:00am-9:00pm, 12/20/2016 9:00am-9:00pm, 12/21/2016 9:00am-9:00pm, 12/22/2016 9:00am-9:00pm, 12/23/2016 9:00am-9:00pm, 12/24/2016 8:00am-5:00pm, 12/25/2016 Closed, 12/31/2016 10:00am-5:00pm, 1/1/2017 12:00pm-5:00pm",1,,
Kevin's Of Thomasville,1140882602,111 S. Broad St.,,Thomasville,GA,31792,US,912-226-7766,30.8373479591837,-83.9801310204082,    ,2,,
Orvis Retail Store Portland,-511720753,7495 SW Bridgeport Road,Bridgeport Village,Tigard,OR,97224,US,503-598-7680,45.39382,-122.7536,"Monday - Friday: 10:00 AM - 7:00 PM Saturday: 10:00 AM - 7:00 PM Sunday: 12:00 - 5:00 PM  12/4/2016 11:00am-6:00pm, 12/11/2016 10:00am-6:00pm, 12/12/2016 9:00am-8:00pm, 12/13/2016 9:00am-8:00pm, 12/14/2016 9:00am-8:00pm, 12/15/2016 9:00am-8:00pm, 12/16/2016 9:00am-8:00pm, 12/17/2016 9:00am-9:00pm, 12/18/2016 9:00am-6:00pm, 12/19/2016 9:00am-9:00pm, 12/20/2016 9:00am-9:00pm, 12/21/2016 9:00am-9:00pm, 12/22/2016 9:00am-9:00pm, 12/23/2016 9:00am-9:00pm, 12/24/2016 8:00am-5:00pm, 12/25/2016 Closed, 12/31/2016 10:00am-5:00pm, 1/1/2017 12:00pm-5:00pm",1,,
Little River Outfitters,1140882530,106 Town Square Dr.,,Townsend,TN,37882,US,865-448-9459,35.6789891408389,-83.7399702969007,    ,2,,
Streamside Orvis,1140882565,223 E. Front St.,,Traverse City,MI,49684,US,231-933-9300,44.764082244898,-85.6204267346939,    ,2,,
Mountain Hardware,668996421,11320 Donner Pass Road,,Truckee,CA,96160,US,,39.3266911,-120.2080235,    ,2,,
Dry Creek Outfitters,-1586992287,5655 E River Rd   Suite 131,,Tucson,AZ,85750,US,520-326-7847,32.2734298323637,-110.87261318509,    ,2,,
The Gadget Company,-2037721989,104 E. 15th Street,,Tulsa,OK,74119,US,918-749-9963,36.1406104081633,-95.9850642857143,    ,2,,
Woods & Water,-2105452394,5101 Summit Ridge,,Tuscaloosa,AL,35405,US,205-333-1214,33.1644,-87.51376,    ,2,,
Streams of Dreams,1194664470,324 Route 17 North,,Upper Saddle,NJ,07458,US,201-934-1138,41.0518052,-74.1187335,    ,2,,
Greased Fly Line Shoppe,-1290787202,5800 NE 88th St. Suite 101,,Vancouver,WA,98665,US,360-573-9383,45.6860485959885,-122.612583323782,    ,2,,
Fishermen's Spot,668838712,14411 Burbank Blvd,,Van Nuys,CA,91401,US,818-785-7306,34.1724499,-118.4468026,    ,2,,
World Cast Anglers,1140882491,38 West Center St.,PO Box 350,Victor,ID,83455,US,208-787-0082,43.6025656097561,-111.112325853659,    ,2,,
Orvis Retail Store Tysons Corner,-511720775,8365-A Leesburg Pike,,Vienna,VA,22182,US,703-556-8634,38.9218382831663,-77.2351847259931,"Monday - Saturday: 10:00 AM - 7:00 PM Sunday: 11:00 AM - 5:00 PM   12/3/2016 10:00am-8:00pm, 12/4/2016 11:00am-6:00pm, 12/10/2016 10:00am-8:00pm, 12/11/2016 10:00am-6:00pm, 12/12/2016 9:00am-8:00pm, 12/13/2016 9:00am-8:00pm, 12/14/2016 9:00am-8:00pm, 12/15/2016 9:00am-8:00pm, 12/16/2016 9:00am-8:00pm, 12/17/2016 9:00am-9:00pm, 12/18/2016 9:00am-6:00pm, 12/19/2016 9:00am-9:00pm, 12/20/2016 9:00am-9:00pm, 12/21/2016 9:00am-9:00pm, 12/22/2016 9:00am-9:00pm, 12/23/2016 9:00am-9:00pm, 12/24/2016 8:00am-5:00pm, 12/25/2016 Closed",1,,
Driftless Angler,-1508618299,106 S Main,,Viroqua,WI,54665,US,608-637-8779,43.5561655102041,-90.8893193877551,    ,2,,
Neshannock Creek Fly Shop,1140882712,Main St,Po Box 310,Volant,PA,16156,US,724-533-3212,41.11161,-80.25497,    ,2,,
North Park Anglers,1189922225,524 Main Street,,Walden,CO,80480,US,970-723-4215,40.72913,-106.28209,    ,2,,
Rhodes Gift & Fly Shop,1140882725,77 Main St,,Warrenton,VA,22186,US,540-347-4162,38.712762,-77.793402,    ,2,,
Penns Creek Angler,249697972,5540A Weikert Rd.,,Weikert,PA,17885,US,540-922-1053,40.858914,-77.295802,    ,2,,
Bretons Bike And Fly Shop,1950970379,877 Post Rd.,,Wells,ME,04090,US,207-646-4255,43.2995419396835,-70.5868297136829,    ,2,,
Concord Outfitters,-2037601392,113 Commonwealth Ave.,,West Concord,MA,01742,US,978-318-0330,42.45736,-71.39583,    ,2,,
Orvis Retail Store Westlake,43870184,224 Main Street,,Westlake,OH,44145,US,440-250-0374,41.458787,-81.9519338,"Monday - Saturday: 10:00 AM - 7:00 PM Sunday: 11:00 AM - 6:00 PM   11/27/2016 10:00am-7:00pm, 12/3/2016 10:00am-8:00pm, 12/4/2016 11:00am-6:00pm, 12/10/2016 10:00am-8:00pm, 12/11/2016 10:00am-6:00pm, 12/12/2016 9:00am-8:00pm, 12/13/2016 9:00am-8:00pm, 12/14/2016 9:00am-8:00pm, 12/15/2016 9:00am-8:00pm, 12/16/2016 9:00am-8:00pm, 12/17/2016 9:00am-9:00pm, 12/18/2016 9:00am-6:00pm, 12/19/2016 9:00am-9:00pm, 12/20/2016 9:00am-9:00pm, 12/21/2016 9:00am-9:00pm, 12/22/2016 9:00am-9:00pm, 12/23/2016 9:00am-9:00pm, 12/24/2016 8:00am-5:00pm, 12/25/2016 Closed",1,,
Evening Hatch Flyfishing Shop,1140882812,5 Rt. 940 East,,White Haven,PA,18661,US,570-443-0772,41.1171296731286,-75.5526293595585,    ,2,,
The Outpost,1140882535,4768 US Hwy. 74 W.,Us-74,Whittier,NC,28789,US,828-586-8400,35.384673592503,-83.2906443944587,    ,2,,
Ark River Anglers,1140882742,1617 S. Longfellow St.  Suite 2,,Wichita,KS,67207,US,316-682-8006,37.664317755102,-97.2469018367347,    ,2,,
Orvis Retail Store Buffalo,-511720774,4545 Transit Road,Eastern Hills Mall,Williamsville,NY,14221,US,716-276-7200,42.97099,-78.69684,"Monday - Friday: 10:00 AM - 7:00 PM Saturday: 10:00 AM - 7:00 PM Sunday: 12:00 - 5:00 PM  12/3/2016 10:00am-8:00pm, 12/4/2016 11:00am-6:00pm, 12/10/2016 10:00am-8:00pm, 12/11/2016 10:00am-6:00pm, 12/12/2016 9:00am-8:00pm, 12/13/2016 9:00am-8:00pm, 12/14/2016 9:00am-8:00pm, 12/15/2016 9:00am-8:00pm, 12/16/2016 9:00am-8:00pm, 12/17/2016 9:00am-9:00pm, 12/18/2016 9:00am-6:00pm, 12/19/2016 9:00am-9:00pm, 12/20/2016 9:00am-9:00pm, 12/21/2016 9:00am-9:00pm, 12/22/2016 9:00am-9:00pm, 12/23/2016 9:00am-9:00pm, 12/24/2016 8:00am-5:00pm, 12/25/2016 Closed, 12/31/2016 10:00am-5:00pm, 1/1/2017 12:00pm-5:00pm",1,,
The Hungry Trout Resort,371482913,5239 New York Scenic Route 86,,Wilmington,NY,12997,US,800-766-9137,44.3640463,-73.8421074,    ,2,,
Trident Fly Fishing,1140882799,765 Roosevelt Trail Suite 8,,Windham,ME,00000,US,888-413-5211,43.836042751003,-70.4398973571849,    ,2,,
The Green Drake,1158971617,123 S Stratford Rd,,Winston-Salem,NC,27103,US,336-723-9070,36.0956983921103,-80.2772515006971,    ,2,,
Andy Thornal Company,1140882783,336 Magnolia Avenue SW,,Winter Haven,FL,33880,US,800-499-9890,28.020795977734,-81.7308408843319,    ,2,,
Cabin Bluff,1158972111,3852 Unioin Carbide Rd.,,Woodbine,GA,31569,US,912-729-5960,30.9072668857976,-81.5379252835374,    ,2,,
Orvis Retail Store Woodbridge,-511720785,14901 Potomac Town Place,Stonebridge at Potomac Town Center,Woodbridge,VA,22191,US,703-590-0578,38.63037,-77.28876,"Monday - Saturday: 10:00 AM - 7:00 PM Sunday: 11:00 AM - 5:00 PM   12/3/2016 10:00am-8:00pm, 12/4/2016 11:00am-6:00pm, 12/10/2016 10:00am-8:00pm, 12/11/2016 10:00am-6:00pm, 12/12/2016 9:00am-8:00pm, 12/13/2016 9:00am-8:00pm, 12/14/2016 9:00am-8:00pm, 12/15/2016 9:00am-8:00pm, 12/16/2016 9:00am-8:00pm, 12/17/2016 9:00am-9:00pm, 12/18/2016 9:00am-6:00pm, 12/19/2016 9:00am-9:00pm, 12/20/2016 9:00am-9:00pm, 12/21/2016 9:00am-9:00pm, 12/22/2016 9:00am-9:00pm, 12/23/2016 9:00am-9:00pm, 12/24/2016 8:00am-5:00pm, 12/25/2016 Closed, 12/31/2016 10:00am-5:00pm, 1/1/2017 12:00pm-5:00pm",1,,
Orvis Retail Store Cleveland,-511720786,28839 Chagrin Boulevard,,Woodmere,OH,44122,US,216-591-1681,41.46235,-81.4752948076923,"Monday - Wednesday: 10:00 AM - 6:00 PM Thursday - Saturday: 10:00 AM - 7:00 PM Sunday: 12:00 - 6:00 PM  11/28/2016 10:00am-7:00pm, 11/29/2016 10:00am-7:00pm, 11/30/2016 10:00am-7:00pm, 12/4/2016 11:00am-6:00pm, 12/11/2016 10:00am-6:00pm, 12/12/2016 9:00am-8:00pm, 12/13/2016 9:00am-8:00pm, 12/14/2016 9:00am-8:00pm, 12/15/2016 9:00am-8:00pm, 12/16/2016 9:00am-8:00pm, 12/17/2016 9:00am-9:00pm, 12/18/2016 9:00am-6:00pm, 12/19/2016 9:00am-9:00pm, 12/20/2016 9:00am-9:00pm, 12/21/2016 9:00am-9:00pm, 12/22/2016 9:00am-9:00pm, 12/23/2016 9:00am-9:00pm, 12/24/2016 8:00am-5:00pm, 12/25/2016 Closed, 12/26/2016 10:00am-6:00pm, 12/31/2016 10:00am-5:00pm, 1/1/2017 12:00pm-5:00pm",1,,
Orvis Retail Store Worthington,-511720780,7227 N High Street,The Shops at Worthington Place,Worthington,OH,43085,US,614-436-3422,40.1079990909091,-83.0168481818182,"Monday - Saturday: 10:00 AM - 7:00 pm Sunday: 11:00 AM - 5:00 PM   12/3/2016 10:00am-8:00pm, 12/4/2016 11:00am-6:00pm, 12/10/2016 10:00am-8:00pm, 12/11/2016 10:00am-6:00pm, 12/12/2016 9:00am-8:00pm, 12/13/2016 9:00am-8:00pm, 12/14/2016 9:00am-8:00pm, 12/15/2016 9:00am-8:00pm, 12/16/2016 9:00am-8:00pm, 12/17/2016 9:00am-9:00pm, 12/18/2016 9:00am-6:00pm, 12/19/2016 9:00am-9:00pm, 12/20/2016 9:00am-9:00pm, 12/21/2016 9:00am-9:00pm, 12/22/2016 9:00am-9:00pm, 12/23/2016 9:00am-9:00pm, 12/24/2016 8:00am-5:00pm, 12/25/2016 Closed, 12/31/2016 10:00am-5:00pm, 1/1/2017 12:00pm-5:00pm",1,,
Redix,78026215,120 Causeway Dr.,,Wrightsville Beach,NC,28480,US,910-256-2201,34.2165463,-77.8109915,    ,2,,
Orvis Retail Store Yonkers,-511720751,100 Market Street,1 Ridge Hill Blvd.,Yonkers,NY,10710,US,914-963-2196,40.9635124137931,-73.8562272413793,"Monday - Wednesday: 10:00 AM - 6:00 PM Thursday - Saturday: 10:00 AM - 7:00 PM Sunday: 11:00 AM - 5:00 PM  11/28/2016 10:00am-7:00pm, 11/29/2016 10:00am-7:00pm, 11/30/2016 10:00am-7:00pm, 12/1/2016 10:00am-7:00pm, 12/2/2016 10:00am-7:00pm, 12/4/2016 11:00am-6:00pm, 12/5/2016 10:00am-7:00pm, 12/6/2016 10:00am-7:00pm, 12/7/2016 10:00am-7:00pm, 12/8/2016 10:00am-7:00pm, 12/9/2016 10:00am-7:00pm, 12/10/2016 10:00am-8:00pm, 12/11/2016 10:00am-7:00pm, 12/12/2016 9:00am-8:00pm, 12/13/2016 9:00am-8:00pm, 12/14/2016 9:00am-8:00pm, 12/15/2016 9:00am-8:00pm, 12/16/2016 9:00am-8:00pm, 12/17/2016 9:00am-9:00pm, 12/18/2016 9:00am-6:00pm, 12/19/2016 9:00am-9:00pm, 12/20/2016 9:00am-9:00pm, 12/21/2016 9:00am-9:00pm, 12/22/2016 9:00am-9:00pm, 12/23/2016 9:00am-9:00pm, 12/24/2016 8:00am-5:00pm, 12/25/2016 Closed, 12/31/2016 10:00am-5:00pm, 1/1/2017 12:00pm-5:00pm",1,,
Schultz Outfitters LLC,-1290785552,4 E. Cross St,,Ypsilanti,MI,48198,US,,42.2459228571429,-83.6112042857143,    ,2,,
Anglertreff Heniz Ruetzler,1347574533,Illweg 12,Nueziders,6713,,A-6713,AT,+43 5552 31694,47.19064,9.78155,    ,2,,
Raffaela Hoenel,1140883098,Alleestrasse 1a,6345 Koessen,Austria,,A-6345,AT,+43 6641421617,47.66344,12.40697,    ,2,,
Fischerei Und Jagd Hoeller,1140883014,Kammerhofgasse 6,,Gmunden,,A-4810,AT,+43 7612 64222,47.91854,13.80077,    ,2,,
Austrian Outdoor Sports,1140883120,Kärntner Strasse 155,,Graz,,8053,AT,0043-316-822 104 15,47.047,15.41519,    ,2,,
Angelsport Klejch,1140883045,Thaliastr. 112,,Vienna,,A-1160,AT,+43 1480 2361,48.211945,16.31642,    ,7,,
Kaerntner Jagdstuben,1140883048,Klagenfurter Str. 17,,Villach,,A-9500,AT,+43 4242 28826,46.61735,13.8506671428571,    ,7,,
The Flyfisher,1140882791,Lvl 2,383 Flinders Lane,Melbourne,,VIC 3000,AU,61.3.9621.1246,-37.8182146,144.9672068,    ,7,,
Quality-De Claudia Pichoni,1218109478,Fagnano 546,,Rio Grande Tdf,,,AG,54-2964-426701,17.05,-61.8,    ,2,,
Buenos Aires eflyshop,1140882569,Gregoria Perez 3274 dpto 6,Ciudad de Buenos Aires,Buenos Aires,,C1426DWB,AR,54 11 4551-3580,-34.5763414,-58.4546186,    ,2,,
Mendoza Fly Shop,1560037269,Brandsen 1239,,Dorrego Guaymallen,,5519,AR,,-32.9112426,-68.8297623,    ,3,,
Argentina Fly Supplies,1494040378,Mitre 1513  (2000),,Rosario,,,AR,54-341-4476502,-32.9548248,-60.6417553,    ,7,,
Damonte Outfitters,1560037265,Gral. Villagas 953,,San Martin De Los Andes Neuquen,,8370,AR,54-2972-42181,-40.1550903,-71.3541946,    ,3,,
