store_name,store_number,address,address2,city,state,zip_code,country,phone_number,latitude,longitude,store_hours,store_type,other_fields,coming_soon
Black's Photography,,4841 Yonge St,,North York,ON,M2N,Canada,416-222-9339,,,,,,
Black's Photography,,3003 Danforth Ave,,East York,ON,M4C,Canada,416-691-6401,,,,,,
Black's Photography,,63 Eglinton Sq,,Scarborough,ON,M1L,Canada,416-752-9550,,,,,,
Black's Photography,,1381 Regent St,,Fredericton,NB,E3C,Canada,506-452-8460,,,,,,
Black's Photography,,2901 Bayview Ave,,North York,ON,M2K,Canada,416-225-0890,,,,,,
Black's Photography,,920 Southdown Rd,,Mississauga,ON,L5J,Canada,905-822-7409,,,,,,
Black's Photography,,21 Micmac Dr,,Dartmouth,NS,B2X,Canada,902-465-3233,,,,,,
Black's Photography,,355 Hespeler Rd # 196,,Cambridge,ON,N1R,Canada,519-622-1955,,,,,,
Black's Photography,,270 the Kingsway,,Etobicoke,ON,M9A,Canada,416-231-9432,,,,,,
Black's Photography,,2225 Erin Mills Pky # 91,,Mississauga,ON,L5K,Canada,905-822-1740,,,,,,
Black's Photography,,25 the West Mall # 26,,Etobicoke,ON,M9C,Canada,416-622-0523,,,,,,
Black's Photography,,6551 No. 3 Rd # 1612,,Richmond,PE,V6Y,Canada,604-278-1522,,,,,,
Black's Photography,,1595 Bedford Hwy # 116,,Bedford,NS,B4A,Canada,902-835-5531,,,,,,
Black's Photography,,1349 Lasalle Blvd # 62,,Sudbury,ON,P3A,Canada,705-560-5677,,,,,,
Black's Photography,,250 Wincott Dr,,Etobicoke,ON,M9R,Canada,416-245-3794,,,,,,
Black's Photography,,3300 Yonge St,,Toronto,ON,M4N,Canada,416-322-0510,,,,,,
Black's Photography,,2285 Yonge St,,Toronto,ON,M4P,Canada,416-483-6055,,,,,,
Black's Photography,,4141 Dixie Rd,,Mississauga,ON,L4W,Canada,905-629-2651,,,,,,
Black's Photography,,900 Dufferin Street,,Toronto,ON,M6H 4A9,Canada,416-535-8912,,,,,,
Black's Photography,,1000 Fort William Rd,,Thunder Bay,ON,P7B,Canada,807-623-3994,,,,,,
Black's Photography,,13 St Clair Ave W,,Toronto,ON,M4V,Canada,416-924-0911,,,,,,
Black's Photography,,2 Bloor St W,,Toronto,ON,M4W,Canada,416-928-1520,,,,,,
Black's Photography,,250 the East Mall,,Etobicoke,ON,M9B,Canada,416-231-8015,,,,,,
Black's Photography,,161 Bay St,,Toronto,ON,M5J,Canada,416-777-9909,,,,,,
Black's Photography,,200 Bay St,,Toronto,ON,M5J,Canada,416-865-0095,,,,,,
Black's Photography,,2 St Clair Ave E,,Toronto,ON,M4T,Canada,416-962-9731,,,,,,
Black's Photography,,243 Bay St,,Toronto,ON,M5L,Canada,416-869-0591,,,,,,
Black's Photography,,20 Dundas St W,,Toronto,ON,M5G,Canada,416-595-0326,,,,,,
Black's Photography,,200 Wellington St W,,Toronto,ON,M5J,Canada,416-591-3575,,,,,,
Black's Photography,,100 City Centre Dr,,Mississauga,ON,L5B,Canada,905-848-4505,,,,,,
Black's Photography,,499 Main St S,,Brampton,ON,L6Y,Canada,905-792-3663,,,,,,
Black's Photography,,84 Lynden Rd # S13,,Brantford,ON,N3R,Canada,519-756-2070,,,,,,
Black's Photography,,5100 Erin Mills Parkway,,Mississauga,ON,L5M 4Z5,Canada,905-569-3961,,,,,,
Black's Photography,,999 Upper Wentworth St,,Hamilton,ON,L9A,Canada,905-387-3421,,,,,,
Black's Photography,,92 Plaza Dr,,Dundas,NB,L9H,Canada,905-627-1251,,,,,,
Black's Photography,,240 Leighland Ave,,Oakville,NB,L6H,Canada,905-844-8134,,,,,,
Black's Photography,,2 King St W,,Hamilton,ON,L8P,Canada,905-387-3421,,,,,,
Black's Photography,,75 Centennial Pky N,,Hamilton,ON,L8E,Canada,905-578-5733,,,,,,
Black's Photography,,1515 Rebecca St # 8,,Oakville,NB,L6L,Canada,905-847-1414,,,,,,
Black's Photography,,900 Maple Ave,,Burlington,ON,L7S,Canada,905-333-5772,,,,,,
Black's Photography,,777 Guelph Line,,Burlington,ON,L7R,Canada,905-333-6677,,,,,,
Black's Photography,,700 Georgia St W,,Vancouver,BC,V7Y,Canada,604-684-2467,,,,,,
Black's Photography,,6550 Meadowvale Town Centre Ci,,Mississauga,ON,L5N,Canada,905-826-2694,,,,,,
Black's Photography,,2455 Appleby Line,,Burlington,ON,L7L,Canada,905-335-1450,,,,,,
Black's Photography,,4820 Kingsway # 358,,Burnaby,BC,V5H,Canada,604-439-9368,,,,,,
Black's Photography,,2929 Barnet Hwy # 2508,,Coquitlam,BC,V3B,Canada,604-464-5875,,,,,,
Black's Photography,,255 Morningside Ave,,Scarborough,ON,M1E,Canada,416-281-8444,,,,,,
Black's Photography,,419 King St W,,Oshawa,ON,L1J,Canada,905-571-2441,,,,,,
Black's Photography,,300 Borough Dr # 44,,Scarborough,ON,M1P,Canada,416-296-5666,,,,,,
Black's Photography,,130 Kingston Rd E,,Ajax,ON,L1Z,Canada,905-427-6639,,,,,,
Black's Photography,,2900 Warden Ave # 111,,Scarborough,ON,M1W,Canada,416-495-6802,,,,,,
Black's Photography,,6440 Yonge St,,North York,ON,M2M,Canada,416-225-8204,,,,,,
Black's Photography,,7692 Tecumseh Rd E # B11,,Windsor,ON,N8T,Canada,519-945-1882,,,,,,
Black's Photography,,1355 Kingston Rd,,Pickering,ON,L1V,Canada,905-831-5597,,,,,,
Black's Photography,,221 Glendale Ave # 64,,St Catharines,ON,L2T,Canada,905-641-0120,,,,,,
Black's Photography,,3100 Howard Ave,,Windsor,ON,N8X,Canada,519-969-3550,,,,,,
Black's Photography,,800 Niagara St,,Welland,ON,L3C,Canada,905-735-9845,,,,,,
Black's Photography,,3310 8th St E # 550,,Saskatoon,SK,S7H,Canada,306-477-8870,,,,,,
Black's Photography,,293 Bay St,,Sault Ste Marie,ON,P6A,Canada,705-942-3585,,,,,,
Black's Photography,,285 Geneva St,,St Catharines,ON,L2N,Canada,905-935-9941,,,,,,
Black's Photography,,1225 St Mary's Rd # 99,,Winnipeg,MB,R2M,Canada,204-255-7540,,,,,,
Black's Photography,,2036 Queen St E,,Toronto,ON,M4L,Canada,416-690-4077,,,,,,
Black's Photography,,1120 Grant Ave,,Winnipeg,MB,R3C,Canada,204-452-7746,,,,,,
Black's Photography,,371 Gough Rd # 1,,Markham,ON,L3R,Canada,905-475-2777,,,,,,
Black's Photography,,1485 Portage Ave # 160,,Winnipeg,MB,R3G,Canada,204-783-5183,,,,,,
Black's Photography,,9350 Yonge St # 37,,Richmond Hill,ON,L4C,Canada,905-884-9550,,,,,,
Black's Photography,,1 Promenade Cir,,Thornhill,ON,L4J,Canada,905-889-4050,,,,,,
Black's Photography,,14845 Yonge St # 8,,Aurora,ON,L4G,Canada,905-727-3363,,,,,,
Black's Photography,,5000 Highway 7 # 200,,Markham,ON,L3R,Canada,905-477-6150,,,,,,
Black's Photography,,519 Westmorland Rd,,Saint John,NB,E2J,Canada,506-634-1999,,,,,,
Black's Photography,,2228 Bloor St W,,Toronto,ON,M6S,Canada,416-766-8596,,,,,,
Black's Photography,,6631 Island Hwy N # 36A,,Nanaimo,BC,V9T,Canada,250-390-2855,,,,,,
Black's Photography,,660 Eglinton Ave E,,East York,ON,M4G,Canada,416-483-5930,,,,,,
Black's Photography,,300 Eagleson Rd,,Kanata,ON,K2M,Canada,613-592-4652,,,,,,
Black's Photography,,3401 Dufferin St # 96,,North York,ON,M6A,Canada,416-785-3744,,,,,,
Black's Photography,,110 Place D'Orleans Dr,,Orleans,ON,K1C,Canada,613-837-4171,,,,,,
Black's Photography,,81 Riocan Ave,,Nepean,ON,K2J,Canada,613-823-6977,,,,,,
Black's Photography,,1642 Merivale Rd,,Nepean,ON,K2G,Canada,613-224-1982,,,,,,
Black's Photography,,100 Bayshore Dr # Bx6,,Nepean,ON,K2B,Canada,613-829-6012,,,,,,
Black's Photography,,760 Hyde Park Rd # 5A,,London,ON,N6H,Canada,519-641-6617,,,,,,
Black's Photography,,645 Lansdowne St W # 48,,Peterborough,ON,K9J,Canada,705-748-3994,,,,,,
Black's Photography,,785 Wonderland Rd S,,London,ON,N6K,Canada,519-473-0814,,,,,,
Black's Photography,,1105 Wellington Rd,,London,ON,N6E,Canada,519-686-1401,,,,,,
Black's Photography,,435 Stone Rd W,,Guelph,ON,N1G,Canada,519-836-4851,,,,,,
Black's Photography,,75 King St S,,Waterloo,QC,N2J,Canada,519-886-8080,,,,,,
Black's Photography,,1400 Ottawa St S # 53,,Kitchener,ON,N2E,Canada,519-593-2340,,,,,,
Black's Photography,,509 Bayfield St,,Barrie,ON,L4M,Canada,705-737-5144,,,,,,
Black's Photography,,1680 Richmond St # 154,,London,ON,N6G,Canada,519-660-6777,,,,,,
Black's Photography,,2121 Carling Ave,,Ottawa,ON,K2A,Canada,613-728-3440,,,,,,
Black's Photography,,1200 St Laurent Blvd,,Ottawa,ON,K1K,Canada,613-745-9710,,,,,,
Black's Photography,,77 King St,,York,PE,M9N,Canada,416-865-1094,,,,,,
Black's Photography,,2269 Riverside Dr # 46,,Ottawa,ON,K1H,Canada,613-521-9693,,,,,,
Black's Photography,,207 Sparks St,,Ottawa,ON,K1P,Canada,613-594-8800,,,,,,
Black's Photography,,2960 Kingsway Dr,,Kitchener,ON,N2C,Canada,519-894-1340,,,,,,
Black's Photography,,50 Rideau St,,Ottawa,ON,K1N,Canada,613-230-1348,,,,,,
Black's Photography,,304 Southgate Shopping Ctr NW,,Edmonton,AB,T6H,Canada,780-437-4172,,,,,,
Black's Photography,,131 Kingsway Garden Mall NW # 135,,Edmonton,AB,T5G,Canada,780-477-7086,,,,,,
Black's Photography,,2331 66th St NW # 331,,Edmonton,AB,T6K,Canada,780-461-4073,,,,,,
Black's Photography,,100 Anderson Rd SE,,Calgary,AB,T2J,Canada,403-271-5353,,,,,,
Black's Photography,,232 Stewart Green SW,,Calgary,AB,T3H,Canada,403-246-9025,,,,,,
Black's Photography,,477 Paul St,,Dieppe,NB,E1A,Canada,506-857-0480,,,,,,
Black's Photography,,6455 Macleod Trail SW,,Calgary,AB,T2H,Canada,403-252-6249,,,,,,
Black's Photography,,1632 14 Ave NW # 265,,Calgary,AB,T2N,Canada,403-289-2484,,,,,,
Black's Photography,,333 7 Ave SW # 128,,Calgary,AB,T2P,Canada,403-265-6567,,,,,,
Black's Photography,,3625 Shaganappi Trail NW,,Calgary,AB,T3A,Canada,403-247-2777,,,,,,
Black's Photography,,751 3 St SW # 213,,Calgary,AB,T2P,Canada,403-237-9366,,,,,,
Black's Photography,,100 King St W,,Chatham,ON,N7M,Canada,519-352-3443,,,,,,
