store_name,store_number,address,address2,city,state,zip_code,country,phone_number,latitude,longitude,store_hours,store_type,other_fields,coming_soon
"Coon Rapids, MN Auto Maintenance and Repair Shop",030-17,2831 Coon Rapids Blvd NW ,,Coon Rapids ,MN,55433,United States,(763) 275-1390,45.1715691,-93.3393313,"M-F: 8am - 6pm, Sat: 8am - 4pm, Sun: Closed",,,
"Columbia - Southeast, SC Auto Maintenance and Repair Shop",064-01,6900 Garners Ferry Road ,,Columbia ,SC,29209,United States,(803) 776-2593,33.9753835,-80.9562748,"M-F: 8am - 6pm, Sat: 8am - 5pm, Sun: Closed",,,
"Columbus - Victory Dr, GA Auto Maintenance and Repair Shop",021-10,4025 Victory Drive ,,Columbus ,GA,31903,United States,(706) 682-9670,32.4097255,-84.9403039,"M-F: 8am - 6pm, Sat: 8am - 4pm, Sun: Closed",,,
"Conyers, GA Auto Maintenance and Repair Shop",107-43,1711 Highway 138 SE ,,Conyers ,GA,30013,United States,(770) 761-9315,33.6452866,-84.014871,"M-F: 8am-6pm, Sat: 8am-4pm, Sun: Closed",,,
"Columbia Heights, MN Auto Maintenance and Repair Shop",030-03,4401 Central Avenue N.E. ,,Columbia Heights ,MN,55421,United States,(763) 789-8614,45.0484934,-93.2469726,"M-F: 8am - 6pm, Sat: 8am - 4pm, Sun: Closed",,,
"Columbia - Dutch Square, SC Auto Maintenance and Repair Shop",064-05,1923 Broad River Road ,,Columbia ,SC,29210,United States,(803) 798-2902,34.0357501,-81.089988,"M-F: 8am - 6pm, Sat: 8am - 5pm, Sun: Closed",,,
"Clinton, MD Auto Maintenance and Repair Shop",072-24,6311 A Coventry Way ,,Clinton ,MD,20735,United States,(301) 856-0790,38.781919,-76.896894,"M-F: 8am - 6pm, Sat: 8am - 4pm, Sun: Closed",,,
"Concord, NC Auto Maintenance and Repair Shop",059-13,252 Concord Parkway South ,,Concord ,NC,28027,United States,(704) 788-7000,35.399842,-80.6085366,"M-F: 8am - 6pm, Sat: 8am - 5pm, Sun: Closed",,,
"Chesterfield, VA Auto Maintenance and Repair Shop",043-35,7010 Jefferson Davis ,,North Chesterfield ,VA,23237,United States,(804) 525-5162,37.428525,-77.4402,"M-F: 8am -6pm, Sat: 8am - 2pm, Sun: Closed",,,
"Chattanooga - Hixson, TN Auto Maintenance and Repair Shop",028-26,4221 Hixson Pike ,,Chattanooga ,TN,37415,United States,(423) 305-0143,35.1159401,-85.2515717,"M-F: 8am-6pm, Sat: 8am-4pm, Sun: Closed",,,
"Charlotte - South Blvd, NC Auto Maintenance and Repair Shop",059-03,4909 South Blvd. ,,Charlotte ,NC,28217,United States,(704) 527-2841,35.171391,-80.875511,"M-F: 8am - 6pm, Sat: 8am - 5pm, Sun: Closed",,,
"Winston Salem, NC Auto Maintenance and Repair Shop",059-18,1529 Peters Creek Pkwy ,,Winston Salem ,NC,27103,United States,(336) 748-8182,36.072159,-80.257569,"M-F: 8am-6pm, Sat: 8am-5pm, Sun: Closed",,,
"Yukon, OK Auto Maintenance and Repair Shop",057-06,722 Garth Brooks Blvd ,,Yukon ,OK,73099,United States,(405) 354-8000,35.5013433,-97.7602889,"M-F: 7:30am - 5:30pm Sat: 7:30am - 2:30pm, Sun: Close",,,
"Columbus, MS Auto Maintenance and Repair Shop",024-15,2334 Highway 45 North ,,Columbus ,MS,39705,United States,(662) 241-4455,33.6154774,-88.4191069,"M-F: 8am - 6pm, Sat: 8am - 4pm, Sun: Closed",,,
"Columbia - Northeast, SC Auto Maintenance and Repair Shop",064-06,7454 Two Notch Road ,,Columbia ,SC,29223,United States,(803) 788-9067,34.0714123,-80.9496332,"M-F: 8am - 6pm, Sat: 8am - 5pm, Sun: Closed",,,
"Chattanooga - Gunbarrel Rd, TN Auto Maintenance and Repair Shop",028-17,2125 Gunbarrel Road ,,Chattanooga ,TN,37421,United States,(423) 892-0665,35.036398,-85.15275,"M-F: 8am - 6pm, Sat: 8am - 4pm, Sun: Closed",,,
"Warner Robins - Watson Blvd, GA Auto Maintenance and Repair Shop",021-04,1210 Watson Blvd. ,,Warner Robins ,GA,31093,United States,(478) 923-6510,32.6185276,-83.6170725,"M-F: 8am - 6pm, Sat: 8am - 4pm, Sun: Closed",,,
"Williamsport, MD Auto Maintenance and Repair Shop",050-30,101 East Sunset Avenue ,,Williamsport ,MD,21795,United States,(301) 223-6277,39.5950671,-77.8181532,"M-F: 7:30am-6pm, Sat: 8:00am-4pm, Sun: 10:30am-3pm",,,
"Wake Forest, NC Auto Maintenance and Repair Shop",055-17,3405 Rogers Road ,,Wake Forest ,NC,27587,United States,(919) 556-1410,35.9503992,-78.5114462,"M-F: 8am-6pm, Sat: 8am-5pm, Sun: Closed",,,
"Waco, TX Auto Maintenance and Repair Shop",029-28,4212 Bosque Blvd. ,,Waco ,TX,76710,United States,(254) 776-2484,31.5386801,-97.1817403,"M-F: 8am - 5:30 pm, Sat: 8am - 3pm, Sun: Closed",,,
"Wilmington, NC Auto Maintenance and Repair Shop",055-06,1318 South College Road ,,Wilmington ,NC,28403,United States,(910) 392-5353,34.2126587,-77.8867752,"M-F: 8am - 6pm, Sat: 8am - 5pm, Sun: Closed",,,
"Vancouver, WA Auto Maintenance and Repair Shop",260-17,6920 NE Fourth Plain Blvd. # C ,,Vancouver ,WA,98661,United States,(360) 693-3933,45.6446341,-122.6021153,"M-F: 8am-5pm, Sat: 8am-3pm, Sun: Closed",,,
"Valdosta, GA Auto Maintenance and Repair Shop",021-08,1807 North Ashley Street ,,Valdosta ,GA,31602,United States,(229) 242-0610,30.8553059,-83.2805129,"M-F: 8am - 6pm, Sat: 8am - 4pm, Sun: Closed",,,
"Columbus - Veterans Pkwy, GA Auto Maintenance and Repair Shop",021-11,5427 Veterans Parkway ,,Columbus ,GA,31904,United States,(706) 327-2114,32.5213741,-84.9644012,"M-F: 8am-6pm, Sat: 8am-4pm, Sun: Closed",,,
"Warner Robins - Russell Pkwy, GA Auto Maintenance and Repair Shop",021-13,712 Russell Pkwy ,,Warner Robins ,GA,31088,United States,(478) 302-5777,32.594388,-83.635193,"M-F: 8am - 6pm, Sat: 8am - 4pm, Sun: Closed",,,
"Union City, GA Auto Maintenance and Repair Shop",107-28,6800 Londonderry Way ,,Union City ,GA,30291,United States,(770) 969-4656,33.569988,-84.537002,"M-F: 8am - 6pm, Sat: 8am - 5pm, Sun: Closed",,,
"University Place, WA Auto Maintenance and Repair Shop",270-06,4828 Bridgeport Way W Suite A ,,University Place ,WA,98467,United States,(253) 564-7428,47.2132821,-122.5376664,"M-F: 8:30am - 6pm, Sat: 8:30am - 5pm, Sun: Closed",,,
"Tucker, GA Auto Maintenance and Repair Shop",107-17,1830 Mountain Industrial Blvd ,,Tucker ,GA,30084,United States,(770) 939-0055,33.836306,-84.201012,"M-F: 8am - 6pm, Sat: 8am - 5pm, Sun: Closed",,,
"Traverse City, MI Auto Maintenance and Repair Shop",051-11,707 South Garfield Avenue ,,Traverse City ,MI,49686,United States,(231) 946-7675,44.7546608,-85.5952817,"M-F: 8am - 5:30pm, Sat: Closed, Sun: Closed",,,
"Chattanooga - Hwy 58, TN Auto Maintenance and Repair Shop",028-27,4533 Hwy 58 ,,Chattanooga ,TN,37416,United States,(423) 602-5955,35.085645,-85.195308,"M-F: 8am-6pm, Sat: 8am-4pm, Sun: Closed",,,
"Tulsa - 51st St, OK Auto Maintenance and Repair Shop",048-07,9709 East 51st Street ,,Tulsa ,OK,74146,United States,(918) 610-8863,36.090393,-95.8681727,"M-F: 8am - 6pm, Sat: 8am - 5pm, Sun: Closed",,,
"Tacoma, WA Auto Maintenance and Repair Shop",270-57,303 S. 72nd Street ,,Tacoma ,WA,98408,United States,(253) 473-7776,47.1922834,-122.4355142,"M-F: 8am-5pm, Sat: 8am-3pm, Sun: Closed",,,
"Tulsa - Memorial Dr, OK Auto Maintenance and Repair Shop",048-09,1916 South Memorial Drive ,,Tulsa ,OK,74112,United States,(918) 627-8338,36.1346636,-95.8870398,"M-F: 8am - 6pm, Sat: 8am -5pm, Sun: Closed",,,
"Sumter, SC Auto Maintenance and Repair Shop",064-15,1098 Broad Street ,,Sumter ,SC,29150,United States,(803) 778-5426,33.951452,-80.3778619,"M-F: 8am - 6pm, Sat: 8am - 5pm, Sun: Closed",,,
"Summerville, SC Auto Maintenance and Repair Shop",064-09,1570 Old Trolley Road ,,Summerville ,SC,29485,United States,(843) 821-3301,32.966461,-80.168096,"M-F: 8am - 6pm, Sat: 8am -4pm, Sun: Closed",,,
"Sunnyvale - Wolfe Rd, CA Auto Maintenance and Repair Shop",155-28,135 North Wolfe Road # 10 ,,Sunnyvale ,CA,94086,United States,(408) 245-8863,37.3761085,-122.0145249,"M-F: 8am - 6pm, Sat: 8am - 5pm, Sun: Closed",,,
"Victoria, TX Auto Maintenance and Repair Shop",029-29,4703 North Navarro ,,Victoria ,TX,77904,United States,(361) 576-3447,28.838427,-97.002298,M-F: 8am - 5:30pm,,,
"Sunnyvale - El Camino Real, CA Auto Maintenance and Repair Shop",155-27,1004 West El Camino Real ,,Sunnyvale ,CA,94087,United States,(408) 733-3770,37.3714802,-122.0490711,"M-F: 8am - 6pm, Sat: 8am - 5pm, Sun: Closed",,,
"St. Paul, MN Auto Maintenance and Repair Shop",030-07,360 South Snelling Ave. ,,St. Paul ,MN,55105,United States,(651) 690-2740,44.930812,-93.1665979,"M-F: 7:30am - 5:30pm, Sat: 8:00am - 3pm, Sun: Closed",,,
"Wilson, NC Auto Maintenance and Repair Shop",055-16,2915 Raleigh Road Pkwy W ,,Wilson ,NC,27896,United States,(252) 234-7239,35.737443,-77.9561171,"M-F: 8am-6pm, Sat: 8am-5pm, Sun: Closed",,,
"Temple, TX Auto Maintenance and Repair Shop",029-32,4707 South 31st Street ,,Temple ,TX,76502,United States,(254) 791-8228,31.0556095,-97.3742737,"M-F: 8am - 6pm, Sat: 8am -6pm, Sun: Closed",,,
"Snellville, GA Auto Maintenance and Repair Shop",107-40,3160 A Main Street ,,Snellville ,GA,30078,United States,(770) 978-5108,33.8514709,-84.042974,"M-F: 8am - 6pm, Sat: 8am - 6pm, Sun: Closed",,,
"Spartanburg - Pine Street, SC Auto Maintenance and Repair Shop",064-37,799 North Pine Street ,,Spartanburg ,SC,29303,United States,(864) 583-0192,34.964483,-81.93025,"M-F: 8am - 6pm, Sat: 8am -5pm, Sun: Closed",,,
"Spring Lake Park, MN Auto Maintenance and Repair Shop",030-39,896 County Road 10 NE ,,Spring Lake Park ,MN,55434,United States,763-784-1405,45.123861,-93.248801,"M-F: 8am -6pm, Sat: 8am - 4pm, Sun: Closed",,,
"Smyrna, GA Auto Maintenance and Repair Shop",107-05,3218 S. Cobb Drive ,,Smyrna ,GA,30080,United States,(770) 435-9815,33.8743431,-84.5308818,"M-F: 8am - 6pm, Sat: 8am - 5pm, Sun: Closed",,,
"Shawnee, KS Auto Maintenance and Repair Shop",031-16,6040 Nieman Road ,,Shawnee ,KS,66203,United States,(913) 631-3714,39.018772,-94.7149249,"M-F: 8am - 6pm, Sat: 8am - 3pm, Sun: Closed",,,
"Silver Spring, MD Auto Maintenance and Repair Shop",072-23,8528 Piney Branch Road ,,Silver Spring ,MD,20901,United States,(301) 439-1240,38.999429,-76.994797,"M-F: 8am -6pm, Sat: 8am - 4pm",,,
"Springdale, AR Auto Maintenance and Repair Shop",048-08,2101 South Thompson Street ,,Springdale ,AR,72764,United States,(479) 750-2100,36.165254,-94.1430479,"M-F: 8am - 5:30pm, Sat: 8am -1pm, Sun: Closed",,,
"St. Joseph, MO Auto Maintenance and Repair Shop",031-20,2810 N. Belt Highway ,,St. Joseph ,MO,64506,United States,(816) 273-0049,39.7937032,-94.8121495,"M-F: 8am-6pm, Sat: 8am-3pm, Sun: Closed",,,
"Severna Park, MD Auto Maintenance and Repair Shop",050-19,409 Ritchie Highway ,,Severna Park ,MD,21146,United States,(410) 544-2713,39.08545,-76.552472,"M-F: 8am - 5pm, Sat: 8am - 4pm, Sun: Closed",,,
"Savannah, GA Auto Maintenance and Repair Shop",109-04,2012 East Victory Drive ,,Savannah ,GA,31404,United States,(912) 238-4030,32.0420509,-81.0655106,"M-F: 8am - 6pm, Sat: 8am - 5pm, Sun: Closed",,,
"San Jose - East, CA Auto Maintenance and Repair Shop",155-23,2295 Story Road ,,San Jose ,CA,95122,United States,(408) 923-8400,37.34703,-121.8329484,"M-F: 8am - 5:30pm, Sat: 8am - 5:30pm, Sun: Closed",,,
"San Jose - Midtown, CA Auto Maintenance and Repair Shop",155-25,1353 West San Carlos Street ,,San Jose ,CA,95126,United States,(408) 998-8863,37.3236511,-121.9127761,"M-F: 8am - 6pm, Sat: 8am - 6pm, Sun: Closed",,,
"Salt Lake City, UT Auto Maintenance and Repair Shop",033-19,2547 South State St. ,,Salt Lake City ,UT,84115,United States,(801) 935-4454,40.715143,-111.887786,"M-F: 8am-6pm, Sat: 8am-5pm, Sun: Closed",,,
"Salisbury, MD Auto Maintenance and Repair Shop",050-20,946 North Salisbury Blvd. ,,Salisbury ,MD,21801,United States,(410) 860-5150,38.3750069,-75.5926999,"M-F: 8am - 5pm, Sat: 8am -4pm, Sun: Closed",,,
"San Jose - Monterey Rd, CA Auto Maintenance and Repair Shop",155-21,4236 Monterey Road ,,San Jose ,CA,95111,United States,(408) 224-8950,37.2754115,-121.8324755,"M-F: 8am - 5pm, Sat: 8am - 5pm, Sun: 9am - 4pm",,,
"San Antonio, TX Auto Maintenance and Repair Shop",027-06,8415 McCullough Ave. ,,San Antonio ,TX,78216,United States,(210) 314-6962,29.51621,-98.492107,"M-F: 8am-6pm, Sat: 8am-4pm, Sun: Closed",,,
"Royal Oak, MI Auto Maintenance and Repair Shop",100-20,702 North Main Street ,,Royal Oak ,MI,48067,United States,(248) 545-5040,42.495159,-83.143962,"M-F: 8am - 6pm, Sat: 8am -3pm, Sun: Closed",,,
"Salinas, CA Auto Maintenance and Repair Shop",155-17,1299 N. Main Street ,,Salinas ,CA,93906,United States,(831) 443-4690,36.7015718,-121.6526673,"M-F: 8am - 6pm, Sat: 8am - 5pm, Sun: Closed",,,
"Rocky Mount, NC Auto Maintenance and Repair Shop",055-13,1200 North Wesleyan Blvd. ,,Rocky Mount ,NC,27804,United States,(252) 977-1300,35.975127,-77.802162,"M-F: 8am - 6pm, Sat: 8am - 5pm, Sun: Closed",,,
"Santa Clara, CA Auto Maintenance and Repair Shop",155-48,1805 El Camino Real ,,Santa Clara ,CA,95050,United States,(408) 246-9554,37.3528063,-121.9574435,"M-F: 8am - 5pm, Sat: 8am - 5pm, Sun: closed",,,
"Rosedale, MD Auto Maintenance and Repair Shop",050-04,8000 Pulaski Highway ,,Rosedale ,MD,21237,United States,(410) 391-5300,39.3193053,-76.5115503,"M-F: 8am - 6pm, Sat: 8am - 4pm, Sun: Closed",,,
"Roseville, MN Auto Maintenance and Repair Shop",030-01,1329 West Larpenteur Avenue ,,Roseville ,MN,55113,United States,(651) 646-6763,44.9920038,-93.1559454,"M-F: 8am - 6pm, Sat: 8am - 4pm, Sun: Closed",,,
"San Diego, CA Auto Maintenance and Repair Shop",230-25,3425 Midway Drive Suite B ,,San Diego ,CA,92110,United States,(619) 226-7822,32.750238,-117.212827,"M-F: 8am - 6pm, Sat: 8am - 5pm, Sun: 9am-4:30pm",,,
"San Mateo, CA Auto Maintenance and Repair Shop",155-31,435 East 3rd Ave ,,San Mateo ,CA,94401,United States,(650) 344-7656,37.56662,-122.321243,"M-F: 8:00am-5:00pm, Sat: 8:00am - 3:00pm, Sun: Closed",,,
"Randallstown, MD Auto Maintenance and Repair Shop",050-13,8701 Liberty Road ,,Randallstown ,MD,21133,United States,(410) 655-5151,39.3628956,-76.7830504,"M-F: 8am -5pm, Sat: 8am - 3pm, Sun: Closed",,,
"Raleigh - New Bern Ave, NC Auto Maintenance and Repair Shop",055-05,3944 New Bern Avenue ,,Raleigh ,NC,27610,United States,(919) 231-8863,35.798695,-78.569372,"M-F: 8am - 6pm, Sat: 8am - 5pm, Sun: Closed",,,
"Redwood City, CA Auto Maintenance and Repair Shop",155-40,1304 El Camino Real ,,Redwood City ,CA,94063,United States,(650) 369-6600,37.481778,-122.229684,"T-F: 8am - 6pm, Sat: 8am - 5pm, Sun-Mon: Closed",,,
"Renton, WA Auto Maintenance and Repair Shop",041-47,233 Sunset Blvd North ,,Renton ,WA,98057,United States,(425) 204-1111,47.4859948,-122.1962574,"M-F: 8am-5pm, Sat: 8am-3pm, Sun: Closed",,,
"Raleigh - Atlantic Ave, NC Auto Maintenance and Repair Shop",055-02,4808 Atlantic Avenue ,,Raleigh ,NC,27616,United States,(919) 872-8880,35.8501112,-78.601095,"M-F: 8am - 6pm, Sat: 8am - 5pm, Sun: Closed",,,
"Riverdale, GA Auto Maintenance and Repair Shop",107-41,6941 Hwy 85 suite2/3 ,,Riverdale ,GA,30274,United States,(770) 994-1411,33.565411,-84.413847,"M-F: 8am - 6pm, Sat: 8am- 4pm, Sun: Closed",,,
"Pineville, NC Auto Maintenance and Repair Shop",059-02,10515 B Centrum Parkway ,,Pineville ,NC,28134,United States,(704) 759-0393,35.089534,-80.876679,"M-F: 8am - 6pm, Sat: 8am - 5pm, Sun: Closed",,,
"Raleigh - Baileywick Rd, NC Auto Maintenance and Repair Shop",055-15,9009 Baileywick Road # 101 ,,Raleigh ,NC,27615,United States,(919) 518-8464,35.903249,-78.6555658,"M-F: 8am - 6pm, Sat: 8am - 5pm, Sun: Closed",,,
"Raleigh - Hillsborough St, NC Auto Maintenance and Repair Shop",055-07,5615 Hillsborough Street ,,Raleigh ,NC,27606,United States,(919) 851-0078,35.785928,-78.7217,"M-F: 8am - 6pm, Sat: 8am - 5pm, Sun: Closed",,,
"Rock Hill, SC Auto Maintenance and Repair Shop",064-13,2500 North Cherry Road ,,Rock Hill ,SC,29730,United States,(803) 366-5151,34.9696115,-80.9913696,"M-F: 8am - 6pm, Sat: 8am - 5pm, Sun: Closed",,,
"Pflugerville, TX Auto Maintenance and Repair Shop",029-33,2308 W. Pecan Street ,,Pflugerville ,TX,78660,United States,(512) 990-3836,30.44616,-97.6470181,"M-F: 8am - 5:30pm, Sat: 8am - 5pm, Sun: Closed",,,
"Richmond, VA Auto Maintenance and Repair Shop",043-32,4903 West Broad Street ,,Richmond ,VA,23230,United States,(804) 269-5374,37.581884,-77.494246,"M-F: 8am-6pm, Sat: 8am-4pm, Sun: Closed",,,
"Pensacola - Navy Blvd, FL Auto Maintenance and Repair Shop",024-27,636 North Navy Blvd ,,Pensacola ,FL,32507,United States,(850) 696-2975,30.3979282,-87.2768566,"M-F: 8am-6pm, Sat: 8am-4pm, Sun: Closed",,,
"Pensacola - Nine Mile Rd, FL Auto Maintenance and Repair Shop",024-10,35 East Nine Mile Road ,,Pensacola ,FL,32534,United States,(850) 477-7228,30.532535,-87.270326,"M-F: 8am - 6pm, Sat: 8am - 4pm, Sun: Closed",,,
"Port Arthur, TX Auto Maintenance and Repair Shop",022-07,5011 N Twin City Hwy. ,,Port Arthur ,TX,77642,United States,(409) 962-8600,29.938555,-93.939075,"M-F: 8am - 6pm, Sat: 8am - 4pm, Sun: Closed",,,
"Parkland - Spanaway, WA Auto Maintenance and Repair Shop",270-56,14926 Pacific Ave ,,Parkland ,WA,98444,United States,(253) 531-5881,47.120852,-122.43729,"M-F: 8:00am - 5pm, Sat: 8:00am - 4pm, Sun: Closed",,,
"Petersburg, VA Auto Maintenance and Repair Shop",043-31,34 S. Crater Road ,,Petersburg ,VA,23803,United States,(804) 732-1027,37.2301045,-77.3917513,"M-F: 8am-5pm, Sat: 8am-2pm, Sun: Closed",,,
"Pelham, AL Auto Maintenance and Repair Shop",056-17,98 Hilltop Business Center Dr ,,Pelham ,AL,35124,United States,Temporarily Closed,33.3355845,-86.791661,"M-F: 8am-6pm, Sat: 8am-4pm, Sun: Closed",,,
"Panama City, FL Auto Maintenance and Repair Shop",024-20,1214 Airport Road ,,Panama City ,FL,32405,United States,(850) 767-0444,30.1901683,-85.6790232,"M-F: 8am - 6pm, Sat: 8am - 4pm, Sun: Closed",,,
"Oklahoma City - S Western, OK Auto Maintenance and Repair Shop",057-04,8000 South Western ,,Oklahoma City ,OK,73139,United States,(405) 634-0001,35.387229,-97.529695,"M-F: 8am - 6pm, Sat: 8am - 5pm, Sun: Closed",,,
"Opelika, AL Auto Maintenance and Repair Shop",056-18,3798 Pepperell Pkwy ,,Opelika ,AL,36801,United States,(334) 745-6790,32.6323789,-85.4346295,"M-F: 8am-6pm, Sat: 8am-4pm, Sun: Closed",,,
"Oklahoma City - N Rockwell, OK Auto Maintenance and Repair Shop",057-05,10820 North Rockwell ,,Oklahoma City ,OK,73162,United States,(405) 722-5693,35.579261,-97.6379989,"M-F: 8am - 6pm, Sat: 7am-4pm, Sun: Closed",,,
"Pensacola - 9th Ave, FL Auto Maintenance and Repair Shop",024-25,6222 North 9th Ave ,,Pensacola ,FL,32504,United States,(850) 475-0946,30.487435,-87.197673,"M-F: 8am-6pm, Sat: 8am-4pm, Sun: Closed",,,
"North Little Rock, AR Auto Maintenance and Repair Shop",028-02,4630 John F. Kennedy Blvd. ,,North Little Rock ,AR,72116,United States,(501) 753-9841,34.7974529,-92.2554958,"M-F: 8am - 6pm, Sat: 8am - 4pm, Sun: Closed",,,
"Oklahoma City - N May Ave, OK Auto Maintenance and Repair Shop",057-03,6600 North May Avenue ,,Oklahoma City ,OK,73116,United States,(405) 607-6646,35.538573,-97.565381,"M-F: 8am-6pm, Sat: 8am-5pm, Sun: Closed",,,
"Perry Hall, MD Auto Maintenance and Repair Shop",050-22,8813 Belair Road ,,Baltimore ,MD,21236,United States,(410) 529-9340,39.394072,-76.4849739,"M-F: 8am - 6pm, Sat: 8am - 4pm, Sun: Closed",,,
"Oklahoma City - N Meridian Ave, OK Auto Maintenance and Repair Shop",057-01,2324 North Meridian Ave ,,Oklahoma City ,OK,73107,United States,(405) 943-2323,35.4924461,-97.6007618,"M-F: 8am - 6pm, Sat: 8am - 5pm, Sun: Closed",,,
"Newnan, GA Auto Maintenance and Repair Shop",107-35,130 Jefferson Street (at Bullsboro Drive) ,,Newnan ,GA,30263,United States,(770) 252-4755,33.3832639,-84.794646,"M-F: 8am - 6pm, Sat: 8am - 5pm, Sun: Closed",,,
"North Augusta, SC Auto Maintenance and Repair Shop",170-05,601 East Martintown Road ,,North Augusta ,SC,29841,United States,(803) 441-8863,33.4923378,-81.9547337,"M-F: 8:00am - 6pm, Sat: 8:00am - 4:30pm, Sun: Closed",,,
"Owings Mills, MD Auto Maintenance and Repair Shop",050-01,10604 Reisterstown Road ,,Owings Mills ,MD,21117,United States,(410) 356-9700,39.4225133,-76.78443,"M-F: 8am - 5:30, Sat: 7am - 3:30, Sun: Closed",,,
"Nashville - Murfreesboro Pk, TN Auto Maintenance and Repair Shop",028-15,2251 Murfreesboro Pike ,,Nashville ,TN,37217,United States,(615) 399-8863,36.087356,-86.650404,"M-F: 8am - 6pm, Sat: 8am - 2pm, Sun: Closed",,,
"Nashville - Charlotte Pk, TN Auto Maintenance and Repair Shop",028-03,5700 Charlotte Pike ,,Nashville ,TN,37209,United States,(615) 352-8863,36.149986,-86.859765,"M-F: 8am - 6pm, Sat: 7am - 4pm, Sun: Closed",,,
"Naranja, FL Auto Maintenance and Repair Shop",015-29,28580 South Dixie Hwy. ,,Naranja ,FL,33033,United States,(305) 248-1886,25.5016315,-80.44449,"M-F: 8am - 6pm, Sat: 8am -4pm, Sun: Closed",,,
"Nashville - Nolensville Pk, TN Auto Maintenance and Repair Shop",028-10,3813 Nolensville Pike ,,Nashville ,TN,37211,United States,(615) 834-8863,36.087235,-86.7312,"M-F: 7:45am - 6pm, Sat: 7am - 3pm, Sun: Closed",,,
"New Hope, MN Auto Maintenance and Repair Shop",030-23,5600 Winnetka Avenue North ,,New Hope ,MN,55428,United States,(763) 533-3903,45.0549626,-93.3799282,"M-F: 8am - 6pm, Sat: 8am - 4pm, Sun: Closed",,,
"Murrieta, CA Auto Maintenance and Repair Shop",230-26,26586 Jefferson Ave ,,Murrieta ,CA,92562,United States,(951) 696-0494,33.5325106,-117.1776225,"M-F: 8am-5pm, Sat: 8am-4pm, Sun: Closed",,,
"Murray, UT Auto Maintenance and Repair Shop",033-18,5851 South State St ,,Murray ,UT,84107,United States,(801) 747-0145,40.644149,-111.888366,"M-F: 8am - 6pm, Sat: 8am - 5pm, Sun: Closed",,,
"Plymouth, MN Auto Maintenance and Repair Shop",030-22,15600 34th Avenue North ,,Plymouth ,MN,55447,United States,(763) 559-1149,45.019835,-93.478172,"M-F: 8am - 6pm, Sat: 8am - 4pm, Sun: Closed",,,
"Newport News, VA Auto Maintenance and Repair Shop",043-30,12477 Jefferson Ave ,,Newport News ,VA,23602,United States,(757) 877-7170,37.124564,-76.509787,"M-F: 8am-6pm, Sat: 8am-4pm, Sun: Closed",,,
"Phenix City, AL Auto Maintenance and Repair Shop",021-12,3607 US Hwy 431 N ,,Phenix City ,AL,36867,United States,(334) 291-3373,32.5027211,-85.0494774,"M-F: 7:30 am-5:30 pm, Sat: 7:30 am-4 pm, Sun: Closed",,,
"Myrtle Beach, SC Auto Maintenance and Repair Shop",064-17,150 Rodeo Drive ,,Myrtle Beach ,SC,29579,United States,(843) 236-3889,33.7454453,-78.957434,"M-F: 8am -6pm, Sat: 8am - Noon, Sun: Closed",,,
"Mooresville, NC Auto Maintenance and Repair Shop",059-22,312 W. Plaza Drive ,,Mooresville ,NC,28117,United States,(704) 799-0874,35.593361,-80.852006,"M-F: 8am - 6pm, Sat: 8am - 5pm, Sun: Closed",,,
"Murfreesboro, TN Auto Maintenance and Repair Shop",028-28,1804 Memorial Blvd ,,Murfreesboro ,TN,37129,United States,(615) 904-7700,35.8716233,-86.3852695,"M-F: 7:30am-5pm, Sat: 7:30am-2pm, Sun: Closed",,,
"Mobile - Hillcrest Rd, AL Auto Maintenance and Repair Shop",024-22,1230 Hillcrest Road ,,Mobile ,AL,36695,United States,(251) 607-9997,30.6621434,-88.1907118,"M-F: 8am - 6pm, Sat: 8am - 4pm, Sun: Closed",,,
"Minneapolis - East Lake St, MN Auto Maintenance and Repair Shop",030-14,3232 East Lake Street ,,Minneapolis ,MN,55406,United States,(612) 721-3303,44.9483892,-93.2250446,"M-F: 7:30-6pm, Sat: 9am-5pm, Sun: Closed",,,
"Mobile - Government Blvd, AL Auto Maintenance and Repair Shop",024-26,2852 Government Blvd. ,,Mobile ,AL,36606,United States,(251) 476-2409,30.659709,-88.110963,"M-F: 8am-6:00pm, Sat: 8am-4:00pm, Sun: Closed",,,
"Morgan Hill, CA Auto Maintenance and Repair Shop",155-22,16860 Monterey Road ,,Morgan Hill ,CA,95037,United States,(408) 779-7200,37.1234808,-121.6489546,"M-F: 8am - 5pm, Sat: 8am -5pm, Sun: 9am-4pm",,,
"Montgomery Village, MD Auto Maintenance and Repair Shop",072-52,19398 Montgomery Village Ave ,,Montgomery Village ,MD,20886,United States,(301) 840-1148,39.173989,-77.204066,"M-F: 8am-5:30pm, Sat: 8am-3pm, Sun: Closed",,,
"Midwest City, OK Auto Maintenance and Repair Shop",057-07,6930 E Reno Ave ,,Midwest City ,OK,73110,United States,405-610-6863,35.464111,-97.406608,"M-F: 8am - 6pm Sat: 8am - 5pm, Sun: Close",,,
"McDonough, GA Auto Maintenance and Repair Shop",107-45,273 Jonesboro Rd ,,McDonough ,GA,30253,United States,(770) 302-0091,33.4530039,-84.1671184,"M-F: 8am-6pm, Sat: 8am-4pm, Sun: Closed",,,
"Martinez, GA Auto Maintenance and Repair Shop",170-02,3904 Washington Rd ,,Martinez ,GA,30907,United States,(706) 364-8853,33.510095,-82.095844,"M-F: 8:00am - 6pm, Sat: 8:00am - 4:30pm, Sun: Closed",,,
"Marysville, WA Auto Maintenance and Repair Shop",041-38,9113 State Avenue ,,Marysville ,WA,98270,United States,(360) 653-1650,48.07866,-122.175193,"M-F: 8am - 5:30pm, Sat: 8am - 5pm, Sun: Closed",,,
"Marietta - Cobb Pkwy, GA Auto Maintenance and Repair Shop",107-04,1775 Cobb Pkwy S Ste A ,,Marietta ,GA,30060,United States,(770) 953-8953,33.909568,-84.492551,"M-F: 8am - 6pm, Sat: 8am - 4pm, Sun: Closed",,,
"Marietta - Austell Rd, GA Auto Maintenance and Repair Shop",107-37,3700 Austell Road ,,Marietta ,GA,30008,United States,(770) 794-9994,33.863465,-84.596551,"M-F: 8am-6pm, Sat: 8am-4pm, Sun: Closed",,,
"Manassas Park, VA Auto Maintenance and Repair Shop",072-40,8405 Centreville Road ,,Manassas Park ,VA,20111,United States,(703) 361-3880,38.773076,-77.451594,"M-F: 8am - 6pm, Sat: 8am - 4pm, Sun: Closed",,,
"Maple Grove, MN Auto Maintenance and Repair Shop",030-32,13360 Grove Drive ,,Maple Grove ,MN,55369,United States,(763) 494-9595,45.103303,-93.450224,"M-F: 8am - 6pm, Sat: 8am - 3pm, Sun: Closed",,,
"Minneapolis - SW/Edina, MN Auto Maintenance and Repair Shop",030-02,5353 France Avenue South ,,Minneapolis ,MN,55410,United States,(612) 927-7620,44.905507,-93.328616,"M-F: 7:30am - 5:30pm, Sat: 7:30am - 4pm, Sun: Closed",,,
"Macon - University Dr, GA Auto Maintenance and Repair Shop",021-03,3240 Mercer University Drive ,,Macon ,GA,31204,United States,(478) 750-0916,32.8229249,-83.6830222,"M-F: 8am - 6pm, Sat: 8am - 4pm, Sun: Closed",,,
"Macon - Gray Hwy, GA Auto Maintenance and Repair Shop",021-09,909 Gray Highway ,,Macon ,GA,31211,United States,(478) 722-5771,32.8528329,-83.618799,"M-F: 8am-6pm, Sat: 8am-4pm, Sun: Closed",,,
"Margate, FL Auto Maintenance and Repair Shop",015-14,151 North State Road 7 ,,Margate ,FL,33063,United States,(954) 970-4996,26.231839,-80.20509,"M-F: 8am - 6pm, Sat: 8am - 3pm, Sun: Closed",,,
"Lynnwood, WA Auto Maintenance and Repair Shop",041-37,19610 44th Avenue West Suite A ,,Lynnwood ,WA,98036,United States,(425) 771-8863,47.820616,-122.292787,"M-F: 8:00am - 5:30pm, Sat: 8am - 5pm, Sun: Closed",,,
"Little Rock - Asher Ave, AR Auto Maintenance and Repair Shop",028-01,5401 Asher Avenue ,,Little Rock ,AR,72204,United States,(501) 568-5615,34.719215,-92.334029,"M-F: 8am - 6pm, Sat: 8am - 4pm, Sun: Closed",,,
"Mableton, GA Auto Maintenance and Repair Shop",107-21,1200 Veterans Memorial Highway ,,Mableton ,GA,30126,United States,(770) 948-6655,33.817188,-84.589952,"M-F: 8am - 6pm, Sat: 8am - 4pm, Sun: Closed",,,
"Lilburn, GA Auto Maintenance and Repair Shop",107-36,416 Pleasant Hill Road ,,Lilburn ,GA,30047,United States,(770) 279-7900,33.9082041,-84.1119475,"M-F: 8am - 6pm, Sat: 8am - 5pm, Sun: Closed",,,
"Lexington Park, MD Auto Maintenance and Repair Shop",050-26,22440 Three Notch Road ,,Lexington Park ,MD,20653,United States,(301) 863-3800,38.283279,-76.471896,"M-F: 8am - 5pm, Sat: 8am - 4pm, Sun: Closed",,,
"Little Rock - West, AR Auto Maintenance and Repair Shop",028-12,11301 West Markham Street ,,Little Rock ,AR,72211,United States,(501) 221-7151,34.753354,-92.399986,"M-F: 8am - 6pm, Sat: 8am - 4pm, Sun: Closed",,,
"Lawrenceville, GA Auto Maintenance and Repair Shop",107-11,350 West Pike Street ,,Lawrenceville ,GA,30046,United States,(770) 962-0071,33.957194,-83.997422,"M-F: 8am - 6pm, Sat: 8am - 5pm, Sun: Closed",,,
"Lino Lakes, MN Auto Maintenance and Repair Shop",030-40,550 Lilac Street ,,Lino Lakes ,MN,55014,United States,(651) 784-1100,45.1821574,-93.1141071,"M-F: 8am - 6pm, Sat: 8am - 4pm, Sun: Closed",,,
"Lauderhill, FL Auto Maintenance and Repair Shop",015-35,6450 W. Commercial Blvd. ,,Lauderhill ,FL,33319,United States,(954) 747-9907,26.1936458,-80.2370606,"M-F: 8am - 5:30pm, Sat: 8am - 4pm, Sun: Closed",,,
"Lakewood, WA Auto Maintenance and Repair Shop",270-48,7701 Steilacoom Blvd. SW Ste 6 ,,Lakewood ,WA,98498,United States,(253) 581-2443,47.179589,-122.539979,"M-F: 8am - 5pm, Sat: 8am - 4pm, Sun: Closed",,,
"Mount Pleasant, SC Auto Maintenance and Repair Shop",064-21,1703 Highway 17 North ,,Mount Pleasant ,SC,29464,United States,(843) 849-8050,32.8664095,-79.7842604,"M-F: 8am - 6pm, Sat: 8am - 4pm, Sun: Closed",,,
"Lexington, SC Auto Maintenance and Repair Shop",064-38,603-B Columbia Avenue ,,Lexington ,SC,29072,United States,(803) 356-8433,33.990081,-81.236577,"M-F: 8am - 6pm, Sat: 8am - 5pm, Sun: Closed",,,
"Knoxville - North Broadway, TN Auto Maintenance and Repair Shop",028-06,4710 North Broadway ,,Knoxville ,TN,37918,United States,(865) 688-7470,36.0212077,-83.9234098,"M-F: 8am - 6pm, Sat: 7am - 4pm, Sun: Closed",,,
"Milpitas, CA Auto Maintenance and Repair Shop",155-47,1630 S. Main Street ,,Milpitas ,CA,95035,United States,(408) 582-0120,37.4070383,-121.9027435,"M-F: 8am - 5pm, Sat: 8am - 5pm, Sun: Closed",,,
"Lake Charles, LA Auto Maintenance and Repair Shop",025-21,3224 Ryan Street ,,Lake Charles ,LA,70601,United States,(337) 436-2128,30.198394,-93.219008,"M-F: 7:30am-5pm, Sat: 8am -12pm, Sun: Closed",,,
"Killeen - Clear Creek, TX Auto Maintenance and Repair Shop",029-42,4215 S. Clear Creek Rd ,,Killeen ,TX,76549,United States,(254) 432-6114,31.0979872,-97.805489,"M-F: 8am -6pm, Sat: 8am - 6pm, Sun: Closed",,,
"Kearns, UT Auto Maintenance and Repair Shop",033-17,4202 West 5415 South ,,Kearns ,UT,84118,United States,(801) 957-1700,40.653062,-111.991341,"M-F: 8am - 6pm, Sat: 8am - 5pm, Sun: Closed",,,
"Morrisville/Cary, NC Auto Maintenance and Repair Shop",055-18,100 Lattner Ct ,,Morrisville ,NC,27560,United States,(919) 234-6557,35.8307989,-78.8531633,"M-F: 8am-6pm, Sat: 8am-5pm, Sun: Closed",,,
"Knoxville - Bearden, TN Auto Maintenance and Repair Shop",028-11,5715 Kingston Pike ,,Knoxville ,TN,37919,United States,(865) 584-0757,35.934489,-83.996969,"M-F: 8am - 6pm, Sat: 7am - 4pm, Sun: Closed",,,
"Killeen, TX Auto Maintenance and Repair Shop",029-22,1305 West Central Texas Expy ,,Killeen ,TX,76541,United States,(254) 634-8228,31.1108972,-97.7496593,"M-F: 8am - 6pm, Sat: 8am -6pm, Sun: Closed",,,
"Jacksonville - San Jose Blvd, FL Auto Maintenance and Repair Shop",020-05,9962 San Jose Blvd. ,,Jacksonville ,FL,32257,United States,(904) 268-4010,30.19697,-81.622398,"M-F: 8am-6pm, Sat: 8am-4pm, Sun: Closed",,,
"Jacksonville - Lem Turner Rd, FL Auto Maintenance and Repair Shop",024-28,7430 Lem Turner Road ,,Jacksonville ,FL,32208,United States,(904) 379-9259,30.386869,-81.677042,"M-F: 8am-6pm, Sat: 8am-5pm, Sun: Closed",,,
"Johnson City, TN Auto Maintenance and Repair Shop",064-26,1705 West State of Franklin Rd ,,Johnson City ,TN,37604,United States,(423) 926-9500,36.3022215,-82.3759805,"M-F: 8am - 6pm, Sat: 8am - 4pm, Sun: Closed",,,
"Jonesboro, AR Auto Maintenance and Repair Shop",028-24,4614 South Stadium Blvd ,,Jonesboro ,AR,72404,United States,(870) 931-8889,35.786386,-90.669075,"M-F: 8am - 6pm, Sat: 8am - 5pm, Sun: Closed",,,
"Hunt Valley, MD Auto Maintenance and Repair Shop",050-12,11015 York Road ,,Hunt Valley ,MD,21030,United States,(410) 628-0060,39.487945,-76.646496,"M-F: 8am - 6pm, Sat: 8am - 4pm, Sun: Closed",,,
"Huber Heights, OH Auto Maintenance and Repair Shop",060-17,5939 Brandt Pike ,,Huber Heights ,OH,45424,United States,(937) 237-8623,39.839453,-84.1181346,"M-F: 8am- 6pm, Sat: 8am-4pm, Sun: closed",,,
"Las Vegas, NV Auto Maintenance and Repair Shop",039-11,8879 S. Eastern Ave ,,Las Vegas ,NV,89123,United States,(702) 364-8326,36.0281716,-115.1190897,"M-F: 8am-6pm, Sat: 8am-4pm, Sun: Closed",,,
"Jonesboro, GA Auto Maintenance and Repair Shop",107-48,714 Veterans Parkway ,,Jonesboro ,GA,30238,United States,(770) 603-9197,33.525391,-84.364017,"M-F: 8am - 6pm, Sat: 8am -4pm, Sun: Closed",,,
"Knoxville - Farragut, TN Auto Maintenance and Repair Shop",028-16,10740 Kingston Pike ,,Knoxville ,TN,37934,United States,(865) 777-0014,35.893969,-84.139762,"M-F: 8am - 6pm, Sat: 7am - 4pm, Sun: Closed",,,
"High Point - Precision Way, NC Auto Maintenance and Repair Shop",059-20,4105 Precision Way ,,High Point ,NC,27265,United States,(336) 841-7682,36.029054,-79.962857,"M-F: 8am - 6pm, Sat: 8am - 5pm, Sun: Closed",,,
"High Point - South Main St, NC Auto Maintenance and Repair Shop",059-19,2610 South Main Street ,,High Point ,NC,27263,United States,(336) 883-8863,35.927489,-79.987744,"M-F: 8am - 6pm, Sat: 8am - 5pm, Sun: Closed",,,
"Hickory, NC Auto Maintenance and Repair Shop",059-12,1967 Highway 70 Southeast ,,Hickory ,NC,28602,United States,(828) 324-5151,35.7062033,-81.3030394,"M-F: 8am - 6pm, Sat: 8am - 5pm, Sun: Closed",,,
"Irmo, SC Auto Maintenance and Repair Shop",064-27,1162 Lake Murray Blvd. ,,Irmo ,SC,29063,United States,(803) 749-2790,34.0874893,-81.1803504,"M-F: 8am - 6pm, Sat: 8am - 5pm, Sun: Closed",,,
"Hendersonville, NC Auto Maintenance and Repair Shop",064-16,851 Spartanburg Highway ,,Hendersonville ,NC,28792,United States,(828) 697-1162,35.305768,-82.450205,"M-F: 8am - 6pm, Sat: 8am - 3pm, Sun: Closed",,,
"Jacksonville, NC Auto Maintenance and Repair Shop",055-09,465 Western Blvd. ,,Jacksonville ,NC,28546,United States,(910) 455-8863,34.7744519,-77.389888,"M-F: 8am - 6pm, Sat: 8am - 5pm, Sun: Closed",,,
"Hayes, VA Auto Maintenance and Repair Shop",043-29,3641 George Washington Memorial Hwy ,,Hayes ,VA,23072,United States,(804) 642-2886,37.307428,-76.5093459,"M-F: 8am - 5pm, Sat: 8am - 4pm, Sun: Closed",,,
"Harrisonburg, VA Auto Maintenance and Repair Shop",043-33,1871 South Main Street ,,Harrisonburg ,VA,22801,United States,(540) 433-2792,38.4248989,-78.8892286,"M-F: 8:00am-5:30pm, Sat: 8am-2pm, Sun: Closed",,,
"Gulfport, MS Auto Maintenance and Repair Shop",024-23,2510 25th Avenue ,,Gulfport ,MS,39501,United States,(228) 575-3484,30.3811053,-89.09274,"M-F: 8am - 6pm, Sat: 8am - 4pm, Sun: Closed",,,
"Greenwood, SC Auto Maintenance and Repair Shop",064-28,405 Bypass 72 Northwest ,,Greenwood ,SC,29649,United States,(864) 229-0404,34.209877,-82.180434,"M-F: 8am - 6pm, Sat: 8am -5pm, Sun: Closed",,,
"Hanover, PA Auto Maintenance and Repair Shop",093-07,55 Eisenhower Drive ,,Hanover ,PA,17331,United States,(717) 630-2397,39.823497,-76.996409,"M-F: 8am - 6pm, Sat: 8am - 3pm, Sun: Closed",,,
"Greenville - Woodruff Rd, SC Auto Maintenance and Repair Shop",064-36,1629 Woodruff Road ,,Greenville ,SC,29607,United States,(864) 676-9916,34.819728,-82.2745599,"M-F: 8am - 6pm, Sat: 8am -5pm, Sun: Closed",,,
"Greensboro - Randleman Rd, NC Auto Maintenance and Repair Shop",059-11,2349 Randleman Road ,,Greensboro ,NC,27406,United States,(336) 379-8863,36.039745,-79.799955,"M-F: 8am - 6pm, Sat: 8am - 5pm, Sun: Closed",,,
"Gulf Breeze, FL Auto Maintenance and Repair Shop",024-19,3172 Gulf Breeze Parkway ,,Gulf Breeze ,FL,32563,United States,(850) 932-3242,30.386561,-87.091631,"M-F: 8am - 5pm, Sat: 8am - 1pm, Sun: Closed",,,
"Houston, TX - Energy Corridor, TX Auto Maintenance and Repair Shop",022-09,2620 South Dairy Ashford Road ,,Houston ,TX,77082,United States,281-556-8863,29.735271,-95.606345,"M-F: 8am - 6pm, Sat: 8am - 4pm, Sun: Closed",,,
"Houston, TX - Copperfield, TX Auto Maintenance and Repair Shop",022-10,15750 FM 529 ,,Houston ,TX,77095,United States,(346) 978-5226,29.87956,-95.647424,"M-F: 8am - 6pm, Sat: 8am - 4pm, Sun: Closed",,,
"Independence, MO Auto Maintenance and Repair Shop",031-04,11301 E. 23rd St S ,,Independence ,MO,64052,United States,(816) 252-1125,39.079988,-94.444018,"M-F: 8am - 5pm, Sat: 8am - 1pm, Sun: Closed",,,
"Gilroy, CA Auto Maintenance and Repair Shop",155-51,8390 Swanston Lane ,,Gilroy ,CA,95020,United States,(408) 847-7595,37.0199926,-121.5723602,"M-F: 8am -6pm, Sat: 8am - 5pm, Sun: Closed",,,
"Goldsboro, NC Auto Maintenance and Repair Shop",055-10,602 North Spence Ave. ,,Goldsboro ,NC,27534,United States,(919) 751-1993,35.3784428,-77.9468188,"M-F: 8am - 6pm, Sat: 8am - 5pm, Sun: Closed",,,
"Govans, MD Auto Maintenance and Repair Shop",050-27,5700 York Road ,,Baltimore ,MD,21212,United States,(410) 435-9100,39.359426,-76.610328,"M-F: 8am - 5pm, Sat: 7am - 3pm, Sun: Closed",,,
"Greensboro - Battleground Ave, NC Auto Maintenance and Repair Shop",059-14,3730 A Battleground Avenue ,,Greensboro ,NC,27410,United States,(336) 288-8863,36.1304588,-79.8546121,"M-F: 8am - 6pm, Sat: 8am - 5pm, Sun: Closed",,,
"Gastonia, NC Auto Maintenance and Repair Shop",059-05,1505 East Franklin Blvd. ,,Gastonia ,NC,28054,United States,(704) 867-2467,35.2621654,-81.1538598,"M-F: 8am - 6pm, Sat: 8am - 5pm, Sun: Closed",,,
"Gig Harbor, WA Auto Maintenance and Repair Shop",270-27,4802 Point Fosdick Drive NW ,,Gig Harbor ,WA,98335,United States,(253) 851-7101,47.3016982,-122.5793147,"M-F: 8:30am - 5:30pm, Sat: 8:30am - 4:30pm, Sun: Closed",,,
"Gainesville, GA Auto Maintenance and Repair Shop",107-26,1405 Browns Bridge Road SW ,,Gainesville ,GA,30501,United States,(770) 287-9430,34.2863,-83.840044,"M-F: 8am - 6pm, Sat: 8am - 4pm, Sun: Closed",,,
"Fremont, CA Auto Maintenance and Repair Shop",155-33,4299 Peralta Blvd. ,,Suite A-D Fremont ,CA,94536,United States,(510) 713-8863,37.5551812,-122.0096203,"M-F: 8:30am - 5:00pm, Sat: 8am - 5:00pm, Sun",,,
"Greenville - Pleasantburg, SC Auto Maintenance and Repair Shop",064-34,1465 N. Pleasantburg Drive ,,Greenville ,SC,29607,United States,(864) 322-5214,34.877784,-82.360214,"M-F: 8am - 6pm, Sat: 8am -5pm, Sun: Closed",,,
"Garner - Small Pine Dr, NC Auto Maintenance and Repair Shop",055-01,119 Small Pine Dr ,,Raleigh ,NC,27603,United States,(919) 661-1868,35.718122,-78.654186,"M-F: 8am - 6pm, Sat: 8am - 5pm, Sun: Closed",,,
"Fort Walton Beach, FL Auto Maintenance and Repair Shop",024-07,635 N. Eglin Parkway ,,Fort Walton Beach ,FL,32547,United States,(850) 864-1100,30.4405739,-86.5976849,"M-F: 8am - 6pm, Sat: 8am - 4pm, Sun: Closed",,,
"Frederick, MD Auto Maintenance and Repair Shop",050-25,5831 Buckeystown Pike ,,Frederick ,MD,21704,United States,(301) 620-9364,39.395397,-77.4083239,"M-F: 8am - 6pm, Sat: 8am - 4pm, Sun: Closed",,,
"Fort Worth, TX Auto Maintenance and Repair Shop",019-14,3809 Altamesa Blvd. ,,Fort Worth ,TX,76133,United States,(817) 294-9648,32.6503179,-97.3748455,"M-F: 8am - 6pm, Sat: 8am - 5pm, Sun: Closed",,,
"Fort Myer, VA Auto Maintenance and Repair Shop",072-54,452 Pershing Drive ,,Fort Myer ,VA,22211,United States,(703) 662-9270,38.874972,-77.079668,"M-F: 7:30am - 6pm, Sat: 8am - 4pm, Sun: Closed",,,
"Forest Park, GA Auto Maintenance and Repair Shop",107-19,4772 Jonesboro Road ,,Forest Park ,GA,30297,United States,(404) 361-1383,33.624382,-84.354017,"M-F: 8am - 6pm, Sat: 8am - 4pm, Sun: Closed",,,
"Florence, SC Auto Maintenance and Repair Shop",064-14,615 Pamplico Highway ,,Florence ,SC,29505,United States,(843) 667-9365,34.1625299,-79.757324,"M-F: 8am - 6pm, Sat: 8am - 4pm, Sun: Closed",,,
"Fort Lee, VA Auto Maintenance and Repair Shop",043-36,Building 1630 A Ave & 6th Street ,,Fort Lee ,VA,23801,United States,(804) 324-7822,37.250018,-77.329401,"M-F: 6am - 6pm, Sat: 7am -4pm, Sun: Closed",,,
"Greenville, NC Auto Maintenance and Repair Shop",055-11,124 Greenville Blvd SE ,,Greenville ,NC,27858,United States,(252) 756-2800,35.578208,-77.3798595,"M-F: 8am - 6pm, Sat: 8am - 5pm, Sun: Closed",,,
"Gardenville, MD Auto Maintenance and Repair Shop",050-03,5529 Belair Road ,,Baltimore ,MD,21206,United States,(410) 483-3222,39.3404697,-76.5481926,"M-F: 7:30am - 5pm, Sat: 7am - 3pm, Sun: Closed",,,
"Englewood, OH Auto Maintenance and Repair Shop",060-23,591 S Main Street ,,Englewood ,OH,45322,United States,(937) 771-0140,39.869768,-84.295301,"M-F: 8am-6pm, Sat: 8am-4pm, Sun: Closed",,,
"Everett, WA Auto Maintenance and Repair Shop",041-46,420 S.W. Everett Mall Way ,,Everett ,WA,98204,United States,(425) 290-8855,47.9047761,-122.2401804,"M-F: 8am - 6pm, Sat: 8am - 5pm, Sun: Closed",,,
"El Cajon, CA Auto Maintenance and Repair Shop",230-07,1191 East Main Street ,,El Cajon ,CA,92021,United States,(619) 441-8888,32.794817,-116.940458,"M-F: 8am - 6pm, Sat: 8am - 5pm, Sun: 8am - 4pm",,,
"Fargo, ND Auto Maintenance and Repair Shop",030-37,2101 University Dr S ,,Fargo ,ND,58103,United States,(701) 461-7313,46.8462721,-96.79938,"M-F: 8am- 6pm, Sat: 8am -Noon, Sun: Closed",,,
"Elk River, MN Auto Maintenance and Repair Shop",030-34,18850 Dodge Street North ,,Elk River ,MN,55330,United States,(763) 274-2601,45.3130349,-93.5570796,"M-F: 7:30am - 6pm, Sat: 8am - 3pm, Sun: Closed",,,
"Eagle Pass, TX Auto Maintenance and Repair Shop",029-34,2137 Garrison ,,Eagle Pass ,TX,78852,United States,(830) 758-0701,28.7062286,-100.4852226,"M-F: 8:30am - 6pm, Sat: 8:30am- 3pm, Sun: Closed",,,
"Edmond, OK Auto Maintenance and Repair Shop",057-02,12 West 33rd Street ,,Edmond ,OK,73013,United States,(405) 478-8863,35.6232336,-97.4873648,"M-F: 8am - 6pm, Sat: 8am - 5pm, Sun: Closed",,,
"Greensboro - West Market St, NC Auto Maintenance and Repair Shop",059-17,5215 West Market Street ,,Greensboro ,NC,27409,United States,(336) 855-8863,36.069921,-79.881852,"M-F: 8am - 6pm, Sat: 8am - 5pm, Sun: Closed",,,
"Durham - Chapel Hill Blvd, NC Auto Maintenance and Repair Shop",055-04,3910 Chapel Hill Blvd. ,,Durham ,NC,27707,United States,(919) 493-0880,35.9705239,-78.9552897,"M-F: 8am - 6pm, Sat: 8am - 5pm, Sun: Closed",,,
"District Heights, MD Auto Maintenance and Repair Shop",072-53,6201 Marlboro Pike ,,District Heights ,MD,20747,United States,(240) 619-5480,38.855022,-76.900832,"M-F: 8am-5pm, Sat: 8am-4pm, Sun: Closed",,,
"Duluth, GA Auto Maintenance and Repair Shop",107-18,3535 Satellite Blvd. ,,Duluth ,GA,30096,United States,(770) 476-1078,33.96049,-84.133231,"M-F: 8am - 6pm, Sat: 8am - 5pm, Sun: Closed",,,
"Durham - Highway 54, NC Auto Maintenance and Repair Shop",055-03,2105 East N.C Hwy 54 Suite 1 ,,Durham ,NC,27713,United States,(919) 544-9600,35.902713,-78.894925,"M-F: 7:30am - 5:30pm, Sat: 7:30am - 4pm, Sun: Closed",,,
"Delray Beach, FL Auto Maintenance and Repair Shop",015-28,1 Linton Blvd Unit 1 ,,Delray Beach ,FL,33444,United States,(561) 278-7979,26.4400649,-80.0744293,"M-F: 7:30am - 5:30pm, Sat: 7:30am -3:30pm, Sun: Closed",,,
"Edgewood, MD Auto Maintenance and Repair Shop",050-17,1812 Pulaski Hwy Suite Y ,,Edgewood ,MD,21040,United States,(410) 679-9340,39.435587,-76.318672,"M-F: 8am - 5pm, Sat: 8am -3pm, Sun: Closed",,,
"Decatur - Lawrenceville Hwy, GA Auto Maintenance and Repair Shop",107-14,2145 Lawrenceville Highway ,,Decatur ,GA,30033,United States,(404) 325-8863,33.80973,-84.272814,"M-F: 8am - 6pm, Sat: 8am - 4pm, Sun: Closed",,,
"Decatur, AL Auto Maintenance and Repair Shop",056-05,2334 6th Avenue SE ,,Decatur ,AL,35601,United States,(256) 350-8400,34.564811,-86.972623,"M-F: 8am - 6pm, Sat: 8am - 4pm, Sun: Closed",,,
"Douglasville, GA Auto Maintenance and Repair Shop",107-29,5837 Stewart Parkway ,,Douglasville ,GA,30135,United States,(770) 942-1991,33.718214,-84.768061,"M-F: 8am - 6pm, Sat: 8am - 4pm, Sun: Closed",,,
"Detroit, MI Auto Maintenance and Repair Shop",100-10,8113 West 8 Mile Road ,,Detroit ,MI,48221,United States,(313) 863-0511,42.4456335,-83.1526785,"M-F: 8am - 5pm, Sat: 8am - 3pm, Sun: Closed",,,
"Daphne, AL Auto Maintenance and Repair Shop",024-16,1106 US Highway 98 ,,Daphne ,AL,36526,United States,(251) 621-1414,30.594412,-87.8973369,"M-F: 7:30am - 6pm, Sat: 7:30am - 4pm, Sun: Closed",,,
"Dallas - Central Exp, TX Auto Maintenance and Repair Shop",019-01,11632 N. Central Expressway ,,Dallas ,TX,75243,United States,(214) 352-8067,32.9080011,-96.7685246,"M-F: 8am - 6pm, Sat: 8am - 5pm, Sun: Closed",,,
"Crestview, FL Auto Maintenance and Repair Shop",024-21,1200 South Ferdon Blvd. Bldg 7 ,,Crestview ,FL,32536,United States,(850) 689-1415,30.7476746,-86.5639327,"M-F: 8am -6pm, Sat: 8am -4pm, Sun: Closed",,,
"Culpeper, VA Auto Maintenance and Repair Shop",043-28,16448 Brandy Road ,,Culpeper ,VA,22701,United States,(540) 825-7109,38.487212,-77.944305,"M-F: 8am-5:30pm, Sat: 8am-4pm",,,
"Coral Springs, FL Auto Maintenance and Repair Shop",015-05,11900 Wiles Road ,,Coral Springs ,FL,33076,United States,(954) 753-0700,26.286986,-80.286272,"M-F: 8am - 5pm, Sat: 8am - 3pm, Sun: Closed",,,
"Copperas Cove, TX Auto Maintenance and Repair Shop",029-38,160 West Highway 190 ,,Copperas Cove ,TX,76522,United States,(254) 518-8229,31.1009292,-97.8924537,"M-F: 8am - 6pm, Sat: 8am - 6pm, Sun: Closed",,,
"Decatur - Wesley Chapel Rd, GA Auto Maintenance and Repair Shop",107-46,2740 Wesley Chapel Rd ,,Decatur ,GA,30034,United States,(404) 565-2453,33.7070615,-84.2179407,"M-F: 8am-6pm, Sat: 8am-4pm, Sun: Closed",,,
"Charleston, SC Auto Maintenance and Repair Shop",064-03,487 St. Andrews Blvd ,,Charleston ,SC,29407,United States,(843) 763-0267,32.781034,-79.973374,"M-F: 8am - 6pm, Sat: 8am - 4pm, Sun: Closed",,,
"Dayton, OH Auto Maintenance and Repair Shop",060-14,4439 N. Main Street ,,Dayton ,OH,45405,United States,(937) 274-8863,39.8077442,-84.2242439,"M-F: 7:30am -5pm, Sat: 7:30am - 2pm, Sun: Closed",,,
"Charlotte - North Tryon St, NC Auto Maintenance and Repair Shop",059-06,7928 North Tryon Street ,,Charlotte ,NC,28262,United States,(704) 510-1588,35.296793,-80.754085,"M-F: 8am - 6pm, Sat: 8am - 5pm, Sun: Closed",,,
"Charlotte - Albemarle Rd, NC Auto Maintenance and Repair Shop",059-04,5101 Albemarle Road ,,Charlotte ,NC,28205,United States,(704) 536-8863,35.201595,-80.762307,"M-F: 8am - 6pm, Sat: 8am - 5pm, Sun: Closed",,,
"Champlin, MN Auto Maintenance and Repair Shop",030-25,12140 Champlin Drive ,,Champlin ,MN,55316,United States,(763) 421-4464,45.1751051,-93.393121,"M-F: 7:30am - 6pm, Sat: 7:30am - 4pm, Sun: Closed",,,
"Dallas - Buckner, TX Auto Maintenance and Repair Shop",019-21,2727 South Buckner Blvd ,,Dallas ,TX,75227,United States,(214) 388-8203,32.7589948,-96.6832433,"M-F: 8am-6pm, Sat: 8am-5pm, Sun: Closed",,,
"Burton, MI Auto Maintenance and Repair Shop",051-09,2217 South Center Road ,,Burton ,MI,48519,United States,(810) 742-0060,42.998259,-83.633347,"M-F: 7am - 6pm, Sat: 8am - 4pm(temp), Sun: Closed",,,
"Burnsville, MN Auto Maintenance and Repair Shop",030-42,1404 County Rd 42 W ,,Burnsville ,MN,55337,United States,(952) 435-7799,44.7470218,-93.2974591,"M-F: 8am - 6pm, Sat: 8am - 4pm, Sun: Closed",,,
"Burlington, NC Auto Maintenance and Repair Shop",055-08,2304 South Church Street ,,Burlington ,NC,27215,United States,(336) 226-0345,36.081141,-79.47319,"M-F: 8am - 6pm, Sat: 8am - 5pm, Sun: Closed",,,
"Bowie, MD Auto Maintenance and Repair Shop",072-49,4406 NW Crain Highway ,,Bowie ,MD,20716,United States,(301) 262-0591,38.951139,-76.718379,"M-F: 8am - 5:30pm, Sat: 7:30am - 3pm, Sun: Closed",,,
"Bloomington, MN Auto Maintenance and Repair Shop",030-24,5 West 98th Street ,,Bloomington ,MN,55420,United States,(952) 881-0205,44.8259868,-93.2788955,"M-F: 7:30am - 5:30pm, Sat: 7:30am - 4pm, Sun: Closed",,,
"Fayetteville, NC Auto Maintenance and Repair Shop",059-01,3104 Raeford Road ,,Fayetteville ,NC,28303,United States,(910) 483-8863,35.0451686,-78.9307668,"M-F: 8am - 6pm, Sat: 8am - 5pm, Sun: Closed",,,
"Birmingham - Homewood, AL Auto Maintenance and Repair Shop",056-04,312 Valley Avenue ,,Birmingham ,AL,35209,United States,(205) 945-8863,33.4714883,-86.8238919,"M-F: 8am-6pm, Sat: 8am-5pm, Sun: Closed",,,
"Florence, AL Auto Maintenance and Repair Shop",056-09,237 Cox Creek Parkway ,,Florence ,AL,35630,United States,(256) 760-8863,34.8322826,-87.6287912,"M-F: 8am - 6pm, Sat: 8am - 4pm, Sun: Closed",,,
"Beltsville, MD Auto Maintenance and Repair Shop",072-28,10817 Baltimore Avenue ,,Beltsville ,MD,20705,United States,(301) 595-5200,39.0318939,-76.9114613,"M-F: 8am - 6pm, Sat: 8am - 4pm, Sun: Closed",,,
"Cary, NC Auto Maintenance and Repair Shop",055-14,421 Colonades Way ,,Cary ,NC,27518,United States,(919) 233-5302,35.7405467,-78.7762237,"M-F: 8am - 6pm, Sat: 8am - 5pm, Sun: Closed",,,
"Beaumont, TX Auto Maintenance and Repair Shop",022-08,5390 College Street ,,Beaumont ,TX,77707,United States,(409) 840-9565,30.068351,-94.152607,"M-F: 8am-6pm, Sat: 8am-4pm, Sun: Closed",,,
"Cedar Park, TX Auto Maintenance and Repair Shop",029-41,2201 N. Bell Blvd ,,Cedar Park ,TX,78613,United States,(512) 528-1165,30.53614,-97.836951,"M-F: 8am-5pm, Sat: 8am-5pm, Sun: Closed",,,
"Birmingham - Forestdale, AL Auto Maintenance and Repair Shop",056-11,2040 Forestdale Blvd. ,,Birmingham ,AL,35214,United States,(205) 798-4009,33.5744992,-86.9081307,"M-F: 8am - 6pm, Sat: 8am - 4pm, Sun: Closed",,,
"Austin - South, TX Auto Maintenance and Repair Shop",029-19,1413 West William Cannon Drive ,,Austin ,TX,78745,United States,(512) 440-7077,30.200171,-97.799757,"M-F: 8am - 5:30pm, Sat: 8am - 5pm, Sun: Closed",,,
"Austin - North, TX Auto Maintenance and Repair Shop",029-23,2500 Braker Lane ,,Austin ,TX,78758,United States,(512) 339-7909,30.3907455,-97.7185025,"M-F: 8am - 5:30pm, Sat: 8am - 5pm, Sun: Closed",,,
"Austin - Central, TX Auto Maintenance and Repair Shop",029-14,5528 North Lamar Blvd ,,Austin ,TX,78751,United States,(512) 459-0728,30.324366,-97.727898,"M-F: 8am - 5:30pm, Sat: 8am - 5pm, Sun: Closed",,,
"Baton Rouge, LA Auto Maintenance and Repair Shop",025-31,5950 S. Sherwood Forest Blvd ,,Baton Rouge ,LA,70816,United States,(225) 960-1455,30.402203,-91.053022,"M-F: 7:30am - 5:30pm, Sat: 7:30am - 3:30pm, Sun: Closed",,,
"Atlanta - Norcross, GA Auto Maintenance and Repair Shop",107-09,5103 Jimmy Carter Blvd ,,Norcross ,GA,30093,United States,(770) 416-0440,33.898025,-84.2005503,"M-F: 8am-6pm, Sat: 8am-5pm, Sun: 10am-5pm",,,
"Baton Rouge, LA Auto Maintenance and Repair Shop",025-28,2843 South Sherwood Forest Blvd. ,,Baton Rouge ,LA,70816,United States,(225) 293-2886,30.4266364,-91.0533077,"M-F: 7:30am - 5:30pm, Sat: 7:30am - 3pm, Sun: Closed",,,
"Atlanta - Buckhead, GA Auto Maintenance and Repair Shop",107-25,2306 Cheshire Bridge Road ,,Atlanta ,GA,30324,United States,(404) 633-9493,33.8177978,-84.3522731,"M-F: 8am - 6pm, Sat: 8am - 5pm, Sun: Closed",,,
"Cayce, SC Auto Maintenance and Repair Shop",064-19,1118 Knox Abbott Drive ,,Cayce ,SC,29033,United States,(803) 739-4368,33.9802392,-81.0685948,"M-F: 8am - 6pm, Sat: 8am - 5pm, Sun: Closed",,,
"Augusta, GA Auto Maintenance and Repair Shop",170-03,3224 Wrightsboro Road ,,Augusta ,GA,30909,United States,(706) 922-3155,33.469087,-82.065522,"M-F: 8:00am - 6pm, Sat: 8:00am - 4:30pm, Sun: Closed",,,
"Athens, GA Auto Maintenance and Repair Shop",107-10,2205 W. Broad St ,,Athens ,GA,30606,United States,(706) 353-8863,33.949217,-83.410013,"M-F: 8am - 6pm, Sat: 8am -3pm, Sun: Closed",,,
"Annapolis, MD Auto Maintenance and Repair Shop",050-11,1992 West Street ,,Annapolis ,MD,21401,United States,(410) 266-5102,38.9818164,-76.5293439,"M-F: 8am - 5pm, Sat: 8am - 2pm, Sun: Closed",,,
"Birmingham - Center Point, AL Auto Maintenance and Repair Shop",056-08,2417 Center Point Parkway ,,Birmingham ,AL,35215,United States,(205) 854-5005,33.65003,-86.683033,"M-F: 8am - 6pm, Sat: 7am - 4pm, Sun: Closed",,,
"Anderson, SC Auto Maintenance and Repair Shop",064-35,3438 Clemson Boulevard ,,Anderson ,SC,29621,United States,(864) 261-8863,34.5493669,-82.673441,"M-F: 8am - 6pm, Sat: 8am -5pm, Sun: Closed",,,
"Apple Valley, MN Auto Maintenance and Repair Shop",030-35,6982 145th Street West ,,Apple Valley ,MN,55124,United States,(952) 432-2345,44.738976,-93.206617,"M-F: 8am - 6pm, Sat: 8am - 4pm, Sun: Closed",,,
"Alabaster, AL Auto Maintenance and Repair Shop",056-16,1328 First Street North ,,Alabaster ,AL,35007,United States,(205) 358-7779,33.259485,-86.812485,"M-F: 8am-6pm, Sat: 8am-4pm, Sun: Closed",,,
"Aiken, SC Auto Maintenance and Repair Shop",170-06,143 East Pine Log Road ,,Aiken ,SC,29803,United States,(803) 643-8863,33.5220271,-81.7246951,"M-F: 8am - 6pm, Sat: 8am - 4:30pm, Sun: Closed",,,
"Albany, GA Auto Maintenance and Repair Shop",021-06,2534 Dawson Road ,,Albany ,GA,31707,United States,(229) 431-0126,31.612038,-84.214922,"M-F: 8am - 6pm, Sat: 8am - 4pm, Sun: Closed",,,
"Aberdeen, MD Auto Maintenance and Repair Shop",050-28,614 S. Philadelphia Blvd. ,,Aberdeen ,MD,21001,United States,(410) 278-8863,39.5003803,-76.1696909,"M-F: 8am -5pm, Sat: 8am-3pm, Sun: Closed",,,
"Arlington, TX Auto Maintenance and Repair Shop",019-20,3021 South Cooper Street ,,Arlington ,TX,76015,United States,(817) 465-9500,32.695306,-97.125175,"M-F: 8am-5:30pm, Sat: 8am-4pm, Sun: Closed",,,
"Alexandria, LA Auto Maintenance and Repair Shop",025-20,3839 Alexandria Mall Drive ,,Alexandria ,LA,71301,United States,(318) 443-3006,31.2737839,-92.4627554,"M-F: 7:30am - 5:00pm, Sat: 7:30am - 3:00pm, Sun: Closed",,,
"Atlanta - Northeast, GA Auto Maintenance and Repair Shop",107-03,4196 Buford Hwy NE ,,Atlanta ,GA,30345,United States,(404) 634-1006,33.865363,-84.304408,"M-F: 8am - 6pm, Sat: 8am - 5pm, Sun: Closed",,,
"Asheville, NC Auto Maintenance and Repair Shop",064-18,6 Bryson Street ,,Asheville ,NC,28803,United States,(828) 254-8863,35.570425,-82.54455,"M-F: 8am - 6pm, Sat: 8am - 3pm, Sun: Closed",,,
