store_name,store_number,address,address2,city,state,zip_code,country,phone_number,latitude,longitude,store_hours,store_type,other_fields,coming_soon
Regent Mall,,1381 Regent Street,,Fredericton,NB,E3C 1A2,Canada,(506) 457-2724,,,"Monday 10AM-9PM, Tuesday 10AM-9PM, Wednesday 10AM-9PM, Thursday 10AM-9PM, Friday 10AM-9PM, Saturday 10AM-9PM, Sunday 12PM-5PM",,,
Birmingham,,211 West Maple Rd.,,Birmingham,MI,48009,United States,(248) 723-1407,,,"Monday 10AM-6PM, Tuesday 10AM-6PM, Wednesday 10AM-6PM, Thursday 10AM-9PM, Friday 10AM-9PM, Saturday 10AM-6PM, Sunday 11AM-5PM",,,
Roots 73: East Point,,"11 Fashion Drive, Unit 1",,Saint John,NB,E2J 0A7,Canada,(506) 657-0180,,,"Monday 9:30AM-9PM, Tuesday 9:30AM-9PM, Wednesday 9:30AM-9PM, Thursday 9:30AM-9PM, Friday 9:30AM-9PM, Saturday 9:30AM-9PM, Sunday 12PM-5PM",,,
Roots 73: Wheeler Park,,141 Trinity Drive,,Moncton,NB,E1G 2J7,Canada,(506) 854-9060,,,"Monday 9:30AM-9PM, Tuesday 9:30AM-9PM, Wednesday 9:30AM-9PM, Thursday 9:30AM-9PM, Friday 9:30AM-9PM, Saturday 9:30AM-6PM, Sunday 12PM-5PM",,,
Park City,,408 Main Street,,Park City,UT,84060,United States,(435) 615-1166,,,"Monday 10AM-9PM, Tuesday 10AM-9PM, Wednesday 10AM-9PM, Thursday 10AM-9PM, Friday 10AM-9PM, Saturday 10AM-9PM, Sunday 10AM-9PM",,,
Chinook Centre,,6455 Macleod Trail S. Unit 253,,Calgary,AB,T2H 0K9,Canada,(403) 252-5467,,,"Monday 9:30AM-9PM, Tuesday 9:30AM-9PM, Wednesday 9:30AM-9PM, Thursday 9:30AM-9PM, Friday 9:30AM-9PM, Saturday 9:30AM-9PM, Sunday 11AM-7PM",,,
Roots 73: Bayers Lake,,202 Chain Lake Drive,,Halifax,NS,B3S 1C5,Canada,(902) 450-5307,,,"Monday 9:30AM-9PM, Tuesday 9:30AM-9PM, Wednesday 9:30AM-9PM, Thursday 9:30AM-9PM, Friday 9:30AM-9PM, Saturday 9:30AM-9PM, Sunday 11AM-5PM",,,
Halifax Shopping Centre,,"Tower #1 - 7001 Mumford Rd., Unit 229",,Halifax,NS,B3L 4N9,Canada,(902) 455-5443,,,"Monday 9:30AM-9PM, Tuesday 9:30AM-9PM, Wednesday 9:30AM-9PM, Thursday 9:30AM-9PM, Friday 9:30AM-9PM, Saturday 9:30AM-9PM, Sunday 12PM-5PM",,,
Spring Garden,,"5505 Spring Garden Road, Unit 2- 15",,Halifax,NS,B3J 3M7,Canada,(902) 492-4415,,,"Monday 9:30AM-7PM, Tuesday 9:30AM-7PM, Wednesday 9:30AM-7PM, Thursday 9:30AM-9PM, Friday 9:30AM-9PM, Saturday 9:30AM-6PM, Sunday 11AM-5PM",,,
Roots 73: Avalon Mall,,56 Kenmount Rd. Unit 3015,,St. John's,NF,A1B 1W3,Canada,(709) 579-3940,,,"Monday 9:30AM-9:30PM, Tuesday 9:30AM-9:30PM, Wednesday 9:30AM-9:30PM, Thursday 9:30AM-9:30PM, Friday 9:30AM-9:30PM, Saturday 9:30AM-9:30PM, Sunday 12PM-5PM",,,
West Edmonton Mall,,"8882-170th Street, Unit 2544",,Edmonton,AB,T5T 4M2,Canada,(780) 444-2286,,,"Monday 10AM-9PM, Tuesday 10AM-9PM, Wednesday 10AM-9PM, Thursday 10AM-9PM, Friday 10AM-9PM, Saturday 10AM-9PM, Sunday 11AM-6PM",,,
Roots 73: Mayfield Common (closed),,324 Mayfield Common,,Edmonton,AB,T5P 4B3,Canada,(780) 495-0025,,,,,,
Roots 73: Beacon Hill (CLOSED),,"11696 Sarcee Trail NW, Unit F4",,Calgary,AB,T3R 0A1,Canada,(403) 516-3069,,,"Monday 10AM-9PM, Tuesday 10AM-9PM, Wednesday 10AM-9PM, Thursday 10AM-9PM, Friday 10AM-9PM, Saturday 10AM-6PM, Sunday 11AM-5PM",,,
Venice Beach,,1505 Abbot Kinney Boulevard,,Venice,CA,90291,United States,(424) 238-8454,,,"Monday 11AM-7PM, Tuesday 11AM-7PM, Wednesday 11AM-7PM, Thursday 11AM-7PM, Friday 11AM-8PM, Saturday 11AM-8PM, Sunday 11AM-6PM",,,
Georgian Mall,,"509 Bayfield St., Unit 32A",,Barrie,ON,L4M 4Z8,Canada,(705) 734-2212,,,"Monday 9:30AM-9PM, Tuesday 9:30AM-9PM, Wednesday 9:30AM-9PM, Thursday 9:30AM-9PM, Friday 9:30AM-9PM, Saturday 9:30AM-6PM, Sunday 11AM-5PM",,,
Colossus Factory Outlet,,7621 Weston Rd. Unit 135,,Woodbridge,ON,L4L 9J9,Canada,(905) 264-0478,,,"Monday 10AM-9PM, Tuesday 10AM-9PM, Wednesday 10AM-9PM, Thursday 10AM-9PM, Friday 10AM-9PM, Saturday 9:30AM-6PM, Sunday 11AM-7PM",,,
Roots 73: Cornwall Center,,"2102 11th Avenue, Unit # TT34",,Regina,SK,S4P 3Y6,Canada,(306) 924-5005,,,"Monday 9:30AM-6PM, Tuesday 9:30AM-6PM, Wednesday 9:30AM-9PM, Thursday 9:30AM-9PM, Friday 9:30AM-9PM, Saturday 9:30AM-6PM, Sunday 12PM-7PM",,,
Beverly Hills,,371 North Beverly Drive,,Beverly Hills,CA,90210,United States,(310) 858-8343,,,"Monday 10AM-7PM, Tuesday 10AM-7PM, Wednesday 10AM-7PM, Thursday 10AM-7PM, Friday 10AM-7PM, Saturday 10AM-8PM, Sunday 11AM-7PM",,,
Roots 73: Cambridge,,30 Pinebush Road Unit 100,,Cambridge,ON,N1R 8P5,Canada,(519) 620-3244,,,"Monday 10AM-9PM, Tuesday 10AM-9PM, Wednesday 10AM-9PM, Thursday 10AM-9PM, Friday 10AM-9PM, Saturday 9AM-6PM, Sunday 10AM-6PM",,,
Bloor Street,,80 Bloor Street West,,Toronto,ON,M5S 2V1,Canada,(416) 323-3289,,,"Monday 9:30AM-8PM, Tuesday 9:30AM-8PM, Wednesday 9:30AM-8PM, Thursday 9:30AM-9PM, Friday 9:30AM-9PM, Saturday 9:30AM-9PM, Sunday 11AM-7PM",,,
Oshawa Centre,,"419 King Street West, Unit 2100",,Oshawa,ON,L1J 2K5,Canada,(905) 579-0451,,,"Monday 9:30AM-9PM, Tuesday 9:30AM-9PM, Wednesday 9:30AM-9PM, Thursday 9:30AM-9PM, Friday 9:30AM-9PM, Saturday 9:30AM-6PM, Sunday 11AM-6PM",,,
Roots73: Pickering,,"1355 Kingston Road, Unit 150",,Pickering,ON,L1V 1B8,Canada,(905) 837-6619,,,"Monday 10AM-9PM, Tuesday 10AM-9PM, Wednesday 10AM-9PM, Thursday 10AM-9PM, Friday 10AM-9PM, Saturday 9:30AM-6PM, Sunday 11AM-6PM",,,
Roots 73: Fallsview,,"6380 Fallsview Blvd, Suite 254",,Niagara Falls,ON,L2G 7Y6,Canada,(905) 353-1447,,,"Monday 10AM-11PM, Tuesday 10AM-11PM, Wednesday 10AM-11PM, Thursday 10AM-11PM, Friday 10AM-12AM, Saturday 10AM-12AM, Sunday 10AM-11PM",,,
Don Mills,,"Unit F5A, Shops at Don Mills, 8 Aggie Hogg Garden",,Toronto,ON,M3C 0G6,Canada,(416) 849-1462,,,"Monday 10AM-9PM, Tuesday 10AM-9PM, Wednesday 10AM-9PM, Thursday 10AM-9PM, Friday 10AM-9PM, Saturday 9:30AM-7PM, Sunday 11AM-6PM",,,
Guelph,,435 Stone Road W,,Guelph,ON,N1G 2X6,Canada,(519) 341-0057,,,"Monday 10AM-9PM, Tuesday 10AM-9PM, Wednesday 10AM-9PM, Thursday 10AM-9PM, Friday 10AM-9PM, Saturday 9:30AM-7PM, Sunday 11AM-5PM",,,
Promenade,,"1 Promenade Circle, Main Floor",,Thornhill,ON,L4J 4P8,Canada,(905) 886-7784,,,"Monday 10AM-9PM, Tuesday 10AM-9PM, Wednesday 10AM-9PM, Thursday 10AM-9PM, Friday 10AM-9PM, Saturday 9:30AM-6PM, Sunday 11AM-6PM",,,
William St.,,41 1/2 William Street,,Ottawa,ON,K1N 6Z9,Canada,(613) 688-2858,,,"Monday 10AM-6PM, Tuesday 10AM-6PM, Wednesday 10AM-6PM, Thursday 10AM-6PM, Friday 10AM-6PM, Saturday 10AM-7PM, Sunday 10AM-6PM",,,
White Oaks,,"1105 Wellington Rd. South, Suite 489",,London,ON,N6E 1V4,Canada,(519) 685-6688,,,"Monday 9:30AM-9PM, Tuesday 9:30AM-9PM, Wednesday 9:30AM-9PM, Thursday 9:30AM-9PM, Friday 9:30AM-9PM, Saturday 9:30AM-9PM, Sunday 12PM-5PM",,,
Roots 73: Woodside,,"3175 Hwy 7 East, Suite 500",,Markham,ON,L3R 0J5,Canada,(905) 948-1700,,,"Monday 9:30AM-9PM, Tuesday 9:30AM-9PM, Wednesday 9:30AM-9PM, Thursday 9:30AM-9PM, Friday 9:30AM-6PM, Saturday 10AM-9PM, Sunday 11AM-6PM",,,
Roots 73: Windsor Crossing,,"1555 Talbot Road, Unit 130",,LaSalle,ON,N9H 2N2,Canada,(519) 972-3573,,,"Monday 10AM-9PM, Tuesday 10AM-9PM, Wednesday 10AM-9PM, Thursday 10AM-9PM, Friday 10AM-9PM, Saturday 9AM-6PM, Sunday 12PM-5PM",,,
Roots 73: Milton,,"Milton Crossroads, 1160 Steels Ave. East, Unit L3",,Milton,ON,L9T 6C8,Canada,(905) 636-9000,,,"Monday 10AM-9PM, Tuesday 10AM-9PM, Wednesday 10AM-9PM, Thursday 10AM-9PM, Friday 10AM-9PM, Saturday 9:30AM-6PM, Sunday 11AM-5PM",,,
Devonshire Mall,,"3100 Howard Ave, Unit P#15",,Windsor,ON,N8X 3Y8,Canada,(519) 966-3994,,,"Monday 9:30AM-9PM, Tuesday 9:30AM-9PM, Wednesday 9:30AM-9PM, Thursday 9:30AM-9PM, Friday 9:30AM-9PM, Saturday 9:30AM-6PM, Sunday 11AM-5PM",,,
Rosedale CLOSED,,1073 Yonge Street,,Toronto,ON,M4W 2L2,Canada,(416) 927-1989,,,,,,
Roots 73: Kanata,,"625 Kanata Outlet, Unit E2",,Kanata,ON,K2T 1H6,Canada,(613) 287-0126,,,"Monday 10AM-9PM, Tuesday 10AM-9PM, Wednesday 10AM-9PM, Thursday 10AM-9PM, Friday 10AM-9PM, Saturday 9AM-6PM, Sunday 11AM-5PM",,,
Pen Centre,,"221 Glendale Avenue, Unit 89",,St. Catharines,ON,L2T 2K9,Canada,(905) 988-6211,,,"Monday 10AM-9PM, Tuesday 10AM-9PM, Wednesday 10AM-9PM, Thursday 10AM-9PM, Friday 10AM-9PM, Saturday 9AM-6PM, Sunday 11AM-6PM",,,
Roots 73: Hilcrest,,9350 Yonge St. Unit H11,,Richmond Hill,ON,L4C 5G2,Canada,(905) 884-3285,,,"Monday 10AM-9PM, Tuesday 10AM-9PM, Wednesday 10AM-9PM, Thursday 10AM-9PM, Friday 10AM-9PM, Saturday 9:30AM-6PM, Sunday 11AM-6PM",,,
Roots 73: Thunder Centre,,379 Main St. Unit C5,,Thunder Bay,ON,P7B 5L6,Canada,(807) 628-8886,,,"Monday 10AM-8PM, Tuesday 10AM-8PM, Wednesday 10AM-8PM, Thursday 10AM-8PM, Friday 10AM-8PM, Saturday 9:30AM-6PM, Sunday 11AM-5PM",,,
Kingston,,229 Princess Street,,Kingston,ON,K7L 1A4,Canada,(613) 546-7668,,,"Monday 10AM-6PM, Tuesday 10AM-6PM, Wednesday 10AM-6PM, Thursday 10AM-9PM, Friday 10AM-9PM, Saturday 10AM-6PM, Sunday 12PM-5PM",,,
Yorkdale,,"3401 Dufferin Street, Unit 117",,Toronto,ON,M6A 2T9,Canada,416-783-3371,,,"Monday 10AM-9PM, Tuesday 10AM-9PM, Wednesday 10AM-9PM, Thursday 10AM-9PM, Friday 10AM-9PM, Saturday 9:30AM-9PM, Sunday 11AM-7PM",,,
Rideau Centre,,"50 Rideau Street, Suite 111",,Ottawa,ON,K1N 9J7,Canada,(613) 236-7760,,,"Monday 9:30AM-9PM, Tuesday 9:30AM-9PM, Wednesday 9:30AM-9PM, Thursday 9:30AM-9PM, Friday 9:30AM-9PM, Saturday 9:30AM-7PM, Sunday 11AM-6PM",,,
Upper Canada Mall,,"17600 Yonge Street, GG-12",,Newmarket,ON,L3Y 4Z1,Canada,(905) 836-9555,,,"Monday 10AM-9PM, Tuesday 10AM-9PM, Wednesday 10AM-9PM, Thursday 10AM-9PM, Friday 10AM-9PM, Saturday 9:30AM-6PM, Sunday 11AM-6PM",,,
Markville,,5000 Highway 7 East,,Markham,ON,L3R 4M9,Canada,(905) 470-0571,,,"Monday 10AM-9PM, Tuesday 10AM-9PM, Wednesday 10AM-9PM, Thursday 10AM-9PM, Friday 10AM-9PM, Saturday 9:30AM-6PM, Sunday 11AM-6PM",,,
Oakville Place,,"240 Leighland Ave., Unit 219",,Oakville,ON,L6H 3H6,Canada,(905) 339-0708,,,"Monday 10AM-9PM, Tuesday 10AM-9PM, Wednesday 10AM-9PM, Thursday 10AM-9PM, Friday 10AM-9PM, Saturday 9:30AM-6PM, Sunday 11AM-5PM",,,
Scarborough,,300 Borough Drive Unit 260,,Scarborough,ON,M1P 4P5,Canada,(416) 296-9811,,,"Monday 10AM-9PM, Tuesday 10AM-9PM, Wednesday 10AM-9PM, Thursday 10AM-9PM, Friday 10AM-9PM, Saturday 9:30AM-9PM, Sunday 11AM-7PM",,,
Roots 73 Jackson Square,,"2 King Street West, Unit 289",,Hamilton,ON,L8P 1A1,Canada,905-529-3040,,,"Monday 9:30AM-6PM, Tuesday 9:30AM-6PM, Wednesday 9:30AM-6PM, Thursday 9:30AM-7PM, Friday 9:30AM-7PM, Saturday 9:30AM-6PM, Sunday 12PM-7PM",,,
Brookfield Place,,"181 Bay Street, Unit S - 112",,Toronto,ON,M5J 2T3,Canada,(416) 364-0582,,,"Monday 9AM-7PM, Tuesday 9AM-7PM, Wednesday 9AM-7PM, Thursday 9AM-7PM, Friday 9AM-7PM, Saturday 10AM-6PM, Sunday 11AM-6PM",,,
Quinte Mall,,"390 North Front Street, Unit D-3",,Belleville,ON,K8P 3C1,Canada,(613) 962-6828,,,"Monday 9:30AM-9PM, Tuesday 9:30AM-9PM, Wednesday 9:30AM-9PM, Thursday 9:30AM-9PM, Friday 9:30AM-9PM, Saturday 9:30AM-6PM, Sunday 11AM-5PM",,,
Station Mall,,293 Bay St. Unit HN-9,,Sault Ste. Marie,ON,P6A 1X3,Canada,(705) 253-8544,,,"Monday 9:30AM-9PM, Tuesday 9:30AM-9PM, Wednesday 9:30AM-9PM, Thursday 9:30AM-9PM, Friday 9:30AM-9PM, Saturday 9:30AM-5:30PM, Sunday 12PM-5PM",,,
Bayview Village,,2901  Bayview Ave. Unit 28A,,Toronto,ON,M2K 1E6,Canada,(416) 229-2144,,,"Monday 10AM-9PM, Tuesday 10AM-9PM, Wednesday 10AM-9PM, Thursday 10AM-9PM, Friday 10AM-9PM, Saturday 9:30AM-6PM, Sunday 12PM-5PM",,,
Erin Mills Town Centre,,"5100 Erin Mills Parkway, Unit R111A",,Mississauga,ON,L5M 4Z5,Canada,(905) 569 3988,,,"Monday 10AM-9PM, Tuesday 10AM-9PM, Wednesday 10AM-9PM, Thursday 10AM-9PM, Friday 10AM-9PM, Saturday 9:30AM-6PM, Sunday 11AM-6PM",,,
Mapleview Centre,,"900 Maple Ave, Unit AA24",,Burlington,ON,L7S 2J8,Canada,(905) 639-6040,,,"Monday 10AM-9PM, Tuesday 10AM-9PM, Wednesday 10AM-9PM, Thursday 10AM-9PM, Friday 10AM-9PM, Saturday 9:30AM-6PM, Sunday 11AM-6PM",,,
Roots 73: South Keys,,2210 Bank St.,,Ottawa,ON,K1V 0Y5,Canada,(613) 736-9503,,,"Monday 9AM-9PM, Tuesday 9AM-9PM, Wednesday 9AM-9PM, Thursday 9AM-9PM, Friday 9AM-9PM, Saturday 9AM-6PM, Sunday 10AM-5PM",,,
Westboro,,348A Richmond Road,,Ottawa,ON,K2A 0E8,Canada,(613) 288-0259,,,"Monday 10AM-6PM, Tuesday 10AM-6PM, Wednesday 10AM-6PM, Thursday 10AM-8PM, Friday 10AM-8PM, Saturday 9AM-6PM, Sunday 10AM-5PM",,,
Conestoga Mall,,550 King St. North Unit E4A,,Waterloo,ON,N2L 5W6,Canada,(519) 888-6485,,,"Monday 9:30AM-9PM, Tuesday 9:30AM-9PM, Wednesday 9:30AM-9PM, Thursday 9:30AM-9PM, Friday 9:30AM-9PM, Saturday 9:30AM-6PM, Sunday 11AM-5PM",,,
Sherway Gardens,,25 The West Mall,,Etobicoke,ON,M9C 1B8,Canada,(416) 622-8494,,,"Monday 10AM-9PM, Tuesday 10AM-9PM, Wednesday 10AM-9PM, Thursday 10AM-9PM, Friday 10AM-9PM, Saturday 9:30AM-9PM, Sunday 11AM-6PM",,,
St. Clair,,1485 Yonge Street,,Toronto,ON,M4T 1Z2,Canada,(416) 967-4499,,,"Monday 9:30AM-7PM, Tuesday 9:30AM-7PM, Wednesday 9:30AM-7PM, Thursday 9:30AM-7PM, Friday 9:30AM-7PM, Saturday 9:30AM-7PM, Sunday 11AM-6PM",,,
Lodge,,2670 Yonge Street,,Toronto,ON,M4P 2J5,Canada,(416) 482-6773,,,"Monday 9:30AM-7PM, Tuesday 9:30AM-7PM, Wednesday 9:30AM-7PM, Thursday 9:30AM-8PM, Friday 9:30AM-8PM, Saturday 9:30AM-6PM, Sunday 11AM-6PM",,,
Cambridge Shopping Centre,,"355 Hespeler Rd., Unit 291",,Cambridge,ON,N1R 6B3,Canada,(519) 620-2244,,,"Monday 9:30AM-9PM, Tuesday 9:30AM-9PM, Wednesday 9:30AM-9PM, Thursday 9:30AM-9PM, Friday 9:30AM-9PM, Saturday 9:30AM-9PM, Sunday 11AM-5PM",,,
Roots 73: Trinity Common,,210 Great Lakes Dr.,,Brampton,ON,L6R 2K7,Canada,(905) 791-5775,,,"Monday 10AM-9PM, Tuesday 10AM-9PM, Wednesday 10AM-9PM, Thursday 10AM-9PM, Friday 10AM-9PM, Saturday 9:30AM-6PM, Sunday 11AM-6PM",,,
Roots 73 Eglinton Power Centre,,1901 Eglinton Ave. East Unit B2,,Scarborough,ON,M1L 2L6,Canada,(416) 285-9300,,,"Monday 10AM-9PM, Tuesday 10AM-9PM, Wednesday 10AM-9PM, Thursday 10AM-9PM, Friday 10AM-9PM, Saturday 9:30AM-7PM, Sunday 11AM-6PM",,,
Roots Central,,"220 Yonge Street , Unit C 32, Level 3",,Toronto,ON,M5B 2H1,Canada,(416) 593 9640,,,"Monday 9AM-9:30PM, Tuesday 9AM-9:30PM, Wednesday 9AM-9:30PM, Thursday 9AM-9:30PM, Friday 9AM-9:30PM, Saturday 9AM-9:30PM, Sunday 10AM-8PM",,,
Roots 73: Niagra Falls Lundys Lane,,7500 Lundy's Lane,,Niagra Falls,ON,L2G 1W2,Canada,(905) 371-2322,,,"Monday 10AM-9PM, Tuesday 10AM-9PM, Wednesday 10AM-9PM, Thursday 10AM-9PM, Friday 10AM-9PM, Saturday 10AM-9PM, Sunday 10AM-6PM",,,
New Sudbury Centre,,"1349 Lasalle Blvd. West, Unit 120",,Sudbury,ON,P3A 1Z2,Canada,(705) 525-1471,,,"Monday 9:30AM-9PM, Tuesday 9:30AM-9PM, Wednesday 9:30AM-9PM, Thursday 9:30AM-9PM, Friday 9:30AM-9PM, Saturday 9:30AM-6PM, Sunday 11AM-5PM",,,
Stockyards,,"45 Gunns Rd, Unit 101",,Toronto,ON,M6N 0A3,Canada,(416) 604-1707,,,"Monday 10AM-9PM, Tuesday 10AM-9PM, Wednesday 10AM-9PM, Thursday 10AM-9PM, Friday 10AM-9PM, Saturday 10AM-7PM, Sunday 10AM-6PM",,,
Lakeshore,,170 Lakeshore Road E.,,Oakville,ON,L6J 1H6,Canada,(289) 291-0264,,,"Monday 10AM-6PM, Tuesday 10AM-6PM, Wednesday 10AM-6PM, Thursday 10AM-7PM, Friday 10AM-7PM, Saturday 9:30AM-6PM, Sunday 11AM-5PM",,,
Roots 73: Durham,,140 Kingston Road East,,Ajax,ON,L1Z 1G1,Canada,(905) 426-8811,,,"Monday 9:30AM-9PM, Tuesday 9:30AM-9PM, Wednesday 9:00AM-9PM, Thursday 9:30AM-9PM, Friday 9:30AM-9PM, Saturday 9:30AM-6PM, Sunday 11AM-5PM",,,
Orfus Road Factory Outlet,,120 Orfus Rd,,Toronto,ON,M6A 1L9,Canada,(416) 781-8729,,,"Monday 10AM-9PM, Tuesday 10AM-9PM, Wednesday 10AM-9PM, Thursday 10AM-9PM, Friday 10AM-9PM, Saturday 9:30AM-6PM, Sunday 11AM-6PM",,,
Northgate Square,,"1500 Fisher Street, Unit 152",,North Bay,ON,P1B 2H3,Canada,(705) 495-3090,,,"Monday 9:30AM-9PM, Tuesday 9:30AM-9PM, Wednesday 9:30AM-9PM, Thursday 9:30AM-9PM, Friday 9:30AM-9PM, Saturday 9:30AM-6PM, Sunday 11AM-5PM",,,
Bramalea Centre,,"25 Peel Centre Drive, Unit 239",,Brampton,ON,L6T 3R5,Canada,(905) 793-7657,,,"Monday 10AM-9PM, Tuesday 10AM-9PM, Wednesday 10AM-9PM, Thursday 10AM-9PM, Friday 10AM-9PM, Saturday 9:30AM-9PM, Sunday 11AM-7PM",,,
St. Laurent Shopping Centre,,1200 St. Laurent Blvd.,,Ottawa,ON,K1K 3B8,Canada,(613) 288-1492,,,"Monday 9:30AM-9PM, Tuesday 9:30AM-9PM, Wednesday 9:30AM-9PM, Thursday 9:30AM-9PM, Friday 9:30AM-9PM, Saturday 9:30AM-9PM, Sunday 11AM-5PM",,,
Roots 73: Peterborough,,645 Landsdowne St. West,,Peterborough,ON,K9J7Y5,Canada,(705) 536-0004,,,"Monday 9:30AM-9PM, Tuesday 9:30AM-9PM, Wednesday 9:30AM-9PM, Thursday 9:30AM-9PM, Friday 9:30AM-9PM, Saturday 9:30AM-6PM, Sunday 11AM-5PM",,,
Roots 73: Fanshawe,,1965 Hyde Park Rd. Unit 107,,London,ON,N6H 0A3,Canada,(519) 657-8707,,,"Monday 10AM-9PM, Tuesday 10AM-9PM, Wednesday 10AM-9PM, Thursday 10AM-9PM, Friday 10AM-9PM, Saturday 9AM-6PM, Sunday 11AM-6PM",,,
Bayshore Shopping Centre,,"100 Bayshore Drive, Unit T- 15",,Nepean,ON,K2B 8C1,Canada,(613) 820-4527,,,"Monday 9AM-9PM, Tuesday 9AM-9PM, Wednesday 9AM-9PM, Thursday 9AM-9PM, Friday 9AM-9PM, Saturday 9AM-9PM, Sunday 10AM-6PM",,,
Masonville Place,,"1680 Richmond St. North, Unit 70",,London,ON,N6G 3Y9,Canada,(519) 660-6600,,,"Monday 10AM-9PM, Tuesday 10AM-9PM, Wednesday 10AM-9PM, Thursday 10AM-9PM, Friday 10AM-9PM, Saturday 10AM-9PM, Sunday 12PM-5PM",,,
Square One Mall,,"100 City Centre Drive, Unit 2- 902",,Mississauga,ON,L5B 2C9,Canada,(905) 279-8853,,,"Monday 10AM-9PM, Tuesday 10AM-9PM, Wednesday 10AM-9PM, Thursday 10AM-9PM, Friday 10AM-9PM, Saturday 9:30AM-9PM, Sunday 11AM-7PM",,,
Roots73: Heartland,,"5950 Rodeo Drive, Unit 6A",,Mississauga,ON,L5R 3G5,Canada,(905) 501-1201,,,"Monday 10AM-9PM, Tuesday 10AM-9PM, Wednesday 10AM-9PM, Thursday 10AM-9PM, Friday 10AM-9PM, Saturday 9:30AM-6PM, Sunday 11AM-6PM",,,
Roots 73: Vaughan Mills,,"1 Bass Pro Mills Drive, Unit 264",,Vaughan,ON,L4K 5W4,Canada,(905) 660-0709,,,"Monday 10AM-9PM, Tuesday 10AM-9PM, Wednesday 10AM-9PM, Thursday 10AM-9PM, Friday 10AM-9PM, Saturday 10AM-6PM, Sunday 11AM-7PM",,,
Roots 73: Kings Crossing,,101 Dalton Avenue,,Kingston,ON,K7K 0C4,Canada,(613) 542-7143,,,"Monday 10AM-8PM, Tuesday 10AM-8PM, Wednesday 10AM-8PM, Thursday 10AM-8PM, Friday 10AM-8PM, Saturday 10AM-6PM, Sunday 10AM-6PM",,,
Richmond Centre,,"6551 - 3rd Road, Suite 1107",,Richmond,BC,V6Y 2B6,Canada,(604) 244-9113,,,"Monday 9:30AM-7PM, Tuesday 9:30AM-7PM, Wednesday 9:30AM-9PM, Thursday 9:30AM-9PM, Friday 9:30AM-9PM, Saturday 9:30AM-7PM, Sunday 11AM-6PM",,,
Roots 73: Morgan Crossing,,15765 Croydon Drive Unit D104,,South Surrey,BC,V3S 2L6,Canada,(604) 531-4567,,,"Monday 10AM-6PM, Tuesday 10AM-6PM, Wednesday 10AM-6PM, Thursday 10AM-9PM, Friday 10AM-9PM, Saturday 9:30AM-6PM, Sunday 11AM-6PM",,,
Robson Thurlow,,1153 Robson St.,,Vancouver,BC,V6E 1A9,Canada,(604) 684-8801,,,"Monday 9:30AM-9PM, Tuesday 9:30AM-9PM, Wednesday 9:30AM-9PM, Thursday 9:30AM-9PM, Friday 9:30AM-9PM, Saturday 9:30AM-9PM, Sunday 9:30AM-9PM",,,
Roots 73: Grandview Outlet,,3695 Grandview Hwy,,Vancouver,BC,V6M 2G7,Canada,(604) 433-4337,,,"Monday 10AM-6PM, Tuesday 10AM-6PM, Wednesday 10AM-6PM, Thursday 10AM-9PM, Friday 10AM-9PM, Saturday 10AM-7PM, Sunday 11AM-6PM",,,
Roots 73: Pine Centre Mall,,"3055 Massey Drive, Unit #17-212",,Prince George,BC,V2N 2S9,Canada,(250) 562-7622,,,"Monday 9:30AM-6PM, Tuesday 9:30AM-6PM, Wednesday 9:30AM-6PM, Thursday 9:30AM-9PM, Friday 9:30AM-9PM, Saturday 9:30AM-6PM, Sunday 11AM-5PM",,,
Roots 73: New Westminster,,"805 Boyd Street, Unit F-130",,New Westminster,BC,V3M 5X2,Canada,(604) 636-1057,,,"Monday 10AM-6PM, Tuesday 10AM-6PM, Wednesday 10AM-9PM, Thursday 10AM-9PM, Friday 10AM-9PM, Saturday 10AM-6PM, Sunday 11AM-6PM",,,
Roots 73: Mayfair Shopping Centre,,"3147 Douglas St, Suite 621",,Victoria,BC,V8Z 6E3,Canada,(250) 383-7221,,,"Monday 10AM-6PM, Tuesday 10AM-6PM, Wednesday 10AM-9PM, Thursday 10AM-9PM, Friday 10AM-9PM, Saturday 10AM-6PM, Sunday 11AM-6PM",,,
Roots 73: Langley,,6070-200th Street Unit 104,,Langley,BC,V3A 1N4,Canada,604-532-9821,,,"Monday 9:30AM-6PM, Tuesday 9:30AM-6PM, Wednesday 9:30AM-9PM, Thursday 10AM-9PM, Friday 9:30AM-9PM, Saturday 9:30AM-6PM, Sunday 11AM-6PM",,,
Granville,,2665 Granville Street,,Vancouver,BC,V6H 3H2,Canada,(604) 629-1300,,,"Monday 10AM-6PM, Tuesday 10AM-6PM, Wednesday 10AM-6PM, Thursday 10AM-6PM, Friday 10AM-7PM, Saturday 10AM-7PM, Sunday 10:30AM-6PM",,,
Whistler,,"4154 Village Green, Unit 100",,Whistler,BC,V0N 1B4,Canada,(604) 938-0058,,,"Monday 10AM-9PM, Tuesday 10AM-9PM, Wednesday 10AM-9PM, Thursday 10AM-9PM, Friday 9AM-9PM, Saturday 9AM-9PM, Sunday 9AM-9PM",,,
Robson,,1001 Robson St.,,Vancouver,BC,V6E 1A9,Canada,(604) 683-4305,,,"Monday 9:30AM-9PM, Tuesday 9:30AM-9PM, Wednesday 9:30AM-9PM, Thursday 9:30AM-9PM, Friday 9:30AM-9PM, Saturday 9:30AM-9PM, Sunday 9:30AM-9PM",,,
Polo Park Shopping Centre,,1485 Portage Avenue Unit 254A,,Winnipeg,MB,R3G 0W4,Canada,(204) 774-0625,,,"Monday:10AM-9PM, Tuesday:10AM-9PM, Wednesday:9AM-9PM, Thursday:10AM-9PM, Friday:9AM-9PM, Saturday:9:30AM-6PM, Sunday:11AM-6PM",,,
Park Royal,,"925 Main Street, Unit H3",,West Vancouver,BC,V7T 2Z3,Canada,(604) 925-2166,,,"Monday 10AM-7PM, Tuesday 10AM-7PM, Wednesday 10AM-9PM, Thursday 10AM-9PM, Friday 10AM-9PM, Saturday 9:30AM-6PM, Sunday 11AM-6PM",,,
Mont Tremblant,,"116, chemin Kandahar, Unite 2A",,Mt-Tremblant,QC,J8E 1E2,Canada,(819) 681-4505,,,"Monday 9:30AM-9PM, Tuesday 9:30AM-9PM, Wednesday 9:30AM-9PM, Thursday 9:30AM-9PM, Friday 9:30AM-9PM, Saturday 9:30AM-9PM, Sunday 9:30AM-9PM",,,
Roots 73: Boisbriand,,"2800 Promenades, St. Honore",,Boisbriand,QC,J7H 0A8,Canada,(450) 420-5771,,,"Monday 10AM-6PM, Tuesday 10AM-6PM, Wednesday 10AM-6PM, Thursday 10AM-9PM, Friday 10AM-9PM, Saturday 9AM-5PM, Sunday 10AM-5PM",,,
Quebec City,,49 rue de Buade,,Quebec City,QC,G1R 4A2,Canada,(418) 780-3235,,,"Monday 9:30AM-5:30PM, Tuesday 9:30AM-5:30PM, Wednesday 9:30AM-5:30PM, Thursday 9:30AM-9PM, Friday 9:30AM-9PM, Saturday 9AM-5PM, Sunday 10AM-5PM",,,
Centre Rockland,,"2305, chemin Rockland, Unite 2021",,Mont-Royal,QC,H3P 3E9,Canada,(514) 737-2211,,,"Monday 10AM-6PM, Tuesday 10AM-6PM, Wednesday 10AM-9PM, Thursday 10AM-9PM, Friday 10AM-9PM, Saturday 9AM-5PM, Sunday 10AM-5PM",,,
Roots 73: Vaudreuil,,3120 Blvd. de la Gare Unit 210,,Vaudreuil,QC,J7V 0J5,Canada,(450) 455-5960,,,"Monday 10AM-6PM, Tuesday 10AM-6PM, Wednesday 10AM-6PM, Thursday 10AM-9PM, Friday 10AM-9PM, Saturday 9AM-5PM, Sunday 10AM-5PM",,,
West 4th,,2091 West 4th Ave.,,Vancouver,BC,V6J 1N3,Canada,(604) 629-1195,,,"Monday 10AM-6PM, Tuesday 10AM-6PM, Wednesday 10AM-6PM, Thursday 10AM-7PM, Friday 10AM-7PM, Saturday 10AM-7PM, Sunday 10AM-6PM",,,
Victoria,,1227 Government St.,,Victoria,BC,V8W 1Y6,Canada,(250) 383-4811,,,"Monday 10AM-6PM, Tuesday 10AM-6PM, Wednesday 10AM-6PM, Thursday 10AM-9PM, Friday 10AM-9PM, Saturday 9:30AM-6PM, Sunday 11AM-6PM",,,
Westmount,,4872 Sherbrooke Street West,,Westmount,QC,H3Z 1H1,Canada,(514) 482-5858,,,"Monday 9:30AM-6PM, Tuesday 9:30AM-6PM, Wednesday 9:30AM-6PM, Thursday 9:30AM-6PM, Friday 9:30AM-6PM, Saturday 9AM-5PM, Sunday 10AM-5PM",,,
Centreville,,1025 Rue Ste Catherine Ouest,,Montreal,QC,H3B 1H1,Canada,(514) 845-7995,,,"Monday 10AM-8PM, Tuesday 10AM-8PM, Wednesday 10AM-8PM, Thursday 10AM-9PM, Friday 10AM-9PM, Saturday 9AM-7PM, Sunday 10AM-7PM",,,
Metrotown,,"4700 Kingsway Ave, Suite 1119",,Burnaby,BC,V5H 4M1,Canada,(604) 435-5554,,,"Monday 10AM-9PM, Tuesday 10AM-9PM, Wednesday 10AM-9PM, Thursday 10AM-9PM, Friday 10AM-9PM, Saturday 10AM-9PM, Sunday 11AM-5PM",,,
Roots 73: Kenaston,,1585 Kenaston Blvd Suite 5,,Winnipeg,MB,R3P 2N3,Canada,(204) 489-9366,,,"Monday 9:30AM-9PM, Tuesday 9:30AM-9PM, Wednesday 9:30AM-9PM, Thursday 9:30AM-9PM, Friday 9:30AM-9PM, Saturday 9:30AM-6PM, Sunday 12PM-5PM",,,
Halifax Seaport,,1099 Marginal Rd Suite 117,,Halifax,NS,B3H 4P7,Canada,(902) 492-6969,,,,,,
Brossard,,9160 boul Leduc suite 150 Phase 111,,Brossard,QC,J4Y 0E3,Canada,,,,"Monday 10AM-6PM, Tuesday 10AM-6PM, Wednesday 10AM-9PM, Thursday 10AM-9PM, Friday 10AM-9PM, Saturday 9AM-5PM, Sunday 10AM-5PM",,,
Banff,,227 Banff Ave.,,Banff,AB,T1L 1C6,Canada,(403) 762-9434,,,"Monday 10AM-9PM, Tuesday 10AM-9PM, Wednesday 10AM-9PM, Thursday 10AM-9PM, Friday 10AM-9PM, Saturday 10AM-9PM, Sunday 10AM-9PM",,,
Roots 73: Dartmouth Crossing,,190 Hector Gate,,Dartmouth,NS,B3B 0E6,Canada,(902) 481-9589,,,"Monday 9:30AM-9PM, Tuesday 9:30AM-9PM, Wednesday 9:30AM-9PM, Thursday 9:30AM-9PM, Friday 9:30AM-9PM, Saturday 9:30AM-9PM, Sunday 12PM-5PM",,,
Roots 73: South Edmonton Common,,1422 Parsons Rd. NW,,Edmonton,AB,T6N 0B5,Canada,(780) 430 6577,,,"Monday 10AM-9PM, Tuesday 10AM-9PM, Wednesday 10AM-9PM, Thursday 10AM-9PM, Friday 10AM-9PM, Saturday 10AM-6PM, Sunday 12PM-5PM",,,
17th Avenue,,399 17th Avenue SW,,Calgary,AB,T2S 0A5,Canada,(403) 209-4037,,,"Monday 10AM-6PM, Tuesday 10AM-6PM, Wednesday 10AM-6PM, Thursday 10AM-7PM, Friday 10AM-7PM, Saturday 10AM-6PM, Sunday 11AM-5PM",,,
South Centre,,100 Anderson Rd. SE,,Calgary,AB,T2J 3V1,Canada,(403) 313-0208,,,"Monday 9:30AM-9PM, Tuesday 9:30AM-9PM, Wednesday 9:30AM-9PM, Thursday 9:30AM-9PM, Friday 9:30AM-9PM, Saturday 9:30AM-8PM, Sunday 11AM-6PM",,,
Roots 73: Cross Iron Mills,,"261055 CrossIron Bld., Suite 437",,Rocky View,AB,T4A 0G3,Canada,(403) 313-1376,,,"Monday 10AM-9PM, Tuesday 10AM-9PM, Wednesday 10AM-9PM, Thursday 10AM-9PM, Friday 10AM-9PM, Saturday 10AM-9PM, Sunday 11AM-6PM",,,
TD Square,,"317 7th Ave, SW #358/359",,Calgary,AB,T2P 2Y9,Canada,(403) 313-0201,,,"Monday 9:30AM-6PM, Tuesday 9:30AM-6PM, Wednesday 9:30AM-6PM, Thursday 9:30AM-8PM, Friday 9:30AM-8PM, Saturday 9:30AM-6PM, Sunday 12PM-5PM",,,
Whyte Ave.,,10544D-82 Ave.,,Edmonton,AB,T6E 2A4,Canada,(780) 435-6768,,,"Monday 10AM-8PM, Tuesday 10AM-8PM, Wednesday 10AM-8PM, Thursday 10AM-8PM, Friday 10AM-8PM, Saturday 10AM-6PM, Sunday 11AM-5PM",,,
