store_name,store_number,address,address2,city,state,zip_code,country,phone_number,latitude,longitude,store_hours,store_type,other_fields,coming_soon
COACH THE EMQUARTIER,,"M FLOOR, 693,695 SUKHUMVIT ROAD","KHLONG TAN NUEA, WATTHANA",BANGKOK,,10110,United States,+66 (2) 003 6628,,,"MON-THU: 11:00AM-8PM, FRI-SUN: 10:00AM-9.00PM",,,
COACH ECI GAIA OPORTO,,EL CORTE INGLES,"AVENIDA DA REPUBLICA, 1435",4430 999 VIKA NOVADE GAIA,,,United States,,,,,,,
COACH DIAGONAL,,"EL CORTE INGLES, AVD. DIAGONAL 617",,BARCELONA,,8028,United States,+34 (0)9 34 19 50 11,,,"MON-SAT: 9:30AM-9:30PM, SUNDAY CLOSED",,,
COACH ECI MALAGA,,"AVENIDA ANDALUCIA, 4Y 6",,MALAGA,,29007,United States,+34 95 261 06 84,,,MON-SAT: 10AM – 10PM,,,
COACH RIO MAR FORTALEZA,,"R. DES. LAURO NOGUEIRA, 1500","LOJA 2132, 2133 PISO L2",FORTALEZA,,CEP: 6017,United States,(85) 3034-7227,,,"MON - SAT: 10:00AM – 10:00PM, SUN: 2:00PM – 9:00PM",,,
COACH FLAMBOYANT GOIANIA,,"AV. JAMEL CECILIO, 3300","PISO 3, LOJA 514",GOIANA,,,United States,(62)3110-5783,,,"MON - SAT: 10:00AM – 10:00PM, SUN: 2:00PM – 8:00PM",,,
COACH QVB MENS,,"SHOP 14 GROUND FLOOR,  455 GEORGE STREET",,SYDNEY,,NSW 2000,United States,+61 (2) 9264 5678,,,"MON-WED, FRI-SAT:  9AM-6PM, THU:  9AM-9PM, SUN: 11AM-5PM",,,
COACH CAMBODIA SIEM REAP,,#755 ST WATTBO,"BANTEIYCHAS, SLOKRAM",SIEM REAP,,,United States,,,,,,,
COACH PUNTA CANA AIRPORT,,AEROPUERTO INT. DE PUNTA CANA,RNC.#130540952,HIGUEY,,23000,United States,(829)-762-0389,,,SUN-MON: 24 HOURS,,,
COACH BRUSSELS AIRPORT,,SKYSHOP BRUSSELS AIRPORT,,ZAVENTEM,,1930,United States,32 (0)2 753 22 99,,,MON-SUN 6:00AM-8:00PM,,,
COACH ALA MOANA,,1450 ALA MOANA BLVD.,SPACE # 2710,HONOLULU,HI,96814,United States,(808) 947-4550,,,"MON-SAT: 9:30AM-9PM, SUN: 10AM-7PM",,,
COACH MEDELLIN,,PARQUE COMERCIAL EL TESORO P.H.,"CARRERA 25, NO. 1A SUR 45, LOCAL 3029",MEDELLIN,,,United States,(57) 4-423-2385,,,MON - SAT: 10:00AM - 7:00PM,,,
COACH SEATTLE AIRPORT,,SEATTLE-TACOMA INTERNATIONAL AIRPORT,"17801 INTERNATIONAL BLVD, ROOM 5411",SEATTLE,,98158,United States,,,,,,,
COACH LIVERPOOL POLANCO,,MARIANO ESCOBEDO NO. 425,COLONIA CHAPULTEPEC MORAL,DELEGACIÓN MIGUEL HIDALGO,,C.P. 1157,United States,,,,SUN-SAT: 11:00AM - 09:00PM,,,
COACH MIAMI AIRPORT TERMINAL H,,MIAMI INTERNATIONAL AIRPORT,"2100 NW 42ND AVENUE, TERMINAL  H",MIAMI,,33126,United States,(305) 869-4947,,,SUN:-MON: 5:00AM -9:00PM,,,
COACH SRIVAREE COMPLEX,,"88,WAT SRIWAREENOI ROAD, BANGCHALONG",BANGPLEE,SAMUT PRAKAN,,10540,United States,+66 205 8888,,,MON-SUN: 10AM-9PM,,,
COACH SANTE FE,,CENTRO COMERCIAL SANTA FE VASCO DE QUIROGA,"#3800 LOCAL 360, COL. ANTIGUA MINA LA TOTOLAPA",DELEGACIÓN CUAJIMALPA DE MORELOS,,CP 05109,United States,(5255) 21-674111,,,,,,
COACH CENTRAL BANGNA,,"1ST FLOOR, 589 SOI BANG NA-TRAT 23",BANGNA,BANGKOK,,10260,United States,+62 (2) 745 6711,,,"MON-THU: 10:30AM-9PM, FRI: 10:30AM-10PM, SAT-SUN: 10AM-10PM",,,
COACH PALMA DE MALLORCA,,EL CORTE INGLES,"AVENIDA ALEXANDRE ROSSELLÓ, 12-16",PALMA DE MALLORCA,,7002,United States,34 (0)9 71 46 40 32,,,"MON-SAT 9:30AM-9:30PM, SUN: CLOSED",,,
COACH LEBLON,,SHOPPING LEBLON – 3º FLOOR,"AFRÂNIO DE MELO FRANCO AVENUE, 290",LEBLON,,22430-060,United States,(55) 21-2540-8370,,,"MON-SAT: 10:00AM - 10:00PM, SUN:  1:00PM - 9:00PM, HOLIDAYS: 3:00PM-9:00PM",,,
COACH TOLON MALL,,"C.C. TOLON, AV PPAL ENTRE CALLE COPERNICO Y",NEW YORK. NIVEL PB. LOCAL PB07 Y PB08. URB.,LAS MERCEDES,,1080,United States,300-8910/300-8911,,,MON - SAT: 10:00AM - 9:00PM; SUN 11:00AM - 8:00PM,,,
COACH LISBON FACTORY,,"AVENIDA EURO 2004, N.º 1298 LOJA C19,21 2890-154",,LISBON,,,United States,212 343 285,,,SUN – THUR: 10AM – 10PM FRI – SAT: 10AM – 11PM,,,
COACH MAASMECHELEN OUTLET,,MAASMECHELEN VILLAGE,"COACH UNIT 39, ZETELLAAN 100",MAASMECHELEN,,3630,United States,+32 89 77 35 70,,,"MON-FRI: 10AM-6PM, SAT-SUN: 10AM-7PM",,,
COACH C.C. PARQUE COSTA AZUL,,"NIVEL PB, LOCAL LF2-06/07",URB. PLAYA EL ANGEL. PORLAMAR,ISLA MARGARITA,,,United States,,,,,,,
COACH DOHA AIRPORT DF,,"STREET NO. 310 AIRPORT ROAD WEST,  AREA NO 48","BUILDING 145, 2ND FLOOR",DOHA,,22553,United States,NO PHONE AVAILABLE,,,SUN-MON: 12:00AM - 12:00AM,,,
COACH JAKARTA AIRPORT,,LOTTE DUTY FREE STORE - TERMINAL 2E,BANDARA INTERNASIONAL SOEKARNO HATTA,CENGKARENG,,19120,United States,(62) 21-5591-3098,,,MON-SUN:  6:00AM - 12:00AM,,,
COACH CHILE AIRPORT,,AEROPUERTO ARTURO MERINO BENITEZ LOCAL C313,EMBARQUE INTERNACIONAL,SANTIAGO,,,United States,56- 2-2601-0148,,,SUN - MON: 6:00AM - 11:00PM,,,
COACH TUNJUNGAN PLAZA,,JL. BASUKI RAHMAT NO. 8 - 12,UNIT PW UG - 58 - 61,SURABAYA,,60261,United States,+62 (31) 534 1005,,,MON-SUN: 10AM-10PM,,,
COACH MELBOURNE EMPORIUM,,"EMPORIUM CENTRE, SHOP G-016",287 LONSDALE STREET,MELBOURNE,,VIC 3000,United States,+61 (3) 8609 8294,,,"MON-WED, SAT: 10AM–7PM, THU-FRI: 10AM–9PM, SUN: 10AM-6PM",,,
COACH CENTRAL WORLD EXTENSION,,"1ST-2ND FLOOR, 999/9 RAMA1 ROAD","LUMPINI, PATHUMWAN",BANGKOK,,10330,United States,+66 (2) 646 1263,,,MON-SUN: 10AM-10PM,,,
COACH IGUATEMI SÃO PAULO,,"AV. BRIGADEIRO FARIA LIMA, 2232 LOJA J-01E PISO 1",,SAO PAULO,,01489-900,United States,(55) 11-4380-0713,,,"MON - SAT: 10:00AM – 10:00PM, SUN: 2:00PM – 9:00PM",,,
COACH PALACIO DE HIERRO CANCUN FOOTWEAR,,"LA ISLA, SHOPPING VILLAGE. BLVD. KUKULKAN KM. 12.5",SUBCONDOMINIO B MANZANA 52 ZONA HOTELERA,CANCUN,,CP 77500,United States,(52) 99-8193-1490,,,MON - SUN:  11:00AM - 10:00PM,,,
COACH PALACIO DE HEIRRO - INTERLOMAS FOOTWEAR,,PASEO INTERLOMAS VIALIDAD DE LA BARRANCA,N°6 EX. HACIENDA,JESUS DEL MONTE HUIXQUILUCAN E.M.,,,United States,(52) 55 36 05 0432,,,"SUN - FRI:  11:00AM - 9:00PM, SAT 11:00AM - 10:00 PM",,,
COACH JK IGUATEMI,,"AV. PRESIDENTE JUSCELINO KUBITSCHEK, 2.041","LJS 264, 265, 266  V. NOVA CONCEIÇÃO",SÃO PAULO,,04543-011,United States,(550 11 3071-3932,,,MON-SAT:  10:00AM-10:00PM  SUN: 2:00PM-8:00PM,,,
COACH GALERIES LAFAYETTE,,JL. JEND. SUDIRMAN KAV. 52/53,"PACIFIC PLACE, GROUND FLOOR",JAKARTA,,12190,United States,+62 (21) 5797 3417,,,MON-SUN: 10AM-10PM,,,
COACH ST. COLLINS LANE,,COLLINS STREET,SHOP FGA & FLA 260,MELBOURNE,,VIC 3000,United States,+61 (3) 9639 6985,,,"MON-THU:7AM-9PM, FRI-SAT:8AM-8PM, SUN:8AM-6PM",,,
COACH MEXICO FSS QUERETARO,,CARRETERA QUERÉTARO - SAN LUIS POTOSÍ NO. 12401,DEL. FELIX OSORES SOTOMAYOR,MEXICO CITY,,CP 76127,United States,(44) 2-688-1364,,,"MON-THURS: 11:00AM-8:30PM, FRI- SAT: 11:00AM-9:00PM",,,
COACH PALACIO - ACAPULCO FOOTWEAR,,BOULEVARD DE LAS NACIONES 1813,PLAYA DIAMANTE,ACAPULCO,,39907,United States,(01) 744-435-2900,,,MON-SUN 11:00AM-9:00PM,,,
COACH PALACIO - ACOXPA FOOTWEAR,,"CALZADA ACOXPA NO. 430, ANDADOR 5 LT 7-8",RESIDENCIAL EX HACIENDA ACOXPA,MEXICO CITY,,14300,United States,(01)555-5991-990,,,MON-SUN 11:00AM-9:15PM,,,
COACH MAL CIPUTRA WORLD SURABAYA,,JL. MAYJEN SUNGKONO KAV. 89,GROUND FLOOR 38-39,SURABAYA,,30256,United States,+62 (31) 5120 0352,,,MON-SUN: 10AM-10PM,,,
COACH GALERIES LAFAYETTE HOMME,,38 BOULVEARD HAUSSMANN,"RDC ACCESSORIES, ÉTAGE 0",PARIS,,75009,United States,+33 (0)1 42 66 10 70,,,"MON-SAT 9.30AM-8PM, THU: 9:35AM-9PM",,,
COACH GALERIES LAFAYETTE FEMME,,40 BOULVEARD HAUSSMAN,"RDC ACCESSORIES, ÉTAGE 0",PARIS,,75009,United States,+33 (0)1 45 26 40 53,,,"MON-SAT: 9:30AM-8PM, THU: 9:35AM-9PM",,,
COACH PRINTEMPS LOUVRE,,CARROUSEL DU LOUVRES,99 RUE DE RIVOLI,PARIS,,75001,United States,+33 (0)1 42 60 12 36,,,"MON, WED, THU, FRI AND SUN 9.30AM-8PM, TUE AND SAT 10AM-8PM",,,
COACH MARBELLA,,"EL CORTE INGLÉS C/ RAMON ARECES S-N,",,MARBELLA,,29660,United States,+34 (0)9 51 31 92 74,,,MON-SAT 10AM-10PM,,,
COACH PINTOR SOROLLA,,"EL CORTE INGLÉS CALLE PINTOR SOROLLA, 26",,VALENCIA,,46002,United States,+34 (0)9 63 94 35 80,,,"MON-SAT 10AM-10PM, SUN AND HOLIDAYS 11AM-9PM",,,
COACH PLAZA CATALUÑA,,"EL CORTE INGLES, PLAZA CATALUÑA, 14",,BARCELONA,,8002,United States,+34 (0)9 33 18 24 88,,,"MON-SAT 9.30AM-9.30PM, SUN IS CLOSED",,,
COACH MORUMBI,,"AV. ROQUE PETRONI JR, 1.089",LJ 201-S   BROOKLIN,SÃO PAULO,,04707-900,United States,(11) 5181-5469,,,MON - SAT: 10:00AM-10:00PM  SUN: 2:00PM - 8:00PM,,,
COACH PÁTIO BATEL,,"AV. BATEL, 1868 LOJA 162 PISO L1",,CURITIBA,,80420-090,United States,(41) 3020-3634,,,"MON - SAT: 10:00AM – 10:00PM, SUN: 2:00PM – 9:00PM",,,
COACH WAIKIKI,,2335 KALAKAUA AVENUE,,HONOLULU,HI,96815,United States,(808) 923-0549,,,MON-SUN: 9:30AM-11PM,,,
COACH LUXURY ROW,,2110 KALAKAUA AVENUE,,HONOLULU,HI,96815,United States,(808) 924-1677,,,MON-SUN: 10AM-10PM,,,
COACH THE GROVE - LOS ANGELES,,189 THE GROVE DRIVE,SUITE K20,LOS ANGELES,CA,90036,United States,(323) 934-7436,,,"MON-THU: 10AM-9PM, FRI-SAT: 10AM-10PM, SUN: 10AM-8PM",,,
COACH WASHINGTON SQUARE,,9689 SW WASHINGTON SQ RD,,TIGARD,OR,97223,United States,(503) 968-1772,,,"MON-SAT: 10AM-9PM, SUN: 10AM-7PM",,,
COACH BEVERLY CENTER,,"8500 BEVERLY BLVD., SPACE 718",,LOS ANGELES,CA,90048,United States,(310) 659-1772,,,"MON-FRI: 10AM-9PM, SAT: 10AM-8PM, SUN: 11AM-6PM",,,
COACH SHERMAN OAKS,,"14006 RIVERSIDE DRIVE, SUITE 34",,SHERMAN OAKS,CA,91423,United States,(818) 995-4573,,,"MON-SAT: 10AM-9PM, SUN: 11AM-6PM",,,
COACH RODEO DRIVE,,327 N. RODEO DRIVE,,BEVERLY HILLS,CA,90210,United States,(310) 247-1309,,,"MON-SAT: 10AM-7PM, SUN: 10AM-6PM",,,
COACH LOS ANGELES AIRPORT,,LAX TBIT TERMINAL,380 WORLD WAY,LOS ANGELES,,90045,United States,(424) 750-9171,,,SUN - SAT:  9AM - 1AM,,,
COACH DEL AMO FASHION CENTER,,21712 HAWTHORNE BLVD.,SPACE #218A,TORRANCE,CA,90503,United States,(310) 371-2484,,,"MON-FRI: 10AM-9PM, SAT: 10AM-8PM, SUN: 11AM-7PM",,,
COACH SANTA MONICA PLACE,,395 SANTA MONICA PLACE,SPACE #130,SANTA MONICA,CA,90401,United States,(310) 394-5925,,,"MON-SAT: 10AM-9PM, SUN: 11AM-8PM",,,
COACH ROSEVILLE - THE GALLERIA AT ROSEVILLE,,"1151 GALLERIA BLVD., SPACE 155",,ROSEVILLE,CA,95678,United States,(916) 786-3639,,,"MON-SAT: 10AM-9PM, SUN: 10AM-7PM",,,
COACH BOGOTA AIRPORT,,CRA 12 NO 97  80  PISO 3,,BOGOTA,,,United States,(57) 745-4353,,,MON-SUN:  5:30AM - 11:30PM,,,
COACH ANDINO,,CARRERA 11 #82-51 CENTRO COMERCIAL,ANDINO LOCAL 175,BOGOTA,,,United States,(57)1-256-3396,,,MON - SAT: 10:00AM - 7:00PM,,,
COACH SACRAMENTO,,1689 ARDEN WAY,SPACE #1318,SACRAMENTO,CA,95815,United States,(916) 641-1772,,,"MON-SAT: 10AM-9PM, SUN: 11AM-7PM",,,
COACH VINTAGE FAIRE MALL,,3401 DALE RD.,642,MODESTO,CA,95356,United States,(209) 523-7410,,,"MON-SAT: 10AM-9PM, SUN: 11AM-7PM",,,
COACH STONERIDGE,,2037 STONERIDGE MALL ROAD SPACE A- 216,,PLEASANTON,CA,94588,United States,(925) 734-0198,,,"MON-SAT: 10AM-9PM, SUN: 11AM-7PM",,,
COACH SAN FRANCISCO INTERNATIONAL AIRPORT,,"100 INTERNATIONAL LOOP, CONCOURSE A",GATE 91 COURTYARD 4,SAN FRANCISCO,CA,94128,United States,(650) 821-6262,,,MON-SUN 8:30AM-12:30AM,,,
COACH VALLEY FAIR,,2855 STEVENS CREEK BLVD.,A-202,SANTA CLARA,CA,95050,United States,(408) 249-1772,,,"MON-SAT: 10AM-9PM, SUN: 11AM-7PM",,,
COACH PALO ALTO - THE MALL AT PALO ALTO,,361 STANFORD SHOPPING CENTER,,PALO ALTO,CA,94304,United States,(650) 327-1772,,,"MON-FRI: 10AM-9PM, SAT: 10AM-7PM, SUN: 11AM-6PM",,,
COACH 190 POST ST,,190 POST STREET,,SAN FRANCISCO,CA,94108,United States,(415) 392-1772,,,"MON-SAT: 10AM-8PM, SUN: 11AM-6PM",,,
COACH SAN FRANCISCO CENTRE - SAN FRANCISCO CENTRE,,"865 MARKET STREET, SPACE #222",,SAN FRANCISCO,CA,94103,United States,(415) 543-7152,,,"MON-SAT: 10AM-8:30PM, SUN: 11AM-7PM",,,
COACH SAN FRANCISCO INTERNATIONAL AIRPORT,,INTERNATIONAL TEMINAL AE-10,,SAN FRANCISCO,CA,94128-3300,United States,(650) 821-6263,,,MON-SUN: 9:00AM – 12:30AM,,,
DUBLIN ARNOTTS,,12 HENRY STREET,,DUBLIN,,D1,United States,+35 (0)3 1805 0400 e,,,"MON-FRI 10AM-7PM, SAT 9AM-7PM, SUN 11AM-7PM",,,
COACH ANCHORAGE FIFTH AVENUE,,320 W 5TH AVENUE,SPACE #306,ANCHORAGE,AK,99501,United States,(907) 743-8091,,,"MON-FRI: 10AM-9PM, SAT: 10AM-8PM, SUN: 11AM-6PM",,,
COACH LISBOA,,"EL CORTE INGLÊS LISBOA, AV ANTÓNIO AUGUSTO DE AGUI",,LISBOA,,1069 413,United States,+35 1 213 883 644,,,"MON-THU 10AM-10PM, FRI-SAT 10AM-11.30PM, SUN AND HOLIDAYS 10AM-8PM",,,
COACH WESTFIELD,,WESTFIELD MALL,"SPACE 127 & 128, ARIEL WAY",LONDON,,W12 7GF,United States,44 (0)20 3141 8900,,,"MON-SAT: 10:00AM-10:00PM, SUN: 12:00PM-6:00PM",,,
COACH NEW BOND STREET,,41-42 NEW BOND STREET,,LONDON,,W1S 2RY,United States,+44 (0)20 3141 8901,,,"MON-SAT 10AM-7PM, SUN 12PM-6PM",,,
COACH CASTELLANA,,"EL CORTE INGLÉS, RAIMUNDO FDEZ VILLAVERDE, 79",,MADRID,,28003,United States,+34 (0)9 17 70 52 06,,,"MON-SAT 10AM-10PM, SUN 11AM-9PM",,,
COACH SERRANO,,"EL CORTE INGLÉS, CALLE SERRANO 47",,MADRID,,28001,United States,+34 (0)9 15 75 13 46,,,"MON-SAT 10AM-10PM, SUN AND HOLIDAYS 11AM-9PM",,,
COACH  JOCKEY PLAZA,,"LOCAL A1-61, JOCKEY PLAZA SHOPPING CENTER",AVENIDA JAVIER PRADO ESTE 4200 SURCO,SANTIAGO DE SURCO,,,United States,(511) 436-6880,,,,,,
COACH PRINTEMPS HAUSSMANN HOMME,,61 RUE CAUMARTIN,"RDC ACCESSOIRES, ÉTAGE 0",PARIS,,75009,United States,+33 (0)1 42 82 40 99,,,"MON-SAT: 9:35AM-8PM, THU: 9:35AM-10PM",,,
COACH PRINTEMPS HAUSSMANN FEMME ÉTAGE -1,,64 BOULEVARD HAUSSMANN,,PARIS,,75009,United States,+33 (0)1 44 63 29 81,,,"MON-SAT: 9:35AM-8PM, THU 9:35AM-10PM",,,
COACH FIESTA MALL,,DUTY FREE FIESTAMALL COMPLEX,NINOY AQUINO AVENUE,"SUCAT, PARANAQUE CITY",,1700,United States,+63 (2) 552 4337,,,MON-SUN: 9AM-9PM,,,
EL HIERRO POLANCO MEN'S,,"PALACIO DE HIERRO, AV MOLIERE 222",,POLANCO,,11550,United States,(52) 55 5280 4650,,,,,,
COACH BOULEVARD MALL,,"BOULEVARD MALL, KING ABDULAZIZ RD, ASH SHATI",,JEDDAH,,,United States,,,,"SAT-THU: 10:00 AM-11:00 PM, FRI: 5:00 PM-11:00 PM",,,
COACH KINMEN DOWNTOWN DF,,"NO. 198, SECTION 2","TAIHU RD, JINHU TOWNSHIP",KINMEN,,89141,United States,(0800)555-006 / (080,,,SUN-MON: 9:00AM-9:00PM,,,
COACH LIVERPOOL - SANTE FE FOOTWEAR,,AV VASCO DE QUIROGA 3800,SANTA FE,MEXICO CITY,,05109,United States,(01) 555-257-9000,,,MON-SUN 11:00AM-9:00PM,,,
COACH RIO MAR,,"AV. REPÚBLICA DO LÍBANO, 251",LJ. 2113 SC233 PISO L2 PINA,RECIFE,,51110-160,United States,(81) 3327-0308,,,"MON – SAT: 9:00AM – 10:00PM, SUN: 12:00PM – 9:00PM",,,
COACH PH QUERETARO,,CARRETERA QUERÉTARO - SAN LUIS POTOSI 12401,EL SALITRE,QUERETARO,,76127,United States,(01) 442-384-3000,,,MON-SUN 11:00AM-9:00PM,,,
COACH PRINTEMPS HAUSSMANN RDC BAS,,64 BOULEVARD HAUSSMANN,RDC BAS - ENTRÉE CHARRAS,75009 PARIS,,75009,United States,+33 (0)1 42 82 49 34,,,"MON-SAT 9.35AM-8PM, THU 9.35AM-08.45PM",,,
COACH PLAZA INDONESIA,,JL. M.H. THAMRIN KAV. 28,"TUNJUNGAN PLAZA 4 LEVEL 2 # 002, 003, 004, 106",JAKARTA,,10350,United States,+62 (21) 2992 4176,,,MON-SUN: 10AM-10PM,,,
COACH BALI BEACHWALK,,BEACHWALK BALI L1#F-15,"JL. PANTAI KUTA,",BALI,,80361,United States,,,,SUN-SAT: 10:00AM - 10:00PM,,,
COACH NORTHPARK CENTER,,8687 N CENTRAL EXPRESSWAY SPACE 1324,,DALLAS,TX,75225,United States,(214) 696-1772,,,"MON-SAT: 10AM-9PM, SUN: 12PM-6PM",,,
COACH DALLAS,,13350 DALLAS PKWY,SPACE #1490,DALLAS,TX,75240,United States,(972) 392-1772,,,"MON: 10AM-9PM, TUE-FRI: 10AM-9:30PM, SAT: 9:30AM-10PM, SUN: 11AM-6:30PM",,,
COACH SOUTHLAKE TOWN SQUARE,,400 GRAND AVENUE WEST,,SOUTHLAKE,TX,76092,United States,(817) 310-6668,,,TEMPORARILY CLOSED FOR RENOVATION. EXPECTED TO REOPEN IN AUGUST 2017.,,,
COACH WOODLANDS MALL,,1201 LAKE WOODLAND DRIVE,SPACE #1130,THE WOODLANDS,TX,77380,United States,(281) 298-2579,,,"MON-SAT: 10AM-9PM, SUN: 12PM-6PM",,,
COACH HOUSTON GALLERIA,,5135 WEST ALABAMA,SUITE 5135,HOUSTON,TX,77056,United States,(713) 622-1705,,,"MON-SAT: 10AM-9PM, SUN: 11AM-7PM",,,
COACH MEMORIAL CITY,,740 MEMORIAL CITY MALL,,HOUSTON,TX,77024,United States,(713) 468-4160,,,"MON-SAT: 10AM-9PM, SUN: 11AM-7PM",,,
COACH FIRST COLONY MALL,,16535 SOUTHWEST FREEWAY,SPACE #645,SUGARLAND,TX,77479,United States,(281) 494-0014,,,"MON-SAT: 10AM-9PM, SUN: 12PM-6PM",,,
COACH THE DOMAIN,,11601 CENTURY OAKS TERRACE,SUITE 125,AUSTIN,TX,78758,United States,(512) 339-9994,,,"MON-SAT: 10AM-9PM, SUN: 12PM-6PM",,,
COACH BARTON CREEK - BARTON CREEK SQUARE MALL,,2901 S. CAPITAL OF TEXAS HIGHWAY #H11A,,AUSTIN,TX,78746,United States,(512) 330-9929,,,"MON-SAT: 10AM-9PM, SUN: 12PM-6PM",,,
COACH LA ISLA CANCUN,,BOULEVARD KUKULCAN KM 12.5 LOCAL B-2,"COL. ZONA HOTELERA, MPO. BENITO JUAREZ  CP 77500",CANCUN,,77500,United States,(52) 99-8883-2028,,,MON-SUN: 11:00AM-10:00PM,,,
COACH NORTH STAR MALL,,"7400 SAN PEDRO, SUITE #50",,SAN ANTONIO,TX,78216,United States,(210) 348-7010,,,"MON-SAT: 10AM-9PM, SUN: 12PM-6PM",,,
COACH LA CANTERA,,15900  LA CANTERA PARKWAY SUITE 2285,,SAN ANTONIO,TX,78256,United States,(210) 641-0600,,,"MON-SAT: 10AM-9PM, SUN: 12PM-6PM",,,
COACH INGRAM PARK MALL,,6301 NW LOOP 410,SPACE #S08,SAN ANTONIO,TX,78238,United States,(210) 647-2957,,,"MON-SAT: 10AM-9PM, SUN: 12PM-6PM",,,
COACH LA PALMERA,,5488 S. PADRE ISLAND DRIVE,SPACE #1224,CORPUS CHRISTI,TX,78411,United States,(361) 985-0045,,,"MON-SAT: 10AM-9PM, SUN: 11AM-7PM",,,
COACH MALL OF SAN JUAN,,1000 MALL OF SAN JUAN BLVD,SPACE #260,SAN JUAN,PR,00924,United States,(787) 759-2660,,,"MON-SAT: 10AM-9PM, SUN: 11AM-7PM (CLOSED ON 05/14/2017)",,,
COACH PARK MEADOWS,,8405 PARK MEADOWS CENTER DRIVE,SUITE #1131,LONE TREE,CO,80124,United States,(303) 792-0600,,,"MON-SAT: 10AM-9PM, SUN: 11AM-6PM",,,
COACH CHERRY CREEK,,3000 EAST FIRST AVENUE,SPACE 274,DENVER,CO,80206,United States,(303) 393-1772,,,"MON-SAT: 10AM-9PM, SUN: 11AM-6PM",,,
COACH FLATIRON,,"1 WEST FLATIRON CIRCLE,SPACE 1012",,BROOMFIELD,CO,80021,United States,(303) 460-7634,,,"MON-SAT: 10AM-9PM, SUN: 11AM-6PM",,,
COACH YACHT HAVEN,,"5328 YACHT HAVEN GRANDE, SUITE #104",,ST. THOMAS,,00802,United States,340-776-1930,,,"MON-SAT 10:00AM-7:00PM, SUN 10:00AM- 5:00PM",,,
COACH MIDLAND PARK MALL,,4511 N MIDKIFF ROAD,SPACE #E01B,MIDLAND,TX,79705,United States,(432) 694-8000,,,"MON-FRI: 10AM-9PM, SAT: 9AM-9PM, SUN: 11AM-6PM",,,
COACH VILLAGE POINTE,,17255 DAVENPORT STREET,SUITE #119,OMAHA,NE,68118,United States,(402) 289-5515,,,"MON-SAT: 10AM-9PM, SUN: 12PM-6PM",,,
COACH LAKESIDE - LAKESIDE SHOPPING CENTER,,"3301 VETERANS MEMORIAL BLVD., SUITE 51",,METAIRIE,LA,70002,United States,(504) 833-0774,,,"MON-SAT: 10AM-9PM, SUN: 12PM-6PM",,,
COACH EMPIRE MALL,,870 EMPIRE MALL,,SIOUX FALLS,SD,57106,United States,(605) 361-3677,,,"MON-SAT: 10AM-9PM, SUN: 12PM-6PM",,,
COACH WOODLAND- TULSA,,7021 S MEMORIAL DR.,SPACE #180,TULSA,OK,74133,United States,(918) 307-0155,,,"MON-SAT: 10AM-9PM, SUN: 12PM-7PM",,,
COACH UTICA SQUARE,,1846 UTICA SQUARE,SPACE #1846,TULSA,OK,74114,United States,(918) 742-7533,,,"MON-SAT: 10AM-7PM, SUN: 12PM-5PM",,,
COACH TOWNE EAST SQUARE,,7700 E KELLOGG DR.,SPACE #1422,WICHITA,KS,67207,United States,(316) 686-0670,,,"MON-SAT: 10AM-9PM, SUN: 11AM-6PM",,,
COACH BROADWAY SQUARE,,4601 S BROADWAY AVE,SPACE #C05,TYLER,TX,75703,United States,(903) 581-5770,,,"MON-SAT: 10AM-9PM, SUN: 12PM-6PM",,,
COACH PENN SQUARE,,1901 NW EXPRESSWAY,SUITE #1015B,OKLAHOMA CITY,OK,73118,United States,(405) 842-4247,,,"MON-FRI: 10AM-9PM, SAT: 9AM-9PM, SUN: 11AM-6PM",,,
COACH STONEBRIAR CENTRE,,2601 PRESTON ROAD,SUITE #2060,FRISCO,TX,75034,United States,(972) 731-7500,,,"MON-SAT: 10AM-9PM, SUN: 11AM-6:30PM",,,
COACH LEGACY WEST,,7601 WINDROSE AVENUE,SUITE #F130,PLANO,TX,75024,United States,,,,OPENING ON 06/02/2017,,,
COACH PALAZZO - THE SHOPPES AT THE PALAZZO,,3327 LAS VEGAS BLVD. SOUTH,SPACE #2846,LAS VEGAS,NV,89109,United States,(702) 547-1772,,,"MON-THU: 10AM-11PM, FRI-SAT: 10AM-12AM, SUN: 9AM-11PM",,,
COACH FORUM,,3500 LAS VEGAS BLVD. SO. SPACE A-01,,LAS VEGAS,NV,89109,United States,(702) 651-0363,,,"MON-THU: 10AM-11PM, FRI-SAT: 10AM-12AM, SUN: 10AM-11PM",,,
COACH FORUM II,,"3500 LAS VEGAS BLVD. SO.,",SPACE S 54,LAS VEGAS,NV,89109,United States,(702) 796-1772,,,"MON-THU: 10AM-11PM, FRI-SAT: 10AM-12AM, SUN: 10AM-11PM",,,
COACH COLUMBIA CENTER,,1321 N. COLUMBIA CENTER BLVD.,SPACE #220A,KENNEWICK,WA,99336,United States,(509) 783-5920,,,"MON-SAT: 10AM-9PM, SUN: 11AM-7PM",,,
COACH MEADOWOOD MALL,,5425 MEADOWOOD MALL CIRCLE,SPACE #C107A,RENO,NV,89502,United States,(775) 825-6459,,,"MON-SAT: 10AM-9PM, SUN: 11AM-6PM",,,
COACH PROMENADE IN TEMECULA,,40764 WINCHESTER ROAD,SPACE #550,TEMECULA,CA,92591,United States,(951) 296-0121,,,"MON-SAT: 10AM-9PM, SUN: 11AM-7PM",,,
COACH BELLEVUE SQUARE,,155 BELLEVUE SQ,,BELLEVUE,WA,98004,United States,(425) 453-0141,,,TEMPORARILY CLOSED FOR RENOVATION. EXPECTED TO REOPEN IN MAY 2017.,,,
COACH FASHION VALLEY,,7007 FRIARS ROAD - SUITE 371,,SAN DIEGO,CA,92108,United States,(619) 260-0772,,,"MON-SAT: 10AM-9PM, SUN: 11AM-7PM",,,
COACH BREA,,1052 BREA MALL,,BREA,CA,92821,United States,(714) 257-0772,,,"MON: 10AM-9AM, TUE-SAT: 10AM-9PM, SUN: 11AM-7PM",,,
COACH SANTA ANITA,,400 S. BALDWIN AVENUE,SUITE 2135,ARCADIA,CA,91007,United States,(626) 821-0735,,,"MON-SAT: 10AM-9PM, SUN: 11AM-7PM",,,
COACH SOUTHCENTER,,607 SOUTHCENTER,SPACE #1540,SEATTLE,WA,98188,United States,(206) 214-0645,,,"MON-SAT: 10AM-9PM, SUN: 11AM-7PM",,,
COACH PACIFIC PLACE,,"600 PINE STREET, SPACE #110",,SEATTLE,WA,98101,United States,(206) 264-0372,,,"MON-SAT: 9:30AM-9:30PM, SUN: 10AM-8PM",,,
COACH NORTH COUNTY,,200 EAST VIA RANCHO PARKWAY,SPACE #343,ESCONDIDO,CA,92025,United States,(760) 480-7350,,,"MON-SAT: 10AM-9PM, SUN: 11AM-7PM",,,
COACH MAIN PLACE,,2800 N. MAIN STREET,SPACE #332A,SANTA ANA,CA,92705,United States,(714) 571-4956,,,"MON-FRI: 10AM-9PM, SAT: 10AM-8PM, SUN: 11AM-7PM",,,
COACH SOUTH COAST PLAZA - SOUTH COAST PLAZA,,3333 BRISTOL STREET,SPACE 1224,COSTA MESA,CA,92626,United States,(714) 979-1771,,,"VISIT OUR TEMPORARY STORE LOCATION AT 3333 BRISTOL STREET SPACE #1224 COSTA MESA, CA 92626 WHILE WE RENOVATE OUR PERMANENT STORE",,,
COACH MONTEBELLO TOWN CENTER,,1772 MONTEBELLO TOWN CENTER DR.,SPACE #A19,MONTEBELLO,CA,90640,United States,(323) 726-2791,,,"MON-SAT: 10AM-9PM, SUN: 11AM-7PM",,,
COACH CLACKAMAS TOWN CENTER,,12000 SE 82ND AVENUE,SUITE #1030,PORTLAND,OR,97086,United States,(503) 353-0088,,,"MON-SAT: 10AM-9PM, SUN: 11AM-7PM",,,
COACH LOS CERRITOS,,251 LOS CERRITOS CENTER,SPACE # D21,CERRITOS,CA,90703,United States,(562) 809-2953,,,"MON-FRI: 10AM-9PM, SAT: 10AM-8PM, SUN: 11AM-7PM",,,
COACH GLENDALE,,2110 GLENDALE GALLERIA,,GLENDALE,CA,91210,United States,(818) 551-0772,,,"MON-SAT: 10AM-9PM, SUN: 11AM-7PM",,,
COACH PORTLAND,,700 SOUTHWEST FIFTH AVENUE,SPACE #2045,PORTLAND,OR,97204,United States,(503) 294-0772,,,"MON-SAT: 10AM-8PM, SUN: 11AM-6PM",,,
COACH SAN TAN VILLAGE,,2206 E. WILLIAMS FIELD RD.,"BLDG 9, SUITE 110",GILBERT,AZ,85296,United States,(480) 722-2635,,,"MON-SAT: 10AM-9PM, SUN: 11AM-6PM",,,
COACH KIERLAND COMMONS,,15215 N. KIERLAND BLVD.,SUITE 130,SCOTTSDALE,AZ,85254,United States,(480) 596-0755,,,"MON-SAT: 10AM-9PM, SUN: 12PM-6PM",,,
COACH CHANDLER,,3111 WEST CHANDLER BLVD.,SPACE 1052,CHANDLER,AZ,85226,United States,(480) 792-9464,,,"MON-SAT: 10AM-9PM, SUN: 11AM-6PM",,,
COACH SCOTTSDALE,,7014 E CAMELBACK RD,STE 1136,SCOTTSDALE,AZ,85251,United States,(480) 949-1772,,,"MON: 8AM-9PM, TUE-FRI: 10AM-9PM, SAT: 10AM-6PM, SUN: 11AM-6PM",,,
COACH ARROWHEAD TOWNE CENTER,,7700 W. ARROWHEAD TOWNE CENTER,SPACE #1088,GLENDALE,AZ,85308,United States,(623) 334-4740,,,"MON-SAT: 10AM-9PM, SUN: 11AM-6PM",,,
COACH BOISE TOWN SQUARE,,350 NORTH MILWAUKEE,SPACE #1164,BOISE,ID,83704,United States,(208) 376-6146,,,"MON-SAT: 10AM-9PM, SUN: 11AM-7PM",,,
COACH GUADALAJARA ANDARES,,BOULEVARD PUERTA DE HIERRO #4965,"FRACCIONAMIENTO PLAZA ANDARES, INTERIOR UPV-428",ZAPOPAN JALISCO,,45116,United States,(52) 33-3611-2602,,,SUN-THU: 11:00AM-8:30PM FRI-SAT 11:00AM-9:00PM,,,
COACH PANAMA MULTIPLAZA,,LOCAL A-148 PASILLO DE LAS PALMAS,"MULTIPLAZA PACIFIC, VIA ISRAEL, PUNTA PACIFICA",PANAMA CITY,,,United States,(507) 302-0521,,,,,,
COACH FASHION SHOW,,3200 LAS VEGAS BLVD,SPACE 2022,LAS VEGAS,NV,89109,United States,(702) 759-3451,,,"MON-SAT: 10AM-9PM, SUN: 11AM-7PM",,,
COACH LAS VEGAS AIRPORT,,LAS VEGAS MCCARRAN AIRPORT,TERMINAL D,LAS VEGAS,,89111,United States,(702) 261-7335,,,"MON-THURS: 5:00AM-9:00PM, FRI-SUN: 5:00AM-11:00PM",,,
DILLARD'S - CARY TOWN CENTER,,1105 WALNUT STREET,,CARY,NC,27511,United States,,,,,,,
DILLARD'S - VALLEY HILLS MALL,,1930 US HIGHWAY 70 SE,,HICKORY,NC,28602,United States,,,,,,,
DILLARD'S - COASTAL GRANDE,,100 COASTAL GRAND CIRCLE,,MYRTLE BEACH,SC,29577,United States,,,,,,,
DILLARD'S - HAYWOOD MALL,,700 HAYWOOD ROAD STE 508,,GREENVILLE,SC,29607,United States,,,,,,,
DILLARD'S - ANDERSON MALL,,3101 NMAIN SUITE D,,ANDERSON,SC,29621,United States,,,,,,,
DILLARD'S - MACARTHUR CENTER,,200 MONTICELLO AVE,,NORFOLK,VA,23510,United States,,,,,,,
DILLARD'S - LYNNHAVEN MALL,,701 LYNNHAVEN PARKWAY,,VIRGINIA BEACH,VA,23452,United States,,,,,,,
DILLARD'S - SHORT PUMP TOWN CENTER,,11824 W BROAD STREET,,RICHMOND,VA,23233,United States,,,,,,,
DILLARD'S - KENWOOD MALL,,7913 MONTGOMERY RD,,CINCINNATI,OH,45236,United States,,,,,,,
DILLARD'S - CORAL RIDGE MALL,,1-80 NORTH HIGHWAY 965,,CORALVILLE,IA,52241,United States,,,,,,,
COACH GALERIES LAFAYETTE BERLIN,,FRIEDRICHSTRASSE 76-78,,BERLIN,,10117,United States,+49 (0)30 209480,,,MON-SAT: 10AM-8PM,,,
COACH GLOBUS ZURICH,,SCHWEIZERGASSE 11,,ZÜRICH,,8001,United States,+41 (0)58 578 11 11,,,MON-SAT: 9AM-8PM,,,
COACH GALERIES LAFAYETTE NICE CAP 3000,,GALERIES LAFAYETTE NICE CAP 3000,SAINT LAURENT DU VAR,NICE,,6703,United States,+33 (0)4 93 14 82 12,,,MON-SAT: 10AM-9PM,,,
COACH ALSTERHAUS,,JUNGFERNSTIEG 16-20,,HAMBURG,,20354,United States,+49 (0)40 359010,,,MON-SAT: 10AM-8PM,,,
COACH QUANTUM OF THE SEAS,,"SECTOR C, CALLE 5 08040",ZONA FRANCA ADUANERA ADUANERA,BARCELONA,,08040,United States,,,,,,,
COACH JELMOLI,,SEIDENGASSE 1,,ZURICH,,8001,United States,+41 (0)44 220 4411,,,MON-SAT: 9AM-8PM,,,
COACH CENTRAL FESTIVAL CHIANG MAI,,"1ST FLOOR, 99/3 M.4 FAH HAM",MUEANG CHIANG MAI,CHIANG MAI,,50000,United States,+66 (53) 288 625,,,"MON-THU: 11:00AM-9.30PM, FRI: 11:00AM-10PM, SAT-SUN: 10AM-10PM",,,
COACH GINZA,,TOKYU PLAZA 8F LOTTE DUTY FREE JAPAN,GINZA 5-2-1  CHOU-KU,TOKYO,,104-0061,United States,(81)3-6264-6200,,,SUN-MON:11:00AM - 9:00AM,,,
COACH LE BHV MARAIS,,"52, RUE DE RIVOLI",,PARIS,,75004,United States,+33 (0)1 42 74 94 94,,,"MON-TUE: 9.30AM-8PM, WED: 9.30AM-9PM, THU-SAT: 9.30AM-8PM",,,
COACH GALERIES LAFAYETTE MAINE MONTPARNASSE,,22 RUE DU DÉPART,,PARIS,,75015,United States,+33 (0)1 45 38 52 87,,,"MON-SAT: 10AM-8PM, SUN: CLOSED",,,
COACH LA PLAZA,,2200 S. 10TH STREET,SPACE #A07A,MCALLEN,TX,78503,United States,(956) 631-3123,,,"MON-SAT: 10AM-9PM, SUN: 10AM-7PM",,,
COACH TORONTO AIRPORT,,"TORONTO PEARSON AIRPORT, T1 INTL DEPARTURES",6301 SILVER DART DRIVE T1 INTERNATIONAL DEPARTURES,MISSISSAUGA,,ON L5P 1B,United States,(905) 673-4576,,,MON-SUN:  4:00AM - 12:00AM,,,
COACH TORONTO AIRPORT DF,,"TORONTO PEARSON AIRPORT, TERMINAL 1, GATE 2","6301 SILVER DART DRIVE,  INTERNATIONAL DEPARTURES",MISSISSAUGA,,ON L5P 1B2,United States,(905) 673-4576,,,MON - SUN:  4:00AM - 12:00AM,,,
COACH CITY CREEK CENTER,,50 SOUTH MAIN STREET,SUITE 261,SALT LAKE CITY,UT,84101,United States,(801) 532-3836,,,"MON-SAT: 10AM-9PM, SUN: CLOSED",,,
COACH ANGELOPOLIS,,"BOULEVARD DEL NIÑO POBLANO #215, LOCAL 5",ESTADO LIBRE Y SOBERANO DE PUEBLA,PUEBLA,,72450,United States,(52) 22-2225-0748,,,MON-THU: 10:00AM-8:00PM FRI-SAT: 11:00AM-9:00PM,,,
EL PALACIO DE HIERRO - PUEBLA FOOTWEAR,,BLVD. DEL NIÑO POBLANO N. 2510  COL,CONCEPCIÓN LA CRUZ PUEBLA,PUEBLA,,72450,United States,(52) 22-2273-8800,,,MON-SUN 11:00AM-8:00PM,,,
COACH ANTARA,,AV. EJÉRCITO NACIONAL 843-B. LOCAL A122,COL. GRANADA.  DELEGACIÓN MIGUEL HIDALGO.,MÉXICO D.F.,,C.P. 11520,United States,(5255) 5282-3742,,,MON-SUN 11:00AM-8:00PM,,,
COACH LIVERPOOL INSURGENTES,,GALERIAS INSURGENTES MALL,"1310 INSURGENTES SUR, LOCAL 1001 COLONIA DEL VALLE",MEXICO CITY,,03100,United States,(52) 55240114,,,MON-SUN 11:00AM-9:00PM,,,
COACH PLACIO DE HIERRO INTERLOMAS,,PASEO INTERLOMAS VIALIDAD DE LA BARRANCA N°6 EX,"HACIENDA, JESUS DEL MONTE HUIXQUILUCAN E.M.",HUIXQUILUCAN,,52772,United States,(55) 36050432,,,DAILY 11A-9P,,,
COACH LA ENCANTADA,,2905 E. SKYLINE DRIVE,SUITE 265,TUCSON,AZ,85718,United States,(520) 529-2925,,,"MON-WED: 10AM-7PM, THU-SAT: 10AM-8PM, SUN: 11AM-6PM",,,
DILLARD'S - OAK COURT MALL,,3486 POPLAR AVE,,MEMPHIS,TN,38117,United States,,,,,,,
BELK - INDEPENDENCE MALL,,3500 OLEANDER DRIVE,,WILMINGTON,NC,28403,United States,,,,,,,
BELK - FREINDLY SHOPPING CENTER,,616 W FRIENDLY AVE,,GREENSBORO,NC,27404,United States,,,,,,,
BLOOMINGDALE'S - CHESTNUT HILL MALL,,55 BOYSTON ST,,NEWTON,MA,02467,United States,,,,,,,
BLOOMINGDALE'S - WILLOW GROVE,,2400 MORELAND RD,,WILLOW GROVE,PA,19090,United States,,,,,,,
BLOOMINGDALE'S - BOCA RATON,,5840 GLADES RD #750 TOWN CTR,,BOCA RATON,FL,33431,United States,,,,,,,
BLOOMINGDALE'S - CENTURY CITY,,12050 SANTA MONICA,,LOS ANGELES,CA,90067,United States,,,,,,,
BLOOMINGDALE'S - SHERMAN OAKS,,14506 RIVERSIDE DR,,SHERMAN OAKS,CA,91423,United States,,,,,,,
BLOOMINGDALE'S - NEWPORT BEACH FASHION,,701 NEWPORT CTR DR,,NEWPORT BEACH,CA,92660,United States,,,,,,,
BLOOMINGDALE'S - BEVERLY CENTER,,8500 BEVERLY BLVD,,LOS ANGELES,CA,90048,United States,,,,,,,
COACH CENTRAL CHIDLOM,,"1ST FLOOR, PLOENCHIT ROAD","LUMPINI, PATHUMWAN",BANGKOK,,10330,United States,+66 (2) 251 4699,,,MON-SUN: 10AM-10PM,,,
COACH GALLERIA BY AUCKLAND,,T GALLERIA BY AUCKLAND,"4 ALBERT STREET, CORNER OF CUSTOMS ALBERT STREET",AUCKLAND,,,United States,(64) 93-080-700,,,"MON-SUN 11:00AM-10:00PM, SUMMER: MON-SUN 10:00AM-11:00PM, SUMMER: MON-SUN: 10:00AM-11:00PM",,,
COACH AUCKLAND,,"UNIT 1, 80 QUEEN STREET",,NEW ZEALAND,,1010,United States,+64 (9) 354 4831,,,"MON-FRI: 10AM-7PM, SAT: 10AM-5:30PM, SUN: 11AM-6PM",,,
COACH CENTRAL PHUKET,,74-75 WICHITSONGKRAN ROAD,PHUKET CITY,PHUKET,,83000,United States,+66 (76) 209 226,,,MON-SUN: 10:30AM-10PM,,,
COACH CAIRNS GALLERIA,,DFS GALLERIA CAIRNS,"14 ABBOTT STREET, CORNER OF ABBOTT AND SPENCE",CAIRNS,,4870,United States,(61) 7-4031-2446,,,SAT-SUN 8:30AM-10:00PM,,,
COACH CHATSWOOD CHASE,,"SHOP  G051, CHATSWOOD CHASE",345 VICTORIA AVENUE,CHATSWOOD,,NSW 2067,United States,+61 (2) 9411 6944,,,"MON-WED, FRI: 9:30AM–5:30PM, THU: 9:30AM–9PM, SAT: 9 AM–5PM, SUN:10AM-5:30PM",,,
COACH DAVID JONES SYDNEY,,86 - 108 CASTLEREAGH STREET,,SYDNEY,,NSW 2000,United States,+61 (2) 9266 5145,,,"MON-WED: 9:30AM–7PM, THU-FRI: 9:30AM-9PM, SAT: 9AM–7PM, SUN: 9:30AM-7PM",,,
COACH BALI GALLERIA,,DFS GALLERIA BALI,"JL, BYPAS NGURAH RAI, KUTA DENPASAR",BALI,,80361,United States,(62) 361-758-875,,,MON-SUN 10:00AM-10:00PM,,,
COACH DAVID JONES MELBOURNE,,310 BOURKE STREET,,MELBOURNE,,VIC 3000,United States,+61 (3) 9643 2310,,,"MON-WED: 9:30AM–7PM, THU-FRI: 9:30AM-9PM, SAT: 9AM–7PM, SUN: 9:30AM-7PM",,,
DONGWHA DUTY FREE,,"DONGWHA DUTY FREE, B1F, GWANGHWAMUN BD.","149, SEJONG-DAERO, JONGNO-GU",JONGNO-GU,,,United States,(82) 2-399-3077,,,10:30AM - 8PM (WEEKEND 8:30PM),,,
HOTEL LOTTE DUTY FREE,,"HOTEL LOTTE DUTY FREE MENS, 11F, LOTTE DEPT. MAIN","30, EULJI-RO, JUNG-GU",JUNG-GU,,,United States,(82) 2-318-1931,,,10:30AM - 8PM (WEEKEND 8:30PM),,,
HOTEL SHILLA DUTY FREE,,"THE SHILLA DUTY FREE SEOUL, B1","249, DONGHO-RO, JUNG-GU",JUNG-GU,,,United States,(82) 2-2230-3598,,,10:30AM - 8PM (WEEKEND 8:30PM),,,
NAM MOON PARADISE DUTY FREE,,B1F PARADISE DUTY FREE SHOP,"1411-1 JUNG-DONG, HAEUNDAE-GU",PUSAN,,612-010,United States,(82) 5-1742-9197,,,MON-SUN 9:30AM-8:00PM,,,
LOTTE PUSAN DUTY FREE,,"LOTTE DEPT. BUSAN, 8F","772, GAYA-DAERO, BUSANJIN-GU",BUSANJIN-GU,,,United States,(82) 51-810-3803,,,10:30AM - 8PM (WEEKEND 9PM),,,
SHILLA JEJU DUTY FREE,,THE SHILLA DUTY FREE JEJU,"69, NOYEON-RO, JEJU-SI",JEJU-SI,,,United States,(82) 64-710-7206,,,10:30AM - 8PM (WEEKEND 8:30PM),,,
COACH DOWNTOWN,,"B1, NO. 72, SEC. 3, MIN-CHUAN EAST ROAD",,TAIPEI,,,United States,(886) 2-2502-8899,,,MON-SUN 8:30AM-6:30PM,,,
COACH SAIPAN GALLERIA,,DFS GALLERIA SAIPAN,"BEACH ROAD, GARAPAN",SAIPAN,,96950,United States,(670) 236-2540,,,MON-SUN 10:30AM-10:30PM,,,
COACH GUAM GALLERIA,,DFS GALLERIA GUAM,1296 PALE SAN VITORES ROAD,TUMON,,96911,United States,(671) 647-9640,,,SAT-SUN 11:00AM-11:00PM,,,
COACH KING POWER COMPLEX,,8 RANGNAM ROAD,"PHAYATHAI, RATCHATHEWI",BANGKOK,,10400,United States,+66 (2) 677 8888,,,MON-SUN: 9AM-9PM,,,
SAKS FIFTH AVENUE - TRIANGLE TOWN CENTER,,7700 OLD WAKE FOREST ROAD,,RALEIGH,NC,27616,United States,,,,,,,
MACY'S INC. - BEVERLY CENTER,,8500 BEVERLY BLVD,,LOS ANGELES,CA,90048,United States,,,,,,,
MACY'S INC. - CENTURY CITY (CA),,10250 SANTA MONICA BLVD.,,LOS ANGELES,CA,90067,United States,,,,,,,
MACY'S INC. - NEWPORT FASHION ISLAND,,101 NEWPORT CENTER DRIVE,,NEWPORT BEACH,CA,92660,United States,,,,,,,
MACY'S INC. - CHERRY CREEK SC,,15 SOUTH STEELE STREET,,DENVER,CO,80206,United States,,,,,,,
MACY'S INC. - PARK MEADOWS,,8455 PARK MEADOWS CENTER DRIVE,,LITTLETON,CO,80124,United States,,,,,,,
MACY'S INC. - GREEN HILLS (TN),,3813 HILLSBORO PIKE,,NASHVILLE,TN,37215,United States,,,,,,,
MACY'S INC. - MELBOURNE SQUARE,,1700 W NEW HAVEN AVENUE,,MELBOURNE,FL,32904,United States,,,,,,,
COACH HARVEY NICHOLS EMIRATES MALL,,MALL OF EMIRATES,,DUBAI,,,United States,(971) 4-409-8888,,,"SUN-WED: 10:00AM – 10:00PM, THURS: 10:00AM – 12AM, FRI: 10:00AM – 12AM, SAT: 10:00AM – 12AM",,,
WALKER HILL DUTY FREE,,WALKERHILL DUTY FREE,"177, WALKERHILL-RO, GWANGJIN-GU",GWANGJIN-GU,,,United States,(82) 2-450-6368,,,10:30AM - 8PM (WEEKEND 9PM),,,
DILLARD'S - PUEBLO MALL,,3601 DILLON DR,,PUEBLO,CO,81008,United States,,,,,,,
DILLARD'S - ANIMAS VALLEY MALL,,4601 EAST MAIN ST,,FARMINGTON,NM,87402,United States,,,,,,,
MACY'S INC. - VANCOUVER MALL (WA),,8208 NE VANCOUVER MALL DRIVE,,VANCOUVER,WA,98662,United States,,,,,,,
VON MAUR - THE MEADOWS AT LAKE ST. LOUIS,,2 FOUNTAIN GRASS DRIVE,,LAKE SAINT LOUIS,MO,63367,United States,,,,,,,
MACY'S INC. - YAKIMA VALLEY MALL,,2525 MAIN ST,,UNION GAP,WA,98903,United States,,,,,,,
BON-TON STORES - MALL AT PATRIDGE CREEK,,17480 HALL ROAD,,CLINTON TOWNSHIP,MI,48038,United States,,,,,,,
MACY'S INC. - BRASS MILL CENTER,,575 UNION ST,,WATERBURY,CT,06702,United States,,,,,,,
MACY'S INC. - FOX RUN,,50 FOX RUN ROAD,,NEWINGTON,NH,03801,United States,,,,,,,
BELK - ASHEVILLE,,5 S TUNNEL ROAD,,ASHEVILLE,NC,28805,United States,,,,,,,
LORD & TAYLOR - RIDGE HILLS,,135 MARKET STREET,,YONKERS,NY,10710,United States,,,,,,,
COACH GALERIES LAFAYETTE STRASBOURG,,34 RUE DU 22 NOVEMBRE,,STRASBOURG,,67000,United States,+33 (0)3 88 15 23 00,,,MON-SAT 9.30AM-8:30PM,,,
COACH GALERIES LAFAYETTE LYON PART DIEU,,42 RUE EUGÈNE DERUELLE,LYON PART DIEU SHOPPING CENTER,LYON,,69003,United States,+33 (0)4 72 61 44 44,,,MON-SAT: 9.30AM-8PM,,,
COACH GLOBUS LUZERN,,PILATUSSTRASSE 4,,LUZERN,,6002,United States,+41 (0)58 578 55 55,,,"MON-WED: 9AM-6.30PM, THU-FRI: 9AM-9PM, SAT: 9AM-4PM",,,
MACY'S INC. - WALNUT CREEK BROADWAY PLAZA,,1320 BROADWAY PLAZA,,WALNUT CREEK,CA,94596,United States,,,,,,,
MACY'S INC. - BARTON CREEK SQUARE MALL,,2901 CAPITOL OF TEXAS HIGHWAY,,AUSTIN,TX,78746,United States,,,,,,,
MACY'S INC. - THE DOMAIN (TX),,3311 ESPERANZA CROSSING,,AUSTIN,TX,78759,United States,,,,,,,
MACY'S INC. - CORTE MADERA VILLAGE,,1400 REDWOOD HIGHWAY,,CORTE MADERA,CA,94925,United States,,,,,,,
MACY'S INC. - THOUSAND OAKS,,220 W HILLCREST,,THOUSAND OAKS,CA,91360,United States,,,,,,,
AAFES HQ - REDSTONE ARSENAL,,ACTON DRIVE BLDG 3220,,REDSTONE ARSENAL,AL,35898,United States,,,,,,,
DILLARD'S - NORTHLAKE MALL,,7535 NORTHLAKE MALL,,CHARLOTTE,NC,28216,United States,,,,,,,
COACH GLOBUS LAUSANNE,,5 RUE DU PONT,,LAUSANNE,,1003,United States,+41 (0)58 578 75 11,,,"MON-FRI: 9AM-7PM, SAT: 8AM-6PM",,,
COACH GLOBUS GLATT CENTER,,NEUE WINTERHURERSTR 99,,WALLISELLEN,,8304,United States,+41 (0)58 578 80 80,,,"MON-FRI: 9AM-7PM, SAT: 8AM-6PM",,,
COACH OBERPOLLINGER,,NEUHAUSER STRASSE 18,,MÜNCHEN,,80331,United States,+49 (0)89 290230,,,SAT 8AM-6PM,,,
COACH GLOBUS GENEVA,,RUE DU RHÔNE 48,,GENEVA,,1204,United States,+41 (0)58 578 50 50,,,"MON-WED: 9AM-7PM, THU: 9AM-9PM, FRI: 9AM-9.30PM, SAT: 9AM-6PM",,,
COACH GLOBUS BASEL,,MARKTPLATZ 2,,BASEL,,4001,United States,+41 (0)58 578 45 45,,,"MON-WED: 9AM-6.30PM, THU-FRI: 9AM-8PM, SAT: 9AM-6PM",,,
COACH PALACIO - POLANCO FOOTWEAR,,MELIERE NO. 222 LOS MORALES,SECCION PALMAS,MEXICO CITY,,11520,United States,(52) 55-5282-1723,,,SUN-FRI:  11:00AM - 8:30PM,,,
COACH LUDWIG BECK,,MARIENPLATZ 11,,MÜNCHEN,,80331,United States,+49 (0)89 236910,,,MON-SAT: 9.30AM-8PM,,,
COACH KADEWE BERLIN,,TAUENTZIENSTRASSE 21-24,,BERLIN,,10789,United States,+49 (0)30 21210,,,"MON-THU: 10AM-8PM, FRI: 10AM-9PM, SAT: 9.30AM-8PM",,,
COACH WASHINGTON DULLES AIRPORT,,DULLES INTERNATIONAL AIRPORT,AVIATION DRIVE & AUTOPILOT DRRIVE,WASHINGTON,,20166,United States,703-572-0220,,,MON- SUN: 6:30AM - 10:00PM,,,
COACH PALACIO DE HEIRRO VILLAHERMOSA,,PERIFÉRICO CARLOS PELLICER PRIMERO DE MAYO,MUNICIPIO CENTRO,VILLAHERMOSA,,C.P. 8619,United States,(99) 3253-5478,,,MON-SUN 11:00AM-9:00PM,,,
DILLARD'S - ATLANTIC STATION,,1371 MARKET STREET,,ATLANTA,GA,30363,United States,,,,,,,
MACY'S INC. - SOLOMON POND MALL (MARLBOROUGH),,627 DONALD LYNCH BLVD,,MARLBOROUGH,MA,01752,United States,,,,,,,
MACY'S INC. - INDEPENDENCE MALL,,171 SMITH LANE,,KINGSTON,MA,02364,United States,,,,,,,
MACY'S INC. - CAMBRIDGESIDE GALLERIA,,100 CAMBRIDGE SIDE PLACE,,CAMBRIDGE,MA,02141,United States,,,,,,,
MACY'S INC. - HANOVER MALL,,1775 WASHINGTON STREET,,HANOVER,MA,02339,United States,,,,,,,
BLOOMINGDALE'S - FASHION VALLEY,,7057 FRIARS ROAD,,SAN DIEGO,CA,92108,United States,,,,,,,
MACY'S INC. - PROVIDENCE,,7 PROVIDENCE PLACE,,PROVIDENCE,RI,02903,United States,,,,,,,
DILLARD'S - HILL COUNTY GALLERIA,,12800 STATE HWY 71 WEST,,AUSTIN,TX,78738,United States,,,,,,,
NAVY EXCHANGE (NEX) - BETHESDA MAIN STORE,,BLDG 81-T,,BETHESDA,MD,20889,United States,,,,,,,
NAVY EXCHANGE (NEX) - PT HUENEME MAIN ST,,BLDG 1512-NBVC 130 23RD AVE ST 2,,PORT HUENEME,CA,93043,United States,,,,,,,
DILLARD'S - NAPLES,,1798 TAMIANI TRAIL NORTH,,NAPLES,FL,34102,United States,,,,,,,
DILLARD'S - MARKET PLACE,,1000 OVIEDO MARKETPLACE BLVD,,OVIEDO,FL,32765,United States,,,,,,,
DILLARD'S - ORANGE PARK MALL,,1910 WELLS RD,,ORANGE PARK,FL,32073,United States,,,,,,,
DILLARD'S - THE AVENUES,,10300 SOUTHSIDE BLVD,,JACKSONVILLE,FL,32256,United States,,,,,,,
DILLARD'S - OAKS MALL,,6495 WEST NEWBERRY RD,,GAINESVILLE,FL,32605,United States,,,,,,,
DILLARD'S - MERRITT SQUARE,,777 E MERRITT ISLAND CSWY,,MERRITT ISLAND,FL,32952,United States,,,,,,,
DILLARD'S - MELBOURNE SQUARE,,1700 WEST NEW HAVEN AVE,,MELBOURNE,FL,32904,United States,,,,,,,
DILLARD'S - TREASURE COAST SQUARE,,3210 NW FEDERAL HWY,,JENSEN BEACH,FL,34957,United States,,,,,,,
DILLARD'S - INDIAN RIVER,,6200  20TH ST,,VERO BEACH,FL,32966,United States,,,,,,,
DILLARD'S - GALLERIA (FL),,2500 E SUNRISE BLVD,,FORT LAUDERDALE,FL,33304,United States,,,,,,,
SAKS FIFTH AVENUE - POLARIS FASHION PLACE (OH),,1500 POLARIS PARKWAY,,COLUMBUS,OH,43240,United States,,,,,,,
DILLARD'S - GRAND TETON MALL,,2420 E17TH STREET,,IDAHO FALLS,ID,83404,United States,,,,,,,
BLOOMINGDALE'S - ORLANDO (MILLENIA MALL),,MILLENIA BLVD/CONROY ROAD,,ORLANDO,FL,32811,United States,,,,,,,
BON-TON STORES - EVERGREEN,,9700 SOUTH WESTERN AVE,,EVERGREEN PARK,IL,60805,United States,,,,,,,
VON MAUR - GLENVIEW,,1960 TOWER DRIVE,,GLENVIEW,IL,60025,United States,,,,,,,
VON MAUR - BRIARWOOD,,300 BRIARWOOD CIRCLE,,ANN ARBOR,MI,48103,United States,,,,,,,
SAKS FIFTH AVENUE - STONY POINT FASHION PARK,,9214 STONYPOINT PARKWAY,,RICHMOND,VA,23235,United States,,,,,,,
NORDSTROM - BARTON CREEK SQUARE MALL,,2901 CAPITAL OF TEXAS HIGHWAY SOUTH,,AUSTIN,TX,78746,United States,,,,,,,
BLOOMINGDALE'S - LENOX MALL,,3393 PEACHTREE ROAD NE,,ATLANTA,GA,30326,United States,,,,,,,
BLOOMINGDALE'S - SOHO,,504 BROADWAY,,NEW YORK,NY,10012,United States,,,,,,,
BLOOMINGDALE'S - HUNTINGTON,,270 WALT WHITMAN ROAD,,HUNTINGTON STATION,NY,11746,United States,,,,,,,
DILLARD'S - PROVO TOWNE SQUARE,,1200 S TOWNE CENTER BLVD,,PROVO,UT,84601,United States,,,,,,,
BON-TON STORES - STILLWATER,,14781 59TH STREET N,,OAK PARK HEIGHTS,MN,55082,United States,,,,,,,
BON-TON STORES - NORTHTOWN,,NORTHTOWN MALL,,BLAINE,MN,55434,United States,,,,,,,
BON-TON STORES - ROSEDALE,,600 ROSEDALE SHOPPING CENTER,,ROSEVILLE,MN,55113,United States,,,,,,,
AAFES HQ - FT. MYER,,BLDG 450 106 MCNAIR STREET,,FORT MYER,VA,22211,United States,,,,,,,
AAFES HQ - MCCLELLAN,,BLDG 911 5443 DUDLEY BLVD,,MCCLELLAN,CA,95652,United States,,,,,,,
AAFES HQ - MAXWELL,,BLDG 1090 355 KELLY ST,,MONTGOMERY,AL,36112,United States,,,,,,,
AAFES HQ - BARKSDALE,,BLDG 4265 455 CURTISS RD,,BARKSDALE AIR FORCE BASE,LA,71110,United States,,,,,,,
AAFES HQ - FT LEAVENWORTH,,330 KANSAS AVENUE BLDG 700,,FORT LEAVENWORTH,KS,66027,United States,,,,,,,
COACH PRINTEMPS VÉLIZY,,CENTRE COMMERCIAL VÉLIZY 2,AVENUE DE LEUROPE,VÉLIZY-VILLACOUBLAY,,78140,United States,+33 (0)1 34 88 66 00,,,"MON-SAT: 10AM-9PM, SUN: CLOSED",,,
COACH BREUNINGER,,KÖNIGSALLEE 2,,DUSSELDORF,,40212,United States,+49 (0)211 566410,,,MON-SAT: 10AM-8PM,,,
COACH PRINTEMPS MARSEILLE LA VALENTINE,,CENTRE COMMERCIAL LA VALENTINE,11 CHEMIN DE LA SABLIÈRE,MARSEILLE,,13011,United States,+33 (0)4 86 06 46 00,,,"MON-SAT: 9.30AM-8PM, SUN: CLOSED",,,
COACH HONOLULU INTERNATIONAL AIRPORT,,300 RODGERS BLVD.,,HONOLULU,HI,96819,United States,(808) 837-3134,,,HOURS VARY WITH FLIGHT SCHEDULES,,,
COACH HONOLULU INTERNATIONAL  AIRPORT,,300 RODGERS BLVD.,,HONOLULU,,96819,United States,(808) 837-3172,,,HOURS VARY WITH FLIGHT SCHEDULES,,,
COACH WAIKIKI GALLERIA,,330 ROYAL HAWAIIAN AVENUE,,HONOLULU,,96815,United States,(808) 931-2700,,,MON-SUN 11:00AM-10:30PM (PST),,,
COACH WAIKIKI GALLERIA GROUND FLOOR,,330 ROYAL HAWAIIAN AVENUE,,HONOLULU,,96815,United States,(808) 931-2700,,,MON-SUN 11:00AM-10:30PM (PST),,,
NAVY EXCHANGE (NEX) - PEARL HARBOR MALL,,BLDG 631-4725 BOUGAINVILLE DR,,HONOLULU,HI,96818,United States,,,,,,,
AAFES HQ - SCHOFIELD,,BLDG 694,,SCHOFIELD BARRACKS,HI,96857,United States,,,,,,,
AAFES HQ - HICKAM,,BLDG 1235,,HICKAM AIR FORCE BASE,HI,96853,United States,,,,,,,
NORDSTROM - GLENDALE GALLERIA,,200 W BROADWAY,,GLENDALE,CA,91204,United States,,,,,,,
VON MAUR - COLLEGE SQUARE MALL,,6301 UNIVERSITY STREET,,CEDAR FALLS,IA,50613,United States,,,,,,,
VON MAUR - SYCAMORE MALL #11,,1668 SYCAMORE,,IOWA CITY,IA,52240,United States,,,,,,,
SAKS FIFTH AVENUE - CINCINNATI,,101 WEST 5TH STREET,,CINCINNATI,OH,45202,United States,,,,,,,
SAKS FIFTH AVENUE - UTICA SQUARE,,1780 UTICA SQ,,TULSA,OK,74112,United States,,,,,,,
SAKS FIFTH AVENUE - TYSONS CORNER CENTER,,251 INTERNATIONAL DR,,MCLEAN,VA,22102,United States,,,,,,,
SAKS FIFTH AVENUE - BEACHWOOD PLACE,,26100 CEDAR RD,,BEACHWOOD,OH,44122,United States,,,,,,,
SAKS FIFTH AVENUE - FASHION SHOW,,3200 LAS VEGAS BLVD,,LAS VEGAS,NV,89109,United States,,,,,,,
DILLARD'S - BROWARD MALL,,8000 W BROWARD BLVD SUITE 150,,PLANTATION,FL,33388,United States,,,,,,,
DILLARD'S - EDISON MALL,,4125 CLEVELAND AVE,,FORT MYERS,FL,33901,United States,,,,,,,
LORD & TAYLOR - BOCA RATON,,200 PLAZA REAL,,BOCA RATON,FL,33432,United States,,,,,,,
LORD & TAYLOR - FAIR OAKS,,11901 FAIR OAKS MALL,,FAIRFAX,VA,22030,United States,,,,,,,
LORD & TAYLOR - ROCKAWAY TOWN SQUARE,,RT 80 & MT HOPE MALL,,ROCKAWAY,NJ,07866,United States,,,,,,,
LORD & TAYLOR - BRIDGEWATER COMMONS,,440 COMMONS WAY,,BRIDGEWATER,NJ,08807,United States,,,,,,,
LORD & TAYLOR - TYSONS CORNER CENTER,,7950 LEESBURG PIKE,,MCLEAN,VA,22101,United States,,,,,,,
LORD & TAYLOR - BALA CYNWYD SHOPPING CEN,,CITY LINE & BELMONT AVENUE,,BALA CYNWYD,PA,19004,United States,,,,,,,
LORD & TAYLOR - DANBURY FAIR,,7 BACKUS AVE,,DANBURY,CT,06810,United States,,,,,,,
LORD & TAYLOR - BUFFALO,,8 WALDEN GALLERIA,,BUFFALO,NY,14225,United States,,,,,,,
LORD & TAYLOR - NATICK MALL,,1245 WORCESTER ROAD,,NATICK,MA,01760,United States,,,,,,,
LORD & TAYLOR - CROSSGATES MALL,,1 CROSSGATES MALL ROAD,,ALBANY,NY,12203,United States,,,,,,,
LORD & TAYLOR - WOODFIELD MALL,,4 WOODFIELD MALL,,SCHAUMBURG,IL,60173,United States,,,,,,,
LORD & TAYLOR - ROCHESTER,,7979 VICTOR PITTSFORD RD,,VICTOR,NY,14564,United States,,,,,,,
LORD & TAYLOR - KING OF PRUSSIA MALL,,160 NORTH GULPH ROAD,,KING OF PRUSSIA,PA,19406,United States,,,,,,,
LORD & TAYLOR - WASHINGTON,,5255 WESTERN AVE NW,,WASHINGTON,DC,20015,United States,,,,,,,
MACY'S INC. - STAMFORD TOWN CENTER (CT),,151 BROAD STREET,,STAMFORD,CT,06901,United States,,,,,,,
MACY'S INC. - MONTGOMERY MALL (PA),,RTS 202 & 309,,NORTH WALES,PA,19454,United States,,,,,,,
MACY'S INC. - NANUET MALL,,RTE 59,,NANUET,NY,10954,United States,,,,,,,
DILLARD'S - ALTAMONTE MALL,,451 E ALTAMONTE DRIVE,,ALTAMONTE SPRINGS,FL,32701,United States,,,,,,,
DILLARD'S - SOUTHWEST PLAZA,,8501 W BOWLES,,AURORA,CO,80011,United States,,,,,,,
DILLARD'S - SOUTHGATE MALL (MT),,2901 BROOKS STREET,,MISSOULA,MT,59801,United States,,,,,,,
NAVY EXCHANGE (NEX) - MAYPORT MAIN ST/OPTL,,BLDG 1900-2292 MAYPORT RD #50,,ATLANTIC BEACH,FL,32233,United States,,,,,,,
NAVY EXCHANGE (NEX) - ORLANDO MCCOY ST,,BLDG 7151-7151 EARHEART DRIVE,,ORLANDO,FL,32827,United States,,,,,,,
NAVY EXCHANGE (NEX) - PAX RIVER MAIN STORE,,BLDG 2369-22099 CUDDIY RD,,PATUXENT RIVER,MD,20670,United States,,,,,,,
NAVY EXCHANGE (NEX) - WHIDBEY MAIN SEAPLN,,BLDG 17-21110 NO CORAL SEA AVE,,OAK HARBOR,WA,98278,United States,,,,,,,
NAVY EXCHANGE (NEX) - NEW LONDON MAIN ST,,BLDG 484-NAVAL SUB BASE,,GROTON,CT,06349,United States,,,,,,,
LORD & TAYLOR - ANNAPOLIS,,2002 ANNAPOLIS MALL,,ANNAPOLIS,MD,21401,United States,,,,,,,
LORD & TAYLOR - OAKBROOK SHOPPING CENTER,,180 OAKBROOK CTR MALL,,HINSDALE,IL,60521,United States,,,,,,,
LORD & TAYLOR - GARDEN STATE PLAZA,,RT 4 AND RT 17,,PARAMUS,NJ,07652,United States,,,,,,,
LORD & TAYLOR - BURLINGTON MALL,,1320 BURLINGTON MALL RD,,BURLINGTON,MA,01803,United States,,,,,,,
LORD & TAYLOR - WALT WHITMAN MALL,,ROUTE 110 & JERICHO TPK,,HUNTINGTON STATION,NY,11746,United States,,,,,,,
MACY'S INC. - SAN FRANCISCO UNION SQUARE,,170 O'FARRELL ST,,SAN FRANCISCO,CA,94108,United States,,,,,,,
MACY'S INC. - SANTA ROSA PLAZA,,800 SANTA ROSE PLAZA,,SANTA ROSA,CA,95401,United States,,,,,,,
MACY'S INC. - MONTEREY DEL MONTE CENTER,,100 DEL MONTE CENTER,,MONTEREY,CA,93940,United States,,,,,,,
MACY'S INC. - STONESTOWN GALLERIA,,3251 20TH AVE,,SAN FRANCISCO,CA,94132,United States,,,,,,,
MACY'S INC. - SERRAMONTE,,#1 SERRAMONTE CENTER,,DALY CITY,CA,94015,United States,,,,,,,
COACH HARVEY NICHOLS EDINBURGH,,30-34 ST ANDREW SQUARE,,EDINBURGH,,EH2 2AD,United States,+44 (0)131 524 8388,,,"MON-WED: 10AM-6PM, THU: 10AM-8PM, FRI-SAT: 10AM-7PM, SUN: 11AM-6PM",,,
COACH JOHN LEWIS ABERDEEN,,GEORGE STREET,,ABERDEEN,,AB25 1BW,United States,+44 (0)122 462 5000,,,"MON-WED: 9AM-6PM, THU: 9AM-8PM, FRI-SAT: 9AM-6PM, SUN: 10AM-6PM",,,
COACH JOHN LEWIS LIVERPOOL,,70 SOUTH JOHN STREET,,LIVERPOOL,,L1 8BJ,United States,+44 (0)151 709 7070,,,"MON-FRI: 9.30AM-8PM, SAT:  9AM-7PM, SUN: 11AM-5PM",,,
COACH FENWICK NEWCASTLE,,9 NORTHUMBERLAND STREET,,NEWCASTLE UPON TYNE,,NE99 1AR,United States,+44 (0)191 232 5100,,,"MON-FRI: 9AM-8PM, SAT: 9AM-7PM, SUN: 10.30AM-5PM",,,
AAFES HQ - ELMENDORF,,5800 WESTOVER AVE BLDG 5800B,,ELMENDORF AIR FORCE BASE,AK,99506,United States,,,,,,,
AAFES HQ - BUCKLEY,,BLDG 1 N TELLURIDE STREET,,AURORA,CO,80011,United States,,,,,,,
AAFES HQ - FT.  HUACHUCA,,BLDG 52030 ARIZONA ST,,FORT HUACHUCA,AZ,85613,United States,,,,,,,
AAFES HQ - HILL,,5845 E AVE BLDG 412,,HILL AIR FORCE BASE,UT,84056,United States,,,,,,,
BLOOMINGDALE'S - CHEVY CHASE,,5400 WISCONSIN AVE,,CHEVY CHASE,MD,20815,United States,,,,,,,
DILLARD'S - WIREGRASS COMMONS (FL),,28335 PASEO DR,,WESLEY CHAPEL,FL,33543,United States,,,,,,,
DILLARD'S - PEARLAND,,11200 BROADWAY BLDG 950,,PEARLAND,TX,77584,United States,,,,,,,
DILLARD'S - LAKE HAVASU,,5601 HIGHWAY 95 NORTH,,LAKE HAVASU CITY,AZ,86404,United States,,,,,,,
VON MAUR - THE GREENE TOWN CENTER,,51 PLUM STREET,,BEAVERCREEK,OH,45440,United States,,,,,,,
VON MAUR - CORBIN PARK,,135TH ST & METCALF AVENUE,,OVERLAND PARK,KS,66223,United States,,,,,,,
MACY'S INC. - BRIARWOOD,,700 BRIARWOOD CIRCLE,,ANN ARBOR,MI,48104,United States,,,,,,,
MACY'S INC. - SANTA ANITA,,400 S BALDWIN AVE,,ARCADIA,CA,91007,United States,,,,,,,
MACY'S INC. - SANTA ANA MAINPLACE,,2850 N MAIN ST,,SANTA ANA,CA,92706,United States,,,,,,,
BLOOMINGDALE'S - SOUTH COAST PLAZA,,3333 BRISTOL STREET,,COSTA MESA,CA,92626,United States,,,,,,,
NORDSTROM - SOUTH COAST PLAZA/CRYSTAL CT,,3333 BRISTOL,,COSTA MESA,CA,92626,United States,,,,,,,
MACY'S INC. - SOUTH COAST PLAZA,,3333 S BRISTOL ST,,COSTA MESA,CA,92626,United States,,,,,,,
MACY'S INC. - PASADENA,,401 SOUTHLAKE AVE,,PASADENA,CA,91101,United States,,,,,,,
MACY'S INC. - MONTEBELLO TOWN CENTER,,2000 MONTEBELLO TOWN CENTER,,MONTEBELLO,CA,90640,United States,,,,,,,
MACY'S INC. - WESTMINSTER (CA),,300 WESTMINSTER MALL,,WESTMINSTER,CA,92683,United States,,,,,,,
MACY'S INC. - CLACKAMAS TOWN CENTER,,12100 SE 82ND AVENUE,,PORTLAND,OR,97266,United States,,,,,,,
MACY'S INC. - CAPITAL (OLYMPIA),,301 CAPITAL MALL,,OLYMPIA,WA,98502,United States,,,,,,,
NAVY EXCHANGE (NEX) - SAN DIEGO MAIN ST,,BLDG 3187A-2260 CALLAGAN HWY,,SAN DIEGO,CA,92136,United States,,,,,,,
NORDSTROM - FASHION VALLEY CENTER,,270 FASHION VALLEY ROAD,,SAN DIEGO,CA,92108,United States,,,,,,,
NAVY EXCHANGE (NEX) - BANGOR MAIN STORE,,BLDG 2600-2600 OHIO STREET,,SILVERDALE,WA,98315,United States,,,,,,,
MACY'S INC. - KITSAP (SILVERDALE),,10315 SILVERDALE WAY,,SILVERDALE,WA,98383,United States,,,,,,,
MACY'S INC. - WEST COVINA,,1200 WEST COVINA PKWY,,WEST COVINA,CA,91790,United States,,,,,,,
MACY'S INC. - MISSION VIEJO,,200 THE SHOPS AT MISSION VIEJO,,MISSION VIEJO,CA,92691,United States,,,,,,,
NAVY EXCHANGE (NEX) - NO ISLAND MAIN ST,,BLDG 2017- NAS NORTH ISLAND,,SAN DIEGO,CA,92135,United States,,,,,,,
MACY'S INC. - BREA (CA),,200 BREA MALL,,BREA,CA,92821,United States,,,,,,,
NORDSTROM - BREA MALL,,500 BREA MALL WAY,,BREA,CA,92821,United States,,,,,,,
NORDSTROM - SANTA ANITA FASHION PARK,,400 S BALDWIN AVE,,ARCADIA,CA,91007,United States,,,,,,,
COACH FENWICK BRENT CROSS,,BRENT CROSS SHOPPING CENTRE,,LONDON,,NW4 3FP,United States,+44 (0)208 202 8095,,,"MON-FRI: 10AM-8PM, SAT: 9.30AM-8PM, SUN: 12PM-6PM",,,
COACH BENTALLS KINGSTON,,WOOD STREET,KINGSTON UPON THAMES,GREATER LONDON,,KT1 1TX,United States,+44 (0)208 546 1001,,,"MON-WED: 9.30AM-6PM, THU: 9.30AM-9PM, FRI:9.30AM-6.30PM, SAT: 9AM-7PM, SUN: 10.30AM-5PM",,,
COACH JOHN LEWIS CAMBRIDGE,,GRAND ARCADE,10 DOWNING STREET,CAMBRIDGE,,CB2 3DS,United States,+44 (0)122 336 1292,,,"MON-TUES: 9AM-6PM, WED: 9AM-8PM, THU-FRI: 9AM-6PM, SAT: 9AM-7PM, SUN: 11PM-5PM",,,
COACH SELFRIDGES,,400 OXFORD STREET,,LONDON,,W1A 1AB,United States,+44 (0)800 123 400,,,"MON-SAT: 9.30AM-10PM, SUN: 11.30AM-6PM",,,
COACH FENWICK TUNBRIDGE WELLS,,VICTORIA RD,,TUNBRIDGE WELLS,,TN1 2SR,United States,+44 (0)189 251 6716,,,"MON-WED: 9AM-5.30PM, THU: 9AM-8PM, FRI: 9AM-5.30PM, SAT: 9AM-6PM, SUN: 10.30AM-4.30PM",,,
COACH HOOPERS TUNBRIDGE WELLS,,1-12 MT PLEASANT ROAD,,ROYAL TUNBRIDGE WELLS,,TN1 1Q,United States,+44 (0)189 253 0222,,,"MON-TUE: 9AM-5.30PM, WED: 9.30AM-5.30PM, THU-FRI: 9AM-5.30PM, SAT: 9AM-6PM",,,
COACH WILLIAMS & GRIFFIN,,152 HIGH STREET,,COLCHESTER,,CO1 1PN,United States,+44 (0)120 657 1212,,,"MON-THU: 9AM-5.30PM, FRI-SAT: 9AM-6PM, SUN: 10.30AM-5PM",,,
COACH FENWICK CANTERBURY,,ST. GEORGES STREET,,CANTERBURY,,CT1 2TB,United States,+44 (0)122 776 6866,,,"MON-WED: 9AM-5.30PM, THU: 9AM-7PM, FRI-SAT: 9AM-6PM, SUN: 11AM-5PM",,,
COACH PRINTEMPS LILLE,,39/45 RUE NATIONALE,,LILLE,,59000,United States,+33 (0)3 20 63 62 00,,,MON-SAT: 9:30AM-8PM,,,
COACH PRINTEMPS PARLY 2,,CENTRE COMMERCIAL PARLY 2,AVENUE CHARLES DE GAULLE,LE CHESNAY,,78150,United States,+33 (0)1 72 10 07 00,,,"MON-SAT: 10AM-9PM, SUN: CLOSED",,,
COACH HARVEY NICHOLS MANCHESTER,,21 NEW CATHEDRAL ST,,MANCHESTER,,M1 1AD,United States,+44 (0)161 828 8888,,,"MON-FRI: 10AM-8PM, SAT: 9AM-7PM, SUN: 11.30AM-5.30PM",,,
COACH SELFRIDGES EXCHANGE SQUARE,,1 EXCHANGE SQUARE CENTRAL,,MANCHESTER,,M3 1BD,United States,+44 (0)800 123 400,,,"MON-FRI: 10AM-8PM, SAT: 9AM-8PM, SUN: 11AM-5.30PM",,,
COACH JOHN LEWIS CHEADLE,,WILMSLOW ROAD,,CHEADLE,,SK8 3BZ,United States,+44 (0)161 491 4914,,,"MON-FRI: 9AM-8PM, SAT: 9AM-7PM, SUN: 11AM-5PM",,,
COACH HOOPERS TORQUAY,,5-6 THE STRAND,,TORQUAY,,TQ1 2DF,United States,+44 (0)180 321 2754,,,"MON-SAT: 9AM-5.30PM, SUN: 10.30AM-4.30PM",,,
COACH JOHN LEWIS CRIBBS CAUSEWAY,,THE MALL AT CRIBBS CAUSEWAY,,BRISTOL,,BS34 5QU,United States,+44 (0)117 959 1100,,,"MON-FRI: 10AM-8PM, SAT: 9AM-7PM, SUN: 11AM-5PM",,,
COACH HARVEY NICHOLS BRISTOL,,27 PHILADELPHIA STREET,QUAKERS FRIARS,BRISTOL,,BS1 3BZ,United States,+44 (0)117 916 8888,,,"MON-WED: 10AM-6PM, THU: 10AM-8PM, FRI-SAT: 10AM-7PM, SUN: 11AM- 5PM",,,
COACH SELFRIDGES BIRMINGHAM,,THE BULLRING,UPPER MALL EAST,BIRMINGHAM,,B5 4BP,United States,+44 (0)800 123 400,,,"MON-WED: 10AM-8PM, THU-FRI: 10AM-9PM, SAT: 9AM-9PM, SUN: 11AM-5.30PM",,,
COACH JOHN LEWIS SOUTHAMPTON,,WEST QUAY,SOUTHAMPTON,HAMPSHIRE,,S015 1QA,United States,+44 (0)238 021 6400,,,"MON-WED: 9.30AM-6PM, THU: 9.30AM-8PM, FRI: 9.30AM-6.30PM, SAT: 9AM-6PM, SUN: 11AM-5PM",,,
COACH JOHN LEWIS HIGH WYCOMBE,,HOLMERS FARM WAY,CRESSEX CENTRE,HIGH WYCOMBE,,HP12 4NW,United States,+44 (0)149 446 2666,,,"MON-FRI: 9AM-8PM, SAT: 9AM-7PM, SUN: 11AM-5PM",,,
COACH FENWICK WINDSOR,,10-11 KING EDWARD COURT,,WINDSOR,,S14 1TF,United States,+44 (0)175 385 5537,,,"MON-FRI: 9AM-5.30PM, SAT: 9AM-6PM, SUN: 11AM-5PM",,,
MACY'S INC. - RENO MEADOWWOOD,,5100 MEADOWBROOK MALL,,RENO,NV,89502,United States,,,,,,,
MACY'S INC. - TEMECULA PROMENADE,,40782 WINCHESTER RD,,TEMECULA,CA,92591,United States,,,,,,,
MACY'S INC. - BELLEVUE SQUARE,,400 BELLEVUE SQUARE,,BELLEVUE,WA,98004,United States,,,,,,,
NORDSTROM - BELLEVUE SQUARE,,100 BELLEVUE SQ.,,BELLEVUE,WA,98004,United States,,,,,,,
MACY'S INC. - ALDERWOOD,,18700 ALDERWOOD MALL BLVD,,LYNNWOOD,WA,98037,United States,,,,,,,
MACY'S INC. - VICTORIA GARDENS (CA),,7855 KEW AVE,,RANCHO CUCAMONGA,CA,91739,United States,,,,,,,
MACY'S INC. - SOUTHCENTER SHOPPING CENTER (WA),,500 SOUTHCENTER MALL,,TUKWILA,WA,98188,United States,,,,,,,
MACY'S INC. - GALLERIA AT TYLER-RIVERSIDE,,3500 TYLER MALL,,RIVERSIDE,CA,92503,United States,,,,,,,
NORDSTROM - SEATTLE (DOWNTOWN),,1501 5TH AVE,,SEATTLE,WA,98101,United States,,,,,,,
MACY'S INC. - SEATTLE (DOWNTOWN),,THIRD AND PINE,,SEATTLE,WA,98101,United States,,,,,,,
MACY'S INC. - CONCORD SUNVALLEY,,341 SUN VALLEY MALL,,CONCORD,CA,94520,United States,,,,,,,
MACY'S INC. - OAKRIDGE (CA),,5411 THORNWOOD DR,,SAN JOSE,CA,95123,United States,,,,,,,
MACY'S INC. - NEWPARK,,200 NEWPARK MALL,,NEWARK,CA,94560,United States,,,,,,,
MACY'S INC. - SALINAS NORTHRIDGE,,200 NORTHRIDGE CENTER,,SALINAS,CA,93901,United States,,,,,,,
MACY'S INC. - VALLEY FAIR (CA),,2801 STEVENS CREEK BLVD,,SANTA CLARA,CA,95050,United States,,,,,,,
NORDSTROM - VALLEY FAIR,,2901 STEVENS CREEK BLVD,,SANTA CLARA,CA,95050,United States,,,,,,,
MACY'S INC. - SOUTHLAND MALL (CA),,800 SOUTHLAND MALL,,HAYWARD,CA,94545,United States,,,,,,,
MACY'S INC. - HILLTOP,,1400 HILLTOP MALL,,RICHMOND,CA,94806,United States,,,,,,,
MACY'S INC. - STANFORD CENTER (CA),,300 STANFORD MALL,,PALO ALTO,CA,94304,United States,,,,,,,
BLOOMINGDALE'S - SAN FRANCISCO,,845 MARKET STREET,,SAN FRANCISCO,CA,94103,United States,,,,,,,
NAVY EXCHANGE (NEX) - LEMOORE MAIN COMPLX,,BLDG 796-NAS PO BOX 1369,,LEMOORE,CA,93245,United States,,,,,,,
MACY'S INC. - EUGENE VALLEY RIVER CTR (OR),,100 VALLEY RIVER CENTER,,EUGENE,OR,97401,United States,,,,,,,
MACY'S INC. - VENTURA PACIFIC VIEW,,477 S MILLS RD,,VENTURA,CA,93003,United States,,,,,,,
MACY'S INC. - MODESTO VINTAGE FAIR,,500 VINTAGE FAIRE,,MODESTO,CA,95356,United States,,,,,,,
MACY'S INC. - ARDEN FAIR,,1701 ARDEN WAY,,SACRAMENTO,CA,95815,United States,,,,,,,
MACY'S INC. - SACRAMENTO DOWNTOWN PLAZA,,414 K ST,,SACRAMENTO,CA,95814,United States,,,,,,,
DILLARD'S - WEBERSTOWN,,4950 PACIFIC AVENUE,,STOCKTON,CA,95207,United States,,,,,,,
AAFES HQ - TRAVIS,,461 SKYMASTER BDLG 648,,TRAVIS AIR FORCE BASE,CA,94535,United States,,,,,,,
MACY'S INC. - FAIRFIELD SOLANO,,1544 TRAVIS BLVD,,FAIRFIELD,CA,94533,United States,,,,,,,
MACY'S INC. - PLEASANTON STONERIDGE,,1300 STONERIDGE MALL RD,,PLEASANTON,CA,94588,United States,,,,,,,
MACY'S INC. - VISALIA,,2211 S MOONEY BLVD,,VISALIA,CA,93277,United States,,,,,,,
MACY'S INC. - DOWNEY STONEWOOD CENTER,,251 STONEWOOD STREET,,DOWNEY,CA,90241,United States,,,,,,,
MACY'S INC. - LOS CERRITOS CENTER,,500 LOS CERRITOS CENTER,,CERRITOS,CA,90701,United States,,,,,,,
MACY'S INC. - GLENDALE GALLERIA,,2100 GLENDALE GALLERIA,,GLENDALE,CA,91204,United States,,,,,,,
MACY'S INC. - BURBANK TOWN CENTER,,200 EAST CYPRESS AVE,,BURBANK,CA,91502,United States,,,,,,,
MACY'S INC. - LAKEWOOD CENTER (CA),,5100 LAKEWOOD BLVD,,LAKEWOOD,CA,90712,United States,,,,,,,
MACY'S INC. - LOS ANGELES DOWNTOWN PLAZA,,750 W 7TH ST,,LOS ANGELES,CA,90017,United States,,,,,,,
MACY'S INC. - WASHINGTON SQ (OR),,9300 SW WASHINGTON SQUARE RD,,PORTLAND,OR,97223,United States,,,,,,,
MACY'S INC. - VALENCIA TOWN CENTER,,26450 MCBEAN PARKWAY,,SANTA CLARITA,CA,91355,United States,,,,,,,
MACY'S INC. - BAKERSFIELD VALLEY PLAZA,,2601 MING AVE,,BAKERSFIELD,CA,93309,United States,,,,,,,
MACY'S INC. - SHERMAN OAKS FASHION SQUARE,,14000 RIVERSIDE DR,,SHERMAN OAKS,CA,91423,United States,,,,,,,
MACY'S INC. - LLOYD CENTER (OR),,1100 LLOYD CENTER,,PORTLAND,OR,97232,United States,,,,,,,
MACY'S INC. - SHOPS AT RIVER PARK,,7890 N BLACKSTONE AVE,,FRESNO,CA,93720,United States,,,,,,,
MACY'S INC. - FRESNO FASHION FAIR,,4888 NORTH FRESNO ST,,FRESNO,CA,93726,United States,,,,,,,
MACY'S INC. - FOX HILLS (CA),,6200 SLAUSON AVE,,CULVER CITY,CA,90230,United States,,,,,,,
MACY'S INC. - FASHION CENTER (CA),,9301 TAMPA AVE,,NORTHRIDGE,CA,91324,United States,,,,,,,
MACY'S INC. - DEL AMO FASHION CENTER,,21600 HAWTHORNE BLVD,,TORRANCE,CA,90503,United States,,,,,,,
MACY'S INC. - ROSEVILLE GALLERIA,,1197 GALLERIA BLVD,,ROSEVILLE,CA,95678,United States,,,,,,,
MACY'S INC. - MANHATTAN BEACH,,3400 SEPULVEDA BLVD,,MANHATTAN BEACH,CA,90266,United States,,,,,,,
MACY'S INC. - TOPANGA,,21900 VANOWEN STREET,,CANOGA PARK,CA,91303,United States,,,,,,,
DILLARD'S - THE TUSCON MALL,,4550 N ORACLE,,TUCSON,AZ,85705,United States,,,,,,,
DILLARD'S - SUPERSTITION SPRINGS CENTER,,6545 E SOUTHERN AVE,,MESA,AZ,85206,United States,,,,,,,
DILLARD'S - SAN TAN VILLAGE,,2151 S SAN TAN VILLAGE PKWY,,GILBERT,AZ,85296,United States,,,,,,,
DILLARD'S - PRESCOTT GATE,,3100 GATEWAY BOULEVARD,,PRESCOTT,AZ,86303,United States,,,,,,,
MACY'S INC. - BILTMORE FASHION PARK,,2410 E CAMELBACK RD,,PHOENIX,AZ,85016,United States,,,,,,,
DILLARD'S - PARADISE VALLEY MALL,,4610 E CACTUS RD,,GILBERT,AZ,85234,United States,,,,,,,
NORDSTROM - FASHION SQUARE,,7055 EAST CAMELBACK ROAD,,SCOTTSDALE,AZ,85251,United States,,,,,,,
DILLARD'S - SCOTTSDALE FASHION SQUARE,,7014 E CAMELBACK RD,,GILBERT,AZ,85234,United States,,,,,,,
MACY'S INC. - SCOTTSDALE FASHION SQUARE,,7014 EAST CAMELBACK RD,,SCOTTSDALE,AZ,85251,United States,,,,,,,
MACY'S INC. - CHANDLER FASHION CENTER,,3107 W CHANDLER BLVD,,CHANDLER,AZ,85226,United States,,,,,,,
COACH PALACIO DE HIERRO INTERLOMAS,,CENTRO COMERCIAL PASEO INTERLOMAS,VIALIDAD DE LA BARRANCA NO. 60 LOCAL PB-18,MEXICO CITY,,52772,United States,(0155) 5290-3789,,,SUN - MON: 11:00AM-9:00PM,,,
EL PALACIO DE HIERRO POLANCO,,"MOLIERE NO. 222, LOS MORALES",SECCION PALMAS,MEXICO CITY,,11520,United States,(52) 55-5282-1723,,,"SUN-FRI 11:00AM-8:30PM, SAT 11:00AM-9:00PM",,,
CAOCH PALACIO DE HIERRO COYOACAN,,"AV COYOACAN NO. 2000, XOCO",,MEXICO CITY,,03330,United States,(55) 5601-4094,,,"SUN-FRI 11:00AM-8:30PM, SAT 11:00AM-9:00PM",,,
COACH PALACIO DE HIERRO PERISUR,,AV. ANILLO PERIFERICO SUR 4690 PALACIO DE HIERRO,,MEXICO CITY,,,United States,(52) 55-5171-8980,,,"SUN-FRI 11:00AM-8:30PM, SAT 11:00AM-9:00PM",,,
PALACIO DE HIERRO SANTA FE MENS STORE,,AVENIDA VASCO DE QUIROGA NO. 3800,,SANTA FE,,05109,United States,,,,"SUN-FRI 11:00AM-8:30PM, SAT 11:00AM-9:00PM",,,
DILLARD'S - SIERRA VISTA-TOWNE CENTER,,3800 MERCADO LOOP,,SIERRA VISTA,AZ,85635,United States,,,,,,,
COACH PALACIO DE HIERRO DURANGO,,DURANGO 203 COL. ROMA C.P. 06700 MÉXICO D.F.,,MEXICO CITY,,06700,United States,(55)5533-7393,,,MON-SUN 11:00AM-8:30PM,,,
DILLARD'S - PARK MALL,,5880 EAST BROADWAY BLVD,,TUCSON,AZ,85711,United States,,,,,,,
AAFES HQ - DAVIS MONTHAN,,BLDG 2527 5405 E GRANITE ST,,DAVIS-MONTHAN AIR FORCE BA,AZ,85707,United States,,,,,,,
MACY'S INC. - TUCSON MALL,,4470 NORTH ORACLE ROAD,,TUCSON,AZ,85705,United States,,,,,,,
MACY'S INC. - SOUTH HILL (PUYALLUP),,3500 SOUTH MERIDIAN,,PUYALLUP,WA,98373,United States,,,,,,,
MACY'S INC. - MONTCLAIR PLAZA,,5000 MONTCLAIR PLAZA LANE,,MONTCLAIR,CA,91763,United States,,,,,,,
MACY'S INC. - TACOMA,,4502 SOUTH STEELE,,TACOMA,WA,98409,United States,,,,,,,
AAFES HQ - MCCHORD,,BLDG 504 504 BARNES BLVD,,MCCHORD AIR FORCE BASE,WA,98438,United States,,,,,,,
MACY'S INC. - PLAZA BONITA,,3000 PLAZA BONITA ROAD,,NATIONAL CITY,CA,91950,United States,,,,,,,
MACY'S INC. - FASHION VALLEY (CA),,7017 FRIARS RD,,SAN DIEGO,CA,92108,United States,,,,,,,
MACY'S INC. - ANTELOPE VALLEY,,1123 W RANCHO VISTA BLVD,,PALMDALE,CA,93551,United States,,,,,,,
MACY'S INC. - UNIVERSITY TOWN CENTER (CA),,4333 LA JOLLA VILLAGE DR,,SAN DIEGO,CA,92122,United States,,,,,,,
AAFES HQ - FT LEWIS,,PENDLETON AVE BLDG 5280,,FORT LEWIS,WA,98433,United States,,,,,,,
DILLARD'S - ANTELOPE MALL,,1255 WEST AVENUE P,,PALMDALE,CA,93551,United States,,,,,,,
DILLARD'S - FIRST COLONY,,16517 SW FREEWAY,,SUGAR LAND,TX,77479,United States,,,,,,,
DILLARD'S - LAKE BRAZOS,,100 HWY 332 SUITE 1400,,LAKE JACKSON,TX,77566,United States,,,,,,,
DILLARD'S - KILLEEN MALL,,2100 S W S YOUNG DR#6000,,KILLEEN,TX,76541,United States,,,,,,,
DILLARD'S - DOMAIN,,3211 FEATHERGRASS,,AUSTIN,TX,78758,United States,,,,,,,
DILLARD'S - LAKELINE,,LAKELINE MALL,,CEDAR PARK,TX,78613,United States,,,,,,,
DILLARD'S - BARTON CREEK SQUARE MALL,,2901 CAPITOL OF TEXAS HWY,,AUSTIN,TX,78746,United States,,,,,,,
DILLARD'S - MALL OF ABILENE,,4310 BUFFALO GAP RD,,ABILENE,TX,79606,United States,,,,,,,
DILLARD'S - VICTORIA MALL,,7800 HALLETTSVILLE HWY,,VICTORIA,TX,77901,United States,,,,,,,
DILLARD'S - WESTGATE,,7701 I-40 WEST#300,,AMARILLO,TX,79160,United States,,,,,,,
AAFES HQ - RANDOLPH AFB,,BLDG 1073,,RANDOLPH AIR FORCE BASE,TX,78148,United States,,,,,,,
DILLARD'S - GALLERIA (NV),,1320 W SUNSET ROAD,,HENDERSON,NV,89014,United States,,,,,,,
DILLARD'S - FASHION SHOW MALL,,3200 LAS VEGAS BLVD,,LAS VEGAS,NV,89109,United States,,,,,,,
MACY'S INC. - LAS VEGAS FASHION SHOW,,3200 LAS VEGAS BLVD S,,LAS VEGAS,NV,89109,United States,,,,,,,
MACY'S INC. - LAS VEGAS MEADOWS,,4100 MEADOWS LN,,LAS VEGAS,NV,89107,United States,,,,,,,
MACY'S INC. - COLUMBIA CENTER (WA),,400 COLUMBIA CENTER,,KENNEWICK,WA,99336,United States,,,,,,,
DILLARD'S - YUMA PALMS,,1461  YUMA PALMS,,YUMA,AZ,85364,United States,,,,,,,
DILLARD'S - IMPERIAL VALLEY MALL,,3451 SOUTH DOGWOOD AVE,,EL CENTRO,CA,92243,United States,,,,,,,
MACY'S INC. - PALM DESERT,,72-780 HIGHWAY 111,,PALM DESERT,CA,92260,United States,,,,,,,
MACY'S INC. - SAN BERNARDINO INLAND CENTER,,400 INLAND CENTER DRIVE,,SAN BERNARDINO,CA,92408,United States,,,,,,,
DILLARD'S - SUMMIT SIERRA,,MT ROSE HWY & SVIRGINIA ST,,RENO,NV,89511,United States,,,,,,,
DILLARD'S - CHANDLER FASHION MALL,,3101 WEST CHANDLER BOULEVARD,,CHANDLER,AZ,85244,United States,,,,,,,
DILLARD'S - ARROWHEAD TOWNE CENTER,,7800 ARROWHEAD TOWN CENTER,,GLENDALE,AZ,85318,United States,,,,,,,
MACY'S INC. - ARROWHEAD TOWNE CENTER,,7600 WEST ARROWHEAD TOWNE CENTER,,GLENDALE,AZ,85308,United States,,,,,,,
DILLARD'S - DESERT SKY MALL,,7621 WEST THOMAS ROAD,,PHOENIX,AZ,85033,United States,,,,,,,
AAFES HQ - LUKE,,BLDG1540 7071 NORTH 138TH AVE,,LUKE AIR FORCE BASE,AZ,85309,United States,,,,,,,
DILLARD'S - BOISE TOWN SQUARE,,350 N MILWAUKEE,,BOISE,ID,83788,United States,,,,,,,
MACY'S INC. - BOISE TOWN SQUARE,,370 NORTH MILWAUKEE,,BOISE,ID,83704,United States,,,,,,,
MACY'S INC. - SPOKANE VALLEY,,14740 EAST INDIANA,,SPOKANE,WA,99216,United States,,,,,,,
EL PALACIO DE HIERRO GUADALAJARA MEN'S STORE,,BOULEVARD PUERTA DE HIERRO NO. 4965,"FRACCIONAMIENTO PLAZA ANDARES, ANCLA 1",ZAPOPAN JALISCO,,45116,United States,(33) 361-13156,,,MON - SUN: 11:00AM-9:00PM,,,
AAFES HQ - NELLIS AIR FORCE BASE,,BLDG431 5691 RICKENBACKER RD,,NELLIS AIR FORCE BASE,NV,89191,United States,,,,,,,
DILLARD'S - THE PARKS AT ARLINGTON,,3821 SOUTH COOPER,,ARLINGTON,TX,76015,United States,,,,,,,
DILLARD'S - CENTRAL MALL (OK),,200 SOUTHWEST C AVENUE,,LAWTON,OK,73501,United States,,,,,,,
DILLARD'S - WICHITA EAST,,20131 US 59 N,,HUMBLE,TX,77338,United States,,,,,,,
MACY'S INC. - DEERBROOK (TX),,10023 FM 1960,,HUMBLE,TX,77338,United States,,,,,,,
AAFES HQ - CARSWELL,,BLDG 1880 NASJRB EXCHANGE,,FORT WORTH,TX,76127,United States,,,,,,,
DILLARD'S - THE WOODLANDS,,1201 LAKE WOODLANDS DRIVE STE 400,,SPRING,TX,77380,United States,,,,,,,
DILLARD'S - HULEN MALL,,4850 OVERTON RIDGE BLVD,,FORT WORTH,TX,76132,United States,,,,,,,
DILLARD'S - BAYBROOK MALL,,200 BAYBROOK MALL,,FRIENDSWOOD,TX,77546,United States,,,,,,,
MACY'S INC. - BAYBROOK,,100 BAYBROOK MALL,,FRIENDSWOOD,TX,77598,United States,,,,,,,
DILLARD'S - WILLOWBROOK MALL (TX),,7925 FM 1960 W,,HOUSTON,TX,77070,United States,,,,,,,
DILLARD'S - TOWN EAST MALL (TX),,6000 TOWN EAST BLVD,,MESQUITE,TX,75150,United States,,,,,,,
DILLARD'S - SHOPS AT WILLOWBEND,,2501 DALLAS PKWY,,DALLAS,TX,75248,United States,,,,,,,
DILLARD'S - NORTHPARK CENTER (TX),,100 NORTHPARK CENTER,,DALLAS,TX,75225,United States,,,,,,,
MACY'S INC. - NORTHPARK CENTER (TX),,8687 NORTH CENTRAL EXPRESSWAY,,DALLAS,TX,75225,United States,,,,,,,
MACY'S INC. - GALLERIA (DALLAS),,13375 NOEL ROAD,,DALLAS,TX,75240,United States,,,,,,,
DILLARD'S - VISTA RIDGE MALL,,2411 SOUTH STEMMONS,,LEWISVILLE,TX,75067,United States,,,,,,,
DILLARD'S - CEDAR HILL,,309 WEST FM 1382,,CEDAR HILL,TX,75104,United States,,,,,,,
DILLARD'S - NORTH EAST MALL,,1101 MELBOURNE RD,,HURST,TX,76053,United States,,,,,,,
MACY'S INC. - NORTH EAST (TX),,1101 MELBOURNE ROAD,,HURST,TX,76053,United States,,,,,,,
MACY'S INC. - PARKS AT ARLINGTON,,3841 SOUTH COOPER STREET,,ARLINGTON,TX,76017,United States,,,,,,,
DILLARD'S - SOUTH PLAINS MALL,,6002 SLIDE RD - LOOP 289,,LUBBOCK,TX,79414,United States,,,,,,,
AAFES HQ - FT BUCHANAN,,218 BROOK STREET BLGD 689,,FORT BUCHANAN,PR,00934,United States,,,,,,,
MACY'S INC. - PLAZA LAS AMERICAS,,525 F D ROOSEVELT AVE,,SAN JUAN,PR,00918,United States,,,,,,,
NORDSTROM - PARK MEADOWS,,8465 PARK MEADOWS DRIVE,,LITTLETON,CO,80124,United States,,,,,,,
AAFES HQ - PETERSON BX,,1030 E STEWART AVE BLDG 2017,,PETERSON AIR FORCE BASE,CO,80914,United States,,,,,,,
DILLARD'S - PARK MEADOWS,,8415 PARK MEADOW CTRDR,,LITTLETON,CO,80124,United States,,,,,,,
DILLARD'S - CHAPEL HILLS (CO),,1790 BRIARGATE BLVD,,COLORADO SPRINGS,CO,80920,United States,,,,,,,
DILLARD'S - FLAT IRON,,41 WEST FLAT IRON CIRCLE,,BROOMFIELD,CO,80021,United States,,,,,,,
AAFES HQ - FT. CARSON,,6110 MARTINEZ ST,,FORT CARSON,CO,80913,United States,,,,,,,
DILLARD'S - MIDLAND PARK MALL,,4511 N MIDKIFF RD,,MIDLAND,TX,79705,United States,,,,,,,
AAFES HQ - FT. BLISS,,BLDG 1611 HAAN & MARSHALL RD,,EL PASO,TX,79906,United States,,,,,,,
DILLARD'S - CIELO VISTA MALL,,8401 GATEWAY WEST,,EL PASO,TX,79925,United States,,,,,,,
MACY'S INC. - CIELO VISTA,,8401 GATEWAY WEST & HAWKINS,,EL PASO,TX,79925,United States,,,,,,,
DILLARD'S - SUNLAND PARK MALL,,750 SUNLAND PARK DRIVE,,EL PASO,TX,79912,United States,,,,,,,
COACH PH VILLAHERMOSA MENS,,PERIFERICO CARLOS PELLICER CAMARA #129,PRIMERO DE MAYO,VILLAHERMOSA,,86190,United States,(52) 9932-535478,,,MON-SUN 11:00AM-9:00PM,,,
DILLARD'S - FASHION PLACE MALL,,6191 S STATE ST #100,,SALT LAKE CITY,UT,84107,United States,,,,,,,
NORDSTROM - FASHION PLACE MALL,,6191 S. STATE #200,,MURRAY,UT,84107,United States,,,,,,,
DILLARD'S - FLAGSTAFF MALL,,4700 US HIGHWAY 89 NORTH,,FLAGSTAFF,AZ,86004,United States,,,,,,,
COACH PALACIO DE HIERRO PUEBLA,,"BOULEVARD DEL NIÑO POBLANO, 2510",LOC 2 COLONIA CONCEPCION LA CRUZ,"PUEBLA, PUE .",,C.P.  7245,United States,(22)22 252498,,,"SUN-FRI 11:00AM-8:30PM, SAT 11:00AM-9:00PM",,,
COACH PALACIO DE HIERRO SATELITE,,CIRCUITO CENTRO COMERCIAL NO. 2251 CIUDAD SATELITE,,ESTADO DE MÉXICO,,53100,United States,(55)5374-3953,,,"SUN-FRI 11:00AM-8:30PM, SAT 11:00AM-9:00PM",,,
DILLARD'S - ODESSA,,4101 EAST 42ND ST SUITE 108,,ODESSA,TX,79762,United States,,,,,,,
DILLARD'S - SUNRISE MALL (TX),,2340 N EXPRESSWAY,,BROWNSVILLE,TX,78526,United States,,,,,,,
DILLARD'S - MALL DEL NORTE,,5300 SAN DARIO AVENUE,,LAREDO,TX,78041,United States,,,,,,,
MACY'S INC. - DEL NORTE,,5300 SAN DARIO,,LAREDO,TX,78041,United States,,,,,,,
MACY'S INC. - LA PLAZA,,2100 S TENTH,,MCALLEN,TX,78503,United States,,,,,,,
DILLARD'S - MCALLEN,,2200 S 10TH STREET,,MCALLEN,TX,78501,United States,,,,,,,
DILLARD'S - RIMROCK MALL,,140 SOUTH 24TH STREET WEST,,BILLINGS,MT,59102,United States,,,,,,,
DILLARD'S - WINROCK,,2100 LOUISIANA BOULEVARD NE,,ALBUQUERQUE,NM,87110,United States,,,,,,,
DILLARD'S - COTTONWOOD,,10000 COORS BYPASS,,ALBUQUERQUE,NM,87114,United States,,,,,,,
COACH PALACIO DE HIERRO MONTERREY,,JOSÉ VASCONCELOS NO. 402 COL. DEL VALLE,SAN PEDRO GARZA GARCÍA,NUEVO LEÓN,,66220,United States,(52) 81-8356-7213,,,MON-SUN 11:00AM-8:30PM,,,
DILLARD'S - ROLLING OAKS MALL,,6909 LOOP 1604 EAST,,SAN ANTONIO,TX,78247,United States,,,,,,,
AAFES HQ - FT. SAM HOUSTON,,2503 FUNSTON RD BLDG#2420,,FORT SAM HOUSTON,TX,78234,United States,,,,,,,
DILLARD'S - NORTH STAR MALL,,900 NORTH MALL,,SAN ANTONIO,TX,78216,United States,,,,,,,
MACY'S INC. - NORTH STAR (TX),,7400 SAN PEDRO AVESTE 200,,SAN ANTONIO,TX,78216,United States,,,,,,,
DILLARD'S - LA CANTERA,,15900 LA CANTERA PKWY BLDG,,SAN ANTONIO,TX,78256,United States,,,,,,,
DILLARD'S - INGRAM PARK MALL,,6310 NW LOOP 410,,SAN ANTONIO,TX,78238,United States,,,,,,,
MACY'S INC. - SOUTH PARK TX,,2310 SOUTHWEST MILITARY DRIVE,,SAN ANTONIO,TX,78224,United States,,,,,,,
AAFES HQ - LACKLAND AFB,,2180 REESE ST BLDG 1385,,LACKLAND AIR FORCE BASE,TX,78236,United States,,,,,,,
DILLARD'S - PADRE STAPLES MALL,,5350 S PADRE ISLAND DRIVE,,CORPUS CHRISTI,TX,78412,United States,,,,,,,
DILLARD'S - SUNSET MALL,,2000 SUNSET MALL,,SAN ANGELO,TX,76904,United States,,,,,,,
DILLARD'S - LINCOLN,,6100 O STREET #60,,LINCOLN,NE,68510,United States,,,,,,,
MACY'S INC. - EMPIRE MALL,,4001 WEST 41ST STREET,,SIOUX FALLS,SD,57106,United States,,,,,,,
VON MAUR - SOUTH POINT PAVILLIONS #18,,2900 PINE LAKE ROAD,,LINCOLN,NE,68516,United States,,,,,,,
DILLARD'S - MALL OF LOUISIANA,,6601 BLUEBONNET,,BATON ROUGE,LA,70836,United States,,,,,,,
DILLARD'S - CENTRAL MALL (TX),,33 CENTRAL MALL,,TEXARKANA,TX,75503,United States,,,,,,,
DILLARD'S - HOUMA  SOUTHLAND MALL,,5953 WEST PARK AVE STE 1000,,TALISHEEK,LA,70464,United States,,,,,,,
DILLARD'S - ALEXANDRIA MALL,,3437 MASONIC DRIVE,,ALEXANDRIA,LA,71301,United States,,,,,,,
AAFES HQ - FT RILEY,,BLDG 2210 TROPPER DRIVE,,FORT RILEY,KS,66442,United States,,,,,,,
MACY'S INC. - WEST ACRES (ND),,WEST ACRES,,FARGO,ND,58103,United States,,,,,,,
MACY'S INC. - WOODLAND HILLS,,8707 E 71ST STREET,,TULSA,OK,74133,United States,,,,,,,
DILLARD'S - HOUSTON GALLERIA,,4925 WESTHEIMER AT POST OAK,,HOUSTON,TX,77056,United States,,,,,,,
MACY'S INC. - GALLERIA HOUSTON AT HILDAGO,,5135 WEST ALABAMA,,HOUSTON,TX,77056,United States,,,,,,,
DILLARD'S - MEMORIAL CITY MALL,,900 MEMORIAL CITY,,HOUSTON,TX,77024,United States,,,,,,,
MACY'S INC. - MEMORIAL CITY,,900 GESSNER ROAD,,HOUSTON,TX,77024,United States,,,,,,,
DILLARD'S - SIKES CENTER,,3111 MIDWESTERN PKWY,,EULESS,TX,76039,United States,,,,,,,
DILLARD'S - POST OAK MALL,,1504 HARVEY BLVD,,COLLEGE STATION,TX,77840,United States,,,,,,,
MACY'S INC. - PEARLAND,,CORNER OF HWY 288 AND 518,,PEARLAND,TX,77584,United States,,,,,,,
MACY'S INC. - WILLOWBROOK MALL (TX),,4000 WILLOWBROOK MALL,,HOUSTON,TX,77070,United States,,,,,,,
DILLARD'S - RICHLAND MALL,,6001 W WACO DR,,WACO,TX,76710,United States,,,,,,,
MACY'S INC. - FIRST COLONY,,16511 SW FREEWAY,,SUGAR LAND,TX,77479,United States,,,,,,,
MACY'S INC. - MALL OF AMERICA,,4000 SOUTHWEST COURT,,BLOOMINGTON,MN,55425,United States,,,,,,,
MACY'S INC. - BURNSVILLE CENTER,,14251 BURNHAVEN DRIVE,,BURNSVILLE,MN,55337,United States,,,,,,,
MACY'S INC. - SOUTHDALE CENTER,,100 SOUTHDALE CENTER,,MINNEAPOLIS,MN,55435,United States,,,,,,,
NAVY EXCHANGE (NEX) - PENSACOLA MAIN ST,,BLDG 3725-5600 HIGHWAY 98 WEST,,PENSACOLA,FL,32507,United States,,,,,,,
VON MAUR - VALLEY WEST MALL #6,,300 VALLEY WEST MALL,,WEST DES MOINES,IA,50265,United States,,,,,,,
BON-TON STORES - VALLEY WEST MALL,,1551 VALLEY WSET DRIVE SUITE 200,,WEST DES MOINES,IA,50266,United States,,,,,,,
VON MAUR - EDEN PRAIRIE,,1018 EDEN PRAIRIE CENTER,,EDEN PRAIRIE,MN,55344,United States,,,,,,,
MACY'S INC. - RIDGEDALE,,12411 WAYZATA BOULEVARD,,MINNETONKA,MN,55305,United States,,,,,,,
MACY'S INC. - WELLINGTON GREEN,,10316 FOREST HILL BLVD,,WEST PALM BEACH,FL,33414,United States,,,,,,,
DILLARD'S - JORDAN CREEK,,101 JORDAN CREEK PARKWAY,,DES MOINES,IA,50265,United States,,,,,,,
AAFES HQ - MACDILL,,BLDG926 3108 NBOUNDARY BLVD,,TAMPA,FL,33608,United States,,,,,,,
MACY'S INC. - MAPLEWOOD,,3001 WHITE BEAR AVE N,,SAINT PAUL,MN,55109,United States,,,,,,,
MACY'S INC. - THE GARDENS (FL),,3107 PGA BLVD,,PALM BEACH GARDENS,FL,33410,United States,,,,,,,
DILLARD'S - TYRONE SQUARE,,6901 22ND AVENUE NORTH,,SAINT PETERSBURG,FL,33710,United States,,,,,,,
MACY'S INC. - TYRONE SQUARE,,6901 22ND AVE N,,SAINT PETERSBURG,FL,33710,United States,,,,,,,
DILLARD'S - CORDOVA MALL,,5100 NORTH 9TH AVE,,PENSACOLA,FL,32501,United States,,,,,,,
COACH ABC ACHRAFIEH,,ABC SHOPPING MALL,ASHRAFIEH,BEIRUT,,1100,United States,+961 (0)121 2888,,,MON-SAT: 10AM-10PM,,,
COACH ABC DBAYEH,,DBAYEH,,BEIRUT,,1100,United States,+961 (0)441 6000,,,MON-SAT: 10AM-10PM,,,
NORDSTROM - MALL OF AMERICA,,1000 NORTHWEST COURT,,MINNEAPOLIS,MN,55425,United States,,,,,,,
MACY'S INC. - ROSEDALE CENTER,,900 ROSEDALE CENTER,,ROSEVILLE,MN,55113,United States,,,,,,,
AAFES HQ - TINKER,,BLDG 685 3360 N AVE,,TINKER AIR FORCE BASE,OK,73145,United States,,,,,,,
DILLARD'S - QUAIL SPRINGS MALL,,2501 WEST MEMORIAL,,OKLAHOMA CITY,OK,73120,United States,,,,,,,
DILLARD'S - PENN SQUARE MALL,,1901 NW EXPRESSWAY SUITE 1001,,OKLAHOMA CITY,OK,73118,United States,,,,,,,
DILLARD'S - SOONER MALL,,3499 WEST MAIN,,NORMAN,OK,73069,United States,,,,,,,
DILLARD'S - PARKDALE MALL,,6457 E TEX FRWY,,BEAUMONT,TX,77706,United States,,,,,,,
DILLARD'S - VILLAGE AT FAIRVIEW,,121 E STACY ROAD,,DALLAS,TX,75225,United States,,,,,,,
DILLARD'S - STONEBRIAR CENTRE,,2603 PRESTON ROAD,,FRISCO,TX,75034,United States,,,,,,,
MACY'S INC. - STONEBRIAR CENTRE (TX),,2603 PRESTON ROAD,,FRISCO,TX,75034,United States,,,,,,,
DILLARD'S - FIREWHEEL TOWN CENTER,,HWY 190 & HWY 78,,GARLAND,TX,75043,United States,,,,,,,
MACY'S INC. - WOODLANDS (TX),,1201 LAKE WOODLANDS DRIVE,,THE WOODLANDS,TX,77386,United States,,,,,,,
DILLARD'S - PIERRE BOSSIER MALL,,2950 E TEXAS AVE,,BOSSIER CITY,LA,71111,United States,,,,,,,
DILLARD'S - WOODLAND HILLS MALL,,6919 SOUTH MEMORIAL,,TULSA,OK,74133,United States,,,,,,,
DILLARD'S - PROMENADE,,4169 SOUTH YALE,,TULSA,OK,74135,United States,,,,,,,
DILLARD'S - MALL ST. VINCENT,,1133 ST VINCENT AVE,,SHREVEPORT,LA,71104,United States,,,,,,,
DILLARD'S - ACADIANA MALL,,5725 JOHNSTON RD,,LAFAYETTE,LA,70503,United States,,,,,,,
DILLARD'S - TOWN EAST (KS),,7700 KELLOGG EAST,,WICHITA,KS,67207,United States,,,,,,,
VON MAUR - TOWN EAST (KS),,770 E KELLOGG DRIVE,,WICHITA,KS,67207,United States,,,,,,,
DILLARD'S - LONGVIEW MALL,,3500 MCCANN ROAD,,LONGVIEW,TX,75605,United States,,,,,,,
DILLARD'S - LAKE CHARLES/PRIEN LAKE,,496 W PRIEN LAKE MALL,,LAKE CHARLES,LA,70601,United States,,,,,,,
DILLARD'S - BROADWAY SQUARE,,4601 S BROADWAY,,TYLER,TX,75703,United States,,,,,,,
MACY'S INC. - WOLFCHASE GALLERIA,,2840 N GERMANTOWN PARKWAY,,MEMPHIS,TN,38133,United States,,,,,,,
DILLARD'S - THE AVENUE CARRIAGE CROSSING,,4620 MERCHANTS PARK CR BLDG C,,COLLIERVILLE,TN,38017,United States,,,,,,,
MACY'S INC. - ORLANDO MILLENIA (FL),,4298 MILLENIA BLVDORLANDO,,ORLANDO,FL,32839,United States,,,,,,,
DILLARD'S - THE FLORIDA MALL,,8100 S ORANGE BLOSSOM TRAIL,,ORLANDO,FL,32809,United States,,,,,,,
MACY'S INC. - FLORIDA MALL,,8001 S ORANGE BLOSSOM TRAIL,,ORLANDO,FL,32809,United States,,,,,,,
DILLARD'S - SOUTHAVEN TOWNE CENTER,,230 TOWN CENTER LOOP,,SOUTHAVEN,MS,38671,United States,,,,,,,
DILLARD'S - TURTLE CREEK MALL (AR),,3000 E HIGHLAND,,JONESBORO,AR,72401,United States,,,,,,,
MACY'S INC. - APACHE,,901 APACHE MALL,,ROCHESTER,MN,55902,United States,,,,,,,
DILLARD'S - PIER PARK,,200 PIER PARK DRIVE,,PANAMA CITY,FL,32405,United States,,,,,,,
DILLARD'S - COLUMBIA (MO),,2300 BERNADETTE DRIVE,,COLUMBIA,MO,65203,United States,,,,,,,
MACY'S INC. - FORT MYERS EDISON,,4125 CLEVELAND AVE,,FORT MYERS,FL,33901,United States,,,,,,,
DILLARD'S - MCCAIN MALL,,3929 MC CAIN BLVD,,NORTH LITTLE ROCK,AR,72116,United States,,,,,,,
MACY'S INC. - PEMBROKE LAKES,,11605 PINES BLVD,,PEMBROKE PINES,FL,33026,United States,,,,,,,
DILLARD'S - PEMBROKE LAKES MALL,,11945 PINES BOULEVARD,,PEMBROKE PINES,FL,33026,United States,,,,,,,
MACY'S INC. - AVENTURA,,19535 BISCAYNE BLVD,,NORTH MIAMI BEACH,FL,33180,United States,,,,,,,
DILLARD'S - PARK PLAZA,,6000 W MARKHAM,,LITTLE ROCK,AR,72205,United States,,,,,,,
DILLARD'S - COCONUT POINT,,8017 VIA SARDINIA WAY,,BONITA SPRINGS,FL,34135,United States,,,,,,,
MACY'S INC. - WESTLAND (FL),,1777 W 49TH STREET,,HIALEAH,FL,33012,United States,,,,,,,
MACY'S INC. - INDEPENDENCE CENTER (MO),,18809 EAST 39TH STREET,,INDEPENDENCE,MO,64057,United States,,,,,,,
MACY'S INC. - MIAMI INTERNATIONAL,,1245 NW 107TH AVE,,MIAMI,FL,33172,United States,,,,,,,
MACY'S INC. - METRO NORTH,,400 NW BARRY ROAD,,KANSAS CITY,MO,64155,United States,,,,,,,
DILLARD'S - EDGEWATER MALL,,2600 BEACH BLVD SUITE # 1,,BILOXI,MS,39531,United States,,,,,,,
MACY'S INC. - NAPLES COASTLAND CTR,,1800 9TH ST N,,NAPLES,FL,34102,United States,,,,,,,
MACY'S INC. - DADELAND,,7303 SW 88TH ST,,MIAMI,FL,33143,United States,,,,,,,
DILLARD'S - ZONA ROSA,,7350 NW 87TH TERRACE,,KANSAS CITY,MO,64153,United States,,,,,,,
BLOOMINGDALE'S - THE FALLS,,8778 SW 136TH ST,,MIAMI,FL,33176,United States,,,,,,,
MACY'S INC. - TOWN CENTER PLAZA (KS),,5000 W 119TH STREET,,LEAWOOD,KS,66211,United States,,,,,,,
MACY'S INC. - OAK PARK,,11201 W 95TH STREET,,OVERLAND PARK,KS,66214,United States,,,,,,,
DILLARD'S - OAK PARK,,11501 WEST 95TH STREET,,SHAWNEE MISSION,KS,66214,United States,,,,,,,
DILLARD'S - PINNACLE HILLS,,3951 PERRY ROAD,,ROGERS,AR,72756,United States,,,,,,,
DILLARD'S - NW ARKANSAS PLAZA,,4210 HIGHWAY 71 NORTH,,FAYETTEVILLE,AR,72703,United States,,,,,,,
DILLARD'S - PECANLAND MALL,,4610 MILHAVEN ROAD,,MONROE,LA,71203,United States,,,,,,,
VON MAUR - WEST ROADS MALL #15,,10010 CALIFORINA STREET,,OMAHA,NE,68114,United States,,,,,,,
BON-TON STORES - WESTROADS MALL,,707 N 102ND ST,,OMAHA,NE,68114,United States,,,,,,,
DILLARD'S - OAK VIEW MALL,,3030 OAKVIEW DRIVE,,OMAHA,NE,68144,United States,,,,,,,
DILLARD'S - WEST RIDGE MALL,,1791 SW WANAMAKER,,TOPEKA,KS,66604,United States,,,,,,,
DILLARD'S - CENTRAL MALL (AR),,5111 ROGERS AVENUE,,FORT SMITH,AR,72913,United States,,,,,,,
DILLARD'S - OAKWOOD MALL,,197 WEST BANK EXPRESSWAY,,GRETNA,LA,70053,United States,,,,,,,
DILLARD'S - LAKESIDE SHOPPING CENTER (LA),,LAKESIDE SHOPPING CENTER,,METAIRIE,LA,70002,United States,,,,,,,
MACY'S INC. - LAKESIDE SHOPPING CENTER (LA),,3301 VETERANS MEMORIAL BLVD,,METAIRIE,LA,70002,United States,,,,,,,
BON-TON STORES - JORDON CREEK SC,,101 JORDAN CREEK PARK,,WEST DES MOINES,IA,50266,United States,,,,,,,
MACY'S INC. - BOYNTON BEACH,,801 N CONGRESS AVE,,BOYNTON BEACH,FL,33436,United States,,,,,,,
DILLARD'S - BEL AIR,,3300 AIRPORT BLVD/HIGHWAY 90,,MOBILE,AL,36606,United States,,,,,,,
MACY'S INC. - BOCA RATON TOWN CENTER,,5700 W GLADES RD,,BOCA RATON,FL,33431,United States,,,,,,,
DILLARD'S - PORT CHARLOTTE TOWN CENTER,,1441 TAMIAMI TRAIL,,PORT CHARLOTTE,FL,33948,United States,,,,,,,
DILLARD'S - NORTHPARK (MS),,1200 COUNTY LINE RD,,RIDGELAND,MS,39157,United States,,,,,,,
MACY'S INC. - CORAL SQUARE,,9129 W ATLANTIC BLVD,,CORAL SPRINGS,FL,33071,United States,,,,,,,
DILLARD'S - BATTLEFIELD MALL,,2825 S GLENSTONE AVE,,SPRINGFIELD,MO,65804,United States,,,,,,,
MACY'S INC. - GALLERIA (FL),,2314 E SUNRISE BLVD,,FORT LAUDERDALE,FL,33304,United States,,,,,,,
MACY'S INC. - BROWARD MALL,,8000 W BROWARD BLVD,,PLANTATION,FL,33324,United States,,,,,,,
DILLARD'S - KENTUCKY OAKS MALL,,5101 HINKLEVILLE ROAD,,PADUCAH,KY,42001,United States,,,,,,,
AAFES HQ - FT BENNING,,BLDG 9230,,FORT BENNING,GA,31905,United States,,,,,,,
DILLARD'S - ST JOHNS TOWN CENTER,,4755 TOWN CROSSING DRIVE,,JACKSONVILLE,FL,32246,United States,,,,,,,
NAVY EXCHANGE (NEX) - JAXS MAIN STORE,,BLDG 987-NAS BOX 104,,JACKSONVILLE,FL,32212,United States,,,,,,,
DILLARD'S - ALBANY MALL,,2601 DAWSON RD,,ALBANY,GA,31707,United States,,,,,,,
AAFES HQ - SCOTT,,BLDG 1981 207 WEST WINTERS ST,,SCOTT AIR FORCE BASE,IL,62225,United States,,,,,,,
BELK - SUMMIT (AL),,221 SUMMIT BOULEVARD,,BIRMINGHAM,AL,35243,United States,,,,,,,
MACY'S INC. - ST. CLAIR SQUARE,,200 ST CLAIR SQUARE,,FAIRVIEW HEIGHTS,IL,62208,United States,,,,,,,
DILLARD'S - ST. CLAIR SQUARE,,275 ST CLAIR SQUARE,,FAIRVIEW HEIGHTS,IL,62208,United States,,,,,,,
BELK - RIVERCHASE,,2100 RIVERCHASE GALLERIA,,BIRMINGHAM,AL,35244,United States,,,,,,,
AAFES HQ - FT. BUCHANAN MS,,BLDG 2840 BASTOGNE AVE,,FORT CAMPBELL,KY,42223,United States,,,,,,,
MACY'S INC. - FOX RIVER (WI),,4301 W WISCONSIN AVE,,APPLETON,WI,54915,United States,,,,,,,
VON MAUR - COLLEGE HILLS MALL,,301 VERTERANS PARKWAY,,NORMAL,IL,61761,United States,,,,,,,
BON-TON STORES - CHERRYVALE,,NUMBER 3 MALL AT CHERRYVALE,,ROCKFORD,IL,61112,United States,,,,,,,
MACY'S INC. - CHERRYVALE,,1 MALL AT CHERRYVALE,,ROCKFORD,IL,61112,United States,,,,,,,
VON MAUR - HICKORY POINT MALL,,US ROUTE 51 NORTH,,DECATUR,IL,62526,United States,,,,,,,
DILLARD'S - PARKWAY PLACE,,2801 MEMORIAL PARKWAY SOUTH,,HUNTSVILLE,AL,35801,United States,,,,,,,
MACY'S INC. - HILLDALE (WI),,702 N MIDVALE BLVD,,MADISON,WI,53705,United States,,,,,,,
BON-TON STORES - SHOPPES @ GRAND PRAIRE,,5203 W WAR MEMORIAL DR,,PEORIA,IL,61615,United States,,,,,,,
DILLARD'S - PEACHTREE MALL,,3247 MANCHESTER EXPRESSWAY,,COLUMBUS,GA,31909,United States,,,,,,,
MACY'S INC. - WIREGRASS COMMONS (FL),,28233 PASEO DRIVE,,WESLEY CHAPEL,FL,33543,United States,,,,,,,
DILLARD'S - GULF VIEW SQUARE,,9409 US HWY 19,,PORT RICHEY,FL,34668,United States,,,,,,,
AAFES HQ - LEONARDWOOD MAIN STORE,,143 REPLACEMENT AVE BLDG 487,,FORT LEONARD WOOD,MO,65473,United States,,,,,,,
AAFES HQ - EGLIN,,BLDG 1757 MEMORIAL LAKE TRAIL,,EGLIN AIR FORCE BASE,FL,32542,United States,,,,,,,
MACY'S INC. - CITRUS PARK,,7801 CITRUS PARK TOWNCENTER,,TAMPA,FL,33625,United States,,,,,,,
DILLARD'S - CITRUS PARK,,12950 SHELDONE ROAD,,TAMPA,FL,33625,United States,,,,,,,
DILLARD'S - BRANDON TOWN CENTER,,303 BRANDON TOWN CENTER MALL,,BRANDON,FL,33511,United States,,,,,,,
DILLARD'S - INTERNATIONAL MALL,,2223 NORTH WESTSHORE BOULEVARD,,TAMPA,FL,33607,United States,,,,,,,
MACY'S INC. - WEST SHORE PLAZA,,298 WESTSHORE PLAZA,,TAMPA,FL,33609,United States,,,,,,,
DILLARD'S - COUNTRYSIDE MALL,,27001 US HIGHWAY 19 N,,CLEARWATER,FL,33761,United States,,,,,,,
MACY'S INC. - WATER TOWER PLACE,,835 N MICHIGAN AVE,,CHICAGO,IL,60611,United States,,,,,,,
BLOOMINGDALE'S - NORTH MICHIGAN AVENUE,,900 NORTH MICHIGAN AVE,,CHICAGO,IL,60611,United States,,,,,,,
NORDSTROM - MICHIGAN AVE.,,444 NORTH WABASH AVENUE,,CHICAGO,IL,60611,United States,,,,,,,
MACY'S INC. - STATE STREET,,111 NORTH STATE STREET,,CHICAGO,IL,60602,United States,,,,,,,
DILLARD'S - HAMILTON PLACE (TN),,2100 HAMILTON PLACE,,CHATTANOOGA,TN,37421,United States,,,,,,,
BON-TON STORES - LINCOLNWOOD,,333 WEST TAUHY,,CHICAGO,IL,60645,United States,,,,,,,
BON-TON STORES - FORD CITY,,7601 S CICERO,,CHICAGO,IL,60652,United States,,,,,,,
MACY'S INC. - GWINNETT PLACE,,2100 PLEASANT HILL ROAD,,DULUTH,GA,30096,United States,,,,,,,
MACY'S INC. - OLD ORCHARD,,1 OLD ORCHARD SHOPPING CENTER,,SKOKIE,IL,60077,United States,,,,,,,
BON-TON STORES - CHICAGO RIDGE,,9800 S RIDGELAND AVE,,CHICAGO RIDGE,IL,60415,United States,,,,,,,
BELK - UNIVERSITY MALL (AL),,169 UNIVERSITY MALL,,TUSCALOOSA,AL,35404,United States,,,,,,,
DILLARD'S - WIREGRASS COMMONS (AL),,900 COMMONS DRIVE,,DOTHAN,AL,36303,United States,,,,,,,
DILLARD'S - GOVERNORS SQUARE MALL (FL),,1500 APALACHEE PKWY,,TALLAHASSEE,FL,32301,United States,,,,,,,
DILLARD'S - SEMINOLE,,300 TOWNE CENTER CIRCLE,,SANFORD,FL,32771,United States,,,,,,,
DILLARD'S - MARKET PLACE,,4414 SW COLLEGE RD SUITE #700,,OCALA,FL,34474,United States,,,,,,,
VON MAUR - LINDALE MALL #12,,4444 1ST AVENUE NE,,CEDAR RAPIDS,IA,52404,United States,,,,,,,
MACY'S INC. - ALTAMONTE,,451 ALTAMONTE AVE,,ALTAMONTE SPRINGS,FL,32701,United States,,,,,,,
AAFES HQ - PATRICK,,BLDG 1364 SOUTH PATRICK DR,,PATRICK AIR FORCE BASE,FL,32925,United States,,,,,,,
NAVY EXCHANGE (NEX) - MEMPHIS MAIN STORE,,BLDG S752 5722 INTEGRITY DR,,MILLINGTON,TN,38054,United States,,,,,,,
DILLARD'S - WOLFCHASE GALLERIA,,2700 NGERMANTOWN RD,,MEMPHIS,TN,38133,United States,,,,,,,
VON MAUR - SOUTHPARK (IL),,4700 16TH STREET,,MOLINE,IL,61265,United States,,,,,,,
VON MAUR - NORTHPARK (IA),,320 KIMBERLY ROAD,,DAVENPORT,IA,52806,United States,,,,,,,
MACY'S INC. - ST. LOUIS GALLERIA,,1150 ST LOUIS GALLERIA,,SAINT LOUIS,MO,63117,United States,,,,,,,
DILLARD'S - SAINT LOUIS GALLERIA,,1105 ST LOUIS GALLERIA,,SAINT LOUIS,MO,63117,United States,,,,,,,
MACY'S INC. - SOUTH COUNTY MO,,10 SOUTH COUNTY CENTERWAY,,SAINT LOUIS,MO,63129,United States,,,,,,,
DILLARD'S - THE SHOPPES AT EASTCHASE,,7310 EASTCHASE PARKWAY,,MONTGOMERY,AL,36117,United States,,,,,,,
DILLARD'S - WELLINGTON GREEN,,10304 FOREST HILLS BLVD,,WELLINGTON,FL,33414,United States,,,,,,,
DILLARD'S - VOLUSIA MALL,,1700 VOLUSIA AVE,,DAYTONA BEACH,FL,32114,United States,,,,,,,
MACY'S INC. - WEST COUNTY,,#2 WEST COUNTY CENTER,,SAINT LOUIS,MO,63131,United States,,,,,,,
MACY'S INC. - MID RIVERS,,#1 MID-RIVERS MALL,,SAINT PETERS,MO,63376,United States,,,,,,,
VON MAUR - CASTLETON SQUARE,,6020 EAST 82ND STREET,,INDIANAPOLIS,IN,46250,United States,,,,,,,
VON MAUR - OXMOOR,,7900 SHELBYVILLE ROAD,,LOUISVILLE,KY,40222,United States,,,,,,,
MACY'S INC. - OXMOOR CENTER,,7900 SHELBYVILLE ROAD,,LOUISVILLE,KY,40222,United States,,,,,,,
MACY'S INC. - UNIVERSITY PARK (IN),,6501 NORTH GRAPE ROAD,,MISHAWAKA,IN,46545,United States,,,,,,,
DILLARD'S - ST  MATTHEWS MALL,,SHELBYVILLE ROAD MALL,,LOUISVILLE,KY,40207,United States,,,,,,,
DILLARD'S - JEFFERSON MALL,,4801 OUTER LOOP,,LOUISVILLE,KY,40219,United States,,,,,,,
MACY'S INC. - GREENWOOD (IN),,1251 US 31 NORTH,,GREENWOOD,IN,46142,United States,,,,,,,
DILLARD'S - GREENTREE MALL,,757 HIGHWAY 131 @ GREENTREE BLVD,,CLARKSVILLE,IN,47129,United States,,,,,,,
VON MAUR - GREENWOOD (IN),,1251 US 31 NORTH,,GREENWOOD,IN,46142,United States,,,,,,,
MACY'S INC. - GRAND TRAVERSE,,3400 SOUTH AIRPORT ROAD W,,TRAVERSE CITY,MI,49684,United States,,,,,,,
BON-TON STORES - BAY SHORE,,5800 NORTH PORT WAHSINGTON RD,,MILWAUKEE,WI,53217,United States,,,,,,,
MACY'S INC. - LOUIS JOLIET,,3340 MALL LOOP DRIVE,,JOLIET,IL,60435,United States,,,,,,,
DILLARD'S - EASTLAND MALL (IN),,800 N GREEN RIVER ROAD,,EVANSVILLE,IN,47715,United States,,,,,,,
MACY'S INC. - EASTLAND MALL (IN),,800 N GREEN RIVER ROAD,,EVANSVILLE,IN,47715,United States,,,,,,,
MACY'S INC. - FOX VALLEY CENTER (IL),,1 FOX VALLEY CENTER,,AURORA,IL,60504,United States,,,,,,,
MACY'S INC. - MAYFAIR,,2500 N MAYFAIR ROAD,,MILWAUKEE,WI,53226,United States,,,,,,,
BON-TON STORES - MAYFAIR,,2400 N MAYFAIR RD,,MILWAUKEE,WI,53226,United States,,,,,,,
MACY'S INC. - SOUTHLAKE MALL (GA),,1500 SOUTHLAKE PKWY,,MORROW,GA,30260,United States,,,,,,,
VON MAUR - CHARLESTOWNE MALL,,3800 E MAIN STREET,,SAINT CHARLES,IL,60174,United States,,,,,,,
DILLARD'S - MALL AT STONES RIVER,,1720 OLD FORT PARKWAY,,MURFREESBORO,TN,37129,United States,,,,,,,
BON-TON STORES - RANDHURST,,999 ELMHURST RD,,MOUNT PROSPECT,IL,60056,United States,,,,,,,
MACY'S INC. - OAKBROOK CENTER,,1 OAKBROOK CENTER MALL,,HINSDALE,IL,60521,United States,,,,,,,
MACY'S INC. - HAWTHORN CENTER,,1 HAWTHORN CENTER,,VERNON HILLS,IL,60061,United States,,,,,,,
BON-TON STORES - YORKTOWN,,BUTTERFIELD RD & HIGHLAND AVE,,LOMBARD,IL,60148,United States,,,,,,,
VON MAUR - YORKTOWN SHOPPING CENTER #14,,230 YORKTOWN ROAD,,LOMBARD,IL,60148,United States,,,,,,,
BELK - PHIPPS PLAZA (GA),,3500 PEACHTREE ROAD NE,,ATLANTA,GA,30326,United States,,,,,,,
MACY'S INC. - LENOX SQUARE,,3393 PEACHTREE ROAD NE,,ATLANTA,GA,30326,United States,,,,,,,
MACY'S INC. - TOWN CENTER AT COBB,,400 ERNEST BARRETT PARKWAY,,KENNESAW,GA,30144,United States,,,,,,,
MACY'S INC. - WOODFIELD,,1 WOODFIELD DRIVE,,SCHAUMBURG,IL,60173,United States,,,,,,,
MACY'S INC. - CUMBERLAND,,1300 CUMBERLAND MALL,,ATLANTA,GA,30339,United States,,,,,,,
MACY'S INC. - NORTHPOINT (GA),,5000 NORTH POINT CIRCLE,,ALPHARETTA,GA,30022,United States,,,,,,,
DILLARD'S - NORTH POINT MALL,,7000 NORTHPOINT CIRCLE,,ALPHARETTA,GA,30022,United States,,,,,,,
VON MAUR - NORTH POINT MALL,,1000 NORTH POINT CIRCLE,,ALPHARETTA,GA,30022,United States,,,,,,,
BON-TON STORES - HARLEM-IRVING,,4200 N HARLEM,,CHICAGO,IL,60634,United States,,,,,,,
MACY'S INC. - ORLAND SQUARE,,1 ORLAND SQUARE,,ORLAND PARK,IL,60462,United States,,,,,,,
BON-TON STORES - ORLAND SQUARE,,4 ORLAND SQUARE,,ORLAND PARK,IL,60462,United States,,,,,,,
NAVY EXCHANGE (NEX) - GREAT LKS (BURKY) MA,,BLDG 3452-GREENBAY RD,,GREAT LAKES,IL,60088,United States,,,,,,,
DILLARD'S - PERIMETER MALL,,4500 ASHFORD DUNWOODY RD,,ATLANTA,GA,30346,United States,,,,,,,
MACY'S INC. - PERIMETER,,4300 ASHFORD-DUNWOODY ROAD,,ATLANTA,GA,30346,United States,,,,,,,
MACY'S INC. - STONECREST (GA),,8000 MALL PARKWAY,,LITHONIA,GA,30038,United States,,,,,,,
VON MAUR - POLARIS FASHION PLACE (OH),,1530 PLARIS PARKWAY,,COLUMBUS,OH,43240,United States,,,,,,,
MACY'S INC. - POLARIS FASHION PLACE (OH),,1300 POLARIS PKWY,,COLUMBUS,OH,43240,United States,,,,,,,
MACY'S INC. - TUTTLE CROSSING,,5033 TUTTLE CROSSING BLVD,,DUBLIN,OH,43017,United States,,,,,,,
AAFES HQ - FT EUSTIS,,1386 WASHINGTON BLVD,,FORT EUSTIS,VA,23604,United States,,,,,,,
LORD & TAYLOR - LAKESIDE,,LAKESIDE CIRCLE,,LAKESIDE,MI,49116,United States,,,,,,,
MACY'S INC. - LAKESIDE (MI),,14200 LAKESIDE CIR,,STERLING HEIGHTS,MI,48313,United States,,,,,,,
DILLARD'S - WESTFIELD INDEPENDENCE MALL,,3500 OLEANDER DRIVE,,WILMINGTON,NC,28403,United States,,,,,,,
MACY'S INC. - OAKLAND (MI),,500 W14 MILE RD,,TROY,MI,48083,United States,,,,,,,
MACY'S INC. - FAIRLANE TWN CTR,,19800 MICHIGAN AVE SUITE 1003,,DEARBORN,MI,48126,United States,,,,,,,
DILLARD'S - AUGUSTA MALL,,3450 WRIGHTSBORO RD,,AUGUSTA,GA,30909,United States,,,,,,,
MACY'S INC. - AUGUSTA (GA),,3450 WRIGHTSBORO ROAD,,AUGUSTA,GA,30909,United States,,,,,,,
AAFES HQ - FT. KNOX,,BLDG 127 GOLD VAULT ROAD,,FORT KNOX,KY,40121,United States,,,,,,,
AAFES HQ - FT. GORDON MS,,BLDG 38200 3RD AVE,,FORT GORDON,GA,30905,United States,,,,,,,
MACY'S INC. - TIPPECANOE,,2415 SAGAMORE PARKWAY,,LAFAYETTE,IN,47905,United States,,,,,,,
MACY'S INC. - SOUTHLAKE (MERRILVILLE),,2210 SOUTHLAKE MALL,,MERRILLVILLE,IN,46410,United States,,,,,,,
MACY'S INC. - SOUTHLAND (MI),,23000 EUREKA RD,,TAYLOR,MI,48180,United States,,,,,,,
MACY'S INC. - RIVER OAKS,,1 RIVER OAKS DRIVE,,CALUMET CITY,IL,60409,United States,,,,,,,
DILLARD'S - MALL OF GEORGIA,,3333 BUFORD DRIVE,,BUFORD,GA,30519,United States,,,,,,,
MACY'S INC. - MALL OF GEORGIA,,3333 BUFORD DRIVE,,BUFORD,GA,30519,United States,,,,,,,
DILLARD'S - GREENWOOD MALL,,2625 SCOTTSDALE RD,,BOWLING GREEN,KY,42101,United States,,,,,,,
MACY'S INC. - FAYETTE (KY),,3301 NICHOLASVILLE ROAD,,LEXINGTON,KY,40503,United States,,,,,,,
DILLARD'S - FAYETTE MALL,,3625 NICHOLASVILLE,,LEXINGTON,KY,40503,United States,,,,,,,
AAFES HQ - FT JACKSON SHOPPING CTR COMPLE,,BLDG 4110 MOSEBY STREET,,FORT JACKSON,SC,29207,United States,,,,,,,
DILLARD'S - COLUMBIANA CENTER (SC),,100 COLUMBIANA CIRCLE,,COLUMBIA,SC,29212,United States,,,,,,,
BELK - COLUMBIANA CENTRE,,100 COLUMBIANA CENTRE,,COLUMBIA,SC,29221,United States,,,,,,,
BELK - HAYWOOD MALL,,700 HAYWOOD RD SUITE 108,,GREENVILLE,SC,29607,United States,,,,,,,
MACY'S INC. - WOODLAND (MI),,8165 28TH ST SE,,GRAND RAPIDS,MI,49508,United States,,,,,,,
BELK - WEST TOWN MALL (TN),,7600 KINGSTON PIKE,,KINGSTON HILLS,TN,37919,United States,,,,,,,
DILLARD'S - WEST TOWN MALL (TN),,7600 KINGSTON PIKE,,KNOXVILLE,TN,37919,United States,,,,,,,
MACY'S INC. - CASTLETON SQUARE,,6020 E 82ND STREET,,INDIANAPOLIS,IN,46250,United States,,,,,,,
MACY'S INC. - GENESEE VALLEY CTR,,4600 MILLER RD,,FLINT,MI,48507,United States,,,,,,,
MACY'S INC. - DAYTON,,2700 MIAMISBURG CENTERVILLE RD,,CENTERVILLE,OH,45458,United States,,,,,,,
MACY'S INC. - FASHION SQ (SAGINAW),,4750 FASHION SQ MALL,,SAGINAW,MI,48603,United States,,,,,,,
MACY'S INC. - KENWOOD TOWNE CENTRE,,7875 MONTGOMERY ROAD,,CINCINNATI,OH,45236,United States,,,,,,,
MACY'S INC. - MERIDIAN (MI),,1982 EAST GRAND RIVER,,OKEMOS,MI,48864,United States,,,,,,,
DILLARD'S - CRESTVIEW HILLS MALL,,2900 TOWN CENTER BLVD,,CRESTVIEW HILLS,KY,41017,United States,,,,,,,
DILLARD'S - ASHEVILLE MALL,,3 SOUTH TUNNEL ROAD,,ASHEVILLE,NC,28805,United States,,,,,,,
MACY'S INC. - GLENBROOK SQUARE,,4201 COLDWATER ROAD,,FORT WAYNE,IN,46805,United States,,,,,,,
MACY'S INC. - COUNTRYSIDE,,27001 US 19 N,,CLEARWATER,FL,33761,United States,,,,,,,
VON MAUR - JEFFERSON POINTE,,4202 WJEFFERSON BLVD,,FORT WAYNE,IN,46804,United States,,,,,,,
BON-TON STORES - BROOKFIELD,,15875 WEST BLUEMOUND,,BROOKFIELD,WI,53005,United States,,,,,,,
MACY'S INC. - SPRING HILL,,1000 SPRING HILL,,WEST DUNDEE,IL,60118,United States,,,,,,,
DILLARD'S - RIVER CROSSING,,5080 RIVERSIDE DRIVE SUITE #800,,MACON,GA,31210,United States,,,,,,,
DILLARD'S - DOUGLASVILLE,,6720 DOUGLAS BLVD,,DOUGLASVILLE,GA,30135,United States,,,,,,,
DILLARD'S - THE MALL AT GREEN HILLS,,3855 GREEN HILLS VILLAGE DRIVE,,NASHVILLE,TN,37215,United States,,,,,,,
BON-TON STORES - NORTH RIVERSIDE,,7505 WEST CERMAK ROAD,,NORTH RIVERSIDE,IL,60546,United States,,,,,,,
DILLARD'S - COOLSPRINGS GALLERIA,,1796 GALLERIA BLVD,,FRANKLIN,TN,37064,United States,,,,,,,
DILLARD'S - GOVERNORS SQUARE MALL (TN),,2801 WILMA RUDOLF BLV