store_name,store_number,address,address2,city,state,zip_code,country,phone_number,latitude,longitude,store_hours,store_type,other_fields,coming_soon
Mexico City El Palacio de Hierro Perisur,670461,"Av. Periferico Sur #4690 
Colonia Jardines Del Pedregal Delegacion Coyoacan, 
C.p. Perisur",,Mexico City,,,Mexico,+52 5551718217,19.304314,-99.190117,Monday: 11:00 / 20:30Tuesday: 11:00 / 20:30Wednesday: 11:00 / 20:30Thursday: 11:00 / 20:30Friday: 11:00 / 20:30Saturday: 11:00 / 20:30Sunday: 11:00 / 20:30,,,
Kaohsiung Hanshin Arena Shopping Plaza,670462,"1 F, No.777, Bo'ai 2nd Road, Zuoying District",,Kaohsiung,,,Taiwan,+886 75505202,22.670314,120.302657,Monday: 11:00 / 22:00Tuesday: 11:00 / 22:00Wednesday: 11:00 / 22:00Thursday: 11:00 / 22:00Friday: 11:00 / 22:30Saturday: 11:00 / 22:30Sunday: 11:00 / 22:00,,,
Singapore Takashimaya,670463,"391A Orchard Road, 
Takashimaya Departmental Store Level 2, 
238873",,Singapore,,,Singapore,+65 67382380,1.02433,103.834752,Monday: 10:00 / 21:30Tuesday: 10:00 / 21:30Wednesday: 10:00 / 21:30Thursday: 10:00 / 21:30Friday: 10:00 / 21:30Saturday: 10:00 / 21:30Sunday: 10:00 / 21:30,,,
Singapore Ion Orchard,670464,"2 Orchard Turn, #01-04, 
ION Orchard 238801",,Singapore,,,Singapore,+65 62380020,1.303923,103.832299,Monday: 10:00 / 22:00Tuesday: 10:00 / 22:00Wednesday: 10:00 / 22:00Thursday: 10:00 / 22:00Friday: 10:00 / 22:00Saturday: 10:00 / 22:00Sunday: 10:00 / 22:00,,,
Barcelona Paseo de Gracia,670465,"Passeig de Gracia 98, 08008",,Barcelona,,,Spain,+34 934872811,41.395522,2.161223,Monday: 10:00 / 20:00 (Till 20:30 summer time)Tuesday: 10:00 / 20:00  (Till 20:30 summer time)Wednesday: 10:00 / 20:00 (Till 20:30 summer time)Thursday: 10:00 / 20:00 (Till 20:30 summer time)Friday: 10:00 / 20:00 (Till 20:30 summer time)Saturday: 10:00 / 20:00 (Till 20:30 summer time)Sunday: CLOSEDClosed on all Barcelona bank holidays.,,,
Madrid Ortega,670466,"Calle Ortega Y Gasset 13, 28006",,Madrid,,,Spain,+34 917812442,40.430594,-3.686162,Monday: 10:00 / 20:00Tuesday: 10:00 / 20:00Wednesday: 10:00 / 20:00Thursday: 10:00 / 20:00Friday: 10:00 / 20:00Saturday: 10:00 / 20:00Sunday: CLOSEDOpen on Sundays in December and first Sunday of January.,,,
Beijing Jin Bao Place,670467,"Shop 102, 1F, Number 88, Jinbao West Street, 
Dongcheng District",,Beijing,,,China,+86 1085221908,39.921424,116.428072,Monday: 10:00 / 22:00Tuesday: 10:00 / 22:00Wednesday: 10:00 / 22:00Thursday: 10:00 / 22:00Friday: 10:00 / 22:00Saturday: 10:00 / 22:00Sunday: 10:00 / 22:00No closing days.,,,
Atlanta Phipps Plaza,670468,"3500 Peachtree Road North East, 
1104A, 30326",,Atlanta,,,USA,+1 4044678705,33.852083,-84.361809,Monday: 10:00 / 20:00Tuesday: 10:00 / 20:00Wednesday: 10:00 / 20:00Thursday: 10:00 / 20:00Friday: 10:00 / 20:00Saturday: 10:00 / 20:00Sunday: 12:00 / 17:30,,,
Maison Beverly Hills,670469,"320 North Rodeo Drive, CA 90210",,Beverly Hills,,,USA,+1 3108586533,34.068475,-118.401728,Monday: 10:00 / 18:00Tuesday: 10:00 / 18:00Wednesday: 10:00 / 18:00Thursday: 10:00 / 18:00Friday: 10:00 / 18:00Saturday: 10:00 / 18:00Sunday: 12:00 / 18:00,,,
Las Vegas The Shops at Via Bellagio,670470,"3600 Las Vegas Blvd South, NV 89109",,Las Vegas,,,USA,+1 7023692944,36.113974,-115.174347,Monday: 10:00 / 00:00Tuesday: 10:00 / 00:00Wednesday: 10:00 / 00:00Thursday: 10:00 / 00:00Friday: 10:00 / 00:00Saturday: 10:00 / 00:00Sunday: 12:00 / 00:00,,,
Las Vegas The Shoppes at the Palazzo,670472,"3327 Las Vegas Blvd South #2944, NV 89109",,Las Vegas,,,USA,+1 7023690747,36.124383,-115.168488,Monday: 10:00 / 23:00Tuesday: 10:00 / 23:00Wednesday: 10:00 / 23:00Thursday: 10:00 / 23:00Friday: 10:00 / 00:00Saturday: 10:00 / 00:00Sunday: 10:00 / 00:00,,,
Las Vegas The Shops at Crystals,670473,"3720 Las Vegas Blvd South,  #123, NV 89158",,Las Vegas,,,USA,+1 7022204751,36.108324,-115.174316,Monday: 10:00 / 23:00Tuesday: 10:00 / 23:00Wednesday: 10:00 / 23:00Thursday: 10:00 / 23:00Friday: 10:00 / 00:00Saturday: 10:00 / 00:00Sunday: 10:00 / 23:00,,,
Palm Beach Worth Avenue,670474,"239 Worth Avenue, FL 33480",,Palm Beach,,,USA,+1 5618333701,26.701049,-80.037972,Monday: 10:00 / 17:30Tuesday: 10:00 / 17:30Wednesday: 10:00 / 17:30Thursday: 10:00 / 17:30Friday: 10:00 / 17:30Saturday: 10:00 / 17:30Sunday: CLOSED,,,
Bologna Galleria Cavour,670475,"Galleria Cavour 9/I, 40124",,Bologna,,,Italy,+39 051265621,44.491703,11.344264,"Monday: 10:00 / 19:30Tuesday: 10:00 / 19:30Wednesday: 10:00 / 19:30Thursday: 10:00 / 19:30Friday: 10:00 / 19:30Saturday: 10:00 / 19:30Sunday: 10,00/13,30 15,30/19,30Closed December 25th and 26th, January 1st, Easter and August 15/16th.",,,
Capri Camerelle Seasonal,670476,"Via Vittorio Emanuele 57,  80073",,Capri,,,Italy,+39 0818379613,40.5498833,14.244144900000038,"Monday: 10:00 / 20:00Tuesday: 10:00 / 20:00Wednesday: 10:00 / 20:00Thursday: 10:00 / 20:00Friday: 10:00 / 20:00Saturday: 10:00 / 20:00Sunday: 10:00 / 20:00Closed from November to April, closing time changes each month.",,,
Firenze Strozzi,670477,"Via degli Strozzi 6 N, 50123",,Florence,,,Italy,+39 055284735,43.771566,11.251796,"Monday: 10:00 / 19:00Tuesday: 10:00 / 19:00Wednesday: 10:00 / 19:00Thursday: 10:00 / 19:00Friday: 10:00 / 19:00Saturday: 10:00 / 19:00Sunday: 14:00 / 19:00Closed on January 1st, Easter, all Sundays of August and December 25/26th.",,,
Maison Milano Sant'Andrea,670478,"Via Sant'Andrea 15, 20121",,Milan,,,Italy,+39 0277878115,45.468961,9.196614,"Monday: 10:00 / 19.00Tuesday: 10:00 / 19.00Wednesday: 10:00 / 19.00Thursday: 10:00 / 19.00Friday: 10:00 / 19.00Saturday: 10:00 / 19.00Sunday: 11:00 / 19.00Closed December 25th and 26th, Easter and January 1st.",,,
Roma San Lorenzo in Lucina,670479,"Piazza di San Lorenzo in Lucina 9/13, 00186",,Rome,,,Italy,+39 0668210024,41.903631,12.478219,Monday: 10:00 / 20:00Tuesday: 10:00 / 20:00Wednesday: 10:00 / 20:00Thursday: 10:00 / 19:00Friday: 10:00 / 20:00Saturday: 10:00 / 20:00Sunday: 10:30 / 19:30Closed on December 25th and 26th and January 1st.,,,
Venezia San Marco,670480,"Salizada S. Moise, 1473 - S. Marco, 30124",,Venice,,,Italy,+39 0415228489,45.433297,12.336034,Monday: 10:00 / 19:00Tuesday: 10:00 / 19:00Wednesday: 10:00 / 19:00Thursday: 10:00 / 19:00Friday: 10:00 / 19:00Saturday: 10:00 / 19:00Sunday: 10:30 / 19:00Closed on December 25th and January 1st.,,,
Cannes Croisette,670481,"65 Boulevard de la Croisette, 06400",,Cannes,,,France,+33 492592780,43.548692,7.029120,"Monday: 10:30 / 19:00Tuesday: 10:30 / 19:00Wednesday: 10:30 / 19:00Thursday: 10:30 / 19:00Friday: 10:30 / 19:00Saturday: 10:30 / 19:00Sunday: CLOSEDOpen on Sundays July and August until 20:00. Closed on November 1st, December 25th, January 1st, May 1st.",,,
Paris Faubourg,670482,"14/16 Rue Du Faubourg Saint-honore, 75008",,Paris,,,France,+33 142655970,48.868962,2.322363,"Monday: 10:30 / 19:00Tuesday: 10:30 / 19:00Wednesday: 10:30 / 19:00Thursday: 10:30 / 19:00Friday: 10:30 / 19:00Saturday: 10:30 / 19:00Sunday: 10:30 / 19:00Closed on December 25th, January 1st, May 1st.",,,
Paris Galeries Lafayette Women's,670483,"Galeries Lafayette, 40 Boulevard Haussmann, 75009",,Paris,,,France,+33 142814699,48.873689,2.332155,"Monday: 09:30 / 20:00Tuesday: 09:30 / 20:00Wednesday: 09:30 / 20:00Thursday: 09:30 / 21:00Friday: 09:30 / 20:00Saturday: 09:30 / 20:00Sunday: CLOSEDClosed on December 25th, January 1st.",,,
Paris Printemps,670484,"64 Boulevard Haussmann, 75009",,Paris,,,France,+33 142827530,48.874134,2.327986,"Monday: 09:30 / 20:00Tuesday: 09:30 / 20:00Wednesday: 09:30 / 20:00Thursday: 09:30 / 20:45Friday: 09:30 / 20:00Saturday: 09:30 / 20:00Sunday: CLOSEDClosed on December 25th, January 1st, May 1st.",,,
Paris Montaigne,670485,"12 Avenue Montaigne, 75008",,Paris,,,France,+33 153578989,48.865864,2.304584,"Monday: 10:30 / 19:00Tuesday: 10:30 / 19:00Wednesday: 10:30 / 19:00Thursday: 10:30 / 19:00Friday: 10:30 / 19:00Saturday: 10:30 / 19:00Sunday: CLOSEDClosed on January 1st, Easter, May 1st, July 14th, August 15th, November 1st, December 25th.",,,
Berlin Kudamm,670486,"Kurfurstendamm 59-60, 10707",,Berlin,,,Germany,+49 3070550770,52.50102,13.313702,Monday: 10:00 / 19:00Tuesday: 10:00 / 19:00Wednesday: 10:00 / 19:00Thursday: 10:00 / 19:00Friday: 10:00 / 19:00Saturday: 10:00 / 18:00Sunday: CLOSEDClosed on all Berlin bank holidays.,,,
Hamburg Neuer Wall,670487,"Neuer Wall 63, 20354",,Hamburg,,,Germany,+49 40529 8250,53.550375,9.988267,"Monday: 10:00 / 19:00Tuesday: 10:00 / 19:00Wednesday: 10:00 / 19:00Thursday: 10:00 / 19:00Friday: 10:00 / 19:00Saturday: 10:00 / 18:00Sunday: CLOSEDClosed on all bank holidays in Hamburg. December 24th and December 31st open until 14:00, last Saturday in November and all Saturdays before Christmas open until 19:00.",,,
München Maximilianstraße,670488,"Maximilianstrae 11, 80539",,Munich,,,Germany,+49 89 23 23 27 33,48.139134,11.580723,Monday: 10:00 / 19:00Tuesday: 10:00 / 19:00Wednesday: 10:00 / 19:00Thursday: 10:00 / 19:00Friday: 10:00 / 19:00Saturday: 10:00 / 18:00Sunday: CLOSEDClosed on all bank holidays in Munich. On December 24th and 31st opening time can change.,,,
München Oberpollinger,670489,"Oberpollinger, Neuhauser Str. 18, ground floor, 80331",,Munich,,,Germany,+49 8921113385,48.139346,11.567669,Monday: 10:00 / 20:00Tuesday: 10:00 / 20:00Wednesday: 10:00 / 20:00Thursday: 10:00 / 20:00Friday: 10:00 / 20:00Saturday: 10:00 / 20:00Sunday: CLOSEDClosed on all bank holidays in Munich.,,,
Sylt Kampen Seasonal,670490,"Stronwai 3, 25999, Kampen",,Sylt,,,Germany,+49 046518363670,54.956029,8.339556,Monday: 10:00 / 19:00Tuesday: 10:00 / 19:00Wednesday: 10:00 / 19:00Thursday: 10:00 / 19:00Friday: 10:00 / 19:00Saturday: 11:00 / 19:00Sunday: 11:00 / 18:00,,,
Manila Greenbelt,670491,"Shop No. 150, Greenbelt 4 Building, 
Makarti Avenue Corner Esperanza Street, 
Makarti City 1200, Metro Manila",,Manila,,,Philippines,+63 27576293,14.552733,121.023000,Monday: 11:00 / 21:00Tuesday: 11:00 / 21:00Wednesday: 11:00 / 21:00Thursday: 11:00 / 21:00Friday: 11:00 / 21:00Saturday: 11:00 / 21:00Sunday: 11:00 / 21:00,,,
Sydney Westfield,670492,"Westfield Sydney, 
Shop 3029-3030, 188 Pitt Street, 
NSW 2000",,Sydney,,,Australia,+61 292390188,-33.870375,151.208832,Monday: 09:30 /19:00Tuesday:  09:30 /19:00Wednesday:  09:30 /19:00Thursday: 09:30 / 21:00Friday:  09:30 /19:00Saturday:  09:30 /19:00Sunday: 10:00 / 19:00,,,
Sydney The Star Casino,670493,"The Star Casino, 
Shop 17B, 80 Pyrmont Street,
NSW 2009",,Pyrmont,,,Australia,+61 296920881,-33.86779,151.19551,Monday: 11:00 / 22:00Tuesday: 11:00 / 22:00Wednesday: 11:00 / 22:00Thursday: 11:00 / 22:00Friday: 11:00 / 23:00Saturday: 11:00 / 23:00Sunday: 12:00 / 21:00,,,
Manama World Trade Center,670494,"Bahrain World Trade Center, West Tower, 2nd Floor",,Manama,,,Bahrain,+973 13320000,26.239719,50.581748,Monday: 10:00 / 22:00Tuesday: 10:00 / 22:00Wednesday: 10:00 / 22:00Thursday: 10:00 / 22:00Friday: 10:00 / 22:00Saturday: 10:00 / 22:00Sunday: 10:00 / 22:00,,,
Sao Paulo Iguatemi,670495,"Shopping Center Iguatemi, 
Avenida Brigadeiro Faria Lima 2, 
232 Ioja Q 07, 01489-900",,Sao Paulo,,,Brazil,+55 1159046670,-23.577268,-46.688312,Monday: 10:00 / 22:00Tuesday: 10:00 / 22:00Wednesday: 10:00 / 22:00Thursday: 10:00 / 22:00Friday: 10:00 / 22:00Saturday: 10:00 / 22:00Sunday: 14:00 / 20:00,,,
Sao Paulo JK Iguatemi,670496,"Shopping Center JK Iguatemi, 
Av Presidente Juscelino Kubitschek 2041, 
Piso Terreo, 04543-011",,Sao Paulo,,,Brazil,+55 1130475757,-23.591347,-46.68927,Monday: 10:00 / 22:00Tuesday: 10:00 / 22:00Wednesday: 10:00 / 22:00Thursday: 10:00 / 22:00Friday: 10:00 / 22:00Saturday: 10:00 / 22:00Sunday: 14:00 / 20:00,,,
Chengdu Maison Mode,670497,"Shop 103, Maison Mode, 
No 18 Renmin South Road Section 2, 
Jinjiang Distrct",,Chengdu,,,China,+86 2886200966,30.658084,104.071883,Monday: 10:00 / 22:00Tuesday: 10:00 / 22:00Wednesday: 10:00 / 22:00Thursday: 10:00 / 22:00Friday: 10:00 / 22:00Saturday: 10:00 / 22:00Sunday: 10:00 / 22:00No closing days.,,,
Hangzhou Mixc Mall,670498,"Shop 148, The MIXC Mall, 
701 Fuchun Road, Jianggan District",,Hangzhou,,,China,+86 57189705509,30.257457,120.221846,Monday: 10:00 / 21:30Tuesday: 10:00 / 21:30Wednesday: 10:00 / 21:30Thursday: 10:00 / 21:30Friday: 10:00 / 22:00Saturday: 10:00 / 22:00Sunday:10:00 / 22:00No closing days.,,,
Kunming Shuncheng Shopping Mall,670499,"Shop T-120, Shuncheng Shopping Mall, 
11 Dongfeng West Road, Wuhua District",,Kunming,,,China,+86 87163661388,25.042305,102.713968,Monday: 10:00 / 22:00Tuesday: 10:00 / 22:00Wednesday: 10:00 / 22:00Thursday: 10:00 / 22:00Friday: 10:00 / 22:30Saturday: 10:00 / 22:30Sunday: 10:00 / 22:00No closing days.,,,
Shanghai  IFC Mall,670500,"Shop No.1L-03, No.8 Century Avenue, 
Lu Jia Zui District, Pu Dong",,Shanghai,,,China,+86 2150120701,31.241924,121.509534,Monday: 10:00 / 22:00Tuesday: 10:00 / 22:00Wednesday: 10:00 / 22:00Thursday: 10:00 / 22:00Friday: 10:00 / 22:00Saturday: 10:00 / 22:00Sunday: 10:00 / 20:00No closing days.,,,
Shenyang L'avenue Shopping Center,670501,"Shop 110, L'Avenue Shopping Center, 
12 Huigong Street, Shenhe District",,Shenyang,,,China,+86 2422761557,41.814326,123.441562,Monday: 10:00 / 21:00Tuesday: 10:00 / 21:00Wednesday: 10:00 / 21:00Thursday: 10:00 / 21:00Friday: 10:00 / 21:00Saturday: 10:00 / 21:00Sunday: 10:00 / 21:00No closing days.,,,
Shenzhen Mixc Mall,670502,"Shop 143, The MIXC Mall Phase I, 
1881 Bao'an South Road, 
Luohu District",,Shenzhen,,,China,+86 75582668569,22.546038,114.11739,Monday: 10:00 / 22:00Tuesday: 10:00 / 22:00Wednesday: 10:00 / 22:00Thursday: 10:00 / 22:00Friday: 10:00 / 23:30Saturday: 10:00 / 23:30Sunday: 10:00 / 22:00No closing days.,,,
Taiyuan Wangfujing,670504,"Shop 1F Wangfujing Dept.Store, 
99 Qinxian North Street, 
Xiaodian District",,Taiyuan,,,China,+86 3517887188,37.830113,112.565536,Monday: 09:30 / 22:00Tuesday: 09:30 / 22:00Wednesday: 09:30 / 22:00Thursday: 09:30 / 22:00Friday: 09:30 / 22:00Saturday: 09:30 / 22:00Sunday: 09:30 / 22:00No closing days.,,,
Tianjin Hisense Plaza,670505,"Shop 122222, Hisense Plaza, 
188 Jiefang North Road, 
Heping District",,Tianjin,,,China,+86 2223198102,39.123506,117.224626,Monday: 10:00 / 21:30Tuesday: 10:00 / 21:30Wednesday: 10:00 / 21:30Thursday: 10:00 / 21:30Friday: 10:00 / 22:00Saturday: 10:00 / 22:00Sunday: 10:00 / 21:30No closing days.,,,
Wenzhou Fortune Shopping Mall,670506,"Shop 105, Fortune Shopping Mall, 
577 Chezhan Avenue, 
Lucheng District",,Wenzhou,,,China,+86 57788007578,28.004336,120.689281,Monday: 10:00 / 22:00Tuesday: 10:00 / 22:00Wednesday: 10:00 / 22:00Thursday: 10:00 / 22:00Friday: 10:00 / 22:00Saturday: 10:00 / 22:00Sunday: 10:00 / 22:00No closing days.,,,
Wuhan International Plaza Shopping Center,670507,"Shop A109, International Plaza Shopping Centre, 
690 Jiefang Avenue, Hanjiang District",,Wuhan,,,China,+86 2785517266,30.586492,114.277589,Monday: 09:30 / 21:45Tuesday:09:30 / 21:45Wednesday: 09:30 / 21:45Thursday:09:30 / 21:45Friday: 09:30 / 22:15Saturday: 09:00 / 22:15Sunday: 09:00 / 21:45No closing days.,,,
Wuxi Grand Orient,670508,"Shop 110, Grand Orient Department Store, 
343 Zhongshan Road, Chong'an District",,Wuxi,,,China,+86 51081189163,31.581748,120.306228,Monday: 09:30 / 21:30Tuesday: 09:30 / 21:30Wednesday: 09:30 / 21:30Thursday: 09:30 / 21:30Friday: 09:30 / 22:00Saturday: 09:00 / 22:00Sunday: 09:00 / 21:30No closing days.,,,
Xiamen Paragon Center,670509,"Shop F105, Paragon Center, 
197 Jiahe Road, Siming District",,Xiamen,,,China,+86 5925150368,24.488738,118.127503,Monday: 10:00 / 22:00Tuesday:10:00 / 22:00Wednesday: 10:00 / 22:00Thursday: 10:00 / 22:00Friday: 10:00 / 22:00Saturday: 10:00 / 22:00Sunday: 10:00 / 22:00No closing days.,,,
Praha Parizska,670510,"Parizska 119/ 14, Stare Mesto, 110 00",,Prague,,,Czech Republic,+420 222310054,50.089248,14.419705,Monday: 10:00 / 19:00Tuesday: 10:00 / 19:00Wednesday: 10:00 / 19:00Thursday: 10:00 / 19:00Friday: 10:00 / 19:00Saturday: 11:00 / 18:00Sunday: 11:00 / 18:00,,,
Copenhagen Østergade,670511,"Ny stergade 1, 1101",,Copenhagen,,,Denmark,+45 33366887,55.680076,12.583122,Monday: 10:00 / 18:00Tuesday: 10:00 / 18:00Wednesday: 10:00 / 18:00Thursday: 10:00 / 18:00Friday: 10:00 / 18:00Saturday: 10:00 / 17:00Sunday: CLOSED,,,
Dubai Mall of the Emirates,670512,"Mall of the Emirates, Fashion Dome, 
First Floor, Al Barsha 1",,Dubai,,,United Arab Emirates,+971 43951201,25.116874,55.200137,Monday: 10:00 / 22:00Tuesday: 10:00 / 22:00Wednesday: 10:00 / 22:00Thursday: 10:00 / 00:00Friday: 10:00 / 00:00Saturday: 10:00 / 00:00Sunday: 10:00 / 22:00The opening is always 10:00 while the closing can change each month. Extended  to midnight/ 1am during the weekends.,,,
Dubai Mall,670513,"Dubai Mall Fashion Avenue, Ground Floor, 
Financial Centre Road, Downtown Dubai,",,Dubai,,,United Arab Emirates,+971 43253981,25.1976419,55.278710000000046,Monday: 10:00 / 23:00Tuesday: 10:00 / 23:00Wednesday: 10:00 / 23:00Thursday: 10:00 / 00:00Friday: 10:00 / 00:00Saturday: 10:00 / 00:00Sunday: 10:00 / 23:00The opening is always 10:00 while the closing can change each month. Extended  to midnight/ 1am during the weekends.,,,
St Tropez Sibilli  Seasonal,670514,"72 Rue Francois Sibilli, 83990",,St. Tropez,,,France,+33 494827314,43.270547184673056,6.640342868717198,From January to March: 10:00 / 13:00 -14:00 / 18:00closed on Sunday and on Monday.April and October: 10:00 / 13:00 -15:00 / 19:00no closing days.May and September: 10:00 / 20:00no closing days.June: 10:00 / 21:00no closing days.July -August: 10:00 / 22:00no closing days.Closed from 30th October 2017 to 16th December 2017.,,,
London Harrods,670515,"Harrods, 87-135 Brompton Road, 
Knightsbridge, SW1X 7XL",,London,,,United Kingdom,+ 44 2077301234,51.499483,-0.163405,Monday: 10:00 / 21:00Tuesday: 10:00 / 21:00Wednesday: 10:00 / 21:00Thursday: 10:00 / 21:00Friday: 10:00 / 21:00Saturday: 10:00 / 21:00Sunday: 11:30 / 18:00Closed on December25th and Easter.,,,
London Harvey Nichols Women's,670516,"Harvey Nichols & Company Limited, 
109-125 Knightsbridge, SW1X7RJ",,London,,,United Kingdom,+ 44 2072018601,51.501821,-0.159688,Monday: 10:00 / 20:00Tuesday: 10:00 / 20:00Wednesday: 10:00 / 20:00Thursday: 10:00 / 20:00Friday: 10:00 / 20:00Saturday: 10:00 / 20:00Sunday: 11:30 / 18:00Closed on December25th and Easter.,,,
London Sloane,670517,"33 Sloane Street, SW1X9NR",,London,,,United Kingdom,+44 2078389394,51.499267,-0.159886,"Monday: 10:00 / 18:00Tuesday: 10:00 / 18:00Wednesday: 10:00 / 19:00Thursday: 10:00 / 18:00Friday: 10:00 / 18:00Saturday: 10:00 / 18:00Sunday: 12:00 / 18:00Closed on Christmas Day and New Year Day. For the month of December, open until 19.00 (apart from Sundays 12-18:00).During summer, open until 19.00.",,,
Athens Kifissia,670518,"14 Kolokotroni St. Kifissia, 145 62",,Athens,,,Greece,+30 2108085182,38.072534,23.816055,Monday: 10:00 / 20:00Tuesday: 10:00 / 20:00Wednesday: 10:00 / 20:00Thursday: 10:00 / 20:00Friday: 10:00 / 20:00Saturday: 10:00 / 20:00Sunday: 10:00 / 20:00,,,
Hong Kong Landmark,670519,"The Landmark, Shop 6-7, G/F, 
15 Queen's Road Central",,Hong Kong,,,Hong Kong,+852 29730882,22.281019,114.158208,Monday: 10:00 / 19:30Tuesday: 10:00 / 19:30Wednesday: 10:00 / 19:30Thursday: 10:00 / 19:30Friday: 10:00 / 19:30Saturday: 10:00 / 19:30Sunday: 11:00 / 19:30Closed on 1st day of Chinese News Year.,,,
Hong Kong Harbour City,670520,"Shop G318A, Gateway Arcade, 
Harbour City, Tsim Sha Tsui",,Hong Kong,,,Hong Kong,+852 27396865,22.296977,114.168123,Monday: 10:00 / 21:00Tuesday: 10:00 / 21:00Wednesday: 10:00 / 21:00Thursday: 10:00 / 22:00Friday: 10:00 / 22:00Saturday: 10:00 / 22:00Sunday: 10:00 / 21:00Closed on 1st day of Chinese News Year.,,,
Hong Kong International Airport,670521,"Departure East Hall, 6E168 & 6E172, 
Hong Kong International Airport",,Hong Kong,,,Hong Kong,+852 22610771,22.308275,113.918542,Monday: 07:00 / 23:00Tuesday:  07:00 / 23:00Wednesday:  07:00 / 23:00Thursday:  07:00 / 23:00Friday:  07:00 / 23:00Saturday:  07:00 / 23:00Sunday:  07:00 / 23:00No closing days.,,,
Hong Kong Elements,670522,"Elements, Shop 2060A-2061A, 
Kowloon Station, 1 Austin Road West,",,Hong Kong,,,Hong Kong,+852 21968787,22.30418,114.16081,Monday: 10:00 / 21:00Tuesday: 10:00 / 21:00Wednesday: 10:00 / 21:00Thursday:  10:00 / 21:00Friday: 10:00 / 21:00Saturday: 10:00 / 21:00Sunday: 10:00 / 21:00Closed on 1st day of Chinese News Year.,,,
Hong Kong Pacific Place,670523,"Shop 370, Pacific Place, 
88 Queensway Admiralty",,Hong Kong,,,Hong Kong,+852 29181792,22.277359,114.165568,Monday: 10:00 / 19:30Tuesday: 10:00 / 19:30Wednesday: 10:00 / 19:30Thursday:  10:00 / 19:30Friday: 10:00 / 19:30Saturday: 10:00 / 19:30Sunday: 11:00 / 19:30Closed on 1st day of Chinese News Year.,,,
Hong Kong Times Square,670524,"Shop 205-208, 
Times Square, 
1 Matheson Street, Causeway Bay",,Hong Kong,,,Hong Kong,+852 25063106,22.278342,114.182171,Monday: 10:00 / 22:00Tuesday: 10:00 / 22:00Wednesday: 10:00 / 22:00Thursday:  10:00 / 22:00Friday: 10:00 / 22:00Saturday: 10:00 / 22:00Sunday: 10:00 / 22:00Closed on 1st day of Chinese News Year.,,,
Bangalore The collection Ub City,670525,"The Collection Ub City, 
24 Vittal Mallya Road",,Bangalore,,,India,+91 8041738931,12.971396,77.596424,Monday: 09:00 / 21:00Tuesday: 09:00 / 21:00Wednesday: 09:00 / 21:00Thursday: 09:00 / 21:00Friday: 09:00 / 22:00Saturday: 09:00 / 22:00Sunday: 09:00 / 21:00,,,
Mumbai The Galleria Trident Hotel,670526,"The Galleria, Trident Hotel, 
Shop No.2, 400021",,Mumbai,,,India,+91 2230277090,18.927780,72.821013,Monday: 11:00 / 20:00Tuesday: 11:00 / 20:00Wednesday: 11:00 / 20:00Thursday: 11:00 / 20:00Friday: 11:00 / 20:00Saturday: 11:00 / 20:00Sunday: 12:00 / 20:00,,,
New Delhi Emporio Mall,670527,"DLF Emporio, 111A, 
Nelson Mandela Marg, 110070",,New Delhi,,,India,+91 1146098262,28.543146,77.156424,Monday: 11:00 / 21:00Tuesday: 11:00 / 21:00Wednesday: 11:00 / 21:00Thursday: 11:00 / 21:00Friday: 11:00 / 21:00Saturday: 11:00 / 21:00Sunday: 12:00 / 21:00,,,
Jakarta Senayan City,670528,"Senayan City Mall, 
Senayan City Lantai LG, Jl. Asia Afika Lot. 19, 
Gelora, Tanah Abang, Kota Jakarta Pusat, 
Daerah Khusus Ibukota, 10270",,Jakarta,,,Indonesia,+62 2172781738,-6.227449,106.797378,Monday: 10:00 / 22:00Tuesday: 10:00 / 22:00Wednesday: 10:00 / 22:00Thursday: 10:00 / 22:00Friday: 10:00 / 22:00Saturday: 10:00 / 22:00Sunday: 10:00 / 22:00,,,
Okayama Tenmaya,670529,"1F, 2-1-1, Omotecho, Kita-ku, Okayama-shi",,Okayama,,,Japan,+81 862355080,34.662088,133.928934,Monday: 10:00 / 19:30Tuesday: 10:00 / 19:30Wednesday: 10:00 / 19:30Thursday: 10:00 / 19:30Friday: 10:00 / 19:30Saturday: 10:00 / 19:30Sunday: 10:00 / 19:30,,,
Sapporo Daimaru,670530,"1F, 4-7, Kitagojonishi, Chuo-ku, Sapporo-shi",,Sapporo,,,Japan,+81 112005650,43.067901,141.349380,Monday: 10:00 / 20:00Tuesday: 10:00 / 20:00Wednesday: 10:00 / 20:00Thursday: 10:00 / 20:00Friday: 10:00 / 20:00Saturday: 10:00 / 20:00Sunday: 10:00 / 20:00,,,
Sapporo Marui Imai,670531,"1F, 2-11, Minamiichijonishi, Chuo-ku, Sapporo-shi",,Sapporo,,,Japan,+81 112002038,43.060288,141.354941,Monday: 10:00 / 19:30Tuesday: 10:00 / 19:30Wednesday: 10:00 / 19:30Thursday: 10:00 / 19:30Friday: 10:00 / 19:30Saturday: 10:00 / 19:30Sunday: 10:00 / 19:30,,,
Kobe,670532,"Block30, 29, Harima-cho, 
Chuo-ku, Kobe Daimaru",,Kobe,,,Japan,+81 783347266,34.687673,135.191504,Monday: 11:00 / 20:00Tuesday: 11:00 / 20:00Wednesday: 11:00 / 20:00Thursday: 11:00 / 20:00Friday: 11:00 / 20:00Saturday: 11:00 / 20:00Sunday: 11:00 / 20:00,,,
Kyoto Daimaru,670533,"2F, 79, Tate uri Nishi-Machi, Takakura Nishi Hairu, 
Shijodouri, Shimogyo-ku, Kyoto-shi",,Kyoto,,,Japan,+81 752547202,35.004520,135.761997,Monday: 10:00 / 20:00Tuesday: 10:00 / 20:00Wednesday: 10:00 / 20:00Thursday: 10:00 / 20:00Friday: 10:00 / 20:00Saturday: 10:00 / 20:00Sunday: 10:00 / 20:00,,,
Wailea The Shops at Wailea,670534,"3750 Wailea Alanui Dr., 
Space # 3EW, HI 96753",,Wailea,,,USA,+1 8088917300,20.686906,-156.440289,Monday: 09:30 / 21:00Tuesday: 09:30 / 21:00Wednesday: 09:30 / 21:00Thursday: 09:30 / 21:00Friday: 09:30 / 21:00Saturday: 09:30 / 21:00Sunday: 09:30 / 21:00,,,
Guam The Plaza,670535,"1225 Pale San Vitores Road, 
Tamuning, Tumon",,Guam,,,Guam,+671 6475520,13.515148,144.806226,Monday: 10:00 / 22:00Tuesday: 10:00 / 22:00Wednesday: 10:00 / 22:00Thursday: 10:00 / 22:00Friday: 10:00 / 22:00Saturday: 10:00 / 22:00Sunday: 10:00 / 22:00,,,
Guam Tumon Sands Plaza,670536,"1082 Pale San Vitores Road, 
Tamuning, Tumon",,Guam,,,Guam,+671 6495575,13.510033,144.805777,Monday: 10:00 / 22:00Tuesday: 10:00 / 22:00Wednesday: 10:00 / 22:00Thursday: 10:00 / 22:00Friday: 10:00 / 22:00Saturday: 10:00 / 22:00Sunday: 10:00 / 22:00,,,
Scottsdale Fashion Square,670537,"7014 East Camelback Road #1140, 
AZ 85251",,Scottsdale,,,USA,+1 4809470153,33.50397,-111.931291,Monday: 10:00 / 21:00Tuesday: 10:00 / 21:00Wednesday:10:00 / 21:00Thursday: 10:00 / 21:00Friday: 10:00 / 21:00Saturday: 11:00 / 18:00Sunday: 11:00 / 18:00,,,
San Francisco Geary Street,670538,"124 Geary Street, CA 94108",,San Francisco,,,USA,+1 4159811700,37.787839,-122.40558,Monday: 10:00 / 19:00Tuesday: 10:00 / 19:00Wednesday:10:00 / 19:00Thursday: 10:00 / 19:00Friday: 10:00 / 19:00Saturday: 10:00 / 19:00Sunday: 12:00 / 18:00,,,
Palm Desert The Shops at El Paseo,670539,"73-061 El Paseo, Ste. 3, CA 92260",,Palm Desert,,,USA,+1 7608360459,33.7194249,-116.39015489999997,Monday: 10:00 / 18:00Tuesday: 10:00 / 18:00Wednesday: 10:00 / 18:00Thursday: 10:00 / 18:00Friday: 10:00 / 18:00Saturday: 10:00 / 18:00Sunday: 11:00 / 17:00,,,
New York Madison Avenue,670540,"650 Madison Avenue, NY 10022",,New York,,,USA,+1 2123715511,40.764008,-73.971643,Monday: 10:00 / 19:00Tuesday: 10:00 / 19:00Wednesday: 10:00 / 19:00Thursday: 10:00 / 19:00Friday: 10:00 / 19:00Saturday: 10:00 / 19:00Sunday: 10:00 / 19:00,,,
Natick Collection,670541,"1245 Worcester Street Space, # 3038, 
MA  01760",,Natick,,,USA,+1 5086529707,42.303513,-71.383311,Monday: 10:00 / 20:00Tuesday: 10:00 / 20:00Wednesday: 10:00 / 20:00Thursday: 10:00 / 20:00Friday: 10:00 / 20:00Saturday: 10:00 / 20:00Sunday: 12:00 / 18:00,,,
Mc Lean Tyson's Galleria,670542,"1748M International Dr., Space # 2502, 
VA 22102",,McLean,,,USA,+1 7034423138,38.924216,-77.22473,Monday: 10:00 / 19:00Tuesday: 10:00 / 19:00Wednesday: 10:00 / 19:00Thursday: 10:00 / 19:00Friday: 10:00 / 19:00Saturday: 10:00 / 19:00Sunday: 12:00 / 18:00,,,
Manhasset Americana Manhasset,670543,"2112/2114 Northern Blvd., 
NY 11020",,Manhasset,,,USA,+1 5166277580,40.796496,-73.669977,Monday: 10:00 / 18:00Tuesday: 10:00 / 18:00Wednesday: 10:00 / 18:00Thursday: 10:00 / 18:00Friday: 10:00 / 18:00Saturday: 10:00 / 18:00Sunday: 11:00 / 18:00,,,
Houston The Galleria,670544,"5015 Westheimer Rd.,  #A2110, 
TX 77056",,Houston,,,USA,+1 7136215296,29.739408,-95.461814,Monday: 10:00 / 21:00Tuesday: 10:00 / 21:00Wednesday: 10:00 / 21:00Thursday: 10:00 / 21:00Friday: 10:00 / 21:00Saturday: 10:00 / 21:00Sunday: 12:00 / 19:00,,,
Honolulu The Ala Moana Center,670545,"1450 Ala Moana Blvd., 
Space # 2208, HI 96814",,Honolulu,,,USA,+1 8089460100,21.291151,-157.843118,Monday: 09:30 / 21:00Tuesday: 09:30 / 21:00Wednesday: 09:30 / 21:00Thursday: 09:30 / 21:00Friday: 09:30 / 21:00Saturday: 09:30 / 21:00Sunday: 10:00 / 19:00,,,
Honolulu 2100 Kalakaua,670546,"2122 Kalakaua Avenue,  HI 96815",,Honolulu,,,USA,+1 8089230800,21.281739,-157.830427,Monday: 10:00 / 22:30Tuesday: 10:00 / 22:30Wednesday: 10:00 / 22:30Thursday: 10:00 / 22:30Friday: 10:00 / 22:30Saturday: 10:00 / 22:30Sunday: 10:00 / 22:30,,,
Dallas NorthPark Center,670547,"8687 North Central Expressway Suite 520, 
TX 75225",,Dallas,,,USA,+1 2142650136,32.868538,-96.773511,Monday: 10:00 / 18:00Tuesday: 10:00 / 18:00Wednesday: 10:00 / 18:00Thursday: 10:00 / 18:00Friday: 10:00 / 18:00Saturday: 10:00 / 18:00Sunday: 12:00 / 18:00,,,
Chicago Michigan,670548,"800 North Michigan Avenue,  IL 60611",,Chicago,,,USA,+1 3126643220,41.897048,-87.625165,Monday: 10:00 / 18:00Tuesday: 10:00 / 18:00Wednesday: 10:00 / 18:00Thursday: 10:00 / 18:00Friday: 10:00 / 18:00Saturday: 10:00 / 18:00Sunday: 12:00 / 17:00,,,
Carmel Plaza,670549,"#203A, 
Ocean & Mission, 
CA 93923",,Carmel,,,USA,+1 8316220518,36.554906,-121.920697,Monday: 10:00 / 18:00Tuesday: 10:00 / 18:00Wednesday: 10:00 / 18:00Thursday: 10:00 / 18:00Friday: 10:00 / 18:00Saturday: 10:00 / 18:00Sunday: 11:00 / 17:00,,,
Bal Harbour Shops,670550,"9700 Collins Avenue, Space # 142,  
FL 33154",,Bal Harbour,,,USA,+1 3058646247,25.888638,-80.124935,Monday: 10:00 / 21:00Tuesday: 10:00 / 21:00Wednesday: 10:00 / 21:00Thursday: 10:00 / 21:00Friday: 10:00 / 21:00Saturday: 10:00 / 21:00Sunday: 12:00 / 18:00,,,
Kaohsiung Star Place,670551,"1F, No.57, Wufu 3th Road, Qianjin District",,Kaohsiung,,,Taiwan,+886 72150188,22.621876,120.298281,Monday: 11:00 / 22:00Tuesday: 11:00 / 22:00Wednesday: 11:00 / 22:00Thursday: 11:00 / 22:00Friday: 11:00 / 22:30Saturday: 10:30 / 22:30Sunday: 10:30 / 22:00,,,
Taichung SKM,670552,"No.301, Sec. 3, Taiwan Blvd., Xitun District",,Taichung,,,Taiwan,+886 422512208,24.165326,120.643698,Monday: 11:00 / 22:00Tuesday: 11:00 / 22:00Wednesday: 11:00 / 22:00Thursday: 11:00 / 22:00Friday: 11:00 / 22:00Saturday: 10:30 / 22:30Sunday: 10:30 / 22:00,,,
Tainan SKM,670553,"SKM Department Store, 
No.658-G, Sec. 1, Ximen Rd., 
West Central District",,Tainan,,,Taiwan,+886 63030618,22.986751,120.199245,Monday: 11:00 / 22:00Tuesday: 11:00 / 22:00Wednesday: 11:00 / 22:00Thursday: 11:00 / 22:00Friday: 11:00 / 22:00Saturday: 11:00 / 22:00Sunday: 11:00 / 22:00,,,
Taipei SKM,670554,"1F, No. 9, Shong Shou Road, Xinyi District",,Taipei,,,Taiwan,+886 227239498,25.036378,121.566575,Monday: 11:00 / 21:30Tuesday: 11:00 / 21:30Wednesday: 11:00 / 21:30Thursday: 11:00 / 21:30Friday: 11:00 / 22:00Saturday: 11:00 / 22:00Sunday: 11:00 / 21:30,,,
Taipei Breeze Men's,670555,"GF, No.39, Sec. 1, Fuxing S. Rd., Songshan District",,Taipei,,,Taiwan,+886 287728268,25.046053,121.544161,Monday: 11:00 / 21:30Tuesday: 11:00 / 21:30Wednesday: 11:00 / 21:30Thursday: 11:00 / 22:00Friday: 11:00 / 22:00Saturday: 11:00 / 22:00Sunday: 11:00 / 21:30,,,
Taipei Regent Galleria,670556,"B1, No.3, Ln. 39, Sec. 2, Jhongshan N. Rd., Jhongshan District",,Taipei,,,Taiwan,+886 225115235,25.054294,121.524251,Monday: 10:00 / 21:00Tuesday: 10:00 / 21:00Wednesday: 10:00 / 21:00Thursday: 10:00 / 21:00Friday: 10:00 / 21:00Saturday: 10:00 / 21:00Sunday: 10:00 / 21:00,,,
Taipei Ever Rich New Downtown Gallery (New),670557,"No. 129, Jinzhuang Road, Neihu District",,Taipei,,,Taiwan,+886 225028899,25.064492,121.588092,Monday: 08:00 / 21:00Tuesday: 08:00 / 21:00Wednesday: 08:00 / 21:00Thursday: 08:00 / 21:00Friday: 08:00 / 21:00Saturday: 08:00 / 21:00Sunday: 08:00 / 21:00,,,
Taipei Taoyuan Airport Terminal 1 (North),670558,"Taoyuan International Airport, Terminal 1 North, 
No. 9, Hangzhan S. Rd, Dayuan Township, 
Taoyuan County 33758",,Taipei,,,Taiwan,+886 33983255,25.080939,121.236927,Monday: 06:00 / 23:00Tuesday: 06:00 / 23:00Wednesday: 06:00 / 23:00Thursday: 06:00 / 23:00Friday: 06:00 / 23:00Saturday: 06:00 / 23:00Sunday: 06:00 / 23:00,,,
Taipei Taoyuan Airport Terminal 1 (South),670559,"Taoyuan International Airport, Terminal 1 South, 
No. 9, Hangzhan S. Rd, Dayuan Township, 
Taoyuan County 33758",,Taipei,,,Taiwan,+886 33983266,25.079700,121.234185,Monday: 06:00 / 23:00Tuesday: 06:00 / 23:00Wednesday: 06:00 / 23:00Thursday: 06:00 / 23:00Friday: 06:00 / 23:00Saturday: 06:00 / 23:00Sunday: 06:00 / 23:00,,,
Taipei Taoyuan Airport Terminal 2 (North),670560,"Taoyuan International Airport, Terminal 2 North Wing, 
Shop No. 3003D, No. 9, Hangzhan S. Rd, Dayuan Township, 
Taoyuan County 33758",,Taipei,,,Taiwan,+886 33833133,25.078627,121.231916,Monday: 06:00 / 23:00Tuesday: 06:00 / 23:00Wednesday: 06:00 / 23:00Thursday: 06:00 / 23:00Friday: 06:00 / 23:00Saturday: 06:00 / 23:00Sunday: 06:00 / 23:00,,,
Taipei Taoyuan Airport Terminal 2 (South),670561,"Taoyuan International Airport, Terminal 2 South, 
No. 9, Hangzhan S. Rd, Dayuan Township, 
Taoyuan County 33758",,Taipei,,,Taiwan,+886 33983497,25.077416,121.232108,Monday: 06:00 / 23:00Tuesday: 06:00 / 23:00Wednesday: 06:00 / 23:00Thursday: 06:00 / 23:00Friday: 06:00 / 23:00Saturday: 06:00 / 23:00Sunday: 06:00 / 23:00,,,
Istanbul Istinye Park,670562,Istinye Park Avm No. 463,,Istanbul,,,Turkey,+90 2123356790,41.110214,29.031219,Monday: 10:00 / 22:00Tuesday: 10:00 / 22:00Wednesday: 10:00 / 22:00Thursday: 10:00 / 22:00Friday: 10:00 / 22:00Saturday: 10:00 / 22:00Sunday: 10:00 / 22:00,,,
Zürich Bahnhofstrasse,670563,"Bahnhofstrasse 25, 8001",,Zurich,,,Switzerland,+41 433448636,47.370452,8.538799,Monday: 09:30 / 18:30Tuesday: 09:30 / 18:30Wednesday: 09:30 / 18:30Thursday: 09:30 / 18:30Friday: 09:30 / 18:30Saturday: 10:00 / 17:00Sunday: CLOSEDClosed on all Zurich bank holidays.,,,
St. Moritz Serlas Seasonal,670564,"Via Serlas 22, Serletta Building, 7500",,St. Moritz,,,Switzerland,+41 818372914,46.497698,9.840561,"Monday: 09:30 / 19:00Tuesday: 09:30 / 19:00Wednesday: 09:30 / 19:00Thursday: 09:30 / 19:00Friday: 09:30 / 19:00Saturday: 09:30 / 19:00Sunday: 11:00 / 19:00In summer, until October 15th, closed from 12.30 to 13.30.",,,
Geneva Rue du Rhone,670565,"55 Rue Du Rhone, 1204",,Geneva,,,Switzerland,+ 41 223192720,46.203218,6.15295,Monday: 09:30 / 18:30Tuesday: 09:30 / 18:30Wednesday: 09:30 / 18:30Thursday: 09:30 / 18:30Friday: 09:30 / 18:30Saturday: 09:30 / 17:00Sunday: CLOSEDClosed on all bank holidays.,,,
Stockholm Birger Jarlsgatan,670566,"Birger Jarlsgatan 10, 114 34",,Stockholm,,,Sweden,+46 86116688,59.334293,18.074800,Monday: 10:00 / 18:00Tuesday: 10:00 / 18:00Wednesday: 10:00 / 18:00Thursday: 10:00 / 18:00Friday: 10:00 / 18:00Saturday: 11:00 / 17:00Sunday: CLOSED,,,
Puerto Banus Muelle de Ribera,670567,"Muelle De Ribera, Casa F, Local 20,
 29660, Marbella, Malaga",,Puerto Banus,,,Spain,+34 952929293,36.48642,-4.953775,"Monday: 11:00 / 19:00Tuesday: 11:00 / 19:00Wednesday: 11:00 / 19:00Thursday: 11:00 / 19:00Friday: 11:00 / 19:00Saturday: 11:00 / 19:00Sunday: closedSundays closed from November until April. In the same period closing time is 20.00, except November and February (closing at 19.00). In May closing at 21.00, in June at 22.00, in July and August closing at midnight.Closed on December 25th, January 1st and 6th.",,,
Singapore Airport Terminal 1,670568,"The Fashion Gallery, Changi Airport Terminal 1, 
#02-12, Departure/Transit Lounge Central, Singapore",,Singapore,,,Singapore,+65 931751,1.361238,103.990197,Monday: 06:00 / 00:30Tuesday: 06:00 / 00:30Wednesday: 06:00 / 00:30Thursday: 06:00 / 00:30Friday: 06:00 / 00:30Saturday: 06:00 / 00:30Sunday: 06:00 / 00:30,,,
Singapore Airport Terminal 3,670569,"Level 2, Departure Lounge (Near A Gates) 
Singapore Changi Airport 819663",,Singapore,,,Singapore,+65 425658,1.356277,103.98735,Monday: 06:00 / 01:00Tuesday: 06:00 / 01:00Wednesday: 06:00 / 01:00Thursday: 06:00 / 01:00Friday: 06:00 / 01:00Saturday: 06:00 / 01:00Sunday: 06:00 / 01:00,,,
Jeddah Khayat Center,670570,Khayat Center - Tahliah Street,,Jeddah,,,Saudi Arabia,+966 22832377,21.551039,39.155124,Monday: 10:00 / 22:00Tuesday: 10:00 / 22:00Wednesday: 10:00 / 22:00Thursday: 10:00 / 22:00Friday: 10:00 / 22:00Saturday: 10:00 / 22:00Sunday: 10:00 / 22:00,,,
Riyadh Centria Mall,670571,"Centria Mall, Olaya Street",,Riyadh,,,Saudi Arabia,+966 112885545,24.697166,46.683752,Monday: 08:00 / 22:30Tuesday: 08:00 / 22:30Wednesday: 08:00 / 22:30Thursday: 08:00 / 22:30Friday: 08:00 / 22:30Saturday: 08:00 / 22:30Sunday: 08:00 / 22:30,,,
Moscow Kutuzovskiy Prospekt,670572,"31 Kutuzovskiy Avenue, 121165",,Moscow,,,Russia,+7 4959333035,55.742766,37.543292,Monday: 11:00 / 22:00Tuesday: 11:00 / 22:00Wednesday: 11:00 / 22:00Thursday: 11:00 / 22:00Friday: 11:00 / 23:00Saturday: 11:00 / 23:00Sunday: 11:00 / 23:00,,,
Moscow Barvikha,670573,"Barvikha Luxury Village, 114, Building 2",,Moscow,,,Russia,+7 4952258862,55.760825,37.619734,Monday: 11:00 / 22:00Tuesday: 11:00 / 22:00Wednesday: 11:00 / 22:00Thursday: 11:00 / 22:00Friday: 11:00 / 23:00Saturday: 11:00 / 23:00Sunday: 11:00 / 23:00,,,
Moscow Tretjakovskiy Proezd,670574,"Tretjakovskiy Proezd, 3",,Moscow,,,Russia,+7 4959335930,55.758407,37.623437,Monday: 10:00 / 20:00Tuesday: 10:00 / 20:00Wednesday: 10:00 / 20:00Thursday: 10:00 / 20:00Friday: 10:00 / 20:00Saturday: 10:00 / 20:00Sunday: 10:00 / 20:00,,,
Doha Villaggio Mall,670575,"Villaggio Shopping Mall, Al Aziziyah",,Doha,,,Qatar,+974 44507354,25.260674,51.442206,Monday: 09:00 / 22:00Tuesday: 09:00 / 22:00Wednesday: 09:00 / 22:00Thursday: 09:00 / 23:00Friday: 09:00 / 23:00Saturday: 09:00 / 23:00Sunday: 09:00 / 22:00,,,
Warsaw Vitkac Dept. Store,670576,"Vitkac Department Store, Bracka 9, 00-501",,Warsaw,,,Poland,+48 223107315,52.230565,21.018864,Monday: 11:00 / 21:00Tuesday: 11:00 / 21:00Wednesday: 11:00 / 21:00Thursday: 11:00 / 21:00Friday: 11:00 / 21:00Saturday: 11:00 / 21:00Sunday: 11:00 / 18:00,,,
Mexico City El Palacio de Hierro Santa Fe,670577,"Avenida Vasco De Quiroga, 
#3800 Colonia Vista Hermosa Del. Cuajimalpa, 
D.f. Santa Fe",,Mexico City,,,Mexico,+52 5521674219,19.36108,-99.275724,Monday: 11:00 / 21:00Tuesday: 11:00 / 21:00Wednesday: 11:00 / 21:00Thursday: 11:00 / 21:00Friday: 11:00 / 21:00Saturday: 11:00 / 21:00Sunday: 11:00 / 21:00,,,
Kuala Lumpur Pavilion,670578,"Lot 2.30.00 Level 2, 
Pavilion Kuala Lumpur, 
168 Jalan Bintang, 55100",,Kuala Lumpur,,,Malaysia,+603 21437880,3.148444,101.714628,Monday: 10:00 / 22:00Tuesday: 10:00 / 22:00Wednesday: 10:00 / 22:00Thursday: 10:00 / 22:00Friday: 10:00 / 22:00Saturday: 10:00 / 22:00Sunday: 10:00 / 22:00,,,
Macau The Shoppes at Four Seasons,670579,"Shop 2842 & 2845, 
The Shoppes at Four Seasons",,Macau,,,Macau,+853 28818221,22.146638,113.562696,Monday: 10:00 / 22:30Tuesday:10:00 / 22:30Wednesday:10:00 / 22:30Thursday: 10:00 / 22:30Friday: 10:00 / 22:30Saturday: 10:00 / 22:30Sunday: 10:00 / 22:30No closing days.,,,
Macau Sands Cotai Central,670580,"Shop 1018, Sands Cotai Central, 
Taipa, Sands Cotai Central",,Macau,,,Macau,+853 28852911,22.145768,113.565094,Monday: 10:00 / 23:00Tuesday: 10:00 / 23:00Wednesday: 10:00 / 23:00Thursday: 10:00 / 23:00Friday: 10:00 / 00:00Saturday: 10:00 / 00:00Sunday: 10:00 / 23:00No closing days.,,,
Beirut Souks,670581,"Allenby Street, Beirut Souks",,Beirut,,,Lebanon,+961 1991111,33.898659,35.504739,Monday: 10:00 / 22:00Tuesday: 10:00 / 22:00Wednesday: 10:00 / 22:00Thursday: 10:00 / 22:00Friday: 10:00 / 22:00Saturday: 10:00 / 22:00Sunday: 10:00 / 22:00,,,
Kuwait Al Hamra Luxury Center,670582,"Al Hamra Luxury Center, Shuhada Street",,Kuwait City,,,Kuwait,+965 22270260,29.379060,47.993336,Monday: 10:00 / 22:00Tuesday: 10:00 / 22:00Wednesday: 10:00 / 22:00Thursday: 10:00 / 00:00Friday: 10:00 / 00:00Saturday: 10:00 / 22:00Sunday: 10:00 / 22:00,,,
Kuwait 360 Mall Women's,670583,"360 Mall Al Zahra Area 6, Ring Road",,Kuwait City,,,Kuwait,+965 2530 9666,29.268102,47.992932,Monday: 10:00 / 22:00Tuesday: 10:00 / 22:00Wednesday: 10:00 / 22:00Thursday: 10:00 / 22:00Friday: 10:00 / 22:00Saturday: 10:00 / 22:00Sunday: 10:00 / 22:00,,,
Busan Shinsegae Centum City,670584,"Shinsegae Department store Centum City 1F, 
35 Centumnam-daero, U-dong, Haeundae",,Busan,,,Korea (South),+82 517452273,35.168918,129.129736,"Monday: 10:30 / 20:00Tuesday: 10:30 / 20:00Wednesday: 10:30 / 20:00Thursday: 10:30 / 20:00Friday: 10:30 / 20:00Saturday: 10:30 / 20:00Sunday: 10:30 / 20:00Closed on: January 1st, Chinese New Year (variable), Korean Thanks giving day (variable) and Monthly Closing day (variable).",,,
Seoul Galleria Luxury Hall East,670585,"Galleria Luxury Hall East 2F, 
515 Apgujeong-dong, Gangnam-gu",,Seoul,,,Korea (South),+82 25152717,37.528111,127.041608,"Monday: 10:30 / 20:00Tuesday: 10:30 / 20:00Wednesday: 10:30 / 20:00Thursday: 10:30 / 20:00Friday: 10:30 / 20:00Saturday: 10:30 / 20:00Sunday: 10:30 / 20:00Closed on: January 1st, Chinese New Year (variable), Korean Thanks giving day (variable) and Monthly Closing day (variable).",,,
Seoul Hyundai Main,670586,"Hyundai Main Department Store 2F, 
429 Apgujeong-dong, Gangnam-gu",,Seoul,,,Korea (South),+82 234386100,37.527567,127.027366,"Monday: 10:30 / 20:00Tuesday: 10:30 / 20:00Wednesday: 10:30 / 20:00Thursday: 10:30 / 20:00Friday: 10:30 / 20:00Saturday: 10:30 / 20:00Sunday: 10:30 / 20:00Closed on: January 1st, Chinese New Year (variable), Korean Thanks giving day (variable) and Monthly Closing day (variable).",,,
Seoul Shinsegae Main,670587,"Shinsegae Main Department Store 1F, 
52-5 Chungmooro 1ga, Jung-Gu",,Seoul,,,Korea (South),+82 23101762,37.561111,126.981065,"Monday: 10:30 / 20:00Tuesday: 10:30 / 20:00Wednesday: 10:30 / 20:00Thursday: 10:30 / 20:00Friday: 10:30 / 20:00Saturday: 10:30 / 20:00Sunday: 10:30 / 20:00Closed on: January 1st, Chinese New Year (variable), Korean Thanks giving day (variable) and Monthly Closing day (variable).",,,
Seoul Shinsegae Gangnam,670588,"Shinsegae Gangnam Department Store 2F, 
176 Sinbanpo-ro, Banpo 4(sa)-dong, Seocho-gu",,Seoul,,,Korea (South),+82 25347088,37.505283,127.004177,"Monday: 10:30 / 20:00Tuesday: 10:30 / 20:00Wednesday: 10:30 / 20:00Thursday: 10:30 / 20:00Friday: 10:30 / 20:00Saturday: 10:30 / 20:00Sunday: 10:30 / 20:00Closed on: January 1st, Chinese New Year (variable), Korean Thanks giving day (variable) and Monthly Closing day (variable).",,,
Seoul Shinsegae Youngdeungpo,670589,"Shinsegae Yeongdeungpo Department Store 1F, 434-5, 
Yeongdeungpodong 4(sa)-ga, Yeongdeungpo-gu",,Seoul,,,Korea (South),+82 226391907,37.517381,126.905585,"Monday: 10:30 / 20:00Tuesday: 10:30 / 20:00Wednesday: 10:30 / 20:00Thursday: 10:30 / 20:00Friday: 10:30 / 20:00Saturday: 10:30 / 20:00Sunday: 10:30 / 20:00Closed on: January 1st, Chinese New Year (variable), Korean Thanks giving day (variable) and Monthly Closing day (variable).",,,
JR Kyoto Isetan,670590,"1F, Higashishiokojimachi, Shiokojikudaru, 
Karasumadouri, Shimogyo-ku, Kyoto-shi",,Kyoto,,,Japan,+81 753535857,34.987925,135.757898,Monday: 10:00 / 20:00Tuesday: 10:00 / 20:00Wednesday: 10:00 / 20:00Thursday: 10:00 / 20:00Friday: 10:00 / 20:00Saturday: 10:00 / 20:00Sunday: 10:00 / 20:00,,,
Kyoto Takashimaya,670591,"2F, 52, Shinmachi, Kawaramachinishiiru, 
Shijodouri, Shimogyo-ku, Kyoto-shi",,Kyoto,,,Japan,+81 752535468,35.003502,135.768366,Monday: 10:00 / 20:00Tuesday: 10:00 / 20:00Wednesday: 10:00 / 20:00Thursday: 10:00 / 20:00Friday: 10:00 / 20:00Saturday: 10:00 / 20:00Sunday: 10:00 / 20:00,,,
Abeno Kintetsu,670592,"Tower 1F, 1-1-43, Abenosuji, 
Abeno-ku, Osaka-shi",,Osaka,,,Japan,+81 666270112,34.645949,135.513634,Monday: 10:00 / 20:30Tuesday: 10:00 / 20:30Wednesday: 10:00 / 20:30Thursday: 10:00 / 20:30Friday: 10:00 / 20:30Saturday: 10:00 / 20:30Sunday: 10:00 / 20:30,,,
Shinsaibashi Daimaru,670593,"North Building 1F,1-7-1, 
Shinsaibashisuji, Chuo-ku, Osaka-shi",,Osaka,,,Japan,+81 661219770,34.674135,135.500902,Monday: 10:00 / 20:30Tuesday: 10:00 / 20:30Wednesday: 10:00 / 20:30Thursday: 10:00 / 20:30Friday: 10:00 / 20:30Saturday: 10:00 / 20:30Sunday: 10:00 / 20:30,,,
Osaka Takashimaya,670594,"South Zone 2F, 5-1-5, Nanba,
Chuo-ku, Osaka-shi",,Osaka,,,Japan,+81 666317521,34.664889,135.500981,Monday: 10:00 / 20:00Tuesday: 10:00 / 20:00Wednesday: 10:00 / 20:00Thursday: 10:00 / 20:00Friday: 10:00 / 20:00Saturday: 10:00 / 20:00Sunday: 10:00 / 20:00,,,
Umeda Hankyu,670595,"International Boutique 2F, 8-7, Kakudacho, 
Kita-ku, Osaka-shi",,Osaka,,,Japan,+81 663137355,34.702976,135.498590,Monday: 10:00 / 20:00Tuesday: 10:00 / 20:00Wednesday: 10:00 / 20:00Thursday: 10:00 / 20:00Friday: 10:00 / 21:00Saturday: 10:00 / 21:00Sunday: 10:00 / 20:00,,,
Umeda Hankyu Men's,670596,"HEP NAVIO 2F, 7-10, Kakudacho, 
Kita-ku, Osaka-shi",,Osaka,,,Japan,+81 661308507,34.703638,135.500128,Monday: 11:00 / 20:00Tuesday: 11:00 / 20:00Wednesday: 11:00 / 21:00Thursday: 11:00 / 21:00Friday: 11:00 / 21:00Saturday: 10:00 / 21:00Sunday: 10:00 / 20:00,,,
Umeda Daimaru,670597,"3F, 3-1-1, Umeda, Kita-ku, Osaka-shi",,Osaka,,,Japan,+81 664536781,34.701992,135.496372,Monday: 10:00 / 20:30Tuesday: 10:00 / 20:30Wednesday: 10:00 / 20:30Thursday: 10:00 / 20:30Friday: 10:00 / 21:00Saturday: 10:00 / 21:00Sunday: 10:00 / 20:30,,,
Ginza Mitsukoshi,670598,"4F, 4-6-16 Ginza,Chuou-ku",,Ginza,,,Japan,+81 335610770,35.671549,139.765719,Monday: 10:30 / 20:00Tuesday: 10:30 / 20:00Wednesday: 10:30 / 20:00Thursday: 10:30 / 20:00Friday: 10:30 / 20:00Saturday: 10:30 / 20:00Sunday: 10:30 / 20:00,,,
Ginza Mitsukoshi Leather Goods,670599,"1F, 4-6-16 Ginza,Chuou-ku",,Ginza,,,Japan,+81 335621111,35.671549,139.765719,Monday: 10:30 / 20:00Tuesday: 10:30 / 20:00Wednesday: 10:30 / 20:00Thursday: 10:30 / 20:00Friday: 10:30 / 20:00Saturday: 10:30 / 20:00Sunday: 10:30 / 20:00,,,
Ginza Mitsukoshi Men's,670600,"6F, 4-6-16 Ginza,Chuou-ku",,Ginza,,,Japan,+81 335610780,35.671549,139.765719,Monday: 10:30 / 20:00Tuesday: 10:30 / 20:00Wednesday: 10:30 / 20:00Thursday: 10:30 / 20:00Friday: 10:30 / 20:00Saturday: 10:30 / 20:00Sunday: 10:30 / 20:00,,,
Ikebukuro Seibu,670601,"6F, 1-28-1, Minamiikebukuro, Toshima-ku",,Ikebukuro,,,Japan,+81 359492862,35.728769,139.711661,Monday: 10:00 / 21:00Tuesday: 10:00 / 21:00Wednesday: 10:00 / 21:00Thursday: 10:00 / 21:00Friday: 10:00 / 21:00Saturday: 10:00 / 21:00Sunday: 10:00 / 20:00,,,
Ikebukuro Tobu,670602,"1F, 1-1-25, Nishiikebukuro, Toshima-ku",,Ikebukuro,,,Japan,+81 339816576,35.729920,139.710231,Monday: 10:00 / 21:00Tuesday: 10:00 / 21:00Wednesday: 10:00 / 21:00Thursday: 10:00 / 21:00Friday: 10:00 / 21:00Saturday: 10:00 / 21:00Sunday: 10:00 / 20:00,,,
Nihonbashi Mitsukoshi,670603,"3F, 1-4-1, Nihonbashi Muromachi, Chuo-ku",,Nihonbashi,,,Japan,+81 332815328,35.685835,139.773405,Monday: 10:30 / 19:30Tuesday: 10:30 / 19:30Wednesday: 10:30 / 19:30Thursday: 10:30 / 19:30Friday: 10:30 / 19:30Saturday: 10:30 / 19:30Sunday: 10:30 / 19:30,,,
Nihonbashi Takashimaya,670604,"2F, 2-4-1, Nihonbashi, Chuo-ku",,Nihonbashi,,,Japan,+81 332469768,35.680963,139.773501,Monday: 10:30 / 19:30Tuesday: 10:30 / 19:30Wednesday: 10:30 / 19:30Thursday: 10:30 / 19:30Friday: 10:30 / 19:30Saturday: 10:30 / 19:30Sunday: 10:30 / 19:30,,,
Omotesando,670605,"West Building 1F, 4-12-10, Jingumae, Shibuya-ku",,Omotesando,,,Japan,+81 357850511,35.667579,139.707982,Monday: 11:00 / 21:00Tuesday: 11:00 / 21:00Wednesday: 11:00 / 21:00Thursday: 11:00 / 21:00Friday: 11:00 / 21:00Saturday: 11:00 / 21:00Sunday: 11:00 / 20:00,,,
Urawa Isetan,670606,"4F, 1-15-1, Takasago, Urawa-ku, Saitama-shi",,Urawa,,,Japan,+81 488143465,35.859306,139.656212,Monday: 10:30 / 19:30Tuesday: 10:30 / 19:30Wednesday: 10:30 / 19:30Thursday: 10:30 / 19:30Friday: 10:30 / 19:30Saturday: 10:30 / 19:30Sunday: 10:30 / 19:30,,,
Shibuya Tokyu,670607,"1F, 2-24-1, Dougenzaka, Shibuya-ku",,Shibuya,,,Japan,+81 334773474,35.660847,139.696007,Monday: 10:00 / 21:00Tuesday: 10:00 / 21:00Wednesday: 10:00 / 21:00Thursday: 10:00 / 21:00Friday: 10:00 / 21:00Saturday: 10:00 / 21:00Sunday: 10:00 / 21:00,,,
Shinjuku Isetan,670608,"4F, 3-14-1, Shinjuku, Shinjuku-ku",,Shinjuku,,,Japan,+81 333565230,35.691893,139.704588,Monday: 10:30 / 20:00Tuesday: 10:30 / 20:00Wednesday: 10:30 / 20:00Thursday: 10:30 / 20:00Friday: 10:30 / 20:00Saturday: 10:30 / 20:00Sunday: 10:30 / 20:00,,,
Shinjuku Isetan Men's,670609,"Men's 3F, 3-14-1, Shinjuku, Shinjuku-ku",,Shinjuku,,,Japan,+81 359193150,35.692424,139.704696,Monday: 10:30 / 20:00Tuesday: 10:30 / 20:00Wednesday: 10:30 / 20:00Thursday: 10:30 / 20:00Friday: 10:30 / 20:00Saturday: 10:30 / 20:00Sunday: 10:30 / 20:00,,,
Shinjuku Isetan Leather Goods,670610,"1F, 3-14-1, Shinjuku, Shinjuku-ku",,Shinjuku,,,Japan,+81 333521111,35.691893,139.704588,Monday: 10:30 / 20:00Tuesday: 10:30 / 20:00Wednesday: 10:30 / 20:00Thursday: 10:30 / 20:00Friday: 10:30 / 20:00Saturday: 10:30 / 20:00Sunday: 10:30 / 20:00,,,
Shinjuku Odakyu,670611,"1F, 1-1-3, Nishishinjuku, Shinjuku-ku",,Shinjuku,,,Japan,+81 353217252,35.691442,139.699541,Monday: 10:00 / 20:30Tuesday:  10:00 / 20:30Wednesday:  10:00 / 20:30Thursday:  10:00 / 20:30Friday:  10:00 / 20:30Saturday:  10:00 / 20:30Sunday: 10:00 / 20:00,,,
Tokyo Hankyu Men's Leather Goods,670612,"1F, 2-5-1, Yurakucho, Chiyoda-ku",,Tokyo,,,Japan,+81 362525302,35.673405,139.762466,Monday: 12:00 / 20:00Tuesday:  12:00 / 20:00Wednesday:  12:00 / 21:00Thursday:  12:00 / 21:00Friday:  12:00 / 21:00Saturday:  11:00 / 21:00Sunday: 11:00 / 20:00,,,
Yokohama Sogo,670613,"B1, 2-18-1, Takashima, Nishi-ku, Yokohama-shi",,Yokohama,,,Japan,+81 454505687,35.465431,139.625021,Monday: 10:00 / 20:00Tuesday: 10:00 / 20:00Wednesday: 10:00 / 20:00Thursday: 10:00 / 20:00Friday: 10:00 / 20:00Saturday: 10:00 / 20:00Sunday: 10:00 / 20:00,,,
Yokohama Takashimaya,670614,"2F, 1-6-31, Minamisaiwai, Nishi-ku, Yokohama-shi",,Yokohama,,,Japan,+81 453206918,35.466074,139.620542,Monday: 10:00 / 20:00Tuesday: 10:00 / 20:00Wednesday: 10:00 / 20:00Thursday: 10:00 / 20:00Friday: 10:00 / 20:00Saturday: 10:00 / 20:00Sunday: 10:00 / 20:00,,,
Hakata Daimaru,670615,"South Building 2F, 1-4-1 Tenjin, Chuo-ku, 028-6101",,Fukuoka,,,Japan,+81 927627352,33.588960,130.401083,Monday: 10:00 / 20:00Tuesday: 10:00 / 20:00Wednesday: 10:00 / 20:00Thursday: 10:00 / 20:00Friday: 10:00 / 20:00Saturday: 10:00 / 20:00Sunday: 10:00 / 20:00,,,
Kokura Izutsuya,670616,"New Building 1F, 1-1 Senbamachi, 
Kokurakita-ku, Kitakyushu-shi",,Kytakyusyu,,,Japan,+81 935121390,33.884744,130.878068,Monday: 10:00 / 19:00Tuesday: 10:00 / 19:00Wednesday: 10:00 / 19:00Thursday: 10:00 / 19:00Friday: 10:00 / 20:00Saturday: 10:00 / 20:00Sunday: 10:00 / 19:00,,,
Takamatsu Mitsukoshi,670617,"South Building 1F, 1-1, 
Marugamemachi, Takamatsu-shi",,Takamatsu,,,Japan,+81 878213101,34.345877,134.050177,Monday: 10:00 / 19:30Tuesday: 10:00 / 19:30Wednesday: 10:00 / 19:30Thursday: 10:00 / 19:30Friday: 10:00 / 19:30Saturday: 10:00 / 19:30Sunday: 10:00 / 19:30,,,
Niigata Isetan,670618,"BP Walk 1F,1-6-1, Yachiyo, Chuo-ku, Niigata-shi",,Niigata,,,Japan,+81 252433866,37.915772,139.054845,Monday: 10:30 / 19:30Tuesday: 10:30 / 19:30Wednesday: 10:30 / 19:30Thursday: 10:30 / 19:30Friday: 10:30 / 19:30Saturday: 10:30 / 19:30Sunday: 10:30 / 19:30,,,
Sendai Fujisaki,670619,"1F, 3-2-17, Ichibancho, Aoba-ku, Sendai-shi",,Sendai,,,Japan,+81 222152263,38.260408,140.872281,Monday: 10:00 / 19:30Tuesday: 10:00 / 19:30Wednesday: 10:00 / 19:30Thursday: 10:00 / 19:30Friday: 10:00 / 19:30Saturday: 10:00 / 19:30Sunday: 10:00 / 19:30,,,
JR Nagoya Takashimaya,670620,"3F, 1-1-4, Meieki, Nakamura-ku, Nagoya-shi,",,Nagoya,,,Japan,+81 525668157,35.171068,136.884196,Monday: 10:00 / 20:00Tuesday: 10:00 / 20:00Wednesday: 10:00 / 20:00Thursday: 10:00 / 20:00Friday: 10:00 / 20:00Saturday: 10:00 / 20:00Sunday: 10:00 / 20:00,,,
Nagoya Matsuzakaya,670621,"Main Building 2F, 3-16-1, 
Sakae, Naka-ku, Nagoya-shi",,Nagoya,,,Japan,+81 522642046,35.165253,136.907594,Monday: 10:00 / 20:00Tuesday: 10:00 / 20:00Wednesday: 10:00 / 20:00Thursday: 10:00 / 20:00Friday: 10:00 / 20:00Saturday: 10:00 / 20:00Sunday: 10:00 / 20:00,,,
Nagoya Mitsukoshi,670622,"2F, 3-5-1, Sakae, Naka-ku, Nagoya-shi",,Nagoya,,,Japan,+81 52380519,35.168332,136.907692,Monday: 10:00 / 19:30Tuesday: 10:00 / 19:30Wednesday: 10:00 / 19:30Thursday: 10:00 / 19:30Friday: 10:00 / 19:30Saturday: 10:00 / 19:30Sunday: 10:00 / 19:30,,,
Fukuoka Iwataya,670623,"New Building 3F, 2-5-35 Tenjin, 
Chuou-ku, Fukuoka-shi",,Fukuoka,,,Japan,+81 927251586,33.588871,"130,397301",Monday: 10:00 / 20:00Tuesday: 10:00 / 20:00Wednesday: 10:00 / 20:00Thursday: 10:00 / 20:00Friday: 10:00 / 20:00Saturday: 10:00 / 20:00Sunday: 10:00 / 20:00,,,
Tokyo Daimaru,670624,"2F,1-9-1, Marunouchi, Chiyoda-ku",,Tokyo,,,Japan,+81 332187550,35.681509,139.768918,Monday: 10:00 / 20:00Tuesday: 10:00 / 20:00Wednesday: 10:00 / 20:00Thursday: 10:00 / 21:00Friday: 10:00 / 21:00Saturday: 10:00 / 20:00Sunday: 10:00 / 20:00,,,
Umeda Hankyu Women's Wear,670625,"International Boutique 5F,8-7, Kakudacho, 
Kita-ku, Osaka-shi",,Osaka,,,Japan,+81 663675568,34.702976,135.498590,Monday: 10:00 / 20:00Tuesday: 10:00 / 20:00Wednesday: 10:00 / 20:00Thursday: 10:00 / 20:00Friday: 10:00 / 21:00Saturday: 10:00 / 21:00Sunday: 10:00 / 20:00,,,
Hiroshima,670626,"Motomachi Cred Pacela 1F, 6-78, 
Motomachi, Naka-ku, Hiroshima-shi,",,Hiroshima,,,Japan,+81 825023371,34.397609,132.456967,Monday: 10:00 / 20:00Tuesday: 10:00 / 20:00Wednesday:10:00 / 20:00Thursday: 10:00 / 20:00Friday: 10:00 / 20:00Saturday: 10:00 / 20:00Sunday: 10:00 / 20:00,,,
Paris Le Bon Marché,670627,"Le Bon Marche, 24 Rue de Sevres, 75007",,Paris,,,France,+33 145449026,48.851060,2.324437,"Monday: 10:00 / 20:00Tuesday: 10:00 / 20:00Wednesday: 10:00 / 20:00Thursday: 10:00 / 21:00Friday: 10:00 / 21:00Saturday: 10:00 / 20:00Sunday: CLOSEDClosed on december 25th, January 1st, May 1st.Open all Sundays on November and December.",,,
Madrid El Corte Ingles,670628,"Centro Commercial de Castellana, 
Calle Raimundo Fernandez, 
Villaverde 79, 28003",,Madrid,,,Spain,+34 917706550,40.427764,-3.687123,"Monday: 10:00 / 22:00Tuesday: 10:00 / 22:00Wednesday: 10:00 / 22:00Thursday: 10:00 / 22:00Friday: 10:00 / 22:00Saturday: 10:00 / 22:00Sunday: 11:00 / 21:00From last week of November until the second week of January Sundays opening hours:  10.00 - 22.00.Closed on December 25th, January 1st, January 6th, May 1st.",,,
Shanghai Grand Gateway,670629,"Shop 101A, Grand Gateway 66, 
1 Hongqiao Road, Xuhui District",,Shanghai,,,China,+86 2164471378,31.200621,121.444027,Monday: 10:00 / 22:00Tuesday: 10:00 / 22:00Wednesday: 10:00 / 22:00Thursday: 10:00 / 22:00Friday: 10:00 / 22:00Saturday: 10:00 / 22:00Sunday: 10:00 / 20:00No closing days.,,,
Shenyang Forum 66,670630,"Shop 112212, Forum 66, 
1 Qingnian Avenue, Shenhe District",,Shenyang,,,China,+86 2422962639,41.807128,123.439813,Monday: 10:00 / 22:00Tuesday: 10:00 / 22:00Wednesday: 10:00 / 22:00Thursday: 10:00 / 22:00Friday: 10:00 / 22:00Saturday: 10:00 / 22:00Sunday: 10:00 / 22:00No closing days.,,,
Qingdao Hisense Plaza,670631,"Shop 119, Hisense Plaza, 
50 Donghai West Road, Shinan District",,Qingdao,,,China,+86 53266788115,36.066194,120.40212,Monday: 10:00 / 21:30Tuesday: 10:00 / 21:30Wednesday: 10:00 / 21:30Thursday: 10:00 / 21:30Friday: 10:00 / 21:30Saturday: 10:00 / 21:30Sunday: 10:00 / 21:30No closing days.,,,
Dalian Time Square,670632,"Shop L121, Times Square, 
50 Renmin Road, Zhongshan District",,Dalian,,,China,+86 41139892036,38.930457,121.657656,Monday: 10:00 / 21:00Tuesday: 10:00 / 21:00Wednesday: 10:00 / 21:00Thursday: 10:00 / 21:00Friday: 10:00 / 21:00Saturday: 10:00 / 21:00Sunday: 10:00 / 21:00No closing days.,,,
Guiyang Lavant,670633,"Shop 006, Lavant Department Store, 
52 Zhonghua South Road, Nanming District",,Guiyang,,,China,+86 8515825649,26.577666,106.721719,Monday: 10:00 / 22:00Tuesday: 10:00 / 22:00Wednesday: 10:00 / 22:00Thursday: 10:00 / 22:00Friday: 10:00 / 22:00Saturday: 10:00 / 22:00Sunday: 10:00 / 22:00No closing days.,,,
Chongqing Starlight 68,670634,"Shop L119, Starlight 68,
68 Yangheyi Road, Jiangbei District",,Chongqing,,,China,+86 2367089668,29.584362,106.5369,Monday: 10:00 / 22:00Tuesday: 10:00 / 22:00Wednesday: 10:00 / 22:00Thursday: 10:00 / 22:00Friday: 10:00 / 22:00Saturday: 10:00 / 22:00Sunday: 10:00 / 22:00No closing days.,,,
Ningbo Heyi Avenue,670635,"Shop B1008, Heyi Avenue, 
66 Heyi Avenue, Haishu District",,Ningbo,,,China,+86 57487174681,29.879851,121.561417,Monday: 10:00 / 22:00Tuesday: 10:00 / 22:00Wednesday: 10:00 / 22:00Thursday: 10:00 / 22:00Friday: 10:00 / 22:00Saturday: 10:00 / 22:00Sunday: 10:00 / 22:00No closing days.,,,
Chiba Sogo,670636,"4F, 1000 Shinmachi, 
Chuo-ku, Chiba-shi",,Chiba,,,Japan,+81 432481401,35.611171,140.113797,Monday: 10:00 / 20:00Tuesday: 10:00 / 20:00Wednesday: 10:00 / 20:00Thursday: 10:00 / 20:00Friday: 10:00 / 20:00Saturday: 10:00 / 20:00Sunday: 10:00 / 20:00,,,
Los Angeles Melrose Place,670637,"8445 Melrose Place, CA 90069",,Los Angeles,,,USA,+1 3237824925,34.083927,-118.374818,Monday: 10:00 / 18:00Tuesday: 10:00 / 18:00Wednesday: 10:00 / 18:00Thursday: 10:00 / 18:00Friday: 10:00 / 18:00Saturday: 10:00 / 18:00Sunday: CLOSED,,,
Paris Aeroport Charles de Gaulle Terminal 2E,670638,"Terminal 2E, Gate M, 
Paris Charles de Gaulle Airport",,Paris,,,France,+33 174371592,49.0096906,2.547924500000022,Monday: 06:00 / 23:30Tuesday: 06:00 / 23:30Wednesday: 06:00 / 23:30Thursday: 06:00 / 23:30Friday: 06:00 / 23:30Saturday: 06:00 / 23:30Sunday: 06:00 / 23:30,,,
Paris Aeroport Charles de Gaulle Terminal AC,670639,"Terminal AC, Paris Charles de Gaulle Airport",,Paris,,,France,+33 174372223,49.002942,2.564309,Monday: 06:00 / 23:30Tuesday: 06:00 / 23:30Wednesday: 06:00 / 23:30Thursday: 06:00 / 23:30Friday: 06:00 / 23:30Saturday: 06:00 / 23:30Sunday: 06:00 / 23:30,,,
Beijing Seasons Place,670640,"Shop L102, Seasons Place Phase II, 
2 Jinchengfang Street, Xicheng District",,Beijing,,,China,+86 1066222772,39.921689,116.366828,Monday: 10:00 / 21:00Tuesday: 10:00 / 21:00Wednesday: 10:00 / 21:00Thursday: 10:00 / 21:00Friday: 10:00 / 21:00Saturday: 10:00 / 21:00Sunday: 10:00 / 21:00No closing days.,,,
Copenhagen Kastrup Airport,670641,"Transit Hall DK 2770 Kastrup Denmark / Copenhagen Airport (CPH),
Lufthavnsboulevarden 6, 2770 Kastrup",,Copenhagen,,,Denmark,+45 33366838,55.618490,12.650205,Monday: 06:00 / 22:00Tuesday: 06:00 / 22:00Wednesday: 06:00 / 22:00Thursday: 06:00 / 22:00Friday: 06:00 / 22:00Saturday: 06:00 / 20:00Sunday: 06:00 / 22:00,,,
Mumbai Palladium Phoenix Mills,670642,"Palladium Social, 
Phoenix Shoppers Walk Way, 
Lower Parel, Maharashtra 400013",,Mumbai,,,India,+91 2266152290/91,18.994441,72.823960,Monday: 11:00 / 21:30Tuesday: 11:00 / 21:30Wednesday: 11:00 / 21:30Thursday: 11:00 / 21:30Friday: 11:00 / 21:30Saturday: 11:00 / 21:30Sunday: 11:00 / 21:30,,,
Almaty Al-Farabi,670643,140 A Al-Farabi Avenue 050012,,Almaty,,,Kazakhstan,+7 7273150040,43.214206,76.924149,Monday: 10:00 / 22:00Tuesday: 10:00 / 22:00Wednesday: 10:00 / 22:00Thursday: 10:00 / 00:00Friday: 10:00 / 00:00Saturday: 10:00 / 22:00Sunday: 10:00 / 22:00,,,
Oslo Prinsens Gate,670644,"Prinsens Gate 21, 0157",,Oslo,,,Norway,+47 23960517,59.911842,10.742072,Monday: 10:00 / 19:00Tuesday: 10:00 / 19:00Wednesday: 10:00 / 19:00Thursday: 10:00 / 19:00Friday: 10:00 / 19:00Saturday: 10:00 / 18:00Sunday: CLOSED,,,
Milano Montenapoleone,670645,"Via Montenapoleone 5, 20121",,Milan,,,Italy,+39 0276024495,45.46774,9.195573,"Monday: 10:00 / 19:00Tuesday: 10:00 / 19:00Wednesday: 10:00 / 19:00Thursday: 10:00 / 19:00Friday: 10:00 / 19:00Saturday: 10:00 / 19:00Sunday: 11:00 / 19:00Closed on December 25/26th, on Easter and on January 1st.",,,
Taipei Ching Shang,670646,"No. 3, Ln. 39, Sec. 2 Zhongshan N. Rd.",,Taipei,,,Taiwan,+886 225115235,25.056635,121.522537,Monday: 10:00 / 21:00Tuesday: 10:00 / 21:00Wednesday: 10:00 / 21:00Thursday: 10:00 / 21:00Friday: 10:00 / 21:00Saturday: 10:00 / 21:00Sunday: 10:00 / 21:00,,,
Kanazawa Kohrinbo Daiwa,670647,"1F, 1-1-1, Kohrinbo, 
Kanazawa-shi",,Kanazawa,,,Japan,+81 762201181,36.563339,136.654066,Monday: 10:00 / 19:30Tuesday: 10:00 / 19:30Wednesday: 10:00 / 19:30Thursday: 10:00 / 19:30Friday: 10:00 / 19:30Saturday: 10:00 / 19:30Sunday: 10:00 / 19:30,,,
Beijing Galeries Lafayette,670648,"Shop L1-1.33, Galeries Lafayette, 
110 Xidan North Avenue, Xicheng District",,Beijing,,,China,+86 1057508016,39.91525,116.381509,Monday: 10:00 / 22:00Tuesday: 10:00 / 22:00Wednesday: 10:00 / 22:00Thursday: 10:00 / 22:00Friday: 10:00 / 22:00Saturday: 10:00 / 22:00Sunday: 10:00 / 22:00No closing days.,,,
Tianjin Galaxy Mall,670649,"Shop L1001, Galaxy Mall, 
9 Leyuandao, Hexi District",,Tianjin,,,China,+86 2283887420,39.096926,117.220487,Monday: 10:00 / 22:00Tuesday: 10:00 / 22:00Wednesday: 10:00 / 22:00Thursday: 10:00 / 22:00Friday: 10:00 / 22:00Saturday: 10:00 / 22:00Sunday: 10:00 / 22:00No closing days.,,,
Roppongi,670650,"West Walk 2F, 6-10-3, 
Roppongi, Minato-ku",,Roppongi,,,Japan,+81 354130372,35.659969,139.728766,Monday: 11:00 / 21:00Tuesday: 11:00 / 21:00Wednesday: 11:00 / 21:00Thursday: 11:00 / 21:00Friday: 11:00 / 21:00Saturday: 11:00 / 21:00Sunday: 11:00 / 21:00,,,
Tokyo Tamagawa,670651,"Main Building 1F, 3-17-1, 
Tamagawa, Setagaya-ku",,Tamagawa,,,Japan,+81 357970530,35.614184,139.626760,Monday: 10:00 / 21:00Tuesday: 10:00 / 21:00Wednesday: 10:00 / 21:00Thursday: 10:00 / 21:00Friday: 10:00 / 21:00Saturday: 10:00 / 21:00Sunday: 10:00 / 21:00,,,
Shinjuku Takashimaya,670652,"1F, 5-24-2, Sendagaya, Shibuya-ku",,Shinjuku,,,Japan,+81 353662046,35.687709,139.702119,Monday: 10:00 / 20:00Tuesday: 10:00 / 20:00Wednesday: 10:00 / 20:00Thursday: 10:00 / 20:00Friday: 10:00 / 20:30Saturday: 10:00 / 20:30Sunday: 10:00 / 20:00,,,
Hong Kong IFC Mall,670653,"International Finance Center, 
Shop 2038, 
8 Finance Street, Central",,Hong Kong,,,Hong Kong,+852 22347078,22.285696,114.157562,Monday: 10:30 / 20:00Tuesday: 10:30 / 20:00Wednesday: 10:30 / 20:00Thursday:  10:30 / 20:00Friday: 10:30 / 20:00Saturday: 10:30 / 20:00Sunday: 11:00 / 20:00Closed on 1st day of Chinese News Year.,,,
Macau One Central,670654,"Shop G8, One Central Macau, Nape",,Macau,,,Macau,+853 28722920,22.185289,113.547189,Monday: 10:30 / 23:00Tuesday: 10:30 / 23:00Wednesday: 10:30 / 23:00Thursday: 10:30 / 23:00Friday: 10:30 / 00:00Saturday: 10:30 / 00:00Sunday: 10:30 / 23:00No closing days.,,,
Seoul Galleria Luxury Hall East Men's,670655,"Galleria Luxury Hall East 4F, 
515 Apgujeong-dong, Gangnam-gu",,Seoul,,,Korea (South),+82 269053791,37.528111,127.041608,"Monday: 10:30 / 20:00Tuesday: 10:30 / 20:00Wednesday: 10:30 / 20:00Thursday: 10:30 / 20:00Friday: 10:30 / 20:00Saturday: 10:30 / 20:00Sunday: 10:30 / 20:00Closed on: January 1st, Chinese New Year (variable), Korean Thanks giving day (variable) and Monthly Closing day (variable).",,,
Seoul Shinsegae Gangnam Mens,670656,"Shinsegae Gangnam Department Store 6F, 
176 Sinbanpo-ro, Banpo 4(sa)-dong, Seocho-gu",,Seoul,,,Korea (South),+82 234791767,37.505283,127.004177,"Monday: 10:30 / 20:00Tuesday: 10:30 / 20:00Wednesday: 10:30 / 20:00Thursday: 10:30 / 20:00Friday: 10:30 / 20:00Saturday: 10:30 / 20:00Sunday: 10:30 / 20:00Closed on: January 1st, Chinese New Year (variable), Korean Thanks giving day (variable) and Monthly Closing day (variable).",,,
Seoul Hyundai Coex,670657,"Hyudai Department Store 2F, 
159-7 Samsung-Dong, Gangnam-Gu",,Seoul,,,Korea (South),+82 234678528,37.508695,127.059735,"Monday: 10:30 / 20:00Tuesday: 10:30 / 20:00Wednesday: 10:30 / 20:00Thursday: 10:30 / 20:00Friday: 10:30 / 20:00Saturday: 10:30 / 20:00Sunday: 10:30 / 20:00Closed on: January 1st, Chinese New Year (variable), Korean Thanks giving day (variable) and Monthly Closing day (variable).",,,
Busan Shinsegae Centum City Men's,670658,"Shinsegae Department store Centum City 5F, 
35 Centumnam-daero, U-dong, Haeundae",,Busan,,,Korea (South),+82 517452793,35.168918,129.129736,"Monday: 10:30 / 20:00Tuesday: 10:30 / 20:00Wednesday: 10:30 / 20:00Thursday: 10:30 / 20:00Friday: 10:30 / 20:00Saturday: 10:30 / 20:00Sunday: 10:30 / 20:00Closed on: January 1st, Chinese New Year (variable), Korean Thanks giving day (variable) and Monthly Closing day (variable).",,,
Busan Lotte Main,670659,"Lotte Busan Department Store MB1F, 
503-15 Bujeon-dong, Busanjin-gu",,Busan,,,Korea (South),+82 518103164,35.157073,129.065422,"Monday: 10:30 / 20:00Tuesday: 10:30 / 20:00Wednesday: 10:30 / 20:00Thursday: 10:30 / 20:00Friday: 10:30 / 20:00Saturday: 10:30 / 20:00Sunday: 10:30 / 20:00Closed on: January 1st, Chinese New Year (variable), Korean Thanks giving day (variable) and Monthly Closing day (variable).",,,
Daegu Hyundai,670660,"Hyundai Deagu Department store 1F, 
2077 Dalgubeol-daero, Gyesandong 2(i)-ga, Jung-gu",,Daegu,,,Korea (South),+82 532452116,35.867007,128.590587,"Monday: 10:30 / 20:00Tuesday: 10:30 / 20:00Wednesday: 10:30 / 20:00Thursday: 10:30 / 20:00Friday: 10:30 / 20:00Saturday: 10:30 / 20:00Sunday: 10:30 / 20:00Closed on: January 1st, Chinese New Year (variable), Korean Thanks giving day (variable) and Monthly Closing day (variable).",,,
Xi'an Wangfujing,670661,"Shop 1A-07, Wangfujing Department, 
No 88 Nanguanzheng Street, Beilin District",,Xi'an,,,China,+86 2987651328,34.253918,108.952733,Monday: 10:00 / 22:00Tuesday: 10:00 / 22:00Wednesday: 10:00 / 22:00Thursday: 10:00 / 22:00Friday: 10:00 / 22:00Saturday: 10:00 / 22:00Sunday: 10:00 / 22:00No closing days.,,,
Milano Bottega Veneta Home,670662,"Via Borgospesso 5, 20121",,Milan,,,Italy,+39 0276009934,45.4701908,9.1940648,"Monday: 10:00 / 19:00Tuesday: 10:00 / 19:00Wednesday: 10:00 / 19:00Thursday: 10:00 / 19:00Friday: 10:00 / 19:00Saturday 10:00 / 19:00Sunday: CLOSEDOpen on Sunday during Fashion Weeks (11:00-19:00) and Salone del Mobile week (10:00-21:00).Closed on December 25/26th, January 1st, Easter and August 15th.",,,
Milano La Rinascente,670663,"La Rinascente Balcony Floor, 
Via S. Radegonda 3, 20121",,Milan,,,Italy,+39 0272023854,45.465002,9.192153,"Monday: 09:00 / 22:00Tuesday: 09:00 / 22:00Wednesday: 09:00 / 22:00Thursday: 09:00 / 22:00Friday: 09:00 / 22:00Saturday 09:00 / 22:00Sunday: 10:00 / 22:00Closed on December25th, January 1st and Easter.",,,
Roma Fiumicino Airport,670664,"Leonardo Da Vinci Airport, Terminal E, 
00054, Fiumicino",,Rome,,,Italy,+39 0697155003,41.795738,12.242247,Monday: 06:30 / 22:00Tuesday: 06:30 / 22:00Wednesday: 06:30 / 22:00Thursday: 06:30 / 22:00Friday: 06:30 / 22:00Saturday 06:30 / 22:00Sunday: 06:30 / 22:00No closing days.,,,
Paris Galeries Lafayette Men's,670665,"Galeries Lafayette Man, ground floor, 
36 Boulevard Haussmann, 75009",,Paris,,,France,+33 148742308,48.873689,2.332155,"Monday: 09:30 / 20:30Tuesday: 09:30 / 20:30Wednesday: 09:30 / 20:30Thursday: 09:30 / 20:30Friday: 09:30 / 20:30Saturday: 09:30 / 20:30Sunday: OPEN 11:00/ 19:00Closed on December 25th, January 1st, May 1st.",,,
Uijeongbu Shinsegae,670666,"Shinsegae Uijeongbu Department Store 3F, 
525 Pyeonghwa-ro, Uijeongbu 2(i)-dong, Euijeongbu, Gyeonggi-do",,Uijeongbu,,,Korea (South),+82 3180820334,37.738073,127.045937,"Monday: 10:30 / 20:00Tuesday: 10:30 / 20:00Wednesday: 10:30 / 20:00Thursday: 10:30 / 20:00Friday: 10:30 / 20:00Saturday: 10:30 / 20:00Sunday: 10:30 / 20:00Closed on: January 1st, Chinese New Year (variable), Korean Thanks giving day (variable) and Monthly Closing day (variable).",,,
New Taipei City Banciao Far Eastern Mega City,670667,"1F, No.28, Xinzhan Rd., Banqiao Dist., New Taipei City",,Taipei,,,Taiwan,+886 229649678,25.013691,121.466873,Monday: 11:00 / 22:00Tuesday: 11:00 / 22:00Wednesday: 11:00 / 22:00Thursday: 11:00 / 22:00Friday: 11:00 / 22:00Saturday: 11:00 / 22:00Sunday: 11:00 / 22:00,,,
London Old Bond,670668,"14 Old Bond Street, W1S4PP",,London,,,United Kingdom,+44 2076295598,51.5089076,-0.1406351,"Monday: 10:00 / 18:00Tuesday: 10:00 / 18:00Wednesday: 10:00 / 18:00Thursday: 10:00 / 19:00Friday: 10:00 / 18:00Saturday: 10:00 / 18:00Sunday: 12:00 / 18:00August/ December open until 19:00. Closed on December 25th, January 1st and Easter.",,,
Dusseldorf Breuninger,670669,"Konigsallee 2, 40212",,Dusseldorf,,,Germany,+49 21183688520,51.2261974,6.7797982,Monday: 10:00 / 20.00Tuesday: 10:00 / 20.00Wednesday: 10:00 / 20.00Thursday: 10:00 / 20.00Friday: 10:00 / 20.00Saturday: 10:00 / 20.00Sunday: CLOSEDClosed on all Dusseldorf bank holidays.,,,
Hamburg Alsterhaus,670670,"Alsterhaus, 
Jungfernstieg 16-20, 20354",,Hamburg,,,Germany,+49 4030039430,53.553217,9.992021,"Monday: 10:00 / 20.00Tuesday: 10:00 / 20.00Wednesday: 10:00 / 20.00Thursday: 10:00 / 20.00Friday: 10:00 / 20.00Saturday: 10:00 / 20.00Sunday: CLOSEDFrom end of November until December 24th: Thursday, Friday and Saturday closing at 21:00.",,,
Amsterdam Hooftstraat,670671,"P.C.Hooftstraat 60, 1071 CA",,Amsterdam,,,Netherlands,+31 (0) 20 3640111,52.360732,4.881429,"Monday: 13:00 / 18.00Tuesday: 10:00 / 18.00Wednesday: 10:00 / 18.00Thursday: 10:00 / 18.00Friday: 10:00 / 18.00Saturday:10:00 / 17.00Sunday: CLOSEDClosed on December 25/26th, January 1st, Kingsday. Open on Sunday during December.",,,
Madrid Serrano El Corte Ingles Men's,670672,"El Corte Ingles, 
Calle Serrano 52, 
28001 Planta Baja",,Madrid,,,Spain,+34 638267795,40.427764,-3.687123,"Monday: 10:00 / 22:00Tuesday: 10:00 / 22:00Wednesday: 10:00 / 22:00Thursday: 10:00 / 22:00Friday: 10:00 / 22:00Saturday: 10:00 / 22:00Sunday: 11:00 / 21:00From last week of November until the second week of January Sundays opening hours: 10.00 - 22.00. Closed on  December 25th, January 1st, January 6th, May 1st.",,,
Dubai Harvey Nichols,670673,"Harvey Nichols, 
Mall of the Emirates, First Floor, 
Al Barsha 1",,Dubai,,,United Arab Emirates,+971 44098888,25.11809,55.20036,Monday: 10:00 / 22:00Tuesday: 10:00 / 22:00Wednesday: 10:00 / 22:00Thursday: 10:00 / 00:00Friday: 10:00 / 00:00Saturday: 10:00 / 00:00Sunday: 10:00 / 22:00The opening is always 10:00 while the closing can change each month. Extended  to midnight/ 1am during the weekends.,,,
Dubai Bloomingdale's,670674,"Bloomingdale's at The Dubai Mall, Ground Floor, 
Financial Centre Road, Downtown",,Dubai,,,United Arab Emirates,+971 43505102,25.197321,55.278739,Monday: 10:00 / 23.00Tuesday: 10:00 / 23.00Wednesday: 10:00 / 23.00Thursday: 10:00 / 00.00Friday: 10:00 / 00.00Saturday: 10:00 / 00.00Sunday: 10:00 / 23.00The opening is always 10:00 while the closing can change each month. Extended  to midnight/ 1am during the weekends.,,,
Abu Dhabi Sowwah,670675,"The Galleria, Sowwah Square, 
Al Falah Street, Al Maryah Island,",,Abu Dhabi,,,United Arab Emirates,+97126766707,24.501158,54.388379,Monday: 10:00 / 22:00Tuesday: 10:00 / 22:00Wednesday: 10:00 / 22:00Thursday: 10:00 / 00:00Friday: 12:00 / 00:00Saturday: 10:00 / 22:00Sunday: 10:00 / 22:00The opening is always 10:00 while the closing can change each month. Extended  to midnight/ 1am during the weekends.,,,
Singapore Marina Bay Sands,670676,"2 Bayfront Ave, 
#B1-99/B2-72B, 
The Shoppes at Marina Bay Sands, 018972",,Singapore,,,Singapore,+65 66887228,1.2844,103.8589,Monday: 10:30 / 23:00Tuesday:10:30 / 23:00Wednesday: 10:30 / 23:00Thursday: 10:30 / 23:00Friday: 10:30 / 23:30Saturday: 10:30 / 23:30Sunday: 10:30 / 23:00,,,
Costa Mesa South Coast,670677,"3333 Bristol Street, Suite 2207,  
CA 92626",,Costa Mesa,,,USA,+1 7145409760,33.691252,-117.889484,Monday: 10:00 / 21:00Tuesday: 10:00 / 21:00Wednesday: 10:00 / 21:00Thursday: 10:00 / 21:00Friday: 10:00 / 21:00Saturday: 10:00 / 21:00Sunday: 11:00 / 18:30,,,
Paris Printemps Carrousel du Louvre,670678,"99 Rue de Rivoli, 75001",,Paris,,,France,+33 142604398,48.862783,2.334938,"Monday: 09:30 / 20.00Tuesday: 10:00 / 20.00Wednesday: 09:30 / 20.00Thursday: 09:30 / 20.00Friday: 09:30 / 20.00Saturday:10:00 / 20:00Sunday: 09:30 / 20.00Closed on December 25th, January 1st, May 1st.",,,
Barcelona El Corte Ingles,670679,"El Corte Ingles, 
Avenida Diagonal 617,
Planta 0, 08028",,Barcelona,,,Spain,+34 934941664,41.388093,2.128148,Monday: 09:30 / 21:30Tuesday: 09:30 / 21:30Wednesday: 09:30 / 21:30Thursday: 09:30 / 21:30Friday: 09:30 / 21:30Saturday: 09:30 / 21:30Sunday: CLOSEDClosed on all Barcelonian bank holidays.,,,
Fukuoka Iwataya Leather Goods,670680,"New Building 1F, 2-5-35 Tenjin, 
Chuou-ku, Fukuoka-shi",,Fukuoka,,,Japan,+81 922868272,33.589480,130.397726,Monday: 10:00 / 20:00Tuesday: 10:00 / 20:00Wednesday: 10:00 / 20:00Thursday: 10:00 / 20:00Friday: 10:00 / 20:00Saturday: 10:00 / 20:00Sunday: 10:00 / 20:00,,,
Wien Tuchlauben,670681,"Tuchlauben Complex, shop 5, Tuchlauben 5, 1010",,Wien,,,Austria,+43 15350024,48.209902,16.369429,Monday: 10:00 / 19:00Tuesday: 10:00 / 19:00Wednesday: 10:00 / 19:00Thursday: 10:00 / 19:00Friday: 10:00 / 19:00Saturday: 10:00 / 18:00Sunday: CLOSEDClosed on all Austrian bank holidays.,,,
Iyotetsu Takashimaya,670682,"Main Building 2F, 5-1-1, 
Minatomachi, Matsuyama-shi",,Matsuyama,,,Japan,+81 899866302,33.835624,132.762984,Monday: 10:00 / 19:30Tuesday: 10:00 / 19:30Wednesday: 10:00 / 19:30Thursday: 10:00 / 19:30Friday: 10:00 / 19:30Saturday: 10:00 / 19:30Sunday: 10:00 / 19:30,,,
Ginza,670683,"2-5-14, Ginza, Chuo-ku",,Ginza,,,Japan,+81 335383211,35.673543,139.766293,Monday: 11:00 / 20:00Tuesday: 11:00 / 20:00Wednesday: 11:00 / 20:00Thursday: 11:00 / 20:00Friday: 11:00 / 20:00Saturday: 11:00 / 20:00Sunday: 11:00 / 20:00,,,
Shinjuku Isetan Women's Shoes,670684,"2F, 3-14-1, Shinjuku, Shinjuku-ku",,Shinjuku,,,Japan,+81 333521111,35.691893,139.704588,Monday: 10:30 / 20:00Tuesday: 10:30 / 20:00Wednesday: 10:30 / 20:00Thursday: 10:30 / 20:00Friday: 10:30 / 20:00Saturday: 10:30 / 20:00Sunday: 10:30 / 20:00,,,
Milano La Rinascente Shoes,670685,"La Rinascente Shoes 3rd Floor, 
Via S. Radegonda 3, 20121",,Milan,,,Italy,+39 0289093862,45.465002,9.192153,"Monday: 09:00 / 22:00Tuesday: 09:00 / 22:00Wednesday: 09:00 / 22:00Thursday: 09:00 / 22:00Friday: 09:00 / 22:00Saturday: 09:00 / 22:00Sunday: 10:00 / 22:00Closed on December25th, January 1st and Easter.",,,
München Airport,670686,"Munich Aereoport Terminal 2 Departure area, 
Verwaltung Nord Terminalstrasse nord 1, 85356",,Munich,,,Germany,0049 89895560770,48.354078,11.790248,Monday: 07:30 / 21:00Tuesday:  07:30 / 21:00Wednesday:  07:30 / 21:00Thursday:  07:30 / 21:00Friday:  07:30 / 21:00Saturday  07:30 / 21:00Sunday:  07:30 / 21:00No closing days.,,,
London Heathrow Airport Terminal 2,670687,"London Heathrow Airport, 
International Departure Lounge T2, 
Hounslow, Middlesex, TW6 1EW",,London,,,United Kingdom,+44 2089767535,51.469632,-0.449737,Monday: 05:30 / 22:00Tuesday: 05:30 / 22:00Wednesday: 05:30 / 22:00Thursday: 05:30 / 22:00Friday: 05:30 / 22:00Saturday: 05:30 / 22:00Sunday: 05:30 / 22:00No closing days.,,,
London Harrods Men's,670688,"Harrods, 87-135 Brompton Road, 
Knightsbridge, SW1X 7XL",,London,,,United Kingdom,+44 2077301234,51.499483,-0.163405,Monday: 10:00 / 21:00Tuesday: 10:00 / 21:00Wednesday: 10:00 / 21:00Thursday: 10:00 / 21:00Friday: 10:00 / 21:00Saturday: 10:00 / 21:00Sunday: 11:30 / 18:00Closed on December25th and Easter.,,,
Manila Shangri La,670689,"Level 1, East Wing Shangrila Plaza, 
EDSA corner Shaw Boulevard",,Manila,,,Philippines,+632 6255386,14.581539,121.055745,Monday: 11:00 / 21:00Tuesday: 11:00 / 21:00Wednesday: 11:00 / 21:00Thursday: 11:00 / 21:00Friday: 11:00 / 22:00Saturday: 10:00 / 22:00Sunday: 10:00 / 21:00,,,
Jakarta Plaza Indonesia,670690,"Plaza Indonesia, 1st floor 
#59A, 074, 074A, 076A, 076B. 
Jl. M.H. Thamrin kav 28-30, Jakarta Pusat",,Jakarta,,,Indonesia,+62 2129924018,-6.193139,106.821607,Monday: 10:00 / 22:00Tuesday: 10:00 / 22:00Wednesday: 10:00 / 22:00Thursday: 10:00 / 22:00Friday: 10:00 / 22:00Saturday: 10:00 / 22:00Sunday: 10:00 / 22:00,,,
Singapore T Galleria Scottswalk,670691,"Scottswalk Galleria - DFS Galleria Singapore, 
25 Scotts Road, 228220",,Singapore,,,Singapore,+65 62298100,1.307467,103.8325,Monday: 11:00 / 20:00Tuesday: 11:00 / 20:00Wednesday: 11:00 / 20:00Thursday: 11:00 / 20:00Friday: 11:00 / 21:00Saturday: 11:00 / 21:00Sunday: 11:00 / 20:00,,,
Hong Kong T Galleria Sun Plaza,670692,"T Galleria by DFS, G/F-2/F Lippo Sun Plaza, 28 Canton Road, TsimShaTsui, Kowloon",,Hong Kong,,,Hong Kong,+852 23026888,22.296810,114.169536,Monday: 10:00 / 23:00Tuesday: 10:00 / 23:00Wednesday: 10:00 / 23:00Thursday: 10:00 / 23:00Friday: 10:00 / 23:00Saturday: 10:00 / 23:00Sunday: 10:00 / 23:00,,,
Hong Kong T Galleria Chinachem,670693,"DFS Galleria Chinachem, 77 Mody Road, Tsim Sha Tsui East, Kowloon",,Hong Kong,,,Hong Kong,+852 23113813,22.300058,114.179572,Monday: 11:00 / 21:00Tuesday: 11:00 / 21:00Wednesday: 11:00 / 21:00Thursday: 11:00 / 21:00Friday: 11:00 / 21:00Saturday: 11:00 / 21:00Sunday: 11:00 / 21:00,,,
Berlin Kadewe,670694,"Berlin Kadewe, Tauentzienstrae 21-24, 10789",,Berlin,,,Germany,+49 3021015868,52.501609,13.340982,Monday: 10:00 / 20:00Tuesday: 10:00 / 20:00Wednesday: 10:00 / 20:00Thursday: 10:00 / 20:00Friday: 10:00 / 21:00Saturday: 09:30 / 20:00Sunday: CLOSEDClosed on all Berlin bank holidays.,,,
Chengdu IFS Mall,670695,"Shop L133, IFS, 
1 Hongxing Road Section 3, Jinjiang District",,Chengdu,,,China,+86 2862100428,30.66046,104.086922,Monday: 10:00 / 22:00Tuesday: 10:00 / 22:00Wednesday: 10:00 / 22:00Thursday: 10:00 / 22:00Friday: 10:00 / 22:00Saturday: 10:00 / 22:00Sunday: 10:00 / 20:00No closing days.,,,
Principality of Monaco Jardin des Boulingrins,670696,"Pavillon 5, Boutique 6, Jardin des Boulingrins, 
Place du Casino, 98000",,Principality of Monaco,,,Principality of Monaco,+377 97975151,43.739715,7.427661,Monday: 10:30 / 19:00Tuesday: 10:30 / 19:00Wednesday: 10:30 / 19:00Thursday: 10:30 / 19:00Friday: 10:30 / 19:00Saturday: 10:30 / 19:00Sunday: CLOSEDOpened until 20:00 and opened on Sundays in July and August.,,,
Seoul Lotte World Tower Avenuel,670697,"Avenuel World Tower 1F, 
300 Olympic-ro, Sincheon-dong, Songpa-gu",,Seoul,,,Korea (South),+82 232132135,37.512257,127.101787,"Monday: 10:30 / 20:00Tuesday: 10:30 / 20:00Wednesday: 10:30 / 20:00Thursday: 10:30 / 20:00Friday: 10:30 / 20:30Saturday: 10:30 / 20:30Sunday: 10:30 / 20:30Closed on: January 1st, Chinese New Year (variable), Korean Thanks giving day (variable) and Monthly Closing day (variable).",,,
Boston Boylston,670698,"310 Boylston Street,  MA 02116",,Boston,,,USA,+1 6179600880,42.351858,-71.070174,Monday: 10:00 / 18:00Tuesday: 10:00 / 18:00Wednesday: 10:00 / 18:00Thursday: 10:00 / 18:00Friday: 10:00 / 18:00Saturday: 10:00 / 18:00Sunday: 12:00 / 18:00,,,
London Heathrow Airport Terminal 5,670699,"London Heathrow Airport, 
International Departure Lounge T5, 
Hounslow,TW6 2GA",,London,,,United Kingdom,+44 2082836075,51.470119,-0.453954,Monday: 05:30 / 22:00Tuesday: 05:30 / 22:00Wednesday: 05:30 / 22:00Thursday: 05:30 / 22:00Friday: 05:30 / 22:00Saturday: 05:30 / 22:00Sunday: 05:30 / 22:00No closing days.,,,
Nice Galeries Lafayette,670700,"Galeries Lafayette, Place Massena, 
6 Avenue Jean Medecin, 06000",,Nice,,,France,+33 493883164,43.698839,7.269679,"Monday: 09:30 / 20:00Tuesday:  09:30 / 20:00Wednesday:  09:30 / 20:00Thursday: 09:30 / 20:00Friday:  09:30 / 20:00Saturday:  09:30 / 20:00Sunday: 11:00 / 20:00Closed on December 25th, January 1st, May 1st. Summer opening hours : 10:00 - 21:00.",,,
Seoul Shinsegae Main Men's,670701,"Shinsegae Main Department Store New building 6F, 
77 Toegye-ro, Chungmuro 1(il)-ga, Jung-gu",,Seoul,,,Korea (South),+82 23105247,37.560299,126.980772,"Monday: 10:30 / 20:00Tuesday: 10:30 / 20:00Wednesday: 10:30 / 20:00Thursday: 10:30 / 20:00Friday: 10:30 / 20:00Saturday: 10:30 / 20:00Sunday: 10:30 / 20:00Closed on: January 1st, Chinese New Year (variable), Korean Thanks giving day (variable) and Monthly Closing day (variable).",,,
Milano Malpensa Airport,670702,"Milan Malpensa Airport Terminal 1 
Boarding Area  Extra Schengen- 
21010 Ferno (Varese)",,Milan,,,Italy,+39 0274867415,45.628695,8.710986,Monday: 06:00 / 21:30Tuesday: 06:00 / 21:30Wednesday: 06:00 / 21:30Thursday: 06:00 / 21:30Friday: 06:00 / 21:30Saturday: 06:00 / 21:30Sunday: 06:00 / 21:30No closing days.,,,
Cancun El Palacio de Hierro,670703,"Palacio De Hierro Centro Comercial La Isla, 
Blvd Kukulcan Km. 12.5, 
Zona Hotelera",,Cancun,,,Mexico,+52 9981768131,21.109264,-86.763944,Monday: 11:00 / 22:00Tuesday: 11:00 / 22:00Wednesday: 11:00 / 22:00Thursday: 11:00 / 22:00Friday: 11:00 / 22:00Saturday: 11:00 / 22:00Sunday: 11:00 / 22:00,,,
Beijing Shin Kong Place Men's,670704,"Shop M2006-1, Shin Kong Place, 
87 Jianguo Road, Chaoyang District",,Beijing,,,China,+86 1065331482,39.915649,116.485549,Monday: 10:00 / 22:00Tuesday: 10:00 / 22:00Wednesday: 10:00 / 22:00Thursday: 10:00 / 22:00Friday: 10:00 / 22:00Saturday: 10:00 / 22:00Sunday: 10:00 / 22:00No closing days.,,,
Beijing Shin Kong Place Women's,670705,"Shop D1121, Shin Kong Place, 
87 Jianguo Road, Chaoyang District",,Beijing,,,China,+86 1065331898,39.916539,116.485074,Monday: 10:00 / 22:00Tuesday: 10:00 / 22:00Wednesday: 10:00 / 22:00Thursday: 10:00 / 22:00Friday: 10:00 / 22:00Saturday: 10:00 / 22:00Sunday: 10:00 / 22:00No closing days.,,,
Beijing Park Life Yintai Centre IN01,670706,"Shop 201301, Yintai Center in01, 
2 Jianguomenwai Street, Chaoyang District",,Beijing,,,China,+86 1085171156,39.913376,116.465385,Monday: 11:00 / 21:30Tuesday: 11:00 / 21:30Wednesday: 11:00 / 21:30Thursday: 11:00 / 21:30Friday: 11:00 / 21:30Saturday: 11:00 / 21:30Sunday: 11:00 / 21:30No closing days.,,,
Shanghai Daimaru Matsuzakaya,670707,"Shop 1A-4, Daimaru Matsuzakaya, 
163 Nanjing East Road, Huangpu District",,Shanghai,,,China,+86 2133307070,31.243956,121.49279,Monday: 10:00 / 22:00Tuesday: 10:00 / 22:00Wednesday: 10:00 / 22:00Thursday: 10:00 / 22:00Friday: 10:00 / 22:00Saturday: 10:00 / 22:00Sunday: 10:00 / 22:00No closing days.,,,
Santa Clara Westfield Valley Fair,670708,"2855 Stevens Creek Blvd., Suite 1369, 
CA 95050",,Santa Clara,,,USA,+1 4088788606,37.326015,-121.944855,Monday: 10:00 / 21:00Tuesday: 10:00 / 21:00Wednesday: 10:00 / 21:00Thursday: 10:00 / 21:00Friday: 10:00 / 21:00Saturday: 10:00 / 21:00Sunday: 11:00 / 18:00,,,
Nanjing Deji Plaza,670709,"Shop F109, Deji Plaza, 
No.18 Zhongshan Road, Xuanwu District",,Nanjing,,,China,+86 2586777196,32.050691,118.791375,Monday: 10:00 / 22:00Tuesday: 10:00 / 22:00Wednesday: 10:00 / 22:00Thursday: 10:00 / 22:00Friday: 10:00 / 22:30Saturday: 10:00 / 22:30Sunday: 10:00 / 22:00No closing days.,,,
Beijing Shin Kong Place Women's RTW & Shoes,670710,"Shop D4032, 4F Shin Kong Place, 
87 Jianguo Road, Chaoyang District",,Beijing,,,China,+86 1065307035,39.916168,116.485177,Monday: 10:00 / 22:00Tuesday: 10:00 / 22:00Wednesday: 10:00 / 22:00Thursday: 10:00 / 22:00Friday: 10:00 / 22:00Saturday: 10:00 / 22:00Sunday: 10:00 / 22:00No closing days.,,,
Frankfurt Goetheplatz,670711,"Goetheplatz 5, 60313",,Frankfurt am Main,,,Germany,+49 69920396700,50.113172,8.676063,Monday: 10:00 / 19:00Tuesday: 10:00 / 19:00Wednesday: 10:00 / 19:00Thursday: 10:00 / 19:00Friday: 10:00 / 19:00Saturday: 10:00 / 18:00Sunday: CLOSEDClosed on all bank holidays in Frankfurt/Hesse and also on December 24th and 31st.,,,
Ibiza Marina  Seasonal,670712,"Puerto Deportivo Marina Ibiza, 
Paseo Juan Carlos I, 20 Modulo 2, 07800",,Ibiza,,,Spain,+34 971192779,38.914563,1.443283,Monday: 10:30 / 22:00Tuesday: 10:30 / 22:00Wednesday: 10:30 / 22:00Thursday: 10:30 / 22:00Friday: 10:30 / 22:00Saturday: 10:30 / 22:00Sunday: 10:30 / 22:00Closed from 14:00 to 17:30. Opening hours can change during the season. The last operation day is September 30th.,,,
New York Brookfield Place,670713,"225 Liberty Street, Suite 124, 
NY 10281",,New York,,,USA,+1 2122712626,40.713023,-74.015057,Monday: 10:00 / 20:30Tuesday: 10:00 / 20:30Wednesday:10:00 / 20:30Thursday: 10:00 / 20:30Friday: 10:00 / 20:30Saturday: 10:00 / 20:30Sunday: 12:00 / 17:00,,,
Mexico City El Palacio de Hierro Polanco,670714,"Moliere 222, Colonia Polanco, 
Delagacion Miguel Hidalgo, 
Mexico DF, 11540",,Mexico City,,,Mexico,+52 5552806064,19.304232,-99.190112,Monday: 11:00 / 21:00Tuesday: 11:00 / 21:00Wednesday: 11:00 / 21:00Thursday: 11:00 / 21:00Friday: 11:00 / 21:00Saturday: 11:00 / 21:00Sunday: 11:00 / 21:00,,,
Monterrey El Palacio de Hierro,670715,"Ave. Jose Vasconcelos N 402, 
Col. Del Valle, 
San Pedro Garza Garcia",,Monterrey,,,Mexico,+52 81732221,25.651265,-100.359472,Monday: 11:00 / 21:00Tuesday: 11:00 / 21:00Wednesday: 11:00 / 21:00Thursday: 11:00 / 21:00Friday: 11:00 / 21:00Saturday: 11:00 / 21:00Sunday: 11:00 / 21:00,,,
Hong Kong Sogo Causeway Bay,670716,"Shop G-23 & 1-13, 
Sogo Hong Kong, 555 Hennessy Road, 
Causeway Bay",,Hong Kong,,,Hong Kong,+852 28663706,22.280421,114.184776,Monday: 10:00 / 22:00Tuesday: 10:00 / 22:00Wednesday: 10:00 / 22:00Thursday:  10:00 / 22:00Friday: 10:00 / 22:30Saturday: 10:00 / 22:30Sunday: 10:00 / 22:00No closing days.,,,
Macau Galaxy,670717,"Shop G095, 
Galaxy Macau Resort, 
Estrada da Baia de Nossa Senhora da Esperanca, 
Cotai",,Macau,,,Macau,+853 28823676,22.149594,113.553432,Monday: 10:00 / 22:00Tuesday: 10:00 / 22:00Wednesday: 10:00 / 22:00Thursday: 10:00 / 22:00Friday: 10:00 / 00:00Saturday: 10:00 / 00:00Sunday: 10:00 / 22:00No closing days.,,,
Macau Studio City,670718,"Shop L01-1051, Studio City, 
Cotai Estrada do Istmo",,Macau,,,Macau,+853 28845171,22.140111,113.561556,Monday: 10:00 / 23:00Tuesday: 10:00 / 23:00Wednesday: 10:00 / 23:00Thursday: 10:00 / 23:00Friday: 10:00 / 00:00Saturday: 10:00 / 00:00Sunday: 10:00 / 23:00No closing days.,,,
Taipei Breeze Center Women's,670719,"1F, No.39, Sec. 1, Fuxing S. Rd., Songshan District",,Taipei,,,Taiwan,+886 287723080,25.046053,121.544161,Monday: 11:00 / 21:30Tuesday: 11:00 / 21:30Wednesday: 11:00 / 21:30Thursday: 11:00 / 22:00Friday: 11:00 / 22:00Saturday: 11:00 / 22:00Sunday: 11:00 / 21:30,,,
Taipei 101 Mall,670720,"3F, No.45, Shifu Rd., Xinyi District",,Taipei,,,Taiwan,+886 281018038,25.033716,121.56409,Monday: 11:00 / 21:30Tuesday: 11:00 / 21:30Wednesday: 11:00 / 21:30Thursday: 11:00 / 22:00Friday: 11:00 / 22:00Saturday: 11:00 / 22:00Sunday: 11:00 / 21:30,,,
Taipei Breeze Xin Yi,670721,"1F, No.68, Sec. 5, Zhongxiao E. Rd., Xinyi District",,Taipei,,,Taiwan,+886 227252178,25.040543,121.566929,Monday: 11:00 / 21:30Tuesday: 11:00 / 21:30Wednesday: 11:00 / 21:30Thursday: 11:00 / 22:00Friday: 11:00 / 22:00Saturday: 11:00 / 22:00Sunday: 11:00 / 21:30,,,
Ho Chi Minh Union Square,670722,L1-09 Union Square 171 Dong Khoi District 1,,Ho Chi Minh,,,Vietnam,+84 838275479,10.776369,106.702488,Monday: 09:00 / 22:00Tuesday:09:00 / 22:00Wednesday: 09:00 / 22:00Thursday: 09:00 / 22:00Friday: 09:00 / 22:00Saturday: 09:00 / 22:00Sunday: 09:00 / 22:00,,,
Hanoi Metropole Hotel,670723,"Hotel Sofitel Metropole Legend, 
15 Ngo Quyen, Hoan Kiem district",,Hanoi,,,Vietnam,+84 438238866,21.025247,105.855589,Monday: 09:00 / 20:00Tuesday:09:00 / 20:00Wednesday: 09:00 / 20:00Thursday: 09:00 / 20:00Friday: 09:00 / 20:00Saturday: 09:00 / 20:00Sunday: 09:00 / 20:00,,,
Paris Aeroport Charles de Gaulle Terminal 1,670724,"Terminal 1, 
Paris Charles de Gaulle Airport",,Paris,,,France,+33 174255541,49.014141,2.542293,Monday: 06:00 / 22:00Tuesday: 06:00 / 22:00Wednesday: 06:00 / 22:00Thursday: 06:00 / 22:00Friday: 06:00 / 22:00Saturday: 06:00 / 22:00Sunday: 06:00 / 22:00,,,
Macau Wynn Palace,670725,"Shop 45 Wynn Palace, 
Avenida da Nave Desportiva, 
Cotai",,Macau,,,Macau,+853 28776001,22.149156,113.571145,Monday: 10:00 / 00:00Tuesday: 10:00 / 00:00Wednesday: 10:00 / 00:00Thursday: 10:00 / 00:00Friday: 10:00 / 00:00Saturday: 10:00 / 00:00Sunday: 10:00 / 00:00No closing days.,,,
Paris Aeroport Charles de Gaulle Terminal S4,670726,"Terminal S4, Paris Charles de Gaulle Airport",,Paris,,,France,+33 174371592,49.003458,2.574221,Monday: 06:00 / 23:00Tuesday: 06:00 / 23:00Wednesday: 06:00 / 23:00Thursday: 06:00 / 23:00Friday: 06:00 / 23:00Saturday: 06:00 / 23:00Sunday: 06:00 / 23:00,,,
Amsterdam Schiphol Airport,670727,"Terminal 1, Amsterdam Schiphol Airport",,Amsterdam,,,Netherlands,+31 204109774,52.306731,4.762558,Monday: 06:00 / 22:00Tuesday: 06:00 / 22:00Wednesday: 06:00 / 22:00Thursday: 06:00 / 22:00Friday: 06:00 / 22:00Saturday: 06:00 / 22:00Sunday: 06:00 / 22:00,,,
Kuwait 360 Mall Men's,670728,"360 Mall Al Zahra Area 6, 
Ring Road",,Kuwait City,,,Kuwait,+965 25309969,29.267195,47.992640,Monday: 10:00 / 22:00Tuesday: 10:00 / 22:00Wednesday: 10:00 / 22:00Thursday: 10:00 / 22:00Friday: 10:00 / 22:00Saturday: 10:00 / 22:00Sunday: 10:00 / 22:00,,,
Riyadh Kingdom Center,670729,Kingdom Center,,Riyadh,,,Saudi Arabia,+966 12112341,24.711446,46.674381,Monday: 9:30 -12:30 / 16:30 - 22:30Tuesday: 9:30 -12:30 / 16:30 - 22:30Wednesday: 9:30 -12:30 / 16:30 - 22:30Thursday: 09:30 / 22:30Friday: 16:30 / 22:30Saturday: 09:30 / 22:30Sunday: 9:30 -12:30 / 16:30 - 22:30,,,
Venezia Fondaco de Tedeschi,670730,"Fondaco dei Tedeschi, Calle del Fontego, 30100",,Venice,,,Italy,+39 041 31420000,45.438576,12.336626,Monday: 10:00 / 20:00Tuesday: 10:00 / 20:00Wednesday: 10:00 / 20:00Thursday: 10:00 / 20:00Friday: 10:00 / 20:00Saturday: 10:00 / 20:00Sunday: 10:00 / 20:00,,,
Beirut Aishti Foundation Seaside,670731,"Aishti by the Sea, Ground Floor",,Beirut,,,Lebanon,+961 4717716,33.917465,35.588498,Monday: 10:00 / 20:00Tuesday: 10:00 / 20:00Wednesday: 10:00 / 20:00Thursday: 10:00 / 20:00Friday: 10:00 / 20:00Saturday: 10:00 / 20:00Sunday: 10:00 / 20:00,,,
Doha Hamad International Airport,670732,"Hamad International Airport, 
Departure Level, Concourse B,",,Doha,,,Qatar,,25.260652,51.613714,OPENING SOON,,,
Vancouver International Airport,670733,"Vancouver International Airport, 
3211 Grant McConachie Way, 
BC V7B 0A4, Richmond",,Vancouver,,,Canada,+1 6042731708,49.195186,-123.178906,Monday: 08:00 / 00:30Tuesday: 08:00 / 00:30Wednesday: 08:00 / 00:30Thursday: 08:00 / 00:30Friday: 08:00 / 00:30Saturday: 08:00 / 00:30Sunday: 08:00 / 00:30,,,
Los Angeles International Airport,670734,"380 World Way, 
CA 90045",,Los Angeles,,,USA,+1 13103482799,33.942177,-118.406797,Monday: 07:30 12.30Tuesday: 07:30 12.30Wednesday: 07:30 12.30Thursday: 07:30 12.30Friday: 07:30 12.30Saturday: 07:30 12.30Sunday: 07:30 12.30,,,
King of Prussia Mall,670735,"350 Mall Blvd, Suite 3016, 
PA 19406",,King of Prussia,,,USA,+1 6102904477,40.088735,-75.389794,Monday: 10:00 / 21:00Tuesday: 10:00 / 21:00Wednesday: 10:00 / 21:00Thursday: 10:00 / 21:00Friday: 10:00 / 21:00Saturday: 10:00 / 21:00Sunday: 11:00 / 18:00,,,
Taipei Ever Rich Old Downtown Gallery (Old),670736,"B1, No. 72, Sec 3, Min Chuan E. Road, Taipei, Taiwan",,Taipei,,,Taiwan,+ 886 800 098 668,25.062193,121.542739,Monday: 08:00 / 21:00Tuesday: 08:00 / 21:00Wednesday: 08:00 / 21:00Thursday: 08:00 / 21:00Friday: 08:00 / 21:00Saturday: 08:00 / 21:00Sunday: 08:00 / 21:00,,,
Macau T Galleria City of dream Women's,670737,"Level 1, T Galleria Macau, 
Estrada do Istma (Coloane), 
Zona de Aterros entre as Ilhas de Coloane e da Taipa, 
Cotai StripTM, Taipa",,Macau,,,Macau,+ 853 8791 8400,22.149444,113.567138,Monday: 10:00 / 23:00Tuesday: 10:00 / 23:00Wednesday: 10:00 / 23:00Thursday: 10:00 / 23:00Friday: 10:00 / 00:00Saturday: 10:00 / 00:00Sunday: 10:00 / 23:00,,,
Macau T Galleria City of dream Men's,670738,"Level 2, T Galleria Macau, 
Estrada do Istma (Coloane), 
Zona de Aterros entre as Ilhas de Coloane e da Taipa, 
Cotai StripTM, Taipa",,Macau,,,Macau,+ 853 8791 8400,22.149444,113.567138,Monday: 10:00 / 23:00Tuesday: 10:00 / 23:00Wednesday: 10:00 / 23:00Thursday: 10:00 / 23:00Friday: 10:00 / 00:00Saturday: 10:00 / 00:00Sunday: 10:00 / 23:00,,,
Seoul Lotte Main,670739,"Lotte Main Department Store 1F, 
81 Namdaemun-ro, Myeong-dong, Jung-gu",,Seoul,,,Korea (South),+82 21186106,37.564706,126.981654,"Monday: 10:30 / 20:00Tuesday: 10:30 / 20:00Wednesday: 10:30 / 20:00Thursday: 10:30 / 20:00Friday: 10:30 / 20:00Saturday: 10:30 / 20:00Sunday: 10:30 / 20:00Closed on: January 1st, Chinese New Year (variable), Korean Thanks giving day (variable) and Monthly Closing day (variable).",,,
Pangyo Hyundai,670740,"Hyundai Pangyo Department Store 1F, 
146 Pangyoyeok ro 20Gil Baekhyeon-dong, Bundang-gu, Gyeonggi-do",,Seongnam-si,,,Korea (South),+82 3151701143,37.392591,127.111982,"Monday: 10:30 / 20:00Tuesday: 10:30 / 20:00Wednesday: 10:30 / 20:00Thursday: 10:30 / 20:00Friday: 10:30 / 20:00Saturday: 10:30 / 20:00Sunday: 10:30 / 20:00Closed on: January 1st, Chinese New Year (variable), Korean Thanks giving day (variable) and Monthly Closing day (variable).",,,
Hanam Shinsegae Hanam Starfield,670741,"Shinsegae Hanam Starfield 2F, 
750 Misa-daero, Sinjang 2(i)-dong",,Hanam,,,Korea (South),+82 3180721794,37.545506,127.223636,"Monday: 10:30 / 21:00Tuesday: 10:30 / 21:00Wednesday: 10:30 / 21:00Thursday: 10:30 / 21:00Friday: 10:30 / 21:00Saturday: 10:30 / 21:00Sunday: 10:30 / 21:00Closed on: January 1st, Chinese New Year (variable), Korean Thanks giving day (variable) and Monthly Closing day (variable).",,,
Busan Hotel Lotte,670742,"Hotel Lotte Busan DFS 8F, 772, Gaya-Daero, Busanjin-gu",,Busan,,,Korea (South),+82 518167893,35.157073,129.065422,Monday: 09:30 / 20:00Tuesday:  09:30 / 20:00Wednesday:  09:30 / 20:00Thursday:  09:30 / 20:00Friday:  09:30 / 21:00Saturday:  09:30 / 21:00Sunday:  09:30 / 21:00,,,
Seoul Shilla,670743,"Hotel Shilla DFS 1F, 249, Dongho-ro, Jung-gu",,Seoul,,,Korea (South),+82 222530995,37.557129,127.007706,Monday: 09:30 / 21.00Tuesday: 09:30 / 21.00Wednesday: 09:30 / 21.00Thursday: 09:30 / 21.00Friday: 09:30 / 21.00Saturday: 09:30 / 21.00Sunday: 09:30 / 21.00,,,
Seoul Dongwha,670744,"Dongwha DFS B1F, Kwanghamoon BLDG, 149 Sejong-Daero, Jongro-gu",,Seoul,,,Korea (South),+82 23998498,37.569574,126.976152,Monday: 09:30 / 20.30Tuesday: 09:30 / 20.30Wednesday: 09:30 / 20.30Thursday: 09:30 / 20.30Friday: 09:30 / 20.30Saturday:09:30 / 20.30Sunday: 09:30 / 20.30,,,
Incheon Lotte Terminal 1,670745,"Main Terminal Lotte DFS, Incheon Airport, 272, Gonghang-ro, Jung-gu",,Incheon,,,Korea (South),+82 327432492,37.449075,126.451610,Monday: 06:30 / 21.30Tuesday: 06:30 / 21.30Wednesday: 06:30 / 21.30Thursday: 06:30 / 21.30Friday: 06:30 / 21.30Saturday:06:30 / 21.30Sunday: 06:30 / 21.30,,,
Incheon Lotte Terminal 2,670746,"Concourse Terminal Lotte DFS, 
Incheon Airport, 272, Gonghang-ro, Jung-gu",,Incheon,,,Korea (South),+82 327437807,37.449075,126.451610,Monday: 06:30 / 21.30Tuesday: 06:30 / 21.30Wednesday: 06:30 / 21.30Thursday: 06:30 / 21.30Friday: 06:30 / 21.30Saturday:06:30 / 21.30Sunday: 06:30 / 21.30,,,
Jeju Shilla,670747,"The Shilla Jeju DFS 1F, 69, Noyeon-ro, Jeju-si",,Jeju,,,Korea (South),+82 647125002,33.486127,126.487594,Monday: 10:00 / 19.30Tuesday: 10:00 / 19.30Wednesday: 10:00 / 19.30Thursday: 10:00 / 19.30Friday: 10:00 / 19.30Saturday:10:00 / 19.30Sunday: 10:00 / 19.30,,,
Ikebukuro Seibu Men's,670748,"5F, 1-28-1, Minamiikebukuro, Toshima-ku",,Ikebukuro,,,Japan,+81 339815020,35.728769,139.711661,Monday: 10:00 / 21:00Tuesday: 10:00 / 21:00Wednesday: 10:00 / 21:00Thursday: 10:00 / 21:00Friday: 10:00 / 21:00Saturday: 10:00 / 21:00Sunday: 10:00 / 20:00,,,
Shibuya Seibu,670749,"Building B 4F, 21-1, Udagawacho, Shibuya-ku",,Shibuya,,,Japan,+81 354898411,35.660758,139.700266,Monday: 10:00 / 21:00Tuesday: 10:00 / 21:00Wednesday: 10:00 / 21:00Thursday: 10:00 / 21:00Friday: 10:00 / 21:00Saturday: 10:00 / 21:00Sunday: 10:00 / 20:00,,,
Shanghai Plaza 66,670750,"Shop 218, Plaza 66, 
1266 Nanjing West Road, Jingan District",,Shanghai,,,China,+86 2152698579,31.233955,121.46015,Monday: 10:00 / 22:00Tuesday: 10:00 / 22:00Wednesday: 10:00 / 22:00Thursday: 10:00 / 22:00Friday: 10:00 / 22:00Saturday: 10:00 / 22:00Sunday: 10:00 / 22:00No closing days.,,,
Guangzhou Tai Koo Hui,670751,"Shop L119, Taikoohui, 
No383 Tianhe Road, Tianhe District",,Guangzhou,,,China,+86 2038915875,23.140021,113.337914,Monday: 10:00 / 22:00Tuesday: 10:00 / 22:00Wednesday: 10:00 / 22:00Thursday: 10:00 / 22:00Friday: 10:00 / 22:00Saturday: 10:00 / 22:00Sunday: 10:00 / 22:00No closing days.,,,
Changsha Maison Mode,670752,"Floor 1, Yunda International Plaza, 
478 Furong Zhong Lu, Section 1",,Changsha,,,China,+86 73189606130,28.208682,112.991346,Monday: 10:00 / 22:00Tuesday: 10:00 / 22:00Wednesday: 10:00 / 22:00Thursday: 10:00 / 22:00Friday: 10:00 / 22:00Saturday: 10:00 / 22:00Sunday: 10:00 / 22:00No closing days.,,,
Seoul Shilla HDC,670753,"4F, Hdc Shilla Dfs, I'Park Mall, 55, Hangang-Daero 23-Gil, Yongsan-Gu",,Seoul,,,Korea (South),+82 24903981,37.528682,126.964041,Monday: 10:00 / 21.00Tuesday: 10:00 / 21.00Wednesday: 10:00 / 21.00Thursday: 10:00 / 21.00Friday: 10:00 / 21.00Saturday:10:00 / 21.00Sunday: 10:00 / 21.00,,,
Seoul Galleria 63,670754,"1F, Galleria 63 Dfs, 50, 63-Ro, Yeongdeungpo-Gu",,Seoul,,,Korea (South),+82 221362727,37.519456,126.938559,Monday: 09:00 / 20.30Tuesday: 09:00 / 20.30Wednesday: 09:00 / 20.30Thursday: 09:00 / 20.30Friday: 09:00 / 20.30Saturday: 09:00 / 20.30Sunday: 09:00 / 20.30,,,
Bangkok Central Embassy,670755,8 1031 Ploenchit road Lumpini Pathumwan10330,,Bangkok,,,Thailand,+662 21605862,13.743954,100.546329,Monday: 10:00 / 22:00Tuesday: 10:00 / 22:00Wednesday: 10:00 / 22:00Thursday: 10:00 / 22:00Friday: 10:00 / 22:00Saturday: 10:00 / 22:00Sunday: 10:00 / 22:00,,,
Bangkok Central Chidlom Dept. Store,670756,"1027 Ploenchit Road, Lumpini Sub-District, 
Pathumwan District",,Bangkok,,,Thailand,+662 2543150,13.744259,100.544374,Monday: 10:00 / 21:00Tuesday: 10:00 / 21:00Wednesday: 10:00 / 21:00Thursday: 10:00 / 21:00Friday: 10:00 / 21:00Saturday: 10:00 / 21:00Sunday: 10:00 / 21:00,,,
Bangkok Airport,670757,"999 Moo 1, Nongprue, Bang Phli, 
Samutprakarn 10540",,Bangkok,,,Thailand,+662 26778899,13.691905,100.752196,Monday: 00:00 / 24:00Tuesday: 00:00 / 24:00Wednesday: 00:00 / 24:00Thursday: 00:00 / 24:00Friday: 00:00 / 24:00Saturday: 00:00 / 24:00Sunday: 00:00 / 24:00,,,
Brisbane Pacific Fair,670758,"2-32 Hooker Blvd, Broadbeach QLD 4218",,Brisbane,,,Australia,+61 55627700,-28.036514,153.428028,Monday: 09:30 / 19:00Tuesday: 09:30 / 19:00Wednesday: 09:30 / 19:00Thursday: 09:30 / 21:00Friday: 09:30 / 21:00Saturday: 09:00 / 17:30Sunday: 09:30 / 18:00,,,
Melbourne Bourke Street,670759,"310 Bourke Street, 3000 Victoria",,Melbourne,,,Australia,+61 96432222,-37.813299,144.964403,Monday: 09:30 / 19:00Tuesday: 09:30 / 19:00Wednesday: 09:30 / 19:00Thursday: 09:30 / 21:00Friday: 09:30 / 21:00Saturday: 09:00 / 19:00Sunday: 09:00 / 17:30,,,
Siem Reap DFS,670762,"DFS T Galleria Angkor, 
968 Vithei Charles de Gaulle, Khum Svaydangum",,Siem Reap,,,Cambodia,+885 063962511,13.366813,103.860052,Monday: 09:00 / 22:00Tuesday: 09:00 / 22:00Wednesday: 09:00 / 22:00Thursday: 09:00 / 22:00Friday: 09:00 / 22:00Saturday: 09:00 / 22:00Sunday: 09:00 / 22:00,,,
Okinawa T Galleria,670763,"Japan 900-0006 Okinawa Prefecture, Naha",,Okinawa,,,Japan,+81 989511300,26.223555,127.696724,Monday: 09:00 / 21:00Tuesday: 09:00 / 21:00Wednesday: 09:00 / 21:00Thursday: 09:00 / 21:00Friday: 09:00 / 22:00Saturday: 09:00 / 22:00Sunday: 09:00 / 21:00,,,
Macau The Wynn Esplanade,670764,"Wynn Macau
Rua Cidade de Sintra, NAPE",,Macau,,,Macau,+853 2875 1156,22.188167,113.546616,Monday: 10:00 / 00:00Tuesday: 10:00 / 00:00Wednesday: 10:00 / 00:00Thursday: 10:00 / 00:00Friday: 10:00 / 00:00Saturday: 10:00 / 00:00Sunday: 10:00 / 00:00No closing days.,,,
Singapore Airport Terminal 2,670765,"60 Airport Boulevard
Departure/Transit South
Unit No 026-082, Terminal 2
Singapore Changi Airport 819643",,Singapore,,,Singapore,+65 6546 1955,1.364399,103.987672,Monday: 06:00 / 01:00Tuesday: 06:00 / 01:00Wednesday: 06:00 / 01:00Thursday: 06:00 / 01:00Friday: 06:00 / 01:00Saturday: 06:00 / 01:00Sunday: 06:00 / 01:00,,,
Paris Printemps Men's Shoes,674297,"64, Boulevard Haussmann 75009",,Paris,,,France,+331 42 82 56 25,48.8739753,2.327792700000032,"Monday: 09:30 / 20:00Tuesday: 09:30 / 20:00Wednesday: 09:30 / 20:00Thursday: 09:30 / 20:45Friday: 09:30 / 20:00Saturday: 09:30 / 20:00Sunday: CLOSEDClosed on December 25th, January 1st, May 1st.",,,
Beijing The Peninsula,674781,"Shop G6, No. 8, Jinyu Hutong, 
Wangfujing, Dongcheng District",,Beijing,,,China,+86 10 8518 9009,39.91510150756747,116.416417634671,Monday: 11:00 / 22:00Tuesday: 11:00 / 22:00Wednesday: 11:00 / 22:00Thursday: 11:00 / 22:00Friday: 11:00 / 22:00Saturday: 11:00 / 22:00Sunday: 11:00 / 22:00,,,
Zhengzhou David Plaza,674801,"Shop L1003, David Plaza, 
188 Erqi Road, Erqi District",,Zhengzhou,,,China,+86 371 5615 7050,34.756312263699634,113.66678151163933,Monday: 10.00 / 21:30Tuesday: 10.00 / 21:30Wednesday: 10.00 / 21:30Thursday: 10.00 / 21:30Friday: 10.00 / 21:30Saturday: 10.00 / 21:30Sunday: 10.00 / 21:30,,,
Daegu Shinsegae,675424,"Shinsegae Daegu 5F, 149 Dongbu-ro, Dong-gu",,Daegu,,,Korea (South),+82 53 661 6467,35.8730511,128.62315460000002,Monday: 10:30 / 20:00Tuesday: 10:30 / 20:00Wednesday: 10:30 / 20:00Thursday: 10:30 / 20:00Friday: 10:30 / 20:30Saturday: 10:30 / 20:30Sunday: 10:30 / 20:30,,,
Seoul Hyundai Mokdong,677574,"Hyundai Mokdong 1F, 
257 Mokdongdong-ro, Yangcheon-gu",,Seoul,,,Korea (South),+82 2 2163 3233,37.526401,126.87516000000005,Monday: 10:30 / 21:00Tuesday: 10:30 / 21:00Wednesday: 10:30 / 21:00Thursday: 10:30 / 21:00Friday: 10:30 / 21:00Saturday: 10:30 / 21:00Sunday: 10:30 / 21:00,,,
Seoul Hotel Lotte,677591,"Hotel Lotte DFS 10F, 30 Eulji-Ro (Sogong-Dong), Jung-Gu",,Seoul,,,Korea (South),+82 23199626,37.5653,126.98097899999993,Monday: 09:30 / 21:00Tuesday: 09:30 / 21:00Wednesday: 09:30 / 21:00Thursday: 09:30 / 21:00Friday: 09:30 / 21:00Saturday: 09:30 / 21:00Sunday: 09:30 / 21:00,,,
Seoul Lotte World Tower,677609,"Lotte World Mall Avenuel 7F, 
300 Olympic-Ro, Songpa-Gu",,Seoul,,,Korea (South),+82 232136960,37.513689,127.1044541,Monday: 09:30 / 21.00Tuesday: 09:30 / 21.00Wednesday: 09:30 / 21.00Thursday: 09:30 / 21.00Friday: 09:30 / 21.00Saturday: 09:30 / 21.00Sunday: 09:30 / 21.00,,,
Seoul Shinsegae Main DFS,677626,"Shinsegae DFS 8F, 77 Toegye-Ro, Jung-Gu",,Seoul,,,Korea (South),+82 2 6370 4345,37.5603075,126.98083059999999,Monday: 09:00 / 21:00Tuesday: 09:00 / 21:00Wednesday: 09:00 / 21:00Thursday: 09:00 / 21:00Friday: 09:00 / 21:00Saturday: 09:00 / 21:00Sunday: 09:00 / 21:00,,,
Busan Shinsegae DFS,677645,"Shinsegae DFS 1F, Shinsegae Centumcitymall, 
15 Centum 4Ro, Haeundae-Go",,Busan,,,Korea (South),+82 517753506,35.1698686,129.12830459999998,Monday: 09:00 / 20:00Tuesday:09:00 / 20:00Wednesday: 09:00 / 20:00Thursday: 09:00 / 20:00Friday: 09:00 / 20:00Saturday: 09:00 / 20:00Sunday: 09:00 / 20:00,,,
Dubai Mall Women's,679082,"Level Shoes, Ground Floor at The Dubai Mall
Downtown Dubai",,Dubai,,,AE,+971 4 501 6910,25.1976419,55.278710000000046,Sunday to Wednesday: 10AM – 11PMThursday to Saturday: 10AM – 12AM,,,
