store_name,store_number,address,address2,city,state,zip_code,country,phone_number,latitude,longitude,store_hours,store_type,other_fields,coming_soon
Edmonton - 17215 Stony Plain Road,12657,17215 Stony Plain Road,,Edmonton,AB,T5S 2N2,Canada,(780) 444-5670,53.541325000000,-113.619684000000,,,,
Edmonton - 13338-137 Avenue,12825,13338-137 Avenue,,Edmonton,AB,T5L 2A9,Canada,(780) 406-0486,53.599598000000,-113.551685000000,,,,
Edmonton - 13733 66th Street,13150,13733 66th Street,,Edmonton,AB,T5C 3E1,Canada,(780) 406-1100,53.600557000000,-113.442819000000,,,,
Edmonton - 4214 -137th Avenue,11241,4214 -137th Avenue,,Edmonton,AB,T5Y 2W7,Canada,(780) 478-1029,53.597585000000,-113.407795000000,,,,
Lethbridge - 2416 Fairway Plaza Road South,11896,2416 Fairway Plaza Road South,,Lethbridge,AB,T1K 6Z3,Canada,(403) 380-4771,49.668049000000,-112.794865000000,,,,
Lethbridge - 1950 Third Avenue South,2502,1950 Third Avenue South,,Lethbridge,AB,T1J 0J6,Canada,(403) 329-1114,49.696298000000,-112.812971000000,,,,
Edmonton - 4212 Calgary Trail South,9597,4212 Calgary Trail South,,Edmonton,AB,T6J 6Y8,Canada,(780) 438-1202,53.478257000000,-113.495829000000,,,,
Edmonton - 6521-28 Avenue North West,10329,6521-28 Avenue North West,,Edmonton,AB,T6L 7B5,Canada,(780) 463-2322,53.458229000000,-113.432348000000,,,,
Medicine Hat - 3140 Dunmore Road S.E.,9076,3140 Dunmore Road S.E.,,Medicine Hat,AB,T1B 2X2,Canada,(403) 528-4651,50.008625000000,-110.648652000000,,,,
Redcliff - 1401 Highway Ave SE,22790,1401 Highway Ave SE,,Redcliff,AB,T0J 2T0,Canada,,50.077007000000,-110.766111000000,,,,
Viking - 5144- 54 St.,20822,5144- 54 St.,,Viking,AB,T0B 4N0,Canada,780-336-3345,53.100000000000,-111.776000000000,,,,
Red Deer - 7142 50th Avenue,12742,7142 50th Avenue,,Red Deer,AB,T4N 6A5,Canada,(403) 342-2605,52.298021000000,-113.814653000000,,,,
Crossfield - 283188 Range Rd 293,20273,283188 Range Rd 293,,Crossfield,AB,T0M0S0,Canada,403-946-4600,51.433130000000,-114.032725000000,,,,
Calgary - 11 Crowfoot Terrace Nw,10889,11 Crowfoot Terrace Nw,,Calgary,AB,T3G 4J8,Canada,(403) 215-1008,51.126885000000,-114.198908000000,,,,
Calgary - Country Hills Town Centre,12848,Country Hills Town Centre,,Calgary,AB,T3K 4Y7,Canada,(403) 215-1322,51.154276000000,-114.052935000000,,,,
Airdrie - 2805 Main Street SW,18977,2805 Main Street SW,,Airdrie,AB,T4B 3G2,Canada,(587) 360-0400,51.264400000000,-114.005000000000,,,,
"Calgary - #100, 85 Shawville Blvd. S.W.",12847,"#100, 85 Shawville Blvd. S.W.",,Calgary,AB,T2Y 3W5,Canada,(403) 215-8093,50.903858000000,-114.067526000000,,,,
Okotoks - #621 - 200 Southridge Drive,20792,#621 - 200 Southridge Drive,,Okotoks,AB,T1S 0B2,Canada,,50.705464000000,-113.951326000000,,,,
Calgary - 100 - 52nd Street NE,10936,100 - 52nd Street NE,,Calgary,AB,T2A 4K8,Canada,(403) 215-8099,51.053575000000,-113.955259000000,,,,
Calgary - 4818 - 17th Avenue S. E,10777,4818 - 17th Avenue S. E,,Calgary,AB,T2A 0V2,Canada,(403) 215-1012,51.038083000000,-113.965053000000,,,,
Calgary - 2472 - 37th Avenue NE,12971,2472 - 37th Avenue NE,,Calgary,AB,T2E 8S6,Canada,(403) 215-0640,51.086822000000,-114.003494000000,,,,
Calgary - 2000 Airport Road N.E.,18200,2000 Airport Road N.E.,,Calgary,AB,T2E6W5,Canada,(416) 221-4900,51.130740000000,-114.008360000000,,,,
Grande Prairie - 10860 - 100 Avenue,11270,10860 - 100 Avenue,,Grande Prairie,AB,T8V 7K1,Canada,(780) 814-8181,55.170780000000,-118.822656000000,,,,
Alberta - 295 Sakitawaw Trail,11969,295 Sakitawaw Trail,,McMurray,AB,T9H 4P3,Canada,(780) 743-4313,56.686066000000,-111.353742000000,,,,
Fort McMurray - Fort McMurray Airport Site1,20369,Fort McMurray Airport Site1,,Fort McMurray,AB,T9H5B4,Canada,(780) 743-9484,56.656364000000,-111.223863000000,,,,
"Cranbrook - 513 Cranbrook Street, North",8998,"513 Cranbrook Street, North",,Cranbrook,BC,V1C 3R5,Canada,(250) 489-2622,49.517223000000,-115.762618000000,,,,
Fort St. John - 11103 Alaska Road,22181,11103 Alaska Road,,Fort St. John,BC,V1J 0P1,Canada,250 785 2522,56.242564000000,-120.867638000000,,,,
Kamloops - 1699 Trans Canada Hwy E,17819,1699 Trans Canada Hwy E,,Kamloops,BC,V2C 3Z5,Canada,(778) 471-5977,50.675220000000,-120.291430000000,,,,
Vernon - 2505-53rd Avenue,13991,2505-53rd Avenue,,Vernon,BC,V1T 8G4,Canada,(250) 545-1312,50.285216000000,-119.264916000000,,,,
Surrey - 10344 King George Boulevard,3341,10344 King George Boulevard,,Surrey,BC,V3T 2W5,Canada,(604) 584-3371,49.190610000000,-122.845253000000,,,,
"Surrey - 10153 King George Hwy, Central City",18301,"10153 King George Hwy, Central City",,Surrey,BC,V3T 2W6,Canada,(778) 359-8005,49.186630000000,-122.850320000000,,,,
Surrey - 660-7488 King George Highway,8302,660-7488 King George Highway,,Surrey,BC,V3W 0H9,Canada,(604) 594-8303,49.139094000000,-122.845505000000,,,,
Penticton - 1717 Main Street,3378,1717 Main Street,,Penticton,BC,V2A 5G9,Canada,(250) 493-8411,49.479507000000,-119.584432000000,,,,
Kelowna - 2091 Harvey Avenue,3100,2091 Harvey Avenue,,Kelowna,BC,V1Y 1B7,Canada,(250) 868-2530,49.881820000000,-119.444505000000,,,,
"Westbank - Hub North, 100-2139 Louie Dr.",16931,"Hub North, 100-2139 Louie Dr.",,Westbank,BC,V4T 3E6,Canada,(250) 707-1210,49.839460000000,-119.611840000000,,,,
Maple Ridge - 20290 Lougheed Highway,6811,20290 Lougheed Highway,,Maple Ridge,BC,V2X 2P7,Canada,(604) 465-7149,49.219562000000,-122.659553000000,,,,
Langley - 19996 Fraser Highway,3918,19996 Fraser Highway,,Langley,BC,V3A 4E3,Canada,(604) 530-0884,49.108921000000,-122.669008000000,,,,
Port Coquitlam - 879 Village Drive,18951,879 Village Drive,,Port Coquitlam,BC,V3B0G9,Canada,(604) 474-2820,49.251180000000,-122.737100000000,,,,
Coquitlam - 2735 Barnet Highway,2900,2735 Barnet Highway,,Coquitlam,BC,V3E 1K9,Canada,(604) 464-8821,49.277915000000,-122.810005000000,,,,
Chilliwack - 45625 Luckakuck Way,3195,45625 Luckakuck Way,,Chilliwack,BC,V2R 1A1,Canada,(604) 858-4148,49.140812000000,-121.961387000000,,,,
Mission - 32471 Lougheed Hwy,18970,32471 Lougheed Hwy,,Mission,BC,V2V 0C8,Canada,(604) 437-4012,49.132970000000,-122.326150000000,,,,
Abbotsford - 1843 Sumas Way,14419,1843 Sumas Way,,Abbotsford,BC,V2S 4L5,Canada,(604) 859-7555,49.035771000000,-122.267569000000,,,,
Abbotsford - 31930 South Fraser Way,9099,31930 South Fraser Way,,Abbotsford,BC,V2T 1V6,Canada,(604) 556-3779,49.048842000000,-122.339339000000,,,,
Victoria - 1681 Old Island Highway,13574,1681 Old Island Highway,,Victoria,BC,V9B 1H9,Canada,(250) 478-3039,48.451987000000,-123.462698000000,,,,
Victoria - 1328 Douglas Street,18215,1328 Douglas Street,,Victoria,BC,V8W 2E8,Canada,(250) 384-5464,48.427200000000,-123.364810000000,,,,
Victoria - 910 Government Street,19204,910 Government Street,,Victoria,BC,V8W1Y3,Canada,(778) 265-3191,48.423870000000,-123.368070000000,,,,
Duncan - 361 Trans-Canada Highway,20587,361 Trans-Canada Highway,,Duncan,BC,V9L3R5,Canada,(250) 748-8852,48.778917000000,-123.698986000000,,,,
Burnaby - Metropolis at Metrotown,14160,Metropolis at Metrotown,,Burnaby,BC,V5H 4M1,Canada,(604) 433-5181,49.228300000000,-122.999000000000,,,,
New Westminster - 1035 Columbia St,6271,1035 Columbia St,,New Westminster,BC,V3M 1C4,Canada,(604) 522-8100,49.200166000000,-122.917164000000,,,,
"Surrey - 10355 - 120 Street, Pacific Link, B",18332,"10355 - 120 Street, Pacific Link, B",,Surrey,BC,V3V 0C1,Canada,(604) 582-4186,49.190770000000,-122.890140000000,,,,
Burnaby - CRU 145 - 7155 Kingsway,19780,CRU 145 - 7155 Kingsway,,Burnaby,BC,V5E 4N7,Canada,(604) 533-4849,49.218540000000,-122.955260000000,,,,
"Delta - Unit 1B, 10119 Swenson Way",11918,"Unit 1B, 10119 Swenson Way",,Delta,BC,V4G 1J3,Canada,(604) 580-2191,49.152252000000,-122.941416000000,,,,
Nanaimo - 1150 North Terminal Avenue,2540,1150 North Terminal Avenue,,Nanaimo,BC,V9S 5L6,Canada,(250) 754-7124,49.183589000000,-123.955287000000,,,,
Surrey - 12525 88th Street,15397,12525 88th Street,,Surrey,BC,V3W 3J7,Canada,(604) 598-0855,49.163134000000,-122.875621000000,,,,
Richmond - Coppersmith Corner Shopping Centre,13645,Coppersmith Corner Shopping Centre,,Richmond,BC,V7A 1N6,Canada,(604) 277-1818,49.133020000000,-123.097075000000,,,,
Richmond - 1805-4720 Mcclelland Rd.,22563,1805-4720 Mcclelland Rd.,,Richmond,BC,V6X-0M6,Canada,,49.178812000000,-123.124210000000,,,,
Richmond - 8575 Sea Island Way,16533,8575 Sea Island Way,,Richmond,BC,V6X 0A8,Canada,(604) 247-2510,49.190995000000,-123.130055000000,,,,
"Richmond - Vancouver Airport, post-security",13180,"Vancouver Airport, post-security",,Richmond,BC,V7B 1X8,Canada,(604) 231-3731,49.208862000000,-123.200530000000,,,,
Vancouver - 612 West Pender Street,20468,612 West Pender Street,,Vancouver,BC,V6B 1V8,Canada,,49.284054000000,-123.114143000000,,,,
Vancouver - 821 Granville Street,16608,821 Granville Street,,Vancouver,BC,V6Z 1K9,Canada,(604) 681-8895,49.281104000000,-123.120245000000,,,,
N. Vancouver - 801 Marine Drive,18231,801 Marine Drive,,N. Vancouver,BC,V7P 3K6,Canada,(604) 971-5100,49.321000000000,-123.094940000000,,,,
"Vancouver - 1030 Denman Street, Denman Place Ma",19137,"1030 Denman Street, Denman Place Ma",,Vancouver,BC,V6G2M6,Canada,(604) 620-0240,49.288890000000,-123.139170000000,,,,
Squamish - 1814 Garabaldi Way,12358,1814 Garabaldi Way,,Squamish,BC,V8B 0P9,Canada,(604) 898-0700,49.745582000000,-123.137848000000,,,,
Prince George - 1023 Central Street West,2580,1023 Central Street West,,Prince George,BC,V2M 3C9,Canada,(250) 561-8700,53.914986000000,-122.782239000000,,,,
Courtenay - 2751 Cliffe Avenue,10934,2751 Cliffe Avenue,,Courtenay,BC,V9N 2L8,Canada,(250) 703-4721,49.674948000000,-124.981984000000,,,,
Portage La Prairie - 2208 Saskatchewan Avenue West,16897,2208 Saskatchewan Avenue West,,Portage La Prairie,MB,R1N 0P3,Canada,(204) 239-6552,49.971244000000,-98.317369000000,,,,
Brandon - 1605 - 18th Street South,3199,1605 - 18th Street South,,Brandon,MB,R7A 5C6,Canada,(204) 727-2329,49.825601000000,-99.961440000000,,,,
Winnipeg - 1496 St. Mary's Road,3254,1496 St. Mary's Road,,Winnipeg,MB,R2M 3V6,Canada,(204) 987-8425,49.826624000000,-97.114625000000,,,,
Winnipeg - Unicity Mall,14065,Unicity Mall,,Winnipeg,MB,R3K 2G6,Canada,(204) 987-8436,49.882195000000,-97.334900000000,,,,
Winnipeg - 2829 Pembina Highway,11895,2829 Pembina Highway,,Winnipeg,MB,R3B 3H6,Canada,(204) 987-8432,49.789705000000,-97.157549000000,,,,
Winnipeg - 333 Home Street,4933,333 Home Street,,Winnipeg,MB,R3G 1X5,Canada,(204) 987-8428,49.886981000000,-97.168051000000,,,,
Winnipeg - 71 Vermillion Road,5292,71 Vermillion Road,,Winnipeg,MB,R2J 3W7,Canada,(204) 987-8429,49.853965000000,-97.074132000000,,,,
Winnipeg - 244 Osborne Street,12214,244 Osborne Street,,Winnipeg,MB,R3L 1Z5,Canada,(204) 987-8433,49.874694000000,-97.142080000000,,,,
Winnipeg - 1140 Taylor Avenue,16522,1140 Taylor Avenue,,Winnipeg,MB,R3M 3Z4,Canada,(204) 987-8355,49.853660000000,-97.165980000000,,,,
Winnipeg - 1430 Mcphillips Street,3168,1430 Mcphillips Street,,Winnipeg,MB,R2V 3C5,Canada,(204) 987-8423,49.942810000000,-97.157042000000,,,,
Winnipeg - 1640 Main Street,13200,1640 Main Street,,Winnipeg,MB,R2V 1Y4,Canada,(204) 987-8434,49.932804000000,-97.122106000000,,,,
Winnipeg - 1571 Regent Avenue West,3455,1571 Regent Avenue West,,Winnipeg,MB,R2C 3B3,Canada,(204) 987-8426,49.897840000000,-97.065676000000,,,,
Winnipeg - 1033 Notre Dame Ave,4277,1033 Notre Dame Ave,,Winnipeg,MB,R3E 0N4,Canada,(204) 987-8427,49.905913000000,-97.173104000000,,,,
Moncton - 465 Paul Street,2753,465 Paul Street,,Moncton,NB,E1A 5R4,Canada,(506) 855-2772,46.096827000000,-64.757232000000,,,,
Moncton - 908 Mountain Road,4768,908 Mountain Road,,Moncton,NB,E1C 2S2,Canada,(506) 384-1460,46.101592000000,-64.813198000000,,,,
Sussex - 180 Main Street,18615,180 Main Street,,Sussex,NB,E4E 3E2,Canada,(506) 944-4400,45.724860000000,-65.527290000000,,,,
Bathurst - 725 St. Peter Avenue,4559,725 St. Peter Avenue,,Bathurst,NB,E2A 2Y9,Canada,(506) 548-5011,47.631975000000,-65.668904000000,,,,
Miramichi - 2499 King George Hwy.,8534,2499 King George Hwy.,,Miramichi,NB,E1V 6W3,Canada,(506) 773-7351,47.030742000000,-65.489754000000,,,,
Frederickton - 590 Two Nations Crossing,23282,590 Two Nations Crossing,,Frederickton,NB,E3A 0L8,Canada,,45.983340000000,-66.613322000000,,,,
Saint John - 330 Rothesay Avenue,3371,330 Rothesay Avenue,,Saint John,NB,E2J 2C2,Canada,(506) 657-5400,45.295781000000,-66.040768000000,,,,
Saint John - 777 Fairville Boulevard,4563,777 Fairville Boulevard,,Saint John,NB,E2M 5T8,Canada,(506) 635-8335,45.252848000000,-66.097967000000,,,,
Fredericton - 1140 Smythe Street,3422,1140 Smythe Street,,Fredericton,NB,E3B 3H5,Canada,(506) 453-1462,45.944088000000,-66.668315000000,,,,
Hanwell - 1735 Hanwell Rd.,20441,1735 Hanwell Rd.,,Hanwell,NB,E3C 2B9,Canada,(506) 328-4631,45.929427000000,-66.717740000000,,,,
"St. Stephen - 5 Route 170,",22558,"5 Route 170,",,St. Stephen,NB,E3L 2Y7,Canada,506-466-1841,45.206614000000,-67.271030000000,,,,
Grand Falls - 100 Broadway Street,11060,100 Broadway Street,,Grand Falls,NB,E3Z 1B7,Canada,(506) 473-4600,47.049237000000,-67.737939000000,,,,
Madawaska Maliseet Frst Nation - 10 Mahsus Court,20588,10 Mahsus Court,,Madawaska Maliseet Frst Nation,NB,E7C 0B6,Canada,1-506-739-8584,47.373397000000,-68.302388000000,,,,
Charlottetown - 473 University Avenue,2576,473 University Avenue,,Charlottetown,PE,C1A 4N8,Canada,(902) 894-3313,46.251762000000,-63.138621000000,,,,
St. John's - 520 Topsail Road,3382,520 Topsail Road,,St. John's,NL,A1E-2C5,Canada,(709) 368-0001,47.530243000000,-52.758045000000,,,,
St. John's - 38-42 Ropewalk Lane,21642,38-42 Ropewalk Lane,,St. John's,NL,A1E 5T2,Canada,,47.556371000000,-52.733993000000,,,,
St. John's - 144 Torbay Road,18409,144 Torbay Road,,St. John's,NL,A1A 2H3,Canada,(709) 726-0508,47.595280000000,-52.709460000000,,,,
Sydney - 380 Welton Street,2747,380 Welton Street,,Sydney,NS,B1P 5S4,Canada,(902) 539-2555,46.144411000000,-60.161760000000,,,,
Sydney River - 125 Keltic Drive,14390,125 Keltic Drive,,Sydney River,NS,B1S 1P4,Canada,(902) 539-6410,46.111662000000,-60.225456000000,,,,
New Glasgow - 707 Westville Road,18331,707 Westville Road,,New Glasgow,NS,B2H 2L6,Canada,(902) 755-2203,45.578950000000,-62.662690000000,,,,
Lunenburg - 1 Falkland Street,19926,1 Falkland Street,,Lunenburg,NS,B0J 2C0,Canada,(902) 634-9495,44.378349000000,-64.317638000000,,,,
New Minas - 9148 Commercial Street,2030,9148 Commercial Street,,New Minas,NS,B4N 3E5,Canada,(902) 681-1203,45.067187000000,-64.450758000000,,,,
Halifax - 6049 Young Street,11584,6049 Young Street,,Halifax,NS,B3K 2A1,Canada,(902) 454-7676,44.659325000000,-63.603082000000,,,,
Dartmouth - 75 Tacoma Drive,3950,75 Tacoma Drive,,Dartmouth,NS,B2W 3E7,Canada,(902) 435-1136,44.680532000000,-63.537637000000,,,,
Truro - 99 Robie Street,3770,99 Robie Street,,Truro,NS,B2N 1K8,Canada,(902) 895-0333,45.367910000000,-63.312583000000,,,,
Sackville - 641 Sackville Drive (hwy 1),2476,641 Sackville Drive (hwy 1),,Sackville,NS,B4C 2S4,Canada,(902) 865-9396,44.769209000000,-63.687905000000,,,,
Enfield - 6757 Hwy 2,21229,6757 Hwy 2,,Enfield,NS,B2T 1C8,Canada,,44.926800000000,-63.544589000000,,,,
Halifax - 121 Ilsley Avenue,9612,121 Ilsley Avenue,,Halifax,NS,B3B 1S4,Canada,(902) 468-7130,44.697453000000,-63.584857000000,,,,
Halifax - 209 Chain Lake Drive,10074,209 Chain Lake Drive,,Halifax,NS,B3S 1C9,Canada,(902) 450-1169,44.652055000000,-63.676457000000,,,,
Yarmouth - 57 Starrs Rd,20240,57 Starrs Rd,,Yarmouth,NS,B5A3B5,Canada,(902) 742-5231,43.840737000000,-66.097491000000,,,,
"Prescott - 955 Edwards Street, P.O. Box 1060",5829,"955 Edwards Street, P.O. Box 1060",,Prescott,ON,K0E 1T0,Canada,(613) 925-1323,44.717359000000,-75.521125000000,,,,
Brockville - 3000 Jefferson Drive,3393,3000 Jefferson Drive,,Brockville,ON,K6V 6N3,Canada,(613) 342-0992,44.600133000000,-75.704063000000,,,,
Gatineau - 104 boul. Greber,4689,104 boul. Greber,,Gatineau,QC,J8T 6H5,Canada,(819) 568-5159,45.466162000000,-75.700333000000,,,,
Vanier - 199 Montreal Road,12882,199 Montreal Road,,Vanier,ON,K1L 6E2,Canada,(613) 744-7016,45.435408000000,-75.663364000000,,,,
Ottawa - 1804 St. Laurent Boulevard,2275,1804 St. Laurent Boulevard,,Ottawa,ON,K1G 1A2,Canada,(613) 523-7433,45.404053000000,-75.625986000000,,,,
Cumberland - 2035 10th Line Road,12978,2035 10th Line Road,,Cumberland,ON,K4A 4C5,Canada,(613) 837-5554,45.459097000000,-75.486681000000,,,,
Kanata - 700 March Road,8640,700 March Road,,Kanata,ON,K2K 2V6,Canada,(613) 599-7102,45.349427000000,-75.925135000000,,,,
Smith Falls - 70 Beckwith Street North,4428,70 Beckwith Street North,,Smith Falls,ON,K7A 2B7,Canada,(613) 283-7679,44.902636000000,-76.021737000000,,,,
Nepean - 527 West Hunt Club Road,11885,527 West Hunt Club Road,,Nepean,ON,K2G 5W5,Canada,(613) 727-5840,45.334107000000,-75.725732000000,,,,
"Ottawa - 1356 Clyde Avenue, Suite #16",8818,"1356 Clyde Avenue, Suite #16",,Ottawa,ON,K2C 3Z4,Canada,(613) 723-9039,45.362021000000,-75.740192000000,,,,
Hudson - 100 Route 201,10003,100 Route 201,,Rigaud,QC,J0P 1P0,Canada,(450) 458-5194,45.448757000000,-74.136364000000,,,,
Hawkesbury - 314 Main Street East,5588,314 Main Street East,,Hawkesbury,ON,K6A 1A5,Canada,(613) 632-2615,45.610131000000,-74.606940000000,,,,
Odessa - 3745 Highway 401 Eastbound,18025,3745 Highway 401 Eastbound,,Odessa,ON,K0H 2H0,Canada,(613) 634-2300,44.284390000000,-76.656330000000,,,,
Kingston - 400 Princess Street,5079,400 Princess Street,,Kingston,ON,K7L 1B8,Canada,(613) 531-8596,44.233209000000,-76.492473000000,,,,
Napanee - Highway 401 Westbound,18024,Highway 401 Westbound,,Napanee,ON,K7R 1P7,Canada,(613) 386-1300,44.279290000000,-76.802940000000,,,,
Belleville - 298 North Front Street,2564,298 North Front Street,,Belleville,ON,K8P 3C4,Canada,(613) 966-9797,44.184321000000,-77.394414000000,,,,
St. Isidore - 5715 Chemin De Conte #9,10005,5715 Chemin De Conte #9,,St. Isidore,ON,K0C 2B0,Canada,(613) 524-3494,45.448757000000,-74.136364000000,,,,
Cornwall - 1317 Second Street East,6203,1317 Second Street East,,Cornwall,ON,K6H 2B6,Canada,(613) 937-3877,45.025688000000,-74.706027000000,,,,
Bainsville - Hwy 401 Westbound Exit Curry Hill #,17815,Hwy 401 Westbound Exit Curry Hill #,,Bainsville,ON,K0C 1E0,Canada,(613) 347-9939,45.202990000000,-74.368130000000,,,,
Whitby - 1650 Victoria Street East,10146,1650 Victoria Street East,,Whitby,ON,L1N 9L4,Canada,(905) 436-6556,43.866975000000,-78.901339000000,,,,
Ajax - 4 Harwood Avenue,22454,4 Harwood Avenue,,Ajax,ON,L1S 7L8,Canada,905-683-9746,43.860411000000,-79.026768000000,,,,
Ajax - 345 Mckenzie Avenue,2516,345 Mckenzie Avenue,,Ajax,ON,L1S 2G2,Canada,(905) 686-2331,43.841244000000,-79.027340000000,,,,
Pickering - Steeple Hill Shopping Centre,12990,Steeple Hill Shopping Centre,,Pickering,ON,L1V 1A6,Canada,(905) 837-8273,43.817835000000,-79.117270000000,,,,
Peterborough - 750 Lansdowne Street West,2065,750 Lansdowne Street West,,Peterborough,ON,K9J 1Z3,Canada,(705) 748-2020,44.284454000000,-78.335306000000,,,,
Morrisburg - Highway 401 Eastbound Between Exit,17816,Highway 401 Eastbound Between Exit,,Morrisburg,ON,K0C 1X0,Canada,(613) 543-1940,44.984452000000,-75.129540000000,,,,
Ingleside - 764 Highway 401 Westbound,18016,764 Highway 401 Westbound,,Ingleside,ON,K0C 1M0,Canada,(613) 543-0771,44.972250000000,-75.080607000000,,,,
Cornwall - 1319 Brookdale Avenue,1879,1319 Brookdale Avenue,,Cornwall,ON,K6J 4P9,Canada,(613) 938-3536,45.029870000000,-74.753780000000,,,,
Casselman - 625 Principal,10004,625 Principal,,Casselman,ON,K0A 1M0,Canada,(613) 764-3112,45.357788000000,-74.987316000000,,,,
Bowmanville - 105 Clarington Boulevard,10151,105 Clarington Boulevard,,Bowmanville,ON,L1C 4Z3,Canada,(905) 697-2533,43.910307000000,-78.707791000000,,,,
Orillia - 269 Memorial Avenue,3230,269 Memorial Avenue,,Orillia,ON,L3V 5X9,Canada,(705) 327-8626,44.594602000000,-79.424255000000,,,,
Oshawa - 338 King Street West,2632,338 King Street West,,Oshawa,ON,L1J 2J9,Canada,(905) 571-2334,43.894801000000,-78.875899000000,,,,
"Orillia - R.R.#4, Box 10, Orillia Sq Mall",5859,"R.R.#4, Box 10, Orillia Sq Mall",,Orillia,ON,L3V 6Z6,Canada,(705) 327-5067,44.631511000000,-79.437901000000,,,,
"Lindsay - 401 Kent St. W., Lindsay Sq. Mall",7255,"401 Kent St. W., Lindsay Sq. Mall",,Lindsay,ON,K9V 4Z1,Canada,(705) 878-1781,44.350005000000,-78.759445000000,,,,
Oshawa - Five Points Mall - 275 Tauton Road,19779,Five Points Mall - 275 Tauton Road,,Oshawa,ON,L1G3V2,Canada,(905) 720-0996,43.934970000000,-78.868580000000,,,,
Port Hope - 845 Highway 401 Eastbound,18104,845 Highway 401 Eastbound,,Port Hope,ON,L1A3W3,Canada,(905) 786-2100,43.943220000000,-78.430670000000,,,,
Montréal - 55 boul. Crémazie Ouest,12829,55 boul. Crémazie Ouest,,Montréal,QC,H2N 1L3,Canada,(514) 389-9542,45.540918000000,-73.642397000000,,,,
Montréal-Nord - 6150 boul. Henri-Bourassa Est,14554,6150 boul. Henri-Bourassa Est,,Montréal-Nord,QC,H1G 5X3,Canada,(514) 325-1343,45.608401000000,-73.614606000000,,,,
Laval - 1505 boul. St-Martin Ouest,3107,1505 boul. St-Martin Ouest,,Laval,QC,H7S 1N2,Canada,(450) 669-1736,45.569809000000,-73.730007000000,,,,
Dorval - Aéroport Montréal-Trudeau,10905,Aéroport Montréal-Trudeau,,Dorval,QC,H4Y 1H2,Canada,(514) 633-9972,45.457677000000,-73.750997000000,,,,
Ville Mont-Royal - Centre Rockland,15515,Centre Rockland,,Ville Mont-Royal,QC,H3P 3E9,Canada,(514) 340-1378,45.526635000000,-73.648664000000,,,,
Montréal - 5300 rue Jean-Talon Ouest,14326,5300 rue Jean-Talon Ouest,,Montréal,QC,H4P 2T5,Canada,(514) 731-0001,45.493833000000,-73.653749000000,,,,
Pembroke - 930 Pembroke Street East,5370,930 Pembroke Street East,,Pembroke,ON,K8A 3M2,Canada,(613) 735-0004,45.824815000000,-77.087852000000,,,,
Deep River - #3 Highway 17 West,8642,#3 Highway 17 West,,Deep River,ON,K0J 1P0,Canada,(613) 584-9367,46.097318000000,-77.493956000000,,,,
Toronto - 3003 Danforth Avenue,12100,3003 Danforth Avenue,,Toronto,ON,M4C 1M9,Canada,(416) 686-7191,43.690909000000,-79.288373000000,,,,
Oakville - 1289-1297 Marlborough Court,12215,1289-1297 Marlborough Court,,Oakville,ON,L6H 2R9,Canada,(905) 849-9973,43.469357000000,-79.693494000000,,,,
Mississauga - 1490 Dixie Road,994,1490 Dixie Road,,Mississauga,ON,L5E 1V4,Canada,(905) 274-1607,43.593502000000,-79.563938000000,,,,
Mississauga - Square One Shopping Centre,15365,Square One Shopping Centre,,Mississauga,ON,L5B 2C9,Canada,(905) 279-5005,43.592019000000,-79.644500000000,,,,
Mississauga - 6465 Mississauga Road North,3283,6465 Mississauga Road North,,Mississauga,ON,L5N 1A6,Canada,(905) 821-3464,43.597741000000,-79.735880000000,,,,
Orangeville - 336 Broadway,22086,336 Broadway,,Orangeville,ON,L9W 2Y9,Canada,,43.914584000000,-80.118607000000,,,,
Oakville - 240 Wyecroft Road,21298,240 Wyecroft Road,,Oakville,ON,L6K 2G7,Canada,,43.445880000000,-79.696400000000,,,,
Scarborough - 1607 Birchmount Road,13729,1607 Birchmount Road,,Scarborough,ON,M1P 2J3,Canada,(416) 292-8840,43.763709000000,-79.291440000000,,,,
Scarborough - 2571 Lawrence Avenue East,999,2571 Lawrence Avenue East,,Scarborough,ON,M1P 4W5,Canada,(416) 757-2401,43.751185000000,-79.266422000000,,,,
Brampton - 195 Fletchers Creek Blvd,17789,195 Fletchers Creek Blvd,,Brampton,ON,L6X 0Y7,Canada,(905) 874-8788,43.691340000000,-79.803010000000,,,,
Oakville - 2460 Winston Churchill Blvd.,10100,2460 Winston Churchill Blvd.,,Oakville,ON,L6H 6J5,Canada,(905) 829-4792,43.522260000000,-79.678160000000,,,,
Cambridge - 561 Hespeler Road,14327,561 Hespeler Road,,Cambridge,ON,N1R 6J2,Canada,(519) 623-2402,43.402531000000,-80.326188000000,,,,
"Niagara Falls - 4030 Montrose Rd., Brockway Pl.",8638,"4030 Montrose Rd., Brockway Pl.",,Niagara Falls,ON,L2H 3E1,Canada,(905) 357-4907,43.114286000000,-79.124395000000,,,,
Hamilton - Lloyd D. Jackson Square,12773,Lloyd D. Jackson Square,,Hamilton,ON,L8P 1A1,Canada,(905) 523-1368,43.256869000000,-79.868994000000,,,,
"Guelph - 200 Silvercreek Parkway, North",2774,"200 Silvercreek Parkway, North",,Guelph,ON,N1H 7P7,Canada,(519) 763-8281,43.541747000000,-80.282856000000,,,,
St. Catharines - 318 Ontario Street,3093,318 Ontario Street,,St. Catharines,ON,L2R 5L8,Canada,(905) 682-3428,43.170055000000,-79.264464000000,,,,
Barrie - 320 Bayfield StreeT,2023,320 Bayfield StreeT,,Barrie,ON,L4M 3C1,Canada,(705) 728-6780,44.401996000000,-79.701145000000,,,,
Burlington - Burlington Ret. Power Ctr (S) Ltd.,11897,Burlington Ret. Power Ctr (S) Ltd.,,Burlington,ON,L7P 1X8,Canada,(905) 335-8536,43.344160000000,-79.825933000000,,,,
Hamilton - 210 Centennial Parkway North,2426,210 Centennial Parkway North,,Hamilton,ON,L8E 4A1,Canada,(905) 561-2194,43.235906000000,-79.755737000000,,,,
"Midland - Mountainview Mall, /R.R. #2",4597,"Mountainview Mall, /R.R. #2",,Midland,ON,L4R 4K4,Canada,(705) 527-7226,44.736731000000,-79.908902000000,,,,
Burlington - 3295 Fairview St.,20355,3295 Fairview St.,,Burlington,ON,L7N 3N9,Canada,(905) 639-5858,43.353100000000,-79.787680000000,,,,
Toronto - The Exchange Tower,12098,The Exchange Tower,,Toronto,ON,M5X 1A6,Canada,(416) 361-1468,43.648569000000,-79.381920000000,,,,
Toronto - 200 Wellington Street West,16521,200 Wellington Street West,,Toronto,ON,M5V 3C7,Canada,(416) 593-6996,43.646035000000,-79.385706000000,,,,
Toronto - 1194 King Street West,5141,1194 King Street West,,Toronto,ON,M6K 1E6,Canada,(416) 588-4955,43.638996000000,-79.427177000000,,,,
Scarborough - Cedarbrae Mall,13330,Cedarbrae Mall,,Scarborough,ON,M1H 1B3,Canada,(416) 431-5816,43.759576000000,-79.225416000000,,,,
Toronto - 243 Yonge Street,972,243 Yonge Street,,Toronto,ON,M5B 1N8,Canada,(416) 368-7190,43.654610000000,-79.380180000000,,,,
Toronto - 940 Lawrence Avenue West,709,940 Lawrence Avenue West,,Toronto,ON,M6A 1C4,Canada,(416) 256-9439,43.713681000000,-79.456816000000,,,,
Mississauga - 1022 Eglinton Avenue East,22087,1022 Eglinton Avenue East,,Mississauga,ON,L4W 1K3,Canada,,43.627679000000,-79.628856000000,,,,
Mississauga - 5645 Hurontario Street,5516,5645 Hurontario Street,,Mississauga,ON,L4Z 1S7,Canada,(905) 890-5780,43.618842000000,-79.669249000000,,,,
Toronto - 3850 Shepard Avenue East,14352,3850 Shepard Avenue East,,Toronto,ON,M1T 3L4,Canada,,43.782439000000,-79.292114000000,,,,
"Mississauga - 4141 Dixie Road, Rockwood Mall",2666,"4141 Dixie Road, Rockwood Mall",,Mississauga,ON,L4W 1V5,Canada,(905) 624-1664,43.625085000000,-79.605711000000,,,,
Etobicoke - 1560 The Queensway,11980,1560 The Queensway,,Etobicoke,ON,M8Z 1T5,Canada,(416) 201-8239,43.618211000000,-79.539199000000,,,,
Scarborough - 100 Eglinton Square,1024,100 Eglinton Square,,Scarborough,ON,M1L 2K1,Canada,(416) 752-3681,43.723772000000,-79.301387000000,,,,
Toronto - 267 College Street,12099,267 College Street,,Toronto,ON,M5T 1R6,Canada,(416) 591-9999,43.658000000000,-79.399679000000,,,,
Mississauga - 769 Burnhamthorpe Road West,10099,769 Burnhamthorpe Road West,,Mississauga,ON,L5A 3K5,Canada,(905) 281-0932,43.607352000000,-79.619499000000,,,,
Mississauga - 7014 Torbram Road,17047,7014 Torbram Road,,Mississauga,ON,L4T 3Y3,Canada,(905) 676-1573,43.694955000000,-79.653674000000,,,,
North York - 1615 Wilson Avenue,12109,1615 Wilson Avenue,,North York,ON,M3L 1A5,Canada,(416) 249-9552,43.720207000000,-79.511757000000,,,,
North York - 1077 Wilson Ave.,12989,1077 Wilson Ave.,,North York,ON,M3K 1G7,Canada,(416) 638-2222,43.726631000000,-79.481938000000,,,,
Mississauga - 6010 Dixie Road,14733,6010 Dixie Road,,Mississauga,ON,L5T 1A6,Canada,(905) 670-1870,43.655824000000,-79.648369000000,,,,
Woodbridge - 200 Winges Road,13329,7560 Weston Road,,"Vaughan, ON",ON,L4L 6C5,Canada,(905) 264-8994,43.786501000000,-79.546992000000,,,,
Brampton - Bramalea City Centre,12512,Bramalea City Centre,,Brampton,ON,L6T 3R5,Canada,(905) 793-3228,43.715466000000,-79.725335000000,,,,
Brampton - 285 Queen Street East,3074,285 Queen Street East,,Brampton,ON,L6W 2C2,Canada,(905) 453-5818,43.702797000000,-79.741397000000,,,,
Etobicoke - 6630 Finch Avenue West,12824,6630 Finch Avenue West,,Etobicoke,ON,M9W 0B3,Canada,(416) 679-9556,43.734144000000,-79.603440000000,,,,
North York - 2372 Finch Avenue West,3187,2372 Finch Avenue West,,North York,ON,M9M 2W8,Canada,(416) 749-9087,43.751744000000,-79.544084000000,,,,
Markham - 3088 Highway 7 East,13663,3088 Highway 7 East,,Markham,ON,L3R 0J4,Canada,(905) 479-8594,43.851038000000,-79.355120000000,,,,
"Etobicoke - 500 Rexdale Blvd., Unit L011",13101,"500 Rexdale Blvd., Unit L011",,Etobicoke,ON,M9W 6K5,Canada,(416) 679-8777,43.717704000000,-79.597113000000,,,,
Vaughan - 23 Jacob Keffer Parkway,12988,23 Jacob Keffer Parkway,,Vaughan,ON,L4K 5N8,Canada,(905) 303-6428,43.836217000000,-79.505685000000,,,,
Brampton - 2919 Queen Street East,12913,2919 Queen Street East,,Brampton,ON,L6V 4K2,Canada,(905) 789-9259,43.740476000000,-79.698708000000,,,,
Waterloo - 150 University Ave West,17885,150 University Ave West,,Waterloo,ON,N2L 3E4,Canada,(519) 884-4426,43.472589000000,-80.535740000000,,,,
Niagara Falls - 6235 Lundy's Lane,2754,6235 Lundy's Lane,,Niagara Falls,ON,L2G 1T5,Canada,(905) 357-3210,43.089456000000,-79.098441000000,,,,
Kitchener - 809 Victoria St. North,4923,809 Victoria St. North,,Kitchener,ON,N2B 3C3,Canada,(519) 578-1391,43.463284000000,-80.466986000000,,,,
Welland - 724 Niagara Street,5770,724 Niagara Street,,Welland,ON,L3C 1M3,Canada,(905) 788-2811,43.013879000000,-79.249865000000,,,,
Tillsonburg - 540 Broadway Street North,13103,540 Broadway Street North,,Tillsonburg,ON,N4G 3S7,Canada,(519) 842-9779,42.875907000000,-80.743799000000,,,,
Woodstock - 545 Norwich Avenue,15396,545 Norwich Avenue,,Woodstock,ON,N4V 1C7,Canada,(519) 539-8650,43.114349000000,-80.737257000000,,,,
Niagara Falls - 6380 Fallsview Boulevard,22557,6380 Fallsview Boulevard,,Niagara Falls,ON,L2G 7Y6,Canada,,43.082583000000,-79.081261000000,,,,
Niagara Falls - 4967 Clifton Hill,3686,4967 Clifton Hill,,Niagara Falls,ON,L2G 3N5,Canada,(905) 357-3550,43.091755000000,-79.075643000000,,,,
Woodstock - 164-680 Highway 401 Eastbound,18105,164-680 Highway 401 Eastbound,,Woodstock,ON,N4S7W8,Canada,(519) 423-6300,43.802080000000,-80.777310000000,,,,
"Chatham - 766 St. Clair Street, RR7",18692,"766 St. Clair Street, RR7",,Chatham,ON,N7M 5J7,Canada,(519) 351-2313,42.430182000000,-82.219185000000,,,,
Tilbury - Highway 401 Westbound Between Exit,17818,Highway 401 Westbound Between Exit,,Tilbury,ON,N0P 2L0,Canada,(519) 682-1827,43.279990000000,-82.380980000000,,,,
London - 1075 Commissioners Road E,12150,1075 Commissioners Road E,,London,ON,N5Z 4L8,Canada,(519) 685-9808,42.961287000000,-81.201956000000,,,,
London - 1295 Oxford Street East,3056,1295 Oxford Street East,,London,ON,N5Y 4W4,Canada,(519) 455-2310,43.007464000000,-81.212057000000,,,,
London - 350 Clarke Side Road,12235,360 Clarke Side Road,,London,ON,N5W 6E7,Canada,(519) 455-2444,43.004670000000,-81.175502000000,,,,
Sarnia - 5906 Old Heritage Road,21029,5906 Old Heritage Road,,Sarnia,ON,N0N 1T0,Canada,,42.994089000000,-82.232171000000,,,,
Strathroy - 640 Victoria Street,14148,640 Victoria Street,,Strathroy,ON,N7G 3C1,Canada,(519) 245-7459,42.967409000000,-81.630855000000,,,,
London - 3049 Wonderland Road South,16523,3049 Wonderland Road South,,London,ON,N6L 1R4,Canada,(519) 668-6100,42.937580000000,-81.281410000000,,,,
London - 1001 Wellington Road South,3946,1001 Wellington Road South,,London,ON,N6E 1W4,Canada,(519) 685-9620,42.938576000000,-81.224875000000,,,,
St Thomas - 939 Talbot Street,3566,939 Talbot Street,,St Thomas,ON,N5P 1E8,Canada,(519) 631-9107,42.778860000000,-81.180468000000,,,,
La Salle - 5821 Malden Road,10098,5821 Malden Road,,La Salle,ON,N9J 1S4,Canada,(519) 966-8037,42.248948000000,-83.060725000000,,,,
Leamington - 300 Erie Street South,5590,300 Erie Street South,,Leamington,ON,N8H 3C5,Canada,(519) 326-7061,42.035776000000,-82.600871000000,,,,
Tilbury - Highway 401 Eastbound Between Exit,17817,Highway 401 Eastbound Between Exit,,Tilbury,ON,N0P 2L0,Canada,(519) 682-9820,42.275940000000,-82.384700000000,,,,
Windsor - 300 Tecumseh Road East,13322,300 Tecumseh Road East,,Windsor,ON,N8X 5E8,Canada,(519) 973-1221,42.297338000000,-83.020331000000,,,,
Windsor - 73 University Ave,16870,73 University Ave,,Windsor,ON,N9A 2Y6,Canada,(519) 256-7629,42.318080000000,-83.037020000000,,,,
Windsor - 2530 Tecumseh Road West,848,2530 Tecumseh Road West,,Windsor,ON,N9B 3R2,Canada,(519) 258-3423,42.291287000000,-83.056307000000,,,,
Windsor - 7955 Tecumseh Road East,2964,7955 Tecumseh Road East,,Windsor,ON,N8R 1A1,Canada,(519) 945-7922,42.314119000000,-82.931624000000,,,,
Windsor - 4320 Walker Road,14483,4320 Walker Road,,Windsor,ON,N8W 3T5,Canada,(519) 969-5223,42.257919000000,-82.968400000000,,,,
Windsor - 2850 Tecumseh Road East,552,2850 Tecumseh Road East,,Windsor,ON,N8W 1G4,Canada,(519) 948-3161,42.303550000000,-82.988066000000,,,,
Windsor - 3210 Dougall Avenue,13979,3210 Dougall Avenue,,Windsor,ON,N9E 1S6,Canada,(519) 972-6538,42.268244000000,-83.010869000000,,,,
Sudbury - 660 Notre Dame Avenue,3579,660 Notre Dame Avenue,,Sudbury,ON,P3C 5L2,Canada,(705) 670-1949,46.507251000000,-80.986545000000,,,,
Thunder Bay - 2840 Arthur Street East,2374,2840 Arthur Street East,,Thunder Bay,ON,P7E 5P4,Canada,(807) 623-4612,48.380826000000,-89.278156000000,,,,
Lévis - 94 rue Kennedy,4236,94 rue Kennedy,,Lévis,QC,G6V 6C9,Canada,(418) 833-9371,46.791229000000,-71.172136000000,,,,
Sainte-Foy - 1180 boul. Duplessis,12224,1180 boul. Duplessis,,Sainte-Foy,QC,G2G 2B5,Canada,(418) 877-2960,46.787796000000,-71.353712000000,,,,
Québec - 730 rue Bouvier,11807,730 rue Bouvier,,Québec,QC,G2J 1A7,Canada,(418) 260-9356,46.833637000000,-71.275572000000,,,,
Beauport - 819 rue Clémenceau,13401,819 rue Clémenceau,,Beauport,QC,G1C 2K6,Canada,(418) 666-0328,46.868018000000,-71.206203000000,,,,
St-Jean-Chrisostome - 645B rue Commerciale,13620,645B ave Taniata,,Lévis,QC,G6Z 2C1,Canada,(418) 834-3238,46.737515000000,-71.216504000000,,,,
Victoriaville - 230 boul. Bois-Francs Sud,4911,230 boul. Bois-Francs Sud,,Victoriaville,QC,G6P 4T1,Canada,(819) 758-4838,46.055367000000,-71.955936000000,,,,
Saint-George-de-Beauce - 10595 boul. Lacroix,8543,10595 boul. Lacroix,,Saint-George-de-Beauce,QC,G5Y 1K2,Canada,(418) 228-7373,46.126563000000,-70.683225000000,,,,
Magog - 1900 rue Sherbrooke Ouest,13852,1900 rue Sherbrooke Ouest,,Magog,QC,J1X 2T3,Canada,(819) 868-6704,45.279468000000,-72.127337000000,,,,
Chicoutimi - 1020 rue de l'Université,5336,1020 rue de l'Université,,Chicoutimi,QC,G7H 6C1,Canada,(418) 696-3221,48.412491000000,-71.055899000000,,,,
Jonquière - 3718 boul. Harvey,6145,3718 boul. Harvey,,Jonquière,QC,G7X 3A5,Canada,(418) 695-3836,48.412556000000,-71.240424000000,,,,
Bromont - 8 boul. Bromont,12216,8 boul. Bromont,,Bromont,QC,J2L 2K1,Canada,(450) 534-2565,45.334832000000,-72.648168000000,,,,
Cowansville - 1600 rue Sud,12369,1600 rue Sud,,Cowansville,QC,J2K 2Y8,Canada,450-815-6639,45.191678000000,-72.754544000000,,,,
Saint-Jean-sur-Richelieu - 930 boul. Douglas,8172,930 boul. Douglas,,Saint-Jean-sur-Richelieu,QC,J3A 1V1,Canada,(450) 359-7745,45.332898000000,-73.284644000000,,,,
Granby - 855 rue Principale,5403,855 rue Principale,,Granby,QC,J2G 2Y9,Canada,(450) 375-9412,45.413212000000,-72.751527000000,,,,
Montreal - 1625 Rue St Catherine Quest,22791,1625 Rue St Catherine Quest,,Montreal,QC,H3H 1L8,Canada,,45.494657000000,-73.578057000000,,,,
Brossard - 6750 boul. Taschereau,5206,6750 boul. Taschereau,,Brossard,QC,J4W 3M8,Canada,(450) 465-0823,45.468070000000,-73.467754000000,,,,
Saint-Hubert - 7850 boul. Cousineau,12509,7850 boul. Cousineau,,Saint-Hubert,QC,J3Z 1H2,Canada,(450) 678-5150,45.480585000000,-73.387432000000,,,,
Ville Sainte-Catherine - 1580 boul. Des Écluses,9297,1580 boul. Des Écluses,,Ville Sainte-Catherine,QC,J5C 2B4,Canada,(450) 638-9018,45.387798000000,-73.557419000000,,,,
Notre-Dame-de-Bonsecours - 2360 chemin des Patriotes,7308,2360 chemin des Patriotes,,Notre-Dame-de-Bonsecours,QC,J3L 4A7,Canada,(450) 447-9748,45.412071000000,-73.241199000000,,,,
Montréal - 500 rue Ste-Catherine Ouest,3690,500 rue Ste-Catherine Ouest,,Montréal,QC,H3B 1A6,Canada,(514) 861-3455,45.504565000000,-73.568451000000,,,,
Montréal - 705 rue Ste-Catherine Ouest,10564,705 rue Ste-Catherine Ouest,,Montréal,QC,H3B 4G5,Canada,(514) 287-3313,45.501831000000,-73.571136000000,,,,
Montréal - 977 rue Ste-Catherine Ouest,12510,977 rue Ste-Catherine Ouest,,Montréal,QC,H3B 4W3,Canada,(514) 985-0854,45.501012000000,-73.571961000000,,,,
Montréal - 6348 rue Sherbrooke Est,3411,6348 rue Sherbrooke Est,,Montréal,QC,H1N 3P6,Canada,(514) 252-9634,45.579832000000,-73.544762000000,,,,
Pointe-aux-Trembles - 12595 rue Sherbrooke Est,10025,12595 rue Sherbrooke Est,,Pointe-aux-Trembles,QC,H1B 1C8,Canada,(514) 640-7779,45.651095000000,-73.511678000000,,,,
Mont-Laurier - 1784 Boulevard Albiny Paquette,20764,1784 Boulevard Albiny Paquette,,Mont-Laurier,QC,J9L 3G5,Canada,,46.550404000000,-75.495973000000,,,,
Val-d'Or - 1740 3e Avenue,11867,1740 3e Avenue,,Val-d'Or,QC,J9P 1W4,Canada,(819) 825-7232,48.098500000000,-77.819500000000,,,,
Moose Jaw - 1250-B Main Street North,13149,1250-B Main Street North,,Moose Jaw,SK,S6H 3L1,Canada,,50.404483000000,-105.534718000000,,,,
"Prince Albert - 3220 - 2nd Avenue, West",6092,"3220 - 2nd Avenue, West",,Prince Albert,SK,S6V 5E9,Canada,(306) 764-2264,53.184082000000,-105.759759000000,,,,
North Battleford - 11400 Railway Avenue,13990,11400 Railway Avenue,,North Battleford,SK,S9A 3G8,Canada,(306) 446-8181,52.761544000000,-108.280238000000,,,,
Swift Current - 1615 North Service Road East,13208,1615 North Service Road East,,Swift Current,SK,S9H 3X6,Canada,(306) 773-2226,50.305747000000,-107.778186000000,,,,
Regina - 410 Albert Street North,3845,410 Albert Street North,,Regina,SK,S4R 3C1,Canada,(306) 949-3929,50.482902000000,-104.618324000000,,,,
"Regina - 1808 Albert Street, South",10096,"1808 Albert Street, South",,Regina,SK,S4P 2T2,Canada,(306) 347-7757,50.450369000000,-104.618206000000,,,,
Regina - 2021 Park Street,4771,2021 Park Street,,Regina,SK,S4N 2G8,Canada,(306) 522-4484,50.446459000000,-104.572142000000,,,,
Regina - 4181 Albert Street South,4578,4181 Albert Street South,,Regina,SK,S4S 3R6,Canada,(306) 585-3500,50.412637000000,-104.617933000000,,,,
Yorktown - 212 Broadway Street East,12595,212 Broadway Street East,,Yorktown,SK,S3N 3K4,Canada,,51.210184000000,-102.450841000000,,,,
Saskatoon - 1747 Preston Avenue North,14455,1747 Preston Avenue North,,Saskatoon,SK,S7N 4V2,Canada,(306) 933-9445,52.108659000000,-106.622648000000,,,,
Saskatoon - The Centre at Circle & Eight,12631,The Centre at Circle & Eight,,Saskatoon,SK,S7H 0W6,Canada,(306) 652-3390,52.114573000000,-106.595148000000,,,,
"Saskatoon - 330 Circle Drive, East",5517,"330 Circle Drive, East",,Saskatoon,SK,S7K 0T6,Canada,(306) 934-3477,52.157816000000,-106.667125000000,,,,
Saskatoon - 101 Confederation Drive,3844,101 Confederation Drive,,Saskatoon,SK,S7L 5C3,Canada,(306) 382-5310,52.129789000000,-106.721540000000,,,,
