store_name,store_number,address,address2,city,state,zip_code,country,phone_number,latitude,longitude,store_hours,store_type,other_fields,coming_soon
DXLOutlet,9685,4827 Firestone Boulevard,Azalea Shopping Center,South Gate,CA,90280,United States,3235642936,33.953,-118.184,"Mon - Sat 10am - 9pm,  Sun 12pm - 6pm",,,
DXLStore,9923,5905 Sepulveda Boulevard,,Culver City,CA,90230,United States,3103903845,33.986079,-118.396018,"Mon - Sat 10am - 9pm,  Sun 12pm - 6pm",,,
CasualMaleXLStore,9703,16129 S Hawthorne Blvd,Suite F,Lawndale,CA,90260,United States,3107936892,33.884,-118.353,"Mon - Sat 10am - 8pm,  Sun 12pm - 6pm",,,
DXLStore,9746,4439 Candlewood Street,Lakewood Center,Lakewood,CA,90712,United States,5626335705,33.854,-118.141,"Mon - Sat 10am - 9pm,  Sun 12pm - 6pm",,,
DXLStore,9787,7615 Carson Boulevard,Long Beach Towne Center,Long Beach,CA,90808,United States,5624211766,33.827,-118.084,"Mon - Sat 10am - 9pm,  Sun 12pm - 6pm",,,
DXLStore,9927,1400 Plaza Drive,Plaza West Covina,West Covina,CA,91790,United States,6268563193,34.07,-117.928,"Mon - Sat 10am - 9pm,  Sun 12pm - 6pm",,,
CasualMaleXLStore,9082,19422 Nordhoff Street,,Northridge,CA,91324,United States,8187738822,34.235,-118.557,"Mon - Sat 10am - 8pm,  Sun 12pm - 6pm ",,,
DXLStore,9701,6041 Topanga Canyon Boulevard,,Woodland Hills,CA,91367,United States,8189924702,34.18,-118.606,"Mon - Sat 10am - 9pm,  Sun 12pm - 6pm",,,
DXLStore,9866,429 S. Associated Road,Brea Plaza,Brea,CA,92821,United States,7146720730,33.912,-117.881,"Mon - Sat 10am - 9pm,  Sun 12pm - 6pm",,,
DXLStore,9948,2800 N Main Street %231140,Main Place Mall,Santa Ana,CA,92705,United States,,33.774,-117.869,%3Cb%3E%3Cfont color%3D%22%23619a36%22%3EOPENING AUGUST 2017%3C%2Ffont%3E%3C%2Fb%3E%3Cbr%3E %3Cp%3E%3Cfont color%3D%22%23CC0000%22%3EShip to this store is unavailable.%3C%2Ffont%3E%3C%2Fp%3E,,,
CasualMaleXLStore,9768,25640 The Old Road,,Valencia,CA,91381,United States,6612594931,34.388,-118.572,"Mon - Sat 10am - 8pm,  Sun 12pm - 6pm ",,,
DXLStore,9723,13766 Jamboree Road,The Market Place,Irvine,CA,92602,United States,7147343440,33.724,-117.79,"Mon - Sat 10am - 9pm,  Sun 12pm - 6pm",,,
DXLStore,9851,12455 Victoria Gardens Lane,,Rancho Cucamonga,CA,91739,United States,9098035948,34.108,-117.534,"Mon - Sat 10am - 9pm,  Sun 12pm - 6pm",,,
CasualMaleXLStore,9747,2990 Midway Drive,,San Diego,CA,92110,United States,6192238125,32.75,-117.206,"Mon - Sat 10am - 8pm,  Sun 12pm - 6pm ",,,
DXLStore,9870,1640 Camino Del Rio North,"Suite FC1,  Westfield Mission Valley",San Diego,CA,92108,United States,6192204832,32.769,-117.148,"Mon - Sat 10am - 9pm,  Sun 12pm - 6pm",,,
CasualMaleXLStore,9798,700 N Johnson Avenue,,El Cajon,CA,92020,United States,6194407225,32.805,-116.971,"Mon - Sat 10am - 8pm,  Sun 12pm - 6pm ",,,
DXLStore,9080,1004 West Valley Parkway,"Suite 23,  Plaza Las Palmas",Escondido,CA,92025,United States,7607379290,33.118,-117.094,"Mon - Sat 10am - 9pm,  Sun 12pm - 6pm",,,
DXLStore,9828,40620 Winchester Road,Suite A,Temecula,CA,92591,United States,9517193934,33.527,-117.156,"Mon - Sat 10am - 9pm,  Sun 12pm - 6pm",,,
CasualMaleXLOutlet,9745,17600 Collier Avenue,,Lake Elsinore,CA,92530,United States,9516742272,33.7,-117.351,"Mon - Sat 10am - 8pm,  Sun 10am - 7pm",,,
CasualMaleXLStore,9795,23600 El Toro Rd,Suite A %26 B,Lake Forest,CA,92630,United States,9498590793,33.647,-117.689,"Mon - Sat 10am - 8pm,  Sun 12pm - 6pm ",,,
DXLStore,9744,72810 Highway 111,"Suite V475,  Westfield Mall",Palm Desert,CA,92260,United States,7605689149,33.723,-116.394,"Mon - Sat 10am - 9pm,  Sun 12pm - 6pm",,,
DXLStore,9789,1720 E Ventura Blvd,,Oxnard,CA,93036,United States,8054852102,34.225033,-119.155059,"Mon - Sat 10am - 9pm,  Sun 12pm - 6pm",,,
CasualMaleXLStore,9715,798 Inland Ctr Dr,,San Bernadino,CA,92408,United States,9093815058,34.085,-117.301,"Mon - Sat 10am - 6pm,  Sun 12pm - 6pm",,,
DXLStore,9892,2701 Ming Avenue,"Suite 116,  Valley Plaza Mall",Bakersfield,CA,93304,United States,6618366469,35.338,-119.034,"Mon - Sat 10am - 9pm,  Sun 12pm - 6pm",,,
DXLStore,9413,510 NW Loop 410,"Suite 106,  Park North Shopping Center",San Antonio,TX,78216,United States,2103446409,29.52,-98.501,"Mon - Sat 10am - 9pm,  Sun 12pm - 6pm",,,
CasualMaleXLOutlet,9615,4015 Interstate Hwy 35,,San Marcos,TX,78666,United States,5127548862,29.883,-97.945,"Mon - Sat 9am - 9pm,  Sun 10am - 7pm ",,,
DXLStore,9486,10515 North MoPac Expressway,"Suite H,  The Shops at Arbor Walk",Austin,TX,78759,United States,5124188557,30.392,-97.732,"Mon - Sat 10am - 9pm,  Sun 12pm - 6pm",,,
CasualMaleXLOutlet,9693,4401 N Ih 35,Suite 869,Round Rock,TX,78664,United States,5128638529,30.511,-97.67,"Mon - Sat 10am - 9pm,  Sun 11am - 7pm ",,,
DXLStore,9011,113 East Chicago Avenue,,Chicago,IL,60611,United States,3122020986,41.897,-87.625,"Mon - Sat 10am - 9pm,  Sun 12pm - 6pm",,,
DXLStore,9808,1730 W Fullerton Ave Unit 22,Riverpoint Center,Chicago,IL,60614,United States,7732813369,41.926,-87.658,"Mon - Sat 10am - 8pm,  Sun 12pm - 6pm ",,,
DXLStore,9210,9152 South Western Avenue,Evergreen Marketplace,Evergreen Park,IL,60805,United States,7089520966,41.726,-87.682,"Mon - Sat 10am - 9pm,  Sun 12pm - 6pm",,,
DXLStore,9818,9522 Skokie Blvd,,Skokie,IL,60077,United States,8473291602,42.053737,-87.746962,"Mon - Sat 10am - 9pm,  Sun 12pm - 6pm",,,
DXLStore,9120,17 W 180 22nd Street,,Oakbrook Terrace,IL,60181,United States,6308332658,41.847,-87.963,"Mon - Sat 10am - 9pm,  Sun 12pm - 6pm",,,
DXLStore,9911,15633 South LaGrange Road,,Orland Park,IL,60462,United States,7084034272,41.607,-87.853,"Mon - Sat 10am - 9pm,  Sun 12pm - 6pm",,,
DXLStore,9540,703 6th Avenue,,Manhattan,NY,10010,United States,2122423189,40.743,-73.993,"Mon - Sat 10am - 9pm,  Sun 12pm - 6pm",,,
CasualMaleXLStore,9400,200 Mill Creek Drive Unit A,,Secaucus,NJ,07094,United States,2012231330,40.79,-74.062,"Mon - Sat 10am - 8pm,  Sun 12pm - 6pm",,,
DXLStore,9211,2472 Flatbush Avenue,,Brooklyn,NY,11234,United States,7182521313,40.61,-73.923,"Mon - Sat 10am - 9pm,  Sun 12pm - 6pm",,,
DXLStore,9872,2194 Richmond Avenue,,Staten Island,NY,10314,United States,7187615149,40.593,-74.163,"Mon - Sat 10am - 9pm,  Sun 12pm - 6pm",,,
DXLStore,9186,2456 US Highway,"Suite 22 E,  DXL Plaza",Union,NJ,07083,United States,9086869874,40.695,-74.27,"Mon - Sat 10am - 9pm,  Sun 12pm - 6pm",,,
DXLStore,9374,2094 Bartow Avenue,Bay Plaza Shopping Center,Bronx,NY,10475,United States,7183794148,40.869,-73.827,"Mon - Sat 10am - 8pm,  Sun 12pm - 6pm ",,,
DXLStore,9415,750 West Sunrise Highway,Green Ares Commons,Valley Stream,NY,11581,United States,5168871381,40.665,-73.727,"Mon - Sat 10am - 9pm,  Sun 12pm - 6pm",,,
DXLStore,9716,1705 East Camelback Road,,Phoenix,AZ,85016,United States,6022773191,33.508,-112.045,"Mon - Sat 10am - 9pm,  Sun 12pm - 6pm",,,
DXLStore,9943,9897 W McDowell Road,"Suite D-400,  Crossroads at Tolleson",Tolleson,AZ,85392,United States,6239367188,33.464,-112.297,"Mon - Sat 10am - 9pm,  Sun 12pm - 6pm",,,
DXLStore,9778,2830 West Chandler Boulevard,Chandler Festival,Chandler,AZ,85224,United States,4807868075,33.306,-111.891,"Mon - Sat 10am - 9pm,  Sun 12pm - 6pm",,,
DXLStore,9849,7530 West Bell Road,"Suite 103,  Arrowhead Town Center",Glendale,AZ,85308,United States,6237763088,33.64,-112.221,"Mon - Sat 10am - 9pm,  Sun 12pm - 6pm",,,
CasualMaleXLStore,9860,2285 East Baseline Road,,Gilbert,AZ,85234,United States,4808922168,33.378,-111.783,"Mon - Sat 10am - 8pm,  Sun 12pm - 6pm",,,
DXLStore,9074,5393 Westheimer Road,Uptown Collection,Houston,TX,77056,United States,7134391666,29.749,-95.468,"Mon - Sat 10am - 9pm,  Sun 12pm - 6pm",,,
CasualMaleXLStore,9356,6898 Southwest Freeway,,Houston,TX,77074,United States,7137848542,29.68,-95.517,"Mon - Sat 10am - 8pm,  Sun 12pm - 6pm ",,,
DXLStore,9365,17395 Tomball Parkway,Suite 3M Willowbrook Plaza,Houston,TX,77064,United States,2814698208,29.956,-95.543,"Mon - Sat 10am - 9pm,  Sun 12pm - 6pm",,,
DXLStore,9867,10010 FM 1960 Bypass Road West,Humblewood Shopping Center,Humble,TX,77338,United States,2814463649,30.004,-95.278,"Mon - Sat 10am - 9pm,  Sun 12pm - 6pm",,,
DXLStore,9625,19419 Gulf Freeway,"Suite 1,  Baybrook Passage",Webster,TX,77598,United States,2813388833,29.542,-95.139,"Mon - Sat 10am - 9pm,  Sun 12pm - 6pm",,,
CasualMaleXLOutlet,9697,29300 Hempstead Road,,Cypress,TX,77433,United States,2817582593,29.916,-95.733,"Mon - Sat 10am - 9pm,  Sun 11am - 7pm ",,,
DXLStore,9928,24600 Katy FWY,"Suite 700,  The Shoppes at Parkwest Shopping",Katy,TX,77494,United States,2816651133,29.777,-95.834,"Mon - Sat 10am - 9pm,  Sun 12pm - 6pm",,,
DXLStore,9451,1985 East Golf Road,Schaumburg Promenade,Schaumburg,IL,60173,United States,8473301917,42.05,-88.032,"Mon - Sat 10am - 9pm,  Sun 12pm - 6pm",,,
DXLStore,9054,701 North Milwaukee Avenue,"Suite 362,  Rivertree Court",Vernon Hills,IL,60061,United States,8476803555,42.24,-87.944,"Mon - Sat 10am - 9pm,  Sun 12pm - 6pm",,,
DXLStore,9489,618 South RT 59,"Suite 124,  Naper West Plaza",Naperville,IL,60540,United States,6307786316,41.762,-88.205,"Mon - Sat 10am - 9pm,  Sun 12pm - 6pm",,,
CasualMaleXLStore,9171,2217A E 80th Avenue,,Merrillville,IN,46410,United States,2197561029,41.478,-87.306,"Mon - Sat 10am - 8pm,  Sun 12pm - 6pm",,,
DXLStore,9947,1580 E 81st Ave Building 2,Southlake Pointe,Merrillville,IN,46410,United States,,41.471,-87.317,%3Cb%3E%3Cfont color%3D%22%23619a36%22%3EOPENING AUGUST 2017%3C%2Ffont%3E%3C%2Fb%3E%3Cbr%3E %3Cp%3E%3Cfont color%3D%22%23CC0000%22%3EShip to this store is unavailable.%3C%2Ffont%3E%3C%2Fp%3E,,,
CasualMaleXLStore,9813,2306 W Oregon Ave,Space F-3,Philadelphia,PA,19145,United States,2155513093,39.922,-75.185,"Mon - Sat 10am - 8pm,  Sun 12pm - 6pm ",,,
CasualMaleXLStore,9236,220 Baltimore Pike,,Springfield,PA,19064,United States,6105436774,39.955,-75.298,"Mon - Sat 10am - 8pm,  Sun 12pm - 6pm ",,,
DXLStore,9447,220 Haddonfield Road,,Cherry Hill,NJ,08002,United States,8566634204,39.928,-75.023,"Mon - Sat 10am - 9pm,  Sun 12pm - 6pm",,,
DXLStore,9383,2329 Cottman Avenue,Space 51 Roosevelt Mall,Philadelphia,PA,19149,United States,2153338292,40.047,-75.059,"Mon - Sat 10am - 9pm,  Sun 12pm - 6pm",,,
DXLStore,9371,1730 Clements Bridge Road,,Deptford,NJ,08096,United States,8568480070,39.825,-75.132,"Mon - Sat 10am - 9pm,  Sun 12pm - 6pm",,,
DXLStore,9925,1019 Easton Road,"Suite 1019,  Regency Square Shopping Center",Willow Grove,PA,19090,United States,2156570320,40.155,-75.12,"Mon - Sat 10am - 9pm,  Sun 12pm - 6pm",,,
DXLStore,9396,150 Allendale Road,Building 1 2nd Floor,King Of Prussia,PA,19406,United States,6102651658,40.09,-75.382,"Mon - Sat 10am - 9pm,  Sun 12pm - 6pm",,,
CasualMaleXLOutlet,9012,443 Route 17 South,,Paramus,NJ,07652,United States,2012621019,40.951,-74.073,"Mon - Sat 10am - 8pm,  Sun - Closed",,,
DXLStore,9180,450 N State St Route 17,,Paramus,NJ,07652,United States,2012629835,40.952,-74.072,"Mon - Sat 10am - 9pm,  Sun-closed",,,
DXLStore,9935,205 US Highway 46,Abill Plaza,Totowa,NJ,07512 ,United States,9732561906,40.894,-74.227,"Mon - Sat 10am - 9pm,  Sun 12pm - 6pm",,,
CasualMaleXLStore,9847,1444 Union Turnpike,,New Hyde Park,NY,11040,United States,5163522591,40.744,-73.679,"Mon - Sat 10am - 8pm,  Sun 12pm - 6pm",,,
CasualMaleXLStore,9207,2369 Central Park Ave,,Yonkers,NY,10710,United States,9147794371,40.966,-73.847,"Mon - Sat 10am - 8pm,  Sun 12pm - 6pm ",,,
DXLStore,9806,19075 I-45 South %28Northbound%29,"Suite 800,  Portofino Shopping Center ",Shenandoah,TX,77385,United States,9362733140,30.18,-95.456,"Mon - Sat 10am - 9pm,  Sun 12pm - 6pm",,,
CasualMaleXLStore,9254,1359 N Larkin Street,,Joliet,IL,60435,United States,8157446826,41.547,-88.126,"Mon - Sat 10am - 8pm,  Sun 12pm - 6pm ",,,
DXLStore,9810,962 South Randall Road,Suite D,Saint Charles,IL,60174,United States,6305844575,41.898,-88.34,"Mon - Sat 10am - 9pm,  Sun 12pm - 6pm",,,
CasualMaleXLOutlet,9686,1740 Lighthouse Place,,Michigan City,IN,46360,United States,2198791290,41.709,-86.865,"Mon - Thu 9am - 6pm,  Fri - Sat 9am - 9pm,  Sun 10am - 6pm  ",,,
DXLOutlet,9202,"11601 108th Street,  Suite A003",Pleasant Prairie Premium Outlets,Pleasant Prairie,WI,53158,United States,2628579639,42.518,-87.948,"Mon - Sat 10am - 9pm,  Sun 12pm - 6pm",,,
DXLStore,9205,5776 Grape Road,"Suite 41,  Indian Ridge Shopping Center",Mishawaka,IN,46545,United States,5742724822,41.713,-86.186,"Mon - Sat 10am - 9pm,  Sun 12pm - 6pm ",,,
CasualMaleXLStore,9610,6376 E State St,,Rockford,IL,61108,United States,8153974110,42.253,-89.028,"Mon - Sat 10am - 8pm,  Sun 12pm - 6pm",,,
DXLStore,9910,4820 South 76th Street,Outback Suiteakhouse Plaza,Greenfield,WI,53220,United States,4142823656,42.957,-88.008,"Mon - Sat 10am - 9pm,  Sun 12pm - 6pm",,,
DXLStore,9194,17445 West Bluemound Road,Bluemound Center,Brookfield,WI,53045,United States,2627829818,43.06,-88.155,"Mon - Sat 10am - 9pm,  Sun 12pm - 6pm",,,
DXLStore,9213,625 Commerce Boulevard,The Court at Oxford Valley,Fairless Hills,PA,19030,United States,2159461194,40.175,-74.846,"Mon - Sat 10am - 9pm,  Sun 12pm - 6pm",,,
CasualMaleXLOutlet,9696,18 Lightcap Road,Philadelphia Premium Outlets,Pottstown,PA,19464,United States,6103273849,40.242,-75.637,"Mon - Sat 10am - 9pm,  Sun 10am - 7pm ",,,
DXLStore,9933,3190 Fashion Center Blvd,Christiana Fashion Center,Newark,DE,19702,United States,3027370396,39.674,-75.651,"Mon - Sat 10am - 9pm,  Sun 12pm - 6pm",,,
DXLStore,9618,514 Consumer Square,Wrangleboro Consumer Square,Mays Landing,NJ,08330,United States,6094070627,39.452,-74.632,"Mon - Sat 10am - 9pm,  Sun 12pm - 6pm",,,
CasualMaleXLOutlet,9683,537 Monmouth Road,,Jackson,NJ,08527,United States,7328334157,40.107,-74.341,"Mon - Sat 10am - 9pm,  Sun 10am - 7pm",,,
CasualMaleXLStore,9534,936 Rte 22 E,,Somerville,NJ,08876,United States,9087229880,40.544,-74.66,"Mon - Sat 10am - 8pm,  Sun 12pm - 6pm",,,
DXLStore,9946,2334 MacArthur Road,,Whitehall %28Allentown%29,PA,18052,United States,,40.641,-75.49,%3Cb%3E%3Cfont color%3D%22%23619a36%22%3EOPENING JULY 2017%3C%2Ffont%3E%3C%2Fb%3E%3Cbr%3E %3Cp%3E%3Cfont color%3D%22%23CC0000%22%3EShip to this store is unavailable.%3C%2Ffont%3E%3C%2Fp%3E,,,
CasualMaleXLStore,9454,2367 Macarthur Road,,Whitehall,PA,18052,United States,6104348046,40.659,-75.492,"Mon - Sat 10am - 8pm,  Sun 12pm - 6pm",,,
DXLStore,9330,152 Glen Cove Road,Unit 1,Carle Place,NY,11514,United States,5162483657,40.751,-73.612,"Mon - Sat 10am - 9pm,  Sun 12pm - 6pm",,,
DXLStore,9430,830 Central Park Ave,,Scarsdale,NY,10583,United States,9147231365,40.994,-73.819,"Mon - Sat 10am - 8pm,  Sun 12pm - 6pm",,,
CasualMaleXLStore,9826,2872 Highway 35 South,,Hazlet,NJ,07730,United States,7322646663,40.423,-74.178,"Mon - Sat 10am - 8pm,  Sun 12pm - 6pm ",,,
CasualMaleXLStore,9067,236 Lafayette Road,,Menlo Park,NJ,08837,United States,7325482542,40.504,-74.354,"Mon - Sat 10am - 8pm,  Sun 12pm - 6pm",,,
CasualMaleXLStore,9204,38 Rockland Plaza,,Nanuet,NY,10954,United States,8456244006,41.097,-74.01,"Mon - Sat 10am - 8pm,  Sun 12pm - 6pm ",,,
DXLStore,9199,1232 Hooper Avenue,"Suite 101A,  Bey Lea Plaza",Tom%27s River,NJ,08753,United States,7322409785,39.956,-74.182,"Mon - Sat 10am - 9pm,  Sun 12pm - 6pm",,,
CasualMaleXLOutlet,9316,35 South Willowdale Drive,Rockvale Outlets,Lancaster,PA,17602,United States,7172930071,40.03,-76.265,"Mon - Sat 9%3A30am - 9pm,  Sun 11am - 5pm  ",,,
CasualMaleXLStore,9458,288 Rte 10 W,,Succasunna,NJ,07876,United States,9732529116,40.855,-74.652,"Mon - Sat 10am - 8pm,  Sun 12pm - 6pm",,,
DXLOutlet,9668,18701 Coastal Highway,"Suite 4,  Midway Galleria",Rehoboth Beach,DE,19971,United States,3026441950,38.735,-75.138,"Mon - Sat 10am - 8pm,  Sun 12pm - 6pm",,,
DXLStore,9513,815 Goucher Boulevard,York Ridge Center,Towson,MD,21286,United States,4108237488,39.406,-76.58,"Mon - Sat 10am - 9pm,  Sun 12pm - 6pm",,,
DXLStore,9424,3501 Paxton Street G12,Harrisburg Mall,Harrisburg,PA,17111,United States,7175642837,40.252,-76.831,"Mon - Sat 10am - 9pm,  Sun 12pm - 6pm",,,
DXLStore,9893,5000 Sunrise Highway,,Massapequa Park,NY,11762,United States,5165414253,40.677,-73.451,"Mon - Sat 10am - 9pm,  Sun 12pm - 6pm",,,
DXLStore,9862,1505 Post Road East,,Westport,CT,06880,United States,2032560438,41.139,-73.314,"Mon - Sat 10am - 9pm,  Sun 12pm - 6pm",,,
DXLStore,9193,137 Alexander Avenue,Smith Grove Shopping Center,Lake Grove,NY,11755,United States,6317244724,40.864,-73.134,"Mon - Sat 10am - 9pm,  Sun 12pm - 6pm",,,
CasualMaleXLStore,9846,444 Route 211 East,Suite 3,Middletown,NY,10940,United States,8453423001,41.474,-74.411,"Mon - Sat 10am - 8pm,  Sun 12pm - 6pm",,,
DXLStore,9312,109 Federal Road,,Danbury,CT,06811,United States,2037925404,41.43,-73.416,"Mon - Sat 10am - 8pm,  Sun 12pm - 6pm ",,,
DXLStore,9891,1200 Boston Post Road,,Milford,CT,06460,United States,2033019074,41.236,-73.04,"Mon - Sat 10am - 9pm,  Sun 12pm - 6pm",,,
DXLStore,9881,1830 South Road,Nine Mall Plaza,Wappingers Falls,NY,12590,United States,8452972753,41.615,-73.913,"Mon - Sat 10am - 9pm,  Sun 12pm - 6pm",,,
DXLStore,9225,6718 Ritchie Highway,"Suite E,  Chesapeake Square",Glen Burnie,MD,21061,United States,4107669618,39.139,-76.601,"Mon - Sat 10am - 9pm,  Sun 12pm - 6pm",,,
CasualMaleXLStore,9306,677H Kidder Street,Triangle Plaza,Wilkes Barre,PA,18702,United States,5708220077,41.25,-75.847,"Mon - Sat 10am - 8pm,  Sun 12pm - 6pm ",,,
CasualMaleXLStore,9509,2091 West Street,,Annapolis,MD,21401,United States,4102244190,39.004,-76.507,"Mon - Sat 10am - 8pm,  Sun 12pm - 6pm",,,
CasualMaleXLStore,9286,1869 Dixwell Avenue,,Hamden,CT,06514,United States,2032486226,41.363,-72.922,"Mon - Sat 10am - 8pm,  Sun 12pm - 6pm",,,
CasualMaleXLOutlet,9644,7 Glenwood Road,Suite E,Clinton,CT,06413,United States,8606649361,41.289,-72.529,"Mon - Sat 10am - 8pm,  Sun 12pm - 5pm  ",,,
CasualMaleXLStore,9444,Rte 6 Scranton-Carbondale Hwy,,Scranton,PA,18508,United States,5709615048,41.438,-75.662,"Mon - Sat 10am - 8pm,  Sun 12pm - 6pm",,,
DXLStore,9705,319 South Winchester Boulevard,,San Jose,CA,95128,United States,4082448255,37.323,-121.951,"Mon - Sat 10am - 9pm,  Sun 12pm - 6pm",,,
CasualMaleXLStore,9733,882 Blossom Hill Road,,San Jose,CA,95123,United States,4082276220,37.25,-121.86,"Mon - Sat 10am - 8pm,  Sun 12pm - 6pm ",,,
DXLStore,9926,7188 Amador Plaza Road,The Dublin Place,Dublin,CA,94568,United States,9258294757,37.707,-121.929,"Mon - Sat 10am - 9pm,  Sun 12pm - 6pm",,,
CasualMaleXLStore,9737,15099 Hesperian Boulevard,,San Leandro,CA,94578,United States,5102760145,37.702,-122.131,"Mon - Sat 10am - 8pm,  Sun 12pm - 6pm ",,,
DXLStore,9704,1202 El Camino Real,San Bruno Towne Center,San Bruno,CA,94066,United States,6507571366,37.638,-122.422,"Mon - Sat 10am - 9pm,  Sun 12pm - 6pm",,,
DXLStore,9708,651 Contra Costa Boulevard,,Pleasant Hill,CA,94523,United States,9256097599,37.974,-122.063,"Mon - Sat 10am - 9pm,  Sun 12pm - 6pm",,,
DXLStore,9912,3250 Dale Road,"Suite J,  Vintage Plaza",Modesto,CA,95356,United States,2095211033,37.687,-121.049,"Mon - Sat 10am - 9pm,  Sun 12pm - 6pm",,,
CasualMaleXLStore,9727,5756 Pacific Ave,,Stockton,CA,95207,United States,2094721053,38.001,-121.318,"Mon - Sat 10am - 8pm,  Sun 12pm - 6pm",,,
DXLOutlet,9631,101 Nut Tree Road,"Suite J,  Vacaville Premium Outlets",Vacaville,CA,95687,United States,7074513446,38.367,-121.956,"Mon - Sat 10am - 9pm,  Sun 10am - 7pm",,,
CasualMaleXLStore,9718,1911 Santa Rosa Avenue,,Santa Rosa,CA,95407,United States,7075799311,38.42,-122.714,"Mon - Sat 10am - 8pm,  Sun 12pm - 6pm",,,
DXLStore,9938,2100 Arden Way,"Suite 101,  Howe Bout Arden Shopping Center",Sacramento,CA,95825,United States,9169239580,38.595,-121.417,"Mon - Sat 10am - 9pm,  Sun 12pm - 6pm",,,
CasualMaleXLOutlet,9640,13000 Folsom Boulevard ,,Folsom,CA,95630,United States,9163550192,38.644,-121.187,"Mon - Sat 10am - 9pm,  Sun 10am - 6pm",,,
DXLStore,9422,8020 Park Lane,"Suite 100,  The Shops at Park Lane",Dallas,TX,75231,United States,4692329673,32.872,-96.77,"Mon - Sat 10am - 9pm,  Sun 12pm - 6pm",,,
CasualMaleXLStore,9072,1725 North Town East Boulevard,Suite 205,Mesquite,TX,75150,United States,9722704476,32.816,-96.626,"Mon - Sat 10am - 8pm,  Sun 12pm - 6pm ",,,
DXLStore,9390,305 W. FM 1382,"Suite 543,  Uptown Village at Cedar Hill",Cedar Hill,TX,75104,United States,9722912398,32.603,-96.943,"Mon - Sat 10am - 9pm,  Sun 12pm - 6pm",,,
DXLStore,9500,2403 South Stemmons Freeway,"Suite 100 A,  Vista Grove Shopping Center",Lewisville,TX,75067,United States,9723152554,33.005,-96.972,"Mon - Sat 10am - 9pm,  Sun 12pm - 6pm",,,
DXLStore,9076,4245 South Cooper Street,,Arlington,TX,76015,United States,8173752084,32.678,-97.134,"Mon - Sat 10am - 9pm,  Sun 12pm - 6pm",,,
DXLStore,9863,2943 Preston Road,"Suite 1450,  Shops at Stonebriar",Frisco,TX,75034,United States,2147051281,33.103,-96.807,"Mon - Sat 10am - 9pm,  Sun 12pm - 6pm",,,
DXLStore,9936,190 E Stacy Road,"Suite 308,  The Village At Allen",Allen,TX,75002,United States,9726780282,33.127,-96.66,"Mon - Sat 10am - 9pm,  Sun 12pm - 6pm",,,
CasualMaleXLStore,9421,4621 S Hulen Street,,Fort Worth,TX,76132,United States,8173469098,32.672,-97.432,"Mon - Sat 10am - 8pm,  Sun 12pm - 6pm",,,
CasualMaleXLStore,9545,4217 S Broadway Avenue,,Tyler,TX,75701,United States,9035341676,32.325,-95.295,"Mon - Sat 10am - 8pm,  Sun 12pm - 6pm",,,
DXLStore,9919,4871 Town Center Parkway,"Suite 01,  The Markets at Town Center",Jacksonville,FL,32246,United States,9046417851,30.255,-81.533,"Mon - Sat 10am - 9pm,  Sun 12pm - 6pm",,,
DXLOutlet,9632,2700 State Road 16,"Suite 605,  St. Augustine Premium Outlets",St. Augustine,FL,32092,United States,9048254915,29.924,-81.416,"Mon - Sat 9am - 9pm,  Sun 10am - 6pm",,,
CasualMaleXLStore,9567,2110 W Internatl Speedway Boulevard,,Daytona Beach,FL,32114,United States,3862583766,29.189,-81.076,"Mon - Sat 10am - 8pm,  Sun 12pm - 6pm",,,
CasualMaleXLStore,9524,3558 Sw College Road,,Ocala,FL,34474,United States,3522377225,29.153,-82.182,"Mon - Sat 10am - 8pm,  Sun 12pm - 6pm",,,
DXLStore,9127,723 US Highway 31 N,Greendale Center,Greenwood,IN,46142,United States,3178893436,39.627,-86.119,"Mon - Sat 10am - 9pm,  Sun 12pm - 6pm",,,
DXLStore,9377,8480 Castleton Corner Drive,Plaza at Castleton,Indianapolis,IN,46250,United States,3175780991,39.902,-86.07,"Mon - Sat 10am - 9pm,  Sun 12pm - 6pm",,,
CasualMaleXLOutlet,9576,11747 North Executive Drive,,Edinburgh,IN,46124,United States,8125260650,39.354,-85.964,"Mon - Sat 10am - 9pm,  Sun 10am - 6pm",,,
CasualMaleXLStore,9466,2128 Sagamore Parkway S,,Lafayette,IN,47905,United States,7654743753,40.322,-86.912,"Mon - Sat 10am - 8pm,  Sun 12pm - 6pm ",,,
DXLStore,9375,11711 Princeton Pike,"Suite 961,  Town Center",Cincinnati,OH,45246,United States,5136713413,39.289,-84.468,"Mon - Sat 10am - 9pm,  Sun 12pm - 6pm",,,
DXLStore,1780,7634 Mall Road,Village at the Mall,Florence,KY,41042,United States,,38.999732,-84.651925,%3Cb%3E%3Cfont color%3D%22%23619a36%22%3EOPENING JUNE 2017%3C%2Ffont%3E%3C%2Fb%3E%3Cbr%3E %3Cp%3E%3Cfont color%3D%22%23CC0000%22%3EShip to this store is unavailable.%3C%2Ffont%3E%3C%2Fp%3E,,,
CasualMaleXLStore,9780,7634 Mall Road,,Florence,KY,41042,United States,8597462537,38.988,-84.647,"Mon - Sat 10am - 8pm,  Sun 12pm - 6pm ",,,
DXLStore,9407,10610 Centrum Parkway,Suite D,Pineville,NC,28134,United States,7045436220,35.088,-80.879,"Mon - Sat 10am - 9pm,  Sun 12pm - 6pm",,,
DXLStore,9783,3258 Silas Creek Parkway,Silas Creek Crossing,Winston Salem,NC,27103,United States,3367681199,36.065,-80.318,"Mon - Sat 10am - 9pm,  Sun 12pm - 6pm",,,
CasualMaleXLStore,9176,3806-A W. Gate City Blvd,,Greensboro,NC,27407,United States,3363160033,36.013,-79.87,"Mon - Sat 10am - 8pm,  Sun 12pm - 6pm ",,,
DXLStore,9137,1005 Bower Parkway,,Columbia,SC,29212,United States,8034071563,34.081,-81.195,"Mon - Sat 10am - 9pm,  Sun 12pm - 6pm",,,
DXLStore,9879,1025 Woodruff Road,"Suite 130,  Magnolia Park",Greenville,SC,29607,United States,8649870121,34.832,-82.307,"Mon - Sat 10am - 9pm,  Sun 12pm - 6pm",,,
CasualMaleXLStore,9568,64 Tunnel Road,,Asheville,NC,28805,United States,8282321884,35.595,-82.502,"Mon - Sat 10am - 8pm,  Sun 12pm - 6pm",,,
CasualMaleXLStore,9055,1113 Kenney Center,,Columbus,OH,43220,United States,6144574440,40.0,-83.067,"Mon - Sat 10am - 8pm,  Sun 12pm - 6pm",,,
DXLStore,9869,1424 Gemini Place,Gemini Place Towne Center,Columbus,OH,43240,United States,6144366230,40.148,-82.977,"Mon - Sat 10am - 9pm,  Sun 12pm - 6pm",,,
CasualMaleXLOutlet,9571,8115 Factory Shops Boulevard,,Jeffersonville,OH,43128,United States,7409482068,39.659,-83.575,"Mon - Sat 9am - 9pm,  Sun 10am - 7pm",,,
DXLStore,9384,7924 Springboro Pike,,Miamisburg,OH,45342,United States,9374355300,39.636763,-84.224639,"Mon - Sat 10am - 9pm,  Sun 12pm - 6pm",,,
DXLStore,9429,8889 Gateway Boulevard W,"Suite 550,  The Fountains at Farah",El Paso,TX,79925,United States,9156299371,31.77,-106.371,"Mon - Sat 10am - 9pm,  Sun 12pm - 6pm",,,
DXLStore,9060,3480 Fairlane Drive,Fairlane Green,Allen Park,MI,48101,United States,3139829207,42.254,-83.21,"Mon - Sat 10am - 9pm,  Sun 12pm - 6pm",,,
DXLStore,9227,23007 Eureka Road,South Plaza,Taylor,MI,48180,United States,7342872621,42.206,-83.206,"Mon - Sat 10am - 8pm,  Sun 12pm - 6pm ",,,
DXLStore,9059,26300 Southfield Road,,Lathrup Village,MI,48076,United States,2485579223,42.498,-83.232,"Mon - Sat 10am - 8pm,  Sun 12pm - 6pm",,,
DXLStore,9932,32415 Gratiot Ave,"Suite 850,  Macomb Mall",Roseville,MI,48066,United States,5862945139,42.533,-82.913,"Mon - Sat 10am - 9pm,  Sun 12pm - 6pm",,,
DXLStore,9852,2028 West Big Beaver Road,Big Beaver Center,Troy,MI,48084,United States,2486495376,42.562,-83.175,"Mon - Sat 10am - 9pm,  Sun 12pm - 6pm",,,
DXLStore,9064,13090 Hall Road,,Sterling Heights,MI,48313,United States,5867314782,42.626636,-82.999205,"Mon - Sat 10am - 8pm,  Sun 12pm - 6pm",,,
DXLStore,9063,43263 Crescent Boulevard,Novi Town Center,Novi,MI,48375,United States,2483470040,42.485,-83.474,"Mon - Sat 10am - 9pm,  Sun 12pm - 6pm",,,
DXLStore,9208,3500 Washtenaw Avenue,"Suite O,  Washtenaw Commons",Ann Arbor,MI,48104,United States,7349738338,42.255,-83.69,"Mon - Sat 10am - 9pm,  Sun 12pm - 6pm",,,
CasualMaleXLOutlet,9585,1475 N Burkhart Road,Tanger Outlet Center,Howell,MI,48855,United States,5175453594,42.622,-83.918,"Mon - Sat 9am - 9pm,  Sun 10am - 7pm ",,,
DXLStore,9877,5200 Monroe Street,"Suite 130,  Monroe Street Plaza",Toledo,OH,43623,United States,4198419374,41.705,-83.66,"Mon - Sat 10am - 9pm,  Sun 12pm - 6pm",,,
DXLStore,9235,4385 Miller Road,,Flint,MI,48507,United States,8102309466,42.978,-83.765,"Mon - Sat 10am - 9pm,  Sun 12pm - 6pm",,,
DXLOutlet,9502,8825 Market Place Drive,F410 Birch Run Premium Outlets,Birch Run,MI,48415,United States,9896245726,43.246,-83.778,"Mon - Sat 10am - 9pm,  Sun 10am - 7pm",,,
DXLStore,9360,5847 West Saginaw Highway,Delta Center,Lansing,MI,48917,United States,5173215848,42.74,-84.634,"Mon - Sat 10am - 9pm,  Sun 12pm - 6pm",,,
DXLStore,9220,4626 Great Northern Boulevard,OlmSuited Plaza Shopping Center,North Olmsted,OH,44070,United States,4407168360,41.422,-81.903,"Mon - Sat 10am - 9pm,  Sun 12pm - 6pm",,,
CasualMaleXLStore,9224,4434 Bay Road,,Saginaw,MI,48603,United States,9897931173,43.435,-84.03,"Mon - Sat 10am - 8pm,  Sun 12pm - 6pm ",,,
DXLStore,9056,847 S White Station Road,Eastgate Center,Memphis,TN,38117,United States,9017676516,35.116,-89.904,"Mon - Sat 10am - 9pm,  Sun 12pm - 6pm",,,
DXLStore,9941,8057 HWY 64,"Suite 104,  Market of Wolf Creek",Memphis,TN,38133,United States,9013790857,35.203,-89.795,"Mon - Sat 10am - 9pm,  Sun 12pm - 6pm",,,
CasualMaleXLStore,9775,2108 South Caraway,,Jonesboro,AR,72401,United States,8709321441,35.819,-90.678,"Mon - Sat 10am - 8pm,  Sun 12pm - 6pm ",,,
CasualMaleXLStore,9843,17401 Southcenter Parkway,,Tukwila,WA,98188,United States,2065756099,47.443,-122.27,"Mon - Sat 10am - 9pm,  Sun 12pm - 6pm",,,
DXLStore,9930,18920 28th Ave W,"Suite A-1,  Alderwood East Shopping Center",Lynnwood,WA,98036,United States,4256972118,47.827,-122.272,"Mon - Sat 10am - 9pm,  Sun 12pm - 6pm",,,
DXLStore,9728,5015 Tacoma Mall Boulevard,"Suite 101C,  Evergreen Plaza",Tacoma,WA,98409,United States,2534747160,47.211,-122.464,"Mon - Sat 10am - 9pm,  Sun 12pm - 6pm",,,
DXLStore,9920,2016 Haviland St,Centralia Outlets,Centralia,WA,98531,United States,3603305373,46.729,-122.978,"Mon - Sat 10am - 8pm,  Sun 10am - 7pm",,,
DXLStore,9864,14182 East Cedar Avenue,Suite A,Aurora,CO,80012,United States,7208593313,39.713,-104.823,"Mon - Sat 10am - 9pm,  Sun 12pm - 6pm",,,
DXLStore,9800,9078 Westview Road,"Suite 100,  Park Meadows Town Center",Lone Tree,CO,80124,United States,3036499496,39.564,-104.883,"Mon - Sat 10am - 9pm,  Sun 12pm - 6pm",,,
DXLStore,9898,14533 Delaware Street,"Suite 100,  The Orchard Towne Center",Westminster,CO,80023,United States,3034504167,39.959,-104.991,"Mon - Sat 10am - 9pm,  Sun 12pm - 6pm",,,
CasualMaleXLOutlet,9566,5732 Mcwhinney Boulevard,,Loveland,CO,80538,United States,9702039960,40.409,-105.001,"Mon - Sat 10am - 8pm,  Sun 11am - 6pm",,,
CasualMaleXLStore,9473,507 N Academy Boulevard,,Colorado Springs,CO,80909,United States,7193807151,38.84,-104.757,"Mon - Sat 10am - 8pm,  Sun 12pm - 6pm ",,,
DXLStore,9894,3283 Donnell Drive,Centre At Forestville,District Heights,MD,20747,United States,3015686710,38.847,-76.885,"Mon - Sat 10am - 9pm,  Sun 12pm - 6pm",,,
DXLStore,9582,8027 Leesburg Pike,"Suite 200,  Tyson%27s Corner",Vienna,VA,22182,United States,7038481966,38.912,-77.223,"Mon - Sat 10am - 9pm,  Sun 12pm - 6pm",,,
CasualMaleXLStore,9241,7565 Greenbelt Road Space 205,,Greenbelt,MD,20770,United States,3013459710,38.997,-76.882,"Mon - Sat 10am - 8pm,  Sun 12pm - 6pm ",,,
DXLStore,9939,12137 Rockville Pike,"Space D,  Pike Center",Rockville,MD,20852,United States,3017701605,39.06,-77.122,"Mon - Sat 10am - 9pm,  Sun 12pm - 6pm",,,
CasualMaleXLStore,9380,3376 Crain Highway,,Waldorf,MD,20601,United States,3018704595,38.629,-76.968,"Mon - Sat 10am - 8pm,  Sun 12pm - 6pm",,,
CasualMaleXLOutlet,9159,13289 Worth Avenue,,Woodbridge,VA,22192,United States,7034945996,38.678,-77.315,"Mon - Sat 10am - 8pm,  Sun 12pm - 5pm",,,
DXLStore,9084,6435 Dobbin Road,"Unit 26,  Dobbin Center",Columbia,MD,21045,United States,4435461103,39.196,-76.822,"Mon - Sat 10am - 9pm,  Sun 12pm - 6pm",,,
CasualMaleXLStore,9554,1170 W Patrick St,,Frederick,MD,21702,United States,3016823892,39.494,-77.454,"Mon - Sat 10am - 8pm,  Sun 12pm - 6pm",,,
CasualMaleXLStore,9624,3200 Plank Road,,Fredericksburg,VA,22407,United States,5407857108,38.281,-77.558,"Mon - Sat 10am - 8pm,  Sun 12pm - 6pm",,,
CasualMaleXLOutlet,9642,550 Prime Outlets Boulevard,,Hagerstown,MD,21740,United States,3017971804,39.642,-77.718,"Mon - Sat 10am - 9pm,  Sun 10am - 7pm ",,,
CasualMaleXLOutlet,9635,1863 Gettysburg Village Drive,,Gettysburg,PA,17325,United States,7173340036,39.851,-77.259,"Mon - Sat 10am - 9pm,  Sun 10am - 6pm ",,,
DXLStore,9460,11736 West Broad Street,"Suite 110,  Parc Place at Short Pump",Richmond,VA,23233,United States,8043643781,37.655,-77.545,"Mon - Sat 10am - 9pm,  Sun 12pm - 6pm",,,
DXLStore,9160,735 Providence Highway,Dedham Marketplace,Dedham,MA,02026,United States,7813200007,42.239,-71.178,"Mon - Sat 10am - 9pm,  Sun 12pm - 6pm",,,
DXLStore,9161,242 Andover Street,,Peabody,MA,01960,United States,9785311927,42.546,-70.948,"Mon - Sat 10am - 9pm,  Sun 12pm - 6pm",,,
DXLStore,9412,1298 Worcester Street,Sherwood Plaza,Natick,MA,01760,United States,5086554862,42.298,-71.385,"Mon - Sat 10am - 9pm,  Sun 12pm - 6pm",,,
CasualMaleXLStore,9142,1410 Washington Street,,Hanover,MA,02339,United States,7818298977,42.132,-70.847,"Mon - Sat 10am - 8pm,  Sun 12pm - 6pm ",,,
DXLStore,9878,189 South Broadway,,Salem,NH,03079,United States,6038709612,42.767,-71.219,"Mon - Sat 10am - 9pm,  Sun 12pm - 6pm",,,
DXLStore,9899,279 Daniel Webster Highway,,Nashua,NH,03060,United States,6038881607,42.706,-71.441,"Mon - Sat 10am - 9pm,  Sun 12pm - 6pm",,,
DXLStore,9876,438 Southbridge Street,,Auburn,MA,01501,United States,5088323846,42.201,-71.841,"Mon - Sat 10am - 9pm,  Sun 12pm - 6pm",,,
CasualMaleXLStore,9112,21 Faunce Corner Road,,North Dartmouth,MA,02747,United States,5089961292,41.646,-70.997,"Mon - Sat 10am - 8pm,  Sun 12pm - 6pm ",,,
DXLStore,9105,800 Bald Hill Road,,Warwick,RI,02886,United States,4018239140,41.717,-71.487,"Mon - Sat 10am - 9pm,  Sun 12pm - 6pm",,,
DXLOutlet,9272,8 Dexter Lane,Outlet Mall of Kittery,Kittery,ME,03904,United States,2074398510,43.117,-70.729,"Mon - Sat 10am - 8pm,  Sun 12pm - 6pm",,,
DXLOutlet,9605,120 Laconia Road,"Suite 311,  Tanger Outlet",Tilton,NH,03276,United States,6032868293,43.456,-71.57,"Mon - Sat 9am - 9pm,  Sun 10am - 7pm",,,
DXLStore,9888,35 Holyoke Street,Holyoke Crossing,Holyoke,MA,01040,United States,4135323206,42.173,-72.64,"Mon - Sat 10am - 9pm,  Sun 12pm - 6pm",,,
CasualMaleXLStore,9144,223-227 Memorial Avenue,,West Springfield,MA,01089,United States,4137393463,42.116,-72.64,"Mon - Sat 10am - 8pm,  Sun 12pm - 6pm%3Cbr%3E%3Cb%3E%3Cfont color%3D%22%23CC0000%22%3EShip to this store is unavailable.%3C%2Ffont%3E%3C%2Fb%3E",,,
DXLStore,9573,1470 Pleasant Valley Road,"Suite B,  The Plaza at Buckland Hills",Manchester,CT,06042,United States,8606444146,41.804,-72.562,"Mon - Sat 10am - 9pm,  Sun 12pm - 6pm",,,
DXLStore,9940,150 Philbrook Ave,Maine Mall,South Portland,ME,04106,United States,2077566764,43.631,-70.335,"Mon - Sat 10am - 9pm,  Sun 12pm - 6pm",,,
DXLStore,9157,2021 Gallatin Pike North,"Suite 276,  The Gallery at Rivergate",Madison,TN,37115,United States,6158593120,36.293,-86.703,"Mon - Sat 10am - 9pm,  Sun 12pm - 6pm",,,
CasualMaleXLStore,9221,5295 Hickory Hollow Parkway,,Antioch,TN,37013,United States,6157316649,36.04,-86.638,"Mon - Sat 10am - 8pm,  Sun 12pm - 6pm ",,,
DXLStore,9886,430 Cool Springs Boulevard ,"Suite 120,  Thoroughbred Square III",Franklin,TN,37067,United States,6157711837,35.945,-86.825,"Mon - Sat 10am - 9pm,  Sun 12pm - 6pm",,,
CasualMaleXLStore,9581,4710-B University Drive,,Huntsville,AL,35816,United States,2564304388,34.737,-86.647,"Mon - Sat 10am - 8pm,  Sun 12pm - 6pm",,,
DXLStore,9155,5401 North May Avenue,May Crossing,Oklahoma City,OK,73112,United States,4059431771,35.524,-97.566,"Mon - Sat 10am - 9pm,  Sun 12pm - 6pm",,,
DXLStore,9381,5063 Shelbyville Road,,Louisville,KY,40207,United States,5028992429,38.222,-85.357,"Mon - Sat 10am - 9pm,  Sun 12pm - 6pm",,,
DXLStore,9922,4013 Nicholasville Road,"Suite 160,  Tiverton Plaza",Lexington,KY,40503,United States,8592715951,37.98,-84.529,"Mon - Sat 10am - 9pm,  Sun 12pm - 6pm",,,
DXLStore,9873,127 North Burkhardt Road,Lloyd Crossing,Evansville,IN,47715,United States,8124772405,37.978,-87.474,"Mon - Sat 10am - 9pm,  Sun 12pm - 6pm",,,
DXLStore,9731,4211 Paradise Road,,Las Vegas,NV,89169,United States,7027374855,36.136,-115.157,"Mon - Sat 10am - 9pm,  Sun 12pm - 6pm",,,
DXLStore,9720,1381 West Sunset Road,Suite 140,Henderson,NV,89014,United States,7024359975,36.063,-115.045,"Mon - Sat 10am - 9pm,  Sun 12pm - 6pm",,,
DXLStore,9752,12125 N Parker Avenue,Jantzen Beach Center,Portland,OR,97217,United States,5039781728,45.611,-122.683,"Mon - Sat 10am - 9pm,  Sun 12pm - 6pm",,,
DXLStore,9884,10250 SW Washington Square Rd,"Space C01,  Washington Square Too",Portland,OR,97223,United States,5036039841,45.447,-122.777,"Mon - Sat 10am - 9pm,  Sun 12pm - 6pm",,,
CasualMaleXLStore,9850,8864 S.E. Sunnyside Road,,Clackamas,OR,97015,United States,5036590126,45.416,-122.524,"Mon - Sat 10am - 8pm,  Sun 12pm - 6pm ",,,
CasualMaleXLOutlet,9627,622 W Linmar Lane,,Johnson Creek,WI,53038,United States,9206995133,43.072,-88.774,"Mon - Sat 10am - 9pm,  Sun 10am - 6pm ",,,
DXLStore,9527,523 South Gammon Road,Diamond Retail Center,Madison,WI,53711,United States,6088331700,43.055,-89.502,"Mon - Sat 10am - 9pm,  Sun 12pm - 6pm",,,
DXLStore,9428,1111 Mutual Way,Walmart Supercenter,Appleton,WI,54913,United States,9208302008,44.268,-88.478,"Mon - Sat 10am - 9pm,  Sun 12pm - 6pm",,,
DXLStore,9414,6601 Menaul Boulevard NE,,Albuquerque,NM,87110,United States,5058890485,35.109,-106.571,"Mon - Sat 10am - 9pm,  Sun 12pm - 6pm",,,
DXLStore,9739,4055 North Oracle Road,,Tucson,AZ,85705,United States,5202935366,32.281,-110.979,"Mon - Sat 10am - 9pm,  Sun 12pm - 6pm",,,
DXLStore,9714,4935-B North Blackstone Avenue,Shawstone Shopping Center,Fresno,CA,93726,United States,5592440590,36.808,-119.791,"Mon - Sat 10am - 8pm,  Sun 12pm - 6pm",,,
CasualMaleXLStore,9777,19110 A East 39Th Street,,Independence,MO,64057,United States,8164784497,39.052,-94.402,"Mon - Sat 10am - 8pm,  Sun 12pm - 6pm",,,
DXLStore,9875,6511 Northwest Barry Road,Barry Woods Crossing,Kansas City,MO,64154,United States,8167415614,39.247,-94.655,"Mon - Sat 10am - 9pm,  Sun 12pm - 6pm",,,
DXLStore,9053,9702 Quivira Road,Broadway Plaza,Lenexa,KS,66215,United States,9138880745,38.952,-94.725,"Mon - Sat 10am - 9pm,  Sun 12pm - 6pm",,,
DXLStore,9623,1717 Southwest Wanamaker Road,West Ridge Mall,Topeka,KS,66604,United States,7852727301,39.036,-95.762,"Mon - Sat 10am - 9pm,  Sun 12pm - 6pm",,,
DXLStore,9178,116 South Independence Boulevard,Suite 106,Virginia Beach,VA,23462,United States,7574730394,36.837,-76.137,"Mon - Sat 10am - 9pm,  Sun 12pm - 6pm",,,
DXLStore,9123,12233 Jefferson Avenue,"Suite 5,  Jefferson Green",Newport News,VA,23602,United States,7578828397,37.111,-76.499,"Mon - Sat 10am - 9pm,  Sun 12pm - 6pm",,,
DXLOutlet,9188,5601 Richmond Road,"Suite 012,  Williamsburg Premium Outlets",Williamsburg,VA,23188,United States,7575659836,37.317,-76.737,"Mon - Sat 10am - 9pm,  Sun 10am - 6pm  ",,,
DXLStore,9015,3157 Peachtree Road North East,,Atlanta,GA,30305,United States,4042372071,33.84,-84.377,"Mon - Sat 10am - 9pm,  Sun 12pm - 6pm",,,
CasualMaleXLStore,9617,6715 Jonesboro Road,,Morrow,GA,30260,United States,6784222070,33.572,-84.343,"Mon - Sat 10am - 8pm,  Sun 12pm - 6pm",,,
DXLStore,9769,440 Barrett Pkwy,"Suite 17,  Main Street at Town Center",Kennesaw,GA,30144,United States,6782906971,34.014,-84.563,"Mon - Sat 10am - 8pm,  Sun 12pm - 6pm ",,,
CasualMaleXLStore,9490,7681 N Point Parkway,,Alpharetta,GA,30022,United States,7706429700,34.086,-84.257,"Mon - Sat 10am - 8pm,  Sun 12pm - 6pm ",,,
DXLStore,9880,3420 Buford Drive,"Suite C550,  The Plaza at Mall of Georgia",Buford,GA,30519,United States,7709040952,34.075,-83.985,"Mon - Sat 10am - 9pm,  Sun 10am - 6pm",,,
CasualMaleXLOutlet,9616,800 Steven B Tanger Boulevard,,Commerce,GA,30529,United States,7063350883,34.25,-83.473,"Mon - Sat 9am - 9pm,  Sun 10am - 7pm",,,
DXLStore,9252,611 North 98th Street,Clocktower Village,Omaha,NE,68114,United States,4023939631,41.265,-96.065,"Mon - Sat 10am - 9pm,  Sun 12pm - 6pm",,,
DXLStore,9229,101 South 48th Street,Suite 4,Lincoln,NE,68510,United States,4024889325,40.807,-96.651,"Mon - Sat 10am - 9pm,  Sun 12pm - 6pm",,,
DXLStore,9491,9492 South Dixie Highway,Dadeland Point,Miami,FL,33156,United States,3056708515,25.682,-80.315,"Mon - Sat 10am - 9pm,  Sun 12pm - 6pm",,,
CasualMaleXLStore,9434,1749 Ne 163Rd Street,,Miami,FL,33162,United States,3059478025,25.926,-80.165,"Mon - Sat 10am - 8pm,  Sun 12pm - 6pm",,,
DXLStore,9541,13001 West Sunrise Boulevard,Sawgrass Commons,Sunrise,FL,33323,United States,9548381051,26.147,-80.326,"Mon - Sat 10am - 9pm,  Sun 12pm - 6pm",,,
CasualMaleXLStore,9551,3196 N State Rd 7,,Lauderdale Lakes,FL,33319,United States,9547309333,26.166,-80.203,"Mon - Sat 10am - 8pm,  Sun 12pm - 6pm",,,
CasualMaleXLStore,9523,1990 N Military Trail,,W Palm Beach,FL,33409,United States,5616150309,26.706,-80.111,"Mon - Sat 10am - 8pm,  Sun 12pm - 6pm%3Cbr%3E%3Cb%3E%3Cfont color%3D%22%23CC0000%22%3EShip to this store is unavailable.%3C%2Ffont%3E%3C%2Fb%3E",,,
DXLStore,9887,1855 Palm Beach Lakes Boulevard ,"Suite B07,  Marketplace at the Outlets",West Palm Beach,FL,33401,United States,5616831515,26.721,-80.088,"Mon - Sat 10am - 9pm,  Sun 12pm - 6pm",,,
DXLStore,9505,4601 Creedmoor Road,"Suite 105,  Crabtree Valley Place",Raleigh,NC,27612,United States,9197839737,35.845,-78.681,"Mon - Sat 10am - 9pm,  Sun 12pm - 6pm",,,
CasualMaleXLOutlet,9323,2400 Outlet Center Drive,,Smithfield,NC,27577,United States,9199897751,35.512,-78.347,"Mon - Sat 10am - 9pm,  Sun 11am - 7pm",,,
CasualMaleXLOutlet,9147,4000 Arrowhead Boulevard,,Mebane,NC,27302,United States,9193042059,36.091,-79.286,"Mon - Sat 9am - 9pm,  Sun 10am - 7pm  ",,,
DXLStore,9782,1934 Skibo Road,Skibo Marketplace,Fayetteville,NC,28314,United States,,35.065,-78.968,%3Cb%3E%3Cfont color%3D%22%23619a36%22%3EOPENING AUGUST 2017%3C%2Ffont%3E%3C%2Fb%3E%3Cbr%3E %3Cp%3E%3Cfont color%3D%22%23CC0000%22%3EShip to this store is unavailable.%3C%2Ffont%3E%3C%2Fp%3E,,,
DXLStore,9187,2480 Fairview Avenue N,"Suite 145,  Rosedale Commons Shopping Center",Roseville,MN,55113,United States,6516319958,45.016,-93.174,"Mon - Sat 10am - 9pm,  Sun 12pm - 6pm",,,
DXLStore,9201,1501 Plymouth Road,Bonaventure Shopping Center,Minnetonka,MN,55305,United States,9525440718,44.969,-93.442,"Mon - Sat 10am - 9pm,  Sun 12pm - 6pm",,,
CasualMaleXLStore,9409,712 W County Road 42,,Burnsville,MN,55337,United States,9528985499,44.747246,-93.288767,"Mon - Sat 10am - 8pm,  Sun 12pm - 6pm",,,
CasualMaleXLOutlet,9629,6500 Labeaux Avenue NE,,Albertville,MN,55301,United States,7634978820,45.238,-93.656,"Mon - Sat 10am - 9pm,  Sun 10am - 7pm",,,
DXLStore,9871,27079 Chagrin Boulevard,Village Square Shopping Center,Woodmere,OH,44122,United States,2163789370,41.463,-81.488,"Mon - Sat 10am - 9pm,  Sun 12pm - 6pm",,,
DXLStore,9805,4014 Medina Road,"Unit B,  Market Square at Montrose",Akron,OH,44333,United States,3306682008,41.132,-81.642,"Mon - Sat 10am - 9pm,  Sun 12pm - 6pm",,,
DXLStore,9232,5106 Whipple Highway,Belden Whipple Center,Canton,OH,44718,United States,3304929808,40.852,-81.443,"Mon - Sat 10am - 9pm,  Sun 12pm - 6pm",,,
CasualMaleXLStore,9387,926 Boardman-Poland Road,,Boardman,OH,44512,United States,3307588525,41.042,-80.686,"Mon - Sat 10am - 8pm,  Sun 12pm - 6pm",,,
CasualMaleXLOutlet,9643,1911 Leesburg Grove City Road,,Grove City,PA,16127,United States,7247489679,41.164,-80.087,"Mon - Sat 10am - 9pm,  Sun 10am - 7pm",,,
CasualMaleXLStore,9260,6815 Peach Street Space A-13,,Erie,PA,16509,United States,8148641091,42.073,-80.064,"Mon - Sat 10am - 8pm,  Sun 12pm - 6pm",,,
DXLStore,9885,7020 South Memorial Drive,,Tulsa,OK,74133,United States,9182540582,36.062,-95.887,"Mon - Sat 10am - 9pm,  Sun 12pm - 6pm",,,
DXLStore,9223,8303 East Kellogg Drive,Eastgate Shopping Center,Wichita,KS,67207,United States,3166520545,37.679,-97.19,"Mon - Sat 10am - 9pm,  Sun 12pm - 6pm",,,
DXLStore,9890,4434 Veterans Blvd,Clearview Mall,Metairie,LA,70006,United States,5044552703,30.004,-90.165,"Mon - Sat 10am - 9pm,  Sun 12pm - 6pm",,,
CasualMaleXLOutlet,9670,10737 Factory Shops Boulevard,,Gulfport,MS,39503,United States,2288220024,30.473,-89.154,"Mon - Sat 10am - 9pm,  Sun 11am - 6pm ",,,
CasualMaleXLStore,9478,9490 Airline Highway,,Baton Rouge,LA,70815,United States,2259233752,30.451,-91.061,"Mon - Sat 10am - 8pm,  Sun 12pm - 6pm ",,,
DXLStore,9482,2406 West Brandon Boulevard,Regency Square Shopping Center,Brandon,FL,33511,United States,8136514096,27.939,-82.322,"Mon - Sat 10am - 9pm,  Sun 12pm - 6pm",,,
CasualMaleXLStore,9817,8015 Citrus Park Drive,,Tampa,FL,33625,United States,8139208774,28.066,-82.571,"Mon - Sat 10am - 8pm,  Sun 12pm - 6pm ",,,
DXLStore,9944,2539 Countryside Blvd Ste 1,Countryside Centre,Clearwater,FL,33761,United States,7276690866,28.014,-82.734,"Mon - Sat 10am - 9pm,  Sun 12pm - 6pm",,,
CasualMaleXLStore,9801,10359 Ulmerton Road,,Largo,FL,33771,United States,7275855485,27.895,-82.782,"Mon - Sat 10am - 8pm,  Sun 12pm - 6pm ",,,
DXLStore,9937,5443 International Drive,Orlando Crossing,Orlando,FL,32819,United States,4073635570,28.462,-81.458,"Mon - Sat 10am - 9pm,  Sun 12pm - 6pm",,,
DXLStore,9865,4012 Eastgate Drive,Millenia Crossing,Orlando,FL,32839,United States,4072642867,28.486,-81.427,"Mon - Sat 10am - 9pm,  Sun 12pm - 6pm",,,
CasualMaleXLStore,9494,620 E Altamonte Drive,,Altamonte Springs,FL,32701,United States,4077675336,28.664,-81.368,"Mon - Sat 10am - 8pm,  Sun 12pm - 6pm ",,,
CasualMaleXLStore,9844,464 N Alafaya Trail,Suite 108,Orlando,FL,32828,United States,4072753642,28.557,-81.207,"Mon - Sat 10am - 8pm,  Sun 12pm - 6pm",,,
DXLStore,9916,59 Brentwood Promenade Court,The Promenade at Brentwood,Saint Louis,MO,63144,United States,3149616859,38.627,-90.343,"Mon - Sat 10am - 9pm,  Sun 12pm - 6pm",,,
DXLStore,1331,77 S County Center way,South County Center,St. Louis,MO,63129,United States,,38.507,-90.33,%3Cb%3E%3Cfont color%3D%22%23619a36%22%3EOPENING MAY 2017%3C%2Ffont%3E%3C%2Fb%3E%3Cbr%3E %3Cp%3E%3Cfont color%3D%22%23CC0000%22%3EShip to this store is unavailable.%3C%2Ffont%3E%3C%2Fp%3E,,,
DXLStore,9250,315 St  Clair Square,"Suite 221A,  St Clair Square",Fairview Heights,IL,62208,United States,6186282387,38.595,-89.981,"Mon - Sat 10am - 9pm,  Sun 12pm - 6pm",,,
CasualMaleXLStore,9331,4016 Lemay Ferry Road,,Saint Louis,MO,63129,United States,3148451624,38.462,-90.332,"Mon - Sat 10am - 8pm,  Sun 12pm - 6pm %3Cbr%3E%3Cb%3E%3Cfont color%3D%22%23CC0000%22%3EShip to this store is unavailable.%3C%2Ffont%3E%3C%2Fb%3E",,,
DXLStore,9882,247 Mid Rivers Mall Drive,Mid Rivers Plaza,St Peters,MO,63376,United States,6362791153,38.795,-90.622,"Mon - Sat 10am - 9pm,  Sun 12pm - 6pm",,,
DXLStore,9918,2875 South Veterans Parkway,White Oaks Plaza,Springfield,IL,62704,United States,2175460025,39.766,-89.704,"Mon - Sat 10am - 9pm,  Sun 12pm - 6pm",,,
DXLStore,9417,4938 S. Staples Street,The Shops at La Palmera,Corpus Christi,TX,78411,United States,3619851820,27.74,-97.388,"Mon - Sat 10am - 9pm,  Sun 12pm - 6pm",,,
DXLStore,9868,280 E. Waterfront Drive,,Homestead,PA,15120,United States,4124624258,40.412,-79.912,"Mon - Sat 10am - 9pm,  Sun 12pm - 6pm",,,
DXLStore,9280,4801 Mcknight Road,"Suite 91B,  North Hills Village Mall",Pittsburgh,PA,15237,United States,4123698889,40.523,-80.007,"Mon - Sat 10am - 9pm,  Sun 12pm - 6pm",,,
DXLStore,9343,5205 Campbells Run Road,,Pittsburgh,PA,15205,United States,4127886399,40.443,-80.159,"Mon - Sat 10am - 9pm,  Sun 12pm - 6pm",,,
CasualMaleXLStore,9311,3832 William Penn Highway,,Monroeville,PA,15146,United States,4123728442,40.426,-79.763,"Mon - Sat 10am - 8pm,  Sun 12pm - 6pm ",,,
CasualMaleXLOutlet,9698,2200 Tanger Boulevard,,Washington,PA,15301,United States,7242254813,40.174,-80.253,"Mon - Sat 9am - 9pm,  Sun 10am - 7pm",,,
CasualMaleXLStore,9829,5240 Route 30,,Greensburg,PA,15601,United States,7248343571,40.295,-79.542,"Mon - Sat 10am - 8pm,  Sun 12pm - 6pm ",,,
CasualMaleXLStore,9506,240 Park Hills Plaza,,Altoona,PA,16602,United States,8149442621,40.501,-78.387,"Mon - Sat 10am - 8pm,  Sun 12pm - 6pm ",,,
DXLStore,9361,549 East Coliseum Boulevard,Coliseum Shoppes,Ft. Wayne,IN,46805,United States,2604834460,41.118,-85.129,"Mon - Sat 10am - 9pm,  Sun 12pm - 6pm",,,
CasualMaleXLStore,9589,1919 Valley View Boulevard NW,,Roanoke,VA,24012,United States,5403669537,37.306,-79.94,"Mon - Sat 10am - 8pm,  Sun 12pm - 6pm",,,
DXLStore,9934,2015 Walden Avenue,,Buffalo,NY,14225,United States,7166853473,42.909014,-78.770341,"Mon - Sat 10am - 9pm,  Sun 12pm - 6pm",,,
CasualMaleXLStore,9131,1228-1230 Niagara Falls Boulevard,,Tonawanda,NY,14150,United States,7168373644,43.002,-78.86,"Mon - Sat 10am - 8pm,  Sun 12pm - 6pm",,,
CasualMaleXLOutlet,9166,1630 Military Road,,Niagara Falls,NY,14304,United States,7162985741,43.1,-78.955,"Mon - Sat 10am - 9pm,  Sun 11am - 6pm ",,,
DXLStore,9174,951 Jefferson Road,,Rochester,NY,14623,United States,5852727288,43.086,-77.576,"Mon - Sat 10am - 9pm,  Sun 12pm - 6pm",,,
DXLStore,9304,5743 South Westnedge Avenue,,Portage,MI,49002,United States,2693810848,42.233,-85.589,"Mon - Sat 10am - 9pm,  Sun 12pm - 6pm ",,,
CasualMaleXLOutlet,9598,1757 94th Drive,,Vero Beach,FL,32966,United States,7725670131,27.637,-80.522,"Mon - Sat 9am - 8pm,  Sun 11am - 6pm",,,
DXLStore,9419,5300 San Dario Ave,"Suite 101,  Mall del Norte",Laredo,TX,78041,United States,9567954712,27.551,-99.5,"Mon - Sat 10am - 8pm,  Sun 12pm - 6pm",,,
DXLStore,9921,2910 West Loop 289,"Suite 105,  West End Shopping Center",Lubbock,TX,79407,United States,8067965809,33.566,-101.944,"Mon - Sat 10am - 9pm,  Sun 12pm - 6pm",,,
DXLStore,9761,5595 South Virginia Street,"Suite A,  Meadowood Mall",Reno,NV,89502,United States,7758255066,39.474,-119.788,"Mon - Sat 10am - 9pm,  Sun 12pm - 6pm",,,
DXLStore,9874,4243 Ambassador Caffery Parkway,"Suite 108,  Ambassador Crossing",Lafayette,LA,70508,United States,3379892250,30.16,-92.053,"Mon - Sat 10am - 9pm,  Sun 12pm - 6pm",,,
DXLStore,9858,3427 East Fairview Road,Meridian Crossroads,Meridian,ID,83642,United States,2088469002,43.619,-116.353,"Mon - Sat 10am - 9pm,  Sun 12pm - 6pm",,,
DXLStore,9526,1723 Montgomery Highway South,"Suite 111,  Riverchase Promenade",Birmingham,AL,35244,United States,2057338595,33.38,-86.804,"Mon - Sat 10am - 9pm,  Sun 12pm - 6pm",,,
DXLStore,9883,13804 East Indiana Avenue,Unit B Evergreen Crossing,Spokane Valley,WA,99216,United States,5092289135,47.676,-117.214,"Mon - Sat 10am - 9pm,  Sun 12pm - 6pm",,,
DXLStore,9889,6503 Mills Civic Parkway,Paradise Point,West Des Moines,IA,50266,United States,5152221718,41.564,-93.796,"Mon - Sat 10am - 9pm,  Sun 12pm - 6pm",,,
CasualMaleXLOutlet,9633,112-A Tanger Drive,,Williamsburg,IA,52361,United States,3196689584,41.661,-92.009,"Mon - Sat 10am - 9pm,  Sun 10am - 6pm",,,
CasualMaleXLOutlet,9588,655 Route 318,,Waterloo,NY,13165,United States,3155393749,42.909,-76.877,"Sun - Thu 10am - 7pm,  Fri - Sat 10am - 9pm  ",,,
CasualMaleXLStore,9507,3514 W Genesee St,,Syracuse,NY,13219,United States,3154844525,43.039,-76.22,"Mon - Sat 10am - 8pm,  Sun 12pm - 6pm ",,,
DXLOutlet,9152,4628 Factory Stores Blvd,Tanger Outlets,Myrtle Beach,SC,29579,United States,8432361513,33.751,-78.958,"Mon - Sat 9am - 9pm,  Sun 10am - 7pm",,,
DXLStore,9913,7527 Youree Drive,Regal Court Shopping Center,Shreveport,LA,71105,United States,3187976635,32.436,-93.714,"Mon - Sat 10am - 9pm,  Sun 12pm - 6pm",,,
CasualMaleXLStore,9270,1407 N Veterans Parkway,,Bloomington,IL,61704,United States,3096629317,40.499,-88.951,"Mon - Sat 10am - 8pm,  Sun 12pm - 6pm",,,
CasualMaleXLStore,9302,1216 S University Avenue,,Little Rock,AR,72204,United States,5016667944,34.741,-92.342,"Mon - Sat 10am - 8pm,  Sun 12pm - 6pm",,,
CasualMaleXLStore,9521,3435 Wrightsboro Road,,Augusta,GA,30909,United States,7067338223,33.468,-82.079,"Mon - Sat 10am - 8pm,  Sun 12pm - 6pm",,,
DXLStore,9945,"2225 South Georgia Street,  Suite D2225",Wolfin Village,Amarillo,TX,79109,United States,,35.188913,-101.865605,%3Cb%3E%3Cfont color%3D%22%23619a36%22%3EOPENING JUNE 2017%3C%2Ffont%3E%3C%2Fb%3E%3Cbr%3E %3Cp%3E%3Cfont color%3D%22%23CC0000%22%3EShip to this store is unavailable.%3C%2Ffont%3E%3C%2Fp%3E,,,
CasualMaleXLStore,9393,2221 I-40 W,,Amarillo,TX,79109,United States,8063569576,35.162,-101.89,"Mon - Sat 10am - 8pm,  Sun 12pm - 6pm",,,
DXLStore,9942,3280 Bel Air Mall Road,"Suite A15,  The Shoppes At Bel Air ",Mobile,AL,36606,United States,,30.673352,-88.125279,%3Cb%3E%3Cfont color%3D%22%23619a36%22%3EOPENING MAY 2017%3C%2Ffont%3E%3C%2Fb%3E%3Cbr%3E %3Cp%3E%3Cfont color%3D%22%23CC0000%22%3EShip to this store is unavailable.%3C%2Ffont%3E%3C%2Fp%3E,,,
CasualMaleXLOutlet,9630,2601 South Mckenzie Street,,Foley,AL,36535,United States,2519703291,30.372,-87.683,"Mon - Sat 9am - 9pm,  Sun 11am - 6pm",,,
DXLStore,9273,3931 28th Street SE,East Paris Shoppes Shopping Center,Grand Rapids,MI,49512,United States,6169427057,42.881,-85.535,"Mon - Sat 10am - 9pm,  Sun 12pm - 6pm",,,
DXLStore,9856,6170 South State Street,,Murray,UT,84107,United States,8012611554,40.657,-111.883,"Mon - Sat 10am - 9pm,  Sun 12pm - 6pm",,,
DXLStore,9931,146 N Central Ave,Station Park Shopping Center,Farmington,UT,84025,United States,8014512022,40.985,-111.907,"Mon - Sat 10am - 9pm,  Sun 12pm - 6pm",,,
DXLStore,9351,2107 Gunbarrel Road,Hamilton Corner,Chattanooga,TN,37421,United States,4238929470,35.026,-85.236,"Mon - Sat 10am - 9pm,  Sun 12pm - 6pm",,,
DXLStore,9405,7922 Kingston Pike,,Knoxville,TN,37919,United States,8656933771,35.925,-84.052,"Mon - Sat 10am - 9pm,  Sun 12pm - 6pm",,,
DXLOutlet,9251,2713 Teaster Lane,Pigeon River Crossing,Pigeon Forge,TN,37863,United States,8654539618,35.797,-83.558,"Mon - Thu 10am - 6pm,  Fri - Sat 10am - 8pm,  Sun 11am - 5pm",,,
DXLStore,9914,1700 South 10th Street,"Suite 160,  Paseo Plaza",McAllen,TX,78503,United States,9566867619,26.189,-98.233,"Mon - Sat 10am - 9pm,  Sun 12pm - 6pm",,,
CasualMaleXLStore,9595,1039 E County Line Road,,Jackson,MS,39211,United States,6019566561,32.372,-90.127,"Mon - Sat 10am - 8pm,  Sun 12pm - 6pm",,,
DXLStore,9915,10041 University Plaza Drive,Shoppes at University Plaza,Fort Myers,FL,33913,United States,2394334270,26.491,-81.785,"Mon - Sat 10am - 9pm,  Sun 12pm - 6pm",,,
DXLStore,9319,3502A W 41st St,Greenway Mall,Sioux Falls,SD,57106,United States,6053619323,43.515,-96.767,"Mon - Sat 10am - 9pm,  Sun 12pm - 6pm",,,
CasualMaleXLStore,9501,1418 E Battlefield,,Springfield,MO,65804,United States,4178895578,37.162,-93.246,"Mon - Sat 10am - 8pm,  Sun 12pm - 6pm ",,,
CasualMaleXLOutlet,9529,300 Tanger Boulevard,,Branson,MO,65616,United States,4173348770,36.644,-93.231,Mon - Sun 9am - 9pm  ,,,
CasualMaleXLOutlet,9665,4540 Osage Beach Parkway,Suite N4,Osage Beach,MO,65065,United States,5733027478,38.135,-92.669,"Mon - Sat 10am - 9pm,  Sun 10am - 6pm ",,,
DXLStore,9895,20 Wolf Road,,Albany,NY,12205,United States,5184381278,42.711,-73.821,"Mon - Sat 10am - 9pm,  Sun 12pm - 6pm",,,
DXLStore,9929,3220 East 53rd St,Suite B,Davenport,IA,52807,United States,5633449404,41.576,-90.527,"Mon - Sat 10am - 9pm,  Sun 12pm - 6pm",,,
CasualMaleXLStore,9484,1006 W Anthony Drive,,Champaign,IL,61820,United States,2173591462,40.113,-88.246,"Mon - Sat 10am - 8pm,  Sun 12pm - 6pm ",,,
CasualMaleXLStore,9401,310 Reynolds Road,,Johnson City,NY,13790,United States,6077292091,42.123,-75.971,"Mon - Sat 10am - 8pm,  Sun 12pm - 6pm",,,
DXLStore,9139,7620 Rivers Avenue,"Suite 120A,  Norrthwoods Market Place",North Charleston,SC,29406,United States,8435720355,32.942,-80.04,"Mon - Sat 10am - 9pm,  Sun 12pm - 6pm",,,
CasualMaleXLStore,9793,1392 Twixt Town Road,,Marion,IA,52302,United States,3193732139,42.028,-91.62,"Mon - Sat 10am - 8pm,  Sun 12pm - 6pm ",,,
DXLStore,9897,2810 West Loop 250 North,"Suite 155,  The Commons at Northpark",Midland,TX,79705,United States,4326890221,32.04,-102.113,"Mon - Sat 10am - 9pm,  Sun 12pm - 6pm",,,
CasualMaleXLStore,9406,3526-3528 University Avenue,,Peoria,IL,61604,United States,3096827710,40.7,-89.683,"Mon - Sat 10am - 8pm,  Sun 12pm - 6pm",,,
CasualMaleXLStore,9791,2101 West Broadway,Suite 104,Columbia,MO,65203,United States,5734454115,38.929,-92.37,"Mon - Sat 10am - 8pm,  Sun 12pm - 6pm ",,,
CasualMaleXLStore,9324,4340 13th Avenue SW,,Fargo,ND,58103,United States,7012828643,46.853,-96.815,"Mon - Sat 10am - 8pm,  Sun 12pm - 6pm ",,,
DXLStore,9859,585 South 24th Street West,,Billings,MT,59102,United States,4066569504,45.782,-108.58,"Mon - Sat 10am - 9pm,  Sun 12pm - 6pm",,,
DXLOutlet,9242,1492 State Route 9,,Lake George,NY,12845,United States,5187983752,43.368693,-73.698321,"Mon - Thu 10am - 6pm,  Fri - Sat 10am - 7pm,  Sun 10am - 5pm",,,
CasualMaleXLStore,9799,90 Rhl Boulevard,,South Charleston,WV,25309,United States,3047447600,38.339,-81.753,"Mon - Sat 10am - 8pm,  Sun 12pm - 6pm ",,,
