store_name,store_number,address,address2,city,state,zip_code,country,phone_number,latitude,longitude,store_hours,store_type,other_fields,coming_soon
"Cook Out , Maryland",474,1115 S Salisbury Blvd,,Salisbury,MD,21804,United States,,38.347291,-75.602345,"Monday 9:00 AM - 5:00 PM, Tuesday 9:00 AM - 5:00 PM, Wednesday 9:00 AM - 5:00 PM, Thursday 9:00 AM - 5:00 PM, Friday 9:00 AM - 5:00 PM, Saturday Closed, Sunday Closed",,,
"Cook Out , Elizabeth City",1587,912 W Ehringhaus St.,,Elizabeth City,NC,27909,United States,,36.295865,-76.233716,"Monday 9:00 AM - 5:00 PM, Tuesday 9:00 AM - 5:00 PM, Wednesday 9:00 AM - 5:00 PM, Thursday 9:00 AM - 5:00 PM, Friday 9:00 AM - 5:00 PM, Saturday Closed, Sunday Closed",,,
"Cook Out , Virginia Beach, VA",449,5670 Indian River Rd,,Virginia Beach,VA,23464,United States,,36.805592,-76.190398,"Monday 9:00 AM - 5:00 PM, Tuesday 9:00 AM - 5:00 PM, Wednesday 9:00 AM - 5:00 PM, Thursday 9:00 AM - 5:00 PM, Friday 9:00 AM - 5:00 PM, Saturday Closed, Sunday Closed",,,
"Cook Out , Military Hwy.",417,1105 N Military Hwy,,Norfolk,VA,23502,United States,,36.859732,-76.210654,"Monday 9:00 AM - 5:00 PM, Tuesday 9:00 AM - 5:00 PM, Wednesday 9:00 AM - 5:00 PM, Thursday 9:00 AM - 5:00 PM, Friday 9:00 AM - 5:00 PM, Saturday Closed, Sunday Closed",,,
"Cook Out , Chesapeake, VA",431,1328 Battlefield Blvd N,,Chesapeake,VA,23320,United States,,36.764709,-76.251728,"Monday 9:00 AM - 5:00 PM, Tuesday 9:00 AM - 5:00 PM, Wednesday 9:00 AM - 5:00 PM, Thursday 9:00 AM - 5:00 PM, Friday 9:00 AM - 5:00 PM, Saturday Closed, Sunday Closed",,,
"Cook Out , Monticello Ave.",423,1818 Monticello Ave,,Norfolk,VA,23235,United States,,36.865391,-76.284441,"Monday 9:00 AM - 5:00 PM, Tuesday 9:00 AM - 5:00 PM, Wednesday 9:00 AM - 5:00 PM, Thursday 9:00 AM - 5:00 PM, Friday 9:00 AM - 5:00 PM, Saturday Closed, Sunday Closed",,,
"Cook Out , Portsmouth",425,4015 Victory Blvd,,Portsmouth,VA,23701,United States,,36.811285,-76.360264,"Monday 9:00 AM - 5:00 PM, Tuesday 9:00 AM - 5:00 PM, Wednesday 9:00 AM - 5:00 PM, Thursday 9:00 AM - 5:00 PM, Friday 9:00 AM - 5:00 PM, Saturday Closed, Sunday Closed",,,
"Cook Out , Hampton",447,1025 W Mercury Blvd,,Hampton,VA,23666,United States,,37.043204,-76.3796,"Monday 9:00 AM - 5:00 PM, Tuesday 9:00 AM - 5:00 PM, Wednesday 9:00 AM - 5:00 PM, Thursday 9:00 AM - 5:00 PM, Friday 9:00 AM - 5:00 PM, Saturday Closed, Sunday Closed",,,
"Cook Out , Jefferson Ave.",413,12471 Jefferson Ave,,Newport News,VA,23602,United States,,37.124264,-76.509576,"Monday 9:00 AM - 5:00 PM, Tuesday 9:00 AM - 5:00 PM, Wednesday 9:00 AM - 5:00 PM, Thursday 9:00 AM - 5:00 PM, Friday 9:00 AM - 5:00 PM, Saturday Closed, Sunday Closed",,,
"Cook Out , Suffolk, VA",445,1017 N Main St,,Suffolk,VA,23434,United States,,36.744044,-76.583859,"Monday 9:00 AM - 5:00 PM, Tuesday 9:00 AM - 5:00 PM, Wednesday 9:00 AM - 5:00 PM, Thursday 9:00 AM - 5:00 PM, Friday 9:00 AM - 5:00 PM, Saturday Closed, Sunday Closed",,,
"Cook Out , Gloucester",446,7065 George Washington Memorial Hwy,,Gloucester Courthouse,VA,23061,United States,,37.392858,-76.52796,"Monday 9:00 AM - 5:00 PM, Tuesday 9:00 AM - 5:00 PM, Wednesday 9:00 AM - 5:00 PM, Thursday 9:00 AM - 5:00 PM, Friday 9:00 AM - 5:00 PM, Saturday Closed, Sunday Closed",,,
"Cook Out , New Bern City",1655,2500 Dr ML King Blvd,,New Bern,NC,28562,United States,,35.105875,-77.080873,"Monday 9:00 AM - 5:00 PM, Tuesday 9:00 AM - 5:00 PM, Wednesday 9:00 AM - 5:00 PM, Thursday 9:00 AM - 5:00 PM, Friday 9:00 AM - 5:00 PM, Saturday Closed, Sunday Closed",,,
"Cook Out , Williamsburg",427,1660 Richmond Rd,,Williamsburg,VA,23185,United States,,37.295709,-76.726261,"Monday 9:00 AM - 5:00 PM, Tuesday 9:00 AM - 5:00 PM, Wednesday 9:00 AM - 5:00 PM, Thursday 9:00 AM - 5:00 PM, Friday 9:00 AM - 5:00 PM, Saturday Closed, Sunday Closed",,,
Cook Out  LITTLE WASHINGTON COMING SOON,1405,1006 Carolina Ave,,Washington,NC,27889,United States,,35.556405,-77.059645,"Monday 9:00 AM - 5:00 PM, Tuesday 9:00 AM - 5:00 PM, Wednesday 9:00 AM - 5:00 PM, Thursday 9:00 AM - 5:00 PM, Friday 9:00 AM - 5:00 PM, Saturday Closed, Sunday Closed",,,
"Cook Out , Little Washington",1709,1006 Carolina Ave,,Washington,NC,27889,United States,,35.556405,-77.059646,"Monday 9:00 AM - 5:00 PM, Tuesday 9:00 AM - 5:00 PM, Wednesday 9:00 AM - 5:00 PM, Thursday 9:00 AM - 5:00 PM, Friday 9:00 AM - 5:00 PM, Saturday Closed, Sunday Closed",,,
"Cook Out , Jacksonville",1631,421 Western Boulevard,,Jacksonville,NC,28546,United States,,34.770012,-77.386757,"Monday 9:00 AM - 5:00 PM, Tuesday 9:00 AM - 5:00 PM, Wednesday 9:00 AM - 5:00 PM, Thursday 9:00 AM - 5:00 PM, Friday 9:00 AM - 5:00 PM, Saturday Closed, Sunday Closed",,,
"Cook Out , Eastern",1633,407 South Marine Blvd,,Jacksonville,NC,28540,United States,,34.751609,-77.447144,"Monday 9:00 AM - 5:00 PM, Tuesday 9:00 AM - 5:00 PM, Wednesday 9:00 AM - 5:00 PM, Thursday 9:00 AM - 5:00 PM, Friday 9:00 AM - 5:00 PM, Saturday Closed, Sunday Closed",,,
"Cook Out , Greenville",1619,3209 East 10th Street,,Greenville,NC,27858,United States,,35.599041,-77.331071,"Monday 9:00 AM - 5:00 PM, Tuesday 9:00 AM - 5:00 PM, Wednesday 9:00 AM - 5:00 PM, Thursday 9:00 AM - 5:00 PM, Friday 9:00 AM - 5:00 PM, Saturday Closed, Sunday Closed",,,
"Cook Out , Greenville",1617,711 S. Memorial Drive,,Greenville,NC,27834,United States,,35.60682,-77.394898,"Monday 9:00 AM - 5:00 PM, Tuesday 9:00 AM - 5:00 PM, Wednesday 9:00 AM - 5:00 PM, Thursday 9:00 AM - 5:00 PM, Friday 9:00 AM - 5:00 PM, Saturday Closed, Sunday Closed",,,
"Cook Out , Carolina Beach",1697,5615 Carolina Beach Road,,Wilmington,NC,28412,United States,,34.135348,-77.894081,"Monday 9:00 AM - 5:00 PM, Tuesday 9:00 AM - 5:00 PM, Wednesday 9:00 AM - 5:00 PM, Thursday 9:00 AM - 5:00 PM, Friday 9:00 AM - 5:00 PM, Saturday Closed, Sunday Closed",,,
"Cook Out , Wilmington",1695,715 S. College Rd.,,Wilmington,NC,28403,United States,,34.222575,-77.881849,"Monday 9:00 AM - 5:00 PM, Tuesday 9:00 AM - 5:00 PM, Wednesday 9:00 AM - 5:00 PM, Thursday 9:00 AM - 5:00 PM, Friday 9:00 AM - 5:00 PM, Saturday Closed, Sunday Closed",,,
"Cook Out ,  Mechanicsville, VA",451,7114 Mechanicsville Turnpike,,Mechanicsville,VA,23111,United States,,37.611708,-77.344353,"Monday 9:00 AM - 5:00 PM, Tuesday 9:00 AM - 5:00 PM, Wednesday 9:00 AM - 5:00 PM, Thursday 9:00 AM - 5:00 PM, Friday 9:00 AM - 5:00 PM, Saturday Closed, Sunday Closed",,,
"Cook Out , Laburnum Ave.",442,4300 S Laburnum Ave,,Richmond,VA,23231,United States,,37.5298,-77.359573,"Monday 9:00 AM - 5:00 PM, Tuesday 9:00 AM - 5:00 PM, Wednesday 9:00 AM - 5:00 PM, Thursday 9:00 AM - 5:00 PM, Friday 9:00 AM - 5:00 PM, Saturday Closed, Sunday Closed",,,
"Cook Out , Colonial Heights",436,618 Boulevard,,Colonial Heights,VA,23834,United States,,37.24488,-77.409954,"Monday 9:00 AM - 5:00 PM, Tuesday 9:00 AM - 5:00 PM, Wednesday 9:00 AM - 5:00 PM, Thursday 9:00 AM - 5:00 PM, Friday 9:00 AM - 5:00 PM, Saturday Closed, Sunday Closed",,,
"Cook Out , Roanoke Rapids",1669,1505 Julian R Allsbrook Hwy.,,Roanoke Rapids,NC,27870,United States,,36.433253,-77.636767,"Monday 9:00 AM - 5:00 PM, Tuesday 9:00 AM - 5:00 PM, Wednesday 9:00 AM - 5:00 PM, Thursday 9:00 AM - 5:00 PM, Friday 9:00 AM - 5:00 PM, Saturday Closed, Sunday Closed",,,
"Cook Out , Broad St.",435,4802 W Broad St,,Richmond,VA,23230,United States,,37.580558,-77.491456,"Monday 9:00 AM - 5:00 PM, Tuesday 9:00 AM - 5:00 PM, Wednesday 9:00 AM - 5:00 PM, Thursday 9:00 AM - 5:00 PM, Friday 9:00 AM - 5:00 PM, Saturday Closed, Sunday Closed",,,
"Cook Out , Ashland",1784,800 England St,,Ashland,VA,23005,United States,,37.758763,-77.467686,"Monday 9:00 AM - 5:00 PM, Tuesday 9:00 AM - 5:00 PM, Wednesday 9:00 AM - 5:00 PM, Thursday 9:00 AM - 5:00 PM, Friday 9:00 AM - 5:00 PM, Saturday Closed, Sunday Closed",,,
"Cook Out , Midlothian Turnpike",441,8240 Midlothian Tpke,,Richmond,VA,23235,United States,,37.49763,-77.54898,"Monday 9:00 AM - 5:00 PM, Tuesday 9:00 AM - 5:00 PM, Wednesday 9:00 AM - 5:00 PM, Thursday 9:00 AM - 5:00 PM, Friday 9:00 AM - 5:00 PM, Saturday Closed, Sunday Closed",,,
"Cook Out , Rocky Mount",1671,1020 N. Wesleyan Blvd.,,Rocky Mount,NC,27801,United States,,35.97121,-77.80938,"Monday 9:00 AM - 5:00 PM, Tuesday 9:00 AM - 5:00 PM, Wednesday 9:00 AM - 5:00 PM, Thursday 9:00 AM - 5:00 PM, Friday 9:00 AM - 5:00 PM, Saturday Closed, Sunday Closed",,,
"Cook Out , East Ridge",434,1501 Eastridge Rd,,Henrico,VA,23229,United States,,37.601655,-77.562444,"Monday 9:00 AM - 5:00 PM, Tuesday 9:00 AM - 5:00 PM, Wednesday 9:00 AM - 5:00 PM, Thursday 9:00 AM - 5:00 PM, Friday 9:00 AM - 5:00 PM, Saturday Closed, Sunday Closed",,,
"Cook Out , Goldsboro",1603,432 N. Berkley Blvd.,,Goldsboro,NC,27534,United States,,35.373912,-77.945829,"Monday 9:00 AM - 5:00 PM, Tuesday 9:00 AM - 5:00 PM, Wednesday 9:00 AM - 5:00 PM, Thursday 9:00 AM - 5:00 PM, Friday 9:00 AM - 5:00 PM, Saturday Closed, Sunday Closed",,,
"Cook Out , Massaponax",453,10108 Jefferson Davis Hwy,,Fredericksburg,VA,22407,United States,,38.223195,-77.506731,"Monday 9:00 AM - 5:00 PM, Tuesday 9:00 AM - 5:00 PM, Wednesday 9:00 AM - 5:00 PM, Thursday 9:00 AM - 5:00 PM, Friday 9:00 AM - 5:00 PM, Saturday Closed, Sunday Closed",,,
"Cook Out , Fredericksburg",444,2024 Plank Rd,,Fredericksburg,VA,22401,United States,,38.295708,-77.494945,"Monday 9:00 AM - 5:00 PM, Tuesday 9:00 AM - 5:00 PM, Wednesday 9:00 AM - 5:00 PM, Thursday 9:00 AM - 5:00 PM, Friday 9:00 AM - 5:00 PM, Saturday Closed, Sunday Closed",,,
"Cook Out , Short Pump Coming Soon",1782,4245 Pouncey Tract Rd,,Glen Allen,VA,23005,United States,,37.653915,-77.610536,"Monday 9:00 AM - 5:00 PM, Tuesday 9:00 AM - 5:00 PM, Wednesday 9:00 AM - 5:00 PM, Thursday 9:00 AM - 5:00 PM, Friday 9:00 AM - 5:00 PM, Saturday Closed, Sunday Closed",,,
"Cook Out , Wilson",1699,2925 Raleigh Rd Parkway,,Wilson,NC,27896,United States,,35.738166,-77.956597,"Monday 9:00 AM - 5:00 PM, Tuesday 9:00 AM - 5:00 PM, Wednesday 9:00 AM - 5:00 PM, Thursday 9:00 AM - 5:00 PM, Friday 9:00 AM - 5:00 PM, Saturday Closed, Sunday Closed",,,
"Cook Out , Selma",1679,603 Ricks Road,,Selma,NC,27576,United States,,35.522245,-78.293086,"Monday 9:00 AM - 5:00 PM, Tuesday 9:00 AM - 5:00 PM, Wednesday 9:00 AM - 5:00 PM, Thursday 9:00 AM - 5:00 PM, Friday 9:00 AM - 5:00 PM, Saturday Closed, Sunday Closed",,,
Cook Out North Myrtle Beach COMING SOON,1456,205 US-17,,North Myrtle Beach,SC,29582,United States,,33.830327,-78.677522,"Monday 9:00 AM - 5:00 PM, Tuesday 9:00 AM - 5:00 PM, Wednesday 9:00 AM - 5:00 PM, Thursday 9:00 AM - 5:00 PM, Friday 9:00 AM - 5:00 PM, Saturday Closed, Sunday Closed",,,
"Cook Out , Garner",1597,102 Bratton Drive,,Garner,NC,27529,United States,,35.61053,-78.558437,"Monday 9:00 AM - 5:00 PM, Tuesday 9:00 AM - 5:00 PM, Wednesday 9:00 AM - 5:00 PM, Thursday 9:00 AM - 5:00 PM, Friday 9:00 AM - 5:00 PM, Saturday Closed, Sunday Closed",,,
"Cook Out , Dunn",1573,1723 W Cumberland St.,,Dunn,NC,28334,United States,,35.316462,-78.627857,"Monday 9:00 AM - 5:00 PM, Tuesday 9:00 AM - 5:00 PM, Wednesday 9:00 AM - 5:00 PM, Thursday 9:00 AM - 5:00 PM, Friday 9:00 AM - 5:00 PM, Saturday Closed, Sunday Closed",,,
"Cook Out , Myrtle Beach",163,1800 N Kings Hwy,,Myrtle Beach,SC,29577,United States,,33.700063,-78.87396,"Monday 10:30 AM - 2:00 AM, Tuesday 10:30 AM - 2:00 AM, Wednesday 10:30 AM - 2:00 AM, Thursday 10:30 AM - 2:00 AM, Friday 10:30 AM - 2:00 AM, Saturday 10:30 AM - 2:00 AM, Sunday 10:30 AM - 2:00 AM",,,
"Cook Out , Capital Blvd.",1661,3244 Capital Blvd.,,Raleigh,NC,27604,United States,,35.823623,-78.587262,"Monday 9:00 AM - 5:00 PM, Tuesday 9:00 AM - 5:00 PM, Wednesday 9:00 AM - 5:00 PM, Thursday 9:00 AM - 5:00 PM, Friday 9:00 AM - 5:00 PM, Saturday Closed, Sunday Closed",,,
"Cook Out , New Bern",1665,1201 New Bern Avenue,,Raleigh,NC,27610,United States,,35.780203,-78.621883,"Monday 9:00 AM - 5:00 PM, Tuesday 9:00 AM - 5:00 PM, Wednesday 9:00 AM - 5:00 PM, Thursday 9:00 AM - 5:00 PM, Friday 9:00 AM - 5:00 PM, Saturday Closed, Sunday Closed",,,
"Cook Out , Farmville",409,1437 S Main St,,Farmville,VA,23901,United States,,37.282977,-78.395549,"Monday 9:00 AM - 5:00 PM, Tuesday 9:00 AM - 5:00 PM, Wednesday 9:00 AM - 5:00 PM, Thursday 9:00 AM - 5:00 PM, Friday 9:00 AM - 5:00 PM, Saturday Closed, Sunday Closed",,,
"Cook Out , Falls Of Neuse",1667,6505 Falls Of Neuse Road,,Raleigh,NC,27615,United States,,35.87161,-78.62227,"Monday 9:00 AM - 5:00 PM, Tuesday 9:00 AM - 5:00 PM, Wednesday 9:00 AM - 5:00 PM, Thursday 9:00 AM - 5:00 PM, Friday 9:00 AM - 5:00 PM, Saturday Closed, Sunday Closed",,,
"Cook Out , South Wilmington",1659,3222 S. Wilmington Street,,Raleigh,NC,27603,United States,,35.736681,-78.6508,"Monday 9:00 AM - 5:00 PM, Tuesday 9:00 AM - 5:00 PM, Wednesday 9:00 AM - 5:00 PM, Thursday 9:00 AM - 5:00 PM, Friday 9:00 AM - 5:00 PM, Saturday Closed, Sunday Closed",,,
"Cook Out , Oxford",1657,525 E. Industry Dr.,,Oxford,NC,27565,United States,,36.298627,-78.584446,"Monday 9:00 AM - 5:00 PM, Tuesday 9:00 AM - 5:00 PM, Wednesday 9:00 AM - 5:00 PM, Thursday 9:00 AM - 5:00 PM, Friday 9:00 AM - 5:00 PM, Saturday Closed, Sunday Closed",,,
"Cook Out , Western Blvd.",1663,3930 Western Blvd.,,Raleigh,NC,27606,United States,,35.784796,-78.693111,"Monday 9:00 AM - 5:00 PM, Tuesday 9:00 AM - 5:00 PM, Wednesday 9:00 AM - 5:00 PM, Thursday 9:00 AM - 5:00 PM, Friday 9:00 AM - 5:00 PM, Saturday Closed, Sunday Closed",,,
"Cook Out , Surfside",1776,100 Loyola Dr,,Myrtle Beach,SC,29588,United States,,33.640803,-78.990502,"Monday 9:00 AM - 5:00 PM, Tuesday 9:00 AM - 5:00 PM, Wednesday 9:00 AM - 5:00 PM, Thursday 9:00 AM - 5:00 PM, Friday 9:00 AM - 5:00 PM, Saturday Closed, Sunday Closed",,,
"Cook Out , Conway",168,2480 US Hwy 501,,Conway,SC,29526,United States,,33.786296,-78.994518,"Monday 10:30 AM - 2:00 AM, Tuesday 10:30 AM - 2:00 AM, Wednesday 10:30 AM - 2:00 AM, Thursday 10:30 AM - 2:00 AM, Friday 10:30 AM - 2:00 AM, Saturday 10:30 AM - 2:00 AM, Sunday 10:30 AM - 2:00 AM",,,
"Cook Out , Fuquay Varina",1595,1433 N. Main Street,,Fuquay Varina,NC,27526,United States,,35.593884,-78.771039,"Monday 9:00 AM - 5:00 PM, Tuesday 9:00 AM - 5:00 PM, Wednesday 9:00 AM - 5:00 PM, Thursday 9:00 AM - 5:00 PM, Friday 9:00 AM - 5:00 PM, Saturday Closed, Sunday Closed",,,
"Cook Out , Walnut St.",1544,1607 Walnut St.,,Cary,NC,27511,United States,,35.76421,-78.748207,"Monday 9:00 AM - 5:00 PM, Tuesday 9:00 AM - 5:00 PM, Wednesday 9:00 AM - 5:00 PM, Thursday 9:00 AM - 5:00 PM, Friday 9:00 AM - 5:00 PM, Saturday Closed, Sunday Closed",,,
"Cook Out , Ramsey St.",1593,3745 Ramsey St.,,Fayetteville,NC,28311,United States,,35.111985,-78.88,"Monday 9:00 AM - 5:00 PM, Tuesday 9:00 AM - 5:00 PM, Wednesday 9:00 AM - 5:00 PM, Thursday 9:00 AM - 5:00 PM, Friday 9:00 AM - 5:00 PM, Saturday Closed, Sunday Closed",,,
"Cook Out , Owen Drive",1591,2921 Owen Drive,,Fayetteville,NC,28306,United States,,35.019588,-78.89975,"Monday 9:00 AM - 5:00 PM, Tuesday 9:00 AM - 5:00 PM, Wednesday 9:00 AM - 5:00 PM, Thursday 9:00 AM - 5:00 PM, Friday 9:00 AM - 5:00 PM, Saturday Closed, Sunday Closed",,,
"Cook Out , Charlottesville",439,1254 Emmet St N,,Charlottesville,VA,22903,United States,,38.054988,-78.496845,"Monday 9:00 AM - 5:00 PM, Tuesday 9:00 AM - 5:00 PM, Wednesday 9:00 AM - 5:00 PM, Thursday 9:00 AM - 5:00 PM, Friday 9:00 AM - 5:00 PM, Saturday Closed, Sunday Closed",,,
"Cook Out , Lumberton",1645,2712 N. Roberts Ave,,Lumberton,NC,28358,United States,,34.644548,-79.010876,"Monday 9:00 AM - 5:00 PM, Tuesday 9:00 AM - 5:00 PM, Wednesday 9:00 AM - 5:00 PM, Thursday 9:00 AM - 5:00 PM, Friday 9:00 AM - 5:00 PM, Saturday Closed, Sunday Closed",,,
"Cook Out , Miami Blvd.",1575,1540 S. Miami Blvd.,,Durham,NC,27703,United States,,35.95089,-78.838898,"Monday 9:00 AM - 5:00 PM, Tuesday 9:00 AM - 5:00 PM, Wednesday 9:00 AM - 5:00 PM, Thursday 9:00 AM - 5:00 PM, Friday 9:00 AM - 5:00 PM, Saturday Closed, Sunday Closed",,,
"Cook Out , Spring Lake",1685,406 Lillington HWY,,Spring Lake,NC,28390,United States,,35.170778,-78.971113,"Monday 9:00 AM - 5:00 PM, Tuesday 9:00 AM - 5:00 PM, Wednesday 9:00 AM - 5:00 PM, Thursday 9:00 AM - 5:00 PM, Friday 9:00 AM - 5:00 PM, Saturday Closed, Sunday Closed",,,
"Cook Out , RTP",1579,2103 Allendown Drive,,Durham,NC,27713,United States,,35.899145,-78.895939,"Monday 9:00 AM - 5:00 PM, Tuesday 9:00 AM - 5:00 PM, Wednesday 9:00 AM - 5:00 PM, Thursday 9:00 AM - 5:00 PM, Friday 9:00 AM - 5:00 PM, Saturday Closed, Sunday Closed",,,
"Cook Out , Cliffdale Road",1589,6903 Cliffdale Road,,Fayetteville,NC,28314,United States,,35.060037,-79.013021,"Monday 9:00 AM - 5:00 PM, Tuesday 9:00 AM - 5:00 PM, Wednesday 9:00 AM - 5:00 PM, Thursday 9:00 AM - 5:00 PM, Friday 9:00 AM - 5:00 PM, Saturday Closed, Sunday Closed",,,
"Cook Out , Roxboro Road",1577,4245 North Roxboro Street,,Durham,NC,27705,United States,,36.050141,-78.903794,"Monday 9:00 AM - 5:00 PM, Tuesday 9:00 AM - 5:00 PM, Wednesday 9:00 AM - 5:00 PM, Thursday 9:00 AM - 5:00 PM, Friday 9:00 AM - 5:00 PM, Saturday Closed, Sunday Closed",,,
"Cook Out , Shannon Rd",1583,3119 Shannon Road,,Durham,NC,27707,United States,,35.966885,-78.954555,"Monday 9:00 AM - 5:00 PM, Tuesday 9:00 AM - 5:00 PM, Wednesday 9:00 AM - 5:00 PM, Thursday 9:00 AM - 5:00 PM, Friday 9:00 AM - 5:00 PM, Saturday Closed, Sunday Closed",,,
"Cook Out , Hillsborough Road",1581,3624 Hillsborough Road,,Durham,NC,27707,United States,,36.023247,-78.954799,"Monday 9:00 AM - 5:00 PM, Tuesday 9:00 AM - 5:00 PM, Wednesday 9:00 AM - 5:00 PM, Thursday 9:00 AM - 5:00 PM, Friday 9:00 AM - 5:00 PM, Saturday Closed, Sunday Closed",,,
"Cook Out , Roxboro",1673,110 Walker St.,,Roxboro,NC,27573,United States,,36.401286,-78.980335,"Monday 9:00 AM - 5:00 PM, Tuesday 9:00 AM - 5:00 PM, Wednesday 9:00 AM - 5:00 PM, Thursday 9:00 AM - 5:00 PM, Friday 9:00 AM - 5:00 PM, Saturday Closed, Sunday Closed",,,
"Cook Out , South Horner",1677,1906 S. Horner Blvd.,,Sanford,NC,27330,United States,,35.464947,-79.155423,"Monday 9:00 AM - 5:00 PM, Tuesday 9:00 AM - 5:00 PM, Wednesday 9:00 AM - 5:00 PM, Thursday 9:00 AM - 5:00 PM, Friday 9:00 AM - 5:00 PM, Saturday Closed, Sunday Closed",,,
"Cook Out , Waynesboro",448,1432 W Main St,,Waynesboro,VA,22980,United States,,38.072096,-78.900751,"Monday 9:00 AM - 5:00 PM, Tuesday 9:00 AM - 5:00 PM, Wednesday 9:00 AM - 5:00 PM, Thursday 9:00 AM - 5:00 PM, Friday 9:00 AM - 5:00 PM, Saturday Closed, Sunday Closed",,,
"Cook Out , Harrisonburg",411,1688 E Market St,,Harrisonburg,VA,22801,United States,,38.433818,-78.844753,"Monday 9:00 AM - 5:00 PM, Tuesday 9:00 AM - 5:00 PM, Wednesday 9:00 AM - 5:00 PM, Thursday 9:00 AM - 5:00 PM, Friday 9:00 AM - 5:00 PM, Saturday Closed, Sunday Closed",,,
"Cook Out , Southern Pines",1683,11000 US 15/501,,Southern Pines,NC,28387,United States,,35.158889,-79.419394,"Monday 9:00 AM - 5:00 PM, Tuesday 9:00 AM - 5:00 PM, Wednesday 9:00 AM - 5:00 PM, Thursday 9:00 AM - 5:00 PM, Friday 9:00 AM - 5:00 PM, Saturday Closed, Sunday Closed",,,
"Cook Out , Laurinburg",1639,1304 Scotland Crossing Dr.,,Laurinburg,NC,28352,United States,,34.755906,-79.482258,"Monday 9:00 AM - 5:00 PM, Tuesday 9:00 AM - 5:00 PM, Wednesday 9:00 AM - 5:00 PM, Thursday 9:00 AM - 5:00 PM, Friday 9:00 AM - 5:00 PM, Saturday Closed, Sunday Closed",,,
"Cook Out , Lynchburg",440,2629 Wards Rd,,Lynchburg,VA,24502,United States,,37.362156,-79.181967,"Monday 9:00 AM - 5:00 PM, Tuesday 9:00 AM - 5:00 PM, Wednesday 9:00 AM - 5:00 PM, Thursday 9:00 AM - 5:00 PM, Friday 9:00 AM - 5:00 PM, Saturday Closed, Sunday Closed",,,
"Cook Out , Graham",1605,311 S. Main Street,,Graham,NC,27253,United States,,36.06448,-79.400842,"Monday 9:00 AM - 5:00 PM, Tuesday 9:00 AM - 5:00 PM, Wednesday 9:00 AM - 5:00 PM, Thursday 9:00 AM - 5:00 PM, Friday 9:00 AM - 5:00 PM, Saturday Closed, Sunday Closed",,,
Cook Out  MT Pleasant COMING SOON,1407,1711 N HWY 17,,MT Pleasant,SC,29464,United States,,32.823879,-79.838832,"Monday 9:00 AM - 5:00 PM, Tuesday 9:00 AM - 5:00 PM, Wednesday 9:00 AM - 5:00 PM, Thursday 9:00 AM - 5:00 PM, Friday 9:00 AM - 5:00 PM, Saturday Closed, Sunday Closed",,,
"Cook Out , Bennettsville",1753,109 HWY 15-401 Bypass W,,Bennettsville,SC,29512,United States,,34.610597,-79.675567,"Monday 9:00 AM - 5:00 PM, Tuesday 9:00 AM - 5:00 PM, Wednesday 9:00 AM - 5:00 PM, Thursday 9:00 AM - 5:00 PM, Friday 9:00 AM - 5:00 PM, Saturday Closed, Sunday Closed",,,
"Cook Out , Burlington",1542,414 Huffman Mill Road,,Burlington,NC,27215,United States,,36.074949,-79.489176,"Monday 9:00 AM - 5:00 PM, Tuesday 9:00 AM - 5:00 PM, Wednesday 9:00 AM - 5:00 PM, Thursday 9:00 AM - 5:00 PM, Friday 9:00 AM - 5:00 PM, Saturday Closed, Sunday Closed",,,
"Cook Out , Danville",415,3409 Riverside Dr,,Danville,VA,24541,United States,,36.583497,-79.426897,"Monday 9:00 AM - 5:00 PM, Tuesday 9:00 AM - 5:00 PM, Wednesday 9:00 AM - 5:00 PM, Thursday 9:00 AM - 5:00 PM, Friday 9:00 AM - 5:00 PM, Saturday Closed, Sunday Closed",,,
"Cook Out , Florence",184,2007 S Irby St,,Florence,SC,29505,United States,,34.157356,-79.7679,"Monday 10:30 AM - 2:00 AM, Tuesday 10:30 AM - 2:00 AM, Wednesday 10:30 AM - 2:00 AM, Thursday 10:30 AM - 2:00 AM, Friday 10:30 AM - 2:00 AM, Saturday 10:30 AM - 2:00 AM, Sunday 10:30 AM - 2:00 AM",,,
"Cook Out , Charleston",180,2036 Savannah Hwy,,Charleston,SC,29407,United States,,32.790155,-80.02966,"Monday 10:30 AM - 2:00 AM, Tuesday 10:30 AM - 2:00 AM, Wednesday 10:30 AM - 2:00 AM, Thursday 10:30 AM - 2:00 AM, Friday 10:30 AM - 2:00 AM, Saturday 10:30 AM - 2:00 AM, Sunday 10:30 AM - 2:00 AM",,,
"Cook Out , Lexington, VA",443,445 E Nelson St,,Lexington,VA,24450,United States,,37.779668,-79.437642,"Monday 9:00 AM - 5:00 PM, Tuesday 9:00 AM - 5:00 PM, Wednesday 9:00 AM - 5:00 PM, Thursday 9:00 AM - 5:00 PM, Friday 9:00 AM - 5:00 PM, Saturday Closed, Sunday Closed",,,
"Cook Out , North Charleston",176,8970 University Blvd,,North Charleston,SC,29406,United States,,32.975628,-80.062084,"Monday 10:30 AM - 2:00 AM, Tuesday 10:30 AM - 2:00 AM, Wednesday 10:30 AM - 2:00 AM, Thursday 10:30 AM - 2:00 AM, Friday 10:30 AM - 2:00 AM, Saturday 10:30 AM - 2:00 AM, Sunday 10:30 AM - 2:00 AM",,,
"Cook Out  , Dixie Drive",1533,544 E. Dixie Drive,,Asheboro,NC,27204,United States,,35.688973,-79.807308,"Monday 9:00 AM - 5:00 PM, Tuesday 9:00 AM - 5:00 PM, Wednesday 9:00 AM - 5:00 PM, Thursday 9:00 AM - 5:00 PM, Friday 9:00 AM - 5:00 PM, Saturday Closed, Sunday Closed",,,
"Cook Out , Triad",1607,1041 Summit Avenue,,Greensboro,NC,27405,United States,,36.088567,-79.774918,"Monday 9:00 AM - 5:00 PM, Tuesday 9:00 AM - 5:00 PM, Wednesday 9:00 AM - 5:00 PM, Thursday 9:00 AM - 5:00 PM, Friday 9:00 AM - 5:00 PM, Saturday Closed, Sunday Closed",,,
"Cook Out , Eden",1585,659 Van Buren Rd.,,Eden,NC,27288,United States,,36.490426,-79.74017,"Monday 9:00 AM - 5:00 PM, Tuesday 9:00 AM - 5:00 PM, Wednesday 9:00 AM - 5:00 PM, Thursday 9:00 AM - 5:00 PM, Friday 9:00 AM - 5:00 PM, Saturday Closed, Sunday Closed",,,
"Cook Out , Randleman Road",1609,2601 Randleman Road,,Greensboro,NC,27406,United States,,36.029899,-79.801361,"Monday 9:00 AM - 5:00 PM, Tuesday 9:00 AM - 5:00 PM, Wednesday 9:00 AM - 5:00 PM, Thursday 9:00 AM - 5:00 PM, Friday 9:00 AM - 5:00 PM, Saturday Closed, Sunday Closed",,,
"Cook Out , Summerville",1774,703 N Main St,,Summerville,SC,29483,United States,,33.027661,-80.168893,"Monday 9:00 AM - 5:00 PM, Tuesday 9:00 AM - 5:00 PM, Wednesday 9:00 AM - 5:00 PM, Thursday 9:00 AM - 5:00 PM, Friday 9:00 AM - 5:00 PM, Saturday Closed, Sunday Closed",,,
"Cook Out , Battleground",1613,2411 Battleground Avenue,,Greensboro,NC,27408,United States,,36.103676,-79.825123,"Monday 9:00 AM - 5:00 PM, Tuesday 9:00 AM - 5:00 PM, Wednesday 9:00 AM - 5:00 PM, Thursday 9:00 AM - 5:00 PM, Friday 9:00 AM - 5:00 PM, Saturday Closed, Sunday Closed",,,
"Cook Out , Hartsville",200,626 5th St,,Hartsville,SC,29550,United States,,34.381406,-80.077043,"Monday 10:30 AM - 2:00 AM, Tuesday 10:30 AM - 2:00 AM, Wednesday 10:30 AM - 2:00 AM, Thursday 10:30 AM - 2:00 AM, Friday 10:30 AM - 2:00 AM, Saturday 10:30 AM - 2:00 AM, Sunday 10:30 AM - 2:00 AM",,,
"Cook Out , High Point Road",1611,3804 High Point Road,,Greensboro,NC,27407,United States,,36.026284,-79.875413,"Monday 9:00 AM - 5:00 PM, Tuesday 9:00 AM - 5:00 PM, Wednesday 9:00 AM - 5:00 PM, Thursday 9:00 AM - 5:00 PM, Friday 9:00 AM - 5:00 PM, Saturday Closed, Sunday Closed",,,
"Cook Out , Wendover",1615,5406 Sapp Road,,Greensboro,NC,27409,United States,,36.055689,-79.905148,"Monday 9:00 AM - 5:00 PM, Tuesday 9:00 AM - 5:00 PM, Wednesday 9:00 AM - 5:00 PM, Thursday 9:00 AM - 5:00 PM, Friday 9:00 AM - 5:00 PM, Saturday Closed, Sunday Closed",,,
"Cook Out , Manning",1751,2821 Paxville Hwy,,Manning,SC,29102,United States,,33.701205,-80.239424,"Monday 9:00 AM - 5:00 PM, Tuesday 9:00 AM - 5:00 PM, Wednesday 9:00 AM - 5:00 PM, Thursday 9:00 AM - 5:00 PM, Friday 9:00 AM - 5:00 PM, Saturday Closed, Sunday Closed",,,
"Cook Out , South Main",1623,2923 S. Main Street,,High Point,NC,27263,United States,,35.920628,-79.977458,"Monday 9:00 AM - 5:00 PM, Tuesday 9:00 AM - 5:00 PM, Wednesday 9:00 AM - 5:00 PM, Thursday 9:00 AM - 5:00 PM, Friday 9:00 AM - 5:00 PM, Saturday Closed, Sunday Closed",,,
"Cook Out , Powder Creek",421,12 Powder Creek Ln,,Rocky Mount,VA,24151,United States,,37.011851,-79.870618,"Monday 9:00 AM - 5:00 PM, Tuesday 9:00 AM - 5:00 PM, Wednesday 9:00 AM - 5:00 PM, Thursday 9:00 AM - 5:00 PM, Friday 9:00 AM - 5:00 PM, Saturday Closed, Sunday Closed",,,
"Cook Out , North Main",1625,2420 N. Main Street,,High Point,NC,27265,United States,,35.98872,-80.026189,"Monday 9:00 AM - 5:00 PM, Tuesday 9:00 AM - 5:00 PM, Wednesday 9:00 AM - 5:00 PM, Thursday 9:00 AM - 5:00 PM, Friday 9:00 AM - 5:00 PM, Saturday Closed, Sunday Closed",,,
"Cook Out , Thomasville",1691,1123 Randolph Street,,Thomasville,NC,27360,United States,,35.858129,-80.072352,"Monday 9:00 AM - 5:00 PM, Tuesday 9:00 AM - 5:00 PM, Wednesday 9:00 AM - 5:00 PM, Thursday 9:00 AM - 5:00 PM, Friday 9:00 AM - 5:00 PM, Saturday Closed, Sunday Closed",,,
"Cook Out , Albemarle",1530,707 Leonard Ave,,Albemarle,NC,28001,United States,,35.343087,-80.175374,"Monday 9:00 AM - 5:00 PM, Tuesday 9:00 AM - 5:00 PM, Wednesday 9:00 AM - 5:00 PM, Thursday 9:00 AM - 5:00 PM, Friday 9:00 AM - 5:00 PM, Saturday Closed, Sunday Closed",,,
"Cook Out , Kernersville",1637,1010 S. Main Street,,Kernersville,NC,27284,United States,,36.108746,-80.096887,"Monday 9:00 AM - 5:00 PM, Tuesday 9:00 AM - 5:00 PM, Wednesday 9:00 AM - 5:00 PM, Thursday 9:00 AM - 5:00 PM, Friday 9:00 AM - 5:00 PM, Saturday Closed, Sunday Closed",,,
"Cook Out , Roanoke, VA",419,1423 Hershberger Rd NW,,Roanoke,VA,24012,United States,,37.315231,-79.958863,"Monday 9:00 AM - 5:00 PM, Tuesday 9:00 AM - 5:00 PM, Wednesday 9:00 AM - 5:00 PM, Thursday 9:00 AM - 5:00 PM, Friday 9:00 AM - 5:00 PM, Saturday Closed, Sunday Closed",,,
"Cook Out , Sumter",194,1180 Broad St,,Sumter,SC,29150,United States,,33.955393,-80.381758,"Monday 10:30 AM - 2:00 AM, Tuesday 10:30 AM - 2:00 AM, Wednesday 10:30 AM - 2:00 AM, Thursday 10:30 AM - 2:00 AM, Friday 10:30 AM - 2:00 AM, Saturday 10:30 AM - 2:00 AM, Sunday 10:30 AM - 2:00 AM",,,
"Cook Out , Akron Drive",1703,339 Akron Drive,,Winston-Salem,NC,27105,United States,,36.137372,-80.241291,"Monday 9:00 AM - 5:00 PM, Tuesday 9:00 AM - 5:00 PM, Wednesday 9:00 AM - 5:00 PM, Thursday 9:00 AM - 5:00 PM, Friday 9:00 AM - 5:00 PM, Saturday Closed, Sunday Closed",,,
"Cook Out , Peters Creek",1705,3103 Peters Creek Pkwy.,,Winston-Salem,NC,27127,United States,,36.049906,-80.259497,"Monday 9:00 AM - 5:00 PM, Tuesday 9:00 AM - 5:00 PM, Wednesday 9:00 AM - 5:00 PM, Thursday 9:00 AM - 5:00 PM, Friday 9:00 AM - 5:00 PM, Saturday Closed, Sunday Closed",,,
"Cook Out , Hilton Head",1749,101 Central Ave,,Hilton Head,SC,29926,United States,,32.213117,-80.726287,"Monday 9:00 AM - 5:00 PM, Tuesday 9:00 AM - 5:00 PM, Wednesday 9:00 AM - 5:00 PM, Thursday 9:00 AM - 5:00 PM, Friday 9:00 AM - 5:00 PM, Saturday Closed, Sunday Closed",,,
"Cook Out , Winston",1701,245 Summit Point Lane,,Winston-Salem,NC,27105,United States,,36.185005,-80.274589,"Monday 9:00 AM - 5:00 PM, Tuesday 9:00 AM - 5:00 PM, Wednesday 9:00 AM - 5:00 PM, Thursday 9:00 AM - 5:00 PM, Friday 9:00 AM - 5:00 PM, Saturday Closed, Sunday Closed",,,
"Cook Out , Kester Mill",1707,4505 Kester Mill Road,,Winston-Salem,NC,27013,United States,,36.069697,-80.334536,"Monday 9:00 AM - 5:00 PM, Tuesday 9:00 AM - 5:00 PM, Wednesday 9:00 AM - 5:00 PM, Thursday 9:00 AM - 5:00 PM, Friday 9:00 AM - 5:00 PM, Saturday Closed, Sunday Closed",,,
"Cook Out , Salisbury",1675,801 East Innes Street,,Salisbury,NC,28144,United States,,35.660433,-80.462767,"Monday 9:00 AM - 5:00 PM, Tuesday 9:00 AM - 5:00 PM, Wednesday 9:00 AM - 5:00 PM, Thursday 9:00 AM - 5:00 PM, Friday 9:00 AM - 5:00 PM, Saturday Closed, Sunday Closed",,,
"Cook Out , Monroe",1647,1410 W. Roosevelt Blvd.,,Monroe,NC,28110,United States,,34.996662,-80.544469,"Monday 9:00 AM - 5:00 PM, Tuesday 9:00 AM - 5:00 PM, Wednesday 9:00 AM - 5:00 PM, Thursday 9:00 AM - 5:00 PM, Friday 9:00 AM - 5:00 PM, Saturday Closed, Sunday Closed",,,
"Cook Out , Concord Pkwy",1565,280 South Concord Pkwy,,Concord,NC,28027,United States,,35.398025,-80.610852,"Monday 9:00 AM - 5:00 PM, Tuesday 9:00 AM - 5:00 PM, Wednesday 9:00 AM - 5:00 PM, Thursday 9:00 AM - 5:00 PM, Friday 9:00 AM - 5:00 PM, Saturday Closed, Sunday Closed",,,
"Cook Out , Kannapolis",1635,901 S. Cannon Blvd.,,Kannapolis,NC,28083,United States,,35.48432,-80.6111,"Monday 9:00 AM - 5:00 PM, Tuesday 9:00 AM - 5:00 PM, Wednesday 9:00 AM - 5:00 PM, Thursday 9:00 AM - 5:00 PM, Friday 9:00 AM - 5:00 PM, Saturday Closed, Sunday Closed",,,
"Cook Out , Blacksburg",438,1311 S Main St,,Blacksburg,VA,24060,United States,,37.217002,-80.400701,"Monday 9:00 AM - 5:00 PM, Tuesday 9:00 AM - 5:00 PM, Wednesday 9:00 AM - 5:00 PM, Thursday 9:00 AM - 5:00 PM, Friday 9:00 AM - 5:00 PM, Saturday Closed, Sunday Closed",,,
"Cook Out , Indian Trail",1629,13703 B Hwy 74,,Indian Trail,NC,28079,United States,,35.085903,-80.661836,"Monday 9:00 AM - 5:00 PM, Tuesday 9:00 AM - 5:00 PM, Wednesday 9:00 AM - 5:00 PM, Thursday 9:00 AM - 5:00 PM, Friday 9:00 AM - 5:00 PM, Saturday Closed, Sunday Closed",,,
"Cook Out , Orangeburg",198,725 John C Calhoun Dr,,Orangeburg,SC,29115,United States,,33.490827,-80.855658,"Monday 10:30 AM - 2:00 AM, Tuesday 10:30 AM - 2:00 AM, Wednesday 10:30 AM - 2:00 AM, Thursday 10:30 AM - 2:00 AM, Friday 10:30 AM - 2:00 AM, Saturday 10:30 AM - 2:00 AM, Sunday 10:30 AM - 2:00 AM",,,
"Cook Out , Sardis Rd.",1561,1815 Sardis Rd.,,Charlotte,NC,28270,United States,,35.140769,-80.735618,"Monday 9:00 AM - 5:00 PM, Tuesday 9:00 AM - 5:00 PM, Wednesday 9:00 AM - 5:00 PM, Thursday 9:00 AM - 5:00 PM, Friday 9:00 AM - 5:00 PM, Saturday Closed, Sunday Closed",,,
"Cook Out , Speedway",1567,7771 Gateway Lane NW,,Concord,NC,28027,United States,,35.367564,-80.711172,"Monday 9:00 AM - 5:00 PM, Tuesday 9:00 AM - 5:00 PM, Wednesday 9:00 AM - 5:00 PM, Thursday 9:00 AM - 5:00 PM, Friday 9:00 AM - 5:00 PM, Saturday Closed, Sunday Closed",,,
"Cook Out , Albemarle Road",1548,6438 Albemarle Road,,Charlotte,NC,28212,United States,,35.202054,-80.734894,"Monday 9:00 AM - 5:00 PM, Tuesday 9:00 AM - 5:00 PM, Wednesday 9:00 AM - 5:00 PM, Thursday 9:00 AM - 5:00 PM, Friday 9:00 AM - 5:00 PM, Saturday Closed, Sunday Closed",,,
"Cook Out , Sharon Amity",1550,5715 N. Sharon Amity Road,,Charlotte,NC,28215,United States,,35.234852,-80.738923,"Monday 9:00 AM - 5:00 PM, Tuesday 9:00 AM - 5:00 PM, Wednesday 9:00 AM - 5:00 PM, Thursday 9:00 AM - 5:00 PM, Friday 9:00 AM - 5:00 PM, Saturday Closed, Sunday Closed",,,
"Cook Out , North Tryon",1557,9705 North Tryon Street,,Charlotte,NC,28262,United States,,35.317949,-80.73821,"Monday 9:00 AM - 5:00 PM, Tuesday 9:00 AM - 5:00 PM, Wednesday 9:00 AM - 5:00 PM, Thursday 9:00 AM - 5:00 PM, Friday 9:00 AM - 5:00 PM, Saturday Closed, Sunday Closed",,,
"Cook Out , Mount Airy",1653,1988 Rockford Street,,Mount Airy,NC,27030,United States,,36.482301,-80.614823,"Monday 9:00 AM - 5:00 PM, Tuesday 9:00 AM - 5:00 PM, Wednesday 9:00 AM - 5:00 PM, Thursday 9:00 AM - 5:00 PM, Friday 9:00 AM - 5:00 PM, Saturday Closed, Sunday Closed",,,
"Cook Out , Two Notch Rd.",170,10030 Two Notch Rd,,Columbia,SC,29223,United States,,34.113279,-80.891252,"Monday 10:30 AM - 2:00 AM, Tuesday 10:30 AM - 2:00 AM, Wednesday 10:30 AM - 2:00 AM, Thursday 10:30 AM - 2:00 AM, Friday 10:30 AM - 2:00 AM, Saturday 10:30 AM - 2:00 AM, Sunday 10:30 AM - 2:00 AM",,,
"Cook Out , W. Sugar Creek",1555,1301 W. Sugar Creek Road,,Charlotte,NC,28262,United States,,35.27993,-80.794088,"Monday 9:00 AM - 5:00 PM, Tuesday 9:00 AM - 5:00 PM, Wednesday 9:00 AM - 5:00 PM, Thursday 9:00 AM - 5:00 PM, Friday 9:00 AM - 5:00 PM, Saturday Closed, Sunday Closed",,,
"Cook Out , Abercorn",458,11700 Abercorn St,,Savannah,GA,31419,United States,,31.982949,-81.151636,"Monday 9:00 AM - 5:00 PM, Tuesday 9:00 AM - 5:00 PM, Wednesday 9:00 AM - 5:00 PM, Thursday 9:00 AM - 5:00 PM, Friday 9:00 AM - 5:00 PM, Saturday Closed, Sunday Closed",,,
"Cook Out , Radford",437,7400 Lee Hwy,,Radford,VA,24141,United States,,37.144386,-80.583122,"Monday 9:00 AM - 5:00 PM, Tuesday 9:00 AM - 5:00 PM, Wednesday 9:00 AM - 5:00 PM, Thursday 9:00 AM - 5:00 PM, Friday 9:00 AM - 5:00 PM, Saturday Closed, Sunday Closed",,,
"Cook Out , Forest Drive",178,5311 Forest Dr,,Columbia,SC,29206,United States,,34.023287,-80.955209,"Monday 10:30 AM - 2:00 AM, Tuesday 10:30 AM - 2:00 AM, Wednesday 10:30 AM - 2:00 AM, Thursday 10:30 AM - 2:00 AM, Friday 10:30 AM - 2:00 AM, Saturday 10:30 AM - 2:00 AM, Sunday 10:30 AM - 2:00 AM",,,
"Cook Out , Pineville",1563,10645 Park Road,,Charlotte,NC,28210,United States,,35.091578,-80.869104,"Monday 9:00 AM - 5:00 PM, Tuesday 9:00 AM - 5:00 PM, Wednesday 9:00 AM - 5:00 PM, Thursday 9:00 AM - 5:00 PM, Friday 9:00 AM - 5:00 PM, Saturday Closed, Sunday Closed",,,
"Cook Out , Sunset Road",1552,4333 Sunset Road,,Charlotte,NC,28216,United States,,35.305918,-80.855552,"Monday 9:00 AM - 5:00 PM, Tuesday 9:00 AM - 5:00 PM, Wednesday 9:00 AM - 5:00 PM, Thursday 9:00 AM - 5:00 PM, Friday 9:00 AM - 5:00 PM, Saturday Closed, Sunday Closed",,,
"Cook Out , Huntersville",1627,425 Huntersville Gateway Blvd.,,Huntersville,NC,28078,United States,,35.413776,-80.856681,"Monday 9:00 AM - 5:00 PM, Tuesday 9:00 AM - 5:00 PM, Wednesday 9:00 AM - 5:00 PM, Thursday 9:00 AM - 5:00 PM, Friday 9:00 AM - 5:00 PM, Saturday Closed, Sunday Closed",,,
"Cook Out , Freedom Drive",1546,2540 Freedom Drive,,Charlotte,NC,28208,United States,,35.237036,-80.881266,"Monday 9:00 AM - 5:00 PM, Tuesday 9:00 AM - 5:00 PM, Wednesday 9:00 AM - 5:00 PM, Thursday 9:00 AM - 5:00 PM, Friday 9:00 AM - 5:00 PM, Saturday Closed, Sunday Closed",,,
"Cook Out , Columbia",91,1101 Harden St,,Columbia,SC,29205,United States,,34.004533,-81.018687,"Monday 9:00 AM - 5:00 PM, Tuesday 9:00 AM - 5:00 PM, Wednesday 9:00 AM - 5:00 PM, Thursday 9:00 AM - 5:00 PM, Friday 9:00 AM - 5:00 PM, Saturday Closed, Sunday Closed",,,
"Cook Out , Mooresville",1649,355 West Plaza Drive,,Mooresville,NC,28117,United States,,35.592924,-80.855082,"Monday 9:00 AM - 5:00 PM, Tuesday 9:00 AM - 5:00 PM, Wednesday 9:00 AM - 5:00 PM, Thursday 9:00 AM - 5:00 PM, Friday 9:00 AM - 5:00 PM, Saturday Closed, Sunday Closed",,,
"Cook Out , Pooler",369,480 Pooler Pkwy,,Pooler,GA,31322,United States,,32.136304,-81.253686,"Monday 9:00 AM - 5:00 PM, Tuesday 9:00 AM - 5:00 PM, Wednesday 9:00 AM - 5:00 PM, Thursday 9:00 AM - 5:00 PM, Friday 9:00 AM - 5:00 PM, Saturday Closed, Sunday Closed",,,
"Cook Out , York Center",1559,13317 York Center Dr.,,Charlotte,NC,28273,United States,,35.12151,-80.949836,"Monday 9:00 AM - 5:00 PM, Tuesday 9:00 AM - 5:00 PM, Wednesday 9:00 AM - 5:00 PM, Thursday 9:00 AM - 5:00 PM, Friday 9:00 AM - 5:00 PM, Saturday Closed, Sunday Closed",,,
"Cook Out , Statesville",1687,181 Turnersburg Hwy.,,Statesville,NC,28625,United States,,35.812532,-80.876043,"Monday 9:00 AM - 5:00 PM, Tuesday 9:00 AM - 5:00 PM, Wednesday 9:00 AM - 5:00 PM, Thursday 9:00 AM - 5:00 PM, Friday 9:00 AM - 5:00 PM, Saturday Closed, Sunday Closed",,,
"Cook Out , Rock Hill",188,2531 Cherry Rd,,Rock Hill,SC,29732,United States,,34.970997,-80.990596,"Monday 10:30 AM - 2:00 AM, Tuesday 10:30 AM - 2:00 AM, Wednesday 10:30 AM - 2:00 AM, Thursday 10:30 AM - 2:00 AM, Friday 10:30 AM - 2:00 AM, Saturday 10:30 AM - 2:00 AM, Sunday 10:30 AM - 2:00 AM",,,
"Cook Out , Bush River",1743,600 Bush River Rd,,Columbia,SC,29210,United States,,34.030373,-81.096601,"Monday 9:00 AM - 5:00 PM, Tuesday 9:00 AM - 5:00 PM, Wednesday 9:00 AM - 5:00 PM, Thursday 9:00 AM - 5:00 PM, Friday 9:00 AM - 5:00 PM, Saturday Closed, Sunday Closed",,,
"Cook Out , Denver",1571,7555 North Carolina Hwy 73,,Denver,NC,28037,United States,,35.445262,-80.995273,"Monday 9:00 AM - 5:00 PM, Tuesday 9:00 AM - 5:00 PM, Wednesday 9:00 AM - 5:00 PM, Thursday 9:00 AM - 5:00 PM, Friday 9:00 AM - 5:00 PM, Saturday Closed, Sunday Closed",,,
"Cook Out , Lexington, SC",165,515 W Main St,,Lexington,SC,29072,United States,,33.985624,-81.246459,"Monday 10:30 AM - 2:00 AM, Tuesday 10:30 AM - 2:00 AM, Wednesday 10:30 AM - 2:00 AM, Thursday 10:30 AM - 2:00 AM, Friday 10:30 AM - 2:00 AM, Saturday 10:30 AM - 2:00 AM, Sunday 10:30 AM - 2:00 AM",,,
"Cook Out , Gastonia",1601,2810 East Franklin Blvd.,,Gastonia,NC,28056,United States,,35.260405,-81.12998,"Monday 9:00 AM - 5:00 PM, Tuesday 9:00 AM - 5:00 PM, Wednesday 9:00 AM - 5:00 PM, Thursday 9:00 AM - 5:00 PM, Friday 9:00 AM - 5:00 PM, Saturday Closed, Sunday Closed",,,
"Cook Out , Gastonia",1599,2113 S. Union Road,,Gastonia,NC,28054,United States,,35.23307,-81.171008,"Monday 9:00 AM - 5:00 PM, Tuesday 9:00 AM - 5:00 PM, Wednesday 9:00 AM - 5:00 PM, Thursday 9:00 AM - 5:00 PM, Friday 9:00 AM - 5:00 PM, Saturday Closed, Sunday Closed",,,
Cook Out  Hinesville COMING SOON,1409,705 W Oglethorpe Hwy,,Hinesville,GA,31313,United States,,31.822584,-81.599528,"Monday 9:00 AM - 5:00 PM, Tuesday 9:00 AM - 5:00 PM, Wednesday 9:00 AM - 5:00 PM, Thursday 9:00 AM - 5:00 PM, Friday 9:00 AM - 5:00 PM, Saturday Closed, Sunday Closed",,,
"Cook Out , Conover",1569,460 E. Conover Blvd,,Conover,NC,28613,United States,,35.702819,-81.208984,"Monday 9:00 AM - 5:00 PM, Tuesday 9:00 AM - 5:00 PM, Wednesday 9:00 AM - 5:00 PM, Thursday 9:00 AM - 5:00 PM, Friday 9:00 AM - 5:00 PM, Saturday Closed, Sunday Closed",,,
"Cook Out , Lincolnton",1643,1437 E. Main Street,,Lincolnton,NC,28093,United States,,35.477405,-81.236174,"Monday 9:00 AM - 5:00 PM, Tuesday 9:00 AM - 5:00 PM, Wednesday 9:00 AM - 5:00 PM, Thursday 9:00 AM - 5:00 PM, Friday 9:00 AM - 5:00 PM, Saturday Closed, Sunday Closed",,,
"Cook Out , Wilkesboro",1693,1919 US Hwy 421,,Wilkesboro,NC,28697,United States,,36.149905,-81.202411,"Monday 9:00 AM - 5:00 PM, Tuesday 9:00 AM - 5:00 PM, Wednesday 9:00 AM - 5:00 PM, Thursday 9:00 AM - 5:00 PM, Friday 9:00 AM - 5:00 PM, Saturday Closed, Sunday Closed",,,
"Cook Out , Hickory",1621,1710 N. Center Street,,Hickory,NC,28601,United States,,35.754702,-81.336161,"Monday 9:00 AM - 5:00 PM, Tuesday 9:00 AM - 5:00 PM, Wednesday 9:00 AM - 5:00 PM, Thursday 9:00 AM - 5:00 PM, Friday 9:00 AM - 5:00 PM, Saturday Closed, Sunday Closed",,,
"Cook Out , Beckley",1755,1345 N Eisenhower Dr,,Beckley,WV,25801,United States,,37.802609,-81.181404,"Monday 9:00 AM - 5:00 PM, Tuesday 9:00 AM - 5:00 PM, Wednesday 9:00 AM - 5:00 PM, Thursday 9:00 AM - 5:00 PM, Friday 9:00 AM - 5:00 PM, Saturday Closed, Sunday Closed",,,
"Cook Out , Statesboro",352,550 Fair Rd,,Statesboro,GA,30458,United States,,32.432718,-81.780342,"Monday 10:00 AM - 3:30 AM, Tuesday 10:00 AM - 3:30 AM, Wednesday 10:00 AM - 3:30 AM, Thursday 10:00 AM - 3:30 AM, Friday 10:00 AM - 4:30 AM, Saturday 10:00 AM - 4:30 AM, Sunday 10:00 AM - 3:30 AM",,,
"Cook Out , Shelby",1681,308 Earl Road,,Shelby,NC,28150,United States,,35.277072,-81.536016,"Monday 9:00 AM - 5:00 PM, Tuesday 9:00 AM - 5:00 PM, Wednesday 9:00 AM - 5:00 PM, Thursday 9:00 AM - 5:00 PM, Friday 9:00 AM - 5:00 PM, Saturday Closed, Sunday Closed",,,
"Cook Out , Lenoir",1641,510 Blowing Rock Blvd,,Lenoir,NC,28645,United States,,35.922322,-81.52494,"Monday 9:00 AM - 5:00 PM, Tuesday 9:00 AM - 5:00 PM, Wednesday 9:00 AM - 5:00 PM, Thursday 9:00 AM - 5:00 PM, Friday 9:00 AM - 5:00 PM, Saturday Closed, Sunday Closed",,,
"Cook Out , Gaffney",192,1513 W Floyd Baker Rd,,Gaffney,SC,29341,United States,,35.089354,-81.662006,"Monday 10:30 AM - 2:00 AM, Tuesday 10:30 AM - 2:00 AM, Wednesday 10:30 AM - 2:00 AM, Thursday 10:30 AM - 2:00 AM, Friday 10:30 AM - 2:00 AM, Saturday 10:30 AM - 2:00 AM, Sunday 10:30 AM - 2:00 AM",,,
"Cook Out , Morganton",1651,1000 Burkemont Rd,,Morganton,NC,28655,United States,,35.722454,-81.693919,"Monday 9:00 AM - 5:00 PM, Tuesday 9:00 AM - 5:00 PM, Wednesday 9:00 AM - 5:00 PM, Thursday 9:00 AM - 5:00 PM, Friday 9:00 AM - 5:00 PM, Saturday Closed, Sunday Closed",,,
"Cook Out , Boone",1540,1179 Blowing Rock Road,,Boone,NC,28607,United States,,36.204266,-81.666859,"Monday 9:00 AM - 5:00 PM, Tuesday 9:00 AM - 5:00 PM, Wednesday 9:00 AM - 5:00 PM, Thursday 9:00 AM - 5:00 PM, Friday 9:00 AM - 5:00 PM, Saturday Closed, Sunday Closed",,,
"Cook Out , Augusta, GA",357,1801 Walton Way,,Augusta,GA,30904,United States,,33.475965,-81.997777,"Monday 9:00 AM - 5:00 PM, Tuesday 9:00 AM - 5:00 PM, Wednesday 9:00 AM - 5:00 PM, Thursday 9:00 AM - 5:00 PM, Friday 9:00 AM - 5:00 PM, Saturday Closed, Sunday Closed",,,
"Cook Out , Peach Orchard",1741,3012 Peach Orchard Road,,Augusta,GA,30906,United States,,33.416059,-82.022841,"Monday 9:00 AM - 5:00 PM, Tuesday 9:00 AM - 5:00 PM, Wednesday 9:00 AM - 5:00 PM, Thursday 9:00 AM - 5:00 PM, Friday 9:00 AM - 5:00 PM, Saturday Closed, Sunday Closed",,,
"Cook Out , Spartanburg",205,1996 E Main St,,Spartanburg,SC,29307,United States,,34.970926,-81.887726,"Monday 10:30 AM - 2:00 AM, Tuesday 10:30 AM - 2:00 AM, Wednesday 10:30 AM - 2:00 AM, Thursday 10:30 AM - 2:00 AM, Friday 10:30 AM - 2:00 AM, Saturday 10:30 AM - 2:00 AM, Sunday 10:30 AM - 2:00 AM",,,
"Cook Out , Washington Rd.",464,2910 Washington Rd,,Augusta,GA,30909,United States,,33.511181,-82.039595,"Monday 9:00 AM - 5:00 PM, Tuesday 9:00 AM - 5:00 PM, Wednesday 9:00 AM - 5:00 PM, Thursday 9:00 AM - 5:00 PM, Friday 9:00 AM - 5:00 PM, Saturday Closed, Sunday Closed",,,
"Cook Out , Boiling Springs",182,1800 Boiling Springs Rd,,Boiling Springs,SC,29316,United States,,35.015801,-81.959699,"Monday 10:30 AM - 2:00 AM, Tuesday 10:30 AM - 2:00 AM, Wednesday 10:30 AM - 2:00 AM, Thursday 10:30 AM - 2:00 AM, Friday 10:30 AM - 2:00 AM, Saturday 10:30 AM - 2:00 AM, Sunday 10:30 AM - 2:00 AM",,,
"Cook Out , Jimmie Dyess",361,4088 Jimmie Dyess Pkwy,,Augusta,GA,30909,United States,,33.480216,-82.1292,"Monday 10:30 AM - 3:30 AM, Tuesday 10:30 AM - 3:30 AM, Wednesday 10:30 AM - 3:30 AM, Thursday 10:30 AM - 3:30 AM, Friday 10:30 AM - 4:30 AM, Saturday 10:30 AM - 4:30 AM, Sunday 10:30 AM - 3:30 AM",,,
"Cook Out , Greenwood",174,1821 Hwy 72,,Greenwood,SC,29649,United States,,34.217788,-82.164485,"Monday 10:30 AM - 2:00 AM, Tuesday 10:30 AM - 2:00 AM, Wednesday 10:30 AM - 2:00 AM, Thursday 10:30 AM - 2:00 AM, Friday 10:30 AM - 2:00 AM, Saturday 10:30 AM - 2:00 AM, Sunday 10:30 AM - 2:00 AM",,,
"Cook Out , Woodruff Road",160,1820 Woodruff Rd,,Greenville,SC,29607,United States,,34.819417,-82.268195,"Monday 10:30 AM - 3:00 AM, Tuesday 10:30 AM - 3:00 AM, Wednesday 10:30 AM - 3:00 AM, Thursday 10:30 AM - 3:00 AM, Friday 10:30 AM - 4:00 AM, Saturday 10:30 AM - 4:00 AM, Sunday 10:30 AM - 3:00 AM",,,
"Cook Out , Greer",1747,1353 W. Wade Hampton Blvd.,,Greer,SC,29650,United States,,34.939838,-82.263367,"Monday 9:00 AM - 5:00 PM, Tuesday 9:00 AM - 5:00 PM, Wednesday 9:00 AM - 5:00 PM, Thursday 9:00 AM - 5:00 PM, Friday 9:00 AM - 5:00 PM, Saturday Closed, Sunday Closed",,,
"Cook Out , Bristol, VA",429,3128 Lee Hwy,,Bristol,VA,24202,United States,,36.632752,-82.126569,"Monday 9:00 AM - 5:00 PM, Tuesday 9:00 AM - 5:00 PM, Wednesday 9:00 AM - 5:00 PM, Thursday 9:00 AM - 5:00 PM, Friday 9:00 AM - 5:00 PM, Saturday Closed, Sunday Closed",,,
"Cook Out , Laurens Rd.",172,1560 Laurens Rd,,Greenville,SC,29607,United States,,34.841603,-82.359711,"Monday 10:30 AM - 2:00 AM, Tuesday 10:30 AM - 2:00 AM, Wednesday 10:30 AM - 2:00 AM, Thursday 10:30 AM - 2:00 AM, Friday 10:30 AM - 2:00 AM, Saturday 10:30 AM - 2:00 AM, Sunday 10:30 AM - 2:00 AM",,,
"Cook Out , Poinsett",186,1513 Poinsett Hwy,,Greenville,SC,29609,United States,,34.888712,-82.406007,"Monday 10:30 AM - 2:00 AM, Tuesday 10:30 AM - 2:00 AM, Wednesday 10:30 AM - 2:00 AM, Thursday 10:30 AM - 2:00 AM, Friday 10:30 AM - 2:00 AM, Saturday 10:30 AM - 2:00 AM, Sunday 10:30 AM - 2:00 AM",,,
"Cook Out , Johnson City",395,1206 W State of Franklin Rd,,Johnson City,TN,37604,United States,,36.30319,-82.373903,"Monday 9:00 AM - 5:00 PM, Tuesday 9:00 AM - 5:00 PM, Wednesday 9:00 AM - 5:00 PM, Thursday 9:00 AM - 5:00 PM, Friday 9:00 AM - 5:00 PM, Saturday Closed, Sunday Closed",,,
"Cook Out , Easley",1745,5146 Calhoun Memorial Hwy,,Easley,SC,29640,United States,,34.824918,-82.557618,"Monday 9:00 AM - 5:00 PM, Tuesday 9:00 AM - 5:00 PM, Wednesday 9:00 AM - 5:00 PM, Thursday 9:00 AM - 5:00 PM, Friday 9:00 AM - 5:00 PM, Saturday Closed, Sunday Closed",,,
"Cook Out , Tunnel Rd.",1536,251 Tunnel Rd.,,Asheville,NC,28805,United States,,35.584888,-82.527936,"Monday 9:00 AM - 5:00 PM, Tuesday 9:00 AM - 5:00 PM, Wednesday 9:00 AM - 5:00 PM, Thursday 9:00 AM - 5:00 PM, Friday 9:00 AM - 5:00 PM, Saturday Closed, Sunday Closed",,,
"Cook Out , Anderson",196,3432 Clemson Blvd,,Anderson,SC,29621,United States,,34.548821,-82.672697,"Monday 10:30 AM - 2:00 AM, Tuesday 10:30 AM - 2:00 AM, Wednesday 10:30 AM - 2:00 AM, Thursday 10:30 AM - 2:00 AM, Friday 10:30 AM - 2:00 AM, Saturday 10:30 AM - 2:00 AM, Sunday 10:30 AM - 2:00 AM",,,
"Cook Out , Patton Ave",1538,1055 Patton Ave,,Asheville,NC,28806,United States,,35.587253,-82.594467,"Monday 9:00 AM - 5:00 PM, Tuesday 9:00 AM - 5:00 PM, Wednesday 9:00 AM - 5:00 PM, Thursday 9:00 AM - 5:00 PM, Friday 9:00 AM - 5:00 PM, Saturday Closed, Sunday Closed",,,
"Cook Out , Kingsport",407,1600 E Stone Dr,,Kingsport,TN,37660,United States,,36.549126,-82.519933,"Monday 9:00 AM - 5:00 PM, Tuesday 9:00 AM - 5:00 PM, Wednesday 9:00 AM - 5:00 PM, Thursday 9:00 AM - 5:00 PM, Friday 9:00 AM - 5:00 PM, Saturday Closed, Sunday Closed",,,
"Cook Out , Huntington, WV",472,416 25th St,,Huntington,WV,25703,United States,,38.425868,-82.412507,"Monday 9:00 AM - 5:00 PM, Tuesday 9:00 AM - 5:00 PM, Wednesday 9:00 AM - 5:00 PM, Thursday 9:00 AM - 5:00 PM, Friday 9:00 AM - 5:00 PM, Saturday Closed, Sunday Closed",,,
"Cook Out , Clemson",203,1055 Tiger Blvd,,Clemson,SC,29631,United States,,34.692164,-82.838997,"Monday 10:30 AM - 2:00 AM, Tuesday 10:30 AM - 2:00 AM, Wednesday 10:30 AM - 2:00 AM, Thursday 10:30 AM - 2:00 AM, Friday 10:30 AM - 2:00 AM, Saturday 10:30 AM - 2:00 AM, Sunday 10:30 AM - 2:00 AM",,,
"Cook Out , Greeneville, TN",418,3545 E Andrew Johnson Hwy,,Greeneville,TN,37745,United States,,36.186021,-82.76284,"Monday 9:00 AM - 5:00 PM, Tuesday 9:00 AM - 5:00 PM, Wednesday 9:00 AM - 5:00 PM, Thursday 9:00 AM - 5:00 PM, Friday 9:00 AM - 5:00 PM, Saturday Closed, Sunday Closed",,,
"Cook Out , Milledgeville, GA",455,1893 N Columbia St,,Milledgeville,GA,31061,United States,,33.10574,-83.250911,"Monday 9:00 AM - 5:00 PM, Tuesday 9:00 AM - 5:00 PM, Wednesday 9:00 AM - 5:00 PM, Thursday 9:00 AM - 5:00 PM, Friday 9:00 AM - 5:00 PM, Saturday Closed, Sunday Closed",,,
"Cook Out , Sylva",1689,1391 East Main Street,,Sylva,NC,28779,United States,,35.359592,-83.201466,"Monday 9:00 AM - 5:00 PM, Tuesday 9:00 AM - 5:00 PM, Wednesday 9:00 AM - 5:00 PM, Thursday 9:00 AM - 5:00 PM, Friday 9:00 AM - 5:00 PM, Saturday Closed, Sunday Closed",,,
"Cook Out , UGA",392,1917 W Broad St,,Athens,GA,30606,United States,,33.95132,-83.401271,"Monday 9:00 AM - 5:00 PM, Tuesday 9:00 AM - 5:00 PM, Wednesday 9:00 AM - 5:00 PM, Thursday 9:00 AM - 5:00 PM, Friday 9:00 AM - 5:00 PM, Saturday Closed, Sunday Closed",,,
"Cook Out , Athens, GA",359,1020 Jordan Dr,,Athens,GA,30606,United States,,33.919852,-83.442446,"Monday 9:00 AM - 5:00 PM, Tuesday 9:00 AM - 5:00 PM, Wednesday 9:00 AM - 5:00 PM, Thursday 9:00 AM - 5:00 PM, Friday 9:00 AM - 5:00 PM, Saturday Closed, Sunday Closed",,,
"Cook Out , Morristown",401,2251 W Andrew Johnson Hwy,,Morristown,TN,37814,United States,,36.205042,-83.324115,"Monday 9:00 AM - 5:00 PM, Tuesday 9:00 AM - 5:00 PM, Wednesday 9:00 AM - 5:00 PM, Thursday 9:00 AM - 5:00 PM, Friday 9:00 AM - 5:00 PM, Saturday Closed, Sunday Closed",,,
"Cook Out , Warner Robins, GA",390,113 Richard B Russell Pkwy,,Warner Robins,GA,31088,United States,,32.593714,-83.655558,"Monday 9:00 AM - 5:00 PM, Tuesday 9:00 AM - 5:00 PM, Wednesday 9:00 AM - 5:00 PM, Thursday 9:00 AM - 5:00 PM, Friday 9:00 AM - 5:00 PM, Saturday Closed, Sunday Closed",,,
"Cook Out , Warner Robins #2 COMING SOON",1417,3061 Watson Blvd.,,Warner Robins,GA,31093,United States,,32.616471,-83.692762,"Monday 9:00 AM - 5:00 PM, Tuesday 9:00 AM - 5:00 PM, Wednesday 9:00 AM - 5:00 PM, Thursday 9:00 AM - 5:00 PM, Friday 9:00 AM - 5:00 PM, Saturday Closed, Sunday Closed",,,
Cook Out  MACON COMING SOON,1403,5001 Brookhaven Rd,,Macon,GA,31206,United States,,32.81169,-83.720627,"Monday 9:00 AM - 5:00 PM, Tuesday 9:00 AM - 5:00 PM, Wednesday 9:00 AM - 5:00 PM, Thursday 9:00 AM - 5:00 PM, Friday 9:00 AM - 5:00 PM, Saturday Closed, Sunday Closed",,,
"Cook Out , Winder",1733,46 W May Street,,Winder,GA,30680,United States,,33.991909,-83.725963,"Monday 9:00 AM - 5:00 PM, Tuesday 9:00 AM - 5:00 PM, Wednesday 9:00 AM - 5:00 PM, Thursday 9:00 AM - 5:00 PM, Friday 9:00 AM - 5:00 PM, Saturday Closed, Sunday Closed",,,
"Cook Out , Morehead",1765,275 Stone St.,,Morehead,KY,40351,United States,,38.175017,-83.435884,"Monday 9:00 AM - 5:00 PM, Tuesday 9:00 AM - 5:00 PM, Wednesday 9:00 AM - 5:00 PM, Thursday 9:00 AM - 5:00 PM, Friday 9:00 AM - 5:00 PM, Saturday Closed, Sunday Closed",,,
"Cook Out , Gainesville",465,719 Jesse Jewell Pkwy SW,,Gainesville,GA,30501,United States,,34.300642,-83.818822,"Monday 9:00 AM - 5:00 PM, Tuesday 9:00 AM - 5:00 PM, Wednesday 9:00 AM - 5:00 PM, Thursday 9:00 AM - 5:00 PM, Friday 9:00 AM - 5:00 PM, Saturday Closed, Sunday Closed",,,
"Cook Out , Oakwood, GA",396,3626 Mundy Mill Rd,,Gainesville,GA,30504,United States,,34.228393,-83.867004,"Monday 9:00 AM - 5:00 PM, Tuesday 9:00 AM - 5:00 PM, Wednesday 9:00 AM - 5:00 PM, Thursday 9:00 AM - 5:00 PM, Friday 9:00 AM - 5:00 PM, Saturday Closed, Sunday Closed",,,
"Cook Out , Snellville",1739,2019 Scenic Hwy,,Snellville,GA,30078,United States,,33.869082,-84.015996,"Monday 9:00 AM - 5:00 PM, Tuesday 9:00 AM - 5:00 PM, Wednesday 9:00 AM - 5:00 PM, Thursday 9:00 AM - 5:00 PM, Friday 9:00 AM - 5:00 PM, Saturday Closed, Sunday Closed",,,
"Cook Out , Cumberland Ave.",397,2135 Cumberland Ave,,Knoxville,TN,37916,United States,,35.954269,-83.938894,"Monday 9:00 AM - 5:00 PM, Tuesday 9:00 AM - 5:00 PM, Wednesday 9:00 AM - 5:00 PM, Thursday 9:00 AM - 5:00 PM, Friday 9:00 AM - 5:00 PM, Saturday Closed, Sunday Closed",,,
"Cook Out , Maryville",403,1305 W Lamar Alexander Pkwy,,Maryville,TN,37801,United States,,35.751615,-83.999358,"Monday 9:00 AM - 5:00 PM, Tuesday 9:00 AM - 5:00 PM, Wednesday 9:00 AM - 5:00 PM, Thursday 9:00 AM - 5:00 PM, Friday 9:00 AM - 5:00 PM, Saturday Closed, Sunday Closed",,,
"Cook Out , Powell TN",430,435 E Emory Rd,,Powell,TN,37849,United States,,36.050465,-83.996823,"Monday 9:00 AM - 5:00 PM, Tuesday 9:00 AM - 5:00 PM, Wednesday 9:00 AM - 5:00 PM, Thursday 9:00 AM - 5:00 PM, Friday 9:00 AM - 5:00 PM, Saturday Closed, Sunday Closed",,,
"Cook Out , Lithonia, GA",463,2790 Panola Rd,,Lithonia,GA,30058,United States,,33.70574,-84.168953,"Monday 9:00 AM - 5:00 PM, Tuesday 9:00 AM - 5:00 PM, Wednesday 9:00 AM - 5:00 PM, Thursday 9:00 AM - 5:00 PM, Friday 9:00 AM - 5:00 PM, Saturday Closed, Sunday Closed",,,
"Cook Out , Kingston Pike",399,6920 Kingston Pike,,Knoxville,TN,37919,United States,,35.932017,-84.020932,"Monday 9:00 AM - 5:00 PM, Tuesday 9:00 AM - 5:00 PM, Wednesday 9:00 AM - 5:00 PM, Thursday 9:00 AM - 5:00 PM, Friday 9:00 AM - 5:00 PM, Saturday Closed, Sunday Closed",,,
"Cook Out , Tucker, GA",452,4487 Hugh Howell Rd,,Tucker,GA,30084,United States,,33.848783,-84.204968,"Monday 9:00 AM - 5:00 PM, Tuesday 9:00 AM - 5:00 PM, Wednesday 9:00 AM - 5:00 PM, Thursday 9:00 AM - 5:00 PM, Friday 9:00 AM - 5:00 PM, Saturday Closed, Sunday Closed",,,
"Cook Out , Cedar Bluff TN",1725,321 Cedar Bluff Rd,,Knoxville,TN,37923,United States,,35.920454,-84.093281,"Monday 9:00 AM - 5:00 PM, Tuesday 9:00 AM - 5:00 PM, Wednesday 9:00 AM - 5:00 PM, Thursday 9:00 AM - 5:00 PM, Friday 9:00 AM - 5:00 PM, Saturday Closed, Sunday Closed",,,
"Cook Out , Alpharetta, GA",466,11475 Haynes Bridge Rd,,Alpharetta,GA,30009,United States,,34.061423,-84.289618,"Monday 9:00 AM - 5:00 PM, Tuesday 9:00 AM - 5:00 PM, Wednesday 9:00 AM - 5:00 PM, Thursday 9:00 AM - 5:00 PM, Friday 9:00 AM - 5:00 PM, Saturday Closed, Sunday Closed",,,
"Cook Out , Morrow, GA",459,6273 Jonesboro Rd,,Morrow,GA,30260,United States,,33.584026,-84.339792,"Monday 9:00 AM - 5:00 PM, Tuesday 9:00 AM - 5:00 PM, Wednesday 9:00 AM - 5:00 PM, Thursday 9:00 AM - 5:00 PM, Friday 9:00 AM - 5:00 PM, Saturday Closed, Sunday Closed",,,
"Cook Out , Moreland Ave.",456,403 Moreland Ave SE,,Atlanta,GA,30316,United States,,33.743089,-84.34958,"Monday 9:00 AM - 5:00 PM, Tuesday 9:00 AM - 5:00 PM, Wednesday 9:00 AM - 5:00 PM, Thursday 9:00 AM - 5:00 PM, Friday 9:00 AM - 5:00 PM, Saturday Closed, Sunday Closed",,,
"Cook Out , Ponce De Leon",461,544 Ponce de Leon Ave NE,,Atlanta,GA,30308,United States,,33.773776,-84.369188,"Monday 9:00 AM - 5:00 PM, Tuesday 9:00 AM - 5:00 PM, Wednesday 9:00 AM - 5:00 PM, Thursday 9:00 AM - 5:00 PM, Friday 9:00 AM - 5:00 PM, Saturday Closed, Sunday Closed",,,
"Cook Out , Riverdale",1737,6897 GA  85,,Riverdale,GA,30274,United States,,33.566849,-84.413061,"Monday 9:00 AM - 5:00 PM, Tuesday 9:00 AM - 5:00 PM, Wednesday 9:00 AM - 5:00 PM, Thursday 9:00 AM - 5:00 PM, Friday 9:00 AM - 5:00 PM, Saturday Closed, Sunday Closed",,,
"Cook Out , Northside Dr.",462,1112 Northside Dr NW,,Atlanta,GA,30318,United States,,33.785301,-84.407805,"Monday 9:00 AM - 5:00 PM, Tuesday 9:00 AM - 5:00 PM, Wednesday 9:00 AM - 5:00 PM, Thursday 9:00 AM - 5:00 PM, Friday 9:00 AM - 5:00 PM, Saturday Closed, Sunday Closed",,,
"Cook Out , Big Chicken",1735,9 Cobb Pkwy,,Marietta,GA,30062,United States,,33.951363,-84.521428,"Monday 9:00 AM - 5:00 PM, Tuesday 9:00 AM - 5:00 PM, Wednesday 9:00 AM - 5:00 PM, Thursday 9:00 AM - 5:00 PM, Friday 9:00 AM - 5:00 PM, Saturday Closed, Sunday Closed",,,
"Cook Out , Kennesaw, GA",460,745 Chastain Rd NW,,Kennesaw,GA,30144,United States,,34.034806,-84.57067,"Monday 9:00 AM - 5:00 PM, Tuesday 9:00 AM - 5:00 PM, Wednesday 9:00 AM - 5:00 PM, Thursday 9:00 AM - 5:00 PM, Friday 9:00 AM - 5:00 PM, Saturday Closed, Sunday Closed",,,
"Cook Out , Richmond, KY",1763,120 Eastern Bypass,,Richmond,KY,40475,United States,,37.735818,-84.320286,"Monday 9:00 AM - 5:00 PM, Tuesday 9:00 AM - 5:00 PM, Wednesday 9:00 AM - 5:00 PM, Thursday 9:00 AM - 5:00 PM, Friday 9:00 AM - 5:00 PM, Saturday Closed, Sunday Closed",,,
"Cook Out , Austell Road",398,3800 Austell Rd SW,,Marietta,GA,30008,United States,,33.861082,-84.598513,"Monday 9:00 AM - 5:00 PM, Tuesday 9:00 AM - 5:00 PM, Wednesday 9:00 AM - 5:00 PM, Thursday 9:00 AM - 5:00 PM, Friday 9:00 AM - 5:00 PM, Saturday Closed, Sunday Closed",,,
"Cook Out , Athens TN",1721,1227 Congress Pkwy TN,,Athens,TN,37303,United States,,35.451402,-84.622098,"Monday 9:00 AM - 5:00 PM, Tuesday 9:00 AM - 5:00 PM, Wednesday 9:00 AM - 5:00 PM, Thursday 9:00 AM - 5:00 PM, Friday 9:00 AM - 5:00 PM, Saturday Closed, Sunday Closed",,,
"Cook Out , Lexington, KY",400,855 S Broadway,,Lexington,KY,40504,United States,,38.040443,-84.513665,"Monday 9:00 AM - 5:00 PM, Tuesday 9:00 AM - 5:00 PM, Wednesday 9:00 AM - 5:00 PM, Thursday 9:00 AM - 5:00 PM, Friday 9:00 AM - 5:00 PM, Saturday Closed, Sunday Closed",,,
"Cook Out , Cleveland",1723,822 25th St,,Cleveland,TN,37311,United States,,35.183025,-84.874295,"Monday 9:00 AM - 5:00 PM, Tuesday 9:00 AM - 5:00 PM, Wednesday 9:00 AM - 5:00 PM, Thursday 9:00 AM - 5:00 PM, Friday 9:00 AM - 5:00 PM, Saturday Closed, Sunday Closed",,,
"Cook Out , Dalton",1729,1257 Glenwood Ave,,Dalton,GA,30721,United States,,34.794242,-84.962704,"Monday 9:00 AM - 5:00 PM, Tuesday 9:00 AM - 5:00 PM, Wednesday 9:00 AM - 5:00 PM, Thursday 9:00 AM - 5:00 PM, Friday 9:00 AM - 5:00 PM, Saturday Closed, Sunday Closed",,,
"Cook Out , Carrollton, GA",394,904 S Park St,,Carrollton,GA,30117,United States,,33.565438,-85.075664,"Monday 9:00 AM - 5:00 PM, Tuesday 9:00 AM - 5:00 PM, Wednesday 9:00 AM - 5:00 PM, Thursday 9:00 AM - 5:00 PM, Friday 9:00 AM - 5:00 PM, Saturday Closed, Sunday Closed",,,
"Cook Out , Frankfort, KY",470,1234 US Highway 127 S,,Frankfort,KY,40601,United States,,38.217203,-84.86053,"Monday 9:00 AM - 5:00 PM, Tuesday 9:00 AM - 5:00 PM, Wednesday 9:00 AM - 5:00 PM, Thursday 9:00 AM - 5:00 PM, Friday 9:00 AM - 5:00 PM, Saturday Closed, Sunday Closed",,,
"Cook Out , Rome",457,808 Martha Berry Blvd NE,,Rome,GA,30165,United States,,34.261469,-85.180502,"Monday 9:00 AM - 5:00 PM, Tuesday 9:00 AM - 5:00 PM, Wednesday 9:00 AM - 5:00 PM, Thursday 9:00 AM - 5:00 PM, Friday 9:00 AM - 5:00 PM, Saturday Closed, Sunday Closed",,,
"Cook Out , Chattanooga",426,5001 Brainerd Rd,,Chattanooga,TN,37421,United States,,35.017179,-85.205056,"Monday 9:00 AM - 5:00 PM, Tuesday 9:00 AM - 5:00 PM, Wednesday 9:00 AM - 5:00 PM, Thursday 9:00 AM - 5:00 PM, Friday 9:00 AM - 5:00 PM, Saturday Closed, Sunday Closed",,,
"Cook Out , Fort Oglethorpe",1731,920 Battlefield Pkwy,,Fort Oglethorpe,GA,30742,United States,,34.952837,-85.246235,"Monday 9:00 AM - 5:00 PM, Tuesday 9:00 AM - 5:00 PM, Wednesday 9:00 AM - 5:00 PM, Thursday 9:00 AM - 5:00 PM, Friday 9:00 AM - 5:00 PM, Saturday Closed, Sunday Closed",,,
"Cook Out , Hixson, TN",422,5390 TN-153,,Chattanooga,TN,37343,United States,,35.135998,-85.246395,"Monday 9:00 AM - 5:00 PM, Tuesday 9:00 AM - 5:00 PM, Wednesday 9:00 AM - 5:00 PM, Thursday 9:00 AM - 5:00 PM, Friday 9:00 AM - 5:00 PM, Saturday Closed, Sunday Closed",,,
"Cook Out , Cookeville, TN",416,869 S Jefferson Ave,,Cookeville,TN,38501,United States,,36.140792,-85.501274,"Monday 9:00 AM - 5:00 PM, Tuesday 9:00 AM - 5:00 PM, Wednesday 9:00 AM - 5:00 PM, Thursday 9:00 AM - 5:00 PM, Friday 9:00 AM - 5:00 PM, Saturday Closed, Sunday Closed",,,
"Jacksonville, AL COMING SOON",1452,402 S. Pelham,,Jacksonville,AL,36235,United States,,33.8115,-85.7608,"Monday 9:00 AM - 5:00 PM, Tuesday 9:00 AM - 5:00 PM, Wednesday 9:00 AM - 5:00 PM, Thursday 9:00 AM - 5:00 PM, Friday 9:00 AM - 5:00 PM, Saturday Closed, Sunday Closed",,,
"Cook Out Lebanon, TN COMING SOON",1454,107 Legends Drive,,Lenanon,TN,37087,United States,,36.188898,-86.293368,"Monday 9:00 AM - 5:00 PM, Tuesday 9:00 AM - 5:00 PM, Wednesday 9:00 AM - 5:00 PM, Thursday 9:00 AM - 5:00 PM, Friday 9:00 AM - 5:00 PM, Saturday Closed, Sunday Closed",,,
"Cook Out , Murfreesboro",405,2919 S Rutherford Blvd,,Murfreesboro,TN,37130,United States,,35.831479,-86.35127,"Monday 9:00 AM - 5:00 PM, Tuesday 9:00 AM - 5:00 PM, Wednesday 9:00 AM - 5:00 PM, Thursday 9:00 AM - 5:00 PM, Friday 9:00 AM - 5:00 PM, Saturday Closed, Sunday Closed",,,
"Cook Out , Murfreesboro 2",1780,1620 Memorial Blvd,,Murfreesboro,TN,37129,United States,,35.86486,-86.389058,"Monday 9:00 AM - 5:00 PM, Tuesday 9:00 AM - 5:00 PM, Wednesday 9:00 AM - 5:00 PM, Thursday 9:00 AM - 5:00 PM, Friday 9:00 AM - 5:00 PM, Saturday Closed, Sunday Closed",,,
"Cook Out , Bowling Green, KY",402,730 Campbell Ln,,Bowling Green,KY,42101,United States,,36.964286,-86.472449,"Monday 9:00 AM - 5:00 PM, Tuesday 9:00 AM - 5:00 PM, Wednesday 9:00 AM - 5:00 PM, Thursday 9:00 AM - 5:00 PM, Friday 9:00 AM - 5:00 PM, Saturday Closed, Sunday Closed",,,
"Cook Out , Smyrna",424,491 Sam Ridley Pkwy W,,Smyrna,TN,37167,United States,,35.981469,-86.555816,"Monday 9:00 AM - 5:00 PM, Tuesday 9:00 AM - 5:00 PM, Wednesday 9:00 AM - 5:00 PM, Thursday 9:00 AM - 5:00 PM, Friday 9:00 AM - 5:00 PM, Saturday Closed, Sunday Closed",,,
"Cook Out , Madison",420,2102 Gallatin Pike N,,Madison,TN,37115,United States,,36.30373,-86.691648,"Monday 9:00 AM - 5:00 PM, Tuesday 9:00 AM - 5:00 PM, Wednesday 9:00 AM - 5:00 PM, Thursday 9:00 AM - 5:00 PM, Friday 9:00 AM - 5:00 PM, Saturday Closed, Sunday Closed",,,
"Cook Out , Gallatin Pike",414,2910 Gallatin Pike,,Nashville,TN,37216,United States,,36.203339,-86.738112,"Monday 9:00 AM - 5:00 PM, Tuesday 9:00 AM - 5:00 PM, Wednesday 9:00 AM - 5:00 PM, Thursday 9:00 AM - 5:00 PM, Friday 9:00 AM - 5:00 PM, Saturday Closed, Sunday Closed",,,
"Cook Out , West End",412,1807 West End Ave,,Nashville,TN,37203,United States,,36.152469,-86.796443,"Monday 9:00 AM - 5:00 PM, Tuesday 9:00 AM - 5:00 PM, Wednesday 9:00 AM - 5:00 PM, Thursday 9:00 AM - 5:00 PM, Friday 9:00 AM - 5:00 PM, Saturday Closed, Sunday Closed",,,
"Cook Out , Charlotte Pike",1719,5802 Charlotte Pike,,Nashville,TN,37209,United States,,36.149579,-86.861715,"Monday 9:00 AM - 5:00 PM, Tuesday 9:00 AM - 5:00 PM, Wednesday 9:00 AM - 5:00 PM, Thursday 9:00 AM - 5:00 PM, Friday 9:00 AM - 5:00 PM, Saturday Closed, Sunday Closed",,,
"Cook Out , Wilma Rudolph",1778,2892 Wilma Rudolph Blvd,,Clarksville,TN,37040,United States,,36.591625,-87.291589,"Monday 9:00 AM - 5:00 PM, Tuesday 9:00 AM - 5:00 PM, Wednesday 9:00 AM - 5:00 PM, Thursday 9:00 AM - 5:00 PM, Friday 9:00 AM - 5:00 PM, Saturday Closed, Sunday Closed",,,
"Cook Out , Dickson, TN",428,109 Mathis Dr,,Dickson,TN,37055,United States,,36.075961,-87.37619,"Monday 9:00 AM - 5:00 PM, Tuesday 9:00 AM - 5:00 PM, Wednesday 9:00 AM - 5:00 PM, Thursday 9:00 AM - 5:00 PM, Friday 9:00 AM - 5:00 PM, Saturday Closed, Sunday Closed",,,
"Cook Out , Clarksville, TN",410,804 N 2nd St,,Clarksville,TN,37040,United States,,36.540384,-87.365529,"Monday 9:00 AM - 5:00 PM, Tuesday 9:00 AM - 5:00 PM, Wednesday 9:00 AM - 5:00 PM, Thursday 9:00 AM - 5:00 PM, Friday 9:00 AM - 5:00 PM, Saturday Closed, Sunday Closed",,,
"Cook Out , Tuscaloosa",1727,100 15th St E,,Tuscaloosa,AL,35401,United States,,33.198699,-87.535035,"Monday 9:00 AM - 5:00 PM, Tuesday 9:00 AM - 5:00 PM, Wednesday 9:00 AM - 5:00 PM, Thursday 9:00 AM - 5:00 PM, Friday 9:00 AM - 5:00 PM, Saturday Closed, Sunday Closed",,,
"Cook Out , Murray",469,205 N 12th St,,Murray,KY,42071,United States,,36.612765,-88.315197,"Monday 9:00 AM - 5:00 PM, Tuesday 9:00 AM - 5:00 PM, Wednesday 9:00 AM - 5:00 PM, Thursday 9:00 AM - 5:00 PM, Friday 9:00 AM - 5:00 PM, Saturday Closed, Sunday Closed",,,
"Cook Out , Starkville",1715,102 MS-12,,Starkville,MS,39759,United States,,33.45451,-88.813509,"Monday 9:00 AM - 5:00 PM, Tuesday 9:00 AM - 5:00 PM, Wednesday 9:00 AM - 5:00 PM, Thursday 9:00 AM - 5:00 PM, Friday 9:00 AM - 5:00 PM, Saturday Closed, Sunday Closed",,,
"Cook Out , Hattiesburg",1711,3601 Hardy St,,Hattiesburg,MS,39402,United States,,31.32527,-89.343521,"Monday 9:00 AM - 5:00 PM, Tuesday 9:00 AM - 5:00 PM, Wednesday 9:00 AM - 5:00 PM, Thursday 9:00 AM - 5:00 PM, Friday 9:00 AM - 5:00 PM, Saturday Closed, Sunday Closed",,,
"Cook Out , Oxford",1713,2195 Jackson Ave W,,Oxford,MS,38655,United States,,34.363304,-89.56018,"Monday 9:00 AM - 5:00 PM, Tuesday 9:00 AM - 5:00 PM, Wednesday 9:00 AM - 5:00 PM, Thursday 9:00 AM - 5:00 PM, Friday 9:00 AM - 5:00 PM, Saturday Closed, Sunday Closed",,,
"Cook Out , Memphis",1386,757 South Highland Street,,Memphis,TN,38111,United States,,35.11081,-89.946396,"Monday 9:00 AM - 5:00 PM, Tuesday 9:00 AM - 5:00 PM, Wednesday 9:00 AM - 5:00 PM, Thursday 9:00 AM - 5:00 PM, Friday 9:00 AM - 5:00 PM, Saturday Closed, Sunday Closed",,,
