store_name,store_number,address,address2,city,state,zip_code,country,phone_number,latitude,longitude,store_hours,other_fields,coming_soon
Quarry Crossing,836,7322 Jones Maltsberger,,San Antonio,TX,78209,US,(210) 829-0975,-98.4806119,29.4985149,"10:00-21:00, 10:00-21:00, 10:00-21:00, 10:00-21:00, 10:00-21:00, 10:00-21:00, 12:00-18:00",,
Shops at La Cantera,1426,15900 La Cantera Parkway,,San Antonio,TX,78256,US,(210) 558-0663,-98.6109397,29.5932926,"10:00-21:00, 10:00-21:00, 10:00-21:00, 10:00-21:00, 10:00-21:00, 10:00-21:00, 12:00-18:00",,
Village at Stone Oak,1629,22710 U.S. 281 North,,San Antonio,TX,78258,US,(210) 481-0705,-98.4472443,29.6519764,"10:00-21:00, 10:00-21:00, 10:00-21:00, 10:00-21:00, 10:00-21:00, 10:00-21:00, 12:00-18:00",,
LOS  2937 San Marcos LOS,2937,4015 INTERSTATE 35 SOUTH,,SAN MARCOS,TX,78666,US,(512) 392-3855,-97.9845466,29.8249513,"09:00-21:00, 09:00-21:00, 09:00-21:00, 09:00-21:00, 09:00-21:00, 09:00-21:00, 10:00-19:00",,
Hill Country Galleria,1621,12912 Hill Country Blvd,,Bee Cave,TX,78738,US,(512) 263-7157,-97.942263,30.3100354,"10:00-21:00, 10:00-21:00, 10:00-21:00, 10:00-21:00, 10:00-21:00, 10:00-21:00, 12:00-18:00",,
Barton Creek Square,1762,2901 S Capital of Texas Hwy,,Austin,TX,78746,US,(512) 732-2830,-97.8071884,30.2573391,"10:00-21:00, 10:00-21:00, 10:00-21:00, 10:00-21:00, 10:00-21:00, 10:00-21:00, 11:00-19:00",,
430 W 2nd Street,1887,430 W 2nd Street,,Austin,TX,78701,US,(512)474-2737,-97.7480119,30.2656508,"10:00-19:00, 10:00-19:00, 10:00-19:00, 10:00-19:00, 10:00-19:00, 10:00-19:00, 12:00-17:00",,
The Domain,1768,11510 Century Oaks Terrace,,Austin,TX,78758,US,(512) 833-6184,-97.7258506,30.4022265,"10:00-21:00, 10:00-21:00, 10:00-21:00, 10:00-21:00, 10:00-21:00, 10:00-21:00, 12:00-18:00",,
LOS  2951 Round Rock LOS,2951,4401 NORTH IH-35,,ROUND ROCK,TX,78664,US,(512) 863-4549,-97.6903305,30.5655981,"10:00-21:00, 10:00-21:00, 10:00-21:00, 10:00-21:00, 10:00-21:00, 10:00-21:00, 11:00-19:00",,
Wolf Ranch Town Center,1847,1015 W. University Ave,,Georgetown,TX,78628,US,(512)-863-2406,-97.6936314,30.6302756,"10:00-19:00, 10:00-19:00, 10:00-19:00, 10:00-19:00, 10:00-20:00, 10:00-20:00, 12:00-18:00",,
Lamar Park Center,1512,425 Doddridge Street,,Corpus Christi,TX,78411,US,(361) 852-3539,-97.3803885,27.7442295,"10:00-19:00, 10:00-19:00, 10:00-19:00, 10:00-19:00, 10:00-19:00, 10:00-19:00, 12:00-17:00",,
Scottsdale Fashion Square,1889,7014 East Camelback Road,,Scottsdale,AZ,85251,US,480-425-5898,-111.9294198,33.5028371,"10:00-21:00, 10:00-21:00, 10:00-21:00, 10:00-21:00, 10:00-21:00, 10:00-21:00, 11:00-18:00",,
Chandler Fashion Center,986,3111 West Chandler Blvd,,Chandler,AZ,85226,US,(480) 899-3414,-111.8977556,33.3056732,"10:00-21:00, 10:00-21:00, 10:00-21:00, 10:00-21:00, 10:00-21:00, 10:00-21:00, 11:00-18:00",,
Kierland Commons,862,15211 North Kierland Blvd,,Scottsdale,AZ,85254,US,(480) 556-0776,-111.9298364,33.6245594,"10:00-21:00, 10:00-21:00, 10:00-21:00, 10:00-21:00, 10:00-21:00, 10:00-21:00, 12:00-18:00",,
Arrowhead Towne Center,813,7700 W Arrowhead Towne Ctr,,Glendale,AZ,85308,US,(623) 776-2110,-112.2254067,33.6420894,"10:00-21:00, 10:00-21:00, 10:00-21:00, 10:00-21:00, 10:00-21:00, 10:00-21:00, 11:00-18:00",,
Dana Park Village Square,1313,1854 South Val Vista Drive,,Mesa,AZ,85204,US,(480) 892-9001,-111.7569218,33.3814634,"10:00-20:00, 10:00-20:00, 10:00-20:00, 10:00-20:00, 10:00-20:00, 10:00-20:00, 10:00-18:00",,
San Tan Village,1635,2174 E. Williams Field Road,,Gilbert,AZ,85295,US,(480) 855-1512,-111.7526397,33.3068213,"10:00-21:00, 10:00-21:00, 10:00-21:00, 10:00-21:00, 10:00-21:00, 10:00-21:00, 11:00-18:00",,
La Encantada,1883,2905 Skyline Drive,,Tucson,AZ,85718,US,(520)529-5599,-110.9301132,32.3247418,"10:00-19:00, 10:00-19:00, 10:00-19:00, 10:00-20:00, 10:00-20:00, 10:00-20:00, 11:00-18:00",,
West Monroe Store,976,111 West Monroe,,Chicago,IL,60603,US,(312) 422-0037,-87.6312785,41.8802518,"07:30-19:00, 07:30-19:00, 07:30-19:00, 07:30-19:00, 07:30-19:00, 00:01-00:02, 00:01-00:02",,
LaSalle Street Store,841,33 North LaSalle Street,,Chicago,IL,60602,US,(312) 346-7768,-87.6320469,41.882827,"07:30-19:00, 07:30-19:00, 07:30-19:00, 07:30-19:00, 07:30-19:00, 00:01-00:02, 00:01-00:02",,
The Roosevelt Collection,1876,150 West Roosevelt Road,,Chicago,IL,60605,US,(312)662-1097,-87.6320609,41.8678083,"10:00-20:00, 10:00-20:00, 10:00-20:00, 10:00-20:00, 10:00-20:00, 10:00-20:00, 11:00-18:00",,
664 North Michigan Ave,1815,664-670 N. Michigan Ave,,Chicago,IL,60611,US,(312) 915-0410,-87.6246128,41.8945393,"10:00-20:00, 10:00-20:00, 10:00-20:00, 10:00-20:00, 10:00-20:00, 10:00-20:00, 11:00-18:00",,
LOFT 1879 Shops on Fremont,1879,901 West Weed Street,,Chicago,IL,60642,US,(312)649-5769,-87.6516189,41.9095729,"10:00-20:00, 10:00-20:00, 10:00-20:00, 10:00-20:00, 10:00-20:00, 10:00-19:00, 11:00-18:00",,
West Diversey Store,1785,662 West Diversey,,Chicago,IL,60614,US,(773)327-6578,-87.645971,41.933037,"10:00-20:00, 10:00-20:00, 10:00-20:00, 10:00-20:00, 10:00-20:00, 10:00-20:00, 11:00-18:00",,
Lou & Grey Southport,4506,3442-3446 N. Southport Avenue,,Chicago,IL,60657,US,(773)935-5160,-87.664295,41.94474,"10:00-19:00, 10:00-19:00, 10:00-19:00, 10:00-19:00, 10:00-19:00, 10:00-19:00, 11:00-18:00",,
River Forest Town Center,666,7331 Lake Street,,River Forest,IL,60305,US,(708) 366-5097,-87.8081287,41.8877853,"10:00-20:00, 10:00-20:00, 10:00-20:00, 10:00-20:00, 10:00-20:00, 10:00-19:00, 11:00-18:00",,
Old Orchard Center,1467,4999 Old Orchard Center,,Skokie,IL,60077,US,(847) 674-1156,-87.749028,42.0595722,"10:00-21:00, 00:01-00:02, 10:00-21:00, 10:00-21:00, 10:00-21:00, 10:00-21:00, 11:00-18:00",,
Oakbrook Center,1361,462 Oakbrook Center,,Oak Brook,IL,60523,US,(630) 368-0187,-87.9524151,41.8513514,"10:00-21:00, 10:00-21:00, 10:00-21:00, 10:00-21:00, 10:00-21:00, 10:00-21:00, 11:00-18:00",,
Burr Ridge Village Center,1626,720 Village Center Drive,,Burr Ridge,IL,60527,US,(630) 887-1854,-87.9116193,41.7533067,"10:00-20:00, 10:00-20:00, 10:00-20:00, 10:00-20:00, 10:00-20:00, 10:00-20:00, 11:00-18:00",,
Yorktown Center,869,203 Yorktown Shopping Center,,Lombard,IL,60148,US,(630) 932-8951,-88.008333,41.8428632,"10:00-21:00, 10:00-21:00, 10:00-21:00, 10:00-21:00, 10:00-21:00, 10:00-21:00, 10:00-21:00",,
Orland Square Mall,1808,104 Orland Square,,Orland Park,IL,60462,US,(708)364-1858,-87.8475907,41.6190579,"10:00-21:00, 10:00-21:00, 10:00-21:00, 10:00-21:00, 10:00-21:00, 10:00-21:00, 11:00-18:00",,
Deerfield Square,972,720 Waukegan Road,,Deerfield,IL,60015,US,(847) 940-7376,-87.8462031,42.1655669,"10:00-20:00, 10:00-20:00, 10:00-20:00, 10:00-20:00, 10:00-20:00, 10:00-20:00, 11:00-17:00",,
Arlington Town Square,820,23 South Evergreen Avenue,,Arlington Heights,IL,60005,US,(847) 506-9554,-87.9817247,42.082384,"10:00-20:00, 10:00-20:00, 10:00-20:00, 10:00-20:00, 10:00-20:00, 10:00-20:00, 11:00-17:00",,
Streets of Woodfield,823,601 North Martingdale Road,,Schaumburg,IL,60173,US,(847) 240-2402,-88.0342759,42.0405192,"10:00-21:00, 10:00-21:00, 10:00-21:00, 10:00-21:00, 10:00-21:00, 10:00-21:00, 11:00-18:00",,
Promenade Bolingbrook,1675,641 East Boughton Road,,Bolingbrook,IL,60440,US,(630) 783-2089,-88.0416919,41.7198177,"10:00-21:00, 10:00-21:00, 10:00-21:00, 10:00-21:00, 10:00-21:00, 10:00-21:00, 11:00-18:00",,
Main St Promenade,1332,55 South Main Street,,Naperville,IL,60540,US,(630) 355-5683,-88.1503136,41.7743589,"09:30-21:00, 09:30-21:00, 09:30-21:00, 09:30-21:00, 09:30-21:00, 09:30-19:00, 11:00-18:00",,
The Shops at Kildeer,691,20505 North Rand Road,,Kildeer,IL,60047,US,(847) 719-1238,-88.0502808,42.1624839,"10:00-21:00, 10:00-21:00, 10:00-21:00, 10:00-21:00, 10:00-21:00, 10:00-21:00, 11:00-18:00",,
Hawthorne Center,1376,320 Hawthorne Center,,Vernon Hills,IL,60061,US,(847) 680-4562,-87.9465228,42.2413432,"10:00-21:00, 10:00-21:00, 10:00-21:00, 10:00-21:00, 10:00-21:00, 10:00-21:00, 11:00-18:00",,
South Barrington,1687,100 West Higgins Road,,Barrington,IL,60010,US,(847) 836-7841,-88.1826279,42.0749163,"10:00-21:00, 10:00-21:00, 10:00-21:00, 10:00-21:00, 10:00-21:00, 10:00-21:00, 11:00-18:00",,
Chicago Premium Outlets,3072,1650 Premium Outlet Blvd,,Aurora,IL,60502,US,(630)585-6486,-88.2739699,41.800478,"10:00-21:00, 10:00-21:00, 10:00-21:00, 10:00-21:00, 10:00-21:00, 10:00-21:00, 10:00-19:00",,
Geneva Commons,1469,114 Commons Drive,,Geneva,IL,60134,US,(630) 208-1291,-88.3435242,41.8909449,"10:00-21:00, 10:00-21:00, 10:00-21:00, 10:00-21:00, 10:00-21:00, 10:00-21:00, 11:00-18:00",,
LOS  3101 Gurnee Mills,3101,6170 W. Grand Avenue,,Gurnee,IL,60031,US,847-855-2479,-87.9551966,42.3834168,"10:00-21:00, 10:00-21:00, 10:00-21:00, 10:00-21:00, 10:00-21:00, 10:00-21:00, 10:00-18:00",,
LOS  2935 Lighthouse Place LOS,2935,601 Wabash St,,Michigan City,IN,46360,US,(219) 879-2957,-86.9051936,41.7152677,"09:00-21:00, 09:00-21:00, 09:00-21:00, 09:00-21:00, 09:00-21:00, 09:00-21:00, 09:00-18:00",,
Algonquin Commons,1431,1968 South Randall Road,,Algonquin,IL,60102,US,(847) 658-1469,-88.3358331,42.1481974,"10:00-21:00, 10:00-21:00, 10:00-21:00, 10:00-21:00, 10:00-21:00, 10:00-21:00, 11:00-18:00",,
LOS  2962 Pleasant Prairie LOS,2962,11211 120Th Ave,,Pleasant Prairie,WI,53158,US,(262) 857-4043,-87.9500072,42.5161208,"10:00-21:00, 10:00-21:00, 10:00-21:00, 10:00-21:00, 10:00-21:00, 10:00-21:00, 10:00-19:00",,
Cherryvale Mall,1468,7200 Harrison Avenue,,Rockford,IL,61112,US,(815) 332-9252,-88.9756194,42.2460425,"10:00-21:00, 10:00-21:00, 10:00-21:00, 10:00-21:00, 10:00-21:00, 10:00-21:00, 11:00-18:00",,
University Park Mall,1735,6501 North Grape Road,,Mishawaka,IN,46545,US,(574) 247-1240,-86.1910125,41.71949,"10:00-21:00, 10:00-21:00, 10:00-21:00, 10:00-21:00, 10:00-21:00, 10:00-21:00, 11:00-18:00",,
Brookfield Square,870,95 North Moorland Road,,Brookfield,WI,53005,US,(262) 782-5037,-88.1096606,43.0324821,"10:00-21:00, 10:00-21:00, 10:00-21:00, 10:00-21:00, 10:00-21:00, 10:00-21:00, 11:00-18:00",,
Mayfair Mall,1891,2500 N. Mayfair Road,,Wauwatosa,WI,53226,US,(414)257-2870,-88.0456476,43.0638475,"10:00-21:00, 10:00-21:00, 10:00-21:00, 10:00-21:00, 10:00-21:00, 09:00-22:00, 11:00-19:00",,
Bayshore Town Center,1326,5707 N. Centerpark Way,,Milwaukee,WI,53217,US,(414) 967-0475,-87.9149764,43.1212696,"10:00-21:00, 10:00-21:00, 10:00-21:00, 10:00-21:00, 10:00-21:00, 10:00-21:00, 11:00-18:00",,
LOS  3030 Johnson Creek Premiu,3030,595 W. Linmar Lane,,Johnson Creek,WI,53038,US,(920)699-5990,-88.7634319,43.0887433,"10:00-21:00, 10:00-21:00, 10:00-21:00, 10:00-21:00, 10:00-21:00, 10:00-21:00, 10:00-19:00",,
Shoppes at College Hill,1516,305 Veterans Parkway,,Normal,IL,61761,US,(309) 452-6353,-88.9572454,40.5068583,"10:00-21:00, 10:00-21:00, 10:00-21:00, 10:00-21:00, 10:00-21:00, 10:00-21:00, 11:00-18:00",,
Rivertown Circle,1305,3357 Century Center St SW,,Grandville,MI,49418,US,(616) 724-1857,-85.7470089,42.8820617,"10:00-21:00, 10:00-21:00, 10:00-21:00, 10:00-21:00, 10:00-21:00, 10:00-21:00, 11:00-18:00",,
LOS  3105 Grand Rapids,3105,350 84th St SW,,Byron Center,MI,49315,US,(616) 583-0509,-85.6729507,42.8113043,"09:00-21:00, 09:00-21:00, 09:00-21:00, 09:00-21:00, 09:00-21:00, 09:00-21:00, 10:00-19:00",,
Market Place,1515,2000 North Neil Street,,Champaign,IL,61820,US,(217) 355-0395,-88.2429304,40.1423318,"10:00-21:00, 10:00-21:00, 10:00-21:00, 10:00-21:00, 10:00-21:00, 10:00-21:00, 11:00-18:00",,
Breton Village Shopping Ctr,1799,1840 Breton Road Southeast,,Grand Rapids,MI,49506,US,(616)949-9814,-85.6093594,42.9295576,"10:00-20:00, 10:00-20:00, 10:00-20:00, 10:00-20:00, 10:00-20:00, 10:00-19:00, 12:00-17:00",,
Greenway Station,1342,1621 Deming Way,,Middleton,WI,53562,US,(608) 836-6636,-89.5265744,43.0911471,"10:00-20:00, 10:00-20:00, 10:00-20:00, 10:00-20:00, 10:00-20:00, 10:00-20:00, 12:00-17:00",,
Shoppes at Grand Prairie,1362,5201 West War Memorial Drive,,Peoria,IL,61615,US,(309) 693-2762,-89.673712,40.7787369,"10:00-21:00, 10:00-21:00, 10:00-21:00, 10:00-21:00, 10:00-21:00, 10:00-21:00, 11:00-18:00",,
Jefferson Pointe,977,4120 West Jefferson Blvd,,Fort Wayne,IN,46804,US,(260) 459-2328,-85.1957571,41.0721275,"10:00-21:00, 10:00-21:00, 10:00-21:00, 10:00-21:00, 10:00-21:00, 10:00-21:00, 12:00-17:00",,
Lower Manhattan,683,2 Broadway,,New York,NY,10004,US,(212) 809-1435,-74.0130866,40.7045399,"08:00-20:00, 08:00-20:00, 08:00-20:00, 08:00-20:00, 08:00-20:00, 11:00-18:00, 00:01-00:02",,
Brooklyn Heights,1446,125 Montague Street,,Brooklyn,NY,11201,US,(718) 643-6585,-73.9944324,40.6950335,"09:00-20:00, 09:00-20:00, 09:00-20:00, 09:00-20:00, 09:00-20:00, 09:00-20:00, 10:00-19:00",,
NOHO,748,770 Broadway,,New York,NY,10003,US,(646) 602-1582,-73.9915217,40.7306008,"10:00-21:00, 10:00-21:00, 10:00-21:00, 10:00-21:00, 10:00-21:00, 10:00-21:00, 11:00-19:00",,
LOFT 4514 Lou & Grey Flat Iron,4514,138 Fifth Ave,,New York,NY,10011,US,(212) 620-0531,-73.9918489,40.7390712,"10:00-21:00, 10:00-21:00, 10:00-21:00, 10:00-21:00, 10:00-21:00, 10:00-21:00, 11:00-19:00",,
Newport Centre,1863,30 Mall Drive West,,Jersey City,NJ,07310,US,(201) 793-4242,-74.0384239,40.7270588,"10:00-21:30, 10:00-21:30, 10:00-21:30, 10:00-21:30, 10:00-21:30, 10:00-21:30, 11:00-18:00",,
Flatiron,1787,156 Fifth Avenue,,New York,NY,10010,US,(212) 675-7457,-73.9910549,40.7399443,"10:00-21:00, 10:00-21:00, 10:00-21:00, 10:00-21:00, 10:00-21:00, 10:00-21:00, 11:00-19:00",,
42nd and Lexington,1819,150 East 42nd Street,,New York,NY,10017,US,(212) 599-3140,-73.975455,40.7509156,"08:00-21:00, 08:00-21:00, 08:00-21:00, 08:00-21:00, 08:00-21:00, 10:00-19:00, 11:00-18:00",,
Times Square,1614,1459 Broadway,,NEW YORK,NY,10036,US,(212) 704-4195,-73.9869218,40.7557915,"08:00-22:00, 08:00-22:00, 08:00-22:00, 08:00-22:00, 08:00-22:00, 09:00-22:00, 10:00-22:00",,
Avenue of the Americas,1775,1230 Ave of the Americas,,New York,NY,10020,US,(212)757-4408,-73.9808028,40.7588411,"08:00-21:00, 08:00-21:00, 08:00-21:00, 08:00-21:00, 08:00-21:00, 09:00-21:00, 10:00-20:00",,
Upper West Side,1747,2015-17 Broadway,,New York,NY,10023,US,(212) 873-7344,-73.9825559,40.7762651,"10:00-20:00, 10:00-20:00, 10:00-20:00, 10:00-20:00, 10:00-20:00, 10:00-20:00, 11:00-19:00",,
84th & 3rd,812,1492 Third Avenue,,New York,NY,10028,US,(212) 472-7281,-73.9548575,40.777616,"10:00-21:00, 10:00-21:00, 10:00-21:00, 10:00-21:00, 10:00-21:00, 10:00-21:00, 11:00-19:00",,
Columbus Avenue,1892,795 Columbus Avenue,,New York,NY,10025,US,(212)678-4913,-73.965964,40.7943209,"10:00-21:00, 10:00-21:00, 10:00-21:00, 10:00-21:00, 10:00-21:00, 10:00-21:00, 11:00-18:00",,
Cityplace at Promenade,1304,31 City Place,,Edgewater,NJ,07020,US,(201) 941-9592,-73.989462,40.8061621,"10:00-21:00, 10:00-21:00, 10:00-21:00, 10:00-21:00, 10:00-21:00, 10:00-21:00, 00:01-00:02",,
Queens,866,70-31 Austin Street,,Forest Hills,NY,11375,US,(718) 275-6873,-73.8459831,40.7207672,"10:00-20:00, 10:00-20:00, 10:00-20:00, 10:00-20:00, 10:00-20:00, 10:00-20:00, 11:00-19:00",,
LOS  2906 Mills at Jersey Gard,2906,651 Kapkowski Rd,,Elizabeth,NJ,07201,US,(908) 355-2391,-74.1729273,40.6606775,"09:00-22:00, 10:00-21:00, 10:00-21:00, 10:00-21:00, 10:00-21:00, 10:00-21:00, 11:00-19:00",,
Staten Island Mall,1425,2655 Richmond Ave,,Staten Island,NY,10314,US,(718) 477-0798,-74.1659155,40.582418,"10:00-21:00, 10:00-21:00, 10:00-21:00, 10:00-21:00, 10:00-21:00, 10:00-21:00, 11:00-18:00",,
Bay Terrace,756,2344 Bell Boulevard,,Bayside,NY,11360,US,(718) 423-2755,-73.7757069,40.7806419,"10:00-20:00, 10:00-20:00, 10:00-20:00, 10:00-20:00, 10:00-20:00, 10:00-20:00, 11:00-18:00",,
LOFT 1915 Garden State Plaza T,1915,1 Garden State Plaza,,Paramus,NJ,07652,US,201-845-8810,-74.075323,40.914763,"10:00-21:30, 10:00-21:30, 10:00-21:30, 10:00-21:30, 10:00-21:30, 10:00-21:30, 00:01-00:02",,
Paramus Park Mall,804,700 Paramus Park,,Paramus,NJ,07652,US,(201) 225-1004,-74.0688694,40.9566399,"10:00-21:30, 10:00-21:30, 10:00-21:30, 10:00-21:30, 10:00-21:30, 10:00-21:30, 00:01-00:02",,
LOFT 1913 Willowbrook Mall,1913,1400 Willowbrook Mall,,Wayne,NJ,07470,US,973-812-0823,-74.2615039,40.8900807,"10:00-21:00, 10:00-21:00, 10:00-21:00, 10:00-21:00, 10:00-21:00, 10:00-21:00, 11:00-19:00",,
The Mall at Shorthills,1794,1200 Morris Turnpike,,Short Hills,NJ,07078,US,(973)218-1203,-74.3634129,40.7399621,"10:00-21:00, 10:00-21:00, 10:00-21:00, 10:00-21:00, 10:00-21:00, 10:00-20:00, 10:00-18:00",,
Woodbridge Center,754,250 Woodbridge Center Dr,,Woodbridge,NJ,07095,US,(732) 634-5455,-74.2997508,40.5562081,"10:00-21:30, 10:00-21:30, 10:00-21:30, 10:00-21:30, 10:00-21:30, 10:00-21:30, 11:00-19:00",,
LOS  3113 Livingston Mall,3113,112 EISENHOWER PARKWAY,,LIVINGSTON,NJ,07039,US,973-994-0801,-74.3560065,40.7777281,"10:00-21:00, 10:00-21:00, 10:00-21:00, 10:00-21:00, 10:00-21:00, 10:00-21:00, 10:00-18:00",,
LOFT 1907 Ridge Hill,1907,194 Market Street,,Yonkers,NY,10710,US,(914) 968-7646,-73.8557303,40.9631135,"10:00-21:30, 10:00-21:30, 10:00-21:30, 10:00-21:30, 10:00-21:30, 10:00-21:30, 11:00-19:00",,
The Sands Shopping Center,960,3563 Long Beach Rd,,Oceanside,NY,11572,US,(516) 766-6086,-73.6380754,40.6235143,"10:00-20:00, 10:00-20:00, 10:00-20:00, 10:00-20:00, 10:00-20:00, 10:00-20:00, 11:00-18:00",,
Roosevelt Field Mall,1780,630 Old Country Road,,Garden City,NY,11530,US,(516)741-0749,-73.6138821,40.7378609,"10:00-21:30, 10:00-21:30, 10:00-21:30, 10:00-21:30, 10:00-21:30, 10:00-21:30, 11:00-19:00",,
Eastchester Shopping Center,1472,703 White Plains Road,,Scarsdale,NY,10583,US,(914) 472-0361,-73.8068744,40.9708279,"10:00-19:00, 10:00-19:00, 10:00-19:00, 10:00-20:00, 10:00-19:00, 10:00-19:00, 11:00-18:00",,
The Westchester,1771,125 Westchester Ave,,White Plains,NY,10601,US,(914) 949-3675,-73.7585505,41.0315151,"10:00-21:00, 10:00-21:00, 10:00-21:00, 10:00-21:00, 10:00-21:00, 10:00-21:00, 11:00-18:00",,
The Grove West,1709,540A Broad Street,,Shrewsbury,NJ,07702,US,(732) 933-8723,-74.0639062,40.3332723,"10:00-20:00, 10:00-20:00, 10:00-20:00, 10:00-20:00, 10:00-20:00, 10:00-18:00, 11:00-17:00",,
Shops at Nanuet,1813,1501 Fashion Avenue,,Nanuet,NY,10954,US,(845)624-0980,-74.0158892,41.0964034,"10:00-21:00, 10:00-21:00, 10:00-21:00, 10:00-21:00, 10:00-21:00, 10:00-21:00, 11:00-19:00",,
Woodbury Plaza,1340,417A South Oyster Bay Road,,Plainview,NY,11803,US,(516) 942-0187,-73.5015899,40.7824185,"10:00-20:00, 10:00-20:00, 10:00-20:00, 10:00-20:00, 10:00-20:00, 10:00-20:00, 11:00-18:00",,
The Shoppes at Union Hill,1301,3056 New Jersey 10,,DENVILLE,NJ,07834,US,(973) 537-9021,-74.505415,40.8657179,"10:00-20:00, 10:00-20:00, 10:00-20:00, 10:00-20:00, 10:00-20:00, 10:00-20:00, 11:00-18:00",,
The Shoppes at Old Bridge,1569,601 Texas Rd,,Old Bridge,NJ,08857,US,(732) 972-0464,-74.3026181,40.3662368,"10:00-20:00, 10:00-20:00, 10:00-20:00, 10:00-20:00, 10:00-20:00, 10:00-19:00, 11:00-18:00",,
The Shoppes at N Brunswick,1634,519 Shoppes Blvd,,North Brunswick,NJ,08902,US,(732) 227-1750,-74.4584059,40.4607331,"10:00-21:00, 10:00-21:00, 10:00-21:00, 10:00-21:00, 10:00-21:00, 10:00-21:00, 11:00-18:00",,
Walt Whitman Mall,1741,260-1 Route 110,,HUNTINGTON STATION,NY,11746,US,(631) 423-4443,-73.4108882,40.8308342,"10:00-21:00, 10:00-21:00, 10:00-21:00, 10:00-21:00, 10:00-21:30, 10:00-21:30, 11:00-19:00",,
Main Street,1310,263-265 Main Street,,Huntington,NY,11743,US,(631) 367-0125,-73.426627,40.871407,"10:00-19:00, 10:00-19:00, 10:00-19:00, 10:00-19:00, 10:00-19:00, 10:00-19:00, 11:00-18:00",,
LOFT 1920 Bridgewater Commons,1920,620 Commons Way,,Bridgewater,NJ,08807,US,908-722-1098,-74.6149453,40.5826132,"10:00-21:00, 10:00-21:00, 10:00-21:00, 10:00-21:00, 10:00-21:00, 10:00-21:00, 11:00-18:00",,
Stamford Town Center,1540,100 Greyrock Place,,Stamford,CT,06901,US,(203) 406-9544,-73.5371438,41.0530774,"10:00-21:00, 10:00-21:00, 10:00-21:00, 10:00-21:00, 10:00-21:00, 10:00-21:00, 11:00-18:00",,
LOS  2915 Jersey Shore LOS,2915,One Premium Outlets Blvd,,Tinton Falls,NJ,07753,US,(732) 493-2396,-74.094905,40.2224754,"10:00-21:00, 10:00-21:00, 10:00-21:00, 10:00-21:00, 10:00-21:00, 10:00-21:00, 10:00-19:00",,
Great South Bay,747,855 West Montauk Highway,,West Babylon,NY,11704,US,(631) 422-6020,-73.3493843,40.6849048,"10:00-20:00, 10:00-20:00, 10:00-20:00, 10:00-20:00, 10:00-20:00, 10:00-20:00, 11:00-18:00",,
LOS  3023 Deer Park Outlets,3023,1454 The Arches Circle,,Deer Park,NY,11729,US,(631)586-0193,-73.305368,40.7646382,"09:00-21:00, 09:00-21:00, 09:00-21:00, 09:00-21:00, 09:00-21:00, 09:00-21:00, 10:00-20:00",,
Mayfair Shopping Center,879,170B East Jericho Turnpike,,COMMACK,NY,11725,US,(631) 864-3400,-73.2728151,40.8434348,"10:00-20:00, 10:00-20:00, 10:00-20:00, 10:00-20:00, 10:00-20:00, 10:00-19:00, 11:00-18:00",,
Sea Girt,1428,2157 Highway 35,,Sea Girt,NJ,08750,US,(732) 974-7983,-74.063082,40.138544,"10:00-20:00, 10:00-20:00, 10:00-20:00, 10:00-20:00, 10:00-20:00, 10:00-18:00, 11:00-17:00",,
LOS  2991 Woodbury Commons LOS,2991,498 Red Apple Court,,Central Valley,NY,10917,US,(845)928-9152,-74.1250602,41.3168987,"09:00-21:00, 09:00-21:00, 09:00-21:00, 09:00-21:00, 09:00-21:00, 09:00-21:00, 09:00-21:00",,
Jefferson Valley Mall,1370,650 Lee Blvd,,Yorktown Heights,NY,10598,US,(914) 245-8701,-73.8076819,41.3285755,"10:00-21:30, 10:00-21:30, 10:00-21:30, 10:00-21:30, 10:00-21:30, 10:00-21:30, 11:00-18:00",,
LOS  2958 Jackson LOS,2958,537 Monmouth Rd,,Jackson,NJ,08527,US,(732) 833-4515,-74.4174029,40.1616374,"10:00-21:00, 10:00-21:00, 10:00-21:00, 10:00-21:00, 10:00-21:00, 10:00-21:00, 10:00-19:00",,
Westport,1477,17 Main Street,,Westport,CT,06880,US,(203) 227-0323,-73.3616615,41.1416156,"10:00-18:00, 10:00-18:00, 10:00-18:00, 10:00-19:00, 10:00-18:00, 10:00-18:00, 11:00-17:00",,
The Shoppes at Flemington,1692,100 Reaville Avenue,,Flemington,NJ,08822,US,(908) 284-1249,-74.8516106,40.5001092,"10:00-20:00, 10:00-20:00, 10:00-20:00, 10:00-20:00, 10:00-20:00, 10:00-20:00, 11:00-17:00",,
Smith Haven Mall,1603,644 Smith Haven Mall,,Lake Grove,NY,11755,US,(631) 863-1349,-73.1291381,40.8630539,"10:00-21:30, 10:00-21:30, 10:00-21:30, 10:00-21:30, 10:00-21:30, 10:00-21:30, 11:00-19:00",,
Stony Brook Village,1452,79 & 81 Main Street,,Stony Brook,NY,11790,US,(631) 689-8030,-73.146304,40.91635,"10:00-18:00, 10:00-18:00, 10:00-18:00, 10:00-18:00, 10:00-18:00, 10:00-18:00, 11:00-17:00",,
Lou&Grey Santana Row,4505,334 Santana Row,,San Jose,CA,95128,US,(408)260-9124,-121.947451,37.321848,"10:00-21:00, 10:00-21:00, 10:00-21:00, 10:00-21:00, 10:00-21:00, 10:00-21:00, 11:00-18:00",,
Santana Row,1365,377 Santana Row,,San Jose,CA,95128,US,(408) 246-2684,-121.9483389,37.3199011,"10:00-21:00, 10:00-21:00, 10:00-21:00, 10:00-21:00, 10:00-21:00, 10:00-21:00, 11:00-18:00",,
Oakridge Mall,874,925 Blossom Hill Road,,San Jose,CA,95123,US,(408) 227-0628,-121.8624492,37.2515431,"10:00-21:00, 10:00-21:00, 10:00-21:00, 10:00-21:00, 10:00-22:00, 10:00-22:00, 11:00-19:30",,
Stoneridge Mall,1834,2433 Stoneridge Mall Road,,Pleasanton,CA,94588,US,(925)467-1470,-121.9293737,37.695705,"10:00-21:00, 10:00-21:00, 10:00-21:00, 10:00-21:00, 10:00-21:00, 10:00-21:00, 11:00-19:00",,
LOS  3092 San Francisco Outlet,3092,3674 Livermore Outlets Way,,Livermore,CA,94551,US,(925) 373-0181,-121.8425505,37.7006439,"10:00-21:00, 10:00-21:00, 10:00-21:00, 10:00-21:00, 10:00-21:00, 10:00-21:00, 10:00-19:00",,
Gilroy Prem LOS,2946,8375 Arroyo Cir,,GILROY,CA,95020,US,(408) 846-5359,-121.5629745,37.0221891,"10:00-21:00, 10:00-21:00, 10:00-21:00, 10:00-21:00, 10:00-21:00, 10:00-21:00, 10:00-20:00",,
LOS  3079 Marina Square,3079,1233 Marina Blvd.,,San Leandro,CA,94577,US,(510)895-9260,-122.1630576,37.7103206,"10:00-21:00, 10:00-21:00, 10:00-21:00, 10:00-21:00, 10:00-21:00, 10:00-21:00, 11:00-18:00",,
LOFT 4511 Lou & Grey Broadway,4511,1266 Broadway Plaza,,Walnut Creek,CA,94596,US,(925) 937-1089,-122.0579852,37.8958998,"10:00-21:00, 10:00-21:00, 10:00-21:00, 10:00-21:00, 10:00-21:00, 10:00-19:00, 11:00-18:00",,
Plaza Escuela,674,1251 South Main Street,,Walnut Creek,CA,94596,US,(925) 934-9923,-122.0602336,37.8954838,"10:00-21:00, 10:00-21:00, 10:00-21:00, 10:00-21:00, 10:00-21:00, 10:00-19:00, 11:00-18:00",,
Embarcadero Center,1789,4 Embarcadero Center,,San Francisco,CA,94111,US,(415)956-9895,-122.4000032,37.7959362,"08:00-19:00, 08:00-19:00, 08:00-19:00, 08:00-19:00, 08:00-19:00, 10:00-18:00, 12:00-18:00",,
Stone Creek Village,1667,5757 Pacific Avenue,,Stockton,CA,95207,US,(209) 952-0262,-121.3189987,38.0016048,"10:00-20:00, 10:00-20:00, 10:00-20:00, 10:00-20:00, 10:00-20:00, 10:00-20:00, 11:00-18:00",,
Vintage Oaks at Novato,794,208 Vintage Way,,Novato,CA,94945,US,(415) 892-7597,-122.552413,38.088562,"10:00-21:00, 10:00-21:00, 10:00-21:00, 10:00-21:00, 10:00-21:00, 10:00-19:00, 11:00-18:00",,
LOS  2956 Vacaville LOS,2956,121 NUT TREE RD,,VACAVILLE,CA,95687,US,(707)446-8468,-121.9586616,38.3659195,"10:00-21:00, 10:00-21:00, 10:00-21:00, 10:00-21:00, 10:00-21:00, 10:00-21:00, 10:00-19:00",,
Arden Fair,1584,1689 Arden Way,,Sacramento,CA,95815,US,(916) 646-3166,-121.4278631,38.601511,"10:00-21:00, 10:00-21:00, 10:00-21:00, 10:00-21:00, 10:00-21:00, 10:00-21:00, 11:00-19:00",,
LOS  2993 Folsom Premium LOS,2993,13000 Folsom Blvd,,Folsom,CA,95630,US,(916) 351-9143,-121.1885636,38.6441993,"10:00-21:00, 10:00-21:00, 10:00-21:00, 10:00-21:00, 10:00-21:00, 10:00-21:00, 10:00-19:00",,
Creekside Town Center,984,1208 Galleria Blvd,,Roseville,CA,95678,US,(916) 786-6670,-121.2630227,38.7730091,"10:00-21:00, 10:00-21:00, 10:00-21:00, 10:00-21:00, 10:00-21:00, 10:00-20:00, 11:00-18:00",,
The Shops at River Park,1685,7705 Via del Rio,,Fresno,CA,93720,US,(559) 436-1226,-119.7890383,36.8500261,"10:00-21:00, 10:00-21:00, 10:00-21:00, 10:00-21:00, 10:00-21:00, 10:00-21:00, 11:00-18:00",,
Walnut Street,1829,1729 Walnut Street at 18th,,Philadelphia,PA,19103,US,(267) 256-0690,-75.1702525,39.9503441,"10:00-20:00, 10:00-20:00, 10:00-20:00, 10:00-20:00, 10:00-20:00, 10:00-20:00, 11:00-18:00",,
LOFT 1912 Sansom Commons,1912,120 South 36th Street,,Philadelphia,PA,19104,US,215-222-0655,-75.1946384,39.9538542,"10:00-20:00, 10:00-20:00, 10:00-20:00, 10:00-20:00, 10:00-20:00, 10:00-20:00, 12:00-18:00",,
Cherry Hill Mall,1773,839 Cherry Hill Mall,,Cherry Hill,NJ,08002,US,(856) 488-5682,-75.024821,39.940599,"10:00-21:30, 10:00-21:30, 10:00-21:30, 10:00-21:30, 10:00-21:30, 10:00-21:30, 11:00-18:00",,
Deptford Mall,817,1750 Deptford Center Road,,Deptford,NJ,08096,US,(856) 251-0085,-75.0983168,39.8315312,"10:00-21:30, 10:00-21:30, 10:00-21:30, 10:00-21:30, 10:00-21:30, 10:00-21:30, 11:00-18:00",,
Springfield Mall,822,1250 Baltimore Pike,,Springfield,PA,19064,US,(610) 543-1993,-75.3519958,39.9150986,"10:00-21:00, 10:00-21:00, 10:00-21:00, 10:00-21:00, 10:00-21:00, 10:00-21:00, 11:00-18:00",,
Plymouth MeetingMall,1644,504 West Germantown Pike,,Plymouth Meeting,PA,19462,US,(610) 834-6301,-75.2820717,40.1160924,"10:00-21:00, 10:00-21:00, 10:00-21:00, 10:00-21:00, 10:00-21:00, 10:00-21:00, 11:00-18:00",,
The Promenade at Sagemore,1765,500 Route 73 South,,Marlton,NJ,08053,US,(856) 988-1083,-74.9317018,39.9001412,"10:00-21:00, 10:00-21:00, 10:00-21:00, 10:00-21:00, 10:00-21:00, 10:00-21:00, 11:00-18:00",,
LOS  3093 Gloucester Prem Outl,3093,100 Premium Outlets Drive,,Blackwood,NJ,08012,US,(856) 221-8713,-75.0525723,39.784791,"10:00-21:00, 10:00-21:00, 10:00-21:00, 10:00-21:00, 10:00-21:00, 10:00-21:00, 10:00-19:00",,
LOFT 1918 Willow Grove Park,1918,2500 Moreland Rd.,,Willow Grove,PA,19090,US,215-657-3511,-75.1201341,40.1431285,"10:00-21:00, 10:00-21:00, 10:00-21:00, 10:00-21:00, 10:00-21:00, 10:00-21:00, 11:00-18:00",,
Cambridge Crossings,982,4080 Dearborne Circle,,Mount Laurel,NJ,08054,US,(856) 866-0700,-74.9013048,39.9705045,"10:00-20:00, 10:00-20:00, 10:00-20:00, 10:00-20:00, 10:00-20:00, 10:00-19:00, 11:00-17:00",,
LOS  3005 Philadelphia Mills L,3005,1677 Franklin Mills Circle,,Philadelphia,PA,19154,US,(215) 501-0792,-74.9619023,40.0927936,"10:00-21:00, 10:00-21:00, 10:00-21:00, 10:00-21:00, 10:00-21:00, 10:00-21:00, 11:00-19:00",,
Plaza at King Prussia,1300,160 North Gulph Rd,,King Of Prussia,PA,19406,US,(610) 337-1550,-75.3897629,40.0879055,"10:00-21:00, 10:00-21:00, 10:00-21:00, 10:00-21:00, 10:00-21:00, 10:00-21:00, 11:00-18:00",,
Shoppes at Cross Keys,1691,611 Berlin Cross Keys Road,,Sicklerville,NJ,08081,US,(856) 262-7894,-75.0025503,39.7376478,"10:00-20:00, 10:00-20:00, 10:00-20:00, 10:00-20:00, 10:00-20:00, 10:00-20:00, 11:00-18:00",,
Paoli Shopping Center,1466,82 East Lancaster Avenue,,Paoli,PA,19301,US,(610) 993-0435,-75.4793663,40.041541,"10:00-20:00, 10:00-20:00, 10:00-20:00, 10:00-20:00, 10:00-20:00, 10:00-20:00, 11:00-18:00",,
Valley Square,1517,1560 Main Street,,Warrington,PA,18976,US,(215) 343-6030,-75.1364458,40.2326107,"10:00-21:00, 10:00-21:00, 10:00-21:00, 10:00-21:00, 10:00-21:00, 10:00-21:00, 11:00-18:00",,
Montgomery Mall,873,103 Montgomery Mall,,North Wales,PA,19454,US,(215) 362-1920,-75.2422434,40.2334811,"10:00-21:00, 10:00-21:00, 10:00-21:00, 10:00-21:00, 10:00-21:00, 10:00-21:00, 11:00-18:00",,
Brinton Lake Shoppes,944,929 Baltimore Pike,,Glen Mills,PA,19342,US,(484) 840-1612,-75.5327084,39.8858962,"10:00-20:00, 10:00-20:00, 10:00-20:00, 10:00-20:00, 10:00-20:00, 10:00-20:00, 11:00-18:00",,
Oxford Valley Mall,1498,2300 East Lincoln Highway,,Langhorne,PA,19047,US,(215) 702-1395,-74.8810625,40.1788442,"10:00-21:00, 10:00-21:00, 10:00-21:00, 10:00-21:00, 10:00-21:00, 10:00-21:00, 11:00-18:00",,
Concord Mall,865,4737 Concord Pike,,Wilmington,DE,19803,US,(302) 478-9332,-75.5439085,39.8228573,"10:00-21:00, 10:00-21:00, 10:00-21:00, 10:00-21:00, 10:00-21:00, 10:00-21:00, 11:00-18:00",,
Providence Town Center,1869,141 Market Street,,Collegeville,PA,19426,US,(610)489-3463,-75.4791392,40.1666934,"10:00-21:00, 10:00-21:00, 10:00-21:00, 10:00-21:00, 10:00-21:00, 10:00-21:00, 11:00-18:00",,
Exton Square Mall,808,336 Exton Square Parkway,,Exton,PA,19341,US,(610) 524-1403,-75.6251585,40.0331273,"10:00-21:00, 10:00-21:00, 10:00-21:00, 10:00-21:00, 10:00-21:00, 10:00-21:00, 11:00-18:00",,
LOS  2909 Phili Prem LOS,2909,18 Lightcap Rd,,Pottstown,PA,19464,US,(610) 705-0750,-75.5701092,40.2359932,"10:00-21:00, 10:00-21:00, 10:00-21:00, 10:00-21:00, 10:00-21:00, 10:00-21:00, 10:00-19:00",,
Quaker Bridge Mall,1809,3320 US Highway 1,,Lawrenceville,NJ,08648,US,(609)716-8394,-74.7352263,40.250675,"09:30-22:00, 09:30-22:00, 09:30-22:00, 09:30-22:00, 09:30-22:00, 09:00-23:00, 10:00-20:00",,
The Shoppes at Hamilton,1600,549 Route 130,,TRENTON,NJ,08691,US,(609) 585-3082,-74.6551613,40.1856351,"10:00-20:00, 10:00-20:00, 10:00-20:00, 10:00-20:00, 10:00-20:00, 10:00-19:00, 11:00-18:00",,
Christiana Mall,1766,264 Christiana Mall Road,,Newark,DE,19702,US,(302) 368-3050,-75.65163,39.6807889,"10:00-21:00, 10:00-21:00, 10:00-21:00, 10:00-21:00, 10:00-21:00, 10:00-21:00, 11:00-18:00",,
Saucon Valley,1729,2845 Center Valley Parkway,,Center Valley,PA,18034,US,(610) 791-0931,-75.412316,40.5596861,"10:00-21:00, 10:00-21:00, 10:00-21:00, 10:00-21:00, 10:00-21:00, 10:00-21:00, 11:00-18:00",,
Lehigh Valley Mall,1581,829 Lehigh Lifestyle Center,,Whitehall,PA,18052,US,(610) 266-3525,-75.480473,40.630221,"10:00-21:00, 10:00-21:00, 10:00-21:00, 10:00-21:00, 10:00-21:00, 10:00-21:00, 11:00-18:00",,
Shoppes at Wyomissing,1633,766 Woodland Road,,Wyomissing,PA,19610,US,(610) 378-8125,-75.9647453,40.3498092,"10:00-21:00, 10:00-21:00, 10:00-21:00, 10:00-21:00, 10:00-21:00, 10:00-21:00, 11:00-18:00",,
LOS  2905 Rockvale Outlets LOS,2905,35 South Willowdale Dr,,Lancaster,PA,17602,US,(717) 299-3919,-76.1989279,40.023193,"09:30-21:00, 09:30-21:00, 09:30-21:00, 09:30-21:00, 09:30-21:00, 09:30-21:00, 11:00-17:00",,
LOS  3013 Atlantic City LOS,3013,116 N Michigan Avenue,,Atlantic City,NJ,08401,US,(609) 348-0131,-74.4371582,39.361435,"10:00-20:00, 10:00-20:00, 10:00-20:00, 10:00-20:00, 10:00-20:00, 10:00-20:00, 10:00-19:00",,
Park City Center,811,519 Park City Center,,Lancaster,PA,17601,US,(717) 392-3743,-76.3398568,40.0643697,"10:00-21:00, 10:00-21:00, 10:00-21:00, 10:00-21:00, 10:00-21:00, 10:00-21:00, 11:00-18:00",,
Boulevard at Box Hill,1885,3473 Merchant Boulevard,,Abingdon,MD,21009,US,(443)512-8247,-76.3064563,39.4673939,"10:00-21:00, 10:00-21:00, 10:00-21:00, 10:00-21:00, 10:00-21:00, 10:00-21:00, 12:00-18:00",,
LOS  3029 The Crossings LOS,3029,1000 Premium Outlets Drive,,Tannersville,PA,18372,US,(570)620-3094,-75.3128041,41.048399,"10:00-21:00, 10:00-21:00, 10:00-21:00, 10:00-21:00, 10:00-21:00, 10:00-21:00, 10:00-20:00",,
Avenue at White Marsh,821,8153 Honeygo Blvd,,Baltimore,MD,21236,US,(410) 931-0433,-76.4631437,39.3712768,"10:00-21:00, 10:00-21:00, 10:00-21:00, 10:00-21:00, 10:00-21:00, 10:00-21:00, 11:00-18:00",,
LOS  3099 Citadel Outlets,3099,100 Citadel Drive,,Commerce,CA,90040,US,(323) 837-9803,-118.1516239,34.006156,"09:30-21:30, 09:30-21:30, 09:30-21:30, 09:30-21:30, 09:30-21:30, 09:30-21:30, 09:30-21:30",,
Glendale Galleria,1582,100 W. Broadway,,Glendale,CA,91210,US,(818) 546-1565,-118.2561731,34.1460878,"10:00-21:00, 10:00-21:00, 10:00-21:00, 10:00-21:00, 10:00-21:00, 10:00-21:00, 11:00-19:00",,
Lou&Grey W. Colorado,4507,110 W. Colorado Boulevard,,Pasadena,CA,91105,US,(626)584-0437,-118.1528413,34.1455037,"10:00-20:00, 10:00-20:00, 10:00-20:00, 10:00-20:00, 10:00-20:00, 10:00-20:00, 11:00-19:00",,
Waterside At MDR,1777,4730 Admiralty Way,,Marina Del Rey,CA,90292,US,310-827-0607,-118.4372954,33.9784605,"10:00-20:00, 10:00-20:00, 10:00-20:00, 10:00-20:00, 10:00-20:00, 10:00-20:00, 11:00-18:00",,
Santa Anita,1749,400 South Baldwin Ave,,Arcadia,CA,91007,US,(626) 821-4425,-118.0509968,34.1349204,"10:00-21:00, 10:00-21:00, 10:00-21:00, 10:00-21:00, 10:00-21:00, 10:00-21:00, 11:00-19:00",,
LOFT 4508 L&G The  Point,4508,830 South Sepulveda,,El Segundo,CA,90245,US,(310) 322-2176,-118.3946704,33.9031583,"10:00-21:00, 10:00-21:00, 10:00-21:00, 10:00-21:00, 10:00-21:00, 10:00-18:00, 12:00-17:00",,
Manhattan Village,695,3200 Sepulveda Blvd,,Manhattan Beach,CA,90266,US,(310) 939-0122,-118.3942198,33.8952638,"10:00-21:00, 10:00-21:00, 10:00-21:00, 10:00-21:00, 10:00-21:00, 10:00-20:00, 11:00-18:00",,
Los Cerritos,1816,239 Los Cerritos Center,,Cerritos,CA,90703,US,(562) 924 2792,-118.0948085,33.8629026,"10:00-21:00, 10:00-21:00, 10:00-21:00, 10:00-21:00, 10:00-21:00, 10:00-20:00, 11:00-19:00",,
Del Amo Fashion Center,1595,3525 Carson Street,,Torrance,CA,90503,US,(310) 214-2134,-118.34859,33.8268211,"10:00-21:00, 10:00-21:00, 10:00-21:00, 10:00-21:00, 10:00-21:00, 10:00-20:00, 11:00-19:00",,
Promenade Peninsula,1610,550 Deep Valley Drive,,Rolling Hills Estate,CA,90274,US,(310) 377-4523,-118.3733576,33.7721263,"10:00-19:00, 10:00-19:00, 10:00-19:00, 10:00-19:00, 10:00-19:00, 10:00-19:00, 11:00-18:00",,
Shops at Rossmoor,1698,12211 Seal Beach Blvd,,Seal Beach,CA,90740,US,(562) 598-4513,-118.0733617,33.7851784,"10:00-20:00, 10:00-20:00, 10:00-20:00, 10:00-20:00, 10:00-20:00, 10:00-19:00, 12:00-18:00",,
Downtown,746,210 West Birch Street,,Brea,CA,92821,US,(714) 672-0231,-117.9008,33.918593,"10:00-20:00, 10:00-20:00, 10:00-20:00, 10:00-20:00, 10:00-20:00, 10:00-20:00, 11:00-18:00",,
Northridge Fashion Center,777,9301 Tampa Avenue,,Northridge,CA,91324,US,(818) 341-1970,-118.5562363,34.2385732,"10:00-21:00, 10:00-21:00, 10:00-21:00, 10:00-21:00, 10:00-21:00, 10:00-21:00, 11:00-19:00",,
LOS  3017 Outlets @ Orange LOS,3017,20 City Blvd. West,,Orange,CA,92868,US,(714)935-0180,-117.8922272,33.7828653,"10:00-21:00, 10:00-21:00, 10:00-21:00, 10:00-21:00, 10:00-22:00, 10:00-22:00, 10:00-20:00",,
Five Points Plaza,1554,18577 Main Street,,Huntington Beach,CA,92648,US,(714) 847-9828,-117.9917881,33.6935003,"10:00-20:00, 10:00-20:00, 10:00-20:00, 10:00-20:00, 10:00-20:00, 10:00-19:00, 11:00-18:00",,
Shoppes at Chino Hills,1666,13850 City Center Drive,,Chino Hills,CA,91709,US,(909) 591-6043,-117.7307086,34.0016017,"10:00-20:00, 10:00-20:00, 10:00-20:00, 10:00-20:00, 10:00-21:00, 10:00-21:00, 11:00-19:00",,
Valencia Town Center,1421,24201 Valencia Boulevard,,Valencia,CA,91355,US,(661) 288-0363,-118.5572612,34.4156215,"10:00-21:00, 10:00-21:00, 10:00-21:00, 10:00-21:00, 10:00-21:00, 10:00-21:00, 11:00-18:00",,
Tustin,771,3005 El Camino Real,,Tustin,CA,92782,US,(714) 368-0771,-117.7925275,33.7240204,"10:00-21:00, 10:00-21:00, 10:00-21:00, 10:00-21:00, 10:00-21:00, 10:00-19:00, 11:00-18:00",,
Fashion Island,1826,401 Newport Center Drive,,Newport Beach,CA,92660,US,(949) 640-9500,-117.874682,33.61472,"10:00-21:00, 10:00-21:00, 10:00-21:00, 10:00-21:00, 10:00-21:00, 10:00-19:00, 11:00-18:00",,
The Oaks,1806,350 West Hillcrest Drive,,Thousand Oaks,CA,91360,US,(805)379-1878,-118.8856931,34.1818406,"10:00-21:00, 10:00-21:00, 10:00-21:00, 10:00-21:00, 10:00-21:00, 10:00-21:00, 11:00-19:00",,
LOS  3006 ONTARIO MILLS LOS,3006,One Mills Circle,,Ontario,CA,91764,US,(909) 980-0876,-117.5517081,34.0730062,"10:00-21:00, 10:00-21:00, 10:00-21:00, 10:00-21:00, 10:00-21:00, 10:00-21:00, 11:00-20:00",,
Irvine Spectrum Center,1501,93 Fortune Drive,,Irvine,CA,92618,US,(949) 788-0847,-117.74231,33.649203,"10:00-21:00, 10:00-21:00, 10:00-21:00, 10:00-21:00, 10:00-21:30, 10:00-21:30, 11:00-20:00",,
Victoria Gardens,1390,12456 South Main Street,,Rancho Cucamonga,CA,91739,US,(909) 899-1114,-117.5340622,34.110822,"10:00-21:00, 10:00-21:00, 10:00-21:00, 10:00-21:00, 10:00-22:00, 10:00-22:00, 11:00-19:00",,
The Shops at Dos Lagos,1492,2795 Cabot Drive,,Corona,CA,92883,US,(951) 277-3224,-117.5072711,33.8131194,"10:00-20:00, 10:00-20:00, 10:00-20:00, 10:00-20:00, 10:00-20:00, 10:00-20:00, 11:00-18:00",,
Galleria at Tyler,824,1299 Tyler Street,,Riverside,CA,92503,US,(951) 689-0984,-117.4565437,33.9081813,"10:00-21:00, 10:00-21:00, 10:00-21:00, 10:00-21:00, 10:00-21:00, 10:00-21:00, 11:00-19:00",,
The Shops at Mission Viejo,1763,555 Shops at Mission Viejo,,Mission Viejo,CA,92691,US,(949) 364-1898,-117.6684315,33.5588349,"10:00-21:00, 10:00-21:00, 10:00-21:00, 10:00-21:00, 10:00-21:00, 10:00-20:00, 11:00-18:00",,
LOS  2918 Camarillo Prem LOS,2918,500 W VENTURA BLVD STE 1510,,CAMARILLO,CA,93010,US,(805) 482-0464,-119.0779131,34.2168627,"10:00-21:00, 10:00-21:00, 10:00-21:00, 10:00-21:00, 10:00-21:00, 10:00-21:00, 10:00-20:00",,
LOFT 1898 Collection at River,1898,600 Town Center Drive,,OXNARD,CA,93036,US,(805)485-3052,-119.1783151,34.2399441,"10:00-21:00, 10:00-21:00, 10:00-21:00, 10:00-21:00, 10:00-21:00, 10:00-21:00, 11:00-18:00",,
LOS  3075 Plaza San Clemente,3075,101 West Avenida Vista Hermosa,,San Clemente,CA,92672,US,(949) 940-0054,-117.6279726,33.4395771,"10:00-20:00, 10:00-20:00, 10:00-20:00, 10:00-20:00, 10:00-20:00, 10:00-20:00, 10:00-20:00",,
The Promenade Mall,690,40820 Winchester Road,,Temecula,CA,92591,US,(951) 719-2982,-117.1541815,33.5248311,"10:00-21:00, 10:00-21:00, 10:00-21:00, 10:00-21:00, 10:00-21:00, 10:00-21:00, 11:00-19:00",,
LOS  3076 Outlets at Tejon,3076,5701 Outlets at Tejon Parkway,,Arvin,CA,93203,US,(661)858-2409,-118.9417375,34.9852585,"10:00-21:00, 10:00-21:00, 10:00-21:00, 10:00-21:00, 10:00-21:00, 10:00-21:00, 10:00-20:00",,
LOS  3032 Desert Hills Premium,3032,48650 Seminole Drive,,Cabazon,CA,92230,US,(951)922-0678,-116.8190684,33.9306504,"10:00-21:00, 10:00-21:00, 10:00-21:00, 10:00-21:00, 10:00-21:00, 10:00-21:00, 10:00-20:00",,
LOS  2979 Outlets at Barstow,2979,2796 TANGER WAY,,BARSTOW,CA,92311,US,(760) 253-5135,-117.0854289,34.8465348,"09:00-20:00, 09:00-20:00, 09:00-20:00, 09:00-20:00, 09:00-20:00, 09:00-20:00, 09:00-20:00",,
Forum at Carlsbad,1432,1923 Calle Barcelona Bldg 3,,Carlsbad,CA,92009,US,(760) 633-2201,-117.2652454,33.0718691,"10:00-21:00, 10:00-21:00, 10:00-21:00, 10:00-21:00, 10:00-21:00, 10:00-21:00, 11:00-18:00",,
North County,1583,200 East Via Rancho Parkway,,Escondido,CA,92025,US,(760) 738-3789,-117.0649122,33.070471,"10:00-21:00, 10:00-21:00, 10:00-21:00, 10:00-21:00, 10:00-21:00, 10:00-21:00, 11:00-19:00",,
Fashion Valley,1798,7007 Friar's Road,,San Diego,CA,92108,US,(619) 293-3001,-117.1698284,32.7681421,"10:00-21:00, 10:00-21:00, 10:00-21:00, 10:00-21:00, 10:00-21:00, 10:00-21:00, 11:00-19:00",,
Gardens on El Paseo,1433,73-585 El Paseo,,Palm Desert,CA,92260,US,(760) 773-4848,-116.381346,33.719554,"10:00-19:00, 10:00-19:00, 10:00-19:00, 10:00-19:00, 10:00-20:00, 10:00-20:00, 10:00-17:00",,
Horton Plaza,1665,120 Horton Plaza,,San Diego,CA,92101,US,(619) 696-9204,-117.1628013,32.7137321,"10:00-20:00, 10:00-20:00, 10:00-20:00, 10:00-20:00, 10:00-20:00, 10:00-20:00, 11:00-18:00",,
Otay Ranch Town Center,1587,2015 Birch Road,,Chula Vista,CA,91915,US,(619) 656-5761,-116.9654569,32.623489,"10:00-21:00, 10:00-21:00, 10:00-21:00, 10:00-21:00, 10:00-21:00, 10:00-21:00, 11:00-18:00",,
LOS  2987 Las Americas LOS,2987,4211 CAMINO DE LA PLAZA,,SAN DIEGO,CA,92173,US,(619)690-1803,-117.042036,32.5438271,"10:00-21:00, 10:00-21:00, 10:00-21:00, 10:00-21:00, 10:00-21:00, 10:00-21:00, 10:00-19:00",,
The Village Arcade,1776,2400 University Blvd,,Houston,TX,77005,US,(713) 523-1218,-95.4174571,29.7155266,"10:00-19:00, 10:00-19:00, 10:00-19:00, 10:00-19:00, 10:00-19:00, 10:00-20:00, 12:00-18:00",,
Uptown Park,886,1141 Uptown Park Blvd,,Houston,TX,77056,US,(713) 888-0419,-95.4569742,29.7553138,"10:00-19:00, 10:00-19:00, 10:00-19:00, 10:00-19:00, 10:00-19:00, 10:00-19:00, 12:00-18:00",,
The Galleria Houston,1307,5135 West Alabama Street,,Houston,TX,77056,US,(713) 850-1801,-95.463447,29.737432,"10:00-21:00, 10:00-21:00, 10:00-21:00, 10:00-21:00, 10:00-21:00, 10:00-21:00, 11:00-19:00",,
Memorial City,654,303 Memorial City,,Houston,TX,77024,US,(713) 467-3135,-95.5397304,29.7810332,"10:00-21:00, 10:00-21:00, 10:00-21:00, 10:00-21:00, 10:00-21:00, 10:00-21:00, 11:00-19:00",,
Champions Forest Plaza,1820,5510 FM 1960 West,,Houston,TX,77069,US,(281)955-9880,-95.5125789,29.9799707,"10:00-19:00, 10:00-19:00, 10:00-19:00, 10:00-19:00, 10:00-19:00, 10:00-19:00, 12:00-18:00",,
Sugarland Town Square,1393,15958 City Walk,,Sugar Land,TX,77479,US,(281) 265-2703,-95.6213524,29.5962465,"10:00-20:00, 10:00-20:00, 10:00-20:00, 10:00-20:00, 10:00-20:00, 10:00-20:00, 12:00-18:00",,
Kingwood Commons,1344,870 Kingwood Drive,,Kingwood,TX,77339,US,(281) 358-4157,-95.2439354,30.0496008,"10:00-20:00, 10:00-20:00, 10:00-20:00, 10:00-20:00, 10:00-20:00, 10:00-20:00, 12:00-18:00",,
La Centerra at Cinco Ranch,1622,23501 Cinco Ranch Blvd,,Katy,TX,77494,US,(281) 371-2540,-95.7762226,29.7428417,"10:00-21:00, 10:00-21:00, 10:00-21:00, 10:00-21:00, 10:00-21:00, 10:00-21:00, 12:00-18:00",,
LOS  2944 Katy Mills LOS,2944,5000 KATY MILLS CIR,,KATY,TX,77494,US,(281) 644-2600,-95.8093358,29.7758308,"10:00-21:00, 10:00-21:00, 10:00-21:00, 10:00-21:00, 10:00-21:00, 10:00-21:00, 11:00-18:00",,
Houston Premium Outlets,2913,29300 Hempstead Road,,CYPRESS,TX,77433,US,(281) 758-3451,-95.7564593,29.997361,"10:00-21:00, 10:00-21:00, 10:00-21:00, 10:00-21:00, 10:00-21:00, 10:00-21:00, 11:00-19:00",,
The Woodlands Mall,1407,1201 Lake Woodland Drive,,The Woodlands,TX,77380,US,(281) 419-8910,-95.4550792,30.1645349,"10:00-21:00, 10:00-21:00, 10:00-21:00, 10:00-21:00, 10:00-21:00, 10:00-21:00, 12:00-18:00",,
LOS  2998 Texas Outlet Center,2998,5885 Gulf Freeway,,Texas City,TX,77591,US,(281) 337-6965,-95.0583635,29.4246973,"09:00-21:00, 09:00-21:00, 09:00-21:00, 09:00-21:00, 09:00-21:00, 09:00-21:00, 10:00-19:00",,
St Johns Town Center,1505,4751 River City Drive,,Jacksonville,FL,32246,US,(904) 564-1926,-81.5249426,30.2563888,"10:00-21:00, 10:00-21:00, 10:00-21:00, 10:00-21:00, 10:00-21:00, 10:00-21:00, 11:00-18:00",,
The Avenues,1718,10300 Southside Blvd,,Jacksonville,FL,32256,US,(904) 519-8766,-81.5537492,30.1860323,"10:00-21:00, 10:00-21:00, 10:00-21:00, 10:00-21:00, 10:00-21:00, 10:00-21:00, 12:00-18:00",,
LOS  2908 St. Aug Prime LOS,2908,490 OUTLET MALL BLVD,,SAINT AUGUSTINE,FL,32084,US,(904) 825-3661,-81.4130874,29.9261246,"10:00-21:00, 10:00-21:00, 10:00-21:00, 10:00-21:00, 10:00-21:00, 10:00-21:00, 10:00-18:00",,
The Oaks Mall,1536,6403 West Newberry Road,,Gainesville,FL,32605,US,(352) 331-1447,-82.4112864,29.6595617,"10:00-21:00, 10:00-21:00, 10:00-21:00, 10:00-21:00, 10:00-21:00, 10:00-21:00, 12:00-18:00",,
The Trails,1306,260 North Nova Road,,Ormond Beach,FL,32174,US,(386) 672-1229,-81.0837823,29.2840134,"10:00-19:00, 10:00-19:00, 10:00-19:00, 10:00-19:00, 10:00-19:00, 10:00-18:00, 12:00-17:00",,
LOS  3100 Daytona Beach,3100,1100 Cornerstone Blvd.,,Daytona Beach,FL,32117,US,(386) 274-2291,-81.0990148,29.2139765,"09:00-21:00, 09:00-21:00, 09:00-21:00, 09:00-21:00, 09:00-21:00, 09:00-21:00, 10:00-19:00",,
Altamonte Mall,1535,451 East Altamonte Drive,,Altamonte Springs,FL,32701,US,(407) 331-1012,-81.377079,28.663915,"10:00-21:00, 10:00-21:00, 10:00-21:00, 10:00-21:00, 10:00-21:00, 10:00-21:00, 12:00-18:00",,
Oviedo Mall,761,1257 Oviedo Mall Blvd,,OVIEDO,FL,32765,US,(407) 977-5643,-81.2337365,28.6650952,"10:00-21:00, 10:00-21:00, 10:00-21:00, 10:00-21:00, 10:00-21:00, 10:00-21:00, 12:00-18:00",,
Winter Park,954,438 North Orlando Avenue,,Winter Park,FL,32789,US,(407) 647-3555,-81.3643112,28.6020814,"10:00-21:00, 10:00-21:00, 10:00-21:00, 10:00-21:00, 10:00-21:00, 10:00-21:00, 11:00-18:00",,
Abercorn Walk,1521,5525 Abercorn Street,,Savannah,GA,31405,US,(912) 355-0112,-81.1120348,32.0243596,"10:00-21:00, 10:00-21:00, 10:00-21:00, 10:00-21:00, 10:00-21:00, 10:00-21:00, 12:00-18:00",,
15 W Broughton Street,1886,15 W Broughton Street,,Savannah,GA,31401,US,(912)234-7941,-81.0926094,32.0788831,"10:00-19:00, 10:00-19:00, 10:00-19:00, 10:00-19:00, 10:00-19:00, 10:00-19:00, 11:00-18:00",,
Waterford Lakes Town,1518,685 North Alafaya Trail,,Orlando,FL,32828,US,(321) 235-0368,-81.2068873,28.5567636,"10:00-21:00, 10:00-21:00, 10:00-21:00, 10:00-21:00, 10:00-21:00, 10:00-21:00, 12:00-18:00",,
Tanger Outlets@Savannah,3077,200 Tanger Outlet Blvd,,Pooler,GA,31322,US,(912)450-0290,-81.2433679,32.1343987,"09:00-21:00, 09:00-21:00, 09:00-21:00, 09:00-21:00, 09:00-21:00, 09:00-21:00, 10:00-19:00",,
Mall at Millenia,1322,4200 Conroy Rd,,Orlando,FL,32839,US,(407) 363-2740,-81.4315497,28.485565,"10:00-21:00, 10:00-21:00, 10:00-21:00, 10:00-21:00, 10:00-21:00, 10:00-21:00, 11:00-19:00",,
LOS  2907 Orlando Prime  LOS,2907,4953 INTERNATIONAL DR,,ORLANDO,FL,32819,US,(407) 345-8071,-81.4518615,28.4746752,"10:00-23:00, 10:00-23:00, 10:00-23:00, 10:00-23:00, 10:00-23:00, 10:00-23:00, 10:00-21:00",,
Lake Buena Vista,3098,15825 Apopka Rd,,Orlando,FL,32821,US,(407) 238-4792,-81.4907757,28.3507527,"09:00-21:00, 10:00-21:00, 10:00-21:00, 09:00-21:00, 10:00-21:00, 10:00-21:00, 10:00-19:00",,
Orlando Prem LOS,2916,15825 Apopka Rd,,ORLANDO,FL,32821,US,(407) 238-4504,-81.4907757,28.3507527,"10:00-23:00, 10:00-23:00, 10:00-23:00, 10:00-23:00, 10:00-23:00, 10:00-23:00, 10:00-21:00",,
LOS  2974 Hilton Head LOS,2974,1414 FORDING ISLAND RD,,BLUFFTON,SC,29910,US,(843) 837-1914,-80.8204632,32.239108,"09:00-21:00, 09:00-21:00, 09:00-21:00, 09:00-21:00, 09:00-21:00, 09:00-21:00, 10:00-19:00",,
Kercheval Place,1706,17014 Kercheval Ave,,Grosse Pointe,MI,48230,US,(313) 640-5581,-82.9161519,42.3899177,"10:00-19:00, 10:00-19:00, 10:00-19:00, 10:00-19:00, 10:00-19:00, 10:00-19:00, 12:00-17:00",,
Somerset Collection,1373,2800 West Big Beaver Road,,Troy,MI,48084,US,(248) 614-0050,-83.1840415,42.5627151,"10:00-21:00, 10:00-21:00, 10:00-21:00, 10:00-21:00, 10:00-21:00, 10:00-18:00, 12:00-18:00",,
Partridge Creek,1745,17360 Hall Road,,Clinton Township,MI,48038,US,(586) 412-1867,-82.9466661,42.6252912,"10:00-21:00, 10:00-21:00, 10:00-21:00, 10:00-21:00, 10:00-21:00, 10:00-21:00, 11:00-18:00",,
Twelve Oaks Mall,1455,27234 Novi Road,,Novi,MI,48377,US,(248) 374-8924,-83.4758446,42.4880331,"10:00-21:00, 10:00-21:00, 10:00-21:00, 10:00-21:00, 10:00-21:00, 10:00-21:00, 11:00-18:00",,
Village of Rochester,1711,376 North Adams,,Rochester Hills,MI,48309,US,(248) 375-4436,-83.1924947,42.6848218,"10:00-21:00, 10:00-21:00, 10:00-21:00, 10:00-21:00, 10:00-21:00, 10:00-21:00, 12:00-18:00",,
LOS  3009 Great Lakes Crossing,3009,4004 Baldwin Road,,Auburn Hills,MI,48326,US,(248) 335-0887,-83.3065116,42.6999821,"10:00-21:00, 10:00-21:00, 10:00-21:00, 10:00-21:00, 10:00-21:00, 10:00-21:00, 11:00-18:00",,
Briarwood Mall,1779,434 Briarwood Circle,,Ann Arbor,MI,48108,US,(734) 222-9730,-83.7444076,42.2424532,"10:00-21:00, 10:00-21:00, 10:00-21:00, 10:00-21:00, 10:00-21:00, 10:00-21:00, 11:00-18:00",,
Green Oak Village Place,1580,9710 Village Place Blvd,,Brighton,MI,48116,US,(810) 229-7234,-83.7519706,42.5062412,"10:00-21:00, 10:00-21:00, 10:00-21:00, 10:00-21:00, 10:00-21:00, 10:00-21:00, 11:00-18:00",,
LOS  2972 Howell Outlet LOS,2972,1475 N Burkhart Rd,,Howell,MI,48855,US,(517) 540-6393,-83.9991991,42.6242077,"09:00-21:00, 09:00-21:00, 09:00-21:00, 09:00-21:00, 09:00-21:00, 09:00-21:00, 10:00-19:00",,
Town Center at Levis,1406,2190 Levis Commons Blvd,,Perrysburg,OH,43551,US,(419) 873-1797,-83.6387916,41.5272436,"10:00-20:00, 10:00-20:00, 10:00-20:00, 10:00-20:00, 10:00-21:00, 10:00-21:00, 12:00-17:00",,
Birch Run,2963,12240 South Beyer Rd,,Birch Run,MI,48415,US,(989) 624-4007,-83.7724483,43.2447243,"10:00-21:00, 10:00-21:00, 10:00-21:00, 10:00-21:00, 10:00-21:00, 10:00-21:00, 10:00-19:00",,
Eastwood Towne Center,985,3034 Towne Centre Blvd,,Lansing,MI,48912,US,(517) 367-0141,-84.5176492,42.7640917,"10:00-21:00, 10:00-21:00, 10:00-21:00, 10:00-21:00, 10:00-21:00, 10:00-21:00, 11:00-18:00",,
Crocker Park,1786,168 Main Street,,Westlake,OH,44145,US,(440)250-1546,-81.9519307,41.458689,"10:00-21:00, 10:00-21:00, 10:00-21:00, 10:00-21:00, 10:00-21:00, 10:00-21:00, 11:00-18:00",,
Beachcliff Market Square,1484,19360 Detroit Road,,Cleveland,OH,44116,US,(440) 356-6251,-81.8374608,41.4818914,"10:00-20:00, 10:00-20:00, 10:00-20:00, 10:00-20:00, 10:00-20:00, 10:00-20:00, 11:00-18:00",,
Southpark,1679,500 Southpark Center,,Strongsville,OH,44136,US,(440) 238-0461,-81.8203334,41.3085096,"10:00-21:00, 10:00-21:00, 10:00-21:00, 10:00-21:00, 10:00-21:00, 10:00-21:00, 11:00-18:00",,
Legacy Village,1329,24683 Cedar Road,,Lyndhurst,OH,44124,US,(216) 382-8126,-81.5011465,41.5036952,"10:00-20:00, 10:00-20:00, 10:00-20:00, 10:00-20:00, 10:00-21:00, 10:00-21:00, 11:00-18:00",,
Summit Mall,1686,3265 West Market Street,,Fairlawn,OH,44333,US,(330) 865-3689,-81.6176897,41.1341338,"10:00-21:00, 10:00-21:00, 10:00-21:00, 10:00-21:00, 10:00-21:00, 10:00-21:00, 11:00-18:00",,
First and Main,1403,81 First Street,,Hudson,OH,44236,US,(330) 463-5605,-81.4419859,41.2414729,"10:00-20:00, 10:00-20:00, 10:00-20:00, 10:00-20:00, 10:00-20:00, 10:00-20:00, 11:00-18:00",,
LOS  2950 Aurora Farms LOS,2950,549 S Chillicothe Rd,,Aurora,OH,44202,US,(330)995-0386,-81.3421701,41.3016325,"10:00-21:00, 10:00-21:00, 10:00-21:00, 10:00-21:00, 10:00-21:00, 10:00-21:00, 10:00-19:00",,
Westfield Belden Vlg Mall,1435,4155 Belden Village Mall,,Canton,OH,44718,US,(330) 494-3926,-81.4289273,40.8568896,"10:00-21:00, 10:00-21:00, 10:00-21:00, 10:00-21:00, 10:00-21:00, 10:00-21:00, 11:00-18:00",,
LOS  3085 Tanger Outlets @Colu,3085,400 South Wilson Road,,Sunbury,OH,43074,US,(740) 965-6961,-82.9241344,40.2599564,"09:00-21:00, 09:00-21:00, 09:00-21:00, 09:00-21:00, 09:00-21:00, 09:00-21:00, 10:00-19:00",,
LOS  2977 Outlets at West Bran,2977,2990 Cook Road,,West Branch,MI,48661,US,(989) 343-9830,-84.2289029,44.2485744,"10:00-21:00, 10:00-21:00, 10:00-21:00, 10:00-21:00, 10:00-21:00, 10:00-21:00, 11:00-19:00",,
The Fountains at Farah,1845,8889 Gateway West,,El Paso,TX,79925,US,(915)599-9076,-106.371798,31.7705258,"10:00-21:00, 10:00-21:00, 10:00-21:00, 10:00-21:00, 10:00-21:00, 10:00-21:00, 12:00-18:00",,
LOS  2966 El Paso LOS,2966,7051 S DESERT BLVD,,CANUTILLO,TX,79835,US,(915) 877-4400,-106.5860305,31.9134611,"10:00-21:00, 10:00-21:00, 10:00-21:00, 10:00-21:00, 10:00-21:00, 10:00-21:00, 10:00-19:00",,
Shops of Saddle Creek,1694,7615 West Farmington,,Germantown,TN,38138,US,(901) 754-1970,-89.8089353,35.0944195,"10:00-20:00, 10:00-20:00, 10:00-20:00, 10:00-20:00, 10:00-20:00, 10:00-20:00, 12:00-17:30",,
LOS  3066 Tanger Outlets Memph,3066,5205 Airways Blvd.,,Southaven,MS,38671,US,(662) 349-5553,-89.9916306,34.9361057,"09:00-21:00, 09:00-21:00, 09:00-21:00, 09:00-21:00, 09:00-21:00, 09:00-21:00, 10:00-19:00",,
Carriage Crossing,1409,4610 Merchants Park Circle,,Collierville,TN,38017,US,(901) 861-0995,-89.7197958,35.0228942,"10:00-21:00, 10:00-21:00, 10:00-21:00, 10:00-21:00, 10:00-21:00, 10:00-21:00, 12:00-18:00",,
Oxford Galleria,1896,2317 Jackson Avenue,,Oxford,MS,38655,US,(662) 234-4527,-89.5639764,34.3653251,"10:00-21:00, 10:00-21:00, 10:00-21:00, 10:00-21:00, 10:00-21:00, 10:00-21:00, 12:00-18:00",,
Barnes Crossing,957,1001 Barnes Crossing Road,,Tupelo,MS,38804,US,(662) 840-0698,-88.7016646,34.3085524,"10:00-21:00, 10:00-21:00, 10:00-21:00, 10:00-21:00, 10:00-21:00, 10:00-21:00, 12:30-18:00",,
Midtowne,1487,201 North University Ave,,Little Rock,AR,72205,US,(501) 664-0541,-92.3407172,34.7531853,"10:00-20:00, 10:00-20:00, 10:00-20:00, 10:00-20:00, 10:00-20:00, 10:00-20:00, 12:00-18:00",,
LOS  3096 Outlets at Little Ro,3096,11201 Bass Pro Parkway,,Little Rock,AR,72210,US,(501) 407-0349,-92.4079485,34.6609511,"10:00-21:00, 10:00-21:00, 10:00-21:00, 10:00-21:00, 10:00-21:00, 10:00-21:00, 11:00-18:00",,
Pike and 5th,1769,1505 5th Avenue,,Seattle,WA,98101,US,(206) 223-4507,-122.3361351,47.610763,"10:00-20:00, 10:00-20:00, 10:00-20:00, 10:00-20:00, 10:00-20:00, 10:00-20:00, 11:00-18:00",,
Bellevue Square,1314,268 Bellevue Square,,Bellevue,WA,98004,US,(425) 646-8666,-122.2019605,47.6151634,"09:30-21:30, 09:30-21:30, 09:30-21:30, 09:30-21:30, 09:30-21:30, 09:30-21:30, 11:00-19:00",,
Northgate Shopping,839,401 NE Northgateway Way,,Seattle,WA,98125,US,(206) 306-0395,-122.326708,47.7075171,"10:00-21:00, 10:00-21:00, 10:00-21:00, 10:00-21:00, 10:00-21:00, 10:00-21:00, 11:00-19:00",,
Alderwood Mall,1460,3000 184th Street,,Lynnwood,WA,98037,US,(425) 775-6722,-122.2723568,47.8307905,"10:00-21:00, 10:00-21:00, 10:00-21:00, 10:00-21:00, 10:00-21:00, 10:00-21:00, 11:00-19:00",,
Kent Station,1599,445 Ramsay Way,,Kent,WA,98032,US,(253) 520-7321,-122.2369244,47.3849954,"10:00-20:00, 10:00-20:00, 10:00-20:00, 10:00-20:00, 10:00-20:00, 10:00-20:00, 11:00-18:00",,
Seattle Collections,3027,1101 Outlet Collection Way,,Auburn,WA,98001,US,(253)833-7213,-122.2460898,47.2990413,"10:00-21:00, 10:00-21:00, 10:00-21:00, 10:00-21:00, 10:00-21:00, 10:00-21:00, 11:00-18:00",,
Uptown Gig Harbor,1671,4635 Point Fosdick Drive NW,,Gig Harbor,WA,98335,US,(253) 858-5638,-122.5768795,47.3004838,"10:00-20:00, 10:00-20:00, 10:00-20:00, 10:00-20:00, 10:00-20:00, 10:00-20:00, 11:00-18:00",,
LOS  3031 North Bend Premium O,3031,521 South Fork Avenue SW,,North Bend,WA,98045,US,425-831-0519,-121.7943409,47.4904164,"10:00-21:00, 10:00-21:00, 10:00-21:00, 10:00-21:00, 10:00-21:00, 10:00-21:00, 10:00-19:00",,
LOS  2955 Seattle LOS,2955,10600 QUIL CEDA BLVD,,TULALIP,WA,98271,US,(360)716-3500,-122.1876079,48.092714,"10:00-21:00, 10:00-21:00, 10:00-21:00, 10:00-21:00, 10:00-21:00, 10:00-21:00, 10:00-19:00",,
Capital Mall Prom,1590,2511 Fourth Avene,,Olympia,WA,98502,US,(360) 943-1878,-122.9340022,47.0436343,"10:00-20:00, 10:00-20:00, 10:00-20:00, 10:00-20:00, 10:00-20:00, 10:00-20:00, 11:00-18:00",,
GUILDFORD TOWN CENTR,4107,10355 152 STREET,,Surrey,BC,V3R 7C1,CA,(604)588-4450,-122.8013913,49.1884237,"10:00-21:00, 10:00-21:00, 10:00-21:00, 10:00-21:00, 10:00-21:00, 10:00-21:00, 10:00-18:00",,
METROPOLIS AT METROT,4108,4700 KINGSWAY,,Burnaby,BC,V5H 4M1,CA,(604)454-9922,-122.999238,49.2264485,"10:00-21:00, 10:00-21:00, 10:00-21:00, 10:00-21:00, 10:00-21:00, 10:00-21:00, 11:00-19:00",,
PARK ROYAL SHOPPING,4105,2002 PARK ROYAL SOUTH,,West Vancouver,BC,V7T 2W4,CA,(604)921-4001,-123.1408958,49.3252906,"10:00-19:00, 10:00-19:00, 10:00-21:00, 10:00-21:00, 10:00-21:00, 09:30-19:00, 11:00-18:00",,
Vancouver Mall,1822,8700 N.E. Vancouver Mall Dr,,Vancouver,WA,98662,US,(360) 892-0621,-122.5837385,45.6581804,"10:00-21:00, 10:00-21:00, 10:00-21:00, 10:00-21:00, 10:00-21:00, 10:00-21:00, 11:00-18:00",,
LOS  2954 Columbia Gorge Outle,2954,450 NW 257th WAY,,TROUTDALE,OR,97060,US,(503)660-1151,-122.3898059,45.5437689,"10:00-21:00, 10:00-21:00, 10:00-21:00, 10:00-21:00, 10:00-21:00, 10:00-21:00, 10:00-19:00",,
Lloyd Center Mall,829,1021 Lloyd Center,,Portland,OR,97232,US,(503) 493-9219,-122.6545964,45.5316594,"10:00-21:00, 10:00-21:00, 10:00-21:00, 10:00-21:00, 10:00-21:00, 10:00-21:00, 11:00-18:00",,
Gresham Station,855,881 Northwest 12th Street,,Gresham,OR,97030,US,(503) 465-2944,-122.4418163,45.5062161,"10:00-21:00, 10:00-21:00, 10:00-21:00, 10:00-21:00, 10:00-21:00, 10:00-21:00, 11:00-18:00",,
The Streets of Tanasbourne,1550,2090 NW Allie Way,,Hillsboro,OR,97124,US,(503) 629-0409,-122.8786593,45.5360867,"10:00-21:00, 10:00-21:00, 10:00-21:00, 10:00-21:00, 10:00-21:00, 10:00-21:00, 11:00-18:00",,
Clackamas Town Center,853,11860 SE 82nd Avenue,,Portland,OR,97266,US,503-785-1115,-122.5790511,45.4764651,"10:00-21:00, 10:00-21:00, 10:00-21:00, 10:00-21:00, 10:00-21:00, 10:00-21:00, 11:00-19:00",,
West Village,837,3699 McKinney Avenue,,Dallas,TX,75204,US,(469) 547-5766,-96.7973428,32.8082983,"10:00-20:00, 10:00-20:00, 10:00-20:00, 10:00-20:00, 10:00-20:00, 10:00-20:00, 12:00-18:00",,
Mockingbird Station,878,5307 E Mockingbird Lane,,Dallas,TX,75206,US,(214) 821-7862,-96.7772161,32.8374989,"10:00-20:00, 10:00-20:00, 10:00-20:00, 10:00-20:00, 10:00-20:00, 10:00-20:00, 12:00-18:00",,
Northpark Center,1890,8687 N Central Expressway,,Dallas,TX,75225,US,(214) 363-3205,-96.7735125,32.8685017,"10:00-21:00, 10:00-21:00, 10:00-21:00, 10:00-21:00, 10:00-21:00, 10:00-21:00, 12:00-18:00",,
LOFT 4500 Lou & Grey-Northpark,4500,8687 North Central Expressway,,Dallas,TX,75225,US,(469) 232-9691,-96.7735125,32.8685017,"10:00-21:00, 10:00-21:00, 10:00-21:00, 10:00-21:00, 10:00-21:00, 10:00-21:00, 12:00-18:00",,
Firewheel Town Center,1511,185 Cedar Sage Drive,,Garland,TX,75040,US,(972) 414-6381,-96.6131491,32.9542738,"10:00-21:00, 10:00-21:00, 10:00-21:00, 10:00-21:00, 10:00-21:00, 10:00-21:00, 12:00-18:00",,
Lincoln Square,971,326 Lincoln Square,,Arlington,TX,76011,US,(817) 274-4948,-97.098281,32.7583816,"10:00-20:00, 10:00-20:00, 10:00-20:00, 10:00-20:00, 10:00-20:00, 10:00-20:00, 12:00-18:00",,
Shops at Willow Bend,1471,6121 West Park Blvd,,Plano,TX,75093,US,(469) 366-2454,-96.8317351,33.0304543,"10:00-21:00, 10:00-21:00, 10:00-21:00, 10:00-21:00, 10:00-21:00, 10:00-21:00, 12:00-18:00",,
LOS  2943 Grapevine Mills LOS,2943,3000 GRAPEVINE MILLS PKWY,,GRAPEVINE,TX,76051,US,(972) 355-8860,-97.0372579,32.9687994,"10:00-21:00, 10:00-21:00, 10:00-21:00, 10:00-21:00, 10:00-21:00, 10:00-21:00, 11:00-19:00",,
Arlington Highlands,1616,4001 Arlington Highland Blvd,,Arlington,TX,76018,US,(817) 472-5663,-97.108723,32.6799014,"10:00-21:00, 10:00-21:00, 10:00-21:00, 10:00-21:00, 10:00-21:00, 10:00-21:00, 12:00-18:00",,
Stonebriar Centre,1743,2601 Preston Road,,Frisco,TX,75034,US,(972) 377-3663,-96.805935,33.0982299,"10:00-21:00, 10:00-21:00, 10:00-21:00, 10:00-21:00, 10:00-21:00, 10:00-21:00, 12:00-18:00",,
Southlake Town Square,1577,415 Grand Avenue East,,Southlake,TX,76092,US,(817) 442-9241,-97.1292527,32.9447664,"10:00-21:00, 10:00-21:00, 10:00-21:00, 10:00-21:00, 10:00-21:00, 10:00-21:00, 12:00-18:00",,
Watters Creek,1636,837 Market Street,,Allen,TX,75013,US,(214) 383-0466,-96.6833952,33.0889181,"10:00-21:00, 10:00-21:00, 10:00-21:00, 10:00-21:00, 10:00-21:00, 10:00-21:00, 12:00-18:00",,
LOS  3071 Allen Premium Outlet,3071,820 West Stacy Road,,Allen,TX,75013,US,(972)678-4571,-96.6606861,33.131195,"10:00-21:00, 10:00-21:00, 10:00-21:00, 10:00-21:00, 10:00-21:00, 10:00-21:00, 11:00-18:00",,
The Shops at Highland Village,1623,4141 Waller Creek,,Highland Village,TX,75077,US,(972) 317-7485,-97.0861567,33.072822,"10:00-20:00, 10:00-20:00, 10:00-20:00, 10:00-20:00, 10:00-20:00, 10:00-20:00, 12:00-18:00",,
Sundance Square,1828,333 Houston St,,Fort Worth,TX,76102,US,(817) 882-8146,-97.3322141,32.7550041,"10:00-19:00, 10:00-19:00, 10:00-19:00, 10:00-19:00, 10:00-20:00, 10:00-20:00, 12:00-17:00",,
Chapel Hill,1387,4601 West Freeway,,Fort Worth,TX,76107,US,(817) 732-2834,-97.3887258,32.731381,"10:00-20:00, 10:00-20:00, 10:00-20:00, 10:00-20:00, 10:00-20:00, 10:00-20:00, 12:00-18:00",,
Central Texas Marketplace,1525,2428 West Loop 340,,Waco,TX,76711,US,(254) 662-0148,-97.1593396,31.4986523,"10:00-20:00, 10:00-20:00, 10:00-20:00, 10:00-20:00, 10:00-20:00, 10:00-20:00, 12:00-18:00",,
Broadway Square Mall,1524,4601 South Broadway,,Tyler,TX,75703,US,(903) 939-1537,-95.3028928,32.2992813,"10:00-21:00, 10:00-21:00, 10:00-21:00, 10:00-21:00, 10:00-21:00, 10:00-21:00, 12:00-18:00",,
16th Street Store,868,951 16th Street,,Denver,CO,80202,US,(720) 946-0107,-104.9941193,39.7470443,"08:00-20:00, 08:00-20:00, 08:00-20:00, 08:00-20:00, 08:00-20:00, 10:00-20:00, 12:00-18:00",,
Cherry Creek Mall,1386,3000 East 1st Avenue,,Denver,CO,80206,US,(720) 941-1082,-104.952671,39.7175014,"10:00-21:00, 10:00-21:00, 10:00-21:00, 10:00-21:00, 10:00-21:00, 10:00-21:00, 11:00-18:00",,
Belmar,1436,370 South Teller Street,,Lakewood,CO,80226,US,(303) 936-4969,-105.0766592,39.7097623,"10:00-20:00, 10:00-20:00, 10:00-20:00, 10:00-20:00, 10:00-20:00, 10:00-20:00, 11:00-18:00",,
LOS  3004 COLORADO MILLS LOS,3004,14500 W. Colfax Ave.,,Lakewood,CO,80401,US,(303) 279- 1506,-105.1585621,39.7315952,"10:00-21:00, 10:00-21:00, 10:00-21:00, 10:00-21:00, 10:00-21:00, 10:00-21:00, 11:00-18:00",,
Streets of Southglenn,1850,6851 South Gaylord St,,Centennial,CO,80122,US,(303)795-4364,-104.9636524,39.5920188,"10:00-20:00, 10:00-20:00, 10:00-20:00, 10:00-20:00, 10:00-20:00, 10:00-20:00, 11:00-18:00",,
Park Meadows,1639,8423 Park Meadows Center Dr,,Lone Tree,CO,80124,US,(303) 792-0014,-104.8792229,39.5620929,"10:00-21:00, 10:00-21:00, 10:00-21:00, 10:00-21:00, 10:00-21:00, 10:00-21:00, 11:00-18:00",,
LOS  2938 Castle Rock LOS,2938,5050 Factory Shops Blvd,,Castle Rock,CO,80108,US,(303) 660-0225,-104.8721674,39.4145667,"10:00-20:00, 10:00-20:00, 10:00-20:00, 10:00-20:00, 10:00-20:00, 09:00-21:00, 11:00-18:00",,
Twenty Ninth Street,1575,1810 29th Street,,Boulder,CO,80301,US,(303) 442-0570,-105.255381,40.0187561,"10:00-21:00, 10:00-21:00, 10:00-21:00, 10:00-21:00, 10:00-21:00, 10:00-21:00, 11:00-18:00",,
Shops at Centerra,1488,5855 Sky Pond Drive,,Loveland,CO,80538,US,(970) 667-7984,-104.990635,40.4135222,"10:00-21:00, 10:00-21:00, 10:00-21:00, 10:00-21:00, 10:00-21:00, 10:00-21:00, 11:00-18:00",,
Promenade Shops at Briargate,1717,1925 Briargate Parkway,,Colorado Springs,CO,80920,US,(719) 260-8565,-104.7923205,38.9638706,"10:00-21:00, 10:00-21:00, 10:00-21:00, 10:00-21:00, 10:00-21:00, 10:00-21:00, 11:00-18:00",,
LOS  3069 Outlets at Silvertho,3069,227-M Blue River Parkway,,Silverthorne,CO,80498,US,(970)468-3559,-106.0731907,39.6286616,"10:00-20:00, 10:00-20:00, 10:00-20:00, 10:00-20:00, 10:00-20:00, 10:00-20:00, 10:00-18:00",,
Dupont Circle,969,1611 Connecticut Avenue,,Washington,DC,20009,US,(202) 299-9845,-77.0442254,38.9116848,"10:00-21:00, 10:00-21:00, 10:00-21:00, 10:00-21:00, 09:00-21:00, 10:00-20:00, 11:00-18:00",,
Gallery Place,1434,707 Seventh Street NW,,Washington,DC,20001,US,(202( 628-1224,-77.021672,38.8990612,"10:00-21:00, 10:00-21:00, 10:00-21:00, 10:00-21:00, 10:00-21:00, 10:00-21:00, 11:00-19:00",,
Georgetown,1784,1239 Wisconsin Ave,,Washington,DC,20007,US,(202) 944-8750,-77.0625875,38.9060842,"10:00-20:00, 10:00-20:00, 10:00-20:00, 10:00-20:00, 10:00-20:00, 10:00-20:00, 11:00-18:00",,
Market at Common Claredon,894,2700 Clarendon Blvd,,Arlington,VA,22201,US,(703) 243-0282,-77.0911053,38.8876873,"10:00-21:00, 10:00-21:00, 10:00-21:00, 10:00-21:00, 10:00-21:00, 10:00-21:00, 11:00-18:00",,
Pentagon Row,882,1201 South Joyce Street,,Arlington,VA,22202,US,(703) 416-6531,-77.0627413,38.863561,"10:00-21:00, 10:00-21:00, 10:00-21:00, 10:00-21:00, 10:00-21:00, 10:00-21:00, 11:00-18:00",,
Downtown Silver Spring,1448,922 Ellsworth Drive,,Silver Spring,MD,20910,US,(301) 587-7220,-77.026361,38.9957044,"10:00-21:00, 10:00-21:00, 10:00-21:00, 10:00-21:00, 10:00-21:00, 10:00-21:00, 12:00-18:00",,
423 King Street,1588,423 King Street Tavern Sq,,Alexandria,VA,22314,US,(703) 684-1932,-77.044482,38.80493,"10:00-20:00, 10:00-20:00, 10:00-20:00, 10:00-20:00, 10:00-20:00, 10:00-20:00, 11:00-18:00",,
Tyson's Corner,1358,7974 Tysons Corner Center,,MC LEAN,VA,22102,US,(703) 288-1513,-77.2211584,38.9170609,"10:00-21:30, 10:00-21:30, 10:00-21:30, 10:00-21:30, 10:00-21:30, 10:00-21:30, 11:00-19:00",,
LOFT 4512 L&G Tyson's Corner C,4512,1961 Chain Bridge Road,,Mc Lean,VA,22102,US,(703) 734-8370,-77.2241045,38.915088,"10:00-21:30, 10:00-21:30, 10:00-21:30, 10:00-21:30, 10:00-21:30, 10:00-21:30, 11:00-19:00",,
Congressional Plaza,736,1637 Rockville Pike,,Rockville,MD,20852,US,(301) 881-5901,-77.127227,39.0622304,"10:00-21:00, 10:00-21:00, 10:00-21:00, 10:00-21:00, 10:00-21:00, 10:00-21:00, 11:00-18:00",,
Springfield Mall,1884,6500 Springfield Mall,,Springfield,VA,22150,US,(703)922-5018,-77.1751964,38.7741895,"10:00-21:00, 10:00-21:00, 10:00-21:00, 10:00-21:00, 10:00-21:00, 10:00-21:00, 11:00-18:00",,
Plaza America,1303,11610 Plaza America Drive,,Reston,VA,20190,US,(703) 668-9434,-77.3478459,38.9515993,"10:00-20:00, 10:00-20:00, 10:00-20:00, 10:00-20:00, 10:00-20:00, 10:00-20:00, 12:00-18:00",,
Washingtonian Center,1479,29 Grand Corner Avenue,,Gaithersburg,MD,20878,US,(301) 921-2154,-77.2033316,39.1185654,"10:00-21:00, 10:00-21:00, 10:00-21:00, 10:00-21:00, 10:00-21:00, 10:00-21:00, 11:00-18:00",,
Fairfax Corner,1864,11924 Grand Commons Ave,,Fairfax,VA,22033,US,(571)522-6592,-77.3572652,38.8581069,"10:00-21:00, 10:00-21:00, 10:00-21:00, 10:00-21:00, 10:00-21:00, 10:00-21:00, 11:00-19:00",,
Waugh Chapel Towne Centre,1846,1417 S Main Chapel Way,,Gambrills,MD,21054,US,(410)451-4018,-76.6866528,39.0347688,"10:00-21:00, 10:00-21:00, 10:00-21:00, 10:00-21:00, 10:00-21:00, 10:00-21:00, 12:00-18:00",,
Dulles Town Center,664,21100 Dulles Town Circle,,Dulles,VA,20166,US,(703) 421-6204,-77.4236818,39.0325202,"10:00-21:30, 10:00-21:30, 10:00-21:30, 10:00-21:30, 10:00-21:30, 10:00-21:30, 11:00-19:00",,
LOS  3007 POTOMAC MILLS LOS,3007,2700 Potomac Mills Circle,,Prince William,VA,22192,US,(703)491-2858,-77.2995247,38.645183,"10:00-21:00, 10:00-21:00, 10:00-21:00, 10:00-21:00, 10:00-21:00, 10:00-21:00, 11:00-18:00",,
The Mall in Columbia,1570,10300 Little Patuxent Pkw,,Columbia,MD,21044,US,(410) 740-7289,-76.8612159,39.2153109,"10:00-21:00, 10:00-21:00, 10:00-21:00, 10:00-21:00, 10:00-21:00, 10:00-21:00, 11:00-18:00",,
Potomac Town Center,1831,15000 Potomac Town Place,,Woodbridge,VA,22191,US,(703) 580-5764,-77.2882324,38.6289391,"10:00-21:00, 10:00-21:00, 10:00-21:00, 10:00-21:00, 10:00-21:00, 10:00-21:00, 12:00-18:00",,
LOS  2941 Arundel Mills LOS,2941,7000 Arundel Mills Cir,,Hanover,MD,21076,US,(443) 755-1540,-76.7252493,39.1573631,"10:00-21:30, 10:00-21:30, 10:00-21:30, 10:00-21:30, 10:00-21:30, 10:00-21:30, 11:00-19:00",,
LOS  3111 Clarksburg Prem Outl,3111,22705 Clarksburg Road,,CLARKSBURG,MD,20871,US,(240) 686-4102,-77.2863462,39.2295575,"10:00-21:00, 10:00-21:00, 10:00-21:00, 10:00-21:00, 10:00-21:00, 10:00-21:00, 10:00-19:00",,
Annapolis Harbour Center,1483,2522 Solomons Island Road,,Annapolis,MD,21401,US,(410) 224-4062,-76.5450314,38.9745964,"10:00-21:00, 10:00-21:00, 10:00-21:00, 10:00-21:00, 10:00-21:00, 10:00-21:00, 12:00-18:00",,
Annapolis Mall,1701,2410 Annapolis Mall,,Annapolis,MD,21401,US,(410) 224-6520,-76.5486097,38.9896501,"10:00-21:30, 10:00-21:30, 10:00-21:30, 10:00-21:30, 10:00-21:30, 10:00-21:30, 11:00-19:00",,
LOS  2948 Leesburg LOS,2948,241 Ft. Evans Road Ne,,Leesburg,VA,20176,US,(703)779-2067,-77.5382843,39.1073196,"09:00-21:00, 09:00-21:00, 09:00-21:00, 09:00-21:00, 09:00-21:00, 09:00-21:00, 09:00-19:00",,
Promenade at Virginia Gateway,1832,13999 Promenade Commons St,,Gainesville,VA,20155,US,(571)261-2017,-77.6066964,38.7886653,"10:00-21:00, 10:00-21:00, 10:00-21:00, 10:00-21:00, 10:00-21:00, 10:00-21:00, 11:00-18:00",,
The Shops at Canton Crossing,1862,3501 Boston Street,,Baltimore,MD,21224,US,(410) 276-1910,-76.567074,39.2767443,"10:00-21:00, 10:00-21:00, 10:00-21:00, 10:00-21:00, 10:00-21:00, 10:00-21:00, 12:00-18:00",,
Festival at Woodholme,1795,1809 Reisterstown Road,,Baltimore,MD,21208,US,(410) 484-0220,-76.7360118,39.3886671,"10:00-21:00, 10:00-21:00, 10:00-21:00, 10:00-21:00, 10:00-21:00, 10:00-21:00, 11:00-18:00",,
Westview Promenade,1367,5263 Buckeystown Pike Bldg D,,Frederick,MD,21704,US,(301) 620-7218,-77.4130658,39.3751015,"10:00-21:00, 10:00-21:00, 10:00-21:00, 10:00-21:00, 10:00-21:00, 10:00-21:00, 12:00-18:00",,
Dulaney Plaza,1335,830 Dulaney Valley Road,,Towson,MD,21204,US,(410) 296-9750,-76.6025814,39.4051034,"10:00-21:00, 10:00-21:00, 10:00-21:00, 10:00-21:00, 10:00-21:00, 10:00-21:00, 12:00-18:00",,
Hunt Valley Towne Center,1499,118 Shawan Road,,Cockeysville,MD,21030,US,(410) 527-5913,-76.6548742,39.4988544,"10:00-21:00, 10:00-21:00, 10:00-21:00, 10:00-21:00, 10:00-21:00, 10:00-21:00, 12:00-18:00",,
LOS  2992 QueenstownLOS,2992,402A Outlet Center Drive,,Queenstown,MD,21658,US,(410) 827- 0633,-76.1578904,38.9832302,"09:00-21:00, 09:00-21:00, 09:00-21:00, 09:00-21:00, 09:00-21:00, 09:00-21:00, 09:00-20:00",,
Central Park,1308,1460 Central Park Blvd,,Fredericksburg,VA,22401,US,(540) 548-4903,-77.5117632,38.3044665,"10:00-19:00, 10:00-19:00, 10:00-19:00, 10:00-19:00, 10:00-19:00, 10:00-19:00, 12:00-18:00",,
LOS  3033 Hagerstown Premium,3033,495 Premium Outlets Boulevard,,Hagerstown,MD,21740,US,(301) 733-2460,-77.7343722,39.6069966,"10:00-21:00, 10:00-21:00, 10:00-21:00, 10:00-21:00, 10:00-21:00, 10:00-21:00, 10:00-19:00",,
Creekside Station,1534,3115 Valley Avenue,,Winchester,VA,22601,US,(540) 535-0519,-78.1918788,39.1423247,"10:00-20:00, 10:00-20:00, 10:00-20:00, 10:00-20:00, 10:00-20:00, 10:00-20:00, 12:00-18:00",,
WEST MANCHESTER MALL,1868,1800 Loucks Road,,York,PA,17408,US,(717)767-4142,-76.7720305,39.9699774,"10:00-21:00, 10:00-21:00, 10:00-21:00, 10:00-21:00, 10:00-21:00, 10:00-21:00, 11:00-18:00",,
Short Pump Town Center,1317,11800 West Broad Street,,Henrico,VA,23233,US,(804) 364-5387,-77.6191177,37.6556306,"10:00-21:00, 10:00-21:00, 10:00-21:00, 10:00-21:00, 10:00-21:00, 10:00-21:00, 11:00-18:00",,
Shoppes at Susquehanna,1392,2575 Brindle Drive,,Harrisburg,PA,17110,US,(717) 657-1480,-76.8442345,40.3040103,"10:00-20:00, 10:00-20:00, 10:00-20:00, 10:00-20:00, 10:00-21:00, 10:00-21:00, 11:00-18:00",,
LOS  2936 Hershey LOS,2936,78 Outlet Square,,Hershey,PA,17033,US,(717) 534-2691,-76.6473382,40.2955564,"09:00-21:00, 09:00-21:00, 09:00-21:00, 09:00-21:00, 09:00-21:00, 09:00-21:00, 10:00-19:00",,
Barracks Road Center,994,1107 Emmet Street North,,Charlottesville,VA,22903,US,(434) 295-3232,-78.5003494,38.0516614,"10:00-20:00, 10:00-20:00, 10:00-20:00, 10:00-20:00, 10:00-20:00, 10:00-20:00, 12:00-18:00",,
Chesterfield Mall,845,11500 Midlothian Turnpike,,Richmond,VA,23235,US,(804) 794-1780,-77.6090864,37.5084707,"10:00-21:00, 10:00-21:00, 10:00-21:00, 10:00-21:00, 10:00-21:00, 10:00-21:00, 12:00-18:00",,
LOS  2932 Rehoboth LOS,2932,Delaware State Route 1,,Rehoboth Beach,DE,19971,US,(302) 645-8350,-75.092692,38.7144241,"09:00-21:00, 09:00-21:00, 09:00-21:00, 09:00-21:00, 09:00-21:00, 09:00-21:00, 10:00-19:00",,
LOS  3073 Williamsburg Outlets,3073,5715- E081 Richmond Road,,Williamsburg,VA,23188,US,(757) 564-1790,-76.7375646,37.32114,"09:00-21:00, 09:00-21:00, 09:00-21:00, 09:00-21:00, 09:00-21:00, 09:00-21:00, 09:00-19:00",,
Market Place at Faneuil,1325,200 State Street,,Boston,MA,02109,US,(617) 737-7840,-71.0531729,42.3600283,"10:00-21:00, 10:00-21:00, 10:00-21:00, 10:00-21:00, 10:00-21:00, 10:00-21:00, 12:00-19:00",,
Prudential Center,677,800 Boylston Street,,Boston,MA,02199,US,(617) 262-9411,-71.08385,42.346516,"10:00-21:00, 10:00-21:00, 10:00-21:00, 10:00-21:00, 10:00-21:00, 10:00-21:00, 11:00-19:00",,
LOS  3078 Assembly Row,3078,601 Assembly Row,,Somerville,MA,02145,US,(617)625-0398,-71.0794133,42.395124,"10:00-21:00, 10:00-21:00, 10:00-21:00, 10:00-21:00, 10:00-21:00, 10:00-21:00, 11:00-18:00",,
The Mall at Chestnut Hill,1812,199 Boylston Street,,Chestnut Hill,MA,02467,US,(617)558-7199,-71.1760576,42.3214068,"10:00-21:00, 10:00-21:00, 10:00-21:00, 10:00-21:00, 10:00-21:00, 10:00-20:00, 12:00-18:00",,
South Shore Plaza,1772,250 Granite Street,,BRAINTREE,MA,02184,US,(781) 380-3676,-71.0226617,42.2200925,"10:00-21:00, 10:00-21:00, 10:00-21:00, 10:00-21:00, 10:00-21:00, 10:00-21:00, 11:00-18:00",,
Legacy Place,1683,240 Legacy Place,,Dedham,MA,02026,US,(781) 461-0134,-71.1771116,42.2317695,"10:00-21:00, 10:00-21:00, 10:00-21:00, 10:00-21:00, 10:00-21:00, 10:00-21:00, 11:00-18:00",,
Market Street at Lynnfield,1818,427 Walnut Street,,Lynnfield,MA,01940,US,(781)334-3042,-71.032624,42.5153582,"10:00-21:00, 10:00-21:00, 10:00-21:00, 10:00-21:00, 10:00-21:00, 10:00-21:00, 11:00-18:00",,
Wayside Commons,1589,6 Wayside Road,,Burlington,MA,01803,US,(781) 270-2309,-71.1939597,42.4856249,"10:00-19:00, 10:00-19:00, 10:00-19:00, 10:00-19:00, 10:00-19:00, 10:00-19:00, 11:00-18:00",,
LOFT 1910 Northshore Mall,1910,210 Andover Street,,Peabody,MA,01960,US,(978) 531-1508,-70.9408048,42.5411972,"10:00-21:00, 10:00-21:00, 10:00-21:00, 10:00-21:00, 10:00-21:00, 10:00-21:00, 11:00-18:00",,
Derby Street Shoppes,1364,94 Derby Street,,Hingham,MA,02043,US,(781) 740-9730,-70.9087745,42.1774601,"10:00-21:00, 10:00-21:00, 10:00-21:00, 10:00-21:00, 10:00-21:00, 10:00-21:00, 11:00-18:00",,
The Village Shoppes,975,95 Washington Street,,Canton,MA,02021,US,(781) 821-1088,-71.1460904,42.1396244,"10:00-19:00, 10:00-19:00, 10:00-19:00, 10:00-19:00, 10:00-19:00, 10:00-19:00, 11:00-18:00",,
LOFT 1917 Natick Mall,1917,1245 WORCESTER STREET,,Natick,MA,01760,US,508-651-3920,-71.3843794,42.3019258,"10:00-21:00, 10:00-21:00, 10:00-21:00, 10:00-21:00, 10:00-21:00, 10:00-21:00, 11:00-18:00",,
Lou & Grey Natick,4503,1245 Worcester St,,Natick,MA,01760,US,(508)650-2918,-71.3843794,42.3019258,"10:00-21:00, 10:00-21:00, 10:00-21:00, 10:00-21:00, 10:00-21:00, 10:00-21:00, 11:00-19:00",,
Brookside Shops,1302,149 Great Road,,Acton,MA,01720,US,(978) 263-1091,-71.4146207,42.4836267,"10:00-19:00, 10:00-19:00, 10:00-19:00, 10:00-19:00, 10:00-19:00, 10:00-19:00, 12:00-18:00",,
Mansfield Crossing,1625,280 School Street,,Mansfield,MA,02048,US,(508) 339-3021,-71.2295397,42.0130198,"10:00-21:00, 10:00-21:00, 10:00-21:00, 10:00-21:00, 10:00-21:00, 10:00-21:00, 11:00-18:00",,
LOS  2900 Wrentham Prem LOS,2900,One Premium Outlets Blvd,,Wrentham,MA,02093,US,(508) 384-0246,-71.3526391,42.0381377,"10:00-21:00, 10:00-21:00, 10:00-21:00, 10:00-21:00, 10:00-21:00, 10:00-21:00, 10:00-18:00",,
The Loop,1374,90 Pleasant Valley Street,,Methuen,MA,01844,US,(978) 794-7901,-71.1548764,42.7434652,"10:00-21:00, 10:00-21:00, 10:00-21:00, 10:00-21:00, 10:00-21:00, 10:00-21:00, 12:00-18:00",,
Solomon Pond,1707,601 Donald Lynch Blvd,,Marlborough,MA,01752,US,(508) 229-3132,-71.6132072,42.3550944,"10:00-21:00, 10:00-21:00, 10:00-21:00, 10:00-21:00, 10:00-21:00, 10:00-21:00, 11:00-18:00",,
Emerald Square Mall,818,999 South Washington Street,,North Attleboro,MA,02760,US,(508) 643-2868,-71.3474144,41.9454817,"10:00-21:00, 10:00-21:00, 10:00-21:00, 10:00-21:00, 10:00-21:00, 10:00-21:00, 11:00-18:00",,
Village at Colony Place,1624,152 Colony Place,,PLYMOUTH,MA,02360,US,(508) 830-3870,-70.7159247,41.9540989,"10:00-21:00, 10:00-21:00, 10:00-21:00, 10:00-21:00, 10:00-21:00, 10:00-21:00, 11:00-18:00",,
Blackstone Valley,1415,70 Worcester Providence Tpk,,Millbury,MA,01527,US,(508) 581-9854,-71.7798097,42.1975588,"10:00-21:00, 10:00-21:00, 10:00-21:00, 10:00-21:00, 10:00-21:00, 10:00-21:00, 12:00-18:00",,
LOS  2999 Merrimack LOS,2999,80 Premium Blvd,,Merrimack,NH,03054,US,(603)424-7097,-71.5018896,42.8246326,"10:00-21:00, 10:00-21:00, 10:00-21:00, 10:00-21:00, 10:00-21:00, 10:00-21:00, 10:00-18:00",,
Providence Place,1509,103 Providence Place,,Providence,RI,02903,US,(401) 437-6155,-71.416851,41.82684,"10:00-21:00, 10:00-21:00, 10:00-21:00, 10:00-21:00, 10:00-21:00, 10:00-21:00, 11:00-18:00",,
The Crossing at Smithfield,734,371 Putnam Pike,,Smithfield,RI,02917,US,(401) 231-2338,-71.5214709,41.8701531,"10:00-21:00, 10:00-21:00, 10:00-21:00, 10:00-21:00, 10:00-21:00, 10:00-21:00, 12:00-18:00",,
Wareham Crossing,1597,2421 Cranberry Highway,,Wareham,MA,02571,US,(508) 273-0483,-70.7423644,41.7736246,"10:00-20:00, 10:00-20:00, 10:00-20:00, 10:00-20:00, 10:00-20:00, 10:00-20:00, 11:00-18:00",,
Barrington Shopping,1330,180 County Rd,,Barrington,RI,02806,US,(401) 245-0358,-71.3056287,41.7368758,"09:00-20:00, 09:00-20:00, 09:00-20:00, 09:00-20:00, 09:00-20:00, 09:00-18:00, 10:00-18:00",,
Garden City,956,83 Hillside Road,,Cranston,RI,02920,US,(401) 946-7584,-71.458934,41.7620241,"10:00-21:00, 10:00-21:00, 10:00-21:00, 10:00-21:00, 10:00-21:00, 10:00-21:00, 12:00-18:00",,
Fox Run,884,50 Fox Run Road,,Newington,NH,03801,US,(603) 430-9018,-70.8046785,43.0967995,"10:00-21:00, 10:00-21:00, 10:00-21:00, 10:00-21:00, 10:00-21:00, 10:00-21:00, 11:00-18:00",,
LOS  2969 Kittery Outlets,2969,283 Us Route 1,,Kittery,ME,03904,US,(207) 451-9199,-70.7372441,43.11024,"09:00-21:00, 09:00-21:00, 09:00-21:00, 09:00-21:00, 09:00-21:00, 09:00-21:00, 10:00-18:00",,
Cape Cod Mall,827,769 Route 132,,HYANNIS,MA,02601,US,(508) 775-9661,-70.2975701,41.667825,"10:00-21:00, 10:00-21:00, 10:00-21:00, 10:00-21:00, 10:00-21:00, 10:00-21:00, 10:00-18:00",,
LOS  3026 Tanger Outlets@ Foxw,3026,455 Trolley Line Blvd,,Mashantucket,CT,06338,US,(860) 213-5017,-71.9620183,41.4763404,"10:00-21:00, 10:00-21:00, 10:00-21:00, 10:00-21:00, 10:00-23:00, 10:00-23:00, 10:00-21:00",,
LOS  2978 Tilton LOS,2978,120 Laconia Road,,Tilton,NH,03276,US,(603) 286-3150,-71.55973,43.459479,"09:00-21:00, 09:00-21:00, 09:00-21:00, 09:00-21:00, 09:00-21:00, 09:00-21:00, 10:00-19:00",,
Holyoke Mall,1449,50 Holyoke Street,,Holyoke,MA,01040,US,(413) 540-0595,-72.6413271,42.167247,"10:00-21:30, 10:00-21:30, 10:00-21:30, 10:00-21:30, 10:00-21:30, 10:00-21:30, 11:00-18:00",,
Evergreen Walk,1341,200 Evergreen Way,,South Windsor,CT,06074,US,(860) 648-1990,-72.5569733,41.8111085,"10:00-20:00, 10:00-20:00, 10:00-20:00, 10:00-20:00, 10:00-21:00, 10:00-21:00, 11:00-18:00",,
Maine Mall,1404,364 Maine Mall Rd,,Portland,ME,04106,US,(207) 780-8241,-70.3367879,43.6342134,"10:00-21:00, 10:00-21:00, 10:00-21:00, 10:00-21:00, 10:00-21:00, 10:00-21:00, 11:00-18:00",,
Westfarms Mall,1405,500 Westfarms Mall,,Farmington,CT,06032,US,(860) 521-5662,-72.7634768,41.7219021,"10:00-21:00, 10:00-21:00, 10:00-21:00, 10:00-21:00, 10:00-21:00, 10:00-21:00, 11:00-18:00",,
Farmington Valley,1441,110 Albany Turnpike,,Canton,CT,06019,US,(860) 693-9705,-72.88581,41.8232525,"10:00-21:00, 10:00-21:00, 10:00-21:00, 10:00-21:00, 10:00-21:00, 10:00-21:00, 12:00-18:00",,
LOS  2902 Westbrook LOS,2902,314 Flat Rock Pl,,Westbrook,CT,06498,US,(860) 399-0049,-72.4287248,41.2891892,"09:00-21:00, 09:00-21:00, 09:00-21:00, 09:00-21:00, 09:00-21:00, 09:00-21:00, 10:00-19:00",,
Meriden Square Mall,773,470 Lewis Avenue,,Meriden,CT,06451,US,(203) 630-1567,-72.8078576,41.5508898,"10:00-21:00, 10:00-21:00, 10:00-21:00, 10:00-21:00, 10:00-21:00, 10:00-21:00, 11:00-18:00",,
LOS  3081 Freeport Outlet,3081,42 Main Street,,Freeport,ME,04032,US,(207) 865-1046,-70.1045162,43.8559432,"10:00-19:00, 10:00-19:00, 10:00-19:00, 10:00-19:00, 10:00-19:00, 10:00-19:00, 10:00-19:00",,
LOS  2996 Manchester LOS,2996,301 Depot Street,,Manchester Center,VT,05255,US,(802) 366-1910,-73.0517901,43.1746781,"10:00-18:00, 10:00-18:00, 10:00-18:00, 10:00-18:00, 10:00-18:00, 10:00-18:00, 10:00-17:00",,
Milford Marketplace,1618,1664 Boston Post Road,,Milford,CT,06460,US,(203) 783-1979,-73.0247655,41.2479423,"10:00-20:00, 10:00-20:00, 10:00-20:00, 10:00-20:00, 10:00-20:00, 10:00-20:00, 11:00-17:00",,
Southbury Green,687,775 South Main Street,,Southbury,CT,06488,US,(203) 262-8885,-73.2312585,41.4622272,"10:00-19:00, 10:00-19:00, 10:00-19:00, 10:00-19:00, 10:00-19:00, 10:00-18:00, 11:00-17:00",,
LOS  2901 Riverhead  LOS,2901,918 Tanger Mall Dr,,Riverhead,NY,11901,US,(631) 369-2207,-72.714681,40.9212286,"08:00-22:00, 08:00-22:00, 08:00-22:00, 08:00-22:00, 08:00-22:00, 08:00-22:00, 08:00-21:00",,
Fairfield Centre,847,1499 Post Road,,Fairfield,CT,06824,US,(203) 319-0238,-73.2581507,41.1407598,"10:00-19:00, 10:00-19:00, 10:00-19:00, 10:00-20:00, 10:00-19:00, 10:00-19:00, 11:00-18:00",,
Danbury Fair Mall,1604,7 Backus Avenue,,Danbury,CT,06810,US,(203) 791-1022,-73.4807815,41.3806589,"10:00-21:30, 10:00-21:30, 10:00-21:30, 10:00-21:30, 10:00-21:30, 10:00-21:30, 11:00-19:00",,
Clifton Park Center,1842,22 Clifton Country Rd,,Clifton Park,NY,12065,US,(518) 371-4693,-73.7802542,42.8601285,"10:00-21:00, 10:00-21:00, 10:00-21:00, 10:00-21:00, 10:00-21:00, 10:00-21:00, 11:00-17:00",,
Stuyvesant Plaza,1312,1475 Western Ave,,Albany,NY,12203,US,(518) 459-1364,-73.839612,42.6840936,"10:00-20:00, 10:00-20:00, 10:00-20:00, 10:00-20:00, 10:00-20:00, 10:00-18:00, 12:00-17:00",,
Greenwood Park,758,1251 US 31 North,,Greenwood,IN,46142,US,(317) 889-7762,-86.1234505,39.6309859,"10:00-21:00, 10:00-21:00, 10:00-21:00, 10:00-21:00, 10:00-21:00, 10:00-21:00, 11:00-18:00",,
Castleton Square,760,6020 East 82nd Street,,Indianapolis,IN,46250,US,(317) 596-8893,-86.0648858,39.9089327,"10:00-21:00, 10:00-21:00, 10:00-21:00, 10:00-21:00, 10:00-21:00, 10:00-21:00, 11:00-18:00",,
Metropolis,1549,2499 Futura Parkway,,Plainfield,IN,46168,US,(317) 839-5370,-86.3579288,39.7122979,"10:00-21:00, 10:00-21:00, 10:00-21:00, 10:00-21:00, 10:00-21:00, 10:00-21:00, 12:00-18:00",,
Clay Terrace,1395,14360 Clay Terrace Blvd,,Carmel,IN,46032,US,(317) 569-0859,-86.1301348,39.9968553,"10:00-21:00, 10:00-21:00, 10:00-21:00, 10:00-21:00, 10:00-21:00, 10:00-21:00, 12:00-18:00",,
Hamilton Town Center,1703,13185 Harrell Parkway,,Noblesville,IN,46060,US,(317) 773-8910,-85.9306213,39.9925047,"10:00-21:00, 10:00-21:00, 10:00-21:00, 10:00-21:00, 10:00-21:00, 10:00-21:00, 11:00-18:00",,
LOS  2928 Edinburgh Prem LOS,2928,11911 N Executive Drive,,Edinburgh,IN,46124,US,(812) 526-2274,-85.963551,39.3116146,"10:00-21:00, 10:00-21:00, 10:00-21:00, 10:00-21:00, 10:00-21:00, 10:00-21:00, 10:00-19:00",,
Streets of West Chester,1805,9450 Water Front Drive,,West Chester,OH,45069,US,(513)671-8111,-84.4232821,39.3181319,"10:00-21:00, 10:00-21:00, 10:00-21:00, 10:00-21:00, 10:00-21:00, 10:00-21:00, 12:00-18:00",,
Crestview Hills Town,1553,2850 Town Center Boulevard,,Crestview Hills,KY,41017,US,(859) 426-1207,-84.5785937,39.0249575,"10:00-21:00, 10:00-21:00, 10:00-21:00, 10:00-21:00, 10:00-21:00, 10:00-21:00, 12:00-18:00",,
Cincinnati Premium Outlets,2929,400 Premium Outlets Drive,,Monroe,OH,45050,US,(513)360-0108,-84.338066,39.432341,"10:00-21:00, 10:00-21:00, 10:00-21:00, 10:00-21:00, 10:00-21:00, 10:00-21:00, 10:00-19:00",,
Kenwood Towne Centre,1443,7875 Montgomery Road,,Cincinnati,OH,45236,US,(513) 793-1340,-84.3770223,39.2025027,"10:00-21:00, 10:00-21:00, 10:00-21:00, 10:00-21:00, 10:00-21:00, 10:00-21:00, 12:00-18:00",,
Deerfield Town Center,1333,5445 Deerfield Blvd,,Mason,OH,45040,US,(513) 398-1264,-84.3203848,39.307834,"10:00-21:00, 10:00-21:00, 10:00-21:00, 10:00-21:00, 10:00-21:00, 10:00-21:00, 12:00-18:00",,
Paddock Shops,1689,4278 Summit Plaza Drive,,Louisville,KY,40241,US,(502) 420-1793,-85.5780908,38.3093169,"10:00-21:00, 10:00-21:00, 10:00-21:00, 10:00-21:00, 10:00-21:00, 10:00-21:00, 12:00-18:00",,
Mall at St. Matthews,876,5000 Shelbyville Rd,,Louisville,KY,40207,US,(502) 896-6338,-85.6242,38.250196,"10:00-21:00, 10:00-21:00, 10:00-21:00, 10:00-21:00, 10:00-21:00, 10:00-18:00, 11:00-19:00",,
The Greene,1560,4437 Glengarry Drive,,Dayton,OH,45440,US,(937) 429-0218,-84.102661,39.6934686,"10:00-21:00, 10:00-21:00, 10:00-21:00, 10:00-21:00, 10:00-21:00, 10:00-21:00, 12:00-18:00",,
LOS  3065 Outlet Shop of Blueg,3065,1155 Buckcreek Road,,Simpsonville,KY,40067,US,(502)722-5652,-85.3515397,38.2059821,"10:00-21:00, 10:00-21:00, 10:00-21:00, 10:00-21:00, 10:00-21:00, 10:00-21:00, 10:00-19:00",,
LOS  3010 Jeffersonville LOS,3010,8160 Factory Shops Blvd,,Jeffersonville,OH,43128,US,(740) 948-9201,-83.602551,39.619397,"09:00-21:00, 09:00-21:00, 09:00-21:00, 09:00-21:00, 09:00-21:00, 09:00-21:00, 10:00-19:00",,
LOS  3094 Evansville Pavillion,3094,6501 E. Lloyd Expressway,,Evansville,IN,47715,US,(812) 402-3000,-87.4722165,37.973437,"10:00-21:00, 10:00-21:00, 10:00-21:00, 10:00-21:00, 10:00-21:00, 10:00-21:00, 11:00-18:00",,
Penn Square Mall,1770,1901 NW Expressway,,Oklahoma City,OK,73118,US,(405) 842-8223,-97.5440106,35.5246909,"10:00-21:00, 10:00-21:00, 10:00-21:00, 10:00-21:00, 10:00-21:00, 10:00-21:00, 12:00-18:00",,
LOS  3011 Oklahoma City LOS,3011,7624 W. Reno Ave,,Oklahoma City,OK,73127,US,(405) 782-0761,-97.6482635,35.4623923,"10:00-21:00, 10:00-21:00, 10:00-21:00, 10:00-21:00, 10:00-21:00, 10:00-21:00, 10:00-20:00",,
Spring Creek Plaza,1454,1494 South Bryant Avenue,,Edmond,OK,73034,US,(405) 341-5572,-97.4595898,35.639622,"10:00-19:00, 10:00-19:00, 10:00-19:00, 10:00-19:00, 10:00-19:00, 10:00-19:00, 12:00-17:00",,
LOFT 1894 Brookhaven Village,1894,3720 W Robinson St,,Norman,OK,73072,US,(405)329-1518,-97.49582,35.2309065,"10:00-20:00, 10:00-20:00, 10:00-20:00, 10:00-20:00, 10:00-20:00, 10:00-20:00, 12:00-18:00",,
Utica Square,1657,1818 Utica Square,,Tulsa,OK,74114,US,(918) 742-0291,-95.9652886,36.1329185,"10:00-20:00, 10:00-20:00, 10:00-20:00, 10:00-20:00, 10:00-20:00, 10:00-20:00, 12:00-17:00",,
Woodland Hills,1611,7021 S. Memorial Drive,,Tulsa,OK,74133,US,(918) 250-1043,-95.8862806,36.061174,"10:00-21:00, 10:00-21:00, 10:00-21:00, 10:00-21:00, 10:00-21:00, 10:00-21:00, 12:00-19:00",,
The Mall at Lexington Green,1833,161 Lexington Green Circle,,Lexington,KY,40503,US,(859) 244-1902,-84.5246782,37.9944286,"10:00-20:00, 10:00-20:00, 10:00-20:00, 10:00-20:00, 10:00-20:00, 10:00-20:00, 12:00-18:00",,
Hamburg Village,981,2308 Sir Barton Way,,Lexington,KY,40509,US,(859) 263-9821,-84.421444,38.0239438,"10:00-21:00, 10:00-21:00, 10:00-21:00, 10:00-21:00, 10:00-21:00, 10:00-21:00, 12:00-18:00",,
Streets of Indian Lake,1643,300 Indian Lake Blvd,,Hendersonville,TN,37075,US,(615) 822-6896,-86.5971315,36.3229617,"10:00-21:00, 10:00-21:00, 10:00-21:00, 10:00-21:00, 10:00-21:00, 10:00-21:00, 11:00-18:00",,
LOS  2995 Lebanon Premium LOS,2995,One Outlet Village Blvd,,Lebanon,TN,37090,US,(615)444-1158,-86.3060547,36.1791283,"10:00-21:00, 10:00-21:00, 10:00-21:00, 10:00-21:00, 10:00-21:00, 10:00-21:00, 10:00-19:00",,
Lane Avenue Shopping,1324,1663 West Lane Avenue,,Upper Arlington,OH,43221,US,(614) 485-0712,-83.0548008,40.0072367,"10:00-21:00, 10:00-21:00, 10:00-21:00, 10:00-21:00, 10:00-21:00, 10:00-21:00, 12:00-17:00",,
Easton Town Center,1331,4175 The Strand,,Columbus,OH,43219,US,(614) 418-0362,-82.9156476,40.0538001,"10:00-21:00, 10:00-21:00, 10:00-21:00, 10:00-21:00, 10:00-21:00, 10:00-21:00, 12:00-18:00",,
Shops at River Ridge,1681,4315 W Dublin-Granville Rd,,Dublin,OH,43017,US,(614) 210-0215,-83.1052096,40.0993909,"10:00-20:00, 10:00-20:00, 10:00-20:00, 10:00-20:00, 10:00-20:00, 10:00-20:00, 12:00-18:00",,
Polaris Fashion Place,995,1500 Polaris Parkway,,Columbus,OH,43240,US,(614) 888-5573,-82.9789514,40.1414554,"10:00-21:00, 10:00-21:00, 10:00-21:00, 10:00-21:00, 10:00-21:30, 10:00-21:30, 12:00-18:00",,
Charleston Town Center,1411,3000 Charleston Town Center,,Charleston,WV,25389,US,(304) 342-4760,-81.6378934,38.353762,"10:00-21:00, 10:00-21:00, 10:00-21:00, 10:00-21:00, 10:00-21:00, 10:00-21:00, 12:30-18:00",,
LOS  2940 Pittsburgh OutletLOS,2940,2200 Tanger Blvd,,Washington,PA,15301,US,(724) 223-0891,-80.212716,40.2151538,"09:00-21:00, 09:00-21:00, 09:00-21:00, 09:00-21:00, 09:00-21:00, 09:00-21:00, 10:00-19:00",,
Bridgeport Village,1457,7209 SW Bridgeport Road,,Portland,OR,97224,US,(503) 620-4170,-122.7502028,45.3957302,"10:00-20:00, 10:00-20:00, 10:00-20:00, 10:00-20:00, 10:00-20:00, 10:00-20:00, 11:00-18:00",,
LOS  3016 Woodburn Premium Out,3016,1001 Arney Road,,Woodburn,OR,97071,US,(503) 981-1575,-122.8782898,45.1562098,"10:00-21:00, 10:00-21:00, 10:00-21:00, 10:00-21:00, 10:00-21:00, 10:00-21:00, 10:00-19:00",,
Keizer Station,1856,6355 Ulali Drive NE,,Keizer,OR,97303,US,(503)390-0382,-122.9979491,45.0112781,"10:00-20:00, 10:00-20:00, 10:00-20:00, 10:00-20:00, 10:00-20:00, 10:00-20:00, 11:00-18:00",,
LOS  2971 Lincoln City Outlets,2971,1500 SE DEVILS LAKE ROAD,,LINCOLN CITY,OR,97367,US,(541) 994-4346,-124.0105628,44.9587207,"10:00-20:00, 10:00-20:00, 10:00-20:00, 10:00-20:00, 10:00-20:00, 10:00-20:00, 10:00-18:00",,
Valley River Center,830,208 Valley River Center,,Eugene,OR,97401,US,(541) 343-1560,-123.108119,44.0693893,"10:00-21:00, 10:00-21:00, 10:00-21:00, 10:00-21:00, 10:00-21:00, 10:00-21:00, 11:00-19:00",,
Fox River Mall,1824,4301 West Wisconsin Ave,,Appleton,WI,54913,US,(920) 831-0142,-88.4700678,44.2696721,"10:00-21:00, 10:00-21:00, 10:00-21:00, 10:00-21:00, 10:00-21:00, 10:00-21:00, 10:00-18:00",,
Bay Park Square,1836,303 Bay Park Square,,Green Bay,WI,54304,US,920-405-3620,-88.0659939,44.4838209,"10:00-21:00, 10:00-21:00, 10:00-21:00, 10:00-21:00, 10:00-21:00, 10:00-21:00, 11:00-18:00",,
LOS  3024 Outlets at the Dells,3024,210 N. Gasser Road,,Wisconsin Dells,WI,53965,US,(608) 253-1676,-89.7860987,43.5731806,"09:00-21:00, 09:00-21:00, 09:00-21:00, 09:00-21:00, 09:00-21:00, 09:00-21:00, 10:00-19:00",,
North Town Plaza,1491,5901 North Wyoming Blvd,,Albuquerque,NM,87109,US,(505) 797-0263,-106.5560463,35.1470014,"10:00-18:00, 10:00-20:00, 10:00-20:00, 10:00-20:00, 10:00-20:00, 10:00-20:00, 12:00-18:00",,
LOS  3063 Fashion Outlets Sant,3063,8380 Cerrillos Road,,Santa Fe,NM,87507,US,(505)474-1463,-106.032173,35.6112688,"10:00-19:00, 10:00-19:00, 10:00-19:00, 10:00-19:00, 10:00-19:00, 10:00-19:00, 11:00-18:00",,
Southpark Mall,1371,4400 Sharon Road,,Charlotte,NC,28211,US,(704) 366-8827,-80.8321252,35.1523851,"10:00-21:00, 10:00-21:00, 10:00-21:00, 10:00-21:00, 10:00-21:00, 10:00-21:00, 12:30-18:00",,
LOS  3070 Charlotte Premium Ou,3070,5512 New Fashion Way,,Charlotte,NC,28278,US,(704)583-5694,-80.9709951,35.1694858,"10:00-21:00, 10:00-21:00, 10:00-21:00, 10:00-21:00, 10:00-21:00, 10:00-21:00, 10:00-19:00",,
Northlake Mall,1502,6801 Northlake Mall Drive,,Charlotte,NC,28216,US,(704) 596-3195,-80.8512232,35.3521388,"10:00-21:00, 10:00-21:00, 10:00-21:00, 10:00-21:00, 10:00-21:00, 10:00-21:00, 12:00-18:00",,
LOS  2942 Concord Mills LOS,2942,8111 CONCORD MILLS BLVD,,CONCORD,NC,28027,US,(704) 979-6616,-80.7222273,35.3689981,"10:00-21:00, 10:00-21:00, 10:00-21:00, 10:00-21:00, 10:00-21:00, 10:00-21:00, 12:00-19:00",,
Promenade at Providence,1368,5341 Ballantyne Commons Pkw,,Charlotte,NC,28277,US,(704) 321-2404,-80.7723511,35.063161,"10:00-21:00, 10:00-21:00, 10:00-21:00, 10:00-21:00, 10:00-21:00, 10:00-21:00, 12:00-18:00",,
Blakeney Shop Center,1760,9816 Rea Road,,Charlotte,NC,28277,US,(704) 541-0500,-80.80612,35.0353086,"10:00-20:00, 10:00-20:00, 10:00-20:00, 10:00-20:00, 10:00-20:00, 10:00-20:00, 12:00-18:00",,
Birkdale Village,667,16745 Birkdale Commons Pkw,,Huntersville,NC,28078,US,(704) 896-6300,-80.8816549,35.4449507,"10:00-21:00, 10:00-21:00, 10:00-21:00, 10:00-21:00, 10:00-21:00, 10:00-21:00, 12:00-18:00",,
LOS  2994 Gaffney Premium LOS,2994,1 FACTORY SHOPS BLVD,,GAFFNEY,SC,29341,US,(864)489-0888,-81.7119413,35.0817622,"10:00-21:00, 10:00-21:00, 10:00-21:00, 10:00-21:00, 10:00-21:00, 10:00-21:00, 10:00-19:00",,
Thruway Shopping Center,1396,416 South Stratford Road,,Winston Salem,NC,27103,US,(336) 722-5612,-80.2837436,36.0909545,"10:00-20:00, 10:00-20:00, 10:00-20:00, 10:00-20:00, 10:00-20:00, 10:00-18:00, 13:00-17:00",,
The Village at Sandhill,1442,470 Town Center Place,,Columbia,SC,29229,US,(803) 419-4202,-80.8793814,34.1296771,"10:00-21:00, 10:00-21:00, 10:00-21:00, 10:00-21:00, 10:00-21:00, 10:00-21:00, 12:00-18:00",,
LOS  2976 Blowing Rock LOS,2976,278 SHOPPES ON THE PARKWAY RD,,BLOWING ROCK,NC,28605,US,(828) 295-3201,-81.6720128,36.1417188,"09:00-21:00, 09:00-21:00, 09:00-21:00, 09:00-21:00, 09:00-21:00, 09:00-21:00, 10:00-19:00",,
Columbiana Centre,965,100 Columbiana Circle,,Columbia,SC,29212,US,(803) 407-7019,-81.1586677,34.0783578,"10:00-21:00, 10:00-21:00, 10:00-21:00, 10:00-21:00, 10:00-21:00, 10:00-21:00, 12:00-18:00",,
Friendly Center,825,629 Friendly Center Road,,Greensboro,NC,27408,US,(336) 632-1199,-79.8314405,36.0836513,"10:00-21:00, 10:00-21:00, 10:00-21:00, 10:00-21:00, 10:00-21:00, 10:00-21:00, 13:00-18:00",,
Trenholm Plaza,1800,4840 Forest Drive,,Columbia,SC,29206,US,(803)790-2186,-80.9637382,34.0174184,"10:00-21:00, 10:00-21:00, 10:00-21:00, 10:00-21:00, 10:00-21:00, 10:00-21:00, 12:00-18:00",,
Shops at Greenridge,1529,1125 Woodruff Road,,Greenville,SC,29607,US,(864) 329-0500,-82.2983502,34.8284965,"10:00-21:00, 10:00-21:00, 10:00-21:00, 10:00-21:00, 10:00-21:00, 10:00-21:00, 12:00-18:00",,
Alamance Crossing,1630,3172 Waltham Blvd,,Burlington,NC,27215,US,(336) 584-6045,-79.5091318,36.0696135,"10:00-21:00, 10:00-21:00, 10:00-21:00, 10:00-21:00, 10:00-21:00, 10:00-21:00, 12:00-18:00",,
Biltmore Park Town Square,1841,1 Town Square Blvd,,Asheville,NC,28803,US,(828)654-9539,-82.556296,35.4840202,"10:00-21:00, 10:00-21:00, 10:00-21:00, 10:00-21:00, 10:00-21:00, 10:00-21:00, 12:00-18:00",,
LOS  2927 Mebane LOS,2927,4000 ARROWHEAD BLVD,,MEBANE,NC,27302,US,(919) 304-1571,-79.2660193,36.074507,"09:00-21:00, 09:00-21:00, 09:00-21:00, 09:00-21:00, 09:00-21:00, 09:00-21:00, 10:00-19:00",,
Cross Creek Mall,1859,715 Cross Creek Mall,,Fayetteville,NC,28303,US,(910)868-2066,-78.96076,35.070943,"10:00-21:00, 10:00-21:00, 10:00-21:00, 10:00-21:00, 10:00-21:00, 10:00-21:00, 10:00-18:00",,
The Streets at Southpoint,685,6910 Fayetteville Road,,Durham,NC,27713,US,(919) 484-8224,-78.9431065,35.9034513,"10:00-21:00, 10:00-21:00, 10:00-21:00, 10:00-21:00, 10:00-21:00, 10:00-21:00, 12:00-19:00",,
LOFT 1902 Park West Village,1902,3002 Village Market Place,,Morrisville,NC,27560,US,(919) 388-2582,-78.8160317,35.8069084,"10:00-21:00, 10:00-21:00, 10:00-21:00, 10:00-21:00, 10:00-21:00, 10:00-21:00, 12:00-18:00",,
LOS  3090 Tower Shopps at Pinn,3090,546 Pinnacle Parkway,,Bristol,TN,37620,US,(423) 652-0605,-82.2588004,36.5937658,"10:00-21:00, 10:00-21:00, 10:00-21:00, 10:00-21:00, 10:00-21:00, 10:00-21:00, 12:00-18:00",,
Crabtree Valley Mall,1496,4325 Glenwood Avenue,,Raleigh,NC,27612,US,(919) 787-0433,-78.6758944,35.8377024,"10:00-21:00, 10:00-21:00, 10:00-21:00, 10:00-21:00, 10:00-21:00, 10:00-21:00, 12:00-19:00",,
Lou&Grey North Hills,4504,4151 Main at North Hills,,RALEIGH,NC,27609,US,(919)786-6884,-78.6432122,35.8372097,"10:00-20:00, 10:00-20:00, 10:00-20:00, 10:00-20:00, 10:00-20:00, 10:00-20:00, 12:00-18:00",,
Triangle Town Center,661,5959 Triangle Town Blvd,,Raleigh,NC,27616,US,(919) 792-2353,-78.5740719,35.8668232,"10:00-21:00, 10:00-21:00, 10:00-21:00, 10:00-21:00, 10:00-21:00, 10:00-21:00, 12:00-18:00",,
First and Main,1682,1520 South Main Street,,Blacksburg,VA,24060,US,(540) 552-4356,-80.4013332,37.2133149,"10:00-19:00, 10:00-19:00, 10:00-19:00, 10:00-19:00, 10:00-19:00, 10:00-19:00, 12:00-18:00",,
Augusta Mall,1658,3450 Wrightsboro Road,,Augusta,GA,30909,US,(706) 481-1994,-82.0788358,33.4635508,"10:00-21:00, 10:00-21:00, 10:00-21:00, 10:00-21:00, 10:00-21:00, 10:00-21:00, 12:00-18:00",,
LOS  2930 Carolina Prem  LOS,2930,1025 Outlet Center Drive,,Smithfield,NC,27577,US,(919) 209-0230,-78.3124918,35.5106201,"09:00-21:00, 09:00-21:00, 09:00-21:00, 09:00-21:00, 09:00-21:00, 09:00-21:00, 11:00-19:00",,
LOS  3062 Myrtle Beach 501,3062,4635 Factory  Stores Boulevard,,Myrtle Beach,SC,29579,US,(843)903-2735,-78.9590609,33.7509755,"09:00-21:00, 09:00-21:00, 09:00-21:00, 09:00-21:00, 09:00-21:00, 09:00-21:00, 10:00-19:00",,
LOS  2959 Tulare Outlet Center,2959,1477 RETHERFORD ST,,TULARE,CA,93274,US,(559) 685-1066,-119.3354264,36.2313563,"10:00-21:00, 10:00-21:00, 10:00-21:00, 10:00-21:00, 10:00-21:00, 10:00-21:00, 10:00-19:00",,
SUMMIT SIERRA,1880,13925 South Virginia Street,,Reno,NV,89511,US,(775) 851-9518,-119.7508927,39.404391,"10:00-21:00, 10:00-21:00, 10:00-21:00, 10:00-21:00, 10:00-21:00, 10:00-21:00, 11:00-18:00",,
LOS  3095 Legends@SparksMarina,3095,1310 Scheels Drive,,Sparks,NV,89434,US,(775) 358-1378,-119.7205299,39.5309981,"10:00-21:00, 10:00-21:00, 10:00-21:00, 10:00-21:00, 10:00-21:00, 10:00-21:00, 10:00-18:00",,
Zona Rosa,1391,7307 NW 86th Terrace,,Kansas City,MO,64153,US,(816) 746-5275,-94.6646306,39.2506207,"10:00-21:00, 10:00-21:00, 10:00-21:00, 10:00-21:00, 10:00-21:00, 10:00-21:00, 12:00-18:00",,
Oak Park Mall,1710,11153 West 95th Street,,Overland Park,KS,66214,US,(913) 307-0215,-94.7157273,38.9564739,"10:00-21:00, 10:00-21:00, 10:00-21:00, 10:00-21:00, 10:00-21:00, 10:00-21:00, 11:00-18:00",,
Leawood Town Center,1458,5017 West 117th Street,,Leawood,KS,66211,US,(913) 661-0641,-94.6428916,38.9170412,"10:00-21:00, 10:00-21:00, 10:00-21:00, 10:00-21:00, 10:00-21:00, 10:00-21:00, 12:00-17:00",,
LOS  2939 Legends @ Village We,2939,1803 Village West Pkwy,,Kansas City,KS,66111,US,(913) 299-1174,-94.8248335,39.1238764,"10:00-21:00, 10:00-21:00, 10:00-21:00, 10:00-21:00, 10:00-21:00, 10:00-21:00, 11:00-18:00",,
Summit Fair,1852,860 NW Blue Pkwy,,Lees Summit,MO,64086,US,(816)-246-2029,-94.4020488,38.9302003,"10:00-21:00, 10:00-21:00, 10:00-21:00, 10:00-21:00, 10:00-21:00, 10:00-21:00, 12:00-18:00",,
Columbia Mall,1429,2300 Bernadette Drive,,Columbia,MO,65203,US,(573) 445-4008,-92.3755181,38.9638391,"10:00-21:00, 10:00-21:00, 10:00-21:00, 10:00-21:00, 10:00-21:00, 10:00-21:00, 11:00-18:00",,
LOS  2949 Osage Beach LOS,2949,4540 Highway 54,,Osage Beach,MO,65065,US,(573) 348-2206,-92.6397365,38.1364693,"10:00-21:00, 10:00-21:00, 10:00-21:00, 10:00-21:00, 09:00-21:00, 09:00-21:00, 09:00-19:00",,
The Gulch,1877,412 11th Avenue South,,Nashville,TN,37203,US,(615) 780-9181,-86.7838864,36.1534476,"10:00-20:00, 10:00-20:00, 10:00-20:00, 10:00-20:00, 10:00-21:00, 10:00-21:00, 12:00-18:00",,
Mall at Green Hills,1410,2126 Abbot Martin Road,,Nashville,TN,37215,US,(615) 269-5026,-86.8133432,36.1085772,"10:00-21:00, 10:00-21:00, 10:00-21:00, 10:00-21:00, 10:00-21:00, 10:00-21:00, 12:00-18:00",,
LOS  2945 Opry Mills LOS,2945,207 Opry Mills Circle,,NASHVILLE,TN,37214,US,(615) 514-3755,-86.6951283,36.2044175,"10:00-21:00, 10:00-21:00, 10:00-21:00, 10:00-21:00, 10:00-21:00, 10:00-21:00, 10:00-19:00",,
Thoroughbred Village,1420,545 Cool Springs Blvd,,Franklin,TN,37067,US,(615) 778-0649,-86.8229815,35.9486902,"10:00-21:00, 10:00-21:00, 10:00-21:00, 10:00-21:00, 10:00-21:00, 10:00-21:00, 12:00-18:00",,
The Avenue Murfreesboro,1640,2615 Medical Center Parkway,,Murfreesboro,TN,37129,US,(615) 907-9797,-86.44642,35.8627976,"10:00-21:00, 10:00-21:00, 10:00-21:00, 10:00-21:00, 10:00-21:00, 10:00-21:00, 12:00-18:00",,
Bridge Street Town Center,1556,355 The Bridge Street NW,,Huntsville,AL,35806,US,(256)  327-8300,-86.6739427,34.7177287,"10:00-21:00, 10:00-21:00, 10:00-21:00, 10:00-21:00, 10:00-22:00, 10:00-22:00, 11:00-20:00",,
Hamilton Corner,1481,2115 Gunbarrel Road,,Chattanooga,TN,37421,US,(423) 855-3203,-85.1544385,35.0338546,"10:00-21:00, 10:00-21:00, 10:00-21:00, 10:00-21:00, 10:00-21:00, 10:00-21:00, 12:00-18:00",,
The Pinnacle at Turkey Creek,1490,11285 Parkside Drive,,Knoxville,TN,37934,US,(865) 966-9650,-84.1577631,35.9020289,"10:00-21:00, 10:00-21:00, 10:00-21:00, 10:00-21:00, 10:00-21:00, 10:00-21:00, 12:00-18:00",,
Regency Court,1348,120 Regency Parkway,,Omaha,NE,68114,US,(402) 391-1780,-96.0715448,41.2594147,"10:00-20:00, 10:00-20:00, 10:00-20:00, 10:00-20:00, 10:00-20:00, 10:00-18:00, 12:00-17:00",,
Shadow Lake Town Center,1680,7640 Towne Center Parkway,,Papillion,NE,68046,US,(402) 339-1288,-96.02874,41.1347,"10:00-21:00, 10:00-21:00, 10:00-21:00, 10:00-21:00, 10:00-21:00, 10:00-21:00, 12:00-18:00",,
Village Pointe Shopping Ctr,1464,17151 Davenport Street,,Omaha,NE,68118,US,(402) 289-1932,-96.183306,41.2605752,"10:00-21:00, 10:00-21:00, 10:00-21:00, 10:00-21:00, 10:00-21:00, 10:00-21:00, 12:00-18:00",,
LOS  3060 Nebraska Crossing,3060,21317 Nebraska Crossing Drive,,Gretna,NE,68028,US,(402)332-5453,-96.2494832,41.0987222,"10:00-21:00, 10:00-21:00, 10:00-21:00, 10:00-21:00, 10:00-21:00, 10:00-21:00, 11:00-18:00",,
Jordan Creek Town Center,1398,101 74th Street,,West Des Moines,IA,50266,US,(515) 223-1359,-93.8045485,41.5694494,"10:00-21:00, 10:00-21:00, 10:00-21:00, 10:00-21:00, 10:00-21:00, 10:00-21:00, 11:00-18:00",,
Lynndale Shoppes,1528,505 Red Banks Road,,Greenville,NC,27858,US,(252) 321-0620,-77.3723415,35.5817873,"10:00-18:00, 10:00-18:00, 10:00-18:00, 10:00-20:00, 10:00-18:00, 10:00-18:00, 12:00-18:00",,
Independence Mall,939,3500 Oleander Drive,,Wilmington,NC,28403,US,(910) 799-3886,-77.9057715,34.2130425,"10:00-21:00, 10:00-21:00, 10:00-21:00, 10:00-21:00, 10:00-21:00, 10:00-21:00, 11:00-18:00",,
Boonsboro Shopping Center,1849,4925 Boonsboro Rd,,Lynchburg,VA,24503,US,(434)384-7065,-79.2178296,37.4464417,"10:00-20:00, 10:00-20:00, 10:00-20:00, 10:00-20:00, 10:00-20:00, 10:00-20:00, 12:00-18:00",,
Valley View Mall,676,4802 Valley View Road,,Roanoke,VA,24012,US,(540) 265-0096,-79.964281,37.30403,"10:00-21:00, 10:00-21:00, 10:00-21:00, 10:00-21:00, 10:00-21:00, 10:00-21:00, 12:00-18:00",,
LOS  2914 Myrtle Beach LOS,2914,10823 KINGS RD,,MYRTLE BEACH,SC,29572,US,(843) 839-1853,-78.7703555,33.7847627,"09:00-21:00, 09:00-21:00, 09:00-21:00, 09:00-21:00, 09:00-21:00, 09:00-21:00, 10:00-19:00",,
Coastal Grand,1388,2000 Coastal Grand Circle,,Myrtle Beach,SC,29577,US,(843) 839-2934,-78.9234533,33.7036255,"10:00-21:00, 10:00-21:00, 10:00-21:00, 10:00-21:00, 10:00-21:00, 10:00-21:00, 12:00-18:00",,
New Town Shops,1558,5112 Main Street,,Williamsburg,VA,23188,US,(757) 564-3747,-76.7405035,37.2777441,"10:00-20:00, 10:00-20:00, 10:00-20:00, 10:00-20:00, 10:00-21:00, 10:00-21:00, 12:00-18:00",,
LOS  3028 Las Vegas Prem Outle,3028,775 Grand Central Parkway,,Las Vegas,NV,89106,US,(702)471-0076,-115.1579491,36.1644639,"09:00-21:00, 09:00-21:00, 09:00-21:00, 09:00-21:00, 09:00-21:00, 09:00-21:00, 09:00-20:00",,
Miracle Mile Shops,814,3663 Las Vegas Blvd South,,Las Vegas,NV,89109,US,(702) 732-3348,-115.1714113,36.1107901,"10:00-23:00, 10:00-23:00, 10:00-23:00, 10:00-23:00, 10:00-00:00, 10:00-00:00, 10:00-23:00",,
LOS  2952 Las Vegas LOS South,2952,7400 LAS VEGAS BLVD SOUTH,,LAS VEGAS,NV,89123,US,(702) 437-0300,-115.1690207,36.052392,"09:00-21:00, 09:00-21:00, 09:00-21:00, 09:00-21:00, 09:00-21:00, 09:00-21:00, 09:00-20:00",,
Green Valley Ranch,1394,2235 Village Walk Drive,,Henderson,NV,89052,US,(702) 207-6718,-115.0860689,36.0211746,"10:00-21:00, 10:00-21:00, 10:00-21:00, 10:00-21:00, 10:00-21:00, 10:00-21:00, 11:00-18:00",,
LOFT 1871 Downtown Summerlin,1871,2010 Festival Plaza Drive,,LAS VEGAS,NV,89135,US,(702) 243-1839,-115.333188,36.149159,"10:00-21:00, 10:00-21:00, 10:00-21:00, 10:00-21:00, 10:00-21:00, 10:00-21:00, 11:00-19:00",,
Lynnhaven Mall,1855,701 Lynnhaven Parkway,,Virginia Beach,VA,23452,US,757-631-8888,-76.0708276,36.8165135,"10:00-21:00, 10:00-21:00, 10:00-21:00, 10:00-21:00, 10:00-21:00, 10:00-21:00, 11:00-18:00",,
Town Ctr of Virginia Beach,1439,221 Central Park Avenue,,Virginia Beach,VA,23462,US,(757) 473-9105,-76.1346063,36.8424101,"10:00-20:00, 10:00-20:00, 10:00-20:00, 10:00-20:00, 10:00-20:00, 10:00-20:00, 12:00-18:00",,
MacArthur Center,1761,300 Monticello Ave,,Norfolk,VA,23510,US,(757) 622-4434,-76.2879503,36.8489027,"10:00-21:00, 10:00-21:00, 10:00-21:00, 10:00-21:00, 10:00-21:00, 10:00-21:00, 12:00-18:00",,
Peninsula Town Center,1807,1670 Merchant Drive,,Hampton,VA,23666,US,(757) 896-8945,-76.3943017,37.0447895,"10:00-20:00, 10:00-20:00, 10:00-20:00, 10:00-20:00, 10:00-21:00, 10:00-21:00, 12:00-18:00",,
City Center at Oyster Point,1476,702 Mariner's Row,,Newport News,VA,23606,US,(757) 596-6290,-76.4737741,37.0856501,"10:00-20:00, 10:00-20:00, 10:00-20:00, 10:00-20:00, 10:00-20:00, 10:00-20:00, 12:00-18:00",,
Dadeland Mall,1637,7415 Southwest 88th Street,,Miami,FL,33156,US,(305)661-0777,-80.313507,25.6887295,"10:00-21:30, 10:00-21:30, 10:00-21:30, 10:00-21:30, 10:00-21:30, 10:00-21:30, 12:00-19:00",,
LOS  2917 Dolphin Mall LOS,2917,11401 NW 12TH ST,,MIAMI,FL,33172,US,(305) 715-7174,-80.379796,25.7829667,"09:30-21:30, 09:30-21:30, 09:30-21:30, 09:30-21:30, 09:30-21:30, 09:30-21:30, 11:00-20:00",,
Kendall Village,970,8717 Southwest 124th Avenue,,Miami,FL,33183,US,(305) 271-1304,-80.3929596,25.6874589,"10:00-21:00, 10:00-21:00, 10:00-21:00, 10:00-21:00, 10:00-21:00, 10:00-21:00, 11:00-18:00",,
Aventura Mall,1839,19575 Biscayne Blvd,,Aventura,FL,33180,US,(305) 935-1274,-80.1467957,25.9574298,"10:00-21:30, 10:00-21:30, 10:00-21:30, 10:00-21:30, 10:00-21:30, 10:00-21:30, 12:00-20:00",,
Shops at Pembroke Gardens,1663,430 SW 145th Terrace,,Pembroke Pines,FL,33027,US,(954) 392-3983,-80.3372103,26.004439,"10:00-21:00, 10:00-21:00, 10:00-21:00, 10:00-21:00, 10:00-21:00, 10:00-21:00, 11:00-19:00",,
Broward Mall,1323,8000 West Broward Blvd,,Plantation,FL,33388,US,(954) 474-0629,-80.2548521,26.1195218,"10:00-21:00, 10:00-21:00, 10:00-21:00, 10:00-21:00, 10:00-21:00, 10:00-21:00, 11:00-18:00",,
Town Center at Boca Raton,1337,6000 West Glades Road,,Boca Raton,FL,33431,US,(561) 395-7365,-80.1343467,26.3659017,"10:00-21:00, 10:00-21:00, 10:00-21:00, 10:00-21:00, 10:00-21:00, 10:00-21:00, 12:00-18:00",,
Delray Marketplace,1874,9173 Atlantic Avenue,,Delray Beach,FL,33446,US,(561)499-2183,-80.1893212,26.4538949,"10:00-21:00, 10:00-21:00, 10:00-21:00, 10:00-21:00, 10:00-21:00, 10:00-21:00, 12:00-18:00",,
Wellington Green,1470,10300 West Forest Hill Blvd,,Wellington,FL,33414,US,(561) 753-0975,-80.2084654,26.646333,"10:00-21:00, 10:00-21:00, 10:00-21:00, 10:00-21:00, 10:00-21:00, 10:00-21:00, 11:00-18:00",,
LOS  3022 Palm Beach Outlets,3022,1781 Palm Beach Lakes Blvd,,West Palm Beach,FL,33401,US,(561) 688-9861,-80.0878268,26.725188,"10:00-21:00, 10:00-21:00, 10:00-21:00, 10:00-21:00, 10:00-21:00, 10:00-21:00, 11:00-19:00",,
The Gardens Mall,672,3101 PGA Blvd,,Palm Beach Gardens,FL,33410,US,(561) 691-9599,-80.0853836,26.8473981,"10:00-21:00, 10:00-21:00, 10:00-21:00, 10:00-21:00, 10:00-21:00, 10:00-21:00, 12:00-18:00",,
LOS  2964 Naples LOS,2964,6040 COLLIER BLVD,,NAPLES,FL,34114,US,(239)417-0813,-81.6995417,26.0422903,"10:00-20:00, 10:00-20:00, 10:00-20:00, 10:00-20:00, 10:00-20:00, 10:00-20:00, 11:00-18:00",,
LOS  3064 Miromar Outlets,3064,10801 Corkscrew Road,,Estero,FL,33928,US,(239)495-3185,-81.7730018,26.4377473,"10:00-21:00, 10:00-21:00, 10:00-21:00, 10:00-21:00, 10:00-21:00, 10:00-21:00, 10:00-18:00",,
Coconut Point,1566,23190 Fashion Drive,,Estero,FL,33928,US,(239) 498-1540,-81.8072631,26.4004262,"10:00-21:00, 10:00-21:00, 10:00-21:00, 10:00-21:00, 10:00-21:00, 10:00-21:00, 12:00-18:00",,
Sanibel LOS,2980,20350 Summerlin Rd,,FORT MYERS,FL,33908,US,(239) 225-0019,-81.9721306,26.4947004,"09:00-21:00, 09:00-21:00, 09:00-21:00, 09:00-21:00, 09:00-21:00, 09:00-21:00, 10:00-18:00",,
LOS  3012 Vero Beach LOS,3012,1785 94th Drive,,Vero Beach,FL,32966,US,772-569-4949,-80.5224577,27.6378916,"09:00-20:00, 09:00-20:00, 09:00-20:00, 09:00-20:00, 09:00-20:00, 09:00-20:00, 11:00-18:00",,
Plaza at Rosedale Center,1586,808 Rosedale Center,,Roseville,MN,55113,US,(651) 633-6044,-93.1690317,45.0136666,"10:00-21:00, 10:00-21:00, 10:00-21:00, 10:00-21:00, 10:00-21:00, 10:00-21:00, 11:00-18:00",,
Grand Avenue,1825,791 Grand Avenue,,Saint Paul,MN,55105,US,(651) 225-2994,-93.1333812,44.9402645,"10:00-20:00, 10:00-20:00, 10:00-20:00, 10:00-20:00, 10:00-20:00, 10:00-20:00, 11:00-18:00",,
Southdale Center,1764,1150 Southdale Center,,Edina,MN,55435,US,(952) 922-9753,-93.325078,44.881194,"10:00-21:00, 10:00-21:00, 10:00-21:00, 10:00-21:00, 10:00-21:00, 10:00-21:00, 11:00-18:00",,
Ridgedale Center,1598,12617 Wayzata Blvd,,Minnetonka,MN,55305,US,(952) 544-0630,-93.4397341,44.9712657,"10:00-21:00, 10:00-21:00, 10:00-21:00, 10:00-21:00, 10:00-21:00, 10:00-21:00, 11:00-18:00",,
Mall of America,949,60 East Broadway,,Bloomington,MN,55425,US,(952) 854-2323,-93.2401046,44.8544766,"10:00-21:30, 10:00-21:30, 10:00-21:30, 10:00-21:30, 10:00-21:30, 10:00-21:30, 11:00-19:00",,
LOS  3080 Twin Cities Outlets,3080,3965 Eagan Outlets Parkway,,Eagan,MN,55122,US,(651)686-0773,-93.2156262,44.8149882,"10:00-21:00, 10:00-21:00, 10:00-21:00, 10:00-21:00, 10:00-21:00, 10:00-21:00, 10:00-19:00",,
Eden Prairie Center,895,1018 Eden Prairie Center,,Eden Prairie,MN,55344,US,(952) 914-0111,-93.42476,44.854723,"10:00-21:00, 10:00-21:00, 10:00-21:00, 10:00-21:00, 10:00-21:00, 10:00-21:00, 10:00-19:00",,
Arbor Lakes,967,7881 Main Street North,,Maple Grove,MN,55369,US,(763) 416-7710,-93.441912,45.0980207,"10:00-20:00, 10:00-20:00, 10:00-20:00, 10:00-20:00, 10:00-20:00, 10:00-18:00, 12:00-17:00",,
Woodbury Lakes Center,1478,9120 Hudson Street,,Woodbury,MN,55125,US,(651) 735-9415,-92.9243294,44.9473571,"10:00-21:00, 10:00-21:00, 10:00-21:00, 10:00-21:00, 10:00-21:00, 10:00-21:00, 11:00-18:00",,
Albertville LOS,2953,6500 Labeaux Avenue Ne,,Albertville,MN,55301,US,(763)497-0591,-93.6624798,45.2445393,"10:00-21:00, 10:00-21:00, 10:00-21:00, 10:00-21:00, 10:00-21:00, 10:00-21:00, 10:00-19:00",,
Pinnacle Hills Prome,1567,2203 South Promenade Blvd,,Rogers,AR,72758,US,(479) 631-0162,-94.1745594,36.3046614,"10:00-21:00, 10:00-21:00, 10:00-21:00, 10:00-21:00, 10:00-21:00, 10:00-21:00, 12:00-18:00",,
Bradley Fair,1873,2000 North Rock Road,,Wichita,KS,67206,US,(316)315-0104,-97.2427623,37.7172777,"10:00-21:00, 10:00-21:00, 10:00-21:00, 10:00-21:00, 10:00-21:00, 10:00-21:00, 12:00-18:00",,
Atlantic Station,1507,260 18th Street,,ATLANTA,GA,30363,US,(404) 249-9180,-84.396858,33.792165,"10:00-21:00, 10:00-21:00, 10:00-21:00, 10:00-21:00, 10:00-21:00, 10:00-21:00, 12:00-18:00",,
Emory Point,1823,1823 Emory Point Drive,,Atlanta,GA,30329,US,(404) 329- 7878,-84.3285816,33.8021411,"10:00-20:00, 10:00-20:00, 10:00-20:00, 10:00-20:00, 10:00-20:00, 10:00-20:00, 12:00-18:00",,
Lenox Square,1810,3393 Peachtree Road NE,,Atlanta,GA,30326,US,(404)841-0228,-84.3619696,33.8475546,"10:00-21:00, 10:00-21:00, 10:00-21:00, 10:00-21:00, 10:00-21:00, 10:00-21:00, 11:00-19:00",,
Vinings Jubilee,1311,4300 Paces Ferry Road,,ATLANTA,GA,30339,US,(770) 319-5638,-84.4669417,33.8654092,"10:00-20:00, 10:00-20:00, 10:00-20:00, 10:00-20:00, 10:00-20:00, 10:00-20:00, 12:00-18:00",,
Perimeter Mall,1456,4400 Ashford Dunwoody Road,,ATLANTA,GA,30346,US,(770) 604-3367,-84.3400292,33.9232565,"10:00-21:00, 10:00-21:00, 10:00-21:00, 10:00-21:00, 10:00-21:00, 10:00-21:00, 12:00-19:00",,
Avenue at East Cobb,1482,4475 Roswell Road,,Marietta,GA,30062,US,(678) 560-2051,-84.4210507,33.9870586,"10:00-21:00, 10:00-21:00, 10:00-21:00, 10:00-21:00, 10:00-21:00, 10:00-21:00, 12:00-18:00",,
Forum on Peachtree Parkway,963,5145 Peachtree Parkway,,Norcross,GA,30092,US,(770) 446-7896,-84.2164277,33.9815796,"10:00-21:00, 10:00-21:00, 10:00-21:00, 10:00-21:00, 10:00-21:00, 10:00-21:00, 12:00-18:00",,
Avenue at West Cobb,1356,3625 Dallas Highway,,MARIETTA,GA,30064,US,(770) 419-0256,-84.6558324,33.9523613,"10:00-21:00, 10:00-21:00, 10:00-21:00, 10:00-21:00, 10:00-21:00, 10:00-21:00, 10:00-18:00",,
Northpointe Village,1792,7300 Northpointe Parkway,,Alpharetta,GA,30022,US,(678)393-5130,-84.3019316,34.0420108,"10:00-21:00, 10:00-21:00, 10:00-21:00, 10:00-21:00, 10:00-21:00, 10:00-21:00, 12:00-19:00",,
Lou & Grey Avalon,4502,2800 Old Milton Parkway,,Alpharetta,GA,30009,US,(678)248-5542,-84.27843,34.0694706,"10:00-20:00, 10:00-20:00, 10:00-20:00, 10:00-20:00, 10:00-20:00, 10:00-20:00, 12:00-18:00",,
The Avenue Webb Gin,1578,1350 Scenic Highway,,SNELLVILLE,GA,30078,US,(770) 979-0121,-84.004422,33.8994825,"10:00-21:00, 10:00-21:00, 10:00-21:00, 10:00-21:00, 10:00-21:00, 10:00-21:00, 12:00-18:00",,
LOS  3018 Shoppes at Atlanta L,3018,915 Ridge Walk Parkway,,Woodstock,GA,30188,US,(678)445-9760,-84.5264395,34.1202008,"10:00-21:00, 10:00-21:00, 10:00-21:00, 10:00-21:00, 10:00-21:00, 10:00-21:00, 11:00-19:00",,
The Avenue at Peachtree City,892,216 City Circle,,Peachtree City,GA,30269,US,(770) 632-5491,-84.59149,33.3944456,"10:00-21:00, 10:00-21:00, 10:00-21:00, 10:00-21:00, 10:00-21:00, 10:00-21:00, 12:00-18:00",,
The Avenue Forsyth,1677,410 Peachtree Parkway,,Cumming,GA,30041,US,(770) 205-9550,-84.17659,34.154432,"10:00-21:00, 10:00-21:00, 10:00-21:00, 10:00-21:00, 10:00-21:00, 10:00-21:00, 12:00-18:00",,
LOS  2973 Locust Grove LOS,2973,1000 TANGER DR,,LOCUST GROVE,GA,30248,US,(770) 898-5188,-84.1223333,33.3483423,"09:00-21:00, 09:00-21:00, 09:00-21:00, 09:00-21:00, 09:00-21:00, 09:00-21:00, 10:00-19:00",,
Mall of Georgia,1596,3333 Buford Drive,,Buford,GA,30519,US,(678) 889-4157,-83.982806,34.0642697,"10:00-21:00, 10:00-21:00, 10:00-21:00, 10:00-21:00, 10:00-21:00, 10:00-21:00, 12:00-18:00",,
Ashley Park,1840,398 Newnan Crossing Bypass,,Newnan,GA,30265,US,(770) 253-7645,-84.7649002,33.3873683,"10:00-21:00, 10:00-21:00, 10:00-21:00, 10:00-21:00, 10:00-21:00, 10:00-21:00, 12:00-18:00",,
LOS  2912 N. Georgia Prem LOS,2912,800 HWY 400 SOUTH,,DAWSONVILLE,GA,30534,US,(706) 216-2438,-84.0479479,34.3578143,"10:00-21:00, 10:00-21:00, 10:00-21:00, 10:00-21:00, 10:00-21:00, 10:00-21:00, 11:00-19:00",,
LOS  2965 Calhoun LOS,2965,455 BELWOOD RD SE,,CALHOUN,GA,30701,US,(706) 624-2853,-84.9143111,34.4491297,"10:00-21:00, 10:00-21:00, 10:00-21:00, 10:00-21:00, 10:00-21:00, 10:00-21:00, 11:00-19:00",,
Colonial Promenade,1378,196 Alps Road,,Athens,GA,30606,US,(706) 548-3690,-83.4092379,33.9443277,"10:00-21:00, 10:00-21:00, 10:00-21:00, 10:00-21:00, 10:00-21:00, 10:00-21:00, 12:00-18:00",,
LOS  2903 Commerce LOS,2903,800 STEVEN B TANGER BOULEVARD,,COMMERCE,GA,30529,US,(706) 336-0071,-83.4739393,34.2499499,"09:00-21:00, 09:00-21:00, 09:00-21:00, 09:00-21:00, 09:00-21:00, 09:00-21:00, 10:00-19:00",,
Village Mall,1530,1627-24 Opelika Road,,Auburn,AL,36830,US,(334) 821-3206,-85.4475594,32.6242781,"10:00-21:00, 10:00-21:00, 10:00-21:00, 10:00-21:00, 10:00-21:00, 10:00-21:00, 12:00-18:00",,
LOS  3008 GRAND RIVER LOS,3008,6200 Grand River Blvd East,,Leeds,AL,35094,US,(205) 699-1107,-86.5959474,33.5482829,"10:00-21:00, 10:00-21:00, 10:00-21:00, 10:00-21:00, 10:00-21:00, 10:00-21:00, 12:00-18:00",,
Summit at Birmingham,1803,109 Summit Blvd,,Birmingham,AL,35243,US,(205) 969-7693,-86.7316428,33.4458582,"10:00-21:00, 10:00-21:00, 10:00-21:00, 10:00-21:00, 10:00-21:00, 10:00-21:00, 12:00-18:00",,
Brookwood Village,860,603 Brookwood Village,,Birmingham,AL,35209,US,(205) 871-3860,-86.7714483,33.4701526,"10:00-21:00, 10:00-21:00, 10:00-21:00, 10:00-21:00, 10:00-21:00, 10:00-21:00, 12:00-18:00",,
The Shoppes at Eastchase,1659,6886 Eastchase Parkway,,Montgomery,AL,36117,US,(334) 213-7333,-86.1654005,32.3577241,"10:00-21:00, 10:00-21:00, 10:00-21:00, 10:00-21:00, 10:00-21:00, 10:00-21:00, 13:00-18:00",,
Riverchase Galleria,1746,2000 Riverchase Drive,,Birmingham,AL,35244,US,(205) 985-5222,-86.8090971,33.37079,"10:00-21:00, 10:00-21:00, 10:00-21:00, 10:00-21:00, 10:00-21:00, 10:00-21:00, 12:00-18:00",,
LOS  3061 Outlet at Riverwalk,3061,1 Poydras Street,,New Orleans,LA,70130,US,(504)522-9596,-90.0627999,29.949427,"10:00-21:00, 10:00-21:00, 10:00-21:00, 10:00-21:00, 10:00-21:00, 10:00-21:00, 10:00-19:00",,
Lakeside Shopping Center,1854,3301 Veterans Memorial Blvd,,Metairie,LA,70002,US,(504)832-7277,-90.1573105,30.0062985,"10:00-20:00, 10:00-20:00, 10:00-20:00, 10:00-20:00, 10:00-20:00, 10:00-20:00, 12:00-18:00",,
Elmwood,1860,1200 S Clearview Pkwy,,New Orleans,LA,70123,US,(504)733-8156,-90.1845292,29.9599963,"10:00-21:00, 10:00-21:00, 10:00-21:00, 10:00-21:00, 10:00-21:00, 10:00-21:00, 12:00-18:00",,
LOFT 1905 Fremaux Town Center,1905,880 Town Center Parkway,,Slidell,LA,70458,US,(985) 847-1939,-89.7630619,30.2681293,"10:00-20:00, 10:00-20:00, 10:00-20:00, 10:00-20:00, 10:00-20:00, 10:00-20:00, 12:00-18:00",,
Premier Centre,857,1 Poydras Street,,Mandeville,LA,70471,US,(985) 674-9656,-90.0831994,30.3895531,"10:00-20:00, 10:00-20:00, 10:00-20:00, 10:00-20:00, 10:00-20:00, 10:00-20:00, 12:00-18:00",,
LOS  2997 Gonzales LOS,2997,2410 Tanger Blvd.,,Gonzales,LA,70737,US,(225)644-7104,-90.9520864,30.2127005,"09:00-21:00, 09:00-21:00, 09:00-21:00, 09:00-21:00, 09:00-21:00, 09:00-21:00, 10:00-19:00",,
Mall of Louisiana,1627,6401 Bluebonnet Blvd,,Baton Rouge,LA,70836,US,(225) 767-9600,-91.0880559,30.3895131,"10:00-21:00, 10:00-21:00, 10:00-21:00, 10:00-21:00, 10:00-21:00, 10:00-21:00, 12:00-18:00",,
Town Center at Cedar,1508,7519 Corporate Blvd,,Baton Rouge,LA,70809,US,(225) 216-1045,-91.1239104,30.4247204,"10:00-19:00, 10:00-19:00, 10:00-19:00, 10:00-19:00, 10:00-19:00, 10:00-19:00, 12:00-18:00",,
The Market at River Ra,1613,1900 Kaliste Saloom Road,,Lafayette,LA,70508,US,(337) 993-2931,-92.0351331,30.1688314,"10:00-19:00, 10:00-19:00, 10:00-19:00, 10:00-19:00, 10:00-19:00, 10:00-19:00, 12:00-18:00",,
Legacy Village at Spring Hill,1606,9 Du Rhu Drive,,Mobile,AL,36608,US,(251) 380-0029,-88.1311033,30.6891546,"10:00-19:00, 10:00-19:00, 10:00-19:00, 10:00-19:00, 10:00-19:00, 10:00-19:00, 12:00-17:00",,
Eastern Shore Center,1397,30500 State Highway 181,,Spanish Fort,AL,36527,US,(251) 626-3923,-87.85163,30.6706675,"10:00-21:00, 10:00-21:00, 10:00-21:00, 10:00-21:00, 10:00-21:00, 10:00-21:00, 12:00-18:00",,
LOS  2934 Foley LOS,2934,2601 SOUTH MCKENZIE ST,,FOLEY,AL,36535,US,(251) 943-7080,-87.6797911,30.3757462,"09:00-21:00, 09:00-21:00, 09:00-21:00, 09:00-21:00, 09:00-21:00, 09:00-21:00, 10:00-19:00",,
LOFT 1903 International Plaza,1903,2223 N Westshore Blvd.,,Tampa,FL,33607,US,(813) 873-1275,-82.5211208,27.9656125,"10:00-21:00, 10:00-21:00, 10:00-21:00, 10:00-21:00, 10:00-21:00, 10:00-21:00, 10:00-18:00",,
Westshore Plaza,1320,250 Westshore Plaza,,Tampa,FL,33609,US,(813) 287-8984,-82.5272118,27.9471629,"10:00-21:00, 10:00-21:00, 10:00-21:00, 10:00-21:00, 10:00-21:00, 10:00-21:00, 12:00-18:00",,
Brandon Town Center,1546,403 Brandon Town Center Dr,,BRANDON,FL,33511,US,(813) 684-5405,-82.3239752,27.932483,"10:00-21:00, 10:00-21:00, 10:00-21:00, 10:00-21:00, 10:00-21:00, 10:00-21:00, 11:00-18:00",,
Westfield Citrus Park Mall,1522,8021 Citrus Park Town Center,,TAMPA,FL,33625,US,(813) 852-1214,-82.5764875,28.0688464,"10:00-21:00, 10:00-21:00, 10:00-21:00, 10:00-21:00, 10:00-21:00, 10:00-21:00, 12:00-18:00",,
LOS  3020 Tampa Premium Outlet,3020,2312 Grand Cypress Drive,,Lutz,FL,33559,US,(813) 949-2464,-82.3908246,28.1894276,"10:00-21:00, 10:00-21:00, 10:00-21:00, 10:00-21:00, 10:00-21:00, 10:00-21:00, 10:00-19:00",,
Countryside Mall,764,27001 US Highway 19 North,,Clearwater,FL,33761,US,(727) 724-0312,-82.7342675,28.0173889,"10:00-21:00, 10:00-21:00, 10:00-21:00, 10:00-21:00, 10:00-21:00, 10:00-21:00, 12:00-18:00",,
Tyrone Square,763,6901 22nd Avenue North,,Saint Petersburg,FL,33710,US,(727) 345-6003,-82.7333945,27.7936617,"10:00-21:00, 10:00-21:00, 10:00-21:00, 10:00-21:00, 10:00-21:00, 10:00-21:00, 11:00-19:00",,
Ellenton LOS,2960,5707 Factory Shops Blvd,,ELLENTON,FL,34222,US,(941) 722-8391,-82.5062206,27.5327753,"10:00-21:00, 10:00-21:00, 10:00-21:00, 10:00-21:00, 10:00-21:00, 10:00-21:00, 10:00-19:00",,
Lakeside Village,1592,1433 Town Center Drive,,Lakeland,FL,33803,US,(863) 688-3151,-81.9783753,28.0009408,"10:00-21:00, 10:00-21:00, 10:00-21:00, 10:00-21:00, 10:00-21:00, 10:00-21:00, 12:00-18:00",,
University Town Center,1904,Interstate75 & University Park,,SARASOTA,FL,34243,US,(941)225-8948,-82.447969,27.3844041,"10:00-21:00, 10:00-21:00, 10:00-21:00, 10:00-21:00, 10:00-21:00, 10:00-21:00, 11:00-18:00",,
Westfield Southgate Mall,1539,3501 South Tamiami Trail,,Sarasota,FL,34239,US,(941) 951-5200,-82.5283338,27.3010598,"10:00-20:00, 10:00-20:00, 10:00-20:00, 10:00-20:00, 10:00-20:00, 10:00-20:00, 12:00-17:30",,
The Avenue Viera,1444,2261 Town Center Avenue,,Melbourne,FL,32940,US,(321) 639-8126,-80.7269089,28.2418394,"10:00-21:00, 10:00-21:00, 10:00-21:00, 10:00-21:00, 10:00-21:00, 10:00-21:00, 12:00-18:00",,
LOS  2961 Grove City LOS,2961,1911 Leesburg Grove City Rd,,Grove City,PA,16127,US,(724) 748-3329,-80.1574505,41.1406931,"10:00-21:00, 10:00-21:00, 10:00-21:00, 10:00-21:00, 10:00-21:00, 10:00-21:00, 10:00-19:00",,
Streets of Cranberry,1574,20430 Route 19,,Cranberry Township,PA,16066,US,(724) 741-2100,-80.1044794,40.6951014,"10:00-21:00, 10:00-21:00, 10:00-21:00, 10:00-21:00, 10:00-21:00, 10:00-21:00, 11:00-17:00",,
The Mall at Robinson,962,100 Robinson Center Drive,,Pittsburgh,PA,15205,US,(412) 859-0508,-80.1573664,40.4546823,"10:00-21:00, 10:00-21:00, 10:00-21:00, 10:00-21:00, 10:00-21:30, 10:00-21:30, 11:00-18:00",,
Ross Park Mall,1533,1000 Ross Park Mall Drive,,Pittsburgh,PA,15237,US,(412) 364-1710,-80.0087394,40.5445585,"10:00-21:00, 10:00-21:00, 10:00-21:00, 10:00-21:00, 10:00-21:00, 10:00-21:00, 11:00-18:00",,
South Hills Village,961,301 South Hills Village,,Pittsburgh,PA,15241,US,(412) 833-4805,-80.0561688,40.3426231,"10:00-21:00, 10:00-21:00, 10:00-21:00, 10:00-21:00, 10:00-21:00, 10:00-21:00, 11:00-18:00",,
The Waterfront,947,126 West Bridge Street,,Homestead,PA,15120,US,(412) 462-9719,-79.9163569,40.4078384,"10:00-21:00, 10:00-21:00, 10:00-21:00, 10:00-21:00, 10:00-21:00, 10:00-21:00, 11:00-18:00",,
Westmoreland Mall,1438,5256 State Route 30,,Greensburg,PA,15601,US,(724) 853-7493,-79.4718103,40.2948045,"10:00-21:00, 10:00-21:00, 10:00-21:00, 10:00-21:00, 10:00-21:00, 10:00-21:00, 11:00-17:00",,
The Boulevard Town Square,1506,34 The Boulevard St. Louis,,Richmond Heights,MO,63117,US,(314) 726-5622,-90.3447361,38.6349494,"10:00-21:00, 10:00-21:00, 10:00-21:00, 10:00-21:00, 10:00-21:00, 10:00-20:00, 11:00-18:00",,
Shoppes at St. Clair Square,1557,6520 North Illinois,,Fairview Heights,IL,62208,US,(618) 632-1937,-89.9829318,38.5935825,"10:00-20:00, 10:00-20:00, 10:00-20:00, 10:00-20:00, 10:00-20:00, 10:00-20:00, 11:00-17:00",,
West County Mall,663,38 West County Center,,Des Peres,MO,63131,US,(314) 965-5630,-90.4480324,38.6023729,"10:00-21:00, 10:00-21:00, 10:00-21:00, 10:00-21:00, 10:00-21:00, 10:00-21:00, 11:00-18:00",,
Chesterfield Mall,1551,2024 Chesterfield Mall,,Chesterfield,MO,63017,US,(636) 536-4373,-90.563511,38.65206,"10:00-21:00, 10:00-21:00, 10:00-21:00, 10:00-21:00, 10:00-21:00, 10:00-21:00, 11:00-18:00",,
LOS  3019 St. Louis Premium Ou,3019,18533 Outlet Boulevard,,Chesterfield,MO,63005,US,(636)445-2280,-90.663076,38.676219,"10:00-21:00, 10:00-21:00, 10:00-21:00, 10:00-21:00, 10:00-21:00, 10:00-21:00, 10:00-19:00",,
Mid Rivers Mall,843,2264 Mid Rivers Mall,,Saint Peters,MO,63376,US,(636) 279-7100,-90.6163585,38.7971539,"10:00-21:00, 10:00-21:00, 10:00-21:00, 10:00-21:00, 10:00-21:00, 10:00-21:00, 11:00-18:00",,
The Meadows,1676,11 Meadow Circle Drive,,Lake Saint Louis,MO,63367,US,(636) 625-2031,-90.7889645,38.7804729,"10:00-21:00, 10:00-21:00, 10:00-21:00, 10:00-21:00, 10:00-21:00, 10:00-21:00, 11:00-19:00",,
White Oaks,1811,2501 Wabash Avenue,,Springfield,IL,62704,US,(217) 546-2397,-89.7037216,39.765743,"10:00-21:00, 10:00-21:00, 10:00-21:00, 10:00-21:00, 10:00-21:00, 10:00-21:00, 11:00-18:00",,
LOS  2910 Rio Grande Prem LOS,2910,5001 EAST EXPRESSWAY 83,,MERCEDES,TX,78570,US,(956) 514-1513,-97.8888406,26.1604278,"10:00-21:00, 10:00-21:00, 10:00-21:00, 10:00-21:00, 10:00-21:00, 10:00-21:00, 11:00-19:00",,
LA PLAZA,1838,2200 SOUTH 10TH STREET,,Mcallen,TX,78503,US,(956)683-1352,-98.2362856,26.1852376,"10:00-21:00, 10:00-21:00, 10:00-21:00, 10:00-21:00, 10:00-21:00, 10:00-21:00, 11:00-19:00",,
Sunrise Mall,1861,370 North Expressway,,Brownsville,TX,78521,US,(956)504-7134,-97.4851225,25.9255572,"10:00-21:00, 10:00-21:00, 10:00-21:00, 10:00-21:00, 10:00-21:00, 10:00-21:00, 11:00-19:00",,
LOS  3088 Suncrest Town Center,3088,414 Suncrest Town Center Dr,,Morgantown,WV,26505,US,(304)296-0012,-79.9424286,39.6538008,"10:00-21:00, 10:00-21:00, 10:00-21:00, 10:00-21:00, 10:00-21:00, 10:00-21:00, 11:00-18:00",,
Collonade at State College,1649,19 Colonnade Way,,State College,PA,16803,US,(814) 861-3296,-77.9060932,40.8102894,"10:00-20:00, 10:00-20:00, 10:00-20:00, 10:00-20:00, 10:00-20:00, 10:00-20:00, 12:00-18:00",,
LOFT 1906 Galleria Crystal Run,1906,1 N GALLERIA DR,,Middletown,NY,10941,US,845-692-8943,-74.3692367,41.4532801,"10:00-21:30, 10:00-21:30, 10:00-21:30, 10:00-21:30, 10:00-21:30, 10:00-21:30, 11:00-18:00",,
Walden Galleria,1355,One Walden Galleria Drive,,Buffalo,NY,14225,US,(716) 651-0617,-78.7634399,42.9120261,"10:00-21:30, 10:00-21:30, 10:00-21:30, 10:00-21:30, 10:00-21:30, 10:00-21:30, 11:00-18:00",,
Boulevard Mall,665,730 Alberta Drive,,Amherst,NY,14226,US,(716) 834-1404,-78.817262,42.9882528,"10:00-21:00, 10:00-21:00, 10:00-21:00, 10:00-21:00, 10:00-21:00, 10:00-21:00, 11:00-18:00",,
Orchard Park Village,1653,3995 North Buffalo Road,,Orchard Park,NY,14127,US,(716) 667-2592,-78.7445751,42.7747114,"10:00-20:00, 10:00-20:00, 10:00-20:00, 10:00-20:00, 10:00-20:00, 10:00-20:00, 12:00-17:00",,
LOS  2982 Niagara Fall  LOS,2982,1810 Military Road,,Niagara Falls,NY,14304,US,(716)297-6759,-78.9754715,43.0977618,"10:00-21:00, 10:00-21:00, 10:00-21:00, 10:00-21:00, 10:00-21:00, 10:00-21:00, 10:00-19:00",,
LIME RIDGE MALL,4104,999 UPPER WENTWORTH STREET,,Hamilton,ON,L9A 4X5,CA,(905)318-5720,-79.8623026,43.2176908,"10:00-21:00, 10:00-21:00, 10:00-21:00, 10:00-21:00, 10:00-21:00, 09:30-19:00, 11:00-18:00",,
TORONTO EATON CENTRE,4102,220 YONGE STREET,,Toronto,ON,M5B 2H1,CA,(416)-591-7493,-79.3804049,43.6535594,"10:00-21:30, 10:00-21:30, 10:00-21:30, 10:00-21:30, 10:00-21:30, 09:30-21:30, 10:00-19:00",,
SQUARE ONE SHOPPING,4101,100 CITY CENTRE DRIVE,,Mississauga,ON,L5B 2C9,CA,(905)949-5180,-79.6430158,43.5927528,"10:00-21:00, 10:00-21:00, 10:00-21:00, 10:00-21:00, 10:00-21:00, 09:30-21:00, 11:00-19:00",,
Greece Ridge Mall,1866,271 Greece Ridge Center Dr,,Greece,NY,14626,US,(585)225-6152,-77.6912065,43.2060969,"10:00-21:00, 10:00-21:00, 10:00-21:00, 10:00-21:00, 10:00-21:00, 10:00-21:00, 11:00-18:00",,
Marketplace Mall,679,431 Miracle Drive,,Rochester,NY,14623,US,(585) 292-5640,-77.636063,43.0819827,"10:00-21:30, 10:00-21:30, 10:00-21:30, 10:00-21:30, 10:00-21:30, 10:00-21:30, 11:00-18:00",,
YORKDALE SHOPPING CE,4100,3401 DUFFERIN STREET,,North York,ON,M6A 2T9,CA,(647) 352-1123,-79.4539735,43.7260866,"10:00-21:00, 10:00-21:00, 10:00-21:00, 10:00-21:00, 10:00-21:00, 09:30-21:00, 11:00-19:00",,
MARKVILLE SHOPPING C,4103,5000 HIGHWAY 7 EAST,,Markham,ON,L3R 4M9,CA,(905)940-6114,-79.2845673,43.8671953,"10:00-21:00, 10:00-21:00, 10:00-21:00, 10:00-21:00, 10:00-21:00, 09:30-18:00, 11:00-18:00",,
Eastview Mall,1463,129 Eastview Mall,,Victor,NY,14564,US,(585) 223-2570,-77.4404414,43.0264386,"10:00-21:30, 10:00-21:30, 10:00-21:30, 10:00-21:30, 10:00-21:30, 10:00-21:30, 11:00-18:00",,
LOS  2933 Waterloo Prem LOS,2933,655 Route 318,,Waterloo,NY,13165,US,(315) 539-0930,-76.9230484,42.9549633,"10:00-21:00, 10:00-21:00, 10:00-21:00, 10:00-21:00, 10:00-21:00, 10:00-21:00, 10:00-18:00",,
The Shops at Ithaca Mall,1843,40 Catherwood Rd,,Ithaca,NY,14850,US,(607)257-0429,-76.490933,42.483327,"10:00-21:00, 10:00-21:00, 10:00-21:00, 10:00-21:00, 10:00-21:00, 10:00-21:00, 11:00-18:00",,
Carousel Center,1424,9090 Carousel Center,,Syracuse,NY,13290,US,(315) 426-1577,-76.1711213,43.0674803,"10:00-21:30, 10:00-21:30, 10:00-21:30, 10:00-21:30, 10:00-21:30, 10:00-21:30, 11:00-18:00",,
Towne Center at Fayetteville,1827,318 Towne Center Dr,,Fayetteville,NY,13066,US,(315) 449-1934,-76.0200554,43.0328403,"10:00-20:00, 10:00-20:00, 10:00-20:00, 10:00-20:00, 10:00-20:00, 10:00-20:00, 11:00-17:00",,
Waynesboro Town Center,1878,831 Town Center Drive,,Waynesboro,VA,22980,US,(540)949-9082,-78.9448717,38.0550878,"10:00-20:00, 10:00-20:00, 10:00-20:00, 10:00-20:00, 10:00-20:00, 10:00-20:00, 12:00-18:00",,
LOS  3087 Elmore Market Place,3087,4255 Elmore Avenue,,Davenport,IA,52807,US,(563) 355-0510,-90.5255333,41.5645066,"10:00-21:00, 10:00-21:00, 10:00-21:00, 10:00-21:00, 10:00-21:00, 10:00-21:00, 11:00-18:00",,
Collins Road Square,1857,1430 Twixt Town Road,,Marion,IA,52302,US,(319)373-8908,-91.6251047,42.027937,"10:00-20:00, 10:00-20:00, 10:00-20:00, 10:00-20:00, 10:00-20:00, 10:00-18:00, 12:00-18:00",,
Coral Ridge Mall,1345,1451 Coral Ridge Avenue,,Coralville,IA,52241,US,(319) 354-3662,-91.6052831,41.690327,"10:00-21:00, 10:00-21:00, 10:00-21:00, 10:00-21:00, 10:00-21:00, 10:00-21:00, 10:00-18:00",,
LOS  3067 Outlets of Mississip,3067,200 Bass Pro Drive,,Pearl,MS,39208,US,(601) 932-4435,-90.1528696,32.2751993,"10:00-21:00, 10:00-21:00, 10:00-21:00, 10:00-21:00, 10:00-21:00, 10:00-21:00, 12:00-19:00",,
Dogwood Marketplace,795,130 Dogwood Blvd,,Flowood,MS,39232,US,(601) 992-3686,-90.0603122,32.3398788,"10:00-20:00, 10:00-20:00, 10:00-20:00, 10:00-20:00, 10:00-20:00, 10:00-20:00, 12:00-18:00",,
Renaissance at Colony Park,1660,1000 Highland Colony Parkway,,Ridgeland,MS,39157,US,(601) 605-1551,-90.147741,32.438187,"10:00-20:00, 10:00-20:00, 10:00-20:00, 10:00-20:00, 10:00-20:00, 10:00-20:00, 12:00-18:00",,
South 8th Street Store,1430,370 South 8th Street,,Boise,ID,83702,US,(208) 331-1566,-116.20508,43.6136107,"10:00-20:00, 10:00-20:00, 10:00-20:00, 10:00-20:00, 10:00-20:00, 10:00-20:00, 12:00-17:00",,
The Village at Meridian,1867,3600 East Fairview Ave,,Meridian,ID,83646,US,(208)855-9182,-116.3484352,43.6214791,"10:00-21:00, 10:00-21:00, 10:00-21:00, 10:00-21:00, 10:00-21:00, 10:00-21:00, 11:00-18:00",,
Columbia Center,1669,1321 N Columbia Center Blvd,,Kennewick,WA,99336,US,(509) 783-7061,-119.22508,46.224573,"10:00-21:00, 10:00-21:00, 10:00-21:00, 10:00-21:00, 10:00-21:00, 10:00-21:00, 11:00-19:00",,
Shoppes at Pierce Hill,1615,1308 Vestal Parkway East,,Vestal,NY,13850,US,(607) 757-2539,-76.0284428,42.0914984,"10:00-20:00, 10:00-20:00, 10:00-20:00, 10:00-20:00, 10:00-20:00, 10:00-20:00, 12:00-17:00",,
The Orchard Shopping,1688,8621 Clinton Street,,New Hartford,NY,13413,US,(315) 768-7245,-75.3167898,43.0903449,"10:00-21:00, 10:00-21:00, 10:00-21:00, 10:00-21:00, 10:00-21:00, 10:00-21:00, 11:00-17:00",,
LOS  3083 Tanger at Williamsbu,3083,150 Tanger Drive,,Williamsburg,IA,52361,US,(319)668-1466,-92.0054405,41.690512,"09:00-21:00, 09:00-21:00, 09:00-21:00, 09:00-21:00, 09:00-21:00, 09:00-21:00, 10:00-19:00",,
Kingsgate Center,1802,8201 Quaker Avenue,,Lubbock,TX,79424,US,(806) 698-0237,-101.9038012,33.5187809,"10:00-20:00, 10:00-20:00, 10:00-20:00, 10:00-20:00, 10:00-20:00, 10:00-20:00, 12:00-18:00",,
The Commons at North Park,1858,2900 W Loop 250 North,,Midland,TX,79705,US,(432)699-1873,-102.1243642,32.0367418,"10:00-19:00, 10:00-19:00, 10:00-19:00, 10:00-19:00, 10:00-19:00, 10:00-19:00, 12:00-18:00",,
Westgate Mall,1791,7701 W Interstate 40,,Amarillo,TX,79121,US,(806)352-4744,-101.9281247,35.185246,"10:00-21:00, 10:00-21:00, 10:00-21:00, 10:00-21:00, 10:00-21:00, 10:00-21:00, 12:00-18:00",,
Midtown Village,1699,1800 McFarland Blvd East,,Tuscaloosa,AL,35404,US,(205) 759-1741,-87.5284368,33.194648,"10:00-20:00, 10:00-20:00, 10:00-20:00, 10:00-20:00, 10:00-20:00, 10:00-20:00, 12:00-18:00",,
Destin Commons,1315,4130 Legendary Drive,,Destin,FL,32541,US,(850) 650-2979,-86.4261748,30.3912252,"10:00-21:00, 10:00-21:00, 10:00-21:00, 10:00-21:00, 10:00-21:00, 10:00-21:00, 11:00-19:00",,
LOS  2967 Silver Sands Premium,2967,10406 EMERALD COAST PKWY,,MIRAMAR BEACH,FL,32550,US,(850) 269-0201,-86.3483049,30.3782499,"10:00-21:00, 10:00-21:00, 10:00-21:00, 10:00-21:00, 10:00-21:00, 10:00-21:00, 10:00-18:00",,
Cordova Mall,1705,5100 North 9th Avenue,,Pensacola,FL,32504,US,(850) 477-1992,-87.207522,30.475326,"10:00-21:00, 10:00-21:00, 10:00-21:00, 10:00-21:00, 10:00-21:00, 10:00-21:00, 12:00-18:00",,
Poughkeepsie Galleria,1383,2001 South Road,,Poughkeepsie,NY,12601,US,(845) 297-8826,-73.9206668,41.6262842,"10:00-21:30, 10:00-21:30, 10:00-21:30, 10:00-21:30, 10:00-21:30, 10:00-21:30, 11:00-18:00",,
LOS  2904 Charleston LOS,2904,4840 TANGER OUTLET BLVD,,NORTH CHARLESTON,SC,29418,US,(843) 308-9971,-80.0193224,32.8736953,"09:00-21:00, 09:00-21:00, 09:00-21:00, 09:00-21:00, 09:00-21:00, 09:00-21:00, 10:00-19:00",,
Citadel Mall,1357,2070 Sam Rittenburg Blvd,,Charleston,SC,29407,US,(843) 763-3611,-80.03136,32.797726,"10:00-21:00, 10:00-21:00, 10:00-21:00, 10:00-21:00, 10:00-21:00, 10:00-21:00, 12:00-18:00",,
King Street,1870,267 King Street,,Charleston,SC,29401,US,(843) 722-8231,-79.9339667,32.7821086,"10:00-19:00, 10:00-19:00, 10:00-19:00, 10:00-19:00, 10:00-20:00, 10:00-20:00, 12:00-18:00",,
Mount Pleasant Towne Center,826,1221 Belk Drive,,Mount Pleasant,SC,29464,US,(843) 856-8585,-79.8298155,32.8292917,"10:00-21:00, 10:00-21:00, 10:00-21:00, 10:00-21:00, 10:00-21:00, 10:00-21:00, 12:00-18:00",,
Shoppes at Bellemeade,1485,6535 Youree Drive,,Shreveport,LA,71105,US,(318) 797-3630,-93.7194054,32.4473001,"10:00-20:00, 10:00-20:00, 10:00-20:00, 10:00-20:00, 10:00-20:00, 10:00-20:00, 12:00-18:00",,
LOS  2975 Branson LOS,2975,300 Tanger Blvd,,Branson,MO,65616,US,(417) 334-4934,-93.2649443,36.6440444,"09:00-21:00, 09:00-21:00, 09:00-21:00, 09:00-21:00, 09:00-21:00, 09:00-21:00, 10:00-19:00",,
Congress Park Centre,1366,315 Broadway,,Saratoga Springs,NY,12866,US,(518) 581-8125,-73.7864234,43.079121,"10:00-20:00, 10:00-20:00, 10:00-20:00, 10:00-20:00, 10:00-20:00, 10:00-20:00, 11:00-18:00",,
Battlefield Mall,1417,2825 South Glenstone Road,,Springfield,MO,65804,US,(417) 886-7420,-93.26448,37.1622079,"10:00-21:00, 10:00-21:00, 10:00-21:00, 10:00-21:00, 10:00-21:00, 10:00-21:00, 11:00-18:00",,
LOS  2968 Five Oaks LOS,2968,1645 PARKWAY #960,,SEVIERVILLE,TN,37862,US,(865) 428-1855,-83.5721086,35.8333532,"09:00-21:00, 09:00-21:00, 09:00-21:00, 09:00-21:00, 09:00-21:00, 09:00-21:00, 10:00-19:00",,
City Creek Center,1793,50 S Main Street,,Salt Lake City,UT,84101,US,(801)521-4307,-111.8918804,40.7681878,"10:00-21:00, 10:00-21:00, 10:00-21:00, 10:00-21:00, 10:00-21:00, 10:00-21:00, 00:01-00:02",,
Sugarhouse Commons,952,1170 East 2100 South,,Salt Lake City,UT,84106,US,(801) 487-1693,-111.8571939,40.724984,"10:00-21:00, 10:00-21:00, 10:00-21:00, 10:00-21:00, 10:00-21:00, 10:00-21:00, 12:00-18:00",,
Fashion Place,1782,6191 South State Street,,Murray,UT,84107,US,(801)261-9550,-111.8863128,40.6359827,"10:00-21:00, 10:00-21:00, 10:00-21:00, 10:00-21:00, 10:00-21:00, 10:00-21:00, 12:00-18:00",,
Station Park,1844,320 N. Station Parkway,,Farmington,UT,84025,US,(801)451-1991,-111.903461,40.9860957,"10:00-21:00, 10:00-21:00, 10:00-21:00, 10:00-21:00, 10:00-21:00, 10:00-21:00, 12:00-18:00",,
LOS  3082 Park City (Space E-1,3082,6699 North Landmark Drive,,Park City,UT,84098,US,(435)649-0024,-111.5525737,40.7258953,"10:00-21:00, 10:00-21:00, 10:00-21:00, 10:00-21:00, 10:00-21:00, 10:00-21:00, 11:00-18:00",,
LOS  3015 Traverse Mountain LO,3015,3700 N. Cabela's Blvd,,Lehi,UT,84043,US,(801) 901-1291,-111.8825933,40.4341467,"10:00-21:00, 10:00-21:00, 10:00-21:00, 10:00-21:00, 10:00-21:00, 10:00-21:00, 11:00-18:00",,
Pier Park,1702,15600 Starfish Street,,Panama City Beach,FL,32413,US,(850) 230-3566,-85.8701248,30.2208226,"10:00-21:00, 10:00-21:00, 10:00-21:00, 10:00-21:00, 10:00-21:00, 10:00-21:00, 12:00-19:00",,
Empire Mall,1527,590 West Empire Mall,,Sioux Falls,SD,57106,US,(605) 362-3034,-96.7766124,43.5130586,"10:00-21:00, 10:00-21:00, 10:00-21:00, 10:00-21:00, 10:00-21:00, 10:00-21:00, 12:00-18:00",,
Shoppes at Montage,1562,2271 Shoppes Blvd,,Moosic,PA,18507,US,(570) 342-7125,-75.6759946,41.363285,"10:00-20:00, 10:00-20:00, 10:00-20:00, 10:00-20:00, 10:00-20:00, 10:00-20:00, 12:00-18:00",,
LOS  3084 Outlets at Lake Geor,3084,1415 State Route 9,,Queensbury,NY,12804,US,(518) 798-2052,-73.7014119,43.3639686,"10:00-18:00, 10:00-18:00, 10:00-18:00, 10:00-18:00, 10:00-21:00, 10:00-21:00, 10:00-18:00",,
West Acres Mall,1796,3902 13th Ave South,,Fargo,ND,58103,US,(701) 277-4670,-96.8465205,46.8591805,"10:00-21:00, 10:00-21:00, 10:00-21:00, 10:00-21:00, 10:00-21:00, 10:00-21:00, 12:00-18:00",,
Burlington Town Center,806,49 Church Street,,Burlington,VT,05401,US,(802) 651-8856,-73.2144358,44.4787492,"10:00-21:00, 10:00-21:00, 10:00-21:00, 10:00-21:00, 10:00-21:00, 10:00-21:00, 11:00-17:00",,
