store_name,store_number,address,address2,city,state,zip_code,country,phone_number,latitude,longitude,store_hours,store_type,other_fields,coming_soon
buybuy BABY Brookfield,,665 Main Street,,Brookfield,WI,53005,US,(262) 797-0116,43.0382933866045,-88.1133194343055,"Monday 9:00 AM - 9:00 PM , Tuesday 9:00 AM - 9:00 PM , Wednesday 9:00 AM - 9:00 PM , Thursday 9:00 AM - 9:00 PM , Friday 9:00 AM - 9:00 PM , Saturday 9:00 AM - 9:00 PM , Sunday 10:00 AM - 7:00 PM ",,,
buybuy BABY Tulsa,,10017 East 71st Street,,Tulsa,OK,74133,US,(918) 249-0307,36.0622092279116,-95.8651542663573,"Monday 9:00 AM - 9:00 PM , Tuesday 9:00 AM - 9:00 PM , Wednesday 9:00 AM - 9:00 PM , Thursday 9:00 AM - 9:00 PM , Friday 9:00 AM - 9:00 PM , Saturday 9:00 AM - 9:00 PM , Sunday 10:00 AM - 6:00 PM ",,,
buybuy BABY Tukwila,,17686 Southcenter Parkway,,Tukwila,WA,98188,US,(206) 494-5778,47.4442524614239,-122.259684205055,"Monday 9:00 AM - 9:00 PM , Tuesday 9:00 AM - 9:00 PM , Wednesday 9:00 AM - 9:00 PM , Thursday 9:00 AM - 9:00 PM , Friday 9:00 AM - 9:00 PM , Saturday 9:00 AM - 9:00 PM , Sunday 10:00 AM - 7:00 PM ",,,
buybuy BABY Sandy,,10230 South State Street,,Sandy,UT,84070,US,(801) 566-0411,40.5658835229974,-111.893946841682,"Monday 9:00 AM - 9:00 PM , Tuesday 9:00 AM - 9:00 PM , Wednesday 9:00 AM - 9:00 PM , Thursday 9:00 AM - 9:00 PM , Friday 9:00 AM - 9:00 PM , Saturday 9:00 AM - 9:00 PM , Sunday 11:00 AM - 6:00 PM ",,,
buybuy BABY Sioux Falls,,3800 South Louise Avenue,,Sioux Falls,SD,57106,US,(605) 362-8844,43.5109700519973,-96.768991664212,"Monday 9:00 AM - 9:00 PM , Tuesday 9:00 AM - 9:00 PM , Wednesday 9:00 AM - 9:00 PM , Thursday 9:00 AM - 9:00 PM , Friday 9:00 AM - 9:00 PM , Saturday 9:00 AM - 9:00 PM , Sunday 10:00 AM - 7:00 PM ",,,
buybuy BABY Fargo,,4340 13th Avenue Southwest,,Fargo,ND,58103,US,(701) 282-0222,46.8598315419686,-96.8586122989654,"Monday 9:00 AM - 9:00 PM , Tuesday 9:00 AM - 9:00 PM , Wednesday 9:00 AM - 9:00 PM , Thursday 9:00 AM - 9:00 PM , Friday 9:00 AM - 9:00 PM , Saturday 9:00 AM - 9:00 PM , Sunday 12:00 PM - 7:00 PM ",,,
buybuy BABY Albuquerque,,2451 San Mateo Boulevard Northeast,,Albuquerque,NM,87110,US,(505) 881-2179,35.1067242840189,-106.589204725894,"Monday 9:00 AM - 9:00 PM , Tuesday 9:00 AM - 9:00 PM , Wednesday 9:00 AM - 9:00 PM , Thursday 9:00 AM - 9:00 PM , Friday 9:00 AM - 9:00 PM , Saturday 9:00 AM - 9:00 PM , Sunday 10:00 AM - 6:00 PM ",,,
buybuy BABY Las Vegas,,2315 Summa Drive,,Las Vegas,NV,89135,US,(702) 820-3096,36.146308,-115.335535,"Monday 9:00 AM - 9:00 PM , Tuesday 9:00 AM - 9:00 PM , Wednesday 9:00 AM - 9:00 PM , Thursday 9:00 AM - 9:00 PM , Friday 9:00 AM - 9:00 PM , Saturday 9:00 AM - 9:00 PM , Sunday 10:00 AM - 6:00 PM ",,,
buybuy BABY Nashua,,213 Daniel Webster Highway,,Nashua,NH,03060,US,(603) 888-4761,42.7123654429401,-71.4459358231033,"Monday 9:00 AM - 9:00 PM , Tuesday 9:00 AM - 9:00 PM , Wednesday 9:00 AM - 9:00 PM , Thursday 9:00 AM - 9:00 PM , Friday 9:00 AM - 9:00 PM , Saturday 9:00 AM - 9:00 PM , Sunday 10:00 AM - 6:00 PM ",,,
buybuy BABY Whitehall,,1915 Whitehall Mall,,Whitehall,PA,18052,US,(610) 266-5875,40.634974044087,-75.4818745032752,"Monday 9:00 AM - 9:30 PM , Tuesday 9:00 AM - 9:30 PM , Wednesday 9:00 AM - 9:30 PM , Thursday 9:00 AM - 9:30 PM , Friday 9:00 AM - 9:30 PM , Saturday 9:00 AM - 9:30 PM , Sunday 10:00 AM - 6:00 PM ",,,
buybuy BABY Montgomeryville,,751 Horsham Road,,Lansdale,PA,19446,US,(215) 647-9544,40.2474301643305,-75.2412951276475,"Monday 9:00 AM - 9:00 PM , Tuesday 9:00 AM - 9:00 PM , Wednesday 9:00 AM - 9:00 PM , Thursday 9:00 AM - 9:00 PM , Friday 9:00 AM - 9:00 PM , Saturday 9:00 AM - 9:00 PM , Sunday 10:00 AM - 6:00 PM ",,,
buybuy BABY Omaha,,12204 K Plaza,,Omaha,NE,68137,US,(402) 973-3307,41.2148005590299,-96.1031654477119,"Monday 9:00 AM - 9:00 PM , Tuesday 9:00 AM - 9:00 PM , Wednesday 9:00 AM - 9:00 PM , Thursday 9:00 AM - 9:00 PM , Friday 9:00 AM - 9:00 PM , Saturday 9:00 AM - 9:00 PM , Sunday 10:00 AM - 7:00 PM ",,,
buybuy BABY Woodbury,,9160 Hudson Road,,Woodbury,MN,55125,US,(651) 735-0125,44.9475825460823,-92.921644449234,"Monday 9:00 AM - 9:00 PM , Tuesday 9:00 AM - 9:00 PM , Wednesday 9:00 AM - 9:00 PM , Thursday 9:00 AM - 9:00 PM , Friday 9:00 AM - 9:00 PM , Saturday 9:00 AM - 9:00 PM , Sunday 11:00 AM - 6:00 PM ",,,
buybuy BABY Braintree,,160 Granite Street,,Braintree,MA,02184,US,(781) 848-1843,42.2245945986484,-71.0291926470199,"Monday 9:00 AM - 9:00 PM , Tuesday 9:00 AM - 9:00 PM , Wednesday 9:00 AM - 9:00 PM , Thursday 9:00 AM - 9:00 PM , Friday 9:00 AM - 9:00 PM , Saturday 9:00 AM - 9:00 PM , Sunday 10:00 AM - 6:00 PM ",,,
buybuy BABY Rockville,,1683 Rockville Pike,,Rockville,MD,20852,US,(301) 984-1122,39.0609327647308,-77.1264722943305,"Monday 9:00 AM - 9:30 PM , Tuesday 9:00 AM - 9:30 PM , Wednesday 9:00 AM - 9:30 PM , Thursday 9:00 AM - 9:30 PM , Friday 9:00 AM - 9:30 PM , Saturday 9:00 AM - 9:30 PM , Sunday 10:00 AM - 7:00 PM ",,,
buybuy BABY Potomac Mills,,2700 Potomac Mills Circle,,Woodbridge,VA,22192,US,(703) 494-9360,38.6457455335424,-77.2928698981476,"Monday 10:00 AM - 9:00 PM , Tuesday 10:00 AM - 9:00 PM , Wednesday 10:00 AM - 9:00 PM , Thursday 10:00 AM - 9:00 PM , Friday 10:00 AM - 9:00 PM , Saturday 10:00 AM - 9:00 PM , Sunday 11:00 AM - 6:00 PM ",,,
buybuy BABY Warrensville Heights,,4045 Richmond Road,,Warrensville Heights,OH,44122,US,(216) 591-1537,41.4463877593179,-81.4943037496681,"Monday 9:00 AM - 9:00 PM , Tuesday 9:00 AM - 9:00 PM , Wednesday 9:00 AM - 9:00 PM , Thursday 9:00 AM - 9:00 PM , Friday 9:00 AM - 9:00 PM , Saturday 9:00 AM - 9:00 PM , Sunday 10:00 AM - 7:00 PM ",,,
buybuy BABY Mason,,5255 Deerfield Boulevard,,Mason,OH,45040,US,(513) 336-0104,39.3052098653088,-84.3176919221878,"Monday 9:00 AM - 9:00 PM , Tuesday 9:00 AM - 9:00 PM , Wednesday 9:00 AM - 9:00 PM , Thursday 9:00 AM - 9:00 PM , Friday 9:00 AM - 9:00 PM , Saturday 9:00 AM - 9:00 PM , Sunday 10:00 AM - 7:00 PM ",,,
buybuy BABY Columbus,,3749 Easton Market,,Columbus,OH,43219,US,(614) 475-7085,40.0496576938357,-82.9220746458122,"Monday 9:00 AM - 9:00 PM , Tuesday 9:00 AM - 9:00 PM , Wednesday 9:00 AM - 9:00 PM , Thursday 9:00 AM - 9:00 PM , Friday 9:00 AM - 9:00 PM , Saturday 9:00 AM - 9:00 PM , Sunday 10:00 AM - 7:00 PM ",,,
buybuy BABY Greenville,,1125 Woodruff Road,,Greenville,SC,29607,US,(864) 213-9426,34.8301856604205,-82.2963108198473,"Monday 10:00 AM - 9:00 PM , Tuesday 10:00 AM - 9:00 PM , Wednesday 10:00 AM - 9:00 PM , Thursday 10:00 AM - 9:00 PM , Friday 9:00 AM - 9:00 PM , Saturday 9:00 AM - 9:00 PM , Sunday 11:00 AM - 7:00 PM ",,,
buybuy BABY Columbia,,238 Harbison Boulevard,,Columbia,SC,29212,US,(803) 732-3984,34.0706068169172,-81.1602330207824,"Monday 10:00 AM - 9:00 PM , Tuesday 10:00 AM - 9:00 PM , Wednesday 10:00 AM - 9:00 PM , Thursday 10:00 AM - 9:00 PM , Friday 9:00 AM - 9:00 PM , Saturday 9:00 AM - 9:00 PM , Sunday 11:00 AM - 7:00 PM ",,,
buybuy BABY Knoxville,,202 Morrell Road,,Knoxville,TN,37919,US,(865) 690-3357,35.9267820953089,-84.0340939314774,"Monday 10:00 AM - 8:00 PM , Tuesday 10:00 AM - 8:00 PM , Wednesday 10:00 AM - 8:00 PM , Thursday 10:00 AM - 8:00 PM , Friday 9:00 AM - 9:00 PM , Saturday 9:00 AM - 9:00 PM , Sunday 11:00 AM - 7:00 PM ",,,
buybuy BABY Franklin,,2000 Mallory Lane,,Franklin,TN,37067,US,(615) 472-2504,35.9508307838341,-86.8166765721252,"Monday 10:00 AM - 9:00 PM , Tuesday 10:00 AM - 9:00 PM , Wednesday 10:00 AM - 9:00 PM , Thursday 10:00 AM - 9:00 PM , Friday 9:00 AM - 9:00 PM , Saturday 9:00 AM - 9:00 PM , Sunday 11:00 AM - 7:00 PM ",,,
buybuy BABY Scarsdale,,1019 Central Park Avenue,,Scarsdale,NY,10583,US,(914) 725-9220,40.9890976552751,-73.8246749325409,"Monday 9:30 AM - 9:30 PM , Tuesday 9:30 AM - 9:30 PM , Wednesday 9:30 AM - 9:30 PM , Thursday 9:30 AM - 9:30 PM , Friday 9:30 AM - 9:30 PM , Saturday 9:30 AM - 9:30 PM , Sunday 10:00 AM - 7:00 PM ",,,
buybuy BABY West Long Branch,,310 Route 36,,West Long Branch,NJ,07764,US,(732) 542-1953,40.2896581186517,-74.0354020969698,"Monday 9:30 AM - 9:00 PM , Tuesday 9:30 AM - 9:00 PM , Wednesday 9:30 AM - 9:00 PM , Thursday 9:30 AM - 9:00 PM , Friday 9:30 AM - 9:00 PM , Saturday 9:00 AM - 9:30 PM , Sunday 10:00 AM - 7:00 PM ",,,
buybuy BABY Totowa,,545 Route 46 West,,Totowa,NJ,07512,US,(973) 826-1010,40.8980816874672,-74.2401444911956,"Monday 9:00 AM - 9:30 PM , Tuesday 9:00 AM - 9:30 PM , Wednesday 9:00 AM - 9:30 PM , Thursday 9:00 AM - 9:30 PM , Friday 9:00 AM - 9:30 PM , Saturday 9:00 AM - 9:30 PM , Sunday 10:00 AM - 7:00 PM ",,,
buybuy BABY Rockaway,,327 Mount Hope Avenue,,Rockaway,NJ,07866,US,(973) 989-9120,40.9069327925299,-74.5486629009247,"Monday 9:00 AM - 9:00 PM , Tuesday 9:00 AM - 9:00 PM , Wednesday 9:00 AM - 9:00 PM , Thursday 9:00 AM - 9:00 PM , Friday 9:00 AM - 9:00 PM , Saturday 9:00 AM - 9:00 PM , Sunday 10:00 AM - 7:00 PM ",,,
buybuy BABY Princeton,,601 Nassau Park Boulevard,,Princeton,NJ,08540,US,(609) 799-1442,40.3001898432177,-74.679488994343,"Monday 9:30 AM - 9:00 PM , Tuesday 9:30 AM - 9:00 PM , Wednesday 9:30 AM - 9:00 PM , Thursday 9:30 AM - 9:00 PM , Friday 9:30 AM - 9:00 PM , Saturday 9:30 AM - 9:30 PM , Sunday 10:00 AM - 7:00 PM ",,,
buybuy BABY Livingston,,530 West Mount Pleasant Avenue,,Livingston,NJ,07039,US,(973) 422-0431,40.7997459391466,-74.3481071865081,"Monday 9:00 AM - 9:00 PM , Tuesday 9:00 AM - 9:00 PM , Wednesday 9:00 AM - 9:00 PM , Thursday 9:00 AM - 9:00 PM , Friday 9:00 AM - 9:00 PM , Saturday 9:00 AM - 9:00 PM , Sunday 10:00 AM - 6:00 PM ",,,
buybuy BABY Deptford,,1745 Deptford Center Road,,Deptford,NJ,08096,US,(856) 228-2498,39.8270232406238,-75.0981147587299,"Monday 9:30 AM - 9:00 PM , Tuesday 9:30 AM - 9:00 PM , Wednesday 9:30 AM - 9:00 PM , Thursday 9:30 AM - 9:00 PM , Friday 9:30 AM - 9:00 PM , Saturday 9:00 AM - 9:00 PM , Sunday 10:00 AM - 7:00 PM ",,,
buybuy BABY Cherry Hill,,1590 Kings Highway North,,Cherry Hill,NJ,08034,US,(856) 354-5162,39.9165654960807,-75.0091714282417,"Monday 9:30 AM - 9:30 PM , Tuesday 9:30 AM - 9:30 PM , Wednesday 9:30 AM - 9:30 PM , Thursday 9:30 AM - 9:30 PM , Friday 9:30 AM - 10:00 PM , Saturday 9:00 AM - 10:00 PM , Sunday 10:00 AM - 7:00 PM ",,,
buybuy BABY Bridgewater,,711 Route 28,,Bridgewater,NJ,08807,US,(908) 725-1501,40.577726529723,-74.6308109164237,"Monday 9:00 AM - 9:00 PM , Tuesday 9:00 AM - 9:00 PM , Wednesday 9:00 AM - 9:00 PM , Thursday 9:00 AM - 9:00 PM , Friday 9:00 AM - 9:00 PM , Saturday 9:00 AM - 9:00 PM , Sunday 10:00 AM - 7:00 PM ",,,
buybuy BABY Utica,,13361 Hall Road,,Utica,MI,48315,US,(586) 726-5464,42.6305056611082,-82.9957947285584,"Monday 9:00 AM - 9:00 PM , Tuesday 9:00 AM - 9:00 PM , Wednesday 9:00 AM - 9:00 PM , Thursday 9:00 AM - 9:00 PM , Friday 9:00 AM - 9:00 PM , Saturday 9:00 AM - 9:00 PM , Sunday 10:00 AM - 7:00 PM ",,,
buybuy BABY Kentwood,,4100 28th Street Southeast,,Kentwood,MI,49512,US,(616) 957-2580,42.9118811512866,-85.5657050167428,"Monday 9:00 AM - 9:00 PM , Tuesday 9:00 AM - 9:00 PM , Wednesday 9:00 AM - 9:00 PM , Thursday 9:00 AM - 9:00 PM , Friday 9:00 AM - 9:00 PM , Saturday 9:00 AM - 9:00 PM , Sunday 10:00 AM - 6:00 PM ",,,
buybuy BABY Farmington Hills,,30995 Orchard Lake Road,,Farmington Hills,MI,48334,US,(248) 737-2894,42.5248488564677,-83.3622059226036,"Monday 9:00 AM - 9:00 PM , Tuesday 9:00 AM - 9:00 PM , Wednesday 9:00 AM - 9:00 PM , Thursday 9:00 AM - 9:00 PM , Friday 9:00 AM - 9:00 PM , Saturday 9:00 AM - 9:00 PM , Sunday 10:00 AM - 7:00 PM ",,,
buybuy BABY St. Louis,,3200 Laclede Station,,Saint Louis,MO,63143,US,(314) 646-8716,38.6041756347222,-90.3302496671676,"Monday 9:00 AM - 9:00 PM , Tuesday 9:00 AM - 9:00 PM , Wednesday 9:00 AM - 9:00 PM , Thursday 9:00 AM - 9:00 PM , Friday 9:00 AM - 9:00 PM , Saturday 9:00 AM - 9:00 PM , Sunday 10:00 AM - 6:00 PM ",,,
buybuy BABY Independence,,20000 East Jackson Drive,,Independence,MO,64057,US,(816) 795-3383,39.0424717871871,-94.3447159306015,"Monday 9:00 AM - 9:00 PM , Tuesday 9:00 AM - 9:00 PM , Wednesday 9:00 AM - 9:00 PM , Thursday 9:00 AM - 9:00 PM , Friday 9:00 AM - 9:00 PM , Saturday 9:00 AM - 9:00 PM , Sunday 11:00 AM - 7:00 PM ",,,
buybuy BABY Canton,,42595 Ford Road,,Canton,MI,48187,US,(734) 844-1108,42.3213151992967,-83.4605947287491,"Monday 9:00 AM - 9:00 PM , Tuesday 9:00 AM - 9:00 PM , Wednesday 9:00 AM - 9:00 PM , Thursday 9:00 AM - 9:00 PM , Friday 9:00 AM - 9:00 PM , Saturday 9:00 AM - 9:00 PM , Sunday 10:00 AM - 7:00 PM ",,,
buybuy BABY Ballwin,,15355A Manchester Road,,Ballwin,MO,63011,US,(636) 527-0154,38.5939168442931,-90.5602316633667,"Monday 9:00 AM - 9:00 PM , Tuesday 9:00 AM - 9:00 PM , Wednesday 9:00 AM - 9:00 PM , Thursday 9:00 AM - 9:00 PM , Friday 9:00 AM - 9:00 PM , Saturday 9:00 AM - 9:00 PM , Sunday 10:00 AM - 6:00 PM ",,,
buybuy BABY Morrisville,,3121 Market Center Drive,,Morrisville,NC,27560,US,(919) 467-5149,35.804692747476,-78.8183534145355,"Monday 10:00 AM - 9:00 PM , Tuesday 10:00 AM - 9:00 PM , Wednesday 10:00 AM - 9:00 PM , Thursday 10:00 AM - 9:00 PM , Friday 9:00 AM - 9:00 PM , Saturday 9:00 AM - 9:00 PM , Sunday 11:00 AM - 7:00 PM ",,,
buybuy BABY Durham,,5430 New Hope Commons Drive,,Durham,NC,27707,US,(919) 489-4095,35.9559415492287,-78.9968168735504,"Monday 10:00 AM - 8:00 PM , Tuesday 10:00 AM - 8:00 PM , Wednesday 10:00 AM - 8:00 PM , Thursday 10:00 AM - 8:00 PM , Friday 9:00 AM - 9:00 PM , Saturday 9:00 AM - 9:00 PM , Sunday 11:00 AM - 6:00 PM ",,,
buybuy BABY Port Chester,,441 Boston Post Road,,Port Chester,NY,10573,US,(914) 937-3473,40.9922873061893,-73.672701716423,"Monday 9:00 AM - 9:30 PM , Tuesday 9:00 AM - 9:30 PM , Wednesday 9:00 AM - 9:30 PM , Thursday 9:00 AM - 9:30 PM , Friday 9:00 AM - 9:30 PM , Saturday 9:00 AM - 9:30 PM , Sunday 10:00 AM - 7:00 PM ",,,
buybuy BABY Charlotte,,9555 South Boulevard,,Charlotte,NC,28273,US,(704) 554-6997,35.1059937517101,-80.8771164790596,"Monday 9:30 AM - 9:00 PM , Tuesday 9:30 AM - 9:00 PM , Wednesday 9:30 AM - 9:00 PM , Thursday 9:30 AM - 9:00 PM , Friday 9:30 AM - 9:00 PM , Saturday 9:30 AM - 9:00 PM , Sunday 10:00 AM - 7:00 PM ",,,
buybuy BABY Huntington Station,,350 Walt Whitman Road,,Huntington Station,NY,11746,US,(631) 425-0404,40.8172744940059,-73.4089507238696,"Monday 9:00 AM - 9:00 PM , Tuesday 9:00 AM - 9:00 PM , Wednesday 9:00 AM - 9:00 PM , Thursday 9:00 AM - 9:00 PM , Friday 9:00 AM - 9:00 PM , Saturday 9:00 AM - 9:00 PM , Sunday 10:00 AM - 7:00 PM ",,,
buybuy BABY Garden City,,895 East Gate Boulevard,,Garden City,NY,11530,US,(516) 507-3400,40.7429632918213,-73.6093895213434,"Monday 9:00 AM - 9:00 PM , Tuesday 9:00 AM - 9:00 PM , Wednesday 9:00 AM - 9:00 PM , Thursday 9:00 AM - 9:00 PM , Friday 9:00 AM - 9:00 PM , Saturday 9:00 AM - 9:00 PM , Sunday 9:00 AM - 7:00 PM ",,,
buybuy BABY Albany,,1440 Central Avenue,,Colonie,NY,12205,US,(518) 489-0930,42.7062121487302,-73.8250619173049,"Monday 9:30 AM - 9:00 PM , Tuesday 9:30 AM - 9:00 PM , Wednesday 9:30 AM - 9:00 PM , Thursday 9:30 AM - 9:00 PM , Friday 9:30 AM - 9:00 PM , Saturday 9:30 AM - 9:00 PM , Sunday 10:00 AM - 6:00 PM ",,,
buybuy BABY Henrietta,,790 Jefferson Road,,Henrietta,NY,14623,US,(585) 427-2896,43.0887611382544,-77.6178181171416,"Monday 9:00 AM - 9:30 PM , Tuesday 9:00 AM - 9:30 PM , Wednesday 9:00 AM - 9:30 PM , Thursday 9:00 AM - 9:30 PM , Friday 9:00 AM - 9:30 PM , Saturday 9:00 AM - 9:30 PM , Sunday 10:00 AM - 6:00 PM ",,,
buybuy BABY Amherst,,1261 Niagara Falls Boulevard,,Amherst,NY,14226,US,(716) 833-3714,42.9851902287535,-78.8205501589436,"Monday 9:00 AM - 9:00 PM , Tuesday 9:00 AM - 9:00 PM , Wednesday 9:00 AM - 9:00 PM , Thursday 9:00 AM - 9:00 PM , Friday 9:00 AM - 9:00 PM , Saturday 9:00 AM - 9:00 PM , Sunday 10:00 AM - 6:00 PM ",,,
buybuy BABY Webster,,19801 Gulf Freeway,,Webster,TX,77598,US,(281) 316-4275,29.5383939609251,-95.1349791884422,"Monday 9:00 AM - 9:30 PM , Tuesday 9:00 AM - 9:30 PM , Wednesday 9:00 AM - 9:30 PM , Thursday 9:00 AM - 9:30 PM , Friday 9:00 AM - 9:30 PM , Saturday 9:00 AM - 9:30 PM , Sunday 10:00 AM - 7:00 PM ",,,
buybuy BABY Southlake,,2901 East State Highway 114,,Southlake,TX,76092,US,(817) 601-0763,32.9404212981536,-97.1075159311294,"Monday 9:00 AM - 9:00 PM , Tuesday 9:00 AM - 9:00 PM , Wednesday 9:00 AM - 9:00 PM , Thursday 9:00 AM - 9:00 PM , Friday 9:00 AM - 9:00 PM , Saturday 9:00 AM - 9:00 PM , Sunday 11:00 AM - 7:00 PM ",,,
buybuy BABY Plano,,2712 North Central Expressway,,Plano,TX,75074,US,(972) 422-1542,33.0341575200853,-96.7036288976668,"Monday 9:00 AM - 9:00 PM , Tuesday 9:00 AM - 9:00 PM , Wednesday 9:00 AM - 9:00 PM , Thursday 9:00 AM - 9:00 PM , Friday 9:00 AM - 9:00 PM , Saturday 9:00 AM - 9:00 PM , Sunday 11:00 AM - 7:00 PM ",,,
buybuy BABY Pharr,,500 North Jackson Road,,Pharr,TX,78577,US,(956) 588-2997,26.202553690514396,-98.20170788093492,"Monday 9:00 AM - 9:00 PM , Tuesday 9:00 AM - 9:00 PM , Wednesday 9:00 AM - 9:00 PM , Thursday 9:00 AM - 9:00 PM , Friday 9:00 AM - 9:00 PM , Saturday 9:00 AM - 9:00 PM , Sunday 10:00 AM - 7:00 PM ",,,
buybuy BABY Katy,,24600 Katy Freeway,,Katy,TX,77494,US,(346) 307-3022,29.7880190663198,-95.7948775595244,"Monday 9:00 AM - 9:00 PM , Tuesday 9:00 AM - 9:00 PM , Wednesday 9:00 AM - 9:00 PM , Thursday 9:00 AM - 9:00 PM , Friday 9:00 AM - 9:00 PM , Saturday 9:00 AM - 9:00 PM , Sunday 10:00 AM - 7:00 PM ",,,
buybuy BABY Hurst,,1451 West Pipeline Road,,Hurst,TX,76053,US,(817) 595-7361,32.8221531314161,-97.2044683992863,"Monday 9:00 AM - 9:00 PM , Tuesday 9:00 AM - 9:00 PM , Wednesday 9:00 AM - 9:00 PM , Thursday 9:00 AM - 9:00 PM , Friday 9:00 AM - 9:00 PM , Saturday 9:00 AM - 9:00 PM , Sunday 11:00 AM - 7:00 PM ",,,
buybuy BABY Houston,,17355 Tomball Parkway,,Houston,TX,77064,US,(281) 970-9024,29.9531265271445,-95.5435574054718,"Monday 9:00 AM - 9:30 PM , Tuesday 9:00 AM - 9:30 PM , Wednesday 9:00 AM - 9:30 PM , Thursday 9:00 AM - 9:30 PM , Friday 9:00 AM - 9:30 PM , Saturday 9:00 AM - 9:30 PM , Sunday 10:00 AM - 7:00 PM ",,,
buybuy BABY Frisco,,2930 Preston Road,,Frisco,TX,75034,US,(214) 705-1156,33.1023114927841,-96.8023610115051,"Monday 9:00 AM - 9:00 PM , Tuesday 9:00 AM - 9:00 PM , Wednesday 9:00 AM - 9:00 PM , Thursday 9:00 AM - 9:00 PM , Friday 9:00 AM - 9:00 PM , Saturday 9:00 AM - 9:00 PM , Sunday 11:00 AM - 7:00 PM ",,,
buybuy BABY Fort Worth,,4648 Southwest Loop 820,,Fort Worth,TX,76109,US,(817) 731-0355,32.6834278220741,-97.3936995863914,"Monday 9:00 AM - 9:00 PM , Tuesday 9:00 AM - 9:00 PM , Wednesday 9:00 AM - 9:00 PM , Thursday 9:00 AM - 9:00 PM , Friday 9:00 AM - 9:00 PM , Saturday 9:00 AM - 9:00 PM , Sunday 11:00 AM - 7:00 PM ",,,
buybuy BABY Dallas,,13900 Dallas Parkway,,Dallas,TX,75240,US,(972) 386-6809,32.936682295515,-96.8197111750386,"Monday 9:00 AM - 9:00 PM , Tuesday 9:00 AM - 9:00 PM , Wednesday 9:00 AM - 9:00 PM , Thursday 9:00 AM - 9:00 PM , Friday 9:00 AM - 9:00 PM , Saturday 9:00 AM - 9:00 PM , Sunday 11:00 AM - 7:00 PM ",,,
buybuy BABY Austin,,5400 Brodie Lane,,Austin,TX,78745,US,(512) 892-3852,30.2297980453305,-97.8225285116059,"Monday 9:00 AM - 9:00 PM , Tuesday 9:00 AM - 9:00 PM , Wednesday 9:00 AM - 9:00 PM , Thursday 9:00 AM - 9:00 PM , Friday 9:00 AM - 9:00 PM , Saturday 9:00 AM - 9:00 PM , Sunday 10:00 AM - 7:00 PM ",,,
buybuy BABY Springfield,,6398 Springfield Plaza,,Springfield,VA,22150,US,(703) 923-9797,38.781289818208,-77.1896418220901,"Monday 9:30 AM - 9:30 PM , Tuesday 9:30 AM - 9:30 PM , Wednesday 9:30 AM - 9:30 PM , Thursday 9:30 AM - 9:30 PM , Friday 9:30 AM - 9:30 PM , Saturday 9:30 AM - 9:30 PM , Sunday 10:00 AM - 7:00 PM ",,,
buybuy BABY Fredericksburg,,1320 Carl D Silver Parkway,,Fredericksburg,VA,22401,US,(540) 786-8746,38.3014302227899,-77.5110769271851,"Monday 9:30 AM - 9:00 PM , Tuesday 9:30 AM - 9:00 PM , Wednesday 9:30 AM - 9:00 PM , Thursday 9:30 AM - 9:00 PM , Friday 9:30 AM - 9:00 PM , Saturday 9:30 AM - 9:30 PM , Sunday 10:00 AM - 7:00 PM ",,,
buybuy BABY New York City  (Upper East Side),,410 East 61st Street,,New York,NY,10065,US,(646) 215-4702,40.7606193498895,-73.9609285481674,"Monday 9:00 AM - 9:00 PM , Tuesday 9:00 AM - 9:00 PM , Wednesday 9:00 AM - 9:00 PM , Thursday 9:00 AM - 9:00 PM , Friday 9:00 AM - 9:00 PM , Saturday 9:00 AM - 9:00 PM , Sunday 9:00 AM - 9:00 PM ",,,
buybuy BABY New York,,270 Seventh Avenue,,New York,NY,10001,US,(917) 344-1555,40.7457969321806,-73.9947532117366,"Monday 9:00 AM - 9:00 PM , Tuesday 9:00 AM - 9:00 PM , Wednesday 9:00 AM - 9:00 PM , Thursday 9:00 AM - 9:00 PM , Friday 9:00 AM - 9:00 PM , Saturday 9:00 AM - 9:00 PM , Sunday 10:00 AM - 7:00 PM ",,,
buybuy BABY West Des Moines,,4100 University Avenue,,West Des Moines,IA,50266,US,(515) 223-3823,41.599368077171,-93.7587994337081,"Monday 9:00 AM - 9:00 PM , Tuesday 9:00 AM - 9:00 PM , Wednesday 9:00 AM - 9:00 PM , Thursday 9:00 AM - 9:00 PM , Friday 9:00 AM - 9:00 PM , Saturday 9:00 AM - 9:00 PM , Sunday 10:00 AM - 6:00 PM ",,,
buybuy BABY Christiana Town Center,,501 West Main Street,,Christiana,DE,19702,US,(302) 894-9212,39.6720617999272,-75.6650439057011,"Monday 9:00 AM - 9:00 PM , Tuesday 9:00 AM - 9:00 PM , Wednesday 9:00 AM - 9:00 PM , Thursday 9:00 AM - 9:00 PM , Friday 9:00 AM - 9:00 PM , Saturday 9:00 AM - 9:30 PM , Sunday 10:00 AM - 7:00 PM ",,,
buybuy BABY Connecticut Post Mall,,1201 Boston Post Road,,Milford,CT,06460,US,(203) 874-6438,41.236504,-73.033978,"Monday 10:00 AM - 9:00 PM , Tuesday 10:00 AM - 9:00 PM , Wednesday 10:00 AM - 9:00 PM , Thursday 10:00 AM - 9:00 PM , Friday 10:00 AM - 9:00 PM , Saturday 10:00 AM - 9:00 PM , Sunday 11:00 AM - 6:00 PM ",,,
buybuy BABY Aurora,,6492 South Parker Road,,Aurora,CO,80016,US,(303) 305-1130,39.5988726664447,-104.801547402446,"Monday 9:00 AM - 9:00 PM , Tuesday 9:00 AM - 9:00 PM , Wednesday 9:00 AM - 9:00 PM , Thursday 9:00 AM - 9:00 PM , Friday 9:00 AM - 9:00 PM , Saturday 9:00 AM - 9:00 PM , Sunday 10:00 AM - 7:00 PM ",,,
buybuy BABY Hoover,,4351 Creekside Avenue,,Hoover,AL,35244,US,(205) 988-3027,33.3762107650418,-86.8164485692978,"Monday 10:00 AM - 9:00 PM , Tuesday 10:00 AM - 9:00 PM , Wednesday 10:00 AM - 9:00 PM , Thursday 10:00 AM - 9:00 PM , Friday 9:30 AM - 9:00 PM , Saturday 9:30 AM - 9:00 PM , Sunday 10:00 AM - 6:00 PM ",,,
buybuy BABY Wichita,,2756 North Greenwich Court,,Wichita,KS,67226,US,(316) 768-5152,37.7326701438283,-97.2076865471899,"Monday 9:00 AM - 9:00 PM , Tuesday 9:00 AM - 9:00 PM , Wednesday 9:00 AM - 9:00 PM , Thursday 9:00 AM - 9:00 PM , Friday 9:00 AM - 9:00 PM , Saturday 9:00 AM - 9:00 PM , Sunday 11:00 AM - 7:00 PM ",,,
buybuy BABY Overland Park,,12055 Metcalf Avenue,,Overland Park,KS,66213,US,(913) 661-2675,38.9112806893574,-94.6653458626678,"Monday 9:00 AM - 9:00 PM , Tuesday 9:00 AM - 9:00 PM , Wednesday 9:00 AM - 9:00 PM , Thursday 9:00 AM - 9:00 PM , Friday 9:00 AM - 9:00 PM , Saturday 9:00 AM - 9:00 PM , Sunday 10:00 AM - 7:00 PM ",,,
buybuy BABY Indianapolis,,4030 East 82nd Street,,Indianapolis,IN,46250,US,(317) 845-0509,39.9085679224845,-86.0972330126423,"Monday 9:00 AM - 9:00 PM , Tuesday 9:00 AM - 9:00 PM , Wednesday 9:00 AM - 9:00 PM , Thursday 9:00 AM - 9:00 PM , Friday 9:00 AM - 9:00 PM , Saturday 9:00 AM - 9:00 PM , Sunday 10:00 AM - 7:00 PM ",,,
buybuy BABY Greenwood,,1230 North US 31,,Greenwood,IN,46142,US,(317) 885-0043,39.6310335418824,-86.1256550327743,"Monday 10:00 AM - 8:00 PM , Tuesday 10:00 AM - 8:00 PM , Wednesday 10:00 AM - 8:00 PM , Thursday 10:00 AM - 8:00 PM , Friday 10:00 AM - 8:00 PM , Saturday 10:00 AM - 8:00 PM , Sunday 11:00 AM - 6:00 PM ",,,
buybuy BABY Schaumburg,,580 East Golf Road,,Schaumburg,IL,60173,US,(847) 884-2023,42.0516866469719,-88.0662962794303,"Monday 9:00 AM - 9:00 PM , Tuesday 9:00 AM - 9:00 PM , Wednesday 9:00 AM - 9:00 PM , Thursday 9:00 AM - 9:00 PM , Friday 9:00 AM - 9:00 PM , Saturday 9:00 AM - 9:00 PM , Sunday 10:00 AM - 7:00 PM ",,,
buybuy BABY Orland Park,,290 Orland Park Place,,Orland Park,IL,60462,US,(708) 403-2575,41.6133871856108,-87.8511616738251,"Monday 9:00 AM - 9:00 PM , Tuesday 9:00 AM - 9:00 PM , Wednesday 9:00 AM - 9:00 PM , Thursday 9:00 AM - 9:00 PM , Friday 9:00 AM - 9:00 PM , Saturday 9:00 AM - 9:00 PM , Sunday 10:00 AM - 7:00 PM ",,,
buybuy BABY Naperville,,324 South Route 59,,Naperville,IL,60540,US,(630) 428-0755,41.7667947261389,-88.2035516278575,"Monday 9:00 AM - 9:00 PM , Tuesday 9:00 AM - 9:00 PM , Wednesday 9:00 AM - 9:00 PM , Thursday 9:00 AM - 9:00 PM , Friday 9:00 AM - 9:00 PM , Saturday 9:00 AM - 9:00 PM , Sunday 11:00 AM - 6:00 PM ",,,
buybuy BABY Downers Grove,,1556 Butterfield Road,,Downers Grove,IL,60515,US,(630) 705-0823,41.8353690318784,-88.0248561501502,"Monday 9:00 AM - 9:00 PM , Tuesday 9:00 AM - 9:00 PM , Wednesday 9:00 AM - 9:00 PM , Thursday 9:00 AM - 9:00 PM , Friday 9:00 AM - 9:00 PM , Saturday 9:00 AM - 9:00 PM , Sunday 10:00 AM - 7:00 PM ",,,
buybuy BABY Lexington,,3220 Nicholasville Road,,Lexington,KY,40503,US,(859) 272-8079,37.9935712130588,-84.5204159617423,"Monday 9:00 AM - 9:00 PM , Tuesday 9:00 AM - 9:00 PM , Wednesday 9:00 AM - 9:00 PM , Thursday 9:00 AM - 9:00 PM , Friday 9:00 AM - 9:00 PM , Saturday 9:00 AM - 9:00 PM , Sunday 10:00 AM - 7:00 PM ",,,
buybuy BABY Lexington,,2321 Sir Barton Way,,Lexington,KY,40509,US,(859) 263-9889,38.0204776935214,-84.4234755635261,"Monday 9:00 AM - 9:00 PM , Tuesday 9:00 AM - 9:00 PM , Wednesday 9:00 AM - 9:00 PM , Thursday 9:00 AM - 9:00 PM , Friday 9:00 AM - 9:00 PM , Saturday 9:00 AM - 9:00 PM , Sunday 10:00 AM - 7:00 PM ",,,
buybuy BABY Crystal Lake,,5540 Northwest Highway,,Crystal Lake,IL,60014,US,(815) 459-4861,42.2290178503603,-88.3043959736824,"Monday 9:00 AM - 9:00 PM , Tuesday 9:00 AM - 9:00 PM , Wednesday 9:00 AM - 9:00 PM , Thursday 9:00 AM - 9:00 PM , Friday 9:00 AM - 9:00 PM , Saturday 9:00 AM - 9:00 PM , Sunday 10:00 AM - 6:00 PM ",,,
buybuy BABY Chicago,,1419 North Kingsbury Street,,Chicago,IL,60642,US,(312) 274-0517,41.9068386348091,-87.6498042123148,"Monday 8:00 AM - 9:00 PM , Tuesday 8:00 AM - 9:00 PM , Wednesday 8:00 AM - 9:00 PM , Thursday 8:00 AM - 9:00 PM , Friday 8:00 AM - 9:00 PM , Saturday 8:00 AM - 9:00 PM , Sunday 9:00 AM - 7:00 PM ",,,
buybuy BABY Royal Palm Beach,,550 North State Road 7,,Royal Palm Beach,FL,33411,US,(561) 790-0726,26.6854261771302,-80.1991626772542,"Monday 10:00 AM - 9:00 PM , Tuesday 10:00 AM - 9:00 PM , Wednesday 10:00 AM - 9:00 PM , Thursday 10:00 AM - 9:00 PM , Friday 9:00 AM - 9:00 PM , Saturday 9:00 AM - 9:00 PM , Sunday 10:00 AM - 7:00 PM ",,,
buybuy BABY Pembroke Pines,,11360 Pines Boulevard,,Pembroke Pines,FL,33026,US,(954) 450-6257,26.0064116999685,-80.2995014190673,"Monday 9:00 AM - 9:30 PM , Tuesday 9:00 AM - 9:30 PM , Wednesday 9:00 AM - 9:30 PM , Thursday 9:00 AM - 9:30 PM , Friday 9:00 AM - 9:30 PM , Saturday 9:00 AM - 9:30 PM , Sunday 10:00 AM - 7:00 PM ",,,
buybuy BABY Orlando (E. Colonial),,3206 East Colonial Drive,,Orlando,FL,32803,US,(407) 895-7114,28.5523201054505,-81.3433125615119,"Monday 9:00 AM - 9:30 PM , Tuesday 9:00 AM - 9:30 PM , Wednesday 9:00 AM - 9:30 PM , Thursday 9:00 AM - 9:30 PM , Friday 9:00 AM - 9:30 PM , Saturday 9:00 AM - 9:30 PM , Sunday 10:00 AM - 7:00 PM ",,,
buybuy BABY Miami,,8241 West Flagler Street,,Miami,FL,33144,US,(305) 266-5324,25.7710991079664,-80.3288713714516,"Monday 9:00 AM - 9:30 PM , Tuesday 9:00 AM - 9:30 PM , Wednesday 9:00 AM - 9:30 PM , Thursday 9:00 AM - 9:30 PM , Friday 9:00 AM - 9:30 PM , Saturday 9:00 AM - 9:30 PM , Sunday 10:00 AM - 7:00 PM ",,,
buybuy BABY Jacksonville,,8801 Southside Boulevard,,Jacksonville,FL,32256,US,(904) 363-6014,30.1991638324293,-81.5502355992794,"Monday 10:00 AM - 9:00 PM , Tuesday 10:00 AM - 9:00 PM , Wednesday 10:00 AM - 9:00 PM , Thursday 10:00 AM - 9:00 PM , Friday 9:00 AM - 9:00 PM , Saturday 9:00 AM - 9:00 PM , Sunday 10:00 AM - 7:00 PM ",,,
buybuy BABY Coral Springs,,2035 North University Drive,,Coral Springs,FL,33071,US,(954) 575-7449,26.2558667442425,-80.2495989203452,"Monday 10:00 AM - 9:00 PM , Tuesday 10:00 AM - 9:00 PM , Wednesday 10:00 AM - 9:00 PM , Thursday 10:00 AM - 9:00 PM , Friday 9:00 AM - 9:00 PM , Saturday 9:00 AM - 9:00 PM , Sunday 10:00 AM - 7:00 PM ",,,
buybuy BABY Tucson,,7475 North La Cholla Boulevard,,Tucson,AZ,85741,US,(520) 297-1146,32.3424494881886,-111.014256037851,"Monday 10:00 AM - 9:00 PM , Tuesday 10:00 AM - 9:00 PM , Wednesday 10:00 AM - 9:00 PM , Thursday 10:00 AM - 9:00 PM , Friday 10:00 AM - 9:00 PM , Saturday 10:00 AM - 9:00 PM , Sunday 10:00 AM - 6:00 PM ",,,
buybuy BABY Scottsdale,,10080 North 90th Street,,Scottsdale,AZ,85258,US,(480) 661-2123,33.5776795497557,-111.888551157512,"Monday 9:00 AM - 9:00 PM , Tuesday 9:00 AM - 9:00 PM , Wednesday 9:00 AM - 9:00 PM , Thursday 9:00 AM - 9:00 PM , Friday 9:00 AM - 9:00 PM , Saturday 9:00 AM - 9:00 PM , Sunday 10:00 AM - 7:00 PM ",,,
buybuy BABY West Hills,,6621 Fallbrook Avenue,,West Hills,CA,91307,US,(818) 854-3329,34.1904105426246,-118.625150181433,"Monday 9:00 AM - 9:00 PM , Tuesday 9:00 AM - 9:00 PM , Wednesday 9:00 AM - 9:00 PM , Thursday 9:00 AM - 9:00 PM , Friday 9:00 AM - 9:00 PM , Saturday 9:00 AM - 9:00 PM , Sunday 10:00 AM - 7:00 PM ",,,
buybuy BABY Yorba Linda,,22999 Savi Ranch Parkway,,Yorba Linda,CA,92887,US,(714) 941-1276,33.8749552483708,-117.734874039888,"Monday 9:00 AM - 9:00 PM , Tuesday 9:00 AM - 9:00 PM , Wednesday 9:00 AM - 9:00 PM , Thursday 9:00 AM - 9:00 PM , Friday 9:00 AM - 9:00 PM , Saturday 9:00 AM - 9:00 PM , Sunday 10:00 AM - 8:00 PM ",,,
buybuy BABY Chandler,,2640 West Chandler Boulevard,,Chandler,AZ,85224,US,(480) 899-9954,33.3079112957376,-111.887124635441,"Monday 9:00 AM - 9:30 PM , Tuesday 9:00 AM - 9:30 PM , Wednesday 9:00 AM - 9:30 PM , Thursday 9:00 AM - 9:30 PM , Friday 9:00 AM - 9:30 PM , Saturday 9:00 AM - 9:30 PM , Sunday 10:00 AM - 7:00 PM ",,,
buybuy BABY Torrance,,3700 West Torrance Boulevard,,Torrance,CA,90503,US,(310) 316-3794,33.8371595546992,-118.352152265688,"Monday 9:00 AM - 9:00 PM , Tuesday 9:00 AM - 9:00 PM , Wednesday 9:00 AM - 9:00 PM , Thursday 9:00 AM - 9:00 PM , Friday 9:00 AM - 9:00 PM , Saturday 9:00 AM - 9:00 PM , Sunday 10:00 AM - 7:00 PM ",,,
buybuy BABY Temecula,,40438 Winchester Road,,Temecula,CA,92591,US,(951) 296-0052,33.5294267490613,-117.150802910327,"Monday 9:00 AM - 9:00 PM , Tuesday 9:00 AM - 9:00 PM , Wednesday 9:00 AM - 9:00 PM , Thursday 9:00 AM - 9:00 PM , Friday 9:00 AM - 9:00 PM , Saturday 9:00 AM - 9:00 PM , Sunday 10:00 AM - 7:00 PM ",,,
buybuy BABY Santa Clarita,,24267 Magic Mountain Parkway,,Santa Clarita,CA,91355,US,(661) 259-0962,34.4200136849524,-118.558766841888,"Monday 9:00 AM - 9:00 PM , Tuesday 9:00 AM - 9:00 PM , Wednesday 9:00 AM - 9:00 PM , Thursday 9:00 AM - 9:00 PM , Friday 9:00 AM - 9:00 PM , Saturday 9:00 AM - 9:00 PM , Sunday 10:00 AM - 7:00 PM ",,,
buybuy BABY Almaden Plaza,,5353 Almaden Expressway,,San Jose,CA,95118,US,(408) 267-4205,37.253022,-121.877777,"Monday 9:00 AM - 9:00 PM , Tuesday 9:00 AM - 9:00 PM , Wednesday 9:00 AM - 9:00 PM , Thursday 9:00 AM - 9:00 PM , Friday 9:00 AM - 9:00 PM , Saturday 9:00 AM - 9:00 PM , Sunday 9:00 AM - 9:00 PM ",,,
buybuy BABY Roseville,,1120 Galleria Boulevard,,Roseville,CA,95678,US,(916) 791-2400,38.7686652277897,-121.263263680202,"Monday 9:00 AM - 9:00 PM , Tuesday 9:00 AM - 9:00 PM , Wednesday 9:00 AM - 9:00 PM , Thursday 9:00 AM - 9:00 PM , Friday 9:00 AM - 9:00 PM , Saturday 9:00 AM - 9:00 PM , Sunday 10:00 AM - 8:00 PM ",,,
buybuy BABY Rancho Cucamonga,,11530 4th Street,,Rancho Cucamonga,CA,91730,US,(909) 360-5578,34.0788383576003,-117.551191009742,"Monday 9:00 AM - 9:00 PM , Tuesday 9:00 AM - 9:00 PM , Wednesday 9:00 AM - 9:00 PM , Thursday 9:00 AM - 9:00 PM , Friday 9:00 AM - 9:00 PM , Saturday 9:00 AM - 9:00 PM , Sunday 10:00 AM - 8:00 PM ",,,
buybuy BABY Redlands,,27651 San Bernardino Avenue,,Redlands,CA,92374,US,(909) 363-4799,34.0743728517462,-117.202487744552,"Monday 9:00 AM - 9:00 PM , Tuesday 9:00 AM - 9:00 PM , Wednesday 9:00 AM - 9:00 PM , Thursday 9:00 AM - 9:00 PM , Friday 9:00 AM - 9:00 PM , Saturday 9:00 AM - 9:00 PM , Sunday 10:00 AM - 7:00 PM ",,,
buybuy BABY Pleasant Hill,,3250 Buskirk Avenue,,Pleasant Hill,CA,94523,US,(925) 938-2055,37.9351802289882,-122.058497071266,"Monday 9:00 AM - 9:00 PM , Tuesday 9:00 AM - 9:00 PM , Wednesday 9:00 AM - 9:00 PM , Thursday 9:00 AM - 9:00 PM , Friday 9:00 AM - 9:00 PM , Saturday 9:00 AM - 9:00 PM , Sunday 10:00 AM - 7:00 PM ",,,
buybuy BABY Mission Viejo,,25322 El Paseo,,Mission Viejo,CA,92691,US,(949) 282-0024,33.5925543122707,-117.672959268093,"Monday 9:00 AM - 9:00 PM , Tuesday 9:00 AM - 9:00 PM , Wednesday 9:00 AM - 9:00 PM , Thursday 9:00 AM - 9:00 PM , Friday 9:00 AM - 9:00 PM , Saturday 9:00 AM - 9:00 PM , Sunday 10:00 AM - 8:00 PM ",,,
buybuy BABY Fresno,,7458 North Blackstone Avenue,,Fresno,CA,93720,US,(559) 447-1594,36.8449651622779,-119.78841215372,"Monday 9:00 AM - 9:00 PM , Tuesday 9:00 AM - 9:00 PM , Wednesday 9:00 AM - 9:00 PM , Thursday 9:00 AM - 9:00 PM , Friday 9:00 AM - 9:00 PM , Saturday 9:00 AM - 9:00 PM , Sunday 10:00 AM - 8:00 PM ",,,
buybuy BABY Encinitas,,1014 North El Camino Real,,Encinitas,CA,92024,US,(760) 634-1587,33.0631128834993,-117.265881754537,"Monday 8:00 AM - 9:00 PM , Tuesday 8:00 AM - 9:00 PM , Wednesday 8:00 AM - 9:00 PM , Thursday 8:00 AM - 9:00 PM , Friday 8:00 AM - 9:00 PM , Saturday 8:00 AM - 9:00 PM , Sunday 9:00 AM - 9:00 PM ",,,
buybuy BABY Elk Grove,,7621 Laguna Boulevard,,Elk Grove,CA,95758,US,(916) 684-6647,38.4259097035331,-121.413718163967,"Monday 9:00 AM - 9:00 PM , Tuesday 9:00 AM - 9:00 PM , Wednesday 9:00 AM - 9:00 PM , Thursday 9:00 AM - 9:00 PM , Friday 9:00 AM - 9:00 PM , Saturday 9:00 AM - 9:00 PM , Sunday 10:00 AM - 8:00 PM ",,,
buybuy BABY Brandon,,11345 Causeway Boulevard,,Brandon,FL,33511,US,(813) 661-7169,27.9209378958881,-82.3213183879852,"Monday 10:00 AM - 9:00 PM , Tuesday 10:00 AM - 9:00 PM , Wednesday 10:00 AM - 9:00 PM , Thursday 10:00 AM - 9:00 PM , Friday 9:00 AM - 9:00 PM , Saturday 9:00 AM - 9:00 PM , Sunday 10:00 AM - 7:00 PM ",,,
buybuy BABY Altamonte Springs,,130 East Altamonte Drive,,Altamonte Springs,FL,32701,US,(407) 332-0156,28.6605204977312,-81.3875207381079,"Monday 10:00 AM - 9:00 PM , Tuesday 10:00 AM - 9:00 PM , Wednesday 10:00 AM - 9:00 PM , Thursday 10:00 AM - 9:00 PM , Friday 9:00 AM - 9:00 PM , Saturday 9:00 AM - 9:00 PM , Sunday 10:00 AM - 7:00 PM ",,,
buybuy BABY Kennesaw,,2555 Cobb Place Lane NW,,Kennesaw,GA,30144,US,(770) 779-1073,34.0134208964261,-84.5727941546101,"Monday 10:00 AM - 8:00 PM , Tuesday 10:00 AM - 8:00 PM , Wednesday 10:00 AM - 8:00 PM , Thursday 10:00 AM - 8:00 PM , Friday 9:00 AM - 9:00 PM , Saturday 9:00 AM - 9:00 PM , Sunday 11:00 AM - 7:00 PM ",,,
buybuy BABY Snellville,,1670 Scenic Highway North,,Snellville,GA,30078,US,(770) 982-3898,33.8819395465243,-84.0081993766517,"Monday 10:00 AM - 9:00 PM , Tuesday 10:00 AM - 9:00 PM , Wednesday 10:00 AM - 9:00 PM , Thursday 10:00 AM - 9:00 PM , Friday 9:00 AM - 9:00 PM , Saturday 9:00 AM - 9:00 PM , Sunday 11:00 AM - 7:00 PM ",,,
buybuy BABY Augusta Exchange,,242 Robert C. Daniels Jr. Parkway,,Augusta,GA,30909,US,(706) 738-6483,33.491734922431,-82.081197656771,"Monday 10:00 AM - 8:00 PM , Tuesday 10:00 AM - 8:00 PM , Wednesday 10:00 AM - 8:00 PM , Thursday 10:00 AM - 8:00 PM , Friday 9:00 AM - 9:00 PM , Saturday 9:00 AM - 9:00 PM , Sunday 11:00 AM - 6:00 PM ",,,
buybuy BABY Alpharetta,,7121 North Point Parkway,,Alpharetta,GA,30022,US,(770) 475-0633,34.045145530724,-84.302186588784,"Monday 10:00 AM - 9:00 PM , Tuesday 10:00 AM - 9:00 PM , Wednesday 10:00 AM - 9:00 PM , Thursday 10:00 AM - 9:00 PM , Friday 9:00 AM - 9:00 PM , Saturday 9:00 AM - 9:00 PM , Sunday 11:00 AM - 7:00 PM ",,,
buybuy BABY Batavia,,301 North Randall Road,,Batavia,IL,60510,US,(630) 406-1959,41.8562091422797,-88.3428910374641,"Monday 9:00 AM - 8:00 PM , Tuesday 9:00 AM - 8:00 PM , Wednesday 9:00 AM - 8:00 PM , Thursday 9:00 AM - 8:00 PM , Friday 9:00 AM - 8:00 PM , Saturday 9:00 AM - 8:00 PM , Sunday 10:00 AM - 6:00 PM ",,,
