store_name,store_number,address,address2,city,state,zip_code,country,phone_number,latitude,longitude,store_hours,store_type,other_fields,coming_soon
dd's DISCOUNTS,,6135 Atlantic Blvd,,Maywood,CA,90270-3120,US,323-560-1798,33.9828705128205,-118.18624025641,"MONDAY 09:30 AM-09:30 PM, TUESDAY 09:30 AM-09:30 PM, WEDNESDAY 09:30 AM-09:30 PM, THURSDAY 09:30 AM-09:30 PM, FRIDAY 09:30 AM-10:00 PM, SATURDAY 09:30 AM-10:00 PM, SUNDAY 10:00 AM-08:30 PM",,,
dd's DISCOUNTS,,5704 East Whittier Blvd Suite 100,,Commerce,CA,90022-4223,US,323-888-1003,34.01845,-118.148017142857,"MONDAY 09:00 AM-10:00 PM, TUESDAY 09:00 AM-10:00 PM, WEDNESDAY 09:00 AM-10:00 PM, THURSDAY 09:00 AM-10:00 PM, FRIDAY 09:00 AM-10:00 PM, SATURDAY 09:00 AM-10:00 PM, SUNDAY 09:30 AM-09:00 PM",,,
dd's DISCOUNTS,,6039 Florence Ave,,Bell Gardens,CA,90201-4727,US,323-560-1409,33.9670816,-118.1569884,"MONDAY 09:30 AM-09:30 PM, TUESDAY 09:30 AM-09:30 PM, WEDNESDAY 09:30 AM-09:30 PM, THURSDAY 09:30 AM-09:30 PM, FRIDAY 09:00 AM-10:00 PM, SATURDAY 09:00 AM-10:00 PM, SUNDAY 10:00 AM-09:00 PM",,,
dd's DISCOUNTS,,3848 Tweedy Blvd,Suite A,South Gate,CA,90280-6188,US,(323) 568-8641,33.9439963265306,-118.203701428571,"MONDAY 08:30 AM-10:00 PM, TUESDAY 08:30 AM-10:00 PM, WEDNESDAY 08:30 AM-10:00 PM, THURSDAY 08:30 AM-10:00 PM, FRIDAY 08:30 AM-10:00 PM, SATURDAY 08:30 AM-10:00 PM, SUNDAY 09:00 AM-09:30 PM",,,
dd's DISCOUNTS,,230 N Market St,,Inglewood,CA,90301-1217,US,(310) 680-2787,33.96562,-118.352,"MONDAY 09:00 AM-10:00 PM, TUESDAY 09:00 AM-10:00 PM, WEDNESDAY 09:00 AM-10:00 PM, THURSDAY 09:00 AM-10:00 PM, FRIDAY 09:00 AM-10:00 PM, SATURDAY 09:00 AM-10:00 PM, SUNDAY 09:30 AM-09:30 PM",,,
dd's DISCOUNTS,,2616 W Imperial Hwy,,Inglewood,CA,90303-3137,US,(323) 757-5124,33.9309,-118.322253846154,"MONDAY 09:00 AM-10:00 PM, TUESDAY 09:00 AM-10:00 PM, WEDNESDAY 09:00 AM-10:00 PM, THURSDAY 09:00 AM-10:00 PM, FRIDAY 08:30 AM-10:00 PM, SATURDAY 08:30 AM-10:00 PM, SUNDAY 09:30 AM-10:00 PM",,,
dd's DISCOUNTS,,6101 Rosemead Blvd,,Pico Rivera,CA,90660-3223,US,(562) 942-8737,33.99093,-118.09181,"MONDAY 09:30 AM-09:30 PM, TUESDAY 09:30 AM-09:30 PM, WEDNESDAY 09:30 AM-09:30 PM, THURSDAY 09:30 AM-09:30 PM, FRIDAY 09:00 AM-10:00 PM, SATURDAY 09:00 AM-10:00 PM, SUNDAY 10:00 AM-09:30 PM",,,
dd's DISCOUNTS,,144 E Compton Blvd,,Compton,CA,90220-2411,US,(310) 631-0960,33.89598,-118.222866,"MONDAY 09:00 AM-10:00 PM, TUESDAY 09:00 AM-10:00 PM, WEDNESDAY 09:00 AM-10:00 PM, THURSDAY 09:00 AM-10:00 PM, FRIDAY 08:30 AM-10:00 PM, SATURDAY 08:30 AM-10:00 PM, SUNDAY 09:30 AM-09:30 PM",,,
dd's DISCOUNTS,,2405 W Rosecrans Ave,,Gardena,CA,90249-2828,US,(310) 5150030,33.90192,-118.320457090909,"MONDAY 09:00 AM-09:30 PM, TUESDAY 09:00 AM-09:30 PM, WEDNESDAY 09:00 AM-09:30 PM, THURSDAY 09:00 AM-09:30 PM, FRIDAY 09:00 AM-10:00 PM, SATURDAY 09:00 AM-10:00 PM, SUNDAY 10:00 AM-10:00 PM",,,
dd's DISCOUNTS,,13141 Hawthorne Blvd,,Hawthorne,CA,90250-5708,US,(310) 263-1528,33.9127814285714,-118.35275,"MONDAY 09:00 AM-09:30 PM, TUESDAY 09:00 AM-09:30 PM, WEDNESDAY 09:00 AM-09:30 PM, THURSDAY 09:00 AM-09:30 PM, FRIDAY 09:00 AM-10:00 PM, SATURDAY 09:00 AM-10:00 PM, SUNDAY 09:30 AM-09:00 PM",,,
dd's DISCOUNTS,,481 E Albertoni St,Suite A,Carson,CA,90746-1430,US,(310) 354-5935,33.8717163157895,-118.267931052632,"MONDAY 09:00 AM-10:00 PM, TUESDAY 09:00 AM-10:00 PM, WEDNESDAY 09:00 AM-10:00 PM, THURSDAY 09:00 AM-10:00 PM, FRIDAY 08:30 AM-10:00 PM, SATURDAY 08:30 AM-10:00 PM, SUNDAY 09:30 AM-10:00 PM",,,
dd's DISCOUNTS,,12030 Valley Blvd,,El Monte,CA,91732-3104,US,626-401-0295,34.06237,-118.018407777778,"MONDAY 09:00 AM-10:00 PM, TUESDAY 09:00 AM-10:00 PM, WEDNESDAY 09:00 AM-10:00 PM, THURSDAY 09:00 AM-10:00 PM, FRIDAY 08:30 AM-10:00 PM, SATURDAY 08:30 AM-10:00 PM, SUNDAY 09:30 AM-10:00 PM",,,
dd's DISCOUNTS,,11701 Rosencrans Ave,,Norwalk,CA,90650-3927,US,(562) 868-0547,33.90224,-118.08449,"MONDAY 09:30 AM-10:00 PM, TUESDAY 09:30 AM-10:00 PM, WEDNESDAY 09:30 AM-10:00 PM, THURSDAY 09:30 AM-10:00 PM, FRIDAY 09:00 AM-10:00 PM, SATURDAY 09:00 AM-10:00 PM, SUNDAY 09:30 AM-10:00 PM",,,
dd's DISCOUNTS,,13455 Telegraph Rd,,Whittier,CA,90605-3435,US,(562) 946-3856,33.93908,-118.04478,"MONDAY 08:30 AM-10:30 PM, TUESDAY 08:30 AM-10:30 PM, WEDNESDAY 08:30 AM-10:30 PM, THURSDAY 08:30 AM-10:30 PM, FRIDAY 08:30 AM-10:30 PM, SATURDAY 08:30 AM-10:30 PM, SUNDAY 09:00 AM-09:30 PM",,,
dd's DISCOUNTS,,1200 W Francisquito Ave,Suite A,West Covina,CA,91790-4722,US,(626) 917-6065,34.05207,-117.95167,"MONDAY 09:00 AM-10:00 PM, TUESDAY 09:00 AM-10:00 PM, WEDNESDAY 09:00 AM-10:00 PM, THURSDAY 09:00 AM-10:00 PM, FRIDAY 09:00 AM-10:00 PM, SATURDAY 09:00 AM-10:00 PM, SUNDAY 09:30 AM-09:30 PM",,,
dd's DISCOUNTS,,18340 Vanowen St,,Reseda,CA,91335,US,818-705-5420,34.1938459183673,-118.533109795918,"MONDAY 08:00 AM-10:00 PM, TUESDAY 08:00 AM-10:00 PM, WEDNESDAY 08:00 AM-10:00 PM, THURSDAY 08:00 AM-10:00 PM, FRIDAY 08:30 AM-10:00 PM, SATURDAY 08:30 AM-10:00 PM, SUNDAY 09:00 AM-09:30 PM",,,
dd's DISCOUNTS,,408 N Azusa Ave,,Covina,CA,91722-3610,US,(626) 967-8788,34.0883947169811,-117.90772,"MONDAY 09:30 AM-10:00 PM, TUESDAY 09:30 AM-10:00 PM, WEDNESDAY 09:30 AM-10:00 PM, THURSDAY 09:30 AM-10:00 PM, FRIDAY 09:00 AM-10:00 PM, SATURDAY 09:00 AM-10:00 PM, SUNDAY 09:30 AM-09:00 PM",,,
dd's DISCOUNTS,,2300 E 7th Street,,Long Beach,CA,90804-4619,US,562-433-5432,33.77535,-118.16442,"MONDAY 09:30 AM-09:30 PM, TUESDAY 09:30 AM-09:30 PM, WEDNESDAY 09:30 AM-09:30 PM, THURSDAY 09:30 AM-09:30 PM, FRIDAY 09:30 AM-10:00 PM, SATURDAY 09:30 AM-10:00 PM, SUNDAY 10:00 AM-08:30 PM",,,
dd's DISCOUNTS,,14701 Rinaldi St,,San Fernando,CA,91340-4138,US,(818) 361-5660,34.28114,-118.45279,"MONDAY 09:00 AM-10:00 PM, TUESDAY 09:00 AM-10:00 PM, WEDNESDAY 09:00 AM-10:00 PM, THURSDAY 09:00 AM-10:00 PM, FRIDAY 08:30 AM-10:00 PM, SATURDAY 08:30 AM-10:00 PM, SUNDAY 09:00 AM-10:00 PM",,,
dd's DISCOUNTS,,20133 Sherman Way,,Winnetka,CA,91306-3206,US,(818) 885-1765,34.2011395294118,-118.571648941176,"MONDAY 09:30 AM-10:00 PM, TUESDAY 09:30 AM-10:00 PM, WEDNESDAY 09:30 AM-10:00 PM, THURSDAY 09:30 AM-10:00 PM, FRIDAY 09:30 AM-10:00 PM, SATURDAY 09:30 AM-10:00 PM, SUNDAY 09:30 AM-09:30 PM",,,
dd's DISCOUNTS,,1226 South Magnolia Ave,,Anaheim,CA,92804-5116,US,714-220-3183,33.81661,-117.97583,"MONDAY 09:30 AM-09:30 PM, TUESDAY 09:30 AM-09:30 PM, WEDNESDAY 09:30 AM-09:30 PM, THURSDAY 09:30 AM-09:30 PM, FRIDAY 09:00 AM-10:00 PM, SATURDAY 09:00 AM-10:00 PM, SUNDAY 09:30 AM-09:00 PM",,,
dd's DISCOUNTS,,1660 W Katella Ave,,Anaheim,CA,92802-3015,US,714-636-3249,33.8031111111111,-117.939625555556,"MONDAY 09:30 AM-10:00 PM, TUESDAY 09:30 AM-10:00 PM, WEDNESDAY 09:30 AM-10:00 PM, THURSDAY 09:30 AM-10:00 PM, FRIDAY 08:30 AM-10:00 PM, SATURDAY 08:30 AM-10:00 PM, SUNDAY 09:30 AM-09:30 PM",,,
dd's DISCOUNTS,,1536 North Olden Ave,Space 14,Ewing,NJ,08638,US,(609) 599-4193,40.242154137982,-74.7548351011966,"MONDAY 09:30 AM-09:30 PM, TUESDAY 09:30 AM-09:30 PM, WEDNESDAY 09:30 AM-09:30 PM, THURSDAY 09:30 AM-09:30 PM, FRIDAY 09:00 AM-10:00 PM, SATURDAY 09:00 AM-10:00 PM, SUNDAY 10:00 AM-08:30 PM",,,
dd's DISCOUNTS,,4640 Roosevelt Blvd.,,Philadelphia,PA,19124-2300,US,215-533-5125,40.0281847169811,-75.0992262264151,"MONDAY 09:00 AM-10:00 PM, TUESDAY 09:00 AM-10:00 PM, WEDNESDAY 09:00 AM-10:00 PM, THURSDAY 09:00 AM-10:00 PM, FRIDAY 09:00 AM-10:00 PM, SATURDAY 09:00 AM-10:00 PM, SUNDAY 09:30 AM-09:00 PM",,,
dd's DISCOUNTS,,3278 Austin Peay Highway,,Memphis,TN,38128-6502,US,(901) 380-8880,35.214867826087,-89.9154286956522,"MONDAY 09:00 AM-09:30 PM, TUESDAY 09:00 AM-09:30 PM, WEDNESDAY 09:00 AM-09:30 PM, THURSDAY 09:00 AM-09:30 PM, FRIDAY 09:00 AM-10:00 PM, SATURDAY 09:00 AM-10:00 PM, SUNDAY 10:00 AM-09:00 PM",,,
dd's DISCOUNTS,,3899 Park Ave,,Memphis,TN,38111-6634,US,(901) 323-2772,35.1075557894737,-89.9326742105263,"MONDAY 09:30 AM-09:30 PM, TUESDAY 09:30 AM-09:30 PM, WEDNESDAY 09:30 AM-09:30 PM, THURSDAY 09:30 AM-09:30 PM, FRIDAY 09:30 AM-10:00 PM, SATURDAY 09:30 AM-10:00 PM, SUNDAY 10:00 AM-08:00 PM",,,
dd's DISCOUNTS,,6646 Security Blvd,,Woodlawn,MD,21207-4010,US,410-594-1602,39.3121830866767,-76.7374290592361,"MONDAY 09:30 AM-09:30 PM, TUESDAY 09:30 AM-09:30 PM, WEDNESDAY 09:30 AM-09:30 PM, THURSDAY 09:30 AM-09:30 PM, FRIDAY 09:00 AM-10:00 PM, SATURDAY 09:00 AM-10:00 PM, SUNDAY 10:00 AM-08:30 PM",,,
dd's DISCOUNTS,,5560 Silver Hill Rd,,District Heights,MD,20747-1104,US,(301) 420-2232,38.8524141394914,-76.9133683491958,"MONDAY 09:30 AM-09:30 PM, TUESDAY 09:30 AM-09:30 PM, WEDNESDAY 09:30 AM-09:30 PM, THURSDAY 09:30 AM-09:30 PM, FRIDAY 09:00 AM-09:30 PM, SATURDAY 09:00 AM-09:30 PM, SUNDAY 09:30 AM-09:00 PM",,,
dd's DISCOUNTS,,2515 W Jefferson Blvd,,Dallas,TX,75211-2629,US,(214) 948-3000,32.74816,-96.8591958287166,"MONDAY 09:00 AM-10:00 PM, TUESDAY 09:00 AM-10:00 PM, WEDNESDAY 09:00 AM-10:00 PM, THURSDAY 09:00 AM-10:00 PM, FRIDAY 08:30 AM-10:00 PM, SATURDAY 08:30 AM-10:00 PM, SUNDAY 09:00 AM-09:30 PM",,,
dd's DISCOUNTS,,3200 S Lancaster Rd,Suite 900,Dallas,TX,75216-8806,US,(214) 371-6432,32.70867,-96.80196,"MONDAY 09:30 AM-08:00 PM, TUESDAY 09:30 AM-08:00 PM, WEDNESDAY 09:30 AM-08:00 PM, THURSDAY 09:30 AM-08:00 PM, FRIDAY 09:30 AM-08:00 PM, SATURDAY 09:30 AM-08:00 PM, SUNDAY 10:00 AM-07:00 PM",,,
dd's DISCOUNTS,,6301 Abrams Rd,Suite 133,Dallas,TX,75231-7841,US,214-341-1057,32.8602967987294,-96.7455443836583,"MONDAY 09:30 AM-09:30 PM, TUESDAY 09:30 AM-09:30 PM, WEDNESDAY 09:30 AM-09:30 PM, THURSDAY 09:30 AM-09:30 PM, FRIDAY 09:00 AM-10:00 PM, SATURDAY 09:00 AM-10:00 PM, SUNDAY 10:00 AM-09:00 PM",,,
dd's DISCOUNTS,,10020 Marsh Ln,,Dallas,TX,75229-6083,US,(214) 353-9355,32.8812126530612,-96.8561059183673,"MONDAY 09:30 AM-09:30 PM, TUESDAY 09:30 AM-09:30 PM, WEDNESDAY 09:30 AM-09:30 PM, THURSDAY 09:30 AM-09:30 PM, FRIDAY 09:00 AM-10:00 PM, SATURDAY 09:00 AM-10:00 PM, SUNDAY 09:30 AM-09:30 PM",,,
dd's DISCOUNTS,,3322 N Buckner Rd,Suite 115,Dallas,TX,75228-5604,US,214-321-0696,32.8053143879663,-96.6823637014889,"MONDAY 09:30 AM-09:30 PM, TUESDAY 09:30 AM-09:30 PM, WEDNESDAY 09:30 AM-09:30 PM, THURSDAY 09:30 AM-09:30 PM, FRIDAY 09:30 AM-10:00 PM, SATURDAY 09:30 AM-10:00 PM, SUNDAY 10:00 AM-07:00 PM",,,
dd's DISCOUNTS,,10325 Lake June Rd,Suite 200,Dallas,TX,75217-5315,US,972-288-9707,32.73416,-96.6469,"MONDAY 09:00 AM-10:00 PM, TUESDAY 09:00 AM-10:00 PM, WEDNESDAY 09:00 AM-10:00 PM, THURSDAY 09:00 AM-10:00 PM, FRIDAY 08:30 AM-10:00 PM, SATURDAY 08:30 AM-10:00 PM, SUNDAY 09:00 AM-10:00 PM",,,
dd's DISCOUNTS,,9779 Forest Ln,,Dallas,TX,75243-5701,US,(972) 792-0929,32.9095646510199,-96.7185085979345,"MONDAY 08:00 AM-09:00 PM, TUESDAY 08:00 AM-09:00 PM, WEDNESDAY 08:00 AM-09:00 PM, THURSDAY 08:00 AM-09:00 PM, FRIDAY 08:00 AM-09:00 PM, SATURDAY 08:00 AM-09:00 PM, SUNDAY 09:30 AM-09:00 PM",,,
dd's DISCOUNTS,,1421 North Belt Line Rd,Suite A,Irving,TX,75061-1501,US,972-986 0107,32.8288166666667,-96.993865959596,"MONDAY 09:30 AM-10:00 PM, TUESDAY 09:30 AM-10:00 PM, WEDNESDAY 09:30 AM-10:00 PM, THURSDAY 09:30 AM-10:00 PM, FRIDAY 09:00 AM-10:00 PM, SATURDAY 09:00 AM-10:00 PM, SUNDAY 09:30 AM-09:30 PM",,,
dd's DISCOUNTS,,2106 N Galloway Ave,,Mesquite,TX,75150,US,972-285-1907,32.7938172393109,-96.6120314723872,"MONDAY 09:30 AM-10:30 PM, TUESDAY 09:30 AM-10:30 PM, WEDNESDAY 09:30 AM-10:30 PM, THURSDAY 09:30 AM-10:30 PM, FRIDAY 09:00 AM-10:30 PM, SATURDAY 09:00 AM-10:30 PM, SUNDAY 10:00 AM-10:00 PM",,,
dd's DISCOUNTS,,822 E Centerville Rd,,Garland,TX,75041-3619,US,(972) 278-4527,32.8791605367502,-96.62097436802,"MONDAY 09:30 AM-10:00 PM, TUESDAY 09:30 AM-10:00 PM, WEDNESDAY 09:30 AM-10:00 PM, THURSDAY 09:30 AM-10:00 PM, FRIDAY 09:00 AM-10:00 PM, SATURDAY 09:00 AM-10:00 PM, SUNDAY 09:30 AM-10:00 PM",,,
dd's DISCOUNTS,,2500 S Carrier Parkway,Suite A,Grand Prairie,TX,75052-5016,US,972-606-6516,32.70945,-97.01545,"MONDAY 09:00 AM-10:00 PM, TUESDAY 09:00 AM-10:00 PM, WEDNESDAY 09:00 AM-10:00 PM, THURSDAY 09:00 AM-10:00 PM, FRIDAY 08:30 AM-10:00 PM, SATURDAY 08:30 AM-10:00 PM, SUNDAY 09:30 AM-09:30 PM",,,
dd's DISCOUNTS,,1443 West Buckingham Rd,,Garland,TX,75044,US,972-495-2310,32.9310417050551,-96.6489713298583,"MONDAY 09:30 AM-09:30 PM, TUESDAY 09:30 AM-09:30 PM, WEDNESDAY 09:30 AM-09:30 PM, THURSDAY 09:30 AM-09:30 PM, FRIDAY 09:00 AM-10:00 PM, SATURDAY 09:00 AM-10:00 PM, SUNDAY 10:00 AM-09:30 PM",,,
dd's DISCOUNTS,,1301 North Collins St,Suite 315,North Arlington,TX,76011-5000,US,(817) 801-1337,32.75407,-97.09727,"MONDAY 09:30 AM-09:30 PM, TUESDAY 09:30 AM-09:30 PM, WEDNESDAY 09:30 AM-09:30 PM, THURSDAY 09:30 AM-09:30 PM, FRIDAY 09:00 AM-10:00 PM, SATURDAY 09:00 AM-10:00 PM, SUNDAY 09:30 AM-09:00 PM",,,
dd's DISCOUNTS,,2213 South Cooper St,,Arlington,TX,76013-6327,US,(817) 801-1411,32.707328,-97.116772,"MONDAY 09:00 AM-10:00 PM, TUESDAY 09:00 AM-10:00 PM, WEDNESDAY 09:00 AM-10:00 PM, THURSDAY 09:00 AM-10:00 PM, FRIDAY 09:00 AM-10:00 PM, SATURDAY 09:00 AM-10:00 PM, SUNDAY 09:30 AM-09:30 PM",,,
dd's DISCOUNTS,,7440 McCart Ave,Suite 250,Ft. Worth,TX,76133,US,817-423-1086,32.6362226989719,-97.3698599518041,"MONDAY 09:30 AM-10:00 PM, TUESDAY 09:30 AM-10:00 PM, WEDNESDAY 09:30 AM-10:00 PM, THURSDAY 09:30 AM-10:00 PM, FRIDAY 09:00 AM-10:00 PM, SATURDAY 09:00 AM-10:00 PM, SUNDAY 09:30 AM-09:00 PM",,,
dd's DISCOUNTS,,3611 Elkhorn Blvd,,North Highlands,CA,95660-3730,US,(916) 339-3116,38.6903070782662,-121.382348696584,"MONDAY 09:30 AM-10:00 PM, TUESDAY 09:30 AM-10:00 PM, WEDNESDAY 09:30 AM-10:00 PM, THURSDAY 09:30 AM-10:00 PM, FRIDAY 09:00 AM-10:00 PM, SATURDAY 09:00 AM-10:00 PM, SUNDAY 09:00 AM-10:00 PM",,,
dd's DISCOUNTS,,3315 Northgate Blvd,,Sacramento,CA,95834-1637,US,(916) 929-5684,38.62749,-121.4755,"MONDAY 09:00 AM-10:00 PM, TUESDAY 09:00 AM-10:00 PM, WEDNESDAY 09:00 AM-10:00 PM, THURSDAY 09:00 AM-10:00 PM, FRIDAY 08:30 AM-10:00 PM, SATURDAY 08:30 AM-10:00 PM, SUNDAY 09:00 AM-10:00 PM",,,
dd's DISCOUNTS,,10347 Folsom Blvd,,Rancho Cordova,CA,95670,US,916-368-7909,38.5879065186701,-121.30539696266,"MONDAY 08:00 AM-10:00 PM, TUESDAY 08:00 AM-10:00 PM, WEDNESDAY 08:00 AM-10:00 PM, THURSDAY 08:00 AM-10:00 PM, FRIDAY 08:30 AM-10:00 PM, SATURDAY 08:30 AM-10:00 PM, SUNDAY 09:00 AM-09:30 PM",,,
dd's DISCOUNTS,,5924 Stockton Blvd,,Sacramento,CA,95824-3039,US,(916) 399-0274,38.51884,-121.43976,"MONDAY 09:00 AM-10:00 PM, TUESDAY 09:00 AM-10:00 PM, WEDNESDAY 09:00 AM-10:00 PM, THURSDAY 09:00 AM-10:00 PM, FRIDAY 08:30 AM-10:00 PM, SATURDAY 08:30 AM-10:00 PM, SUNDAY 09:00 AM-09:30 PM",,,
dd's DISCOUNTS,,6100 Mack Rd,Suite 400,Sacramento,CA,95823-7073,US,(916) 399-9098,38.4741866666667,-121.430833333333,"MONDAY 09:30 AM-08:00 PM, TUESDAY 09:30 AM-08:00 PM, WEDNESDAY 09:30 AM-08:00 PM, THURSDAY 09:30 AM-08:00 PM, FRIDAY 09:30 AM-10:00 PM, SATURDAY 09:30 AM-10:00 PM, SUNDAY 10:00 AM-07:00 PM",,,
dd's DISCOUNTS,,2505 N Texas St,,Fairfield,CA,94533,US,707-428-9300,38.274942195122,-122.0342,"MONDAY 09:30 AM-09:30 PM, TUESDAY 09:30 AM-09:30 PM, WEDNESDAY 09:30 AM-09:30 PM, THURSDAY 09:30 AM-09:30 PM, FRIDAY 09:30 AM-10:00 PM, SATURDAY 09:30 AM-10:00 PM, SUNDAY 10:00 AM-08:30 PM",,,
dd's DISCOUNTS,,3355 Sonoma Blvd,Suite 10,Vallejo,CA,94590-2923,US,(707) 553-1818,38.120398,-122.255185,"MONDAY 08:30 AM-10:30 PM, TUESDAY 08:30 AM-10:30 PM, WEDNESDAY 08:30 AM-10:30 PM, THURSDAY 08:30 AM-10:30 PM, FRIDAY 08:00 AM-10:30 PM, SATURDAY 08:00 AM-10:30 PM, SUNDAY 08:30 AM-10:30 PM",,,
dd's DISCOUNTS,,1120 E Hammer Ln,,Stockton,CA,95210-3029,US,(209) 474-6984,38.0208604697987,-121.298283557047,"MONDAY 09:00 AM-10:00 PM, TUESDAY 09:00 AM-10:00 PM, WEDNESDAY 09:00 AM-10:00 PM, THURSDAY 09:00 AM-10:00 PM, FRIDAY 08:30 AM-10:00 PM, SATURDAY 08:30 AM-10:00 PM, SUNDAY 09:00 AM-10:00 PM",,,
dd's DISCOUNTS,,4713 Quail Lakes Dr,,Stockton,CA,95207,US,209-954-9022,37.9860097550453,-121.340012205169,"MONDAY 09:00 AM-10:00 PM, TUESDAY 09:00 AM-10:00 PM, WEDNESDAY 09:00 AM-10:00 PM, THURSDAY 09:00 AM-10:00 PM, FRIDAY 09:00 AM-10:00 PM, SATURDAY 09:00 AM-10:00 PM, SUNDAY 09:00 AM-10:00 PM",,,
dd's DISCOUNTS,,2000 N Park Blvd,,Pittsburg,CA,94565-4122,US,925-432-3950,38.0107136724412,-121.861253726993,"MONDAY 08:30 AM-10:30 PM, TUESDAY 08:30 AM-10:30 PM, WEDNESDAY 08:30 AM-10:30 PM, THURSDAY 08:30 AM-10:30 PM, FRIDAY 08:30 AM-10:30 PM, SATURDAY 08:30 AM-10:30 PM, SUNDAY 09:00 AM-09:30 PM",,,
dd's DISCOUNTS,,3700 Klose Way,,Richmond,CA,94806-5708,US,(510) 669-9303,37.9823037117163,-122.320219615061,"MONDAY 09:30 AM-10:00 PM, TUESDAY 09:30 AM-10:00 PM, WEDNESDAY 09:30 AM-10:00 PM, THURSDAY 09:30 AM-10:00 PM, FRIDAY 09:00 AM-10:30 PM, SATURDAY 09:00 AM-10:30 PM, SUNDAY 09:30 AM-09:30 PM",,,
dd's DISCOUNTS,,2200 Daniels Street,,Manteca,CA,95337-6706,US,209-239-4473,37.7863473955742,-121.254565602991,"MONDAY 09:00 AM-10:00 PM, TUESDAY 09:00 AM-10:00 PM, WEDNESDAY 09:00 AM-10:00 PM, THURSDAY 09:00 AM-10:00 PM, FRIDAY 09:00 AM-10:00 PM, SATURDAY 09:00 AM-10:00 PM, SUNDAY 09:30 AM-09:00 PM",,,
dd's DISCOUNTS,,7200 Bancroft Ave,,Oakland,CA,94605-2403,US,(510) 563-5112,37.7664451275899,-122.177700145817,"MONDAY 09:30 AM-08:00 PM, TUESDAY 09:30 AM-08:00 PM, WEDNESDAY 09:30 AM-08:00 PM, THURSDAY 09:30 AM-08:00 PM, FRIDAY 09:30 AM-08:00 PM, SATURDAY 09:30 AM-08:00 PM, SUNDAY 10:00 AM-06:00 PM",,,
dd's DISCOUNTS,,2051 Tully Rd,,Modesto,CA,95350-2920,US,(209) 492-0917,37.6730511111111,-121.01228010101,"MONDAY 09:30 AM-08:00 PM, TUESDAY 09:30 AM-08:00 PM, WEDNESDAY 09:30 AM-08:00 PM, THURSDAY 09:30 AM-08:00 PM, FRIDAY 09:30 AM-10:00 PM, SATURDAY 09:30 AM-10:00 PM, SUNDAY 10:00 AM-07:00 PM",,,
dd's DISCOUNTS,,561 Floresta Blvd,,San Leandro,CA,94578-4125,US,(510) 351-0110,37.7010547451686,-122.14412336049,"MONDAY 08:30 AM-10:30 PM, TUESDAY 08:30 AM-10:30 PM, WEDNESDAY 08:30 AM-10:30 PM, THURSDAY 08:30 AM-10:30 PM, FRIDAY 08:30 AM-10:30 PM, SATURDAY 08:30 AM-10:30 PM, SUNDAY 09:00 AM-09:30 PM",,,
dd's DISCOUNTS,,1640 E Hatch Rd,,Modesto,CA,95307,US,(209) 538-1063,37.6092530440309,-120.967385863827,"MONDAY 08:30 AM-10:00 PM, TUESDAY 08:30 AM-10:00 PM, WEDNESDAY 08:30 AM-10:00 PM, THURSDAY 08:30 AM-10:00 PM, FRIDAY 08:30 AM-10:00 PM, SATURDAY 08:30 AM-10:00 PM, SUNDAY 09:30 AM-10:00 PM",,,
dd's DISCOUNTS,,24055 Hesperian Blvd,,Hayward,CA,94545-1522,US,(510) 783-3840,37.6523326530612,-122.109888367347,"MONDAY 09:30 AM-10:00 PM, TUESDAY 09:30 AM-10:00 PM, WEDNESDAY 09:30 AM-10:00 PM, THURSDAY 09:30 AM-10:00 PM, FRIDAY 09:30 AM-10:00 PM, SATURDAY 09:30 AM-10:00 PM, SUNDAY 09:30 AM-10:00 PM",,,
dd's DISCOUNTS,,1163 W Tennyson Rd,,Hayward,CA,94544-4221,US,(510) 293-0115,37.6314116326531,-122.076913469388,"MONDAY 09:00 AM-10:00 PM, TUESDAY 09:00 AM-10:00 PM, WEDNESDAY 09:00 AM-10:00 PM, THURSDAY 09:00 AM-10:00 PM, FRIDAY 08:30 AM-10:00 PM, SATURDAY 08:30 AM-10:00 PM, SUNDAY 09:00 AM-10:00 PM",,,
dd's DISCOUNTS,,601 N Golden State Blvd,,Turlock,CA,95380,US,209-656-1753,37.4990645386192,-120.84936847301,"MONDAY 09:30 AM-09:30 PM, TUESDAY 09:30 AM-09:30 PM, WEDNESDAY 09:30 AM-09:30 PM, THURSDAY 09:30 AM-09:30 PM, FRIDAY 09:00 AM-10:00 PM, SATURDAY 09:00 AM-10:00 PM, SUNDAY 10:00 AM-09:00 PM",,,
dd's DISCOUNTS,,1180 N Capitol Ave,,San Jose,CA,95132-2522,US,(408) 259-6231,37.3879242857143,-121.861831428571,"MONDAY 09:00 AM-10:00 PM, TUESDAY 09:00 AM-10:00 PM, WEDNESDAY 09:00 AM-10:00 PM, THURSDAY 09:00 AM-10:00 PM, FRIDAY 09:00 AM-10:00 PM, SATURDAY 09:00 AM-10:00 PM, SUNDAY 09:30 AM-09:30 PM",,,
dd's DISCOUNTS,,1048 S White Rd,,San Jose,CA,95127,US,(408) 347-1574,37.357,-121.81995,"MONDAY 09:30 AM-10:00 PM, TUESDAY 09:30 AM-10:00 PM, WEDNESDAY 09:30 AM-10:00 PM, THURSDAY 09:30 AM-10:00 PM, FRIDAY 08:30 AM-10:00 PM, SATURDAY 08:30 AM-10:00 PM, SUNDAY 09:00 AM-09:00 PM",,,
dd's DISCOUNTS,,580 E El Camino Real,,Sunnyvale,CA,94087-1940,US,(408) 720-1351,37.3626788333333,-122.026222666667,"MONDAY 09:30 AM-10:00 PM, TUESDAY 09:30 AM-10:00 PM, WEDNESDAY 09:30 AM-10:00 PM, THURSDAY 09:30 AM-10:00 PM, FRIDAY 09:00 AM-10:00 PM, SATURDAY 09:00 AM-10:00 PM, SUNDAY 09:30 AM-09:30 PM",,,
dd's DISCOUNTS,,1792 Southwest Expy,,San Jose,CA,95126-4143,US,(408) 297-1479,37.3049030769231,-121.923694615385,"MONDAY 09:30 AM-10:00 PM, TUESDAY 09:30 AM-10:00 PM, WEDNESDAY 09:30 AM-10:00 PM, THURSDAY 09:30 AM-10:00 PM, FRIDAY 09:00 AM-10:00 PM, SATURDAY 09:00 AM-10:00 PM, SUNDAY 09:30 AM-10:00 PM",,,
dd's DISCOUNTS,,1322 Saratoga Ave,,San Jose,CA,95129-4336,US,(408) 247-0226,37.3004545833333,-121.982130833333,"MONDAY 09:30 AM-09:30 PM, TUESDAY 09:30 AM-09:30 PM, WEDNESDAY 09:30 AM-09:30 PM, THURSDAY 09:30 AM-09:30 PM, FRIDAY 09:30 AM-10:00 PM, SATURDAY 09:30 AM-10:00 PM, SUNDAY 09:30 AM-09:00 PM",,,
dd's DISCOUNTS,,1311 Country Club Dr,,Madera,CA,93638-1547,US,(559) 661-4254,36.9774009090909,-120.074212020202,"MONDAY 09:30 AM-09:30 PM, TUESDAY 09:30 AM-09:30 PM, WEDNESDAY 09:30 AM-09:30 PM, THURSDAY 09:30 AM-09:30 PM, FRIDAY 09:00 AM-10:00 PM, SATURDAY 09:00 AM-10:00 PM, SUNDAY 09:00 AM-09:30 PM",,,
dd's DISCOUNTS,,432 W Shaw Ave,,Clovis,CA,93612-3207,US,559-324-8174,36.8083865306122,-119.719228571429,"MONDAY 09:30 AM-10:00 PM, TUESDAY 09:30 AM-10:00 PM, WEDNESDAY 09:30 AM-10:00 PM, THURSDAY 09:30 AM-10:00 PM, FRIDAY 09:00 AM-10:00 PM, SATURDAY 09:00 AM-10:00 PM, SUNDAY 09:30 AM-10:00 PM",,,
dd's DISCOUNTS,,4040 N West Ave,,Fresno,CA,93705-2024,US,(559) 230-2629,36.7898547297297,-119.82646,"MONDAY 09:00 AM-10:00 PM, TUESDAY 09:00 AM-10:00 PM, WEDNESDAY 09:00 AM-10:00 PM, THURSDAY 09:00 AM-10:00 PM, FRIDAY 09:00 AM-10:00 PM, SATURDAY 09:00 AM-10:00 PM, SUNDAY 09:00 AM-10:00 PM",,,
dd's DISCOUNTS,,1540 N 1st St,,Fresno,CA,93703-4023,US,(559) 263-9670,36.7639383333333,-119.77245,"MONDAY 09:30 AM-08:00 PM, TUESDAY 09:30 AM-08:00 PM, WEDNESDAY 09:30 AM-08:00 PM, THURSDAY 09:30 AM-08:00 PM, FRIDAY 09:30 AM-10:00 PM, SATURDAY 09:30 AM-10:00 PM, SUNDAY 10:00 AM-08:00 PM",,,
dd's DISCOUNTS,,5663 E Kings Canyon Rd,,Fresno,CA,93727-4641,US,(559) 251-1112,36.7360999108594,-119.696401563389,"MONDAY 08:30 AM-10:30 PM, TUESDAY 08:30 AM-10:30 PM, WEDNESDAY 08:30 AM-10:30 PM, THURSDAY 08:30 AM-10:30 PM, FRIDAY 08:00 AM-10:30 PM, SATURDAY 08:00 AM-10:30 PM, SUNDAY 08:30 AM-10:30 PM",,,
dd's DISCOUNTS,,949 N Main St,,Salinas,CA,93906-3912,US,(831) 754-8768,36.6915379565851,-121.652360794071,"MONDAY 09:30 AM-10:00 PM, TUESDAY 09:30 AM-10:00 PM, WEDNESDAY 09:30 AM-10:00 PM, THURSDAY 09:30 AM-10:00 PM, FRIDAY 09:00 AM-10:00 PM, SATURDAY 09:00 AM-10:00 PM, SUNDAY 09:00 AM-09:30 PM",,,
dd's DISCOUNTS,,1750 W Lacey Blvd,,Hanford,CA,93230,US,559-585-1102,36.3281050769468,-119.673969696832,"MONDAY 09:30 AM-10:00 PM, TUESDAY 09:30 AM-10:00 PM, WEDNESDAY 09:30 AM-10:00 PM, THURSDAY 09:30 AM-10:00 PM, FRIDAY 09:00 AM-10:30 PM, SATURDAY 09:00 AM-10:30 PM, SUNDAY 09:30 AM-09:30 PM",,,
dd's DISCOUNTS,,1925 N Dinuba Blvd,,Visalia,CA,93291-3011,US,(559)749-0799,36.3467769639705,-119.296899715605,"MONDAY 08:30 AM-10:30 PM, TUESDAY 08:30 AM-10:30 PM, WEDNESDAY 08:30 AM-10:30 PM, THURSDAY 08:30 AM-10:30 PM, FRIDAY 08:30 AM-10:30 PM, SATURDAY 08:30 AM-10:30 PM, SUNDAY 09:00 AM-10:00 PM",,,
dd's DISCOUNTS,,3434 S Mooney Blvd,,Visalia,CA,93277-7772,US,(559) 739-7865,36.2999763420696,-119.313609671418,"MONDAY 09:00 AM-10:00 PM, TUESDAY 09:00 AM-10:00 PM, WEDNESDAY 09:00 AM-10:00 PM, THURSDAY 09:00 AM-10:00 PM, FRIDAY 09:00 AM-10:00 PM, SATURDAY 09:00 AM-10:00 PM, SUNDAY 09:30 AM-10:00 PM",,,
dd's DISCOUNTS,,4605 NW 23rd St,Suite 500,Oklahoma City,OK,73127-2128,US,405-942-0636,35.49331,-97.6049942118013,"MONDAY 08:30 AM-10:30 PM, TUESDAY 08:30 AM-10:30 PM, WEDNESDAY 08:30 AM-10:30 PM, THURSDAY 08:30 AM-10:30 PM, FRIDAY 08:30 AM-10:30 PM, SATURDAY 08:30 AM-10:30 PM, SUNDAY 09:00 AM-09:30 PM",,,
dd's DISCOUNTS,,3300 San Mateo Blvd,,Albuquerque,NM,87109,US,(505) 881-2411,35.12015,-106.58635,"MONDAY 09:30 AM-09:00 PM, TUESDAY 09:30 AM-09:00 PM, WEDNESDAY 09:30 AM-09:00 PM, THURSDAY 09:30 AM-09:00 PM, FRIDAY 09:00 AM-10:00 PM, SATURDAY 09:00 AM-10:00 PM, SUNDAY 10:00 AM-08:30 PM",,,
dd's DISCOUNTS,,3211 Coors Blvd SW,Suite A5,Albuquerque,NM,87121-5254,US,505-877-4511,35.0291969993103,-106.713776833755,"MONDAY 09:30 AM-09:00 PM, TUESDAY 09:30 AM-09:00 PM, WEDNESDAY 09:30 AM-09:00 PM, THURSDAY 09:30 AM-09:00 PM, FRIDAY 09:00 AM-10:00 PM, SATURDAY 09:00 AM-10:00 PM, SUNDAY 09:30 AM-09:00 PM",,,
dd's DISCOUNTS,,1901 Terrell Mill Rd,Suite 400,Marietta,GA,30067-8397,US,(770) 541-0572,33.9072257702818,-84.4880114737167,"MONDAY 09:30 AM-10:00 PM, TUESDAY 09:30 AM-10:00 PM, WEDNESDAY 09:30 AM-10:00 PM, THURSDAY 09:30 AM-10:00 PM, FRIDAY 09:30 AM-10:00 PM, SATURDAY 09:30 AM-10:00 PM, SUNDAY 10:00 AM-09:30 PM",,,
dd's DISCOUNTS,,3293 Buford Highway NE,Suite 500,Atlanta,GA,30329-3739,US,404-315-7853,33.8426717391304,-84.329012173913,"MONDAY 09:30 AM-09:30 PM, TUESDAY 09:30 AM-09:30 PM, WEDNESDAY 09:30 AM-09:30 PM, THURSDAY 09:30 AM-09:30 PM, FRIDAY 09:30 AM-10:00 PM, SATURDAY 09:30 AM-10:00 PM, SUNDAY 10:00 AM-09:30 PM",,,
dd's DISCOUNTS,,5265 Jimmy Carter Blvd,Suite 1480,Norcross,GA,30093-1627,US,770-662-0151,33.90128,-84.20496,"MONDAY 09:30 AM-10:00 PM, TUESDAY 09:30 AM-10:00 PM, WEDNESDAY 09:30 AM-10:00 PM, THURSDAY 09:30 AM-10:00 PM, FRIDAY 09:00 AM-10:00 PM, SATURDAY 09:00 AM-10:00 PM, SUNDAY 10:00 AM-10:00 PM",,,
dd's DISCOUNTS,,590 Cascade Ave,,Atlanta,GA,30310-2467,US,404-758-1459,33.7384756340644,-84.4348512197852,"MONDAY 09:30 AM-09:30 PM, TUESDAY 09:30 AM-09:30 PM, WEDNESDAY 09:30 AM-09:30 PM, THURSDAY 09:30 AM-09:30 PM, FRIDAY 08:30 AM-10:00 PM, SATURDAY 08:30 AM-10:00 PM, SUNDAY 10:00 AM-08:30 PM",,,
dd's DISCOUNTS,,1320 Moreland Ave SE,,Atlanta,GA,30316-3224,US,404-627-0689,33.7151042857143,-84.3494847619048,"MONDAY 09:30 AM-09:30 PM, TUESDAY 09:30 AM-09:30 PM, WEDNESDAY 09:30 AM-09:30 PM, THURSDAY 09:30 AM-09:30 PM, FRIDAY 08:30 AM-10:00 PM, SATURDAY 08:30 AM-10:00 PM, SUNDAY 10:00 AM-08:30 PM",,,
dd's DISCOUNTS,,1970 Candler Rd,,Decatur,GA,30032-4225,US,(404) 289-4150,33.7334932258064,-84.2846125806452,"MONDAY 09:30 AM-09:30 PM, TUESDAY 09:30 AM-09:30 PM, WEDNESDAY 09:30 AM-09:30 PM, THURSDAY 09:30 AM-09:30 PM, FRIDAY 09:00 AM-10:00 PM, SATURDAY 09:00 AM-10:00 PM, SUNDAY 10:00 AM-09:00 PM",,,
dd's DISCOUNTS,,399 Upper Riverdale Rd,Suite C15A,Jonesboro,GA,30236-1006,US,770-994-5320,33.58255,-84.37809,"MONDAY 09:30 AM-10:00 PM, TUESDAY 09:30 AM-10:00 PM, WEDNESDAY 09:30 AM-10:00 PM, THURSDAY 09:30 AM-10:00 PM, FRIDAY 09:00 AM-10:00 PM, SATURDAY 09:00 AM-10:00 PM, SUNDAY 09:30 AM-09:30 PM",,,
dd's DISCOUNTS,,3679 New Bern Ave,,Raleigh,NC,27610,US,(919) 231-0152,35.7972888710723,-78.578246483641,"MONDAY 09:30 AM-09:30 PM, TUESDAY 09:30 AM-09:30 PM, WEDNESDAY 09:30 AM-09:30 PM, THURSDAY 09:30 AM-09:30 PM, FRIDAY 09:00 AM-10:00 PM, SATURDAY 09:00 AM-10:00 PM, SUNDAY 10:00 AM-09:00 PM",,,
dd's DISCOUNTS,,"2850 S. Main St, Suite 103",,High Point,NC,27263-1900,US,336-861-0227,35.9232865898649,-79.980771469237,"MONDAY 09:30 AM-09:30 PM, TUESDAY 09:30 AM-09:30 PM, WEDNESDAY 09:30 AM-09:30 PM, THURSDAY 09:30 AM-09:30 PM, FRIDAY 09:30 AM-09:30 PM, SATURDAY 09:30 AM-09:30 PM, SUNDAY 10:00 AM-08:30 PM",,,
dd's DISCOUNTS,,5759 W 44th Avenue,,Lakeside,CO,80212,US,720-855-0583,39.77659,-105.0597012,"MONDAY 09:30 AM-09:30 PM, TUESDAY 09:30 AM-09:30 PM, WEDNESDAY 09:30 AM-09:30 PM, THURSDAY 09:30 AM-09:30 PM, FRIDAY 09:30 AM-10:00 PM, SATURDAY 09:30 AM-10:00 PM, SUNDAY 10:00 AM-08:30 PM",,,
dd's DISCOUNTS,,559 NE 81st St,Suite 559,Miami,FL,33138-4519,US,305-751-0625,25.8492423847763,-80.1854268202983,"MONDAY 09:00 AM-10:00 PM, TUESDAY 09:00 AM-10:00 PM, WEDNESDAY 09:00 AM-10:00 PM, THURSDAY 09:00 AM-10:00 PM, FRIDAY 08:30 AM-10:00 PM, SATURDAY 08:30 AM-10:00 PM, SUNDAY 09:30 AM-09:30 PM",,,
dd's DISCOUNTS,,7900 NW 27th Ave,,Miami,FL,33147,US,(305) 836-9130,25.8461,-80.24182,"MONDAY 09:00 AM-10:00 PM, TUESDAY 09:00 AM-10:00 PM, WEDNESDAY 09:00 AM-10:00 PM, THURSDAY 09:00 AM-10:00 PM, FRIDAY 08:30 AM-10:00 PM, SATURDAY 08:30 AM-10:00 PM, SUNDAY 09:00 AM-09:30 PM",,,
dd's DISCOUNTS,,10576 SW 8th St,,Miami,FL,33174,US,305-225-5187,25.7612158139535,-80.3671474418605,"MONDAY 09:00 AM-10:00 PM, TUESDAY 09:00 AM-10:00 PM, WEDNESDAY 09:00 AM-10:00 PM, THURSDAY 09:00 AM-10:00 PM, FRIDAY 09:00 AM-10:00 PM, SATURDAY 09:00 AM-10:00 PM, SUNDAY 10:00 AM-09:30 PM",,,
dd's DISCOUNTS,,21401 NW 2nd Ave,Suite B,Miami,FL,33169-2114,US,305-652-9610,25.97161375,-80.20598,"MONDAY 08:30 AM-10:00 PM, TUESDAY 08:30 AM-10:00 PM, WEDNESDAY 08:30 AM-10:00 PM, THURSDAY 08:30 AM-10:00 PM, FRIDAY 08:30 AM-10:30 PM, SATURDAY 08:30 AM-10:30 PM, SUNDAY 08:30 AM-10:00 PM",,,
dd's DISCOUNTS,,1039 W Hallandale Beach Blvd,,Hallandale Beach,FL,33009,US,(954) 454-6083,25.9849732543989,-80.1629568064478,"MONDAY 09:30 AM-10:00 PM, TUESDAY 09:30 AM-10:00 PM, WEDNESDAY 09:30 AM-10:00 PM, THURSDAY 09:30 AM-10:00 PM, FRIDAY 09:00 AM-10:00 PM, SATURDAY 09:00 AM-10:00 PM, SUNDAY 09:30 AM-09:30 PM",,,
dd's DISCOUNTS,,20821 S Dixie Highway,,Miami,FL,33189-2217,US,305-234-0525,25.5730113513514,-80.3749640540541,"MONDAY 09:00 AM-10:00 PM, TUESDAY 09:00 AM-10:00 PM, WEDNESDAY 09:00 AM-10:00 PM, THURSDAY 09:00 AM-10:00 PM, FRIDAY 09:00 AM-10:00 PM, SATURDAY 09:00 AM-10:00 PM, SUNDAY 09:30 AM-10:00 PM",,,
dd's DISCOUNTS,,3841 West Broward Blvd,,Fort Lauderdale,FL,33312-1017,US,(954) 585-0357,26.1210783157895,-80.2008836842105,"MONDAY 08:30 AM-10:00 PM, TUESDAY 08:30 AM-10:00 PM, WEDNESDAY 08:30 AM-10:00 PM, THURSDAY 08:30 AM-10:00 PM, FRIDAY 08:30 AM-10:00 PM, SATURDAY 08:30 AM-10:00 PM, SUNDAY 09:00 AM-10:00 PM",,,
dd's DISCOUNTS,,2630 11th Ave,,Greeley,CO,80631-8441,US,970-304-9858,40.39449,-104.69693,"MONDAY 09:30 AM-09:30 PM, TUESDAY 09:30 AM-09:30 PM, WEDNESDAY 09:30 AM-09:30 PM, THURSDAY 09:30 AM-09:30 PM, FRIDAY 09:30 AM-10:00 PM, SATURDAY 09:30 AM-10:00 PM, SUNDAY 10:00 AM-08:30 PM",,,
dd's DISCOUNTS,,64 Westbank Expressway,Suite B,Gretna,LA,70053-3666,US,504-367-0960,29.9145,-90.04783,"MONDAY 09:30 AM-09:30 PM, TUESDAY 09:30 AM-09:30 PM, WEDNESDAY 09:30 AM-09:30 PM, THURSDAY 09:30 AM-09:30 PM, FRIDAY 09:00 AM-10:00 PM, SATURDAY 09:00 AM-10:00 PM, SUNDAY 10:00 AM-08:30 PM",,,
dd's DISCOUNTS,,5969 Lapalco Blvd,,Marrero,LA,70072,US,504-328-8172,29.8749411111111,-90.1114388888889,"MONDAY 09:30 AM-09:30 PM, TUESDAY 09:30 AM-09:30 PM, WEDNESDAY 09:30 AM-09:30 PM, THURSDAY 09:30 AM-09:30 PM, FRIDAY 09:30 AM-10:00 PM, SATURDAY 09:30 AM-10:00 PM, SUNDAY 10:00 AM-08:30 PM",,,
dd's DISCOUNTS,,4977 Ayers Rd,Suite C,Corpus Christi,TX,78415-1429,US,(361) 814-8478,27.7380592929293,-97.4257313131313,"MONDAY 09:30 AM-10:00 PM, TUESDAY 09:30 AM-10:00 PM, WEDNESDAY 09:30 AM-10:00 PM, THURSDAY 09:30 AM-10:00 PM, FRIDAY 09:00 AM-10:00 PM, SATURDAY 09:00 AM-10:00 PM, SUNDAY 09:30 AM-09:30 PM",,,
dd's DISCOUNTS,,3555 Mercer  University Dr,Suite 150.5,Macon,GA,31204-4940,US,(478) 471-8284,32.8206611462207,-83.6946962252172,"MONDAY 09:30 AM-09:30 PM, TUESDAY 09:30 AM-09:30 PM, WEDNESDAY 09:30 AM-09:30 PM, THURSDAY 09:30 AM-09:30 PM, FRIDAY 09:30 AM-10:00 PM, SATURDAY 09:30 AM-10:00 PM, SUNDAY 10:00 AM-08:30 PM",,,
dd's DISCOUNTS,,5900 Rivers Ave,Unit B,North Charleston,SC,29406-6054,US,(843) 744-5651,32.90332,-80.0195,"MONDAY 09:30 AM-09:30 PM, TUESDAY 09:30 AM-09:30 PM, WEDNESDAY 09:30 AM-09:30 PM, THURSDAY 09:30 AM-09:30 PM, FRIDAY 09:00 AM-10:00 PM, SATURDAY 09:00 AM-10:00 PM, SUNDAY 10:00 AM-09:00 PM",,,
dd's DISCOUNTS,,1518 Sweetwater Rd,,National City,CA,91950,US,619-477-7728,32.66118,-117.083662142857,"MONDAY 08:30 AM-10:30 PM, TUESDAY 08:30 AM-10:30 PM, WEDNESDAY 08:30 AM-10:30 PM, THURSDAY 08:30 AM-10:30 PM, FRIDAY 08:30 AM-10:30 PM, SATURDAY 08:30 AM-10:30 PM, SUNDAY 09:00 AM-09:30 PM",,,
dd's DISCOUNTS,,1325 3rd Ave,,Chula Vista,CA,91911-4302,US,(619) 476-8197,32.605947755102,-117.066059387755,"MONDAY 09:00 AM-10:00 PM, TUESDAY 09:00 AM-10:00 PM, WEDNESDAY 09:00 AM-10:00 PM, THURSDAY 09:00 AM-10:00 PM, FRIDAY 09:00 AM-10:00 PM, SATURDAY 09:00 AM-10:00 PM, SUNDAY 09:30 AM-09:30 PM",,,
dd's DISCOUNTS,,3522 National Ave,,San Diego,CA,92113-3114,US,619-230-1466,32.696002244898,-117.118409591837,"MONDAY 08:30 AM-10:30 PM, TUESDAY 08:30 AM-10:30 PM, WEDNESDAY 08:30 AM-10:30 PM, THURSDAY 08:30 AM-10:30 PM, FRIDAY 08:00 AM-10:30 PM, SATURDAY 08:00 AM-10:30 PM, SUNDAY 09:00 AM-10:00 PM",,,
dd's DISCOUNTS,,1755 Euclid Ave,Suite 103,San Diego,CA,92105-5414,US,(619) 263-1859,32.7239541666667,-117.084905833333,"MONDAY 09:00 AM-09:30 PM, TUESDAY 09:00 AM-09:30 PM, WEDNESDAY 09:00 AM-09:30 PM, THURSDAY 09:00 AM-09:30 PM, FRIDAY 09:00 AM-10:00 PM, SATURDAY 09:00 AM-10:00 PM, SUNDAY 09:30 AM-09:00 PM",,,
dd's DISCOUNTS,,562 N Eastern Ave,,Las Vegas,NV,89101-3423,US,702-386-0019,36.1726,-115.11606,"MONDAY 09:00 AM-09:30 PM, TUESDAY 09:00 AM-09:30 PM, WEDNESDAY 09:00 AM-09:30 PM, THURSDAY 09:00 AM-09:30 PM, FRIDAY 08:30 AM-10:00 PM, SATURDAY 08:30 AM-10:00 PM, SUNDAY 10:00 AM-08:30 PM",,,
dd's DISCOUNTS,,931 West Owens Ave,Suite 110,Las Vegas,NV,89106-5411,US,(702) 631-3257,36.18835,-115.153312342672,"MONDAY 09:00 AM-09:30 PM, TUESDAY 09:00 AM-09:30 PM, WEDNESDAY 09:00 AM-09:30 PM, THURSDAY 09:00 AM-09:30 PM, FRIDAY 09:00 AM-09:30 PM, SATURDAY 09:00 AM-09:30 PM, SUNDAY 10:00 AM-09:00 PM",,,
dd's DISCOUNTS,,2224 S Nellis Blvd,,Las Vegas,NV,89104-6234,US,702-431-1980,36.14635,-115.06537,"MONDAY 09:00 AM-10:00 PM, TUESDAY 09:00 AM-10:00 PM, WEDNESDAY 09:00 AM-10:00 PM, THURSDAY 09:00 AM-10:00 PM, FRIDAY 09:00 AM-10:00 PM, SATURDAY 09:00 AM-10:00 PM, SUNDAY 09:30 AM-09:30 PM",,,
dd's DISCOUNTS,,2560 E Desert Inn Rd,,Las Vegas,NV,89121-3611,US,702-868-0385,36.1298207843137,-115.114888039216,"MONDAY 09:00 AM-10:00 PM, TUESDAY 09:00 AM-10:00 PM, WEDNESDAY 09:00 AM-10:00 PM, THURSDAY 09:00 AM-10:00 PM, FRIDAY 09:00 AM-10:00 PM, SATURDAY 09:00 AM-10:00 PM, SUNDAY 09:30 AM-09:00 PM",,,
dd's DISCOUNTS,,4720 West Sahara Avenue,,Las Vegas,NV,89102-3567,US,702-822-1361,36.1445964864865,-115.205505945946,"MONDAY 09:30 AM-09:30 PM, TUESDAY 09:30 AM-09:30 PM, WEDNESDAY 09:30 AM-09:30 PM, THURSDAY 09:30 AM-09:30 PM, FRIDAY 09:30 AM-09:30 PM, SATURDAY 09:30 AM-09:30 PM, SUNDAY 10:00 AM-08:30 PM",,,
dd's DISCOUNTS,,4730 East Flamingo Rd,,Las Vegas,NV,89121-4709,US,(702) 454-3892,36.11491,-115.070671346154,"MONDAY 09:30 AM-09:00 PM, TUESDAY 09:30 AM-09:00 PM, WEDNESDAY 09:30 AM-09:00 PM, THURSDAY 09:30 AM-09:00 PM, FRIDAY 09:00 AM-10:00 PM, SATURDAY 09:00 AM-10:00 PM, SUNDAY 09:30 AM-09:30 PM",,,
dd's DISCOUNTS,,3430 E Tropicana Ave,,Las Vegas,NV,89121,US,702-547-0108,36.1001338461538,-115.100513076923,"MONDAY 09:30 AM-09:30 PM, TUESDAY 09:30 AM-09:30 PM, WEDNESDAY 09:30 AM-09:30 PM, THURSDAY 09:30 AM-09:30 PM, FRIDAY 09:00 AM-10:00 PM, SATURDAY 09:00 AM-10:00 PM, SUNDAY 10:00 AM-09:00 PM",,,
dd's DISCOUNTS,,6351 Desert South Blvd,Suite 204,El Paso,TX,79932,US,915-584-5151,31.8795929,-106.5823054,"MONDAY 09:30 AM-10:00 PM, TUESDAY 09:30 AM-10:00 PM, WEDNESDAY 09:30 AM-10:00 PM, THURSDAY 09:30 AM-10:00 PM, FRIDAY 09:00 AM-10:00 PM, SATURDAY 09:00 AM-10:00 PM, SUNDAY 10:00 AM-09:00 PM",,,
dd's DISCOUNTS,,5567 Alameda Avenue,,El Paso,TX,79905,US,915-887-0670,31.7682748351648,-106.42376032967,"MONDAY 09:30 AM-09:30 PM, TUESDAY 09:30 AM-09:30 PM, WEDNESDAY 09:30 AM-09:30 PM, THURSDAY 09:30 AM-09:30 PM, FRIDAY 09:30 AM-10:00 PM, SATURDAY 09:30 AM-10:00 PM, SUNDAY 09:00 AM-08:30 PM",,,
dd's DISCOUNTS,,700 N Zaragoza Rd,Suite C,El Paso,TX,79907-4735,US,915 790-0594,31.7041703906203,-106.318697104289,"MONDAY 09:30 AM-10:00 PM, TUESDAY 09:30 AM-10:00 PM, WEDNESDAY 09:30 AM-10:00 PM, THURSDAY 09:30 AM-10:00 PM, FRIDAY 09:00 AM-10:00 PM, SATURDAY 09:00 AM-10:00 PM, SUNDAY 09:30 AM-09:00 PM",,,
dd's DISCOUNTS,,1200 Richland Dr,Suite T,Waco,TX,76710-4391,US,254 751-1560,31.5300310770541,-97.1932704312893,"MONDAY 09:30 AM-09:30 PM, TUESDAY 09:30 AM-09:30 PM, WEDNESDAY 09:30 AM-09:30 PM, THURSDAY 09:30 AM-09:30 PM, FRIDAY 09:00 AM-10:00 PM, SATURDAY 09:00 AM-10:00 PM, SUNDAY 10:00 AM-08:30 PM",,,
dd's DISCOUNTS,,3203 E Central Texas Expy,,Killeen,TX,76543,US,254-519-1791,31.0849911,-97.7068851,"MONDAY 09:00 AM-10:00 PM, TUESDAY 09:00 AM-10:00 PM, WEDNESDAY 09:00 AM-10:00 PM, THURSDAY 09:00 AM-10:00 PM, FRIDAY 08:30 AM-10:00 PM, SATURDAY 08:30 AM-10:00 PM, SUNDAY 09:00 AM-10:00 PM",,,
dd's DISCOUNTS,,781 W 2nd St,Suite B,San Bernardino,CA,92410-3246,US,909-888-2184,34.1026634615385,-117.300077692308,"MONDAY 09:30 AM-10:00 PM, TUESDAY 09:30 AM-10:00 PM, WEDNESDAY 09:30 AM-10:00 PM, THURSDAY 09:30 AM-10:00 PM, FRIDAY 09:00 AM-10:30 PM, SATURDAY 09:00 AM-10:30 PM, SUNDAY 09:30 AM-09:30 PM",,,
dd's DISCOUNTS,,1617 E Highland Ave,,San Bernardino,CA,92404-4677,US,(909) 386-5234,34.13586,-117.252026666667,"MONDAY 09:30 AM-09:00 PM, TUESDAY 09:30 AM-09:00 PM, WEDNESDAY 09:30 AM-09:00 PM, THURSDAY 09:30 AM-09:00 PM, FRIDAY 09:30 AM-10:00 PM, SATURDAY 09:30 AM-10:00 PM, SUNDAY 10:00 AM-08:00 PM",,,
dd's DISCOUNTS,,210 West Baseline Rd,,Rialto,CA,92376-3306,US,(909) 873-9887,34.1213540540541,-117.372825945946,"MONDAY 09:00 AM-10:00 PM, TUESDAY 09:00 AM-10:00 PM, WEDNESDAY 09:00 AM-10:00 PM, THURSDAY 09:00 AM-10:00 PM, FRIDAY 08:30 AM-10:00 PM, SATURDAY 08:30 AM-10:00 PM, SUNDAY 08:30 AM-10:00 PM",,,
dd's DISCOUNTS,,17059 Valley Blvd,Suite F,Fontana,CA,92335-6832,US,(909) 429-4043,34.0703823255814,-117.432475581395,"MONDAY 09:00 AM-10:00 PM, TUESDAY 09:00 AM-10:00 PM, WEDNESDAY 09:00 AM-10:00 PM, THURSDAY 09:00 AM-10:00 PM, FRIDAY 09:00 AM-10:00 PM, SATURDAY 09:00 AM-10:00 PM, SUNDAY 09:30 AM-09:30 PM",,,
dd's DISCOUNTS,,12320 Perris Blvd,,Moreno Valley,CA,92557-7423,US,(951) 488-9393,33.9418742465753,-117.22639,"MONDAY 09:00 AM-10:00 PM, TUESDAY 09:00 AM-10:00 PM, WEDNESDAY 09:00 AM-10:00 PM, THURSDAY 09:00 AM-10:00 PM, FRIDAY 08:30 AM-10:00 PM, SATURDAY 08:30 AM-10:00 PM, SUNDAY 08:00 AM-10:00 PM",,,
dd's DISCOUNTS,,5700 Van Buren Blvd,,Riverside,CA,92503-2087,US,(951) 353-2491,33.9399299316704,-117.454076574382,"MONDAY 09:00 AM-10:00 PM, TUESDAY 09:00 AM-10:00 PM, WEDNESDAY 09:00 AM-10:00 PM, THURSDAY 09:00 AM-10:00 PM, FRIDAY 09:00 AM-10:00 PM, SATURDAY 09:00 AM-10:00 PM, SUNDAY 09:00 AM-10:00 PM",,,
dd's DISCOUNTS,,606 W Holt Blvd,,Ontario,CA,91762-3714,US,(909) 467-2080,34.0633476472156,-117.658803551835,"MONDAY 09:30 AM-10:00 PM, TUESDAY 09:30 AM-10:00 PM, WEDNESDAY 09:30 AM-10:00 PM, THURSDAY 09:30 AM-10:00 PM, FRIDAY 08:30 AM-10:00 PM, SATURDAY 08:30 AM-10:00 PM, SUNDAY 09:30 AM-10:00 PM",,,
dd's DISCOUNTS,,101 W Nuevo Rd,,Perris,CA,92571-0834,US,951-943-9102,33.80108,-117.22834,"MONDAY 08:30 AM-10:30 PM, TUESDAY 08:30 AM-10:30 PM, WEDNESDAY 08:30 AM-10:30 PM, THURSDAY 08:30 AM-10:30 PM, FRIDAY 08:30 AM-10:30 PM, SATURDAY 08:30 AM-10:30 PM, SUNDAY 09:00 AM-10:00 PM",,,
dd's DISCOUNTS,,714 N Main St,,Corona,CA,92880-1439,US,(951) 737-1355,33.8911093165824,-117.564047149565,"MONDAY 09:30 AM-09:30 PM, TUESDAY 09:30 AM-09:30 PM, WEDNESDAY 09:30 AM-09:30 PM, THURSDAY 09:30 AM-09:30 PM, FRIDAY 09:00 AM-10:00 PM, SATURDAY 09:00 AM-10:00 PM, SUNDAY 09:30 AM-09:30 PM",,,
dd's DISCOUNTS,,5537 Philadelphia St,Suite A,Chino,CA,91710-2481,US,(909) 364-9126,34.0335441575381,-117.684357930747,"MONDAY 09:30 AM-10:30 PM, TUESDAY 09:30 AM-10:30 PM, WEDNESDAY 09:30 AM-10:30 PM, THURSDAY 09:30 AM-10:30 PM, FRIDAY 09:00 AM-11:00 PM, SATURDAY 09:00 AM-11:00 PM, SUNDAY 09:30 AM-10:00 PM",,,
dd's DISCOUNTS,,1711 W Florida Ave,,Hemet,CA,92545-3717,US,(951) 652-2389,33.747448989899,-116.98922010101,"MONDAY 09:00 AM-10:00 PM, TUESDAY 09:00 AM-10:00 PM, WEDNESDAY 09:00 AM-10:00 PM, THURSDAY 09:00 AM-10:00 PM, FRIDAY 09:00 AM-10:00 PM, SATURDAY 09:00 AM-10:00 PM, SUNDAY 09:00 AM-10:00 PM",,,
dd's DISCOUNTS,,10405 North 31st Ave,,Phoenix,AZ,85051,US,602-944-0392,33.58059,-112.12546,"MONDAY 09:30 AM-10:00 PM, TUESDAY 09:30 AM-10:00 PM, WEDNESDAY 09:30 AM-10:00 PM, THURSDAY 09:30 AM-10:00 PM, FRIDAY 09:00 AM-10:30 PM, SATURDAY 09:00 AM-10:30 PM, SUNDAY 09:30 AM-09:30 PM",,,
dd's DISCOUNTS,,5802 W Olive Ave,,Glendale,AZ,85302-3100,US,(623) 931-3439,33.56754,-112.18422,"MONDAY 09:30 AM-09:30 PM, TUESDAY 09:30 AM-09:30 PM, WEDNESDAY 09:30 AM-09:30 PM, THURSDAY 09:30 AM-09:30 PM, FRIDAY 09:00 AM-10:00 PM, SATURDAY 09:00 AM-10:00 PM, SUNDAY 09:30 AM-10:00 PM",,,
dd's DISCOUNTS,,6310 103rd St,,Jacksonville,FL,32210-7735,US,(904) 908-5682,30.2484036956522,-81.745807826087,"MONDAY 09:30 AM-09:30 PM, TUESDAY 09:30 AM-09:30 PM, WEDNESDAY 09:30 AM-09:30 PM, THURSDAY 09:30 AM-09:30 PM, FRIDAY 09:00 AM-10:00 PM, SATURDAY 09:00 AM-10:00 PM, SUNDAY 09:30 AM-09:00 PM",,,
dd's DISCOUNTS,,934 Dunn Ave,,Jacksonville,FL,32218-4829,US,904-751-5226,30.42993,-81.6606466666667,"MONDAY 08:30 AM-10:30 PM, TUESDAY 08:30 AM-10:30 PM, WEDNESDAY 08:30 AM-10:30 PM, THURSDAY 08:30 AM-10:30 PM, FRIDAY 08:30 AM-10:30 PM, SATURDAY 08:30 AM-10:30 PM, SUNDAY 09:00 AM-09:30 PM",,,
dd's DISCOUNTS,,9822 Atlantic Blvd,,Jacksonville,FL,32225-6536,US,(904) 721-3511,30.3223175372019,-81.5437806577428,"MONDAY 09:30 AM-10:00 PM, TUESDAY 09:30 AM-10:00 PM, WEDNESDAY 09:30 AM-10:00 PM, THURSDAY 09:30 AM-10:00 PM, FRIDAY 09:00 AM-10:00 PM, SATURDAY 09:00 AM-10:00 PM, SUNDAY 10:00 AM-09:30 PM",,,
dd's DISCOUNTS,,3300 N Pace Blvd,Suite 245,Pensacola,FL,32505-9100,US,(850) 438-2668,30.4462,-87.23982,"MONDAY 09:00 AM-09:30 PM, TUESDAY 09:00 AM-09:30 PM, WEDNESDAY 09:00 AM-09:30 PM, THURSDAY 09:00 AM-09:30 PM, FRIDAY 08:30 AM-10:00 PM, SATURDAY 08:30 AM-10:00 PM, SUNDAY 10:00 AM-08:30 PM",,,
dd's DISCOUNTS,,2816 E Fletcher Ave,,Tampa,FL,33612-9420,US,813-971-7469,28.0692096491228,-82.4279912280702,"MONDAY 09:00 AM-10:30 PM, TUESDAY 09:00 AM-10:30 PM, WEDNESDAY 09:00 AM-10:30 PM, THURSDAY 09:00 AM-10:30 PM, FRIDAY 09:00 AM-11:00 PM, SATURDAY 09:00 AM-11:00 PM, SUNDAY 09:00 AM-10:00 PM",,,
dd's DISCOUNTS,,2233 E Hillsborough Ave,,Tampa,FL,33610-4402,US,(813) 231-3618,27.99609,-82.4343228571429,"MONDAY 09:30 AM-08:00 PM, TUESDAY 09:30 AM-08:00 PM, WEDNESDAY 09:30 AM-08:00 PM, THURSDAY 09:30 AM-08:00 PM, FRIDAY 09:30 AM-08:00 PM, SATURDAY 09:30 AM-08:00 PM, SUNDAY 10:00 AM-07:00 PM",,,
dd's DISCOUNTS,,5788 N Orange Blossom Trail,,Orlando,FL,32810-1023,US,(407) 532-3248,28.6106632968569,-81.4289748771596,"MONDAY 09:30 AM-10:00 PM, TUESDAY 09:30 AM-10:00 PM, WEDNESDAY 09:30 AM-10:00 PM, THURSDAY 09:30 AM-10:00 PM, FRIDAY 09:00 AM-10:00 PM, SATURDAY 09:00 AM-10:00 PM, SUNDAY 09:30 AM-09:30 PM",,,
dd's DISCOUNTS,,5524 W Colonial Dr,,Orlando,FL,32808-7612,US,(407) 295-9098,28.5523116808011,-81.4542641095339,"MONDAY 09:30 AM-08:00 PM, TUESDAY 09:30 AM-08:00 PM, WEDNESDAY 09:30 AM-08:00 PM, THURSDAY 09:30 AM-08:00 PM, FRIDAY 09:30 AM-08:00 PM, SATURDAY 09:30 AM-08:00 PM, SUNDAY 10:00 AM-07:00 PM",,,
dd's DISCOUNTS,,5295 International Dr,Suite 700,Orlando,FL,32819-9405,US,(407) 248-1680,28.4658338930212,-81.4505161759633,"MONDAY 09:30 AM-10:00 PM, TUESDAY 09:30 AM-10:00 PM, WEDNESDAY 09:30 AM-10:00 PM, THURSDAY 09:30 AM-10:00 PM, FRIDAY 09:30 AM-10:00 PM, SATURDAY 09:30 AM-10:00 PM, SUNDAY 10:00 AM-10:00 PM",,,
dd's DISCOUNTS,,7687 S Orange Blossom Trail,,Orlando,FL,32809-6903,US,(407) 859-2846,28.4543310869565,-81.39971,"MONDAY 09:30 AM-10:00 PM, TUESDAY 09:30 AM-10:00 PM, WEDNESDAY 09:30 AM-10:00 PM, THURSDAY 09:30 AM-10:00 PM, FRIDAY 09:00 AM-10:00 PM, SATURDAY 09:00 AM-10:00 PM, SUNDAY 09:30 AM-10:00 PM",,,
dd's DISCOUNTS,,1898 South Semoran Blvd,,Orlando,FL,32822-2801,US,(407) 282-2434,28.5208378805241,-81.310482336958,"MONDAY 09:00 AM-10:00 PM, TUESDAY 09:00 AM-10:00 PM, WEDNESDAY 09:00 AM-10:00 PM, THURSDAY 09:00 AM-10:00 PM, FRIDAY 08:30 AM-10:30 PM, SATURDAY 08:30 AM-10:30 PM, SUNDAY 09:30 AM-09:30 PM",,,
dd's DISCOUNTS,,10537 E Colonial Dr,,Orlando,FL,32817-4427,US,(407) 249-9465,28.5698147058824,-81.2328279411765,"MONDAY 09:30 AM-10:00 PM, TUESDAY 09:30 AM-10:00 PM, WEDNESDAY 09:30 AM-10:00 PM, THURSDAY 09:30 AM-10:00 PM, FRIDAY 09:00 AM-10:00 PM, SATURDAY 09:00 AM-10:00 PM, SUNDAY 09:30 AM-09:00 PM",,,
dd's DISCOUNTS,,1526 West Vine St,,Kissimmee,FL,34741-4002,US,407-343-4881,28.30444,-81.4192844723618,"MONDAY 09:00 AM-10:00 PM, TUESDAY 09:00 AM-10:00 PM, WEDNESDAY 09:00 AM-10:00 PM, THURSDAY 09:00 AM-10:00 PM, FRIDAY 09:00 AM-10:00 PM, SATURDAY 09:00 AM-10:00 PM, SUNDAY 09:30 AM-10:00 PM",,,
dd's DISCOUNTS,,1012 Buenaventura Blvd,,Kissimmee,FL,34743-7865,US,(407) 348-5990,28.3452273265984,-81.3628264403151,"MONDAY 09:00 AM-10:00 PM, TUESDAY 09:00 AM-10:00 PM, WEDNESDAY 09:00 AM-10:00 PM, THURSDAY 09:00 AM-10:00 PM, FRIDAY 09:00 AM-10:30 PM, SATURDAY 09:00 AM-10:30 PM, SUNDAY 09:30 AM-10:00 PM",,,
dd's DISCOUNTS,,3611 1st St East,Suite 400,Bradenton,FL,34208-4446,US,(941) 745-5759,27.46816,-82.56293,"MONDAY 09:00 AM-10:00 PM, TUESDAY 09:00 AM-10:00 PM, WEDNESDAY 09:00 AM-10:00 PM, THURSDAY 09:00 AM-10:00 PM, FRIDAY 08:30 AM-10:00 PM, SATURDAY 08:30 AM-10:00 PM, SUNDAY 09:30 AM-09:30 PM",,,
dd's DISCOUNTS,,1313 E Los Angeles Ave,,Simi Valley,CA,93065,US,805-520-5867,34.27179,-118.774697272727,"MONDAY 08:30 AM-09:30 PM, TUESDAY 08:30 AM-09:30 PM, WEDNESDAY 08:30 AM-09:30 PM, THURSDAY 08:30 AM-09:30 PM, FRIDAY 08:30 AM-10:00 PM, SATURDAY 08:30 AM-10:00 PM, SUNDAY 09:00 AM-09:00 PM",,,
dd's DISCOUNTS,,670 E Arrow Hwy,,Pomona,CA,91767-2245,US,(909) 621-4125,34.08997,-117.738348571429,"MONDAY 09:00 AM-10:00 PM, TUESDAY 09:00 AM-10:00 PM, WEDNESDAY 09:00 AM-10:00 PM, THURSDAY 09:00 AM-10:00 PM, FRIDAY 08:30 AM-10:00 PM, SATURDAY 08:30 AM-10:00 PM, SUNDAY 09:30 AM-09:30 PM",,,
dd's DISCOUNTS,,1939 NW 9th Ave,,Fort Lauderdale,FL,33311-4001,US,954-762-9973,26.1530163157895,-80.1545142105263,"MONDAY 09:00 AM-09:30 PM, TUESDAY 09:00 AM-09:30 PM, WEDNESDAY 09:00 AM-09:30 PM, THURSDAY 09:00 AM-09:30 PM, FRIDAY 09:00 AM-10:00 PM, SATURDAY 09:00 AM-10:00 PM, SUNDAY 09:00 AM-09:00 PM",,,
dd's DISCOUNTS,,5309 W Atlantic Blvd,,Margate,FL,33063,US,954-973-9191,26.2353014390709,-80.1979565033804,"MONDAY 09:00 AM-10:00 PM, TUESDAY 09:00 AM-10:00 PM, WEDNESDAY 09:00 AM-10:00 PM, THURSDAY 09:00 AM-10:00 PM, FRIDAY 09:00 AM-10:00 PM, SATURDAY 09:00 AM-10:00 PM, SUNDAY 09:00 AM-10:00 PM",,,
dd's DISCOUNTS,,7104 N University Dr,,Tamarac,FL,33321-2916,US,(954) 726-3807,26.2102636470588,-80.2523389411765,"MONDAY 09:00 AM-10:00 PM, TUESDAY 09:00 AM-10:00 PM, WEDNESDAY 09:00 AM-10:00 PM, THURSDAY 09:00 AM-10:00 PM, FRIDAY 08:30 AM-10:00 PM, SATURDAY 08:30 AM-10:00 PM, SUNDAY 09:00 AM-10:00 PM",,,
dd's DISCOUNTS,,10101 S US Highway 1,,Port Saint Lucie,FL,34952-5608,US,(772) 398-0459,27.29707,-80.30198,"MONDAY 09:00 AM-10:00 PM, TUESDAY 09:00 AM-10:00 PM, WEDNESDAY 09:00 AM-10:00 PM, THURSDAY 09:00 AM-10:00 PM, FRIDAY 09:00 AM-10:00 PM, SATURDAY 09:00 AM-10:00 PM, SUNDAY 10:00 AM-09:30 PM",,,
dd's DISCOUNTS,,3253 Cleveland Ave,,Ft. Myers,FL,33901-7102,US,239-931-0061,26.61753875,-81.87213125,"MONDAY 09:00 AM-10:00 PM, TUESDAY 09:00 AM-10:00 PM, WEDNESDAY 09:00 AM-10:00 PM, THURSDAY 09:00 AM-10:00 PM, FRIDAY 09:00 AM-10:00 PM, SATURDAY 09:00 AM-10:00 PM, SUNDAY 10:00 AM-09:00 PM",,,
dd's DISCOUNTS,,4035 N 33rd Ave,Suite 35,Phoenix,AZ,85017-4511,US,(602)248-4417,33.4942062216458,-112.129944743965,"MONDAY 08:30 AM-10:30 PM, TUESDAY 08:30 AM-10:30 PM, WEDNESDAY 08:30 AM-10:30 PM, THURSDAY 08:30 AM-10:30 PM, FRIDAY 08:30 AM-10:30 PM, SATURDAY 08:30 AM-10:30 PM, SUNDAY 09:00 AM-09:30 PM",,,
dd's DISCOUNTS,,2036 E Thomas Rd,,Phoenix,AZ,85016-7713,US,602-952-0450,33.48027,-112.037132244898,"MONDAY 09:00 AM-10:00 PM, TUESDAY 09:00 AM-10:00 PM, WEDNESDAY 09:00 AM-10:00 PM, THURSDAY 09:00 AM-10:00 PM, FRIDAY 09:00 AM-10:00 PM, SATURDAY 09:00 AM-10:00 PM, SUNDAY 10:00 AM-09:30 PM",,,
dd's DISCOUNTS,,7333 W Thomas Rd,Suite 30,Phoenix,AZ,85033-5550,US,(623) 247-6030,33.48021,-112.218522790698,"MONDAY 09:00 AM-10:00 PM, TUESDAY 09:00 AM-10:00 PM, WEDNESDAY 09:00 AM-10:00 PM, THURSDAY 09:00 AM-10:00 PM, FRIDAY 09:00 AM-10:00 PM, SATURDAY 09:00 AM-10:00 PM, SUNDAY 09:00 AM-09:30 PM",,,
dd's DISCOUNTS,,901 South 10th St,Suite 320,McAllen,TX,78501-5066,US,956-664-0110,26.1944157692308,-98.2315888461538,"MONDAY 08:30 AM-10:30 PM, TUESDAY 08:30 AM-10:30 PM, WEDNESDAY 08:30 AM-10:30 PM, THURSDAY 08:30 AM-10:30 PM, FRIDAY 08:30 AM-10:30 PM, SATURDAY 08:30 AM-10:30 PM, SUNDAY 09:00 AM-10:00 PM",,,
dd's DISCOUNTS,,2425 Saviers Rd,,Oxnard,CA,93033-4526,US,805-240-2017,34.176955,-119.177605,"MONDAY 09:30 AM-10:00 PM, TUESDAY 09:30 AM-10:00 PM, WEDNESDAY 09:30 AM-10:00 PM, THURSDAY 09:30 AM-10:00 PM, FRIDAY 09:00 AM-10:00 PM, SATURDAY 09:00 AM-10:00 PM, SUNDAY 09:00 AM-10:00 PM",,,
dd's DISCOUNTS,,816 N Ventura Rd,,Oxnard,CA,93030-4400,US,805-485-9156,34.210115326087,-119.194659782609,"MONDAY 09:00 AM-10:00 PM, TUESDAY 09:00 AM-10:00 PM, WEDNESDAY 09:00 AM-10:00 PM, THURSDAY 09:00 AM-10:00 PM, FRIDAY 09:00 AM-10:00 PM, SATURDAY 09:00 AM-10:00 PM, SUNDAY 09:30 AM-09:30 PM",,,
dd's DISCOUNTS,,1036 E Southern Ave,Suite 114,Mesa,AZ,85204-5010,US,480 649-4010,33.39335,-111.809025454545,"MONDAY 09:30 AM-10:00 PM, TUESDAY 09:30 AM-10:00 PM, WEDNESDAY 09:30 AM-10:00 PM, THURSDAY 09:30 AM-10:00 PM, FRIDAY 09:00 AM-10:00 PM, SATURDAY 09:00 AM-10:00 PM, SUNDAY 10:00 AM-09:30 PM",,,
dd's DISCOUNTS,,1940 N Military Trail,,West Palm Beach,FL,33409-4718,US,561-640-3878,26.7059397142857,-80.1110214285714,"MONDAY 09:00 AM-10:00 PM, TUESDAY 09:00 AM-10:00 PM, WEDNESDAY 09:00 AM-10:00 PM, THURSDAY 09:00 AM-10:00 PM, FRIDAY 08:30 AM-10:00 PM, SATURDAY 08:30 AM-10:00 PM, SUNDAY 09:00 AM-10:00 PM",,,
dd's DISCOUNTS,,3504 Broadway,,Riviera Beach,FL,33404-2332,US,561-845-7950,26.7909151613367,-80.0543054408552,"MONDAY 09:00 AM-09:30 PM, TUESDAY 09:00 AM-09:30 PM, WEDNESDAY 09:00 AM-09:30 PM, THURSDAY 09:00 AM-09:30 PM, FRIDAY 09:00 AM-10:00 PM, SATURDAY 09:00 AM-10:00 PM, SUNDAY 09:30 AM-09:00 PM",,,
dd's DISCOUNTS,,3403 S Congress Ave,,Palm Springs,FL,33461,US,561-439-7084,26.6261378651685,-80.0888728089888,"MONDAY 09:00 AM-10:00 PM, TUESDAY 09:00 AM-10:00 PM, WEDNESDAY 09:00 AM-10:00 PM, THURSDAY 09:00 AM-10:00 PM, FRIDAY 09:00 AM-10:00 PM, SATURDAY 09:00 AM-10:00 PM, SUNDAY 09:00 AM-10:00 PM",,,
dd's DISCOUNTS,,405 N Escondido Blvd,,Escondido,CA,92025-2625,US,(760) 480-0307,33.1234753246753,-117.086442987013,"MONDAY 09:30 AM-09:30 PM, TUESDAY 09:30 AM-09:30 PM, WEDNESDAY 09:30 AM-09:30 PM, THURSDAY 09:30 AM-09:30 PM, FRIDAY 09:00 AM-10:00 PM, SATURDAY 09:00 AM-10:00 PM, SUNDAY 09:30 AM-09:00 PM",,,
dd's DISCOUNTS,,2400 Veterens Blvd,,Del Rio,TX,78840,US,830-774-5130,29.39174,-100.90528,"MONDAY 08:30 AM-10:30 PM, TUESDAY 08:30 AM-10:30 PM, WEDNESDAY 08:30 AM-10:30 PM, THURSDAY 08:30 AM-10:30 PM, FRIDAY 08:30 AM-10:30 PM, SATURDAY 08:30 AM-10:30 PM, SUNDAY 09:00 AM-09:30 PM",,,
dd's DISCOUNTS,,1739 SW Loop 410,Suite 702,San Antonio,TX,78227-1669,US,210-673-2059,29.3967121,-98.6508908,"MONDAY 08:30 AM-10:30 PM, TUESDAY 08:30 AM-10:30 PM, WEDNESDAY 08:30 AM-10:30 PM, THURSDAY 08:30 AM-10:30 PM, FRIDAY 08:30 AM-10:30 PM, SATURDAY 08:30 AM-10:30 PM, SUNDAY 09:00 AM-10:00 PM",,,
dd's DISCOUNTS,,5330 Walzem Road,,San Antonio,TX,78218-2123,US,210-650-3434,29.5102976147632,-98.3860423044469,"MONDAY 09:30 AM-09:30 PM, TUESDAY 09:30 AM-09:30 PM, WEDNESDAY 09:30 AM-09:30 PM, THURSDAY 09:30 AM-09:30 PM, FRIDAY 09:30 AM-09:30 PM, SATURDAY 09:30 AM-09:30 PM, SUNDAY 10:00 AM-08:30 PM",,,
dd's DISCOUNTS,,1819 South Pleasant Valley Rd,Unit C,Austin,TX,78741,US,512-389-9947,30.23472,-97.72204,"MONDAY 09:30 AM-10:00 PM, TUESDAY 09:30 AM-10:00 PM, WEDNESDAY 09:30 AM-10:00 PM, THURSDAY 09:30 AM-10:00 PM, FRIDAY 09:00 AM-10:00 PM, SATURDAY 09:00 AM-10:00 PM, SUNDAY 10:00 AM-10:00 PM",,,
dd's DISCOUNTS,,7112 Ed Bluestein Blvd,,Austin,TX,78723,US,(512) 926-2605,30.3132230089387,-97.6629214942944,"MONDAY 09:30 AM-09:30 PM, TUESDAY 09:30 AM-09:30 PM, WEDNESDAY 09:30 AM-09:30 PM, THURSDAY 09:30 AM-09:30 PM, FRIDAY 09:00 AM-10:00 PM, SATURDAY 09:00 AM-10:00 PM, SUNDAY 10:00 AM-08:30 PM",,,
dd's DISCOUNTS,,238 SW Military Dr,,San Antonio,TX,78221-1657,US,210-927-1563,29.3567280808081,-98.4938908080808,"MONDAY 08:30 AM-10:30 PM, TUESDAY 08:30 AM-10:30 PM, WEDNESDAY 08:30 AM-10:30 PM, THURSDAY 08:30 AM-10:30 PM, FRIDAY 08:30 AM-10:30 PM, SATURDAY 08:30 AM-10:30 PM, SUNDAY 09:00 AM-10:00 PM",,,
dd's DISCOUNTS,,222 Almeda Mall,,Houston,TX,77075-3504,US,(713) 943-0157,29.6230658015267,-95.2285407061069,"MONDAY 09:30 AM-10:00 PM, TUESDAY 09:30 AM-10:00 PM, WEDNESDAY 09:30 AM-10:00 PM, THURSDAY 09:30 AM-10:00 PM, FRIDAY 09:30 AM-10:00 PM, SATURDAY 09:30 AM-10:00 PM, SUNDAY 10:00 AM-09:30 PM",,,
dd's DISCOUNTS,,1004 Southmore Ave,,Pasadena,TX,77502,US,713-534-0099,29.6908605,-95.1997795,"MONDAY 09:00 AM-10:00 PM, TUESDAY 09:00 AM-10:00 PM, WEDNESDAY 09:00 AM-10:00 PM, THURSDAY 09:00 AM-10:00 PM, FRIDAY 09:00 AM-10:00 PM, SATURDAY 09:00 AM-10:00 PM, SUNDAY 09:00 AM-10:00 PM",,,
dd's DISCOUNTS,,6830 Harrisburg Blvd,,Houston,TX,77011-4626,US,713-923-9325,29.7367788235294,-95.3058123529412,"MONDAY 09:30 AM-09:30 PM, TUESDAY 09:30 AM-09:30 PM, WEDNESDAY 09:30 AM-09:30 PM, THURSDAY 09:30 AM-09:30 PM, FRIDAY 09:30 AM-10:00 PM, SATURDAY 09:30 AM-10:00 PM, SUNDAY 10:00 AM-08:30 PM",,,
dd's DISCOUNTS,,435 Uvalde Rd,,Houston,TX,77015-3717,US,(713) 330-8889,29.790605,-95.1869383333333,"MONDAY 09:00 AM-10:00 PM, TUESDAY 09:00 AM-10:00 PM, WEDNESDAY 09:00 AM-10:00 PM, THURSDAY 09:00 AM-10:00 PM, FRIDAY 09:00 AM-10:00 PM, SATURDAY 09:00 AM-10:00 PM, SUNDAY 10:00 AM-09:30 PM",,,
dd's DISCOUNTS,,11817 Wilcrest Dr,,Houston,TX,77031,US,281-933-8102,29.6505471428571,-95.56733,"MONDAY 09:30 AM-09:30 PM, TUESDAY 09:30 AM-09:30 PM, WEDNESDAY 09:30 AM-09:30 PM, THURSDAY 09:30 AM-09:30 PM, FRIDAY 09:30 AM-10:00 PM, SATURDAY 09:30 AM-10:00 PM, SUNDAY 10:00 AM-09:30 PM",,,
dd's DISCOUNTS,,6806 Highway 6 South,,Houston,TX,77083-3302,US,281-564-4576,29.7038589473684,-95.6439584210526,"MONDAY 09:30 AM-10:00 PM, TUESDAY 09:30 AM-10:00 PM, WEDNESDAY 09:30 AM-10:00 PM, THURSDAY 09:30 AM-10:00 PM, FRIDAY 09:30 AM-10:00 PM, SATURDAY 09:30 AM-10:00 PM, SUNDAY 10:00 AM-09:30 PM",,,
dd's DISCOUNTS,,10862 Beechnut St,,Houston,TX,77072-4459,US,(281) 933-9927,29.68852,-95.56985,"MONDAY 09:30 AM-10:00 PM, TUESDAY 09:30 AM-10:00 PM, WEDNESDAY 09:30 AM-10:00 PM, THURSDAY 09:30 AM-10:00 PM, FRIDAY 09:00 AM-10:30 PM, SATURDAY 09:00 AM-10:30 PM, SUNDAY 09:30 AM-09:30 PM",,,
dd's DISCOUNTS,,11104 Fondren Rd,,Houston,TX,77096-5506,US,713-773-2300,29.6591241935484,-95.5085393548387,"MONDAY 09:30 AM-10:00 PM, TUESDAY 09:30 AM-10:00 PM, WEDNESDAY 09:30 AM-10:00 PM, THURSDAY 09:30 AM-10:00 PM, FRIDAY 09:00 AM-10:00 PM, SATURDAY 09:00 AM-10:00 PM, SUNDAY 09:30 AM-09:30 PM",,,
dd's DISCOUNTS,,5152 Avenue H,,Rosenberg,TX,77471-2014,US,281-239-7623,29.5075859139785,-95.8077448387097,"MONDAY 09:30 AM-09:30 PM, TUESDAY 09:30 AM-09:30 PM, WEDNESDAY 09:30 AM-09:30 PM, THURSDAY 09:30 AM-09:30 PM, FRIDAY 09:30 AM-10:00 PM, SATURDAY 09:30 AM-10:00 PM, SUNDAY 10:00 AM-08:30 PM",,,
dd's DISCOUNTS,,8077 Antoine Dr,,Houston,TX,77088-4301,US,(281) 445-0045,29.885560822037,-95.4740725748594,"MONDAY 09:30 AM-09:30 PM, TUESDAY 09:30 AM-09:30 PM, WEDNESDAY 09:30 AM-09:30 PM, THURSDAY 09:30 AM-09:30 PM, FRIDAY 09:00 AM-10:00 PM, SATURDAY 09:00 AM-10:00 PM, SUNDAY 10:00 AM-08:30 PM",,,
dd's DISCOUNTS,,5444 North Freeway,,Houston,TX,77076,US,713-742-0880,29.8469548148148,-95.3934285185185,"MONDAY 09:30 AM-09:30 PM, TUESDAY 09:30 AM-09:30 PM, WEDNESDAY 09:30 AM-09:30 PM, THURSDAY 09:30 AM-09:30 PM, FRIDAY 09:30 AM-10:00 PM, SATURDAY 09:30 AM-10:00 PM, SUNDAY 10:00 AM-08:30 PM",,,
dd's DISCOUNTS,,10717 Jones Rd,,Houston,TX,77065-4215,US,281-469-1438,29.9275986241855,-95.58492,"MONDAY 09:30 AM-09:30 PM, TUESDAY 09:30 AM-09:30 PM, WEDNESDAY 09:30 AM-09:30 PM, THURSDAY 09:30 AM-09:30 PM, FRIDAY 09:30 AM-10:00 PM, SATURDAY 09:30 AM-10:00 PM, SUNDAY 10:00 AM-09:00 PM",,,
dd's DISCOUNTS,,10902 North Freeway,,Houston,TX,77037-1108,US,281-447-5668,29.9233713559322,-95.4118374576271,"MONDAY 09:30 AM-10:00 PM, TUESDAY 09:30 AM-10:00 PM, WEDNESDAY 09:30 AM-10:00 PM, THURSDAY 09:30 AM-10:00 PM, FRIDAY 08:30 AM-10:00 PM, SATURDAY 08:30 AM-10:00 PM, SUNDAY 10:00 AM-10:00 PM",,,
dd's DISCOUNTS,,3045 S John Redditt Drive,,Lufkin,TX,75904-5603,US,936-632-3544,31.3087930362659,-94.7285878949684,"MONDAY 09:30 AM-09:30 PM, TUESDAY 09:30 AM-09:30 PM, WEDNESDAY 09:30 AM-09:30 PM, THURSDAY 09:30 AM-09:30 PM, FRIDAY 09:30 AM-10:00 PM, SATURDAY 09:30 AM-10:00 PM, SUNDAY 10:00 AM-08:30 PM",,,
dd's DISCOUNTS,,221 W Willow St,,Lafayette,LA,70501-2841,US,337-233-4067,30.2451575447055,-92.01652615029,"MONDAY 08:30 AM-10:30 PM, TUESDAY 08:30 AM-10:30 PM, WEDNESDAY 08:30 AM-10:30 PM, THURSDAY 08:30 AM-10:30 PM, FRIDAY 08:00 AM-10:30 PM, SATURDAY 08:00 AM-10:30 PM, SUNDAY 09:00 AM-09:30 PM",,,
dd's DISCOUNTS,,370 FM 1960 West,,Houston,TX,77090,US,(281) 893-0529,30.0197615789474,-95.4343692105263,"MONDAY 09:30 AM-10:00 PM, TUESDAY 09:30 AM-10:00 PM, WEDNESDAY 09:30 AM-10:00 PM, THURSDAY 09:30 AM-10:00 PM, FRIDAY 08:30 AM-10:00 PM, SATURDAY 08:30 AM-10:00 PM, SUNDAY 10:00 AM-09:30 PM",,,
dd's DISCOUNTS,,13128 Veterans Memorial Dr,,Houston,TX,77014-1904,US,(281) 866-0328,29.9780633333333,-95.4909491666667,"MONDAY 09:30 AM-09:30 PM, TUESDAY 09:30 AM-09:30 PM, WEDNESDAY 09:30 AM-09:30 PM, THURSDAY 09:30 AM-09:30 PM, FRIDAY 09:00 AM-10:00 PM, SATURDAY 09:00 AM-10:00 PM, SUNDAY 09:30 AM-09:30 PM",,,
dd's DISCOUNTS,,3500 Little York Rd,Suite A2A,Houston,TX,77093-3655,US,713-691-7980,29.8710072561383,-95.3341053616165,"MONDAY 08:00 AM-10:30 PM, TUESDAY 08:00 AM-10:30 PM, WEDNESDAY 08:00 AM-10:30 PM, THURSDAY 08:00 AM-10:30 PM, FRIDAY 08:00 AM-10:30 PM, SATURDAY 08:00 AM-10:30 PM, SUNDAY 09:00 AM-09:30 PM",,,
dd's DISCOUNTS,,2921 Boca Chica Blvd,,Brownsville,TX,78521-3574,US,956-541-4188,25.9214920237152,-97.4779644031592,"MONDAY 08:30 AM-10:30 PM, TUESDAY 08:30 AM-10:30 PM, WEDNESDAY 08:30 AM-10:30 PM, THURSDAY 08:30 AM-10:30 PM, FRIDAY 08:30 AM-10:30 PM, SATURDAY 08:30 AM-10:30 PM, SUNDAY 09:00 AM-10:00 PM",,,
dd's DISCOUNTS,,121 S Rancho Santa Fe Rd,,San Marcos,CA,92078-2501,US,(760) 471-8274,33.148466,-117.199046,"MONDAY 09:00 AM-09:30 PM, TUESDAY 09:00 AM-09:30 PM, WEDNESDAY 09:00 AM-09:30 PM, THURSDAY 09:00 AM-09:30 PM, FRIDAY 09:00 AM-10:00 PM, SATURDAY 09:00 AM-10:00 PM, SUNDAY 09:30 AM-09:30 PM",,,
dd's DISCOUNTS,,1527 Mission Ave,Suite A,Oceanside,CA,92058,US,(760) 721-2172,33.2018479591837,-117.368724693878,"MONDAY 09:30 AM-10:00 PM, TUESDAY 09:30 AM-10:00 PM, WEDNESDAY 09:30 AM-10:00 PM, THURSDAY 09:30 AM-10:00 PM, FRIDAY 09:00 AM-10:00 PM, SATURDAY 09:00 AM-10:00 PM, SUNDAY 10:00 AM-09:00 PM",,,
dd's DISCOUNTS,,2704 W 16th St,,Yuma,AZ,85364-4228,US,928-783-0877,32.6984794117647,-114.652953529412,"MONDAY 08:30 AM-10:30 PM, TUESDAY 08:30 AM-10:30 PM, WEDNESDAY 08:30 AM-10:30 PM, THURSDAY 08:30 AM-10:30 PM, FRIDAY 08:30 AM-10:30 PM, SATURDAY 08:30 AM-10:30 PM, SUNDAY 09:00 AM-09:30 PM",,,
dd's DISCOUNTS,,500 W Catalina Dr,,Yuma,AZ,85364,US,928-344-3245,32.67338,-114.62449,"MONDAY 08:30 AM-10:30 PM, TUESDAY 08:30 AM-10:30 PM, WEDNESDAY 08:30 AM-10:30 PM, THURSDAY 08:30 AM-10:30 PM, FRIDAY 08:30 AM-10:30 PM, SATURDAY 08:30 AM-10:30 PM, SUNDAY 09:00 AM-09:30 PM",,,
dd's DISCOUNTS,,528 E Danenberg Dr,,El Centro,CA,92243-8510,US,760-482-0923,32.7669171428571,-115.534398571429,"MONDAY 09:30 AM-10:30 PM, TUESDAY 09:30 AM-10:30 PM, WEDNESDAY 09:30 AM-10:30 PM, THURSDAY 09:30 AM-10:30 PM, FRIDAY 09:30 AM-11:00 PM, SATURDAY 09:30 AM-11:00 PM, SUNDAY 10:00 AM-10:30 PM",,,
dd's DISCOUNTS,,12220 Hesperia Rd,,Victorville,CA,92395-5823,US,(760) 955-6707,34.47332,-117.291660909091,"MONDAY 09:30 AM-09:30 PM, TUESDAY 09:30 AM-09:30 PM, WEDNESDAY 09:30 AM-09:30 PM, THURSDAY 09:30 AM-09:30 PM, FRIDAY 09:30 AM-10:00 PM, SATURDAY 09:30 AM-10:00 PM, SUNDAY 10:00 AM-08:30 PM",,,
dd's DISCOUNTS,,14598 7th St,Suite A,Victorville,CA,92395-4214,US,(760) 245-7163,34.51666,-117.31279,"MONDAY 08:30 AM-10:00 PM, TUESDAY 08:30 AM-10:00 PM, WEDNESDAY 08:30 AM-10:00 PM, THURSDAY 08:30 AM-10:00 PM, FRIDAY 08:30 AM-10:00 PM, SATURDAY 08:30 AM-10:00 PM, SUNDAY 09:30 AM-10:00 PM",,,
dd's DISCOUNTS,,266 E Palmdale Blvd,,Palmdale,CA,93550-4515,US,661-274-9763,34.57986,-118.125767959184,"MONDAY 09:00 AM-09:30 PM, TUESDAY 09:00 AM-09:30 PM, WEDNESDAY 09:00 AM-09:30 PM, THURSDAY 09:00 AM-09:30 PM, FRIDAY 08:30 AM-10:00 PM, SATURDAY 08:30 AM-10:00 PM, SUNDAY 09:30 AM-09:30 PM",,,
dd's DISCOUNTS,,2038 W Ave J,,Lancaster,CA,93536-5913,US,(661) 723-7318,34.688409,-118.167203,"MONDAY 09:00 AM-10:00 PM, TUESDAY 09:00 AM-10:00 PM, WEDNESDAY 09:00 AM-10:00 PM, THURSDAY 09:00 AM-10:00 PM, FRIDAY 09:00 AM-10:00 PM, SATURDAY 09:00 AM-10:00 PM, SUNDAY 09:00 AM-10:00 PM",,,
dd's DISCOUNTS,,3838 N Oracle Rd,,Tucson,AZ,85705-3227,US,520-293-4723,32.2762157303371,-110.97809,"MONDAY 09:30 AM-09:30 PM, TUESDAY 09:30 AM-09:30 PM, WEDNESDAY 09:30 AM-09:30 PM, THURSDAY 09:30 AM-09:30 PM, FRIDAY 09:30 AM-10:00 PM, SATURDAY 09:30 AM-10:00 PM, SUNDAY 10:00 AM-09:00 PM",,,
dd's DISCOUNTS,,720 Woollomes Ave,Suite 108,Delano,CA,93215,US,661-725-0110,35.746919240122,-119.245721580473,"MONDAY 09:30 AM-09:30 PM, TUESDAY 09:30 AM-09:30 PM, WEDNESDAY 09:30 AM-09:30 PM, THURSDAY 09:30 AM-09:30 PM, FRIDAY 09:30 AM-10:00 PM, SATURDAY 09:30 AM-10:00 PM, SUNDAY 10:00 AM-08:30 PM",,,
dd's DISCOUNTS,,1505 White Lane,,Bakersfield,CA,93307-4678,US,661-837-1516,35.31761,-119.019240502513,"MONDAY 09:30 AM-09:30 PM, TUESDAY 09:30 AM-09:30 PM, WEDNESDAY 09:30 AM-09:30 PM, THURSDAY 09:30 AM-09:30 PM, FRIDAY 09:30 AM-10:00 PM, SATURDAY 09:30 AM-10:00 PM, SUNDAY 10:00 AM-08:30 PM",,,
dd's DISCOUNTS,,2693 Mount Vernon Ave,,Bakersfield,CA,93306-2921,US,(661) 873-0681,35.3969414893779,-118.96743,"MONDAY 08:30 AM-10:30 PM, TUESDAY 08:30 AM-10:30 PM, WEDNESDAY 08:30 AM-10:30 PM, THURSDAY 08:30 AM-10:30 PM, FRIDAY 08:30 AM-10:30 PM, SATURDAY 08:30 AM-10:30 PM, SUNDAY 09:00 AM-10:00 PM",,,
dd's DISCOUNTS,,3781 S 12th Ave,,Tucson,AZ,85713-6003,US,(520) 622-0075,32.1780629411765,-110.97759,"MONDAY 09:00 AM-09:30 PM, TUESDAY 09:00 AM-09:30 PM, WEDNESDAY 09:00 AM-09:30 PM, THURSDAY 09:00 AM-09:30 PM, FRIDAY 08:30 AM-10:00 PM, SATURDAY 08:30 AM-10:00 PM, SUNDAY 10:00 AM-08:30 PM",,,
