store_name,store_number,address,address2,city,state,zip_code,country,phone_number,latitude,longitude,store_hours,store_type,other_fields,coming_soon
Fred Meyer Jewelers,70200765,2020 Southlake Mall,,Merrillville,IN,46410,United States,2197382056,41.4705227,-87.3114589,"Monday 10:00-21:00, Tuesday 10:00-21:00, Wednesday 10:00-21:00, Thursday 10:00-21:00, Friday 10:00-21:00, Saturday 10:00-21:00, Sunday 11:00-18:00",,,
Fred Meyer Jewelers,70200757,3340 Mall Loop Dr Spc 1278,,Joliet,IL,60431,United States,8154363311,41.5794251,-88.165314,"Monday 10:00-21:00, Tuesday 10:00-21:00, Wednesday 10:00-21:00, Thursday 10:00-21:00, Friday 10:00-21:00, Saturday 10:00-21:00, Sunday 11:00-18:00",,,
Fred Meyer Jewelers,70200762,6501 Grape Rd Ste 180,,Mishawaka,IN,46545,United States,5742720488,41.7195665,-86.1878118,"Monday 10:00-21:00, Tuesday 10:00-21:00, Wednesday 10:00-21:00, Thursday 10:00-21:00, Friday 10:00-21:00, Saturday 10:00-21:00, Sunday 11:00-18:00",,,
Fred Meyer Jewelers,70200738,5300 S 76Th St Ste 1620,,Greendale,WI,53129,United States,4144218555,42.9484701,-88.0083324,"Monday 10:00-21:00, Tuesday 10:00-21:00, Wednesday 10:00-21:00, Thursday 10:00-21:00, Friday 10:00-21:00, Saturday 10:00-21:00, Sunday 11:00-18:00",,,
Fred Meyer Jewelers,70200129,9703 Barker Cypress Road,,Cypress,TX,77433,United States,2817463650,29.918981,-95.689605,"Monday 10:00-20:00, Tuesday 10:00-20:00, Wednesday 10:00-20:00, Thursday 10:00-20:00, Friday 10:00-20:00, Saturday 10:00-20:00, Sunday 12:00-18:00",,,
Fred Meyer Jewelers,70200110,25651 US Hwy 59 North,,Kingwood,TX,77339,United States,2819730642,30.072039,-95.243007,"Monday 10:00-20:00, Tuesday 10:00-20:00, Wednesday 10:00-20:00, Thursday 10:00-20:00, Friday 10:00-20:00, Saturday 10:00-20:00, Sunday 12:00-18:00",,,
Fred Meyer Jewelers,70200037,8011 W Grand Pkwy S,,Richmond,TX,77407,United States,2813412790,29.663889,-95.738225,"Monday 10:00-20:00, Tuesday 10:00-20:00, Wednesday 10:00-20:00, Thursday 10:00-20:00, Friday 10:00-20:00, Saturday 10:00-20:00, Sunday 12:00-18:00",,,
Fred Meyer Jewelers,70200133,24350 Kuykendahl,,Tomball,TX,77375,United States,2812050952,30.114586,-95.552614,"Monday 10:00-20:00, Tuesday 10:00-20:00, Wednesday 10:00-20:00, Thursday 10:00-20:00, Friday 10:00-20:00, Saturday 10:00-20:00, Sunday 12:00-18:00",,,
Fred Meyer Jewelers,70200230,20355 Cypresswood Drive,,Cypress,TX,77433,United States,8329523185,29.990374,-95.736606,"Monday 10:00-20:00, Tuesday 10:00-20:00, Wednesday 10:00-20:00, Thursday 10:00-20:00, Friday 10:00-20:00, Saturday 10:00-20:00, Sunday 12:00-18:00",,,
Fred Meyer Jewelers,70200057,24401 Brazos Town Xing,,Rosenberg,TX,77471,United States,2812321660,29.541542,-95.750753,"Monday 10:00-20:00, Tuesday 10:00-20:00, Wednesday 10:00-20:00, Thursday 10:00-20:00, Friday 10:00-20:00, Saturday 10:00-20:00, Sunday 12:00-18:00",,,
Fred Meyer Jewelers,70200222,1712 Spring Green Blvd.,,Katy,TX,77494,United States,2817694373,29.763259,-95.843765,"Monday 10:00-20:00, Tuesday 10:00-20:00, Wednesday 10:00-20:00, Thursday 10:00-20:00, Friday 10:00-20:00, Saturday 10:00-20:00, Sunday 12:00-18:00",,,
Fred Meyer Jewelers,70200067,12605 Interstate 45 N,,Willis,TX,77318,United States,9368905066,30.422298,-95.49474,"Monday 10:00-20:00, Tuesday 10:00-20:00, Wednesday 10:00-20:00, Thursday 10:00-20:00, Friday 10:00-20:00, Saturday 10:00-20:00, Sunday 12:00-18:00",,,
Fred Meyer Jewelers,70200072,4707 E Shea Blvd,,Phoenix,AZ,85028,United States,4803673996,33.58098,-111.97911,"Monday 10:00-20:00, Tuesday 10:00-20:00, Wednesday 10:00-20:00, Thursday 10:00-20:00, Friday 10:00-20:00, Saturday 10:00-20:00, Sunday 12:00-18:00",,,
Fred Meyer Jewelers,70200106,500 Marketplace Blvd.,,Forney,TX,75126,United States,9725648495,32.74882,-96.450225,"Monday 10:00-20:00, Tuesday 10:00-20:00, Wednesday 10:00-20:00, Thursday 10:00-20:00, Friday 10:00-20:00, Saturday 10:00-20:00, Sunday 12:00-18:00",,,
Fred Meyer Jewelers,70200199,4620 SH 121,,Lewisville,TX,75056,United States,4695352492,33.062224,-96.889081,"Monday 10:00-20:00, Tuesday 10:00-20:00, Wednesday 10:00-20:00, Thursday 10:00-20:00, Friday 10:00-20:00, Saturday 10:00-20:00, Sunday 12:00-18:00",,,
Fred Meyer Jewelers,70200108,2608 West Fm 544,,Wylie,TX,75098,United States,9722447686,33.008571,-96.575217,"Monday 10:00-20:00, Tuesday 10:00-20:00, Wednesday 10:00-20:00, Thursday 10:00-20:00, Friday 10:00-20:00, Saturday 10:00-20:00, Sunday 12:00-18:00",,,
Fred Meyer Jewelers,70200082,3300 E Broad St,,Mansfield,TX,76063,United States,8174355428,32.573761,-97.08345,"Monday 10:00-20:00, Tuesday 10:00-20:00, Wednesday 10:00-20:00, Thursday 10:00-20:00, Friday 10:00-20:00, Saturday 10:00-20:00, Sunday 12:00-18:00",,,
Fred Meyer Jewelers,70200194,9150 N. Tarrant Parkway,,North Richland Hills,TX,76182,United States,8179183795,32.902054,-97.188922,"Monday 10:00-20:00, Tuesday 10:00-20:00, Wednesday 10:00-20:00, Thursday 10:00-20:00, Friday 10:00-20:00, Saturday 10:00-20:00, Sunday 12:00-18:00",,,
Fred Meyer Jewelers,70200083,2671 Little Elm Pkwy,,Little Elm,TX,75068,United States,4698885529,33.170401,-96.891399,"Monday 10:00-20:00, Tuesday 10:00-20:00, Wednesday 10:00-20:00, Thursday 10:00-20:00, Friday 10:00-20:00, Saturday 10:00-20:00, Sunday 12:00-18:00",,,
Fred Meyer Jewelers,70200058,12221 Custer Rd,,Frisco,TX,75035,United States,2144915005,33.1772,-96.735343,"Monday 10:00-20:00, Tuesday 10:00-20:00, Wednesday 10:00-20:00, Thursday 10:00-20:00, Friday 10:00-20:00, Saturday 10:00-20:00, Sunday 12:00-18:00",,,
Fred Meyer Jewelers,70200197,3400 FM-407 E.,,Bartonville,TX,76226,United States,9402948344,33.074847,-97.130271,"Monday 10:00-20:00, Tuesday 10:00-20:00, Wednesday 10:00-20:00, Thursday 10:00-20:00, Friday 10:00-20:00, Saturday 10:00-20:00, Sunday 12:00-18:00",,,
Fred Meyer Jewelers,70200054,3300 Texas Sage Trail,,Fort Worth,TX,76177,United States,8177502046,32.911584,-97.309312,"Monday 10:00-20:00, Tuesday 10:00-20:00, Wednesday 10:00-20:00, Thursday 10:00-20:00, Friday 10:00-20:00, Saturday 10:00-20:00, Sunday 12:00-18:00",,,
Fred Meyer Jewelers,70200213,3915 Hwy 377 East,,Granbury,TX,76049,United States,6824984235,32.453795,-97.726793,"Monday 10:00-20:00, Tuesday 10:00-20:00, Wednesday 10:00-20:00, Thursday 10:00-20:00, Friday 10:00-20:00, Saturday 10:00-20:00, Sunday 12:00-18:00",,,
Fred Meyer Jewelers,70200711,3401 Dale Rd Ste 404,,Modesto,CA,95356,United States,2095276013,37.688778,-121.05345,"Monday 10:00-21:00, Tuesday 10:00-21:00, Wednesday 10:00-21:00, Thursday 10:00-21:00, Friday 10:00-21:00, Saturday 10:00-21:00, Sunday 11:00-19:00",,,
Fred Meyer Jewelers,70200703,1689 Arden Way Ste 1044,,Sacramento,CA,95815,United States,9169239107,38.601678,-121.427803,"Monday 10:00-21:00, Tuesday 10:00-21:00, Wednesday 10:00-21:00, Thursday 10:00-21:00, Friday 10:00-21:00, Saturday 10:00-21:00, Sunday 11:00-19:00",,,
Fred Meyer Jewelers,70200015,10477 Harrison Ave,,Harrison,OH,45030,United States,5132028380,39.249241,-84.791457,"Monday 10:00-20:00, Tuesday 10:00-20:00, Wednesday 10:00-20:00, Thursday 10:00-20:00, Friday 10:00-20:00, Saturday 10:00-20:00, Sunday 12:00-18:00",,,
Fred Meyer Jewelers,70200009,3105 N Bend Rd,,Hebron,KY,41048,United States,8599624931,39.064395,-84.70695,"Monday 10:00-20:00, Tuesday 10:00-20:00, Wednesday 10:00-20:00, Thursday 10:00-20:00, Friday 10:00-20:00, Saturday 10:00-20:00, Sunday 12:00-18:00",,,
Fred Meyer Jewelers,70200114,7685 Mall Rd.,,Florence,KY,41042,United States,8597955850,38.996999,-84.656199,"Monday 10:00-20:00, Tuesday 10:00-20:00, Wednesday 10:00-20:00, Thursday 10:00-20:00, Friday 10:00-20:00, Saturday 10:00-20:00, Sunday 12:00-18:00",,,
Fred Meyer Jewelers,70200088,5725 Coventry Lane,,Fort Wayne,IN,46804,United States,2604322498,41.034095,-85.259364,"Monday 10:00-20:00, Tuesday 10:00-20:00, Wednesday 10:00-20:00, Thursday 10:00-20:00, Friday 10:00-20:00, Saturday 10:00-20:00, Sunday 12:00-18:00",,,
Fred Meyer Jewelers,70200003,199 Graceland Blvd,,Columbus,OH,43214,United States,6144101250,40.065075,-83.025419,"Monday 10:00-20:00, Tuesday 10:00-20:00, Wednesday 10:00-20:00, Thursday 10:00-20:00, Friday 10:00-20:00, Saturday 10:00-20:00, Sunday 12:00-18:00",,,
Fred Meyer Jewelers,70200006,300 S Hamilton Rd,,Gahanna,OH,43230,United States,6144166440,40.01191,-82.864758,"Monday 10:00-21:00, Tuesday 10:00-21:00, Wednesday 10:00-21:00, Thursday 10:00-21:00, Friday 10:00-21:00, Saturday 10:00-21:00, Sunday 12:00-18:00",,,
Fred Meyer Jewelers,70200007,7625 Sawmill Rd,,Dublin,OH,43016,United States,6149232330,40.121766,-83.092683,"Monday 10:00-21:00, Tuesday 10:00-21:00, Wednesday 10:00-21:00, Thursday 10:00-21:00, Friday 10:00-21:00, Saturday 10:00-21:00, Sunday 12:00-18:00",,,
Fred Meyer Jewelers,70200044,6417 Columbus Pike,,Lewis Center,OH,43035,United States,7408880998,40.203416,-83.026567,"Monday 10:00-20:00, Tuesday 10:00-20:00, Wednesday 10:00-20:00, Thursday 10:00-20:00, Friday 10:00-20:00, Saturday 10:00-20:00, Sunday 12:00-18:00",,,
Fred Meyer Jewelers,70200008,1500 Lexington Ave,,Mansfield,OH,44907,United States,4197743250,40.718765,-82.549321,"Monday 10:00-20:00, Tuesday 10:00-20:00, Wednesday 10:00-20:00, Thursday 10:00-20:00, Friday 10:00-20:00, Saturday 10:00-20:00, Sunday 12:00-18:00",,,
Fred Meyer Jewelers,70200066,3165 Dayton Xenia Rd,,Beavercreek,OH,45434,United States,9379120510,39.725453,-84.054007,"Monday 10:00-20:00, Tuesday 10:00-20:00, Wednesday 10:00-20:00, Thursday 10:00-20:00, Friday 10:00-20:00, Saturday 10:00-20:00, Sunday 12:00-18:00",,,
Fred Meyer Jewelers,70200142,731 West Market St.,,Troy,OH,45373,United States,9375734490,40.030762,-84.222482,"Monday 10:00-20:00, Tuesday 10:00-20:00, Wednesday 10:00-20:00, Thursday 10:00-20:00, Friday 10:00-20:00, Saturday 10:00-20:00, Sunday 12:00-18:00",,,
Fred Meyer Jewelers,70200038,1095 S Main St,,Centerville,OH,45458,United States,9374398686,39.607104,-84.163525,"Monday 10:00-20:00, Tuesday 10:00-20:00, Wednesday 10:00-20:00, Thursday 10:00-20:00, Friday 10:00-20:00, Saturday 10:00-20:00, Sunday 12:00-18:00",,,
Fred Meyer Jewelers,70200039,210 Sterling Run Blvd,,Mount Orab,OH,45154,United States,9374446920,39.039608,-83.924071,"Monday 10:00-20:00, Tuesday 10:00-20:00, Wednesday 10:00-20:00, Thursday 10:00-20:00, Friday 10:00-20:00, Saturday 10:00-20:00, Sunday 12:00-18:00",,,
Fred Meyer Jewelers,70200092,262 W. Main Street,,Amelia,OH,45102,United States,5137182280,39.036067,-84.233101,"Monday 10:00-20:00, Tuesday 10:00-20:00, Wednesday 10:00-20:00, Thursday 10:00-20:00, Friday 10:00-20:00, Saturday 10:00-20:00, Sunday 12:00-18:00",,,
Fred Meyer Jewelers,70200161,4613 Marburg Avenue,,Cincinnati,OH,45209,United States,5137825130,39.160128,-84.427087,"Monday 10:00-20:00, Tuesday 10:00-20:00, Wednesday 10:00-20:00, Thursday 10:00-20:00, Friday 10:00-20:00, Saturday 10:00-20:00, Sunday 12:00-18:00",,,
Fred Meyer Jewelers,70200002,7580 Beechmont Ave,,Cincinnati,OH,45255,United States,5132334490,39.074391,-84.348148,"Monday 10:00-21:00, Tuesday 10:00-21:00, Wednesday 10:00-21:00, Thursday 10:00-21:00, Friday 10:00-21:00, Saturday 10:00-21:00, Sunday 12:00-18:00",,,
Fred Meyer Jewelers,70200036,130 Pavilion Pkwy,,Newport,KY,41071,United States,8592925670,39.090279,-84.478446,"Monday 10:00-20:00, Tuesday 10:00-20:00, Wednesday 10:00-20:00, Thursday 10:00-20:00, Friday 10:00-20:00, Saturday 10:00-20:00, Sunday 12:00-18:00",,,
Fred Meyer Jewelers,70200735,14600 Lakeside Cir,,Sterling Heights,MI,48313,United States,5862473610,42.624934,-82.9823293,"Monday 10:00-21:00, Tuesday 10:00-21:00, Wednesday 10:00-21:00, Thursday 10:00-21:00, Friday 10:00-21:00, Saturday 10:00-21:00, Sunday 12:00-18:00",,,
Fred Meyer Jewelers,70200121,14945 East 23 Mile Road,,Shelby Township,MI,48315,United States,5869307025,42.673792,-82.977026,"Monday 10:00-20:00, Tuesday 10:00-20:00, Wednesday 10:00-20:00, Thursday 10:00-20:00, Friday 10:00-20:00, Saturday 10:00-20:00, Sunday 12:00-18:00",,,
Fred Meyer Jewelers,70200118,3462 Sterns Rd.,,Lambertville,MI,48144,United States,7348544250,41.750965,-83.628466,"Monday 10:00-20:00, Tuesday 10:00-20:00, Wednesday 10:00-20:00, Thursday 10:00-20:00, Friday 10:00-20:00, Saturday 10:00-20:00, Sunday 12:00-18:00",,,
Fred Meyer Jewelers,70200783,3291 S Linden Rd,,Flint,MI,48507,United States,8107328730,42.9785739,-83.7719938,"Monday 10:00-21:00, Tuesday 10:00-21:00, Wednesday 10:00-21:00, Thursday 10:00-21:00, Friday 10:00-21:00, Saturday 10:00-21:00, Sunday 12:00-18:00",,,
Fred Meyer Jewelers,70200146,7059 Orchard Centre Dr.,,Holland,OH,43528,United States,5672974126,41.608319,-83.710074,"Monday 10:00-20:00, Tuesday 10:00-20:00, Wednesday 10:00-20:00, Thursday 10:00-20:00, Friday 10:00-20:00, Saturday 10:00-20:00, Sunday 12:00-18:00",,,
Fred Meyer Jewelers,70200785,4801 Fashion Square Mall,,Saginaw,MI,48604,United States,9897911430,43.4769941,-83.9702761,"Monday 10:00-21:00, Tuesday 10:00-21:00, Wednesday 10:00-21:00, Thursday 10:00-21:00, Friday 10:00-21:00, Saturday 10:00-21:00, Sunday 12:00-18:00",,,
Fred Meyer Jewelers,70200148,1725 South Caraway Road,,Jonesboro,AR,72401,United States,8708194115,35.823962,-90.680192,"Monday 10:00-20:00, Tuesday 10:00-20:00, Wednesday 10:00-20:00, Thursday 10:00-20:00, Friday 10:00-20:00, Saturday 10:00-20:00, Sunday 12:00-18:00",,,
Fred Meyer Jewelers,70200608,915 Nw 45Th St,,Seattle,WA,98107,United States,2062974315,47.660179,-122.36879,"Monday 09:00-20:00, Tuesday 09:00-20:00, Wednesday 09:00-20:00, Thursday 09:00-20:00, Friday 09:00-20:00, Saturday 09:00-20:00, Sunday 10:00-18:00",,,
Fred Meyer Jewelers,70200023,2041 148Th Ave Ne,,Bellevue,WA,98007,United States,4258658575,47.628807,-122.144766,"Monday 09:00-20:00, Tuesday 09:00-20:00, Wednesday 09:00-20:00, Thursday 09:00-20:00, Friday 09:00-20:00, Saturday 09:00-20:00, Sunday 10:00-18:00",,,
Fred Meyer Jewelers,70200028,14300 First S,,Burien,WA,98168,United States,2064336452,47.475272,-122.331616,"Monday 09:00-20:00, Tuesday 09:00-20:00, Wednesday 09:00-20:00, Thursday 09:00-20:00, Friday 09:00-20:00, Saturday 09:00-20:00, Sunday 10:00-18:00",,,
Fred Meyer Jewelers,70200391,12221 120Th Ave Ne,,Kirkland,WA,98034,United States,4258203215,47.70783,-122.184172,"Monday 09:00-20:00, Tuesday 09:00-20:00, Wednesday 09:00-20:00, Thursday 09:00-20:00, Friday 09:00-20:00, Saturday 09:00-20:00, Sunday 10:00-18:00",,,
Fred Meyer Jewelers,70200459,365 Renton Center Way Sw,,Renton,WA,98057,United States,4252045215,47.477372,-122.219085,"Monday 09:00-20:00, Tuesday 09:00-20:00, Wednesday 09:00-20:00, Thursday 09:00-20:00, Friday 09:00-20:00, Saturday 09:00-20:00, Sunday 10:00-18:00",,,
Fred Meyer Jewelers,70200013,18325 Aurora Ave N,,Shoreline,WA,98133,United States,2065460735,47.762075,-122.347785,"Monday 09:00-20:00, Tuesday 09:00-20:00, Wednesday 09:00-20:00, Thursday 09:00-20:00, Friday 09:00-20:00, Saturday 09:00-20:00, Sunday 10:00-18:00",,,
Fred Meyer Jewelers,70200664,17667 Ne 76Th St,,Redmond,WA,98052,United States,4255568015,47.670579,-122.10463,"Monday 09:00-20:00, Tuesday 09:00-20:00, Wednesday 09:00-20:00, Thursday 09:00-20:00, Friday 09:00-20:00, Saturday 09:00-20:00, Sunday 10:00-18:00",,,
Fred Meyer Jewelers,70200031,17801 108Th Ave Se,,Renton,WA,98055,United States,4252355365,47.442899,-122.199473,"Monday 09:00-20:00, Tuesday 09:00-20:00, Wednesday 09:00-20:00, Thursday 09:00-20:00, Friday 09:00-20:00, Saturday 09:00-20:00, Sunday 10:00-18:00",,,
Fred Meyer Jewelers,70200171,5050 State Highway 303 Ne,,Bremerton,WA,98311,United States,3607922815,47.609531,-122.626892,"Monday 09:00-20:00, Tuesday 09:00-20:00, Wednesday 09:00-20:00, Thursday 09:00-20:00, Friday 09:00-20:00, Saturday 09:00-20:00, Sunday 10:00-18:00",,,
Fred Meyer Jewelers,70200658,6100 E Lake Sammamish Pkwy Se,,Issaquah,WA,98029,United States,4254161115,47.548819,-122.038922,"Monday 09:00-20:00, Tuesday 09:00-20:00, Wednesday 09:00-20:00, Thursday 09:00-20:00, Friday 09:00-20:00, Saturday 09:00-20:00, Sunday 10:00-18:00",,,
Fred Meyer Jewelers,70200180,4615 196Th St Sw,,Lynnwood,WA,98036,United States,4256700215,47.822247,-122.295433,"Monday 09:00-20:00, Tuesday 09:00-20:00, Wednesday 09:00-20:00, Thursday 09:00-20:00, Friday 09:00-20:00, Saturday 09:00-20:00, Sunday 10:00-18:00",,,
Fred Meyer Jewelers,70200457,21045 Bothell Everett Hwy,,Bothell,WA,98021,United States,4253987015,47.807343,-122.205967,"Monday 09:00-20:00, Tuesday 09:00-20:00, Wednesday 09:00-20:00, Thursday 09:00-20:00, Friday 09:00-20:00, Saturday 09:00-20:00, Sunday 10:00-18:00",,,
Fred Meyer Jewelers,70200655,1900 Se Sedgwick Rd,,Port Orchard,WA,98366,United States,3608747155,47.503368,-122.629368,"Monday 09:00-20:00, Tuesday 09:00-20:00, Wednesday 09:00-20:00, Thursday 09:00-20:00, Friday 09:00-20:00, Saturday 09:00-20:00, Sunday 10:00-18:00",,,
Fred Meyer Jewelers,70200215,25250 Pacific Hwy S,,Kent,WA,98032,United States,2539467415,47.374346,-122.298203,"Monday 09:00-20:00, Tuesday 09:00-20:00, Wednesday 09:00-20:00, Thursday 09:00-20:00, Friday 09:00-20:00, Saturday 09:00-20:00, Sunday 10:00-18:00",,,
Fred Meyer Jewelers,70200172,10201 Se 240Th St,,Kent,WA,98031,United States,2538595515,47.385994,-122.205444,"Monday 09:00-20:00, Tuesday 09:00-20:00, Wednesday 09:00-20:00, Thursday 09:00-20:00, Friday 09:00-20:00, Saturday 09:00-20:00, Sunday 10:00-18:00",,,
Fred Meyer Jewelers,70200688,2902 164Th St Sw,,Lynnwood,WA,98087,United States,4257874915,47.84752,-122.272951,"Monday 09:00-20:00, Tuesday 09:00-20:00, Wednesday 09:00-20:00, Thursday 09:00-20:00, Friday 09:00-20:00, Saturday 09:00-20:00, Sunday 10:00-18:00",,,
Fred Meyer Jewelers,70200708,10315 Silverdale Way Nw,,Silverdale,WA,98383,United States,3606983411,47.657436,-122.690313,"Monday 10:00-21:00, Tuesday 10:00-21:00, Wednesday 10:00-21:00, Thursday 10:00-21:00, Friday 10:00-21:00, Saturday 10:00-21:00, Sunday 11:00-18:00",,,
Fred Meyer Jewelers,70200053,16735 SE 272Nd St,,Covington,WA,98042,United States,2536397415,47.356346,-122.118534,"Monday 09:00-20:00, Tuesday 09:00-20:00, Wednesday 09:00-20:00, Thursday 09:00-20:00, Friday 09:00-20:00, Saturday 09:00-20:00, Sunday 10:00-18:00",,,
Fred Meyer Jewelers,70200458,12906 Bothell Everett Hwy,,Everett,WA,98208,United States,4253572015,47.879677,-122.209149,"Monday 09:00-20:00, Tuesday 09:00-20:00, Wednesday 09:00-20:00, Thursday 09:00-20:00, Friday 09:00-20:00, Saturday 09:00-20:00, Sunday 10:00-18:00",,,
Fred Meyer Jewelers,70200019,801 Auburn Way N,,Auburn,WA,98002,United States,2539315566,47.315331,-122.226344,"Monday 09:00-20:00, Tuesday 09:00-20:00, Wednesday 09:00-20:00, Thursday 09:00-20:00, Friday 09:00-20:00, Saturday 09:00-20:00, Sunday 10:00-18:00",,,
Fred Meyer Jewelers,70200111,33702 21St Ave Sw,,Federal Way,WA,98023,United States,2539520115,47.298157,-122.359032,"Monday 09:00-20:00, Tuesday 09:00-20:00, Wednesday 09:00-20:00, Thursday 09:00-20:00, Friday 09:00-20:00, Saturday 09:00-20:00, Sunday 10:00-18:00",,,
Fred Meyer Jewelers,70200682,26520 Maple Valley Black Diamond Rd Se,,Maple Valley,WA,98038,United States,4254332315,47.363819,-122.018892,"Monday 09:00-20:00, Tuesday 09:00-20:00, Wednesday 09:00-20:00, Thursday 09:00-20:00, Friday 09:00-20:00, Saturday 09:00-20:00, Sunday 10:00-18:00",,,
Fred Meyer Jewelers,70200095,8530 Evergreen Way,,Everett,WA,98208,United States,4253488415,47.920593,-122.231761,"Monday 09:00-20:00, Tuesday 09:00-20:00, Wednesday 09:00-20:00, Thursday 09:00-20:00, Friday 09:00-20:00, Saturday 09:00-20:00, Sunday 10:00-18:00",,,
Fred Meyer Jewelers,70200210,18805 State Route 2,,Monroe,WA,98272,United States,3608058115,47.86277,-121.9784393,"Monday 09:00-20:00, Tuesday 09:00-20:00, Wednesday 09:00-20:00, Thursday 09:00-20:00, Friday 09:00-20:00, Saturday 09:00-20:00, Sunday 10:00-18:00",,,
Fred Meyer Jewelers,70200681,2801 Bickford Ave,,Snohomish,WA,98290,United States,3605633715,47.943924,-122.105251,"Monday 09:00-20:00, Tuesday 09:00-20:00, Wednesday 09:00-20:00, Thursday 09:00-20:00, Friday 09:00-20:00, Saturday 09:00-20:00, Sunday 10:00-18:00",,,
Fred Meyer Jewelers,70200390,4505 S 19Th St,,Tacoma,WA,98405,United States,2537569295,47.243858,-122.497536,"Monday 09:00-20:00, Tuesday 09:00-20:00, Wednesday 09:00-20:00, Thursday 09:00-20:00, Friday 09:00-20:00, Saturday 09:00-20:00, Sunday 10:00-18:00",,,
Fred Meyer Jewelers,70200707,4502 S Steele St,,Tacoma,WA,98409,United States,2534759540,47.216278,-122.467434,"Monday 10:00-21:00, Tuesday 10:00-21:00, Wednesday 10:00-21:00, Thursday 10:00-21:00, Friday 10:00-21:00, Saturday 10:00-21:00, Sunday 11:00-19:00",,,
Fred Meyer Jewelers,70200265,1100 N Meridian,,Puyallup,WA,98371,United States,2538408165,47.20127,-122.296288,"Monday 09:00-20:00, Tuesday 09:00-20:00, Wednesday 09:00-20:00, Thursday 09:00-20:00, Friday 09:00-20:00, Saturday 09:00-20:00, Sunday 10:00-18:00",,,
Fred Meyer Jewelers,70200665,1201 Valley Ave E,,Sumner,WA,98390,United States,2538268415,47.20449,-122.228028,"Monday 09:00-20:00, Tuesday 09:00-20:00, Wednesday 09:00-20:00, Thursday 09:00-20:00, Friday 09:00-20:00, Saturday 09:00-20:00, Sunday 10:00-18:00",,,
Fred Meyer Jewelers,70200385,7250 Pacific Ave,,Tacoma,WA,98408,United States,2534756055,47.190445,-122.435371,"Monday 09:00-20:00, Tuesday 09:00-20:00, Wednesday 09:00-20:00, Thursday 09:00-20:00, Friday 09:00-20:00, Saturday 09:00-20:00, Sunday 10:00-18:00",,,
Fred Meyer Jewelers,70200615,6305 Bridgeport Way W,,University Place,WA,98467,United States,2534604015,47.200672,-122.528881,"Monday 09:00-20:00, Tuesday 09:00-20:00, Wednesday 09:00-20:00, Thursday 09:00-20:00, Friday 09:00-20:00, Saturday 09:00-20:00, Sunday 10:00-18:00",,,
Fred Meyer Jewelers,70200333,3500 S Meridian Ste 240,,Puyallup,WA,98373,United States,2538403450,47.157982,-122.296853,"Monday 10:00-21:00, Tuesday 10:00-21:00, Wednesday 10:00-21:00, Thursday 10:00-21:00, Friday 10:00-21:00, Saturday 10:00-21:00, Sunday 10:00-18:00",,,
Fred Meyer Jewelers,70200041,20901 SR 410 E,,Bonney Lake,WA,98391,United States,2538917315,47.166388,-122.150622,"Monday 09:00-20:00, Tuesday 09:00-20:00, Wednesday 09:00-20:00, Thursday 09:00-20:00, Friday 09:00-20:00, Saturday 09:00-20:00, Sunday 10:00-18:00",,,
Fred Meyer Jewelers,70200209,9925 Old Highway 99,,Marysville,WA,98270,United States,3606530715,48.085311,-122.169604,"Monday 09:00-20:00, Tuesday 09:00-20:00, Wednesday 09:00-20:00, Thursday 09:00-20:00, Friday 09:00-20:00, Saturday 09:00-20:00, Sunday 10:00-18:00",,,
Fred Meyer Jewelers,70200424,17404 Meridian E,,Puyallup,WA,98375,United States,2534457855,47.099205,-122.296902,"Monday 09:00-20:00, Tuesday 09:00-20:00, Wednesday 09:00-20:00, Thursday 09:00-20:00, Friday 09:00-20:00, Saturday 09:00-20:00, Sunday 10:00-18:00",,,
Fred Meyer Jewelers,70200186,700 Sleater Kinney Rd Se,,Lacey,WA,98503,United States,3604386465,47.040596,-122.830956,"Monday 09:00-20:00, Tuesday 09:00-20:00, Wednesday 09:00-20:00, Thursday 09:00-20:00, Friday 09:00-20:00, Saturday 09:00-20:00, Sunday 10:00-18:00",,,
Fred Meyer Jewelers,70200659,555 Trosper Rd Sw,,Tumwater,WA,98512,United States,3607537915,46.998177,-122.914743,"Monday 09:00-20:00, Tuesday 09:00-20:00, Wednesday 09:00-20:00, Thursday 09:00-20:00, Friday 09:00-20:00, Saturday 09:00-20:00, Sunday 10:00-18:00",,,
Fred Meyer Jewelers,70200024,920 S Burlington Blvd,,Burlington,WA,98233,United States,3607579115,48.466742,-122.333497,"Monday 09:00-20:00, Tuesday 09:00-20:00, Wednesday 09:00-20:00, Thursday 09:00-20:00, Friday 09:00-20:00, Saturday 09:00-20:00, Sunday 10:00-18:00",,,
Fred Meyer Jewelers,70200025,800 Lakeway Dr,,Bellingham,WA,98229,United States,3607384225,48.743624,-122.464452,"Monday 09:00-20:00, Tuesday 09:00-20:00, Wednesday 09:00-20:00, Thursday 09:00-20:00, Friday 09:00-20:00, Saturday 09:00-20:00, Sunday 10:00-18:00",,,
Fred Meyer Jewelers,70200667,1225 W Bakerview Rd,,Bellingham,WA,98226,United States,3607882915,48.788609,-122.512047,"Monday 09:00-20:00, Tuesday 09:00-20:00, Wednesday 09:00-20:00, Thursday 09:00-20:00, Friday 09:00-20:00, Saturday 09:00-20:00, Sunday 10:00-18:00",,,
Fred Meyer Jewelers,70200652,201 S Water St,,Ellensburg,WA,98926,United States,5099620515,46.991213,-120.551826,"Monday 09:00-20:00, Tuesday 09:00-20:00, Wednesday 09:00-20:00, Thursday 09:00-20:00, Friday 09:00-20:00, Saturday 09:00-20:00, Sunday 10:00-18:00",,,
Fred Meyer Jewelers,70200654,11 Grant Rd,,East Wenatchee,WA,98802,United States,5098812815,47.407037,-120.290956,"Monday 09:00-20:00, Tuesday 09:00-20:00, Wednesday 09:00-20:00, Thursday 09:00-20:00, Friday 09:00-20:00, Saturday 09:00-20:00, Sunday 10:00-18:00",,,
Fred Meyer Jewelers,70200079,8031 Wadsworth Blvd,,Arvada,CO,80003,United States,3034632297,39.843355,-105.083777,"Monday 10:00-20:00, Tuesday 10:00-20:00, Wednesday 10:00-20:00, Thursday 10:00-20:00, Friday 10:00-20:00, Saturday 10:00-20:00, Sunday 10:00-18:00",,,
Fred Meyer Jewelers,70200089,15051 E. 104Th Ave.,,Commerce City,CO,80022,United States,3032865480,39.887695,-104.811935,"Monday 10:00-20:00, Tuesday 10:00-20:00, Wednesday 10:00-20:00, Thursday 10:00-20:00, Friday 10:00-20:00, Saturday 10:00-20:00, Sunday 10:00-18:00",,,
Fred Meyer Jewelers,70200232,17761 Cottonwood Drive,,Parker,CO,80134,United States,3033349563,39.560244,-104.782925,"Monday 10:00-20:00, Tuesday 10:00-20:00, Wednesday 10:00-20:00, Thursday 10:00-20:00, Friday 10:00-20:00, Saturday 10:00-20:00, Sunday 10:00-18:00",,,
Fred Meyer Jewelers,70200157,25701 E. Smoky Hill Rd.,,Aurora,CO,80016,United States,3036152870,39.587626,-104.68717,"Monday 10:00-20:00, Tuesday 10:00-20:00, Wednesday 10:00-20:00, Thursday 10:00-20:00, Friday 10:00-20:00, Saturday 10:00-20:00, Sunday 10:00-18:00",,,
Fred Meyer Jewelers,70200137,100 N. 50th Ave.,,Brighton,CO,80601,United States,3036370403,39.988725,-104.749855,"Monday 10:00-20:00, Tuesday 10:00-20:00, Wednesday 10:00-20:00, Thursday 10:00-20:00, Friday 10:00-20:00, Saturday 10:00-20:00, Sunday 10:00-18:00",,,
Fred Meyer Jewelers,70200078,6922 W 10Th St,,Greeley,CO,80634,United States,9703924170,40.419575,-104.792383,"Monday 10:00-20:00, Tuesday 10:00-20:00, Wednesday 10:00-20:00, Thursday 10:00-20:00, Friday 10:00-20:00, Saturday 10:00-20:00, Sunday 10:00-18:00",,,
Fred Meyer Jewelers,70200080,1842 N College Ave,,Fort Collins,CO,80524,United States,9704946960,40.611844,-105.073454,"Monday 10:00-20:00, Tuesday 10:00-20:00, Wednesday 10:00-20:00, Thursday 10:00-20:00, Friday 10:00-20:00, Saturday 10:00-20:00, Sunday 10:00-18:00",,,
Fred Meyer Jewelers,70200134,9351 Atlee Rd.,,Mechanicsville,VA,23116,United States,8045698250,37.651801,-77.4023,"Monday 10:00-20:00, Tuesday 10:00-20:00, Wednesday 10:00-20:00, Thursday 10:00-20:00, Friday 10:00-20:00, Saturday 10:00-20:00, Sunday 12:00-18:00",,,
Fred Meyer Jewelers,70200132,9000 Staples Mill Rd.,,Henrico,VA,23228,United States,8049779521,37.637241,-77.514374,"Monday 10:00-20:00, Tuesday 10:00-20:00, Wednesday 10:00-20:00, Thursday 10:00-20:00, Friday 10:00-20:00, Saturday 10:00-20:00, Sunday 12:00-18:00",,,
Fred Meyer Jewelers,70200052,2011 Nashville Pike,,Gallatin,TN,37066,United States,6152303909,36.343437,-86.526137,"Monday 10:00-20:00, Tuesday 10:00-20:00, Wednesday 10:00-20:00, Thursday 10:00-20:00, Friday 10:00-20:00, Saturday 10:00-20:00, Sunday 12:00-18:00",,,
Fred Meyer Jewelers,70200010,4700 Traders Way,,Thompsons Station,TN,37179,United States,6157915363,35.784795,-86.915624,"Monday 10:00-20:00, Tuesday 10:00-20:00, Wednesday 10:00-20:00, Thursday 10:00-20:00, Friday 10:00-20:00, Saturday 10:00-20:00, Sunday 12:00-18:00",,,
Fred Meyer Jewelers,70200061,311 Boone Station Rd,,Shelbyville,KY,40065,United States,5026475700,38.215752,-85.206417,"Monday 10:00-20:00, Tuesday 10:00-20:00, Wednesday 10:00-20:00, Thursday 10:00-20:00, Friday 10:00-20:00, Saturday 10:00-20:00, Sunday 12:00-18:00",,,
Fred Meyer Jewelers,70200098,106 Marketplace Circle,,Georgetown,KY,40324,United States,5028685068,38.186369,-84.568409,"Monday 10:00-20:00, Tuesday 10:00-20:00, Wednesday 10:00-20:00, Thursday 10:00-20:00, Friday 10:00-20:00, Saturday 10:00-20:00, Sunday 12:00-18:00",,,
Fred Meyer Jewelers,70200026,3175 Beaumont Centre Cir,,Lexington,KY,40513,United States,8592195150,38.022848,-84.559291,"Monday 10:00-20:00, Tuesday 10:00-20:00, Wednesday 10:00-20:00, Thursday 10:00-20:00, Friday 10:00-20:00, Saturday 10:00-20:00, Sunday 12:00-18:00",,,
Fred Meyer Jewelers,70200117,1700 Declaration Drive,,Independence,KY,41051,United States,8598981580,38.928716,-84.548326,"Monday 10:00-20:00, Tuesday 10:00-20:00, Wednesday 10:00-20:00, Thursday 10:00-20:00, Friday 10:00-20:00, Saturday 10:00-20:00, Sunday 12:00-18:00",,,
Fred Meyer Jewelers,70200413,800 N Green River Rd,,Evansville,IN,47715,United States,8124719298,37.984333,-87.495689,"Monday 10:00-21:00, Tuesday 10:00-21:00, Wednesday 10:00-21:00, Thursday 10:00-21:00, Friday 10:00-21:00, Saturday 10:00-21:00, Sunday 12:00-18:00",,,
Fred Meyer Jewelers,70200791,4301 W Wisconsin Ave,,Appleton,WI,54913,United States,9207346464,44.2729912,-88.469728,"Monday 10:00-21:00, Tuesday 10:00-21:00, Wednesday 10:00-21:00, Thursday 10:00-21:00, Friday 10:00-21:00, Saturday 09:00-21:00, Sunday 10:00-19:00",,,
Fred Meyer Jewelers,70200808,1300 W Sunset Rd,,Henderson,NV,89014,United States,7024505438,36.067118,-115.042827,"Monday 10:00-21:00, Tuesday 10:00-21:00, Wednesday 10:00-21:00, Thursday 10:00-21:00, Friday 10:00-21:00, Saturday 10:00-21:00, Sunday 11:00-18:00",,,
Fred Meyer Jewelers,70200600,3030 Ne Weidler St,,Portland,OR,97232,United States,5032801315,45.533101,-122.634968,"Monday 09:00-20:00, Tuesday 09:00-20:00, Wednesday 09:00-20:00, Thursday 09:00-20:00, Friday 09:00-20:00, Saturday 09:00-20:00, Sunday 10:00-18:00",,,
Fred Meyer Jewelers,70200285,7700 Sw Beaverton Hillsdale Hwy,,Portland,OR,97225,United States,5032034015,45.485312,-122.755998,"Monday 09:00-20:00, Tuesday 09:00-20:00, Wednesday 09:00-20:00, Thursday 09:00-20:00, Friday 09:00-20:00, Saturday 09:00-20:00, Sunday 10:00-18:00",,,
Fred Meyer Jewelers,70200150,7404 N Interstate Ave,,Portland,OR,97217,United States,5032866766,45.57595,-122.681009,"Monday 09:00-20:00, Tuesday 09:00-20:00, Wednesday 09:00-20:00, Thursday 09:00-20:00, Friday 09:00-20:00, Saturday 09:00-20:00, Sunday 10:00-18:00",,,
Fred Meyer Jewelers,70200330,5253 Se 82Nd Ave,,Portland,OR,97266,United States,5037882867,45.484277,-122.580214,"Monday 09:00-20:00, Tuesday 09:00-20:00, Wednesday 09:00-20:00, Thursday 09:00-20:00, Friday 09:00-20:00, Saturday 09:00-20:00, Sunday 10:00-18:00",,,
Fred Meyer Jewelers,70200128,1111 Ne 102Nd Ave,,Portland,OR,97220,United States,5032515515,45.53066,-122.560299,"Monday 09:00-20:00, Tuesday 09:00-20:00, Wednesday 09:00-20:00, Thursday 09:00-20:00, Friday 09:00-20:00, Saturday 09:00-20:00, Sunday 10:00-18:00",,,
Fred Meyer Jewelers,70200153,8955 SE 82nd Ave,,Happy Valley,OR,97086,United States,5037882015,45.45853,-122.580757,"Monday 09:00-20:00, Tuesday 09:00-20:00, Wednesday 09:00-20:00, Thursday 09:00-20:00, Friday 09:00-20:00, Saturday 09:00-20:00, Sunday 10:00-18:00",,,
Fred Meyer Jewelers,70200035,11425 SW Beaverton Hillsdale Hwy,,Beaverton,OR,97005,United States,5035261815,45.488022,-122.794646,"Monday 09:00-20:00, Tuesday 09:00-20:00, Wednesday 09:00-20:00, Thursday 09:00-20:00, Friday 09:00-20:00, Saturday 09:00-20:00, Sunday 10:00-18:00",,,
Fred Meyer Jewelers,70200375,11565 Sw Pacific Hwy,,Tigard,OR,97223,United States,5032937067,45.440792,-122.751694,"Monday 09:00-20:00, Tuesday 09:00-20:00, Wednesday 09:00-20:00, Thursday 09:00-20:00, Friday 09:00-20:00, Saturday 09:00-20:00, Sunday 10:00-18:00",,,
Fred Meyer Jewelers,70200505,9567 Sw Washington Square Rd,,Tigard,OR,97223,United States,5034433763,45.449965,-122.781442,"Monday 10:00-21:00, Tuesday 10:00-21:00, Wednesday 10:00-21:00, Thursday 10:00-21:00, Friday 10:00-21:00, Saturday 10:00-21:00, Sunday 10:00-19:00",,,
Fred Meyer Jewelers,70200240,14700 Se Mcloughlin Blvd,,Milwaukie,OR,97267,United States,5036524115,45.41684,-122.630824,"Monday 09:00-20:00, Tuesday 09:00-20:00, Wednesday 09:00-20:00, Thursday 09:00-20:00, Friday 09:00-20:00, Saturday 09:00-20:00, Sunday 10:00-18:00",,,
Fred Meyer Jewelers,70200064,12000 Se 82Nd Ave Ste 1037,,Happy Valley,OR,97086,United States,5036540807,45.436011,-122.573958,"Monday 10:00-21:00, Tuesday 10:00-21:00, Wednesday 10:00-21:00, Thursday 10:00-21:00, Friday 10:00-21:00, Saturday 10:00-21:00, Sunday 11:00-18:00",,,
Fred Meyer Jewelers,70200683,2500 Columbia House Blvd,,Vancouver,WA,98661,United States,3606191715,45.620345,-122.64554,"Monday 09:00-20:00, Tuesday 09:00-20:00, Wednesday 09:00-20:00, Thursday 09:00-20:00, Friday 09:00-20:00, Saturday 09:00-20:00, Sunday 10:00-18:00",,,
Fred Meyer Jewelers,70200075,14700 Se Division St,,Portland,OR,97236,United States,5037624418,45.502979,-122.512182,"Monday 09:00-20:00, Tuesday 09:00-20:00, Wednesday 09:00-20:00, Thursday 09:00-20:00, Friday 09:00-20:00, Saturday 09:00-20:00, Sunday 10:00-18:00",,,
Fred Meyer Jewelers,70200482,15995 Sw Walker Rd,,Beaverton,OR,97006,United States,5036905815,45.518688,-122.841515,"Monday 09:00-20:00, Tuesday 09:00-20:00, Wednesday 09:00-20:00, Thursday 09:00-20:00, Friday 09:00-20:00, Saturday 09:00-20:00, Sunday 10:00-18:00",,,
Fred Meyer Jewelers,70200063,16301 SE 82Nd Dr,,Clackamas,OR,97015,United States,5036571248,45.404619,-122.570132,"Monday 09:00-20:00, Tuesday 09:00-20:00, Wednesday 09:00-20:00, Thursday 09:00-20:00, Friday 09:00-20:00, Saturday 09:00-20:00, Sunday 10:00-18:00",,,
Fred Meyer Jewelers,70200208,11325 Se Mill Plain Blvd,,Vancouver,WA,98684,United States,3602537068,45.619535,-122.556236,"Monday 09:00-20:00, Tuesday 09:00-20:00, Wednesday 09:00-20:00, Thursday 09:00-20:00, Friday 09:00-20:00, Saturday 09:00-20:00, Sunday 10:00-18:00",,,
Fred Meyer Jewelers,70200393,19200 Sw Martinazzi Ave,,Tualatin,OR,97062,United States,5036914215,45.3811,-122.757088,"Monday 09:00-20:00, Tuesday 09:00-20:00, Wednesday 09:00-20:00, Thursday 09:00-20:00, Friday 09:00-20:00, Saturday 09:00-20:00, Sunday 10:00-18:00",,,
Fred Meyer Jewelers,70200093,16600 Se Mcgillivray Blvd,,Vancouver,WA,98683,United States,3602603315,45.605828,-122.501486,"Monday 09:00-20:00, Tuesday 09:00-20:00, Wednesday 09:00-20:00, Thursday 09:00-20:00, Friday 09:00-20:00, Saturday 09:00-20:00, Sunday 10:00-18:00",,,
Fred Meyer Jewelers,70200694,17005 SE Sunnyside Rd.,,Happy Valley,OR,97015,United States,9719996295,45.426781,-122.48833,"Monday 09:00-20:00, Tuesday 09:00-20:00, Wednesday 09:00-20:00, Thursday 09:00-20:00, Friday 09:00-20:00, Saturday 09:00-20:00, Sunday 10:00-18:00",,,
Fred Meyer Jewelers,70200474,8700 NE Vancouver Mall Dr #244,,Vancouver,WA,98662,United States,3602547835,45.65804,-122.58367,"Monday 10:00-21:00, Tuesday 10:00-21:00, Wednesday 10:00-21:00, Thursday 10:00-21:00, Friday 10:00-21:00, Saturday 10:00-21:00, Sunday 11:00-18:00",,,
Fred Meyer Jewelers,70200661,22075 Nw Imbrie Dr,,Hillsboro,OR,97124,United States,5037471115,45.551505,-122.903468,"Monday 09:00-20:00, Tuesday 09:00-20:00, Wednesday 09:00-20:00, Thursday 09:00-20:00, Friday 09:00-20:00, Saturday 09:00-20:00, Sunday 10:00-18:00",,,
Fred Meyer Jewelers,70200140,7700 Ne Highway 99,,Vancouver,WA,98665,United States,3606998116,45.676969,-122.66334,"Monday 09:00-20:00, Tuesday 09:00-20:00, Wednesday 09:00-20:00, Thursday 09:00-20:00, Friday 09:00-20:00, Saturday 09:00-20:00, Sunday 10:00-18:00",,,
Fred Meyer Jewelers,70200143,6495 Se Tualatin Valley Hwy,,Hillsboro,OR,97123,United States,5038484565,45.499863,-122.914528,"Monday 09:00-20:00, Tuesday 09:00-20:00, Wednesday 09:00-20:00, Thursday 09:00-20:00, Friday 09:00-20:00, Saturday 09:00-20:00, Sunday 10:00-18:00",,,
Fred Meyer Jewelers,70200660,22855 Ne Park Ln,,Wood Village,OR,97060,United States,5034925015,45.530315,-122.428702,"Monday 09:00-20:00, Tuesday 09:00-20:00, Wednesday 09:00-20:00, Thursday 09:00-20:00, Friday 09:00-20:00, Saturday 09:00-20:00, Sunday 10:00-18:00",,,
Fred Meyer Jewelers,70200236,7411 Ne 117Th Ave,,Vancouver,WA,98662,United States,3608963515,45.675834,-122.550976,"Monday 09:00-20:00, Tuesday 09:00-20:00, Wednesday 09:00-20:00, Thursday 09:00-20:00, Friday 09:00-20:00, Saturday 09:00-20:00, Sunday 10:00-18:00",,,
Fred Meyer Jewelers,70200127,2497 Se Burnside Rd,,Gresham,OR,97080,United States,5036694215,45.495871,-122.405163,"Monday 09:00-20:00, Tuesday 09:00-20:00, Wednesday 09:00-20:00, Thursday 09:00-20:00, Friday 09:00-20:00, Saturday 09:00-20:00, Sunday 10:00-18:00",,,
Fred Meyer Jewelers,70200242,1839 Molalla Ave,,Oregon City,OR,97045,United States,5036571465,45.331252,-122.583146,"Monday 09:00-20:00, Tuesday 09:00-20:00, Wednesday 09:00-20:00, Thursday 09:00-20:00, Friday 09:00-20:00, Saturday 09:00-20:00, Sunday 10:00-18:00",,,
Fred Meyer Jewelers,70200460,800 Ne Tenney Rd,,Vancouver,WA,98685,United States,3605712555,45.720547,-122.662979,"Monday 09:00-20:00, Tuesday 09:00-20:00, Wednesday 09:00-20:00, Thursday 09:00-20:00, Friday 09:00-20:00, Saturday 09:00-20:00, Sunday 10:00-18:00",,,
Fred Meyer Jewelers,70200516,30300 Sw Boones Ferry Rd,,Wilsonville,OR,97070,United States,5035703515,45.301041,-122.770846,"Monday 09:00-20:00, Tuesday 09:00-20:00, Wednesday 09:00-20:00, Thursday 09:00-20:00, Friday 09:00-20:00, Saturday 09:00-20:00, Sunday 10:00-18:00",,,
Fred Meyer Jewelers,70200651,1401 Se 1St Ave,,Canby,OR,97013,United States,5032634114,45.266678,-122.67675,"Monday 09:00-20:00, Tuesday 09:00-20:00, Wednesday 09:00-20:00, Thursday 09:00-20:00, Friday 09:00-20:00, Saturday 09:00-20:00, Sunday 10:00-18:00",,,
Fred Meyer Jewelers,70200060,2200 Baseline St,,Cornelius,OR,97113,United States,5033593315,45.521777,-123.045221,"Monday 09:00-20:00, Tuesday 09:00-20:00, Wednesday 09:00-20:00, Thursday 09:00-20:00, Friday 09:00-20:00, Saturday 09:00-20:00, Sunday 10:00-18:00",,,
Fred Meyer Jewelers,70200462,51501 Columbia River Hwy,,Scappoose,OR,97056,United States,5035434515,45.742741,-122.878258,"Monday 09:00-20:00, Tuesday 09:00-20:00, Wednesday 09:00-20:00, Thursday 09:00-20:00, Friday 09:00-20:00, Saturday 09:00-20:00, Sunday 10:00-18:00",,,
Fred Meyer Jewelers,70200220,3300 Portland Rd,,Newberg,OR,97132,United States,5035371365,45.305798,-122.944237,"Monday 09:00-20:00, Tuesday 09:00-20:00, Wednesday 09:00-20:00, Thursday 09:00-20:00, Friday 09:00-20:00, Saturday 09:00-20:00, Sunday 10:00-18:00",,,
Fred Meyer Jewelers,70200614,401 Nw 12Th Ave,,Battle Ground,WA,98604,United States,3606665115,45.784134,-122.548905,"Monday 09:00-20:00, Tuesday 09:00-20:00, Wednesday 09:00-20:00, Thursday 09:00-20:00, Friday 09:00-20:00, Saturday 09:00-20:00, Sunday 10:00-18:00",,,
Fred Meyer Jewelers,70200225,2855 Broadway St Ne,,Salem,OR,97303,United States,5033912415,44.968305,-123.030164,"Monday 09:00-20:00, Tuesday 09:00-20:00, Wednesday 09:00-20:00, Thursday 09:00-20:00, Friday 09:00-20:00, Saturday 09:00-20:00, Sunday 10:00-18:00",,,
Fred Meyer Jewelers,70200090,3740 Market St Ne,,Salem,OR,97301,United States,5035816324,44.948358,-122.98633,"Monday 09:00-20:00, Tuesday 09:00-20:00, Wednesday 09:00-20:00, Thursday 09:00-20:00, Friday 09:00-20:00, Saturday 09:00-20:00, Sunday 10:00-18:00",,,
Fred Meyer Jewelers,70200355,3450 Commercial St Se,,Salem,OR,97302,United States,5033626336,44.905612,-123.041405,"Monday 09:00-20:00, Tuesday 09:00-20:00, Wednesday 09:00-20:00, Thursday 09:00-20:00, Friday 09:00-20:00, Saturday 09:00-20:00, Sunday 10:00-18:00",,,
Fred Meyer Jewelers,70200185,3184 Ocean Beach Hwy,,Longview,WA,98632,United States,3604257188,46.148727,-122.964531,"Monday 09:00-20:00, Tuesday 09:00-20:00, Wednesday 09:00-20:00, Thursday 09:00-20:00, Friday 09:00-20:00, Saturday 09:00-20:00, Sunday 10:00-18:00",,,
Fred Meyer Jewelers,70200377,2500 Main Ave N,,Tillamook,OR,97141,United States,5038151415,45.474789,-123.845543,"Monday 09:00-21:00, Tuesday 09:00-21:00, Wednesday 09:00-21:00, Thursday 09:00-21:00, Friday 09:00-21:00, Saturday 09:00-21:00, Sunday 10:00-18:00",,,
Fred Meyer Jewelers,70200005,2500 Santiam Hwy Se,,Albany,OR,97322,United States,5419676712,44.630954,-123.075426,"Monday 09:00-21:00, Tuesday 09:00-21:00, Wednesday 09:00-21:00, Thursday 09:00-21:00, Friday 09:00-21:00, Saturday 09:00-21:00, Sunday 10:00-18:00",,,
Fred Meyer Jewelers,70200070,777 Nw Kings Blvd,,Corvallis,OR,97330,United States,5417545565,44.575246,-123.274122,"Monday 09:00-20:00, Tuesday 09:00-20:00, Wednesday 09:00-20:00, Thursday 09:00-20:00, Friday 09:00-20:00, Saturday 09:00-20:00, Sunday 10:00-18:00",,,
Fred Meyer Jewelers,70200218,695 Hwy 101,,Warrenton,OR,97146,United States,5038613015,46.160463,-123.903154,"Monday 09:00-20:00, Tuesday 09:00-20:00, Wednesday 09:00-20:00, Thursday 09:00-20:00, Friday 09:00-20:00, Saturday 09:00-20:00, Sunday 10:00-18:00",,,
Fred Meyer Jewelers,70200227,150 Ne 20Th St,,Newport,OR,97365,United States,5412658460,44.650977,-124.051089,"Monday 09:00-20:00, Tuesday 09:00-20:00, Wednesday 09:00-20:00, Thursday 09:00-20:00, Friday 09:00-20:00, Saturday 09:00-20:00, Sunday 10:00-18:00",,,
Fred Meyer Jewelers,70200754,4500 N Oracle Rd Ste 164,,Tucson,AZ,85705,United States,5208872888,32.288939,-110.9780904,"Monday 10:00-21:00, Tuesday 10:00-21:00, Wednesday 10:00-21:00, Thursday 10:00-21:00, Friday 10:00-21:00, Saturday 10:00-21:00, Sunday 12:00-18:00",,,
Fred Meyer Jewelers,70200120,3901 Holland Rd.,,Virginia Beach,VA,23452,United States,7579950410,36.8134,-76.111347,"Monday 10:00-20:00, Tuesday 10:00-20:00, Wednesday 10:00-20:00, Thursday 10:00-20:00, Friday 10:00-20:00, Saturday 10:00-20:00, Sunday 12:00-18:00",,,
Fred Meyer Jewelers,70200138,1301 Frederick Blvd.,,Portsmouth,VA,23704,United States,7573375346,36.827722,-76.336469,"Monday 10:00-20:00, Tuesday 10:00-20:00, Wednesday 10:00-20:00, Thursday 10:00-20:00, Friday 10:00-20:00, Saturday 10:00-20:00, Sunday 12:00-18:00",,,
Fred Meyer Jewelers,70200136,1017 University Boulevard,,Suffolk,VA,23434,United States,7573354543,36.872153,-76.421049,"Monday 10:00-20:00, Tuesday 10:00-20:00, Wednesday 10:00-20:00, Thursday 10:00-20:00, Friday 10:00-20:00, Saturday 10:00-20:00, Sunday 12:00-18:00",,,
Fred Meyer Jewelers,70200704,1950 E 20Th St Ste 243,,Chico,CA,95928,United States,5303457161,39.729039,-121.80547,"Monday 10:00-21:00, Tuesday 10:00-21:00, Wednesday 10:00-21:00, Thursday 10:00-21:00, Friday 10:00-21:00, Saturday 10:00-21:00, Sunday 12:00-18:00",,,
Fred Meyer Jewelers,70200103,1355 S. Park St. US Hwy 27,,Carrollton,GA,30117,United States,7702141996,33.553153,-85.075007,"Monday 10:00-20:00, Tuesday 10:00-20:00, Wednesday 10:00-20:00, Thursday 10:00-20:00, Friday 10:00-20:00, Saturday 10:00-20:00, Sunday 12:00-18:00",,,
Fred Meyer Jewelers,70200130,1931 Jesse Jewell Pkwy SE,,Gainesville,GA,30501,United States,4702523200,34.315285,-83.798165,"Monday 10:00-20:00, Tuesday 10:00-20:00, Wednesday 10:00-20:00, Thursday 10:00-20:00, Friday 10:00-20:00, Saturday 10:00-20:00, Sunday 12:00-18:00",,,
Fred Meyer Jewelers,70200141,700 U.S. 29 Hwy N.,,Athens,GA,30601,United States,7067153750,33.996205,-83.333208,"Monday 10:00-20:00, Tuesday 10:00-20:00, Wednesday 10:00-20:00, Thursday 10:00-20:00, Friday 10:00-20:00, Saturday 10:00-20:00, Sunday 12:00-18:00",,,
Fred Meyer Jewelers,70200170,774 Highway 96,,Bonaire,GA,31005,United States,4789885713,32.552578,-83.659733,"Monday 10:00-20:00, Tuesday 10:00-20:00, Wednesday 10:00-20:00, Thursday 10:00-20:00, Friday 10:00-20:00, Saturday 10:00-20:00, Sunday 12:00-18:00",,,
Fred Meyer Jewelers,70200020,10222 W 21St,,Wichita,KS,67205,United States,3167292250,37.723993,-97.461126,"Monday 10:00-21:00, Tuesday 10:00-21:00, Wednesday 10:00-21:00, Thursday 10:00-21:00, Friday 10:00-21:00, Saturday 10:00-21:00, Sunday 12:00-18:00",,,
Fred Meyer Jewelers,70200012,1624 N Rock Rd,,Derby,KS,67037,United States,3165542129,37.563629,-97.241238,"Monday 10:00-20:00, Tuesday 10:00-20:00, Wednesday 10:00-20:00, Thursday 10:00-20:00, Friday 10:00-20:00, Saturday 10:00-20:00, Sunday 12:00-18:00",,,
Fred Meyer Jewelers,70200014,225 E Cloud Ave,,Andover,KS,67002,United States,3167333730,37.676949,-97.133058,"Monday 10:00-20:00, Tuesday 10:00-20:00, Wednesday 10:00-20:00, Thursday 10:00-20:00, Friday 10:00-20:00, Saturday 10:00-20:00, Sunday 12:00-18:00",,,
Fred Meyer Jewelers,70200112,3200 Plaza East Drive,,Hutchinson,KS,67502,United States,6208601686,38.089424,-97.895916,"Monday 10:00-20:00, Tuesday 10:00-20:00, Wednesday 10:00-20:00, Thursday 10:00-20:00, Friday 10:00-20:00, Saturday 10:00-20:00, Sunday 12:00-18:00",,,
Fred Meyer Jewelers,70200107,320 W 5Th Ave Ste 332,,Anchorage,AK,99501,United States,9072773014,61.217072,-149.888519,"Monday 10:00-21:00, Tuesday 10:00-21:00, Wednesday 10:00-21:00, Thursday 10:00-21:00, Friday 10:00-21:00, Saturday 10:00-20:00, Sunday 11:00-18:00",,,
Fred Meyer Jewelers,70200011,1000 E Northern Lights Blvd,,Anchorage,AK,99508,United States,9072649615,61.194562,-149.863866,"Monday 09:00-20:00, Tuesday 09:00-20:00, Wednesday 09:00-20:00, Thursday 09:00-20:00, Friday 09:00-20:00, Saturday 09:00-20:00, Sunday 10:00-18:00",,,
Fred Meyer Jewelers,70200018,7701 Debarr Rd,,Anchorage,AK,99504,United States,9072691715,61.211479,-149.73683,"Monday 09:00-20:00, Tuesday 09:00-20:00, Wednesday 09:00-20:00, Thursday 09:00-20:00, Friday 09:00-20:00, Saturday 09:00-20:00, Sunday 10:00-18:00",,,
Fred Meyer Jewelers,70200656,2300 Abbott Rd,,Anchorage,AK,99507,United States,9073652015,61.135921,-149.838629,"Monday 09:00-20:00, Tuesday 09:00-20:00, Wednesday 09:00-20:00, Thursday 09:00-20:00, Friday 09:00-20:00, Saturday 09:00-20:00, Sunday 10:00-18:00",,,
Fred Meyer Jewelers,70200071,2000 W Dimond Blvd,,Anchorage,AK,99515,United States,9072676715,61.136047,-149.919357,"Monday 09:00-20:00, Tuesday 09:00-20:00, Wednesday 09:00-20:00, Thursday 09:00-20:00, Friday 09:00-20:00, Saturday 09:00-20:00, Sunday 10:00-18:00",,,
Fred Meyer Jewelers,70200668,13401 Old Glenn Hwy,,Eagle River,AK,99577,United States,9076894015,61.341456,-149.55558,"Monday 09:00-20:00, Tuesday 09:00-20:00, Wednesday 09:00-20:00, Thursday 09:00-20:00, Friday 09:00-20:00, Saturday 09:00-20:00, Sunday 10:00-18:00",,,
Fred Meyer Jewelers,70200653,1501 E Parks Hwy,,Wasilla,AK,99654,United States,9073525015,61.579456,-149.409149,"Monday 09:00-20:00, Tuesday 09:00-20:00, Wednesday 09:00-20:00, Thursday 09:00-20:00, Friday 09:00-20:00, Saturday 09:00-20:00, Sunday 10:00-18:00",,,
Fred Meyer Jewelers,70200017,"43843 Sterling Hwy, Ste 400",,Soldotna,AK,99669,United States,9072602215,60.48946,-151.048952,"Monday 09:00-20:00, Tuesday 09:00-20:00, Wednesday 09:00-20:00, Thursday 09:00-20:00, Friday 09:00-20:00, Saturday 09:00-20:00, Sunday 10:00-18:00",,,
Fred Meyer Jewelers,70200085,601 E Dupont Rd,,Fort Wayne,IN,46825,United States,2608180400,41.179658,-85.133206,"Monday 10:00-20:00, Tuesday 10:00-20:00, Wednesday 10:00-20:00, Thursday 10:00-20:00, Friday 10:00-20:00, Saturday 10:00-20:00, Sunday 12:00-18:00",,,
Fred Meyer Jewelers,70200786,5775 Beckley Rd Sp 243,,Battle Creek,MI,49015,United States,2699794300,42.261187,-85.182415,"Monday 10:00-21:00, Tuesday 10:00-21:00, Wednesday 10:00-21:00, Thursday 10:00-21:00, Friday 10:00-21:00, Saturday 10:00-21:00, Sunday 12:00-18:00",,,
Fred Meyer Jewelers,70200662,5230 W Franklin Rd,,Boise,ID,83705,United States,2084296415,43.603877,-116.246134,"Monday 09:00-20:00, Tuesday 09:00-20:00, Wednesday 09:00-20:00, Thursday 09:00-20:00, Friday 09:00-20:00, Saturday 09:00-20:00, Sunday 10:00-18:00",,,
Fred Meyer Jewelers,70200613,3527 S Federal Way,,Boise,ID,83705,United States,2084247515,43.56801,-116.187391,"Monday 09:00-20:00, Tuesday 09:00-20:00, Wednesday 09:00-20:00, Thursday 09:00-20:00, Friday 09:00-20:00, Saturday 09:00-20:00, Sunday 10:00-18:00",,,
Fred Meyer Jewelers,70200027,350 N Milwaukee Ste 2156,,Boise,ID,83704,United States,2083224606,43.608346,-116.278072,"Monday 10:00-21:00, Tuesday 10:00-21:00, Wednesday 10:00-21:00, Thursday 10:00-21:00, Friday 10:00-21:00, Saturday 10:00-21:00, Sunday 11:00-19:00",,,
Fred Meyer Jewelers,70200449,5425 W Chinden Blvd,,Garden City,ID,83714,United States,2083237084,43.645981,-116.276459,"Monday 09:00-20:00, Tuesday 09:00-20:00, Wednesday 09:00-20:00, Thursday 09:00-20:00, Friday 09:00-20:00, Saturday 09:00-20:00, Sunday 10:00-18:00",,,
Fred Meyer Jewelers,70200439,10751 W Overland Rd,,Boise,ID,83709,United States,2083735215,43.589386,-116.316353,"Monday 09:00-20:00, Tuesday 09:00-20:00, Wednesday 09:00-20:00, Thursday 09:00-20:00, Friday 09:00-20:00, Saturday 09:00-20:00, Sunday 10:00-18:00",,,
Fred Meyer Jewelers,70200198,1850 E Fairview Ave,,Meridian,ID,83642,United States,2088875255,43.62075,-116.372299,"Monday 09:00-20:00, Tuesday 09:00-20:00, Wednesday 09:00-20:00, Thursday 09:00-20:00, Friday 09:00-20:00, Saturday 09:00-20:00, Sunday 10:00-18:00",,,
Fred Meyer Jewelers,70200685,1400 W Chinden Blvd,,Meridian,ID,83646,United States,2088936015,43.665866,-116.41114,"Monday 09:00-20:00, Tuesday 09:00-20:00, Wednesday 09:00-20:00, Thursday 09:00-20:00, Friday 09:00-20:00, Saturday 09:00-20:00, Sunday 10:00-18:00",,,
Fred Meyer Jewelers,70200226,50 2Nd St S,,Nampa,ID,83651,United States,2084652883,43.588291,-116.57473,"Monday 09:00-20:00, Tuesday 09:00-20:00, Wednesday 09:00-20:00, Thursday 09:00-20:00, Friday 09:00-20:00, Saturday 09:00-20:00, Sunday 10:00-18:00",,,
Fred Meyer Jewelers,70200657,400 S Thor St,,Spokane,WA,99202,United States,5095324015,47.652558,-117.362292,"Monday 09:00-20:00, Tuesday 09:00-20:00, Wednesday 09:00-20:00, Thursday 09:00-20:00, Friday 09:00-20:00, Saturday 09:00-20:00, Sunday 10:00-18:00",,,
Fred Meyer Jewelers,70200347,4750 N Division St,,Spokane,WA,99207,United States,5094831424,47.702808,-117.409042,"Monday 10:00-21:00, Tuesday 10:00-21:00, Wednesday 10:00-21:00, Thursday 10:00-21:00, Friday 10:00-21:00, Saturday 10:00-21:00, Sunday 11:00-18:00",,,
Fred Meyer Jewelers,70200214,12120 N Division St,,Spokane,WA,99218,United States,5094654415,47.767426,-117.402817,"Monday 09:00-20:00, Tuesday 09:00-20:00, Wednesday 09:00-20:00, Thursday 09:00-20:00, Friday 09:00-20:00, Saturday 09:00-20:00, Sunday 10:00-18:00",,,
Fred Meyer Jewelers,70200361,14700 E Indiana Ave #2038,,Spokane Valley,WA,99216,United States,5098930192,47.673499,-117.206822,"Monday 10:00-21:00, Tuesday 10:00-21:00, Wednesday 10:00-21:00, Thursday 10:00-21:00, Friday 10:00-21:00, Saturday 10:00-21:00, Sunday 11:00-18:00",,,
Fred Meyer Jewelers,70200351,15609 E Sprague Ave,,Spokane Valley,WA,99037,United States,5099215365,47.658707,-117.193405,"Monday 09:00-20:00, Tuesday 09:00-20:00, Wednesday 09:00-20:00, Thursday 09:00-20:00, Friday 09:00-20:00, Saturday 09:00-20:00, Sunday 10:00-18:00",,,
Fred Meyer Jewelers,70200049,560 W Kathleen Ave,,Coeur D Alene,ID,83815,United States,2086654715,47.712412,-116.794723,"Monday 09:00-20:00, Tuesday 09:00-20:00, Wednesday 09:00-20:00, Thursday 09:00-20:00, Friday 09:00-20:00, Saturday 09:00-20:00, Sunday 10:00-18:00",,,
Fred Meyer Jewelers,70200486,1206 N 40Th Ave,,Yakima,WA,98908,United States,5095766815,46.620133,-120.564424,"Monday 09:00-20:00, Tuesday 09:00-20:00, Wednesday 09:00-20:00, Thursday 09:00-20:00, Friday 09:00-20:00, Saturday 09:00-20:00, Sunday 10:00-18:00",,,
Fred Meyer Jewelers,70200101,14000 Cantrell Rd.,,Little Rock,AR,72223,United States,5012282120,34.804029,-92.428671,"Monday 10:00-20:00, Tuesday 10:00-20:00, Wednesday 10:00-20:00, Thursday 10:00-20:00, Friday 10:00-20:00, Saturday 10:00-20:00, Sunday 12:00-18:00",,,
Fred Meyer Jewelers,70200059,16105 Chenal Pkwy,,Little Rock,AR,72223,United States,5012177950,34.756234,-92.449156,"Monday 10:00-20:00, Tuesday 10:00-20:00, Wednesday 10:00-20:00, Thursday 10:00-20:00, Friday 10:00-20:00, Saturday 10:00-20:00, Sunday 12:00-18:00",,,
Fred Meyer Jewelers,70200091,855 Salem Rd,,Conway,AR,72034,United States,5015051407,35.089285,-92.472563,"Monday 10:00-20:00, Tuesday 10:00-20:00, Wednesday 10:00-20:00, Thursday 10:00-20:00, Friday 10:00-20:00, Saturday 10:00-20:00, Sunday 12:00-18:00",,,
Fred Meyer Jewelers,70200784,3195 28Th St Se Spc G-112,,Grand Rapids,MI,49512,United States,6169567995,42.912652,-85.588663,"Monday 10:00-21:00, Tuesday 10:00-21:00, Wednesday 10:00-21:00, Thursday 10:00-21:00, Friday 10:00-21:00, Saturday 10:00-21:00, Sunday 12:00-18:00",,,
Fred Meyer Jewelers,70200549,3700 Rivertown Pkwy Sw Spc 1200,,Grandville,MI,49418,United States,6162570339,42.879508,-85.756025,"Monday 10:00-21:00, Tuesday 10:00-21:00, Wednesday 10:00-21:00, Thursday 10:00-21:00, Friday 10:00-21:00, Saturday 10:00-21:00, Sunday 12:00-18:00",,,
Fred Meyer Jewelers,70200788,6800 Eastman Ave Ste 210,,Midland,MI,48642,United States,9896312240,43.6590517,-84.2471504,"Monday 10:00-21:00, Tuesday 10:00-21:00, Wednesday 10:00-21:00, Thursday 10:00-21:00, Friday 10:00-21:00, Saturday 10:00-21:00, Sunday 12:00-18:00",,,
Fred Meyer Jewelers,70200094,455 S 500 E,,Salt Lake City,UT,84102,United States,8013286015,40.759337,-111.875242,"Monday 09:00-20:00, Tuesday 09:00-20:00, Wednesday 09:00-20:00, Thursday 09:00-20:00, Friday 09:00-20:00, Saturday 09:00-20:00, Sunday 12:00-18:00",,,
Fred Meyer Jewelers,70200475,3215 S Valley St,,Salt Lake City,UT,84109,United States,8014648415,40.701091,-111.799131,"Monday 09:00-20:00, Tuesday 09:00-20:00, Wednesday 09:00-20:00, Thursday 09:00-20:00, Friday 09:00-20:00, Saturday 09:00-20:00, Sunday 12:00-18:00",,,
Fred Meyer Jewelers,70200444,555 South 200 West,,Bountiful,UT,84010,United States,8013977815,40.881943,-111.884102,"Monday 09:00-21:00, Tuesday 09:00-21:00, Wednesday 09:00-21:00, Thursday 09:00-21:00, Friday 09:00-21:00, Saturday 09:00-21:00, Sunday 12:00-18:00",,,
Fred Meyer Jewelers,70200495,1820 W 9000 S,,West Jordan,UT,84088,United States,8015624975,40.589538,-111.941018,"Monday 09:00-21:00, Tuesday 09:00-21:00, Wednesday 09:00-21:00, Thursday 09:00-21:00, Friday 09:00-21:00, Saturday 09:00-21:00, Sunday 12:00-18:00",,,
Fred Meyer Jewelers,70200274,5710 West 7800 South,,West Jordan,UT,84081,United States,8015453477,40.611532,-112.027224,"Monday 09:00-20:00, Tuesday 09:00-20:00, Wednesday 09:00-20:00, Thursday 09:00-20:00, Friday 09:00-20:00, Saturday 09:00-20:00, Sunday 12:00-18:00",,,
Fred Meyer Jewelers,70200212,10450 S State St Ste 1320,,Sandy,UT,84070,United States,8015532638,40.562405,-111.894484,"Monday 10:00-21:00, Tuesday 10:00-21:00, Wednesday 10:00-21:00, Thursday 10:00-21:00, Friday 10:00-21:00, Saturday 10:00-21:00, Sunday 12:00-18:00",,,
Fred Meyer Jewelers,70200276,5448 West Daybreak Parkway,,South Jordan,UT,84009,United States,8015017166,40.539207,-112.0168026,"Monday 09:00-20:00, Tuesday 09:00-20:00, Wednesday 09:00-20:00, Thursday 09:00-20:00, Friday 09:00-20:00, Saturday 09:00-20:00, Sunday 12:00-18:00",,,
Fred Meyer Jewelers,70200277,1370 West 200 North St,,Kaysville,UT,84037,United States,3858885308,41.040314,-111.966716,"Monday 09:00-20:00, Tuesday 09:00-20:00, Wednesday 09:00-20:00, Thursday 09:00-20:00, Friday 09:00-20:00, Saturday 09:00-20:00, Sunday 12:00-18:00",,,
Fred Meyer Jewelers,70200119,1550 E 3500 N,,Lehi,UT,84043,United States,8013416530,40.429801,-111.824902,"Monday 09:00-20:00, Tuesday 09:00-20:00, Wednesday 09:00-20:00, Thursday 09:00-20:00, Friday 09:00-20:00, Saturday 09:00-20:00, Sunday 12:00-18:00",,,
Fred Meyer Jewelers,70200272,217 N. 2000 W,,West Point,UT,84015,United States,3853833008,41.1169244,-112.0645206,"Monday 09:00-20:00, Tuesday 09:00-20:00, Wednesday 09:00-20:00, Thursday 09:00-20:00, Friday 09:00-20:00, Saturday 09:00-20:00, Sunday 12:00-18:00",,,
Fred Meyer Jewelers,70200221,3651 Wall Ave Ste 1100,,Ogden,UT,84405,United States,8016278249,41.195384,-111.981932,"Monday 10:00-21:00, Tuesday 10:00-21:00, Wednesday 10:00-21:00, Thursday 10:00-21:00, Friday 10:00-21:00, Saturday 10:00-21:00, Sunday 12:00-18:00",,,
Fred Meyer Jewelers,70200412,575 E University Pkwy Ste E90,,Orem,UT,84097,United States,8012269073,40.275156,-111.680196,"Monday 10:00-21:00, Tuesday 10:00-21:00, Wednesday 10:00-21:00, Thursday 10:00-21:00, Friday 10:00-21:00, Saturday 10:00-21:00, Sunday 00:00-00:00",,,
Fred Meyer Jewelers,70200279,2434 N. 400 E.,,North Ogden,UT,84414,United States,8019173955,41.302907,-111.966358,"Monday 09:00-20:00, Tuesday 09:00-20:00, Wednesday 09:00-20:00, Thursday 09:00-20:00, Friday 09:00-20:00, Saturday 09:00-20:00, Sunday 12:00-18:00",,,
Fred Meyer Jewelers,70200803,1200 Towne Centre Blvd,,Provo,UT,84601,United States,8018523110,40.217517,-111.662819,"Monday 10:00-21:00, Tuesday 10:00-21:00, Wednesday 10:00-21:00, Thursday 10:00-21:00, Friday 10:00-21:00, Saturday 10:00-21:00, Sunday 12:00-18:00",,,
Fred Meyer Jewelers,70200477,750 N Main St,,Logan,UT,84321,United States,4357524130,41.745541,-111.833183,"Monday 09:00-20:00, Tuesday 09:00-20:00, Wednesday 09:00-20:00, Thursday 09:00-20:00, Friday 09:00-20:00, Saturday 09:00-20:00, Sunday 00:00-00:00",,,
Fred Meyer Jewelers,70200087,9225 Kingston Pike,,Knoxville,TN,37922,United States,8659857980,35.913623,-84.089266,"Monday 10:00-20:00, Tuesday 10:00-20:00, Wednesday 10:00-20:00, Thursday 10:00-20:00, Friday 10:00-20:00, Saturday 10:00-20:00, Sunday 12:00-18:00",,,
Fred Meyer Jewelers,70200004,189 Brooklawn St,,Farragut,TN,37934,United States,8656717927,35.880187,-84.157119,"Monday 10:00-20:00, Tuesday 10:00-20:00, Wednesday 10:00-20:00, Thursday 10:00-20:00, Friday 10:00-20:00, Saturday 10:00-20:00, Sunday 12:00-18:00",,,
Fred Meyer Jewelers,70200139,1550 Oak Ridge Turnpike,,Oak Ridge,TN,37830,United States,8652940240,36.012,-84.268277,"Monday 10:00-20:00, Tuesday 10:00-20:00, Wednesday 10:00-20:00, Thursday 10:00-20:00, Friday 10:00-20:00, Saturday 10:00-20:00, Sunday 12:00-18:00",,,
Fred Meyer Jewelers,70200941,2101 Fort Henry Dr,,Kingsport,TN,37664,United States,4232458186,36.529235,-82.520852,"Monday 10:00-21:00, Tuesday 10:00-21:00, Wednesday 10:00-21:00, Thursday 10:00-21:00, Friday 10:00-21:00, Saturday 10:00-21:00, Sunday 13:00-18:00",,,
Fred Meyer Jewelers,70200325,70 Division Ave,,Eugene,OR,97404,United States,5414611415,44.097986,-123.126366,"Monday 09:00-20:00, Tuesday 09:00-20:00, Wednesday 09:00-20:00, Thursday 09:00-20:00, Friday 09:00-20:00, Saturday 09:00-20:00, Sunday 10:00-18:00",,,
Fred Meyer Jewelers,70200099,226 Valley River Ctr,,Eugene,OR,97401,United States,5413430180,44.068251,-123.106232,"Monday 10:00-21:00, Tuesday 10:00-21:00, Wednesday 10:00-21:00, Thursday 10:00-21:00, Friday 10:00-21:00, Saturday 10:00-21:00, Sunday 11:00-18:00",,,
Fred Meyer Jewelers,70200328,650 Q St,,Springfield,OR,97477,United States,5417415165,44.063057,-123.017815,"Monday 09:00-20:00, Tuesday 09:00-20:00, Wednesday 09:00-20:00, Thursday 09:00-20:00, Friday 09:00-20:00, Saturday 09:00-20:00, Sunday 10:00-18:00",,,
Fred Meyer Jewelers,70200417,3333 W 11Th Ave,,Eugene,OR,97402,United States,5414844215,44.049587,-123.142616,"Monday 09:00-20:00, Tuesday 09:00-20:00, Wednesday 09:00-20:00, Thursday 09:00-20:00, Friday 09:00-20:00, Saturday 09:00-20:00, Sunday 10:00-18:00",,,
Fred Meyer Jewelers,70200464,4701 Highway 101,,Florence,OR,97439,United States,5419027315,44.007801,-124.103035,"Monday 09:00-20:00, Tuesday 09:00-20:00, Wednesday 09:00-20:00, Thursday 09:00-20:00, Friday 09:00-20:00, Saturday 09:00-20:00, Sunday 10:00-18:00",,,
Fred Meyer Jewelers,70200281,929 Nw Garden Valley Blvd,,Roseburg,OR,97471,United States,5419573041,43.228081,-123.368202,"Monday 09:00-20:00, Tuesday 09:00-20:00, Wednesday 09:00-20:00, Thursday 09:00-20:00, Friday 09:00-20:00, Saturday 09:00-20:00, Sunday 10:00-18:00",,,
Fred Meyer Jewelers,70200050,1020 1St St,,Coos Bay,OR,97420,United States,5412694015,43.356994,-124.210709,"Monday 09:00-20:00, Tuesday 09:00-20:00, Wednesday 09:00-20:00, Thursday 09:00-20:00, Friday 09:00-20:00, Saturday 09:00-20:00, Sunday 10:00-18:00",,,
Fred Meyer Jewelers,70200021,61535 S Highway 97,,Bend,OR,97702,United States,5413856640,44.034764,-121.309502,"Monday 09:00-20:00, Tuesday 09:00-20:00, Wednesday 09:00-20:00, Thursday 09:00-20:00, Friday 09:00-20:00, Saturday 09:00-20:00, Sunday 10:00-18:00",,,
Fred Meyer Jewelers,70200650,944 Sw Veterans Way,,Redmond,OR,97756,United States,5415045115,44.26737,-121.176745,"Monday 09:00-20:00, Tuesday 09:00-20:00, Wednesday 09:00-20:00, Thursday 09:00-20:00, Friday 09:00-20:00, Saturday 09:00-20:00, Sunday 10:00-18:00",,,
Fred Meyer Jewelers,70200759,4500 16Th St Ste 226,,Moline,IL,61265,United States,3097624200,41.4686525,-90.5069515,"Monday 10:00-21:00, Tuesday 10:00-21:00, Wednesday 10:00-21:00, Thursday 10:00-21:00, Friday 10:00-21:00, Saturday 10:00-21:00, Sunday 12:00-18:00",,,
Fred Meyer Jewelers,70200102,318 Mall Blvd.  Ste. 100,,Savannah,GA,31406,United States,9122009163,32.005219,-81.112479,"Monday 10:00-20:00, Tuesday 10:00-20:00, Wednesday 10:00-20:00, Thursday 10:00-20:00, Friday 10:00-20:00, Saturday 10:00-20:00, Sunday 12:00-18:00",,,
Fred Meyer Jewelers,70200496,3800 State Rd 16 Ste 151,,La Crosse,WI,54601,United States,6087799712,43.868839,-91.195695,"Monday 10:00-21:00, Tuesday 10:00-21:00, Wednesday 10:00-21:00, Thursday 10:00-21:00, Friday 10:00-21:00, Saturday 10:00-21:00, Sunday 12:00-18:00",,,
Fred Meyer Jewelers,70200286,101 Wellsian Way,,Richland,WA,99352,United States,5099462815,46.262653,-119.286255,"Monday 09:00-20:00, Tuesday 09:00-20:00, Wednesday 09:00-20:00, Thursday 09:00-20:00, Friday 09:00-20:00, Saturday 09:00-20:00, Sunday 10:00-18:00",,,
Fred Meyer Jewelers,70200163,2811 W 10Th Ave,,Kennewick,WA,99336,United States,5097358715,46.197176,-119.161566,"Monday 09:00-20:00, Tuesday 09:00-20:00, Wednesday 09:00-20:00, Thursday 09:00-20:00, Friday 09:00-20:00, Saturday 09:00-20:00, Sunday 10:00-18:00",,,
Fred Meyer Jewelers,70200033,3300 Broadway Ste 234,,Eureka,CA,95501,United States,7074424541,40.779166,-124.190878,"Monday 10:00-20:00, Tuesday 10:00-20:00, Wednesday 10:00-20:00, Thursday 10:00-20:00, Friday 10:00-20:00, Saturday 10:00-20:00, Sunday 11:00-18:00",,,
Fred Meyer Jewelers,70200196,1301 Center Dr,,Medford,OR,97501,United States,5418574665,42.314217,-122.855888,"Monday 09:00-20:00, Tuesday 09:00-20:00, Wednesday 09:00-20:00, Thursday 09:00-20:00, Friday 09:00-20:00, Saturday 09:00-20:00, Sunday 10:00-18:00",,,
Fred Meyer Jewelers,70200207,1600 N Riverside Ave Unit 2124,,Medford,OR,97501,United States,5417738613,42.343376,-122.876793,"Monday 10:00-21:00, Tuesday 10:00-21:00, Wednesday 10:00-21:00, Thursday 10:00-21:00, Friday 10:00-21:00, Saturday 10:00-21:00, Sunday 11:00-19:00",,,
Fred Meyer Jewelers,70200195,2424 Crater Lake Hwy,,Medford,OR,97504,United States,5417342115,42.351871,-122.870998,"Monday 09:00-20:00, Tuesday 09:00-20:00, Wednesday 09:00-20:00, Thursday 09:00-20:00, Friday 09:00-20:00, Saturday 09:00-20:00, Sunday 10:00-18:00",,,
Fred Meyer Jewelers,70200126,1101 Grants Pass Pkwy,,Grants Pass,OR,97526,United States,5414747216,42.435497,-123.305847,"Monday 09:00-20:00, Tuesday 09:00-20:00, Wednesday 09:00-20:00, Thursday 09:00-20:00, Friday 09:00-20:00, Saturday 09:00-20:00, Sunday 10:00-18:00",,,
Fred Meyer Jewelers,70200165,2655 Shasta Way,,Klamath Falls,OR,97603,United States,5418841977,42.215508,-121.755859,"Monday 09:00-20:00, Tuesday 09:00-20:00, Wednesday 09:00-20:00, Thursday 09:00-20:00, Friday 09:00-20:00, Saturday 09:00-20:00, Sunday 10:00-18:00",,,
Fred Meyer Jewelers,70200030,325 5Th St,,Brookings,OR,97415,United States,5414691625,42.053766,-124.290473,"Monday 09:00-20:00, Tuesday 09:00-20:00, Wednesday 09:00-20:00, Thursday 09:00-20:00, Friday 09:00-20:00, Saturday 09:00-20:00, Sunday 10:00-18:00",,,
Fred Meyer Jewelers,70200156,1555 Northgate Mile,,Idaho Falls,ID,83401,United States,2085352535,43.510669,-112.020029,"Monday 09:00-20:00, Tuesday 09:00-20:00, Wednesday 09:00-20:00, Thursday 09:00-20:00, Friday 09:00-20:00, Saturday 09:00-20:00, Sunday 10:00-18:00",,,
Fred Meyer Jewelers,70200260,800 Yellowstone Ave,,Pocatello,ID,83201,United States,2082394015,42.889721,-112.449455,"Monday 09:00-20:00, Tuesday 09:00-20:00, Wednesday 09:00-20:00, Thursday 09:00-20:00, Friday 09:00-20:00, Saturday 09:00-20:00, Sunday 10:00-18:00",,,
Fred Meyer Jewelers,70200383,705 Blue Lakes Blvd N,,Twin Falls,ID,83301,United States,2087365355,42.575377,-114.462749,"Monday 09:00-20:00, Tuesday 09:00-20:00, Wednesday 09:00-20:00, Thursday 09:00-20:00, Friday 09:00-20:00, Saturday 09:00-20:00, Sunday 10:00-18:00",,,
