store_name,store_number,address,address2,city,state,zip_code,country,phone_number,latitude,longitude,store_hours,store_type,other_fields,coming_soon
Maxi La Sarre,8944,"255,  3 ieme Rue Est",,Lasarre,QC,J9Z 3N7,CA,819-333-2337,48.806337,-79.197042,"Wednesday 8:00 AM - 9:00 PM, Thursday 8:00 AM - 9:00 PM, Friday 8:00 AM - 9:00 PM, Saturday Closed, Sunday 8:00 AM - 9:00 PM, Monday 8:00 AM - 9:00 PM, Tuesday 8:00 AM - 9:00 PM",,,
Maxi Lac Mégantic,8630,"3500,  rue Laval",,Lac Mégantic,QC,G6B 1A4,CA,819-583-4001,45.59004,-70.90393,"Wednesday 8:00 AM - 10:00 PM, Thursday 8:00 AM - 10:00 PM, Friday 8:00 AM - 10:00 PM, Saturday Closed, Sunday 8:00 AM - 10:00 PM, Monday 8:00 AM - 10:00 PM, Tuesday 8:00 AM - 10:00 PM",,,
Maxi Lachute,8635,"355, rue Principale",,Lachute,QC,J8H 2Z7,CA,450-566-0761,45.65571,-74.34393,"Wednesday 8:00 AM - 10:00 PM, Thursday 8:00 AM - 10:00 PM, Friday 8:00 AM - 10:00 PM, Saturday Closed, Sunday 8:00 AM - 10:00 PM, Monday 8:00 AM - 10:00 PM, Tuesday 8:00 AM - 10:00 PM",,,
Maxi LaTuque,8946,"1200,  boul. Ducharme",,LaTuque,QC,G9X 3Z9,CA,819-523-8125,47.4192,-72.7841,"Wednesday 8:00 AM - 10:00 PM, Thursday 8:00 AM - 10:00 PM, Friday 8:00 AM - 10:00 PM, Saturday Closed, Sunday 8:00 AM - 10:00 PM, Monday 8:00 AM - 10:00 PM, Tuesday 8:00 AM - 10:00 PM",,,
Maxi La Prairie,8636,"50,  Boul. Taschereau",,La Prairie,QC,J5R 4V3,CA,450-659-2226,45.422,-73.4868,"Wednesday 8:00 AM - 10:00 PM, Thursday 8:00 AM - 10:00 PM, Friday 8:00 AM - 10:00 PM, Saturday Closed, Sunday 8:00 AM - 10:00 PM, Monday 8:00 AM - 10:00 PM, Tuesday 8:00 AM - 10:00 PM",,,
Maxi Alma Pont-Nord,8989,"845,  Avenue Du Pont-Nord",,Alma,QC,G8B 6W6,CA,418-668-5215,48.5653,-71.64,"Wednesday 8:00 AM - 10:00 PM, Thursday 8:00 AM - 10:00 PM, Friday 8:00 AM - 10:00 PM, Saturday Closed, Sunday 8:00 AM - 10:00 PM, Monday 8:00 AM - 10:00 PM, Tuesday 8:00 AM - 10:00 PM",,,
Maxi Alma Pont-Sud,8652,"1055,  Avenue du Pont-Sud",,Alma,QC,G8B 2V7,CA,418-668-2205,48.5333,-71.64686,"Wednesday 8:00 AM - 10:00 PM, Thursday 8:00 AM - 10:00 PM, Friday 8:00 AM - 10:00 PM, Saturday Closed, Sunday 8:00 AM - 10:00 PM, Monday 8:00 AM - 10:00 PM, Tuesday 8:00 AM - 10:00 PM",,,
Maxi Lachenaie,8622,"390, Montee des Pionniers",,Lachenaie,QC,J6V 1S6,CA,450-657-7710,45.7126,-73.5104,"Wednesday 8:00 AM - 10:00 PM, Thursday 8:00 AM - 10:00 PM, Friday 8:00 AM - 10:00 PM, Saturday Closed, Sunday 8:00 AM - 10:00 PM, Monday 8:00 AM - 10:00 PM, Tuesday 8:00 AM - 10:00 PM",,,
Maxi&Cie Jonquière,8973,"3880, Boul. Harvey",,Jonquière,QC,G7X 8R6,CA,418-547-6670,48.414,-71.2514,"Wednesday 8:00 AM - 9:00 PM, Thursday 8:00 AM - 9:00 PM, Friday 8:00 AM - 9:00 PM, Saturday Closed, Sunday 8:00 AM - 9:00 PM, Monday 8:00 AM - 9:00 PM, Tuesday 8:00 AM - 9:00 PM",,,
Maxi La Baie,8619,"2100, rue Bagot",,La Baie,QC,G7B 3Z3,CA,418-544-2848,48.3366,-70.8968,"Wednesday 8:00 AM - 10:00 PM, Thursday 8:00 AM - 10:00 PM, Friday 8:00 AM - 10:00 PM, Saturday Closed, Sunday 8:00 AM - 10:00 PM, Monday 8:00 AM - 10:00 PM, Tuesday 8:00 AM - 10:00 PM",,,
Maxi Greenfield Park,8911,"3398,  boul Taschereau",,Greenfield Park,QC,J4V 2H7,CA,450-671-8183,45.4913,-73.478,"Wednesday 8:00 AM - 10:00 PM, Thursday 8:00 AM - 10:00 PM, Friday 8:00 AM - 10:00 PM, Saturday 8:00 AM - 10:00 PM, Sunday 8:00 AM - 10:00 PM, Monday 8:00 AM - 10:00 PM, Tuesday 8:00 AM - 10:00 PM",,,
Maxi Hull St-Joseph,8702,"300, Boul St Joseph",,Hull,QC,J8Y 3Y3,CA,819-777-6551,45.439687,-75.731965,"Wednesday 8:00 AM - 10:00 PM, Thursday 8:00 AM - 10:00 PM, Friday 8:00 AM - 10:00 PM, Saturday Closed, Sunday 8:00 AM - 10:00 PM, Monday 8:00 AM - 10:00 PM, Tuesday 8:00 AM - 10:00 PM",,,
"Maxi Valleyfield, Dufferin",8983,"70,  rue Dufferin",,Valleyfield,QC,J6S 1Y2,CA,450-377-7670,45.261068,-74.128339,"Wednesday 8:00 AM - 10:00 PM, Thursday 8:00 AM - 10:00 PM, Friday 8:00 AM - 10:00 PM, Saturday Closed, Sunday 8:00 AM - 10:00 PM, Monday 8:00 AM - 10:00 PM, Tuesday 8:00 AM - 10:00 PM",,,
Maxi Verdun,8662,"3000, rue Wellington",,Verdun,QC,H4G 1T1,CA,514-761-2070,45.4711,-73.5631,"Wednesday 8:00 AM - 10:00 PM, Thursday 8:00 AM - 10:00 PM, Friday 8:00 AM - 10:00 PM, Saturday Closed, Sunday 8:00 AM - 10:00 PM, Monday 8:00 AM - 10:00 PM, Tuesday 8:00 AM - 10:00 PM",,,
Maxi Victoriaville,8663,"120,  boul. Arthabaska Ouest",,Victoriaville,QC,G6P 6S2,CA,819-752-7732,46.06647,-71.92879,"Wednesday 8:00 AM - 10:00 PM, Thursday 8:00 AM - 10:00 PM, Friday 8:00 AM - 10:00 PM, Saturday Closed, Sunday 8:00 AM - 10:00 PM, Monday 8:00 AM - 10:00 PM, Tuesday 8:00 AM - 10:00 PM",,,
Maxi Val Bélair,8694,"1065, boul. Pie XI",,Val Bélair,QC,G3K 2S5,CA,418-843-5342,46.8553,-71.4165,"Wednesday 8:00 AM - 10:00 PM, Thursday 8:00 AM - 10:00 PM, Friday 8:00 AM - 10:00 PM, Saturday Closed, Sunday 8:00 AM - 10:00 PM, Monday 8:00 AM - 10:00 PM, Tuesday 8:00 AM - 10:00 PM",,,
Maxi Joliette,8687,"909, Boul Firestone",,Joliette,QC,J6E 2W4,CA,450-755-2781,46.0331,-73.4308,"Wednesday 8:00 AM - 10:00 PM, Thursday 8:00 AM - 10:00 PM, Friday 8:00 AM - 10:00 PM, Saturday Closed, Sunday 8:00 AM - 10:00 PM, Monday 8:00 AM - 10:00 PM, Tuesday 8:00 AM - 10:00 PM",,,
Maxi Lachine,8917,"3150,  Remembrance",,Lachine,QC,H8S 1X8,CA,514-637-4606,45.439045,-73.691044,"Wednesday 8:00 AM - 10:00 PM, Thursday 8:00 AM - 10:00 PM, Friday 8:00 AM - 10:00 PM, Saturday Closed, Sunday 8:00 AM - 10:00 PM, Monday 8:00 AM - 10:00 PM, Tuesday 8:00 AM - 10:00 PM",,,
Maxi Angrignon,8994,"7081,  Newman",,Lasalle,QC,H8N 1X1,CA,514-364-1090,45.4488,-73.6163,"Wednesday 8:00 AM - 10:00 PM, Thursday 8:00 AM - 10:00 PM, Friday 8:00 AM - 10:00 PM, Saturday Closed, Sunday 8:00 AM - 10:00 PM, Monday 8:00 AM - 10:00 PM, Tuesday 8:00 AM - 10:00 PM",,,
Maxi Lasalle Dollard,8900,"2101, rue Dollard, B15",,Lasalle,QC,H8N 1S2,CA,514-363-1503,45.4318,-73.6333,"Wednesday 8:00 AM - 10:00 PM, Thursday 8:00 AM - 10:00 PM, Friday 8:00 AM - 10:00 PM, Saturday Closed, Sunday 8:00 AM - 10:00 PM, Monday 8:00 AM - 10:00 PM, Tuesday 8:00 AM - 10:00 PM",,,
Maxi Trois-Rivières Ouest,8996,"5875,  boul. Jean XXIII",,Trois-Rivières Ouest,QC,G8Z 4N8,CA,819-378-8759,46.3306,-72.5935,"Wednesday 8:00 AM - 10:00 PM, Thursday 8:00 AM - 10:00 PM, Friday 8:00 AM - 10:00 PM, Saturday Closed, Sunday 8:00 AM - 10:00 PM, Monday 8:00 AM - 10:00 PM, Tuesday 8:00 AM - 10:00 PM",,,
Maxi Laplaine,8648,"7201, rue Laurier",,Laplaine,QC,J7M 1V9,CA,450-968-2876,45.767638,-73.727946,"Wednesday 8:00 AM - 10:00 PM, Thursday 8:00 AM - 10:00 PM, Friday 8:00 AM - 10:00 PM, Saturday Closed, Sunday 8:00 AM - 10:00 PM, Monday 8:00 AM - 10:00 PM, Tuesday 8:00 AM - 10:00 PM",,,
Maxi Thetford Mines,8974,"805,  boul. Frontenac Est",,Thetford Mines,QC,G6G 6L5,CA,418-338-2136,46.113,-71.3003,"Wednesday 8:00 AM - 10:00 PM, Thursday 8:00 AM - 10:00 PM, Friday 8:00 AM - 10:00 PM, Saturday Closed, Sunday 8:00 AM - 10:00 PM, Monday 8:00 AM - 10:00 PM, Tuesday 8:00 AM - 10:00 PM",,,
Maxi Ste-Marie De Beauce,8926,"1030,  boul. Vachon Nord",,Ste Marie de Beauce,QC,G6E 1M5,CA,418-387-5779,46.4523,-71.0325,"Wednesday 8:00 AM - 10:00 PM, Thursday 8:00 AM - 10:00 PM, Friday 8:00 AM - 10:00 PM, Saturday 8:00 AM - 10:00 PM, Sunday 8:00 AM - 10:00 PM, Monday 8:00 AM - 10:00 PM, Tuesday 8:00 AM - 10:00 PM",,,
"Maxi Terrebonne, bl. Moody",8913,"1345,  boul. Moody",,Terrebonne,QC,J6W 3L1,CA,450-471-1009,45.7057,-73.6469,"Wednesday 8:00 AM - 10:00 PM, Thursday 8:00 AM - 10:00 PM, Friday 8:00 AM - 10:00 PM, Saturday Closed, Sunday 8:00 AM - 10:00 PM, Monday 8:00 AM - 10:00 PM, Tuesday 8:00 AM - 10:00 PM",,,
"Maxi Terrebonne, ch. Gascon",8942,"2260,  Chemin Gascon",,Terrebonne,QC,J6X 3A5,CA,450-492-8718,45.722297,-73.663675,"Wednesday 8:00 AM - 10:00 PM, Thursday 8:00 AM - 10:00 PM, Friday 8:00 AM - 10:00 PM, Saturday Closed, Sunday 8:00 AM - 10:00 PM, Monday 8:00 AM - 10:00 PM, Tuesday 8:00 AM - 10:00 PM",,,
Maxi & Cie - St-Romuald,8612,"940,  chemin Du Sault",,St-Romuald,QC,G6W 5M6,CA,418-839-5540,46.73,-71.2716,"Wednesday 8:00 AM - 10:00 PM, Thursday 8:00 AM - 10:00 PM, Friday 8:00 AM - 10:00 PM, Saturday Closed, Sunday 8:00 AM - 9:00 PM, Monday 8:00 AM - 10:00 PM, Tuesday 8:00 AM - 10:00 PM",,,
Maxi Ste Marthe sur le Lac,8618,"2840, boul. Des Promenades",,SteMarthe Sur Le Lac,QC,J0N 1P0,CA,450-472-3551,45.538445,-73.922723,"Wednesday 8:00 AM - 10:00 PM, Thursday 8:00 AM - 10:00 PM, Friday 8:00 AM - 10:00 PM, Saturday Closed, Sunday 8:00 AM - 10:00 PM, Monday 8:00 AM - 10:00 PM, Tuesday 8:00 AM - 10:00 PM",,,
Maxi&Cie St-Laurent,8906,"1757, Boul Marcel-Laurin",,St-Laurent,QC,H4R 1J5,CA,514-747-2203,45.5174,-73.6985,"Wednesday 8:00 AM - 10:00 PM, Thursday 8:00 AM - 10:00 PM, Friday 8:00 AM - 10:00 PM, Saturday Closed, Sunday 8:00 AM - 10:00 PM, Monday 8:00 AM - 10:00 PM, Tuesday 8:00 AM - 10:00 PM",,,
Maxi St-Hyacinthe,8975,"15 000,  rue St-Louis",,St-Hyacinthe,QC,J2T 3E2,CA,450-771-2737,45.629367,-72.937881,"Wednesday 8:00 AM - 10:00 PM, Thursday 8:00 AM - 10:00 PM, Friday 8:00 AM - 10:00 PM, Saturday Closed, Sunday 8:00 AM - 10:00 PM, Monday 8:00 AM - 10:00 PM, Tuesday 8:00 AM - 10:00 PM",,,
Maxi St-Georges de Beauce,8705,"8200,  boul.  Lacroix",,St-Georges de Beauce,QC,G5Y 2B5,CA,418-227-9228,46.1339,-70.7025,"Wednesday 8:00 AM - 10:00 PM, Thursday 8:00 AM - 10:00 PM, Friday 8:00 AM - 10:00 PM, Saturday Closed, Sunday 8:00 AM - 10:00 PM, Monday 8:00 AM - 10:00 PM, Tuesday 8:00 AM - 10:00 PM",,,
Maxi St-Jérôme,8626,"500, Boul. Des Laurentides",,St-Jérôme,QC,J7Z 4M2,CA,450-431-2886,45.761749,-73.993638,"Wednesday 8:00 AM - 10:00 PM, Thursday 8:00 AM - 10:00 PM, Friday 8:00 AM - 10:00 PM, Saturday Closed, Sunday 8:00 AM - 10:00 PM, Monday 8:00 AM - 10:00 PM, Tuesday 8:00 AM - 10:00 PM",,,
Maxi&Cie St-Jérôme,8924,"900, Boul Grignon",,St-Jérôme,QC,J7Y 3S7,CA,450-436-3824,45.7931,-74.0183,"Wednesday 8:00 AM - 9:00 PM, Thursday 8:00 AM - 9:00 PM, Friday 8:00 AM - 9:00 PM, Saturday Closed, Sunday 8:00 AM - 9:00 PM, Monday 8:00 AM - 9:00 PM, Tuesday 8:00 AM - 9:00 PM",,,
Maxi St-Jean,8971,"1000 Suite 6,  boul. Du Séminaire",,St-Jean,QC,J3A 1E5,CA,450-348-3813,45.33767,-73.269407,"Wednesday 8:00 AM - 10:00 PM, Thursday 8:00 AM - 10:00 PM, Friday 8:00 AM - 10:00 PM, Saturday Closed, Sunday 8:00 AM - 10:00 PM, Monday 8:00 AM - 10:00 PM, Tuesday 8:00 AM - 10:00 PM",,,
Maxi St-Eustache,8668,"199,  25 ième Avenue",,St-Eustache,QC,J7P 2V1,CA,450-491-5588,45.5754,-73.8728,"Wednesday 8:00 AM - 10:00 PM, Thursday 8:00 AM - 10:00 PM, Friday 8:00 AM - 10:00 PM, Saturday Closed, Sunday 8:00 AM - 10:00 PM, Monday 8:00 AM - 10:00 PM, Tuesday 8:00 AM - 10:00 PM",,,
Maxi St-Jean,8971,"1000 Suite 6,  boul. Du Séminaire",,St-Jean,QC,J3A 1E5,CA,450-348-3813,45.33767,-73.269407,"Wednesday 8:00 AM - 10:00 PM, Thursday 8:00 AM - 10:00 PM, Friday 8:00 AM - 10:00 PM, Saturday Closed, Sunday 8:00 AM - 10:00 PM, Monday 8:00 AM - 10:00 PM, Tuesday 8:00 AM - 10:00 PM",,,
Maxi&Cie St-Luc,8678,"200,  Omer-Marcil",,St-Jean-Richelieu,QC,J2W 2V1,CA,450-348-0998,45.3324,-73.2922,"Wednesday 8:00 AM - 9:00 PM, Thursday 8:00 AM - 9:00 PM, Friday 8:00 AM - 9:00 PM, Saturday Closed, Sunday 8:00 AM - 9:00 PM, Monday 8:00 AM - 9:00 PM, Tuesday 8:00 AM - 9:00 PM",,,
Maxi St-Basile-le-Grand,8947,"2501, boul. du Millénaire",,St-Basile-le-Grand,QC,J3N 1Z8,CA,450-441-5955,45.5279,-73.3039,"Wednesday 8:00 AM - 10:00 PM, Thursday 8:00 AM - 10:00 PM, Friday 8:00 AM - 10:00 PM, Saturday Closed, Sunday 8:00 AM - 10:00 PM, Monday 8:00 AM - 10:00 PM, Tuesday 8:00 AM - 10:00 PM",,,
Maxi Grand-Mère,8666,"2650,avenue de Grand-Mère",,Shawinigan,QC,G9T 2L4,CA,819-538-0262,46.60319,-72.711517,"Wednesday 8:00 AM - 10:00 PM, Thursday 8:00 AM - 10:00 PM, Friday 8:00 AM - 10:00 PM, Saturday Closed, Sunday 8:00 AM - 10:00 PM, Monday 8:00 AM - 10:00 PM, Tuesday 8:00 AM - 10:00 PM",,,
Maxi Shawinigan,8988,"1643,  boul. D'Youville",,Shawinigan,QC,G9N 6V4,CA,819-536-4412,46.5554,-72.7523,"Wednesday 8:00 AM - 10:00 PM, Thursday 8:00 AM - 10:00 PM, Friday 8:00 AM - 10:00 PM, Saturday Closed, Sunday 8:00 AM - 10:00 PM, Monday 8:00 AM - 10:00 PM, Tuesday 8:00 AM - 10:00 PM",,,
Maxi Sept-Iles,8654,"1005,  boul. Laure",,Sept-îles,QC,G4R 1Z1,CA,418-968-1213,50.22549,-66.393205,"Wednesday 8:00 AM - 10:00 PM, Thursday 8:00 AM - 10:00 PM, Friday 8:00 AM - 10:00 PM, Saturday Closed, Sunday 8:00 AM - 10:00 PM, Monday 8:00 AM - 10:00 PM, Tuesday 8:00 AM - 10:00 PM",,,
Maxi Roberval,8625,"150,  avenue Saint-Alphonse",,Roberval,QC,G8H 3P8,CA,418-275-4471,48.5178,-72.2248,"Wednesday 8:00 AM - 10:00 PM, Thursday 8:00 AM - 10:00 PM, Friday 8:00 AM - 10:00 PM, Saturday Closed, Sunday 8:00 AM - 10:00 PM, Monday 8:00 AM - 10:00 PM, Tuesday 8:00 AM - 10:00 PM",,,
Maxi Grandes-Fourches,8691,"150,  des Grandes Fourches",,Sherbrooke,QC,J1H 5G5,CA,819-566-9300,45.400029,-71.886677,"Wednesday 8:00 AM - 10:00 PM, Thursday 8:00 AM - 10:00 PM, Friday 8:00 AM - 10:00 PM, Saturday Closed, Sunday 8:00 AM - 10:00 PM, Monday 8:00 AM - 10:00 PM, Tuesday 8:00 AM - 10:00 PM",,,
Maxi&Cie Sherbrooke,8703,"3025, Portland",,Sherbrooke,QC,J1L 2Y7,CA,819-562-4041,45.4047,-71.9504,"Wednesday 8:00 AM - 9:00 PM, Thursday 8:00 AM - 9:00 PM, Friday 8:00 AM - 9:00 PM, Saturday Closed, Sunday 8:00 AM - 9:00 PM, Monday 8:00 AM - 9:00 PM, Tuesday 8:00 AM - 9:00 PM",,,
Maxi Sorel,8968,"450, boul. Poliquin",,Sorel-Tracy,QC,J3P 7R5,CA,450-746-3988,46.0236,-73.1025,"Wednesday 8:00 AM - 10:00 PM, Thursday 8:00 AM - 10:00 PM, Friday 8:00 AM - 10:00 PM, Saturday Closed, Sunday 8:00 AM - 10:00 PM, Monday 8:00 AM - 10:00 PM, Tuesday 8:00 AM - 10:00 PM",,,
Maxi&Cie St-Hubert,8934,"7900,  boul. Cousineau",,St-Hubert,QC,J3Z 1H2,CA,450-676-4144,45.482,-73.3862,"Wednesday 8:00 AM - 9:00 PM, Thursday 8:00 AM - 9:00 PM, Friday 8:00 AM - 9:00 PM, Saturday Closed, Sunday 8:00 AM - 9:00 PM, Monday 8:00 AM - 9:00 PM, Tuesday 8:00 AM - 9:00 PM",,,
Maxi Rimouski,8688,419.  boul. Jessop,,Rimouski,QC,G5L 7Y5,CA,418-723-0506,48.46784,-68.51267,"Wednesday 8:00 AM - 10:00 PM, Thursday 8:00 AM - 10:00 PM, Friday 8:00 AM - 10:00 PM, Saturday Closed, Sunday 8:00 AM - 10:00 PM, Monday 8:00 AM - 10:00 PM, Tuesday 8:00 AM - 10:00 PM",,,
Maxi Rivière-du-Loup,8690,"215,  boul. Hôtel De Ville",,Rivière-du-Loup,QC,G5R 4Y2,CA,418-863-4100,47.8274,-69.5488,"Wednesday 8:00 AM - 10:00 PM, Thursday 8:00 AM - 10:00 PM, Friday 8:00 AM - 10:00 PM, Saturday Closed, Sunday 8:00 AM - 10:00 PM, Monday 8:00 AM - 10:00 PM, Tuesday 8:00 AM - 10:00 PM",,,
Maxi&Cie Rosemère,8958,"339, Boul Labelle",,Rosemère,QC,J7A 2H7,CA,450-437-0471,45.6299,-73.8135,"Wednesday 8:00 AM - 9:00 PM, Thursday 8:00 AM - 9:00 PM, Friday 8:00 AM - 9:00 PM, Saturday Closed, Sunday 8:00 AM - 9:00 PM, Monday 8:00 AM - 9:00 PM, Tuesday 8:00 AM - 9:00 PM",,,
Maxi Plessisville,8645,"1877,  rue Bilodeau",,Plessiville,QC,G6L 3N7,CA,819-362-7370,46.216957,-71.766706,"Wednesday 8:00 AM - 10:00 PM, Thursday 8:00 AM - 10:00 PM, Friday 8:00 AM - 10:00 PM, Saturday Closed, Sunday 8:00 AM - 10:00 PM, Monday 8:00 AM - 10:00 PM, Tuesday 8:00 AM - 10:00 PM",,,
Maxi Rawdon,8967,"3399, rue Queen",,Rawdon,QC,J0K 1S0,CA,450-834-2644,46.03687,-73.69979,"Wednesday 8:00 AM - 10:00 PM, Thursday 8:00 AM - 10:00 PM, Friday 8:00 AM - 10:00 PM, Saturday 8:00 AM - 10:00 PM, Sunday 8:00 AM - 10:00 PM, Monday 8:00 AM - 10:00 PM, Tuesday 8:00 AM - 10:00 PM",,,
Maxi Richmond,8629,"44, rue Craig",,Richmond,QC,J0B 2H0,CA,819-826-2413,45.65766,-72.140927,"Wednesday 8:00 AM - 10:00 PM, Thursday 8:00 AM - 10:00 PM, Friday 8:00 AM - 10:00 PM, Saturday Closed, Sunday 8:00 AM - 10:00 PM, Monday 8:00 AM - 10:00 PM, Tuesday 8:00 AM - 10:00 PM",,,
Maxi Pointe-Aux-Trembles,8987,"12 780,  rue Sherbrooke Est",,Pointe-Aux-Trembles,QC,H1A 4Y3,CA,514-498-2675,45.654,-73.5101,"Wednesday 8:00 AM - 10:00 PM, Thursday 8:00 AM - 10:00 PM, Friday 8:00 AM - 10:00 PM, Saturday Closed, Sunday 8:00 AM - 10:00 PM, Monday 8:00 AM - 10:00 PM, Tuesday 8:00 AM - 10:00 PM",,,
Maxi&Cie Pincourt,8907,"92, Cardinal Leger",,Pincourt,QC,J7V 3Y4,CA,514-453-6622,45.3838,-73.9912,"Wednesday 8:00 AM - 9:00 PM, Thursday 8:00 AM - 9:00 PM, Friday 8:00 AM - 9:00 PM, Saturday Closed, Sunday 8:00 AM - 9:00 PM, Monday 8:00 AM - 9:00 PM, Tuesday 8:00 AM - 9:00 PM",,,
"Maxi Charlesbourg, Lebourgneuf",8649,"350, rue Bouvier",,Québec,QC,G2J 1R8,CA,418-623-5475,46.8417,-71.2713,"Wednesday 8:00 AM - 10:00 PM, Thursday 8:00 AM - 10:00 PM, Friday 8:00 AM - 10:00 PM, Saturday Closed, Sunday 8:00 AM - 10:00 PM, Monday 8:00 AM - 10:00 PM, Tuesday 8:00 AM - 10:00 PM",,,
Maxi Fleurs De Lys,8676,"552,  boul. Wilfrid-Hamel",,Québec,QC,G1M 3E5,CA,418-640-1700,46.8227,-71.254,"Wednesday 8:00 AM - 10:00 PM, Thursday 8:00 AM - 10:00 PM, Friday 8:00 AM - 10:00 PM, Saturday Closed, Sunday 8:00 AM - 10:00 PM, Monday 8:00 AM - 10:00 PM, Tuesday 8:00 AM - 10:00 PM",,,
Maxi Les Saules,8049,"5150,  boul.De L'Ormière",,Québec,QC,G1P 4B2,CA,418-872-3866,46.8198,-71.331,"Wednesday 8:00 AM - 10:00 PM, Thursday 8:00 AM - 10:00 PM, Friday 8:00 AM - 10:00 PM, Saturday Closed, Sunday 8:00 AM - 10:00 PM, Monday 8:00 AM - 10:00 PM, Tuesday 8:00 AM - 10:00 PM",,,
Maxi New Richmond,8641,"124,  route 132 ouest",,New Richmond,QC,G0C 2B0,CA,418-392-2600,48.17511,-65.84775,"Wednesday 8:00 AM - 9:00 PM, Thursday 8:00 AM - 9:00 PM, Friday 8:00 AM - 9:00 PM, Saturday Closed, Sunday 8:00 AM - 9:00 PM, Monday 8:00 AM - 9:00 PM, Tuesday 8:00 AM - 9:00 PM",,,
Maxi&Cie Pte-Claire,8995,"6381, Route Transcanadienne",,Pointe-Claire,QC,H9R 5A5,CA,514-694-7450,45.4671,-73.8269,"Wednesday 8:00 AM - 9:00 PM, Thursday 8:00 AM - 9:00 PM, Friday 8:00 AM - 9:00 PM, Saturday Closed, Sunday 8:00 AM - 9:00 PM, Monday 8:00 AM - 9:00 PM, Tuesday 8:00 AM - 9:00 PM",,,
Maxi Pierrefonds,8609,"14 875,  boul.  Pierrefonds",,Pierrefonds,QC,H9H 4Y1,CA,514-626-8687,45.484646,-73.860648,"Wednesday 8:00 AM - 10:00 PM, Thursday 8:00 AM - 10:00 PM, Friday 8:00 AM - 10:00 PM, Saturday Closed, Sunday 8:00 AM - 10:00 PM, Monday 8:00 AM - 10:00 PM, Tuesday 8:00 AM - 10:00 PM",,,
Maxi Montmagny,8904,"101,  Taché ouest",,Montmagny,QC,G5V 3T8,CA,418-248-0912,46.97968,-70.56937,"Wednesday 7:30 AM - 10:00 PM, Thursday 7:30 AM - 10:00 PM, Friday 7:30 AM - 10:00 PM, Saturday Closed, Sunday 7:30 AM - 10:00 PM, Monday 7:30 AM - 10:00 PM, Tuesday 7:30 AM - 10:00 PM",,,
Maxi Mont Tremblant,8969,390 route 117,,Mont Tremblant,QC,J8E 2X3,CA,819-425-3103,46.11727,-74.57119,"Wednesday 8:00 AM - 10:00 PM, Thursday 8:00 AM - 10:00 PM, Friday 8:00 AM - 10:00 PM, Saturday 8:00 AM - 10:00 PM, Sunday 8:00 AM - 10:00 PM, Monday 8:00 AM - 10:00 PM, Tuesday 8:00 AM - 10:00 PM",,,
Maxi Matane,8653,"595,  du Phare Est",,Matane,QC,G4W 1A9,CA,418-562-9066,48.8514,-67.5089,"Wednesday 8:00 AM - 10:00 PM, Thursday 8:00 AM - 10:00 PM, Friday 8:00 AM - 10:00 PM, Saturday Closed, Sunday 8:00 AM - 10:00 PM, Monday 8:00 AM - 10:00 PM, Tuesday 8:00 AM - 10:00 PM",,,
Maxi Lévis,8939,"50, route Président-Kennedey, St 190",,Lévis,QC,G6V 6W8,CA,418-837-9505,46.7944,-71.1767,"Wednesday 8:00 AM - 10:00 PM, Thursday 8:00 AM - 10:00 PM, Friday 8:00 AM - 10:00 PM, Saturday Closed, Sunday 8:00 AM - 10:00 PM, Monday 8:00 AM - 10:00 PM, Tuesday 8:00 AM - 10:00 PM",,,
Maxi Maniwaki,8624,"170, Principale sud",,Maniwaki,QC,J9E 1Z6,CA,819-449-6822,46.37598,-75.98301,"Wednesday 8:00 AM - 10:00 PM, Thursday 8:00 AM - 10:00 PM, Friday 8:00 AM - 10:00 PM, Saturday Closed, Sunday 8:00 AM - 10:00 PM, Monday 8:00 AM - 10:00 PM, Tuesday 8:00 AM - 10:00 PM",,,
Maxi Mascouche,8706,"1100, Montée Masson",,Mascouche,QC,J7K 2L8,CA,450-474-4121,45.7479,-73.6074,"Wednesday 8:00 AM - 10:00 PM, Thursday 8:00 AM - 10:00 PM, Friday 8:00 AM - 10:00 PM, Saturday Closed, Sunday 8:00 AM - 10:00 PM, Monday 8:00 AM - 10:00 PM, Tuesday 8:00 AM - 10:00 PM",,,
Maxi & Cie Rivière des Prairies,8386,"7605,  Maurice Duplessis",,Montréal,QC,H1E 7N2,CA,514-494-1117,45.627712,-73.598097,"Wednesday 8:00 AM - 9:00 PM, Thursday 8:00 AM - 9:00 PM, Friday 8:00 AM - 9:00 PM, Saturday Closed, Sunday 8:00 AM - 9:00 PM, Monday 8:00 AM - 9:00 PM, Tuesday 8:00 AM - 9:00 PM",,,
Maxi Mtl Masson,8632,"2535,  rue Masson",,Montréal,QC,H1Y 1V7,CA,514-527-2413,45.543908,-73.578557,"Wednesday 8:00 AM - 10:00 PM, Thursday 8:00 AM - 10:00 PM, Friday 8:00 AM - 10:00 PM, Saturday Closed, Sunday 8:00 AM - 10:00 PM, Monday 8:00 AM - 10:00 PM, Tuesday 8:00 AM - 10:00 PM",,,
Maxi Mtl Sherbrooke,8797,"2925,  rue Sherbrooke Est",,Montréal,QC,H1W 1B2,CA,514-521-0660,45.5413,-73.5595,"Wednesday 8:00 AM - 10:00 PM, Thursday 8:00 AM - 10:00 PM, Friday 8:00 AM - 10:00 PM, Saturday Closed, Sunday 8:00 AM - 10:00 PM, Monday 8:00 AM - 10:00 PM, Tuesday 8:00 AM - 10:00 PM",,,
Maxi Pl. Versaille,8910,"7455, rue Sherbrooke Est",,Montréal,QC,H1N 1E8,CA,514-353-7930,45.5932,-73.5417,"Wednesday 8:00 AM - 10:00 PM, Thursday 8:00 AM - 10:00 PM, Friday 8:00 AM - 10:00 PM, Saturday Closed, Sunday 8:00 AM - 10:00 PM, Monday 8:00 AM - 10:00 PM, Tuesday 8:00 AM - 10:00 PM",,,
Maxi&Cie Bedford,8661,"6825, Côte-Des-Neiges",,Montréal,QC,H3S 2B6,CA,514-734-1280,45.5041,-73.6379,"Wednesday 8:00 AM - 9:00 PM, Thursday 8:00 AM - 9:00 PM, Friday 8:00 AM - 9:00 PM, Saturday Closed, Sunday 8:00 AM - 9:00 PM, Monday 8:00 AM - 9:00 PM, Tuesday 8:00 AM - 9:00 PM",,,
Maxi&Cie Jean-Talon,8956,"4325, Jean-Talon Est",,Montréal,QC,H1S 1J9,CA,514-727-3771,45.5699,-73.5911,"Wednesday 8:00 AM - 9:00 PM, Thursday 8:00 AM - 9:00 PM, Friday 8:00 AM - 9:00 PM, Saturday Closed, Sunday 8:00 AM - 9:00 PM, Monday 8:00 AM - 9:00 PM, Tuesday 8:00 AM - 9:00 PM",,,
Maxi&Cie Papineau,8675,8305 rue Papineau,,Montréal,QC,H2M 2G2,CA,514-376-6457,45.556456,-73.622224,"Wednesday 8:00 AM - 9:00 PM, Thursday 8:00 AM - 9:00 PM, Friday 8:00 AM - 9:00 PM, Saturday Closed, Sunday 8:00 AM - 9:00 PM, Monday 8:00 AM - 9:00 PM, Tuesday 8:00 AM - 9:00 PM",,,
Maxi&Cie Pie-IX,8704,"10200,  boul. Pie Ix",,Montréal-Nord,QC,H1H 3Z1,CA,514-321-3111,45.5841,-73.6319,"Wednesday 8:00 AM - 9:00 PM, Thursday 8:00 AM - 9:00 PM, Friday 8:00 AM - 9:00 PM, Saturday Closed, Sunday 8:00 AM - 9:00 PM, Monday 8:00 AM - 9:00 PM, Tuesday 8:00 AM - 9:00 PM",,,
Maxi Louiseville,8834,"550,  boul. St-Laurent Est",,Louiseville,QC,J5V 2R5,CA,819-228-2715,46.25626,-72.9266,"Wednesday 8:00 AM - 10:00 PM, Thursday 8:00 AM - 10:00 PM, Friday 8:00 AM - 10:00 PM, Saturday Closed, Sunday 8:00 AM - 10:00 PM, Monday 8:00 AM - 10:00 PM, Tuesday 8:00 AM - 10:00 PM",,,
Maxi&Cie Longueuil,8922,"2655, chemin Chambly",,Longueuil,QC,J4L 1M3,CA,450-448-5771,45.5246,-73.4672,"Wednesday 8:00 AM - 9:00 PM, Thursday 8:00 AM - 9:00 PM, Friday 8:00 AM - 9:00 PM, Saturday Closed, Sunday 8:00 AM - 9:00 PM, Monday 8:00 AM - 9:00 PM, Tuesday 8:00 AM - 9:00 PM",,,
Maxi Granby,8660,"370,  rue St-Jacques",,Granby,QC,J2G 3N4,CA,450-375-8563,45.3981,-72.7341,"Wednesday 8:00 AM - 10:00 PM, Thursday 8:00 AM - 10:00 PM, Friday 8:00 AM - 10:00 PM, Saturday 8:00 AM - 6:00 PM, Sunday 8:00 AM - 10:00 PM, Monday 8:00 AM - 10:00 PM, Tuesday 8:00 AM - 10:00 PM",,,
Maxi & Cie Rivière des Prairies,8386,"7605,  Maurice Duplessis",,Montréal,QC,H1E 7N2,CA,514-494-1117,45.627712,-73.598097,"Wednesday 8:00 AM - 9:00 PM, Thursday 8:00 AM - 9:00 PM, Friday 8:00 AM - 9:00 PM, Saturday Closed, Sunday 8:00 AM - 9:00 PM, Monday 8:00 AM - 9:00 PM, Tuesday 8:00 AM - 9:00 PM",,,
Maxi Mtl Masson,8632,"2535,  rue Masson",,Montréal,QC,H1Y 1V7,CA,514-527-2413,45.543908,-73.578557,"Wednesday 8:00 AM - 10:00 PM, Thursday 8:00 AM - 10:00 PM, Friday 8:00 AM - 10:00 PM, Saturday Closed, Sunday 8:00 AM - 10:00 PM, Monday 8:00 AM - 10:00 PM, Tuesday 8:00 AM - 10:00 PM",,,
Maxi Mtl Sherbrooke,8797,"2925,  rue Sherbrooke Est",,Montréal,QC,H1W 1B2,CA,514-521-0660,45.5413,-73.5595,"Wednesday 8:00 AM - 10:00 PM, Thursday 8:00 AM - 10:00 PM, Friday 8:00 AM - 10:00 PM, Saturday Closed, Sunday 8:00 AM - 10:00 PM, Monday 8:00 AM - 10:00 PM, Tuesday 8:00 AM - 10:00 PM",,,
Maxi Pl. Versaille,8910,"7455, rue Sherbrooke Est",,Montréal,QC,H1N 1E8,CA,514-353-7930,45.5932,-73.5417,"Wednesday 8:00 AM - 10:00 PM, Thursday 8:00 AM - 10:00 PM, Friday 8:00 AM - 10:00 PM, Saturday Closed, Sunday 8:00 AM - 10:00 PM, Monday 8:00 AM - 10:00 PM, Tuesday 8:00 AM - 10:00 PM",,,
Maxi&Cie Bedford,8661,"6825, Côte-Des-Neiges",,Montréal,QC,H3S 2B6,CA,514-734-1280,45.5041,-73.6379,"Wednesday 8:00 AM - 9:00 PM, Thursday 8:00 AM - 9:00 PM, Friday 8:00 AM - 9:00 PM, Saturday Closed, Sunday 8:00 AM - 9:00 PM, Monday 8:00 AM - 9:00 PM, Tuesday 8:00 AM - 9:00 PM",,,
Maxi&Cie Jean-Talon,8956,"4325, Jean-Talon Est",,Montréal,QC,H1S 1J9,CA,514-727-3771,45.5699,-73.5911,"Wednesday 8:00 AM - 9:00 PM, Thursday 8:00 AM - 9:00 PM, Friday 8:00 AM - 9:00 PM, Saturday Closed, Sunday 8:00 AM - 9:00 PM, Monday 8:00 AM - 9:00 PM, Tuesday 8:00 AM - 9:00 PM",,,
Maxi&Cie Papineau,8675,8305 rue Papineau,,Montréal,QC,H2M 2G2,CA,514-376-6457,45.556456,-73.622224,"Wednesday 8:00 AM - 9:00 PM, Thursday 8:00 AM - 9:00 PM, Friday 8:00 AM - 9:00 PM, Saturday Closed, Sunday 8:00 AM - 9:00 PM, Monday 8:00 AM - 9:00 PM, Tuesday 8:00 AM - 9:00 PM",,,
Maxi & Cie - St-Martin,8384,"3500,  Boul. St-Martin Ouest",,Laval,QC,H7T 2W4,CA,450-688-2969,45.553715,-73.752367,"Wednesday 8:00 AM - 9:00 PM, Thursday 8:00 AM - 9:00 PM, Friday 8:00 AM - 9:00 PM, Saturday Closed, Sunday 8:00 AM - 9:00 PM, Monday 8:00 AM - 9:00 PM, Tuesday 8:00 AM - 9:00 PM",,,
Maxi Fabreville,8929,"444,  boul. Curé-Labelle",,Laval,QC,H7P 2P1,CA,450-625-4221,45.5783,-73.7868,"Wednesday 8:00 AM - 10:00 PM, Thursday 8:00 AM - 10:00 PM, Friday 8:00 AM - 10:00 PM, Saturday Closed, Sunday 8:00 AM - 10:00 PM, Monday 8:00 AM - 10:00 PM, Tuesday 8:00 AM - 10:00 PM",,,
Maxi&Cie Vimont,8976,2090 Boulevard des Laurentides,,Laval,QC,H7M 2Y6,CA,450-663-3999,45.6071,-73.7354,"Wednesday 8:00 AM - 9:00 PM, Thursday 8:00 AM - 9:00 PM, Friday 8:00 AM - 9:00 PM, Saturday Closed, Sunday 8:00 AM - 9:00 PM, Monday 8:00 AM - 9:00 PM, Tuesday 8:00 AM - 9:00 PM",,,
Maxi Estimauville,8901,"1699,  Estimauville",,Giffard,QC,G1J 5E2,CA,418-667-5721,46.8438,-71.2146,"Wednesday 8:00 AM - 10:00 PM, Thursday 8:00 AM - 10:00 PM, Friday 8:00 AM - 10:00 PM, Saturday Closed, Sunday 8:00 AM - 10:00 PM, Monday 8:00 AM - 10:00 PM, Tuesday 8:00 AM - 10:00 PM",,,
Maxi Donnacona,8955,"482,  route 138",,Donnacona,QC,G3M 1C2,CA,418-285-5101,46.68003,-71.7198,"Wednesday 8:00 AM - 10:00 PM, Thursday 8:00 AM - 10:00 PM, Friday 8:00 AM - 10:00 PM, Saturday Closed, Sunday 8:00 AM - 10:00 PM, Monday 8:00 AM - 10:00 PM, Tuesday 8:00 AM - 10:00 PM",,,
Maxi Dorval,8914,"310,  Avenue Dorval",,Dorval,QC,H9S 3H7,CA,514-631-6234,45.4437,-73.7416,"Wednesday 8:00 AM - 10:00 PM, Thursday 8:00 AM - 10:00 PM, Friday 8:00 AM - 10:00 PM, Saturday Closed, Sunday 8:00 AM - 10:00 PM, Monday 8:00 AM - 10:00 PM, Tuesday 8:00 AM - 10:00 PM",,,
Maxi Chicoutimi,8963,"180,  boul. Barrette",,Chicoutimi,QC,G7H 7W8,CA,418-549-9357,48.394538,-71.073461,"Wednesday 8:00 AM - 10:00 PM, Thursday 8:00 AM - 10:00 PM, Friday 8:00 AM - 10:00 PM, Saturday Closed, Sunday 8:00 AM - 10:00 PM, Monday 8:00 AM - 10:00 PM, Tuesday 8:00 AM - 10:00 PM",,,
Maxi Chicoutimi,8963,"180,  boul. Barrette",,Chicoutimi,QC,G7H 7W8,CA,418-549-9357,48.394538,-71.073461,"Wednesday 8:00 AM - 10:00 PM, Thursday 8:00 AM - 10:00 PM, Friday 8:00 AM - 10:00 PM, Saturday Closed, Sunday 8:00 AM - 10:00 PM, Monday 8:00 AM - 10:00 PM, Tuesday 8:00 AM - 10:00 PM",,,
Maxi Chicoutimi-Nord,8655,"681,  Ste Geneviève",,Chicoutimi-Nord,QC,G7G 4Z4,CA,418-549-2714,48.444,-71.0804,"Wednesday 8:00 AM - 10:00 PM, Thursday 8:00 AM - 10:00 PM, Friday 8:00 AM - 10:00 PM, Saturday Closed, Sunday 8:00 AM - 10:00 PM, Monday 8:00 AM - 10:00 PM, Tuesday 8:00 AM - 10:00 PM",,,
Maxi Châteauguay,8643,"114,  Boul. St-Jean Baptiste",,Châteauguay,QC,J6K 3A9,CA,450-691-5100,45.357756,-73.714938,"Wednesday 8:00 AM - 10:00 PM, Thursday 8:00 AM - 10:00 PM, Friday 8:00 AM - 10:00 PM, Saturday Closed, Sunday 8:00 AM - 10:00 PM, Monday 8:00 AM - 10:00 PM, Tuesday 8:00 AM - 10:00 PM",,,
Maxi Charlesbourg Louis-XIV,8981,1220 boul Louis-XIV,,Charlesbourg,QC,G1H 6V6,CA,418-628-7672,46.8703,-71.2556,"Wednesday 8:00 AM - 10:00 PM, Thursday 8:00 AM - 10:00 PM, Friday 8:00 AM - 10:00 PM, Saturday Closed, Sunday 8:00 AM - 10:00 PM, Monday 8:00 AM - 10:00 PM, Tuesday 8:00 AM - 10:00 PM",,,
Maxi Chibougamau,8961,"885,  3 rue,  Route 167",,Chibougamau,QC,G8P 1R3,CA,418-748-6113,49.91348,-74.38502,"Wednesday 8:00 AM - 10:00 PM, Thursday 8:00 AM - 10:00 PM, Friday 8:00 AM - 10:00 PM, Saturday Closed, Sunday 8:00 AM - 10:00 PM, Monday 8:00 AM - 10:00 PM, Tuesday 8:00 AM - 10:00 PM",,,
Maxi & Cie Buckingham,8389,"130, Chemin Lepine",,Gatineau,QC,J8L 4M4,CA,819-281-5232,45.5738,-75.4077,"Wednesday 8:00 AM - 9:00 PM, Thursday 8:00 AM - 9:00 PM, Friday 8:00 AM - 9:00 PM, Saturday Closed, Sunday 8:00 AM - 9:00 PM, Monday 8:00 AM - 9:00 PM, Tuesday 8:00 AM - 9:00 PM",,,
Maxi & Cie Gatineau,8388,"800, Boul. Maloney Ouest",,Gatineau,QC,J8T 3R6,CA,819-561-9244,45.48011,-75.68163,"Wednesday 8:00 AM - 9:00 PM, Thursday 8:00 AM - 9:00 PM, Friday 8:00 AM - 9:00 PM, Saturday Closed, Sunday 8:00 AM - 9:00 PM, Monday 8:00 AM - 9:00 PM, Tuesday 8:00 AM - 9:00 PM",,,
Maxi Gatineau,8667,"25, Rue De La Savane",,Gatineau,QC,J8T 8A4,CA,819-243-7071,45.47506,-75.70399,"Wednesday 8:00 AM - 10:00 PM, Thursday 8:00 AM - 10:00 PM, Friday 8:00 AM - 10:00 PM, Saturday Closed, Sunday 8:00 AM - 10:00 PM, Monday 8:00 AM - 10:00 PM, Tuesday 8:00 AM - 10:00 PM",,,
Maxi Brossard,8937,"7200,  boul. Taschereau",,Brossard,QC,J4W 1N1,CA,450-672-3201,45.4606,-73.4675,"Wednesday 8:00 AM - 10:00 PM, Thursday 8:00 AM - 10:00 PM, Friday 8:00 AM - 10:00 PM, Saturday Closed, Sunday 8:00 AM - 10:00 PM, Monday 8:00 AM - 10:00 PM, Tuesday 8:00 AM - 10:00 PM",,,
Maxi Brossard du Quartier,8777,1035 boul du Quartier,,Brossard,QC,J4Y 0B4,CA,450-462-2823,45.456338,-73.41942,"Wednesday 8:00 AM - 10:00 PM, Thursday 8:00 AM - 10:00 PM, Friday 8:00 AM - 10:00 PM, Saturday Closed, Sunday 8:00 AM - 10:00 PM, Monday 8:00 AM - 10:00 PM, Tuesday 8:00 AM - 10:00 PM",,,
Maxi Cap-de-la-Madeleine,8993,"320,  rue Barkoff",,Cap-de-la-Madeleine,QC,G8T 2A3,CA,819-378-4932,46.3737,-72.5579,"Wednesday 8:00 AM - 10:00 PM, Thursday 8:00 AM - 10:00 PM, Friday 8:00 AM - 10:00 PM, Saturday Closed, Sunday 8:00 AM - 10:00 PM, Monday 8:00 AM - 10:00 PM, Tuesday 8:00 AM - 10:00 PM",,,
Maxi Beauport,8923,"699,  rue Clémenceau",,Beauport,QC,G1C 4N6,CA,418-666-0155,46.8742,-71.2002,"Wednesday 8:00 AM - 10:00 PM, Thursday 8:00 AM - 10:00 PM, Friday 8:00 AM - 10:00 PM, Saturday Closed, Sunday 8:00 AM - 10:00 PM, Monday 8:00 AM - 10:00 PM, Tuesday 8:00 AM - 10:00 PM",,,
Maxi Baie-Comeau,8985,"570,  boul. Laflèche",,Baie-Comeau,QC,G5C 1C3,CA,418-589-9020,49.203,-68.258154,"Wednesday 8:00 AM - 10:00 PM, Thursday 8:00 AM - 10:00 PM, Friday 8:00 AM - 10:00 PM, Saturday Closed, Sunday 8:00 AM - 10:00 PM, Monday 8:00 AM - 10:00 PM, Tuesday 8:00 AM - 10:00 PM",,,
Maxi Baie St-Paul,8664,"30, rue Racine",,Baie St-Paul,QC,G3Z 2R1,CA,418-240-3510,47.442768,-70.509665,"Wednesday 7:00 AM - 10:00 PM, Thursday 7:00 AM - 10:00 PM, Friday 7:00 AM - 10:00 PM, Saturday 8:00 AM - 6:00 PM, Sunday 7:00 AM - 10:00 PM, Monday 7:00 AM - 10:00 PM, Tuesday 7:00 AM - 10:00 PM",,,
Maxi & Cie Drummondville,8772,"1870,  boul. St-Joseph",,Drummondville,QC,J2B 1R2,CA,819-472-1197,45.87964,-72.487781,"Wednesday 8:00 AM - 10:00 PM, Thursday 8:00 AM - 10:00 PM, Friday 8:00 AM - 10:00 PM, Saturday Closed, Sunday 8:00 AM - 9:00 PM, Monday 8:00 AM - 10:00 PM, Tuesday 8:00 AM - 10:00 PM",,,
Maxi Beloeil,8677,"175,  Sir Wilfrid Laurier",,Beloeil,QC,J3G 4G8,CA,450-464-3514,45.55129,-73.214998,"Wednesday 8:00 AM - 10:00 PM, Thursday 8:00 AM - 10:00 PM, Friday 8:00 AM - 10:00 PM, Saturday Closed, Sunday 8:00 AM - 10:00 PM, Monday 8:00 AM - 10:00 PM, Tuesday 8:00 AM - 10:00 PM",,,
Maxi Chambly,8693,"1601, boul. Périgny",,Chambly,QC,J3L 1W9,CA,450-447-7500,45.4462,-73.2852,"Wednesday 8:00 AM - 10:00 PM, Thursday 8:00 AM - 10:00 PM, Friday 8:00 AM - 10:00 PM, Saturday Closed, Sunday 8:00 AM - 10:00 PM, Monday 8:00 AM - 10:00 PM, Tuesday 8:00 AM - 10:00 PM",,,
Maxi Boucherville,8950,"520,  Fort St-Louis",,Boucherville,QC,J4B 1S5,CA,450-641-4985,45.6091,-73.451,"Wednesday 8:00 AM - 10:00 PM, Thursday 8:00 AM - 10:00 PM, Friday 8:00 AM - 10:00 PM, Saturday Closed, Sunday 8:00 AM - 10:00 PM, Monday 8:00 AM - 10:00 PM, Tuesday 8:00 AM - 10:00 PM",,,
Maxi Blainville,8853,"1083,  Curé-Labelle",,Blainville,QC,J7C 3M9,CA,450-435-2489,45.6765,-73.8861,"Wednesday 8:00 AM - 10:00 PM, Thursday 8:00 AM - 10:00 PM, Friday 8:00 AM - 10:00 PM, Saturday Closed, Sunday 8:00 AM - 10:00 PM, Monday 8:00 AM - 10:00 PM, Tuesday 8:00 AM - 10:00 PM",,,
Maxi Gatineau Vanier,8711,545 chemin Vanier,,Aylmer,QC,J9J 3Z4,CA,,45.417028,-75.808662,"Wednesday 8:00 AM - 10:00 PM, Thursday 8:00 AM - 10:00 PM, Friday 8:00 AM - 10:00 PM, Saturday Closed, Sunday 8:00 AM - 10:00 PM, Monday 8:00 AM - 10:00 PM, Tuesday 8:00 AM - 10:00 PM",,,
Maxi Asbestos,8935,"205,  1ière Avenue",,Asbestos,QC,J1T 1Y3,CA,819-879-5457,45.775054,-71.937978,"Wednesday 8:00 AM - 9:00 PM, Thursday 8:00 AM - 9:00 PM, Friday 8:00 AM - 9:00 PM, Saturday Closed, Sunday 8:00 AM - 9:00 PM, Monday 8:00 AM - 9:00 PM, Tuesday 8:00 AM - 9:00 PM",,,
Maxi Amqui,8616,"33,  boul. St-Benoit",,Amqui,QC,G5J 2B8,CA,418-629-4444,48.464606,-67.42538,"Wednesday 8:00 AM - 10:00 PM, Thursday 8:00 AM - 10:00 PM, Friday 8:00 AM - 10:00 PM, Saturday Closed, Sunday 8:00 AM - 10:00 PM, Monday 8:00 AM - 10:00 PM, Tuesday 8:00 AM - 10:00 PM",,,
Maxi Amos,8621,"472, 4 ieme Rue Est",,Amos,QC,J9T 1Y4,CA,819-732-2115,48.571366,-78.104915,"Wednesday 8:00 AM - 10:00 PM, Thursday 8:00 AM - 10:00 PM, Friday 8:00 AM - 10:00 PM, Saturday Closed, Sunday 8:00 AM - 10:00 PM, Monday 8:00 AM - 10:00 PM, Tuesday 8:00 AM - 10:00 PM",,,
