phone_number,city,distributor_name,store_type,store_number,country,address2,longitude,store_hours,store_name,state,other_fields,address,latitude,zip_code
201-858-3400,Bayonne,,,,United States,,,Mon-Sat 9AM - 9PM Sun 10AM - 6PM ,BAYONNE,NJ,,307 Bayonne Crossing Way,,07002
201-941-6105,Edgewater,,,,United States,,,Mon-Sat 9AM - 9PM Sun 10AM - 7PM ,"EDGEWATER, NJ",NJ,,725 River Road,,07020
201-355-8908,Lyndhurst,,,,United States,,,Mon-Sat 9AM - 9PM Sun 10AM - 6PM ,LYNDHURST,NJ,,411 A Valley Brook Ave,,07071
973-928-4498,Clifton,,,,United States,,,Mon-Sat 9AM - 9PM Sun 10AM - 8PM ,CLIFTON,NJ,,225 Allwood Road,,07012
973-928-5470,Lodi,,,,United States,,,Mon-Sat 9AM - 9PM Sun 10AM - 7PM ,LODI,NJ,,150 Main Street,,07644
201-608-5139,Englewood,,,,United States,,,Mon-Sat 9AM - 9PM Sun 10AM - 6PM ,ENGLEWOOD,NJ,,"51 Nathaniel Place, suite 7",,07631
201-385-3395,Dumont,,,,United States,,,Mon-Sat 9AM - 9PM Sun 9AM - 6PM ,DUMONT,NJ,,40 Washington Avenue,,07628
248-973-8325,West Bloomfield,,,,United States,,,Mon-Sat 9AM - 9PM Sun 10AM - 6PM ,WEST BLOOMFIELD,MI,,33230 West 14 Mile Road,,48322
908-233-0722,Garwood,,,,United States,,,Mon-Sat 9AM - 9PM Sun 10AM - 6PM ,GARWOOD,NJ,,300 South Ave.,,07027
862-210-8078,West Caldwell,,,,United States,,,Mon-Sat 9AM - 9PM Sun 10AM - 6PM ,WEST CALDWELL,NJ,,756 A Bloomfield Ave,,07006
516-431-4785,Island Park,,,,United States,,,Mon-Sat 9AM - 9PM Sun 10AM - 7PM ,ISLAND PARK,NY,,4581 Austin Blvd,,11558
973-845-2504,Florham Park,,,,United States,,,Mon-Sat 9AM - 9PM Sun 10AM - 6PM ,FLORHAM VILLAGE,NJ,,187 Columbia Turnpike,,07932
973-377-5112,Madison,,,,United States,,,Mon-Sat 9AM - 9PM Sun 10AM - 7PM ,MADISON,NJ,,235 Main Street,,07940
973-694-5555,Wayne,,,,United States,,,Mon-Sat 9AM - 9PM Sun 10AM - 6PM ,"WAYNE, NJ",NJ,,1220 Hamburg Turnpike,,07470
516-228-9100,Westbury,,,,United States,,,Mon-Sat 9AM - 9PM Sun 10AM - 7PM ,WESTBURY,NY,,1260 Old Country Rd. suite 21A,,11590
201-848-6070,Wyckoff,,,,United States,,,Mon-Sat 9AM - 9PM Sun 10AM - 6PM ,WYCKOFF,NJ,,327 Franklin Avenue,,07481
201-746-6469,Montvale,,,,United States,,,Mon-Sat 9AM - 9PM Sun 10AM - 7PM ,MONTVALE,NJ,,20 S. Kinderkamack Rd.,,07645
973-794-3545,Parsippany,,,,United States,,,Mon-Sat 9AM - 9PM Sun 10AM - 6PM ,PARSIPPANY,NJ,,3053A US Route 46 East,,07054
914-358-9034,Hartsdale,,,,United States,,,Mon-Sat 9AM - 9PM Sun 10AM - 7PM ,HARTSDALE,NY,,385 North Central Ave,,10530
908-647-5300,Gillette,,,,United States,,,Mon-Sat 9AM - 9PM Sun 10AM - 6PM ,GILLETTE,NJ,,"977 Valley Road, suite 5",,07933
973-616-1846,Pompton Lakes,,,,United States,,,Mon-Sat 9AM - 9PM Sun 10AM - 6PM ,POMPTON LAKES,NJ,,55 Wanaque Ave,,07442
914-481-1903,Rye Brook,,,,United States,,,Mon-Sat 9AM - 9PM Sun 10AM - 6PM ,RYE BROOK,NY,,134 S Ridge Street,,10573
848-456-4610,Shrewsbury,,,,United States,,,Mon-Sat 9AM - 9PM Sun 10AM - 6PM ,SHREWSBURY,NJ,,"490 Shrewsbury Plaza, unit 25",,07702
516-465-2874,Plainview,,,,United States,,,Mon-Sat 9AM - 9PM Sun 10AM - 7PM ,PLAINVIEW,NY,,70 Manetto Hill Road,,11803
908-502-5491,Bernardsville,,,,United States,,,Mon-Sat 9AM - 9PM Sun 10AM - 6PM ,BERNARDSVILLE,NJ,,80 Morristown Road,,07924
973-543-6005,Mendham,,,,United States,,,Mon-Sat 9AM - 9PM Sun 10AM - 6PM ,MENDHAM,NJ,,84 East Main Street,,07945
732-431-4070,Manalapan,,,,United States,,,Mon-Sat 9AM - 9PM Sun 10AM - 7PM ,MANALAPAN,NJ,,55 Route 9 South,,07726
845-241-5247,West Haverstraw,,,,United States,,,Mon-Sat 9AM - 9PM Sun 10AM - 7PM ,WEST HAVERSTRAW,NY,,36 South Route 9W,,10993
203-658-8825,Stamford,,,,United States,,,Mon-Sat 9AM - 9PM Sun 10AM - 7PM ,STAMFORD,CT,,1131 High Ridge Rd.,,06905
9--317-939-2128,Brownsburg,,,,United States,,,Mon-Sat 9AM - 9PM Sun 10AM - 6PM ,BROWNSBURG,IN,,931 North Green Street,,46112
502-695-3100,Frankfort,,,,United States,,,Mon-Sat 9AM - 9PM Sun 10AM - 7PM ,FRANKFORT,KY,,"7000 John Davis Dr, #300",,40601
859-368-7158,Lexington,,,,United States,,,Mon-Sat 9AM - 9PM Sun 10AM - 6PM ,LEXINGTON - PALOMAR,KY,,3735 Palomar Centre Drive,,40513
859-309-1850,Lexington,,,,United States,,,Mon-Sat 9AM - 9PM Sun 10AM - 6PM ,LEXINGTON - HARTLAND,KY,,4750 Hartland Parkway,,40515
317-973-5505,Zionsville,,,,United States,,,Mon-Sat 9AM - 9PM Sun 10AM - 6PM ,ZIONSVILLE,IN,,53 Boone Village,,46227
317-535-1770,Bargersville,,,,United States,,,Mon-Sat 9AM - 9PM Sun 10AM - 6PM ,GREENWOOD,IN,,5889 State Road 135,,46106
317-731-6119,Indianapolis,,,,United States,,,Mon-Sat 9AM - 9PM Sun 10AM - 6PM ,MARWOOD,IN,,3335 Kentucky Avenue,,46221
317-389-5164,Indianapolis,,,,United States,,,Mon-Sat 9AM - 9PM Sun 10AM - 6PM ,WILLOW LAKE,IN,,2452 Lake Circle Drive,,46268
317-569-1082,Carmel,,,,United States,,,Mon-Sat 9AM - 9PM Sun 10AM - 6PM ,CARMEL,IN,,11503 Spring Mill Road,,46032
215-644-8445,Philadelphia,,,,United States,,,Mon-Sat 9AM - 9PM Sun 10AM - 6PM ,WHITMAN PLAZA,PA,,330 W. Oregon Avenue,,19148
484-278-4784,Bala Cynwyd,,,,United States,,,Mon-Sat 9AM - 9PM Sun 10AM - 6PM ,BALA CYNWYD,PA,,49 East City Line Ave,,19004
267-336-7867,Philadelphia,,,,United States,,,Mon-Sat 9AM - 9PM Sun 10AM - 6PM ,ROXBOROUGH,PA,,7164 Ridge Ave.,,19128
610-649-4809,Ardmore,,,,United States,,,Mon-Sat 9AM - 9PM Sun 10AM - 7PM ,ARDMORE,PA,,217 West Lancaster Avenue,,19003
215-572-6349,Jenkintown,,,,United States,,,Mon-Sat 9AM - 9PM Sun 10AM - 7PM ,JENKINTOWN,PA,,323 Old York Road,,19046
215-277-7981,Huntingdon Valley,,,,United States,,,Mon-Sat 9AM - 9PM Sun 10AM - 7PM ,ROCKLEDGE,PA,,"773 Huntingdon Pike, Store 1048",,19006
856-344-2599,Somerdale,,,,United States,,,Mon-Sat 9AM - 9PM Sun 10AM - 6PM ,SOMERDALE,NJ,,711 Evesham Ave,,08083
484-427-7472,Broomall,,,,United States,,,Mon-Sat 9AM - 9PM Sun 10AM - 6PM ,BROOMALL,PA,,1991 Sproul Road,,19008
856-599-1402,Gibbstown,,,,United States,,,Mon-Sat 9AM - 9PM Sun 10AM - 6PM ,GIBBSTOWN,NJ,,401 Harmony Road,,08027
215-836-0906,Flourtown,,,,United States,,,Mon-Sat 9AM - 9PM Sun 10AM - 7PM ,FLOURTOWN,PA,,1832 Bethlehem Pike,,19031
856-309-1430,Laurel Springs,,,,United States,,,Mon-Sat 9AM - 9PM Sun 10AM - 6PM ,LAUREL SPRINGS,NJ,,1216 Chews Landing Road,,08021
267-388-6541,Philadelphia,,,,United States,,,Mon-Sat 9AM - 9PM Sun 10AM - 6PM ,PHILADELPHIA,PA,,2550 Grant Avenue Suite 110,,19114
610-897-8098,Conshohocken,,,,United States,,,Mon-Sat 9AM - 9PM Sun 10AM - 6PM ,CONSHOHOCKEN,PA,,30 East Ridge Pike,,19428
856-783-1331,Voorhees,,,,United States,,,Mon-Sat 9AM - 9PM Sun 10AM - 6PM ,VOORHEES,NJ,,700 Haddonfield-Berlin Road,,08043
856-810-9595,Marlton,,,,United States,,,Mon-Sat 9AM - 9PM Sun 10AM - 6PM ,MARLTON,NJ,,744 West Route 70,,08053
484-422-8010,Newtown Square,,,,United States,,,Mon-Sat 9AM - 9PM Sun 10AM - 6PM ,NEWTOWN SQUARE,PA,,3741 West Chester Pike,,19073
610-254-9101,Wayne,,,,United States,,,Mon-Sat 9AM - 9PM Sun 10AM - 6PM ,"WAYNE SQUARE, PA",PA,,317 East Lancaster Ave,,19087
215-793-4443,Dresher,,,,United States,,,Mon-Sat 9AM - 9PM Sun 10AM - 7PM ,DRESHER,PA,,1650 Limekiln Pike,,19025
484-480-8576,Brookhaven,,,,United States,,,Mon-Sat 9AM - 9PM Sun 10AM - 6PM ,BROOKHAVEN,PA,,4904 Edgmont Avenue,,19015
856-389-5608,Cinnaminson,,,,United States,,,Mon-Sat 9AM - 9PM Sun 10AM - 7PM ,CINNAMINSON,NJ,,"141 US 130 South, Suite G",,08077
610-239-8175,Blue Bell,,,,United States,,,Mon-Sat 9AM - 9PM Sun 10AM - 7PM ,BLUE BELL,PA,,1301 Skippack Pike,,19422
856-269-4099,Sewell,,,,United States,,,Mon-Sat 9AM - 9PM Sun 10AM - 6PM ,SEWELL,NJ,,415 Egg Harbor Road,,08080
856-223-8709,Mullica Hill,,,,United States,,,Mon-Sat 9AM - 9PM Sun 10AM - 8PM ,MULLICA HILL,NJ,,141 Bridgeton Pike,,08062
856-885-8504,Sicklerville,,,,United States,,,Mon-Sat 9AM - 9PM Sun 10AM - 6PM ,SICKLERVILLE,NJ,,611 Berlin Cross Keys Rd,,08081
610-650-7790,Norristown,,,,United States,,,Mon-Sat 9AM - 9PM Sun 10AM - 7PM ,AUDUBON,PA,,2660 Egypt Road,,19403
267-483-5663,Warrington,,,,United States,,,Mon-Sat 9AM - 9PM Sun 10AM - 7PM ,WARRINGTON,PA,,211 Easton Road,,18976
609-479-3229,Burlington,,,,United States,,,Mon-Sat 9AM - 9PM Sun 10AM - 6PM ,BURLINGTON,NJ,,1817 Burlington-Mt. Holly Road,,08016
484-392-7817,Phoenixville,,,,United States,,,Mon-Sat 9AM - 9PM Sun 10AM - 6PM ,OAKS,PA,,1570 Egypt Road,,19460
215-355-3362,Richboro,,,,United States,,,Mon-Sat 9AM - 9PM Sun 10AM - 7PM ,RICHBORO,PA,,1034 Second Street Pike,,18954
609-702-7228,Lumberton,,,,United States,,,Mon-Sat 9AM - 8:30PM Sun 10AM - 6PM ,LUMBERTON,NJ,,1636 Route 38,,08048
859-309-1850,Lexington,,,,United States,,,Mon-Sat 9AM - 9PM Sun 10AM - 6PM ,LEXINGTON - HARTLAND,KY,,4750 Hartland Parkway,,40515
614-278-2255,Columbus,,,,United States,,,Mon-Sat 9AM - 9PM Sun 10AM - 7PM ,WEST BROAD,OH,,3558 Soldano Blvd,,43228
614-888-6768,Columbus,,,,United States,,,Mon-Sat 9AM - 9PM Sun 10AM - 7PM ,GRACELAND,OH,,147 Graceland Blvd,,43214
614-527-8571,Hilliard,,,,United States,,,Mon-Sat 9AM - 9PM Sun 10AM - 7PM ,HILLIARD,OH,,3718 Fishinger Blvd,,43026
614-476-5233,Columbus,,,,United States,,,Mon-Sat 9AM - 9PM Sun 10AM - 7PM ,EASTON,OH,,3868 Morse Rd,,43219
614-322-9018,Columbus,,,,United States,,,Mon-Sat 9AM - 9PM Sun 10AM - 8PM ,EAST BROAD,OH,,6992 East Broad Street,,43213
614-548-0090,Canal Winchester,,,,United States,,,Mon-Sat 9AM - 9PM Sun 10AM - 7PM ,CANAL WINCHESTER,OH,,6334 Gender Rd,,43110
614-553-7072,Dublin,,,,United States,,,Mon-Sat 9AM - 9PM Sun 10AM - 7PM ,DUBLIN,OH,,7705 Sawmill Road,,43016
740-500-1398,Circleville,,,,United States,,,Mon-Sat 9AM - 9PM Sun 10AM - 6PM ,CIRCLEVILLE,OH,,160 Summit Ave,,43113
740-771-4171,Chillicothe,,,,United States,,,Mon-Sat 9AM - 9PM Sun 10AM - 7PM ,CHILLICOTHE,OH,,1080 N Bridge St,,45601
740-297-7097,Zanesville,,,,United States,,,Mon-Sat 9AM - 9PM Sun 10AM - 6PM ,ZANESVILLE,OH,,3291 Maple Avenue,,43701
937-318-2098,Fairborn,,,,United States,,,Mon-Sat 9AM - 9PM Sun 10AM - 6PM ,FAIRBORN,OH,,2010 Commerce Center Blvd,,45324
937-236-2501,Huber Heights,,,,United States,,,Mon-Sat 9AM - 9PM Sun 10AM - 7PM ,HUBER HEIGHTS,OH,,7750 Brandt Pike,,45424
586-252-2924,Warren,,,,United States,,,Mon-Sat 9AM - 9PM Sun 10AM - 6PM ,WARREN,MI,,13828 E 14 Mile Rd,,48088
734-469-4843,Livonia,,,,United States,,,Mon-Sat 9AM - 9PM Sun 10AM - 6PM ,LIVONIA,MI,,30997 Five Mile Rd,,48154
586-765-1701,Macomb,,,,United States,,,Mon-Sat 9AM - 9PM Sun 10AM - 6PM ,MACOMB,MI,,21745 21 Mile Road,,48044
401-383-1638,East Providence,,,,United States,,,Mon-Sat 9AM - 9PM Sun 10AM - 6PM ,EAST PROVIDENCE,RI,,73 Highland Avenue,,02914
401-398-1990,East Greenwich,,,,United States,,,Mon-Sat 9AM - 9PM Sun 10AM - 7PM ,EAST GREENWICH,RI,,"1000 Division Street, Unit 70",,02818
401-667-7179,North Kingstown,,,,United States,,,Mon-Sat 9AM - 9PM Sun 10AM - 7PM ,NORTH KINGSTOWN,RI,,84 Gate Road,,02852
410-783-1590,Baltimore,,,,United States,,,Mon-Sat 9AM - 9PM Sun 10AM - 6PM ,SOUTHSIDE (BALTIMORE),MD,,895 East Fort Avenue,,21230
443-376-5498,Dundalk,,,,United States,,,Mon-Sat 9AM - 9PM Sun 10AM - 6PM ,DUNDALK,MD,,1758 Merritt Blvd,,21222
443-354-3123,Glen Burnie,,,,United States,,,Mon-Sat 9AM - 9PM Sun 10AM - 6PM ,GLEN BURNIE,MD,,6718D Ritchie Highway,,21061
443-352-3406,Baltimore,,,,United States,,,Mon-Sat 9AM - 9PM Sun 10AM - 6PM ,QUARRY LAKE,MD,,2570 Quarry Lake Drive,,21208
410-654-2466,Owings Mills,,,,United States,,,Mon-Sat 9AM - 9PM Sun 10AM - 6PM ,OWINGS MILLS,MD,,9910 Reisterstown Rd.,,21117
410-248-0178,Perry Hall,,,,United States,,,Mon-Sat 9AM - 9PM Sun 10AM - 7PM ,PERRY HALL,MD,,5007 Honeygo Center Drive,,21128
443-702-7017,Pasadena,,,,United States,,,Mon-Sat 9AM - 9PM Sun 10AM - 7PM ,PASADENA,MD,,4115 Mountain Rd,,21122
410-527-1395,Hunt Valley,,,,United States,,,Mon-Sat 9AM - 9PM Sun 10AM - 6PM ,HUNT VALLEY,MD,,114 Shawan Rd Suite 4,,21030
410-480-0200,Ellicott City,,,,United States,,,Mon-Sat 9AM - 9PM Sun 10AM - 6PM ,ELLICOTT CITY,MD,,11099 Resort Rd. Suite 302,,21042
410-451-1585,Gambrills,,,,United States,,,Mon-Sat 9AM - 9PM Sun 10AM - 8PM ,GAMBRILLS,MD,,1308 Main Chapel Way,,21054
301-490-2160,Laurel,,,,United States,,,Mon-Sat 9AM - 9PM Sun 10AM - 6PM ,LAUREL,MD,,14712 Baltimore Avenue,,20707
410-569-1700,Abingdon,,,,United States,,,Mon-Sat 9AM - 9PM Sun 10AM - 6PM ,ABINGDON,MD,,3491 Merchant Blvd,,21009
410-626-0815,Annapolis,,,,United States,,,Mon-Sat 9AM - 9PM Sun 10AM - 7PM ,ANNAPOLIS,MD,,940 Bay Ridge Road,,21403
410-956-6828,Edgewater,,,,United States,,,Mon-Sat 9AM - 9PM Sun 10AM - 7PM ,"EDGEWATER, MD",MD,,68 W. Central Avenue,,21037
301-570-1834,Olney,,,,United States,,,Mon-Sat 9AM - 9PM Sun 10AM - 8PM ,OLNEY,MD,,18115 Town Center Drive.,,20832
301-754-3690,Silver Springs,,,,United States,,,Mon-Sat 9AM - 9PM Sun 10AM - 7PM ,SILVER SPRING,MD,,11229A New Hampshire Ave.,,20904
410-374-4775,Hampstead,,,,United States,,,Mon-Sat 9AM - 9PM Sun 10AM - 7PM ,HAMPSTEAD,MD,,2315-E Hanover Pike,,21074
410-297-9147,Aberdeen,,,,United States,,,Mon-Sat 9AM - 9PM Sun 10AM - 7PM ,ABERDEEN,MD,,1016 Beards Hill Road,,21001
301-829-1242,Mt. Airy,,,,United States,,,Mon-Sat 9AM - 9PM Sun 10AM - 8PM ,MT AIRY,MD,,317 East Ridgeville Blvd.,,21771
301-414-2338,Damascus,,,,United States,,,Mon-Sat 9AM - 9PM Sun 10AM - 7PM ,DAMASCUS,MD,,9809 Main St.,,20872
301-947-0495,Gaithersburg,,,,United States,,,Mon-Sat 9AM - 9PM Sun 10AM - 6PM ,GAITHERSBURG,MD,,9156 Rothbury Drive,,20879
301-738-2419,Rockville,,,,United States,,,Mon-Sat 9AM - 9PM Sun 10AM - 6PM ,ROCKVILLE,MD,,14933-J Shady Grove Rd,,20850
717-235-4529,Shrewsbury,,,,United States,,,Mon-Sat 9AM - 9PM Sun 10AM - 6PM ,SHREWSBURY,PA,,624 Shrewsbury Commons Ave,,17361
240-328-6562,Potomac,,,,United States,,,Mon-Sat 9AM - 9PM Sun 10AM - 6PM ,POTOMAC,MD,,7723-7725 Tuckerman Lane,,20854
301-569-6439,Clarksburg,,,,United States,,,Mon-Sat 9AM - 9PM Sun 10AM - 7PM ,CLARKSBURG,MD,,22750 New Cut Road,,20871
717-698-1358,Hanover,,,,United States,,,Mon-Sat 9AM - 9PM Sun 10AM - 6PM ,HANOVER,PA,,805 South Baltimore Street,,17331
410-286-2689,Dunkirk,,,,United States,,,Mon-Sat 9AM - 9PM Sun 10AM - 7PM ,DUNKIRK,MD,,10804 Town Center Blvd.,,20754
410-658-4200,Rising Sun,,,,United States,,,Mon-Sat 9AM - 9PM Sun 10AM - 6PM ,RISING SUN,MD,,32 Rising Sun Towne Center,,21911
571-970-5875,Alexandria,,,,United States,,,Mon-Sat 9AM - 9PM Sun 10AM - 6PM ,ALEXANDRIA (BRADLEE),VA,,3652 King Street,,22302
703-942-8796,Falls Church,,,,United States,,,Mon-Sat 9AM - 9PM Sun 10AM - 6PM ,FALLS CHURCH,VA,,7249 Arlington Blvd.,,22042
301-631-5510,Frederick,,,,United States,,,Mon-Sat 9AM - 9PM Sun 10AM - 7PM ,FREDERICK,MD,,1305 W. Seventh Street,,21702
703-922-9566,Alexandria,,,,United States,,,Mon-Sat 9AM - 9PM Sun 10AM - 6PM ,ALEXANDRIA (ROSE HILL),VA,,6120 Rose Hill Dr.,,22310
301-782-4598,Brandywine,,,,United States,,,Mon-Sat 9AM - 9PM Sun 10AM - 7PM ,BRANDYWINE,MD,,"15904 Crain Highway, Suite 6",,20613
804-477-3044,Richmond,,,,United States,,,Mon-Sat 9AM - 9PM Sun 10AM - 6PM ,WILLOW LAWN,VA,,1601 Willow Lawn Drive,,23230
804-308-2086,Richmond,,,,United States,,,Mon-Sat 9AM - 9PM Sun 10AM - 6PM ,STONY POINT,VA,,3036 Stony Point Road,,23235
804-360-0045,Henrico,,,,United States,,,Mon-Sat 9AM - 9PM Sun 10AM - 6PM ,HENRICO,VA,,11839 West Broad Street,,23233
301-475-6980,Leonardtown,,,,United States,,,Mon-Sat 9AM - 9PM Sun 10AM - 7PM ,LEONARDTOWN,MD,,40845 Merchants Lane Suite 100,,20650
302-907-0770,Delmar,,,,United States,,,Mon-Sat 9AM - 9PM Sun 10AM - 6PM ,DELMAR,DE,,38661 Sussex Highway,,19940
216-417-8918,Shaker Heights,,,,United States,,,Mon-Sat 9AM - 9PM Sun 10AM - 6PM ,SHAKER HEIGHTS,OH,,16675 Chagrin Blvd,,44120
440-340-5856,Parma,,,,United States,,,Mon-Sat 9AM - 9PM Sun 10AM - 6PM ,PARMA,OH,,7651 W. Ridgewood Drive,,44129
440-234-7400,Berea,,,,United States,,,Mon-Sat 9AM - 9PM Sun 10AM - 6PM ,BEREA,OH,,"449 W Bagley Road, Unit 23",,44017
440-630-9370,Brecksville,,,,United States,,,Mon-Sat 9AM - 9PM Sun 10AM - 6PM ,BRECKSVILLE,OH,,8249 Chippewa Road,,44141
440-641-1000,North Olmstead,,,,United States,,,Mon-Sat 9AM - 9PM Sun 10AM - 6PM ,NORTH OLMSTEAD,OH,,27246 Lorain Rd,,44070
440-412-4193,North Ridgeville,,,,United States,,,Mon-Sat 9AM - 9PM Sun 10AM - 6PM ,NORTH RIDGEVILLE,OH,,34282 Center Ridge Road,,44039
330-963-3000,Twinsburg,,,,United States,,,Mon-Sat 9AM - 9PM Sun 10AM - 6PM ,TWINSBURG,OH,,"8928 Darrow Road, Suite D101",,44087
440-307-9039,Madison,,,,United States,,,Mon-Sat 9AM - 9PM Sun 10AM - 6PM ,MADISON,OH,,2579 Walter Green Commons Drive,,44057
330-587-4753,Hartville,,,,United States,,,Mon-Sat 9AM - 9PM Sun 10AM - 6PM ,HARTVILLE,OH,,881 W Maple St,,44632
330-601-0729,Wooster,,,,United States,,,Mon-Sat 9AM - 9PM Sun 10AM - 6PM ,WOOSTER,OH,,"4369 Burbank Road, Unit 10",,44691
703-451-1647,Springfield,,,,United States,,,Mon-Sat 9AM - 9PM Sun 10AM - 6PM ,SPRINGFIELD,VA,,6422 Springfield Plaza,,22150
703-865-4546,Fairfax,,,,United States,,,Mon-Sat 9AM - 9PM Sun 10AM - 6PM ,FAIRFAX,VA,,3069 Nutley Street,,22031
703-341-6831,Alexandria,,,,United States,,,Mon-Sat 9AM - 9PM Sun 10AM - 6PM ,ALEXANDRIA (HILLTOP),VA,,7875 Heneska Loop,,22315
703-476-7207,Reston,,,,United States,,,Mon-Sat 9AM - 9PM Sun 10AM - 6PM ,RESTON,VA,,11160-e South Lakes Drive,,20191
703-372-1553,Lorton,,,,United States,,,Mon-Sat 9AM - 9PM Sun 10AM - 7PM ,LORTON,VA,,"9427 Lorton Market Street, Suite 7",,22079
571-313-1816,Reston,,,,United States,,,Mon-Sat 9AM - 9PM Sun 10AM - 6PM ,RESTON- NORTH POINT,VA,,1442 North Point Village Center,,20194
703-266-3696,Clifton,,,,United States,,,Mon-Sat 9AM - 9PM Sun 10AM - 6PM ,CLIFTON VA,VA,,5750 Union Road,,20124
571-408-4129,Lake Ridge,,,,United States,,,Mon-Sat 9AM - 9PM Sun 10AM - 6PM ,LAKE RIDGE,VA,,2231/2233 Old Bridge Road,,22192
571-208-1726,Manassas,,,,United States,,,Mon-Sat 9AM - 9PM Sun 10AM - 7PM ,MANASSAS,VA,,10079 Market Circle,,20110
571-367-2057,Chantilly,,,,United States,,,Mon-Sat 9AM - 9PM Sun 10AM - 6PM ,CHANTILLY,VA,,24995 Riding Plaza,,20151
703-726-3027,Ashburn,,,,United States,,,Mon-Sat 9AM - 9PM Sun 10AM - 6PM ,ASHBURN,VA,,"42780 Creek View Plaza, Suite 115",,20147
703-330-7203,Bristow,,,,United States,,,Mon-Sat 9AM - 9PM Sun 10AM - 6PM ,BRISTOW CENTER,VA,,10342 Bristow Center Dr.,,20136
571-261-3015,Gainsville,,,,United States,,,Mon-Sat 9AM - 9PM Sun 10AM - 6PM ,GAINSVILLE,VA,,"8061 Stonewall Shops Square, Space 320 (E-5)",,20155
540-441-7637,Purcellville,,,,United States,,,Mon-Sat 9AM - 9PM Sun 10AM - 6PM ,PURCELLVILLE,VA,,120 Purcellville Gateway Dr AB,,20132
606-759-9828,Maysville,,,,United States,,,Mon-Sat 9AM - 9PM Sun 10AM - 6PM ,MAYSVILLE,KY,,417 Market Square Drive,,41056
412-315-7387,Pittsburgh,,,,United States,,,Mon-Sat 9AM - 9PM Sun 10AM - 6PM ,SOUTHSIDE (PITTSBURGH),PA,,2738 Sidney Street,,15203
412-366-2691,Pittsburgh,,,,United States,,,Mon-Sat 9AM - 9PM Sun 10AM - 6PM ,MCCANDLESS,PA,,"9190 Covenant Ave, Bldg A1",,15237
724-939-7296,Allison Park,,,,United States,,,Mon-Sat 9AM - 9PM Sun 10AM - 6PM ,ALLISON PARK,PA,,4960 William Flynn Hwy,,15101
724-299-3981,McMurray,,,,United States,,,Mon-Sat 9AM - 9PM Sun 10AM - 6PM ,MCMURRAY,PA,,3563 Washington Road,,15317
724-799-8788,Wexford,,,,United States,,,Mon-Sat 9AM - 9PM Sun 10AM - 6PM ,WEXFORD,PA,,12001 Perry Highway,,15090
724-392-7196,Jeannette,,,,United States,,,Mon-Sat 9AM - 9PM Sun 10AM - 6PM ,JEANNETTE,PA,,2036 Penny Lane,,15644
724-542-4738,Mt. Pleasant,,,,United States,,,Mon-Sat 9AM - 9PM Sun 10AM - 6PM ,MT PLEASANT,PA,,"2214 Summit Ridge Plaza, Unit 3",,15666
724-686-3331,Latrobe,,,,United States,,,Mon-Sat 9AM - 9PM Sun 10AM - 6PM ,LATROBE,PA,,2601 Sharky's Drive,,15650
304-381-4296,Morgantown,,,,United States,,,Mon-Sat 9AM - 9PM Sun 10AM - 6PM ,MORGANTOWN,WV,,418 Suncrest Towne Centre Drive,,26505
567-952-2132,Waterville,,,,United States,,,Mon-Sat 9AM - 9PM Sun 10AM - 6PM ,WATERVILLE,OH,,1067 Pray Blvd,,43566
419-425-3400,Findlay,,,,United States,,,Mon-Sat 9AM - 9PM Sun 10AM - 7PM ,FINDLAY,OH,,1125 Trenton Ave,,45840
908-725-2080,Branchburg,,,,United States,,,Mon-Sat 9AM - 9PM Sun 10AM - 7PM ,BRANCHBURG,NJ,,3150 US Highway 22,,08876
908-281-9949,Hillsborough,,,,United States,,,Mon-Sat 9AM - 9PM Sun 10AM - 7PM ,HILLSBOROUGH,NJ,,601 Route 206,,08844
908-850-9922,Hackettstown,,,,United States,,,Mon-Sat 9AM - 9PM Sun 10AM - 7PM ,HACKETTSTOWN,NJ,,1930 Route 57,,07840
859-371-1133,Florence,,,,United States,,,Mon-Sat 9AM - 9PM Sun 10AM - 7PM ,FLORENCE,KY,,1336 Hansel Avenue,,41042
513-451-0011,Cincinnati,,,,United States,,,Mon-Sat 9AM - 9PM Sun 10AM - 7PM ,GLENWAY,OH,,5064 Glencrossing Way,,45238
859-371-1133,Florence,,,,United States,,,Mon-Sat 9AM - 9PM Sun 10AM - 7PM ,FLORENCE,KY,,1336 Hansel Avenue,,41042
513-791-8188,Cincinnati,,,,United States,,,Mon-Sat 9AM - 9PM Sun 10AM - 7PM ,DILLONVALE,OH,,3998 E. Galbraith Rd,,45236
513-752-7025,Cincinnati,,,,United States,,,Mon-Sat 9AM - 9PM Sun 10AM - 7PM ,EASTGATE,OH,,4394 Eastgate Square Dr,,45245
513-677-1101,Cincinnati,,,,United States,,,Mon-Sat 9AM - 9PM Sun 10AM - 7PM ,FIELDS ERTEL,OH,,9116 Union Cemetery Road,,45249
513-860-1908,West Chester Township,,,,United States,,,Mon-Sat 9AM - 9PM Sun 10AM - 7PM ,BECKETT,OH,,8144 Princeton Glendale Rd,,45069
513-727-8277,Middletown,,,,United States,,,Mon-Sat 9AM - 9PM Sun 10AM - 7PM ,MIDDLETOWN,OH,,541 S. Breiel Blvd,,45044
513-282-6800,Lebanon,,,,United States,,,Mon-Sat 9AM - 9PM Sun 10AM - 7PM ,LEBANON,OH,,1525 Genntown Dr,,45036
937-848-6090,Sugarcreek,,,,United States,,,Mon-Sat 9AM - 9PM Sun 10AM - 7PM ,SUGARCREEK,OH,,6220 Wilmington Pike,,45459
570-768-4038,Lewisburg,,,,United States,,,Mon-Sat 9AM - 9PM Sun 10AM - 7PM ,LEWISBURG,PA,,7431 Westbranch Highway,,17837
937-459-4599,Greenville,,,,United States,,,Mon-Sat 9AM - 9PM Sun 10AM - 6PM ,GREENVILLE,OH,,1345 Wagner Ave,,45331
570-299-5295,Wyoming,,,,United States,,,Mon-Sat 9AM - 9PM Sun 10AM - 6PM ,WYOMING,PA,,1054 Wyoming Avenue,,18644
570-496-4345,Moosic,,,,United States,,,Mon-Sat 9AM - 9PM Sun 10AM - 7PM ,MOOSIC,PA,,2051 Shoppes Blvd.,,18507
570-317-2814,Bloomsburg,,,,United States,,,Mon-Sat 9AM - 9PM Sun 10AM - 7PM ,BLOOMSBURG,PA,,1005 Scott Town Center,,17815
570-647-4710,Honesdale,,,,United States,,,Mon-Sat 9AM - 9PM Sun 10AM - 7PM ,HONESDALE,PA,,650 Old Willow Ave,,18431
203-309-5157,Darien,,,,United States,,,Mon-Sat 9AM - 9PM Sun 10AM - 7PM ,DARIEN,CT,,25 Old Kings Hwy North,,06820
203-920-1220,New Canaan,,,,United States,,,Mon-Sat 9AM - 9PM Sun 10AM - 6PM ,NEW CANAAN,CT,,21 Forest Street,,06840
203-939-1833,Norwalk,,,,United States,,,Mon-Sat 9AM - 9PM Sun 10AM - 7PM ,NORWALK,CT,,55 Westport Ave.,,06851
203-894-5271,Ridgefield,,,,United States,,,Mon-Sat 9AM - 9PM Sun 10AM - 7PM ,RIDGEFIELD,CT,,"125 Danbury Rd, Space 6",,06877
567-307-7128,Mansfield,,,,United States,,,Mon-Sat 9AM - 9PM Sun 10AM - 6PM ,MANSFIELD,OH,,1036 Ashland Road,,44905
203-456-3971,Danbury,,,,United States,,,Mon-Sat 9AM - 9PM Sun 10AM - 7PM ,DANBURY,CT,,115 Mill Plain Rd,,06810
860-926-4006,Tolland,,,,United States,,,Mon-Sat 9AM - 9PM Sun 10AM - 7PM ,TOLLAND,CT,,33 Fieldstone Commons,,06084
860-823-1046,Norwich,,,,United States,,,Mon-Sat 9AM - 9PM Sun 10AM - 7PM ,NORWICH,CT,,"624 West Main Street, #120",,06360
860-206-4676,West Hartford,,,,United States,,,Mon-Sat 9AM - 9PM Sun 10AM - 7PM ,WEST HARTFORD,CT,,345 North Main Street,,06117
860-326-5118,Groton,,,,United States,,,Mon-Sat 9AM - 9PM Sun 10AM - 7PM ,GROTON,CT,,220 Route 12,,06340
717-617-2601,Willow St,,,,United States,,,Mon-Sat 9AM - 9PM Sun 10AM - 6PM ,WILLOW STREET,PA,,"2600 Willow St N #312, Suite 9",,17584
717-626-3355,Lititz,,,,United States,,,Mon-Sat 9AM - 9PM Sun 10AM - 6PM ,LITITZ,PA,,1024 Lititz Pike,,17543
717-738-4003,Ephrata,,,,United States,,,Mon-Sat 9AM - 9PM Sun 10AM - 6PM ,EPHRATA,PA,,120 North Reading Road,,17522
610-857-0892,Parkesburg,,,,United States,,,Mon-Sat 9AM - 9PM Sun 10AM - 6PM ,PARKESBURG,PA,,408 Commons Dr.,,19365
717-272-1530,Lebanon,,,,United States,,,Mon-Sat 9AM - 9PM Sun 10AM - 6PM ,LEBANON,PA,,1729 Quentin Highway,,17042
717-793-2161,York,,,,United States,,,Mon-Sat 9AM - 9PM Sun 10AM - 6PM ,YORK -MARKETPLACE,PA,,2533 East Market Street,,17402
717-885-0838,York,,,,United States,,,Mon-Sat 9AM - 9PM Sun 10AM - 6PM ,YORK,PA,,1919 Springwood Road,,17403
717-473-5115,Palmyra,,,,United States,,,Mon-Sat 9AM - 9PM Sun 10AM - 6PM ,PALMYRA,PA,,"901 E. Main Street, Suite 5",,17078
610-816-5115,Sinking Springs,,,,United States,,,Mon-Sat 9AM - 9PM Sun 10AM - 6PM ,SINKING SPRINGS,PA,,2645 Shillington Road,,19608
610-286-1044,Elverson,,,,United States,,,Mon-Sat 9AM - 9PM Sun 10AM - 6PM ,ELVERSON,PA,,212 Crossings Blvd,,19520
717-566-2494,Hummelstown,,,,United States,,,Mon-Sat 9AM - 9PM Sun 10AM - 6PM ,HUMMELSTOWN,PA,,261 Hershey Road,,17036
717-932-6841,Etters,,,,United States,,,Mon-Sat 9AM - 9PM Sun 10AM - 6PM ,ETTERS,PA,,172 Newberry Parkway,,17319
484-288-8488,Thorndale,,,,United States,,,Mon-Sat 9AM - 9PM Sun 10AM - 7PM ,THORNDALE,PA,,3469 E Lincoln Highway,,19372
610-524-1253,Exton,,,,United States,,,Mon-Sat 9AM - 9PM Sun 9AM - 6PM ,LIONVILLE,PA,,144 Eagleview Blvd.,,19341
610-925-0721,Kennett Square,,,,United States,,,Mon-Sat 9AM - 9PM Sun 10AM - 6PM ,KENNETT SQUARE,PA,,817 East Baltimore Pike,,19348
717-737-5192,Lemoyne,,,,United States,,,Mon-Sat 9AM - 9PM Sun 10AM - 6PM ,LEMOYNE,PA,,1200 Market Street,,17043
717-540-1285,Harrisburg,,,,United States,,,Mon-Sat 9AM - 9PM Sun 10AM - 6PM ,HARRISBURG,PA,,2302 Linglestown Road,,17110
302-239-5290,Hockessin,,,,United States,,,Mon-Sat 9AM - 9PM Sun 10AM - 6PM ,HOCKESSIN,DE,,160 Lantana Dr,,19707
717-732-1958,Enola,,,,United States,,,Mon-Sat 9AM - 9PM Sun 10AM - 6PM ,ENOLA,PA,,384 East Penn Drive,,17025
717-766-4851,Mechanicsburg,,,,United States,,,Mon-Sat 9AM - 9PM Sun 10AM - 6PM ,MECHANICSBURG,PA,,6455 Carlisle Pike,,17050
484-320-8872,Frazer,,,,United States,,,Mon-Sat 9AM - 9PM Sun 10AM - 6PM ,FRAZER,PA,,215 Lancaster Avenue,,19355
302-525-6322,Newark,,,,United States,,,Mon-Sat 9AM - 9PM Sun 10AM - 6PM ,NEWARK,DE,,604 Plaza Drive,,19702
610-369-1770,Gilbertsville,,,,United States,,,Mon-Sat 9AM - 9PM Sun 10AM - 7PM ,GILBERTSVILLE,PA,,1050 East Philadelphia Ave,,19525
610-792-9294,Royersford,,,,United States,,,Mon-Sat 9AM - 9PM Sun 10AM - 6PM ,ROYERSFORD,PA,,70 Buckwalter Road,,19468
302-502-2595,Greenville,,,,United States,,,Mon-Sat 9AM - 9PM Sun 10AM - 6PM ,GREENVILLE,DE,,3801 Kennett Pike,,19807
484-840-8150,Glen Mills,,,,United States,,,Mon-Sat 9AM - 9PM Sun 10AM - 6PM ,GLEN MILLS,PA,,477 Wilmington West Chester Pike,,19342
203-894-5271,Ridgefield,,,,United States,,,Mon-Sat 9AM - 9PM Sun 10AM - 7PM ,RIDGEFIELD,CT,,"125 Danbury Rd, Space 6",,06877
203-208-1690,Branford,,,,United States,,,Mon-Sat 9AM - 9PM Sun 10AM - 7PM ,BRANFORD,CT,,1061 W Main St Unit 12,,06405
203-586-1111,Southbury,,,,United States,,,Mon-Sat 9AM - 9PM Sun 10AM - 7PM ,SOUTHBURY,CT,,100 Main St North,,06488
631-285-3708,South Setauket,,,,United States,,,Mon-Sat 9AM - 9PM Sun 10AM - 7PM ,SETAUKET,NY,,256 Pond Path,,11720
631-257-5092,Hauppauge,,,,United States,,,Mon-Sat 9AM - 9PM Sun 10AM - 7PM ,HAUPPAUGE,NY,,381 Nesconset Hwy,,11788
203-533-5072,Guilford,,,,United States,,,Mon-Sat 9AM - 9PM Sun 10AM - 7PM ,GUILFORD,CT,,"1069 Boston Post Road, US Hwy 1",,06437
860-635-4551,Cromwell,,,,United States,,,Mon-Sat 9AM - 9PM Sun 10AM - 7PM ,CROMWELL,CT,,"51 Shunpike Rd., suite 21",,06416
860-436-5590,Newington,,,,United States,,,Mon-Fri 9AM - 9PM Sat 8AM - 9PM Sun 9AM - 8PM ,NEWINGTON,CT,,3475 Berlin Turnpike,,06111
860-661-5194,Old Saybrook,,,,United States,,,Mon-Sat 9AM - 9PM Sun 10AM - 7PM ,OLD SAYBROOK,CT,,28 Spencer Plain RD,,06475
860-206-3704,West Hartford,,,,United States,,,Mon-Sat 9AM - 9PM Sun 10AM - 7PM ,WEST HARTFORD,CT,,1493 New Britain Ave,,06110
860-217-0285,Simsbury,,,,United States,,,Mon-Sat 9AM - 9PM Sun 10AM - 7PM ,AVON,CT,,530R Bushy Hill RD,,06070
