store_name,store_number,address,address2,city,state,zip_code,country,phone_number,latitude,longitude,store_hours,store_type,other_fields,coming_soon
Poplar/Highland,2075,3455 Poplar Avenue,,Memphis,TN,38111-4654,USA,(901) 323-5300,35.127687,-89.946692,"Monday 12:00 AM - 12:00 AM, Tuesday 12:00 AM - 12:00 AM, Wednesday 12:00 AM - 12:00 AM, Thursday 12:00 AM - 12:00 AM, Friday 12:00 AM - 12:00 AM, Saturday 12:00 AM - 12:00 AM, Sunday 12:00 AM - 12:00 AM",,,
Memphis &#8211 Park Ave.,2274,5112 Park Avenue,,Memphis,TN,38117,USA,(901) 682-2777,35.106871,-89.891519,"Monday 6:00 AM - 11:00 PM, Tuesday 6:00 AM - 11:00 PM, Wednesday 6:00 AM - 11:00 PM, Thursday 6:00 AM - 11:00 PM, Friday 6:00 AM - 11:00 PM, Saturday 6:00 AM - 11:00 PM, Sunday 6:00 AM - 11:00 PM",,,
Germantown,2136,1340 So Germantown Pkwy,,Germantown,TN,38138-2226,USA,(901) 759-5938,35.112379,-89.801593,"Monday 6:00 AM - 11:00 PM, Tuesday 6:00 AM - 11:00 PM, Wednesday 6:00 AM - 11:00 PM, Thursday 6:00 AM - 11:00 PM, Friday 6:00 AM - 11:00 PM, Saturday 6:00 AM - 11:00 PM, Sunday 6:00 AM - 11:00 PM",,,
Collierville,2351,960 W. Poplar Avenue,,Collierville,TN,38017-2546,USA,(901) 850-0499,35.046712,-89.69398,"Monday 6:00 AM - 11:00 PM, Tuesday 6:00 AM - 11:00 PM, Wednesday 6:00 AM - 11:00 PM, Thursday 6:00 AM - 11:00 PM, Friday 6:00 AM - 1:00 AM, Saturday 6:00 AM - 1:00 AM, Sunday 6:00 AM - 11:00 PM",,,
Blytheville,2134,1121 E Main St,,Blytheville,AR,72315,USA,(870) 763-6797,35.928262,-89.880352,"Monday 5:30 AM - 11:00 PM, Tuesday 5:30 AM - 11:00 PM, Wednesday 5:30 AM - 11:00 PM, Thursday 5:30 AM - 11:00 PM, Friday 5:30 AM - 11:00 PM, Saturday 5:30 AM - 11:00 PM, Sunday 5:30 AM - 11:00 PM",,,
Jackson,2307,999 Vann Dr.,,Jackson,TN,38305-2093,USA,(731) 661-9224,35.669984,-88.857484,"Monday 6:00 AM - 11:00 PM, Tuesday 6:00 AM - 11:00 PM, Wednesday 6:00 AM - 11:00 PM, Thursday 6:00 AM - 11:00 PM, Friday 6:00 AM - 1:00 AM, Saturday 6:00 AM - 1:00 AM, Sunday 6:00 AM - 11:00 PM",,,
Milan,2233,15301 South 1st Street,,Milan,TN,38358,USA,(731) 686-0222,35.878836,-88.746087,"Monday 6:00 AM - 10:00 PM, Tuesday 6:00 AM - 10:00 PM, Wednesday 6:00 AM - 10:00 PM, Thursday 6:00 AM - 10:00 PM, Friday 6:00 AM - 11:00 PM, Saturday 6:00 AM - 11:00 PM, Sunday 6:00 AM - 10:00 PM",,,
"Springfield, MO",2376,729 W. Sunshine St,,Springfield,MO,65807-2439,USA,(417) 864-8400,37.18266,-93.301474,"Monday 6:00 AM - 11:00 PM, Tuesday 6:00 AM - 11:00 PM, Wednesday 6:00 AM - 11:00 PM, Thursday 6:00 AM - 11:00 PM, Friday 6:00 AM - 12:00 AM, Saturday 6:00 AM - 12:00 AM, Sunday 6:00 AM - 11:00 PM",,,
Jefferson City,2377,1722 Jefferson Street,,Jefferson City,MO,65109-2011,USA,(573) 636-2430,38.555916,-92.195775,"Monday 6:00 AM - 10:00 PM, Tuesday 6:00 AM - 10:00 PM, Wednesday 6:00 AM - 10:00 PM, Thursday 6:00 AM - 10:00 PM, Friday 6:00 AM - 12:00 AM, Saturday 6:00 AM - 12:00 AM, Sunday 6:00 AM - 10:00 PM",,,
Sedalia,2378,1100 South Limit Ave,,Sedalia,MO,65301-3655,USA,(660) 826-1491,38.702152,-93.251077,"Monday 5:30 AM - 11:00 PM, Tuesday 5:30 AM - 11:00 PM, Wednesday 5:30 AM - 11:00 PM, Thursday 5:30 AM - 11:00 PM, Friday 5:30 AM - 11:00 PM, Saturday 5:30 AM - 11:00 PM, Sunday 5:30 AM - 11:00 PM",,,
Decatur &#8211 Monroe St.,2410,2999 N Monroe St.,,Decatur,IL,62526-3265,USA,(217) 875-0743,39.87638,-88.964434,"Monday 6:00 AM - 12:00 AM, Tuesday 6:00 AM - 12:00 AM, Wednesday 6:00 AM - 12:00 AM, Thursday 6:00 AM - 12:00 AM, Friday 12:00 AM - 12:00 AM, Saturday 12:00 AM - 12:00 AM, Sunday 6:00 AM - 12:00 AM",,,
Lees Summit,2392,1001 S E Hamblen Road,,Lees Summit,MO,64081-2937,USA,(816) 525-0663,38.901989,-94.362661,"Monday 5:30 AM - 12:00 AM, Tuesday 5:30 AM - 12:00 AM, Wednesday 5:30 AM - 12:00 AM, Thursday 5:30 AM - 12:00 AM, Friday 12:00 AM - 2:00 AM, Saturday 12:00 AM - 2:00 AM, Sunday 5:30 AM - 12:00 AM",,,
Urbana,2371,1214 West University Ave,,Urbana,IL,61801-2338,USA,(217) 328-3000,40.116638,-88.225434,"Monday 12:00 AM - 12:00 AM, Tuesday 12:00 AM - 12:00 AM, Wednesday 12:00 AM - 12:00 AM, Thursday 12:00 AM - 12:00 AM, Friday 12:00 AM - 12:00 AM, Saturday 12:00 AM - 12:00 AM, Sunday 12:00 AM - 12:00 AM",,,
Independence,2223,3939 S. Bolger Rd.,,Independence,MO,64055,USA,(816) 478-0444,39.046639,-94.364105,"Monday 6:00 AM - 11:00 PM, Tuesday 6:00 AM - 11:00 PM, Wednesday 6:00 AM - 11:00 PM, Thursday 6:00 AM - 11:00 PM, Friday 12:00 AM - 12:00 AM, Saturday 12:00 AM - 12:00 AM, Sunday 6:00 AM - 11:00 PM",,,
Olathe &#8211 E. Santa Fe,2413,1828 E Santa Fe St.,,Olathe,KS,66062-1613,USA,(913) 764-7288,38.884116,-94.787242,"Monday 6:00 AM - 12:00 AM, Tuesday 6:00 AM - 12:00 AM, Wednesday 6:00 AM - 12:00 AM, Thursday 6:00 AM - 12:00 AM, Friday 12:00 AM - 12:00 AM, Saturday 12:00 AM - 12:00 AM, Sunday 6:00 AM - 12:00 AM",,,
Gardner,2217,2000 E. Santa Fe,,Gardner,KS,66030,USA,(913) 884-4700,38.811149,-94.888053,"Monday 5:30 AM - 12:00 AM, Tuesday 5:30 AM - 12:00 AM, Wednesday 5:30 AM - 12:00 AM, Thursday 12:00 AM - 12:00 AM, Friday 12:00 AM - 12:00 AM, Saturday 12:00 AM - 12:00 AM, Sunday 5:30 AM - 12:00 AM",,,
"Lenexa, KS",2407,11200 West 87th Street,,Lenexa,KS,66215,USA,(913) 495-2568,38.971105,-94.74932,"Monday 6:00 AM - 12:00 AM, Tuesday 6:00 AM - 12:00 AM, Wednesday 6:00 AM - 12:00 AM, Thursday 6:00 AM - 12:00 AM, Friday 12:00 AM - 12:00 AM, Saturday 12:00 AM - 12:00 AM, Sunday 6:00 AM - 12:00 AM",,,
Liberty &#8211 Hwy 291,2409,100 N 291 Hwy,,Liberty,MO,64068-1038,USA,(816) 781-0355,39.244962,-94.444311,"Monday 5:30 AM - 12:00 AM, Tuesday 5:30 AM - 12:00 AM, Wednesday 5:30 AM - 12:00 AM, Thursday 5:30 AM - 12:00 AM, Friday 12:00 AM - 12:00 AM, Saturday 12:00 AM - 12:00 AM, Sunday 5:30 AM - 12:00 AM",,,
Gladstone &#8211 N. Oak,2419,6292 North Oak St.,,Gladstone,MO,64118-2234,USA,(816) 452-3650,39.207861,-94.57685,"Monday 12:00 AM - 12:00 AM, Tuesday 12:00 AM - 12:00 AM, Wednesday 12:00 AM - 12:00 AM, Thursday 12:00 AM - 12:00 AM, Friday 12:00 AM - 12:00 AM, Saturday 12:00 AM - 12:00 AM, Sunday 12:00 AM - 12:00 AM",,,
Dandridge,2130,"501 Patriot Dr., P.O. Box 945",,Dandridge,TN,37725-0945,USA,(865) 397-8903,36.038691,-83.443241,"Monday 6:00 AM - 12:00 AM, Tuesday 6:00 AM - 12:00 AM, Wednesday 6:00 AM - 12:00 AM, Thursday 6:00 AM - 12:00 AM, Friday 12:00 AM - 12:00 AM, Saturday 12:00 AM - 12:00 AM, Sunday 6:00 AM - 12:00 AM",,,
Peoria,2384,1810 W War Memorial Dr,,Peoria,IL,61614-6728,USA,(309) 682-8616,40.735983,-89.6215,"Monday 6:00 AM - 12:00 AM, Tuesday 6:00 AM - 12:00 AM, Wednesday 6:00 AM - 12:00 AM, Thursday 6:00 AM - 12:00 AM, Friday 12:00 AM - 12:00 AM, Saturday 12:00 AM - 12:00 AM, Sunday 6:00 AM - 12:00 AM",,,
Lawrence,2116,1711 W 23rd Street,,Lawrence,KS,66046-2745,USA,(785) 842-9040,38.942371,-95.255548,"Monday 12:00 AM - 12:00 AM, Tuesday 12:00 AM - 12:00 AM, Wednesday 12:00 AM - 12:00 AM, Thursday 12:00 AM - 12:00 AM, Friday 12:00 AM - 12:00 AM, Saturday 12:00 AM - 12:00 AM, Sunday 12:00 AM - 12:00 AM",,,
Burlington &#8211 Agency Rd.,2420,3300 Agency Rd,,Burlington,IA,52601-1966,USA,(319) 753-6581,40.815687,-91.142117,"Monday 6:00 AM - 12:00 AM, Tuesday 6:00 AM - 12:00 AM, Wednesday 6:00 AM - 12:00 AM, Thursday 6:00 AM - 12:00 AM, Friday 12:00 AM - 12:00 AM, Saturday 12:00 AM - 12:00 AM, Sunday 6:00 AM - 12:00 AM",,,
Galesburg,2379,1850 N. Henderson Street,,Galesburg,IL,61401-1323,USA,(309) 344-5498,40.970355,-90.383546,"Monday 6:00 AM - 12:00 AM, Tuesday 6:00 AM - 12:00 AM, Wednesday 6:00 AM - 12:00 AM, Thursday 6:00 AM - 12:00 AM, Friday 6:00 AM - 12:00 AM, Saturday 6:00 AM - 12:00 AM, Sunday 6:00 AM - 12:00 AM",,,
Hamilton Township,3690,13316 Tegler Drive,,Noblesville,IN,46060,USA,(317) 773-8210,39.996031,-85.927687,"Monday 6:00 AM - 10:00 PM, Tuesday 6:00 AM - 10:00 PM, Wednesday 6:00 AM - 10:00 PM, Thursday 6:00 AM - 10:00 PM, Friday 6:00 AM - 11:00 PM, Saturday 6:00 AM - 11:00 PM, Sunday 6:00 AM - 10:00 PM",,,
Noblesville,2284,250 Noble Creek Dr.,,Noblesville,IN,46060-3116,USA,(317) 776-2800,40.04285,-85.995925,"Monday 6:00 AM - 9:00 PM, Tuesday 6:00 AM - 9:00 PM, Wednesday 6:00 AM - 9:00 PM, Thursday 6:00 AM - 9:00 PM, Friday 6:00 AM - 9:00 PM, Saturday 6:00 AM - 9:00 PM, Sunday 7:00 AM - 9:00 PM",,,
Cincinnati &#8211 Western Hills,2206,3360 Westbourne Drive,,Cincinnati,OH,45248,USA,(513) 574-3720,39.147687,-84.628049,"Monday 6:00 AM - 11:00 PM, Tuesday 6:00 AM - 11:00 PM, Wednesday 6:00 AM - 11:00 PM, Thursday 6:00 AM - 11:00 PM, Friday 12:00 AM - 12:00 AM, Saturday 12:00 AM - 12:00 AM, Sunday 6:00 AM - 11:00 PM",,,
Ponca City,2373,2125 N 14th St,,Ponca City,OK,74601-1830,USA,(580) 762-0027,36.728843,-97.066864,"Monday 6:00 AM - 10:00 PM, Tuesday 6:00 AM - 10:00 PM, Wednesday 6:00 AM - 10:00 PM, Thursday 6:00 AM - 10:00 PM, Friday 12:00 AM - 12:00 AM, Saturday 12:00 AM - 12:00 AM, Sunday 6:00 AM - 10:00 PM",,,
St Joseph &#8211 Frederick Avenue,2428,3901 Frederick Avenue,,Saint Joseph,MO,64506-3022,USA,(816) 364-6188,39.777293,-94.798517,"Monday 12:00 AM - 12:00 AM, Tuesday 12:00 AM - 12:00 AM, Wednesday 12:00 AM - 12:00 AM, Thursday 12:00 AM - 12:00 AM, Friday 12:00 AM - 12:00 AM, Saturday 12:00 AM - 12:00 AM, Sunday 12:00 AM - 12:00 AM",,,
Cincinnati &#8211 N. College Hills,2170,7108 Hamilton Avenue,,Cincinnati,OH,45231-5219,USA,(513) 728-2170,39.223194,-84.548468,"Monday 6:00 AM - 11:00 PM, Tuesday 6:00 AM - 11:00 PM, Wednesday 6:00 AM - 11:00 PM, Thursday 6:00 AM - 11:00 PM, Friday 6:00 AM - 12:00 AM, Saturday 6:00 AM - 12:00 AM, Sunday 6:00 AM - 11:00 PM",,,
Topeka,2316,1720 SW Wanamaker Rd.,,Topeka,KS,66604-3813,USA,(785) 273-0300,39.035207,-95.761564,"Monday 6:00 AM - 11:00 PM, Tuesday 6:00 AM - 11:00 PM, Wednesday 6:00 AM - 11:00 PM, Thursday 6:00 AM - 11:00 PM, Friday 6:00 AM - 1:00 AM, Saturday 6:00 AM - 1:00 AM, Sunday 6:00 AM - 11:00 PM",,,
Anderson,2214,5033 Scatterfield Rd.,,Anderson,IN,46013-2913,USA,(765) 642-2332,40.063067,-85.653421,"Monday 6:00 AM - 11:00 PM, Tuesday 6:00 AM - 11:00 PM, Wednesday 6:00 AM - 11:00 PM, Thursday 6:00 AM - 11:00 PM, Friday 12:00 AM - 12:00 AM, Saturday 12:00 AM - 12:00 AM, Sunday 6:00 AM - 11:00 PM",,,
Fairfield,2148,745 Nilles Road,,Fairfield,OH,45014-3603,USA,(513) 939-1819,39.337074,-84.555254,"Monday 6:00 AM - 11:00 PM, Tuesday 6:00 AM - 11:00 PM, Wednesday 6:00 AM - 11:00 PM, Thursday 6:00 AM - 11:00 PM, Friday 6:00 AM - 11:00 PM, Saturday 6:00 AM - 11:00 PM, Sunday 6:00 AM - 11:00 PM",,,
West Chester &#8211 Tylersville Rd,2181,7412 Tylersville Rd,,West Chester,OH,45069-2552,USA,(513) 777-6051,39.354557,-84.371692,"Monday 6:00 AM - 11:00 PM, Tuesday 6:00 AM - 11:00 PM, Wednesday 6:00 AM - 11:00 PM, Thursday 6:00 AM - 11:00 PM, Friday 6:00 AM - 12:00 AM, Saturday 6:00 AM - 12:00 AM, Sunday 6:00 AM - 11:00 PM",,,
Kingsport,2319,4618 Fort Henry Drive,,Kingsport,TN,37663-2617,USA,(423) 239-4225,36.476799,-82.49221,"Monday 12:00 AM - 12:00 AM, Tuesday 12:00 AM - 12:00 AM, Wednesday 12:00 AM - 12:00 AM, Thursday 12:00 AM - 12:00 AM, Friday 12:00 AM - 12:00 AM, Saturday 12:00 AM - 12:00 AM, Sunday 12:00 AM - 12:00 AM",,,
Johnson City,2192,2608 N Roan St,,Johnson City,TN,37601,USA,(423) 282-6321,36.353084,-82.381065,"Monday 12:00 AM - 12:00 AM, Tuesday 12:00 AM - 12:00 AM, Wednesday 12:00 AM - 12:00 AM, Thursday 12:00 AM - 12:00 AM, Friday 12:00 AM - 12:00 AM, Saturday 12:00 AM - 12:00 AM, Sunday 12:00 AM - 12:00 AM",,,
Miamisburg &#8211 Dayton,2191,175 Byers Road,,Miamisburg,OH,45342-3612,USA,(937) 866-2799,39.638908,-84.235003,"Monday 12:00 AM - 12:00 AM, Tuesday 12:00 AM - 12:00 AM, Wednesday 12:00 AM - 12:00 AM, Thursday 12:00 AM - 12:00 AM, Friday 12:00 AM - 12:00 AM, Saturday 12:00 AM - 12:00 AM, Sunday 12:00 AM - 12:00 AM",,,
Englewood,2167,1235 South Main Street,,Englewood,OH,45322-2822,USA,(937) 836-2726,39.85998,-84.282617,"Monday 6:00 AM - 10:00 PM, Tuesday 6:00 AM - 10:00 PM, Wednesday 6:00 AM - 10:00 PM, Thursday 6:00 AM - 10:00 PM, Friday 6:00 AM - 12:00 AM, Saturday 6:00 AM - 12:00 AM, Sunday 6:00 AM - 10:00 PM",,,
Bristol,2110,102 E Bristol Rd.,,Bristol,VA,24202-5500,USA,(276) 669-7737,36.632026,-82.119328,"Monday 12:00 AM - 12:00 AM, Tuesday 12:00 AM - 12:00 AM, Wednesday 12:00 AM - 12:00 AM, Thursday 12:00 AM - 12:00 AM, Friday 12:00 AM - 12:00 AM, Saturday 12:00 AM - 12:00 AM, Sunday 12:00 AM - 12:00 AM",,,
Coralville &#8211 First Ave.,2466,819 1st Ave,,Coralville,IA,52241-2105,USA,(319) 351-1260,41.681309,-91.56518,"Monday 12:00 AM - 12:00 AM, Tuesday 12:00 AM - 12:00 AM, Wednesday 12:00 AM - 12:00 AM, Thursday 12:00 AM - 12:00 AM, Friday 12:00 AM - 12:00 AM, Saturday 12:00 AM - 12:00 AM, Sunday 12:00 AM - 12:00 AM",,,
McPherson,2329,2111 E Kansas Avenue,,McPherson,KS,67460-4838,USA,(620) 241-0983,38.371958,-97.628033,"Monday 6:00 AM - 10:00 PM, Tuesday 6:00 AM - 10:00 PM, Wednesday 6:00 AM - 10:00 PM, Thursday 6:00 AM - 10:00 PM, Friday 6:00 AM - 11:00 PM, Saturday 6:00 AM - 11:00 PM, Sunday 6:00 AM - 10:00 PM",,,
Cedar Rapids &#8211 Southgate,2472,3310 Southgate Court SW,,Cedar Rapids,IA,52404-5413,USA,(319) 365-0545,41.943788,-91.673285,"Monday 12:00 AM - 12:00 AM, Tuesday 12:00 AM - 12:00 AM, Wednesday 12:00 AM - 12:00 AM, Thursday 12:00 AM - 12:00 AM, Friday 12:00 AM - 12:00 AM, Saturday 12:00 AM - 12:00 AM, Sunday 12:00 AM - 12:00 AM",,,
Sidney,2327,1955 Michigan Street,,Sidney,OH,45365-9075,USA,(937) 492-3131,40.287824,-84.183523,"Monday 6:00 AM - 10:00 PM, Tuesday 6:00 AM - 10:00 PM, Wednesday 6:00 AM - 10:00 PM, Thursday 6:00 AM - 10:00 PM, Friday 6:00 AM - 12:00 AM, Saturday 6:00 AM - 12:00 AM, Sunday 6:00 AM - 10:00 PM",,,
Newton &#8211 W. 19th St.,2417,1505 W 19th St S,,Newton,IA,50208-6004,USA,(641) 792-1042,41.686404,-93.078413,"Monday 6:00 AM - 11:00 PM, Tuesday 6:00 AM - 11:00 PM, Wednesday 6:00 AM - 11:00 PM, Thursday 6:00 AM - 11:00 PM, Friday 12:00 AM - 12:00 AM, Saturday 12:00 AM - 12:00 AM, Sunday 6:00 AM - 11:00 PM",,,
Des Moines I &#8211 McKinley Ave.,2457,2000 SW McKinley Ave.,,Des Moines,IA,50315-4463,USA,(515) 285-2970,41.540658,-93.643069,"Monday 12:00 AM - 12:00 AM, Tuesday 12:00 AM - 12:00 AM, Wednesday 12:00 AM - 12:00 AM, Thursday 12:00 AM - 12:00 AM, Friday 12:00 AM - 12:00 AM, Saturday 12:00 AM - 12:00 AM, Sunday 12:00 AM - 12:00 AM",,,
Cedar Rapids II,2383,315 Collins Road NE,,Cedar Rapids,IA,52402-3118,USA,(319) 393-0202,42.027463,-91.633646,"Monday 12:00 AM - 12:00 AM, Tuesday 12:00 AM - 12:00 AM, Wednesday 12:00 AM - 12:00 AM, Thursday 12:00 AM - 12:00 AM, Friday 12:00 AM - 12:00 AM, Saturday 12:00 AM - 12:00 AM, Sunday 12:00 AM - 12:00 AM",,,
Des Moines II &#8211 Euclid Ave.,2456,2425 E Euclid Ave.,,Des Moines,IA,50317-3657,USA,(515) 266-2212,41.627394,-93.571721,"Monday 12:00 AM - 12:00 AM, Tuesday 12:00 AM - 12:00 AM, Wednesday 12:00 AM - 12:00 AM, Thursday 12:00 AM - 12:00 AM, Friday 12:00 AM - 12:00 AM, Saturday 12:00 AM - 12:00 AM, Sunday 12:00 AM - 12:00 AM",,,
Altoona,2216,2621 Adventureland Dr.,,Altoona,IA,50009,USA,(515) 957-9900,41.659825,-93.494118,"Monday 5:30 AM - 12:00 AM, Tuesday 5:30 AM - 12:00 AM, Wednesday 5:30 AM - 12:00 AM, Thursday 5:30 AM - 12:00 AM, Friday 12:00 AM - 12:00 AM, Saturday 12:00 AM - 12:00 AM, Sunday 12:00 AM - 12:00 AM",,,
West Des Moines,2364,1224 Jordan Creek Parkway,,West Des Moines,IA,50266-5825,USA,(515) 223-5716,41.587039,-93.809731,"Monday 6:00 AM - 12:00 AM, Tuesday 6:00 AM - 12:00 AM, Wednesday 6:00 AM - 12:00 AM, Thursday 6:00 AM - 12:00 AM, Friday 12:00 AM - 12:00 AM, Saturday 12:00 AM - 12:00 AM, Sunday 6:00 AM - 12:00 AM",,,
Des Moines IV &#8211 Hickman Rd.,2414,8601 Hickman Road,,Des Moines,IA,50322-4323,USA,(515) 276-9267,41.615492,-93.737255,"Monday 12:00 AM - 12:00 AM, Tuesday 12:00 AM - 12:00 AM, Wednesday 12:00 AM - 12:00 AM, Thursday 12:00 AM - 12:00 AM, Friday 12:00 AM - 12:00 AM, Saturday 12:00 AM - 12:00 AM, Sunday 12:00 AM - 12:00 AM",,,
South Bend,2331,423 S Dixie Highway,,South Bend,IN,46637-3323,USA,(574) 272-0655,41.593719,-86.259193,"Monday 6:00 AM - 10:00 PM, Tuesday 6:00 AM - 10:00 PM, Wednesday 6:00 AM - 10:00 PM, Thursday 6:00 AM - 10:00 PM, Friday 6:00 AM - 12:00 AM, Saturday 6:00 AM - 12:00 AM, Sunday 6:00 AM - 10:00 PM",,,
Des Moines III &#8211 Merle Hay Rd.,2441,4601 Merle Hay Rd.,,Des Moines,IA,50322-1962,USA,(515) 278-0468,41.64421,-93.696998,"Monday 12:00 AM - 12:00 AM, Tuesday 12:00 AM - 12:00 AM, Wednesday 12:00 AM - 12:00 AM, Thursday 12:00 AM - 12:00 AM, Friday 12:00 AM - 12:00 AM, Saturday 12:00 AM - 12:00 AM, Sunday 12:00 AM - 12:00 AM",,,
Ankeny,2226,714 SE Oralabor Road,,Ankeny,IA,50021,USA,(515) 965-6800,41.703419,-93.58832,"Monday 6:00 AM - 11:00 PM, Tuesday 6:00 AM - 11:00 PM, Wednesday 6:00 AM - 11:00 PM, Thursday 6:00 AM - 11:00 PM, Friday 12:00 AM - 12:00 AM, Saturday 12:00 AM - 12:00 AM, Sunday 6:00 AM - 11:00 PM",,,
Rockford,2393,6779 East State St,,Rockford,IL,61108-2515,USA,(815) 395-1190,42.26797,-88.984558,"Monday 12:00 AM - 12:00 AM, Tuesday 12:00 AM - 12:00 AM, Wednesday 12:00 AM - 12:00 AM, Thursday 12:00 AM - 12:00 AM, Friday 12:00 AM - 12:00 AM, Saturday 12:00 AM - 12:00 AM, Sunday 12:00 AM - 12:00 AM",,,
Marshalltown &#8211 S Center,2446,3102 South Center Street,,Marshalltown,IA,50158-4712,USA,(641) 753-4038,42.008449,-92.911801,"Monday 6:00 AM - 12:00 AM, Tuesday 6:00 AM - 12:00 AM, Wednesday 6:00 AM - 12:00 AM, Thursday 6:00 AM - 12:00 AM, Friday 12:00 AM - 12:00 AM, Saturday 12:00 AM - 12:00 AM, Sunday 6:00 AM - 12:00 AM",,,
Mason,2164,5579 St Rt 741,,Mason,OH,45040-2342,USA,(513) 398-0096,38.664368,-82.099519,"Monday 6:00 AM - 10:00 PM, Tuesday 6:00 AM - 10:00 PM, Wednesday 6:00 AM - 10:00 PM, Thursday 6:00 AM - 10:00 PM, Friday 6:00 AM - 11:00 PM, Saturday 6:00 AM - 11:00 PM, Sunday 6:00 AM - 10:00 PM",,,
Columbus (Hilliard),2166,1451 Rome Hilliard Road,,Columbus,OH,43228-9778,USA,(614) 870-7744,39.979757,-83.15134,"Monday 12:00 AM - 12:00 AM, Tuesday 12:00 AM - 12:00 AM, Wednesday 12:00 AM - 12:00 AM, Thursday 12:00 AM - 12:00 AM, Friday 12:00 AM - 12:00 AM, Saturday 12:00 AM - 12:00 AM, Sunday 12:00 AM - 12:00 AM",,,
Elkhart,2314,107 Northpointe Blvd.,,Elkhart,IN,46514-6716,USA,(574) 264-2541,41.734264,-85.974666,"Monday 6:00 AM - 10:00 PM, Tuesday 6:00 AM - 10:00 PM, Wednesday 6:00 AM - 10:00 PM, Thursday 6:00 AM - 10:00 PM, Friday 6:00 AM - 11:00 PM, Saturday 6:00 AM - 11:00 PM, Sunday 6:00 AM - 10:00 PM",,,
Dubuque,4009,2785 Plaza Drive,,Dubuque,IA,52003,USA,(563) 557-9262,42.523581,-90.740079,"Monday 6:00 AM - 12:00 AM, Tuesday 6:00 AM - 12:00 AM, Wednesday 6:00 AM - 12:00 AM, Thursday 6:00 AM - 12:00 AM, Friday 6:00 AM - 12:00 AM, Saturday 6:00 AM - 12:00 AM, Sunday 6:00 AM - 12:00 AM",,,
Ames &#8211 Duff Ave So.,2459,325 S Duff Ave.,,Ames,IA,50010-6643,USA,(515) 233-3648,42.019142,-93.61097,"Monday 12:00 AM - 12:00 AM, Tuesday 12:00 AM - 12:00 AM, Wednesday 12:00 AM - 12:00 AM, Thursday 12:00 AM - 12:00 AM, Friday 12:00 AM - 12:00 AM, Saturday 12:00 AM - 12:00 AM, Sunday 12:00 AM - 12:00 AM",,,
Delavan,2272,1312 E. Geneva St.,,Delavan,WI,53115,USA,(262) 740-1783,42.627038,-88.624904,"Monday 6:00 AM - 10:00 PM, Tuesday 6:00 AM - 10:00 PM, Wednesday 6:00 AM - 10:00 PM, Thursday 6:00 AM - 10:00 PM, Friday 6:00 AM - 11:00 PM, Saturday 6:00 AM - 11:00 PM, Sunday 6:00 AM - 10:00 PM",,,
Waterloo &#8211 University Ave.,2433,3280 University Ave.,,Waterloo,IA,50701-2004,USA,(319) 235-6595,42.501983,-92.38951,"Monday 12:00 AM - 12:00 AM, Tuesday 12:00 AM - 12:00 AM, Wednesday 12:00 AM - 12:00 AM, Thursday 12:00 AM - 12:00 AM, Friday 12:00 AM - 12:00 AM, Saturday 12:00 AM - 12:00 AM, Sunday 12:00 AM - 12:00 AM",,,
Kenosha,2270,11710 74th Place,,Kenosha,WI,53142,USA,(262) 857-9344,42.568114,-87.947978,"Monday 6:00 AM - 10:00 PM, Tuesday 6:00 AM - 10:00 PM, Wednesday 6:00 AM - 10:00 PM, Thursday 6:00 AM - 10:00 PM, Friday 6:00 AM - 11:00 PM, Saturday 6:00 AM - 11:00 PM, Sunday 6:00 AM - 10:00 PM",,,
Council Bluffs &#8211 So Expressway,2263,3250 South Expressway,,Council Bluffs,IA,51501-8268,USA,(712) 366-0585,41.229172,-95.852118,"Monday 6:00 AM - 11:00 PM, Tuesday 6:00 AM - 11:00 PM, Wednesday 6:00 AM - 11:00 PM, Thursday 6:00 AM - 11:00 PM, Friday 6:00 AM - 12:00 AM, Saturday 6:00 AM - 12:00 AM, Sunday 6:00 AM - 11:00 PM",,,
Janesville &#8211 U.S. Hwy. 14,2430,3315 Milton Avenue,,Janesville,WI,53545-0240,USA,(608) 755-1464,42.720903,-88.997339,"Monday 12:00 AM - 12:00 AM, Tuesday 12:00 AM - 12:00 AM, Wednesday 12:00 AM - 12:00 AM, Thursday 12:00 AM - 12:00 AM, Friday 12:00 AM - 12:00 AM, Saturday 12:00 AM - 12:00 AM, Sunday 12:00 AM - 12:00 AM",,,
Lincoln II &#8211 48th St.,2264,121 North 48th St,,Lincoln,NE,68504-3513,USA,(402) 467-2674,40.813963,-96.654351,"Monday 6:00 AM - 11:00 PM, Tuesday 6:00 AM - 11:00 PM, Wednesday 6:00 AM - 11:00 PM, Thursday 6:00 AM - 11:00 PM, Friday 6:00 AM - 12:00 AM, Saturday 12:00 AM - 12:00 AM, Sunday 12:00 AM - 11:00 PM",,,
Great Bend,2138,2920 10th St.,,Great Bend,KS,67530-4260,USA,(620) 792-4386,38.362296,-98.778999,"Monday 6:00 AM - 11:00 PM, Tuesday 6:00 AM - 11:00 PM, Wednesday 6:00 AM - 11:00 PM, Thursday 6:00 AM - 11:00 PM, Friday 6:00 AM - 12:00 AM, Saturday 6:00 AM - 12:00 AM, Sunday 6:00 AM - 12:00 AM",,,
Marion,2207,1197 Mt Vernon Avenue,,Marion,OH,43302-5698,USA,(740) 389-5200,40.580464,-83.097509,"Monday 6:00 AM - 9:00 PM, Tuesday 6:00 AM - 9:00 PM, Wednesday 6:00 AM - 9:00 PM, Thursday 6:00 AM - 9:00 PM, Friday 6:00 AM - 9:00 PM, Saturday 6:00 AM - 9:00 PM, Sunday 7:00 AM - 9:00 PM",,,
Lincoln I &#8211 N.W. 12th St,2269,2900 NW 12th St,,Lincoln,NE,68521-3605,USA,(402) 474-6162,40.841386,-96.738981,"Monday 6:00 AM - 11:00 PM, Tuesday 6:00 AM - 11:00 PM, Wednesday 6:00 AM - 11:00 PM, Thursday 6:00 AM - 11:00 PM, Friday 6:00 AM - 12:00 AM, Saturday 6:00 AM - 12:00 AM, Sunday 6:00 AM - 11:00 PM",,,
Oak Creek &#8211 Ryan Rd.,2295,2010 Ryan Road,,Oak Creek,WI,53154-4315,USA,(414) 761-3700,42.873077,-87.942662,"Monday 6:00 AM - 10:00 PM, Tuesday 6:00 AM - 10:00 PM, Wednesday 6:00 AM - 10:00 PM, Thursday 6:00 AM - 10:00 PM, Friday 6:00 AM - 11:00 PM, Saturday 6:00 AM - 11:00 PM, Sunday 6:00 AM - 10:00 PM",,,
Madison II &#8211 Damon Rd.,2442,1410 Damon Rd,,Madison,WI,53713-2354,USA,(608) 251-7550,43.035524,-89.408702,"Monday 12:00 AM - 12:00 AM, Tuesday 12:00 AM - 12:00 AM, Wednesday 12:00 AM - 12:00 AM, Thursday 12:00 AM - 12:00 AM, Friday 12:00 AM - 12:00 AM, Saturday 12:00 AM - 12:00 AM, Sunday 12:00 AM - 12:00 AM",,,
Madison I &#8211 University,2449,5237 University Ave,,Madison,WI,53705-1361,USA,(608) 238-5133,43.078332,-89.471309,"Monday 12:00 AM - 12:00 AM, Tuesday 12:00 AM - 12:00 AM, Wednesday 12:00 AM - 12:00 AM, Thursday 12:00 AM - 12:00 AM, Friday 12:00 AM - 12:00 AM, Saturday 12:00 AM - 12:00 AM, Sunday 12:00 AM - 12:00 AM",,,
Savannah,3722,3 Gateway Blvd S,,Savannah,GA,31419,USA,(912) 961-0424,32.002785,-81.282498,"Monday 7:00 AM - 9:00 PM, Tuesday 7:00 AM - 9:00 PM, Wednesday 7:00 AM - 9:00 PM, Thursday 7:00 AM - 9:00 PM, Friday 7:00 AM - 10:00 PM, Saturday 7:00 AM - 10:00 PM, Sunday 7:00 AM - 9:00 PM",,,
Milwaukee &#8211 Layton Ave,2279,130 W. Layton Ave.,,Milwaukee,WI,53207-5917,USA,(414) 294-0448,42.959599,-87.910663,"Monday 6:00 AM - 10:00 PM, Tuesday 6:00 AM - 10:00 PM, Wednesday 6:00 AM - 10:00 PM, Thursday 6:00 AM - 10:00 PM, Friday 6:00 AM - 11:00 PM, Saturday 6:00 AM - 11:00 PM, Sunday 6:00 AM - 10:00 PM",,,
West Allis,2286,2878 S. 108th St.,,West Allis,WI,53227-3224,USA,(414) 545-0569,42.991529,-88.04648,"Monday 6:00 AM - 10:00 PM, Tuesday 6:00 AM - 10:00 PM, Wednesday 6:00 AM - 10:00 PM, Thursday 6:00 AM - 10:00 PM, Friday 6:00 AM - 11:00 PM, Saturday 6:00 AM - 11:00 PM, Sunday 6:00 AM - 10:00 PM",,,
Madison III &#8211 Hayes Rd.,2412,4863 Hayes Rd.,,Madison,WI,53704-3260,USA,(608) 241-9123,43.135867,-89.299406,"Monday 12:00 AM - 12:00 AM, Tuesday 12:00 AM - 12:00 AM, Wednesday 12:00 AM - 12:00 AM, Thursday 12:00 AM - 12:00 AM, Friday 12:00 AM - 12:00 AM, Saturday 12:00 AM - 12:00 AM, Sunday 12:00 AM - 12:00 AM",,,
Delafield,2271,2400 Milwaukee St.,,Delafield,WI,53018,USA,(262) 646-7915,43.052745,-88.376156,"Monday 6:00 AM - 10:00 PM, Tuesday 6:00 AM - 10:00 PM, Wednesday 6:00 AM - 10:00 PM, Thursday 6:00 AM - 10:00 PM, Friday 6:00 AM - 11:00 PM, Saturday 6:00 AM - 11:00 PM, Sunday 6:00 AM - 10:00 PM",,,
Fort Dodge,2229,511 South 32nd Street,,Fort Dodge,IA,50501,USA,(515) 302-8031,42.500527,-94.148984,"Monday 5:30 AM - 11:00 PM, Tuesday 5:30 AM - 11:00 PM, Wednesday 5:30 AM - 11:00 PM, Thursday 5:30 AM - 11:00 PM, Friday 5:30 AM - 11:00 PM, Saturday 12:00 AM - 11:00 PM, Sunday 12:00 AM - 11:00 PM",,,
Brookfield,2300,585 N Barker Rd.,,Brookfield,WI,53045-5918,USA,(262) 798-1061,43.036879,-88.167302,"Monday 6:00 AM - 12:00 AM, Tuesday 6:00 AM - 12:00 AM, Wednesday 6:00 AM - 12:00 AM, Thursday 6:00 AM - 12:00 AM, Friday 6:00 AM - 12:00 AM, Saturday 6:00 AM - 12:00 AM, Sunday 6:00 AM - 12:00 AM",,,
Watertown,2303,1727 S. Church St.,,Watertown,WI,53094-7403,USA,(920) 261-9080,43.171198,-88.731661,"Monday 6:00 AM - 9:00 PM, Tuesday 6:00 AM - 9:00 PM, Wednesday 6:00 AM - 9:00 PM, Thursday 6:00 AM - 9:00 PM, Friday 6:00 AM - 9:00 PM, Saturday 6:00 AM - 9:00 PM, Sunday 6:00 AM - 9:00 PM",,,
Glendale,2280,5265 N. Port Washington Rd.,,Glendale,WI,53217-4902,USA,(414) 962-0623,43.113106,-87.917129,"Monday 6:00 AM - 10:00 PM, Tuesday 6:00 AM - 10:00 PM, Wednesday 6:00 AM - 10:00 PM, Thursday 6:00 AM - 10:00 PM, Friday 6:00 AM - 11:00 PM, Saturday 6:00 AM - 11:00 PM, Sunday 6:00 AM - 10:00 PM",,,
Mason City &#8211 4th St. SW,2445,2201 4th St SW,,Mason City,IA,50401-4606,USA,(641) 423-2360,43.147794,-93.234429,"Monday 6:00 AM - 11:00 PM, Tuesday 6:00 AM - 11:00 PM, Wednesday 6:00 AM - 11:00 PM, Thursday 6:00 AM - 11:00 PM, Friday 12:00 AM - 12:00 AM, Saturday 12:00 AM - 12:00 AM, Sunday 6:00 AM - 11:00 PM",,,
West Bend,2296,2400 West Washington,,West Bend,WI,53095-2120,USA,(262) 334-6262,43.412809,-88.217499,"Monday 6:00 AM - 10:00 PM, Tuesday 6:00 AM - 10:00 PM, Wednesday 6:00 AM - 10:00 PM, Thursday 6:00 AM - 10:00 PM, Friday 6:00 AM - 11:00 PM, Saturday 6:00 AM - 11:00 PM, Sunday 6:00 AM - 10:00 PM",,,
Ashland,2209,658 US Route 250 E,,Ashland,OH,44805-9754,USA,(419) 281-0666,40.857239,-82.231948,"Monday 6:00 AM - 10:00 PM, Tuesday 6:00 AM - 10:00 PM, Wednesday 6:00 AM - 10:00 PM, Thursday 6:00 AM - 10:00 PM, Friday 6:00 AM - 10:00 PM, Saturday 6:00 AM - 10:00 PM, Sunday 6:00 AM - 10:00 PM",,,
Clear Lake &#8211 25th Street,2431,1207 North 25th Street,,Clear Lake,IA,50428-0602,USA,(641) 357-7558,43.146597,-93.358043,"Monday 6:00 AM - 12:00 AM, Tuesday 6:00 AM - 12:00 AM, Wednesday 6:00 AM - 12:00 AM, Thursday 6:00 AM - 12:00 AM, Friday 6:00 AM - 12:00 AM, Saturday 12:00 AM - 12:00 AM, Sunday 12:00 AM - 12:00 AM",,,
Gainesville,2404,6825 NW 8th Avenue,,Gainesville,FL,32605,USA,(352) 331-0388,29.659137,-82.415725,"Monday 12:00 AM - 12:00 AM, Tuesday 12:00 AM - 12:00 AM, Wednesday 12:00 AM - 12:00 AM, Thursday 12:00 AM - 12:00 AM, Friday 12:00 AM - 12:00 AM, Saturday 12:00 AM - 12:00 AM, Sunday 12:00 AM - 12:00 AM",,,
Summerville,2258,1700 Old Trolley Road,,Summerville,SC,29485,USA,(843) 875-8680,32.960187,-80.165312,"Monday 6:00 AM - 10:00 PM, Tuesday 6:00 AM - 10:00 PM, Wednesday 6:00 AM - 10:00 PM, Thursday 6:00 AM - 10:00 PM, Friday 6:00 AM - 10:00 PM, Saturday 6:00 AM - 10:00 PM, Sunday 6:00 AM - 10:00 PM",,,
Wisconsin Dells,2180,811 Frontage Road,,Wisconsin Dells,WI,53965-9604,USA,(608) 254-6424,43.625114,-89.79941,"Monday 12:00 AM - 12:00 AM, Tuesday 12:00 AM - 12:00 AM, Wednesday 12:00 AM - 12:00 AM, Thursday 12:00 AM - 12:00 AM, Friday 12:00 AM - 12:00 AM, Saturday 12:00 AM - 12:00 AM, Sunday 12:00 AM - 12:00 AM",,,
Sandusky,2256,4710 Milan Rd.,,Sandusky,OH,44870,USA,(419) 625-2614,41.410577,-82.665651,"Monday 6:30 AM - 10:00 PM, Tuesday 6:30 AM - 10:00 PM, Wednesday 6:30 AM - 10:00 PM, Thursday 6:30 AM - 10:00 PM, Friday 6:30 AM - 11:00 PM, Saturday 6:30 AM - 11:00 PM, Sunday 6:30 AM - 10:00 PM",,,
Hastings,2218,3709 Osborne Drive West,,Hastings,NE,68901,USA,(402) 834-3580,40.624099,-98.383065,"Monday 5:30 AM - 12:00 AM, Tuesday 5:30 AM - 12:00 AM, Wednesday 5:30 AM - 12:00 AM, Thursday 12:00 AM - 12:00 AM, Friday 12:00 AM - 12:00 AM, Saturday 12:00 AM - 12:00 AM, Sunday 5:30 AM - 12:00 AM",,,
Sandusky (Cedar Point),2228,One Cedar Point Drive,,Sandusky,OH,44870,USA,(419) 627-2344,41.484765,-82.690378,"Monday 7:00 AM - 9:00 PM, Tuesday 7:00 AM - 9:00 PM, Wednesday 7:00 AM - 9:00 PM, Thursday 7:00 AM - 9:00 PM, Friday 7:00 AM - 10:00 PM, Saturday 7:00 AM - 10:00 PM, Sunday 7:00 AM - 9:00 PM",,,
Grand Island,2290,106 Wilmar Ave.,,Grand Island,NE,68803,USA,(308) 384-7060,40.917447,-98.382429,"Monday 5:30 AM - 12:00 AM, Tuesday 5:30 AM - 12:00 AM, Wednesday 5:30 AM - 12:00 AM, Thursday 5:30 AM - 12:00 AM, Friday 12:00 AM - 12:00 AM, Saturday 12:00 AM - 12:00 AM, Sunday 5:30 AM - 12:00 AM",,,
North Lacrosse &#8211 Rose St.,2447,1411 Rose St.,,La Crosse,WI,54603-2442,USA,(608) 785-0982,43.843259,-91.248607,"Monday 12:00 AM - 12:00 AM, Tuesday 12:00 AM - 12:00 AM, Wednesday 12:00 AM - 12:00 AM, Thursday 12:00 AM - 12:00 AM, Friday 12:00 AM - 12:00 AM, Saturday 12:00 AM - 12:00 AM, Sunday 12:00 AM - 12:00 AM",,,
Sheboygan,2278,3627 Washington Ave.,,Sheboygan,WI,53081,USA,(920) 451-0782,43.71693,-87.756525,"Monday 6:00 AM - 10:00 PM, Tuesday 6:00 AM - 10:00 PM, Wednesday 6:00 AM - 10:00 PM, Thursday 6:00 AM - 10:00 PM, Friday 6:00 AM - 11:00 PM, Saturday 6:00 AM - 11:00 PM, Sunday 6:00 AM - 10:00 PM",,,
Onalaska,2368,9428 Highway 16,,Onalaska,WI,54650-8540,USA,(608) 779-4700,43.873639,-91.191338,"Monday 6:00 AM - 12:00 AM, Tuesday 6:00 AM - 12:00 AM, Wednesday 6:00 AM - 12:00 AM, Thursday 6:00 AM - 12:00 AM, Friday 12:00 AM - 12:00 AM, Saturday 12:00 AM - 12:00 AM, Sunday 12:00 AM - 12:00 AM",,,
Moundsville,2254,105 N. Lafayette Avenue,,Moundsville,WV,26041,USA,(304) 845-2290,39.930198,-80.752173,"Monday 6:00 AM - 11:00 PM, Tuesday 6:00 AM - 11:00 PM, Wednesday 6:00 AM - 11:00 PM, Thursday 6:00 AM - 11:00 PM, Friday 6:00 AM - 12:00 AM, Saturday 6:00 AM - 12:00 AM, Sunday 6:00 AM - 11:00 PM",,,
Sioux City II,2285,5925 Gordon Drive,,Sioux City,IA,51106,USA,(712) 274-6839,42.476284,-96.329513,"Monday 12:00 AM - 12:00 AM, Tuesday 12:00 AM - 12:00 AM, Wednesday 12:00 AM - 12:00 AM, Thursday 12:00 AM - 12:00 AM, Friday 12:00 AM - 12:00 AM, Saturday 12:00 AM - 12:00 AM, Sunday 12:00 AM - 12:00 AM",,,
Austin,2137,701 17th Ave,,Austin,MN,55912-1839,USA,(507) 433-6720,43.682999,-92.983167,"Monday 6:00 AM - 11:00 PM, Tuesday 6:00 AM - 11:00 PM, Wednesday 6:00 AM - 11:00 PM, Thursday 6:00 AM - 11:00 PM, Friday 12:00 AM - 12:00 AM, Saturday 12:00 AM - 12:00 AM, Sunday 6:00 AM - 11:00 PM",,,
Sioux City I,2120,501 Gordon Drive,,Sioux City,IA,51101-1705,USA,(712) 277-4765,42.489792,-96.404806,"Monday 5:30 AM - 11:00 PM, Tuesday 5:30 AM - 11:00 PM, Wednesday 5:30 AM - 11:00 PM, Thursday 5:30 AM - 11:00 PM, Friday 5:30 AM - 12:00 AM, Saturday 5:30 AM - 12:00 AM, Sunday 5:30 AM - 11:00 PM",,,
Canton,2157,4896 Everhard Road,,Canton,OH,44718-2413,USA,(330) 497-2959,40.851902,-81.439484,"Monday 6:00 AM - 10:00 PM, Tuesday 6:00 AM - 10:00 PM, Wednesday 6:00 AM - 10:00 PM, Thursday 6:00 AM - 10:00 PM, Friday 6:00 AM - 10:00 PM, Saturday 6:00 AM - 10:00 PM, Sunday 6:00 AM - 10:00 PM",,,
Albert Lea &#8211 East Main,2463,2215 E Main Street,,Albert Lea,MN,56007-3922,USA,(507) 377-1624,43.655661,-93.338685,"Monday 6:00 AM - 11:00 PM, Tuesday 6:00 AM - 11:00 PM, Wednesday 6:00 AM - 11:00 PM, Thursday 6:00 AM - 11:00 PM, Friday 12:00 AM - 12:00 AM, Saturday 12:00 AM - 12:00 AM, Sunday 6:00 AM - 11:00 PM",,,
Tomah,2333,1015 East McCoy Blvd.,,Tomah,WI,54660,USA,(608) 374-0550,44.028932,-90.398025,"Monday 6:00 AM - 11:00 PM, Tuesday 6:00 AM - 11:00 PM, Wednesday 6:00 AM - 11:00 PM, Thursday 6:00 AM - 11:00 PM, Friday 6:00 AM - 11:00 PM, Saturday 6:00 AM - 11:00 PM, Sunday 6:00 AM - 11:00 PM",,,
Wheeling,2261,680 National Road,,Wheeling,WV,26003,USA,(304) 232-5772,40.047796,-80.643318,"Monday 6:00 AM - 12:00 AM, Tuesday 6:00 AM - 12:00 AM, Wednesday 6:00 AM - 12:00 AM, Thursday 6:00 AM - 12:00 AM, Friday 12:00 AM - 12:00 AM, Saturday 12:00 AM - 12:00 AM, Sunday 6:00 AM - 12:00 AM",,,
Avon,2282,1503 Traveler's Pointe,,Avon,OH,44011,USA,(440) 934-3663,41.466097,-82.022729,"Monday 6:00 AM - 10:00 PM, Tuesday 6:00 AM - 10:00 PM, Wednesday 6:00 AM - 10:00 PM, Thursday 6:00 AM - 10:00 PM, Friday 6:00 AM - 11:00 PM, Saturday 6:00 AM - 11:00 PM, Sunday 6:00 AM - 10:00 PM",,,
Oshkosh,2176,2005 W 9th Ave,,Oshkosh,WI,54901,USA,(920) 233-6074,44.010469,-88.58431,"Monday 12:00 AM - 12:00 AM, Tuesday 12:00 AM - 12:00 AM, Wednesday 12:00 AM - 12:00 AM, Thursday 12:00 AM - 12:00 AM, Friday 12:00 AM - 12:00 AM, Saturday 12:00 AM - 12:00 AM, Sunday 12:00 AM - 12:00 AM",,,
Norfolk,2225,1229 Omaha Avenue,,Norfolk,NE,68701,USA,(402) 371-0777,42.018076,-97.424756,"Monday 5:00 AM - 12:00 AM, Tuesday 5:00 AM - 12:00 AM, Wednesday 5:00 AM - 12:00 AM, Thursday 5:00 AM - 12:00 AM, Friday 5:00 AM - 12:00 AM, Saturday 12:00 AM - 12:00 AM, Sunday 12:00 AM - 12:00 AM",,,
Middleburg Heights (Cleveland),2160,7175 Engle Road,,Middleburg Heights,OH,44130-3426,USA,(440) 234-7393,41.372844,-81.824038,"Monday 12:00 AM - 12:00 AM, Tuesday 12:00 AM - 12:00 AM, Wednesday 12:00 AM - 12:00 AM, Thursday 12:00 AM - 12:00 AM, Friday 12:00 AM - 12:00 AM, Saturday 12:00 AM - 12:00 AM, Sunday 12:00 AM - 12:00 AM",,,
Winona,2124,956 1/2 Mankato Avenue,,Winona,MN,55987-4869,USA,(507) 452-1618,44.030362,-91.620825,"Monday 12:00 AM - 12:00 AM, Tuesday 12:00 AM - 12:00 AM, Wednesday 12:00 AM - 12:00 AM, Thursday 12:00 AM - 12:00 AM, Friday 12:00 AM - 12:00 AM, Saturday 12:00 AM - 12:00 AM, Sunday 12:00 AM - 12:00 AM",,,
Kearney,2139,609 S 2nd Street,,Kearney,NE,68848-0038,USA,(308) 234-7375,40.659691,-99.086093,"Monday 12:00 AM - 12:00 AM, Tuesday 12:00 AM - 12:00 AM, Wednesday 12:00 AM - 12:00 AM, Thursday 12:00 AM - 12:00 AM, Friday 12:00 AM - 12:00 AM, Saturday 12:00 AM - 12:00 AM, Sunday 12:00 AM - 12:00 AM",,,
Brooklyn,2129,5180 Tiedeman Road,,Brooklyn,OH,44144-2306,USA,(216) 267-9501,41.419822,-81.758973,"Monday 6:00 AM - 10:00 PM, Tuesday 6:00 AM - 10:00 PM, Wednesday 6:00 AM - 10:00 PM, Thursday 6:00 AM - 10:00 PM, Friday 6:00 AM - 10:00 PM, Saturday 6:00 AM - 10:00 PM, Sunday 6:00 AM - 10:30 PM",,,
Rochester,2262,1818 S. Broadway,,Rochester,MN,55904,USA,(507) 288-9400,43.995593,-92.462524,"Monday 12:00 AM - 12:00 AM, Tuesday 12:00 AM - 12:00 AM, Wednesday 12:00 AM - 12:00 AM, Thursday 12:00 AM - 12:00 AM, Friday 12:00 AM - 12:00 AM, Saturday 12:00 AM - 12:00 AM, Sunday 12:00 AM - 12:00 AM",,,
Rochester &#8211 16th Ave.,2091,432 16th Ave NW,,Rochester,MN,55901-1860,USA,(507) 288-1996,44.028399,-92.483725,"Monday 12:00 AM - 12:00 AM, Tuesday 12:00 AM - 12:00 AM, Wednesday 12:00 AM - 12:00 AM, Thursday 12:00 AM - 12:00 AM, Friday 12:00 AM - 12:00 AM, Saturday 12:00 AM - 12:00 AM, Sunday 12:00 AM - 12:00 AM",,,
Milford IA,2239,2400 N Avenue,,Milford,IA,51351,USA,(712) 338-4060,43.339704,-95.150817,"Monday 6:00 AM - 11:00 PM, Tuesday 6:00 AM - 11:00 PM, Wednesday 6:00 AM - 11:00 PM, Thursday 6:00 AM - 11:00 PM, Friday 6:00 AM - 11:00 PM, Saturday 6:00 AM - 11:00 PM, Sunday 6:00 AM - 11:00 PM",,,
Hudson,2277,"130 W. Streetsboro, Unit 1",,Hudson,OH,44236,USA,(330) 655-1665,41.239654,-81.448297,"Monday 7:00 AM - 9:00 PM, Tuesday 7:00 AM - 9:00 PM, Wednesday 7:00 AM - 9:00 PM, Thursday 7:00 AM - 9:00 PM, Friday 7:00 AM - 9:30 PM, Saturday 7:00 AM - 9:30 PM, Sunday 7:00 AM - 9:00 PM",,,
Manitowoc,2153,4525 Calumet Avenue,,Manitowoc,WI,54220,USA,(920) 684-8003,44.072294,-87.706735,"Monday 5:30 AM - 10:00 PM, Tuesday 5:30 AM - 10:00 PM, Wednesday 5:30 AM - 10:00 PM, Thursday 5:30 AM - 10:00 PM, Friday 5:30 AM - 12:00 AM, Saturday 5:30 AM - 12:00 AM, Sunday 5:30 AM - 12:00 AM",,,
"Neenah, WI",2381,1121 Westowne Drive,,Neenah,WI,54956,USA,(920) 725-2301,44.175071,-88.490495,"Monday 6:00 AM - 12:00 AM, Tuesday 6:00 AM - 12:00 AM, Wednesday 6:00 AM - 12:00 AM, Thursday 6:00 AM - 12:00 AM, Friday 12:00 AM - 12:00 AM, Saturday 12:00 AM - 12:00 AM, Sunday 6:00 AM - 12:00 AM",,,
Fairmont,2077,I-90 & Hwy 15,,Fairmont,MN,56031-0922,USA,(507) 238-4500,43.615955,-94.447719,"Monday 5:30 AM - 11:00 PM, Tuesday 5:30 AM - 11:00 PM, Wednesday 5:30 AM - 11:00 PM, Thursday 5:30 AM - 11:00 PM, Friday 5:30 AM - 2:00 AM, Saturday 5:30 AM - 2:00 AM, Sunday 5:30 AM - 11:00 PM",,,
Alliance,2208,20040 Harrisburg Westville Rd.,,Alliance,OH,44601-8901,USA,(330) 821-9600,40.901891,-81.032959,"Monday 7:00 AM - 10:00 PM, Tuesday 7:00 AM - 10:00 PM, Wednesday 7:00 AM - 10:00 PM, Thursday 7:00 AM - 10:00 PM, Friday 7:00 AM - 10:00 PM, Saturday 7:00 AM - 10:00 PM, Sunday 7:00 AM - 10:00 PM",,,
Black River Falls &#8211 I 94,2471,N6209 Oasis Rd.,,Blk River Falls,WI,54615,USA,(715) 284-2223,44.295834,-90.820612,"Monday 5:30 AM - 11:00 PM, Tuesday 5:30 AM - 11:00 PM, Wednesday 5:30 AM - 11:00 PM, Thursday 5:30 AM - 11:00 PM, Friday 5:30 AM - 12:00 AM, Saturday 5:30 AM - 12:00 AM, Sunday 5:30 AM - 11:00 PM",,,
Spring Hill,2103,4685 Commercial Way,,Spring Hill,FL,34606-1923,USA,(352) 596-2223,28.496717,-82.595391,"Monday 6:30 AM - 10:00 PM, Tuesday 6:30 AM - 10:00 PM, Wednesday 6:30 AM - 10:00 PM, Thursday 6:30 AM - 10:00 PM, Friday 6:30 AM - 11:00 PM, Saturday 6:30 AM - 11:00 PM, Sunday 6:30 AM - 10:00 PM",,,
Appleton &#8211 College Ave.,2448,2975 W College Ave,,Appleton,WI,54914-2912,USA,(920) 731-0351,44.261259,-88.452092,"Monday 12:00 AM - 12:00 AM, Tuesday 12:00 AM - 12:00 AM, Wednesday 12:00 AM - 12:00 AM, Thursday 12:00 AM - 12:00 AM, Friday 12:00 AM - 12:00 AM, Saturday 12:00 AM - 12:00 AM, Sunday 12:00 AM - 12:00 AM",,,
Appleton II,2357,3030 East College Ave.,,Appleton,WI,54915,USA,(920) 830-8960,44.259019,-88.362888,"Monday 6:00 AM - 12:00 AM, Tuesday 6:00 AM - 12:00 AM, Wednesday 6:00 AM - 12:00 AM, Thursday 6:00 AM - 12:00 AM, Friday 6:00 AM - 12:00 AM, Saturday 6:00 AM - 12:00 AM, Sunday 6:00 AM - 12:00 AM",,,
Wisconsin Rapids,2288,2311 8th Street S.,,Wisconsin Rapids,WI,54494-5268,USA,(715) 423-4443,44.374128,-89.816558,"Monday 12:00 AM - 12:00 AM, Tuesday 12:00 AM - 12:00 AM, Wednesday 12:00 AM - 12:00 AM, Thursday 12:00 AM - 12:00 AM, Friday 12:00 AM - 12:00 AM, Saturday 12:00 AM - 12:00 AM, Sunday 12:00 AM - 12:00 AM",,,
Lady Lake,2358,905 Bichara Blvd,,Lady Lakes,FL,32159,USA,(352) 751-0197,28.937348,-81.942482,"Monday 6:00 AM - 11:00 PM, Tuesday 6:00 AM - 11:00 PM, Wednesday 6:00 AM - 11:00 PM, Thursday 6:00 AM - 11:00 PM, Friday 6:00 AM - 12:00 AM, Saturday 6:00 AM - 12:00 AM, Sunday 6:00 AM - 11:00 PM",,,
Owatonna,2320,1200 Interstate Hwy 35,,Owatonna,MN,55060-0587,USA,(507) 451-6831,44.10232,-93.196394,"Monday 12:00 AM - 12:00 AM, Tuesday 12:00 AM - 12:00 AM, Wednesday 12:00 AM - 12:00 AM, Thursday 12:00 AM - 12:00 AM, Friday 12:00 AM - 12:00 AM, Saturday 12:00 AM - 12:00 AM, Sunday 12:00 AM - 12:00 AM",,,
Canfield &#8211 E Main Street,2211,587 E. Main Street,,Canfield,OH,44406-1547,USA,(330) 533-6979,41.024303,-80.743092,"Monday 6:00 AM - 11:00 PM, Tuesday 6:00 AM - 11:00 PM, Wednesday 6:00 AM - 11:00 PM, Thursday 6:00 AM - 11:00 PM, Friday 6:00 AM - 12:00 AM, Saturday 6:00 AM - 12:00 AM, Sunday 6:00 AM - 11:00 PM",,,
Stevens Point,2173,143 Division Street,,Stevens Point,WI,54481-1150,USA,(715) 341-5044,44.537005,-89.574454,"Monday 12:00 AM - 12:00 AM, Tuesday 12:00 AM - 12:00 AM, Wednesday 12:00 AM - 12:00 AM, Thursday 12:00 AM - 12:00 AM, Friday 12:00 AM - 12:00 AM, Saturday 12:00 AM - 12:00 AM, Sunday 12:00 AM - 12:00 AM",,,
Austintown,2149,5550 Interstate Blvd Rt 46,,Austintown,OH,44515-1166,USA,(330) 544-2282,41.120629,-80.768723,"Monday 12:00 AM - 12:00 AM, Tuesday 12:00 AM - 12:00 AM, Wednesday 12:00 AM - 12:00 AM, Thursday 12:00 AM - 12:00 AM, Friday 12:00 AM - 12:00 AM, Saturday 12:00 AM - 12:00 AM, Sunday 12:00 AM - 12:00 AM",,,
"Leesburg, FL",2443,27811 US Route 27,,Leesburg,FL,34748,USA,(352) 314-2582,28.752256,-81.878589,"Monday 6:00 AM - 11:00 PM, Tuesday 6:00 AM - 11:00 PM, Wednesday 6:00 AM - 11:00 PM, Thursday 6:00 AM - 11:00 PM, Friday 6:00 AM - 11:00 PM, Saturday 6:00 AM - 11:00 PM, Sunday 6:00 AM - 11:00 PM",,,
Palm Harbor,2349,2375 Curlew Road,,Dunedin,FL,34698-9329,USA,(727) 789-3085,28.048394,-82.739936,"Monday 6:00 AM - 11:00 PM, Tuesday 6:00 AM - 11:00 PM, Wednesday 6:00 AM - 11:00 PM, Thursday 6:00 AM - 11:00 PM, Friday 6:00 AM - 12:00 AM, Saturday 12:00 AM - 12:00 AM, Sunday 12:00 AM - 11:00 PM",,,
Youngstown &#8211 Boardman,2161,804 Boardman-Poland Road,,Youngstown,OH,44512-5115,USA,(330) 758-9416,41.024706,-80.638321,"Monday 12:00 AM - 12:00 AM, Tuesday 12:00 AM - 12:00 AM, Wednesday 12:00 AM - 12:00 AM, Thursday 12:00 AM - 12:00 AM, Friday 12:00 AM - 12:00 AM, Saturday 12:00 AM - 12:00 AM, Sunday 12:00 AM - 12:00 AM",,,
Ashwaubenon,2385,2800 S Oneida Street,,Ashwaubenon,WI,54304-5753,USA,(920) 592-0747,44.4738,-88.075481,"Monday 6:00 AM - 12:00 AM, Tuesday 6:00 AM - 12:00 AM, Wednesday 6:00 AM - 12:00 AM, Thursday 6:00 AM - 12:00 AM, Friday 12:00 AM - 12:00 AM, Saturday 12:00 AM - 12:00 AM, Sunday 6:00 AM - 12:00 AM",,,
Green Bay,2140,2306 East Mason Street,,Green Bay,WI,54302,USA,(920) 468-1688,44.487184,-87.966531,"Monday 6:00 AM - 12:00 AM, Tuesday 6:00 AM - 12:00 AM, Wednesday 6:00 AM - 12:00 AM, Thursday 6:00 AM - 12:00 AM, Friday 6:00 AM - 12:00 AM, Saturday 6:00 AM - 12:00 AM, Sunday 6:00 AM - 12:00 AM",,,
Faribault,2302,333 Western Ave.,,Faribault,MN,55021-5647,USA,(507) 332-7997,44.293097,-93.302891,"Monday 12:00 AM - 12:00 AM, Tuesday 12:00 AM - 12:00 AM, Wednesday 12:00 AM - 12:00 AM, Thursday 12:00 AM - 12:00 AM, Friday 12:00 AM - 12:00 AM, Saturday 12:00 AM - 12:00 AM, Sunday 12:00 AM - 12:00 AM",,,
Worthington,2085,1445 Darling Dr.,,Worthington,MN,56187-1712,USA,(507) 372-7761,43.636916,-95.592616,"Monday 12:00 AM - 12:00 AM, Tuesday 12:00 AM - 12:00 AM, Wednesday 12:00 AM - 12:00 AM, Thursday 12:00 AM - 12:00 AM, Friday 12:00 AM - 12:00 AM, Saturday 12:00 AM - 12:00 AM, Sunday 12:00 AM - 12:00 AM",,,
"Mankato II, MN",2353,1790 Madison Ave,,Mankato,MN,56001,USA,(507) 385-1595,44.167191,-93.956814,"Monday 6:00 AM - 12:00 AM, Tuesday 6:00 AM - 12:00 AM, Wednesday 6:00 AM - 12:00 AM, Thursday 6:00 AM - 12:00 AM, Friday 6:00 AM - 12:00 AM, Saturday 6:00 AM - 12:00 AM, Sunday 6:00 AM - 12:00 AM",,,
Green Bay &#8211 N Military Ave.,2453,100 N Military Ave.,,Green Bay,WI,54303-3202,USA,(920) 499-7747,44.53004,-88.059249,"Monday 12:00 AM - 12:00 AM, Tuesday 12:00 AM - 12:00 AM, Wednesday 12:00 AM - 12:00 AM, Thursday 12:00 AM - 12:00 AM, Friday 12:00 AM - 12:00 AM, Saturday 12:00 AM - 12:00 AM, Sunday 12:00 AM - 12:00 AM",,,
Painesville,2202,700 Mentor Avenue,,Painesville,OH,44077-2590,USA,(440) 354-6644,41.714621,-81.258428,"Monday 7:00 AM - 10:00 PM, Tuesday 7:00 AM - 10:00 PM, Wednesday 7:00 AM - 10:00 PM, Thursday 7:00 AM - 10:00 PM, Friday 7:00 AM - 10:00 PM, Saturday 7:00 AM - 10:00 PM, Sunday 7:00 AM - 10:00 PM",,,
Warren &#8211 Elm Rd.,2197,3870 Elm Road NE,,Warren,OH,44483-2648,USA,(330) 372-6660,41.272441,-80.778662,"Monday 12:00 AM - 12:00 AM, Tuesday 12:00 AM - 12:00 AM, Wednesday 12:00 AM - 12:00 AM, Thursday 12:00 AM - 12:00 AM, Friday 12:00 AM - 12:00 AM, Saturday 12:00 AM - 12:00 AM, Sunday 12:00 AM - 12:00 AM",,,
Mt Dora,2366,17080 Hwy 441,,Mt Dora,FL,32757,USA,(352) 735-5191,28.819906,-81.671558,"Monday 6:00 AM - 11:00 PM, Tuesday 6:00 AM - 11:00 PM, Wednesday 6:00 AM - 11:00 PM, Thursday 6:00 AM - 11:00 PM, Friday 6:00 AM - 12:00 AM, Saturday 6:00 AM - 12:00 AM, Sunday 6:00 AM - 11:00 PM",,,
Clearwater,2183,2626 Gulf To Bay Blvd,,Clearwater,FL,33759-3901,USA,(727) 799-2019,27.960995,-82.729381,"Monday 12:00 AM - 12:00 AM, Tuesday 12:00 AM - 12:00 AM, Wednesday 12:00 AM - 12:00 AM, Thursday 12:00 AM - 12:00 AM, Friday 12:00 AM - 12:00 AM, Saturday 12:00 AM - 12:00 AM, Sunday 12:00 AM - 12:00 AM",,,
Warren (Niles),2287,1953 Niles-Cortland Road,,Warren,OH,44484,USA,(212) 860-4500,41.266376,-80.740901,"Monday 12:00 AM - 12:00 AM, Tuesday 12:00 AM - 12:00 AM, Wednesday 12:00 AM - 12:00 AM, Thursday 12:00 AM - 12:00 AM, Friday 12:00 AM - 12:00 AM, Saturday 12:00 AM - 12:00 AM, Sunday 12:00 AM - 12:00 AM",,,
Marshfield &#8211 Central Ave.,2434,1200 N Central Avenue,,Marshfield,WI,54449-1505,USA,(715) 387-6372,44.678189,-90.166343,"Monday 6:00 AM - 12:00 AM, Tuesday 6:00 AM - 12:00 AM, Wednesday 6:00 AM - 12:00 AM, Thursday 6:00 AM - 12:00 AM, Friday 12:00 AM - 12:00 AM, Saturday 12:00 AM - 12:00 AM, Sunday 6:00 AM - 12:00 AM",,,
Mankato &#8211 Range Rd.,2464,1123 Range Street,,North Mankato,MN,56003-2214,USA,(507) 345-5021,44.183033,-94.010318,"Monday 12:00 AM - 12:00 AM, Tuesday 12:00 AM - 12:00 AM, Wednesday 12:00 AM - 12:00 AM, Thursday 12:00 AM - 12:00 AM, Friday 12:00 AM - 12:00 AM, Saturday 12:00 AM - 12:00 AM, Sunday 12:00 AM - 12:00 AM",,,
McHenry,2252,24584 Garrett Highway,,McHenry,MD,21541,USA,(301) 387-5800,39.562795,-79.356849,"Monday 7:00 AM - 8:00 PM, Tuesday 7:00 AM - 8:00 PM, Wednesday 7:00 AM - 8:00 PM, Thursday 7:00 AM - 8:00 PM, Friday 7:00 AM - 9:00 PM, Saturday 7:00 AM - 9:00 PM, Sunday 7:00 AM - 8:00 PM",,,
Seminole (Largo),2343,8841 Park Boulevard,,Largo,FL,33777,USA,(727) 393-3339,27.839423,-82.777808,"Monday 6:00 AM - 11:00 PM, Tuesday 6:00 AM - 11:00 PM, Wednesday 6:00 AM - 11:00 PM, Thursday 6:00 AM - 11:00 PM, Friday 6:00 AM - 11:00 PM, Saturday 6:00 AM - 11:00 PM, Sunday 6:00 AM - 11:00 PM",,,
Deland,2451,1405 N. Woodland Blvd.,,DeLand,FL,32720-2212,USA,(386) 785-0071,29.05329,-81.303701,"Monday 6:00 AM - 12:00 AM, Tuesday 6:00 AM - 12:00 AM, Wednesday 6:00 AM - 12:00 AM, Thursday 6:00 AM - 12:00 AM, Friday 6:00 AM - 1:00 AM, Saturday 6:00 AM - 1:00 AM, Sunday 6:00 AM - 1:00 AM",,,
Mars (Cranberry Township),2156,20013 Rt 19,,Cranberry Township,PA,16066-6203,USA,(724) 772-3710,40.675403,-80.099628,"Monday 6:00 AM - 10:00 PM, Tuesday 6:00 AM - 10:00 PM, Wednesday 6:00 AM - 10:00 PM, Thursday 6:00 AM - 10:00 PM, Friday 6:00 AM - 10:00 PM, Saturday 6:00 AM - 10:00 PM, Sunday 6:00 AM - 10:00 PM",,,
Northfield,2243,1401 Riverview Drive,,Northfield,MN,55057,USA,(507) 645-4830,44.439735,-93.182897,"Monday 6:00 AM - 10:00 PM, Tuesday 6:00 AM - 10:00 PM, Wednesday 6:00 AM - 10:00 PM, Thursday 6:00 AM - 10:00 PM, Friday 6:00 AM - 10:00 PM, Saturday 6:00 AM - 10:00 PM, Sunday 6:00 AM - 10:00 PM",,,
Red Wing,2151,812 Withers Harbor Dr,,Red Wing,MN,55066-2090,USA,(651) 385-0783,44.562217,-92.559931,"Monday 5:30 AM - 11:00 PM, Tuesday 5:30 AM - 11:00 PM, Wednesday 5:30 AM - 11:00 PM, Thursday 12:00 AM - 12:00 AM, Friday 12:00 AM - 12:00 AM, Saturday 12:00 AM - 12:00 AM, Sunday 5:30 AM - 11:00 PM",,,
Tampa &#8211 E Fowler,2382,5002 E Fowler Ave.,,Tampa,FL,33617-2143,USA,(813) 899-2266,28.054987,-82.401324,"Monday 12:00 AM - 12:00 AM, Tuesday 12:00 AM - 12:00 AM, Wednesday 12:00 AM - 12:00 AM, Thursday 12:00 AM - 12:00 AM, Friday 12:00 AM - 12:00 AM, Saturday 12:00 AM - 12:00 AM, Sunday 12:00 AM - 12:00 AM",,,
New Castle,2268,3334 Wilmington Road,,New Castle,PA,16105-1938,USA,(724) 598-8070,41.057409,-80.357454,"Monday 6:00 AM - 10:00 PM, Tuesday 6:00 AM - 10:00 PM, Wednesday 6:00 AM - 10:00 PM, Thursday 6:00 AM - 10:00 PM, Friday 6:00 AM - 12:00 AM, Saturday 6:00 AM - 12:00 AM, Sunday 6:00 AM - 10:00 PM",,,
Hermitage (Sharon),2196,2945 East State Street,,Hermitage,PA,16148-2748,USA,(724) 342-3334,41.233774,-80.455385,"Monday 6:00 AM - 10:00 PM, Tuesday 6:00 AM - 10:00 PM, Wednesday 6:00 AM - 10:00 PM, Thursday 6:00 AM - 10:00 PM, Friday 6:00 AM - 12:00 AM, Saturday 6:00 AM - 12:00 AM, Sunday 6:00 AM - 10:00 PM",,,
Apopka,2423,989 West Orange Blossom Trail,,Apopka,FL,32712,USA,(407) 464-1075,28.684737,-81.530696,"Monday 6:00 AM - 11:00 PM, Tuesday 6:00 AM - 11:00 PM, Wednesday 6:00 AM - 11:00 PM, Thursday 6:00 AM - 11:00 PM, Friday 6:00 AM - 11:00 PM, Saturday 6:00 AM - 11:00 PM, Sunday 6:00 AM - 11:00 PM",,,
Shawano,2174,1398 East Green Bay,,Shawano,WI,54166-0462,USA,(715) 524-2900,44.781197,-88.568998,"Monday 6:00 AM - 10:00 PM, Tuesday 6:00 AM - 10:00 PM, Wednesday 6:00 AM - 10:00 PM, Thursday 6:00 AM - 10:00 PM, Friday 6:00 AM - 12:00 AM, Saturday 6:00 AM - 12:00 AM, Sunday 6:00 AM - 12:00 AM",,,
Orange City,2361,1286 Saxon Blvd.,,Orange City,FL,32763-8463,USA,(386) 851-0073,28.910647,-81.276931,"Monday 6:00 AM - 12:00 AM, Tuesday 6:00 AM - 12:00 AM, Wednesday 6:00 AM - 12:00 AM, Thursday 6:00 AM - 12:00 AM, Friday 6:00 AM - 1:00 AM, Saturday 6:00 AM - 1:00 AM, Sunday 6:00 AM - 1:00 AM",,,
Eau Claire-Highland Ave.,2458,2025 Highland Avenue,,Eau Claire,WI,54701-4316,USA,(715) 834-9911,44.807036,-91.471969,"Monday 12:00 AM - 12:00 AM, Tuesday 12:00 AM - 12:00 AM, Wednesday 12:00 AM - 12:00 AM, Thursday 12:00 AM - 12:00 AM, Friday 12:00 AM - 12:00 AM, Saturday 12:00 AM - 12:00 AM, Sunday 12:00 AM - 12:00 AM",,,
New Ulm,2081,1727 S. Broadway,,New Ulm,MN,56073-3751,USA,(507) 354-6688,44.295462,-94.443533,"Monday 6:00 AM - 11:00 PM, Tuesday 6:00 AM - 11:00 PM, Wednesday 6:00 AM - 11:00 PM, Thursday 6:00 AM - 11:00 PM, Friday 6:00 AM - 12:00 AM, Saturday 6:00 AM - 12:00 AM, Sunday 6:00 AM - 11:00 PM",,,
Schofield &#8211 Grand Avenue,2429,508 Grand Avenue,,Schofield,WI,54476-1022,USA,(715) 359-6183,44.925246,-89.613922,"Monday 12:00 AM - 12:00 AM, Tuesday 12:00 AM - 12:00 AM, Wednesday 12:00 AM - 12:00 AM, Thursday 12:00 AM - 12:00 AM, Friday 12:00 AM - 12:00 AM, Saturday 12:00 AM - 12:00 AM, Sunday 12:00 AM - 12:00 AM",,,
Altamonte Springs,2402,215 West Highway 436,,Altamonte Spgs,FL,32714-4201,USA,(407) 862-2230,28.66244,-81.391698,"Monday 6:00 AM - 1:00 AM, Tuesday 6:00 AM - 1:00 AM, Wednesday 6:00 AM - 1:00 AM, Thursday 6:00 AM - 1:00 AM, Friday 12:00 AM - 12:00 AM, Saturday 12:00 AM - 12:00 AM, Sunday 6:00 AM - 1:00 AM",,,
Hastings &#8211 Vermillion Street,2468,1206 Vermillion Street,,Hastings,MN,55033-2847,USA,(651) 437-5028,44.733881,-92.852922,"Monday 12:00 AM - 12:00 AM, Tuesday 12:00 AM - 12:00 AM, Wednesday 12:00 AM - 12:00 AM, Thursday 12:00 AM - 12:00 AM, Friday 12:00 AM - 12:00 AM, Saturday 12:00 AM - 12:00 AM, Sunday 12:00 AM - 12:00 AM",,,
Menomonie,2150,1720 North Broadway,,Menomonie,WI,54751,USA,(715) 235-2234,44.866752,-91.929738,"Monday 12:00 AM - 12:00 AM, Tuesday 12:00 AM - 12:00 AM, Wednesday 12:00 AM - 12:00 AM, Thursday 12:00 AM - 12:00 AM, Friday 12:00 AM - 12:00 AM, Saturday 12:00 AM - 12:00 AM, Sunday 12:00 AM - 12:00 AM",,,
Winter Springs,3364,701 E. SR 434,,Winter Springs,FL,32708,USA,(407) 542-7976,28.700703,-81.29646,"Monday 6:00 AM - 10:00 PM, Tuesday 6:00 AM - 10:00 PM, Wednesday 6:00 AM - 10:00 PM, Thursday 6:00 AM - 10:00 PM, Friday 6:00 AM - 10:00 PM, Saturday 6:00 AM - 10:00 PM, Sunday 6:00 AM - 10:00 PM",,,
Sioux Falls,2340,2604 W 41st Street,,Sioux Falls,SD,57105-6101,USA,(605) 339-1310,43.515123,-96.758093,"Monday 6:00 AM - 10:00 PM, Tuesday 6:00 AM - 10:00 PM, Wednesday 6:00 AM - 10:00 PM, Thursday 6:00 AM - 10:00 PM, Friday 6:00 AM - 11:00 PM, Saturday 6:00 AM - 11:00 PM, Sunday 6:00 AM - 10:00 PM",,,
Sioux Falls &#8211 Gateway Blvd,2133,3400 Gateway Blvd,,Sioux Falls,SD,57106-1556,USA,(605) 361-7543,43.514345,-96.783803,"Monday 6:00 AM - 11:00 PM, Tuesday 6:00 AM - 11:00 PM, Wednesday 6:00 AM - 11:00 PM, Thursday 6:00 AM - 11:00 PM, Friday 6:00 AM - 12:00 AM, Saturday 12:00 AM - 12:00 AM, Sunday 12:00 AM - 11:00 PM",,,
Ashtabula &#8211 Prospect,2210,1601 Prospect Road,,Ashtabula,OH,44004-6671,USA,(440) 993-8296,41.860187,-80.804675,"Monday 7:00 AM - 10:00 PM, Tuesday 7:00 AM - 10:00 PM, Wednesday 7:00 AM - 10:00 PM, Thursday 7:00 AM - 10:00 PM, Friday 7:00 AM - 10:00 PM, Saturday 7:00 AM - 10:00 PM, Sunday 7:00 AM - 10:00 PM",,,
Grove City &#8211 W. Main Street,2201,915 W. Main Street,,Grove City,PA,16127-1115,USA,(724) 458-8810,41.164433,-80.098073,"Monday 6:00 AM - 10:00 PM, Tuesday 6:00 AM - 10:00 PM, Wednesday 6:00 AM - 10:00 PM, Thursday 6:00 AM - 10:00 PM, Friday 6:00 AM - 12:00 AM, Saturday 6:00 AM - 12:00 AM, Sunday 6:00 AM - 10:00 PM",,,
Greenville &#8211 Hadley Road,2200,358 Hadley Road,,Greenville,PA,16125,USA,(724) 588-4551,41.418381,-80.332141,"Monday 6:00 AM - 10:00 PM, Tuesday 6:00 AM - 10:00 PM, Wednesday 6:00 AM - 10:00 PM, Thursday 6:00 AM - 10:00 PM, Friday 12:00 AM - 12:00 AM, Saturday 12:00 AM - 12:00 AM, Sunday 6:00 AM - 10:00 PM",,,
Lakeville,2299,17387 Kenyon Ave.,,Lakeville,MN,55044,USA,(952) 892-7654,44.69696,-93.29044,"Monday 12:00 AM - 12:00 AM, Tuesday 12:00 AM - 12:00 AM, Wednesday 12:00 AM - 12:00 AM, Thursday 12:00 AM - 12:00 AM, Friday 12:00 AM - 12:00 AM, Saturday 12:00 AM - 12:00 AM, Sunday 12:00 AM - 12:00 AM",,,
Apple Valley &#8211 150th St. W.,2436,7620 150th St W,,Apple Valley,MN,55124-7188,USA,(952) 432-0626,44.731407,-93.218708,"Monday 12:00 AM - 12:00 AM, Tuesday 12:00 AM - 12:00 AM, Wednesday 12:00 AM - 12:00 AM, Thursday 12:00 AM - 12:00 AM, Friday 12:00 AM - 12:00 AM, Saturday 12:00 AM - 12:00 AM, Sunday 12:00 AM - 12:00 AM",,,
Sioux Falls &#8211 North Cliff,2146,5304 N Cliff,,Sioux Falls,SD,57104-0545,USA,(605) 335-7918,43.604463,-96.710792,"Monday 6:00 AM - 11:00 PM, Tuesday 6:00 AM - 11:00 PM, Wednesday 6:00 AM - 11:00 PM, Thursday 6:00 AM - 11:00 PM, Friday 6:00 AM - 11:00 PM, Saturday 6:00 AM - 11:00 PM, Sunday 6:00 AM - 11:00 PM",,,
Orlando I Sand Lake Rd.,2399,6813 Sand Lake Rd,,Orlando,FL,32819-9302,USA,(407) 351-0373,28.450362,-81.470394,"Monday 12:00 AM - 12:00 AM, Tuesday 12:00 AM - 12:00 AM, Wednesday 12:00 AM - 12:00 AM, Thursday 12:00 AM - 12:00 AM, Friday 12:00 AM - 12:00 AM, Saturday 12:00 AM - 12:00 AM, Sunday 12:00 AM - 12:00 AM",,,
Orlando &#8211 University,2363,6425 University Blvd.,,Winter Park,FL,32792-7404,USA,(407) 679-6798,28.598003,-81.297916,"Monday 6:00 AM - 12:00 AM, Tuesday 6:00 AM - 12:00 AM, Wednesday 6:00 AM - 12:00 AM, Thursday 6:00 AM - 12:00 AM, Friday 6:00 AM - 12:00 AM, Saturday 6:00 AM - 12:00 AM, Sunday 6:00 AM - 12:00 AM",,,
Kissimmee II Maingate,2398,7451 W Irlo Bronson Hwy,,Kissimmee,FL,34747-1722,USA,(407) 396-0845,28.333141,-81.584694,"Monday 12:00 AM - 12:00 AM, Tuesday 12:00 AM - 12:00 AM, Wednesday 12:00 AM - 12:00 AM, Thursday 12:00 AM - 12:00 AM, Friday 12:00 AM - 12:00 AM, Saturday 12:00 AM - 12:00 AM, Sunday 12:00 AM - 12:00 AM",,,
River Falls,2338,1109 N Main Street,,River Falls,WI,54022-2933,USA,(715) 425-6146,44.8711,-92.622493,"Monday 6:00 AM - 10:00 PM, Tuesday 6:00 AM - 10:00 PM, Wednesday 6:00 AM - 10:00 PM, Thursday 6:00 AM - 10:00 PM, Friday 6:00 AM - 11:00 PM, Saturday 6:00 AM - 11:00 PM, Sunday 6:00 AM - 11:00 PM",,,
Disney &#8211 Buena Vista,2395,12559 State Road 535,,Orlando,FL,32836-6724,USA,(407) 827-1060,28.380727,-81.504487,"Monday 12:00 AM - 12:00 AM, Tuesday 12:00 AM - 12:00 AM, Wednesday 12:00 AM - 12:00 AM, Thursday 12:00 AM - 12:00 AM, Friday 12:00 AM - 12:00 AM, Saturday 12:00 AM - 12:00 AM, Sunday 12:00 AM - 12:00 AM",,,
"Cottage Grove, MN",2369,7165 SE Point Douglas Rd,,Cottage Grove,MN,55016-3026,USA,(651) 459-9146,44.831183,-92.961288,"Monday 6:00 AM - 12:00 AM, Tuesday 6:00 AM - 12:00 AM, Wednesday 6:00 AM - 12:00 AM, Thursday 6:00 AM - 12:00 AM, Friday 12:00 AM - 12:00 AM, Saturday 12:00 AM - 12:00 AM, Sunday 6:00 AM - 12:00 AM",,,
Savage,2257,14435 Trunk Highway 13,,Savage,MN,55378,USA,(952) 440-1276,44.756659,-93.379636,"Monday 5:30 AM - 12:00 AM, Tuesday 5:30 AM - 12:00 AM, Wednesday 5:30 AM - 12:00 AM, Thursday 5:30 AM - 12:00 AM, Friday 5:30 AM - 12:00 AM, Saturday 12:00 AM - 12:00 AM, Sunday 12:00 AM - 12:00 AM",,,
Baseball/Boardwalk,2403,43522 Hwy 27,,Davenport,FL,33837-9801,USA,(863) 424-1823,28.227623,-81.647864,"Monday 6:00 AM - 11:00 PM, Tuesday 6:00 AM - 11:00 PM, Wednesday 6:00 AM - 11:00 PM, Thursday 6:00 AM - 11:00 PM, Friday 6:00 AM - 12:00 AM, Saturday 6:00 AM - 12:00 AM, Sunday 6:00 AM - 11:00 PM",,,
Kissimmee I &#8211 Poinciana,2405,5170 W Irlo Bronson Hwy,,Kissimmee,FL,34746-5346,USA,(407) 396-8960,28.332349,-81.48986,"Monday 6:00 AM - 1:00 AM, Tuesday 6:00 AM - 1:00 AM, Wednesday 6:00 AM - 1:00 AM, Thursday 6:00 AM - 1:00 AM, Friday 6:00 AM - 2:00 AM, Saturday 6:00 AM - 2:00 AM, Sunday 6:00 AM - 1:00 AM",,,
Eagan,2386,1345 Town Centre Drive,,Eagan,MN,55123-2309,USA,(651) 454-8369,44.83044,-93.164869,"Monday 12:00 AM - 12:00 AM, Tuesday 12:00 AM - 12:00 AM, Wednesday 12:00 AM - 12:00 AM, Thursday 12:00 AM - 12:00 AM, Friday 12:00 AM - 12:00 AM, Saturday 12:00 AM - 12:00 AM, Sunday 12:00 AM - 12:00 AM",,,
"Kissimmee, FL",2415,1600 West Osceola Pkwy,,Kissimmee,FL,34741,USA,(407) 870-0313,28.341733,-81.420828,"Monday 6:00 AM - 12:00 AM, Tuesday 6:00 AM - 12:00 AM, Wednesday 6:00 AM - 12:00 AM, Thursday 6:00 AM - 12:00 AM, Friday 6:00 AM - 12:00 AM, Saturday 6:00 AM - 12:00 AM, Sunday 6:00 AM - 12:00 AM",,,
Shakopee &#8211 E. 1st Ave.,2421,1205 1st Ave E,,Shakopee,MN,55379-1610,USA,(952) 445-6475,44.801109,-93.509963,"Monday 12:00 AM - 12:00 AM, Tuesday 12:00 AM - 12:00 AM, Wednesday 12:00 AM - 12:00 AM, Thursday 12:00 AM - 12:00 AM, Friday 12:00 AM - 12:00 AM, Saturday 12:00 AM - 12:00 AM, Sunday 12:00 AM - 12:00 AM",,,
Bradenton,2172,6023 14th Street W,,Bradenton,FL,34207-4105,USA,(941) 755-2658,27.433212,-82.575079,"Monday 12:00 AM - 12:00 AM, Tuesday 12:00 AM - 12:00 AM, Wednesday 12:00 AM - 12:00 AM, Thursday 12:00 AM - 12:00 AM, Friday 12:00 AM - 12:00 AM, Saturday 12:00 AM - 12:00 AM, Sunday 12:00 AM - 12:00 AM",,,
Lyndale,2475,8324 Lyndale Ave South,,Bloomington,MN,55420-2263,USA,(952) 888-4925,44.852578,-93.289091,"Monday 6:00 AM - 12:00 AM, Tuesday 6:00 AM - 12:00 AM, Wednesday 6:00 AM - 12:00 AM, Thursday 6:00 AM - 12:00 AM, Friday 6:00 AM - 12:00 AM, Saturday 6:00 AM - 12:00 AM, Sunday 6:00 AM - 12:00 AM",,,
Hudson,2241,1040 Pearson Drive,,Hudson,WI,54016,USA,(715) 386-9441,44.959058,-92.719022,"Monday 6:00 AM - 11:00 PM, Tuesday 6:00 AM - 11:00 PM, Wednesday 6:00 AM - 11:00 PM, Thursday 6:00 AM - 11:00 PM, Friday 12:00 AM - 12:00 AM, Saturday 12:00 AM - 12:00 AM, Sunday 6:00 AM - 11:00 PM",,,
Woodbury,2391,7325 Currell Blvd.,,Woodbury,MN,55125-1687,USA,(651) 735-6360,44.924979,-92.957599,"Monday 12:00 AM - 12:00 AM, Tuesday 12:00 AM - 12:00 AM, Wednesday 12:00 AM - 12:00 AM, Thursday 12:00 AM - 12:00 AM, Friday 12:00 AM - 12:00 AM, Saturday 12:00 AM - 12:00 AM, Sunday 12:00 AM - 12:00 AM",,,
West St Paul,2096,1365 S Robert Street,,West St Paul,MN,55118-3141,USA,(651) 457-1331,44.90494,-93.081187,"Monday 12:00 AM - 12:00 AM, Tuesday 12:00 AM - 12:00 AM, Wednesday 12:00 AM - 12:00 AM, Thursday 12:00 AM - 12:00 AM, Friday 12:00 AM - 12:00 AM, Saturday 12:00 AM - 12:00 AM, Sunday 12:00 AM - 12:00 AM",,,
France &#038 494,2435,4201 W 78th St.,,Bloomington,MN,55435-5488,USA,(952) 831-8855,44.85953,-93.330504,"Monday 12:00 AM - 12:00 AM, Tuesday 12:00 AM - 12:00 AM, Wednesday 12:00 AM - 12:00 AM, Thursday 12:00 AM - 12:00 AM, Friday 12:00 AM - 12:00 AM, Saturday 12:00 AM - 12:00 AM, Sunday 12:00 AM - 12:00 AM",,,
"Chaska, MN",2344,Chaska Commons 184 Pioneer Trl,,Chaska,MN,55318,USA,(952) 448-6039,44.828506,-93.599803,"Monday 6:00 AM - 12:00 AM, Tuesday 6:00 AM - 12:00 AM, Wednesday 6:00 AM - 12:00 AM, Thursday 6:00 AM - 12:00 AM, Friday 12:00 AM - 12:00 AM, Saturday 12:00 AM - 12:00 AM, Sunday 6:00 AM - 12:00 AM",,,
Conneaut &#8211 Rt 20 W Conneaut Pl,2186,348 W Main Rd-Conneaut Plaza,,Conneaut,OH,44030-2043,USA,(440) 593-2500,41.947555,-80.554241,"Monday 7:00 AM - 9:00 PM, Tuesday 7:00 AM - 9:00 PM, Wednesday 7:00 AM - 9:00 PM, Thursday 7:00 AM - 9:00 PM, Friday 7:00 AM - 9:00 PM, Saturday 7:00 AM - 9:00 PM, Sunday 7:00 AM - 9:00 PM",,,
"Bartow, FL",2347,150 E Van Fleet Dr,,Bartow,FL,33830,USA,(863) 533-9688,27.90445,-81.842222,"Monday 6:00 AM - 11:00 PM, Tuesday 6:00 AM - 11:00 PM, Wednesday 6:00 AM - 11:00 PM, Thursday 6:00 AM - 11:00 PM, Friday 6:00 AM - 11:00 PM, Saturday 6:00 AM - 11:00 PM, Sunday 6:00 AM - 11:00 PM",,,
Chanhassen,2380,951 West 78th Street,,Chanhassen,MN,55317-9565,USA,(952) 474-9460,44.861872,-93.545858,"Monday 6:00 AM - 12:00 AM, Tuesday 6:00 AM - 12:00 AM, Wednesday 6:00 AM - 12:00 AM, Thursday 6:00 AM - 12:00 AM, Friday 6:00 AM - 12:00 AM, Saturday 12:00 AM - 12:00 AM, Sunday 12:00 AM - 12:00 AM",,,
Meadville,2182,18276 Conneaut Lake Road,,Meadville,PA,16335-3758,USA,(814) 336-6000,41.621585,-80.171411,"Monday 6:00 AM - 10:00 PM, Tuesday 6:00 AM - 10:00 PM, Wednesday 6:00 AM - 10:00 PM, Thursday 6:00 AM - 10:00 PM, Friday 6:00 AM - 12:00 AM, Saturday 6:00 AM - 12:00 AM, Sunday 6:00 AM - 10:00 PM",,,
Edina &#8211 Hwy 100,2473,4917 Eden Ave,,Edina,MN,55424-1331,USA,(952) 927-4049,44.910141,-93.349751,"Monday 12:00 AM - 12:00 AM, Tuesday 12:00 AM - 12:00 AM, Wednesday 12:00 AM - 12:00 AM, Thursday 12:00 AM - 12:00 AM, Friday 12:00 AM - 12:00 AM, Saturday 12:00 AM - 12:00 AM, Sunday 12:00 AM - 12:00 AM",,,
Midway,2387,1544 University Avenue,,St Paul,MN,55104-3908,USA,(651) 659-0772,44.955336,-93.164008,"Monday 12:00 AM - 12:00 AM, Tuesday 12:00 AM - 12:00 AM, Wednesday 12:00 AM - 12:00 AM, Thursday 12:00 AM - 12:00 AM, Friday 12:00 AM - 12:00 AM, Saturday 12:00 AM - 12:00 AM, Sunday 12:00 AM - 12:00 AM",,,
"Winter Haven, FL",2352,6005 Cypress Gardens Blvd,,Winter Haven,FL,33884,USA,(863) 875-0620,27.988974,-81.687712,"Monday 6:00 AM - 12:00 AM, Tuesday 6:00 AM - 12:00 AM, Wednesday 6:00 AM - 12:00 AM, Thursday 6:00 AM - 12:00 AM, Friday 6:00 AM - 12:00 AM, Saturday 6:00 AM - 12:00 AM, Sunday 6:00 AM - 12:00 AM",,,
Maplewood II,2147,1829 N Saint Paul Rd.,,Maplewood,MN,55109-4707,USA,(651) 770-6540,44.995109,-93.022976,"Monday 6:00 AM - 11:00 PM, Tuesday 6:00 AM - 11:00 PM, Wednesday 6:00 AM - 11:00 PM, Thursday 6:00 AM - 11:00 PM, Friday 6:00 AM - 11:00 PM, Saturday 6:00 AM - 11:00 PM, Sunday 6:00 AM - 11:00 PM",,,
Riverside &#8211 27th Ave S,2454,901 27th Ave S,,Minneapolis,MN,55406-1102,USA,(612) 339-6865,44.963681,-93.232703,"Monday 6:00 AM - 12:00 AM, Tuesday 6:00 AM - 12:00 AM, Wednesday 6:00 AM - 12:00 AM, Thursday 6:00 AM - 12:00 AM, Friday 6:00 AM - 12:00 AM, Saturday 6:00 AM - 12:00 AM, Sunday 6:00 AM - 12:00 AM",,,
Stillwater,2086,2050 W. Frontage Rd.,,Stillwater,MN,55082-0194,USA,(651) 430-1033,45.036792,-92.834349,"Monday 6:00 AM - 10:00 PM, Tuesday 6:00 AM - 10:00 PM, Wednesday 6:00 AM - 10:00 PM, Thursday 6:00 AM - 10:00 PM, Friday 12:00 AM - 12:00 AM, Saturday 12:00 AM - 12:00 AM, Sunday 6:00 AM - 9:00 PM",,,
Hopkins,2474,11300 Highway 7,,Minnetonka,MN,55305-6916,USA,(952) 933-5220,44.933449,-93.422283,"Monday 12:00 AM - 12:00 AM, Tuesday 12:00 AM - 12:00 AM, Wednesday 12:00 AM - 12:00 AM, Thursday 12:00 AM - 12:00 AM, Friday 12:00 AM - 12:00 AM, Saturday 12:00 AM - 12:00 AM, Sunday 12:00 AM - 12:00 AM",,,
Roseville,2425,1495 County Road B West,,Roseville,MN,55113,USA,(651) 633-8080,45.006292,-93.16287,"Monday 12:00 AM - 12:00 AM, Tuesday 12:00 AM - 12:00 AM, Wednesday 12:00 AM - 12:00 AM, Thursday 12:00 AM - 12:00 AM, Friday 12:00 AM - 12:00 AM, Saturday 12:00 AM - 12:00 AM, Sunday 12:00 AM - 12:00 AM",,,
Menominee,2154,2340 10th St.,,Menominee,MI,49858-2002,USA,(906) 863-1565,45.119899,-87.613548,"Monday 12:00 AM - 12:00 AM, Tuesday 12:00 AM - 12:00 AM, Wednesday 12:00 AM - 12:00 AM, Thursday 12:00 AM - 12:00 AM, Friday 12:00 AM - 12:00 AM, Saturday 12:00 AM - 12:00 AM, Sunday 12:00 AM - 12:00 AM",,,
Maplewood &#8211 County Rd. D,2444,2009 County Road D E,,Maplewood,MN,55109-5313,USA,(651) 777-8306,45.03638,-93.015549,"Monday 12:00 AM - 12:00 AM, Tuesday 12:00 AM - 12:00 AM, Wednesday 12:00 AM - 12:00 AM, Thursday 12:00 AM - 12:00 AM, Friday 12:00 AM - 12:00 AM, Saturday 12:00 AM - 12:00 AM, Sunday 12:00 AM - 12:00 AM",,,
Golden Valley II &#8211 Wayzata,2427,6920 Wayzata Blvd.,,Golden Valley,MN,55426-1718,USA,(763) 546-5404,44.972479,-93.368531,"Monday 6:00 AM - 12:00 AM, Tuesday 6:00 AM - 12:00 AM, Wednesday 6:00 AM - 12:00 AM, Thursday 6:00 AM - 12:00 AM, Friday 6:00 AM - 12:00 AM, Saturday 6:00 AM - 12:00 AM, Sunday 6:00 AM - 12:00 AM",,,
Sarasota,2310,5921 Fruitville Rd.,,Sarasota,FL,34232-6436,USA,(941) 342-6655,27.339746,-82.450073,"Monday 12:00 AM - 12:00 AM, Tuesday 12:00 AM - 12:00 AM, Wednesday 12:00 AM - 12:00 AM, Thursday 12:00 AM - 12:00 AM, Friday 12:00 AM - 12:00 AM, Saturday 12:00 AM - 12:00 AM, Sunday 12:00 AM - 12:00 AM",,,
Golden Valley I &#8211 Olson Mem.,2470,8806 Highway 55,,Golden Valley,MN,55427-5754,USA,(763) 544-8859,44.984929,-93.388607,"Monday 6:00 AM - 12:00 AM, Tuesday 6:00 AM - 12:00 AM, Wednesday 6:00 AM - 12:00 AM, Thursday 6:00 AM - 12:00 AM, Friday 6:00 AM - 12:00 AM, Saturday 6:00 AM - 12:00 AM, Sunday 6:00 AM - 12:00 AM",,,
Indiana,2195,1871 Oakland Avenue,,Indiana,PA,15701-3304,USA,(724) 463-0400,40.611941,-79.175428,"Monday 6:00 AM - 10:00 PM, Tuesday 6:00 AM - 10:00 PM, Wednesday 6:00 AM - 10:00 PM, Thursday 6:00 AM - 10:00 PM, Friday 6:00 AM - 12:00 AM, Saturday 6:00 AM - 12:00 AM, Sunday 6:00 AM - 10:00 PM",,,
Vadnais Heights,2089,1045 County Road E,,Vadnais Heights,MN,55110-5162,USA,(651) 426-1643,45.050743,-93.05592,"Monday 12:00 AM - 12:00 AM, Tuesday 12:00 AM - 12:00 AM, Wednesday 12:00 AM - 12:00 AM, Thursday 12:00 AM - 12:00 AM, Friday 12:00 AM - 12:00 AM, Saturday 12:00 AM - 12:00 AM, Sunday 12:00 AM - 12:00 AM",,,
New Brighton &#8211 Cty Rd D,2467,696 W County Rd D,,New Brighton,MN,55112-3518,USA,(651) 631-2026,45.036117,-93.195837,"Monday 12:00 AM - 12:00 AM, Tuesday 12:00 AM - 12:00 AM, Wednesday 12:00 AM - 12:00 AM, Thursday 12:00 AM - 12:00 AM, Friday 12:00 AM - 12:00 AM, Saturday 12:00 AM - 12:00 AM, Sunday 12:00 AM - 12:00 AM",,,
Arden Hills,2162,3855 North Lexington Ave.,,Arden Hills,MN,55126,USA,(651) 482-9234,45.058026,-93.147927,"Monday 5:30 AM - 12:00 AM, Tuesday 5:30 AM - 12:00 AM, Wednesday 5:30 AM - 12:00 AM, Thursday 5:30 AM - 12:00 AM, Friday 5:30 AM - 12:00 AM, Saturday 12:00 AM - 12:00 AM, Sunday 12:00 AM - 12:00 AM",,,
Plymouth &#8211 Empire Lane,2462,2945 Empire Ln N,,Plymouth,MN,55447-5316,USA,(763) 559-0270,45.012002,-93.458926,"Monday 12:00 AM - 12:00 AM, Tuesday 12:00 AM - 12:00 AM, Wednesday 12:00 AM - 12:00 AM, Thursday 12:00 AM - 12:00 AM, Friday 12:00 AM - 12:00 AM, Saturday 12:00 AM - 12:00 AM, Sunday 12:00 AM - 12:00 AM",,,
Crystal &#8211 W. Broadway,2461,5420 W Broadway Avenue,,Crystal,MN,55428-3506,USA,(763) 533-1313,45.05182,-93.361712,"Monday 6:00 AM - 12:00 AM, Tuesday 6:00 AM - 12:00 AM, Wednesday 6:00 AM - 12:00 AM, Thursday 6:00 AM - 12:00 AM, Friday 6:00 AM - 12:00 AM, Saturday 6:00 AM - 12:00 AM, Sunday 6:00 AM - 12:00 AM",,,
Johnstown,2098,505 Galleria Drive,,Johnstown,PA,15904-8901,USA,(814) 262-0266,40.300314,-78.833673,"Monday 6:00 AM - 11:00 PM, Tuesday 6:00 AM - 11:00 PM, Wednesday 6:00 AM - 11:00 PM, Thursday 6:00 AM - 11:00 PM, Friday 6:00 AM - 12:00 AM, Saturday 6:00 AM - 12:00 AM, Sunday 6:00 AM - 10:00 PM",,,
Fridley &#8211 University Ave.,2452,7520 University Ave NE,,Fridley,MN,55432-2614,USA,(763) 574-1670,45.1051,-93.264799,"Monday 12:00 AM - 12:00 AM, Tuesday 12:00 AM - 12:00 AM, Wednesday 12:00 AM - 12:00 AM, Thursday 12:00 AM - 12:00 AM, Friday 12:00 AM - 12:00 AM, Saturday 12:00 AM - 12:00 AM, Sunday 12:00 AM - 12:00 AM",,,
Maple Grove &#8211 73rd Ave.,2406,11801 73rd Ave N,,Maple Grove,MN,55369-5596,USA,(763) 424-2020,45.087081,-93.429965,"Monday 12:00 AM - 12:00 AM, Tuesday 12:00 AM - 12:00 AM, Wednesday 12:00 AM - 12:00 AM, Thursday 12:00 AM - 12:00 AM, Friday 12:00 AM - 12:00 AM, Saturday 12:00 AM - 12:00 AM, Sunday 12:00 AM - 12:00 AM",,,
Marshall,2293,908 E Main Street,,Marshall,MN,56258,USA,(507) 532-7381,44.43724,-95.77575,"Monday 6:00 AM - 12:00 AM, Tuesday 6:00 AM - 12:00 AM, Wednesday 6:00 AM - 12:00 AM, Thursday 6:00 AM - 12:00 AM, Friday 6:00 AM - 2:00 AM, Saturday 6:00 AM - 2:00 AM, Sunday 6:00 AM - 12:00 AM",,,
Winchester,2275,711 Millwood Ave.,,Winchester,VA,22601,USA,(540) 678-4015,39.163175,-78.160782,"Monday 6:00 AM - 10:00 PM, Tuesday 6:00 AM - 10:00 PM, Wednesday 6:00 AM - 10:00 PM, Thursday 6:00 AM - 10:00 PM, Friday 6:00 AM - 10:00 PM, Saturday 6:00 AM - 10:00 PM, Sunday 6:00 AM - 10:00 PM",,,
Osseo,2367,8585 Aspen Lane N,,Brooklyn Park,MN,55445-1842,USA,(763) 493-4444,45.110264,-93.394442,"Monday 12:00 AM - 12:00 AM, Tuesday 12:00 AM - 12:00 AM, Wednesday 12:00 AM - 12:00 AM, Thursday 12:00 AM - 12:00 AM, Friday 12:00 AM - 12:00 AM, Saturday 12:00 AM - 12:00 AM, Sunday 12:00 AM - 12:00 AM",,,
North Platte,2144,2302 South Jeffers Street,,North Platte,NE,69101-9696,USA,(308) 534-7375,41.117338,-100.763994,"Monday 12:00 AM - 12:00 AM, Tuesday 12:00 AM - 12:00 AM, Wednesday 12:00 AM - 12:00 AM, Thursday 12:00 AM - 12:00 AM, Friday 12:00 AM - 12:00 AM, Saturday 12:00 AM - 12:00 AM, Sunday 12:00 AM - 12:00 AM",,,
Clarion,2215,78 Perkins Road,,Clarion,PA,16214-8528,USA,(814) 226-4410,41.189982,-79.394462,"Monday 6:00 AM - 12:00 AM, Tuesday 6:00 AM - 12:00 AM, Wednesday 6:00 AM - 12:00 AM, Thursday 6:00 AM - 12:00 AM, Friday 12:00 AM - 12:00 AM, Saturday 12:00 AM - 12:00 AM, Sunday 6:00 AM - 12:00 AM",,,
Blaine,2418,12545 Ulysses St. NE,,Blaine,MN,55434-4861,USA,(763) 755-9031,45.19778,-93.236546,"Monday 12:00 AM - 12:00 AM, Tuesday 12:00 AM - 12:00 AM, Wednesday 12:00 AM - 12:00 AM, Thursday 12:00 AM - 12:00 AM, Friday 12:00 AM - 12:00 AM, Saturday 12:00 AM - 12:00 AM, Sunday 12:00 AM - 12:00 AM",,,
Venice,2171,1331 South 41 Bypass,,Venice,FL,34292,USA,(941) 497-1154,27.079868,-82.424456,"Monday 12:00 AM - 12:00 AM, Tuesday 12:00 AM - 12:00 AM, Wednesday 12:00 AM - 12:00 AM, Thursday 12:00 AM - 12:00 AM, Friday 12:00 AM - 12:00 AM, Saturday 12:00 AM - 12:00 AM, Sunday 12:00 AM - 12:00 AM",,,
Forest Lake,2350,1155 West Broadway,,Forest Lake,MN,55025-1416,USA,(651) 464-3270,45.279816,-92.998006,"Monday 6:00 AM - 12:00 AM, Tuesday 6:00 AM - 12:00 AM, Wednesday 6:00 AM - 12:00 AM, Thursday 6:00 AM - 12:00 AM, Friday 12:00 AM - 12:00 AM, Saturday 12:00 AM - 12:00 AM, Sunday 6:00 AM - 12:00 AM",,,
Anoka &#8211 West Main,2469,601 W Main,,Anoka,MN,55303-0754,USA,(763) 421-0160,45.206741,-93.401954,"Monday 12:00 AM - 12:00 AM, Tuesday 12:00 AM - 12:00 AM, Wednesday 12:00 AM - 12:00 AM, Thursday 12:00 AM - 12:00 AM, Friday 12:00 AM - 12:00 AM, Saturday 12:00 AM - 12:00 AM, Sunday 12:00 AM - 12:00 AM",,,
Titusville &#8211 Central Ave.,2203,219 E. Central Avenue,,Titusville,PA,16354-1844,USA,(814) 827-7339,41.626875,-79.670148,"Monday 7:00 AM - 10:00 PM, Tuesday 7:00 AM - 10:00 PM, Wednesday 7:00 AM - 10:00 PM, Thursday 7:00 AM - 10:00 PM, Friday 7:00 AM - 12:00 AM, Saturday 7:00 AM - 12:00 AM, Sunday 7:00 AM - 10:00 PM",,,
Erie &#8211 West,2199,2714 West Lake Road,,Erie,PA,16505-4023,USA,(814) 833-7612,42.103966,-80.148814,"Monday 7:00 AM - 9:00 PM, Tuesday 7:00 AM - 9:00 PM, Wednesday 7:00 AM - 9:00 PM, Thursday 7:00 AM - 9:00 PM, Friday 7:00 AM - 9:00 PM, Saturday 7:00 AM - 9:00 PM, Sunday 7:00 AM - 9:00 PM",,,
Erie &#8211 South,2198,4403 Peach Street,,Erie,PA,16509-1317,USA,(814) 864-0497,42.088247,-80.086014,"Monday 12:00 AM - 12:00 AM, Tuesday 12:00 AM - 12:00 AM, Wednesday 12:00 AM - 12:00 AM, Thursday 12:00 AM - 12:00 AM, Friday 12:00 AM - 12:00 AM, Saturday 12:00 AM - 12:00 AM, Sunday 12:00 AM - 12:00 AM",,,
Rice Lake,2292,2023 Cenex Dr.,,Rice Lake,WI,54868,USA,(715) 736-0282,45.511015,-91.763191,"Monday 12:00 AM - 12:00 AM, Tuesday 12:00 AM - 12:00 AM, Wednesday 12:00 AM - 12:00 AM, Thursday 12:00 AM - 12:00 AM, Friday 12:00 AM - 12:00 AM, Saturday 12:00 AM - 12:00 AM, Sunday 12:00 AM - 12:00 AM",,,
Buffalo,2119,801 Central Avenue,,Buffalo,MN,55313-1757,USA,(763) 682-5085,45.180475,-93.876874,"Monday 6:00 AM - 12:00 AM, Tuesday 6:00 AM - 12:00 AM, Wednesday 6:00 AM - 12:00 AM, Thursday 6:00 AM - 12:00 AM, Friday 6:00 AM - 12:00 AM, Saturday 6:00 AM - 12:00 AM, Sunday 6:00 AM - 12:00 AM",,,
Erie &#8211 East,2205,4334 Buffalo Road,,Erie,PA,16510-2114,USA,(814) 898-1212,42.146381,-80.003923,"Monday 6:00 AM - 10:00 PM, Tuesday 6:00 AM - 10:00 PM, Wednesday 6:00 AM - 10:00 PM, Thursday 6:00 AM - 10:00 PM, Friday 6:00 AM - 12:00 AM, Saturday 6:00 AM - 12:00 AM, Sunday 6:00 AM - 10:00 PM",,,
Elk River,2099,18838 Dodge St NW,,Elk River,MN,55330-5708,USA,(763) 441-5066,45.31274,-93.557669,"Monday 12:00 AM - 12:00 AM, Tuesday 12:00 AM - 12:00 AM, Wednesday 12:00 AM - 12:00 AM, Thursday 12:00 AM - 12:00 AM, Friday 12:00 AM - 12:00 AM, Saturday 12:00 AM - 12:00 AM, Sunday 12:00 AM - 12:00 AM",,,
Brookings,2178,2205 E 6th Street,,Brookings,SD,57006,USA,(605) 692-4400,44.312049,-96.767757,"Monday 6:00 AM - 12:00 AM, Tuesday 6:00 AM - 12:00 AM, Wednesday 6:00 AM - 12:00 AM, Thursday 6:00 AM - 12:00 AM, Friday 6:00 AM - 12:00 AM, Saturday 12:00 AM - 12:00 AM, Sunday 12:00 AM - 12:00 AM",,,
Mitchell,2126,1301 South Burr,,Mitchell,SD,57301-4758,USA,(605) 990-3646,43.697484,-98.018217,"Monday 6:00 AM - 11:00 PM, Tuesday 6:00 AM - 11:00 PM, Wednesday 6:00 AM - 11:00 PM, Thursday 6:00 AM - 11:00 PM, Friday 6:00 AM - 11:00 PM, Saturday 6:00 AM - 11:00 PM, Sunday 6:00 AM - 11:00 PM",,,
"North Port, FL",2432,6001 S. Salford Blvd,,North Port,FL,34287,USA,(941) 257-2130,27.033827,-82.208878,"Monday 6:00 AM - 12:00 AM, Tuesday 6:00 AM - 12:00 AM, Wednesday 6:00 AM - 12:00 AM, Thursday 6:00 AM - 12:00 AM, Friday 6:00 AM - 2:00 AM, Saturday 6:00 AM - 2:00 AM, Sunday 6:00 AM - 12:00 AM",,,
Viera,2335,8200 N. Wickham Rd,,Viera,FL,32940-7991,USA,(321) 752-5200,28.230755,-80.711324,"Monday 6:30 AM - 10:00 PM, Tuesday 6:30 AM - 10:00 PM, Wednesday 6:30 AM - 10:00 PM, Thursday 6:30 AM - 10:00 PM, Friday 6:30 AM - 12:00 AM, Saturday 6:30 AM - 12:00 AM, Sunday 6:30 AM - 10:00 PM",,,
Breezewood,2100,167 Post House Rd.,,Breezewood,PA,15533,USA,(814) 735-4076,39.998629,-78.238472,"Monday 12:00 AM - 12:00 AM, Tuesday 12:00 AM - 12:00 AM, Wednesday 12:00 AM - 12:00 AM, Thursday 12:00 AM - 12:00 AM, Friday 12:00 AM - 12:00 AM, Saturday 12:00 AM - 12:00 AM, Sunday 12:00 AM - 12:00 AM",,,
Monticello &#8211 Pine St.,2439,700 Pine Street,,Monticello,MN,55362-8575,USA,(763) 295-4400,45.300116,-93.797339,"Monday 12:00 AM - 12:00 AM, Tuesday 12:00 AM - 12:00 AM, Wednesday 12:00 AM - 12:00 AM, Thursday 12:00 AM - 12:00 AM, Friday 12:00 AM - 12:00 AM, Saturday 12:00 AM - 12:00 AM, Sunday 12:00 AM - 12:00 AM",,,
Corry &#8211 Columbus Ave.,2193,310 West Columbus Avenue,,Corry,PA,16407-1005,USA,(814) 664-4467,41.93545,-79.652533,"Monday 7:00 AM - 10:00 PM, Tuesday 7:00 AM - 10:00 PM, Wednesday 7:00 AM - 10:00 PM, Thursday 7:00 AM - 10:00 PM, Friday 7:00 AM - 12:00 AM, Saturday 7:00 AM - 12:00 AM, Sunday 7:00 AM - 10:00 PM",,,
Port Charlotte,2354,1700 Tamiami Trail,,Port Charlotte,FL,33948,USA,(941) 255-1155,27.009391,-82.136263,"Monday 6:00 AM - 12:00 AM, Tuesday 6:00 AM - 12:00 AM, Wednesday 6:00 AM - 12:00 AM, Thursday 6:00 AM - 12:00 AM, Friday 6:00 AM - 2:00 AM, Saturday 6:00 AM - 2:00 AM, Sunday 6:00 AM - 12:00 AM",,,
"North Branch, MN",2370,38624 Fourteenth Ave,,North Branch,MN,55056,USA,(651) 674-4058,45.508711,-92.991705,"Monday 6:00 AM - 10:00 PM, Tuesday 6:00 AM - 10:00 PM, Wednesday 6:00 AM - 10:00 PM, Thursday 6:00 AM - 10:00 PM, Friday 6:00 AM - 10:00 PM, Saturday 6:00 AM - 10:00 PM, Sunday 6:00 AM - 10:00 PM",,,
Altoona-JDK,2301,3300 Pleasant Valley Blvd.,,Altoona,PA,16602,USA,(814) 941-2100,40.484492,-78.401416,"Monday 6:00 AM - 11:00 PM, Tuesday 6:00 AM - 11:00 PM, Wednesday 6:00 AM - 11:00 PM, Thursday 6:00 AM - 11:00 PM, Friday 6:00 AM - 12:00 AM, Saturday 6:00 AM - 12:00 AM, Sunday 6:00 AM - 11:00 PM",,,
Cambridge,2289,140 North Garfield St.,,Cambridge,MN,55008,USA,(763) 552-5000,45.573219,-93.212989,"Monday 12:00 AM - 12:00 AM, Tuesday 12:00 AM - 12:00 AM, Wednesday 12:00 AM - 12:00 AM, Thursday 12:00 AM - 12:00 AM, Friday 12:00 AM - 12:00 AM, Saturday 12:00 AM - 12:00 AM, Sunday 12:00 AM - 12:00 AM",,,
DuBois,2184,1289 East DuBois Avenue,,Du Bois,PA,15801,USA,(814) 371-6500,41.123011,-78.730001,"Monday 6:00 AM - 11:00 PM, Tuesday 6:00 AM - 11:00 PM, Wednesday 6:00 AM - 11:00 PM, Thursday 6:00 AM - 11:00 PM, Friday 6:00 AM - 12:00 AM, Saturday 6:00 AM - 12:00 AM, Sunday 6:00 AM - 11:00 PM",,,
Willmar,2080,2645 South Hwy 71,,Willmar,MN,56201-4217,USA,(320) 235-5957,45.17142,-95.014644,"Monday 5:30 AM - 11:00 PM, Tuesday 5:30 AM - 11:00 PM, Wednesday 5:30 AM - 11:00 PM, Thursday 5:30 AM - 12:00 AM, Friday 12:00 AM - 12:00 AM, Saturday 12:00 AM - 12:00 AM, Sunday 12:00 AM - 11:00 PM",,,
Warren &#8211 Ludlow St.,2185,115 Ludlow Street,,Warren,PA,16365-1919,USA,(814) 723-3075,41.837333,-79.169558,"Monday 6:00 AM - 10:00 PM, Tuesday 6:00 AM - 10:00 PM, Wednesday 6:00 AM - 10:00 PM, Thursday 6:00 AM - 10:00 PM, Friday 6:00 AM - 12:00 AM, Saturday 6:00 AM - 12:00 AM, Sunday 6:00 AM - 10:00 PM",,,
Woodruff (Arbor Vitae),2322,195 Hwy 51 North,,Woodruff,WI,54568-9501,USA,(715) 356-9155,45.973054,-89.699513,"Monday 6:00 AM - 10:00 PM, Tuesday 6:00 AM - 10:00 PM, Wednesday 6:00 AM - 10:00 PM, Thursday 6:00 AM - 10:00 PM, Friday 6:00 AM - 10:00 PM, Saturday 6:00 AM - 10:00 PM, Sunday 6:00 AM - 10:00 PM",,,
St Cloud &#8211 Division St.,2093,118 6th Avenue South,,St Cloud,MN,56301-3621,USA,(320) 251-9011,45.559342,-94.157686,"Monday 12:00 AM - 12:00 AM, Tuesday 12:00 AM - 12:00 AM, Wednesday 12:00 AM - 12:00 AM, Thursday 12:00 AM - 12:00 AM, Friday 12:00 AM - 12:00 AM, Saturday 12:00 AM - 12:00 AM, Sunday 12:00 AM - 12:00 AM",,,
St Cloud &#8211 Park Avenue,2094,30 Park Avenue,,St Cloud,MN,56301-3711,USA,(320) 253-0300,45.552835,-94.208003,,,,
Sartell,2238,2291 Connecticut Avenue,,Sartell,MN,56377,USA,(320) 258-0213,45.586488,-94.203465,"Monday 6:00 AM - 11:00 PM, Tuesday 6:00 AM - 11:00 PM, Wednesday 6:00 AM - 11:00 PM, Thursday 6:00 AM - 11:00 PM, Friday 6:00 AM - 11:00 PM, Saturday 6:00 AM - 11:00 PM, Sunday 6:00 AM - 11:00 PM",,,
Chambersburg,2112,1324 Lincoln Hwy E,,Chambersburg,PA,17201-3083,USA,(717) 263-1112,39.938475,-77.669358,"Monday 6:00 AM - 11:00 PM, Tuesday 6:00 AM - 11:00 PM, Wednesday 6:00 AM - 11:00 PM, Thursday 6:00 AM - 11:00 PM, Friday 6:00 AM - 12:00 AM, Saturday 6:00 AM - 12:00 AM, Sunday 6:00 AM - 11:00 PM",,,
Hayward,2253,15551 Railroad Street,,Hayward,WI,54843,USA,(715) 934-4460,46.017218,-91.476166,"Monday 6:30 AM - 8:00 PM, Tuesday 6:30 AM - 8:00 PM, Wednesday 6:30 AM - 8:00 PM, Thursday 6:30 AM - 8:00 PM, Friday 6:30 AM - 8:00 PM, Saturday 6:30 AM - 8:00 PM, Sunday 6:30 AM - 7:00 PM",,,
Fort Myers North,2394,13620 N Cleveland Avenue,,Ft Myers,FL,33903-4307,USA,(239) 656-1999,26.664596,-81.886718,"Monday 6:00 AM - 12:00 AM, Tuesday 6:00 AM - 12:00 AM, Wednesday 6:00 AM - 12:00 AM, Thursday 6:00 AM - 12:00 AM, Friday 6:00 AM - 3:00 AM, Saturday 6:00 AM - 3:00 AM, Sunday 6:00 AM - 12:00 AM",,,
Cape Coral &#8211 Del Prado,2356,1551 Del Prado Boulevard S.,,Cape Coral,FL,33990,USA,(239) 772-9000,26.622949,-81.94035,"Monday 6:00 AM - 12:00 AM, Tuesday 6:00 AM - 12:00 AM, Wednesday 6:00 AM - 12:00 AM, Thursday 6:00 AM - 12:00 AM, Friday 12:00 AM - 12:00 AM, Saturday 12:00 AM - 12:00 AM, Sunday 6:00 AM - 12:00 AM",,,
Cape Coral &#8211 Cape Coral Pkwy,2355,1502 Cape Coral Pkwy,,Cape Coral,FL,33904,USA,(239) 540-8181,26.562275,-81.945362,"Monday 6:00 AM - 12:00 AM, Tuesday 6:00 AM - 12:00 AM, Wednesday 6:00 AM - 12:00 AM, Thursday 6:00 AM - 12:00 AM, Friday 6:00 AM - 3:00 AM, Saturday 6:00 AM - 3:00 AM, Sunday 6:00 AM - 12:00 AM",,,
Fort Myers South,2400,12300 Cleveland Avenue,,Ft Myers,FL,33907-3896,USA,(239) 936-1150,26.563135,-81.87256,"Monday 6:00 AM - 12:00 AM, Tuesday 6:00 AM - 12:00 AM, Wednesday 6:00 AM - 12:00 AM, Thursday 6:00 AM - 12:00 AM, Friday 12:00 AM - 12:00 AM, Saturday 12:00 AM - 12:00 AM, Sunday 6:00 AM - 12:00 AM",,,
Fort Myers Beach,2401,11410 Summerlin Square Drive,,Ft Myers Beach,FL,33931-5300,USA,(239) 466-2800,26.493509,-81.942848,"Monday 6:00 AM - 12:00 AM, Tuesday 6:00 AM - 12:00 AM, Wednesday 6:00 AM - 12:00 AM, Thursday 6:00 AM - 12:00 AM, Friday 12:00 AM - 12:00 AM, Saturday 12:00 AM - 12:00 AM, Sunday 6:00 AM - 12:00 AM",,,
Fort Myers Cypress,2359,14801 S Tamiami Trail,,Ft Myers,FL,33912,USA,(239) 590-9744,26.527249,-81.870618,"Monday 6:00 AM - 12:00 AM, Tuesday 6:00 AM - 12:00 AM, Wednesday 6:00 AM - 12:00 AM, Thursday 6:00 AM - 12:00 AM, Friday 6:00 AM - 3:00 AM, Saturday 6:00 AM - 3:00 AM, Sunday 6:00 AM - 12:00 AM",,,
Watertown,2106,600 9th Ave SE,,Watertown,SD,57201-5221,USA,(605) 882-3700,44.889701,-97.107791,"Monday 6:00 AM - 10:00 PM, Tuesday 6:00 AM - 10:00 PM, Wednesday 6:00 AM - 10:00 PM, Thursday 6:00 AM - 10:00 PM, Friday 6:00 AM - 10:00 PM, Saturday 6:00 AM - 10:00 PM, Sunday 6:00 AM - 10:00 PM",,,
Lehigh Acres,2372,2700 Lee Blvd,,Lehigh Acres,FL,33971-1418,USA,(239) 369-1118,26.617601,-81.667668,"Monday 6:00 AM - 12:00 AM, Tuesday 6:00 AM - 12:00 AM, Wednesday 6:00 AM - 12:00 AM, Thursday 6:00 AM - 12:00 AM, Friday 6:00 AM - 3:00 AM, Saturday 6:00 AM - 3:00 AM, Sunday 6:00 AM - 12:00 AM",,,
State College,2220,525 Benner Pike,,State College,PA,16801,USA,(814) 237-0307,40.834474,-77.803067,"Monday 6:00 AM - 11:00 PM, Tuesday 6:00 AM - 11:00 PM, Wednesday 6:00 AM - 11:00 PM, Thursday 6:00 AM - 11:00 PM, Friday 6:00 AM - 1:00 AM, Saturday 6:00 AM - 1:00 AM, Sunday 6:00 AM - 11:00 PM",,,
Gettysburg,2334,859 York Rd.,,Gettysburg,PA,17325-7501,USA,(717) 337-1923,39.837175,-77.212402,"Monday 6:00 AM - 10:00 PM, Tuesday 6:00 AM - 10:00 PM, Wednesday 6:00 AM - 10:00 PM, Thursday 6:00 AM - 10:00 PM, Friday 6:00 AM - 11:00 PM, Saturday 6:00 AM - 11:00 PM, Sunday 6:00 AM - 10:00 PM",,,
Bradford &#8211 Bolivar Dr.,2194,3135 Bolivar Drive,,Bradford,PA,16701,USA,(814) 368-5873,41.97674,-78.61956,"Monday 7:00 AM - 10:00 PM, Tuesday 7:00 AM - 10:00 PM, Wednesday 7:00 AM - 10:00 PM, Thursday 7:00 AM - 10:00 PM, Friday 7:00 AM - 12:00 AM, Saturday 7:00 AM - 12:00 AM, Sunday 7:00 AM - 10:00 PM",,,
Estero,2259,20320 Grande Oak Shoppes Blvd,,Estero,FL,33928-7663,USA,(239) 498-8773,26.439362,-81.771201,"Monday 6:30 AM - 9:00 PM, Tuesday 6:30 AM - 9:00 PM, Wednesday 6:30 AM - 9:00 PM, Thursday 6:30 AM - 9:00 PM, Friday 6:30 AM - 10:00 PM, Saturday 6:30 AM - 10:00 PM, Sunday 6:30 AM - 9:00 PM",,,
Little Falls,2312,201 16th St. NE,,Little Falls,MN,56345-3389,USA,(320) 632-5610,45.975687,-94.337606,"Monday 12:00 AM - 12:00 AM, Tuesday 12:00 AM - 12:00 AM, Wednesday 12:00 AM - 12:00 AM, Thursday 12:00 AM - 12:00 AM, Friday 12:00 AM - 12:00 AM, Saturday 12:00 AM - 12:00 AM, Sunday 12:00 AM - 12:00 AM",,,
Bonita Springs,2375,27940 Crown Lake Blvd.,,Bonita Springs,FL,34135-4240,USA,(239) 498-0300,26.331266,-81.805128,"Monday 6:00 AM - 12:00 AM, Tuesday 6:00 AM - 12:00 AM, Wednesday 6:00 AM - 12:00 AM, Thursday 6:00 AM - 12:00 AM, Friday 6:00 AM - 3:00 AM, Saturday 6:00 AM - 3:00 AM, Sunday 6:00 AM - 12:00 AM",,,
Hanover,2330,300 Eisenhower Drive,,Hanover,PA,17331-5223,USA,(717) 630-2990,39.825802,-76.988005,"Monday 6:00 AM - 11:00 PM, Tuesday 6:00 AM - 11:00 PM, Wednesday 6:00 AM - 11:00 PM, Thursday 6:00 AM - 11:00 PM, Friday 6:00 AM - 1:00 AM, Saturday 6:00 AM - 1:00 AM, Sunday 6:00 AM - 11:00 PM",,,
Olean &#8211 State Street,2187,2728 West State Street,,Olean,NY,14760-1827,USA,(716) 373-3610,42.077307,-78.461836,"Monday 7:00 AM - 10:00 PM, Tuesday 7:00 AM - 10:00 PM, Wednesday 7:00 AM - 10:00 PM, Thursday 7:00 AM - 10:00 PM, Friday 7:00 AM - 10:00 PM, Saturday 7:00 AM - 10:00 PM, Sunday 7:00 AM - 10:00 PM",,,
Naples III,2294,3585 Pine Ridge Road,,Naples,FL,34109,USA,(239) 596-0700,26.212171,-81.745893,"Monday 7:00 AM - 10:00 PM, Tuesday 7:00 AM - 10:00 PM, Wednesday 7:00 AM - 10:00 PM, Thursday 7:00 AM - 10:00 PM, Friday 7:00 AM - 10:00 PM, Saturday 7:00 AM - 10:00 PM, Sunday 7:00 AM - 10:00 PM",,,
Alexandria &#8211 So. Hwy. 29,2437,4920 Hwy 29 S,,Alexandria,MN,56308-2905,USA,(320) 763-6611,45.846302,-95.389259,"Monday 12:00 AM - 12:00 AM, Tuesday 12:00 AM - 12:00 AM, Wednesday 12:00 AM - 12:00 AM, Thursday 12:00 AM - 12:00 AM, Friday 12:00 AM - 12:00 AM, Saturday 12:00 AM - 12:00 AM, Sunday 12:00 AM - 12:00 AM",,,
Port St. Lucie,2450,9202 S Federal Highway,,Port St. Lucie,FL,34952-4207,USA,(772) 337-0617,27.299898,-80.304479,"Monday 5:30 AM - 11:00 PM, Tuesday 5:30 AM - 11:00 PM, Wednesday 5:30 AM - 11:00 PM, Thursday 5:30 AM - 11:00 PM, Friday 12:00 AM - 12:00 AM, Saturday 12:00 AM - 12:00 AM, Sunday 6:00 AM - 10:00 PM",,,
Naples II,2323,4335 Tamiami Trail E,,Naples,FL,34112-6719,USA,(239) 775-8200,26.114809,-81.754126,"Monday 7:00 AM - 9:00 PM, Tuesday 7:00 AM - 9:00 PM, Wednesday 7:00 AM - 9:00 PM, Thursday 7:00 AM - 9:00 PM, Friday 7:00 AM - 9:00 PM, Saturday 7:00 AM - 9:00 PM, Sunday 7:00 AM - 9:00 PM",,,
Lemoyne/Camp Hill,2325,7 Erford Rd.,,Lemoyne,PA,17043,USA,(717) 763-0595,40.251783,-76.913238,"Monday 6:00 AM - 10:00 PM, Tuesday 6:00 AM - 10:00 PM, Wednesday 6:00 AM - 10:00 PM, Thursday 6:00 AM - 10:00 PM, Friday 6:00 AM - 11:00 PM, Saturday 6:00 AM - 11:00 PM, Sunday 6:00 AM - 10:00 PM",,,
St Catharines,2123,89 Meadowvale Drive,,St Catharines,ONT,L2N 3Z8,CAN,(905) 935-4522,43.179163,-79.253478,"Monday 6:00 AM - 10:00 PM, Tuesday 6:00 AM - 10:00 PM, Wednesday 6:00 AM - 10:00 PM, Thursday 6:00 AM - 10:00 PM, Friday 6:00 AM - 10:00 PM, Saturday 6:00 AM - 10:00 PM, Sunday 6:00 AM - 10:00 PM",,,
Niagara Falls,2132,4800 Bender Hill Avenue,,Niagara Falls,ONT,L2E 6W7,CAN,(905) 371-8688,43.093348,-79.073020,"Monday 7:30 AM - 8:00 PM, Tuesday 7:30 AM - 8:00 PM, Wednesday 7:30 AM - 8:00 PM, Thursday 7:30 AM - 8:00 PM, Friday 7:30 AM - 8:00 PM, Saturday 7:30 AM - 8:00 PM, Sunday 7:30 AM - 8:00 PM",,,
York,2328,2500 East Market St.,,York,PA,17402-2410,USA,(717) 757-4109,39.974263,-76.67668,"Monday 6:00 AM - 11:00 PM, Tuesday 6:00 AM - 11:00 PM, Wednesday 6:00 AM - 11:00 PM, Thursday 6:00 AM - 11:00 PM, Friday 6:00 AM - 12:00 AM, Saturday 6:00 AM - 12:00 AM, Sunday 6:00 AM - 11:00 PM",,,
Brainerd II,2390,623 W Washington Street,,Brainerd,MN,56401-2930,USA,(218) 829-9457,46.35605,-94.219406,"Monday 12:00 AM - 12:00 AM, Tuesday 12:00 AM - 12:00 AM, Wednesday 12:00 AM - 12:00 AM, Thursday 12:00 AM - 12:00 AM, Friday 12:00 AM - 12:00 AM, Saturday 12:00 AM - 12:00 AM, Sunday 12:00 AM - 12:00 AM",,,
Superior,2189,103 E 2nd Street,,Superior,WI,54880-3005,USA,(715) 392-8544,46.724271,-92.070753,"Monday 6:00 AM - 11:00 PM, Tuesday 6:00 AM - 11:00 PM, Wednesday 6:00 AM - 11:00 PM, Thursday 6:00 AM - 11:00 PM, Friday 6:00 AM - 12:00 AM, Saturday 12:00 AM - 12:00 AM, Sunday 12:00 AM - 11:00 PM",,,
Cloquet,2084,Big Lake Drive & Hwy. 33,,Cloquet,MN,55720,USA,(218) 879-8380,46.712939,-92.461968,"Monday 6:00 AM - 11:00 PM, Tuesday 6:00 AM - 11:00 PM, Wednesday 6:00 AM - 11:00 PM, Thursday 6:00 AM - 11:00 PM, Friday 6:00 AM - 11:00 PM, Saturday 6:00 AM - 11:00 PM, Sunday 6:00 AM - 11:00 PM",,,
Duluth II &#8211 Michigan,2087,4005 W Michigan St.,,Duluth,MN,55807-2708,USA,(218) 628-1038,46.748927,-92.147672,"Monday 6:00 AM - 11:00 PM, Tuesday 6:00 AM - 11:00 PM, Wednesday 6:00 AM - 11:00 PM, Thursday 6:00 AM - 11:00 PM, Friday 6:00 AM - 11:00 PM, Saturday 6:00 AM - 11:00 PM, Sunday 6:00 AM - 11:00 PM",,,
Harrisburg,2305,7833 Linglestown Rd.,,Harrisburg,PA,17112-9392,USA,(717) 545-5650,40.352514,-76.726886,"Monday 6:00 AM - 11:00 PM, Tuesday 6:00 AM - 11:00 PM, Wednesday 6:00 AM - 11:00 PM, Thursday 6:00 AM - 11:00 PM, Friday 12:00 AM - 12:00 AM, Saturday 12:00 AM - 12:00 AM, Sunday 6:00 AM - 11:00 PM",,,
Toronto &#8211 Airport East,2308,600 Dixon Road,,Toronto,ONT,M9W 1J1,CAN,(416) 240-9741,43.692415,-79.572827,"Monday 6:00 AM - 11:30 PM, Tuesday 6:00 AM - 11:30 PM, Wednesday 6:00 AM - 11:30 PM, Thursday 6:00 AM - 11:30 PM, Friday 6:00 AM - 11:30 PM, Saturday 6:00 AM - 11:30 PM, Sunday 6:00 AM - 11:30 PM",,,
Sidney,2281,655 Cabela Dr.,,Sidney,NE,69162,USA,(308) 254-7044,41.116117,-102.950088,"Monday 6:00 AM - 12:00 AM, Tuesday 6:00 AM - 12:00 AM, Wednesday 6:00 AM - 12:00 AM, Thursday 6:00 AM - 12:00 AM, Friday 6:00 AM - 12:00 AM, Saturday 6:00 AM - 12:00 AM, Sunday 6:00 AM - 12:00 AM",,,
Duluth I &#8211 London Rd,2097,2502 London Road,,Duluth,MN,55812,USA,(218) 728-3619,46.807308,-92.062288,"Monday 6:00 AM - 11:00 PM, Tuesday 6:00 AM - 11:00 PM, Wednesday 6:00 AM - 11:00 PM, Thursday 6:00 AM - 11:00 PM, Friday 6:00 AM - 12:00 AM, Saturday 6:00 AM - 12:00 AM, Sunday 6:00 AM - 11:00 PM",,,
Duluth III &#8211 Miller,2158,1302 Miller Trunk Highway,,Duluth,MN,55811-5612,USA,(218) 727-4188,46.803945,-92.155329,"Monday 6:00 AM - 10:00 PM, Tuesday 6:00 AM - 11:00 PM, Wednesday 6:00 AM - 11:00 PM, Thursday 6:00 AM - 11:00 PM, Friday 6:00 AM - 12:00 AM, Saturday 6:00 AM - 12:00 AM, Sunday 6:00 AM - 10:00 PM",,,
Selinsgrove,2324,1394 N. Susquehanna Trail,,Selinsgrove,PA,17870-7768,USA,(570) 743-8181,40.828436,-76.84167,"Monday 6:00 AM - 12:00 AM, Tuesday 6:00 AM - 12:00 AM, Wednesday 6:00 AM - 12:00 AM, Thursday 6:00 AM - 12:00 AM, Friday 6:00 AM - 12:00 AM, Saturday 6:00 AM - 12:00 AM, Sunday 6:00 AM - 12:00 AM",,,
Lewisburg,2152,340 International Drive,,Lewisburg,PA,17837,USA,(570) 523-7733,40.964952,-76.893114,"Monday 6:00 AM - 12:00 AM, Tuesday 6:00 AM - 12:00 AM, Wednesday 6:00 AM - 12:00 AM, Thursday 6:00 AM - 12:00 AM, Friday 6:00 AM - 12:00 AM, Saturday 6:00 AM - 12:00 AM, Sunday 6:00 AM - 12:00 AM",,,
Williamsport,2309,160 Via Bella St.,,Williamsport,PA,17701-6517,USA,(570) 323-4114,41.237887,-77.003043,"Monday 6:00 AM - 12:00 AM, Tuesday 6:00 AM - 12:00 AM, Wednesday 6:00 AM - 12:00 AM, Thursday 6:00 AM - 12:00 AM, Friday 6:00 AM - 1:00 AM, Saturday 6:00 AM - 1:00 AM, Sunday 6:00 AM - 1:00 AM",,,
Fergus Falls &#8211 Frontier Dr.,2455,623 Frontier Drive,,Fergus Falls,MN,56537-1025,USA,(218) 739-2241,46.290027,-96.119149,"Monday 12:00 AM - 12:00 AM, Tuesday 12:00 AM - 12:00 AM, Wednesday 12:00 AM - 12:00 AM, Thursday 12:00 AM - 12:00 AM, Friday 12:00 AM - 12:00 AM, Saturday 12:00 AM - 12:00 AM, Sunday 12:00 AM - 12:00 AM",,,
Danville,2313,601 Continental Blvd.,,Danville,PA,17821-0030,USA,(570) 275-1529,40.96973,-76.616903,"Monday 6:00 AM - 11:00 PM, Tuesday 6:00 AM - 11:00 PM, Wednesday 6:00 AM - 11:00 PM, Thursday 6:00 AM - 11:00 PM, Friday 6:00 AM - 12:00 AM, Saturday 6:00 AM - 12:00 AM, Sunday 6:00 AM - 11:00 PM",,,
Pickering &#8211 Coming Soon!,4220,1097 Kingston Road,,Pickering,Ontario,,Canada,,43.828438,-79.098931,"Monday 12:00 AM - 12:00 AM, Tuesday 12:00 AM - 12:00 AM, Wednesday 12:00 AM - 12:00 AM, Thursday 12:00 AM - 12:00 AM, Friday 12:00 AM - 12:00 AM, Saturday 12:00 AM - 12:00 AM, Sunday 12:00 AM - 12:00 AM",,,
Mansfield,2224,96 Dorsett Heights Dr.,,Mansfield,PA,16933,USA,(570) 662-2546,41.802503,-77.090201,"Monday 7:00 AM - 11:00 PM, Tuesday 7:00 AM - 11:00 PM, Wednesday 7:00 AM - 11:00 PM, Thursday 7:00 AM - 11:00 PM, Friday 6:00 AM - 12:00 AM, Saturday 6:00 AM - 12:00 AM, Sunday 7:00 AM - 11:00 PM",,,
Ft. Pierre,2231,217 East Hustan Avenue,,Ft. Pierre,SD,57532,USA,(605) 223-2470,44.368374,-100.375824,"Monday 6:00 AM - 11:00 PM, Tuesday 6:00 AM - 11:00 PM, Wednesday 6:00 AM - 11:00 PM, Thursday 6:00 AM - 11:00 PM, Friday 6:00 AM - 12:00 AM, Saturday 6:00 AM - 12:00 AM, Sunday 6:00 AM - 11:00 PM",,,
Aberdeen,2177,1401 6th Avenue Southwest,,Aberdeen,SD,57401,USA,(605) 225-9050,45.459161,-98.508724,"Monday 6:00 AM - 10:00 PM, Tuesday 6:00 AM - 10:00 PM, Wednesday 6:00 AM - 10:00 PM, Thursday 6:00 AM - 10:00 PM, Friday 6:00 AM - 10:00 PM, Saturday 6:00 AM - 10:00 PM, Sunday 6:00 AM - 10:00 PM",,,
Bloomsburg,2159,23 Ricky Avenue,,Bloomsburg,PA,17815-8453,USA,(570) 784-1140,41.016936,-76.49196,"Monday 6:00 AM - 11:00 PM, Tuesday 6:00 AM - 11:00 PM, Wednesday 6:00 AM - 11:00 PM, Thursday 6:00 AM - 11:00 PM, Friday 6:00 AM - 12:00 AM, Saturday 6:00 AM - 12:00 AM, Sunday 6:00 AM - 11:00 PM",,,
Avondale,2188,954 Gap Newport Pike,,Avondale,PA,19311,USA,(610) 268-3513,39.836508,-75.796643,"Monday 6:00 AM - 9:00 PM, Tuesday 6:00 AM - 9:00 PM, Wednesday 6:00 AM - 9:00 PM, Thursday 6:00 AM - 9:00 PM, Friday 6:00 AM - 10:00 PM, Saturday 6:00 AM - 10:00 PM, Sunday 6:00 AM - 9:00 PM",,,
Newark,2168,700 Capital Trail,,Newark,DE,19711,USA,(302) 737-3500,39.694034,-75.719607,"Monday 6:00 AM - 9:00 PM, Tuesday 6:00 AM - 9:00 PM, Wednesday 6:00 AM - 9:00 PM, Thursday 6:00 AM - 9:00 PM, Friday 6:00 AM - 10:00 PM, Saturday 6:00 AM - 10:00 PM, Sunday 6:00 AM - 9:00 PM",,,
Colorado Springs,4014,3295 E. Platte Avenue,,Colorado Springs,CO,80909,USA,(719) 633-8962,38.839222,-104.767529,"Monday 6:00 AM - 12:00 AM, Tuesday 6:00 AM - 12:00 AM, Wednesday 6:00 AM - 12:00 AM, Thursday 6:00 AM - 12:00 AM, Friday 6:00 AM - 12:00 AM, Saturday 12:00 AM - 12:00 AM, Sunday 12:00 AM - 12:00 AM",,,
"Detroit Lakes, Mn",2360,990 Highway 10 West,,Detroit Lakes,MN,56501-2210,USA,(218) 847-1666,46.809404,-95.82317,"Monday 6:00 AM - 12:00 AM, Tuesday 6:00 AM - 12:00 AM, Wednesday 6:00 AM - 12:00 AM, Thursday 6:00 AM - 12:00 AM, Friday 12:00 AM - 12:00 AM, Saturday 12:00 AM - 12:00 AM, Sunday 6:00 AM - 12:00 AM",,,
Hazleton,2155,50 State Route 93,,Hazleton,PA,18202,USA,(570) 455-0313,40.981018,-76.023128,"Monday 6:00 AM - 11:00 PM, Tuesday 6:00 AM - 11:00 PM, Wednesday 6:00 AM - 11:00 PM, Thursday 6:00 AM - 11:00 PM, Friday 6:00 AM - 12:00 AM, Saturday 6:00 AM - 12:00 AM, Sunday 6:00 AM - 11:00 PM",,,
"Mountain Iron, MN",2227,8586 Rock Ridge Drive,,Mountain Iron,MN,55768,USA,(218) 741-3325,47.532427,-92.623515,"Monday 6:00 AM - 11:00 PM, Tuesday 6:00 AM - 11:00 PM, Wednesday 6:00 AM - 11:00 PM, Thursday 6:00 AM - 11:00 PM, Friday 6:00 AM - 11:00 PM, Saturday 6:00 AM - 11:00 PM, Sunday 6:00 AM - 11:00 PM",,,
Scottsbluff,2273,303 Hwy 26 West,,Scottsbluff,NE,69361,USA,(308) 635-2035,41.880649,-103.6664,"Monday 5:30 AM - 10:00 PM, Tuesday 5:30 AM - 10:00 PM, Wednesday 5:30 AM - 10:00 PM, Thursday 5:30 AM - 10:00 PM, Friday 5:30 AM - 11:00 PM, Saturday 5:30 AM - 11:00 PM, Sunday 5:30 AM - 10:00 PM",,,
Drexel Hill,2101,706 Lansdowne Ave.,,Drexel Hill,PA,19026-1511,USA,(610) 622-4531,39.958098,-75.28749,"Monday 6:00 AM - 9:00 PM, Tuesday 6:00 AM - 9:00 PM, Wednesday 6:00 AM - 9:00 PM, Thursday 6:00 AM - 9:00 PM, Friday 6:00 AM - 10:00 PM, Saturday 6:00 AM - 10:00 PM, Sunday 6:00 AM - 9:00 PM",,,
Denver Colorado Blvd.,2348,1995 S Colorado Blvd.,,Denver,CO,80222-7901,USA,(303) 757-7155,39.680543,-104.941482,"Monday 12:00 AM - 12:00 AM, Tuesday 12:00 AM - 12:00 AM, Wednesday 12:00 AM - 12:00 AM, Thursday 12:00 AM - 12:00 AM, Friday 12:00 AM - 12:00 AM, Saturday 12:00 AM - 12:00 AM, Sunday 12:00 AM - 12:00 AM",,,
Wilkes-Barre,2122,1085 Wilkes-Barre Township Bl,,Wilkes-Barre,PA,18702-9999,USA,(570) 823-7264,41.222088,-75.882047,"Monday 6:00 AM - 12:00 AM, Tuesday 6:00 AM - 12:00 AM, Wednesday 6:00 AM - 12:00 AM, Thursday 6:00 AM - 12:00 AM, Friday 12:00 AM - 12:00 AM, Saturday 12:00 AM - 12:00 AM, Sunday 6:00 AM - 12:00 AM",,,
Allentown I,2396,3214 Hamilton Blvd.,,Allentown,PA,18103-4596,USA,(610) 820-5767,40.579235,-75.521993,"Monday 6:00 AM - 12:00 AM, Tuesday 6:00 AM - 12:00 AM, Wednesday 6:00 AM - 12:00 AM, Thursday 6:00 AM - 12:00 AM, Friday 6:00 AM - 1:00 AM, Saturday 6:00 AM - 1:00 AM, Sunday 6:00 AM - 1:00 AM",,,
Allentown II,2362,3400 Lehigh Street,,Allentown,PA,18103-7039,USA,(610) 965-5241,40.552705,-75.491856,"Monday 6:00 AM - 10:00 PM, Tuesday 6:00 AM - 10:00 PM, Wednesday 6:00 AM - 10:00 PM, Thursday 6:00 AM - 10:00 PM, Friday 6:00 AM - 11:00 PM, Saturday 6:00 AM - 11:00 PM, Sunday 6:00 AM - 10:00 PM",,,
Bala Cynwyd,3023,115 W. City Avenue,,Bala Cynwyd,PA,19004,USA,(610) 660-6156,40.002771,-75.223226,"Monday 7:00 AM - 10:00 PM, Tuesday 7:00 AM - 10:00 PM, Wednesday 7:00 AM - 10:00 PM, Thursday 7:00 AM - 10:00 PM, Friday 7:00 AM - 12:00 AM, Saturday 12:00 AM - 12:00 AM, Sunday 7:00 AM - 10:00 PM",,,
Tunkhannock,2255,615 State Route 6E,,Tunkhannock,PA,18657,USA,(570) 996-0157,41.542635,-75.951958,"Monday 6:00 AM - 10:00 PM, Tuesday 6:00 AM - 10:00 PM, Wednesday 6:00 AM - 10:00 PM, Thursday 6:00 AM - 10:00 PM, Friday 6:00 AM - 11:00 PM, Saturday 6:00 AM - 11:00 PM, Sunday 6:00 AM - 10:00 PM",,,
Moorhead,2388,3005 Hwy 10 E,,Moorhead,MN,56560-2549,USA,(218) 299-6454,46.875791,-96.732527,"Monday 12:00 AM - 12:00 AM, Tuesday 12:00 AM - 12:00 AM, Wednesday 12:00 AM - 12:00 AM, Thursday 12:00 AM - 12:00 AM, Friday 12:00 AM - 12:00 AM, Saturday 12:00 AM - 12:00 AM, Sunday 12:00 AM - 12:00 AM",,,
Westminster II,2408,12015 Melody Drive,,Westminster,CO,80234,USA,(303) 452-6200,39.914359,-104.995366,"Monday 12:00 AM - 12:00 AM, Tuesday 12:00 AM - 12:00 AM, Wednesday 12:00 AM - 12:00 AM, Thursday 12:00 AM - 12:00 AM, Friday 12:00 AM - 12:00 AM, Saturday 12:00 AM - 12:00 AM, Sunday 12:00 AM - 12:00 AM",,,
Fargo &#8211 36th Street,2460,1220 36th St S,,Fargo,ND,58103-2210,USA,(701) 232-2441,46.862292,-96.83859,"Monday 12:00 AM - 12:00 AM, Tuesday 12:00 AM - 12:00 AM, Wednesday 12:00 AM - 12:00 AM, Thursday 12:00 AM - 12:00 AM, Friday 12:00 AM - 12:00 AM, Saturday 12:00 AM - 12:00 AM, Sunday 12:00 AM - 12:00 AM",,,
Pittston,2326,304 Route 315,,Pittston,PA,18640,USA,(570) 883-5682,41.306705,-75.764656,"Monday 6:00 AM - 12:00 AM, Tuesday 6:00 AM - 12:00 AM, Wednesday 6:00 AM - 12:00 AM, Thursday 6:00 AM - 12:00 AM, Friday 6:00 AM - 2:00 AM, Saturday 6:00 AM - 2:00 AM, Sunday 6:00 AM - 12:00 AM",,,
Bethlehem III,2365,205 W 3rd Street,,Bethlehem,PA,18015,USA,(610) 867-0262,40.612238,-75.382366,"Monday 6:00 AM - 12:00 AM, Tuesday 6:00 AM - 12:00 AM, Wednesday 6:00 AM - 12:00 AM, Thursday 6:00 AM - 12:00 AM, Friday 6:00 AM - 12:00 AM, Saturday 6:00 AM - 12:00 AM, Sunday 6:00 AM - 12:00 AM",,,
Westminster I &#8211 Sheridan Blvd,2426,8691 Sheridan Blvd.,,Westminster,CO,80003,USA,(303) 427-5740,39.854501,-105.053979,"Monday 12:00 AM - 12:00 AM, Tuesday 12:00 AM - 12:00 AM, Wednesday 12:00 AM - 12:00 AM, Thursday 12:00 AM - 12:00 AM, Friday 12:00 AM - 12:00 AM, Saturday 12:00 AM - 12:00 AM, Sunday 12:00 AM - 12:00 AM",,,
Golden &#8211 Simms St.,2422,1495 Simms St.,,Golden,CO,80401,USA,(303) 237-1339,39.739841,-105.128865,"Monday 6:00 AM - 12:00 AM, Tuesday 6:00 AM - 12:00 AM, Wednesday 6:00 AM - 12:00 AM, Thursday 6:00 AM - 12:00 AM, Friday 6:00 AM - 12:00 AM, Saturday 6:00 AM - 12:00 AM, Sunday 6:00 AM - 12:00 AM",,,
Bemidji,2088,1120 Paul Bunyan Dr.,,Bemidji,MN,56601-4122,USA,(218) 751-7850,47.447674,-94.852784,"Monday 12:00 AM - 12:00 AM, Tuesday 12:00 AM - 12:00 AM, Wednesday 12:00 AM - 12:00 AM, Thursday 12:00 AM - 12:00 AM, Friday 12:00 AM - 12:00 AM, Saturday 12:00 AM - 12:00 AM, Sunday 12:00 AM - 12:00 AM",,,
Bethlehem,2397,3940 Nazareth Pike,,Bethlehem,PA,18017-1145,USA,(610) 868-1411,40.677482,-75.342302,"Monday 6:00 AM - 12:00 AM, Tuesday 6:00 AM - 12:00 AM, Wednesday 6:00 AM - 12:00 AM, Thursday 6:00 AM - 12:00 AM, Friday 6:00 AM - 12:00 AM, Saturday 6:00 AM - 12:00 AM, Sunday 6:00 AM - 12:00 AM",,,
Warminster,2247,705 York Road,,Warminster,PA,18974-2003,USA,(215) 441-8010,40.210889,-75.098478,"Monday 6:00 AM - 9:00 PM, Tuesday 6:00 AM - 9:00 PM, Wednesday 6:00 AM - 9:00 PM, Thursday 6:00 AM - 9:00 PM, Friday 6:00 AM - 10:00 PM, Saturday 6:00 AM - 10:00 PM, Sunday 6:00 AM - 9:00 PM",,,
Philadelphia II,2318,1681 Grant Ave.,,Philadelphia,PA,19115-3149,USA,(215) 676-4077,40.086938,-75.039079,"Monday 6:00 AM - 9:00 PM, Tuesday 6:00 AM - 9:00 PM, Wednesday 6:00 AM - 9:00 PM, Thursday 6:00 AM - 9:00 PM, Friday 6:00 AM - 10:00 PM, Saturday 6:00 AM - 10:00 PM, Sunday 6:00 AM - 9:00 PM",,,
Apalachin &#8211 Coming Soon!,4142,7664 state Route 434,,Apalachin,NY,13732,United States,,42.060392,-76.144101,"Monday 12:00 AM - 12:00 AM, Tuesday 12:00 AM - 12:00 AM, Wednesday 12:00 AM - 12:00 AM, Thursday 12:00 AM - 12:00 AM, Friday 12:00 AM - 12:00 AM, Saturday 12:00 AM - 12:00 AM, Sunday 12:00 AM - 12:00 AM",,,
Moorestown,2095,401 W Route 38,,Moorestown,NJ,08057-3235,USA,(856) 866-1443,39.946202,-74.966451,"Monday 7:30 AM - 9:00 PM, Tuesday 7:30 AM - 9:00 PM, Wednesday 7:30 AM - 9:00 PM, Thursday 7:30 AM - 9:00 PM, Friday 7:30 AM - 9:00 PM, Saturday 7:30 AM - 9:00 PM, Sunday 7:30 AM - 9:00 PM",,,
"Doylestown, PA",2416,4319 Swamp Rd.,,Doylestown,PA,18901-1032,USA,(215) 348-2133,40.321853,-75.118817,"Monday 6:00 AM - 12:00 AM, Tuesday 6:00 AM - 12:00 AM, Wednesday 6:00 AM - 12:00 AM, Thursday 6:00 AM - 12:00 AM, Friday 6:00 AM - 1:00 AM, Saturday 6:00 AM - 1:00 AM, Sunday 6:00 AM - 1:00 AM",,,
Longmont,2266,2051 N. Main,,Longmont,CO,80501-1406,USA,(303) 772-1410,40.138401,-105.102395,"Monday 5:30 AM - 12:00 AM, Tuesday 5:30 AM - 12:00 AM, Wednesday 5:30 AM - 12:00 AM, Thursday 5:30 AM - 12:00 AM, Friday 12:00 AM - 12:00 AM, Saturday 12:00 AM - 12:00 AM, Sunday 5:30 AM - 12:00 AM",,,
Loveland Crossroads,4012,6020 Stallion Drive,,Loveland,CO,80538,USA,(970) 685-4082,40.436358,-104.988702,"Monday 5:30 AM - 11:00 PM, Tuesday 5:30 AM - 11:00 PM, Wednesday 5:30 AM - 11:00 PM, Thursday 5:30 AM - 11:00 PM, Friday 5:30 AM - 1:00 AM, Saturday 5:30 AM - 1:00 AM, Sunday 5:30 AM - 11:00 PM",,,
Scranton (Dickson City),2107,1130 Ravine St.,,Scranton,PA,18508-1356,USA,(570) 963-1115,41.462302,-75.652285,"Monday 6:00 AM - 1:00 AM, Tuesday 6:00 AM - 1:00 AM, Wednesday 6:00 AM - 1:00 AM, Thursday 6:00 AM - 1:00 AM, Friday 12:00 AM - 12:00 AM, Saturday 12:00 AM - 12:00 AM, Sunday 6:00 AM - 1:00 AM",,,
Phillipsburg,2315,1313 Route 22 West,,Phillipsburg,NJ,8865,USA,(908) 859-8181,40.674764,-75.13927,"Monday 6:00 AM - 11:00 PM, Tuesday 6:00 AM - 11:00 PM, Wednesday 6:00 AM - 11:00 PM, Thursday 6:00 AM - 11:00 PM, Friday 6:00 AM - 12:00 AM, Saturday 6:00 AM - 12:00 AM, Sunday 6:00 AM - 11:00 PM",,,
Mt. Pocono,2276,3267 Route 940,,Mt. Pocono,PA,18344,USA,(570) 839-0300,41.124821,-75.367941,"Monday 6:00 AM - 11:00 PM, Tuesday 6:00 AM - 11:00 PM, Wednesday 6:00 AM - 11:00 PM, Thursday 6:00 AM - 11:00 PM, Friday 6:00 AM - 12:00 AM, Saturday 6:00 AM - 12:00 AM, Sunday 6:00 AM - 11:00 PM",,,
Loveland,2265,2222 W Eisenhower Blvd,,Loveland,CO,80537-3148,USA,(970) 663-1944,40.406901,-105.108401,"Monday 5:30 AM - 11:00 PM, Tuesday 5:30 AM - 11:00 PM, Wednesday 5:30 AM - 11:00 PM, Thursday 5:30 AM - 11:00 PM, Friday 5:30 AM - 11:00 PM, Saturday 5:30 AM - 11:00 PM, Sunday 5:30 AM - 11:00 PM",,,
Stroudsburg,2311,1215 Main Street,,Stroudsburg,PA,18360-1392,USA,(570) 421-6263,40.981843,-75.21154,"Monday 6:00 AM - 1:00 AM, Tuesday 6:00 AM - 1:00 AM, Wednesday 6:00 AM - 1:00 AM, Thursday 6:00 AM - 1:00 AM, Friday 12:00 AM - 12:00 AM, Saturday 12:00 AM - 12:00 AM, Sunday 6:00 AM - 1:00 AM",,,
Cheyenne,2121,1730 Dell Range Blvd,,Cheyenne,WY,82009-4945,USA,(307) 634-7577,41.160755,-104.79919,"Monday 5:30 AM - 11:00 PM, Tuesday 5:30 AM - 11:00 PM, Wednesday 5:30 AM - 11:00 PM, Thursday 5:30 AM - 11:00 PM, Friday 5:30 AM - 11:00 PM, Saturday 5:30 AM - 11:00 PM, Sunday 5:30 AM - 11:00 PM",,,
Cortland,2232,2 Locust Avenue,,Cortland,NY,13045,USA,(607) 753-8084,42.610075,-76.16982,"Monday 6:00 AM - 10:00 PM, Tuesday 6:00 AM - 10:00 PM, Wednesday 6:00 AM - 10:00 PM, Thursday 6:00 AM - 10:00 PM, Friday 6:00 AM - 10:00 PM, Saturday 6:00 AM - 10:00 PM, Sunday 6:00 AM - 10:00 PM",,,
East Stroudsburg,2249,5163 Milford Rd.,,East Stroudsburg,PA,18301,USA,(570) 223-0600,41.057997,-75.085722,"Monday 6:00 AM - 11:00 PM, Tuesday 6:00 AM - 11:00 PM, Wednesday 6:00 AM - 11:00 PM, Thursday 6:00 AM - 11:00 PM, Friday 6:00 AM - 12:00 AM, Saturday 6:00 AM - 12:00 AM, Sunday 6:00 AM - 12:00 AM",,,
"Sudbury, ONT",2245,1401 Paris Street,,Sudbury,ONT,P3E 3B6,CAN,(705) 522-3220,46.464617,-81.000313,"Monday 6:00 AM - 10:00 PM, Tuesday 6:00 AM - 10:00 PM, Wednesday 6:00 AM - 10:00 PM, Thursday 6:00 AM - 10:00 PM, Friday 6:00 AM - 10:00 PM, Saturday 6:00 AM - 10:00 PM, Sunday 6:00 AM - 10:00 PM",,,
East Windsor,2240,50 Princeton Hightstown Road,,East Windsor,NJ,8520,USA,(609) 443-0722,40.27491,-74.540856,"Monday 7:30 AM - 8:30 PM, Tuesday 7:30 AM - 8:30 PM, Wednesday 7:30 AM - 8:30 PM, Thursday 7:30 AM - 8:30 PM, Friday 7:30 AM - 8:30 PM, Saturday 7:30 AM - 8:30 PM, Sunday 7:30 AM - 8:30 PM",,,
Green Brook,2332,297 U.S. Hwy 22 East,,Green Brook,NJ,08812-1701,USA,(732) 424-9191,40.590013,-74.499589,"Monday 7:00 AM - 8:30 PM, Tuesday 7:00 AM - 8:30 PM, Wednesday 7:00 AM - 8:30 PM, Thursday 7:00 AM - 8:30 PM, Friday 7:00 AM - 9:30 PM, Saturday 7:00 AM - 9:30 PM, Sunday 7:00 AM - 8:30 PM",,,
Forked River,2237,113 South Main Street,,Forked River,NJ,8731,USA,(609) 242-3193,39.838534,-74.19174,"Monday 7:00 AM - 9:00 PM, Tuesday 7:00 AM - 9:00 PM, Wednesday 7:00 AM - 9:00 PM, Thursday 7:00 AM - 9:00 PM, Friday 7:00 AM - 9:00 PM, Saturday 7:00 AM - 9:00 PM, Sunday 7:00 AM - 9:00 PM",,,
"Jamestown, ND",2374,2410 Highway 281 S,,Jamestown,ND,58401-0215,USA,(701) 252-1370,46.883184,-98.716719,"Monday 12:00 AM - 12:00 AM, Tuesday 12:00 AM - 12:00 AM, Wednesday 12:00 AM - 12:00 AM, Thursday 12:00 AM - 12:00 AM, Friday 12:00 AM - 12:00 AM, Saturday 12:00 AM - 12:00 AM, Sunday 12:00 AM - 12:00 AM",,,
East Brunswick,2246,286 Route 18,,East Brunswick,NJ,08816-1905,USA,(732) 698-1811,40.458507,-74.401334,"Monday 7:00 AM - 9:45 PM, Tuesday 7:00 AM - 9:45 PM, Wednesday 7:00 AM - 9:45 PM, Thursday 7:00 AM - 9:45 PM, Friday 7:00 AM - 9:45 PM, Saturday 7:00 AM - 9:45 PM, Sunday 7:00 AM - 8:45 PM",,,
Toms River,2251,149 Route 37,,Toms River,NJ,8753,USA,(732) 473-1733,39.962963,-74.188661,"Monday 7:00 AM - 10:00 PM, Tuesday 7:00 AM - 10:00 PM, Wednesday 7:00 AM - 10:00 PM, Thursday 7:00 AM - 10:00 PM, Friday 7:00 AM - 11:00 PM, Saturday 7:00 AM - 11:00 PM, Sunday 7:00 AM - 10:00 PM",,,
Freehold,2135,3445 Route 9,,Freehold,NJ,07728-3286,USA,(732) 462-5983,40.231459,-74.271877,"Monday 7:30 AM - 8:30 PM, Tuesday 7:30 AM - 8:30 PM, Wednesday 7:30 AM - 8:30 PM, Thursday 7:30 AM - 8:30 PM, Friday 7:30 AM - 9:30 PM, Saturday 7:30 AM - 9:30 PM, Sunday 7:30 AM - 8:00 PM",,,
Rapid City III,4002,1300 N Elk Vale Rd.,,Rapid City,South Dakota,57703,United States,(605) 348-4301,44.098205,-103.149379,"Monday 12:00 AM - 12:00 AM, Tuesday 12:00 AM - 12:00 AM, Wednesday 12:00 AM - 12:00 AM, Thursday 12:00 AM - 12:00 AM, Friday 12:00 AM - 12:00 AM, Saturday 12:00 AM - 12:00 AM, Sunday 12:00 AM - 12:00 AM",,,
Rapid City I,2090,2305 Mount Rushmore Rd.,,Rapid City,SD,57701-5337,USA,(605) 341-5225,44.063343,-103.232807,"Monday 12:00 AM - 12:00 AM, Tuesday 12:00 AM - 12:00 AM, Wednesday 12:00 AM - 12:00 AM, Thursday 12:00 AM - 12:00 AM, Friday 12:00 AM - 12:00 AM, Saturday 12:00 AM - 12:00 AM, Sunday 12:00 AM - 12:00 AM",,,
Rapid City II,2169,1715 North Lacrosse St.,,Rapid City,SD,57701-0705,USA,(605) 341-3810,44.101886,-103.204085,"Monday 12:00 AM - 12:00 AM, Tuesday 12:00 AM - 12:00 AM, Wednesday 12:00 AM - 12:00 AM, Thursday 12:00 AM - 12:00 AM, Friday 12:00 AM - 12:00 AM, Saturday 12:00 AM - 12:00 AM, Sunday 12:00 AM - 12:00 AM",,,
Matamoras,2142,103 Westfall Town Drive,,Matamoras,PA,18336,USA,(570) 491-4341,41.353919,-74.722059,"Monday 6:00 AM - 11:00 PM, Tuesday 6:00 AM - 11:00 PM, Wednesday 6:00 AM - 11:00 PM, Thursday 6:00 AM - 11:00 PM, Friday 6:00 AM - 12:00 AM, Saturday 6:00 AM - 12:00 AM, Sunday 6:00 AM - 12:00 AM",,,
Colts Neck,2304,"340 Route 34 South, Suite 111",,Colts Neck,NJ,7722,USA,(732) 577-1011,40.28595,-74.174283,"Monday 7:00 AM - 9:00 PM, Tuesday 7:00 AM - 9:00 PM, Wednesday 7:00 AM - 9:00 PM, Thursday 7:00 AM - 9:00 PM, Friday 7:00 AM - 9:30 PM, Saturday 7:00 AM - 9:00 PM, Sunday 7:00 AM - 9:00 PM",,,
Colonia (Woodbridge),2339,1009 St. Georges Ave.,,Colonia,NJ,7067,USA,(732) 634-7112,40.572931,-74.294451,"Monday 7:00 AM - 9:00 PM, Tuesday 7:00 AM - 9:00 PM, Wednesday 7:00 AM - 9:00 PM, Thursday 7:00 AM - 9:00 PM, Friday 7:00 AM - 10:00 PM, Saturday 7:00 AM - 10:00 PM, Sunday 7:00 AM - 9:00 PM",,,
Hazlet,2342,1396 State Route 36,,Hazlet,NJ,07730-1716,USA,(732) 739-4600,40.428548,-74.188612,"Monday 7:00 AM - 9:00 PM, Tuesday 7:00 AM - 9:00 PM, Wednesday 7:00 AM - 9:00 PM, Thursday 7:00 AM - 9:00 PM, Friday 7:00 AM - 9:30 PM, Saturday 7:00 AM - 9:00 PM, Sunday 7:00 AM - 9:00 PM",,,
Wall Township,2260,2027 Highway 35,,Wall Township,NJ,07719-3539,USA,(732) 974-0600,40.149428,-74.057757,"Monday 7:00 AM - 9:00 PM, Tuesday 7:00 AM - 9:00 PM, Wednesday 7:00 AM - 9:00 PM, Thursday 7:00 AM - 9:00 PM, Friday 7:00 AM - 9:00 PM, Saturday 7:00 AM - 9:00 PM, Sunday 7:00 AM - 9:00 PM",,,
Laramie,2236,204 S 30th Street,,Laramie,WY,82070-5133,USA,(307) 721-3800,41.309838,-105.557494,"Monday 6:00 AM - 9:00 PM, Tuesday 6:00 AM - 10:00 PM, Wednesday 6:00 AM - 10:00 PM, Thursday 6:00 AM - 10:00 PM, Friday 6:00 AM - 10:00 PM, Saturday 6:00 AM - 10:00 PM, Sunday 6:00 AM - 9:00 PM",,,
Neptune &#8211 Asbury Circle,2076,710 Hwy 35,,Neptune,NJ,07753-4942,USA,(732) 776-6136,40.224992,-74.037423,"Monday 7:00 AM - 8:00 PM, Tuesday 7:00 AM - 8:00 PM, Wednesday 7:00 AM - 8:00 PM, Thursday 7:00 AM - 8:00 PM, Friday 7:00 AM - 8:00 PM, Saturday 7:00 AM - 8:00 PM, Sunday 7:00 AM - 8:00 PM",,,
Eatontown,2244,158 Route 35 South,,Eatontown,NJ,7724,USA,(732) 380-0066,40.30888,-74.064529,"Monday 7:00 AM - 9:00 PM, Tuesday 7:00 AM - 9:00 PM, Wednesday 7:00 AM - 9:00 PM, Thursday 7:00 AM - 9:00 PM, Friday 7:00 AM - 9:00 PM, Saturday 7:00 AM - 9:00 PM, Sunday 7:00 AM - 9:00 PM",,,
Staten Island I,2190,1745 Forest Avenue,,Staten Island,NY,10302,USA,(718) 720-8888,40.625209,-74.147002,"Monday 7:00 AM - 11:00 PM, Tuesday 7:00 AM - 11:00 PM, Wednesday 7:00 AM - 11:00 PM, Thursday 7:00 AM - 11:00 PM, Friday 7:00 AM - 11:00 PM, Saturday 7:00 AM - 11:00 PM, Sunday 7:00 AM - 11:00 PM",,,
Staten Island III,2102,1409 Hylan Blvd.,,Staten Island,NY,10305-1903,USA,(718) 979-9180,40.594476,-74.086996,"Monday 7:00 AM - 11:00 PM, Tuesday 7:00 AM - 11:00 PM, Wednesday 7:00 AM - 11:00 PM, Thursday 7:00 AM - 11:00 PM, Friday 7:00 AM - 11:00 PM, Saturday 7:00 AM - 11:00 PM, Sunday 7:00 AM - 11:00 PM",,,
Middletown,2250,551 Route 211 East,,Middletown,NY,10940,USA,(845) 692-9566,41.468374,-74.452853,"Monday 6:00 AM - 10:00 PM, Tuesday 6:00 AM - 10:00 PM, Wednesday 6:00 AM - 10:00 PM, Thursday 6:00 AM - 10:00 PM, Friday 6:00 AM - 11:00 PM, Saturday 6:00 AM - 11:00 PM, Sunday 6:00 AM - 10:00 PM",,,
Grand Forks (Columbia Rd),2128,1305 S Columbia Road,,Grand Forks,ND,58201-4011,USA,(701) 746-0493,47.908916,-97.065958,"Monday 6:00 AM - 10:30 PM, Tuesday 6:00 AM - 10:30 PM, Wednesday 6:00 AM - 10:30 PM, Thursday 6:00 AM - 10:30 PM, Friday 6:00 AM - 12:00 AM, Saturday 6:00 AM - 12:00 AM, Sunday 6:00 AM - 12:00 AM",,,
Newburgh,2283,1421 Route 300,,Newburgh,NY,12550,USA,(845) 566-4045,41.521363,-74.071264,"Monday 6:00 AM - 11:00 PM, Tuesday 6:00 AM - 11:00 PM, Wednesday 6:00 AM - 11:00 PM, Thursday 6:00 AM - 11:00 PM, Friday 6:00 AM - 12:00 AM, Saturday 6:00 AM - 12:00 AM, Sunday 6:00 AM - 10:00 PM",,,
Spearfish,2131,2301 Colorado Blvd.,,Spearfish,SD,57783,USA,(605) 642-8535,44.476337,-103.820109,"Monday 6:00 AM - 10:00 PM, Tuesday 6:00 AM - 10:00 PM, Wednesday 6:00 AM - 10:00 PM, Thursday 6:00 AM - 10:00 PM, Friday 6:00 AM - 11:00 PM, Saturday 6:00 AM - 11:00 PM, Sunday 6:00 AM - 10:00 PM",,,
Bismarck II,2389,100 E Bismarck Expressway,,Bismarck,ND,58504-6334,USA,(701) 221-3112,46.795478,-100.791269,"Monday 12:00 AM - 12:00 AM, Tuesday 12:00 AM - 12:00 AM, Wednesday 12:00 AM - 12:00 AM, Thursday 12:00 AM - 12:00 AM, Friday 12:00 AM - 12:00 AM, Saturday 12:00 AM - 12:00 AM, Sunday 12:00 AM - 12:00 AM",,,
Wappingers Falls,2267,1576 Route 9 - Unit 11,,Wappingers Falls,NY,12590,USA,(845) 296-1575,41.592702,-73.910487,"Monday 6:00 AM - 10:00 PM, Tuesday 6:00 AM - 10:00 PM, Wednesday 6:00 AM - 10:00 PM, Thursday 6:00 AM - 10:00 PM, Friday 6:00 AM - 10:00 PM, Saturday 6:00 AM - 10:00 PM, Sunday 6:00 AM - 9:00 PM",,,
Bismarck &#8211 Gateway Shopping Ct,2424,1100 Interstate Avenue,,Bismarck,ND,58501-0553,USA,(701) 222-0625,46.835023,-100.773976,"Monday 12:00 AM - 12:00 AM, Tuesday 12:00 AM - 12:00 AM, Wednesday 12:00 AM - 12:00 AM, Thursday 12:00 AM - 12:00 AM, Friday 12:00 AM - 12:00 AM, Saturday 12:00 AM - 12:00 AM, Sunday 12:00 AM - 12:00 AM",,,
Casper,2125,4710 East Second St.,,Casper,WY,82609,USA,(307) 265-7339,42.849015,-106.264229,"Monday 5:30 AM - 10:00 PM, Tuesday 5:30 AM - 10:00 PM, Wednesday 5:30 AM - 10:00 PM, Thursday 5:30 AM - 10:00 PM, Friday 5:30 AM - 11:00 PM, Saturday 5:30 AM - 11:00 PM, Sunday 5:30 AM - 10:00 PM",,,
Gillette,2079,2510 South Douglas,,Gillette,WY,82718-6441,USA,(307) 682-6887,44.271632,-105.495073,"Monday 4:30 AM - 10:00 PM, Tuesday 4:30 AM - 10:00 PM, Wednesday 4:30 AM - 10:00 PM, Thursday 4:30 AM - 10:00 PM, Friday 4:30 AM - 11:00 PM, Saturday 4:30 AM - 11:00 PM, Sunday 4:30 AM - 10:00 PM",,,
Ottawa,2114,1130 St Laurent Blvd.,,Ottawa,ONT,K1K 3B6,CAN,(613) 747-9190,45.425509,-75.638163,"Monday 12:00 AM - 12:00 AM, Tuesday 12:00 AM - 12:00 AM, Wednesday 12:00 AM - 12:00 AM, Thursday 12:00 AM - 12:00 AM, Friday 12:00 AM - 12:00 AM, Saturday 12:00 AM - 12:00 AM, Sunday 12:00 AM - 12:00 AM",,,
Dickinson,2341,188 W. Museum Dr.,,Dickinson,ND,58601-3930,USA,(701) 227-3001,46.894183,-102.787664,"Monday 6:00 AM - 12:00 AM, Tuesday 6:00 AM - 12:00 AM, Wednesday 6:00 AM - 12:00 AM, Thursday 6:00 AM - 12:00 AM, Friday 12:00 AM - 12:00 AM, Saturday 12:00 AM - 12:00 AM, Sunday 6:00 AM - 12:00 AM",,,
Minot,2082,405 20th Ave SW,,Minot,ND,58701-6434,USA,(701) 838-2020,48.210646,-101.298584,"Monday 6:00 AM - 10:00 PM, Tuesday 6:00 AM - 10:00 PM, Wednesday 6:00 AM - 10:00 PM, Thursday 6:00 AM - 10:00 PM, Friday 6:00 AM - 10:00 PM, Saturday 6:00 AM - 10:00 PM, Sunday 6:00 AM - 10:00 PM",,,
Winnipeg IV,2118,123 Vermillion Rd.,,Winnipeg,MAN,R2J 4A9,CAN,(204) 253-1928,49.855352,-97.07062,"Monday 7:00 AM - 10:00 PM, Tuesday 7:00 AM - 10:00 PM, Wednesday 7:00 AM - 10:00 PM, Thursday 7:00 AM - 10:00 PM, Friday 7:00 AM - 10:00 PM, Saturday 7:00 AM - 10:00 PM, Sunday 7:00 AM - 10:00 PM",,,
Winnipeg &#8211 Kenaston,2222,1629 Kenaston Blvd,,Winnipeg,MAN,,CAN,(204) 489-0744,49.82584,-97.201552,"Monday 7:00 AM - 10:00 PM, Tuesday 7:00 AM - 10:00 PM, Wednesday 7:00 AM - 10:00 PM, Thursday 7:00 AM - 10:00 PM, Friday 7:00 AM - 11:00 PM, Saturday 7:00 AM - 11:00 PM, Sunday 7:00 AM - 10:00 PM",,,
Winnipeg &#8211 Regent,3098,1615 Regent Avenue,,Winnipeg,MAN,R2C 5C6,Canada,204-654-1441,49.899967,-97.069148,"Monday 7:00 AM - 9:00 PM, Tuesday 7:00 AM - 9:00 PM, Wednesday 7:00 AM - 9:00 PM, Thursday 7:00 AM - 9:00 PM, Friday 7:00 AM - 9:00 PM, Saturday 7:00 AM - 9:00 PM, Sunday 7:00 AM - 9:00 PM",,,
Winnipeg &#8211 Madison,3100,305 Madison,,Winnipeg,MAN,R3J 1H9,Canada,204-783-0775,49.88388,-97.203831,"Monday 6:30 AM - 11:00 PM, Tuesday 6:30 AM - 11:00 PM, Wednesday 6:30 AM - 11:00 PM, Thursday 6:30 AM - 11:00 PM, Friday 6:30 AM - 11:00 PM, Saturday 6:30 AM - 11:00 PM, Sunday 6:30 AM - 11:00 PM",,,
Winnipeg &#8211 Portage,2117,2675 Portage Avenue,,Winnipeg,MAN,R3J 0P9,CAN,(204) 895-4565,49.877892,-97.271002,"Monday 7:00 AM - 10:00 PM, Tuesday 7:00 AM - 10:00 PM, Wednesday 7:00 AM - 10:00 PM, Thursday 7:00 AM - 10:00 PM, Friday 7:00 AM - 10:00 PM, Saturday 7:00 AM - 10:00 PM, Sunday 7:00 AM - 10:00 PM",,,
Winnipeg &#8211 Henderson,2297,1277 Henderson Highway,,Winnipeg,MAN,R2G 1M3,CAN,(204) 334-2333,49.941628,-97.088881,"Monday 7:00 AM - 10:00 PM, Tuesday 7:00 AM - 10:00 PM, Wednesday 7:00 AM - 10:00 PM, Thursday 7:00 AM - 10:00 PM, Friday 7:00 AM - 10:00 PM, Saturday 7:00 AM - 10:00 PM, Sunday 7:00 AM - 10:00 PM",,,
Winnipeg V,2109,2142 McPhillips St.,,Winnipeg,MAN,R2V 3C8,CAN,(204) 697-0010,49.949435,-97.151966,"Monday 7:00 AM - 10:00 PM, Tuesday 7:00 AM - 10:00 PM, Wednesday 7:00 AM - 10:00 PM, Thursday 7:00 AM - 10:00 PM, Friday 7:00 AM - 11:00 PM, Saturday 7:00 AM - 11:00 PM, Sunday 7:00 AM - 10:00 PM",,,
Plattsburgh,2242,411 Route 3,,Plattsburgh,NY,12901,USA,(518) 561-6222,44.695863,-73.488783,"Monday 6:00 AM - 10:00 PM, Tuesday 6:00 AM - 10:00 PM, Wednesday 6:00 AM - 10:00 PM, Thursday 6:00 AM - 10:00 PM, Friday 6:00 AM - 11:00 PM, Saturday 6:00 AM - 11:00 PM, Sunday 6:00 AM - 10:00 PM",,,
Sheridan,2083,1373 Coffeen Ave PO Box 7279,,Sheridan,WY,82801-7028,USA,(307) 674-9336,44.783438,-106.941971,"Monday 5:00 AM - 11:00 PM, Tuesday 5:00 AM - 11:00 PM, Wednesday 5:00 AM - 11:00 PM, Thursday 5:00 AM - 11:00 PM, Friday 5:00 AM - 12:00 AM, Saturday 5:00 AM - 12:00 AM, Sunday 5:00 AM - 11:00 PM",,,
Billings II,2163,825 N 27th Street,,Billings,MT,59101-1116,USA,(406) 248-8320,45.789765,-108.51016,"Monday 6:00 AM - 12:00 AM, Tuesday 6:00 AM - 12:00 AM, Wednesday 6:00 AM - 12:00 AM, Thursday 6:00 AM - 12:00 AM, Friday 6:00 AM - 3:00 AM, Saturday 6:00 AM - 3:00 AM, Sunday 6:00 AM - 3:00 AM",,,
Billings,2175,765 South 20th St West,,Billings,MT,59102-6463,USA,(406) 656-6640,45.756524,-108.566143,"Monday 6:00 AM - 12:00 AM, Tuesday 6:00 AM - 12:00 AM, Wednesday 6:00 AM - 12:00 AM, Thursday 6:00 AM - 12:00 AM, Friday 6:00 AM - 12:00 AM, Saturday 12:00 AM - 12:00 AM, Sunday 6:00 AM - 12:00 AM",,,
Salt Lake City-Cafe &#038 Bakery,2078,230 North Admiral Byrd Rd,,Salt Lake City,UT,84116-3773,USA,(801) 355-4488,40.77333,-112.021203,"Monday 6:00 AM - 10:00 PM, Tuesday 6:00 AM - 10:00 PM, Wednesday 6:00 AM - 10:00 PM, Thursday 6:00 AM - 10:00 PM, Friday 6:00 AM - 10:00 PM, Saturday 6:00 AM - 10:00 PM, Sunday 6:00 AM - 10:00 PM",,,
Regina,2248,1800 Prince of Wales Dr.,,Regina,SAS,S4Z 1A4,CAN,(306) 790-2111,50.449038,-104.533685,"Monday 6:00 AM - 11:00 PM, Tuesday 6:00 AM - 11:00 PM, Wednesday 6:00 AM - 11:00 PM, Thursday 6:00 AM - 11:00 PM, Friday 6:00 AM - 12:00 AM, Saturday 6:00 AM - 12:00 AM, Sunday 6:00 AM - 11:00 PM",,,
Idaho Falls,2127,2000 Channing Way,,Idaho Falls,ID,83404-8032,USA,(208) 529-9955,43.479512,-111.99158,"Monday 7:00 AM - 11:00 PM, Tuesday 7:00 AM - 11:00 PM, Wednesday 7:00 AM - 11:00 PM, Thursday 7:00 AM - 11:00 PM, Friday 7:00 AM - 12:00 AM, Saturday 7:00 AM - 12:00 AM, Sunday 7:00 AM - 10:00 PM",,,
Pocatello,2143,1600 Pocatello Creek Rd,,Pocatello,ID,83201-2340,USA,(208) 233-0006,42.899029,-112.431509,"Monday 6:00 AM - 10:00 PM, Tuesday 6:00 AM - 10:00 PM, Wednesday 6:00 AM - 10:00 PM, Thursday 6:00 AM - 10:00 PM, Friday 6:00 AM - 11:00 PM, Saturday 6:00 AM - 11:00 PM, Sunday 6:00 AM - 10:00 PM",,,
Bozeman,2165,2505 W Main St,,Bozeman,MT,59718-3940,USA,(406) 587-9323,45.674755,-111.071422,"Monday 6:00 AM - 11:00 PM, Tuesday 6:00 AM - 11:00 PM, Wednesday 6:00 AM - 11:00 PM, Thursday 6:00 AM - 11:00 PM, Friday 12:00 AM - 12:00 AM, Saturday 12:00 AM - 12:00 AM, Sunday 6:00 AM - 11:00 PM",,,
Burley,2104,800 N Overland Avenue,,Burley,ID,83318-3442,USA,(208) 678-1304,42.543216,-113.793297,"Monday 6:00 AM - 12:00 AM, Tuesday 6:00 AM - 12:00 AM, Wednesday 6:00 AM - 12:00 AM, Thursday 6:00 AM - 12:00 AM, Friday 6:00 AM - 12:00 AM, Saturday 6:00 AM - 12:00 AM, Sunday 6:00 AM - 12:00 AM",,,
Bullhead City,2298,2250 Highway 95,,Bullhead City,AZ,86442,USA,(928) 763-1960,35.105266,-114.596128,"Monday 6:00 AM - 11:00 PM, Tuesday 6:00 AM - 11:00 PM, Wednesday 6:00 AM - 11:00 PM, Thursday 6:00 AM - 11:00 PM, Friday 6:00 AM - 11:00 PM, Saturday 6:00 AM - 11:00 PM, Sunday 6:00 AM - 11:00 PM",,,
Helena,2306,1803 Cedar Street,,Helena,MT,59601-1111,USA,(406) 442-5757,46.606261,-112.009294,"Monday 6:00 AM - 11:00 PM, Tuesday 6:00 AM - 11:00 PM, Wednesday 6:00 AM - 11:00 PM, Thursday 6:00 AM - 11:00 PM, Friday 6:00 AM - 11:00 PM, Saturday 6:00 AM - 11:00 PM, Sunday 6:00 AM - 11:00 PM",,,
Great Falls,2345,526 2nd Ave N,,Great Falls,MT,59401-2548,USA,(406) 453-2411,47.507228,-111.297669,"Monday 6:00 AM - 10:00 PM, Tuesday 6:00 AM - 10:00 PM, Wednesday 6:00 AM - 10:00 PM, Thursday 6:00 AM - 10:00 PM, Friday 6:00 AM - 10:00 PM, Saturday 6:00 AM - 10:00 PM, Sunday 6:00 AM - 10:00 PM",,,
Butte,2145,2900 Harrison Avenue,,Butte,MT,59701-3693,USA,(406) 494-2490,45.981708,-112.506151,"Monday 12:00 AM - 12:00 AM, Tuesday 12:00 AM - 12:00 AM, Wednesday 12:00 AM - 12:00 AM, Thursday 12:00 AM - 12:00 AM, Friday 12:00 AM - 12:00 AM, Saturday 12:00 AM - 12:00 AM, Sunday 12:00 AM - 12:00 AM",,,
Twin Falls,2337,1564 Blue Lakes Blvd N,,Twin Falls,ID,83301,USA,(208) 736-8417,42.589395,-114.459467,"Monday 6:00 AM - 9:00 PM, Tuesday 6:00 AM - 9:00 PM, Wednesday 6:00 AM - 9:00 PM, Thursday 6:00 AM - 9:00 PM, Friday 6:00 AM - 11:00 PM, Saturday 6:00 AM - 11:00 PM, Sunday 6:00 AM - 9:00 PM",,,
Medicine Hat,2111,2301 Trans Canada Way S.E.,,Medicine Hat,ALB,T1B 4E9,CAN,(403) 527-9311,50.001421,-110.64605,"Monday 6:00 AM - 10:00 PM, Tuesday 6:00 AM - 10:00 PM, Wednesday 6:00 AM - 10:00 PM, Thursday 6:00 AM - 10:00 PM, Friday 6:00 AM - 10:00 PM, Saturday 6:00 AM - 10:00 PM, Sunday 6:00 AM - 10:00 PM",,,
Missoula,2336,2275 N Reserve Street,,Missoula,MT,59808-1320,USA,(406) 543-3330,46.886038,-114.040134,"Monday 12:00 AM - 12:00 AM, Tuesday 12:00 AM - 12:00 AM, Wednesday 12:00 AM - 12:00 AM, Thursday 12:00 AM - 12:00 AM, Friday 12:00 AM - 12:00 AM, Saturday 12:00 AM - 12:00 AM, Sunday 12:00 AM - 12:00 AM",,,
Kalispell,2108,1390 US Highway 2 East,,Kalispell,MT,59901-3221,USA,(406) 257-7375,48.196834,-114.341017,"Monday 6:00 AM - 11:00 PM, Tuesday 6:00 AM - 11:00 PM, Wednesday 6:00 AM - 11:00 PM, Thursday 6:00 AM - 11:00 PM, Friday 6:00 AM - 12:00 AM, Saturday 6:00 AM - 12:00 AM, Sunday 6:00 AM - 12:00 AM",,,
Calgary II,2317,3022 23rd St. NE,,Calgary,ALB,T2E 8R7,CAN,(403) 219-0900,51.081145,-114.005066,"Monday 6:00 AM - 10:00 PM, Tuesday 6:00 AM - 10:00 PM, Wednesday 6:00 AM - 10:00 PM, Thursday 6:00 AM - 10:00 PM, Friday 6:00 AM - 11:00 PM, Saturday 6:00 AM - 11:00 PM, Sunday 6:00 AM - 10:00 PM",,,
Spokane &#8211 E 12 Olive,2141,12 East Olive Avenue,,Spokane,WA,99202,USA,(509) 747-9111,47.661009,-117.410581,"Monday 6:00 AM - 11:00 PM, Tuesday 6:00 AM - 11:00 PM, Wednesday 6:00 AM - 11:00 PM, Thursday 6:00 AM - 11:00 PM, Friday 6:00 AM - 12:00 AM, Saturday 6:00 AM - 12:00 AM, Sunday 6:00 AM - 11:00 PM",,,
Ellensburg,2346,1504 Hwy 97,,Ellensburg,WA,98926-9329,USA,(509) 925-4662,47.007199,-120.585835,"Monday 6:00 AM - 10:00 PM, Tuesday 16:00 AM - 10:00 PM, Wednesday 6:00 AM - 10:00 PM, Thursday 6:00 AM - 10:00 PM, Friday 6:00 AM - 11:00 PM, Saturday 6:00 AM - 11:00 PM, Sunday 6:00 AM - 10:00 PM",,,
Kelowna,2115,2170 Harvey Ave.,,KELOWNA,BC,V1Y 6G8,CAN,(250) 717-1550,49.882579,-119.438642,"Monday 5:30 AM - 10:00 PM, Tuesday 5:30 AM - 10:00 PM, Wednesday 5:30 AM - 10:00 PM, Thursday 5:30 AM - 10:00 PM, Friday 5:30 AM - 11:00 PM, Saturday 5:30 AM - 11:00 PM, Sunday 5:30 AM - 10:00 PM",,,
