store_name,store_number,address,address2,city,state,zip_code,country,phone_number,latitude,longitude,store_hours,store_type,other_fields,coming_soon
Plaza Carolina,,Avenida Jes√∫s M. Fragoso,,Carolina,Puerto Rico,00983,PR,(787) 257-3200,,,,,,
Edgewater Mall,,2800 Beach Blvd,,Biloxi,Mississippi,39531,US,(228) 207-7681,,,"Monday10:00 AM - 9:00 PM, Tuesday10:00 AM - 9:00 PM, Wednesday10:00 AM - 9:00 PM, Thursday10:00 AM - 9:00 PM, Friday10:00 AM - 9:00 PM, Saturday10:00 AM - 9:00 PM, Sunday12:00 PM - 6:00 PM",,,
West Acres Mall,,3902 13th Ave S,,Fargo,North Dakota,58103,US,(701) 282-9654,,,"Monday10:00 AM - 9:00 PM, Tuesday10:00 AM - 9:00 PM, Wednesday10:00 AM - 9:00 PM, Thursday10:00 AM - 9:00 PM, Friday10:00 AM - 9:00 PM, Saturday10:00 AM - 9:00 PM, Sunday12:00 PM - 6:00 PM",,,
Maine Mall,,214 Maine Mall,,South Portland,Maine,04106,US,(207) 775-7125,,,"Monday10:00 AM - 9:00 PM, Tuesday10:00 AM - 9:00 PM, Wednesday10:00 AM - 9:00 PM, Thursday10:00 AM - 9:00 PM, Friday10:00 AM - 9:00 PM, Saturday10:00 AM - 9:00 PM, Sunday11:00 AM - 6:00 PM",,,
Charleston Town Center,,3000 Charleston Town Center,,Charleston,West Virginia,25389,US,(304) 205-1694,,,"Monday10:00 AM - 9:00 PM, Tuesday10:00 AM - 9:00 PM, Wednesday10:00 AM - 9:00 PM, Thursday10:00 AM - 9:00 PM, Friday10:00 AM - 9:00 PM, Saturday10:00 AM - 9:00 PM, Sunday12:30 PM - 6:00 PM",,,
Hanes Mall,,3320 Silas Creek Pkwy,,Winston Salem,North Carolina,27103,US,(336) 760-2773,,,"Monday10:00 AM - 9:00 PM, Tuesday10:00 AM - 9:00 PM, Wednesday10:00 AM - 9:00 PM, Thursday10:00 AM - 9:00 PM, Friday10:00 AM - 9:00 PM, Saturday10:00 AM - 9:00 PM, Sunday11:00 AM - 6:00 PM",,,
Jefferson Valley Mall,,650 Lee Blvd,,Yorktown Heights,New York,10598,US,(914) 302-5186,,,"Monday10:00 AM - 9:30 PM, Tuesday10:00 AM - 9:30 PM, Wednesday10:00 AM - 9:30 PM, Thursday10:00 AM - 9:30 PM, Friday10:00 AM - 9:30 PM, Saturday10:00 AM - 9:30 PM, Sunday11:00 AM - 6:00 PM",,,
Maplewood Mall,,1118 Maplewood Mall,,St. Paul,Minnesota,55109,US,(651) 770-7678,,,"Monday10:00 AM - 9:00 PM, Tuesday10:00 AM - 9:00 PM, Wednesday10:00 AM - 9:00 PM, Thursday10:00 AM - 9:00 PM, Friday10:00 AM - 9:00 PM, Saturday10:00 AM - 9:00 PM, Sunday11:00 AM - 6:00 PM",,,
Crossroads Mall,,4101 W Division St,,St. Cloud,Minnesota,56301,US,(320) 255-0101,,,"Monday10:00 AM - 9:00 PM, Tuesday10:00 AM - 9:00 PM, Wednesday10:00 AM - 9:00 PM, Thursday10:00 AM - 9:00 PM, Friday10:00 AM - 9:00 PM, Saturday10:00 AM - 9:00 PM, Sunday11:00 AM - 6:00 PM",,,
Rosedale Center,,206 Rosedale Center,,Roseville,Minnesota,55113,US,(651) 636-3915,,,"Monday10:00 AM - 9:00 PM, Tuesday10:00 AM - 9:00 PM, Wednesday10:00 AM - 9:00 PM, Thursday10:00 AM - 9:00 PM, Friday10:00 AM - 9:00 PM, Saturday10:00 AM - 9:00 PM, Sunday11:00 AM - 6:00 PM",,,
Apache,,418 Apache Mall,,Rochester,Minnesota,55902,US,(507) 287-0587,,,"Monday10:00 AM - 9:00 PM, Tuesday10:00 AM - 9:00 PM, Wednesday10:00 AM - 9:00 PM, Thursday10:00 AM - 9:00 PM, Friday10:00 AM - 9:00 PM, Saturday10:00 AM - 9:00 PM, Sunday11:00 AM - 7:00 PM",,,
Ridgedale,,12401 Wayzata Blvd.,,Minnetonka,Minnesota,55305,US,(952) 591-1857,,,"Monday10:00 AM - 9:00 PM, Tuesday10:00 AM - 9:00 PM, Wednesday10:00 AM - 9:00 PM, Thursday10:00 AM - 9:00 PM, Friday10:00 AM - 9:00 PM, Saturday10:00 AM - 9:00 PM, Sunday11:00 AM - 6:00 PM",,,
Southdale Center,,2165 Southdale Center,,Edina,Minnesota,55435,US,(952) 920-1260,,,"Monday10:00 AM - 9:00 PM, Tuesday10:00 AM - 9:00 PM, Wednesday10:00 AM - 9:00 PM, Thursday10:00 AM - 9:00 PM, Friday10:00 AM - 9:00 PM, Saturday10:00 AM - 9:00 PM, Sunday11:00 AM - 6:00 PM",,,
Woodbridge Center,,250 Woodbridge Center Dr.,,Woodbridge,New Jersey,07095,US,(732) 855-0777,,,"Monday10:00 AM - 9:30 PM, Tuesday10:00 AM - 9:30 PM, Wednesday10:00 AM - 9:30 PM, Thursday10:00 AM - 9:30 PM, Friday10:00 AM - 9:30 PM, Saturday10:00 AM - 9:30 PM, Sunday11:00 AM - 7:00 PM",,,
Arbor Lakes,,12413 Elm Creek Blvd. North,,Maple Grove,Minnesota,55369,US,(763) 424-7921,,,"Monday10:00 AM - 9:00 PM, Tuesday10:00 AM - 9:00 PM, Wednesday10:00 AM - 9:00 PM, Thursday10:00 AM - 9:00 PM, Friday10:00 AM - 9:00 PM, Saturday10:00 AM - 9:00 PM, Sunday11:00 AM - 6:00 PM",,,
Meadowood Mall,,5443 Meadowood Mall Cir,,Reno,Nevada,89502,US,(775) 825-7171,,,"Monday10:00 AM - 9:00 PM, Tuesday10:00 AM - 9:00 PM, Wednesday10:00 AM - 9:00 PM, Thursday10:00 AM - 9:00 PM, Friday10:00 AM - 9:00 PM, Saturday10:00 AM - 9:00 PM, Sunday11:00 AM - 7:00 PM",,,
Galleria at Sunset,,1300 Sunset Rd,,Henderson,Nevada,89014,US,(702) 433-0174,,,"Monday10:00 AM - 9:00 PM, Tuesday10:00 AM - 9:00 PM, Wednesday10:00 AM - 9:00 PM, Thursday10:00 AM - 9:00 PM, Friday10:00 AM - 9:00 PM, Saturday10:00 AM - 9:00 PM, Sunday11:00 AM - 6:00 PM",,,
Mesilla Valley,,700 S Telshor Blvd,,Las Cruces,New Mexico,88001,US,(575) 522-5014,,,"Monday10:00 AM - 9:00 PM, Tuesday10:00 AM - 9:00 PM, Wednesday10:00 AM - 9:00 PM, Thursday10:00 AM - 9:00 PM, Friday10:00 AM - 9:00 PM, Saturday10:00 AM - 9:00 PM, Sunday12:00 PM - 6:00 PM",,,
The Mall at Rockingham Park,,99 Rockingham Park Blvd,,Salem,New Hampshire,03079,US,(603) 894-1107,,,"Monday10:00 AM - 9:00 PM, Tuesday10:00 AM - 9:00 PM, Wednesday10:00 AM - 9:00 PM, Thursday10:00 AM - 9:00 PM, Friday10:00 AM - 9:00 PM, Saturday10:00 AM - 9:00 PM, Sunday11:00 AM - 6:00 PM",,,
Westfield Gateway,,414 Gateway Mall,,Lincoln,Nebraska,68505,US,(402) 466-1103,,,"Monday10:00 AM - 9:00 PM, Tuesday10:00 AM - 9:00 PM, Wednesday10:00 AM - 9:00 PM, Thursday10:00 AM - 9:00 PM, Friday10:00 AM - 9:00 PM, Saturday10:00 AM - 9:00 PM, Sunday12:00 PM - 6:00 PM",,,
South County Mall,,85 South County Ctr Way,,St. Louis,Missouri,63129,US,(314) 894-4681,,,"Monday10:00 AM - 9:00 PM, Tuesday10:00 AM - 9:00 PM, Wednesday10:00 AM - 9:00 PM, Thursday10:00 AM - 9:00 PM, Friday10:00 AM - 9:00 PM, Saturday10:00 AM - 9:00 PM, Sunday11:00 AM - 6:00 PM",,,
Saint Louis Galleria,,2460 St. Louis Galleria,,St. Louis,Missouri,63117,US,(314) 863-4433,,,"Monday10:00 AM - 9:00 PM, Tuesday10:00 AM - 9:00 PM, Wednesday10:00 AM - 9:00 PM, Thursday10:00 AM - 9:00 PM, Friday10:00 AM - 9:00 PM, Saturday10:00 AM - 9:00 PM, Sunday11:00 AM - 6:00 PM",,,
Mayfair,,2500 N. Mayfair Rd.,,Wauwatosa,Wisconsin,53226,US,(414) 443-9507,,,"Monday10:00 AM - 9:00 PM, Tuesday10:00 AM - 9:00 PM, Wednesday10:00 AM - 9:00 PM, Thursday10:00 AM - 9:00 PM, Friday10:00 AM - 9:00 PM, Saturday10:00 AM - 9:00 PM, Sunday11:00 AM - 6:00 PM",,,
Southridge Mall,,5300 South 76th St,,Greendale,Wisconsin,53129,US,(414) 421-8145,,,"Monday10:00 AM - 9:00 PM, Tuesday10:00 AM - 9:00 PM, Wednesday10:00 AM - 9:00 PM, Thursday10:00 AM - 9:00 PM, Friday10:00 AM - 9:00 PM, Saturday10:00 AM - 9:00 PM, Sunday11:00 AM - 6:00 PM",,,
Bay Park,,973 Bay Park Square,,Green Bay,Wisconsin,54304,US,(920) 490-9071,,,"Monday10:00 AM - 9:00 PM, Tuesday10:00 AM - 9:00 PM, Wednesday10:00 AM - 9:00 PM, Thursday10:00 AM - 9:00 PM, Friday10:00 AM - 9:00 PM, Saturday10:00 AM - 9:00 PM, Sunday11:00 AM - 6:00 PM",,,
Bayshore Town Center,,5800 North Bayshore Dr.,,Glendale,Wisconsin,53217,US,(414) 455-0002,,,"Monday10:00 AM - 9:00 PM, Tuesday10:00 AM - 9:00 PM, Wednesday10:00 AM - 9:00 PM, Thursday10:00 AM - 9:00 PM, Friday10:00 AM - 9:00 PM, Saturday10:00 AM - 9:00 PM, Sunday11:00 AM - 6:00 PM",,,
Valley View,,3800 U.S. Highway 16,,La Crosse,Wisconsin,54601,US,(608) 781-4793,,,"Monday10:00 AM - 9:00 PM, Tuesday10:00 AM - 9:00 PM, Wednesday10:00 AM - 9:00 PM, Thursday10:00 AM - 9:00 PM, Friday10:00 AM - 9:00 PM, Saturday10:00 AM - 9:00 PM, Sunday11:00 AM - 6:00 PM",,,
Oakwood Mall,,4800 Golf Rd,,Eau Claire,Wisconsin,54701,US,(715) 835-7688,,,"Monday10:00 AM - 9:00 PM, Tuesday10:00 AM - 9:00 PM, Wednesday10:00 AM - 9:00 PM, Thursday10:00 AM - 9:00 PM, Friday10:00 AM - 9:00 PM, Saturday10:00 AM - 9:00 PM, Sunday11:00 AM - 6:00 PM",,,
Brookfield Center,,95 N. Moorland Rd,,Brookfield,Wisconsin,53005,US,(262) 784-7620,,,"Monday10:00 AM - 9:00 PM, Tuesday10:00 AM - 9:00 PM, Wednesday10:00 AM - 9:00 PM, Thursday10:00 AM - 9:00 PM, Friday10:00 AM - 9:00 PM, Saturday10:00 AM - 9:00 PM, Sunday11:00 AM - 6:00 PM",,,
Fox River,,4301 W. Wisconsin Ave.,,Appleton,Wisconsin,54913,US,(920) 734-5415,,,"Monday10:00 AM - 9:00 PM, Tuesday10:00 AM - 9:00 PM, Wednesday10:00 AM - 9:00 PM, Thursday10:00 AM - 9:00 PM, Friday10:00 AM - 9:00 PM, Saturday10:00 AM - 9:00 PM, Sunday10:00 AM - 6:00 PM",,,
Square One,,1277 Broadway,,Saugus,Massachusetts,01906,US,(781) 231-0181,,,"Monday10:00 AM - 9:00 PM, Tuesday10:00 AM - 9:00 PM, Wednesday10:00 AM - 9:00 PM, Thursday10:00 AM - 9:00 PM, Friday10:00 AM - 9:00 PM, Saturday10:00 AM - 9:00 PM, Sunday11:00 AM - 6:00 PM",,,
Northshore,,210 Andover St.,,Peabody,Massachusetts,01961,US,(978) 531-1092,,,"Monday10:00 AM - 9:00 PM, Tuesday10:00 AM - 9:00 PM, Wednesday10:00 AM - 9:00 PM, Thursday10:00 AM - 9:00 PM, Friday10:00 AM - 9:00 PM, Saturday10:00 AM - 9:00 PM, Sunday11:00 AM - 6:00 PM",,,
Emerald Square,,999 S Washington St,,North Attleboro,Massachusetts,02760,US,(508) 643-0263,,,"Monday10:00 AM - 9:00 PM, Tuesday10:00 AM - 9:00 PM, Wednesday10:00 AM - 9:00 PM, Thursday10:00 AM - 9:00 PM, Friday10:00 AM - 9:00 PM, Saturday10:00 AM - 9:00 PM, Sunday11:00 AM - 6:00 PM",,,
North Dartmouth,,200 N Dartmouth Mall,,North Dartmouth,Massachusetts,02747,US,(508) 991-6970,,,"Monday10:00 AM - 9:00 PM, Tuesday10:00 AM - 9:00 PM, Wednesday10:00 AM - 9:00 PM, Thursday10:00 AM - 9:00 PM, Friday10:00 AM - 9:00 PM, Saturday10:00 AM - 9:00 PM, Sunday11:00 AM - 6:00 PM",,,
Natick Collection,,1245 Worcester Road,,Natick,Massachusetts,01760,US,(508) 651-0662,,,"Monday10:00 AM - 9:00 PM, Tuesday10:00 AM - 9:00 PM, Wednesday10:00 AM - 9:00 PM, Thursday10:00 AM - 9:00 PM, Friday10:00 AM - 9:00 PM, Saturday10:00 AM - 9:00 PM, Sunday11:00 AM - 6:00 PM",,,
Oakview,,3001 S 144th St,,Omaha,Nebraska,68144,US,(402) 697-0028,,,"Monday10:00 AM - 9:00 PM, Tuesday10:00 AM - 9:00 PM, Wednesday10:00 AM - 9:00 PM, Thursday10:00 AM - 9:00 PM, Friday10:00 AM - 9:00 PM, Saturday10:00 AM - 9:00 PM, Sunday11:00 AM - 6:00 PM",,,
Westroads Mall,,10000 California St.,,Omaha,Nebraska,68114,US,(402) 391-1750,,,"Monday10:00 AM - 9:00 PM, Tuesday10:00 AM - 9:00 PM, Wednesday10:00 AM - 9:00 PM, Thursday10:00 AM - 9:00 PM, Friday10:00 AM - 9:00 PM, Saturday10:00 AM - 9:00 PM, Sunday11:00 AM - 6:00 PM",,,
Coronado,,6600 Menaul N.E.,,Albuquerque,New Mexico,87110,US,(505) 884-4764,,,"Monday10:00 AM - 9:00 PM, Tuesday10:00 AM - 9:00 PM, Wednesday10:00 AM - 9:00 PM, Thursday10:00 AM - 9:00 PM, Friday10:00 AM - 9:00 PM, Saturday10:00 AM - 9:00 PM, Sunday12:00 PM - 6:00 PM",,,
Cottonwood,,10000 Coors Blvd.,,Albuquerque,New Mexico,87114,US,(505) 792-2805,,,"Monday10:00 AM - 9:00 PM, Tuesday10:00 AM - 9:00 PM, Wednesday10:00 AM - 9:00 PM, Thursday10:00 AM - 9:00 PM, Friday10:00 AM - 9:00 PM, Saturday10:00 AM - 9:00 PM, Sunday11:00 AM - 6:00 PM",,,
Town Square,,6611 Las Vegas Blvd South,,Las Vegas,Nevada,89119,US,(702) 270-6479,,,"Monday10:00 AM - 9:00 PM, Tuesday10:00 AM - 9:00 PM, Wednesday10:00 AM - 9:00 PM, Thursday10:00 AM - 9:00 PM, Friday10:00 AM - 10:00 PM, Saturday10:00 AM - 10:00 PM, Sunday11:00 AM - 8:30 PM",,,
Downtown Summerlin,,2120 Festival Plaza Dr.,,Las Vegas,Nevada,89135,US,(702) 550-8509,,,"Monday10:00 AM - 9:00 PM, Tuesday10:00 AM - 9:00 PM, Wednesday10:00 AM - 9:00 PM, Thursday10:00 AM - 9:00 PM, Friday10:00 AM - 9:00 PM, Saturday10:00 AM - 9:00 PM, Sunday11:00 AM - 7:00 PM",,,
East Towne Mall,,89 East Towne Mall,,Madison,Wisconsin,53704,US,(608) 234-4876,,,"Monday10:00 AM - 9:00 PM, Tuesday10:00 AM - 9:00 PM, Wednesday10:00 AM - 9:00 PM, Thursday10:00 AM - 9:00 PM, Friday10:00 AM - 9:00 PM, Saturday10:00 AM - 9:00 PM, Sunday11:00 AM - 6:00 PM",,,
West Towne Mall,,66 West Towne Mall,,Madison,Wisconsin,53719,US,(608) 833-7270,,,"Monday10:00 AM - 9:00 PM, Tuesday10:00 AM - 9:00 PM, Wednesday10:00 AM - 9:00 PM, Thursday10:00 AM - 9:00 PM, Friday10:00 AM - 9:00 PM, Saturday10:00 AM - 9:00 PM, Sunday11:00 AM - 6:00 PM",,,
Meadows Mall,,4300 Meadows Lane,,Las Vegas,Nevada,89107,US,(702) 997-3673,,,"Monday10:00 AM - 9:00 PM, Tuesday10:00 AM - 9:00 PM, Wednesday10:00 AM - 9:00 PM, Thursday10:00 AM - 9:00 PM, Friday10:00 AM - 9:00 PM, Saturday10:00 AM - 9:00 PM, Sunday10:00 AM - 6:00 PM",,,
Marketstreet Lynnfield,,427 Walnut Street,,Lynnfield,Massachusetts,01940,US,(339) 203-4364,,,"Monday10:00 AM - 9:00 PM, Tuesday10:00 AM - 9:00 PM, Wednesday10:00 AM - 9:00 PM, Thursday10:00 AM - 9:00 PM, Friday10:00 AM - 9:00 PM, Saturday10:00 AM - 9:00 PM, Sunday11:00 AM - 6:00 PM",,,
Cape Cod,,769 Iyannough Road,,Hyannis,Massachusetts,02601,US,(774) 470-1827,,,"Monday10:00 AM - 9:00 PM, Tuesday10:00 AM - 9:00 PM, Wednesday10:00 AM - 9:00 PM, Thursday10:00 AM - 9:00 PM, Friday10:00 AM - 9:00 PM, Saturday10:00 AM - 9:00 PM, Sunday11:00 AM - 6:00 PM",,,
Holyoke Mall,,50 Holyoke Street,,Holyoke,Massachusetts,01040,US,(413) 536-6808,,,"Monday10:00 AM - 9:30 PM, Tuesday10:00 AM - 9:30 PM, Wednesday10:00 AM - 9:30 PM, Thursday10:00 AM - 9:30 PM, Friday10:00 AM - 9:30 PM, Saturday10:00 AM - 9:30 PM, Sunday11:00 AM - 6:30 PM",,,
Patriot Place,,249 Patriot Place,,Foxborough,Massachusetts,02035,US,(508) 543-1387,,,"Monday10:00 AM - 9:00 PM, Tuesday10:00 AM - 9:00 PM, Wednesday10:00 AM - 9:00 PM, Thursday10:00 AM - 9:00 PM, Friday10:00 AM - 9:00 PM, Saturday10:00 AM - 9:00 PM, Sunday10:00 AM - 7:00 PM",,,
Legacy Place,,950 Providence Hwy,,Dedham,Massachusetts,02026,US,(781) 326-5520,,,"Monday10:00 AM - 9:00 PM, Tuesday10:00 AM - 9:00 PM, Wednesday10:00 AM - 9:00 PM, Thursday10:00 AM - 9:00 PM, Friday10:00 AM - 9:00 PM, Saturday10:00 AM - 9:00 PM, Sunday11:00 AM - 6:00 PM",,,
Fashion Show,,3200 Las Vegas Blvd. South,,Las Vegas,Nevada,89109,US,(702) 737-8999,,,"Monday10:00 AM - 9:00 PM, Tuesday10:00 AM - 9:00 PM, Wednesday10:00 AM - 9:00 PM, Thursday10:00 AM - 9:00 PM, Friday10:00 AM - 9:00 PM, Saturday10:00 AM - 9:00 PM, Sunday11:00 AM - 8:00 PM",,,
Solomon Pond,,580 Donald Lynch Blvd,,Marlborough,Massachusetts,01752,US,(508) 303-0377,,,"Monday10:00 AM - 9:00 PM, Tuesday10:00 AM - 9:00 PM, Wednesday10:00 AM - 9:00 PM, Thursday10:00 AM - 9:00 PM, Friday10:00 AM - 9:00 PM, Saturday10:00 AM - 9:00 PM, Sunday11:00 AM - 6:00 PM",,,
Cambridgeside Galleria,,100 Cambridgeside Plaza,,Cambridge,Massachusetts,02141,US,(617) 494-8408,,,"Monday10:00 AM - 9:00 PM, Tuesday10:00 AM - 9:00 PM, Wednesday10:00 AM - 9:00 PM, Thursday10:00 AM - 9:00 PM, Friday10:00 AM - 9:00 PM, Saturday10:00 AM - 9:00 PM, Sunday12:00 PM - 7:00 PM",,,
Burlington Mall,,95 Burlington Mall Road,,Burlington,Massachusetts,01803,US,(781) 273-4176,,,"Monday10:00 AM - 9:00 PM, Tuesday10:00 AM - 9:00 PM, Wednesday10:00 AM - 9:00 PM, Thursday10:00 AM - 9:00 PM, Friday10:00 AM - 9:00 PM, Saturday10:00 AM - 9:00 PM, Sunday11:00 AM - 6:00 PM",,,
South Shore Plaza,,250 Granite Street,,Braintree,Massachusetts,02184,US,(781) 848-4257,,,"Monday10:00 AM - 9:00 PM, Tuesday10:00 AM - 9:00 PM, Wednesday10:00 AM - 9:00 PM, Thursday10:00 AM - 9:00 PM, Friday10:00 AM - 9:00 PM, Saturday10:00 AM - 9:00 PM, Sunday11:00 AM - 6:00 PM",,,
The Shops at Prudential Center,,800 Bolyston Street,,Boston,Massachusetts,02199,US,(617) 587-0906,,,"Monday10:00 AM - 9:00 PM, Tuesday10:00 AM - 9:00 PM, Wednesday10:00 AM - 9:00 PM, Thursday10:00 AM - 9:00 PM, Friday10:00 AM - 9:00 PM, Saturday10:00 AM - 9:00 PM, Sunday11:00 AM - 8:00 PM",,,
Auburn,,385 Southbridge St,,Auburn,Massachusetts,01501,US,(508) 832-3811,,,"Monday10:00 AM - 9:00 PM, Tuesday10:00 AM - 9:00 PM, Wednesday10:00 AM - 9:00 PM, Thursday10:00 AM - 9:00 PM, Friday10:00 AM - 9:00 PM, Saturday10:00 AM - 9:00 PM, Sunday11:00 AM - 6:00 PM",,,
Cross County Shopping Center,,5130 Xavier Drive,,Yonkers,New York,10704,US,(914) 423-4646,,,"Monday10:00 AM - 9:30 PM, Tuesday10:00 AM - 9:30 PM, Wednesday10:00 AM - 9:30 PM, Thursday10:00 AM - 9:30 PM, Friday10:00 AM - 9:30 PM, Saturday10:00 AM - 9:30 PM, Sunday11:00 AM - 8:00 PM",,,
Ridge Hill Mall,,18 Second Street,,Yonkers,New York,10710,US,(914) 712-6995,,,"Monday10:00 AM - 9:30 PM, Tuesday10:00 AM - 9:30 PM, Wednesday10:00 AM - 9:30 PM, Thursday10:00 AM - 9:30 PM, Friday10:00 AM - 9:30 PM, Saturday10:00 AM - 9:30 PM, Sunday11:00 AM - 7:00 PM",,,
Wheaton,,11160 Veirs Mill Rd.,,Wheaton,Maryland,20902,US,(301) 933-2417,,,"Monday10:00 AM - 9:30 PM, Tuesday10:00 AM - 9:30 PM, Wednesday10:00 AM - 9:30 PM, Thursday10:00 AM - 9:30 PM, Friday10:00 AM - 9:30 PM, Saturday10:00 AM - 9:30 PM, Sunday11:00 AM - 7:00 PM",,,
St. Charles Towne Center,,11110 Mall Drive,,Waldorf,Maryland,20603,US,(301) 861-3072,,,"Monday10:00 AM - 9:00 PM, Tuesday10:00 AM - 9:00 PM, Wednesday10:00 AM - 9:00 PM, Thursday10:00 AM - 9:00 PM, Friday10:00 AM - 9:00 PM, Saturday10:00 AM - 9:00 PM, Sunday11:00 AM - 6:00 PM",,,
Centre at Salisbury,,2300 N Salisbury Blvd,,Salisbury,Maryland,21801,US,(410) 860-0173,,,"Monday10:00 AM - 9:00 PM, Tuesday10:00 AM - 9:00 PM, Wednesday10:00 AM - 9:00 PM, Thursday10:00 AM - 9:00 PM, Friday10:00 AM - 9:00 PM, Saturday10:00 AM - 9:00 PM, Sunday11:00 AM - 6:00 PM",,,
Columbia Mall,,10300 Little Patuxent Pkwy,,Columbia,Maryland,21044,US,(410) 964-0490,,,"Monday10:00 AM - 9:00 PM, Tuesday10:00 AM - 9:00 PM, Wednesday10:00 AM - 9:00 PM, Thursday10:00 AM - 9:00 PM, Friday10:00 AM - 9:00 PM, Saturday10:00 AM - 9:00 PM, Sunday11:00 AM - 6:00 PM",,,
Bowie Town Center,,15524 Emerald Way,,Bowie,Maryland,20716,US,(301) 850-0009,,,"Monday10:00 AM - 9:00 PM, Tuesday10:00 AM - 9:00 PM, Wednesday10:00 AM - 9:00 PM, Thursday10:00 AM - 9:00 PM, Friday10:00 AM - 9:00 PM, Saturday10:00 AM - 9:00 PM, Sunday11:00 AM - 6:00 PM",,,
Montgomery Mall,,7101 Democracy Blvd.,,Bethesda,Maryland,20817,US,(301) 365-8510,,,"Monday10:00 AM - 9:00 PM, Tuesday10:00 AM - 9:00 PM, Wednesday10:00 AM - 9:00 PM, Thursday10:00 AM - 9:00 PM, Friday10:00 AM - 9:00 PM, Saturday10:00 AM - 9:00 PM, Sunday11:00 AM - 6:00 PM",,,
Annapolis,,123 Annapolis Mall,,Annapolis,Maryland,21401,US,(410) 573-1173,,,"Monday10:00 AM - 9:30 PM, Tuesday10:00 AM - 9:30 PM, Wednesday10:00 AM - 9:30 PM, Thursday10:00 AM - 9:30 PM, Friday10:00 AM - 9:30 PM, Saturday10:00 AM - 9:30 PM, Sunday11:00 AM - 7:00 PM",,,
Fox Run Mall,,50 Fox Run Rd,,Newington,New Hampshire,03801,US,(603) 427-5150,,,"Monday10:00 AM - 9:00 PM, Tuesday10:00 AM - 9:00 PM, Wednesday10:00 AM - 9:00 PM, Thursday10:00 AM - 9:00 PM, Friday10:00 AM - 9:00 PM, Saturday10:00 AM - 9:00 PM, Sunday11:00 AM - 6:00 PM",,,
Pheasant Lane,,310 Daniel Webster Highway,,Nashua,New Hampshire,03060,US,(603) 891-2511,,,"Monday10:00 AM - 9:00 PM, Tuesday10:00 AM - 9:00 PM, Wednesday10:00 AM - 9:00 PM, Thursday10:00 AM - 9:00 PM, Friday10:00 AM - 9:00 PM, Saturday10:00 AM - 9:00 PM, Sunday11:00 AM - 6:00 PM",,,
Mall of New Hampshire,,1500 S. Willow Street,,Manchester,New Hampshire,03103,US,(603) 666-4106,,,"Monday10:00 AM - 9:00 PM, Tuesday10:00 AM - 9:00 PM, Wednesday10:00 AM - 9:00 PM, Thursday10:00 AM - 9:00 PM, Friday10:00 AM - 9:00 PM, Saturday10:00 AM - 9:00 PM, Sunday11:00 AM - 6:00 PM",,,
Willowbrook Mall,,1400 Willowbrook Mall,,Wayne,New Jersey,07470,US,(973) 812-1166,,,"Monday10:00 AM - 9:00 PM, Tuesday10:00 AM - 9:00 PM, Wednesday10:00 AM - 9:00 PM, Thursday10:00 AM - 9:00 PM, Friday10:00 AM - 9:00 PM, Saturday10:00 AM - 10:00 PM, Sunday11:00 AM - 7:00 PM",,,
Ocean County,,1201 Hooper Ave.,,Toms River,New Jersey,08753,US,(732) 244-5089,,,"Monday10:00 AM - 9:30 PM, Tuesday10:00 AM - 9:30 PM, Wednesday10:00 AM - 9:30 PM, Thursday10:00 AM - 9:30 PM, Friday10:00 AM - 9:30 PM, Saturday10:00 AM - 9:30 PM, Sunday11:00 AM - 6:00 PM",,,
Rockaway,,301 Mount Hope Road,,Rockaway,New Jersey,07866,US,(973) 989-7713,,,"Monday10:00 AM - 9:30 PM, Tuesday10:00 AM - 9:30 PM, Wednesday10:00 AM - 9:30 PM, Thursday10:00 AM - 9:30 PM, Friday10:00 AM - 9:30 PM, Saturday10:00 AM - 9:30 PM, Sunday11:00 AM - 6:00 PM",,,
The Mall at Short Hills,,1200 Morris Turnpike,,Short Hills,New Jersey,07078,US,(973) 564-6545,,,"Monday10:00 AM - 9:00 PM, Tuesday10:00 AM - 9:00 PM, Wednesday10:00 AM - 9:00 PM, Thursday10:00 AM - 9:00 PM, Friday10:00 AM - 9:00 PM, Saturday10:00 AM - 8:00 PM, Sunday11:00 AM - 6:00 PM",,,
Moorestown Mall,,400 Route 38,,Moorestown,New Jersey,08057,US,(856) 273-1945,,,"Monday10:00 AM - 9:00 PM, Tuesday10:00 AM - 9:00 PM, Wednesday10:00 AM - 9:00 PM, Thursday10:00 AM - 9:00 PM, Friday10:00 AM - 9:00 PM, Saturday10:00 AM - 9:00 PM, Sunday11:00 AM - 6:00 PM",,,
Mall at Hamilton Center,,4403 Black Horse Pike,,Mays Landing,New Jersey,08330,US,(609) 646-7440,,,"Monday10:00 AM - 9:00 PM, Tuesday10:00 AM - 9:00 PM, Wednesday10:00 AM - 9:00 PM, Thursday10:00 AM - 9:00 PM, Friday10:00 AM - 9:00 PM, Saturday10:00 AM - 9:00 PM, Sunday11:00 AM - 6:00 PM",,,
Livingston Mall,,112 Eisenhower Pkwy,,Livingston,New Jersey,07039,US,(973) 535-8228,,,"Monday10:00 AM - 9:00 PM, Tuesday10:00 AM - 9:00 PM, Wednesday10:00 AM - 9:00 PM, Thursday10:00 AM - 9:00 PM, Friday10:00 AM - 9:00 PM, Saturday10:00 AM - 9:30 PM, Sunday11:00 AM - 6:00 PM",,,
Quakerbridge Mall,,3320 Brunswick Pike,,Lawrenceville,New Jersey,08648,US,(609) 799-5357,,,"Monday10:00 AM - 9:00 PM, Tuesday10:00 AM - 9:00 PM, Wednesday10:00 AM - 9:00 PM, Thursday10:00 AM - 9:00 PM, Friday10:00 AM - 9:30 PM, Saturday10:00 AM - 9:30 PM, Sunday11:00 AM - 7:00 PM",,,
Newport Ctr Mall,,30 Mall Dr W,,Jersey City,New Jersey,07310,US,(201) 656-0332,,,"Monday10:00 AM - 9:30 PM, Tuesday10:00 AM - 9:30 PM, Wednesday10:00 AM - 9:30 PM, Thursday10:00 AM - 9:30 PM, Friday10:00 AM - 9:30 PM, Saturday10:00 AM - 9:30 PM, Sunday11:00 AM - 7:00 PM",,,
Freehold Raceway Mall,,3710 Route 9,,Freehold,New Jersey,07728,US,(732) 431-0809,,,"Monday10:00 AM - 9:30 PM, Tuesday10:00 AM - 9:30 PM, Wednesday10:00 AM - 9:30 PM, Thursday10:00 AM - 9:30 PM, Friday10:00 AM - 9:30 PM, Saturday10:00 AM - 9:30 PM, Sunday11:00 AM - 7:00 PM",,,
Menlo Park Mall,,409 Menlo Park,,Edison,New Jersey,08837,US,(732) 548-7256,,,"Monday10:00 AM - 9:30 PM, Tuesday10:00 AM - 9:30 PM, Wednesday10:00 AM - 9:30 PM, Thursday10:00 AM - 9:30 PM, Friday10:00 AM - 9:30 PM, Saturday10:00 AM - 9:30 PM, Sunday11:00 AM - 7:00 PM",,,
Promenade at Edgewater Mall,,35 The Promenade,,Edgewater,New Jersey,07020,US,(201) 840-9610,,,"Monday10:00 AM - 9:00 PM, Tuesday10:00 AM - 9:00 PM, Wednesday10:00 AM - 9:00 PM, Thursday10:00 AM - 9:00 PM, Friday10:00 AM - 9:00 PM, Saturday10:00 AM - 9:00 PM, Sunday",,,
Monmouth Mall,,180 Route 35 South,,Eatontown,New Jersey,07724,US,(732) 542-1041,,,"Monday10:00 AM - 9:30 PM, Tuesday10:00 AM - 9:30 PM, Wednesday10:00 AM - 9:30 PM, Thursday10:00 AM - 9:30 PM, Friday10:00 AM - 9:30 PM, Saturday10:00 AM - 9:30 PM, Sunday11:00 AM - 7:00 PM",,,
Brunswick,,755 State Highway 18,,East Brunswick,New Jersey,08816,US,(732) 651-7875,,,"Monday10:00 AM - 9:30 PM, Tuesday10:00 AM - 9:30 PM, Wednesday10:00 AM - 9:30 PM, Thursday10:00 AM - 9:30 PM, Friday10:00 AM - 9:30 PM, Saturday10:00 AM - 9:30 PM, Sunday11:00 AM - 6:00 PM",,,
White Marsh,,8200 Perry Hall Blvd.,,Baltimore,Maryland,21236,US,(410) 931-8129,,,"Monday10:00 AM - 9:00 PM, Tuesday10:00 AM - 9:00 PM, Wednesday10:00 AM - 9:00 PM, Thursday10:00 AM - 9:00 PM, Friday10:00 AM - 9:00 PM, Saturday10:00 AM - 9:00 PM, Sunday11:00 AM - 6:00 PM",,,
Towson Town Center,,660 Fairmount Avenue,,Baltimore,Maryland,21204,US,(410) 321-8797,,,"Monday10:00 AM - 9:00 PM, Tuesday10:00 AM - 9:00 PM, Wednesday10:00 AM - 9:00 PM, Thursday10:00 AM - 9:00 PM, Friday10:00 AM - 9:00 PM, Saturday10:00 AM - 9:00 PM, Sunday11:00 AM - 6:00 PM",,,
Deptford Mall,,1750 Deptford Center Rd.,,Deptford,New Jersey,08096,US,(856) 384-0442,,,"Monday10:00 AM - 9:30 PM, Tuesday10:00 AM - 9:30 PM, Wednesday10:00 AM - 9:30 PM, Thursday10:00 AM - 9:30 PM, Friday10:00 AM - 9:30 PM, Saturday10:00 AM - 9:30 PM, Sunday11:00 AM - 6:00 PM",,,
Cherry Hill Mall,,2000 Route 38,,Cherry Hill,New Jersey,08002,US,(856) 665-1207,,,"Monday10:00 AM - 9:30 PM, Tuesday10:00 AM - 9:30 PM, Wednesday10:00 AM - 9:30 PM, Thursday10:00 AM - 9:30 PM, Friday10:00 AM - 9:30 PM, Saturday10:00 AM - 9:30 PM, Sunday11:00 AM - 6:00 PM",,,
Bridgewater Commons,,400 Commons Way,,Bridgewater,New Jersey,08807,US,(908) 707-1887,,,"Monday10:00 AM - 9:00 PM, Tuesday10:00 AM - 9:00 PM, Wednesday10:00 AM - 9:00 PM, Thursday10:00 AM - 9:00 PM, Friday10:00 AM - 9:00 PM, Saturday10:00 AM - 9:00 PM, Sunday11:00 AM - 6:00 PM",,,
Westland,,35000 Warren Rd.,,Westland,Michigan,48185,US,(734) 522-6290,,,"Monday10:00 AM - 9:00 PM, Tuesday10:00 AM - 9:00 PM, Wednesday10:00 AM - 9:00 PM, Thursday10:00 AM - 9:00 PM, Friday10:00 AM - 9:00 PM, Saturday10:00 AM - 9:00 PM, Sunday11:00 AM - 6:30 PM",,,
Grand Traverse,,3200 S Airport Rd W,,Traverse City,Michigan,49684,US,(231) 941-8322,,,"Monday10:00 AM - 9:00 PM, Tuesday10:00 AM - 9:00 PM, Wednesday10:00 AM - 9:00 PM, Thursday10:00 AM - 9:00 PM, Friday10:00 AM - 9:00 PM, Saturday10:00 AM - 9:00 PM, Sunday12:00 PM - 6:00 PM",,,
Southland,,23000 Eureka Road,,Taylor,Michigan,48180,US,(734) 287-6096,,,"Monday10:00 AM - 9:00 PM, Tuesday10:00 AM - 9:00 PM, Wednesday10:00 AM - 9:00 PM, Thursday10:00 AM - 9:00 PM, Friday10:00 AM - 9:00 PM, Saturday10:00 AM - 9:00 PM, Sunday12:00 PM - 7:00 PM",,,
Garden State Plaza,,110 Garden State Plaza,,Paramus,New Jersey,07652,US,(201) 368-1230,,,"Monday10:00 AM - 9:30 PM, Tuesday10:00 AM - 9:30 PM, Wednesday10:00 AM - 9:30 PM, Thursday10:00 AM - 9:30 PM, Friday10:00 AM - 9:30 PM, Saturday10:00 AM - 9:30 PM, Sunday",,,
Lakeside Mall,,14600 Lakeside Circle,,Sterling Heights,Michigan,48313,US,(586) 247-1915,,,"Monday10:00 AM - 9:00 PM, Tuesday10:00 AM - 9:00 PM, Wednesday10:00 AM - 9:00 PM, Thursday10:00 AM - 9:00 PM, Friday10:00 AM - 9:00 PM, Saturday10:00 AM - 9:00 PM, Sunday12:00 PM - 6:30 PM",,,
Fashion Square,,4845 Fashion Square Mall,,Saginaw,Michigan,48604,US,(989) 790-1900,,,"Monday10:00 AM - 9:00 PM, Tuesday10:00 AM - 9:00 PM, Wednesday10:00 AM - 9:00 PM, Thursday10:00 AM - 9:00 PM, Friday10:00 AM - 9:00 PM, Saturday10:00 AM - 9:00 PM, Sunday12:00 PM - 6:30 PM",,,
Meridian Mall,,1982 Grand River Ave.,,Okemos,Michigan,48864,US,(517) 347-4800,,,"Monday10:00 AM - 9:00 PM, Tuesday10:00 AM - 9:00 PM, Wednesday10:00 AM - 9:00 PM, Thursday10:00 AM - 9:00 PM, Friday10:00 AM - 9:00 PM, Saturday10:00 AM - 9:00 PM, Sunday12:00 PM - 6:00 PM",,,
Twelve Oaks Mall,,27312 Novi Road,,Novi,Michigan,48377,US,(248) 380-3820,,,"Monday10:00 AM - 9:00 PM, Tuesday10:00 AM - 9:00 PM, Wednesday10:00 AM - 9:00 PM, Thursday10:00 AM - 9:00 PM, Friday10:00 AM - 9:00 PM, Saturday10:00 AM - 9:00 PM, Sunday11:00 AM - 6:30 PM",,,
Midland,,6800 Eastman Ave,,Midland,Michigan,48642,US,(989) 631-4499,,,"Monday10:00 AM - 9:00 PM, Tuesday10:00 AM - 9:00 PM, Wednesday10:00 AM - 9:00 PM, Thursday10:00 AM - 9:00 PM, Friday10:00 AM - 9:00 PM, Saturday10:00 AM - 9:00 PM, Sunday12:00 PM - 6:00 PM",,,
Laurel Park Place,,37608 Six Mile Rd,,Livonia,Michigan,48152,US,(734) 591-0962,,,"Monday10:00 AM - 9:00 PM, Tuesday10:00 AM - 9:00 PM, Wednesday10:00 AM - 9:00 PM, Thursday10:00 AM - 9:00 PM, Friday10:00 AM - 9:00 PM, Saturday10:00 AM - 9:00 PM, Sunday12:00 PM - 7:00 PM",,,
Eastwood Towne Center,,2501 Lake Lansing Road,,Lansing,Michigan,48912,US,(517) 367-0731,,,"Monday10:00 AM - 9:00 PM, Tuesday10:00 AM - 9:00 PM, Wednesday10:00 AM - 9:00 PM, Thursday10:00 AM - 9:00 PM, Friday10:00 AM - 9:00 PM, Saturday10:00 AM - 9:00 PM, Sunday11:00 AM - 6:30 PM",,,
Paramus Park,,700 Paramus Park,,Paramus,New Jersey,07652,US,(201) 599-1267,,,"Monday10:00 AM - 9:30 PM, Tuesday10:00 AM - 9:30 PM, Wednesday10:00 AM - 9:30 PM, Thursday10:00 AM - 9:30 PM, Friday10:00 AM - 9:30 PM, Saturday10:00 AM - 9:30 PM, Sunday",,,
Rivertown Crossing,,3700 Rivertown Pkwy,,Grandville,Michigan,49418,US,(616) 531-6845,,,"Monday10:00 AM - 9:00 PM, Tuesday10:00 AM - 9:00 PM, Wednesday10:00 AM - 9:00 PM, Thursday10:00 AM - 9:00 PM, Friday10:00 AM - 9:00 PM, Saturday10:00 AM - 9:00 PM, Sunday11:00 AM - 6:30 PM",,,
Woodland Mall,,3135 28th St S.E.,,Grand Rapids,Michigan,49512,US,(616) 956-9398,,,"Monday10:00 AM - 9:00 PM, Tuesday10:00 AM - 9:00 PM, Wednesday10:00 AM - 9:00 PM, Thursday10:00 AM - 9:00 PM, Friday10:00 AM - 9:00 PM, Saturday10:00 AM - 9:00 PM, Sunday12:00 PM - 6:00 PM",,,
Fairlane Town Center,,18900 Michigan Ave,,Dearborn,Michigan,48126,US,(313) 441-1236,,,"Monday10:00 AM - 9:00 PM, Tuesday10:00 AM - 9:00 PM, Wednesday10:00 AM - 9:00 PM, Thursday10:00 AM - 9:00 PM, Friday10:00 AM - 9:00 PM, Saturday10:00 AM - 9:00 PM, Sunday11:00 AM - 7:00 PM",,,
Mall at Partridge Creek,,17420 Hall Road,,Clinton Township,Michigan,48038,US,(586) 412-4927,,,"Monday10:00 AM - 9:00 PM, Tuesday10:00 AM - 9:00 PM, Wednesday10:00 AM - 9:00 PM, Thursday10:00 AM - 9:00 PM, Friday10:00 AM - 9:00 PM, Saturday10:00 AM - 9:00 PM, Sunday11:00 AM - 6:30 PM",,,
Briarwood Mall,,238 Briarwood Circle,,Ann Arbor,Michigan,48108,US,(734) 665-4970,,,"Monday10:00 AM - 9:00 PM, Tuesday10:00 AM - 9:00 PM, Wednesday10:00 AM - 9:00 PM, Thursday10:00 AM - 9:00 PM, Friday10:00 AM - 9:00 PM, Saturday10:00 AM - 9:00 PM, Sunday11:00 AM - 6:30 PM",,,
Woodbury Lakes,,9140 Hudson Rd,,Woodbury,Minnesota,55125,US,(651) 730-2022,,,"Monday10:00 AM - 9:00 PM, Tuesday10:00 AM - 9:00 PM, Wednesday10:00 AM - 9:00 PM, Thursday10:00 AM - 9:00 PM, Friday10:00 AM - 9:00 PM, Saturday10:00 AM - 9:00 PM, Sunday11:00 AM - 6:00 PM",,,
Oakland Mall,,432 West 14 Mile Rd,,Troy,Michigan,48083,US,(248) 583-9216,,,"Monday10:00 AM - 9:00 PM, Tuesday10:00 AM - 9:00 PM, Wednesday10:00 AM - 9:00 PM, Thursday10:00 AM - 9:00 PM, Friday10:00 AM - 9:00 PM, Saturday10:00 AM - 9:00 PM, Sunday11:00 AM - 6:30 PM",,,
Eden Prairie,,8251 Flying Cloud Drive,,Eden Prairie,Minnesota,55344,US,(952) 943-1850,,,"Monday10:00 AM - 9:00 PM, Tuesday10:00 AM - 9:00 PM, Wednesday10:00 AM - 9:00 PM, Thursday10:00 AM - 9:00 PM, Friday10:00 AM - 9:00 PM, Saturday10:00 AM - 9:00 PM, Sunday11:00 AM - 6:00 PM",,,
Miller Hill,,1600 Miller Trunk Highway,,Duluth,Minnesota,55811,US,(218) 727-8443,,,"Monday10:00 AM - 9:00 PM, Tuesday10:00 AM - 9:00 PM, Wednesday10:00 AM - 9:00 PM, Thursday10:00 AM - 9:00 PM, Friday10:00 AM - 9:00 PM, Saturday10:00 AM - 9:00 PM, Sunday11:00 AM - 6:00 PM",,,
Burnsville Center,,1039 Burnsville Ctr,,Burnsville,Minnesota,55306,US,(952) 435-8338,,,"Monday10:00 AM - 9:00 PM, Tuesday10:00 AM - 9:00 PM, Wednesday10:00 AM - 9:00 PM, Thursday10:00 AM - 9:00 PM, Friday10:00 AM - 9:00 PM, Saturday10:00 AM - 9:00 PM, Sunday11:00 AM - 6:00 PM",,,
Mall of America,,206 West Market,,Bloomington,Minnesota,55425,US,(952) 851-0741,,,"Monday10:00 AM - 9:30 PM, Tuesday10:00 AM - 9:30 PM, Wednesday10:00 AM - 9:30 PM, Thursday10:00 AM - 9:30 PM, Friday10:00 AM - 9:30 PM, Saturday10:00 AM - 9:30 PM, Sunday11:00 AM - 7:00 PM",,,
Northtown Mall,,194 Northtown Dr. N.E.,,Blaine,Minnesota,55434,US,(763) 784-1812,,,"Monday10:00 AM - 9:00 PM, Tuesday10:00 AM - 9:00 PM, Wednesday10:00 AM - 9:00 PM, Thursday10:00 AM - 9:00 PM, Friday10:00 AM - 9:00 PM, Saturday10:00 AM - 8:00 PM, Sunday11:00 AM - 6:00 PM",,,
Battlefield Mall,,2825 S. Glenstone,,Springfield,Missouri,65804,US,(417) 881-6170,,,"Monday10:00 AM - 9:00 PM, Tuesday10:00 AM - 9:00 PM, Wednesday10:00 AM - 9:00 PM, Thursday10:00 AM - 9:00 PM, Friday10:00 AM - 9:00 PM, Saturday10:00 AM - 9:00 PM, Sunday11:00 AM - 6:00 PM",,,
Mid Rivers,,1600 Mid Rivers Mall,,Saint Peters,Missouri,63376,US,(636) 278-2922,,,"Monday10:00 AM - 9:00 PM, Tuesday10:00 AM - 9:00 PM, Wednesday10:00 AM - 9:00 PM, Thursday10:00 AM - 9:00 PM, Friday10:00 AM - 9:00 PM, Saturday10:00 AM - 9:00 PM, Sunday11:00 AM - 6:00 PM",,,
Somerset Collection,,2800 W. Big Beaver Rd.,,Troy,Michigan,48084,US,(248) 816-0889,,,"Monday10:00 AM - 9:00 PM, Tuesday10:00 AM - 9:00 PM, Wednesday10:00 AM - 9:00 PM, Thursday10:00 AM - 9:00 PM, Friday10:00 AM - 9:00 PM, Saturday10:00 AM - 9:00 PM, Sunday",,,
West County Center,,158 West County Center,,Des Peres,Missouri,63131,US,(314) 984-0966,,,"Monday10:00 AM - 9:00 PM, Tuesday10:00 AM - 9:00 PM, Wednesday10:00 AM - 9:00 PM, Thursday10:00 AM - 9:00 PM, Friday10:00 AM - 9:00 PM, Saturday10:00 AM - 9:00 PM, Sunday11:00 AM - 6:00 PM",,,
Columbia,,2300 Bernadette Dr.,,Columbia,Missouri,65203,US,(573) 445-7461,,,"Monday10:00 AM - 9:00 PM, Tuesday10:00 AM - 9:00 PM, Wednesday10:00 AM - 9:00 PM, Thursday10:00 AM - 9:00 PM, Friday10:00 AM - 9:00 PM, Saturday10:00 AM - 9:00 PM, Sunday11:00 AM - 6:00 PM",,,
Chesterfield Mall,,38 Chesterfield Mall,,Chesterfield,Missouri,63017,US,(636) 532-0133,,,"Monday10:00 AM - 9:00 PM, Tuesday10:00 AM - 9:00 PM, Wednesday10:00 AM - 9:00 PM, Thursday10:00 AM - 9:00 PM, Friday10:00 AM - 9:00 PM, Saturday10:00 AM - 9:00 PM, Sunday11:00 AM - 6:00 PM",,,
Independence Mall,,3500 Oleander Dr,,Wilmington,North Carolina,28403,US,(910) 392-4642,,,"Monday10:00 AM - 9:00 PM, Tuesday10:00 AM - 9:00 PM, Wednesday10:00 AM - 9:00 PM, Thursday10:00 AM - 9:00 PM, Friday10:00 AM - 9:00 PM, Saturday10:00 AM - 9:00 PM, Sunday12:00 PM - 6:00 PM",,,
Carolina Place,,11025 Carolina Place Parkway,,Pineville,North Carolina,28134,US,(704) 544-1314,,,"Monday10:00 AM - 9:00 PM, Tuesday10:00 AM - 9:00 PM, Wednesday10:00 AM - 9:00 PM, Thursday10:00 AM - 9:00 PM, Friday10:00 AM - 9:00 PM, Saturday10:00 AM - 9:00 PM, Sunday11:00 AM - 6:00 PM",,,
Colonial Mall,,714 E Greenville Blvd,,Greenville,North Carolina,27858,US,(252) 321-4007,,,"Monday10:00 AM - 9:00 PM, Tuesday10:00 AM - 9:00 PM, Wednesday10:00 AM - 9:00 PM, Thursday10:00 AM - 9:00 PM, Friday10:00 AM - 9:00 PM, Saturday10:00 AM - 9:00 PM, Sunday12:00 PM - 6:00 PM",,,
Cross Creek,,119 Cross Creek Mall,,Fayetteville,North Carolina,28303,US,(910) 864-7101,,,"Monday10:00 AM - 9:00 PM, Tuesday10:00 AM - 9:00 PM, Wednesday10:00 AM - 9:00 PM, Thursday10:00 AM - 9:00 PM, Friday10:00 AM - 9:00 PM, Saturday10:00 AM - 9:00 PM, Sunday12:00 PM - 6:00 PM",,,
The Streets at Southpoint,,6910 Fayetteville Road,,Durham,North Carolina,27713,US,(919) 806-2001,,,"Monday10:00 AM - 9:00 PM, Tuesday10:00 AM - 9:00 PM, Wednesday10:00 AM - 9:00 PM, Thursday10:00 AM - 9:00 PM, Friday10:00 AM - 9:00 PM, Saturday10:00 AM - 9:00 PM, Sunday12:00 PM - 7:00 PM",,,
The Westchester Mall,,125 Westchester Avenue,,White Plains,New York,10601,US,(914) 686-2803,,,"Monday10:00 AM - 9:00 PM, Tuesday10:00 AM - 9:00 PM, Wednesday10:00 AM - 9:00 PM, Thursday10:00 AM - 9:00 PM, Friday10:00 AM - 9:00 PM, Saturday10:00 AM - 9:00 PM, Sunday11:00 AM - 6:00 PM",,,
Palisades Center,,1000 Palisades Ctr Dr,,West Nyack,New York,10994,US,(845) 358-1089,,,"Monday10:00 AM - 9:30 PM, Tuesday10:00 AM - 9:30 PM, Wednesday10:00 AM - 9:30 PM, Thursday10:00 AM - 9:30 PM, Friday10:00 AM - 9:30 PM, Saturday10:00 AM - 9:30 PM, Sunday11:00 AM - 7:00 PM",,,
Eastview Mall,,7979 Victor-Pittsford Rd,,Victor,New York,14564,US,(585) 223-0890,,,"Monday10:00 AM - 9:30 PM, Tuesday10:00 AM - 9:30 PM, Wednesday10:00 AM - 9:30 PM, Thursday10:00 AM - 9:30 PM, Friday10:00 AM - 9:30 PM, Saturday10:00 AM - 9:30 PM, Sunday11:00 AM - 6:00 PM",,,
Green Acres Mall,,1075 Green Acres,,Valley Stream,New York,11581,US,(516) 872-8822,,,"Monday10:00 AM - 9:30 PM, Tuesday10:00 AM - 9:00 PM, Wednesday10:00 AM - 9:00 PM, Thursday10:00 AM - 9:00 PM, Friday10:00 AM - 9:00 PM, Saturday10:00 AM - 10:00 PM, Sunday11:00 AM - 7:00 PM",,,
Carousel Center,,9745 Carousel Ctr,,Syracuse,New York,13290,US,(315) 472-2605,,,"Monday10:00 AM - 9:30 PM, Tuesday10:00 AM - 9:30 PM, Wednesday10:00 AM - 9:30 PM, Thursday10:00 AM - 9:30 PM, Friday10:00 AM - 9:30 PM, Saturday10:00 AM - 9:30 PM, Sunday11:00 AM - 6:00 PM",,,
Staten Island Mall,,2655 Richmond Avenue,,Staten Island,New York,10314,US,(718) 982-9238,,,"Monday10:00 AM - 9:00 PM, Tuesday10:00 AM - 9:00 PM, Wednesday10:00 AM - 9:00 PM, Thursday10:00 AM - 9:00 PM, Friday10:00 AM - 9:00 PM, Saturday10:00 AM - 9:00 PM, Sunday11:00 AM - 6:00 PM",,,
Wilton Mall,,3065 NY-50,,Saratoga Springs,New York,12866,US,(518) 583-6103,,,"Monday10:00 AM - 9:30 PM, Tuesday10:00 AM - 9:30 PM, Wednesday10:00 AM - 9:30 PM, Thursday10:00 AM - 9:30 PM, Friday10:00 AM - 9:30 PM, Saturday10:00 AM - 9:30 PM, Sunday11:00 AM - 6:00 PM",,,
Zona Rosa,,7120 NW 86 Terrace,,Kansas City,Missouri,64153,US,(816) 746-6280,,,"Monday10:00 AM - 9:00 PM, Tuesday10:00 AM - 9:00 PM, Wednesday10:00 AM - 9:00 PM, Thursday10:00 AM - 9:00 PM, Friday10:00 AM - 9:00 PM, Saturday10:00 AM - 9:00 PM, Sunday12:00 PM - 6:00 PM",,,
Country Club,,429 Nichols Rd.,,Kansas City,Missouri,64112,US,(816) 753-7151,,,"Monday10:00 AM - 8:00 PM, Tuesday10:00 AM - 8:00 PM, Wednesday10:00 AM - 8:00 PM, Thursday10:00 AM - 9:00 PM, Friday10:00 AM - 8:00 PM, Saturday10:00 AM - 8:00 PM, Sunday12:00 PM - 6:00 PM",,,
Poughkeepsie Mall,,2001 South Rd,,Poughkeepsie,New York,12601,US,(845) 297-4556,,,"Monday10:00 AM - 9:30 PM, Tuesday10:00 AM - 9:30 PM, Wednesday10:00 AM - 9:30 PM, Thursday10:00 AM - 9:30 PM, Friday10:00 AM - 9:30 PM, Saturday10:00 AM - 9:30 PM, Sunday11:00 AM - 6:00 PM",,,
The Sands,,3513 Long Beach Road,,Oceanside,New York,11572,US,(516) 825-2357,,,"Monday10:00 AM - 9:00 PM, Tuesday10:00 AM - 9:00 PM, Wednesday10:00 AM - 9:00 PM, Thursday10:00 AM - 9:00 PM, Friday10:00 AM - 9:00 PM, Saturday10:00 AM - 8:00 PM, Sunday11:00 AM - 6:00 PM",,,
Triangle Town,,5959 Triangle Town Blvd,,Raleigh,North Carolina,27616,US,(919) 792-2136,,,"Monday10:00 AM - 9:00 PM, Tuesday10:00 AM - 9:00 PM, Wednesday10:00 AM - 9:00 PM, Thursday10:00 AM - 9:00 PM, Friday10:00 AM - 9:00 PM, Saturday10:00 AM - 9:00 PM, Sunday12:00 PM - 6:00 PM",,,
Crabtree Valley,,4325 Glenwood Ave,,Raleigh,North Carolina,27612,US,(919) 571-1615,,,"Monday10:00 AM - 9:00 PM, Tuesday10:00 AM - 9:00 PM, Wednesday10:00 AM - 9:00 PM, Thursday10:00 AM - 9:00 PM, Friday10:00 AM - 9:00 PM, Saturday10:00 AM - 9:00 PM, Sunday12:00 PM - 7:00 PM",,,
Friendly Center,,609 Friendly Ctr Rd,,Greensboro,North Carolina,27408,US,(336) 854-0264,,,"Monday10:00 AM - 9:00 PM, Tuesday10:00 AM - 9:00 PM, Wednesday10:00 AM - 9:00 PM, Thursday10:00 AM - 9:00 PM, Friday10:00 AM - 9:00 PM, Saturday10:00 AM - 9:00 PM, Sunday1:00 PM - 6:00 PM",,,
Four Seasons Mall,,410 Four Seasons Town Centre,,Greensboro,North Carolina,27407,US,(336) 854-1254,,,"Monday10:00 AM - 9:00 PM, Tuesday10:00 AM - 9:00 PM, Wednesday10:00 AM - 9:00 PM, Thursday10:00 AM - 9:00 PM, Friday10:00 AM - 9:00 PM, Saturday10:00 AM - 9:00 PM, Sunday12:00 PM - 6:00 PM",,,
Shops at Nanuet,,75 West Route 59,,Nanuet,New York,10954,US,(845) 623-4379,,,"Monday10:00 AM - 8:00 PM, Tuesday10:00 AM - 8:00 PM, Wednesday10:00 AM - 8:00 PM, Thursday10:00 AM - 8:00 PM, Friday10:00 AM - 8:00 PM, Saturday10:00 AM - 8:00 PM, Sunday11:00 AM - 7:00 PM",,,
Lake Success,,1526A Union Turnpike,,New Hyde Park,New York,11040,US,(516) 437-8610,,,"Monday10:00 AM - 8:00 PM, Tuesday10:00 AM - 8:00 PM, Wednesday10:00 AM - 8:00 PM, Thursday10:00 AM - 8:00 PM, Friday10:00 AM - 8:00 PM, Saturday10:00 AM - 8:00 PM, Sunday11:00 AM - 7:00 PM",,,
Northlake,,6801 Northlake Mall Dr,,Charlotte,North Carolina,28216,US,(704) 494-4187,,,"Monday10:00 AM - 9:00 PM, Tuesday10:00 AM - 9:00 PM, Wednesday10:00 AM - 9:00 PM, Thursday10:00 AM - 9:00 PM, Friday10:00 AM - 9:00 PM, Saturday10:00 AM - 9:00 PM, Sunday12:00 PM - 6:00 PM",,,
South Park Mall,,4400 Sharon Rd,,Charlotte,North Carolina,28211,US,(704) 362-0420,,,"Monday10:00 AM - 9:00 PM, Tuesday10:00 AM - 9:00 PM, Wednesday10:00 AM - 9:00 PM, Thursday10:00 AM - 9:00 PM, Friday10:00 AM - 9:00 PM, Saturday10:00 AM - 9:00 PM, Sunday12:30 PM - 6:00 PM",,,
Crystal Run,,1 Galleria Dr,,Middletown,New York,10941,US,(845) 692-0494,,,"Monday10:00 AM - 9:30 PM, Tuesday10:00 AM - 9:30 PM, Wednesday10:00 AM - 9:30 PM, Thursday10:00 AM - 9:30 PM, Friday10:00 AM - 9:30 PM, Saturday10:00 AM - 9:30 PM, Sunday11:00 AM - 6:00 PM",,,
Sunrise Mall,,355 Sunrise Mall,,Massapequa,New York,11758,US,(516) 795-5567,,,"Monday10:00 AM - 9:30 PM, Tuesday10:00 AM - 9:30 PM, Wednesday10:00 AM - 9:30 PM, Thursday10:00 AM - 9:30 PM, Friday10:00 AM - 9:30 PM, Saturday10:00 AM - 9:30 PM, Sunday11:00 AM - 6:00 PM",,,
Smith Haven Mall,,251 Smith Haven Mall,,Lake Grove,New York,11755,US,(631) 360-9674,,,"Monday10:00 AM - 9:30 PM, Tuesday10:00 AM - 9:00 PM, Wednesday10:00 AM - 9:00 PM, Thursday10:00 AM - 9:00 PM, Friday10:00 AM - 9:00 PM, Saturday10:00 AM - 10:00 PM, Sunday11:00 AM - 7:00 PM",,,
Oakdale Mall,,223 Reynolds Rd,,Johnson City,New York,13790,US,(607) 797-2386,,,"Monday10:00 AM - 9:00 PM, Tuesday10:00 AM - 9:00 PM, Wednesday10:00 AM - 9:00 PM, Thursday10:00 AM - 9:00 PM, Friday10:00 AM - 9:00 PM, Saturday10:00 AM - 9:00 PM, Sunday11:00 AM - 7:00 PM",,,
Walt Whitman,,160 Walt Whitman Road,,Huntington,New York,11746,US,(631) 271-6090,,,"Monday10:00 AM - 9:30 PM, Tuesday10:00 AM - 9:00 PM, Wednesday10:00 AM - 9:00 PM, Thursday10:00 AM - 9:00 PM, Friday10:00 AM - 9:00 PM, Saturday10:00 AM - 9:00 PM, Sunday11:00 AM - 7:00 PM",,,
Broadway Mall,,358 B Broadway Mall,,Hicksville,New York,11801,US,(516) 822-2802,,,"Monday10:00 AM - 9:30 PM, Tuesday10:00 AM - 9:00 PM, Wednesday10:00 AM - 9:00 PM, Thursday10:00 AM - 9:00 PM, Friday10:00 AM - 9:00 PM, Saturday10:00 AM - 9:00 PM, Sunday11:00 AM - 7:00 PM",,,
Roosevelt Field,,630 Old Country Rd,,Garden City,New York,11530,US,(516) 873-2565,,,"Monday10:00 AM - 9:30 PM, Tuesday10:00 AM - 9:30 PM, Wednesday10:00 AM - 9:30 PM, Thursday10:00 AM - 9:30 PM, Friday10:00 AM - 9:30 PM, Saturday10:00 AM - 9:30 PM, Sunday11:00 AM - 7:00 PM",,,
Queens Center,,90-15 Queens Blvd.,,Elmhurst,New York,11373,US,(718) 760-4346,,,"Monday10:00 AM - 9:30 PM, Tuesday10:00 AM - 9:30 PM, Wednesday10:00 AM - 10:00 PM, Thursday10:00 AM - 10:00 PM, Friday10:00 AM - 10:00 PM, Saturday10:00 AM - 10:00 PM, Sunday11:00 AM - 8:00 PM",,,
Market Place,,34000 W. Henrietta Road,,Rochester,New York,14623,US,(585) 475-0870,,,"Monday10:00 AM - 9:30 PM, Tuesday10:00 AM - 9:30 PM, Wednesday10:00 AM - 9:30 PM, Thursday10:00 AM - 9:30 PM, Friday10:00 AM - 9:30 PM, Saturday10:00 AM - 9:30 PM, Sunday11:00 AM - 6:00 PM",,,
Greece Ridge,,2213 W Ridge Rd,,Rochester,New York,14626,US,(585) 225-9010,,,"Monday10:00 AM - 9:30 PM, Tuesday10:00 AM - 9:30 PM, Wednesday10:00 AM - 9:30 PM, Thursday10:00 AM - 9:30 PM, Friday10:00 AM - 9:30 PM, Saturday10:00 AM - 9:30 PM, Sunday11:00 AM - 6:00 PM",,,
Manhattan Mall,,901 Avenue Of The Americas,,New York,New York,10001,US,(212) 971-3280,,,"Monday9:00 AM - 9:00 PM, Tuesday9:00 AM - 9:00 PM, Wednesday9:30 AM - 9:00 PM, Thursday9:30 AM - 9:00 PM, Friday9:30 AM - 9:00 PM, Saturday9:30 AM - 9:00 PM, Sunday10:00 AM - 7:00 PM",,,
Broadway (Soho),,584 Broadway,,New York,New York,10012,US,(212) 625-0313,,,"Monday9:00 AM - 9:00 PM, Tuesday9:00 AM - 9:00 PM, Wednesday10:00 AM - 10:00 PM, Thursday10:00 AM - 10:00 PM, Friday10:00 AM - 10:00 PM, Saturday10:00 AM - 10:00 PM, Sunday10:00 AM - 9:00 PM",,,
Madison Avenue,,477 Madison Avenue,,New York,New York,10022,US,(212) 644-4453,,,"Monday8:00 AM - 9:00 PM, Tuesday8:00 AM - 9:00 PM, Wednesday8:00 AM - 9:00 PM, Thursday8:00 AM - 9:00 PM, Friday8:00 AM - 9:00 PM, Saturday10:00 AM - 9:00 PM, Sunday10:00 AM - 8:00 PM",,,
Times Square,,1552 North Broadway,,New York,New York,10036,US,(646) 448-8376,,,"Monday9:00 AM - 1:00 AM, Tuesday9:00 AM - 1:00 AM, Wednesday9:00 AM - 1:00 AM, Thursday9:00 AM - 1:00 AM, Friday9:00 AM - 2:00 AM, Saturday9:00 AM - 2:00 AM, Sunday9:00 AM - 1:00 AM",,,
Flatiron,,130 Fifth Avenue,,New York,New York,10011,US,(212) 633-9414,,,"Monday10:00 AM - 9:00 PM, Tuesday10:00 AM - 9:00 PM, Wednesday10:00 AM - 9:00 PM, Thursday10:00 AM - 9:00 PM, Friday10:00 AM - 9:00 PM, Saturday10:00 AM - 9:00 PM, Sunday11:00 AM - 8:00 PM",,,
Kings Plaza,,5036 Kings Plaza,,Brooklyn,New York,11234,US,(718) 258-2254,,,"Monday10:00 AM - 9:30 PM, Tuesday10:00 AM - 9:30 PM, Wednesday10:00 AM - 9:30 PM, Thursday10:00 AM - 9:30 PM, Friday10:00 AM - 9:30 PM, Saturday10:00 AM - 9:30 PM, Sunday11:00 AM - 8:00 PM",,,
Mall at Bay Plaza,,200 Baychester Avenue,,Bronx,New York,10475,US,(347) 708-8248,,,"Monday10:00 AM - 9:00 PM, Tuesday10:00 AM - 9:00 PM, Wednesday10:00 AM - 9:30 PM, Thursday10:00 AM - 9:30 PM, Friday10:00 AM - 9:30 PM, Saturday10:00 AM - 9:30 PM, Sunday12:00 PM - 6:00 PM",,,
The Bay Terrace,,21127 26th Avenue,,Bayside,New York,11360,US,(718) 281-0846,,,"Monday10:00 AM - 9:00 PM, Tuesday10:00 AM - 9:00 PM, Wednesday10:00 AM - 9:00 PM, Thursday10:00 AM - 9:00 PM, Friday10:00 AM - 9:00 PM, Saturday10:00 AM - 9:00 PM, Sunday11:00 AM - 8:00 PM",,,
South Shore,,1701 Sunrise Highway,,Bay Shore,New York,11706,US,(631) 666-2491,,,"Monday10:00 AM - 9:30 PM, Tuesday10:00 AM - 9:30 PM, Wednesday10:00 AM - 9:30 PM, Thursday10:00 AM - 9:30 PM, Friday10:00 AM - 9:30 PM, Saturday10:00 AM - 9:30 PM, Sunday11:00 AM - 6:00 PM",,,
Steinway Street,,3101 Steinway Street,,Astoria,New York,11103,US,(718) 956-9778,,,"Monday10:00 AM - 9:00 PM, Tuesday10:00 AM - 9:00 PM, Wednesday10:00 AM - 9:00 PM, Thursday10:00 AM - 9:00 PM, Friday10:00 AM - 9:00 PM, Saturday10:00 AM - 9:00 PM, Sunday11:00 AM - 7:00 PM",,,
University Mall,,155 Dorset St,,South Burlington,Vermont,05403,US,(802) 658-5510,,,"Monday9:30 AM - 9:00 PM, Tuesday9:30 AM - 9:00 PM, Wednesday9:30 AM - 9:00 PM, Thursday9:30 AM - 9:00 PM, Friday9:30 AM - 9:00 PM, Saturday9:30 AM - 9:00 PM, Sunday10:00 AM - 6:00 PM",,,
The Empire,,4001 West 41st St.,,Sioux Falls,South Dakota,57106,US,(605) 361-7731,,,"Monday10:00 AM - 9:00 PM, Tuesday10:00 AM - 9:00 PM, Wednesday10:00 AM - 9:00 PM, Thursday10:00 AM - 9:00 PM, Friday10:00 AM - 9:00 PM, Saturday10:00 AM - 9:00 PM, Sunday11:00 AM - 7:00 PM",,,
McKinley Mall,,3701 McKinley Pkwy,,Buffalo,New York,14219,US,(716) 823-9636,,,"Monday10:00 AM - 9:00 PM, Tuesday10:00 AM - 9:00 PM, Wednesday10:00 AM - 9:00 PM, Thursday10:00 AM - 9:00 PM, Friday10:00 AM - 9:00 PM, Saturday10:00 AM - 9:00 PM, Sunday11:00 AM - 6:00 PM",,,
The Boulevard Mall,,1285 Niagra Falls Blvd.,,Buffalo,New York,14226,US,(716) 834-5864,,,"Monday10:00 AM - 9:00 PM, Tuesday10:00 AM - 9:00 PM, Wednesday10:00 AM - 9:00 PM, Thursday10:00 AM - 9:00 PM, Friday10:00 AM - 9:00 PM, Saturday10:00 AM - 9:00 PM, Sunday11:00 AM - 6:00 PM",,,
Walden Galleria,,1 Galleria Drive,,Buffalo,New York,14225,US,(716) 685-0416,,,"Monday10:00 AM - 9:30 PM, Tuesday10:00 AM - 9:30 PM, Wednesday10:00 AM - 9:30 PM, Thursday10:00 AM - 9:30 PM, Friday10:00 AM - 9:30 PM, Saturday10:00 AM - 9:30 PM, Sunday10:00 AM - 7:00 PM",,,
Colonie Center,,131 Colonie Center,,Albany,New York,12205,US,(518) 458-7999,,,"Monday10:00 AM - 9:30 PM, Tuesday10:00 AM - 9:30 PM, Wednesday10:00 AM - 9:30 PM, Thursday10:00 AM - 9:30 PM, Friday10:00 AM - 9:30 PM, Saturday10:00 AM - 9:30 PM, Sunday11:00 AM - 6:00 PM",,,
Westfield Vancouver Mall,,8700 N.E. Vancouver Mall Dr.,,Vancouver,Washington,98662,US,(360) 450-2036,,,"Monday10:00 AM - 9:00 PM, Tuesday10:00 AM - 9:00 PM, Wednesday10:00 AM - 9:00 PM, Thursday10:00 AM - 9:00 PM, Friday10:00 AM - 9:00 PM, Saturday10:00 AM - 9:00 PM, Sunday11:00 AM - 6:00 PM",,,
Tacoma Mall,,4502 South Steele St.,,Tacoma,Washington,98409,US,(253) 617-1631,,,"Monday10:00 AM - 9:00 PM, Tuesday10:00 AM - 9:00 PM, Wednesday10:00 AM - 9:00 PM, Thursday10:00 AM - 9:00 PM, Friday10:00 AM - 9:00 PM, Saturday10:00 AM - 9:00 PM, Sunday11:00 AM - 7:00 PM",,,
Lynnhaven Mall,,701 Lynnhaven Pkwy,,Virginia Beach,Virginia,23452,US,(757) 463-8044,,,"Monday10:00 AM - 9:00 PM, Tuesday10:00 AM - 9:00 PM, Wednesday10:00 AM - 9:00 PM, Thursday10:00 AM - 9:00 PM, Friday10:00 AM - 9:00 PM, Saturday10:00 AM - 9:00 PM, Sunday11:00 AM - 6:00 PM",,,
South Towne,,10450 S. State St.,,Sandy,Utah,84070,US,(801) 553-8347,,,"Monday10:00 AM - 9:00 PM, Tuesday10:00 AM - 9:00 PM, Wednesday10:00 AM - 9:00 PM, Thursday10:00 AM - 9:00 PM, Friday10:00 AM - 9:00 PM, Saturday10:00 AM - 9:00 PM, Sunday12:00 PM - 6:00 PM",,,
City Creek Center,,51 South Main Street,,Salt Lake City,Utah,84101,US,(385) 282-6352,,,"Monday10:00 AM - 9:00 PM, Tuesday10:00 AM - 9:00 PM, Wednesday10:00 AM - 9:00 PM, Thursday10:00 AM - 9:00 PM, Friday10:00 AM - 9:00 PM, Saturday10:00 AM - 9:00 PM, Sunday",,,
Green Hills,,2126 Abbott Martin Rd.,,Nashville,Tennessee,37215,US,(615) 385-2884,,,"Monday10:00 AM - 9:00 PM, Tuesday10:00 AM - 9:00 PM, Wednesday10:00 AM - 9:00 PM, Thursday10:00 AM - 9:00 PM, Friday10:00 AM - 9:00 PM, Saturday10:00 AM - 9:00 PM, Sunday12:00 PM - 6:00 PM",,,
Westgate,,200 Westgate Mall,,Spartanburg,South Carolina,29301,US,(864) 587-0942,,,"Monday10:00 AM - 9:00 PM, Tuesday10:00 AM - 9:00 PM, Wednesday10:00 AM - 9:00 PM, Thursday10:00 AM - 9:00 PM, Friday10:00 AM - 9:00 PM, Saturday10:00 AM - 9:00 PM, Sunday12:00 PM - 6:00 PM",,,
Warwick,,400 Bald Hill Rd,,Warwick,Rhode Island,02886,US,(401) 736-0920,,,"Monday10:00 AM - 9:00 PM, Tuesday10:00 AM - 9:00 PM, Wednesday10:00 AM - 9:00 PM, Thursday10:00 AM - 9:00 PM, Friday10:00 AM - 9:00 PM, Saturday10:00 AM - 9:00 PM, Sunday11:00 AM - 6:00 PM",,,
Providence Place,,122 Providence Place,,Providence,Rhode Island,02903,US,(401) 270-4260,,,"Monday10:00 AM - 9:00 PM, Tuesday10:00 AM - 9:00 PM, Wednesday10:00 AM - 9:00 PM, Thursday10:00 AM - 9:00 PM, Friday10:00 AM - 9:00 PM, Saturday10:00 AM - 9:00 PM, Sunday11:00 AM - 6:00 PM",,,
Thames Street,,144 Thames St.,,Newport,Rhode Island,02840,US,(401) 847-8330,,,"Monday10:00 AM - 7:00 PM, Tuesday10:00 AM - 7:00 PM, Wednesday10:00 AM - 9:00 PM, Thursday10:00 AM - 9:00 PM, Friday10:00 AM - 9:00 PM, Saturday10:00 AM - 9:00 PM, Sunday11:00 AM - 6:00 PM",,,
Northwoods,,2150 Northwoods Blvd.,,North Charleston,South Carolina,29406,US,(843) 797-7225,,,"Monday10:00 AM - 9:00 PM, Tuesday10:00 AM - 9:00 PM, Wednesday10:00 AM - 9:00 PM, Thursday10:00 AM - 9:00 PM, Friday10:00 AM - 9:00 PM, Saturday10:00 AM - 9:00 PM, Sunday12:00 PM - 6:00 PM",,,
Coastal Grand,,2000 Coastal Grand Circle,,Myrtle Beach,South Carolina,29577,US,(843) 839-3274,,,"Monday10:00 AM - 9:00 PM, Tuesday10:00 AM - 9:00 PM, Wednesday10:00 AM - 9:00 PM, Thursday10:00 AM - 9:00 PM, Friday10:00 AM - 10:00 PM, Saturday10:00 AM - 10:00 PM, Sunday11:00 AM - 6:00 PM",,,
Haywood Mall,,700 Haywood Road,,Greenville,South Carolina,29607,US,(864) 234-0305,,,"Monday10:00 AM - 9:00 PM, Tuesday10:00 AM - 9:00 PM, Wednesday10:00 AM - 9:00 PM, Thursday10:00 AM - 9:00 PM, Friday10:00 AM - 9:00 PM, Saturday10:00 AM - 9:00 PM, Sunday12:30 PM - 6:00 PM",,,
Woodland Hills Mall,,7021 S. Memorial Drive,,Tulsa,Oklahoma,74133,US,(918) 252-2279,,,"Monday10:00 AM - 9:00 PM, Tuesday10:00 AM - 9:00 PM, Wednesday10:00 AM - 9:00 PM, Thursday10:00 AM - 9:00 PM, Friday10:00 AM - 9:00 PM, Saturday10:00 AM - 9:00 PM, Sunday12:00 PM - 7:00 PM",,,
Pecanland,,4700 Miilhaven Rd,,Monroe,Louisiana,71203,US,(318) 398-2756,,,"Monday10:00 AM - 9:00 PM, Tuesday10:00 AM - 9:00 PM, Wednesday10:00 AM - 9:00 PM, Thursday10:00 AM - 9:00 PM, Friday10:00 AM - 9:00 PM, Saturday10:00 AM - 9:00 PM, Sunday12:00 PM - 6:00 PM",,,
Greenwood Mall,,2625 Scottsville Road,,Bowling Green,Kentucky,42104,US,(270) 393-4411,,,"Monday10:00 AM - 9:00 PM, Tuesday10:00 AM - 9:00 PM, Wednesday10:00 AM - 9:00 PM, Thursday10:00 AM - 9:00 PM, Friday10:00 AM - 9:00 PM, Saturday10:00 AM - 9:00 PM, Sunday12:30 PM - 6:00 PM",,,
Lakeside Shopping Center,,3301 Veterans Memorial Blvd.,,Metairie,Louisiana,70002,US,(504) 831-2590,,,"Monday10:00 AM - 9:00 PM, Tuesday10:00 AM - 9:00 PM, Wednesday10:00 AM - 9:00 PM, Thursday10:00 AM - 9:00 PM, Friday10:00 AM - 9:00 PM, Saturday10:00 AM - 9:00 PM, Sunday12:00 PM - 6:00 PM",,,
Acadiana Mall,,5725 Johnston St,,Lafayette,Louisiana,70503,US,(337) 984-1322,,,"Monday10:00 AM - 9:00 PM, Tuesday10:00 AM - 9:00 PM, Wednesday10:00 AM - 9:00 PM, Thursday10:00 AM - 9:00 PM, Friday10:00 AM - 9:00 PM, Saturday10:00 AM - 9:00 PM, Sunday12:00 PM - 6:00 PM",,,
Mall of Louisiana,,6401 Bluebonnet Blvd.,,Baton Rouge,Louisiana,70836,US,(225) 763-9444,,,"Monday10:00 AM - 9:00 PM, Tuesday10:00 AM - 9:00 PM, Wednesday10:00 AM - 9:00 PM, Thursday10:00 AM - 9:00 PM, Friday10:00 AM - 9:00 PM, Saturday10:00 AM - 9:00 PM, Sunday12:00 PM - 6:00 PM",,,
Alexandria,,3437 Masonic Dr.,,Alexandria,Louisiana,71301,US,(318) 448-9723,,,"Monday10:00 AM - 9:00 PM, Tuesday10:00 AM - 9:00 PM, Wednesday10:00 AM - 9:00 PM, Thursday10:00 AM - 9:00 PM, Friday10:00 AM - 9:00 PM, Saturday10:00 AM - 9:00 PM, Sunday12:00 PM - 6:00 PM",,,
Southern Park Mall,,7401 Market Street,,Youngstown,Ohio,44512,US,(330) 726-2342,,,"Monday10:00 AM - 9:00 PM, Tuesday10:00 AM - 9:00 PM, Wednesday10:00 AM - 9:00 PM, Thursday10:00 AM - 9:00 PM, Friday10:00 AM - 9:00 PM, Saturday10:00 AM - 9:00 PM, Sunday11:00 AM - 6:00 PM",,,
Crocker Park,,100 Main Street,,Westlake,Ohio,44145,US,(440) 250-0158,,,"Monday10:00 AM - 9:00 PM, Tuesday10:00 AM - 9:00 PM, Wednesday10:00 AM - 9:00 PM, Thursday10:00 AM - 9:00 PM, Friday10:00 AM - 9:00 PM, Saturday10:00 AM - 9:00 PM, Sunday11:00 AM - 6:00 PM",,,
Franklin Park,,5001 Monroe,,Toledo,Ohio,43623,US,(419) 474-7024,,,"Monday10:00 AM - 9:00 PM, Tuesday10:00 AM - 9:00 PM, Wednesday10:00 AM - 9:00 PM, Thursday10:00 AM - 9:00 PM, Friday10:00 AM - 9:00 PM, Saturday10:00 AM - 9:00 PM, Sunday11:00 AM - 6:30 PM",,,
Southpark,,840 Southpark Center,,Strongsville,Ohio,44136,US,(440) 572-5835,,,"Monday10:00 AM - 9:00 PM, Tuesday10:00 AM - 9:00 PM, Wednesday10:00 AM - 9:00 PM, Thursday10:00 AM - 9:00 PM, Friday10:00 AM - 9:00 PM, Saturday10:00 AM - 9:00 PM, Sunday11:00 AM - 6:30 PM",,,
Sandusky Mall,,4314 Milan Rd,,Sandusky,Ohio,44870,US,(419) 625-8853,,,"Monday10:00 AM - 9:00 PM, Tuesday10:00 AM - 9:00 PM, Wednesday10:00 AM - 9:00 PM, Thursday10:00 AM - 9:00 PM, Friday10:00 AM - 9:00 PM, Saturday10:00 AM - 9:00 PM, Sunday11:00 AM - 6:00 PM",,,
Prien Lake Mall,,604 West Prien Lake Rd.,,Lake Charles,Louisiana,70601,US,(337) 477-0399,,,"Monday10:00 AM - 9:00 PM, Tuesday10:00 AM - 9:00 PM, Wednesday10:00 AM - 9:00 PM, Thursday10:00 AM - 9:00 PM, Friday10:00 AM - 9:00 PM, Saturday10:00 AM - 9:00 PM, Sunday12:00 PM - 6:00 PM",,,
Great Northern,,4954 Great Northern Boulevard,,North Olmsted,Ohio,44070,US,(440) 777-3212,,,"Monday10:00 AM - 9:00 PM, Tuesday10:00 AM - 9:00 PM, Wednesday10:00 AM - 9:00 PM, Thursday10:00 AM - 9:00 PM, Friday10:00 AM - 9:00 PM, Saturday10:00 AM - 9:00 PM, Sunday11:00 AM - 6:30 PM",,,
Eastwood Mall,,5555 Youngstown Warren Rd,,Niles,Ohio,44446,US,(330) 652-2243,,,"Monday10:00 AM - 9:00 PM, Tuesday10:00 AM - 9:00 PM, Wednesday10:00 AM - 9:00 PM, Thursday10:00 AM - 9:00 PM, Friday10:00 AM - 9:00 PM, Saturday10:00 AM - 9:00 PM, Sunday11:00 AM - 6:00 PM",,,
Lloyd Center,,959 Lloyd Ctr,,Portland,Oregon,97232,US,(503) 288-7797,,,"Monday10:00 AM - 9:00 PM, Tuesday10:00 AM - 9:00 PM, Wednesday10:00 AM - 9:00 PM, Thursday10:00 AM - 9:00 PM, Friday10:00 AM - 9:00 PM, Saturday10:00 AM - 9:00 PM, Sunday11:00 AM - 7:00 PM",,,
Washington Square,,9585 SW Washington Square Rd,,Portland,Oregon,97223,US,(503) 443-1540,,,"Monday10:00 AM - 9:00 PM, Tuesday10:00 AM - 9:00 PM, Wednesday10:00 AM - 9:00 PM, Thursday10:00 AM - 9:00 PM, Friday10:00 AM - 9:00 PM, Saturday10:00 AM - 9:00 PM, Sunday10:00 AM - 7:00 PM",,,
Great Lakes,,7850 Mentor Ave,,Mentor,Ohio,44060,US,(440) 255-5040,,,"Monday10:00 AM - 9:00 PM, Tuesday10:00 AM - 9:00 PM, Wednesday10:00 AM - 9:00 PM, Thursday10:00 AM - 9:00 PM, Friday10:00 AM - 9:00 PM, Saturday10:00 AM - 9:00 PM, Sunday11:00 AM - 6:30 PM",,,
The Shops at Fallen Timbers,,3100 Main St.,,Maumee,Ohio,43537,US,(419) 842-4995,,,"Monday10:00 AM - 9:00 PM, Tuesday10:00 AM - 9:00 PM, Wednesday10:00 AM - 9:00 PM, Thursday10:00 AM - 9:00 PM, Friday10:00 AM - 9:00 PM, Saturday10:00 AM - 9:00 PM, Sunday12:00 PM - 6:00 PM",,,
Clackamas Town Center,,12000 SE 82nd Ave,,Portland,Oregon,97086,US,(503) 659-3558,,,"Monday10:00 AM - 9:00 PM, Tuesday10:00 AM - 9:00 PM, Wednesday10:00 AM - 9:00 PM, Thursday10:00 AM - 9:00 PM, Friday10:00 AM - 9:00 PM, Saturday10:00 AM - 9:00 PM, Sunday11:00 AM - 7:00 PM",,,
Fayette Mall,,3401 Nicholasville Rd.,,Lexington,Kentucky,40503,US,(859) 272-9596,,,"Monday10:00 AM - 9:00 PM, Tuesday10:00 AM - 9:00 PM, Wednesday10:00 AM - 9:00 PM, Thursday10:00 AM - 9:00 PM, Friday10:00 AM - 9:00 PM, Saturday10:00 AM - 9:00 PM, Sunday12:00 PM - 6:00 PM",,,
Mall at St Matthews,,5000 Shelbyville Rd,,Louisville,Kentucky,40207,US,(502) 259-5496,,,"Monday10:00 AM - 9:00 PM, Tuesday10:00 AM - 9:00 PM, Wednesday10:00 AM - 9:00 PM, Thursday10:00 AM - 9:00 PM, Friday10:00 AM - 9:00 PM, Saturday10:00 AM - 9:00 PM, Sunday11:00 AM - 6:00 PM",,,
Paddock Shops,,4236 Summit Plaza Drive,,Louisville,Kentucky,40241,US,(502) 339-8278,,,"Monday10:00 AM - 9:00 PM, Tuesday10:00 AM - 9:00 PM, Wednesday10:00 AM - 9:00 PM, Thursday10:00 AM - 9:00 PM, Friday10:00 AM - 9:00 PM, Saturday10:00 AM - 9:00 PM, Sunday12:00 PM - 6:00 PM",,,
Hamburg Pavilion,,2308 Sir Barton Dr,,Lexington,Kentucky,40509,US,(859) 264-9662,,,"Monday10:00 AM - 9:00 PM, Tuesday10:00 AM - 9:00 PM, Wednesday10:00 AM - 9:00 PM, Thursday10:00 AM - 9:00 PM, Friday10:00 AM - 9:00 PM, Saturday10:00 AM - 9:00 PM, Sunday12:00 PM - 6:00 PM",,,
Liberty Center,,7604 Liberty Way,,Liberty Township,Ohio,45069,US,(513) 443-5309,,,"Monday10:00 AM - 9:00 PM, Tuesday10:00 AM - 9:00 PM, Wednesday10:00 AM - 9:00 PM, Thursday10:00 AM - 9:00 PM, Friday10:00 AM - 9:00 PM, Saturday10:00 AM - 9:00 PM, Sunday12:00 PM - 6:00 PM",,,
Tuttle Crossing,,5043 Tuttle Crossing Blvd,,Dublin,Ohio,43016,US,(614) 336-0155,,,"Monday10:00 AM - 9:00 PM, Tuesday10:00 AM - 9:00 PM, Wednesday10:00 AM - 9:00 PM, Thursday10:00 AM - 9:00 PM, Friday10:00 AM - 9:00 PM, Saturday10:00 AM - 9:00 PM, Sunday11:00 AM - 6:00 PM",,,
Belden Village,,4360 Belden Mall,,Canton,Ohio,44718,US,(330) 497-9833,,,"Monday10:00 AM - 9:00 PM, Tuesday10:00 AM - 9:00 PM, Wednesday10:00 AM - 9:00 PM, Thursday10:00 AM - 9:00 PM, Friday10:00 AM - 9:00 PM, Saturday10:00 AM - 9:00 PM, Sunday11:00 AM - 6:00 PM",,,
Kenwood Towne Centre,,7875 Montgomery Road,,Cincinnati,Ohio,45236,US,(513) 891-8955,,,"Monday10:00 AM - 9:00 PM, Tuesday10:00 AM - 9:00 PM, Wednesday10:00 AM - 9:00 PM, Thursday10:00 AM - 9:00 PM, Friday10:00 AM - 9:00 PM, Saturday10:00 AM - 9:00 PM, Sunday12:00 PM - 6:00 PM",,,
The Greene,,4396 Holly Drive,,Beavercreek,Ohio,45440,US,(937) 458-5757,,,"Monday10:00 AM - 9:00 PM, Tuesday10:00 AM - 9:00 PM, Wednesday10:00 AM - 9:00 PM, Thursday10:00 AM - 9:00 PM, Friday10:00 AM - 9:00 PM, Saturday10:00 AM - 9:00 PM, Sunday12:00 PM - 6:00 PM",,,
Beachwood Place,,26300 Cedar Rd,,Beachwood,Ohio,44122,US,(216) 896-0562,,,"Monday10:00 AM - 9:00 PM, Tuesday10:00 AM - 9:00 PM, Wednesday10:00 AM - 9:00 PM, Thursday10:00 AM - 9:00 PM, Friday10:00 AM - 9:00 PM, Saturday10:00 AM - 9:00 PM, Sunday12:00 PM - 6:00 PM",,,
Summit,,3265 West Market St.,,Akron,Ohio,44333,US,(330) 836-1714,,,"Monday10:00 AM - 9:00 PM, Tuesday10:00 AM - 9:00 PM, Wednesday10:00 AM - 9:00 PM, Thursday10:00 AM - 9:00 PM, Friday10:00 AM - 9:00 PM, Saturday10:00 AM - 9:00 PM, Sunday11:00 AM - 6:30 PM",,,
Sooner Mall,,3411 W. Main St,,Norman,Oklahoma,73072,US,(405) 447-0028,,,"Monday10:00 AM - 9:00 PM, Tuesday10:00 AM - 9:00 PM, Wednesday10:00 AM - 9:00 PM, Thursday10:00 AM - 9:00 PM, Friday10:00 AM - 9:00 PM, Saturday10:00 AM - 9:00 PM, Sunday12:00 PM - 6:00 PM",,,
Shops at Tanasbourne,,2120 Allie Avenue,,Hillsboro,Oregon,97124,US,(503) 617-6333,,,"Monday10:00 AM - 9:00 PM, Tuesday10:00 AM - 9:00 PM, Wednesday10:00 AM - 9:00 PM, Thursday10:00 AM - 9:00 PM, Friday10:00 AM - 9:00 PM, Saturday10:00 AM - 9:00 PM, Sunday11:00 AM - 6:00 PM",,,
Berkshire Mall,,1665 State Hill Rd,,Wyomissing,Pennsylvania,19610,US,(610) 478-8781,,,"Monday10:00 AM - 9:30 PM, Tuesday10:00 AM - 9:30 PM, Wednesday10:00 AM - 9:30 PM, Thursday10:00 AM - 9:30 PM, Friday10:00 AM - 9:30 PM, Saturday10:00 AM - 9:30 PM, Sunday11:00 AM - 6:00 PM",,,
Willow Grove Mall,,2500 Moreland Rd,,Willow Grove,Pennsylvania,19090,US,(215) 659-1850,,,"Monday10:00 AM - 9:00 PM, Tuesday10:00 AM - 9:00 PM, Wednesday10:00 AM - 9:00 PM, Thursday10:00 AM - 9:00 PM, Friday10:00 AM - 9:00 PM, Saturday10:00 AM - 9:00 PM, Sunday11:00 AM - 6:00 PM",,,
Lehigh Valley,,250 Lehigh Valley Mall,,Whitehall,Pennsylvania,18052,US,(610) 266-9707,,,"Monday10:00 AM - 9:00 PM, Tuesday10:00 AM - 9:00 PM, Wednesday10:00 AM - 9:00 PM, Thursday10:00 AM - 9:00 PM, Friday10:00 AM - 9:00 PM, Saturday10:00 AM - 9:00 PM, Sunday11:00 AM - 6:00 PM",,,
Nittany,,2900 E. College Ave,,State College,Pennsylvania,16801,US,(814) 234-0310,,,"Monday10:00 AM - 9:00 PM, Tuesday10:00 AM - 9:00 PM, Wednesday10:00 AM - 9:00 PM, Thursday10:00 AM - 9:00 PM, Friday10:00 AM - 9:00 PM, Saturday10:00 AM - 9:00 PM, Sunday11:00 AM - 6:00 PM",,,
Springfield,,1250 Baltimore Pike,,Springfield,Pennsylvania,19064,US,(610) 543-5128,,,"Monday10:00 AM - 9:00 PM, Tuesday10:00 AM - 9:00 PM, Wednesday10:00 AM - 9:00 PM, Thursday10:00 AM - 9:00 PM, Friday10:00 AM - 9:00 PM, Saturday10:00 AM - 9:00 PM, Sunday11:00 AM - 6:00 PM",,,
Viewmont,,100 Viewmont Mall,,Scranton,Pennsylvania,18508,US,(570) 346-5245,,,"Monday10:00 AM - 9:00 PM, Tuesday10:00 AM - 9:00 PM, Wednesday10:00 AM - 9:00 PM, Thursday10:00 AM - 9:00 PM, Friday10:00 AM - 9:00 PM, Saturday10:00 AM - 9:00 PM, Sunday11:00 AM - 6:00 PM",,,
Plymouth Meeting Mall,,500 West Germantown Pike,,Plymouth Meeting,Pennsylvania,19462,US,(610) 825-2960,,,"Monday10:00 AM - 9:00 PM, Tuesday10:00 AM - 9:00 PM, Wednesday10:00 AM - 9:00 PM, Thursday10:00 AM - 9:00 PM, Friday10:00 AM - 9:00 PM, Saturday10:00 AM - 9:00 PM, Sunday11:00 AM - 6:00 PM",,,
The Shops at Liberty Place,,1625 Chestnut Street,,Philadelphia,Pennsylvania,19103,US,(215) 851-0699,,,"Monday9:30 AM - 7:00 PM, Tuesday9:30 AM - 7:00 PM, Wednesday9:30 AM - 7:00 PM, Thursday9:30 AM - 7:00 PM, Friday9:30 AM - 7:00 PM, Saturday9:30 AM - 7:00 PM, Sunday12:00 PM - 6:00 PM",,,
Wyoming Valley,,29 Wyoming Valley Mall,,Wilkes Barre,Pennsylvania,18702,US,(570) 823-3318,,,"Monday10:00 AM - 9:00 PM, Tuesday10:00 AM - 9:00 PM, Wednesday10:00 AM - 9:00 PM, Thursday10:00 AM - 9:00 PM, Friday10:00 AM - 9:00 PM, Saturday10:00 AM - 9:00 PM, Sunday11:00 AM - 6:00 PM",,,
Easton Town Center,,4090 The Strand East,,Columbus,Ohio,43219,US,(614) 472-3879,,,"Monday10:00 AM - 9:00 PM, Tuesday10:00 AM - 9:00 PM, Wednesday10:00 AM - 9:00 PM, Thursday10:00 AM - 9:00 PM, Friday10:00 AM - 10:00 PM, Saturday10:00 AM - 10:00 PM, Sunday11:00 AM - 7:00 PM",,,
Polaris Fashion Place,,1500 Polaris Parkway,,Columbus,Ohio,43240,US,(614) 781-1523,,,"Monday10:00 AM - 9:00 PM, Tuesday10:00 AM - 9:00 PM, Wednesday10:00 AM - 9:00 PM, Thursday10:00 AM - 9:00 PM, Friday10:00 AM - 9:30 PM, Saturday9:30 AM - 9:30 PM, Sunday12:00 PM - 6:00 PM",,,
Monroeville Mall,,200 Monroeville Mall,,Monroeville,Pennsylvania,15146,US,(412) 856-9353,,,"Monday10:00 AM - 9:00 PM, Tuesday10:00 AM - 9:00 PM, Wednesday10:00 AM - 9:00 PM, Thursday10:00 AM - 9:00 PM, Friday10:00 AM - 9:00 PM, Saturday10:00 AM - 9:00 PM, Sunday12:00 PM - 6:00 PM",,,
Oxford Valley Mall,,2300 E. Lincoln Hwy,,Langhorne,Pennsylvania,19047,US,(215) 752-7607,,,"Monday10:00 AM - 9:00 PM, Tuesday10:00 AM - 9:00 PM, Wednesday10:00 AM - 9:00 PM, Thursday10:00 AM - 9:00 PM, Friday10:00 AM - 9:00 PM, Saturday10:00 AM - 9:00 PM, Sunday11:00 AM - 6:00 PM",,,
Quail Springs,,2501 W. Memorial Rd,,Oklahoma City,Oklahoma,73134,US,(405) 752-2468,,,"Monday10:00 AM - 9:00 PM, Tuesday10:00 AM - 9:00 PM, Wednesday10:00 AM - 9:00 PM, Thursday10:00 AM - 9:00 PM, Friday10:00 AM - 9:00 PM, Saturday10:00 AM - 9:00 PM, Sunday12:00 PM - 6:00 PM",,,
Penn Square Mall,,1901 NW Expresaway,,Oklahoma City,Oklahoma,73118,US,(405) 840-0167,,,"Monday10:00 AM - 9:00 PM, Tuesday10:00 AM - 9:00 PM, Wednesday10:00 AM - 9:00 PM, Thursday10:00 AM - 9:00 PM, Friday10:00 AM - 9:00 PM, Saturday10:00 AM - 9:00 PM, Sunday12:00 PM - 6:00 PM",,,
King of Prussia Mall,,160 N. Gulph Road,,King Of Prussia,Pennsylvania,19406,US,(610) 337-8912,,,"Monday10:00 AM - 9:00 PM, Tuesday10:00 AM - 9:00 PM, Wednesday10:00 AM - 9:00 PM, Thursday10:00 AM - 9:00 PM, Friday10:00 AM - 9:00 PM, Saturday10:00 AM - 10:00 PM, Sunday11:00 AM - 6:00 PM",,,
Park City Center,,142 Park City Center,,Lancaster,Pennsylvania,17601,US,(717) 299-1495,,,"Monday10:00 AM - 9:00 PM, Tuesday10:00 AM - 9:00 PM, Wednesday10:00 AM - 9:00 PM, Thursday10:00 AM - 9:00 PM, Friday10:00 AM - 9:00 PM, Saturday10:00 AM - 9:00 PM, Sunday11:00 AM - 6:00 PM",,,
The Waterfront,,125 West Bridge St,,Homestead,Pennsylvania,15120,US,(412) 462-9390,,,"Monday10:00 AM - 9:00 PM, Tuesday10:00 AM - 9:00 PM, Wednesday10:00 AM - 9:00 PM, Thursday10:00 AM - 9:00 PM, Friday10:00 AM - 9:00 PM, Saturday10:00 AM - 9:00 PM, Sunday12:00 PM - 6:00 PM",,,
Westmoreland,,203 Westmoreland Avenue,,Greensburg,Pennsylvania,15601,US,(724) 832-3590,,,"Monday10:00 AM - 9:00 PM, Tuesday10:00 AM - 9:00 PM, Wednesday10:00 AM - 9:00 PM, Thursday10:00 AM - 9:00 PM, Friday10:00 AM - 9:00 PM, Saturday10:00 AM - 9:00 PM, Sunday11:00 AM - 5:00 PM",,,
Exton Square,,238 Exton Square Pkwy,,Exton,Pennsylvania,19341,US,(610) 524-8117,,,"Monday10:00 AM - 9:00 PM, Tuesday10:00 AM - 9:00 PM, Wednesday10:00 AM - 9:00 PM, Thursday10:00 AM - 9:00 PM, Friday10:00 AM - 9:00 PM, Saturday10:00 AM - 9:00 PM, Sunday11:00 AM - 6:00 PM",,,
Capitol City Mall,,3506 Capital City Mall,,Camp Hill,Pennsylvania,17011,US,(717) 763-4238,,,"Monday10:00 AM - 9:00 PM, Tuesday10:00 AM - 9:00 PM, Wednesday10:00 AM - 9:00 PM, Thursday10:00 AM - 9:00 PM, Friday10:00 AM - 9:00 PM, Saturday10:00 AM - 9:00 PM, Sunday11:00 AM - 6:00 PM",,,
South Hills,,301 S Hills Village,,Bethel Park,Pennsylvania,15241,US,(412) 835-9560,,,"Monday10:00 AM - 9:00 PM, Tuesday10:00 AM - 9:00 PM, Wednesday10:00 AM - 9:00 PM, Thursday10:00 AM - 9:00 PM, Friday10:00 AM - 9:00 PM, Saturday10:00 AM - 9:00 PM, Sunday11:00 AM - 6:00 PM",,,
Neshaminy Mall,,638 Neshaminy Blvd.,,Bensalem,Pennsylvania,19020,US,(215) 396-2460,,,"Monday10:00 AM - 9:00 PM, Tuesday10:00 AM - 9:00 PM, Wednesday10:00 AM - 9:00 PM, Thursday10:00 AM - 9:00 PM, Friday10:00 AM - 9:00 PM, Saturday10:00 AM - 9:00 PM, Sunday11:00 AM - 6:00 PM",,,
Magnolia Mall,,2701 David McLeod Blvd,,Florence,South Carolina,29501,US,(843) 667-5051,,,"Monday10:00 AM - 9:00 PM, Tuesday10:00 AM - 9:00 PM, Wednesday10:00 AM - 9:00 PM, Thursday10:00 AM - 9:00 PM, Friday10:00 AM - 9:00 PM, Saturday10:00 AM - 9:00 PM, Sunday11:00 AM - 6:00 PM",,,
Columbiana Centre,,100 Columbiana Circle,,Columbia,South Carolina,29212,US,(803) 749-1083,,,"Monday10:00 AM - 9:00 PM, Tuesday10:00 AM - 9:00 PM, Wednesday10:00 AM - 9:00 PM, Thursday10:00 AM - 9:00 PM, Friday10:00 AM - 9:00 PM, Saturday10:00 AM - 9:00 PM, Sunday11:00 AM - 6:00 PM",,,
Ross Park,,1000 Ross Park Mall Dr.,,Pittsburgh,Pennsylvania,15237,US,(412) 369-4525,,,"Monday10:00 AM - 9:00 PM, Tuesday10:00 AM - 9:00 PM, Wednesday10:00 AM - 9:00 PM, Thursday10:00 AM - 9:00 PM, Friday10:00 AM - 9:00 PM, Saturday10:00 AM - 9:00 PM, Sunday11:00 AM - 6:00 PM",,,
Mall at Robinson,,100 Robinson Center Drive,,Pittsburgh,Pennsylvania,15205,US,(412) 787-0409,,,"Monday10:00 AM - 9:00 PM, Tuesday10:00 AM - 9:00 PM, Wednesday10:00 AM - 9:00 PM, Thursday10:00 AM - 9:00 PM, Friday10:00 AM - 9:30 PM, Saturday10:00 AM - 9:30 PM, Sunday11:00 AM - 6:00 PM",,,
Avenue at Murfreesboro,,2615 Medical Center Pkwy,,Murfreesboro,Tennessee,37129,US,(615) 848-1034,,,"Monday10:00 AM - 9:00 PM, Tuesday10:00 AM - 9:00 PM, Wednesday10:00 AM - 9:00 PM, Thursday10:00 AM - 9:00 PM, Friday10:00 AM - 9:00 PM, Saturday10:00 AM - 9:00 PM, Sunday12:00 PM - 6:00 PM",,,
West Town,,7600 Kingston Pike,,Knoxville,Tennessee,37919,US,(865) 560-0181,,,"Monday10:00 AM - 9:00 PM, Tuesday10:00 AM - 9:00 PM, Wednesday10:00 AM - 9:00 PM, Thursday10:00 AM - 9:00 PM, Friday10:00 AM - 9:00 PM, Saturday10:00 AM - 9:00 PM, Sunday12:00 PM - 6:00 PM",,,
Cool Springs,,1800 Galleria Blvd.,,Franklin,Tennessee,37067,US,(615) 771-7304,,,"Monday10:00 AM - 9:00 PM, Tuesday10:00 AM - 9:00 PM, Wednesday10:00 AM - 9:00 PM, Thursday10:00 AM - 9:00 PM, Friday10:00 AM - 9:00 PM, Saturday10:00 AM - 9:00 PM, Sunday12:00 PM - 6:00 PM",,,
The Avenue Collierville,,4650 Merchants Park Cir,,Collierville,Tennessee,38017,US,(901) 861-0438,,,"Monday10:00 AM - 9:00 PM, Tuesday10:00 AM - 9:00 PM, Wednesday10:00 AM - 9:00 PM, Thursday10:00 AM - 9:00 PM, Friday10:00 AM - 9:00 PM, Saturday10:00 AM - 9:00 PM, Sunday12:00 PM - 6:00 PM",,,
Hamilton Place,,2100 Hamilton Blvd.,,Chattanooga,Tennessee,37421,US,(423) 894-8750,,,"Monday10:00 AM - 9:00 PM, Tuesday10:00 AM - 9:00 PM, Wednesday10:00 AM - 9:00 PM, Thursday10:00 AM - 9:00 PM, Friday10:00 AM - 9:00 PM, Saturday10:00 AM - 9:00 PM, Sunday12:00 PM - 6:00 PM",,,
Wolfchase Galleria,,2760 N Germantown Pkwy,,Bartlett,Tennessee,38133,US,(901) 937-0705,,,"Monday10:00 AM - 9:00 PM, Tuesday10:00 AM - 9:00 PM, Wednesday10:00 AM - 9:00 PM, Thursday10:00 AM - 9:00 PM, Friday10:00 AM - 9:00 PM, Saturday10:00 AM - 9:00 PM, Sunday12:00 PM - 6:00 PM",,,
First Colony,,16535 Southwest Freeway,,Sugar Land,Texas,77479,US,(281) 565-3032,,,"Monday10:00 AM - 9:00 PM, Tuesday10:00 AM - 9:00 PM, Wednesday10:00 AM - 9:00 PM, Thursday10:00 AM - 9:00 PM, Friday10:00 AM - 9:00 PM, Saturday10:00 AM - 9:00 PM, Sunday12:00 PM - 6:00 PM",,,
Woodlands,,1201 Lake Woodlands Dr,,Spring,Texas,77380,US,(281) 292-3755,,,"Monday10:00 AM - 9:00 PM, Tuesday10:00 AM - 9:00 PM, Wednesday10:00 AM - 9:00 PM, Thursday10:00 AM - 9:00 PM, Friday10:00 AM - 9:00 PM, Saturday10:00 AM - 9:00 PM, Sunday12:00 PM - 6:30 PM",,,
Shops at Willowben,,6121 West Park Blvd,,Plano,Texas,75093,US,(469) 366-1035,,,"Monday10:00 AM - 9:00 PM, Tuesday10:00 AM - 9:00 PM, Wednesday10:00 AM - 9:00 PM, Thursday10:00 AM - 9:00 PM, Friday10:00 AM - 9:00 PM, Saturday10:00 AM - 9:00 PM, Sunday12:00 PM - 6:00 PM",,,
Music City,,4101 East 42nd St,,Odessa,Texas,79762,US,(432) 366-2051,,,"Monday10:00 AM - 9:00 PM, Tuesday9:30 AM - 9:30 PM, Wednesday10:00 AM - 9:00 PM, Thursday10:00 AM - 9:00 PM, Friday10:00 AM - 9:00 PM, Saturday10:00 AM - 9:00 PM, Sunday12:00 PM - 6:00 PM",,,
Pearland Town Center,,11200 Broadway,,Pearland,Texas,77584,US,(713) 340-0321,,,"Monday10:00 AM - 9:00 PM, Tuesday10:00 AM - 9:00 PM, Wednesday10:00 AM - 9:00 PM, Thursday10:00 AM - 9:00 PM, Friday10:00 AM - 9:00 PM, Saturday10:00 AM - 9:00 PM, Sunday11:00 AM - 7:00 PM",,,
Town East Mall,,2078 Town East Mall,,Mesquite,Texas,75150,US,(972) 682-6077,,,"Monday10:00 AM - 9:00 PM, Tuesday10:00 AM - 9:00 PM, Wednesday10:00 AM - 9:00 PM, Thursday10:00 AM - 9:00 PM, Friday10:00 AM - 9:00 PM, Saturday10:00 AM - 9:00 PM, Sunday12:00 PM - 6:00 PM",,,
La Plaza,,2200 South 10th Street,,McAllen,Texas,78503,US,(956) 686-6383,,,"Monday10:00 AM - 9:00 PM, Tuesday10:00 AM - 9:00 PM, Wednesday10:00 AM - 9:30 PM, Thursday10:00 AM - 9:30 PM, Friday10:00 AM - 9:30 PM, Saturday10:00 AM - 9:30 PM, Sunday11:00 AM - 7:00 PM",,,
Vista Ridge,,2401 S. I-35 East,,Lewisville,Texas,75067,US,(972) 315-3238,,,"Monday10:00 AM - 9:00 PM, Tuesday10:00 AM - 9:00 PM, Wednesday10:00 AM - 9:00 PM, Thursday10:00 AM - 9:00 PM, Friday10:00 AM - 10:00 PM, Saturday9:00 AM - 10:00 PM, Sunday12:00 PM - 6:00 PM",,,
Mall Del Norte,,5300 San Dario,,Laredo,Texas,78041,US,(956) 723-8747,,,"Monday10:00 AM - 9:00 PM, Tuesday10:00 AM - 9:00 PM, Wednesday10:00 AM - 9:00 PM, Thursday10:00 AM - 9:00 PM, Friday10:00 AM - 9:00 PM, Saturday10:00 AM - 9:00 PM, Sunday11:00 AM - 7:00 PM",,,
Irving Mall,,3880 Irving Mall,,Irving,Texas,75062,US,(972) 659-9036,,,"Monday10:00 AM - 9:00 PM, Tuesday10:00 AM - 9:00 PM, Wednesday10:00 AM - 9:00 PM, Thursday10:00 AM - 9:00 PM, Friday10:00 AM - 9:00 PM, Saturday10:00 AM - 9:00 PM, Sunday12:00 PM - 6:00 PM",,,
Northeast Mall,,1100 Melbourne Rd,,Hurst,Texas,76053,US,(817) 595-3502,,,"Monday10:00 AM - 9:00 PM, Tuesday10:00 AM - 9:00 PM, Wednesday10:00 AM - 9:00 PM, Thursday10:00 AM - 9:00 PM, Friday10:00 AM - 9:00 PM, Saturday10:00 AM - 9:00 PM, Sunday12:00 PM - 6:00 PM",,,
Deerbrook,,20131 Highway 59 N,,Humble,Texas,77338,US,(281) 446-7503,,,"Monday10:00 AM - 9:00 PM, Tuesday10:00 AM - 9:00 PM, Wednesday10:00 AM - 9:00 PM, Thursday10:00 AM - 9:00 PM, Friday10:00 AM - 9:00 PM, Saturday10:00 AM - 9:00 PM, Sunday12:00 PM - 6:00 PM",,,
Firewheeltown Center,,340 Cedar Sage Dr,,Garland,Texas,75040,US,(972) 414-1582,,,"Monday10:00 AM - 9:00 PM, Tuesday10:00 AM - 9:00 PM, Wednesday10:00 AM - 9:00 PM, Thursday10:00 AM - 9:00 PM, Friday10:00 AM - 9:00 PM, Saturday10:00 AM - 9:00 PM, Sunday12:00 PM - 6:00 PM",,,
Stonebriar Mall,,2601 Preston Rd.,,Frisco,Texas,75034,US,(972) 668-5350,,,"Monday10:00 AM - 9:00 PM, Tuesday10:00 AM - 9:00 PM, Wednesday10:00 AM - 9:00 PM, Thursday10:00 AM - 9:00 PM, Friday10:00 AM - 9:00 PM, Saturday10:00 AM - 9:00 PM, Sunday12:00 PM - 6:00 PM",,,
Baybrook Mall,,1220 Baybrook Mall,,Friendswood,Texas,77546,US,(281) 486-8958,,,"Monday10:00 AM - 9:00 PM, Tuesday10:00 AM - 9:00 PM, Wednesday10:00 AM - 9:00 PM, Thursday10:00 AM - 9:00 PM, Friday10:00 AM - 9:00 PM, Saturday10:00 AM - 9:00 PM, Sunday11:30 AM - 6:30 PM",,,
Hulen Mall,,4800 S. Hulen St,,Fort Worth,Texas,76132,US,(817) 292-4458,,,"Monday10:00 AM - 9:00 PM, Tuesday10:00 AM - 9:00 PM, Wednesday10:00 AM - 9:00 PM, Thursday10:00 AM - 9:00 PM, Friday10:00 AM - 9:00 PM, Saturday10:00 AM - 9:00 PM, Sunday12:00 PM - 6:00 PM",,,
Village at Fairview,,168 Town Place,,Fairview,Texas,75069,US,(972) 886-4100,,,"Monday10:00 AM - 9:00 PM, Tuesday10:00 AM - 9:00 PM, Wednesday10:00 AM - 9:00 PM, Thursday10:00 AM - 9:00 PM, Friday10:00 AM - 9:00 PM, Saturday10:00 AM - 9:00 PM, Sunday12:00 PM - 6:00 PM",,,
River Center Mall,,849 E. Commerce St.,,San Antonio,Texas,78205,US,(210) 227-9545,,,"Monday10:00 AM - 9:00 PM, Tuesday10:00 AM - 9:00 PM, Wednesday10:00 AM - 9:00 PM, Thursday10:00 AM - 9:00 PM, Friday10:00 AM - 9:00 PM, Saturday10:00 AM - 9:00 PM, Sunday12:00 PM - 6:00 PM",,,
Valle Vista,,2020 S. Expressway 83,,Harlingen,Texas,78552,US,(956) 428-3875,,,"Monday10:00 AM - 9:00 PM, Tuesday10:00 AM - 9:00 PM, Wednesday10:00 AM - 9:00 PM, Thursday10:00 AM - 9:00 PM, Friday10:00 AM - 9:00 PM, Saturday10:00 AM - 9:00 PM, Sunday12:00 PM - 6:00 PM",,,
North Star Mall,,7400 San Pedro Avenue,,San Antonio,Texas,78216,US,(210) 377-0734,,,"Monday10:00 AM - 9:00 PM, Tuesday10:00 AM - 9:00 PM, Wednesday10:00 AM - 9:00 PM, Thursday10:00 AM - 9:00 PM, Friday10:00 AM - 9:00 PM, Saturday10:00 AM - 9:00 PM, Sunday12:00 PM - 6:00 PM",,,
Rolling Oaks,,6909 N Loop 1604,,San Antonio,Texas,78247,US,(210) 651-1127,,,"Monday10:00 AM - 9:00 PM, Tuesday10:00 AM - 9:00 PM, Wednesday10:00 AM - 9:00 PM, Thursday10:00 AM - 9:00 PM, Friday10:00 AM - 9:00 PM, Saturday10:00 AM - 9:00 PM, Sunday12:00 PM - 6:30 PM",,,
Ingram Park Mall,,6301 N.W. Loop 410,,San Antonio,Texas,78238,US,(210) 681-3260,,,"Monday10:00 AM - 9:00 PM, Tuesday10:00 AM - 9:00 PM, Wednesday10:00 AM - 9:00 PM, Thursday10:00 AM - 9:00 PM, Friday10:00 AM - 9:00 PM, Saturday10:00 AM - 9:00 PM, Sunday12:00 PM - 6:00 PM",,,
The Shops at La Cantera,,15900 La Cantera Pkwy,,San Antonio,Texas,78256,US,(210) 561-2626,,,"Monday10:00 AM - 9:00 PM, Tuesday10:00 AM - 9:00 PM, Wednesday10:00 AM - 9:00 PM, Thursday10:00 AM - 9:00 PM, Friday10:00 AM - 9:00 PM, Saturday10:00 AM - 9:00 PM, Sunday12:00 PM - 6:00 PM",,,
La Palmera,,5488 S. Padre Island Dr.,,Corpus Christi,Texas,78411,US,(361) 991-0413,,,"Monday10:00 AM - 9:00 PM, Tuesday10:00 AM - 9:00 PM, Wednesday10:00 AM - 9:00 PM, Thursday10:00 AM - 9:00 PM, Friday10:00 AM - 9:00 PM, Saturday10:00 AM - 9:00 PM, Sunday11:00 AM - 7:00 PM",,,
Post Oak,,1500 Harvey Rd,,College Station,Texas,77840,US,(979) 696-5751,,,"Monday10:00 AM - 9:00 PM, Tuesday10:00 AM - 9:00 PM, Wednesday10:00 AM - 9:00 PM, Thursday10:00 AM - 9:00 PM, Friday10:00 AM - 9:00 PM, Saturday10:00 AM - 9:00 PM, Sunday12:00 PM - 6:00 PM",,,
Lakeline,,11200 Lakestop Blvd.,,Cedar Park,Texas,78613,US,(512) 250-8796,,,"Monday10:00 AM - 9:00 PM, Tuesday10:00 AM - 9:00 PM, Wednesday10:00 AM - 9:00 PM, Thursday10:00 AM - 9:00 PM, Friday10:00 AM - 9:00 PM, Saturday10:00 AM - 9:00 PM, Sunday12:00 PM - 6:30 PM",,,
The Galleria,,5015 Westheimer Road,,Houston,Texas,77056,US,(713) 629-7199,,,"Monday10:00 AM - 10:00 PM, Tuesday10:00 AM - 10:00 PM, Wednesday10:00 AM - 10:00 PM, Thursday10:00 AM - 10:00 PM, Friday10:00 AM - 10:00 PM, Saturday10:00 AM - 10:00 PM, Sunday11:00 AM - 8:00 PM",,,
Memorial City,,303 Memorial City Mall,,Houston,Texas,77024,US,(713) 467-4897,,,"Monday10:00 AM - 9:00 PM, Tuesday10:00 AM - 9:00 PM, Wednesday10:00 AM - 9:00 PM, Thursday10:00 AM - 9:00 PM, Friday10:00 AM - 9:00 PM, Saturday10:00 AM - 9:00 PM, Sunday11:00 AM - 7:00 PM",,,
Willowbrook,,1472 Willowbrook Mall,,Houston,Texas,77070,US,(281) 955-0528,,,"Monday10:00 AM - 9:00 PM, Tuesday10:00 AM - 9:00 PM, Wednesday10:00 AM - 9:00 PM, Thursday10:00 AM - 9:00 PM, Friday10:00 AM - 9:00 PM, Saturday10:00 AM - 9:00 PM, Sunday12:00 PM - 6:30 PM",,,
Meyerland,,112 Meyerland Plaza,,Houston,Texas,77096,US,(713) 668-7088,,,"Monday10:00 AM - 9:00 PM, Tuesday10:00 AM - 9:00 PM, Wednesday10:00 AM - 9:00 PM, Thursday10:00 AM - 9:00 PM, Friday10:00 AM - 9:00 PM, Saturday10:00 AM - 9:00 PM, Sunday12:00 PM - 6:00 PM",,,
Uptown Village at Cedar Hills,,305 W. FM 1382,,Cedar Hill,Texas,75104,US,(972) 293-2834,,,"Monday10:00 AM - 9:00 PM, Tuesday10:00 AM - 9:00 PM, Wednesday10:00 AM - 9:00 PM, Thursday10:00 AM - 9:00 PM, Friday10:00 AM - 9:00 PM, Saturday10:00 AM - 9:00 PM, Sunday11:00 AM - 6:00 PM",,,
Cielo Vista Mall,,8401 Gateway West,,El Paso,Texas,79925,US,(915) 779-2812,,,"Monday10:00 AM - 9:00 PM, Tuesday10:00 AM - 9:00 PM, Wednesday10:00 AM - 9:00 PM, Thursday10:00 AM - 9:00 PM, Friday10:00 AM - 9:00 PM, Saturday10:00 AM - 9:00 PM, Sunday12:00 PM - 7:00 PM",,,
Sunland Mall,,750 Sunland Park Dr,,El Paso,Texas,79912,US,(915) 584-5376,,,"Monday10:00 AM - 9:00 PM, Tuesday10:00 AM - 9:00 PM, Wednesday10:00 AM - 9:00 PM, Thursday10:00 AM - 9:00 PM, Friday10:00 AM - 9:00 PM, Saturday10:00 AM - 9:00 PM, Sunday12:00 PM - 6:00 PM",,,
Bassett Center,,6101 Gateway Blvd. W.,,El Paso,Texas,79925,US,(915) 778-1511,,,"Monday10:00 AM - 9:00 PM, Tuesday10:00 AM - 9:00 PM, Wednesday10:00 AM - 9:00 PM, Thursday10:00 AM - 9:00 PM, Friday10:00 AM - 9:00 PM, Saturday10:00 AM - 9:00 PM, Sunday12:00 PM - 6:00 PM",,,
Village Arcade,,2414 University Blvd.,,Houston,Texas,77005,US,(713) 520-0669,,,"Monday10:00 AM - 9:00 PM, Tuesday10:00 AM - 9:00 PM, Wednesday10:00 AM - 9:00 PM, Thursday10:00 AM - 9:00 PM, Friday10:00 AM - 9:00 PM, Saturday10:00 AM - 9:00 PM, Sunday11:00 AM - 7:00 PM",,,
The Parks at Arlington,,3811 South Cooper St.,,Arlington,Texas,76015,US,(817) 465-2335,,,"Monday10:00 AM - 9:00 PM, Tuesday10:00 AM - 9:00 PM, Wednesday10:00 AM - 9:00 PM, Thursday10:00 AM - 9:00 PM, Friday10:00 AM - 9:00 PM, Saturday10:00 AM - 9:00 PM, Sunday12:00 PM - 6:00 PM",,,
Mall of Abilene,,4310 Buffalo Gap Rd,,Abilene,Texas,79606,US,(325) 692-7032,,,"Monday10:00 AM - 9:00 PM, Tuesday10:00 AM - 9:00 PM, Wednesday10:00 AM - 9:00 PM, Thursday10:00 AM - 9:00 PM, Friday10:00 AM - 9:00 PM, Saturday10:00 AM - 9:00 PM, Sunday12:00 PM - 6:00 PM",,,
Sunrise,,2370 N Expressway,,Brownsville,Texas,78526,US,(956) 547-8335,,,"Monday10:00 AM - 9:00 PM, Tuesday10:00 AM - 9:00 PM, Wednesday10:00 AM - 9:00 PM, Thursday10:00 AM - 9:00 PM, Friday10:00 AM - 9:00 PM, Saturday10:00 AM - 9:00 PM, Sunday12:00 PM - 7:00 PM",,,
Northpark Center,,620 Northpark Center,,Dallas,Texas,75225,US,(214) 265-6858,,,"Monday10:00 AM - 9:00 PM, Tuesday10:00 AM - 9:00 PM, Wednesday10:00 AM - 9:00 PM, Thursday10:00 AM - 9:00 PM, Friday10:00 AM - 9:00 PM, Saturday10:00 AM - 9:00 PM, Sunday12:00 PM - 6:00 PM",,,
Galleria,,13350 Dallas Pkwy,,Dallas,Texas,75240,US,(972) 233-2986,,,"Monday10:00 AM - 9:00 PM, Tuesday10:00 AM - 9:00 PM, Wednesday10:00 AM - 9:00 PM, Thursday10:00 AM - 9:00 PM, Friday10:00 AM - 9:00 PM, Saturday10:00 AM - 9:00 PM, Sunday12:00 PM - 6:00 PM",,,
Fashion Place,,6191 South Street,,Murray,Utah,84107,US,(801) 263-0391,,,"Monday10:00 AM - 9:00 PM, Tuesday10:00 AM - 9:00 PM, Wednesday10:00 AM - 9:00 PM, Thursday10:00 AM - 9:00 PM, Friday10:00 AM - 9:00 PM, Saturday10:00 AM - 9:00 PM, Sunday12:00 PM - 6:00 PM",,,
Springfield T.C.,,6847 Springfield Mall,,Springfield,Virginia,22150,US,(703) 971-6909,,,"Monday10:00 AM - 9:30 PM, Tuesday10:00 AM - 9:30 PM, Wednesday10:00 AM - 9:30 PM, Thursday10:00 AM - 9:30 PM, Friday10:00 AM - 9:30 PM, Saturday10:00 AM - 9:30 PM, Sunday11:00 AM - 7:00 PM",,,
Valley View Mall,,4802 Valley View Blvd,,Roanoke,Virginia,24012,US,(540) 362-2140,,,"Monday10:00 AM - 9:00 PM, Tuesday10:00 AM - 9:00 PM, Wednesday10:00 AM - 9:00 PM, Thursday10:00 AM - 9:00 PM, Friday10:00 AM - 9:00 PM, Saturday10:00 AM - 9:00 PM, Sunday12:00 PM - 6:00 PM",,,
Short Pump Town Center,,11800 West Broad Street,,Richmond,Virginia,23233,US,(804) 364-9860,,,"Monday10:00 AM - 9:00 PM, Tuesday10:00 AM - 9:00 PM, Wednesday10:00 AM - 9:00 PM, Thursday10:00 AM - 9:00 PM, Friday10:00 AM - 9:00 PM, Saturday10:00 AM - 9:00 PM, Sunday11:00 AM - 6:00 PM",,,
Macarthur Center,,300 Monticello Ave,,Norfolk,Virginia,23510,US,(757) 627-7413,,,"Monday10:00 AM - 9:00 PM, Tuesday10:00 AM - 9:00 PM, Wednesday10:00 AM - 9:00 PM, Thursday10:00 AM - 9:00 PM, Friday10:00 AM - 9:00 PM, Saturday10:00 AM - 9:00 PM, Sunday12:00 PM - 6:00 PM",,,
Spotsylvania Mall,,225 Spotsylvania Mall,,Fredericksburg,Virginia,22407,US,(540) 785-3652,,,"Monday10:00 AM - 9:30 PM, Tuesday10:00 AM - 9:30 PM, Wednesday10:00 AM - 9:30 PM, Thursday10:00 AM - 9:30 PM, Friday10:00 AM - 9:30 PM, Saturday10:00 AM - 9:30 PM, Sunday11:00 AM - 6:00 PM",,,
Tysons Corner Center,,801 1L Tysons Corner Ctr.,,McLean,Virginia,22102,US,(703) 760-8980,,,"Monday10:00 AM - 9:30 PM, Tuesday10:00 AM - 9:30 PM, Wednesday10:00 AM - 9:30 PM, Thursday10:00 AM - 9:30 PM, Friday10:00 AM - 9:30 PM, Saturday10:00 AM - 9:30 PM, Sunday11:00 AM - 7:00 PM",,,
Barton Creek Square,,2901 S Capital Of Texas Highway,,Austin,Texas,78746,US,(512) 328-0662,,,"Monday10:00 AM - 9:00 PM, Tuesday10:00 AM - 9:00 PM, Wednesday10:00 AM - 10:00 PM, Thursday10:00 AM - 10:00 PM, Friday10:00 AM - 10:00 PM, Saturday10:00 AM - 10:00 PM, Sunday11:00 AM - 7:00 PM",,,
Newgate Mall,,245 Wall Ave,,Ogden,Utah,84405,US,(801) 392-5226,,,"Monday10:00 AM - 9:00 PM, Tuesday10:00 AM - 9:00 PM, Wednesday10:00 AM - 9:00 PM, Thursday10:00 AM - 9:00 PM, Friday10:00 AM - 9:00 PM, Saturday10:00 AM - 9:00 PM, Sunday12:00 PM - 6:00 PM",,,
The Domain,,11010 Domain Dr.,,Austin,Texas,78758,US,(512) 832-8837,,,"Monday10:00 AM - 9:00 PM, Tuesday10:00 AM - 9:00 PM, Wednesday10:00 AM - 9:00 PM, Thursday10:00 AM - 9:00 PM, Friday10:00 AM - 9:00 PM, Saturday10:00 AM - 9:00 PM, Sunday12:00 PM - 7:00 PM",,,
Dulles Town Center,,21100 Dulles Town Circle,,Dulles,Virginia,20166,US,(703) 421-4613,,,"Monday10:00 AM - 9:30 PM, Tuesday10:00 AM - 9:30 PM, Wednesday10:00 AM - 9:30 PM, Thursday10:00 AM - 9:30 PM, Friday10:00 AM - 9:30 PM, Saturday10:00 AM - 9:30 PM, Sunday11:00 AM - 7:00 PM",,,
Fair Oaks Mall,,11825 Fair Oaks,,Fairfax,Virginia,22033,US,(703) 591-8110,,,"Monday10:00 AM - 9:30 PM, Tuesday10:00 AM - 9:30 PM, Wednesday10:00 AM - 9:30 PM, Thursday10:00 AM - 9:30 PM, Friday10:00 AM - 9:30 PM, Saturday10:00 AM - 9:30 PM, Sunday11:00 AM - 6:00 PM",,,
Patrick Henry Mall,,12300 Jefferson Ave.,,Newport News,Virginia,23602,US,(757) 249-0814,,,"Monday10:00 AM - 9:00 PM, Tuesday10:00 AM - 9:00 PM, Wednesday10:00 AM - 9:00 PM, Thursday10:00 AM - 9:00 PM, Friday10:00 AM - 9:00 PM, Saturday10:00 AM - 9:00 PM, Sunday12:00 PM - 6:00 PM",,,
Greenbrier,,1401 Greenbrier Pkwy,,Chesapeake,Virginia,23320,US,(757) 366-9440,,,"Monday10:00 AM - 9:00 PM, Tuesday10:00 AM - 9:00 PM, Wednesday10:00 AM - 9:00 PM, Thursday10:00 AM - 9:00 PM, Friday10:00 AM - 9:00 PM, Saturday10:00 AM - 9:00 PM, Sunday12:00 PM - 5:30 PM",,,
The Fashion Centre at Pentagon City,,1100 South Joyce Street,,Arlington,Virginia,22202,US,(703) 413-0127,,,"Monday10:00 AM - 9:30 PM, Tuesday10:00 AM - 9:30 PM, Wednesday10:00 AM - 9:30 PM, Thursday10:00 AM - 9:30 PM, Friday10:00 AM - 9:30 PM, Saturday10:00 AM - 9:30 PM, Sunday11:00 AM - 7:00 PM",,,
Northtown,,4750 Division St,,Spokane,Washington,99207,US,(509) 482-0121,,,"Monday10:00 AM - 9:00 PM, Tuesday10:00 AM - 9:00 PM, Wednesday10:00 AM - 9:00 PM, Thursday10:00 AM - 9:00 PM, Friday10:00 AM - 9:00 PM, Saturday10:00 AM - 9:00 PM, Sunday11:00 AM - 6:00 PM",,,
Alderwood,,3000 184th St. S.W.,,Lynnwood,Washington,98036,US,(425) 744-1423,,,"Monday10:00 AM - 9:00 PM, Tuesday10:00 AM - 9:00 PM, Wednesday10:00 AM - 9:00 PM, Thursday10:00 AM - 9:00 PM, Friday10:00 AM - 9:00 PM, Saturday10:00 AM - 9:00 PM, Sunday11:00 AM - 7:00 PM",,,
Bellevue,,2070 Bellevue Square,,Bellevue,Washington,98004,US,(425) 453-8494,,,"Monday9:30 AM - 9:30 PM, Tuesday9:30 AM - 9:30 PM, Wednesday9:30 AM - 9:30 PM, Thursday9:30 AM - 9:30 PM, Friday9:30 AM - 9:30 PM, Saturday9:30 AM - 9:30 PM, Sunday11:00 AM - 7:00 PM",,,
Crossgates,,120 Washington Ave,,Albany,New York,12203,US,(518) 456-7342,,,"Monday10:00 AM - 9:30 PM, Tuesday10:00 AM - 9:30 PM, Wednesday10:00 AM - 9:30 PM, Thursday10:00 AM - 9:30 PM, Friday10:00 AM - 9:30 PM, Saturday10:00 AM - 9:30 PM, Sunday11:00 AM - 6:00 PM",,,
Boise,,350 North Milwaukee,,Boise,Idaho,83704,US,(208) 322-7280,,,"Monday10:00 AM - 9:00 PM, Tuesday10:00 AM - 9:00 PM, Wednesday10:00 AM - 9:00 PM, Thursday10:00 AM - 9:00 PM, Friday10:00 AM - 9:00 PM, Saturday10:00 AM - 9:00 PM, Sunday11:00 AM - 7:00 PM",,,
Christiana Mall,,715 Christiana Mall,,Newark,Delaware,19702,US,(302) 738-9221,,,"Monday10:00 AM - 9:00 PM, Tuesday10:00 AM - 9:00 PM, Wednesday10:00 AM - 9:00 PM, Thursday10:00 AM - 9:00 PM, Friday10:00 AM - 9:00 PM, Saturday10:00 AM - 9:00 PM, Sunday11:00 AM - 6:00 PM",,,
Pacific Place,,600 Pine St,,Seattle,Washington,98101,US,(206) 652-8481,,,"Monday10:00 AM - 8:00 PM, Tuesday10:00 AM - 8:00 PM, Wednesday10:00 AM - 8:00 PM, Thursday10:00 AM - 8:00 PM, Friday10:00 AM - 8:00 PM, Saturday10:00 AM - 8:00 PM, Sunday11:00 AM - 7:00 PM",,,
Northgate,,401 NE Northgate Way,,Seattle,Washington,98125,US,(206) 367-2607,,,"Monday10:00 AM - 9:00 PM, Tuesday10:00 AM - 9:00 PM, Wednesday10:00 AM - 9:00 PM, Thursday10:00 AM - 9:00 PM, Friday10:00 AM - 9:00 PM, Saturday10:00 AM - 9:00 PM, Sunday11:00 AM - 7:00 PM",,,
South Center Mall,,1070 South Center Pkwy,,Seattle,Washington,98188,US,(206) 243-2070,,,"Monday10:00 AM - 9:00 PM, Tuesday10:00 AM - 9:00 PM, Wednesday10:00 AM - 9:00 PM, Thursday10:00 AM - 9:00 PM, Friday10:00 AM - 9:00 PM, Saturday10:00 AM - 9:00 PM, Sunday11:00 AM - 7:00 PM",,,
Plaza Del Caribe,,2050 Ponce By-Pass PR-2,,Ponce,Puerto Rico,00717,PR,(787) 812-8300,,,"Monday9:00 AM - 9:00 PM, Tuesday9:00 AM - 9:00 PM, Wednesday9:00 AM - 9:00 PM, Thursday9:00 AM - 9:00 PM, Friday9:00 AM - 9:00 PM, Saturday9:00 AM - 9:00 PM, Sunday11:00 AM - 7:00 PM",,,
Town Square Wheaton,,161 E Loop Road,,Wheaton,Illinois,60189,US,(630) 653-3877,,,"Monday10:00 AM - 9:00 PM, Tuesday10:00 AM - 9:00 PM, Wednesday10:00 AM - 9:00 PM, Thursday10:00 AM - 9:00 PM, Friday10:00 AM - 9:00 PM, Saturday10:00 AM - 6:00 PM, Sunday11:00 AM - 5:00 PM",,,
White Oaks Mall,,2501 Wabash Ave.,,Springfield,Illinois,62704,US,(217) 726-6551,,,"Monday10:00 AM - 9:00 PM, Tuesday10:00 AM - 9:00 PM, Wednesday10:00 AM - 9:00 PM, Thursday10:00 AM - 9:00 PM, Friday10:00 AM - 9:00 PM, Saturday10:00 AM - 9:00 PM, Sunday11:00 AM - 6:00 PM",,,
Hawthorn,,705 Hawthorne Ctr,,Vernon Hills,Illinois,60061,US,(847) 362-1445,,,"Monday10:00 AM - 9:00 PM, Tuesday10:00 AM - 9:00 PM, Wednesday10:00 AM - 9:00 PM, Thursday10:00 AM - 9:00 PM, Friday10:00 AM - 9:00 PM, Saturday10:00 AM - 9:00 PM, Sunday11:00 AM - 6:00 PM",,,
Galleria/Ft Lauderdale,,2414 East Sunrise Blvd.,,Fort Lauderdale,Florida,33304,US,(954) 565-6206,,,"Monday10:00 AM - 9:00 PM, Tuesday10:00 AM - 9:00 PM, Wednesday10:00 AM - 9:00 PM, Thursday10:00 AM - 9:00 PM, Friday10:00 AM - 9:00 PM, Saturday10:00 AM - 9:00 PM, Sunday12:00 PM - 6:00 PM",,,
Coconut Point,,23131 Fashion Dr,,Estero,Florida,33928,US,(239) 992-0907,,,"Monday10:00 AM - 9:00 PM, Tuesday10:00 AM - 9:00 PM, Wednesday10:00 AM - 9:00 PM, Thursday10:00 AM - 9:00 PM, Friday10:00 AM - 9:00 PM, Saturday10:00 AM - 9:00 PM, Sunday12:00 PM - 6:00 PM",,,
Shops at Centerra,,5879 Sky Pond Drive,,Loveland,Colorado,80537,US,(970) 667-2789,,,"Monday10:00 AM - 9:00 PM, Tuesday10:00 AM - 9:00 PM, Wednesday10:00 AM - 9:00 PM, Thursday10:00 AM - 9:00 PM, Friday10:00 AM - 9:00 PM, Saturday10:00 AM - 9:00 PM, Sunday11:00 AM - 6:00 PM",,,
Westminster,,1008 Westminster Mall,,Westminster,California,92683,US,(714) 895-5598,,,"Monday10:00 AM - 9:00 PM, Tuesday10:00 AM - 9:00 PM, Wednesday10:00 AM - 9:00 PM, Thursday10:00 AM - 9:00 PM, Friday10:00 AM - 9:00 PM, Saturday10:00 AM - 7:00 PM, Sunday11:00 AM - 6:00 PM",,,
West Covina,,1526 Plaza Dr.,,West Covina,California,91790,US,(626) 962-7411,,,"Monday10:00 AM - 9:00 PM, Tuesday10:00 AM - 9:00 PM, Wednesday10:00 AM - 9:00 PM, Thursday10:00 AM - 9:00 PM, Friday10:00 AM - 9:00 PM, Saturday10:00 AM - 9:00 PM, Sunday11:00 AM - 7:00 PM",,,
Oglethorpe,,7804 Abercorn St,,Savannah,Georgia,31406,US,(912) 355-5044,,,"Monday10:00 AM - 9:00 PM, Tuesday10:00 AM - 9:00 PM, Wednesday10:00 AM - 9:00 PM, Thursday10:00 AM - 9:00 PM, Friday10:00 AM - 9:00 PM, Saturday10:00 AM - 9:00 PM, Sunday12:00 PM - 6:00 PM",,,
Park Plaza,,6000 West Markham,,Little Rock,Arkansas,72205,US,(501) 664-2753,,,"Monday10:00 AM - 9:00 PM, Tuesday10:00 AM - 9:00 PM, Wednesday10:00 AM - 9:00 PM, Thursday10:00 AM - 9:00 PM, Friday10:00 AM - 9:00 PM, Saturday10:00 AM - 9:00 PM, Sunday12:00 PM - 6:00 PM",,,
The Shops at Wiregrass,,28210 Paseo Dr.,,Wesley Chapel,Florida,33543,US,(813) 973-1856,,,"Monday10:00 AM - 9:00 PM, Tuesday10:00 AM - 9:00 PM, Wednesday10:00 AM - 9:00 PM, Thursday10:00 AM - 9:00 PM, Friday10:00 AM - 9:00 PM, Saturday10:00 AM - 9:00 PM, Sunday12:00 PM - 6:00 PM",,,
The Shoppes at Eastchase,,7274 Eastchase Parkway,,Montgomery,Alabama,36117,US,(334) 328-3041,,,"Monday10:00 AM - 9:00 PM, Tuesday10:00 AM - 9:00 PM, Wednesday10:00 AM - 9:00 PM, Thursday10:00 AM - 9:00 PM, Friday10:00 AM - 9:00 PM, Saturday10:00 AM - 9:00 PM, Sunday1:00 PM - 6:00 PM",,,
Bel Air Mall,,3277 Bel Air Mall,,Mobile,Alabama,36606,US,(251) 479-5701,,,"Monday10:00 AM - 9:00 PM, Tuesday10:00 AM - 9:00 PM, Wednesday10:00 AM - 9:00 PM, Thursday10:00 AM - 9:00 PM, Friday10:00 AM - 9:00 PM, Saturday10:00 AM - 9:00 PM, Sunday12:00 PM - 5:30 PM",,,
Parkway Place,,2801 Memorial Parkway SW,,Huntsville,Alabama,35801,US,(256) 551-0817,,,"Monday10:00 AM - 9:00 PM, Tuesday10:00 AM - 9:00 PM, Wednesday10:00 AM - 9:00 PM, Thursday10:00 AM - 9:00 PM, Friday10:00 AM - 9:00 PM, Saturday10:00 AM - 9:00 PM, Sunday12:00 PM - 6:00 PM",,,
Town East Square,,7700 East Kellogg Dr.,,Wichita,Kansas,67207,US,(316) 652-0307,,,"Monday10:00 AM - 9:00 PM, Tuesday10:00 AM - 9:00 PM, Wednesday10:00 AM - 9:00 PM, Thursday10:00 AM - 9:00 PM, Friday10:00 AM - 9:00 PM, Saturday10:00 AM - 9:00 PM, Sunday12:00 PM - 6:00 PM",,,
Plaza Las Americas - Express Women,,525 Avenue FD Roosevelt,,San Juan,Puerto Rico,00918,PR,(787) 765-9873,,,"Monday9:00 AM - 9:00 PM, Tuesday9:00 AM - 9:00 PM, Wednesday9:00 AM - 9:00 PM, Thursday9:00 AM - 9:00 PM, Friday9:00 AM - 9:00 PM, Saturday9:00 AM - 9:00 PM, Sunday11:00 AM - 7:00 PM",,,
Towne West,,4600 West Kellogg,,Wichita,Kansas,67209,US,(316) 941-9992,,,"Monday10:00 AM - 9:00 PM, Tuesday10:00 AM - 9:00 PM, Wednesday10:00 AM - 9:00 PM, Thursday10:00 AM - 9:00 PM, Friday10:00 AM - 9:00 PM, Saturday10:00 AM - 9:00 PM, Sunday12:00 PM - 6:00 PM",,,
Plaza Las Americas - Express Men,,525 Avenue FD Roosevelt,,San Juan,Puerto Rico,00918,PR,(787) 765-9871,,,"Monday9:00 AM - 9:00 PM, Tuesday9:00 AM - 9:00 PM, Wednesday9:00 AM - 9:00 PM, Thursday9:00 AM - 9:00 PM, Friday9:00 AM - 9:00 PM, Saturday9:00 AM - 9:00 PM, Sunday11:00 AM - 7:00 PM",,,
Riverchase Galleria,,2000 River Chase Galleria,,Hoover,Alabama,35244,US,(205) 988-5939,,,"Monday10:00 AM - 9:00 PM, Tuesday10:00 AM - 9:00 PM, Wednesday10:00 AM - 9:00 PM, Thursday10:00 AM - 9:00 PM, Friday10:00 AM - 9:00 PM, Saturday10:00 AM - 9:00 PM, Sunday12:00 PM - 6:00 PM",,,
Valley West,,1551 Valley West Dr.,,West Des Moines,Iowa,50266,US,(515) 223-8447,,,"Monday10:00 AM - 9:00 PM, Tuesday10:00 AM - 9:00 PM, Wednesday10:00 AM - 9:00 PM, Thursday10:00 AM - 9:00 PM, Friday10:00 AM - 9:00 PM, Saturday10:00 AM - 9:00 PM, Sunday11:00 AM - 6:00 PM",,,
Jordan Creek,,101 Jordan Creek Parkway,,West Des Moines,Iowa,50266,US,(515) 224-9644,,,"Monday10:00 AM - 9:00 PM, Tuesday10:00 AM - 9:00 PM, Wednesday10:00 AM - 9:00 PM, Thursday10:00 AM - 9:00 PM, Friday10:00 AM - 9:00 PM, Saturday10:00 AM - 9:00 PM, Sunday11:00 AM - 6:00 PM",,,
Mall at Turtle Creek,,3000 East Highland Drive,,Jonesboro,Arkansas,72401,US,(870) 972-0409,,,"Monday10:00 AM - 9:00 PM, Tuesday10:00 AM - 9:00 PM, Wednesday10:00 AM - 9:00 PM, Thursday10:00 AM - 9:00 PM, Friday10:00 AM - 9:00 PM, Saturday10:00 AM - 9:00 PM, Sunday12:30 PM - 6:00 PM",,,
Northwest,,4201 N. Shiloh Dr,,Fayetteville,Arkansas,72703,US,(479) 582-0774,,,"Monday10:00 AM - 9:00 PM, Tuesday10:00 AM - 9:00 PM, Wednesday10:00 AM - 9:00 PM, Thursday10:00 AM - 9:00 PM, Friday10:00 AM - 9:00 PM, Saturday10:00 AM - 9:00 PM, Sunday12:00 PM - 6:00 PM",,,
Paradise Valley Mall,,4550 East Cactus Rd,,Phoenix,Arizona,85032,US,(602) 996-7681,,,"Monday10:00 AM - 9:00 PM, Tuesday10:00 AM - 9:00 PM, Wednesday10:00 AM - 9:00 PM, Thursday10:00 AM - 9:00 PM, Friday10:00 AM - 9:00 PM, Saturday10:00 AM - 9:00 PM, Sunday11:00 AM - 6:30 PM",,,
Arrowhead Twn Center,,7700 W Arrowhead Towne,,Glendale,Arizona,85308,US,(623) 412-8443,,,"Monday10:00 AM - 9:00 PM, Tuesday10:00 AM - 9:00 PM, Wednesday10:00 AM - 9:00 PM, Thursday10:00 AM - 9:00 PM, Friday10:00 AM - 9:00 PM, Saturday10:00 AM - 9:00 PM, Sunday11:00 AM - 6:00 PM",,,
Park Place,,5870 East Broadway Blvd.,,Tucson,Arizona,85711,US,(520) 747-4372,,,"Monday10:00 AM - 9:00 PM, Tuesday10:00 AM - 9:00 PM, Wednesday10:00 AM - 9:00 PM, Thursday10:00 AM - 9:00 PM, Friday10:00 AM - 9:00 PM, Saturday10:00 AM - 9:00 PM, Sunday11:00 AM - 6:00 PM",,,
Tucson Mall,,4500 N Oracle Rd,,Tucson,Arizona,85705,US,(520) 888-4294,,,"Monday10:00 AM - 9:00 PM, Tuesday10:00 AM - 9:00 PM, Wednesday10:00 AM - 9:00 PM, Thursday10:00 AM - 9:00 PM, Friday10:00 AM - 9:00 PM, Saturday10:00 AM - 9:00 PM, Sunday11:30 AM - 6:30 PM",,,
Chandler Fashion,,3111 West Chandler Blvd,,Chandler,Arizona,85226,US,(480) 917-3905,,,"Monday10:00 AM - 9:00 PM, Tuesday10:00 AM - 9:00 PM, Wednesday10:00 AM - 9:00 PM, Thursday10:00 AM - 9:00 PM, Friday10:00 AM - 9:00 PM, Saturday10:00 AM - 9:00 PM, Sunday11:00 AM - 6:00 PM",,,
Visalia Mall,,2031 S. Mooney Blvd,,Visalia,California,93277,US,(559) 697-6493,,,"Monday10:00 AM - 9:00 PM, Tuesday10:00 AM - 9:00 PM, Wednesday10:00 AM - 9:00 PM, Thursday10:00 AM - 9:00 PM, Friday10:00 AM - 9:00 PM, Saturday10:00 AM - 8:00 PM, Sunday11:00 AM - 6:00 PM",,,
Pacific View Mall,,3301-1 E. Main St.,,Ventura,California,93003,US,(805) 585-5533,,,"Monday10:00 AM - 9:00 PM, Tuesday10:00 AM - 9:00 PM, Wednesday10:00 AM - 9:00 PM, Thursday10:00 AM - 9:00 PM, Friday10:00 AM - 9:00 PM, Saturday10:00 AM - 9:00 PM, Sunday11:00 AM - 7:00 PM",,,
Valencia Town Center,,24201 Valencia Blvd.,,Valencia,California,91355,US,(661) 254-4768,,,"Monday10:00 AM - 9:00 PM, Tuesday10:00 AM - 9:00 PM, Wednesday10:00 AM - 9:00 PM, Thursday10:00 AM - 9:00 PM, Friday10:00 AM - 9:00 PM, Saturday10:00 AM - 9:00 PM, Sunday11:00 AM - 6:00 PM",,,
Del Amo Fashion Center,,21540 Hawthorne Blvd,,Torrance,California,90503,US,(310) 542-5662,,,"Monday10:00 AM - 9:00 PM, Tuesday10:00 AM - 9:00 PM, Wednesday10:00 AM - 9:00 PM, Thursday10:00 AM - 9:00 PM, Friday10:00 AM - 9:00 PM, Saturday10:00 AM - 8:00 PM, Sunday11:00 AM - 7:00 PM",,,
The Oaks,,202 W Hillcrest Dr.,,Thousand Oaks,California,91360,US,(805) 418-1749,,,"Monday10:00 AM - 9:00 PM, Tuesday10:00 AM - 9:00 PM, Wednesday10:00 AM - 9:00 PM, Thursday10:00 AM - 9:00 PM, Friday10:00 AM - 9:00 PM, Saturday10:00 AM - 9:00 PM, Sunday11:00 AM - 7:00 PM",,,
Promenade at Temecula,,40820 Winchester Road #2000,,Temecula,California,92591,US,(951) 296-2849,,,"Monday10:00 AM - 9:00 PM, Tuesday10:00 AM - 9:00 PM, Wednesday10:00 AM - 9:00 PM, Thursday10:00 AM - 9:00 PM, Friday10:00 AM - 9:00 PM, Saturday10:00 AM - 9:00 PM, Sunday11:00 AM - 7:00 PM",,,
Briargate,,1845 Briargate Pkwy,,Colorado Springs,Colorado,80920,US,(719) 598-4616,,,"Monday10:00 AM - 9:00 PM, Tuesday10:00 AM - 9:00 PM, Wednesday10:00 AM - 9:00 PM, Thursday10:00 AM - 9:00 PM, Friday10:00 AM - 9:00 PM, Saturday10:00 AM - 9:00 PM, Sunday11:00 AM - 6:00 PM",,,
Flatiron Crossing,,1 W. Flatiron Crossing,,Broomfield,Colorado,80021,US,(303) 469-6030,,,"Monday10:00 AM - 9:00 PM, Tuesday10:00 AM - 9:00 PM, Wednesday10:00 AM - 9:00 PM, Thursday10:00 AM - 9:00 PM, Friday10:00 AM - 9:00 PM, Saturday10:00 AM - 9:00 PM, Sunday11:00 AM - 6:00 PM",,,
Aurora Mall,,14200 E Alameda Ave,,Aurora,Colorado,80012,US,(303) 361-6650,,,"Monday10:00 AM - 9:00 PM, Tuesday10:00 AM - 9:00 PM, Wednesday10:00 AM - 9:00 PM, Thursday10:00 AM - 9:00 PM, Friday10:00 AM - 9:00 PM, Saturday10:00 AM - 9:00 PM, Sunday11:00 AM - 6:00 PM",,,
Sherwood,,5308 Pacific Avenue,,Stockton,California,95207,US,(209) 957-0557,,,"Monday10:00 AM - 9:00 PM, Tuesday10:00 AM - 9:00 PM, Wednesday10:00 AM - 9:00 PM, Thursday10:00 AM - 9:00 PM, Friday10:00 AM - 9:00 PM, Saturday10:00 AM - 9:00 PM, Sunday11:00 AM - 6:00 PM",,,
Scottsdale Fashion Square,,7014 E. Camelback Road,,Scottsdale,Arizona,85251,US,(480) 990-2993,,,"Monday10:00 AM - 9:00 PM, Tuesday10:00 AM - 9:00 PM, Wednesday10:00 AM - 9:00 PM, Thursday10:00 AM - 9:00 PM, Friday10:00 AM - 9:00 PM, Saturday10:00 AM - 9:00 PM, Sunday11:00 AM - 7:00 PM",,,
Paseo Nuevo,,621 Paseo Nuevo,,Santa Barbara,California,93101,US,(805) 560-7252,,,"Monday10:00 AM - 9:00 PM, Tuesday10:00 AM - 9:00 PM, Wednesday10:00 AM - 9:00 PM, Thursday10:00 AM - 9:00 PM, Friday10:00 AM - 9:00 PM, Saturday10:00 AM - 8:30 PM, Sunday11:00 AM - 7:00 PM",,,
Westfield Mainplace,,2800 N Main St,,Santa Ana,California,92705,US,(714) 543-4497,,,"Monday10:00 AM - 9:00 PM, Tuesday10:00 AM - 9:00 PM, Wednesday10:00 AM - 9:00 PM, Thursday10:00 AM - 9:00 PM, Friday10:00 AM - 9:00 PM, Saturday10:00 AM - 8:00 PM, Sunday11:00 AM - 7:00 PM",,,
Sherman Oaks Fashion,,14006 Riverside Dr,,Sherman Oaks,California,91423,US,(818) 789-7491,,,"Monday10:00 AM - 9:00 PM, Tuesday10:00 AM - 9:00 PM, Wednesday10:00 AM - 9:00 PM, Thursday10:00 AM - 9:00 PM, Friday10:00 AM - 9:00 PM, Saturday10:00 AM - 9:00 PM, Sunday11:00 AM - 7:00 PM",,,
Downtown Center,,887 Higuera St,,San Luis Obispo,California,93401,US,(805) 546-0784,,,"Monday10:00 AM - 9:00 PM, Tuesday10:00 AM - 9:00 PM, Wednesday10:00 AM - 9:00 PM, Thursday10:00 AM - 9:00 PM, Friday10:00 AM - 9:00 PM, Saturday10:00 AM - 7:00 PM, Sunday11:00 AM - 6:00 PM",,,
Oakridge,,925 Blossom Hill Road,,San Jose,California,95123,US,(408) 362-3439,,,"Monday10:00 AM - 7:00 PM, Tuesday10:00 AM - 9:00 PM, Wednesday10:00 AM - 9:00 PM, Thursday10:00 AM - 9:00 PM, Friday10:00 AM - 10:00 PM, Saturday10:00 AM - 10:00 PM, Sunday11:00 AM - 7:30 PM",,,
Scottsdale Quarter,,15257 N Scottsdale Blvd,,Scottsdale,Arizona,85260,US,(602) 635-4530,,,"Monday10:00 AM - 9:00 PM, Tuesday10:00 AM - 9:00 PM, Wednesday10:00 AM - 9:00 PM, Thursday10:00 AM - 9:00 PM, Friday10:00 AM - 9:00 PM, Saturday10:00 AM - 9:00 PM, Sunday11:00 AM - 6:00 PM",,,
Arden Fair Mall,,1689 Arden Way,,Sacramento,California,95815,US,(916) 924-7042,,,"Monday10:00 AM - 9:00 PM, Tuesday10:00 AM - 9:00 PM, Wednesday10:00 AM - 9:00 PM, Thursday10:00 AM - 9:00 PM, Friday10:00 AM - 9:00 PM, Saturday10:00 AM - 9:00 PM, Sunday11:00 AM - 7:00 PM",,,
Santa Rosa,,571 Santa Rosa Plaza,,Santa Rosa,California,95401,US,(707) 523-0483,,,"Monday10:00 AM - 9:00 PM, Tuesday10:00 AM - 9:00 PM, Wednesday10:00 AM - 9:00 PM, Thursday10:00 AM - 9:00 PM, Friday10:00 AM - 9:00 PM, Saturday10:00 AM - 8:00 PM, Sunday11:00 AM - 6:00 PM",,,
Galleria at Roseville,,1151 Harding Blvd.,,Roseville,California,95678,US,(916) 784-1303,,,"Monday10:00 AM - 9:00 PM, Tuesday10:00 AM - 9:00 PM, Wednesday10:00 AM - 9:00 PM, Thursday10:00 AM - 9:00 PM, Friday10:00 AM - 9:00 PM, Saturday10:00 AM - 9:00 PM, Sunday11:00 AM - 7:00 PM",,,
Park Meadows,,8505 Park Meadows Center,,Littleton,Colorado,80124,US,(303) 790-7614,,,"Monday10:00 AM - 9:30 PM, Tuesday10:00 AM - 9:30 PM, Wednesday10:00 AM - 9:00 PM, Thursday10:00 AM - 9:00 PM, Friday10:00 AM - 9:00 PM, Saturday10:00 AM - 9:00 PM, Sunday10:00 AM - 7:00 PM",,,
Denver Pavilions,,500 16th St,,Denver,Colorado,80202,US,(303) 893-2076,,,"Monday10:00 AM - 9:00 PM, Tuesday10:00 AM - 9:00 PM, Wednesday10:00 AM - 9:00 PM, Thursday10:00 AM - 9:00 PM, Friday10:00 AM - 9:00 PM, Saturday10:00 AM - 9:00 PM, Sunday11:00 AM - 6:00 PM",,,
Cherry Creek Shopping Center,,300 East First Avenue,,Denver,Colorado,80206,US,(303) 329-0024,,,"Monday10:00 AM - 9:00 PM, Tuesday10:00 AM - 9:00 PM, Wednesday10:00 AM - 9:00 PM, Thursday10:00 AM - 9:00 PM, Friday10:00 AM - 9:00 PM, Saturday10:00 AM - 9:00 PM, Sunday11:00 AM - 6:00 PM",,,
Southwest Plaza,,8501 W Bowles Ave,,Littleton,Colorado,80123,US,(303) 973-7338,,,"Monday10:00 AM - 9:00 PM, Tuesday10:00 AM - 9:00 PM, Wednesday10:00 AM - 9:00 PM, Thursday10:00 AM - 9:00 PM, Friday10:00 AM - 9:00 PM, Saturday10:00 AM - 9:00 PM, Sunday11:00 AM - 6:00 PM",,,
Tyler,,2176 Galleria @ Tyler,,Riverside,California,92503,US,(951) 352-4919,,,"Monday10:00 AM - 9:00 PM, Tuesday10:00 AM - 9:00 PM, Wednesday10:00 AM - 9:00 PM, Thursday10:00 AM - 9:00 PM, Friday10:00 AM - 9:00 PM, Saturday10:00 AM - 9:00 PM, Sunday11:00 AM - 7:00 PM",,,
Southbay Galleria,,1815 Hawthorne Blvd.,,Redondo Beach,California,90278,US,(310) 542-9885,,,"Monday10:00 AM - 9:00 PM, Tuesday10:00 AM - 9:00 PM, Wednesday10:00 AM - 9:00 PM, Thursday10:00 AM - 9:00 PM, Friday10:00 AM - 9:00 PM, Saturday10:00 AM - 8:00 PM, Sunday11:00 AM - 7:00 PM",,,
Valley Fair Mall,,2855 Stevens Creek Boulevard,,Santa Clara,California,95050,US,(408) 247-6046,,,"Monday10:00 AM - 9:30 PM, Tuesday10:00 AM - 9:30 PM, Wednesday10:00 AM - 9:30 PM, Thursday10:00 AM - 9:30 PM, Friday10:00 AM - 9:30 PM, Saturday10:00 AM - 9:00 PM, Sunday11:00 AM - 7:00 PM",,,
Victoria Gardens,,12559 South Mainstreet,,Rancho Cucamonga,California,91739,US,(909) 463-4167,,,"Monday10:00 AM - 9:00 PM, Tuesday10:00 AM - 9:00 PM, Wednesday10:00 AM - 9:00 PM, Thursday10:00 AM - 9:00 PM, Friday10:00 AM - 10:00 PM, Saturday10:00 AM - 10:00 PM, Sunday11:00 AM - 7:00 PM",,,
Stoneridge Mall,,1224 Stoneridge Mall Rd,,Pleasanton,California,94588,US,(925) 847-8724,,,"Monday10:00 AM - 9:00 PM, Tuesday10:00 AM - 9:00 PM, Wednesday10:00 AM - 9:00 PM, Thursday10:00 AM - 9:00 PM, Friday10:00 AM - 9:00 PM, Saturday10:00 AM - 9:00 PM, Sunday11:00 AM - 7:00 PM",,,
Antelope Valley,,1233 Rancho Vista Blvd,,Palmdale,California,93551,US,(661) 225-9856,,,"Monday10:00 AM - 9:00 PM, Tuesday10:00 AM - 9:00 PM, Wednesday10:00 AM - 9:00 PM, Thursday10:00 AM - 9:00 PM, Friday10:00 AM - 9:00 PM, Saturday10:00 AM - 8:00 PM, Sunday11:00 AM - 6:00 PM",,,
Palm Desert,,72840 Highway 111,,Palm Desert,California,92260,US,(760) 773-5332,,,"Monday10:00 AM - 8:00 PM, Tuesday10:00 AM - 8:00 PM, Wednesday10:00 AM - 8:00 PM, Thursday10:00 AM - 8:00 PM, Friday10:00 AM - 9:00 PM, Saturday10:00 AM - 9:00 PM, Sunday11:00 AM - 7:00 PM",,,
Fashion Island,,367 Newport Ctr Dr,,Newport Beach,California,92660,US,(949) 720-9252,,,"Monday10:00 AM - 9:00 PM, Tuesday10:00 AM - 9:00 PM, Wednesday10:00 AM - 9:00 PM, Thursday10:00 AM - 9:00 PM, Friday10:00 AM - 9:00 PM, Saturday10:00 AM - 8:00 PM, Sunday10:30 AM - 7:00 PM",,,
New Park,,2086 Newpark Mall,,Newark,California,94560,US,(510) 494-8085,,,"Monday10:00 AM - 9:00 PM, Tuesday10:00 AM - 9:00 PM, Wednesday10:00 AM - 9:00 PM, Thursday10:00 AM - 9:00 PM, Friday10:00 AM - 9:00 PM, Saturday10:00 AM - 9:00 PM, Sunday11:00 AM - 7:00 PM",,,
Plaza Bonita,,3030 Plaza Bonita Rd.,,National City,California,91950,US,(619) 267-4647,,,"Monday10:00 AM - 9:00 PM, Tuesday10:00 AM - 9:00 PM, Wednesday10:00 AM - 9:00 PM, Thursday10:00 AM - 9:00 PM, Friday10:00 AM - 9:00 PM, Saturday10:00 AM - 9:00 PM, Sunday11:00 AM - 7:00 PM",,,
San Francisco Centre,,865 Market Street,,San Francisco,California,94103,US,(415) 357-1345,,,"Monday10:00 AM - 8:30 PM, Tuesday10:00 AM - 8:30 PM, Wednesday10:00 AM - 8:30 PM, Thursday10:00 AM - 8:30 PM, Friday10:00 AM - 8:30 PM, Saturday10:00 AM - 8:30 PM, Sunday11:00 AM - 7:00 PM",,,
Fashion Valley,,7007 Friars Road,,San Diego,California,92108,US,(619) 296-8161,,,"Monday10:00 AM - 9:00 PM, Tuesday10:00 AM - 9:00 PM, Wednesday10:00 AM - 9:00 PM, Thursday10:00 AM - 9:00 PM, Friday10:00 AM - 9:00 PM, Saturday10:00 AM - 9:00 PM, Sunday",,,
Horton Plaza,,324 Horton Plaza,,San Diego,California,92101,US,(619) 550-3462,,,"Monday10:00 AM - 8:00 PM, Tuesday10:00 AM - 8:00 PM, Wednesday10:00 AM - 8:00 PM, Thursday10:00 AM - 8:00 PM, Friday10:00 AM - 8:00 PM, Saturday10:00 AM - 8:00 PM, Sunday11:00 AM - 6:00 PM",,,
Mission Valley Shopping Center,,1640 Camino Del Rio N.,,San Diego,California,92108,US,(619) 291-1346,,,"Monday10:00 AM - 9:00 PM, Tuesday10:00 AM - 9:00 PM, Wednesday10:00 AM - 9:00 PM, Thursday10:00 AM - 9:00 PM, Friday10:00 AM - 9:00 PM, Saturday10:00 AM - 9:00 PM, Sunday11:00 AM - 6:00 PM",,,
Stonestown,,3251 20th Ave.,,San Francisco,California,94132,US,(415) 731-1403,,,"Monday, Tuesday, Wednesday, Thursday, Friday, Saturday, Sunday",,,
Union Square,,301 Geary Street,,San Francisco,California,94108,US,(415) 423-3257,,,"Monday10:00 AM - 9:00 PM, Tuesday10:00 AM - 9:00 PM, Wednesday10:00 AM - 9:00 PM, Thursday10:00 AM - 9:00 PM, Friday10:00 AM - 9:00 PM, Saturday10:00 AM - 9:00 PM, Sunday10:00 AM - 8:00 PM",,,
Moreno Valley,,22500 Towngate Circle,,Moreno Valley,California,92557,US,(951) 653-3128,,,"Monday10:00 AM - 9:00 PM, Tuesday10:00 AM - 9:00 PM, Wednesday10:00 AM - 9:00 PM, Thursday10:00 AM - 9:00 PM, Friday10:00 AM - 9:00 PM, Saturday10:00 AM - 9:00 PM, Sunday11:00 AM - 7:00 PM",,,
Del Monte Center,,222 Del Monte Center,,Monterey,California,93940,US,(831) 647-1032,,,"Monday10:00 AM - 9:00 PM, Tuesday10:00 AM - 9:00 PM, Wednesday10:00 AM - 9:00 PM, Thursday10:00 AM - 9:00 PM, Friday10:00 AM - 9:00 PM, Saturday10:00 AM - 8:00 PM, Sunday11:00 AM - 6:00 PM",,,
Northridge Fashion,,9301 Tampa Ave,,Northridge,California,91324,US,(818) 993-5058,,,"Monday10:00 AM - 9:00 PM, Tuesday10:00 AM - 9:00 PM, Wednesday10:00 AM - 9:00 PM, Thursday10:00 AM - 9:00 PM, Friday10:00 AM - 9:00 PM, Saturday10:00 AM - 9:00 PM, Sunday10:30 AM - 7:00 PM",,,
University Town Center Mall,,4485 La Jolla Village Drive,,San Diego,California,92122,US,(858) 453-9093,,,"Monday10:00 AM - 9:00 PM, Tuesday10:00 AM - 9:00 PM, Wednesday10:00 AM - 9:00 PM, Thursday10:00 AM - 9:00 PM, Friday10:00 AM - 9:00 PM, Saturday10:00 AM - 9:00 PM, Sunday11:00 AM - 7:00 PM",,,
Montebello Town Cente,,2131 Montebello Town Center,,Montebello,California,90640,US,(323) 728-0124,,,"Monday10:00 AM - 9:00 PM, Tuesday10:00 AM - 9:00 PM, Wednesday10:00 AM - 9:00 PM, Thursday10:00 AM - 9:00 PM, Friday10:00 AM - 9:00 PM, Saturday10:00 AM - 9:00 PM, Sunday11:00 AM - 7:00 PM",,,
Montclair Plaza,,2149 Montclair Plaza,,Montclair,California,91763,US,(909) 621-1772,,,"Monday10:00 AM - 9:00 PM, Tuesday10:00 AM - 9:00 PM, Wednesday10:00 AM - 9:00 PM, Thursday10:00 AM - 9:00 PM, Friday10:00 AM - 9:00 PM, Saturday10:00 AM - 9:00 PM, Sunday11:00 AM - 7:00 PM",,,
Vintage Faire,,3401 Dale Rd,,Modesto,California,95356,US,(209) 575-4399,,,"Monday10:00 AM - 9:00 PM, Tuesday10:00 AM - 9:00 PM, Wednesday10:00 AM - 9:00 PM, Thursday10:00 AM - 9:00 PM, Friday10:00 AM - 9:00 PM, Saturday10:00 AM - 9:00 PM, Sunday11:00 AM - 7:00 PM",,,
Mission Viejo,,27000 Crown Valley Pkwy,,Mission Viejo,California,92691,US,(949) 347-1299,,,"Monday10:00 AM - 9:00 PM, Tuesday10:00 AM - 9:00 PM, Wednesday10:00 AM - 9:00 PM, Thursday10:00 AM - 9:00 PM, Friday10:00 AM - 9:00 PM, Saturday10:00 AM - 8:00 PM, Sunday11:00 AM - 6:00 PM",,,
Lakewood Center Mall,,500 Lakewood Center Mall,,Lakewood,California,90712,US,(562) 297-0191,,,"Monday10:00 AM - 9:00 PM, Tuesday10:00 AM - 9:00 PM, Wednesday10:00 AM - 9:00 PM, Thursday10:00 AM - 9:00 PM, Friday10:00 AM - 9:00 PM, Saturday10:00 AM - 8:00 PM, Sunday11:00 AM - 7:00 PM",,,
Glendale Galleria,,100 West Broadway,,Glendale,California,91210,US,(818) 551-1635,,,"Monday10:00 AM - 9:00 PM, Tuesday10:00 AM - 9:00 PM, Wednesday10:00 AM - 9:00 PM, Thursday10:00 AM - 9:00 PM, Friday10:00 AM - 9:00 PM, Saturday10:00 AM - 9:00 PM, Sunday11:00 AM - 7:00 PM",,,
Fresno Fashion Fair,,683 East Shaw Ave.,,Fresno,California,93710,US,(559) 221-6236,,,"Monday10:00 AM - 9:00 PM, Tuesday10:00 AM - 9:00 PM, Wednesday10:00 AM - 9:00 PM, Thursday10:00 AM - 9:00 PM, Friday10:00 AM - 9:00 PM, Saturday10:00 AM - 9:00 PM, Sunday11:00 AM - 7:00 PM",,,
Solano,,1350 Travis Blvd.,,Fairfield,California,94533,US,(707) 421-8641,,,"Monday10:00 AM - 9:00 PM, Tuesday10:00 AM - 9:00 PM, Wednesday10:00 AM - 9:00 PM, Thursday10:00 AM - 9:00 PM, Friday10:00 AM - 9:00 PM, Saturday10:00 AM - 9:00 PM, Sunday11:00 AM - 6:00 PM",,,
North County Fair,,200 E Via Rancho Pkwy,,Escondido,California,92025,US,(760) 741-0417,,,"Monday10:00 AM - 9:00 PM, Tuesday10:00 AM - 9:00 PM, Wednesday10:00 AM - 9:00 PM, Thursday10:00 AM - 9:00 PM, Friday10:00 AM - 9:00 PM, Saturday10:00 AM - 9:00 PM, Sunday11:00 AM - 7:00 PM",,,
Bay Street,,5680 Bay Street,,Emeryville,California,94608,US,(510) 450-0956,,,"Monday10:00 AM - 8:30 PM, Tuesday10:00 AM - 8:30 PM, Wednesday10:00 AM - 8:30 PM, Thursday10:00 AM - 9:00 PM, Friday10:00 AM - 9:00 PM, Saturday10:00 AM - 9:00 PM, Sunday11:00 AM - 7:30 PM",,,
Imperial Valley,,3451 S Dogwood Road,,El Centro,California,92243,US,(760) 336-2519,,,"Monday10:00 AM - 9:00 PM, Tuesday10:00 AM - 9:00 PM, Wednesday10:00 AM - 9:00 PM, Thursday10:00 AM - 9:00 PM, Friday10:00 AM - 9:00 PM, Saturday10:00 AM - 9:00 PM, Sunday11:00 AM - 7:00 PM",,,
Stonewood,,234 Stonewood Street,,Downey,California,90241,US,(562) 869-1243,,,"Monday10:00 AM - 9:00 PM, Tuesday10:00 AM - 9:00 PM, Wednesday10:00 AM - 9:00 PM, Thursday10:00 AM - 9:00 PM, Friday10:00 AM - 9:00 PM, Saturday10:00 AM - 8:00 PM, Sunday11:00 AM - 7:00 PM",,,
Westfield Culver City Shopping Center,,6000 Sepulveda Boulevard,,Culver City,California,90230,US,(310) 482-3993,,,"Monday10:00 AM - 9:00 PM, Tuesday10:00 AM - 9:00 PM, Wednesday10:00 AM - 9:00 PM, Thursday10:00 AM - 9:00 PM, Friday10:00 AM - 9:00 PM, Saturday10:00 AM - 9:00 PM, Sunday11:00 AM - 7:00 PM",,,
South Coast Plaza,,3333 Bristol St.,,Costa Mesa,California,92626,US,(714) 540-5830,,,"Monday10:00 AM - 9:00 PM, Tuesday10:00 AM - 9:00 PM, Wednesday10:00 AM - 9:00 PM, Thursday10:00 AM - 9:00 PM, Friday10:00 AM - 9:00 PM, Saturday10:00 AM - 8:30 PM, Sunday10:30 AM - 7:30 PM",,,
Sunvalley Shopping Center,,1 Sunvalley Mall,,Concord,California,94520,US,(925) 825-7567,,,"Monday10:00 AM - 9:00 PM, Tuesday10:00 AM - 9:00 PM, Wednesday10:00 AM - 9:00 PM, Thursday10:00 AM - 9:00 PM, Friday10:00 AM - 9:00 PM, Saturday10:00 AM - 9:00 PM, Sunday11:00 AM - 7:00 PM",,,
Sunrise Center,,6040 Sunrise Blvd.,,Citrus Heights,California,95610,US,(916) 967-2008,,,"Monday10:00 AM - 9:00 PM, Tuesday10:00 AM - 9:00 PM, Wednesday10:00 AM - 9:00 PM, Thursday10:00 AM - 9:00 PM, Friday10:00 AM - 9:00 PM, Saturday10:00 AM - 9:00 PM, Sunday11:00 AM - 7:00 PM",,,
Chula Vista Shopping,,555 Broadway,,Chula Vista,California,91910,US,(619) 420-6523,,,"Monday10:00 AM - 9:00 PM, Tuesday10:00 AM - 9:00 PM, Wednesday10:00 AM - 9:00 PM, Thursday10:00 AM - 9:00 PM, Friday10:00 AM - 9:00 PM, Saturday10:00 AM - 9:00 PM, Sunday11:00 AM - 6:00 PM",,,
Los Cerritos Center,,448 Los Cerritos,,Cerritos,California,90703,US,(562) 865-2250,,,"Monday10:00 AM - 9:00 PM, Tuesday10:00 AM - 9:00 PM, Wednesday10:00 AM - 9:00 PM, Thursday10:00 AM - 9:00 PM, Friday10:00 AM - 9:00 PM, Saturday10:00 AM - 8:00 PM, Sunday11:00 AM - 7:00 PM",,,
Capitola Mall,,1855 41st Ave,,Capitola,California,95010,US,(831) 462-1299,,,"Monday10:00 AM - 9:00 PM, Tuesday10:00 AM - 9:00 PM, Wednesday10:00 AM - 9:00 PM, Thursday10:00 AM - 9:00 PM, Friday10:00 AM - 9:00 PM, Saturday10:00 AM - 8:00 PM, Sunday11:00 AM - 6:00 PM",,,
Beverly Center,,8522 Beverly Blvd.,,Los Angeles,California,90048,US,(310) 659-1248,,,"Monday10:00 AM - 9:00 PM, Tuesday10:00 AM - 9:00 PM, Wednesday10:00 AM - 9:00 PM, Thursday10:00 AM - 9:00 PM, Friday10:00 AM - 9:00 PM, Saturday10:00 AM - 8:00 PM, Sunday11:00 AM - 6:00 PM",,,
Westside,,10800 W. Pico Blvd.,,Los Angeles,California,90064,US,(310) 446-1722,,,"Monday10:00 AM - 7:00 PM, Tuesday10:00 AM - 9:00 PM, Wednesday10:00 AM - 9:00 PM, Thursday10:00 AM - 9:00 PM, Friday10:00 AM - 9:00 PM, Saturday10:00 AM - 8:00 PM, Sunday11:00 AM - 6:00 PM",,,
Dos Lagos,,2790 Cabot Dr,,Corona,California,92883,US,(951) 277-7652,,,"Monday10:00 AM - 8:00 PM, Tuesday10:00 AM - 8:00 PM, Wednesday10:00 AM - 8:00 PM, Thursday10:00 AM - 8:00 PM, Friday10:00 AM - 8:00 PM, Saturday10:00 AM - 8:00 PM, Sunday11:00 AM - 6:00 PM",,,
Topanga,,6600 Topanga Canyon Blvd.,,Canoga Park,California,91303,US,(818) 887-2453,,,"Monday10:00 AM - 9:00 PM, Tuesday10:00 AM - 9:00 PM, Wednesday10:00 AM - 9:00 PM, Thursday10:00 AM - 9:00 PM, Friday10:00 AM - 9:00 PM, Saturday10:00 AM - 9:00 PM, Sunday11:00 AM - 7:00 PM",,,
Brea Mall,,2041 Brea Mall,,Brea,California,92821,US,(714) 990-0288,,,"Monday10:00 AM - 9:00 PM, Tuesday10:00 AM - 9:00 PM, Wednesday10:00 AM - 9:00 PM, Thursday10:00 AM - 9:00 PM, Friday10:00 AM - 9:00 PM, Saturday10:00 AM - 8:00 PM, Sunday11:00 AM - 6:00 PM",,,
Carlsbad,,2525 El Camino Real,,Carlsbad,California,92008,US,(760) 434-2138,,,"Monday10:00 AM - 9:00 PM, Tuesday10:00 AM - 9:00 PM, Wednesday10:00 AM - 9:00 PM, Thursday10:00 AM - 9:00 PM, Friday10:00 AM - 9:00 PM, Saturday10:00 AM - 8:00 PM, Sunday11:00 AM - 6:00 PM",,,
Valley Plaza,,2701 Ming Ave.,,Bakersfield,California,93304,US,(661) 398-5530,,,"Monday10:00 AM - 9:00 PM, Tuesday10:00 AM - 9:00 PM, Wednesday10:00 AM - 9:00 PM, Thursday10:00 AM - 9:00 PM, Friday10:00 AM - 9:00 PM, Saturday10:00 AM - 9:00 PM, Sunday11:00 AM - 6:00 PM",,,
Santa Anita Fashion,,400 S Baldwin Ave,,Arcadia,California,91007,US,(626) 445-2449,,,"Monday10:00 AM - 9:00 PM, Tuesday10:00 AM - 9:00 PM, Wednesday10:00 AM - 9:00 PM, Thursday10:00 AM - 9:00 PM, Friday10:00 AM - 9:00 PM, Saturday10:00 AM - 9:00 PM, Sunday11:00 AM - 7:00 PM",,,
Crystal Mall,,850 Hartford Turnpike,,Waterford,Connecticut,06385,US,(860) 442-8167,,,"Monday10:00 AM - 9:00 PM, Tuesday10:00 AM - 9:00 PM, Wednesday10:00 AM - 9:00 PM, Thursday10:00 AM - 9:00 PM, Friday10:00 AM - 9:00 PM, Saturday10:00 AM - 9:00 PM, Sunday11:00 AM - 6:00 PM",,,
Trumbull,,5065 Main St,,Trumbull,Connecticut,06611,US,(203) 374-8804,,,"Monday10:00 AM - 9:00 PM, Tuesday10:00 AM - 9:00 PM, Wednesday10:00 AM - 9:00 PM, Thursday10:00 AM - 9:00 PM, Friday10:00 AM - 9:00 PM, Saturday10:00 AM - 9:00 PM, Sunday11:00 AM - 6:00 PM",,,
Brass Mill Center,,495 Union Street,,Waterbury,Connecticut,06706,US,(203) 577-5453,,,"Monday10:00 AM - 9:00 PM, Tuesday10:00 AM - 9:00 PM, Wednesday10:00 AM - 9:00 PM, Thursday10:00 AM - 9:00 PM, Friday10:00 AM - 9:00 PM, Saturday10:00 AM - 9:00 PM, Sunday12:00 PM - 6:00 PM",,,
Streets at Brentwood,,2545 Sand Creek Rd,,Brentwood,California,94513,US,(925) 513-7946,,,"Monday10:00 AM - 9:00 PM, Tuesday10:00 AM - 9:00 PM, Wednesday10:00 AM - 9:00 PM, Thursday10:00 AM - 9:00 PM, Friday10:00 AM - 9:00 PM, Saturday10:00 AM - 9:00 PM, Sunday11:00 AM - 6:00 PM",,,
Meriden Square,,470 Lewis Ave,,Meriden,Connecticut,06451,US,(203) 686-1620,,,"Monday10:00 AM - 9:00 PM, Tuesday10:00 AM - 9:00 PM, Wednesday10:00 AM - 9:00 PM, Thursday10:00 AM - 9:00 PM, Friday10:00 AM - 9:00 PM, Saturday10:00 AM - 9:00 PM, Sunday11:00 AM - 6:00 PM",,,
Connecticut Post,,1201 Boston Post Rd,,Milford,Connecticut,06460,US,(203) 878-5567,,,"Monday10:00 AM - 9:00 PM, Tuesday10:00 AM - 9:00 PM, Wednesday10:00 AM - 9:00 PM, Thursday10:00 AM - 9:00 PM, Friday10:00 AM - 9:00 PM, Saturday10:00 AM - 9:00 PM, Sunday11:00 AM - 6:00 PM",,,
Buckland Hills,,194 Buckland Hills Dr,,Manchester,Connecticut,06040,US,(860) 644-9973,,,"Monday10:00 AM - 9:00 PM, Tuesday10:00 AM - 9:00 PM, Wednesday10:00 AM - 9:00 PM, Thursday10:00 AM - 9:00 PM, Friday10:00 AM - 9:00 PM, Saturday10:00 AM - 9:00 PM, Sunday11:00 AM - 6:00 PM",,,
Stamford Town Center,,100 Greyrock Place,,Stamford,Connecticut,06901,US,(203) 327-5030,,,"Monday10:00 AM - 9:00 PM, Tuesday10:00 AM - 9:00 PM, Wednesday10:00 AM - 9:00 PM, Thursday10:00 AM - 9:00 PM, Friday10:00 AM - 9:00 PM, Saturday10:00 AM - 9:00 PM, Sunday11:00 AM - 6:00 PM",,,
Westfarms,,500 Westfarms Mall,,Farmington,Connecticut,06032,US,(860) 561-4555,,,"Monday10:00 AM - 9:30 PM, Tuesday10:00 AM - 9:30 PM, Wednesday10:00 AM - 9:30 PM, Thursday10:00 AM - 9:30 PM, Friday10:00 AM - 9:30 PM, Saturday10:00 AM - 9:30 PM, Sunday11:00 AM - 6:00 PM",,,
Enfield,,90 Elm St,,Enfield,Connecticut,06082,US,(860) 741-8443,,,"Monday10:00 AM - 9:00 PM, Tuesday10:00 AM - 9:00 PM, Wednesday10:00 AM - 9:00 PM, Thursday10:00 AM - 9:00 PM, Friday10:00 AM - 9:00 PM, Saturday10:00 AM - 9:00 PM, Sunday11:00 AM - 6:00 PM",,,
Danbury Fair,,7 Backus Ave,,Danbury,Connecticut,06810,US,(203) 790-6513,,,"Monday10:00 AM - 9:30 PM, Tuesday10:00 AM - 9:30 PM, Wednesday10:00 AM - 9:30 PM, Thursday10:00 AM - 9:30 PM, Friday10:00 AM - 9:30 PM, Saturday10:00 AM - 9:30 PM, Sunday11:00 AM - 7:00 PM",,,
Mall at Wellington,,10300 West Forest Hill,,Wellington,Florida,33414,US,(561) 753-6907,,,"Monday10:00 AM - 9:00 PM, Tuesday10:00 AM - 9:00 PM, Wednesday10:00 AM - 9:00 PM, Thursday10:00 AM - 9:00 PM, Friday10:00 AM - 9:00 PM, Saturday10:00 AM - 9:00 PM, Sunday11:00 AM - 6:00 PM",,,
Indian River,,6200 20th St,,Vero Beach,Florida,32966,US,(772) 562-7411,,,"Monday10:00 AM - 9:00 PM, Tuesday10:00 AM - 9:00 PM, Wednesday10:00 AM - 9:00 PM, Thursday10:00 AM - 9:00 PM, Friday10:00 AM - 9:00 PM, Saturday10:00 AM - 9:00 PM, Sunday12:00 PM - 6:00 PM",,,
Tyrone Square,,6901 22nd Ave N,,St. Petersburg,Florida,33710,US,(727) 343-8311,,,"Monday10:00 AM - 9:00 PM, Tuesday10:00 AM - 9:00 PM, Wednesday10:00 AM - 9:00 PM, Thursday10:00 AM - 9:00 PM, Friday10:00 AM - 9:00 PM, Saturday10:00 AM - 9:00 PM, Sunday11:00 AM - 6:00 PM",,,
Seminole Town Center,,130 Town Center Circle,,Sanford,Florida,32771,US,(407) 792-0138,,,"Monday10:00 AM - 9:00 PM, Tuesday10:00 AM - 9:00 PM, Wednesday10:00 AM - 9:00 PM, Thursday10:00 AM - 9:00 PM, Friday10:00 AM - 9:00 PM, Saturday10:00 AM - 9:00 PM, Sunday12:00 PM - 6:00 PM",,,
Broward Mall,,8000 Broward Blvd.,,Plantation,Florida,33388,US,(954) 473-2401,,,"Monday10:00 AM - 9:00 PM, Tuesday10:00 AM - 9:00 PM, Wednesday10:00 AM - 9:00 PM, Thursday10:00 AM - 9:00 PM, Friday10:00 AM - 9:00 PM, Saturday10:00 AM - 9:00 PM, Sunday11:00 AM - 7:00 PM",,,
Pembroke Lakes Mall,,11401 Pines Blvd.,,Pembroke Pines,Florida,33026,US,(954) 432-3782,,,"Monday10:00 AM - 9:00 PM, Tuesday10:00 AM - 9:00 PM, Wednesday10:00 AM - 9:00 PM, Thursday10:00 AM - 9:00 PM, Friday10:00 AM - 9:00 PM, Saturday10:00 AM - 9:00 PM, Sunday12:00 PM - 6:00 PM",,,
Cordova Mall,,5100 North 9th Ave,,Pensacola,Florida,32504,US,(850) 475-5946,,,"Monday10:00 AM - 9:00 PM, Tuesday10:00 AM - 9:00 PM, Wednesday10:00 AM - 9:00 PM, Thursday10:00 AM - 9:00 PM, Friday10:00 AM - 9:00 PM, Saturday10:00 AM - 9:00 PM, Sunday12:00 PM - 6:00 PM",,,
The Gardens Mall,,3101 Pga Blvd.,,Palm Beach,Florida,33410,US,(561) 799-2814,,,"Monday10:00 AM - 9:00 PM, Tuesday10:00 AM - 9:00 PM, Wednesday10:00 AM - 9:00 PM, Thursday10:00 AM - 9:00 PM, Friday10:00 AM - 9:00 PM, Saturday10:00 AM - 9:00 PM, Sunday12:00 PM - 6:00 PM",,,
Oviedo Marketplace,,1485 Oviedo Marketplace Blvd,,Oviedo,Florida,32765,US,(407) 971-9504,,,"Monday10:00 AM - 9:00 PM, Tuesday10:00 AM - 9:00 PM, Wednesday10:00 AM - 9:00 PM, Thursday10:00 AM - 9:00 PM, Friday10:00 AM - 9:00 PM, Saturday10:00 AM - 9:00 PM, Sunday12:00 PM - 6:00 PM",,,
Coastland,,1764 Tamiami Trail N,,Naples,Florida,34102,US,(239) 434-0353,,,"Monday10:00 AM - 9:00 PM, Tuesday10:00 AM - 9:00 PM, Wednesday10:00 AM - 9:00 PM, Thursday10:00 AM - 9:00 PM, Friday10:00 AM - 9:00 PM, Saturday10:00 AM - 9:00 PM, Sunday12:00 PM - 6:00 PM",,,
The Shops at Sunset Place,,5701 Sunset Drive,,South Miami,Florida,33143,US,(786) 507-5523,,,"Monday10:00 AM - 9:00 PM, Tuesday10:00 AM - 9:00 PM, Wednesday10:00 AM - 9:00 PM, Thursday10:00 AM - 9:00 PM, Friday10:00 AM - 10:00 PM, Saturday10:00 AM - 10:00 PM, Sunday11:00 AM - 7:00 PM",,,
Lincoln Road Mall,,1036 Lincoln Rd.,,Miami Beach,Florida,33139,US,(305) 538-9345,,,"Monday11:00 AM - 10:00 PM, Tuesday11:00 AM - 10:00 PM, Wednesday11:00 AM - 10:00 PM, Thursday11:00 AM - 10:00 PM, Friday11:00 AM - 11:00 PM, Saturday11:00 AM - 11:00 PM, Sunday11:00 AM - 10:00 PM",,,
Melbourne Square,,1700 W. New Haven Rd.,,Melbourne,Florida,32904,US,(321) 369-9057,,,"Monday10:00 AM - 9:00 PM, Tuesday10:00 AM - 9:00 PM, Wednesday10:00 AM - 9:00 PM, Thursday10:00 AM - 9:00 PM, Friday10:00 AM - 9:00 PM, Saturday10:00 AM - 9:00 PM, Sunday12:00 PM - 6:00 PM",,,
Duval Street,,431 Duval Street,,Key West,Florida,33040,US,(305) 294-4617,,,"Monday10:00 AM - 9:00 PM, Tuesday10:00 AM - 9:00 PM, Wednesday10:00 AM - 9:00 PM, Thursday10:00 AM - 9:00 PM, Friday10:00 AM - 9:00 PM, Saturday10:00 AM - 9:00 PM, Sunday11:00 AM - 7:00 PM",,,
Treasure Coast Square,,3148A NW Federal Highway,,Jensen Beach,Florida,34957,US,(772) 232-8254,,,"Monday10:00 AM - 9:00 PM, Tuesday10:00 AM - 9:00 PM, Wednesday10:00 AM - 9:00 PM, Thursday10:00 AM - 9:00 PM, Friday10:00 AM - 9:00 PM, Saturday10:00 AM - 9:00 PM, Sunday12:00 PM - 6:00 PM",,,
Citrus Park Town Ctr,,7926 Citrus Park Town Center,,Tampa,Florida,33625,US,(813) 926-1064,,,"Monday10:00 AM - 9:00 PM, Tuesday10:00 AM - 9:00 PM, Wednesday10:00 AM - 9:00 PM, Thursday10:00 AM - 9:00 PM, Friday10:00 AM - 9:00 PM, Saturday10:00 AM - 9:00 PM, Sunday11:00 AM - 7:00 PM",,,
Sarasota Square Mall,,8201 S Tamiami Trail,,Sarasota,Florida,34238,US,(941) 343-8462,,,"Monday10:00 AM - 9:00 PM, Tuesday10:00 AM - 9:00 PM, Wednesday10:00 AM - 9:00 PM, Thursday10:00 AM - 9:00 PM, Friday10:00 AM - 9:00 PM, Saturday10:00 AM - 9:00 PM, Sunday12:00 PM - 6:00 PM",,,
University T.C.,,140 University Town Center Drive,,Sarasota,Florida,34243,US,(941) 866-6319,,,"Monday10:00 AM - 9:00 PM, Tuesday10:00 AM - 9:00 PM, Wednesday10:00 AM - 9:00 PM, Thursday10:00 AM - 9:00 PM, Friday10:00 AM - 9:00 PM, Saturday10:00 AM - 9:00 PM, Sunday11:00 AM - 6:00 PM",,,
International Plaza,,2223 N. West Shore Blvd.,,Tampa,Florida,33607,US,(813) 348-4267,,,"Monday10:00 AM - 9:00 PM, Tuesday10:00 AM - 9:00 PM, Wednesday10:00 AM - 9:00 PM, Thursday10:00 AM - 9:00 PM, Friday10:00 AM - 9:00 PM, Saturday10:00 AM - 9:00 PM, Sunday11:00 AM - 6:00 PM",,,
Edison Mall,,4125 S Cleveland Ave,,Fort Myers,Florida,33901,US,(239) 275-9192,,,"Monday10:00 AM - 9:00 PM, Tuesday10:00 AM - 9:00 PM, Wednesday10:00 AM - 9:00 PM, Thursday10:00 AM - 9:00 PM, Friday10:00 AM - 9:00 PM, Saturday10:00 AM - 9:00 PM, Sunday11:30 AM - 5:30 PM",,,
Destin Commons,,4126 Legendary Dr.,,Destin,Florida,32541,US,(850) 269-1079,,,"Monday10:00 AM - 10:00 PM, Tuesday10:00 AM - 10:00 PM, Wednesday10:00 AM - 10:00 PM, Thursday10:00 AM - 10:00 PM, Friday10:00 AM - 10:00 PM, Saturday10:00 AM - 10:00 PM, Sunday11:00 AM - 8:00 PM",,,
Coral Square,,9059 West Atlantic Blvd.,,Coral Springs,Florida,33071,US,(954) 753-9755,,,"Monday10:00 AM - 9:00 PM, Tuesday10:00 AM - 9:00 PM, Wednesday10:00 AM - 9:00 PM, Thursday10:00 AM - 9:00 PM, Friday10:00 AM - 9:00 PM, Saturday10:00 AM - 9:00 PM, Sunday12:00 PM - 6:00 PM",,,
Westfield Countryside,,27001 U.S. Highway 19 North,,Clearwater,Florida,33761,US,(727) 475-5845,,,"Monday10:00 AM - 9:00 PM, Tuesday10:00 AM - 9:00 PM, Wednesday10:00 AM - 9:00 PM, Thursday10:00 AM - 9:00 PM, Friday10:00 AM - 9:00 PM, Saturday10:00 AM - 9:00 PM, Sunday12:00 PM - 6:00 PM",,,
The Florida Mall,,8001 South Blossom Trail,,Orlando,Florida,32809,US,(407) 859-9985,,,"Monday10:00 AM - 9:00 PM, Tuesday10:00 AM - 9:00 PM, Wednesday10:00 AM - 9:00 PM, Thursday10:00 AM - 9:00 PM, Friday10:00 AM - 9:00 PM, Saturday10:00 AM - 10:00 PM, Sunday12:00 PM - 8:00 PM",,,
Mall at Millenia,,4200 Conroy Rd,,Orlando,Florida,32839,US,(407) 370-4402,,,"Monday10:00 AM - 9:00 PM, Tuesday10:00 AM - 9:00 PM, Wednesday10:00 AM - 9:00 PM, Thursday10:00 AM - 9:00 PM, Friday10:00 AM - 9:00 PM, Saturday10:00 AM - 9:00 PM, Sunday11:00 AM - 7:00 PM",,,
Orlando Fashion Square,,3201 East Colonial Dr.,,Orlando,Florida,32803,US,(407) 896-4491,,,"Monday10:00 AM - 9:00 PM, Tuesday10:00 AM - 9:00 PM, Wednesday10:00 AM - 9:00 PM, Thursday10:00 AM - 9:00 PM, Friday10:00 AM - 9:00 PM, Saturday10:00 AM - 9:00 PM, Sunday11:00 AM - 6:00 PM",,,
Brandon Town Center,,447 Brandon Town Ctr Mall,,Brandon,Florida,33511,US,(813) 654-3160,,,"Monday10:00 AM - 9:00 PM, Tuesday10:00 AM - 9:00 PM, Wednesday10:00 AM - 9:00 PM, Thursday10:00 AM - 9:00 PM, Friday10:00 AM - 9:00 PM, Saturday10:00 AM - 9:00 PM, Sunday11:00 AM - 6:00 PM",,,
Boynton Beach Mall,,801 N Congress Ave,,Boynton Beach,Florida,33426,US,(561) 736-8266,,,"Monday10:00 AM - 9:00 PM, Tuesday10:00 AM - 9:00 PM, Wednesday10:00 AM - 9:00 PM, Thursday10:00 AM - 9:00 PM, Friday10:00 AM - 9:00 PM, Saturday10:00 AM - 9:00 PM, Sunday12:00 PM - 6:00 PM",,,
The Falls Fashion,,8888 Howard Dr,,Miami,Florida,33176,US,(305) 256-7535,,,"Monday10:00 AM - 9:00 PM, Tuesday10:00 AM - 9:00 PM, Wednesday10:00 AM - 9:00 PM, Thursday10:00 AM - 9:00 PM, Friday10:00 AM - 9:00 PM, Saturday10:00 AM - 9:00 PM, Sunday11:00 AM - 6:00 PM",,,
Dadeland Mall,,7535 SW 88th Street,,Miami,Florida,33156,US,(305) 665-0520,,,"Monday10:00 AM - 9:30 PM, Tuesday10:00 AM - 9:30 PM, Wednesday10:00 AM - 9:30 PM, Thursday10:00 AM - 9:30 PM, Friday10:00 AM - 9:30 PM, Saturday10:00 AM - 9:30 PM, Sunday12:00 PM - 7:00 PM",,,
St Johns Town Ctr,,4711 River City Drive,,Jacksonville,Florida,32246,US,(904) 928-3450,,,"Monday10:00 AM - 9:00 PM, Tuesday10:00 AM - 9:00 PM, Wednesday10:00 AM - 9:00 PM, Thursday10:00 AM - 9:00 PM, Friday10:00 AM - 9:00 PM, Saturday10:00 AM - 9:00 PM, Sunday11:00 AM - 6:00 PM",,,
The Avenues Mall,,10300 Southside Blvd.,,Jacksonville,Florida,32256,US,(904) 538-0232,,,"Monday10:00 AM - 9:00 PM, Tuesday10:00 AM - 9:00 PM, Wednesday10:00 AM - 9:00 PM, Thursday10:00 AM - 9:00 PM, Friday10:00 AM - 9:00 PM, Saturday10:00 AM - 9:00 PM, Sunday12:00 PM - 6:00 PM",,,
Bayside Marketplace,,401 Biscayne Blvd.,,Miami,Florida,33132,US,(305) 381-9365,,,"Monday10:00 AM - 10:00 PM, Tuesday10:00 AM - 10:00 PM, Wednesday10:00 AM - 10:00 PM, Thursday10:00 AM - 10:00 PM, Friday10:00 AM - 11:00 PM, Saturday10:00 AM - 11:00 PM, Sunday11:00 AM - 9:00 PM",,,
Aventura Mall,,19501 Biscayne Blvd.,,Miami,Florida,33180,US,(305) 932-0685,,,"Monday10:00 AM - 9:30 PM, Tuesday10:00 AM - 9:30 PM, Wednesday10:00 AM - 9:30 PM, Thursday10:00 AM - 9:30 PM, Friday10:00 AM - 9:30 PM, Saturday10:00 AM - 9:30 PM, Sunday12:00 PM - 8:00 PM",,,
Miami International Mall,,1455 NW 107th Avenue,,Miami,Florida,33172,US,(305) 593-9931,,,"Monday10:00 AM - 9:00 PM, Tuesday10:00 AM - 9:00 PM, Wednesday10:00 AM - 9:00 PM, Thursday10:00 AM - 9:00 PM, Friday10:00 AM - 9:00 PM, Saturday10:00 AM - 9:00 PM, Sunday11:00 AM - 7:00 PM",,,
Altamonte Mall,,451 East Altamonte Drive,,Altamonte Springs,Florida,32701,US,(407) 830-5225,,,"Monday10:00 AM - 9:00 PM, Tuesday10:00 AM - 9:00 PM, Wednesday10:00 AM - 9:00 PM, Thursday10:00 AM - 9:00 PM, Friday10:00 AM - 9:00 PM, Saturday10:00 AM - 9:00 PM, Sunday12:00 PM - 6:00 PM",,,
Shops at River Crossing,,5080 Riverside Dr.,,Macon,Georgia,31210,US,(478) 405-5403,,,"Monday10:00 AM - 9:00 PM, Tuesday10:00 AM - 9:00 PM, Wednesday10:00 AM - 9:00 PM, Thursday10:00 AM - 9:00 PM, Friday10:00 AM - 9:00 PM, Saturday10:00 AM - 9:00 PM, Sunday12:00 PM - 6:00 PM",,,
Town Center at Cobb,,400 Ernest W. Barrett Pkwy.,,Kennesaw,Georgia,30144,US,(770) 427-0745,,,"Monday10:00 AM - 9:00 PM, Tuesday10:00 AM - 9:00 PM, Wednesday10:00 AM - 9:00 PM, Thursday10:00 AM - 9:00 PM, Friday10:00 AM - 9:00 PM, Saturday10:00 AM - 9:00 PM, Sunday12:00 PM - 6:00 PM",,,
Gwinnett Mall,,2100 Pleasant Hill Road,,Duluth,Georgia,30096,US,(770) 476-7688,,,"Monday10:00 AM - 9:00 PM, Tuesday10:00 AM - 9:00 PM, Wednesday10:00 AM - 9:00 PM, Thursday10:00 AM - 9:00 PM, Friday10:00 AM - 9:00 PM, Saturday10:00 AM - 9:00 PM, Sunday12:00 PM - 6:00 PM",,,
Arbor Place,,6700 Douglas Blvd.,,Douglasville,Georgia,30135,US,(678) 831-2490,,,"Monday10:00 AM - 9:00 PM, Tuesday10:00 AM - 9:00 PM, Wednesday10:00 AM - 9:00 PM, Thursday10:00 AM - 9:00 PM, Friday10:00 AM - 9:00 PM, Saturday10:00 AM - 9:00 PM, Sunday12:00 PM - 6:00 PM",,,
Augusta Mall,,3450 Wrightsboro Rd,,Augusta,Georgia,30909,US,(706) 738-0909,,,"Monday10:00 AM - 9:00 PM, Tuesday10:00 AM - 9:00 PM, Wednesday10:00 AM - 9:00 PM, Thursday10:00 AM - 9:00 PM, Friday10:00 AM - 9:00 PM, Saturday10:00 AM - 9:00 PM, Sunday12:00 PM - 6:00 PM",,,
Southlake,,1242 Southlake Mall,,Morrow,Georgia,30260,US,(770) 960-9419,,,"Monday10:00 AM - 9:00 PM, Tuesday10:00 AM - 9:00 PM, Wednesday10:00 AM - 9:00 PM, Thursday10:00 AM - 9:00 PM, Friday10:00 AM - 9:00 PM, Saturday10:00 AM - 9:00 PM, Sunday12:00 PM - 6:00 PM",,,
North Point,,1172 N Point Pkwy,,Alpharetta,Georgia,30022,US,(770) 751-1578,,,"Monday10:00 AM - 9:00 PM, Tuesday10:00 AM - 9:00 PM, Wednesday10:00 AM - 9:00 PM, Thursday10:00 AM - 9:00 PM, Friday10:00 AM - 9:00 PM, Saturday10:00 AM - 9:00 PM, Sunday12:00 PM - 7:00 PM",,,
Ala Moana Center,,1450 Ala Moana Boulevard,,Honolulu,Hawaii,96814,US,(808) 955-5211,,,"Monday9:30 AM - 9:00 PM, Tuesday9:30 AM - 9:00 PM, Wednesday9:30 AM - 9:00 PM, Thursday9:30 AM - 9:00 PM, Friday9:30 AM - 9:00 PM, Saturday9:30 AM - 9:00 PM, Sunday10:00 AM - 7:00 PM",,,
Boca Raton Town Center,,6000 Glades Road,,Boca Raton,Florida,33431,US,(561) 338-0622,,,"Monday10:00 AM - 9:00 PM, Tuesday10:00 AM - 9:00 PM, Wednesday10:00 AM - 9:00 PM, Thursday10:00 AM - 9:00 PM, Friday10:00 AM - 9:00 PM, Saturday10:00 AM - 9:00 PM, Sunday12:00 PM - 6:00 PM",,,
Mall of Georgia,,3333 Buford Dr,,Buford,Georgia,30519,US,(678) 482-7110,,,"Monday10:00 AM - 9:00 PM, Tuesday10:00 AM - 9:00 PM, Wednesday10:00 AM - 9:00 PM, Thursday10:00 AM - 9:00 PM, Friday10:00 AM - 9:00 PM, Saturday10:00 AM - 9:00 PM, Sunday11:00 AM - 6:00 PM",,,
Coral Ridge,,1451 Coral Ridge Ave,,Coralville,Iowa,52241,US,(319) 358-9190,,,"Monday10:00 AM - 9:00 PM, Tuesday10:00 AM - 9:00 PM, Wednesday10:00 AM - 9:00 PM, Thursday10:00 AM - 9:00 PM, Friday10:00 AM - 9:00 PM, Saturday10:00 AM - 9:00 PM, Sunday11:00 AM - 6:00 PM",,,
Northpark,,320 W. Kimberly Rd.,,Davenport,Iowa,52806,US,(563) 388-0734,,,"Monday10:00 AM - 9:00 PM, Tuesday10:00 AM - 9:00 PM, Wednesday10:00 AM - 9:00 PM, Thursday10:00 AM - 9:00 PM, Friday10:00 AM - 9:00 PM, Saturday10:00 AM - 9:00 PM, Sunday12:00 PM - 6:00 PM",,,
North Grand,,2801 Grand Ave,,Ames,Iowa,50010,US,(515) 233-4954,,,"Monday10:00 AM - 9:00 PM, Tuesday10:00 AM - 9:00 PM, Wednesday10:00 AM - 9:00 PM, Thursday10:00 AM - 9:00 PM, Friday10:00 AM - 9:00 PM, Saturday10:00 AM - 9:00 PM, Sunday12:00 PM - 5:00 PM",,,
College Square,,6301 University Ave.,,Cedar Falls,Iowa,50613,US,(319) 268-0866,,,"Monday10:00 AM - 9:00 PM, Tuesday10:00 AM - 9:00 PM, Wednesday10:00 AM - 9:00 PM, Thursday10:00 AM - 9:00 PM, Friday10:00 AM - 9:00 PM, Saturday10:00 AM - 7:00 PM, Sunday12:00 PM - 6:00 PM",,,
Pearlridge,,98-1005 Moanalua Rd,,Aiea,Hawaii,96701,US,(808) 670-3096,,,"Monday10:00 AM - 9:00 PM, Tuesday10:00 AM - 9:00 PM, Wednesday10:00 AM - 9:00 PM, Thursday10:00 AM - 9:00 PM, Friday10:00 AM - 9:00 PM, Saturday10:00 AM - 9:00 PM, Sunday10:00 AM - 6:00 PM",,,
Old Orchard,,153 Old Orchard Rd,,Skokie,Illinois,60077,US,(847) 568-0531,,,"Monday10:00 AM - 9:00 PM, Tuesday10:00 AM - 9:00 PM, Wednesday10:00 AM - 9:00 PM, Thursday10:00 AM - 9:00 PM, Friday10:00 AM - 9:00 PM, Saturday10:00 AM - 9:00 PM, Sunday11:00 AM - 6:00 PM",,,
Woodfield Mall,,117 Woodfield Mall,,Schaumburg,Illinois,60173,US,(847) 330-0033,,,"Monday10:00 AM - 9:00 PM, Tuesday10:00 AM - 9:00 PM, Wednesday10:00 AM - 9:00 PM, Thursday10:00 AM - 9:00 PM, Friday10:00 AM - 9:00 PM, Saturday10:00 AM - 9:00 PM, Sunday11:00 AM - 7:00 PM",,,
Cherryvale,,7200 Harrison Ave,,Rockford,Illinois,61112,US,(815) 332-1446,,,"Monday10:00 AM - 9:00 PM, Tuesday10:00 AM - 9:00 PM, Wednesday10:00 AM - 9:00 PM, Thursday10:00 AM - 9:00 PM, Friday10:00 AM - 9:00 PM, Saturday10:00 AM - 9:00 PM, Sunday11:00 AM - 6:00 PM",,,
Northwoods Mall,,4501 N. War Memorial Drive,,Peoria,Illinois,61613,US,(309) 688-2546,,,"Monday10:00 AM - 9:00 PM, Tuesday10:00 AM - 9:00 PM, Wednesday10:00 AM - 9:00 PM, Thursday10:00 AM - 9:00 PM, Friday10:00 AM - 9:00 PM, Saturday10:00 AM - 9:00 PM, Sunday11:00 AM - 6:00 PM",,,
Perimeter,,4400 Ashford Dunwoody Rd.,,Atlanta,Georgia,30346,US,(770) 399-7722,,,"Monday10:00 AM - 9:00 PM, Tuesday10:00 AM - 9:00 PM, Wednesday10:00 AM - 9:00 PM, Thursday10:00 AM - 9:00 PM, Friday10:00 AM - 9:00 PM, Saturday10:00 AM - 9:00 PM, Sunday11:00 AM - 6:00 PM",,,
Oakbrook Center,,294 Oakbrook Center,,Oak Brook,Illinois,60523,US,(630) 954-1238,,,"Monday10:00 AM - 9:00 PM, Tuesday10:00 AM - 9:00 PM, Wednesday10:00 AM - 9:00 PM, Thursday10:00 AM - 9:00 PM, Friday10:00 AM - 9:00 PM, Saturday10:00 AM - 9:00 PM, Sunday11:00 AM - 6:00 PM",,,
Lenox Square,,3393 Peachtree Road,,Atlanta,Georgia,30326,US,(404) 841-0316,,,"Monday10:00 AM - 9:00 PM, Tuesday10:00 AM - 9:00 PM, Wednesday10:00 AM - 9:00 PM, Thursday10:00 AM - 9:00 PM, Friday10:00 AM - 9:00 PM, Saturday10:00 AM - 9:00 PM, Sunday11:00 AM - 7:00 PM",,,
Atlantic Station,,230 18th Street,,Atlanta,Georgia,30363,US,(404) 249-7763,,,"Monday10:00 AM - 9:00 PM, Tuesday10:00 AM - 9:00 PM, Wednesday10:00 AM - 9:00 PM, Thursday10:00 AM - 9:00 PM, Friday10:00 AM - 9:00 PM, Saturday10:00 AM - 9:00 PM, Sunday12:00 PM - 6:00 PM",,,
Cumberland,,1441 Cumberland Mall,,Atlanta,Georgia,30339,US,(770) 438-0332,,,"Monday10:00 AM - 9:00 PM, Tuesday10:00 AM - 9:00 PM, Wednesday10:00 AM - 9:00 PM, Thursday10:00 AM - 9:00 PM, Friday10:00 AM - 9:00 PM, Saturday10:00 AM - 9:00 PM, Sunday12:00 PM - 6:00 PM",,,
Riverside Park,,7501 W Cermak Rd,,North Riverside,Illinois,60546,US,(708) 447-8778,,,"Monday10:00 AM - 9:00 PM, Tuesday10:00 AM - 9:00 PM, Wednesday10:00 AM - 9:00 PM, Thursday10:00 AM - 9:00 PM, Friday10:00 AM - 9:00 PM, Saturday10:00 AM - 9:00 PM, Sunday11:00 AM - 6:00 PM",,,
Lindale,,4444 1st Avenue NE,,Cedar Rapids,Iowa,52402,US,(319) 393-4554,,,"Monday10:00 AM - 9:00 PM, Tuesday10:00 AM - 9:00 PM, Wednesday10:00 AM - 9:00 PM, Thursday10:00 AM - 9:00 PM, Friday10:00 AM - 9:00 PM, Saturday10:00 AM - 9:00 PM, Sunday12:00 PM - 6:00 PM",,,
Harlem Irving Plaza,,4122 N. Harlem Avenue,,Norridge,Illinois,60706,US,(708) 453-0566,,,"Monday10:00 AM - 9:00 PM, Tuesday10:00 AM - 9:00 PM, Wednesday10:00 AM - 9:00 PM, Thursday10:00 AM - 9:00 PM, Friday10:00 AM - 9:00 PM, Saturday10:00 AM - 9:00 PM, Sunday11:00 AM - 6:00 PM",,,
Orland Square,,1724 Orland Square,,Orland Park,Illinois,60462,US,(708) 460-6908,,,"Monday10:00 AM - 9:00 PM, Tuesday10:00 AM - 9:00 PM, Wednesday10:00 AM - 9:00 PM, Thursday10:00 AM - 9:00 PM, Friday10:00 AM - 9:00 PM, Saturday10:00 AM - 9:00 PM, Sunday11:00 AM - 6:00 PM",,,
Lincolnwood Town Center,,3333 W. Touhy Ave.,,Lincolnwood,Illinois,60712,US,(847) 674-2744,,,"Monday10:00 AM - 9:00 PM, Tuesday10:00 AM - 9:00 PM, Wednesday10:00 AM - 9:00 PM, Thursday10:00 AM - 9:00 PM, Friday10:00 AM - 9:00 PM, Saturday10:00 AM - 8:00 PM, Sunday11:00 AM - 6:00 PM",,,
Louis Joliet,,3340 Mall Loop Dr,,Joliet,Illinois,60435,US,(815) 436-1471,,,"Monday10:00 AM - 9:00 PM, Tuesday10:00 AM - 9:00 PM, Wednesday10:00 AM - 9:00 PM, Thursday10:00 AM - 9:00 PM, Friday10:00 AM - 9:00 PM, Saturday10:00 AM - 9:00 PM, Sunday11:00 AM - 6:00 PM",,,
Geneva Pavillion,,422 Commons Drive,,Geneva,Illinois,60134,US,(630) 262-0513,,,"Monday10:00 AM - 9:00 PM, Tuesday10:00 AM - 9:00 PM, Wednesday10:00 AM - 9:00 PM, Thursday10:00 AM - 9:00 PM, Friday10:00 AM - 9:00 PM, Saturday10:00 AM - 9:00 PM, Sunday11:00 AM - 6:00 PM",,,
St. Clair Square,,134 St. Clair Square,,Fairview Heights,Illinois,62208,US,(618) 632-2215,,,"Monday10:00 AM - 9:00 PM, Tuesday10:00 AM - 9:00 PM, Wednesday10:00 AM - 9:00 PM, Thursday10:00 AM - 9:00 PM, Friday10:00 AM - 9:00 PM, Saturday10:00 AM - 9:00 PM, Sunday11:00 AM - 6:00 PM",,,
Golf Mill Center,,382 Golf Mill Ctr,,Niles,Illinois,60714,US,(847) 299-8774,,,"Monday10:00 AM - 9:00 PM, Tuesday10:00 AM - 9:00 PM, Wednesday10:00 AM - 9:00 PM, Thursday10:00 AM - 9:00 PM, Friday10:00 AM - 9:00 PM, Saturday10:00 AM - 9:00 PM, Sunday11:00 AM - 6:00 PM",,,
Yorktown,,203 Yorktown Shopping Ctr,,Lombard,Illinois,60148,US,(630) 916-8053,,,"Monday10:00 AM - 9:00 PM, Tuesday10:00 AM - 9:00 PM, Wednesday10:00 AM - 9:00 PM, Thursday10:00 AM - 9:00 PM, Friday10:00 AM - 9:00 PM, Saturday10:00 AM - 9:00 PM, Sunday11:00 AM - 6:00 PM",,,
Eastland Mall,,1615 East Empire St,,Bloomington,Illinois,61701,US,(309) 662-9680,,,"Monday10:00 AM - 9:00 PM, Tuesday10:00 AM - 9:00 PM, Wednesday10:00 AM - 9:00 PM, Thursday10:00 AM - 9:00 PM, Friday10:00 AM - 9:00 PM, Saturday10:00 AM - 9:00 PM, Sunday12:00 PM - 6:00 PM",,,
Stratford Square,,104 Stratford Square,,Bloomingdale,Illinois,60108,US,(630) 351-2566,,,"Monday10:00 AM - 9:00 PM, Tuesday10:00 AM - 9:00 PM, Wednesday10:00 AM - 9:00 PM, Thursday10:00 AM - 9:00 PM, Friday10:00 AM - 9:00 PM, Saturday10:00 AM - 9:00 PM, Sunday11:00 AM - 6:00 PM",,,
River Oaks Center,,125 River Oaks Ctr,,Calumet City,Illinois,60409,US,(708) 891-1135,,,"Monday10:00 AM - 9:00 PM, Tuesday10:00 AM - 9:00 PM, Wednesday10:00 AM - 9:00 PM, Thursday10:00 AM - 9:00 PM, Friday10:00 AM - 9:00 PM, Saturday10:00 AM - 9:00 PM, Sunday11:00 AM - 6:00 PM",,,
Algonquin Commons,,1924 Randall Road,,Algonquin,Illinois,60102,US,(847) 854-9281,,,"Monday10:00 AM - 9:00 PM, Tuesday10:00 AM - 9:00 PM, Wednesday10:00 AM - 9:00 PM, Thursday10:00 AM - 9:00 PM, Friday10:00 AM - 9:00 PM, Saturday10:00 AM - 9:00 PM, Sunday11:00 AM - 6:00 PM",,,
Hamilton Town Center,,13971 Town Center Blvd,,Noblesville,Indiana,46060,US,(317) 773-6201,,,"Monday10:00 AM - 9:00 PM, Tuesday10:00 AM - 9:00 PM, Wednesday10:00 AM - 9:00 PM, Thursday10:00 AM - 9:00 PM, Friday10:00 AM - 9:00 PM, Saturday10:00 AM - 9:00 PM, Sunday11:00 AM - 6:00 PM",,,
University Park,,6501 Grape Rd.,,Mishawaka,Indiana,46545,US,(574) 277-1254,,,"Monday10:00 AM - 9:00 PM, Tuesday10:00 AM - 9:00 PM, Wednesday10:00 AM - 9:00 PM, Thursday10:00 AM - 9:00 PM, Friday10:00 AM - 9:00 PM, Saturday10:00 AM - 9:00 PM, Sunday11:00 AM - 6:00 PM",,,
Fox Valley,,1504 Fox Valley Ctr,,Aurora,Illinois,60504,US,(630) 820-0620,,,"Monday10:00 AM - 9:00 PM, Tuesday10:00 AM - 9:00 PM, Wednesday10:00 AM - 9:00 PM, Thursday10:00 AM - 9:00 PM, Friday10:00 AM - 9:00 PM, Saturday10:00 AM - 9:00 PM, Sunday11:00 AM - 6:00 PM",,,
Southlake Mall,,2121 Southlake Mall,,Merrillville,Indiana,46410,US,(219) 736-0466,,,"Monday10:00 AM - 9:00 PM, Tuesday10:00 AM - 9:00 PM, Wednesday10:00 AM - 9:00 PM, Thursday10:00 AM - 9:00 PM, Friday10:00 AM - 9:00 PM, Saturday10:00 AM - 9:00 PM, Sunday11:00 AM - 6:00 PM",,,
Tippecanoe Mall,,2415 Sagamore Pkwy,,Lafayette,Indiana,47905,US,(765) 448-9142,,,"Monday10:00 AM - 9:00 PM, Tuesday10:00 AM - 9:00 PM, Wednesday10:00 AM - 9:00 PM, Thursday10:00 AM - 9:00 PM, Friday10:00 AM - 9:00 PM, Saturday10:00 AM - 9:00 PM, Sunday12:00 PM - 6:00 PM",,,
Northfield Square,,1600 Rt. 50,,Bradley,Illinois,60915,US,(815) 935-5658,,,"Monday10:00 AM - 9:00 PM, Tuesday10:00 AM - 9:00 PM, Wednesday10:00 AM - 9:00 PM, Thursday10:00 AM - 9:00 PM, Friday10:00 AM - 9:00 PM, Saturday10:00 AM - 9:00 PM, Sunday11:00 AM - 6:00 PM",,,
Greenwood Park Mall,,1251 U.S. Highway 31N,,Greenwood,Indiana,46142,US,(317) 885-0549,,,"Monday10:00 AM - 9:00 PM, Tuesday10:00 AM - 9:00 PM, Wednesday10:00 AM - 9:00 PM, Thursday10:00 AM - 9:00 PM, Friday10:00 AM - 9:00 PM, Saturday10:00 AM - 9:00 PM, Sunday12:00 PM - 6:00 PM",,,
Clay Terrace,,14400 Clay Terrace Blvd,,Carmel,Indiana,46032,US,(317) 816-0617,,,"Monday10:00 AM - 9:00 PM, Tuesday10:00 AM - 9:00 PM, Wednesday10:00 AM - 9:00 PM, Thursday10:00 AM - 9:00 PM, Friday10:00 AM - 9:00 PM, Saturday10:00 AM - 9:00 PM, Sunday12:00 PM - 6:00 PM",,,
Glenbrook Square,,4201 Coldwater Blvd,,Fort Wayne,Indiana,46805,US,(260) 482-9520,,,"Monday10:00 AM - 9:00 PM, Tuesday10:00 AM - 9:00 PM, Wednesday10:00 AM - 9:00 PM, Thursday10:00 AM - 9:00 PM, Friday10:00 AM - 9:00 PM, Saturday10:00 AM - 9:00 PM, Sunday11:00 AM - 6:00 PM",,,
College Mall,,2894 E. Third Street,,Bloomington,Indiana,47401,US,(812) 331-3002,,,"Monday10:00 AM - 9:00 PM, Tuesday10:00 AM - 9:00 PM, Wednesday10:00 AM - 9:00 PM, Thursday10:00 AM - 9:00 PM, Friday10:00 AM - 9:00 PM, Saturday10:00 AM - 9:00 PM, Sunday12:00 PM - 6:00 PM",,,
Water Tower Place,,845 N. Michigan Avenue,,Chicago,Illinois,60611,US,(312) 386-5995,,,"Monday10:00 AM - 9:00 PM, Tuesday10:00 AM - 9:00 PM, Wednesday10:00 AM - 9:00 PM, Thursday10:00 AM - 9:00 PM, Friday10:00 AM - 9:00 PM, Saturday10:00 AM - 9:00 PM, Sunday11:00 AM - 6:00 PM",,,
North Avenue Collection,,913-49 W. North Avenue,,Chicago,Illinois,60622,US,(312) 943-3348,,,"Monday10:00 AM - 9:00 PM, Tuesday10:00 AM - 9:00 PM, Wednesday10:00 AM - 9:00 PM, Thursday10:00 AM - 9:00 PM, Friday10:00 AM - 9:00 PM, Saturday10:00 AM - 9:00 PM, Sunday11:00 AM - 7:00 PM",,,
Michigan Ave,,676 N. Michigan Ave,,Chicago,Illinois,60611,US,(312) 944-5770,,,"Monday10:00 AM - 9:00 PM, Tuesday10:00 AM - 9:00 PM, Wednesday10:00 AM - 9:00 PM, Thursday10:00 AM - 9:00 PM, Friday10:00 AM - 9:00 PM, Saturday10:00 AM - 9:00 PM, Sunday10:00 AM - 7:00 PM",,,
West Diversey,,659 W. Diversey Parkway,,Chicago,Illinois,60614,US,(773) 634-9099,,,"Monday10:00 AM - 9:00 PM, Tuesday10:00 AM - 9:00 PM, Wednesday10:00 AM - 9:00 PM, Thursday10:00 AM - 9:00 PM, Friday10:00 AM - 9:00 PM, Saturday10:00 AM - 9:00 PM, Sunday11:00 AM - 7:00 PM",,,
Chicago Ridge,,574 Chicago Ridge,,Chicago,Illinois,60415,US,(708) 424-3680,,,"Monday10:00 AM - 9:00 PM, Tuesday10:00 AM - 9:00 PM, Wednesday10:00 AM - 9:00 PM, Thursday10:00 AM - 9:00 PM, Friday10:00 AM - 9:00 PM, Saturday10:00 AM - 9:00 PM, Sunday11:00 AM - 6:00 PM",,,
State Street,,17 N State Street,,Chicago,Illinois,60602,US,(312) 376-8904,,,"Monday10:00 AM - 9:00 PM, Tuesday10:00 AM - 9:00 PM, Wednesday10:00 AM - 9:00 PM, Thursday10:00 AM - 9:00 PM, Friday10:00 AM - 9:00 PM, Saturday10:00 AM - 9:00 PM, Sunday11:00 AM - 6:00 PM",,,
Oak Park Mall,,11291 West 95th Street,,Shawnee Mission,Kansas,66214,US,(913) 492-3693,,,"Monday10:00 AM - 9:00 PM, Tuesday10:00 AM - 9:00 PM, Wednesday10:00 AM - 9:00 PM, Thursday10:00 AM - 9:00 PM, Friday10:00 AM - 9:00 PM, Saturday10:00 AM - 9:00 PM, Sunday11:00 AM - 6:00 PM",,,
Town Center Plaza,,5020 West 119th St,,Leawood,Kansas,66209,US,(913) 338-1105,,,"Monday10:00 AM - 9:00 PM, Tuesday10:00 AM - 9:00 PM, Wednesday10:00 AM - 9:00 PM, Thursday10:00 AM - 9:00 PM, Friday10:00 AM - 9:00 PM, Saturday10:00 AM - 9:00 PM, Sunday12:00 PM - 5:00 PM",,,
Castleton Square,,6020 East 82nd St,,Indianapolis,Indiana,46250,US,(317) 841-7864,,,"Monday10:00 AM - 9:00 PM, Tuesday10:00 AM - 9:00 PM, Wednesday10:00 AM - 9:00 PM, Thursday10:00 AM - 9:00 PM, Friday10:00 AM - 9:00 PM, Saturday10:00 AM - 9:00 PM, Sunday11:00 AM - 6:00 PM",,,
Circle Center,,49 W. Maryland St.,,Indianapolis,Indiana,46204,US,(317) 767-1647,,,"Monday10:00 AM - 9:00 PM, Tuesday10:00 AM - 9:00 PM, Wednesday10:00 AM - 9:00 PM, Thursday10:00 AM - 9:00 PM, Friday10:00 AM - 9:00 PM, Saturday10:00 AM - 9:00 PM, Sunday12:00 PM - 6:00 PM",,,
