store_name,store_number,address,address2,city,state,zip_code,country,phone_number,latitude,longitude,store_hours,store_type,other_fields,coming_soon
The Medicine Shoppe Pharmacy,,542 South Eufaula,,Eufaula,AL,36027-2306,United States,(334) 687-0021,,,"Mon-Fri: 9:00-6:00, Sat: 9:00-1:00, Sun: Closed",,,
The Medicine Shoppe Pharmacy,,"2125 College Ave.,  Suite 1",,Conway,AR,72034,United States,(501) 327-8088,,,"Mon-Fri: 8:30-6:30, Sat: 8:30-1:00, Sun: Closed",,,
The Medicine Shoppe Pharmacy,,211 Cedar Street,,Greenville,AL,36037-2205,United States,(334) 382-6574,,,"Mon-Fri: 9:00-5:30, Sat: 9:00-12:30, Sun: Closed",,,
The Medicine Shoppe Pharmacy,,311A Shelton Beach Road,,Saraland,AL,36571-2717,United States,(251) 679-9095,,,"Mon-Fri: 10:00am - 6:00pm, Sat: 10:00am - 1:00pm, Sun: Closed",,,
The Medicine Shoppe Pharmacy,,1465A South Alabama Ave.,,Monroeville,AL,36460-1200,United States,(251) 575-9656,,,"Mon-Fri: M-F 9:00-6:00, Sat: Sat 9:30-1:00, Sun: Sun Closed",,,
The Medicine Shoppe Pharmacy,,959 East Main Street,,Prattville,AL,36066,United States,334.358.1630,,,"Mon-Fri: 10am - 6pm, Sat: 10am - 1pm, Sun: Closed",,,
The Medicine Shoppe Pharmacy,,1144 Airport Drive,,Alexander City,AL,35010-3435,United States,(256) 215-8014,,,"Mon-Fri: 8:00am - 6:00pm, Sat: 8:00am - 12:00pm, Sun: Closed",,,
The Medicine Shoppe Pharmacy,,2006 Danville Rd SW,,Decatur,AL,35601-4640,United States,(256) 350-3338,,,"Mon-Fri: 9:00-6:00, Sat: 9:00-1:00, Sun: Closed",,,
The Medicine Shoppe Pharmacy,,812 Fifth Street,,Marysville,CA,95901-5615,United States,(530) 743-4629,,,"Mon-Fri: M-F 9:30-6:00, Sat: Sat. 10:00-1:00, Sun: Sun Closed",,,
The Medicine Shoppe Pharmacy,,795 West Fourth Street,,Benson,AZ,85602,United States,(520) 586-1299,,,"Mon-Fri: 9:00am - 6:00pm, Sat: 9:00am - 12:00pm, Sun: Closed",,,
The Medicine Shoppe Pharmacy,,325 Southwest Drive,,Jonesboro,AR,72401,United States,(870) 935-1340,,,"Mon-Fri: 9:00am-5:30pm, Sat: 9:00am-12:00pm, Sun: Closed",,,
The Medicine Shoppe Pharmacy,,2701 E Patton Road,,Huntsville,AL,35805,United States,256.536.1910,,,"Mon-Fri: 10:00am-6:00pm, Sat: 10:00am-1:00pm, Sun: Closed",,,
The Medicine Shoppe Pharmacy,,718 N. Main St. #B,,Taylor,AZ,85939,United States,(928) 536-2044,,,"Mon-Fri: 9:00am - 7:00pm, Sat: 9:00am - 5:00pm, Sun: Closed",,,
The Medicine Shoppe Pharmacy,,3836 John F Kennedy Blvd,,North Little Rock,AR,72116-8248,United States,(501) 758-1010,,,"Mon-Fri: 9:00-6:00, Sat: 9:00-12:00, Sun: Closed",,,
The Medicine Shoppe Pharmacy,,270 Industrial Blvd,,Leesburg,AL,35983-3737,United States,(256) 526-6337,,,"Mon-Fri: 8:00–6:00, Sat: 9:00–2:00, Sun: Closed",,,
The Medicine Shoppe Pharmacy,,1701 Club Manor Dr.,,Maumelle,AR,72113,United States,501-851-4949,,,"Mon-Fri: 8:30am - 6:30pm, Sat: 8:30am - 1:00pm, Sun: Closed",,,
The Medicine Shoppe Pharmacy,,174 S Sunrise Way,,Palm Springs,CA,922162,United States,760-778-8870,,,"Mon-Fri: 9:00am-6:30pm, Sat: 10:00am-3:00pm, Sun: Closed",,,
The Medicine Shoppe Pharmacy,,2795 West Lincoln,,Anaheim,CA,92801-6334,United States,(714) 995-0071,,,"Mon-Fri: 9:00am - 6:00pm, Sat: 9:00am - 2:00pm, Sun: Closed",,,
The Medicine Shoppe Pharmacy,,1125 East 17th Street,,Santa Ana,CA,92701,United States,(714) 999-0075,,,"Mon-Fri: 9:00 am - 6:00 pm, Sat: Closed, Sun: Closed",,,
The Medicine Shoppe Pharmacy,,3159 W Colorado Avenue,,Colorado Springs,CO,80904-2040,United States,(719) 475-9030,,,"Mon-Fri: 9:00-6:00, Sat: 9:00-1:00, Sun: Closed",,,
The Medicine Shoppe Pharmacy,,4009 North Marks Avenue,,Fresno,CA,93722,United States,559-226-1201,,,"Mon-Fri: 10:00am - 6:00pm, Sat: 10:00am - 1:00pm, Sun: Closed",,,
The Medicine Shoppe Pharmacy,,1477 S SAN JACINTO AVE,,San Jacinto,CA,92581-1417,United States,(951) 654-2791,,,"Mon-Fri: 9:00-6:00, Sat: 9:00-12:00, Sun: Closed",,,
The Medicine Shoppe Pharmacy,,1121 South State Street,,Hemet,CA,92543-7635,United States,(951) 652-5988,,,"Mon-Fri: 9:00-6:00, Sat: 9:00-12:00, Sun: Closed",,,
The Medicine Shoppe Pharmacy,,167 West Main Street,,Rexburg,ID,83440,United States,208-356-4481,,,"Mon-Fri: 9am - 6pm, Sat: Closed, Sun: Closed",,,
The Medicine Shoppe Pharmacy,,1667 Willingham Avenue,,Baldwin,GA,30511-0910,United States,(706) 778-7174,,,"Mon-Fri: 9:00-6:00, Sat: 9:00-2:00, Sun: Closed",,,
The Medicine Shoppe Pharmacy,,3903 S. Cobb Drive,,Smyrna,GA,30080-6715,United States,(770) 436-0811,,,"Mon-Fri: 9:00am - 6:00pm, Sat: 10:00am - 2:00pm, Sun: Closed",,,
The Medicine Shoppe Pharmacy,,4675 N. Shallowford Rd.,,Dunwoody,GA,30338,United States,770-455-1144,,,"Mon-Fri: 8:30am - 6:00pm, Sat: 8:30am - 12:00pm, Sun: Closed",,,
The Medicine Shoppe Pharmacy,,212 1st Street North,,Newton,IA,50208-3232,United States,(641) 792-3111,,,"Mon-Fri: 8:30AM - 6:00PM, Sat: 9:00AM - 2:00PM, Sun: Closed",,,
The Medicine Shoppe Pharmacy,,7 Johnson Drive,,Danielsville,GA,30633-7051,United States,(706) 795-0920,,,"Mon-Fri: 9:00am - 6:00pm, Sat: 9:00am - 2:00pm, Sun: Closed",,,
The Medicine Shoppe Pharmacy,,2921-A North Ashley Street,,Valdosta,GA,31602,United States,(229) 244-0640,,,"Mon-Fri: 9am - 6pm, Sat: 9am - 12pm, Sun: Closed",,,
The Medicine Shoppe Pharmacy,,932 Carrollwood Avenue,,La Place,LA,70068,United States,985.652.1245,,,"Mon-Fri: 9:00am-6:00pm, Sat: 9:30am-1:00pm, Sun: Closed",,,
The Medicine Shoppe Pharmacy,,50 Main Street,,Ayer,MA,01432-1339,United States,(978) 772-7325,,,"Mon-Fri: 9:00-7:00, Sat: 9:00-3:00, Sun: Closed",,,
The Medicine Shoppe Pharmacy,,1275 Belleview Street,,Morgan City,LA,70380-5930,United States,(985) 395-2694,,,"Mon-Fri: 9:00-6:00, Sat: 9:00-2:00, Sun: Closed",,,
The Medicine Shoppe Pharmacy,,760 Paulding Plaza,,Dallas,GA,30132-5028,United States,(770) 445-6422,,,"Mon-Fri: 9:00-6:00, Sat: 9:00-1:00, Sun: Closed",,,
The Medicine Shoppe Pharmacy,,926 Seventh,,Morgan City,LA,70380-1904,United States,(985) 384-3071,,,"Mon-Fri: 9:00-6:00, Sat: 9:00-2:00, Sun: Closed",,,
The Medicine Shoppe Pharmacy,,1817 South Burnside,,Gonzales,LA,70737-4429,United States,(225) 644-3030,,,"Mon-Fri: 9:00 AM - 6:00 AM, Sat: Closed, Sun: Closed",,,
The Medicine Shoppe Pharmacy,,999 Robert Blvd.,,Slidell,LA,70458,United States,985-643-7894,,,"Mon-Fri: 9:00 a.m. - 6:00 p.m., Sat: 9:00 a.m. - 1:00 p.m., Sun: Closed",,,
The Medicine Shoppe Pharmacy,,1208 Cloquet Ave,,Cloquet,MN,55720,United States,218-879-4547,,,"Mon-Fri: 9:00 am - 5:30 pm, Sat: 9:00 am - 1:00 pm, Sun: Closed",,,
The Medicine Shoppe Pharmacy,,750 Main Street,,Mendota Heights,MN,55118,United States,(651) 455-6873,,,"Mon-Fri: 9:00 am - 6:00 pm, Sat: 9:00 am - 3:00 pm, Sun: Closed",,,
The Medicine Shoppe Pharmacy,,419 Skyline Blvd,,Cloquet,MN,55720,United States,218.879.1501,,,"Mon-Fri: 8:00am-5:00pm, Sat: Closed, Sun: Closed",,,
The Medicine Shoppe Pharmacy,,329 E. Hwy 12,,Litchfield,MN,55355-2260,United States,(320) 693-9314,,,"Mon-Fri: 8:30-6:00, Sat: 9:00-1:00, Sun: Closed",,,
The Medicine Shoppe Pharmacy,,1103 South 169 Highway,,Smithville,MO,64089,United States,816-532-0977,,,"Mon-Fri: 9:00am - 7:00pm, Sat: 9:00am - 1:00pm, Sun: Closed",,,
The Medicine Shoppe Pharmacy,,1510 North Broadway,,Rochester,MN,55906,United States,507-289-3901,,,"Mon-Fri: 8am-9:30pm, Sat: 9am-9pm, Sun: 9am-6pm",,,
The Medicine Shoppe Pharmacy,,704 N. Parkerson Ave.,,Crowley,LA,70526-4355,United States,(337) 783-9084,,,"Mon-Fri: 9:00-5:30, Sat: 9:00-12:00, Sun: Closed",,,
The Medicine Shoppe Pharmacy,,3979 17 Mile Road,,Sterling Heights,MI,48310-1700,United States,(586) 268-6266,,,"Mon-Fri: 10:00AM - 6:00PM, Sat: 10:00AM - 2:00PM, Sun: Closed",,,
The Medicine Shoppe Pharmacy,,50 Hopatchung Road,,Hopatcong,NJ,07843,United States,973.398.6066,,,"Mon-Fri: 10:00am-7:00pm, Sat: 9:30am-3:00pm, Sun: Closed",,,
The Medicine Shoppe Pharmacy,,2800 N Broadway,,Fargo,ND,58102-1420,United States,(701) 293-0221,,,"Mon-Fri: 9:00 am - 5:30 pm, Sat: 9:00 am - 12:00 pm, Sun: Closed",,,
The Medicine Shoppe Pharmacy,,1401 Silver St.,,Ashland,NE,68003,United States,(402) 944-3303,,,"Mon-Fri: 9:00am - 5:30pm, Sat: 9:00am - 1:00pm, Sun: Closed",,,
The Medicine Shoppe Pharmacy,,116 2nd Avenue  NW,,Mandan,ND,58554,United States,(701) 663-1151,,,"Mon-Fri: 9:00-6:00, Sat: 9:00-1:00, Sun: Closed",,,
The Medicine Shoppe Pharmacy,,1605 South University Drive,,Fargo,ND,58103-4154,United States,701-293-3060,,,"Mon-Fri: 9:00 am - 5:30 pm, Sat: 9:00 am - 12:00 pm, Sun: Closed",,,
The Medicine Shoppe Pharmacy,,1304 East Boulevard Ave.,,Bismarck,ND,58501,United States,(701) 224-0175,,,"Mon-Fri: 9am - 6pm, Sat: 9:30am - 1:00pm, Sun: Closed",,,
The Medicine Shoppe Pharmacy,,703 1st Avenue S,,Jamestown,ND,58401,United States,(701) 252-3002,,,"Mon-Fri: 9:00am - 6:00pm, Sat: 9:00am - 12:00pm, Sun: Closed",,,
The Medicine Shoppe Pharmacy,,1006 North Harrison,,Shawnee,OK,74801,United States,405-273-7360,,,"Mon-Fri: 9am - 6pm, Sat: 9am - 1pm, Sun: Closed",,,
The Medicine Shoppe Pharmacy,,622 E. Wyandotte Avenue,,McAlester,OK,74501,United States,918.426.5223,,,"Mon-Fri: 9:00am-6:00pm, Sat: 9:00am-1:00pm, Sun: Closed",,,
The Medicine Shoppe Pharmacy,,200 Luray Drive,,Winterville,OH,43953,United States,740-314-5321,,,"Mon-Fri: 8:30am–6:00pm, Sat: 9:00am–3:00pm, Sun: Closed",,,
The Medicine Shoppe Pharmacy,,234 W. Main Street,,Bellevue,OH,44811-1330,United States,(419) 483-3784,,,"Monday - Friday: 9:00am - 6:00pm, Saturday: 9:00am - 1:00pm, Sunday: Closed, Visit our additional website at www.medicineshoppebellevueohio.com",,,
The Medicine Shoppe Pharmacy,,333 S E. 7th Avenue,,Hillsboro,OR,97123,United States,503-640-4433,,,"Mon-Fri: 9am - 5:30pm, Sat: Closed, Sun: Closed",,,
The Medicine Shoppe Pharmacy,,4595 Central Avenue,,Shadyside,OH,43947,United States,(740) 671-4010,,,"Mon-Fri: 9:00am - 6:00pm, Sat: 9:00am - 5:00pm, Sun: Closed",,,
The Medicine Shoppe Pharmacy,,465 West Perry Street,,Tiffin,OH,44883-1958,United States,(419) 447-0282,,,"Mon-Fri: 10:00-6:00, Sat: 10:00-1:00, Sun: Closed",,,
The Medicine Shoppe Pharmacy,,56130 National Road,,Bridgeport,OH,43912,United States,740.633.3320,,,"Mon-Fri: 8:00am - 8:00pm, Sat: 8:00am - 5:00pm, Sun: 10:00am - 3:00pm",,,
The Medicine Shoppe Pharmacy,,301 W Cherokee St Ste B,,Blacksburg,SC,29702-1558,United States,(864) 416-7277,,,"Mon-Fri: 9:00am - 5:00pm, Sat: 9:00am - 1:00pm, Sun: Closed",,,
The Medicine Shoppe Pharmacy,,Rockledge Plaza,,Rockledge,PA,19046-4431,United States,(215) 663-1755,,,"Mon-Fri: 9:00-6:00, Sat: 9:00-2:30, Sun: Closed",,,
The Medicine Shoppe Pharmacy,,2440 Raphine Road,,Raphine,VA,24472,United States,(540) 851-1760,,,"Mon-Fri: 9:00am - 7:00pm, Sat: 9:00am - 5:00pm, Sun: Noon - 5:00pm",,,
The Medicine Shoppe Pharmacy,,1304 Mt Rushmore Road,,Rapid City,SD,57701-3667,United States,605-348-6305,,,"Mon-Fri: 9:00-6:00, Sat: 9:00-1:00, Sun: Closed",,,
The Medicine Shoppe Pharmacy,,1061 N. Fraser Street,,Georgetown,SC,29440-2848,United States,(843) 546-2880,,,"Mon-Fri: 9:00-6:00, Sat: 9:00-1:00, Sun: Closed",,,
The Medicine Shoppe Pharmacy,,#41 Sunny Isle Shopping Center,,Christiansted,VI,00820,United States,(340) 719-6100,,,"Mon-Fri: 8:00am - 7:00pm, Sat: 9:00am - 7:00pm, Sun: 10:00am - 3:00pm",,,
The Medicine Shoppe Pharmacy,,605 E Atlantic Street,,South Hill,VA,23970-2709,United States,(434) 447-2601,,,"Mon-Fri: 9:30-6:00, Sat: 9:30-2:00, Sun: Closed",,,
The Medicine Shoppe Pharmacy,,20 South Main Street,,Barre,VT,05641,United States,802.479.3381,,,"Mon-Fri: 8:30am-6:00pm, Sat: 8:30am-1:00pm, Sun: Closed",,,
The Medicine Shoppe Pharmacy,,9893 General Puller Hwy.,,Hartfield,VA,23071,United States,804-776-9990,,,"Mon-Fri: 9:00am-6:00pm, Sat: 9:00am-1:00pm, Sun: Closed",,,
The Medicine Shoppe Pharmacy,,2562 Monroe Blvd.,,Ogden,UT,84401,United States,801-399-1151,,,"Mon-Fri: 9am - 6pm, Sat: 9am - 1pm, Sun: Closed",,,
The Medicine Shoppe Pharmacy,,10010 Frankfort Highway,,Fort Ashby,WV,26719,United States,304-298-4557 or toll-free 866-611-8268,,,"Mon - Fri: 9am - 6pm, Sat: 9am - 1pm, Sun: Closed",,,
The Medicine Shoppe Pharmacy,,730 North Hwy 51,,Covington,TN,38019-0309,United States,(901) 476-3245,,,"Mon-Fri: 10:00-6:00, Sat: 10:00-1:00, Sun: Closed",,,
The Medicine Shoppe Pharmacy,,1230 Main Street,,Altavista,VA,24517,United States,434-369-5257,,,"Mon-Fri: 9am - 6pm, Sat: 9am - 1pm, Sun: Closed",,,
The Medicine Shoppe Pharmacy,,300 WV-20,,Pine Grove,WV,26419,United States,(304) 889-3131,,,"Mon-Fri: 9:00am - 5:30pm, Sat: Closed, Sun: Closed",,,
The Medicine Shoppe Pharmacy,,"9004 Havensight Shopping Mall,  Bldg. IV",,St. Thomas,VI,00802,United States,(340) 776-1235,,,,,,
The Medicine Shoppe Pharmacy,,101 Gregg Memorial Drive,,Terra Alta,WV,26764,United States,304-789-2200,,,"Mon-Fri: 9:00am-6:00pm, Sat: 9:00am-1:00pm, Sun: Closed",,,
The Medicine Shoppe Pharmacy,,2402 Adams Avenue,,Huntington,WV,25704-1322,United States,(304) 429-6716,,,"Mon-Fri: 9:30-6:00, Sat: 9:30-1:00, Sun: Closed",,,
The Medicine Shoppe Pharmacy,,303 Merchant St,,Fairmont,WV,26554,United States,(304) 366-2710,,,"Mon-Fri: 8:30am - 7:00pm, Sat: 9:00am - 5:00pm, Sun: Closed",,,
The Medicine Shoppe Pharmacy,,620 National Road,,Wheeling,WV,26003-6543,United States,(304) 232-4984,,,"Mon-Fri: 10:00-6:00, Sat: 9:00-1:00, Sun: Closed",,,
The Medicine Shoppe Pharmacy,,800 Charles St.,,Wellsburg,WV,26070,United States,(304) 737-0383,,,"Mon-Fri: 8:30am - 5:00pm, Sat: 8:30am - 3:00pm, Sun: Closed",,,
The Medicine Shoppe Pharmacy,,1415 Main Street,,Follansbee,WV,26037,United States,304-527-1004,,,"Mon-Fri: 8:30am–6:00pm, Sat: 9:00am–3:00pm, Sun: Closed",,,
The Medicine Shoppe Pharmacy,,78 Maze Plaza,,Elizabeth,WV,26143,United States,(304) 275-4687,,,"Mon-Fri: 9:00am - 6:00pm, Sat: 9:00am - 12:00pm, Sun: Closed",,,
The Medicine Shoppe Pharmacy,,1315 N Jefferies,,Walterboro,SC,29488,United States,843.549.9565,,,"Mon-Fri: 9:00am-6:00pm, Sat: Closed, Sun: Closed",,,
The Medicine Shoppe Pharmacy,,2413 Pennsylvania Ave,,Weirton,WV,26062,United States,304.723.1818,,,"Mon-Fri: 9:00am - 6:00pm, Sat: 9:00am - 3:00pm, Sun: Closed",,,
The Medicine Shoppe Pharmacy,,155 North Street,,New Martinsville,WV,26155-1399,United States,(304) 455-2171,,,"Mon-Fri: 9:00am - 7:00pm, Sat: 9:00am - 3:00pm, Sun: 11:00am - 3:00pm",,,
The Medicine Shoppe Pharmacy,,3159 Main St,,Weirton,WV,26062,United States,(304) 748-0505,,,,,,
The Medicine Shoppe Pharmacy,,971 Main St.,,Follansbee,WV,26037,United States,304-527-0150,,,"Mon-Fri: 9:00am - 7:00pm, Sat: 9:00am - 2:00pm, Sun: Closed",,,
The Medicine Shoppe Pharmacy,,6950 Germantown Avenue,,Philadelphia,PA,19119,United States,267-428-5187,,,"Mon-Fri: 8am - 4:30pm, Sat: Closed, Sun: Closed",,,
The Medicine Shoppe Pharmacy,,300 Superior Avenue,,Tomah,WI,54660-2000,United States,(608) 372-2101,,,"Mon-Fri: 8:30-6:00, Sat: 8:30-1:00, Sun: Closed",,,
The Medicine Shoppe Pharmacy,,5700 U.S. Highway 51,,McFarland,WI,53558,United States,(608) 838-5700,,,"Mon-Fri: 8:30am - 6pm, Sat: 8:30am - 1pm, Sun: Closed",,,
The Medicine Shoppe Pharmacy,,1500 Washington Street,,Two Rivers,WI,54241,United States,920-794-1225,,,"Mon-Fri: 9:00 am - 6:00 pm, Sat: 9:00 am - 1:00 pm, Sun: Closed",,,
The Medicine Shoppe Pharmacy,,1302 Stout Road,,Menomonie,WI,54751,United States,(715) 309-4329,,,"Mon-Fri: 9:00am - 6:00pm, Sat: 9:00am - 1:00pm, Sun: Closed",,,
The Medicine Shoppe Pharmacy,,651 Colliers Way,,Weirton,WV,26062,United States,304-723-6331,,,"Mon-Fri: 8:30am–6:00pm, Sat: 9:00am–3:00pm, Sun: Closed",,,
The Medicine Shoppe Pharmacy,,"11 E H Street,  Suite A",,Deer Park,WA,99006,United States,(509) 276-5081,,,"Mon-Fri: 8:30-6:30, Sat: 9:00-1:00, Sun: Closed",,,
The Medicine Shoppe Pharmacy,,1121 West Court Street,,Pasco,WA,99301,United States,509-547-7537,,,"Mon-Fri: 9:00am-6:00pm, Sat: 9:00am-1:00pm, Sun: Closed",,,
The Medicine Shoppe Pharmacy,,207 Professional Way,,Shelton,WA,98584,United States,360.426.4272,,,"Mon: 9:00am - 6:00pm, Tues-Thurs: 9:00am - 5:30pm, Fri: 9:00am - 6:00pm, Sat: 9:00am - 1:00pm, Sun: Closed",,,
The Medicine Shoppe Pharmacy,,603 North Bridge Street,,Chippewa Falls,WI,54279,United States,715-723-9192,,,"Mon-Fri: 9:00 am - 6:00 pm, Sat: 9:00 am - 1:00 pm, Sun: Closed",,,
The Medicine Shoppe Pharmacy,,1304 Mt Rushmore Road,,Rapid City,SD,57701-3667,United States,605-348-6305,,,"Mon-Fri: 9:00-6:00, Sat: 9:00-1:00, Sun: Closed",,,
The Medicine Shoppe Pharmacy,,510 Ellis Ave,,Ashland,WI,54806-1632,United States,(715) 682-2701,,,"Mon-Fri: 9:30-5:30, Sat: 9:30-1:00, Sun: Closed",,,
The Medicine Shoppe Pharmacy,,4205 Monona Drive,,Monona,WI,53716,United States,608.221.8151,,,"Mon-Fri: 9:00 AM - 6:00 PM, Sat: 9:00 AM - 1:00 PM, Sun: Closed",,,
The Medicine Shoppe Pharmacy,,903 W Frank Ave,,Lufkin,TX,75904,United States,936.634.3006,,,"Mon-Fri: 9am - 6pm, Sat: 9am - 1pm, Sun: Closed",,,
The Medicine Shoppe Pharmacy,,2301 E. Mulberry,,Angleton,TX,77515,United States,979-849-9391,,,"Mon-Fri: 9am - 6pm, Sat: 10am - 1pm, Sun: Closed",,,
The Medicine Shoppe Pharmacy,,5600 Mykawa,,Houston,TX,77033-1009,United States,(713) 641-3414,,,"Monday - Thursday: 10:00am - 6:00pm, Friday: 10:00am - 5:30pm, Saturday: 9:00am - 1:00pm",,,
The Medicine Shoppe Pharmacy,,12414 East Sprague,,Spokane,WA,99216-0722,United States,(509) 924-1222,,,"Mon-Fri: 9:00-6:00, Sat: 9:00-12:00, Sun: Closed",,,
The Medicine Shoppe Pharmacy,,1624 N. Travis,,Sherman,TX,75092,United States,(903) 892-9291,,,"Monday - Friday: 9:00am - 6:00pm 
Saturday: 9:00am - 1:00p",,,
The Medicine Shoppe Pharmacy,,20423 Kuykendahl RD. Ste 250,,Spring,TX,77379,United States,832-209-4999,,,"Mon-Fri: 9:00am - 6:00pm, Sat: 9:00am - 3:00pm, Sun: Closed",,,
The Medicine Shoppe Pharmacy,,800 S. Broadway,,Laporte,TX,77571,United States,281.471.1241,,,"Mon-Fri: 9am - 6pm, Sat: 9am - 1pm, Sun: Closed",,,
The Medicine Shoppe Pharmacy,,494 Springhill Street,,Jasper,TX,75951-4922,United States,(409) 384-3432,,,"Mon-Fri: 9:00-6:00, Sat: 9:00-1:00, Sun: Closed",,,
The Medicine Shoppe Pharmacy,,2810 W. Morton,,Denison,TX,75092,United States,903-463-3985,,,"Mon-Fri: 9:00am - 6:00pm, Sat: 9:00am -1:00pm, Sun: Closed",,,
The Medicine Shoppe Pharmacy,,109B Abner Jackson Parkway,,Lake Jackson,TX,77566-4157,United States,(979) 297-9503,,,"Mon-Fri: 9:30am - 6:30pm, Sat: 10:00am - 2:00pm, Sun: Closed",,,
The Medicine Shoppe Pharmacy,,1327 W. Northwest  Blvd.,,Spokane,WA,99205-4330,United States,(509)327-1504,,,"Mon-Fri: 9:00-6:00, Sat: 9:00-1:00, Sun: Closed",,,
The Medicine Shoppe Pharmacy,,1420 B Fabens St.,,Fabens,TX,79838,United States,(915) 764-2739,,,"Mon-Fri: 9:30am-12:30pm 1:30pm-6:30pm, Sat: 9am-1pm, Sun: Closed",,,
The Medicine Shoppe Pharmacy,,205 W. HWY 77,,San Benito,TX,78586,United States,(956) 399-1411,,,"Mon-Fri: 9am - 7pm, Sat: 9am - 1pm, Sun: Closed",,,
The Medicine Shoppe Pharmacy,,212 North Street,,Nacogdoches,TX,75961-5260,United States,(936) 569-6430,,,"Mon-Fri: 9:00-5:30, Sat: 9:00-12:00, Sun: Closed",,,
The Medicine Shoppe Pharmacy,,1238 East Jackson Blvd.,,Jonesborough,TN,37659,United States,423.753.2441,,,"Mon-Fri: 9:00am - 6:00pm, Sat: 9:00am - 1:00pm, Sun: Closed",,,
The Medicine Shoppe Pharmacy,,921 E Main #2,,Rogersville,TN,37857-2833,United States,(423) 272-0777,,,"Mon-Fri: 9:00am - 6:00pm, Sat: 9:00 am - 1:00pm, Sun: Closed",,,
The Medicine Shoppe Pharmacy,,3001 Joe Ramsey Blvd. E.,,Greenville,TX,75401,United States,903-455-7200,,,"Mon-Fri: 9:00am - 6:00pm, Sat: 9:00am - 2:00pm, Sun: Closed",,,
The Medicine Shoppe Pharmacy,,2002-A Grant Ave.,,El Paso,TX,79930,United States,(915) 544-6605,,,"Mon-Fri: 8:30am - 5:30pm, Sat: 9:00am - 1:00pm, Sun: Closed",,,
The Medicine Shoppe Pharmacy,,4206 Chapman Hwy.,,Knoxville,TN,37920-4251,United States,(865) 579-4547,,,"Mon-Fri: 9:00-6:00, Sat: Closed, Sun: Closed",,,
The Medicine Shoppe Pharmacy,,4770 Knight Arnold,,Memphis,TN,38118,United States,901.363.0750,,,"Mon-Fri: 9:00am-6:00pm, Sat: 9:00am-1:00pm, Sun: Closed",,,
The Medicine Shoppe Pharmacy,,2414 N Ocoee Street,,Cleveland,TN,37311-3854,United States,(423) 476-1919,,,"Mon-Fri: 9:00-6:00, Sat: 9:00-1:00, Sun: Closed",,,
The Medicine Shoppe Pharmacy,,1500 Madison Street,,Clarksville,TN,37040-3846,United States,(931) 552-2552,,,"Mon-Fri: 9:00-6:00, Sat: 9:00-1:00, Sun: Closed",,,
The Medicine Shoppe Pharmacy,,1756 Highway 48,,Clarksville,TN,37040,United States,931.552.2558,,,"Mon-Fri: 9:00am-6:00pm, Sat: 9:00am-1:00pm, Sun: Closed",,,
The Medicine Shoppe Pharmacy,,95 York Road,,Warminster,PA,18974,United States,215-675-0777,,,"Mon-Fri: 9:30 am - 6:00 pm, Sat: 9:30 am - 1:00 pm, Sun: Closed",,,
The Medicine Shoppe Pharmacy,,920 Estate Drive,,Memphis,TN,38119,United States,901.683.3511,,,"Mon-Fri: 9:00am-6:00pm, Sat: 9:00am-1:00pm, Sun: Closed",,,
The Medicine Shoppe Pharmacy,,3310 Fort Blvd,,El Paso,TX,79930-4710,United States,(915) 564-5451,,,"Mon-Fri: 9:30-7:00, Sat: 9:00-5:00, Sun: Closed",,,
The Medicine Shoppe Pharmacy,,105 Wheatfield Dr.,,Milford,PA,18337-7809,United States,(570) 296-5138,,,"Mon-Fri: 9:00-6:00, Sat: 9:00-1:00, Sun: Closed",,,
The Medicine Shoppe Pharmacy,,206 N. Charlotte Street,,Pottstown,PA,19464,United States,(610) 326-9690,,,"Mon-Fri: 9:00 am - 6:00 pm, Sat: 9:00 am - 1:00 pm, Sun: Closed",,,
The Medicine Shoppe Pharmacy,,625 South Duke Street,,Lancaster,PA,17602,United States,717-208-3415,,,"Mon-Fri: 8:30 am - 6:00 pm, Sat: 9:00 am - 1:00 pm, Sun: Closed",,,
The Medicine Shoppe Pharmacy,,101 West Lancaster Ave,,Shillington,PA,19607,United States,(610) 777-2313,,,"Mon-Fri: 9:00am - 7:00pm, Sat: 9:00am - 1:00pm, Sun: Closed",,,
The Medicine Shoppe Pharmacy,,6766 W. Andrew Johnson Highway,,Mosheim,TN,37818,United States,423-422-2829,,,"Mon-Fri: 9:30am - 6:30pm, Sat: 9:00am - 1:00pm, Sun: Closed",,,
The Medicine Shoppe Pharmacy,,28 W Ridge Street,,Lansford,PA,18232-1330,United States,(570) 645-3588,,,"Mon-Fri: 10:00am - 6:00pm, Sat: 10:00am - 1:00pm, Sun: Closed",,,
The Medicine Shoppe Pharmacy,,2 East Philadelphia Avenue,,Boyertown,PA,19512,United States,610.369.3888,,,"Mon-Fri: 9am - 6pm, Sat: 9am - 2pm, Sun: Closed",,,
The Medicine Shoppe Pharmacy,,1169 Horseshoe Pike,,Downingtown,PA,19335,United States,610.269.7368,,,"Mon: 9:00am-7:00pm, Tue: 9:00am-7:00pm, Wed: 9:00am-7:00pm, Thur: 9:00am-7:00pm, Fri: 9:00am-6:00pm, Sat: 9:00am-3:00pm, Sun: 10:00am-2:00pm, Sun",,,
The Medicine Shoppe Pharmacy,,1698 S Queen Street,,York,PA,17403-3852,United States,(717) 846-0500,,,"Mon-Fri: 9:00-6:00, Sat: 9:00 - 12:00, Sun: Closed",,,
The Medicine Shoppe Pharmacy,,2113 W. Main Street,,Jeffersonville,PA,19403,United States,610.539.7282,,,"Mon-Fri: 9:30 a.m. to 6:30 p.m., Sat: 9:00 a.m. to 2:00 p.m., Sun: Closed",,,
The Medicine Shoppe Pharmacy,,960 Lancaster Avenue,,Columbia,PA,17512,United States,717.684.5808,,,"Mon-Fri: 9:00am - 6:00pm, Sat: 9:00am - 1:00pm, Sun: Closed",,,
The Medicine Shoppe Pharmacy,,100 E. Grove Street,,Clarks Summit,PA,18411,United States,570.586.1961,,,"Mon-Fri: 9:00am - 6:00pm, Sat: 9:00am - 1:00pm, Sun: Closed",,,
The Medicine Shoppe Pharmacy,,2239 Pittston Avenue,,Scranton,PA,18505-1651,United States,(570) 347-6575,,,"Mon-Fri: 9:00-5:30, Sat: 9:00-1:00, Sun: Closed",,,
The Medicine Shoppe Pharmacy,,1101 West 15Th Street,,Hazleton,PA,18201-2616,United States,,,,"Mon-Fri: M-F 9:00-6:00, Sat: Sat 9:00-1:00, Sun: Sun Closed",,,
The Medicine Shoppe Pharmacy,,211 W Washington Ave,,Myerstown,PA,17067,United States,(717) 866-7547,,,"Mon-Fri: 9:00am - 8:00pm, Sat: 9:00am - 1:00pm, Sun: Closed",,,
The Medicine Shoppe Pharmacy,,26 Dallas Shopping Center,,Dallas,PA,18612,United States,570.674.5577,,,"Mon-Fri: 8:00am - 6:00pm, Sat: 9:00am - 100pm, Sun: Closed",,,
The Medicine Shoppe Pharmacy,,1305 Cumberland Street,,Lebanon,PA,17042,United States,717.274.1500,,,"Mon-Fri: 9:00 am - 6:00 pm, Sat: 9:00 am - 1:00 pm, Sun: Closed",,,
The Medicine Shoppe Pharmacy,,69 North Market St,,Nanticoke,PA,18634,United States,570.735.2300,,,"Mon-Fri: 9:00 am - 6:00 pm, Sat: 9:00 am - 1:00 pm, Sun: Closed",,,
The Medicine Shoppe Pharmacy,,730 S Main Street,,Old Forge,PA,18518-1459,United States,,,,"Mon-Fri: M-F 9:00-6:00, Sat: Sat 9:00-2:00, Sun: Sun Closed",,,
The Medicine Shoppe Pharmacy,,145 East Ninth Street,,Berwick,PA,18603-3132,United States,(570) 759-1239,,,"Mon-Fri: 9:00-6:00, Sat: 9:00-1:00, Sun: Closed",,,
The Medicine Shoppe Pharmacy,,"3913 Hartzdale Drive, Suite 1306",,Camp Hill,PA,17011,United States,717-695-9082,,,"Mon-Fri: 8am - 5pm, Sat: 8am - 4pm, Sun: Closed",,,
The Medicine Shoppe Pharmacy,,5225 Wilson Lane,,Mechanicsburg,PA,17055,United States,717-516-3103,,,"Mon-Fri: 9:00 am - 5:30 pm, Sat: Closed, Sun: Closed",,,
The Medicine Shoppe Pharmacy,,33 East Simpson St,,Mechanicsburg,PA,17055-3865,United States,(717) 697-0551,,,"Mon-Fri: 9:00-6:00, Sat: 9:00-1:00, Sun: Closed",,,
The Medicine Shoppe Pharmacy,,605 N. Shamokin,,Shamokin,PA,17872-6719,United States,(570) 648-5242,,,"Mon-Fri: 9:00-6:00, Sat: 9:00-1:00, Sun: Closed",,,
The Medicine Shoppe Pharmacy,,110 S. 17th Street,,Harrisburg,PA,17104-1123,United States,(717) 236-7588,,,"Monday: 8:30 AM - 6:00 PM, Tuesday - Thursday: 8:30 AM - 7:00 PM, Every other Saturday: 8:00 AM - 1:00 PM",,,
The Medicine Shoppe Pharmacy,,48 Red Hill Court,,Newport,PA,17074,United States,(717) 567-6367,,,"Monday - 8:00 am - 8:00 pm, Tue - Fri - 8:00 am - 6:00 pm, Saturday - 8:00 am - 12:00 pm",,,
The Medicine Shoppe Pharmacy,,1000 South Market St.,,Bloomsburg,PA,17815,United States,570-784-9582,,,"Mon-Fri: 9am - 6pm, Sat: 9am - 1pm, Sun: Closed",,,
The Medicine Shoppe Pharmacy,,701 Bridge Street,,New Cumberland,PA,17070,United States,(717) 774-6262,,,"Mon-Fri: 9:00 am - 6:00 pm, Sat: 9:00 am - 1:00 pm, Sun: Closed",,,
The Medicine Shoppe Pharmacy,,730 Washington Street,,Huntingdon,PA,16652,United States,(814) 641-7442,,,"Mon-Fri: 8:30 am - 6:00 pm, Sat: 9:00 am - 1:00 pm, Sun: Closed",,,
The Medicine Shoppe Pharmacy,,131 S. Pleasant Avenue,,Somerset,PA,15501,United States,814.443.9500,,,"Mon-Fri: 9am - 6pm, Sat: 9am - 2pm, Sun: Closed Sunday, Holidays",,,
The Medicine Shoppe Pharmacy,,709 Ligonier Street,,Latrobe,PA,15650-1825,United States,(724) 539-4565,,,"Mon-Fri: 9:00-5:30, Sat: 9:00-12:00, Sun: Closed",,,
The Medicine Shoppe Pharmacy,,100 Hazle Street,,Wilkes Barre,PA,18702,United States,570.823.0511,,,"Mon-Fri: 9am - 6pm, Sat: 9am - 1pm, Sun: Closed",,,
The Medicine Shoppe Pharmacy,,507 Hepburn Street,,Williamsport,PA,17701-6122,United States,(570) 323-7733,,,"Mon-Fri: 9:00am - 5:30pm, Sat: 9:00am - 1:00pm, Sun: Closed",,,
The Medicine Shoppe Pharmacy,,2411 Eighth Ave,,Altoona,PA,16602,United States,814.944.2095,,,"Mon-Fri: 9:00am-6:00pm, Sat: 9:00am-1:00pm, Sun: Closed",,,
The Medicine Shoppe Pharmacy,,200 Prushnock Drive,,Punxsutawney,PA,15767,United States,(814) 618-5957,,,,,,
The Medicine Shoppe Pharmacy,,30 W. Park Avenue,,Du Bois,PA,15801,United States,(814) 371-0800,,,"Mon-Fri: 9:00 am - 6:00 pm, Sat: 9:00 am - 1:00 pm, Sun: Closed",,,
The Medicine Shoppe Pharmacy,,12238 Frankstown Road,,Penn Hills,PA,15235-3116,United States,412-798-9800,,,"Mon-Fri: 10:00 am - 6:00 pm, Sat: 10:00 am - 1:00 pm, Sun: Closed",,,
The Medicine Shoppe Pharmacy,,2606 Freeport Road,,Natrona Heights,PA,15065,United States,(724) 224-7111,,,"Mon-Fri: 9am-6pm, Sat: 9am-2pm, Sun: Closed",,,
The Medicine Shoppe Pharmacy,,25 Market Street,,Brownsville,PA,15417,United States,(724) 785-7095,,,"Mon-Fri: 9:00 am - 5:00 pm, Sat: 9:00 am - 12:00 pm, Sun: Closed",,,
The Medicine Shoppe Pharmacy,,2279 Main Street,,Munhall,PA,15120-2708,United States,(412) 461-9800,,,"Mon-Fri: 10:00-6:00, Sat: 10:00-2:00, Sun: Closed",,,
The Medicine Shoppe Pharmacy,,100 Liberty St,,Clarion,PA,16214-1129,United States,(814) 226-9310,,,"Mon-Fri: 9:00-5:30, Sat: 9:00-1:00, Sun: Closed",,,
The Medicine Shoppe Pharmacy,,215 Allegheny Avenue,,Oakmont,PA,15139,United States,412-826-9500,,,"Mon-Fri: 9:30 am - 6:00 pm, Sat: 9:30 am - 1:00 pm, Sun: Closed",,,
The Medicine Shoppe Pharmacy,,524 Brookline Blvd.,,Pittsburgh,PA,15226-2002,United States,(412) 561-3180,,,"Mon-Fri: 9:00-6:00, Sat: 9:00-1:00, Sun: Closed",,,
The Medicine Shoppe Pharmacy,,808 Main St.,,Bentleyville,PA,15314,United States,724-239-3600,,,"Mon-Fri: 9:00am - 6:00pm, Sat: 9:00am - 2:00pm, Sun: Closed",,,
The Medicine Shoppe Pharmacy,,514 Washington Road,,Mt Lebanon,PA,15228-2817,United States,412-344-3411,,,"Mon-Fri: 9:00 am - 6:00 pm, Sat: 10:00 am - 1:00 pm, Sun: Closed",,,
The Medicine Shoppe Pharmacy,,501 Harrison Avenue,,Jeannette,PA,15644-1916,United States,,,,"Mon-Fri: M-F 9:30-5:30, Sat: Sat 9:30-2:30, Sun: Sun Closed",,,
The Medicine Shoppe Pharmacy,,645 Miller Avenue,,Clairton,PA,15025,United States,412.233.3303,,,"Mon-Fri: 10:00am-6:00pm, Sat: 10:00am-2:00pm, Sun: Closed",,,
The Medicine Shoppe Pharmacy,,20 Bailey Avenue,,Mt Washington,PA,15211-1702,United States,(412) 481-2400,,,"Mon-Fri: 9:30-6:00, Sat: 10:00-1:00, Sun: Closed",,,
The Medicine Shoppe Pharmacy,,66 West Pike Street,,Canonsburg,PA,15317,United States,(724) 745-6480,,,,,,
The Medicine Shoppe Pharmacy,,1770 Pine Hollow Road,,Mckees Rocks,PA,15136,United States,412.331.7080,,,"Mon-Fri: 8:30am-6:30pm, Sat: 8:30am-2:00pm, Sun: Closed",,,
The Medicine Shoppe Pharmacy,,132 W. Mahoning St.,,Punxsutawney,PA,15767-2017,United States,(814) 938-3077,,,"Mon-Fri: 9:00 AM - 7:00 PM, Sat: 9:00 AM - 2:00 PM, Sun: Closed",,,
The Medicine Shoppe Pharmacy,,725 W Ingomar Road,,Ingomar,PA,15127-666,United States,(412) 367-5778,,,"Mon-Fri: 10:00-6:00, Sat: 10:00-1:00, Sun: Closed",,,
The Medicine Shoppe Pharmacy,,125 Pillow Street,,Butler,PA,16001-5671,United States,(724) 282-8446,,,"Mon-Fri: 9:30-6:00, Sat: 9:30-1:00, Sun: Closed",,,
The Medicine Shoppe Pharmacy,,132 East Main Street,,Carnegie,PA,15106,United States,(412) 279-3361,,,"Mon-Fri: 9:30-6:00, Sat: 9:30-1:00, Sun: Closed",,,
The Medicine Shoppe Pharmacy,,412 East Commons Ste 110,,Pittsburgh,PA,15212,United States,(412) 442-1925,,,"Mon-Thurs: 9:00 am - 6:00 pm, Fri: 9:00 am - 5:00 pm",,,
The Medicine Shoppe Pharmacy,,206 South Martin Street,,Titusville,PA,16354,United States,(814) 827-1849,,,"Mon-Fri: 9:00am - 6:00pm, Sat: 8:30am - 12:30pm, Sun: Closed",,,
The Medicine Shoppe Pharmacy,,2665 Brodhead Road,,Aliquippa,PA,15001-2720,United States,(724) 375-5561,,,"Mon-Fri: M-F 8:30-6:00, Sat: Sat 9:00-2:00, Sun: Sun Closed",,,
The Medicine Shoppe Pharmacy,,102 East Atlantic Avenue,,Franklin,PA,16323,United States,814.437.9115,,,"Mon-Fri: 9:00am-5:30pm, Sat: 8:30am-12:30pm, Sun: Closed",,,
The Medicine Shoppe Pharmacy,,250 West Main Street,,Brookville,PA,15825,United States,(814) 849-5218,,,"Mon-Fri: 9:00 am - 6:00 pm, Sat: 9:00 am - 1:00 pm, Sun: Closed",,,
The Medicine Shoppe Pharmacy,,400 Jefferson Avenue,,Washington,PA,15301-4261,United States,(724) 222-0900,,,"Mon-Fri: 9:00-6:00, Sat: 9:00-1:00, Sun: Closed",,,
The Medicine Shoppe Pharmacy,,18 North Mill Street,,New Castle,PA,16101,United States,724.652.8132,,,"Mon-Fri: 9:00am - 5:30pm, Sat: 9:00am - 2:00pm, Sun: Closed",,,
The Medicine Shoppe Pharmacy,,3289 S. Main Street,,Sandy Lake,PA,16145,United States,(724) 376-3805,,,"Mon-Fri: 9:00 am - 6:00 pm, Sat: 9:00 am - 1:00 pm, Sun: Closed",,,
The Medicine Shoppe Pharmacy,,629 State Street,,Meadville,PA,16335,United States,814.337.8880,,,"Mon-Fri: 9:00am-6:00pm, Sat: 9:00am-3:00pm, Sun: Closed",,,
The Medicine Shoppe Pharmacy,,100 Main St.,,Wintersville,OH,43953,United States,(740) 264-4237,,,"Mon-Fri: 8:00am – 8:00pm, Sat: 8:00am – 5:00pm, Sun: 10:00am – 3:00pm",,,
The Medicine Shoppe Pharmacy,,419 South Main Street,,Greenville,PA,16125,United States,724-588-3875,,,"Mon-Fri: 9:00 am - 6:00 pm, Sat: 9:00 am - 1:00 pm, Sun: Closed",,,
The Medicine Shoppe Pharmacy,,104 Plaza Drive,,St. Clairsville,OH,43950,United States,740-695-0274,,,"Mon-Fri: 8:00am – 8:00pm, Sat: 8:00am – 5:00pm, Sun: 10:00am – 3:00pm",,,
The Medicine Shoppe Pharmacy,,4405 Mahoning,,Austintown,OH,44515-1602,United States,(330) 792-6585,,,"Mon-Fri: 9:00am - 7:00pm, Sat: 9:00am - 2:00pm, Sun: Closed",,,
The Medicine Shoppe Pharmacy,,55 South 23rd Street,,Cambridge,OH,43725,United States,740.432.6899,,,"Mon-Fri: 8:00am - 8:00pm, Sat: 8:00am - 5:00pm, Sun: 10:00am - 3:00pm",,,
The Medicine Shoppe Pharmacy,,"330 S. Ninth, Suite 180",,Pittsburgh,PA,15203,United States,(412) 697-4880,,,"Monday -Thursday: 8:30am - 5:30pm, Friday: 8:30am - 5:00pm, Saturday: Closed, Sunday: Closed",,,
The Medicine Shoppe Pharmacy,,315 E High Ave,,New Philadelphia,OH,44663,United States,(330) 364-5519,,,"Mon-Fri: 9:00am-6:00pm, Sat: 9:00am-1:00pm, Sun: Closed",,,
The Medicine Shoppe Pharmacy,,2200 June Parkway,,South Zanesville,OH,43701,United States,740.450.4985,,,"Mon-Fri: 9:00am - 7:00pm, Sat: 9:00am - 4:00pm, Sun: 10:00am - 2:00pm",,,
The Medicine Shoppe Pharmacy,,1707 Wilmington Road,,New Castle,PA,16105-2061,United States,(724) 652-3366,,,"Mon-Fri: 9:00-5:30, Sat: 9:00-2:00, Sun: Closed",,,
The Medicine Shoppe Pharmacy,,1740 East State Street,,Hermitage,PA,16148,United States,(724) 983-8451,,,"Mon-Fri: 9:00am - 7:00pm, Sat: 9:00am-1:00pm, Sun: Closed",,,
The Medicine Shoppe Pharmacy,,114 North Main St.,,Baltimore,OH,43105,United States,740-862-4240,,,"Mon-Fri: 9:00am - 7:00pm, Sat: 9:00am - 1:00pm, Sun: Closed",,,
The Medicine Shoppe Pharmacy,,212 Lancaster Pike,,Circleville,OH,43113,United States,740-474-1971,,,"Mon-Fri: 9am - 6pm, Sat: 9am - 1pm, Sun: Closed",,,
The Medicine Shoppe Pharmacy,,900 E. Main St.,,Lancaster,OH,43130,United States,(740) 653-7779,,,"Mon-Fri: 9:00am - 6:00pm, Sat: 9:00am - 1:00pm, Sun: Closed",,,
The Medicine Shoppe Pharmacy,,"315 South Erie Street, Suite A",,Mercer,PA,16137,United States,724.662.2240,,,"Mon-Fri: 9:00am - 7:00pm, Sat: 9:00am - 4:00pm, Sun: Closed",,,
The Medicine Shoppe Pharmacy,,16332 Conneaut Lake Rd.,,Meadville,PA,16335,United States,(814) 333-1121,,,"Mon-Fri: 9:00am - 6:00pm, Sat: 9:00am - 1:00pm, Sun: Closed",,,
The Medicine Shoppe Pharmacy,,1361 Franklin Street,,Toronto,OH,43964,United States,(740) 537-2600,,,"Mon-Fri: 9:00am - 6:00pm, Sat: 9:00am - 3:00pm, Sun: Closed",,,
The Medicine Shoppe Pharmacy,,54 West High Street,,London,OH,43140,United States,,,,,,,
The Medicine Shoppe Pharmacy,,821 Scioto Street,,Urbana,OH,43078,United States,937.653.3914,,,"Mon-Fri: 9am - 6pm, Sat: 9am - 1pm, Sun: Closed",,,
The Medicine Shoppe Pharmacy,,283 Cline Avenue,,Mansfield,OH,44907-1019,United States,(419) 756-6032,,,"Mon-Fri: 9:00-6:00, Sat: 9:00-1:00, Sun: Closed",,,
The Medicine Shoppe Pharmacy,,38 Grant Street,,Walden,NY,12586-1850,United States,(845) 778-6661,,,"Mon-Fri: 9:00am - 6:00pm, Sat: 9:00am - 1:00pm, Sun: Closed",,,
The Medicine Shoppe Pharmacy,,3300 Greenwich Road #14,,Norton,OH,44203-5714,United States,(330) 825-7676,,,"Mon-Fri: 10:00-6:00, Sat: 10:00-1:00, Sun: Closed",,,
The Medicine Shoppe Pharmacy,,1004 Main Street,,Fishkill,NY,12524,United States,(845) 897-0636,,,"Monday-Thursday: 9:00am - 7:00pm, Friday: 9:00am - 6:00pm, Saturday: 9:00am - 4:00pm, Sunday: Closed",,,
The Medicine Shoppe Pharmacy,,1109 Coney Island Ave,,Brooklyn,NY,11234,United States,718-434-4649,,,"Mon-Fri: 11am - 8pm, Sat: 11am - 8pm, Sun: Closed",,,
The Medicine Shoppe Pharmacy,,345 N. Sandusky,,Bucyrus,OH,44820,United States,419.562.4222,,,"Mon-Fri: 9:00am-6:00pm, Sat: 9:00am-1:00pm, Sun: Closed",,,
The Medicine Shoppe Pharmacy,,15 Jersey Avenue,,Port Jervis,NY,12771-2415,United States,(845) 856-6681,,,"Mon-Fri: 9:00-6:00, Sat: 9:00-1:00, Sun: Closed",,,
The Medicine Shoppe Pharmacy,,10 Central Avenue,,Ilion,NY,13357-1822,United States,(315) 894-7283,,,"Mon-Fri: 9:00-6:00, Sat: 9:00-1:00, Sun: Closed",,,
The Medicine Shoppe Pharmacy,,1971 Central Avenue,,Middletown,OH,45044,United States,513-424-8180,,,"Mon-Fri: 10:00 am - 6:00 pm, Sat: 10:00 am - 1:00 pm, Sun: Closed",,,
The Medicine Shoppe Pharmacy,,1987 State Route 52 Colonial Square,,Liberty,NY,12754,United States,845-292-8200,,,"Mon-Fri: 8:30am - 6pm, Sat: 9am - 3pm, Sun: Closed",,,
The Medicine Shoppe Pharmacy,,18 Kellogg Road,,New Hartford,NY,13413,United States,315.735.7979,,,"Mon-Fri: 10:00am-6:00pm, Sat: 10:00am-1:00pm, Sun: Closed",,,
The Medicine Shoppe Pharmacy,,"1179 Vestal Avenue, Ste. 1",,Binghamton,NY,13903,United States,(607) 723-7585,,,"Monday -Thursday: 8:30 am - 7:00 pm, Friday: 8:30 am - 6:00 pm, Saturday: 9:00 am - 2:00 pm",,,
The Medicine Shoppe Pharmacy,,268 W. Central Avenue,,Springboro,OH,45066,United States,(937) 748-0555,,,"Mon-Fri: 10am - 6pm, Sat: 10am - 1pm, Sun: Closed",,,
The Medicine Shoppe Pharmacy,,30 Canal Street,,Fort Plain,NY,13339,United States,518.993.3003,,,"Mon-Fri: 9:00am-6:00pm, Sat: 9:00am-1:00pm, Sun: Closed",,,
The Medicine Shoppe Pharmacy,,1179 Vestal Avenue,,Binghamton,NY,13903,United States,607-217-4845,,,"Mon-Fri: 8am - 5:30pm, Sat: 8am - 12pm, Sun: Closed",,,
The Medicine Shoppe Pharmacy,,649 W. High Street,,Piqua,OH,45356-2624,United States,(937) 773-1778,,,"Mon-Fri: 9:30-6:00, Sat: Closed, Sun: Closed",,,
The Medicine Shoppe Pharmacy,,47 Stewart Avenue,,Roscoe,NY,12776,United States,6074984111,,,"Mon-Fri: 9am - 6pm, Sat: 9am - 3pm, Sun: Closed",,,
The Medicine Shoppe Pharmacy,,507 Lenox Ave.,,Oneida,NY,13421,United States,315.363.1750,,,"Mon-Fri: 9:30am-6:00pm, Sat: 9:30am-1:00pm, Sun: Closed",,,
The Medicine Shoppe Pharmacy,,142 East Center,,Medina,NY,14103-1621,United States,(585) 798-1212,,,"Mon-Fri: 9:00-6:00, Sat: 9:00-1:00, Sun: Closed",,,
The Medicine Shoppe Pharmacy,,200 Oriskany Blvd.,,Yorkville,NY,13495-1330,United States,(315) 768-3347,,,"Mon-Fri: 10:00-6:00, Sat: 10:00-1:00, Sun: Closed",,,
The Medicine Shoppe Pharmacy,,823 Black River Blvd N,,Rome,NY,13440,United States,315.339.0400,,,"Mon-Fri: 9:00 am - 6:00 pm, Sat: 9:00 am - 3:00 pm, Sun: Closed",,,
The Medicine Shoppe Pharmacy,,3781 Milton Avenue,,Camillus,NY,13031-1557,United States,(315) 487-5775,,,"Mon-Fri: 10:00-6:00, Sat: 10:00-1:00, Sun: Closed",,,
The Medicine Shoppe Pharmacy,,3038 Bailey Avenue,,Buffalo,NY,14215,United States,716-822-4400,,,"Mon-Fri: 9am - 6pm, Sat: 10am - 3pm, Sun: Closed",,,
The Medicine Shoppe Pharmacy,,113 S. Main St,,Manchester,NY,14504,United States,585-289-3002,,,"Mon-Fri: 10am-6pm, Sat: 9am-1pm, Sun: Closed",,,
The Medicine Shoppe Pharmacy,,1315 West Genesse Street,,Chittenango,NY,13037,United States,(315) 510-3141,,,"Mon-Fri: 9:00am - 6:00pm, Sat: 9:00am - 1:00pm, Sun: Closed",,,
The Medicine Shoppe Pharmacy,,66 West Avenue,,Canandaigua,NY,14424,United States,585.396.9970,,,"Mon-Fri: 9:00am-6:00pm, Sat: 9:00am-1:00pm, Sun: Closed",,,
The Medicine Shoppe Pharmacy,,469 Niagara Street,,Buffalo,NY,14201,United States,(716) 856-0800,,,"Mon-Fri: 9:00-6:00, Sat: 10:00-3:00, Sun: Closed",,,
The Medicine Shoppe Pharmacy,,2032 Clinton Street,,Buffalo,NY,14206,United States,716-824-5200,,,"Mon-Fri: 9:00am - 6:00pm, Sat: 9:00am - 3:00pm, Sun: Closed",,,
The Medicine Shoppe Pharmacy,,1979 Seneca Street,,Buffalo,NY,14220,United States,716-827-4900,,,"Mon-Fri: 9am - 6pm, Sat: 10am - 3pm, Sun: Closed",,,
The Medicine Shoppe Pharmacy,,63-I Lacey Road,,Whiting,NJ,08759,United States,732.350.4535,,,"Mon-Fri: 9:00am-6:00pm, Sat: 9:30am-1:00pm, Sun: Closed",,,
The Medicine Shoppe Pharmacy,,1275A South 2nd St.,,Raton,NM,87740,United States,575-445-0075,,,"Mon-Fri: 8am - 6pm, Sat: 8am - 3pm, Sun: 9am - 2pm",,,
The Medicine Shoppe Pharmacy,,1791 South Park Avenue,,Buffalo,NY,14210,United States,716-823-8300,,,"Mon-Fri: 9:00am - 6:00pm, Sat: 10:00am - 3:00pm, Sun: Closed",,,
The Medicine Shoppe Pharmacy,,3253 State Route 35,,Hazlet,NJ,07730-1544,United States,(732) 888-7900,,,"Mon-Fri: 9:00-7:00, Sat: 9:00-2:00, Sun: Closed",,,
The Medicine Shoppe Pharmacy,,58 Main Street,,Camden,NY,13316-1394,United States,(315) 245-1410,,,"Mon-Fri: M-F 9:00-6:00, Sat: Sat 9:00-1:00, Sun: Sun Closed",,,
The Medicine Shoppe Pharmacy,,458 Amboy Avenue,,Woodbridge,NJ,07095-2937,United States,732-636-0011,,,"Mon-Fri: 9:00 am - 6:00 pm, Sat: 9:00 am - 1:00 pm, Sun: Closed, Visit our additional website by clicking here!",,,
The Medicine Shoppe Pharmacy,,653 Westwood Avenue,,River Vale,NJ,07675,United States,201.664.5553,,,"Mon-Fri: 9am - 6pm, Sat: 9am - 1pm, Sun: Closed",,,
The Medicine Shoppe Pharmacy,,1118 S. Broadway,,Minot,ND,58701-4642,United States,(701) 852-1524,,,"Mon-Fri: 10:00-6:00, Sat: Closed, Sun: Closed",,,
The Medicine Shoppe Pharmacy,,2780 South Main Street,,Newfane,NY,14108,United States,716-778-0600,,,"Mon-Fri: 9am - 6pm, Sat: 10am - 3pm, Sun: Closed",,,
The Medicine Shoppe Pharmacy,,1509 Route 179,,Lambertville,NJ,08530-3447,United States,(609) 397-8889,,,"Mon-Fri: 9:30-6:30, Sat: 9:00-2:00, Sun: Closed",,,
The Medicine Shoppe Pharmacy,,1806 Pine Ave.,,Niagara Falls,NY,14301-2234,United States,(716) 282-1112,,,"Mon-Fri: 9:00-6:00, Sat: 9:00-3:00, Sun: Closed",,,
The Medicine Shoppe Pharmacy,,792 Pompton Avenue,,Cedar Grove,NJ,07009-1229,United States,(973) 239-3339,,,"Mon-Fri: 9:00-7:00, Sat: 9:00-4:00, Sun: Closed",,,
The Medicine Shoppe Pharmacy,,102 S. Main Street,,Bladenboro,NC,28320,United States,910-863-3949,,,"Mon-Fri: 9:00 am - 5:30 pm, Sat: 9:00 am - 12:00 pm, Sun: Closed",,,
The Medicine Shoppe Pharmacy,,487 Market Street,,Saddle Brook,NJ,07663-0400,United States,(201) 291-0844,,,"Mon-Fri: 9:00-7:00, Sat: 9:00-2:00, Sun: Closed",,,
The Medicine Shoppe Pharmacy,,2468 Lemoine Avenue,,Fort Lee,NJ,07024,United States,(201) 944-1002,,,,,,
The Medicine Shoppe Pharmacy,,"1571 W. Villard St., Unit #1",,Dickinson,ND,58601,United States,701-227-8265,,,"Mon-Fri: 9:00am - 6:00pm, Sat: 9:00am - 12:00pm, Sun: Closed",,,
The Medicine Shoppe Pharmacy,,807 Davidson Drive,,Concord,NC,28025,United States,704-786-0135,,,"Mon-Fri: 9:00am-7:00pm, Sat: 9:00am-4:00pm, Sun: 12:00pm-4:00pm, *Flu shots available - walk-ins and appointments welcome!",,,
The Medicine Shoppe Pharmacy,,1357 West Innes Street,,Salisbury,NC,28144-3101,United States,704-637-6120,,,"Mon-Fri: 9:00 am - 5:30 pm, Sat: 9:00 am - 12:30 pm, Sun: Closed",,,
The Medicine Shoppe Pharmacy,,2131 East 32nd Street,,Joplin,MO,64804,United States,(417) 781-2332,,,"Mon-Fri: 9:00-6:00, Sat: 9:00-1:00, Sun: Closed",,,
The Medicine Shoppe Pharmacy,,801 South Main Street,,Laurinburg,NC,28352,United States,(910) 276-7210,,,"Mon-Fri: 8:30am - 6pm, Sat: 8:30am - 12:30pm, Sun: Closed",,,
The Medicine Shoppe Pharmacy,,102 N Patterson,,Maxton,NC,28364-1735,United States,(910) 844-3100,,,"Mon-Fri: 9:00-6:00, Sat: 8:30-12:00, Sun: Closed",,,
The Medicine Shoppe Pharmacy,,864 North Kingshighway,,Cape Girardeau,MO,63701,United States,573-334-4761,,,"Mon-Fri: 9am - 6pm, Sat: 9am - 1pm, Sun: Closed",,,
The Medicine Shoppe Pharmacy,,8640 Commercial Boulevard,,Pevely,MO,63070,United States,636-479-6100,,,"Mon-Fri: 9am - 6pm, Sat: 9am - 1pm, Sun: Closed",,,
The Medicine Shoppe Pharmacy,,3229 Lemay Ferry,,St. Louis,MO,63125,United States,(314) 275-0909,,,"Mon-Fri: 9:00am - 6:00pm, Sat: 9:00am - 3:00pm, Sun: Closed",,,
The Medicine Shoppe Pharmacy,,430 Highway 51 North,,Brookhaven,MS,39601,United States,(601) 833-7455,,,,,,
The Medicine Shoppe Pharmacy,,"9065 E Sandidge Center Cove, Suite A",,Olive Branch,MS,38654,United States,(662) 892-8448,,,"Mon-Fri: 8:30 AM to 6:30 PM, Sat: 9:00 AM to 1:00 PM, Sun: Closed",,,
The Medicine Shoppe Pharmacy,,7922 MacKenzie,,Affton,MO,63123,United States,3146383535,,,"Mon-Fri: 9:30am - 6:00pm, Sat: 9am - 1pm, Sun: Closed",,,
The Medicine Shoppe Pharmacy,,100 Main Street,,De Soto,MO,63020,United States,636.586.2202,,,"Mon-Fri: 9:00am-6:00pm, Sat: 9:00am-1:00pm, Sun: Closed",,,
The Medicine Shoppe Pharmacy,,625 N Euclid,,St Louis,MO,63108-1673,United States,(314) 367-3009,,,"Mon-Fri: 9:00-6:00, Sat: 9:00-1:00, Sun: Closed",,,
The Medicine Shoppe Pharmacy,,200 N 10th Street,,Poplar Bluff,MO,63901-4856,United States,573-686-7216,,,"Mon-Fri: 10:00 am - 6:00 pm, Sat: 10:00 am - 1:00 pm, Sun: Closed",,,
The Medicine Shoppe Pharmacy,,16 Stonegate Ctr,,Valley Park,MO,63088-0207,United States,(636) 225-5123,,,"Mon-Fri: 9:00am - 6:00pm, Sat: 9:00am - 1:00pm, Sun: Closed",,,
The Medicine Shoppe Pharmacy,,11330 Gravois,,St. Louis,MO,63126-3608,United States,(314) 842-0910,,,"Mon-Fri: 9:00-6:00, Sat: 9:00-1:00, Sun: Closed",,,
The Medicine Shoppe Pharmacy,,488 South Fifth Street,,St Charles,MO,63301,United States,636-949-5593,,,"Mon - Fri: 9am - 7pm, Sat: 9am - 3pm, Sun: Closed",,,
The Medicine Shoppe Pharmacy,,3137 S Grand Blvd.,,St Louis,MO,63118-1020,United States,(314) 865-1528,,,"Mon-Fri: 9:00-6:00, Sat: Closed, Sun: Closed",,,
The Medicine Shoppe Pharmacy,,106 #B,,Chesterfield,MO,63017,United States,(314) 469-7171,,,"Mon-Fri: 9:00am - 7:00pm, Sat: 9:00am - 4:00pm, Sun: 10:00am - 3:00pm",,,
The Medicine Shoppe Pharmacy,,2386 N Hwy 67,,Florissant,MO,63033-2034,United States,(314) 921-7700,,,"Mon-Fri: 9:00AM - 6:00PM, Sat: 10:00AM - 2:00PM, Sun: Closed",,,
The Medicine Shoppe Pharmacy,,106-A Broadway,,Elsberry,MO,63343,United States,(573) 898-2550,,,"Mon-Fri: 9:00am - 5:00pm, Sat: 9:00am - 1:00pm, Sun: Closed",,,
The Medicine Shoppe Pharmacy,,2514 Woodson Road,,Overland,MO,63114-5437,United States,(314) 427-1818,,,"Mon-Fri: 9:00am - 6:00pm, Sat: 9:00am - 1:00pm, Sun: Closed",,,
The Medicine Shoppe Pharmacy,,530 Grove Street,,Fayetteville,NC,28301,United States,910-483-5117,,,"Mon-Fri: 9:30am - 6:00pm, Sat: 9:30am - 1:00pm, Sun: Closed",,,
The Medicine Shoppe Pharmacy,,149 Pond Fort Trail,,Lake St. Louis,MO,63367,United States,(636) 321-1001,,,"Mon-Fri: 9:00am - 6:00pm, Sat: 9:00am - 1:00pm, Sun: Closed",,,
The Medicine Shoppe Pharmacy,,635 S. Sturgeon,,Montgomery City,MO,63361,United States,(573) 564-1111,,,"Mon-Fri: 9:00am - 6:00pm, Sat: 9:00am - 1:00pm, Sun: Closed",,,
The Medicine Shoppe Pharmacy,,200 E. Jackson Street,,Mexico,MO,65265-2821,United States,(573) 581-7561,,,"Mon-Fri: 8:30-6:00, Sat: 8:30-12:00, Sun: Closed",,,
The Medicine Shoppe Pharmacy,,4441 Brown Road,,St. Louis,MO,63134-3405,United States,(314) 428-7676,,,"Mon-Fri: 9:30-6:00, Sat: 9:00-1:00, Sun: Closed",,,
The Medicine Shoppe Pharmacy,,920-M St Clair Plaza Dr,,St. Clair,MO,63077,United States,(636) 629-2022,,,"Mon-Fri: 9:00-6:00, Sat: 9:00-12:30, Sun: Closed",,,
The Medicine Shoppe Pharmacy,,10 Centerline Drive,,Troy,MO,63379,United States,(636) 462-7005,,,"Mon-Fri: 9am - 6pm, Sat: 9am - 1pm, Sun: Closed",,,
The Medicine Shoppe Pharmacy,,1474 N Boonville,,Springfield,MO,65802-1350,United States,(417) 869-1866,,,"Mon-Fri: 9:00-6:00, Sat: 9:00-1:00, Sun: Closed",,,
The Medicine Shoppe Pharmacy,,505 Salt Lick Road,,St. Peters,MO,63376,United States,636.278.6561,,,"Monday - Wednesday: 10:00am - 7:00pm, Thursday and Friday: 10:00am - 6:00pm, Saturday and Sunday: Closed",,,
The Medicine Shoppe Pharmacy,,1405 NE Douglas,,Lees Summit,MO,64086,United States,816.524.8444,,,"Mon-Fri: 9am - 6pm, Sat: 9am - 1pm, Sun: Closed",,,
The Medicine Shoppe Pharmacy,,"400 North Main, Suite C",,Onsted,MI,49265,United States,517-467-7225,,,"Mon-Fri: 10am - 6pm, Sat: 9am - 12pm, Sun: Closed",,,
The Medicine Shoppe Pharmacy,,1107 S. Madison,,Webb City,MO,64870-2831,United States,(417) 673-4909,,,"Mon-Fri: 10:00-6:00, Sat: 10:00-1:00, Sun: Closed",,,
The Medicine Shoppe Pharmacy,,810 West 35th St.,,Higginsville,MO,64037,United States,660.584.2700,,,"Mon-Fri: 9am-6pm, Sat: 9am-12pm, Sun: Closed",,,
The Medicine Shoppe Pharmacy,,663 E Cedar,,Gladwin,MI,48624-2020,United States,(989) 426-4595,,,"Mon-Fri: 9:00-6:00, Sat: 9:00-1:00, Sun: Closed",,,
The Medicine Shoppe Pharmacy,,103B-2 North Crain Highway,,Glen Burnie,MD,21061-3060,United States,(410) 760-2290,,,"Mon-Fri: 9:30-6:30, Sat: 10:00-2:00, Sun: Closed",,,
The Medicine Shoppe Pharmacy,,12838 New Hampshire Ave,,Silver Spring,MD,20904-3352,United States,(301) 622-0744,,,"Mon-Fri: 9:00AM - 6:00PM, Sat: 9:00AM - 2:00PM, Sun: Closed",,,
The Medicine Shoppe Pharmacy,,"12502 Willowbrook Road, S. E.",,Cumberland,MD,21502,United States,(301) 759-0203,,,"Mon-Fri: 8:00 am - 5:00 pm, Sat: Closed, Sun: Closed",,,
The Medicine Shoppe Pharmacy,,373 Sabattus Street,,Lewiston,ME,04240,United States,207-783-3539,,,"Pharmacy & Medical Supplies Store: Mon-Fri: 9:00 am – 6:00 pm, Sat: 9:00 am – 1:00 pm Sun: Closed",,,
The Medicine Shoppe Pharmacy,,11306 Bedford Road N. E,,Cumberland,MD,21502,United States,(301) 777-1771,,,"Mon-Fri: 8:00 am - 5:00 pm, Sat: Closed, Sun: Closed",,,
The Medicine Shoppe Pharmacy,,64 Greene Street,,Cumberland,MD,21502,United States,(301) 724-1183,,,"Mon-Fri: 8:00 am - 5:00 pm, Sat: Closed, Sun: Closed",,,
The Medicine Shoppe Pharmacy,,10601 New Georges Creek Road,,Frostburg,MD,21532,United States,(301) 689-9961,,,"Mon-Fri: 8:00 am - 5:00 pm, Sat: Closed, Sun: Closed",,,
The Medicine Shoppe Pharmacy,,20 N. 3rd St,,Oakland,MD,21550,United States,(301) 334-2197,,,"Mon-Fri: 8:30am-9:00pm, Sat: 8:30am-9:00pm, Sun: 6:00pm-9:00pm",,,
The Medicine Shoppe Pharmacy,,10313 Georgia Avenue,,Silver Spring,MD,20902,United States,301.681.5878,,,"Mon-Fri: 9:00am-5:00pm, Sat: 10:00am-2:00pm, Sun: Closed",,,
The Medicine Shoppe Pharmacy,,500 N James,,Grayling,MI,49738,United States,(989) 348-2000,,,"Mon-Fri: 9:30-6:00, Sat: 9:30-1:00, Sun: Closed",,,
The Medicine Shoppe Pharmacy,,288 East Green St,,Westminster,MD,21157-2912,United States,(410) 848-7426,,,"Mon-Fri: 10:00 AM - 6:00 PM, Sat: 10:00 AM - 1:00 PM, Sun: Closed",,,
The Medicine Shoppe Pharmacy,,1100 W. Industrial Blvd.,,Cumberland,MD,21502,United States,301-722-5100,,,"Mon-Fri: 9am - 6pm, Sat: 9am - 1pm, Sun: Closed",,,
The Medicine Shoppe Pharmacy,,149 Main Street,,Grantsville,MD,21536,United States,301.895.5177,,,"Mon-Fri: 9:00am - 6:00pm, Sat: 9:00am - 1:00pm, Sun: Closed",,,
The Medicine Shoppe Pharmacy,,419 West Court St,,Winnfield,LA,71483-2743,United States,(318) 628-2136,,,"Mon-Fri: 9:00-6:00, Sat: Closed, Sun: Closed",,,
The Medicine Shoppe Pharmacy,,411 E Main St,,Oak Grove,LA,71263-1003,United States,(318) 428-4205,,,"Mon-Fri: 9:00-5:30, Sat: 9:00-1:00, Sun: Closed",,,
The Medicine Shoppe Pharmacy,,7473 Secor Road,,Lambertville,MI,48144,United States,734-856-9123,,,"Mon-Fri: 9am - 6pm, Sat: 9am - 1pm, Sun: Closed",,,
The Medicine Shoppe Pharmacy,,1510 South 2nd Street,,Monroe,LA,71202,United States,318.323.2883,,,"Mon-Fri: 9am - 6pm, Sat: 9am - 1pm, Sun: Closed",,,
The Medicine Shoppe Pharmacy,,Route 40 East,,Inez,KY,41224-1312,United States,(606) 298-7774,,,"Monday - Thursday: 9:00am - 6:00pm, Friday: 9:00am - 3:00pm, Saturday and Sunday: Closed",,,
The Medicine Shoppe Pharmacy,,19 Main Street,,Lonaconing,MD,21539,United States,(301) 463-5757,,,"Mon-Fri: 9:00am - 6:00pm, Sat: 9:00am - 1:00pm, Sun: Closed",,,
The Medicine Shoppe Pharmacy,,102 Prince Royal Dr,,Berea,KY,40403,United States,(859) 985-7283,,,"Mon-Fri: 9:00am - 6:00pm, Sat: 9:00am - 3:00pm, Sun: Closed",,,
The Medicine Shoppe Pharmacy,,238 East Main,,Richmond,KY,40475,United States,859-623-8900,,,"Mon-Fri: 9:00 am - 6:00 pm, Sat: 9:00 am - Noon, Sun: Closed",,,
The Medicine Shoppe Pharmacy,,131 Jessica Lane,,Olive Hill,KY,41164,United States,(606) 286-2225,,,"Mon-Fri: 9:00am - 7:00pm, Sat: 9:00am - 2:00pm, Sun: Closed",,,
The Medicine Shoppe Pharmacy,,45 Stephens Branch Rd.,,Martin,KY,41649,United States,(606) 949-1349,,,"Mon-Fri: 9:00am - 6:00pm, Sat: 9:00am - 2:00pm, Sun: Closed",,,
The Medicine Shoppe Pharmacy,,900 E. Mt. Vernon St.,,Somerset,KY,42501,United States,606-679-9227,,,"Mon-Fri: 9:00 am - 6:00 pm, Sat: 9:00 am - 1:00 pm, Sun: Closed",,,
The Medicine Shoppe Pharmacy,,1717 S. Union,,Opelousas,LA,70570,United States,337-948-7703,,,"Mon-Fri: 9:00am - 5:00pm, Sat: 9:00am - 12:00pm, Sun: Closed",,,
The Medicine Shoppe Pharmacy,,900 Hustonville Road,,Danville,KY,40422,United States,(859) 238-0002,,,"Mon-Fri: 9:00am - 6:00pm, Sat: 9:00am - 12:00pm, Sun: Closed",,,
The Medicine Shoppe Pharmacy,,400 N Penn,,Independence,KS,67301-3012,United States,(620) 331-0036,,,"Mon-Fri: 9:00-6:00, Sat: 9:00-12:00, Sun: Closed",,,
The Medicine Shoppe Pharmacy,,1001 W 11Th,,Coffeyville,KS,67337-4220,United States,(620) 251-2150,,,"Mon-Fri: 9:00-6:00, Sat: 9:00-12:00, Sun: Closed",,,
The Medicine Shoppe Pharmacy,,22044 Main Street,,Hyden,KY,41749,United States,606.672.8705,,,"Mon-Fri: 9am - 6pm, Sat: 9am - 2pm, Sun: Closed",,,
The Medicine Shoppe Pharmacy,,421 Main St.,,Chanute,KS,66720-1607,United States,(620) 431-7193,,,"Mon-Fri: 9:00 AM - 6:00 PM, Sat: 9:00 AM - 1:00 PM, Sun: Closed",,,
The Medicine Shoppe Pharmacy,,716 North 4Th Street,,Burlington,KS,66839-1286,United States,(620) 364-3388,,,"Mon-Fri: 9:00am - 6:00pm, Sat: 10:00am - 2:00pm, Sun: Closed",,,
The Medicine Shoppe Pharmacy,,208 Stanford St,,Lancaster,KY,40444,United States,859-792-1697,,,"Mon-Fri: 9am- 6pm, Sat: 9am-3pm, Sun: Closed",,,
The Medicine Shoppe Pharmacy,,1000 Adams St,,Great Bend,KS,67530-4256,United States,(620) 792-3030,,,"Mon-Fri: 9:00-6:00, Sat: 9:00-1:00, Sun: Closed",,,
The Medicine Shoppe Pharmacy,,1401 North Main,,Hutchinson,KS,67501-4003,United States,620-663-7681,,,"Mon-Fri: 9:00 am - 6:00 pm, Sat: 9:00 am - 1:00 pm, Sun: Closed",,,
The Medicine Shoppe Pharmacy,,7222 W 80th St,,Overland Park,KS,66204,United States,913.341.7244,,,"Mon-Fri: 9:30am-6:00pm, Sat: 10:00am-1:00pm, Sun: Closed",,,
The Medicine Shoppe Pharmacy,,2339 West Broadway,,Mount Vernon,IL,62864-2917,United States,(618) 242-8776,,,"Mon-Fri: 9:00-6:00, Sat: 9:00-1:00, Sun: Closed",,,
The Medicine Shoppe Pharmacy,,6523 Parallel Parkway,,Kansas City,KS,66102,United States,913.788.3344,,,"Mon-Fri: 9am - 6pm, Sat: 10am - 1pm, Sun: Closed",,,
The Medicine Shoppe Pharmacy,,400-A W. Carpenter,,Jerseyville,IL,62052,United States,618-498-6461,,,"Mon-Fri: 9am - 6pm, Sat: 9am - 2pm, Sun: Closed",,,
The Medicine Shoppe Pharmacy,,215 North Broadway,,Salem,IL,62881,United States,(618) 548-0070,,,"Mon-Fri: 9:00am - 6:00pm, Sat: 9:00am - 1:00pm, Sun: Closed",,,
The Medicine Shoppe Pharmacy,,1315 West Main Street,,Marion,IL,62959,United States,618-997-1393,,,"Mon-Fri: 9:00 am - 5:30 pm, Sat: 9:00 am - 1:00 pm, Sun: Closed",,,
The Medicine Shoppe Pharmacy,,304 S Commercial Street,,Harrisburg,IL,62946,United States,618-252-5349,,,"Mon-Fri: 9:00 am - 5:30 pm, Sat: 9:00 am - 1:00 pm, Sun: Closed",,,
The Medicine Shoppe Pharmacy,,1116 W Main St.,,Fairfield,IL,62837-2563,United States,(618) 842-6007,,,"Mon-Fri: 9:00-6:00, Sat: 9:00-1:00, Sun: Closed",,,
The Medicine Shoppe Pharmacy,,600 W Jourdan Street,,Newton,IL,62448,United States,6187832838,,,"Mon-Fri: 9am - 6pm, Sat: 9am - 1pm, Sun: Closed",,,
The Medicine Shoppe Pharmacy,,104 N Sangamon Avenue,,Gibson City,IL,60936-1343,United States,(217) 784-8545,,,"Mon-Fri: 8:30am - 5:30pm, Sat: 8:30am - 12:00pm, Sun: Closed",,,
The Medicine Shoppe Pharmacy,,817 E. McCord,,Centralia,IL,62801-3003,United States,(618) 533-5411,,,"Mon-Fri: 9:00-6:00, Sat: 9:00-1:00, Sun: Closed",,,
The Medicine Shoppe Pharmacy,,134 South Main,,Columbia,IL,62236-2306,United States,(618) 281-5135,,,"Mon-Fri: 9:00-6:00, Sat: 9:00-2:00, Sun: Closed",,,
The Medicine Shoppe Pharmacy,,203 S Main St,,Dieterich,IL,62424,United States,(217) 925-2838,,,"Mon-Fri: 9:00am - 6:00pm, Sat: 9:00am - 3:00pm, Sun: Closed",,,
The Medicine Shoppe Pharmacy,,"317 Salem Place,  Suite 110",,Fairview Heights,IL,62208,United States,618-632-2886,,,"Mon: 8:30 a.m. - 6:30 p.m., Tue: 8:30 a.m. - 6:30 p.m., Wed: 8:30 a.m. - 6:30 p.m., Thur: 8:30 a.m. - 5:30 p.m., Fri: 8:30 a.m. - 5:30 p.m., Sat: Closed, Sun: Closed, Sun",,,
The Medicine Shoppe Pharmacy,,1 Royal Heights Center,,Belleville,IL,62226,United States,618-233-0100,,,"Mon-Fri: 9:00am - 6:00pm, Sat: 10:00am - 1:00pm, Sun: Closed",,,
The Medicine Shoppe Pharmacy,,813 N. 2nd St.,,Marshall,IL,62441,United States,217-826-6374,,,"Mon-Fri: 9am - 5:30pm, Sat: 9am - 1pm, Sun: Closed",,,
The Medicine Shoppe Pharmacy,,1529 Johnson Road,,Granite City,IL,62040-3705,United States,(618) 451-4200,,,"Mon-Fri: 9:00-6:00, Sat: 9:00-3:00, Sun: Closed",,,
The Medicine Shoppe Pharmacy,,207 East Main Street,,Du Quoin,IL,62832-1424,United States,(618) 542-2575,,,"Mon-Fri: 8:30am - 6:00pm, Sat: 8:30am - 2:00pm, Sun: Closed",,,
The Medicine Shoppe Pharmacy,,4 W Third St,,Sterling,IL,61081-3503,United States,(815) 622-5000,,,"Mon-Fri: 9:00am - 5:30pm, Sat: 9:00am - 12:30pm, Sun: Closed",,,
The Medicine Shoppe Pharmacy,,817 Upper Cahokia Road,,Cahokia,IL,62206-1211,United States,(618) 332-1028,,,"Mon-Fri: 9:00am - 5:30pm, Sat: 10:00am - 2:00pm, Sun: Closed",,,
The Medicine Shoppe Pharmacy,,901 E Edwardsville Road,,Wood River,IL,62095,United States,618.259.0085,,,"Mon-Fri: 9:00am - 6:00pm, Sat: 9:00am - 1:00pm, Sun: Closed",,,
The Medicine Shoppe Pharmacy,,200 W. Morton Street,,Jacksonville,IL,62650,United States,217-245-1551,,,"Mon-Fri: 9:00 am - 6:00 pm, Sat: 9:00 am - 1:00 pm, Sun: Closed",,,
The Medicine Shoppe Pharmacy,,101 E. Main Street,,Ridgway,IL,62979,United States,618-272-3841,,,"Mon-Fri: 9am - 5:30pm, Sat: Closed, Sun: Closed",,,
The Medicine Shoppe Pharmacy,,411 West 10th Street,,Rome,GA,30165-2640,United States,(706) 295-5713,,,"Mon-Fri: 9:30-6:00, Sat: 9:30-1:00, Sun: Closed",,,
The Medicine Shoppe Pharmacy,,2176 Sarno Road,,Melbourne,FL,32935,United States,321.242.2440,,,"Mon-Fri: 10:00am-6:00pm, Sat: 10:00am-1:00pm, Sun: Closed",,,
The Medicine Shoppe Pharmacy,,615 Cross Street,,Punta Gorda,FL,33950,United States,941.505.1095,,,"Mon-Fri: 9:00am - 5:30pm, Sat: 9:00am - 1:00pm, Sun: Closed",,,
The Medicine Shoppe Pharmacy,,4007 S Nova Road,,Port Orange,FL,32127-9203,United States,(386) 304-8222,,,"Mon-Fri: 9:00 am - 5:30 pm, Sat: 9:00 am - 1:00 pm, Sun: Closed",,,
The Medicine Shoppe Pharmacy,,4800 NW Boca Raton Blvd #3,,Boca Raton,FL,33431,United States,561-465-3530,,,"Mon-Fri: 9:00am – 5:30pm, Sat: Closed, Sun: Closed",,,
The Medicine Shoppe Pharmacy,,3524 B Tamiami Trail,,Port Charlotte,FL,33952,United States,941.627.9855,,,"Mon-Fri: 9:00am-5:30pm, Sat: 9:00am-1:00pm, Sun: Closed",,,
The Medicine Shoppe Pharmacy,,3030 E. Semoran Blvd.,,Apopka,FL,32703-5902,United States,(407) 774-1957,,,"Mon-Fri: 9:00-6:00, Sat: 9:00-1:00, Sun: Closed",,,
The Medicine Shoppe Pharmacy,,57 Homestead Road North,,Lehigh Acres,FL,33936,United States,(239) 369-0141,,,"Mon-Fri: 9am-6pm, Sat: 9am-1pm, Sun: Closed",,,
The Medicine Shoppe Pharmacy,,133 North Grand East,,Springfield,IL,62702,United States,217.525.0058,,,"Mon-Fri: 9 am -6 pm, Sat: 9 am - 1 pm, Sun: Closed",,,
The Medicine Shoppe Pharmacy,,6401 Dr. Martin Luther King  Jr. St. North,,St. Petersburg,FL,33702,United States,(727) 527-5778,,,"Mon-Fri: 9:00-6:00, Sat: 9:00-1:00, Sun: Closed",,,
The Medicine Shoppe Pharmacy,,1141 North Dixie Freeway,,New Smyrna Beach,FL,32168-6405,United States,(386) 427-3459,,,"Mon-Fri: 9:00am - 5:00pm, Sat: 9:00am - 2:00pm, Sun: Closed",,,
The Medicine Shoppe Pharmacy,,938 Patricia Avenue,,Dunedin,FL,34698-3812,United States,(727) 733-0404,,,"Mon-Fri: 9:00am - 6:00pm, Sat: 9:00am - 3:00pm, Sun: Closed",,,
The Medicine Shoppe Pharmacy,,2939 Forest Hill Blvd,,West Palm Beach,FL,33406,United States,(561) 965-4288,,,"Mon-Fri: 9:00am - 5:30pm, Sat: Closed, Sun: Closed",,,
The Medicine Shoppe Pharmacy,,4539 Grand Blvd.,,New Port Richey,FL,34652-5121,United States,727-845-5550,,,"Mon-Fri: 9:00 am - 6:00 pm, Sat: Closed, Sun: Closed",,,
The Medicine Shoppe Pharmacy,,1100 North Young Blvd,,Chiefland,FL,32626,United States,(352) 490-7700,,,"Mon-Fri: 9:00am - 6:00pm, Sat: 8:30am - 1:00pm, Sun: Closed",,,
The Medicine Shoppe Pharmacy,,405 S. Lawrence Blvd.,,Keystone Heights,FL,32656,United States,(352) 478-2057,,,"Mon-Fri: 8:30am - 6:00pm, Sat: 9:00am - 1:00pm, Sun: Closed",,,
The Medicine Shoppe Pharmacy,,7729 S.W. US Highway 27,,Fort White,FL,32038,United States,(386) 497-2580,,,"Mon-Fri: 8:30am - 6:00pm, Sat: 9:00am - 1:00pm, Sun: Closed",,,
The Medicine Shoppe Pharmacy,,10905 N Nebraska Ave,,Tampa,FL,33612,United States,813-971-8401,,,"Mon-Fri: 9am - 5pm, Sat: Closed, Sun: Closed",,,
The Medicine Shoppe Pharmacy,,10720 State Road 54,,Trinity,FL,34655,United States,727.375.2502,,,"Mon-Fri: 9am - 6pm, Sat: 9am - 1pm, Sun: Closed",,,
The Medicine Shoppe Pharmacy,,216 Oakfield Dr.,,Brandon,FL,33511-5707,United States,(813) 662-9926,,,"Mon-Fri: 9:00-6:00, Sat: 9:00-2:00, Sun: Closed",,,
The Medicine Shoppe Pharmacy,,305 SW US Highway 27,,Branford,FL,32008,United States,(386) 935-6905,,,"Mon-Fri: 8:30am - 6:00pm, Sat: 9:00am - 1:00pm, Sun: Closed",,,
The Medicine Shoppe Pharmacy,,1905 North Andrews Avenue,,Wilton Manors,FL,33311-3914,United States,(954) 563-8407,,,"Mon: 9:00pm - 6:00pm Tue: 9:00pm - 6:00pm, Wed: 9:00pm - 7:00pm Thur: 9:00pm - 6:00pm, Fri: 9:00pm - 6:00pm Sat: Closed, Sun: Close",,,
The Medicine Shoppe Pharmacy,,"347 S. W. Main Boulevard, Suite 102",,Lake City,FL,32025,United States,(386) 758-6770,,,"Mon-Fri: 8:30am - 6:30pm, Sat: 9:00am - 1:30pm, Sun: Closed",,,
The Medicine Shoppe Pharmacy,,"1555 East Bay Drive, Unit H",,Largo,FL,33771,United States,727.501.0188,,,"Mon-Fri: 9am - 6pm, Sat: 9am - 1pm, Sun: Closed",,,
The Medicine Shoppe Pharmacy,,3718 West US Highway 90,,Lake City,FL,32055,United States,(386) 755-9300,,,"Mon-Fri: 8:30am - 6:30pm, Sat: 9:00am - 1:30pm, Sun: Closed",,,
The Medicine Shoppe Pharmacy,,613 Broad Street,,New London,CT,06320-2544,United States,(860) 442-0669,,,"Mon-Fri: 9:00-6:00, Sat: 9:00-1:00, Sun: Closed",,,
The Medicine Shoppe Pharmacy,,229 West Main Street,,Mayo,FL,32066,United States,(386) 294-3777,,,"Mon-Fri: 8:30am - 6:00pm, Sat: 9:00am - 1:00pm, Sun: Closed",,,
The Medicine Shoppe Pharmacy,,139 SW Macon Street,,Madison,FL,32340,United States,(850) 973-8120,,,"Mon-Fri: 8:30am - 6:00pm, Sat: 9:00am - 1:00pm, Sun: Closed",,,
The Medicine Shoppe Pharmacy,,535 Boston Post Rd,,Old Saybrook,CT,06475,United States,(860) 339-5667,,,"Mon-Fri: 9:00am - 6:00pm, Sat: 9:00am - 1:00pm, Sun: Closed",,,
The Medicine Shoppe Pharmacy,,202 Leavenworth Road,,Shelton,CT,06484-1809,United States,(203) 929-8668,,,"Mon-Fri: 9:00am - 7:00pm, Sat: 9:00am - 2:00pm, Sun: Closed",,,
The Medicine Shoppe Pharmacy,,9 Hartford Ave,,Granby,CT,06035,United States,860-653-2517,,,"Mon-Fri: 9:00 AM-6:00 PM, Sat: 9:00 AM-3:00 PM, Sun: Closed",,,
The Medicine Shoppe Pharmacy,,79 East Street,,Rockville,CT,06066-3837,United States,(860) 875-2507,,,"Mon-Fri: 9:30am - 7:00pm, Sat: 9:30am - 3:00pm, Sun: Closed",,,
The Medicine Shoppe Pharmacy,,319 S. Woodland Blvd.,,Deland,FL,32720-5853,United States,(386) 734-3383,,,"Mon-Fri: 9:30-5:30, Sat: 9:30-1:00, Sun: Closed",,,
The Medicine Shoppe Pharmacy,,1625 Medical Center Pt,,Colorado Springs,CO,80907,United States,719-577-9800,,,"Mon-Fri: 8:30 am - 5:30 pm, Sat: Closed, Sun: Closed",,,
The Medicine Shoppe Pharmacy,,774 Farmington Ave,,West Hartford,CT,06119-1615,United States,(860) 232-4595,,,"Mon-Fri: 9:00-6:00, Sat: 9:00-1:00, Sun: Closed",,,
The Medicine Shoppe Pharmacy,,17623 Pioneer Blvd,,Artesia,CA,90701,United States,562-402-1000,,,"Mon - Fri: 9am - 6pm, Saturday: 9am - 2pm, Sunday: Closed, Check us out on Yelp",,,
The Medicine Shoppe Pharmacy,,10230 Artesia Blvd.,,Bellflower,CA,90706,United States,(562) 866-8281,,,"Mon-Fri: 9:00am - 6:00pm, Sat: 9:00am - 12:00pm, Sun: Closed",,,
The Medicine Shoppe Pharmacy,,1520 North Mountain Avenue,,Ontario,CA,91762,United States,909.391.3542,,,"Mon-Fri: 10:00am-6:00pm, Sat: 10:00am-1:00pm, Sun: Closed",,,
The Medicine Shoppe Pharmacy,,2306 N. Wahsatch,,Colorado Springs,CO,80907-6941,United States,(719) 471-3600,,,"Mon-Fri: 9:00-6:00, Sat: 9:00-1:00, Sun: Closed",,,
The Medicine Shoppe Pharmacy,,296 Bedford Street,,Stamford,CT,06901-1720,United States,(203) 327-4479,,,"Mon-Fri: 8:30-6:00, Sat: 8:30-3:00, Sun: Closed",,,
The Medicine Shoppe Pharmacy,,2241 Michael Drive,,Newbury Park,CA,91320-3340,United States,(805) 375-6650,,,"Mon-Fri: 10:00-6:00, Sat: 10:00-1:00, Sun: Closed",,,
The Medicine Shoppe Pharmacy,,2431 North Union Blvd.,,Colorado Springs,CO,80909,United States,719-630-3154,,,"Mon-Fri: 8:30am - 6:00pm, Sat: 9:00am - 1:00pm, Sun: Closed",,,
The Medicine Shoppe Pharmacy,,4050 Phelan Rd. Ste #8,,Phelan,CA,82371,United States,(760) 868-2800,,,"Mon-Fri: 9:00am - 6:30pm, Sat: 9:00am - 3:00pm, Sun: Closed",,,
The Medicine Shoppe Pharmacy,,11126 Palms Boulevard,,Los Angeles,CA,90034-6503,United States,(310) 837-1030,,,"Mon-Fri: 10:00-6:00, Sat: 10:00-1:00, Sun: Closed",,,
The Medicine Shoppe Pharmacy,,1250 LaVenta Drive Ste. 114,,Westlake Village,CA,91361,United States,805.497.3974,,,"Mon-Fri: 9:00am-6:00pm, Sat: 9:00am-1:00pm, Sun: Closed",,,
The Medicine Shoppe Pharmacy,,11003 Lakewood Boulevard,,Downey,CA,90241-3876,United States,(562) 869-9200,,,"Mon-Fri: 10:00am – 6:00pm, Sat: 10:00am - 1:30pm, Sun: Closed",,,
The Medicine Shoppe Pharmacy,,2196 South Saviers Road,,Oxnard,CA,93033-3825,United States,(805) 487-6303,,,"Mon-Fri: 10:00-6:00, Sat: 9:00-1:00, Sun: Closed",,,
The Medicine Shoppe Pharmacy,,19225 Ventura Boulevard,,Tarzana,CA,91356,United States,818.996.2878,,,"Mon-Fri: 10:00am-5:30pm, Sat: Closed, Sun: Closed",,,
The Medicine Shoppe Pharmacy,,2611 E. Thompson Blvd. #103,,Ventura,CA,93003,United States,(805) 648-2724,,,"Mon-Fri: 9:30am - 6pm, Sat: 9:30am - 12:30pm, Sun: Closed",,,
The Medicine Shoppe Pharmacy,,2925 Sycamore Drive,,Simi Valley,CA,93065,United States,805.581.3784,,,"Mon-Fri: 9:00am - 6:00pm, Sat: 9:30am - 12:30pm, Sun: Closed",,,
The Medicine Shoppe Pharmacy,,3350 Loma Vista Rd,,Ventura,CA,93003,United States,805-765-6046,,,"Mon-Fri: Sat:, Sun",,,
The Medicine Shoppe Pharmacy,,2173 Pickwick Drive,,Camarillo,CA,93010,United States,805.389.5311,,,"Mon-Fri: 9:30am-6:00pm, Sat: 9:30am-1:00pm, Sun: Closed",,,
The Medicine Shoppe Pharmacy,,960 East Ojai Avenue,,Ojai,CA,93023-2903,United States,(805) 646-0106,,,"Mon-Fri: 10:00-6:00, Sat: 10:00-1:00, Sun: Closed",,,
The Medicine Shoppe Pharmacy,,3605 State Street,,Santa Barbara,CA,93105-2521,United States,(805) 687-1376,,,"Mon-Fri: 9:30-5:30, Sat: 10:00-1:00, Sun: Closed",,,
The Medicine Shoppe Pharmacy,,3507 W Walnut Avenue,,Visalia,CA,93277,United States,559.625.5015,,,"Mon-Fri: 9:30am-5:30pm, Sat: 10:00am-1:00pm, Sun: Closed",,,
The Medicine Shoppe Pharmacy,,16915 Devonshire Street,,Granada Hills,CA,91344,United States,818.366.8857,,,"Mon-Fri: 9:30am-6:00pm, Sat: 10:00am-1:00pm, Sun: Closed",,,
The Medicine Shoppe Pharmacy,,227 W. Janss Rd.,,Thousand Oaks,CA,91360,United States,805-497-6113,,,"Mon-Fri: 9:00am - 6:00pm, Sat: Closed, Sun: Closed",,,
The Medicine Shoppe Pharmacy,,15555 Main Street #D8,,Hesperia,CA,92345,United States,(760) 948-1000,,,"Mon-Fri: 8:30am - 6:30pm, Sat: 9:00am - 3:00pm, Sun: Closed",,,
The Medicine Shoppe Pharmacy,,9308 B Telephone Road,,Ventura,CA,93004-1718,United States,(805) 647-1133,,,"Mon-Fri: 9:30am - 6:30pm, Sat: 9:30am - 1:30pm, Sun: Closed",,,
The Medicine Shoppe Pharmacy,,5645 Auburn St,,Bakersfield,CA,93306,United States,661.871.8881,,,"Mon-Fri: 9:00am-6:00pm, Sat: Closed, Sun: Closed",,,
The Medicine Shoppe Pharmacy,,219 East Olive,,Fresno,CA,93728-3129,United States,(559) 268-8258,,,"Mon-Fri: 9:30-5:30, Sat: 9:30-1:00, Sun: Sun Closed",,,
The Medicine Shoppe Pharmacy,,4845 East Butler,,Fresno,CA,93727-5015,United States,(559) 255-3301,,,"Mon-Fri: 9:30-5:30, Sat: 9:30-1:00, Sun: Closed",,,
The Medicine Shoppe Pharmacy,,195 West Shaw Avenue,,Clovis,CA,93612,United States,559-297-0251,,,"Mon-Fri: 10am - 6pm, Sat: 10am - 1pm, Sun: Closed",,,
The Medicine Shoppe Pharmacy,,95 Montgomery Drive,,Santa Rosa,CA,95404,United States,707-525-1130,,,"Mon-Fri: 8:00am - 5:00pm, Sat: 8:00am - 5:00pm, Sun: Closed",,,
The Medicine Shoppe Pharmacy,,1199 Los Osos Valley Rd,,Los Osos,CA,93402,United States,805.528.1447,,,"Mon-Fri: 10:00am-6:00pm, Sat: 10:00am-1:00pm, Sun: Closed",,,
The Medicine Shoppe Pharmacy,,2100 Monument Blvd,,Pleasant Hill,CA,94523-3440,United States,(925) 685-0147,,,"Mon-Fri: 9:00am - 6:00pm, Sat: Closed, Sun: Closed",,,
The Medicine Shoppe Pharmacy,,2484 East Gettysburg Avenue,,Fresno,CA,93726,United States,559-222-6276,,,"Mon-Fri: 9:30am - 5:30pm, Sat: 10:00am - 1:00pm, Sun: Closed",,,
The Medicine Shoppe Pharmacy,,902 W. Rex Allen Dr.,,Willcox,AZ,85643,United States,520-766-1299,,,"Mon-Fri: 9am - 5:30pm, Sat: 9am - 12pm, Sun: Closed",,,
The Medicine Shoppe Pharmacy,,282 Village Square,,Orinda,CA,94563-2504,United States,(925) 254-1211,,,"Mon-Fri: 10:00-6:00, Sat: 10:00-2:00, Sun: Closed",,,
The Medicine Shoppe Pharmacy,,2939 Alta View Dr.,,San Diego,CA,92139-3311,United States,(619) 470-4550,,,"Mon-Fri: 9:00-6:00, Sat: 9:00-1:00, Sun: Closed",,,
The Medicine Shoppe Pharmacy,,10237 Magnolia Avenue,,Riverside,CA,92503,United States,951-509-9277,,,"Mon-Fri: 9:00-9:00, Sat: 10:00-4:00, Sun: Closed",,,
