store_name,store_number,address,address2,city,state,zip_code,country,phone_number,latitude,longitude,store_hours,store_type,other_fields,coming_soon
Super Stop & Shop,0644,44 Lake Avenue Ext.,Mill Plain Center,Danbury,CT,06811,United States,(203) 797-8901,,,"Sunday 7:00A-12:00A, Monday 7:00A-12:00A, Tuesday 7:00A-12:00A, Wednesday 7:00A-12:00A, Thursday 7:00A-12:00A, Friday 7:00A-12:00A, Saturday 7:00A-12:00A",,,
Super Stop & Shop,0670,4531 Main Street,,Bridgeport,CT,06606,United States,(203) 371-6972,,,"Sunday 7:00A-11:00P, Monday 6:00A-11:00P, Tuesday 6:00A-11:00P, Wednesday 6:00A-11:00P, Thursday 6:00A-11:00P, Friday 6:00A-11:00P, Saturday 6:00A-11:00P",,,
Super Stop & Shop,0695,275 Highland Avenue,,Cheshire,CT,06410,United States,(203) 272-3628,,,"Sunday 7:00A-12:00A, Monday 6:00A-12:00A, Tuesday 6:00A-12:00A, Wednesday 6:00A-12:00A, Thursday 6:00A-12:00A, Friday 6:00A-12:00A, Saturday 6:00A-12:00A",,,
Super Stop & Shop,0628,597 Farmington Avenue,,Bristol,CT,06010,United States,(860) 582-5674,,,"Sunday 6:00A-12:00A, Monday 6:00A-12:00A, Tuesday 6:00A-12:00A, Wednesday 6:00A-12:00A, Thursday 6:00A-12:00A, Friday 6:00A-12:00A, Saturday 6:00A-12:00A",,,
Super Stop & Shop,0606,195 West Street,,Cromwell,CT,06416,United States,(860) 635-8300,,,"Sunday 6:00A-11:00P, Monday 6:00A-12:00A, Tuesday 6:00A-12:00A, Wednesday 6:00A-12:00A, Thursday 6:00A-12:00A, Friday 6:00A-12:00A, Saturday 6:00A-12:00A",,,
Super Stop & Shop,0608,99 Linwood Avenue,,Colchester,CT,06415,United States,(860) 537-2361,,,"Sunday 7:00A-10:00P, Monday 6:00A-12:00A, Tuesday 6:00A-12:00A, Wednesday 6:00A-12:00A, Thursday 6:00A-12:00A, Friday 6:00A-12:00A, Saturday 6:00A-12:00A",,,
Super Stop & Shop,0652,215 East Main Street,,Clinton,CT,06413,United States,(860) 669-2228,,,"Sunday 7:00A-9:00P, Monday 6:00A-12:00A, Tuesday 6:00A-12:00A, Wednesday 6:00A-12:00A, Thursday 6:00A-12:00A, Friday 6:00A-12:00A, Saturday 6:00A-12:00A",,,
Super Stop & Shop,0698,2145 Fairfield Avenue,,Bridgeport,CT,06606,United States,(203) 333-0333,,,"Sunday 7:00A-10:00P, Monday 7:00A-10:00P, Tuesday 7:00A-10:00P, Wednesday 7:00A-10:00P, Thursday 7:00A-10:00P, Friday 7:00A-10:00P, Saturday 7:00A-10:00P",,,
Super Stop & Shop,0687,22 Leetes Island Rd.,,Branford,CT,06405,United States,(203) 488-1325,,,"Sunday 7:00A-10:00P, Monday 6:00A-11:00P, Tuesday 6:00A-11:00P, Wednesday 6:00A-11:00P, Thursday 6:00A-11:00P, Friday 6:00A-11:00P, Saturday 6:00A-11:00P",,,
Super Stop & Shop,0651,313 Cottage Grove Rd.,,Bloomfield,CT,06002,United States,(860) 242-5954,,,"Sunday 7:00A-12:00A, Monday 6:00A-12:00A, Tuesday 6:00A-12:00A, Wednesday 6:00A-12:00A, Thursday 6:00A-12:00A, Friday 6:00A-12:00A, Saturday 6:00A-12:00A",,,
Super Stop & Shop,0614,1135 Farmington Avenue,,Berlin,CT,06037,United States,(860) 828-0276,,,"Sunday 7:00A-10:00P, Monday 6:00A-11:00P, Tuesday 6:00A-11:00P, Wednesday 6:00A-11:00P, Thursday 6:00A-11:00P, Friday 6:00A-11:00P, Saturday 6:00A-11:00P",,,
Super Stop & Shop,0663,1360 East Town Road,,Milford,CT,06460,United States,(203) 877-1841,,,"Sunday 7:00A-10:00P, Monday 6:00A-11:00P, Tuesday 6:00A-11:00P, Wednesday 6:00A-11:00P, Thursday 6:00A-11:00P, Friday 6:00A-11:00P, Saturday 6:00A-11:00P",,,
Stop & Shop,0685,470 Monroe Turnpike,,Monroe,CT,06468,United States,(203) 268-0589,,,"Sunday 7:00A-9:00P, Monday 7:00A-10:00P, Tuesday 7:00A-10:00P, Wednesday 7:00A-10:00P, Thursday 7:00A-10:00P, Friday 7:00A-10:00P, Saturday 7:00A-10:00P",,,
Super Stop & Shop,0647,855 Bridgeport Avenue,,Milford,CT,06460,United States,(203) 876-0467,,,"Sunday 7:00A-10:00P, Monday 6:00A-10:00P, Tuesday 6:00A-10:00P, Wednesday 6:00A-10:00P, Thursday 6:00A-10:00P, Friday 6:00A-10:00P, Saturday 6:00A-10:00P",,,
Super Stop & Shop,0635,100 Division Street,,Ansonia,CT,06401,United States,(203) 732-3901,,,"Sunday 7:00A-10:00P, Monday 6:00A-11:00P, Tuesday 6:00A-11:00P, Wednesday 6:00A-11:00P, Thursday 6:00A-11:00P, Friday 6:00A-11:00P, Saturday 6:00A-11:00P",,,
Stop & Shop,0736,149 Franklin Street,,Westerly,RI,02891,United States,(401) 596-0169,,,"Sunday 7:00A-12:00A, Monday 6:00A-12:00A, Tuesday 6:00A-12:00A, Wednesday 6:00A-12:00A, Thursday 6:00A-12:00A, Friday 6:00A-12:00A, Saturday 6:00A-12:00A",,,
Super Stop & Shop,0726,2470 Warwick Avenue,,Warwick,RI,02889,United States,(401) 732-4616,,,"Sunday 7:00A-9:00P, Monday 6:00A-12:00A, Tuesday 6:00A-12:00A, Wednesday 6:00A-12:00A, Thursday 6:00A-12:00A, Friday 6:00A-12:00A, Saturday 6:00A-12:00A",,,
Super Stop & Shop,0739,575 Greenwich Avenue,,Warwick,RI,02888,United States,(401) 739-1696,,,"Sunday 7:00A-9:00P, Monday 7:00A-12:00A, Tuesday 7:00A-12:00A, Wednesday 7:00A-12:00A, Thursday 7:00A-12:00A, Friday 7:00A-12:00A, Saturday 7:00A-12:00A",,,
Super Stop & Shop,0709,300 Quaker Lane,,Warwick,RI,02888,United States,(401) 828-9360,,,"Sunday 7:00A-9:00P, Monday 6:00A-12:00A, Tuesday 6:00A-12:00A, Wednesday 6:00A-12:00A, Thursday 6:00A-12:00A, Friday 6:00A-12:00A, Saturday 6:00A-12:00A",,,
Super Stop & Shop,0725,333 West River Street,,Providence,RI,02909,United States,(401) 861-9300,,,"Sunday 7:00A-10:00P, Monday 7:00A-12:00A, Tuesday 7:00A-12:00A, Wednesday 7:00A-12:00A, Thursday 7:00A-12:00A, Friday 7:00A-12:00A, Saturday 7:00A-12:00A",,,
Super Stop & Shop,0729,3 Stilson Road,Route 138,Richmond,RI,02898,United States,(401) 539-8800,,,"Sunday 7:00A-9:00P, Monday 6:00A-12:00A, Tuesday 6:00A-12:00A, Wednesday 6:00A-12:00A, Thursday 6:00A-12:00A, Friday 6:00A-12:00A, Saturday 6:00A-12:00A",,,
Super Stop & Shop,0722,850 Manton Avenue,,Providence,RI,02909,United States,(401) 453-3899,,,"Sunday 7:00A-9:00P, Monday 6:00A-12:00A, Tuesday 6:00A-12:00A, Wednesday 6:00A-12:00A, Thursday 6:00A-12:00A, Friday 6:00A-12:00A, Saturday 6:00A-12:00A",,,
Super Stop & Shop,0710,368-398 Cottage Street,,Pawtucket,RI,02860,United States,(401) 721-9821,,,"Sunday 7:00A-9:00P, Monday 6:00A-11:00P, Tuesday 6:00A-11:00P, Wednesday 6:00A-11:00P, Thursday 6:00A-11:00P, Friday 6:00A-11:00P, Saturday 6:00A-11:00P",,,
Super Stop & Shop,0721,595 Smithfield Road,,North Smithfield,RI,02896,United States,(401) 769-0112,,,"Sunday 7:00A-9:00P, Monday 6:00A-12:00A, Tuesday 6:00A-12:00A, Wednesday 6:00A-12:00A, Thursday 6:00A-12:00A, Friday 6:00A-12:00A, Saturday 6:00A-12:00A",,,
Super Stop & Shop,0724,1128 Mineral Spring Avenue,Spring Plaza,North Providence,RI,02908,United States,(401) 727-3400,,,"Sunday 7:00A-9:00P, Monday 6:00A-11:00P, Tuesday 6:00A-11:00P, Wednesday 6:00A-11:00P, Thursday 6:00A-11:00P, Friday 6:00A-11:00P, Saturday 6:00A-11:00P",,,
Super Stop & Shop,0737,1300 Ten Rod Road,,North Kingstown,RI,02852,United States,(401) 268-3808,,,"Sunday 7:00A-9:00P, Monday 6:00A-12:00A, Tuesday 6:00A-12:00A, Wednesday 6:00A-12:00A, Thursday 6:00A-12:00A, Friday 6:00A-12:00A, Saturday 6:00A-12:00A",,,
Super Stop & Shop,0716,90 Frenchtown Road,Hunt River Commons,North Kingstown,RI,02852,United States,(401) 884-9400,,,"Sunday 7:00A-9:00P, Monday 6:00A-12:00A, Tuesday 6:00A-12:00A, Wednesday 6:00A-12:00A, Thursday 6:00A-12:00A, Friday 6:00A-12:00A, Saturday 6:00A-12:00A",,,
Stop & Shop,0701,250 Bellevue Avenue,,Newport,RI,02840,United States,(401) 848-7200,,,"Sunday 6:00A-10:00P, Monday 6:00A-10:00P, Tuesday 6:00A-10:00P, Wednesday 6:00A-10:00P, Thursday 6:00A-10:00P, Friday 6:00A-10:00P, Saturday 6:00A-10:00P",,,
Super Stop & Shop,0731,199 Connell Highway,,Newport,RI,02840,United States,(401) 845-2220,,,"Sunday 6:00A-10:00P, Monday 6:00A-12:00A, Tuesday 6:00A-12:00A, Wednesday 6:00A-12:00A, Thursday 6:00A-12:00A, Friday 6:00A-12:00A, Saturday 6:00A-12:00A",,,
Super Stop & Shop,0718,66 Point Judith Rd,,Narragansett,RI,02882,United States,(401) 783-9614,,,"Sunday 7:00A-12:00A, Monday 6:00A-12:00A, Tuesday 6:00A-12:00A, Wednesday 6:00A-12:00A, Thursday 6:00A-12:00A, Friday 6:00A-12:00A, Saturday 6:00A-12:00A",,,
Super Stop & Shop,0708,1360 West Main Road,,Middletown,RI,02842,United States,(401) 849-5510,,,"Sunday 7:00A-9:00P, Monday 6:00A-12:00A, Tuesday 6:00A-12:00A, Wednesday 6:00A-12:00A, Thursday 6:00A-12:00A, Friday 6:00A-12:00A, Saturday 6:00A-12:00A",,,
Super Stop & Shop,0712,622 George Washington Highway,,Lincoln,RI,02865,United States,(401) 334-6006,,,"Sunday 7:00A-9:00P, Monday 6:00A-12:00A, Tuesday 6:00A-12:00A, Wednesday 6:00A-12:00A, Thursday 6:00A-12:00A, Friday 6:00A-12:00A, Saturday 6:00A-12:00A",,,
Super Stop & Shop,0705,446 Putnam Pike,,Greenville,RI,02828,United States,(401) 949-4800,,,"Sunday 7:00A-9:00P, Monday 6:00A-12:00A, Tuesday 6:00A-12:00A, Wednesday 6:00A-12:00A, Thursday 6:00A-12:00A, Friday 6:00A-12:00A, Saturday 6:00A-12:00A",,,
Super Stop & Shop,0703,11 Commerce Way,,Johnston,RI,02919,United States,(401) 861-7610,,,"Sunday 7:00A-9:00P, Monday 6:00A-11:00P, Tuesday 6:00A-11:00P, Wednesday 6:00A-11:00P, Thursday 6:00A-11:00P, Friday 6:00A-11:00P, Saturday 6:00A-11:00P",,,
Stop & Shop,2701,1925 Pawtucket Avenue,,East Providence,RI,02914,United States,(401) 431-0450,,,"Sunday 7:00A-9:00P, Monday 6:00A-11:00P, Tuesday 6:00A-11:00P, Wednesday 6:00A-11:00P, Thursday 6:00A-11:00P, Friday 6:00A-11:00P, Saturday 6:00A-11:00P",,,
Stop & Shop,2702,275 Warwick Avenue,,Cranston,RI,02905,United States,(401) 941-6100,,,"Sunday 7:00A-9:00P, Monday 7:00A-12:00A, Tuesday 7:00A-12:00A, Wednesday 7:00A-12:00A, Thursday 7:00A-12:00A, Friday 7:00A-12:00A, Saturday 7:00A-12:00A",,,
Super Stop & Shop,0704,70 Mendon Road,,Cumberland,RI,02864,United States,(401) 722-3300,,,"Sunday 7:00A-9:00P, Monday 6:00A-12:00A, Tuesday 6:00A-12:00A, Wednesday 6:00A-12:00A, Thursday 6:00A-12:00A, Friday 6:00A-12:00A, Saturday 6:00A-12:00A",,,
Super Stop & Shop,0714,204 Garfield Avenue,,Cranston,RI,02901,United States,(401) 943-7601,,,"Sunday 7:00A-9:00P, Monday 6:00A-12:00A, Tuesday 6:00A-12:00A, Wednesday 6:00A-12:00A, Thursday 6:00A-12:00A, Friday 6:00A-12:00A, Saturday 6:00A-12:00A",,,
Super Stop & Shop,0707,200 Atwood Avenue,,Cranston,RI,02910,United States,(401) 944-6300,,,"Sunday 7:00A-10:00P, Monday 6:00A-12:00A, Tuesday 6:00A-12:00A, Wednesday 6:00A-12:00A, Thursday 6:00A-12:00A, Friday 6:00A-12:00A, Saturday 6:00A-12:00A",,,
Super Stop & Shop,0720,900 Tiogue Avenue,,Coventry,RI,02816,United States,(401) 823-1515,,,"Sunday 7:00A-9:00P, Monday 6:00A-12:00A, Tuesday 6:00A-12:00A, Wednesday 6:00A-12:00A, Thursday 6:00A-12:00A, Friday 6:00A-12:00A, Saturday 6:00A-12:00A",,,
Super Stop & Shop,0723,605 Metacom Avenue,,Bristol,RI,02809,United States,(401) 254-2525,,,"Sunday 7:00A-9:00P, Monday 6:00A-12:00A, Tuesday 6:00A-12:00A, Wednesday 6:00A-12:00A, Thursday 6:00A-12:00A, Friday 6:00A-12:00A, Saturday 6:00A-12:00A",,,
Super Stop & Shop,0522,111 Vredenburgh Avenue,,Yonkers,NY,10704,United States,(914) 378-9312,,,"Sunday 7:00A-12:00A, Monday 7:00A-12:00A, Tuesday 7:00A-12:00A, Wednesday 7:00A-12:00A, Thursday 7:00A-12:00A, Friday 7:00A-12:00A, Saturday 7:00A-12:00A",,,
Super Stop & Shop,0511,8101 Jericho Turnpike,,Woodbury,NY,11797,United States,(516) 692-8292,,,"Sunday 6:00A-10:00P, Monday 6:00A-11:00P, Tuesday 6:00A-11:00P, Wednesday 6:00A-11:00P, Thursday 6:00A-11:00P, Friday 6:00A-11:00P, Saturday 6:00A-11:00P",,,
Super Stop & Shop,0501,154 Westchester Avenue,,White Plains,NY,10604,United States,(914) 997-0715,,,"Sunday 6:00A-12:00A, Monday 6:00A-12:00A, Tuesday 6:00A-12:00A, Wednesday 6:00A-12:00A, Thursday 6:00A-12:00A, Friday 6:00A-12:00A, Saturday 6:00A-12:00A",,,
Stop & Shop,2553,400 Union Blvd,,West Islip,NY,11795,United States,(631) 661-8230,,,"Sunday 6:00A-10:00P, Monday 6:00A-11:00P, Tuesday 6:00A-11:00P, Wednesday 6:00A-11:00P, Thursday 6:00A-11:00P, Friday 6:00A-11:00P, Saturday 6:00A-11:00P",,,
Stop & Shop,2503,7 Samsondale Plaza,Route 9W,West Haverstraw,NY,10993,United States,(845) 947-2153,,,"Sunday 6:00A-10:00P, Monday 6:00A-12:00A, Tuesday 6:00A-12:00A, Wednesday 6:00A-12:00A, Thursday 6:00A-12:00A, Friday 6:00A-12:00A, Saturday 6:00A-12:00A",,,
Super Stop & Shop,2552,50 Cherry Valley Road,,West Hempstead,NY,11552,United States,(516) 539-7860,,,"Sunday 6:00A-11:00P, Monday 6:00A-12:00A, Tuesday 6:00A-12:00A, Wednesday 6:00A-12:00A, Thursday 6:00A-12:00A, Friday 6:00A-12:00A, Saturday 6:00A-12:00A",,,
Super Stop & Shop,0564,575 West Montauk Highway,,West Babylon,NY,11704,United States,(631) 321-9046,,,"Sunday 6:00A-10:00P, Monday 6:00A-11:00P, Tuesday 6:00A-11:00P, Wednesday 6:00A-11:00P, Thursday 6:00A-11:00P, Friday 6:00A-11:00P, Saturday 6:00A-11:00P",,,
Super Stop & Shop,0524,60 Brotherhood Plaza Drive,,Washingtonville,NY,10992,United States,(845) 496-8656,,,"Sunday 7:00A-9:00P, Monday 7:00A-11:00P, Tuesday 7:00A-11:00P, Wednesday 7:00A-11:00P, Thursday 7:00A-11:00P, Friday 7:00A-11:00P, Saturday 7:00A-11:00P",,,
Super Stop & Shop,0543,365 Rt 109,,West Babylon,NY,11704,United States,(631) 587-9452,,,"Sunday 6:00A-11:00P, Monday 6:00A-12:00A, Tuesday 6:00A-12:00A, Wednesday 6:00A-12:00A, Thursday 6:00A-12:00A, Friday 6:00A-12:00A, Saturday 6:00A-12:00A",,,
Stop & Shop,0599,610 White Plains Rd,,Tarrytown,NY,10591,United States,(914) 631-8566,,,"Sunday 7:00A-10:00P, Monday 6:00A-12:00A, Tuesday 6:00A-12:00A, Wednesday 6:00A-12:00A, Thursday 6:00A-12:00A, Friday 6:00A-12:00A, Saturday 6:00A-12:00A",,,
Stop & Shop,2595,1351 Forest Ave,,Staten Island,NY,10302,United States,(718) 981-1900,,,"Sunday 6:00A-12:00A, Monday 6:00A-12:00A, Tuesday 6:00A-12:00A, Wednesday 6:00A-12:00A, Thursday 6:00A-12:00A, Friday 6:00A-12:00A, Saturday 6:00A-12:00A",,,
Super Stop & Shop,0512,2795 Richmond Avenue,,Staten Island,NY,10314,United States,(718) 761-4856,,,"Sunday 6:00A-12:00A, Monday 6:00A-12:00A, Tuesday 6:00A-12:00A, Wednesday 6:00A-12:00A, Thursday 6:00A-12:00A, Friday 6:00A-12:00A, Saturday 6:00A-12:00A",,,
Super Stop & Shop,0581,2754 Hylan Boulevard,,Staten Island,NY,10306,United States,(718) 980-0892,,,"Sunday 6:00A-12:00A, Monday 6:00A-12:00A, Tuesday 6:00A-12:00A, Wednesday 6:00A-12:00A, Thursday 6:00A-12:00A, Friday 6:00A-12:00A, Saturday 6:00A-12:00A",,,
Stop & Shop,2512,1441 Richmond Ave,,Staten Island,NY,10314,United States,(718) 698-1138,,,"Sunday 6:00A-12:00A, Monday 6:00A-12:00A, Tuesday 6:00A-12:00A, Wednesday 6:00A-12:00A, Thursday 6:00A-12:00A, Friday 6:00A-12:00A, Saturday 6:00A-12:00A",,,
Stop & Shop,2513,4343 Amboy Road,,Staten Island,NY,10312,United States,(718) 608-8950,,,"Sunday 6:00A-12:00A, Monday 6:00A-12:00A, Tuesday 6:00A-12:00A, Wednesday 6:00A-12:00A, Thursday 6:00A-12:00A, Friday 6:00A-12:00A, Saturday 6:00A-12:00A",,,
Stop & Shop,2585,134-40 Springfield Blvd,,Springfield Gardens,NY,11413,United States,(718) 525-0600,,,"Sunday 6:00A-12:00A, Monday 6:00A-12:00A, Tuesday 6:00A-12:00A, Wednesday 6:00A-12:00A, Thursday 6:00A-12:00A, Friday 6:00A-12:00A, Saturday 6:00A-12:00A",,,
Stop & Shop,2576,167 Main Street,,Southampton,NY,11968,United States,(631) 283-0045,,,"Sunday 6:00A-9:00P, Monday 6:00A-10:00P, Tuesday 6:00A-10:00P, Wednesday 6:00A-10:00P, Thursday 6:00A-10:00P, Friday 6:00A-10:00P, Saturday 6:00A-10:00P",,,
Super Stop & Shop,0553,260 Pond Path,,South Setauket,NY,11720,United States,(631) 585-4585,,,"Sunday 6:00A-10:00P, Monday 6:00A-11:00P, Tuesday 6:00A-11:00P, Wednesday 6:00A-11:00P, Thursday 6:00A-11:00P, Friday 6:00A-11:00P, Saturday 6:00A-11:00P",,,
Super Stop & Shop,0513,80 Birdsall Road,,Somers,NY,10589,United States,(914) 628-5602,,,"Sunday 6:00A-12:00A, Monday 6:00A-12:00A, Tuesday 6:00A-12:00A, Wednesday 6:00A-12:00A, Thursday 6:00A-12:00A, Friday 6:00A-12:00A, Saturday 6:00A-12:00A",,,
Super Stop & Shop,0560,291 West Main Street,,Smithtown,NY,11787,United States,(631) 366-0038,,,"Sunday 6:00A-10:00P, Monday 6:00A-11:00P, Tuesday 6:00A-11:00P, Wednesday 6:00A-11:00P, Thursday 6:00A-11:00P, Friday 6:00A-11:00P, Saturday 6:00A-11:00P",,,
Stop & Shop,2505,999 Montauk Hwy,,Shirley,NY,11967,United States,(631) 281-3610,,,"Sunday 6:00A-11:00P, Monday 6:00A-11:00P, Tuesday 6:00A-11:00P, Wednesday 6:00A-11:00P, Thursday 6:00A-11:00P, Friday 6:00A-11:00P, Saturday 6:00A-11:00P",,,
Stop & Shop,0574,158 Route 25A,,Setauket,NY,11733,United States,(631) 751-1526,,,"Sunday 6:00A-10:00P, Monday 6:00A-11:00P, Tuesday 6:00A-11:00P, Wednesday 6:00A-11:00P, Thursday 6:00A-11:00P, Friday 6:00A-11:00P, Saturday 6:00A-11:00P",,,
Stop & Shop,2588,4055 Merrick Road,,Seaford,NY,11783,United States,(516) 826-4090,,,"Sunday 6:00A-11:00P, Monday 6:00A-12:00A, Tuesday 6:00A-12:00A, Wednesday 6:00A-12:00A, Thursday 6:00A-12:00A, Friday 6:00A-12:00A, Saturday 6:00A-12:00A",,,
Stop & Shop,2579,112-15 Beach Channel Drive,,Rockaway Park,NY,11694,United States,(718) 945-4894,,,"Sunday 7:00A-9:00P, Monday 7:00A-12:00A, Tuesday 7:00A-12:00A, Wednesday 7:00A-12:00A, Thursday 7:00A-12:00A, Friday 7:00A-12:00A, Saturday 7:00A-12:00A",,,
Super Stop & Shop,0548,191 Montauk Highway,,Sayville,NY,11782,United States,(631) 589-9677,,,"Sunday 6:00A-10:00P, Monday 6:00A-11:00P, Tuesday 6:00A-11:00P, Wednesday 6:00A-11:00P, Thursday 6:00A-11:00P, Friday 6:00A-11:00P, Saturday 6:00A-11:00P",,,
Stop & Shop,0590,1615 Old Country Road,,Riverhead,NY,11901,United States,(631) 727-6751,,,"Sunday 7:00A-10:00P, Monday 6:00A-11:00P, Tuesday 6:00A-11:00P, Wednesday 6:00A-11:00P, Thursday 6:00A-11:00P, Friday 6:00A-11:00P, Saturday 6:00A-11:00P",,,
Super Stop & Shop,0597,2540 South Road,,Poughkeepsie,NY,12601,United States,(845) 483-9000,,,"Sunday 7:00A-12:00A, Monday 6:00A-12:00A, Tuesday 6:00A-12:00A, Wednesday 6:00A-12:00A, Thursday 6:00A-12:00A, Friday 6:00A-12:00A, Saturday 6:00A-12:00A",,,
Super Stop & Shop,0540,59 Burnett Boulevard,,Poughkeepsie,NY,12603,United States,(845) 471-2313,,,"Sunday 7:00A-12:00A, Monday 6:00A-12:00A, Tuesday 6:00A-12:00A, Wednesday 6:00A-12:00A, Thursday 6:00A-12:00A, Friday 6:00A-12:00A, Saturday 6:00A-12:00A",,,
Super Stop & Shop,0546,65 Shore Road,,Port Washington,NY,11050,United States,(516) 767-6910,,,"Sunday 6:00A-11:00P, Monday 6:00A-12:00A, Tuesday 6:00A-12:00A, Wednesday 6:00A-12:00A, Thursday 6:00A-12:00A, Friday 6:00A-12:00A, Saturday 6:00A-12:00A",,,
Super Stop & Shop,0502,25 Waterfront Place,,Port Chester,NY,10573,United States,(914) 937-7318,,,"Sunday 7:00A-12:00A, Monday 7:00A-12:00A, Tuesday 7:00A-12:00A, Wednesday 7:00A-12:00A, Thursday 7:00A-12:00A, Friday 7:00A-12:00A, Saturday 7:00A-12:00A",,,
Super Stop & Shop,0521,1831 East Main Street,,Peekskill,NY,10566,United States,(914) 739-3356,,,"Sunday 7:00A-10:00P, Monday 6:00A-12:00A, Tuesday 6:00A-12:00A, Wednesday 6:00A-12:00A, Thursday 6:00A-12:00A, Friday 6:00A-12:00A, Saturday 6:00A-12:00A",,,
Super Stop & Shop,2502,246 South Highland Ave,,Ossining,NY,10562,United States,(914) 923-6550,,,"Sunday 7:00A-10:00P, Monday 7:00A-12:00A, Tuesday 7:00A-12:00A, Wednesday 7:00A-12:00A, Thursday 7:00A-12:00A, Friday 7:00A-12:00A, Saturday 7:00A-12:00A",,,
Stop & Shop,0569,295 Pine Hollow Road,,Oyster Bay,NY,11771,United States,(516) 922-0800,,,"Sunday 6:00A-10:00P, Monday 6:00A-11:00P, Tuesday 6:00A-11:00P, Wednesday 6:00A-11:00P, Thursday 6:00A-11:00P, Friday 6:00A-11:00P, Saturday 6:00A-11:00P",,,
Stop & Shop,2589,92-10 Atlantic Ave,,Ozone Park,NY,11416,United States,(718) 835-7900,,,"Sunday 6:00A-12:00A, Monday 6:00A-12:00A, Tuesday 6:00A-12:00A, Wednesday 6:00A-12:00A, Thursday 6:00A-12:00A, Friday 6:00A-12:00A, Saturday 6:00A-12:00A",,,
Stop & Shop,2545,170 Route 303/1 Stevens Way,,Orangeburg,NY,10962,United States,(845) 359-0673,,,"Sunday 6:00A-11:00P, Monday 6:00A-12:00A, Tuesday 6:00A-12:00A, Wednesday 6:00A-12:00A, Thursday 6:00A-12:00A, Friday 6:00A-12:00A, Saturday 6:00A-12:00A",,,
Super Stop & Shop,2565,465 Atlantic Avenue,,Oceanside,NY,11572,United States,(516) 594-1019,,,"Sunday 6:00A-10:00P, Monday 6:00A-12:00A, Tuesday 6:00A-12:00A, Wednesday 6:00A-12:00A, Thursday 6:00A-12:00A, Friday 6:00A-12:00A, Saturday 6:00A-12:00A",,,
Super Stop & Shop,0577,3577 Long Beach Road,,Oceanside,NY,11572,United States,(516) 678-0720,,,"Sunday 6:00A-10:00P, Monday 6:00A-12:00A, Tuesday 6:00A-12:00A, Wednesday 6:00A-12:00A, Thursday 6:00A-12:00A, Friday 6:00A-12:00A, Saturday 6:00A-12:00A",,,
Super Stop & Shop,0558,454 Fort Salonga Road,,Northport,NY,11768,United States,(631) 757-4394,,,"Sunday 6:00A-11:00P, Monday 6:00A-12:00A, Tuesday 6:00A-12:00A, Wednesday 6:00A-12:00A, Thursday 6:00A-12:00A, Friday 6:00A-12:00A, Saturday 6:00A-12:00A",,,
Super Stop & Shop,0593,670 North Broadway,,North White Plains,NY,10603,United States,(914) 682-3279,,,"Sunday 7:00A-12:00A, Monday 6:00A-12:00A, Tuesday 6:00A-12:00A, Wednesday 6:00A-12:00A, Thursday 6:00A-12:00A, Friday 6:00A-12:00A, Saturday 6:00A-12:00A",,,
Super Stop & Shop,0529,2425 Palmer Avenue,,New Rochelle,NY,10801,United States,(914) 632-7084,,,"Sunday 6:00A-12:00A, Monday 6:00A-12:00A, Tuesday 6:00A-12:00A, Wednesday 6:00A-12:00A, Thursday 6:00A-12:00A, Friday 6:00A-12:00A, Saturday 6:00A-12:00A",,,
Super Stop & Shop,0547,2450 Jerusalem Avenue,,North Bellmore,NY,11710,United States,(516) 826-0880,,,"Sunday 6:00A-11:00P, Monday 6:00A-12:00A, Tuesday 6:00A-12:00A, Wednesday 6:00A-12:00A, Thursday 6:00A-12:00A, Friday 6:00A-12:00A, Saturday 6:00A-12:00A",,,
Super Stop & Shop,0528,1429 Route 300,,Newburgh,NY,12550,United States,(845) 566-4214,,,"Sunday 7:00A-10:00P, Monday 6:00A-12:00A, Tuesday 6:00A-12:00A, Wednesday 6:00A-12:00A, Thursday 6:00A-12:00A, Friday 6:00A-12:00A, Saturday 6:00A-12:00A",,,
Super Stop & Shop,0500,28 Harrison Street,,New Rochelle,NY,10801,United States,(914) 637-2510,,,"Sunday 7:00A-10:00P, Monday 7:00A-10:00P, Tuesday 7:00A-10:00P, Wednesday 7:00A-10:00P, Thursday 7:00A-10:00P, Friday 7:00A-10:00P, Saturday 7:00A-10:00P",,,
Super Stop & Shop,0570,653 Hillside Avenue,,New Hyde Park,NY,11040,United States,(516) 616-9170,,,"Sunday 6:00A-12:00A, Monday 6:00A-12:00A, Tuesday 6:00A-12:00A, Wednesday 6:00A-12:00A, Thursday 6:00A-12:00A, Friday 6:00A-12:00A, Saturday 6:00A-12:00A",,,
Super Stop & Shop,0596,180 North Main Street,,New City,NY,10956,United States,(845) 634-2687,,,"Sunday 7:00A-12:00A, Monday 6:00A-12:00A, Tuesday 6:00A-12:00A, Wednesday 6:00A-12:00A, Thursday 6:00A-12:00A, Friday 6:00A-12:00A, Saturday 6:00A-12:00A",,,
Super Stop & Shop,0527,32 South Middletown Road,,Nanuet,NY,10954,United States,(845) 624-1514,,,"Sunday 7:00A-12:00A, Monday 6:00A-12:00A, Tuesday 6:00A-12:00A, Wednesday 6:00A-12:00A, Thursday 6:00A-12:00A, Friday 6:00A-12:00A, Saturday 6:00A-12:00A",,,
Super Stop & Shop,0592,240 East Sandford Boulevard,,Mount Vernon,NY,10550,United States,(914) 663-8752,,,"Sunday 7:00A-12:00A, Monday 7:00A-12:00A, Tuesday 7:00A-12:00A, Wednesday 7:00A-12:00A, Thursday 7:00A-12:00A, Friday 7:00A-12:00A, Saturday 7:00A-12:00A",,,
Super Stop & Shop,0554,385 Route 25A,,Miller Place,NY,11764,United States,(631) 642-1211,,,"Sunday 6:00A-11:00P, Monday 6:00A-11:00P, Tuesday 6:00A-11:00P, Wednesday 6:00A-11:00P, Thursday 6:00A-11:00P, Friday 6:00A-11:00P, Saturday 6:00A-11:00P",,,
Stop & Shop,2596,195 N. Bedford Street,,Mount Kisco,NY,10549,United States,(914) 241-1494,,,"Sunday 7:00A-10:00P, Monday 6:00A-12:00A, Tuesday 6:00A-12:00A, Wednesday 6:00A-12:00A, Thursday 6:00A-12:00A, Friday 6:00A-12:00A, Saturday 6:00A-12:00A",,,
Super Stop & Shop,0523,475 State Route 17M,,Monroe,NY,10950,United States,(845) 774-8448,,,"Sunday 6:00A-9:00P, Monday 6:00A-11:00P, Tuesday 6:00A-11:00P, Wednesday 6:00A-11:00P, Thursday 6:00A-11:00P, Friday 6:00A-11:00P, Saturday 6:00A-11:00P",,,
Super Stop & Shop,0533,1581 US Highway 202,,Mount Ivy,NY,10970,United States,(845) 354-9673,,,"Sunday 7:00A-9:00P, Monday 7:00A-11:00P, Tuesday 7:00A-11:00P, Wednesday 7:00A-11:00P, Thursday 7:00A-11:00P, Friday 7:00A-11:00P, Saturday 7:00A-11:00P",,,
Stop & Shop,2555,2160 South Merrick Mall,,Merrick,NY,11566,United States,(516) 867-9892,,,"Sunday 6:00A-10:00P, Monday 6:00A-10:00P, Tuesday 6:00A-10:00P, Wednesday 6:00A-10:00P, Thursday 6:00A-10:00P, Friday 6:00A-10:00P, Saturday 6:00A-10:00P",,,
Super Stop & Shop,0583,700-60 Patchogue Yaphank,,Medford,NY,11763,United States,(631) 345-0250,,,"Sunday 6:00A-11:00P, Monday 6:00A-11:00P, Tuesday 6:00A-11:00P, Wednesday 6:00A-11:00P, Thursday 6:00A-11:00P, Friday 6:00A-11:00P, Saturday 6:00A-11:00P",,,
Stop & Shop,2578,702 Hickville Road,,Massapequa,NY,11758,United States,(516) 809-8636,,,"Sunday 6:00A-10:00P, Monday 6:00A-10:00P, Tuesday 6:00A-10:00P, Wednesday 6:00A-10:00P, Thursday 6:00A-10:00P, Friday 6:00A-10:00P, Saturday 6:00A-10:00P",,,
Super Stop & Shop,0509,74-17 Grand Avenue,,Maspeth,NY,11378,United States,(718) 803-0863,,,"Sunday 6:00A-12:00A, Monday 6:00A-12:00A, Tuesday 6:00A-12:00A, Wednesday 6:00A-12:00A, Thursday 6:00A-12:00A, Friday 6:00A-12:00A, Saturday 6:00A-12:00A",,,
Super Stop & Shop,0510,34-51 48th Street,,Long Island City,NY,11104,United States,(718) 728-7724,,,"Sunday 7:00A-11:00P, Monday 7:00A-12:00A, Tuesday 7:00A-12:00A, Wednesday 7:00A-12:00A, Thursday 7:00A-12:00A, Friday 7:00A-12:00A, Saturday 7:00A-12:00A",,,
Stop & Shop,2582,85 East Park Ave,,Long Beach,NY,11561,United States,(516) 432-9077,,,"Sunday 6:00A-10:00P, Monday 6:00A-12:00A, Tuesday 6:00A-12:00A, Wednesday 6:00A-12:00A, Thursday 6:00A-12:00A, Friday 6:00A-12:00A, Saturday 6:00A-12:00A",,,
Super Stop & Shop,0591,1326 West Boston Post Road,,Mamaroneck,NY,10538,United States,(914) 834-9560,,,"Sunday 7:00A-10:00P, Monday 6:00A-10:00P, Tuesday 6:00A-10:00P, Wednesday 6:00A-10:00P, Thursday 6:00A-10:00P, Friday 6:00A-10:00P, Saturday 6:00A-10:00P",,,
Super Stop & Shop,0537,24926 Northern Boulevard,,Little Neck,NY,11362,United States,(718) 423-5601,,,"Sunday 7:00A-10:00P, Monday 7:00A-11:00P, Tuesday 7:00A-11:00P, Wednesday 7:00A-11:00P, Thursday 7:00A-11:00P, Friday 7:00A-11:00P, Saturday 7:00A-11:00P",,,
Super Stop & Shop,0555,3750 Hempstead Turnpike,,Levittown,NY,11756,United States,(516) 796-0300,,,"Sunday 6:00A-11:00P, Monday 6:00A-12:00A, Tuesday 6:00A-12:00A, Wednesday 6:00A-12:00A, Thursday 6:00A-12:00A, Friday 6:00A-12:00A, Saturday 6:00A-12:00A",,,
Super Stop & Shop,0544,425 Portion Road,,Lake Ronkonkoma,NY,11779,United States,(631) 737-1576,,,"Sunday 6:00A-10:00P, Monday 6:00A-11:00P, Tuesday 6:00A-11:00P, Wednesday 6:00A-11:00P, Thursday 6:00A-11:00P, Friday 6:00A-11:00P, Saturday 6:00A-11:00P",,,
Super Stop & Shop,0594,1730 Veterans Memorial Highway,,Islandia,NY,11749,United States,(631) 348-2556,,,"Sunday 6:00A-10:00P, Monday 6:00A-11:00P, Tuesday 6:00A-11:00P, Wednesday 6:00A-11:00P, Thursday 6:00A-11:00P, Friday 6:00A-11:00P, Saturday 6:00A-11:00P",,,
Stop & Shop,0567,3999 Albany Post Road,,Hyde Park,NY,12538,United States,(845) 229-9615,,,"Sunday 7:00A-12:00A, Monday 6:00A-12:00A, Tuesday 6:00A-12:00A, Wednesday 6:00A-12:00A, Thursday 6:00A-12:00A, Friday 6:00A-12:00A, Saturday 6:00A-12:00A",,,
Super Stop & Shop,0578,603 Burnside Avenue,,Inwood,NY,11096,United States,(516) 239-6617,,,"Sunday 6:00A-10:00P, Monday 6:00A-12:00A, Tuesday 6:00A-12:00A, Wednesday 6:00A-12:00A, Thursday 6:00A-12:00A, Friday 6:00A-12:00A, Saturday 6:00A-12:00A",,,
Super Stop & Shop,0516,1100 Jericho Turnpike,Dix Hills,Huntington,NY,11743,United States,(631) 547-6970,,,"Sunday 6:00A-10:00P, Monday 6:00A-12:00A, Tuesday 6:00A-12:00A, Wednesday 6:00A-12:00A, Thursday 6:00A-12:00A, Friday 6:00A-12:00A, Saturday 6:00A-12:00A",,,
Stop & Shop,2583,60 Wall Street,,Huntington,NY,11743,United States,(631) 351-8356,,,"Sunday 7:00A-9:00P, Monday 7:00A-12:00A, Tuesday 7:00A-12:00A, Wednesday 7:00A-12:00A, Thursday 7:00A-12:00A, Friday 7:00A-12:00A, Saturday 7:00A-12:00A",,,
Stop & Shop,2581,156-01 Cross Bay Blvd,,Howard Beach,NY,11414,United States,(718) 738-6875,,,"Sunday 6:00A-10:00P, Monday 6:00A-12:00A, Tuesday 6:00A-12:00A, Wednesday 6:00A-12:00A, Thursday 6:00A-12:00A, Friday 6:00A-12:00A, Saturday 6:00A-12:00A",,,
Super Stop & Shop,0563,57-01 Sunrise Highway,,Holbrook,NY,11741,United States,(631) 218-8626,,,"Sunday 6:00A-10:00P, Monday 6:00A-11:00P, Tuesday 6:00A-11:00P, Wednesday 6:00A-11:00P, Thursday 6:00A-11:00P, Friday 6:00A-11:00P, Saturday 6:00A-11:00P",,,
Stop & Shop,0517,1328 Beekman Road,,Hopewell Junction,NY,12533,United States,(845) 227-3163,,,"Sunday 7:00A-9:00P, Monday 7:00A-12:00A, Tuesday 7:00A-12:00A, Wednesday 7:00A-12:00A, Thursday 7:00A-12:00A, Friday 7:00A-12:00A, Saturday 7:00A-12:00A",,,
Super Stop & Shop,0559,530 West Old Country Road,,Hicksville,NY,11801,United States,(516) 937-7060,,,"Sunday 6:00A-10:00P, Monday 6:00A-12:00A, Tuesday 6:00A-12:00A, Wednesday 6:00A-12:00A, Thursday 6:00A-12:00A, Friday 6:00A-12:00A, Saturday 6:00A-12:00A",,,
Super Stop & Shop,0556,132 Fulton Avenue,,Hempstead,NY,11550,United States,(516) 539-1994,,,"Sunday 7:00A-9:00P, Monday 7:00A-10:00P, Tuesday 7:00A-10:00P, Wednesday 7:00A-10:00P, Thursday 7:00A-10:00P, Friday 7:00A-10:00P, Saturday 7:00A-10:00P",,,
Stop & Shop,2584,130 Wheatley Plaza,,Greenvale,NY,11548,United States,(516) 484-1391,,,"Sunday 6:00A-11:00P, Monday 6:00A-12:00A, Tuesday 6:00A-12:00A, Wednesday 6:00A-12:00A, Thursday 6:00A-12:00A, Friday 6:00A-12:00A, Saturday 6:00A-12:00A",,,
Super Stop & Shop,0539,8989 Union Turnpike,,Glendale,NY,11385,United States,(718) 846-2310,,,"Sunday 6:00A-11:00P, Monday 6:00A-12:00A, Tuesday 6:00A-12:00A, Wednesday 6:00A-12:00A, Thursday 6:00A-12:00A, Friday 6:00A-12:00A, Saturday 6:00A-12:00A",,,
Stop & Shop,0508,64-66 Myrtle Avenue,,Glendale,NY,11385,United States,(718) 381-5136,,,"Sunday 6:00A-10:00P, Monday 6:00A-12:00A, Tuesday 6:00A-12:00A, Wednesday 6:00A-12:00A, Thursday 6:00A-12:00A, Friday 6:00A-12:00A, Saturday 6:00A-12:00A",,,
Stop & Shop,2551,194 West Montauk Highway,,Hampton Bays,NY,11946,United States,(631) 728-2020,,,"Sunday 6:00A-10:00P, Monday 6:00A-11:00P, Tuesday 6:00A-11:00P, Wednesday 6:00A-11:00P, Thursday 6:00A-11:00P, Friday 6:00A-11:00P, Saturday 6:00A-11:00P",,,
Stop & Shop,2590,460 Franklin Ave,,Franklin Square,NY,11010,United States,(516) 352-5332,,,"Sunday 6:00A-12:00A, Monday 6:00A-12:00A, Tuesday 6:00A-12:00A, Wednesday 6:00A-12:00A, Thursday 6:00A-12:00A, Friday 6:00A-12:00A, Saturday 6:00A-12:00A",,,
Super Stop & Shop,0542,177 Forest Avenue,,Glen Cove,NY,11542,United States,(516) 759-1440,,,"Sunday 6:00A-11:00P, Monday 6:00A-12:00A, Tuesday 6:00A-12:00A, Wednesday 6:00A-12:00A, Thursday 6:00A-12:00A, Friday 6:00A-12:00A, Saturday 6:00A-12:00A",,,
Stop & Shop,2587,3106 Farrington Street,,Flushing,NY,11354,United States,(718) 886-4488,,,"Sunday 6:00A-12:00A, Monday 6:00A-12:00A, Tuesday 6:00A-12:00A, Wednesday 6:00A-12:00A, Thursday 6:00A-12:00A, Friday 6:00A-12:00A, Saturday 6:00A-12:00A",,,
Super Stop & Shop,0562,2350 North Ocean Avenue,,Farmingville,NY,11738,United States,(631) 732-6757,,,"Sunday 6:00A-10:00P, Monday 6:00A-11:00P, Tuesday 6:00A-11:00P, Wednesday 6:00A-11:00P, Thursday 6:00A-11:00P, Friday 6:00A-11:00P, Saturday 6:00A-11:00P",,,
Stop & Shop,0545,55 Motor Avenue,,Farmingdale,NY,11735,United States,(631) 756-5130,,,"Sunday 6:00A-12:00A, Monday 6:00A-12:00A, Tuesday 6:00A-12:00A, Wednesday 6:00A-12:00A, Thursday 6:00A-12:00A, Friday 6:00A-12:00A, Saturday 6:00A-12:00A",,,
Stop & Shop,0532,420 White Plains Road,,Eastchester,NY,10709,United States,(914) 337-6670,,,"Sunday 7:00A-10:00P, Monday 7:00A-11:00P, Tuesday 7:00A-11:00P, Wednesday 7:00A-11:00P, Thursday 7:00A-11:00P, Friday 7:00A-11:00P, Saturday 7:00A-11:00P",,,
Super Stop & Shop,0526,3126 Jericho Turnpike,,East Northport,NY,11731,United States,(631) 462-5555,,,"Sunday 6:00A-11:00P, Monday 6:00A-12:00A, Tuesday 6:00A-12:00A, Wednesday 6:00A-12:00A, Thursday 6:00A-12:00A, Friday 6:00A-12:00A, Saturday 6:00A-12:00A",,,
Super Stop & Shop,0552,2525 Hempstead Turnpike,,East Meadow,NY,11554,United States,(516) 796-5547,,,"Sunday 6:00A-11:00P, Monday 6:00A-12:00A, Tuesday 6:00A-12:00A, Wednesday 6:00A-12:00A, Thursday 6:00A-12:00A, Friday 6:00A-12:00A, Saturday 6:00A-12:00A",,,
Super Stop & Shop,0561,2650 Sunrise Highway,,East Islip,NY,11730,United States,(631) 859-5090,,,"Sunday 6:00A-11:00P, Monday 6:00A-12:00A, Tuesday 6:00A-12:00A, Wednesday 6:00A-12:00A, Thursday 6:00A-12:00A, Friday 6:00A-12:00A, Saturday 6:00A-12:00A",,,
Stop & Shop,2575,67 Newtown Lane,,East Hampton,NY,11937,United States,(631) 324-6215,,,"Sunday 6:00A-9:00P, Monday 6:00A-10:00P, Tuesday 6:00A-10:00P, Wednesday 6:00A-10:00P, Thursday 6:00A-10:00P, Friday 6:00A-10:00P, Saturday 6:00A-10:00P",,,
Stop & Shop,0530,390 Broadway,,Dobbs Ferry,NY,10522,United States,(914) 693-9274,,,"Sunday 7:00A-10:00P, Monday 7:00A-11:00P, Tuesday 7:00A-11:00P, Wednesday 7:00A-11:00P, Thursday 7:00A-11:00P, Friday 7:00A-11:00P, Saturday 7:00A-11:00P",,,
Super Stop & Shop,0557,421 Commack Road,,Deer Park,NY,11729,United States,(631) 274-0931,,,"Sunday 6:00A-11:00P, Monday 6:00A-11:00P, Tuesday 6:00A-11:00P, Wednesday 6:00A-11:00P, Thursday 6:00A-11:00P, Friday 6:00A-11:00P, Saturday 6:00A-11:00P",,,
Super Stop & Shop,0579,294 Middle Country Road,,Coram,NY,11727,United States,(631) 736-4772,,,"Sunday 6:00A-10:00P, Monday 6:00A-10:00P, Tuesday 6:00A-10:00P, Wednesday 6:00A-10:00P, Thursday 6:00A-10:00P, Friday 6:00A-10:00P, Saturday 6:00A-10:00P",,,
Super Stop & Shop,0541,95 Old Country Road,,Carle Place,NY,11514,United States,(516) 739-1535,,,"Sunday 6:00A-11:00P, Monday 6:00A-12:00A, Tuesday 6:00A-12:00A, Wednesday 6:00A-12:00A, Thursday 6:00A-12:00A, Friday 6:00A-12:00A, Saturday 6:00A-12:00A",,,
Super Stop & Shop,0505,1710 Avenue Y,,Brooklyn,NY,11235,United States,(718) 648-0202,,,"Sunday 6:00A-12:00A, Monday 6:00A-12:00A, Tuesday 6:00A-12:00A, Wednesday 6:00A-12:00A, Thursday 6:00A-12:00A, Friday 6:00A-12:00A, Saturday 6:00A-12:00A",,,
Stop & Shop,2586,625 Atlantic Ave,,Brooklyn,NY,11217,United States,(718) 399-6161,,,"Sunday 6:00A-12:00A, Monday 6:00A-12:00A, Tuesday 6:00A-12:00A, Wednesday 6:00A-12:00A, Thursday 6:00A-12:00A, Friday 6:00A-12:00A, Saturday 6:00A-12:00A",,,
Super Stop & Shop,0506,1009 Flatbush Avenue,,Brooklyn,NY,11226,United States,(718) 469-1300,,,"Sunday 6:00A-10:00P, Monday 6:00A-11:00P, Tuesday 6:00A-11:00P, Wednesday 6:00A-11:00P, Thursday 6:00A-11:00P, Friday 6:00A-11:00P, Saturday 6:00A-11:00P",,,
Stop & Shop,2591,2965 Cropsey Ave,,Brooklyn,NY,11214,United States,(718) 266-2705,,,"Sunday 6:00A-12:00A, Monday 6:00A-12:00A, Tuesday 6:00A-12:00A, Wednesday 6:00A-12:00A, Thursday 6:00A-12:00A, Friday 6:00A-12:00A, Saturday 6:00A-12:00A",,,
Stop & Shop,2592,2136 Bartow Ave,,Bronx,NY,10475,United States,(718) 320-2902,,,"Sunday 6:00A-12:00A, Monday 6:00A-12:00A, Tuesday 6:00A-12:00A, Wednesday 6:00A-12:00A, Thursday 6:00A-12:00A, Friday 6:00A-12:00A, Saturday 6:00A-12:00A",,,
Super Stop & Shop,0504,691 Co Op City Boulevard,,Bronx,NY,10475,United States,(718) 862-2809,,,"Sunday 6:00A-10:00P, Monday 6:00A-11:00P, Tuesday 6:00A-11:00P, Wednesday 6:00A-11:00P, Thursday 6:00A-11:00P, Friday 6:00A-11:00P, Saturday 6:00A-11:00P",,,
Stop & Shop,2593,961 East 174th Street,,Bronx,NY,10460,United States,(718) 860-3139,,,"Sunday 6:00A-12:00A, Monday 6:00A-12:00A, Tuesday 6:00A-12:00A, Wednesday 6:00A-12:00A, Thursday 6:00A-12:00A, Friday 6:00A-12:00A, Saturday 6:00A-12:00A",,,
Stop & Shop,0503,5716 Broadway,,Bronx,NY,10463,United States,(718) 548-3344,,,"Sunday 6:00A-12:00A, Monday 6:00A-12:00A, Tuesday 6:00A-12:00A, Wednesday 6:00A-12:00A, Thursday 6:00A-12:00A, Friday 6:00A-12:00A, Saturday 6:00A-12:00A",,,
Stop & Shop,2594,1720 Eastchester Rd,,Bronx,NY,10461,United States,(718) 823-6068,,,"Sunday 6:00A-12:00A, Monday 6:00A-12:00A, Tuesday 6:00A-12:00A, Wednesday 6:00A-12:00A, Thursday 6:00A-12:00A, Friday 6:00A-12:00A, Saturday 6:00A-12:00A",,,
Stop & Shop,2580,213-15 26th Ave,,Bayside,NY,11360,United States,(718) 279-3188,,,"Sunday 6:00A-11:00P, Monday 6:00A-12:00A, Tuesday 6:00A-12:00A, Wednesday 6:00A-12:00A, Thursday 6:00A-12:00A, Friday 6:00A-12:00A, Saturday 6:00A-12:00A",,,
Stop & Shop,2577,905 Atlantic Ave,,Baldwin,NY,11510,United States,(516) 867-7301,,,"Sunday 7:00A-10:00P, Monday 7:00A-12:00A, Tuesday 7:00A-12:00A, Wednesday 7:00A-12:00A, Thursday 7:00A-12:00A, Friday 7:00A-12:00A, Saturday 7:00A-12:00A",,,
Super Stop & Shop,0551,533 Montauk Hwy,Rte. 27A,Bayshore,NY,11706,United States,(631) 665-5625,,,"Sunday 6:00A-10:00P, Monday 6:00A-11:00P, Tuesday 6:00A-11:00P, Wednesday 6:00A-11:00P, Thursday 6:00A-11:00P, Friday 6:00A-11:00P, Saturday 6:00A-11:00P",,,
Stop & Shop,0566,70-20 Rockaway Beach Blvd.,,Arverne By-the-Sea,NY,11692,United States,(718) 318-6281,,,"Sunday 6:00A-10:00P, Monday 6:00A-11:00P, Tuesday 6:00A-11:00P, Wednesday 6:00A-11:00P, Thursday 6:00A-11:00P, Friday 6:00A-11:00P, Saturday 6:00A-11:00P",,,
Super Stop & Shop,0550,351 Merrick Road,,Amityville,NY,11701,United States,(631) 691-0304,,,"Sunday 6:00A-11:00P, Monday 6:00A-11:00P, Tuesday 6:00A-11:00P, Wednesday 6:00A-11:00P, Thursday 6:00A-11:00P, Friday 6:00A-11:00P, Saturday 6:00A-11:00P",,,
Super Stop & Shop,0855,400 Lacey Road,,Whiting,NJ,08759,United States,(732) 716-1580,,,"Sunday 6:00A-11:00P, Monday 6:00A-11:00P, Tuesday 6:00A-11:00P, Wednesday 6:00A-11:00P, Thursday 6:00A-11:00P, Friday 6:00A-11:00P, Saturday 6:00A-11:00P",,,
Stop & Shop,0825,327 Franklin Avenue,,Wyckoff,NJ,07481,United States,(201) 848-1046,,,"Sunday 6:00A-10:00P, Monday 6:00A-12:00A, Tuesday 6:00A-12:00A, Wednesday 6:00A-12:00A, Thursday 6:00A-12:00A, Friday 6:00A-12:00A, Saturday 6:00A-12:00A",,,
Stop & Shop,0857,219 Elm Street,,Westfield,NJ,07090,United States,(908) 232-1292,,,"Sunday 6:00A-10:00P, Monday 6:00A-12:00A, Tuesday 6:00A-12:00A, Wednesday 6:00A-12:00A, Thursday 6:00A-12:00A, Friday 6:00A-12:00A, Saturday 6:00A-12:00A",,,
Stop & Shop,2807,875 Bloomfield Avenue West,,West Caldwell,NJ,07006,United States,(973) 227-0319,,,"Sunday 6:00A-11:00P, Monday 6:00A-12:00A, Tuesday 6:00A-12:00A, Wednesday 6:00A-12:00A, Thursday 6:00A-12:00A, Friday 6:00A-12:00A, Saturday 6:00A-12:00A",,,
Super Stop & Shop,0804,1511 US Highway 22 West,,Watchung,NJ,07069,United States,(908) 754-6691,,,"Sunday 6:00A-10:00P, Monday 6:00A-12:00A, Tuesday 6:00A-12:00A, Wednesday 6:00A-12:00A, Thursday 6:00A-12:00A, Friday 6:00A-12:00A, Saturday 6:00A-12:00A",,,
Stop & Shop,0838,19 Wyckoff Avenue,,Waldwick,NJ,07463,United States,(201) 652-4055,,,"Sunday 7:00A-9:00P, Monday 7:00A-11:00P, Tuesday 7:00A-11:00P, Wednesday 7:00A-11:00P, Thursday 7:00A-11:00P, Friday 7:00A-11:00P, Saturday 7:00A-11:00P",,,
Super Stop & Shop,0888,1220 Hamburg Turnpike,,Wayne,NJ,07470,United States,(973) 305-1333,,,"Sunday 6:00A-10:00P, Monday 6:00A-11:00P, Tuesday 6:00A-11:00P, Wednesday 6:00A-11:00P, Thursday 6:00A-11:00P, Friday 6:00A-11:00P, Saturday 6:00A-11:00P",,,
Super Stop & Shop,0860,4 Union Avenue,,Wanaque,NJ,07420,United States,(973) 616-1181,,,"Sunday 6:00A-10:00P, Monday 6:00A-12:00A, Tuesday 6:00A-12:00A, Wednesday 6:00A-12:00A, Thursday 6:00A-12:00A, Friday 6:00A-12:00A, Saturday 6:00A-12:00A",,,
Super Stop & Shop,0808,2360 Lakewood Road,Tri City Plaza #808,Toms River,NJ,08755,United States,(732) 942-9860,,,"Sunday 6:00A-10:00P, Monday 6:00A-11:00P, Tuesday 6:00A-11:00P, Wednesday 6:00A-11:00P, Thursday 6:00A-11:00P, Friday 6:00A-11:00P, Saturday 6:00A-11:00P",,,
Super Stop & Shop,0811,353 Route 37 East,,Toms River,NJ,08753,United States,(732) 341-1327,,,"Sunday 7:00A-10:00P, Monday 7:00A-11:00P, Tuesday 7:00A-11:00P, Wednesday 7:00A-11:00P, Thursday 7:00A-11:00P, Friday 7:00A-11:00P, Saturday 7:00A-11:00P",,,
Super Stop & Shop,0852,1201 Stuyvesant Avenue,,Union,NJ,07083,United States,(908) 729-9030,,,"Sunday 6:00A-10:00P, Monday 6:00A-12:00A, Tuesday 6:00A-12:00A, Wednesday 6:00A-12:00A, Thursday 6:00A-12:00A, Friday 6:00A-12:00A, Saturday 6:00A-12:00A",,,
Stop & Shop,0835,34 West Railroad Avenue,,Tenafly,NJ,07670,United States,(201) 894-5111,,,"Sunday 7:00A-10:00P, Monday 7:00A-11:00P, Tuesday 7:00A-11:00P, Wednesday 7:00A-11:00P, Thursday 7:00A-11:00P, Friday 7:00A-11:00P, Saturday 7:00A-11:00P",,,
Stop & Shop,0823,5 Town Center Drive,,Sparta,NJ,07871,United States,(973) 729-9746,,,"Sunday 7:00A-11:00P, Monday 6:00A-12:00A, Tuesday 6:00A-12:00A, Wednesday 6:00A-12:00A, Thursday 6:00A-12:00A, Friday 6:00A-12:00A, Saturday 6:00A-12:00A",,,
Super Stop & Shop,0851,665 American Legion Drive,,Teaneck,NJ,07666,United States,(201) 287-9400,,,"Sunday 6:00A-10:00P, Monday 6:00A-12:00A, Tuesday 6:00A-12:00A, Wednesday 6:00A-12:00A, Thursday 6:00A-12:00A, Friday 6:00A-12:00A, Saturday 6:00A-12:00A",,,
Super Stop & Shop,0809,940 Easton Avenue,,Somerset,NJ,08873,United States,(732) 828-0139,,,"Sunday 6:00A-12:00A, Monday 6:00A-12:00A, Tuesday 6:00A-12:00A, Wednesday 6:00A-12:00A, Thursday 6:00A-12:00A, Friday 6:00A-12:00A, Saturday 6:00A-12:00A",,,
Stop & Shop,2817,407 Valley Street,,South Orange,NJ,07079,United States,(973) 762-6608,,,"Sunday 7:00A-10:00P, Monday 7:00A-11:00P, Tuesday 7:00A-11:00P, Wednesday 7:00A-11:00P, Thursday 7:00A-11:00P, Friday 7:00A-11:00P, Saturday 7:00A-11:00P",,,
Stop & Shop,0885,130 Skyline Drive,,Ringwood,NJ,07456,United States,(973) 962-0043,,,"Sunday 7:00A-9:00P, Monday 7:00A-11:00P, Tuesday 7:00A-11:00P, Wednesday 7:00A-11:00P, Thursday 7:00A-11:00P, Friday 7:00A-11:00P, Saturday 7:00A-11:00P",,,
Super Stop & Shop,0820,175 Franklin Avenue,,Ridgewood,NJ,07450,United States,(201) 444-6222,,,"Sunday 6:00A-10:00P, Monday 6:00A-11:00P, Tuesday 6:00A-11:00P, Wednesday 6:00A-11:00P, Thursday 6:00A-11:00P, Friday 6:00A-11:00P, Saturday 6:00A-11:00P",,,
Stop & Shop,0864,120 Orlando Drive,,Raritan,NJ,08869,United States,(908) 685-1204,,,"Sunday 6:00A-10:00P, Monday 6:00A-12:00A, Tuesday 6:00A-12:00A, Wednesday 6:00A-12:00A, Thursday 6:00A-12:00A, Friday 6:00A-12:00A, Saturday 6:00A-12:00A",,,
Super Stop & Shop,2810,505 Richmond Avenue,,Point Pleasant Beach,NJ,08742,United States,(732) 899-8485,,,"Sunday 6:00A-12:00A, Monday 6:00A-12:00A, Tuesday 6:00A-12:00A, Wednesday 6:00A-12:00A, Thursday 6:00A-12:00A, Friday 6:00A-12:00A, Saturday 6:00A-12:00A",,,
Stop & Shop,2815,500 Rte 23 North & Jackson Ave,,Pompton Plains,NJ,07444,United States,(973) 839-5510,,,"Sunday 6:00A-10:00P, Monday 6:00A-11:00P, Tuesday 6:00A-11:00P, Wednesday 6:00A-11:00P, Thursday 6:00A-11:00P, Friday 6:00A-11:00P, Saturday 6:00A-11:00P",,,
Super Stop & Shop,0830,3208 Bridge Avenue,,Point Pleasant,NJ,08742,United States,(732) 892-0808,,,"Sunday 6:00A-10:00P, Monday 6:00A-12:00A, Tuesday 6:00A-12:00A, Wednesday 6:00A-12:00A, Thursday 6:00A-12:00A, Friday 6:00A-12:00A, Saturday 6:00A-12:00A",,,
Super Stop & Shop,0897,581 Stelton Road,,Piscataway,NJ,08854,United States,(732) 968-5100,,,"Sunday 6:00A-10:00P, Monday 6:00A-12:00A, Tuesday 6:00A-12:00A, Wednesday 6:00A-12:00A, Thursday 6:00A-12:00A, Friday 6:00A-12:00A, Saturday 6:00A-12:00A",,,
Super Stop & Shop,0816,1278 US Highway 22,,Phillipsburg,NJ,08865,United States,(908) 859-8220,,,"Sunday 6:00A-10:00P, Monday 6:00A-12:00A, Tuesday 6:00A-12:00A, Wednesday 6:00A-12:00A, Thursday 6:00A-12:00A, Friday 6:00A-12:00A, Saturday 6:00A-12:00A",,,
Super Stop & Shop,0850,800 F Denow Road,,Pennington,NJ,08534,United States,(609) 737-9327,,,"Sunday 6:00A-10:00P, Monday 6:00A-12:00A, Tuesday 6:00A-12:00A, Wednesday 6:00A-12:00A, Thursday 6:00A-12:00A, Friday 6:00A-12:00A, Saturday 6:00A-12:00A",,,
Stop & Shop,0878,859 South State Route 17,,Paramus,NJ,07652,United States,(201) 652-9830,,,"Sunday 7:00A-10:00P, Monday 7:00A-10:00P, Tuesday 7:00A-10:00P, Wednesday 7:00A-10:00P, Thursday 7:00A-10:00P, Friday 7:00A-10:00P, Saturday 7:00A-9:00P",,,
Super Stop & Shop,2814,116 Route 35,,Neptune City,NJ,07753,United States,(732) 776-9564,,,"Sunday 6:00A-12:00A, Monday 6:00A-12:00A, Tuesday 6:00A-12:00A, Wednesday 6:00A-12:00A, Thursday 6:00A-12:00A, Friday 6:00A-12:00A, Saturday 6:00A-12:00A",,,
Super Stop & Shop,0893,245 Littleton Road,,Morris Plains,NJ,07950,United States,(973) 683-0100,,,"Sunday 6:00A-11:00P, Monday 6:00A-12:00A, Tuesday 6:00A-12:00A, Wednesday 6:00A-12:00A, Thursday 6:00A-12:00A, Friday 6:00A-12:00A, Saturday 6:00A-12:00A",,,
Super Stop & Shop,0810,1600 Perrineville Road,,Monroe Township,NJ,08831,United States,(609) 655-8900,,,"Sunday 6:00A-12:00A, Monday 6:00A-12:00A, Tuesday 6:00A-12:00A, Wednesday 6:00A-12:00A, Thursday 6:00A-12:00A, Friday 6:00A-12:00A, Saturday 6:00A-12:00A",,,
Super Stop & Shop,0887,850 State Route 35,,Middletown,NJ,07748,United States,(732) 957-0088,,,"Sunday 7:00A-10:00P, Monday 7:00A-11:00P, Tuesday 7:00A-11:00P, Wednesday 7:00A-11:00P, Thursday 7:00A-11:00P, Friday 7:00A-11:00P, Saturday 7:00A-11:00P",,,
Super Stop & Shop,2805,133 Main Street,,Madison,NJ,07940,United States,(973) 593-8484,,,"Sunday 6:00A-11:00P, Monday 6:00A-12:00A, Tuesday 6:00A-12:00A, Wednesday 6:00A-12:00A, Thursday 6:00A-12:00A, Friday 6:00A-12:00A, Saturday 6:00A-12:00A",,,
Super Stop & Shop,0819,425 Lewandowski Street,,Lyndhurst,NJ,07071,United States,(201) 438-1747,,,"Sunday 6:00A-10:00P, Monday 6:00A-12:00A, Tuesday 6:00A-12:00A, Wednesday 6:00A-12:00A, Thursday 6:00A-12:00A, Friday 6:00A-12:00A, Saturday 6:00A-12:00A",,,
Super Stop & Shop,2813,150 West End Court,,Long Branch,NJ,07740,United States,(732) 229-9411,,,"Sunday 6:00A-12:00A, Monday 6:00A-12:00A, Tuesday 6:00A-12:00A, Wednesday 6:00A-12:00A, Thursday 6:00A-12:00A, Friday 6:00A-12:00A, Saturday 6:00A-12:00A",,,
Stop & Shop,0843,232 Central Avenue,,Jersey City,NJ,07306,United States,(201) 653-6508,,,"Sunday 6:00A-11:00P, Monday 6:00A-12:00A, Tuesday 6:00A-12:00A, Wednesday 6:00A-12:00A, Thursday 6:00A-12:00A, Friday 6:00A-12:00A, Saturday 6:00A-12:00A",,,
Stop & Shop,2818,25 Kinnelon Road,,Kinnelon,NJ,07405,United States,(973) 838-8210,,,"Sunday 6:00A-11:00P, Monday 6:00A-12:00A, Tuesday 6:00A-12:00A, Wednesday 6:00A-12:00A, Thursday 6:00A-12:00A, Friday 6:00A-12:00A, Saturday 6:00A-12:00A",,,
Super Stop & Shop,0801,100 State Route 36,,Keyport,NJ,07735,United States,(732) 203-2233,,,"Sunday 6:00A-10:00P, Monday 6:00A-11:00P, Tuesday 6:00A-11:00P, Wednesday 6:00A-11:00P, Thursday 6:00A-11:00P, Friday 6:00A-11:00P, Saturday 6:00A-11:00P",,,
Super Stop & Shop,0873,2275 West County Line Road,,Jackson,NJ,08527,United States,(732) 905-3300,,,"Sunday 6:00A-10:00P, Monday 6:00A-12:00A, Tuesday 6:00A-12:00A, Wednesday 6:00A-12:00A, Thursday 6:00A-12:00A, Friday 6:00A-12:00A, Saturday 6:00A-12:00A",,,
Super Stop & Shop,0815,4861 US Highway 9,,Howell,NJ,07731,United States,(732) 901-9200,,,"Sunday 6:00A-10:00P, Monday 6:00A-12:00A, Tuesday 6:00A-12:00A, Wednesday 6:00A-12:00A, Thursday 6:00A-12:00A, Friday 6:00A-12:00A, Saturday 6:00A-12:00A",,,
Super Stop & Shop,0817,380 W. Pleasantview Avenue,,Hackensack,NJ,07601,United States,(201) 342-6030,,,"Sunday 6:00A-10:00P, Monday 6:00A-12:00A, Tuesday 6:00A-12:00A, Wednesday 6:00A-12:00A, Thursday 6:00A-12:00A, Friday 6:00A-12:00A, Saturday 6:00A-12:00A",,,
Stop & Shop,0867,424 Raritan Avenue,,Highland Park,NJ,08904,United States,(732) 572-4155,,,"Sunday 6:00A-10:00P, Monday 6:00A-12:00A, Tuesday 6:00A-12:00A, Wednesday 6:00A-12:00A, Thursday 6:00A-12:00A, Friday 6:00A-12:00A, Saturday 6:00A-12:00A",,,
Stop & Shop,2800,1221 Route 27,Veronica Avenue,Franklin Township,NJ,08873,United States,(732) 214-1127,,,"Sunday 6:00A-10:00P, Monday 6:00A-12:00A, Tuesday 6:00A-12:00A, Wednesday 6:00A-12:00A, Thursday 6:00A-12:00A, Friday 6:00A-12:00A, Saturday 6:00A-12:00A",,,
Super Stop & Shop,2812,160 Village Center Drive,,Freehold,NJ,07728,United States,(732) 308-1666,,,"Sunday 6:00A-12:00A, Monday 6:00A-12:00A, Tuesday 6:00A-12:00A, Wednesday 6:00A-12:00A, Thursday 6:00A-12:00A, Friday 6:00A-12:00A, Saturday 6:00A-12:00A",,,
Super Stop & Shop,0802,3333 Route 27,,Franklin Park,NJ,08823,United States,(732) 422-4420,,,"Sunday 6:00A-10:00P, Monday 6:00A-12:00A, Tuesday 6:00A-12:00A, Wednesday 6:00A-12:00A, Thursday 6:00A-12:00A, Friday 6:00A-12:00A, Saturday 6:00A-12:00A",,,
Super Stop & Shop,0829,816 Franklin Avenue,,Franklin Lakes,NJ,07417,United States,(201) 891-9300,,,"Sunday 7:00A-10:00P, Monday 7:00A-11:00P, Tuesday 7:00A-11:00P, Wednesday 7:00A-11:00P, Thursday 7:00A-11:00P, Friday 7:00A-11:00P, Saturday 7:00A-11:00P",,,
Super Stop & Shop,0866,334 State Route 31,,Flemington,NJ,08822,United States,(908) 782-8700,,,"Sunday 6:00A-10:00P, Monday 6:00A-12:00A, Tuesday 6:00A-12:00A, Wednesday 6:00A-12:00A, Thursday 6:00A-12:00A, Friday 6:00A-12:00A, Saturday 6:00A-12:00A",,,
Super Stop & Shop,0822,801 Newark Avenue,,Elizabeth,NJ,07208,United States,(908) 436-1344,,,"Sunday 6:00A-12:00A, Monday 6:00A-12:00A, Tuesday 6:00A-12:00A, Wednesday 6:00A-12:00A, Thursday 6:00A-12:00A, Friday 6:00A-12:00A, Saturday 6:00A-12:00A",,,
Super Stop & Shop,0812,600 Kinderkamack Road,,Emerson,NJ,07630,United States,(201) 262-1834,,,"Sunday 6:00A-10:00P, Monday 6:00A-12:00A, Tuesday 6:00A-12:00A, Wednesday 6:00A-12:00A, Thursday 6:00A-12:00A, Friday 6:00A-12:00A, Saturday 6:00A-12:00A",,,
Stop & Shop,0859,1083 Inman Avenue,,Edison,NJ,08820,United States,(908) 769-6173,,,"Sunday 6:00A-10:00P, Monday 6:00A-12:00A, Tuesday 6:00A-12:00A, Wednesday 6:00A-12:00A, Thursday 6:00A-12:00A, Friday 6:00A-12:00A, Saturday 6:00A-12:00A",,,
Super Stop & Shop,0803,1049 US Highway 1 South,,Edison,NJ,08820,United States,(732) 906-5600,,,"Sunday 6:00A-10:00P, Monday 6:00A-12:00A, Tuesday 6:00A-12:00A, Wednesday 6:00A-12:00A, Thursday 6:00A-12:00A, Friday 6:00A-12:00A, Saturday 6:00A-12:00A",,,
Stop & Shop,2809,647 Route 18 South,,East Brunswick,NJ,08816,United States,(732) 967-9410,,,"Sunday 6:00A-10:00P, Monday 6:00A-12:00A, Tuesday 6:00A-12:00A, Wednesday 6:00A-12:00A, Thursday 6:00A-12:00A, Friday 6:00A-12:00A, Saturday 6:00A-12:00A",,,
Super Stop & Shop,0828,20 Washington Avenue,,Dumont,NJ,07628,United States,(201) 385-3652,,,"Sunday 7:00A-10:00P, Monday 6:00A-11:00P, Tuesday 6:00A-11:00P, Wednesday 6:00A-11:00P, Thursday 6:00A-11:00P, Friday 6:00A-11:00P, Saturday 6:00A-11:00P",,,
Super Stop & Shop,0818,24 Summerfield Boulevard,,Dayton,NJ,08810,United States,(732) 329-0398,,,"Sunday 6:00A-10:00P, Monday 6:00A-12:00A, Tuesday 6:00A-12:00A, Wednesday 6:00A-12:00A, Thursday 6:00A-12:00A, Friday 6:00A-12:00A, Saturday 6:00A-12:00A",,,
Stop & Shop,2819,400 Demarest Ave,,Closter,NJ,07624,United States,(201) 784-7180,,,"Sunday 7:00A-10:00P, Monday 7:00A-12:00A, Tuesday 7:00A-12:00A, Wednesday 7:00A-12:00A, Thursday 7:00A-12:00A, Friday 7:00A-12:00A, Saturday 7:00A-12:00A",,,
Super Stop & Shop,2802,1189 Broad Street,,Clifton,NJ,07013,United States,(973) 365-8040,,,"Sunday 6:00A-11:00P, Monday 6:00A-12:00A, Tuesday 6:00A-12:00A, Wednesday 6:00A-12:00A, Thursday 6:00A-12:00A, Friday 6:00A-12:00A, Saturday 6:00A-12:00A",,,
Super Stop & Shop,0813,160 Kingsland Road,,Clifton,NJ,07014,United States,(973) 779-6697,,,"Sunday 6:00A-12:00A, Monday 6:00A-12:00A, Tuesday 6:00A-12:00A, Wednesday 6:00A-12:00A, Thursday 6:00A-12:00A, Friday 6:00A-12:00A, Saturday 6:00A-12:00A",,,
Super Stop & Shop,0831,625 Paterson Avenue,,Carlstadt,NJ,07072,United States,(201) 842-9993,,,"Sunday 7:00A-11:00P, Monday 6:00A-12:00A, Tuesday 6:00A-12:00A, Wednesday 6:00A-12:00A, Thursday 6:00A-12:00A, Friday 6:00A-12:00A, Saturday 6:00A-12:00A",,,
Stop & Shop,0840,55 Brick Boulevard,,Brick,NJ,08723,United States,(732) 255-9879,,,"Sunday 7:00A-10:00P, Monday 7:00A-11:00P, Tuesday 7:00A-11:00P, Wednesday 7:00A-11:00P, Thursday 7:00A-11:00P, Friday 7:00A-11:00P, Saturday 7:00A-11:00P",,,
Super Stop & Shop Center,0800,8 Franklin Street,,Bloomfield,NJ,07003,United States,(973) 743-6413,,,"Sunday 6:00A-12:00A, Monday 6:00A-12:00A, Tuesday 6:00A-12:00A, Wednesday 6:00A-12:00A, Thursday 6:00A-12:00A, Friday 6:00A-12:00A, Saturday 6:00A-12:00A",,,
Super Stop & Shop,0853,1 Lefante Way,,Bayonne,NJ,07002,United States,(201) 823-9292,,,"Sunday 6:00A-11:00P, Monday 6:00A-12:00A, Tuesday 6:00A-12:00A, Wednesday 6:00A-12:00A, Thursday 6:00A-12:00A, Friday 6:00A-12:00A, Saturday 6:00A-12:00A",,,
Super Stop & Shop,0834,404 Springfield Avenue,,Berkeley Heights,NJ,07922,United States,(908) 464-8997,,,"Sunday 7:00A-10:00P, Monday 7:00A-11:00P, Tuesday 7:00A-11:00P, Wednesday 7:00A-11:00P, Thursday 7:00A-11:00P, Friday 7:00A-11:00P, Saturday 7:00A-11:00P",,,
Stop & Shop,0877,553 South Finley Avenue,,Basking Ridge,NJ,07920,United States,(908) 221-9400,,,"Sunday 7:00A-10:00P, Monday 7:00A-11:00P, Tuesday 7:00A-11:00P, Wednesday 7:00A-11:00P, Thursday 7:00A-11:00P, Friday 7:00A-11:00P, Saturday 7:00A-11:00P",,,
Super Stop & Shop,0807,1129 Rte. 34 North,,Aberdeen,NJ,07747,United States,(732) 290-7544,,,"Sunday 6:00A-10:00P, Monday 6:00A-12:00A, Tuesday 6:00A-12:00A, Wednesday 6:00A-12:00A, Thursday 6:00A-12:00A, Friday 6:00A-12:00A, Saturday 6:00A-12:00A",,,
Super Stop & Shop,0079,949 Grafton Street,,Worcester,MA,01613,United States,(508) 791-8855,,,"Sunday 7:00A-9:00P, Monday 7:00A-10:00P, Tuesday 7:00A-10:00P, Wednesday 7:00A-10:00P, Thursday 7:00A-10:00P, Friday 7:00A-10:00P, Saturday 7:00A-10:00P",,,
Super Stop & Shop,0085,940 West Boylston Street,,Worcester,MA,01605,United States,(508) 852-0505,,,"Sunday 7:00A-9:00P, Monday 6:00A-11:00P, Tuesday 6:00A-11:00P, Wednesday 6:00A-11:00P, Thursday 6:00A-11:00P, Friday 6:00A-11:00P, Saturday 6:00A-11:00P",,,
Super Stop & Shop,0037,545 Lincoln Street,,Worcester,MA,01605,United States,(508) 853-8791,,,"Sunday 7:00A-9:00P, Monday 7:00A-10:00P, Tuesday 7:00A-10:00P, Wednesday 7:00A-10:00P, Thursday 7:00A-10:00P, Friday 7:00A-10:00P, Saturday 7:00A-10:00P",,,
Super Stop & Shop,0096,2 Elm Street,,Woburn,MA,01801,United States,(781) 935-0821,,,"Sunday 7:00A-9:00P, Monday 6:00A-12:00A, Tuesday 6:00A-12:00A, Wednesday 6:00A-12:00A, Thursday 6:00A-12:00A, Friday 6:00A-12:00A, Saturday 6:00A-12:00A",,,
Super Stop & Shop,0444,475 Bedford Street,,Whitman,MA,02382,United States,(781) 447-7817,,,"Sunday 7:00A-9:00P, Monday 6:00A-11:00P, Tuesday 6:00A-11:00P, Wednesday 6:00A-11:00P, Thursday 6:00A-11:00P, Friday 6:00A-11:00P, Saturday 6:00A-11:00P",,,
Super Stop & Shop,0455,695 Main Street,,Winchester,MA,01890,United States,(781) 721-1028,,,"Sunday 7:00A-9:00P, Monday 7:00A-11:00P, Tuesday 7:00A-11:00P, Wednesday 7:00A-11:00P, Thursday 7:00A-11:00P, Friday 7:00A-11:00P, Saturday 7:00A-11:00P",,,
Super Stop & Shop,0072,57 Main Street,,Westfield,MA,01085,United States,(413) 562-2300,,,"Sunday 7:00A-10:00P, Monday 7:00A-11:00P, Tuesday 7:00A-11:00P, Wednesday 7:00A-11:00P, Thursday 7:00A-11:00P, Friday 7:00A-11:00P, Saturday 7:00A-11:00P",,,
Super Stop & Shop,0497,32 Lyman Street,,Westborough,MA,01581,United States,(508) 366-3961,,,"Sunday 7:00A-9:00P, Monday 7:00A-11:00P, Tuesday 7:00A-11:00P, Wednesday 7:00A-11:00P, Thursday 7:00A-11:00P, Friday 7:00A-11:00P, Saturday 7:00A-11:00P",,,
Super Stop & Shop,0019,290 Turnpike Road,Speedway Shopping Center,Westborough,MA,01581,United States,(508) 366-9190,,,"Sunday 7:00A-9:00P, Monday 6:00A-10:00P, Tuesday 6:00A-10:00P, Wednesday 6:00A-10:00P, Thursday 6:00A-10:00P, Friday 6:00A-10:00P, Saturday 6:00A-10:00P",,,
Super Stop & Shop,0094,935 Riverdale Street,Riverdale Shops,West Springfield,MA,01089,United States,(413) 737-8770,,,"Sunday 6:00A-10:00P, Monday 6:00A-10:00P, Tuesday 6:00A-10:00P, Wednesday 6:00A-10:00P, Thursday 6:00A-10:00P, Friday 6:00A-10:00P, Saturday 6:00A-10:00P",,,
Stop & Shop,2700,101 Andrew Avenue,,Wayland,MA,01778,United States,(508) 358-0740,,,"Sunday 7:00A-9:00P, Monday 7:00A-11:00P, Tuesday 7:00A-11:00P, Wednesday 7:00A-11:00P, Thursday 7:00A-11:00P, Friday 7:00A-11:00P, Saturday 7:00A-11:00P",,,
Super Stop & Shop,0446,171 Watertown Street,,Watertown,MA,02472,United States,(617) 969-6410,,,"Sunday 7:00A-9:00P, Monday 7:00A-11:00P, Tuesday 7:00A-11:00P, Wednesday 7:00A-11:00P, Thursday 7:00A-11:00P, Friday 7:00A-11:00P, Saturday 7:00A-11:00P",,,
Super Stop & Shop,0049,700 Pleasant Street,,Watertown,MA,02472,United States,(617) 923-3007,,,"Sunday 7:00A-9:00P, Monday 7:00A-11:00P, Tuesday 7:00A-11:00P, Wednesday 7:00A-11:00P, Thursday 7:00A-11:00P, Friday 7:00A-11:00P, Saturday 7:00A-11:00P",,,
Super Stop & Shop,0044,565 Main Street,,Walpole,MA,02081,United States,(508) 668-7722,,,"Sunday 6:00A-9:00P, Monday 6:00A-11:00P, Tuesday 6:00A-11:00P, Wednesday 6:00A-11:00P, Thursday 6:00A-11:00P, Friday 6:00A-11:00P, Saturday 6:00A-11:00P",,,
Stop & Shop,0423,50 Water Street,,Vineyard Haven,MA,02568,United States,(508) 693-8339,,,"Sunday 6:00A-10:00P, Monday 6:00A-11:00P, Tuesday 6:00A-11:00P, Wednesday 6:00A-11:00P, Thursday 6:00A-11:00P, Friday 6:00A-11:00P, Saturday 6:00A-11:00P",,,
Super Stop & Shop,0015,450 Paradise Road,,Swampscott,MA,01907,United States,(781) 596-1445,,,"Sunday 7:00A-9:00P, Monday 7:00A-11:00P, Tuesday 7:00A-11:00P, Wednesday 7:00A-11:00P, Thursday 7:00A-11:00P, Friday 7:00A-11:00P, Saturday 7:00A-11:00P",,,
Super Stop & Shop,0481,100 Charlton Road,,Sturbridge,MA,01566,United States,(508) 347-9500,,,"Sunday 7:00A-9:00P, Monday 7:00A-10:00P, Tuesday 7:00A-10:00P, Wednesday 7:00A-10:00P, Thursday 7:00A-10:00P, Friday 7:00A-10:00P, Saturday 7:00A-10:00P",,,
Super Stop & Shop,0033,278 Washington Street,,Stoughton,MA,02072,United States,(781) 341-1797,,,"Sunday 7:00A-9:00P, Monday 7:00A-11:00P, Tuesday 7:00A-11:00P, Wednesday 7:00A-11:00P, Thursday 7:00A-11:00P, Friday 7:00A-11:00P, Saturday 7:00A-11:00P",,,
Super Stop & Shop,0039,259 Main Street,Route 28,Stoneham,MA,02180,United States,(781) 438-3737,,,"Sunday 7:00A-9:00P, Monday 7:00A-11:00P, Tuesday 7:00A-11:00P, Wednesday 7:00A-11:00P, Thursday 7:00A-11:00P, Friday 7:00A-11:00P, Saturday 7:00A-11:00P",,,
Super Stop & Shop,0404,1600 Boston Road,,Springfield,MA,01129,United States,(413) 543-1041,,,"Sunday 7:00A-10:00P, Monday 7:00A-11:00P, Tuesday 7:00A-11:00P, Wednesday 7:00A-11:00P, Thursday 7:00A-11:00P, Friday 7:00A-11:00P, Saturday 7:00A-11:00P",,,
Super Stop & Shop,0454,415 Cooley Street,,Springfield,MA,01119,United States,(413) 426-9504,,,"Sunday 7:00A-9:00P, Monday 7:00A-10:00P, Tuesday 7:00A-10:00P, Wednesday 7:00A-10:00P, Thursday 7:00A-10:00P, Friday 7:00A-10:00P, Saturday 7:00A-10:00P",,,
Stop & Shop,2422,474 Station Avenue,,South Yarmouth,MA,02664,United States,(508) 394-0431,,,"Sunday 7:00A-10:00P, Monday 6:00A-11:00P, Tuesday 6:00A-11:00P, Wednesday 6:00A-11:00P, Thursday 6:00A-11:00P, Friday 6:00A-11:00P, Saturday 6:00A-11:00P",,,
Super Stop & Shop,0022,55 Long Pond Drive,,South Yarmouth,MA,02664,United States,(508) 394-1234,,,"Sunday 6:00A-12:00A, Monday 6:00A-12:00A, Tuesday 6:00A-12:00A, Wednesday 6:00A-12:00A, Thursday 6:00A-12:00A, Friday 6:00A-12:00A, Saturday 6:00A-12:00A",,,
Super Stop & Shop,0461,500 Route 134,Patriot Square Mall,South Dennis,MA,02660,United States,(508) 394-4535,,,"Sunday 6:00A-10:00P, Monday 6:00A-12:00A, Tuesday 6:00A-12:00A, Wednesday 6:00A-12:00A, Thursday 6:00A-12:00A, Friday 6:00A-12:00A, Saturday 6:00A-12:00A",,,
Super Stop & Shop,0498,779 McGrath Highway,,Somerville,MA,02145,United States,(617) 666-1024,,,"Sunday 6:00A-11:00P, Monday 6:00A-11:00P, Tuesday 6:00A-11:00P, Wednesday 6:00A-11:00P, Thursday 6:00A-11:00P, Friday 6:00A-11:00P, Saturday 6:00A-11:00P",,,
Stop & Shop,0053,713 East Broadway,,South Boston,MA,02127,United States,(617) 269-7989,,,"Sunday 7:00A-9:00P, Monday 7:00A-10:00P, Tuesday 7:00A-10:00P, Wednesday 7:00A-10:00P, Thursday 7:00A-10:00P, Friday 7:00A-10:00P, Saturday 7:00A-10:00P",,,
Stop & Shop,2411,105 Alewife Brook Parkway,,Somerville,MA,02145,United States,(617) 625-1546,,,"Sunday 7:00A-9:00P, Monday 7:00A-10:00P, Tuesday 7:00A-10:00P, Wednesday 7:00A-10:00P, Thursday 7:00A-10:00P, Friday 7:00A-10:00P, Saturday 7:00A-10:00P",,,
Super Stop & Shop,0421,815 Grand Army Highway,,Somerset,MA,02725,United States,(508) 679-1373,,,"Sunday 7:00A-9:00P, Monday 6:00A-12:00A, Tuesday 6:00A-12:00A, Wednesday 6:00A-12:00A, Thursday 6:00A-12:00A, Friday 6:00A-12:00A, Saturday 6:00A-12:00A",,,
Super Stop & Shop,0091,539-571 Boston Turnpike,,Shrewsbury,MA,01545,United States,(508) 842-1911,,,"Sunday 7:00A-9:00P, Monday 7:00A-10:00P, Tuesday 7:00A-10:00P, Wednesday 7:00A-10:00P, Thursday 7:00A-10:00P, Friday 7:00A-10:00P, Saturday 7:00A-10:00P",,,
Super Stop & Shop,0073,1045 Fallriver Avenue,,Seekonk,MA,02771,United States,(508) 336-2550,,,"Sunday 7:00A-9:00P, Monday 6:00A-12:00A, Tuesday 6:00A-12:00A, Wednesday 6:00A-12:00A, Thursday 6:00A-12:00A, Friday 6:00A-12:00A, Saturday 6:00A-12:00A",,,
Super Stop & Shop,0012,65 Route 6A,,Sandwich,MA,02563,United States,(508) 833-1302,,,"Sunday 7:00A-9:00P, Monday 6:00A-11:00P, Tuesday 6:00A-11:00P, Wednesday 6:00A-11:00P, Thursday 6:00A-11:00P, Friday 6:00A-11:00P, Saturday 6:00A-11:00P",,,
Super Stop & Shop,0407,164 Main Street,New England Shopping Center,Saugus,MA,01906,United States,(781) 233-8228,,,"Sunday 7:00A-9:00P, Monday 6:00A-11:00P, Tuesday 6:00A-11:00P, Wednesday 6:00A-11:00P, Thursday 6:00A-11:00P, Friday 6:00A-11:00P, Saturday 6:00A-11:00P",,,
Stop & Shop,2404,1475 Newman Avenue,,Seekonk,MA,02771,United States,(508) 399-5624,,,"Sunday 7:00A-9:00P, Monday 6:00A-10:00P, Tuesday 6:00A-10:00P, Wednesday 6:00A-10:00P, Thursday 6:00A-10:00P, Friday 6:00A-10:00P, Saturday 6:00A-10:00P",,,
Super Stop & Shop,0470,71 Quaker Meeting House Road,,Sandwich,MA,02563,United States,(508) 477-1449,,,"Sunday 9:00A-9:00P, Monday 6:00A-11:00P, Tuesday 6:00A-11:00P, Wednesday 6:00A-11:00P, Thursday 6:00A-11:00P, Friday 6:00A-11:00P, Saturday 6:00A-11:00P",,,
Super Stop & Shop,0459,460 Blue Hill Avenue,,Roxbury,MA,02121,United States,(617) 427-6752,,,"Sunday 7:00A-9:00P, Monday 7:00A-10:00P, Tuesday 7:00A-10:00P, Wednesday 7:00A-10:00P, Thursday 7:00A-10:00P, Friday 7:00A-10:00P, Saturday 7:00A-10:00P",,,
Stop & Shop,0004,950 American Legion Highway,,Roslindale,MA,02131,United States,(617) 327-2160,,,"Sunday 7:00A-9:00P, Monday 7:00A-10:00P, Tuesday 7:00A-10:00P, Wednesday 7:00A-10:00P, Thursday 7:00A-10:00P, Friday 7:00A-10:00P, Saturday 7:00A-10:00P",,,
Super Stop & Shop,0011,40 Furlong Drive,,Revere,MA,02151,United States,(781) 284-0717,,,"Sunday 7:00A-9:00P, Monday 7:00A-11:00P, Tuesday 7:00A-11:00P, Wednesday 7:00A-11:00P, Thursday 7:00A-11:00P, Friday 7:00A-11:00P, Saturday 7:00A-11:00P",,,
Super Stop & Shop,0043,540 Squire Road,,Revere,MA,02151,United States,(781) 286-2200,,,"Sunday 7:00A-9:00P, Monday 7:00A-11:00P, Tuesday 7:00A-11:00P, Wednesday 7:00A-11:00P, Thursday 7:00A-11:00P, Friday 7:00A-11:00P, Saturday 7:00A-11:00P",,,
Super Stop & Shop,0488,25 Walkers Brook Drive,,Reading,MA,01867,United States,(781) 944-2919,,,"Sunday 7:00A-9:00P, Monday 7:00A-11:00P, Tuesday 7:00A-11:00P, Wednesday 7:00A-11:00P, Thursday 7:00A-11:00P, Friday 7:00A-11:00P, Saturday 7:00A-11:00P",,,
Super Stop & Shop,0020,65 Newport Avenue,,Quincy,MA,02171,United States,(617) 328-4477,,,"Sunday 7:00A-12:00A, Monday 7:00A-12:00A, Tuesday 24 hours, Wednesday 24 hours, Thursday 24 hours, Friday 24 hours, Saturday 12:00A-12:00A",,,
Super Stop & Shop,0038,36 New State Highway,,Raynham,MA,02767,United States,(508) 824-8800,,,"Sunday 7:00A-9:00P, Monday 6:00A-11:00P, Tuesday 6:00A-11:00P, Wednesday 6:00A-11:00P, Thursday 6:00A-11:00P, Friday 6:00A-11:00P, Saturday 6:00A-11:00P",,,
Super Stop & Shop,0017,495 Southern Artery,,Quincy,MA,02169,United States,(617) 773-4510,,,"Sunday 7:00A-12:00A, Monday 6:00A-12:00A, Tuesday 6:00A-12:00A, Wednesday 6:00A-12:00A, Thursday 6:00A-12:00A, Friday 6:00A-12:00A, Saturday 6:00A-12:00A",,,
Stop & Shop,2403,56 Shank Painter Road,,Provincetown,MA,02657,United States,(508) 487-4903,,,"Sunday 7:00A-9:00P, Monday 6:00A-10:00P, Tuesday 6:00A-10:00P, Wednesday 6:00A-10:00P, Thursday 6:00A-10:00P, Friday 6:00A-10:00P, Saturday 6:00A-10:00P",,,
Super Stop & Shop,0469,127 Samoset Street,,Plymouth,MA,02360,United States,(508) 746-1444,,,"Sunday 7:00A-12:00A, Monday 6:00A-12:00A, Tuesday 6:00A-12:00A, Wednesday 6:00A-12:00A, Thursday 6:00A-12:00A, Friday 6:00A-12:00A, Saturday 6:00A-12:00A",,,
Super Stop & Shop,0462,109 Taunton Street,,Plainville,MA,02762,United States,(508) 643-2603,,,"Sunday 7:00A-10:00P, Monday 7:00A-10:00P, Tuesday 7:00A-10:00P, Wednesday 7:00A-10:00P, Thursday 7:00A-10:00P, Friday 7:00A-10:00P, Saturday 7:00A-10:00P",,,
Super Stop & Shop,0458,660 Merrill Road,,Pittsfield,MA,01201,United States,(413) 499-0745,,,"Sunday 7:00A-10:00P, Monday 6:00A-12:00A, Tuesday 6:00A-12:00A, Wednesday 6:00A-12:00A, Thursday 6:00A-12:00A, Friday 6:00A-12:00A, Saturday 6:00A-12:00A",,,
Super Stop & Shop,0021,1 Dan Fox Drive,Route 7,Pittsfield,MA,01201,United States,(413) 442-7600,,,"Sunday 7:00A-10:00P, Monday 6:00A-11:00P, Tuesday 6:00A-11:00P, Wednesday 6:00A-11:00P, Thursday 6:00A-11:00P, Friday 6:00A-11:00P, Saturday 6:00A-11:00P",,,
Super Stop & Shop,0014,North River Plaza,Route 139,Pembroke,MA,02359,United States,(781) 826-9802,,,"Sunday 7:00A-9:00P, Monday 6:00A-12:00A, Tuesday 6:00A-12:00A, Wednesday 6:00A-12:00A, Thursday 6:00A-12:00A, Friday 6:00A-12:00A, Saturday 6:00A-12:00A",,,
Stop & Shop,2414,24 Mattakeesett Street,,Pembroke,MA,02359,United States,(781) 293-1262,,,"Sunday 7:00A-9:00P, Monday 7:00A-10:00P, Tuesday 7:00A-10:00P, Wednesday 7:00A-10:00P, Thursday 7:00A-10:00P, Friday 7:00A-10:00P, Saturday 7:00A-10:00P",,,
Super Stop & Shop,0005,19 Howley Street,,Peabody,MA,01960,United States,(978) 977-3900,,,"Sunday 7:00A-10:00P, Monday 7:00A-10:00P, Tuesday 7:00A-10:00P, Wednesday 7:00A-10:00P, Thursday 7:00A-10:00P, Friday 7:00A-10:00P, Saturday 7:00A-10:00P",,,
Super Stop & Shop,0064,24 Route 6a,,Orleans,MA,02653,United States,(508) 255-5288,,,"Sunday 7:00A-12:00A, Monday 6:00A-12:00A, Tuesday 6:00A-12:00A, Wednesday 6:00A-12:00A, Thursday 6:00A-12:00A, Friday 6:00A-12:00A, Saturday 6:00A-12:00A",,,
Super Stop & Shop,0418,1415 Providence Highway,,Norwood,MA,02062,United States,(781) 255-1141,,,"Sunday 7:00A-11:00P, Monday 6:00A-11:00P, Tuesday 6:00A-11:00P, Wednesday 6:00A-11:00P, Thursday 6:00A-11:00P, Friday 6:00A-11:00P, Saturday 6:00A-11:00P",,,
Super Stop & Shop,0028,468 Washington Street,,Norwell,MA,02061,United States,(781) 982-9876,,,"Sunday 7:00A-9:00P, Monday 7:00A-10:00P, Tuesday 7:00A-10:00P, Wednesday 7:00A-10:00P, Thursday 7:00A-10:00P, Friday 7:00A-10:00P, Saturday 7:00A-10:00P",,,
Super Stop & Shop,0787,228 King Street,,Northampton,MA,01060,United States,(413) 584-9200,,,"Sunday 7:00A-10:00P, Monday 6:00A-12:00A, Tuesday 6:00A-12:00A, Wednesday 6:00A-12:00A, Thursday 6:00A-12:00A, Friday 6:00A-12:00A, Saturday 6:00A-12:00A",,,
Super Stop & Shop,2406,265 Main Street,,North Reading,MA,01864,United States,(978) 664-0192,,,"Sunday 7:00A-9:00P, Monday 7:00A-11:00P, Tuesday 7:00A-11:00P, Wednesday 7:00A-11:00P, Thursday 7:00A-11:00P, Friday 7:00A-11:00P, Saturday 7:00A-11:00P",,,
Super Stop & Shop,0092,757 Turnpike Street,,North Andover,MA,01845,United States,(978) 683-9666,,,"Sunday 7:00A-9:00P, Monday 6:00A-10:00P, Tuesday 6:00A-10:00P, Wednesday 6:00A-10:00P, Thursday 6:00A-10:00P, Friday 6:00A-10:00P, Saturday 6:00A-10:00P",,,
Super Stop & Shop,0070,1001 King's Highway,,New Bedford,MA,02745,United States,(508) 998-2000,,,"Sunday 7:00A-9:00P, Monday 6:00A-12:00A, Tuesday 6:00A-12:00A, Wednesday 6:00A-12:00A, Thursday 6:00A-12:00A, Friday 6:00A-12:00A, Saturday 6:00A-12:00A",,,
Super Stop & Shop,0784,876 State Road,,North Adams,MA,01247,United States,(413) 664-8100,,,"Sunday 7:00A-9:00P, Monday 6:00A-12:00A, Tuesday 6:00A-12:00A, Wednesday 6:00A-12:00A, Thursday 6:00A-12:00A, Friday 6:00A-12:00A, Saturday 6:00A-12:00A",,,
Super Stop & Shop,0490,206 East Washington Street,,North Attleboro,MA,02763,United States,(508) 695-1999,,,"Sunday 7:00A-9:00P, Monday 6:00A-12:00A, Tuesday 6:00A-12:00A, Wednesday 6:00A-12:00A, Thursday 6:00A-12:00A, Friday 6:00A-12:00A, Saturday 6:00A-12:00A",,,
Super Stop & Shop,0098,438 Dartmouth Street,,New Bedford,MA,02742,United States,(508) 993-1791,,,"Sunday 7:00A-9:00P, Monday 6:00A-12:00A, Tuesday 6:00A-12:00A, Wednesday 6:00A-12:00A, Thursday 6:00A-12:00A, Friday 6:00A-12:00A, Saturday 6:00A-12:00A",,,
Super Stop & Shop,0006,829 Worcester Street,,Natick,MA,01760,United States,(508) 650-4050,,,"Sunday 7:00A-9:00P, Monday 7:00A-12:00A, Tuesday 7:00A-12:00A, Wednesday 7:00A-12:00A, Thursday 7:00A-12:00A, Friday 7:00A-12:00A, Saturday 7:00A-12:00A",,,
Stop & Shop,2415,31 Sparks Ave.,,Nantucket,MA,02554,United States,(508) 228-2178,,,"Sunday 5:00A-1:00A, Monday 5:00A-1:00A, Tuesday 5:00A-1:00A, Wednesday 5:00A-1:00A, Thursday 5:00A-1:00A, Friday 5:00A-1:00A, Saturday 5:00A-1:00A",,,
Stop & Shop,2413,9  Salem Street,,Nantucket,MA,02554,United States,(508) 825-8833,,,"Sunday 6:00A-10:00P, Monday 6:00A-11:00P, Tuesday 6:00A-11:00P, Wednesday 6:00A-11:00P, Thursday 6:00A-11:00P, Friday 6:00A-11:00P, Saturday 6:00A-11:00P",,,
Super Stop & Shop,0040,196 East Main Street,Quarry Mall,Milford,MA,01757,United States,(508) 478-8941,,,"Sunday 7:00A-9:00P, Monday 7:00A-11:00P, Tuesday 7:00A-11:00P, Wednesday 7:00A-11:00P, Thursday 7:00A-11:00P, Friday 7:00A-11:00P, Saturday 7:00A-11:00P",,,
Super Stop & Shop,0496,90 Pleasant Valley Street,,Methuen,MA,01844,United States,(978) 837-6660,,,"Sunday 7:00A-9:00P, Monday 7:00A-10:00P, Tuesday 7:00A-10:00P, Wednesday 7:00A-10:00P, Thursday 7:00A-10:00P, Friday 7:00A-10:00P, Saturday 7:00A-10:00P",,,
Super Stop & Shop,0433,760 Fellsway,,Medford,MA,02155,United States,(781) 391-5869,,,"Sunday 7:00A-9:00P, Monday 6:00A-11:00P, Tuesday 6:00A-11:00P, Wednesday 6:00A-11:00P, Thursday 6:00A-11:00P, Friday 6:00A-11:00P, Saturday 6:00A-11:00P",,,
Stop & Shop,2410,471 Salem Street,,Medford,MA,02155,United States,(781) 391-1638,,,"Sunday 7:00A-9:00P, Monday 7:00A-10:00P, Tuesday 7:00A-10:00P, Wednesday 7:00A-10:00P, Thursday 7:00A-10:00P, Friday 7:00A-10:00P, Saturday 7:00A-10:00P",,,
Super Stop & Shop,0087,39 Nathan Ellis Hwy,,Mashpee,MA,02649,United States,(508) 539-1800,,,"Sunday 6:00A-10:00P, Monday 6:00A-12:00A, Tuesday 6:00A-12:00A, Wednesday 6:00A-12:00A, Thursday 6:00A-12:00A, Friday 6:00A-12:00A, Saturday 6:00A-12:00A",,,
Super Stop & Shop,0066,3900 Falmouth Road,,Marstons Mills,MA,02635,United States,(508) 428-1278,,,"Sunday 6:00A-10:00P, Monday 6:00A-12:00A, Tuesday 6:00A-12:00A, Wednesday 6:00A-12:00A, Thursday 6:00A-12:00A, Friday 6:00A-12:00A, Saturday 6:00A-12:00A",,,
Super Stop & Shop,0007,377 Chauncy Street,,Mansfield,MA,02048,United States,(508) 337-9450,,,"Sunday 7:00A-9:00P, Monday 6:00A-12:00A, Tuesday 6:00A-12:00A, Wednesday 6:00A-12:00A, Thursday 6:00A-12:00A, Friday 6:00A-12:00A, Saturday 6:00A-12:00A",,,
Stop & Shop,0484,Route 3a State Rd,,Manomet,MA,02345,United States,(508) 224-4066,,,"Sunday 7:00A-9:00P, Monday 7:00A-10:00P, Tuesday 7:00A-10:00P, Wednesday 7:00A-10:00P, Thursday 7:00A-10:00P, Friday 7:00A-10:00P, Saturday 7:00A-10:00P",,,
Super Stop & Shop,0067,35 Washington Street,,Lynn,MA,01901,United States,(781) 596-1882,,,"Sunday 7:00A-9:00P, Monday 7:00A-10:00P, Tuesday 7:00A-10:00P, Wednesday 7:00A-10:00P, Thursday 7:00A-10:00P, Friday 7:00A-10:00P, Saturday 7:00A-10:00P",,,
Super Stop & Shop,0062,99 Charles Street,,Malden,MA,02148,United States,(781) 397-0006,,,"Sunday 7:00A-12:00A, Monday 6:00A-12:00A, Tuesday 6:00A-12:00A, Wednesday 6:00A-12:00A, Thursday 6:00A-12:00A, Friday 6:00A-12:00A, Saturday 6:00A-12:00A",,,
Super Stop & Shop,0402,160 Summer Street,,Kingston,MA,02364,United States,(781) 582-3700,,,"Sunday 7:00A-9:00P, Monday 7:00A-11:00P, Tuesday 7:00A-11:00P, Wednesday 7:00A-11:00P, Thursday 7:00A-11:00P, Friday 7:00A-11:00P, Saturday 7:00A-11:00P",,,
Super Stop & Shop,0491,36 Bedford Street,,Lexington,MA,02420,United States,(781) 861-0457,,,"Sunday 7:00A-9:00P, Monday 7:00A-11:00P, Tuesday 7:00A-11:00P, Wednesday 7:00A-11:00P, Thursday 7:00A-11:00P, Friday 7:00A-11:00P, Saturday 7:00A-11:00P",,,
Super Stop & Shop,0075,301 Centre Street,,Jamaica Plain,MA,02130,United States,(617) 522-4300,,,"Sunday 7:00A-9:00P, Monday 7:00A-11:00P, Tuesday 7:00A-11:00P, Wednesday 7:00A-11:00P, Thursday 7:00A-11:00P, Friday 7:00A-11:00P, Saturday 7:00A-11:00P",,,
Super Stop & Shop,0489,10 Technology Drive,,Hudson,MA,01749,United States,(978) 562-4111,,,"Sunday 7:00A-9:00P, Monday 7:00A-10:00P, Tuesday 7:00A-10:00P, Wednesday 7:00A-10:00P, Thursday 7:00A-10:00P, Friday 7:00A-10:00P, Saturday 7:00A-10:00P",,,
Stop & Shop,0413,1025 Truman Parkway,,Hyde Park,MA,02136,United States,(617) 333-0273,,,"Sunday 7:00A-9:00P, Monday 7:00A-10:00P, Tuesday 7:00A-10:00P, Wednesday 7:00A-10:00P, Thursday 7:00A-10:00P, Friday 7:00A-10:00P, Saturday 7:00A-10:00P",,,
Stop & Shop,0406,425 Attucks Lane,,Hyannis,MA,02601,United States,(508) 771-0709,,,"Sunday 6:00A-10:00P, Monday 6:00A-12:00A, Tuesday 6:00A-12:00A, Wednesday 6:00A-12:00A, Thursday 6:00A-12:00A, Friday 6:00A-12:00A, Saturday 6:00A-12:00A",,,
Super Stop & Shop,0035,400 Lincoln Street,Lincoln Plaza,Hingham,MA,02043,United States,(781) 749-1143,,,"Sunday 7:00A-9:00P, Monday 7:00A-11:00P, Tuesday 7:00A-11:00P, Wednesday 7:00A-11:00P, Thursday 7:00A-11:00P, Friday 7:00A-11:00P, Saturday 7:00A-11:00P",,,
Super Stop & Shop,0009,28 Lincoln Street,,Holyoke,MA,01040,United States,(413) 536-1247,,,"Sunday 7:00A-10:00P, Monday 6:00A-11:00P, Tuesday 6:00A-11:00P, Wednesday 6:00A-11:00P, Thursday 6:00A-11:00P, Friday 6:00A-11:00P, Saturday 6:00A-11:00P",,,
Super Stop & Shop,0030,2265 Northampton Street,,Holyoke,MA,01040,United States,(413) 536-9287,,,"Sunday 7:00A-9:00P, Monday 7:00A-11:00P, Tuesday 7:00A-11:00P, Wednesday 7:00A-11:00P, Thursday 7:00A-11:00P, Friday 7:00A-11:00P, Saturday 7:00A-11:00P",,,
Super Stop & Shop,0475,Rt. 39 and Rt. 137,Harwich Commons,Harwich,MA,02645,United States,(508) 432-5000,,,"Sunday 6:00A-10:00P, Monday 6:00A-12:00A, Tuesday 6:00A-12:00A, Wednesday 6:00A-12:00A, Thursday 6:00A-12:00A, Friday 6:00A-12:00A, Saturday 6:00A-12:00A",,,
Super Stop & Shop,0095,440 Russell Street,,Hadley,MA,01035,United States,(413) 253-3227,,,"Sunday 7:00A-10:00P, Monday 6:00A-12:00A, Tuesday 6:00A-12:00A, Wednesday 6:00A-12:00A, Thursday 6:00A-12:00A, Friday 6:00A-12:00A, Saturday 6:00A-12:00A",,,
Super Stop & Shop,0082,341 Plymouth Street,,Halifax,MA,02338,United States,(781) 293-1961,,,"Sunday 7:00A-9:00P, Monday 7:00A-10:00P, Tuesday 7:00A-10:00P, Wednesday 7:00A-10:00P, Thursday 7:00A-10:00P, Friday 7:00A-10:00P, Saturday 7:00A-10:00P",,,
Super Stop & Shop,0045,89 French King Highway,,Greenfield,MA,01301,United States,(413) 774-6096,,,"Sunday 7:00A-9:00P, Monday 7:00A-10:00P, Tuesday 7:00A-10:00P, Wednesday 7:00A-10:00P, Thursday 7:00A-10:00P, Friday 7:00A-10:00P, Saturday 7:00A-10:00P",,,
Super Stop & Shop,0057,100 Worcester Street,,Grafton,MA,01519,United States,(508) 887-9500,,,"Sunday 7:00A-9:00P, Monday 6:00A-10:00P, Tuesday 6:00A-10:00P, Wednesday 6:00A-10:00P, Thursday 6:00A-10:00P, Friday 6:00A-10:00P, Saturday 6:00A-10:00P",,,
Super Stop & Shop,0410,6 Thatcher Road,,Gloucester,MA,01930,United States,(978) 281-0010,,,"Sunday 6:00A-9:00P, Monday 6:00A-11:00P, Tuesday 6:00A-11:00P, Wednesday 6:00A-11:00P, Thursday 6:00A-11:00P, Friday 6:00A-11:00P, Saturday 6:00A-11:00P",,,
Super Stop & Shop,0008,19 Temple Street,,Framingham,MA,01701,United States,(508) 879-4044,,,"Sunday 7:00A-9:00P, Monday 7:00A-11:00P, Tuesday 7:00A-11:00P, Wednesday 7:00A-11:00P, Thursday 7:00A-11:00P, Friday 7:00A-11:00P, Saturday 7:00A-11:00P",,,
Super Stop & Shop,0003,235 Old Connecticut Path,,Framingham,MA,01701,United States,(508) 820-0900,,,"Sunday 7:00A-9:00P, Monday 7:00A-11:00P, Tuesday 7:00A-11:00P, Wednesday 7:00A-11:00P, Thursday 7:00A-11:00P, Friday 7:00A-12:00A, Saturday 7:00A-12:00A",,,
Super Stop & Shop,0472,40 Franklin Village Drive,,Franklin,MA,02038,United States,(508) 520-4102,,,"Sunday 7:00A-9:00P, Monday 7:00A-11:00P, Tuesday 7:00A-11:00P, Wednesday 7:00A-11:00P, Thursday 7:00A-11:00P, Friday 7:00A-11:00P, Saturday 7:00A-11:00P",,,
Super Stop & Shop,0494,141 Main Street,,Foxboro,MA,02035,United States,(508) 543-5791,,,"Sunday 7:00A-9:00P, Monday 7:00A-10:00P, Tuesday 7:00A-10:00P, Wednesday 7:00A-10:00P, Thursday 7:00A-10:00P, Friday 7:00A-10:00P, Saturday 7:00A-10:00P",,,
Super Stop & Shop,0782,1282 Springfield Street,,Feeding Hills,MA,01030,United States,(413) 789-2224,,,"Sunday 7:00A-10:00P, Monday 7:00A-11:00P, Tuesday 7:00A-11:00P, Wednesday 7:00A-11:00P, Thursday 7:00A-11:00P, Friday 7:00A-11:00P, Saturday 7:00A-11:00P",,,
Super Stop & Shop,0071,501 Rodman Street,,Fall River,MA,02721,United States,(508) 672-2177,,,"Sunday 7:00A-9:00P, Monday 6:00A-11:00P, Tuesday 6:00A-11:00P, Wednesday 6:00A-11:00P, Thursday 6:00A-11:00P, Friday 6:00A-11:00P, Saturday 6:00A-11:00P",,,
Super Stop & Shop,0473,333 Mariano Bishop Boulevard,,Fall River,MA,02720,United States,(508) 675-0391,,,"Sunday 7:00A-9:00P, Monday 6:00A-12:00A, Tuesday 6:00A-12:00A, Wednesday 6:00A-12:00A, Thursday 6:00A-12:00A, Friday 6:00A-12:00A, Saturday 6:00A-12:00A",,,
Super Stop & Shop,0427,221 Huttleston Avenue,,Fairhaven,MA,02719,United States,(508) 990-4500,,,"Sunday 6:00A-10:00P, Monday 6:00A-11:00P, Tuesday 6:00A-11:00P, Wednesday 6:00A-11:00P, Thursday 6:00A-11:00P, Friday 6:00A-11:00P, Saturday 6:00A-11:00P",,,
Stop & Shop Pharmacy,0398,245 Vineyard Haven Road,,Edgartown,MA,02539,United States,(508) 627-5107,,,"Sunday 8:30A-5:30P, Monday 8:00A-6:30P, Tuesday 8:00A-6:30P, Wednesday 8:00A-6:30P, Thursday 8:00A-6:30P, Friday 8:00A-6:30P, Saturday 8:00A-5:30P",,,
Stop & Shop,0422,225 Upper Main Street,,Edgartown,MA,02539,United States,(508) 627-9522,,,"Sunday 7:00A-9:00P, Monday 7:00A-10:00P, Tuesday 7:00A-10:00P, Wednesday 7:00A-10:00P, Thursday 7:00A-10:00P, Friday 7:00A-10:00P, Saturday 7:00A-10:00P",,,
Super Stop & Shop,0492,1690 Revere Beach Parkway,,Everett,MA,02149,United States,(617) 381-1647,,,"Sunday 7:00A-9:00P, Monday 7:00A-11:00P, Tuesday 7:00A-11:00P, Wednesday 7:00A-11:00P, Thursday 7:00A-11:00P, Friday 7:00A-11:00P, Saturday 7:00A-11:00P",,,
Super Stop & Shop,0474,2991 Cranberry Highway,,East Wareham,MA,02538,United States,(508) 291-1110,,,"Sunday 7:00A-9:00P, Monday 6:00A-11:00P, Tuesday 6:00A-11:00P, Wednesday 6:00A-11:00P, Thursday 6:00A-11:00P, Friday 6:00A-11:00P, Saturday 6:00A-11:00P",,,
Super Stop & Shop,0080,1277 Liberty Street,,East Springfield,MA,01104,United States,(413) 732-6920,,,"Sunday 7:00A-9:00P, Monday 6:00A-12:00A, Tuesday 6:00A-12:00A, Wednesday 6:00A-12:00A, Thursday 6:00A-12:00A, Friday 6:00A-12:00A, Saturday 6:00A-12:00A",,,
Super Stop & Shop,0425,20 Teaticket Highway,,East Falmouth,MA,02536,United States,(508) 540-7481,,,"Sunday 6:00A-10:00P, Monday 6:00A-12:00A, Tuesday 6:00A-12:00A, Wednesday 6:00A-12:00A, Thursday 6:00A-12:00A, Friday 6:00A-12:00A, Saturday 6:00A-12:00A",,,
Super Stop & Shop,0061,470 North Main Street,,East Longmeadow,MA,01028,United States,(413) 525-5747,,,"Sunday 7:00A-10:00P, Monday 7:00A-11:00P, Tuesday 7:00A-11:00P, Wednesday 7:00A-11:00P, Thursday 7:00A-11:00P, Friday 7:00A-11:00P, Saturday 7:00A-11:00P",,,
Super Stop & Shop,0487,700 Middle Street,,E.Weymouth,MA,02189,United States,(781) 337-2782,,,"Sunday 7:00A-9:00P, Monday 7:00A-11:00P, Tuesday 7:00A-11:00P, Wednesday 7:00A-11:00P, Thursday 7:00A-11:00P, Friday 7:00A-11:00P, Saturday 7:00A-11:00P",,,
Super Stop & Shop,0416,160 Providence Highway,,Dedham,MA,02026,United States,(781) 329-1050,,,"Sunday 7:00A-9:00P, Monday 7:00A-11:00P, Tuesday 7:00A-11:00P, Wednesday 7:00A-11:00P, Thursday 7:00A-11:00P, Friday 7:00A-11:00P, Saturday 7:00A-11:00P",,,
Super Stop & Shop,0018,545 Freeport Street,,Dorchester,MA,02122,United States,(617) 265-2766,,,"Sunday 7:00A-9:00P, Monday 7:00A-11:00P, Tuesday 7:00A-11:00P, Wednesday 7:00A-11:00P, Thursday 7:00A-11:00P, Friday 7:00A-11:00P, Saturday 7:00A-11:00P",,,
Super Stop & Shop,0429,1100 Massachusetts Avenue,,Dorchester,MA,02125,United States,(617) 541-4700,,,"Sunday 7:00A-12:00A, Monday 6:00A-12:00A, Tuesday 6:00A-12:00A, Wednesday 6:00A-12:00A, Thursday 6:00A-12:00A, Friday 6:00A-12:00A, Saturday 6:00A-12:00A",,,
Super Stop & Shop,0493,25 Faunce Corner Road,,Dartmouth,MA,02747,United States,(508) 999-7200,,,"Sunday 7:00A-9:00P, Monday 6:00A-12:00A, Tuesday 6:00A-12:00A, Wednesday 6:00A-12:00A, Thursday 6:00A-12:00A, Friday 6:00A-12:00A, Saturday 6:00A-12:00A",,,
Super Stop & Shop,0093,301 Newbury Street,,Danvers,MA,01923,United States,(978) 762-4444,,,"Sunday 7:00A-9:00P, Monday 7:00A-11:00P, Tuesday 7:00A-11:00P, Wednesday 7:00A-11:00P, Thursday 7:00A-11:00P, Friday 7:00A-11:00P, Saturday 7:00A-11:00P",,,
Super Stop & Shop,0482,400 Chief Justice Cushing Highway,,Cohasset,MA,02025,United States,(781) 383-2101,,,"Sunday 7:00A-9:00P, Monday 7:00A-10:00P, Tuesday 7:00A-10:00P, Wednesday 7:00A-10:00P, Thursday 7:00A-10:00P, Friday 7:00A-10:00P, Saturday 7:00A-10:00P",,,
Super Stop & Shop,0036,672 Memorial Drive,Route 33,Chicopee,MA,01021,United States,(413) 593-1111,,,"Sunday 7:00A-10:00P, Monday 7:00A-11:00P, Tuesday 7:00A-11:00P, Wednesday 7:00A-11:00P, Thursday 7:00A-11:00P, Friday 7:00A-11:00P, Saturday 7:00A-11:00P",,,
Stop & Shop,0480,299 Chelmsford St,,Chelmsford,MA,01824,United States,(978) 250-4102,,,"Sunday 7:00A-9:00P, Monday 6:00A-11:00P, Tuesday 6:00A-11:00P, Wednesday 6:00A-11:00P, Thursday 6:00A-11:00P, Friday 6:00A-11:00P, Saturday 6:00A-11:00P",,,
Super Stop & Shop,0415,683 Belmont Street,,Brockton,MA,02302,United States,(508) 427-5500,,,"Sunday 7:00A-9:00P, Monday 6:00A-11:00P, Tuesday 6:00A-11:00P, Wednesday 6:00A-11:00P, Thursday 6:00A-11:00P, Friday 6:00A-11:00P, Saturday 6:00A-11:00P",,,
Super Stop & Shop,0055,932 North Montello Street,,Brockton,MA,02301,United States,(508) 427-0537,,,"Sunday 7:00A-10:00P, Monday 6:00A-10:00P, Tuesday 6:00A-10:00P, Wednesday 6:00A-10:00P, Thursday 6:00A-10:00P, Friday 6:00A-10:00P, Saturday 6:00A-10:00P",,,
Stop & Shop,0001,155 Harvard Street,,Brookline,MA,02446,United States,(617) 566-4559,,,"Sunday 7:00A-9:00P, Monday 7:00A-11:00P, Tuesday 7:00A-11:00P, Wednesday 7:00A-11:00P, Thursday 7:00A-11:00P, Friday 7:00A-11:00P, Saturday 7:00A-11:00P",,,
Super Stop & Shop,0478,316 Grove Street,,Braintree,MA,02184,United States,(781) 356-1730,,,"Sunday 7:00A-9:00P, Monday 7:00A-11:00P, Tuesday 7:00A-11:00P, Wednesday 7:00A-11:00P, Thursday 7:00A-11:00P, Friday 7:00A-11:00P, Saturday 7:00A-11:00P",,,
Stop & Shop Pharmacy,0397,1 Trowbridge Place,,Bourne,MA,02532,United States,(508) 743-9563,,,"Sunday 9:00A-5:00P, Monday 8:00A-8:00P, Tuesday 8:00A-8:00P, Wednesday 8:00A-8:00P, Thursday 8:00A-8:00P, Friday 8:00A-8:00P, Saturday 9:00A-5:00P",,,
Stop & Shop,0412,1620 Tremont Street,,Boston,MA,02120,United States,(617) 232-3572,,,"Sunday 7:00A-10:00P, Monday 6:00A-11:00P, Tuesday 6:00A-11:00P, Wednesday 6:00A-11:00P, Thursday 6:00A-11:00P, Friday 6:00A-11:00P, Saturday 6:00A-11:00P",,,
Super Stop & Shop,0032,37 Enon Street,,Beverly,MA,01915,United States,(978) 921-0920,,,"Sunday 7:00A-9:00P, Monday 7:00A-10:00P, Tuesday 7:00A-10:00P, Wednesday 7:00A-10:00P, Thursday 7:00A-10:00P, Friday 7:00A-10:00P, Saturday 7:00A-10:00P",,,
Super Stop & Shop,0435,40 George Hannum Street,,Belchertown,MA,01007,United States,(413) 323-6546,,,"Sunday 7:00A-9:00P, Monday 6:00A-10:00P, Tuesday 6:00A-10:00P, Wednesday 6:00A-10:00P, Thursday 6:00A-10:00P, Friday 6:00A-10:00P, Saturday 6:00A-10:00P",,,
Super Stop & Shop,0081,224 Elliott Street,,Beverly,MA,01915,United States,(978) 232-9359,,,"Sunday 7:00A-9:00P, Monday 7:00A-10:00P, Tuesday 7:00A-10:00P, Wednesday 7:00A-10:00P, Thursday 7:00A-10:00P, Friday 7:00A-10:00P, Saturday 7:00A-10:00P",,,
Super Stop & Shop,0430,70 Pulaski Boulevard,,Bellingham,MA,02019,United States,(508) 883-2179,,,"Sunday 7:00A-9:00P, Monday 7:00A-11:00P, Tuesday 7:00A-11:00P, Wednesday 7:00A-11:00P, Thursday 7:00A-11:00P, Friday 7:00A-11:00P, Saturday 7:00A-11:00P",,,
Super Stop & Shop,0088,337 Great Road,Great Road Shopping Center,Bedford,MA,01730,United States,(781) 271-9400,,,"Sunday 7:00A-9:00P, Monday 7:00A-11:00P, Tuesday 7:00A-11:00P, Wednesday 7:00A-11:00P, Thursday 7:00A-11:00P, Friday 7:00A-11:00P, Saturday 7:00A-11:00P",,,
Super Stop & Shop,0443,251 Washington Street,,Attleboro,MA,02703,United States,(508) 399-6019,,,"Sunday 6:00A-9:00P, Monday 6:00A-12:00A, Tuesday 6:00A-12:00A, Wednesday 6:00A-12:00A, Thursday 6:00A-12:00A, Friday 6:00A-12:00A, Saturday 6:00A-12:00A",,,
Super Stop & Shop,0432,469 Pleasant Street,Route 123,Attleboro,MA,02703,United States,(508) 226-2400,,,"Sunday 7:00A-9:00P, Monday 6:00A-12:00A, Tuesday 6:00A-12:00A, Wednesday 6:00A-12:00A, Thursday 6:00A-12:00A, Friday 6:00A-12:00A, Saturday 6:00A-12:00A",,,
Stop & Shop,0776,905 Massachusetts Avenue,,Arlington,MA,02476,United States,(781) 646-3625,,,"Sunday 7:00A-9:00P, Monday 7:00A-11:00P, Tuesday 7:00A-11:00P, Wednesday 7:00A-11:00P, Thursday 7:00A-11:00P, Friday 7:00A-11:00P, Saturday 7:00A-11:00P",,,
Stop & Shop,0471,209 North Main Street,,Andover,MA,01810,United States,(978) 623-9912,,,"Sunday 7:00A-9:00P, Monday 7:00A-10:00P, Tuesday 7:00A-10:00P, Wednesday 7:00A-10:00P, Thursday 7:00A-10:00P, Friday 7:00A-10:00P, Saturday 7:00A-10:00P",,,
Stop & Shop,0460,100 Powder Mill Road,,Acton,MA,01720,United States,(978) 897-6449,,,"Sunday 7:00A-9:00P, Monday 7:00A-10:00P, Tuesday 7:00A-10:00P, Wednesday 7:00A-10:00P, Thursday 7:00A-10:00P, Friday 7:00A-10:00P, Saturday 7:00A-10:00P",,,
Super Stop & Shop,0499,100 Macy Street,,Amesbury,MA,01913,United States,(978) 388-7588,,,"Sunday 7:00A-9:00P, Monday 7:00A-10:00P, Tuesday 7:00A-10:00P, Wednesday 7:00A-10:00P, Thursday 7:00A-10:00P, Friday 7:00A-10:00P, Saturday 7:00A-10:00P",,,
Super Stop & Shop,0089,60 Everett Street,,Allston,MA,02134,United States,(617) 779-9116,,,"Sunday 7:00A-11:00P, Monday 7:00A-11:00P, Tuesday 7:00A-11:00P, Wednesday 7:00A-11:00P, Thursday 7:00A-11:00P, Friday 7:00A-11:00P, Saturday 7:00A-11:00P",,,
Super Stop & Shop,0054,375 Centre Avenue,Route 123,Abington,MA,02351,United States,(781) 871-0020,,,"Sunday 7:00A-9:00P, Monday 6:00A-11:00P, Tuesday 6:00A-11:00P, Wednesday 6:00A-11:00P, Thursday 6:00A-11:00P, Friday 6:00A-11:00P, Saturday 6:00A-11:00P",,,
Super Stop & Shop,0625,200 New Hartford Road,,Winsted,CT,06098,United States,(860) 379-9995,,,"Sunday 7:00A-10:00P, Monday 6:00A-11:00P, Tuesday 6:00A-11:00P, Wednesday 6:00A-11:00P, Thursday 6:00A-11:00P, Friday 6:00A-11:00P, Saturday 6:00A-11:00P",,,
Super Stop & Shop,0619,1095 Kennedy Road,,Windsor,CT,06095,United States,(860) 688-0860,,,"Sunday 7:00A-12:00A, Monday 6:00A-12:00A, Tuesday 6:00A-12:00A, Wednesday 6:00A-12:00A, Thursday 6:00A-12:00A, Friday 6:00A-12:00A, Saturday 6:00A-12:00A",,,
Super Stop & Shop,0658,5 River Road,Wilton Campus,Wilton,CT,06897,United States,(203) 834-9735,,,"Sunday 7:00A-9:00P, Monday 7:00A-9:00P, Tuesday 7:00A-9:00P, Wednesday 7:00A-9:00P, Thursday 7:00A-9:00P, Friday 7:00A-9:00P, Saturday 7:00A-9:00P",,,
Super Stop & Shop,0610,1380 Berlin Turnpike,Jordan Lane Shopping Center,Wethersfield,CT,06109,United States,(860) 956-0477,,,"Sunday 7:00A-12:00A, Monday 6:00A-12:00A, Tuesday 6:00A-12:00A, Wednesday 6:00A-12:00A, Thursday 6:00A-12:00A, Friday 6:00A-12:00A, Saturday 6:00A-12:00A",,,
Super Stop & Shop,0653,1790 Post Road East,,Westport,CT,06880,United States,(203) 254-8484,,,"Sunday 7:00A-11:00P, Monday 6:00A-12:00A, Tuesday 6:00A-12:00A, Wednesday 6:00A-12:00A, Thursday 6:00A-12:00A, Friday 6:00A-12:00A, Saturday 6:00A-12:00A",,,
Stop & Shop,0681,1235 Farmington Avenue,,West Hartford,CT,06107,United States,(860) 521-5010,,,"Sunday 8:00A-9:00P, Monday 8:00A-12:00A, Tuesday 8:00A-12:00A, Wednesday 8:00A-12:00A, Thursday 8:00A-12:00A, Friday 8:00A-12:00A, Saturday 8:00A-12:00A",,,
Super Stop & Shop,0696,460 Elm Street,,West Haven,CT,06516,United States,(203) 931-8843,,,"Sunday 7:00A-10:00P, Monday 6:00A-11:00P, Tuesday 6:00A-11:00P, Wednesday 6:00A-11:00P, Thursday 6:00A-11:00P, Friday 6:00A-11:00P, Saturday 6:00A-11:00P",,,
Super Stop & Shop,0674,1391 Main Street,,Willimantic,CT,06226,United States,(860) 456-8768,,,"Sunday 7:00A-10:00P, Monday 6:00A-12:00A, Tuesday 6:00A-12:00A, Wednesday 6:00A-12:00A, Thursday 6:00A-12:00A, Friday 6:00A-12:00A, Saturday 6:00A-12:00A",,,
Super Stop & Shop,2606,176 Newington Road,,West Hartford,CT,06110,United States,(860) 231-8082,,,"Sunday 7:00A-11:00P, Monday 6:00A-12:00A, Tuesday 6:00A-12:00A, Wednesday 6:00A-12:00A, Thursday 6:00A-12:00A, Friday 6:00A-12:00A, Saturday 6:00A-12:00A",,,
Super Stop & Shop,0667,155 Boston Post Road,,Waterford,CT,06385,United States,(860) 444-6772,,,"Sunday 7:00A-10:00P, Monday 6:00A-12:00A, Tuesday 6:00A-12:00A, Wednesday 6:00A-12:00A, Thursday 6:00A-12:00A, Friday 6:00A-12:00A, Saturday 6:00A-12:00A",,,
Super Stop & Shop,0657,763 Straits Turnpike,,Watertown,CT,06795,United States,(860) 274-7459,,,"Sunday 7:00A-12:00A, Monday 6:00A-12:00A, Tuesday 6:00A-12:00A, Wednesday 6:00A-12:00A, Thursday 6:00A-12:00A, Friday 6:00A-12:00A, Saturday 6:00A-12:00A",,,
Super Stop & Shop,0618,410 Reidville Drive,,Waterbury,CT,06705,United States,(203) 755-8605,,,"Sunday 7:00A-11:00P, Monday 6:00A-12:00A, Tuesday 6:00A-12:00A, Wednesday 6:00A-12:00A, Thursday 6:00A-12:00A, Friday 6:00A-12:00A, Saturday 6:00A-12:00A",,,
Super Stop & Shop,0679,240 Chase Avenue,,Waterbury,CT,06704,United States,(203) 756-4678,,,"Sunday 7:00A-11:00P, Monday 7:00A-11:00P, Tuesday 7:00A-11:00P, Wednesday 7:00A-11:00P, Thursday 7:00A-11:00P, Friday 7:00A-11:00P, Saturday 7:00A-11:00P",,,
Super Stop & Shop,0613,10 Pitkin Road,,Vernon,CT,06066,United States,(860) 871-0897,,,"Sunday 7:00A-10:00P, Monday 6:00A-12:00A, Tuesday 6:00A-12:00A, Wednesday 6:00A-12:00A, Thursday 6:00A-12:00A, Friday 6:00A-12:00A, Saturday 6:00A-12:00A",,,
Super Stop & Shop,0675,920 Wolcott Road,,Waterbury,CT,06705,United States,(203) 755-9489,,,"Sunday 7:00A-11:00P, Monday 6:00A-12:00A, Tuesday 6:00A-12:00A, Wednesday 6:00A-12:00A, Thursday 6:00A-12:00A, Friday 6:00A-12:00A, Saturday 6:00A-12:00A",,,
Super Stop & Shop,0638,930 North Colony Road,,Wallingford,CT,06492,United States,(203) 265-6972,,,"Sunday 6:00A-12:00A, Monday 6:00A-12:00A, Tuesday 6:00A-12:00A, Wednesday 6:00A-12:00A, Thursday 6:00A-12:00A, Friday 6:00A-12:00A, Saturday 6:00A-12:00A",,,
Super Stop & Shop,0686,1799 Farmington Avenue,,Unionville,CT,06085,United States,(860) 404-0341,,,"Sunday 6:00A-10:00P, Monday 6:00A-12:00A, Tuesday 6:00A-12:00A, Wednesday 6:00A-12:00A, Thursday 6:00A-12:00A, Friday 6:00A-12:00A, Saturday 6:00A-12:00A",,,
Super Stop & Shop,0620,100 Quality Street,,Trumbull,CT,06611,United States,(203) 445-1006,,,"Sunday 7:00A-10:00P, Monday 7:00A-10:00P, Tuesday 7:00A-10:00P, Wednesday 7:00A-10:00P, Thursday 7:00A-10:00P, Friday 7:00A-10:00P, Saturday 7:00A-10:00P",,,
Stop & Shop,2604,931 Torringford Street,,Torrington,CT,06790,United States,(860) 482-5125,,,"Sunday 6:00A-12:00A, Monday 6:00A-12:00A, Tuesday 6:00A-12:00A, Wednesday 6:00A-12:00A, Thursday 6:00A-12:00A, Friday 6:00A-12:00A, Saturday 6:00A-12:00A",,,
Super Stop & Shop,0639,200 East Main Street,The Dock Shopping Center,Stratford,CT,06614,United States,(203) 375-8787,,,"Sunday 6:00A-12:00A, Monday 6:00A-12:00A, Tuesday 6:00A-12:00A, Wednesday 6:00A-12:00A, Thursday 6:00A-12:00A, Friday 6:00A-12:00A, Saturday 6:00A-12:00A",,,
Super Stop & Shop,0622,211 High Street,Torrington Commons Shopping,Torrington,CT,06790,United States,(860) 482-4460,,,"Sunday 6:00A-12:00A, Monday 6:00A-12:00A, Tuesday 6:00A-12:00A, Wednesday 6:00A-12:00A, Thursday 6:00A-12:00A, Friday 6:00A-12:00A, Saturday 6:00A-12:00A",,,
Super Stop & Shop,0637,2200 Bedford Street,,Stamford,CT,06905,United States,(203) 356-0109,,,"Sunday 7:00A-12:00A, Monday 6:00A-12:00A, Tuesday 6:00A-12:00A, Wednesday 6:00A-12:00A, Thursday 6:00A-12:00A, Friday 6:00A-12:00A, Saturday 6:00A-12:00A",,,
Stop & Shop,0646,1937 West Main Street,,Stamford,CT,06905,United States,(203) 323-1458,,,"Sunday 7:00A-10:00P, Monday 6:00A-10:00P, Tuesday 6:00A-10:00P, Wednesday 6:00A-10:00P, Thursday 6:00A-10:00P, Friday 6:00A-10:00P, Saturday 6:00A-10:00P",,,
Super Stop & Shop,0684,505 North Main Street,,Southington,CT,06489,United States,(860) 620-9161,,,"Sunday 7:00A-12:00A, Monday 6:00A-12:00A, Tuesday 6:00A-12:00A, Wednesday 6:00A-12:00A, Thursday 6:00A-12:00A, Friday 6:00A-12:00A, Saturday 6:00A-12:00A",,,
Stop & Shop,0621,100 Main Street North,,Southbury,CT,06488,United States,(203) 262-4555,,,"Sunday 6:00A-10:00P, Monday 6:00A-11:00P, Tuesday 6:00A-11:00P, Wednesday 6:00A-11:00P, Thursday 6:00A-11:00P, Friday 6:00A-11:00P, Saturday 6:00A-11:00P",,,
Super Stop & Shop,0699,1739 Ellington Road,,South Windsor,CT,06074,United States,(860) 648-4026,,,"Sunday 7:00A-10:00P, Monday 6:00A-12:00A, Tuesday 6:00A-12:00A, Wednesday 6:00A-12:00A, Thursday 6:00A-12:00A, Friday 6:00A-12:00A, Saturday 6:00A-12:00A",,,
Super Stop & Shop,0607,498 Bushy Hill Road,Simsbury Commons,Simsbury,CT,06070,United States,(860) 651-4787,,,"Sunday 7:00A-12:00A, Monday 6:00A-12:00A, Tuesday 6:00A-12:00A, Wednesday 6:00A-12:00A, Thursday 6:00A-12:00A, Friday 6:00A-12:00A, Saturday 6:00A-12:00A",,,
Super Stop & Shop,0629,898 Bridgeport Avenue,Shelton Square,Shelton,CT,06484,United States,(203) 929-7516,,,"Sunday 7:00A-12:00A, Monday 7:00A-12:00A, Tuesday 7:00A-12:00A, Wednesday 7:00A-12:00A, Thursday 7:00A-12:00A, Friday 7:00A-12:00A, Saturday 7:00A-12:00A",,,
Super Stop & Shop,0603,15 Franklin Street,,Seymour,CT,06483,United States,(203) 881-2641,,,"Sunday 7:00A-10:00P, Monday 6:00A-11:00P, Tuesday 6:00A-11:00P, Wednesday 6:00A-11:00P, Thursday 6:00A-11:00P, Friday 6:00A-11:00P, Saturday 6:00A-11:00P",,,
Super Stop & Shop,0632,80 Town Line Road,,Rocky Hill,CT,06067,United States,(860) 563-1169,,,"Sunday 7:00A-10:00P, Monday 6:00A-12:00A, Tuesday 6:00A-12:00A, Wednesday 6:00A-12:00A, Thursday 6:00A-12:00A, Friday 6:00A-12:00A, Saturday 6:00A-12:00A",,,
Stop & Shop,2614,50 Windsorville Road,,Rockville,CT,06066,United States,(860) 871-0498,,,"Sunday 7:00A-10:00P, Monday 6:00A-11:00P, Tuesday 6:00A-11:00P, Wednesday 6:00A-11:00P, Thursday 6:00A-11:00P, Friday 6:00A-11:00P, Saturday 6:00A-11:00P",,,
Super Stop & Shop,0656,125 Danbury Road,Copps Hill Plaza,Ridgefield,CT,06877,United States,(203) 438-7317,,,"Sunday 7:00A-9:00P, Monday 7:00A-10:00P, Tuesday 7:00A-10:00P, Wednesday 7:00A-10:00P, Thursday 7:00A-10:00P, Friday 7:00A-10:00P, Saturday 7:00A-10:00P",,,
Super Stop & Shop,0688,665 Boston Post Road,Old Saybrook Shopping Center,Old Saybrook,CT,06475,United States,(860) 388-6354,,,"Sunday 7:00A-10:00P, Monday 6:00A-12:00A, Tuesday 6:00A-12:00A, Wednesday 6:00A-12:00A, Thursday 6:00A-12:00A, Friday 6:00A-12:00A, Saturday 6:00A-12:00A",,,
Super Stop & Shop,0727,60 Providence Turnpike,,Putnam,CT,06260,United States,(860) 963-2640,,,"Sunday 7:00A-9:00P, Monday 7:00A-10:00P, Tuesday 7:00A-10:00P, Wednesday 7:00A-10:00P, Thursday 7:00A-10:00P, Friday 7:00A-10:00P, Saturday 7:00A-10:00P",,,
Stop & Shop,2607,91 Voluntown Road,,Pawcatuck,CT,06379,United States,(860) 535-8234,,,"Sunday 7:00A-10:00P, Monday 6:00A-12:00A, Tuesday 6:00A-12:00A, Wednesday 6:00A-12:00A, Thursday 6:00A-12:00A, Friday 6:00A-12:00A, Saturday 6:00A-12:00A",,,
Super Stop & Shop,0640,385 Connecticut Avenue,,Norwalk,CT,06854,United States,(203) 299-1715,,,"Sunday 7:00A-12:00A, Monday 6:00A-12:00A, Tuesday 6:00A-12:00A, Wednesday 6:00A-12:00A, Thursday 6:00A-12:00A, Friday 6:00A-12:00A, Saturday 6:00A-12:00A",,,
Super Stop & Shop,0615,70 Town Street,,Norwich,CT,06360,United States,(860) 887-1611,,,"Sunday 7:00A-10:00P, Monday 6:00A-12:00A, Tuesday 6:00A-12:00A, Wednesday 6:00A-12:00A, Thursday 6:00A-12:00A, Friday 6:00A-12:00A, Saturday 6:00A-12:00A",,,
Super Stop & Shop,0662,380 Main Avenue,,Norwalk,CT,06851,United States,(203) 840-1001,,,"Sunday 7:00A-12:00A, Monday 6:00A-12:00A, Tuesday 6:00A-12:00A, Wednesday 6:00A-12:00A, Thursday 6:00A-12:00A, Friday 6:00A-12:00A, Saturday 6:00A-12:00A",,,
Super Stop & Shop,0694,79 Washington Avenue,,North Haven,CT,06473,United States,(203) 234-1757,,,"Sunday 7:00A-10:00P, Monday 6:00A-10:00P, Tuesday 6:00A-10:00P, Wednesday 6:00A-10:00P, Thursday 6:00A-10:00P, Friday 6:00A-10:00P, Saturday 6:00A-10:00P",,,
Super Stop & Shop,0677,11 East Main Street,,North Canaan,CT,06018,United States,(860) 824-7990,,,"Sunday 7:00A-9:00P, Monday 7:00A-11:00P, Tuesday 7:00A-11:00P, Wednesday 7:00A-11:00P, Thursday 7:00A-11:00P, Friday 7:00A-11:00P, Saturday 7:00A-11:00P",,,
Super Stop & Shop,0636,228 South Main Street,Sand Hill Plaza,Newtown,CT,06470,United States,(203) 270-0177,,,"Sunday 7:00A-10:00P, Monday 6:00A-10:00P, Tuesday 6:00A-10:00P, Wednesday 6:00A-10:00P, Thursday 6:00A-10:00P, Friday 6:00A-10:00P, Saturday 6:00A-10:00P",,,
Stop & Shop,2613,206 Kitts Lane,,Newington,CT,06111,United States,(860) 665-8166,,,"Sunday 9:00A-3:00P, Monday 8:00A-8:00P, Tuesday 8:00A-8:00P, Wednesday 8:00A-8:00P, Thursday 8:00A-8:00P, Friday 8:00A-8:00P, Saturday 9:00A-5:00P",,,
Super Stop & Shop,0630,44 Fenn Road,,Newington,CT,06111,United States,(860) 667-8380,,,"Sunday 7:00A-12:00A, Monday 6:00A-12:00A, Tuesday 6:00A-12:00A, Wednesday 6:00A-12:00A, Thursday 6:00A-12:00A, Friday 6:00A-12:00A, Saturday 6:00A-12:00A",,,
Super Stop & Shop,0683,180 Danbury Road,,New Milford,CT,06776,United States,(860) 355-3234,,,"Sunday 7:00A-9:00P, Monday 6:00A-10:00P, Tuesday 6:00A-10:00P, Wednesday 6:00A-10:00P, Thursday 6:00A-10:00P, Friday 6:00A-10:00P, Saturday 6:00A-10:00P",,,
Super Stop & Shop,0648,112 Amity Road,,New Haven,CT,06515,United States,(203) 389-8600,,,"Sunday 7:00A-10:00P, Monday 6:00A-11:00P, Tuesday 6:00A-11:00P, Wednesday 6:00A-11:00P, Thursday 6:00A-11:00P, Friday 6:00A-11:00P, Saturday 6:00A-11:00P",,,
Super Stop & Shop,2633,150 Whalley Avenue,,New Haven,CT,06515,United States,(203) 503-0105,,,"Sunday 7:00A-10:00P, Monday 6:00A-11:00P, Tuesday 6:00A-11:00P, Wednesday 6:00A-11:00P, Thursday 6:00A-11:00P, Friday 6:00A-11:00P, Saturday 6:00A-11:00P",,,
Super Stop & Shop,0645,1309 Corbin Avenue,,New Britain,CT,06053,United States,(860) 348-9856,,,"Sunday 7:00A-12:00A, Monday 6:00A-12:00A, Tuesday 6:00A-12:00A, Wednesday 6:00A-12:00A, Thursday 6:00A-12:00A, Friday 6:00A-12:00A, Saturday 6:00A-12:00A",,,
Stop & Shop,2612,25 State Route 39,,New Fairfield,CT,06812,United States,(203) 312-0482,,,"Sunday 7:00A-10:00P, Monday 7:00A-12:00A, Tuesday 7:00A-12:00A, Wednesday 7:00A-12:00A, Thursday 7:00A-12:00A, Friday 7:00A-12:00A, Saturday 7:00A-12:00A",,,
Super Stop & Shop,0678,2020 Norwich-New London Turnpk,,Montville,CT,06353,United States,(860) 848-6960,,,"Sunday 7:00A-10:00P, Monday 6:00A-12:00A, Tuesday 6:00A-12:00A, Wednesday 6:00A-12:00A, Thursday 6:00A-12:00A, Friday 6:00A-12:00A, Saturday 6:00A-12:00A",,,
Super Stop & Shop,0623,416 East Main Street,,Middletown,CT,06457,United States,(860) 346-0160,,,"Sunday 7:00A-10:00P, Monday 6:00A-12:00A, Tuesday 6:00A-12:00A, Wednesday 6:00A-12:00A, Thursday 6:00A-12:00A, Friday 6:00A-12:00A, Saturday 6:00A-12:00A",,,
Super Stop & Shop,0604,727 Rubber Avenue,,Naugatuck,CT,06770,United States,(203) 729-4182,,,"Sunday 7:00A-10:00P, Monday 6:00A-12:00A, Tuesday 6:00A-12:00A, Wednesday 6:00A-12:00A, Thursday 6:00A-12:00A, Friday 6:00A-12:00A, Saturday 6:00A-12:00A",,,
Super Stop & Shop,0680,77 Centennial Plaza,,Meriden,CT,06450,United States,(203) 238-1778,,,"Sunday 7:00A-10:00P, Monday 6:00A-11:00P, Tuesday 6:00A-11:00P, Wednesday 6:00A-11:00P, Thursday 6:00A-11:00P, Friday 6:00A-11:00P, Saturday 6:00A-11:00P",,,
Super Stop & Shop,0689,318 West Middle Turnpike,,Manchester,CT,06040,United States,(860) 645-8050,,,"Sunday 7:00A-12:00A, Monday 6:00A-12:00A, Tuesday 6:00A-12:00A, Wednesday 6:00A-12:00A, Thursday 6:00A-12:00A, Friday 6:00A-12:00A, Saturday 6:00A-12:00A",,,
Super Stop & Shop,0654,485 Broad Street,,Meriden,CT,06450,United States,(203) 238-1235,,,"Sunday 7:00A-12:00A, Monday 6:00A-12:00A, Tuesday 6:00A-12:00A, Wednesday 6:00A-12:00A, Thursday 6:00A-12:00A, Friday 6:00A-12:00A, Saturday 6:00A-12:00A",,,
Super Stop & Shop,0624,128 Samson Rock Road,,Madison,CT,06443,United States,(203) 245-7204,,,"Sunday 7:00A-9:00P, Monday 6:00A-12:00A, Tuesday 6:00A-12:00A, Wednesday 6:00A-12:00A, Thursday 6:00A-12:00A, Friday 6:00A-12:00A, Saturday 6:00A-12:00A",,,
Stop & Shop,0601,331 West Street,,Litchfield,CT,06759,United States,(860) 567-0075,,,"Sunday 7:00A-9:00P, Monday 7:00A-10:00P, Tuesday 7:00A-10:00P, Wednesday 7:00A-10:00P, Thursday 7:00A-10:00P, Friday 7:00A-10:00P, Saturday 7:00A-10:00P",,,
Super Stop & Shop,0634,150 New Park Avenue,,Hartford,CT,06106,United States,(860) 232-8777,,,"Sunday 7:00A-12:00A, Monday 6:00A-12:00A, Tuesday 6:00A-12:00A, Wednesday 6:00A-12:00A, Thursday 6:00A-12:00A, Friday 6:00A-12:00A, Saturday 6:00A-12:00A",,,
Super Stop & Shop,0600,2335 Dixwell Avenue,,Hamden,CT,06514,United States,(203) 248-9615,,,"Sunday 24 hours, Monday 24 hours, Tuesday 24 hours, Wednesday 24 hours, Thursday 24 hours, Friday 24 hours, Saturday 24 hours",,,
Super Stop & Shop,0682,220 Route 12,,Groton,CT,06340,United States,(860) 445-4440,,,"Sunday 7:00A-10:00P, Monday 6:00A-12:00A, Tuesday 6:00A-12:00A, Wednesday 6:00A-12:00A, Thursday 6:00A-12:00A, Friday 6:00A-12:00A, Saturday 6:00A-12:00A",,,
Stop & Shop,0612,11 Glen Ridge Road,,Greenwich,CT,06831,United States,(203) 531-0541,,,"Sunday 7:00A-9:00P, Monday 7:00A-9:00P, Tuesday 7:00A-9:00P, Wednesday 7:00A-9:00P, Thursday 7:00A-9:00P, Friday 7:00A-9:00P, Saturday 7:00A-9:00P",,,
Super Stop & Shop,0616,161 West Putnam Avenue,,Greenwich,CT,06831,United States,(203) 625-0622,,,"Sunday 7:00A-10:00P, Monday 7:00A-11:00P, Tuesday 7:00A-11:00P, Wednesday 7:00A-11:00P, Thursday 7:00A-11:00P, Friday 7:00A-11:00P, Saturday 7:00A-11:00P",,,
Super Stop & Shop,0611,120 Salmon Brook Street,,Granby,CT,06035,United States,(860) 844-8331,,,"Sunday 7:00A-11:00P, Monday 6:00A-11:00P, Tuesday 6:00A-11:00P, Wednesday 6:00A-11:00P, Thursday 6:00A-11:00P, Friday 6:00A-11:00P, Saturday 6:00A-11:00P",,,
Super Stop & Shop,0605,55 Oak Street,,Glastonbury,CT,06033,United States,(860) 652-8925,,,"Sunday 7:00A-10:00P, Monday 6:00A-11:00P, Tuesday 6:00A-11:00P, Wednesday 6:00A-11:00P, Thursday 6:00A-11:00P, Friday 6:00A-11:00P, Saturday 6:00A-11:00P",,,
Super Stop & Shop,0631,215 Glastonbury Boulevard,,Glastonbury,CT,06033,United States,(860) 659-4553,,,"Sunday 7:00A-10:00P, Monday 6:00A-11:00P, Tuesday 6:00A-11:00P, Wednesday 6:00A-11:00P, Thursday 6:00A-11:00P, Friday 6:00A-11:00P, Saturday 6:00A-11:00P",,,
Super Stop & Shop,0642,747 Pine Street,,Forrestville,CT,06010,United States,(860) 582-3154,,,"Sunday 7:00A-12:00A, Monday 6:00A-12:00A, Tuesday 6:00A-12:00A, Wednesday 6:00A-12:00A, Thursday 6:00A-12:00A, Friday 6:00A-12:00A, Saturday 6:00A-12:00A",,,
Super Stop & Shop,0673,760 Villa Avenue,,Fairfield,CT,06825,United States,(203) 333-8715,,,"Sunday 7:00A-12:00A, Monday 7:00A-12:00A, Tuesday 7:00A-12:00A, Wednesday 7:00A-12:00A, Thursday 7:00A-12:00A, Friday 7:00A-12:00A, Saturday 7:00A-12:00A",,,
Super Stop & Shop,0650,1160 Kings Highway Cut-off,,Fairfield,CT,06824,United States,(203) 254-8478,,,"Sunday 7:00A-12:00A, Monday 6:00A-12:00A, Tuesday 6:00A-12:00A, Wednesday 6:00A-12:00A, Thursday 6:00A-12:00A, Friday 6:00A-12:00A, Saturday 6:00A-12:00A",,,
Super Stop & Shop,2605,54 Hazard Avenue,,Enfield,CT,06082,United States,(860) 741-2200,,,"Sunday 7:00A-12:00A, Monday 6:00A-12:00A, Tuesday 6:00A-12:00A, Wednesday 6:00A-12:00A, Thursday 6:00A-12:00A, Friday 6:00A-12:00A, Saturday 6:00A-12:00A",,,
Super Stop & Shop,0692,370 Hemingway Avenue,Trolley Square,East Haven,CT,06512,United States,(203) 468-7012,,,"Sunday 7:00A-10:00P, Monday 6:00A-11:00P, Tuesday 6:00A-11:00P, Wednesday 6:00A-11:00P, Thursday 6:00A-11:00P, Friday 6:00A-11:00P, Saturday 6:00A-11:00P",,,
Super Stop & Shop,0693,940 Silver Lane,Charter Oak Mall,East Hartford,CT,06118,United States,(860) 569-7050,,,"Sunday 7:00A-10:00P, Monday 6:00A-11:00P, Tuesday 6:00A-11:00P, Wednesday 6:00A-11:00P, Thursday 6:00A-11:00P, Friday 6:00A-11:00P, Saturday 6:00A-11:00P",,,
Super Stop & Shop,0665,248 Flanders Road,,East Lyme,CT,06333,United States,(860) 691-2146,,,"Sunday 7:00A-10:00P, Monday 6:00A-12:00A, Tuesday 6:00A-12:00A, Wednesday 6:00A-12:00A, Thursday 6:00A-12:00A, Friday 6:00A-12:00A, Saturday 6:00A-12:00A",,,
Stop & Shop,2611,11 E. High Street,,East Hampton,CT,06424,United States,(860) 267-2039,,,"Sunday 7:00A-10:00P, Monday 6:00A-12:00A, Tuesday 6:00A-12:00A, Wednesday 6:00A-12:00A, Thursday 6:00A-12:00A, Friday 6:00A-12:00A, Saturday 6:00A-12:00A",,,
Stop & Shop,0697,1094 Killingly Commons Drive,,Dayville,CT,06241,United States,(860) 779-2070,,,"Sunday 7:00A-10:00P, Monday 6:00A-12:00A, Tuesday 6:00A-12:00A, Wednesday 6:00A-12:00A, Thursday 6:00A-12:00A, Friday 6:00A-12:00A, Saturday 6:00A-12:00A",,,
Stop & Shop,0626,148 Heights Road,,Darien,CT,06820,United States,(203) 655-8755,,,"Sunday 7:00A-9:00P, Monday 7:00A-10:00P, Tuesday 7:00A-10:00P, Wednesday 7:00A-10:00P, Thursday 7:00A-10:00P, Friday 7:00A-10:00P, Saturday 7:00A-10:00P",,,
Stop & Shop,2610,25 Old King's Highway N,,Darien,CT,06820,United States,(203) 662-1227,,,"Sunday 7:00A-10:00P, Monday 7:00A-10:00P, Tuesday 7:00A-10:00P, Wednesday 7:00A-10:00P, Thursday 7:00A-10:00P, Friday 7:00A-10:00P, Saturday 7:00A-10:00P",,,
Super Stop & Shop,0659,72 Newtown Road,Nutmeg Square,Danbury,CT,06810,United States,(203) 798-0555,,,"Sunday 7:00A-11:00P, Monday 6:00A-12:00A, Tuesday 6:00A-12:00A, Wednesday 6:00A-12:00A, Thursday 6:00A-12:00A, Friday 6:00A-12:00A, Saturday 6:00A-12:00A",,,
