store_name,store_number,address,address2,city,state,zip_code,country,phone_number,latitude,longitude,store_hours,store_type,other_fields,coming_soon
,,210 Second Avenue,,Gallipolis,OH,45631,United States,(740) 446-9764,,,,,,
,,1129 Jackson Pike,,Gallipolis,OH,45631,United States,(740) 446-4008,,,,,,
,,409 Front Street,,Oak Hill,OH,45656,United States,(740) 682-3151,,,,,,
,,70 N Plains Road,,The Plains,OH,45780,United States,(740) 797-4526,,,,,,
,,116 W. Second Street,,Wellston,OH,45692,United States,740-384-3946,,,,,,
,,1001 East Shawntel Smith Blvd.,,Muldrow,OK,74948,United States,(918) 427-3741,,,,,,
,,816 Main Street,,Chapmanville,WV,25508,United States,(304) 855-3000,,,,,,
,,6405 Sissonville Dr,,Charleston,WV,25360,United States,(304) 984-1712,,,,,,
,,5003 MacCorkle Ave. S.E.,,Charleston,WV,25304,United States,(304) 925-2153,,,,,,
,,1304 S Boston Rd,,Danville,VA,24540,United States,(434) 793-8355,,,,,,
,,338 SCHOOL STREET,,EMPORIA,VA,23847,United States,(434) 634-3345,,,,,,
,,4630 East Princess Anne Road,,Norfolk,VA,23502,United States,(757) 855-5995,,,,,,
,,101 Roosevelt Blvd,,Eleanor,WV,25070,United States,(304) 586-2582,,,,,,
,,8337 Court Ave,,Hamlin,WV,25523,United States,304.824.5606,,,,,,
,,PO Box 100 Rt. 60 Possum Creek,,Hico,WV,25854,United States,304.658.5872,,,,,,
,,18 Perry Morris Square,,Milton,WV,25541,United States,304.743.3991,,,,,,
,,305 3rd Street,,Point Pleasant,WV,25550,United States,(304) 675-5872,,,,,,
,,223 E. Main St.,,Adamsville,TN,38310,United States,(731) 632-0785,,,,,,
,,26257 Main Street,,Ardmore,TN,38449,United States,(913) 427-3100,,,,,,
,,8541 Hiwassee Street Northwest,,Charleston,TN,37310,United States,423.665.3307,,,,,,
,,3441 Fort Campbell Blvd,,Clarksville,TN,37042,United States,(931) 431-3656,,,,,,
,,314 Hwy 13 South,,Collinwood,TN,38450,United States,(931) 724-9112,,,,,,
,,1412 Trotwood Ave.,,Columbia,TN,38401,United States,(931) 540-8272,,,,,,
,,7838 Highway 25 East,,Cross Plains,TN,37049,United States,615.654.2588,,,,,,
,,17619 State Hwy 58 N,,Decatur,TN,37322,United States,(423) 334-3338,,,,,,
,,1536 Donelson Pkwy,,Dover,TN,37058,United States,(931) 232-7024,,,,,,
,,125 Five Points Dr.,,Ducktown,TN,37326,United States,(423) 496-7555,,,,,,
,,3611 West Main St,,Erin,TN,37061,United States,(931) 289-4444,,,,,,
,,740 N Tennessee Ave,,Etowah,TN,37331,United States,(423) 263-6465,,,,,,
,,2762-B Huntsville Hwy,,Fayetteville (Park City),TN,37334,United States,(931) 433-6772,,,,,,
,,Highway 108,,Gruetli-Laager,TN,37339,United States,(931) 779-3580,,,,,,
,,130 Mcmurry Boulevard,,Hartsville,TN,37074,United States,(615) 374-2556,,,,,,
,,539 W Main,,Henderson,TN,38340,United States,(731) 989-1010,,,,,,
,,1101 Scottsville Rd,,Lafayette,TN,37083,United States,(615) 666-4830,,,,,,
,,Circle Dr & Oak St,,Monteagle,TN,37356,United States,(931) 924-3135,,,,,,
,,2317 Dickerson,,Nashville,TN,37207,United States,(615) 228-6794,,,,,,
,,921 North 1st Street,,Nashville,TN,37207,United States,(615)262-4943,,,,,,
,,2900 West End Avenue,,Nashville,TN,37203,United States,615.327.4187,,,,,,
,,5127 Nolensville Road,,Nashville,TN,37211,United States,615.833.6256,,,,,,
,,1439 Robinson Road,,Old Hickory,TN,37138,United States,615.847.2347,,,,,,
,,3508 Main Street,,Pikeville,TN,37367,United States,(423) 447-3288,,,,,,
,,940 Wayne Rd,,Savannah,TN,38372,United States,(731) 925-3276,,,,,,
,,874 Union St.,,Shelbyville,TN,37160,United States,931-684-1363,,,,,,
,,141 E Clinton Ave,,Spring City,TN,37381,United States,(423) 365-5917,,,,,,
,,811 East Lincoln Street,,Tullahoma,TN,37388,United States,(931) 455-2491,,,,,,
,,321 Dexter Woods Memorial Blvd,,Waynesboro,TN,38485,United States,931.722.5175,,,,,,
,,834 West Main Street,,Woodbury,TN,37190,United States,615.563.4082,,,,,,
,,1339 E Memorial Dr,,Ahoskie,NC,27910,United States,(252) 332-6265,,,,,,
,,144-D Third Street,,Ayden,NC,28513,United States,(252) 746-4041,,,,,,
,,12536 Sandford St,,Bailey,NC,27807,United States,(252) 235-3261,,,,,,
,,1500 Live Oak St,,Beaufort,NC,28516,United States,(252) 728-7262,,,,,,
,,300 N Main St,,Broadway,NC,27505,United States,(919) 258-3531,,,,,,
,,103 S Dudley St,,Burgaw,NC,28425,United States,(910) 259-3373,,,,,,
,,509 S Parker St,,Elm City,NC,27822,United States,(252) 236-4646,,,,,,
,,872 Conway Rd,,Fair Bluff,NC,28439,United States,(910) 649-7273,,,,,,
,,206 Sw Center St,,Faison,NC,28341,United States,(910) 267-5251,,,,,,
,,3686 E Wilson St,,Farmville,NC,27893,United States,(252) 753-3445,,,,,,
,,44 S Ingold Ave.,,Garland,NC,28441,United States,(910) 529-4081,,,,,,
,,100 N Lionel St,,Goldsboro,NC,27530,United States,(919) 731-2709,,,,,,
,,Hwy 55 E,,Grantsboro,NC,28529,United States,(252) 745-3231,,,,,,
,,2105 Dickinson Ave,,Greenville,NC,27834,United States,(252) 756-3791,,,,,,
,,105 Hamlet Ave,,Hamlet,NC,28345,United States,(910) 582-2304,,,,,,
,,1040 Henderson Drive,,Jacksonville,NC,28540,United States,(910) 455-7656,,,,,,
,,2960 Richlands Hwy,,Jacksonville,NC,28540,United States,(910) 455-7800,,,,,,
,,607 W 2Nd St.,,Kenly,NC,27542,United States,(919) 284-4111,,,,,,
,,2240 Highway 258 N,,Kinston,NC,28504,United States,(252) 522-1953,,,,,,
,,202 S Maple,,Aberdeen,MS,39730,United States,(662) 369-8272,,,,,,
,,105 Hwy 6,,Amory,MS,38821,United States,(662) 628-5133,,,,,,
,,122 Hwy 51 N,,Batesville,MS,38606,United States,(662) 563-3121,,,,,,
,,Hwy 15 South,,Bay Springs,MS,39422,United States,(601) 764-2164,,,,,,
,,326 South Second Street,,Belmont,MS,38827,United States,(662) 454-7163,,,,,,
,,2407 D Heritage St (#78),,Kinston,NC,28501,United States,(252) 527-0469,,,,,,
,,2715 Hwy 11-55 W,,Kinston,NC,28501,United States,(252) 527-8753,,,,,,
,,407 E New Bern Rd,,Kinston,NC,28504,United States,(252) 527-0761,,,,,,
,,604 N Mclewean St,,Kinston,NC,28501,United States,(252) 523-2844,,,,,,
,,229 E Church St,,Laurinburg,NC,28352,United States,(910) 277-8165,,,,,,
,,112 A Village St,,Leland,NC,28451,United States,(910) 371-2253,,,,,,
,,234 Hwy 158 East,,Littleton,NC,27850,United States,(252) 586-3313,,,,,,
,,103 S Second St,,Booneville,MS,38829,United States,(662) 728-7138,,,,,,
,,1574 W. Government,,Brandon,MS,39042,United States,(601) 824-5054,,,,,,
,,215 Hwy 51 North,,Brookhaven,MS,39601,United States,(601) 833-4388,,,,,,
,,364 E. Monticello St.,,Brookhaven,MS,39601,United States,(601) 833-7075,,,,,,
,,223 W Calhoun St,,Bruce,MS,38915,United States,(662) 983-2527,,,,,,
,,19 S Fuller St,,Byhalia,MS,38611,United States,(662) 838-2865,,,,,,
,,595 East Veterans Avenue,,Calhoun City,MS,38916,United States,662.628.5133,,,,,,
,,110 E Academy St,,Canton,MS,39046,United States,(601) 859-2771,,,,,,
,,118 SOUTH US 64-264,,MANTEO,NC,27954,United States,(252) 473-3727,,,,,,
,,104 S Patterson St,,Maxton,NC,28364,United States,(910) 844-3671,,,,,,
,,707 Main St,,Maysville,NC,28555,United States,(910) 743-4124,,,,,,
,,615 N Breazeale Ave,,Mount Olive,NC,28365,United States,(919) 658-9628,,,,,,
,,1208 Simmons St,,New Bern,NC,28560,United States,(252) 638-6312,,,,,,
,,1415 Tatum Drive,,New Bern,NC,28560,United States,(252) 638-8474,,,,,,
,,1400 Front Street,,Oriental,NC,28571,United States,(252) 249-3100,,,,,,
,,406 E Third St,,Pembroke,NC,28372,United States,(910) 521-2760,,,,,,
,,205 South First St,,Pinetops,NC,27864,United States,(252) 827-4859,,,,,,
,,1150 E Peace St,,Canton,MS,39046,United States,(601) 859-5806,,,,,,
,,301 VanBuren St.,,Carthage,MS,39051,United States,(601) 267-6311,,,,,,
,,17284 Okahoma St.,,Coffeeville,MS,38922,United States,(662) 675-2626,,,,,,
,,9095 Collinsville Rd,,Collinsville,MS,39325,United States,(601) 626-8880,,,,,,
,,Hwy 13 N,,Columbia,MS,39429,United States,(601) 736-5191,,,,,,
,,3610 New Hope Rd,,Columbus,MS,39702,United States,(601) 327-9447,,,,,,
,,7831 Hwy 613,,Escatawpa,MS,39552,United States,(228) 475-8660,,,,,,
,,317 East Street,,Pittsboro,NC,27312,United States,(919) 545-0294,,,,,,
,,444 Hwy 64,,Plymouth,NC,27962,United States,(252) 793-9716,,,,,,
,,202 Dr Donnie H. Jones Jr.,,Princeton,NC,27569,United States,(919) 936-4551,,,,,,
,,210 E 4Th St,,Red Springs,NC,28377,United States,(910) 843-3145,,,,,,
,,Hwy 258,,Richlands,NC,28574,United States,(910) 324-3333,,,,,,
,,Riegelwood Shpg Cntr-Hwy 87 N,,Rieglewood,NC,28456,United States,(910) 655-4622,,,,,,
,,418 W Thomas St,,Rocky Mount,NC,27804,United States,(252) 442-5830,,,,,,
,,940 Raleigh Rd,,Rocky Mount,NC,27802,United States,(252) 446-9664,,,,,,
,,326 S Fifth St,,Saint Pauls,NC,28384,United States,(910) 865-4158,,,,,,
,,2412 S Horner Blvd,,Sanford,NC,27330,United States,(919) 774-8742,,,,,,
,,301 E Roane Ave,,Eupora,MS,39744,United States,(662) 369-8272,,,,,,
,,627 Battleground Dr,,Iuka,MS,38852,United States,(662) 423-3651,,,,,,
,,225 Meadowbrook Rd,,Jackson,MS,39206,United States,(601) 981-1632,,,,,,
,,321 North 16th Avenue,,Laurel,MS,39440,United States,(601) 425-3111,,,,,,
,,816 Main Street,,Leakesville,MS,39451,United States,(601) 394-2357,,,,,,
,,339 Simpson Hwy 149,,Magee,MS,39111,United States,(601) 849-2131,,,,,,
,,Hwy 15 South,,Mathiston,MS,39750,United States,(601) 764-2164,,,,,,
,,7195 Will Robbins Rd,,Nettleton,MS,38858,United States,(662) 651-4848,,,,,,
,,602 W Bankhead St,,New Albany,MS,38652,United States,(662) 534-5545,,,,,,
,,600 W Raleigh St,,Siler City,NC,27344,United States,(919) 742-9888,,,,,,
,,102 Moyton Ave,,Stantonsburg,NC,27883,United States,(252) 238-2359,,,,,,
,,715 W Corbett,,Swansboro,NC,28584,United States,(910) 326-8500,,,,,,
,,"Fairview Shp Ctr, 2030 N Main St",,Tarboro,NC,27886,United States,(252) 823-2466,,,,,,
,,3373 Hwy Us 1,,Vass,NC,28394,United States,(910) 245-4771,,,,,,
,,209 N Norwood St,,Wallace,NC,28466,United States,(910) 285-7504,,,,,,
,,107 S Pine St,,Warsaw,NC,28398,United States,(910) 293-7589,,,,,,
,,912 Washington St,,Williamston,NC,27892,United States,(252) 809-1355,,,,,,
,,1105 Ward Blvd,,Wilson,NC,27893,United States,(252) 237-8772,,,,,,
,,6459 Cockrum Street,,Olive Branch,MS,38654,United States,(662) 890-9033,,,,,,
,,100 Choctaw Town Center,,Philadelphia,MS,39350,United States,(601) 389-1938,,,,,,
,,740 Hwy 51 North,,Pickens,MS,39146,United States,(662) 468-2240,,,,,,
,,237 West Oxford,,Pontotoc,MS,38863,United States,(662) 489-4282,,,,,,
,,1002 Main St.,,Port Gibson,MS,39150,United States,(601) 437-4205,,,,,,
,,600 Hwy 8 E,,Rosedale,MS,38769,United States,(662) 759-6545,,,,,,
,,16851 Hwy 21 South,,Sebastopol,MS,39359,United States,(601) 625-8631,,,,,,
,,323 Erwin Road,,Stonewall,MS,39363,United States,(601) 659-4551,,,,,,
,,605 Laurel Ave,,Summit,MS,39666,United States,(601) 276-9571,,,,,,
,,221 Welcome Street,,Taylorsville,MS,39168,United States,(601) 785-4640,,,,,,
,,P O Box 336,,Tunica,MS,38676,United States,(662) 363-3170,,,,,,
,,5044 Plaza Drive,,Tylertown,MS,39667,United States,(601) 876-2624,,,,,,
,,206 Jackson Rd,,Union,MS,39365,United States,(601) 774-5591,,,,,,
,,4306 Halls Ferry Road,,Vicksburg,MS,39180,United States,(601) 636-2717,,,,,,
,,325 S Main,,Water Valley,MS,38965,United States,(662) 473-2751,,,,,,
,,530C West Central Avenue,,Wiggins,MS,39577,United States,(601) 928-4540,,,,,,
,,15 W. Ashland St,,Andrews,SC,29510,United States,(843) 264-5251,,,,,,
,,110 S Main Street,,Bishopville,SC,29010,United States,(803) 484-6315,,,,,,
,,50 E Dekalb St,,Camden,SC,29020,United States,(803) 432-7011,,,,,,
,,1303 West Main Street,,Chesterfield,SC,29709,United States,(843) 623-6590,,,,,,
,,3818 Devine Street,,Columbia,SC,29205,United States,(803) 256-3433,,,,,,
,,6325 N Main St,,Columbia,SC,29203,United States,(803) 786-1338,,,,,,
,,401 Pearl Street,,Darlington,SC,29532,United States,(843) 393-2872,,,,,,
,,18147 Heritage HWY,,Denmark,SC,29042,United States,(803) 793-3270,,,,,,
,,1945 West Palmetto St.,,Florence,SC,29501,United States,(843) 661-5323,,,,,,
,,221 Cherokee Road,,Florence,SC,29501,United States,(843) 662-5605,,,,,,
,,1620 High Market St,,Georgetown,SC,29440,United States,(843) 546-5445,,,,,,
,,1160 S Main St,,Greenwood,SC,29646,United States,(864) 229-1178,,,,,,
,,810 E Elm St,,Hampton,SC,29924,United States,(803) 943-2556,,,,,,
,,1270 Yeamans Hall Road,,Hanahan,SC,29410,United States,(843) 747-6373,,,,,,
,,7 Main St,,Hardeeville,SC,29927,United States,(843) 784-3201,,,,,,
,,842 S Fifth Street,,Hartsville,SC,29550,United States,(843) 332-8241,,,,,,
,,Coligny Plaza 1 North Forest Beach Dr.,,Hilton Head,SC,29928,United States,(843) 785-3881,,,,,,
,,8508 Old State Road,,Holly Hill,SC,29059,United States,(803) 496-3315,,,,,,
,,6251 Hwy 162,,Hollywood,SC,29449,United States,(843) 889-2267,,,,,,
,,365 S. Georgetown Hwy.,,Johnsonville,SC,29555,United States,(843) 386-9248,,,,,,
,,100 Railroad Avenue,,Lamar,SC,29069,United States,(843) 326-7117,,,,,,
,,1123 South Lake Drive,,Lexington,SC,29073,United States,(803) 996-1290,,,,,,
,,36 Sunset Drive,,Manning,SC,29102,United States,(803) 433-2118,,,,,,
,,1808 East Hwy 76,,Marion,SC,29571,United States,(843) 423-1106,,,,,,
,,100 W Main Street,,Moncks Corner,SC,29461,United States,(843) 761-8610,,,,,,
,,1700 Kings Highway,,Myrtle Beach,SC,29577,United States,(843) 448-4813,,,,,,
,,6611 Savannah Hwy,,Neeses,SC,29107,United States,(803) 247-2126,,,,,,
,,204 N Cambridge,,Ninety-Six,SC,29666,United States,(864) 543-2429,,,,,,
,,8780-A Rivers Avenue,,North Charleston,SC,29406,United States,(843) 764-3039,,,,,,
,,2526 Old Edisto Drive,,Orangeburg,SC,29115,United States,(803) 533-1329,,,,,,
,,2060 Columbia Road,,Orangeburg,SC,29115,United States,803-662-9263,,,,,,
,,1347 Ribaut Road,,Port Royal,SC,29935,United States,(843) 524-2750,,,,,,
,,10847 N. Jacob Smart Blvd.,,Ridgeland,SC,29936,United States,(843) 726-8626,,,,,,
,,5583 Memorial Blvd,,St. George,SC,29477,United States,(843) 563-4554,,,,,,
,,1605 Central Avenue,,Summerville,SC,29483,United States,(843) 873-8122,,,,,,
,,404 North Cedar Street,,Summerville,SC,29483,United States,(843) 875-4700,,,,,,
,,1011 Broad Street,,Sumter,SC,29150,United States,(803) 773-6011,,,,,,
,,114 E Calhoun Street,,Sumter,SC,29150,United States,(803) 775-4712,,,,,,
,,1455 S Guignard Parkway,,Sumter,SC,29150,United States,(803) 778-5752,,,,,,
,,122 Hwy 17 North,,Surfside Beach,SC,29575,United States,(843) 232-9814,,,,,,
,,123 Earl Street South,,Wagener,SC,29164,United States,(803) 564-7034,,,,,,
,,800 N. Greenwood Avenue,,Ware Shoals,SC,29692,United States,(864) 456-7489,,,,,,
,,26460 SC 121,,Whitmire,SC,29178,United States,(803) 694-3666,,,,,,
,,"509 Fairground Ave, Suite 3",,Higginsville,MO,64037,United States,(660) 584-3930,,,,,,
,,402 N Main St,,Franklin,KY,42134,United States,(270) 586-3401,,,,,,
,,130 N Main Street,,Hopkinsville,KY,42240,United States,(270) 886-8962,,,,,,
,,407 Bethel Shopping Center,,Russellville,KY,42276,United States,(270) 726-7455,,,,,,
,,102 E Main St,,Dewitt,AR,72042,United States,(870) 946-4591,,,,,,
,,358 Highway 65 South,,Dumas,AR,71639,United States,(870) 382-6339,,,,,,
,,1307 N Lincoln Ave,,Star City,AR,71667,United States,(870) 628-4443,,,,,,
,,4020 Woodland Ave,,Duluth,MN,55803,United States,(218) 724-4745,,,,,,
,,1313 Third Street,,International Falls,MN,56649,United States,(218) 283-8440,,,,,,
,,337 East Main Street,,Abbeville,GA,31010,United States,(229) 467-2194,,,,,,
,,714 W 4th Street,,Adel,GA,31620,United States,(229) 896-5055,,,,,,
,,215 E Monroe St,,Ashburn,GA,31714,United States,(229) 567-3731,,,,,,
,,484 North Avenue,,Athens,GA,30601,United States,706-548-4171,,,,,,
,,230 Cleveland Avenue,,Atlanta,GA,30315,United States,(404) 766-9575,,,,,,
,,1257 Moreland Ave,,Atlanta,GA,30316,United States,(404) 622-4854,,,,,,
,,3222 Highway 84 West,,Blackshear,GA,31516,United States,(912) 807-7444,,,,,,
,,113 North Main Street,,Blakley,GA,39823,United States,(229) 724-7678,,,,,,
,,136 Louvorn Ave,,Bowdon,GA,30108,United States,(770) 258-2207     (770) 258-2465,,,,,,
,,368 Carrollton Street,,Buchanan,GA,30113,United States,770.646.5176,,,,,,
,,53 South Broad Street,,Butler,GA,31006,United States,(478) 862-3341,,,,,,
,,1150 US Highway 84,,Cairo,GA,39827,United States,(229) 377-5277,,,,,,
,,1807 S Lumpkin Rd,,Columbus,GA,31903,United States,(706) 689-3553,,,,,,
,,3846 St Marys Rd,,Columbus,GA,31906,United States,(706) 687-9656,,,,,,
,,4916 River Rd,,Columbus,GA,31904,United States,(706) 327-3789,,,,,,
,,5850 Moon Rd,,Columbus,GA,31909,United States,(706) 561-8032,,,,,,
,,910 Brown Ave,,Columbus,GA,31906,United States,(706) 324-3428,,,,,,
,,1359 13th Street,,Columbus,GA,31901,United States,1.706.327.7549,,,,,,
,,2424 Woodruff Farm Road,,Columbus,GA,31907,United States,(762) 821-3877,,,,,,
,,1191 West Ave,,Conyers,GA,30012,United States,(770) 602-0522,,,,,,
,,Southside Plaza Hwy 27 S,,Cuthbert,GA,39840,United States,(229) 732-2461,,,,,,
,,5214 US Hwy 17,,Darien,GA,31305,United States,(912) 437-5900,,,,,,
,,433 Roundtree Drive,,Dawson,GA,39842,United States,229-995-2957,,,,,,
,,7110 A Hwy 441 N,,Dillard,GA,30537,United States,(706) 637-6483,,,,,,
,,140 East Broad Street,,Doerun,GA,31744,United States,(229) 782-5211,,,,,,
,,130 Avenue E,,Apalachicola,FL,32320,United States,(850) 653-8768,,,,,,
,,20118 Central Ave. W. Ste 1,,Blountstown,FL,32424,United States,(850) 674-4427,,,,,,
,,911 N. Waukesha St,,Bonifay,FL,32425,United States,(850) 547-3826,,,,,,
,,"11325 NW State, Road 20",,Bristol,FL,70582,United States,(850) 643-4700,,,,,,
,,30278 Hwy 21,,Angie,LA,70426,United States,(985) 986-2913,,,,,,
,,105 Chevy Lane,,Bunkie,LA,71322,United States,(318) 346-2033,,,,,,
,,2300 Cecilia Senior High School Hwy,,Cecilia,LA,70521,United States,(337) 667-6147,,,,,,
,,5308 Highway 56,,Chauvin,LA,70344,United States,(985) 594-3076,,,,,,
,,142 E Plaquemine,,Church Point,LA,70525,United States,(337) 684-3315,,,,,,
,,1000 South Tennille Ave,,Donalsonville,GA,39845,United States,(229) 524-1177,,,,,,
,,508 Bellevue Ave,,Dublin,GA,31021,United States,(478) 275-0231,,,,,,
,,3100 Washington Road,,East Point,GA,30324,United States,(404) 763-3835,,,,,,
,,215 5th Avenue,,Eastman,GA,31023,United States,478-374-2281,,,,,,
,,228 North Jefferson Street,,Eatonton,GA,31024,United States,(706) 485-4521,,,,,,
,,8524 Highway 280E,,Ellabell,GA,31308,United States,(912) 858-2975,,,,,,
,,65 east Oglethorpe Street,,Ellaville,GA,31806,United States,(229) 937-2860,,,,,,
,,4769 Jonesboro Road,,Forest Park,GA,30297,United States,(404) 361-3335,,,,,,
,,241 E Court Square,,Franklin,GA,30217,United States,(770) 258-2465,,,,,,
,,2988 Gillsville Highway,,Gainesville,GA,30507,United States,770-533-9298,,,,,,
,,1264 Church Avenue,,Chipley,FL,32428,United States,(850) 638-1751,,,,,,
,,1814 Highway 90 West,,DeFuniak Springs,FL,32435,United States,1.850.892.3022,,,,,,
,,18917 Highway 231,,Fountain,FL,32438,United States,850.722.0019,,,,,,
,,5355 Cotton Street,,Graceville,FL,32440,United States,(850) 263-6360,,,,,,
,,251 Mary Esther Blvd,,Mary Esther,FL,32569,United States,850-301-9100,,,,,,
,,9447 Highway 87 South,,Milton,FL,32583,United States,850.686.8861,,,,,,
,,18150 HWY 190 East,,Hammond,LA,70401,United States,(985) 345-7729,,,,,,
,,1728 Main St,,Haynesville,LA,71038,United States,(318) 624-0883,,,,,,
,,402 N Second St,,Homer,LA,71040,United States,(318) 927-2353,,,,,,
,,345 W Railroad Avenue,,Independence,LA,70443,United States,(985) 878-4306,,,,,,
,,1326 N Cutting Ave,,Jennings,LA,70546,United States,(337) 824-4442,,,,,,
,,608 E Veterans Memorial Dr,,Kaplan,LA,70548,United States,(337) 643-2455,,,,,,
,,2695 Jean Lafitte Blvd,,Lafitte,LA,70067,United States,(504) 689-4122,,,,,,
,,207 Covington St,,Madisonville,LA,70447,United States,(985) 845-7283,,,,,,
,,1705 Poinciana,,Mamou,LA,70554,United States,(337) 468-2100,,,,,,
,,123 Main St. / Box 7,,Gordon,GA,31031,United States,478-628-2117,,,,,,
,,567 S Talbotton St,,Greenville,GA,30222,United States,(706) 672-4851,,,,,,
,,32 South Tallahasse,,Hazlehurst,GA,31539,United States,(912) 375-5823,,,,,,
,,208 Hwy 29,,Hogansville,GA,30230,United States,(706) 637-6483,,,,,,
,,1010 E Third St,,Jackson,GA,30233,United States,(770) 775-4474,,,,,,
,,415 Lee Street,,Jefferson,GA,30549,United States,(706)367 - 5394,,,,,,
,,59 Magnolia Street,,Jeffersonville,GA,31044,United States,(478) 945-3119,,,,,,
,,1861 Roanoke Road,,Lagrange,GA,30240,United States,(706) 845-9102,,,,,,
,,511 S Greenwood St,,Lagrange,GA,30240,United States,(706) 812-0414,,,,,,
,,3142 Maple Road,,Lindale,GA,30147,United States,(706) 234-7714,,,,,,
,,575 South Jefferson Street,,Monticello,FL,32344,United States,(850) 997-4505,,,,,,
,,8012 Highway 2301,,Panama City,FL,32404,United States,(850) 913-9665,,,,,,
,,1350 15th Street,,Panama City,FL,32401,United States,1-850-818-0601,,,,,,
,,125 W Hwy 98,,Port St. Joe,FL,32456,United States,(850) 229-8398,,,,,,
,,18680 Bluestar HWY,,Quincy,FL,32351,United States,(850) 627-2222,,,,,,
,,8166 Highway 90,,Sneads,FL,32460,United States,(850) 593-6836,,,,,,
,,8410 Hwy 182 North,,Opelousas,LA,70570,United States,(337) 948-9427,,,,,,
,,302 E Mary Lee St,,Plain Dealing,LA,71064,United States,(318)326-5828,,,,,,
,,702 S Adams Ave,,Rayne,LA,70578,United States,(337) 334-4233,,,,,,
,,5525 Cameron St.,,Scott,LA,70583,United States,(337) 232-9877,,,,,,
,,16229 Hwy 1,,Simmesport,LA,71369,United States,(318) 941-2469,,,,,,
,,501 S Main St,,Springhill,LA,71075,United States,(318) 539-3216,,,,,,
,,2566 HWY 20,,Vacherie,LA,70090,United States,(225) 265-4891,,,,,,
,,909 Westbank Expressway,,Westwego,LA,70094,United States,(504) 347-7333,,,,,,
,,1425 Rocky Creek Road,,Macon,GA,31206,United States,478-788-3054,,,,,,
,,412 W Main St,,Manchester,GA,31816,United States,(706) 846-3040,,,,,,
,,48 E Oak St,,Mcrae,GA,31055,United States,(229) 868-2656,,,,,,
,,731 S Wayne St / Box 1048,,Milledgeville,GA,31061,United States,478-453-3474,,,,,,
,,Highway 301 North,,Nahunta,GA,31553,United States,(912) 462-6501,,,,,,
,,101 S Macon St,,Oglethorpe,GA,31068,United States,(478) 472-6406,,,,,,
,,506 Center Street,,Palmetto,GA,30268,United States,(770) 463-4648,,,,,,
,,303 W Railroad Ave.,,Pelham,GA,31779,United States,(912) 294-8656,,,,,,
,,100 Piggly Wiggly Way,,Richland,GA,31825,United States,(229) 887-3300,,,,,,
,,631 E Franklin St,,Sylvester,GA,31791,United States,(229) 776-5868,,,,,,
,,244 Franklin Boulevard,,St George Island,FL,32328,United States,(850) 927-2808,,,,,,
,,2526 South Monroe Ave,,Tallahassee,FL,32301,United States,850-536-6133,,,,,,
,,11204 N Florida Hwy 97,,Walnut Hill,FL,32568,United States,(850) 327-4001,,,,,,
,,2310 Us Hwy 78,,Tallapoosa,GA,30176,United States,770.574.7336,,,,,,
,,301 N Center St,,Thomaston,GA,30286,United States,(706) 647-8844,,,,,,
,,15759 US Highway 17,,Townsend,GA,31331,United States,(912) 832-5071,,,,,,
,,Us Hwy 42 South,,Unadilla,GA,31091,United States,(478) 627-3465,,,,,,
,,2111 Bemis Road,,Valdosta,GA,31602,United States,(229) 333-0525,,,,,,
,,207 N 3Rd St,,Vienna,GA,31092,United States,(229) 268-2911,,,,,,
,,441 Legion Drive,,Warrenton,GA,30828,United States,(706) 465-3037,,,,,,
,,214 W Trilby St,,Wrightsville,GA,31096,United States,(478) 864-3365,,,,,,
,,250 Alabama Hwy 75 N,,Albertville,AL,35950,United States,(256) 878-2075,,,,,,
,,61 Jefferson Street,,Alexander City,AL,35010,United States,256.234.3454,,,,,,
,,101 Memorial Parkway,,Aliceville,AL,35442,United States,205-373-6396,,,,,,
,,35771 US Hwy 231,,Ashville,AL,35953,United States,(205) 594-3670,,,,,,
,,"Dolive St, Highway 31, S",,Bay Minette,AL,36507,United States,(334) 937-7865,,,,,,
,,17884 Hwy 18 East,,Berry,AL,35546,United States,(205) 993-5827,,,,,,
,,1697 Tuscaloosa Ave Sw,,Birmingham,AL,35211,United States,(205) 925-6744,,,,,,
,,2500 29TH Avenue North,,Birmingham,AL,35207,United States,(205) 323-5453,,,,,,
,,3314 Clairmont Ave,,Birmingham,AL,35222,United States,(205) 252-0684,,,,,,
,,6501 1St Ave North,,Birmingham,AL,35206,United States,(205) 592-8303,,,,,,
,,10339 Alabama Hwy 168,,Boaz,AL,35957,United States,(256) 593-7312,,,,,,
,,Hwy 25 Brent Shopping Cntr,,Brent,AL,35034,United States,(205) 926-9720,,,,,,
,,553 North Main St.,,Brundidge,AL,36010,United States,(334) 735-3337,,,,,,
,,300 W Pushmataha,,Butler,AL,36904,United States,(205) 459-2797,,,,,,
,,16 Camden By-Pass,,Camden,AL,36726,United States,(334) 682-5330,,,,,,
,,3800 Hwy 9,,Cedar Bluff,AL,35959,United States,(256) 779-6284,,,,,,
,,3201 County Rd 200,,Central Heights,AL,35633,United States,(256) 764-2056,,,,,,
,,8075 Highway 72 West,,Cherokee,AL,35616,United States,(256) 359-6651,,,,,,
,,"1070 1St St, Nw",,Childersburg,AL,35044,United States,(256) 378-5795,,,,,,
,,6730 Deerfoot Parkway,,Clay,AL,35048,United States,(205) 681-3639,,,,,,
,,594 S Valley Rd,,Collinsville,AL,35961,United States,(256) 927-5661,,,,,,
,,119 East Church Street,,Columbia,AL,363219,United States,334.696.2070,,,,,,
,,211 W College St,,Columbiana,AL,35051,United States,(205) 669-9916,,,,,,
,,79 Mill Street,,Cordova,AL,35550,United States,(205) 483-9225,,,,,,
,,4933 Alabama Hwy 157,,Cullman,AL,35058,United States,(256) 734-2560,,,,,,
,,2221 US HWY 78,,Dora,AL,35062,United States,,,,,,,
,,1140 Montgomery Hwy,,Dothan,AL,36303,United States,(334) 673-3776,,,,,,
,,767 West Selma Street,,Dothan,AL,36301,United States,(334) 794-0500,,,,,,
,,201 Forrest Ave,,East Brewton,AL,36426,United States,251.867.3858,,,,,,
,,515 Kowaliga Rd,,Eclectic,AL,36024,United States,(334) 541-3695,,,,,,
,,25460 Highway 127,,Elkmont,AL,35620,United States,(256) 732-4116,,,,,,
,,1020 Geneva Highway,,Enterprise,AL,36330,United States,(334) 347-9254,,,,,,
,,120 Broad St,,Eufaula,AL,36027,United States,(334) 298-1974,,,,,,
,,1451 S. Eufaula Avenue,,Eufaula,AL,36027,United States,(334) 298-1974,,,,,,
,,131 Greenboro St,,Eutaw,AL,35462,United States,(205) 372-3462,,,,,,
,,90 Liberty Hill Place,,Evergreen,AL,36401,United States,(251) 578-1938,,,,,,
,,100 Plantation Pointe,,Fairhope,AL,36532,United States,(251) 928-0239,,,,,,
,,981 Second Street,,Florala,AL,36442,United States,(334) 858-3444,,,,,,
,,1200 South McKenzie Street,,Foley,AL,36535,United States,(251) 970-1480,,,,,,
,,1619 Forestdale Blvd,,Forestdale,AL,35214,United States,(205) 791-1833,,,,,,
,,1400 West Maple Avenue,,Geneva,AL,36340,United States,(334) 684-3224,,,,,,
,,116 Melvin Road,,Gilbertown,AL,36908,United States,(251) 843-5538,,,,,,
,,470 S Main St.,,Goodwater,AL,35072,United States,(256) 839-1322,,,,,,
,,841 Industrial Park Blvd,,Gordo,AL,35466,United States,(205) 373-6396,,,,,,
,,115 Main St,,Greensboro,AL,36744,United States,(334) 624-2001,,,,,,
,,205 Cedar Street,,Greenville,AL,36037,United States,(334) 382-3771,,,,,,
,,7270 Us Hwy 43,,Guin,AL,35563,United States,(205) 468-3374,,,,,,
,,1455 Sunset Dr,,Guntersville,AL,35976,United States,(256) 582-2865,,,,,,
,,6022 Hwy 72 East,,Gurley,AL,35748,United States,(205) 466-7972,,,,,,
,,1009 19Th St,,Haleyville,AL,35565,United States,(205) 689-4566,,,,,,
,,304 W Main Street,,Hartford,AL,36344,United States,(334) 588-2912,,,,,,
,,800 Ross St,,Heflin,AL,36264,United States,(256) 463-7769,,,,,,
,,3000 Montgomery Highway,,Homewood,AL,35209,United States,(205) 879-0884,,,,,,
,,770 Shades Mountain Plaza,,Hoover,AL,35226,United States,(205) 822-5361,,,,,,
,,104 River Square Plaza,,Hueytown,AL,35023,United States,(205) 230-0258,,,,,,
,,24716 Us Hwy 31 Cobb Plaza,,Jemison,AL,35085,United States,(205) 688-2477,,,,,,
,,337 9th Ave S.W,,Lafayette,AL,36862,United States,334.864.8997,,,,,,
,,620 Cherry Valley Shpg Ctr,,Lanett,AL,36863,United States,(334) 644-1110,,,,,,
,,105 Magnolia St S,,Lincoln,AL,35096,United States,(205) 763-7112,,,,,,
,,88985 Hwy 9,,Lineville,AL,36266,United States,(256) 396-2224,,,,,,
,,1087 North Hickory Street,,Loxley,AL,36527,United States,(251) 964-6272,,,,,,
,,4750 Eastern Valley Road,,McCalla,AL,35111,United States,(205) 230-0142,,,,,,
,,32 Phillips Dr,,Midfield,AL,35228,United States,(205) 923-1787,,,,,,
,,12205 Highway 96,,Millport,AL,35576,United States,(205) 662-4920,,,,,,
,,918 S.A. Ave,,Monroeville,AL,36460,United States,(251) 575-3136,,,,,,
,,15 West Fairview Ave,,Montgomery,AL,36105,United States,(334) 269-9236,,,,,,
,,3800 River Run Drive,,Mountain Brook,AL,35243,United States,(205) 776-8755,,,,,,
,,41 Church Street,,Mountain Brook,AL,35214,United States,(205) 802-9078,,,,,,
,,10199 Highway 431,,New Hope,AL,35760,United States,(256) 723-4142,,,,,,
,,2001 Lurleen Wallace Blvd Ste 2,,Northport,AL,35476,United States,(205) 339-7300,,,,,,
,,100 A Council Drive,,Odenville,AL,35120,United States,(205) 629.6390,,,,,,
,,1515 2nd Avenue Suite A,,Opelika,AL,36801,United States,334-742-1119,,,,,,
,,1130 Hwy 280 Bypass,,Phenix City,AL,36867,United States,(334) 291-7656,,,,,,
,,1837 Stadium Drive,,Phenix City,AL,36867,United States,(334) 297-7410,,,,,,
,,3745 Us Hwy 80 W,,Phenix City,AL,36867,United States,(334) 298-2182,,,,,,
,,512 13Th Street,,Phenix City,AL,36867,United States,(334) 291-0846,,,,,,
,,3265 Broad St,,Phil Campbell,AL,35565,United States,(205) 993-5827,,,,,,
,,518 Fourth Ave South,,Red Bay,AL,35582,United States,(256) 356-4406,,,,,,
,,1115 Main St,,Roanoke,AL,36274,United States,(334) 863-6712,,,,,,
,,101 County Park Rd,,Scottsboro,AL,35768,United States,(256) 574-4175,,,,,,
,,87354 Highway 278 East,,Snead,AL,35952,United States,(256) 732-4116,,,,,,
,,5635 Hwy 278,,Sulligent,AL,35586,United States,(205) 698-0509,,,,,,
,,1244 N Talladega Highway,,Sylacauga,AL,35150,United States,(205) 249-4836,,,,,,
,,1351 N. Fort Williams St.,,Sylacauga,AL,35150,United States,(256) 249-8989,,,,,,
,,308 E St North,,Talladega,AL,35160,United States,(205) 665-2712,,,,,,
,,320 W Battle St,,Talladega,AL,35160,United States,(256) 362-7949,,,,,,
,,1235 Highway 231,,Troy,AL,36081,United States,334-770-7444,,,,,,
,,710 North Three Notch Street,,Troy,AL,36081,United States,(334) 566-0127,,,,,,
,,1503 Culver Road,,Tuscaloosa,AL,35401,United States,205-345-1467,,,,,,
,,1721 Greensboro Avenue,,Tuscaloosa,AL,35401,United States,(205) 758-6832,,,,,,
,,2731 University Blvd,,Tuscaloosa,AL,35404,United States,(205) 556-7522,,,,,,
,,202 A South Elm,,Tuskegee,AL,36083,United States,(334) 724-0034,,,,,,
,,205 E Conecuh,,Union Springs,AL,36726,United States,(334) 738-3904,,,,,,
,,Hwy 61 & Water Street,,Uniontown,AL,36786,United States,(334) 628-6851,,,,,,
,,415 Caldwell Dr,,Warrior,AL,35180,United States,(205) 647-3241,,,,,,
,,9985 Holtville Road,,Wetumpka,AL,36092,United States,334-569-3085,,,,,,
,,6998 U.S. Highway 80,,White Hall,AL,36040,United States,334-418-8897,,,,,,
