store_name,store_number,address,address2,city,state,zip_code,country,phone_number,latitude,longitude,store_hours,other_fields,coming_soon
Cracker Barrel,930877145,1780 S Sunridge Dr.,I-8 & US 95/16th St.,Yuma,AZ,85365-2029,US,928-343-1988,32.6984876,-114.6030947,"Sunday - Thursday : 6:00 AM-11:00 PM, Friday - Saturday6:00 AM-11:00 PM",,
Cracker Barrel,930877374,5022 E Chandler Blvd.,I-10 & Chandler Blvd.,Phoenix,AZ,85048-0800,US,480-961-9443,33.3012068,-111.973344,"Sunday - Thursday : 6:00 AM-11:00 PM, Friday - Saturday6:00 AM-11:00 PM",,
Cracker Barrel,930877618,1007 N. Dobson Rd.,Loop 202 & Dobson Rd.,Mesa,AZ,85201-7574,US,480-668-4780,33.4149739,-111.8743868,"Sunday - Thursday : 6:00 AM-11:00 PM, Friday - Saturday6:00 AM-11:00 PM",,
Cracker Barrel,930877132,9312 W. Glendale Ave.,Loop 101 & Glendale Ave.,Glendale,AZ,85305-9400,US,623-772-1930,33.5373943,-112.2589957,"Sunday - Thursday : 6:00 AM-11:00 PM, Friday - Saturday6:00 AM-11:00 PM",,
Cracker Barrel,930877558,16845 N. 84th Ave.,Loop 101 & Bell Rd.,Peoria,AZ,85382-4716,US,623-875-1136,33.6380704,-112.2420107,"Sunday - Thursday : 6:00 AM-11:00 PM, Friday - Saturday6:00 AM-11:00 PM",,
Cracker Barrel,930877498,21611 N. 26th Ave.,I-17 & Deer Valley Rd.,Phoenix,AZ,85027-2496,US,623-582-6020,33.6822375510204,-112.115547959184,"Sunday - Thursday : 6:00 AM-11:00 PM, Friday - Saturday6:00 AM-11:00 PM",,
Cracker Barrel,930877341,1209 N Litchfield Rd.,I-10 & Litchfield Rd.,Goodyear,AZ,85395-1282,US,623-856-5161,33.4360752,-112.3582824,"Sunday - Thursday : 6:00 AM-11:00 PM, Friday - Saturday6:00 AM-11:00 PM",,
Cracker Barrel,930877140,606 S. Watson Rd.,I-10 & Watson Rd.,Buckeye,AZ,85326-3420,US,623-474-0008,33.4417675376884,-112.556508592965,"Sunday - Thursday : 6:00 AM-11:00 PM, Friday - Saturday6:00 AM-11:00 PM",,
Cracker Barrel,930877394,2281 E Florence Blvd.,I-10 & Florence Blvd.,Casa Grande,AZ,85122-9179,US,520-421-2101,32.8795523,-111.7521932,"Sunday - Thursday : 6:00 AM-11:00 PM, Friday - Saturday6:00 AM-11:00 PM",,
Cracker Barrel,945630682,5707 E State Route 69,SR 69 & Sundog Ranch Rd.,Prescott Valley,AZ,86314-2801,US,928-772-0447,34.5771968,-112.3670258,"Sunday - Thursday : 6:00 AM-11:00 PM, Friday - Saturday6:00 AM-11:00 PM",,
Cracker Barrel,930877421,8400 N Cracker Barrel Rd,I-10 & Cortaro Road,Tucson,AZ,85743-8581,US,520-579-1845,32.35905,-111.09259,"Sunday - Thursday : 6:00 AM-11:00 PM, Friday - Saturday6:00 AM-11:00 PM",,
Cracker Barrel,930877395,2560 E. Lucky Lane,I-40 & Butler Ave.,Flagstaff,AZ,86004-8505,US,928-773-1524,35.1953659710937,-111.617874569641,"Sunday - Thursday : 6:00 AM-11:00 PM, Friday - Saturday6:00 AM-11:00 PM",,
Cracker Barrel,930877243,3520 Stockton Hill Rd.,I-40 & Stockton Hill Rd.,Kingman,AZ,86409-3005,US,928-757-9000,35.2118311,-114.0349955,"Sunday - Thursday : 6:00 AM-11:00 PM, Friday - Saturday6:00 AM-11:00 PM",,
Cracker Barrel,1346967368,3327 SE Military Dr.,1-37 & SE Militiary Dr.,San Antonio,TX,78223,US,210-333-0167,29.3518173239584,-98.4334157739551,"Sunday - Thursday : 6:00 AM-11:00 PM, Friday - Saturday6:00 AM-11:00 PM",,
Cracker Barrel,1501187050,98 NE Hwy.410,"I-410 & U.S. 281, Exit 20-E, 21-W",San Antonio,TX,78216,US,210-525-8110,29.5203048,-98.4884712,"Sunday - Thursday : 6:00 AM-11:00 PM, Friday - Saturday6:00 AM-11:00 PM",,
Cracker Barrel,930877491,6330 N Interstate 35,I-35/410 & Rittiman Road,San Antonio,TX,78218-4403,US,210-599-8080,29.4865827731012,-98.4021985057307,"Sunday - Thursday : 6:00 AM-11:00 PM, Friday - Saturday6:00 AM-11:00 PM",,
Cracker Barrel,930877596,123 SW Loop 410,I-410 & Hwy 151,San Antonio,TX,78245-2167,US,210-521-8940,29.436743,-98.6451974,"Sunday - Thursday : 6:00 AM-11:00 PM, Friday - Saturday6:00 AM-11:00 PM",,
Cracker Barrel,930877474,11030 I H 10 W,I-10 & Huebner Road,San Antonio,TX,78230-1045,US,210-690-3808,29.5454197120639,-98.5806863796696,"Sunday - Thursday : 6:00 AM-11:00 PM, Friday - Saturday6:00 AM-11:00 PM",,
Cracker Barrel,930877651,4321 IH 35 S,I-35 & Center Point Road,San Marcos,TX,78666-9376,US,512-353-4122,29.83628,-97.97661,"Sunday - Thursday : 6:00 AM-11:00 PM, Friday - Saturday6:00 AM-11:00 PM",,
Cracker Barrel,930877472,2110 Sidney Baker,I-10 & SR 16,Kerrville,TX,78028-2535,US,830-896-7808,30.0675591688483,-99.115183862827,"Sunday - Thursday : 6:00 AM-11:00 PM, Friday - Saturday6:00 AM-11:00 PM",,
Cracker Barrel,930877605,550 COUNTY ROAD 117,I-35 & Loop 4,BUDA,TX,78610-5007,US,512-295-2765,30.0851551282051,-97.821948974359,"Sunday - Thursday : 6:00 AM-11:00 PM, Friday - Saturday6:00 AM-11:00 PM",,
Cracker Barrel,930877422,2350 IH 35 N,I-35 & FM 3406,Round Rock,TX,78681-2012,US,512-218-0822,30.5346286,-97.6927712,"Sunday - Thursday : 6:00 AM-11:00 PM, Friday - Saturday6:00 AM-11:00 PM",,
Cracker Barrel,948228424,201 E Central TX Expy,US Hwy 190 & FM 2410,Harker Heights,TX,76548-1887,US,254-953-8290,31.07155,-97.67026,"Sunday - Thursday : 6:00 AM-11:00 PM, Friday - Saturday6:00 AM-11:00 PM",,
Cracker Barrel,970120486,3687 S General Bruce Dr,"I-35 & SR 363-53, Exit 299",Temple,TX,76504-6332,US,254-774-7457,31.0906066666667,-97.3857433333333,"Sunday - Thursday : 6:00 AM-11:00 PM, Friday - Saturday6:00 AM-11:00 PM",,
Cracker Barrel,930877466,4229 South Padre Island Drive,S. Padre Island Dr & Weber Rd,Corpus Christi,TX,78411-4405,US,361-855-1778,27.7192343652082,-97.3942875277402,"Sunday - Thursday : 6:00 AM-11:00 PM, Friday - Saturday6:00 AM-11:00 PM",,
Cracker Barrel,1043084168,3110 Briarcrest Dr,Hwy. 6 & Briarcrest Dr/FM 1179,Bryan,TX,77802,US,979-731-8889,30.6644694771238,-96.3261745751638,"Sunday - Thursday : 6:00 AM-11:00 PM, Friday - Saturday6:00 AM-11:00 PM",,
Cracker Barrel,995391109,23801 SW FWY,HWY. 59 & FM 762,Rosenberg,TX,77471-5969,US,281-239-8858,29.5446507,-95.7542162,"Sunday - Thursday : 6:00 AM-11:00 PM, Friday - Saturday6:00 AM-11:00 PM",,
Cracker Barrel,930877475,18151 Katy Freeway,I-10 & Barker-Cypress Road,Houston,TX,77094-1208,US,281-492-1585,29.7843752941176,-95.6920435294118,"Sunday - Thursday : 6:00 AM-11:00 PM, Friday - Saturday6:00 AM-11:00 PM",,
Cracker Barrel,-882326615,US 290 & Mueschke Road,27040 NW Freeway,Cypress,TX,77429,US,281-256-7497,29.9795833,-95.7155241,"Sunday - Thursday : 6:00 AM-11:00 PM, Friday - Saturday6:00 AM-11:00 PM",,
Cracker Barrel,930877452,4275 North I-35,I-35 & SR 340,Lacy Lakeview,TX,76705-7021,US,254-799-4729,31.60284,-97.1078,"Sunday - Thursday : 6:00 AM-11:00 PM, Friday - Saturday6:00 AM-11:00 PM",,
Cracker Barrel,930877261,14765 N. Freeway,I-45 & Airtex,Houston,TX,77090-6503,US,281-872-0809,29.93489,-95.36619,"Sunday - Thursday : 6:00 AM-11:00 PM, Friday - Saturday6:00 AM-11:00 PM",,
Cracker Barrel,990711789,11019 Shadow Creek Pkwy,Hwy. 288 & McArd Road,Pearland,TX,77584-7401,US,713-340-2701,29.58018,-95.3902006198145,"Sunday - Thursday : 6:00 AM-11:00 PM, Friday - Saturday6:00 AM-11:00 PM",,
Cracker Barrel,1137628338,24400 Eastex Freeway,US Hwy 59 & North Park,Kingwood,TX,77339,US,281-358-0166,30.0662687625418,-95.2475441471572,"Sunday - Thursday : 6:00 AM-11:00 PM, Friday - Saturday6:00 AM-11:00 PM",,
Cracker Barrel,930877476,5173 Interstate 10 E,I-10 & Garth Road,Baytown,TX,77521-8368,US,281-421-5091,29.805208,-94.980494,"Sunday - Thursday : 6:00 AM-11:00 PM, Friday - Saturday6:00 AM-11:00 PM",,
Cracker Barrel,930877202,231 Gulf Freeway South,I-45S & CR 518,League City,TX,77573-3523,US,281-332-1174,29.50122,-95.1134,"Sunday - Thursday : 6:00 AM-11:00 PM, Friday - Saturday6:00 AM-11:00 PM",,
Cracker Barrel,930877291,1301 League Line Road,I-45 & League Line Road,Conroe,TX,77304-3424,US,936-856-2052,30.3671,-95.48621,"Sunday - Thursday : 6:00 AM-11:00 PM, Friday - Saturday6:00 AM-11:00 PM",,
Cracker Barrel,930877477,5390 Walden Rd,I-10 & Walden Road,Beaumont,TX,77705-4209,US,409-842-5420,30.0373349595329,-94.1548278528912,"Sunday - Thursday : 6:00 AM-11:00 PM, Friday - Saturday6:00 AM-11:00 PM",,
Cracker Barrel,-882462252,"US 59 & Whitehouse Dr, Exit 391",2302 S. First St.,Lufkin,TX,75904,US,936-699-5020,31.2976438612299,-94.7284621678945,"Sunday - Thursday : 6:00 AM-11:00 PM, Friday - Saturday6:00 AM-11:00 PM",,
Cracker Barrel,930877203,1100 Pintail Rd,I-10 & SR 108,Sulphur,LA,70665-6403,US,337-626-9500,30.21284,-93.32596,"Sunday - Thursday : 6:00 AM-11:00 PM, Friday - Saturday6:00 AM-11:00 PM",,
Cracker Barrel,930877473,13821 US Hwy 69 North,,Tyler,TX,75706-4641,US,903-882-1322,32.4665952,-95.3875052,"Sunday - Thursday : 6:00 AM-11:00 PM, Friday - Saturday6:00 AM-11:00 PM",,
Cracker Barrel,-1746094443,822 S. Access Rd,I 20 & S.R. 149,Longview,TX,75602,US,903-553-1314,32.4480229950282,-94.7131780198873,"Sunday - Thursday : 6:00 AM-11:00 PM, Friday - Saturday6:00 AM-11:00 PM",,
Cracker Barrel,930877213,172 Howard Blvd.,I-80 & Howard Blvd,Mount Arlington,NJ,07856-1308,US,973-398-8404,40.9035051780898,-74.6357061859149,"Sunday - Thursday : 6:00 AM-11:00 PM, Friday - Saturday6:00 AM-11:00 PM",,
Cracker Barrel,930877185,14 Frontage Road,I-78 & CR 513,Clinton,NJ,08809-1270,US,908-713-9205,40.6297776596521,-74.9191782510912,"Sunday - Thursday : 6:00 AM-11:00 PM, Friday - Saturday6:00 AM-11:00 PM",,
Cracker Barrel,930877631,825 Market Place Blvd.,I-195 & US 130 (Exit 7A off NJ Turnpike),Hamilton Township,NJ,08691-2118,US,609-581-5462,40.1977353487884,-74.6370864341411,"Sunday - Thursday : 6:00 AM-11:00 PM, Friday - Saturday6:00 AM-11:00 PM",,
Cracker Barrel,930877177,4 Merritt Blvd.,I-84 & US 9,Fishkill,NY,12524-2943,US,845-896-4194,41.53023,-73.89192,"Sunday - Thursday : 6:00 AM-11:00 PM, Friday - Saturday6:00 AM-11:00 PM",,
Cracker Barrel,930877228,30 Research Dr.,I-95 & Woodmont Rd.,Milford,CT,06460-8523,US,203-877-7595,41.2365467,-73.019396,"Sunday - Thursday : 6:00 AM-11:00 PM, Friday - Saturday6:00 AM-11:00 PM",,
Cracker Barrel,930877157,110 Hancock Lane,N.J. Turnpike & CR 541,Mount Holly,NJ,08060-4408,US,609-265-9133,40.0281465539457,-74.8155038204048,"Sunday - Thursday : 6:00 AM-11:00 PM, Friday - Saturday6:00 AM-11:00 PM",,
Cracker Barrel,930877608,3611 Horizon Blvd,I-276 & Route 1 @ Rock Hill Road,Trevose,PA,19053-4913,US,215-322-0809,40.1373273366834,-74.9639968844221,"Sunday - Thursday : 6:00 AM-11:00 PM, Friday - Saturday6:00 AM-11:00 PM",,
Cracker Barrel,930877536,1240 Route 73,State Route 73 at Atrium Road,Mount Laurel,NJ,08054-2214,US,856-778-8900,39.920806,-74.947031,"Sunday - Thursday : 6:00 AM-11:00 PM, Friday - Saturday6:00 AM-11:00 PM",,
Cracker Barrel,930877449,2095 Gallagher Road,"I-476 & Chemical Rd, Exit 18B-E, 18-W",Plymouth Meeting,PA,19462-1704,US,610-828-2221,40.100472244898,-75.294047755102,"Sunday - Thursday : 6:00 AM-11:00 PM, Friday - Saturday6:00 AM-11:00 PM",,
Cracker Barrel,930877510,7720 Main Street Suite 19,I-78 & SR 100,Fogelsville,PA,18051-1630,US,610-481-0055,40.584280537709,-75.6277800149667,"Sunday - Thursday : 6:00 AM-11:00 PM, Friday - Saturday6:00 AM-11:00 PM",,
Cracker Barrel,945128899,1215 E. Lancaster Avenue,US 30 & Business Rte. 30,Downingtown,PA,19335-3357,US,610-873-9059,40.0204653858788,-75.6690119170758,"Sunday - Thursday : 6:00 AM-11:00 PM, Friday - Saturday6:00 AM-11:00 PM",,
Cracker Barrel,930877112,2320 Wilkes Barre Township Mar,,Wilkes Barre,PA,18702-6060,US,570-822-7913,41.2361602684564,-75.8589970469799,"Sunday - Thursday : 6:00 AM-11:00 PM, Friday - Saturday6:00 AM-11:00 PM",,
Cracker Barrel,930877502,21 Industrial Drive,I-78 & SR 61,Hamburg,PA,19526-8768,US,610-562-3622,40.5597288793597,-75.9972373001109,"Sunday - Thursday : 6:00 AM-11:00 PM, Friday - Saturday6:00 AM-11:00 PM",,
Cracker Barrel,930877144,427 North Broadway,N.J. Turnpike & SR 49,Pennsville,NJ,08070-1002,US,856-299-1771,39.6775809892284,-75.4944508918573,"Sunday - Thursday : 6:00 AM-11:00 PM, Friday - Saturday6:00 AM-11:00 PM",,
Cracker Barrel,930877232,145 Prospect Hill Rd.,I-91 & SR 140,East Windsor,CT,06088-3610,US,860-623-8824,41.9305969,-72.6052654,"Sunday - Thursday : 6:00 AM-11:00 PM, Friday - Saturday6:00 AM-11:00 PM",,
Cracker Barrel,930877334,956 Schuylkill Mall,I-81 & SR 61,Frackville,PA,17931-2521,US,570-874-7051,40.771180060241,-76.2372319879518,"Sunday - Thursday : 6:00 AM-11:00 PM, Friday - Saturday6:00 AM-11:00 PM",,
Cracker Barrel,930877318,300 Belle Hill Road,I-95 & MD 279,Elkton,MD,21921-5110,US,410-620-4500,39.63673,-75.80526,"Sunday - Thursday : 6:00 AM-11:00 PM, Friday - Saturday6:00 AM-11:00 PM",,
Cracker Barrel,930877184,227 Whiting Farms Rd.,I-91 & Whiting Farms Rd,Holyoke,MA,01040-2839,US,413-493-1831,42.1768757097447,-72.6403635448054,"Sunday - Thursday : 6:00 AM-11:00 PM, Friday - Saturday6:00 AM-11:00 PM",,
Cracker Barrel,930877559,35 S. Willowdale Dr Suite 1822,US 30 & SR 896,Lancaster,PA,17602-1472,US,717-290-8100,40.0221479843421,-76.1974559368914,"Sunday - Thursday : 6:00 AM-11:00 PM, Friday - Saturday6:00 AM-11:00 PM",,
Cracker Barrel,930877415,228 Mall Blvd,I-80 & SR 42,Bloomsburg,PA,17815-8389,US,570-389-9800,41.01727,-76.49085,"Sunday - Thursday : 6:00 AM-11:00 PM, Friday - Saturday6:00 AM-11:00 PM",,
Cracker Barrel,930877168,122 Troy Road,I-90 & SR 4,East Greenbush,NY,12061-1025,US,518-479-3646,42.62509,-73.70073,"Sunday - Thursday : 6:00 AM-11:00 PM, Friday - Saturday6:00 AM-11:00 PM",,
Cracker Barrel,930877154,876 Front St.,I-81 & US 11,Binghamton,NY,13905-1542,US,607-722-5006,42.1319,-75.90577,"Sunday - Thursday : 6:00 AM-11:00 PM, Friday - Saturday6:00 AM-11:00 PM",,
Cracker Barrel,930877507,215 Charlton Rd,I-84 & Route 20,Sturbridge,MA,01566-1216,US,508-347-8925,42.1172991246581,-72.0645610891201,"Sunday - Thursday : 6:00 AM-11:00 PM, Friday - Saturday6:00 AM-11:00 PM",,
Cracker Barrel,930877160,825 Centre of New England Blvd,I-95 & New London Turnpike,Coventry,RI,02816-6069,US,401-827-8015,41.6615335652266,-71.5487533026203,"Sunday - Thursday : 6:00 AM-11:00 PM, Friday - Saturday6:00 AM-11:00 PM",,
Cracker Barrel,930877280,1440 Handlir Drive,I-95 & SR 543,Bel Air,MD,21015-6600,US,410-272-4778,39.4816254488018,-76.2530906501712,"Sunday - Thursday : 6:00 AM-11:00 PM, Friday - Saturday6:00 AM-11:00 PM",,
Cracker Barrel,930877166,4 Tower Way,I-87 & SR 146,Clifton Park,NY,12065-4167,US,518-373-8156,42.8616682608696,-73.7688739130435,"Sunday - Thursday : 6:00 AM-11:00 PM, Friday - Saturday6:00 AM-11:00 PM",,
Cracker Barrel,930877537,19550 Coastal Hwy.,,Rehoboth Beach,DE,19971-6120,US,302-226-8993,38.7192746,-75.1176241,"Sunday - Thursday : 6:00 AM-11:00 PM, Friday - Saturday6:00 AM-11:00 PM",,
Cracker Barrel,930877492,236 Pauline Drive,I-83 & SR 74 (Queen Street),York,PA,17402-4625,US,717-741-0938,39.9347938477857,-76.6832267409176,"Sunday - Thursday : 6:00 AM-11:00 PM, Friday - Saturday6:00 AM-11:00 PM",,
Cracker Barrel,1365150409,260 S Lycoming Mall Rd,I-180 & Lycoming Mall Road,Muncy,PA,17756,US,570-546-2233,41.242216809711,-76.8328665741423,"Sunday - Thursday : 6:00 AM-11:00 PM, Friday - Saturday6:00 AM-11:00 PM",,
Cracker Barrel,930877268,2525 Brindle Drive,I-81 & Progress Avenue,Harrisburg,PA,17110-9704,US,717-541-8330,40.3026188493422,-76.8466601278509,"Sunday - Thursday : 6:00 AM-11:00 PM, Friday - Saturday6:00 AM-11:00 PM",,
Cracker Barrel,930877588,13600 Wolfe Rd,I-83 & SR 851,New Freedom,PA,17349-9351,US,717-235-4040,39.77297,-76.66374,"Sunday - Thursday : 6:00 AM-11:00 PM, Friday - Saturday6:00 AM-11:00 PM",,
Cracker Barrel,930877588,13600 Wolfe Rd,I-83 & SR 851,New Freedom,PA,17349-9351,US,717-235-4040,39.77297,-76.66374,"Sunday - Thursday : 6:00 AM-11:00 PM, Friday - Saturday6:00 AM-11:00 PM",,
Cracker Barrel,930877586,395 Cumberland Pkwy,I-76 & US 15,Mechanicsburg,PA,17055-5673,US,717-766-5113,40.1929244897959,-76.9789336734694,"Sunday - Thursday : 6:00 AM-11:00 PM, Friday - Saturday6:00 AM-11:00 PM",,
Cracker Barrel,930877114,1048 South Street Suite 40,I-495 & SR 1A,Wrentham,MA,02093-2112,US,508-384-0477,42.039635862069,-71.345234137931,"Sunday - Thursday : 6:00 AM-11:00 PM, Friday - Saturday6:00 AM-11:00 PM",,
Cracker Barrel,930877234,3 E. Garland Drive,I-81 & SR 34 (Hanover),Carlisle,PA,17013-4453,US,717-241-2161,40.1862947087768,-77.1906191109535,"Sunday - Thursday : 6:00 AM-11:00 PM, Friday - Saturday6:00 AM-11:00 PM",,
Cracker Barrel,951707771,115 Blue Jay Ct,Route 50 & Thompson Creek Rd,Stevensville,MD,21666-2667,US,410-643-3841,38.9755028571429,-76.3094957142857,"Sunday - Thursday : 6:00 AM-11:00 PM, Friday - Saturday6:00 AM-11:00 PM",,
Cracker Barrel,-2071378246,1520 W. Nursery Rd,Balt-Wash Pkwy. & W. Nursery Rd,Linthicum Heights,MD,21090,US,410-859-8724,39.2085909110218,-76.6794157266934,"Sunday - Thursday : 6:00 AM-11:00 PM, Friday - Saturday6:00 AM-11:00 PM",,
Cracker Barrel,1428464111,1740 County Route 64,I-86 & County Route 64,Horseheads,NY,14845,US,607-796-5950,42.16043088842,-76.8528662473626,"Sunday - Thursday : 6:00 AM-11:00 PM, Friday - Saturday6:00 AM-11:00 PM",,
Cracker Barrel,930877504,7408 Shockley Drive,I-270 & State Route 85,Frederick,MD,21704-8362,US,301-682-4405,39.3756902779301,-77.4095866397875,"Sunday - Thursday : 6:00 AM-11:00 PM, Friday - Saturday6:00 AM-11:00 PM",,
Cracker Barrel,930877183,1162 Wayne Ave,I-81 & Wayne Road,Chambersburg,PA,17202-2926,US,717-264-3311,39.90719,-77.64725,"Sunday - Thursday : 6:00 AM-11:00 PM, Friday - Saturday6:00 AM-11:00 PM",,
Cracker Barrel,930877639,1795 Andover St.,I-495 & SR 133,Tewksbury,MA,01876-1129,US,978-858-3717,42.6427786842105,-71.2363923684211,"Sunday - Thursday : 6:00 AM-11:00 PM, Friday - Saturday6:00 AM-11:00 PM",,
Cracker Barrel,930877183,1162 Wayne Ave,I-81 & Wayne Road,Chambersburg,PA,17202-2926,US,717-264-3311,39.90719,-77.64725,"Sunday - Thursday : 6:00 AM-11:00 PM, Friday - Saturday6:00 AM-11:00 PM",,
Cracker Barrel,1244139316,3742 Crain Hwy.,Hwy 301 & Smallwood Drive,Waldorf,MD,20602,US,301-638-2570,38.6101362465975,-76.926916169366,"Sunday - Thursday : 6:00 AM-11:00 PM, Friday - Saturday6:00 AM-11:00 PM",,
Cracker Barrel,1648824237,45315 Abell Houselane,,California,MD,20619,US,301-866-1633,38.2996885714286,-76.5096,"Sunday - Thursday : 6:00 AM-11:00 PM, Friday - Saturday6:00 AM-11:00 PM",,
Sterling,-1184275469,23030 Indian Creek Drive,,Sterling,VA,20166-,US,703-464-0044,38.9817465892947,-77.4331064223111,"Sunday - Thursday : 6:00 AM-11:00 PM, Friday - Saturday6:00 AM-11:00 PM",,
Cracker Barrel,930877210,18214 Col. Henry K. Douglas Dr,I-70 & SR 65,Hagerstown,MD,21740-1562,US,240-420-0955,39.6035491518912,-77.7339893332434,"Sunday - Thursday : 6:00 AM-11:00 PM, Friday - Saturday6:00 AM-11:00 PM",,
Cracker Barrel,930877509,10801 Battleview Parkway,I-66 & State Route 234,Manassas,VA,20109-2349,US,703-369-4641,38.8053662357068,-77.5197394663883,"Sunday - Thursday : 6:00 AM-11:00 PM, Friday - Saturday6:00 AM-11:00 PM",,
Cracker Barrel,930877367,17115 Dumfries Rd,I-95 & SR 234,Dumfries,VA,22025-1930,US,703-441-2764,38.5815879642702,-77.3254316804038,"Sunday - Thursday : 6:00 AM-11:00 PM, Friday - Saturday6:00 AM-11:00 PM",,
Cracker Barrel,930877148,7750 Corinne Drive,I-80/94 & Kennedy Avenue,Hammond,IN,46323-3128,US,219-844-1259,41.5723752881471,-87.462623475896,"Sunday - Thursday : 6:00 AM-11:00 PM, Friday - Saturday6:00 AM-11:00 PM",,
Cracker Barrel,930877361,18531 North Creek Drive,I-80 & SR 43,Tinley Park,IL,60477-6253,US,708-614-8066,41.5553084045026,-87.7955356341613,"Sunday - Thursday : 6:00 AM-11:00 PM, Friday - Saturday6:00 AM-11:00 PM",,
Cracker Barrel,930877426,1295 Lakeview Drive,I-55 & Weber Road,Romeoville,IL,60446-3965,US,630-759-6171,41.6588,-88.1246,"Sunday - Thursday : 6:00 AM-11:00 PM, Friday - Saturday6:00 AM-11:00 PM",,
Cracker Barrel,930877253,1855 West Diehl Road,"I-88 & S.R. 59, Exit 123",Naperville,IL,60563-1890,US,630-778-6699,41.79904,-88.2071408729948,"Sunday - Thursday : 6:00 AM-11:00 PM, Friday - Saturday6:00 AM-11:00 PM",,
Cracker Barrel,930877178,725 Foxcroft Avenue,I-81 & Foxcroft Ave. North,Martinsburg,WV,25401-1839,US,304-262-3660,39.4547882818255,-77.9881866708714,"Sunday - Thursday : 6:00 AM-11:00 PM, Friday - Saturday6:00 AM-11:00 PM",,
Cracker Barrel,1290679919,215 Colonnade Blvd,I-99 & Waddle Rd,State College,PA,16803,US,814-238-3414,40.8148863821562,-77.9020555272223,"Sunday - Thursday : 6:00 AM-11:00 PM, Friday - Saturday6:00 AM-11:00 PM",,
Cracker Barrel,930877445,200 Front Royal Pike,I-81 & US 17/50/522,Winchester,VA,22602-7313,US,540-722-3770,39.1585806258589,-78.1576493813504,"Sunday - Thursday : 6:00 AM-11:00 PM, Friday - Saturday6:00 AM-11:00 PM",,
Cracker Barrel,930877119,1971 Carl D. Silver Pkwy.,I-95 & US Route 3 (Plank Road),Fredericksburg,VA,22401-4968,US,540-785-8352,38.3087348980771,-77.513111922531,"Sunday - Thursday : 6:00 AM-11:00 PM, Friday - Saturday6:00 AM-11:00 PM",,
Cracker Barrel,930877483,5200 Southpoint Parkway,I-95 & US 1,Fredericksburg,VA,22407-2680,US,540-891-7622,38.2333192419746,-77.4991559463019,"Sunday - Thursday : 6:00 AM-11:00 PM, Friday - Saturday6:00 AM-11:00 PM",,
Cracker Barrel,930877215,100 Charlotte Drive,I-99 & Plank Road,Altoona,PA,16601-9350,US,814-944-0691,40.4672744170606,-78.4095729036313,"Sunday - Thursday : 6:00 AM-11:00 PM, Friday - Saturday6:00 AM-11:00 PM",,
Cracker Barrel,930877141,15 RIVERTON COMMONS PLAZA,I-66 & Rt 522,Front Royal,VA,22630-6768,US,540-635-8052,38.96184,-78.19,"Sunday - Thursday : 6:00 AM-11:00 PM, Friday - Saturday6:00 AM-11:00 PM",,
Cracker Barrel,930877424,6200 Opportunity Lane,I-65 & 61st Street,Merrillville,IN,46410-2775,US,219-947-2617,41.5047275927457,-87.3179327748867,"Sunday - Thursday : 6:00 AM-11:00 PM, Friday - Saturday6:00 AM-11:00 PM",,
Cracker Barrel,930877340,1511 Riverboat Center Dr.,I-80 & Houbolt,Joliet,IL,60431-9341,US,815-744-0985,41.4948935082563,-88.1658201768823,"Sunday - Thursday : 6:00 AM-11:00 PM, Friday - Saturday6:00 AM-11:00 PM",,
Cracker Barrel,930877270,5706 Northridge Drive,I-94 & Grand Avenue,Gurnee,IL,60031-4911,US,847-244-1512,42.3778297725526,-87.9432900017769,"Sunday - Thursday : 6:00 AM-11:00 PM, Friday - Saturday6:00 AM-11:00 PM",,
Cracker Barrel,930877446,50 Ken Hayes Drive,I-57 & State Route 50,Bourbonnais,IL,60914-9347,US,815-936-6022,41.17198,-87.8453,"Sunday - Thursday : 6:00 AM-11:00 PM, Friday - Saturday6:00 AM-11:00 PM",,
Cracker Barrel,930877454,7015 122nd Avenue,I-94 & SR 50,Kenosha,WI,53142-7353,US,262-857-2995,42.5723612779874,-87.9551566341102,"Sunday - Thursday : 6:00 AM-11:00 PM, Friday - Saturday6:00 AM-11:00 PM",,
Cracker Barrel,930877204,2525 West Marquette Woods Rd,I-94 & Red Arrow Hwy,Stevensville,MI,49127-9326,US,269-428-0550,42.0329571258195,-86.5149024503472,"Sunday - Thursday : 6:00 AM-11:00 PM, Friday - Saturday6:00 AM-11:00 PM",,
Cracker Barrel,930877599,451 West Reservoir Rd,I-81 & Hwy 42,Woodstock,VA,22664-2005,US,540-459-3033,38.8723432408961,-78.5299256498571,"Sunday - Thursday : 6:00 AM-11:00 PM, Friday - Saturday6:00 AM-11:00 PM",,
Cracker Barrel,177175981,13 Campground Road,I-68 & Campgroup Road (SR658),LaVale,MD,21502,US,(301) 729-0649,39.655643,-78.8105755,"Sunday - Thursday : 6:00 AM-11:00 PM, Friday - Saturday6:00 AM-11:00 PM",,
Cracker Barrel,930877294,106 S Carter Rd,I-95 & SR 54,Ashland,VA,23005-2233,US,804-798-1542,37.7587817925751,-77.4612552368881,"Sunday - Thursday : 6:00 AM-11:00 PM, Friday - Saturday6:00 AM-11:00 PM",,
Cracker Barrel,930877286,4119 Columbus,I-80 & SR 23,Ottawa,IL,61350-9539,US,815-431-9779,41.3795782093518,-88.8359536783299,"Sunday - Thursday : 6:00 AM-11:00 PM, Friday - Saturday6:00 AM-11:00 PM",,
Cracker Barrel,930877260,730 North Lyford Road,I-90 & State St,Rockford,IL,61107-5314,US,815-226-1944,42.2740593877551,-88.9604491836735,"Sunday - Thursday : 6:00 AM-11:00 PM, Friday - Saturday6:00 AM-11:00 PM",,
Cracker Barrel,930877296,110 Northpointe Blvd.,I-80 & Cassopolis Street,Elkhart,IN,46514-6717,US,574-264-6963,41.734696791531,-85.9743404234477,"Sunday - Thursday : 6:00 AM-11:00 PM, Friday - Saturday6:00 AM-11:00 PM",,
Cracker Barrel,930877493,2430 Fulton Street,I-90 & Milton Road,Janesville,WI,53546-1009,US,608-752-7750,42.7286256565657,-88.9925304040404,"Sunday - Thursday : 6:00 AM-11:00 PM, Friday - Saturday6:00 AM-11:00 PM",,
Cracker Barrel,930877244,W176n9778 Rivercrest Dr,"U.S. 41 & County Line Rd., Exit 52",Germantown,WI,53022-4649,US,262-253-4188,43.1954587126757,-88.1283266733754,"Sunday - Thursday : 6:00 AM-11:00 PM, Friday - Saturday6:00 AM-11:00 PM",,
Cracker Barrel,930877272,5581 Cracker Barrel Dr,I-94 & 9th Ave,Kalamazoo,MI,49009-8449,US,269-372-9698,42.2354837014143,-85.6770997967545,"Sunday - Thursday : 6:00 AM-11:00 PM, Friday - Saturday6:00 AM-11:00 PM",,
Cracker Barrel,930877109,40 Frontage Road,I-65 & SR 26,Lafayette,IN,47905-4604,US,765-447-9544,40.4181453133605,-86.816818563131,"Sunday - Thursday : 6:00 AM-11:00 PM, Friday - Saturday6:00 AM-11:00 PM",,
Cracker Barrel,930877490,502 Brock Drive,I-55/74 & Market St,Bloomington,IL,61701-2640,US,309-829-3155,40.4827925735729,-89.0253002746899,"Sunday - Thursday : 6:00 AM-11:00 PM, Friday - Saturday6:00 AM-11:00 PM",,
Cracker Barrel,930877267,4340 Kenowa Avenue,I-196 & 44th Street,Grandville,MI,49418-2258,US,616-457-7219,42.8864064705882,-85.7822641176471,"Sunday - Thursday : 6:00 AM-11:00 PM, Friday - Saturday6:00 AM-11:00 PM",,
Cracker Barrel,930877486,2147 East Springs Drive,I-90/94 & US 151,Madison,WI,53704-7422,US,608-242-0560,43.1260928001801,-89.2962115790114,"Sunday - Thursday : 6:00 AM-11:00 PM, Friday - Saturday6:00 AM-11:00 PM",,
Cracker Barrel,930877383,2101 North Kenyon Road,I-74 & US 45,Urbana,IL,61802-1246,US,217-344-9087,40.1329862481488,-88.1977823624,"Sunday - Thursday : 6:00 AM-11:00 PM, Friday - Saturday6:00 AM-11:00 PM",,
Cracker Barrel,930877540,404 Kentucky Dr.,SR 931 & Kentucky Dr,Kokomo,IN,46902-7138,US,765-453-3075,40.4350484,-86.12704,"Sunday - Thursday : 6:00 AM-11:00 PM, Friday - Saturday6:00 AM-11:00 PM",,
Cracker Barrel,930877313,150 E Ashland Street,I-74 & Morton Avenue,Morton,IL,61550-1446,US,309-263-2103,40.6246555435208,-89.4636093759155,"Sunday - Thursday : 6:00 AM-11:00 PM, Friday - Saturday6:00 AM-11:00 PM",,
Cracker Barrel,930877303,4765 Beckley Road,I-94 & Capital Ave.,Battle Creek,MI,49015-7951,US,269-979-3900,42.26104,-85.20295,"Sunday - Thursday : 6:00 AM-11:00 PM, Friday - Saturday6:00 AM-11:00 PM",,
Cracker Barrel,1743464923,1005 Candle View Lane,I-74 & US 231 Ext.34,Crawfordsville,IN,47933,US,765-362-5097,40.03167,-86.90896,"Sunday - Thursday : 6:00 AM-11:00 PM, Friday - Saturday6:00 AM-11:00 PM",,
Cracker Barrel,930877571,1410 Shook Drive,I-69 & SR 8,Auburn,IN,46706-9590,US,260-925-0241,41.3653517142857,-85.0844587346939,"Sunday - Thursday : 6:00 AM-11:00 PM, Friday - Saturday6:00 AM-11:00 PM",,
Cracker Barrel,930877656,1609 W. Washington Ctr Rd,I-69 & SR 3,Fort Wayne,IN,46818-1419,US,260-489-1855,41.1324051020408,-85.1606059183673,"Sunday - Thursday : 6:00 AM-11:00 PM, Friday - Saturday6:00 AM-11:00 PM",,
Cracker Barrel,930877254,4984 Kay Bee Dr.,I-69 & State Route 22,Gas City,IN,46933-6601,US,765-998-7790,40.481104,-85.546447,"Sunday - Thursday : 6:00 AM-11:00 PM, Friday - Saturday6:00 AM-11:00 PM",,
Cracker Barrel,930877118,10427 E. Maysville Rd,I-469 & State Route 37,Fort Wayne,IN,46835-9762,US,260-492-7500,41.1313157858252,-85.0096403163175,"Sunday - Thursday : 6:00 AM-11:00 PM, Friday - Saturday6:00 AM-11:00 PM",,
Cracker Barrel,1365150414,6398 Crane Dr,I-65 & SR 334,Whitestown,IN,46075,US,317-769-5205,39.94694,-86.35102,"Sunday - Thursday : 6:00 AM-11:00 PM, Friday - Saturday6:00 AM-11:00 PM",,
Cracker Barrel,930877338,1013 Heitmann Dr.,I-55 & SR 10,Lincoln,IL,62656-9600,US,217-732-4682,40.1535278690443,-89.4134970649791,"Sunday - Thursday : 6:00 AM-11:00 PM, Friday - Saturday6:00 AM-11:00 PM",,
Cracker Barrel,930877487,5120 Hickory Point Frontage Rd,I-72 & US 51,Decatur,IL,62526-9778,US,217-876-8036,39.9100186783292,-88.9526771930896,"Sunday - Thursday : 6:00 AM-11:00 PM, Friday - Saturday6:00 AM-11:00 PM",,
Cracker Barrel,930877501,300 Jason Way Ct.,I-80 & US 61 S.,Davenport,IA,52806-1360,US,563-386-4847,41.5925939850498,-90.5684811443338,"Sunday - Thursday : 6:00 AM-11:00 PM, Friday - Saturday6:00 AM-11:00 PM",,
Cracker Barrel,930877673,9340 Michigan Road,I-465 & US 421,Indianapolis,IN,46268-1125,US,317-337-0029,39.921430992975,-86.2276711139279,"Sunday - Thursday : 6:00 AM-11:00 PM, Friday - Saturday6:00 AM-11:00 PM",,
Cracker Barrel,930877634,3840 Eagle View Drive,I-465 & 38th Street,Indianapolis,IN,46254-4660,US,317-298-8908,39.8245685427136,-86.2779293467337,"Sunday - Thursday : 6:00 AM-11:00 PM, Friday - Saturday6:00 AM-11:00 PM",,
Cracker Barrel,930877150,9700 N By Northeast Blvd,I-69 & 96th Street,Fishers,IN,46037-9783,US,317-842-2766,39.9290311301286,-86.0263666524036,"Sunday - Thursday : 6:00 AM-11:00 PM, Friday - Saturday6:00 AM-11:00 PM",,
Cracker Barrel,930877295,1295 WI Dells Pkwy South,I-94/90 & US 12,Baraboo,WI,53913-9417,US,608-253-6777,43.5728429,-89.7771766,"Sunday - Thursday : 6:00 AM-11:00 PM, Friday - Saturday6:00 AM-11:00 PM",,
Cracker Barrel,930877636,2012 East 59th Street,I-69 & Scatterfield Rd,Anderson,IN,46013-3048,US,765-642-6424,40.0554204486636,-85.6526086332181,"Sunday - Thursday : 6:00 AM-11:00 PM, Friday - Saturday6:00 AM-11:00 PM",,
Cracker Barrel,930877297,608 Commercial Drive,I-96 & SR 43/Saginaw Street,Lansing,MI,48917-9765,US,517-627-7755,42.7397543794249,-84.6733492154313,"Sunday - Thursday : 6:00 AM-11:00 PM, Friday - Saturday6:00 AM-11:00 PM",,
Cracker Barrel,930877266,6256 Cambridge Way,I-70 & Route 267,Plainfield,IN,46168-7904,US,317-838-9198,39.6711536206593,-86.3679660338452,"Sunday - Thursday : 6:00 AM-11:00 PM, Friday - Saturday6:00 AM-11:00 PM",,
Cracker Barrel,930877290,2340 Post Drive,I-70 & Post Road,Indianapolis,IN,46219-1978,US,317-897-1042,39.8015876081096,-86.0139935673471,"Sunday - Thursday : 6:00 AM-11:00 PM, Friday - Saturday6:00 AM-11:00 PM",,
Cracker Barrel,930877350,2494 Airport Road,I-94 & Airport Road,Jackson,MI,49202-1800,US,517-783-5300,42.26819267708,-84.4527575252971,"Sunday - Thursday : 6:00 AM-11:00 PM, Friday - Saturday6:00 AM-11:00 PM",,
Cracker Barrel,930877388,1101 Charleston Ave. East,I-57 & SR 16,Mattoon,IL,61938-6213,US,217-234-9091,39.48428,-88.330432885906,"Sunday - Thursday : 6:00 AM-11:00 PM, Friday - Saturday6:00 AM-11:00 PM",,
Cracker Barrel,930877161,429 E Margaret Dr,I-70 & US 41,Terre Haute,IN,47802-3755,US,812-235-6593,39.43377,-87.4118842857143,"Sunday - Thursday : 6:00 AM-11:00 PM, Friday - Saturday6:00 AM-11:00 PM",,
Cracker Barrel,930877579,2265 N State St.,I-70 & State Route 9,Greenfield,IN,46140-9084,US,317-468-0820,39.8176617142857,-85.769876,"Sunday - Thursday : 6:00 AM-11:00 PM, Friday - Saturday6:00 AM-11:00 PM",,
Cracker Barrel,930877647,4350 East Southport Road,I-65 & Southport Road,Indianapolis,IN,46237-3241,US,317-784-7691,39.6656586528109,-86.0942148844961,"Sunday - Thursday : 6:00 AM-11:00 PM, Friday - Saturday6:00 AM-11:00 PM",,
Cracker Barrel,930877648,2285 Woodlake Drive,I-96 & Okemos Road,Okemos,MI,48864-5934,US,517-381-1511,42.6811778708402,-84.4351641765947,"Sunday - Thursday : 6:00 AM-11:00 PM, Friday - Saturday6:00 AM-11:00 PM",,
Cracker Barrel,930877287,5975 S 6th Street Rd,I-55 & Toronto Rd,Springfield,IL,62703-5703,US,217-529-2290,39.76635,-89.63271,"Sunday - Thursday : 6:00 AM-11:00 PM, Friday - Saturday6:00 AM-11:00 PM",,
Cracker Barrel,930877326,1898 N. Morristown Rd.,I-74 & SR 9,Shelbyville,IN,46176-9407,US,317-398-0385,39.55383,-85.77526,"Sunday - Thursday : 6:00 AM-11:00 PM, Friday - Saturday6:00 AM-11:00 PM",,
Cracker Barrel,930877375,1101 Avenue of Mid-America,I-70/57 & Ave of Mid-America,Effingham,IL,62401-4700,US,217-347-7130,39.1397724634282,-88.5587694827477,"Sunday - Thursday : 6:00 AM-11:00 PM, Friday - Saturday6:00 AM-11:00 PM",,
Cracker Barrel,930877541,380 N. Jacob Drive,SR 37 & SR 48,Bloomington,IN,47404-4823,US,812-323-9114,39.1706089434425,-86.5723489720329,"Sunday - Thursday : 6:00 AM-11:00 PM, Friday - Saturday6:00 AM-11:00 PM",,
Cracker Barrel,930877276,11701 North US Highway 31,I-65 & US 31,Edinburgh,IN,46124-9000,US,812-526-7968,39.3093846,-85.9636742,"Sunday - Thursday : 6:00 AM-11:00 PM, Friday - Saturday6:00 AM-11:00 PM",,
Cracker Barrel,930877525,5304 North Galloway Avenue,I-635 & Oates Drive,Mesquite,TX,75150-1176,US,972-681-9351,32.8349478378378,-96.6350994594595,"Sunday - Thursday : 6:00 AM-11:00 PM, Friday - Saturday6:00 AM-11:00 PM",,
Cracker Barrel,930877464,1421 N Interstate 35 E,I-35 & Wintergreen Blvd,Desoto,TX,75115-3510,US,972-224-3004,32.6173811,-96.8234927,"Sunday - Thursday : 6:00 AM-11:00 PM, Friday - Saturday6:00 AM-11:00 PM",,
Cracker Barrel,930877479,1251 North Watson Road,SR 360 & Brown Blvd/Ave K,Arlington,TX,76006-6123,US,817-633-5477,32.7690351671326,-97.0632643805344,"Sunday - Thursday : 6:00 AM-11:00 PM, Friday - Saturday6:00 AM-11:00 PM",,
Cracker Barrel,2128469109,1323 N. Central Expressway,,Allen,TX,75013,US,469-854-6681,33.0186106062359,-96.7095239077851,"Sunday - Thursday : 6:00 AM-11:00 PM, Friday - Saturday6:00 AM-11:00 PM",,
Cracker Barrel,930877128,2700 Grapevine Mills Pkwy,SR 121 & SR 26,Grapevine,TX,76051-0921,US,972-874-2325,32.96591,-97.03669,"Sunday - Thursday : 6:00 AM-11:00 PM, Friday - Saturday6:00 AM-11:00 PM",,
Cracker Barrel,930877470,889 South Stemmons,I-35E & Fox Avenue,Lewisville,TX,75067-5351,US,972-436-6813,33.0368,-97.00094,"Sunday - Thursday : 6:00 AM-11:00 PM, Friday - Saturday6:00 AM-11:00 PM",,
Cracker Barrel,930877469,4300 South Bowen Road,I-20 & Bowen Road,Arlington,TX,76016-4901,US,817-465-9583,32.6761516460943,-97.1497139641673,"Sunday - Thursday : 6:00 AM-11:00 PM, Friday - Saturday6:00 AM-11:00 PM",,
Cracker Barrel,930877514,4691 Gemini Place,I-35 & Meacham Rd,Fort Worth,TX,76106-2317,US,817-624-8050,32.826547737781,-97.3142052699363,"Sunday - Thursday : 6:00 AM-11:00 PM, Friday - Saturday6:00 AM-11:00 PM",,
Cracker Barrel,930877223,13301 South Freeway,I-35 & Alsbury,Burleson,TX,76028-7025,US,817-295-8622,32.5652154241332,-97.3183252003909,"Sunday - Thursday : 6:00 AM-11:00 PM, Friday - Saturday6:00 AM-11:00 PM",,
Cracker Barrel,930877471,4008 N I-35,I-35 & US 380,Denton,TX,76207-3406,US,940-382-5277,33.2302967032967,-97.1736689010989,"Sunday - Thursday : 6:00 AM-11:00 PM, Friday - Saturday6:00 AM-11:00 PM",,
Cracker Barrel,930877508,8010 SW Loop 820,I-20 & Winscott,Benbrook,TX,76126-2015,US,817-249-3360,32.6856921,-97.454133,"Sunday - Thursday : 6:00 AM-11:00 PM, Friday - Saturday6:00 AM-11:00 PM",,
Cracker Barrel,930877524,3401 West I-30,I-30 & SR 34,Greenville,TX,75402-7040,US,903-455-7176,33.09456,-96.11313,"Sunday - Thursday : 6:00 AM-11:00 PM, Friday - Saturday6:00 AM-11:00 PM",,
Cracker Barrel,930877597,132 East Interstate 20,I-20 & Hwy 51,Weatherford,TX,76087-8556,US,817-598-9070,32.74524,-97.66852,"Sunday - Thursday : 6:00 AM-11:00 PM, Friday - Saturday6:00 AM-11:00 PM",,
Cracker Barrel,930877137,3501 N US Hwy 75,U.S. 75 & Loy Lake Road,Sherman,TX,75090-2575,US,903-868-9437,33.6755718999079,-96.6086710079801,"Sunday - Thursday : 6:00 AM-11:00 PM, Friday - Saturday6:00 AM-11:00 PM",,
Cracker Barrel,930877125,4327 N I-35,I-35 & FM 1202,Gainesville,TX,76240-1900,US,940-612-1827,33.6801627027027,-97.1557927027027,"Sunday - Thursday : 6:00 AM-11:00 PM, Friday - Saturday6:00 AM-11:00 PM",,
Cracker Barrel,930877621,2400 Sierra Dr,I-44 & Sierra Drive,Wichita Falls,TX,76306-4936,US,940-851-0664,33.94831,-98.52483,"Sunday - Thursday : 6:00 AM-11:00 PM, Friday - Saturday6:00 AM-11:00 PM",,
Cracker Barrel,930877222,601 E. Gore Blvd.,I-44 & Gore Blvd.,Lawton,OK,73501-3061,US,580-248-1477,34.60884,-98.3815,"Sunday - Thursday : 6:00 AM-11:00 PM, Friday - Saturday6:00 AM-11:00 PM",,
Cracker Barrel,930877499,3302 St. Michaels Dr.,I-30 & Richmond Rd.,Texarkana,TX,75503-2354,US,903-832-3282,33.4550317,-94.0908708,"Sunday - Thursday : 6:00 AM-11:00 PM, Friday - Saturday6:00 AM-11:00 PM",,
Cracker Barrel,930877170,6251 Westport Avenue,I-20 & Pines Blvd.,Shreveport,LA,71129-2503,US,318-688-6080,32.44519,-93.89839,"Sunday - Thursday : 6:00 AM-11:00 PM, Friday - Saturday6:00 AM-11:00 PM",,
Cracker Barrel,930877604,1602 Hwy 351,I-20 & State Highway 351,Abilene,TX,79601-4746,US,325-672-0280,32.4784231,-99.6991067,"Sunday - Thursday : 6:00 AM-11:00 PM, Friday - Saturday6:00 AM-11:00 PM",,
Cracker Barrel,930877320,800 North Interstate Drive,I-35 & Robinson Street,Norman,OK,73072-4157,US,405-360-3117,35.2287111049284,-97.4858505710741,"Sunday - Thursday : 6:00 AM-11:00 PM, Friday - Saturday6:00 AM-11:00 PM",,
Cracker Barrel,930877385,27 W. Interstate Pkwy.,I-40 & Kickapoo,Shawnee,OK,74804-1331,US,405-214-7718,35.38342,-96.92349,"Sunday - Thursday : 6:00 AM-11:00 PM, Friday - Saturday6:00 AM-11:00 PM",,
Cracker Barrel,930877358,700 Cornell Parkway,I-40 & Meridian Blvd.,Oklahoma City,OK,73108-1829,US,405-948-1151,35.45862,-97.59675,"Sunday - Thursday : 6:00 AM-11:00 PM, Friday - Saturday6:00 AM-11:00 PM",,
Cracker Barrel,930877348,4901 N.E. 122nd Street,I-35 & NE 122nd Street,Edmond,OK,73013-8387,US,405-478-7119,35.59472,-97.43562,"Sunday - Thursday : 6:00 AM-11:00 PM, Friday - Saturday6:00 AM-11:00 PM",,
Cracker Barrel,945128907,438 Commerce Ctr. Drive,Southside Connector & Regency Square Blvd,Jacksonville,FL,32225-8196,US,904-805-9220,30.3303390397956,-81.5500516783633,"Sunday - Thursday : 6:00 AM-11:00 PM, Friday - Saturday6:00 AM-11:00 PM",,
Cracker Barrel,930877455,4680 Lenoir Ave.,I-95 & J. Turner Butler Blvd.,Jacksonville,FL,32216-4033,US,904-296-7530,30.2505583,-81.5763195,"Sunday - Thursday : 6:00 AM-11:00 PM, Friday - Saturday6:00 AM-11:00 PM",,
Cracker Barrel,930877612,13250 City Station Dr,I-95 & Airport Road,Jacksonville,FL,32218-7227,US,904-751-3678,30.4783488235294,-81.6421929411765,"Sunday - Thursday : 6:00 AM-11:00 PM, Friday - Saturday6:00 AM-11:00 PM",,
Cracker Barrel,930877169,4272 Eldridge Loop,I-295 & US 17,Orange Park,FL,32073-3022,US,904-264-2292,30.1897235387985,-81.702509032943,"Sunday - Thursday : 6:00 AM-11:00 PM, Friday - Saturday6:00 AM-11:00 PM",,
Cracker Barrel,930877602,502 Chaffee Point Road,I-10 & Chaffee Point Blvd,Jacksonville,FL,32221-4108,US,904-783-0254,30.3081287026627,-81.8443,"Sunday - Thursday : 6:00 AM-11:00 PM, Friday - Saturday6:00 AM-11:00 PM",,
Cracker Barrel,930877147,1200 BOONE AVE,I-95 & SR 40,Kingsland,GA,31548-5343,US,912-576-1991,30.7901792391991,-81.6585310286129,"Sunday - Thursday : 6:00 AM-11:00 PM, Friday - Saturday6:00 AM-11:00 PM",,
Cracker Barrel,930877448,2441 State Rd. 16,I-95 & SR 16,St. Augustine,FL,32092-0701,US,904-829-9222,29.9154498958314,-81.4130274146363,"Sunday - Thursday : 6:00 AM-11:00 PM, Friday - Saturday6:00 AM-11:00 PM",,
Cracker Barrel,930877437,4 Kingswood Dr.,I-95 & Palm Coast Pkwy.,Palm Coast,FL,32137-4614,US,386-445-2127,29.553449961701,-81.211864437521,"Sunday - Thursday : 6:00 AM-11:00 PM, Friday - Saturday6:00 AM-11:00 PM",,
Cracker Barrel,930877505,I-95 & U.S. 341,,Brunswick,GA,31520-1213,US,912-267-7905,31.2172478311021,-81.522663036457,"Sunday - Thursday : 6:00 AM-11:00 PM, Friday - Saturday6:00 AM-11:00 PM",,
Cracker Barrel,930877465,240 Southwest Commerce Drive,I-75 & US 90,Lake City,FL,32025-1500,US,386-755-5638,30.1801819,-82.6858694,"Sunday - Thursday : 6:00 AM-11:00 PM, Friday - Saturday6:00 AM-11:00 PM",,
Cracker Barrel,930877461,4001 S.W. 43rd Street,I-75 & Archer Road,Gainesville,FL,32608-2217,US,352-375-2424,29.616590429801,-82.3891799367891,"Sunday - Thursday : 6:00 AM-11:00 PM, Friday - Saturday6:00 AM-11:00 PM",,
Cracker Barrel,177175982,2501 Memorial Dr.,US 1 & Hatcher Point Rd.,Waycross,GA,31503,US,912-285-8615,31.1973929,-82.3237322,"Sunday - Thursday : 6:00 AM-11:00 PM, Friday - Saturday6:00 AM-11:00 PM",,
Cracker Barrel,930877429,125 Interchange Blvd,I-95 & SR 40,Ormond Beach,FL,32174-1834,US,386-673-5400,29.2558619452666,-81.118549060082,"Sunday - Thursday : 6:00 AM-11:00 PM, Friday - Saturday6:00 AM-11:00 PM",,
Cracker Barrel,930877500,2325 W. International Speedway,I-95 & U.S. 92,Daytona Beach,FL,32114-1101,US,386-248-0034,29.1830681884613,-81.0784811457186,"Sunday - Thursday : 6:00 AM-11:00 PM, Friday - Saturday6:00 AM-11:00 PM",,
Cracker Barrel,930877457,3801 SW College Road,I-75 & SR 200,Ocala,FL,34474-5725,US,352-854-7870,29.14894,-82.18654,"Sunday - Thursday : 6:00 AM-11:00 PM, Friday - Saturday6:00 AM-11:00 PM",,
Cracker Barrel,930877617,13561 SW 17th Ct.,I-75 & State Route 484,Ocala,FL,34473-9035,US,352-307-7222,29.0243936367988,-82.1549971540177,"Sunday - Thursday : 6:00 AM-11:00 PM, Friday - Saturday6:00 AM-11:00 PM",,
Cracker Barrel,930877156,4914 Timber Drive,I-75 & Lake Park,Lake Park,GA,31636-4948,US,229-559-0864,30.68167,-83.22756,"Sunday - Thursday : 6:00 AM-11:00 PM, Friday - Saturday6:00 AM-11:00 PM",,
Cracker Barrel,930877116,13637 N. US Hwy. 27,US 27/441 & NE 136th Ave.,Lady Lake,FL,32159-8923,US,352-259-6603,28.954487,-81.9597733,"Sunday - Thursday : 6:00 AM-11:00 PM, Friday - Saturday6:00 AM-11:00 PM",,
Cracker Barrel,930877551,9450 Hwy 441,US 27 & US 441,Leesburg,FL,34788-4020,US,352-315-8447,28.8276917,-81.8031233,"Sunday - Thursday : 6:00 AM-11:00 PM, Friday - Saturday6:00 AM-11:00 PM",,
Cracker Barrel,930877191,1195 St. Augustine Road,I-75 & St. Augustine Road,Valdosta,GA,31601-8409,US,229-244-5258,30.84139,-83.32372,"Sunday - Thursday : 6:00 AM-11:00 PM, Friday - Saturday6:00 AM-11:00 PM",,
Cracker Barrel,930877480,200 Hickman Drive,I-4 & SR 46,Sanford,FL,32771-6915,US,407-324-1020,28.8146321149178,-81.3336368276232,"Sunday - Thursday : 6:00 AM-11:00 PM, Friday - Saturday6:00 AM-11:00 PM",,
Cracker Barrel,945128902,285 Douglas Avenue,I-4 & Hwy 436,Altamonte Springs,FL,32714-3333,US,407-682-1095,28.6657782951115,-81.3903513568277,"Sunday - Thursday : 6:00 AM-11:00 PM, Friday - Saturday6:00 AM-11:00 PM",,
Cracker Barrel,930877298,17017 Abercorn Street,I-95 & SR 204,Savannah,GA,31419-9787,US,912-927-6559,32.0043162784411,-81.2804113922057,"Sunday - Thursday : 6:00 AM-11:00 PM, Friday - Saturday6:00 AM-11:00 PM",,
Cracker Barrel,930877554,1520 E. Hwy 50,SR 50 & Oakley Seaver Road,Clermont,FL,34711-5125,US,352-243-9608,28.54676,-81.72767,"Sunday - Thursday : 6:00 AM-11:00 PM, Friday - Saturday6:00 AM-11:00 PM",,
Cracker Barrel,945128890,3316 Daniels Rd,CR 535 & Daniels Road,Winter Garden,FL,34787-7019,US,407-654-2405,28.5207431623052,-81.5872705914143,"Sunday - Thursday : 6:00 AM-11:00 PM, Friday - Saturday6:00 AM-11:00 PM",,
Cracker Barrel,930877312,1000 HWY 80 E,I-95 & US 80,Pooler,GA,31322-9522,US,912-748-7411,32.12092,-81.26303,"Sunday - Thursday : 6:00 AM-11:00 PM, Friday - Saturday6:00 AM-11:00 PM",,
Cracker Barrel,930877441,30405 Cracker Crossing,I-75 & SR 50,Brooksville,FL,34602-8504,US,352-799-3101,28.5207161695202,-82.2356897832171,"Sunday - Thursday : 6:00 AM-11:00 PM, Friday - Saturday6:00 AM-11:00 PM",,
Cracker Barrel,930877547,6699 S. Semoran Blvd,SR 436 & Butler National Drive,Orlando,FL,32822-3219,US,407-240-0103,28.4674345454545,-81.3099650505051,"Sunday - Thursday : 6:00 AM-11:00 PM, Friday - Saturday6:00 AM-11:00 PM",,
Cracker Barrel,930877400,4745 Helen Hauser Blvd.,I-95 & SR 50,Titusville,FL,32780-2596,US,321-268-9911,28.5507967,-80.8537762,"Sunday - Thursday : 6:00 AM-11:00 PM, Friday - Saturday6:00 AM-11:00 PM",,
Cracker Barrel,930877259,708 US HWY 319 S,I-75 & U.S. Hwy 319,Tifton,GA,31794-8235,US,229-386-4412,31.4491451453894,-83.5278626554969,"Sunday - Thursday : 6:00 AM-11:00 PM, Friday - Saturday6:00 AM-11:00 PM",,
Cracker Barrel,930877663,13300 S. Orange Blossom Trail,SR 417 & US 17/92/441,Orlando,FL,32837-6636,US,407-857-6124,28.3711,-81.40458,"Sunday - Thursday : 6:00 AM-11:00 PM, Friday - Saturday6:00 AM-11:00 PM",,
Cracker Barrel,930877566,7878 W. Irlo Bronson Memorial,US 192 & Silk Road (Osceola),Kissimmee,FL,34747-1738,US,407-390-1190,28.3430349064842,-81.60050770145,"Sunday - Thursday : 6:00 AM-11:00 PM, Friday - Saturday6:00 AM-11:00 PM",,
Cracker Barrel,930877515,5400 W. Irlo Bronson Memorial,I-4 & U.S.Hwy 192,Kissimmee,FL,34746-4709,US,407-396-6521,28.3328,-81.497704935908,"Sunday - Thursday : 6:00 AM-11:00 PM, Friday - Saturday6:00 AM-11:00 PM",,
Cracker Barrel,1571519689,157 Okatie Center Blvd N,,Okatie,SC,29909,US,843-706-9545,32.2992824368835,-80.9416521844174,"Sunday - Thursday : 6:00 AM-11:00 PM, Friday - Saturday6:00 AM-11:00 PM",,
Cracker Barrel,949084400,1371 Commercial Way,US 19 & Wendy Court,Spring Hill,FL,34606-4521,US,352-688-2911,28.4535171215943,-82.6303410579566,"Sunday - Thursday : 6:00 AM-11:00 PM, Friday - Saturday6:00 AM-11:00 PM",,
Cracker Barrel,930877573,111 Dunson Lane,I-4 & US 27,Davenport,FL,33896-8315,US,863-424-8100,28.2444879572898,-81.6552129428726,"Sunday - Thursday : 6:00 AM-11:00 PM, Friday - Saturday6:00 AM-11:00 PM",,
Cracker Barrel,1228647378,216 Henry Blvd.,301 Bypass & Brannen St.,Statesboro,GA,30458,US,912-764-7612,32.4308245,-81.7588719,"Sunday - Thursday : 6:00 AM-11:00 PM, Friday - Saturday6:00 AM-11:00 PM",,
Cracker Barrel,930877434,5636 Oakley Blvd.,I-75 & SR 54,Wesley Chapel,FL,33544-5304,US,813-973-4884,28.2396478536952,-82.3568761580392,"Sunday - Thursday : 6:00 AM-11:00 PM, Friday - Saturday6:00 AM-11:00 PM",,
Cracker Barrel,930877217,4343 Lakeland Park Dr.,I-4 & Socrum Loop Rd.,Lakeland,FL,33809-3585,US,863-853-5405,28.1007402,-81.9507165,"Sunday - Thursday : 6:00 AM-11:00 PM, Friday - Saturday6:00 AM-11:00 PM",,
Cracker Barrel,930877389,7225 George T. Edwards Dr.,I-95 & Wickham Rd.,Melbourne,FL,32940-6609,US,321-242-0350,28.2303746,-80.7210969,"Sunday - Thursday : 6:00 AM-11:00 PM, Friday - Saturday6:00 AM-11:00 PM",,
Cracker Barrel,930877650,2920 Hospitality Road,I-10 & North Monroe Street,Tallahassee,FL,32303-4041,US,850-385-9249,30.4806633332137,-84.3048505372099,"Sunday - Thursday : 6:00 AM-11:00 PM, Friday - Saturday6:00 AM-11:00 PM",,
Cracker Barrel,941399855,5341 US Highway 19,Hwy. 19 & Gulf Drive,New Port Richey,FL,34652-3969,US,727-849-5147,28.2370178,-82.7285945,"Sunday - Thursday : 6:00 AM-11:00 PM, Friday - Saturday6:00 AM-11:00 PM",,
Cracker Barrel,930877668,3125 Cove Bend Dr.,Bruce B. Downs Blvd. & East Bearss Ave.,Tampa,FL,33613-2740,US,813-977-8988,28.0812794,-82.442719,"Sunday - Thursday : 6:00 AM-11:00 PM, Friday - Saturday6:00 AM-11:00 PM",,
Cracker Barrel,930877172,6150 Lazy Days Blvd.,I-4 & CR 579,Seffner,FL,33584-2968,US,813-621-7323,28.006653327146,-82.3049365224426,"Sunday - Thursday : 6:00 AM-11:00 PM, Friday - Saturday6:00 AM-11:00 PM",,
Cracker Barrel,930877242,104 Travel Center Blvd.,I-16 & US441,Dublin,GA,31021-1240,US,478-275-4220,32.4862000009061,-82.937215000151,"Sunday - Thursday : 6:00 AM-11:00 PM, Friday - Saturday6:00 AM-11:00 PM",,
Cracker Barrel,930877308,1905 Central Avenue,I-75 & US 280,Cordele,GA,31015-2043,US,229-271-0331,31.9588003058734,-83.7544196176583,"Sunday - Thursday : 6:00 AM-11:00 PM, Friday - Saturday6:00 AM-11:00 PM",,
Cracker Barrel,930877117,1880 State Rd. 60 E.,SR 60 & Valrico Rd.,Valrico,FL,33594-3622,US,813-662-0607,27.9385921,-82.2567772,"Sunday - Thursday : 6:00 AM-11:00 PM, Friday - Saturday6:00 AM-11:00 PM",,
Cracker Barrel,930877123,13833 W. Hillsborough Ave.,SR 580 & Racetrack Rd.,Tampa,FL,33635-9655,US,813-855-4200,28.0337479,-82.6484081,"Sunday - Thursday : 6:00 AM-11:00 PM, Friday - Saturday6:00 AM-11:00 PM",,
Cracker Barrel,930877670,1175 Palm Bay Rd.,Palm Bay Rd. & Dairy Rd.,Melbourne,FL,32905-3726,US,321-952-7555,28.03535,-80.63976,"Sunday - Thursday : 6:00 AM-11:00 PM, Friday - Saturday6:00 AM-11:00 PM",,
Cracker Barrel,930877561,1114 N. Westover Blvd.,U.S. 82 & Nottingham Way,Albany,GA,31707-6655,US,229-420-0058,31.61698,-84.21143,"Sunday - Thursday : 6:00 AM-11:00 PM, Friday - Saturday6:00 AM-11:00 PM",,
Cracker Barrel,930877591,4011 Ulmerton Rd.,Ulmerton Road/SR 686,Clearwater,FL,33762-4106,US,727-572-8685,27.8939506808698,-82.688126512195,"Sunday - Thursday : 6:00 AM-11:00 PM, Friday - Saturday6:00 AM-11:00 PM",,
Cracker Barrel,930877247,59 Cane Branch Rd.,I-95 & SR 63,Walterboro,SC,29488-8321,US,843-538-7800,32.8783559522489,-80.7194990486002,"Sunday - Thursday : 6:00 AM-11:00 PM, Friday - Saturday6:00 AM-11:00 PM",,
Cracker Barrel,930877207,2151 54th Ave. N.,I-275 & 54th Ave. N.,St. Petersburg,FL,33714-2078,US,727-526-0031,27.8210291,-82.7067568,"Sunday - Thursday : 6:00 AM-11:00 PM, Friday - Saturday6:00 AM-11:00 PM",,
Cracker Barrel,930877347,101 Lect Drive,I-75 & State Route 127,Perry,GA,31069-3155,US,478-987-2242,32.44677,-83.75247,"Sunday - Thursday : 6:00 AM-11:00 PM, Friday - Saturday6:00 AM-11:00 PM",,
Cracker Barrel,945128906,2700 Watson Blvd.,Watson Blvd & Carl Vinson Pkwy,Warner Robins,GA,31093-2988,US,478-953-1818,32.61829,-83.66924,"Sunday - Thursday : 6:00 AM-11:00 PM, Friday - Saturday6:00 AM-11:00 PM",,
Cracker Barrel,930877360,9380 19th Lane,I-95 & S R 60,Vero Beach,FL,32966-3070,US,772-563-0066,27.63792,-80.5200380243835,"Sunday - Thursday : 6:00 AM-11:00 PM, Friday - Saturday6:00 AM-11:00 PM",,
Cracker Barrel,930877513,211 N Sandy Creek Drive,I-65 & US 50,Seymour,IN,47274-8556,US,812-522-3122,38.9587705396081,-85.8477998737231,"Sunday - Thursday : 6:00 AM-11:00 PM, Friday - Saturday6:00 AM-11:00 PM",,
Cracker Barrel,930877489,6050 National Road East,I-70 & US 40,Richmond,IN,47374-2626,US,765-935-0881,39.8330901003345,-84.821716187291,"Sunday - Thursday : 6:00 AM-11:00 PM, Friday - Saturday6:00 AM-11:00 PM",,
Cracker Barrel,930877574,1265 Allen Street,I-65 & SR 56,Scottsburg,IN,47170-1111,US,812-752-9346,38.6833611437655,-85.7840672233918,"Sunday - Thursday : 6:00 AM-11:00 PM, Friday - Saturday6:00 AM-11:00 PM",,
Cracker Barrel,930877142,615 Ring Road,I-74 & New Haven Rd,Harrison,OH,45030-2766,US,513-202-1400,39.2604748596395,-84.7960981155107,"Sunday - Thursday : 6:00 AM-11:00 PM, Friday - Saturday6:00 AM-11:00 PM",,
Cracker Barrel,930877226,11993 Chase Plz,I-275 & Winton Road,Forest Park,OH,45240-1943,US,513-648-9655,39.2966987675898,-84.5252338564194,"Sunday - Thursday : 6:00 AM-11:00 PM, Friday - Saturday6:00 AM-11:00 PM",,
Cracker Barrel,930877382,7399 Turfway Road,I-75 & Turfway Road,Florence,KY,41042-4850,US,859-283-0101,39.01656,-84.63423,"Sunday - Thursday : 6:00 AM-11:00 PM, Friday - Saturday6:00 AM-11:00 PM",,
Cracker Barrel,930877167,350 Triangle Rd.,I-65 & CR 311,Sellersburg,IN,47172-1744,US,812-246-0740,38.3942784472878,-85.7594994658137,"Sunday - Thursday : 6:00 AM-11:00 PM, Friday - Saturday6:00 AM-11:00 PM",,
Cracker Barrel,930877583,2255 Sharon Rd,I-75 & Sharon Road,Sharonville,OH,45241-1870,US,513-771-3207,39.269980625,-84.4375668055556,"Sunday - Thursday : 6:00 AM-11:00 PM, Friday - Saturday6:00 AM-11:00 PM",,
Cracker Barrel,930877216,3280 Towne Blvd.,I-75 & SR 122,Middletown,OH,45044-8943,US,513-727-4727,39.4918155485822,-84.3302951828607,"Sunday - Thursday : 6:00 AM-11:00 PM, Friday - Saturday6:00 AM-11:00 PM",,
Cracker Barrel,930877200,1414 East Crystal Drive,I-71 & SR53,Lagrange,KY,40031-1262,US,502-222-1156,38.40255,-85.37378,"Sunday - Thursday : 6:00 AM-11:00 PM, Friday - Saturday6:00 AM-11:00 PM",,
Cracker Barrel,930877193,4902 Fields Ertel Road,I-71 & Fields Ertel Road,Cincinnati,OH,45249-8202,US,513-683-5446,39.2926304081633,-84.3130459183673,"Sunday - Thursday : 6:00 AM-11:00 PM, Friday - Saturday6:00 AM-11:00 PM",,
Cracker Barrel,930877256,7171 Miller Lane,I-75 & Benchwood/Wyse Road,Dayton,OH,45414-2601,US,937-890-0047,39.8509971186441,-84.1919799152542,"Sunday - Thursday : 6:00 AM-11:00 PM, Friday - Saturday6:00 AM-11:00 PM",,
Cracker Barrel,930877314,2393 Pacer Court NW,I-64 & SR 135,Corydon,IN,47112-2075,US,812-734-0407,38.2377150542932,-86.1342200732376,"Sunday - Thursday : 6:00 AM-11:00 PM, Friday - Saturday6:00 AM-11:00 PM",,
Cracker Barrel,930877284,980 E. Ash St.,I-75 & US 36,Piqua,OH,45356-4104,US,937-773-6605,40.15125,-84.22385,"Sunday - Thursday : 6:00 AM-11:00 PM, Friday - Saturday6:00 AM-11:00 PM",,
Cracker Barrel,945128897,475 River's Edge Drive,I-275 & US 50,Milford,OH,45150-2589,US,513-831-6635,39.161284230078,-84.2738133891258,"Sunday - Thursday : 6:00 AM-11:00 PM, Friday - Saturday6:00 AM-11:00 PM",,
Cracker Barrel,930877159,5770 Wilmington Pike,I-675 & Wilmington Pike,Centerville,OH,45459-7003,US,937-432-2431,39.6592396835003,-84.10925203165,"Sunday - Thursday : 6:00 AM-11:00 PM, Friday - Saturday6:00 AM-11:00 PM",,
Cracker Barrel,930877485,2701 Crittenden Dr,I-65 & Crittenden Dr,Louisville,KY,40209-1113,US,502-636-2263,38.20545,-85.75079,"Sunday - Thursday : 6:00 AM-11:00 PM, Friday - Saturday6:00 AM-11:00 PM",,
Cracker Barrel,930877188,1401 Kentucky Mills Drive,I-64 & Blankenbaker Road,Jeffersontown,KY,40299-6310,US,502-266-8895,38.2221577072318,-85.540547768159,"Sunday - Thursday : 6:00 AM-11:00 PM, Friday - Saturday6:00 AM-11:00 PM",,
Cracker Barrel,930877373,1131 Fashion Ridge Rd,I-75 & SR 22,Dry Ridge,KY,41035-9609,US,859-823-0273,38.6854738486184,-84.6026319368505,"Sunday - Thursday : 6:00 AM-11:00 PM, Friday - Saturday6:00 AM-11:00 PM",,
Cracker Barrel,930877189,10150 Brookridge Village Blvd.,I-265 & Bardstown Road,Louisville,KY,40291-4448,US,502-231-4663,38.14504,-85.58314,"Sunday - Thursday : 6:00 AM-11:00 PM, Friday - Saturday6:00 AM-11:00 PM",,
Cracker Barrel,1648824375,11000 Dixie Hwy,,Louisville,KY,40272,US,502-995-2605,38.09553,-85.87396,"Sunday - Thursday : 6:00 AM-11:00 PM, Friday - Saturday6:00 AM-11:00 PM",,
Cracker Barrel,930877218,1565 Mt. Eden Rd.,I-64 & SR 53,Shelbyville,KY,40065-8896,US,502-633-9945,38.1974528596972,-85.2093251414948,"Sunday - Thursday : 6:00 AM-11:00 PM, Friday - Saturday6:00 AM-11:00 PM",,
Cracker Barrel,930877330,275 Brenton Way,I-65 & Brooks Road,Shepherdsville,KY,40165-9226,US,502-955-4008,38.0647503030303,-85.6959236363636,"Sunday - Thursday : 6:00 AM-11:00 PM, Friday - Saturday6:00 AM-11:00 PM",,
Cracker Barrel,930877248,105 West Leffel Lane,I-70 & SR 72,Springfield,OH,45506-3521,US,937-325-8221,39.894981372549,-83.8143005882353,"Sunday - Thursday : 6:00 AM-11:00 PM, Friday - Saturday6:00 AM-11:00 PM",,
Cracker Barrel,930877335,1930 Roschman Drive,I-75 & SR 309,Lima,OH,45804-3444,US,419-222-0055,40.7273496555713,-84.0723924110008,"Sunday - Thursday : 6:00 AM-11:00 PM, Friday - Saturday6:00 AM-11:00 PM",,
Cracker Barrel,1240193388,161 Bizzack Blvd,I-64 & Hwy 60,Frankfort,KY,40601-,US,502-848-4035,38.1715648979592,-84.8188732653061,"Sunday - Thursday : 6:00 AM-11:00 PM, Friday - Saturday6:00 AM-11:00 PM",,
Cracker Barrel,930877339,1454 Cherry Blossom Way,I-75 & US 62,Georgetown,KY,40324-8952,US,502-863-5670,38.2212866074691,-84.5405742385673,"Sunday - Thursday : 6:00 AM-11:00 PM, Friday - Saturday6:00 AM-11:00 PM",,
Cracker Barrel,1326991909,10 Old Filiatreau Ln,,Bardstown,KY,40004,US,502-350-1333,37.79855,-85.43134,"Sunday - Thursday : 6:00 AM-11:00 PM, Friday - Saturday6:00 AM-11:00 PM",,
Cracker Barrel,930877158,8215 Eagel Lake Drive,I-164 & Lloyd Expressway,Evansville,IN,47715-8149,US,812-479-8788,37.9758322337528,-87.4545423154968,"Sunday - Thursday : 6:00 AM-11:00 PM, Friday - Saturday6:00 AM-11:00 PM",,
Cracker Barrel,930877644,1047 Executive Drive,I-65 & US 62,Elizabethtown,KY,42701-1272,US,270-765-5525,37.7106823657181,-85.8326156065235,"Sunday - Thursday : 6:00 AM-11:00 PM, Friday - Saturday6:00 AM-11:00 PM",,
Cracker Barrel,930877328,1927 Stanton Way,I-75 & Newtown Pike,Lexington,KY,40511-1350,US,859-233-7684,38.1013823463301,-84.481826083206,"Sunday - Thursday : 6:00 AM-11:00 PM, Friday - Saturday6:00 AM-11:00 PM",,
Cracker Barrel,930877543,5311 Frederica St,US 431 & Bypass 60,Owensboro,KY,42301-7445,US,270-684-4118,37.7143,-87.12599,"Sunday - Thursday : 6:00 AM-11:00 PM, Friday - Saturday6:00 AM-11:00 PM",,
Cracker Barrel,930877321,2220 Elkhorn Road,I-75 & Winchester Road,Lexington,KY,40505-4840,US,859-293-2555,38.0448161036613,-84.4229376429323,"Sunday - Thursday : 6:00 AM-11:00 PM, Friday - Saturday6:00 AM-11:00 PM",,
Cracker Barrel,930877138,2130 US Highway 60 E,US Hwy 60 & Barrett Road,Henderson,KY,42420-2443,US,270-826-5482,37.8596404,-87.5666521,"Sunday - Thursday : 6:00 AM-11:00 PM, Friday - Saturday6:00 AM-11:00 PM",,
Cracker Barrel,930877305,4210 Marlane Drive,I-71 & Stringtown Road,Grove City,OH,43123-2969,US,614-871-1444,39.8773194346223,-83.0533131876515,"Sunday - Thursday : 6:00 AM-11:00 PM, Friday - Saturday6:00 AM-11:00 PM",,
Cracker Barrel,930877292,1313 Hilliard Rome Rd,I-70 & Hilliard-Rome Road,Columbus,OH,43228-9799,US,614-878-2027,39.9801689818291,-83.1507359266967,"Sunday - Thursday : 6:00 AM-11:00 PM, Friday - Saturday6:00 AM-11:00 PM",,
Cracker Barrel,930877325,1860 Winderly Lane,I-70 & SR 256,Pickerington,OH,43147-8636,US,614-759-7799,39.9314040700625,-82.7906693315281,"Sunday - Thursday : 6:00 AM-11:00 PM, Friday - Saturday6:00 AM-11:00 PM",,
Cracker Barrel,991550273,4089 Lexington Rd,US Hwy. 27 & Brannon Road,Nicholasville,KY,40356-9242,US,859-273-1344,37.9541645856951,-84.5401069318303,"Sunday - Thursday : 6:00 AM-11:00 PM, Friday - Saturday6:00 AM-11:00 PM",,
Cracker Barrel,930877372,1031 Interstate Court,I-75 & US 224,Findlay,OH,45840-1972,US,419-425-2008,41.05975,-83.6700328571429,"Sunday - Thursday : 6:00 AM-11:00 PM, Friday - Saturday6:00 AM-11:00 PM",,
Cracker Barrel,930877545,40 Cassidy Avenue,US 127 & US 150,Danville,KY,40422-8457,US,859-936-7792,37.6153685241164,-84.7760084245388,"Sunday - Thursday : 6:00 AM-11:00 PM, Friday - Saturday6:00 AM-11:00 PM",,
Cracker Barrel,930877345,60 Fourwinds Drive,I-71 & US 36/SR 37,Sunbury,OH,43074-9673,US,740-362-2270,40.266231875,-82.93499625,"Sunday - Thursday : 6:00 AM-11:00 PM, Friday - Saturday6:00 AM-11:00 PM",,
Cracker Barrel,930877369,225 Scenic Crest Drive,I-70 & Underwood Street,Zanesville,OH,43701-4090,US,740-450-8985,39.9442937280811,-82.0000489911078,"Sunday - Thursday : 6:00 AM-11:00 PM, Friday - Saturday6:00 AM-11:00 PM",,
Cracker Barrel,930877106,100 Stander Avenue,I-71/SR 13 & Opossum Run Rd,Mansfield,OH,44903-9405,US,419-774-9800,40.69384,-82.51138,"Sunday - Thursday : 6:00 AM-11:00 PM, Friday - Saturday6:00 AM-11:00 PM",,
Cracker Barrel,930877379,2329 Southgate Parkway,I-70 & SR 209,Cambridge,OH,43725-3035,US,740-439-4599,40.0018487402288,-81.5770417581727,"Sunday - Thursday : 6:00 AM-11:00 PM, Friday - Saturday6:00 AM-11:00 PM",,
Cracker Barrel,930877319,110 Stone Trace Drive,I-64 & US 460,Mount Sterling,KY,40353-9386,US,859-499-0200,38.0798771006266,-83.9509759430059,"Sunday - Thursday : 6:00 AM-11:00 PM, Friday - Saturday6:00 AM-11:00 PM",,
Cracker Barrel,930877643,1797 Lexington Road,I-75 & Hwy 25,Richmond,KY,40475-2803,US,859-623-0037,37.7685489739236,-84.3111709335598,"Sunday - Thursday : 6:00 AM-11:00 PM, Friday - Saturday6:00 AM-11:00 PM",,
Cracker Barrel,930877632,1395 Ford Street,I-475 & Dussel Road,Maumee,OH,43537-1732,US,419-482-6096,41.5795370287828,-83.6805317769815,"Sunday - Thursday : 6:00 AM-11:00 PM, Friday - Saturday6:00 AM-11:00 PM",,
Cracker Barrel,930877107,40 Old Nicholette Rd,I-77 & SR 14,Mineral Wells,WV,26150-6702,US,304-489-2382,39.19125,-81.53144,"Sunday - Thursday : 6:00 AM-11:00 PM, Friday - Saturday6:00 AM-11:00 PM",,
Cracker Barrel,930877526,4216 Milan Rd,US 250 & Hull Road,Sandusky,OH,44870-5834,US,419-626-6125,41.4181128,-82.6739728,"Sunday - Thursday : 7:00 AM-11:00 PM, Friday - Saturday7:00 AM-11:00 PM",,
Cracker Barrel,930877324,6940 Sunset Strip Ave. N.W.,I-77 & Portage Street,North Canton,OH,44720-7075,US,330-966-1144,40.882024311287,-81.4338815546403,"Sunday - Thursday : 6:00 AM-11:00 PM, Friday - Saturday6:00 AM-11:00 PM",,
Cracker Barrel,930877299,4425 Fairfax Drive,I-57/I-64 & SR 15,Mount Vernon,IL,62864-6726,US,618-242-9110,38.3152672193547,-88.9541741443549,"Sunday - Thursday : 6:00 AM-11:00 PM, Friday - Saturday6:00 AM-11:00 PM",,
Cracker Barrel,1433709478,1698 Flemingsburg Rd,I-64 & Hwy 32,Morehead,KY,40351,US,606-784-2545,38.1907,-83.47776,"Sunday - Thursday : 6:00 AM-11:00 PM, Friday - Saturday6:00 AM-11:00 PM",,
Cracker Barrel,930877592,101 McKinney Drive,I-75 & Kentucky Highway 21,Berea,KY,40403-1688,US,859-986-0512,37.56854,-84.31102,"Sunday - Thursday : 6:00 AM-11:00 PM, Friday - Saturday6:00 AM-11:00 PM",,
Cracker Barrel,930877390,27491 Helen Drive,I-75 & SR 23,Perrysburg,OH,43551-3375,US,419-874-7481,41.5517184821429,-83.5983224107143,"Sunday - Thursday : 6:00 AM-11:00 PM, Friday - Saturday6:00 AM-11:00 PM",,
Cracker Barrel,930877246,800 Happy Valley Street,I-65 & SR 70/90,Cave City,KY,42127-8412,US,270-773-4723,37.13399,-85.97211,"Sunday - Thursday : 6:00 AM-11:00 PM, Friday - Saturday6:00 AM-11:00 PM",,
Cracker Barrel,930877349,76 Rothrock Loop,"I-77 & S.R. 18 E., Exit 137A",Akron,OH,44321-1331,US,330-666-0279,41.1339305147718,-81.6473916412046,"Sunday - Thursday : 6:00 AM-11:00 PM, Friday - Saturday6:00 AM-11:00 PM",,
Cracker Barrel,930877362,5205 Detroit Rd.,I-90 & North Ridge Rd,Sheffield Lake,OH,44054-2902,US,440-934-7777,41.4250230612245,-82.0810848979592,"Sunday - Thursday : 6:00 AM-11:00 PM, Friday - Saturday6:00 AM-11:00 PM",,
Cracker Barrel,930877401,67781 Mall Rd,I-70 & Mall Road,Saint Clairsville,OH,43950-1701,US,740-699-2662,40.06943,-80.86344,"Sunday - Thursday : 6:00 AM-11:00 PM, Friday - Saturday6:00 AM-11:00 PM",,
Cracker Barrel,930877195,3 Cracker Barrel Drive,I-64 & US 60,Barboursville,WV,25504-1622,US,304-733-3450,38.4156,-82.25808,"Sunday - Thursday : 6:00 AM-11:00 PM, Friday - Saturday6:00 AM-11:00 PM",,
Cracker Barrel,930877539,1780 E. Center Street,I-69 & SR 70,Madisonville,KY,42431-2253,US,270-821-5444,37.3275374,-87.4779977,"Sunday - Thursday : 6:00 AM-11:00 PM, Friday - Saturday6:00 AM-11:00 PM",,
Cracker Barrel,930877201,1960 Mel Browning Street,I-65 & US 231,Bowling Green,KY,42104-0310,US,270-843-8087,36.9309366117045,-86.4179240494659,"Sunday - Thursday : 6:00 AM-11:00 PM, Friday - Saturday6:00 AM-11:00 PM",,
Cracker Barrel,945128903,5100 Tiedeman Rd,I-480 & Tiedeman Road,Brooklyn,OH,44144-2306,US,216-898-1822,41.4221488695723,-81.7594632629718,"Sunday - Thursday : 6:00 AM-11:00 PM, Friday - Saturday6:00 AM-11:00 PM",,
Cracker Barrel,930877224,4367 State route 44,I-76 & SR 44,Rootstown,OH,44272-9699,US,330-325-9970,41.1078,-81.24253,"Sunday - Thursday : 6:00 AM-11:00 PM, Friday - Saturday6:00 AM-11:00 PM",,
Cracker Barrel,930877220,2371 East Aurora Road,I-480 & SR 82,Twinsburg,OH,44087-1927,US,330-405-0727,41.3113905678448,-81.4539002508658,"Sunday - Thursday : 6:00 AM-11:00 PM, Friday - Saturday6:00 AM-11:00 PM",,
Cracker Barrel,930877235,11 Goff Xing,I-64 & SR 622,Cross Lanes,WV,25313-4412,US,304-769-0081,38.4091317198934,-81.7972773574693,"Sunday - Thursday : 6:00 AM-11:00 PM, Friday - Saturday6:00 AM-11:00 PM",,
Cracker Barrel,930877186,1101 Ternes Drive,I-75 & Dixie Highway,Monroe,MI,48162-5002,US,734-243-0721,41.9242144052978,-83.3633512287097,"Sunday - Thursday : 6:00 AM-11:00 PM, Friday - Saturday6:00 AM-11:00 PM",,
Cracker Barrel,930877645,5720 MacCorkle Ave SE,I-64/77 & MacCorkle,Charleston,WV,25304-2804,US,304-925-6004,38.3129008001386,-81.5667713335644,"Sunday - Thursday : 6:00 AM-11:00 PM, Friday - Saturday6:00 AM-11:00 PM",,
Cracker Barrel,930877113,6055 SOM Center Rd,I-90 & SOM Center Road,Willoughby,OH,44094-9153,US,440-516-1775,41.6046717391304,-81.4398817391304,"Sunday - Thursday : 6:00 AM-11:00 PM, Friday - Saturday6:00 AM-11:00 PM",,
Cracker Barrel,930877409,5600 Interstate Blvd.,I-80 & SR 46,Austintown,OH,44515-1100,US,330-652-7227,41.12096,-80.7723,"Sunday - Thursday : 6:00 AM-11:00 PM, Friday - Saturday6:00 AM-11:00 PM",,
Cracker Barrel,930877495,1008 Trinity Circle,I-70 & US 19,Washington,PA,15301-2972,US,724-222-7050,40.1855283914968,-80.2226205673656,"Sunday - Thursday : 6:00 AM-11:00 PM, Friday - Saturday6:00 AM-11:00 PM",,
Cracker Barrel,930877560,200 Davis Blvd,SR 60and US 22,Pittsburgh,PA,15275-1215,US,412-788-1103,40.449718974298,-80.1727225214183,"Sunday - Thursday : 6:00 AM-11:00 PM, Friday - Saturday6:00 AM-11:00 PM",,
Cracker Barrel,930877346,2206 Pleasant Valley Road,I-79 & CR 64,Fairmont,WV,26554-8569,US,304-363-2884,39.4401038874441,-80.167574629148,"Sunday - Thursday : 6:00 AM-11:00 PM, Friday - Saturday6:00 AM-11:00 PM",,
Cracker Barrel,930877387,45525 N I94 Service Dr,I-94 & Belleville Road,Belleville,MI,48111-2466,US,734-697-5299,42.221005,-83.4874709,"Sunday - Thursday : 6:00 AM-11:00 PM, Friday - Saturday6:00 AM-11:00 PM",,
Cracker Barrel,930877628,2000 University Town Centre Dr,I-79 & Hwy 19/7,Morgantown,WV,26501-2272,US,304-598-5651,39.65163,-80.00398,"Sunday - Thursday : 6:00 AM-11:00 PM, Friday - Saturday6:00 AM-11:00 PM",,
Cracker Barrel,930877414,30750 Little Mack Road,"I-94 & Little Mack Ave., Exit 232",Roseville,MI,48066-1761,US,586-293-5066,42.5218608053691,-82.9088085234899,"Sunday - Thursday : 6:00 AM-11:00 PM, Friday - Saturday6:00 AM-11:00 PM",,
Cracker Barrel,930877231,2112 Harper Road,I-64/77 & SR 3,Beckley,WV,25801-2616,US,304-256-3820,37.7966136579024,-81.2194418881828,"Sunday - Thursday : 6:00 AM-11:00 PM, Friday - Saturday6:00 AM-11:00 PM",,
Cracker Barrel,930877251,154 W Pennsylvania Avenue,I-70 & Center Avenue,New Stanton,PA,15672-9413,US,724-925-7144,40.2158776543819,-79.6117151842713,"Sunday - Thursday : 6:00 AM-11:00 PM, Friday - Saturday6:00 AM-11:00 PM",,
Cracker Barrel,930877359,7925 Conference Center Drive,I-96 & Grand River Rd.,Brighton,MI,48114-7327,US,810-220-4977,42.551021740118,-83.7917523661944,"Sunday - Thursday : 6:00 AM-11:00 PM, Friday - Saturday6:00 AM-11:00 PM",,
Cracker Barrel,930877488,11311 Pennsylvania Avenue,I-79 & US 322,Meadville,PA,16335-3649,US,814-337-0700,41.6228865346447,-80.1715472898922,"Sunday - Thursday : 6:00 AM-11:00 PM, Friday - Saturday6:00 AM-11:00 PM",,
Cracker Barrel,930877637,3203 Queen City Drive,I-85 & Mulberry Road,Charlotte,NC,28208-2730,US,704-393-2670,35.2404887755102,-80.9177855102041,"Sunday - Thursday : 6:00 AM-11:00 PM, Friday - Saturday6:00 AM-11:00 PM",,
Cracker Barrel,954099085,9330 E Independence Blvd,E. Independence Blvd. & Hwy. 74,Matthews,NC,28105-4508,US,704-321-2261,35.13918,-80.7174071428571,"Sunday - Thursday : 6:00 AM-11:00 PM, Friday - Saturday6:00 AM-11:00 PM",,
Cracker Barrel,930877613,295 Carowinds Blvd.,I-77 & US 21,Fort Mill,SC,29708-6203,US,803-802-7477,35.0958847606311,-80.9381549704315,"Sunday - Thursday : 6:00 AM-11:00 PM, Friday - Saturday6:00 AM-11:00 PM",,
Cracker Barrel,930877595,7809 Lyles Lane,I-85 & Speedway Blvd,Concord,NC,28027-7193,US,704-979-0404,35.3663972380975,-80.7124387301625,"Sunday - Thursday : 6:00 AM-11:00 PM, Friday - Saturday6:00 AM-11:00 PM",,
Cracker Barrel,930877635,1821 Remount Road,I-85 & New Hope Road,Gastonia,NC,28054-7413,US,704-866-7069,35.2697251476637,-81.1473319473763,"Sunday - Thursday : 6:00 AM-11:00 PM, Friday - Saturday6:00 AM-11:00 PM",,
Cracker Barrel,930877279,2140 Manna Court,I-77 & Dave Lyle Blvd,Rock Hill,SC,29730-6503,US,803-327-6141,34.9390255555556,-80.969252020202,"Sunday - Thursday : 6:00 AM-11:00 PM, Friday - Saturday6:00 AM-11:00 PM",,
Cracker Barrel,930877255,1175 Copperfield Blvd.- NE,"I-85 & Copperfield Blvd., Exit 60",Concord,NC,28025-2410,US,704-792-0277,35.46332,-80.58627,"Sunday - Thursday : 6:00 AM-11:00 PM, Friday - Saturday6:00 AM-11:00 PM",,
Cracker Barrel,930877219,123 Regency Center Drive,I-77 & SR 150,Mooresville,NC,28117-6870,US,704-660-6314,35.596,-80.86278,"Sunday - Thursday : 6:00 AM-11:00 PM, Friday - Saturday6:00 AM-11:00 PM",,
Cracker Barrel,930877622,1070 Free Land Drive,I-85 & Innes Street,Salisbury,NC,28144-5173,US,704-636-1873,35.6562780408865,-80.4638879597962,"Sunday - Thursday : 6:00 AM-11:00 PM, Friday - Saturday6:00 AM-11:00 PM",,
Cracker Barrel,930877366,1043 Glenway Drive,I-40 & US 21,Statesville,NC,28625-9205,US,704-878-0366,35.8084401092317,-80.8719150387608,"Sunday - Thursday : 6:00 AM-11:00 PM, Friday - Saturday6:00 AM-11:00 PM",,
Cracker Barrel,930877337,1250 11th Street Court SE,I-40 & SR 127,Hickory,NC,28602-5195,US,828-261-0508,35.7130683084438,-81.3175722889063,"Sunday - Thursday : 6:00 AM-11:00 PM, Friday - Saturday6:00 AM-11:00 PM",,
Cracker Barrel,930877289,8 Factory Shops Blvd,I-85 & SR 105,Gaffney,SC,29341-3321,US,864-489-3350,35.0821003561644,-81.7095549315068,"Sunday - Thursday : 6:00 AM-11:00 PM, Friday - Saturday6:00 AM-11:00 PM",,
Cracker Barrel,930877293,12 Plaza Parkway,I-85 & SR 8,Lexington,NC,27292-5350,US,336-242-1212,35.7836,-80.2593,"Sunday - Thursday : 6:00 AM-11:00 PM, Friday - Saturday6:00 AM-11:00 PM",,
Cracker Barrel,-507350902,135 Bush Drive,I-40 & S.R. 18,Morganton,NC,28655,US,828-433-7665,35.7235930725777,-81.6541542846618,"Sunday - Thursday : 6:00 AM-11:00 PM, Friday - Saturday6:00 AM-11:00 PM",,
Cracker Barrel,930877384,6420 Sessions Court,I-40 & CR 113,Clemmons,NC,27012-8930,US,336-712-9880,36.0323767441861,-80.3849125581395,"Sunday - Thursday : 6:00 AM-11:00 PM, Friday - Saturday6:00 AM-11:00 PM",,
Cracker Barrel,930877658,9021 Fairforest Road,I-85 Business,Spartanburg,SC,29301-1135,US,864-576-6949,34.9663044262295,-82.0006654098361,"Sunday - Thursday : 6:00 AM-11:00 PM, Friday - Saturday6:00 AM-11:00 PM",,
Cracker Barrel,930877282,1717 Nc Highway 67,I-77 & SR 67,Jonesville,NC,28642-9247,US,336-835-6011,36.2399384,-80.815399,"Sunday - Thursday : 6:00 AM-11:00 PM, Friday - Saturday6:00 AM-11:00 PM",,
Cracker Barrel,966173445,1525 E Main St,I-85 & Hwy. 290,Duncan,SC,29334-9218,US,864-486-3699,34.909925,-82.10314,"Sunday - Thursday : 6:00 AM-11:00 PM, Friday - Saturday6:00 AM-11:00 PM",,
Cracker Barrel,945128889,253 Forum DR,Clemson Rd & Two Notch Rd,Columbia,SC,29229-7934,US,803-788-2052,34.1317182273209,-80.8774456275837,"Sunday - Thursday : 6:00 AM-11:00 PM, Friday - Saturday6:00 AM-11:00 PM",,
Cracker Barrel,930877399,4402 Landview Drive,I-40 & Wendover Avenue,Greensboro,NC,27407-2641,US,336-294-0911,36.0567006460108,-79.89574,"Sunday - Thursday : 6:00 AM-11:00 PM, Friday - Saturday6:00 AM-11:00 PM",,
Cracker Barrel,930877194,2300 LeGrand Road,I-77 & Legrand Road,Columbia,SC,29223-5702,US,803-699-5389,34.09809,-80.95618,"Sunday - Thursday : 6:00 AM-11:00 PM, Friday - Saturday6:00 AM-11:00 PM",,
Cracker Barrel,930877598,3701 Elmsley Ct,I-85 & South Elm-Eugene Street,Greensboro,NC,27406-9501,US,336-274-1853,36.0042,-79.79459,"Sunday - Thursday : 6:00 AM-11:00 PM, Friday - Saturday6:00 AM-11:00 PM",,
Cracker Barrel,930877625,1140 Kinley Road,I-26 & Lake Murray Road,Irmo,SC,29063-9633,US,803-732-2835,34.0918950113991,-81.1619700375498,"Sunday - Thursday : 6:00 AM-11:00 PM, Friday - Saturday6:00 AM-11:00 PM",,
Cracker Barrel,1298163507,10975 US Hwy. 15-501,,Southern Pines,NC,28387,US,910-246-2024,35.1603667207358,-79.4190815698365,"Sunday - Thursday : 6:00 AM-11:00 PM, Friday - Saturday6:00 AM-11:00 PM",,
Cracker Barrel,1507354055,1601 Blowing Rock Road,,Boone,NC,28607,US,828-264-4425,36.2006280985246,-81.6608965632694,"Sunday - Thursday : 6:00 AM-11:00 PM, Friday - Saturday6:00 AM-11:00 PM",,
Cracker Barrel,930877640,2208 Bush River Road,I-20 & Bush River Road,Columbia,SC,29210-5627,US,803-731-0672,34.032517011744,-81.1236207577459,"Sunday - Thursday : 6:00 AM-11:00 PM, Friday - Saturday6:00 AM-11:00 PM",,
Cracker Barrel,930877659,1134 Woodruff Road,I-85 & Woodruff Road,Greenville,SC,29607-4118,US,864-286-6051,34.82824,-82.301715,"Sunday - Thursday : 6:00 AM-11:00 PM, Friday - Saturday6:00 AM-11:00 PM",,
Cracker Barrel,930877209,3954 Grandview Drive,I-385 & Fairview Road,Simpsonville,SC,29680-3163,US,864-967-4881,34.7090258111948,-82.2450674295687,"Sunday - Thursday : 6:00 AM-11:00 PM, Friday - Saturday6:00 AM-11:00 PM",,
Cracker Barrel,-502022932,1948 Rockford Street,US Hwy 52 & US Hwy 601,Mount Airy,NC,27030,US,336-719-0514,36.484634,-80.6126822,"Sunday - Thursday : 6:00 AM-11:00 PM, Friday - Saturday6:00 AM-11:00 PM",,
Cracker Barrel,930877199,105 Commercial Blvd,I-26 & Upward Road,Flat Rock,NC,28731-7747,US,828-692-5560,35.2962381349257,-82.4099634067463,"Sunday - Thursday : 6:00 AM-11:00 PM, Friday - Saturday6:00 AM-11:00 PM",,
Cracker Barrel,930877105,1824 West Lucas Street,I-95 & U.S. 52,Florence,SC,29501-1230,US,843-662-9023,34.2261891,-79.7969988,"Sunday - Thursday : 6:00 AM-11:00 PM, Friday - Saturday6:00 AM-11:00 PM",,
Cracker Barrel,930877354,850 Huffman Mill Road,I-85 & Huffman Mill Road,Burlington,NC,27215-5151,US,336-584-3833,36.0687191666667,-79.4967241666667,"Sunday - Thursday : 6:00 AM-11:00 PM, Friday - Saturday6:00 AM-11:00 PM",,
Cracker Barrel,930877135,344 Rockwood Rd,I-26 & Airport Road (Fletcher),Arden,NC,28704-8514,US,828-684-2740,35.4460372640252,-82.5377839440203,"Sunday - Thursday : 6:00 AM-11:00 PM, Friday - Saturday6:00 AM-11:00 PM",,
Cracker Barrel,930877606,591 Hwy 183,I-85 & Highway 153,Piedmont,SC,29673-8207,US,864-220-9232,34.7758782808667,-82.4651823440603,"Sunday - Thursday : 6:00 AM-11:00 PM, Friday - Saturday6:00 AM-11:00 PM",,
Cracker Barrel,990711790,3212 NC 87 HWY SOUTH,Hwy. 87 & Hwy. 421,Sanford,NC,27330,US,919-718-0033,35.4477306543294,-79.130847435244,"Sunday - Thursday : 6:00 AM-11:00 PM, Friday - Saturday6:00 AM-11:00 PM",,
Cracker Barrel,930877126,34 Tunnel Road,I-240 & Tunnel Road,Asheville,NC,28805-1230,US,828-350-7531,35.5963932199598,-82.5339956303093,"Sunday - Thursday : 6:00 AM-11:00 PM, Friday - Saturday6:00 AM-11:00 PM",,
Cracker Barrel,930877230,5 Crowell Road,I-40 & US 19/23,Asheville,NC,28806-1104,US,828-665-2221,35.5614541138208,-82.6363048834671,"Sunday - Thursday : 6:00 AM-11:00 PM, Friday - Saturday6:00 AM-11:00 PM",,
Cracker Barrel,930877564,101 Commons Drive,US 72 Bypass & Commons Drive,Greenwood,SC,29649-1335,US,864-229-9026,34.20577,-82.19158,"Sunday - Thursday : 6:00 AM-11:00 PM, Friday - Saturday6:00 AM-11:00 PM",,
Cracker Barrel,930877576,135 Spring Forrest Drive,I-40/85 & NC Hwy 119,Mebane,NC,27302-7184,US,919-304-9932,36.0667944509941,-79.2966080250594,"Sunday - Thursday : 6:00 AM-11:00 PM, Friday - Saturday6:00 AM-11:00 PM",,
Cracker Barrel,2117851781,1470 Skibo Road,,Fayetteville,NC,28303,US,910-764-0225,35.0824852270138,-78.9539806441551,"Sunday - Thursday : 6:00 AM-11:00 PM, Friday - Saturday6:00 AM-11:00 PM",,
Cracker Barrel,930877197,3375 Lackey Street,I-95 & SR 211,Lumberton,NC,28360-9044,US,910-738-1481,34.6438643130524,-79.0150796049229,"Sunday - Thursday : 6:00 AM-11:00 PM, Friday - Saturday6:00 AM-11:00 PM",,
Cracker Barrel,930877496,126 Interstate Blvd.,I-85 & SR 78/US 76,Anderson,SC,29621-2319,US,864-225-4566,34.5772373736862,-82.7119894854454,"Sunday - Thursday : 6:00 AM-11:00 PM, Friday - Saturday6:00 AM-11:00 PM",,
Cracker Barrel,930877241,1625 Jim Johnson Rd,I-95 & SR 210/53,Fayetteville,NC,28312-9126,US,910-323-2025,35.0100125258336,-78.8219780806372,"Sunday - Thursday : 6:00 AM-11:00 PM, Friday - Saturday6:00 AM-11:00 PM",,
Cracker Barrel,930877357,699 Citadel Rd,I-26 & US 601,Orangeburg,SC,29118-9720,US,803-536-4773,33.5561414213367,-80.823167756247,"Sunday - Thursday : 6:00 AM-11:00 PM, Friday - Saturday6:00 AM-11:00 PM",,
Cracker Barrel,930877225,2692 Boones Creek Road,I-26 & Boones Creek Rd,Johnson City,TN,37615-4448,US,423-282-8113,36.3744759686832,-82.4277148062634,"Sunday - Thursday : 6:00 AM-11:00 PM, Friday - Saturday6:00 AM-11:00 PM",,
Cracker Barrel,930877111,3703 Hillsborough Road,I-85 & Cole Mill Road,Durham,NC,27705-2905,US,919-309-2888,36.023887092054,-78.9562321718142,"Sunday - Thursday : 6:00 AM-11:00 PM, Friday - Saturday6:00 AM-11:00 PM",,
Cracker Barrel,930877192,909 Empire Drive,I-81 & U.S. 11,Abingdon,VA,24210-4111,US,276-628-4004,36.7149024669718,-81.931723139307,"Sunday - Thursday : 6:00 AM-11:00 PM, Friday - Saturday6:00 AM-11:00 PM",,
Cracker Barrel,930877273,160 Lithia Rd.,I-81/77 & Route 52/11,Wytheville,VA,24382-5120,US,276-228-1046,36.9482888319071,-81.0567787956985,"Sunday - Thursday : 6:00 AM-11:00 PM, Friday - Saturday6:00 AM-11:00 PM",,
Cracker Barrel,930877129,125 Village Circle,I-81 & Old Airport Road,Bristol,VA,24201-8301,US,276-591-3250,36.6300176381828,-82.1174869345597,"Sunday - Thursday : 6:00 AM-11:00 PM, Friday - Saturday6:00 AM-11:00 PM",,
Cracker Barrel,945128900,955 Airport Blvd,"Exit 284, I-40 & Airport Blvd",Morrisville,NC,27560-9194,US,919-463-9222,35.8581318011661,-78.8217072619194,"Sunday - Thursday : 6:00 AM-11:00 PM, Friday - Saturday6:00 AM-11:00 PM",,
Cracker Barrel,930877304,250 Britain Street,I-95 & SR 6,Santee,SC,29142-8936,US,803-854-3020,33.4852913790359,-80.4731971890288,"Sunday - Thursday : 6:00 AM-11:00 PM, Friday - Saturday6:00 AM-11:00 PM",,
Cracker Barrel,930877262,10132 Airport Pkwy,I-81 & State Route 357,Kingsport,TN,37663-3960,US,423-323-9212,36.5051567020183,-82.4315949726746,"Sunday - Thursday : 6:00 AM-11:00 PM, Friday - Saturday6:00 AM-11:00 PM",,
Cracker Barrel,930877572,1102 E. Cumberland Rd,I-95 & US Highway 421,Dunn,NC,28334-5137,US,910-892-7814,35.296765,-78.597285,"Sunday - Thursday : 6:00 AM-11:00 PM, Friday - Saturday6:00 AM-11:00 PM",,
Cracker Barrel,1423917009,2352 Whiskey Rd,,Aiken,SC,29803,US,803-648-0007,33.511297,-81.712573,"Sunday - Thursday : 6:00 AM-11:00 PM, Friday - Saturday6:00 AM-11:00 PM",,
Cracker Barrel,930877443,5199 NC Highway 42 W,I-40 & SR 42,Garner,NC,27529-8474,US,919-661-4044,35.607873,-78.561632,"Sunday - Thursday : 6:00 AM-11:00 PM, Friday - Saturday6:00 AM-11:00 PM",,
Cracker Barrel,930877329,30 Hampton Blvd.,I-81 & U.S. 460,Christiansburg,VA,24073-2708,US,540-382-2750,37.1389194424316,-80.352801254529,"Sunday - Thursday : 6:00 AM-11:00 PM, Friday - Saturday6:00 AM-11:00 PM",,
Cracker Barrel,945630683,544 N Belair Rd.,SR 383 & SR 104,Evans,GA,30809-3105,US,706-228-3018,33.5360348400004,-82.1290003450906,"Sunday - Thursday : 6:00 AM-11:00 PM, Friday - Saturday6:00 AM-11:00 PM",,
Cracker Barrel,930877393,460 Parkwest Drive,I-20 & Belair Road,Grovetown,GA,30813-3216,US,706-650-2414,33.48006,-82.1336586394959,"Sunday - Thursday : 6:00 AM-11:00 PM, Friday - Saturday6:00 AM-11:00 PM",,
Cracker Barrel,930877655,1021 Cosby Hwy,I-40 & SR 32,Newport,TN,37821-7323,US,423-623-0676,35.9453721105737,-83.2061720617368,"Sunday - Thursday : 6:00 AM-11:00 PM, Friday - Saturday6:00 AM-11:00 PM",,
Cracker Barrel,930877300,1109 Outlet Center Drive,,Smithfield,NC,27577-6028,US,919-989-2140,35.5087396,-78.3127843,"Sunday - Thursday : 6:00 AM-11:00 PM, Friday - Saturday6:00 AM-11:00 PM",,
Cracker Barrel,930877633,294 Meadowfield Lane,I-77 & US 460,Princeton,WV,24740-9585,US,304-425-4003,37.3614150030622,-81.0533558161994,"Sunday - Thursday : 6:00 AM-11:00 PM, Friday - Saturday6:00 AM-11:00 PM",,
Cracker Barrel,930877163,133 Cracker Road,I-81 & US 25E,Morristown,TN,37813-3960,US,423-586-4555,36.13953,-83.27811,"Sunday - Thursday : 6:00 AM-11:00 PM, Friday - Saturday6:00 AM-11:00 PM",,
Cracker Barrel,930877121,1208 N. Retail Court,US 17 & Pine Island Road,Myrtle Beach,SC,29577-9626,US,843-916-8241,33.7050692548405,-78.9216209388986,"Sunday - Thursday : 6:00 AM-11:00 PM, Friday - Saturday6:00 AM-11:00 PM",,
Cracker Barrel,930877565,1303 Tadlock Drive,US 17 & Tadlock,Murrells Inlet,SC,29576-7842,US,843-357-4372,33.5770453893676,-79.0273121833847,"Sunday - Thursday : 6:00 AM-11:00 PM, Friday - Saturday6:00 AM-11:00 PM",,
Cracker Barrel,930877398,1002 Ruin Creek Road,I-85 & Ruin Creek Road,Henderson,NC,27536-3483,US,252-431-9111,36.32437,-78.45009,"Sunday - Thursday : 6:00 AM-11:00 PM, Friday - Saturday6:00 AM-11:00 PM",,
Cracker Barrel,930877562,4835 Hwy 17 South,US 17 & South 48th Ave,North Myrtle Beach,SC,29582-5352,US,843-361-2221,33.7977389795918,-78.742433877551,"Sunday - Thursday : 6:00 AM-11:00 PM, Friday - Saturday6:00 AM-11:00 PM",,
Cracker Barrel,1127908432,1370 N Main St.,I-26 & Hwy. 17A,Summerville,SC,29483,US,843-871-3019,33.0371626829268,-80.1534231707317,"Sunday - Thursday : 6:00 AM-11:00 PM, Friday - Saturday6:00 AM-11:00 PM",,
Cracker Barrel,930877478,3960 Parkway,US 441,Pigeon Forge,TN,37863-3818,US,865-428-4613,35.7767862339367,-83.545138061125,"Sunday - Thursday : 6:00 AM-11:00 PM, Friday - Saturday6:00 AM-11:00 PM",,
Cracker Barrel,930877365,3153 Lee Hwy,I-81 & US 220,Troutville,VA,24175-6322,US,540-966-5438,37.391354076355,-79.8996880457902,"Sunday - Thursday : 6:00 AM-11:00 PM, Friday - Saturday6:00 AM-11:00 PM",,
Cracker Barrel,930877548,2285 Parkway,US 441 at Sugar Hollow,Pigeon Forge,TN,37863-2997,US,865-908-4459,35.8141700247907,-83.577982553719,"Sunday - Thursday : 6:00 AM-11:00 PM, Friday - Saturday6:00 AM-11:00 PM",,
Cracker Barrel,930877549,690 Winfield Dunn Pkwy,SR 66 & US 441,Sevierville,TN,37876-5510,US,865-908-3202,35.8801136363636,-83.5725045454545,"Sunday - Thursday : 6:00 AM-11:00 PM, Friday - Saturday6:00 AM-11:00 PM",,
Cracker Barrel,930877363,138 Eisenhower Drive,I-85 & US 441,Commerce,GA,30529-6227,US,706-335-3788,34.2575069648681,-83.4622614422454,"Sunday - Thursday : 6:00 AM-11:00 PM, Friday - Saturday6:00 AM-11:00 PM",,
Cracker Barrel,930877331,5006 Hayes Place West,I-95 & US 264,Wilson,NC,27896-9740,US,252-234-7600,35.764554,-78.007252,"Sunday - Thursday : 6:00 AM-11:00 PM, Friday - Saturday6:00 AM-11:00 PM",,
Cracker Barrel,930877607,154 Stadium Drive,I-40 & Highway 66,Kodak,TN,37764-1574,US,865-932-1840,35.98653,-83.60559,"Sunday - Thursday : 6:00 AM-11:00 PM, Friday - Saturday6:00 AM-11:00 PM",,
Cracker Barrel,930877397,7351 Mazyck Road,I-26 & Ashley Phosphate Road,North Charleston,SC,29406-6422,US,843-553-4232,32.9339,-80.04901,"Sunday - Thursday : 6:00 AM-11:00 PM, Friday - Saturday6:00 AM-11:00 PM",,
Cracker Barrel,930877462,1510 Cracker Barrel Lane,I-40 & Strawberry Plains Pike,Knoxville,TN,37914-9544,US,865-522-8232,36.0007794018002,-83.7776700962816,"Sunday - Thursday : 6:00 AM-11:00 PM, Friday - Saturday6:00 AM-11:00 PM",,
Cracker Barrel,945128905,1913 Epps Bridge Pkwy.,SR 10 Loop & Epps Bridge Pkwy.,Athens,GA,30606-6130,US,706-208-0304,33.9183151542686,-83.4427976291018,"Sunday - Thursday : 6:00 AM-11:00 PM, Friday - Saturday6:00 AM-11:00 PM",,
Cracker Barrel,930877555,3820 Wards Rd,Route 29/501 & Route 460,Lynchburg,VA,24502-2966,US,434-582-1940,37.3529486915888,-79.1836054205608,"Sunday - Thursday : 6:00 AM-11:00 PM, Friday - Saturday6:00 AM-11:00 PM",,
Cracker Barrel,1648824395,2183 North Hwy. 17,,Mt. Pleasant,SC,29466,US,843-884-5220,32.8408106,-79.8173522,"Sunday - Thursday : 7:00 AM-11:00 PM, Friday - Saturday7:00 AM-11:00 PM",,
Cracker Barrel,930877130,238 Enterprise Dr.,I-95 & US 64,Rocky Mount,NC,27804-9557,US,252-443-0679,35.9756921035275,-77.8443625696013,"Sunday - Thursday : 6:00 AM-11:00 PM, Friday - Saturday6:00 AM-11:00 PM",,
Cracker Barrel,945128929,2920 South Mall Rd,I-640 & Millertown Pike,Knoxville,TN,37917-2121,US,865-971-4421,36.0302166653638,-83.8822103295551,"Sunday - Thursday : 6:00 AM-11:00 PM, Friday - Saturday6:00 AM-11:00 PM",,
Cracker Barrel,930877556,771 Louisville Rd,US 129 & Louisville Road,Alcoa,TN,37701-1846,US,865-982-1277,35.7722872727273,-83.9871245454545,"Sunday - Thursday : 6:00 AM-11:00 PM, Friday - Saturday6:00 AM-11:00 PM",,
Cracker Barrel,930877528,21 Van Campen Blvd,Market Street at College Street,Wilmington,NC,28403-1639,US,910-794-1162,34.2444391216464,-77.8735732511132,"Sunday - Thursday : 6:00 AM-11:00 PM, Friday - Saturday6:00 AM-11:00 PM",,
Cracker Barrel,930877601,301 Exchange Way,I-85 & SR 53,Braselton,GA,30517-3529,US,706-658-0009,34.1092735,-83.7626729,"Sunday - Thursday : 6:00 AM-11:00 PM, Friday - Saturday6:00 AM-11:00 PM",,
Cracker Barrel,930877316,5001 Central Avenue Pike,I-75 & Merchants Road,Knoxville,TN,37912-3516,US,865-688-7396,36.01002,-83.96856,"Sunday - Thursday : 6:00 AM-11:00 PM, Friday - Saturday6:00 AM-11:00 PM",,
Cracker Barrel,930877589,1400 Country Lane,I-85 & US Route 58,South Hill,VA,23970-5119,US,434-774-2705,36.7147821100137,-78.1172815792867,"Sunday - Thursday : 6:00 AM-11:00 PM, Friday - Saturday6:00 AM-11:00 PM",,
Cracker Barrel,1530411327,1049 N.12th St.,,Middlesboro,KY,40965,US,606-248-7011,36.619258,-83.7042321,"Sunday - Thursday : 6:00 AM-11:00 PM, Friday - Saturday6:00 AM-11:00 PM",,
Cracker Barrel,930877460,9214 Park West Blvd.,I-40/I-75 & Cedar Bluff Road,Knoxville,TN,37923-4401,US,865-690-6060,35.9194002708282,-84.0928001666766,"Sunday - Thursday : 6:00 AM-11:00 PM, Friday - Saturday6:00 AM-11:00 PM",,
Cracker Barrel,930877610,2003 Eatonton Rd,I-20 & US 129/441,Madison,GA,30650-5004,US,706-343-9963,33.5539688,-83.4728645,"Sunday - Thursday : 6:00 AM-11:00 PM, Friday - Saturday6:00 AM-11:00 PM",,
Cracker Barrel,930877676,4758 Lanier Islands Pkwy.,I-985 & Friendship Rd.,Buford,GA,30518-9001,US,770-831-5539,34.1405455,-83.9521399,"Sunday - Thursday : 6:00 AM-11:00 PM, Friday - Saturday6:00 AM-11:00 PM",,
Cracker Barrel,930877459,716 N Campbell Station Road,I-75/40 & Campbell Station Road,Knoxville,TN,37934-1602,US,865-675-1446,35.89632,-84.17517,"Sunday - Thursday : 6:00 AM-11:00 PM, Friday - Saturday6:00 AM-11:00 PM",,
Cracker Barrel,930877376,1918 Julian Allsbrook Hwy,I-95 & SR 158,Roanoke Rapids,NC,27870-5121,US,252-535-1747,36.4460725716967,-77.7026468828871,"Sunday - Thursday : 6:00 AM-11:00 PM, Friday - Saturday6:00 AM-11:00 PM",,
Cracker Barrel,930877538,710 SW Greenville Blvd,Greenville Blvd. & Memorial Drive,Greenville,NC,27834-6715,US,252-355-1662,35.571380528978,-77.4009210832469,"Sunday - Thursday : 6:00 AM-11:00 PM, Friday - Saturday6:00 AM-11:00 PM",,
Cracker Barrel,930877593,325 Ft Loudoun Medical Cent Dr,I-75 & US 321,Lenoir City,TN,37772-5677,US,865-988-3201,35.8247972,-84.2721251,"Sunday - Thursday : 6:00 AM-11:00 PM, Friday - Saturday6:00 AM-11:00 PM",,
Cracker Barrel,930877665,1260 Western Blvd.,Between US 17 & Henderson,Jacksonville,NC,28546-6653,US,910-989-2625,34.7849268708407,-77.3998650496498,"Sunday - Thursday : 6:00 AM-11:00 PM, Friday - Saturday6:00 AM-11:00 PM",,
Cracker Barrel,930877343,111 Colonial Lane,I-75 & US 25 West,Rocky Top,TN,37769-2919,US,865-426-6429,36.2320477119615,-84.159732584212,"Sunday - Thursday : 6:00 AM-11:00 PM, Friday - Saturday6:00 AM-11:00 PM",,
Cracker Barrel,930877174,7540 Remcon Circle,I-10 & N.Mesa Street,El Paso,TX,79912-3513,US,915-581-9742,31.83676,-106.56747,"Sunday - Thursday : 6:00 AM-11:00 PM, Friday - Saturday6:00 AM-11:00 PM",,
Cracker Barrel,930877351,1490 Hickory Drive,I-10 & SR 28,Las Cruces,NM,88005-6551,US,575-647-0067,32.2895413357671,-106.786361996399,"Sunday - Thursday : 6:00 AM-11:00 PM, Friday - Saturday6:00 AM-11:00 PM",,
Cracker Barrel,930877431,2303 Water Street,"I-69/94 & Water St., Exit 274",Port Huron,MI,48060-2427,US,810-982-1166,42.9927333333333,-82.4537388888889,"Sunday - Thursday : 6:00 AM-11:00 PM, Friday - Saturday6:00 AM-11:00 PM",,
Cracker Barrel,930877332,4140 Pier North Blvd.,I-75 & Pierson Road,Flint,MI,48504-1386,US,810-230-0019,43.0631336788826,-83.7659436856313,"Sunday - Thursday : 6:00 AM-11:00 PM, Friday - Saturday6:00 AM-11:00 PM",,
Cracker Barrel,930877355,6450 Dixie Hwy,I-75 & Dixie Hwy,Bridgeport,MI,48722-9567,US,989-777-8443,43.3521937422679,-83.8678413881613,"Sunday - Thursday : 6:00 AM-11:00 PM, Friday - Saturday6:00 AM-11:00 PM",,
Cracker Barrel,930877567,2854 E. Wilder Rd,I-75 & Wilder Road,Bay City,MI,48706-9213,US,989-671-9905,43.6239992307692,-83.9359015384615,"Sunday - Thursday : 7:00 AM-10:00 PM, Friday - Saturday7:00 AM-10:00 PM",,
Cracker Barrel,930877205,7810 Interstate Drive,I-90 & US 19 (Peach St),Erie,PA,16509-4676,US,814-868-2500,42.0502975510204,-80.0855124489796,"Sunday - Thursday : 6:00 AM-11:00 PM, Friday - Saturday6:00 AM-11:00 PM",,
Cracker Barrel,919094495,7415 SW Nyberg St.,,Tualatin,OR,97062,US,503-885-0993,45.382733,-122.753638,"Sunday - Thursday : 6:00 AM-11:00 PM, Friday - Saturday6:00 AM-11:00 PM",,
Cracker Barrel,930877433,1600 N 6th St.,I-40/55 & 7th St.,West Memphis,AR,72301-3210,US,870-733-0469,35.1640629206974,-90.1769120814056,"Sunday - Thursday : 6:00 AM-11:00 PM, Friday - Saturday6:00 AM-11:00 PM",,
Cracker Barrel,930877175,6081 Shelby Oaks Drive,I-40 & Sycamore View Road,Memphis,TN,38134-7400,US,901-382-5465,35.1676723424885,-89.8600941882026,"Sunday - Thursday : 6:00 AM-11:00 PM, Friday - Saturday6:00 AM-11:00 PM",,
Cracker Barrel,930877438,706 Desoto Cove,I-55 & Goodman Road,Horn Lake,MS,38637-1469,US,662-349-4203,34.963938865065,-90.0037577042967,"Sunday - Thursday : 6:00 AM-11:00 PM, Friday - Saturday6:00 AM-11:00 PM",,
Cracker Barrel,930877535,8000 Lowrance Rd,Hacks Cross Road & Nonconnah,Memphis,TN,38125-2869,US,901-757-0269,35.0350455643661,-89.7977169309832,"Sunday - Thursday : 6:00 AM-11:00 PM, Friday - Saturday6:00 AM-11:00 PM",,
Cracker Barrel,945128928,9649 East Davies Plantation Rd,I-40 & Canada Road,Lakeland,TN,38002-7902,US,901-385-0976,35.22268,-89.74127,"Sunday - Thursday : 6:00 AM-11:00 PM, Friday - Saturday6:00 AM-11:00 PM",,
Cracker Barrel,930877531,2621 Phillips Dr.,US 63 Byp. & Caraway Rd.,Jonesboro,AR,72401-7331,US,870-932-9732,35.8096213,-90.6781078,"Sunday - Thursday : 6:00 AM-11:00 PM, Friday - Saturday6:00 AM-11:00 PM",,
Cracker Barrel,930877419,225 Lakewood Dr,I-55 & SR 6,Batesville,MS,38606-3016,US,662-563-6363,34.3102284448135,-89.923786421565,"Sunday - Thursday : 6:00 AM-11:00 PM, Friday - Saturday6:00 AM-11:00 PM",,
Cracker Barrel,1918330846,3055 Lake Road,"I69/155 & Hwy 78, Ext 13",Dyersburg,TN,38024,US,731-288-4848,36.066,-89.39629,"Sunday - Thursday : 6:00 AM-11:00 PM, Friday - Saturday6:00 AM-11:00 PM",,
Cracker Barrel,930877522,188 Vann Drive,I-40 & N. Highland Avenue,Jackson,TN,38305-3936,US,731-664-1028,35.6713038405629,-88.8348249736755,"Sunday - Thursday : 6:00 AM-11:00 PM, Friday - Saturday6:00 AM-11:00 PM",,
Corinth,-1393764469,U.S. 45 & U.S. 72,1900 U.S. 72 West,Corinth,MS,38834,US,662-287-7410,34.93129,-88.61884,"Sunday - Thursday : 6:00 AM-11:00 PM, Friday - Saturday6:00 AM-11:00 PM",,
Cracker Barrel,930877552,1270 Cross Creek Dr.,US 45 & Barnes Crossing,Saltillo,MS,38866-5732,US,662-620-0820,34.3159810742719,-88.6962032228157,"Sunday - Thursday : 6:00 AM-11:00 PM, Friday - Saturday6:00 AM-11:00 PM",,
Cracker Barrel,930877370,3101 Springhill Dr.,I-40 & Springhill Dr.,North Little Rock,AR,72117-2912,US,501-945-9373,34.7779908,-92.2180209,"Sunday - Thursday : 6:00 AM-11:00 PM, Friday - Saturday6:00 AM-11:00 PM",,
Cracker Barrel,930877336,525 Skyline Dr,I-40 & US 65,Conway,AR,72032-3510,US,501-327-6107,35.1122009821429,-92.4321944642857,"Sunday - Thursday : 6:00 AM-11:00 PM, Friday - Saturday6:00 AM-11:00 PM",,
Cracker Barrel,930877623,2618 S Shackleford Rd.,I-430 & Shackleford Rd.,Little Rock,AR,72205-6916,US,501-225-7100,34.7254982,-92.3951168,"Sunday - Thursday : 6:00 AM-11:00 PM, Friday - Saturday6:00 AM-11:00 PM",,
Cracker Barrel,177175984,33 Brien Dr.,,Mayfield,KY,42066,US,270-247-1529,36.7695869548703,-88.6424648883029,"Sunday - Thursday : 6:00 AM-11:00 PM, Friday - Saturday6:00 AM-11:00 PM",,
Cracker Barrel,930877671,150 Cox Creek Pkwy. S,US 72 & Cox Creek Pkwy.,Florence,AL,35630-3263,US,256-766-2442,34.8298854,-87.6280105,"Sunday - Thursday : 6:00 AM-11:00 PM, Friday - Saturday6:00 AM-11:00 PM",,
Cracker Barrel,930877542,650 N. 12th Street,US 641 & SR 121,Murray,KY,42071-1651,US,270-762-0081,36.6203432406895,-88.3150046530651,"Sunday - Thursday : 6:00 AM-11:00 PM, Friday - Saturday6:00 AM-11:00 PM",,
Cracker Barrel,930877333,218 W Commerce St,I-30 & SR 183,Bryant,AR,72022-2373,US,501-847-7878,34.6208219692482,-92.4990697841703,"Sunday - Thursday : 6:00 AM-11:00 PM, Friday - Saturday6:00 AM-11:00 PM",,
Cracker Barrel,-502022849,592 18th Ave.  North,US Hwy 82 & 18th Ave.,Columbus,MS,39705,US,662-243-7615,33.5151221,-88.4310117,"Sunday - Thursday : 6:00 AM-11:00 PM, Friday - Saturday6:00 AM-11:00 PM",,
Cracker Barrel,930877301,3261 Williams Street,I-55 & State Route K,Cape Girardeau,MO,63703-4961,US,573-651-4000,37.3025941779716,-89.5767178531443,"Sunday - Thursday : 6:00 AM-11:00 PM, Friday - Saturday6:00 AM-11:00 PM",,
Cracker Barrel,930877630,5035 Hinkleville Road,I-24 & US 60,Paducah,KY,42001-9166,US,270-443-9331,37.0777019958178,-88.6833568940521,"Sunday - Thursday : 6:00 AM-11:00 PM, Friday - Saturday6:00 AM-11:00 PM",,
Cracker Barrel,930877208,314 Kennedy Avenue,I-24 & Hwy. 62,Calvert City,KY,42029-8589,US,270-395-0371,37.0046452113376,-88.3254069716559,"Sunday - Thursday : 6:00 AM-11:00 PM, Friday - Saturday6:00 AM-11:00 PM",,
Cracker Barrel,930877110,115 Gumbranch Road,I-40 & SR 46,Dickson,TN,37055-2765,US,615-441-3353,36.0211834491632,-87.3372335446706,"Sunday - Thursday : 6:00 AM-11:00 PM, Friday - Saturday6:00 AM-11:00 PM",,
Cracker Barrel,930877281,211 East Harrell Dr.,I-40 & Route 7,Russellville,AR,72802-2254,US,479-968-5983,35.3024654,-93.1375344,"Sunday - Thursday : 6:00 AM-11:00 PM, Friday - Saturday6:00 AM-11:00 PM",,
Cracker Barrel,930877263,74 Hospitality Ln.,I-24 & US 68,Cadiz,KY,42211-6738,US,270-522-0600,36.8794255746149,-87.7362244039433,"Sunday - Thursday : 6:00 AM-11:00 PM, Friday - Saturday6:00 AM-11:00 PM",,
Cracker Barrel,930877458,1212 Kelli Dr,I-65 & US 72,Athens,AL,35613-2700,US,256-232-4141,34.7821828,-86.9364214,"Sunday - Thursday : 6:00 AM-11:00 PM, Friday - Saturday6:00 AM-11:00 PM",,
Cracker Barrel,930877529,407 Beltline Rd. SW,SR 67 & Sandlin Rd.,Decatur,AL,35601-6375,US,256-350-6263,34.5600717,-86.9906596,"Sunday - Thursday : 6:00 AM-11:00 PM, Friday - Saturday6:00 AM-11:00 PM",,
Cracker Barrel,930877553,170 Pakis St.,MLK Exp. & Central Ave.,Hot Springs,AR,71913-6507,US,501-525-4704,34.4522476,-93.0734299,"Sunday - Thursday : 6:00 AM-11:00 PM, Friday - Saturday6:00 AM-11:00 PM",,
Cracker Barrel,930877674,2020 Crossings Cir,Saturn Pkwy & US 31,Spring Hill,TN,37174-2779,US,931-489-9119,35.7416929614882,-86.9405216829752,"Sunday - Thursday : 6:00 AM-11:00 PM, Friday - Saturday6:00 AM-11:00 PM",,
Cracker Barrel,930877570,1534 Bear Creek Pike,I-65 & US 412/TN 99,Columbia,TN,38401-7650,US,931-490-2250,35.6430580352411,-86.8996997433313,"Sunday - Thursday : 6:00 AM-11:00 PM, Friday - Saturday6:00 AM-11:00 PM",,
Cracker Barrel,930877278,173 Valley St.,I-30 & SR 7,Arkadelphia,AR,71923-9634,US,870-230-8875,34.18806,-93.07183,"Sunday - Thursday : 6:00 AM-11:00 PM, Friday - Saturday6:00 AM-11:00 PM",,
Cracker Barrel,930877152,200 Cracker Barrel Drive,I-24 & US 79,Clarksville,TN,37040-5728,US,931-645-1446,36.60244,-87.27984,"Sunday - Thursday : 6:00 AM-11:00 PM, Friday - Saturday6:00 AM-11:00 PM",,
Cracker Barrel,1207206016,1909 Uncle Herschel Way S.E.,"I-65 & SR 36, Exit 328",Hartselle,AL,35640,US,256-751-4991,34.4483121038567,-86.8989563611023,"Sunday - Thursday : 6:00 AM-11:00 PM, Friday - Saturday6:00 AM-11:00 PM",,
Jasper,-1103164320,240 Carl Cannon Blvd.,"I-22 & Industrial Pkwy., Exit 65",Jasper,AL,35501,US,205-302-0072,33.7908008427003,-87.2409628843811,"Sunday - Thursday : 6:00 AM-11:00 PM, Friday - Saturday6:00 AM-11:00 PM",,
Cracker Barrel,930877245,2602 West Main Street,I-57 & Main St,Marion,IL,62959-4931,US,618-993-6306,37.72989,-88.96252,"Sunday - Thursday : 6:00 AM-11:00 PM, Friday - Saturday6:00 AM-11:00 PM",,
Cracker Barrel,930877264,4210 Franklin Commons Court,I-65 & Hwy 96,Franklin,TN,37067-4040,US,615-794-8195,35.9101498947862,-86.8224945789983,"Sunday - Thursday : 6:00 AM-11:00 PM, Friday - Saturday6:00 AM-11:00 PM",,
Cracker Barrel,930877396,6941 Charlotte Pike,I-40 & Charlotte Pike,Nashville,TN,37209-4207,US,615-356-5229,36.12977,-86.90184,"Sunday - Thursday : 6:00 AM-11:00 PM, Friday - Saturday6:00 AM-11:00 PM",,
Cracker Barrel,930877164,120 Cleghorn Blvd.,I-565 & Wall-Triana,Madison,AL,35758-8806,US,256-461-7670,34.6701521,-86.7521875,"Sunday - Thursday : 6:00 AM-11:00 PM, Friday - Saturday6:00 AM-11:00 PM",,
Cracker Barrel,930877660,1735 Mallory Lane,Mallory Lane & Baker's Bridge Road,Brentwood,TN,37027-7986,US,615-376-8120,35.9607,-86.81568,"Sunday - Thursday : 6:00 AM-11:00 PM, Friday - Saturday6:00 AM-11:00 PM",,
Cracker Barrel,930877481,6020 I 55 N,I-55 & Beasley-Adkins Road,Jackson,MS,39211-2641,US,601-977-1055,32.38652,-90.14561,"Sunday - Thursday : 6:00 AM-11:00 PM, Friday - Saturday6:00 AM-11:00 PM",,
Cracker Barrel,930877442,6020 AL Highway 157,I-65 & SR 157,Cullman,AL,35058-5940,US,256-739-6950,34.2079966,-86.8755765,"Sunday - Thursday : 6:00 AM-11:00 PM, Friday - Saturday6:00 AM-11:00 PM",,
Cracker Barrel,930877642,4323 Sidco Drive,I-65 & Harding Place,Nashville,TN,37204-4509,US,615-331-6733,36.08275,-86.76157,"Sunday - Thursday : 6:00 AM-11:00 PM, Friday - Saturday6:00 AM-11:00 PM",,
Cracker Barrel,945128931,2001 Drake Ave. SW,Hwy 231 & Drake Ave.,Huntsville,AL,35801-5608,US,256-881-4177,34.7053056,-86.5822217,"Sunday - Thursday : 6:00 AM-11:00 PM, Friday - Saturday6:00 AM-11:00 PM",,
Cracker Barrel,930877238,410 Riverwind Drive,I-20 & Pearson Road,Pearl,MS,39208-5900,US,601-936-9990,32.267619053241,-90.1361022091044,"Sunday - Thursday : 6:00 AM-11:00 PM, Friday - Saturday6:00 AM-11:00 PM",,
Cracker Barrel,930877511,4001 S. Frontage Road,I-20 & Clay St.,Vicksburg,MS,39180-4464,US,601-636-2115,32.3409520755868,-90.8415154592851,"Sunday - Thursday : 6:00 AM-11:00 PM, Friday - Saturday6:00 AM-11:00 PM",,
Cracker Barrel,930877408,350 W. 120th Ave.,I-25 & 120th Ave.,Northglenn,CO,80234-2949,US,303-280-9634,39.9141854,-104.9897144,"Sunday - Thursday : 6:00 AM-11:00 PM, Friday - Saturday6:00 AM-11:00 PM",,
Cracker Barrel,930877425,5800 McWhinney Blvd.,I-25 & US 34,Loveland,CO,80538-8839,US,970-593-9947,40.4108697358586,-104.994158225755,"Sunday - Thursday : 6:00 AM-11:00 PM, Friday - Saturday6:00 AM-11:00 PM",,
Cracker Barrel,930877364,8355 Razorback Dr.,I-25 at Academy Rd,Colorado Springs,CO,80920-3953,US,719-260-7721,38.9493716,-104.8041922,"Sunday - Thursday : 6:00 AM-11:00 PM, Friday - Saturday6:00 AM-11:00 PM",,
Cracker Barrel,930877311,4735 Elizabeth St. N.,I-25 & Eagleridge Blvd.,Pueblo,CO,81008-2055,US,719-595-0711,38.320484,-104.6183195,"Sunday - Thursday : 6:00 AM-11:00 PM, Friday - Saturday6:00 AM-11:00 PM",,
Cracker Barrel,930877153,16 Nashua Rd,I-93 & SR 102,Londonderry,NH,03053-3315,US,603-434-8804,42.8722,-71.33802,"Sunday - Thursday : 6:00 AM-11:00 PM, Friday - Saturday6:00 AM-11:00 PM",,
Cracker Barrel,1150366460,357 Maine Mall Rd.,I-95 & Maine Mall Road,South Portland,ME,04106,US,207-773-7530,43.6350125591971,-70.3372735729167,"Sunday - Thursday : 6:00 AM-11:00 PM, Friday - Saturday6:00 AM-11:00 PM",,
Cracker Barrel,930877506,7367 Bell Creek Road South,I-295 & US 360,Mechanicsville,VA,23111-3551,US,804-559-2261,37.6063755812427,-77.3557694321219,"Sunday - Thursday : 6:00 AM-11:00 PM, Friday - Saturday6:00 AM-11:00 PM",,
Cracker Barrel,930877134,3620 Mayland Court,I-64 & Gaskins Road,Richmond,VA,23233-1409,US,804-290-0713,37.6395214873334,-77.5694216455757,"Sunday - Thursday : 6:00 AM-11:00 PM, Friday - Saturday6:00 AM-11:00 PM",,
Cracker Barrel,954099086,4435 S Laburnum Ave,"I-64 & Laburnum Ave, Exit 195",Richmond,VA,23231-2419,US,804-222-3587,37.5286785816959,-77.3576565547085,"Sunday - Thursday : 6:00 AM-11:00 PM, Friday - Saturday6:00 AM-11:00 PM",,
Cracker Barrel,930877420,121 Plesant Valley Road,I-81 & U.S. 11,Harrisonburg,VA,22801-9726,US,540-574-3099,38.4051838250787,-78.9062438250787,"Sunday - Thursday : 6:00 AM-11:00 PM, Friday - Saturday6:00 AM-11:00 PM",,
Cracker Barrel,930877664,4720 Craig Rath Blvd.,US 360 & Huntington Blvd,Midlothian,VA,23112-6218,US,804-763-6140,37.4133845633975,-77.6416920281766,"Sunday - Thursday : 6:00 AM-11:00 PM, Friday - Saturday6:00 AM-11:00 PM",,
Cracker Barrel,930877257,12401 Red Water Creek Road,I-95 & SR 10,Chester,VA,23831-2343,US,804-748-4032,37.3555458741099,-77.4078235665053,"Sunday - Thursday : 6:00 AM-11:00 PM, Friday - Saturday6:00 AM-11:00 PM",,
Cracker Barrel,930877417,200 Bypass Road,I-64 & State Route 143,Williamsburg,VA,23185-2921,US,757-220-3384,37.2850427622509,-76.7164427739485,"Sunday - Thursday : 6:00 AM-11:00 PM, Friday - Saturday6:00 AM-11:00 PM",,
Cracker Barrel,930877584,101 Appletree Lane,I-64 & Route 340,Waynesboro,VA,22980-7481,US,540-942-0156,38.0624227088395,-78.9402660688252,"Sunday - Thursday : 6:00 AM-11:00 PM, Friday - Saturday6:00 AM-11:00 PM",,
Cracker Barrel,930877407,152 Rowe Road,I-81 & US 250,Staunton,VA,24401-6700,US,540-885-7550,38.1274586430922,-79.0359351108872,"Sunday - Thursday : 6:00 AM-11:00 PM, Friday - Saturday6:00 AM-11:00 PM",,
Cracker Barrel,930877423,12357 Hornsby Lane,I-64 & Jefferson Avenue,Newport News,VA,23602-6958,US,757-249-3020,37.114700239532,-76.5033296821948,"Sunday - Thursday : 6:00 AM-11:00 PM, Friday - Saturday6:00 AM-11:00 PM",,
Cracker Barrel,930877122,106 Market place Dr,I-64 & Mercury Blvd,Hampton,VA,23666-3118,US,757-262-2046,37.0378616749891,-76.4010269485455,"Sunday - Thursday : 6:00 AM-11:00 PM, Friday - Saturday6:00 AM-11:00 PM",,
Cracker Barrel,995391110,4700 PORTSMOUTH BLVD.,"I664 & Portsmouth Blvd., Exit 11",Chesapeake,VA,23321-1420,US,757-405-3890,36.81798,-76.43716,"Sunday - Thursday : 6:00 AM-11:00 PM, Friday - Saturday6:00 AM-11:00 PM",,
Cracker Barrel,945128904,1440 Greenbrier Pkwy,I-64 & Greenbrier Pkwy,Chesapeake,VA,23320-2831,US,757-366-0525,36.7780481818182,-76.2310090909091,"Sunday - Thursday : 6:00 AM-11:00 PM, Friday - Saturday6:00 AM-11:00 PM",,
Cracker Barrel,1127908431,757 Lynnhaven Pkwy,Lynnhaven Pkwy & International Pkwy,Virginia Beach,VA,23452,US,757-340-1928,36.816605625,-76.066901875,"Sunday - Thursday : 6:00 AM-11:00 PM, Friday - Saturday6:00 AM-11:00 PM",,
Cracker Barrel,930877578,103 Sadler Lane,I-95 & Us Route 58,Emporia,VA,23847-1542,US,434-336-9115,36.7013943393361,-77.5423221062936,"Sunday - Thursday : 6:00 AM-11:00 PM, Friday - Saturday6:00 AM-11:00 PM",,
Cracker Barrel,966173446,217 Hillcrest Pkwy,"Hwy 168 & Edinburgh Pkwy, Exit 8",Chesapeake,VA,23322-2485,US,757-421-7077,36.6570329857548,-76.232159077801,"Sunday - Thursday : 6:00 AM-11:00 PM, Friday - Saturday6:00 AM-11:00 PM",,
Cracker Barrel,1355848281,7128 S Olympia Ave,Hwy 75 & 71st Street,Tulsa,OK,74132,US,918-447-4505,36.0607690394528,-96.0041481889649,"Sunday - Thursday : 6:00 AM-11:00 PM, Friday - Saturday6:00 AM-11:00 PM",,
Cracker Barrel,930877412,8008 E. 31st Street,"I-44 & 31st St., Exit 231-E, 232-W",Tulsa,OK,74145,US,918-610-0414,36.11892,-95.8880116326531,"Sunday - Thursday : 6:00 AM-11:00 PM, Friday - Saturday6:00 AM-11:00 PM",,
Cracker Barrel,930877626,9475 N. Owasso Expressway,Highway 169 & 96th Street,Owasso,OK,74055-5328,US,918-272-3445,36.291208142662,-95.8358333907623,"Sunday - Thursday : 6:00 AM-11:00 PM, Friday - Saturday6:00 AM-11:00 PM",,
Cracker Barrel,930877181,995 E. 61st North,I-135 & 61st Street,Wichita,KS,67219-1958,US,316-744-8080,37.79587,-97.3262555275283,"Sunday - Thursday : 6:00 AM-11:00 PM, Friday - Saturday6:00 AM-11:00 PM",,
Cracker Barrel,930877176,431 Hwy. 71 North,I-40 & US 71,Alma,AR,72921-3208,US,479-632-0767,35.4839155,-94.2382375,"Sunday - Thursday : 6:00 AM-11:00 PM, Friday - Saturday6:00 AM-11:00 PM",,
Cracker Barrel,930877271,1022 South 48th St.,I-49 & US 412,Springdale,AR,72762-5819,US,479-872-2040,36.177213436479,-94.185596564575,"Sunday - Thursday : 6:00 AM-11:00 PM, Friday - Saturday6:00 AM-11:00 PM",,
Bentonville,-1478635304,2307 SE Walton Blvd.,I-49 & U.S. 71 Bus.,Bentonville,AR,72712,US,479-268-5907,36.3372536,-94.1832242,"Sunday - Thursday : 6:00 AM-11:00 PM, Friday - Saturday6:00 AM-11:00 PM",,
Cracker Barrel,177171561,2815 E. Craig Rd.,,N. Las Vegas,NV,89030,US,702-457-1200,36.2399611,-115.1117434,"Sunday - Thursday : 6:00 AM-11:00 PM, Friday - Saturday6:00 AM-11:00 PM",,
Cracker Barrel,177170914,8350 Dean Martin Dr.,,Las Vegas,NV,89139,US,(702) 474-1120,36.0379386,-115.1818561,"Sunday - Thursday : 6:00 AM-11:00 PM, Friday - Saturday6:00 AM-11:00 PM",,
Cracker Barrel,930877611,1736 Convention Center Dr,I-15 & Bluff Road,Saint George,UT,84790-6926,US,435-688-1200,37.0761808648276,-113.583489436385,"Sunday - Thursday : 6:00 AM-11:00 PM, Friday - Saturday6:00 AM-11:00 PM",,
Cracker Barrel,930877657,2406 Music Valley Drive,Briley Pkwy. & McGavok Pike,Nashville,TN,37214-1001,US,615-883-5440,36.2182151895261,-86.6958681016904,"Sunday - Thursday : 6:00 AM-11:00 PM, Friday - Saturday6:00 AM-11:00 PM",,
Cracker Barrel,930877404,3454 Percy Priest Drive,I-40 & Stewarts Ferry Pike,Nashville,TN,37214-3908,US,615-889-4325,36.1533881818182,-86.6266754545454,"Sunday - Thursday : 6:00 AM-11:00 PM, Friday - Saturday6:00 AM-11:00 PM",,
Cracker Barrel,930877410,350 South Mt Juliet Road,I-40 & Mt. Juliet Road,Mount Juliet,TN,37122-6309,US,615-754-8300,36.1681723251279,-86.5140451692775,"Sunday - Thursday : 6:00 AM-11:00 PM, Friday - Saturday6:00 AM-11:00 PM",,
Cracker Barrel,930877302,235 Long Hollow Pike,I-65 & Long Hollow Pike,Goodlettsville,TN,37072-1841,US,615-859-4383,36.32458,-86.70299,"Sunday - Thursday : 6:00 AM-11:00 PM, Friday - Saturday6:00 AM-11:00 PM",,
Cracker Barrel,930877265,2697 Highwood Blvd.,I-24 & Sam Ridley Pkwy,Smyrna,TN,37167-9304,US,615-220-1400,35.9729449105671,-86.5744486128864,"Sunday - Thursday : 6:00 AM-11:00 PM, Friday - Saturday6:00 AM-11:00 PM",,
Cracker Barrel,930877675,213 Indian Lake Blvd.,,Hendersonville,TN,37075-6214,US,615-822-7407,36.3207076,-86.6004245,"Sunday - Thursday : 6:00 AM-11:00 PM, Friday - Saturday6:00 AM-11:00 PM",,
Cracker Barrel,930877550,1005 Village Green Crossing,US 31 East & Highway 109 Bypass,Gallatin,TN,37066-7113,US,615-451-2420,36.37836,-86.47149,"Sunday - Thursday : 6:00 AM-11:00 PM, Friday - Saturday6:00 AM-11:00 PM",,
Cracker Barrel,930877317,370 Hester Drive,I-65 & Hwy 76,White House,TN,37188-9255,US,615-672-1802,36.46762,-86.67953,"Sunday - Thursday : 6:00 AM-11:00 PM, Friday - Saturday6:00 AM-11:00 PM",,
Cracker Barrel,930877418,635 South Cumberland,I-40 & US 231,Lebanon,TN,37087-4107,US,615-444-4995,36.19055,-86.295265,"Sunday - Thursday : 6:00 AM-11:00 PM, Friday - Saturday6:00 AM-11:00 PM",,
Cracker Barrel,930877519,138 Chaffin Place,I-24 & Highway 96,Murfreesboro,TN,37129-6901,US,615-893-4980,35.84508,-86.43066,"Sunday - Thursday : 6:00 AM-11:00 PM, Friday - Saturday6:00 AM-11:00 PM",,
Cracker Barrel,930877521,2115 South Church,I-24 & Hwy 231,Murfreesboro,TN,37130-5522,US,615-867-9067,35.8140656381767,-86.3951817807324,"Sunday - Thursday : 6:00 AM-11:00 PM, Friday - Saturday6:00 AM-11:00 PM",,
Cracker Barrel,930877146,155 Steele Road,I-65 & US 31 West,Franklin,KY,42134-8953,US,270-598-8812,36.6658098765835,-86.5591779011778,"Sunday - Thursday : 6:00 AM-11:00 PM, Friday - Saturday6:00 AM-11:00 PM",,
Cracker Barrel,930877322,103 Paradise Street,I-24 & Paradise Street,Manchester,TN,37355-3301,US,931-723-1358,35.5022221841203,-86.0884983935636,"Sunday - Thursday : 6:00 AM-11:00 PM, Friday - Saturday6:00 AM-11:00 PM",,
Cracker Barrel,930877436,1295 S Walnut Avenue,I-40 & CR 136,Cookeville,TN,38501-5963,US,931-372-2002,36.13687,-85.50465,"Sunday - Thursday : 6:00 AM-11:00 PM, Friday - Saturday6:00 AM-11:00 PM",,
Cracker Barrel,930877447,23 Executive Drive,I-40 & US 127,Crossville,TN,38555-5419,US,931-456-9622,35.9982466666667,-85.0447433333333,"Sunday - Thursday : 6:00 AM-11:00 PM, Friday - Saturday6:00 AM-11:00 PM",,
Cracker Barrel,930877590,550 Kimball Crossing Drive,I-24 & US 72,Kimball,TN,37347-5600,US,423-837-5618,35.040868973666,-85.6835080906291,"Sunday - Thursday : 6:00 AM-11:00 PM, Friday - Saturday6:00 AM-11:00 PM",,
Cracker Barrel,930877377,50 Birmingham Hwy,I-24 & US 41/64,Chattanooga,TN,37419-2371,US,423-825-5885,35.0181884,-85.3808578,"Sunday - Thursday : 6:00 AM-11:00 PM, Friday - Saturday6:00 AM-11:00 PM",,
Cracker Barrel,930877155,2346 Shallowford Village Road,I-75 & Shallowford Road,Chattanooga,TN,37421-6768,US,423-892-0977,35.0433287,-85.1581584,"Sunday - Thursday : 6:00 AM-11:00 PM, Friday - Saturday6:00 AM-11:00 PM",,
Cracker Barrel,930877143,1460 North Mack Smith Road,I-75 & Ringgold Road,East Ridge,TN,37412-3948,US,423-899-5729,34.98947,-85.2092735,"Sunday - Thursday : 6:00 AM-11:00 PM, Friday - Saturday6:00 AM-11:00 PM",,
Cracker Barrel,930877616,8852 Old Lee Hwy,I-75 & Old Lee Hwy,Ooltewah,TN,37363-8658,US,423-238-8550,35.0734364,-85.0937287,"Sunday - Thursday : 6:00 AM-11:00 PM, Friday - Saturday6:00 AM-11:00 PM",,
Cracker Barrel,930877456,1839 South Roane Street,I-40 & U.S. 27,Harriman,TN,37748-8648,US,865-882-1442,35.90687,-84.59303,"Sunday - Thursday : 6:00 AM-11:00 PM, Friday - Saturday6:00 AM-11:00 PM",,
Cracker Barrel,930877206,1650 Clingan Ridge Drive NW,I-75 & CR 60,Cleveland,TN,37312-3652,US,423-728-4045,35.19178,-84.88335,"Sunday - Thursday : 6:00 AM-11:00 PM, Friday - Saturday6:00 AM-11:00 PM",,
Cracker Barrel,930877577,50 Biscuit Way,I-75 & SR 151,Ringgold,GA,30736-3161,US,706-937-2785,34.912055,-85.128755,"Sunday - Thursday : 6:00 AM-11:00 PM, Friday - Saturday6:00 AM-11:00 PM",,
Cracker Barrel,930877624,110 Burkett L. Witt Blvd,I-75 & SR 30,Athens,TN,37303-4997,US,423-746-8839,35.4689220955307,-84.6499955701117,"Sunday - Thursday : 6:00 AM-11:00 PM, Friday - Saturday6:00 AM-11:00 PM",,
Cracker Barrel,949912484,11635 US Hwy. 431,US 431 & Red Barn Rd.,Guntersville,AL,35976-5667,US,256-894-3391,34.3006194,-86.2747309,"Sunday - Thursday : 6:00 AM-11:00 PM, Friday - Saturday6:00 AM-11:00 PM",,
Cracker Barrel,930877402,201 Cracker Barrel Row SW,I-59 & SR 35,Fort Payne,AL,35968-3366,US,256-997-9204,34.4387688696258,-85.7494940065735,"Sunday - Thursday : 6:00 AM-11:00 PM, Friday - Saturday6:00 AM-11:00 PM",,
Cracker Barrel,930877544,1899 S. Hwy 27,US 27 & Lowes Drive,Somerset,KY,42501-2965,US,606-451-9944,37.06693,-84.6202,"Sunday - Thursday : 6:00 AM-11:00 PM, Friday - Saturday6:00 AM-11:00 PM",,
Cracker Barrel,930877450,938 Market Street,I-75 & Walnut Ave.,Dalton,GA,30720-5049,US,706-226-5231,34.7584532829262,-84.9999297782275,"Sunday - Thursday : 6:00 AM-11:00 PM, Friday - Saturday6:00 AM-11:00 PM",,
Cracker Barrel,930877380,101 Taylor Drive,I-59 & SR 77,Gadsden,AL,35904-8223,US,256-538-5938,33.99758,-86.09073,"Sunday - Thursday : 6:00 AM-11:00 PM, Friday - Saturday6:00 AM-11:00 PM",,
Cracker Barrel,930877444,100 Cracker Barrel Dr.,I-75 & SR 53,Calhoun,GA,30701-3974,US,706-624-1661,34.4702115899478,-84.9154276908104,"Sunday - Thursday : 6:00 AM-11:00 PM, Friday - Saturday6:00 AM-11:00 PM",,
Cracker Barrel,930877211,84 Adams Road,I-75 & US 25E,Corbin,KY,40701-4700,US,606-523-0522,36.9786941466284,-84.113281182315,"Sunday - Thursday : 6:00 AM-11:00 PM, Friday - Saturday6:00 AM-11:00 PM",,
Cracker Barrel,930877614,941 Hwy. 140,I-75 & SR 140,Adairsville,GA,30103-2202,US,770-773-1782,34.3847205,-84.8451456,"Sunday - Thursday : 6:00 AM-11:00 PM, Friday - Saturday6:00 AM-11:00 PM",,
Cracker Barrel,930877582,80 Alamo Drive,I-75 & State Route 80,London,KY,40741-6604,US,606-864-3102,37.1507103326521,-84.1148797610128,"Sunday - Thursday : 6:00 AM-11:00 PM, Friday - Saturday6:00 AM-11:00 PM",,
Cracker Barrel,930877430,901 Fieldstown Rd.,I-65 & Fieldstown Rd.,Gardendale,AL,35071-4606,US,205-631-8011,33.6411322,-86.8439937,"Sunday - Thursday : 6:00 AM-11:00 PM, Friday - Saturday6:00 AM-11:00 PM",,
Cracker Barrel,930877352,4710 Norrell Dr.,I-59 & Chalkville Rd.,Trussville,AL,35173-2634,US,205-655-8498,33.6395094,-86.6147323,"Sunday - Thursday : 6:00 AM-11:00 PM, Friday - Saturday6:00 AM-11:00 PM",,
Cracker Barrel,930877439,5631 Hwy 20 NE,I-75 & SR 20,Cartersville,GA,30121-5212,US,770-386-6973,34.2051964686924,-84.7642505939227,"Sunday - Thursday : 6:00 AM-11:00 PM, Friday - Saturday6:00 AM-11:00 PM",,
Cracker Barrel,930877620,260 Vaughan Ln.,I-20 & US 231/SR 53,Pell City,AL,35125-3887,US,205-338-1012,33.6075554962663,-86.2766259665955,"Sunday - Thursday : 6:00 AM-11:00 PM, Friday - Saturday6:00 AM-11:00 PM",,
Cracker Barrel,930877356,2003 Village Dr.,I-20 & US Hwy. 411,Leeds,AL,35094-1101,US,205-640-2478,33.5459672,-86.5471379,"Sunday - Thursday : 6:00 AM-11:00 PM, Friday - Saturday6:00 AM-11:00 PM",,
Cracker Barrel,930877196,715 Transit Ave.,I-575 & SR 5,Canton,GA,30114-2572,US,770-479-2336,34.25379,-84.47009,"Sunday - Thursday : 6:00 AM-11:00 PM, Friday - Saturday6:00 AM-11:00 PM",,
Cracker Barrel,930877386,220 Leon Smith Pkwy.,I-20 & Morgan Rd.,Oxford,AL,36203-3443,US,256-835-6700,33.5801206,-85.785798,"Sunday - Thursday : 6:00 AM-11:00 PM, Friday - Saturday6:00 AM-11:00 PM",,
Cracker Barrel,930877124,3415 Colonnade Pkwy.,I-459 & US 280,Birmingham,AL,35243-2356,US,205-969-1126,33.4393188,-86.7252351,"Sunday - Thursday : 6:00 AM-11:00 PM, Friday - Saturday6:00 AM-11:00 PM",,
Cracker Barrel,930877654,3389 Busbee Drive NW,I-75 & Chastain Rd.,Kennesaw,GA,30144-3089,US,770-429-1524,34.0337,-84.5742166666667,"Sunday - Thursday : 6:00 AM-11:00 PM, Friday - Saturday6:00 AM-11:00 PM",,
Cracker Barrel,930877315,5040 Academy Ln.,I-59 & Academy Ln.,Bessemer,AL,35022-5249,US,205-428-7080,33.3675782,-87.0076405,"Sunday - Thursday : 6:00 AM-11:00 PM, Friday - Saturday6:00 AM-11:00 PM",,
Cracker Barrel,930877615,106 Price Creek Rd,I-20 & US 27,Bremen,GA,30110-2551,US,770-537-0199,33.6882014285714,-85.1535114285714,"Sunday - Thursday : 6:00 AM-11:00 PM, Friday - Saturday6:00 AM-11:00 PM",,
Cracker Barrel,930877652,655 Cahaba Valley Rd.,I-65 & Cahaba Valley Rd.,Pelham,AL,35124-1372,US,205-987-1555,33.3424324,-86.7869918,"Sunday - Thursday : 6:00 AM-11:00 PM, Friday - Saturday6:00 AM-11:00 PM",,
Cracker Barrel,930877653,2150 Delk Rd.,I-75 & Delk Rd.,Marietta,GA,30067-8761,US,770-951-2602,33.92263,-84.492,"Sunday - Thursday : 6:00 AM-11:00 PM, Friday - Saturday6:00 AM-11:00 PM",,
Cracker Barrel,930877131,5580 Windward Pkwy.,Hwy 400 & Windward Parkway,Alpharetta,GA,30004-3889,US,770-521-9597,34.087387366764,-84.264750532944,"Sunday - Thursday : 6:00 AM-11:00 PM, Friday - Saturday6:00 AM-11:00 PM",,
Cracker Barrel,1451366789,675 Buford Hwy.,SR 400 & SR 20W,Cumming,GA,30040,US,770-205-1916,34.187008,-84.1370062,"Sunday - Thursday : 6:00 AM-11:00 PM, Friday - Saturday6:00 AM-11:00 PM",,
Cracker Barrel,930877534,3620 North Country Drive,US 31 & South Airport Road,Traverse City,MI,49684-4581,US,231-933-9244,44.7184566641166,-85.6477722749245,"Sunday - Thursday : 6:00 AM-11:00 PM, Friday - Saturday6:00 AM-11:00 PM",,
Cracker Barrel,930877136,5700 Redlands Rd. NW,I-40 & Coors Blvd,Albuquerque,NM,87120-1761,US,505-352-5430,35.11833,-106.70173,"Sunday - Thursday : 6:00 AM-11:00 PM, Friday - Saturday6:00 AM-11:00 PM",,
Cracker Barrel,930877413,5200 San Antonio Drive,I-25 & San Antonio,Albuquerque,NM,87109-4134,US,505-821-8777,35.16011,-106.58638,"Sunday - Thursday : 6:00 AM-11:00 PM, Friday - Saturday6:00 AM-11:00 PM",,
Cracker Barrel,930877198,1480 West Maloney,I-40 & US 491,Gallup,NM,87301-3304,US,505-726-2992,35.5279144962724,-108.763839883387,"Sunday - Thursday : 6:00 AM-11:00 PM, Friday - Saturday6:00 AM-11:00 PM",,
Cracker Barrel,930877182,4110 S. Lee's Summit,I-70 & Lee's Summit Road,Independence,MO,64055-5474,US,816-373-3341,39.0437609090909,-94.3874490909091,"Sunday - Thursday : 6:00 AM-11:00 PM, Friday - Saturday6:00 AM-11:00 PM",,
Cracker Barrel,930877187,8225 North Church Road,I-35 & State Route 152,Kansas City,MO,64158-1105,US,816-781-1444,39.2413398199977,-94.4613299644282,"Sunday - Thursday : 6:00 AM-11:00 PM, Friday - Saturday6:00 AM-11:00 PM",,
Cracker Barrel,930877171,7920 NW Tiffany Springs Pkwy,I-29 & Tiffany Springs Pkwy,Kansas City,MO,64153-2310,US,816-880-9171,39.2724675807257,-94.6719031522364,"Sunday - Thursday : 6:00 AM-11:00 PM, Friday - Saturday6:00 AM-11:00 PM",,
Cracker Barrel,930877406,12101 South Strangline,I-35 & 119th Street,Olathe,KS,66062-5220,US,913-780-9108,38.90977,-94.77317,"Sunday - Thursday : 6:00 AM-11:00 PM, Friday - Saturday6:00 AM-11:00 PM",,
Cracker Barrel,930877236,915 N. Woodbine Road,I-29 & Frederick Blvd,Saint Joseph,MO,64506-3003,US,816-279-5191,39.7759644147157,-94.7967287625418,"Sunday - Thursday : 6:00 AM-11:00 PM, Friday - Saturday6:00 AM-11:00 PM",,
Cracker Barrel,930877497,1421 South West Ashworth Place,I-470 & Wanamaker/Huntoon St,Topeka,KS,66604-3737,US,785-273-3393,39.0410139,-95.7583499,"Sunday - Thursday : 6:00 AM-11:00 PM, Friday - Saturday6:00 AM-11:00 PM",,
Cracker Barrel,930877440,115 N East St,I-70 & E. Chestnut,Junction City,KS,66441-9465,US,785-762-5567,39.0225857142857,-96.81647,"Sunday - Thursday : 6:00 AM-11:00 PM, Friday - Saturday6:00 AM-11:00 PM",,
Cracker Barrel,930877484,3304 Clark Lane,I-70 & US 63,Columbia,MO,65202-2412,US,573-474-9977,38.9638219756947,-92.2883825428184,"Sunday - Thursday : 6:00 AM-11:00 PM, Friday - Saturday6:00 AM-11:00 PM",,
Cracker Barrel,930877523,4010 Richard Joseph Rd,I-44 & US Business 71,Joplin,MO,64804-5300,US,417-782-9696,37.0450933057017,-94.4804404307956,"Sunday - Thursday : 6:00 AM-11:00 PM, Friday - Saturday6:00 AM-11:00 PM",,
Cracker Barrel,930877520,2858 North Glenstone,I-44 & Glenstone Ave,Springfield,MO,65803-4744,US,417-831-4600,37.2471489074641,-93.2604337991441,"Sunday - Thursday : 6:00 AM-11:00 PM, Friday - Saturday6:00 AM-11:00 PM",,
Cracker Barrel,930877104,128 St. Robert Blvd.,I-44 & SR Y,Saint Robert,MO,65584-3311,US,573-336-7273,37.8257295735024,-92.1456600232635,"Sunday - Thursday : 6:00 AM-11:00 PM, Friday - Saturday6:00 AM-11:00 PM",,
Cracker Barrel,930877149,530 30th Ave.,I-29/80 & S. Expressway,Council Bluffs,IA,51501-7686,US,712-366-6076,41.2306603557022,-95.8483023120644,"Sunday - Thursday : 6:00 AM-11:00 PM, Friday - Saturday6:00 AM-11:00 PM",,
Cracker Barrel,930877467,9409 S 142nd St.,I-80 & SR 50,Omaha,NE,68138-3640,US,402-891-8665,41.1647740155335,-96.1383847236229,"Sunday - Thursday : 6:00 AM-11:00 PM, Friday - Saturday6:00 AM-11:00 PM",,
Cracker Barrel,930877463,6700 North 27th Street,I-80 & 27th Street,Lincoln,NE,68521-8951,US,402-476-4901,40.87886,-96.68186,"Sunday - Thursday : 6:00 AM-11:00 PM, Friday - Saturday6:00 AM-11:00 PM",,
Cracker Barrel,930877482,11701 University Ave.,I-35/80 & University Ave.,Clive,IA,50325-8215,US,515-226-9603,41.60046,-93.7801367924528,"Sunday - Thursday : 6:00 AM-11:00 PM, Friday - Saturday6:00 AM-11:00 PM",,
Cracker Barrel,930877532,3765 West Hwy 76,S.R 76 & Little Pete Road,Branson,MO,65616-3559,US,417-335-3003,36.65077,-93.28979,"Sunday - Thursday : 6:00 AM-11:00 PM, Friday - Saturday6:00 AM-11:00 PM",,
Cracker Barrel,930877603,701 W. Springfield Rd,I-44 & State Route 185,Sullivan,MO,63080-1547,US,573-468-5595,38.2112,-91.16972,"Sunday - Thursday : 6:00 AM-11:00 PM, Friday - Saturday6:00 AM-11:00 PM",,
Cracker Barrel,930877277,2409 S.Shirley Ave.,I-29 & 26th Street,Sioux Falls,SD,57106-4326,US,605-362-9395,43.5250547,-96.7759908,"Sunday - Thursday : 6:00 AM-11:00 PM, Friday - Saturday6:00 AM-11:00 PM",,
Cracker Barrel,930877173,1960 NW 150th Ave.,I-75 & Sheridan Rd.,Pembroke Pines,FL,33028-2804,US,954-704-4020,26.0294531,-80.3449391,"Sunday - Thursday : 6:00 AM-11:00 PM, Friday - Saturday6:00 AM-11:00 PM",,
Cracker Barrel,930877133,155 N. Krome Ave.,US 1 & Palm Dr. / 344th St.,Florida City,FL,33034-3406,US,305-248-2033,25.4478961,-80.4771856,"Sunday - Thursday : 6:00 AM-11:00 PM, Friday - Saturday6:00 AM-11:00 PM",,
Cracker Barrel,930877229,1250 SW 11th Way,I-95 & SW 10th St.,Deerfield Beach,FL,33441-6255,US,954-426-4100,26.3047065,-80.1156662,"Sunday - Thursday : 6:00 AM-11:00 PM, Friday - Saturday6:00 AM-11:00 PM",,
Cracker Barrel,930877249,1475 Southwest 8th St.,I-95 & Woolbright Rd.,Boynton Beach,FL,33426-5877,US,561-736-6001,26.5145163,-80.0771337,"Sunday - Thursday : 6:00 AM-11:00 PM, Friday - Saturday6:00 AM-11:00 PM",,
Cracker Barrel,930877274,2411 Metrocentre Blvd.,I-95 & 45th St.,West Palm Beach,FL,33407-3151,US,561-686-0660,26.7592672,-80.0984803,"Sunday - Thursday : 6:00 AM-11:00 PM, Friday - Saturday6:00 AM-11:00 PM",,
Cracker Barrel,930877306,7461 SW Lost River Rd.,I-95 & SR 76,Stuart,FL,34997-7453,US,772-781-0097,27.111853,-80.2570443,"Sunday - Thursday : 6:00 AM-11:00 PM, Friday - Saturday6:00 AM-11:00 PM",,
Cracker Barrel,930877310,3845 Tollgate Blvd.,I-75 & CR 951,Naples,FL,34114-5487,US,239-455-6588,26.15719,-81.68574,"Sunday - Thursday : 6:00 AM-11:00 PM, Friday - Saturday6:00 AM-11:00 PM",,
Cracker Barrel,930877533,4101 Federal Hwy,US 1,Jensen Beach,FL,34957-3623,US,772-692-6934,27.2550636203676,-80.2783768058305,"Sunday - Thursday : 6:00 AM-11:00 PM, Friday - Saturday6:00 AM-11:00 PM",,
Cracker Barrel,930877568,10090 Daniels Parkway,I-75 & Daniels Parkway,Fort Myers,FL,33913-7724,US,239-561-6461,26.5468064007388,-81.7914569944588,"Sunday - Thursday : 6:00 AM-11:00 PM, Friday - Saturday6:00 AM-11:00 PM",,
Cracker Barrel,930877342,2550 Peters Road,I-95 & SR 70,Fort Pierce,FL,34945-2632,US,772-595-9393,27.41826,-80.39093,"Sunday - Thursday : 6:00 AM-11:00 PM, Friday - Saturday6:00 AM-11:00 PM",,
Cracker Barrel,930877353,4260 Boatways Road,I-75 & SR 80,Fort Myers,FL,33905-2754,US,239-693-2244,26.683234537234,-81.7958148297823,"Sunday - Thursday : 6:00 AM-11:00 PM, Friday - Saturday6:00 AM-11:00 PM",,
Cracker Barrel,930877108,800 Kings Hwy.,I-75 & Kings Hwy.,Port Charlotte,FL,33980-4218,US,941-624-4994,26.9905571,-82.0599487,"Sunday - Thursday : 6:00 AM-11:00 PM, Friday - Saturday6:00 AM-11:00 PM",,
Cracker Barrel,930877391,445 Commercial Court,I-75 & Jacaranda Blvd.,Venice,FL,34292-1648,US,941-480-9200,27.11031851862,-82.3861612641057,"Sunday - Thursday : 6:00 AM-11:00 PM, Friday - Saturday6:00 AM-11:00 PM",,
Cracker Barrel,930877115,2203 Cortez Rd. W.,,Bradenton,FL,34207-1245,US,941-753-9433,27.4616624,-82.583888,"Sunday - Thursday : 6:00 AM-11:00 PM, Friday - Saturday6:00 AM-11:00 PM",,
Cracker Barrel,930877405,636 67th St. Circle E.,I-75 & SR 64,Bradenton,FL,34208-6087,US,941-746-7886,27.49596,-82.628496,"Sunday - Thursday : 6:00 AM-11:00 PM, Friday - Saturday6:00 AM-11:00 PM",,
Cracker Barrel,930877285,17189 Kenyon Avenue,I-35 & SR 50,Lakeville,MN,55044-6902,US,952-898-5151,44.6998154739281,-93.2877181025352,"Sunday - Thursday : 6:00 AM-11:00 PM, Friday - Saturday6:00 AM-11:00 PM",,
Cracker Barrel,930877416,1458 Southlake Plaza Drive,I-75 & Jonesboro Road,Morrow,GA,30260-1752,US,770-961-4533,33.5784678429152,-84.341988042103,"Sunday - Thursday : 6:00 AM-11:00 PM, Friday - Saturday6:00 AM-11:00 PM",,
Cracker Barrel,930877120,970 W. Pointe Ct.,I-20 & Thornton Rd,Lithia Springs,GA,30122-3237,US,678-398-8568,33.7742417449415,-84.6057875385193,"Sunday - Thursday : 6:00 AM-11:00 PM, Friday - Saturday6:00 AM-11:00 PM",,
Cracker Barrel,930877646,6175 McDonough Drive,I-85 & Jimmy Carter Blvd.,Norcross,GA,30093-1204,US,770-446-1313,33.9097035004128,-84.2091001191173,"Sunday - Thursday : 6:00 AM-11:00 PM, Friday - Saturday6:00 AM-11:00 PM",,
Cracker Barrel,1648824340,7995 Senoia Rd.,I-85 & SR 74,Fairburn,GA,30213,US,770-969-0688,33.5474016,-84.5760946,"Sunday - Thursday : 6:00 AM-11:00 PM, Friday - Saturday6:00 AM-11:00 PM",,
Cracker Barrel,930877221,7060 Concourse Pkwy,I-20 & GA Hwy 5,Douglasville,GA,30134-4548,US,770-489-8588,33.7301445229271,-84.7590225775759,"Sunday - Thursday : 6:00 AM-11:00 PM, Friday - Saturday6:00 AM-11:00 PM",,
Cracker Barrel,930877283,1182 Dogwood Dr SE,I-20 & State Route 138,Conyers,GA,30012-5454,US,770-785-7600,33.6546047473637,-84.0056505052726,"Sunday - Thursday : 6:00 AM-11:00 PM, Friday - Saturday6:00 AM-11:00 PM",,
Cracker Barrel,879288272,1740 Scenic Hwy.,,Snellville,GA,30078,US,770-736-7763,33.8786627,-84.0123349,"Sunday - Thursday : 6:00 PM-11:00 PM, Friday - Saturday6:00 PM-11:00 PM",,
Cracker Barrel,945128901,1124 Hwy 20 W,I-75 & SR 20/81,McDonough,GA,30253-6520,US,678-583-9931,33.4700706766917,-84.1164163909774,"Sunday - Thursday : 6:00 AM-11:00 PM, Friday - Saturday6:00 AM-11:00 PM",,
Cracker Barrel,930877323,Celebration Drive,I-85 & Lawrenceville/Suwanee Rd.,Suwanee,GA,30024-3113,US,770-932-5692,34.02412,-84.05318,"Sunday - Thursday : 6:00 AM-11:00 PM, Friday - Saturday6:00 AM-11:00 PM",,
Cracker Barrel,930877237,527 Bullsboro Drive,I-85 & SR 34,Newnan,GA,30265-1045,US,770-252-1055,33.3957046119175,-84.7606088796538,"Sunday - Thursday : 6:00 AM-11:00 PM, Friday - Saturday6:00 AM-11:00 PM",,
Cracker Barrel,930877585,105 Hoffman Drive,I-85 & SR109,LaGrange,GA,30241-3694,US,706-884-0159,33.0420383961047,-84.9734397046865,"Sunday - Thursday : 6:00 AM-11:00 PM, Friday - Saturday6:00 AM-11:00 PM",,
Cracker Barrel,930877649,3950 Riverside Dr.,I-75 & Riverside Dr.,Macon,GA,31210-1803,US,478-474-7029,32.904955129898,-83.6902452215908,"Sunday - Thursday : 6:00 AM-11:00 PM, Friday - Saturday6:00 AM-11:00 PM",,
Cracker Barrel,930877629,5000 Eisenhower Pkwy,I-475 & US 80,Macon,GA,31206-8702,US,478-477-4848,32.81278,-83.72032,"Sunday - Thursday : 6:00 AM-11:00 PM, Friday - Saturday6:00 AM-11:00 PM",,
Cracker Barrel,930877667,1500 Bradley Park Dr.,US 80 & Bradley Park Dr.,Columbus,GA,31904-3001,US,706-317-3460,32.532,-84.97166,"Sunday - Thursday : 6:00 AM-11:00 PM, Friday - Saturday6:00 AM-11:00 PM",,
Cracker Barrel,930877258,1051 Fox Run Ave.,I-85 & US 280/431,Opelika,AL,36801-5931,US,334-749-2363,32.6459104,-85.3549448,"Sunday - Thursday : 6:00 AM-11:00 PM, Friday - Saturday6:00 AM-11:00 PM",,
Cracker Barrel,945128930,9191 Boyd-Cooper Pkwy.,I-85 & US 80,Montgomery,AL,36117-7581,US,334-244-1085,32.3663771,-86.1380237,"Sunday - Thursday : 6:00 AM-11:00 PM, Friday - Saturday6:00 AM-11:00 PM",,
Cracker Barrel,930877581,199 Supercenter Dr.,I-65 & SR 3/US 31,Calera,AL,35040-5193,US,205-668-2027,33.1469329,-86.7490244,"Sunday - Thursday : 6:00 AM-11:00 PM, Friday - Saturday6:00 AM-11:00 PM",,
Cracker Barrel,930877381,796 Business Park Drive,I-65 & SR 14,Prattville,AL,36066-7247,US,334-365-9600,32.4868126744889,-86.4113794047672,"Sunday - Thursday : 6:00 AM-11:00 PM, Friday - Saturday6:00 AM-11:00 PM",,
Cracker Barrel,930877530,3431 Ross Clark Circle,US 231 N & Ross Clark Ave.,Dothan,AL,36303-2579,US,334-673-8454,31.2532785,-85.396739,"Sunday - Thursday : 6:00 AM-11:00 PM, Friday - Saturday6:00 AM-11:00 PM",,
Cracker Barrel,930877275,4800 Doris Pate Drive,I-20/I-59 & Skyland Blvd,Tuscaloosa,AL,35405-3557,US,205-562-8282,33.17538,-87.4748,"Sunday - Thursday : 6:00 AM-11:00 PM, Friday - Saturday6:00 AM-11:00 PM",,
Cracker Barrel,930877344,181 Interstate Dr.,I-65 & SR 185,Greenville,AL,36037-3765,US,334-382-2691,31.8526009,-86.6413222,"Sunday - Thursday : 6:00 AM-11:00 PM, Friday - Saturday6:00 AM-11:00 PM",,
Cracker Barrel,930877240,6643 Transit Road,I-90 & SR 78,Williamsville,NY,14221-7212,US,716-635-9542,42.95076,-78.696935,"Sunday - Thursday : 6:00 AM-11:00 PM, Friday - Saturday6:00 AM-11:00 PM",,
Cracker Barrel,930877428,790 E I 10 Service Road,I-10 & Gause Blvd.,Slidell,LA,70461-5502,US,985-645-9631,30.28438,-89.7483394858639,"Sunday - Thursday : 6:00 AM-11:00 PM, Friday - Saturday6:00 AM-11:00 PM",,
Cracker Barrel,1271678359,8001 Pinnacle Pkwy.,"I-12 & Pinnacle Pkwy., Exit 60",Covington,LA,70433,US,985-893-0151,30.4431621581065,-90.1241387682004,"Sunday - Thursday : 6:00 AM-11:00 PM, Friday - Saturday6:00 AM-11:00 PM",,
Cracker Barrel,930877214,201 Westin Oaks Drive,I-55 & SR 190,Hammond,LA,70403-3437,US,985-542-1828,30.5035218357488,-90.5008175845411,"Sunday - Thursday : 6:00 AM-11:00 PM, Friday - Saturday6:00 AM-11:00 PM",,
Cracker Barrel,930877378,2313 South Tanger Blvd.,I-10 & SR 30,Gonzales,LA,70737-5743,US,225-647-5277,30.2122986719844,-90.9530406004604,"Sunday - Thursday : 6:00 AM-11:00 PM, Friday - Saturday6:00 AM-11:00 PM",,
Cracker Barrel,930877638,15255 Crossroads Pkwy.,I-10 & US 49,Gulfport,MS,39503-3570,US,228-831-1622,30.437548243533,-89.0947453232707,"Sunday - Thursday : 6:00 AM-11:00 PM, Friday - Saturday6:00 AM-11:00 PM",,
Cracker Barrel,930877503,10250 Plaza Americana Drive,I-12 & Airline Hwy,Baton Rouge,LA,70816-8172,US,225-926-1328,30.426608585863,-91.0731381819181,"Sunday - Thursday : 6:00 AM-11:00 PM, Friday - Saturday6:00 AM-11:00 PM",,
Cracker Barrel,930877269,6805 Hwy 63 North,I-10 & SR 63,Moss Point,MS,39563-9473,US,228-475-8856,30.4397899498144,-88.5285846497926,"Sunday - Thursday : 6:00 AM-11:00 PM, Friday - Saturday6:00 AM-11:00 PM",,
Cracker Barrel,930877516,6659 Hwy 49,I-59 & US 49,Hattiesburg,MS,39401-3009,US,601-296-7950,31.3537303,-89.3478068,"Sunday - Thursday : 6:00 AM-11:00 PM, Friday - Saturday6:00 AM-11:00 PM",,
Cracker Barrel,930877227,1207 Hampton Drive,I-55 & Brookway Blvd.,Brookhaven,MS,39601-2699,US,601-823-6800,31.5779495748587,-90.4735223779495,"Sunday - Thursday : 6:00 AM-11:00 PM, Friday - Saturday6:00 AM-11:00 PM",,
Cracker Barrel,930877309,116 Alcide Dominique Drive,I-10 & University,Lafayette,LA,70506-1024,US,337-233-4220,30.2491180167919,-92.0358780036656,"Sunday - Thursday : 6:00 AM-11:00 PM, Friday - Saturday6:00 AM-11:00 PM",,
Cracker Barrel,930877563,845-A Schillinger Rd S,Schillinger Rd & Old Government St,Mobile,AL,36695-8910,US,251-633-8200,30.672989425855,-88.2254733965652,"Sunday - Thursday : 6:00 AM-11:00 PM, Friday - Saturday6:00 AM-11:00 PM",,
Cracker Barrel,930877151,43 E I65 Service Rd. S,I-65 & Dauphin St.,Mobile,AL,36606-3910,US,251-473-6761,30.6872200927895,-88.1254214723301,"Sunday - Thursday : 6:00 AM-11:00 PM, Friday - Saturday6:00 AM-11:00 PM",,
Cracker Barrel,930877580,30227 Eastern Shore Ct.,I-10 & SR 181,Spanish Fort,AL,36527-5800,US,251-621-4826,30.671894,-87.8522127,"Sunday - Thursday : 6:00 AM-11:00 PM, Friday - Saturday6:00 AM-11:00 PM",,
Cracker Barrel,930877546,3150 S McKenzie St,SR 59 & CR 20,Foley,AL,36535-3434,US,251-943-7060,30.3680120821412,-87.6844557068848,"Sunday - Thursday : 6:00 AM-11:00 PM, Friday - Saturday6:00 AM-11:00 PM",,
Cracker Barrel,930877162,8050 Lavelle Way,I-10 & Pine Forest Rd.,Pensacola,FL,32526-8776,US,850-944-2090,30.4970444,-87.3060936,"Sunday - Thursday : 6:00 AM-11:00 PM, Friday - Saturday6:00 AM-11:00 PM",,
Cracker Barrel,930877288,6108 West Calhoun Dr.,I-49 & Air Base Rd,Alexandria,LA,71303-5067,US,318-767-0500,31.3454937695598,-92.5201403489029,"Sunday - Thursday : 6:00 AM-11:00 PM, Friday - Saturday6:00 AM-11:00 PM",,
Cracker Barrel,930877368,118 Hwy 11 & 80,"I-20/59 & U.S. 45, Exit 154",Meridian,MS,39301-4593,US,601-482-3003,32.360093,-88.6805855,"Sunday - Thursday : 6:00 AM-11:00 PM, Friday - Saturday6:00 AM-11:00 PM",,
Harlingen,-1223997361,110 Bass Pro Drive,,Harlingen,TX,78550,US,956-364-3059,26.1906281,-97.7208188,"Sunday - Thursday : 6:00 AM-11:00 PM, Friday - Saturday6:00 AM-11:00 PM",,
Cracker Barrel,945128898,3817 W Expressway 83,Expressway 83 & Ware Rd,McAllen,TX,78503-8145,US,956-683-1874,26.1940335,-98.265165,"Sunday - Thursday : 6:00 AM-11:00 PM, Friday - Saturday6:00 AM-11:00 PM",,
Cracker Barrel,930877165,2421 Old Country Inn Drive,I-64 & State Road 157,Caseyville,IL,62232-2305,US,618-397-1599,38.611432152773,-90.0486361043914,"Sunday - Thursday : 6:00 AM-11:00 PM, Friday - Saturday6:00 AM-11:00 PM",,
Cracker Barrel,930877569,10915 New Halls Ferry Rd,I-270 & New Halls Ferry Road,Ferguson,MO,63136-4434,US,314-868-7080,38.7687811186991,-90.2643321007651,"Sunday - Thursday : 7:00 AM-10:00 PM, Friday - Saturday7:00 AM-10:00 PM",,
Cracker Barrel,930877392,6233 Heimos Industrial Park Dr,I-55 & Merramec Bottom Rd,St. Louis,MO,63129-6300,US,314-416-8880,38.4630206970481,-90.3716659631908,"Sunday - Thursday : 6:00 AM-11:00 PM, Friday - Saturday6:00 AM-11:00 PM",,
Cracker Barrel,930877587,3160 Green Mount Crossing Dr,I-64 & Green Mount Road,Shiloh,IL,62269-7282,US,618-624-7226,38.5736,-89.9274280650115,"Sunday - Thursday : 6:00 AM-11:00 PM, Friday - Saturday6:00 AM-11:00 PM",,
Cracker Barrel,930877432,1050 South Hwy Drive,I-44 & Bowles Avenue,Fenton,MO,63026-1911,US,636-349-3335,38.5312956,-90.4737611,"Sunday - Thursday : 6:00 AM-11:00 PM, Friday - Saturday6:00 AM-11:00 PM",,
Cracker Barrel,930877190,2001 Formosa Road,I-70/55 & SR 162,Troy,IL,62294-1384,US,618-667-2021,38.73279,-89.91536,"Sunday - Thursday : 6:00 AM-11:00 PM, Friday - Saturday6:00 AM-11:00 PM",,
Cracker Barrel,930877411,901 Veterans Memorial Pkwy,I-70 & Fifth Street,Saint Charles,MO,63303-2120,US,636-947-6566,38.76973,-90.49904,"Sunday - Thursday : 6:00 AM-11:00 PM, Friday - Saturday6:00 AM-11:00 PM",,
Cracker Barrel,930877600,1193 Scenic Drive,I-55 & McNutt Street,Herculaneum,MO,63048-1407,US,636-479-7050,38.2617319514741,-90.391114798912,"Sunday - Thursday : 6:00 AM-11:00 PM, Friday - Saturday6:00 AM-11:00 PM",,
Cracker Barrel,930877575,120 Progress Point Ct,I-64 & US Hwy 40 & Ave K,O'Fallon,MO,63368-2244,US,636-329-9401,38.7156378439578,-90.7001958521145,"Sunday - Thursday : 6:00 AM-11:00 PM, Friday - Saturday6:00 AM-11:00 PM",,
Cracker Barrel,930877212,8400 Pardee Road,I-81 & SR 31,Cicero,NY,13039-8518,US,315-698-4311,43.17778,-76.11612,"Sunday - Thursday : 6:00 AM-11:00 PM, Friday - Saturday6:00 AM-11:00 PM",,
Cracker Barrel,930877180,2075 Hylan Dr.,I-390 & Hylan Drive,Rochester,NY,14623-4219,US,585-321-3230,43.0723666551547,-77.6253860267043,"Sunday - Thursday : 6:00 AM-11:00 PM, Friday - Saturday6:00 AM-11:00 PM",,
Cracker Barrel,930877233,1289 Coffeen Street,I-81 & SR12,Watertown,NY,13601-1819,US,315-782-2460,43.988380625,-75.942803125,"Sunday - Thursday : 6:00 AM-11:00 PM, Friday - Saturday6:00 AM-11:00 PM",,
Cracker Barrel,930877619,5018 Milwaukee Ave,Hwy 82 & Milwaukee Extension,Lubbock,TX,79407-3807,US,806-795-9884,33.5485814381271,-101.95711819398,"Sunday - Thursday : 6:00 AM-11:00 PM, Friday - Saturday6:00 AM-11:00 PM",,
Cracker Barrel,930877627,3108 N Loop 250 West,Loop 250 & Wadley Avenue,Midland,TX,79707,US,432-689-3137,32.01619,-102.10371,"Sunday - Thursday : 6:00 AM-11:00 PM, Friday - Saturday6:00 AM-11:00 PM",,
Cracker Barrel,930877517,2323 I-40 East,I-40 & Quarterhorse Dr,Amarillo,TX,79104-3403,US,806-372-2034,35.1934125293512,-101.811662941984,"Sunday - Thursday : 6:00 AM-11:00 PM, Friday - Saturday6:00 AM-11:00 PM",,
Cracker Barrel,930877327,309 Constitution Drive,I-20 & Thomas Road,West Monroe,LA,71292-8034,US,318-325-5505,32.5068979271074,-92.1598059110791,"Sunday - Thursday : 6:00 AM-11:00 PM, Friday - Saturday6:00 AM-11:00 PM",,
Cracker Barrel,930877512,1733 South Cole Road,"I-84 & Overland Rd., Exit 50B-E, 50A-W",Boise,ID,83709-2810,US,208-321-8280,43.5886641666667,-116.27413125,"Sunday - Thursday : 6:00 AM-11:00 PM, Friday - Saturday6:00 AM-11:00 PM",,
Nampa,-1184275306,16853 N. Marketplace Blvd.,I-84 & Midland Blvd.,Nampa,ID,83687,US,208-442-1100,43.61434,-116.594171717172,"Sunday - Thursday : 6:00 AM-11:00 PM, Friday - Saturday6:00 AM-11:00 PM",,
Cracker Barrel,177175983,1675 West Lee Ct.,I-90 & Northwest Blvd.,Coeur d'Alene,ID,83814,US,208-664-0656,47.701491,-116.807067,"Sunday - Thursday : 6:00 AM-11:00 PM, Friday - Saturday6:00 AM-11:00 PM",,
Cracker Barrel,930877307,2929 Expo Pkwy.,I-90 & Reserve,Missoula,MT,59808-8600,US,406-721-9820,46.916208755203,-114.035486904418,"Sunday - Thursday : 6:00 AM-11:00 PM, Friday - Saturday6:00 AM-11:00 PM",,
Cracker Barrel,930877250,201 Cracker Barrel Rd.,I-10 & SR 85,Crestview,FL,32536-2228,US,850-682-8804,30.7231528,-86.5691203,"Sunday - Thursday : 6:00 AM-11:00 PM, Friday - Saturday6:00 AM-11:00 PM",,
Cracker Barrel,930877557,34930 Emerald Coast Pkwy,US 98 & Hutchinson,Destin,FL,32541-3402,US,850-269-3344,30.3889208695652,-86.4253369565217,"Sunday - Thursday : 6:00 AM-11:00 PM, Friday - Saturday6:00 AM-11:00 PM",,
Cracker Barrel,930877494,2283 West City Center Court,I-215 & 3500 South,West Valley City,UT,84119-3462,US,801-977-8221,40.6993,-111.949127437714,"Sunday - Thursday : 6:00 AM-11:00 PM, Friday - Saturday6:00 AM-11:00 PM",,
Cracker Barrel,930877451,1792 N. Heritage Park Blvd,I-15 & Antelope Drive,Layton,UT,84041-1949,US,801-776-3527,41.0865465821226,-111.987514936592,"Sunday - Thursday : 6:00 AM-11:00 PM, Friday - Saturday6:00 AM-11:00 PM",,
Cracker Barrel,930877427,460 South 2000 West,I-15 & SR 77,Springville,UT,84663-5648,US,801-489-0133,40.1607708810774,-111.649780440539,"Sunday - Thursday : 6:00 AM-11:00 PM, Friday - Saturday6:00 AM-11:00 PM",,
Cracker Barrel,930877371,1685 N Grandview Ln,I-94 & Divide Ave,Bismarck,ND,58503-0808,US,701-223-2785,46.8291893420005,-100.819568508888,"Sunday - Thursday : 6:00 AM-11:00 PM, Friday - Saturday6:00 AM-11:00 PM",,
Cracker Barrel,930877468,5620 South Frontage Road,I-90 & S. Frontage Road,Billings,MT,59101-6367,US,406-254-9403,45.7480316025402,-108.559528978444,"Sunday - Thursday : 6:00 AM-11:00 PM, Friday - Saturday6:00 AM-11:00 PM",,
