store_name,store_number,address,address2,city,state,zip_code,country,phone_number,latitude,longitude,store_hours,store_type,other_fields,coming_soon
,,2807 Outer Dr,,Marion,IL,62959,United States,(618) 993-1983,,,"Monday        10:00am - 10:00pm, Tuesday       10:00am - 10:00pm, Wednesday  10:00am - 10:00pm, Thursday      10:00am - 10:00pm, Friday           10:00am - 10:00pm, Saturday       10:00am - 10:00pm, Sunday         10:00am - 9:00pm",,,
,,1425 TN-96,,Fairview,TN,37062,United States,(615) 799-2016,,,"Monday        10:00am - 10:00pm, Tuesday       10:00am - 10:00pm, Wednesday  10:00am - 10:00pm, Thursday      10:00am - 10:00pm, Friday           10:00am - 10:00pm, Saturday       10:00am - 10:00pm, Sunday         10:00am - 10:00pm",,,
,,2314 Lone Oak Rd,,Paducah,KY,42003,United States,(270) 554-8682,,,"Monday        10:30am - 9:00pm, Tuesday       10:30am - 9:00pm, Wednesday  10:30am - 9:00pm, Thursday      10:30am - 9:00pm, Friday           10:30am - 10:00pm, Saturday       10:30am - 10:00pm, Sunday         10:30am - 9:00pm",,,
,,1800 Priority Way,,Louisville,KY,40299,United States,(502) 240-9945,,,"Monday        10:30am - 10:00pm, Tuesday       10:30am - 10:00pm, Wednesday  10:30am - 10:00pm, Thursday      10:30am - 10:00pm, Friday           10:30am - 10:00pm, Saturday       10:30am - 10:00pm, Sunday         10:30am - 9:00pm",,,
,,James Sanders Blvd,,Paducah,KY,42001,United States,(270) 759-4433,,,"Monday        10:30am - 9:00pm, Tuesday       10:30am - 9:00pm, Wednesday  10:30am - 9:00pm, Thursday      10:30am - 9:00pm, Friday           10:30am - 10:00pm, Saturday       10:30am - 10:00pm, Sunday         10:30am - 9:00pm",,,
,,801 Paramount Dr,,Murray,KY,42071,United States,(270) 759-2480,,,"Monday        10:30am - 9:00pm, Tuesday       10:30am - 9:00pm, Wednesday  10:30am - 9:00pm, Thursday      10:30am - 9:00pm, Friday           10:30am - 9:00pm, Saturday       10:30am - 9:00pm, Sunday         10:30am - 9:00pm",,,
,,1711 Galleria Blvd,,Franklin,TN,37067,United States,(615) 771-2006,,,"Monday        10:00am - 10:00pm, Tuesday       10:00am - 10:00pm, Wednesday  10:00am - 10:00pm, Thursday      10:00am - 10:00pm, Friday           10:00am - 11:00pm, Saturday       10:00am - 11:00pm, Sunday         10:00am - 10:00pm",,,
,,5004 Maryland Way,,Brentwood,TN,37027,United States,(615) 371-8145,,,"Monday        10:30am - 9:00pm, Tuesday       10:30am - 9:00pm, Wednesday  10:30am - 9:00pm, Thursday      10:30am - 9:00pm, Friday           10:30am - 10:00pm, Saturday       10:30am - 10:00pm, Sunday         10:30am - 9:00pm",,,
,,2744 Elm Hill Pike,,Nashville,TN,37214,United States,(615) 391-3555,,,Our Elm Hill Pike restaurant is temporarily closed.,,,
,,525 US-27,,Somerset,KY,42503,United States,(606) 677-9273,,,"Monday        10:30am - 9:00pm, Tuesday       10:30am - 9:00pm, Wednesday  10:30am - 9:00pm, Thursday      10:30am - 9:00pm, Friday           10:30am - 10:00pm, Saturday       10:30am - 10:00pm, Sunday         10:30am - 9:00pm",,,
,,7433 Siwell Rd,,Byram,MS,39272,United States,(601) 346-7767,,,"Monday        10:00am - 10:00pm, Tuesday       10:00am - 10:00pm, Wednesday  10:00am - 10:00pm, Thursday      10:00am - 10:00pm, Friday           10:00am - 11:00pm, Saturday       10:00am - 11:00pm, Sunday         10:00am - 10:00pm",,,
,,305 N Shackleford Rd,,Little Rock,AR,72211,United States,(501) 904-5090,,,"Monday        10:30am - 10:00pm, Tuesday       10:30am - 10:00pm, Wednesday  10:30am - 10:00pm, Thursday      10:30am - 10:00pm, Friday           10:30am - 10:00pm, Saturday       10:30am - 10:00pm, Sunday         10:30am - 10:00pm",,,
,,8500 Andermatt Dr,,Lincoln,NE,68526,United States,(402) 489-4300,,,"Monday        10:30am - 9:00pm, Tuesday       10:30am - 9:00pm, Wednesday  10:30am - 9:00pm, Thursday      10:30am - 9:00pm, Friday           10:30am - 9:00pm, Saturday       10:30am - 9:00pm, Sunday         10:30am - 9:00pm",,,
,,1420 Military Rd,,Benton,AR,72015,United States,(501) 778-4542,,,"Monday        10:30am - 9:00pm, Tuesday       10:30am - 9:00pm, Wednesday  10:30am - 9:00pm, Thursday      10:30am - 9:00pm, Friday           10:30am - 9:00pm, Saturday       10:30am - 9:00pm, Sunday         10:30am - 9:00pm",,,
,,10340 N Mall Dr,,Baton Rouge,LA,70809,United States,(225) 291-5880,,,"Monday        10:30am - 10:00pm, Tuesday       10:30am - 10:00pm, Wednesday  10:30am - 10:00pm, Thursday      10:30am - 10:00pm, Friday           10:30am - 10:00pm, Saturday       10:30am - 10:00pm, Sunday         10:30am - 8:00pm",,,
,,15908 East 23rd St S,,Independence,MO,64055,United States,(816) 254-7284,,,"Monday        10:00am - 10:30pm, Tuesday       10:00am - 10:30pm, Wednesday  10:00am - 10:30pm, Thursday      10:00am - 10:30pm, Friday           10:00am - 10:30pm, Saturday       10:00am - 10:30pm, Sunday         10:00am - 10:30pm",,,
,,1000 N Dixie Ave,,Cookeville,TN,38505,United States,(931) 372-3276,,,"Monday        10:30am - 7:00pm, Tuesday       10:30am - 7:00pm, Wednesday  10:30am - 7:00pm, Thursday      10:30am - 7:00pm, Friday           10:30am - 7:00pm, Saturday       Closed, Sunday         11:00am - 11:00pm",,,
,,190 NE Tudor Rd,,Lee's Summit,MO,64086,United States,(816) 525-9394,,,"Monday        10:00am - 10:30pm, Tuesday       10:00am - 10:30pm, Wednesday  10:00am - 10:30pm, Thursday      10:00am - 10:30pm, Friday           10:00am - 10:30pm, Saturday       10:00am - 10:30pm, Sunday         10:00am - 10:30pm",,,
,,9860 Leesville Rd,,Raleigh,NC,27613,United States,(919) 847-7098,,,"Monday        10:00am - 10:00pm, Tuesday       10:00am - 10:00pm, Wednesday  10:00am - 10:00pm, Thursday      10:00am - 10:00pm, Friday           10:00am - 11:00pm, Saturday       10:00am - 11:00pm, Sunday         10:00am - 10:00pm",,,
,,1900 MO-7,,Blue Springs,MO,64014,United States,(816) 220-2808,,,"Monday        10:00am - 10:30pm, Tuesday       10:00am - 10:30pm, Wednesday  10:00am - 10:30pm, Thursday      10:00am - 10:30pm, Friday           10:00am - 10:30pm, Saturday       10:00am - 10:30pm, Sunday         10:00am - 10:30pm",,,
,,10490 US 49,,Gulfport,MS,39503,United States,(228) 539-5922,,,"Monday        10:00am - 10:00pm, Tuesday       10:00am - 10:00pm, Wednesday  10:00am - 10:00pm, Thursday      10:00am - 10:00pm, Friday           10:00am - 11:00pm, Saturday       10:00am - 11:00pm, Sunday         10:00am - 10:00pm",,,
,,290 S State Rd 434,,Altamonte Springs,FL,32714,United States,(407) 862-0660,,,"Monday        10:00am - 10:00pm, Tuesday       10:00am - 10:00pm, Wednesday  10:00am - 10:00pm, Thursday      10:00am - 11:00pm, Friday           10:00am - 11:00pm, Saturday       10:00am - 11:00pm, Sunday         10:00am - 10:00pm",,,
,,4600 Opa-Locka Ln,,Destin,FL,32541,United States,(850) 650-1474,,,"Monday        10:00am - 9:00pm, Tuesday       10:00am - 9:00pm, Wednesday  10:00am - 9:00pm, Thursday      10:00am - 9:00pm, Friday           10:00am - 9:00pm, Saturday       10:00am - 10:00pm, Sunday         10:00am - 10:00pm",,,
,,10008 Kingston Pike,,Knoxville,TN,37922,United States,(865) 531-7211,,,"Monday        10:30am - 9:30pm, Tuesday       10:30am - 9:30pm, Wednesday  10:30am - 9:30pm, Thursday      10:30am - 9:30pm, Friday           10:30am - 10:00pm, Saturday       10:30am - 10:00pm, Sunday         10:30am - 9:30pm",,,
,,101 Promenade Blvd,,Flowood,MS,39232,United States,(601) 919-3339,,,"Monday        10:00am - 10:00pm, Tuesday       10:00am - 10:00pm, Wednesday  10:00am - 10:00pm, Thursday      10:00am - 10:00pm, Friday           10:00am - 11:00pm, Saturday       10:00am - 11:00pm, Sunday         10:00am - 10:00pm",,,
,,1015 Center Point Pl,,Franklin,TN,37064,United States,(615) 628-8208,,,"Monday        10:30am - 9:00pm, Tuesday       10:30am - 9:00pm, Wednesday  10:30am - 9:00pm, Thursday      10:30am - 9:00pm, Friday           10:30am - 10:00pm, Saturday       10:30am - 10:00pm, Sunday         10:30am - 9:00pm",,,
,,2322 Hwy 19 N,,Meridian,MS,39307,United States,(601) 485-5800,,,"Monday        10:00am - 10:00pm, Tuesday       10:00am - 10:00pm, Wednesday  10:00am - 10:00pm, Thursday      10:00am - 10:00pm, Friday           10:00am - 10:00pm, Saturday       10:00am - 10:00pm, Sunday         10:00am - 10:00pm",,,
,,314 E Carpenter St,,Cleveland,MS,38732,United States,(601) 843-9063,,,"Monday        10:30am - 10:00pm, Tuesday       10:30am - 10:00pm, Wednesday  10:30am - 10:00pm, Thursday      10:30am - 10:00pm, Friday           10:30am - 11:00pm, Saturday       10:30am - 11:00pm, Sunday         10:30am - 10:00pm",,,
,,10260 Front Beach Rd,,Panama City Beach,FL,32407,United States,(850) 235-1576,,,"Monday        10:00am - 9:00pm, Tuesday       10:00am - 9:00pm, Wednesday  10:00am - 9:00pm, Thursday      10:00am - 9:00pm, Friday           10:00am - 9:00pm, Saturday       10:00am - 10:00pm, Sunday         10:00am - 10:00pm",,,
,,849 S State St,,Clarksdale,MS,38614,United States,(662) 624-9292,,,"Monday        10:30am - 10:00pm, Tuesday       10:30am - 10:00pm, Wednesday  10:30am - 10:00pm, Thursday      10:30am - 10:00pm, Friday           10:30am - 11:00pm, Saturday       10:30am - 11:00pm, Sunday         10:30am - 10:00pm",,,
,,2229 S Caraway Rd,,Jonesboro,AR,72401,United States,(870) 933-7174,,,"Monday        10:30am - 9:00pm, Tuesday       10:30am - 9:00pm, Wednesday  10:30am - 9:00pm, Thursday      10:30am - 9:00pm, Friday           10:30am - 9:00pm, Saturday       10:30am - 9:00pm, Sunday         Closed",,,
,,2601 N State St,,Jackson,MS,39216,United States,(601) 362-5223,,,"Monday        7:00am - 10:00pm, Tuesday       7:00am - 10:00pm, Wednesday  7:00am - 10:00pm, Thursday      7:00am - 10:00pm, Friday           6:00am - 10:00pm, Saturday       8:00am - 11:00pm, Sunday         8:00am - 11:00pm",,,
,,6230 Old Canton Rd,,Jackson,MS,39211,United States,(601) 957-3790,,,"Monday        10:00am - 10:00pm, Tuesday       10:00am - 10:00pm, Wednesday  10:00am - 10:00pm, Thursday      10:00am - 10:00pm, Friday           10:00am - 11:00pm, Saturday       10:00am - 11:00pm, Sunday         10:00am - 10:00pm",,,
,,103 Home Depot Dr,,Oxford,MS,38655,United States,(662) 236-1233,,,"Monday        10:00am - 10:00pm, Tuesday       10:00am - 10:00pm, Wednesday  10:00am - 10:00pm, Thursday      10:00am - 10:00pm, Friday           10:00am - 11:00pm, Saturday       10:00am - 11:00pm, Sunday         10:00am - 10:00pm",,,
,,1863 Main St,,Madison,MS,39110,United States,(601) 856-1449,,,"Monday        10:00am - 10:00pm, Tuesday       10:00am - 10:00pm, Wednesday  10:00am - 10:00pm, Thursday      10:00am - 10:00pm, Friday           10:00am - 11:00pm, Saturday       10:00am - 11:00pm, Sunday         10:00am - 10:00pm",,,
,,1989 US-31,,Birmingham,AL,35244,United States,(205) 989-7138,,,"Monday        10:00am - 10:00pm, Tuesday       10:00am - 10:00pm, Wednesday  10:00am - 10:00pm, Thursday      10:00am - 10:00pm, Friday           10:00am - 10:00pm, Saturday       10:00am - 10:00pm, Sunday         10:00am - 10:00pm",,,
,,514 W Park Ave,,Greenwood,MS,38930,United States,(662) 459-4344,,,"Monday        9:00am - 9:00pm, Tuesday       9:00am - 9:00pm, Wednesday  9:00am - 9:00pm, Thursday      9:00am - 9:00pm, Friday           9:00am - 9:00pm, Saturday       9:00am - 9:00pm, Sunday         9:00am - 9:00pm",,,
,,1428 Montgomery Hwy,,Vestavia Hills,AL,35216,United States,(205) 979-1292,,,"Monday        10:00am - 10:00pm, Tuesday       10:00am - 10:00pm, Wednesday  10:00am - 10:00pm, Thursday      10:00am - 10:00pm, Friday           10:00am - 10:00pm, Saturday       10:00am - 10:00pm, Sunday         10:00am - 10:00pm",,,
,,1723 Union Ave,,Memphis,TN,38104,United States,(901) 274-1544,,,"Monday        10:00am - 10:00pm, Tuesday       10:00am - 10:00pm, Wednesday  10:00am - 10:00pm, Thursday      10:00am - 10:00pm, Friday           10:00am - 10:00pm, Saturday       10:00am - 10:00pm, Sunday         10:00am - 10:00pm",,,
,,436 Perkins Extd,,Memphis,TN,38117,United States,(901) 763-1833,,,"Monday        10:00am - 10:00pm, Tuesday       10:00am - 10:00pm, Wednesday  10:00am - 10:00pm, Thursday      10:00am - 10:00pm, Friday           10:00am - 10:00pm, Saturday       10:00am - 10:00pm, Sunday         10:00am - 10:00pm",,,
,,5091 Park Ave,,Memphis,TN,38117,United States,(901) 762-0733,,,"Monday        10:00am - 10:00pm, Tuesday       10:00am - 10:00pm, Wednesday  10:00am - 10:00pm, Thursday      10:00am - 10:00pm, Friday           10:00am - 10:00pm, Saturday       10:00am - 10:00pm, Sunday         10:00am - 10:00pm",,,
,,2110 West St,,Germantown,TN,38138,United States,(901) 751-0822,,,"Monday        10:00am - 10:00pm, Tuesday       10:00am - 10:00pm, Wednesday  10:00am - 10:00pm, Thursday      10:00am - 10:00pm, Friday           10:00am - 10:00pm, Saturday       10:00am - 10:00pm, Sunday         10:00am - 10:00pm",,,
,,1709 Whitten Rd,,Memphis,TN,38134,United States,(901) 266-8041,,,"Monday        6:00am - 10:00pm, Tuesday       6:00am - 10:00pm, Wednesday  6:00am - 10:00pm, Thursday      6:00am - 10:00pm, Friday           6:00am - 10:00pm, Saturday       10:00am - 8:00pm, Sunday         10:00am - 8:00pm",,,
,,2931 Kirby Whitten Rd,,Memphis,TN,38134,United States,(901) 388-7800,,,"Monday        10:00am - 10:00pm, Tuesday       10:00am - 10:00pm, Wednesday  10:00am - 10:00pm, Thursday      10:00am - 10:00pm, Friday           10:00am - 10:00pm, Saturday       10:00am - 10:00pm, Sunday         10:00am - 10:00pm",,,
,,8079 Trinity Rd,,Memphis,TN,38018,United States,(901) 758-2400,,,"Monday        10:00am - 10:00pm, Tuesday       10:00am - 10:00pm, Wednesday  10:00am - 10:00pm, Thursday      10:00am - 10:00pm, Friday           10:00am - 10:00pm, Saturday       10:00am - 10:00pm, Sunday         10:00am - 10:00pm",,,
,,6466 Poplar Ave,,Memphis,TN,38119,United States,(901) 680-8004,,,"Monday        10:00am - 10:00pm, Tuesday       10:00am - 10:00pm, Wednesday  10:00am - 10:00pm, Thursday      10:00am - 10:00pm, Friday           10:00am - 10:00pm, Saturday       10:00am - 10:00pm, Sunday         10:00am - 10:00pm",,,
,,7545 Goodman Rd,,Olive Branch,MS,38654,United States,(662) 893-2221,,,"Monday        10:00am - 10:00pm, Tuesday       10:00am - 10:00pm, Wednesday  10:00am - 10:00pm, Thursday      10:00am - 10:00pm, Friday           10:00am - 10:00pm, Saturday       10:00am - 10:00pm, Sunday         10:00am - 10:00pm",,,
,,1816 Alysheba Way,,Lexington,KY,40509,United States,(859) 543-0806,,,"Monday        10:30am - 9:00pm, Tuesday       10:30am - 9:00pm, Wednesday  10:30am - 9:00pm, Thursday      10:30am - 9:00pm, Friday           10:30am - 9:00pm, Saturday       10:30am - 9:00pm, Sunday         10:30am - 9:00pm",,,
,,3662 S Houston Levee Rd,,Collierville,TN,38017,United States,(901) 861-4208,,,"Monday        10:00am - 10:00pm, Tuesday       10:00am - 10:00pm, Wednesday  10:00am - 10:00pm, Thursday      10:00am - 10:00pm, Friday           10:00am - 10:00pm, Saturday       10:00am - 10:00pm, Sunday         10:00am - 10:00pm",,,
,,849 W Poplar Ave,,Collierville,TN,38017,United States,(901) 853-1602,,,"Monday        10:00am - 10:00pm, Tuesday       10:00am - 10:00pm, Wednesday  10:00am - 10:00pm, Thursday      10:00am - 10:00pm, Friday           10:00am - 12:00am, Saturday       10:00am - 12:00am, Sunday         10:00am - 10:00pm",,,
,,165 Goodman Rd W,,Southaven,MS,38671,United States,(662) 349-8695,,,"Monday        10:00am - 10:00pm, Tuesday       10:00am - 10:00pm, Wednesday  10:00am - 10:00pm, Thursday      10:00am - 10:00pm, Friday           10:00am - 10:00pm, Saturday       10:00am - 11:00pm, Sunday         10:00am - 11:00pm",,,
,,9000 US-64,,Arlington,TN,38002,United States,(901) 385-0113,,,"Monday        10:00am - 10:00pm, Tuesday       10:00am - 10:00pm, Wednesday  10:00am - 10:00pm, Thursday      10:00am - 10:00pm, Friday           10:00am - 10:00pm, Saturday       10:00am - 10:00pm, Sunday         10:00am - 10:00pm",,,
,,1685 N Germantown Pkwy,,Memphis,TN,38016,United States,(901) 737-1248,,,"Monday        10:00am - 10:00pm, Tuesday       10:00am - 10:00pm, Wednesday  10:00am - 10:00pm, Thursday      10:00am - 10:00pm, Friday           10:00am - 10:00pm, Saturday       10:00am - 10:00pm, Sunday         10:00am - 10:00pm",,,
,,185 House-Carlson Dr,,Batesville,MS,38606,United States,(662) 561-0600,,,"Monday        10:00am - 10:00pm, Tuesday       10:00am - 10:00pm, Wednesday  10:00am - 10:00pm, Thursday      10:00am - 10:00pm, Friday           10:00am - 10:00pm, Saturday       10:00am - 10:00pm, Sunday         10:00am - 10:00pm",,,
