store_name,store_number,address,address2,city,state,zip_code,country,phone_number,latitude,longitude,store_hours,store_type,other_fields,coming_soon
Bellacino's Pizza & Grinders,,8026 - D West Broad St.,,Richmond,VA,23294,United States,804-270-7011,37.625409,-77.530248,,,,
Bellacino's Pizza & Grinders,,1176 Roanoke Rd,,Daleville,VA,24083,United States,540-966-2222,37.402055,-79.912072,,,,
Bellacino's Pizza & Grinders,,4373 Starkey Rd.,,Roanoke,VA,24018,United States,540-989-2009,37.228028,-79.981831,,,,
Bellacino's Pizza & Grinders,,520 Jefferson Sq. N. Jefferson Ste 10,,Lewisburg,WV,24901,United States,304-645-3601,37.801811,-80.445608,,,,
Bellacino's Pizza & Grinders,,3657 Fishcreek Road,,Stow,OH,44224,United States,330-678-3000,41.155802,-81.398997,,,,
Bellacino's Pizza & Grinders,,868 Ritter Dr,,Beaver,WV,25813,United States,304-254-9929,37.749024,-81.135442,,,,
Bellacino's Pizza & Grinders,,1240 N. Eisenhower,,Beckley,WV,25801,United States,304-253-4545,37.801935,-81.180743,,,,
Bellacino's Pizza & Grinders,,1334 Stafford Dr.,,Princeton,WV,24740,United States,304-913-4923,37.360436,-81.100754,,,,
Bellacino's Pizza & Grinders,,4029 College Ave,Ridgeview Plaza,Bluefield,VA,24605,United States,276-326-1400,37.252612,-81.271236,,,,
Bellacino's Pizza & Grinders,,1600 N. Main St.,,Conway,SC,29526,United States,843-488-9333,33.8502,-79.056147,,,,
Bellacino's Pizza & Grinders,,3028 Champion Dr.,,Barboursville,WV,25504,United States,304-302-0555,38.421629,-82.287936,,,,
Bellacino's Pizza & Grinders,,2677 Steelsburg Hwy suite 7,,Cedar Bluff,VA,24609,United States,276-964-7400,37.045531,-81.783896,,,,
Bellacino's Pizza & Grinders,,7800 P. Stevens Mill Rd,,Matthews,NC,28106,United States,704-893-2040,35.140062,-80.623702,,,,
Bellacino's Pizza & Grinders,,21956 Riverside Dr,,Grundy,VA,24614,United States,276-935-7828,37.282722,-82.117575,,,,
Bellacino's Pizza & Grinders,,4926 Morse Rd,,Columbus,OH,43230,United States,614-855-5858,40.055173,-82.861081,,,,
Bellacino's Pizza & Grinders,,380 Diederich Blvd.,,Ashland,KY,41101,United States,606-326-0000,38.503142,-82.681439,,,,
Bellacino's Pizza & Grinders,,1709 Neal Hawkins,,Gastonia,NC,28056,United States,704-866-8829,35.216048,-81.169322,,,,
Bellacino's Pizza & Grinders,,52298 Gratiot,,Chesterfield Twp.,MI,48051,United States,586-598-0213,42.683094,-82.826456,,,,
Bellacino's Pizza & Grinders,,22400 Harper,,St. Clair Shores,MI,48080,United States,586-552-8111,42.461229,-82.909907,,,,
Bellacino's Pizza & Grinders,,11536 E. Ten Mile Rd,,Warren,MI,48089,United States,586-755-6300,42.477863,-83.007819,,,,
Bellacino's Pizza & Grinders,,1001 Woodward Ave,,Detroit,MI,48226,United States,313-963-3000,42.332173,-83.047269,,,,
Bellacino's Pizza & Grinders,,2867 7 Mile Rd,,Detroit,MI,48234,United States,313-368-7500,42.432916,-83.073951,,,,
Bellacino's Pizza & Grinders,,164 E Maple,,Troy,MI,48084,United States,248-677-4678,42.547791,-83.143666,,,,
Bellacino's Pizza & Grinders,,16001 Ford Rd,Ste 137,Dearborn,MI,48126,United States,313-982-9000,42.329164,-83.198087,,,,
Bellacino's Pizza & Grinders,,22537 Michigan Ave,,Dearborn,MI,48124,United States,313-563-5000,42.304215,-83.252662,,,,
Bellacino's Pizza & Grinders,,29101 Northwestern Hwy,,Southfield,MI,48034,United States,248-358-1600,42.500766,-83.31058,,,,
Bellacino's Pizza & Grinders,,2465 Orchard Lake Rd,,Sylvan Lake,MI,48320,United States,248-682-4522,42.609104,-83.335148,,,,
Bellacino's Pizza & Grinders,,32720 Grand River Ave,,Farmington,MI,48336,United States,248-473-3900,42.462632,-83.371131,,,,
Bellacino's Pizza & Grinders,,6107 Haggerty Rd,,West Bloomfield,MI,48332,United States,248-960-5110,42.546892,-83.43768,,,,
Bellacino's Pizza & Grinders,,5339 Sunset Blvd. Hwy 378,,Lexington,SC,29072,United States,803-957-6767,34.028968,-81.054148,,,,
Bellacino's Pizza & Grinders,,1085 Lake Murray Blvd,,Irmo,SC,29063,United States,803-407-4884,34.08814,-81.178002,,,,
Bellacino's Pizza & Grinders,,614 Bacons Bridge Rd,,Summerville,SC,29485,United States,843-871-1950,33.001117,-80.184841,,,,
Bellacino's Pizza & Grinders,,2330 Elida Rd. suite C,,Lima,OH,45805,United States,419-999-0023,40.762999,-84.14805,,,,
Bellacino's Pizza & Grinders,,331 Harrison Bridge Rd.,,Simpsonville,SC,29680,United States,864-967-4884,34.704741,-82.254878,,,,
Bellacino's Pizza & Grinders,,123 South Main St.,,Greenville,SC,29601,United States,864-242-6009,34.84882,-82.399558,,,,
Bellacino's Pizza & Grinders,,601 Williams Ave   suite E,,Easley,SC,29640,United States,864-855-5818,34.822086,-82.587318,,,,
Bellacino's Pizza & Grinders,,716 Dolly Parton Parkway,,Sevierville,TN,37862,United States,865-365-3039,35.86556,-83.550864,,,,
Bellacino's Pizza & Grinders,,161 East Brannon Rd.,,Nicholasville,KY,40356,United States,859-245-9111,37.956571,-84.537675,,,,
Bellacino's Pizza & Grinders,,1620 E. Michigan Rd,,Shelbyville,IN,46176,United States,317-392-9000,39.518963,-85.752816,,,,
Bellacino's Pizza & Grinders,,12590 N. Meridian St.,,Carmel,IN,46032,United States,317-580-1830,39.971413,-86.158043,,,,
Bellacino's Pizza & Grinders,,377 W. Jackson St. Ste 1-E,,Cookeville,TN,38501,United States,931-528-7600,36.155065,-85.517585,,,,
Bellacino's Pizza & Grinders,,1891 Holton Rd Ste B,,Muskegon,MI,49445,United States,231-744-3111,43.286952,-86.219739,,,,
Bellacino's Pizza & Grinders,,112 Bradford Blvd.,,Gordonsville,TN,38563,United States,615-683-4000,36.178198,-85.949045,,,,
Bellacino's Pizza & Grinders,,325 TN -109,,Lebanon,TN,37087,United States,615-547-1414,36.189166,-86.408558,,,,
Bellacino's Pizza & Grinders,,4662 Lebanon Pike,,Hermitage,TN,37076,United States,615-884-3020,36.215063,-86.594078,,,,
Bellacino's Pizza & Grinders,,4560 S Cambell Ave,,Springfield,MO,65810,United States,417-720-4414,37.132168,-93.29627,,,,
Bellacino's Pizza & Grinders,,3484 Jeffco Blvd,,Arnold,MO,63010,United States,636-461-3000,38.415331,-90.377208,,,,
Bellacino's Pizza & Grinders,,3817 Lemay Ferry Rd,,St. Louis,MO,63125,United States,314-487-6000,38.508102,-90.323459,,,,
Bellacino's Pizza & Grinders,,8099 Mexico Rd.,,St. Peters,MO,63376,United States,636-272-1001,38.787111,-90.671679,,,,
Bellacino's Pizza & Grinders,,4260 Hampton Ave,,St. Louis,MO,63129,United States,314-832-9700,38.591529,-90.294569,,,,
Bellacino's Pizza & Grinders,,1455 Bass Pro Dr.,,St. Charles,MO,63303,United States,636-925-2953,38.772974,-90.499129,,,,
Bellacino's Pizza & Grinders,,11249 St. Charles Rock Rd.,,Bridgeton,MO,63044,United States,314-736-5055,38.740467,-90.400567,,,,
Bellacino's Pizza & Grinders,,518 North Baltimore Ste C,,Kirksville,MO,63501,United States,660-665-7665,40.198453,-92.57201,,,,
Bellacino's Pizza & Grinders,,100 W. Gore Rd,,Morris,IL,60450,United States,815-941-1110,41.388759,-88.424695,,,,
Bellacino's Pizza & Grinders,,5419 University Parkway,,University Park,FL,34201,United States,941-358-5999,27.388683,-82.463837,,,,
Bellacino's Pizza & Grinders,,9377 Six Mile Cypress Pkwy suite 145,,Ft. Myers,FL,33966,United States,239-277-0600,26.593487,-81.812764,,,,
