store_name,store_number,address,address2,city,state,zip_code,country,phone_number,latitude,longitude,store_hours,store_type,other_fields,coming_soon
,,Brookfield Place - EQUINOX225 Liberty St. ,,New York ,NY,10281,United States,,,,"mon - fri:6:00am - 9:00pm, sat - sun:9:00am - 7:00pm",,,
,,BK Heights - EQUINOX194 Joralemon St ,,Brooklyn ,NY,11201,United States,,,,"mon - wed:6:30am - 10:00pm, thurs:6:30am - 9:00pm, fri:6:30am - 8:00pm, sat - sun:8:00am - 7:00pm",,,
,,EQUINOX Williamsburg246 Bedford Ave ,,Brooklyn ,NY,11211,United States,,,,"mon - thurs:6:30am - 9:00pm, fri:6:30am - 7:00pm, sat - sun:9:00am - 7:00pm",,,
,,DUMBO - EQUINOX45 Washington. ,,Brooklyn ,NY,11201,United States,,,,"mon - thurs:7:00am - 9:00pm, fri:7:00am - 8:00pm, sat - sun:8:00am - 7:00pm",,,
,,207 7th Ave.,,Brooklyn ,NY,11215,United States,,,,"mon - fri:8:00am - 8:00pm, sat - sun:8:00am - 8:00pm",,,
,,124 Montague St.,,New York ,NY,11201,United States,,,,mon - sun:8:00am - 8:00pm,,,
,,144 North 8th St.,,Brooklyn ,NY,11249,United States,,,,mon - sun:8:00am - 9:00pm,,,
,,129 W 41st St.,,New York ,NY,10036,United States,,,,"mon - thurs:5:30am - 10:00pm, fri:5:30am - 9:00pm, sat:9:00am - 2:00pm",,,
,,201 E 10th St.,,New York ,NY,10003,United States,,,,mon - sun:8:00am - 10:00pm,,,
,,70 E 1st St.,,New York ,NY,10003,United States,,,,mon - sun:8:00am - 9:00pm,,,
,,EQUINOX High Line100 Tenth Ave. ,,New York ,NY,10011,United States,,,,"mon - fri:6:30am - 10:00pm, sat - sun:8:30am - 8:00pm",,,
,,EQUINOX Flatiron897 Broadway ,,New York ,NY,10003,United States,,,,"mon - thur:6:30am - 10:00pm, fri:6:30am - 9:00pm, sat:9:00am - 8:00pm",,,
,,1 W 22nd St.,,New York ,NY,10010,United States,,,,"mon - fri:7:00am - 9:00pm, sat - sun:8:00am - 9:00pm",,,
,,420 Park Ave. South,,New York ,NY,10016,United States,,,,"mon - fri:7:00am - 9:00pm, sat - sun:8:00am - 8:00pm",,,
,,East Hampton55 Main St. ,,East Hampton ,NY,11937,United States,,,,Closed!,,,
,,Bridgehampton2486 Montauk Highway ,,Bridgehampton ,NY,11932,United States,,,,CLOSEDCLOSED,,,
,,Southampton93 Main St. ,,Southampton ,NY,11968,United States,,,,CLOSEDCLOSED,,,
,,630 9th Ave.,,New York ,NY,10036,United States,,,,mon - sun:8:00am - 9:00pm,,,
,,Macy*s151 W 34th St. ,,New York ,NY,10001,United States,,,,"mon - fri:10:00am - 10:00pm, sat:10:00am - 10:00pm, sun:11:00am - 10:00pm",,,
,,EQUINOX Printing House421 Hudson St. ,,New York ,NY,10014,United States,,,,"mon - thurs:7:00am - 8:00pm, fri:7:00am - 7:00pm, sat - sun:9:00am - 7:00pm",,,
,,375 Hudson St.,,New York ,NY,10014,United States,,,,"mon - fri:7:00am - 9:00pm, sat - sun:8:00am - 6:00pm",,,
,,31-00 47th Ave.,,Queens ,NY,11101,United States,,,,mon - fri:10:00am - 2:00pm,,,
,,105 Rivington St.,,New York ,NY,10002,United States,,,,mon - sun:8:00am - 9:00pm,,,
,,EQUINOX EAST 44TH420 Lexington Ave ,,New York ,NY,10170,United States,,,,"mon - thurs:6:30am - 9:00pm, fri:6:30am - 8:00pm, sat:10:00am - 5:00pm, sun:Closed",,,
,,Grand Central Station Ground Floor87 E. 42nd St. ,,New York ,NY,10017,United States,,,,"mon-fri:6:00am - 8:00pm, sat:10:00am - 8:00pm, sun:11:00am - 7:00pm",,,
,,EQUINOX East 54th St.250 East 54th St. ,,New York ,NY,10022,United States,,,,"mon - thurs:6:30am - 10:00pm, fri:6:30am - 8:00pm, sat - sun:9:00am - 8:00pm",,,
,,EQUINOX West 50th St.1633 Broadway ,,New York ,NY,10019,United States,,,,"mon - thurs:6:30am - 9:00pm, fri:6:30am - 8:00pm, sat - sun:CLOSED",,,
,,EQUINOX East 53rd St.10 E. 53rd St. ,,New York ,NY,10022,United States,,,,"mon - thurs:6:00am - 9:00pm, fri:6:00am - 8:00pm",,,
,,EQUINOX Columbus Circle10 Columbus Circle ,,New York ,NY,10019,United States,,,,"mon - fri:6:30am - 10:00pm, sat - sun:8:30am - 8:00pm",,,
,,625 Madison Ave.,,New York ,NY,10022,United States,,,,"mon - fri:7:00am - 8:00pm, sat - sun:9:00am - 6:00pm",,,
,,830 3rd Ave.,,New York ,NY,10022,United States,,,,"mon - fri:7:00am - 9:00pm, sat - sun:9:00am-7:00pm",,,
,,65 W 55th St,,NY ,NY,10019,United States,,,,"mon - fri:7:00am - 8:00pm, sat - sun:9:00am - 6:00pm",,,
,,EQUINOX Park Ave.1 Park Ave. ,,New York ,NY,10016,United States,,,,"mon - thurs:6:30am - 10:00pm, fri:6:30am - 9:00pm, sat - sun:8:30am - 8:00pm",,,
,,250 Mott St.,,New York ,NY,10012,United States,,,,mon - sun:8:00am - 10:00pm,,,
,,156 Prince St.,,New York ,NY,10012,United States,,,,mon - sun:8:00am - 10:00pm,,,
,,EQUINOX TriBeCa54 Murray St. ,,New York ,NY,10007,United States,,,,"mon - thurs:6:30am - 10:00pm, fri:6:30am - 9:00pm, sat - sun:8:30am - 7:00pm",,,
,,83 Murray St.,,New York ,NY,10007,United States,,,,"mon - fri:7:00am - 9:00pm, sat - sun:8:00am - 8:00pm",,,
,,415 Greenwich St.,,"New  York,",NY,10013,United States,,,,"mon - fri:7:00am - 9:00pm, sat - sun:8:00am - 8:00pm",,,
,,1100 Lexington Ave.,,New York ,NY,10017,United States,,,,"mon-fri:7:00am - 10:00pm, sat-sun:8:00am - 8:00pm",,,
,,EQUINOX East 85th St.203 East 85th St. ,,New York ,NY,10028,United States,,,,"mon - thurs:6:30am - 10:00pm, fri:6:30am - 9:00pm, sat - sun:8:30am - 8:00pm",,,
,,EQUINOX East 74th St.1429 2nd Ave. ,,New York ,NY,10021,United States,,,,"mon - thurs:6:30am - 10:00pm, fri:6:30am - 9:00pm, sat - sun:8:00am - 8:00pm",,,
,,EQUINOX East 92nd St.203 E. 92nd St. ,,New York ,NY,10128,United States,,,,"mon - thurs:5:30am - 11:00pm, fri:5:30am - 10:00pm, sat - sun:7:00am - 9:00pm",,,
,,1050 3rd Ave.,,"New  York,",NY,10065,United States,,,,"mon - fri:7:00am - 9:00pm, sat - sun:8:00am - 8:00pm",,,
,,1474 3rd Ave.,,New York ,NY,10028,United States,,,,"mon - fri:6:30am - 10:00pm, sat - sun:8:00am - 10:00pm",,,
,,1296 Madison Ave10128 NY ,,,,,United States,,,,"mon - fri:7:00am - 8:00pm, sat - sun:8:00am - 8:00pm",,,
,,EQUINOX West 76th St.344 Amsterdam Ave. ,,New York ,NY,10024,United States,,,,"mon - thurs:6:00am - 10:00pm, fri:6:00am - 9:00pm, sat - sun:8:00am - 8:00pm",,,
,,350 Amsterdam Ave.,,New York ,NY,10023,United States,,,,"mon - fri:7am - 10pm, sat - sun:8am - 10pm",,,
,,239 Columbus Ave.,,New York ,NY,10023,United States,,,,mon - sun:7:00am - 10:00pm,,,
,,73 W 82nd St.,,"New  York,",NY,10024,United States,,,,"mon - fri:7:00am - 8:00pm, sat - sun:9:00am - 8:00pm",,,
,,122 Greenwich Ave.,,New York ,NY,10011,United States,,,,mon - sun:8:00am - 10:00pm,,,
,,EQUINOX ARMONK99 Business Park Dr. ,,Armonk ,NY,10504,United States,,,,"mon - fri:7:00am - 8:00pm, sat - sun:8:00am - 5:00pm",,,
,,EQUINOX Paramus776 Rt. 17 N. ,,Paramus ,NJ,07652,United States,,,,"mon - thurs:6:00am - 9:00pm, fri:6:00am - 8:00pm, sat - sun:8:00am - 3:00pm",,,
,,EQUINOX Summit68 River Rd. ,,Summit ,NJ,07901,United States,,,,"mon - thurs:6:00am - 9:00pm, fri:6:00am - 8:00pm, sat - sun:8:00am - 3:00pm",,,
,,EQUINOX Mamaroneck1053 Boston Post Rd. ,,Mamaroneck ,NY,10543,United States,,,,"mon - thurs:7:00am - 8:00pm, fri - sun:7:00am - 7:00pm",,,
,,EQUINOX Franklin Street225 Franklin St ,,Boston ,MA,02110,United States,,,,"mon - thurs:6:30am - 9:00pm, fri:6:30am - 7:00pm, sat - sun:9:00am - 3:00pm",,,
,,EQUINOX Dartmouth131 Dartmouth St ,,Boston ,MA,02116,United States,,,,"mon - thurs:6:30am - 10:00pm, fri:6:30am - 9:00pm, sat - sun:8:00am - 7:00pm",,,
,,109 Seaport Blvd.,,Boston ,MA,02210,United States,,,,"mon - fri:7:00 am - 8:00 pm, sat - sun:8:00 am - 5:00 pm",,,
,,500 Boylston St. Boston,,,MA,02116,United States,,,,"mon - fri:7:00am - 8:00pm, sat:8:00am - 6:00pm, sun:9:00am - 5:00pm",,,
,,The Street33 Boylston St ,,Chestnut Hill ,MA,,United States,,,,"mon - fri:7:00 am - 8:00 pm, sat - sun:9:00 am - 8:00 pm",,,
,,EQUINOX Darien72 Heights Rd ,,Darien ,CT,,United States,,,,"mon-thurs:6:00am - 9:00pm, fri:6:00am - 8:00pm, sat:8:00am - 7:00pm, sun:8:00am - 6:00pm",,,
,,EQUINOX Greenwich16 Old Track Road ,,Greenwich ,CT,06830,United States,,,,"mon - thurs:7:00am - 8:00pm, fri:7:00am - 7:00pm, sat:8:00am - 5:30pm, sun:8:00am - 5:00pm",,,
,,360 Greenwich AveCT ,,,,06830,United States,,,,"mon - fri:6:30am - 8:00pm, sat - sun:8:00am - 8:00pm",,,
