phone_number,city,distributor_name,store_type,store_number,country,address2,longitude,store_hours,store_name,state,other_fields,address,latitude,zip_code
(510) 337-9982,Alameda,,,,United States,,,"Mon-Thurs: 10:30am-10pm, Fri-Sat: 10:30am-11pm, Sun: 10:30am-10pm",Alameda,CA,,2640 5th Street,,94501
(925) 755-5030,Antioch,,,,United States,,,"Mon-Thurs: 10:30am-10pm, Fri-Sat: 10:30am-11pm, Sun: 10:30am-10pm",Antioch,CA,,5829 Lone Tree Way,,94531
(408) 369-9201,Campbell,,,,United States,,,"Mon-Thurs: 10:30am-10pm, Fri-Sat: 10:30am-11pm, Sun: 10:30am-10pm",Campbell,CA,,2000 S. Bascom Ave.,,95008
(925) 798-5285,Concord,,,,United States,,,"Mon-Thurs: 10:30am-10pm, Fri-Sat: 10:30am-11pm, Sun: 10:30am-10pm",Concord,CA,,1110 Concord Ave.,,94520
(650) 301-5034,Daly City,,,,United States,,,"Mon-Sat: 10:30am-11pm, Sun: 10:30am-10pm",Daly City,CA,,305 Gellert Blvd.,,94015
(925) 875-9648,Dublin,,,,United States,,,"Mon-Thurs: 10:30am-10pm, Fri-Sat: 10:30am-11pm, Sun: 10:30am-10pm",Dublin,CA,,7295 Amador Plaza Rd.,,94568
(925) 479-0847,Dublin,,,,United States,,,Mon-Sun: 10:30am-10pm,Dublin,CA,,5291 Martinelli Way,,94568
(510) 252-1530,Fremont,,,,United States,,,"Mon-Thurs: 10:30am-10pm, Fri-Sat: 10:30am-11pm, Sun: 10:30am-10pm",Fremont,CA,,43830 Pacific Commons Bl.,,94538
(408) 842-4300,Gilroy,,,,United States,,,Mon-Sun: 10:30am-10pm,Gilroy,CA,,6955 Camino Arroyo,,95020
(925) 371-0833,Livermore,,,,United States,,,Mon-Sun: 10:30am-10pm,Livermore,CA,,2150 Portola Ave.,,94550
(707) 251-8137,Napa,,,,United States,,,"Mon-Thurs: 10:30am-10pm, Fri-Sat: 10:30am-11pm, Sun: 10:30am-10pm",Napa,CA,,1735 Trancas St.,,94558
(707) 224-9905,Napa,,,,United States,,,Mon-Sun: 10:30am-10pm,South Napa,CA,,304 Soscol Avenue,,94559
(415) 897-6100,Novato,,,,United States,,,Mon-Sun: 10:30am-10pm,Novato,CA,,924 Diablo Avenue,,94947
(510) 595-6675,Oakland,,,,United States,,,"Mon-Thurs: 10:30am-10pm, Fri-Sat: 10:30am-11pm, Sun: 10:30am-10pm",Oakland,CA,,5108 Broadway,,94611
(707) 778-8301,Petaluma,,,,United States,,,Mon-Sun: 10:30am-10pm,Petaluma,CA,,447 N. McDowell Blvd,,94954
(510) 243-5188,Pinole,,,,United States,,,"Mon-Thurs: 10:30am-10pm, Fri-Sat: 10:30am-11pm, Sun: 10:30am-10pm",Pinole,CA,,1412 Pinole Valley Road,,94564
(925) 485-3260,Pleasanton,,,,United States,,,"Mon-Thurs: 10:30am-10pm, Fri-Sat: 10:30am-11pm, Sun: 10:30am-10pm",Pleasanton,CA,,6770 Bernal Avenue,,94588
(650) 568-1625,Redwood City,,,,United States,,,"Mon-Thurs: 10:30am-10pm, Fri-Sat: 10:30am-11pm, Sun: 10:30am-10pm",Redwood City,CA,,1111 El Camino Real,,94063
(707) 585-7960,Rohnert Park,,,,United States,,,"Mon-Thurs: 10:30am-12am, Fri-Sat: 10:30am-3am, Sun: 10:30am-12am",Rohnert Park,CA,,630 Park Court,,94928
(408) 613-2578,San Jose,,,,United States,,,"Mon-Thurs: 10:30am-10pm, Fri-Sat: 10:30am-11pm, Sun: 10:30am-10pm",San Jose,CA,,5018 Almaden Expressway,,95118
(408) 437-8840,San Jose,,,,United States,,,Mon-Sun: 10:30am-10pm,San Jose,CA,,1078 E. Brokaw Road,,95131
(510) 895-8895,San Leandro,,,,United States,,,"Mon-Thurs: 10:30am-10pm, Fri-Sat: 10:30am-11pm, Sun: 10:30am-10pm",San Leandro,CA,,1540 E. 14th Street,,94577
(650) 286-9944,San Mateo,,,,United States,,,Mon-Sun: 10:30am-10pm,San Mateo,CA,,1100 Park Place,,94403
(925) 355-9672,San Ramon,,,,United States,,,"Mon-Thurs: 10:30am-10pm, Fri-Sat: 10:30am-11pm, Sun: 10:30am-10pm",San Ramon,CA,,3121 Crow Canyon Place,,94583
(408) 244-2856,Santa Clara,,,,United States,,,"Mon-Thurs: 10:30am-10pm, Fri-Sat: 10:30am-11pm, Sun: 10:30am-10pm",Santa Clara,CA,,2000 El Camino Real,,95050
(408) 774-9015,Sunnyvale,,,,United States,,,"Mon-Thurs: 10:30am-10pm, Fri-Sat: 10:30am-11pm, Sun: 10:30am-10pm",Sunnyvale,CA,,146 W. El Camino Real,,94087
(707) 452-0292,Vacaville,,,,United States,,,Mon-Sun: 10:30am-10pm,Vacaville,CA,,1640 E. Monte Vista Avenue,,95688
(707) 644-4432,Vallejo,,,,United States,,,"Mon-Sat: 10:30am-12am, Sun: 10:30am-11pm",Vallejo,CA,,118 Plaza Drive,,94591
(925) 296-9672,Walnut Creek,,,,United States,,,"Mon-Thurs: 10:30am-10pm, Fri-Sat: 10:30am-11pm, Sun: 10:30am-10pm",Walnut Creek,CA,,1504 Geary Rd.,,94597
(925) 279-2286,Walnut Creek,,,,United States,,,"Mon-Thurs: 10:30am-10pm, Fri-Sat: 10:30am-11pm, Sun: 10:30am-10pm",Walnut Creek,CA,,1255 S. California Blvd.,,94596
(661) 322-2356,Bakersfield,,,,United States,,,"Mon-Sat: 10:30am-11pm, Sun: 10:30am-10pm",Bakersfield,CA,,3900 California Ave.,,93309
(661) 829-5283,Bakersfield,,,,United States,,,"Mon-Sat: 10:30am-11pm, Sun: 10:30am-10pm",Bakersfield,CA,,5503 Calloway Dr,,93312
(559) 299-2481,Clovis,,,,United States,,,"Mon-Thurs: 10:30am-10pm, Fri-Sat: 10:30am-11pm, Sun: 10:30am-10pm",Clovis,CA,,1195 Herndon Ave.,,93612
(559) 433-8815,Fresno,,,,United States,,,"Mon-Thurs: 10:30am-10pm, Fri-Sat: 10:30am-11pm, Sun: 10:30am-10pm",Fresno,CA,,8480 North Friant Rd.,,93720
(559) 226-2128,Fresno,,,,United States,,,"Mon-Thurs: 10:30am-10pm, Fri-Sat: 10:30am-11pm, Sun: 10:30am-10pm",Fresno,CA,,702 West Shaw Ave.,,93704
(559) 582-8200,Hanford,,,,United States,,,"Mon-Thurs: 10:30am-10pm, Fri-Sat: 10:30am-11pm, Sun: 10:30am-9pm",Hanford,CA,,1731 West Lacey Bl.,,93230
(209) 571-1382,Modesto,,,,United States,,,"Mon-Thurs: 10:30am-10pm, Fri-Sat: 10:30am-11pm, Sun: 10:30am-10pm",Modesto,CA,,1801 McHenry Avenue,,95350
(805) 542-0105,San Luis Obispo,,,,United States,,,"Mon-Thurs: 10:30am-10pm, Fri-Sat: 10:30am-11pm, Sun: 10:30am-10pm",San Luis Obispo,CA,,839 Higuera Street,,93401
(209) 955-1164,Stockton,,,,United States,,,"Mon-Thurs: 10:30am-10pm, Fri-Sat: 10:30am-11pm, Sun: 10:30am-10pm",Stockton,CA,,2829 W. March Lane,,95219
(661) 858-2639,Tejon Ranch,,,,United States,,,"Mon-Sat: 10:30am-11pm, Sun: 10:30am-10pm",Tejon Ranch,CA,,5545 Laval Road,,93203
(559) 625-5700,Visalia,,,,United States,,,"Mon-Sat: 10:30am-11pm, Sun: 10:30am-10pm",Visalia,CA,,604 S. Mooney Blvd.,,93277
(818) 707-7300,Agoura Hills,,,,United States,,,"Mon-Sat: 10:30am-10pm, Sun: 10:30am-9pm",Agoura Hills,CA,,29145 Canwood Street,,91301
(626) 289-8851,Alhambra,,,,United States,,,Mon-Sun: 10:30am-10pm,Alhambra,CA,,100 E Main St.,,91801
(626) 334-1800,Azusa,,,,United States,,,"Mon-Thurs: 10:30am-10pm, Fri-Sat: 10:30am-11pm, Sun: 10:30am-10pm",Azusa,CA,,834 E. Alosta Avenue,,91702
(818) 260-0083,Burbank,,,,United States,,,"Mon-Sat: 10:30am-11pm, Sun: 10:30am-10pm",Burbank,CA,,103 East Alameda Ave.,,91502
(805) 484-2950,Camarillo,,,,United States,,,"Mon-Sat: 10:30am-10pm, Sun: 10:30am-9:30pm",Camarillo,CA,,1855 Daily Dr.,,93010
,Cerritos,,,,United States,,,Mon-Sun: 10:30am-10pm,Cerritos,CA,,11257 183rd St.,,90703
(818) 773-0257,Chatsworth,,,,United States,,,"Mon-Sat: 10:30am-11pm, Sun: 10:30am-10pm",Chatsworth,CA,,9243 Winnetka Ave.,,91311
(562) 869-9900,Downey,,,,United States,,,"Mon-Thurs: 10:30am-10pm, Fri-Sat: 10:30am-11pm, Sun: 10:30am-10pm",Downey,CA,,8619 Firestone Blvd.,,90241
(626) 351-1122,East Pasadena,,,,United States,,,"Mon-Thurs: 10:30am-10pm, Fri-Sun: 10:30am-11pm",Pasadena,CA,,3733 E. Foothill Blvd.,,91107
(310) 524-9016,El Segundo,,,,United States,,,"Mon-Sat: 10:30am-11pm, Sun: 10:30am-10pm",El Segundo,CA,,311 N. Sepulveda Blvd.,,90245
(818) 783-6162,Encino,,,,United States,,,"Mon-Sat: 10:30am-10pm, Sun: 10:30am-9pm",Encino,CA,,17132 Ventura Blvd.,,91316
(818) 246-6095,Glendale,,,,United States,,,"Mon-Sat: 10:30am-11pm, Sun: 10:30am-10pm",Glendale,CA,,249  Glendale Ave.,,91206
(805) 964-0366,Goleta,,,,United States,,,"Mon-Sat: 10:30am-9pm, Sun: 11am-8pm",Goleta,CA,,5735 Hollister Ave.,,93117
(805) 685-7474,Isla Vista,,,,United States,,,"Mon-Thurs: 10am-10pm, Fri-Sat: 10am-12am, Sun: 10am-9pm",Isla Vista,CA,,888 Embarcadero del Norte,,93117
(818) 952-2910,La Canada,,,,United States,,,"Mon-Thurs: 10:30am-10pm, Fri-Sat: 10:30am-11pm, Sun: 10:30am-10pm",La Canada,CA,,990 Town Center Drive,,91011
(909) 593-1640,La Verne,,,,United States,,,"Mon-Sat: 10:30am-10pm, Sun: 10:30am-9:30pm",La Verne,CA,,1608 Foothill Blvd.,,91750
(805) 741-7330,Lompoc,,,,United States,,,"Mon-Thurs: 10am-10pm, Fri-Sat: 10am-11pm, Sun: 10:30am-9pm",Lompoc,CA,,1413 North H Street,,93436
(562) 425-1500,Long Beach,,,,United States,,,"Mon-Thurs: 10:30am-10pm, Fri-Sat: 10:30am-11pm, Sun: 10:30am-10pm",Long Beach,CA,,3801 Lakewood Bl.,,90808
(323) 256-2629,Los Angeles,,,,United States,,,"Mon-Thurs: 10:30am-10pm, Fri-Sat: 10:30am-11pm, Sun: 10:30am-10pm",Eagle Rock,CA,,7307 N. Figueroa Street,,90041
,Los Angeles,,,,United States,,,Mon-Sun: 5am-1am,LAX,CA,,"201 World Way, Los Angeles International Airport, Terminal 6",,90045
,Los Angeles,,,,United States,,,"Mon-Thurs: 10am-8pm, Fri: 10am-5pm, Sat-Sun: 11:30am-6pm",University of Southern California,CA,,University of Southern California,,90089
(323) 721-1356,Montebello,,,,United States,,,"Mon-Thurs: 10:30am-10pm, Fri-Sat: 10:30am-11pm, Sun: 10:30am-10pm",Montebello,CA,,545 N. Montebello Blvd.,,90640
(805) 375-9227,Newbury Park,,,,United States,,,"Mon-Sat: 10:30am-10pm, Sun: 10:30am-9:30pm",Newbury Park,CA,,1025 Broadbeck Ln.,,91320
(818) 762-1995,North Hollywood,,,,United States,,,"Mon-Sat: 10:30am-11pm, Sun: 10:30am-10pm",North Hollywood,CA,,4770 Lankershim Blvd.,,91602
(818) 993-7113,Northridge,,,,United States,,,"Mon-Sat: 10:30am-12am, Sun: 10:30am-11pm",Northridge,CA,,9215 Reseda Blvd.,,91324
(562) 863-3061,Norwalk,,,,United States,,,"Mon-Sat: 10:30am-10pm, Sun: 10:30am-9:30pm",Norwalk,CA,,12401 South Norwalk Blvd.,,90650
(805) 981-9919,Oxnard,,,,United States,,,"Mon-Sat: 10:30am-10pm, Sun: 10:30am-9:30pm",Oxnard,CA,,2350 Vineyard Dr.,,93036
(661) 575-9560,Palmdale,,,,United States,,,"Mon-Thurs: 10:30am-10pm, Fri-Sat: 10:30am-11pm, Sun: 10:30am-10pm",Palmdale,CA,,748 W. Rancho Vista Blvd.,,93551
(562) 633-6364,Paramount,,,,United States,,,"Mon-Thurs: 10:30am-10pm, Fri-Sat: 10:30am-11pm, Sun: 10:30am-10pm",Paramount,CA,,15754 Paramount Blvd,,90723
(562) 948-2900,Pico Rivera,,,,United States,,,"Mon-Sat: 10:30am-10pm, Sun: 10:30am-9:30pm",Pico Rivera,CA,,8988 Washington Blvd.,,90660
(310) 377-2044,Rolling Hills Estates,,,,United States,,,"Mon-Sat: 10:30am-10pm, Sun: 10:30am-9:30pm",Rolling Hills,CA,,4-B Peninsula Center,,90274
(626) 280-8146,Rosemead,,,,United States,,,"Mon-Thurs: 10:30am-10pm, Fri-Sat: 10:30am-11pm, Sun: 10:30am-10pm",Rosemead,CA,,3610 Rosemead Blvd.,,91770
(626) 810-5787,Rowland Heights,,,,United States,,,"Mon-Thurs: 10:30am-10pm, Fri-Sat: 10:30am-11pm, Sun: 10:30am-10pm",Rowland Heights,CA,,17490 Colima Road,,91784
(805) 687-5200,Santa Barbara,,,,United States,,,"Mon-Sat: 10:30am-9pm, Sun: 11am-8pm",Santa Barbara,CA,,3890 La Cumbre Plaza Ln.,,93105
(805) 962-7472,Santa Barbara,,,,United States,,,"Mon-Sat: 10:30am-9pm, Sun: 11am-8pm",Santa Barbara,CA,,216 S. Milpas,,93103
(805) 892-5400,Santa Barbara,,,,United States,,,"Mon-Sat: 10:30am-9pm, Sun: 11am-8pm",Santa Barbara,CA,,628 State St.,,93101
(661) 252-1487,Santa Clarita,,,,United States,,,"Mon-Thurs: 10:30am-10pm, Fri-Sat: 10:30am-11pm, Sun: 10:30am-10pm",Santa Clarita,CA,,19223 Golden Valley Rd.,,91387
(805) 527-4500,Simi Valley,,,,United States,,,"Mon-Sat: 10:30am-10pm, Sun: 10:30am-9:30pm",Simi Valley,CA,,2906 Tapo Cyn. Blvd.,,93065
(805) 584-9007,Simi Valley,,,,United States,,,"Mon-Sat: 10:30am-10pm, Sun: 10:30am-9pm",West Simi Valley,CA,,2091 Madera Rd.,,93065
(323) 566-2240,South Gate,,,,United States,,,"Mon-Thurs: 10:30am-10pm, Fri-Sat: 10:30am-11pm, Sun: 10:30am-10pm",South Gate,CA,,4791 Firestone Bl.,,90280
(805) 494-1124,Thousand Oaks,,,,United States,,,"Mon-Sat: 10:30am-10pm, Sun: 10:30am-9pm",Thousand Oaks,CA,,11 East Hillcrest Dr.,,91360
(805) 230-2874,Thousand Oaks,,,,United States,,,"Mon-Sat: 10:30am-10pm, Sun: 10:30am-9pm",Westlake Village,CA,,3980 E. Thousand Oaks Blvd.,,91362
(310) 406-3063,Torrance,,,,United States,,,"Mon-Thurs: 10:30am-10pm, Fri-Sat: 10:30am-11pm, Sun: 10:30am-10pm",Torrance,CA,,3829 Torrance Blvd.,,90503
(661) 291-1575,Valencia,,,,United States,,,"Mon-Sat: 10:30am-10pm, Sun: 10:30am-9:30pm",Valencia,CA,,25948 McBean Pkwy.,,91355
(661) 294-1071,Valencia,,,,United States,,,"Mon-Sat: 10:30am-10pm, Sun: 10:30am-9:30pm",Rye Canyon,CA,,28251 Newhall Ranch Rd.,,91355
(818) 781-7057,Van Nuys,,,,United States,,,"Mon-Thurs: 10:30am-10pm, Fri-Sat: 10:30am-11pm, Sun: 10:30am-10pm",Van Nuys,CA,,7221 Van Nuys Blvd.,,91405
(805) 676-1717,Ventura,,,,United States,,,"Mon-Sat: 10:30am-10pm, Sun: 10:30am-9:30pm",Telephone,CA,,4732 Telephone Rd.,,93003
(805) 667-2065,Ventura,,,,United States,,,"Mon-Sat: 10:30am-10pm, Sun: 10:30am-9:30pm",Thompson,CA,,487 E. Thompson Blvd.,,93001
(626) 859-6666,West Covina,,,,United States,,,"Mon-Thurs: 10:30am-10pm, Fri-Sat: 10:30am-11pm, Sun: 10:30am-10pm",West Covina,CA,,2851 Eastland Center Drive,,91791
(562) 947-9400,Whittier,,,,United States,,,"Mon-Thurs: 10:30am-10pm, Fri-Sat: 10:30am-11pm, Sun: 10:30am-10pm",Whittier,CA,,15498 Whittier Blvd.,,90603
(818) 225-2231,Woodland Hills,,,,United States,,,"Mon-Sat: 10:30am-11pm, Sun: 10:30am-10pm",Woodland Hills,CA,,22651 Ventura Blvd.,,91364
(909) 597-3344,Chino Hills,,,,United States,,,"Mon-Thurs: 10:30am-10pm, Fri-Sat: 10:30am-11pm, Sun: 10:30am-10pm",Chino Hills,CA,,4200 Chino Hills Parkway,,91709
(951) 361-9490,Eastvale,,,,United States,,,Mon-Sun: 10:30am-10pm,Eastvale,CA,,12569 Limonite Ave.,,91752
(760) 995-4159,Hesperia,,,,United States,,,"Mon-Sat: 10:30am-10pm, Sun: 10:30am-9:30pm",Hesperia,CA,,13325 Main Street,,92345
(760) 564-6900,La Quinta,,,,United States,,,Mon-Sun: 10:30am-10pm,La Quinta,CA,,79174 Highway 111,,92253
(951) 672-2295,Menifee,,,,United States,,,Mon-Sun: 10:30am-10pm,Menifee,CA,,30067 Haun Rd.,,92584
(442) 282-5168,Palm Desert,,,,United States,,,Mon-Sun: 10:30am-10pm,Palm Desert,CA,,73393 Highway 111,,92260
(951) 248-0156,RIVERSIDE,,,,United States,,,"Mon-Thurs: 10:30am-10pm, Fri-Sat: 10:30am-11pm, Sun: 10:30am-10pm",Riverside,CA,,3555 Riverside Plaza Dr.,,92506
(253) 236-5821,Rancho Cucamonga,,,,United States,,,"Mon-Thurs: 10:30am-10pm, Fri-Sat: 10:30am-11pm, Sun: 10:30am-10pm, Mon-Sun: 10:30am-10pm, Mon-Sat: 10:30am-10pm, Sun: 10:30am-9:30pm, Mon-Thurs: 10:30am-10pm, Fri-Sat: 10:30am-11pm, Sun: 10:30am-10pm, Mon-Thurs: 10:30am-11pm, Fri-Sat: 10:30am-12am, Sun: 10:30am-10pm, Mon-Thurs: 10:30am-10pm, Fri-Sat: 10:30am-11pm, Sun: 10:30am-10pm, Mon-Sun: 10:30am-10pm, Mon-Thurs: 10:30am-10pm, Fri-Sat: 10:30am-11pm, Sun: 10:30am-10pm, Mon-Thurs: 10:30am-10pm, Fri-Sat: 10:30am-11pm, Sun: 10:30am-10pm, Mon-Sun: 10:30am-10pm, Mon-Sat: 10:30am-12am, Sun: 10:30am-11pm, Mon-Sun: 10:30am-10pm, Mon-Sat: 10:30am-10pm, Sun: 10:30am-9:30pm, Mon-Thurs: 10:30am-10pm, Fri-Sat: 10:30am-11pm, Sun: 10:30am-10pm, Mon-Thurs: 10:30am-10pm, Fri-Sat: 10:30am-11pm, Sun: 10:30am-10pm, Mon-Thurs: 10:30am-10pm, Fri-Sat: 10:30am-11pm, Sun: 10:30am-10pm, Mon-Sat: 10:30am-12am, Sun: 10:30am-11pm, Mon-Thurs: 10:30am-10pm, Fri-Sat: 10:30am-11pm, Sun: 10:30am-10pm, Mon-Sun: 10:30am-10pm, Mon-Sun: 10:30am-10pm, Mon-Thurs: 10:30am-10pm, Fri-Sat: 10:30am-11pm, Sun: 10:30am-10pm, Mon-Thurs: 10:30am-10pm, Fri-Sat: 10:30am-11pm, Sun: 10:30am-10pm, Mon-Sun: 10:30am-10pm, Mon-Sat: 10:30am-10pm, Sun: 10:30am-9pm, Mon-Thurs: 10:30am-10pm, Fri-Sat: 10:30am-11pm, Sun: 10:30am-10pm, Mon-Sat: 10:30am-10pm, Sun: 10:30am-9pm, Mon-Sat: 10:30am-10pm, Sun: 10:30am-9pm, Mon-Sat: 10:30am-10pm, Sun: 10:30am-9pm, Mon-Sun: 10:30am-10pm, Mon-Sat: 10:30am-10pm, Sun: 10:30am-9pm, Mon-Sun: 10:30am-10pm, Mon-Sun: 10:30am-10pm, Mon-Sun: 10:30am-10pm, Mon-Sun: 10:30am-10pm, Mon-Sun: 10:30am-10pm, Mon-Sun: 10:30am-10pm, Mon-Sun: 10:30am-10pm, Mon-Thurs: 10:30am-10pm, Fri-Sat: 10:30am-11pm, Sun: 10:30am-10pm, Mon-Sat: 10:30am-12am, Sun: 10:30am-11pm, Mon-Fri: 10am-10pm, Sat-Sun: 11am-10pm, Mon-Sun: 10:30am-10pm, Mon-Sun: 10:30am-10pm, Mon-Sun: 10:30am-10pm, Mon-Sun: 10:30am-10pm, Mon-Sat: 10:30am-12:00am, Sun: 10:30am-11:00pm, Mon-Sat: 10:30am-10pm, Sun: 10:30am-9pm, Mon-Sat: 10:30am-12am, Sun: 10:30am-11pm, Mon-Thurs: 10:30am-10pm, Fri-Sat: 10:30am-11pm, Sun: 10:30am-10pm, Mon-Sun: 10:30am-10pm, Mon-Fri: 8:30am-11pm, Sat: 8:30am-10pm, Sun: 8:30am-11pm, Mon-Sat: 10:30am-10pm, Sun: 10:30am-9pm, Mon-Sat: 10:30am-10pm, Sun: 10:30am-9pm, Mon-Sun: 10:30am-10pm, Mon-Sat: 10:30am-10pm, Sun: 10:30am-9pm, Mon-Sat: 10:30am-10pm, Sun: 10:30am-9pm, Mon-Sat: 10:30am-10pm, Sun: 10:30am-9pm, Mon-Sat: 10:30am-10pm, Sun: 10:30am-9pm, Mon-Sat: 10:30am-10pm, Sun: 10:30am-9pm, Mon-Sat: 10:30am-10pm, Sun: 10:30am-9pm, Mon-Sat: 10:30am-10pm, Sun: 10:30am-9pm, Mon-Sat: 10:30am-10pm, Sun: 10:30am-9pm, Mon-Sat: 10:30am-10pm, Sun: 10:30am-9pm, Mon-Sat: 10:30am-10pm, Sun: 10:30am-9pm, Mon-Sun: 10:30am-10pm, Mon-Sat: 10:30am-10pm, Sun: 10:30am-9pm, Mon-Sun: 10:30am-10pm, Mon-Sun: 10:30am-10pm, Mon-Sun: 10:30am-10pm, Mon-Sat: 10:30am-10pm, Sun: 10:30am-9pm, Mon-Sat: 10:30am-10pm, Sun: 10:30am-9pm, Mon-Thurs: 10:30am-10pm, Fri-Sat: 10:30am-11pm, Sun: 10:30am-10pm, Mon-Sat: 10:30am-10pm, Sun: 10:30am-9pm, Mon-Sat: 10:30am-10pm, Sun: 10:30am-9pm, Mon-Sat: 10:30am-10pm, Sun: 10:30am-9:30pm, Mon-Thurs: 10:30am-10pm, Fri-Sat: 10:30am-11pm, Sun: 10:30am-10pm, Mon-Thurs: 10:30am-10pm, Fri-Sat: 10:30am-11pm, Sun: 10:30am-10pm, Mon-Thurs: 10:30am-10pm, Fri-Sat: 10:30am-11pm, Sun: 10:30am-10pm, Mon-Thurs: 10:30am-10pm, Fri-Sat: 10:30am-11pm, Sun: 10:30am-10pm, Mon-Thurs: 10:30am-9pm, Fri-Sat: 10:30am-10pm, Sun: 10:30am-9pm, Mon-Sat: 10:30am-10pm, Sun: 10:30am-9pm, Mon-Sat: 10:30am-10pm, Sun: 10:30am-9:00pm, Mon-Sun: 10:30am-10pm, Mon-Sun: 10:30am-10pm, Mon-Sun: 10:30am-10pm, Mon-Sun: 10:30am-10pm, Mon-Wed: 10am-10pm, Thurs-Fri: 10am-11pm, Sat-Sun: 10am-10pm",Rancho Cucamonga,CA,,10895 Foothill Blvd.,,91730
(909) 792-8855,Redlands,,,,United States,,,"Mon-Thurs: 10:30am-10pm, Fri-Sat: 10:30am-11pm, Sun: 10:30am-10pm",Redlands,CA,,27511 San Bernardino Ave.,,92374
(951) 689-0545,Riverside,,,,United States,,,Mon-Sun: 10:30am-10pm,Riverside,CA,,3510 Tyler St.,,92503
(909) 592-3322,San Dimas,,,,United States,,,"Mon-Sat: 10:30am-10pm, Sun: 10:30am-9:30pm",San Dimas,CA,,470 N. Lone Hill Ave.,,91773
(909) 949-2300,Upland,,,,United States,,,"Mon-Thurs: 10:30am-10pm, Fri-Sat: 10:30am-11pm, Sun: 10:30am-10pm",Upland,CA,,1071 East 19th Street,,91784
(909) 932-1100,Upland,,,,United States,,,"Mon-Thurs: 10:30am-11pm, Fri-Sat: 10:30am-12am, Sun: 10:30am-10pm",Upland,CA,,1213 W. Foothill Bl.,,91786
(949) 831-3116,Aliso Viejo,,,,United States,,,"Mon-Thurs: 10:30am-10pm, Fri-Sat: 10:30am-11pm, Sun: 10:30am-10pm",Aliso Viejo,CA,,26921 Aliso Creek Rd.,,92656
(714) 998-8000,Anaheim Hills,,,,United States,,,Mon-Sun: 10:30am-10pm,Anaheim Hills,CA,,8182 E. Santa Ana Canyon Rd.,,92808
(714) 690-0336,Buena Park,,,,United States,,,"Mon-Thurs: 10:30am-10pm, Fri-Sat: 10:30am-11pm, Sun: 10:30am-10pm",Buena Park,CA,,5968 Orangethorpe Ave.,,90620
(714) 241-1873,Costa Mesa,,,,United States,,,"Mon-Thurs: 10:30am-10pm, Fri-Sat: 10:30am-11pm, Sun: 10:30am-10pm",Costa Mesa,CA,,1510 Adams Ave,,92626
(714) 892-1994,Cypress,,,,United States,,,Mon-Sun: 10:30am-10pm,Cypress,CA,,6830 Katella Ave.,,90630
(949) 248-1045,Dana Point,,,,United States,,,"Mon-Sat: 10:30am-12am, Sun: 10:30am-11pm",Dana Point,CA,,32505 Golden Lantern St.,,92629
(714) 773-0848,Fullerton,,,,United States,,,Mon-Sun: 10:30am-10pm,Fullerton,CA,,101 E Orangethorpe Ave.,,92832
(714) 871-9116,Fullerton,,,,United States,,,"Mon-Sat: 10:30am-10pm, Sun: 10:30am-9:30pm",Fullerton,CA,,"2720 Nutwood Ave,",,92831
(714) 596-2200,Huntington Beach,,,,United States,,,"Mon-Thurs: 10:30am-10pm, Fri-Sat: 10:30am-11pm, Sun: 10:30am-10pm",Huntington Beach,CA,,18001 Beach Blvd.,,92648
(949) 552-5963,Irvine,,,,United States,,,"Mon-Thurs: 10:30am-10pm, Fri-Sat: 10:30am-11pm, Sun: 10:30am-10pm",Irvine,CA,,14474 Culver Drive,,92604
(949) 823-0167,Irvine,,,,United States,,,"Mon-Thurs: 10:30am-10pm, Fri-Sat: 10:30am-11pm, Sun: 10:30am-10pm",Irvine,CA,,4501 Campus Drive,,92612
(949) 955-9467,Irvine,,,,United States,,,"Mon-Sat: 10:30am-12am, Sun: 10:30am-11pm",Irvine,CA,,2200 Barranca Pkwy,,92606
(562) 777-1012,La Mirada,,,,United States,,,"Mon-Thurs: 10:30am-10pm, Fri-Sat: 10:30am-11pm, Sun: 10:30am-10pm",La Mirada,CA,,14986 Imperial Highway,,90638
(949) 206-9110,Lake Forest,,,,United States,,,Mon-Sun: 10:30am-10pm,Lake Forest,CA,,23632 El Toro Rd.,,92630
(714) 282-1530,Orange,,,,United States,,,Mon-Sun: 10:30am-10pm,Orange,CA,,1500 East Village Way,,92865
(949) 488-7826,San Clemente,,,,United States,,,"Mon-Thurs: 10:30am-10pm, Fri-Sat: 10:30am-11pm, Sun: 10:30am-10pm",San Clemente,CA,,638 Camino De Los Mares,,92673
(714) 550-1201,Santa Ana,,,,United States,,,"Mon-Thurs: 10:30am-10pm, Fri-Sat: 10:30am-11pm, Sun: 10:30am-10pm",Santa Ana,CA,,2777 N. Main St.,,92705
(916) 536-9175,Citrus Heights,,,,United States,,,Mon-Sun: 10:30am-10pm,Citrus Heights,CA,,5437 Sunrise Blvd.,,95610
(530) 757-7485,Davis,,,,United States,,,"Mon-Sat: 10:30am-10pm, Sun: 10:30am-9pm",Davis,CA,,500 1st Street,,95616
(916) 683-3551,Elk Grove,,,,United States,,,"Mon-Thurs: 10:30am-10pm, Fri-Sat: 10:30am-11pm, Sun: 10:30am-10pm",Elk Grove,CA,,7400 Laguna Blvd.,,95758
(916) 983-3028,Folsom,,,,United States,,,"Mon-Sat: 10:30am-10pm, Sun: 10:30am-9pm",Folsom,CA,,1115 E. Bidwell St.,,95630
(916) 791-6790,Granite Bay,,,,United States,,,"Mon-Sat: 10:30am-10pm, Sun: 10:30am-9pm",Granite Bay,CA,,4060 Douglas Blvd.,,95746
(916) 851-1156,Rancho Cordova,,,,United States,,,"Mon-Sat: 10:30am-10pm, Sun: 10:30am-9pm",Rancho Cordova,CA,,3161 Zinfandel Drive,,95670
(530) 223-1027,Redding,,,,United States,,,Mon-Sun: 10:30am-10pm,Redding,CA,,1020 E. Cypress Ave.,,96002
(916) 791-5292,Roseville,,,,United States,,,"Mon-Sat: 10:30am-10pm, Sun: 10:30am-9pm",Roseville,CA,,933 Pleasant Grove Blvd.,,95678
(916) 927-2604,Sacramento,,,,United States,,,Mon-Sun: 10:30am-10pm,Sacramento,CA,,1431 Howe Ave.,,95825
(760) 436-7703,Carlsbad,,,,United States,,,Mon-Sun: 10:30am-10pm,La Costa,CA,,7610 Via Campanile,,92009
(858) 485-9991,Carmel Mountain,,,,United States,,,Mon-Sun: 10:30am-10pm,Carmel Mountain,CA,,12002 Carmel Mountain Rd.,,92128
(619) 644- 3405,La Mesa,,,,United States,,,Mon-Sun: 10:30am-10pm,La Mesa,CA,,8216 Parkway Drive,,91942
(951) 696-2288,Murrieta,,,,United States,,,Mon-Sun: 10:30am-10pm,Murrieta,CA,,40436 Murrieta Hot Springs Road,,92563
(760) 433-3390,Oceanside,,,,United States,,,Mon-Sun: 10:30am-10pm,Oceanside,CA,,2267 S. El Camino Real,,92054
(858) 277-1089,San Diego,,,,United States,,,Mon-Sun: 10:30am-10pm,Clairemont Mesa,CA,,4175 Genesee Ave,,92111
(619) 299-9913,San Diego,,,,United States,,,"Mon-Thurs: 10:30am-10pm, Fri-Sat: 10:30am-11pm, Sun: 10:30am-10pm",Mission Valley,CA,,845 Camino De La Reina,,92108
(858) 527-0074,San Diego,,,,United States,,,"Mon-Sat: 10:30am-12am, Sun: 10:30am-11pm",Mira Mesa,CA,,8340 Mira Mesa Blvd.,,92126
(619) 582-1365,San Diego,,,,United States,,,"Mon-Fri: 10am-10pm, Sat-Sun: 11am-10pm",San Diego State University,CA,,5500 Campanile Dr.,,92182
(619) 224-1026,San Diego,,,,United States,,,Mon-Sun: 10:30am-10pm,Point Loma,CA,,3455 Sports Arena Blvd.,,92110
(760) 891-0542,San Marcos,,,,United States,,,Mon-Sun: 10:30am-10pm,San Marcos,CA,,727 W. San Marcos Blvd.,,92078
(858) 523-9697,Solana Beach,,,,United States,,,Mon-Sun: 10:30am-10pm,Solana Beach,CA,,909 Lomas Santa Fe Drive,,90275
(951) 302-1911,Temecula,,,,United States,,,Mon-Sun: 10:30am-10pm,Temecula,CA,,32068 Temecula Pkwy,,92592
(623) 936-1889,Avondale,,,,United States,,,"Mon-Sat: 10:30am-12:00am, Sun: 10:30am-11:00pm",Avondale,AZ,,10155 W. McDowell Rd.,,85392
(480) 705-0306,Chandler,,,,United States,,,"Mon-Sat: 10:30am-10pm, Sun: 10:30am-9pm",Chandler,AZ,,960 N. 54th Street,,85226
(480) 726-2089,Gilbert,,,,United States,,,"Mon-Sat: 10:30am-12am, Sun: 10:30am-11pm",Gilbert,AZ,,2975 South Market St.,,85295
(253) 236-5821,Glendale,,,,United States,,,"Mon-Thurs: 10:30am-10pm, Fri-Sat: 10:30am-11pm, Sun: 10:30am-10pm, Mon-Sun: 10:30am-10pm, Mon-Fri: 8:30am-11pm, Sat: 8:30am-10pm, Sun: 8:30am-11pm, Mon-Sat: 10:30am-10pm, Sun: 10:30am-9pm, Mon-Sat: 10:30am-10pm, Sun: 10:30am-9pm, Mon-Sun: 10:30am-10pm, Mon-Sat: 10:30am-10pm, Sun: 10:30am-9pm, Mon-Sat: 10:30am-10pm, Sun: 10:30am-9pm, Mon-Sat: 10:30am-10pm, Sun: 10:30am-9pm, Mon-Sat: 10:30am-10pm, Sun: 10:30am-9pm, Mon-Sat: 10:30am-10pm, Sun: 10:30am-9pm, Mon-Sat: 10:30am-10pm, Sun: 10:30am-9pm, Mon-Sat: 10:30am-10pm, Sun: 10:30am-9pm, Mon-Sat: 10:30am-10pm, Sun: 10:30am-9pm, Mon-Sat: 10:30am-10pm, Sun: 10:30am-9pm, Mon-Sat: 10:30am-10pm, Sun: 10:30am-9pm, Mon-Sun: 10:30am-10pm, Mon-Sat: 10:30am-10pm, Sun: 10:30am-9pm, Mon-Sun: 10:30am-10pm, Mon-Sun: 10:30am-10pm, Mon-Sun: 10:30am-10pm, Mon-Sat: 10:30am-10pm, Sun: 10:30am-9pm, Mon-Sat: 10:30am-10pm, Sun: 10:30am-9pm, Mon-Thurs: 10:30am-10pm, Fri-Sat: 10:30am-11pm, Sun: 10:30am-10pm, Mon-Sat: 10:30am-10pm, Sun: 10:30am-9pm, Mon-Sat: 10:30am-10pm, Sun: 10:30am-9pm, Mon-Sat: 10:30am-10pm, Sun: 10:30am-9:30pm, Mon-Thurs: 10:30am-10pm, Fri-Sat: 10:30am-11pm, Sun: 10:30am-10pm, Mon-Thurs: 10:30am-10pm, Fri-Sat: 10:30am-11pm, Sun: 10:30am-10pm, Mon-Thurs: 10:30am-10pm, Fri-Sat: 10:30am-11pm, Sun: 10:30am-10pm, Mon-Thurs: 10:30am-10pm, Fri-Sat: 10:30am-11pm, Sun: 10:30am-10pm, Mon-Thurs: 10:30am-9pm, Fri-Sat: 10:30am-10pm, Sun: 10:30am-9pm, Mon-Sat: 10:30am-10pm, Sun: 10:30am-9pm, Mon-Sat: 10:30am-10pm, Sun: 10:30am-9:00pm, Mon-Sun: 10:30am-10pm, Mon-Sun: 10:30am-10pm, Mon-Sun: 10:30am-10pm, Mon-Sun: 10:30am-10pm, Mon-Wed: 10am-10pm, Thurs-Fri: 10am-11pm, Sat-Sun: 10am-10pm","Glendale, AZ",AZ,,7870 West Bell Road,,85308
(602) 254-2931,Phoenix,,,,United States,,,"Mon-Thurs: 10:30am-10pm, Fri-Sat: 10:30am-11pm, Sun: 10:30am-10pm",Mid Phoenix,AZ,,530 W. McDowell Road,,85003
(602) 265-1815,Phoenix,,,,United States,,,Mon-Sun: 10:30am-10pm,Central Phoenix,AZ,,745 E. Glendale Ave.,,85020
,Phoenix,,,,United States,,,"Mon-Fri: 8:30am-11pm, Sat: 8:30am-10pm, Sun: 8:30am-11pm",Grand Canyon University,AZ,,"Grand Canyon University, Student Union Building 29",,85017
(602) 867-0904,Phoenix,,,,United States,,,"Mon-Sat: 10:30am-10pm, Sun: 10:30am-9pm",Paradise Valley,AZ,,4575 E. Cactus Rd.,,85032
(480) 998-1050,Scottsdale,,,,United States,,,"Mon-Sat: 10:30am-10pm, Sun: 10:30am-9pm",North Scottsdale,AZ,,16495 N. Scottsdale Road,,85254
(480) 456-8912,South Tempe,,,,United States,,,Mon-Sun: 10:30am-10pm,South Tempe,AZ,,1817 E. Guadalupe Road,,85283
(801) 756-1453,American Fork,,,,United States,,,"Mon-Sat: 10:30am-10pm, Sun: 10:30am-9pm",American Fork,UT,,232 NW State Road #101,,84003
(801) 561-1267,Cottonwood Heights,,,,United States,,,"Mon-Sat: 10:30am-10pm, Sun: 10:30am-9pm",Fort Union,UT,,6993 S. Park Centre Drive,,84121
(801) 447-8404,Farmington,,,,United States,,,"Mon-Sat: 10:30am-10pm, Sun: 10:30am-9pm",Farmington,UT,,260 N. Union Avenue,,84025
(801) 825-2434,Layton,,,,United States,,,"Mon-Sat: 10:30am-10pm, Sun: 10:30am-9pm",Layton,UT,,508 W. Antelope Drive,,84041
(801) 484-6132,Salt Lake City,,,,United States,,,"Mon-Sat: 10:30am-10pm, Sun: 10:30am-9pm",Sugar House,UT,,2121 S. McClelland,,84106
(801) 571-1725,Sandy,,,,United States,,,"Mon-Sat: 10:30am-10pm, Sun: 10:30am-9pm",Sandy,UT,,11380 S. State St.,,84070
(801) 495-4267,South Jordan,,,,United States,,,"Mon-Sat: 10:30am-10pm, Sun: 10:30am-9pm",South Jordan,UT,,11428 S. Parkway Plaza,,84095
(435) 673-3345,St. George,,,,United States,,,"Mon-Sat: 10:30am-10pm, Sun: 10:30am-9pm",St. George,UT,,15 South River Rd.,,84790
(801) 282-8307,West Jordan,,,,United States,,,"Mon-Sat: 10:30am-10pm, Sun: 10:30am-9pm",West Jordan,UT,,7677 South Jordan Landing Blvd.,,84084
(732) 544-5401,Eatontown,,,,United States,,,"Mon-Sat: 10:30am-10pm, Sun: 10:30am-9pm",Eatontown,NJ,,178 Route 35 South,,07724
(201) 475-3800,Fair Lawn,,,,United States,,,Mon-Sun: 10:30am-10pm,Fair Lawn,NJ,,3101 Promenade Blvd.,,07410
(609) 356-0497,Lawrence Township,,,,United States,,,"Mon-Sat: 10:30am-10pm, Sun: 10:30am-9pm",Lawrenceville,NJ,,3371 U.S. Highway 1,,08648
(973) 794-6861,Parsippany,,,,United States,,,Mon-Sun: 10:30am-10pm,Parsippany,NJ,,3043 Route 46,,07054
(201) 489-4400,River Edge,,,,United States,,,Mon-Sun: 10:30am-10pm,River Edge,NJ,,1081 Main Street,,07661
(201) 288-4629,Teterboro,,,,United States,,,Mon-Sun: 10:30am-10pm,Teterboro,NJ,,3 Teterboro Landing Drive,,07068
(561) 241-8466,Boca Raton,,,,United States,,,"Mon-Sat: 10:30am-10pm, Sun: 10:30am-9pm",Boca Raton,FL,,5560 North Military Trail,,33496
(561) 265-0934,Delray Beach,,,,United States,,,"Mon-Sat: 10:30am-10pm, Sun: 10:30am-9pm",Delray Beach,FL,,1831 South Federal Hwy,,33483
(305) 229-0915,Miami,,,,United States,,,"Mon-Thurs: 10:30am-10pm, Fri-Sat: 10:30am-11pm, Sun: 10:30am-10pm",Miami,FL,,9971 West Flagler St.,,33174
(407) 351-9009,Orlando,,,,United States,,,"Mon-Sat: 10:30am-10pm, Sun: 10:30am-9pm",Orlando,FL,,4706 Millenia Plaza Way,,32839
(561) 660-5178,Palm Beach Gardens,,,,United States,,,"Mon-Sat: 10:30am-10pm, Sun: 10:30am-9pm",Palm Beach Gardens,FL,,3333 Northlake Blvd.,,33403
(253) 236-5821,Plantation,,,,United States,,,"Mon-Sat: 10:30am-10pm, Sun: 10:30am-9:30pm, Mon-Thurs: 10:30am-10pm, Fri-Sat: 10:30am-11pm, Sun: 10:30am-10pm, Mon-Thurs: 10:30am-10pm, Fri-Sat: 10:30am-11pm, Sun: 10:30am-10pm, Mon-Thurs: 10:30am-10pm, Fri-Sat: 10:30am-11pm, Sun: 10:30am-10pm, Mon-Thurs: 10:30am-10pm, Fri-Sat: 10:30am-11pm, Sun: 10:30am-10pm, Mon-Thurs: 10:30am-9pm, Fri-Sat: 10:30am-10pm, Sun: 10:30am-9pm, Mon-Sat: 10:30am-10pm, Sun: 10:30am-9pm, Mon-Sat: 10:30am-10pm, Sun: 10:30am-9:00pm, Mon-Sun: 10:30am-10pm, Mon-Sun: 10:30am-10pm, Mon-Sun: 10:30am-10pm, Mon-Sun: 10:30am-10pm, Mon-Wed: 10am-10pm, Thurs-Fri: 10am-11pm, Sat-Sun: 10am-10pm",Plantation,FL,,1740 N. University Dr.,,33322
(561) 784-4011,Royal Palm Beach,,,,United States,,,"Mon-Sat: 10:30am-10pm, Sun: 10:30am-9:30pm",Royal Palm Beach,FL,,280 South State Road 7,,33411
(702) 547-4352,Henderson,,,,United States,,,"Mon-Thurs: 10:30am-10pm, Fri-Sat: 10:30am-11pm, Sun: 10:30am-10pm",Henderson,NV,,543 North Stephanie Street,,89014
(702) 838-0593,Las Vegas,,,,United States,,,"Mon-Thurs: 10:30am-10pm, Fri-Sat: 10:30am-11pm, Sun: 10:30am-10pm",Las Vegas,NV,,365 Hughes Center Dr.,,89169
(702) 260-0050,Las Vegas,,,,United States,,,"Mon-Thurs: 10:30am-10pm, Fri-Sat: 10:30am-11pm, Sun: 10:30am-10pm",Blue Diamond,NV,,4830 Blue Diamond Rd.,,89139
(702) 586-1488,North Las Vegas,,,,United States,,,"Mon-Thurs: 10:30am-10pm, Fri-Sat: 10:30am-11pm, Sun: 10:30am-10pm",Decatur,NV,,"6482 N. Decatur Blvd,",,89131
(208) 895-9975,Meridian,,,,United States,,,"Mon-Thurs: 10:30am-9pm, Fri-Sat: 10:30am-10pm, Sun: 10:30am-9pm",Meridian,ID,,2206 N. Eagle Rd.,,83646
(301) 417-8416,Rockville,,,,United States,,,"Mon-Sat: 10:30am-10pm, Sun: 10:30am-9pm",Rockville,MD,,895-A Rockville Pike,,20852
(703) 724-4471,Ashburn,,,,United States,,,"Mon-Sat: 10:30am-10pm, Sun: 10:30am-9:00pm",Ashburn,VA,,19855 Belmont Chase Dr.,,20147
(253) 630-5337,Kent,,,,United States,,,Mon-Sun: 10:30am-10pm,Kent,WA,,12900 SE Kent Kangley Rd,,98030
(206) 542-7551,Shoreline,,,,United States,,,Mon-Sun: 10:30am-10pm,Shoreline,WA,,1253 North 205th Street,,98133
(360) 204-5615,Silverdale,,,,United States,,,Mon-Sun: 10:30am-10pm,Silverdale,WA,,11196 Pacific Crest Place,,98383
(253) 236-5821,Tukwila,,,,United States,,,Mon-Sun: 10:30am-10pm,Tukwila,WA,,17025 Southcenter Pkwy,,98188
