store_name,store_number,address,address2,city,state,zip_code,country,phone_number,latitude,longitude,store_hours,store_type,other_fields,coming_soon
Houston Heights,1055,2802 White Oak Drive,,Houston,TX,77007,US,832-987-4827 ,29.78191,-95.388984,"Mon : 12:00PM - 9:00PM, Tues : 12:00PM - 9:00PM, Wed : 12:00PM - 9:00PM, Thur : 12:00PM - 9:00PM, Fri : 12:00PM - 10:00PM, Sat : 12:00PM - 10:00PM, Sun : 12:00PM - 9:00PM",,,0
Galveston,779,6026 Seawall Blvd.,Unit E,Galveston,TX,77551,US,409-744-ICES (4237),29.266557,-94.826197,"Mon : 12:00PM - 9:00PM, Tues : 12:00PM - 9:00PM, Wed : 12:00PM - 9:00PM, Thur : 12:00PM - 9:00PM, Fri : 12:00PM - 10:00PM, Sat : 12:00PM - 10:00PM, Sun : 12:00AM - 8:00PM",,,0
Corpus Christi,1086,4200C South Alameda Street,,Corpus Christi,TX,78412,US,,27.732035,-97.372237,"Mon : 12:00PM - 9:00PM, Tues : 12:00PM - 9:00PM, Wed : 12:00PM - 9:00PM, Thur : 12:00PM - 9:00PM, Fri : 12:00PM - 9:00PM, Sat : 12:00PM - 9:00PM, Sun : 12:00PM - 8:00PM",,,0
AT T Stadium,1201,One AT T Way,,Arlington,TX,76011,US,,32.747327410976,-97.094593048096,,,,0
The Shops at Bedford Crossing,753,501 North Industrial Blvd,Suite 200,Bedford,TX,76021,US,817-354-6423,32.842803,-97.100034,"Mon : 11:00AM - 9:00PM, Tues : 11:00AM - 9:00PM, Wed : 11:00AM - 9:00PM, Thur : 11:00AM - 9:00PM, Fri : 11:00AM - 9:00PM, Sat : 11:00AM - 9:00PM, Sun : 11:00AM - 9:00PM",,,0
Twin Creeks,854,Twin Creeks Village Shopping Center,816 W. McDermott Drive Suite #316,Allen,TX,75013,US,214-383-2785,33.103114,-96.682498,"Mon : 12:00PM - 10:00PM, Tues : 12:00PM - 10:00PM, Wed : 12:00PM - 10:00PM, Thur : 12:00PM - 10:00PM, Fri : 12:00PM - 10:00PM, Sat : 12:00PM - 10:00PM, Sun : 12:00PM - 10:00PM",,,0
Southlake,740,410 W. Southlake Blvd,,Southlake,TX,76092,US,817-251-8811,32.941354,-97.156067,"Mon : 11:00AM - 9:00PM, Tues : 11:00AM - 9:00PM, Wed : 11:00AM - 9:00PM, Thur : 11:00AM - 9:00PM, Fri : 11:00AM - 9:00PM, Sat : 11:00AM - 9:00PM, Sun : 11:00AM - 9:00PM",,,0
COMING SOON: Conway AR,1310,Lewis Crossing Shopping Center,1040 South Amity Road Suite D,Conway,AR,72032,US,,35.066570274833,-92.414315342903,"Mon : Closed, Tues : Closed, Wed : Closed, Thur : Closed, Fri : Closed, Sat : Closed, Sun : Closed",,,1
Fairhope,1057,Eastern Shore Shopping Center,420 Eastern Shore Shopping Ctr.,Fairhope,AL,36532,US,,30.521922,-87.885776,"Mon : 11:00AM - 10:00PM, Tues : 11:00AM - 10:00PM, Wed : 11:00AM - 10:00PM, Thur : 11:00AM - 10:00PM, Fri : 11:00AM - 11:00PM, Sat : 11:00AM - 11:00PM, Sun : 11:00AM - 10:00PM",,,0
Gulf Shores,1121,400 Gulf Shores Parkway,,Gulf Shores,AL,36542,US,,30.251018,-87.688967,"Mon : 10:00PM - 11:00PM, Tues : 10:00PM - 11:00PM, Wed : 10:00PM - 11:00PM, Thur : 10:00PM - 11:00PM, Fri : 10:00PM - 11:00PM, Sat : 10:00PM - 11:00PM, Sun : 10:00PM - 11:00PM",,,0
Foley,937,2654 South McKenzie Street,,Foley,AL,36535,US,251-943-5980 ,30.37596,-87.683779,"Mon : 11:00AM - 10:00PM, Tues : 11:00PM - 10:00PM, Wed : 11:00PM - 10:00PM, Thur : 11:00PM - 10:00PM, Fri : 11:00PM - 11:00PM, Sat : 11:00PM - 11:00PM, Sun : 11:00PM - 10:00PM",,,0
Dothan,1171,4177 Montgomery Highway,Suite 6,Dothan,AL,36303,US,334-699-7003,31.262051,-85.439776,"Mon : 11:00AM - 9:00PM, Tues : 11:00AM - 9:00PM, Wed : 11:00AM - 9:00PM, Thur : 11:00AM - 9:00PM, Fri : 11:00AM - 10:00PM, Sat : 11:00AM - 10:00PM, Sun : 11:00AM - 9:00PM",,,0
Nolensville,1127,7171 Nolensville Pike,,Nolensville,TN,37135,US,615-776-2100,35.967777,-86.677816,"Mon : 12:00PM - 9:00PM, Tues : 12:00PM - 9:00PM, Wed : 12:00PM - 9:00PM, Thur : 12:00PM - 9:00PM, Fri : 12:00PM - 9:00PM, Sat : 12:00PM - 9:00PM, Sun : 12:00PM - 9:00PM",,,0
Nashville - Kitchen,1244,816 51st Ave N,,Nashville,TN,37209,US,,36.15741,-86.848608,"Mon : Closed, Tues : Closed, Wed : Closed, Thur : Closed, Fri : Closed, Sat : Closed, Sun : Closed",,,0
Murfreesboro,1019,2018 Medical Center Parkway,,Murfreesboro,TN,37129,US,,35.858328,-86.431263,"Mon : 12:00PM - 9:00PM, Tues : 12:00PM - 9:00PM, Wed : 12:00PM - 9:00PM, Thur : 12:00PM - 9:00PM, Fri : 12:00PM - 10:00PM, Sat : 12:00PM - 10:00PM, Sun : 12:00PM - 9:00PM",,,0
Chattanooga,852,100 Market Street,,Chattanooga,TN,37402,US,423-531-2735,35.0462,-85.2988,"Mon : 11:00AM - 10:00PM, Tues : 11:00AM - 10:00PM, Wed : 11:00AM - 10:00PM, Thur : 11:00AM - 10:00PM, Fri : 11:00AM - 11:00PM, Sat : 11:00AM - 11:00PM, Sun : 11:00AM - 10:00PM",,,0
Griffin,1312,1432 Highway 16,,Griffin,GA,30223,US,,33.246871011492,-84.289512634277,,,,0
McDonough,555,16 Macon Street,,McDonough,GA,30253,US,678-782-7313,33.447276,-84.146277,"Mon : 12:00PM - 9:00PM, Tues : 12:00PM - 9:00PM, Wed : 12:00PM - 9:00PM, Thur : 12:00PM - 9:00PM, Fri : 12:00PM - 10:00PM, Sat : 12:00PM - 10:00PM, Sun : 12:00PM - 9:00PM",,,0
Perimeter,543,3530 Ashford-Dunwoody Road NE,,Atlanta,GA,30319,US,770-986-9335,33.894763,-84.329311,"Mon : 12:00PM - 10:00PM, Tues : 12:00PM - 10:00PM, Wed : 12:00PM - 10:00PM, Thur : 12:00PM - 10:00PM, Fri : 12:00PM - 10:00PM, Sat : 12:00PM - 10:00PM, Sun : 12:00PM - 10:00PM",,,0
Suwanee,514,340 Town Center Avenue,Unit A-4,Suwanee,GA,30024,US,678-765-2889,34.055435,-84.064738,"Mon : 11:00AM - 10:00PM, Tues : 11:00AM - 10:00PM, Wed : 11:00AM - 10:00PM, Thur : 11:00AM - 10:00PM, Fri : 11:00AM - 10:00PM, Sat : 11:00AM - 10:00PM, Sun : 11:00AM - 10:00PM",,,0
Lincoln,1079,Northern Lights Shopping Center,8222 Holdrege Street,Lincoln,NE,68505,US,402-975-8171,40.828442,-96.608399,"Mon : 12:00PM - 10:00PM, Tues : 12:00PM - 10:00PM, Wed : 12:00PM - 10:00PM, Thur : 12:00PM - 10:00PM, Fri : 12:00PM - 10:00PM, Sat : 12:00PM - 10:00PM, Sun : 12:00PM - 10:00PM",,,0
Seminole,39,13147 86th Avenue N.,,Seminole,FL,33776,US,727-393-6740,27.8513,-82.8204,"Mon : 12:00PM - 10:00PM, Tues : 12:00PM - 10:00PM, Wed : 12:00PM - 10:00PM, Thur : 12:00PM - 10:00PM, Fri : 12:00PM - 10:00PM, Sat : 12:00PM - 10:00PM, Sun : 12:00PM - 10:00PM",,,0
Court Street,22,1010 Court Street,,Clearwater,FL,33756,US,727-446-3023,27.9613,-82.7921,"Mon : 12:00PM - 10:00PM, Tues : 12:00PM - 10:00PM, Wed : 12:00PM - 10:00PM, Thur : 12:00PM - 10:00PM, Fri : 12:00PM - 10:00PM, Sat : 12:00PM - 10:00PM, Sun : 12:00PM - 10:00PM",,,0
Northwood Plaza,764,Northwood Plaza Shopping Center,2510-A N. McMullen Booth Road,Clearwater,FL,33761,US,727-796-RITA (7482),28.012518,-82.711251,"Mon : 12:00PM - 9:00PM, Tues : 12:00PM - 9:00PM, Wed : 12:00PM - 9:00PM, Thur : 12:00PM - 9:00PM, Fri : 12:00PM - 10:00PM, Sat : 12:00PM - 10:00PM, Sun : 12:00PM - 9:00PM",,,0
Brooksville,546,7065 Coastal Boulevard,,Brooksville,FL,34613,US,352-592-4554,28.535004,-82.506589,"Mon : 12:00PM - 10:00PM, Tues : 12:00PM - 10:00PM, Wed : 12:00PM - 10:00PM, Thur : 12:00PM - 10:00PM, Fri : 12:00PM - 11:00PM, Sat : 12:00PM - 11:00PM, Sun : 12:00PM - 10:00PM",,,0
Market Square,687,26 Market Square,,Knoxville,TN,37902,US,865-673-4888,35.965658,-83.919558,"Mon : 12:00PM - 10:00PM, Tues : 12:00PM - 10:00PM, Wed : 12:00PM - 10:00PM, Thur : 12:00PM - 10:00PM, Fri : 12:00PM - 11:00PM, Sat : 11:00AM - 11:00PM, Sun : 12:00PM - 10:00PM",,,0
West Des Moines,943,Hawthorne Plaza,9250 University Avenue,West Des Moines,IA,50266,US,515-987-4444,41.600087,-93.834845,"Mon : 12:00PM - 10:00PM, Tues : 12:00PM - 10:00PM, Wed : 12:00PM - 10:00PM, Thur : 12:00PM - 10:00PM, Fri : 12:00PM - 10:00PM, Sat : 12:00PM - 10:00PM, Sun : 12:00PM - 10:00PM",,,0
Putt-Putt Fun Center,1318,3763 Martinez Blvd.,,Martinez,GA,30907,US,,33.516220092773,-82.080551147461,"Mon : 10:00AM - 10:00PM, Tues : 10:00AM - 10:00PM, Wed : 10:00AM - 10:00PM, Thur : 10:00AM - 10:00PM, Fri : 10:00AM - 12:00AM, Sat : 10:00AM - 12:00PM, Sun : 11:00AM - 10:00PM",,,0
Iowa Events Center,1096,Iowa Events Center,730 3rd Street,Des Moines,IA,50309,US,,41.591791,-93.622579,,,,0
Colorado Springs,1253,7866 N. Academy Blvd.,,Colorado Springs,CO,80920,US,719-465-2867,38.946593318934,-104.8006439209,"Mon : 11:00AM - 10:00PM, Tues : 11:00AM - 10:00PM, Wed : 11:00AM - 10:00PM, Thur : 11:00AM - 10:00PM, Fri : 11:00AM - 10:00PM, Sat : 11:00AM - 10:00PM, Sun : 11:00AM - 10:00PM",,,0
Hodges Station,536,Hodges Station,13529 Beach Blvd Suite 101,Jacksonville,FL,32224,US,904-685-5073,30.285879,-81.462794,"Mon : 12:00PM - 9:30PM, Tues : 12:00PM - 9:30PM, Wed : 12:00PM - 9:30PM, Thur : 12:00PM - 9:30PM, Fri : 12:00PM - 10:30PM, Sat : 12:00PM - 10:30PM, Sun : 12:00PM - 10:00PM",,,0
Greenville SC,843,2400-A North Pleasantburg Drive,,Greenville,SC,29609,US,864-436-1301,34.890745,-82.380344,"Mon : 12:00PM - 9:00PM, Tues : 12:00PM - 9:00PM, Wed : 12:00PM - 9:00PM, Thur : 12:00PM - 9:00PM, Fri : 12:00PM - 10:00PM, Sat : 12:00PM - 10:00PM, Sun : 1:00PM - 9:00PM",,,0
COMING SOON: Castle Rock,1303,Hilltop Commons at the Meadows,3990 Limelight Ave Suite D,Castle Rock,CO,80109,US,,39.402973879803,-104.88179683685,"Mon : Closed, Tues : Closed, Wed : Closed, Thur : Closed, Fri : Closed, Sat : Closed, Sun : Closed",,,1
Smoky Hill,1082,Smoky Hill Towne Center,20209 E. Smoky Hill Road,Centennial,CO,80015,US,303-996-0213,39.61197,-104.751452,"Mon : 11:00AM - 10:00PM, Tues : 11:00AM - 10:00PM, Wed : 11:00AM - 10:00PM, Thur : 11:00AM - 10:00PM, Fri : 11:00AM - 10:00PM, Sat : 11:00AM - 10:00PM, Sun : 11:00AM - 10:00PM",,,0
Highlands Ranch,1081,9559 S University Blvd #107,,Highlands Ranch,CO,80126,US,720-502-3200,39.542292,-104.946073,"Mon : 11:00AM - 10:00PM, Tues : 11:00AM - 10:00PM, Wed : 11:00AM - 10:00PM, Thur : 11:00AM - 10:00PM, Fri : 11:00AM - 10:00PM, Sat : 11:00AM - 10:00PM, Sun : 11:00AM - 10:00PM",,,0
Pepsi Center,1083,1000 Chopper Circle,,Denver,CO,80204,US,,39.751545363938, -105.00732421875,"Mon : 10:00AM - 10:00PM, Tues : 10:00AM - 10:00PM, Wed : 10:00AM - 10:00PM, Thur : 10:00AM - 10:00PM, Fri : 10:00AM - 10:00PM, Sat : 10:00AM - 10:00PM, Sun : 10:00AM - 10:00PM",,,0
Dick s Sporting Goods Park,1087,Dick s Sporting Goods Park,6000 Victory Way,Commerce City,CO,80022,US,,39.805674,-104.891082,,,,0
Jacksonville Beach,149,393 3rd Street North,,Jacksonville Beach,FL,32250,US,904-372-9634,30.2918,-81.3923,"Mon : 12:00PM - 10:00PM, Tues : 12:00PM - 10:00PM, Wed : 12:00PM - 10:00PM, Thur : 12:00PM - 10:00PM, Fri : 11:00AM - 11:00PM, Sat : 11:00AM - 11:00PM, Sun : 11:00AM - 11:00PM",,,0
Fosters Corner,660,515 N. Park Avenue,,Apopka,FL,32712,US,321-256-9111,28.686438,-81.509312,"Mon : 12:00PM - 9:00PM, Tues : 12:00PM - 9:00PM, Wed : 12:00PM - 9:00PM, Thur : 12:00PM - 9:00PM, Fri : 12:00PM - 10:00PM, Sat : 12:00PM - 10:00PM, Sun : 12:00PM - 9:00PM",,,0
Asheville,1053,5 Regent Park Boulevard,Unit #108,Asheville,NC,28806,US,,35.590407,-82.582032,"Mon : 12:00PM - 8:00PM, Tues : 12:00PM - 8:00PM, Wed : 12:00PM - 8:00PM, Thur : 12:00PM - 8:00PM, Fri : 12:00PM - 9:00PM, Sat : 12:00PM - 9:00PM, Sun : 12:00PM - 8:00PM",,,0
St. Augustine,344,380 A1a Beach Boulevard,,St. Augustine,FL,32080,US,904-461-0977,29.8562,-81.267,"Mon : 12:00PM - 9:00PM, Tues : 12:00PM - 9:00PM, Wed : 12:00PM - 9:00PM, Thur : 12:00PM - 9:00PM, Fri : 12:00PM - 10:00PM, Sat : 12:00PM - 10:00PM, Sun : 12:00PM - 9:00PM",,,0
Fort Myers,73,4666 S. Cleveland Avenue,,Fort Myers,FL,33907,US,239-275-7808,26.59327,-81.87225,"Mon : 11:30AM - 9:00PM, Tues : 11:30AM - 9:00PM, Wed : 11:30AM - 9:00PM, Thur : 11:30AM - 9:00PM, Fri : 11:30AM - 9:00PM, Sat : 11:30AM - 9:00PM, Sun : 11:30AM - 9:00PM",,,0
Conway,675,Goldenrod Marketplace,6017 Goldenrod Road,Orlando,FL,32822,US,407-382-1919,28.472718,-81.289838,"Mon : 12:00PM - 10:00PM, Tues : 12:00PM - 10:00PM, Wed : 12:00PM - 10:00PM, Thur : 12:00PM - 10:00PM, Fri : 12:00PM - 10:00PM, Sat : 12:00PM - 10:00PM, Sun : 12:00PM - 10:00PM",,,0
Gulf Coast Center,772,9902 Gulf Coast Main Street D#145,,Fort Myers,FL,33913,US,239-415-7482,26.485725,-81.78794,"Mon : 1:00PM - 9:00PM, Tues : 1:00PM - 9:00PM, Wed : 1:00PM - 9:00PM, Thur : 1:00PM - 9:00PM, Fri : 12:00PM - 10:00PM, Sat : 12:00PM - 10:00PM, Sun : 12:00PM - 9:00PM",,,0
COMING SOON: Chandler,1306,Artesian Marketplace,2975 E. Ocotillo Road,Chandler,AZ,85249,US,,33.247301699949,-111.78897857666,"Mon : 11:00AM - 9:00PM, Tues : 11:00AM - 9:00PM, Wed : 11:00AM - 9:00PM, Thur : 11:00AM - 9:00PM, Fri : 11:00AM - 10:00PM, Sat : 11:00AM - 10:00PM, Sun : 11:00AM - 10:00PM",,,1
Gilbert,945,1551 E. Elliot Road,Suite B-2,Gilbert,AZ,85234,US,480-926-0969,33.349951,-111.757033,"Mon : 12:00AM - 9:00PM, Tues : 12:00AM - 9:00PM, Wed : 12:00AM - 9:00PM, Thur : 12:00AM - 9:00PM, Fri : 12:00AM - 9:00PM, Sat : 12:00AM - 9:00PM, Sun : 12:00AM - 9:00PM",,,0
Tempe - Mill Avenue,880,Centerpoint Plaza,740 South Mill Avenue,Tempe,AZ,85281,US,480-389-3530,33.422365,-111.940282,"Mon : 12:00PM - 10:00PM, Tues : 12:00PM - 10:00PM, Wed : 12:00PM - 10:00PM, Thur : 12:00PM - 10:00PM, Fri : 12:00PM - 11:00PM, Sat : 12:00PM - 11:00PM, Sun : 12:00PM - 10:00PM",,,0
Arcadia Towne Center,858,4730 E. Indian School Road,Suite 113,Phoenix,AZ,85018,US,602-441-3138,33.495092,-111.979743,"Mon : 12:00PM - 9:00PM, Tues : 12:00PM - 9:00PM, Wed : 12:00PM - 9:00PM, Thur : 12:00PM - 9:00PM, Fri : 12:00PM - 10:00PM, Sat : 12:00PM - 10:00PM, Sun : 12:00PM - 9:00PM",,,0
Tatum Point,892,Tatum Point Shopping Center,4727 E. Bell Road,Phoenix,AZ,85032,US,602-761-5637,33.638211,-111.978317,"Mon : 12:00PM - 10:00PM, Tues : 12:00PM - 10:00PM, Wed : 12:00PM - 10:00PM, Thur : 12:00PM - 10:00PM, Fri : 12:00PM - 10:00PM, Sat : 12:00PM - 10:00PM, Sun : 12:00PM - 10:00PM",,,0
Glendale Foothills,934,5940 C W. Union Hills Drive,,Glendale,AZ,85308,US,623-866-9676,33.654581,-112.188581,"Mon : 12:00PM - 10:00PM, Tues : 12:00PM - 10:00PM, Wed : 12:00PM - 10:00PM, Thur : 12:00PM - 10:00PM, Fri : 12:00PM - 10:00PM, Sat : 12:00PM - 10:00PM, Sun : 12:00PM - 10:00PM",,,0
Cardinals Stadium,1161,University of Phoenix Stadium,1 Cardinals Drive,Glendale,AZ,85305,US,,33.527569,-112.26226,"Mon : 10:00AM - 10:00PM, Tues : 10:00AM - 10:00PM, Wed : 10:00AM - 10:00PM, Thur : 10:00AM - 10:00PM, Fri : 10:00AM - 10:00PM, Sat : 10:00AM - 10:00PM, Sun : 10:00AM - 10:00PM",,,0
Arrowhead,850,Union Hills South Shopping Center,8251 W. Union Hills Drive,Glendale,AZ,85308,US,602-909-8566,33.652057,-112.233517,"Mon : 12:00PM - 10:00PM, Tues : 12:00PM - 10:00PM, Wed : 12:00PM - 10:00PM, Thur : 12:00PM - 10:00PM, Fri : 12:00PM - 10:00PM, Sat : 12:00PM - 10:00PM, Sun : 12:00PM - 10:00PM",,,0
Surprise,869,13864 West Bell Road,Suite 101,Surprise,AZ,85374,US,623-584-0712,33.639394,-112.358491,"Mon : 11:00AM - 10:00PM, Tues : 11:00AM - 10:00PM, Wed : 11:00AM - 10:00PM, Thur : 11:00AM - 10:00PM, Fri : 11:00AM - 10:00PM, Sat : 11:00AM - 10:00PM, Sun : 11:00AM - 10:00PM",,,0
Naples Plaza,836,2045 Tamiami Trail North,,Naples,FL,34102,US,239-41-RITAS,26.172105,-81.800761,"Mon : 11:00AM - 9:00PM, Tues : 11:00AM - 9:00PM, Wed : 11:00AM - 9:00PM, Thur : 11:00AM - 9:00PM, Fri : 11:00AM - 10:00PM, Sat : 11:00AM - 10:00PM, Sun : 11:00AM - 9:00PM",,,0
Walmart Port Orange,1255,1590 Dunlawton Avenue,,Port Orange,FL,32127,US,,29.117524648461,-81.019878387451,"Mon : 10:00AM - 10:00PM, Tues : 10:00AM - 10:00PM, Wed : 10:00AM - 10:00PM, Thur : 10:00AM - 10:00PM, Fri : 10:00AM - 10:00PM, Sat : 10:00AM - 10:00PM, Sun : 10:00AM - 10:00PM",,,0
Fishers,1212,8910 E. 96th Street,,Fishers,IN,46037,US,317-598-5111,39.926851704431,-86.011619567871,"Mon : 12:00PM - 10:00PM, Tues : 12:00PM - 10:00PM, Wed : 12:00PM - 10:00PM, Thur : 12:00PM - 10:00PM, Fri : 12:00PM - 10:00PM, Sat : 12:00PM - 10:00PM, Sun : 12:00PM - 10:00PM",,,0
Hilton Head,26,Rita s Coligny Plaza,,Hilton Head,SC,29928,US,843-686-2596,32.1431,-80.7508,"Mon : 10:30AM - 10:00PM, Tues : 10:30AM - 11:00PM, Wed : 10:30AM - 10:00PM, Thur : 10:30AM - 10:00PM, Fri : 10:30AM - 10:00PM, Sat : 10:30AM - 10:00PM, Sun : 11:00AM - 10:00PM",,,0
Ritas in the Vista,940,800 Lady Street,,Columbia,SC,29201,US,803-200-3639,34.000429,-81.040335,"Mon : 12:00PM - 10:00PM, Tues : 12:00PM - 10:00PM, Wed : 12:00PM - 10:00PM, Thur : 12:00PM - 10:00PM, Fri : 12:00PM - 10:00PM, Sat : 12:00PM - 10:00PM, Sun : 12:00PM - 9:00PM",,,0
COMING SOON: Melbourne,1133,620 W. New Haven Avenue,,Melbourne,FL,32901,US,,28.078985405244,-80.630818605423,"Mon : Closed, Tues : Closed, Wed : Closed, Thur : Closed, Fri : Closed, Sat : Closed, Sun : Closed",,,1
Village at Sandhill,601,Village at Sandhill,130-14 Forum Drive,Columbia,SC,29229,US,803-708-6006,34.133249,-80.880294,"Mon : 12:00PM - 10:00PM, Tues : 12:00PM - 10:00PM, Wed : 12:00PM - 10:00PM, Thur : 12:00PM - 10:00PM, Fri : 12:00PM - 11:00PM, Sat : 12:00PM - 11:00PM, Sun : 12:00PM - 10:00PM",,,0
Carowinds,626,Carowinds Amusement Park,14523 Carowinds Blvd.,Charlotte,NC,28273,US,,35.10297,-80.943907,"Mon : Closed, Tues : Closed, Wed : Closed, Thur : Closed, Fri : Closed, Sat : 11:00AM - 10:00PM, Sun : 11:00AM - 8:00PM",,,0
Vero Beach,142,Mall Center,1355 U.S. Highway 1,Vero Beach,FL,32960,US,772-770-0100,27.625875,-80.390342,"Mon : 12:00PM - 10:00PM, Tues : 12:00PM - 10:00PM, Wed : 12:00PM - 10:00PM, Thur : 12:00PM - 10:00PM, Fri : 12:00PM - 10:00PM, Sat : 12:00PM - 10:00PM, Sun : 1:00PM - 9:00PM",,,0
Ballantyne,711,16631 Lancaster Highway,Suite 106,Charlotte,NC,28277,US,704-542-2258,35.02334,-80.848566,"Mon : 12:00PM - 10:00PM, Tues : 12:00PM - 10:00PM, Wed : 12:00PM - 10:00PM, Thur : 12:00PM - 10:00PM, Fri : 12:00PM - 10:00PM, Sat : 12:00PM - 10:00PM, Sun : 12:00PM - 10:00PM",,,0
Plaza Midwood,849,1308-A The Plaza,,Charlotte,NC,28205,US,704-526-0492,35.22064,-80.81014,"Mon : 12:00PM - 10:00PM, Tues : 12:00PM - 10:00PM, Wed : 12:00PM - 10:00PM, Thur : 12:00PM - 10:00PM, Fri : 12:00PM - 10:00PM, Sat : 12:00PM - 10:00PM, Sun : 12:00PM - 10:00PM",,,0
N. Charleston,670,4958 Centre Pointe Drive,Suite 102,N. Charleston,SC,29418,US,843-261-7482,32.873,-80.0216,"Mon : 12:00PM - 8:00PM, Tues : 12:00PM - 8:00PM, Wed : 12:00PM - 8:00PM, Thur : 12:00PM - 8:00PM, Fri : 12:00PM - 9:00PM, Sat : 12:00PM - 9:00PM, Sun : 12:00PM - 8:00PM",,,0
COMING SOON: Burbank IL,1234,Burbank Plaza,4841 W. 79th Street,Burbank,IL,60459,US,,41.749095199757,-87.742738723755,"Mon : Closed, Tues : Closed, Wed : Closed, Thur : Closed, Fri : Closed, Sat : Closed, Sun : Closed",,,1
The Arbors,681,The Arbors In Charlotte,2015 East Arbors Drive Suite 260,Charlotte,NC,28262,US,704-971-5319,35.337041,-80.756475,"Mon : 12:00PM - 10:00PM, Tues : 12:00PM - 10:00PM, Wed : 12:00PM - 10:00PM, Thur : 12:00PM - 10:00PM, Fri : 12:00PM - 10:00PM, Sat : 12:00PM - 10:00PM, Sun : 12:00PM - 10:00PM",,,0
Kettering,473,3371 East Stroop Road,,Kettering,OH,45440,US,937-296-0822,39.696681,-84.106725,"Mon : 12:00PM - 10:00PM, Tues : 12:00PM - 10:00PM, Wed : 12:00PM - 10:00PM, Thur : 12:00PM - 10:00PM, Fri : 12:00PM - 10:00PM, Sat : 12:00PM - 10:00PM, Sun : 12:00PM - 10:00PM",,,0
Southern Palm Crossing,585,Southern Palm Crossing,11071 Southern Blvd Suite 130,Royal Palm Beach,FL,33411,US,561-795-4333,26.68154,-80.22107,"Mon : 12:00PM - 10:00PM, Tues : 12:00PM - 10:00PM, Wed : 12:00PM - 10:00PM, Thur : 12:00PM - 10:00PM, Fri : 12:00PM - 11:00PM, Sat : 12:00PM - 11:00PM, Sun : 12:00PM - 10:00PM",,,0
West Palm Beach,835,460 South Rosemary Avenue,Suite 172,West Palm Beach,FL,33401,US,561-623-0774,26.7112,-80.0604,"Mon : 12:00PM - 11:00PM, Tues : 12:00PM - 11:00PM, Wed : 12:00PM - 11:00PM, Thur : 12:00PM - 11:00PM, Fri : 11:00AM - 12:00AM, Sat : 11:00AM - 12:00AM, Sun : 12:00PM - 11:00PM",,,0
Florence,628,Huntington Plaza,804 Second Loop Road,Florence,SC,29505,US,,34.167475,-79.777871,"Mon : 12:00PM - 10:00PM, Tues : 12:00PM - 10:00PM, Wed : 12:00PM - 10:00PM, Thur : 12:00PM - 10:00PM, Fri : 12:00PM - 10:00PM, Sat : 12:00PM - 10:00PM, Sun : 12:00PM - 10:00PM",,,0
Henderson Road,127,2116 W. Henderson Road,,Columbus,OH,43220,US,614-457-7290,40.0572,-83.0752,"Mon : 11:00AM - 10:00PM, Tues : 11:00AM - 10:00PM, Wed : 11:00AM - 10:00PM, Thur : 11:00AM - 10:00PM, Fri : 11:00AM - 10:00PM, Sat : 11:00AM - 10:00PM, Sun : 11:00AM - 10:00PM",,,0
Powell,633,50 S. Liberty Street,Suite 150,Powell,OH,43065,US,614-505-7482,40.157929,-83.075534,"Mon : 11:00AM - 10:00PM, Tues : 11:00AM - 10:00PM, Wed : 11:00AM - 10:00PM, Thur : 11:00AM - 10:00PM, Fri : 11:00AM - 10:00PM, Sat : 11:00AM - 10:00PM, Sun : 11:00AM - 10:00PM",,,0
Gahanna,355,200 Granville Street,,Gahanna,OH,43230,US,614-476-2568,40.0189,-82.8753,"Mon : 12:00PM - 10:00PM, Tues : 12:00PM - 10:00PM, Wed : 12:00PM - 10:00PM, Thur : 12:00PM - 10:00PM, Fri : 12:00PM - 10:00PM, Sat : 12:00PM - 10:00PM, Sun : 12:00PM - 10:00PM",,,0
Culver City,1048,Culver Crossroads Shopping Center,4114 Sepulveda Boulevard,Culver City,CA,90230,US,310-730-6041,34.007042,-118.412607,"Mon : 12:00PM - 10:00PM, Tues : 12:00PM - 10:00PM, Wed : 12:00PM - 10:00PM, Thur : 12:00PM - 10:00PM, Fri : 12:00PM - 10:00PM, Sat : 12:00PM - 10:00PM, Sun : 12:00PM - 10:00PM",,,0
North Hollywood,1031,4821 Lankershim Blvd.,Unit G,North Hollywood,CA,91601,US,818-853-7600,34.158161,-118.371058,"Mon : 12:00PM - 10:00PM, Tues : 12:00PM - 10:00PM, Wed : 12:00PM - 10:00PM, Thur : 12:00PM - 10:00PM, Fri : 12:00PM - 10:00PM, Sat : 12:00PM - 10:00PM, Sun : 12:00PM - 10:00PM",,,0
West LA,1065,11073 West Pico Boulevard,,Los Angeles,CA,90064,US,310-445-3939,34.037507,-118.434842,"Mon : 12:00PM - 10:00PM, Tues : 12:00PM - 10:00PM, Wed : 12:00PM - 10:00PM, Thur : 12:00PM - 10:00PM, Fri : 12:00PM - 10:00PM, Sat : 12:00PM - 10:00PM, Sun : 12:00PM - 10:00PM",,,0
COMING SOON: Norwalk,1245,15616 Pioneer Blvd,,Norwalk,CA,90650,US,,33.889344,-118.082155,"Mon : 10:00AM - 10:00PM, Tues : 10:00AM - 10:00PM, Wed : 10:00AM - 10:00PM, Thur : 10:00AM - 10:00PM, Fri : 10:00AM - 10:00PM, Sat : 10:00AM - 10:00PM, Sun : 10:00AM - 10:00PM",,,1
Redondo Beach,895,Redondo Shores Shopping Center,403 N. Pacific Coast Highway,Redondo Beach,CA,90277,US,424-383-1059,33.847201,-118.388967,"Mon : 12:00PM - 10:00PM, Tues : 12:00PM - 10:00PM, Wed : 12:00PM - 10:00PM, Thur : 12:00PM - 10:00PM, Fri : 12:00PM - 10:00PM, Sat : 12:00PM - 10:00PM, Sun : 12:00PM - 10:00PM",,,0
Brea,1119,649 Imperial Highway,Suite J,Brea,CA,92821,US,714-784-6786,33.917549,-117.907125,"Mon : 12:00PM - 9:00PM, Tues : 12:00PM - 9:00PM, Wed : 12:00PM - 9:00PM, Thur : 12:00PM - 9:00PM, Fri : 12:00PM - 9:00PM, Sat : 12:00PM - 9:00PM, Sun : 12:00PM - 9:00PM",,,0
Glendora,1091,865 W. Route 66,,Glendora,CA,91740,US,626-335-6318,34.129165,-117.881138,"Mon : 12:00PM - 10:00PM, Tues : 12:00PM - 10:00PM, Wed : 12:00PM - 10:00PM, Thur : 12:00PM - 10:00PM, Fri : 12:00PM - 10:00PM, Sat : 12:00PM - 10:00PM, Sun : 12:00PM - 10:00PM",,,0
Northridge,1099,Northridge Grove Shopping Center,9002 Tampa Avenue,Northridge,CA,91324,US,,34.23365,-118.553164,"Mon : 12:00PM - 10:00PM, Tues : 12:00PM - 10:00PM, Wed : 12:00PM - 10:00PM, Thur : 12:00PM - 10:00PM, Fri : 12:00PM - 10:00PM, Sat : 12:00PM - 10:00PM, Sun : 12:00PM - 10:00PM",,,0
Ball Euclid,1033,937B South Euclid Street,,Anaheim,CA,92802,US,714-747-0671,33.81888,-117.942492,"Mon : 12:00PM - 9:00PM, Tues : 12:00PM - 9:00PM, Wed : 12:00PM - 9:00PM, Thur : 12:00PM - 9:00PM, Fri : 12:00PM - 10:00PM, Sat : 12:00PM - 10:00PM, Sun : 12:00PM - 9:00PM",,,0
Raging Waters San Dimas,1069,111 Lakeside Road,,San Dimas,CA,91773,US,,34.093882,-117.810176,"Mon : Closed, Tues : Closed, Wed : Closed, Thur : Closed, Fri : Closed, Sat : Closed, Sun : Closed",,,0
Huntington Harbour Mall,904,Huntington Harbour Mall,16917 Algonquin Street,Huntington Beach,CA,92649,US,714-840-1092,33.716522,-118.050806,"Mon : 12:00PM - 10:00PM, Tues : 12:00PM - 10:00PM, Wed : 12:00PM - 10:00PM, Thur : 12:00PM - 10:00PM, Fri : 12:00PM - 10:00PM, Sat : 12:00PM - 10:00PM, Sun : 12:00PM - 10:00PM",,,0
Anaheim Hills,1034,Crossroads Shopping Center,5556 East Santa Ana Canyon Road,Anaheim,CA,92807,US,714-305-0098,33.850805,-117.793018,"Mon : 12:00PM - 10:00PM, Tues : 12:00PM - 10:00PM, Wed : 12:00PM - 10:00PM, Thur : 12:00PM - 10:00PM, Fri : 12:00PM - 10:00PM, Sat : 12:00PM - 10:00PM, Sun : 12:00PM - 10:00PM",,,0
Stevenson Ranch,1028,25802 W. Hemingway Avenue,,Stevenson Ranch,CA,91381,US,661-714-6841,34.387071,-118.580793,"Mon : 12:00PM - 9:00PM, Tues : 12:00PM - 9:00PM, Wed : 12:00PM - 9:00PM, Thur : 12:00PM - 9:00PM, Fri : 12:00PM - 9:00PM, Sat : 12:00PM - 9:00PM, Sun : 12:00PM - 9:00PM",,,0
Santa Clarita,905,26773 Bouquet Canyon Road,,Santa Clarita,CA,91350,US,661-414-3734,34.433217,-118.532143,"Mon : 12:00PM - 10:00PM, Tues : 12:00PM - 10:00PM, Wed : 12:00PM - 10:00PM, Thur : 12:00PM - 10:00PM, Fri : 12:00PM - 10:00PM, Sat : 12:00PM - 10:00PM, Sun : 12:00PM - 10:00PM",,,0
Northpark Plaza,1021,Northpark Plaza,3905 Irvine Blvd.,Irvine,CA,92602,US,714-544-RITA (7482),33.722969,-117.772391,"Mon : 12:00PM - 9:00PM, Tues : 12:00PM - 9:00PM, Wed : 12:00PM - 9:00PM, Thur : 12:00PM - 9:00PM, Fri : 12:00PM - 10:00PM, Sat : 12:00PM - 10:00PM, Sun : 12:00PM - 9:00PM",,,0
Newport Beach,902,2233 W. Balboa Blvd.,Suite 101,Newport Beach,CA,92663,US,949-287-6000 ,33.609882,-117.929057,"Mon : 12:00PM - 9:00PM, Tues : 12:00PM - 9:00PM, Wed : 12:00PM - 9:00PM, Thur : 12:00PM - 9:00PM, Fri : 12:00PM - 9:00PM, Sat : 12:00PM - 9:00PM, Sun : 12:00PM - 9:00PM",,,0
Newbury Park,1071,Chevron ExtraMile,2290 Borchard Road,Newbury Park,CA,91320,US,805-499-1072,34.182009,-118.926774,"Mon : 12:00PM - 10:00PM, Tues : 12:00PM - 10:00PM, Wed : 12:00PM - 10:00PM, Thur : 12:00PM - 10:00PM, Fri : 11:00AM - 10:00PM, Sat : 11:00AM - 10:00PM, Sun : 11:00AM - 10:00PM",,,0
Laguna Hills,1020,Village at Nellie Gail Ranch Shopping Center,26538 A Moulton Parkway,Laguna Hills,CA,92653,US,949-831-7482,33.577762,-117.700943,"Mon : 12:00PM - 9:00PM, Tues : 12:00PM - 9:00PM, Wed : 12:00PM - 9:00PM, Thur : 12:00PM - 9:00PM, Fri : 12:00PM - 10:00PM, Sat : 12:00PM - 10:00PM, Sun : 12:00PM - 9:00PM",,,0
Dana Point,1040,Lantern Bay Village,24845 Del Prado,Dana Point ,CA,92629,US,949-443-2423,33.466707,-117.696651,"Mon : 12:00PM - 9:00PM, Tues : 12:00PM - 9:00PM, Wed : 12:00PM - 9:00PM, Thur : 12:00PM - 9:00PM, Fri : 12:00PM - 10:00PM, Sat : 12:00PM - 10:00PM, Sun : 12:00PM - 9:00PM",,,0
Murrieta,952,Plaza De Oro,23811 Washington Avenue,Murrieta,CA,92562,US,951-240-5526,33.570731,-117.233426,"Mon : 11:00AM - 9:00PM, Tues : 11:00AM - 9:00PM, Wed : 11:00AM - 9:00PM, Thur : 11:00AM - 9:00PM, Fri : 11:00AM - 10:00PM, Sat : 11:00AM - 10:00PM, Sun : 11:00AM - 9:00PM",,,0
Felicita,995,Felicita Town Center,1875 South Centre City Parkway,Escondido,CA,92025,US,760-975-3302,33.100433,-117.074904,"Mon : 11:00PM - 9:00PM, Tues : 11:00PM - 9:00PM, Wed : 11:00PM - 9:00PM, Thur : 11:00PM - 9:00PM, Fri : 11:00PM - 9:00PM, Sat : 11:00PM - 9:00PM, Sun : 11:00PM - 9:00PM",,,0
Rancho Penasquitos,993,Rancho Penasquitos Towne Center,13293 Black Mountain Road,San Diego,CA,92129,US,858-365-7648,32.95893,-117.124907,"Mon : 1:00PM - 9:00PM, Tues : 1:00PM - 9:00PM, Wed : 1:00PM - 9:00PM, Thur : 1:00PM - 9:00PM, Fri : 12:00PM - 10:00PM, Sat : 12:00PM - 10:00PM, Sun : 1:00PM - 9:00PM",,,0
Scripps Ranch,990,Scripps Ranch Marketplace,10585 Scripps Poway Parkway,San Diego,CA,92131,US,858-693-4903,32.935529,-117.096866,"Mon : 12:00PM - 10:00PM, Tues : 12:00PM - 10:00PM, Wed : 12:00PM - 10:00PM, Thur : 12:00PM - 10:00PM, Fri : 12:00PM - 10:00PM, Sat : 11:00AM - 10:00PM, Sun : 12:00PM - 10:00PM",,,0
Mission Hills,999,Mission Hills Commons,768 West Washington Street,San Diego,CA,92103,US,619-795-9086,32.750053,-117.169723,,,,0
Santee,992,Mission Creek Shopping Center,9490 Cuyamaca Street,Santee,CA,92071,US,619-631-7901,32.848069,-116.983865,"Mon : 10:00AM - 10:00PM, Tues : 10:00AM - 10:00PM, Wed : 10:00AM - 10:00PM, Thur : 10:00AM - 10:00PM, Fri : 10:00AM - 10:00PM, Sat : 10:00AM - 10:00PM, Sun : 10:00AM - 10:00PM",,,0
Del Cerro,998,Del Cerro Shopping Center,6366 Del Cerro Boulevard,San Diego,CA,92120,US,619-255-3671,32.783994,-117.060252,"Mon : 10:00AM - 10:00PM, Tues : 10:00AM - 10:00PM, Wed : 10:00AM - 10:00PM, Thur : 10:00AM - 10:00PM, Fri : 10:00AM - 10:00PM, Sat : 10:00AM - 10:00PM, Sun : 10:00AM - 10:00PM",,,0
Bonita,986,Bonita Point Plaza,1463 East H Street,Chula Vista,CA,91910,US,619-307-3743,32.644312,-117.001455,"Mon : 1:00PM - 9:00PM, Tues : 1:00PM - 9:00PM, Wed : 1:00PM - 9:00PM, Thur : 1:00PM - 9:00PM, Fri : 12:00AM - 10:00PM, Sat : 12:00AM - 10:00PM, Sun : 1:00PM - 9:00PM",,,0
Visalia,1246,Rancho Viejo Shopping Center,5221 West Walnut Avenue,Visalia,CA,93277,US,,36.311252093338,-119.34825897217,"Mon : 11:00AM - 10:00PM, Tues : 11:00AM - 10:00PM, Wed : 11:00AM - 10:00PM, Thur : 11:00AM - 10:00PM, Fri : 11:00AM - 11:00PM, Sat : 11:00AM - 11:00PM, Sun : 11:00AM - 10:00PM",,,0
Clovis,1141,Sierra Pavilions Shopping Center,1195 Shaw Avenue,Clovis,CA,93612,US,559-940-7616,36.809146,-119.693839,"Mon : 11:00AM - 10:00PM, Tues : 11:00AM - 10:00PM, Wed : 11:00AM - 10:00PM, Thur : 11:00AM - 10:00PM, Fri : 11:00AM - 11:00PM, Sat : 11:00AM - 11:00PM, Sun : 11:00AM - 10:00PM",,,0
COMING SOON: Manchester Center,1228,Manchester Center,3520 N. Blackstone Avenue Suite P104,Fresno,CA,93726,US,,36.781242220064,-119.79011535645,"Mon : Closed, Tues : Closed, Wed : Closed, Thur : Closed, Fri : Closed, Sat : Closed, Sun : Closed",,,1
COMING SOON: Xpressmart,1299,5790 N Fresno Street,,Fresno,CA,93710,US,,36.822752439769, -119.78084564208983,,,,1
Fresno,1227,1102 E. Champlain Drive,Suite 108,Fresno,CA,93720,US,559-353-2175,36.870832155646,-119.76333618164,"Mon : 11:30AM - 10:00PM, Tues : 11:30AM - 10:00PM, Wed : 11:30AM - 10:00PM, Thur : 11:30AM - 10:00PM, Fri : 11:30AM - 10:00PM, Sat : 11:30AM - 10:00PM, Sun : 11:30AM - 10:00PM",,,0
Spring Valley,910,5415 S. Rainbow Boulevard,,Spring Valley,NV,89118,US,702-462-6210,36.090476,-115.243259,"Mon : 12:00PM - 9:00PM, Tues : 12:00PM - 9:00PM, Wed : 12:00PM - 9:00PM, Thur : 12:00PM - 9:00PM, Fri : 12:00PM - 10:00PM, Sat : 12:00PM - 10:00PM, Sun : 12:00PM - 9:00PM",,,0
Las Vegas,877,2192 N. Rainbow Blvd.,,Las Vegas,NV,89108,US,702-675-4424,36.199329,-115.241845,"Mon : 12:00PM - 9:00PM, Tues : 12:00PM - 9:00PM, Wed : 12:00PM - 9:00PM, Thur : 12:00PM - 9:00PM, Fri : 12:00PM - 9:00PM, Sat : 12:00PM - 9:00PM, Sun : 12:00PM - 9:00PM",,,0
Green Valley,870,Whitney Ranch Shopping Center,693 N. Stephanie Street,Henderson,NV,89014,US,702-405-8192,36.066611,-115.047777,"Mon : 12:00PM - 9:00PM, Tues : 12:00PM - 9:00PM, Wed : 12:00PM - 9:00PM, Thur : 12:00PM - 9:00PM, Fri : 12:00PM - 9:00PM, Sat : 12:00PM - 9:00PM, Sun : 12:00PM - 9:00PM",,,0
COMING SOON: Los Banos,1317,107 W. Pacheco Blvd.,,Los Banos,CA,93635,US,,37.05641005452,-120.85544586182,,,,1
Salinas,1138,1182 South Main Street,,Salinas,CA,93901,US,831-240-4654,36.65849,-121.660299,"Mon : 12:00PM - 9:00PM, Tues : 12:00PM - 9:00PM, Wed : 12:00PM - 9:00PM, Thur : 12:00PM - 9:00PM, Fri : 12:00PM - 10:00PM, Sat : 12:00PM - 10:00PM, Sun : 12:00PM - 9:00PM",,,0
Atwater,1165,Five Corner Crossings Shopping Center,2830 Shaffer Rd,Atwater,CA,95301,US,209-812-6522,37.362039481517,-120.59537887573,"Mon : 11:30AM - 9:30PM, Tues : 11:30AM - 9:30PM, Wed : 11:30AM - 9:30PM, Thur : 11:30AM - 9:30PM, Fri : 11:30AM - 10:30PM, Sat : 11:30AM - 10:30PM, Sun : 11:30AM - 9:30PM",,,0
COMING SOON: Turlock,1167,Monte Vista Crossings,2749 Countryside Drive,Turlock,CA,95380,US,,37.516534051716,-120.87982177734,,,,1
Ceres,1166,Ceres Valley Marketplace,1515 Mitchell Road Suite 6,Ceres,CA,95307,US,,37.609064014462,-120.93870162964,"Mon : 12:00PM - 9:00PM, Tues : 12:00PM - 9:00PM, Wed : 12:00PM - 9:00PM, Thur : 12:00PM - 9:00PM, Fri : 12:00PM - 10:00PM, Sat : 12:00PM - 10:00PM, Sun : 12:00PM - 9:00PM",,,0
Modesto,1164,Safeway Shopping Center,2001 McHenry Avenue,Modesto,CA,95350,US,209-569-5295 ,37.670828,-120.99564,"Mon : 11:30AM - 9:30PM, Tues : 11:30AM - 9:30PM, Wed : 11:30AM - 9:30PM, Thur : 11:30AM - 9:30PM, Fri : 11:30AM - 10:30PM, Sat : 11:30AM - 10:30PM, Sun : 11:30AM - 9:30PM",,,0
Scotts Valley,1093,King s Village Shopping Center,222-K Mount Hermon Road,Scotts Valley,CA,95066,US,831-431-8528,37.047437,-122.027191,"Mon : 11:00AM - 9:00PM, Tues : 11:00AM - 9:00PM, Wed : 11:00AM - 9:00PM, Thur : 11:00AM - 9:00PM, Fri : 11:00AM - 10:00PM, Sat : 11:00AM - 10:00PM, Sun : 11:00AM - 9:00PM",,,0
Santa Teresa Blvd,1137,Santa Teresa Square,5892 Santa Teresa Blvd,San Jose,CA,95123,US,,37.237181,-121.832395,"Mon : 11:00AM - 11:00PM, Tues : 11:00AM - 11:00PM, Wed : 11:00AM - 11:00PM, Thur : 11:00AM - 11:00PM, Fri : 11:00AM - 12:00AM, Sat : 11:00AM - 12:00AM, Sun : 11:00AM - 11:00PM",,,0
Campbell,1226,475 E. Campbell Avenue,,Campbell,CA,95008,US,669-333-2115,37.287165187939,-121.94137573242,"Mon : 12:00PM - 10:00PM, Tues : 12:00PM - 10:00PM, Wed : 12:00PM - 10:00PM, Thur : 12:00PM - 10:00PM, Fri : 12:00PM - 10:00PM, Sat : 11:00PM - 10:00PM, Sun : 11:00PM - 10:00PM",,,0
SAP Center,1209,525 W. Santa Clara Street,,San Jose,CA,95113,US,,37.332865,-121.901037,,,,0
Manteca,1142,1448 Hulsey Road,,Manteca,CA,95336,US,209-222-3989,37.796457,-121.192829,"Mon : 11:00AM - 10:00PM, Tues : 11:00AM - 10:00PM, Wed : 11:00AM - 10:00PM, Thur : 11:00AM - 10:00PM, Fri : 11:00AM - 11:00PM, Sat : 11:00AM - 11:00PM, Sun : 11:00AM - 10:00PM",,,0
COMING SOON: Lathrop,1294,16608 South Harlan Road,,Lathrop,CA,95330,US,,37.809512710254,-121.29112243652,,,,1
COMING SOON: Fremont,1328,39006 Paseo Padre Parkway,,Fremont,CA,94538,US,,37.55247109622,-121.97776794434,,,,1
Pleasanton,1219,320 St. Mary Street,,Pleasanton,CA,94566,US,,37.661809012125,-121.87545776367,"Mon : 12:00PM - 10:00PM, Tues : 12:00PM - 10:00PM, Wed : 12:00PM - 10:00PM, Thur : 12:00PM - 10:00PM, Fri : 12:00PM - 10:00PM, Sat : 12:00PM - 10:00PM, Sun : 12:00PM - 10:00PM",,,0
Stockton,1143,2829 West March Lane,Suite C-4,Stockton,CA,95219,US,209-222-3532,37.984699,-121.347101,"Mon : 11:00AM - 10:00PM, Tues : 11:00AM - 10:00PM, Wed : 11:00AM - 10:00PM, Thur : 11:00AM - 10:00PM, Fri : 11:00AM - 11:00PM, Sat : 11:00AM - 11:00PM, Sun : 11:00AM - 10:00PM",,,0
COMING SOON: San Francisco Premium Outlets,21219,2774 Livermore Outlets Drive,,Livermore,CA,94551,US,,37.699441679696,-121.84490203857,,,,1
Hayward,1089,University Plaza Shopping Plaza,26775 Hayward Blvd.,Hayward,CA,94542,US,510-342-5139,37.655478,-122.04888,"Mon : 12:00PM - 10:00PM, Tues : 12:00PM - 10:00PM, Wed : 12:00PM - 10:00PM, Thur : 12:00PM - 10:00PM, Fri : 12:00PM - 10:00PM, Sat : 12:00PM - 10:00PM, Sun : 12:00PM - 10:00PM",,,0
San Carlos,1130,740 El Camino Real,,San Carlos,CA,94070,US,650-596-5144,37.505194,-122.258308,"Mon : 12:00PM - 9:00PM, Tues : 12:00PM - 9:00PM, Wed : 12:00PM - 9:00PM, Thur : 12:00PM - 9:00PM, Fri : 12:00PM - 10:00PM, Sat : 12:00PM - 10:00PM, Sun : 12:00PM - 9:00PM",,,0
Brentwood,1139,Balfour Village Center,3150 Balfour Road Suite A,Brentwood,CA,94513,US,925-567-4980,37.924971895878,-121.72285079956,"Mon : 12:00PM - 10:00PM, Tues : 12:00PM - 10:00PM, Wed : 12:00PM - 10:00PM, Thur : 12:00PM - 10:00PM, Fri : 12:00PM - 10:00PM, Sat : 12:00PM - 10:00PM, Sun : 12:00PM - 10:00PM",,,0
Castro Valley,863,3200 Castro Valley Blvd.,,Castro Valley ,CA,94546,US,510-876-5217,37.695719,-122.079713,"Mon : 12:00PM - 10:00PM, Tues : 12:00PM - 10:00PM, Wed : 12:00PM - 10:00PM, Thur : 12:00PM - 10:00PM, Fri : 12:00PM - 10:00PM, Sat : 12:00PM - 10:00PM, Sun : 12:00PM - 10:00PM",,,0
COMING SOON: Galt,1323,Galt Plaza Shopping Center,1067 C Street,Galt,CA,95632,US,,38.253818776357,-121.29455566406,"Mon : 10:00AM - 10:00PM, Tues : 10:00AM - 10:00PM, Wed : 10:00AM - 10:00PM, Thur : 10:00AM - 10:00PM, Fri : 10:00AM - 10:00PM, Sat : 10:00AM - 10:00PM, Sun : 10:00AM - 10:00PM",,,1
COMING SOON: Alameda,1302,Alameda South Shore Center,2330 South Shore Center West,Alameda,CA,94501,US,,37.758365657584,-122.25294113159,,,,1
Waterworld,1261,1950 Waterworld Parkway,,Concord,CA,94520,US,,37.97356775987,-122.05141067505,"Mon : 10:00AM - 10:00PM, Tues : 10:00AM - 10:00PM, Wed : 10:00AM - 10:00PM, Thur : 10:00AM - 10:00PM, Fri : 10:00AM - 10:00PM, Sat : 10:00AM - 10:00PM, Sun : 10:00AM - 10:00PM",,,0
Elk Grove CA,1249,8519 Bond Road Suite 102,,Elk Grove,CA,95624,US,916-647-9605,38.42481493042,-121.38793945312,"Mon : 11:30AM - 10:00PM, Tues : 11:30AM - 10:00PM, Wed : 11:30AM - 10:00PM, Thur : 11:30AM - 10:00PM, Fri : 11:30AM - 10:00PM, Sat : 11:30AM - 10:00PM, Sun : 11:30AM - 10:00PM",,,0
Folsom CA,1078,1177 Riley Street,,Folsom,CA,95630,US,916-597-2752,38.670881,-121.163145,"Mon : 12:00PM - 10:00PM, Tues : 12:00PM - 10:00PM, Wed : 12:00PM - 10:00PM, Thur : 12:00PM - 10:00PM, Fri : 12:00PM - 10:00PM, Sat : 12:00PM - 10:00PM, Sun : 12:00PM - 10:00PM",,,0
Raging Waters Sacramento,1262,1600 Exposition Boulevard,,Sacramento,CA,95815,US,,38.593260519872,-121.43600463867,,,,0
COMING SOON: Arden-Arcade,1192,2654 Marconi Avenue,,Sacramento,CA,95821,US,,38.61713871411,-121.39978408813,"Mon : Closed, Tues : Closed, Wed : Closed, Thur : Closed, Fri : Closed, Sat : Closed, Sun : Closed",,,1
Vacaville,1097,951 Alamo Drive,,Vacaville,CA,95687,US,707-317-1066,38.344213,-121.994754,"Mon : 12:00PM - 9:00PM, Tues : 12:00PM - 9:00PM, Wed : 12:00PM - 9:00PM, Thur : 12:00PM - 9:00PM, Fri : 12:00PM - 10:00PM, Sat : 12:00PM - 10:00PM, Sun : 12:00PM - 9:00PM",,,0
Roseville,1073,Sunrise Pointe Shopping Center,960 Sunrise Blvd. Suite 105,Roseville,CA,95661,US,916-367-4963,38.730116812652,-121.27241134644,"Mon : 12:00PM - 10:00PM, Tues : 12:00PM - 10:00PM, Wed : 12:00PM - 10:00PM, Thur : 12:00PM - 10:00PM, Fri : 12:00PM - 10:00PM, Sat : 12:00PM - 10:00PM, Sun : 12:00PM - 10:00PM",,,0
Rocklin,1074,Rock Creek Plaza,2230 Sunset Blvd.,Rocklin,CA,95765,US,916-367-4878,38.802988,-121.273144,"Mon : 12:00PM - 10:00PM, Tues : 12:00PM - 10:00PM, Wed : 12:00PM - 10:00PM, Thur : 12:00PM - 10:00PM, Fri : 12:00PM - 10:00PM, Sat : 12:00PM - 10:00PM, Sun : 12:00PM - 10:00PM",,,0
Redding,1084,Cypress Pointe Shopping Center,1080 E. Cypress Avenue,Redding,CA,96002,US,530-338-2764,40.572573,-122.350393,"Mon : 12:00PM - 9:00PM, Tues : 12:00PM - 9:00PM, Wed : 12:00PM - 9:00PM, Thur : 12:00PM - 9:00PM, Fri : 12:00PM - 10:00PM, Sat : 12:00PM - 10:00PM, Sun : 12:00PM - 10:00PM",,,0
Ammon,1174,2660 East Sunnyside Road,,Ammon,ID,83406,US,208-227-8650,43.46745,-111.97889,"Mon : 12:00PM - 10:00PM, Tues : 12:00PM - 10:00PM, Wed : 12:00PM - 10:00PM, Thur : 12:00PM - 10:00PM, Fri : 12:00PM - 10:00PM, Sat : 12:00PM - 10:00PM, Sun : Closed",,,0
Kent,1197,Marketplace at Lake Meridian,12950 SE Kent Kangley Road,Kent,WA,98030,US,253- 246-7056,47.357431944587,-122.16625213623,"Mon : 11:00AM - 10:00PM, Tues : 11:00AM - 10:00PM, Wed : 11:00AM - 10:00PM, Thur : 11:00AM - 10:00PM, Fri : 11:00AM - 10:00PM, Sat : 11:00AM - 10:00PM, Sun : 11:00AM - 10:00PM",,,0
Safeco Field,1333,1250 First Avenue South,,Seattle,WA,98134,US, 425-457-2143,47.591335623282,-122.3319965601,,,,0
Apple Valley,1170,Cobblestone Lake Commercial,15594 Pilot Knob Road Suite #400,Apple Valley,MN,55124,US,651-368-9635,44.720880784308,-93.175048828125,"Mon : 11:00AM - 10:00PM, Tues : 11:00AM - 10:00PM, Wed : 11:00AM - 10:00PM, Thur : 11:00AM - 10:00PM, Fri : 11:00AM - 11:00PM, Sat : 11:00AM - 11:00PM, Sun : 11:00AM - 10:00PM",,,0
Valleyfair,1124,Valleyfair Amusement Park,1 Valleyfair Drive,Shakopee,MN,55379,US,,44.799063,-93.454212,"Mon :  - , Tues :  - , Wed :  - , Thur :  - , Fri :  - , Sat :  - , Sun :  - ",,,0
Bloomington,1232,Park Place on France,10700 France Avenue South Suite 104,Bloomington,MN,55431,US,952-513-7893,44.810025,-93.330146,"Mon : 11:00AM - 10:00PM, Tues : 11:00AM - 10:00PM, Wed : 11:00AM - 10:00PM, Thur : 11:00AM - 10:00PM, Fri : 11:00AM - 11:00PM, Sat : 11:00AM - 11:00PM, Sun : 11:00AM - 10:00PM",,,0
Eagan,1018,Diffley Marketplace,1016 Diffley Road,Eagan,MN,55123,US,651-207-5727,44.804274,-93.141044,"Mon : 11:00AM - 10:00PM, Tues : 11:00AM - 10:00PM, Wed : 11:00AM - 10:00PM, Thur : 11:00AM - 10:00PM, Fri : 11:00AM - 11:00PM, Sat : 11:00AM - 11:00PM, Sun : 11:00AM - 10:00PM",,,0
Coachman Road,1274,Luckys Station,3390 Coachman Road,Eagan,MN,55121,US,,44.834036905887,-93.179817795753,"Mon : 12:00PM - 9:00PM, Tues : 12:00PM - 9:00PM, Wed : 12:00PM - 9:00PM, Thur : 12:00PM - 9:00PM, Fri : 12:00PM - 9:00PM, Sat : 12:00PM - 9:00PM, Sun : 12:00PM - 9:00PM",,,0
Maple Grove,1146,8097 Wedgewood Ln N,,Maple Grove,MN,55369,US,763-205-3181,45.101624,-93.450502,"Mon : 11:00AM - 10:00PM, Tues : 11:00AM - 10:00PM, Wed : 11:00AM - 10:00PM, Thur : 11:00AM - 10:00PM, Fri : 11:00AM - 11:00PM, Sat : 11:00AM - 11:00PM, Sun : 11:00AM - 10:00PM",,,0
Stillwater,1148,1750 Greely Street,,Stillwater,MN,55082,US,651-351-2005,45.040564,-92.821731,"Mon : 12:00PM - 9:00PM, Tues : 12:00PM - 9:00PM, Wed : 12:00PM - 9:00PM, Thur : 12:00PM - 9:00PM, Fri : 12:00PM - 9:00PM, Sat : 12:00PM - 9:00PM, Sun : 12:00PM - 9:00PM",,,0
Westerville,474,520A South State Street,,Westerville,OH,43081,US,614-714-0980,40.111989,-82.926375,"Mon : 12:00PM - 10:00PM, Tues : 12:00PM - 10:00PM, Wed : 12:00PM - 10:00PM, Thur : 12:00PM - 10:00PM, Fri : 12:00PM - 10:00PM, Sat : 12:00PM - 10:00PM, Sun : 12:00PM - 10:00PM",,,0
Hoboken,400,121 Washington Street,,Hoboken,NJ,07030,US,201-683-6631,40.737688,-74.030789,"Mon : Closed, Tues : Closed, Wed : Closed, Thur : Closed, Fri : Closed, Sat : Closed, Sun : Closed",,,0
Upper West Manhattan,832,2486 Broadway,,New York,NY,10025,US,212-362-5880,40.792253,-73.973289,"Mon : 12:00PM - 10:00PM, Tues : 12:00PM - 10:00PM, Wed : 12:00PM - 10:00PM, Thur : 12:00PM - 10:00PM, Fri : 12:00PM - 10:00PM, Sat : 12:00PM - 10:00PM, Sun : 12:00PM - 10:00PM",,,0
Brooklyn Midwood,1266,1317 East 17th Street,,Brooklyn,NY,11230,US,,40.618021,-73.958082,"Mon : 12:00PM - 12:00AM, Tues : 12:00PM - 12:00AM, Wed : 12:00PM - 12:00AM, Thur : 12:00PM - 12:00AM, Fri : 12:00PM - 5:30PM, Sat : 10:30PM - 1:00AM, Sun : 12:00PM - 12:00AM",,,0
MetLife Stadium,898,1 MetLife Stadium,,East Rutherford,NJ,07073,US,,40.814209,-74.07369,"Mon : 10:00AM - 10:00PM, Tues : 10:00AM - 10:00PM, Wed : 10:00AM - 10:00PM, Thur : 10:00AM - 10:00PM, Fri : 10:00AM - 10:00PM, Sat : 10:00AM - 10:00PM, Sun : 10:00AM - 10:00PM",,,0
Prudential Center,916,165 Mulberry Street,,Newark,NJ,07102,US,,40.733405,-74.171405,,,,0
North Arlington,372,50 River Road,,North Arlington,NJ,07031,US,201-428-1356,40.787292,-74.144891,"Mon : 12:00PM - 10:00PM, Tues : 12:00PM - 10:00PM, Wed : 12:00PM - 10:00PM, Thur : 12:00PM - 10:00PM, Fri : 12:00PM - 10:00PM, Sat : 12:00PM - 10:00PM, Sun : 12:00PM - 10:00PM",,,0
Coney Island,1037,1327 Surf Avenue,,Brooklyn,NY,11224,US,718-266-7482,40.575714,-73.982255,"Mon : 12:00PM - 12:00AM, Tues : 12:00PM - 12:00AM, Wed : 12:00PM - 12:00AM, Thur : 12:00PM - 12:00AM, Fri : 11:00AM - 12:00AM, Sat : 11:00AM - 12:00AM, Sun : 11:00AM - 12:00AM",,,0
Wood-Ridge,380,191-2 Hackensack Street,,Wood-Ridge,NJ,07075,US,201-728-4033,40.84721,-74.08301,"Mon : 12:00PM - 10:00PM, Tues : 12:00PM - 10:00PM, Wed : 12:00PM - 10:00PM, Thur : 12:00PM - 10:00PM, Fri : 12:00PM - 10:00PM, Sat : 12:00PM - 10:00PM, Sun : 12:00PM - 10:00PM",,,0
Nutley,390,401 Centre Street,,Nutley,NJ,07110,US,973-749-1010,40.815205,-74.162852,"Mon :  - , Tues :  - , Wed :  - , Thur :  - , Fri :  - , Sat :  - , Sun :  - ",,,0
East Orange,487,513-517 Main Street,,East Orange,NJ,07018,US,973-395-9040,40.766249,-74.217529,"Mon : 12:00PM - 8:00PM, Tues : 12:00PM - 8:00PM, Wed : 12:00PM - 8:00PM, Thur : 12:00PM - 8:00PM, Fri : 12:00PM - 8:00PM, Sat : 12:00PM - 8:00PM, Sun : 12:00PM - 8:00PM",,,0
Irvington,154,693 Lyons Avenue,,Irvington,NJ,07111,US,973-399-9898,40.7207,-74.2317,"Mon : 11:00AM - 10:00PM, Tues : 11:00AM - 10:00PM, Wed : 11:00AM - 10:00PM, Thur : 11:00AM - 10:00PM, Fri : 11:00AM - 10:00PM, Sat : 11:00AM - 10:00PM, Sun : 11:00AM - 10:00PM",,,0
Bloomfield,358,1066 Broad Street,,Bloomfield,NJ,07003,US,973-338-7482,40.828329,-74.187094,"Mon : 12:00PM - 9:00PM, Tues : 12:00PM - 9:00PM, Wed : 12:00PM - 9:00PM, Thur : 12:00PM - 9:00PM, Fri : 12:00PM - 9:00PM, Sat : 12:00PM - 9:00PM, Sun : 12:00PM - 9:00PM",,,0
Lodi,617,184 Essex Street,Space D-2,Lodi,NJ,07644,US,201-843-0882,40.888607,-74.068349,"Mon : 11:00AM - 11:00PM, Tues : 11:00AM - 11:00PM, Wed : 11:00AM - 11:00PM, Thur : 11:00AM - 11:00PM, Fri : 11:00AM - 11:00PM, Sat : 11:00AM - 11:00PM, Sun : 11:00AM - 11:00PM",,,0
Stuyvesant Avenue,365,1353 Stuyvesant Avenue,,Union,NJ,07083,US,908-688-9060,40.7028,-74.2631,"Mon : 12:00PM - 10:00PM, Tues : 12:00PM - 10:00PM, Wed : 12:00PM - 10:00PM, Thur : 12:00PM - 10:00PM, Fri : 12:00PM - 10:00PM, Sat : 12:00PM - 10:00PM, Sun : 12:00PM - 10:00PM",,,0
Roselle,824,108 Chestnut Street,,Roselle,NJ,07203,US,908-245-2112,40.6595,-74.264,"Mon : 12:00PM - 10:00PM, Tues : 12:00PM - 10:00PM, Wed : 12:00PM - 10:00PM, Thur : 12:00PM - 10:00PM, Fri : 12:00PM - 10:00PM, Sat : 12:00PM - 10:00PM, Sun : 12:00PM - 10:00PM",,,0
Lawrence,1072,296 Central Avenue,,Lawrence,NY,11559,US,516-239-7482,40.617344,-73.730595,"Mon : 12:00PM - 11:00PM, Tues : 12:00PM - 11:00PM, Wed : 12:00PM - 11:00PM, Thur : 12:00PM - 11:00PM, Fri : 11:00AM - 5:30PM, Sat : 9:30PM - 1:00AM, Sun : 11:00AM - 11:00PM",,,0
Little Falls,361,66 East Main Street,,Little Falls,NJ,07424,US,973-826-7676,40.8798,-74.2225,"Mon :  - , Tues :  - , Wed :  - , Thur :  - , Fri :  - , Sat :  - , Sun :  - ",,,0
Rahway,150,1111 Westfield Avenue,,Rahway,NJ,07065,US,732-381-9808,40.6163,-74.2925,"Mon : 11:00AM - 10:00PM, Tues : 11:00AM - 10:00PM, Wed : 11:00AM - 10:00PM, Thur : 11:00AM - 10:00PM, Fri : 11:00AM - 10:00PM, Sat : 11:00AM - 10:00PM, Sun : 11:00AM - 10:00PM",,,0
Franklin Square,777,887 Hempstead Turnpike,,Franklin Square,NY,11010,US,516-455-3938,40.707013,-73.672785,"Mon : 12:00PM - 10:00PM, Tues : 12:00PM - 10:00PM, Wed : 12:00PM - 10:00PM, Thur : 12:00PM - 10:00PM, Fri : 12:00PM - 10:00PM, Sat : 12:00PM - 10:00PM, Sun : 12:00PM - 10:00PM",,,0
Glen Rock,498,1020 Maple Avenue,,Glen Rock,NJ,07452,US,201-447-4827,40.952686,-74.135962,"Mon : 11:00AM - 11:00PM, Tues : 11:00AM - 11:00PM, Wed : 11:00AM - 11:00PM, Thur : 11:00AM - 11:00PM, Fri : 11:00AM - 11:00PM, Sat : 11:00AM - 11:00PM, Sun : 11:00AM - 11:00PM",,,0
Woodbridge,71,755 St. George Avenue,,Woodbridge,NJ,07095,US,732-602-9874,40.565319,-74.287971,"Mon : 12:00PM - 10:00PM, Tues : 12:00PM - 10:00PM, Wed : 12:00PM - 10:00PM, Thur : 12:00PM - 10:00PM, Fri : 12:00PM - 10:00PM, Sat : 12:00PM - 10:00PM, Sun : 12:00PM - 10:00PM",,,0
Oceanside,334,2791 Long Beach Road,,Oceanside,NY,11572,US,516-415-7330,40.643575,-73.639472,"Mon : 12:00PM - 10:00PM, Tues : 12:00PM - 10:00PM, Wed : 12:00PM - 10:00PM, Thur : 12:00PM - 10:00PM, Fri : 12:00PM - 10:00PM, Sat : 12:00PM - 10:00PM, Sun : 12:00PM - 10:00PM",,,0
Hopelawn,929,201-205 New Brunswick Avenue,Unit 1,Hopelawn,NJ,08861,US,732-934-5000,40.524395,-74.297939,"Mon : 12:00PM - 10:00PM, Tues : 12:00PM - 10:00PM, Wed : 12:00PM - 10:00PM, Thur : 12:00PM - 10:00PM, Fri : 12:00PM - 10:00PM, Sat : 12:00PM - 10:00PM, Sun : 12:00PM - 10:00PM",,,0
Union Beach,571,865 Highway 36,,Union Beach,NJ,07735,US,732-888-9005,40.437922,-74.168016,"Mon :  - , Tues :  - , Wed :  - , Thur :  - , Fri :  - , Sat :  - , Sun :  - ",,,0
Scotch Plains,288,111 Terrill Road,,Plainfield,NJ,07062,US,908-322-3314,40.6426,-74.4054,"Mon : 12:00PM - 9:00PM, Tues : 12:00PM - 9:00PM, Wed : 12:00PM - 9:00PM, Thur : 12:00PM - 9:00PM, Fri : 12:00PM - 9:00PM, Sat : 12:00PM - 9:00PM, Sun : 12:00PM - 9:00PM",,,0
Pequannock,213,225 Newark Pompton Turnpike,,Pequannock,NJ,07440,US,973-694-0900,40.9476,-74.2898,"Mon : 11:00AM - 11:00PM, Tues : 11:00AM - 11:00PM, Wed : 11:00AM - 11:00PM, Thur : 11:00AM - 11:00PM, Fri : 11:00AM - 11:00PM, Sat : 11:00AM - 11:00PM, Sun : 11:00AM - 11:00PM",,,0
South Plainfield,145,1901 Park Avenue,,South Plainfield,NJ,07080,US,908-755-7765,40.596949,-74.400651,"Mon :  - , Tues :  - , Wed :  - , Thur :  - , Fri :  - , Sat :  - , Sun :  - ",,,0
Berkeley Heights,304,412 Springfield Avenue,,Berkeley Hts.,NJ,07922,US,908-464-0200,40.6851,-74.4375,"Mon : 12:00PM - 10:00PM, Tues : 12:00PM - 10:00PM, Wed : 12:00PM - 10:00PM, Thur : 12:00PM - 10:00PM, Fri : 12:00PM - 10:00PM, Sat : 12:00PM - 10:00PM, Sun : 12:00PM - 10:00PM",,,0
Sayreville,256,3310 Washington Road,,Parlin,NJ,08859,US,732-721-7482,40.4704,-74.3027,"Mon : 12:00PM - 10:00PM, Tues : 12:00PM - 10:00PM, Wed : 12:00PM - 10:00PM, Thur : 12:00PM - 10:00PM, Fri : 12:00PM - 10:00PM, Sat : 12:00AM - 10:00PM, Sun : 12:00PM - 10:00PM",,,0
Edison,41,2303 Woodbridge Avenue,,Edison,NJ,08817,US,732-777-0088,40.5028,-74.3892,"Mon : 12:00PM - 10:00PM, Tues : 12:00PM - 10:00PM, Wed : 12:00PM - 10:00PM, Thur : 12:00PM - 10:00PM, Fri : 12:00PM - 10:00PM, Sat : 12:00PM - 10:00PM, Sun : 12:00PM - 10:00PM",,,0
Morristown,1058,89 Morris Street,,Morristown,NJ,07960,US,,40.796815,-74.477154,"Mon : 12:00PM - 10:00PM, Tues : 12:00PM - 10:00PM, Wed : 12:00PM - 10:00PM, Thur : 12:00PM - 10:00PM, Fri : 12:00PM - 10:00PM, Sat : 12:00PM - 10:00PM, Sun : 12:00PM - 10:00PM",,,0
Piscataway,944,1297 Centennial Avenue,,Piscataway,NJ,08854,US,732-529-6140,40.553424,-74.4421,"Mon : 12:00PM - 9:00PM, Tues : 12:00PM - 9:00PM, Wed : 12:00PM - 9:00PM, Thur : 12:00PM - 9:00PM, Fri : 12:00PM - 9:00PM, Sat : 12:00PM - 9:00PM, Sun : 12:00PM - 9:00PM",,,0
Elmsford,702,Multiplex Shopping Center,330 Sawmill River Road,Elmsford ,NY,10523,US,914-347-7482,41.065807,-73.814652,"Mon : 12:00PM - 10:00AM, Tues : 12:00PM - 10:00AM, Wed : 12:00PM - 10:00AM, Thur : 12:00PM - 10:00PM, Fri : 12:00PM - 10:00PM, Sat : 12:00PM - 10:00PM, Sun : 12:00PM - 10:00PM",,,0
River Place,507,River Place At Butler,401 Main Street,Butler,NJ,07405,US,973-750-1477,41.005234,-74.342604,"Mon : 12:00PM - 10:00PM, Tues : 12:00PM - 10:00PM, Wed : 12:00PM - 10:00PM, Thur : 12:00PM - 10:00PM, Fri : 12:00PM - 10:00PM, Sat : 12:00PM - 10:00PM, Sun : 12:00PM - 10:00PM",,,0
Old Bridge,40,2535 Route 516,,Old Bridge,NJ,08857,US,732-679-1700,40.4035,-74.3221,"Mon : 12:00PM - 10:00PM, Tues : 12:00PM - 10:00PM, Wed : 12:00PM - 10:00PM, Thur : 12:00PM - 10:00PM, Fri : 12:00PM - 10:00PM, Sat : 12:00PM - 10:00PM, Sun : 12:00PM - 10:00PM",,,0
Mahwah,403,3 Miller Road,,Mahwah,NJ,07430,US,201-529-ICES (4237),41.094356,-74.146318,"Mon : 12:00PM - 10:00PM, Tues : 12:00PM - 10:00PM, Wed : 12:00PM - 10:00PM, Thur : 12:00PM - 10:00PM, Fri : 12:00PM - 11:00PM, Sat : 12:00PM - 11:00PM, Sun : 12:00PM - 10:00PM",,,0
Middlesex,114,1250 Bound Brook Road,,Middlesex,NJ,08846,US,732-469-8582,40.579827,-74.501277,"Mon : 11:30AM - 10:00PM, Tues : 11:30AM - 10:00PM, Wed : 11:30AM - 10:00PM, Thur : 11:30AM - 10:00PM, Fri : 11:30AM - 10:00PM, Sat : 11:30AM - 10:00PM, Sun : 11:30AM - 10:00PM",,,0
Eatontown,552,76-C Highway 35,,Eatontown,NJ,07724,US,732-460-0075,40.29976,-74.05673,"Mon : 11:00AM - 10:30PM, Tues : 11:00AM - 10:30PM, Wed : 11:00AM - 10:30PM, Thur : 11:00AM - 10:30PM, Fri : 11:00AM - 11:00PM, Sat : 11:00AM - 11:00PM, Sun : 11:00AM - 10:30PM",,,0
North Brunswick,204,574 Milltown Road,,North Brunswick,NJ,08902,US,,40.466184,-74.453407,"Mon : 12:00PM - 10:00PM, Tues : 12:00PM - 10:00PM, Wed : 12:00PM - 10:00PM, Thur : 12:00PM - 10:00PM, Fri : 12:00PM - 10:00PM, Sat : 12:00PM - 10:00PM, Sun : 12:00PM - 10:00PM",,,0
Manalapan,280,342 Route 9 North,,Manalapan,NJ,07726,US,732- 617-8088,40.3112,-74.304,"Mon : 11:00AM - 10:30PM, Tues : 11:00AM - 10:30PM, Wed : 11:00AM - 10:30PM, Thur : 11:00AM - 10:30PM, Fri : 11:00AM - 11:00PM, Sat : 11:00AM - 11:00PM, Sun : 11:00AM - 10:30PM",,,0
Bridgewater,337,1359 Prince Rogers Avenue,,Bridgewater,NJ,08807,US,908-707-9090,40.5888,-74.6117,"Mon : 12:00PM - 9:00PM, Tues : 12:00PM - 9:00PM, Wed : 12:00PM - 9:00PM, Thur : 12:00PM - 9:00PM, Fri : 12:00PM - 9:00PM, Sat : 12:00PM - 9:00PM, Sun : 12:00PM - 9:00PM",,,0
Somerville,160,84 West Main Street,,Somerville,NJ,08876,US,908-450-7164,40.569078,-74.614294,"Mon : 12:00PM - 9:00PM, Tues : 12:00PM - 9:00PM, Wed : 12:00PM - 9:00PM, Thur : 12:00PM - 9:00PM, Fri : 12:00PM - 9:00PM, Sat : 12:00PM - 9:00PM, Sun : 12:00PM - 9:00PM",,,0
Franklin Park,263,3175 Route 27,Unit 2,Franklin Park,NJ,08823,US,732-821-0385,40.4347,-74.5443,"Mon : 11:00AM - 10:00PM, Tues : 11:00AM - 10:00PM, Wed : 11:00AM - 10:00PM, Thur : 11:00AM - 10:00PM, Fri : 11:00AM - 10:00PM, Sat : 11:00AM - 10:00PM, Sun : 11:00AM - 10:00PM",,,0
Freehold,87,47 West Main Street,,Freehold,NJ,07728,US,732-409-7482,40.2589,-74.2756,"Mon : 11:00AM - 10:30PM, Tues : 11:00AM - 10:30PM, Wed : 11:00AM - 10:30PM, Thur : 11:00AM - 10:30PM, Fri : 11:00AM - 11:00PM, Sat : 11:00AM - 11:00PM, Sun : 11:00AM - 10:30PM",,,0
Neptune,122,2460 State Highway 33,,Neptune,NJ,07753,US,732-922-1912,40.206885,-74.056832,"Mon : 11:00AM - 10:30PM, Tues : 11:00AM - 10:30PM, Wed : 11:00AM - 10:30PM, Thur : 11:00AM - 10:30PM, Fri : 11:00AM - 11:00PM, Sat : 11:00AM - 11:00PM, Sun : 11:00AM - 10:30PM",,,0
Deer Park,368,2158 Deer Park Avenue,,Deer Park,NY,11729,US,631-242-8605,40.7742,-73.3349,"Mon : 12:00PM - 10:00PM, Tues : 12:00PM - 10:00PM, Wed : 12:00PM - 10:00PM, Thur : 12:00PM - 10:00PM, Fri : 12:00PM - 11:00PM, Sat : 12:00PM - 11:00PM, Sun : 12:00PM - 10:00PM",,,0
Hillsborough,350,381 Triangle Road,Building F,Hillsborough,NJ,08844,US,908-281-7482,40.51888,-74.63287,"Mon : 12:00PM - 9:00PM, Tues : 12:00PM - 9:00PM, Wed : 12:00PM - 9:00PM, Thur : 12:00PM - 9:00PM, Fri : 12:00PM - 9:00PM, Sat : 12:00PM - 9:00PM, Sun : 12:00PM - 9:00PM",,,0
South Brunswick,518,4180 Route 1 North,200 B,Monmouth Junction,NJ,08852,US,732-329-2007,40.382823,-74.574825,"Mon : 12:00PM - 10:00PM, Tues : 12:00PM - 10:00PM, Wed : 12:00PM - 10:00PM, Thur : 12:00PM - 10:00PM, Fri : 12:00PM - 10:00PM, Sat : 12:00PM - 10:00PM, Sun : 12:00PM - 10:00PM",,,0
Flanders Village Mall,393,Flanders Village Mall,286 Route 206,Flanders,NJ,07836,US,973-584-7482,40.8321,-74.7101,"Mon : 12:00PM - 10:00PM, Tues : 12:00PM - 10:00PM, Wed : 12:00PM - 10:00PM, Thur : 12:00PM - 10:00PM, Fri : 12:00PM - 10:00PM, Sat : 12:00PM - 10:00PM, Sun : 12:00PM - 10:00PM",,,0
Sparta,494,Theatre Centre,25 Centre Street,Sparta,NJ,07871,US,973-726-7482,41.030559,-74.63615,"Mon : 12:00PM - 10:00PM, Tues : 12:00PM - 10:00PM, Wed : 12:00PM - 10:00PM, Thur : 12:00PM - 10:00PM, Fri : 12:00PM - 10:00PM, Sat : 12:00PM - 10:00PM, Sun : 12:00PM - 10:00PM",,,0
Whitehouse Station,897,547 Route 22,,Whitehouse,NJ,08889,US,908-534-0152,40.618947,-74.755822,"Mon : 11:00AM - 10:00PM, Tues : 11:00AM - 10:00PM, Wed : 11:00AM - 10:00PM, Thur : 11:00AM - 10:00PM, Fri : 11:00AM - 10:00PM, Sat : 11:00AM - 10:00PM, Sun : 11:00AM - 10:00PM",,,0
Yorktown,853,1881A Commerce Street,,Yorktown,NY,10598,US,914-302-7711,41.273037,-73.781428,"Mon : 12:00PM - 10:00PM, Tues : 12:00PM - 10:00PM, Wed : 12:00PM - 10:00PM, Thur : 12:00PM - 10:00PM, Fri : 12:00PM - 10:00PM, Sat : 12:00PM - 10:00PM, Sun : 12:00PM - 10:00PM",,,0
East Windsor,211,9 Princeton-Hightstown Road,,East Windsor,NJ,08520,US,609-443-7482,40.2729,-74.5387,"Mon : 12:00PM - 10:00PM, Tues : 12:00PM - 10:00PM, Wed : 12:00PM - 10:00PM, Thur : 12:00PM - 10:00PM, Fri : 12:00PM - 10:00PM, Sat : 12:00PM - 10:00PM, Sun : 12:00PM - 10:00PM",,,0
East Islip,193,105 E. Main Street,,East Islip,NY,11730,US,631-446-4312 ,40.7319,-73.1861,"Mon : 12:00PM - 10:00PM, Tues : 12:00PM - 10:00PM, Wed : 12:00PM - 10:00PM, Thur : 12:00PM - 10:00PM, Fri : 12:00PM - 10:00PM, Sat : 12:00PM - 10:00PM, Sun : 12:00PM - 10:00PM",,,0
Jackson,108,2105 West County Line Road,,Jackson,NJ,08527,US,732-987-9882,40.1209,-74.261,"Mon : 12:00PM - 10:00PM, Tues : 12:00PM - 10:00PM, Wed : 12:00PM - 10:00PM, Thur : 12:00PM - 10:00PM, Fri : 12:00PM - 10:00PM, Sat : 12:00PM - 10:00PM, Sun : 12:00PM - 10:00PM",,,0
Hackettstown,264,78 Main Street,Suite 78-20,Hackettstown,NJ,07840,US,908-674-4694,40.844621,-74.824491,"Mon : 12:00PM - 10:00PM, Tues : 12:00PM - 10:00PM, Wed : 12:00PM - 10:00PM, Thur : 12:00PM - 10:00PM, Fri : 12:00PM - 10:00PM, Sat : 12:00PM - 10:00PM, Sun : 12:00PM - 10:00PM",,,0
Point Pleasant,96,3009 Route 88,,Point Pleasant,NJ,08742,US,732-892-2244,40.0805,-74.0819,"Mon : 12:00PM - 10:00PM, Tues : 12:00PM - 10:00PM, Wed : 12:00PM - 10:00PM, Thur : 12:00PM - 10:00PM, Fri : 12:00PM - 10:00PM, Sat : 12:00PM - 10:00PM, Sun : 12:00PM - 10:00PM",,,0
Lakewood,463,681 River Avenue,,Lakewood,NJ,08701,US,732-901-1296,40.0713996,-74.217351,"Mon :  - , Tues :  - , Wed :  - , Thur :  - , Fri :  - , Sat :  - , Sun :  - ",,,0
Six Flags Jackson NJ,930,1 Six Flags Blvd.,,Jackson,NJ,08527,US,,40.137317,-74.439111,"Mon : Closed, Tues : Closed, Wed : Closed, Thur : Closed, Fri : Closed, Sat : Closed, Sun : Closed",,,0
Brick,197,628 Mantoloking Road,,Brick,NJ,08723,US,732-262-1700,40.0467,-74.1121,"Mon : 11:00AM - 10:30PM, Tues : 11:00AM - 10:30PM, Wed : 11:00AM - 10:30PM, Thur : 11:00AM - 10:30PM, Fri : 11:00AM - 11:00PM, Sat : 11:00AM - 11:00PM, Sun : 11:00AM - 10:30PM",,,0
Flemington,128,23 Route 12 West,,Flemington,NJ,08822,US,908-284-1618,40.502364,-74.855811,"Mon : 11:00AM - 10:00PM, Tues : 11:00AM - 10:00PM, Wed : 11:00AM - 10:00PM, Thur : 11:00AM - 10:00PM, Fri : 11:00AM - 10:00PM, Sat : 11:00AM - 10:00PM, Sun : 11:00AM - 10:00PM",,,0
Hamilton Square,94,Nottingham and George Dye Roads,,Hamilton Square,NJ,08690,US,609-587-9607,40.2239,-74.6449,"Mon : 12:00PM - 10:00PM, Tues : 12:00PM - 10:00PM, Wed : 12:00PM - 10:00PM, Thur : 12:00PM - 10:00PM, Fri : 12:00PM - 10:00PM, Sat : 12:00PM - 10:00PM, Sun : 12:00PM - 10:00PM",,,0
Clinton,286,2632 Rt. 31 South,,Clinton,NJ,08809,US,908-638-8230,40.670902,-74.915511,"Mon : 11:00AM - 10:00PM, Tues : 11:00AM - 10:00PM, Wed : 11:00AM - 10:00PM, Thur : 11:00AM - 10:00PM, Fri : 11:00AM - 10:00PM, Sat : 11:00AM - 10:00PM, Sun : 11:00AM - 10:00PM",,,0
Mercerville,59,University Plaza Shpg Center,84 Flock Road,Mercerville,NJ,08619,US,609-207-7429,40.2493,-74.6837,"Mon : 12:00PM - 10:00PM, Tues : 12:00PM - 10:00PM, Wed : 12:00PM - 10:00PM, Thur : 12:00PM - 10:00PM, Fri : 12:00PM - 10:00PM, Sat : 12:00PM - 10:00PM, Sun : 12:00PM - 10:00PM",,,0
Pennington,658,Pennington Center,25 Route 31 South Store F,Pennington,NJ,08534,US,609-737-9001,40.32606,-74.797153,"Mon : 12:00PM - 10:00PM, Tues : 12:00PM - 10:00PM, Wed : 12:00PM - 10:00PM, Thur : 12:00PM - 10:00PM, Fri : 12:00PM - 10:00PM, Sat : 12:00PM - 10:00PM, Sun : 12:00PM - 10:00PM",,,0
Toms River,95,1687 Route 9,,Toms River,NJ,08755,US,732-349-4461,40.0114,-74.2165,"Mon : 12:00PM - 10:00PM, Tues : 12:00PM - 10:00PM, Wed : 12:00PM - 10:00PM, Thur : 12:00PM - 10:00PM, Fri : 12:00PM - 10:30PM, Sat : 12:00PM - 10:30PM, Sun : 12:00PM - 10:30PM",,,0
Lawrenceville,151,2070 Brunswick Avenue,,Lawrenceville,NJ,08648,US,609-989-7779,40.252264,-74.733425,"Mon : 12:00PM - 10:00PM, Tues : 12:00PM - 10:00PM, Wed : 12:00PM - 10:00PM, Thur : 12:00PM - 10:00PM, Fri : 12:00PM - 10:00PM, Sat : 12:00PM - 10:00PM, Sun : 12:00PM - 10:00PM",,,0
Hamilton,36,1715 Greenwood Avenue,,Hamilton,NJ,08609,US,609-587-3777,40.2262,-74.7321,"Mon : 12:00PM - 10:00PM, Tues : 12:00PM - 10:00PM, Wed : 12:00PM - 10:00PM, Thur : 12:00PM - 10:00PM, Fri : 12:00PM - 10:00PM, Sat : 12:00PM - 10:00PM, Sun : 12:00PM - 10:00PM",,,0
Washington,195,226 Route 31 North,,Washington,NJ,07882,US,908-835-1100,40.7715,-74.9785,"Mon : 12:00PM - 9:00PM, Tues : 12:00PM - 9:00PM, Wed : 12:00PM - 9:00PM, Thur : 12:00PM - 9:00PM, Fri : 12:00PM - 9:00PM, Sat : 12:00PM - 9:00PM, Sun : 12:00PM - 9:00PM",,,0
Toms River - Fischer Boulevard,279,938 Fischer Blvd.,,Toms River,NJ,08753,US,732-929-1030,39.9761,-74.1384,"Mon : 12:00PM - 10:00PM, Tues : 12:00PM - 10:00PM, Wed : 12:00PM - 10:00PM, Thur : 12:00PM - 10:00PM, Fri : 12:00PM - 10:30PM, Sat : 11:30PM - 10:30PM, Sun : 11:30PM - 10:30PM",,,0
Ocean County Mall,245,1201 Hooper Avenue,Kiosk Tk15,Toms River,NJ,08753,US,732-349-4879,39.9806,-74.1783,"Mon : 12:00PM - 9:30PM, Tues : 12:00PM - 9:30PM, Wed : 12:00PM - 9:30PM, Thur : 12:00PM - 9:30PM, Fri : 12:00PM - 9:30PM, Sat : 11:00AM - 9:30PM, Sun : 11:00AM - 6:00PM",,,0
Independence Plaza,206,Independence Plaza,2465 S. Broad Street Unit F5,Hamilton,NJ,08610,US,609-888-0800,40.193,-74.72048,"Mon : 12:00PM - 10:00PM, Tues : 12:00PM - 10:00PM, Wed : 12:00PM - 10:00PM, Thur : 12:00PM - 10:00PM, Fri : 12:00PM - 10:00PM, Sat : 12:00PM - 10:00PM, Sun : 12:00PM - 10:00PM",,,0
Ewing,19,1400 Parkway Avenue,Unit#1,Ewing,NJ,08628,US,609-403-8943,40.2663,-74.8068,"Mon : 12:00PM - 10:00PM, Tues : 12:00PM - 10:00PM, Wed : 12:00PM - 10:00PM, Thur : 12:00PM - 10:00PM, Fri : 12:00PM - 10:00PM, Sat : 12:00PM - 10:00PM, Sun : 12:00PM - 10:00PM",,,0
Dolson Ave.,303,92 Dolson Avenue,,Middletown,NY,10940,US,845-343-7482,41.4324,-74.4231,"Mon : 12:00PM - 10:00PM, Tues : 12:00PM - 10:00PM, Wed : 12:00PM - 10:00PM, Thur : 12:00PM - 10:00PM, Fri : 12:00PM - 10:00PM, Sat : 12:00PM - 10:00PM, Sun : 12:00PM - 10:00PM",,,0
Morrisville,47,815 W. Trenton Avenue,,Morrisville,PA,19067,US,215-736-2656,40.2092,-74.7985,"Mon : 12:00PM - 10:00PM, Tues : 12:00PM - 10:00PM, Wed : 12:00PM - 10:00PM, Thur : 12:00PM - 10:00PM, Fri : 12:00PM - 10:00PM, Sat : 12:00PM - 10:00PM, Sun : 12:00PM - 10:00PM",,,0
Bridgeport,639,1055 Huntington Turnpike,Store #1,Bridgeport,CT,06610,US,203-373-1040,41.222148,-73.168649,"Mon :  - , Tues :  - , Wed :  - , Thur :  - , Fri :  - , Sat :  - , Sun :  - ",,,0
Levittown,10,8621 New Falls Road,,Levittown,PA,19058,US,215-547-9660,40.1732,-74.8343,"Mon : 12:00PM - 10:00PM, Tues : 12:00PM - 10:00PM, Wed : 12:00PM - 10:00PM, Thur : 12:00PM - 10:00PM, Fri : 12:00PM - 10:00PM, Sat : 12:00PM - 10:00PM, Sun : 12:00PM - 10:00PM",,,0
Bethel CT,938,180-9 Old Hawleyville Road,,Bethel,CT,06801,US,203-456-3060,41.413688,-73.380915,"Mon : 12:00PM - 10:00PM, Tues : 12:00PM - 10:00PM, Wed : 12:00PM - 10:00PM, Thur : 12:00PM - 10:00PM, Fri : 12:00PM - 10:00PM, Sat : 11:00AM - 10:00PM, Sun : 11:00AM - 10:00PM",,,0
Newtown,8,14 Swamp Road,,Newtown,PA,18940,US,215-968-8668,40.2296,-74.9398,"Mon : 12:00PM - 10:00PM, Tues : 12:00PM - 10:00PM, Wed : 12:00PM - 10:00PM, Thur : 12:00PM - 10:00PM, Fri : 12:00PM - 10:30PM, Sat : 12:00PM - 10:30PM, Sun : 12:00PM - 10:00PM",,,0
Browns Mills,242,21 Juliustown Rd,PO Box 1654,Browns Mills,NJ,08015,US,609-893-3000,39.9704,-74.5837,"Mon : 12:00PM - 10:00PM, Tues : 12:00PM - 10:00PM, Wed : 12:00PM - 10:00PM, Thur : 12:00PM - 10:00PM, Fri : 12:00PM - 10:00PM, Sat : 12:00PM - 10:00PM, Sun : 12:00PM - 10:00PM",,,0
Stewartsville,331,450 Route 519,Unit 450-b,Stewartsville,NJ,08886,US,908-387-9300,40.6873,-75.1455,"Mon : 11:00AM - 10:00PM, Tues : 11:00AM - 10:00PM, Wed : 11:00AM - 10:00PM, Thur : 11:00AM - 10:00PM, Fri : 11:00AM - 10:00PM, Sat : 11:00AM - 10:00PM, Sun : 11:00AM - 10:00PM",,,0
Germans Plaza,771,175 Boston Post Road,,Milford,CT,06460,US,203-301-4490,41.219576,-73.074352,"Mon : 11:00AM - 10:00PM, Tues : 11:00AM - 10:00PM, Wed : 11:00AM - 10:00PM, Thur : 11:00AM - 10:00PM, Fri : 11:00AM - 10:00PM, Sat : 11:00AM - 10:00PM, Sun : 11:00AM - 10:00PM",,,0
Holland,388,Village Shires Shopping Center Unit B-1,1468 Buck Road,Holland,PA,18966,US,215-860-5402,40.20448,-74.953179,"Mon : 12:00PM - 10:00PM, Tues : 12:00PM - 10:00PM, Wed : 12:00PM - 10:00PM, Thur : 12:00PM - 10:00PM, Fri : 12:00PM - 10:00PM, Sat : 11:30AM - 10:00PM, Sun : 11:30AM - 10:00PM",,,0
Shelton,667,781-785 River Road,,Shelton,CT,06484,US,203-712-7193 ,41.265271,-73.094227,"Mon : 12:00PM - 10:00PM, Tues : 12:00PM - 10:00PM, Wed : 12:00PM - 10:00PM, Thur : 12:00PM - 10:00PM, Fri : 12:00PM - 10:00PM, Sat : 11:00AM - 10:00PM, Sun : 11:00AM - 10:00PM",,,0
Durham Road,139,2382 Durham Road,,Langhorne,PA,19047,US,215-269-4800,40.132,-74.8879,"Mon : 12:00PM - 10:00PM, Tues : 12:00PM - 10:00PM, Wed : 12:00PM - 10:00PM, Thur : 12:00PM - 10:00PM, Fri : 12:00PM - 10:00PM, Sat : 12:00PM - 10:00PM, Sun : 12:00PM - 10:00PM",,,0
Springfield Township,407,2685 Route 206,,Mount Holly,NJ,08060,US,609-914-4105,40.0185,-74.7332,"Mon : 12:00PM - 10:00PM, Tues : 12:00PM - 10:00PM, Wed : 12:00PM - 10:00PM, Thur : 12:00PM - 10:00PM, Fri : 12:00PM - 10:00PM, Sat : 12:00PM - 10:00PM, Sun : 12:00PM - 10:00PM",,,0
Penndel,111,448 W Lincoln Highway,,Penndel,PA,19047,US,215-741-1020,40.15648,-74.921156,"Mon : 12:00PM - 10:00PM, Tues : 12:00PM - 10:00PM, Wed : 12:00PM - 10:00PM, Thur : 12:00PM - 10:00PM, Fri : 12:00PM - 10:00PM, Sat : 12:00PM - 10:00PM, Sun : 12:00PM - 10:00PM",,,0
Wappingers Falls,825,Brookmeade Plaza,985 Route 376,Wappingers Falls,NY,12590,US,845-849-3737,41.606843,-73.837169,"Mon : 12:00PM - 10:00PM, Tues : 12:00PM - 10:00PM, Wed : 12:00PM - 10:00PM, Thur : 12:00PM - 10:00PM, Fri : 12:00PM - 10:00PM, Sat : 12:00PM - 10:00PM, Sun : 12:00PM - 10:00PM",,,0
Burlington,510,1205 T High Street,,Burlington,NJ,08016,US,609-387-5535,40.06573,-74.8528,"Mon : 12:00PM - 10:00PM, Tues : 12:00PM - 10:00PM, Wed : 12:00PM - 10:00PM, Thur : 12:00PM - 10:00PM, Fri : 12:00PM - 10:00PM, Sat : 12:00PM - 10:00PM, Sun : 12:00PM - 10:00PM",,,0
Furlong,386,790 Edison Furlong Road,,Furlong,PA,18925,US,215-794-8388,40.296092,-75.083091,"Mon : 12:00PM - 10:00PM, Tues : 12:00PM - 10:00PM, Wed : 12:00PM - 10:00PM, Thur : 12:00PM - 10:00PM, Fri : 12:00PM - 10:00PM, Sat : 12:00PM - 10:00PM, Sun : 12:00PM - 10:00PM",,,0
Bensalem,88,3610 Bristol Road,,Bensalem,PA,19020,US,215-757-5333,40.1387,-74.9488,"Mon : 12:00PM - 10:00PM, Tues : 12:00PM - 10:00PM, Wed : 12:00PM - 10:00PM, Thur : 12:00PM - 10:00PM, Fri : 12:00PM - 10:00PM, Sat : 12:00PM - 10:00PM, Sun : 12:00PM - 10:00PM",,,0
Richboro,55,722 Second Street Pike,,Richboro,PA,18954,US,215-355-9676,40.2083,-75.0157,"Mon : 12:00PM - 10:00PM, Tues : 12:00PM - 10:00PM, Wed : 12:00PM - 10:00PM, Thur : 12:00PM - 10:00PM, Fri : 12:00PM - 10:00PM, Sat : 12:00PM - 10:00PM, Sun : 12:00PM - 10:00PM",,,0
Forks Township,203,1512 Sullivan Trail,,Easton,PA,18040,US,610-250-0790,40.7131,-75.2192,"Mon : 12:00PM - 9:00PM, Tues : 12:00PM - 9:00PM, Wed : 12:00PM - 9:00PM, Thur : 12:00PM - 9:00PM, Fri : 12:00PM - 9:00PM, Sat : 12:00PM - 9:00PM, Sun : 12:00PM - 9:00PM",,,0
Neshaminy Mall,319,707 Neshaminy Mall,Space 812 K,Bensalem,PA,19020,US,215-357-5661,40.1384,-74.9544,"Mon : 10:00AM - 9:00PM, Tues : 10:00AM - 9:00PM, Wed : 10:00AM - 9:00PM, Thur : 10:00AM - 9:00PM, Fri : 10:00AM - 9:00PM, Sat : 10:00AM - 9:00PM, Sun : 11:00AM - 6:00PM",,,0
Croydon,7,409 Bristol Pike,,Croydon,PA,19021,US,215-788-4423,40.0938,-74.9097,"Mon : 12:00PM - 10:00PM, Tues : 12:00PM - 10:00PM, Wed : 12:00PM - 10:00PM, Thur : 12:00PM - 10:00PM, Fri : 12:00PM - 10:00PM, Sat : 12:00PM - 10:00PM, Sun : 12:00PM - 10:00PM",,,0
Mt Holly,935,1862 Burlington-Mt. Holly Road,,Mount Holly,NJ,08060,US,609-784-8400,40.010913,-74.800047,"Mon : 12:00PM - 10:00PM, Tues : 12:00PM - 10:00PM, Wed : 12:00PM - 10:00PM, Thur : 12:00PM - 10:00PM, Fri : 12:00PM - 10:00PM, Sat : 12:00PM - 10:00PM, Sun : 12:00PM - 10:00PM",,,0
West Haven,439,28 Ocean Avenue,,West Haven,CT,06516,US,475-238-8154,41.236058,-72.986555,"Mon : 12:00PM - 10:00PM, Tues : 12:00PM - 10:00PM, Wed : 12:00PM - 10:00PM, Thur : 12:00PM - 10:00PM, Fri : 12:00PM - 10:00PM, Sat : 12:00PM - 10:00PM, Sun : 12:00PM - 10:00PM",,,0
Doylestown,161,Cross Keys Plaza,4403 Swamp Road,Doylestown,PA,18902,US,215-340-9913,40.3327,-75.1321,"Mon : 11:00AM - 10:00PM, Tues : 11:00AM - 10:00PM, Wed : 11:00AM - 10:00PM, Thur : 11:00AM - 10:00PM, Fri : 11:00AM - 10:00PM, Sat : 11:00AM - 10:00PM, Sun : 11:00PM - 10:00PM",,,0
Feasterville,291,1401 Bridgetown Pike,,Feasterville,PA,19053,US,215-322-8774,40.1554,-74.998,"Mon : 12:00PM - 10:00PM, Tues : 12:00PM - 10:00PM, Wed : 12:00PM - 10:00PM, Thur : 12:00PM - 10:00PM, Fri : 12:00PM - 10:00PM, Sat : 12:00PM - 10:00PM, Sun : 12:00PM - 10:00PM",,,0
Willingboro,421,4364 J Town Center,Route 130 North,Willingboro,NJ,08046,US,609-200-1423,40.052482,-74.894314,"Mon : 12:00PM - 9:00PM, Tues : 12:00PM - 9:00PM, Wed : 12:00PM - 9:00PM, Thur : 12:00PM - 9:00PM, Fri : 12:00PM - 9:00PM, Sat : 12:00PM - 9:00PM, Sun : 12:00PM - 9:00PM",,,0
Stroudsburg,298,1319 North 5th Street,,Stroudsburg,PA,18360,US,570-420-8099,41.0016,-75.1984,"Mon : 11:00AM - 10:00PM, Tues : 11:00AM - 10:00PM, Wed : 11:00AM - 10:00PM, Thur : 11:00AM - 10:00PM, Fri : 11:00AM - 10:00PM, Sat : 11:00AM - 10:00PM, Sun : 11:00AM - 10:00PM",,,0
Palmer Township,188,3730 William Penn Highway,,Easton,PA,18045,US,610-250-9110,40.6726,-75.2662,"Mon : 12:00PM - 10:00PM, Tues : 12:00PM - 10:00PM, Wed : 12:00PM - 10:00PM, Thur : 12:00PM - 10:00PM, Fri : 12:00PM - 10:00PM, Sat : 12:00PM - 10:00PM, Sun : 12:00PM - 10:00PM",,,0
Franklin Mills Mall,347,1455 Franklin Mills Circle,Kiosk-290,Philadelphia,PA,19154,US,215-612-1718,40.0886,-74.9606,"Mon : 10:00AM - 9:00PM, Tues : 10:00AM - 9:00PM, Wed : 10:00AM - 9:00PM, Thur : 10:00AM - 9:00PM, Fri : 10:00AM - 9:00PM, Sat : 10:00AM - 9:00PM, Sun : 11:00AM - 7:00PM",,,0
Pine Valley,4,Pine Valley Center,161 Byberry Road,Philadelphia,PA,19116,US,215-676-3464,40.1283,-75.0237,"Mon : 11:00PM - 10:00PM, Tues : 11:00PM - 10:00PM, Wed : 11:00PM - 10:00PM, Thur : 11:00PM - 10:00PM, Fri : 11:00PM - 10:00PM, Sat : 11:00PM - 10:00PM, Sun : 11:00PM - 10:00PM",,,0
Woodhaven,1,1227 Bristol Pike,,Andalusia,PA,19020,US,215-245-1782,40.070918,-74.966396,"Mon : 12:00PM - 10:00PM, Tues : 12:00PM - 10:00PM, Wed : 12:00PM - 10:00PM, Thur : 12:00PM - 10:00PM, Fri : 12:00PM - 10:00PM, Sat : 12:00PM - 10:00PM, Sun : 12:00PM - 10:00PM",,,0
611 and Bristol,402,Warrington Shopping Center,1380 Easton Road Unit 1,Warrington,PA,18976,US,215-343-5650,40.2503,-75.1342,"Mon : 12:00PM - 10:00PM, Tues : 12:00PM - 10:00PM, Wed : 12:00PM - 10:00PM, Thur : 12:00PM - 10:00PM, Fri : 12:00PM - 10:00PM, Sat : 12:00PM - 10:00PM, Sun : 12:00PM - 10:00PM",,,0
Huntingdon Valley,15,2024 County Line Road,,Huntingdon Valley,PA,19006,US,215-953-1998,40.169326,-75.070846,"Mon : 11:00AM - 10:00PM, Tues : 11:00AM - 10:00PM, Wed : 11:00AM - 10:00PM, Thur : 11:00AM - 10:00PM, Fri : 11:00AM - 10:00PM, Sat : 11:00AM - 10:00PM, Sun : 11:00AM - 10:00PM",,,0
Warminster,105,390 York Road,,Warminster,PA,18974,US,215-672-0992,40.200968,-75.101311,"Mon : 12:00PM - 10:00PM, Tues : 12:00PM - 10:00PM, Wed : 12:00PM - 10:00PM, Thur : 12:00PM - 10:00PM, Fri : 12:00PM - 10:00PM, Sat : 12:00PM - 10:00PM, Sun : 12:00PM - 10:00PM",,,0
Academy,2,3244 Red Lion Road,,Philadelphia,PA,19154,US,215-637-1936,40.081,-74.9939,"Mon : 11:00AM - 10:00PM, Tues : 11:00AM - 10:00PM, Wed : 11:00AM - 10:00PM, Thur : 11:00AM - 10:00PM, Fri : 11:00AM - 10:00PM, Sat : 11:00AM - 10:00PM, Sun : 11:00AM - 10:00PM",,,0
Nazareth,371,52 East Lawn Road,,Nazareth,PA,18064,US,610-746-3383,40.748004,-75.303068,"Mon : 12:00PM - 10:00PM, Tues : 12:00PM - 10:00PM, Wed : 12:00PM - 10:00PM, Thur : 12:00PM - 10:00PM, Fri : 12:00PM - 10:00PM, Sat : 12:00PM - 10:00PM, Sun : 12:00PM - 10:00PM",,,0
Wind Gap,148,501 E. Moorestown Road #9,,Wind Gap,PA,18091,US,610-881-4183,40.834711,-75.297769,"Mon : 12:00PM - 9:00PM, Tues : 12:00PM - 9:00PM, Wed : 12:00PM - 9:00PM, Thur : 12:00PM - 9:00PM, Fri : 12:00PM - 10:00PM, Sat : 12:00PM - 10:00PM, Sun : 12:00PM - 9:00PM",,,0
Poughkeepsie,939,8 Taft Avenue,,Poughkeepsie,NY,12603,US,845- 485-7482,41.695872,-73.896061,"Mon : 12:00PM - 10:00PM, Tues : 12:00PM - 10:00PM, Wed : 12:00PM - 10:00PM, Thur : 12:00PM - 10:00PM, Fri : 12:00PM - 10:00PM, Sat : 11:00AM - 10:00PM, Sun : 11:00AM - 10:00PM",,,0
Warrington,313,29-31 Easton Road,,Warrington,PA,18976,US,215-441-4171,40.213111,-75.139193,"Mon : 12:00PM - 10:00PM, Tues : 12:00PM - 10:00PM, Wed : 12:00PM - 10:00PM, Thur : 12:00PM - 10:00PM, Fri : 12:00PM - 10:00PM, Sat : 12:00PM - 10:00PM, Sun : 12:00PM - 10:00PM",,,0
Mt Laurel,516,3131 Route 38,Unit # 15,Mount Laurel,NJ,08054,US,856-234-7482,39.97096,-74.879986,"Mon : 12:00PM - 10:00PM, Tues : 12:00PM - 10:00PM, Wed : 12:00PM - 10:00PM, Thur : 12:00PM - 10:00PM, Fri : 12:00PM - 10:00PM, Sat : 12:00PM - 10:00PM, Sun : 12:00PM - 10:00PM",,,0
Chalfont,301,Chalfont Village Square,178 East Butler Avenue,Chalfont,PA,18914,US,215-822-5094,40.289,-75.2002,"Mon : 12:00PM - 10:00PM, Tues : 12:00PM - 10:00PM, Wed : 12:00PM - 10:00PM, Thur : 12:00PM - 10:00PM, Fri : 12:00PM - 10:00PM, Sat : 12:00PM - 10:00PM, Sun : 12:00PM - 10:00PM",,,0
Grant Avenue,31,1709 Grant Avenue,,Philadelphia,PA,19115,US,215-673-9490,40.0864,-75.0385,"Mon : Closed, Tues : Closed, Wed : Closed, Thur : Closed, Fri : Closed, Sat : Closed, Sun : Closed",,,0
Willow Grove,384,1135 York Road,,Willow Grove,PA,19090,US,215-659-1047,40.1594,-75.1116,"Mon : 10:00AM - 10:00PM, Tues : 10:00AM - 10:00PM, Wed : 10:00AM - 10:00PM, Thur : 10:00AM - 10:00PM, Fri : 10:00AM - 10:00PM, Sat : 10:00AM - 10:00PM, Sun : 10:00AM - 10:00PM",,,0
Limekiln Pike,704,3322 Limekiln Pike,,Chalfont,PA,18914,US,215-997-5777,40.247079,-75.193548,"Mon : 12:00PM - 10:00PM, Tues : 12:00PM - 10:00PM, Wed : 12:00PM - 10:00PM, Thur : 12:00PM - 10:00PM, Fri : 12:00PM - 10:00PM, Sat : 12:00PM - 10:00PM, Sun : 12:00PM - 10:00PM",,,0
Frankford Avenue,560,8601 Frankford Avenue,,Philadelphia,PA,19136,US,215-331-1133,40.046262,-75.015197,"Mon : 11:00AM - 10:00PM, Tues : 11:00AM - 10:00PM, Wed : 11:00AM - 10:00PM, Thur : 11:00AM - 10:00PM, Fri : 11:00AM - 10:00PM, Sat : 11:00AM - 10:00PM, Sun : 11:00AM - 10:00PM",,,0
Holme Circle,185,2991 Welsh Road,,Philadelphia,PA,19152,US,215-676-0900,40.057,-75.0288,"Mon : 11:00AM - 10:00PM, Tues : 11:00AM - 10:00PM, Wed : 11:00AM - 10:00PM, Thur : 11:00AM - 10:00PM, Fri : 11:00AM - 10:00PM, Sat : 11:00AM - 10:00PM, Sun : 11:00AM - 10:00PM",,,0
Bethlehem,159,1907 Stefko Boulevard,,Bethlehem,PA,18017,US,610-419-9814,40.64,-75.3478,"Mon : 12:00PM - 9:00PM, Tues : 12:00PM - 9:00PM, Wed : 12:00PM - 9:00PM, Thur : 12:00PM - 9:00PM, Fri : 12:00PM - 10:00PM, Sat : 12:00PM - 10:00PM, Sun : 12:00PM - 9:00PM",,,0
Hellertown,205,1130 Main Street,,Hellertown,PA,18055,US,610-838-2400,40.5857,-75.3414,"Mon : 12:00PM - 9:00PM, Tues : 12:00PM - 9:00PM, Wed : 12:00PM - 9:00PM, Thur : 12:00PM - 9:00PM, Fri : 12:00PM - 9:00PM, Sat : 12:00PM - 9:00PM, Sun : 12:00PM - 9:00PM",,,0
Medford,164,194 A Route 70 East,,Medford,NJ,08055,US,609-714-9662,39.902269,-74.82776,"Mon : 12:00PM - 10:00PM, Tues : 12:00PM - 10:00PM, Wed : 12:00PM - 10:00PM, Thur : 12:00PM - 10:00PM, Fri : 12:00PM - 10:00PM, Sat : 12:00PM - 10:00PM, Sun : 12:00PM - 10:00PM",,,0
Abington,152,1700 Old York Road,,Abington,PA,19001,US,215-706-0707,40.1315,-75.1162,"Mon : 11:00AM - 10:00PM, Tues : 11:00AM - 10:00PM, Wed : 11:00AM - 10:00PM, Thur : 11:00AM - 10:00PM, Fri : 11:00AM - 10:00PM, Sat : 11:00AM - 10:00PM, Sun : 11:00AM - 10:00PM",,,0
Rhawn Street,6,1901 Rhawn Street,,Philadelphia,PA,19111,US,215-745-5417,40.0626,-75.0576,"Mon : 11:00PM - 10:00PM, Tues : 11:00PM - 10:00PM, Wed : 11:00PM - 10:00PM, Thur : 11:00PM - 10:00PM, Fri : 11:00PM - 10:00PM, Sat : 11:00PM - 10:00PM, Sun : 11:00PM - 10:00PM",,,0
Manahawkin,333,50 West Bay Avenue,,Manahawkin,NJ,08050,US,609-978-0587,39.6957,-74.2614,"Mon : 12:00PM - 10:00PM, Tues : 12:00PM - 10:00PM, Wed : 12:00PM - 10:00PM, Thur : 12:00PM - 10:00PM, Fri : 12:00PM - 10:00PM, Sat : 12:00PM - 10:00PM, Sun : 12:00PM - 10:00PM",,,0
Perkasie,899,7 N 7th Street,,Perkasie,PA,18944,US,215-258-1140,40.374666804195,-75.295658111572,"Mon : 12:00PM - 10:00PM, Tues : 12:00PM - 10:00PM, Wed : 12:00PM - 10:00PM, Thur : 12:00PM - 10:00PM, Fri : 12:00PM - 10:00PM, Sat : 12:00PM - 10:00PM, Sun : 12:00PM - 10:00PM",,,0
Rockledge,64,136 Huntingdon Pike,,Rockledge,PA,19046,US,215-379-1277,40.079392,-75.087806,"Mon : 11:00PM - 10:00PM, Tues : 11:00PM - 10:00PM, Wed : 11:00PM - 10:00PM, Thur : 11:00PM - 10:00PM, Fri : 11:00PM - 10:30PM, Sat : 11:00PM - 10:30PM, Sun : 11:00PM - 10:00PM",,,0
Roosevelt Mall,155,Roosevelt Mall N.E.,2311 Cottman Avenue Kiosk-space K-1,Philadelphia,PA,19149,US,215-332-4404,40.0485,-75.0579,"Mon : 11:00PM - 10:00PM, Tues : 11:00PM - 10:00PM, Wed : 11:00PM - 10:00PM, Thur : 11:00PM - 10:00PM, Fri : 11:00PM - 10:00PM, Sat : 11:00PM - 10:00PM, Sun : 11:00PM - 10:00PM",,,0
Mayfair,14,7112 Frankford Avenue,,Philadelphia,PA,19135,US,215-335-1331,40.034317907526,-75.044345855713,"Mon : 12:00PM - 10:00PM, Tues : 12:00PM - 10:00PM, Wed : 12:00PM - 10:00PM, Thur : 12:00PM - 10:00PM, Fri : 12:00PM - 10:00PM, Sat : 12:00PM - 10:00PM, Sun : 12:00PM - 10:00PM",,,0
Montgomeryville,28,762-A Horsham Road,,Montgomeryville,PA,18936,US,215-368-5151,40.245452,-75.241407,"Mon : 12:00PM - 10:00PM, Tues : 12:00PM - 10:00PM, Wed : 12:00PM - 10:00PM, Thur : 12:00PM - 10:00PM, Fri : 12:00PM - 10:00PM, Sat : 12:00PM - 10:00PM, Sun : 12:00PM - 10:00PM",,,0
Surf City,550,1801 Long Beach Blvd,,Surf City,NJ,08008,US,609-207-6494,39.666334,-74.162505,"Mon : 12:00PM - 10:30PM, Tues : 12:00PM - 10:30PM, Wed : 12:00PM - 10:30PM, Thur : 12:00PM - 10:30PM, Fri : 12:00PM - 10:30PM, Sat : 12:00PM - 10:30PM, Sun : 12:00PM - 10:30PM",,,0
Cinnaminson,200,1811 Cinnaminson Ave.,,Cinnaminson,NJ,08077,US,856-829-8850,39.9897,-75.0117,"Mon : 12:00PM - 10:00PM, Tues : 12:00PM - 10:00PM, Wed : 12:00PM - 10:00PM, Thur : 12:00PM - 10:00PM, Fri : 12:00PM - 10:00PM, Sat : 12:00PM - 10:00PM, Sun : 12:00PM - 10:00PM",,,0
Glenside,54,520 N Easton Road,,Glenside,PA,19038,US,215-885-7181,40.1101,-75.1447,"Mon : 11:00AM - 10:00PM, Tues : 11:00AM - 10:00PM, Wed : 11:00AM - 10:00PM, Thur : 11:00AM - 10:00PM, Fri : 11:00AM - 10:00PM, Sat : 11:00AM - 10:00PM, Sun : 11:00AM - 10:00PM",,,0
Harbison,342,6200 A Frankford Avenue,,Philadelphia,PA,19135,US,215-533-2242,40.0275,-75.0623,"Mon : 12:00PM - 9:00PM, Tues : 12:00PM - 9:00PM, Wed : 12:00PM - 9:00PM, Thur : 12:00PM - 9:00PM, Fri : 12:00PM - 9:00PM, Sat : 12:00PM - 9:00PM, Sun : 12:00PM - 9:00PM",,,0
Moorestown Mall,467,400 Route 38,Space 1660,Moorestown,NJ,08057,US,856-222-9500,39.94632,-74.96371,"Mon : 10:00AM - 9:00PM, Tues : 10:00AM - 9:00PM, Wed : 10:00AM - 9:00PM, Thur : 10:00AM - 9:00PM, Fri : 10:00AM - 9:00PM, Sat : 10:00AM - 9:00PM, Sun : 11:00AM - 6:00PM",,,0
Moorestown,70,250 West Camden Avenue,,Moorestown,NJ,08057,US,856-222-0525,39.9569,-74.9859,"Mon : 12:00PM - 10:00PM, Tues : 12:00PM - 10:00PM, Wed : 12:00PM - 10:00PM, Thur : 12:00PM - 10:00PM, Fri : 12:00PM - 10:00PM, Sat : 12:00PM - 10:00PM, Sun : 12:00PM - 10:00PM",,,0
Evesboro,241,125 N. Maple Ave.,,Evesham,NJ,08053,US,856-596-3230,39.9125,-74.9231,"Mon : 12:00PM - 9:00PM, Tues : 12:00PM - 9:00PM, Wed : 12:00PM - 9:00PM, Thur : 12:00PM - 9:00PM, Fri : 12:00PM - 10:00PM, Sat : 12:00PM - 10:00PM, Sun : 12:00PM - 9:00PM",,,0
Elkins Park,889,Yorktown Plaza,110 Yorktown Plaza,Elkins Park,PA,19027,US,215-886-7482,40.078642,-75.127714,"Mon : 11:00AM - 10:00PM, Tues : 11:00AM - 10:00PM, Wed : 11:00AM - 10:00PM, Thur : 11:00AM - 10:00PM, Fri : 11:00AM - 10:00PM, Sat : 11:00AM - 10:00PM, Sun : 11:00AM - 10:00PM",,,0
Monticello,1265,287 East Broadway,,Monticello,NY,12701,US,845-796-3000,41.651174366848,-74.673728942871,"Mon : 11:30AM - 10:30PM, Tues : 11:30AM - 10:30PM, Wed : 11:30AM - 10:30PM, Thur : 11:30AM - 11:30PM, Fri : 10:30AM - 6:30PM, Sat : 10:00PM - 1:30AM, Sun : 11:00AM - 11:00PM",,,0
Rising Sun,3,5901 Rising Sun Ave.,,Philadelphia,PA,19120,US,215-342-2500,40.044,-75.1024,"Mon : 11:00AM - 10:00PM, Tues : 11:00AM - 10:00PM, Wed : 11:00AM - 10:00PM, Thur : 11:00AM - 10:00PM, Fri : 11:00AM - 10:00PM, Sat : 11:00AM - 10:00PM, Sun : 11:00AM - 10:00PM",,,0
COMING SOON: Middlebury CT,1231,900 Straits Turnpike,,Middlebury,CT,06762,US,,41.534539137359,-73.085517883301,,,,1
Lansdale,16,214 N. Broad Street,,Lansdale,PA,19446,US,215-368-5010,40.2423,-75.283,"Mon : 12:00PM - 10:00PM, Tues : 12:00PM - 10:00PM, Wed : 12:00PM - 10:00PM, Thur : 12:00PM - 10:00PM, Fri : 12:00PM - 10:00PM, Sat : 12:00PM - 10:00PM, Sun : 12:00PM - 10:00PM",,,0
Ambler,158,100 E Butler Pike,,Ambler,PA,19002,US,215-793-9080,40.15514,-75.22192,"Mon : 12:00PM - 10:00PM, Tues : 12:00PM - 10:00PM, Wed : 12:00PM - 10:00PM, Thur : 12:00PM - 10:00PM, Fri : 12:00PM - 10:00PM, Sat : 12:00PM - 10:00PM, Sun : 12:00PM - 10:00PM",,,0
Union,102,1905 Union Boulevard,,Allentown,PA,18103,US,610-434-1010,40.625645,-75.427548,"Mon : 12:00PM - 9:00PM, Tues : 12:00PM - 9:00PM, Wed : 12:00PM - 9:00PM, Thur : 12:00PM - 9:00PM, Fri : 12:00PM - 9:00PM, Sat : 12:00PM - 9:00PM, Sun : 12:00PM - 9:00PM",,,0
2nd and Grange,1045,5744 Mascher Street,,Philadelphia,PA,19120,US,267-368-5311,40.038639,-75.123679,"Mon : 11:00AM - 10:00PM, Tues : 11:00AM - 10:00PM, Wed : 11:00AM - 10:00PM, Thur : 11:00AM - 10:00PM, Fri : 11:00AM - 10:00PM, Sat : 11:00AM - 10:00PM, Sun : 11:00AM - 10:00PM",,,0
Cherry Hill,83,Rt 38   Church Road,Crossroads Plaza,Cherry Hill,NJ,08002,US,856-667-1217,39.9397,-75.0089,"Mon : 12:00PM - 10:00PM, Tues : 12:00PM - 10:00PM, Wed : 12:00PM - 10:00PM, Thur : 12:00PM - 10:00PM, Fri : 12:00PM - 10:00PM, Sat : 12:00PM - 10:00PM, Sun : 12:00PM - 10:00PM",,,0
Hunting Park,171,1923 East Hunting Park Avenue,,Philadelphia,PA,19124,US,215-535-1344,40.0061,-75.0931,"Mon : 12:00PM - 10:00PM, Tues : 12:00PM - 10:00PM, Wed : 12:00PM - 10:00PM, Thur : 12:00PM - 10:00PM, Fri : 12:00PM - 10:00PM, Sat : 12:00PM - 10:00PM, Sun : 12:00PM - 10:00PM",,,0
Wyncote,101,Cedarbrook Mall Shopping Plaza,1000 Easton Road,Wyncote,PA,19095,US,215-572-0222,40.0817194,-75.171639,"Mon : 11:00AM - 10:00PM, Tues : 11:00AM - 10:00PM, Wed : 11:00AM - 10:00PM, Thur : 11:00AM - 10:00PM, Fri : 11:00AM - 10:00PM, Sat : 11:00AM - 10:00PM, Sun : 11:00AM - 10:00PM",,,0
Rockland,1046,100 East Rockland Street,,Philadelphia,PA,19120,US,267-335-4686,40.024508,-75.12353,"Mon : 11:00AM - 10:00PM, Tues : 11:00AM - 10:00PM, Wed : 11:00AM - 10:00PM, Thur : 11:00AM - 10:00PM, Fri : 11:00AM - 10:00PM, Sat : 11:00AM - 10:00PM, Sun : 11:00AM - 10:00PM",,,0
West Oak Lane,932,6901 Stenton Avenue,,Philadelphia,PA,19138,US,215-424-2301,40.0558,-75.1587,"Mon : 11:00AM - 10:00PM, Tues : 11:00AM - 10:00PM, Wed : 11:00AM - 10:00PM, Thur : 11:00AM - 10:00PM, Fri : 11:00AM - 10:00PM, Sat : 11:00AM - 10:00PM, Sun : 11:00AM - 10:00PM",,,0
Wyndmoor,11,900 East Willow Grove Avenue,,Wyndmoor,PA,19038,US,215-948-3657,40.082102,-75.188806,"Mon : 11:00AM - 10:00PM, Tues : 11:00AM - 10:00PM, Wed : 11:00AM - 10:00PM, Thur : 11:00AM - 10:00PM, Fri : 11:00AM - 10:00PM, Sat : 11:00AM - 10:00PM, Sun : 11:00AM - 10:00PM",,,0
Flourtown,349,1527 Bethlehem Pike,,Flourtown,PA,19031,US,267-422-3486,40.105738,-75.213762,"Mon : 11:00AM - 10:00PM, Tues : 11:00AM - 10:00PM, Wed : 11:00AM - 10:00PM, Thur : 11:00AM - 10:00PM, Fri : 11:00AM - 10:00PM, Sat : 11:00AM - 10:00PM, Sun : 11:00AM - 10:00PM",,,0
Brodheadsville,224,1268 Route 209,Suite A,Gilbert,PA,18331,US,610-951-6040,40.915416,-75.437171,"Mon : 12:00PM - 9:00PM, Tues : 12:00PM - 9:00PM, Wed : 12:00PM - 9:00PM, Thur : 12:00PM - 9:00PM, Fri : 12:00PM - 10:00PM, Sat : 12:00PM - 10:00PM, Sun : 12:00PM - 9:00PM",,,0
Mt Airy,931,8201 Stenton Avenue,,Philadelphia,PA,19150,US,215-242-0206,40.067846,-75.17937,"Mon : 11:00AM - 10:00PM, Tues : 11:00AM - 10:00PM, Wed : 11:00AM - 10:00PM, Thur : 11:00AM - 10:00PM, Fri : 11:00AM - 10:00PM, Sat : 11:00AM - 10:00PM, Sun : 11:00AM - 10:00PM",,,0
Ellisburg Circle,477,Ellisburg Circle Shopping Center,1648 North Kings Highway,Cherry Hill,NJ,08034,US,856-428-8888,39.91569,-75.00819,"Mon : 12:00PM - 10:00PM, Tues : 12:00PM - 10:00PM, Wed : 12:00PM - 10:00PM, Thur : 12:00PM - 10:00PM, Fri : 12:00PM - 10:00PM, Sat : 12:00PM - 10:00PM, Sun : 12:00PM - 10:00PM",,,0
Pennsauken,130,4747 Westfield Avenue,,Pennsauken,NJ,08110,US,856-317-0116,39.958,-75.0661,"Mon : 12:00PM - 10:00PM, Tues : 12:00PM - 10:00PM, Wed : 12:00PM - 10:00PM, Thur : 12:00PM - 10:00PM, Fri : 12:00PM - 10:00PM, Sat : 12:00PM - 10:00PM, Sun : 12:00PM - 10:00PM",,,0
Mount Pocono,322,613 Pocono Blvd.,,Mount Pocono,PA,18344,US,570-839-6955,41.1336,-75.3635,"Mon :  - , Tues :  - , Wed :  - , Thur :  - , Fri :  - , Sat :  - , Sun :  - ",,,0
Emaus Avenue,82,1052 W. Emaus Avenue,,Allentown,PA,18103,US,610-797-6666,40.570374,-75.470313,"Mon : 12:00PM - 10:00PM, Tues : 12:00PM - 10:00PM, Wed : 12:00PM - 10:00PM, Thur : 12:00PM - 10:00PM, Fri : 12:00PM - 10:00PM, Sat : 12:00PM - 10:00PM, Sun : 12:00PM - 10:00PM",,,0
Fishtown,66,2499 H Aramingo Avenue,,Philadelphia,PA,19125,US,215-425-8150,39.9762,-75.1195,"Mon : 12:00PM - 9:00PM, Tues : 12:00PM - 9:00PM, Wed : 12:00PM - 9:00PM, Thur : 12:00PM - 9:00PM, Fri : 12:00PM - 10:00PM, Sat : 12:00PM - 10:00PM, Sun : 12:00PM - 9:00PM",,,0
Germantown,1049,5815 Wayne Avenue,,Philadelphia,PA,19144,US,267-385-5452,40.033051,-75.180869,"Mon : 12:00PM - 9:00PM, Tues : 12:00PM - 9:00PM, Wed : 12:00PM - 9:00PM, Thur : 12:00PM - 9:00PM, Fri : 12:00PM - 9:00PM, Sat : 12:00PM - 9:00PM, Sun : 12:00PM - 9:00PM",,,0
Blue Bell,43,1188 DeKalb Pike,,Blue Bell,PA,19422,US,610-279-5505,40.161914,-75.294921,"Mon : 12:00PM - 10:00PM, Tues : 12:00PM - 10:00PM, Wed : 12:00PM - 10:00PM, Thur : 12:00PM - 10:00PM, Fri : 12:00PM - 10:00PM, Sat : 12:00PM - 10:00PM, Sun : 12:00PM - 10:00PM",,,0
Wissahickon,1047,2271 W. Hunting Park Avenue,,Philadelphia,PA,19140,US,267-639-6373,40.010324,-75.166797,"Mon : 11:00AM - 10:00PM, Tues : 11:00AM - 10:00PM, Wed : 11:00AM - 10:00PM, Thur : 11:00AM - 10:00PM, Fri : 11:00AM - 10:00PM, Sat : 11:00AM - 10:00PM, Sun : 11:00AM - 10:00PM",,,0
Westmont,382,101 Haddon Avenue,,Westmont,NJ,08108,US,856-858-1317,39.9117,-75.0524,"Mon : 12:00PM - 10:00PM, Tues : 12:00PM - 10:00PM, Wed : 12:00PM - 10:00PM, Thur : 12:00PM - 10:00PM, Fri : 12:00PM - 10:00PM, Sat : 12:00PM - 10:00PM, Sun : 12:00PM - 10:00PM",,,0
Whitehall,135,2874 Macarthur Road,,Whitehall,PA,18052,US,610-439-1100,40.6477,-75.4967,"Mon : 12:00PM - 10:00PM, Tues : 12:00PM - 10:00PM, Wed : 12:00PM - 10:00PM, Thur : 12:00PM - 10:00PM, Fri : 12:00PM - 10:00PM, Sat : 12:00PM - 10:00PM, Sun : 12:00PM - 10:00PM",,,0
Haven Beach,255,12010 Long Beach Blvd.,,Haven Beach,NJ,08008,US,609-492-6400,39.5913,-74.22,"Mon : 12:00PM - 10:00PM, Tues : 12:00PM - 10:00PM, Wed : 12:00PM - 10:00PM, Thur : 12:00PM - 10:00PM, Fri : 12:00PM - 10:00PM, Sat : 12:00PM - 10:00PM, Sun : 12:00PM - 10:00PM",,,0
Harleysville,379,329 Main Street,,Harleysville,PA,19438,US,215-256-4606,40.2709,-75.3788,"Mon : 12:00PM - 10:00PM, Tues : 12:00PM - 10:00PM, Wed : 12:00PM - 10:00PM, Thur : 12:00PM - 10:00PM, Fri : 12:00PM - 10:00PM, Sat : 12:00PM - 10:00PM, Sun : 12:00PM - 10:00PM",,,0
Voorhees,254,106 Haddonfield-Berlin Rd.,,Voorhees,NJ,08043,US,856-429-4452,39.8578,-74.9871,"Mon : 12:00PM - 10:00PM, Tues : 12:00PM - 10:00PM, Wed : 12:00PM - 10:00PM, Thur : 12:00PM - 10:00PM, Fri : 12:00PM - 10:00PM, Sat : 12:00PM - 10:00PM, Sun : 12:00PM - 10:00PM",,,0
Northampton,438,3219 Cherryville Road,,Northampton,PA,18067,US,610-262-9020,40.706318,-75.506203,"Mon : 12:00PM - 9:00PM, Tues : 12:00PM - 9:00PM, Wed : 12:00PM - 9:00PM, Thur : 12:00PM - 9:00PM, Fri : 12:00PM - 9:00PM, Sat : 12:00PM - 9:00PM, Sun : 12:00PM - 9:00PM",,,0
Andorra,933,8945 Ridge Avenue,,Philadelphia,PA,19128,US,267-385-7038,40.070255,-75.240694,"Mon : 11:00AM - 10:00PM, Tues : 11:00AM - 10:00PM, Wed : 11:00AM - 10:00PM, Thur : 11:00AM - 10:00PM, Fri : 11:00AM - 10:00PM, Sat : 11:00AM - 10:00PM, Sun : 11:00AM - 10:00PM",,,0
Tilghman,61,1912-18 Tilghman Street,,Allentown,PA,18104,US,610-435-4501,40.6048,-75.5011,"Mon : 12:00PM - 10:00PM, Tues : 12:00PM - 10:00PM, Wed : 12:00PM - 10:00PM, Thur : 12:00PM - 10:00PM, Fri : 12:00PM - 10:00PM, Sat : 12:00PM - 10:00PM, Sun : 12:00PM - 10:00PM",,,0
Chestnut,109,610 Chestnut Street,,Emmaus,PA,18049,US,610-965-6899,40.532954,-75.496514,"Mon : 12:00PM - 9:00PM, Tues : 12:00PM - 9:00PM, Wed : 12:00PM - 9:00PM, Thur : 12:00PM - 9:00PM, Fri : 12:00PM - 10:00PM, Sat : 12:00PM - 10:00PM, Sun : 12:00PM - 9:00PM",,,0
Little Egg Harbor,394,695 Route 9 South,,Little Egg Harbor,NJ,08087,US,609-879-5517,39.600595,-74.372722,"Mon : 12:00PM - 10:00PM, Tues : 12:00PM - 10:00PM, Wed : 12:00PM - 10:00PM, Thur : 12:00PM - 10:00PM, Fri : 12:00PM - 10:00PM, Sat : 12:00PM - 10:00PM, Sun : 12:00PM - 10:00PM",,,0
Manayunk,433,5420 Ridge Avenue,,Philadelphia,PA,19128,US,215-482-3690,40.022194,-75.209232,"Mon : 11:00AM - 10:30PM, Tues : 11:00AM - 10:30PM, Wed : 11:00AM - 10:30PM, Thur : 11:00AM - 10:30PM, Fri : 11:00AM - 10:30PM, Sat : 11:00AM - 10:30PM, Sun : 11:00AM - 10:30PM",,,0
Ivy Ridge,53,499 Domino Lane,,Philadelphia,PA,19128,US,,40.04537,-75.232713,"Mon : 11:00AM - 10:00PM, Tues : 11:00AM - 10:00PM, Wed : 11:00AM - 10:00PM, Thur : 11:00AM - 10:00PM, Fri : 11:00AM - 10:00PM, Sat : 11:00AM - 10:00PM, Sun : 11:00AM - 10:00PM",,,0
Plymouth Meeting,48,201 W. Ridge Pike,,Conshohocken,PA,19428,US,610-940-1505,40.094396,-75.289331,"Mon : 12:00PM - 10:00PM, Tues : 12:00PM - 10:00PM, Wed : 12:00PM - 10:00PM, Thur : 12:00PM - 10:00PM, Fri : 12:00PM - 10:00PM, Sat : 12:00PM - 10:00PM, Sun : 12:00PM - 10:00PM",,,0
Berlin,227,252 South Whitehorse Pike,,Berlin,NJ,08009,US,856-767-2711,39.7878,-74.925,"Mon : 12:00PM - 10:00PM, Tues : 12:00PM - 10:00PM, Wed : 12:00PM - 10:00PM, Thur : 12:00PM - 10:00PM, Fri : 12:00PM - 10:00PM, Sat : 12:00PM - 10:00PM, Sun : 12:00PM - 10:00PM",,,0
South Street,30,239 South Street,,Philadelphia,PA,19147,US,215-629-3910,39.9415,-75.1472,"Mon : 12:00PM - 9:00PM, Tues : 12:00PM - 9:00PM, Wed : 12:00PM - 9:00PM, Thur : 12:00PM - 9:00PM, Fri : 12:00PM - 10:00PM, Sat : 12:00PM - 10:00PM, Sun : 12:00PM - 9:00PM",,,0
Norristown,20,1727 Markley Street,,Norristown,PA,19401,US,610-292-8575,40.132484,-75.334247,"Mon : 10:00AM - 10:00PM, Tues : 10:00AM - 10:00PM, Wed : 10:00AM - 10:00PM, Thur : 10:00AM - 10:00PM, Fri : 10:00AM - 10:00PM, Sat : 10:00AM - 10:00PM, Sun : 10:00AM - 10:00PM",,,0
15th and Spruce,376,1511 Spruce Street,,Philadelphia,PA,19102,US,215-545-7661,39.9473,-75.1667,"Mon : 12:00PM - 9:00PM, Tues : 12:00PM - 9:00PM, Wed : 12:00PM - 9:00PM, Thur : 12:00PM - 9:00PM, Fri : 12:00PM - 10:00PM, Sat : 12:00PM - 10:00PM, Sun : 12:00PM - 9:00PM",,,0
South Street West,886,2124 South Street,,Philadelphia,PA,19146,US,267-428-3533,39.945111,-75.177773,"Mon : 12:00PM - 10:00PM, Tues : 12:00PM - 10:00PM, Wed : 12:00PM - 10:00PM, Thur : 12:00PM - 10:00PM, Fri : 12:00PM - 11:00PM, Sat : 11:00AM - 11:00PM, Sun : 11:00AM - 10:00PM",,,0
Penns Cup,184,427 Pottstown Avenue,,Pennsburg,PA,18073,US,215-679-3301,40.3944,-75.5009,"Mon : 11:00AM - 10:00PM, Tues : 11:00AM - 10:00PM, Wed : 11:00AM - 10:00PM, Thur : 11:00AM - 10:00PM, Fri : 11:00AM - 10:00PM, Sat : 11:00AM - 10:00PM, Sun : 11:00AM - 10:00PM",,,0
Runnemede,362,26-28 South Black Horse Pike,,Runnemede,NJ,08078,US,856-312-1305,39.8483,-75.0724,"Mon : 12:00PM - 10:00PM, Tues : 12:00PM - 10:00PM, Wed : 12:00PM - 10:00PM, Thur : 12:00PM - 10:00PM, Fri : 12:00PM - 10:00PM, Sat : 12:00PM - 10:00PM, Sun : 12:00PM - 10:00PM",,,0
Broad and Jackson,157,2200 S. Broad St At Jackson,,Philadelphia,PA,19145,US, 215-398-5936,39.923,-75.1702,"Mon : 11:00AM - 10:00PM, Tues : 11:00AM - 10:00PM, Wed : 11:00AM - 10:00PM, Thur : 11:00AM - 10:00PM, Fri : 11:00AM - 10:00PM, Sat : 11:00AM - 10:00PM, Sun : 11:00AM - 10:00PM",,,0
COMING SOON: Darien Street - Fixed,20157,2700 S Darien Street,1st Floor,Philadelphia,PA,19148,US,267-457-3330,39.9159,-75.1627,"Mon : 11:00AM - 10:00PM, Tues : 11:00AM - 10:00PM, Wed : 11:00AM - 10:00PM, Thur : 11:00AM - 10:00PM, Fri : 11:00AM - 10:00PM, Sat : 11:00AM - 10:00PM, Sun : 11:00AM - 10:00PM",,,1
59th and Lancaster,540,5899 Lancaster Avenue,Unit # 1,Philadelphia,PA,19131,US,484-430-1774,39.982196,-75.239662,"Mon : 12:00PM - 7:00PM, Tues : 12:00PM - 7:00PM, Wed : 12:00PM - 7:00PM, Thur : 12:00PM - 7:00PM, Fri : 12:00PM - 7:00PM, Sat : 12:00PM - 7:00PM, Sun : 12:00PM - 7:00PM",,,0
Pine Hill,484,511 Erial Road,,Pine Hill,NJ,08021,US,856-346-1441,39.788376,-74.990287,"Mon : 12:00PM - 10:00PM, Tues : 12:00PM - 10:00PM, Wed : 12:00PM - 10:00PM, Thur : 12:00PM - 10:00PM, Fri : 12:00PM - 10:00PM, Sat : 12:00PM - 10:00PM, Sun : 12:00PM - 10:00PM",,,0
Wescosville,169,5681 Hamilton Street,,Wescosville,PA,18106,US,610-481-9310,40.5607,-75.5678,"Mon : 12:00PM - 10:00PM, Tues : 12:00PM - 10:00PM, Wed : 12:00PM - 10:00PM, Thur : 12:00PM - 10:00PM, Fri : 12:00PM - 10:00PM, Sat : 12:00PM - 10:00PM, Sun : 12:00PM - 10:00PM",,,0
20th and Oregon,378,1901 West Oregon Avenue,,Philadelphia,PA,19145,US,215-467-0102,39.918257,-75.1807,"Mon : 11:30PM - 10:00PM, Tues : 11:30PM - 10:00PM, Wed : 11:30PM - 10:00PM, Thur : 11:30PM - 10:00PM, Fri : 11:30PM - 10:00PM, Sat : 11:30PM - 10:00PM, Sun : 11:30PM - 10:00PM",,,0
Citizens Bank Park,1345,One Citizens Bank Way,,Philadelphia,PA,19148,US,,39.905950504932,-75.166568756104,,,,0
Dorney Park,927,4000 Dorney Park Road,,Allentown ,PA,18104,US,,40.517851,-75.565028,"Mon : Closed, Tues : Closed, Wed : Closed, Thur : Closed, Fri : Closed, Sat : Closed, Sun : Closed",,,0
Dorney Park II - Water Park,928,4000 Dorney Park Road,,Allentown,PA,18104,US,,40.517851,-75.565028,"Mon : Closed, Tues : Closed, Wed : Closed, Thur : Closed, Fri : Closed, Sat : Closed, Sun : Closed",,,0
Macungie,397,100 West Main Street,P.O. Box 72,Macungie,PA,18062,US,610-966-5560,40.517851,-75.565028,"Mon : 12:00 - 10:00, Tues : 12:00 - 10:00, Wed : 12:00 - 10:00, Thur : 12:00 - 10:00, Fri : 12:00 - 10:00, Sat : 12:00 - 10:00, Sun : 12:00 - 10:00",,,0
Trooper,166,2810 W. Ridge Pike,,Norristown,PA,19403,US,610-631-8492,40.147492,-75.396115,"Mon : 12:00PM - 10:00PM, Tues : 12:00PM - 10:00PM, Wed : 12:00PM - 10:00PM, Thur : 12:00PM - 10:00PM, Fri : 12:00PM - 10:00PM, Sat : 12:00PM - 10:00PM, Sun : 12:00PM - 10:00PM",,,0
Blackwood,32,1344 Blackwood/Clementon Road,,Clementon,NJ,08021,US,856-783-1774,39.803455,-75.032297,"Mon : 12:00PM - 10:00PM, Tues : 12:00PM - 10:00PM, Wed : 12:00PM - 10:00PM, Thur : 12:00PM - 10:00PM, Fri : 12:00PM - 10:00PM, Sat : 12:00AM - 10:00PM, Sun : 12:00AM - 10:00PM",,,0
Walnutport,181,405 South Best Avenue,,Walnutport,PA,18088,US,610-767-4907,40.752,-75.5911,"Mon : 12:00PM - 10:00PM, Tues : 12:00PM - 10:00PM, Wed : 12:00PM - 10:00PM, Thur : 12:00PM - 10:00PM, Fri : 12:00PM - 10:00PM, Sat : 12:00PM - 10:00PM, Sun : 12:00PM - 10:00PM",,,0
Zieglerville,486,1202 North Gravel Pike,Suite 400,Zieglerville,PA,19492,US,610-287-2033,40.275762,-75.479165,"Mon : 12:00PM - 10:00PM, Tues : 12:00PM - 10:00PM, Wed : 12:00PM - 10:00PM, Thur : 12:00PM - 10:00PM, Fri : 12:00PM - 10:00PM, Sat : 12:00PM - 10:00PM, Sun : 12:00PM - 10:00PM",,,0
Wells Fargo Center,1311,3601 South Broad Street,,Philadelphia,PA,19145,US,,39.901176895509,-75.172040462494,"Mon : Closed, Tues : Closed, Wed : Closed, Thur : Closed, Fri : Closed, Sat : Closed, Sun : Closed",,,0
Schnecksville,231,4041 Route 309,,Schnecksville,PA,18078,US,610-799-5383,40.6569,-75.6005,"Mon : 11:00PM - 10:00PM, Tues : 11:00PM - 10:00PM, Wed : 11:00PM - 10:00PM, Thur : 11:00PM - 10:00PM, Fri : 11:00PM - 10:00PM, Sat : 11:00PM - 10:00PM, Sun : 11:00PM - 10:00PM",,,0
City Avenue,225,City Avenue S.C.,7718 City Avenue,Philadelphia,PA,19151,US,215-397-4325,39.9776,-75.274,"Mon : 11:00PM - 10:00PM, Tues : 11:00PM - 10:00PM, Wed : 11:00PM - 10:00PM, Thur : 11:00PM - 10:00PM, Fri : 11:00PM - 10:00PM, Sat : 11:00AM - 10:00PM, Sun : 11:00AM - 10:00PM",,,0
Bryn Mawr,803,958 County Line Road,,Bryn Mawr,PA,19010,US,484-380-3813,40.021459,-75.324979,"Mon : 12:00PM - 10:00PM, Tues : 12:00PM - 10:00PM, Wed : 12:00PM - 10:00PM, Thur : 12:00PM - 10:00PM, Fri : 12:00PM - 10:00PM, Sat : 12:00PM - 10:00PM, Sun : 12:00PM - 10:00PM",,,0
Collegeville,56,Collegeville S. C.,222 W Main Street,Collegeville,PA,19426,US,610-489-5804,40.184019,-75.451441,"Mon : 11:00PM - 10:00PM, Tues : 11:00PM - 10:00PM, Wed : 11:00PM - 10:00PM, Thur : 11:00PM - 10:00PM, Fri : 11:00PM - 10:00PM, Sat : 11:00PM - 10:00PM, Sun : 11:00PM - 10:00PM",,,0
Hammonton,153,Village Shoppes,10 N. White Horse Pike,Hammonton,NJ,08037,US,609-567-8464,39.6483,-74.7902,"Mon : 12:00PM - 10:00PM, Tues : 12:00PM - 10:00PM, Wed : 12:00PM - 10:00PM, Thur : 12:00PM - 10:00PM, Fri : 12:00PM - 10:00PM, Sat : 12:00PM - 10:00PM, Sun : 12:00PM - 10:00PM",,,0
Upper Darby,885,Barclay Square Shopping Center,1550 Garrett Road,Upper Darby,PA,19082,US,,39.953403,-75.274847,"Mon : 12:00PM - 10:00PM, Tues : 12:00PM - 10:00PM, Wed : 12:00PM - 10:00PM, Thur : 12:00PM - 10:00PM, Fri : 12:00PM - 10:00PM, Sat : 12:00PM - 10:00PM, Sun : 12:00PM - 10:00PM",,,0
Havertown,58,55 W Eagle Road,,Havertown,PA,19083,US,610-789-8808,39.986275,-75.31306,"Mon : 11:00PM - 10:00PM, Tues : 11:00PM - 10:00PM, Wed : 11:00PM - 10:00PM, Thur : 11:00PM - 10:00PM, Fri : 11:00PM - 10:00PM, Sat : 11:00AM - 10:00PM, Sun : 11:00AM - 10:00PM",,,0
West Chester Pike,912,500 West Chester Pike,,Havertown,PA,19083,US,484-453-8537,39.970407,-75.304783,"Mon : 12:00PM - 10:00PM, Tues : 12:00PM - 10:00PM, Wed : 12:00PM - 10:00PM, Thur : 12:00PM - 10:00PM, Fri : 12:00PM - 10:00PM, Sat : 12:00PM - 10:00PM, Sun : 12:00PM - 10:00PM",,,0
Woodbury,163,245 South Broad Street,,Woodbury,NJ,08096,US,856-853-1937,39.8343,-75.1563,"Mon : 12:00AM - 10:00PM, Tues : 12:00AM - 10:00PM, Wed : 12:00AM - 10:00PM, Thur : 12:00AM - 10:00PM, Fri : 12:00AM - 10:00PM, Sat : 12:00AM - 10:00PM, Sun : 12:00AM - 10:00PM",,,0
Southington,324,279 Queen Street,,Southington,CT,06489,US,860-276-8829,41.624419,-72.87295,"Mon : 12:00PM - 9:00PM, Tues : 12:00PM - 9:00PM, Wed : 12:00PM - 9:00PM, Thur : 12:00PM - 9:00PM, Fri : 12:00PM - 10:00PM, Sat : 12:00PM - 10:00PM, Sun : 12:00PM - 9:00PM",,,0
Collingdale,29,445 Macdade Boulevard,,Collingdale,PA,19023,US,610-461-1455,39.914285,-75.271923,"Mon : 11:00AM - 10:00PM, Tues : 11:00AM - 10:00PM, Wed : 11:00AM - 10:00PM, Thur : 11:00AM - 10:00PM, Fri : 11:00AM - 10:00PM, Sat : 11:00AM - 10:00PM, Sun : 11:00AM - 10:00PM",,,0
Sewell,453,Harbour Place Shopping Center,288 Egg Harbor Road,Sewell,NJ,08080,US,856-589-9299,39.766177,-75.086037,,,,0
Sicklerville,44,3321 South Blackhorse Pike,Ardmore Shopping Ct Unit # 3,Sicklerville,NJ,08081,US,856-875-9533,39.7272,-75.0312,"Mon : 12:00PM - 10:00PM, Tues : 12:00PM - 10:00PM, Wed : 12:00PM - 10:00PM, Thur : 12:00PM - 10:00PM, Fri : 12:00PM - 10:00PM, Sat : 12:00PM - 10:00PM, Sun : 12:00PM - 10:00PM",,,0
Drexel Hill,81,5060 Township Line Road,,Drexel Hill,PA,19026,US,610-446-0209,39.9533,-75.3227,"Mon : 12:00PM - 9:00PM, Tues : 12:00PM - 9:00PM, Wed : 12:00PM - 9:00PM, Thur : 12:00PM - 9:00PM, Fri : 12:00PM - 10:00PM, Sat : 12:00PM - 10:00PM, Sun : 12:00PM - 9:00PM",,,0
Royersford,124,Limerick Square Shopping Center,70 Buckwalter Road Ste #360,Royersford,PA,19468,US,610-948-3200,40.199,-75.5242,"Mon : 11:00PM - 10:00PM, Tues : 11:00PM - 10:00PM, Wed : 11:00PM - 10:00PM, Thur : 11:00PM - 10:00PM, Fri : 11:00PM - 10:00PM, Sat : 11:00PM - 10:00PM, Sun : 11:00PM - 10:00PM",,,0
Marple Township,235,2105 Sproul Road,,Broomall,PA,19008,US,610-355-0340,39.966816,-75.358862,"Mon : 11:00AM - 10:00PM, Tues : 11:00AM - 10:00PM, Wed : 11:00AM - 10:00PM, Thur : 11:00AM - 10:00PM, Fri : 11:00AM - 10:00PM, Sat : 11:00AM - 10:00PM, Sun : 11:00AM - 10:00PM",,,0
Folsom,18,1550 Macdade Boulevard,,Folsom,PA,19033,US,610-586-7330,39.8942,-75.3179,"Mon : 11:00AM - 11:00PM, Tues : 11:00AM - 11:00PM, Wed : 11:00AM - 11:00PM, Thur : 11:00AM - 11:00PM, Fri : 11:00AM - 11:00PM, Sat : 11:00AM - 11:00PM, Sun : 11:00AM - 11:00PM",,,0
Boyertown,340,309 East Philadelphia Avenue,,Boyertown,PA,19512,US,610-473-0074,40.331,-75.6337,"Mon : 11:00AM - 10:00PM, Tues : 11:00AM - 10:00PM, Wed : 11:00AM - 10:00PM, Thur : 11:00AM - 10:00PM, Fri : 11:00AM - 10:00PM, Sat : 11:00AM - 10:00PM, Sun : 11:00AM - 10:00PM",,,0
Mantua,311,Mantua Plaza,570 Bridgeton Pike,Mantua,NJ,08051,US,856-468-0404,39.778727360954,-75.185623168945,"Mon : 12:00PM - 10:00PM, Tues : 12:00PM - 10:00PM, Wed : 12:00PM - 10:00PM, Thur : 12:00PM - 10:00PM, Fri : 12:00PM - 10:00PM, Sat : 12:00PM - 10:00PM, Sun : 12:00PM - 10:00PM",,,0
Farmington,405,358 Scott Swamp Road,,Farmington,CT,06032,US,860-677-0880,41.7028,-72.8881,"Mon : 12:00PM - 10:00PM, Tues : 12:00PM - 10:00PM, Wed : 12:00PM - 10:00PM, Thur : 12:00PM - 10:00PM, Fri : 12:00PM - 10:00PM, Sat : 12:00PM - 10:00PM, Sun : 12:00PM - 10:00PM",,,0
Paoli,100,1776 East Lancaster Avenue,,Paoli,PA,19301,US,610-889-0100,40.042208,-75.474027,"Mon : 11:30AM - 10:00PM, Tues : 11:30AM - 10:00PM, Wed : 11:30AM - 10:00PM, Thur : 11:30AM - 10:00PM, Fri : 11:30AM - 10:00PM, Sat : 11:30AM - 10:00PM, Sun : 11:30AM - 10:00PM",,,0
Phoenixville,189,411 Schuylkill Road,,Phoenixville,PA,19460,US,610-933-7742,40.140953,-75.547029,"Mon : 11:00PM - 10:00PM, Tues : 11:00PM - 10:00PM, Wed : 11:00PM - 10:00PM, Thur : 11:00PM - 10:00PM, Fri : 11:00PM - 10:00PM, Sat : 11:00PM - 10:00PM, Sun : 11:00PM - 10:00PM",,,0
Pottstown,237,1350 N. Charlotte Street,,Pottstown,PA,19464,US,610-970-5152,40.267905,-75.624779,"Mon : 11:00AM - 10:00PM, Tues : 11:00AM - 10:00PM, Wed : 11:00AM - 10:00PM, Thur : 11:00AM - 10:00PM, Fri : 11:00AM - 10:00PM, Sat : 11:00AM - 10:00PM, Sun : 11:00AM - 10:00PM",,,0
Lehighton,198,1068 Blakeslee Boulevard East,,Lehighton,PA,18235,US,610-379-5434,40.8174,-75.7309,"Mon : 11:00AM - 10:00PM, Tues : 11:00AM - 10:00PM, Wed : 11:00AM - 10:00PM, Thur : 11:00AM - 10:00PM, Fri : 11:00AM - 10:00PM, Sat : 11:00AM - 10:00PM, Sun : 11:00AM - 10:00PM",,,0
Media,21,220 S. Providence Road,,Media,PA,19063,US,610-566-2283,39.915,-75.3802,"Mon : 10:30AM - 10:30PM, Tues : 10:30AM - 10:30PM, Wed : 10:30AM - 10:30PM, Thur : 10:30AM - 10:30PM, Fri : 10:30AM - 10:30PM, Sat : 10:30AM - 10:30PM, Sun : 10:30AM - 10:30PM",,,0
Glassboro,34,109 S. Delsea Drive,,Glassboro,NJ,08028,US,856-863-1886,39.6958,-75.104,"Mon : 12:00PM - 10:00PM, Tues : 12:00PM - 10:00PM, Wed : 12:00PM - 10:00PM, Thur : 12:00PM - 10:00PM, Fri : 12:00PM - 10:00PM, Sat : 12:00PM - 10:00PM, Sun : 12:00PM - 10:00PM",,,0
Eddystone,312,1435 Chester Pike,,Eddystone,PA,19022,US,610-872-3031,39.8651,-75.3436,"Mon : 12:00AM - 10:00PM, Tues : 12:00AM - 10:00PM, Wed : 12:00AM - 10:00PM, Thur : 12:00AM - 10:00PM, Fri : 12:00AM - 10:00PM, Sat : 12:00AM - 10:00PM, Sun : 12:00AM - 10:00PM",,,0
Absecon,248,453 White Horse Pike,,Absecon,NJ,08201,US,609-677-8866,39.428899,-74.507174,"Mon : 10:00PM - 10:30PM, Tues : 10:00PM - 10:30PM, Wed : 10:00PM - 10:30PM, Thur : 10:00PM - 10:30PM, Fri : 10:00PM - 10:00PM, Sat : 10:00PM - 10:00PM, Sun : 10:00PM - 10:00PM",,,0
Brigantine,307,1318 West Brigantine Avenue,,Brigantine,NJ,08203,US,609-266-7500,39.402,-74.3727,"Mon : 11:00PM - 10:30PM, Tues : 11:00PM - 10:30PM, Wed : 11:00PM - 10:30PM, Thur : 11:00PM - 10:30PM, Fri : 11:00PM - 10:30PM, Sat : 11:00PM - 10:30PM, Sun : 11:00PM - 10:00PM",,,0
Brookhaven,45,4420 Edgemont Avenue,,Brookhaven,PA,19015,US,610-876-7633,39.87397,-75.391697,"Mon : 11:00AM - 10:00PM, Tues : 11:00AM - 10:00PM, Wed : 11:00AM - 10:00PM, Thur : 11:00AM - 10:00PM, Fri : 11:00AM - 10:00PM, Sat : 11:00AM - 10:00PM, Sun : 11:00AM - 10:00PM",,,0
Coventry,125,The Shoppes at Coventry Square,501 West Schuylkill Road Store #5,Pottstown,PA,19465,US,610-718-9291,40.2338,-75.6679,"Mon : 12:00PM - 10:00PM, Tues : 12:00PM - 10:00PM, Wed : 12:00PM - 10:00PM, Thur : 12:00PM - 10:00PM, Fri : 12:00PM - 10:00PM, Sat : 12:00PM - 10:00PM, Sun : 12:00PM - 10:00PM",,,0
Frazer,68,430 Lancaster Pike,,Malvern,PA,19355,US,610-644-2920,40.03735,-75.55896,"Mon : 12:00PM - 10:00PM, Tues : 12:00PM - 10:00PM, Wed : 12:00PM - 10:00PM, Thur : 12:00PM - 10:00PM, Fri : 12:00PM - 10:00PM, Sat : 12:00PM - 10:00PM, Sun : 12:00PM - 10:00PM",,,0
Pughtown,503,2323 Pottstown Pike,,Pottstown,PA,19465,US,610-469-6669,40.168767,-75.665583,"Mon : 12:00PM - 10:00PM, Tues : 12:00PM - 10:00PM, Wed : 12:00PM - 10:00PM, Thur : 12:00PM - 10:00PM, Fri : 12:00PM - 10:00PM, Sat : 12:00PM - 10:00PM, Sun : 12:00PM - 10:00PM",,,0
Aston,12,5004 Pennell Road,,Aston,PA,19014,US,610-497-9588,39.8643,-75.4277,"Mon : 11:00AM - 10:00PM, Tues : 11:00AM - 10:00PM, Wed : 11:00AM - 10:00PM, Thur : 11:00AM - 10:00PM, Fri : 11:00AM - 10:00PM, Sat : 11:00AM - 10:00PM, Sun : 11:00AM - 10:00PM",,,0
Atlantic City,734,1515 Boardwalk,,Atlantic City,NJ,08401,US,609-246-6808,39.35707,-74.426581,"Mon : 11:00AM - 10:00PM, Tues : 11:00AM - 10:00PM, Wed : 11:00AM - 10:00PM, Thur : 11:00AM - 10:00PM, Fri : 11:00AM - 10:00PM, Sat : 11:00AM - 10:00PM, Sun : 11:00AM - 10:00PM",,,0
West Hartford,649,1134 New Britain Avenue,,West Hartford,CT,06110,US,860-986-7717,41.732813,-72.733312,"Mon : 12:00PM - 9:00PM, Tues : 12:00PM - 9:00PM, Wed : 12:00PM - 9:00PM, Thur : 12:00PM - 9:00PM, Fri : 12:00PM - 9:00PM, Sat : 12:00PM - 9:00PM, Sun : 12:00PM - 9:00PM",,,0
Northfield,173,1200 Tilton Road,,Northfield,NJ,08225,US,609-485-2311,39.375,-74.5531,"Mon : 12:00PM - 9:00PM, Tues : 12:00PM - 9:00PM, Wed : 12:00PM - 9:00PM, Thur : 12:00PM - 9:00PM, Fri : 12:00PM - 9:00PM, Sat : 12:00PM - 9:30PM, Sun : 12:00PM - 9:30PM",,,0
Rocky Hill,392,1783 Silas Deane Highway,,Rocky Hill,CT,06067,US,860-436-4152,41.677142,-72.650885,"Mon : 12:00PM - 10:00PM, Tues : 12:00PM - 10:00PM, Wed : 12:00PM - 10:00PM, Thur : 12:00PM - 10:00PM, Fri : 12:00PM - 10:00PM, Sat : 12:00PM - 10:00PM, Sun : 12:00PM - 10:00PM",,,0
Dunmore,217,139 South Blakely Street,,Dunmore,PA,18512,US,570-504-5948,41.4206,-75.6314,"Mon : 12:00PM - 10:00PM, Tues : 12:00PM - 10:00PM, Wed : 12:00PM - 10:00PM, Thur : 12:00PM - 10:00PM, Fri : 12:00PM - 10:00PM, Sat : 12:00PM - 10:00PM, Sun : 12:00PM - 10:00PM",,,0
West Chester,98,Cambridge Square Shopping Center,323 East Gay Street,West Chester,PA,19380,US,610-738-9090,39.9631,-75.6005,"Mon : 11:00AM - 10:00PM, Tues : 11:00AM - 10:00PM, Wed : 11:00AM - 10:00PM, Thur : 11:00AM - 10:00PM, Fri : 11:00AM - 10:00PM, Sat : 11:00AM - 10:00PM, Sun : 11:00AM - 10:00PM",,,0
Vineland,133,3638 E. Landis Avenue,,Vineland,NJ,08360,US,856-205-0339,39.482965,-74.957801,"Mon : 12:00PM - 10:00PM, Tues : 12:00PM - 10:00PM, Wed : 12:00PM - 10:00PM, Thur : 12:00PM - 10:00PM, Fri : 12:00PM - 10:00PM, Sat : 12:00PM - 10:00PM, Sun : 12:00PM - 10:00PM",,,0
Scranton,294,1019 S Washington Avenue,,Scranton,PA,18505,US,,41.398212,-75.674115,"Mon : 12:00PM - 9:00PM, Tues : 12:00PM - 9:00PM, Wed : 12:00PM - 9:00PM, Thur : 12:00PM - 9:00PM, Fri : 12:00PM - 10:00PM, Sat : 12:00PM - 10:00PM, Sun : 12:00PM - 9:00PM",,,0
Blandon,332,Maidencreek Towne Center,850 Golden Drive,Blandon,PA,19510,US,484-578-2478,40.44426897832,-75.861282348633,"Mon : 12:00PM - 10:00PM, Tues : 12:00PM - 10:00PM, Wed : 12:00PM - 10:00PM, Thur : 12:00PM - 10:00PM, Fri : 12:00PM - 10:00PM, Sat : 12:00PM - 10:00PM, Sun : 12:00PM - 10:00PM",,,0
Eagleview,1126,Eagleview Town Center,543 Wellington Square,Exton,PA,19341,US,610-458-1974,40.062831,-75.685222,"Mon : 11:00AM - 10:00PM, Tues : 11:00AM - 10:00PM, Wed : 11:00AM - 10:00PM, Thur : 11:00AM - 10:00PM, Fri : 11:00AM - 10:00PM, Sat : 11:00AM - 10:00AM, Sun : 11:00AM - 10:00PM",,,0
Claymont,446,3230 Philadelphia Pike,,Claymont,DE,19703,US,302-792-2856,39.79977,-75.46111,"Mon : 12:00PM - 9:00PM, Tues : 12:00PM - 9:00PM, Wed : 12:00PM - 9:00PM, Thur : 12:00PM - 9:00PM, Fri : 12:00PM - 10:00PM, Sat : 12:00PM - 10:00PM, Sun : 12:00PM - 9:00PM",,,0
Birdsboro,335,101 East Main Street,,Birdsboro,PA,19508,US,610-621-2827,40.266578,-75.808051,"Mon : 12:00AM - 10:00PM, Tues : 12:00AM - 10:00PM, Wed : 12:00AM - 10:00PM, Thur : 12:00AM - 10:00PM, Fri : 12:00AM - 10:00PM, Sat : 12:00AM - 10:00PM, Sun : 12:00AM - 10:00PM",,,0
Dickson City,106,534 Scranton-Carbondale Hwy,,Scranton,PA,18508,US,570-871-4625,41.463549,-75.651543,"Mon : 12:00PM - 9:00PM, Tues : 12:00PM - 9:00PM, Wed : 12:00PM - 9:00PM, Thur : 12:00PM - 9:00PM, Fri : 12:00PM - 10:00PM, Sat : 12:00PM - 10:00PM, Sun : 12:00PM - 9:00PM",,,0
Chadds Ford,493,220 Wilmington West,West Chester Pike,Chadds Ford,PA,19317,US,610-459-8249,39.850015,-75.538712,"Mon : 12:00PM - 10:00PM, Tues : 12:00PM - 10:00PM, Wed : 12:00PM - 10:00PM, Thur : 12:00PM - 10:00PM, Fri : 12:00PM - 10:00PM, Sat : 12:00PM - 10:00PM, Sun : 12:00PM - 10:00PM",,,0
Silverside,104,2222 Silverside Road,,Wilmington,DE,19810,US,302-477-1572,39.8032,-75.5086,"Mon : 11:00AM - 10:00PM, Tues : 12:00PM - 10:00PM, Wed : 12:00PM - 10:00PM, Thur : 12:00PM - 10:00PM, Fri : 12:00PM - 10:00PM, Sat : 12:00PM - 10:00PM, Sun : 12:00PM - 10:00PM",,,0
Mt. Penn,156,3104 Perkiomen Avenue,,St. Lawrence,PA,19606,US,610-370-4380,40.3258,-75.8779,"Mon : 12:00PM - 10:00PM, Tues : 12:00PM - 10:00PM, Wed : 12:00PM - 10:00PM, Thur : 12:00PM - 10:00PM, Fri : 12:00PM - 10:00PM, Sat : 12:00PM - 10:00PM, Sun : 12:00PM - 10:00PM",,,0
Downingtown,89,84 W. Lancaster Avenue,,Downingtown,PA,19335,US,610-269-6783,40.0038,-75.7081,"Mon : 11:00AM - 10:00PM, Tues : 11:00AM - 10:00PM, Wed : 11:00AM - 10:00PM, Thur : 11:00AM - 10:00PM, Fri : 11:00AM - 10:00PM, Sat : 11:00AM - 10:00PM, Sun : 11:00AM - 10:00PM",,,0
Philadelphia Pike,42,722 Philadelphia Pike,,Bellefonte,DE,19809,US,302-761-9822,39.770677,-75.499806,"Mon : 12:00PM - 10:00PM, Tues : 12:00PM - 10:00PM, Wed : 12:00PM - 10:00PM, Thur : 12:00PM - 10:00PM, Fri : 12:00PM - 10:00PM, Sat : 12:00PM - 10:00PM, Sun : 12:00PM - 10:00PM",,,0
Braeside Drive,5011,5-11440 Braeside Drive SW,,Calgary,,300000,CA,,50.954101451088, -114.11619186401367,,,,0
Sterling Heights,1172,44809 Hayes Road,,Sterling Heights,MI,48313,US,586-488-3764,42.624991447649,-82.974071502686,"Mon : 12:00PM - 9:00PM, Tues : 12:00PM - 9:00PM, Wed : 12:00PM - 9:00PM, Thur : 12:00PM - 9:00PM, Fri : 12:00PM - 9:00PM, Sat : 12:00PM - 9:00PM, Sun : 12:00PM - 9:00PM",,,0
Cuyahoga Falls,389,2328 State Road,,Cuyahoga Falls,OH,44223,US,330-916-9000,41.1389,-81.5084,"Mon : 12:00PM - 10:00PM, Tues : 12:00PM - 10:00PM, Wed : 12:00PM - 10:00PM, Thur : 12:00PM - 10:00PM, Fri : 12:00PM - 10:00PM, Sat : 12:00PM - 10:00PM, Sun : 12:00PM - 10:00PM",,,0
North Lima,434,9025 Market Street,,North Lima,OH,44452,US,330-629-7499,40.98727,-80.662329,"Mon : 11:00AM - 10:00PM, Tues : 11:00AM - 10:00PM, Wed : 11:00AM - 10:00PM, Thur : 11:00AM - 10:00PM, Fri : 11:00AM - 10:00PM, Sat : 11:00AM - 10:00PM, Sun : 11:00AM - 10:00PM",,,0
Gore Road,180,1406 W. Gore Road,Millcreek Twp.,Erie,PA,16509,US,814-868-8621,42.082,-80.0887,"Mon : 12:00PM - 10:00PM, Tues : 12:00PM - 10:00PM, Wed : 12:00PM - 10:00PM, Thur : 12:00PM - 10:00PM, Fri : 12:00PM - 10:00PM, Sat : 12:00PM - 10:00PM, Sun : 12:00PM - 10:00PM",,,0
Cranberry,270,1302 Freedom Road,Suite 200,Cranberry Twp.,PA,16066,US,724-776-1966,40.684261,-80.109735,"Mon : 12:00PM - 10:00PM, Tues : 12:00PM - 10:00PM, Wed : 12:00PM - 10:00PM, Thur : 12:00PM - 10:00PM, Fri : 12:00PM - 10:00PM, Sat : 12:00PM - 10:00PM, Sun : 12:00PM - 10:00PM",,,0
Steubenville Pike,381,6154 Steubenville Pike,,McKees Rocks,PA,15136,US,412-722-0287,40.4448,-80.149,"Mon : 12:00PM - 10:00PM, Tues : 12:00PM - 10:00PM, Wed : 12:00PM - 10:00PM, Thur : 12:00PM - 10:00PM, Fri : 12:00PM - 10:00PM, Sat : 12:00PM - 10:00PM, Sun : 12:00PM - 10:00PM",,,0
Wexford,676,10376 Perry Highway,,Wexford,PA,15090,US,724-940-3939,40.604362,-80.050526,"Mon : 12:00PM - 10:00PM, Tues : 12:00PM - 10:00PM, Wed : 12:00PM - 10:00PM, Thur : 12:00PM - 10:00PM, Fri : 12:00PM - 10:00PM, Sat : 12:00PM - 10:00PM, Sun : 12:00PM - 10:00PM",,,0
Trinity Point,316,Trinity Point Shopping Center,74 Trinity Point Drive,Washington,PA,15301,US,724-914-6000,40.185430753664,-80.219421386719,"Mon : 12:00PM - 10:00PM, Tues : 12:00PM - 10:00PM, Wed : 12:00PM - 10:00PM, Thur : 12:00PM - 10:00PM, Fri : 12:00PM - 10:00PM, Sat : 12:00PM - 10:00PM, Sun : 12:00PM - 10:00PM",,,0
Kennedy Center,265,1803 McKees Rocks Road,,McKees Rocks,PA,15136,US,412-771-1121,40.4693,-80.0973,"Mon : 12:00PM - 9:00PM, Tues : 12:00PM - 9:00PM, Wed : 12:00PM - 9:00PM, Thur : 12:00PM - 9:00PM, Fri : 12:00PM - 9:00PM, Sat : 12:00PM - 9:00PM, Sun : 12:00PM - 9:00PM",,,0
McMurray,274,Donaldson s Crossroads Shopping Center,4013 Washington Road,McMurray,PA,15317,US,724-941-5004,40.2719,-80.1273,"Mon : 12:00PM - 9:00PM, Tues : 12:00PM - 9:00PM, Wed : 12:00PM - 9:00PM, Thur : 12:00PM - 9:00PM, Fri : 12:00PM - 9:00PM, Sat : 12:00PM - 9:00PM, Sun : 12:00PM - 9:00PM",,,0
Jackson Square,5020,2 King Street W,Unit 13,Hamilton,,L8P1A1,CA,,43.257295,-79.869124,,,,0
Scott Twp,247,2070 Greentree Road,,Pittsburgh,PA,15220,US,412-343-1722,40.392,-80.0684,"Mon : 12:00PM - 9:00PM, Tues : 12:00PM - 9:00PM, Wed : 12:00PM - 9:00PM, Thur : 12:00PM - 9:00PM, Fri : 12:00PM - 9:00PM, Sat : 12:00PM - 9:00PM, Sun : 12:00PM - 9:00PM",,,0
Ohio Street,637,401 East Ohio Street,,Pittsburgh,PA,15212,US,412-322-7423,40.453239,-80.001559,"Mon : 12:00PM - 9:00PM, Tues : 12:00PM - 9:00PM, Wed : 12:00PM - 9:00PM, Thur : 12:00PM - 9:00PM, Fri : 12:00PM - 9:00PM, Sat : 12:00PM - 9:00PM, Sun : 12:00PM - 9:00PM",,,0
Babcock and Glenwood,172,1320 Babcock Boulevard,,Pittsburgh,PA,15209,US,412-821-7482,40.4959,-79.9765,"Mon : 12:00PM - 10:00PM, Tues : 12:00PM - 10:00PM, Wed : 12:00PM - 10:00PM, Thur : 12:00PM - 10:00PM, Fri : 12:00PM - 10:00PM, Sat : 12:00PM - 10:00PM, Sun : 12:00PM - 10:00PM",,,0
Castle Shannon,369,427 McNeilly Road,,Pittsburgh,PA,15226,US,412-563-1577,40.3834,-80.0152,"Mon : 12:00PM - 9:00PM, Tues : 12:00PM - 9:00PM, Wed : 12:00PM - 9:00PM, Thur : 12:00PM - 9:00PM, Fri : 12:00PM - 9:00PM, Sat : 12:00PM - 9:00PM, Sun : 12:00PM - 9:00PM",,,0
Bethel Park,183,5029 Library Road,,Bethel Park,PA,15102,US,412-854-5299,40.3407,-80.0257,"Mon : 12:00PM - 10:00PM, Tues : 12:00PM - 10:00PM, Wed : 12:00PM - 10:00PM, Thur : 12:00PM - 10:00PM, Fri : 12:00PM - 10:00PM, Sat : 12:00PM - 10:00PM, Sun : 12:00PM - 10:00PM",,,0
Oakland,412,3712 Fifth Avenue,,Oakland,PA,15213,US,412-621-6423,40.4421,-79.9577,"Mon : 11:00AM - 10:00PM, Tues : 11:00AM - 10:00PM, Wed : 11:00AM - 10:00PM, Thur : 11:00AM - 10:00PM, Fri : 11:00AM - 10:00PM, Sat : 12:00PM - 10:00PM, Sun : 12:00PM - 10:00PM",,,0
Curry Hollow,60,229 Curry Hollow Road,,Pittsburgh,PA,15236,US,412-655-8470,40.3375,-79.9794,"Mon : 12:00PM - 10:00PM, Tues : 12:00PM - 10:00PM, Wed : 12:00PM - 10:00PM, Thur : 12:00PM - 10:00PM, Fri : 12:00PM - 10:00PM, Sat : 12:00PM - 10:00PM, Sun : 12:00PM - 10:00PM",,,0
Squirrel Hill,78,5880 Forbes Avenue,,Pittsburgh,PA,15217,US,412-421-1941,40.438,-79.9199,"Mon : 12:00PM - 10:00PM, Tues : 12:00PM - 10:00PM, Wed : 12:00PM - 10:00PM, Thur : 12:00PM - 10:00PM, Fri : 12:00PM - 10:00PM, Sat : 12:00PM - 10:00PM, Sun : 12:00PM - 10:00PM",,,0
Fox Chapel,363,1175 Freeport Road,Fox Chapel Plaza,Pittsburgh,PA,15238,US,412-784-1549,40.488328,-79.879689,"Mon : 12:00PM - 10:00PM, Tues : 12:00PM - 10:00PM, Wed : 12:00PM - 10:00PM, Thur : 12:00PM - 10:00PM, Fri : 12:00PM - 10:00PM, Sat : 12:00PM - 10:00PM, Sun : 12:00PM - 10:00PM",,,0
Kennywood Park,1344,4800 Kennywood Blvd.,,West Mifflin,PA,15122,US,,40.387843,-79.864593,,,,0
Penn Hills,129,11833 Frankstown Road,,Penn Hills,PA,15235,US,412-798-3280,40.4695,-79.8236,"Mon : 12:00PM - 10:00PM, Tues : 12:00PM - 10:00PM, Wed : 12:00PM - 10:00PM, Thur : 12:00PM - 10:00PM, Fri : 12:00PM - 10:00PM, Sat : 12:00PM - 10:00PM, Sun : 12:00PM - 10:00PM",,,0
White Oak,209,Rainbow Village Shopping Center,1985 Lincoln Way,White Oak,PA,15131,US,412-673-7482,40.3382,-79.8072,"Mon : 12:00PM - 10:00PM, Tues : 12:00PM - 10:00PM, Wed : 12:00PM - 10:00PM, Thur : 12:00PM - 10:00PM, Fri : 12:00PM - 10:00PM, Sat : 12:00PM - 10:00PM, Sun : 12:00PM - 10:00PM",,,0
Belle Vernon,896,Tri-County Plaza,,Belle Vernon,PA,15012,US,724-268-3140,40.138707,-79.84064,"Mon : 12:00PM - 9:00PM, Tues : 12:00PM - 9:00PM, Wed : 12:00PM - 9:00PM, Thur : 12:00PM - 9:00PM, Fri : 12:00PM - 9:00PM, Sat : 12:00PM - 10:00PM, Sun : 12:00PM - 10:00PM",,,0
Morgantown WV,903,Mid Atlantic Market,7000 Mid-Atlantic Drive,Morgantown,WV,26508,US,304-777-4686,39.64746,-79.89104,"Mon : 12:00PM - 10:00PM, Tues : 12:00PM - 10:00PM, Wed : 12:00PM - 10:00PM, Thur : 12:00PM - 10:00PM, Fri : 12:00PM - 11:00PM, Sat : 11:00PM - 11:00PM, Sun : 11:00PM - 11:00PM",,,0
College Street,5021,343 College Street,,Toronto,ON,M9V 1,CA,,43.657144,-79.403267,,,,0
Greensburg,325,Eastgate Shopping Center,5138 Route 30,Greensburg,PA,15601,US,724-832-0499,40.3014,-79.498,"Mon : 12:00PM - 10:00PM, Tues : 12:00PM - 10:00PM, Wed : 12:00PM - 10:00PM, Thur : 12:00PM - 10:00PM, Fri : 12:00PM - 10:00PM, Sat : 12:00PM - 10:00PM, Sun : 12:00PM - 10:00PM",,,0
Niagara Falls,5025,4967 Clifton Hill,,Niagara Falls,ON,L2G 3,CA,,43.092308827181,-79.075813293457,,,,0
Idlewild and Soak Zone,1350,2574 US 30,,Ligoinier,PA,15658,US,,40.263127443205,-79.277000427246,,,,0
La Vale,593,1055 National Highway,,La Vale,MD,21502,US,240-362-7109,39.640851,-78.826325,"Mon : 12:00PM - 10:00PM, Tues : 12:00PM - 10:00PM, Wed : 12:00PM - 10:00PM, Thur : 12:00PM - 10:00PM, Fri : 12:00PM - 10:00PM, Sat : 12:00PM - 10:00PM, Sun : 12:00PM - 10:00PM",,,0
East Beaver Avenue,452,119 East Beaver Avenue,,State College,PA,16801,US,814-231-1366,40.793827,-77.859909,"Mon : 11:00AM - 10:00PM, Tues : 11:00AM - 10:00PM, Wed : 11:00AM - 10:00PM, Thur : 11:00AM - 10:00PM, Fri : 11:00AM - 10:00PM, Sat : 11:00AM - 10:00PM, Sun : 11:00AM - 10:00PM",,,0
Rochester,874,TOPS BRIGHTON PLAZA,1900 Clinton Avenue South,Rochester,NY,14618,US,585-360-2891,43.120544,-77.592879,"Mon : 12:00PM - 10:00PM, Tues : 12:00PM - 10:00PM, Wed : 12:00PM - 10:00PM, Thur : 12:00PM - 10:00PM, Fri : 12:00PM - 10:00PM, Sat : 12:00PM - 10:00PM, Sun : 12:00PM - 10:00PM",,,0
Winchester,275,2430 Valley Avenue,,Winchester,VA,22601,US,540-535-1955,39.158,-78.1858,"Mon : 12:00PM - 10:00PM, Tues : 12:00PM - 10:00PM, Wed : 12:00PM - 10:00PM, Thur : 12:00PM - 10:00PM, Fri : 12:00PM - 10:00PM, Sat : 12:00PM - 10:00PM, Sun : 12:00PM - 10:00PM",,,0
Aikens Center,565,321 Aikens Center,,Martinsburg,WV,25401,US,304-267-3890,39.486895,-77.958239,"Mon : 12:00PM - 10:00PM, Tues : 12:00PM - 10:00PM, Wed : 12:00PM - 10:00PM, Thur : 12:00PM - 10:00PM, Fri : 12:00PM - 10:00PM, Sat : 12:00PM - 10:00PM, Sun : 12:00PM - 10:00PM",,,0
Hagerstown,290,1313 Pennsylvania Avenue,,Hagerstown,MD,21742,US,240-513-8013,39.664446,-77.719297,"Mon : 12:00PM - 10:00PM, Tues : 12:00PM - 10:00PM, Wed : 12:00PM - 10:00PM, Thur : 12:00PM - 10:00PM, Fri : 12:00PM - 10:00PM, Sat : 12:00PM - 10:00PM, Sun : 12:00PM - 10:00PM",,,0
Shippensburg,214,10016 Molly Pitcher Highway,,Shippensburg,PA,17257,US,717-532-9886,40.0434,-77.5334,"Mon : 12:00PM - 9:00PM, Tues : 12:00PM - 9:00PM, Wed : 12:00PM - 9:00PM, Thur : 12:00PM - 9:00PM, Fri : 12:00PM - 9:00PM, Sat : 12:00PM - 9:00PM, Sun : 12:00PM - 9:00PM",,,0
Lynchburg,881,18013 Forest Road,,Forest,VA,24551,US,434-385-9300,37.377835,-79.24667,"Mon : 12:00PM - 10:00PM, Tues : 12:00PM - 10:00PM, Wed : 12:00PM - 10:00PM, Thur : 12:00PM - 10:00PM, Fri : 12:00PM - 10:00PM, Sat : 12:00PM - 10:00PM, Sun : 12:00PM - 10:00PM",,,0
Williamsport,207,1849 East Third Street,,Williamsport,PA,17701,US,570-326-2943,41.249399,-76.965553,"Mon : 12:00PM - 10:00PM, Tues : 12:00PM - 10:00PM, Wed : 12:00PM - 10:00PM, Thur : 12:00PM - 10:00PM, Fri : 12:00PM - 10:00PM, Sat : 12:00PM - 10:00PM, Sun : 12:00PM - 10:00PM",,,0
Horseheads,729,2614 Corning Road,,Horseheads,NY,14845,US,607-398-2150,42.157957,-76.837349,"Mon : 12:00PM - 10:00PM, Tues : 12:00PM - 10:00PM, Wed : 12:00PM - 10:00PM, Thur : 12:00PM - 10:00PM, Fri : 12:00PM - 10:00PM, Sat : 12:00PM - 10:00PM, Sun : 12:00PM - 10:00PM",,,0
Carlisle,86,500 South Hanover Street,,Carlisle,PA,17013,US,717-241-6310,40.1946,-77.1903,"Mon : 12:00PM - 10:00PM, Tues : 12:00PM - 10:00PM, Wed : 12:00PM - 10:00PM, Thur : 12:00PM - 10:00PM, Fri : 12:00PM - 10:00PM, Sat : 12:00PM - 10:00PM, Sun : 12:00PM - 10:00PM",,,0
Frederick,182,538 W. South Street,,Frederick,MD,21701,US,301-694-3270,39.413113,-77.425211,"Mon : 12:00PM - 10:00PM, Tues : 12:00PM - 10:00PM, Wed : 12:00PM - 10:00PM, Thur : 12:00PM - 10:00PM, Fri : 12:00PM - 10:00PM, Sat : 12:00PM - 10:00PM, Sun : 12:00PM - 10:00PM",,,0
Gettysburg,92,523 Baltimore Street,,Gettysburg,PA,17325,US,717-338-9090,39.823244,-77.23114,"Mon : 12:00PM - 9:00PM, Tues : 12:00PM - 9:00PM, Wed : 12:00PM - 9:00PM, Thur : 12:00PM - 9:00PM, Fri : 12:00PM - 10:00PM, Sat : 12:00PM - 10:00PM, Sun : 12:00PM - 9:00PM",,,0
Selinsgrove,230,1568 N Susquehanna Trail,,Selinsgrove,PA,17870,US,570-743-1618,40.830447,-76.839783,"Mon : 12:00PM - 10:00PM, Tues : 12:00PM - 10:00PM, Wed : 12:00PM - 10:00PM, Thur : 12:00PM - 10:00PM, Fri : 12:00PM - 10:00PM, Sat : 12:00PM - 10:00PM, Sun : 12:00PM - 10:00PM",,,0
Leesburg,1044,1606 Village Market Blvd. SE Suite 100,,Leesburg,VA,20175,US,703-771-4600,39.089635,-77.524068,"Mon : 12:00PM - 10:00PM, Tues : 12:00PM - 10:00PM, Wed : 12:00PM - 10:00PM, Thur : 12:00PM - 10:00PM, Fri : 12:00PM - 10:00PM, Sat : 12:00PM - 10:00PM, Sun : 12:00PM - 10:00PM",,,0
Mechanicsburg,136,5204 Simpson Ferry Road,,Mechanicsburg,PA,17055,US,717-766-1177,40.2174,-76.9807,"Mon : 12:00PM - 10:00PM, Tues : 12:00PM - 10:00PM, Wed : 12:00PM - 10:00PM, Thur : 12:00PM - 10:00PM, Fri : 12:00PM - 10:00PM, Sat : 12:00PM - 10:00PM, Sun : 12:00PM - 10:00PM",,,0
Lemoyne,65,842 Market Street,,Lemoyne,PA,17043,US,717-731-8275,40.243241,-76.903154,"Mon : 12:00PM - 10:00PM, Tues : 12:00PM - 10:00PM, Wed : 12:00PM - 10:00PM, Thur : 12:00PM - 10:00PM, Fri : 12:00PM - 10:00PM, Sat : 12:00PM - 10:00PM, Sun : 12:00PM - 10:00PM",,,0
Linglestown,295,4151 A Linglestown Road,,Harrisburg,PA,17112,US,717-671-8772,40.3354,-76.8315,"Mon : 11:00AM - 10:00PM, Tues : 11:00AM - 10:00PM, Wed : 11:00AM - 10:00PM, Thur : 11:00AM - 10:00PM, Fri : 11:00AM - 10:00PM, Sat : 11:00AM - 10:00PM, Sun : 11:00AM - 10:00PM",,,0
New Cumberland,141,1 Lewisberry Road,,New Cumberland,PA,17070,US,717-774-4107,40.2167,-76.861,"Mon : 12:00PM - 10:00PM, Tues : 12:00PM - 10:00PM, Wed : 12:00PM - 10:00PM, Thur : 12:00PM - 10:00PM, Fri : 12:00PM - 10:00PM, Sat : 12:00PM - 10:00PM, Sun : 12:00PM - 10:00PM",,,0
Union Deposit Road,97,Dauphin Plaza Shopping Center,3884 Union Deposit Road,Harrisburg,PA,17109,US,717-671-0888,40.2786,-76.8238,"Mon : 11:00AM - 10:00PM, Tues : 11:00AM - 10:00PM, Wed : 11:00AM - 10:00PM, Thur : 11:00AM - 10:00PM, Fri : 11:00AM - 10:00PM, Sat : 11:00AM - 10:00PM, Sun : 11:00AM - 10:00PM",,,0
Danville,221,Danville Plaza,105 Northumberland Street,Danville,PA,17821,US,570-275-7515,40.965473,-76.617988,"Mon : 12:00PM - 10:00PM, Tues : 12:00PM - 10:00PM, Wed : 12:00PM - 10:00PM, Thur : 12:00PM - 10:00PM, Fri : 12:00PM - 10:00PM, Sat : 12:00PM - 10:00PM, Sun : 12:00PM - 10:00PM",,,0
Hickory Falls,250,Hickory Falls Family Entertainment Center,110 Hickory Lane,Hanover,PA,17331,US,717-632-9907,39.833919,-76.973045,"Mon : 11:00AM - 9:00PM, Tues : 11:00AM - 9:00PM, Wed : 11:00AM - 9:00PM, Thur : 11:00AM - 9:00PM, Fri : 11:00AM - 10:30PM, Sat : 11:00AM - 10:30PM, Sun : 1:00PM - 9:00PM",,,0
Sully Station,520,Sully Station Shopping Center,5097 Westfields Blvd.,Centreville,VA,20120,US,703-657-3355,38.867338,-77.447037,"Mon : 12:00PM - 9:00PM, Tues : 12:00PM - 9:00PM, Wed : 12:00PM - 9:00PM, Thur : 12:00PM - 9:00PM, Fri : 12:00PM - 9:00PM, Sat : 12:00PM - 9:00PM, Sun : 12:00PM - 9:00PM",,,0
Wisteria Drive,435,Germantown Center,12801 Wisteria Drive,Germantown,MD,20874,US,301-515-4114,39.1759,-77.2683,"Mon : 12:00PM - 10:00PM, Tues : 12:00PM - 10:00PM, Wed : 12:00PM - 10:00PM, Thur : 12:00PM - 10:00PM, Fri : 12:00PM - 10:00PM, Sat : 12:00PM - 10:00PM, Sun : 12:00PM - 10:00PM",,,0
Highspire,243,246 S. Second Street,,Highspire,PA,17034,US,717-939-9820,40.2089,-76.7898,"Mon : Closed, Tues : Closed, Wed : Closed, Thur : Closed, Fri : Closed, Sat : Closed, Sun : Closed",,,0
Lakeforest Mall,715,701 Russell Avenue,,Gaithersburg,MD,20877,US,301-740-3507,39.151843,-77.204062,"Mon : 10:00AM - 9:00PM, Tues : 10:00AM - 9:00PM, Wed : 10:00AM - 9:00PM, Thur : 10:00AM - 9:00PM, Fri : 10:00AM - 9:00PM, Sat : 10:00AM - 9:00PM, Sun : 11:00AM - 6:00PM",,,0
Hummelstown,190,139 S. Hanover Street,,Hummelstown,PA,17036,US,717-482-8916,40.262518,-76.707088,"Mon : 12:00PM - 10:00PM, Tues : 12:00PM - 10:00PM, Wed : 12:00PM - 10:00PM, Thur : 12:00PM - 10:00PM, Fri : 12:00PM - 10:00PM, Sat : 12:00PM - 10:00PM, Sun : 12:00PM - 10:00PM",,,0
Westminster,872,Crossroads Square Shopping Center,625F Baltimore Blvd.,Westminster,MD,21157,US,443-952-7370,39.562936,-76.972645,"Mon : 12:00PM - 9:30PM, Tues : 12:00PM - 9:30PM, Wed : 12:00PM - 9:30PM, Thur : 12:00PM - 9:30PM, Fri : 12:00PM - 10:00PM, Sat : 12:00PM - 10:00PM, Sun : 12:00PM - 9:30PM",,,0
Fairfax,860,10726 Fairfax Boulevard,,Fairfax,VA,22030,US,703-272-7373,38.856505,-77.315399,"Mon : 12:00PM - 10:00PM, Tues : 12:00PM - 10:00PM, Wed : 12:00PM - 10:00PM, Thur : 12:00PM - 10:00PM, Fri : 12:00PM - 10:00PM, Sat : 12:00PM - 10:00PM, Sun : 12:00PM - 10:00PM",,,0
Hershey Park,866,100 W Hersheypark Drive,,Hershey,PA,17033,US,,40.29488,-76.65305,"Mon : 10:00AM - 10:00PM, Tues : 10:00AM - 10:00PM, Wed : 10:00AM - 10:00PM, Thur : 10:00AM - 10:00PM, Fri : 10:00AM - 10:00PM, Sat : 10:00AM - 10:00PM, Sun : 10:00AM - 10:00PM",,,0
Derwood,1088,7211 Muncaster Mill Road,,Derwood,MD,20850,US,,39.146335,-77.144418,"Mon : 12:00PM - 10:00PM, Tues : 12:00PM - 10:00PM, Wed : 12:00PM - 10:00PM, Thur : 12:00PM - 10:00PM, Fri : 12:00PM - 10:00PM, Sat : 12:00PM - 10:00PM, Sun : 12:00PM - 10:00PM",,,0
COMING SOON: Vienna,1268,116 Church Street NW,,Vienna,VA,22180,US,,38.902656046209,-77.265815734863,,,,1
Loucks Road,314,The Crossroads Shopping Center,351 Loucks Road,York,PA,17404,US,717-846-2665,39.984309,-76.739413,"Mon : 11:30AM - 10:00PM, Tues : 11:30AM - 10:00PM, Wed : 11:30AM - 10:00PM, Thur : 11:30AM - 10:00PM, Fri : 11:30AM - 10:00PM, Sat : 11:30AM - 10:00PM, Sun : 11:30AM - 10:00PM",,,0
Bloomsburg,238,1901 Columbia Blvd.,Unit #4,Bloomsburg,PA,17815,US,570-380-7515,41.009156,-76.422025,"Mon : 12:00PM - 10:00PM, Tues : 12:00PM - 10:00PM, Wed : 12:00PM - 10:00PM, Thur : 12:00PM - 10:00PM, Fri : 12:00PM - 10:00PM, Sat : 12:00PM - 10:00PM, Sun : 12:00PM - 10:00PM",,,0
Palmyra,564,629 East Main Street,,Palmyra,PA,17078,US,717-838-3350,40.311301,-76.588204,"Mon : 12:00PM - 9:00PM, Tues : 12:00PM - 9:00PM, Wed : 12:00PM - 9:00PM, Thur : 12:00PM - 9:00PM, Fri : 12:00PM - 9:00PM, Sat : 12:00PM - 9:00PM, Sun : 12:00PM - 9:00PM",,,0
Queen  Street,186,901 S. Queen Street,,York,PA,17402,US,717-846-6893,39.951996,-76.716274,"Mon : 12:00PM - 10:00PM, Tues : 12:00PM - 10:00PM, Wed : 12:00PM - 10:00PM, Thur : 12:00PM - 10:00PM, Fri : 12:00PM - 10:00PM, Sat : 12:00PM - 10:00PM, Sun : 12:00PM - 10:00PM",,,0
Eldersburg,345,Princess Shopping Center,1213 Liberty Road,Eldersburg,MD,21784,US,410-795-6969,39.404,-76.9513,"Mon : 12:00PM - 9:00PM, Tues : 12:00PM - 9:00PM, Wed : 12:00PM - 9:00PM, Thur : 12:00PM - 9:00PM, Fri : 12:00PM - 9:00PM, Sat : 12:00PM - 9:00PM, Sun : 12:00PM - 9:00PM",,,0
Hampstead,472,907 South Main Street,Suite E,Hampstead,MD,21074,US,410-374-0072,39.600764,-76.848125,"Mon : 12:00PM - 9:30PM, Tues : 12:00PM - 9:30PM, Wed : 12:00PM - 9:30PM, Thur : 12:00PM - 9:30PM, Fri : 12:00PM - 9:30PM, Sat : 12:00PM - 9:30PM, Sun : 12:00PM - 9:30PM",,,0
Olney,443,3233 Spartan Road,,Olney,MD,20832,US,301-260-0017,39.15133,-77.06219,"Mon : 12:00PM - 10:00PM, Tues : 12:00PM - 10:00PM, Wed : 12:00PM - 10:00PM, Thur : 12:00PM - 10:00PM, Fri : 12:00PM - 10:00PM, Sat : 12:00PM - 10:00PM, Sun : 12:00PM - 10:00PM",,,0
E-Town,259,30 N. Market St.,,Elizabethtown,PA,17022,US,717-367-9985,40.152336,-76.606722,"Mon : 11:00AM - 10:00PM, Tues : 11:00AM - 10:00PM, Wed : 11:00AM - 10:00PM, Thur : 11:00AM - 10:00PM, Fri : 11:00AM - 10:00PM, Sat : 11:00AM - 10:00PM, Sun : 12:00PM - 10:00PM",,,0
York,123,3000 E. Market Street,,York,PA,17402,US,717-757-5152,39.97653,-76.667029,"Mon : 11:00AM - , Tues : 11:00AM - , Wed : 11:00AM - , Thur : 11:00AM - , Fri : 11:00AM - , Sat : 11:00AM - , Sun : 11:00AM - ",,,0
Silver Spring,370,13621 Georgia Avenue,,Silver Spring,MD,20906,US,301-942-4229,39.0802,-77.0736,"Mon : 12:00PM - 10:00PM, Tues : 12:00PM - 10:00PM, Wed : 12:00PM - 10:00PM, Thur : 12:00PM - 10:00PM, Fri : 12:00PM - 10:00PM, Sat : 12:00PM - 10:00PM, Sun : 12:00PM - 10:00PM",,,0
Leavells Square,354,11105 Leavells Road,Leavells Square Unit # 6,Fredericksburg,VA,22407,US,540-891-5526,38.261661,-77.53986,"Mon : 12:00PM - 10:00PM, Tues : 12:00PM - 10:00PM, Wed : 12:00PM - 10:00PM, Thur : 12:00PM - 10:00PM, Fri : 12:00PM - 10:00PM, Sat : 12:00PM - 10:00PM, Sun : 12:00PM - 10:00PM",,,0
Red Lion,383,Cape Horn Square Shopping Center,617 Lombard Road,Red Lion,PA,17356,US,717-246-7007,39.915132,-76.631327,"Mon : 12:00PM - 10:00PM, Tues : 12:00PM - 10:00PM, Wed : 12:00PM - 10:00PM, Thur : 12:00PM - 10:00PM, Fri : 12:00PM - 10:00PM, Sat : 12:00PM - 10:00PM, Sun : 12:00PM - 10:00PM",,,0
Cleona,223,640 East Penn Avenue,,Cleona,PA,17042,US,717-306-4217,40.3392,-76.464,"Mon : 12:00PM - 9:00PM, Tues : 12:00PM - 9:00PM, Wed : 12:00PM - 9:00PM, Thur : 12:00PM - 9:00PM, Fri : 12:00PM - 9:00PM, Sat : 12:00PM - 9:00PM, Sun : 12:00PM - 9:00PM",,,0
Shrewsbury,385,466 Shrewsbury Commons Avenue,,Shrewsbury,PA,17361,US,717-235-8588,39.7707,-76.6714,"Mon : 12:00PM - 10:00PM, Tues : 12:00PM - 10:00PM, Wed : 12:00PM - 10:00PM, Thur : 12:00PM - 10:00PM, Fri : 12:00PM - 10:00PM, Sat : 12:00PM - 10:00PM, Sun : 12:00PM - 10:00PM",,,0
Reisterstown,328,11700-A Reisterstown Road,,Reisterstown,MD,21136,US,443-982-9134,39.4417,-76.8075,"Mon : 12:00PM - 9:00PM, Tues : 12:00PM - 9:00PM, Wed : 12:00PM - 9:00PM, Thur : 12:00PM - 9:00PM, Fri : 12:00PM - 9:00PM, Sat : 12:00PM - 9:00PM, Sun : 12:00PM - 9:00PM",,,0
New Town Village,712,9700 Groffs Mill Drive,Suite 9708A,Owings Mills,MD,21117,US,410-654-0711,39.404619,-76.8044,"Mon : 12:00PM - 10:00PM, Tues : 12:00PM - 10:00PM, Wed : 12:00PM - 10:00PM, Thur : 12:00PM - 10:00PM, Fri : 12:00PM - 10:00PM, Sat : 12:00PM - 10:00PM, Sun : 12:00PM - 10:00PM",,,0
Harpers Farm Road,413,Harpers Choice Village Center,5485 Harpers Farm Road Suite C,Columbia,MD,21044,US,410-740-2847,39.2221,-76.8891,"Mon : 12:00PM - 9:00PM, Tues : 12:00PM - 9:00PM, Wed : 12:00PM - 9:00PM, Thur : 12:00PM - 9:00PM, Fri : 12:00PM - 9:00PM, Sat : 12:00PM - 9:00PM, Sun : 12:00PM - 9:00PM",,,0
Burtonsville,306,15430 Old Columbia Pike,,Burtonsville,MD,20866,US,301-421-0013,39.109,-76.936,"Mon : 11:00PM - 10:00PM, Tues : 11:00PM - 10:00PM, Wed : 11:00PM - 10:00PM, Thur : 11:00PM - 10:00PM, Fri : 11:00PM - 10:00PM, Sat : 11:00PM - 10:00PM, Sun : 11:00PM - 10:00PM",,,0
Mt. Joy,534,809 East Main Street,,Mt. Joy,PA,17552,US,717-653-0567,40.10979,-76.4845,"Mon : 12:00PM - 10:00PM, Tues : 12:00PM - 10:00PM, Wed : 12:00PM - 10:00PM, Thur : 12:00PM - 10:00PM, Fri : 12:00PM - 10:00PM, Sat : 12:00PM - 10:00PM, Sun : 12:00PM - 10:00PM",,,0
Washington Convention Center,581,Walter E. Washington Convention Cnt.,801 Mount Vernon Place NW,Washington,DC,20001,US,301-499-7121,38.90382,-77.02297,"Mon : Closed, Tues : Closed, Wed : Closed, Thur : Closed, Fri : Closed, Sat : Closed, Sun : Closed",,,0
Ellicott City,343,9095 Frederick Road,,Ellicott City,MD,21042,US,410-203-1756,39.2714,-76.8265,"Mon : 12:00PM - 10:00PM, Tues : 12:00PM - 10:00PM, Wed : 12:00PM - 10:00PM, Thur : 12:00PM - 10:00PM, Fri : 12:00PM - 10:00PM, Sat : 12:00PM - 10:00PM, Sun : 12:00PM - 10:00PM",,,0
Chinatown,736,610 H Street NW,,Washington,DC,20001,US,202-347-3144,38.899753,-77.020267,"Mon : 12:00PM - 10:00PM, Tues : 12:00PM - 10:00PM, Wed : 12:00PM - 10:00PM, Thur : 12:00PM - 10:00PM, Fri : 12:00PM - 10:00PM, Sat : 12:00PM - 10:00PM, Sun : 12:00PM - 10:00PM",,,0
Kings Contrivance Village Center,691,Kings Contrivance Village Center,8640 Guilford Road Suite B-10,Columbia,MD,21046,US,443-864-5509,39.1727,-76.86491,"Mon : 12:00PM - 9:00PM, Tues : 12:00PM - 9:00PM, Wed : 12:00PM - 9:00PM, Thur : 12:00PM - 9:00PM, Fri : 12:00PM - 9:00PM, Sat : 12:00PM - 9:00PM, Sun : 12:00PM - 9:00PM",,,0
Owings Mills,429,9103 Reisterstown Road,,Owings Mills,MD,21117,US,410-363-7073,39.3976,-76.7485,"Mon : 11:30PM - 10:00PM, Tues : 11:30PM - 10:00PM, Wed : 11:30PM - 10:00PM, Thur : 11:30PM - 10:00PM, Fri : 11:30PM - 10:00PM, Sat : 11:30PM - 10:00PM, Sun : 11:30PM - 10:00PM",,,0
Capitol Hill,744,1014 H Street NE,,Washington,DC,20002,US,202-399-0386,38.900254,-76.992386,"Mon : 12:00PM - 10:00PM, Tues : 12:00PM - 10:00PM, Wed : 12:00PM - 10:00PM, Thur : 12:00PM - 10:00PM, Fri : 12:00PM - 10:00PM, Sat : 12:00PM - 10:00PM, Sun : 12:00PM - 10:00PM",,,0
Rhode Island Avenue,374,2318 Rhode Island Avenue NE,,Washington,DC,20018,US,202-636-7482,38.9308,-76.9725,"Mon : 12:00PM - 10:00PM, Tues : 12:00PM - 10:00PM, Wed : 12:00PM - 10:00PM, Thur : 12:00PM - 10:00PM, Fri : 12:00PM - 10:00PM, Sat : 12:00PM - 10:00PM, Sun : 12:00PM - 10:00PM",,,0
College Park,485,8900 Baltimore Avenue,,College Park,MD,20740,US,301-345-5445,38.9985,-76.931,"Mon : 12:00PM - 10:00PM, Tues : 12:00PM - 10:00PM, Wed : 12:00PM - 10:00PM, Thur : 12:00PM - 10:00PM, Fri : 12:00PM - 10:00PM, Sat : 12:00PM - 10:00PM, Sun : 12:00PM - 10:00PM",,,0
Columbia,542,3929 Columbia Avenue,,Columbia,PA,17512,US,717-285-2286,40.037674,-76.448303,"Mon : 12:00PM - 9:00PM, Tues : 12:00PM - 9:00PM, Wed : 12:00PM - 9:00PM, Thur : 12:00PM - 9:00PM, Fri : 12:00PM - 10:00PM, Sat : 12:00PM - 10:00PM, Sun : 12:00PM - 9:00PM",,,0
Windsor Mill,194,7171 Security Blvd.,Suite 100,Windsor Mill,MD,21244,US,410-281-1762,39.3137,-76.758,"Mon : 11:30AM - 9:00PM, Tues : 11:30AM - 9:00PM, Wed : 11:30AM - 9:00PM, Thur : 11:30AM - 9:00PM, Fri : 11:30AM - 9:00PM, Sat : 11:30AM - 9:00PM, Sun : 11:30AM - 9:00PM",,,0
Congress Heights,1101,3109 Martin Luther King Avenue SE,,Washington,DC,20032,US,,38.843685,-76.999594,"Mon : 12:00PM - 9:00PM, Tues : 12:00PM - 9:00PM, Wed : 12:00PM - 9:00PM, Thur : 12:00PM - 9:00PM, Fri : 12:00PM - 9:00PM, Sat : 12:00PM - 9:00PM, Sun : 12:00PM - 9:00PM",,,0
Manheim,417,85 Doe Run Road,Store # 13,Manheim,PA,17545,US,717-664-2102,40.171824,-76.38545,"Mon : 12:00PM - 10:00PM, Tues : 12:00PM - 10:00PM, Wed : 12:00PM - 10:00PM, Thur : 12:00PM - 10:00PM, Fri : 12:00PM - 10:00PM, Sat : 12:00PM - 10:00PM, Sun : 12:00PM - 10:00PM",,,0
Pottsville,338,1640 Mount Hope Avenue,,Pottsville,PA,17901,US,570-628-0350,40.6848,-76.2191,"Mon : 12:00PM - 10:00PM, Tues : 12:00PM - 10:00PM, Wed : 12:00PM - 10:00PM, Thur : 12:00PM - 10:00PM, Fri : 12:00PM - 10:00PM, Sat : 12:00PM - 10:00PM, Sun : 12:00PM - 10:00PM",,,0
Hunt Valley,399,Shawan Plaza Shopping Center,11307 York Road,Hunt Valley,MD,21030,US,410-584-2663,39.4956,-76.65,"Mon : 11:00AM - 10:00PM, Tues : 11:00AM - 10:00PM, Wed : 11:00AM - 10:00PM, Thur : 11:00AM - 10:00PM, Fri : 11:00AM - 10:00PM, Sat : 11:00AM - 10:00PM, Sun : 11:00AM - 10:00PM",,,0
Reisterstown Plaza,556,6796 Reisterstown Road,Space #1,Baltimore,MD,21215,US,410-764-5666,39.35896,-76.70505,"Mon : 10:00AM - 9:00PM, Tues : 10:00AM - 9:00PM, Wed : 10:00AM - 9:00PM, Thur : 10:00AM - 9:00PM, Fri : 10:00AM - 10:00PM, Sat : 10:00AM - 10:00PM, Sun : 12:00PM - 9:00PM",,,0
COMING SOON: Quarry Lake,1159,The Shops at Quarry Lake,2550 Quarry Lake Drive,Baltimore,MD,21209,US,,39.384774564584,-76.687880158424,,,,1
Oxon Hill,731,6243 Livingston Road,,Oxon Hill,MD,20745,US,301-686-0044,38.804997,-76.99041,"Mon : 12:00PM - 9:00PM, Tues : 12:00PM - 9:00PM, Wed : 12:00PM - 9:00PM, Thur : 12:00PM - 9:00PM, Fri : 12:00PM - 10:00PM, Sat : 12:00PM - 10:00PM, Sun : 12:00PM - 9:00PM",,,0
Laurel,501,Corridor Marketplace,3353 Fort Meade Road Space # 100,Laurel,MD,20724,US,301-776-8585,39.096725,-76.809336,"Mon : 11:00AM - 10:00PM, Tues : 11:00AM - 10:00PM, Wed : 11:00AM - 10:00PM, Thur : 11:00AM - 10:00PM, Fri : 11:00AM - 10:00PM, Sat : 11:00AM - 10:00PM, Sun : 11:00AM - 10:00PM",,,0
Edmondson Avenue,1060,4408 Edmondson Avenue,,Baltimore,MD,21229,US,,39.294254,-76.689825,"Mon : 12:00PM - 9:00PM, Tues : 12:00PM - 9:00PM, Wed : 12:00PM - 9:00PM, Thur : 12:00PM - 9:00PM, Fri : 12:00PM - 9:00PM, Sat : 12:00PM - 9:00PM, Sun : 12:00PM - 9:00PM",,,0
Lancaster,882,2000 Columbia Avenue,,Lancaster,PA,17603,US,717-435-9979,40.038446,-76.35873,"Mon : 11:30PM - 10:00PM, Tues : 11:30PM - 10:00PM, Wed : 11:30PM - 10:00PM, Thur : 11:30PM - 10:00PM, Fri : 11:30PM - 10:00PM, Sat : 11:30PM - 10:00PM, Sun : 11:30PM - 10:00PM",,,0
COMING SOON: Lutherville-Timonium,1273,1407 York Road,,Timonium,MD,21093,US,,39.419726317785, -76.61564826965332,,,,1
Manheim Pike,366,Granite Run Square,1585 Manheim Pike,Lancaster,PA,17601,US,717-569-5651,40.080764,-76.339233,"Mon : 12:00PM - 10:00PM, Tues : 12:00PM - 10:00PM, Wed : 12:00PM - 10:00PM, Thur : 12:00PM - 10:00PM, Fri : 12:00PM - 10:00PM, Sat : 12:00PM - 10:00PM, Sun : 12:00PM - 10:00PM",,,0
Schuylkill Haven,170,277 Route 61 South,,Schuylkill Haven,PA,17972,US,570-385-9000,40.6407,-76.1585,"Mon : 12:00PM - 10:00PM, Tues : 12:00PM - 10:00PM, Wed : 12:00PM - 10:00PM, Thur : 12:00PM - 10:00PM, Fri : 12:00PM - 10:00PM, Sat : 12:00PM - 10:00PM, Sun : 12:00PM - 10:00PM",,,0
Lititz,323,46 Peters Road,,Lititz,PA,17543,US,717-625-4991,40.12917,-76.30704,"Mon : 12:00PM - 10:00PM, Tues : 12:00PM - 10:00PM, Wed : 12:00PM - 10:00PM, Thur : 12:00PM - 10:00PM, Fri : 12:00PM - 10:00PM, Sat : 12:00PM - 10:00PM, Sun : 12:00PM - 10:00PM",,,0
Towson,267,7206 York Road,Suite A,Towson,MD,21212,US,410-583-8808,39.3832,-76.6076,"Mon : 12:00PM - 10:00PM, Tues : 12:00PM - 10:00PM, Wed : 12:00PM - 10:00PM, Thur : 12:00PM - 10:00PM, Fri : 12:00PM - 10:00PM, Sat : 12:00PM - 10:00PM, Sun : 12:00PM - 10:00PM",,,0
Forestville,521,Penn Mar Shopping Center,2950 Donnell Drive,Forestville,MD,20747,US,301-669-7399,38.84684,-76.884416,"Mon : 12:00PM - 9:00PM, Tues : 12:00PM - 9:00PM, Wed : 12:00PM - 9:00PM, Thur : 12:00PM - 9:00PM, Fri : 12:00PM - 9:00PM, Sat : 12:00PM - 9:00PM, Sun : 12:00PM - 9:00PM",,,0
Linthicum Heights,575,810 Nursery Road Plaza,Suite A,Linthicum,MD,21090,US,410-636-0039,39.22542,-76.664027,"Mon : 12:00PM - 10:00PM, Tues : 12:00PM - 10:00PM, Wed : 12:00PM - 10:00PM, Thur : 12:00PM - 10:00PM, Fri : 12:00PM - 10:00PM, Sat : 12:00PM - 10:00PM, Sun : 12:00PM - 10:00PM",,,0
Kinney Place,391,9101 Kinney Place,,Clinton,MD,20735,US,301-877-2422,38.7663,-76.8958,"Mon : 12:00PM - 9:00PM, Tues : 12:00PM - 9:00PM, Wed : 12:00PM - 9:00PM, Thur : 12:00PM - 9:00PM, Fri : 12:00PM - 9:00PM, Sat : 12:00PM - 9:00PM, Sun : 12:00PM - 9:00PM",,,0
Hazleton,218,Hazle Market Place,741 Airport Road,Hazleton,PA,18202,US,570-459-2955,40.98826,-76.01117,"Mon : 12:00PM - 10:00PM, Tues : 12:00PM - 10:00PM, Wed : 12:00PM - 10:00PM, Thur : 12:00PM - 10:00PM, Fri : 12:00PM - 10:00PM, Sat : 12:00PM - 10:00PM, Sun : 12:00PM - 10:00PM",,,0
Inner Harbor,689,301 Light Street,Adjacent to Baltimore Visitor Center,Baltimore,MD,21202,US,410-864-8992,39.28822,-76.61057,"Mon : Closed, Tues : Closed, Wed : Closed, Thur : Closed, Fri : Closed, Sat : Closed, Sun : Closed",,,0
Joppa Road,85,2201 E. Joppa Road,,Carney,MD,21234,US,410-661-7482,39.398,-76.5398,"Mon : 12:00PM - 10:00PM, Tues : 12:00PM - 10:00PM, Wed : 12:00PM - 10:00PM, Thur : 12:00PM - 10:00PM, Fri : 12:00PM - 10:00PM, Sat : 12:00PM - 10:00PM, Sun : 12:00PM - 10:00PM",,,0
Fells Point,511,2033 Eastern Avenue,,Baltimore,MD,21231,US,410-732-CONE (2663),39.28586,-76.587216,"Mon : 12:00PM - 9:00PM, Tues : 12:00PM - 9:00PM, Wed : 12:00PM - 9:00PM, Thur : 12:00PM - 9:00PM, Fri : 12:00PM - 9:00PM, Sat : 12:00PM - 9:00PM, Sun : 12:00PM - 9:00PM",,,0
Odenton,293,1111 Odenton Road,,Odenton,MD,21113,US,410-672-0900,39.0783,-76.686,"Mon : 12:00PM - 10:00PM, Tues : 12:00PM - 10:00PM, Wed : 12:00PM - 10:00PM, Thur : 12:00PM - 10:00PM, Fri : 12:00PM - 10:00PM, Sat : 12:00PM - 10:00PM, Sun : 12:00PM - 10:00PM",,,0
Bowie,428,3329 Superior Lane,,Bowie,MD,20715,US,301-464-9690,38.9797,-76.7334,"Mon : 12:00PM - 10:00PM, Tues : 12:00PM - 10:00PM, Wed : 12:00PM - 10:00PM, Thur : 12:00PM - 10:00PM, Fri : 12:00PM - 10:00PM, Sat : 12:00PM - 10:00PM, Sun : 12:00PM - 10:00PM",,,0
Glen Burnie,287,7381 A Baltimore Annapolis Blvd.,,Glen Burnie,MD,21061,US,410-590-3900,39.1725,-76.6324,"Mon : 12:00PM - 9:00PM, Tues : 12:00PM - 9:00PM, Wed : 12:00PM - 9:00PM, Thur : 12:00PM - 9:00PM, Fri : 12:00PM - 9:00PM, Sat : 12:00PM - 9:00PM, Sun : 12:00PM - 9:00PM",,,0
La Plata,353,6360 Crain Highway,,La Plata,MD,20646,US,301-576-8286,38.5384,-76.9839,"Mon : 12:00PM - 10:00PM, Tues : 12:00PM - 10:00PM, Wed : 12:00PM - 10:00PM, Thur : 12:00PM - 10:00PM, Fri : 12:00PM - 10:00PM, Sat : 12:00PM - 10:00PM, Sun : 12:00PM - 10:00PM",,,0
Six Flags Mitchellville MD,887,13710 Central Avenue,,Mitchellville,MD,20721,US,,38.901185,-76.770555,"Mon : Closed, Tues : Closed, Wed : Closed, Thur : Closed, Fri : Closed, Sat : Closed, Sun : Closed",,,0
Ephrata,134,290 S. Reading Road,,Ephrata,PA,17522,US,717-466-5696,40.1777,-76.1958,"Mon : 12:00PM - 10:00PM, Tues : 12:00PM - 10:00PM, Wed : 12:00PM - 10:00PM, Thur : 12:00PM - 10:00PM, Fri : 12:00PM - 10:00PM, Sat : 12:00PM - 10:00PM, Sun : 12:00PM - 10:00PM",,,0
East Lampeter,271,1951 Lincoln Hwy East,,Lancaster,PA,17602,US,717-394-2300,40.0334,-76.2448,"Mon : 12:00PM - 9:00PM, Tues : 12:00PM - 9:00PM, Wed : 12:00PM - 9:00PM, Thur : 12:00PM - 9:00PM, Fri : 12:00PM - 9:00PM, Sat : 12:00PM - 9:00PM, Sun : 12:00PM - 9:00PM",,,0
Kings Dominion,888,16000 Theme Park Way,,Doswell,VA,23047,US,,37.841783,-77.445224,"Mon : Closed, Tues : Closed, Wed : Closed, Thur : Closed, Fri : Closed, Sat : Closed, Sun : Closed",,,0
Overlea Fullerton,496,7698 Belair Road,Suite 105,Baltimore,MD,21236,US,410-882-7482,39.367335,-76.517854,"Mon : 12:00PM - 9:00PM, Tues : 12:00PM - 9:00PM, Wed : 12:00PM - 9:00PM, Thur : 12:00PM - 9:00PM, Fri : 12:00PM - 9:00PM, Sat : 12:00PM - 9:00PM, Sun : 12:00PM - 9:00PM",,,0
Kingston,212,Cee Kay Auto Complex,355 Market Street,Kingston,PA,18704,US,570-331-9135,41.256281,-75.892139,"Mon : 12:00PM - 10:00PM, Tues : 12:00PM - 10:00PM, Wed : 12:00PM - 10:00PM, Thur : 12:00PM - 10:00PM, Fri : 12:00PM - 10:00PM, Sat : 12:00PM - 10:00PM, Sun : 12:00PM - 10:00PM",,,0
Crofton,192,2163 Defense Hwy. Route 450,,Crofton,MD,21114,US,410-721-7752,38.9917,-76.6987,"Mon : 12:00PM - 10:00PM, Tues : 12:00PM - 10:00PM, Wed : 12:00PM - 10:00PM, Thur : 12:00PM - 10:00PM, Fri : 12:00PM - 10:00PM, Sat : 12:00PM - 10:00PM, Sun : 12:00PM - 10:00PM",,,0
Hometown,144,Route 309   Route 54,,Hometown,PA,18252,US,570-668-1460,40.8239,-75.981,"Mon : 11:00AM - 10:00PM, Tues : 11:00AM - 10:00PM, Wed : 11:00AM - 10:00PM, Thur : 11:00AM - 10:00PM, Fri : 11:00AM - 10:00PM, Sat : 11:00AM - 10:00PM, Sun : 11:00AM - 10:00PM",,,0
Waldorf,246,3312 Leonardtown Road,,Waldorf,MD,20601,US,301-645-4091,38.621138,-76.900837,"Mon : 12:00PM - 10:00PM, Tues : 12:00PM - 10:00PM, Wed : 12:00PM - 10:00PM, Thur : 12:00PM - 10:00PM, Fri : 12:00PM - 10:00PM, Sat : 12:00PM - 10:00PM, Sun : 12:00PM - 10:00PM",,,0
Marley Station,468,7900 Ritchie Hwy,Store # E 105,Glen Burnie,MD,21061,US,410-844-0349,39.138587, -76.606470,"Mon : 10:00AM - 9:00PM, Tues : 10:00AM - 9:00PM, Wed : 10:00AM - 9:00PM, Thur : 10:00AM - 9:00PM, Fri : 10:00AM - 9:00PM, Sat : 10:00AM - 9:00PM, Sun : 11:00AM - 6:00PM",,,0
Rosedale,1271,6305 Kenwood Avenue,,Baltimore,MD,21237,US,410-866-7482,39.34,-76.5058,"Mon : 12:00PM - 9:00PM, Tues : 12:00PM - 9:00PM, Wed : 12:00PM - 9:00PM, Thur : 12:00PM - 9:00PM, Fri : 12:00PM - 9:00PM, Sat : 12:00PM - 9:00PM, Sun : 12:00PM - 9:00PM",,,0
Perry Hall,261,9648 Belair Road,,Perry Hall,MD,21236,US,410-529-7742,39.4155,-76.4612,"Mon : 12:00PM - 10:00PM, Tues : 12:00PM - 10:00PM, Wed : 12:00PM - 10:00PM, Thur : 12:00PM - 10:00PM, Fri : 12:00PM - 10:00PM, Sat : 11:00AM - 10:00PM, Sun : 11:00AM - 10:00PM",,,0
Dundalk,167,1099 Merritt Boulevard,,Dundalk,MD,21222,US,410-282-0080,39.2844,-76.505,"Mon : 12:00PM - 10:00PM, Tues : 12:00PM - 10:00PM, Wed : 12:00PM - 10:00PM, Thur : 12:00PM - 10:00PM, Fri : 12:00PM - 10:00PM, Sat : 12:00PM - 10:00PM, Sun : 12:00PM - 10:00PM",,,0
Forest Hill,663,1510 Rock Spring Road,,Forest Hill,MD,21050,US,410-836-0611,39.55981,-76.37007,"Mon : 12:00PM - 10:00PM, Tues : 12:00PM - 10:00PM, Wed : 12:00PM - 10:00PM, Thur : 12:00PM - 10:00PM, Fri : 12:00PM - 10:00PM, Sat : 12:00PM - 10:00PM, Sun : 12:00PM - 10:00PM",,,0
Fallston,1254,220 Mountain Road,,Fallston,MD,21047,US,410-877-9300,39.4932,-76.3951,"Mon : 12:00AM - 10:00PM, Tues : 12:00AM - 10:00PM, Wed : 12:00AM - 10:00PM, Thur : 12:00AM - 10:00PM, Fri : 12:00AM - 10:00PM, Sat : 12:00AM - 10:00PM, Sun : 12:00AM - 10:00PM",,,0
Pasadena,309,3013-A Mountain Road,,Pasadena,MD,21122,US,443-817-7482,39.126303,-76.536904,"Mon : 12:00PM - 10:00PM, Tues : 12:00PM - 10:00PM, Wed : 12:00PM - 10:00PM, Thur : 12:00PM - 10:00PM, Fri : 12:00PM - 10:00PM, Sat : 12:00PM - 10:00PM, Sun : 12:00PM - 10:00PM",,,0
Severna Park,441,567 Baltimore Annapolis Boulevard,,Severna Park,MD,21146,US,410-647-1265,39.073632,-76.54751,"Mon : 12:00PM - 10:00PM, Tues : 12:00PM - 10:00PM, Wed : 12:00PM - 10:00PM, Thur : 12:00PM - 10:00PM, Fri : 12:00PM - 10:00PM, Sat : 12:00PM - 10:00PM, Sun : 12:00PM - 10:00PM",,,0
Sinking Spring,69,1 Shillington Road,,Sinking Spring,PA,19608,US,610-678-8290,40.3248,-76.0142,"Mon : 12:00AM - 10:00PM, Tues : 12:00AM - 10:00PM, Wed : 12:00AM - 10:00PM, Thur : 12:00AM - 10:00PM, Fri : 12:00AM - 10:00PM, Sat : 12:00AM - 10:00PM, Sun : 12:00AM - 10:00PM",,,0
Joppatowne,229,523 Pulaski Highway,,Joppa,MD,21085,US,410-679-7452,39.428,-76.36,"Mon : 12:00PM - 10:00PM, Tues : 12:00PM - 10:00PM, Wed : 12:00PM - 10:00PM, Thur : 12:00PM - 10:00PM, Fri : 12:00PM - 10:00PM, Sat : 11:00AM - 10:00PM, Sun : 11:00AM - 10:00PM",,,0
Carroll Island,790,162 Carroll Island -Suite 158,,Middle River,MD,21220,US,410-335-7482,39.337743,-76.398464,"Mon : 12:00PM - 10:00PM, Tues : 12:00PM - 10:00PM, Wed : 12:00PM - 10:00PM, Thur : 12:00PM - 10:00PM, Fri : 12:00PM - 10:00PM, Sat : 12:00PM - 10:00PM, Sun : 12:00PM - 10:00PM",,,0
Churchville,436,2310 A Churchville Road,,Bel Air,MD,21015,US,410-734-0456,39.5561,-76.2768,"Mon : 12:00PM - 10:00PM, Tues : 12:00PM - 10:00PM, Wed : 12:00PM - 10:00PM, Thur : 12:00PM - 10:00PM, Fri : 12:00PM - 10:00PM, Sat : 12:00PM - 10:00PM, Sun : 12:00PM - 10:00PM",,,0
Emmorton Road,440,3007 Emmorton Road,,Abingdon,MD,21009,US,410-569-6007,39.47635,-76.309297,"Mon : 12:00PM - 10:00PM, Tues : 12:00PM - 10:00PM, Wed : 12:00PM - 10:00PM, Thur : 12:00PM - 10:00PM, Fri : 12:00PM - 10:00PM, Sat : 12:00PM - 10:00PM, Sun : 12:00PM - 10:00PM",,,0
Edgewater,339,120 Mayo Road,,Edgewater,MD,21037,US,410-956-7444,38.9354,-76.5578,"Mon : 12:00PM - 10:00PM, Tues : 12:00PM - 10:00PM, Wed : 12:00PM - 10:00PM, Thur : 12:00PM - 10:00PM, Fri : 12:00PM - 10:00PM, Sat : 12:00PM - 10:00PM, Sun : 12:00PM - 10:00PM",,,0
5th Street Highway,120,3403 N 5th Street Highway,,Reading,PA,19605,US,610-929-9310,40.3856,-75.927,"Mon : 12:00AM - 10:00PM, Tues : 12:00AM - 10:00PM, Wed : 12:00AM - 10:00PM, Thur : 12:00AM - 10:00PM, Fri : 12:00AM - 10:00PM, Sat : 12:00AM - 10:00PM, Sun : 12:00AM - 10:00PM",,,0
Durham Bulls Athletic Park,650,409 Blackwell Street,,Durham,NC,27701,US,,35.910961,-79.072218,"Mon : Closed, Tues : Closed, Wed : Closed, Thur : Closed, Fri : Closed, Sat : Closed, Sun : Closed",,,0
Dunkirk,525,10331 Southern Maryland Boulevard,Suite 101,Dunkirk,MD,20754,US,410-286-7114,38.7194,-76.66,"Mon : 12:00PM - 10:00PM, Tues : 12:00PM - 10:00PM, Wed : 12:00PM - 10:00PM, Thur : 12:00PM - 10:00PM, Fri : 12:00PM - 10:00PM, Sat : 12:00PM - 10:00PM, Sun : 12:00PM - 10:00PM",,,0
Shillington,138,1124-30 Lancaster Avenue,,Reading,PA,19607,US,610-796-2885,40.3134,-75.9456,"Mon : 12:00PM - 10:00PM, Tues : 12:00PM - 10:00PM, Wed : 12:00PM - 10:00PM, Thur : 12:00PM - 10:00PM, Fri : 12:00PM - 10:00PM, Sat : 12:00PM - 10:00PM, Sun : 12:00PM - 10:00PM",,,0
Oley Street,20120,810 Oley Street,Suite G1,Reading,PA,19604,US,,40.345041,-75.921303,"Mon : 12:00AM - 9:00PM, Tues : 12:00AM - 9:00PM, Wed : 12:00AM - 9:00PM, Thur : 12:00AM - 9:00PM, Fri : 12:00AM - 9:00PM, Sat : 12:00AM - 9:00PM, Sun : 12:00AM - 9:00PM",,,0
Charlotte Hall,359,30135 Three Notch Road,,Charlotte Hall,MD,20622,US,301-884-6002,38.4951,-76.775,"Mon : 12:00PM - 10:00PM, Tues : 12:00PM - 10:00PM, Wed : 12:00PM - 10:00PM, Thur : 12:00PM - 10:00PM, Fri : 12:00PM - 10:00PM, Sat : 12:00PM - 10:00PM, Sun : 12:00PM - 10:00PM",,,0
Gap,257,5351 Lincoln Highway,,Gap,PA,17527,US,717-442-7977,39.992133,-76.019585,"Mon : 11:00AM - 10:00PM, Tues : 11:00AM - 10:00PM, Wed : 11:00AM - 10:00PM, Thur : 11:00AM - 10:00PM, Fri : 11:00AM - 10:00PM, Sat : 11:00AM - 10:00PM, Sun : 11:00AM - 10:00PM",,,0
Bay Ridge Road,249,911 B Bay Ridge Rd.,,Annapolis,MD,21403,US,410-216-9458,38.9487,-76.4904,"Mon : 12:00PM - 10:00PM, Tues : 12:00PM - 10:00PM, Wed : 12:00PM - 10:00PM, Thur : 12:00PM - 10:00PM, Fri : 12:00PM - 10:00PM, Sat : 12:00PM - 10:00PM, Sun : 12:00PM - 10:00PM",,,0
Annapolis,117,1394 Cape St Claire Road,,Annapolis,MD,21409,US,410-757-0722,39.036744,-76.43953,"Mon : 12:00PM - 10:00PM, Tues : 12:00PM - 10:00PM, Wed : 12:00PM - 10:00PM, Thur : 12:00PM - 10:00PM, Fri : 12:00PM - 10:00PM, Sat : 12:00PM - 10:00PM, Sun : 12:00PM - 10:00PM",,,0
Aberdeen,341,772 West Bel Air Avenue,,Aberdeen,MD,21001,US,410-272-4413,39.5195,-76.1859,"Mon : 12:00PM - 10:00PM, Tues : 12:00PM - 10:00PM, Wed : 12:00PM - 10:00PM, Thur : 12:00PM - 10:00PM, Fri : 12:00PM - 10:00PM, Sat : 12:00PM - 10:00PM, Sun : 12:00PM - 10:00PM",,,0
Morgantown,364,3080 West Main Street,,Morgantown,PA,19543,US,610-286-1902,40.1548,-75.8914,"Mon : 11:00AM - 10:00PM, Tues : 11:00AM - 10:00PM, Wed : 11:00AM - 10:00PM, Thur : 11:00AM - 10:00PM, Fri : 11:00AM - 10:00PM, Sat : 11:00AM - 10:00PM, Sun : 11:00AM - 10:00PM",,,0
Prince Frederick,476,738 North Prince Frederick Blvd.,,Prince Frederick,MD,20678,US,410-414-9200,38.552624,-76.596972,"Mon : 12:00PM - 9:00PM, Tues : 12:00PM - 9:00PM, Wed : 12:00PM - 9:00PM, Thur : 12:00PM - 9:00PM, Fri : 12:00PM - 9:00PM, Sat : 12:00PM - 9:00PM, Sun : 12:00PM - 9:00PM",,,0
Oxford,490,Oxford Square Shopping Center,453 North Third Street Suite 453,Oxford,PA,19363,US,610-932-2523,39.793848,-75.975882,"Mon : 12:00PM - 10:00PM, Tues : 12:00PM - 10:00PM, Wed : 12:00PM - 10:00PM, Thur : 12:00PM - 10:00PM, Fri : 11:30AM - 10:00PM, Sat : 11:30AM - 10:00PM, Sun : 12:00PM - 10:00PM",,,0
Kent Island,289,210 Kent Landing,,Stevensville,MD,21666,US,410-604-6350,38.9758,-76.3199,"Mon : 12:00PM - 9:00PM, Tues : 12:00PM - 9:00PM, Wed : 12:00PM - 9:00PM, Thur : 12:00PM - 9:00PM, Fri : 12:00PM - 10:00PM, Sat : 11:00PM - 10:00PM, Sun : 11:00PM - 9:00PM",,,0
North East,444,2328 Pulaski Highway Unit 1,,North East,MD,21901,US,410-287-0875,39.6094,-75.944506,"Mon : 10:00AM - 10:00PM, Tues : 10:00AM - 10:00PM, Wed : 10:00AM - 10:00PM, Thur : 10:00AM - 10:00PM, Fri : 10:00AM - 10:00PM, Sat : 10:00AM - 10:00PM, Sun : 10:00AM - 10:00PM",,,0
Elkton,91,403 East Pulaski Highway,,Elkton,MD,21921,US,410-620-1516,39.5985,-75.8179,"Mon : 12:00PM - 9:00PM, Tues : 12:00PM - 9:00PM, Wed : 12:00PM - 9:00PM, Thur : 12:00PM - 9:00PM, Fri : 12:00PM - 9:00PM, Sat : 12:00PM - 9:00PM, Sun : 12:00PM - 9:00PM",,,0
Solomons,579,13450 HG Trueman Road,,Solomons ,MD,20688,US,410-394-3707,38.34552,-76.465859,"Mon : 12:00PM - 10:00PM, Tues : 12:00PM - 10:00PM, Wed : 12:00PM - 10:00PM, Thur : 12:00PM - 10:00PM, Fri : 12:00PM - 10:00PM, Sat : 12:00PM - 10:00PM, Sun : 12:00PM - 10:00PM",,,0
Cary,614,8204 Tryon Woods Drive,Suite 112,Cary,NC,27518,US,919-851-3848,35.746203,-78.741132,"Mon : 12:00PM - 10:00PM, Tues : 12:00PM - 10:00PM, Wed : 12:00PM - 10:00PM, Thur : 12:00PM - 10:00PM, Fri : 12:00PM - 10:00PM, Sat : 12:00PM - 10:00PM, Sun : 12:00PM - 10:00PM",,,0
Newark,118,600 Newark Shopping Center,,Newark,DE,19711,US,302-368-4885,39.6851,-75.7436,"Mon : 12:00PM - 10:00PM, Tues : 12:00PM - 10:00PM, Wed : 12:00PM - 10:00PM, Thur : 12:00PM - 10:00PM, Fri : 12:00PM - 10:00PM, Sat : 12:00PM - 10:00PM, Sun : 12:00PM - 10:00PM",,,0
Hockessin,330,7313 Lancaster Pike,,Hockessin,DE,19707,US,302-235-0520,39.788,-75.6925,"Mon : 11:30AM - 10:00PM, Tues : 11:30AM - 10:00PM, Wed : 11:30AM - 10:00PM, Thur : 11:30AM - 10:00PM, Fri : 11:30AM - 10:00PM, Sat : 11:30AM - 10:00PM, Sun : 11:30AM - 10:00PM",,,0
Center Park,629,Center Park Shopping Center,11109 US 15/501,Aberdeen,NC,28315,US,910-246-0772,35.156175,-79.415456,"Mon : Closed, Tues : Closed, Wed : Closed, Thur : Closed, Fri : Closed, Sat : Closed, Sun : Closed",,,0
Bear,423,Salem Center,1673 Pulaski Highway,Bear,DE,19701,US,302-834-3390,39.6199,-75.6936,"Mon : 11:00AM - 10:00PM, Tues : 11:00AM - 10:00PM, Wed : 11:00AM - 10:00PM, Thur : 11:00AM - 10:00PM, Fri : 11:00AM - 10:00PM, Sat : 11:00AM - 10:00PM, Sun : 11:00AM - 10:00PM",,,0
Kirkwood,57,3730 Kirkwood Highway,,Wilmington,DE,19808,US,302-995-9501,39.7318,-75.6421,"Mon : 11:00PM - 10:00PM, Tues : 11:00PM - 10:00PM, Wed : 11:00PM - 10:00PM, Thur : 11:00PM - 10:00PM, Fri : 11:00PM - 10:00PM, Sat : 11:00PM - 10:00PM, Sun : 11:00PM - 10:00PM",,,0
Marlboro Plaza,285,106 Marlboro Road,,Easton,MD,21601,US,410-770-4439,38.7806,-76.0792,"Mon : 12:00PM - 9:00PM, Tues : 12:00PM - 9:00PM, Wed : 12:00PM - 9:00PM, Thur : 12:00PM - 9:00PM, Fri : 12:00PM - 9:00PM, Sat : 12:00PM - 9:00PM, Sun : 12:00PM - 9:00PM",,,0
COMING SOON: Greenville DE,1329,3842B Kennett Pike,,Greenville,DE,19807,US,,39.775824941059,-75.596837997437,"Mon : Closed, Tues : Closed, Wed : Closed, Thur : Closed, Fri : Closed, Sat : Closed, Sun : Closed",,,1
Community Plaza,113,Community Plaza Shopping Cntr.,Unit 19 Route 273,New Castle,DE,19720,US,302-325-0999,39.6625,-75.6402,"Mon : 11:00PM - 10:00PM, Tues : 11:00PM - 10:00PM, Wed : 11:00PM - 10:00PM, Thur : 11:00PM - 10:00PM, Fri : 11:00PM - 10:00PM, Sat : 11:00PM - 10:00PM, Sun : 11:00PM - 10:00PM",,,0
Middletown,414,Summit Plaza Shopping Center,5246 Summit Bridge Road,Middletown,DE,19709,US,302-464-1277,39.467739810505,-75.720176696777,"Mon : 11:30AM - 10:00PM, Tues : 11:30AM - 10:00PM, Wed : 11:30AM - 10:00PM, Thur : 11:30AM - 10:00PM, Fri : 11:30AM - 10:00PM, Sat : 11:30AM - 10:00PM, Sun : 11:30AM - 10:00PM",,,0
Maryland Avenue,37,317 Maryland Avenue,,Wilmington,DE,19804,US,302-256-0094,39.7316,-75.5816,"Mon : 12:00PM - 9:00PM, Tues : 12:00PM - 9:00PM, Wed : 12:00PM - 9:00PM, Thur : 12:00PM - 9:00PM, Fri : 12:00PM - 10:00PM, Sat : 12:00PM - 10:00PM, Sun : 12:00PM - 9:00PM",,,0
Concord Pike,84,2909 Concord Pike,,Wilmington,DE,19803,US,302-478-7383,39.7989,-75.5474,"Mon : 11:30AM - 10:00PM, Tues : 11:30AM - 10:00PM, Wed : 11:30AM - 10:00PM, Thur : 11:30AM - 10:00PM, Fri : 11:30AM - 10:00PM, Sat : 11:30AM - 10:00PM, Sun : 11:30AM - 10:00PM",,,0
New Castle,62,600 E Basin Road,,New Castle,DE,19720,US,302-276-0566,39.672488,-75.581971,"Mon : 12:00PM - 9:00PM, Tues : 12:00PM - 9:00PM, Wed : 12:00PM - 9:00PM, Thur : 12:00PM - 9:00PM, Fri : 12:00PM - 9:00PM, Sat : 12:00PM - 9:00PM, Sun : 12:00PM - 9:00PM",,,0
Monticello Avenue,410,220D Monticello Avenue,,Williamsburg,VA,23185,US,757-259-7482,37.2823,-76.722,"Mon : 12:00PM - 10:00PM, Tues : 12:00PM - 10:00PM, Wed : 12:00PM - 10:00PM, Thur : 12:00PM - 10:00PM, Fri : 12:00PM - 10:00PM, Sat : 12:00PM - 10:00PM, Sun : 12:00PM - 10:00PM",,,0
Newport News,178,12286 Warwick Boulevard,,Newport News,VA,23606,US,757-595-5992,37.063152,-76.488791,"Mon : 12:00PM - 10:00PM, Tues : 12:00PM - 10:00PM, Wed : 12:00PM - 10:00PM, Thur : 12:00PM - 10:00PM, Fri : 12:00PM - 10:00PM, Sat : 12:00PM - 10:00PM, Sun : 12:00AM - 10:00PM",,,0
Walmart Yorktown VA,1132,Walmart,2601 George Washington Memorial Highway,Yorktown,VA,23693,US,757-867-7935,37.119484,-76.459368,"Mon : 10:00AM - 9:00PM, Tues : 10:00AM - 9:00PM, Wed : 10:00AM - 9:00PM, Thur : 10:00AM - 9:00PM, Fri : 10:00AM - 9:00PM, Sat : 10:00AM - 9:00PM, Sun : 10:00AM - 9:00PM",,,0
Hampton VA,847,Todd Shopping Center,2328 West Mercury Blvd.,Hampton,VA,23666,US,757-827-2846,37.039083,-76.407756,"Mon : 12:00PM - 10:00PM, Tues : 12:00PM - 10:00PM, Wed : 12:00PM - 10:00PM, Thur : 12:00PM - 10:00PM, Fri : 12:00PM - 10:00PM, Sat : 12:00PM - 10:00PM, Sun : 12:00PM - 10:00PM",,,0
Smyrna,387,124 North Dupont Blvd.,,Smyrna,DE,19977,US,302-659-2959,39.304,-75.6048,"Mon : 12:00PM - 10:00PM, Tues : 12:00AM - 10:00PM, Wed : 12:00PM - 10:00PM, Thur : 12:00PM - 10:00PM, Fri : 12:00PM - 10:00PM, Sat : 12:00PM - 10:00PM, Sun : 12:00PM - 10:00PM",,,0
Pennsville,260,277 North Broadway,,Pennsville,NJ,08070,US,856-678-5200,39.6702,-75.5052,"Mon : 12:00PM - 10:00PM, Tues : 12:00PM - 10:00PM, Wed : 12:00PM - 10:00PM, Thur : 12:00PM - 10:00PM, Fri : 12:00PM - 10:00PM, Sat : 12:00PM - 10:00PM, Sun : 12:00PM - 10:00PM",,,0
Dover,427,191 North Dupont Highway,,Dover,DE,19901,US,302-674-9473,39.168029,-75.516669,"Mon : 11:00AM - 10:00PM, Tues : 11:00AM - 10:00PM, Wed : 11:00AM - 10:00PM, Thur : 11:00AM - 10:00PM, Fri : 11:00AM - 10:00PM, Sat : 11:00AM - 10:00PM, Sun : 11:00AM - 10:00PM",,,0
Bridgeton,215,73 Landis Avenue,,Bridgeton,NJ,08302,US,856-459-2211,39.4643,-75.2033,"Mon : 12:00PM - 10:00PM, Tues : 12:00PM - 10:00PM, Wed : 12:00PM - 10:00PM, Thur : 12:00PM - 10:00PM, Fri : 12:00PM - 10:00PM, Sat : 12:00PM - 10:00PM, Sun : 12:00PM - 10:00PM",,,0
Millville,187,3470 South Delsea Drive,,Vineland,NJ,08360,US,856-293-8775,39.4368,-75.041377,"Mon : 12:00PM - 10:00PM, Tues : 12:00PM - 10:00PM, Wed : 12:00PM - 10:00PM, Thur : 12:00PM - 10:00PM, Fri : 12:00PM - 10:00PM, Sat : 12:00PM - 10:00PM, Sun : 12:00PM - 10:00PM",,,0
Ocean City,9,902 Boardwalk,,Ocean City,NJ,08226,US,609-938-2456,39.2752,-74.5712,"Mon : 10:00AM - 11:00PM, Tues : 10:00AM - 11:00PM, Wed : 10:00AM - 11:00PM, Thur : 10:00AM - 11:00PM, Fri : 10:00AM - 11:00PM, Sat : 10:00AM - 11:00PM, Sun : 10:00AM - 11:00PM",,,0
Sea Isle City,495,4109 Landis Avenue,First Floor - North Side,Sea Isle City,NJ,08243,US,609-263-0800,39.15301,-74.69563,"Mon : 12:00PM - 10:00PM, Tues : 12:00PM - 10:00PM, Wed : 12:00PM - 10:00PM, Thur : 12:00PM - 10:00PM, Fri : 12:00PM - 10:00PM, Sat : 12:00PM - 10:00PM, Sun : 12:00PM - 10:00PM",,,0
Rio Grande,175,3905 Route 9 South,,Rio Grande,NJ,08242,US,609-889-7482,39.0136,-74.8778,"Mon : 11:00AM - 11:00PM, Tues : 11:00AM - 11:00PM, Wed : 11:00AM - 11:00PM, Thur : 11:00AM - 11:00PM, Fri : 11:00AM - 11:00PM, Sat : 11:00AM - 11:00PM, Sun : 11:00AM - 11:00PM",,,0
Wildwood,1090,2912 Boardwalk,,Wildwood,NJ,08260,US,,38.989012,-74.806597,"Mon : Closed, Tues : Closed, Wed : Closed, Thur : Closed, Fri : Closed, Sat : 12:00PM - 10:00PM, Sun : 12:00PM - 10:00PM",,,0
Cape May,519,707 Beach Avenue,,Cape May,NJ,08204,US,609-884-0229,38.930915,-74.918326,"Mon : 11:00AM - 10:00PM, Tues : 11:00AM - 10:00PM, Wed : 11:00AM - 10:00PM, Thur : 11:00AM - 10:00PM, Fri : 11:00AM - 10:00PM, Sat : 11:00AM - 10:00PM, Sun : 11:00AM - 10:00PM",,,0
Milford,305,937 North Dupont Boulevard,,Milford,DE,19963,US,302-265-2555,38.9297,-75.43341,"Mon : 11:00AM - 10:00PM, Tues : 11:00AM - 10:00PM, Wed : 11:00PM - 10:00PM, Thur : 11:00AM - 10:00PM, Fri : 11:00PM - 10:00PM, Sat : 11:00AM - 10:00PM, Sun : 11:00AM - 10:00PM",,,0
Walmart Myrtle Beach,1190,Walmart #2717,541 Seaboard Street,Myrtle Beach,SC,29577,US,,33.703159,-78.911726,,,,0
North Myrtle Beach,875,2203-1 Highway 17 South,,N. Myrtle Beach,SC,29582,US,843-272-0886 ,33.80921,-78.7126,"Mon : 12:00PM - 10:00PM, Tues : 12:00PM - 10:00PM, Wed : 12:00PM - 10:00PM, Thur : 12:00PM - 10:00PM, Fri : 12:00PM - 10:00PM, Sat : 12:00PM - 10:00PM, Sun : 12:00PM - 10:00PM",,,0
Plaza Shopping Center,714,345D Western Blvd,,Jacksonville,NC,28541,US,910-219-1300,34.76629,-77.384525,"Mon : 12:00PM - 10:00PM, Tues : 12:00PM - 10:00PM, Wed : 12:00PM - 10:00PM, Thur : 12:00PM - 10:00PM, Fri : 11:00PM - 10:00PM, Sat : 11:00PM - 10:00PM, Sun : 12:00PM - 10:00PM",,,0
Greenbrier Shoppes,746,501 Kempsville Road,Suite 102,Chesapeake,VA,23320,US,757-410-8850,36.743807,-76.223574,"Mon : 12:00PM - 10:00PM, Tues : 12:00PM - 10:00PM, Wed : 12:00PM - 10:00PM, Thur : 12:00PM - 10:00PM, Fri : 12:00PM - 10:00PM, Sat : 12:00AM - 10:00PM, Sun : 12:00PM - 10:00PM",,,0
Fairfield Virginia Beach,445,5256 Providence Road,Suite B,Virginia Beach,VA,23464,US,757-474-2770,36.814416,-76.168645,"Mon : 12:00PM - 10:00PM, Tues : 12:00PM - 10:00PM, Wed : 12:00PM - 10:00PM, Thur : 12:00PM - 10:00PM, Fri : 12:00PM - 10:00PM, Sat : 12:00PM - 10:00PM, Sun : 12:00PM - 10:00PM",,,0
Virginia Beach,559,4640 Shore Drive,Suite 111,Virginia Beach,VA,23455,US,757-390-4890,36.903909,-76.130904,"Mon : 12:00PM - 10:00PM, Tues : 12:00PM - 10:00PM, Wed : 12:00PM - 10:00PM, Thur : 12:00PM - 11:00PM, Fri : 12:00PM - 10:00PM, Sat : 12:00PM - 10:00PM, Sun : 12:00PM - 10:00PM",,,0
Salisbury,239,831 South Salisbury Blvd.,,Salisbury,MD,21801,US,410-251-3666,38.354,-75.6003,"Mon : 12:00PM - 9:00PM, Tues : 12:00PM - 9:00PM, Wed : 12:00PM - 9:00PM, Thur : 12:00PM - 9:00PM, Fri : 12:00PM - 9:00PM, Sat : 12:00PM - 9:00PM, Sun : 12:00PM - 9:00PM",,,0
Seaford,292,1250 Norman Eskridge Hwy.,Unit 1,Seaford,DE,19973,US,302-536-1930,38.653057,-75.596482,"Mon : 12:00PM - 10:00PM, Tues : 12:00PM - 10:00PM, Wed : 12:00PM - 10:00PM, Thur : 12:00PM - 10:00PM, Fri : 12:00PM - 10:00PM, Sat : 12:00PM - 10:00PM, Sun : 12:00PM - 10:00PM",,,0
Ocean Pines,538,11317 Manklin Creek Road,Building B Unit 6,Ocean Pines,MD,21811,US,410-208-1100,38.376195,-75.158892,"Mon : Closed, Tues : Closed, Wed : Closed, Thur : Closed, Fri : Closed, Sat : Closed, Sun : Closed",,,0
41st and Coastal Highway,299,4101 Coastal Hwy,,Ocean City,MD,21842,US,410-524-2875,38.368,-75.0714,"Mon : 12:00PM - 11:00PM, Tues : 12:00PM - 11:00PM, Wed : 12:00PM - 11:00PM, Thur : 12:00PM - 11:00PM, Fri : 12:00PM - 11:00PM, Sat : 12:00PM - 11:00PM, Sun : 12:00PM - 11:00PM",,,0
Bethany Beach,638,765 Garfield Parkway,State Route 26,Bethany,DE,19930,US,302-539-3880,38.540727,-75.0712,"Mon : 11:00AM - 11:00PM, Tues : 11:00AM - 11:00PM, Wed : 11:00AM - 11:00PM, Thur : 11:00AM - 11:00PM, Fri : 11:00AM - 11:00PM, Sat : 11:00AM - 11:00PM, Sun : 11:00AM - 11:00PM",,,0
Rehoboth Beach,278,Midway Galleria,18701 Coastal Highway Unit #5,Rehoboth Beach,DE,19971,US,302-645-4501,38.73503,-75.13758,"Mon : 10:00AM - 10:00PM, Tues : 10:00AM - 10:00PM, Wed : 10:00AM - 10:00PM, Thur : 10:00AM - 10:00PM, Fri : 10:00AM - 10:00PM, Sat : 10:00AM - 10:00PM, Sun : 10:00AM - 10:00PM",,,0
COMING SOON: Rehoboth Avenue,1347,47-B Rehoboth Avenue,,Rehoboth Beach,DE,19971,US,,38.716858163582,-75.077476501465,"Mon : Closed, Tues : Closed, Wed : Closed, Thur : Closed, Fri : Closed, Sat : Closed, Sun : Closed",,,1
Beddington Blvd,5012,8118 Beddington Blvd. NW,,Calgary,,T2W,CA,,51.128306716819, -114.07276153564453,,,,0
Forest Lawn,5013,120,4501 - 17th Avenue SW,Calgary,,T2A,CA,,51.039019298156,-113.96907806396,,,,0
Chelsea,1134,Mystic Mall,170 Everett Avenue,Chelsea,MA,02150,US,617-889-0302,42.393797760557,-71.042060852051,"Mon : 12:00PM - 10:00PM, Tues : 12:00PM - 10:00PM, Wed : 12:00PM - 10:00PM, Thur : 12:00PM - 10:00PM, Fri : 12:00PM - 10:00PM, Sat : 12:00PM - 10:00PM, Sun : 12:00AM - 10:00PM",,,0
Vernon,545,378 Kelly Road,,Vernon,CT,06066,US,860-648-1833,41.825196,-72.497841,"Mon : 12:00PM - 10:00PM, Tues : 12:00PM - 10:00PM, Wed : 12:00PM - 10:00PM, Thur : 12:00PM - 10:00PM, Fri : 12:00PM - 10:00PM, Sat : 12:00PM - 10:00PM, Sun : 12:00PM - 10:00PM",,,0
South Windsor,465,Town Center Plaza,1735 Ellington Road Str. #1,South Windsor,CT,06074,US,860-648-2248,41.826856,-72.555604,"Mon : 12:00PM - 10:00PM, Tues : 12:00PM - 10:00PM, Wed : 12:00PM - 10:00PM, Thur : 12:00PM - 10:00PM, Fri : 12:00PM - 10:00PM, Sat : 12:00PM - 10:00PM, Sun : 12:00PM - 10:00PM",,,0
New London,532,361 Colman Street,,New London,CT,06320,US,860-444-1600,41.358604,-72.11573,"Mon : 11:00AM - 10:00PM, Tues : 11:00AM - 10:00PM, Wed : 11:00AM - 10:00PM, Thur : 11:00AM - 10:00PM, Fri : 11:00AM - 10:00PM, Sat : 11:00AM - 10:00PM, Sun : 11:00AM - 10:00PM",,,0
Tikis Family Fun Center,1178,735 Iwilei Road,,Honolulu,HI,96817,US,808-206-9143,21.315923153233,-157.87010192871,"Mon : Closed, Tues : Closed, Wed : Closed, Thur : Closed, Fri : Closed, Sat : Closed, Sun : Closed",,,0
COMING SOON: Koko Marina Center,1180,7192 Kalanianole Highway,,Honolulu,HI,96825,US,,21.277857723794,-157.70565032959,,,,1
COMING SOON: Azeka Shopping Center,1179,1279 Kihei Road,Suite 203,Kihei,HI,96753,US,,20.7490273,-156.4549214,,,,1
Old San Juan,1150,105 Calle del Cristo Street,,Old San Juan,PR,00901,US,,18.465926,-66.118194,"Mon : 10:00AM - 10:00PM, Tues : 10:00AM - 10:00PM, Wed : 10:00AM - 10:00PM, Thur : 10:00AM - 10:00PM, Fri : 10:00AM - 10:00PM, Sat : 10:00AM - 10:00PM, Sun : 10:00AM - 10:00PM",,,0
