phone_number,city,distributor_name,store_type,store_number,country,address2,longitude,store_hours,store_name,state,other_fields,address,latitude,zip_code
203-686-0462,MERIDEN,,,,US,WESTFIELD SHOPPINGTOWN MERIDEN,-72.8101,"12/24/2016 7:00am - 6:00pm,12/25/2016 Closed,12/31/2016 9:00am - 7:00pm,1/1/2017 9:00am - 7:00pm",MERIDEN,CT,,470 LEWIS AVENUE,41.5512,06451
860-666-3877,NEWINGTON,,,,US,TURNPIKE PLAZA,-72.7217,"12/24/2016 7:00am - 6:00pm,12/25/2016 Closed,12/31/2016 9:00am - 7:00pm,1/1/2017 9:00am - 7:00pm",NEWINGTON,CT,,2985 BERLIN TURNPIKE,41.6684,06111
860-747-2102,PLAINVILLE,,,,US,CONNECTICUT COMMONS,-72.84,"12/24/2016 7:00am - 6:00pm,12/25/2016 Closed,12/31/2016 9:00am - 7:00pm,1/1/2017 9:00am - 7:00pm",PLAINVILLE,CT,,280 NEW BRITAIN AVENUE,41.6732,06062
203-836-2860,NORTH HAVEN,,,,US,HOME DEPOT PLAZA,-72.8718,"12/24/2016 7:00am - 6:00pm,12/25/2016 Closed,12/31/2016 9:00am - 7:00pm,1/1/2017 9:00am - 7:00pm",NORTH HAVEN,CT,,411 UNIVERSAL DRIVE NORTH,41.3513,06473
860-693-1619,CANTON,,,,US,SHOPPES AT FARMINGTON VALLEY,-72.8805,"12/24/2016 7:00am - 6:00pm,12/25/2016 Closed,12/31/2016 9:00am - 7:00pm,1/1/2017 9:00am - 7:00pm",CANTON,CT,,110 ALBANY TURNPIKE,41.8212,06019
860-648-4044,MANCHESTER,,,,US,THE PAVILIONS AT BUCKLAND HILLS,-72.5471,"12/24/2016 7:00am - 6:00pm,12/25/2016 Closed,12/31/2016 9:00am - 7:00pm,1/1/2017 9:00am - 7:00pm",BUCKLAND HILLS,CT,,179 PAVILLION DRIVE,41.8067,06042
203-876-0477,MILFORD,,,,US,WESTFIELD SHOPPINGTON CENTER,-73.0382,"12/24/2016 7:00am - 6:00pm,12/25/2016 Closed,12/31/2016 9:00am - 7:00pm,1/1/2017 9:00am - 7:00pm",MILFORD,CT,,1201 BOSTON POST ROAD,41.2343,06460
860-253-9475,ENFIELD,,,,US,STATE LINE PLAZA,-72.5756,"12/24/2016 7:00am - 6:00pm,12/25/2016 Closed,12/31/2016 9:00am - 7:00pm,1/1/2017 9:00am - 7:00pm",ENFIELD,CT,,130 ELM STREET,41.9949,06082
860-447-2886,WATERFORD,,,,US,WATERFORD COMMONS,-72.1522,"12/24/2016 7:00am - 6:00pm,12/25/2016 Closed,12/31/2016 9:00am - 7:00pm,1/1/2017 9:00am - 7:00pm",WATERFORD,CT,,"915 HARTFORD TURNPIKE, #A1",41.3829,06385
860-376-4141,LISBON,,,,US,LISBON LANDING,-71.9914,"12/24/2016 7:00am - 6:00pm,12/25/2016 Closed,12/31/2016 9:00am - 7:00pm,1/1/2017 9:00am - 7:00pm",LISBON,CT,,"170 RIVER ROAD, SUITE 2",41.5814,06351
302-678-9160,DOVER,,,,US,DOVER MALL,-75.5391347019113,"12/24/2016 7:00am - 6:00pm,12/25/2016 Closed,12/31/2016 9:00am - 7:00pm,1/1/2017 9:00am - 7:00pm",DOVER,DE,,"1365 N DUPONT HIGHWAY, SUITE 6000",39.1930728788528,19901
928-776-0499,PRESCOTT VALLEY,,,,US,PRESCOTT VALLEY CROSSROADS,-112.362517410759,"12/24/2016 7:00am - 6:00pm,12/25/2016 Closed,12/31/2016 9:00am - 7:00pm,1/1/2017 9:00am - 7:00pm",PRESCOTT,AZ,,5715 E. STATE ROUTE 69,34.5751499918336,86314
480-212-0260,PHOENIX,,,,US,E MAYO BLVD,-111.931099,,NORTH SCOTTSDALE,AZ,,7000 E MAYO BLVD,33.658025,85054
623-434-3388,PHOENIX,,,,US,THE SHOPS AT NORTERRA,-112.11,"12/24/2016 7:00am - 6:00pm,12/25/2016 Closed,12/31/2016 9:00am - 7:00pm,1/1/2017 9:00am - 7:00pm",DEER VALLEY,AZ,,2350 WEST HAPPY VALLEY ROAD,33.7147,85085
623-334-8366,GLENDALE,,,,US,ARROWHEAD TOWNE CENTER,-112.224,"12/24/2016 7:00am - 6:00pm,12/25/2016 Closed,12/31/2016 9:00am - 7:00pm,1/1/2017 9:00am - 7:00pm",GLENDALE,AZ,,7680 WEST ARROWHEAD TOWNE CENTER,33.6426,85308
480-240-4409,SCOTTSDALE,,,,US,SCOTTSDALE FASHION CENTER,-111.927584,"12/24/2016 7:00am - 6:00pm,12/25/2016 Closed,12/31/2016 9:00am - 7:00pm,1/1/2017 9:00am - 7:00pm",SCOTTSDALE (FASHION SQUARE),AZ,,"7014 E CAMELBACK ROAD, SUITE ANC 03",33.504507,85251
480-899-3993,GILBERT,,,,US,SAN TAN VILLAGE,-111.745,"12/24/2016 7:00am - 6:00pm,12/25/2016 Closed,12/31/2016 9:00am - 7:00pm,1/1/2017 9:00am - 7:00pm",GILBERT,AZ,,2269 SAN TAN VILLAGE PARKWAY,33.309,85295
410-200-9560,EASTON,,,,US,WATERSIDE VILLAGE AT EASTON,-76.0846,"12/24/2016 7:00am - 6:00pm,12/25/2016 Closed,12/31/2016 9:00am - 7:00pm,1/1/2017 9:00am - 7:00pm",EASTON,MD,,28564 MARLBORO AVENUE,38.7842,21601
856-776-7630,VINELAND,,,,US,CUMBERLAND MALL,-75.038,"12/24/2016 7:00am - 6:00pm,12/25/2016 Closed,12/31/2016 9:00am - 7:00pm,1/1/2017 9:00am - 7:00pm",VINELAND,NJ,,"3849 S DELSEA DRIVE, SPACE G0000",39.43,08360
410-219-1136,SALISBURY,,,,US,THE CENTRE AT SALISBURY,-75.5654,"12/24/2016 7:00am - 6:00pm,12/25/2016 Closed,12/31/2016 9:00am - 7:00pm,1/1/2017 9:00am - 7:00pm",SALISBURY,MD,,2300 N. SALISBURY BLVD.,38.3976,21801
302-738-8322,NEWARK,,,,US,CHRISTIANA CENTER,-75.6525,"12/24/2016 7:00am - 6:00pm,12/25/2016 Closed,12/31/2016 9:00am - 7:00pm,1/1/2017 9:00am - 7:00pm",CHRISTIANA,DE,,100 CENTER DRIVE,39.6744,19702
609-407-1711,MAYS LANDING,,,,US,WRANGLEBOROUGH CONSUMER SQUARE,-74.6295,"12/24/2016 7:00am - 6:00pm,12/25/2016 Closed,12/31/2016 9:00am - 7:00pm,1/1/2017 9:00am - 7:00pm",ATLANTIC CITY,NJ,,210 CONSUMER SQUARE,39.4509,08330
302-477-9577,WILMINGTON,,,,US,BRANDYWINE TOWNE CENTER,-75.5406,"12/24/2016 7:00am - 6:00pm,12/25/2016 Closed,12/31/2016 9:00am - 7:00pm,1/1/2017 9:00am - 7:00pm",BRANDYWINE,DE,,1000 BRANDYWINE PARKWAY,39.8312,19803
410-933-0134,BALTIMORE,,,,US,NOTTINGHAM SQUARE,-76.4527,"12/24/2016 7:00am - 6:00pm,12/25/2016 Closed,12/31/2016 9:00am - 7:00pm,1/1/2017 9:00am - 7:00pm",WHITE MARSH,MD,,5220 CAMPBELL BLVD.,39.3718,21236
410-638-7404,BEL AIR,,,,US,MACPHAIL CROSSING EAST,-76.3463,"12/24/2016 7:00am - 6:00pm,12/25/2016 Closed,12/31/2016 9:00am - 7:00pm,1/1/2017 9:00am - 7:00pm",BEL AIR,MD,,540 WEST MACPHAIL ROAD,39.5238,21014
856-384-8533,DEPTFORD,,,,US,DEPTFORD,-75.1026,"12/24/2016 7:00am - 6:00pm,12/25/2016 Closed,12/31/2016 9:00am - 7:00pm,1/1/2017 9:00am - 7:00pm",DEPTFORD,NJ,,399 ALMONESSON ROAD,39.8301,08096
480-592-0938,TEMPE,,,,US,EMERALD CENTER,-111.971,"12/24/2016 7:00am - 6:00pm,12/25/2016 Closed,12/31/2016 9:00am - 7:00pm,1/1/2017 9:00am - 7:00pm",TEMPE,AZ,,8550 SOUTH EMERALD DRIVE,33.3368,85284
520-742-0792,ORO VALLEY,,,,US,ORO VALLEY MARKETPLACE,-110.938,"12/24/2016 7:00am - 6:00pm,12/25/2016 Closed,12/31/2016 9:00am - 7:00pm,1/1/2017 9:00am - 7:00pm",ORO VALLEY,AZ,,11935 NORTH ORACLE ROAD,32.4227,85737
520-203-0016,TUCSON,,,,US,WILMOT PLAZA,-110.856347,"12/24/2016 7:00am - 6:00pm,12/25/2016 Closed,12/31/2016 9:00am - 7:00pm,1/1/2017 9:00am - 7:00pm",TUCSON,AZ,,6327 E. BROADWAY BLVD,32.222244,85710
435-673-4261,ST. GEORGE,,,,US,RED ROCKS COMMONS,-113.553,"12/24/2016 7:00am - 6:00pm,12/25/2016 Closed,12/31/2016 9:00am - 7:00pm,1/1/2017 9:00am - 7:00pm",ST. GEORGE,UT,,"15 SOUTH RIVER RD, SUITE 240",37.1074,84790
719-264-1810,COLORADO SPRINGS,,,,US,CHAPEL HILLS MALL,-104.796,"12/24/2016 7:00am - 6:00pm,12/25/2016 Closed,12/31/2016 9:00am - 7:00pm,1/1/2017 9:00am - 7:00pm",COLORADO SPRINGS,CO,,1710 BRIAR GATE BLVD,38.9468,80920
719-638-3400,COLORADO SPRINGS,,,,US,FIRST AND MAIN TOWER CENTER,-104.717,"12/24/2016 7:00am - 6:00pm,12/25/2016 Closed,12/31/2016 9:00am - 7:00pm,1/1/2017 9:00am - 7:00pm",COLORADO SPRINGS,CO,,3133 CINEMA POINT,38.8793,80922
720-981-0618,LITTLETON,,,,US,SOUTHWEST PLAZA,-105.095,"12/24/2016 7:00am - 6:00pm,12/25/2016 Closed,12/31/2016 9:00am - 7:00pm,1/1/2017 9:00am - 7:00pm",LITTLETON,CO,,8501 WEST BOWLES AVENUE,39.6131,80123
720-479-0600,LITTLETON,,,,US,PARK MEADOWS MALL,-104.876,"12/24/2016 7:00am - 6:00pm,12/25/2016 Closed,12/31/2016 9:00am - 7:00pm,1/1/2017 9:00am - 7:00pm",LITTLETON,CO,,8435 PARK MEADOWS CENTER DRIVE,39.5634,80124
,LAKEWOOD,,,,US,COLORADO MILLS MALL,-105.161213,,DENVER WEST (LAKEWOOD),CO,,14500 W COLFAX AVENUE,39.730224,80401
303-600-2600,LAKEWOOD,,,,US,BELMAR CENTER,-105.078,"12/24/2016 7:00am - 6:00pm,12/25/2016 Closed,12/31/2016 9:00am - 7:00pm,1/1/2017 9:00am - 7:00pm",LAKEWOOD,CO,,7313 WEST ALASKA DRIVE,39.7097,80226
303-617-7930,AURORA,,,,US,CORNERSTAR,-104.809,"12/24/2016 7:00am - 6:00pm,12/25/2016 Closed,12/31/2016 9:00am - 7:00pm,1/1/2017 9:00am - 7:00pm",SOUTH AURORA,CO,,"15400 EAST BRIARWOOD CIRCLE, UNIT A",39.5929,80016
303-755-0410,AURORA,,,,US,Gardens on Havana,-104.863,"12/24/2016 7:00am - 6:00pm,12/25/2016 Closed,12/31/2016 9:00am - 7:00pm,1/1/2017 9:00am - 7:00pm",AURORA,CO,,1200 S. IRONTON STREET,39.6944,80012
,PUEBLO,,,,US,PUEBLO CROSSING,-104.62359,,PUEBLO,CO,,5945 N ELIZABETH STREET,38.33413,81008
720-887-0900,BROOMFIELD,,,,US,FLATIRON CROSSING,-105.133,"12/24/2016 7:00am - 6:00pm,12/25/2016 Closed,12/31/2016 9:00am - 7:00pm,1/1/2017 9:00am - 7:00pm",BROOMFIELD,CO,,31 WEST FLATIRON CROSSING DRIVE,39.9339,80021
205-564-2648,ALABASTER,,,,US,COLONIAL PROMENADE ALABASTER,-86.804886,"12/24/2016 7:00am - 6:00pm,12/25/2016 Closed,12/31/2016 9:00am - 7:00pm,1/1/2017 9:00am - 7:00pm",ALABASTER,AL,,200 S. COLONIAL DRIVE,33.225937,35007
205-909-1400,HOOVER,,,,US,PATTON CREEK,-86.8179,"12/24/2016 7:00am - 6:00pm,12/25/2016 Closed,12/31/2016 9:00am - 7:00pm,1/1/2017 9:00am - 7:00pm",HOOVER,AL,,4401 CREEKSIDE AVENUE,33.3745,35244
205-981-1320,BIRMINGHAM,,,,US,BROOK HIGHLAND PLAZA,-86.6857,"12/24/2016 7:00am - 6:00pm,12/25/2016 Closed,12/31/2016 9:00am - 7:00pm,1/1/2017 9:00am - 7:00pm",BIRMINGHAM,AL,,5201 HIGHWAY 280 SOUTH,33.4191,35242
334-277-8180,MONTGOMERY,,,,US,EAST CHASE,-86.1542,"12/24/2016 7:00am - 6:00pm,12/25/2016 Closed,12/31/2016 9:00am - 7:00pm,1/1/2017 9:00am - 7:00pm",MONTGOMERY,AL,,7861 EASTCHASE PARKWAY,32.3631,36117
205-535-3006,TUSCALOOSA,,,,US,SHOPPES AT LEGACY PARK,-87.527396,"12/24/2016 7:00am - 6:00pm,12/25/2016 Closed,12/31/2016 9:00am - 7:00pm,1/1/2017 9:00am - 7:00pm",TUSCALOOSA,AL,,"1320 MCFARLAND BLVD E, BLDG 400, SUITE 410",33.198974,35404
334-749-8123,OPELIKA,,,,US,TIGER TOWN,-85.4103,"12/24/2016 7:00am - 6:00pm,12/25/2016 Closed,12/31/2016 9:00am - 7:00pm,1/1/2017 9:00am - 7:00pm",OPELIKA,AL,,2718 ENTERPRISE DRIVE,32.6162,36801
256-831-7739,OXFORD,,,,US,OXFORD EXCHANGE,-85.7801,"12/24/2016 7:00am - 6:00pm,12/25/2016 Closed,12/31/2016 9:00am - 7:00pm,1/1/2017 9:00am - 7:00pm",OXFORD,AL,,1500 OXFORD EXCHANGE,33.6093,36203
256-841-3534,CULLMAN,,,,US,CULLMAN SHOPPING CENTER,-86.848964,"12/24/2016 7:00am - 6:00pm,12/25/2016 Closed,12/31/2016 9:00am - 7:00pm,1/1/2017 9:00am - 7:00pm",CULLLMAN,AL,,1106 CULLMAN SHOPPING CENTER NW,34.181521,35055
662-570-1025,COLUMBUS,,,,US,UNIVERSITY MALL,-88.437977144003,"12/24/2016 7:00am - 6:00pm,12/25/2016 Closed,12/31/2016 9:00am - 7:00pm,1/1/2017 9:00am - 7:00pm",COLUMBUS,MS,,2041 US 45,33.524686566234,39705
706-320-0179,COLUMBUS PARK,,,,US,COLUMBUS PARK CROSSING,-84.9443,"12/24/2016 7:00am - 6:00pm,12/25/2016 Closed,12/31/2016 9:00am - 7:00pm,1/1/2017 9:00am - 7:00pm",COLUMBUS PARK,GA,,5550 WHITTLESEY BLVD.,32.5436,31909
501-336-0700,CONWAY,,,,US,CONWAY COMMONS,-92.4143,"12/24/2016 7:00am - 6:00pm,12/25/2016 Closed,12/31/2016 9:00am - 7:00pm,1/1/2017 9:00am - 7:00pm",CONWAY,AR,,620 ELSINGER BOULEVARD,35.068,72032
501-624-0200,HOT SPRINGS,,,,US,FAIRGROUND CROSSING,-93.0723,"12/24/2016 7:00am - 6:00pm,12/25/2016 Closed,12/31/2016 9:00am - 7:00pm,1/1/2017 9:00am - 7:00pm",HOT SPRINGS,AR,,1420 HIGDON FERRY ROAD,34.4696,71913
479-646-8900,FORT SMITH,,,,US,FORT SMITH PAVILION,-94.3906,"12/24/2016 7:00am - 6:00pm,12/25/2016 Closed,12/31/2016 9:00am - 7:00pm,1/1/2017 9:00am - 7:00pm",FORT SMITH,AR,,3825 PHOENIX AVENUE,35.3401,72903
901-737-2216,MEMPHIS,,,,US,CENTENNIAL COMMONS,-89.8045,"12/24/2016 7:00am - 6:00pm,12/25/2016 Closed,12/31/2016 9:00am - 7:00pm,1/1/2017 9:00am - 7:00pm",MEMPHIS,TN,,766 POLO GROUNDS BLVD,35.052,38125
901-386-5302,CORDOVA,,,,US,COUNTRYWOOD CROSSINGS,-89.7962,"12/24/2016 7:00am - 6:00pm,12/25/2016 Closed,12/31/2016 9:00am - 7:00pm,1/1/2017 9:00am - 7:00pm",WOLFCHASE,TN,,2393 N. GERMANTOWN PARKWAY,35.1907,38016
662-281-5814,OXFORD,,,,US,OXFORD GALLERIA II,-89.569,"12/24/2016 7:00am - 6:00pm,12/25/2016 Closed,12/31/2016 9:00am - 7:00pm,1/1/2017 9:00am - 7:00pm",OXFORD,MS,,300 MERCHANTS DRIVE,34.363,38655
318-410-1156,MONROE,,,,US,PECANLAND MALL,-92.0606,"12/24/2016 7:00am - 6:00pm,12/25/2016 Closed,12/31/2016 9:00am - 7:00pm,1/1/2017 9:00am - 7:00pm",MONROE,LA,,"4700 MILLHAVEN ROAD, SUITE 1566",32.498,71203
918-913-3855,MUSKOGEE,,,,US,THREE RIVERS PLAZA,-95.37212,"12/24/2016 7:00am - 6:00pm,12/25/2016 Closed,12/31/2016 9:00am - 7:00pm,1/1/2017 9:00am - 7:00pm",MUSKOGEE,OK,,701 WEST SHAWNEE AVENUE (HWY 62),35.76826,74401
318-797-9110,SHREVEPORT,,,,US,KINGS CROSSING,-93.7121,"12/24/2016 7:00am - 6:00pm,12/25/2016 Closed,12/31/2016 9:00am - 7:00pm,1/1/2017 9:00am - 7:00pm",SHREVEPORT,LA,,7543 YOUREE DRIVE,32.4366,71105
918-355-3310,BROKEN ARROW,,,,US,SHOPS AT BROKEN ARROW,-95.7729,"12/24/2016 7:00am - 6:00pm,12/25/2016 Closed,12/31/2016 9:00am - 7:00pm,1/1/2017 9:00am - 7:00pm",BROKEN ARROW,OK,,1620 E. HILLSIDE DRIVE,36.0675,74012
559-322-4628,CLOVIS,,,,US,CLOVIS SHOPPING CENTRE,-119.694,"12/24/2016 7:00am - 6:00pm,12/25/2016 Closed,12/31/2016 9:00am - 7:00pm,1/1/2017 9:00am - 7:00pm",CLOVIS,CA,,1225 HERNDON AVENUE,36.8396,93612
559-367-0252,FRESNO,,,,US,BLACKSTONE,-119.786508,,FRESNO,CA,,7572 NORTH BLACKSTONE AVENUE,36.846684,93720
559-271-2701,FRESNO,,,,US,ARBOR FAIRE,-119.853,"12/24/2016 7:00am - 6:00pm,12/25/2016 Closed,12/31/2016 9:00am - 7:00pm,1/1/2017 9:00am - 7:00pm",FRESNO,CA,,3380 WEST SHAW AVENUE,36.81,93711
559-636-0633,VISALIA,,,,US,GATEWAY PLAZA,-119.316,"12/24/2016 7:00am - 6:00pm,12/25/2016 Closed,12/31/2016 9:00am - 7:00pm,1/1/2017 9:00am - 7:00pm",VISALIA,CA,,3637 S. MOONEY BLVD.,36.2975,93277
209-216-4385,TURLOCK,,,,US,MONTE VISTA CROSSINGS,-120.881,"12/24/2016 7:00am - 6:00pm,12/25/2016 Closed,12/31/2016 9:00am - 7:00pm,1/1/2017 9:00am - 7:00pm",TURLOCK,CA,,2711 COUNTRYSIDE DRIVE,37.5151,95380
209-578-1215,MODESTO,,,,US,VINTAGE FAIRE MALL,-121.053,"12/24/2016 7:00am - 6:00pm,12/25/2016 Closed,12/31/2016 9:00am - 7:00pm,1/1/2017 9:00am - 7:00pm",MODESTO,CA,,3401 DALE ROAD,37.6879,95356
209-992-5745,STOCKTON,,,,US,SHERWOOD MALL,-121.31191689011,"12/24/2016 7:00am - 6:00pm,12/25/2016 Closed,12/31/2016 9:00am - 7:00pm,1/1/2017 9:00am - 7:00pm",STOCKTON,CA,,5354 PACIFIC AVE,37.999154073813,95207
209-368-2328,LODI,,,,US,REYNOLDS RANCH,-121.261,"12/24/2016 7:00am - 6:00pm,12/25/2016 Closed,12/31/2016 9:00am - 7:00pm,1/1/2017 9:00am - 7:00pm",LODI,CA,,2760 REYNOLDS RANCH PARKWAY,38.099,95240
408-763-4779,MORGAN HILL,,,,US,COCHRANE COMMONS,-121.653,"12/24/2016 7:00am - 6:00pm,12/25/2016 Closed,12/31/2016 9:00am - 7:00pm,1/1/2017 9:00am - 7:00pm",MORGAN HILL,CA,,1007 COCHRANE ROAD,37.155,95037
831-751-9019,SALINAS,,,,US,WESTRIDGE CENTER,-121.669,"12/24/2016 7:00am - 6:00pm,12/25/2016 Closed,12/31/2016 9:00am - 7:00pm,1/1/2017 9:00am - 7:00pm",SALINAS,CA,,1223 N. DAVIS ROAD,36.7006,93907
352-200-5716,BROOKSVILLE,,,,US,CORTEZ COMMONS,-82.514107,"12/24/2016 7:00am - 6:00pm,12/25/2016 Closed,12/31/2016 9:00am - 7:00pm,1/1/2017 9:00am - 7:00pm",SPRING HILL,FL,,12936 CORTEZ BLVD,28.531397,34613
813-991-1618,WESLEY CHAPEL,,,,US,WESLEY CHAPEL,-82.3528,"12/24/2016 7:00am - 6:00pm,12/25/2016 Closed,12/31/2016 9:00am - 7:00pm,1/1/2017 9:00am - 7:00pm",WESLEY CHAPEL,FL,,5925 WESLEY GROVE BLVD,28.2439,33544
813-920-5700,TAMPA,,,,US,WESTFIELD CITRUS PARK,-82.5783,"12/24/2016 7:00am - 6:00pm,12/25/2016 Closed,12/31/2016 9:00am - 7:00pm,1/1/2017 9:00am - 7:00pm",CITRUS PARK,FL,,8100 CITRUS PARK TOWN CENTER,28.0694,33625
727-791-8580,CLEARWATER,,,,US,COUNTRYSIDE CENTER,-82.7344,"12/24/2016 7:00am - 6:00pm,12/25/2016 Closed,12/31/2016 9:00am - 7:00pm,1/1/2017 9:00am - 7:00pm",CLEARWATER,FL,,26583 HWY 19 NORTH,28.0137,33761
813-422-5132,TAMPA,,,,US,WESTSHORE PLAZA,-82.529415,"12/24/2016 7:00am - 6:00pm,12/25/2016 Closed,12/31/2016 9:00am - 7:00pm,1/1/2017 9:00am - 7:00pm",TAMPA,FL,,258 WESTSHORE PLAZA,27.946727,33609
813-684-3100,BRANDON,,,,US,BRANDON TOWN CENTER,-82.3274,"12/24/2016 7:00am - 6:00pm,12/25/2016 Closed,12/31/2016 9:00am - 7:00pm,1/1/2017 9:00am - 7:00pm",BRANDON,FL,,901 BRANDON TOWNE CENTER MALL,27.9328,33511
863-248-1200,LAKELAND,,,,US,LAKELAND PARK CENTER,-81.970709,"12/24/2016 7:00am - 6:00pm,12/25/2016 Closed,12/31/2016 9:00am - 7:00pm,1/1/2017 9:00am - 7:00pm",LAKELAND,FL,,"919 LAKELAND PARK CENTER DR., SUITE 300",28.090304,33809
352-404-5354,CLERMONT,,,,US,SANDHILLS COMMONS,-81.7333477861072,"12/24/2016 7:00am - 6:00pm,12/25/2016 Closed,12/31/2016 9:00am - 7:00pm,1/1/2017 9:00am - 7:00pm",CLERMONT,FL,,1325 SANDY GROVE AVENUE,28.5438898933795,34711
352-237-7672,OCALA,,,,US,MARKET STREET AT HEATHBROOK,-82.1911,"12/24/2016 7:00am - 6:00pm,12/25/2016 Closed,12/31/2016 9:00am - 7:00pm,1/1/2017 9:00am - 7:00pm",OCALA,FL,,"4414 SW COLLEGE ROAD, SUITE 1800",29.1423,34474
863-424-4444,DAVENPORT,,,,US,POSNER TOWN CENTER,-81.645,"12/24/2016 7:00am - 6:00pm,12/25/2016 Closed,12/31/2016 9:00am - 7:00pm,1/1/2017 9:00am - 7:00pm",DAVENPORT,FL,,1300 POSNER BLVD,28.2266,33837
478-477-6777,MACON,,,,US,THE SHOPPES AT RIVER CROSSING,-83.7128,"12/24/2016 7:00am - 6:00pm,12/25/2016 Closed,12/31/2016 9:00am - 7:00pm,1/1/2017 9:00am - 7:00pm",NORTH MACON,GA,,5080 RIVERSIDE DRIVE,32.9243,31210
770-957-4336,MCDONOUGH,,,,US,SOUTHPOINT,-84.218,"12/24/2016 7:00am - 6:00pm,12/25/2016 Closed,12/31/2016 9:00am - 7:00pm,1/1/2017 9:00am - 7:00pm",MCDONOUGH,GA,,1855 JONESBORO ROAD,33.4632,30253
678-817-0676,FAYETTEVILLE,,,,US,FAYETTE PAVILION,-84.4473,"12/24/2016 7:00am - 6:00pm,12/25/2016 Closed,12/31/2016 9:00am - 7:00pm,1/1/2017 9:00am - 7:00pm",FAYETTEVILLE,GA,,305 A PAVILLION PARKWAY,33.482,30214
770-466-1333,LOGANVILLE,,,,US,NORTH LOGAN COMMONS,-83.9089,"12/24/2016 7:00am - 6:00pm,12/25/2016 Closed,12/31/2016 9:00am - 7:00pm,1/1/2017 9:00am - 7:00pm",LOGANVILLE,GA,,4040 ATLANTA HIGHWAY,33.848,30052
706-227-4077,ATHENS,,,,US,EPPS BRIDGE CENTER,-83.452745,"12/24/2016 7:00am - 6:00pm,12/25/2016 Closed,12/31/2016 9:00am - 7:00pm,1/1/2017 9:00am - 7:00pm",ATHENS,GA,,"1791 OCONEE CONNECTOR, SUITE 120",33.914978,30606
706-320-0179,COLUMBUS PARK,,,,US,COLUMBUS PARK CROSSING,-84.9443,"12/24/2016 7:00am - 6:00pm,12/25/2016 Closed,12/31/2016 9:00am - 7:00pm,1/1/2017 9:00am - 7:00pm",COLUMBUS PARK,GA,,5550 WHITTLESEY BLVD.,32.5436,31909
770-253-1501,NEWNAN,,,,US,THE VILLAGE AT NEWNAN CROSSING,-84.7638,"12/24/2016 7:00am - 6:00pm,12/25/2016 Closed,12/31/2016 9:00am - 7:00pm,1/1/2017 9:00am - 7:00pm",NEWNAN,GA,,382 NEWNAN CROSSING BYPASS,33.3871,30265
706-733-1199,AUGUSTA,,,,US,AUGUSTA MALL,-82.0807,"12/24/2016 7:00am - 6:00pm,12/25/2016 Closed,12/31/2016 9:00am - 7:00pm,1/1/2017 9:00am - 7:00pm",AUGUSTA,GA,,3450 WRIGHTSBORO ROAD,33.4649,30909
404-267-0200,ATLANTA,,,,US,LENOX MARKETPLACE,-84.3599,"12/24/2016 7:00am - 6:00pm,12/25/2016 Closed,12/31/2016 9:00am - 7:00pm,1/1/2017 9:00am - 7:00pm",LENOX,GA,,3535 PEACHTREE ROAD,33.8529,30326
770-613-0077,NORCROSS,,,,US,PEACHTREE SQUARE,-84.2319,"12/24/2016 7:00am - 6:00pm,12/25/2016 Closed,12/31/2016 9:00am - 7:00pm,1/1/2017 9:00am - 7:00pm",NORCROSS,GA,,"6050 PEACHTREE PARKWAY, SUITE 450",33.9531,30092
317-956-1400,INDIANAPOLIS,,,,US,TRADER'S POINT,-86.2674,"12/24/2016 7:00am - 6:00pm,12/25/2016 Closed,12/31/2016 9:00am - 7:00pm,1/1/2017 9:00am - 7:00pm",INDIANAPOLIS,IN,,6030 WEST 86TH STREET,39.9126,46278
317-818-3467,CARMEL,,,,US,CLAY TERRACE,-86.1312,"12/24/2016 7:00am - 6:00pm,12/25/2016 Closed,12/31/2016 9:00am - 7:00pm,1/1/2017 9:00am - 7:00pm",CARMEL,IN,,14350 CLAY TERRACE BLVD.,39.9963,46032
317-271-7850,AVON,,,,US,AVON COMMONS,-86.339,"12/24/2016 7:00am - 6:00pm,12/25/2016 Closed,12/31/2016 9:00am - 7:00pm,1/1/2017 9:00am - 7:00pm",AVON,IN,,10375 EAST US HIGHWAY 36,39.7605,46123
317-576-0300,INDIANAPOLIS,,,,US,CASTLETON SQUARE MALL,-86.0632,"12/24/2016 7:00am - 6:00pm,12/25/2016 Closed,12/31/2016 9:00am - 7:00pm,1/1/2017 9:00am - 7:00pm",CASTLETON,IN,,6020 E 82ND STREET,39.9096,46250
317-839-4803,PLAINFIELD,,,,US,THE SHOPS AT PERRY CROSSING,-86.3575,"12/24/2016 7:00am - 6:00pm,12/25/2016 Closed,12/31/2016 9:00am - 7:00pm,1/1/2017 9:00am - 7:00pm",PLAINFIELD,IN,,338 CITY CENTER CIRCLE,39.7125,46168
317-890-8802,WASHINGTON,,,,US,WASHINGTON SQUARE,-85.9847,"12/24/2016 7:00am - 6:00pm,12/25/2016 Closed,12/31/2016 9:00am - 7:00pm,1/1/2017 9:00am - 7:00pm",WASHINGTON,IN,,10202 E WASHINGTON STREET,39.7784,46229
317-776-1687,NOBLESVILLE,,,,US,HAMILTON TOWN CENTER,-85.9316,"12/24/2016 7:00am - 6:00pm,12/25/2016 Closed,12/31/2016 9:00am - 7:00pm,1/1/2017 9:00am - 7:00pm",NOBLESVILLE,IN,,13157 NORELL LANE,39.9901,46060
317-882-1079,GREENWOOD,,,,US,GREENWOOD MALL,-86.119,"12/24/2016 7:00am - 6:00pm,12/25/2016 Closed,12/31/2016 9:00am - 7:00pm,1/1/2017 9:00am - 7:00pm",GREENWOOD,IN,,1251 US 31 NORTH,39.6316,46142
765-449-0914,LAFAYETTE,,,,US,TIPPECANOE MALL,-86.85,"12/24/2016 7:00am - 6:00pm,12/25/2016 Closed,12/31/2016 9:00am - 7:00pm,1/1/2017 9:00am - 7:00pm",LAFAYETTE,IN,,2415 SAGAMORE PARKWAY SOUTH,40.3928,47905
765-212-3677,MUNCIE,,,,US,CENTER SHOPPES,-85.38076139,"12/24/2016 7:00am - 6:00pm,12/25/2016 Closed,12/31/2016 9:00am - 7:00pm,1/1/2017 9:00am - 7:00pm",MUNCIE,IN,,620 E MCGALLIARD ROAD,40.22063,47303
208-999-3475,BOISE,,,,US,WESTPARK TOWNE PLAZA,-116.283346,"12/24/2016 7:00am - 6:00pm,12/25/2016 Closed,12/31/2016 9:00am - 7:00pm,1/1/2017 9:00am - 7:00pm",BOISE,ID,,131 N MILWAUKEE STREET,43.606207,83704
208-884-2026,MERIDIAN,,,,US,CENTRE POINT MARKETPLACE,-116.358,"12/24/2016 7:00am - 6:00pm,12/25/2016 Closed,12/31/2016 9:00am - 7:00pm,1/1/2017 9:00am - 7:00pm",MERIDIAN,ID,,3415 N EAGLE ROAD,43.6361,83646
208-546-3433,NAMPA,,,,US,TREASURE VALLEY CROSSING,-116.598,"12/24/2016 7:00am - 6:00pm,12/25/2016 Closed,12/31/2016 9:00am - 7:00pm,1/1/2017 9:00am - 7:00pm",NAMPA,ID,,16905 N MARKETPLACE BLVD,43.6146,83687
208-944-3105,TWIN FALLS,,,,US,CANYON PARK WEST,-114.458756,"12/24/2016 7:00am - 6:00pm,12/25/2016 Closed,12/31/2016 9:00am - 7:00pm,1/1/2017 9:00am - 7:00pm",TWIN FALLS,ID,,1939 FILLMORE STREET,42.597078,83301
208-238-6002,POCATELLO,,,,US,POCATELLO SQUARE,-112.459,"12/24/2016 7:00am - 6:00pm,12/25/2016 Closed,12/31/2016 9:00am - 7:00pm,1/1/2017 9:00am - 7:00pm",POCATELLO,ID,,1844 HURLEY DRIVE,42.9083,83202
509-891-0977,SPOKANE VALLEY,,,,US,SPOKANE VALLEY MALL,-117.212,"12/24/2016 7:00am - 6:00pm,12/25/2016 Closed,12/31/2016 9:00am - 7:00pm,1/1/2017 9:00am - 7:00pm",SPOKANE VALLEY,WA,,14014 EAST INDIANA AVENUE,47.674,99216
801-444-6656,LAYTON,,,,US,LAYTON HILLS MALL,-111.978,"12/24/2016 7:00am - 6:00pm,12/25/2016 Closed,12/31/2016 9:00am - 7:00pm,1/1/2017 9:00am - 7:00pm",LAYTON,UT,,1201 N HILL FIELD ROAD #1024,41.0776,84041
801-566-2920,MIDVALE,,,,US,FAMILY CENTER AT FORT UNION,-111.862,"12/24/2016 7:00am - 6:00pm,12/25/2016 Closed,12/31/2016 9:00am - 7:00pm,1/1/2017 9:00am - 7:00pm",MIDVALE,UT,,7170 S 1000 E,40.621,84047
801-692-6137,AMERICAN FORK,,,,US,THE MEADOWS SHOPPING DISTRICT,-111.821674,"12/24/2016 7:00am - 6:00pm,12/25/2016 Closed,12/31/2016 9:00am - 7:00pm,1/1/2017 9:00am - 7:00pm",AMERICAN FORK,UT,,841 W PACIFIC DRIVE,40.379594,84003
509-654-9111,UNION GAP,,,,US,RAINIER PLAZA,-120.474,"12/24/2016 7:00am - 6:00pm,12/25/2016 Closed,12/31/2016 9:00am - 7:00pm,1/1/2017 9:00am - 7:00pm",UNION GAP,WA,,2500 RUDKIN ROAD,46.5658,98903
309-807-1908,BLOOMINGTON,,,,US,COLONIAL PLAZA,-88.95333,"12/24/2016 7:00am - 6:00pm,12/25/2016 Closed,12/31/2016 9:00am - 7:00pm,1/1/2017 9:00am - 7:00pm",BLOOMINGTON,IL,,1608 EAST EMPIRE STREET,40.48773,61701
217-726-6451,SPRINGFIELD,,,,US,WHITE OAKS MALL,-89.7031,"12/24/2016 7:00am - 6:00pm,12/25/2016 Closed,12/31/2016 9:00am - 7:00pm,1/1/2017 9:00am - 7:00pm",SPRINGFIELD,IL,,2501 W. WABASH AVENUE,39.766,62704
217-402-8366,CHAMPAIGN,,,,US,MARKET PLACE SHOPPING CENTER,-88.24499,"12/24/2016 7:00am - 6:00pm,12/25/2016 Closed,12/31/2016 9:00am - 7:00pm,1/1/2017 9:00am - 7:00pm",CHAMPAIGN,IL,,"2000 N NEIL STREET, SUITE 2000A",40.13992,61820
309-683-2400,PEORIA,,,,US,THE SHOPPES AT GRAND PRARIE,-89.673,"12/24/2016 7:00am - 6:00pm,12/25/2016 Closed,12/31/2016 9:00am - 7:00pm,1/1/2017 9:00am - 7:00pm",PEORIA,IL,,5205 WEST WAR MEMORIAL DRIVE,40.7808,61615
815-802-0565,BOURBONNAIS,,,,US,BRADLEY COMMONS,-87.8478,"12/24/2016 7:00am - 6:00pm,12/25/2016 Closed,12/31/2016 9:00am - 7:00pm,1/1/2017 9:00am - 7:00pm",BRADLEY,IL,,2054 N. STATE ROUTE 50,41.1876,60914
630-553-5365,YORKVILLE,,,,US,KENDALE MARKETPLACE,-88.461,"12/24/2016 7:00am - 6:00pm,12/25/2016 Closed,12/31/2016 9:00am - 7:00pm,1/1/2017 9:00am - 7:00pm",YORKVILLE,IL,,825 ERICA LANE,41.6646,60560
815-230-1075,JOLIET,,,,US,JOLIET COMMONS,-88.1553,"12/24/2016 7:00am - 6:00pm,12/25/2016 Closed,12/31/2016 9:00am - 7:00pm,1/1/2017 9:00am - 7:00pm",JOLIET,IL,,2601A PLAINFIELD ROAD,41.5781,60435
217-228-7780,QUINCY,,,,US,PRAIRIE TRAILS,-91.322458,"12/24/2016 7:00am - 6:00pm,12/25/2016 Closed,12/31/2016 9:00am - 7:00pm,1/1/2017 9:00am - 7:00pm",QUINCY,IL,,6006 BROADWAY STREET,39.932405,62301
319-237-3447,BURLINGTON,,,,US,BURLINGTON COMMONS,-91.159621,"12/24/2016 7:00am - 6:00pm,12/25/2016 Closed,12/31/2016 9:00am - 7:00pm,1/1/2017 9:00am - 7:00pm",BURLINGTON,IA,,"3200 AGENCY ST, #150",40.813126,52601
309-517-2572,MOLINE,,,,US,SOUTHPARK MALL,-90.502252,"12/24/2016 7:00am - 6:00pm,12/25/2016 Closed,12/31/2016 9:00am - 7:00pm,1/1/2017 9:00am - 7:00pm",MOLINE,IL,,"4500 16TH ST, SUITE XD1",41.468003,61265
515-225-6230,WEST DES MOINES,,,,US,JORDAN CREEK,-93.807325,"12/24/2016 7:00am - 6:00pm,12/25/2016 Closed,12/31/2016 9:00am - 7:00pm,1/1/2017 9:00am - 7:00pm",WEST DES MOINES,IA,,"320 SOUTH JORDAN CREEK PARKWAY, SUITE 100",41.564515,50266
319-287-5722,WATERLOO,,,,US,CROSSROADS COMMONS,-92.3289,"12/24/2016 7:00am - 6:00pm,12/25/2016 Closed,12/31/2016 9:00am - 7:00pm,1/1/2017 9:00am - 7:00pm",WATERLOO,IA,,1411 FLAMMANG DRIVE,42.461,50702
319-743-3066,CEDAR RAPIDS,,,,US,MARKET PLACE,-91.6218,"12/24/2016 7:00am - 6:00pm,12/25/2016 Closed,12/31/2016 9:00am - 7:00pm,1/1/2017 9:00am - 7:00pm",CEDAR RAPIDS,IA,,4601 1ST AVENUE SE,42.0235,52402
712-435-3142,COUNCIL BLUFFS,,,,US,METRO CROSSING,-95.8384,"12/24/2016 7:00am - 6:00pm,12/25/2016 Closed,12/31/2016 9:00am - 7:00pm,1/1/2017 9:00am - 7:00pm",COUNCIL BLUFFS,IA,,3816 METRO DRIVE,41.2193,51501
402-951-4400,OMAHA,,,,US,WESTROADS MALL,-96.0678,"12/24/2016 7:00am - 6:00pm,12/25/2016 Closed,12/31/2016 9:00am - 7:00pm,1/1/2017 9:00am - 7:00pm",OMAHA,NE,,9901 NICHOLAS STREET,41.2675,68114
563-557-6130,DUBUQUE,,,,US,KENNEDY MALL,-90.7225,"12/24/2016 7:00am - 6:00pm,12/25/2016 Closed,12/31/2016 9:00am - 7:00pm,1/1/2017 9:00am - 7:00pm",DUBUQUE,IA,,555 JOHN F. KENNEDY ROAD,42.4939,52002
402-592-1642,PAPILLION,,,,US,SHADOW LAKE TOWNE CENTER,-96.0267,"12/24/2016 7:00am - 6:00pm,12/25/2016 Closed,12/31/2016 9:00am - 7:00pm,1/1/2017 9:00am - 7:00pm",PAPILLION,NE,,7403 TOWN CENTER PARKWAY,41.1331,68046
402-330-1184,OMAHA,,,,US,OAKVIEW PLAZA SOUTH,-96.1297,"12/24/2016 7:00am - 6:00pm,12/25/2016 Closed,12/31/2016 9:00am - 7:00pm,1/1/2017 9:00am - 7:00pm",OMAHA,NE,,3125 OAKVIEW DRIVE,41.2279,68144
319-237-3447,BURLINGTON,,,,US,BURLINGTON COMMONS,-91.159621,"12/24/2016 7:00am - 6:00pm,12/25/2016 Closed,12/31/2016 9:00am - 7:00pm,1/1/2017 9:00am - 7:00pm",BURLINGTON,IA,,"3200 AGENCY ST, #150",40.813126,52601
563-355-7042,DAVENPORT,,,,US,DAVENPORT COMMONS,-90.52434,,DAVENPORT,IA,,"5511 ELMORE AVENUE, SUITE A",41.578958,52807
785-827-3540,SALINA,,,,US,MIDSTATE PLAZA,-97.615742,"12/24/2016 7:00am - 6:00pm,12/25/2016 Closed,12/31/2016 9:00am - 7:00pm,1/1/2017 9:00am - 7:00pm",SALINA,KS,,2450 9TH STREET,38.797507,67401
316-942-0910,WICHITA,,,,US,TOWNE WEST CENTER,-97.4014,"12/24/2016 7:00am - 6:00pm,12/25/2016 Closed,12/31/2016 9:00am - 7:00pm,1/1/2017 9:00am - 7:00pm",WICHITA,KS,,4600 W. KELLOGG DRIVE,37.678,67209
316-682-6811,WICHITA,,,,US,TALL GRASS CENTER,-97.2468,"12/24/2016 7:00am - 6:00pm,12/25/2016 Closed,12/31/2016 9:00am - 7:00pm,1/1/2017 9:00am - 7:00pm",WICHITA,KS,,2057 N. ROCK ROAD,37.7211,67206
785-539-7800,MANHATTAN,,,,US,MANHATTAN MARKETPLACE,-96.5605,"12/24/2016 7:00am - 6:00pm,12/25/2016 Closed,12/31/2016 9:00am - 7:00pm,1/1/2017 9:00am - 7:00pm",MANHATTAN,KS,,401 3RD PLACE,39.1851,66502
620-805-3442,GARDEN CITY,,,,US,SCHULMAN CROSSING,-100.83428059965,"12/24/2016 7:00am - 6:00pm,12/25/2016 Closed,12/31/2016 9:00am - 7:00pm,1/1/2017 9:00am - 7:00pm",GARDEN CITY,KS,,1540 LAREU STREET,37.978809372345,67846
785-271-5398,TOPEKA,,,,US,HOME DEPOT EXTENSION,-95.759,"12/24/2016 7:00am - 6:00pm,12/25/2016 Closed,12/31/2016 9:00am - 7:00pm,1/1/2017 9:00am - 7:00pm",TOPEKA,KS,,5900 SW HUNTOON STREET,39.0459,66604
308-392-3226,GRAND ISLAND,,,,US,NORTHWEST COMMONS,-98.381574,"12/24/2016 7:00am - 6:00pm,12/25/2016 Closed,12/31/2016 9:00am - 7:00pm,1/1/2017 9:00am - 7:00pm",GRAND ISLAND,NE,,"2250 N WEBB ROAD, SUITE 200",40.943745,68803
785-312-3317,LAWRENCE,,,,US,LAWRENCE,-95.2624255897522,"12/24/2016 7:00am - 6:00pm,12/25/2016 Closed,12/31/2016 9:00am - 7:00pm,1/1/2017 9:00am - 7:00pm",LAWRENCE,KS,,"2727 IOWA ST, SUITE C",38.9336493964262,66046
913-254-9196,OLATHE,,,,US,NORTHRIDGE PLAZA,-94.7621,"12/24/2016 7:00am - 6:00pm,12/25/2016 Closed,12/31/2016 9:00am - 7:00pm,1/1/2017 9:00am - 7:00pm",OLATHE,KS,,15280 W. 119TH STREET,38.915,66062
913-432-3945,MERRIAM,,,,US,MERRIAM TOWNE CENTER,-94.6891,"12/24/2016 7:00am - 6:00pm,12/25/2016 Closed,12/31/2016 9:00am - 7:00pm,1/1/2017 9:00am - 7:00pm",MERRIAM,KS,,5600 ANTIOCH ROAD,39.0277,66202
502-499-9029,LOUISVILLE,,,,US,STONEYBROOK SHOPPING CENTER,-85.6048,"12/24/2016 7:00am - 6:00pm,12/25/2016 Closed,12/31/2016 9:00am - 7:00pm,1/1/2017 9:00am - 7:00pm",HURSTBOURNE,KY,,3500 S HURSTBOURNE PKWY,38.1981,40299
502-871-3624,FRANKFORT,,,,US,PARKSIDE,-84.820956526865,"12/24/2016 7:00am - 6:00pm,12/25/2016 Closed,12/31/2016 9:00am - 7:00pm,1/1/2017 9:00am - 7:00pm",FRANKFORT,KY,,"7800 JOHN DAVIS DRIVE , SUITE #100",38.175840976598,40601
859-273-1642,LEXINGTON,,,,US,FAYETTE MALL,-84.5302,"12/24/2016 7:00am - 6:00pm,12/25/2016 Closed,12/31/2016 9:00am - 7:00pm,1/1/2017 9:00am - 7:00pm",LEXINGTON,KY,,3645 NICHOLASVILLE ROAD,37.987,40503
502-420-6400,LOUISVILLE,,,,US,OXMOOR CENTER,-85.61,"12/24/2016 7:00am - 6:00pm,12/25/2016 Closed,12/31/2016 9:00am - 7:00pm,1/1/2017 9:00am - 7:00pm",LOUISVILLE,KY,,7900 SHELBYVILLE ROAD,38.2481,40222
859-353-3009,RICHMOND,,,,US,RICHMOND CENTRE,-84.3262,"12/24/2016 7:00am - 6:00pm,12/25/2016 Closed,12/31/2016 9:00am - 7:00pm,1/1/2017 9:00am - 7:00pm",RICHMOND,KY,,2145 LANTERN RIDGE DRIVE,37.7385,40475
502-429-0776,LOUISVILLE,,,,US,SPRINGHURST TOWN CENTER,-85.5588,"12/24/2016 7:00am - 6:00pm,12/25/2016 Closed,12/31/2016 9:00am - 7:00pm,1/1/2017 9:00am - 7:00pm",SPRINGHURST,KY,,3555 SPRINGHURST BLVD,38.298,40241
859-264-8800,LEXINGTON,,,,US,HAMBURG PAVILION,-84.4157,"12/24/2016 7:00am - 6:00pm,12/25/2016 Closed,12/31/2016 9:00am - 7:00pm,1/1/2017 9:00am - 7:00pm",LEXINGTON,KY,,1968 PAVILLION WAY,38.0241,40509
812-288-2194,CLARKSVILLE,,,,US,RIVER FALLS MALL,-85.7602,"12/24/2016 7:00am - 6:00pm,12/25/2016 Closed,12/31/2016 9:00am - 7:00pm,1/1/2017 9:00am - 7:00pm",CLARKSVILLE,IN,,951 E LEWIS & CLARK PARKWAY,38.3187,47129
270-796-9115,BOWLING GREEN,,,,US,GARY FARMS,-86.430416,"12/24/2016 7:00am - 6:00pm,12/25/2016 Closed,12/31/2016 9:00am - 7:00pm,1/1/2017 9:00am - 7:00pm",BOWLING GREEN,KY,,2300 GARY FARMS BLVD,36.956328,42104
859-283-2702,FLORENCE,,,,US,TURFWAY CROSSING,-84.637604,"12/24/2016 7:00am - 6:00pm,12/25/2016 Closed,12/31/2016 9:00am - 7:00pm,1/1/2017 9:00am - 7:00pm",FLORENCE,KY,,"1336 HANSEL AVENUE, SUITE 200",39.018565,41042
410-721-4941,GAMBRILLS,,,,US,VILLAGE AT WAUGH CHAPEL,-76.6891,"12/24/2016 7:00am - 6:00pm,12/25/2016 Closed,12/31/2016 9:00am - 7:00pm,1/1/2017 9:00am - 7:00pm",CROFTON,MD,,1417 SOUTH MAIN CHAPEL WAY,39.0335,21054
202-971-8214,WASHINGTON,,,,US,THE SHOPS AT DAKOTA CROSSING,-76.955,"12/24/2016 7:00am - 6:00pm,12/25/2016 Closed,12/31/2016 9:00am - 7:00pm,1/1/2017 9:00am - 7:00pm",DAKOTA CROSSING,DC,,2470 MARKET STREET NE,38.921,20018
410-768-9372,GLEN BURNIE,,,,US,GOVERNOR PLAZA,-76.6101,"12/24/2016 7:00am - 6:00pm,12/25/2016 Closed,12/31/2016 9:00am - 7:00pm,1/1/2017 9:00am - 7:00pm",GLEN BURNIE,MD,,6633 RITCHIE HIGHWAY,39.1947,21061
410-872-1100,COLUMBIA,,,,US,COLUMBIA CROSSING,-76.8164,"12/24/2016 7:00am - 6:00pm,12/25/2016 Closed,12/31/2016 9:00am - 7:00pm,1/1/2017 9:00am - 7:00pm",COLUMBIA,MD,,6221 COLUMBIA CROSSING CIRCLE,39.1984,21045
301-933-3494,WHEATON,,,,US,WHEATON PLAZA,-77.0551,"12/24/2016 7:00am - 6:00pm,12/25/2016 Closed,12/31/2016 9:00am - 7:00pm,1/1/2017 9:00am - 7:00pm",WHEATON,MD,,"11160 VEIRS MILL ROAD, SUITE P100",39.0349,20902
703-933-0736,BAILEY'S CROSSROADS,,,,US,CROSSROADS CENTER,-77.1278,"12/24/2016 7:00am - 6:00pm,12/25/2016 Closed,12/31/2016 9:00am - 7:00pm,1/1/2017 9:00am - 7:00pm",BAILEY'S CROSSROADS,VA,,5716 COLUMBIA PIKE,38.8522,22041
301-885-1762,WALDORF,,,,US,ST. CHARLES TOWNE CENTER,-76.9242,"12/24/2016 7:00am - 6:00pm,12/25/2016 Closed,12/31/2016 9:00am - 7:00pm,1/1/2017 9:00am - 7:00pm",WALDORF,MD,,11080 MALL CIRCLE ROAD,38.6184,20603
571-255-6367,SPRINGFIELD,,,,US,SPRINGFIELD TOWN CENTER,-77.1739,"12/24/2016 7:00am - 6:00pm,12/25/2016 Closed,12/31/2016 9:00am - 7:00pm,1/1/2017 9:00am - 7:00pm",SPRINGFIELD,VA,,6601 SPRINGFIELD MALL,38.7734,22150
301-947-0200,GAITHERSBURG,,,,US,WASHINGTONIAN CENTER,-77.2011,"12/24/2016 7:00am - 6:00pm,12/25/2016 Closed,12/31/2016 9:00am - 7:00pm,1/1/2017 9:00am - 7:00pm",WASHINGTONIAN,MD,,2 GRAND CORNER AVENUE,39.1178,20878
410-933-0134,BALTIMORE,,,,US,NOTTINGHAM SQUARE,-76.4527,"12/24/2016 7:00am - 6:00pm,12/25/2016 Closed,12/31/2016 9:00am - 7:00pm,1/1/2017 9:00am - 7:00pm",WHITE MARSH,MD,,5220 CAMPBELL BLVD.,39.3718,21236
337-417-8371,LAFAYETTE,,,,US,AMBASSADOR TOWN CENTER,-92.043482,"12/24/2016 7:00am - 6:00pm,12/25/2016 Closed,12/31/2016 9:00am - 7:00pm,1/1/2017 9:00am - 7:00pm",LAFAYETTE,LA,,"110 OLD CAMP ROAD, SUITE A",30.154693,70508
225-766-9100,BATON ROUGE,,,,US,MALL OF LOUISIANA,-91.0817,"12/24/2016 7:00am - 6:00pm,12/25/2016 Closed,12/31/2016 9:00am - 7:00pm,1/1/2017 9:00am - 7:00pm",BATON ROUGE,LA,,9330 MALL OF LOUISIANA BLVD. SUITE 200,30.3867,70809
337-478-1488,LAKE CHARLES,,,,US,PRIEN LAKE MALL,-93.2274,"12/24/2016 7:00am - 6:00pm,12/25/2016 Closed,12/31/2016 9:00am - 7:00pm,1/1/2017 9:00am - 7:00pm",LAKE CHARLES,LA,,542 WEST PRIEN LAKE ROAD,30.199544,70601
318-410-1156,MONROE,,,,US,PECANLAND MALL,-92.0606,"12/24/2016 7:00am - 6:00pm,12/25/2016 Closed,12/31/2016 9:00am - 7:00pm,1/1/2017 9:00am - 7:00pm",MONROE,LA,,"4700 MILLHAVEN ROAD, SUITE 1566",32.498,71203
504-835-0091,METAIRIE,,,,US,LAKESIDE SHOPPING CENTER,-90.1588,"12/24/2016 7:00am - 6:00pm,12/25/2016 Closed,12/31/2016 9:00am - 7:00pm,1/1/2017 9:00am - 7:00pm",METAIRIE,LA,,3301 VETERANS MEMORIAL,30.0084,70002
504-361-3869,GRETNA,,,,US,OAKWOOD CENTER,-90.040326,"12/24/2016 7:00am - 6:00pm,12/25/2016 Closed,12/31/2016 9:00am - 7:00pm,1/1/2017 9:00am - 7:00pm",GRETNA,LA,,197 WESTBANK EXPRESSWAY,29.922302,70053
985-718-3252,SLIDELL,,,,US,FREMAUX TOWN CENTER,-89.75795,"12/24/2016 7:00am - 6:00pm,12/25/2016 Closed,12/31/2016 9:00am - 7:00pm,1/1/2017 9:00am - 7:00pm",SLIDELL,LA,,250 TOWN CENTER PARKWAY,30.267207,70458
601-992-2341,FLOWOOD,,,,US,MARKET STREET AT FLOWOOD,-90.0683,"12/24/2016 7:00am - 6:00pm,12/25/2016 Closed,12/31/2016 9:00am - 7:00pm,1/1/2017 9:00am - 7:00pm",FLOWOOD,MS,,720 MACKENZIE LANE,32.3371,39232
601-853-4373,MADISON,,,,US,MADISON GRANDVIEW,-90.1374,"12/24/2016 7:00am - 6:00pm,12/25/2016 Closed,12/31/2016 9:00am - 7:00pm,1/1/2017 9:00am - 7:00pm",MADISON,MS,,175 GRANDVIEW BLVD.,32.4642,39110
601-264-6648,HATTIESBURG,,,,US,TURTLE CREEK MALL,-89.3757,"12/24/2016 7:00am - 6:00pm,12/25/2016 Closed,12/31/2016 9:00am - 7:00pm,1/1/2017 9:00am - 7:00pm",HATTIESBURG,MS,,1000 TURTLE CREEK ROAD,31.3229,39402
207-990-5932,BANGOR,,,,US,BANGOR MALL,-68.7493,"12/24/2016 7:00am - 6:00pm,12/25/2016 Closed,12/31/2016 9:00am - 7:00pm,1/1/2017 9:00am - 7:00pm",BANGOR,ME,,641 STILLWATER AVENUE,44.8302,04401
207-622-3987,AUGUSTA,,,,US,THE MARKETPLACE AT AUGUSTA,-69.7852,"12/24/2016 7:00am - 6:00pm,12/25/2016 Closed,12/31/2016 9:00am - 7:00pm,1/1/2017 9:00am - 7:00pm",AUGUSTA,ME,,"80 STEPHEN KING DRIVE, SUITE 2",44.349,04330
207-721-3074,TOPSHAM,,,,US,TOPSHAM FAIR MALL,-69.9846,"12/24/2016 7:00am - 6:00pm,12/25/2016 Closed,12/31/2016 9:00am - 7:00pm,1/1/2017 9:00am - 7:00pm",TOPSHAM,ME,,131 TOPSHAM FAIR MALL ROAD,43.9325,04086
207-828-4950,SOUTH PORTLAND,,,,US,PORTLAND,-70.3318,"12/24/2016 7:00am - 6:00pm,12/25/2016 Closed,12/31/2016 9:00am - 7:00pm,1/1/2017 9:00am - 7:00pm",PORTLAND,ME,,385 GORHAM ROAD,43.6375,04106
603-431-8036,PORTSMOUTH,,,,US,THE CROSSINGS AT FOXRUN,-70.8025,"12/24/2016 7:00am - 6:00pm,12/25/2016 Closed,12/31/2016 9:00am - 7:00pm,1/1/2017 9:00am - 7:00pm",NEWINGTON,NH,,45 GOSLING ROAD,43.0937,03801
603-224-1564,CONCORD,,,,US,PATRIOT PLACE,-71.4866,"12/24/2016 7:00am - 6:00pm,12/25/2016 Closed,12/31/2016 9:00am - 7:00pm,1/1/2017 9:00am - 7:00pm",CONCORD,NH,,295 LOUDON ROAD,43.227,03301
508-393-1638,NORTHBOROUGH,,,,US,NORTHBOROUGH CROSSING,-71.6711,"12/24/2016 7:00am - 6:00pm,12/25/2016 Closed,12/31/2016 9:00am - 7:00pm,1/1/2017 9:00am - 7:00pm",NORTHBOROUGH,MA,,5102 SHOPS WAY,42.2885,01532
508-865-7250,MILLBURY,,,,US,THE SHOPPES AT BLACKSTONE VALLEY,-71.7781,"12/24/2016 7:00am - 6:00pm,12/25/2016 Closed,12/31/2016 9:00am - 7:00pm,1/1/2017 9:00am - 7:00pm",MILLBURY,MA,,"70 WORCHESTER PROVIDENCE TURNPIKE, SUITE 200",42.1954,01527
508-653-0908,NATICK,,,,US,SHERWOOD PLAZA,-71.3919,"12/24/2016 7:00am - 6:00pm,12/25/2016 Closed,12/31/2016 9:00am - 7:00pm,1/1/2017 9:00am - 7:00pm",NATICK,MA,,1336 WORCESTER STREET,42.2987,01760
508-595-9808,WORCESTER,,,,US,LINCOLN PLAZA,-71.7706,"12/24/2016 7:00am - 6:00pm,12/25/2016 Closed,12/31/2016 9:00am - 7:00pm,1/1/2017 9:00am - 7:00pm",WORCESTER,MA,,541E LINCOLN STREET,42.2929,01605
508-699-8475,NORTH ATTLEBORO,,,,US,ATTLEBORO MARKETPLACE,-71.3453,"12/24/2016 7:00am - 6:00pm,12/25/2016 Closed,12/31/2016 9:00am - 7:00pm,1/1/2017 9:00am - 7:00pm",NORTH ATTLEBORO,MA,,1360 SOUTH WASHINGTON STREET,41.9381,02760
603-760-7369,SEABROOK,,,,US,SEABROOK TOWN CENTER,-70.866524862778,"12/24/2016 7:00am - 6:00pm,12/25/2016 Closed,12/31/2016 9:00am - 7:00pm,1/1/2017 9:00am - 7:00pm",SEABROOK,NH,,"700 LAFAYETTE ROAD, SUITE 212",42.8925474529976,03874
802-288-9854,WILLISTON,,,,US,MAPLE TREE PLACE,-73.1113,"12/24/2016 7:00am - 6:00pm,12/25/2016 Closed,12/31/2016 9:00am - 7:00pm,1/1/2017 9:00am - 7:00pm",WILLISTON,VT,,1355 MAPLE TREE PLACE,44.4429,05495
603-824-3152,SALEM,,,,US,THE MALL AT ROCKINGHAM PARK,-71.23166,"12/24/2016 7:00am - 6:00pm,12/25/2016 Closed,12/31/2016 9:00am - 7:00pm,1/1/2017 9:00am - 7:00pm",SALEM,NH,,77 ROCKINGHAM BLVD.,42.769618,03079
978-646-6400,DANVERS,,,,US,LIBERTY TREE,-70.9448,"12/24/2016 7:00am - 6:00pm,12/25/2016 Closed,12/31/2016 9:00am - 7:00pm,1/1/2017 9:00am - 7:00pm",DANVERS,MA,,96 COMMONWEALTH AVENUE,42.5512,01923
401-232-0051,SMITHFIELD,,,,US,THE CROSSING AT SMITHFIELD,-71.5168,"12/24/2016 7:00am - 6:00pm,12/25/2016 Closed,12/31/2016 9:00am - 7:00pm,1/1/2017 9:00am - 7:00pm",SMITHFIELD,RI,,"371 PUTNAM PIKE, SUITE 300",41.875,02917
781-329-2862,DEDHAM,,,,US,DEDHAM MALL,-71.1695,"12/24/2016 7:00am - 6:00pm,12/25/2016 Closed,12/31/2016 9:00am - 7:00pm,1/1/2017 9:00am - 7:00pm",DEDHAM,MA,,180 PROVIDENCE HIGHWAY,42.254,02026
508-559-9290,BROCKTON,,,,US,WESTGATE MALL,-71.0556,"12/24/2016 7:00am - 6:00pm,12/25/2016 Closed,12/31/2016 9:00am - 7:00pm,1/1/2017 9:00am - 7:00pm",BROCKTON,MA,,435 WESTGATE DRIVE,42.0947,02301
508-336-3004,SEEKONK,,,,US,SEEKONK,-71.3327,"12/24/2016 7:00am - 6:00pm,12/25/2016 Closed,12/31/2016 9:00am - 7:00pm,1/1/2017 9:00am - 7:00pm",SEEKONK,MA,,275 HIGHLAND AVE,41.7972,02771
978-537-4081,LEOMINSTER,,,,US,ORCHARD HILL PARK,-71.7147,"12/24/2016 7:00am - 6:00pm,12/25/2016 Closed,12/31/2016 9:00am - 7:00pm,1/1/2017 9:00am - 7:00pm",LEOMINSTER,MA,,56 ORCHARD HILL PARK DRIVE,42.5254,01453
989-772-1990,MT. PLEASANT,,,,US,INDIAN HILLS PLAZA,-84.7635,"12/24/2016 7:00am - 6:00pm,12/25/2016 Closed,12/31/2016 9:00am - 7:00pm,1/1/2017 9:00am - 7:00pm",MT. PLEASANT,MI,,4208 E. BLUEGRASS ROAD,43.5729,48858
920-490-8488,GREEN BAY,,,,US,MAVERICK PHASE II,-88.0682,"12/24/2016 7:00am - 6:00pm,12/25/2016 Closed,12/31/2016 9:00am - 7:00pm,1/1/2017 9:00am - 7:00pm",GREEN BAY,WI,,811 PILGRIM WAY,44.4809,54304
231-798-8003,MUSKEGON,,,,US,THE LAKES MALL,-86.2017,"12/24/2016 7:00am - 6:00pm,12/25/2016 Closed,12/31/2016 9:00am - 7:00pm,1/1/2017 9:00am - 7:00pm",MUSKEGON,MI,,5660 S HARVEY PARKWAY,43.1493,49444
989-793-3346,SAGINAW,,,,US,WEST VALLEY SHOPPING CENTER,-83.9821,"12/24/2016 7:00am - 6:00pm,12/25/2016 Closed,12/31/2016 9:00am - 7:00pm,1/1/2017 9:00am - 7:00pm",SAGINAW,MI,,3343 TITTABAWASSEE ROAD,43.4774,48604
616-977-2301,GRAND RAPIDS,,,,US,KENTWOOD TOWNE CENTRE,-85.5427,"12/24/2016 7:00am - 6:00pm,12/25/2016 Closed,12/31/2016 9:00am - 7:00pm,1/1/2017 9:00am - 7:00pm",GRAND RAPIDS,MI,,5118 28TH SE,42.908,49512
616-249-0660,GRANDVILLE,,,,US,RIVERTOWN CROSSINGS,-85.7548,"12/24/2016 7:00am - 6:00pm,12/25/2016 Closed,12/31/2016 9:00am - 7:00pm,1/1/2017 9:00am - 7:00pm",GRANDVILLE,MI,,3660 RIVERTOWN PARKWAY,42.8803,49418
920-954-9266,APPLETON,,,,US,APPLETON,-88.4718,"12/24/2016 7:00am - 6:00pm,12/25/2016 Closed,12/31/2016 9:00am - 7:00pm,1/1/2017 9:00am - 7:00pm",APPLETON,WI,,4350 GREENVILLE DRIVE,44.2751,54913
616-820-0118,HOLLAND,,,,US,RILEY CENTER,-86.0915,"12/24/2016 7:00am - 6:00pm,12/25/2016 Closed,12/31/2016 9:00am - 7:00pm,1/1/2017 9:00am - 7:00pm",HOLLAND,MI,,3530 W. SHORE DRIVE,42.8323,49424
920-252-8271,OSHKOSH,,,,US,OSHKOSH,-88.5826,"12/24/2016 7:00am - 6:00pm,12/25/2016 Closed,12/31/2016 9:00am - 7:00pm,1/1/2017 9:00am - 7:00pm",OSHKOSH,WI,,1015 NORTH WASHBURN STREET,44.0326,54904
262-377-6349,GRAFTON,,,,US,GRAFTON COMMONS,-87.9245,"12/24/2016 7:00am - 6:00pm,12/25/2016 Closed,12/31/2016 9:00am - 7:00pm,1/1/2017 9:00am - 7:00pm",GRAFTON,WI,,1020 PORT WASHINGTON ROAD,43.3225,53024
320-227-6366,WAITE PARK,,,,US,MARKETPLACE SHOPPING CENTER,-94.214595,"12/24/2016 7:00am - 6:00pm,12/25/2016 Closed,12/31/2016 9:00am - 7:00pm,1/1/2017 9:00am - 7:00pm",WAITE PARK,MN,,40 2ND STREET S,45.548382,56387
763-323-8611,COON RAPIDS,,,,US,RIVERDALE VILLAGE,-93.3488,"12/24/2016 7:00am - 6:00pm,12/25/2016 Closed,12/31/2016 9:00am - 7:00pm,1/1/2017 9:00am - 7:00pm",COON RAPIDS,MN,,12661 RIVERDALE BLVD.,45.2016,55448
763-315-5377,MAPLE GROVE,,,,US,FOUNTAINS OF ARBOR LAKES,-93.4249,"12/24/2016 7:00am - 6:00pm,12/25/2016 Closed,12/31/2016 9:00am - 7:00pm,1/1/2017 9:00am - 7:00pm",MAPLE GROVE,MN,,11361 FOUNTAINS DRIVE,45.0901,55369
218-727-2078,DULUTH,,,,US,MILLER HILL MALL,-92.158382,"12/24/2016 7:00am - 6:00pm,12/25/2016 Closed,12/31/2016 9:00am - 7:00pm,1/1/2017 9:00am - 7:00pm",DULUTH,MN,,1600 MILLER TRUNK HIGHWAY,46.803644,55811
952-525-0200,MINNETONKA,,,,US,WEST RIDGE MARKET,-93.4239,"12/24/2016 7:00am - 6:00pm,12/25/2016 Closed,12/31/2016 9:00am - 7:00pm,1/1/2017 9:00am - 7:00pm",MINNETONKA,MN,,11260 WAYZATA BLVD,44.9736,55305
651-633-7242,ROSEVILLE,,,,US,CROSSROADS MALL,-93.169,"12/24/2016 7:00am - 6:00pm,12/25/2016 Closed,12/31/2016 9:00am - 7:00pm,1/1/2017 9:00am - 7:00pm",ROSEVILLE,MN,,1645 COUNTY ROAD B2 W,45.0163,55113
612-869-0200,RICHFIELD,,,,US,RICHFIELD,-93.3013,"12/24/2016 7:00am - 6:00pm,12/25/2016 Closed,12/31/2016 9:00am - 7:00pm,1/1/2017 9:00am - 7:00pm",RICHFIELD,MN,,1700 W 78TH STREET,44.8633,55423
651-731-0200,WOODBURY,,,,US,TAMARACK VILLAGE,-92.9407,"12/24/2016 7:00am - 6:00pm,12/25/2016 Closed,12/31/2016 9:00am - 7:00pm,1/1/2017 9:00am - 7:00pm",WOODBURY,MN,,8292 TAMARACK VILLAGE,44.942,55125
952-898-0743,BURNSVILLE,,,,US,BURNSVILLE CENTER,-93.289,"12/24/2016 7:00am - 6:00pm,12/25/2016 Closed,12/31/2016 9:00am - 7:00pm,1/1/2017 9:00am - 7:00pm",BURNSVILLE,MN,,"901 COUNTY ROAD 42 WEST, B-200",44.7449,55306
608-406-3684,LA CROSSE,,,,US,VALLEY VIEW MALL,-91.1925,"12/24/2016 7:00am - 6:00pm,12/25/2016 Closed,12/31/2016 9:00am - 7:00pm,1/1/2017 9:00am - 7:00pm",LA CROSSE,WI,,4400 WI-16,43.872,54650
601-853-4373,MADISON,,,,US,MADISON GRANDVIEW,-90.1374,"12/24/2016 7:00am - 6:00pm,12/25/2016 Closed,12/31/2016 9:00am - 7:00pm,1/1/2017 9:00am - 7:00pm",MADISON,MS,,175 GRANDVIEW BLVD.,32.4642,39110
601-992-2341,FLOWOOD,,,,US,MARKET STREET AT FLOWOOD,-90.0683,"12/24/2016 7:00am - 6:00pm,12/25/2016 Closed,12/31/2016 9:00am - 7:00pm,1/1/2017 9:00am - 7:00pm",FLOWOOD,MS,,720 MACKENZIE LANE,32.3371,39232
662-570-1025,COLUMBUS,,,,US,UNIVERSITY MALL,-88.437977144003,"12/24/2016 7:00am - 6:00pm,12/25/2016 Closed,12/31/2016 9:00am - 7:00pm,1/1/2017 9:00am - 7:00pm",COLUMBUS,MS,,2041 US 45,33.524686566234,39705
601-264-6648,HATTIESBURG,,,,US,TURTLE CREEK MALL,-89.3757,"12/24/2016 7:00am - 6:00pm,12/25/2016 Closed,12/31/2016 9:00am - 7:00pm,1/1/2017 9:00am - 7:00pm",HATTIESBURG,MS,,1000 TURTLE CREEK ROAD,31.3229,39402
662-281-5814,OXFORD,,,,US,OXFORD GALLERIA II,-89.569,"12/24/2016 7:00am - 6:00pm,12/25/2016 Closed,12/31/2016 9:00am - 7:00pm,1/1/2017 9:00am - 7:00pm",OXFORD,MS,,300 MERCHANTS DRIVE,34.363,38655
662-844-5799,TUPELO,,,,US,THE MALL AT BARNES CROSSING,-88.7011,"12/24/2016 7:00am - 6:00pm,12/25/2016 Closed,12/31/2016 9:00am - 7:00pm,1/1/2017 9:00am - 7:00pm",TUPELO,MS,,1001 BARNES CROSSING ROAD,34.3095,38804
205-535-3006,TUSCALOOSA,,,,US,SHOPPES AT LEGACY PARK,-87.527396,"12/24/2016 7:00am - 6:00pm,12/25/2016 Closed,12/31/2016 9:00am - 7:00pm,1/1/2017 9:00am - 7:00pm",TUSCALOOSA,AL,,"1320 MCFARLAND BLVD E, BLDG 400, SUITE 410",33.198974,35404
318-410-1156,MONROE,,,,US,PECANLAND MALL,-92.0606,"12/24/2016 7:00am - 6:00pm,12/25/2016 Closed,12/31/2016 9:00am - 7:00pm,1/1/2017 9:00am - 7:00pm",MONROE,LA,,"4700 MILLHAVEN ROAD, SUITE 1566",32.498,71203
901-737-2216,MEMPHIS,,,,US,CENTENNIAL COMMONS,-89.8045,"12/24/2016 7:00am - 6:00pm,12/25/2016 Closed,12/31/2016 9:00am - 7:00pm,1/1/2017 9:00am - 7:00pm",MEMPHIS,TN,,766 POLO GROUNDS BLVD,35.052,38125
228-392-1607,D'IBERVILLE,,,,US,THE PROMENADE,-88.9015,"12/24/2016 7:00am - 6:00pm,12/25/2016 Closed,12/31/2016 9:00am - 7:00pm,1/1/2017 9:00am - 7:00pm",D'IBERVILLE,MS,,3893 PROMENADE PARKWAY,30.4535,39540
573-302-7470,OSAGE BEACH,,,,US,LAKEVIEW POINTE,-92.6312498248565,"12/24/2016 7:00am - 6:00pm,12/25/2016 Closed,12/31/2016 9:00am - 7:00pm,1/1/2017 9:00am - 7:00pm",OSAGE BEACH,MO,,4635 OSAGE BEACH PARKWAY,38.1450581462531,65065
573-556-5602,JEFFERSON CITY,,,,US,STONERIDGE VILLAGE,-92.2219,"12/24/2016 7:00am - 6:00pm,12/25/2016 Closed,12/31/2016 9:00am - 7:00pm,1/1/2017 9:00am - 7:00pm",JEFFERSON CITY,MO,,739 STONERIDGE PARKWAY,38.5793,65109
573-447-1001,COLUMBIA,,,,US,STADIUM SHOPPES,-92.3746,"12/24/2016 7:00am - 6:00pm,12/25/2016 Closed,12/31/2016 9:00am - 7:00pm,1/1/2017 9:00am - 7:00pm",COLUMBIA,MO,,227 N. STADIUM,38.9607,65203
636-266-3006,WASHINGTON,,,,US,PHOENIX CENTER II,-90.980166,"12/24/2016 7:00am - 6:00pm,12/25/2016 Closed,12/31/2016 9:00am - 7:00pm,1/1/2017 9:00am - 7:00pm",WASHINGTON,MO,,3162 PHOENIX CENTER DRIVE,38.534383,63090
636-445-3081,WENTZVILLE,,,,US,WENTZVILLE CROSSING,-90.8747,"12/24/2016 7:00am - 6:00pm,12/25/2016 Closed,12/31/2016 9:00am - 7:00pm,1/1/2017 9:00am - 7:00pm",WENTZVILLE,MO,,1866 WENTZVILLE PARKWAY,38.8177,63385
636-536-3718,CHESTERFIELD,,,,US,CHESTERFIELD COMMONS,-90.5879,"12/24/2016 7:00am - 6:00pm,12/25/2016 Closed,12/31/2016 9:00am - 7:00pm,1/1/2017 9:00am - 7:00pm",CHESTERFIELD,MO,,64 THF BLVD.,38.6663,63005
636-278-5050,ST. PETERS,,,,US,MID RIVERS MALL,-90.6147,"12/24/2016 7:00am - 6:00pm,12/25/2016 Closed,12/31/2016 9:00am - 7:00pm,1/1/2017 9:00am - 7:00pm",ST. PETERS,MO,,1600 MID RIVERS MALL,38.7964,63376
417-295-3033,LEES SUMMIT,,,,US,SUMMIT FAIR,-94.402192,,LEES SUMMIT,MO,,840 NW BLUE PARKWAY,38.928187,64086
314-649-1400,DES PERES,,,,US,WEST COUNTY CENTER,-90.4469,"12/24/2016 7:00am - 6:00pm,12/25/2016 Closed,12/31/2016 9:00am - 7:00pm,1/1/2017 9:00am - 7:00pm",DES PERES,MO,,200 WEST COUNTY CENTER,38.5999,63131
816-525-3006,LEE'S SUMMIT,,,,US,SUMMIT WOODS CROSSING,-94.4074,"12/24/2016 7:00am - 6:00pm,12/25/2016 Closed,12/31/2016 9:00am - 7:00pm,1/1/2017 9:00am - 7:00pm",LEE'S SUMMIT,MO,,1600 NW CHIPMAN ROAD,38.9308,64081
603-224-1564,CONCORD,,,,US,PATRIOT PLACE,-71.4866,"12/24/2016 7:00am - 6:00pm,12/25/2016 Closed,12/31/2016 9:00am - 7:00pm,1/1/2017 9:00am - 7:00pm",CONCORD,NH,,295 LOUDON ROAD,43.227,03301
603-431-8036,PORTSMOUTH,,,,US,THE CROSSINGS AT FOXRUN,-70.8025,"12/24/2016 7:00am - 6:00pm,12/25/2016 Closed,12/31/2016 9:00am - 7:00pm,1/1/2017 9:00am - 7:00pm",NEWINGTON,NH,,45 GOSLING ROAD,43.0937,03801
207-828-4950,SOUTH PORTLAND,,,,US,PORTLAND,-70.3318,"12/24/2016 7:00am - 6:00pm,12/25/2016 Closed,12/31/2016 9:00am - 7:00pm,1/1/2017 9:00am - 7:00pm",PORTLAND,ME,,385 GORHAM ROAD,43.6375,04106
603-357-0861,KEENE,,,,US,MONADNOCK MARKETPLACE,-72.3028,"12/24/2016 7:00am - 6:00pm,12/25/2016 Closed,12/31/2016 9:00am - 7:00pm,1/1/2017 9:00am - 7:00pm",KEENE,NH,,42 ASH BROOK ROAD,42.9282,03431
603-760-7369,SEABROOK,,,,US,SEABROOK TOWN CENTER,-70.866524862778,"12/24/2016 7:00am - 6:00pm,12/25/2016 Closed,12/31/2016 9:00am - 7:00pm,1/1/2017 9:00am - 7:00pm",SEABROOK,NH,,"700 LAFAYETTE ROAD, SUITE 212",42.8925474529976,03874
603-824-3152,SALEM,,,,US,THE MALL AT ROCKINGHAM PARK,-71.23166,"12/24/2016 7:00am - 6:00pm,12/25/2016 Closed,12/31/2016 9:00am - 7:00pm,1/1/2017 9:00am - 7:00pm",SALEM,NH,,77 ROCKINGHAM BLVD.,42.769618,03079
603-888-3579,NASHUA,,,,US,PHEASANT LANE MALL,-71.4385,"12/24/2016 7:00am - 6:00pm,12/25/2016 Closed,12/31/2016 9:00am - 7:00pm,1/1/2017 9:00am - 7:00pm",NASHUA,NH,,310 DANIEL WEBSTER HIGHWAY,42.7019,03060
802-773-2710,RUTLAND,,,,US,GREEN MOUNTAIN PLAZA,-72.9706,"12/24/2016 7:00am - 6:00pm,12/25/2016 Closed,12/31/2016 9:00am - 7:00pm,1/1/2017 9:00am - 7:00pm",RUTLAND,VT,,320 US ROUTE 7 SOUTH,43.5852,05701
978-537-4081,LEOMINSTER,,,,US,ORCHARD HILL PARK,-71.7147,"12/24/2016 7:00am - 6:00pm,12/25/2016 Closed,12/31/2016 9:00am - 7:00pm,1/1/2017 9:00am - 7:00pm",LEOMINSTER,MA,,56 ORCHARD HILL PARK DRIVE,42.5254,01453
207-721-3074,TOPSHAM,,,,US,TOPSHAM FAIR MALL,-69.9846,"12/24/2016 7:00am - 6:00pm,12/25/2016 Closed,12/31/2016 9:00am - 7:00pm,1/1/2017 9:00am - 7:00pm",TOPSHAM,ME,,131 TOPSHAM FAIR MALL ROAD,43.9325,04086
208-238-6002,POCATELLO,,,,US,POCATELLO SQUARE,-112.459,"12/24/2016 7:00am - 6:00pm,12/25/2016 Closed,12/31/2016 9:00am - 7:00pm,1/1/2017 9:00am - 7:00pm",POCATELLO,ID,,1844 HURLEY DRIVE,42.9083,83202
307-265-4266,CASPER,,,,US,EASTRIDGE MALL,-106.264273,"12/24/2016 7:00am - 6:00pm,12/25/2016 Closed,12/31/2016 9:00am - 7:00pm,1/1/2017 9:00am - 7:00pm",CASPER,WY,,601 SE WYOMING BLVD,42.845408,82609
509-891-0977,SPOKANE VALLEY,,,,US,SPOKANE VALLEY MALL,-117.212,"12/24/2016 7:00am - 6:00pm,12/25/2016 Closed,12/31/2016 9:00am - 7:00pm,1/1/2017 9:00am - 7:00pm",SPOKANE VALLEY,WA,,14014 EAST INDIANA AVENUE,47.674,99216
208-944-3105,TWIN FALLS,,,,US,CANYON PARK WEST,-114.458756,"12/24/2016 7:00am - 6:00pm,12/25/2016 Closed,12/31/2016 9:00am - 7:00pm,1/1/2017 9:00am - 7:00pm",TWIN FALLS,ID,,1939 FILLMORE STREET,42.597078,83301
208-999-3475,BOISE,,,,US,WESTPARK TOWNE PLAZA,-116.283346,"12/24/2016 7:00am - 6:00pm,12/25/2016 Closed,12/31/2016 9:00am - 7:00pm,1/1/2017 9:00am - 7:00pm",BOISE,ID,,131 N MILWAUKEE STREET,43.606207,83704
208-884-2026,MERIDIAN,,,,US,CENTRE POINT MARKETPLACE,-116.358,"12/24/2016 7:00am - 6:00pm,12/25/2016 Closed,12/31/2016 9:00am - 7:00pm,1/1/2017 9:00am - 7:00pm",MERIDIAN,ID,,3415 N EAGLE ROAD,43.6361,83646
208-546-3433,NAMPA,,,,US,TREASURE VALLEY CROSSING,-116.598,"12/24/2016 7:00am - 6:00pm,12/25/2016 Closed,12/31/2016 9:00am - 7:00pm,1/1/2017 9:00am - 7:00pm",NAMPA,ID,,16905 N MARKETPLACE BLVD,43.6146,83687
701-989-7908,BISMARCK,,,,US,HAY CREEK SHOPS,-100.767523,"12/24/2016 7:00am - 6:00pm,12/25/2016 Closed,12/31/2016 9:00am - 7:00pm,1/1/2017 12:00pm - 7:00pm",BISMARCK,ND,,1451 EAST LASALLE DRIVE,46.860148,58503
801-444-6656,LAYTON,,,,US,LAYTON HILLS MALL,-111.978,"12/24/2016 7:00am - 6:00pm,12/25/2016 Closed,12/31/2016 9:00am - 7:00pm,1/1/2017 9:00am - 7:00pm",LAYTON,UT,,1201 N HILL FIELD ROAD #1024,41.0776,84041
801-566-2920,MIDVALE,,,,US,FAMILY CENTER AT FORT UNION,-111.862,"12/24/2016 7:00am - 6:00pm,12/25/2016 Closed,12/31/2016 9:00am - 7:00pm,1/1/2017 9:00am - 7:00pm",MIDVALE,UT,,7170 S 1000 E,40.621,84047
308-392-3226,GRAND ISLAND,,,,US,NORTHWEST COMMONS,-98.381574,"12/24/2016 7:00am - 6:00pm,12/25/2016 Closed,12/31/2016 9:00am - 7:00pm,1/1/2017 9:00am - 7:00pm",GRAND ISLAND,NE,,"2250 N WEBB ROAD, SUITE 200",40.943745,68803
402-330-1184,OMAHA,,,,US,OAKVIEW PLAZA SOUTH,-96.1297,"12/24/2016 7:00am - 6:00pm,12/25/2016 Closed,12/31/2016 9:00am - 7:00pm,1/1/2017 9:00am - 7:00pm",OMAHA,NE,,3125 OAKVIEW DRIVE,41.2279,68144
402-951-4400,OMAHA,,,,US,WESTROADS MALL,-96.0678,"12/24/2016 7:00am - 6:00pm,12/25/2016 Closed,12/31/2016 9:00am - 7:00pm,1/1/2017 9:00am - 7:00pm",OMAHA,NE,,9901 NICHOLAS STREET,41.2675,68114
402-592-1642,PAPILLION,,,,US,SHADOW LAKE TOWNE CENTER,-96.0267,"12/24/2016 7:00am - 6:00pm,12/25/2016 Closed,12/31/2016 9:00am - 7:00pm,1/1/2017 9:00am - 7:00pm",PAPILLION,NE,,7403 TOWN CENTER PARKWAY,41.1331,68046
605-362-6550,SIOUX FALLS,,,,US,EMPIRE MALL,-96.774622,"12/24/2016 7:00am - 6:00pm,12/25/2016 Closed,12/31/2016 9:00am - 7:00pm,1/1/2017 9:00am - 7:00pm",SIOUX FALLS,SD,,1080 W EMPIRE MALL,43.51076,57106
712-435-3142,COUNCIL BLUFFS,,,,US,METRO CROSSING,-95.8384,"12/24/2016 7:00am - 6:00pm,12/25/2016 Closed,12/31/2016 9:00am - 7:00pm,1/1/2017 9:00am - 7:00pm",COUNCIL BLUFFS,IA,,3816 METRO DRIVE,41.2193,51501
785-827-3540,SALINA,,,,US,MIDSTATE PLAZA,-97.615742,"12/24/2016 7:00am - 6:00pm,12/25/2016 Closed,12/31/2016 9:00am - 7:00pm,1/1/2017 9:00am - 7:00pm",SALINA,KS,,2450 9TH STREET,38.797507,67401
785-539-7800,MANHATTAN,,,,US,MANHATTAN MARKETPLACE,-96.5605,"12/24/2016 7:00am - 6:00pm,12/25/2016 Closed,12/31/2016 9:00am - 7:00pm,1/1/2017 9:00am - 7:00pm",MANHATTAN,KS,,401 3RD PLACE,39.1851,66502
620-805-3442,GARDEN CITY,,,,US,SCHULMAN CROSSING,-100.83428059965,"12/24/2016 7:00am - 6:00pm,12/25/2016 Closed,12/31/2016 9:00am - 7:00pm,1/1/2017 9:00am - 7:00pm",GARDEN CITY,KS,,1540 LAREU STREET,37.978809372345,67846
785-271-5398,TOPEKA,,,,US,HOME DEPOT EXTENSION,-95.759,"12/24/2016 7:00am - 6:00pm,12/25/2016 Closed,12/31/2016 9:00am - 7:00pm,1/1/2017 9:00am - 7:00pm",TOPEKA,KS,,5900 SW HUNTOON STREET,39.0459,66604
609-747-0400,BURLINGTON TWP,,,,US,TOWNE CROSSING SHOPPING CENTER,-74.8233,"12/24/2016 7:00am - 6:00pm,12/25/2016 Closed,12/31/2016 9:00am - 7:00pm,1/1/2017 9:00am - 7:00pm",BURLINGTON,NJ,,"2703 RT. 541, SUITE 4",40.0369,08016
215-946-8750,FAIRLESS HILLS,,,,US,COURT AT OXFORD VALLEY,-74.8697,"12/24/2016 7:00am - 6:00pm,12/25/2016 Closed,12/31/2016 9:00am - 7:00pm,1/1/2017 9:00am - 7:00pm",OXFORD VALLEY,PA,,150 COMMERCE BLVD.,40.1807,19030
609-419-1661,PRINCETON,,,,US,NASSAU PARK PAVILION,-74.6796,"12/24/2016 7:00am - 6:00pm,12/25/2016 Closed,12/31/2016 9:00am - 7:00pm,1/1/2017 9:00am - 7:00pm",PRINCETON,NJ,,530 NASSAU PARK BLVD,40.3059,08540
215-637-3230,PHILADELPHIA,,,,US,LIBERTY PLAZA,-74.9675,"12/24/2016 7:00am - 6:00pm,12/25/2016 Closed,12/31/2016 9:00am - 7:00pm,1/1/2017 9:00am - 7:00pm",FRANKLIN MILLS,PA,,20 FRANKLIN MILLS BLVD.,40.0855,19154
856-802-1225,MT LAUREL,,,,US,EAST GATE SQUARE,-74.9594,"12/24/2016 7:00am - 6:00pm,12/25/2016 Closed,12/31/2016 9:00am - 7:00pm,1/1/2017 9:00am - 7:00pm",MOORESTOWN,NJ,,1300 NIXON DRIVE,39.9397,08054
732-358-1400,FREEHOLD,,,,US,FREEHOLD RACEWAY MALL,-74.2966,"12/24/2016 7:00am - 6:00pm,12/25/2016 Closed,12/31/2016 9:00am - 7:00pm,1/1/2017 9:00am - 7:00pm",FREEHOLD,NJ,,650 TROTTER'S WAY,40.252,07728
215-657-8977,WILLOW GROVE,,,,US,PLAZA AT WILLOW GROVE,-75.1207,"12/24/2016 7:00am - 6:00pm,12/25/2016 Closed,12/31/2016 9:00am - 7:00pm,1/1/2017 9:00am - 7:00pm",WILLOW GROVE,PA,,2510 MORELAND RD,40.1423,19090
856-317-8394,CHERRY HILL,,,,US,MARKET PLACE AT GARDEN STATE PARK,-75.0366,"12/24/2016 7:00am - 6:00pm,12/25/2016 Closed,12/31/2016 9:00am - 7:00pm,1/1/2017 9:00am - 7:00pm",CHERRY HILL,NJ,,2130 ROUTE 70 WEST,39.9234,08002
732-651-3284,EAST BRUNSWICK,,,,US,EAST BRUNSWICK,-74.4021,"12/24/2016 7:00am - 6:00pm,12/25/2016 Closed,12/31/2016 9:00am - 7:00pm,1/1/2017 9:00am - 7:00pm",EAST BRUNSWICK,NJ,,325 STATE ROUTE 18,40.4555,08816
732-477-4844,BRICK,,,,US,BRICK 70 PLAZA,-74.1549,"12/24/2016 7:00am - 6:00pm,12/25/2016 Closed,12/31/2016 9:00am - 7:00pm,1/1/2017 9:00am - 7:00pm",BRICK,NJ,,487 ROUTE 70,40.055,08723
315-798-9626,NEW HARTFORD,,,,US,SANGERTOWN SQUARE,-75.314,"12/24/2016 7:00am - 6:00pm,12/25/2016 Closed,12/31/2016 9:00am - 7:00pm,1/1/2017 9:00am - 7:00pm",NEW HARTFORD,NY,,ROUTE 5 AND 5A,43.0823,13413
315-802-0005,DEWITT,,,,US,ERIE CANAL CENTRE,-76.066123,"12/24/2016 7:00am - 6:00pm,12/25/2016 Closed,12/31/2016 9:00am - 7:00pm,1/1/2017 9:00am - 7:00pm",DEWITT,NY,,3469 ERIE BLVD. EAST - SPACE 1,43.04443,13214
315-471-7770,SYRACUSE,,,,US,DESTINY USA,-76.1721,"12/24/2016 7:00am - 6:00pm,12/25/2016 Closed,12/31/2016 9:00am - 7:00pm,1/1/2017 9:00am - 7:00pm",SYRACUSE,NY,,10311 DESTINY USA DRIVE,43.067,13204
315-652-7674,CLAY,,,,US,GREAT NORTHERN MALL,-76.2274,"12/24/2016 7:00am - 6:00pm,12/25/2016 Closed,12/31/2016 9:00am - 7:00pm,1/1/2017 9:00am - 7:00pm",CLAY,NY,,4081 STATE HIGHWAY 31,43.1885,13041
607-432-0203,ONEONTA,,,,US,SOUTHSIDE MALL,-75.0466,"12/24/2016 7:00am - 6:00pm,12/25/2016 Closed,12/31/2016 9:00am - 7:00pm,1/1/2017 9:00am - 7:00pm",ONEONTA,NY,,"5006 STATE HIGHWAY 23, SUITE 1C",42.4469,13820
315-258-3750,AUBURN,,,,US,FINGERLAKES CROSSING,-76.6088,"12/24/2016 7:00am - 6:00pm,12/25/2016 Closed,12/31/2016 9:00am - 7:00pm,1/1/2017 9:00am - 7:00pm",AUBURN,NY,,1620 CLARK STREET ROAD,42.9248,13021
607-257-5077,ITHACA,,,,US,PYRAMID MALL,-76.4898,"12/24/2016 7:00am - 6:00pm,12/25/2016 Closed,12/31/2016 9:00am - 7:00pm,1/1/2017 9:00am - 7:00pm",ITHACA,NY,,40 CATHERWOOD ROAD,42.4821,14850
607-724-4361,BINGHAMTON,,,,US,BINGHAMTON,-75.89,"12/24/2016 7:00am - 6:00pm,12/25/2016 Closed,12/31/2016 9:00am - 7:00pm,1/1/2017 9:00am - 7:00pm",BINGHAMTON,NY,,347 COURT ST.,42.1048,13904
607-797-5220,VESTAL,,,,US,TOWN SQUARE MALL,-76.0087,"12/24/2016 7:00am - 6:00pm,12/25/2016 Closed,12/31/2016 9:00am - 7:00pm,1/1/2017 9:00am - 7:00pm",VESTAL,NY,,2433 VESTAL PKWY EAST,42.0983,13850
315-786-8681,WATERTOWN,,,,US,SALMON RUN MALL,-75.9531,"12/24/2016 7:00am - 6:00pm,12/25/2016 Closed,12/31/2016 9:00am - 7:00pm,1/1/2017 9:00am - 7:00pm",WATERTOWN,NY,,21143 SALMON RUN LOOP WEST,43.9793,13601
775-636-7838,RENO,,,,US,MEADOWOOD MALL,-119.783,"12/24/2016 7:00am - 6:00pm,12/25/2016 Closed,12/31/2016 9:00am - 7:00pm,1/1/2017 9:00am - 7:00pm",RENO,NV,,5354 MEADOWOOD MALL CIRCLE,39.473,89502
435-673-4261,ST. GEORGE,,,,US,RED ROCKS COMMONS,-113.553,"12/24/2016 7:00am - 6:00pm,12/25/2016 Closed,12/31/2016 9:00am - 7:00pm,1/1/2017 9:00am - 7:00pm",ST. GEORGE,UT,,"15 SOUTH RIVER RD, SUITE 240",37.1074,84790
702-479-1266,LAS VEGAS,,,,US,FASHION SHOW MALL,-115.17,"12/24/2016 7:00am - 6:00pm,12/25/2016 Closed,12/31/2016 9:00am - 7:00pm,1/1/2017 9:00am - 7:00pm",LAS VEGAS,NV,,"3200 LAS VEGAS BLVD, SUITE D700",36.127,89109
559-322-4628,CLOVIS,,,,US,CLOVIS SHOPPING CENTRE,-119.694,"12/24/2016 7:00am - 6:00pm,12/25/2016 Closed,12/31/2016 9:00am - 7:00pm,1/1/2017 9:00am - 7:00pm",CLOVIS,CA,,1225 HERNDON AVENUE,36.8396,93612
559-367-0252,FRESNO,,,,US,BLACKSTONE,-119.786508,,FRESNO,CA,,7572 NORTH BLACKSTONE AVENUE,36.846684,93720
702-855-5000,HENDERSON,,,,US,GALLERIA AT SUNSET,-115.041,"12/24/2016 7:00am - 6:00pm,12/25/2016 Closed,12/31/2016 9:00am - 7:00pm,1/1/2017 9:00am - 7:00pm",HENDERSON,NV,,1308 WEST SUNSET ROAD,36.0679,89014
916-358-7111,FOLSOM,,,,US,WILLOW CREEK SHOPPING CENTER,-121.156031,"12/24/2016 7:00am - 6:00pm,12/25/2016 Closed,12/31/2016 9:00am - 7:00pm,1/1/2017 9:00am - 7:00pm",FOLSOM,CA,,1003 E. BIDWELL STREET,38.669062,95630
559-271-2701,FRESNO,,,,US,ARBOR FAIRE,-119.853,"12/24/2016 7:00am - 6:00pm,12/25/2016 Closed,12/31/2016 9:00am - 7:00pm,1/1/2017 9:00am - 7:00pm",FRESNO,CA,,3380 WEST SHAW AVENUE,36.81,93711
208-944-3105,TWIN FALLS,,,,US,CANYON PARK WEST,-114.458756,"12/24/2016 7:00am - 6:00pm,12/25/2016 Closed,12/31/2016 9:00am - 7:00pm,1/1/2017 9:00am - 7:00pm",TWIN FALLS,ID,,1939 FILLMORE STREET,42.597078,83301
559-636-0633,VISALIA,,,,US,GATEWAY PLAZA,-119.316,"12/24/2016 7:00am - 6:00pm,12/25/2016 Closed,12/31/2016 9:00am - 7:00pm,1/1/2017 9:00am - 7:00pm",VISALIA,CA,,3637 S. MOONEY BLVD.,36.2975,93277
505-884-4415,ALBUQUERQUE,,,,US,CORONADO CENTER,-106.575485,"12/24/2016 7:00am - 6:00pm,12/25/2016 Closed,12/31/2016 9:00am - 7:00pm,1/1/2017 9:00am - 7:00pm",ALBUQUERQUE (UPTOWN),NM,,"6600 MENAUL BLVD. NE, SUITE 2000-1",35.106585,87110
505-899-0355,ALBUQUERQUE,,,,US,COTTONWOOD PLACE,-106.653,"12/24/2016 7:00am - 6:00pm,12/25/2016 Closed,12/31/2016 9:00am - 7:00pm,1/1/2017 9:00am - 7:00pm",COTTONWOOD,NM,,3550 STATE HIGHWAY 528 NW,35.2054,87114
575-522-9756,LAS CRUCES,,,,US,LAS CRUCES,-106.747,"12/24/2016 7:00am - 6:00pm,12/25/2016 Closed,12/31/2016 9:00am - 7:00pm,1/1/2017 9:00am - 7:00pm",LAS CRUCES,NM,,200 NORTH TELSHOR BLVD.,32.3198,88011
915-218-5119,EL PASO,,,,US,SUNLAND PLAZA,-106.547,"12/24/2016 7:00am - 6:00pm,12/25/2016 Closed,12/31/2016 9:00am - 7:00pm,1/1/2017 9:00am - 7:00pm",WEST EL PASO,TX,,801 SUNLAND PARK DRIVE,31.819,79912
915-633-1120,EL PASO,,,,US,THE FOUNTAINS AT FARAH,-106.373414,"12/24/2016 7:00am - 6:00pm,12/25/2016 Closed,12/31/2016 9:00am - 7:00pm,1/1/2017 9:00am - 7:00pm",EL PASO,TX,,"8889 GATEWAY WEST BLVD, SUITE 110",31.771103,79925
505-793-8034,FARMINGTON,,,,US,FARMINGTON PAVILION,-108.149,"12/24/2016 7:00am - 6:00pm,12/25/2016 Closed,12/31/2016 9:00am - 7:00pm,1/1/2017 9:00am - 7:00pm",FARMINGTON,NM,,5050 MAIN STREET,36.7667,87402
,PUEBLO,,,,US,PUEBLO CROSSING,-104.62359,,PUEBLO,CO,,5945 N ELIZABETH STREET,38.33413,81008
520-742-0792,ORO VALLEY,,,,US,ORO VALLEY MARKETPLACE,-110.938,"12/24/2016 7:00am - 6:00pm,12/25/2016 Closed,12/31/2016 9:00am - 7:00pm,1/1/2017 9:00am - 7:00pm",ORO VALLEY,AZ,,11935 NORTH ORACLE ROAD,32.4227,85737
520-203-0016,TUCSON,,,,US,WILMOT PLAZA,-110.856347,"12/24/2016 7:00am - 6:00pm,12/25/2016 Closed,12/31/2016 9:00am - 7:00pm,1/1/2017 9:00am - 7:00pm",TUCSON,AZ,,6327 E. BROADWAY BLVD,32.222244,85710
719-638-3400,COLORADO SPRINGS,,,,US,FIRST AND MAIN TOWER CENTER,-104.717,"12/24/2016 7:00am - 6:00pm,12/25/2016 Closed,12/31/2016 9:00am - 7:00pm,1/1/2017 9:00am - 7:00pm",COLORADO SPRINGS,CO,,3133 CINEMA POINT,38.8793,80922
919-552-4148,HOLLY SPRINGS,,,,US,HOLLY SPRINGS TOWNE CENTER,-78.8484036806966,"12/24/2016 7:00am - 6:00pm,12/25/2016 Closed,12/31/2016 9:00am - 7:00pm,1/1/2017 9:00am - 7:00pm",HOLLY SPRINGS,NC,,168 GRAND HILL PLACE,35.6636496154626,27540
919-367-0194,APEX,,,,US,BEAVER CREEK CROSSINGS,-78.8858,"12/24/2016 7:00am - 6:00pm,12/25/2016 Closed,12/31/2016 9:00am - 7:00pm,1/1/2017 9:00am - 7:00pm",APEX,NC,,1531 BEAVER CREEK COMMONS DRIVE,35.7448,27502
910-246-0778,ABERDEEN,,,,US,CENTER PARK,-79.4176,"12/24/2016 7:00am - 6:00pm,12/25/2016 Closed,12/31/2016 9:00am - 7:00pm,1/1/2017 9:00am - 7:00pm",ABERDEEN,NC,,"11109 HIGHWAY 15/501, SUITE A",35.1565,28315
919-851-7721,CARY,,,,US,CROSSROAD PLAZA,-78.7359,"12/24/2016 7:00am - 6:00pm,12/25/2016 Closed,12/31/2016 9:00am - 7:00pm,1/1/2017 9:00am - 7:00pm",CARY,NC,,401 CROSSROADS BLVD,35.7622,27518
919-493-9884,DURHAM,,,,US,NEW HOPE COMMONS,-78.9956,"12/24/2016 7:00am - 6:00pm,12/25/2016 Closed,12/31/2016 9:00am - 7:00pm,1/1/2017 9:00am - 7:00pm",DURHAM,NC,,5422 NEW HOPE COMMONS DRIVE,35.9565,27707
919-806-5153,RALEIGH,,,,US,BRIER CREEK COMMONS,-78.7806,"12/24/2016 7:00am - 6:00pm,12/25/2016 Closed,12/31/2016 9:00am - 7:00pm,1/1/2017 9:00am - 7:00pm",RALEIGH,NC,,"8021 BRIER CREEK PARKWAY, SUITE 100",35.91,27617
919-662-4177,GARNER,,,,US,WHITE OAK CROSSING,-78.5804,"12/24/2016 7:00am - 6:00pm,12/25/2016 Closed,12/31/2016 9:00am - 7:00pm,1/1/2017 9:00am - 7:00pm",GARNER,NC,,145 SHENSTONE BLVD,35.6945,27529
910-867-8566,FAYETTEVILLE,,,,US,FAYETTEVILLE PAVILION,-78.9699,"12/24/2016 7:00am - 6:00pm,12/25/2016 Closed,12/31/2016 9:00am - 7:00pm,1/1/2017 9:00am - 7:00pm",FAYETTEVILLE,NC,,2051 SKIBO ROAD,35.0543,28314
919-792-9090,RALEIGH,,,,US,TRIANGLE TOWN CENTER,-78.5762,"12/24/2016 7:00am - 6:00pm,12/25/2016 Closed,12/31/2016 9:00am - 7:00pm,1/1/2017 9:00am - 7:00pm",RALEIGH,NC,,3630 SUMNER BLVD,35.8627,27616
336-584-7545,BURLINGTON,,,,US,ALAMANCE WEST,-79.5149,"12/24/2016 7:00am - 6:00pm,12/25/2016 Closed,12/31/2016 9:00am - 7:00pm,1/1/2017 9:00am - 7:00pm",BURLINGTON,NC,,1465 BOONE STATION DRIVE,36.0701,27215
614-410-0018,COLUMBUS,,,,US,POLARIS FASHION PLACE,-82.980228,"12/24/2016 7:00am - 6:00pm,12/25/2016 Closed,12/31/2016 9:00am - 7:00pm,1/1/2017 9:00am - 7:00pm",POLARIS,OH,,"1510 POLARIS PARKWAY, SUITE A",40.147007,43240
419-747-2727,ONTARIO,,,,US,ONTARIO TOWNE CENTER,-82.5952,"12/24/2016 7:00am - 6:00pm,12/25/2016 Closed,12/31/2016 9:00am - 7:00pm,1/1/2017 9:00am - 7:00pm",MANSFIELD,OH,,2235 WALKER LAKE ROAD,40.7878,44903
614-472-4759,COLUMBUS,,,,US,EASTON TOWN CENTER,-82.904605,"12/24/2016 7:00am - 6:00pm,12/25/2016 Closed,12/31/2016 9:00am - 7:00pm,1/1/2017 9:00am - 7:00pm",COLUMBUS (EASTON),OH,,4304 EASTON GATEWAY DRIVE,40.054859,43219
740-522-5555,HEATH,,,,US,INDIAN MOUND MALL,-82.448,"12/24/2016 7:00am - 6:00pm,12/25/2016 Closed,12/31/2016 9:00am - 7:00pm,1/1/2017 9:00am - 7:00pm",HEATH,OH,,771 SOUTH 30TH STREET,40.0298,43056
614-798-1111,DUBLIN,,,,US,DUBLIN,-83.0943,"12/24/2016 7:00am - 6:00pm,12/25/2016 Closed,12/31/2016 9:00am - 7:00pm,1/1/2017 9:00am - 7:00pm",DUBLIN,OH,,6111 SAWMILL ROAD,40.0907,43017
614-777-1396,HILLIARD,,,,US,TANGLEWOOD PLAZA,-83.1543,"12/24/2016 7:00am - 6:00pm,12/25/2016 Closed,12/31/2016 9:00am - 7:00pm,1/1/2017 9:00am - 7:00pm",HILLIARD,OH,,1825 HILLIARD-ROME ROAD,39.9888,43026
614-801-1033,GROVE CITY,,,,US,PARKWAY CENTRE,-83.0396,"12/24/2016 7:00am - 6:00pm,12/25/2016 Closed,12/31/2016 9:00am - 7:00pm,1/1/2017 9:00am - 7:00pm",GROVE CITY,OH,,1656 STRINGTOWN ROAD,39.8807,43123
740-654-6215,LANCASTER,,,,US,RIVER VALLEY MALL,-82.6262,"12/24/2016 7:00am - 6:00pm,12/25/2016 Closed,12/31/2016 9:00am - 7:00pm,1/1/2017 9:00am - 7:00pm",LANCASTER,OH,,1500 RIVER VALLEY CIRCLE,39.7319,43130
330-234-5183,WOOSTER,,,,US,WAYNE TOWN CENTER,-81.944452,"12/24/2016 7:00am - 6:00pm,12/25/2016 Closed,12/31/2016 9:00am - 7:00pm,1/1/2017 9:00am - 7:00pm",WOOSTER,OH,,4027 BURBANK ROAD,40.850016,44691
419-423-5830,FINDLAY,,,,US,HOBBY LOBBY PLAZA,-83.6082534442332,"12/24/2016 7:00am - 6:00pm,12/25/2016 Closed,12/31/2016 9:00am - 7:00pm,1/1/2017 9:00am - 7:00pm",FINDLAY,OH,,1960 TIFFIN AVENUE,41.0552098068853,45840
701-989-7908,BISMARCK,,,,US,HAY CREEK SHOPS,-100.767523,"12/24/2016 7:00am - 6:00pm,12/25/2016 Closed,12/31/2016 9:00am - 7:00pm,1/1/2017 12:00pm - 7:00pm",BISMARCK,ND,,1451 EAST LASALLE DRIVE,46.860148,58503
320-227-6366,WAITE PARK,,,,US,MARKETPLACE SHOPPING CENTER,-94.214595,"12/24/2016 7:00am - 6:00pm,12/25/2016 Closed,12/31/2016 9:00am - 7:00pm,1/1/2017 9:00am - 7:00pm",WAITE PARK,MN,,40 2ND STREET S,45.548382,56387
605-362-6550,SIOUX FALLS,,,,US,EMPIRE MALL,-96.774622,"12/24/2016 7:00am - 6:00pm,12/25/2016 Closed,12/31/2016 9:00am - 7:00pm,1/1/2017 9:00am - 7:00pm",SIOUX FALLS,SD,,1080 W EMPIRE MALL,43.51076,57106
763-323-8611,COON RAPIDS,,,,US,RIVERDALE VILLAGE,-93.3488,"12/24/2016 7:00am - 6:00pm,12/25/2016 Closed,12/31/2016 9:00am - 7:00pm,1/1/2017 9:00am - 7:00pm",COON RAPIDS,MN,,12661 RIVERDALE BLVD.,45.2016,55448
763-315-5377,MAPLE GROVE,,,,US,FOUNTAINS OF ARBOR LAKES,-93.4249,"12/24/2016 7:00am - 6:00pm,12/25/2016 Closed,12/31/2016 9:00am - 7:00pm,1/1/2017 9:00am - 7:00pm",MAPLE GROVE,MN,,11361 FOUNTAINS DRIVE,45.0901,55369
952-525-0200,MINNETONKA,,,,US,WEST RIDGE MARKET,-93.4239,"12/24/2016 7:00am - 6:00pm,12/25/2016 Closed,12/31/2016 9:00am - 7:00pm,1/1/2017 9:00am - 7:00pm",MINNETONKA,MN,,11260 WAYZATA BLVD,44.9736,55305
612-869-0200,RICHFIELD,,,,US,RICHFIELD,-93.3013,"12/24/2016 7:00am - 6:00pm,12/25/2016 Closed,12/31/2016 9:00am - 7:00pm,1/1/2017 9:00am - 7:00pm",RICHFIELD,MN,,1700 W 78TH STREET,44.8633,55423
651-633-7242,ROSEVILLE,,,,US,CROSSROADS MALL,-93.169,"12/24/2016 7:00am - 6:00pm,12/25/2016 Closed,12/31/2016 9:00am - 7:00pm,1/1/2017 9:00am - 7:00pm",ROSEVILLE,MN,,1645 COUNTY ROAD B2 W,45.0163,55113
952-898-0743,BURNSVILLE,,,,US,BURNSVILLE CENTER,-93.289,"12/24/2016 7:00am - 6:00pm,12/25/2016 Closed,12/31/2016 9:00am - 7:00pm,1/1/2017 9:00am - 7:00pm",BURNSVILLE,MN,,"901 COUNTY ROAD 42 WEST, B-200",44.7449,55306
218-727-2078,DULUTH,,,,US,MILLER HILL MALL,-92.158382,"12/24/2016 7:00am - 6:00pm,12/25/2016 Closed,12/31/2016 9:00am - 7:00pm,1/1/2017 9:00am - 7:00pm",DULUTH,MN,,1600 MILLER TRUNK HIGHWAY,46.803644,55811
541-317-4820,BEND,,,,US,CASCADE VILLAGE SHOPPING CENTER,-121.303,"12/24/2016 7:00am - 6:00pm,12/25/2016 Closed,12/31/2016 9:00am - 7:00pm,1/1/2017 9:00am - 7:00pm",BEND,OR,,"63455 N HIGHWAY 97, SUITE 8",44.1002,97701
541-344-9622,EUGENE,,,,US,DELTA OAKS,-123.096,"12/24/2016 7:00am - 6:00pm,12/25/2016 Closed,12/31/2016 9:00am - 7:00pm,1/1/2017 9:00am - 7:00pm",EUGENE,OR,,1030 GREENACRES ROAD,44.0911,97408
503-363-4860,SALEM,,,,US,SALEM,-122.985,"12/24/2016 7:00am - 6:00pm,12/25/2016 Closed,12/31/2016 9:00am - 7:00pm,1/1/2017 9:00am - 7:00pm",SALEM,OR,,275 LANCASTER DRIVE,44.9308,97301
503-667-1950,GRESHAM,,,,US,GRESHAM TOWN FAIR,-122.434,"12/24/2016 7:00am - 6:00pm,12/25/2016 Closed,12/31/2016 9:00am - 7:00pm,1/1/2017 9:00am - 7:00pm",GRESHAM,OR,,700 NW EASTMAN PARKWAY,45.5025,97030
503-788-7616,CLACKAMAS,,,,US,JOHNSON CREEK CROSSING,-122.577,"12/24/2016 7:00am - 6:00pm,12/25/2016 Closed,12/31/2016 9:00am - 7:00pm,1/1/2017 9:00am - 7:00pm",CLACKAMAS,OR,,9600 SE 82ND STREET,45.454,97086
503-635-3800,LAKE OSWEGO,,,,US,MERIDIAN SQUARE,-122.743,"12/24/2016 7:00am - 6:00pm,12/25/2016 Closed,12/31/2016 9:00am - 7:00pm,1/1/2017 9:00am - 7:00pm",LAKE OSWEGO,OR,,17799 LOWER BOONES FERRY ROAD,45.3984,97035
503-598-3081,TIGARD,,,,US,WASHINGTON SQUARE,-122.78,"12/24/2016 7:00am - 6:00pm,12/25/2016 Closed,12/31/2016 9:00am - 7:00pm,1/1/2017 9:00am - 7:00pm",TIGARD,OR,,9402 SW WASHINGTON SQUARE ROAD,45.4519,97223
503-285-5040,PORTLAND,,,,US,HAYDEN MEADOWS SQUARE,-122.677,"12/24/2016 7:00am - 6:00pm,12/25/2016 Closed,12/31/2016 9:00am - 7:00pm,1/1/2017 9:00am - 7:00pm",PORTLAND,OR,,1140 N. HAYDEN MEADOWS DRIVE,45.5941,97217
503-547-2904,HILLSBORO,,,,US,CROSSROADS SHOPPING CENTER,-122.905,"12/24/2016 7:00am - 6:00pm,12/25/2016 Closed,12/31/2016 9:00am - 7:00pm,1/1/2017 9:00am - 7:00pm",HILLSBORO,OR,,7280 NW BUTLER STREET,45.5352,97124
541-930-3254,MEDFORD,,,,US,NORTHGATE MARKETPLACE,-122.886,"12/24/2016 7:00am - 6:00pm,12/25/2016 Closed,12/31/2016 9:00am - 7:00pm,1/1/2017 9:00am - 7:00pm",MEDFORD,OR,,293 ROSSANLEY DRIVE - SUITE A,42.342,97501
405-749-4610,OKLAHOMA CITY,,,,US,SHOPS AT QUAIL SPRING,-97.548,"12/24/2016 7:00am - 6:00pm,12/25/2016 Closed,12/31/2016 9:00am - 7:00pm,1/1/2017 9:00am - 7:00pm",QUAIL SPRING,OK,,14200 N. PENNSYLVANIA AVENUE,35.6148,73134
405-491-2570,OKLAHOMA CITY,,,,US,WESTGATE MARKETPLACE,-97.6298,"12/24/2016 7:00am - 6:00pm,12/25/2016 Closed,12/31/2016 9:00am - 7:00pm,1/1/2017 9:00am - 7:00pm",WESTGATE,OK,,6601 SW 3RD STREET,35.4633,73128
405-732-0820,MIDWEST CITY,,,,US,TOWN CENTER PLAZA,-97.4048,"12/24/2016 7:00am - 6:00pm,12/25/2016 Closed,12/31/2016 9:00am - 7:00pm,1/1/2017 9:00am - 7:00pm",MIDWEST CITY,OK,,7095 SE 29TH STREET,35.4378,73110
405-237-1585,MOORE,,,,US,FRITTS FARM,-97.5013,"12/24/2016 7:00am - 6:00pm,12/25/2016 Closed,12/31/2016 9:00am - 7:00pm,1/1/2017 9:00am - 7:00pm",MOORE,OK,,760 SW 19TH STREET,35.3177,73160
580-350-3079,LAWTON,,,,US,LAWTON TOWN CENTER,-98.3879636766904,"12/24/2016 7:00am - 6:00pm,12/25/2016 Closed,12/31/2016 9:00am - 7:00pm,1/1/2017 9:00am - 7:00pm",LAWTON,OK,,261 NW 2ND STREET,34.6121695424386,73501
918-447-1100,TULSA,,,,US,TULSA HILLS SHOPPING CENTER,-96.002,"12/24/2016 7:00am - 6:00pm,12/25/2016 Closed,12/31/2016 9:00am - 7:00pm,1/1/2017 9:00am - 7:00pm",TULSA HILLS,OK,,7523 S. OLYMPIA AVENUE,36.0538,74132
918-249-4444,TULSA,,,,US,SOLLCO UNION PLAZA,-95.8652,"12/24/2016 7:00am - 6:00pm,12/25/2016 Closed,12/31/2016 9:00am - 7:00pm,1/1/2017 9:00am - 7:00pm",WOODLAND HILLS,OK,,10021 E 71ST STREET,36.0614,74133
918-355-3310,BROKEN ARROW,,,,US,SHOPS AT BROKEN ARROW,-95.7729,"12/24/2016 7:00am - 6:00pm,12/25/2016 Closed,12/31/2016 9:00am - 7:00pm,1/1/2017 9:00am - 7:00pm",BROKEN ARROW,OK,,1620 E. HILLSIDE DRIVE,36.0675,74012
918-913-3855,MUSKOGEE,,,,US,THREE RIVERS PLAZA,-95.37212,"12/24/2016 7:00am - 6:00pm,12/25/2016 Closed,12/31/2016 9:00am - 7:00pm,1/1/2017 9:00am - 7:00pm",MUSKOGEE,OK,,701 WEST SHAWNEE AVENUE (HWY 62),35.76826,74401
316-942-0910,WICHITA,,,,US,TOWNE WEST CENTER,-97.4014,"12/24/2016 7:00am - 6:00pm,12/25/2016 Closed,12/31/2016 9:00am - 7:00pm,1/1/2017 9:00am - 7:00pm",WICHITA,KS,,4600 W. KELLOGG DRIVE,37.678,67209
814-861-1350,STATE COLLEGE,,,,US,THE COLONNADE AT STATE COLLEGE,-77.9073,"12/24/2016 7:00am - 6:00pm,12/25/2016 Closed,12/31/2016 9:00am - 7:00pm,1/1/2017 9:00am - 7:00pm",STATE COLLEGE,PA,,325 LOWES BLVD,40.8125,16803
814-941-2273,ALTOONA,,,,US,LOGAN TOWN CENTER,-78.3841,"12/24/2016 7:00am - 6:00pm,12/25/2016 Closed,12/31/2016 9:00am - 7:00pm,1/1/2017 9:00am - 7:00pm",ALTOONA,PA,,149 FALON LANE,40.487,16602
570-743-1780,SELINSGROVE,,,,US,MONROE COMMONS,-76.8368,"12/24/2016 7:00am - 6:00pm,12/25/2016 Closed,12/31/2016 9:00am - 7:00pm,1/1/2017 9:00am - 7:00pm",SELINSGROVE,PA,,486 MARTKETPLACE,40.8434,17870
570-546-2625,WILLIAMSPORT,,,,US,LYCOMING MALL,-76.8259,"12/24/2016 7:00am - 6:00pm,12/25/2016 Closed,12/31/2016 9:00am - 7:00pm,1/1/2017 9:00am - 7:00pm",WILLIAMSPORT,PA,,300 LYCOMING MALL CIRCLE,41.239,17756
717-766-8377,MECHANICSBURG,,,,US,HAMPDEN COMMONS,-76.9906,"12/24/2016 7:00am - 6:00pm,12/25/2016 Closed,12/31/2016 9:00am - 7:00pm,1/1/2017 9:00am - 7:00pm",MECHANICSBURG,PA,,5950 CARLISLE PIKE/US RT 11,40.2404,17050
717-652-3174,HARRISBURG,,,,US,COLONIAL COMMONS,-76.8058,"12/24/2016 7:00am - 6:00pm,12/25/2016 Closed,12/31/2016 9:00am - 7:00pm,1/1/2017 9:00am - 7:00pm",HARRISBURG,PA,,5086 JONESTOWN RD,40.3122,17112
717-446-8115,CHAMBERSBURG,,,,US,FRANKLIN CENTER,-77.631052,"12/24/2016 7:00am - 6:00pm,12/25/2016 Closed,12/31/2016 9:00am - 7:00pm,1/1/2017 9:00am - 7:00pm",CHAMBERSBURG,PA,,1320 LINCOLN WAY E - UNIT 1,39.925644,17202
717-848-1696,YORK,,,,US,MARKET SQUARE,-76.7625,"12/24/2016 7:00am - 6:00pm,12/25/2016 Closed,12/31/2016 9:00am - 7:00pm,1/1/2017 9:00am - 7:00pm",YORK,PA,,RT. 30 & KENNETH ROAD,39.9746,17404
240-420-0140,HAGERSTOWN,,,,US,HAGERSTOWN,-77.7524,"12/24/2016 7:00am - 6:00pm,12/25/2016 Closed,12/31/2016 9:00am - 7:00pm,1/1/2017 9:00am - 7:00pm",HAGERSTOWN,MD,,17780 GARLAND GROH BLVD,39.6563,21740
717-632-9362,HANOVER,,,,US,NORTH HANOVER MALL,-76.9954,"12/24/2016 7:00am - 6:00pm,12/25/2016 Closed,12/31/2016 9:00am - 7:00pm,1/1/2017 9:00am - 7:00pm",HANOVER,PA,,1155 CARLISLE STREET,39.8221,17331
401-823-8079,WARWICK,,,,US,WARWICK CENTRE,-71.4931,"12/24/2016 7:00am - 6:00pm,12/25/2016 Closed,12/31/2016 9:00am - 7:00pm,1/1/2017 9:00am - 7:00pm",WARWICK,RI,,1350 EAST BALD HILL ROAD,41.7013,02886
508-336-3004,SEEKONK,,,,US,SEEKONK,-71.3327,"12/24/2016 7:00am - 6:00pm,12/25/2016 Closed,12/31/2016 9:00am - 7:00pm,1/1/2017 9:00am - 7:00pm",SEEKONK,MA,,275 HIGHLAND AVE,41.7972,02771
401-232-0051,SMITHFIELD,,,,US,THE CROSSING AT SMITHFIELD,-71.5168,"12/24/2016 7:00am - 6:00pm,12/25/2016 Closed,12/31/2016 9:00am - 7:00pm,1/1/2017 9:00am - 7:00pm",SMITHFIELD,RI,,"371 PUTNAM PIKE, SUITE 300",41.875,02917
508-999-1617,DARTMOUTH,,,,US,DARTMOUTH COMMONS,-71.0025,"12/24/2016 7:00am - 6:00pm,12/25/2016 Closed,12/31/2016 9:00am - 7:00pm,1/1/2017 9:00am - 7:00pm",NORTH DARTMOUTH,MA,,475 STATE ROAD,41.6387,02747
860-376-4141,LISBON,,,,US,LISBON LANDING,-71.9914,"12/24/2016 7:00am - 6:00pm,12/25/2016 Closed,12/31/2016 9:00am - 7:00pm,1/1/2017 9:00am - 7:00pm",LISBON,CT,,"170 RIVER ROAD, SUITE 2",41.5814,06351
508-699-8475,NORTH ATTLEBORO,,,,US,ATTLEBORO MARKETPLACE,-71.3453,"12/24/2016 7:00am - 6:00pm,12/25/2016 Closed,12/31/2016 9:00am - 7:00pm,1/1/2017 9:00am - 7:00pm",NORTH ATTLEBORO,MA,,1360 SOUTH WASHINGTON STREET,41.9381,02760
508-823-8132,TAUNTON,,,,US,SILVER CITY GALLERIA,-71.0529,"12/24/2016 7:00am - 6:00pm,12/25/2016 Closed,12/31/2016 9:00am - 7:00pm,1/1/2017 9:00am - 7:00pm",TAUNTON,MA,,2 GALLERIA MALL DRIVE,41.8631,02780
860-447-2886,WATERFORD,,,,US,WATERFORD COMMONS,-72.1522,"12/24/2016 7:00am - 6:00pm,12/25/2016 Closed,12/31/2016 9:00am - 7:00pm,1/1/2017 9:00am - 7:00pm",WATERFORD,CT,,"915 HARTFORD TURNPIKE, #A1",41.3829,06385
508-559-9290,BROCKTON,,,,US,WESTGATE MALL,-71.0556,"12/24/2016 7:00am - 6:00pm,12/25/2016 Closed,12/31/2016 9:00am - 7:00pm,1/1/2017 9:00am - 7:00pm",BROCKTON,MA,,435 WESTGATE DRIVE,42.0947,02301
508-746-6932,PLYMOUTH,,,,US,THE PLAZA AT COLONY PLACE,-70.7172,"12/24/2016 7:00am - 6:00pm,12/25/2016 Closed,12/31/2016 9:00am - 7:00pm,1/1/2017 9:00am - 7:00pm",PLYMOUTH,MA,,205 COLONY PLACE,41.9531,02360
803-699-8380,COLUMBIA,,,,US,TARGET CENTER,-80.88,"12/24/2016 7:00am - 6:00pm,12/25/2016 Closed,12/31/2016 9:00am - 7:00pm,1/1/2017 9:00am - 7:00pm",NE COLUMBIA,SC,,10204A TWO NOTCH ROAD,34.1184,29229
803-749-0756,COLUMBIA,,,,US,COLUMBIANA STATION SHOPPING CENTER,-81.1594,"12/24/2016 7:00am - 6:00pm,12/25/2016 Closed,12/31/2016 9:00am - 7:00pm,1/1/2017 9:00am - 7:00pm",COLUMBIA,SC,,1110 BOWER PARKWAY,34.068,29212
843-413-1321,FLORENCE,,,,US,MAGNOLIA MALL,-79.8322,"12/24/2016 7:00am - 6:00pm,12/25/2016 Closed,12/31/2016 9:00am - 7:00pm,1/1/2017 9:00am - 7:00pm",FLORENCE,SC,,"DAVID MCLEOD BLVD, SUITE 1500",34.192,29501
803-324-2393,ROCK HILL,,,,US,MANCHESTER VILLAGE,-80.977,"12/24/2016 7:00am - 6:00pm,12/25/2016 Closed,12/31/2016 9:00am - 7:00pm,1/1/2017 9:00am - 7:00pm",ROCK HILL,SC,,548 JOHN ROSS PARKWAY,34.9428,29730
843-873-4065,SUMMERVILLE,,,,US,AZALEA SQUARE,-80.1614,"12/24/2016 7:00am - 6:00pm,12/25/2016 Closed,12/31/2016 9:00am - 7:00pm,1/1/2017 9:00am - 7:00pm",SUMMERVILLE,SC,,355 AZALEA SQ. BLVD.,33.038,29483
706-733-1199,AUGUSTA,,,,US,AUGUSTA MALL,-82.0807,"12/24/2016 7:00am - 6:00pm,12/25/2016 Closed,12/31/2016 9:00am - 7:00pm,1/1/2017 9:00am - 7:00pm",AUGUSTA,GA,,3450 WRIGHTSBORO ROAD,33.4649,30909
704-540-4750,PINEVILLE,,,,US,PINEVILLE,-80.8803,"12/24/2016 7:00am - 6:00pm,12/25/2016 Closed,12/31/2016 9:00am - 7:00pm,1/1/2017 9:00am - 7:00pm",PINEVILLE,NC,,9600 PINEVILLE-MATTHEWS ROAD,35.088,28134
704-841-3959,MATTHEWS,,,,US,SYCAMORE COMMONS,-80.7004,"12/24/2016 7:00am - 6:00pm,12/25/2016 Closed,12/31/2016 9:00am - 7:00pm,1/1/2017 9:00am - 7:00pm",MATTHEWS,NC,,"10530 NE PARKWAY, SUITE J",35.1303,28105
704-972-9400,CHARLOTTE,,,,US,SOUTH PARK MALL,-80.8339,"12/24/2016 7:00am - 6:00pm,12/25/2016 Closed,12/31/2016 9:00am - 7:00pm,1/1/2017 9:00am - 7:00pm",SOUTH PARK,NC,,4325 BARCLAY DOWNS DRIVE,35.1532,28209
843-573-0891,CHARLESTON,,,,US,CITADEL MALL,-80.0307,"12/24/2016 7:00am - 6:00pm,12/25/2016 Closed,12/31/2016 9:00am - 7:00pm,1/1/2017 9:00am - 7:00pm",CHARLESTON,SC,,2070 SAM RITTENBURG BLVD.,32.8013,29407
701-989-7908,BISMARCK,,,,US,HAY CREEK SHOPS,-100.767523,"12/24/2016 7:00am - 6:00pm,12/25/2016 Closed,12/31/2016 9:00am - 7:00pm,1/1/2017 12:00pm - 7:00pm",BISMARCK,ND,,1451 EAST LASALLE DRIVE,46.860148,58503
605-362-6550,SIOUX FALLS,,,,US,EMPIRE MALL,-96.774622,"12/24/2016 7:00am - 6:00pm,12/25/2016 Closed,12/31/2016 9:00am - 7:00pm,1/1/2017 9:00am - 7:00pm",SIOUX FALLS,SD,,1080 W EMPIRE MALL,43.51076,57106
308-392-3226,GRAND ISLAND,,,,US,NORTHWEST COMMONS,-98.381574,"12/24/2016 7:00am - 6:00pm,12/25/2016 Closed,12/31/2016 9:00am - 7:00pm,1/1/2017 9:00am - 7:00pm",GRAND ISLAND,NE,,"2250 N WEBB ROAD, SUITE 200",40.943745,68803
402-330-1184,OMAHA,,,,US,OAKVIEW PLAZA SOUTH,-96.1297,"12/24/2016 7:00am - 6:00pm,12/25/2016 Closed,12/31/2016 9:00am - 7:00pm,1/1/2017 9:00am - 7:00pm",OMAHA,NE,,3125 OAKVIEW DRIVE,41.2279,68144
320-227-6366,WAITE PARK,,,,US,MARKETPLACE SHOPPING CENTER,-94.214595,"12/24/2016 7:00am - 6:00pm,12/25/2016 Closed,12/31/2016 9:00am - 7:00pm,1/1/2017 9:00am - 7:00pm",WAITE PARK,MN,,40 2ND STREET S,45.548382,56387
402-951-4400,OMAHA,,,,US,WESTROADS MALL,-96.0678,"12/24/2016 7:00am - 6:00pm,12/25/2016 Closed,12/31/2016 9:00am - 7:00pm,1/1/2017 9:00am - 7:00pm",OMAHA,NE,,9901 NICHOLAS STREET,41.2675,68114
402-592-1642,PAPILLION,,,,US,SHADOW LAKE TOWNE CENTER,-96.0267,"12/24/2016 7:00am - 6:00pm,12/25/2016 Closed,12/31/2016 9:00am - 7:00pm,1/1/2017 9:00am - 7:00pm",PAPILLION,NE,,7403 TOWN CENTER PARKWAY,41.1331,68046
712-435-3142,COUNCIL BLUFFS,,,,US,METRO CROSSING,-95.8384,"12/24/2016 7:00am - 6:00pm,12/25/2016 Closed,12/31/2016 9:00am - 7:00pm,1/1/2017 9:00am - 7:00pm",COUNCIL BLUFFS,IA,,3816 METRO DRIVE,41.2193,51501
307-265-4266,CASPER,,,,US,EASTRIDGE MALL,-106.264273,"12/24/2016 7:00am - 6:00pm,12/25/2016 Closed,12/31/2016 9:00am - 7:00pm,1/1/2017 9:00am - 7:00pm",CASPER,WY,,601 SE WYOMING BLVD,42.845408,82609
952-525-0200,MINNETONKA,,,,US,WEST RIDGE MARKET,-93.4239,"12/24/2016 7:00am - 6:00pm,12/25/2016 Closed,12/31/2016 9:00am - 7:00pm,1/1/2017 9:00am - 7:00pm",MINNETONKA,MN,,11260 WAYZATA BLVD,44.9736,55305
615-896-8882,MURFREESBORO,,,,US,THE AVENUE MURFREESBORO,-86.448,"12/24/2016 7:00am - 6:00pm,12/25/2016 Closed,12/31/2016 9:00am - 7:00pm,1/1/2017 9:00am - 7:00pm",MURFREESBORO,TN,,2615 MEDICAL CENTER PARKWAY,35.8603,37129
615-773-6160,MT. JULIET,,,,US,PROVIDENCE MARKET PLACE,-86.5076,"12/24/2016 7:00am - 6:00pm,12/25/2016 Closed,12/31/2016 9:00am - 7:00pm,1/1/2017 9:00am - 7:00pm",MT. JULIET,TN,,"401 SOUTH MT. JULIET ROAD, SUITE 605",36.1679,37122
615-778-0595,FRANKLIN,,,,US,COOL SPRINGS MARKET,-86.8155,"12/24/2016 7:00am - 6:00pm,12/25/2016 Closed,12/31/2016 9:00am - 7:00pm,1/1/2017 9:00am - 7:00pm",COOL SPRINGS,TN,,"2000 MALORY LANE, SUITE 270",35.9493,37067
615-354-0102,NASHVILLE,,,,US,NASHVILLE WEST,-86.8912,"12/24/2016 7:00am - 6:00pm,12/25/2016 Closed,12/31/2016 9:00am - 7:00pm,1/1/2017 9:00am - 7:00pm",NASHVILLE,TN,,6812 CHARLOTTE PIKE,36.1355,37209
615-855-1443,MADISON,,,,US,NORTHSIDE MARKETPLACE,-86.6822,"12/24/2016 7:00am - 6:00pm,12/25/2016 Closed,12/31/2016 9:00am - 7:00pm,1/1/2017 9:00am - 7:00pm",RIVERGATE,TN,,2305 GALLATIN PIKE,36.3066,37115
931-645-2255,CLARKSVILLE,,,,US,GOVERNOR'S SQUARE,-87.2877,"12/24/2016 7:00am - 6:00pm,12/25/2016 Closed,12/31/2016 9:00am - 7:00pm,1/1/2017 9:00am - 7:00pm",CLARKSVILLE,TN,,"2801 WILMA RUDOLPH BLVD, UNIT 195",36.589,37040
270-796-9115,BOWLING GREEN,,,,US,GARY FARMS,-86.430416,"12/24/2016 7:00am - 6:00pm,12/25/2016 Closed,12/31/2016 9:00am - 7:00pm,1/1/2017 9:00am - 7:00pm",BOWLING GREEN,KY,,2300 GARY FARMS BLVD,36.956328,42104
(256) 801-3766,HUNTSVILLE,,,,US,BRIDGE STREET TOWN CENTRE,-86.676833,"12/24/2016 7:00am - 6:00pm,12/25/2016 Closed,12/31/2016 9:00am - 7:00pm,1/1/2017 9:00am - 7:00pm",HUNTSVILLE,AL,,6890-A GOVERNOR'S DRIVE WEST,34.714167,35806
256-881-3212,HUNTSVILLE,,,,US,WESTSIDE PAVILLION,-86.5482,"12/24/2016 7:00am - 6:00pm,12/25/2016 Closed,12/31/2016 9:00am - 7:00pm,1/1/2017 9:00am - 7:00pm",EAST HUNTSVILLE,AL,,2718 CARL T. JONES DRIVE,34.6764,35802
423-892-3122,CHATTANOOGA,,,,US,HAMILTON VILLAGE,-85.1505,"12/24/2016 7:00am - 6:00pm,12/25/2016 Closed,12/31/2016 9:00am - 7:00pm,1/1/2017 9:00am - 7:00pm",CHATTANOOGA,TN,,"2020 GUNBARREL ROAD, SUTIE 182",35.0317,37421
254-690-4220,HARKER HEIGHTS,,,,US,MARKET HEIGHTS,-97.6686,"12/24/2016 7:00am - 6:00pm,12/25/2016 Closed,12/31/2016 9:00am - 7:00pm,1/1/2017 9:00am - 7:00pm",HARKER HEIGHTS,TX,,201 EAST CENTRAL TEXAS EXPRESSWAY,31.0735,76548
512-528-0091,CEDAR PARK,,,,US,THE PARKE,-97.8199,,CEDAR PARK,TX,,"5001 183A TOLL ROAD, SUITE A",30.530978,78613
512-263-2953,BEE CAVE,,,,US,HILL COUNTRY GALLERIA,-97.9366,"12/24/2016 7:00am - 6:00pm,12/25/2016 Closed,12/31/2016 9:00am - 7:00pm,1/1/2017 9:00am - 7:00pm",BEE CAVE,TX,,3921 MARKET STREET,30.3076,78738
512-339-3299,AUSTIN,,,,US,DOMAIN CROSSING,-97.7266,"12/24/2016 7:00am - 6:00pm,12/25/2016 Closed,12/31/2016 9:00am - 7:00pm,1/1/2017 9:00am - 7:00pm",AUSTIN,TX,,3210 KRAMER LANE,30.3978,78758
512-252-2800,PFLUGERVILLE,,,,US,STONE HILL TOWN CENTER,-97.5971,"12/24/2016 7:00am - 6:00pm,12/25/2016 Closed,12/31/2016 9:00am - 7:00pm,1/1/2017 9:00am - 7:00pm",PFLUGERVILLE,TX,,19000 LIMESTONE COMMERCIAL DRIVE,30.4711,78660
210-558-3444,SAN ANTONIO,,,,US,THE RIM CENTER,-98.6015,"12/24/2016 7:00am - 6:00pm,12/25/2016 Closed,12/31/2016 9:00am - 7:00pm,1/1/2017 9:00am - 7:00pm",LA CANTERA,TX,,18103 RIM DRIVE,29.6139,78257
210-680-2288,SAN ANTONIO,,,,US,ALAMO RANCH MARKET,-98.7094,"12/24/2016 7:00am - 6:00pm,12/25/2016 Closed,12/31/2016 9:00am - 7:00pm,1/1/2017 9:00am - 7:00pm",SAN ANTONIO,TX,,"5503 WEST LOOP, 1604 NORTH",29.4897,78253
830-629-3100,NEW BRAUNFELS,,,,US,TOWNE CENTER AT CREEKSIDE,-98.0752,"12/24/2016 7:00am - 6:00pm,12/25/2016 Closed,12/31/2016 9:00am - 7:00pm,1/1/2017 9:00am - 7:00pm",NEW BRAUNFELS,TX,,303 CREEKSIDE WAY,29.7268,78130
210-202-2206,SOUTH SAN ANTONIO,,,,US,SOUTH PARK MALL,-98.5286625304963,"12/24/2016 7:00am - 6:00pm,12/25/2016 Closed,12/31/2016 9:00am - 7:00pm,1/1/2017 9:00am - 7:00pm",SOUTH SAN ANTONIO,TX,,"2310 S.W. MILITARY DRIVE, SUITE #2002",29.3552114969809,78224
817-987-4800,ARLINGTON,,,,US,PARKS AT ARLINGTON,-97.1288,"12/24/2016 7:00am - 6:00pm,12/25/2016 Closed,12/31/2016 9:00am - 7:00pm,1/1/2017 9:00am - 7:00pm",ARLINGTON,TX,,3891 SOUTH COOPER STREET,32.6784,76015
802-288-9854,WILLISTON,,,,US,MAPLE TREE PLACE,-73.1113,"12/24/2016 7:00am - 6:00pm,12/25/2016 Closed,12/31/2016 9:00am - 7:00pm,1/1/2017 9:00am - 7:00pm",WILLISTON,VT,,1355 MAPLE TREE PLACE,44.4429,05495
802-773-2710,RUTLAND,,,,US,GREEN MOUNTAIN PLAZA,-72.9706,"12/24/2016 7:00am - 6:00pm,12/25/2016 Closed,12/31/2016 9:00am - 7:00pm,1/1/2017 9:00am - 7:00pm",RUTLAND,VT,,320 US ROUTE 7 SOUTH,43.5852,05701
518-562-1121,PLATTSBURGH,,,,US,CHAMPLAIN CENTRE NORTH,-73.4906,"12/24/2016 7:00am - 6:00pm,12/25/2016 Closed,12/31/2016 9:00am - 7:00pm,1/1/2017 9:00am - 7:00pm",PLATTSBURGH,NY,,60 SMITHFIELD BLVD,44.7031,12901
518-743-8790,QUEENSBURY,,,,US,AVIATION MALL,-73.6789,"12/24/2016 7:00am - 6:00pm,12/25/2016 Closed,12/31/2016 9:00am - 7:00pm,1/1/2017 9:00am - 7:00pm",GLENS FALLS,NY,,"578 AVIATION ROAD, SPACE D-103",43.3263,12804
603-357-0861,KEENE,,,,US,MONADNOCK MARKETPLACE,-72.3028,"12/24/2016 7:00am - 6:00pm,12/25/2016 Closed,12/31/2016 9:00am - 7:00pm,1/1/2017 9:00am - 7:00pm",KEENE,NH,,42 ASH BROOK ROAD,42.9282,03431
603-224-1564,CONCORD,,,,US,PATRIOT PLACE,-71.4866,"12/24/2016 7:00am - 6:00pm,12/25/2016 Closed,12/31/2016 9:00am - 7:00pm,1/1/2017 9:00am - 7:00pm",CONCORD,NH,,295 LOUDON ROAD,43.227,03301
518-583-7218,SARATOGA SPRINGS,,,,US,WILTON MALL AT SARATOGA,-73.7374,"12/24/2016 7:00am - 6:00pm,12/25/2016 Closed,12/31/2016 9:00am - 7:00pm,1/1/2017 9:00am - 7:00pm",SARATOGA,NY,,3065 RT. 50,43.1036,12866
518-213-3478,LATHAM,,,,US,LATHAM FARMS,-73.763981,"12/24/2016 7:00am - 6:00pm,12/25/2016 Closed,12/31/2016 9:00am - 7:00pm,1/1/2017 9:00am - 7:00pm",LATHAM,NY,,"579 TROY SCHENECTADY ROAD #101, SUITE A",42.752953,12110
518-218-7410,ALBANY,,,,US,CROSSGATES MALL,-73.8535,"12/24/2016 7:00am - 6:00pm,12/25/2016 Closed,12/31/2016 9:00am - 7:00pm,1/1/2017 9:00am - 7:00pm",ALBANY,NY,,1 CROSSGATES MALL ROAD,42.69,12203
603-888-3579,NASHUA,,,,US,PHEASANT LANE MALL,-71.4385,"12/24/2016 7:00am - 6:00pm,12/25/2016 Closed,12/31/2016 9:00am - 7:00pm,1/1/2017 9:00am - 7:00pm",NASHUA,NH,,310 DANIEL WEBSTER HIGHWAY,42.7019,03060
801-225-7073,OREM,,,,US,FAMILY CENTER AT OREM,-111.692,"12/24/2016 7:00am - 6:00pm,12/25/2016 Closed,12/31/2016 9:00am - 7:00pm,1/1/2017 9:00am - 7:00pm",OREM,UT,,130 E UNIVERSITY PARKWAY,40.2716,84058
801-692-6137,AMERICAN FORK,,,,US,THE MEADOWS SHOPPING DISTRICT,-111.821674,"12/24/2016 7:00am - 6:00pm,12/25/2016 Closed,12/31/2016 9:00am - 7:00pm,1/1/2017 9:00am - 7:00pm",AMERICAN FORK,UT,,841 W PACIFIC DRIVE,40.379594,84003
801-566-2920,MIDVALE,,,,US,FAMILY CENTER AT FORT UNION,-111.862,"12/24/2016 7:00am - 6:00pm,12/25/2016 Closed,12/31/2016 9:00am - 7:00pm,1/1/2017 9:00am - 7:00pm",MIDVALE,UT,,7170 S 1000 E,40.621,84047
801-444-6656,LAYTON,,,,US,LAYTON HILLS MALL,-111.978,"12/24/2016 7:00am - 6:00pm,12/25/2016 Closed,12/31/2016 9:00am - 7:00pm,1/1/2017 9:00am - 7:00pm",LAYTON,UT,,1201 N HILL FIELD ROAD #1024,41.0776,84041
435-673-4261,ST. GEORGE,,,,US,RED ROCKS COMMONS,-113.553,"12/24/2016 7:00am - 6:00pm,12/25/2016 Closed,12/31/2016 9:00am - 7:00pm,1/1/2017 9:00am - 7:00pm",ST. GEORGE,UT,,"15 SOUTH RIVER RD, SUITE 240",37.1074,84790
208-238-6002,POCATELLO,,,,US,POCATELLO SQUARE,-112.459,"12/24/2016 7:00am - 6:00pm,12/25/2016 Closed,12/31/2016 9:00am - 7:00pm,1/1/2017 9:00am - 7:00pm",POCATELLO,ID,,1844 HURLEY DRIVE,42.9083,83202
505-793-8034,FARMINGTON,,,,US,FARMINGTON PAVILION,-108.149,"12/24/2016 7:00am - 6:00pm,12/25/2016 Closed,12/31/2016 9:00am - 7:00pm,1/1/2017 9:00am - 7:00pm",FARMINGTON,NM,,5050 MAIN STREET,36.7667,87402
208-944-3105,TWIN FALLS,,,,US,CANYON PARK WEST,-114.458756,"12/24/2016 7:00am - 6:00pm,12/25/2016 Closed,12/31/2016 9:00am - 7:00pm,1/1/2017 9:00am - 7:00pm",TWIN FALLS,ID,,1939 FILLMORE STREET,42.597078,83301
702-855-5000,HENDERSON,,,,US,GALLERIA AT SUNSET,-115.041,"12/24/2016 7:00am - 6:00pm,12/25/2016 Closed,12/31/2016 9:00am - 7:00pm,1/1/2017 9:00am - 7:00pm",HENDERSON,NV,,1308 WEST SUNSET ROAD,36.0679,89014
702-479-1266,LAS VEGAS,,,,US,FASHION SHOW MALL,-115.17,"12/24/2016 7:00am - 6:00pm,12/25/2016 Closed,12/31/2016 9:00am - 7:00pm,1/1/2017 9:00am - 7:00pm",LAS VEGAS,NV,,"3200 LAS VEGAS BLVD, SUITE D700",36.127,89109
434-832-5666,LYNCHBURG,,,,US,WARD'S CROSSING,-79.191,"12/24/2016 7:00am - 6:00pm,12/25/2016 Closed,12/31/2016 9:00am - 7:00pm,1/1/2017 9:00am - 7:00pm",LYNCHBURG,VA,,4026-C WARDS ROAD,37.3473,24502
434-270-7117,CHARLOTTESVILLE,,,,US,5TH STREET STATION,-78.5,"12/24/2016 7:00am - 6:00pm,12/25/2016 Closed,12/31/2016 9:00am - 7:00pm,1/1/2017 9:00am - 7:00pm",CHARLOTTESVILLE,VA,,"120 WEGMANS WAY, BUILDING 200, SUITE A",38.009,22902
434-974-5640,CHARLOTTESVILLE,,,,US,RIO HILL SHOPPING CENTER,-78.4748,"12/24/2016 7:00am - 6:00pm,12/25/2016 Closed,12/31/2016 9:00am - 7:00pm,1/1/2017 9:00am - 7:00pm",CHARLOTTESVILLE,VA,,1940 RIO HILL CENTER,38.0883,22901
804-639-1107,WEST CHESTERFIELD,,,,US,HANCOCK VILLAGE,-77.6761,"12/24/2016 7:00am - 6:00pm,12/25/2016 Closed,12/31/2016 9:00am - 7:00pm,1/1/2017 9:00am - 7:00pm",WEST CHESTERFIELD,VA,,14629 HANCOCK VILLAGE STREET,37.4009,23832
804-897-5299,NORTH CHESTERFIELD,,,,US,CHESTERFIELD PLAZA,-77.6109,"12/24/2016 7:00am - 6:00pm,12/25/2016 Closed,12/31/2016 9:00am - 7:00pm,1/1/2017 9:00am - 7:00pm",MIDLOTHIAN,VA,,1520 W. KOGER CENTER BLVD,37.515,23235
804-360-8165,RICHMOND,,,,US,SHORT PUMP TOWN CENTER,-77.6189,"12/24/2016 7:00am - 6:00pm,12/25/2016 Closed,12/31/2016 9:00am - 7:00pm,1/1/2017 9:00am - 7:00pm",SHORT PUMP,VA,,"11800 W BROAD STREET, SUITE 1096",37.6573,23233
804-253-0800,RICHMOND,,,,US,STONY POINT FASHION PARK,-77.5726,"12/24/2016 7:00am - 6:00pm,12/25/2016 Closed,12/31/2016 9:00am - 7:00pm,1/1/2017 9:00am - 7:00pm",RICHMOND,VA,,9204 STONY POINT PKWY,37.5484,23235
540-433-1268,HARRISONBURG,,,,US,VALLEY MALL,-78.845,"12/24/2016 7:00am - 6:00pm,12/25/2016 Closed,12/31/2016 9:00am - 7:00pm,1/1/2017 9:00am - 7:00pm",HARRISONBURG,VA,,1925 EAST MARKET STREET,38.4284,22801
804-261-1853,GLEN ALLEN,,,,US,THE CREEKS,-77.4647,"12/24/2016 7:00am - 6:00pm,12/25/2016 Closed,12/31/2016 9:00am - 7:00pm,1/1/2017 9:00am - 7:00pm",GLEN ALLEN,VA,,9940 BROOK ROAD,37.6704,23059
540-265-0861,ROANOKE,,,,US,VALLEY VIEW MALL,-79.9619,"12/24/2016 7:00am - 6:00pm,12/25/2016 Closed,12/31/2016 9:00am - 7:00pm,1/1/2017 9:00am - 7:00pm",ROANOKE,VA,,1910 VALLEY VIEW BLVD NW,37.3071,24012
509-654-9111,UNION GAP,,,,US,RAINIER PLAZA,-120.474,"12/24/2016 7:00am - 6:00pm,12/25/2016 Closed,12/31/2016 9:00am - 7:00pm,1/1/2017 9:00am - 7:00pm",UNION GAP,WA,,2500 RUDKIN ROAD,46.5658,98903
425-427-9284,ISSAQUAH,,,,US,GRANDRIDGE PLAZA,-122.016679,"12/24/2016 7:00am - 6:00pm,12/25/2016 Closed,12/31/2016 9:00am - 7:00pm,1/1/2017 9:00am - 7:00pm",ISSAQUAH,WA,,1422 10TH AVE NE,47.541128,98029
425-255-3070,RENTON,,,,US,THE LANDING IN RENTON,-122.203,"12/24/2016 7:00am - 6:00pm,12/25/2016 Closed,12/31/2016 9:00am - 7:00pm,1/1/2017 9:00am - 7:00pm",RENTON,WA,,915 NORTH LANDING WAY,47.4961,98057
206-400-2811,FEDERAL WAY,,,,US,THE COMMONS,-122.3103241,"12/24/2016 7:00am - 6:00pm,12/25/2016 Closed,12/31/2016 9:00am - 7:00pm,1/1/2017 9:00am - 7:00pm",FEDERAL WAY,WA,,1819 S. COMMONS,47.31327,98003
253-845-5188,PUYALLUP,,,,US,SOUTH HILLS,-122.296,"12/24/2016 7:00am - 6:00pm,12/25/2016 Closed,12/31/2016 9:00am - 7:00pm,1/1/2017 9:00am - 7:00pm",PUYALLUP,WA,,"3500 S. MERIDIAN STREET, #600",47.1581,98373
206-962-5894,SEATTLE,,,,US,NORTHGATE NORTH,-122.324644,"12/24/2016 7:00am - 6:00pm,12/25/2016 Closed,12/31/2016 9:00am - 7:00pm,1/1/2017 9:00am - 7:00pm",NORTHGATE,WA,,328 NE NORTHGATE WAY,47.709275,98125
360-287-5822,MARYSVILLE,,,,US,SMOKEY POINT TOWN CENTER,-122.195,"12/24/2016 7:00am - 6:00pm,12/25/2016 Closed,12/31/2016 9:00am - 7:00pm,1/1/2017 9:00am - 7:00pm",MARYSVILLE,WA,,2609 172 ST NE,48.1542,98271
360-633-2287,SILVERDALE,,,,US,KITSAP MALL,-122.691,"12/24/2016 7:00am - 6:00pm,12/25/2016 Closed,12/31/2016 9:00am - 7:00pm,1/1/2017 9:00am - 7:00pm",SILVERDALE,WA,,"10315 SILVERDALE WAY NW, SUITE E20",47.657,98383
360-419-6072,BURLINGTON,,,,US,BURLINGTON,-122.3337075,"12/24/2016 7:00am - 6:00pm,12/25/2016 Closed,12/31/2016 9:00am - 7:00pm,1/1/2017 9:00am - 7:00pm",BURLINGTON,WA,,2000 S. BURLINGTON BLVD,48.44829,98233
360-999-5607,OLYMPIA,,,,US,CAPITAL MALL,-122.933,"12/24/2016 7:00am - 6:00pm,12/25/2016 Closed,12/31/2016 9:00am - 7:00pm,1/1/2017 9:00am - 7:00pm",OLYMPIA,WA,,625 BLACK LANE BLVD SW,47.041,98502
304-848-0482,BRIDGEPORT,,,,US,MEADOWBROOK MALL,-80.274,"12/24/2016 7:00am - 6:00pm,12/25/2016 Closed,12/31/2016 9:00am - 7:00pm,1/1/2017 9:00am - 7:00pm",CLARKSBURG,WV,,"2399 MEADOWBROOK MALL, UNIT #10",39.3154,26330
304-746-6256,SOUTH CHARLESTON,,,,US,THE SHOPPES OF TRACE FORK PLAZA,-81.7116,"12/24/2016 7:00am - 6:00pm,12/25/2016 Closed,12/31/2016 9:00am - 7:00pm,1/1/2017 9:00am - 7:00pm",SOUTH CHARLESTON,WV,,51 R H L BLVD,38.3357,25309
304-252-3425,MT. HOPE,,,,US,CROSSROADS MALL,-81.1969,"12/24/2016 7:00am - 6:00pm,12/25/2016 Closed,12/31/2016 9:00am - 7:00pm,1/1/2017 9:00am - 7:00pm",BECKLEY,WV,,"5475 ROBERT C. BYRD DRIVE, UNIT 6",37.8456,25880
304-598-0554,GRANVILLE,,,,US,UNIVERSITY TOWNE CENTRE,-80.0041,"12/24/2016 7:00am - 6:00pm,12/25/2016 Closed,12/31/2016 9:00am - 7:00pm,1/1/2017 9:00am - 7:00pm",MORGANTOWN,WV,,596 GIANT STREET,39.6487,26501
304-733-9720,HUNTINGTON,,,,US,HUNTINGTON MALL,-82.2679,"12/24/2016 7:00am - 6:00pm,12/25/2016 Closed,12/31/2016 9:00am - 7:00pm,1/1/2017 9:00am - 7:00pm",HUNTINGTON,WV,,"RT 60 MALL ROAD, UNIT 500",38.4228,25504
540-433-1268,HARRISONBURG,,,,US,VALLEY MALL,-78.845,"12/24/2016 7:00am - 6:00pm,12/25/2016 Closed,12/31/2016 9:00am - 7:00pm,1/1/2017 9:00am - 7:00pm",HARRISONBURG,VA,,1925 EAST MARKET STREET,38.4284,22801
540-265-0861,ROANOKE,,,,US,VALLEY VIEW MALL,-79.9619,"12/24/2016 7:00am - 6:00pm,12/25/2016 Closed,12/31/2016 9:00am - 7:00pm,1/1/2017 9:00am - 7:00pm",ROANOKE,VA,,1910 VALLEY VIEW BLVD NW,37.3071,24012
724-415-3460,UNIONTOWN,,,,US,FAYETTE CROSSING,-79.754974,"12/24/2016 7:00am - 6:00pm,12/25/2016 Closed,12/31/2016 9:00am - 7:00pm,1/1/2017 9:00am - 7:00pm",UNIONTOWN,PA,,320 WALMART DRIVE,39.91689,15401
540-381-0102,CHRISTIANSBURG,,,,US,RIVER VALLEY MALL,-80.4283,"12/24/2016 7:00am - 6:00pm,12/25/2016 Closed,12/31/2016 9:00am - 7:00pm,1/1/2017 9:00am - 7:00pm",CHRISTIANSBURG,VA,,100 NEW RIVER ROAD,37.1645,24073
724-229-7556,WASHINGTON,,,,US,STRABANE SQUARE,-80.2265,"12/24/2016 7:00am - 6:00pm,12/25/2016 Closed,12/31/2016 9:00am - 7:00pm,1/1/2017 9:00am - 7:00pm",WASHINGTON,PA,,347 WASHINGTON ROAD,40.1893,15301
715-241-7403,WAUSAU,,,,US,,-89.651529,"12/24/2016 7:00am - 6:00pm,12/25/2016 Closed,12/31/2016 9:00am - 7:00pm,1/1/2017 9:00am - 7:00pm",WAUSAU,WI,,4600 RIB MOUNTAIN DRIVE,44.91512,54401
920-954-9266,APPLETON,,,,US,APPLETON,-88.4718,"12/24/2016 7:00am - 6:00pm,12/25/2016 Closed,12/31/2016 9:00am - 7:00pm,1/1/2017 9:00am - 7:00pm",APPLETON,WI,,4350 GREENVILLE DRIVE,44.2751,54913
920-252-8271,OSHKOSH,,,,US,OSHKOSH,-88.5826,"12/24/2016 7:00am - 6:00pm,12/25/2016 Closed,12/31/2016 9:00am - 7:00pm,1/1/2017 9:00am - 7:00pm",OSHKOSH,WI,,1015 NORTH WASHBURN STREET,44.0326,54904
920-490-8488,GREEN BAY,,,,US,MAVERICK PHASE II,-88.0682,"12/24/2016 7:00am - 6:00pm,12/25/2016 Closed,12/31/2016 9:00am - 7:00pm,1/1/2017 9:00am - 7:00pm",GREEN BAY,WI,,811 PILGRIM WAY,44.4809,54304
608-406-3684,LA CROSSE,,,,US,VALLEY VIEW MALL,-91.1925,"12/24/2016 7:00am - 6:00pm,12/25/2016 Closed,12/31/2016 9:00am - 7:00pm,1/1/2017 9:00am - 7:00pm",LA CROSSE,WI,,4400 WI-16,43.872,54650
608-241-2764,MADISON,,,,US,EAST TOWNE MALL,-89.3034,"12/24/2016 7:00am - 6:00pm,12/25/2016 Closed,12/31/2016 9:00am - 7:00pm,1/1/2017 9:00am - 7:00pm",EAST MADISON,WI,,350 EAST TOWNE MALL,43.1258,53704
608-829-1313,MADISON,,,,US,WEST TOWNE MALL,-89.5076,"12/24/2016 7:00am - 6:00pm,12/25/2016 Closed,12/31/2016 9:00am - 7:00pm,1/1/2017 9:00am - 7:00pm",WEST MADISON,WI,,237 WEST TOWNE MALL,43.0563,53719
262-377-6349,GRAFTON,,,,US,GRAFTON COMMONS,-87.9245,"12/24/2016 7:00am - 6:00pm,12/25/2016 Closed,12/31/2016 9:00am - 7:00pm,1/1/2017 9:00am - 7:00pm",GRAFTON,WI,,1020 PORT WASHINGTON ROAD,43.3225,53024
414-203-1380,WAUWATOSA,,,,US,MAYFAIR COLLECTION,-88.056721,"12/24/2016 7:00am - 6:00pm,12/25/2016 Closed,12/31/2016 9:00am - 7:00pm,1/1/2017 9:00am - 7:00pm",WAUWATOSA,WI,,"11500 WEST BURLEIGH STREET, SUITE 140",43.07701,53222
414-455-5370,BROOKFIELD,,,,US,THE CORRIDOR,-88.132766,"12/24/2016 7:00am - 6:00pm,12/25/2016 Closed,12/31/2016 9:00am - 7:00pm,1/1/2017 9:00am - 7:00pm",BROOKFIELD,WI,,"345 DISCOVERY DRIVE, BUILDING E",43.034851,53045
307-265-4266,CASPER,,,,US,EASTRIDGE MALL,-106.264273,"12/24/2016 7:00am - 6:00pm,12/25/2016 Closed,12/31/2016 9:00am - 7:00pm,1/1/2017 9:00am - 7:00pm",CASPER,WY,,601 SE WYOMING BLVD,42.845408,82609
970-461-9762,LOVELAND,,,,US,PROMENADE SHOPS AT CENTERRA,-104.991,"12/24/2016 7:00am - 6:00pm,12/25/2016 Closed,12/31/2016 9:00am - 7:00pm,1/1/2017 9:00am - 7:00pm",LOVELAND,CO,,5875 SKY POND DRIVE,40.4157,80537
303-682-5740,LONGMONT,,,,US,HARVEST JUNCTION,-105.097,"12/24/2016 7:00am - 6:00pm,12/25/2016 Closed,12/31/2016 9:00am - 7:00pm,1/1/2017 9:00am - 7:00pm",LONGMONT,CO,,210 KEN PRATT BLVD,40.1538,80501
720-887-0900,BROOMFIELD,,,,US,FLATIRON CROSSING,-105.133,"12/24/2016 7:00am - 6:00pm,12/25/2016 Closed,12/31/2016 9:00am - 7:00pm,1/1/2017 9:00am - 7:00pm",BROOMFIELD,CO,,31 WEST FLATIRON CROSSING DRIVE,39.9339,80021
303-280-6153,THORNTON,,,,US,LARKRIDGE SHOPPING CENTER,-104.982,"12/24/2016 7:00am - 6:00pm,12/25/2016 Closed,12/31/2016 9:00am - 7:00pm,1/1/2017 9:00am - 7:00pm",LARKRIDGE,CO,,16521 WASHINGTON STREET,39.9959,80023
208-238-6002,POCATELLO,,,,US,POCATELLO SQUARE,-112.459,"12/24/2016 7:00am - 6:00pm,12/25/2016 Closed,12/31/2016 9:00am - 7:00pm,1/1/2017 9:00am - 7:00pm",POCATELLO,ID,,1844 HURLEY DRIVE,42.9083,83202
720-685-1701,BRIGHTON,,,,US,PRAIRIE CENTER,-104.782,"12/24/2016 7:00am - 6:00pm,12/25/2016 Closed,12/31/2016 9:00am - 7:00pm,1/1/2017 9:00am - 7:00pm",BRIGHTON,CO,,2269 PRAIRIE CENTER PARKWAY,39.9552,80601
,LAKEWOOD,,,,US,COLORADO MILLS MALL,-105.161213,,DENVER WEST (LAKEWOOD),CO,,14500 W COLFAX AVENUE,39.730224,80401
303-600-2600,LAKEWOOD,,,,US,BELMAR CENTER,-105.078,"12/24/2016 7:00am - 6:00pm,12/25/2016 Closed,12/31/2016 9:00am - 7:00pm,1/1/2017 9:00am - 7:00pm",LAKEWOOD,CO,,7313 WEST ALASKA DRIVE,39.7097,80226
801-444-6656,LAYTON,,,,US,LAYTON HILLS MALL,-111.978,"12/24/2016 7:00am - 6:00pm,12/25/2016 Closed,12/31/2016 9:00am - 7:00pm,1/1/2017 9:00am - 7:00pm",LAYTON,UT,,1201 N HILL FIELD ROAD #1024,41.0776,84041
