store_name,store_number,address,address2,city,state,zip_code,country,phone_number,latitude,longitude,store_hours,store_type,other_fields,coming_soon
Cartridge World - Conroe,,2200B I 45 ,,North Conroe ,TX,77301,United States,(936) 539-1080,30.335186,-95.476578,Mon - Fri: 9:00 am - 6 pm,,,0
Cartridge World - New Brunswick ,,863 Somerset St ,,Somerset ,NJ,08873,United States,(732) 246-7575,40.481923,-74.482639,"Mon - Fri: 10 am - 6 pm, Sat: 11 am - 3 pm",,,0
Cartridge World - Chandler,,3029 North Alma School Rd. ,,Chandler ,AZ,85224,United States,(480) 756-8615,33.351156,-111.85743,"Mon - Fri: 9 am - 6 pm, Sat: 10 am - 2 pm",,,0
Cartridge World - Somerset,,120 Cedar Grove Lane ,,Somerset ,NJ,08873,United States,(732) 384-4411,40.522554,-74.520168,"Mon - Fri: 9.30 am - 6.30 pm, Sat: 10.30 am - 3:30 pm",,,0
Cartridge World - Mesa,,1155 South Power Road ,,Mesa ,AZ,85206,United States,(480) 854-3080,33.394607,-111.683508,"Mon - Fri: 9 am - 6 pm, Sat: 10 am - 3 pm",,,0
Cartridge World - Phoenix,,749 E Bell Rd ,,Phoenix ,AZ,85022,United States,(602) 298-5100,33.639068,-112.063236,"Mon - Fri: 9 am - 6 pm, Sat: 10 am - 3 pm",,,0
Cartridge World - Tucson,,7292 N Oracle Road ,,Tucson ,AZ,85704,United States,(520) 544-4646,32.339137,-110.9765,"Mon - Fri: 8 am - 6 pm, Sat: 10 am - 4 pm",,,0
Cartridge World - Rancho Cordova,,11170 Sun Center Drive 200 ,,Rancho Cordova ,CA,95670,United States,(916) 859-0961,38.596462,-121.268255,"Mon - Fri: 9:00 am - 5:00 pm, Sat-Sun: Closed",,,0
Cartridge World - Scottsdale,,14884 N Pima Rd ,,Scottsdale ,AZ,85260,United States,(480) 443-4465,33.61961,-111.892211,"Mon - Thu: 9 am - 6 pm, Fri: 9 am - 5pm, Sat : 10 am - 4 pm",,,0
Cartridge World - Edmond,,1704 South Broadway ,,Edmond ,OK,73013,United States,(405) 359-8765,35.636387,-97.482827,Mon - Fri: 9 am - 6 pm,,,0
Cartridge World - Raleigh,,6325 Falls of Neuse Rd ,,Raleigh ,NC,27615,United States,(919) 872-8072,35.868723,-78.620986,"Mon - Thu: 10 am - 6 pm, Fri: 10 am - 5 pm, Sat: 10 am - 2 pm",,,0
Cartridge World - Lima,,2100 Harding Highway ,,Lima ,OH,45804,United States,(419) 999-9276,40.728934,-84.067061,"Mon - Fri: 9 am - 6 pm, Sat: 10-2",,,0
Cartridge World - Durham Near Southpoint,,105 West NC Highway 54 Suite 281 ,,Durham ,NC,27713,United States,(919) 806-0500,35.910697,-78.934912,"Mon - Fri: 9 am - 6 pm, Sat: 10 am - 5 pm",,,0
Cartridge World - Salem,,476 Lancaster Dr NE ,,Salem ,OR,97301,United States,(503) 363-0966,44.935776,-122.982539,"Mon - Fri: 9 am - 6 pm, Sat & Sun:  Closed",,,0
Cartridge World - Kennewick,,1360 N. Louisiana St. ,,Kennewick ,WA,99336,United States,(509) 735-9266,46.225838,-119.231538,"Mon - Fri: 9 am - 6 pm, Sat: 10 am - 2 pm",,,0
Cartridge World - Kingsport,,1420 E. Stone Dr ,,Kingsport ,TN,37660,United States,(423) 247-7465,36.550079,-82.522518,"Mon - Fri: 9 am - 6 pm, Sat: 10 am - 3 pm",,,0
Cartridge World - Johnson City,,805 Sunset Dr. # 2 ,,Johnson City ,TN,37604,United States,(423) 722-0333,36.333448,-82.388473,"Mon - Fri: 9 am - 6 pm, Sat: 10 am - 3 pm",,,0
Cartridge World - Morrisville,,424 Airport Blvd ,,Morrisville ,NC,27560,United States,(919) 678-0910,35.845651,-78.827075,"Mon - Fri: 9 am - 6 pm, Sat: 9 am - 2 pm",,,0
Cartridge World - Tigard,,10115 SW Nimbus Avenue ,,Tigard ,OR,97223,United States,(503) 624-2171,45.446582,-122.789878,"Mon - Fri: 9 am - 6 pm, Sat: 10 am - 5 pm",,,0
Cartridge World - Vancouver,,2100 SE 164th Ave ,,Vancouver ,WA,98683,United States,(360) 882-4465,45.605183,-122.505348,"Mon - Fri: 10 am - 6 pm, Sat: 10 am - 4 pm",,,0
Cartridge World - Surrey,,12-3189 King George Blvd 12-3189 King George Blvd Surrey ,,BC,V4P,1B8,Canada,(604) 538-5598,49.059413,-122.812015,"Mon-Fri : 8:30a.m. - 5:30p.m.,, Sat : 9:00a.m. - 5:30p.m.,, Sun : 12:00p.m. - 4:00p.m.",,,0
Cartridge World - Gresham,,810 NW Eastman Parkway ,,Gresham ,OR,97030,United States,(503) 489-1884,45.503338,-122.434578,"Mon - Fri: 9 am - 6 pm, Sat: 10 am - 5 pm",,,0
Cartridge World - Tucson,,4592 E. Broadway ,,Tucson ,AZ,85711,United States,(520) 325-7979,32.221115,-110.894702,"Mon - Fri: 8 am - 6 pm, Sat: 10 am - 4 pm",,,0
Cartridge World - Lakewood,,6020 Main St S.W. ,,Lakewood ,WA,98499,United States,253.582.0300,47.160974,-122.517746,"Mon - Fri: 10am - 5pm, Sat: 11am - 3pm",,,0
Cartridge World - Redmond,,17190 Redmond Way ,,Redmond ,WA,98052,United States,(425) 895-1465,47.67274,-122.110877,"Mon - Fri: 8 am - 7 pm, Sat: 9 am - 5 pm",,,0
Cartridge World - Seattle,,400 NE 45th Street ,,Seattle ,WA,98105,United States,(206) 632-5555,47.661585,-122.323374,"Mon - Fri: 8 am - 7 pm, Sat: 9 am - 6 pm, Sun: Closed",,,0
Cartridge World - Portland,,3962 SE Hawthorne ,,Portland ,OR,97214,United States,(503) 231-7900,45.511701,-122.621501,"Mon - Fri: 10 am - 6 pm, Sat: 11 am - 5 pm",,,0
Cartridge World - Saginaw,,5699 Bay Road ,,Saginaw ,MI,48604,United States,(989) 790-8060,43.490728,-83.974814,"Mon - Fri: 9 am - 6 pm, Sat: 10 am - 4 pm",,,0
Cartridge World - Okemos,,1715 W Grand River Ave ,,Okemos ,MI,48864,United States,517-721-1307 ,42.7176,-84.411688,"Mon - Fri: 9:30 am - 5:30 pm, Sat: 10 am 3:00 pm",,,0
Cartridge World - Saginaw,,5747 State Street ,,Saginaw ,MI,48603,United States,(989) 790-2855,43.436905,-84.029342,"Mon - Fri: 9 am - 6 pm, Sat: 10 am - 4 pm",,,0
Cartridge World - Hillsdale,,72 W. Carleton Rd ,,Hillsdale ,MI,49242,United States,(517) 437-2990,41.926667,-84.63921,"Mon - Fri: 7:30 am - 6 pm, Sat: 9 am - 1 pm",,,0
Cartridge World - Lansing,,5025 W. Saginaw Hwy ,,Lansing ,MI,48917,United States,(517) 853-0709,42.740503,-84.621076,"Mon - Fri: 9 am - 6 pm, Sat: 10 am - 3 pm",,,0
Cartridge World - Flint,,2119 S. Linden Road ,,Flint ,MI,48532,United States,(810) 732-5080,42.998111,-83.772569,"Mon - Fri: 9 am - 6 pm, Sat: 10 am - 4 pm",,,0
Cartridge World - Toledo,,3814 W. Alexis Rd. ,,Toledo ,OH,43623,United States,(419) 517-7555 or (419) 214-0585,41.720545,-83.636305,"Mon - Fri: 9 am - 5 pm, Sat: 10 am- 2 pm, Sun: Closed",,,0
Cartridge World - Brighton,,9864 East Grand River Ave ,,Brighton ,MI,48116,United States,(810) 229-5599,42.520652,-83.766179,"Mon - Fri: 9 am - 6 pm, Sat: 10 am - 2 pm",,,0
Cartridge World - Ann Arbor,,1958 South Industrial Hwy ,,COMING SOON Ann Arbor ,MI,48104,United States,(734) 213-1739,42.256711,-83.736398,,,,1
Cartridge World - Farmington,,770 Market Street ,,Farmington ,MO,63640,United States,(573) 747-0070,37.79035,-90.43567,Mon - Fri: 9 am - 5 pm,,,0
Cartridge World - Troy,,3281 Rochester Road ,,Troy ,MI,48083,United States,(248) 619-9959,42.567196,-83.128001,"Mon - Fri: 9:00 am - 6 pm, Sat: 10 am - 4 pm",,,0
Cartridge World - Nashville,,218 20th Ave N ,,Nashville ,TN,37203,United States,(615) 327-3600,36.154206,-86.801137,Mon - Fri: 9 am - 6 pm,,,0
Cartridge World - Flowood,,201 E. Layfair Dr ,,Flowood ,MS,39232,United States,(601) 939-3373,32.331123,-90.10456,,,,1
Cartridge World - Franklin,,4115 Mallory Lane ,,Franklin ,TN,37067,United States,(615) 327-3600 x 3,35.929801,-86.824762,Mon - Fri: 9:30 am - 5:30 pm,,,0
Cartridge World - Bartlett,,5985 Stage Road ,,Bartlett ,TN,38134,United States,(901) 372-7373,35.204098,-89.863278,"Mon - Fri: 9 am - 6 pm, Sat: 10 am - 3 pm",,,0
Cartridge World - Midtown,,4717 Poplar Ave ,,Memphis ,TN,38104,United States,(901) 767-4065,35.114985,-89.90474,Mon - Fri: 9 am - 6 pm,,,0
Cartridge World - Spring Hill,,4935 Main Street ,,Spring Hill ,TN,37174,United States,(615) 302-0252,35.775108,-86.918299,Mon - Fri: 9 am - 6 pm,,,0
Cartridge World - Little Rock,,11321 West Markham Little ,,Rock ,AR,72211,United States,(501) 227-7480,34.75358,-92.401005,"Mon - Fri: 8:30 am - 6 pm, Sat: 10 am - 2 pm",,,0
Cartridge World - North Little Rock,,4325 Mac Arthur ,,North Little Rock ,AR,72118,United States,(501) 227-4657,34.795022,-92.289939,Mon - Fri: 9 am - 5 pm,,,0
Cartridge World - Collierville,,1016 West Poplar Avenue ,,Collierville ,TN,38017,United States,(901) 853-3230,35.047539,-89.696546,Mon - Fri: 9 am - 6 pm,,,0
Cartridge World - Greenville,,1140 Woodruff Road ,,Greenville ,SC,29607,United States,(864) 286-6300,34.825812,-82.301003,"Mon - Fri: 9 am - 6 pm, Sat: 9 am - 3 pm",,,0
Cartridge World - Greenville,,3275-C North Pleasantburg Drive ,,Greenville ,SC,29609,United States,(864) 370-1323,34.890179,-82.402156,Mon - Fri: 9:30 am - 6 pm,,,0
Cartridge World - Fayetteville,,441 Westwood Shopping Ctr ,,Fayetteville ,NC,28314,United States, 910-482-4465,35.066454,-78.953092,,,,1
Cartridge World - Hickory,,1838 Startown Rd ,,Hickory ,NC,28602,United States,(828) 322-1001,35.699124,-81.293013,"Mon - Thu: 10 am - 6:30 pm, Fri - Sat: 10 am - 4 pm",,,0
Cartridge World - Findlay,,820 N Main St ,,Findlay ,OH,45840,United States,(419) 422-7166,41.051144,-83.65059,Mon - Wed : 9 am - 6 pm,,,0
Cartridge World - Spartanburg,,104 Franklin Ave Ste B ,,Spartanburg ,SC,29301,United States,(864) 576-2766,34.949567,-81.932048,Sat:  Hours Vary,,,0
Cartridge World - Gahanna,,1004 N. Hamilton Rd ,,Gahanna ,OH,43230,United States,(614) 532-5368,40.044161,-82.86338,"Mon - Thu: 9 am - 6 pm, Fri: 9 am - 5 pm",,,0
Cartridge World - Dublin,,323 West Bridge Street ,,Dublin ,OH,43017,United States,(614) 889-8488,40.099107,-83.122152,"Mon - Fri: 10 am - 6 pm, Sat: 10 am - 2 pm",,,0
Cartridge World - Columbus,,1393 Grandview Ave ,,Columbus ,OH,43212,United States,(614) 488-6420,39.986195,-83.044852,,,,1
Cartridge World - Mansfield,,327 N Lexington-Springmill Road ,,Mansfield ,OH,44906,United States,(419) 747-7468,40.760668,-82.590415,Mon - Fri: 9 am - 6 pm,,,0
Cartridge World - Albany,,2820 Meredyth Drive ,,Albany ,GA,31707,United States,(229) 883-8826,31.610358,-84.221454,"Mon - Fri: 9 am - 6 pm, Sat: 10 am - 2 pm",,,0
Cartridge World - Hilliard,,4508 Cemetery Rd. ,,Hilliard ,OH,43026,United States,(614) 777-4465,40.032518,-83.137341,"Mon - Fri: 9 am - 6 pm, Sat: 10 am - 3 pm",,,0
Cartridge World - Mt. Pleasant,,1000 Johnnie Dodds Blvd Mt. ,,Pleasant ,SC,29464,United States,(843) 856-2344,32.813397,-79.867785,"Mon - Fri: 11 am - 6 pm, Sat & Sun: CLOSED",,,0
Cartridge World - Oviedo,,1500 Alafaya Trail ,,Oviedo ,FL,32765,United States,(407) 366-0699,28.64761,-81.208939,"Mon - Fri: 9.30am - 6 pm, Sat: 10 am - 3 pm",,,0
Cartridge World - St. Augustine,,107 King Street ,,St. Augustine ,FL,32084,United States,(904) 826-1462,29.891406,-81.317144,Mon - Fri: 8:30 am - 5 pm,,,0
Cartridge World - Tampa,,1111 N. Himes Ave ,,Tampa ,FL,33607,United States,(813) 288-8465,27.953439,-82.501472,"Mon - Fri: 8 am - 5 pm, Sat & Sun: CLOSED",,,0
Cartridge World - Gainesville,,3501 SW 2nd Ave ,,Gainesville ,FL,32607,United States,(352) 505-6626,29.649825,-82.376052,"Mon - Thu: 9 am - 6 pm, Fri: 9 am - 5 pm, Sat: Closed",,,0
Cartridge World - Altamonte Springs,,801 W. State Road 436 Suite 1025 ,,Altamonte Springs ,FL,32714,United States,(407) 767-0680,28.665412,-81.415468,"Mon - Fri: 9 am - 5 pm, Saturday: Closed, Sunday: Closed",,,0
Cartridge World - Daytona Beach,,1808 W International Speedway Blvd ,,Daytona Beach ,FL,32114,United States,(386) 253-3555,29.193736,-81.0684,Mon - Fri: 9 am - 5 pm,,,0
Cartridge World - Jacksonville,,8608 Baymeadows Road ,,Jacksonville ,FL,32256,United States,(904) 636-7878,30.219917,-81.57975,"Mon - Fri: 9 am - 6 pm, Sat & Sun: Closed",,,0
Cartridge World - Lima,,1094 North Cable Rd ,,Lima ,OH,45805,United States,(419) 999-9278,40.754136,-84.147066,"Mon - Fri: 10 am - 6 pm, Sat: 10am - 2pm",,,0
Cartridge World - Jacksonville,,790 Skymarks Dr. ,,Jacksonville ,FL,32218,United States,(904) 330-0156,30.481582,-81.637235,"Mon - Fri: 9 am - 6 pm, Sat: 10 am - 4 pm, Sun: Closed",,,0
Cartridge World - Lafayette,,210 Meijer Dr. ,,Lafayette ,IN,47905,United States,(765) 448-4500,40.414967,-86.815334,"Mon - Thurs: 7:30 am - 5:30 pm, Saturday: CLOSED, Sunday: CLOSED",,,0
Cartridge World - Indianapolis,,5357 E 82nd St ,,Indianapolis ,IN,46250,United States,(317) 576-9580,39.904206,-86.076507,"Mon - Fri: 9 am - 6 pm, Sat: 10 am - 4 pm",,,0
Cartridge World - Ft. Wayne,,5450 Coldwater Road Ft. ,,Wayne ,IN,46825,United States,(260) 444-5681,41.129453,-85.135058,"Mon - Fri: 9 am - 6 pm, Sat: 10 am  - 3 pm",,,0
Cartridge World - Huber Heights,,6567 Brandt Pike ,,Huber Heights ,OH,45424,United States,(937) 233-4655,39.848298,-84.11401,Mon - Fri: 9 am - 6 pm,,,0
Cartridge World - Kokomo,,2110 Boulevard Crossing ,,Kokomo ,IN,46902,United States,(765) 456-3INK,40.462659,-86.098617,"Mon - Fri: 9 am - 6 pm, Sat: 10 am - 2 pm",,,0
Cartridge World - Indianapolis,,7120 Zionsville Road ,,Indianapolis ,IN,46278,United States,(317) 471-8661,39.88215,-86.259845,,,,1
Cartridge World - Indianapolis,,7225 US 31 S ,,Indianapolis ,IN,46227,United States,(317) 887-9100,39.660477,-86.143756,"Mon - Fri: 9 am - 6 pm, Sat: 10 am - 3 pm",,,0
Cartridge World - Nacogdoches,,3205 N. University Drive ,,Nacogdoches ,TX,75965,United States,(936) 559-8347,31.633119,-94.641116,Mon - Fri: 9 am - 6 pm,,,0
Cartridge World - Longview,,2161 Gilmer Rd ,,Longview ,TX,75604,United States,(903) 759-4657,32.528939,-94.78802,"Mon - Fri: 9 am - 6 pm, Sat and Sun: Closed",,,0
Cartridge World - Arlington,,3648 Matlock Road ,,Arlington ,TX,76015,United States,(817) 557-0300,32.685174,-97.115587,"Mon - Fri: 9 am - 6 pm, Sat: 10 am - 4 pm",,,0
Cartridge World - Burleson,,836 Renfro St. ,,Burleson ,TX,76028,United States,(817) 386-7606,32.537026,-97.301271,"Mon - Fri: 7:30 am - 6 pm, Sat : 9 am - 3 pm, Mon - Fri: Before 10 am",,,0
Cartridge World - Dallas,,7632 Campbell Rd. ,,Dallas ,TX,75248,United States,(972) 705-9494,32.977151,-96.768699,"Mon - Fri: 9 am - 6 pm, Sat: 10 am - 5 pm",,,0
Cartridge World - Tyler,,1400 W Southwest Loop 323 ,,Tyler ,TX,75701,United States,(903) 504-5967,32.303485,-95.322302,"Mon - Fri: 9:00 am - 6:00 pm, Sat - Sun: Closed",,,0
Cartridge World - Sacramento,,3890 Truxel Rd ,,Sacramento ,CA,95834,United States,(916) 285-8611,38.639471,-121.503265,"Mon - Fri: 9 am - 5:30 pm, Sat: 10 am - 4 pm",,,0
Cartridge World - Pleasant Hill,,1420 Contra Costa Blvd. ,,Pleasant Hill ,CA,94523,United States,(925) 609-9220,37.957876,-122.060469,Mon - Fri: 9 am - 6 pm,,,0
Cartridge World - Walnut Creek,,1554 Newell Avenue ,,Walnut Creek ,CA,94596,United States,(925) 932-1096,37.893265,-122.059965,"Mon - Fri: 9 am - 6 pm, Sat: 10 am - 5 pm, Sun: 10 am - 5 pm",,,0
Cartridge World - Hayward,,22306 Foothill Blvd. ,,Hayward ,CA,94541,United States,(510) 733-6363,37.679623,-122.084632,"Mon - Fri: 10 am - 6 pm, Sat: 11 am - 4 pm",,,0
Cartridge World - Elk Grove,,7119 Elk Grove Blvd ,,Elk Grove ,CA,95758,United States,(916) 714-6055,38.410011,-121.419496,"Mon - Fri: 9 am - 6 pm, Sat: 10 am - 4 pm",,,0
Cartridge World - Phoenix,,635 E. Indian School Road ,,Phoenix ,AZ,85012,United States,(602) 636-1400,33.494324,-112.065416,"Mon - Fri: 8:30 pm - 5:30 pm, Sat: 10 am - 3 pm",,,0
Cartridge World - McAlester,,1734 East Carl Albert Parkway ,,McAlester ,OK,74501,United States,(918) 426-5900,34.92567,-95.743848,Mon - Sat: 10 am - 6 pm,,,0
Cartridge World - Kerrville,,317 Sidney Baker St S ,,Kerrville ,TX,78028,United States,(830) 895-3465,30.041072,-99.143255,"Mon - Fri : 8:30 am - 6:30 pm, Sat : 9 am - 5 pm",,,0
Cartridge World - Austin,,13000 N Interstate 35 ,,Austin ,TX,78753,United States,(512) 400-3745,30.411196,-97.675463,,,,1
Cartridge World - Springdale,,1347 E. Kemper Road ,,Springdale ,OH,45246,United States,(513) 671-5700,39.285124,-84.448885,Mon - Fri: 9 am - 6 pm,,,0
Cartridge World - San Antonio,,7959 Fredericksburg Rd. ,,San Antonio ,TX,78229,United States,(210) 949-0565,29.511587,-98.569232,Mon - Fri: 9 am - 5 pm,,,0
Cartridge World - New Braunfels,,290 S.Business IH35 ,,New Braunfels ,TX,78130,United States,830-625-3338,29.703002,-98.124453,Saturday: 11 am - 3 pm,,,0
Cartridge World - Phoenix,,2432 W. Peoria Ave STE 1288 ,,Phoenix ,AZ,85029,United States,(602) 943-3223,33.583305,-112.110878,,,,1
Cartridge World - Prescott,,1260 Gail Gardner Way ,,Prescott ,AZ,86305,United States,(928) 776-0444,34.56459,-112.487431,"Mon - Fri: 8:30 am - 6 pm, Sat: 10 am - 3 pm",,,0
Cartridge World - Peoria,,8411 W. Thunderbird ,,Peoria ,AZ,85381,United States,(623) 776-7400,33.608654,-112.240012,"Mon - Fri: 9 am - 6 pm, Sat: 10 am - 3 pm",,,0
Cartridge World - Mays Landing,,304 Consumer Square ,,Mays Landing ,NJ,08330,United States,(609) 484-1001,39.451882,-74.633316,"Mon - Fri: 10am - 6pm, Sat & Sun: CLOSED",,,0
Cartridge World - Princeton,,4095 Route 1 South Monmouth Junction ,,,NJ,08852,United States,(732)329-2222,40.373749,-74.561873,"Mon:  10:00am - 5:30pm, Tues:  10:00am - 5:30pm, Wed:  10:00am - 5:30pm, Thur: 10:00am - 5:30pm, Fri:     10:00am - 5:00pm, Sat:    10:00am - 3:00pm, Sun:   CLOSED",,,0
Cartridge World - Flemington,,Cartridge World EXPRESS ,,Flemington ,NJ,08822,United States,(908) 782-1180,40.512326,-74.859332,"Monday-Friday: 9am-6pm, Saturday: 10am-5pm, Sunday: If you really, really need it, call us!",,,0
Cartridge World - Tolleson,,9897 W. McDowell Rd ,,Tolleson ,AZ,85353,United States,(623) 742-9192,33.463709,-112.271167,"Mon - Fri: 9 am - 6 pm, Sat: 10 am - 3 pm",,,0
Cartridge World - Vineland,,1370 South Main Road ,,Vineland ,NJ,08360,United States,(856) 692-0372,39.465285,-75.007183,"Mon - Fri: 9 am - 5:30 PM, Sat: 9 am - 3 pm",,,0
Cartridge World - Beckett,,525 Beckett Rd Suite 3 ,,Beckett ,NJ,08085,United States,(856) 467-1520,39.765572,-75.359459,,,,1
Cartridge World - Sewell,,415 Egg Harbor Rd Ste. 21-B ,,Sewell ,NJ,08080,United States,(856) 956-3364,39.748276,-75.075644,,,,1
Cartridge World - Delaware,,800 Peoples Plaza ,,Newark ,DE,19702,United States,(302) 832-2933,39.60226,-75.747925,"Mon - Thurs: 9 am - 6:00 pm, Sat: 10:00 am - 4:00 pm, Sun: Closed or call any day to check if Bob is in before & after our posted hours.",,,0
Cartridge World - Franklin Square,,776 Hempstead Turnpike ,,Franklin Square ,NY,11010,United States,(516) 539-1211,40.707112,-73.66855,Sat: 9 am - 5 pm,,,0
Cartridge World - North Arlington,,291 Ridge Rd ,,North Arlington ,NJ,07031,United States,(201) 998-8070,40.79098,-74.131765,"Mon - Fri: 7 am - 5 pm, Sat: 9 am - 12 pm",,,0
Cartridge World - Union,,2576 US 22 East Unit B ,,Union ,NJ,07083,United States,(908) 688-5601,40.688508,-74.303617,,,,1
Cartridge World - Woodland Park,,1590 HWY 46 ,,West Woodland Park ,NJ,07424,United States,(973) 256-5610,40.885348,-74.210885,Mon - Fri: 10 am - 6 pm,,,0
Cartridge World - New York,,805 Third Ave ,,New York ,NY,10022,United States,(212) 308-1465,40.755424,-73.970568,Mon - Thu: 10:00 am - 6:00 pm,,,0
Cartridge World - Little Neck,,56-11 Marathon Parkway ,,Little Neck ,NY,11362,United States,(718) 504-2862,40.760136,-73.731277,"Mon - Fri: 9:30 am - 7 pm, Sat: 10 am - 3 pm, Sun: 12 pm - 3 pm",,,0
Cartridge World - Brooklyn,,2068 Flatbush Ave. ,,Brooklyn ,NY,11234,United States,(718) 252-7771,40.619198,-73.933598,"Mon - Thu: 10 am - 7 pm, Fri: 10 am - 6 pm",,,0
Cartridge World - New York,,275 7th Ave ,,New York ,NY,10001,United States,(212) 414-8406,40.745569,-73.994158,Mon - Friday: 9:00 AM to 6:00 PM,,,0
Cartridge World - Downtown NYC,,1 World Trade Center Suite 8500 ,,New York ,NY,10007,United States,212-220-7138,40.712743,-74.013379,Mon-Fri: 8AM-6PM,,,0
Cartridge World - New York,,35 West 31st St ,,New York ,NY,10001,United States,(212) 777-6600,40.747436,-73.987502,"Mon - Fri: 9 am - 6 pm, Saturday: Closed, Sunday: Closed",,,0
Cartridge World - Santa Clara,,3973 Stevens Creek Blvd ,,Santa Clara ,CA,95051,United States,(408) 985-1688,37.323603,-121.972172,"Mon - Fri: 9 am - 6 pm, Sat: 10 am - 4 pm",,,0
Cartridge World - Livermore,,2275 Las Positas Road ,,Livermore ,CA,94551,United States,(925) 455-4446,37.697794,-121.771877,"Mon - Fri: 10 am - 6 pm, Sat: 11 am - 5 pm",,,0
Cartridge World - Las Vegas,,4601 West Sahara Ave ,,Las Vegas ,NV,89102,United States,(702) 444-1108,36.143791,-115.203858,"Mon - Fri: 9 am - 5:30 pm, Sat: 9 am - 1 pm",,,0
Cartridge World - Cupertino,,10133 S. De Anza Blvd. ,,Cupertino ,CA,95014,United States,(408) 996 - 8040,37.320941,-122.032935,"Mon - Fri: 9 am - 6:30p.m, Sat: 10 am - 5:30 pm",,,0
Cartridge World - San Jose,,2206 Ringwood Ave ,,San Jose ,CA,95131,United States,(408) 777-9001,37.398465,-121.897068,Mon - Fri: 8:30 am - 5:30 pm,,,0
Cartridge World - Cherry Hill,,2 Split Rock Dr Suite 6 ,,Cherry Hill ,NJ,08003,United States,(856) 751-0900,39.895083,-74.948979,Mon - Fri: 9 am - 5 pm,,,0
Cartridge World - Brea,,860 W Imperial Hwy ,,Brea ,CA,92821,United States,(714) 256-9427,33.91678,-117.911396,Mon - Fri: 9 am - 6:30 pm,,,0
Cartridge World - Spring,,7312 Louetta Rd ,,Spring ,TX,77379,United States,(281) 257-8668,30.066721,-95.433716,"Mon - Fri: 9 am - 6 pm, Sat & Sun: CLOSED",,,0
Cartridge World - Henderson,,9550 S. Eastern Avenue ,,Henderson ,NV,89123,United States,(702) 586-0634,36.014677,-115.117377,"Mon - Fri: 9 am - 5 pm, Sat: 10 am - 4 pm, Sun: Closed",,,0
Cartridge World - Los Angeles,,6380 Wilshire Blvd ,,Los Angeles ,CA,90048,United States,(323) 653-3999 ,34.063428,-118.368154,Mon - Fri: 10 am - 6 pm,,,0
Cartridge World - Los Alamitos,,11300 Los Alamitos Blvd. ,,Los Alamitos ,CA,90720,United States,(562) 594-7140,33.799068,-118.071811,"Mon - Fri: 9 am - 6 pm, Sat - Sun: Closed",,,0
Cartridge World - Pasadena,,319 South Arroyo Parkway ,,Pasadena ,CA,91105,United States,(626) 793-5555,34.140045,-118.148012,"Mon - Fri: 10 am - 6 pm, Sat: 10 am - 4 pm",,,0
Cartridge World - Energy Corridor,,1560 Eldridge Road ,,Houston ,TX,77077,United States,(281) 497-4465,29.757191,-95.627392,"Mon - Fri: 9 am - 6 pm, Sat: 11 am - 4 pm",,,0
"Cartridge World - SUGARLAND, TEXAS",,16126 S W Freeway ,,Sugar Land ,TX,77479,United States,2819801145,29.597228,-95.625118,MON - FRI: 10 am - 6 pm,,,0
Cartridge World - Harwin,,7331 Harwin Dr ,,Houston ,TX,77036,United States,(713) 975-1562,29.717315,-95.511487,Mon - Fri: 10 am - 6 pm,,,0
Cartridge World - Galleria,,5638 Westheimer Rd ,,Houston ,TX,77056,United States,(713) 572-1700,29.738524,-95.47547,"Mon - Fri: 10 am - 5 pm, Sat: 11 am - 4 pm",,,0
Cartridge World - Dunvale,,8582 Westheimer ,,Houston ,TX,77063,United States,(713) 783-9200,29.738056,-95.515034,"Mon - Fri: 9 am - 6 pm, Sat: 11 am - 4 pm",,,0
Cartridge World - Hwy 288,,10904 Memorial Hermann Drive ,,Pearland ,TX,77584,United States,(281) 998-3050 ,29.559116,-95.388772,"Mon - Thu: 8 am - 6 pm, Fri:                 8 am - 5 pm, Sat:                Closed, Sun:               Closed",,,0
Cartridge World - Montrose,,2055 Westheimer ,,Houston ,TX,77098,United States,(713) 526-0040,29.742434,-95.409087,Mon - Fri: 8:30 am - 7 pm,,,0
Cartridge World - Rockford,,6139 E. State Street ,,Rockford ,IL,61108,United States,(815) 316-7722,42.265188,-88.996349,Sat: 10 am - 5 pm,,,0
Cartridge World - West University,,4036 Bellaire Blvd ,,Houston ,TX,77025,United States,(713) 518-1484,29.706503,-95.442141,"Mon - Fri: 10 am - 6 pm, Sat: 10 am - 4 pm",,,0
Cartridge World - Plainfield,,16114 S RTE 59 ,,Plainfield ,IL,60586,United States,(815) 267-7571,41.589683,-88.202163,"Monday: 10 am to 6:30 pm, Tuesday: 10 am to 6:30 pm, Wednesday: 10 am to 6:30 pm, Thursday: 10 am to 6:30 pm, Friday: 10 am to 5  pm, Saturday: 10 am to 4 pm",,,0
Cartridge World - Beloit,,2213 Prairie Ave ,,Beloit ,WI,53511,United States,608-368-8220,42.532663,-89.011762,"Mon - Fri: 10 am - 5:00 pm, Sat: closed",,,0
Cartridge World - Wauwatosa,,6650 West State Street ,,Wauwatosa ,WI,53213,United States,(414) 777-1830,43.046535,-87.995114,"Mon - Fri: 10 am - 7 pm, Sat: 10 am - 4 pm, Sun: 10am - 1 pm",,,0
Cartridge World - Palatine,,744 E Dundee Rd ,,Palatine ,IL,60074,United States,(847) 202-0008,42.13963,-88.024652,"Mon - Thu: 10 am -6:30 pm, Fri: 10 am - 5 pm, Sat: 10 am - 2 pm, Sun: Closed",,,0
Cartridge World - Crystal Lake,,6219 NW Highway ,,Crystal Lake ,IL,60014,United States,(815) 477-0600,42.225805,-88.318783,"Mon - Fri: 9 am - 5 pm, Sat: closed",,,0
Cartridge World - Bloomingdale,,358 W Army Trail Road ,,Bloomingdale ,IL,60108,United States,(630) 893-6300,41.938099,-88.111049,"Mon - Thursday: 9 am - 7:00pm, Fri. & Sat: 9 am - 6 pm, Sun: 11 am - 5pm",,,0
Cartridge World - Tinley Park,,7751-2 159th Street ,,Tinley Park ,IL,60477,United States,(708) 532-3337,41.601993,-87.807985,"Mon - Thu: 9 am - 7 pm, Fri: 9 am - 6 pm, Sat: 10 am - 5 pm, Sun: 12 pm - 5 pm",,,0
Cartridge World - Downers Grove,,7341 Lemont Road ,,Downers Grove ,IL,60516,United States,(630) 353-1113,41.753651,-88.010609,"Mon - Fri: 9 am - 8 pm, Sat: 9 am - 5 pm, Sun: 11 am - 5 pm",,,0
Cartridge World - Libertyville,,1324 South Milwaukee Ave ,,Libertyville ,IL,60048,United States,(847) 996-0642,42.261102,-87.948524,"Mon - Fri: 9:30 am - 5 pm, Sat: 10 am - 3 pm",,,0
Cartridge World - Lancaster,,1937-B Fruitville Pike ,,Lancaster ,PA,17601,United States,(717) 509-8989,40.075606,-76.321569,"Mon. Fri.: 8 am - 5:00 pm, Tue - Thur: 8 am - 6:30 pm, Sat: 10 am - 3 pm",,,0
Cartridge World - Carlisle,,200 S Spring Garden St ,,Carlisle ,PA,17013,United States,(717) 249-8900,40.198011,-77.18193,"Mon - Fri: 10 am - 6 pm, Sat: 9 am - 2 pm",,,0
Cartridge World - Plaistow,,13 Plaistow Road # 1 ,,Plaistow ,NH,03865,United States,(603) 378-9465,42.818311,-71.10283,"Mon - Fri: 9:30 am - 6 pm, Sat: 10 am - 4 pm",,,0
Cartridge World - Glen Allen,,4120 Cox Road Glen ,,Allen ,VA,23060,United States,(804) 237-6844,37.649449,-77.582605,"Mon - Fri: 9 am - 6 pm, Sat: 10 am - 4 pm",,,0
Cartridge World - East Greenwich,,776 Main St. ,,East Greenwich ,RI,02818,United States,(401) 515-2011 ext 301,41.653856,-71.454612,SUN: CLOSED,,,0
Cartridge World - Grove,,2070 S. Main Street ,,Grove ,OK,74344,United States,(918) 786-3048,36.576298,-94.769139,"Mon - Fri: 8:30 am - 5:30 pm, Sat: 10 am - 3 pm",,,0
Cartridge World - Broken Arrow,,1015 East Lansing Street ,,Broken Arrow ,OK,74012,United States,(918) 251-5096,36.062919,-95.777198,Sat: 10 am - 2 pm,,,0
Cartridge World - Manitowoc,,3949 Calumet Ave ,,Manitowoc ,WI,54220,United States,(920) 686-9395,44.079341,-87.696573,"Mon - Fri: 9 am - 5 pm, Sat: closed, Sun: closed",,,0
Cartridge World - Johnston,,1500 Atwood Ave ,,Johnston ,RI,02919,United States,(401) 515-2011 x9,41.825263,-71.499918,SUN: CLOSED,,,0
Cartridge World - Tulsa,,11161 E. 31st Street ,,Tulsa ,OK,74146,United States,(918) 270-1300,36.118985,-95.852774,Mon - Fri: 9 am - 6 pm,,,0
Cartridge World - Fond du Lac,,N6663 Rolling Meadows Drive ,,Fond du Lac ,WI,54937,United States,(920) 322-1236,43.783511,-88.484453,Mon - Fri: 9 am - 6 pm,,,0
Cartridge World - Suffield,,68 Bridge St ,,Suffield ,CT,06078,United States,(860) 814-4126,41.982137,-72.648543,"Mon - Fri: 9 am - 6 pm, Sat: 10 am - 4 pm",,,0
Cartridge World - Tulsa,,1251 S. Harvard Ave ,,Tulsa ,OK,74112,United States,(918) 747-4340,36.144305,-95.93993,Mon - Fri: 9 am - 6 pm,,,0
Cartridge World - Pewaukee,,1230 George Towne Dr. ,,Pewaukee ,WI,53072,United States,(262) 695-8036,43.083959,-88.237916,Sat: 9 am - 3 pm,,,0
Cartridge World - Omaha,,11728 W Dodge Rd ,,Omaha ,NE,68114,United States,(402) 465-4465,41.263208,-96.096569,Mon - Fri: 9 am - 6 pm,,,0
Cartridge World - Thiensville,,119 Green Bay Rd ,,Thiensville ,WI,53092,United States,262-292-8337,43.230859,-87.982831,,,,1
Cartridge World - Chico,,760 Mangrove Avenue ,,Chico ,CA,95926,United States,(530) 342-3333,39.737691,-121.834543,"Mon - Fri: 9 am - 7 pm, Sat: 10 am - 4 pm, Sun: 12 pm - 4 pm",,,0
Cartridge World - At The Plaza,,1842 S. Glenstone ,,Springfield ,MO,65804,United States,(417) 886-1234,37.180211,-93.26133,Mon - Fri: 8:30 am -6:00 pm,,,0
Cartridge World - Lincoln,,5400 S 56th Street ,,Lincoln ,NE,68516,United States,(402) 464-3455,40.758216,-96.640074,"Mon - Fri: 9 am - 6 pm, Sat: 10 am - 5 pm",,,0
Cartridge World - Yuba City,,1025 Gray Avenue ,,Yuba City ,CA,95991,United States,(530) 751-9585,39.142773,-121.629606,"Mon - Fri: 9 am - 5:30 pm, Sat: 10 am - 4 pm",,,0
Cartridge World - Springfield,,3656 South Campbell ,,Springfield ,MO,65807,United States,(417) 823-9990,37.149586,-93.295834,"Mon - Fri: 8:30 am - 6 pm, Sat: 10 am - 5 pm",,,0
Cartridge World - Pittsburg,,612 N Broadway ,,Pittsburg ,KS,66762,United States,620-231-3455,37.413529,-94.704667,,,,1
Cartridge World - Joplin,,102 N. Range Line ,,Joplin ,MO,64801,United States,(417) 206-3455,37.090656,-94.477551,"Mon - Fri: 8:30 am - 6 pm, Sat: 10 am - 4 pm",,,0
Cartridge World - Carthage ,,211 W 3rd St. ,,Carthage ,MO,64836,United States,(417) 781-3455,37.177072,-94.312179,"Mon - Fri: 8:30 am - 6 pm, Sat: 9 am -12 pm",,,0
Cartridge World - Lee's Summit,,412 SW Ward Road ,,Lee's Summit ,MO,64081,United States,(816) 287-2406,38.909998,-94.395529,"Mon - Fri: 8:30 am - 6 pm, Sat: 9 am - 4 pm",,,0
Cartridge World - Topeka,,2919 SW Wanamaker ,,Topeka ,KS,66614,United States,(785) 861-7455,39.013535,-95.764806,,,,1
Cartridge World - El Dorado Hills,,5145 Golden Foothill Parkway Suite 130 ,,El Dorado Hills ,CA,95762,United States,(916) 939-7384,38.640459,-121.068829,"Mon - Fri: 9:30 am - 6 pm, Sat: 10 am - 4 pm",,,0
Cartridge World - Brookfield,,19035 West Bluemound Road ,,Brookfield ,WI,53045,United States,(262) 754-2901,43.035151,-88.14879,"Mon - Thurs: 9 am - 7 pm, Fri: 9 am - 6pm, Sat: 10 am - 4 pm",,,0
Cartridge World - Gladstone,,6024 NE Antioch Road ,,Gladstone ,MO,64119,United States,(816) 741-4465,39.20304,-94.548574,Mon - Fri: 9 am - 6 pm,,,0
Cartridge World - York,,1805 Loucks Road ,,York ,PA,17408,United States,(717) 699-4465,39.974985,-76.770849,Monday:   9 am - 5pm,,,0
Cartridge World - Walla Walla,,221 East Main St ,,Walla Walla ,WA,99362,United States,(509) 529-4556,46.0694,-118.336116,Mon - Fri: 9 am - 5:30 pm,,,0
Cartridge World - Ephrata,,346 N. Reading Road ,,Ephrata ,PA,17522,United States,(717) 721-1850,40.193291,-76.175529,Sat: 9 am - 12pm,,,0
Cartridge World - Sapulpa,,114-C W Taft ,,Sapulpa ,OK,74066,United States,(918) 227-3500,35.987614,-96.115662,Mon - Fri: 9 am - 6 pm,,,0
Cartridge World - Salem,,379A South Broadway ,,Salem ,NH,03079,United States,(603) 893-4200,42.751122,-71.204944,"Mon - Fri: 9 am - 6 pm, Sat: 10 am - 4 pm",,,0
Cartridge World - Nashua,,295 Daniel Webster Highway Unit 2B ,,Nashua ,NH,03060,United States,(603) 598-4657,42.703835,-71.442804,"Mon - Fri: 9 am - 5 pm, Sat & Sun: CLOSED",,,0
Cartridge World - Rome,,712 Broad St Suite B ,,Rome ,GA,30161,United States,(706) 234-9465,34.256593,-85.166102,Mon - Fri: 9 am - 5pm,,,0
Cartridge World - North Attleboro,,11 Robert Toner Blvd ,,North Attleboro ,MA,02763,United States,(508) 699-8999,41.969887,-71.300289,"Mon - Wed: 9 am - 5:30 pm, Thurs: 9 am - 6 pm, Fri: 9 am - 5:30 pm, Sat: 12 pm - 3 pm, Sunday: Closed",,,0
Cartridge World - Chelmsford,,83 Parkhurst Rd ,,Chelmsford ,MA,01824,United States,(978) 735-4311,42.625048,-71.35895,"Mon - Fri: 9 am - 4:00 pm, Sat & Sun: Closed",,,0
Cartridge World - Chattanooga,,7540 East Brainerd Road ,,Chattanooga ,TN,37421,United States,4238945737,35.012893,-85.16043,"Mon - Fri: 10 am - 6 pm, Sat: 10 am - 4 pm",,,0
Cartridge World - Hixson,,5502 Hixson Pike ,,Hixson ,TN,37343,United States,(423) 842 0702,35.144067,-85.225688,Mon - Fri:  9 am - 6 pm,,,0
Cartridge World - Knoxville,,COMING SOON ,,Knoxville ,TN,37922,United States,(865) 312-9456,35.868138,-84.090725,"Mon - Fri: 9 am - 6 pm, Sat: 10 am - 2 pm",,,0
Cartridge World - Hanover,,1000 Carlisle St ,,Hanover ,PA,17331,United States,(717) 637-1311,39.817324,-76.994893,"Mon - Fri: 9 am - 5 pm, Sat: 10 am - 2 pm",,,0
Cartridge World - Knoxville,,211 N Peters Rd ,,Knoxville ,TN,37923,United States,(865) 658-3188,35.915172,-84.083426,"Monday: 9 am - 7 pm, Tuesday: 9 am - 7 pm, Wednesday: 9 am - 7 pm, Thursday: 9 am - 7 pm, Friday: 9 am - 6 pm, Saturday: 10 am - 3 pm",,,0
Cartridge World - Murfreesboro,,215 Robert Rose Dr ,,Murfreesboro ,TN,37129,United States,(615) 848-0465,35.850317,-86.423592,Mon - Fri: 9 am - 5 pm,,,0
Cartridge World - Huntsville,,700 C Airport Rd ,,Huntsville ,AL,35802,United States,(256) 883-4567,34.691633,-86.573335,"Mon - Fri: 9 am - 6 pm, Sat: 10 am - 3 pm",,,0
Cartridge World - Wichita,,11333 East Kellogg Dr ,,Wichita ,KS,67207,United States,(316) 684-3455,37.677326,-97.206286,Mon - Fri: 9 am - 6:00 pm,,,0
Cartridge World - Fredericksburg,,1990 William Street ,,Fredericksburg ,VA,22401,United States,540-621-0320,38.295718,-77.491715,"Mon - Fri: 11 am - 6 pm, Sat: 10 am - 2 pm",,,0
Cartridge World - Middleton,,223 Maple St ,,Middleton ,MA,01949,United States,(978) 762-4657,42.595573,-70.994229,"Mon - Fri: 9 am - 5:00pm, Sat: 10 am - 4 pm",,,0
Cartridge World - Westminster,,330 140 Village Road ,,Westminster ,MD,21157,United States,410 848-9183;     410 876 0866,39.564869,-76.980175,,,,1
Cartridge World - Centreville,,6327 Multiplex Drive ,,Centreville ,VA,20121,United States,(703) 266-6666,38.827982,-77.438414,"Mon - Fri: 10 am - 6 pm, Sat: 10 am - 3 pm",,,0
Cartridge World - Wichita,,2250 North Rock Road ,,Wichita ,KS,67226,United States,(316) 681-1183,37.724908,-97.243328,Mon - Fri: 9:00 am - 6:30 pm,,,0
Cartridge World - Ashburn,,44050 Ashburn Shopping Plaza ,,Ashburn ,VA,20147,United States,(703) 858-9558,39.044399,-77.47499,"Mon - Fri: 9 am - 6 pm, Sat: 10 am - 3 pm",,,0
Cartridge World - Wichita,,7130 W. Maple St. ,,Wichita ,KS,67209,United States,(316) 729-7465,37.680474,-97.424943,"Sat: 9:00 - 5:00, Sun: Closed",,,0
Cartridge World - North Logan,,101 East 1600 North ,,North Logan ,UT,84341,United States,(435) 753-2180,41.761346,-111.834277,"Mon - Fri: 10 am - 7 pm, Sat: 10 am - 4 pm",,,0
Cartridge World - Richfield,,65 N Main ,,Richfield ,UT,84701,United States,(435) 893-0105,38.768967,-112.084793,"Mon - Fri: 9 am - 6 pm, Sat: 9 am - 6 pm",,,0
Cartridge World - Colorado Springs,,955 Garden of Gods Road ,,Colorado Springs ,CO,80907,United States,(719) 268-6880,38.896181,-104.83852,"Mon - Sat: 8 am - 5 pm, Sunday: Closed",,,0
Cartridge World - Colorado Springs,,1737 Briargate Blvd ,,Colorado Springs ,CO,80920,United States,(719) 260-0710,38.944534,-104.795467,"Mon - Fri: 8:30 am - 6 pm, Sat: 10 am - 3:30 pm, Sun: Closed",,,0
Cartridge World - Salt Lake City,,2120 S 700 E ,,Salt Lake City ,UT,84106,United States,(801) 484-4657,40.724809,-111.872435,"Mon - Fri: 9 am - 7 pm, Sat: 10 am - 5 pm",,,0
Cartridge World - Midvale,,862 E. Fort Union Blvd ,,Midvale ,UT,84047,United States,(801) 567-0202,40.621587,-111.867508,"Mon - Fri: 9 am - 7 pm, Sat: 10 am - 5 pm",,,0
Cartridge World - Norfolk,,701 South 25th Street ,,Norfolk ,NE,68701,United States,402-844-FILL (3455),42.026912,-97.446738,Mon - Fri: 9 am - 6:30 pm,,,0
Cartridge World - Rio Grande,,1304 Route 47 ,,Rio Grande ,NJ,08242,United States,(609) 600-2486,39.014136,-74.874115,"Mon - Fri: 9 am - 6 pm, Sat: 10 am - 3 pm",,,0
Cartridge World - Christiansburg,,45 Conston Ave ,,Christiansburg ,VA,24073,United States,(540) 381 - 0016,37.158957,-80.421225,"Mon - Fri: 9 am - 6 pm, Sat: 10 am - 4 pm",,,0
Cartridge World - Waterloo,,1509 Flammang Drive ,,Waterloo ,IA,50702,United States,(319) 226-3041,42.460391,-92.326617,"Mon - Fri: 9 am - 6 pm, Sat: 10 am - 4 pm",,,0
Cartridge World - Roanoke,,3940 Valley Gateway Blvd ,,Roanoke ,VA,24012,United States,540-682-8200,37.314252,-79.879894,,,,1
Cartridge World - Hiram,,5157 Jimmy Lee Smith Pkwy. Suite 209 ,,Hiram ,GA,30141,United States,(770) 635-1100,33.888779,-84.742632,"Mon - Fri: 10:00 am - 6:00 pm, Sat: 10:00 am - 3:00 pm",,,0
Cartridge World - Roanoke,,2020 Electric Road ,,Roanoke ,VA,24018,United States,(540) 776-1112,37.246832,-80.031665,"Mon - Fri: 9 am - 6 pm, Sat: 10 am - 4 pm",,,0
Cartridge World - Duluth,,2628 Pleasant Hill Road ,,Duluth ,GA,30096,United States,1-855-99-TONER(86637),33.971628,-84.147772,"Mon - Fri: 9 am - 6 pm, Sat: 10 am - 3 pm",,,0
Cartridge World - Miami,,3399 NW 72nd Ave Suite 223 ,,Miami ,FL,33122,United States,(305) 856-3434,25.805193,-80.31255,Mon - Fri: 9 am - 5 pm,,,0
Cartridge World - Sarasota,,4605 S Tamiami Trail ,,Sarasota ,FL,34231,United States,(941) 924-2221,27.287102,-82.530624,Business Office:  By Appointment,,,0
Cartridge World - North Canton,,4901 Portage St NW ,,North Canton ,OH,44720,United States,(330) 305-1424,40.8802,-81.439564,"Mon - Fri: 9 am - 6 pm, Sat: 10 am - 4 pm, Dec 24th: 10am - 2pm, December 25th & 26th: Closed, December 31: 10am - 2pm, Jan 1st & 2nd: Closed",,,0
Cartridge World - Montgomery,,6383 Atlanta Highway ,,Montgomery ,AL,36117,United States,(334) 819-8797,32.38244,-86.187782,"Mon - Fri: 8 am - 6 pm, Sat: 10 am - 3 pm",,,0
Cartridge World - Fayetteville,,160 E. Joyce Blvd ,,Fayetteville ,AR,72703,United States,(479) 251.1900,36.125379,-94.154181,"Mon - Fri: 9 am - 6 pm, Sat: 10 am - 5 pm",,,0
Cartridge World - Cartridge World Akron,,1918 Buchholzer Blvd ,,Akron ,OH,44310,United States,(330) 633-2735,41.114896,-81.473117,"Mon - Fri: 9 am - 6 pm, Sat: 10 am - 4 pm, Dec 24th: 10am - 2pm, December 25th & 26th: Closed, December 31: 10am - 2pm, Jan 1st & 2nd: Closed",,,0
Cartridge World - McMurray,,1049 Waterdam Plaza Dr. ,,McMurray ,PA,15317,United States,(724) 731-0218,40.262398,-80.136011,"Mon - Thu: 8 am - 6 pm, Fri: 8 am - 5 pm, Sat: 10 am - 4 pm",,,0
Cartridge World - Honolulu,,1124 Kohou St ,,Honolulu ,HI,96817,United States,(808) 593-4465,21.326018,-157.86824,Mon - Fri: 9 am - 5 pm,,,0
Cartridge World - Pelham,,,,RELOCATING Pelham ,AL,35244,United States,(205) 733-2299,33.363939,-86.811992,"Mon - Fri: 8:30 am - 5:30 pm, Sat: 10 am - 3 pm",,,0
Cartridge World - Cartridge World Pittsburgh,,222 Blvd of the Allies ,,Pittsburgh ,PA,15222,United States,(412) 281-7950,40.438604,-80.00297,,,,1
Cartridge World -  Fairhope,,23858 US Hwy 98 ,,Fairhope ,AL,36532,United States,251-308-4080,30.573063,-87.895136,,,,1
Cartridge World - Panama City,,622 W. 23rd ST ,,Panama City ,FL,32405,United States,(850) 257 - 5148,30.191094,-85.668525,Mon - Fri: 9:30a.m. - 6:00p.m.,,,0
Cartridge World - Hawaii (Aiea),,99-209 Moanalua Rd. ,,Aiea ,HI,96701,United States,(808) 488-8855,21.378585,-157.931276,Mon - Fri: 9 am - 5 pm,,,0
Cartridge World - Mobile,,3664A Airport Blvd ,,Mobile ,AL,36608,United States,(251) 725-6380,30.677068,-88.133521,"Mon - Fri: 9 am - 6 pm, Sat: 10 am - 2 pm",,,0
Cartridge World - Fort Smith,,4900 Rogers Ave. ,,Fort Smith ,AR,72903,United States,(479) 434-4657,35.364304,-94.377824,"Mon - Fri: 9 am - 6 pm, Sat: 11 am - 4 pm",,,0
Cartridge World - Lafayette,,3603-E Ambassador Caffery Parkway ,,Lafayette ,LA,70503,United States,(337) 984-9000,30.176365,-92.070491,"Mon - Fri: 8:30 am - 5:30 pm, Sat: 10 am - 2 pm",,,0
Cartridge World - Covington,,808 N HWY 190 ,,Covington ,LA,70433,United States,(985) 892-6460,30.442301,-90.081918,,,,1
Cartridge World - St Cloud,,3411 West Division Street ,,St Cloud ,MN,56301,United States,(320) 258-3148,45.553625,-94.20043,"Mon - Fri: 9am - 6pm, Sat: 10am - 5pm, Sun: Closed",,,0
Cartridge World - Houma,,265 Corporate Dr ,,Houma ,LA,70360,United States,(985) 580-1010,29.59903,-90.748494,"Mon - Thu: 8:30 am - 4:30 pm, Fri: 8:30 am - 3 pm",,,0
Cartridge World - Rochester,,102 17th Ave. NW29 ,,Rochester ,MN,55901,United States,(507) 424-3959,44.023772,-92.487543,Mon - Fri: 9 am - 6:00 pm,,,0
Cartridge World - Cambridge,,138 Main St S ,,Cambridge ,MN,55008,United States,(763) 552-4657,45.572436,-93.224096,"Mon - Fri: 9 am - 6 pm, Sat: 10 am - 4 pm",,,0
Cartridge World - Eden Prairie,,7906 Eden Road ,,Eden Prairie ,MN,55344,United States,(952) 224-8555,44.860337,-93.426553,"Mon - Thu: 9 am - 6 pm, Fri: 9 am - 5 pm, Sat: 10 am - 3 pm",,,0
Cartridge World - Blaine,,10450 Baltimore St. NE ,,Blaine ,MN,55449,United States,(763) 717-0114,45.160449,-93.23364,"Mon - Fri: 9 am - 7 pm, Sat: 10 am - 5 pm, Sun: Closed",,,0
Cartridge World - Apple Valley,,7595 W. 148th Street ,,Apple Valley ,MN,55124,United States,(952) 891-4545,44.734028,-93.219717,"Mon - Fri: 10 am - 6 pm, Sat: 10 am - 3 pm",,,0
Cartridge World - Hudson,,1015 Pearson Dr ,,Hudson ,WI,54016,United States,(715) 381-5000,44.959225,-92.719932,Mon - Fri: 9 am - 6 pm,,,0
Cartridge World - Maple Grove,,13760 83rd Way N ,,Maple Grove ,MN,55369,United States,(763) 420-6632,45.105765,-93.455266,": 9 am - 7 pm, : 10 am - 5 pm, : Closed",,,0
Cartridge World - Cartridge World Roseville,,1633 County Road C ,,West Roseville ,MN,55113,United States,(651) 379-0390,45.021679,-93.170367,"Mon - Fri: 9 am - 6 pm, Sat: 10 am - 4:30 pm",,,0
Cartridge World - Maplewood,,3035 White Bear Ave. ,,Maplewood ,MN,55109,United States,(651) 779-9700,45.03244,-93.018705,"Mon - Fri: 9 am - 6 pm, Sat: 11 am - 3 pm",,,0
Cartridge World - Fort Lauderdale,,1418 S Andrews Avenue Fort ,,Lauderdale ,FL,33316,United States,(954) 522-5566,26.10379,-80.142561,Mon - Fri: 9 am - 5:30 pm,,,0
Cartridge World - Fort Myers,,13141 McGregor Blvd Suite 4 ,,Fort Myers ,FL,33919,United States,(239) 689-5123 or                   (239) 643-1024,26.55041,-81.912196,"Mon - Fri: 9 am - 5:00 pm, Sat : By Appointment only, Sun: Closed",,,0
Cartridge World - Windsor Heights,,801 73rd Street ,,Windsor Heights ,IA,50324,United States,(515) 564-7400,41.592433,-93.713042,"Mon - Fri: 9 am - 6 pm, Sat: 9 am - 2 pm",,,0
Cartridge World - Boynton Beach,,1777 N Congress Ave ,,Boynton Beach ,FL,33426,United States,(561) 732-0016,26.543909,-80.090865,"Mon - Fri: 9 am - 6 pm, Sat: 10 am - 5 pm",,,0
Cartridge World - Hialeah,,4226 W 16th Ave ,,Hialeah ,FL,33012,United States,(786) 618-9172,25.860177,-80.314703,,,,1
Cartridge World - Sioux Falls,,5013 S Louise Ave ,,Sioux Falls ,SD,57108,United States,(605) 362-1900,43.499726,-96.771124,"Mon - Fri: 9 am - 7 pm, Sat: 10 am - 5 pm",,,0
Cartridge World - Roswell,,10713 Alpharetta Highway ,,Roswell ,GA,30076,United States,(770) 594-1991,34.041486,-84.341851,,,,1
Cartridge World - Sandy Springs,,1100 Hammond Dr. ,,Atlanta ,GA,30328,United States,(770) 391-1100,33.919657,-84.352471,"Mon - Fri: 9:30 am - 6 pm, Sat: 10 am - 3 pm",,,0
Cartridge World - Lithonia,,8200 Mall Pkwy ,,Lithonia ,GA,30038,United States,(770) 484-4651,33.692472,-84.087541,"Mon - Fri: 9am - 6pm, Sat: 10am - 3pm, Sun: Closed",,,0
Cartridge World - Tucker,,4135 LaVista Rd ,,Tucker ,GA,30084,United States,(770) 414-0400,33.845027,-84.249758,Mon - Fri: 10 am - 6 pm,,,0
Cartridge World - Kendall,,3855 SW 137th Ave Suite 9 ,,Miami ,FL,33175,United States,(786) 558-9379  ,25.731135,-80.415402,,,,1
Cartridge World - Coral Springs,,10330 W Sample Road ,,Coral Springs ,FL,33065,United States,(954) 800-7512,26.272471,-80.263721,,,,1
Cartridge World - Douglasville,,4900 Stewart Mill Rd # C ,,Douglasville ,GA,30135,United States,(770) 949-4465,33.72412,-84.73599,,,,1
Cartridge World - Atlanta,,3220 Cobb Pkwy # 106 ,,Atlanta ,GA,30339,United States,(770) 850-3455,33.873584,-84.456331,"Mon - Fri: 9 am - 6 pm, Sat: 10 am - 3 pm",,,0
Cartridge World - Atlanta,,2221 Peachtree Road ,,Atlanta ,GA,30309,United States,(404) 231-5000,33.814573,-84.391152,"Mon - Fri: 10 am - 6 pm, Sat: Closed",,,0
Cartridge World - Virginia Beach,,4001 Virginia Beach Blvd. ,,Virginia Beach ,VA,23452,United States,(757) 340-7700,36.840579,-76.114067,Mon - Fri: 9 am - 7 pm,,,0
Cartridge World - Decatur,,2109 North Decatur Road ,,Decatur ,GA,30033,United States,(404) 321-3220,33.790226,-84.305599,"Mon - Fri: 9 am - 6 pm, Sat: 10 am - 6 pm",,,0
Cartridge World - Midlothian,,13924 Hull Street Road ,,Midlothian ,VA,23112,United States,(804) 639-6797,37.405547,-77.662891,"Mon - Fri: 9 am - 7 pm, Sat: 11 am - 3 pm",,,0
Cartridge World - Richmond,,11540 Busy Street ,,Richmond ,VA,23236,United States,(804) 423-6628,37.503166,-77.609579,,,,1
Cartridge World - Davenport,,5252 Utica Ridge Road ,,Davenport ,IA,52807,United States,(563) 344-0465,41.574343,-90.513574,"Mon - Thu: 9 am - 7 pm, Fri: 9 am - 6 pm, Sat: 10 am - 6 pm",,,0
"Cartridge World - of Indiana,LLC",,1052 Oakland Ave ,,Indiana ,PA,15701,United States,724-427-7050,40.61899,-79.159736,Mon - Fri: 8 am - 6:30 pm,,,0
Cartridge World - Muscatine,,2116 Park Avenue ,,Muscatine ,IA,52761,United States,(563) 288-1610,41.447334,-91.030458,"Mon - Fri: 9 am - 6 pm, Sat: 10 am - 4 pm",,,0
Cartridge World - Moline,,3924 38th Avenue ,,Moline ,IL,61265,United States,(309) 762-2465,41.472087,-90.481243,"Mon - Thu: 9 am - 7 pm, Fri: 9 am - 6 pm, Sat: 10 am - 6 pm",,,0
Cartridge World - Wentzville,,504 West Pearce Blvd. ,,Wentzville ,MO,63385,United States,(636) 887-4840,38.810155,-90.859462,,,,1
Cartridge World - Ballwin,,14248 Manchester Road ,,Ballwin ,MO,63011,United States,(636) 391-2278,38.591974,-90.504763,"Mon - Fri: 8:30 am - 7 pm, Sat: 10 am - 5 pm, Sun: 10 am - 5 pm",,,0
Cartridge World - Norton,,610 Trent Street NE ,,Norton ,VA,24273,United States,(276) 679-1665,36.939658,-82.606373,Mon - Fri: 9 am - 5:30 pm,,,0
Cartridge World - Altoona,,3420 Pleasant Valley Boulevard ,,Altoona ,PA,16602,United States,(814) 944-5554,40.483123,-78.401902,"Mon - Fri: 9 am - 6 pm, Sat: Closed, Sun: Closed",,,0
Cartridge World - Johnstown,,1309 Eisenhower Blvd. ,,Johnstown ,PA,15904,United States,(814) 262-7464,40.270054,-78.855613,"Mon - Fri: 10 am - 6 pm, Sat: 10 am - 2 pm",,,0
Cartridge World - Monroeville,,2671 Monroeville Boulevard ,,Monroeville ,PA,15146,United States,(412) 374-1700,40.43548,-79.782706,"Mon - Thu: 9 am - 6:30 pm, Fri: 9 am - 6 pm, Sat: 9 am - 4 pm",,,0
Cartridge World - Fairfield,,105 Route 46 ,,West Fairfield ,NJ,07004,United States,(973) 808-1903,40.869356,-74.309685,,,,1
Cartridge World - Washington,,824 Washington Corners ,,Washington ,MO,63090,United States,(636) 390-0550,38.539479,-91.005782,,,,1
Cartridge World - Anchorage,,2815 A ,,Dawson Anchorage ,AK,99503,United States,(907) 569-4465,61.194563,-149.89174,Mon - Fri: 9 am - 6 pm,,,0
Cartridge World - New Providence,,1310 Springfield Avenue ,,New Providence ,NJ,07974,United States,(908) 771-9696,40.705673,-74.406823,"Mon - Fri: 9:00 am - 5:00 pm, Sat: 9 am - 1 pm",,,0
Cartridge World - Pittston,,26 Laurel St ,,Pittston ,PA,18640,United States,(570) 883-0300,41.321602,-75.772294,"Mon - Fri: 9 am - 6:30pm, Sat: 10 am - 5 pm, Sun: 12 nooon- 4pm",,,0
Cartridge World - Rock Hill,,9532 Manchester Road ,,Rock Hill ,MO,63119,United States,(314) 963-3439,38.60906,-90.364627,"Mon - Fri: 8:30 am - 7 pm, Sat: 10 am - 5 pm",,,0
Cartridge World - Wayne,,1055 Hamburg Turnpike ,,Wayne ,NJ,07470,United States,(973) 696-2880,40.918052,-74.256963,Mon - Fri: 10 am - 6 pm,,,0
Cartridge World - Oshawa,,250 Taunton Road East Oshawa ON L1G 7T1 250 Taunton Road East Oshawa ,,ON,L1G,7T1,Canada,(905) 434-5353,43.934755,-78.870867,,,,1
Cartridge World - Edwardsville,,7A Gateway Shopping Center ,,Edwardsville ,PA,18704,United States,(570) 714-3900,41.257754,-75.89952,"Mon - Fri: 9 am - 6 pm, Sat: 10 am - 4 pm, Sun: Closed",,,0
Cartridge World - Kalamazoo,,4512 Stadium Drive ,,Kalamazoo ,MI,49008,United States,(269) 342-6331,42.270095,-85.646116,"Mon - Fri: 8 am - 7 pm, Sat: 10 am - 5 pm",,,0
Cartridge World - Middleton,,8608 University Green Suite # 5 ,,Middleton ,WI,53562,United States,(608) 831-9626,43.097758,-89.535136,"Mon - Fri: 9 am - 5 pm, Sat: 10 am - 2 pm",,,0
Cartridge World - Reno,,1300 East Plumb Lane ,,Reno ,NV,89502,United States,(775) 826-2465,39.502578,-119.784319,"Mon - Fri: 9 am - 5 pm, Sat: 10 am",,,0
Cartridge World - Oshkosh,,1171 S Washburn St ,,Oshkosh ,WI,54904,United States,(920) 230-1522,44.008167,-88.583609,"Mon - Fri: 9 am - 6 pm, Sat: 9 am - 2 pm",,,0
Cartridge World - Idaho Falls,,2064 E. 17th St Suite 2 ,,Idaho Falls ,ID,83404,United States,(208) 522-5017,43.482009,-111.992907,,,,1
Cartridge World - Spokane,,9502 North Newport Highway ,,Spokane ,WA,99218,United States,(509) 465-8900,47.744491,-117.405902,"Mon - Fri: 9:00 am - 6 pm, Sat: 10 am - 4 pm",,,0
Cartridge World - Moscow,,1432 S. Main St ,,Moscow ,ID,83843,United States,208-882-0206,46.721389,-117.001368,"Mon - Fri: 9 am - 6 pm, Sat: 12 pm - 4 pm",,,0
Cartridge World - Spokane,,4407 N. Division St. ,,Spokane ,WA,99207,United States,(509) 489-3000,47.698442,-117.412191,"Mon - Fri: 9 am - 6 pm, Sat: 10 am - 4 pm",,,0
Cartridge World - Cartridge World Of Newton,,55 Mill St. ,,Newton ,NJ,07860,United States,(973) 383-0204,41.061751,-74.755403,,,,1
Cartridge World - Coeur d'Alene,,3524 N. Government Way ,,Coeur d'Alene ,ID,83815,United States,(208) 930-4355,47.708181,-116.785158,"Mon - Fri: 9 am - 6 pm, Sat: 10 am - 4 pm",,,0
Cartridge World - Twin Falls,,647 Blue Lakes Blvd. North ,,Twin Falls ,ID,83301,United States,(208) 736-8667,42.573824,-114.460977,"Mon - Fri: 9 am - 6 pm, Sat: 3 pm - 5 pm",,,0
Cartridge World - Sinking Spring,,4886 Penn Ave ,,Sinking Spring ,PA,19608,United States,610-927-9202,40.325184,-76.050862,"Mon - Fri: 8 am - 6 pm, Sat: 9 am - 3 pm",,,0
Cartridge World - Clifton Park,,19 Clifton Country Road ,,Clifton Park ,NY,12065,United States,(518) 371-2207,42.860552,-73.780785,"Mon - Thu: 9 am - 6 pm, Fri: 9 am - 5 pm, Sat: 9 am - 1 pm",,,0
Cartridge World - Birmingham,,1401 Doug Baker Blvd ,,Birmingham ,AL,35242,United States,(205) 408-0506,33.407686,-86.668631,Mon - Fri: 8:30am-5:30pm,,,0
Cartridge World - Spokane Valley,,13216 E Sprague ,,Spokane Valley ,WA,99216,United States,(509) 927-1077,47.656779,-117.22674,"Mon - Fri: 9 am - 6 pm, Sat: 10 am - 4 pm",,,0
Cartridge World - Columbus,,2501 Whittlesey Blvd ,,Columbus ,GA,31904,United States,(706) 507-3943,32.539925,-84.954055,,,,1
Cartridge World - Vestavia Hills,,1360 Montgomery Hwy S # 108 ,,Vestavia Hills ,AL,35216,United States,(205) 822-6767,33.426588,-86.793855,Mon - Fri: 9 am - 6 pm,,,0
Cartridge World - Newnan,,90 Glenda Trace ,,Newnan ,GA,30265,United States,(770) 252-5255,33.410599,-84.68711,"Mon - Fri: 9 am - 6 pm, Sat: 10 am - 5 pm",,,0
Cartridge World - Conyers,,2239 HWY 20 SE ,,Conyers ,GA,30013,United States,(770) 929-9110,33.631568,-84.015167,"Mon - Fri: 9:00 am - 6:00 pm, Sat: 10:00 am - 3:00 pm, Sun: CLOSED",,,0
Cartridge World - Boise,,1701 W. State St. ,,Boise ,ID,83702,United States,(208) 363-7300,43.623891,-116.211701,"Mon - Fri: 9 am - 7 pm, Sat: 10 am - 5 pm",,,0
Cartridge World - Macon,,4524 Forsyth Rd Suite 309 ,,Macon ,GA,31210,United States,(478) 254-7906,32.871143,-83.704258,"Mon: 10:00 am - 5:00 pm, Tuesday: 10:00 am - 5:00 pm, Wednesday: 10:00 am - 5:00 pm, Thursday: 10:00 am - 5:00 pm, Friday: 10:00 am - 5:00 pm, Sat: Closed but can call in orders or with questions from 10-2pm, Sunday: Closed",,,0
Cartridge World - Nampa,,624 12th Ave. ,,South Nampa ,ID,83651,United States,(208) 465-1800 ext 3,43.562534,-116.572904,"Mon - Fri: 9 am - 7 pm, Sat: 10 am - 5 pm",,,0
Cartridge World - Meridian,,1742 E Fairview Rd ,,Meridian ,ID,83642,United States,(208) 884-0090,43.619483,-116.372707,"Mon - Fri: 9 am - 7 pm, Sat: 10 am - 5 pm",,,0
Cartridge World - Sterling,,3307 E. Lincolnway ,,Sterling ,IL,61081,United States,(815) 625-2345,41.809293,-89.657374,"Mon - Fri: 8:30 am - 6 pm, Sat: 9 am - 5 pm",,,0
Cartridge World - Franklin Lakes,,830 Franklin Ave ,,Franklin Lakes ,NJ,07417,United States,(201) 891-0990,41.024187,-74.210592,"Mon, Wed, Fri: 10 am - 6 pm, Tue: 9 am - 6 pm, Thu: 10 am - 8 pm, Sat: 10 am - 4 pm",,,0
Cartridge World - Business Direct,,106 E Ridgewood Ave ,,Paramus ,NJ,07652,United States,(201) 261-3131,40.96605,-74.070561,Mon - Fri: 9 am - 5 pm,,,0
Cartridge World - Mahwah,,76A Ramapo Valley Rd ,,Mahwah ,NJ,07430,United States,(201) 934-0020,41.102478,-74.152086,"Monday: 9:30am - 5pm, Tuesday: 9:30am - 5pm, Wednesday : 12pm - 6pm, Thursday: 9:30am - 5pm, Friday: 9:30am - 5pm, Sat: 10 am - 2 pm",,,0
Cartridge World - Winder,,17 Monroe Hwy ,,Winder ,GA,30680,United States,(678) 425-1599,33.980228,-83.713916,Mon - Fri: 9 am - 6 pm,,,0
Cartridge World - Monroe,,142 Martin Luther King Blvd ,,Monroe ,GA,30655,United States,(770) 207-6600,33.793947,-83.743593,"Mon - Fri: 9 am - 6 pm, Sat: 9 am - 1 pm",,,0
Cartridge World - Midland,,1112 S Saginaw Road ,,Midland ,MI,48640,United States,(989) 631-0716,43.618522,-84.218857,"Mon - Fri: 9 am - 6 pm, Sat: 10 am - 4 pm",,,0
Cartridge World - Grand Rapids,,2839 Breton Rd SE ,,Grand Rapids ,MI,49512,United States,(616) 532-1717,42.911278,-85.608075,"Mon - Fri: 9 am - 6 pm, Sat: 10 am - 5 pm",,,0
Cartridge World - Athens,,210 Hawthorne Avenue ,,Athens ,GA,30606,United States,(706) 354-1333,33.951573,-83.409639,Mon - Fri: 9 am - 5:30 pm,,,0
Cartridge World - Bay City,,206 North Euclid Avenue ,,Bay City ,MI,48706,United States,(989) 686-1491,43.603204,-83.914729,"Mon - Fri: 9 am - 6 pm, Sat: 10 am - 4 pm",,,0
Cartridge World - Augusta,,266 Bobby Jones Expressway ,,Augusta ,GA,30907,United States,(706) 228-6000,33.502503,-82.087258,"Mon - Fri: 9 am - 6 pm, Sat: 9 am - 1 pm",,,0
Cartridge World - Cromwell,,2 Willowbrook Road ,,Cromwell ,CT,06416,United States,(860) 632-9922,41.602848,-72.685146,,,,1
Cartridge World - Yorktown Heights,,1928 Commerce St ,,Yorktown Heights ,NY,10598,United States,(914) 245-8939,41.274554,-73.780185,"Mon: 9 am - 5 pm, Tues: 9 am - 5 pm, Wed: 9 am - 5 pm, Thurs: 9 am - 6 pm, Sat: 10 am - 3 pm, Sun: Closed",,,0
Cartridge World - Norwalk,,247 Connecticut Ave. ,,Norwalk ,CT,06854,United States,(203) 956-5915,41.103001,-73.434035,"Mon - Fri: 9 am - 7 pm, Sat: 10 am - 5 pm, Sun: 1 pm - 4 pm",,,0
Cartridge World - Billings,,2455 Central Ave ,,Billings ,MT,59102,United States,406.652.2445,45.770143,-108.579292,"Mon - Fri: 8 am - 6 pm, Sat: 9 am - 2 pm",,,0
Cartridge World - Huntington,,1200 East Jericho Turnpike ,,Huntington ,NY,11743,United States,(631) 271-0240,40.833595,-73.364058,Mon - Fri: 10 am - 6 pm,,,0
Cartridge World - Port Jefferson,,101 New York 112 Port ,,Jefferson ,NY,11776,United States,(631) 979-3292,40.922663,-73.06576,,,,1
Cartridge World - Williston Park ,,425 Willis Ave ,,Williston Park ,NY,11596,United States,(516) 742-1700,40.75509,-73.644785,"Mon - Fri: 9 am - 6 pm, Sat: 10 am - 5 pm",,,0
Cartridge World - Kinnelon,,2 Kiel Avenue ,,Kinnelon ,NJ,07405,United States,(973) 248-1010,41.002894,-74.358,"Mon - Fri: 9 am - 7 pm, Sat: 9 am - 5 pm",,,0
Cartridge World - Rockaway,,350 Route 46 ,,Rockaway ,NJ,07866,United States,(973) 586-9099,40.888127,-74.52485,"Mon - Fri: 10 am - 6 pm, Sat: 10 am - 4 pm",,,0
Cartridge World - Metuchen,,469 Main Street ,,Metuchen ,NJ,08840,United States,(848) 229-2390,40.54306,-74.362556,"Mon - Fri: 10 am. - 7 pm, Sat: 10 am - 5 pm",,,0
Cartridge World - Onalaska,,1220 Crossing Meadows Dr ,,Onalaska ,WI,54650,United States,(608) 783-2644,43.868621,-91.213296,"Mon - Fri: 9 am - 6 pm, Sat: By Appointment Only, Sun: Closed",,,0
Cartridge World - Lawrenceville,,911 DULUTH HWY ,,Lawrenceville ,GA,30043,United States,770-995-4465,33.969342,-84.023573,,,,1
Cartridge World - Fargo,,3501 13th Av. S. ,,Fargo ,ND,58103,United States,(701) 235-6200,46.86226,-96.837606,Saturday and Sunday: Closed,,,0
Cartridge World - Bismarck,,537 S 7th St. ,,Bismarck ,ND,58504,United States,(701) 751-3334,46.799835,-100.780616,"Mon - Thurs: 8:30 am - 6 pm, Fri: 8:30 am - 5 pm, Sat: 8:30 am -  Noon",,,0
Cartridge World - Eau Claire,,2919 Mall Drive ,,Eau Claire ,WI,54701,United States,(715) 839-9733,44.78907,-91.458905,Mon - Fri: 9 am - 6 pm,,,0
Cartridge World - Suwanee,,3320 Lawrenceville Suwanee Rd ,,Suwanee ,GA,30024,United States,(678) 482-4822,34.039162,-84.05383,"Mon - Fri: 8 am - 6 pm, Sat: 10 am - 3 pm",,,0
Cartridge World - Scarborough,,183 US RT 1 ,,Scarborough ,ME,04074,United States,(207) 510-7048,43.59527,-70.327659,Mon - Fri: 9:00 am - 6:00 pm,,,0
Cartridge World - Wisconsin Rapids,,4551 8th Street ,,South Wisconsin Rapids ,WI,54494,United States,(715) 424-0960,44.353512,-89.816478,"Mon - Fri: 9 am - 6 pm, Sat: 9 am - 2 pm",,,0
Cartridge World - Ashwaubenon,,2605 S. Oneida Street ,,Ashwaubenon ,WI,54304,United States,(920) 497-8669,44.479867,-88.070359,"Mon - Fri: 9 am - 6 pm, Sat: 9 am - 3 pm",,,0
Cartridge World - Stevens Point,,5370 Higway 10 East ,,Stevens Point ,WI,54482,United States,(715) 544-4945,44.524231,-89.520825,"Mon - Fri: 9 am - 6 pm, Sat: 9 am - 2 pm",,,0
Cartridge World - Appleton,,2011 N. Richmond St. ,,Appleton ,WI,54913,United States,(920) 954-7252,44.280787,-88.416106,"Mon - Fri: closed, Sat - Sun: closed",,,0
Cartridge World - Johns Creek,,10475 Medlock Bridge Rd ,,Johns Creek ,GA,30097,United States,(770) 232-9990,34.034126,-84.185072,"Mon - Fri: 9 am - 6 pm, Sat: 9 am - 1 pm",,,0
Cartridge World - Brick,,2791 Hooper Ave ,,Brick ,NJ,08723,United States,(732) 920-1774,40.057901,-74.136405,"Mon - Fri: 9 am - 6 pm, Sat: 12 am - 4 pm",,,0
