store_name,store_number,address,address2,city,state,zip_code,country,phone_number,latitude,longitude,store_hours,store_type,other_fields,coming_soon
2B MOM,2586,3150 18th St Ste 106 ,,San Francisco ,California,94110,United States,(415) 826-7000 ,37.7627026000,-122.4142811000,,,,0
5 Seas,2587,224 Marine Ave ,,Balboa Island ,California,92662,United States,(949) 673-1955 ,33.6068146000,-117.8896402000,,,,0
A Line,2743,5375 Landmark Place Bldg F1 # 107 ,,Greenwood Village ,Colorado,80111,United States,(303) 773-8200 ,39.6188111000,-104.9011369000,,,,0
A. HOOPER & CO.,3113,4601 W. Fwy 216 ,,Fort Worth ,Texas,76107,United States,,32.7376150000,-97.3840729000,,,,0
ABEJAS,3114,5600 Kirby S-4 ,,Houston ,Texas,77005,United States,(713) 522-3025 ,29.7217850000,-95.4189924000,,,,0
ALIROSE BOUTIQUE,2588,228 F Street ,,Eureka ,California,95501,United States,(707) 445-2727 ,40.8038397000,-124.1664584000,,,,0
Alixandra Collections,2866,28 East First Street ,,Hinsdale ,Illinois,60521,United States,(630) 789-0088 ,41.8013550000,-87.9277819000,,,,0
Amor,2919,500 Settlers Trace Blvd. Suite 4 ,,Lafayette ,Louisiana,70508,United States,(225) 235-1172 ,30.1638249000,-92.0474460000,,,,0
Andrew Davis,2900,101 West Kirkwood Ave ,,Bloomington ,Indiana,47403,United States,(812) 336-0200 ,39.1661884000,-86.5342322000,,,,0
Angel,2589,1221 coast villiage ,,Santa Barbara ,California,93108,United States,(805) 565-1599 ,34.4207978000,-119.6437326000,,,,0
Angela,2590,1129 Chestnut St ,,Menlo Park ,California,94025,United States,(650) 323-7410 ,37.4518432000,-122.1850636000,,,,0
Angels Everywear,2591,26 N. Baldwin Ave ,,Sierra Madre ,California,91024,United States,(626) 355-0024 ,34.1624846000,-118.0522006000,,,,0
Anthropologie,2577,Kierland Commons 15210 N. Scottsdale Rd. ,,Scottsdale ,Arizona,85254,United States,,33.6245555000,-111.9274018000,,,,0
Anthropologie,2578,Fashion Square 70014 E. Camelback Rd. ,,Scottsdale ,Arizona,85851,United States,,33.5032974000,-111.9300816000,,,,0
Anthropologie,2843,Lenox Square Mall 3393 Peachtree Road NE ,,Atlanta ,Georgia,30326,United States,,33.8466715000,-84.3619433000,,,,0
Anthropologie,2592,750 Hearst Avenue ,,Berkeley ,CA,94710,United States,,37.8687790000,-122.2996782000,,,,0
Anthropologie,2593,1911 Calle Barcelona # 4-158 ,,Carlsbad ,CA,92009,United States,,33.0714485000,-117.2664602000,,,,0
Anthropologie,2594,The Village at Corte Madera 1872 Redwood Highway ,,Corte Madera ,CA,94925-1235,United States,,37.9357712000,-122.5156838000,,,,0
Anthropologie,2595,Americana at Brand 519 Americana Way ,,Glendale ,CA,91210,United States,,34.1437739000,-118.2575825000,,,,0
Anthropologie,2596,The Grove Shopping Center 6302 W. 3rd St. # J ,,Los Angeles ,CA,90036,United States,,34.0664817000,-118.3520389000,,,,0
Anthropologie,2597,Fashion Island 825 Newport Center Dr. ,,Newport Beach ,CA,92660,United States,,33.6166816000,-117.8785255000,,,,0
Anthropologie,2598,La Jolla University Towne Center 4525 La Jolla Village Drive # D-11 ,,UTC San Diego ,CA,92122,United States,,32.8563846000,-117.2029363000,,,,0
Anthropologie,2599,San Francisco Shopping Center 881 Market St. ,,San Francisco ,CA,94102,United States,,37.7843776000,-122.4075907000,,,,0
Anthropologie,2600,3rd Street Promenade 1402 Third St. ,,Promenade Santa Monica ,CA,90401,United States,,34.0126379000,-118.4951550000,,,,0
Anthropologie,2601,The Oaks 504 W. Hillcrest Dr. # R 13-16 ,,Thousand Oaks ,CA,91360,United States,,34.1870050000,-118.8874635000,,,,0
Anthropologie,3115,601 N. Lamar Blvd # 100-A ,,Austin ,Texas,78703,United States,,30.2717461000,-97.7532676000,,,,0
Anthropologie,3116,11410 Century Oaks Ter # C-5 ,,Domain Austin ,Texas,78758,United States,,30.3870686000,-97.7036561000,,,,0
Anthropologie,3117,8688 North Central Expressway ,,Dallas ,Texas,75225,United States,,32.8684963000,-96.7707288000,,,,0
Anthropologie,3118,100 Highland Park Village # 105 ,,Dallas ,Texas,75205,United States,,32.8358080000,-96.8047230000,,,,0
Anthropologie,3119,1540 S University Drive ,,Fort Worth ,Texas,76107,United States,,32.7291800000,-97.3622201000,,,,0
Anthropologie,3120,4066 Westheimer Rd ,,Houston ,Texas,77027,United States,,29.7420978000,-95.4471454000,,,,0
Anthropologie,3121,803 Town & Country Lane ,,Houston ,Texas,77024,United States,,29.7788064000,-95.5581095000,,,,0
Anthropologie,3122,The Shops At Willowbend 6121 W. Park Blvd # B-212 ,,Plano ,Texas,75093,United States,,33.0386278000,-96.8243812000,,,,0
Anthropologie,2867,The Shops on Fremont 1548 N. Fremont St ,,Chicago ,Illinois,60642,United States,,41.9101099000,-87.6511230000,,,,0
Anthropologie,3123,15901 La Cantera Pkwy Bldg 13 ,,San Antonio ,Texas,78256,United States,,29.6104161000,-98.6076987000,,,,0
Anthropologie,3124,1201 Lake Woodlands Dr. # 3012 ,,Spring ,Texas,77380,United States,,30.1669391000,-95.4607693000,,,,0
Anthropologie,3181,9200 Stony Point Road ,,Richmond ,Virginia,23235,United States,,37.5415279000,-77.5660095000,,,,0
Anthropologie,3182,1207 Emmet Street N. ,,Charlottesville ,Virginia,22903,United States,(434) 295-1749 ,38.0535717000,-78.4989306000,,,,0
Anthropologie,3183,8101 Tysons Corner Center ,,Mclean ,Virginia,22102,United States,,38.9164418000,-77.2214674000,,,,0
Anthropologie,3201,2520 NE University Village Street # 120 ,,Seattle ,Washington,98105,United States,,47.6632791000,-122.2994489000,,,,0
Anthropologie,3202,1509 Fifth Avenue ,,Seattle ,Washington,98101,United States,,47.6111192000,-122.3364698000,,,,0
Anthropologie,3222,702 North Midvale Boulevard Bldg C ,,Madison ,Wisconsin,53705,United States,,43.0733473000,-89.4530332000,,,,0
Anthropologie,3223,Milwaukees Historic Third Ward 301 N. Broadway Milwaukee ,,,,,United States,,43.0341363000,-87.9076324000,,,,0
Anthropologie,2970,799 Boylston Street ,,Boston ,Massachusetts,02116,United States,,42.3492126000,-71.0817367000,,,,0
Anthropologie,2999,2800 W. Big Beaver Road # Q-107 ,,Troy ,Michigan,48084,United States,,42.5630759000,-83.1843540000,,,,0
Anthropologie,2746,1805 29th St. # 1118 ,,Boulder ,CO,80301,United States,,40.0187817000,-105.2564546000,,,,0
Anthropologie,2747,Cherry Creek Shopping Center 3001 E. 1st Avenue # 1134 ,,Denver ,CO,80206,United States,,39.7183035000,-104.9738035000,,,,0
Anthropologie,2763,480 West Putnam Avenue ,,Greenwich ,Connecticut,06830,United States,(203) 422-5421 ,41.0188194000,-73.6442932000,,,,0
Anthropologie,2764,1365 Post Road East ,,Westport ,Connecticut,06880,United States,(203) 259-0043 ,41.1391310000,-73.3174962000,,,,0
Anthropologie,2789,330 San Lorenzo Ave ,,Coral Gables ,Florida,33146,United States,,25.7320309000,-80.2607586000,,,,0
Anthropologie,2790,4751 River City Dr. # P-02 ,,Jacksonville ,FL,32246,United States,,30.2563526000,-81.5250002000,,,,0
Anthropologie,2791,1108 Lincoln Rd. ,,Miami Beach ,FL,33139,United States,,25.7903628000,-80.1412117000,,,,0
Anthropologie,2792,4200 Conroy Rd. S. G181 ,,Orlando ,FL,32839,United States,,28.4846655000,-81.4310317000,,,,0
Anthropologie,2793,705 S. Dakota Ave. ,,Tampa ,FL,33606,United States,,27.9369149000,-82.4761403000,,,,0
Anthropologie,3052,1500 Washington Rd. ,,Mount Lebanon ,Pennsylvania,15228,United States,(412) 561-4000 ,40.3572130000,-80.0520951000,,,,0
Anthropologie,3053,Rittenhouse Square 1801 Walnut St ,,Philadelphia ,Pennsylvania,19103,United States,,39.9504349000,-75.1707939000,,,,0
Apparel Goddess Inc/Chez Nous,2748,635 S Lincoln Ave. ,,Steamboat Springss ,Colorado,80487,United States,(970) 879-6995 ,40.4749052000,-106.8263372000,,,,0
Archipelago,3246,4830 Wharf Parkway suite G-108 ,,Orange Beach ,Alabama,36561,United States,(251)980-2426 ,30.2941854000,-87.6296599000,,,,0
Aritzia,2602,San Francisco Shopping Center 865 Market St. ,,San Francisco ,California,94103,United States,(415) 512-7026 ,37.7841180000,-122.4064352000,,,,0
Aritzia,2603,Westfield Valley Fair 2855 Stevens Creek Blvd ,,Santa Clara ,California,95050,United States,(408) 615-0798 ,37.3253266000,-121.9453801000,,,,0
Aritzia,2868,Water Tower Place 835 North Michigan Avenue ,,Chicago ,Illinois,60611,United States,(312) 867-9230 ,41.8980179000,-87.6229021000,,,,0
Aritzia,2869,2171 Northbrook Court ,,Northbrook ,Illinois,60062,United States,(847) 205-3672 ,42.1504552000,-87.8182269000,,,,0
Aritzia,3203,101 Bellevue Square ,,Bellevue ,Washington,98004,United States,(425) 450-2287 ,47.6165721000,-122.2041692000,,,,0
Ascot Shop,2604,7750 Girard Ave. ,,La Jolla ,California,92037,United States,(858) 454-4222 ,32.8444266000,-117.2741258000,,,,0
At Ease,2605,Crystal Cove Promenade 8056 E. Pacific Coast Hwy ,,Newport Beach ,California,92651,United States,(949) 759-7979 ,33.5563145000,-117.7725200000,,,,0
Atlas,2606,1356 North Main Street ,,Walnut Creek ,California,94596,United States,(925) 465-6108 ,37.8986189000,-122.0602818000,,,,0
Atrium,2794,1931 Collins Avenue ,,Miami Beach ,Florida,33139,United States,(212) 473-3980 ,25.7953902000,-80.1290306000,,,,0
Augusta Twenty,3084,20 Augusta Street ,,Greenville ,Carolina,29601,United States,(864) 233-2600 ,34.8439073000,-82.4050002000,,,,0
AVALON CLOTHING - WORLD PASSAGES,2744,675 LIONSHEAD PL ,,VAIL ,Colorado,81657,United States,(970) 476-4112 ,39.6433750000,-106.3884470000,,,,0
AVALONG CLOTHING - WORLD PASSAGES,2745,61 AVONDALE LN ,,BEAVER CREEK ,Colorado,81620,United States,(970) 845-9700 ,39.6046562000,-106.5169535000,,,,0
Azul,2765,270 Main Street ,,Old Saybrook ,Connecticut,06475,United States,(860) 388-0016 ,41.2910780000,-72.3758269000,,,,0
B Chic,2766,78 Old Ridgefield Rd. ,,Wilton ,Connecticut,06897,United States,(203) 210-7037 ,41.1942840000,-73.4321464000,,,,0
Baer's Denim Company,3099,4540 Poplar Ave ,,Memphis ,Tennessee,38117,United States,(901) 684-6001 ,35.1103341000,-89.9019570000,,,,0
Bahama Shop,3184,1564 Laskin Road ,,Virginia Beach ,Virginia,23451,United States,(757) 404-4221 ,36.8526649000,-76.0168492000,,,,0
Bairstow Iii.Inc Dba Rebel,2750,5910 S. University Blvd. C 14 ,,Greenwood Village ,Colorado,80121,United States,(720) 283-1004 ,39.6085985000,-104.9582083000,,,,0
Bardot,2607,2043 West Cliff Dr. Suite 103 ,,Newport Beach ,California,92660,United States,(949) 515-2710 ,33.6274659000,-117.9082443000,,,,0
Barneys,2579,14500 N. Scottsdale Road ,,Scottsdale ,Arizona,85251,United States,,33.5093338000,-111.9261588000,,,,0
Barneys,2608,869 Americana Way ,,Glendale ,California,91210,United States,,34.1444167000,-118.2554939000,,,,0
Barneys,2609,9570 Wilshire Boulevard ,,Beverly Hills ,CA,90212,United States,,34.0667603000,-118.4026831000,,,,0
Barneys,2610,77 O'Farrell Street ,,San Francisco ,CA,94108,United States,,37.7867016000,-122.4059058000,,,,0
Barneys,2611,395 Santa Monica Place Suite # 146 ,,Santa Monica ,CA,90401,United States,,34.0160554000,-118.4953061000,,,,0
Barneys,2870,2209-11 North Halsted Street ,,Chicago ,Illinois,60614,United States,,41.9221651000,-87.6483176000,,,,0
Barneys,2871,15 East Oak Street ,,Chicago Chicago ,Illinois,60611,United States,,41.9004783000,-87.6276266000,,,,0
Barneys,2971,100 Huntington Avenue ,,Boston ,Massachusetts,02116,United States,,42.3470290000,-71.0778969000,,,,0
Barneys,2786,3040 M Street N.W. ,,washington ,Columbia,20007,United States,(720) 283-1004 ,38.9049458000,-77.0604366000,,,,0
Barneys,2795,832 Collins Avenue ,,Miami Beach ,Florida,33139,United States,,25.7788682000,-80.1323954000,,,,0
Barneys,3054,1802 Walnut St ,,Philadelphia ,Pennsylvania,19103,United States,,39.9501343000,-75.1707160000,,,,0
Bay Window,3126,705 HWY 35 N ,,Rockport ,Texas,78382,United States,(361) 790-7025 ,28.0294867000,-97.0480063000,,,,0
Beaufort Clothing Company,3085,723 Bay Street ,,Beaufort ,Carolina,29902,United States,(843) 524-7118 ,32.4307243000,-80.6701123000,,,,0
Beckley,2612,8128 W. 3rd Street ,,Los Angeles ,California,90048,United States,,34.0720388000,-118.3669856000,,,,0
Beecroft & Bull,3185,3198 Pacific Ave ,,Virginia Beach ,Virginia,23451,United States,(757) 422-1961 ,36.8603216000,-75.9802519000,,,,0
Behind The Glass,2564,168 East Magnolia Ave. ,,Auburn ,Alabama,36830,United States,(334) 826-1133 ,32.6065349000,-85.4817178000,,,,0
Bella Boutique,2872,2941 Montvale Drive ,,Springfield ,Illinois,62704,United States,(217) 726-6500 ,39.7674955000,-89.6936808000,,,,0
Bella James,2613,1151 Lincoln Ave ,,San Jose ,California,95125,United States,(408) 292-0000 ,37.3075366000,-121.9006573000,,,,0
Belle Mie,2873,5901 N. Prospect Avenue Store # 12 ,,Peoria ,Illinois,61614,United States,(309) 693-7777 ,40.7658303000,-89.5969060000,,,,0
Berks,3082,272 Thayer Street ,,Providence Rhode ,island,02906,United States,(401) 831-0174 ,41.8293140000,-71.4010020000,,,,0
Betsy Fisher,2784,1224 Connecticut Avenue NW ,,NW Washington ,DC,20036,United States,,38.9067349000,-77.0420759000,,,,0
Bivouac,3243,336 South State Street ,,Ann Arbor ,Michigan,48104,United States,734-761-6207,42.2781746000,-83.7410397000,,,,0
Blink,3056,136 West Gay Street ,,West Chester ,Pennsylvania,19380,United States,(610) 431-2212 ,39.9594927000,-75.6069634000,,,,0
Bliss,3186,134 Lewis Ave. ,,Salem ,Virginia,24153,United States,(540) 354-1309 ,37.2936870000,-80.0639560000,,,,0
Bliss,2931,58 Exchange St ,,Portland ,Maine,4101,United States,(207) 879-7125 ,43.6573992000,-70.2545642000,,,,0
Bliss - Ca,2614,167 Avenida Del Mar ,,San Clemente ,California,92672,United States,(949) 492-0084 ,33.4259216000,-117.6146707000,,,,0
Blond Genius,2906,165 S. Jordan Creek Pkwy Suite # 130 ,,West Des Moines ,Iowa,50266,United States,(515) 223-9907 ,41.5669641000,-93.8106359000,,,,0
Blonde,2615,71800 Hwy 111 A161 ,,Rancho Mirage ,California,92270,United States,(760) 836-3366 ,33.7401032000,-116.4095880000,,,,0
Bloom,3204,4779 Pt Fosdick DR NW ,,HARBOR ,Washington,98335,United States,(253) 858-5554 ,47.3012767000,-122.5773907000,,,,0
Blue Skies Clothing,2625,466 Main Street ,,Placerville ,California,95664,United States,,38.7294298000,-120.8002063000,,,,0
Blue Sky Outfitter,2845,18 W. Main St ,,Cartersville ,Georgia,30120,United States,(770) 607-5222 ,34.1648070000,-84.7959361000,,,,0
Bluebird Boutique,3014,3909 W. 50th Street ,,Edina ,Minnesota,55424,United States,(952) 746-8675 ,44.9123109000,-93.3295915000,,,,0
BLUES JEAN BAR,2749,1101 PEARL ST ,,BOULDER ,Colorado,80302,United States,(303) 444-4231 ,40.0178749000,-105.2811146000,,,,0
Blush,2751,1411 Larimer Suite 102 ,,Denver ,Colorado,80202,United States,(303) 399-7779 ,39.7477233000,-104.9998164000,,,,0
Blush-Ak,2576,720 D STREET ,,Anchorage ,Alaska,99501,United States,(907) 677-8967 ,61.2154694000,-149.8894447000,,,,0
Bocaman,2626,1020 Swathmore Ave ,,Pacific Palisades ,California,90272,United States,,34.0478072000,-118.5250975000,,,,0
Bohemian,3086,707 Saluda Avenue ,,Columbia ,Carolina,29205,United States,(803) 256-0629 ,33.9988313000,-81.0180098000,,,,0
Bolufe- Mizner Park,2801,326 Plaza Real ,,Mizner Park ,Florida,33432,United States,(561) 361-8800 ,26.3401581000,-80.0814292000,,,,0
Bon Chic,2565,1604 Hughes Road ,,Madison ,Alabama,35758,United States,,34.7509122000,-86.7413494000,,,,0
Boogaloos Boutique,2846,246 W. Ponce De Leon Ave. ,,Decatur ,Georgia,30030,United States,(404) 373-3237 ,33.7753300000,-84.2996511000,,,,0
Boogaloos Boutique,2847,705 Town Blvd Suite S-530 ,,Atlanta ,Georgia,30319,United States,(404) 343-0040 ,33.8700818000,-84.3371577000,,,,0
Bop,3225,101 East Badger Road ,,Madison ,Wisconsin,53713,United States,,43.0383130000,-89.3827046000,,,,0
Boutique 120,2627,120 W Standley St ,,Ukiah ,California,95482,United States,(707) 472-0120 ,39.1506934000,-123.2084962000,,,,0
Boutique Bella,3100,2817 West End Ave. ,,Nashville ,Tennessee,37203,United States,(615) 467-1471 ,36.1441958000,-86.8126156000,,,,0
Boyds,3059,1818 Chestnut ,,Philadelphia ,Pennsylvania,19103,United States,(215) 564-9000 ,39.9513669000,-75.1712811000,,,,0
BRIDGETTE'S,3125,4815 Old Bullard Road ,,TYLER ,Texas,75701,United States,(903) 561-3136 ,32.2966619000,-95.3053781000,,,,0
Brooke Heather,3127,2020 West Gray Street ,,Houston ,Texas,77019,United States,(713) 520-0211 ,29.7534426000,-95.4092426000,,,,0
BROTHER'S,2920,101 ARNOULD BLVD ,,LAFAYETTE ,Louisiana,70506,United States,(337) 984-7749 ,30.2017583000,-92.0540388000,,,,0
Brownstein Smith,3101,310 Carriage House Drive ,,Jackson ,Tennessee,38305,United States,(731) 664-1842 ,35.6670770000,-88.8410970000,,,,0
Bucks & Does,2628,3906 Sunset Blvd ,,Los Angeles ,California,90029,United States,(323) 515-7385 ,34.0916799000,-118.2800190000,,,,0
Buka,3060,120 North Main St ,,Shavertown ,Pennsylvania,18708,United States,(570) 696-4277 ,41.3190940000,-75.9399141000,,,,0
Bump Bellevue,3205,1075 Bellevue Sq ,,Bellevue ,Washington,98004,United States,(425) 454-2867 ,47.6198893000,-122.2027853000,,,,0
Burlap and Bourbon,3061,530 Spruce Street ,,Scranton ,Pennsylvania,18505,United States,(570) 575-8279 ,41.3976560000,-75.6089810000,,,,0
Butch Blum,3206,1408 5th Ave ,,Seattle ,Washington,98101,United States,(206) 622-5760 ,47.6100540000,-122.3346425000,,,,0
By Design Denim Wear,2629,17356 Colima Rd ,,Rowland Heights ,California,91748,United States,(626) 465-4630 ,33.9903336000,-117.9284171000,,,,0
Cabana,3129,4711 W. Lovers Lane ,,Dallas ,Texas,75209,United States,(214) 674-9928 ,32.8514905000,-96.8286953000,,,,0
Cake Boutique,3174,577 Main Street ,,Park City ,Utah,84060,United States,(435) 649-1256 ,40.6454308000,-111.4970639000,,,,0
Cameron Marks Boutique,2630,402 Ingalls Street # 7 ,,Santa Cruz ,California,95060,United States,(831) 458-3080 ,36.9590474000,-122.0485271000,,,,0
Canopy Blue,3207,3121 E. Madison Street Suite # 103 ,,Seattle ,Washington,98112,United States,(206) 720-1115 ,47.6262604000,-122.2914375000,,,,0
Caren And Company,2973,682 Bliss Rd ,,Longmeadow ,Massachusetts,01106,United States,(413) 567-4005 ,42.0568115000,-72.5575800000,,,,0
Carlton Drew,2631,8016 Melrose Ave. ,,Los Angeles ,California,90046,United States,(323) 782-1434 ,34.0835743000,-118.3644008000,,,,0
Carolina Boutique,2632,76 Throckmorton Ave. ,,Mill Valley ,California,94941,United States,(415) 381-2554 ,37.9066567000,-122.5480652000,,,,0
Carriages,2921,7606 Old Hammond HWY ,,Baton Rouge ,Louisiana,70809,United States,(225) 926-6892 ,30.4307399000,-91.1090169000,,,,0
Carriere,2633,982 S. Westlake Blvd. Ste # 6 ,,Westlake Village ,California,91361,United States,(805) 497-6601 ,34.1520849000,-118.8271679000,,,,0
Caruso Caruso,3244,166 West Maple Road ,,Birmingham ,Michigan,48009,United States,248-645-5151,42.5468925000,-83.2157748000,,,,0
Catherine's,2907,7 S. Dubuque Street ,,Iowa City ,Iowa,52240-3902,United States,(319) 338-2210 ,41.6609210000,-91.5334266000,,,,0
Cathy Cross,2974,151 Main Street ,,Northhampton ,Massachusetts,01060,United States,(413) 586-9398 ,42.3187844000,-72.6313126000,,,,0
Chalk,2878,2611 Praire Avenue ,,Evanston ,Illinois,60201,United States,,42.0647895000,-87.6999694000,,,,0
Chel Bella,2975,28 South St ,,Hingham ,Massachusetts,02043,United States,(781) 749-1219 ,42.2420920000,-70.8891291000,,,,0
Chloe Dillon,3208,2345 Eastlake Ave East ,,Seattle ,Washington,98102,United States,(206) 457-5087 ,47.6411328000,-122.3262505000,,,,0
Cho On Main,3087,127 E Main st ,,Lexington ,Carolina,29072,United States,(803) 356-1111 ,33.9814921000,-81.2369633000,,,,0
Christine'S / Lolo'S,2634,,,Bakersfield ,California,93309,United States,(661) 834-3068 ,35.3515611000,-119.0576298000,,,,0
Ciao Bella,3209,330 Pacific Ave ,,CHEHALIS ,Washington,98532,United States,(360) 345-1085 ,46.6566392000,-122.9655688000,,,,0
Cinnamon Boutique,2879,2104 West Roscoe ,,Chicago ,Illinois,60618,United States,(773) 750-3696 ,41.9433835000,-87.6812090000,,,,0
Circe,2917,3630 Brownsboro Road ,,Louisville ,Kentucky,40207,United States,(502) 894-0095 ,38.2648290000,-85.6692783000,,,,0
City Girl,2635,14 W Pine St ,,Lodi ,California,95240,United States,(209) 339-9838 ,38.1339450000,-121.2730889000,,,,0
Ck Collection,2566,326 Fairhope Ave. ,,Madison ,Alabama,35758,United States,(251) 990-9001 ,30.6221274000,-87.8963934000,,,,0
Clover,2636,2756 Rowena Ave ,,Los Angeles ,California,90039,United States,(323) 661-4142 ,34.1072224000,-118.2640121000,,,,0
Cole Couture,2803,2086-B Thomasville Road ,,Tallahassee ,Florida,32308,United States,(850) 553-3327 ,30.4706300000,-84.2667450000,,,,0
COLLEGIATE SHOPPE,3128,15 S. Plaza ,,Paris ,Texas,75460,United States,(903) 784-4369 ,33.6606460000,-95.5565245000,,,,0
Colorado Co-Op,2752,315 N Tejon St. ,,Colorado Springs ,Colorado,80903,United States,(719) 389-0696 ,38.8389213000,-104.8231457000,,,,0
Convert,2637,556 Hayes St. ,,San Francisco ,California,94102,United States,(415) 252-7991 ,37.7767868000,-122.4252925000,,,,0
Convert,2638,1809B 4th St # B ,,Berkley ,California,94710,United States,(510) 649-9759 ,37.8696673000,-122.3003887000,,,,0
Copper Penny,3088,3085 Howard Ave ,,Myrtle Beach ,Carolina,29577,United States,(843) 839-1380 ,33.6693050000,-78.9398427000,,,,0
Copper Penny- Savannah,2848,22 west broughton st ,,Savannah ,Georgia,31401,United States,(843) 881-3497 ,32.0793132000,-81.0924946000,,,,0
Coverings,2639,770 Higuera St. ,,San Luis Obispo ,California,93401,United States,(805) 549-8373 ,35.2796715000,-120.6635222000,,,,0
Cues,3210,108 N. Washington Suite 104 ,,Spokane ,Washington,99201,United States,(509) 838-5837 ,47.6582809000,-117.4177737000,,,,0
Curve,2640,154 N. Robertson ,,Los Angeles ,California,90048,United States,(310) 360-8008 ,34.0768275000,-118.3835496000,,,,0
Curve (Miami),2804,2381 Collins Ave ,,Miami ,Florida,33139,United States,(305) 532-6722 ,25.7996254000,-80.1272566000,,,,0
Curve (SF),2641,2360 Fillmore st ,,San Francisco ,California,94115,United States,(415) 885-4200 ,37.7915231000,-122.4341791000,,,,0
Daisy Duke,3130,7320 Milwaukee Ave ,,Lubbock ,Texas,79429,United States,,33.5220611000,-101.9570328000,,,,0
Deborah James/ Shuart Enterprises Inc.,2805,402 VIA DE PALMAS # 85 ,,Boca Raton ,Florida,33432,United States,(561) 347-6015 ,26.3464243000,-80.0845627000,,,,0
Deborah Kent,2806,2120 S. Dale Mabry ,,Tampa ,Florida,33629,United States,(813) 259-1150 ,27.9265308000,-82.5055470000,,,,0
Delicious,2642,5000 Roberts Lake Rd ,,Rohnert Park ,California,94928,United States,(707) 586-7884 ,38.3647351000,-122.7101658000,,,,0
Denim Bar (Shaws),3187,1101 S. Joyce St ,,Arlington ,Virginia,22202,United States,(703) 414-8202 ,38.8641886000,-77.0630085000,,,,0
Dennis & CO,3236,205 Florida PL SE ,,Fort Walton Beach ,FL,32548,United States,850-226-4380,30.4048055000,-86.6059239000,,,,0
Diani,2643,1324 State Street Suite B ,,Santa Barbara ,California,93101,United States,(877) 342-6474 ,34.4251625000,-119.7062570000,,,,0
Diva'S & Devils,2807,1300 north Monroe Street ,,Tallahasse ,Florida,32303,United States,(850) 580-6662 ,30.4565314000,-84.2808579000,,,,0
Divine Style & Soles,2644,1325 Park St. ,,Paso Robles ,California,93446,United States,(805) 239-8787 ,35.6284285000,-120.6906084000,,,,0
Don Alans,2808,401 S. Palafox St. ,,Pensacola ,Florida,32502,United States,(850) 439-1762 ,30.4080127000,-87.2145169000,,,,0
"Down To Earth, Fl",2809,12921 SW 1st Rd Suite 119 ,,Newberry ,Florida,32669,United States,(352) 328-6562 ,29.6564248000,-82.4794805000,,,,0
Dragonfly,2567,4310 Old Shell Rd # A ,,Mobile ,Alabama,36608,United States,(251) 343-4004 ,30.6986310000,-88.1415500000,,,,0
Dream A Little Dream,2580,250 S. Madison Ave ,,Yuma ,Arizona,85364,United States,(928) 726-9393 ,32.7231907000,-114.6198652000,,,,0
E Street Denim,2881,908 Greenbay Road ,,Winnetka ,Illinois,60093,United States,(847) 784-8805 ,42.1161890000,-87.7436200000,,,,0
E. Street Denim,2882,1876 First Street ,,Highland Park ,Illinois,60035,United States,(847) 433-0050 ,42.1864420000,-87.8005863000,,,,0
Ecco,3177,81 Church Street ,,Burlington ,Vermont,05401,United States,(802) 860-2220 ,44.4780660000,-73.2128420000,,,,0
Edge Shop,2645,145 E Prospect Ave # 102 ,,Danville ,California,9526,United States,(925) 831-8500 ,37.8219202000,-121.9990972000,,,,0
Eg Page,2646,2513 Mission St. ,,San Marino ,California,91108,United States,(626) 568-9905 ,34.1164587000,-118.1390135000,,,,0
Elegance By Edythe,3062,6904-16 Bustleton Avenue ,,Philadelphia ,Pennsylvania,19149,United States,(215) 624-5060 ,40.0420430000,-75.0644370000,,,,0
Elizabeth & Prince,2647,78075 Main St. # 101 ,,La Quinta ,California,92253,United States,(760) 564-4100 ,33.6774580000,-116.3019947000,,,,0
Elizabeth Lee,2976,234 Boston Post Rd ,,Wayland ,Massachusetts,01778,United States,(781) 771-0668 ,42.3632940000,-71.3618120000,,,,0
Ella's,3004,209 East Front St. ,,Traverse City ,Michigan,49684,United States,(231) 947-9401 ,44.7640803000,-85.6205514000,,,,0
Elle Boutique,3103,5508 Kingston Pike Suite 130 ,,Knoxville ,Tennessee,37919,United States,(865) 851-7555 ,35.9346866000,-83.9932224000,,,,0
Elyse Walker,2648,15306 Antioch St. ,,Pacific Palisades ,California,90272,United States,(310) 230-8882 ,34.0468585000,-118.5261974000,,,,0
EM'S,2922,246 METAIRIE ROAD ,,METAIRIE ,Louisiana,70005,United States,(504) 834-2795 ,29.9810639000,-90.1273637000,,,,0
Emmaline,3104,400 Main Street Suite 130 ,,Franklin ,Tennessee,37064,United States,(615) 791-6205 ,35.9247068000,-86.8705722000,,,,0
Encore,2849,186 East Clayton ,,Athens ,Georgia,30601,United States,(706) 354-8826 ,33.9581682000,-83.3759542000,,,,0
EPIC,3131,3699 McKinney Ave. # 105B ,,Dallas ,Texas,75204,United States,(214) 528-3742 ,32.8079368000,-96.7968794000,,,,0
Ereloom,2649,110 Matheson St. ,,Healdsburg ,California,95448,United States,(707) 395-0550 ,38.6103169000,-122.8698512000,,,,0
Eve,2850,200 E. Ward Street ,,Douglas ,Georgia,31533,United States,(912) 383-7462 ,31.5088500000,-82.8494306000,,,,0
Executive Clothiers,2883,6 North Elmhurst Road ,,Prospect Heights ,Illinois,60070,United States,(847) 253-3800 ,42.0961150000,-87.9373240000,,,,0
FABULOUS FINDS,2810,14760 SW 11TH STREET ,,PEMBROKE PINES ,Florida,33027,United States,(786) 280-0242 ,25.9992518000,-80.3435712000,,,,0
Fancy Pants,2861,825 W Idaho Street ,,Boise ,Idaho,83702,United States,(208) 345-3339 ,43.6167398000,-116.2039233000,,,,0
Fina,2650,248 Main Street ,,Los Altos ,California,94022,United States,(650) 948-3462 ,37.3788054000,-122.1163114000,,,,0
Flaunt Boutique,2651,145 E Prospect Ave ,,Danville ,California,94526,United States,(925) 831-9923 ,37.8219202000,-121.9990972000,,,,0
Foot Candy,2652,1239 Main St ,,St. Helena ,California,94574,United States,(707) 963-2040 ,38.5041133000,-122.4687055000,,,,0
Found,3132,501 Oakland ,,Austin ,Texas,78703,United States,(940) 782-5506 ,30.2729920000,-97.7611470000,,,,0
Frab'rik,2753,1225 Emerson St. Unit A ,,Denver ,Colorado,80218,United States,(678) 596-8770 ,39.7357460000,-104.9767509000,,,,0
Fred Segal,2653,500 Broadway ,,Santa Monica ,California,90401,United States,(310) 917-5546 ,34.0157732000,-118.4920330000,,,,0
Free Shop,3063,3 East Butler Ave ,,Ambler ,Pennsylvania,19002,United States,,40.1539289000,-75.2238497000,,,,0
French Lessons,2977,8 Walden St ,,Concord ,Massachusetts,01742,United States,(978) 369-6227 ,42.4595792000,-71.3501017000,,,,0
French Lessons,2978,180 Linden St # 102 ,,Wellesley ,Massachusetts,02482,United States,(781) 235-9090 ,42.3001385000,-71.2924397000,,,,0
French Lessons,2979,26 State Street ,,Newburyport ,Massachusetts,01950,United States,(978) 499-0499 ,42.8105079000,-70.8701531000,,,,0
French Lessons,2980,7 Thompson Street ,,Winchester ,Massachusetts,01890,United States,(781) 729-0456 ,42.4520982000,-71.1369197000,,,,0
Front Door Fashion,3133,2320 N. Central Expressway ,,Dallas ,Texas,75204,United States,(661) 903-2240 ,32.8005328000,-96.7918624000,,,,0
Fuschia,2884,538 Duane Street ,,Glen Ellyn ,Illinois,60137,United States,(630) 469-7465 ,41.8756462000,-88.0657096000,,,,0
Fuschia - Geneva,2885,9 North Third St. ,,Geneva ,Illinois,60134,United States,(630) 469-7465 ,41.8881774000,-88.3076572000,,,,0
G. Harvell,2568,2534 B. Old Shell Road. ,,Mobile ,Alabama,36607,United States,(251) 344-4200 ,30.6909136000,-88.0995783000,,,,0
Gala,2655,484 Magnolia Ave. ,,Larkspur ,California,94939,United States,(415) 924-7680 ,37.9357667000,-122.5349822000,,,,0
Gary'S,2656,230 Newport Center Drive STE. # 80 ,,Newport Beach ,California,92660,United States,(949) 759-8642 ,33.6115781000,-117.8741390000,,,,0
GAYLE'S,3134,4059 SUMMERHILL SQUARE ,,TEXARKANA ,Texas,75503,United States,(903) 792-0056 ,33.4556102000,-94.0652841000,,,,0
Gene Hiller,2657,729 Bridgeway ,,Saulsalito ,California,94965,United States,,37.8562893000,-122.4800382000,,,,0
Geno's Clothiers,2912,5256 W. 116th Street ,,Leawood ,Kansas,66211,United States,(913) 814-0066 ,38.9192460000,-94.6450459000,,,,0
Girl Boy Girl,2658,Mission & 7th Ave ,,Carmel ,California,93923,United States,(831) 626-3368 ,36.5537824000,-121.9209526000,,,,0
Glitz,2659,306 E Main St. ,,Turlock ,California,95380,United States,(209) 664-9737 ,37.4954573000,-120.8446792000,,,,0
Goods Goods,3235,60 CENTER STREET ,,Jackson ,Wyoming,83001,United States,(307) 733-9558 ,43.4801000000,-110.7610000000,,,,0
Graham's Store,2908,890 Main Street ,,Dubuque ,Iowa,52001,United States,,42.5015162000,-90.6671153000,,,,0
Green Envy,3178,1800 Mountain Road ,,Stowe ,Vermont,5672,United States,(802) 253-2661 ,44.4741090000,-72.7124120000,,,,0
Green Room,2981,71 MAIN STREET ,,Vineyard Haven ,Massachusetts,02568,United States,(508) 693-6888 ,41.4557196000,-70.6026863000,,,,0
GSB Men's Clothier,2654,16085 San Dieguito Rd. # 6 ,,Rancho Santa ,California,92067,United States,(858) 759-6647 ,32.9900813000,-117.1968217000,,,,0
Gwen Berlin,2813,240 A1A N ,,Ponte Vedra Beach ,Florida,32082,United States,(904) 280-7831 ,30.2399142000,-81.3876663000,,,,0
Gwynn'S Of Mt. Pleasant,3089,916 Houston Northcutt Blvd. ,,Mount Pleasant ,Carolina,29464,United States,(843) 884-9518 ,32.8029191000,-79.8901006000,,,,0
Habit,3105,2209 Bandywood Drive ,,Nashville ,Tennessee,37215,United States,(615) 292-9399 ,36.1043522000,-86.8173526000,,,,0
Halberstadts Men's Clothiers,3097,3607 W. 41st Street ,,Sioux Falls South ,Dakota,57106,United States,(605) 361-2619 ,43.5143841000,-96.7700536000,,,,0
Hall's,3031,2450 Grand Blvd. ,,Kansas City ,Missouri,64108,United States,(816) 274-3222 ,39.0826589000,-94.5824462000,,,,0
Hand In Pocket,2853,1675 Cumberland Parkway ,,Smyrna ,Georgia,30080,United States,(678) 309-9550 ,33.8495766000,-84.4917922000,,,,0
Harley's,3135,4815 Old Bullard Road ,,Tyler ,Texas,75703,United States,(903) 534-9799 ,32.2966619000,-95.3053781000,,,,0
Harley's,3227,4009 North Oakland Ave ,,Milwaukee ,Wisconsin,53211,United States,,43.0833540000,-87.8876380000,,,,0
Harleys The Store For Men,3228,4009 North Oakland Ave ,,Milwaukee ,Wisconsin,53211,United States,(414) 332-3404 ,43.0895024000,-87.8877350000,,,,0
HARRY MAYER,3023,HWY. 39 N. ,,MERIDIAN ,Mississippi,39305,United States,(601) 693-1135 ,32.4628893000,-88.6727332000,,,,0
Hattie,2660,109 N. Montgomery ,,Ojai ,California,93023,United States,(805) 646-8305 ,34.4485837000,-119.2432444000,,,,0
Hawthorn,2661,5854 College Ave ,,Oakland ,California,94618,United States,(510) 594-8380 ,37.8469713000,-122.2518207000,,,,0
Heidi Says,2662,2426 Fillmore St ,,San Francisco ,California,94115,United States,(415) 749-1144 ,37.7919747000,-122.4342882000,,,,0
Henry Lehr,3556,102 Main St ,,Sag Harbor ,NY,11963,United States,,41.0002640000,-72.2957600000,,,,0
Henry Lehr,3557,16 Newtown Ln # 1 ,,East Hampton ,NY,11937,United States,,40.9642333000,-72.1858303000,,,,0
Henry Lehr,3558,9 Main St ,,Southampton ,NY,11968,United States,,40.8844741000,-72.3898731000,,,,0
Henry Lehr,3559,154 Main St ,,Amagansett ,NY,11930,United States,,40.9745576000,-72.1418875000,,,,0
Hope And Stetson,2767,47 West Main St ,,Mystic ,Connecticut,06355,United States,(860) 415-4660 ,41.3546221000,-71.9707655000,,,,0
HURWITZ,3136,2002 Judson RD ,,Longview ,Texas,75605,United States,(903) 753-4474 ,32.5329112000,-94.7427345000,,,,0
Impulse,3005,428 West Main Street ,,Brighton ,Michigan,48116,United States,(810) 225-7992 ,42.5296743000,-83.7846253000,,,,0
In The Clover,2932,85 A Main St ,,Wiscasset ,Maine,4578,United States,(207) 882-9435 ,44.0025754000,-69.6649177000,,,,0
Indigo,3106,7509 Poplar Avenue Suite 4 ,,Germantown ,Tennessee,38138,United States,(901) 755-6161 ,35.0938421000,-89.8128913000,,,,0
Indigo Germantown,3240,7509 Poplar Ave # 1 Suite102 ,,Germantown ,TN,38138,United States,,35.0938421000,-89.8128913000,,,,0
Indigo Little Rock,3239,17809 Chenal Parkway Suite G107 ,,Little Rock ,AR,72223,United States,,34.7679472000,-92.4574341000,,,,0
Injeanius,2982,441 Hanover St ,,Boston ,Massachusetts,02113,United States,(617) 523-5326 ,42.3661227000,-71.0525446000,,,,0
Irma Marie,3561,1309 Panorama Dr # 109 ,,Chattanooga ,TN,37421,United States,(423) 710-8376,35.0174513000,-85.1696405000,,,,0
Island Proper,3237,431B Front St. ,,Beaufort ,NC,28516,United States,252-838-1576,34.7167079000,-76.6648340000,,,,0
It'S Hip To Be Round,3188,3124 W. Cary St ,,Richmond ,Virginia,23221,United States,(804) 340-1700 ,37.5537555000,-77.4810469000,,,,0
Izzy Maternity,2854,2110 North Point Circle ,,Alpharetta ,Georgia,30022,United States,(770) 753-0204 ,34.0501335000,-84.2968920000,,,,0
Izzy Maternity 2,2855,2385 peachtree rd Ne STE A2CD ,,Atlanta ,Georgia,30305,United States,(404) 949-0222 ,33.8198728000,-84.3876137000,,,,0
J. HOFFMAN'S,3138,4918 50Th Street ,,Lubbock ,Texas,79414,United States,(806) 797-8794 ,33.5492448000,-101.9168537000,,,,0
Jack & Molly,3090,618-D 8th Avenue ,,Aynor ,Carolina,29511,United States,(843) 358-5225 ,33.9994930000,-79.2011710000,,,,0
Jade,3007,17 Squires Street ,,Rockford ,Michigan,49341,United States,(616) 866-7207 ,43.1202156000,-85.5610187000,,,,0
Jaffi'S,2814,200 First Street ,,Neptune Beach ,Florida,32266,United States,(904) 249-4030 ,30.3234413000,-81.3963016000,,,,0
JANEYS AT 2500,3139,2500 Paramount ,,AMARILLO ,Texas,79109,United States,(806) 359-4156 ,35.1876314000,-101.8738348000,,,,0
Jazzman,3231,340 State Street ,,Madison ,Wisconsin,53703-2021,United States,(608) 256-2062 ,43.0748109000,-89.3911044000,,,,0
Jb And Me,3008,36 W. 8th St. ,,Holland ,Michigan,49423,United States,(616) 392-8902 ,42.7900165000,-86.1087616000,,,,0
Jean Pool,2939,92 Village Square ,,Baltimore ,Maryland,21210,United States,(410) 466-1177 ,39.3546105000,-76.6455007000,,,,0
Jean Theory,3189,110 4th st NE ,,Charlottesville ,Virginia,22902,United States,(703) 863-0288 ,38.0304511000,-78.4789152000,,,,0
JEAN THERAPY,2923,5505 Magazine St. ,,New Orleans ,Louisiana,70115,United States,(504) 897-5535 ,29.9212031000,-90.1162496000,,,,0
Jean Therapy Highland,2925,4410 Highland Road # A1 ,,Baton Rouge ,Louisiana,70808,United States,,30.4024147000,-91.1715877000,,,,0
Jessie,2816,20533 Biscayne Blvd. ,,Miami ,Florida,33180,United States,(305) 933-8198 ,25.9661037000,-80.1442757000,,,,0
Jessie,2817,6006 SW 18th Street ,,Boca Raton ,Florida,33433,United States,,26.3313923000,-80.1375762000,,,,0
Jessie,2815,20533 Biscayne Blvd ,,Aventura ,Florida,33180,United States,(305) 933-8198 ,25.9661037000,-80.1442757000,,,,0
Jewels,3032,7701 Bellona Ave ,,Towson ,Missouri,21204,United States,(410) 321-8100 ,39.3983991000,-76.6447930000,,,,0
Joe Brand,3140,5300 San Dario Ave ,,Laredo ,Texas,78041,United States,(956) 722-0771 ,27.5512366000,-99.4995298000,,,,0
Joe Brand,3141,2200 S 10Th St ,,Mc ALLEN ,Texas,78503,United States,(956) 682-8311 ,26.1876592000,-98.2358307000,,,,0
Joe-Nel,2818,777 NW 72nd ave ,,Miami ,Florida,33126,United States,(305) 265-9047 ,25.7785094000,-80.3099989000,,,,0
JOHN PICKENS,2924,6022 Line Ave ,,Shreveport ,Louisiana,71106,United States,(318) 629-2080 ,32.4521979000,-93.7462815000,,,,0
Joseph's Inc,2933,410 Fore Street ,,Portland ,Maine,04101,United States,(207) 773-1274 ,43.6561938000,-70.2535527000,,,,0
Josephine,2934,35 Elm Street ,,Camden ,Maine,4843,United States,(207) 236-2123 ,44.2090046000,-69.0662381000,,,,0
Julian Gold,3142,3840 S. Alameda ,,Corpus Christi ,Texas,78411,United States,(361) 853-9974 ,27.7436959000,-97.3804827000,,,,0
Julian Gold,3143,2101 W. Wadley Suite 16 ,,Midland ,Texas,79705,United States,(432) 682-5369 ,32.0237982000,-102.1062150000,,,,0
Julian Gold,3144,1214 West 6th Street Suite 110 ,,Austin ,Texas,78703,United States,(512) 473-2493 ,30.2749079000,-97.7604952000,,,,0
Julian Gold,3145,4109 McCULLOUGH ,,SAN ANTONIO ,Texas,78212,United States,(210) 824-2601 ,29.4684016000,-98.4921952000,,,,0
K Frank,2663,1023 State St. ,,Santa Barbara ,California,93101,United States,(805) 560-7424 ,34.4218355000,-119.7029260000,,,,0
Kaliber,2664,315 D Street ,,Santa Rosa ,California,95404,United States,(707) 528-0182 ,38.4416222000,-122.7128129000,,,,0
Kelley Cawley Boutique,2886,726 1St Street ,,Lasalle ,Illinois,61301,United States,(815) 223-4200 ,41.3281091000,-89.0950606000,,,,0
Kelli,2665,1777 Canal St. ,,Merced ,California,95340,United States,(209) 383-7570 ,37.3023683000,-120.4829506000,,,,0
Ketch,3211,5317 Ballard Ave ,,Seattle ,Washington,98107,United States,(206) 402-4589 ,47.6667096000,-122.3838802000,,,,0
Kickin,2887,2118 W. Roscoe ,,Chicago ,Illinois,60618,United States,,41.9434641000,-87.6825554000,,,,0
Kiki Risa,2819,36236 Emerald Coast Parkway ,,Destin ,Florida,32541,United States,(850) 650-0554 ,30.3858744000,-86.4036183000,,,,0
Kimberly Boutique,2769,968 Farmington Ave # A ,,West Hartford ,Connecticut,06107,United States,(860) 523-4894 ,41.7618188000,-72.7433138000,,,,0
"Kinnebrew Co., The",2856,208 W. Lamar St. ,,Americus ,Georgia,31709,United States,(229) 924-8888 ,32.0719961000,-84.2341076000,,,,0
Kirby's,2820,1707 S. Dale ,,Mabry Tampa ,Florida,33629,United States,(813) 253-2681 ,27.9279707000,-82.5064511000,,,,0
Kismet,2666,601 San Anselmo Ave. ,,San Anselmo ,California,94960,United States,(415) 454-2629 ,37.9752030000,-122.5628740000,,,,0
Knit Wit,3065,1718 Walnut Street ,,Philadelphia ,Pennsylvania,19103,United States,(215) 564-4760 ,39.9498843000,-75.1701031000,,,,0
Knit Wit,3067,905 W. Lancaster Avenue ,,Bryn Mawr ,Pennsylvania,19010,United States,(484) 592-0576 ,40.0312863000,-75.3357296000,,,,0
Koko & Palenki,2821,7105 SW 47th Street STE. 408 ,,Miami ,Florida,33155,United States,(305) 661-9987 ,25.7268627000,-80.3091695000,,,,0
Kreations,2667,130 W. 3rd Street ,,Chico ,California,95928,United States,(530) 892-8116 ,39.7294086000,-121.8403170000,,,,0
La Tre Clothing,2668,363 N Franklin St ,,Fort Bragg ,California,95437,United States,(707) 964-3887 ,39.4453199000,-123.8045570000,,,,0
Lady Bug Btq,2669,3585 Sagunto St ,,Santa Ynez ,California,93460,United States,(805) 693-8998 ,34.6130408000,-120.0805155000,,,,0
Lady Fish,2857,128 South Broad Street ,,Thomasville ,Georgia,31792,United States,(229) 226-8861 ,30.8364820000,-83.9797169000,,,,0
Lala,2670,1145 South Coast Highway ,,Laguna Beach ,California,92651,United States,(949) 464-9220 ,33.5336611000,-117.7769251000,,,,0
Lana'S Boutique,3009,157 South Kalamazoo Mall ,,Kalamazoo ,Michigan,49007,United States,(269) 345-3302 ,42.2906411000,-85.5829253000,,,,0
Lansky Bros,3107,92 S. Front St ,,Memphis ,Tennessee,38103,United States,(901) 525-5401 ,35.1430689000,-90.0547830000,,,,0
Len Druskin,3016,3140 Galleria ,,Edina ,Minnesota,55435,United States,(952) 927-7923 ,44.8766007000,-93.3278315000,,,,0
Len Druskin,3017,651 Nicollet Mall Suite 221 ,,Minneapolis ,Minnesota,55402,United States,(612) 455-1660 ,44.9772351000,-93.2713916000,,,,0
Linda'S Loft,3068,817 old york rd ,,Jenkintown ,Pennsylvania,19046,United States,(215) 881-2252 ,40.1055053000,-75.1239262000,,,,0
Loop Jean Company,2581,7047 N. Oracle Road ,,Tucson ,Arizona,85704,United States,(520) 219-9785 ,32.3356663000,-110.9780699000,,,,0
Lotus,2822,1451 Main Street ,,Sarasota ,Florida,34236,United States,(941) 906-7080 ,27.3367731000,-82.5416041000,,,,0
LOVE,2927,7474 Corporate Blvd. # 301 ,,Baton Rouge ,Louisiana,70809,United States,(225) 927-7395 ,30.4303640000,-91.1128392000,,,,0
Love Shack,2823,137 E. Atlantic Ave ,,Delray Beach ,Florida,33444,United States,(561) 276-6177 ,26.4618172000,-80.0711605000,,,,0
Luna,2858,3167 Peachtree Road ,,Atlanta ,Georgia,30305,United States,(404) 233-5344 ,33.8403554000,-84.3760066000,,,,0
Luna,2941,7232 Woodmont Ave. ,,Bethesda ,Maryland,20814,United States,,38.9814353000,-77.0958967000,,,,0
Luna,2958,7232 Woodmont Ave. ,,Bethesda ,Maryland,20814,United States,,38.9814353000,-77.0958967000,,,,0
Lyndsays,3108,506 N.Jackson Street ,,Tullahoma ,Tennessee,37388,United States,(931) 841-1053 ,35.3665990000,-86.2151680000,,,,0
M Penner,3146,1180 Uptown Park BLVD ,,Houston ,Texas,77056,United States,(713) 527-8200 ,29.7553820000,-95.4583385000,,,,0
M. Dumas & Sons,3091,294 King Street ,,Charleston ,Carolina,29401,United States,(843) 723-8603 ,32.7832754000,-79.9342433000,,,,0
Mabels,2672,136 S. Cedros ,,Solana Beach ,California,90275,United States,(858) 794-0066 ,32.9911450000,-117.2697930000,,,,0
Macy's,3148,900 Memorial City Mall ,,Houston ,Texas,77024,United States,,29.7804747000,-95.5433911000,,,,0
MADISON,2671,17 MAIN STREET ,,TIBURON ,California,94920,United States,(415) 889-5727 ,37.8733040000,-122.4562300000,,,,0
Madison,2683,17 Main Street ,,Tiburon ,California,94920,United States,(415) 889-5725 ,37.8733040000,-122.4562300000,,,,0
Maiale,3092,111 East Poinsett St ,,Greer ,Carolina,29651,United States,(864) 505-9424 ,34.9386210000,-82.2265460000,,,,0
Maison Weiss,3024,4500 i-55 N/Highland Village ,,Jackson ,Mississippi,39211,United States,(601) 981-4621 ,32.3510753000,-90.1445557000,,,,0
Manhattan Denim,2684,920 Manhattan Ave ,,Manhattan Beach ,California,90266,United States,(310) 971-1620 ,33.8834030000,-118.4097713000,,,,0
Mari Gail,2569,1631 Darby Dr. ,,Florence ,Alabama,35630,United States,(256) 764-9444 ,34.8202548000,-87.6565641000,,,,0
Mario'S Great Clothing,2685,1223 Main St ,,St. Helena ,California,94574,United States,(707) 963-1603 ,38.5039408000,-122.4685475000,,,,0
Market,2686,11620 Barrington Ct. ,,Brentwood ,California,90049,United States,(310) 471-3408 ,34.0652394000,-118.4692183000,,,,0
Mel & Me Ltd.,3081,Garden City Center 74 Hillside Rd ,,Cranston Rhode Island ,,02920,United States,(401) 943-4646 ,41.7625515000,-71.4578634000,,,,0
Melissa's,2909,550 South Gear Avenue Westland Mall Suite 30 ,,West Burlington ,Iowa,52655,United States,,40.8250386000,-91.1565357000,,,,0
Melrose and Madison,2756,1500 South Pearl Street ,,Denver ,Colorado,80210,United States,(303) 777-7515 ,39.6891883000,-104.9801041000,,,,0
Mendy'S,3179,1652 Mountain Road. ,,Stowe ,Vermont,5672,United States,(802) 985-0759 ,44.4734420000,-72.7094620000,,,,0
Meridian,3020,223 Water Street ,,Excelsior ,Minnesota,55331,United States,(952) 474-4519 ,44.9028430000,-93.5662150000,,,,0
"Met, The",2824,35 South Blvd Of The Presidents ,,Sarasota ,Florida,34236,United States,(941) 388-3991 ,27.3176095000,-82.5762019000,,,,0
Mfredric,2687,28024 Dorthy Drive ,,Agoura Hills ,California,91301,United States,(818) 597-0212 ,34.1415700000,-118.7372371000,,,,0
Midland Clothing Co.,2757,208 Midland Ave. ,,Aspen ,Colorado,81611,United States,(970) 927-9542 ,39.1872335000,-106.8094108000,,,,0
Millie,2688,7882 E. Coast Hwy ,,Newport Beach ,California,92657,United States,(508) 945-5562 ,33.5689032000,-117.8334201000,,,,0
MINE,3147,4423 Lovers Lane ,,Dallas ,Texas,75225,United States,(214) 522-4700 ,32.8508916000,-96.8110139000,,,,0
Mint Julep,2984,1302 Beacon St ,,Brookline ,Massachusetts,02446,United States,(617) 797-0555 ,42.3426363000,-71.1206073000,,,,0
MISTREL - WORLD PASSAGES,2755,15 W THOMAS PL ,,BEAVER CREEK ,Colorado,81620,United States,(970) 748-9705 ,39.6032296000,-106.5174572000,,,,0
Mitchells,2770,670 Post Road East ,,Westport ,Connecticut,06880,United States,(203) 227-5165 ,41.1376984000,-73.3433953000,,,,0
Mitchells,2771,359 Greenwich Ave ,,Greenwich ,Connecticut,06830,United States,(203) 622-0557 ,41.0236440000,-73.6247840000,,,,0
Model Citizen / Milicevic Inc.,2825,330 A1A North # 213 ,,Ponte Vedra Beach ,Florida,32082,United States,(904) 674-2424 ,30.2358079000,-81.3865745000,,,,0
My Fabulous Mama,3069,1610 South Street ,,Philadelphia ,Pennsylvania,19146,United States,(315) 970-3020 ,39.9440008000,-75.1691997000,,,,0
Nalu,2985,12 Candle Street ,,Nantucket ,Massachusetts,02554,United States,(508) 221-5813 ,41.2836022000,-70.0971563000,,,,0
Native Sun (Head Offcie),2826,248 South Ocean Blvd. ,,Manalapan ,Florida,33462,United States,(561) 586-7771 ,26.5830232000,-80.0390497000,,,,0
Native Sun - Delray Beach,2827,209 East Atlantic Ave. ,,Delray Beach ,Florida,33444,United States,(561) 276-3242 ,26.4617778000,-80.0707693000,,,,0
Need Supply Co.,3190,3010 West Cary St. ,,Richmond ,Virginia,23221,United States,(804) 355-4383 ,37.5528171000,-77.4791350000,,,,0
Neiman Marcus,2888,5000 Northbrook Court ,,Northbrook CHICAGO ,Illinois,60062,United States,,42.1505586000,-87.8170527000,,,,0
Neiman Marcus,3149,2600 S. Post Oak Road ,,Houston ,Texas,77056,United States,,29.7489898000,-95.4632245000,,,,0
Neiman Marcus,3150,3400 Palm Way ,,Austin ,Texas,78758,United States,,30.4038848000,-97.7245780000,,,,0
Neiman Marcus,3151,400 NorthPark Center ,,Dallas ,Texas,75225,United States,,32.8658709000,-96.7733911000,,,,0
Neiman Marcus,2689,Beverly Hills 9700 Wilshire Boulevard ,,Beverly Hills ,CA,90212,United States,,34.0665246000,-118.4061778000,,,,0
Nell,2986,11 N. Summer St ,,Edgartown ,Massachusetts,02539,United States,(508) 939-9120 ,41.3901154000,-70.5138880000,,,,0
Nordstom,2582,Chandler Fashion Center 3199 West Chandler Blvd ,,Chandler ,AZ,85226,United States,,33.3027315000,-111.9004872000,,,,0
Nordstrom,3083,6 Providence Place ,,Providence Rhode ,island,02903,United States,,41.8290140000,-71.4159290000,,,,0
Nordstrom,2828,Town Center At Boca Raton 5820 Glade Rd. ,,Boca Raton ,FL.,33431,United States,,26.3692650000,-80.1790719000,,,,0
Nordstrom,2829,International Plaza 2223 North West Shore Blvd. ,,Tampa ,FL,33607,United States,,27.9890712000,-82.5237995000,,,,0
Nordstrom,2830,Village Of Merrick Park 330 San Lorenzo Avenue S. 2335 ,,Coral Gables ,FL,33146,United States,,25.7321233000,-80.2618832000,,,,0
Nordstrom,2583,Scottsdale Fashion Square 7055 East Camelback Road ,,Scottsdale ,Arizona,85251,United States,,33.5021307000,-111.9295376000,,,,0
Nordstrom,2889,55E Grand Ave. ,,Chicago ,Illinois,60611,United States,,41.8914543000,-87.6261804000,,,,0
Nordstrom,2890,10 Oakbrook Ctr ,,Oak Brook ,Illinois,60523,United States,,41.8504228000,-87.9530206000,,,,0
Nordstrom,2891,6 Woodfield Shopping Center ,,Schaumburg ,Illinois,60173,United States,,42.0467637000,-88.0460894000,,,,0
Nordstrom,2892,77 Old Orchard Shopping Ctr ,,Skokie ,Illinois,60077,United States,,42.0614792000,-87.7473809000,,,,0
Nordstrom,3152,2901 Capital of Texas Highway S ,,Austin ,Texas,78746,United States,,30.2576953000,-97.8069052000,,,,0
Nordstrom,3153,5220 Alpha Rd ,,Dallas ,Texas,75240-4316,United States,,32.9326077000,-96.8199023000,,,,0
Nordstrom,3154,8687 North Central Expressway ,,Dallas ,Texas,75225,United States,,32.8685017000,-96.7735125000,,,,0
Nordstrom,3155,2613 Preston Rd ,,Frisco ,Texas,75034,United States,,33.0995473000,-96.8098076000,,,,0
Nordstrom,3156,5192 Hidalgo Street ,,Houston ,Texas,77056,United States,,29.7358560000,-95.4642080000,,,,0
Nordstrom,2901,8702 Keystone Crossing ,,Indianapolis ,Indiana,46240,United States,,39.9145535000,-86.1096145000,,,,0
Nordstrom,3157,1101 Melbourne Rd. # 4000 ,,Hurst ,Texas,76053,United States,,32.8298826000,-97.2003446000,,,,0
Nordstrom,3158,15900 La Cantera Pkwy Bldg 13 ,,San Antonio ,Texas,78256,United States,,29.5944150000,-98.6152042000,,,,0
Nordstrom,3159,1201 Lake Woodlands Dr. Suite 1 ,,Woodlands ,Texas,77380,United States,,30.1643242000,-95.4556960000,,,,0
Nordstrom,3175,6191 South State # 200 ,,Murray ,Utah,84107,United States,,40.6381663000,-111.8888050000,,,,0
Nordstrom,3191,1400 S. Hayes Street ,,Arlington ,Virginia,22202,United States,,38.8621875000,-77.0610633000,,,,0
Nordstrom,3192,8075 Tysons Corner Center ,,Mclean ,Virginia,22102,United States,,38.9167911000,-77.2222052000,,,,0
Nordstrom,3193,11812 West Broad Street ,,Richmond ,Virginia,23233,United States,,37.6549119000,-77.6185768000,,,,0
Nordstrom,2942,The Mall In Columbia 10300 Little Patuxent Parkway ,,Columbia ,Maryland,21044,United States,,39.2153947000,-76.8602836000,,,,0
Nordstrom,2690,Santa Anita 400 S. Baldwin Ave. Suite 200 ,,Arcadia ,CA,91007-1998,United States,,34.1349204000,-118.0509968000,,,,0
Nordstrom,2691,Brea Mall 500 Brea Mall Way ,,Brea ,CA,92821-5793,United States,,33.9156656000,-117.8881442000,,,,0
Nordstrom,2692,21725 Victory Blvd ,,Canoga Park ,CA,91303,United States,,34.1886943000,-118.6026597000,,,,0
Nordstrom,2693,1870 Redwood Highway ,,Corte Madera ,CA,94925-1235,United States,,37.9357705000,-122.5156835000,,,,0
Nordstrom,2694,270 East Via Rancho Parkway ,,Escondido ,CA,92025-8096,United States,,33.0710017000,-117.0659313000,,,,0
Nordstrom,2695,101 Fortune Dr. ,,Irvine ,CA,92618,United States,,33.6487910000,-117.7428270000,,,,0
Nordstrom,2696,189 The Grove Drive Suite S-10 ,,Los Angeles ,CA,90036,United States,,34.0724615000,-118.3580995000,,,,0
Nordstrom,2697,100 The Shops at Mission Viejo ,,Mission Viejo ,CA,92691,United States,,33.5615053000,-117.6692115000,,,,0
Nordstrom,2698,5015 Montclair Plaza Lane ,,Montclair ,CA,91763-1519,United States,,34.0857946000,-117.6946004000,,,,0
Nordstrom,2699,901 Newport Center Drive ,,Newport Beach ,CA,92660,United States,,33.6160707000,-117.8776335000,,,,0
Nordstrom,2700,550 Stanford Shopping Center ,,Palo Alto ,CA,94304-1476,United States,,37.4391676000,-122.1738859000,,,,0
Nordstrom,3212,2800 184th St. SW ,,Lynnwood ,Washington,98037,United States,,47.8317154000,-122.2720319000,,,,0
Nordstrom,2701,1600 Stoneridge Mall Road ,,Pleasanton ,CA,94588-3246,United States,,37.6952655000,-121.9288080000,,,,0
Nordstrom,3213,500 Pine St. ,,Seattle ,Washington,98101,United States,,47.6123010000,-122.3362868000,,,,0
Nordstrom,2702,3601 Tyler Mall ,,Riverside ,CA,92503-4155,United States,,33.9095673000,-117.4583842000,,,,0
Nordstrom,3214,828 W. Main Ave. ,,Spokane ,WA,99201,United States,,47.6592401000,-117.4240631000,,,,0
Nordstrom,2703,1131 Galleria Boulevard ,,Roseville ,CA,95678,United States,,38.7717528000,-121.2686259000,,,,0
Nordstrom,2959,The Mall In Columbia 10300 Little Patuxent Parkway ,,Columbia ,Maryland,21044,United States,,39.2153947000,-76.8602836000,,,,0
Nordstrom,3215,4502 S. Steele # 800 ,,Tacoma ,WA,98409,United States,,47.2164165000,-122.4678568000,,,,0
Nordstrom,2704,1651 Arden Way ,,Sacramento ,CA,95815-4036,United States,,38.6022574000,-121.4267803000,,,,0
Nordstrom,3216,100 Southcenter Shopping Center ,,Tukwila ,WA,98188,United States,,47.4595829000,-122.2607458000,,,,0
Nordstrom,2705,4321 La Jolla Village Drive ,,San Diego ,CA,92122-1279,United States,,32.8723920000,-117.2113270000,,,,0
Nordstrom,3217,100 Bellevue Square ,,Bellevue ,WA,98004,United States,,47.6095093000,-122.2010297000,,,,0
Nordstrom,2706,103 Horton Plaza ,,San Diego ,CA,92101-6192,United States,,32.7129310000,-117.1631608000,,,,0
Nordstrom,2707,7007 Friars Road ,,San Diego ,CA,92108,United States,,32.7674839000,-117.1656617000,,,,0
Nordstrom,2708,865 Market Street ,,San Francisco ,CA,94103-1950,United States,,37.7841180000,-122.4064352000,,,,0
Nordstrom,2709,2400 Forest Avenue ,,San Jose ,CA,95128,United States,,37.3261738000,-121.9470577000,,,,0
Nordstrom,2710,17 West Canon Perdido Street ,,Santa Barbara ,CA,93101-3208,United States,,34.4191561000,-119.6999055000,,,,0
Nordstrom,2711,220 Broadway ,,Santa Monica ,CA,90401,United States,,34.0135769000,-118.4948092000,,,,0
Nordstrom,2712,346 W. Hillcrest Dr ,,Thousand Oaks ,CA,91360,United States,,34.1836885000,-118.8887469000,,,,0
Nordstrom,2713,3333 South Bristol Street ,,Costa Mesa ,CA,92626,United States,,33.6907403000,-117.8889730000,,,,0
Nordstrom,2714,1200 Broadway Plaza ,,Walnut Creek ,CA,94596-5115,United States,,37.8971660000,-122.0581780000,,,,0
Nordstrom,2987,Natick Collection 290 Speen St. ,,Natick ,Massachusetts,01760,United States,,42.3028352000,-71.3822863000,,,,0
Nordstrom,2988,250 Granite St. STE 227 ,,Braintree ,Massachusetts,02184,United States,,42.2200679000,-71.0227078000,,,,0
Nordstrom,2989,75 Middlesex Turnpike ,,Burlington ,Massachusetts,01803,United States,,42.4825380000,-71.2135082000,,,,0
Nordstrom,3010,2850 W Big Beaver Rd ,,Troy ,Michigan,48084,United States,,42.5629751000,-83.1841073000,,,,0
Nordstrom,2758,Cherry Creek Shopping Center 3000 E. 1st Avenue # 1134 ,,Denver ,CO,80206,United States,,39.7183035000,-104.9738035000,,,,0
Nordstrom,2759,8401 Park Meadows Ctr Dr. # 1665 ,,Lone Tree ,CO,80124,United States,,39.5631709000,-104.8768483000,,,,0
Nordstrom,3021,1000 NW Court ,,Bloominton ,Minnesota,55425,United States,,44.8619111000,-93.2529697000,,,,0
Nordstrom,2773,600 Westfarms Mall ,,Farmington ,Connecticut,06032,United States,,41.7222234000,-72.7625717000,,,,0
Nordstrom,3033,47 W County Ctr. ,,Des Peres ,Missouri,63131-3701,United States,,38.6008034000,-90.4476400000,,,,0
Nordstrom,3034,1453 St. Louis ,,Saint Louis ,Missouri,63117,United States,,38.6347959000,-90.3473300000,,,,0
Nordstrom,3046,701 SW Broadway ,,Portland ,Oregon,97205,United States,,45.5191550000,-122.6803130000,,,,0
Nordstrom,3047,9700 Washington Square Blvd. ,,Tigard ,Oregon,97223,United States,,45.4494062000,-122.7823888000,,,,0
Nordstrom,3048,420 Center Street NE ,,Salem ,Oregon,97232,United States,,44.9428572000,-123.0367362000,,,,0
Nordstrom,3049,9700 Washington Square Blvd. ,,Tigard ,Oregon,97223,United States,,45.4494062000,-122.7823888000,,,,0
Nordstrom,3070,1000 Ross Park Mall Drive ,,Pittsburgh ,Pennsylvania,15237,United States,,40.5389691000,-80.0077114000,,,,0
Nordstrom,3071,2 Rt. 202 N. 660 West DeKalb Pike ,,King of Prussis ,Pennsylvania,19406,United States,,40.0972222000,-75.3761952000,,,,0
Nyfo,3194,333 West Freemason Street ,,Norfolk ,Virginia,23510,United States,(757) 627-4284 ,36.8518632000,-76.2950357000,,,,0
Oak Hall,3110,6150 Poplar Avenue ,,Memphis ,Tennessee,38119,United States,(901) 761-3580 ,35.1027577000,-89.8576750000,,,,0
Olive You,2918,118 Meridian Way # 1 ,,Richmond ,Kentucky,40475,United States,(859) 625-1328 ,37.7346882000,-84.3352672000,,,,0
On My Own,2831,18060 Biscayne Blvd ,,Miami ,Florida,33160,United States,(305) 932-0032 ,25.9429149000,-80.1484797000,,,,0
Pacific Trading Co.,2715,1224 Pacific Ave ,,Santa Cruz ,California,95060,United States,(831) 457-7811 ,36.9736868000,-122.0257087000,,,,0
Pandora'S Box,2990,4 BASIN ROAD ,,CHILMARK ,Massachusetts,02535,United States,(508) 645-9696 ,41.3516590000,-70.7641830000,,,,0
Papillon Rouge,3050,970 N Phoenix Rd ,,Medord ,Oregon,97504,United States,(541) 734-7377 ,42.3145317000,-122.8159777000,,,,0
Pappagallo,3072,28 West Orange Street ,,Lancaster ,Pennsylvania,17603,United States,(717) 392-0222 ,40.0394068000,-76.3070587000,,,,0
PENNY LANE,3160,5928 BROADWAY ,,SAN ANTONIO ,Texas,78209,United States,(210) 826-9007 ,29.4808945000,-98.4651316000,,,,0
PHYSICAL FIT,3161,3300 BEE CAVE ROAD suite 404 ,,AUSTIN ,Texas,78746,United States,(512) 327-7201 ,30.2749748000,-97.7989713000,,,,0
Pickett Fences,2716,214 N. Larchmont Blvd ,,Los Angeles ,California,90004,United States,(323) 467-2140 ,34.0751233000,-118.3233439000,,,,0
Pickled,2717,2652 Broadway St ,,Redwood City ,California,94063,United States,(650) 299-0990 ,37.4864989000,-122.2345405000,,,,0
Piece By Piece Wear,2584,1990 E. River Road ,,Tucson ,Arizona,85718,United States,(520) 529-8771 ,32.2865857000,-110.9420869000,,,,0
Pierre Lafond Wendy Foster,2718,833 State St ,,Santa Barbara ,California,93101,United States,(805) 966-2276 ,34.4199609000,-119.6998769000,,,,0
Pine Boutique,3162,1440 Texas Ave South # 4 ,,College Station ,Texas,77840,United States,(979) 694-1700 ,30.6180626000,-96.3229558000,,,,0
Pink Lagoon,2719,143 S. Cedros Street Suite V-104 ,,Solana Beach ,California,92075,United States,(858) 792-0882 ,32.9905242000,-117.2704994000,,,,0
Pink Saloon,2914,1423 N. Webb Rd. Suite 137 ,,Wichita ,Kansas,67206,United States,,37.7096801000,-97.2276409000,,,,0
Pink Saloon,3238,1423 N Webb Rd Suite 137 ,,Wichita ,KS,67206,United States,316-612-7465,37.7096801000,-97.2276409000,,,,0
Pinkadot,2720,238 E Street ,,Davis ,California,95616,United States,(530) 400-9950 ,38.5443067000,-121.7410861000,,,,0
Pitkin County Dry Goods,2760,1501 WAZEE STREET ,,DENVER ,Colorado,80202,United States,(303) 752-9377 ,39.7506589000,-105.0012502000,,,,0
Plenty,3051,108 3rd St ,,Hood River ,Oregon,97031,United States,(541) 386-5000 ,45.7094115000,-121.5135516000,,,,0
Pockets,3163,46 Highland Park Village ,,Dallas ,Texas,75205,United States,(214) 368-1167 ,32.8364144000,-96.8057666000,,,,0
Poppy,2721,16087 San Dieguito Road ,,Rancho Santa ,California,92067,United States,(858) 756-5528 ,32.9908366000,-117.1961314000,,,,0
Posh Btq,3098,5019 S Western Ave. Suite 180 ,,Sioux Falls South ,Dakota,57108,United States,(651) 324-4277 ,43.4982598000,-96.7486717000,,,,0
Pretty Is Pink,2991,480 King Street ,,Franklin ,Massachusetts,02038,United States,(508) 528-5432 ,42.0660052000,-71.3998623000,,,,0
Principessa,2722,1323 Abbot Kinney Blvd ,,Venice Beach ,California,90291,United States,(310) 450-6696 ,33.9962144000,-118.4688776000,,,,0
Priorities For Her,3073,24 North State St. ,,Newtown ,Pennsylvania,18940,United States,(215) 579-7799 ,40.2300503000,-74.9366399000,,,,0
Punch,2723,711 4th St ,,Santa Rosa ,California,95404,United States,(707) 526-4766 ,38.4414259000,-122.7118912000,,,,0
R. Derwin Clothiers,2774,33 West St ,,Litchfield ,Connecticut,06759,United States,(860) 567-4095 ,41.7464455000,-73.1913586000,,,,0
Raggs,2775,1020 Chapel Street ,,New Haven ,Connecticut,06510,United States,(203) 865-3824 ,41.3072520000,-72.9293398000,,,,0
Rain Song,2725,10470 Lansing St ,,Mendocino ,California,95460,United States,(707) 937-4165 ,39.3060918000,-123.7988108000,,,,0
Rainsong,2726,10470 Lansing St ,,Mendocino ,California,95460,United States,(707) 937-4165 ,39.3060918000,-123.7988108000,,,,0
Rand & Statler,2727,425 Hayes Street ,,San Francisco ,California,94102,United States,(415) 634-0881 ,37.7766740000,-122.4233994000,,,,0
RANDY PRICE & COMPANY,3025,6156 Hwy 98 West Ste. C ,,Hattiesburg ,Mississippi,39402,United States,(601) 264-9454 ,31.3199866000,-89.3868624000,,,,0
Rani'S,2832,3432 Main Highway ,,Coconut Grove ,Florida,33133,United States,(305) 448-0567 ,25.7277903000,-80.2429175000,,,,0
Rapunzel'S Closet,2833,326 South Country ,,Roadm Palm Beach ,Florida,33480,United States,(212) 633-2318 ,26.7041463000,-80.0366733000,,,,0
Raquel Cohen,3079,# 5 Camino Alejandrino Urb. Guaynabo Puerto Rico 969 ,,,,,United States,(787) 789-1303 ,18.3677722000,-66.0920496000,,,,0
Rearends,3011,6905 Orchard Lake Road ,,West Bloomfield ,Michigan,48322,United States,(248) 626-4333 ,42.5374976000,-83.3596709000,,,,0
RED SQUARE CLOTHIER,3026,1000 Highland Colony Parkway ,,RIDGELAND ,Mississippi,39157,United States,(601) 853-8960 ,32.4339203000,-90.1472670000,,,,0
Reign & Clover,2728,937 South Coast Highway 101 Suite c102 ,,Encinitas ,California,92024,United States,(760) 635-2664 ,33.0404042000,-117.2925111000,,,,0
Rete,2729,114 Matheson Street ,,Healdsburg ,California,95448,United States,(707) 431-4200 ,38.6103568000,-122.8696574000,,,,0
RNX / By Design,2724,3500 W 6th St # 216 ,,Los Angeles ,California,90020,United States,(626) 465-4630 ,34.0631379000,-118.2985590000,,,,0
Rochelle'S,2834,104 Anastasia Blvd. ,,St. Augustine ,Florida,32080,United States,(904) 810-2208 ,29.8924637000,-81.3020180000,,,,0
Romi,2730,624 Emerson St ,,Palo Alto ,California,94301,United States,(650) 322-7664 ,37.4434081000,-122.1613152000,,,,0
Rouge,2731,50 N. Santa Cruz Avenue ,,Los Gatos ,California,95030,United States,(408) 395-8995 ,37.2240647000,-121.9829207000,,,,0
RUBY,2928,111 E Thomas ,,Hammond ,Louisiana,70401,United States,(985) 345-4745 ,30.5043025000,-90.4602120000,,,,0
Rue Atelier,2732,2981 College Ave ,,Berkeley ,California,94705,United States,,37.8565581000,-122.2528825000,,,,0
Runway,2893,720 Waukegan Road ,,Deerfield ,Illinois,60015,United States,(847) 444-0064 ,42.1655669000,-87.8462031000,,,,0
Runway Boutique,2733,1000 White Rock Road Suite 500 ,,El Dorado Hills ,California,95762,United States,(916) 933-6300 ,38.6465941000,-121.0674471000,,,,0
Salaam,3180,40 State Street ,,Montpelier ,Vermont,56002,United States,(802) 223-4300 ,44.2602299000,-72.5766546000,,,,0
Sam Malouf,2734,1426 Burlingame Avenue ,,Burlingame ,California,94010,United States,(650) 344-1460 ,37.5776596000,-122.3490320000,,,,0
Sam Michael's Menswear,3012,29437 W 12 Mile Road ,,Farmington Hills ,Michigan,48334,United States,(248) 477-4615 ,42.4996729000,-83.3396667000,,,,0
Sandpiper (Main),2859,4300 Paces Ferry Rd. ,,Atlanta ,Georgia,30339,United States,(770) 433-2989 ,33.8652499000,-84.4671255000,,,,0
Sassy,3074,900 Market Street ,,Lemoyne ,Pennsylvania,17043,United States,(717) 635-2585 ,40.2423146000,-76.9033965000,,,,0
Sassy,2735,1472 High Street ,,Westwood ,California,02090,United States,(781) 551-0273 ,38.7507170000,-121.2885213000,,,,0
Scarpa Alta,3195,10 S. Loudon St ,,Winchester ,Virginia,22601,United States,,39.1837739000,-78.1657172000,,,,0
Scoop,2894,1702 North Milwaukee Ave ,,Chicago ,Illinois,60647,United States,(773) 227-9930 ,41.9121136000,-87.6808682000,,,,0
Scoop,2895,1009 North Rush Street ,,Chicago ,Illinois,60611,United States,(312) 649-9880 ,41.9011329000,-87.6272613000,,,,0
Scoop,3167,44 Highland Park Village ,,Dallas ,Texas,75205,United States,(214) 521-1900 ,32.8364290000,-96.8059239000,,,,0
Shaia's,2572,2818 South 18th Street. ,,Birmingham ,Alabama,35209,United States,(205) 879-7458 ,33.4805590000,-86.7920460000,,,,0
Singer 22,3042,441 Glen Cove Rd. ,,East Hills ,York,11577,United States,(877) 474-6722 ,40.7848996000,-73.6231521000,,,,0
Slate,2993,11 No. Summer Street ,,Edgartown ,Massachusetts,02539,United States,,41.3901154000,-70.5138880000,,,,0
SMARTIE PANTS,3164,205 Main Street ,,Marble Falls ,Texas,78654,United States,(830) 798-9323 ,30.5712021000,-98.2774584000,,,,0
Smith And James,3093,222 Trade St ,,Greer ,Carolina,29650,United States,(864) 877-6525 ,34.9368770000,-82.2265520000,,,,0
"Snyder's Men's Shop, Inc",2902,126 S. Main St. ,,Goshen ,Indiana,46526,United States,(574) 533-5630 ,41.5855050000,-85.8339979000,,,,0
SOCA,2571,1800 McFarland Blvd E ,,Tuscaloosa ,Alabama,35404,United States,(205) 752-0001 ,33.1942195000,-87.5278996000,,,,0
Soca Clothing,2573,2820 18th Street South ,,Birmingham ,Alabama,35209,United States,(205) 879-7688 ,33.4804398000,-86.7920232000,,,,0
Soca Clothing,2574,1800 McFarland Blvd. E Suite 205 ,,Tuscaloosa ,Alabama,35404,United States,(205) 752-0001 ,33.1942195000,-87.5278996000,,,,0
Socialite,3094,3328 Hwy 17 Bus Murrells Inlet ,,South ,Carolina,29576,United States,(843) 651-2317 ,33.5815017000,-79.0185384000,,,,0
Solutions,2737,1719 Westcliff Drive ,,Newport Beach ,California,92660,United States,(949) 650-0479 ,33.6261540000,-117.9061937000,,,,0
Something Else,3043,2051 86th Street ,,Brooklyn ,York,11214,United States,(718) 372-1900 ,40.6040393000,-73.9966309000,,,,0
Something Else - Park Slope,3044,208 Fifth Ave. ,,Brooklyn ,York,11215,United States,,40.6763919000,-73.9808030000,,,,0
Something Else - Smith Street,3045,144 Smith Street ,,Brooklyn ,York,11201,United States,(718) 643-3204 ,40.6869563000,-73.9904959000,,,,0
Sorella,2903,7230 Heritage Square Drive Suite 510 ,,Granger ,Indiana,46530,United States,,41.7265413000,-86.1769250000,,,,0
South Moon Under,3076,205 west lancaster ave ,,Wayne ,Pennsylvania,19087,United States,(610) 964-9064 ,40.0446874000,-75.3918859000,,,,0
South Moon Under,3077,1731 chestnut st ,,Philadelphia ,Pennsylvania,19103,United States,(215) 563-2298 ,39.9518475000,-75.1698782000,,,,0
South Moon Under,3196,2700 Clarendon blvd ,,Arlington ,Virginia,2201,United States,(703) 807-4083 ,38.8876826000,-77.0910997000,,,,0
South Moon Under,3197,11950 market st ,,Reston ,Virginia,20191,United States,(703) 435-0605 ,38.9590850000,-77.3590720000,,,,0
South Moon Under,3198,11800 west broad st ,,Richmond ,Virginia,23233,United States,(804) 364-9424 ,37.6562178000,-77.6194402000,,,,0
South Moon Under,2943,2510 Solomons Island rd ,,Annapolis ,Maryland,21401,United States,(410) 224-1140 ,38.9782800000,-76.5368994000,,,,0
South Moon Under,3199,4206 fairfax corner west ave ,,Fairfax ,Virginia,22030,United States,(703) 222-0571 ,38.8586557000,-77.3559715000,,,,0
South Moon Under,2944,10247 old georgetown rd ,,Bethesda ,Maryland,20814,United States,(301) 564-0995 ,39.0242200000,-77.1237670000,,,,0
South Moon Under,2945,15 grand corner ave ,,Gaithersburg ,Maryland,20878,United States,(301) 948-0971 ,39.1185091000,-77.2016865000,,,,0
South Moon Under,2946,815 aliceanna st ,,Baltimore ,Maryland,21202,United States,(410) 685-7820 ,39.2830515000,-76.6004373000,,,,0
South Moon Under,2947,8019 coastal highway ,,Ocean City ,Maryland,21842,United States,(410) 524-4567 ,38.3998938000,-75.0616703000,,,,0
South Moon Under,2948,100 american way ,,National Harbor ,Maryland,20745,United States,(301) 567-0511 ,38.7848269000,-77.0158433000,,,,0
South Moon Under,2949,822 kenilworth dr ,,Towson ,Maryland,21204,United States,(410) 337-7484 ,39.4114633000,-76.6188218000,,,,0
South Moon Under,2960,2510 Solomons Island rd ,,Annapolis ,Maryland,21401,United States,(410) 224-1140 ,38.9782800000,-76.5368994000,,,,0
South Moon Under,2961,10247 old georgetown rd ,,Bethesda ,Maryland,20814,United States,(301) 564-0995 ,39.0242200000,-77.1237670000,,,,0
South Moon Under,2962,15 grand corner ave ,,Gaithersburg ,Maryland,20878,United States,(301) 948-0971 ,39.1185091000,-77.2016865000,,,,0
South Moon Under,2963,815 aliceanna st ,,Baltimore ,Maryland,21202,United States,(410) 685-7820 ,39.2830515000,-76.6004373000,,,,0
South Moon Under,2964,8019 coastal highway ,,Ocean City ,Maryland,21842,United States,(410) 524-4567 ,38.3998938000,-75.0616703000,,,,0
South Moon Under,2965,100 american way ,,National Harbor ,Maryland,20745,United States,(301) 567-0511 ,38.7848269000,-77.0158433000,,,,0
South Moon Under,2966,822 kenilworth dr ,,Towson ,Maryland,21204,United States,(410) 337-7484 ,39.4114633000,-76.6188218000,,,,0
South Moon Under,2785,120 Rehobeth ave ,,Rehobeth ,Delaware,19971,United States,(302) 227-3806 ,38.7158937000,-75.0795995000,,,,0
ST. BERNARD SPORTS,3165,5570 W. Lovers Ln. ,,Dallas ,Texas,75209,United States,(214) 352-1200 ,32.8495979000,-96.8185092000,,,,0
ST. BERNARD SPORTS,3166,401 West 3rd Street ,,Austin ,Texas,78701,United States,(512) 320-1999 ,30.2661796000,-97.7475489000,,,,0
Standard (Kansas City),2915,451 W 47th St. ,,Kansas City ,Kansas,64112,United States,(913) 685-4464 ,39.0421107000,-94.5931841000,,,,0
Standard (Leawood),2916,4573 W 119th St. ,,Leawood ,Kansas,66209,United States,(913) 317-8828 ,38.9114399000,-94.6390135000,,,,0
Stanley Korshak,3168,500 Crescent Court Suite 100 ,,Dallas ,Texas,75201,United States,(214) 871-3657 ,32.7950147000,-96.8045900000,,,,0
Stephanie Horne Boutique,3233,244 North Broadway ,,Milwaukee ,Wisconsin,53202,United States,(414) 223-1662 ,43.0332061000,-87.9070833000,,,,0
Stephanies,3022,758 Cleveland Ave. ,,St. Paul ,Minnesota,55116,United States,(651) 690-3802 ,44.9186067000,-93.1870869000,,,,0
Studio Lx,2836,5814 Sunset Drive ,,South Miami ,Florida,33143,United States,(305) 666-0748 ,25.7041608000,-80.2877500000,,,,0
Suburban Casuals,3078,832 Scranton Carbondale Hwy ,,Scranton ,Pennsylvania,18508,United States,(570) 343-9886 ,41.4655825000,-75.6480117000,,,,0
Sugar Boutique,3095,203 Waller Avenue ,,Greenwood ,Carolina,29646,United States,(864) 229-6322 ,34.1916933000,-82.1598687000,,,,0
Swanky Stork,2575,611 Doug Baker Blvd ,,Birmingham ,Alabama,35242,United States,(205) 408-5808 ,33.4072171000,-86.6657568000,,,,0
Sylvia's,3169,4300 N 10th ,,Mc ALLEN ,Texas,78504,United States,(956) 682-6036 ,26.2414038000,-98.2228516000,,,,0
Symmetry,2904,6410 W. Jefferson Blvd ,,Fort Wayne ,Indiana,46804,United States,(260) 436-6000 ,41.0569714000,-85.2262477000,,,,0
T. SAPPINGTON & CO.,3027,102 W. Bankhead ,,New Albany ,Mississippi,38652,United States,(662) 534-4041 ,34.4940542000,-89.0087297000,,,,0
Taz,3096,11270-A Ocean Highway ,,Pawleys Island ,Carolina,29585,United States,(843) 235-9646 ,33.4480960000,-79.1197550000,,,,0
The Country Gentleman,3028,1644 Hwy 1 South ,,Greenville ,Mississippi,38701,United States,(662) 332-1356 ,33.3766645000,-91.0395241000,,,,0
The Man's Shop,3172,100 South West Street ,,Arlington ,Texas,76010,United States,,32.7365030000,-97.1109678000,,,,0
The Mercantile,2860,,,Makawao ,Hawaii,96768,United States,(808) 572-1407 ,20.8569444000,-156.3130556000,,,,0
The Met,2837,35 South Blvd Of The Presidents ,,Sarasota ,Florida,34236,United States,(941) 388-3991 ,27.3176095000,-82.5762019000,,,,0
The Mix,2929,4480 HWY 22 ,,Mandeville ,Louisiana,70471,United States,(985) 727-7649 ,30.3978846000,-90.1021854000,,,,0
The Showroom ,3560,3133 Commodore Plaza ,,Coconut Grove ,FL,33133,United States,,25.7274005000,-80.2441895000,,,,0
The Store,2738,68 Throckmorton Ave ,,Mill Valley ,California,94941,United States,(415) 888-8796 ,37.9067147000,-122.5479724000,,,,0
Therapy Pasadena,2739,316 E. Colorado Blvd ,,Pasadena ,California,91101,United States,(626) 568-9905 ,34.1458185000,-118.1439085000,,,,0
Third Times A Charm,3080,1300 Ashford Avenue ,,San Juan ,Rico,907,United States,(787) 722-0010 ,18.4555562000,-66.0704125000,,,,0
Togs,2777,66 Elm Street ,,New Canaan ,Connecticut,06840,United States,(203) 972-2871 ,41.1466230000,-73.4936033000,,,,0
TOOSIES,3170,8300 PRESTON RD # 200 ,,DALLAS ,Texas,75225,United States,(214) 696-9993 ,32.8639981000,-96.8037332000,,,,0
TOOTSIES,3171,2601 Westheimer Road ,,Houston ,Texas,77098,United States,(713) 629-9990 ,29.7419386000,-95.4194508000,,,,0
Tuni Apparel Group,2838,301 Park Ave. South ,,Winter Park ,Florida,32789,United States,(407) 628-1414 ,28.5959277000,-81.3510605000,,,,0
Tupelo Honey,2839,7250 SW 57 Ave ,,South Miami ,Florida,33143,United States,,25.7036523000,-80.2856444000,,,,0
Tupelo Honey,2840,18785 NE Biscayne Blvd ,,Aventura ,Florida,33180,United States,,25.9500804000,-80.1445444000,,,,0
Turquoise Hen,2905,120 S. Depot Street ,,Batesville ,Indiana,47006,United States,,39.2968649000,-85.2199020000,,,,0
Twigs,3234,1925 Monroe Street ,,Madison ,Wisconsin,53711,United States,(608) 255-4363 ,43.0639394000,-89.4181289000,,,,0
Twigs,2996,51 Church Street ,,Lenox ,Massachusetts,01240,United States,(413) 637-0711 ,42.3581800000,-73.2830700000,,,,0
Twigs,2997,24 Railroad Street ,,Great Barrington ,Massachusetts,01230,United States,,42.1952376000,-73.3635573000,,,,0
Two Skirts,2761,201 W Colorado Ave. ,,Telluride ,Colorado,81435,United States,,37.9374377000,-107.8118097000,,,,0
URBAN EVE BOUTIQUE,3173,115 Abner Jackson Pkwy ,,Sutie A Lake Jackson ,Texas,77566,United States,(979) 480-9000 ,29.0433096000,-95.4564452000,,,,0
UTAH WOOLEN MILLS,3176,59 W SOUTH TEMPLE ,,SALT LAKE CITY ,Utah,84101,United States,(801) 364-1851 ,40.7689392000,-111.8930593000,,,,0
Vance'S Blues,3221,111 Walnut St ,,Morgantown ,Virginia,26508,United States,(304) 282-9414 ,39.6305615000,-79.9573794000,,,,0
Velvet Coat,2910,500 E Locust St ,,Des Moines ,Iowa,50309,United States,,41.5899090000,-93.6110247000,,,,0
Velvet Coat,2911,118 E College Street ,,Iowa City ,Iowa,52240,United States,(319) 887-7151 ,41.6592891000,-91.5338031000,,,,0
Velvet Lounge,2969,203 North Market St ,,Frederick ,Maryland,21701,United States,(301) 695-5700 ,39.4167045000,-77.4109828000,,,,0
VILLAGE BOUTIQUE,3029,1888 Main Street Suite F ,,Madison ,Mississippi,39110,United States,(601) 957-0010 ,32.4691290000,-90.1298109000,,,,0
Village Maternity,3218,2615 NE University Vlg ,,Seattle ,Washington,98105,United States,(206) 523-5167 ,47.6632539000,-122.2994497000,,,,0
VILLAGE TAILOR,3030,145 COURTHOUSE SQ ,,OXFORD ,Mississippi,38655,United States,(662) 234-8217 ,34.3660716000,-89.5192624000,,,,0
VINTAGE COLLECTION,3220,900 4TH AVENUE ,,HUNTINGTON ,Virginia,25701,United States,(304) 525-2204 ,38.4209961000,-82.4436743000,,,,0
Viola Lovely,3241,38 Main Street ,,Concord ,MA,01742,United States,(978) 287-0775,42.4600736000,-71.3500913000,,,,0
Viola Lovely,3242,148 Main Street ,,Wenham ,MA,01968,United States,978-468-1775,42.6050320000,-70.8859030000,,,,0
Viola Lovely,2998,1409 Washington Street ,,Boston ,MA,02118,United States,(857) 277-0746,42.6050320000,-70.8859030000,,,,0
Viva Diva,2740,1327 4th St ,,San Rafael ,California,94901,United States,(415) 256-8380 ,37.9732572000,-122.5314669000,,,,0
Walla Walla Clothing Co.,3219,103 E Main St ,,Walla Walla ,Washington,99362,United States,(509) 525-4783 ,46.0683124000,-118.3374703000,,,,0
Wardrobe Va,3200,1322 gaskins rd ,,Richmond ,Virginia,23228,United States,(804) 397-5021 ,37.5935645000,-77.5969645000,,,,0
We Are Iconic,3459,1236 Waimanu St Suite B ,,Honolulu ,Hi,96814,United States,,21.2934739000,-157.8471698000,,,,0
Weiss-Goldring,2930,3601 Masonic Drive Suite A ,,Alexandria ,Louisiana,71301,United States,(318) 443-9200 ,31.2773892000,-92.4640527000,,,,0
Westwin - Jackson,3111,169 Carriage House Drive ,,Jackson ,Tennessee,38305,United States,(731) 664-8686 ,35.6681079000,-88.8353470000,,,,0
Wildflower Women,2741,317 Town Center E ,,Santa Maria ,California,93454,United States,(805) 922-9195 ,34.9524311000,-120.4334610000,,,,0
Wilkes Bashford,2742,450 Stanford Shopping Center ,,Palo Alto ,California,94304,United States,(650) 322-7080 ,37.4430902000,-122.1715806000,,,,0
Willow,2841,5 Main Street ,,Rosemary Beach ,Florida,32461,United States,(850) 231-0433 ,30.2794104000,-86.0164464000,,,,0
Wishlist,2779,1101 Boston Post Rd ,,Darien ,Connecticut,06820,United States,(877) 629-4600 ,41.0744101000,-73.4734031000,,,,0
World Passages LTD (Beaver Creek),2762,15 W Thomas Place ,,Beaver Creek ,Colorado,81620,United States,(970) 845-8888 ,39.6032296000,-106.5174572000,,,,0
Yacoubian Tailors,3112,721 Broad Street ,,Chattanooga ,Tennessee,37402,United States,(423) 265-0187 ,35.0476533000,-85.3108452000,,,,0
Zip Fit Me,2899,520 N. Michigan Ave ,,Chicago ,Illinois,60606,United States,(312) 953-9425 ,41.8914107000,-87.6249547000,,,,0
Zou Zou,2842,2 N. Summerlin ,,Orlando ,Florida,32801,United States,(407) 843-3373 ,28.5426624000,-81.3685866000,,,,0
