store_name,store_number,address,address2,city,state,zip_code,country,phone_number,latitude,longitude,store_hours,store_type,other_fields,coming_soon
Bambootique,,318 Bay Walk ,,Ocean Beach ,NY,11770,United States,,,,,,,
Meringue & Sutton Place,,3030 Jericho Turnpike ,,East Northport ,NY,11731,United States,,,,,,,
Country Village Chemists,,227-229 East Main Street ,,Huntington ,NY,11743,United States,,,,,,,
Pink Link,,310 New York Avenue ,,Huntington ,NY,11743,United States,,,,,,,
Signature Gifts & Monograms,,147-G Woodbury Road ,,Huntington ,NY,11743,United States,,,,,,,
Cold Spring Country Club,,22 East Gate Drive ,,Huntington ,NY,11743,United States,,,,,,,
Mustique,,110 Main Street ,,Westhampton Beach ,NY,11978,United States,,,,,,,
shock,,115 Main street ,,Westhampton Beach ,NY,11978,United States,,,,,,,
Pashley Childrens Boutique,,169 Main Street ,,Cold Spring Harbor ,NY,11724,United States,,,,,,,
Living   /  Samhall,,117 Main Street ,,Cold Spring Harbor ,NY,11724,United States,,,,,,,
Sandy B Design,,33 Middle Hollow Road ,,Lloyd Harbor ,NY,11743,United States,,,,,,,
Lily Pad (The),,130 Jessup Avenue Home:11 ,,Willow Lane/Quogue Quogue ,NY,11959,United States,,,,,,,
Snappy Gator,,1438 Post Road ,,Fairfield ,CT,06824,United States,,,,,,,
"Island Outfitters - Fairfield, Ct",,1189 Post Road ,,Fairfield ,CT,06824-6046,United States,,,,,,,
Mama Janes,,363 Pequot Ave ,,Southport ,CT,06890,United States,,,,,,,
Fairfield Women's Exchange,,332 Pequot Avenue ,,Southport ,CT,06890,United States,,,,,,,
Rex & Cove,,48 Calf Pasture Beach Road ,,East Norwalk ,CT,06855,United States,,,,,,,
Wendy Mount,,14 Knollwood Dr. ,,Fairfield ,CT,06824,United States,,,,,,,
Sophie Claire's,,22 Broad Street ,,at Harbor Walk Milford ,CT,06460,United States,,,,,,,
Everything is Rosey,,1072 Post Rd. ,,Darien ,CT,06820,United States,,,,,,,
Darien Sport Shop,,1127 Post Road ,,Darien ,CT,06820,United States,,,,,,,
Birch Lifestyle,,28 Birch Hill Road ,,Locust Valley ,NY,11560,United States,,,,,,,
Coccolarsi,,12 Birch Hill Rd ,,Locust Valley ,NY,11560,United States,,,,,,,
Le Petit Zebra,,27 Forest Lane ,,Locust Valley ,NY,11560,United States,,,,,,,
The Creek,,1 Horse Hollow Road ,,Locust Valley ,NY,11560,United States,,,,,,,
Ritz Carlton - Key Biscayne,,455 Grand Bay Drive ,,Key Biscayne ,FL,33149,United States,,,,,,,
Palm Produce Resortwear - Key Biscayne,,328 Crandon Blvd # 113 ,,Key Biscayne ,FL,33149,United States,,,,,,,
Casting Boutique,,260 Crandon Blvd. Suite 41 ,,Key Biscayne ,FL,33149,United States,,,,,,,
Babalu,,1121 Lincoln Rd ,,Miami Beach ,FL,33139,United States,,,,,,,
Four Seasons Miami,,1435 Brickell Avenue Attn: Accents Boutique Lamonts # 644 ,,Miami ,FL,33131,United States,,,,,,,
Vizcaya Museum Gift Shop,,3251 S. Miami Avenue ,,Miami ,FL,33129,United States,,,,,,,
Voguette.com,,1541 Brickell Avenue # 3702 1110 BRICKELL AVE STE 806 ,,SHIP TO MIAMI Miami ,FL,33129,United States,,,,,,,
Lesley Invitations Stationary,,1767 Micanopy Ave ,,Miami ,FL,33133,United States,,,,,,,
Ritz-Carlton,,2675 South Bayshore Drive ,,Coconut Grove ,FL,33133,United States,,,,,,,
NUE STUDIO,,3470 East Coast Avenue Suite 113 ,,Miami ,FL,33137,United States,,,,,,,
Detail de Luxe,,10250 Old Cutler Rd. ,,Coral Gables ,FL,33156,United States,,,,,,,
Two Cute Boutique,,1 Alhambra Plaza Suite 1130 ,,Coral Gables ,FL,33134,United States,,,,,,,
Nautica Design Gallery,,5900 SW 73rd Street Suite 101 ,,South Miami ,FL,33143,United States,,,,,,,
Stitching Around,,4862 SW 72nd Avenue ,,Miami ,FL,33155,United States,,,,,,,
Essentials Boutique,,1350 SE 17th Street ,,Fort Lauderdale ,FL,33316,United States,,,,,,,
Lauderdale Diver,,1334 Southeast 17th Street ,,Ft. Lauderdale ,FL,33316,United States,,,,,,,
Charlie's Locker,,1865 Cordova Road Ft ,,Lauderdale ,FL,33316,United States,,,,,,,
Fashion Consul,,1673 NW 79th Ave ,,Miami ,FL,33126,United States,,,,,,,
FlipFlopZone,,1845 Cordova Road Suite 210 ,,Fort Lauderdale ,FL,33316,United States,,,,,,,
Hello Gorgeous!,,1829 Cordova Road ,,The Harbour Shops Fort Lauderdale ,FL,33316,United States,,,,,,,
Cat Cay - A Private Island,,1050 Lee Wagener Blvd Ste 103 ,,Fort Lauderdale ,FL,33315,United States,,,,,,,
Flora Ottimer,,2348 E Sunrise Blvd ,,Fort Lauderdale ,FL,33304,United States,,,,,,,
Palo Seco Beachwear,,2855 South West 136th Avenue Suite 206 ,,Maimi ,FL,33186,United States,,,,,,,
Cathi's,,238 Commercial BLVD Suite 2 ,,Lauderdale-by-the-Sea ,FL,33308,United States,,,,,,,
Doral Golf Resort & Spa,,4400 NW 87th Avenue ,,Miami ,FL,33178,United States,,,,,,,
Georgie Porgies,,3045 N. Federal Highway Suite 60E ,,Fort Lauderdale ,FL,33306,United States,,,,,,,
Hawk's Cay Resort,,61 Hawks Cay Duck Key ,,,FL,33050,United States,,,,,,,
Stackpole Moore Tryon,,242 Trumbull Street ,,Hartford ,CT,06103,United States,,,,,,,
The Villager at Avery Heights,,550 Avery Heights ,,Hartford ,CT,06106,United States,,,,,,,
Workshop on the Green,,10 Cobble Court ,,Litchfield ,CT,06759,United States,,,,,,,
The Dressing Room,,3 North Main Street ,,Wallingford ,CT,06492,United States,,,,,,,
The Mixed Bag,,49 New London TPKE ,,Norwich ,CT,06360,United States,,,,,,,
Ike's Den,,284 Boston Turnpike ,,Shrewsbury ,MA,01545,United States,,,,,,,
Country Clothes,,11 N. Main Street P.O. Box 399 ,,Kent ,CT,06757,United States,,,,,,,
Aegean Treasures,,49 Main Street ,,Essex ,CT,06426,United States,,,,,,,
1 N Main - Essex,,1 North Main Street ,,Essex ,CT,06426,United States,,,,,,,
Treasure Chest,,269 W Main St. ,,Northborough ,MA,01532,United States,,,,,,,
"Darling, LLC.",,1 Village Lane ,,Old Lyme ,CT,06371,United States,,,,,,,
Lea's,,33 Hudson Ave ,,Chatham ,NY,12037,United States,,,,,,,
Walker Loden,,258 Church Street ,,New Haven ,CT,06510,United States,,,,,,,
Eileen and Taylor,,12-16 westbrook place ,,westbrook ,CT,06498,United States,,,,,,,
Idiom,,1014 Chapel Street ,,New Haven ,CT,06510,United States,,,,,,,
ZINC,,133 East Main Street ,,Westborough ,MA,01581,United States,,,,,,,
Taken for Granite,,409 Leetes Island Road ,,Stony Creek ,CT,06405,United States,,,,,,,
All about You Fitness Style,,206 East Main Street ,,Milford ,MA,01757,United States,,,,,,,
Punch,,3262 Franklin Ave ,,Millbrook ,NY,12545,United States,,,,,,,
Seasonal Outfitters,,15 Roosevelt Ave Rte 1 ,,Mystic ,CT,06355,United States,,,,,,,
Mixed Bag,,3 West Main Street ,,Mystic ,CT,06355,United States,,,,,,,
The Olana Museum Shop,,5720 Rt 9 G ,,Hudson ,NY,12534,United States,,,,,,,
Lili and loo,,259 Warren Street ,,Hudson ,NY,12534,United States,,,,,,,
Daisy Jane,,250 York Street ,,York ,ME,02909,United States,,,,,,,
Designware,,206 Main Street ,,Nashua ,NH,03060,United States,,,,,,,
Wellesley Holiday Btq,,17 Central St ,,Wellesley ,MA,02482,United States,,,,,,,
Blue Iris,,415 lexington St. ,,Auburndale ,MA,02466,United States,,,,,,,
Chrislee Boutique,,31 Central Street ,,Wellesley ,MA,02492,United States,,,,,,,
Five Seasons Vermont,,4826 Main St. ,,Manchester Center ,VT,05255,United States,,,,,,,
Pollywogs,,1024 Great Plain Ave ,,Needham ,MA,02492,United States,,,,,,,
Botticelli,,1375 Mineral Spring Ave ,,Providence ,RI,02904,United States,,,,,,,
Portobello Road,,55 Boylston St ,,Chestnut Hill ,MA,02467,United States,,,,,,,
Mod Mama,,6 Midway Road ,,Cranston ,RI,02920,United States,,,,,,,
Sale Mare,,169 strasser ave ,,Westwood ,MA,02090,United States,,,,,,,
Schuyler Meadows Club,,17 schuyler meadows club road ,,loudonville ,NY,12211,United States,,,,,,,
Fairmont at Copley Square,,138 St. James Ave. ,,Boston ,MA,02116,United States,,,,,,,
Holiday Boutique,,53 Charles Street ,,Boston ,MA,02114,United States,,,,,,,
Sara Campbell Ltd.,,46 Plympton Street ,,Boston ,MA,02118,United States,,,,,,,
Rose & Dove,,579 Chickering Road ,,North Andover ,MA,01845,United States,,,,,,,
Sal e Mare,,41 Swallow St. # 1 ,,Boston ,MA,02127,United States,,,,,,,
J. Mode Fashions,,17 Front ,,St Salem ,MA,01920,United States,,,,,,,
Peabody Essex Museum Gift Shop,,161 Essex ,,St Salem ,MA,01970,United States,,,,,,,
Therapy Boutique,,235 Main St. ,,East Greenwich ,RI,02818,United States,,,,,,,
Sweet Twist,,5707 Post Road ,,East Greenwich ,RI,02818,United St