store_name,store_number,address,address2,city,state,zip_code,country,phone_number,latitude,longitude,store_hours,store_type,other_fields,coming_soon
,,408 W. Juanita Ave.,Country Club,Mesa,AZ,85210,United States,(480) 833-6540,,,"Mon-Sat: 7:00am-9:00pm,  Sun: 9:00am-8:00pm",,,
,,1140 N. Higley Rd.,Ste. 103,Mesa,AZ,85205,United States,(480) 654-8028,,,"Mon-Fri: 7:00am-8:00pm,  Sat: 8:00a.m.- 8:00pm,  Sun: 9:00am-3:00pm",,,
,,395 N. Litchfield Rd.,,Goodyear,AZ,85338,United States,(623) 925-2009,,,Mon-Fri: 7:30am-9:00pm | Sat: 8:00am - 9:00pm | Sun: 8:00am-8:00pm,,,
,,2700-B Parker Dr.,La Frontera,Round Rock,TX,78681,United States,(512) 671-6101,,,Mon-Sun: 9:00am-10:00pm,,,
,,10070 N. 90th St.,,Scottsdale,AZ,85258,United States,(480) 657-9449,,,Mon - Sat: 7:00 AM - 9:00 PM  Sun: 9:00 AM - 8:00 PM,,,
,,500 Canyon Ridge Dr. Bldg. G,Center Park at Tech Ridge (Parmer at I-35),Austin,TX,78753,United States,(512) 873-8700,,,Mon-Sun. 9:00am-10:00pm,,,
,,4601 South Medford,Southloop Crossing,Lufkin,TX,75901,United States,(936) 639-4900,,,"Mon-Sat: 10:30am-9:00pm,  Sun: 11:00am-7:00pm",,,
,,17279 Interstate 20 Service Road,,Canton,TX,75103,United States,903-567-5000,,,Monday- Sunday: 7:00am- 10:00pm,,,
,,720 US Hwy 271 N.,,Gilmer,TX,75664,United States,903-680-3354,,,Mon.- Sat.: 7AM -9PM Sun.: 8AM-9PM,,,
,,1429 W. Loop 281,,Longview,TX,75604,United States,(903) 297-8030,,,"Mon-Sat: 10:30am-9:00pm,  Sun: 11:00am-7:00pm",,,
,,2608 North Street,,Nacogdoches,TX,75965,United States,(936) 564-2867,,,"Mon-Sat: 10:30am-9:00pm,  Sun: 11:00am-8:00pm",,,
,,1320 North HIghway 377,,Roanoke,TX,76262,United States,(817) 541-8273,,,Mon.- Fri. 10:00am-10:00pm Sat.-Sun. 10:00am-10:00om,,,
,,1831 South Main Street,,Weatherford,TX,76086,United States,(817) 599-3900,,,Mon-Sun: 10:00am-10:00pm,,,
,,1605 Stadium Blvd,,Jonesboro,AR,72401,United States,(870) 336-0660,,,Mon. - Sun. 10:00am-9:00pm,,,
,,4758 Poplar Avenue,Poplar Avenue,Memphis,TN,38117,United States,(901) 763-0741,,,"Mon-Sat: 10:30am-8:00pm,  Sun: 11:00am-4:00pm",,,
,,1840 Lee Trevino,Suite #705,El Paso,TX,79936,United States,(915) 592-2867,,,Mon-Fri: 7:00am-9:00pm | Sat: 8:00am-9:00pm | Sun: 8:00am-8:00pm,,,
,,7040 N. Mesa B-1,,El Paso,TX,79912,United States,(915) 581-7400,,,Mon-Sun: 10:00am-9:00pm,,,
,,1100 Waters Edge Drive,,Granbury,TX,76048,United States,(817) 573-9909,,,Mon-Sun: 10:00am-10:00pm,,,
,,2012 West Washington Street,,Stephenville,TX,76401,United States,(254) 434-5180,,,Sun - Thur:9:00 AM - 9:00 PM Fri - Sat:9:00 AM - 9:00 PM,,,
,,2381 N. Academy Blvd.,North Academy,Colorado Springs,CO,80909,United States,(719) 574-0337,,,"Mon-Sat: 10:30am-9:00pm,  Sun: 10:30am-7:00pm Winter hours Mon- Sat 10:30am-8pm",,,
,,4212 S. College Ave.,,Ft. Collins,CO,80525,United States,(970) 226-1711,,,"Mon-Sat: 10:30am-8:00pm,  Sun: 11:00am-7:00pm",,,
,,4560 Centennial Blvd.,,Colorado Springs,CO,80919,United States,(719) 528-5678,,,"Mon-Sat: 10:30am-9:00pm,  Sun: 10:30am-7:00pm (Drive Thru Opens at 9AM)",,,
,,"1763 University Blvd., Ste. A",Pan Am Plaza,Las Cruces,NM,88001,United States,(575) 522-3355,,,Sun - Sat 10:00am - 9:00pm,,,
,,8310 Razorback Rd.,,Colorado Springs,CO,80920,United States,(719) 536-0001,,,"Mon-Sat: 7:00am-9:00pm,  Sun: 7:00am-8:00pm",,,
,,1266 S. Hover St.,,Longmont,CO,80501,United States,(303) 651-7410,,,"Mon-Sat: 10:00am-8:00pm,  Sun: 10:00am-7:00pm",,,
,,8500 Pena Blvd,"Denver International Airport, Concourse A",Denver,CO,80249,United States,(303) 342-5680,,,"Mon-Sat: 10:30am-9:00pm,  Sun: 11:00am-7:00pm",,,
,,1869 S Nevada Ave,Southern Cross Shopping Center,Colorado Springs,CO,80905,United States,(719) 633-5445,,,"Mon-Sat: 10:30am-8:00pm,  Sun: 11:00am-6:00pm",,,
,,6330 S. Parker Rd.,,Aurora,CO,80016,United States,(303) 680-2075,,,"Mon-Th: 10:00am-9:00pm,  Fri-Sat: 10:00am-10:00pm Sun. 10:00am-7:00pm",,,
,,9624 Arapahoe Rd,,Greenwood Village,CO,80112,United States,(720) 266-5200,,,"Mon-Sat: 10:00am-8:00pm,  Sun: 10:00am-4:00pm",,,
,,3101 Mountain Drive,Corsicana Crossing,Corsicana,TX,75110,United States,(903) 641-2867,,,Mon - Sun 9:00 AM - 10:00 PM,,,
,,705 SE Wilshire Blvd.,,Burleson,TX,76028,United States,(817)295-5606,,,Mon.-Sun. 10:00 am-10:00 pm,,,
,,3124 Regency Ln,,Denison,TX,75020,United States,(903) 462-4592,,,Mon.-Sun. 10:30am-9:00pm,,,
,,1216 W Henderson St.,,Cleburne,TX,76033,United States,(817) 645-6677,,,Mon-Sun: 10:00am-10:00pm,,,
,,200 IH 35 N.W.,,Hillsboro,TX,76645,United States,(254) 582-5155,,,Mon-Sun: 9:00am-10:00pm,,,
,,6204 McCart Avenue,McCart Avenue,Fort Worth,TX,76133,United States,(817) 294-8601,,,"Mon-Sat: 10:30am-9:00pm,  Sun: 10:30am-8:00pm",,,
,,"6000 Camp Bowie Boulevard, Suite 110",Camp Bowie,Fort Worth,TX,76116,United States,(817) 732-3021,,,"Mon-Sat: 10:30am-9:00pm,  Sun: 11:00am-7:00pm",,,
,,3530 NW Centre Drive,Landmark Lakes,Fort Worth,TX,76135,United States,(817) 882-6885,,,"Mon - Sat 10:00 AM to 10:00 PM, Sun 11:00 AM to 8 PM",,,
,,3216 S.E. Loop 820,Forest Hill,Fort Worth,TX,76140,United States,(817) 551-7733,,,Mon-Sun: 10:00am-10:00pm,,,
,,1610 State Highway 34 South,,Terrell,TX,75160,United States,(972) 551-0793,,,"Mon-Sat: 10:30am-9:00pm,  Sun: 11:00am-9:00pm",,,
,,6834 South Wesley,Crossroads Mall,Greenville,TX,75402,United States,(903) 454-6164,,,Open Everyday: 10:30am-9:00pm,,,
,,4608 Bryant Irvin Rd. #430,,Fort Worth,TX,76132,United States,(817) 423-4300,,,Mon-Sun: 10:00am-9:00pm,,,
,,"4407 Little Rd., Suite 600",,Arlington,TX,76016,United States,(817) 561-1605,,,Mon-Sun: 10:30am-10:00pm,,,
,,6360 North Beach,,Haltom City,TX,76137,United States,(817) 428-6448,,,"Mon-Sat: 10:30am-9:00pm,  Sun: 11:00am-7:00pm",,,
,,2504-B1 West Park Row,West Park Row,Pantego,TX,76013,United States,(817) 274-6601,,,"Mon-Sat: 10:30am-9:00pm,  Sun: 11:00am-7:00pm",,,
,,"507 Highway 77N, Suite 126 B",,Waxahachie,TX,75165,United States,(972) 923-1818,,,"Mon-Thu:  10:30am-9:00pm,  Fri-Sat: 10:30am-10:00pm Sun. 10:30am-9:00pm",,,
,,1548 Eastchase Parkway,,Fort Worth,TX,76120,United States,(817) 861-6900,,,Mon - Sun 10:00 AM - 10:00 PM,,,
,,750 E US Hwy 80,Shafer Plaza at Mustang Creek,Forney,TX,75126,United States,(972) 552-2996,,,"M-Sat, 10a-9p,  Sun 11a-9p",,,
,,2519 West I-20,,Grand Prairie,TX,75052,United States,(972) 623-9700,,,Mon-Sun: 10:00am-10:00pm,,,
,,416 W. University Dr.,,Denton,TX,76201,United States,(940) 565-1900,,,Mon-Sun: 10:30am-10:00pm,,,
,,207 East FM Road 1382,,Cedar Hill,TX,75104,United States,(972) 293-1500,,,Mon-Sun: 10:00am-10:00pm,,,
,,6237 Rufe Snow,,Watauga,TX,76148,United States,(817) 581-6007,,,"Mon-Sat: 10:30am-9:00pm,  Sun: 11:00am-7:00pm",,,
,,1085 S. Main Street,,Keller,TX,76248,United States,(817)562-8825,,,Mon.-Sat.  8:00am-10:00pm Sun 8:00am-8:00 pm,,,
,,2410 Westport Parkway,,Fort Worth,TX,76177,United States,(817) 439-1919,,,Mon-Fri: 8:30am-10:00pm:Sat-Sun: 9:00am-10:00pm,,,
,,2002 US Hwy 287 North,,Mansfield,TX,76063,United States,(817) 453-3809,,,Mon-Sun: 10:00am-10:00pm,,,
,,379 E. Pipeline Rd.,E. Pipeline,Bedford,TX,76021,United States,(817) 282-6037,,,"Mon-Sat: 10:30am-9:00pm,  Sun: 11:00am-8:00pm",,,
,,320 Grapevine Highway,,Hurst,TX,75064,United States,(817) 576-4344,,,Mon.-Sun. 10:30am-9:00pm,,,
,,2410 South I-35 East,South IH 35 East,Denton,TX,76205,United States,(940) 384-7404,,,"Mon-Sat: 8:30am-10:00pm,  Sun: 9:00am-10:00pm",,,
,,795 Small Hill Drive,,Grand Prairie,TX,75050,United States,(972) 263-2370,,,"Mon-Sat: 10:30am-9:00pm,  Sun: 11:00am-7:00pm",,,
,,2323 West Airport Freeway,,Euless,TX,76040,United States,(817) 571-2511,,,"Mon-Sat: 10:30am-9:00pm,  Sun: 10:30am-8:00pm",,,
,,2000 W. Southlake Blvd.,,Southlake,TX,76092,United States,(817) 442-9666,,,Mon-Sun: 10:30am-10:00pm,,,
,,2035 N State Highway 360,,Grand Prairie,TX,75050,United States,(817) 640-1011,,,"Mon-Fri: 10:30am-9:00pm,  Sat: 10:30am-9:00pm Sun. 10:00am-8:00pm",,,
,,706 East Interstate 30,,Rockwall,TX,75087,United States,(972) 722-7900,,,"Mon-Fri: 9:00am-10:00pm,  Sat: 9:30am-10:00pm,  Sun: 9:30am-9:00pm",,,
,,11650 Hwy 380 Suite 400,,Cross Roads,TX,76227,United States,940-365-9533,,,Mon.- Sun.: 10am- 10pm,,,
,,1801 S. Main Street,,Grapevine,TX,76051,United States,(817) 424-5201,,,"Mon-Fri: 8:30am-10:00pm,  Sat: 9:00am-10:00pm sun. 8:30am-10:00pm",,,
,,2830 State Highway 121,,Euless,TX,76039,United States,(817) 399-8100,,,Monday- Sunday 10:30am- 10:00pm,,,
,,2520 N Story Rd,,Irving,TX,75062,United States,,,,Mon.-Sun. 10:00 am- 10:00 pm.,,,
,,"1515 Town East Blvd., Ste. 520",Town East Blvd.,Mesquite,TX,75150,United States,(972) 270-6382,,,Mon-Sun: 10:30am-10:00pm,,,
,,3335 West Wheatland Road,Suite 180,Dallas,TX,75237,United States,(214)339-9784,,,Mon.-Fri. 9:30am-10:00pm Sat.-Sun. 10:00am-9:00pm,,,
,,3851 Long Prairie Road,North West Plaza,Flower Mound,TX,75028,United States,(972) 899-8130,,,Mon-Sun: 8:00am-9:00pm,,,
,,1521 West University Drive Suite 100,,McKinney,TX,75069,United States,469-952-5806,,,Mon.- Sun. 10am-10pm,,,
,,1152 Buckner #124,Casa Linda,Dallas,TX,75218,United States,(214) 324-4584,,,Mon-Sun: 10:30am-10:00pm,,,
,,4970 N. O'Connor Rd.,Las Colinas,Irving,TX,75062,United States,(972) 717-2015,,,Mon-Sun: 10:30am-9:00pm,,,
,,2691 Little Elm Parkway,,Little Elm,TX,75068,United States,214-430-5070,,,Mon.- Sun.: 10am- 10pm,,,
,,8235 North Stemmons Freeway,,Dallas,TX,75247,United States,(214) 630-9944,,,"Mon-Sat: 10:30am-9:00pm,  Sun: 10:30am-4:00pm",,,
,,7530 N. MacArthur Blvd.,,Irving,TX,75063,United States,(972) 409-0837,,,"Mon-Sat: 10:30am-10:00pm,  Sun: 10:30am-8:00pm",,,
,,3903 Gaston Avenue,,Dallas,TX,75246,United States,(214) 954-7558,,,Mon-Sun: 10:00am-10:00pm,,,
,,450 E. Round Grove Rd.,,Lewisville,TX,75067,United States,(972) 459-9000,,,Mon-Sun: 10:30am-10:00pm,,,
,,502 West McDermott Drive,,Allen,TX,75013,United States,(972) 396-7278,,,Mon-Sun: 10:30am-9:00pm,,,
,,"350 W FM 544, SUITE 100",,Murphy,TX,75094,United States,469-814-0390,,,Mon.- Sun.: 10am- 9pm,,,
,,6862 Greenville Avenue,Greenville Avenue,Dallas,TX,75231,United States,(214) 361-9155,,,Mon-Sun: 10:30am-10:00pm,,,
,,7804 Forest Lane,,Dallas,TX,75230,United States,(214) 369-2867,,,Mon-Sun: 10:30am-9:00pm,,,
,,135 S Denton Tap Road,,Coppell,TX,75019,United States,(972) 393-3233,,,Mon-Sun: 10:30am-9:00pm,,,
,,5045 Central Expressway,,Plano,TX,75023,United States,(972) 424-1664,,,Mon-Sun: 10:30am-9:00pm,,,
,,6360 N Josey Ln,,The Colony,TX,75056,United States,(214) 469-1034,,,Mon-Sun: 10:30am-10:00pm,,,
,,"1405 Jupiter Road, Ste. 100",,Plano,TX,75074,United States,(972) 516-6639,,,Mon-Sun: 10:30am-9:00pm,,,
,,3887 Preston Road,,Frisco,TX,75034,United States,(972) 731-8780,,,Mon-Sun: 10:30am-10:00pm,,,
,,"13881 Midway Road, Suite #101",,Farmers Branch,TX,75244,United States,(972) 239-8002,,,Mon-Sat: 10:30am-9:00pm  Closed Sunday,,,
,,2661 Midway Rd.,Ste. 239,Carrollton,TX,75006,United States,(972) 733-7283,,,"M-F, 10:30a-9p,  Sat 11a-8p,  Sun 11a-7:30p",,,
,,19160 Preston Road,,Dallas,TX,75252,United States,(972) 996-1152,,,Mon-Sun: 10:30am-9:00pm,,,
,,3328 E Hebron,,Carrollton,TX,75010,United States,(972) 820-7111,,,Mon-Sun: 10:30am-9:00pm,,,
,,3740 Beltline Road,,Addison,TX,75001,United States,(214) 716-0660,,,Mon.- Sun.: 10am- 9pm,,,
,,2668 S 31st Street,,Temple,TX,76504,United States,(254) 778-3400,,,Mon-Sun: 10:00am-10:00pm,,,
,,102 Riverview Drive,,Lampasas,TX,76550,United States,(512)556-5000,,,Mon - Sun 10 AM - 9 PM,,,
,,1012 E 2nd Ave,,Belton,TX,76513,United States,(254) 939-8300,,,Mon-Sun: 10:00am-10:00pm,,,
,,80 Cove Terrace Shopping Ctr,,Copperas Cove,TX,76522,United States,(254) 542-1107,,,"Mon-Sat: 10:00am-9:00pm,  Sun: 11:00am-8:00pm",,,
,,103 W Central Texas Expy,,Harker Heights,TX,76548,United States,(254) 680-2869,,,Mon-Sun: 10:00am-9:00pm,,,
,,2410 Highway 281,,Marble Falls,TX,78654,United States,(830) 798-9333,,,"Sun-Thu: 11:00am-8:00pm,  Fri-Sat: 11:00am-9:00pm",,,
,,902 W Central Texas Expy,Ste F,Killeen,TX,76541,United States,(254) 554-5550,,,Mon-Sun: 10:00am-9:00pm,,,
,,1131 Highway 290 West,,Elgin,TX,78621,United States,512-285-2867,,,Mon - Sun 7am-10pm,,,
,,601 South IH 35,,Georgetown,TX,78626,United States,(512) 868-1244,,,Mon-Sun: 10:30am-10:00pm,,,
,,110 East Whitestone Blvd.,U.S. 183 @ 1431,Cedar Park,TX,78613,United States,(512) 258-2360,,,Mon-Sun: 9am-10pm,,,
,,215 S. Palestine,,Athens,TX,75751,United States,(903) 677-0202,,,"M-S, 10a-10p",,,
,,709 South Beckham,,Tyler,TX,75701,United States,(903) 592-8390,,,"Mon-Sat: 10:30am-9:00pm,  Sun: 11:00am-7:00pm",,,
,,492 State Highway 71 West,,Bastrop,TX,78602,United States,(512) 332-2867,,,Mon-Sun: 8:00am-10:00pm,,,
,,720 W. Southwest Loop 323,,Tyler,TX,75703,United States,(903) 581-0801,,,"Mon-Sat: 10:30am-9:00pm,  Sun: 11:00am-7:00pm",,,
,,"6301 W. Parmer Lane, Suite 608",,Austin,TX,78729,United States,(512) 918-2867,,,Mon-Sun. 10:00am-9:00pm,,,
,,2105 South South East Loop 323,,Tyler,TX,75701,United States,(903) 596-7040,,,"Mon-Sat: 10:30am-9:00pm,  Sun: 11:00am-7:00pm",,,
,,1664 Jackson Street,,Jacksonville,TX,75766,United States,(903) 339-3090,,,Mon.- Fri. 7am- 10pm  Sat.- Sun. 7am-10pm,,,
,,13201 FM 620,Maconda Park,Austin,TX,78717,United States,(512) 257-2112,,,Mon-Sun 9:00am-10:00pm,,,
,,5105 Balcones Woods Dr.,Balcones Woods,Austin,TX,78759,United States,(512) 338-9494,,,Mon.-Sun. 9:00am-10:00pm,,,
,,2545 W. Anderson Ln.,Northcross Mall,Austin,TX,78757,United States,(512) 419-0031,,,Mon.--Sun. 9:00am-10:00pm,,,
,,3600 Presidential Blvd,"Austin-Bergstrom International Airport, Ste 201",Austin,TX,78719,United States,(512) 530-2900,,,"Mon-Sat: 10:30am-9:00pm,  Sun: 11:00am-7:00pm",,,
,,8300 N FM Road 620,"Bldg A, Ste 100",Austin,TX,78726,United States,(512) 258-3500,,,Mon.-Sun. 10:00am-9:00pm,,,
,,"5601 Brodie Ln., Ste. 1700",,Sunset Valley,TX,78745,United States,(512) 892-3119,,,Mon -  Fri: 7:00 AM - 10:00 PM | Sat - Sun: 8:00 AM - 10:00 PM,,,
,,111 W William Cannon Blvd,Ste 202,Austin,TX,78745,United States,(512) 462-2222,,,Drive- Thru: Mon-Sat. 10:00am-10:00pm Sun. 11:00am- 9:00pm In-Store Dining: Mon.- Thurs. 10:00am-9:00pm Fri.- Sat. 10:00am-10:00pm Sun. 11:00am-9:00pm,,,
,,218 S. Lamar Blvd.,,Austin,TX,78704,United States,(512) 476-2867,,,Mon.- Sun. 8am - 10pm,,,
,,125 N. FM 1626,,Buda,TX,78610,United States,(512) 295-0247,,,Mon-Sun: 10:30am-9:30pm,,,
,,19350 IH 35 South,(Kohler's Crossing & IH 35),Kyle,TX,78640,United States,(512) 262-7267,,,Open Daily: 10:00 AM to 10:00 PM,,,
,,205 W Hopkins St,,San Marcos,TX,78666,United States,512-667-9565,,,Mon-Sun 9AM - 9PM,,,
,,1020 Centerpoint Rd.,Suite 102,San Marcos,TX,78666,United States,(512) 392-5230,,,Mon - Sun 10:00 AM - 9:00 PM,,,
,,1025 Cannon Dr.,,Dripping Springs,TX,78620,United States,(512) 894-2043,,,Mon-Sun: 10:00am-9:00pm,,,
,,1037 South Walnut Ave.,,New Braunfels,TX,78130,United States,(830) 629-2811,,,Mon-Sun: 10:30am-9:00pm,,,
,,330 N. Hwy 123 Byp.,,Seguin,TX,78155,United States,(830) 379-1202,,,Mon-Sun: 9:00am-9:30pm,,,
,,1423 Sidney Baker,,Kerrville,TX,78028,United States,(830) 895-3354,,,Open Everyday:  Monday - Friday 10:00 AM - 9:00 PM,,,
,,1776 Independence Drive,,New Braunfels,TX,78132,United States,(830) 625-2801,,,Daily: 10:30AM - 9:00PM,,,
,,17604 North IH 35,@ FM 3009,Schertz,TX,78154,United States,(210) 658-8224,,,Mon-Sun: 10:30am-9:00pm,,,
,,"12709 I45 South, Suite 600",Sam Houston Town Center,Willis,TX,77318,United States,(936) 856-7100,,,"Mon-Sat: 10:00am-9:00pm,  Sun: 11:00pm-7:00pm",,,
,,507 I-45 North,Suite E,Conroe,TX,77301,United States,(936) 441-2867,,,"Mon-Sat: 10:30am-9:00pm,  Sun: 11:00am-6:00pm",,,
,,20248 State Highway 46 West #170,,Spring Branch,TX,78070,United States,(830) 980-6602,,,Sun.- Thurs. 9:00am-9:30pm Fri.-Sat.. 9:00am-10:00pm,,,
,,28431 Tomball Parkway,,Tomball,TX,77375,United States,(281) 357-5464,,,"Mon-Sat: 10:30am-9:00pm,  Sun: 11:00am-7:00pm",,,
,,"6209 FM 1488, Suite A",,Magnolia,TX,77354,United States,(281) 259-7444,,,Mon - Sat: 10:00 AM - 9:00 PM Sun: 11:00 AM - 7:00 PM,,,
,,25250 NW Freeway,Suite 120,Cypress,TX,77429,United States,(281) 256-3445,,,"Mon-Sat: 10:30am-9:00pm,  Sun: 10:30am-8:00pm",,,
,,1620 Research Forest Dr,Suite 200,Shenandoah,TX,77381,United States,(281) 419-1300,,,"Mon-Sat: 10:30am-9:00pm,  Sun: 11:00am-4:00pm",,,
,,25010 Franz Rd.,,Katy,TX,77493,United States,(281)665-7401,,,Mon. -Fri. 6:00 am-10:00 pm Sat.-Sun. 7:00 am-10:00 pm,,,
,,"831 S, US 59",,Cleveland,TX,77327,United States,(832) 966-9669,,,Monday- Sunday 7:00am- 9:00pm,,,
,,20920 Kuykendahl Rd.,Suite A,Spring,TX,77379,United States,(281) 907-7655,,,"Mon-Sat: 10:30am-9:00pm,  Sun: 10:30am-9:00pm",,,
,,500 Seawall Blvd. STE#410,,Galveston,TX,77550,United States,(409) 763-6173,,,Open Everyday: 10:00 AM to 9:00 PM,,,
,,"3111 Fry Rd., Ste. 403",Morton Ranch Plaza,Katy,TX,77449,United States,(281) 492-2326,,,"Mon-Sat: 10:30am-9:00pm,  Sun: 11:00am-7:00pm",,,
,,8254 Highway 6 North,,Houston,TX,77095,United States,(281) 550-1734,,,"Mon-Sat: 10:30am-9:00pm,  Sun: 11:00am-7:00pm",,,
,,502 S. Mason Road,,Katy,TX,77450,United States,(281) 395-1001,,,Open Everyday: 9:00 AM - 9:00 PM,,,
,,"20821 US Hwy 281 North, Suite 102",,San Antonio,TX,78258,United States,(210) 490-8222,,,Mon-Sun 10am - 9pm,,,
,,1530 North Loop 1604 East,,San Antonio,TX,78232,United States,(210) 494-4217,,,Mon-Sun: 10:00am-9:00pm,,,
,,8534 Perrin-Beitel Road,,San Antonio,TX,78217,United States,(210) 599-1138,,,Mon-Sun: 10:00am-9:00pm,,,
,,25235 IH 10 West,Suite 101,San Antonio,TX,78257,United States,(210) 595-3220,,,Monday- Sunday 10:00am- 9:00pm,,,
,,2514 Nacogdoches,,San Antonio,TX,78217,United States,(210) 828-8635,,,"Mon-Sat: 10:30am-9:00pm,  Sun: 11:00am-7:00pm",,,
,,11803 Blanco Road,,San Antonio,TX,78216,United States,(210) 366-0383,,,"Mon-Fri: 7:00am-9:30pm,  Sat-Sun 8:00am-9:30pm",,,
,,522 Sawdust Road,,Spring,TX,77380,United States,(281) 419-6622,,,"Mon-Sat: 10:30am-9:00pm,  Sun: 11:00am-4:00pm",,,
,,2705H 61st Street,,Galveston,TX,77551,United States,(409)497-2980,,,Mon-Sun 10:00am- 10:00pm,,,
,,"6900 San Pedro, Ste. 101",N. Towne Shopping Center,San Antonio,TX,78216,United States,(210) 822-7077,,,"Mon-Sat: 10:30am-9:00pm,  Sun: 11:00am-7:00pm",,,
,,11010 Culebra Road,,San Antonio,TX,78253,United States,(210) 688-2200,,,Mon-Sun: 10:00am-9:00pm,,,
,,8311 Highway 151,Highway 151 - San Antonio,San Antonio,TX,78245,United States,(210) 647-5099,,,Open Everyday 8:00am - 9:30pm,,,
,,12834  I-10 W.,(DeZavala & IH 10),San Antonio,TX,78249,United States,(210) 558-3354,,,"Mon-Fri: 10:30am-7:00pm,  Sat: 11:00am-7:00pm,  Sun: 11:00am-7:00pm",,,
,,"9827 Potranco Rd., Suite 100",,San Antonio,TX,78251,United States,(210) 543-0800,,,Mon-Sun: 10:00am-9:00pm,,,
,,7990 Bandera Rd.,Bandera & Mainland,San Antonio,TX,78250,United States,(210) 522-9794,,,"Mon-Sat: 10:30am-9:00pm,  Sun: 11:00am-8:00pm",,,
,,1620 Louetta Road,,Spring,TX,77388,United States,(832) 585-1592,,,M-S 10a-10p,,,
,,5603 Fm 1960 Rd W.  Suite C,Champions Village,Houston,TX,77069,United States,(281) 580-2867,,,Mon-Sat: 10am-9pm  Sun:  10am-7pm,,,
,,14510 Memorial Dr.,,Houston,TX,77079,United States,(281) 493-9778,,,"Mon-Sat: 10:30am-9:00pm,  Sun: 11:00am-6:00pm",,,
,,"12120 FM 1960 W., Suite B",,Houston,TX,77065,United States,(281) 890-7271,,,"Mon-Sat: 10:30am-9:00pm,  Sun: 11:00am-7:00pm",,,
,,12142 Greenspoint Drive,Greenspoint,Houston,TX,77060,United States,(832)446-6073,,,Mon.-Fri. 7:00am-3:00pm,,,
,,13236 B Northwest Freeway,Northwest Crossing,Houston,TX,77040,United States,(713) 462-3335,,,"Mon-Sat: 10:30 AM-9:00 PM,  Sun: 11:00 AM-8:00 PM",,,
,,"5934 Bandera Road, # 321",,San Antonio,TX,78238,United States,(210) 523-6666,,,"Sat-Thu: 10:30am-9:00pm,  Fri: 10:30am-9:30pm",,,
,,"9746 Katy Fwy, #700",,Houston,TX,77055,United States,(713) 467-6565,,,Open Everyday 10:00 AM - 10:00 PM,,,
,,"8751 Highway 6 South, Suite Z",,Houston,TX,77083,United States,(281) 530-2345,,,Open Everyday 10:00 AM to 9:00 PM,,,
,,"3325 Palmer Hwy., Suite C",,Texas City,TX,77590,United States,(409) 995-0374,,,Mon-Sun: 10:00am-10:00pm,,,
,,10001 Westheimer #2126,,Houston,TX,77042,United States,(713) 974-6462,,,Mon-Sat: 10am-9pm   Sun:  10am-4pm,,,
,,1263 Kingwood Drive,,Kingwood,TX,77339,United States,(281) 358-2867,,,"Mon-Sat: 10:30am-9:00pm,  Sun: 11:00am-7:00pm",,,
,,1104 N Sam Houston Pkwy E,,Houston,TX,77032,United States,(281) 227-1465,,,Mon - Sun 10:00 AM - 10:00 PM,,,
,,12485 Westheimer Road,@ Dairy Ashford,Houston,TX,77077,United States,(281) 558-2867,,,"Mon-Fri: 10:00am-9:00pm,  Sat-Sun: 10:30am-9:00pm",,,
,,9781 F.M. 1960 Bypass West,,Humble,TX,77338,United States,(281) 446-1871,,,"Mon-Sat: 10:30am-9:00pm,  Sun: 11:00am-7:00pm",,,
,,15287 SW Freeway,,Sugar Land,TX,77478,United States,(281) 565-2867,,,Sun.- Wed.: 10am- 9pm Thurs.-Sat.: 10am- 10pm,,,
,,7670 Katy Fwy #120,,Houston,TX,77024,United States,(832)582-8854,,,Sun.- Sat. 10:00am-9:00pm,,,
,,4001 Richmond Ave Suite A,,Houston,TX,77027,United States,(713) 661-6852,,,"Mon-Sat: 10:30am-9:00pm,  Sun: 10:30am-8:00pm",,,
,,4010 Garth Road,,Baytown,TX,77521,United States,(281) 420-1557,,,"Mon-Sat: 10:30am-9:00pm,  Sun: 11:00am-7:00pm",,,
,,6127 Westheimer Road,,Houston,TX,77057,United States,(713) 974-2867,,,Mon-Sun: 10:30am-9:00pm,,,
,,10105 S. Post Oak Rd.,Meyerland,Houston,TX,77096,United States,(713) 721-8256,,,"Mon-Fri: 10:00am-8:30pm,  Sat. 10:00am- 7:30pm Sun: 10:00am-7:00pm",,,
,,815 Walker Street #T-26,The Tunnels,Houston,TX,77002,United States,(713) 225-3354,,,Mon-Fri: 7:00am-3:00pm Sat.-Sun. Closed,,,
,,8200 S. Main St. Suite 100,,Houston,TX,77025,United States,(713) 665-0011,,,"Mon-Sat: 10:00am-9:00pm,  Sun: 10:00am-8:00pm",,,
,,76 Yale St.,,Houston,TX,77007,United States,(713) 880-0505,,,Mon-Sun: 10:00am-10:00pm,,,
,,12230 W Lake Houston Pkwy,Suite 275,Houston,TX,77044,United States,832-230-5826,,,Mon.- Sun.: 10am- 9pm,,,
,,1635 W FM 646,,League City,TX,77573,United States,(281) 337-4477,,,Mon-Sun: 10:00am-10:00pm,,,
,,9121 Broadway,,Pearland,TX,77584,United States,(281) 997-6464,,,"Mon-Sat: 10:00am-9:00pm,  Sun: 10:30am-9:00pm",,,
,,8920 Spencer Hwy,Suite F,La Porte,TX,77571,United States,(281)479-2000,,,10:00am - 10:00pm,,,
,,"6969 Gulf Freeway, Ste. 100","Gulf Freeway, Houston",Houston,TX,77087,United States,(713) 640-5656,,,"Mon-Sat: 10:00am-8:30pm, Sunday 11am -4pm",,,
,,1521 Bay Area Blvd.,,Clear Lake,TX,77058,United States,(281) 488-7934,,,Mon.- Sun.: 10:00am-9:30pm,,,
,,221 S FM 270 Rd,,League City,TX,77573,United States,(281) 557-2444,,,Mon-Sun: 10:00am-10:00pm,,,
,,12720 Featherwood,,Houston,TX,77034,United States,(281) 484-7600,,,"Mon-Fri: 10:00am-9:00pm,  Sat: 11:00am-9:00pm Sun. 11:00am-6:00pm",,,
,,3830 Spencer Hwy.,,Pasadena,TX,77504,United States,(713) 946-2034,,,"Mon-Sat: 10:30am-9:00pm,  Sun: 11:00am-7:00pm",,,
,,109 East Parkwood,,Friendswood,TX,77546,United States,(281) 996-5483,,,Mon-Sun: 10:00am-9:30pm,,,
,,1401 West Southern Ave.,,Tempe,AZ,85282,United States,(480) 966-7672,,,"Mon-Sat: 6:00am-9:00pm,  Sun: 9:00am-8:00pm",,,
,,1520 W. Bell Road,,Phoenix,AZ,85023,United States,(602) 472-3500,,,"Mon-Sat: 10:30am-8:00pm,  Sun: 10:30am-5:00pm",,,
,,4445 E. Thomas Rd.,Arcadia Crossings Shopping Center,Phoenix,AZ,85018,United States,(602) 808-9800,,,"Mon-Sat: 7:00am-9:00pm,  Sun: 9:00am-8:00pm",,,
,,9016 N. Black Canyon Highway,,Phoenix,AZ,85051,United States,(602) 944-1915,,,"Mon-Sat: 7:00am-9:00pm,  Sun: 9:00am-8:00pm",,,
,,901 Sullivan Road,,Veradale,WA,99037,United States,(509) 926-5805,,,"Mon-Sat: 10:30am-9:00pm,  Sun: 11:00am-7:00pm",,,
,,10120 SE 256th Street,,Kent,WA,98030,United States,(253) 854-4357,,,Monday - Friday 9AM-9PM | Saturday 10AM-8PM | Sunday 10AM-7PM,,,
,,5229 W Owen K Garriott Rd,,Enid,OK,73703,United States,(580) 234-5059,,,"Mon.- Fri. 10:30am-9:00pm, Sat.-Sun. 10:30am-10:00pm",,,
,,310 N Perkins Rd.,,Stillwater,OK,74075,United States,(405) 624-0807,,,Sun-Thur: 10:30 AM to 9:00 PM    Fri-Sat: 10:30 AM to 10:00 PM,,,
,,628 W Danforth,,Edmond,OK,73003,United States,(405) 696-0500,,,Sun.- Thurs. 10:30am-9:00pm Fri.-Sat.. 10:30am-10:00pm,,,
,,5119 W Charleston Rd.,West Charleston,Las Vegas,NV,89146,United States,(702) 877-8768,,,"Mon-Sat: 10:30am-9:00pm,  Sun: 11:00am-6:00pm",,,
,,3850 Las Vegas Blvd. South,Excalibur Casino,Las Vegas,NV,89109,United States,(702) 987-8414,,,"Open Everyday,  8:00 AM to 1:00 AM",,,
,,3401 Cerrillos Road,,Santa Fe,NM,87501,United States,(505) 474-3711,,,Mon-Sun: 10:00am-9:00pm,,,
,,3900 E. Fry Blvd.,,Sierra Vista,AZ,85635,United States,(520) 458-4022,,,Mon-Sun: 7:00am-9:00pm,,,
,,1701 Rio Rancho Dr.,,Rio Rancho,NM,87124,United States,(505) 891-3131,,,Mon-Sun: 10:00am-9:00pm,,,
,,3270 E. Valencia,,Tucson,AZ,85706,United States,(520) 741-2333,,,"Mon-Sat: 10:00am-8:00pm,  Sun: 10:30am-7:00pm",,,
,,"6001 San Mateo Blvd., Ste. G5",,Albuquerque,NM,87109,United States,(505) 881-6549,,,Mon-Sun: 10:00am-9:00pm,,,
,,1325 W. Walnut Ave.,(W. Walnut Ave. & Dug Gap Rd.),Dalton,GA,30720,United States,(706) 217-2867,,,Mon-Sun: 10:30am-9:00pm,,,
,,302-A Broad Street S.E.,,Gainesville,GA,30501,United States,(770) 534-6400,,,"Mon-Fri: 8:00am-9:00pm,  Sat-Sun: 11:00am-9:00pm",,,
,,11831 Jefferson Ave.,,Newport News,VA,23606,United States,(757) 591-8800,,,"Mon-Sat: 10:00 AM - 9:00PM, Sun: 10:00 AM - 8:00PM",,,
,,2941 Lawrenceville-Suwanee Road,,Suwanee,GA,30024,United States,(678) 765-6336,,,Open Everyday: 11:00 AM to 9:00 PM,,,
,,2771 West Hwy 54,"Peachtree City, GA",Peachtree City,GA,30269,United States,(770) 742-0566,,,"Mon-Sat: 10:00am-10:00pm,  Sun: 10:30am-9:00pm",,,
,,"4717 Menaul Blvd., N.E.",,Albuquerque,NM,87110,United States,(505) 883-0609,,,"Mon-Sat: 10:00am-8:00pm,  Sun: 11:00am-5:00pm",,,
,,4320 N. 27th St.,,Lincoln,NE,68521,United States,(402) 438-7442,,,"Dining Room Open Mon-Sat:  8:00 - 9:00 Sunday 8:00 - 8:00,  Drive Thru Open Mon - Sat 8:00 - 10:00 Sun. 8:00 - 9:00",,,
,,2260 Peachtree Industrial Blvd.,Suite 100,Duluth,GA,30097,United States,678-226-5223,,,Mon.- Sun.: 10am- 10pm,,,
,,1625 Pleasant Hill Rd,Ste 110,Duluth,GA,30096,United States,(770) 717-0503,,,"Mon-Sat: 11:00am-8:30pm,  Sun: 11:00am-4:00pm",,,
,,530 N. Saddlecreek Drive,,Omaha,NE,68132,United States,(402) 397-9305,,,7:00 AM to 11:00 PM Daily,,,
,,2782 South 129th Avenue,129th Avenue,Omaha,NE,68144,United States,(402) 691-0611,,,"Dining Room 7:00 - 9:00 Mon. - Fri.,  Weekends 7:00am-9:00 Drive Thru Open until 10:00",,,
,,861 Virginia Ave,,Hapeville,GA,30354,United States,(404) 767-0012,,,"Mon-Fri: 10:30AM - 9:00 PM, Sat: 11:00 AM - 7:00 PM, Sun: 11:00 AM - 6:00 PM",,,
,,3345 Old Milton Parkway,,Alpharetta,GA,30005,United States,(770)753-4833,,,Mon-Sun: 10:00am-10:00pm,,,
,,"9040 Hwy 92, Ste. 130",,Woodstock,GA,30189,United States,(770) 591-5875,,,"Mon-Sat: 11:00am-9:00pm,  Sun: 11:00am-8:00pm",,,
,,757 First Colonial Rd.,,Virginia Beach,VA,23451,United States,(757) 491-5300,,,Mon - Sat:  7:00 AM to 10:00 PM    Sun 7:00 AM to 9:00 PM    Drive-Thru Open Until Midnight,,,
,,"3000 Windy Hill Rd., Ste. A-10",,Marietta,GA,30067,United States,(770) 953-8400,,,"Mon-Sat: 10:30am-9:00pm,  Sun: 11:00am-7:00pm",,,
,,2201 Upton Drive  Suite 908,,Virginia Beach,VA,23454,United States,(757) 563-2867,,,Mon-Thurs 10AM-9PM Fri-Sat 11AM-10PM Sun 11AM-8PM,,,
,,224 Constitution Dr.,,Virginia Beach,VA,23462,United States,(757) 499-3354,,,Mon - Thurs: 11:00 AM to 10:00 PM Fri-Sat: 11:00 AM to 10:00 PM Sun: 11:00 AM to 9:00 PM,,,
,,"2980 Cobb Pkwy., Ste. 208",Cumberland Festival,Atlanta,GA,30339,United States,(770) 612-8044,,,Mon-Sun: 10:00am-9:00pm,,,
,,700 North Military Hwy,,Norfolk,VA,23502,United States,(757) 455-2867,,,Mon - Thurs: 11:00 AM to 9:00 PM Fri-Sat: 11:00 AM to 9:00 PM Sun: 11:00 AM to 8:00 PM,,,
,,246 East Main Street,,Norfolk,VA,23510,United States,(757) 627-2867,,,Mon - Sat: 11:00 AM to 8:00 PM Sun: 11:00 AM to 6:00 PM,,,
,,2705 South 108th Street,,West Allis,WI,53227,United States,(414) 541-8877,,,"Mon-Sat: 10:30am-8:30pm,  Sun: 11:00am-7:00pm",,,
,,2030 W. Lindsey,West Lindsey,Norman,OK,73069,United States,(405) 364-4349,,,Mon-Sun: 10:00am-10:00pm,,,
,,6800 West Brown Deer Road,,Milwaukee,WI,53223,United States,(414) 355-6161,,,"Mon-Sat: 10:00am-8:00pm,  Sun: 10:00am-7:00pm",,,
,,3323 N.W. Expressway,Northwest Expressway,Oklahoma City,OK,73112,United States,(405) 842-3066,,,Mon-Sun: 10:00am-10:00pm,,,
,,2400 South Air Depot,,Midwest City,OK,73110,United States,(405) 455-5989,,,Open Everyday: 10:00 AM - 10:00 PM,,,
,,19417 N. Portland,,Edmond,OK,73012,United States,(405) 359-1211,,,Mon.-Fri. 6:00 am-9:00 pm Sat.-Sun. 7:00 am-10:00 pm,,,
,,631 SW 19th St.,Royal Rock Shopping Center,Moore,OK,73160,United States,(405) 703-8400,,,Mon-Sun: 10:00am-10:00pm,,,
,,8425 N. Rockwell Ave.,Rockwell Avenue,Oklahoma City,OK,73132,United States,(405) 722-3279,,,Mon-Sun: 10:00am-10:00pm,,,
,,2620 West Memorial Rd.,,Oklahoma City,OK,73134,United States,(405) 755-8355,,,"Mon-Thu:  11:00am-9:00pm,  Fri-Sat: 11:00am-10:00pm sun. 11:00am-9:00pm",,,
,,1505 S.W. 74th St.,74th Street,Oklahoma City,OK,73159,United States,(405) 681-7393,,,Mon-Sun: 10:00am-10:00pm,,,
,,"7100 Terminal Drive, Unit 937",Will Rogers World Airport,Oklahoma City,OK,73159,United States,(405) 681-5566,,,"Mon-Sat: 10:30am-9:00pm,  Sun: 11:00am-7:00pm",,,
,,1250 E. Kenosha,,Broken Arrow,OK,74012,United States,(918) 258-7878,,,Mon-Sun: 10:00am-10:00pm,,,
,,2343 E. 71st St.,71st & Lewis,Tulsa,OK,74136,United States,(918) 496-4663,,,Mon.-Sun. 10:00 am- 10:00 pm.,,,
,,4905 E. 41st St.,,Tulsa,OK,74135,United States,(918) 289-0003,,,Mon.-Sun. 10:00 am- 10:00 pm.,,,
,,4080 N. Dowlen Rd.,,Beaumont,TX,77706,United States,(409) 924-9991,,,"Mon-Sat: 10:30am-10:00pm,  Sun: 10:30am-9:00pm",,,
,,8710 West Central,,Wichita,KS,67212,United States,(316) 425-7720,,,Mon-Sun:  10:30am-9:00pm,,,
,,813 E. Prospect Ave,,Ponca City,OK,74601,United States,(580) 749-5246,,,Sun.-Thu. 13:30am-9:00pm Fri.-Sat. 10:30am-10:00pm,,,
,,1334 W. Pawnee,West Pawnee,Wichita,KS,67213,United States,(316) 265-5240,,,Mon-Sun: 10:30 am-9:00 pm,,,
,,295 Country Lane,,Lumberton,TX,77657,United States,(409) 751-2131,,,Mon.- Sun.: 10:30am-9:00pm,,,
,,118 IH45 South,,Huntsville,TX,77340,United States,(936) 293-1900,,,"Mon-Sat: 10:30am-9:00pm,  Sun: 11:00am-7:00pm",,,
,,6507 E. Central,East Central,Wichita,KS,67206,United States,(316) 687-3206,,,Mon-Sun: 10:30am-9:00pm,,,
,,5805 Weber Road,,Corpus Christi,TX,78415,United States,(361) 855-7011,,,Mon-Sun: 10:30am-10:00pm,,,
,,4218 South Alameda,Town & Country Shopping Center,Corpus Christi,TX,78412,United States,(361) 992-2850,,,"Mon-Sat: 10:30am-10:00pm,  Sun: 11:00am-10:00pm",,,
,,10205 S. Memorial,,Tulsa,OK,74133,United States,(918) 369-4801,,,Mon.-Sun. 10:00 am- 10:00 pm.,,,
,,11326 Leopard Street,,Corpus Christi,TX,78410,United States,(361) 241-4444,,,"Mon-Sat: 10:30am-10:00pm, Sun: 11:00am-10:00pm",,,
,,1140 S. Rock Rd.,,Wichita,KS,67207,United States,(316) 686-3821,,,Mon-Sun: 10:30am-9:00pm,,,
,,321 E. Dimond Blvd.,,Anchorage,AK,99515,United States,(907) 868-3960,,,Monday-Saturday:10am - 9pm (Drive Thru 10pm) | Sunday:11am- 6pm (Drive Thru 7pm),,,
,,3715 19th St.,,Lubbock,TX,79410,United States,(806) 793-5542,,,"Sun-Thu:  7:30am-9:00pm,  Fri-Sat: 7:30am-10:00pm",,,
,,8101 Indiana Avenue,,Lubbock,TX,79423,United States,(806) 792-3396,,,Mon-Sun: 10:30am-9:00pm,,,
,,5204 Slide Road,,Lubbock,TX,79414,United States,(806) 793-1233,,,"Sun-Thu:  10:30am-9:00pm,  Fri-Sat: 10:30am-10:00pm",,,
,,2968 Johnston St.,Johnston Street,Lafayette,LA,70503,United States,(337) 232-6515,,,"Sun-Thu:  9:00am-9:00pm,  Fri-Sat: 9:00am-10:00pm",,,
,,3570 Pinhook Rd.,Pinhook,Lafayette,LA,70508,United States,(337) 837-5255,,,Mon-Sun: 9:00am-9:00pm,,,
,,"3120 S. Main St., Suite 13",,Joplin,MO,64804,United States,(417) 626-7597,,,"Mon-Sat: 10:30am-9:00pm,  Sun: 11:00am-7:00pm",,,
,,531 Rangeline Road,,Joplin,MO,64801,United States,(417) 659-8822,,,"Mon-Sat: 10:30am-9:00pm,  Sun: 11:00am-7:00pm",,,
,,7010 Rogers Ave.,,Fort Smith,AR,72903,United States,(479) 484-7311,,,Open Everyday: 8:30 AM to 9:00 PM,,,
,,2709 West Walnut,,Rogers,AR,72756,United States,(479) 636-9900,,,Mon-Sun: 10:00am-9:00pm,,,
,,2548 N. College Ave.,,Fayetteville,AR,72703,United States,(479) 443-5000,,,Mon-Sun: 10:30am-9:00pm,,,
,,1919 West Sunset Ave.,,Springdale,AR,72764,United States,(479) 751-9800,,,Mon-Sun: 10:00am-9:00pm,,,
,,131 North Dean Road,,Auburn,AL,36830,United States,(334) 246-3009,,,Open Everyday: 10:30 AM - 9:00 PM,,,
,,5055 Carmichael Rd.,,Montgomery,AL,36106,United States,(334) 409-9993,,,Mon-Sun: 10:30am-9:00pm,,,
,,"3440 Bell St., Ste. 322",Puckett Plaza Shopping Center,Amarillo,TX,79109,United States,(806) 353-7859,,,"Mon-Thu:  10:30am-9:00pm,  Fri-Sat: 10:30am-10:00pm Sun 10:30am-9:00pm",,,
,,901 S. 23rd.,,Canyon,TX,79015,United States,(806) 655-2867,,,Mon-Sun: 10:30am-9:00pm,,,
,,1612 S. Ross St.,,Amarillo,TX,79102,United States,(806) 374-5513,,,"Sun-Thu:  10:30am-10:00pm,  Fri-Sat: 10:30am-10:00pm",,,
,,"1619 Kentucky,  Ste. 1350",Wellington Square,Amarillo,TX,79109,United States,(806) 359-4445,,,"Mon-Thu:  10:30am-9:00pm,  Fri-Sat: 10:30am-10:00pm sun 10:30am-9:00pm",,,
,,3421 John F. Kennedy Blvd.,,North Little Rock,AR,72116,United States,(501) 758-2720,,,Mon-Sun: 10:00am-9:00pm,,,
,,11815 Mara Lynn Dr.,Colonnade Shopping Center,Little Rock,AR,72215,United States,(501) 224-4119,,,Mon-Sun: 10:00am-8:30pm,,,
,,180 Mary Esther Blvd.,,Mary Esther,FL,32569,United States,(850) 581-0718,,,Open Everyday: 10:30 AM - 9:00 PM,,,
,,2606 Hwy 36 South,,Brenham,TX,77833,United States,(979) 421-6340,,,"Mon-Sat: 9:00am-9:00pm,  Sun: 10:00am-8:00pm",,,
,,107 South College Avenue,South College,College Station,TX,77840,United States,(979) 260-2867,,,Mon.-Sun. 9:00am-10:00pm,,,
,,2210 Harvey Mitchell Pkwy S,,College Station,TX,77845,United States,(979) 680-8150,,,Mon-Sun. 9:00am-10:00pm,,,
,,12221 S. Strangline Rd.,,Olathe,KS,66062,United States,(913) 782-2867,,,Sun-Sat: Drive-thru 7:00am-10:00pm Lobby 8:00am-10:00pm,,,
,,12071 Metcalf Ave.,,Overland Park,KS,66213,United States,(913) 498-2867,,,"Mon-Sat: Drive-thru 7:00am-10:00pm,  Lobby 8:00am-10:00pm Sun: Drive-thru 7:00am-9:00pm Lobby 8:00am-9:00pm",,,
,,2900 East Airport Drive,Ontario International Airport (2),Ontario,CA,91761,United States,(909) 975-8008,,,,,,
,,51096 Basilone Road,"Building 51096, San Onofre Center, Area 51",Camp Pendleton,CA,92672,United States,(949) 492-1030,,,Mon. - Sat. 9am - 8pm | Sunday 10am - 7pm,,,
,,2500 E Imperial Hwy,Ste 196,Brea,CA,92821,United States,(714) 256-1100,,,"Mon-Sat: 7:00am-9:00pm, Sun: 10:00am-8:00pm",,,
,,4132 S. Campbell,,Springfield,MO,65807,United States,(417) 889-2445,,,"Sat.-Thurs, 10:30am-9:00pm,  Fri: 10:00am-10:00pm",,,
,,1316 North Glenstone,,Springfield,MO,65802,United States,(417) 868-8188,,,"Mon-Thu:  10:30am-9:00pm,  Fri-Sat: 10:30am-10:00pm Sun. 10:30am-9:00pm",,,
,,959 MacArthur Dr.,,Alexandria,LA,71303,United States,(318) 445-3354,,,"7 Days a Week, 7:00am-9:00pm",,,
,,1508 I H 35,,Waco,TX,76706,United States,(254) 714-0955,,,Mon-Sun: 10:00am-10:00pm,,,
,,621 North Valley Mills Dr.,,Waco,TX,76710,United States,(254) 741-9288,,,Mon-Sun: 10:00am-10:00pm,,,
,,2019 Gage,Gage,Topeka,KS,66604,United States,(785) 273-4313,,,8:00 am-9:00 pm Daily,,,
,,1305 Knox Abbott Dr.,,Cayce,SC,29033,United States,(803) 828-4520,,,Sun.- Thurs. 10:00am-9:00pm Fri.-Sat.. 10:30am-10:00pm,,,
,,529 Bush River Road,,Columbia,SC,29210,United States,(803) 798-1775,,,"Mon-Sat: 10:30am-9:00pm,  Sun: 11:00am-7:00pm",,,
,,2616 N. 10th Street,,McAllen,TX,78501,United States,(956) 687-6566,,,"Sun-Thu:  11:00am-9:00pm,  Fri-Sat: 11:00am-10:00pm",,,
,,607 Kansas Ave.,Kansas Avenue,Topeka,KS,66603,United States,(785) 234-3256,,,Mon-Sat: 10:30am-3:00pm,,,
,,"400 S.W. 29th St., Ste. Z",S.W. 29th Street,Topeka,KS,66611,United States,(785) 267-2468,,,Mon-Sun: 10:30am-9:00pm,,,
,,6116 Rivers Avenue,,Charleston,SC,29406,United States,(843) 554-7600,,,"Mon-Fri: 10:00am-7:30pm,  Sat: 10:00am-5:00pm Sun. Closed",,,
,,1598 Sandifer Blvd.,,Seneca,SC,29678,United States,(864) 885-9800,,,"Mon-Sat: 10:30am-9:00pm,  Sun: 11:00am-9:00pm",,,
,,1490 Baxter St.,Alps Village,Athens,GA,30606,United States,(706) 543-2518,,,Mon-Sun: 10:00am-9:00pm,,,
,,5003 John Ben Sheppard Parkway,,Odessa,TX,79762,United States,(432) 552-0110,,,Mon-Sun: 8:00am-9:30pm,,,
,,5211 West Wadley,,Midland,TX,79707,United States,(432) 683-9169,,,Mon-Sun: 8:00AM - 9:00PM,,,
,,1109 Andrews Highway,,Midland,TX,79701,United States,(432) 689-2867,,,Mon-Sun 10:00AM - 9:00PM,,,
,,301 N. Green River Rd.,,Evansville,IN,47715,United States,(812) 471-4011,,,"Mon-Sat.: 7:00am-9:00pm,  Sun.: 8:00am- 9:00pm",,,
,,919 North Fisk,,Brownwood,TX,76801,United States,(325) 643-6661,,,"Fri-Sat: 10:30am-9:00pm,  Sun-Thurs: 10:30am-8:00pm",,,
,,1018 N. Judge Ely Blvd.,,Abilene,TX,79601,United States,(325) 672-9500,,,Mon-Sun: 10:30am-9:00pm,,,
,,204 South East Georgia Street,,Sweetwater,TX,79556,United States,(325) 235-5000,,,Sun.-Sat.8:00am-10:00pm,,,
,,302 West Harris,,San Angelo,TX,76903,United States,(325) 658-3354,,,Mon-Sun: 8:00AM - 9:00PM,,,
,,4518 South 14th St.,South 14th Street,Abilene,TX,79605,United States,(325) 695-2021,,,"Mon-Sun:  10:30am-9:00pm, ",,,
,,"8745 Memorial Pkwy., #100",,Port Arthur,TX,77640,United States,(409) 721-9997,,,Mon-Sun: 10:00am-10:00pm,,,
,,1710 W. Joe Harvey Blvd.,,Hobbs,NM,88240,United States,(575) 492-9852,,,"Sun-Thu:  7:00am-9:00pm,  Fri: 10:30am-9:30pm,  Sat: 8:00am-9:00pm",,,
,,2420 West Mason Street,,Green Bay,WI,54303,United States,(920) 497-1313,,,"Mon-Sat: 10:30am-9:00pm,  Sun: 11:00am-8:00pm",,,
,,881 North Casaloma Drive,,Appleton,WI,54913,United States,(920) 731-7272,,,"Mon-Sat: 10:30am-9:00pm,  Sun: 10:30am-8:00pm",,,
,,3916-B Kemp,,Wichita Falls,TX,76308,United States,(940) 691-4415,,,"Mon-Sat: 10:30am-9:00pm,  Sun: 11:00am-7:00pm",,,
,,1050 GIlmer St.,,Sulphur Springs,TX,75482,United States,(903) 919-5060,,,Mon.- Sun.: 10am- 10pm,,,
,,405 15th Street East,,Tuscaloosa,AL,35401,United States,(205) 248-2472,,,Open Everyday 10:00 AM - 10:00 PM,,,
,,103 Inverness Corners,,Hoover,AL,35242,United States,(205) 991-0035,,,Mon-Sun: 10:00am-10:00pm,,,
,,401 N. Richardson,,Roswell,NM,88201,United States,(575) 623-4840,,,"Mon-Sat: 10:30am-9:00pm,  Sun: 11:00am-7:00pm",,,
,,8916 S. State St.,,Sandy,UT,84070,United States,(801) 352-9882,,,"Mon - Sat: 11:00 AM to 9:00 PM,  Closed Sundays",,,
,,"3335 Dr. M L King, Jr. Blvd.",Hwy. 70 & Hwy. 17,New Bern,NC,28562,United States,(252) 638-2508,,,Mon.-Sun. 10:30am-8:30pm,,,
,,508 I. A. A. Drive,Empire Plaza,Bloomington,IL,61701,United States,(309) 663-6364,,,"Mon-Sat: 11:00am-8:00pm,  Sun: 11:00am-6:00pm",,,
,,129 Arkansas Blvd.,,Texarkana,AR,71854,United States,(870) 772-0277,,,"Mon-Sat: 10:30am-9:00pm,  Sun: 11:00am-9:00pm",,,
,,3652 Richmond Road,,Texarkana,TX,75503,United States,(903) 831-0036,,,Mon.- Fri. 7:00 am -10:00 pm Sat. 8:00 am - 10:00 pm Sun. 8:00 am- 9:00 pm,,,
,,62080 N.E. 27 th Street,,Bend,OR,97701,United States,(541) 317-5980,,,Mon-Sun: 8:00am-9:00pm,,,
,,6985 Nugget,,Evansville,WY,82636,United States,(307) 473-8589,,,Mon.- Fri. 5:30am-10:00pm Sat.-Sun. 7:00am-10:00pm,,,
,,3735 East Franklin Blvd.,,Gastonia,NC,28056,United States,(704) 824-3611,,,"Sun-Thu:  10:30am-9:30pm,  Fri-Sat: 10:30am-10:00pm",,,
,,1708 Galleria Blvd.,,Franklin,TN,37067,United States,(615) 778-0100,,,"Mon-Fri: 10:30am-10:00pm,  Sat: 11:00am-10:00pm Sun. 11:00am-9:00pm",,,
,,2000 North 12th Street,,Bismarck,ND,58501,United States,(701) 221-2446,,,"Mon-Sat: 10am-9:00pm,  Sun: 10am-8:00pm",,,
,,4601 North Navarro,North Navarro,Victoria,TX,77901,United States,(361) 576-3201,,,Mon-Sun: 10:30am-10:00pm,,,
,,2463 Patterson (F) Rd.,east of Mesa Mall,Grand Junction,CO,81505,United States,(970) 255-7696,,,"Mon-Sat: 11:00am-8:00pm,  Sun: 11:30am-8:00pm",,,
,,377 Long Shoal Rd.,,Arden,NC,28704,United States,828-676-3608,,,Mon.- Sun.: 10:30am-10:00pm,,,
,,103 Old Boiling Springs Road,,Greer,SC,29650,United States,(864) 234-1449,,,"Mon-Sat: 10:30am-9:00pm,  Sun: 11:00am-7:00pm",,,
,,603 East Greenville St.,,Anderson,SC,29621,United States,(864) 226-1346,,,Mon-Sun: 10:30am-9:00pm,,,
,,2144 McCulloch Blvd. N,,Lake Havasu City,AZ,86403,United States,(928) 854-2144,,,"Mon-Sat: 7:00am-9:00pm,  Sun: 9:00am-8:00pm",,,
,,2670 Creighton Rd,,Pensacola,FL,32504,United States,850-439-5838,,,Mon.- Sun.: 10am- 10pm,,,
,,6005 S. Westnedge Ave.,South Westnedge,Portage,MI,49002,United States,(269) 329-0058,,,"Mon-Sat: 10:00am-9:00pm,  Sun: 10-8",,,
,,6044 B Drive North,,Battle Creek,MI,49017,United States,(269) 979-2340,,,"Mon-Sat: 10:00am-10:00pm,  Sun: 11:00am-8:00pm",,,
,,94 South 20th,South 20th,Battle Creek,MI,49015,United States,(269) 964-8677,,,"Mon-Sat: 10:00am-9:00pm,  Sun: 10:00am-9:00pm",,,
,,14 West Michigan Avenue,,Battle Creek,MI,49017,United States,(269) 963-2526,,,"Mon-Fri: 10:00am-7:00pm,  Sat: 11:00am-5:00pm,  Sun: Closed",,,
,,3425 West 66th Street,Southdale Shopping Center,Edina,MN,55435,United States,(952) 922-2530,,,"Mon-Sat: 11:00am-9:00pm,  Sun: 11:00am-8:00pm",,,
,,4600 MacCorkle Avenue,,South Charleston,WV,25309,United States,(304) 768-4775,,,"Mon-Thu: 11:00am-10:00pm,  Fri-Sat: 11:00am-11:00pm sun. 11:00am-8:00pm",,,
,,844-846 Fourth Avenue,,Huntington,WV,25701,United States,(304) 525-8000,,,"Mon-Fri: 10:30am-8:00pm,   Sat:  11:00 - 8:00pm,  Sun: Closed",,,
,,2480 S. 9th St.,Mid State Plaza,Salina,KS,67401,United States,(785) 823-6824,,,Sunday â€“ Wednesday 10:30am â€“ 8pm  Thursday â€“ Saturday 10:30am â€“ 9pm,,,
,,846 Main Avenue,,Durango,CO,81301,United States,(970)764-4774,,,Mon.-Sun. 10:00am-8:00pm,,,
,,484 East 20th St.,,Farmington,NM,87401,United States,(505) 327-2722,,,Mon-Sun: 10:30am-9:00pm,,,
,,906 U. S. Highway 64 West,,Apex,NC,27502,United States,(919) 462-9481,,,Mon-Sat: 10:30am-9:00pm  Sun: 10:30am-8pm,,,
,,3596 Lamar Avenue,,Paris,TX,75460,United States,(903) 905-4916,,,Open Everyday: 8:00 AM - 10:00 PM,,,
,,1935 West Palmetto Street,,Florence,SC,29501,United States,(843) 673-0777,,,"Mon-Sat: 10:30am-9:00pm,  Sun: 11:00am-7:00pm",,,
,,"15801 L.C. Hilton Jr. Dr. , Suite 100",Pier Park,Panama City Beach,FL,32413,United States,(850) 236-8900,,,Mon-Sun: 10:00am-9:00pm,,,
,,4127 W. Hwy. 98,,Panama City,FL,32401,United States,(850) 913-1899,,,Mon-Sun: 10:00am-9:00pm,,,
