store_name,store_number,address,address2,city,state,zip_code,country,phone_number,latitude,longitude,store_hours,store_type,other_fields,coming_soon
Watsonville,,655 Main St ,,Watsonville ,CA,95076,United States,831-761-4324,,,"M-Th 9:00AM - 5:00PM, Fri 9:00AM - 6:00PM, Sat 9:00AM - 1:00PM",,,
Yorba Linda,,20655 Yorba Linda Blvd. Suite C ,,Yorba Linda ,CA,92886,United States,714-693-1642,,,"M-Th 9:00AM - 5:00PM, Fri 9:00AM - 6:00PM",,,
Walnut Creek,,1555 Mount Diablo Boulevard ,,Walnut Creek ,CA,94596,United States,925-945-0470,,,"M-Th 9:00AM - 5:00PM, Fri 9:00AM - 6:00PM, Sat 9:00AM - 1:00PM",,,
East Bay Middle Market,,200 Pringle Ave Ste 500 ,,Walnut Creek ,CA,94596,United States,925 947-2419,,,,,,
Yuba City,,998 Tharp Road ,,Yuba City ,CA,95993,United States,530-671-7891,,,"M-Th 9:00AM - 5:00PM, Fri 9:00AM - 6:00PM, Sat 9:00AM - 1:00PM",,,
Yucca Valley,,57500 Twenty-nine Palms Highway ,,Yucca Valley ,CA,92284,United States,760-365-2321,,,"M-Th 9:00AM - 5:00PM, Fri 9:00AM - 6:00PM, Sat 9:00AM - 1:00PM, Drive Up M-Th 9:00AM - 5:00PM, Drive Up Fri 9:00AM - 6:00PM, Drive Up Sat 9:00AM - 1:00PM",,,
Westminster,,15377 Brookhurst Street ,,Westminster ,CA,92683,United States,714-531-9440,,,"M-Th 9:00AM - 5:00PM, Fri 9:00AM - 6:00PM, Sat 9:00AM - 1:00PM",,,
Warner Center,,5855 Topanga Canyon Blvd 1st Fl ,,Woodland Hills ,CA,91367,United States,818-595-2060,,,"M-Th 9:00AM - 5:00PM, Fri 9:00AM - 6:00PM, Sat 9:00AM - 1:00PM",,,
Mammoth Lakes,,437 Old Mammoth Road ,,Mammoth Lakes ,CA,93546,United States,760-934-2546,,,"M-Th 9:00AM - 5:00PM, Fri 9:00AM - 6:00PM",,,
Wasco,,1049 7Th St ,,Wasco ,CA,93280,United States,661-758-5382,,,"M-Th 9:00AM - 5:00PM, Fri 9:00AM - 6:00PM",,,
Westwood,,10900 Wilshire Blvd. Suite 101 ,,Los Angeles ,CA,90024,United States,310-475-7200,,,"M-Th 9:00AM - 5:00PM, Fri 9:00AM - 6:00PM, Sat 9:00AM - 1:00PM",,,
Little Tokyo,,120 South San Pedro Street ,,Los Angeles ,CA,90012,United States,213-972-5500,,,"M-Th 9:00AM - 5:00PM, Fri 9:00AM - 5:00PM",,,
White Memorial Medical Plaza II,,1700 Cesar E. Chavez Ave. ,,Los Angeles ,CA,90033,United States,,,,,,,
White Memorial Hospital,,1700 East Cesar E. Chavez Ave ,,Los Angeles ,CA,90033,United States,,,,,,,
Century City,,1901 Avenue of the Stars Suite 100 ,,Los Angeles ,CA,90067,United States,310-551-8900,,,"M-Th 9:00AM - 5:00PM, Fri 9:00AM - 6:00PM",,,
Crenshaw,,3060 Crenshaw Blvd. Ste A ,,Los Angeles ,CA,90016,United States,323-737-3777,,,"M-Th 9:00AM - 5:00PM, Fri 9:00AM - 6:00PM, Sat 9:00AM - 1:00PM",,,
Atwater Village,,3355 Glendale Blvd. ,,Los Angeles ,CA,90039,United States,323-664-2981,,,"M-Th 9:00AM - 5:00PM, Fri 9:00AM - 6:00PM, Sat 9:00AM - 1:00PM",,,
West Los Angeles,,4032 Centinela Avenue ,,Los Angeles ,CA,90066,United States,310-391-0678,,,"M-Th 9:00AM - 5:00PM, Fri 9:00AM - 6:00PM, Sat 9:00AM - 1:00PM",,,
Los Angeles Main,,445 South Figueroa Street ,,Los Angeles ,CA,90071,United States,213-236-7700,,,"M-Th 9:00AM - 5:00PM, Fri 9:00AM - 5:00PM",,,
Miracle Mile,,5670 Wilshire Blvd. Suite 175 ,,Los Angeles ,CA,90036,United States,323-900-3540,,,"M-Th 9:00AM - 5:00PM, Fri 9:00AM - 6:00PM, Sat 9:00AM - 1:00PM",,,
Rancho San Diego,,12098 Fury Lane Suite D ,,El Cajon ,CA,92019,United States,619-670-6802,,,"M-Th 9:00AM - 5:00PM, Fri 9:00AM - 6:00PM, Sat 9:00AM - 1:00PM",,,
El Cajon Valley,,580 N 2nd St ,,El Cajon ,CA,92021,United States,619-593-5160,,,"M-Th 9:00AM - 5:00PM, Fri 9:00AM - 6:00PM, Sat 9:00AM - 1:00PM, Drive Up M-Th 9:00AM - 5:00PM, Drive Up Fri 9:00AM - 6:00PM, Drive Up Sat 9:00AM - 1:00PM",,,
West Hollywood,,8631 Santa Monica Blvd ,,West Hollywood ,CA,90069,United States,310 967-6131,,,"M-Th 9:00AM-5:00PM, Fri 9:00AM-6:00PM, Sat 9:00AM-1:00PM",,,
Del Mar,,1555 CAMINO DEL MAR ,,Del Mar ,CA,92014,United States,858-755-9321,,,"M-Th 9:00AM - 5:00PM, Fri 9:00AM - 6:00PM, Sat 9:00AM - 1:00PM",,,
Corona Del Mar,,2865 East Coast Hwy Suite 100 ,,Corona Del Mar ,CA,92625,United States,949 574-2762,,,"M-Th 9:00AM - 5:00PM, Fri 9:00AM - 6:00PM",,,
El Centro,,576 Main Street ,,El Centro ,CA,92243,United States,760-352-4441,,,"M-Th 9:00AM - 5:00PM, Fri 9:00AM - 6:00PM, Sat 9:00AM - 1:00PM, Drive Up M-Th 9:00AM - 5:00PM, Drive Up Fri 9:00AM - 6:00PM, Drive Up Sat 9:00AM - 1:00PM",,,
Menlo Park,,716 Santa Cruz Avenue ,,Menlo Park ,CA,94025,United States,650-325-4445,,,"M-Th 9:00AM - 5:00PM, Fri 9:00AM - 6:00PM, Sat 9:00AM - 1:00PM",,,
Castle Park,,1343 3rd Ave ,,Chula Vista ,CA,91911,United States,619-498-3175,,,"M-Th 9:00AM - 5:00PM, Fri 9:00AM - 6:00PM, Sat 9:00AM - 1:00PM, Drive Up M-Th 9:00AM - 5:00PM, Drive Up Fri 9:00AM - 6:00PM, Drive Up Sat 9:00AM - 1:00PM",,,
Eastlake,,2269 Otay Lakes Rd ,,Chula Vista ,CA,91915,United States,619-216-6934,,,"M-Th 9:00AM - 5:00PM, Fri 9:00AM - 6:00PM, Sat 9:00AM - 1:00PM, Drive Up M-Th 9:00AM - 5:00PM, Drive Up Fri 9:00AM - 6:00PM, Drive Up Sat 9:00AM - 1:00PM",,,
Chula Vista,,410 H Street ,,Chula Vista ,CA,91910,United States,619-426-5330,,,"M-Th 9:00AM - 5:00PM, Fri 9:00AM - 6:00PM, Sat 9:00AM - 1:00PM, Drive Up M-Th 9:00AM - 5:00PM, Drive Up Fri 9:00AM - 6:00PM, Drive Up Sat 9:00AM - 1:00PM",,,
Vista,,825 Civic Center Drive ,,Vista ,CA,92084,United States,760-726-6000,,,"M-Th 9:00AM - 5:00PM, Fri 9:00AM - 6:00PM, Sat 9:00AM - 1:00PM, Drive Up M-Th 9:00AM - 5:00PM, Drive Up Fri 9:00AM - 6:00PM, Drive Up Sat 9:00AM - 1:00PM",,,
Southwestern College Cafeteria,,900 Otay Lakes Rd ,,Chula Vista ,CA,91910,United States,,,,,,,
Mill Valley,,453 Miller Ave ,,Mill Valley ,CA,94941,United States,415-526-1160,,,"M-Th 9:00AM - 5:00PM, Fri 9:00AM - 6:00PM",,,
Strawberry Village,,800 Redwood Hwy Frontage Rd. Ste 329 ,,Mill Valley ,CA,94941,United States,415 380-3780,,,"M-Th 9:00AM - 5:00PM, Fri 9:00AM - 6:00PM",,,
Madera,,201 N D St ,,Madera ,CA,93638,United States,559-673-5902,,,"M-Th 9:00AM - 5:00PM, Fri 9:00AM - 6:00PM, Sat 9:00AM - 1:00PM",,,
Corte Madera,,71 Casa Buena Dr ,,Corte Madera ,CA,94925,United States,415 526-6560,,,"M-Th 9:00AM - 5:00PM, Fri 9:00AM - 6:00PM",,,
Delano,,1308 Main Street ,,Delano ,CA,93215,United States,661-725-0400,,,"M-Th 9:00AM - 5:00PM, Fri 9:00AM - 6:00PM, Sat 9:00AM - 1:00PM, Drive Up M-Th 9:00AM - 5:00PM, Drive Up Fri 9:00AM - 6:00PM",,,
Davis,,300 E Street ,,Davis ,CA,95616,United States,530-756-2301,,,"M-Th 9:00AM - 5:00PM, Fri 9:00AM - 6:00PM, Sat 9:00AM - 1:00PM, Drive Up M-Th 9:00AM - 5:00PM, Drive Up Fri 9:00AM - 6:00PM, Drive Up Sat 9:00AM - 1:00PM",,,
Dana Point,,34177 Pacific Coast Highway ,,Dana Point ,CA,92629,United States,949-496-1293,,,"M-Th 9:00AM - 5:00PM, Fri 9:00AM - 6:00PM, Sat 9:00AM - 1:00PM",,,
Cypress,,4125 Ball Road ,,Cypress ,CA,90630,United States,714-826-0011,,,"M-Th 9:00AM - 5:00PM, Fri 9:00AM - 6:00PM, Sat 9:00AM - 1:00PM, Drive Up  M-Th 9:00AM - 5:00PM, Drive Up Fri 9:00AM - 6:00PM, Drive Up Sat 9:00AM - 1:00PM",,,
Corte Madera,,71 Casa Buena Dr ,,Corte Madera ,CA,94925,United States,415 526-6560,,,"M-Th 9:00AM - 5:00PM, Fri 9:00AM - 6:00PM",,,
Daly City,,95 Southgate Ave ,,Daly City ,CA,94015,United States,650 756-2676,,,"M-Th 9:00AM - 5:00PM, Fri 9:00AM - 6:00PM",,,
Danville,,651 San Ramon Valley Blvd ,,Danville ,CA,94526,United States,925-837-9111,,,"M-Th 9:00AM - 5:00PM, Fri 9:00AM - 6:00PM",,,
Corona Magnolia,,1431 S. Rimpau Ste 102 ,,Corona ,CA,92879,United States,951-278-4866,,,"M-Th 9:00AM - 5:00PM, Fri 9:00AM - 6:00PM, Sat 9:00AM - 1:00PM",,,
Sierra Del Oro In-Store,,2661 Green River Road ,,Corona ,CA,92882,United States,951-736-6027,,,"M-Th 10:00AM - 7:00PM, Fri 10:00AM - 7:00PM, Sat 10:00AM - 4:00PM",,,
Corona Del Mar,,2865 East Coast Hwy Suite 100 ,,Corona Del Mar ,CA,92625,United States,949 574-2762,,,"M-Th 9:00AM - 5:00PM, Fri 9:00AM - 6:00PM",,,
Coronado,,800 Orange Avenue ,,Coronado ,CA,92118,United States,619-522-6436,,,"M-Th 9:00AM - 5:00PM, Fri 9:00AM - 6:00PM, Sat 9:00AM - 1:00PM, Drive Up M-Th 9:00AM - 5:00PM, Drive Up Fri 9:00AM - 6:00PM, Drive Up Sat 9:00AM - 1:00PM",,,
Sunrise,,5748 Sunrise Boulevard ,,Citrus Heights ,CA,95610,United States,916-965-3333,,,"M-Th 9:00AM - 5:00PM, Fri 9:00AM - 6:00PM, Sat 9:00AM - 1:00PM, Drive Up M-Th 9:00AM - 5:00PM, Drive Up Fri 9:00AM - 6:00PM",,,
Puente Hills,,17899 Colima Road ,,City of Industry ,CA,91748,United States,626-810-4250,,,"M-Th 9:00AM - 5:00PM, Fri 9:00AM - 6:00PM, Sat 9:00AM - 1:00PM, Drive Up M-Th 9:00AM - 5:00PM, Drive Up Fri 9:00AM - 6:00PM",,,
Castle Park,,1343 3rd Ave ,,Chula Vista ,CA,91911,United States,619-498-3175,,,"M-Th 9:00AM - 5:00PM, Fri 9:00AM - 6:00PM, Sat 9:00AM - 1:00PM, Drive Up M-Th 9:00AM - 5:00PM, Drive Up Fri 9:00AM - 6:00PM, Drive Up Sat 9:00AM - 1:00PM",,,
Eastlake,,2269 Otay Lakes Rd ,,Chula Vista ,CA,91915,United States,619-216-6934,,,"M-Th 9:00AM - 5:00PM, Fri 9:00AM - 6:00PM, Sat 9:00AM - 1:00PM, Drive Up M-Th 9:00AM - 5:00PM, Drive Up Fri 9:00AM - 6:00PM, Drive Up Sat 9:00AM - 1:00PM",,,
Chula Vista,,410 H Street ,,Chula Vista ,CA,91910,United States,619-426-5330,,,"M-Th 9:00AM - 5:00PM, Fri 9:00AM - 6:00PM, Sat 9:00AM - 1:00PM, Drive Up M-Th 9:00AM - 5:00PM, Drive Up Fri 9:00AM - 6:00PM, Drive Up Sat 9:00AM - 1:00PM",,,
Southwestern College Cafeteria,,900 Otay Lakes Rd ,,Chula Vista ,CA,91910,United States,,,,,,,
Corona Del Mar,,2865 East Coast Hwy Suite 100 ,,Corona Del Mar ,CA,92625,United States,949 574-2762,,,"M-Th 9:00AM - 5:00PM, Fri 9:00AM - 6:00PM",,,
Coalinga,,190 West Durian Street ,,Coalinga ,CA,93210,United States,559-935-1661,,,"M-Th 9:00AM - 5:00PM, Fri 9:00AM - 6:00PM",,,
Clovis,,840 East Herndon Suite 102 ,,Clovis ,CA,93612,United States,559 862-2088,,,"M-Th 9:00AM - 5:00PM, Fri 9:00AM - 6:00PM, Sat 9:00AM - 1:00PM",,,
Chatsworth,,21821 Devonshire ,,Chatsworth ,CA,91311,United States,818-775-9620,,,"M-Th 9:00AM - 5:00PM, Fri 9:00AM - 6:00PM, Sat 9:00AM - 1:00PM",,,
Carpinteria,,5420 Carpinteria Ave ,,Carpinteria ,CA,93013,United States,805-684-4566,,,"M-Th 9:00AM - 5:00PM, Fr 9:00AM - 6:00PM, Sat 9:00AM - 1:00PM, Drive Up M-Th 9:00AM - 5:00PM, Drive Up Fri 9:00AM - 6:00PM, Drive Up Sat 9:00AM - 1:00PM",,,
La Costa,,6988 El Camino Real ,,Carlsbad ,CA,92009,United States,760-929-7760,,,"M-Th 9:00AM - 5:00PM, Fri 9:00AM - 6:00PM, Sat 9:00AM - 1:00PM, Drive Up M-Th 9:00AM - 5:00PM, Drive Up Fri 9:00AM - 6:00PM, Drive Up Sat 9:00AM - 1:00PM",,,
Carlsbad Poinsettia,,7188 Avenida Encinas Ste 120 ,,Carlsbad ,CA,92011,United States,760 795-3420,,,"M-Th 9:00AM - 5:00PM, Fri 9:00AM - 6:00PM, Sat 9:00AM - 1:00PM, Drive Up M-Th 9:00AM - 5:00PM, Drive Up Fri 9:00AM - 6:00PM, Drive Up Sat 9:00AM - 1:00PM",,,
Carlsbad,,840 Carlsbad Village Drive ,,Carlsbad ,CA,92008,United States,760-729-7944,,,"M-Th 9:00AM - 5:00PM, Fri 9:00AM - 6:00PM, Sat 9:00AM - 1:00PM, Drive Up M-Th 9:00AM - 5:00PM, Drive Up Fri 9:00AM - 6:00PM, Drive Up Sat 9:00AM - 1:00PM",,,
Coronado,,800 Orange Avenue ,,Coronado ,CA,92118,United States,619-522-6436,,,"M-Th 9:00AM - 5:00PM, Fri 9:00AM - 6:00PM, Sat 9:00AM - 1:00PM, Drive Up M-Th 9:00AM - 5:00PM, Drive Up Fri 9:00AM - 6:00PM, Drive Up Sat 9:00AM - 1:00PM",,,
Camarillo,,2310 E Ponderosa Dr ,,Camarillo ,CA,93010,United States,805-383-2223,,,"M-Th 9:00AM - 5:00PM, Fr 9:00AM - 6:00PM, Sat 9:00AM - 1:00PM",,,
Burlingame-Howard Avenue,,1410 Howard Avenue ,,Burlingame ,CA,94010,United States,650-340-1053,,,"M-Th 9:00AM - 5:00PM, Fri: 9:00AM - 6:00PM, Sat: 9:00AM - 1:00PM",,,
Burlingame,,1887 El Camino Real ,,Burlingame ,CA,94010,United States,650-697-3454,,,"M-Th 9:00AM - 5:00PM, Fri 9:00AM - 6:00PM, Sat 9:00AM - 1:00PM",,,
Capitola,,601 Bay Ave ,,Capitola ,CA,95010,United States,831-464-6622,,,"M-Th 9:00AM - 5:00PM, Fri 9:00AM - 6:00PM, Sat 9:00AM - 1:00PM, Drive Up M-Th 9:00AM - 5:00PM, Drive Up Fri 9:00AM - 6:00PM, Drive Up Sat 9:00AM - 1:00PM",,,
Carmel,,26380 Carmel Rancho Ln ,,Carmel ,CA,93923,United States,831-626-5080,,,"M-Th 9:00AM - 5:00PM, Fr 9:00AM - 6:00PM, Sat 9:00AM - 1:00PM",,,
Chino Hills Crossroads,,13225 Peyton Drive ,,Chino Hills ,CA,91709,United States,909-517-1805,,,"M-Th 9:00AM - 5:00PM, Fri 9:00AM - 6:00PM, Sat 9:00AM - 1:00PM",,,
Toluca Lake,,3900 West Alameda Avenue ,,Burbank ,CA,91505,United States,818-569-5765,,,"M-Th 9:00AM - 5:00PM, Fri 9:00AM - 6:00PM",,,
Burbank,,601 S. Glenoaks Blvd. ,,Burbank ,CA,91502,United States,818-843-8125,,,"M-Th 9:00AM - 5:00PM, Fri 9:00AM - 6:00PM, Sat 9:00AM - 1:00PM",,,
Buena Park,,8301 La Palma Ave. ,,Buena Park ,CA,90620,United States,714-739-1425,,,"M-Th 9:00AM - 5:00PM, Fri 9:00AM - 6:00PM, Sat 9:00AM - 1:00PM",,,
Tom's Gas,,230 E Highway 246 ,,Buellton ,CA,93427,United States,,,,,,,
Costa Mesa,,1545 Adams Ave Suite 200 ,,Costa Mesa ,CA,92626,United States,714 557-1617,,,"M-Th 9:00AM - 5:00PM, Fri 9:00AM - 6:00PM, Sat 9:00AM - 1:00PM",,,
Orange Coast College,,2701 Fairview Rd ,,Costa Mesa ,CA,92628,United States,,,,,,,
Orange County Fairgrounds,,88 Fair Dr ,,Costa Mesa ,CA,92626,United States,,,,,,,
Brea,,203 W. Imperial Highway Suite C ,,Brea ,CA,92821,United States,714-990-0953,,,"M-Th 9:00AM - 5:00PM, Fri 9:00AM - 6:00PM, Sat 9:00AM - 1:00PM",,,
Brea Tech Center,,3151 E Imperial Hwy ,,Brea ,CA,92821,United States,,,,,,,
Blue Jay,,27321 N. Bay Rd. ,,Blue Jay ,CA,92317,United States,909-337-2422,,,"M-Th 9:00AM - 5:00PM, Fri 9:00AM - 6:00PM, Sat 9:00AM - 1:00PM",,,
Brawley,,290 Main Street ,,Brawley ,CA,92227,United States,760-344-3730,,,"M-Th 9:00AM - 5:00PM, Fri 9:00AM - 6:00PM, Sat 9:00AM - 1:00PM, Drive Up M-Th 9:00AM - 5:00PM, Drive Up Fri 9:00AM - 6:00PM, Drive Up Sat 9:00AM - 1:00PM",,,
Beverly Hills,,9460 Wilshire Boulevard ,,Beverly Hills ,CA,90212,United States,310-550-6522,,,"M-Th 9:00AM - 5:00PM, Fri 9:00AM - 6:00PM",,,
Bellflower,,9738 Alondra Blvd ,,Bellflower ,CA,90706,United States,562-804-4681,,,"M-Th 9:00AM - 5:00PM, Fri 9:00AM - 6:00PM, Sat 9:00AM - 1:00PM",,,
Big Bear Lake,,42138 Big Bear Boulevard ,,Big Bear Lake ,CA,92315,United States,909-866-3447,,,"M-Th 9:00AM - 5:00PM, Fri 9:00AM - 6:00PM, Sat 9:00AM - 1:00PM, Drive Up M-Th 9:00AM - 5:00PM, Drive Up Fri 9:00AM - 6:00PM, Drive Up Sat 9:00AM - 1:00PM",,,
Berkeley,,2333 Shattuck Avenue ,,Berkeley ,CA,94704,United States,510-843-6353,,,"M-Th 9:00AM - 5:00PM, Fri 9:00AM - 6:00PM, Sat 9:00AM - 1:00PM",,,
Bishop,,362 North Main Street ,,Bishop ,CA,93514,United States,760-873-4202,,,"M-Th 9:00AM - 5:00PM, Fri 9:00AM - 6:00PM, Sat 9:00AM - 1:00PM",,,
Brentwood Square,,11661 San Vicente Boulevard ,,Brentwood ,CA,90049,United States,310-826-7787,,,"M-Th 9:00AM - 5:00PM, Fri 9:00AM - 6:00PM, Sat 9:00AM - 1:00PM",,,
Atascadero,,7199 El Camino Real ,,Atascadero ,CA,93422,United States,805-466-3052,,,"M-Th 9:00AM - 5:00PM, Fri 9:00AM - 6:00PM, Sat 9:00AM - 1:00PM",,,
Cerritos Center,,18616 South Gridley Road ,,Artesia ,CA,90701,United States,562-924-8817,,,"M-Th 9:00AM - 5:00PM, Fri 9:00AM - 6:00PM, Sat 9:00AM - 1:00PM",,,
East Hills,,2641A Oswell Street ,,Bakersfield ,CA,93306,United States,661-871-3100,,,"M-Th 9:00AM - 5:00PM, Fri 9:00AM - 6:00PM, Sat 9:00AM - 1:00PM",,,
Stockdale Village,,5400 Stockdale Hwy ,,Bakersfield ,CA,93309,United States,661-322-5035,,,"M-Th 9:00AM - 5:00PM, Fri 9:00AM - 6:00PM, Sat 9:00AM - 1:00PM, Drive Up M-Th 9:00AM - 5:00PM, Drive Up Fr 9:00AM - 6:00PM",,,
University Centre,,9200 Ming Avenue ,,Bakersfield ,CA,93311,United States,661-664-1524,,,"M-Th 9:00AM - 5:00PM, Fri 9:00AM - 6:00PM",,,
Anaheim Hills,,701 South Weir Canyon Road Ste 101 ,,Anaheim ,CA,92808,United States,714-998-6219,,,"M-Th 9:00AM - 5:00PM, Fri 9:00AM - 6:00PM, Sat 9:00AM - 1:00PM",,,
Blythe,,100 West Hobson Way ,,Blythe ,CA,92225,United States,760-922-3174,,,"M-Th 9:00AM - 5:00PM, Fri 9:00AM - 6:00PM, Sat 9:00AM - 1:00PM, Drive Up M-Th 9:00AM - 5:00PM, Drive Up Fri 9:00AM - 6:00PM, Drive Up  Sat 9:00AM - 1:00PM",,,
Auburn,,874 Lincoln Way ,,Auburn ,CA,95603,United States,530-885-3701,,,"M-Th 9:00AM - 5:00PM, Fri 9:00AM - 6:00PM, Sat 9:00AM - 1:00PM",,,
Barstow,,239 East Main Street ,,Barstow ,CA,92311,United States,760-256-5691,,,"M-Th 9:00AM - 5:00PM, Fri 9:00AM - 6:00PM, Sat 9:00AM - 1:00PM, Drive Up M-Th 9:00AM - 5:00PM, Drive Up Fri 9:00AM - 5:00PM, Drive Up Sat 9:00AM - 1:00PM",,,
Agoura Hills,,29015 Thousand Oaks Blvd ,,Agoura Hills ,CA,91301,United States,818 706-4848,,,"M-Th 9:00AM - 5:00PM, Fr 9:00AM - 6:00PM",,,
Mooney Boulevard,,2001 S Mooney Blvd ,,Visalia ,CA,93277,United States,559-733-7725,,,"M-Th 9:00AM - 5:00PM, Fri 9:00AM - 6:00PM, Sat 9:00AM - 1:00PM",,,
Key West Plaza In-Store,,5201 West Goshen Ave. ,,Visalia ,CA,93291,United States,559-739-2530,,,"M-Th 10:00AM - 7:00PM, Fri 10:00AM - 7:00PM, Sat 10:00AM - 4:00PM",,,
Apple Valley,,20254 Highway 18 ,,Apple Valley ,CA,92307,United States,760-247-7284,,,"M-Th 9:00AM - 5:00PM, Fri 9:00AM - 6:00PM, Sat 9:00AM - 1:00PM, Drive Up M-Th 9:00AM - 5:00PM, Drive Up Fri 9:00AM - 6:00PM, Drive Up Sat 9:00AM - 1:00PM",,,
Villa Park,,17769 Santiago Blvd Suite A ,,Villa Park ,CA,92861,United States,714 974-3146,,,"M-Th 9:00AM - 5:00PM, Fri 9:00AM - 6:00PM, Sat 9:00AM - 1:00PM",,,
Vallejo,,1178 Admiral Callaghan Lane ,,Vallejo ,CA,94591,United States,707-556-8000,,,"M-Th 9:00AM - 5:00PM, Fri 9:00AM - 6:00PM, Drive Up M-Th 9:00AM - 5:00PM, Drive Up Fri 9:00AM - 6:00PM",,,
South Bay,,21201 Hawthorne Boulevard ,,Torrance ,CA,90503,United States,310-543-7160,,,"M-Th 9:00AM - 5:00PM, Fri 9:00AM - 6:00PM, Sat 9:00AM - 1:00PM, Drive Up M-Th 9:00AM - 5:00PM, Drive Up Fri 9:00AM - 6:00PM, Drive Up Sat 9:00AM - 1:00PM",,,
Torrance,,24030 Hawthorne Boulevard ,,Torrance ,CA,90505,United States,310-373-8411,,,"M-Th 9:00AM - 5:00PM, Fri 9:00AM - 6:00PM, Sat 9:00AM - 1:00PM",,,
Rolling Hills,,25345 Crenshaw Blvd. ,,Torrance ,CA,90505,United States,310-539-1808,,,"M-Th 9:00AM - 5:00PM, Fri 9:00AM - 6:00PM, Sat 9:00AM - 1:00PM",,,
Upland,,188 N. Euclid Ave. Suite A ,,Upland ,CA,91786,United States,909-946-0551,,,"M-Th 9:00AM - 5:00PM, Fri 9:00AM - 6:00PM, Sat 9:00AM - 1:00PM",,,
Tustin Ranch,,13201 Jamboree Road ,,Tustin ,CA,92782,United States,714-505-3244,,,"M-Th 9:00AM - 5:00PM, Fri 9:00AM - 6:00PM, Sat 9:00AM - 1:00PM",,,
Tustin,,13300 Newport Avenue ,,Tustin ,CA,92780,United States,714-730-8252,,,"M-Th 9:00AM - 5:00PM, Fri 9:00AM - 6:00PM, Sat 9:00AM - 1:00PM, Drive Up M-Th 9:00AM - 5:00PM, Drive Up Fri 9:00AM - 6:00PM, Drive Up Sat 9:00AM - 1:00PM",,,
Tiburon/Belvedere,,1652 Tiburon Blvd ,,Tiburon ,CA,94920,United States,415-526-6570,,,"M-Th 9:00AM - 5:00PM, Fri 9:00AM - 6:00PM",,,
Alamo,,3191 Danville Blvd ,,Alamo ,CA,94507,United States,925 362-7100,,,"M-Th 9:00AM - 5:00PM, Fri 9:00AM - 6:00PM",,,
Tulare,,801 East Prosperity Avenue ,,Tulare ,CA,93274,United States,559-688-2811,,,"M-Th 9:00AM - 5:00PM, Fri 9:00AM - 6:00PM, Sat 9:00AM - 1:00PM, Drive Up M-Th 9:00AM - 5:00PM, Drive Up Fri 9:00AM - 6:00PM, Drive Up Sat 9:00AM - 1:00PM",,,
Tehachapi,,665 Tucker Road Suite C ,,Tehachapi ,CA,93561,United States,661-822-2500,,,"M-Th 9:00AM - 5:00PM, Fri 9:00AM - 6:00PM, Sat 9:00AM - 1:00PM",,,
Ventura Main,,576 S Mills Rd ,,Ventura ,CA,93003,United States,805 639-2038,,,"M-Th 9:00AM - 5:00PM, Fr 9:00AM - 6:00PM, Sat 9:00AM - 1:00PM",,,
Ventura County Center,,789 S Victoria Ave ,,Ventura ,CA,93003,United States,805-289-3566,,,"M-Th 9:00AM - 5:00PM, Fr 9:00AM - 6:00PM, Sat 9:00AM - 1:00PM, Drive Up M-Th 9:00AM - 5:00PM, Drive Up Fri 9:00AM - 6:00PM, Drive Up Sat 9:00AM - 1:00PM",,,
Arques Avenue,,1109 East Arques Avenue ,,Sunnyvale ,CA,94085,United States,408-245-8402,,,"M-Th 9:00AM - 5:00PM, Fri 9:00AM - 6:00PM, Sat 9:00AM - 1:00PM",,,
Sunnyvale,,495 South Mathilda Avenue ,,Sunnyvale ,CA,94086,United States,408-738-4900,,,"M-Th 9:00AM - 5:00PM, Fri 9:00AM - 6:00PM, Sat 9:00AM - 1:00PM",,,
Studio City,,12185 Ventura Blvd ,,Studio City ,CA,91604,United States,818-755-0180,,,"M-Th 9:00AM - 5:00PM, Fri 9:00AM - 6:00PM, Sat 9:00AM - 1:00PM",,,
Casa De Oro,,9846 Campo Road ,,Spring Valley ,CA,91977,United States,619-461-9660,,,"M-Th 9:00AM - 5:00PM, Fri 9:00AM - 6:00PM, Sat 9:00AM - 1:00PM, Drive Up M-Th 9:00AM - 5:00PM, Drive Up Fri 9:00AM - 6:00PM, Drive Up Sat 9:00AM - 1:00PM",,,
South Gate,,8710 Garfield Ave. ,,South Gate ,CA,90280,United States,562-776-0129,,,"M-Th 9:00AM - 5:00PM, Fri 9:00AM - 6:00PM, Sat 9:00AM - 1:00PM",,,
Thousand Oaks-Moorpark Road,,33 W Thousand Oaks Blvd ,,Thousand Oaks ,CA,91360,United States,805 373-6019,,,"M-Th 9:00AM - 5:00PM, Fr 9:00AM - 6:00PM, Sat 9:00AM - 1:00PM",,,
Thousand Oaks-Westlake,,3887 East Thousand Oaks Boulevard ,,Thousand Oaks ,CA,91362,United States,(805) 370-4900,,,"M-Th 9:00AM - 5:00PM, Fri 9:00AM - 6:00PM, Sat 9:00AM - 1:00PM",,,
Sonoma,,500 Broadway ,,Sonoma ,CA,95476,United States,707-933-1140,,,"M-Th 9:00AM - 5:00PM, Fri 9:00AM - 6:00PM",,,
Solvang,,2010 Mission Dr ,,Solvang ,CA,93463,United States,805 693-1265,,,"M-Th 9:00AM - 5:00PM, Fr 9:00AM - 6:00PM, Sat 9:00AM - 1:00PM, Drive Up M-Th 9:00AM - 5:00PM, Drive Up Fri 9:00AM - 6:00PM, Drive Up Sat 9:00AM - 1:00PM",,,
Temecula,,26407 Ynez Road ,,Temecula ,CA,92591,United States,951-296-5368,,,"M-Th 9:00AM - 5:00PM, Fri 9:00AM - 6:00PM, Sat 9:00AM - 1:00PM, Drive Up M-Th 9:00AM - 5:00PM, Drive Up Fri 9:00AM - 6:00PM, Drive Up Sat 9:00AM - 1:00PM",,,
Stockton,,35 South El Dorado Street ,,Stockton ,CA,95202,United States,209-466-2315,,,"M-Th 9:00AM - 5:00PM, Fri 9:00AM - 6:00PM, Drive Up M-Th 9:00AM - 5:00PM, Drive Up Fri 9:00AM - 6:00PM",,,
North Stockton,,6239 Pacific Avenue ,,Stockton ,CA,95207,United States,209-478-1711,,,"M-Th 9:00AM - 5:00PM, Fri 9:00AM - 6:00PM, Sat 9:00AM - 1:00PM",,,
Solana Beach,,969 Lomas Santa Fe Drive ,,Solana Beach ,CA,92075,United States,858 794-9714,,,"M-Th 9:00AM - 5:00PM, Fri 9:00AM - 6:00PM, Sat 9:00AM - 1:00PM, Drive Up M-Th 9:00AM - 5:00PM, Drive Up Fri 9:00AM - 6:00PM, Drive Up Sat 9:00AM - 1:00PM",,,
Selma,,2110 High Street ,,Selma ,CA,93662,United States,559-896-6900,,,"M-Th 9:00AM - 5:00PM, Fri 9:00AM - 6:00PM, Sat 9:00AM - 1:00PM, Drive Up M-Th 9:00AM - 5:00PM, Drive Up Fri 9:00AM - 6:00PM",,,
Chumash Mobil Gas Station,,990 Edison St ,,Santa Ynez ,CA,93460,United States,,,,,,,
Soledad,,695 Front St ,,Soledad ,CA,93960,United States,831 678-2652,,,"M-Th 9:00AM - 5:00PM, Fr 9:00AM - 6:00PM, Sat 9:00AM - 1:00PM",,,
Santee,,9760 Mission Gorge Road ,,Santee ,CA,92071,United States,619-596-8267,,,"M-Th 9:00AM - 5:00PM, Fri 9:00AM - 6:00PM, Sat 9:00AM - 1:00PM, Drive Up M-Th 9:00AM - 5:00PM, Drive Up Fri 9:00AM - 6:00PM, Drive Up Sat 9:00AM - 1:00PM",,,
Arcadia,,1045 W Huntington Drive ,,Arcadia ,CA,91007,United States,626 462-3777,,,"M-Th 9:00AM - 5:00PM, Fri 9:00AM - 6:00PM",,,
Saratoga,,12988 Saratoga Sunnyvale Rd. Ste A ,,Saratoga ,CA,95070,United States,408 866-8264,,,"M-Th 9:00AM - 5:00PM, Fri 9:00AM - 6:00PM",,,
Santa Paula,,634 E Main Street ,,Santa Paula ,CA,93060,United States,805-933-0300,,,"M-Th 9:00AM - 5:00PM, Fri 9:00AM - 6:00PM, Sat 9:00AM - 1:00PM, Sat 9:00AM - 1:00PM, Drive Up Sat 9:00AM - 1:00PM, Drive Up M-Th 9:00AM - 5:00PM, Drive Up Fri 9:00AM - 6:00PM",,,
Simi Valley Main,,1475 E Los Angeles ,,Simi Valley ,CA,93065,United States,805-578-4567,,,"M-Th 9:00AM - 5:00PM, Fri 9:00AM - 6:00PM, Sat 9:00AM - 1:00PM",,,
Tapo,,2092 Tapo Street ,,Simi Valley ,CA,93063,United States,805-577-0323,,,"M-Th 9:00AM - 5:00PM, Fri 9:00AM - 6:00PM, Sat 9:00AM - 1:00PM, Drive Up M-Th 9:00AM - 5:00PM, Drive Up Fri 9:00AM - 6:00PM, Drive Up Sat 9:00AM - 1:00PM",,,
Simi Valley-El Paseo,,2930 Tapo Canyon Rd ,,Simi Valley ,CA,93063,United States,805 581-5461,,,"M-Th 9:00AM - 5:00PM, Fr 9:00AM - 6:00PM, Sat 9:00AM - 1:00PM",,,
Simi Valley Hospital,,2975 N. Sycamore Drive ,,Simi Valley ,CA,93065,United States,,,,,,,
Sherman Oaks,,15255 Ventura Blvd ,,Sherman Oaks ,CA,91403,United States,818-205-1700,,,"M-Th 9:00AM - 5:00PM, Fri 9:00AM - 6:00PM",,,
11th & Montana,,1101 Montana Ave. ,,Santa Monica ,CA,90403,United States,310-451-2012,,,"M-Th 9:00AM - 5:00PM, Fri 9:00AM - 6:00PM, Sat 9:00AM - 1:00PM",,,
Santa Monica College Cafeteria,,1900 Pico Blvd ,,Santa Monica ,CA,90405,United States,,,,,,,
20th & Wilshire,,2001 Wilshire Boulevard ,,Santa Monica ,CA,90403,United States,310-453-4511,,,"M-Th 9:00AM - 5:00PM, Fri 9:00AM - 6:00PM, Sat 9:00AM - 1:00PM",,,
Santa Monica,,429 Santa Monica Blvd. Ste 101 ,,Santa Monica ,CA,90401,United States,310-451-4898,,,"M-Th 9:00AM - 5:00PM, Fri 9:00AM - 6:00PM",,,
Gale Ranch,,11000 Bollinger Canyon Road Ste H ,,San Ramon ,CA,94582,United States,925-648-5280,,,"M-Th 9:00AM - 5:00PM, Fri 9:00AM - 6:00PM",,,
San Ramon,,3223 Crow Canyon Road Suite 100 ,,San Ramon ,CA,94583,United States,925-866-0422,,,"M-Th 9:00AM - 5:00PM, Fri 9:00AM - 6:00PM, Sat 9:00AM - 1:00PM",,,
Santa Barbara MTD Transit Center,,1020 Chapala Street ,,Santa Barbara ,CA,93101,United States,,,,,,,
Santa Barbara-Mesa,,1960 Cliff Dr ,,Santa Barbara ,CA,93109,United States,805 965-7125,,,"M-Th 9:00AM - 5:00PM, Fr 9:00AM - 6:00PM, Sat 9:00AM - 1:00PM",,,
Santa Barbara Main,,20 E Carrillo St ,,Santa Barbara ,CA,93101,United States,805 564-6410,,,"M-Th 9:00AM - 5:00PM, Fr 9:00AM - 6:00PM, Sat 9:00AM - 1:00PM, Drive Up M-Th 9:00AM - 5:00PM, Drive Up Fr 9:00AM - 6:00PM, Drive Up Sat 9:00AM - 1:00PM",,,
Santa Barbara-Cottage,,220 Nogales Ave ,,Santa Barbara ,CA,93105,United States,805 687-9994,,,"M-Th 9:00AM - 5:00PM, Fr 9:00AM - 6:00PM",,,
Samarkand,,2550 Treasure Dr ,,Santa Barbara ,CA,93105,United States,805-682-6236,,,"M, Tu, & Th 9:00AM - 2:00PM",,,
Harbor View Inn,,28 W. Cabrillo Blvd ,,Santa Barbara ,CA,93101,United States,,,,,,,
Sansum Clinic,,317 W. Pueblo Street ,,Santa Barbara ,CA,93105,United States,,,,,,,
Santa Barbara-San Roque,,3451 State St ,,Santa Barbara ,CA,93105,United States,805 687-1322,,,"M-Th 9:00AM - 5:00PM, Fr 9:00AM - 6:00PM, Sat 9:00AM - 1:00PM",,,
Santa Barbara-La Cumbre,,3910 State St ,,Santa Barbara ,CA,93105,United States,805 898-8879,,,"M-Th 9:00AM - 5:00PM, Fr 9:00AM - 6:00PM, Sat 9:00AM - 1:00PM, Drive Up M-Th 9:00AM - 5:00PM, Drive Up Fri 9:00AM - 6:00PM, Drive Up Sat 9:00AM - 1:00PM",,,
Santa Barbara Zoo,,500 Ninos Drive ,,Santa Barbara ,CA,93103,United States,,,,,,,
San Rafael,,1248 Fifth Ave. ,,San Rafael ,CA,94901,United States,415-784-2300,,,"M-Th 9:00AM - 5:00PM, Fri 9:00AM - 6:00PM",,,
Northgate,,630 Las Gallinas Ave ,,San Rafael ,CA,94903,United States,415 446-1859,,,"M-Th 9:00AM - 5:00PM, Fri 9:00AM - 6:00PM",,,
San Mateo Main,,390 South El Camino Real ,,San Mateo ,CA,94402,United States,650-342-9411,,,"M-Th 9:00AM - 5:00PM, Fri 9:00AM - 6:00PM, Sat 9:00AM - 1:00PM",,,
San Marcos,,669 South Rancho Santa Fe Road ,,San Marcos ,CA,92069,United States,760-744-2491,,,"M-Th 9:00AM - 5:00PM, Fri 9:00AM - 6:00PM, Sat 9:00AM - 1:00PM, Drive Up M-Th 9:00AM - 5:00PM, Drive Up Fri 9:00AM - 6:00PM, Drive Up Sat 9:00AM - 1:00PM",,,
San Marino,,2300 Huntington Dr ,,San Marino ,CA,91108,United States,626-320-1331,,,"M-Th 9:00AM - 5:00PM, Fr 9:00AM - 6:00PM",,,
Sierra Vista Med Center,,1010 Murray Avenue ,,San Luis Obispo ,CA,93405,United States,,,,,,,
San Luis Obispo,,995 Higuera St ,,San Luis Obispo ,CA,93401,United States,805 783-5140,,,"M-Th 9:00AM - 5:00PM, Fr 9:00AM - 6:00PM, Sat 9:00AM - 1:00PM",,,
Court Street,,997 Monterey Street ,,San Luis Obispo ,CA,93406,United States,,,,,,,
Newhall-Lyons Avenue,,23620 Lyons Ave ,,Santa Clarita ,CA,91321,United States,661-799-8529,,,"M-Th 9:00AM - 5:00PM, Fri 9:00AM - 6:00PM, Sat 9:00AM - 1:00PM",,,
Valencia Office,,24240 Valencia Blvd. ,,Santa Clarita ,CA,91355,United States,661-799-8531,,,"M-Th 9:00AM - 5:00PM, Fri 9:00AM - 6:00PM, Sat 9:00AM - 1:00PM",,,
San Leandro,,1145 East 14th Street ,,San Leandro ,CA,94577,United States,510-483-7300,,,"M-Th 9:00AM - 5:00PM, Fri 9:00AM - 6:00PM, Sat 9:00AM - 1:00PM",,,
San Gabriel,,401 East Valley Boulevard ,,San Gabriel ,CA,91776,United States,626-572-6880,,,"M-Th 9:00AM - 5:00PM, Fri 9:00AM - 6:00PM, Sat 9:00AM - 1:00PM",,,
Las Tunas,,835 E. Las Tunas Dr. ,,San Gabriel ,CA,91776,United States,626-285-9825,,,"M-Th 9:00AM - 5:00PM, Fri 9:00AM - 6:00PM",,,
San Carlos,,799 Laurel Street ,,San Carlos ,CA,94070,United States,650-591-8221,,,"M-Th 9:00AM - 5:00PM, Fri 9:00AM - 6:00PM, Sat 9:00AM - 1:00PM",,,
San Clemente Hills In-Store,,638 Camino de los Mares Suite B ,,San Clemente ,CA,92673,United States,949-248-7745,,,"M-Th 10:00AM - 7:00PM, Fri 10:00AM - 7:00PM, Sat 10:00AM - 4:00PM",,,
San Clemente,,810 Avenida Pico Suite X ,,San Clemente ,CA,92673,United States,949-492-8090,,,"M-Th 9:00AM - 5:00PM, Fri 9:00AM - 6:00PM, Sat 9:00AM - 1:00PM",,,
Waterman and Highland,,290 E. Highland Ave. ,,San Bernardino ,CA,92404,United States,909-475-1720,,,"M-Th 9:00AM - 5:00PM, Fri 9:00AM - 6:00PM, Sat 9:00AM - 1:00PM",,,
East Village,,1101 Market Street ,,San Diego ,CA,92101,United States,619-702-2768,,,"M-Th 9:00AM - 5:00PM, Fri 9:00AM - 6:00PM, Drive Up M-Th 9:00AM - 5:00PM, Drive Up Fri 9:00AM - 6:00PM",,,
Sorrento Valley,,11015 Sorrento Valley Road ,,San Diego ,CA,92121,United States,858-452-0365,,,"M-Th 9:00AM - 5:00PM, Fri 9:00AM - 6:00PM, Drive Up Fri 9:00AM - 6:00PM, Drive Up M-Thu 9:00AM - 5:00PM, Drive Up Fri 9:00AM - 6:00PM",,,
Torrey Hills,,11185 E. Ocean Air Dr. ,,San Diego ,CA,92130,United States,858-755-2743,,,"M-Th 9:00AM - 5:00PM, Fri 9:00AM - 6:00PM, Drive Up M-Th 9:00AM - 5:00PM, Drive Up Fri 9:00AM - 6:00PM",,,
Point Loma,,1175 Rosecrans Street ,,San Diego ,CA,92106,United States,619-221-6940,,,"M-Th 9:00AM - 5:00PM, Fri 9:00AM - 6:00PM, Sat 9:00AM - 1:00PM, Drive Up M-Th 9:00AM - 5:00PM, Drive Up Fri 9:00AM - 6:00PM, Drive Up Sat 9:00AM - 1:00PM",,,
Carmel Mountain,,11865 Carmel Mountain Road Suite 1106 ,,San Diego ,CA,92128,United States,858-451-7806,,,"M-Th 9:00AM - 5:00PM, Fri 9:00AM - 6:00PM",,,
San Diego Main,,1201 Fifth Avenue ,,San Diego ,CA,92101,United States,619-230-4666,,,"M-Th 9:00AM - 5:00PM, Fri 9:00AM - 6:00PM",,,
Del Mar Heights,,12950 Carmel Country Road ,,San Diego ,CA,92130,United States,858-792-8428,,,"M-Th 9:00AM - 5:00PM, Fri 9:00AM - 6:00PM, Sat 9:00AM - 1:00PM",,,
San Diego City College,,1313 Twelfth Ave ,,San Diego ,CA,92101,United States,,,,,,,
Rancho Penasquitos,,13175 Black Mountain Road Ste 1 ,,San Diego ,CA,92129,United States,858-538-3260,,,"M-Th 9:00AM - 5:00PM, Fri 9:00AM - 6:00PM, Sat 9:00AM - 1:00PM",,,
Euclid & Federal,,1666 Euclid Avenue ,,San Diego ,CA,92105,United States,619-264-0153,,,"M-Th 9:00AM - 5:00PM, Fri 9:00AM - 6:00PM, Sat 9:00AM - 1:00PM, Drive Up M-Th 9:00AM - 5:00PM, Drive Up  Fri 9:00AM - 6:00PM, Drive Up Sat 9:00AM - 1:00PM",,,
San Jose-Blossom Hill,,1110 Blossom Hill Rd. Ste 40 ,,San Jose ,CA,95118,United States,408-448-4512,,,"M-Th 9:00AM - 5:00PM, Fri 9:00AM - 6:00PM, Sat 9:00AM - 1:00PM",,,
Westgate,,1494 Saratoga Avenue ,,San Jose ,CA,95129,United States,408-374-2400,,,"M-Th 9:00AM - 5:00PM, Fri 9:00AM - 6:00PM, Sat 9:00AM - 1:00PM",,,
Alameda Taylor,,1700 The Alameda Suite 100 ,,San Jose ,CA,95126,United States,408-286-1700,,,"M-Th 9:00AM - 5:00PM, Fri 9:00AM - 6:00PM, Sat 9:00AM - 1:00PM",,,
Camden Park,,2007 Camden Ave. Ste 10 ,,San Jose ,CA,95124,United States,408-879-3300,,,"M-Th 9:00AM - 5:00PM, Fri 9:00AM - 6:00PM, Sat 9:00AM - 1:00PM",,,
Stevens Creek,,3290 Stevens Creek Boulevard ,,San Jose ,CA,95117,United States,408-248-8820,,,"M-Th 9:00AM - 5:00PM, Fri 9:00AM - 6:00PM, Sat 9:00AM - 1:00PM, Drive Up M-Th 9:00AM - 5:00PM, Drive Up Fri 9:00AM - 6:00PM, Drive Up Sat 9:00AM - 1:00PM",,,
San Jose-North 1st Street,,4190 N 1st Street Ste 10 ,,San Jose ,CA,95134,United States,408 432-2821,,,"M-Th 9:00AM - 5:00PM, Fri 9:00AM - 6:00PM",,,
San Jose - Japantown,,590 N 6th St ,,San Jose ,CA,95112,United States,408-279-7400,,,"M-Th 9:00AM - 5:00PM, Fri 9:00AM - 6:00PM, Sat 9:00AM - 1:00PM",,,
San Jose Middle Market,,99 Almaden Blvd Ste 200 ,,San Jose ,CA,95113,United States,408 279-7775,,,,,,
San Jose Downtown,,99 Almaden Boulevard Suite 100 ,,San Jose ,CA,95113,United States,408-279-7700,,,"M-Th 9:00AM - 5:00PM, Fri 9:00AM - 5:00PM",,,
San Juan Capistrano,,31971 Camino Capistrano ,,San Juan Capistrano ,CA,92675,United States,949-493-1141,,,"M-Th 9:00AM - 5:00PM, Fri 9:00AM - 6:00PM, Sat 9:00AM - 1:00PM",,,
Japan Center,,1675 Post Street ,,San Francisco ,CA,94115,United States,415-202-0350,,,"M-Th 9:00AM - 5:00PM, Fri 9:00AM - 6:00PM",,,
Laurel Heights,,3473 California St ,,San Francisco ,CA,94118,United States,415 379-5000,,,"M-Th 9:00AM - 5:00PM, Fri 9:00AM - 6:00PM",,,
San Francisco Middle Market,,350 California St Fl 10 ,,San Francisco ,CA,94104,United States,415 705-7167,,,,,,
East Bay/San Jose Business Banking,,350 California Street 10th Floor ,,San Francisco ,CA,94104,United States,800 728-6466,,,,,,
Bayview,,3801 Third Street Suite 100 ,,San Francisco ,CA,94124,United States,415-550-9311,,,"M-Th 9:00AM - 5:00PM, Fri 9:00AM - 6:00PM, Sat 9:00AM - 1:00PM",,,
San Francisco Main,,400 California Street 1st Floor ,,San Francisco ,CA,94104,United States,415-765-3434,,,"M-Th 9:00AM - 5:00PM, Fri 9:00AM - 5:00PM",,,
SUTTER & MONTGOMERY,,44 Montgomery St. ,,San Francisco ,CA,94104,United States,415-288-9040,,,"M-Th 9:00AM - 5:00PM, Fri 9:00AM - 6:00PM",,,
8th & Townsend,,640 Townsend St ,,San Francisco ,CA,94103,United States,415-558-8703,,,"M-Th 9:00AM - 5:00PM, Fri 9:00AM - 6:00PM",,,
Salinas,,1001 S Main St ,,Salinas ,CA,93901,United States,831-754-6814,,,"M-Th 9:00AM - 5:00PM, Fr 9:00AM - 6:00PM, Sat 9:00AM - 1:00PM",,,
North Salinas UB,,1890 North Main St ,,Salinas ,CA,93906,United States,831-449-7251,,,"M-Th 9:00AM - 5:00PM, Fri 9:00AM - 6:00PM, Sat 9:00AM - 1:00PM",,,
Salinas Old Town,,307 S. Main Street ,,Salinas ,CA,93901,United States,,,,,,,
Riverside Downtown,,3625 Vine St. ,,Riverside ,CA,92507,United States,951-346-1500,,,"M-Th 9:00AM - 5:00PM, Fri 9:00AM - 6:00PM, Sat 9:00AM - 1:00PM",,,
Glen Avon,,9103 Mission Boulevard ,,Riverside ,CA,92509,United States,951-360-5680,,,"M-Th 9:00AM - 5:00PM, Fri 9:00AM - 6:00PM, Sat 9:00AM - 1:00PM, Drive Up M-Th 9:00AM - 5:00PM, Drive Up Fri 9:00AM - 6:00PM, Drive Up Sat 9:00AM - 1:00PM",,,
Arlington,,9811 Magnolia Ave. Suite B ,,Riverside ,CA,92503,United States,951-352-5560,,,"M-Th 9:00AM - 5:00PM, Fri 9:00AM - 6:00PM, Sat 9:00AM - 1:00PM, Drive Up M-Th 9:00AM - 5:00PM, Drive Up Fri 9:00AM - 6:00PM, Drive Up  Sat 9:00AM - 1:00PM",,,
Ridgecrest,,144 North China Lake Boulevard ,,Ridgecrest ,CA,93555,United States,760-375-4425,,,"M-Th 9:00AM - 5:00PM, Fri 9:00AM - 6:00PM",,,
Redwood City,,675 Jefferson Avenue ,,Redwood City ,CA,94063,United States,650-365-2110,,,"M-Th 9:00AM - 5:00PM, Fri 9:00AM - 6:00PM, Sat 9:00AM - 1:00PM",,,
Redondo Beach In-Store,,1413 Hawthorne Boulevard ,,Redondo Beach ,CA,90278,United States,310-370-7367,,,"M-Th 10:00AM - 7:00PM, Fri 10:00AM - 7:00PM, Sat 10:00AM - 4:00PM",,,
Roseville,,1850 Douglas Boulevard Suite 102 ,,Roseville ,CA,95661,United States,916-786-8166,,,"M-Th 9:00AM - 5:00PM, Fri 9:00AM - 6:00PM, Sat 9:00AM - 1:00PM",,,
Country Club,,2650 Watt Avenue ,,Sacramento ,CA,95821,United States,916-482-3600,,,"M-Th 9:00AM - 5:00PM, Fri 9:00AM - 6:00PM, Sat 9:00AM - 1:00PM",,,
Sacramento Downtown,,700 L Street ,,Sacramento ,CA,95814,United States,916-321-3161,,,"M-Th 9:00AM - 5:00PM, Fri 9:00AM - 6:00PM, Drive Up M-Th 9:00AM - 5:00PM, Drive Up Fri 9:00AM - 6:00PM",,,
Central Valley Business Banking,,700 L Street ,,Sacramento ,CA,95814,United States,800 728-6466,,,,,,
Rancho Santa Fe,,6004 Paseo Delicias ,,Rancho Santa Fe ,CA,92067,United States,858-756-2426,,,"M-Th 9:00AM - 5:00PM, Fri 9:00AM - 6:00PM",,,
Miraleste Plaza,,20 Miraleste Plaza ,,Rancho Palos Verdes ,CA,90275,United States,310-519-7300,,,"M-Th 9:00AM - 5:00PM, Fri 9:00AM - 6:00PM, Sat 9:00AM - 1:00PM",,,
Rancho Mirage-Country Club (Palm Desert),,70390 Highway 111 ,,Rancho Mirage ,CA,92270,United States,,,,,,,
Rancho Mirage,,71950 Highway 111 Suite A ,,Rancho Mirage ,CA,92270,United States,760-862-4700,,,"M-Th 9:00AM - 5:00PM, Fri 9:00AM - 6:00PM, Sat 9:00AM - 1:00PM",,,
Palm Desert,,71950 Highway 111 Suite A ,,Rancho Mirage ,CA,92270,United States,760-862-4700,,,"Mo-Thu 9:00AM - 5:00PM, Fri 9:00AM - 6:00PM, Sat 9:00AM - 1:00PM",,,
SANTA MARIA UB,,2340 South Broadway ,,Santa Maria ,CA,93454,United States,805-349-3954,,,"M-Th 9:00AM - 5:00PM, Fri 9:00AM - 6:00PM, Sat 9:00AM - 1:00PM, Drive Up M-Th 9:00AM - 5:00PM, Drive Up Fri 9:00AM - 6:00PM, Drive Up Sat 9:00AM - 1:00PM",,,
Rancho Cucamonga,,11551 Foothill Boulevard ,,Rancho Cucamonga ,CA,91730,United States,909-944-2420,,,"M-Th 9:00AM - 5:00PM, Fri 9:00AM - 6:00PM, Sat 9:00AM - 1:00PM, Drive Up M-Th 9:00AM - 5:00PM, Drive Up Fri 9:00AM - 6:00PM",,,
Redlands,,173 Orange St. ,,Redlands ,CA,92373,United States,909-792-7556,,,"M-Th 9:00AM - 5:00PM, Fri 9:00AM - 6:00PM, Sat 9:00AM - 1:00PM, Drive Up M-Th 9:00AM - 5:00PM, Drive Up Fri 9:00AM - 6:00PM, Drive Up Sat 9:00AM - 1:00PM",,,
Ramona,,1512 Main St ,,Ramona ,CA,92065,United States,760-788-6742,,,"M-Th 9:00AM - 5:00PM, Fri 9:00AM - 6:00PM, Sat 9:00AM - 1:00PM, Drive Up M-Th 9:00AM - 5:00PM, Drive Up Fri 9:00AM - 6:00PM, Drive Up Sat 9:00AM - 1:00PM",,,
Prunedale,,8071 San Miguel Canyon Road ,,Prunedale ,CA,93907,United States,831-663-8616,,,"M-Th 9:00AM - 5:00PM, Fri 9:00AM - 6:00PM",,,
Redding,,1805 Market Street ,,Redding ,CA,96001,United States,530-243-7000,,,"M-Th 9:00AM - 5:00PM, Fri 9:00AM - 6:00PM, Drive Up M-Th 9:00AM - 5:00PM, Drive Up Fri 9:00AM - 6:00PM",,,
Poway,,12312 Poway Road ,,Poway ,CA,92064,United States,858-748-8710,,,"M-Th 9:00AM - 5:00PM, Fri 9:00AM - 6:00PM, Sat 9:00AM - 1:00PM, Drive Up M-Th 9:00AM - 5:00PM, Drive Up Fri 9:00AM - 6:00PM, Drive Up Sat 9:00AM - 1:00PM",,,
Palos Verdes Center,,507 Silver Spur Road ,,Rolling Hills Estate ,CA,90274,United States,310-541-2571,,,"M-Th 9:00AM - 5:00PM, Fri 9:00AM - 6:00PM, Sat 9:00AM - 1:00PM, Drive Up M-Th 9:00AM - 5:00PM, Drive Up Fri 9:00AM - 6:00PM, Drive Up Sat 9:00AM - 1:00PM",,,
Pleasant Hill,,1902 Contra Costa Blvd ,,Pleasant Hill ,CA,94523,United States,925-687-7500,,,"M-Th 9:00AM - 5:00PM, Fri 9:00AM - 6:00PM, Sat 9:00AM - 1:00PM",,,
Porterville,,229 N. Main Street ,,Porterville ,CA,93257,United States,559-781-1010,,,"M-Th 9:00AM - 5:00PM, Fri 9:00AM - 6:00PM, Sat 9:00AM - 1:00PM, Drive Up M-Th 9:00AM - 5:00PM, Drive Up Fri 9:00AM - 6:00PM, Drive Up Sat 9:00AM - 1:00PM",,,
Channel Islands,,583 W Channel Islands Blvd ,,Port Hueneme ,CA,93041,United States,805 985-2873,,,"M-Th 9:00AM - 5:00PM, Fr 9:00AM - 6:00PM, Sat 9:00AM - 1:00PM",,,
Porter Ranch,,19921 Rinaldi St ,,Porter Ranch ,CA,91326,United States,818-831-9756,,,"M-Th 9:00AM - 5:00PM, Fri 9:00AM - 6:00PM, Sat 9:00AM - 1:00PM",,,
Placerville,,3970 L Missouri Flat Road ,,Placerville ,CA,95667,United States,530 748-2020,,,"M-Th 9:00AM - 5:00PM, Fri 9:00AM - 6:00PM",,,
Phelan,,4022 Phelan Rd ,,Phelan ,CA,92371,United States,760-868-2222,,,"M-Th 9:00AM - 5:00PM, Fri 9:00AM - 6:00PM, Sat 9:00AM - 1:00PM, Drive Up M-Th 9:00AM - 5:00PM, Drive Up Fri 9:00AM - 6:00PM, Drive Up Sat 9:00AM - 1:00PM",,,
Pasadena,,70 South Lake Avenue ,,Pasadena ,CA,91101,United States,626-683-5500,,,"M-Th 9:00AM - 5:00PM, Fri 9:00AM - 6:00PM, Sat 9:00AM - 1:00PM",,,
Palo Alto Main,,400 University Avenue ,,Palo Alto ,CA,94301,United States,650-859-1200,,,"M-Th 9:00AM - 5:00PM, Fri 9:00AM - 6:00PM, Sat 9:00AM - 1:00PM",,,
Palo Alto South,,4291 El Camino Real ,,Palo Alto ,CA,94306,United States,650-941-2000,,,"M-Th 9:00AM - 5:00PM, Fri 9:00AM - 6:00PM, Sat 9:00AM - 1:00PM, Drive Up M-Th 9:00AM - 5:00PM, Drive Up Fri 9:00AM - 6:00PM, Drive Up Sat 9:00AM - 1:00PM",,,
Palm Springs,,500 South Indian Canyon Drive ,,Palm Springs ,CA,92264,United States,760-323-4241,,,"M-Th 9:00AM - 5:00PM, Fri 9:00AM - 6:00PM, Sat 9:00AM - 1:00PM, Drive Up M-Th 9:00AM - 5:00PM, Drive Up Fri 9:00AM - 6:00PM, Drive Up Sat 9:00AM - 1:00PM",,,
Palmdale Office,,39532 10th Street West Suite A ,,Palmdale ,CA,93551,United States,661-998-2577,,,"M-Th 9:00AM - 5:00PM, Fri 9:00AM - 6:00PM, Sat 9:00AM - 1:00PM",,,
Placentia,,850 N Rose Dr. Ste E ,,Placentia ,CA,92870,United States,714 577-0626,,,"M-Th 9:00AM - 5:00PM, Fri 9:00AM - 6:00PM, Sat 9:00AM - 1:00PM",,,
Pacific Palisades,,15205 W Sunset Blvd ,,Pacific Palisades ,CA,90272,United States,424-280-8060,,,"M-Th 9:00AM - 5:00PM, Fri 9:00AM - 6:00PM",,,
Cook & Country Club,,74924 Country Club Drive Suite 150 ,,Palm Desert ,CA,92260,United States,760-779-9955,,,"M-Th 9:00AM - 5:00PM, Fri 9:00AM - 6:00PM, Sat 9:00AM - 1:00PM",,,
Pacific Grove,,580 Lighthouse Ave. ,,Pacific Grove ,CA,93950,United States,831-657-0174,,,"M-Th 9:00AM - 5:00PM, Fri 9:00AM - 6:00PM",,,
Panorama City,,14360 Roscoe Boulevard ,,Panorama City ,CA,91402,United States,818-893-6306,,,"M-Th 9:00AM - 5:00PM, Fri 9:00AM - 6:00PM, Sat 9:00AM - 1:00PM",,,
Orinda,,140 Brookwood Road Ste 101 ,,Orinda ,CA,94563,United States,925-253-8980,,,"M-Th 9:00AM - 5:00PM, Fri 9:00AM - 6:00PM",,,
Oxnard Main,,400 E Esplanade Dr Ste 101 ,,Oxnard ,CA,93036,United States,805 278-1475,,,"M-Th 9:00AM - 5:00PM, Fr 9:00AM - 6:00PM, Sat 9:00AM - 1:00PM",,,
Orange Cove,,495 Park Boulevard ,,Orange Cove ,CA,93646,United States,559-626-4479,,,"M-Th 9:00AM - 5:00PM, Fri 9:00AM - 6:00PM, Sat 9:00AM - 1:00PM",,,
San Luis Rey In-Store,,101 Old Grove Road ,,Oceanside ,CA,92057,United States,760-435-2615,,,"M-Th 10:00AM - 7:00PM, Fri 10:00AM - 7:00PM, Sat 10:00AM - 4:00PM",,,
El Camino Real,,2733 Vista Way ,,Oceanside ,CA,92054,United States,760-439-8852,,,"M-Th 9:00AM - 5:00PM, Fri 9:00AM - 6:00PM, Sat 9:00AM - 1:00PM, Drive Up M-Th 9:00AM - 5:00PM, Drive Up Fri 9:00AM - 6:00PM, Drive Up Sat 9:00AM - 1:00PM",,,
Oceanside,,840 S. Coast Highway ,,Oceanside ,CA,92054,United States,760-722-1631,,,"M-Th 9:00AM - 5:00PM, Fri 9:00AM - 6:00PM, Sat 9:00AM - 1:00PM, Drive Up M-Th 9:00AM - 5:00PM, Drive Up Fri 9:00AM - 6:00PM, Drive Up Sat 9:00AM - 1:00PM",,,
Orange Cove,,495 Park Boulevard ,,Orange Cove ,CA,93646,United States,559-626-4479,,,"M-Th 9:00AM - 5:00PM, Fri 9:00AM - 6:00PM, Sat 9:00AM - 1:00PM",,,
Orange,,500 South Main Street ,,Orange ,CA,92868,United States,714-565-5500,,,"M-Th 9:00AM - 5:00PM, Fri 9:00AM - 6:00PM",,,
Pleasanton,,4747 Hopyard Road Suite E-2 ,,Pleasanton ,CA,94588,United States,925-460-2740,,,"M-Th 9:00AM - 5:00PM, Fri 9:00AM - 6:00PM",,,
Pleasanton-Gateway Plaza,,6774 Bernal Ave. Ste 310 ,,Pleasanton ,CA,94566,United States,925-484-1178,,,"M-Th 9:00AM - 5:00PM, Fri 9:00AM - 6:00PM, Sat 9:00AM - 1:00PM",,,
Tampa & Nordhoff,,9110 Tampa Ave ,,Northridge ,CA,91324,United States,818-882-6246,,,"M-Th 9:00AM - 5:00PM, Fri 9:00AM - 6:00PM, Sat 9:00AM - 1:00PM",,,
Norwalk,,12221 South Norwalk Boulevard ,,Norwalk ,CA,90650,United States,562-863-8759,,,"M-Th 9:00AM - 5:00PM, Fri 9:00AM - 6:00PM, Sat 9:00AM - 1:00PM",,,
Bayside,,1090 Bayside Drive ,,Newport Beach ,CA,92660,United States,949-760-1081,,,"M-Th 9:00AM - 5:00PM, Fri 9:00AM - 6:00PM, Sat 9:00AM - 1:00PM",,,
Westcliff,,1501 Westcliff Drive ,,Newport Beach ,CA,92660,United States,949-642-3111,,,"M-Th 9:00AM - 5:00PM, Fri 9:00AM - 6:00PM, Sat 9:00AM - 1:00PM, Drive Up M-Th 9:00AM - 5:00PM, Drive Up Fri 9:00AM - 6:00PM, Drive Up Sat 9:00AM - 1:00PM",,,
Harbor View,,1666 San Miguel Drive ,,Newport Beach ,CA,92660,United States,949-644-3800,,,"M-Th 9:00AM - 5:00PM, Fri 9:00AM - 6:00PM, Sat 9:00AM - 1:00PM",,,
Superior,,396 Superior Avenue ,,Newport Beach ,CA,92663,United States,949-642-9511,,,"M-Th 9:00AM - 5:00PM, Fri 9:00AM - 6:00PM, Sat 9:00AM - 1:00PM",,,
Morgan Hill,,500 Tennant Station ,,Morgan Hill ,CA,95037,United States,408 778-1514,,,"M-Th 9:00AM - 5:00PM, Fr 9:00AM - 6:00PM, Sat 9:00AM - 1:00PM",,,
Madrone Village,,715 Cochrane Road ,,Morgan Hill ,CA,95037,United States,,,,,,,
National City,,22 E Eighth Street ,,National City ,CA,91950,United States,619-336-2000,,,"M-Th 9:00AM - 5:00PM, Fri 9:00AM - 6:00PM, Sat 9:00AM - 1:00PM, Drive Up M-Th 9:00AM - 5:00PM, Drive Up Fri 9:00AM - 6:00PM, Drive Up Sat 9:00AM - 1:00PM",,,
Moraga,,1460 Moraga Road Ste A ,,Moraga ,CA,94556,United States,925-631-1800,,,"M-Th 9:00am - 5:00pm, Fri 9:00am - 6:00pm",,,
Moorpark,,256 W Los Angeles Avenue ,,Moorpark ,CA,93021,United States,805-531-5080,,,"M-Th 9:00AM - 5:00PM, Fri 9:00AM - 6:00PM, Sat 9:00AM - 1:00PM",,,
Oakland,,1970 Franklin Street ,,Oakland ,CA,94612,United States,510-891-9505,,,"M-Th 9:00AM - 5:00PM, Fri 9:00AM - 6:00PM",,,
NorCal Service Center,,460 Hegenberger Road ,,Oakland ,CA,94621,United States,,,,,,,
Monterey Bay,,1400 Munras Ave ,,Monterey ,CA,93940,United States,831-373-3755,,,"M-Th 9:00AM - 5:00PM, Fri 9:00AM - 6:00PM, Sat 9:00AM - 1:00PM",,,
Monterey Main,,495 Washington St ,,Monterey ,CA,93940,United States,831 657-1145,,,"M-Th 9:00AM - 5:00PM, Fr 9:00AM - 6:00PM",,,
Cannery Row ATM (outside of parking structure),,601 Wave St ,,Monterey ,CA,93940,United States,,,,,,,
Modesto,,1124 J Street ,,Modesto ,CA,95354,United States,209-576-2000,,,"M-Th 9:00AM - 5:00PM, Fri 9:00AM - 6:00PM",,,
Modesto/Pelandale  In-Store,,3601 Pelandale Avenue ,,Modesto ,CA,95356,United States,209-545-7400,,,"M-Th 10:00AM - 7:00PM, Fri 10:00AM - 7:00PM, Sat 10:00AM - 4:00PM",,,
Marina Del Rey,,4240 Lincoln Blvd ,,Marina Del Rey ,CA,90292,United States,310-301-8500,,,"M-Th 9:00AM - 5:00PM, Fri 9:00AM - 6:00PM",,,
Manhattan Village,,2910 North Sepulveda Boulevard ,,Manhattan Beach ,CA,90266,United States,310-545-2535,,,"M-Th 9:00AM - 5:00PM, Fri 9:00AM - 6:00PM, Sat 9:00AM - 1:00PM, Drive Up M-Th 9:00AM - 5:00PM, Drive Up Fri 9:00AM - 6:00PM, Drive Up Sat 9:00AM - 1:00PM",,,
Manhattan Beach,,400 Manhattan Beach Boulevard ,,Manhattan Beach ,CA,90266,United States,310-374-9746,,,"M-Th 9:00AM - 5:00PM, Fri 9:00AM - 6:00PM, Sat 9:00AM - 1:00PM",,,
Milpitas,,11 South Milpitas Boulevard ,,Milpitas ,CA,95035,United States,408-956-5150,,,"M-Th 9:00AM - 5:00PM, Fri 9:00AM - 6:00PM, Sat 9:00AM - 1:00PM",,,
Montebello,,850 North Wilcox Avenue ,,Montebello ,CA,90640,United States,323-726-0081,,,"M-Th 9:00AM - 5:00PM, Fri 9:00AM - 6:00PM, Sat 9:00AM - 1:00PM",,,
Montecito,,1030 Coast Village Rd ,,Montecito ,CA,93108,United States,805 969-5092,,,"M-Th 9:00AM - 5:00PM, Fr 9:00AM - 6:00PM, Sat 9:00AM - 1:00PM",,,
Biltmore Hotel,,1260 Channel Drive ,,Montecito ,CA,93108,United States,,,,,,,
Montecito Village,,1483 E Valley Rd ,,Montecito ,CA,93108,United States,805-969-7712,,,"M-Th 9:00AM - 5:00PM, Fr 9:00AM - 6:00PM",,,
Casa Dorinda,,300 Hot Springs Rd ,,Montecito ,CA,93108,United States,805-969 7712,,,Mon and Tue 11:00AM - 2:00PM,,,
West Police Station,,1835 Santa Fe Avenue ,,Long Beach ,CA,90810,United States,,,,,,,
North Long Beach,,2001 E South St ,,Long Beach ,CA,90805,United States,,,,,,,
South & Cherry,,2001 East South Street Shopping Center ,,Long Beach ,CA,90805,United States,,,,,,,
City Hall,,333 West Ocean Blvd ,,Long Beach ,CA,90810,United States,,,,,,,
Long Beach,,400 Oceangate Avenue ,,Long Beach ,CA,90802,United States,(562) 590-4012,,,"M-Th 9:00AM - 5:00PM, Fri 9:00AM - 6:00PM",,,
Naples,,5430 East Second St ,,Long Beach ,CA,90803,United States,(562) 438-9622,,,"M-Th 9:00AM - 5:00PM, Fri 9:00AM - 6:00PM, Sat 9:00AM - 1:00PM, Drive Up M-Th 9:00AM - 5:00PM, Drive Up Fri 9:00AM - 6:00PM, Drive Up Sat 9:00AM - 1:00PM",,,
Menifee In-Store,,30125 Antelope Road ,,Menifee ,CA,92584,United States,951-672-7474,,,"M-Th 10:00AM - 7:00PM, Fri 10:00AM - 7:00PM, Sat 10:00AM - 4:00PM",,,
Lemon Grove,,3285 Lemon Grove Avenue ,,Lemon Grove ,CA,91945,United States,619-667-3000,,,"M-Th 9:00AM - 5:00PM, Fri 9:00AM - 6:00PM, Sat 9:00AM - 1:00PM, Drive Up M-Th 9:00AM - 5:00PM, Drive Up Fri 9:00AM - 6:00PM, Drive Up Sat 9:00AM - 1:00PM",,,
Laguna Niguel,,27211 La Paz Road ,,Laguna Niguel ,CA,92677,United States,949-448-8550,,,"M-Th 9:00AM - 5:00PM, Fri 9:00AM - 6:00PM, Sat 9:00AM - 1:00PM",,,
Laguna Beach,,229 Broadway Street ,,Laguna Beach ,CA,92651,United States,949-497-9071,,,"M-Th 9:00AM - 5:00PM, Fri 9:00AM - 6:00PM",,,
Lakewood,,5910 South Street ,,Lakewood ,CA,90713,United States,562-925-9941,,,"M-Th 9:00AM - 5:00PM, Fri 9:00AM - 6:00PM, Sat 9:00AM - 1:00PM",,,
Mission Viejo,,25276 Marguerite Parkway ,,Mission Viejo ,CA,92692,United States,949-768-8100,,,"M-Th 9:00AM - 5:00PM, Fri 9:00AM - 6:00PM, Sat 9:00AM - 1:00PM, Drive Up M-Th 9:00AM - 5:00PM, Drive Up Fri 9:00AM - 6:00PM, Drive Up Sat 9:00AM - 1:00PM",,,
North Mission Viejo In-Store,,27730 Santa Margarita Parkway ,,Mission Viejo ,CA,92691,United States,949-586-5682,,,"M-Th 10:00AM - 7:00PM, Fri 10:00AM - 7:00PM, Sat 10:00AM - 4:00PM",,,
La Quinta,,79670 Highway 111 ,,La Quinta ,CA,92253,United States,760-863-1865,,,"M-Th 9:00AM - 5:00PM, Fri 9:00AM - 6:00PM, Sat 9:00AM - 1:00PM, Drive Up M-Th 9:00AM - 5:00PM, Drive Up Fri 9:00AM - 6:00PM, Drive Up Sat 9:00AM - 1:00PM",,,
Ladera Ranch,,25612 Crown Valley Pkwy. Suite L8 ,,Ladera Ranch ,CA,92694,United States,949-347-8987,,,"M-Th 9:00AM - 5:00PM, Fri 9:00AM - 6:00PM, Sat 9:00AM - 1:00PM",,,
North Lompoc,,1307 N. H Street ,,Lompoc ,CA,93436,United States,,,,,,,
Lompoc UB,,805 North H Street ,,Lompoc ,CA,93436,United States,805-736-6503,,,"M-Th 9:00AM - 5:00PM, Fri 9:00AM - 6:00PM, Sat 9:00AM - 1:00PM, Drive Up M-Th 9:00AM - 5:00PM, Drive Up Fri 9:00AM - 6:00PM, Drive Up Sat 9:00AM - 1:00PM",,,
La Habra,,1970 West Whittier Boulevard ,,La Habra ,CA,90631,United States,562-905-2400,,,"M-Th 9:00AM - 5:00PM, Fri 9:00AM - 6:00PM, Sat 9:00AM - 1:00PM, Drive Up M-Th 9:00AM - 5:00PM, Drive Up Fri 9:00AM - 6:00PM, Drive Up Sat 9:00AM - 1:00PM",,,
Kentfield,,830 College Avenue ,,Kentfield ,CA,94904,United States,415-451-1660,,,"M-Th 9:00AM - 5:00PM, Fri 9:00AM - 6:00PM",,,
Laguna Hills,,23511 Paseo de Valencia ,,Laguna Hills ,CA,92653,United States,949-830-3200,,,"M-Th 9:00AM - 5:00PM, Fri 9:00AM - 6:00PM, Sat 9:00AM - 1:00PM, Drive Up M-Th 9:00AM - 5:00PM, Drive Up Fri 9:00AM - 6:00PM, Drive Up Sat 9:00AM - 1:00PM",,,
La Mesa,,4771 Spring Street ,,La Mesa ,CA,91942,United States,619-667-3206,,,"M-Th 9:00AM - 5:00PM, Fri 9:00AM - 6:00PM, Sat 9:00AM - 1:00PM, Drive Up M-Th 9:00AM - 5:00PM, Drive Up Fri 9:00AM - 6:00PM, Drive Up Sat 9:00AM - 1:00PM",,,
La Canada,,475 Foothill Blvd ,,La Canada ,CA,91011,United States,818-952-7500,,,"M-Th 9:00AM - 5:00PM, Fri 9:00AM - 6:00PM, Sat 9:00AM - 1:00PM",,,
La Jolla,,7807 Girard Avenue ,,La Jolla ,CA,92037,United States,858-551-4750,,,"M-Th 9:00AM - 5:00PM, Fri 9:00AM - 6:00PM, Sat 9:00AM - 1:00PM, Drive Up M-Th 9:00AM - 5:00PM, Drive Up Fri 9:00AM - 6:00PM, Drive Up Sat 9:00AM - 1:00PM",,,
La Jolla - Village Square,,8715 Villa La Jolla Drive ,,La Jolla ,CA,92037,United States,858 812-2100,,,"M-Th 9:00AM - 5:00PM, Fri 9:00AM - 6:00PM, Sat 9:00AM - 1:00PM",,,
Whole Foods La Jolla,,8825 Villa La Jolla Dr ,,La Jolla ,CA,92037,United States,,,,,,,
Ximed Medical Center,,9850 Genesee Ave ,,La Jolla ,CA,92037,United States,,,,,,,
Scripps Hospital,,9888 Genesee Ave ,,La Jolla ,CA,92037,United States,,,,,,,
Westpark,,17595 Harvard Avenue Ste G ,,Irvine ,CA,92614,United States,949-261-9924,,,"M-Th 9:00AM - 5:00PM, Fri 9:00AM - 6:00PM, Sat 9:00AM - 1:00PM",,,
Irvine,,17951 MacArthur Boulevard ,,Irvine ,CA,92614,United States,949-250-0580,,,"M-Th 9:00AM - 5:00PM, Fri 9:00AM - 6:00PM",,,
Orange County Airport,,2001 Michelson Drive ,,Irvine ,CA,92612,United States,949-225-4300,,,"M-Th 9:00AM - 5:00PM, Fri 9:00AM - 6:00PM",,,
Turtle Ridge,,5311 University Dr ,,Irvine ,CA,92612,United States,949-784-8860,,,"M-Th 9:00AM - 5:00PM, Fri 9:00AM - 6:00PM",,,
Woodbridge,,5365 Alton Parkway ,,Irvine ,CA,92604,United States,949-857-2215,,,"M-Th 9:00AM - 5:00PM, Fri 9:00AM - 6:00PM",,,
Quail Hill,,6513 Quail Hill Pkwy ,,Irvine ,CA,92603,United States,949 856-4392,,,"M-Th 9:00AM - 5:00PM, Fri 9:00AM - 6:00PM, Sat 9:00AM - 1:00PM",,,
Huntington Beach,,16141 Beach Boulevard ,,Huntington Beach ,CA,92647,United States,714-847-9681,,,"M-Th 9:00AM - 5:00PM, Fri 9:00AM - 6:00PM, Sat 9:00AM - 1:00PM",,,
Seacliff Village,,19240 Goldenwest St ,,Huntington Beach ,CA,92648,United States,714 374-0620,,,"M-Th 9:00AM - 5:00PM, Fri 9:00AM - 6:00PM, Sat 9:00AM - 1:00PM, Drive Up M-Th 9:00AM - 5:00PM, Drive Up Fri 9:00AM - 6:00PM, Drive Up Sat 9:00AM - 1:00PM",,,
Adams Avenue,,8899 Adams Avenue ,,Huntington Beach ,CA,92646,United States,714-962-3377,,,"M-Th 9:00AM - 5:00PM, Fri 9:00AM - 6:00PM, Sat 9:00AM - 1:00PM, Drive Up M-Th 9:00AM - 5:00PM, Drive Up Fri 9:00AM - 6:00PM, Drive Up Sat 9:00AM - 1:00PM",,,
Hollister Main,,300 Tres Pinos Rd ,,Hollister ,CA,95023,United States,831 638-3341,,,"M-Th 9:00AM - 5:00PM, Fr 9:00AM - 6:00PM, Sat 9:00AM - 1:00PM, Drive Up M-Th 9:00AM - 5:00PM, Drive Up Fri 9:00AM - 6:00PM, Drive Up Sat 9:00AM - 1:00PM",,,
Imperial Beach,,900 Palm Avenue ,,Imperial Beach ,CA,91932,United States,619-424-4924,,,"M-Th 9:00AM - 5:00PM, Fri 9:00AM - 6:00PM, Sat 9:00AM - 1:00PM, Drive Up M-Th 9:00AM - 5:00PM, Drive Up Fri 9:00AM - 6:00PM, Drive Up Sat 9:00AM - 1:00PM",,,
Hermosa Beach,,1401 Pacific Coast Highway ,,Hermosa Beach ,CA,90254,United States,310- 379-6912,,,"M-Th 9:00AM - 5:00PM, Fri 9:00AM - 6:00PM, Sat 9:00AM - 1:00PM, Drive Up M-Th 9:00AM - 5:00PM, Drive Up Fri 9:00AM - 6:00PM, Drive Up Sat 9:00AM - 1:00PM",,,
Hesperia,,17123 Main Street ,,Hesperia ,CA,92345,United States,760-244-5404,,,"M-Th 9:00AM - 5:00PM, Fri 9:00AM - 6:00PM, Sat 9:00AM - 1:00PM, Drive Up M-Th 9:00AM - 5:00PM, Drive Up Fri 9:00AM - 6:00PM, Drive Up Sat 9:00AM - 1:00PM",,,
Hawthorne,,12801 Hawthorne Blvd ,,Hawthorne ,CA,90250,United States,310-679-9082,,,"M-Th 9:00AM - 5:00PM, Fri 9:00AM - 6:00PM, Sat 9:00AM - 1:00PM",,,
Goleta-Fairview,,299 N Fairview Ave ,,Goleta ,CA,93117,United States,805-683-1404,,,"M-Th 9:00AM - 5:00PM, Fr 9:00AM - 6:00PM, Sat 9:00AM - 1:00PM, Drive Up M-Th 9:00AM - 5:00PM, Drive Up Fri 9:00AM - 6:00PM, Drive Up Sat 9:00AM - 1:00PM",,,
Santa Barbara Airport Lower Level,,500 Fowler Road ,,Goleta ,CA,93117,United States,,,,,,,
Santa Barbara Airport Upper Level,,500 Fowler Road ,,Goleta ,CA,93117,United States,,,,,,,
Goleta-Magnolia Center,,5190 Hollister Ave ,,Goleta ,CA,93111,United States,805-964-4737,,,"M-Th 9:00AM - 5:00PM, Fr 9:00AM - 6:00PM, Sat 9:00AM - 1:00PM",,,
Camino Real Marketplace Mall,,7044 Marketplace Drive ,,Goleta ,CA,93117,United States,,,,,,,
Camino Real Marketplace,,7078 Market Place Dr ,,Goleta ,CA,93117,United States,805-968-6144,,,"M-Th 9:00AM - 5:00PM, Fr 9:00AM - 6:00PM, Sat 9:00AM - 1:00PM",,,
Glendale,,330 N Brand Boulevard Suite 160 ,,Glendale ,CA,91203,United States,818-502-2460,,,"M-Th 9:00AM - 5:00PM, Fri 9:00AM - 6:00PM, Sat 9:00AM - 1:00PM",,,
Glendora,,601 W Route 66 ,,Glendora ,CA,91740,United States,626-852-3940,,,"M-Th 9:00AM - 5:00PM, Fri 9:00AM - 6:00PM, Sat 9:00AM - 1:00PM",,,
Garden Grove,,11900 Brookhurst Street ,,Garden Grove ,CA,92840,United States,714-534-0300,,,"M-Th 9:00AM - 5:00PM, Fri 9:00AM - 6:00PM, Sat 9:00AM - 1:00PM",,,
Gardena,,15800 South Western Avenue ,,Gardena ,CA,90247,United States,310-354-4700,,,"M-Th 9:00AM - 5:00PM, Fri 9:00AM - 6:00PM, Sat 9:00AM - 1:00PM, Drive Up M-Th 9:00AM - 5:00PM, Drive Up Fri 9:00AM - 6:00PM",,,
South Gardena,,18200 South Western Avenue ,,Gardena ,CA,90248,United States,310-532-5522,,,"M-Th 9:00AM - 5:00PM, Fri 9:00AM - 6:00PM, Sat 9:00AM - 1:00PM, Drive Up M-Th 9:00AM - 5:00PM, Drive Up Fri 9:00AM - 6:00PM",,,
Hayward,,805 B. St. ,,Hayward ,CA,94541,United States,510-372-2600,,,"M-Th 9:00AM - 5:00PM, Fri 9:00AM - 6:00PM, Sat 9:00AM - 1:00PM",,,
Gilroy,,8000 Santa Teresa Blvd ,,Gilroy ,CA,95020,United States,408-848-2162,,,"M-Th 9:00AM - 5:00PM, Fr 9:00AM - 6:00PM, Sat 9:00AM - 1:00PM",,,
Hanford,,225 West 7th Street ,,Hanford ,CA,93230,United States,559-582-1085,,,"M-Th 9:00AM - 5:00PM, Fri 9:00AM - 6:00PM, Sat 9:00AM - 1:00PM",,,
Sunny Hills,,1080 East Bastanchury Road ,,Fullerton ,CA,92835,United States,714-257-4700,,,"M-Th 9:00AM - 5:00PM, Fri 9:00AM - 6:00PM",,,
University,,3200 East Yorba Linda Boulevard ,,Fullerton ,CA,92831,United States,714-572-1125,,,"M-Th 9:00AM - 5:00PM, Fri 9:00AM - 6:00PM, Sat 9:00AM - 1:00PM, Drive Up M-Th 9:00AM - 5:00PM, Drive Up Fri 9:00AM - 5:00PM",,,
Fullerton,,911 N. Harbor Blvd. ,,Fullerton ,CA,92832,United States,714-879-7441,,,"M-Th 9:00AM - 5:00PM, Fri 9:00AM - 6:00PM, Sat 9:00AM - 1:00PM",,,
Fremont,,39305 Paseo Padre Parkway ,,Fremont ,CA,94538,United States,510-792-9200,,,"M-Th 9:00AM - 5:00PM, Fri 9:00AM - 6:00PM, Sat 9:00AM - 1:00PM",,,
Felton,,6221 Graham Hill Road Suite A ,,Felton ,CA,95018,United States,831-335-6550,,,"M-Th 9:00AM - 5:00PM, Fri 9:00AM - 6:00PM, Sat 9:00AM - 1:00PM",,,
Galt--In-Store,,1059 C Street ,,Galt ,CA,95632,United States,209-745-8000,,,"M-Th 10:00AM - 7:00PM, Fri 10:00AM - 7:00PM, Sat 10:00AM - 4:00PM",,,
Foothill Ranch,,26472 Towne Centre Drive ,,Foothill Ranch ,CA,92610,United States,949-586-9284,,,"M-Th 9:00AM - 5:00PM, Fri 9:00AM - 6:00PM, Sat 9:00AM - 1:00PM, Drive Up M-Th 9:00AM - 5:00PM, Drive Up Fri 9:00AM - 6:00PM, Drive Up Sat 9:00AM - 1:00PM",,,
Fallbrook,,1678 South Mission Road ,,Fallbrook ,CA,92028,United States,760-723-0611,,,"M-Th 9:00AM - 5:00PM, Fri 9:00AM - 6:00PM, Sat 9:00AM - 1:00PM, Drive Up M-Th 9:00AM - 5:00PM, Drive Up Fri 9:00AM - 6:00PM, Drive Up Sat 9:00AM - 1:00PM",,,
Hemet,,800 E. Florida Ave. ,,Hemet ,CA,92543,United States,951-766-6666,,,"M-Th 9:00AM - 5:00PM, Fri 9:00AM - 6:00PM, Sat 9:00AM - 1:00PM, Drive Up M-Th 9:00AM - 5:00PM, Drive Up Fri 9:00AM - 6:00PM, Drive Up Sat 9:00AM - 1:00PM",,,
Fillmore,,566 Sespe Ave ,,Fillmore ,CA,93015,United States,805-524-6740,,,"M-Th 9:00AM - 5:00PM, Fri 9:00AM - 6:00PM",,,
Escondido,,303 West Grand Avenue ,,Escondido ,CA,92025,United States,760-745-8111,,,"M-Th 9:00AM - 5:00PM, Fri 9:00AM - 6:00PM, Sat 9:00AM - 1:00PM, Drive Up M-Th 9:00AM - 5:00PM, Drive Up Fri 9:00AM - 6:00PM, Drive Up Sat 9:00AM - 1:00PM",,,
Encino,,16633 Ventura Boulevard ,,Encino ,CA,91436,United States,818-995-2000,,,"M-Th 9:00AM - 5:00PM, Fri 9:00AM - 6:00PM, Sat 9:00AM - 1:00PM",,,
Woodward Park,,1069 East Champlain Drive ,,Fresno ,CA,93720,United States,559-492-4266,,,"M-Th 9:00AM - 5:00PM, Fri 9:00AM - 6:00PM, Sat 9:00AM - 1:00PM",,,
West Fresno,,1458 Kern St. ,,Fresno ,CA,93706,United States,559-233-0591,,,"M-Th 9:00AM - 5:00PM, Fri 9:00AM - 6:00PM",,,
Shaw & Marks,,3015 West Shaw Avenue ,,Fresno ,CA,93711,United States,559-492-4288,,,"M-Th 9:00AM - 5:00PM, Fri 9:00AM - 6:00PM, Sat 9:00AM - 1:00PM, Drive Up M-Th 9:00AM - 5:00PM, Drive Up Fri 9:00AM - 6:00PM, Drive Up Sat 9:00AM - 1:00PM",,,
Fashion Fair,,565 East Shaw Avenue ,,Fresno ,CA,93710,United States,559-226-7900,,,"M-Th 9:00AM - 5:00PM, Fri 9:00AM - 6:00PM, Sat 9:00AM - 1:00PM, Drive Up M-Th 9:00AM - 5:00PM, Drive Up Fri 9:00AM - 6:00PM, Drive Up Sat 9:00AM - 1:00PM",,,
Cedar & Herndon,,6666 North Cedar Avenue ,,Fresno ,CA,93710,United States,559 862-2888,,,"M-Th 9:00AM - 5:00PM, Fri 9:00AM - 6:00PM, Sat 9:00AM - 1:00PM",,,
Fresno/Sunset In-Store,,7075 North Marks Avenue ,,Fresno ,CA,93711,United States,559-446-2590,,,"M-Th 10:00AM - 7:00PM, Fri 10:00AM - 7:00PM, Sat 10:00AM - 4:00PM",,,
Fresno,,7108 North Fresno Street Suite 100 ,,Fresno ,CA,93720,United States,559-436-2700,,,"M-Th 9:00AM - 5:00PM, Fri 9:00AM - 6:00PM",,,
Encinitas,,200 D Street ,,Encinitas ,CA,92024,United States,760-753-5517,,,"M-Th 9:00AM - 5:00PM, Fri 9:00AM - 6:00PM, Sat 9:00AM - 1:00PM, Drive Up M-Th 9:00AM - 5:00PM, Drive Up Fri 9:00AM - 6:00PM, Drive Up Sat 9:00AM - 1:00PM",,,
East Encinitas,,247 North El Camino Real ,,Encinitas ,CA,92024,United States,760-942-4883,,,"M-Th 9:00AM - 5:00PM, Fri 9:00AM - 6:00PM, Sat 9:00AM - 1:00PM, Drive Up M-Th 9:00AM - 5:00PM, Drive Up Fri 9:00AM - 6:00PM, Drive Up Sat 9:00AM - 1:00PM",,,
Fountain Valley,,18175 Brookhurst Street ,,Fountain Valley ,CA,92708,United States,714-964-6113,,,"M-Th 9:00AM - 5:00PM, Fri 9:00AM - 6:00PM, Sat 9:00AM - 1:00PM",,,
