store_name,store_number,address,address2,city,state,zip_code,country,phone_number,latitude,longitude,store_hours,store_type,other_fields,coming_soon
141-Factory Stores of America,,"214 South McCleskey Street, Ste 844",,Boaz,AL,35957,United States,(256) 840-5247,34.197350,-86.162657,"Mon-Sat 10:00 AM-5:30 PM, Sun 12:00 AM-6:00 PM",,,
183-USA Factory Stores,,"1220 Fox Run Ave, Ste 116",,Opelika,AL,36801,United States,(334) 745-3738,32.654416,-85.346205,"Mon-Sat 9:00 AM-7:00 PM, Sun 12:00 PM-6:00 PM",,,
54-Tanger Mall,,"2601 South McKenzie Street, Ste 448",,Foley,AL,36535,United States,(251) 943-3901,30.377583,-87.683125,"Mon-Sat 9:00 AM-9:00 PM, Sun 11:00 AM-6:00 PM",,,
157-Tri Valley Plaza,,"1355 East Florence Blvd., Suite 119",,Casa Grande,AZ,85122,United States,(520) 876-4907,32.879571,-111.728401,"Mon-Sat 8:00 AM-5:00 PM, Sun 12:00 PM-5:00 PM",,,
17-Power Square,,"2055 South Power Rd., Ste 1023",,Mesa,AZ,85209,United States,(480) 380-0630,33.378118,-111.687806,"Mon-Sat 9:00 AM-6:00 PM, Sun 11:00 AM-5:00 PM",,,
193-Outlets At Anthem,,"4250 West Anthem Way, Ste 440",,Phoenix,AZ,85086,United States,(623) 465-4934,33.871253,-112.150829,"Mon-Sat 10:00 AM-8:00 PM, Sun 10:00 AM-7:00 PM",,,
237-Buckhorn Plaza,,"6118 E. Main Street, Ste B-102",,Mesa,AZ,85205,United States,(480) 924-6888,33.415686,-111.699994,"Mon-Sat 9:00 AM-8:00 PM, Sun 11:00 AM-5:00 PM",,,
242-Foothills Mall,,"7401 N. La Cholla Blvd, Ste 112",,Tucson,AZ,85741,United States,(520) 797-0223,32.339990,-111.012823,"Mon-Sat 10:00 AM-9:00 PM, Sun 11:00 AM-6:00 PM",,,
243-Sundome Plaza,,13539 W. Camino Del Sol,,Sun City West,AZ,85375,United States,(623) 537-9319,33.655894,-112.352360,"Mon-Sat 8:00 AM-5:00 PM, Sun 12:00 PM-5:00 PM",,,
244-Kings Inn Center,,"10659 NW Grand Avenue, Ste 17",,Sun City,AZ,85351,United States,(623) 977-7306,33.601836,-112.287173,"Mon-Sat 8:00 AM-5:00 PM, Sun 12:00 PM-5:00 PM",,,
254-Big Curve Shopping Center,,"280 W. 32nd Street, Ste 280",,Yuma,AZ,85364,United States,(928)344-1633,32.670238,-114.622392,"Mon-Sat 8:00 AM-5:00 PM, Sun 12:00 PM-5:00 PM",,,
316-Bell Camino,,10736 W. Bell Road,,Sun City,AZ,85351,United States,(623)977-0653,33.638116,-112.290680,"Mon-Sat 8:00 AM-5:00 PM, Sun 12:00 PM-5:00 PM",,,
318-Ocotilloshopping Center,,"4960 S. Alma School Rd., Ste B-9",,Chandler,AZ,85248,United States,(480)883-8434,33.235503,-111.859560,"Mon-Sat 8:00 AM-5:00 PM, Sun 12:00 PM-5:00 PM",,,
395-Safeway Shopping Center,,"1664 McCulloch Blvd., Ste 1664",,Lake Havasu City,AZ,86403,United States,(928)453-3707,34.475604,-114.342025,"Mon-Sat 8:00 AM-5:00 PM, Sun 12:00 PM-5:00 PM",,,
124-Ozark Center Point Place,,"5320 West Sunset, Ste 176",,Springdale,AR,72762,United States,(479) 750-9089,36.175489,-94.190290,Mon-Sat 9:00 AM-7:00 PM,,,
399-Town East Plaza,,7612 Rogers Ave. Suite B,,Ft. Smith,AR,72903,United States,(479)452-1152,35.351611,-94.348333,"Mon-Sat 9:00 AM-6:00 PM, Sun 12:00 PM-5:00 PM",,,
445-Lighthouse Plaza,,"19324 Lighthouse Plaza Blvd., Unit 1",,Rehoboth Beach,DE,19971,United States,(302) 227-2187,38.722534,-75.120306,"Mon-Sat 10:00 AM-7:00 PM, Sun 12:00 PM-6:00 PM",,,
135-Vero Fashion Outlets,,"1739 94th Dr, Spc D-230, Bldg D",,Vero Beach,FL,32966,United States,(772) 567-2211,27.636380,-80.522143,"Mon-Sat 9:00 AM-8:00 PM, Sun 11:00 AM-6:00 PM",,,
186-Bon Worth,,2148 Martin Luther King Blvd,,Panama City,FL,32405,United States,(850) 763-1779,30.186148,-85.650026,"Mon-Sat 10:00 AM-9:00 PM, Sun 12:00 PM-6:00 PM",,,
213-Western Way Shopping Center,,12987 Cortez Boulevard,,Brooksville,FL,34613,United States,(352) 597-8264,28.533714,-82.513797,"Mon-Sat 9:30 AM-6:00 PM, Sun 11:00 AM-4:00 PM",,,
214-Lakeshore Mall,,"901 US 27 North, Ste 10",,Sebring,FL,33870,United States,(863) 314-9529,27.475405,-81.471895,"Mon-Sat 10:00 AM-9:00 PM, Sun 12:00 PM-6:00 PM",,,
221-Six Gun Plaza,,4901 E. Silver Springs Blvd. Ste 310,,Ocala,FL,34470,United States,(352) 236-3800,29.209387,-82.068545,"Mon-Sat 9:30 AM-5:30 PM, Sun 12:00 PM-5:00 PM",,,
223-Largo Mall,,"10500 Ulmerton Rd, Ste 697",,Largo,FL,33771,United States,(727) 581-0639,27.894548,-82.784055,"Mon-Sat 9:30 AM-5:30 PM, Sun 11:00 AM-4:00 PM",,,
226-Sun City Center Plaza,,"1517 Sun City Center Plaza, Ste A",,Sun City Center,FL,33573,United States,(813) 634-7296,27.698669,-82.375127,"Mon-Sat 8:30 AM-5:00 PM, Sun 11:00 AM-4:00 PM",,,
227-Disston Plaza,,"3615 49th Street, North",,St. Petersburg,FL,33710,United States,(727) 522-1287,27.805071,-82.700051,"Mon-Sat 9:30 AM-5:30 PM, Sun 12:00 PM-5:00 PM",,,
228-Lake Washington Crossing,,3202 Lake Washington Road,,Melbourne,FL,32934,United States,(321) 255-3088,28.146628,-80.675107,"Mon-Sat 9:30 AM-5:30 PM, Sun 12:00 PM-5:00 PM",,,
22-Sunshine Park,,"2400 South Ridgewood Ave., Unit 33",,South Daytona,FL,32119,United States,(386) 760-4794,29.166169,-80.999022,"Mon-Sat 9:00 AM-6:00 PM, Sun 12:00 PM-5:00 PM",,,
234-Northgate Shopping Center,,1376 6th Street North West,,Winter Haven,FL,33881,United States,(863) 299-1731,28.034668,-81.726674,"Mon-Sat 9:30 AM-5:30 PM, Sun 12:00 PM-5:00 PM",,,
235-Hernando West Plaza,,1416 Pinehurst Drive,,Spring Hill,FL,34606,United States,(352) 666-5930,28.456582,-82.627882,"Mon-Sat 9:30 AM-5:30 PM, Sun 12:00 PM-5:00 PM",,,
238-Fountain Court Shopping Center,,"6363 Manatee Avenue W, Ste 202",,Bradenton,FL,34209,United States,(941) 795-8133,27.475246,-82.626400,"Mon-Sat 9:30 AM-5:30 PM, Sun 12:00 PM-5:00 PM",,,
247-La Plaza Grande South,,988 Bichara Blvd,,The Villages,FL,32159,United States,(352)205-7327,28.938289,-81.944391,"Mon-Sat 9:30 AM-5:30 PM, Sun 11:00 AM-4:00 PM",,,
24-Sable Palm Plaza,,2323 S. Federal Hwy,,Fort Pierce,FL,34982,United States,(772)468-8444,27.424562,-80.325935,"Mon-Sat 9:30 AM-5:30 PM, Sun 12:00 PM-5:00 PM",,,
251-Peachland Promenade,,"24123 Peachland Blvd, Ste A-13",,Port Charlotte,FL,33954,United States,(941)625-7199,27.017422,-82.054228,"Mon-Sat 9:30 AM-5:30 PM, Sun 11:00 AM-5:00 PM",,,
252-St. Augustine Outlets,,"500 Outlet Mall Blvd, Ste 155",,St. Augustine,FL,32084,United States,(904) 823-1575,29.923730,-81.412917,"Mon-Sat 9:00 AM-9:00 PM, Sun 10:00 AM-6:00 PM",,,
253-Eagle Ridge Mall,,465 Eagle Ridge Drive,,Lake Wales,FL,33859,United States,(863) 679-8709,27.955245,-81.617989,"Mon-Sat 10:00 AM-9:00 PM, Sun 12:00 PM-6:00 PM",,,
263-Shoppes of Golden Acres,,"9824 Little Rd., Spc 17",,New Port Richey,FL,34654,United States,(727)861-1576,28.298270,-82.672191,"Mon-Sat 9:30 AM-5:30 PM, Sun 11:00 AM-4:00 PM",,,
265-Bayside Bridge Plaza,,"1530 North McMullen Booth Rd., Ste D1",,Clearwater,FL,33759,United States,(727) 712-0158,27.980988,-82.709081,"Mon-Sat 9:00 AM-5:30 PM, Sun 11:00 AM-4:00 PM",,,
300-Merchant Square Mall,,"7409 Gall Blvd, Ste 100B",,Zephyrhills,FL,33541,United States,(813)715-0057,28.263993,-82.188170,"Mon-Sat 9:30 AM-5:30 PM, Sun 11:00 AM-4:00 PM",,,
439-Bonita Grande Crossing,,12870 Trade Way Four #105,,Bonita Springs,FL,34135,United States,(239)495-3157,26.329563,-81.740630,"Mon-Sat 9:30 AM-5:30 PM, Sun 11:00 AM-4:00 PM",,,
440-Clermont Landing,,2305 S Hwy 27,,Clermont,FL,34711,United States,(352)243-2002,28.539682,-81.739338,"Mon-Sat 9:30 AM-5:30 PM, Sun 11:00 AM-4:00 PM",,,
446-Wekiva Square,,"955 W. State Road 436, Suite 1020",,Altamonte Springs,FL,32714,United States,(407) 682-2164,28.661739,-81.398153,"Mon-Sat 9:30 AM-5:30 PM, Sun 11:00 AM-4:00 PM",,,
448-Shoppes At Del Prado,,17966 North Tamiami Trail Suite 130,,North Ft Myers,FL,33917,United States,(239) 731-1050,26.726747,-81.907220,"Mon-Sat 9:00 AM-6:00 PM, Sun 11:00 AM-4:00 PM",,,
51-Factory Stores of America,,"950 Prim Avenue, Ste 13",,Graceville,FL,32440,United States,(850) 263-7763,30.947911,-85.518303,"Mon-Sat 10:00 AM-7:00 PM, Sun 12:00 PM-6:00 PM",,,
73-Kissimmee Shopping Center,,2537 Old Vineland Rd.,,Kissimmee,FL,34746,United States,(407) 397-0744,28.317104,-81.468237,"Mon-Sat 10:00 AM-5:30 PM, Sun 11:00 AM-5:00 PM",,,
76-Shoppes of Lake Village,,"10601 Hwy 441, Bay C-5",,Leesburg,FL,34788,United States,(352) 365-9555,28.821753,-81.782035,"Mon-Sat 9:30 AM-5:30 PM, Sun 12:00 PM-5:00 PM",,,
77-Grove Park Shopping Center,,"1515 US Hwy 98 South, Bay 9",,Lakeland,FL,33801,United States,(863) 682-5166,28.035700,-81.957302,"Mon-Sat 9:30 AM-5:30 PM, Sun 11:00 AM-4:00 PM",,,
82-Prime Outlets,,"6050 Collier Blvd.,Bldg. 3, Ste 156",,Naples,FL,34114,United States,(239) 793-6632,26.043472,-81.700023,"Mon-Sat 10:00 AM-8:00 PM, Sun 11:00 AM-6:00 PM",,,
92-Tanger Outlet Center,,"20350 Summerlin Rd, Ste 3125",,Fort Myers,FL,33908,United States,(239) 466-3920,26.493639,-81.974713,"Mon-Sat 9:00 AM-9:00 PM, Sun 11:00 AM-6:00 PM",,,
126-Tanger Factory Outlet,,"800 Steven B Tanger Blvd, Ste 308",,Commerce,GA,30529,United States,(706) 335-4350,34.248661,-83.475108,"Mon-Sat 9:00 AM-9:00 PM, Sun 12:00 PM-6:00 PM",,,
127-Tanger Factory Outlet,,"1000 Tanger Drive, Ste 413",,Locust Grove,GA,30248,United States,(770) 914-1444,33.350595,-84.123596,"Mon-Sat 9:00 AM-9:00 PM, Sun 12:00 PM-6:00 PM",,,
144-Calhoun Premium Outlets,,"455 Belwood Road SE, Ste 15",,Calhoun,GA,30701,United States,(706) 602-1006,34.459525,-84.916590,"Mon-Sat 10:00 AM-9:00 PM, Sun 11:00 AM-7:00 PM",,,
25-Mill Store Plaza,,5137 Mill Store Road,,Lake Park,GA,31636,United States,(229) 559-6206,30.672078,-83.214888,"Mon-Sat 9:00 AM-8:00 PM, Sun 12:00 PM-6:00 PM",,,
94-Peach Factory Stores,,"311 Hwy 49 North, Ste 130",,Byron,GA,31008,United States,(478) 956-5255,32.661382,-83.741619,"Mon-Sat 10:00 AM-6:00 PM, Sun 12:00 AM-5:00 PM",,,
184-Factory Stores at Tuscola,,"B-600 Tuscola Blvd, Box 4045",,Tuscola,IL,61953,United States,(217) 253-9888,39.787931,-88.268839,"Mon-Sat 10:00 AM-9:00 PM, Sun 11:00 AM-6:00 PM",,,
36-Factory Stores of America,,"1000 Factory Outlet Drive, Box 106",,West Frankfort,IL,62896,United States,(618) 937-1004,37.897890,-88.950550,"Mon-Sat 9:00 AM-8:00 PM, Sun 12:00 PM-6:00 PM",,,
107-Village North,,2464 Lebanon Street,,Lebanon,IN,46052,United States,(765) 482-9645,40.037698,-86.468622,"Mon-Sat 10:00 AM-6:00 PM, Sun 12:00 PM-5:00 PM",,,
146-Outlet Shoppes of Fremont,,"655 West State Road 120, Ste 17",,Fremont,IN,46737,United States,(260) 833-2020,41.729795,-84.987710,"Mon-Sat 10:00 AM-9:00 PM, Sun 10:00 AM-7:00 PM",,,
165-Village Shopping Center,,1513 E Tipton Ste. 4,,Seymour,IN,47274,United States,(812) 524-8094,38.958133,-85.864642,"Mon-Sat 10:00 AM-7:00 PM, Sun 12:00 AM-5:00 PM",,,
42-Edinburgh Premium Outlets,,"11770 NE Executive Dr., Suite D100",,Edinburgh,IN,46124,United States,(812) 526-8386,39.309328,-85.959883,"Mon-Sat 9:00 AM-9:00 PM, Sun 10:00 AM-7:00 PM",,,
206-Tanger Outlet Center,,129 Tanger Drive,,Williamsburg,IA,52361,United States,(319) 668-8093,41.689825,-92.005874,"Mon-Sat 10:00 AM-6:00 PM, Sun 10:00 AM-9:00 PM",,,
185-Bon Worth,,"601 SE 36th Street, Ste 104",,Newton,KS,67114,United States,(316) 284-2999,37.999240,-97.327219,"Mon-Sat 9:00 AM-7:00 PM, Sun 12:00 PM-6:00 PM",,,
109-Butler Outlet Mall,,"2529 Hwy 227, Box 7",,Carrollton,KY,41008,United States,(502) 732-0716,38.657512,-85.134512,"Mon-Sat 9:00 AM-8:00 PM, Sun 11:00 AM-6:00 PM",,,
412-Greenwood Mall,,"2625 Scottsville Rd., Ste 200",,Bowling Green,KY,42104,United States,(270)842-2872,36.950103,-86.425105,"Mon-Sat 10:00 AM-9:00 PM, Sun 12:30 PM-6:00 PM",,,
74-Factory Stores of America,,"100 Factory Outlet Drive, Ste 105",,Hanson,KY,42413,United States,(270) 322-9004,37.419488,-87.475546,"Mon-Sat 9:00 AM-8:00 PM, Sun 12:00 PM-6:00 PM",,,
81-Factory Stores of America,,"401 Outlet Center Drive, Ste 320",,Georgetown,KY,40324,United States,(502) 863-0879,38.219471,-84.538552,"Mon-Sat 10:00 AM-7:00 PM, Sun 12:00 PM-6:00 PM",,,
111-Factory Stores of America,,"700 Factory Outlet Drive, Unit 109A",,Arcadia,LA,71001,United States,(318) 263-9062,32.560879,-92.914544,"Mon-Sat 10:00 AM-5:30 PM, Sun 12:00 PM-6:00 PM",,,
40-VF Factory Outlet,,375 Faunce Corner Road,,North Dartmouth,MA,02747,United States,(508) 995-2540,41.663029,-70.990905,"Mon-Sat 10:00 AM-9:00 PM, Sun 11:00 AM-6:00 PM",,,
442-Pine Grove Plaza,,3528 Pine Grove Ave Ste. L1,,Port Huron,MI,48060,United States,(810) 985-4692,43.014375,-82.449062,"Mon-Sat 9:00 AM-6:00 PM, Sun 11:00 AM-6:00 PM",,,
89-Birch Run Premium Outlets,,"8925 Market Place Dr., Ste F504",,Birch Run,MI,48415,United States,(989) 624-5826,43.244498,-83.774686,"Mon-Sat 10:00 AM-9:00 PM, Sun 11:00 AM-7:00 PM",,,
123-Factory Stores at Batesville,,"325 Lakewood Drive, Ste 27",,Batesville,MS,38606,United States,(662) 563-8866,34.313008,-89.919865,"Mon-Sat 9:00 AM-6:00 PM, Sun 12:00 PM-6:00 PM",,,
138-Gulfport Premium Outlets,,10120 Factory Shops Blvd,,Gulfport,MS,39503,United States,(228) 822-0512,30.428011,-89.096979,"Mon-Sat 10:00 AM-9:00 PM, Sun 11:00 AM-6:00 PM",,,
20-Factory Stores of America,,"2824 South East Blvd, Ste 105",,Tupelo,MS,38804,United States,(662) 842-7996,34.244421,-88.662210,"Mon-Sat 9:00 AM-5:00 PM, Sun 12:00 PM-5:00 PM",,,
125-Shoppes At Branson Meadows,,4338 Gretna Road,,Branson,MO,65616,United States,(417) 336-2315,36.661385,-93.256832,"Mon-Sat 9:00 AM-7:00 PM, Sun 10:00 AM-6:00 PM",,,
158-Tanger Outlet Center,,"300 Tanger Blvd, Ste 113",,Branson,MO,65616,United States,(417) 332-2717,36.643898,-93.264451,"Mon-Sat 9:00 AM-9:00 PM, Sun 10:00 AM-7:00 PM",,,
391-North Park Mall,,"101 N Rangeline Rd., Ste 200",,Joplin,MO,64801,United States,(417)624-4246,37.108078,-94.475468,"Mon-Sat 10:00 AM-9:00 PM, Sun 12:00 PM-6:00 PM",,,
427-Mid Rivers Mall,,1366 Mid Rivers Mall,,Saint Peters,MO,63376,United States,(636)278-1746,38.798739,-90.617137,"Mon-Sat 10:00 AM-9:00 PM, Sun 11:00 AM-6:00 PM",,,
47-Factory Stores of America,,"2020 Evergreen Parkway, Ste 112",,Lebanon,MO,65536,United States,(417) 588-3777,37.659325,-92.658281,"Mon-Sat 9:00 AM-7:00 PM, Sun 12:00 PM-6:00 PM",,,
56-Osage Beach Premium Outlets,,"4540 Osage Beach Pkwy, Box B-7",,Osage Beach,MO,65065,United States,(573) 348-6212,38.146284,-92.627229,"Mon-Sat 10:00 AM-9:00 PM, Sun 10:00 AM-6:00 PM",,,
91-Sikeston Factory Outlet,,"100 Outlet Drive, Ste 15",,Miner  (Sikeston),MO,63801,United States,(573) 471-1133,36.889927,-89.536265,"Mon-Sat 9:00 AM-8:00 PM, Sun 12:00 PM-6:00 PM",,,
278-Preferred Outlets,,"1955 S. Casino Dr., Space #215",,Laughlin,NV,89029,United States,(702)299-1127,35.162476,-114.575889,"Mon-Sat 9:00 AM-8:00 PM, Sun 10:00 AM-7:00 PM",,,
187-Sussex County Mall,,13 Hampton House Rd Route 206,,Newton,NJ,07860,United States,(973) 383-7340,41.067089,-74.745319,"Mon-Sat 10:00 AM-6:00 PM, Sun 11:00 AM-5:00 PM",,,
156-Waterloo Premium Outlets,,"655 Route 318,  Store 30",,Waterloo,NY,13165,United States,(315) 539-2434,42.956324,-76.921530,"Mon-Sat 10:00 AM-9:00 PM, Sun 10:00 AM-6:00 PM",,,
160-Bellport Outlet Center,,"10 Farber Dr., Suite 11",,Bellport,NY,11713,United States,(631) 286-2303,40.790348,-72.953963,"Mon-Sat 10:00 AM-9:00 PM, Sun 11:00 AM-6:00 PM",,,
1-Bon Worth,,40 Francis Road,,Hendersonville,NC,28792,United States,(828) 692-0658,35.343293,-82.438162,"Mon-Sat 9:00 AM-5:30 PM, Sun 1:00 PM-5:30 PM",,,
23-Carolina Premium Outlets,,"1025 Industrial Park Drive, Ste 340",,Smithfield,NC,27577,United States,(919) 934-7759,35.508071,-78.314123,"Mon-Sat 10:00 AM-9:00 PM, Sun 11:00 AM-7:00 PM",,,
28-Burlington Mall Outlet Center,,2381 Corporation Parkway,,Burlington,NC,27215,United States,(336) 226-4222,36.068306,-79.435533,"Mon-Sat 10:00 AM-5:00 PM, Sun 1:00 PM-5:00 PM",,,
37-Bon Worth,,207 West Avenue,,Kannapolis,NC,28081,United States,(704) 933-5868,35.496260,-80.626473,"Mon-Sat 10:00 AM-6:00 PM, Sun 1:00 PM-6:00 PM",,,
262-Lodi Station,,"9913 Avon Lake Rd, Unit 525",,Burbank,OH,44214,United States,(330)948-2582,41.002469,-81.996226,"Mon-Sat 10:00 AM-9:00 PM, Sun 10:00 AM-6:00 PM",,,
345-Lima Mall,,"2400 Elida Rd., Ste 704",,Lima,OH,45805,United States,(419) 991-9490,40.740672,-84.150868,"Mon-Sat 10:00 AM-9:00 PM, Sun 12:00 AM-6:00 PM",,,
387-River Valley Mall,,"1635 River Valley Circle South, Ste 845",,Lancaster,OH,43130,United States,(740)654-6870,39.733733,-82.627461,"Mon-Sat 10:00 AM-9:00 PM, Sun 10:00 AM-6:00 PM",,,
14-Rockvale Square Outlets,,"35 South Willowdale Drive, Box 305",,Lancaster,PA,17602,United States,(717) 299-6370,40.022219,-76.197396,"Mon-Sat 9:30 AM-9:00 PM, Sun 11:00 AM-5:00 PM",,,
168-Gettysburg Village Factory Stores,,"1863 Gettysburg Village Drive, Ste 450",,Gettysburg,PA,17325,United States,(717) 338-9734,39.794329,-77.201423,"Mon-Sat 10:00 AM-9:00 PM, Sun 10:00 AM-6:00 PM",,,
273-Shenango Valley Mall,,"3241 East State St, Ste 212",,Hermitage,PA,16148,United States,(724)342-1089,41.233429,-80.450451,"Mon-Sat 10:00 AM-9:00 PM, Sun 12:00 PM-5:00 PM",,,
447-Grove City Premium Outlet,,1911 Leesburg Grove City Rd Unit #415,,Grove City,PA,16127,United States,(724) 748-9600,41.139752,-80.157357,"Mon-Sat 10:00 AM-9:00 PM, Sun 10:00 AM-7:00 PM",,,
145-Myrtle Beach Factory Stores,,"4635 Factory Stores Blvd., Ste D120",,Myrtle Beach,SC,29579,United States,(843) 236-7372,33.751564,-78.960337,"Mon-Sat 10:00 AM-9:00 PM, Sun 10:00 AM-7:00 PM",,,
152-Governors Crossing Outlet Center,,"204 Collier Drive, Ste D-1",,Sevierville,TN,37862,United States,(865) 908-5448,35.838451,-83.563100,"Mon-Sat 9:00 AM-9:00 PM, Sun 10:00 AM-6:00 PM",,,
205-Lebanon Premium Outlets,,340 Outlet Village Blvd,,Lebanon,TN,37090,United States,(615) 449-8585,36.178456,-86.302561,"Mon-Sat 10:00 AM-9:00 PM, Sun 10:00 AM-7:00 PM",,,
34-Crossville Outlet Center,,"228 Interstate Dr., Ste 115",,Crossville,TN,38555,United States,(931) 456-0803,35.980089,-85.018013,"Mon-Sat 9:00 AM-8:00 PM, Sun 12:00 PM-6:00 PM",,,
386-College Square Mall,,"2550 East Morris Blvd., Ste 4",,Morristown,TN,37813,United States,(423)318-9070,36.222508,-83.261452,"Mon-Sat 10:00 AM-9:00 PM, Sun 12:00 PM-6:00 PM",,,
53-Pigeon Forge Factory Outlet (Red Roof Mall),,"2850 Parkway Avenue, Ste 10A",,Pigeon Forge,TN,37863,United States,(865) 429-3408,35.797724,-83.567329,"Mon-Sat 9:00 AM-9:00 PM, Sun 9:00 AM-5:00 PM",,,
84-County Marketplace,,1700 West Reel Foot Ave Suite 106 & 112,,Union City,TN,38261,United States,(731) 885-0479,36.424014,-89.055606,"Mon-Sat 10:00 AM-8:00 PM, Sun 12:00 PM-6:00 PM",,,
155-Gulfway Plaza Outlet Mall,,14029 Delany Road,,La Marque,TX,77568,United States,(409) 933-1500,29.384779,-95.020879,"Mon-Sat 8:00 AM-5:00 PM, Sun 12:00 PM-5:00 PM",,,
175-Lake Livingston Outlet Mall,,"440 Hwy 59 Loop South, Ste 106",,Livingston,TX,77351,United States,(936) 328-8028,30.706546,-94.952998,"Mon-Sat 9:00 AM-6:00 PM, Sun 12:00 PM-6:00 PM",,,
182-Tanger Outlet Center,,"301 Tanger Drive, Ste 108",,Terrell,TX,75160,United States,(972) 563-3610,32.703428,-96.281387,"Mon-Sat 9:00 AM-9:00 PM, Sun 11:00 AM-6:00 PM",,,
210-Factory Stores of America,,"805 Factory Outlet Drive, Ste 101",,Hempstead,TX,77445,United States,(979) 921-0345,30.096662,-96.061330,"Mon-Sat 9:00 AM-6:00 PM, Sun 12:00 PM-6:00 PM",,,
26-Factory Stores of America,,614 Bill Bradford Road Ste. 105,,Sulphur Springs,TX,75482,United States,(903) 885-7047,33.121276,-95.587015,"Mon-Sat 9:00 AM-6:00 PM, Sun 12:00 PM-6:00 PM",,,
27-New Braunfels Marketplace,,"651 Hwy 81, Ste 320",,New Braunfels,TX,78130,United States,(830) 620-5015,29.697141,-98.089644,"Mon-Sat 10:00 AM-7:00 PM, Sun 12:00 PM-6:00 PM",,,
370-Harlingen Corners,,"2819 Harlingen Corners, Ste 300",,Harlingen,TX,78552,United States,(956)425-4098,26.186553,-97.733496,"Mon-Sat 10:00 AM-6:00 PM, Sun 12:00 AM-6:00 PM",,,
414-Rio Grande Valley Premium Outlets,,"5001 E Expressway 83, Ste 819",,Mercedes,TX,78570,United States,(956)514-1818,26.172311,-98.011945,"Mon-Sat 10:00 AM-9:00 PM, Sun 11:00 AM-7:00 PM",,,
441-Rivery Towne Crossing,,"1103 Rivery Blvd., Suite 160",,Georgetown,TX,78628,United States,(512) 8639740,30.645245,-97.687502,"Mon-Sat 10:00 AM-6:00 PM, Sun 1:00 AM-6:00 PM",,,
78-San Marcos Premium Outlets,,"3939 I-35 South, Ste 450-B",,San Marcos,TX,78666,United States,(512) 754-8534,29.827809,-97.985068,"Mon-Sat 9:00 AM-9:00 PM, Sun 12:00 PM-6:00 PM",,,
438-Zion Factory Mall,,250 North Red Cliffs Drive #4A,,St George,UT,84790,United States,(435)652-8242,37.112030,-113.553359,"Mon-Sat 10:00 AM-9:00 PM, Sun 11:00 AM-6:00 PM",,,
409-Pembroke Mall,,"4554 Virginia Beach Blvd., Ste 110",,Virginia Beach,VA,23462,United States,(757)456-5341,36.843617,-76.133200,"Mon-Sat 10:00 AM-9:00 PM, Sun 12:00 PM-6:00 PM",,,
444-Williamsburg Premium Outlet,,"5555 Richmond Rd., Ste. G100",,Williamsburg,VA,23188,United States,(757) 220-6757,37.314876,-76.733379,"Mon-Sat 10:00 AM-9:00 PM, Sun 10:00 AM-7:00 PM",,,
286-Flatwood Factory Stores,,82 Skidmore Lane,,Sutton,WV,26601,United States,(304)765-3101,38.659671,-80.713132,"Mon-Sat 10:00 AM-8:00 PM, Sun 12:00 PM-6:00 PM",,,
352-Mercer Mall,,"US Hwy 460 & Rt. 25, Ste 502",,Bluefield,WV,24701,United States,(304)325-9929,37.250013,-81.206522,"Mon-Sat 10:00 AM-9:00 PM, Sun 1:00 AM-6:00 PM",,,
