store_name,store_number,address,address2,city,state,zip_code,country,phone_number,latitude,longitude,store_hours,store_type,other_fields,coming_soon
Boutique Cartier Toronto Bloor Street,,131 Bloor Street West,,Toronto,Ontario,M5S 1R1,Canada,+1 416 413 4929,,,"Monday - Wednesday 10:00 am - 6:00 pm, Thursday - Friday 10:00 am - 7:00 pm, Saturday 10:00am - 6:00 pm, Sunday 12:00 pm - 5:00 pm",,,http://www.cartier.com/en-us/find-boutique/store-locator-listing/canada/toronto/boutique-cartier-toronto-bloor-street-BTQ3063.html
Boutique Cartier Guadalajara - Palacio de Hierro,,"Plaza Andares | Av. Patria 2085, Entre Blvd. Puerta de Hierro y Av. Acueducto, Col. Puerta de Hierro",,Guadalajara,,45116,Mexico,+52 (33) 3648-9870,,,Lunes a Domingo: 11:00 a.m. a 9:00 p.m.,,,http://www.cartier.com/en-us/find-boutique/store-locator-listing/mexico/guadalajara/boutique-cartier-guadalajara---palacio-de-hierro-BTQ11400.html
Boutique Cartier Vancouver,,456 Howe Street,,Vancouver,British Columbia,BC V6C 2X1,Canada,+1 604 683 6878,,,"Monday - Saturday 10:00 am - 6:00 pm, Sunday 12:00 pm - 5:00 pm",,,http://www.cartier.com/en-us/find-boutique/store-locator-listing/canada/vancouver/boutique-cartier-vancouver-BTQ3067.html
Boutique Cartier Casablanca - Place des Nations Unies,,Place des Nations Unies,,Casablanca,,20000,Morocco,+212 5 22 43 12 12,,,Du lundi au samedi: 10h30 - 20h30,,,http://www.cartier.com/en-us/find-boutique/store-locator-listing/morocco/casablanca/boutique-cartier-casablanca---place-des-nations-unies-BTQ17262.html
Boutique Cartier Amsterdam - De Bijenkorf,,Dam 1,,Amsterdam,,1012JS,Netherlands,+ 31 (0) 20 7036499,,,Monday: 11:00 - 21:00 / Tuesday & Wednesday: 10:00 - 20:00 / Thursday & Friday: 10:00 - 21:00 / Saturday: 9:30 - 20:00 / Sunday : 11:00 - 20:00,,,http://www.cartier.com/en-us/find-boutique/store-locator-listing/netherlands/amsterdam/boutique-cartier-amsterdam---de-bijenkorf-BTQ2120.html
Boutique Cartier Dusseldorf,,"Königsallee, Steinstraße 1-3",,Dusseldorf,,40212,Germany,00 49 (0) 211 866 460,,,Mon-Fri 10h30-18h30 Sat 10h00-18h00,,,http://www.cartier.com/en-us/find-boutique/store-locator-listing/germany/dusseldorf/boutique-cartier-dusseldorf-BTQ1804.html
Boutique Cartier Moscow - GUM,,"3 Red Square, GUM 1st line",,Moscow,,109012,Russia,+7 495 795 03 40,,,Пн-Вск 10.00-22.00,,,http://www.cartier.com/en-us/find-boutique/store-locator-listing/russia/moscow/boutique-cartier-moscow---gum-BTQ17291.html
Boutique Frankfurt,,Goethestraße 11,,Frankfurt a. M.,,60313,Germany,+49 69 95932110,,,Mon-Fri 10h30-18h30 Sat 10h00-16h00,,,http://www.cartier.com/en-us/find-boutique/store-locator-listing/germany/frankfurt-a.-m./boutique-frankfurt-BTQ1802.html
Boutique Cartier St Petersburg - Moyka,,"Nab. reki Moyka, 55",,Saint-Petersburg,,191186,Russia,+7 812 670 70 70,,,Monday to Sunday 11.00 - 20.00,,,http://www.cartier.com/en-us/find-boutique/store-locator-listing/russia/saint-petersburg/boutique-cartier-st-petersburg---moyka-BTQ12744.html
Boutique Cartier Venezia,,"San Marco, Calle San Moisè 1474/1475",,Venezia,,30124,Italy,00 39 041 88 42 511,,,MON - SAT 10.00 - 19.00  SUN 11.00 - 19.00,,,http://www.cartier.com/en-us/find-boutique/store-locator-listing/italy/venezia/boutique-cartier-venezia-BTQ6756.html
Boutique Cartier Berlin,,Kurfürstendamm 188/189,,Berlin,,10707,Germany,+49 30 886 7060,,,Mon-Fri 11h00-19h00 Sat 11h00-18h00,,,http://www.cartier.com/en-us/find-boutique/store-locator-listing/germany/berlin/boutique-cartier-berlin-BTQ1805.html
Boutique Cartier Luxembourg,,"13, avenue Monterey, (corner rue Philippe II / avenue Monterey)",,Luxembourg,,L-2163,Luxembourg,00 352 222076,,,"Monday from 13.00 to 18.00, Tuesday to Saturday from 10.30 to 18.00",,,http://www.cartier.com/en-us/find-boutique/store-locator-listing/luxembourg/luxembourg/boutique-cartier-luxembourg-BTQ2376.html
Boutique Cartier Munich,,Maximilianstraße 20,,Munich,,80539,Germany,00 49 (0) 89 242 6700,,,Mon-Fri 10h30-18h30 Sat 10h30-18h00,,,http://www.cartier.com/en-us/find-boutique/store-locator-listing/germany/munich/boutique-cartier-munich-BTQ1803.html
Boutique Cartier Paris - Galeries Lafayette,,40 boulevard Haussmann,,Paris,,75009,France,+33 (0)1 42 85 31 63,,,"Du lundi au samedi : 9h30 – 20h30, Dimanche : 11h00 - 19h00",,,http://www.cartier.com/en-us/find-boutique/store-locator-listing/france/paris/boutique-cartier-paris---galeries-lafayette-BTQ1206.html
Boutique Cartier Manama,,Bahrain World Trade Center,,Manama,,,Bahrain,00 973 1 753 3333,,,"May 27 to June 18 :, Morning From 10:00 AM to 3:00 PM, Evening From 8:00 PM to 12:00 Midnight, Friday From 2:00 PM to 4:00 PM & 8:00 PM to 1:00 AM, June 19 to June 24 :, Morning From 10:00 AM to 3:00 PM, Evening From 8:00 PM to 1:00",,,http://www.cartier.com/en-us/find-boutique/store-locator-listing/bahrain/manama/boutique-cartier-manama-BTQ16140.html
Boutique Cartier Harrods,,Knightsbridge,,London,,SW1X 7XL,United Kingdom,+44 20 7730 1234 (ext.4052),,,"Monday to Saturday, 10am to 9pm, Sunday, 11.30am to 6pm",,,http://www.cartier.com/en-us/find-boutique/store-locator-listing/united-kingdom/london/boutique-cartier-harrods-BTQ2010.html
Boutique Cartier Lucerne,,Schweizerhofquai 2,,Lucerne,,6004,Switzerland,+41 41 410 85 05,,,"April bis Oktober, Montag bis Sonntag 9:00 – 19:00",,,http://www.cartier.com/en-us/find-boutique/store-locator-listing/switzerland/lucerne/boutique-cartier-lucerne-BTQ1104.html
Boutique Cartier Lugano,,Piazzetta Maraini 1,,Lugano,,6900,Switzerland,+41 91 923 23 44,,,"Monday to Saturday 10:00 - 18:30, Exceptional Closure",,,http://www.cartier.com/en-us/find-boutique/store-locator-listing/switzerland/lugano/boutique-cartier-lugano-BTQ1103.html
Boutique Cartier Genève,,Rue du Rhône 35,,Geneva,,1204,Switzerland,+41 22 818 54 54,,,"Monday to Friday 10:00 - 18:30, Saturday 10:00 - 17:00",,,http://www.cartier.com/en-us/find-boutique/store-locator-listing/switzerland/geneva/boutique-cartier-gen%C3%A8ve-BTQ1101.html
Boutique Cartier Basel,,Streitgasse 1,,Basel,,4051,Switzerland,+41 61 206 99 51,,,"Monday 13:30 - 18:30, Tuesday to Friday 9:00 - 12:30 / 13:30 - 18:30, Saturday 9:00 – 17:00",,,http://www.cartier.com/en-us/find-boutique/store-locator-listing/switzerland/basel/boutique-cartier-basel-BTQ9438.html
Boutique Cartier Zürich,,Pelikanstrasse 6,,Zürich,,8001,Switzerland,+41 44 211 11 41,,,"Monday to Friday 10:00 - 18:30, Saturday 10:00 - 17:00",,,http://www.cartier.com/en-us/find-boutique/store-locator-listing/switzerland/z%C3%BCrich/boutique-cartier-z%C3%BCrich-BTQ1108.html
Boutique Cartier St. Moritz,,"Palace Galerie, Via Serlas 29",,St. Moritz,,7500,Switzerland,+41 81 833 18 55,,,"Winter Season Closing Monday 3 April 2017, Summer Season Opening Friday 30 June 2017",,,http://www.cartier.com/en-us/find-boutique/store-locator-listing/switzerland/st.-moritz/boutique-cartier-st.-moritz-BTQ1107.html
Boutique Cartier Gstaad,,"Chalet La Rocaille, Promenade 28",,Gstaad,,3780,Switzerland,+41 33 744 66 44,,,"Winter Season Closing Sunday 26 March 2017, Summer Season Opening Friday 23 June 2017",,,http://www.cartier.com/en-us/find-boutique/store-locator-listing/switzerland/gstaad/boutique-cartier-gstaad-BTQ1106.html
Boutique Cartier Old Bond Street,,40-41 Old Bond Street,,London,,W1S 4QR,United Kingdom,+44 20 3429 4410,,,"Monday to Saturday, 10am to 6pm",,,http://www.cartier.com/en-us/find-boutique/store-locator-listing/united-kingdom/london/boutique-cartier-old-bond-street-BTQ2011.html
Boutique Cartier New Bond Street,,175-177 New Bond Street,,London,,W1S 4RN,United Kingdom,+44 20 7408 9192,,,"Monday to Saturday, 10am to 6pm",,,http://www.cartier.com/en-us/find-boutique/store-locator-listing/united-kingdom/london/boutique-cartier-new-bond-street-BTQ2013.html
Boutique Cartier Sloane Street,,143-144 Sloane Street,,London,,SW1X 9BL,United Kingdom,+44 20 7312 6930,,,"Monday to Saturday, 10am to 6pm",,,http://www.cartier.com/en-us/find-boutique/store-locator-listing/united-kingdom/london/boutique-cartier-sloane-street-BTQ2012.html
Boutique Cartier Selfridges,,400 Oxford Street,,London,,W1A 1AB,United Kingdom,+44 20 7318 3977,,,"Monday to Saturday, 9.30am to 10pm, Sunday, 11.30am to 6.00pm (11.30am - 12:00pm is browsing time)",,,http://www.cartier.com/en-us/find-boutique/store-locator-listing/united-kingdom/london/boutique-cartier-selfridges-BTQ2008.html
Boutique Cartier Heathrow Airport T4,,Harrods International,,London,,TW6 3XA,United Kingdom,+44 20 8745 0412,,,6:00 to 22:00 OR 6am to 10pm,,,http://www.cartier.com/en-us/find-boutique/store-locator-listing/united-kingdom/london/boutique-cartier-heathrow-airport-t4-BTQ10103.html
Boutique Cartier Heathrow Airport T5,,Harrods International,,London,,TW6 2GA,United Kingdom,+44 20 8283 6072,,,5:30 to 22:00 OR 5:30am to 10pm,,,http://www.cartier.com/en-us/find-boutique/store-locator-listing/united-kingdom/london/boutique-cartier-heathrow-airport-t5-BTQ5751.html
Boutique Cartier Heathrow Airport T3,,Harrods International,,London,,TW6 3XA,United Kingdom,+44 20 8745 6000,,,6:00 to 22:00 OR 6am to 10pm,,,http://www.cartier.com/en-us/find-boutique/store-locator-listing/united-kingdom/london/boutique-cartier-heathrow-airport-t3-BTQ10104.html
Boutique Cartier Madrid - Serrano,,"C/ Serrano, 74",,Madrid,Madrid,28006,Spain,+34 914142458,,,10h – 20h30 (L a V) & 10h30 – 20h (Sábado),,,http://www.cartier.com/en-us/find-boutique/store-locator-listing/spain/madrid/boutique-cartier-madrid---serrano-BTQ1530.html
Boutique Cartier Madrid - ECI Castellana,,"C/ Raimundo Fdez. Villaverde, 65",,Madrid,Madrid,28003,Spain,+34 91 417 55 50,,,10h – 22h (L a S) & 11h – 21h (Domingos),,,http://www.cartier.com/en-us/find-boutique/store-locator-listing/spain/madrid/boutique-cartier-madrid---eci-castellana-BTQ1532.html
Boutique Cartier Mallorca - Avenida Jaime III,,"Avda. Jaime III, 5",,Palma de Mallorca,Balearic Islands,7012,Spain,0034 971 71 56 55,,,"Lunes a Viernes 10h - 20h, Sábado 10h - 14h, Domingo cerrado",,,http://www.cartier.com/en-us/find-boutique/store-locator-listing/spain/palma-de-mallorca/boutique-cartier-mallorca---avenida-jaime-iii-BTQ12739.html
Boutique Cartier Marbella - Puerto Banus,,Muelle Príncipe Salman,,Marbella,Andalusia,29660,Spain,34952899211,,,11h00 – 20h (L a S),,,http://www.cartier.com/en-us/find-boutique/store-locator-listing/spain/marbella/boutique-cartier-marbella---puerto-banus-BTQ1535.html
Boutique Cartier Barcelona - Paseo de Gracia,,"Paseo de Gracia, 82",,Barcelona,Catalonia,08008,Spain,+34 93 800 26 30,,,10h – 20h (L a V) & 10h30 – 20h (Sábado),,,http://www.cartier.com/en-us/find-boutique/store-locator-listing/spain/barcelona/boutique-cartier-barcelona---paseo-de-gracia-BTQ1550.html
Boutique Cartier Nice - Verdun,,4 avenue de Verdun,,Nice,,6000,France,+33 (0)4 92 14 48 20,,,"Lundi : 14h00 - 19h00, Du mardi au vendredi : 10h00 - 13h00 et 14h30 – 19h00, Samedi : 10h00 - 19h00",,,http://www.cartier.com/en-us/find-boutique/store-locator-listing/france/nice/boutique-cartier-nice---verdun-BTQ1207.html
Boutique Cartier Paris - St Germain,,41 rue de Rennes,,Paris,,75006,France,+33 (0)1 45 49 65 80,,,Du lundi au samedi : 11h00 - 19h00,,,http://www.cartier.com/en-us/find-boutique/store-locator-listing/france/paris/boutique-cartier-paris---st-germain-BTQ1204.html
Boutique Cartier Paris - Printemps,,64 boulevard Haussmann,,Paris,,75009,France,+33 (0)1 42 82 44 00,,,"Du lundi au samedi : 9h35 - 20h00, Jeudi : 9h35 - 20h45",,,http://www.cartier.com/en-us/find-boutique/store-locator-listing/france/paris/boutique-cartier-paris---printemps-BTQ1205.html
Boutique Cartier Paris - François 1er,,51 rue François 1er,,Paris,,75008,France,+33 (0)1 53 93 95 20,,,Du lundi au samedi : 11h00 - 19h00,,,http://www.cartier.com/en-us/find-boutique/store-locator-listing/france/paris/boutique-cartier-paris---fran%C3%A7ois-1er-BTQ1202.html
Boutique Cartier Paris - 13 Paix,,13 rue de la Paix,,Paris,,75002,France,+33 (0)1 58 18 23 00,,,Du lundi au samedi : 11h00 - 19h00,,,http://www.cartier.com/en-us/find-boutique/store-locator-listing/france/paris/boutique-cartier-paris---13-paix-BTQ1201.html
Boutique Cartier Cannes - La Croisette,,57 La Croisette,,Cannes,,06400,France,+33 (0)4 92 59 28 20,,,Du lundi au samedi : 10h30 - 13h00 et 14h30 - 18h30,,,http://www.cartier.com/en-us/find-boutique/store-locator-listing/france/cannes/boutique-cartier-cannes---la-croisette-BTQ1208.html
Boutique Cartier Lyon - Herriot,,96 rue du Président E. Herriot,,Lyon,,69002,France,+33 (0)4 78 38 63 30,,,"Lundi: 14h00 - 19h00, Du mardi au vendredi : 10h30 - 13h00 et 14h00 – 19h00, Samedi : 10h30 - 19h00",,,http://www.cartier.com/en-us/find-boutique/store-locator-listing/france/lyon/boutique-cartier-lyon---herriot-BTQ1211.html
Boutique Cartier Paris - Champs Elysées,,154 avenue des Champs Elysées,,Paris,,75008,France,+33 (0)1 40 74 01 27,,,"Lundi - samedi : 11h00 - 19h00, Dimanche : 12h00 - 18h00",,,http://www.cartier.com/en-us/find-boutique/store-locator-listing/france/paris/boutique-cartier-paris---champs-elys%C3%A9es-BTQ1218.html
Boutique Cartier Paris - St Honoré,,17 rue du Faubourg Saint-Honoré,,Paris,,75008,France,+33 (0)1 58 18 00 88,,,Du lundi au samedi : 11h00 - 19h00,,,http://www.cartier.com/en-us/find-boutique/store-locator-listing/france/paris/boutique-cartier-paris---st-honor%C3%A9-BTQ1203.html
Boutique Cartier Paris - 23 Vendôme,,23 place Vendôme,,Paris,,75001,France,+33 (0)1 44 55 32 20,,,Du lundi au samedi : 11h00 - 19h00,,,http://www.cartier.com/en-us/find-boutique/store-locator-listing/france/paris/boutique-cartier-paris---23-vend%C3%B4me-BTQ1213.html
Boutique Cartier Paris - Capucines,,12 boulevard des Capucines,,Paris,,75009,France,+33 (0)1 44 51 46 01,,,Du lundi au samedi : 11h00 - 19h00,,,http://www.cartier.com/en-us/find-boutique/store-locator-listing/france/paris/boutique-cartier-paris---capucines-BTQ1219.html
Boutique Cartier Strasbourg - Mésange,,12 rue de la Mésange,,Strasbourg,,67000,France,+33 (0)3 88 21 80 00,,,Du  Mardi au Samedi de 10h à 12h et de 14h à 18h,,,http://www.cartier.com/en-us/find-boutique/store-locator-listing/france/strasbourg/boutique-cartier-strasbourg---m%C3%A9sange-BTQ2883.html
Boutique Cartier Courchevel,,2 rue du Rocher,,Courchevel,,73120,France,04 79 40 10 20,,,de 10h à 13h et de 15h30 à 20h,,,http://www.cartier.com/en-us/find-boutique/store-locator-listing/france/courchevel/boutique-cartier-courchevel-BTQ1524.html
Boutique Cartier Montpellier - Lonjon,,2 passage Lonjon,,Montpellier,,34000,France,,,,,,,http://www.cartier.com/en-us/find-boutique/store-locator-listing/france/montpellier/boutique-cartier-montpellier---lonjon-BTQ2116.html
Boutique Cartier Athens - Voukourestiou,,"7, Voukourestiou str.",,Athens,,10564,Greece,+30 21 0331 3600,,,"Monday - Wednesday - Saturday: 10:00 - 18:00, Tuesday - Thursday - Friday: 10:00 - 20:00, Sunday Closed",,,http://www.cartier.com/en-us/find-boutique/store-locator-listing/greece/athens/boutique-cartier-athens---voukourestiou-BTQ2602.html
Boutique Cartier Roissy - 2E,,"Aéroport Roissy CDG, Terminal E porte K",,Roissy-Charles-de-Gaulle,,95741,France,+33(0)1 74 25 76 66,,,Du lundi au dimanche : 6h00 - 23h00,,,http://www.cartier.com/en-us/find-boutique/store-locator-listing/france/roissy-charles-de-gaulle/boutique-cartier-roissy---2e-BTQ11757.html
Boutique Cartier Bordeaux - Clémenceau,,44 cours Georges Clemenceau,,Bordeaux,,33000,France,+33 (0)5 56 48 16 16,,,Du Mardi au Samedi de 10h30 à 12h30 et de 14h à 18h45,,,http://www.cartier.com/en-us/find-boutique/store-locator-listing/france/bordeaux/boutique-cartier-bordeaux---cl%C3%A9menceau-BTQ1273.html
Boutique Cartier Porto Cervo,,La Passeggiata,,Porto Cervo,,07021,Italy,00 39 0789 92 492,,,Monday - Sunday: 10:00 - 13:00 and 17:00 - 21:00,,,http://www.cartier.com/en-us/find-boutique/store-locator-listing/italy/porto-cervo/boutique-cartier-porto-cervo-BTQ2404.html
Boutique Cartier Milano - Montenapoleone,,Via Montenapoleone 16 A,,Milano,,20121,Italy,+39 02 30 30 421,,,MON - SAT 10.00 - 19.00  SUN 11.00 - 19.00,,,http://www.cartier.com/en-us/find-boutique/store-locator-listing/italy/milano/boutique-cartier-milano---montenapoleone-BTQ2401.html
Boutique Cartier Firenze,,Via degli Strozzi 36/r,,Firenze,,50123,Italy,00 39 055 29 23 47,,,MON - SAT 10.00 - 19.00 SUN 11.00 - 19.00,,,http://www.cartier.com/en-us/find-boutique/store-locator-listing/italy/firenze/boutique-cartier-firenze-BTQ2403.html
Boutique Cartier Roma,,Via Condotti 83,,Roma,,00187,Italy,00 39 06 69 67 51,,,MON - SAT 10.30 - 19.00  SUN 11.00- 19.00,,,http://www.cartier.com/en-us/find-boutique/store-locator-listing/italy/roma/boutique-cartier-roma-BTQ2402.html
Boutique Cartier Lisboa - Avenida  Liberdade,,Avenida Liberdade 240 A,,Lisbon,,1250-148,Portugal,00351 213 30 24 20,,,10h00 - 19h00 (L a S),,,http://www.cartier.com/en-us/find-boutique/store-locator-listing/portugal/lisbon/boutique-cartier-lisboa---avenida--liberdade-BTQ1547.html
Gerhard D. Wempe KG,,"Abflugbereich Z Raumnummer 3530, Terminal 1, Ebene 3,",,Frankfurt,,60549,Germany,+49 69 69027161,,,,,,http://www.cartier.com/en-us/find-boutique/store-locator-listing/germany/frankfurt/gerhard-d.-wempe-kg-BTQ17081.html
Boutique Hamburg,,Neuer Wall  22,,Hamburg,,20345,Germany,00 49 (0) 40 2294442 0,,,Mon-Fri 10h30-18h30 Sat 10h00-16h00,,,http://www.cartier.com/en-us/find-boutique/store-locator-listing/germany/hamburg/boutique-hamburg-BTQ1807.html
Boutique Cartier -  İstinye Park,,Pinar mah. Katar cad. No:11/R Ickapi no: 516-517 Istinyepark AVM Sariyer/Istanbul,,Istanbul,,34460,Turkey,+90 212 345 70 75,,,MON - SUNDAY 10.00 - 22.00,,,http://www.cartier.com/en-us/find-boutique/store-locator-listing/turkey/istanbul/boutique-cartier----i%CC%87stinye-park-BTQ16810.html
Boutique Cartier Amsterdam,,P.C. Hooftstraat 132-134,,Amsterdam,,1017 CE,Netherlands,00 31 (0)206703434,,,Monday: 13.00-18.00 / Tuesday-Friday:10.30-18.00 / Saturday:10.00-17.00,,,http://www.cartier.com/en-us/find-boutique/store-locator-listing/netherlands/amsterdam/boutique-cartier-amsterdam-BTQ2110.html
Boutique Cartier Istanbul - Nisantasi,,Abdi Ipekci Cad. No 20 Nisantasi  Sisli,,Istanbul,,34367,Turkey,902122961317,,,"Monday to Saturday, from 10:30 to 19:00",,,http://www.cartier.com/en-us/find-boutique/store-locator-listing/turkey/istanbul/boutique-cartier-istanbul---nisantasi-BTQ11505.html
Boutique Cartier Kiev - Gorodetskogo,,"ул. Городецкого, 17/1",,Kiev,,1001,Ukraine,+38 044 393 39 73,,,"Monday-Friday 10.00-20.00, Saturday-Sunday 11.00-20.00",,,http://www.cartier.com/en-us/find-boutique/store-locator-listing/ukraine/kiev/boutique-cartier-kiev---gorodetskogo-BTQ9877.html
Boutique Cartier Ekaterinburg - Sacco and Vanzetti,,"74, Sacco & Vanzetti street",,Ekaterinburg,,620014,Russia,+7 343 215 60 00,,,Пн-Вс 12.00-21.00,,,http://www.cartier.com/en-us/find-boutique/store-locator-listing/russia/ekaterinburg/boutique-cartier-ekaterinburg---sacco-and-vanzetti-BTQ8233.html
Boutique Cartier Tokyo - Shinjuku -Takashimaya,,5-24-2 Sendagaya,,Shibuya-ku,Tokyo,151-8580,Russia,03-5361-1111,,,日から木10:00-20:00、⾦・土10:00-20:30,,,http://www.cartier.com/en-us/find-boutique/store-locator-listing/japan/shibuya-ku/boutique-cartier-tokyo---shinjuku--takashimaya-BTQ8265.html
Boutique Cartier Moscow - Vremena Goda,,48 Kutuzovsky Prospect Galleries Vremena Goda,,Moscow,,121108,Russia,+7 495 662 44 00,,,Пн-Вс 11.00-22.00,,,http://www.cartier.com/en-us/find-boutique/store-locator-listing/russia/moscow/boutique-cartier-moscow---vremena-goda-BTQ13525.html
Boutique Cartier Moscow - Petrovka,,"Petrovka str., 5",,Moscow,,107031,Russia,+7 495 510 50 60,,,"Пн-Сб 11.00-21.00, Вск 11.00-19.00",,,http://www.cartier.com/en-us/find-boutique/store-locator-listing/russia/moscow/boutique-cartier-moscow---petrovka-BTQ15920.html
Boutique Cartier Toronto Yorkdale,,3401 Dufferin Street,,Toronto,Ontario,M6A 2T9,Canada,+1 416 787 7474,,,"Monday - Friday 10:00 am - 9:00 pm, Saturday 9:30 am - 9:00 pm, Sunday 11:00 am - 7:00 pm",,,http://www.cartier.com/en-us/find-boutique/store-locator-listing/canada/toronto/boutique-cartier-toronto-yorkdale-BTQ3049.html
Boutique Cartier Cozumel - Almacenes Pama,,"Ave. Rafael Melgar Sur 9, Col. Centro",,Cozumel,,77600,Mexico,+52 (987) 872-4532,,,"Lunes a Sábado: 9:00 a.m. a 8:00 p.m., Domingos: Cerrado",,,http://www.cartier.com/en-us/find-boutique/store-locator-listing/mexico/cozumel/boutique-cartier-cozumel---almacenes-pama-BTQ11414.html
Boutique Cartier Ciudad de México - Perisur Palacio de Hierro,,"Col. Ampliación Jardín del Pedregal, Del. Coyoacán",,Mexico City,,4500,Mexico,01 800 227 8437,,,Lunes a Domingo: 11:00 a.m. a 9:00 p.m.,,,http://www.cartier.com/en-us/find-boutique/store-locator-listing/mexico/mexico-city/boutique-cartier-ciudad-de-m%C3%A9xico---perisur-palacio-de-hierro-BTQ11353.html
Boutique Cartier Ciudad de México - Santa Fe Palacio de Hierro,,"Av. Vasco de Quiroga 3800, Col. Vista Hermosa, Del. Cuajimalp",,Mexico City,,5109,Mexico,01 800 227 8437,,,Lunes a Domingo: 11:00 a.m. a 9:00 p.m.,,,http://www.cartier.com/en-us/find-boutique/store-locator-listing/mexico/mexico-city/boutique-cartier-ciudad-de-m%C3%A9xico---santa-fe-palacio-de-hierro-BTQ11394.html
Boutique Cartier Monterrey - EMWA,,"Col. Del Valle, San Pedro Garza García",,Monterrey,,66220,Mexico,+52 (81) 8335-2600,,,"Lunes a Viernes: 10:00 a.m. a 8:00 p.m., Sábados: 11:00 a.m. a 7:00 p.m., Domingos: Cerrado",,,http://www.cartier.com/en-us/find-boutique/store-locator-listing/mexico/monterrey/boutique-cartier-monterrey---emwa-BTQ11354.html
Boutique Cartier Mexico City - Masaryk,,Col. Polanco Del. Miguel Hidalgo,,Mexico City,,11550,Mexico,01 800 227 8437,,,"Lunes a Viernes: 11:00 a.m. a 7:00 p.m., Sábados: 11:00 a.m. a 6:00 p.m.",,,http://www.cartier.com/en-us/find-boutique/store-locator-listing/mexico/mexico-city/boutique-cartier-mexico-city---masaryk-BTQ11352.html
Boutique Cartier Cancun - Luxury Avenue,,"Blvd. Kukulcán KM 13, Mz 53 Lt. 8, Zona Hotelera",,Cancún,,77500,Mexico,01 800 227 8437,,,Lunes a Domingo: 10:00 a.m. a 10:00 p.m.,,,http://www.cartier.com/en-us/find-boutique/store-locator-listing/mexico/canc%C3%BAn/boutique-cartier-cancun---luxury-avenue-BTQ11351.html
Boutique Cartier Abu Dhabi - The Galleria at Sowwah Square,,Al Maryah Island,,Abu Dhabi,,44269,United Arab Emirates,00 971 2 491 9716,,,"Saturday to Wednesday  From 10:00am to 10:00pm, Thursday From 10:00am to 12:00am, Friday  From 12:00pm to 12:00am",,,http://www.cartier.com/en-us/find-boutique/store-locator-listing/united-arab-emirates/abu-dhabi/boutique-cartier-abu-dhabi---the-galleria-at-sowwah-square-BTQ16085.html
Boutique Cartier Abu Dhabi - Etihad Towers,,Cornish West Street,,Abu Dhabi,,44269,United Arab Emirates,00 971 2 6810990,,,"Saturday to Thursday From 10:00am to 10:00pm, Friday From 3:00pm to 11:00pm",,,http://www.cartier.com/en-us/find-boutique/store-locator-listing/united-arab-emirates/abu-dhabi/boutique-cartier-abu-dhabi---etihad-towers-BTQ14717.html
Boutique Cartier Doha - Royal Plaza,,Al Sadd Street,,Doha,,,Qatar,00 974 4 413 1381,,,"Saturday to Thursday 10:00 AM – 2:00 PM  / 08:00 PM – 12:00AM, Fridays  08:00 PM – 12:00AM",,,http://www.cartier.com/en-us/find-boutique/store-locator-listing/qatar/doha/boutique-cartier-doha---royal-plaza-BTQ11520.html
Boutique Cartier Kuwait,,Mohammad Thunayan Al-Ghanim Street,,Kuwait City,,,Kuwait,00 965 2 240 8471,,,"Saturday to Thursday From 10:00am to 10:00pm, Friday: from 5:00 pm to 10:00 pm",,,http://www.cartier.com/en-us/find-boutique/store-locator-listing/kuwait/kuwait-city/boutique-cartier-kuwait-BTQ16082.html
Boutique Cartier Doha - Villaggio Mall,,Al Waab Area,,Doha,,,Qatar,00 974 4 450 7798,,,"May 27 to June 10 : Saturday to Thursday 10:00 AM – 1:30 PM  / 07:30 PM – 12:00AM & Fridays  07:30 PM – 12:00AM, June 11 to June 25: Saturday to Thursday 10:00 AM – 1:30 PM  / 07:30 PM – 01:00AM & Fridays  07:30 PM – 01:00AM",,,http://www.cartier.com/en-us/find-boutique/store-locator-listing/qatar/doha/boutique-cartier-doha---villaggio-mall-BTQ11519.html
Boutique Cartier Dubai - Dubai Mall,,Doha Street - Down Town Dubai,,Dubai,,33269,United Arab Emirates,00 971 4 4340434,,,"Sunday to Wednesday  From 10:00am to 10:00pm, Thursday to Saturday From 10:00am to 12:00am",,,http://www.cartier.com/en-us/find-boutique/store-locator-listing/united-arab-emirates/dubai/boutique-cartier-dubai---dubai-mall-BTQ13839.html
Boutique Cartier Dubai - Mall of the Emirates,,Sheikh Dama Issa Street - Sheikh Zayed Road,,Dubai,,33269,United Arab Emirates,00 971 4 3951000,,,"Sunday to Wednesday  From 10:00am to 10:00pm, Thursday to Saturday From 10:00am to 12:00am",,,http://www.cartier.com/en-us/find-boutique/store-locator-listing/united-arab-emirates/dubai/boutique-cartier-dubai---mall-of-the-emirates-BTQ11521.html
Boutique Cartier Riyadh - Kingdom Center,,Olaya Street,,Riyadh 11588,,P.O Box 53380,Saudi Arabia,+966 11 211 3303,,,"May 27 to June 15:, From Sunday to Thursday : 1:30 PM to 5PM & 9:30PM to 1:30 AM., Friday : From 9:30PM to 1:30AM., June 16 to June 25:, From Sunday to Thursday : 1:30 PM to 5PM & 9:30PM to 2:00 AM., Friday : From 9:30PM to 2:00AM.",,,http://www.cartier.com/en-us/find-boutique/store-locator-listing/saudi-arabia/riyadh-11588/boutique-cartier-riyadh---kingdom-center-BTQ16976.html
Boutique Cartier Riyadh - Centria Mall,,Olaya Street,,Riyadh 11588,,P.O Box 53380,Saudi Arabia,+966 11 466 5665,,,"May 27 to June 15:, From Sunday to Thursday : 1:30 PM to 5PM & 9:30PM to 1:30 AM., Friday : From 9:30PM to 1:30AM., June 16 to June 25:, From Sunday to Thursday : 1:30 PM to 5PM & 9:30PM to 2:00 AM., Friday : From 9:30PM to 2:00AM.",,,http://www.cartier.com/en-us/find-boutique/store-locator-listing/saudi-arabia/riyadh-11588/boutique-cartier-riyadh---centria-mall-BTQ11516.html
Boutique Cartier Jeddah,,Tahlia Prince Mohamed bin Abdul Aziz Street,,Jeddah,,21499,Saudi Arabia,00 966 12 660 0720,,,"Sunday to Thursday 2-5 PM & 10 – 2 AM,, Friday will be 10 - 2 AM.",,,http://www.cartier.com/en-us/find-boutique/store-locator-listing/saudi-arabia/jeddah/boutique-cartier-jeddah-BTQ11515.html
Boutique Cartier Kuwait,,Al Zahra Area,,Kuwait City,,,Kuwait,00 965 2 530 9656/7,,,"Day: 11.00 am to 3.00 pm, Night: 8.30 pm to 1.00 am",,,http://www.cartier.com/en-us/find-boutique/store-locator-listing/kuwait/kuwait-city/boutique-cartier-kuwait-BTQ16083.html
Boutique Cartier Al Khobar,,,,Al Khobar,,,Saudi Arabia,00 966 13 881 4484,,,"May 27 to June 10 :, 12:30 PM till 4:30 PM., 9:30 PM till 12:30 AM., Fridays : 9:30 PM till 12:30 AM., June 11 to June 25 :, 12:30 PM till 4:30 PM., 9:30 PM till 01:00 AM., Fridays : 9:30 PM till 01:00 AM.",,,http://www.cartier.com/en-us/find-boutique/store-locator-listing/saudi-arabia/al-khobar/boutique-cartier-al-khobar-BTQ16086.html
Boutique Cartier Seoul - Maison Cheongdam,,"435, Apgujung-Ro Kangnam-gu",,Seoul,,135-959,South Korea,00 (82) 2 518 0748,,,"월~일 11:00am - 7:30pm, 구정 및 추석 연휴 휴점. 영업시간 및 휴점일은 사정에 따라 변경될 수 있으므로, 방문 전 문의 요망.",,,http://www.cartier.com/en-us/find-boutique/store-locator-listing/south-korea/seoul/boutique-cartier-seoul---maison-cheongdam-BTQ7158.html
Rex Hotel,,"141 Nguyễn Huệ, Bến Nghé, Quận 1, TP.HCM",,Ho-Chi-Minh-City,,,Vietnam,00 84 8 3521 0369,,,08:30am - 10:00pm,,,http://www.cartier.com/en-us/find-boutique/store-locator-listing/vietnam/ho-chi-minh-city/rex-hotel-BTQ16297.html
Timepiece - Taipei Ariport T2 South,,"No.9 Hangzhan S. Rd., Dayuan",,Taoyuan,,337,Taiwan,(886) 800 055 556,,,早上6時至晚上11時,,,http://www.cartier.com/en-us/find-boutique/store-locator-listing/taiwan/taoyuan/timepiece---taipei-ariport-t2-south-BTQ16984.html
EVER RICH KINMEN DUTY FREE PLAZA,,"No.198, SEC. 2, Taihu Road, Jinhu Township",,KINMEN COUNTY,,89141,Taiwan,+886 8 233 8888#137,,,9:00 - 21:00,,,http://www.cartier.com/en-us/find-boutique/store-locator-listing/taiwan/kinmen-county/ever-rich-kinmen-duty-free-plaza-BTQ16763.html
Trang Tien Plaza,,"24 Hai Bà Trưng, Tràng Tiền Plaza, Hoàn Kiếm, Hà Nội",,Hanoi,,,Vietnam,00 84 4 3936 7131,,,08:30am - 10:00pm,,,http://www.cartier.com/en-us/find-boutique/store-locator-listing/vietnam/hanoi/trang-tien-plaza-BTQ16298.html
Boutique Cartier Bangkok - King Power Srivaree DF,,"888 Moo 10, Srivaree Noi Road, Bang Chaloang, Bang Pli",,Samut Prakan,,10540,Thailand,,,,Every day 10h00 - 22h00,,,http://www.cartier.com/en-us/find-boutique/store-locator-listing/thailand/samut-prakan/boutique-cartier-bangkok---king-power-srivaree-df-BTQ16957.html
Boutique Cartier Bangkok - Suvarnabhumi Airport,,"999 Moo 1 , Nong Prue , Bang Phli",,Samut Prakan,,10540,Thailand,,,,Every day 24 hours,,,http://www.cartier.com/en-us/find-boutique/store-locator-listing/thailand/samut-prakan/boutique-cartier-bangkok---suvarnabhumi-airport-BTQ16956.html
Boutique Cartier Emporium,,"622 Emporium Shopping Complex, M Floor, Room No 1A01,  Sukhumvit Road",,Bangkok,,10110,Thailand,+66 2 664 8660,,,Every day 10h30 - 20h30,,,http://www.cartier.com/en-us/find-boutique/store-locator-listing/thailand/bangkok/boutique-cartier-emporium-BTQ16773.html
Boutique Cartier King Power Phuket,,"88/88 Chao Fah Tawan Tok Road, Moo 2, Vichit, Muang",,Phuket,,83000,Thailand,+66 7 6397 888,,,10h30 - 21h30,,,http://www.cartier.com/en-us/find-boutique/store-locator-listing/thailand/phuket/boutique-cartier-king-power-phuket-BTQ17120.html
Boutique Cartier Siam Paragon,,"991 Rama I Road, Room M47-49, Siam Paragon, Pathumwan",,Bangkok,,10330,Thailand,+66 2 610 9945-7,,,Every day 11h00 - 20h00,,,http://www.cartier.com/en-us/find-boutique/store-locator-listing/thailand/bangkok/boutique-cartier-siam-paragon-BTQ16772.html
Boutique Cartier Taipei - Breeze Center,,"N°39, Sec. 1, Fuxing South Road",,Taipei,,105,Taiwan,+886 (0)800 373 888,,,11:00 - 21:30,,,http://www.cartier.com/en-us/find-boutique/store-locator-listing/taiwan/taipei/boutique-cartier-taipei---breeze-center-BTQ9778.html
Boutique Cartier Алматы,,"Самал-2,67",,Алматы,,50099,Kazakhstan,+7 727 315 54 54,,,Monday to Sunday 11.00-20.00,,,http://www.cartier.com/en-us/find-boutique/store-locator-listing/kazakhstan/%D0%B0%D0%BB%D0%BC%D0%B0%D1%82%D1%8B/boutique-cartier-%D0%B0%D0%BB%D0%BC%D0%B0%D1%82%D1%8B-BTQ7100.html
Boutique Cartier Taipei - Mitsukoshi A9,,"No.9, Songshou Rd.",,Taipei,,110,Taiwan,+886 (0)800 373 888,,,11:00 - 21:30,,,http://www.cartier.com/en-us/find-boutique/store-locator-listing/taiwan/taipei/boutique-cartier-taipei---mitsukoshi-a9-BTQ14533.html
Boutique Cartier Taipei - 101,,"N°45, Shifu Road, Xinyi Dist.",,Taipei,,110,Taiwan,+886 (0)800 373 888,,,11:00 - 21:30,,,http://www.cartier.com/en-us/find-boutique/store-locator-listing/taiwan/taipei/boutique-cartier-taipei---101-BTQ9781.html
Boutique Cartier Kaohsiung - Hanshin,,"N° 266-1, Chenggong Frist  Road",,Kaohsiung,,801,Taiwan,+886 (0)800 373 888,,,11:00 - 22:00,,,http://www.cartier.com/en-us/find-boutique/store-locator-listing/taiwan/kaohsiung/boutique-cartier-kaohsiung---hanshin-BTQ9759.html
Boutique Cartier Tainan - Mitsukoshi,,"N° 658, Sec. 1, Ximen Rd.",,Tainan,,700,Taiwan,+886 (0)800 373 888,,,11:00 - 22:00,,,http://www.cartier.com/en-us/find-boutique/store-locator-listing/taiwan/tainan/boutique-cartier-tainan---mitsukoshi-BTQ9772.html
Boutique Cartier Taipei - Sogo BR4,,"N° 300, Sec. 3, Chunghsiao E Rd.",,Taipei,,106,Taiwan,+886 (0)800 373 888,,,11:00 - 21:30,,,http://www.cartier.com/en-us/find-boutique/store-locator-listing/taiwan/taipei/boutique-cartier-taipei---sogo-br4-BTQ9780.html
Boutique Cartier Taichung - Far Eastern,,"NO.251, Sec.3,Taiwan Blvd., Xitun Dist.,",,Taichung,,407,Taiwan,+886 (0)800 373 888,,,11:00 - 22:00,,,http://www.cartier.com/en-us/find-boutique/store-locator-listing/taiwan/taichung/boutique-cartier-taichung---far-eastern-BTQ13833.html
Cartier Boutique - Taipei Neihu Duty Free,,"No.129 Jinzhuang Road, Neihu District",,Taipei,,11469,Taiwan,(886) 800 055 556,,,早上8時至晚上8時,,,http://www.cartier.com/en-us/find-boutique/store-locator-listing/taiwan/taipei/cartier-boutique---taipei-neihu-duty-free-BTQ12850.html
Cartier Boutique - Taipei Airport T1 South,,"No.15 Hangzhan S. Rd., Dayuan",,Taoyuan,,337,Taiwan,(886) 800 055 556,,,早上6時至晚上11時,,,http://www.cartier.com/en-us/find-boutique/store-locator-listing/taiwan/taoyuan/cartier-boutique---taipei-airport-t1-south-BTQ12847.html
T Galleria City Of Dreams,,"DFS Cotai Limitada Level 1, The Shops at the Boulevard, City of Dreams, Estrada Do Istm Coloane, Cotai",,Macau,,,Macao,(853) 2882 4665,,,,,,http://www.cartier.com/en-us/find-boutique/store-locator-listing/macao/macau/t-galleria-city-of-dreams-BTQ17293.html
Cartier Boutique - Taipei Airport T1 North,,"No.15 Hangzhan S. Rd., Dayuan",,Taoyuan,,337,Taiwan,(886) 800 055 556,,,早上6時至晚上11時,,,http://www.cartier.com/en-us/find-boutique/store-locator-listing/taiwan/taoyuan/cartier-boutique---taipei-airport-t1-north-BTQ12848.html
Cartier Boutique - Taipei Airport T2,,"No.9 Hangzhan S. Rd., Dayuan",,Taoyuan,,337,Taiwan,(886) 800 001 699,,,早上6時至晚上11時,,,http://www.cartier.com/en-us/find-boutique/store-locator-listing/taiwan/taoyuan/cartier-boutique---taipei-airport-t2-BTQ12849.html
Boutique Cartier Wynn Palace,,"Avenida da Nave Desportiva, Cotai, Macau",,Macau,,,Macao,(853) 0800 392,,,Mon-Sun: 10:00-24:00 Daily,,,http://www.cartier.com/en-us/find-boutique/store-locator-listing/macao/macau/boutique-cartier-wynn-palace-BTQ5040.html
Boutique Cartier Wynn Encore,,"Rua Cidade de Sintra, Nape",,Macau,,,Macao,(853) 0800 392,,,Mon-Sun: 1000-2400 Daily,,,http://www.cartier.com/en-us/find-boutique/store-locator-listing/macao/macau/boutique-cartier-wynn-encore-BTQ12372.html
Cartier Boutique Macau City of Dreams - T Galleria by DFS,,"DFS Cotai Limitada G/F, The Shops at the Boulevard, City of Dreams, Estrada Do Istm Coloane, Cotai",,Macau,,,Macao,(853) 2882 4405,,,"Sunday - Thursday : 10:00 AM - 11:00 PM, Friday - Saturday : 10:00 AM - 12:00 AM",,,http://www.cartier.com/en-us/find-boutique/store-locator-listing/macao/macau/cartier-boutique-macau-city-of-dreams---t-galleria-by-dfs-BTQ7260.html
Boutique Cartier Jeju - Shilla DF,,"1F, 69, Noyeon-ro, Jeju-si,",,Jeju,,690-813,South Korea,82 64 742 8823,,,10:00AM - 7:30PM,,,http://www.cartier.com/en-us/find-boutique/store-locator-listing/south-korea/jeju/boutique-cartier-jeju---shilla-df-BTQ14238.html
Cartier Boutique Macau Four Seasons - T Galleria by DFS,,"The Shoppes at Four Seasons, Estrada da Baía de N. Senhora da Esperança, s/n, Four Seasons Hotel Macao, Cotai Strip™, Taipa",,Macau,,,Macao,+853 8791 8262,,,"Sunday - Thursday : 10:00 AM - 11:00 PM, Friday - Saturday : 10:00 AM - 12:00 AM",,,http://www.cartier.com/en-us/find-boutique/store-locator-listing/macao/macau/cartier-boutique-macau-four-seasons---t-galleria-by-dfs--BTQ13065.html
Boutique Cartier One Central,,"Avenida de Sagres, Nape",,Macau,,,Macao,(853) 0800 392,,,Mon-Sun: 1030-2230 Daily,,,http://www.cartier.com/en-us/find-boutique/store-locator-listing/macao/macau/boutique-cartier-one-central-BTQ5038.html
Boutique Cartier Incheon - Lotte DF,,"Shop #5, 3F Passenger's Terminal, 272, Gonghang-ro, Jung-gu",,Incheon,,400-722,South Korea,82 32 743 7734,,,7:00AM - 9:30PM,,,http://www.cartier.com/en-us/find-boutique/store-locator-listing/south-korea/incheon/boutique-cartier-incheon---lotte-df-BTQ14237.html
Boutique Cartier Seoul - Hyundai AKJD,,"1F, 165, Apgujeong-ro, Gangnam-gu,",,Seoul,,135-724,South Korea,82 2 517 4825,,,"10:30AM - 8:00PM, 영업시간 및 휴점일은 영업점의 사정에 따라 변경될 수 있으므로 방문 전 문의 요망.",,,http://www.cartier.com/en-us/find-boutique/store-locator-listing/south-korea/seoul/boutique-cartier-seoul---hyundai-akjd-BTQ12371.html
Boutique Cartier Daegu - Hyundai,,"1F, 2077, Dalgubeol-daero, Jung-gu",,Daegu,,700-082,South Korea,82 53 245 2170,,,"10:30AM - 8:00PM, 영업시간 및 휴점일은 영업점의 사정에 따라 변경될 수 있으므로, 방문 전 문의 요망.",,,http://www.cartier.com/en-us/find-boutique/store-locator-listing/south-korea/daegu/boutique-cartier-daegu---hyundai-BTQ14236.html
Boutique Cartier Seoul - Lotte Avenuel World Tower,,"1F, 300, Olympicro,, Songpa-gu",,Seoul,,138-726,South Korea,82 2 3213 2133,,,"10:30AM - 8:00PM, 영업시간 및 휴점일은 영업점의 사정에 따라 변경될 수 있으므로, 방문 전 문의 요망.",,,http://www.cartier.com/en-us/find-boutique/store-locator-listing/south-korea/seoul/boutique-cartier-seoul---lotte-avenuel-world-tower-BTQ16762.html
Boutique Cartier Seoul - Shinsegae YDP,,"1F, 9, Yeongjung-ro, Yeongdeungpo-gu",,Seoul,,150-798,South Korea,82 2 2639 1928,,,"10:30AM - 8:00PM, 영업시간 및 휴점일은 영업점의 사정에 따라 변경될 수 있으므로 방문 전 문의 요망.",,,http://www.cartier.com/en-us/find-boutique/store-locator-listing/south-korea/seoul/boutique-cartier-seoul---shinsegae-ydp-BTQ12380.html
Boutique Cartier Jeju - Lotte DF,,"1F, Lotte Jeju DFS, 83, Doryung-ro, Jeju-si",,Jeju,,690-818,South Korea,00 (82) 64 738 3630,,,10:00AM - 7:30PM,,,http://www.cartier.com/en-us/find-boutique/store-locator-listing/south-korea/jeju/boutique-cartier-jeju---lotte-df-BTQ7141.html
Boutique Cartier Pusan - Lotte DF,,"8F, 772, Gaya-daero, Busanjin-gu",,Pusan,,614-732,South Korea,82 51 810 3841,,,"월~목  9:30AM - 8:00PM, 금,토,일 10:30AM - 9:00PM",,,http://www.cartier.com/en-us/find-boutique/store-locator-listing/south-korea/pusan/boutique-cartier-pusan---lotte-df-BTQ13111.html
"Boutique Cartier Incheon - Shinsegae - Closing scheduled on April 30th, 2017",,"1F, 35, Yeonnam-ro, Nam-gu",,Incheon,,402-716,South Korea,82 32 430 1665,,,"10:30AM - 8:00PM, Closing scheduled on April 30th, 2017, 영업시간 및 휴점일은 영업점의 사정에 따라 변경될 수 있으므로, 방문 전 문의 요망.",,,"http://www.cartier.com/en-us/find-boutique/store-locator-listing/south-korea/incheon/boutique-cartier-incheon---shinsegae---closing-scheduled-on-april-30th,-2017-BTQ7112.html"
Boutique Cartier Seoul - Lotte World Tower DF,,"7F, 300, Olympicro,, Songpa-gu",,Seoul,,138-726,South Korea,82 2 3213 3761,,,9:30AM - 9:00PM,,,http://www.cartier.com/en-us/find-boutique/store-locator-listing/south-korea/seoul/boutique-cartier-seoul---lotte-world-tower-df-BTQ7148.html
Boutique Cartier Pusan - Shinsegae Centum,,"1F, 35, Centum nam-daero, Haeundae-gu",,Pusan,,612-020,South Korea,82 51 745 2226,,,"10:30AM - 8:00PM, 영업시간 및 휴점일은 영업점의 사정에 따라 변경될 수 있으므로 방문 전 문의 요망.",,,http://www.cartier.com/en-us/find-boutique/store-locator-listing/south-korea/pusan/boutique-cartier-pusan---shinsegae-centum-BTQ7117.html
Boutique Cartier Incheon - Shilla DF,,"3F Passenger's terminal 2, 272, Gonghang-ro, Jung-gu",,Incheon,,400-722,South Korea,82 32 743 4896,,,7:00AM - 9:30PM,,,http://www.cartier.com/en-us/find-boutique/store-locator-listing/south-korea/incheon/boutique-cartier-incheon---shilla-df-BTQ7114.html
Boutique Cartier Seoul - Lotte Coex DF,,"B1 Coex Intercontinental Hotel, 524, Bongeunsa-ro, Gangnam-gu",,Seoul,,135-975,South Korea,82 2 3484 9748,,,10:00AM - 9:00PM,,,http://www.cartier.com/en-us/find-boutique/store-locator-listing/south-korea/seoul/boutique-cartier-seoul---lotte-coex-df-BTQ7126.html
Boutique Cartier Seoul - Lotte  Avenuel,,"1F Lotte Avenuel, 73, Namdaemun-ro, Jung-gu",,Seoul,,100-092,South Korea,82 2 757 7705,,,"10:30AM - 8:00PM, 영업시간 및 휴점일은 영업점의 사정에 따라 변경될 수 있으므로 방문 전 문의 요망.",,,http://www.cartier.com/en-us/find-boutique/store-locator-listing/south-korea/seoul/boutique-cartier-seoul---lotte--avenuel-BTQ7139.html
Boutique Cartier Seoul - Hyundai Coex,,"1F, 517, Teheran-ro, Gangnam-gu",,Seoul,,135-730,South Korea,82 2 562 4825,,,"10:30AM - 8:00PM, 영업시간 및 휴점일은 영업점의 사정에 따라 변경될 수 있으므로 방문 전 문의 요망.",,,http://www.cartier.com/en-us/find-boutique/store-locator-listing/south-korea/seoul/boutique-cartier-seoul---hyundai-coex-BTQ7115.html
Boutique Cartier Seoul - Shilla DF,,"2F, 249, Dongho-ro, Jung-gu",,Seoul,,100-856,South Korea,82 2 2230 3622,,,9:30AM - 9:00PM,,,http://www.cartier.com/en-us/find-boutique/store-locator-listing/south-korea/seoul/boutique-cartier-seoul---shilla-df-BTQ7138.html
Boutique Cartier Seoul - Galleria East,,"1F East, 407, Apgujeong-ro, Gangnam-gu",,Seoul,,135-902,South Korea,82 2 544 2314,,,"10:30AM - 8:00PM, 영업시간 및 휴점일은 영업점의 사정에 따라 변경될 수 있으므로 방문 전 문의 요망.",,,http://www.cartier.com/en-us/find-boutique/store-locator-listing/south-korea/seoul/boutique-cartier-seoul---galleria-east-BTQ7133.html
Boutique Cartier Seoul - Lotte Myung Dong DF,,"10F Lotte DFS, 81, Namdaemun-ro, Jung-gu,",,Seoul,,100-721,South Korea,82 2 773 6718,,,9:30AM - 9:00PM,,,http://www.cartier.com/en-us/find-boutique/store-locator-listing/south-korea/seoul/boutique-cartier-seoul---lotte-myung-dong-df-BTQ7134.html
Boutique Cartier Beirut,,"109, Allenby Street",,Beirut,,119,Lebanon,00 961  1  972 600,,,"Monday to Saturday From 10:00am to 10:00pm, Sunday From 12:30pm to 10:00pm",,,http://www.cartier.com/en-us/find-boutique/store-locator-listing/lebanon/beirut/boutique-cartier-beirut-BTQ11540.html
Boutique Cartier Seoul - Shinsegae Kangnam,,"2F New Bldg, 176, Sinbanpo-ro, Seocho-gu",,Seoul,,137-960,South Korea,82 2 3479 1247,,,"10:30AM - 8:00PM, 영업시간 및 휴점일은 영업점의 사정에 따라 변경될 수 있으므로 방문 전 문의 요망.",,,http://www.cartier.com/en-us/find-boutique/store-locator-listing/south-korea/seoul/boutique-cartier-seoul---shinsegae-kangnam-BTQ7130.html
Boutique Cartier Singapore - Ngee Ann City Takashimaya,,391 Orchard Road,,Singapore,,238872,Singapore,+65 6732 0181,,,Monday - Sunday: 10AM - 9:30PM,,,http://www.cartier.com/en-us/find-boutique/store-locator-listing/singapore/singapore/boutique-cartier-singapore---ngee-ann-city-takashimaya-BTQ6082.html
Boutique Cartier Singapore - Ion Orchard,,2 Orchard Turn,,Singapore,,238801,Singapore,+65 6732 0181,,,Monday - Sunday: 10AM - 9.30PM,,,http://www.cartier.com/en-us/find-boutique/store-locator-listing/singapore/singapore/boutique-cartier-singapore---ion-orchard-BTQ6089.html
Boutique Cartier Singapore - Marina Bay Sands,,2 Bayfront Avenue,,Singapore,,018972,Singapore,+65 6732 0181,,,Monday - Sunday: 10:30AM - 10:30PM,,,http://www.cartier.com/en-us/find-boutique/store-locator-listing/singapore/singapore/boutique-cartier-singapore---marina-bay-sands-BTQ6090.html
The Hour Glass,,"1 Harbourfront Walk, VivoCity",,Singapore,,98585,Singapore,62509830,,,,,,http://www.cartier.com/en-us/find-boutique/store-locator-listing/singapore/singapore/the-hour-glass-BTQ17162.html
Cartier Rustan's Tower,,"2F EDSA cor Shaw Boulevard, Mandaluyong City, 1552",,Mandaluyong City,,1552,Philippines,+63 2 6317997,,,"Mon-Thursday 11 am - 9pm, Fri  11 am to 10 pm, Sat: 10am-10pm, Sun: 10 am-9 pm",,,http://www.cartier.com/en-us/find-boutique/store-locator-listing/philippines/mandaluyong-city/cartier-rustan's-tower-BTQ16295.html
Cartier Newport Resorts World,,"GF, Resorts World Manila,Newport Boulevard, Pasay City 1309",,Pasay City,,1309,Philippines,+63 2 2383005,,,Mon-Sunday 12nn - 12  mn,,,http://www.cartier.com/en-us/find-boutique/store-locator-listing/philippines/pasay-city/cartier-newport-resorts-world-BTQ16296.html
Boutique Cartier Greenbelt 4,,"Makati Avenue cor. Dela Rosa Street, Ayala Center",,Makati City,,,Philippines,+632 7282160,,,"Sunday to Thursday: 11:00 AM to 9:00 PM, Friday to Saturday: 11:00 AM to 10:00 PM",,,http://www.cartier.com/en-us/find-boutique/store-locator-listing/philippines/makati-city/boutique-cartier-greenbelt-4-BTQ17119.html
Boutique Cartier Tokyo - Nihonbashi - Mitsukoshi,,1-4-1Nihonbashi-muromachi,,Chuo-ku,Tokyo,103-8001,Japan,03-3241-3311,,,10:30-19:30,,,http://www.cartier.com/en-us/find-boutique/store-locator-listing/japan/chuo-ku/boutique-cartier-tokyo---nihonbashi---mitsukoshi-BTQ8202.html
Boutique Cartier Singapore - T Galleria by DFS,,25 Scotts Road,,Singapore,,228220,Singapore,+65 6229 8170,,,"Sunday - Thursday : 10:00 AM - 10:00 PM, Friday - Saturday : 10:00 AM - 10:30 PM",,,http://www.cartier.com/en-us/find-boutique/store-locator-listing/singapore/singapore/boutique-cartier-singapore---t-galleria-by-dfs-BTQ16189.html
Boutique Cartier Monte Carlo,,Place du Casino,,Monaco,,98000,Monaco,+377 97 97 22 77,,,"Lundi : 15h00 - 19h00, Du mardi au samedi : 10h00 - 13h00 et 15h00 - 19h00",,,http://www.cartier.com/en-us/find-boutique/store-locator-listing/monaco/monaco/boutique-cartier-monte-carlo-BTQ1401.html
Boutique Cartier Lee Garden Five,,"Lee Garden Five, 18 Hysan Avenue, Causeway Bay",,Hong Kong,,,"Hong Kong S.A.R., China",(852) 8105 5008,,,Mon-Sun: 1030-2000 Daily,,,"http://www.cartier.com/en-us/find-boutique/store-locator-listing/hong-kong-s.a.r.,-china/hong-kong/boutique-cartier-lee-garden-five-BTQ5092.html"
Boutique Cartier Jakarta - Plaza Senayan,,JL Asia Afrika No.8,,Jakarta Pusat,,10270,Indonesia,+(62) 21 572 5238,,,,,,http://www.cartier.com/en-us/find-boutique/store-locator-listing/indonesia/jakarta-pusat/boutique-cartier-jakarta---plaza-senayan-BTQ16958.html
Boutique Cartier St. Maarten,,#35 St. Rose Arcade on Front Street,,Philipsburg,,,Saint Martin(French part),17215437700,,,Mon-Sat from 10:00am to 5:30pm Sunday 10:00am to 4:30pm,,,http://www.cartier.com/en-us/find-boutique/store-locator-listing/saint-martin(french-part)/philipsburg/boutique-cartier-st.-maarten-BTQ7907.html
Boutique Cartier 1881 Heritage,,"2A Canton Road, Tsim Sha Tsui, Kowloon",,Hong Kong,,,"Hong Kong S.A.R., China",(852) 8105 5008,,,Mon-Thu: 1000-2000 Fri-Sun: 1030-2100,,,"http://www.cartier.com/en-us/find-boutique/store-locator-listing/hong-kong-s.a.r.,-china/hong-kong/boutique-cartier-1881-heritage-BTQ5091.html"
Boutique Sofia,,4 Saborna Street,,Sofia,,1000,Bulgaria,00 359 2 9893313,,,Mon-Sat10h30-19h30Sun 11h00-19h00,,,http://www.cartier.com/en-us/find-boutique/store-locator-listing/bulgaria/sofia/boutique-sofia-BTQ14243.html
Guangzhou Taikoo Hui boutique,,"Tian He district, No.383 Tian He Road",,Guangzhou,,510620,China,020-3862-5583,,,10:00-22:00,,,http://www.cartier.com/en-us/find-boutique/store-locator-listing/china/guangzhou/guangzhou-taikoo-hui-boutique-BTQ0052.html
Boutique Cartier Brussels,,Boulevard de Waterloo 54,,Brussels,,1000,Belgium,00 32 (0) 25375161,,,Monday to Saturday from 10.30 to 18.30,,,http://www.cartier.com/en-us/find-boutique/store-locator-listing/belgium/brussels/boutique-cartier-brussels-BTQ2270.html
Boutique Cartier Prague,,Pařížská 2,,Prague,,110 00,Czech Republic,0042 (0) 221 7296 00,,,Mon-Fri 10h30-19h00 Sat 10h30-18h00 Sun 12h00-18h00,,,http://www.cartier.com/en-us/find-boutique/store-locator-listing/czech-republic/prague/boutique-cartier-prague-BTQ1727.html
Shenyang Forum 66 Boutique,,"Shenhe District, No.1 Qingnian Street",,Shenyang,,110013,China,024-3195-8000,,,夏天: 10:00-22:00,,,http://www.cartier.com/en-us/find-boutique/store-locator-listing/china/shenyang/shenyang-forum-66-boutique-BTQ028.html
Zhengzhou David Plaza Boutique,,"Jinshui District,Er Qi Road",,Zhengzhou,,450053,China,0371-5338-5876,,,9:30-21:30,,,http://www.cartier.com/en-us/find-boutique/store-locator-listing/china/zhengzhou/zhengzhou-david-plaza-boutique-BTQ16796.html
Shanghai Plaza 66 Boutique,,"Jing An District, No.1266 West Nan Jing Road",,Shanghai,,200041,China,021-6288-0606,,,10:00-22:00,,,http://www.cartier.com/en-us/find-boutique/store-locator-listing/china/shanghai/shanghai-plaza-66-boutique-BTQ0050.html
Beijing China World Boutique,,"Chaoyang District, No.1 Jian Guo Men Wai Avenue",,Beijing,,100020,China,010-6505-6660,,,10:00-21:30,,,http://www.cartier.com/en-us/find-boutique/store-locator-listing/china/beijing/beijing-china-world-boutique-BTQ0051.html
Shenzhen Mix City Boutique,,"Luohu District, No.1881 Baoan Nan Road",,Shenzhen,,518022,China,0755-2265-5195,,,每个星期日，一，二，三，四:  9:30-21:40,,,http://www.cartier.com/en-us/find-boutique/store-locator-listing/china/shenzhen/shenzhen-mix-city-boutique-BTQ12743.html
Changchun Charter Times Square Boutique,,"Chao Yang District, No.1255 Chongqing Road",,Changchun,,130061,China,0431-8896-1510,,,夏天: 10:00-21:30,,,http://www.cartier.com/en-us/find-boutique/store-locator-listing/china/changchun/changchun-charter-times-square-boutique-BTQ0063.html
Tianjin Hisense Boutique,,"Heping District, No.188 Jiefang North Road",,Tianjin,,300042,China,022-2319-8111,,,10:00-22:00,,,http://www.cartier.com/en-us/find-boutique/store-locator-listing/china/tianjin/tianjin-hisense-boutique-BTQ0065.html
Chongqing Maison Mode Boutique,,"Yu Zhong District, No.100  Zourong Road",,Chongqing,,630010,China,023-6370-6380,,,10:00-22:00,,,http://www.cartier.com/en-us/find-boutique/store-locator-listing/china/chongqing/chongqing-maison-mode-boutique-BTQ0066.html
Hangzhou Tower Boutique,,"Xiacheng District, No.1 Wulin Square",,Hangzhou,,310003,China,0571-8510-5993,,,10:00-21:30,,,http://www.cartier.com/en-us/find-boutique/store-locator-listing/china/hangzhou/hangzhou-tower-boutique-BTQ0056.html
Dalian K11 Boutique,,"Zhongshan District, No.41 Renmin Road",,Dalian,,116011,China,0411-8807-8765,,,9:30-21:30,,,http://www.cartier.com/en-us/find-boutique/store-locator-listing/china/dalian/dalian-k11-boutique-BTQ0076.html
Changsha Friend Boutique,,"Furong District, No.368 Wuyi Avenue",,Changsha,,410011,China,0731-8565-0556,,,10:00-22:00,,,http://www.cartier.com/en-us/find-boutique/store-locator-listing/china/changsha/changsha-friend-boutique-BTQ0075.html
Nanjing Deji Boutique,,"Baixia District, No.18 Zhongshan Road",,Nanjing,,210005,China,025-8677-7190,,,10:00-22:00,,,http://www.cartier.com/en-us/find-boutique/store-locator-listing/china/nanjing/nanjing-deji-boutique-BTQ0074.html
Qingdao Olympic Boutique,,"Shinan District, No.117 Ao Men Road",,Qingdao,,266071,China,0532-6678-8118,,,10:00-22:00,,,http://www.cartier.com/en-us/find-boutique/store-locator-listing/china/qingdao/qingdao-olympic-boutique-BTQ0071.html
Shenyang Zhongxing Department Store Boutique,,"Heping District, No.86 Taiyuan North Road",,Shenyang,,110001,China,024-2341-2599,,,每个星期日，一，二，三，四: 9:30-21:00,,,http://www.cartier.com/en-us/find-boutique/store-locator-listing/china/shenyang/shenyang-zhongxing-department-store-boutique-BTQ0068.html
Wuhan International Boutique,,"Jianghan district, No.690 Jiefang Road",,Wuhan,,430022,China,027-8571-7612,,,10:00-22:00,,,http://www.cartier.com/en-us/find-boutique/store-locator-listing/china/wuhan/wuhan-international-boutique-BTQ0078.html
Beijing Parklife Boutique,,"Chaoyang District, No.2 Jianguomenwai Street",,Beijing,,100022,China,010-8517-1221,,,10:00-21:30,,,http://www.cartier.com/en-us/find-boutique/store-locator-listing/china/beijing/beijing-parklife-boutique-BTQ0070.html
Beijing In88 Boutique,,"Dongcheng District, No.88 Wangfujing Avenue",,Beijing,,100006,China,010-5978-5161,,,10:00-22:00,,,http://www.cartier.com/en-us/find-boutique/store-locator-listing/china/beijing/beijing-in88-boutique-BTQ889.html
Chengdu Tai Koo Li Boutique,,"Jinjiang District, No.8 Zhongshamao Road",,Chengdu,,610021,China,028-8288-7308,,,10:00-22:00,,,http://www.cartier.com/en-us/find-boutique/store-locator-listing/china/chengdu/chengdu-tai-koo-li-boutique-BTQ0251.html
Ningbo Heyi Boutique,,"Haishu District, No.66 Heyi Road",,Ningbo,,315010,China,0574-8389-9568,,,10:00-22:00,,,http://www.cartier.com/en-us/find-boutique/store-locator-listing/china/ningbo/ningbo-heyi-boutique-BTQ0079.html
Beijing Shin Kong Place Boutique,,"Chaoyang District, No.87 Jianguo Road",,Beijing,,100025,China,010-6530-5199,,,10:00-22:00,,,http://www.cartier.com/en-us/find-boutique/store-locator-listing/china/beijing/beijing-shin-kong-place-boutique-BTQ0256.html
Shenyang Forum 66 Boutique,,"Shenhe District, No.1 Qingnian Street",,Shenyang,,110013,China,024-3195-8000,,,夏天: 10:00-22:00,,,http://www.cartier.com/en-us/find-boutique/store-locator-listing/china/shenyang/shenyang-forum-66-boutique-BTQ0208.html
Wuxi Yaohan Boutique,,"Chong'an District, No.168 Zhongshan Road",,Wuxi,,214002,China,0510-8273-0318,,,10:00-22:00,,,http://www.cartier.com/en-us/find-boutique/store-locator-listing/china/wuxi/wuxi-yaohan-boutique-BTQ0211.html
Suzhou Taihua Boutique,,"Pingjiang District, No.383 Renmin Road",,Suzhou,,215002,China,0512-6572-7020,,,10:00-22:00,,,http://www.cartier.com/en-us/find-boutique/store-locator-listing/china/suzhou/suzhou-taihua-boutique-BTQ0212.html
Kunming Gingko Shiguang Boutique,,"Wuhua District, No.985 Beijing Road",,Kunming,,650233,China,0871-6565-9199,,,10:00-22:00,,,http://www.cartier.com/en-us/find-boutique/store-locator-listing/china/kunming/kunming-gingko-shiguang-boutique-BTQ0190.html
Harbin CTS Boutique,,"Dao Li District, No.106 An Long Street",,Harbin,,150018,China,0451-8773-6836,,,10:00-21:30,,,http://www.cartier.com/en-us/find-boutique/store-locator-listing/china/harbin/harbin-cts-boutique-BTQ0198.html
Shenyang Mix City Boutique,,"Heping District, No.288 Qingnian Street",,Shenyang,,110004,China,024-3137-9583,,,夏天: 10:00-22:00,,,http://www.cartier.com/en-us/find-boutique/store-locator-listing/china/shenyang/shenyang-mix-city-boutique-BTQ0199.html
Shanghai IFC Boutique,,"Pudong New district, No.8 Century Avenue",,Shanghai,,200120,China,021-5012-1518,,,10:00-22:00,,,http://www.cartier.com/en-us/find-boutique/store-locator-listing/china/shanghai/shanghai-ifc-boutique-BTQ0149.html
Hefei Intime Boutique,,"Luyang District, No.98 Middle Changjiang Road",,Hefei,,230001,China,0551-6269-0388,,,9:30-22:00,,,http://www.cartier.com/en-us/find-boutique/store-locator-listing/china/hefei/hefei-intime-boutique-BTQ0172.html
Shanghai Hongkong Plaza Boutique,,"Luwan District, No.283 Huaihaizhong Road",,Shanghai,,200021,China,021-6390-8800,,,10:00-22:00,,,http://www.cartier.com/en-us/find-boutique/store-locator-listing/china/shanghai/shanghai-hongkong-plaza-boutique-BTQ0148.html
Hangzhou In77 Boutique,,"Shangcheng Disctrict, No.129 Pinghai Road",,Hangzhou,,310006,China,0571-8703-5100,,,10:00-22:00,,,http://www.cartier.com/en-us/find-boutique/store-locator-listing/china/hangzhou/hangzhou-in77-boutique-BTQ0183.html
Hangzhou Mix City Boutique,,"Jiang Gan District, No.701 Fu Chun Road",,Hangzhou,,310016,China,0571-8970-5008,,,10:00-21:30,,,http://www.cartier.com/en-us/find-boutique/store-locator-listing/china/hangzhou/hangzhou-mix-city-boutique-BTQ0184.html
Jinan Guihe Boutique,,"Lixia District, No.1 Tian Di Tan Street",,Jinan,,250011,China,0531-8098-2868,,,每个星期日，一，二，三，四: 9:30-21:30,,,http://www.cartier.com/en-us/find-boutique/store-locator-listing/china/jinan/jinan-guihe-boutique-BTQ0115.html
Boutique Cartier Peking Road,,"One Peking Road, Tsim Sha Tsui, Kowloon",,Hong Kong,,,"Hong Kong S.A.R., China",(852) 8105 5008,,,Mon-Thu: 1000-2000 Fri-Sun: 1030-2100,,,"http://www.cartier.com/en-us/find-boutique/store-locator-listing/hong-kong-s.a.r.,-china/hong-kong/boutique-cartier-peking-road-BTQ5089.html"
Shijiazhuang Future Mall Boutique,,"Chang'an District, No.326 East Zhongshan Road",,Shijiazhuang,,50011,China,0311-8910-8408,,,10:00-22:00,,,http://www.cartier.com/en-us/find-boutique/store-locator-listing/china/shijiazhuang/shijiazhuang-future-mall-boutique-BTQ0111.html
Boutique Cartier Elements,,"1 Austin Road West, Tsim Sha Tsui, Kowloon",,Hong Kong,,,"Hong Kong S.A.R., China",(852) 8105 5008,,,Mon-Sun: 1000-2100 Daily,,,"http://www.cartier.com/en-us/find-boutique/store-locator-listing/hong-kong-s.a.r.,-china/hong-kong/boutique-cartier-elements-BTQ5090.html"
Boutique Cartier HK Int'l Airport,,"Hong Kong International Airport, Lantau",,Hong Kong,,,"Hong Kong S.A.R., China",(852) 8105 5008,,,Mon-Sun: 0700-2300 Daily,,,"http://www.cartier.com/en-us/find-boutique/store-locator-listing/hong-kong-s.a.r.,-china/hong-kong/boutique-cartier-hk-int'l-airport-BTQ5088.html"
Boutique Cartier Landmark Prince's,,"10 Chater Road, Central",,Hong Kong,,,"Hong Kong S.A.R., China",(852) 8105 5008,,,"Mon-Sat: 0930-1900, Sun & Public Holiday: 1130-1800",,,"http://www.cartier.com/en-us/find-boutique/store-locator-listing/hong-kong-s.a.r.,-china/hong-kong/boutique-cartier-landmark-prince's-BTQ5081.html"
Boutique Cartier Peninsula L1,,"Salisbury Road, Tsim Sha Tsui, Kowloon",,Hong Kong,,,"Hong Kong S.A.R., China",(852) 8105 5008,,,Mon-Sun: 1000-1900 Daily,,,"http://www.cartier.com/en-us/find-boutique/store-locator-listing/hong-kong-s.a.r.,-china/hong-kong/boutique-cartier-peninsula-l1-BTQ5082.html"
Boutique Cartier Pacific Place,,88 Queensway,,Hong Kong,,,"Hong Kong S.A.R., China",(852) 8105 5008,,,Mon-Sun: 1000-1930 Daily,,,"http://www.cartier.com/en-us/find-boutique/store-locator-listing/hong-kong-s.a.r.,-china/hong-kong/boutique-cartier-pacific-place-BTQ5083.html"
Cartier Boutique - DFS T Galleria HK Canton Road,,"Lippo Sun Plaza, 28 Canton Road, Tsim Sha Tsui, Kowloon",,Hong Kong,,,"Hong Kong S.A.R., China",85 223 026 888,,,10:00 AM - 11:00 PM,,,"http://www.cartier.com/en-us/find-boutique/store-locator-listing/hong-kong-s.a.r.,-china/hong-kong/cartier-boutique---dfs-t-galleria-hk-canton-road-BTQ13287.html"
Cartier Boutique - DFS T Galleria HK TST East,,"Chinachem Golden Plaza, 77 Mody Road, Tsim Sha Tsui East, Kowloon",,Hong Kong,,,"Hong Kong S.A.R., China",(852) 2311 3813,,,10:30 AM - 10:00 PM,,,"http://www.cartier.com/en-us/find-boutique/store-locator-listing/hong-kong-s.a.r.,-china/hong-kong/cartier-boutique---dfs-t-galleria-hk-tst-east-BTQ13281.html"
Boutique Cartier Peninsula W8 & 10,,"Salisbury Road, Tsim Sha Tsui, Kowloon",,Hong Kong,,,"Hong Kong S.A.R., China",(852) 8105 5008,,,Mon-Sun: 1000-1900 Daily,,,"http://www.cartier.com/en-us/find-boutique/store-locator-listing/hong-kong-s.a.r.,-china/hong-kong/boutique-cartier-peninsula-w8-&-10-BTQ5085.html"
Boutique Cartier Jakarta - Plaza Indonesia,,"Jalan M.H. Thamrin No.28-30, Jakarta Pusat, Daerah Khusus Ibukota",,Jakarta,,10350,Indonesia,+(62) 21 3141916,,,,,,http://www.cartier.com/en-us/find-boutique/store-locator-listing/indonesia/jakarta/boutique-cartier-jakarta---plaza-indonesia-BTQ16303.html
Cartier Boutique - DFS Galleria Bali,,Jalan By Pass Ngurah Rai,,Bali,,Kuta 80361,Indonesia,(62) 361  758 875,,,10:00 AM - 10:00 PM,,,http://www.cartier.com/en-us/find-boutique/store-locator-listing/indonesia/bali/cartier-boutique---dfs-galleria-bali-BTQ13298.html
Boutique Cartier Kuala Lumpur - Pavilion,,"168,Jalan Bukit Bintang",,Kuala Lumpur,,55100,Malaysia,+603 2113 0211,,,10.00am to 9.30pm,,,http://www.cartier.com/en-us/find-boutique/store-locator-listing/malaysia/kuala-lumpur/boutique-cartier-kuala-lumpur---pavilion-BTQ7271.html
Boutique Cartier Tokyo - Shinjuku - Isetan,,3-14-1 Shinjuku,,Shinjuku-ku,Tokyo,160-0022,Japan,03-3352-1111,,,10:30-20:00,,,http://www.cartier.com/en-us/find-boutique/store-locator-listing/japan/shinjuku-ku/boutique-cartier-tokyo---shinjuku---isetan-BTQ8201.html
Boutique Cartier New Delhi,,"Nelson Mandela Road, Vasant Kunj",,New Delhi,,,India,0091 11 467 88 888,,,Monday to Sunday From 11:00am to 09:00pm,,,http://www.cartier.com/en-us/find-boutique/store-locator-listing/india/new-delhi/boutique-cartier-new-delhi-BTQ11527.html
Boutique Cartier Yokohama - Takashimaya,,1-6-31 Minami-saiwai Nishi-ku,,Yokohama,Kanagawa,220-8601,Japan,045-311-5111,,,"10:00-20:00, We have Chinese-speaking staffs",,,http://www.cartier.com/en-us/find-boutique/store-locator-listing/japan/yokohama/boutique-cartier-yokohama---takashimaya-BTQ8204.html
Boutique Cartier Tokyo - Tamagawa - Takashimaya,,3-17-1 Tamagawa,,Setagaya-ku,Tokyo,158-8701,Japan,03-3709-3111,,,10:00-20:00,,,http://www.cartier.com/en-us/find-boutique/store-locator-listing/japan/setagaya-ku/boutique-cartier-tokyo---tamagawa---takashimaya-BTQ8206.html
Boutique Cartier Yokohama - Sogo,,2-18-1 Takashima  Nishi-ku,,Yokohama,Kanagawa,220-8510,Japan,045-465-2111,,,10:00-20:00,,,http://www.cartier.com/en-us/find-boutique/store-locator-listing/japan/yokohama/boutique-cartier-yokohama---sogo-BTQ8218.html
Boutique Cartier Tokyo - Shinjuku - Odakyu,,1-1-3 Nishishinjuku,,Shinjuku-ku,Tokyo,160-8001,Japan,03-3342-1111,,,月から土10:00-20:30、日・祝10:00-20:00,,,http://www.cartier.com/en-us/find-boutique/store-locator-listing/japan/shinjuku-ku/boutique-cartier-tokyo---shinjuku---odakyu-BTQ8219.html
Boutique Cartier Osaka - Abeno Harukas,,"1F Tower-kan 1-1-43 Abenosuji, Abeno-ku",,Osaka,Osaka,545-8545,Japan,06-6624-1111,,,10:00-20:30,,,http://www.cartier.com/en-us/find-boutique/store-locator-listing/japan/osaka/boutique-cartier-osaka---abeno-harukas-BTQ8220.html
Boutique Cartier Fukuoka - Iwataya Tenjin,,2-5-35 Tenjin Chuo-ku,,Fukuoka,Fukuoka,810-8680,Japan,092-721-1111,,,10:00-20:00,,,http://www.cartier.com/en-us/find-boutique/store-locator-listing/japan/fukuoka/boutique-cartier-fukuoka---iwataya-tenjin-BTQ8226.html
Boutique Cartier Hiroshima - Fukuya,,"6-26 Ebisu-cho, Naka-ku",,Hiroshima,Hiroshima,730-8548,Japan,082-246-6111,,,日から木10:00-19:30、⾦・土10:00-20:00,,,http://www.cartier.com/en-us/find-boutique/store-locator-listing/japan/hiroshima/boutique-cartier-hiroshima---fukuya-BTQ8225.html
Boutique Cartier Kyoto - Takashimaya,,"52 Nishiiru Shinmachi  Shijo-kawaramachi,  Shimogyo-ku",,Kyoto,Kyoto,600-8520,Japan,075-221-8811,,,10:00-20:00,,,http://www.cartier.com/en-us/find-boutique/store-locator-listing/japan/kyoto/boutique-cartier-kyoto---takashimaya-BTQ8224.html
Boutique Cartier Osaka - Hankyu,,8-7 Kakuda-cho Kita-ku,,Osaka,Osaka,530-8350,Japan,06-6361-1381,,,"日から木10:00-20:00、⾦・土10:00-21:00, We have Chinese-speaking staffs",,,http://www.cartier.com/en-us/find-boutique/store-locator-listing/japan/osaka/boutique-cartier-osaka---hankyu-BTQ8222.html
Boutique Cartier Tokyo - Shibuya - Seibu,,21-1 Udagawa-cho,,Shibuya-ku,Tokyo,150-8330,Japan,03-3462-0111,,,月から土10:00-21:00、日・祝10:00-20:00,,,http://www.cartier.com/en-us/find-boutique/store-locator-listing/japan/shibuya-ku/boutique-cartier-tokyo---shibuya---seibu-BTQ8209.html
Boutique Cartier Nagoya - Matsuzakaya,,3-16-1 Sakae Naka-ku,,Nagoya,Aichi,460-8430,Japan,052-251-1111,,,10:00-20:00,,,http://www.cartier.com/en-us/find-boutique/store-locator-listing/japan/nagoya/boutique-cartier-nagoya---matsuzakaya-BTQ8223.html
Boutique Cartier Tokyo - Ikebukuro - Seibu,,1-28-1 Minami-ikebukuro,,Toshima-ku,Tokyo,171-8569,Japan,03-3981-0111,,,月から土10:00-21:00、日・祝10:00-20:00,,,http://www.cartier.com/en-us/find-boutique/store-locator-listing/japan/toshima-ku/boutique-cartier-tokyo---ikebukuro---seibu-BTQ8208.html
Boutique Cartier Shizuoka - Matsuzakaya,,"10-2 Miyuki-cho, Aoi-ku",,Shizuoka,Shizuoka,420-8560,Japan,054-254-1111,,,10:00-20:00,,,http://www.cartier.com/en-us/find-boutique/store-locator-listing/japan/shizuoka/boutique-cartier-shizuoka---matsuzakaya-BTQ8217.html
Boutique Cartier Sendai - Fujisaki,,3-2-1 Ichiban-cho Aoba-ku,,Sendai,Miyagi,980-8652,Japan,022-261-5111,,,10:00-19:30,,,http://www.cartier.com/en-us/find-boutique/store-locator-listing/japan/sendai/boutique-cartier-sendai---fujisaki-BTQ8214.html
Boutique Cartier Sapporo - Daimaru,,4-7 Kita-gojo-nishi Chuo-ku,,Sapporo,Hokkaido,060-0005,Japan,011-828-1111,,,10:00-20:00,,,http://www.cartier.com/en-us/find-boutique/store-locator-listing/japan/sapporo/boutique-cartier-sapporo---daimaru-BTQ8212.html
Boutique Cartier Nagoya - JR - Takashimaya,,1-1-4 Meieki Nakamura-ku,,Nagoya,Aichi,450-6001,Japan,052-566-1101,,,10:00-20:00,,,http://www.cartier.com/en-us/find-boutique/store-locator-listing/japan/nagoya/boutique-cartier-nagoya---jr---takashimaya-BTQ8267.html
Boutique Cartier Chiba - Sogo,,"1000 Shinmachi, Chuo-ku",,Chiba,Chiba,260-8557,Japan,043-245-2111,,,10:00-20:00,,,http://www.cartier.com/en-us/find-boutique/store-locator-listing/japan/chiba/boutique-cartier-chiba---sogo-BTQ8261.html
Boutique Cartier Niigata - Isetan,,"1-6-1 Yachiyo, Chuo-ku",,Niigata,Nigata,950-8589,Japan,025-242-1111,,,10:30-19:30、 日曜日10：00-19：00,,,http://www.cartier.com/en-us/find-boutique/store-locator-listing/japan/niigata/boutique-cartier-niigata---isetan-BTQ8262.html
Boutique Cartier Tokyo - Tachikawa - Isetan,,2-5-1 Akebono-cho,,Tachikawa,Tokyo,190-0012,Japan,042-525-1111,,,10:00-19:00,,,http://www.cartier.com/en-us/find-boutique/store-locator-listing/japan/tachikawa/boutique-cartier-tokyo---tachikawa---isetan-BTQ8263.html
Boutique Cartier Kyoto - Daimaru,,79 Tachiuri Nishimachi Shijo Takakura Nishi Shimogyo-ku,,Kyoto,Kyoto,650-8511,Japan,075-211-8111,,,10:00-20:00,,,http://www.cartier.com/en-us/find-boutique/store-locator-listing/japan/kyoto/boutique-cartier-kyoto---daimaru-BTQ8256.html
Boutique Cartier Osaka - Shinsaibashi Daimaru,,"North BLDg 1F, 1－7－1 Shinsaibashisuji, Chuo-ku",,Osaka,Osaka,542-8501,Japan,06-6271-1231,,,"10:00-20:30, We have Chinese-speaking staffs",,,http://www.cartier.com/en-us/find-boutique/store-locator-listing/japan/osaka/boutique-cartier-osaka---shinsaibashi-daimaru-BTQ8258.html
Boutique Cartier Kobe - Daimaru,,"40 Akashicho, Chuo-ku",,Kobe,Hyogo,650-0037,Japan,078-331-8121,,,10:00-20:00,,,http://www.cartier.com/en-us/find-boutique/store-locator-listing/japan/kobe/boutique-cartier-kobe---daimaru-BTQ8251.html
Boutique Cartier Fukuoka - Hakata Daimaru,,1-4-1 Tenjin Chuo-ku,,Fukuoka,Fukuoka,810-8717,Japan,092-712-8181,,,10:00-20:00,,,http://www.cartier.com/en-us/find-boutique/store-locator-listing/japan/fukuoka/boutique-cartier-fukuoka---hakata-daimaru-BTQ8254.html
Boutique Cartier Nagoya - Mitsukoshi,,3-5-1 Sakae Naka-ku,,Nagoya,Aichi,460-8669,Japan,052-252-1111,,,10:00-19:30,,,http://www.cartier.com/en-us/find-boutique/store-locator-listing/japan/nagoya/boutique-cartier-nagoya---mitsukoshi-BTQ8253.html
Boutique Cartier Narita - TERMINAL 2,,"Narita International Airport, Terminal 2, 3F",,Narita,Chiba,282-0004,Japan,0476-34-8048,,,"7:30-21:30, カルティエ ブティック 成田国際空港 第2ターミナル本館へのお問い合わせは、以下のEメールアドレス宛にお願いします。Eメール：narita.t2.japan@cartier.com",,,http://www.cartier.com/en-us/find-boutique/store-locator-listing/japan/narita/boutique-cartier-narita---terminal-2-BTQ13414.html
Boutique Cartier Tokyo - Ginza,,2-6-12 Ginza,,Chuo-ku,Tokyo,104-0061,Japan,03-5159-3200,,,"月から金12:00-20:00, 土・日・祝 11:00-20:00, Free WIFI is available at this boutique., We have Chinese-speaking staffs.",,,http://www.cartier.com/en-us/find-boutique/store-locator-listing/japan/chuo-ku/boutique-cartier-tokyo---ginza-BTQ8264.html
Boutique Cartier Osaka - Takashimaya,,5-1-5 Nanba Chuo-ku,,Osaka,Osaka,542-8510,Japan,06-6631-1101,,,日から木10:00-20:00、⾦・土10:00-20:30,,,http://www.cartier.com/en-us/find-boutique/store-locator-listing/japan/osaka/boutique-cartier-osaka---takashimaya-BTQ8221.html
Boutique Cartier Narita - TERMINAL 1 SOUTH WING,,"Narita International Airport, Terminal 1 South Wing, 3F",,Narita,Chiba,282-0004,Japan,0476-33-2117,,,"7:30-20:30, 成田国際空港内ターミナル1 南ウィングへのお問い合わせは、以下のEメールアドレス宛にお願いします。Eメール：narita.sw.japan@cartier.com",,,http://www.cartier.com/en-us/find-boutique/store-locator-listing/japan/narita/boutique-cartier-narita---terminal-1-south-wing-BTQ13415.html
Boutique Cartier Nagoya - Midland,,"4-7-1 Midland Square, Meieki Nakamura-ku",,Nagoya,Aichi,450-0002,Japan,052-587-7955,,,"11:00-20:00, Free WIFI is available at this boutique.",,,http://www.cartier.com/en-us/find-boutique/store-locator-listing/japan/nagoya/boutique-cartier-nagoya---midland-BTQ8259.html
Boutique Cartier Tokyo - Ginza Namiki,,5-5-15 Ginza,,Chuo-ku,Tokyo,104-0061,Japan,03-3289-5871,,,"11:30-20:00, Free WIFI is available at this boutique., We have Chinese-speaking staffs",,,http://www.cartier.com/en-us/find-boutique/store-locator-listing/japan/chuo-ku/boutique-cartier-tokyo---ginza-namiki-BTQ8215.html
Boutique Cartier Okinawa - T Galleria Okinawa,,4 – 1 Omoromachi,,Naha,Okinawa,900-0006,Japan,0120-782-460,,,日から木9:00-21:00、金・土9:00-22:00カルティエ ブティック Tギャラリア沖縄へのお問い合わせは、以下のEメールアドレス宛にお願いします。Eメール：okinawa.dfs.japan@cartier.com,,,http://www.cartier.com/en-us/find-boutique/store-locator-listing/japan/naha/boutique-cartier-okinawa---t-galleria-okinawa-BTQ13480.html
Boutique Cartier Osaka - Shinsaibashi,,"Shinsaibashi Plaza Building Shinkan, 3-12-21 Minamisenba",,Osaka,Osaka,542-0081,Japan,06-6245-1900,,,"11:30-20:00, Free WIFI is available at this boutique., We have Chinese-speaking staffs",,,http://www.cartier.com/en-us/find-boutique/store-locator-listing/japan/osaka/boutique-cartier-osaka---shinsaibashi-BTQ8255.html
Boutique Cartier Osaka - Kansai International Airport,,"Kansai International Airport, Passenger Terminal Bldg 3F",,Izumisano,Osaka,549-0011,Japan,072-455-2522,,,7:15-22:30カルティエ ブティック 関西国際空港へのお問い合わせは、以下のEメールアドレス宛にお願いします。Eメール：kansai.sw.japan@cartier.com,,,http://www.cartier.com/en-us/find-boutique/store-locator-listing/japan/izumisano/boutique-cartier-osaka---kansai-international-airport-BTQ13486.html
Boutique Cartier Tokyo - Haneda International Airport T2,,"Haneda Airport, International Passenger Terminal (space) 3F",,Ota-ku,Tokyo,144-0041,Japan,03-6428-0779,,,6:00-24:30カルティエ ブティック 羽田空港国際線ターミナルへのお問い合わせは、以下のEメールアドレス宛にお願いします。Eメール：Haneda.ap.japan@cartier.com,,,http://www.cartier.com/en-us/find-boutique/store-locator-listing/japan/ota-ku/boutique-cartier-tokyo---haneda-international-airport-t2-BTQ13533.html
Cartier Boutique - DFS Galleria Saipan,,"Beach Road, Garapan",,Saipan,,96950,Northern Mariana Islands,00 (1) 670 234 6615,,,10:30 AM - 10:30 PM,,,http://www.cartier.com/en-us/find-boutique/store-locator-listing/northern-mariana-islands/saipan/cartier-boutique---dfs-galleria-saipan-BTQ13820.html
Cartier Boutique - Tumon Sands Plaza,,"1082 Pale San Vitores Road, Tumon",,Guam,,Guam 96913,Guam,00 (1) 671 646 6337,,,10:00 AM - 10:00 PM,,,http://www.cartier.com/en-us/find-boutique/store-locator-listing/guam/guam/cartier-boutique---tumon-sands-plaza-BTQ4449.html
Boutique Cartier Johannesburg - Sandton City,,Shop U13  Sandton City,,Sandton,,2146,South Africa,00 27 (0)11 666 2800,,,"Monday / Saturday 9am-8pm, Sunday 9am-4pm, Public holidays 9am-6pm",,,http://www.cartier.com/en-us/find-boutique/store-locator-listing/south-africa/sandton/boutique-cartier-johannesburg---sandton-city-BTQ8402.html
Boutique Vienna,,Kohlmarkt 1,,Vienna,,1010,Austria,+43-1-5351040-00,,,Mon-Fri 10h00-18h00 Sat 10h00-17h00,,,http://www.cartier.com/en-us/find-boutique/store-locator-listing/austria/vienna/boutique-vienna-BTQ1610.html
Boutique Cartier Guayaquil,,Hotel Hilton Colon Ave. Francisco de Orellana,,Guayaquil,,,Ecuador,59342689475,,,Mon - Sat from 10:00am to 8:30pm,,,http://www.cartier.com/en-us/find-boutique/store-locator-listing/ecuador/guayaquil/boutique-cartier-guayaquil-BTQ996.html
Cartier Boutique - DFS Galleria Guam,,"1296 Pale San Vitores Road, Tumon",,Guam,,,Guam,00 (1) 671 647 3901,,,10:00 AM - 11:00 PM,,,http://www.cartier.com/en-us/find-boutique/store-locator-listing/guam/guam/cartier-boutique---dfs-galleria-guam-BTQ4452.html
Boutique Cartier Brisbane,,172 Edward Street,,Brisbane,,QLD 4000,Australia,1800 13 0000,,,"Monday to Thursday: 10AM - 6PM, Friday: 10AM - 7PM, Saturday: 10AM - 5PM, Sunday: 10:30AM - 5PM",,,http://www.cartier.com/en-us/find-boutique/store-locator-listing/australia/brisbane/boutique-cartier-brisbane-BTQ6387.html
BOUTIQUE CARTIER IGUATEMI,,"Av. Brigadeiro Faria Lima, 2232, 3º andar",,São Paulo,,CEP 01451-000,Brazil,+55 11 3030 0930,,,"Seg.-Sáb.: 10h00-21h30, Dom.: 14h00-19h30",,,http://www.cartier.com/en-us/find-boutique/store-locator-listing/brazil/s%C3%A3o-paulo/boutique-cartier-iguatemi-BTQ17060.html
BOUTIQUE CARTIER CIDADE JARDIM,,"Avenida Magalhães de Castro, 12.000",,São Paulo,,CEP 05502-001,Brazil,+55 11 3759 3240,,,"Seg.-Sáb.: 10h00-21h30, Dom.: 14h00-19h30",,,http://www.cartier.com/en-us/find-boutique/store-locator-listing/brazil/s%C3%A3o-paulo/boutique-cartier-cidade-jardim-BTQ13829.html
Boutique Cartier St Barthelemy,,Quai de la Republique Gustavia,,St. Barthelemy,,97133,Saint Barthélemy,05 90 27 66 69 (France) 011 590 590 27 66 69 (USA),,,Closed,,,http://www.cartier.com/en-us/find-boutique/store-locator-listing/saint-barth%C3%A9lemy/st.-barthelemy/boutique-cartier-st-barthelemy-BTQ7908.html
BOUTIQUE CARTIER RIO DE JANEIRO,,"Avenida das Américas, 3900",,Rio de Janeiro,,CEP 22640-102,Brazil,+55 21 3252 2570,,,"Seg.-Sáb.: 10h30-22h30, Dom.: 15h00-21h00",,,http://www.cartier.com/en-us/find-boutique/store-locator-listing/brazil/rio-de-janeiro/boutique-cartier-rio-de-janeiro-BTQ15263.html
Boutique Cartier Баку,,"ул. 28 Мая, 2",,Баку,,AZ1000,Azerbaijan,+99 412 493 89 29,,,Monday to Saturday 10.30-19.30,,,http://www.cartier.com/en-us/find-boutique/store-locator-listing/azerbaijan/%D0%B1%D0%B0%D0%BA%D1%83/boutique-cartier-%D0%B1%D0%B0%D0%BA%D1%83-BTQ313.html
Boutique Cartier Melbourne,,90 Collins Street,,Melbourne,,VIC 3000,Australia,1800 13 0000,,,"Monday to Thursday: 10AM - 6PM, Friday: 10AM - 7PM, Saturday: 10AM - 6PM, Sunday: 11AM - 5PM",,,http://www.cartier.com/en-us/find-boutique/store-locator-listing/australia/melbourne/boutique-cartier-melbourne-BTQ6388.html
Boutique Cartier Sydney - Castlereagh Street,,74 Castlereagh Street,,Sydney,,NSW 2000,Australia,1800 13 0000,,,"Monday to Wednesday: 10AM - 6PM, Thursday: 10AM - 7PM, Friday to Saturday: 10AM - 6PM, Sunday: 11AM - 5PM",,,http://www.cartier.com/en-us/find-boutique/store-locator-listing/australia/sydney/boutique-cartier-sydney---castlereagh-street-BTQ6381.html
Boutique Cartier Bogota,,Avenida 82 No. 11-62,,Bogota,,,Colombia,57 1 6224730,,,Mon - Fri from 10:30am to 7:00pm Sat 10:30am to 6:00pm,,,http://www.cartier.com/en-us/find-boutique/store-locator-listing/colombia/bogota/boutique-cartier-bogota-BTQ938.html
Cartier Boutique -DFS Galleria Sydney,,"The Rocks, 155 George Street",,Sydney,,NSW 2000,Australia,+61 2 8243 8678,,,11:30 AM - 7:00 PM,,,http://www.cartier.com/en-us/find-boutique/store-locator-listing/australia/sydney/cartier-boutique--dfs-galleria-sydney-BTQ13687.html
Boutique Cartier Cayman - Cardinal,,Cardinal Avenue,,Georgetown,,,Cayman Islands,345-815-7471,,,Mon - Sat from 9:00am to 5:00pm,,,http://www.cartier.com/en-us/find-boutique/store-locator-listing/cayman-islands/georgetown/boutique-cartier-cayman---cardinal-BTQ13126.html
Boutique Cartier PA,,Local # 258 Punta Pacifica Corregimiento de San Francisco,,Panama City,,,Panama,00 50 72 14 31 55,,,Mon - Sat from 10:00am to 8:00pm Sunday from 11:00am to 7:00pm,,,http://www.cartier.com/en-us/find-boutique/store-locator-listing/panama/panama-city/boutique-cartier-pa-BTQ7973.html
Boutique Cartier Santo Domingo,,Ave. Winston Churchill esq. Gustavo Mejia Ricart,,Santo Domingo,,,Dominican Republic,+1 809-955-3217 / +1 809-955-3216,,,"Monday - Saturday: 10:00 am to 09:00 pm, Sunday & Holidays: 11:00 am to 08:00 pm",,,http://www.cartier.com/en-us/find-boutique/store-locator-listing/dominican-republic/santo-domingo/boutique-cartier-santo-domingo-BTQ13053.html
Boutique Cartier PR,,1054 Ashford Ave. Condado,,San Juan,,907,Puerto Rico,00 787 721 5327,,,Mon - Sat from 9:00am to 6:00pm,,,http://www.cartier.com/en-us/find-boutique/store-locator-listing/puerto-rico/san-juan/boutique-cartier-pr-BTQ8167.html
Boutique Cartier AW,,L.G. Smith Boulevard 82,,Oranjestad,,,Aruba,00 297 5299984,,,Mon - Sat from 10:00am to 7:00pm,,,http://www.cartier.com/en-us/find-boutique/store-locator-listing/aruba/oranjestad/boutique-cartier-aw-BTQ82.html
Boutique Cartier BB,,Highway 1,,Holetown,,,Barbados,00 12 46 43 02 40 0,,,Mon - Sat from 10:00am to 7:00pm Sunday from 10:00am to 5:00pm,,,http://www.cartier.com/en-us/find-boutique/store-locator-listing/barbados/holetown/boutique-cartier-bb-BTQ13688.html
Boutique Cartier Manhasset Americana,,2100 Northern Blvd.,,Manhasset,NY,11030,United States,+1 516 627 3200,,,"Monday - Wednesday 10:00 am - 5:30 pm, Thursday - Saturday 10:00 am - 6:15 pm, Sunday 12:00 pm - 6:15 pm",,,http://www.cartier.com/en-us/find-boutique/store-locator-listing/united-states/manhasset/boutique-cartier-manhasset-americana-BTQ10745.html
Boutique Cartier Houston,,4444 Westheimer Road,,Houston,TX,77027,United States,+1 713 871 0177,,,"Monday - Saturday 10:00 am - 6:00 pm, Sunday 12:00 pm - 5:00 pm",,,http://www.cartier.com/en-us/find-boutique/store-locator-listing/united-states/houston/boutique-cartier-houston-BTQ3032.html
Boutique Cartier Las Vegas Forum Shops,,"Forum Shops at Caesars, 3500 Las Vegas Boulevard South,#B03",,Las Vegas,NV,89109,United States,+1 702 418 3904,,,"Sunday - Thursday 10:00 am - 11:00 pm, Friday - Saturday 10:00 am - 12:00 am",,,http://www.cartier.com/en-us/find-boutique/store-locator-listing/united-states/las-vegas/boutique-cartier-las-vegas-forum-shops-BTQ3029.html
Boutique Cartier Costa Mesa South Coast Plaza,,3333 Bristol Street,,Costa Mesa,CA,92626,United States,+1 714 540 8231,,,"Monday - Friday 10:00 am - 9:00 pm, Saturday 10:00 am - 8:00 pm, Sunday 11:30 am - 6:30 pm",,,http://www.cartier.com/en-us/find-boutique/store-locator-listing/united-states/costa-mesa/boutique-cartier-costa-mesa-south-coast-plaza-BTQ3026.html
Boutique Cartier Chicago,,630 N. Michigan Avenue,,Chicago,IL,60611,United States,+1 312 266 7440,,,"Monday - Saturday 10:00 am - 6:00 pm, Sunday 12:00 pm - 5:00 pm",,,http://www.cartier.com/en-us/find-boutique/store-locator-listing/united-states/chicago/boutique-cartier-chicago-BTQ3025.html
Boutique Cartier Honolulu Royal Hawaiian,,"2201 Kalakaua Avenue,A-102",,Honolulu,HI,96815,United States,+1 808 922 7555,,,Daily 10:00 am - 10:00 pm,,,http://www.cartier.com/en-us/find-boutique/store-locator-listing/united-states/honolulu/boutique-cartier-honolulu-royal-hawaiian-BTQ3031.html
Boutique Cartier Dallas NorthPark Center,,8687 North Central Expressway,,Dallas,TX,75225,United States,+1 972 726 7670,,,"Monday - Saturday 10:00 am - 6:00 pm, Sunday 12:00 pm - 5:00 pm",,,http://www.cartier.com/en-us/find-boutique/store-locator-listing/united-states/dallas/boutique-cartier-dallas-northpark-center-BTQ3027.html
Boutique Cartier Boston,,40 Newbury Street,,Boston,MA,02116,United States,+1 617 262 3300,,,"Monday - Saturday 10:00 am - 6:00 pm, Sunday 12:00 pm - 5:00 pm",,,http://www.cartier.com/en-us/find-boutique/store-locator-listing/united-states/boston/boutique-cartier-boston-BTQ3024.html
Boutique Cartier Beverly Hills,,370 N. Rodeo Drive,,Beverly Hills,CA,90210,United States,+1 310 275 4272,,,"Monday - Saturday 10:00 am - 6:00 pm, Sunday 12:00 pm - 5:00 pm",,,http://www.cartier.com/en-us/find-boutique/store-locator-listing/united-states/beverly-hills/boutique-cartier-beverly-hills-BTQ3021.html
Boutique Cartier Miami Design District,,147 NE 39th Street,,Miami,FL,33137,United States,+1 305 894 2960,,,Monday - Saturday 11:00 am - 7:00 pm,,,http://www.cartier.com/en-us/find-boutique/store-locator-listing/united-states/miami/boutique-cartier-miami-design-district-BTQ3020.html
Boutique Cartier Las Vegas The Shops at Crystals,,"3720 Las Vegas Blvd. South,#265",,Las Vegas,NV,89158,United States,+1 702 487 3160,,,"Sunday - Thursday 10:00 am - 11:00 pm, Friday - Saturday 10:00 am - 12:00 am",,,http://www.cartier.com/en-us/find-boutique/store-locator-listing/united-states/las-vegas/boutique-cartier-las-vegas-the-shops-at-crystals-BTQ3036.html
Boutique Cartier Atlanta Lenox Square,,3393 Peachtree Road N.E.,,Atlanta,GA,30326,United States,+1 404 841 0840,,,"Monday - Wednesday / Friday - Saturday 10:00 am - 6:00 pm, Thursday 10:00 am - 8:00 pm, Sunday 12:00 pm - 5:00 pm",,,http://www.cartier.com/en-us/find-boutique/store-locator-listing/united-states/atlanta/boutique-cartier-atlanta-lenox-square-BTQ3019.html
Boutique Cartier Boca Raton Town Center Mall,,"6000 Glades Road,Suite 1069",,Boca Raton,FL,33413,United States,+1 561 367 9100,,,"Monday - Saturday 10:00 am - 7:00 pm, Sunday 12:00 pm - 5:00 pm",,,http://www.cartier.com/en-us/find-boutique/store-locator-listing/united-states/boca-raton/boutique-cartier-boca-raton-town-center-mall-BTQ3022.html
Boutique Cartier Nassau,,284 Bay Street,,Nassau,,,Bahamas,00 12 42 30 22 87 2,,,Mon - Sat from 9:30am to 5:30pm Sunday from 9:30am to 3:00pm,,,http://www.cartier.com/en-us/find-boutique/store-locator-listing/bahamas/nassau/boutique-cartier-nassau-BTQ319.html
Boutique Cartier Palo Alto,,180 El Camino Real,,Palo Alto,CA,94304,United States,+1 650 388 7228,,,"Monday - Friday 10:00 am - 8:00 pm, Saturday 10:00 am - 7:00 pm, Sunday 11:00 am - 6:00 pm",,,http://www.cartier.com/en-us/find-boutique/store-locator-listing/united-states/palo-alto/boutique-cartier-palo-alto-BTQ3203.html
Bhindi,,18508 Pioneer Blvd,,Artesia,CA,90701,United States,+1 562 402 8755,,,,,,http://www.cartier.com/en-us/find-boutique/store-locator-listing/united-states/artesia/bhindi-BTQ17167.html
Colletto Eyewear,,356 Oakland Avenue,,Rock Hill,SC,29730,United States,+1 803 980 3937,,,,,,http://www.cartier.com/en-us/find-boutique/store-locator-listing/united-states/rock-hill/colletto-eyewear-BTQ17166.html
Boutique Cartier NYC Central Park,,767 Fifth Avenue,,New York,NY,10153,United States,+1 212 457 3202,,,"Monday - Saturday 10:00 am - 7:00 pm, Sunday 12:00 pm - 6:00 pm",,,http://www.cartier.com/en-us/find-boutique/store-locator-listing/united-states/new-york/boutique-cartier-nyc-central-park-BTQ3200.html
Boutique Cartier Honolulu Ala Moana,,1450 Ala Moana Blvd.,,Honolulu,HI,96814,United States,+1 808 946 1635,,,"Monday - Saturday 9:30:00 am - 9:00 pm, Sunday 10:00 am - 7:00 pm",,,http://www.cartier.com/en-us/find-boutique/store-locator-listing/united-states/honolulu/boutique-cartier-honolulu-ala-moana-BTQ3030.html
Boutique Cartier Las Vegas Wynn,,3131 Las Vegas Boulevard South,,Las Vegas,NV,89109,United States,+1 702 696 0146,,,"Sunday - Thursday 10:00 am - 11:00 pm, Friday - Saturday 10:00 am - 12:00 am",,,http://www.cartier.com/en-us/find-boutique/store-locator-listing/united-states/las-vegas/boutique-cartier-las-vegas-wynn-BTQ3034.html
Boutique Cartier Tyson's Galleria,,"1739 International Drive, Suite 2108",,McLean,VA,22102,United States,+1 703 749 4664,,,"Monday - Friday 10:00 am - 9:00 pm, Saturday 10:00 am - 7:00 pm, Sunday 12:00 pm - 5:00 pm",,,http://www.cartier.com/en-us/find-boutique/store-locator-listing/united-states/mclean/boutique-cartier-tyson's-galleria-BTQ3201.html
Boutique Cartier Palm Beach,,"Palm Beach Boutique permanently closed., Please visit our Boca Raton Boutique or shop online with our e-Boutique.",,Palm Beach,FL,33480,United States,,,,LOCATION PERMANENTLY CLOSED,,,http://www.cartier.com/en-us/find-boutique/store-locator-listing/united-states/palm-beach/boutique-cartier-palm-beach-BTQ3041.html
Boutique Cartier Westfield Valley Fair Mall,,2855 Stevens Creek Blvd.,,Santa Clara,CA,95050,United States,+1 650 325 6170,,,"Monday - Friday 10:00 am - 8:00 pm, Saturday 10:00 am - 7:00 pm, Sunday 11:00 am - 6:00 pm",,,http://www.cartier.com/en-us/find-boutique/store-locator-listing/united-states/santa-clara/boutique-cartier-westfield-valley-fair-mall-BTQ3042.html
Boutique Cartier King of Prussia,,"350 Mall Blvd, Suite 3011",,King Of Prussia,PA,19406,United States,+1 610 205 0450,,,"Monday - Wednesday 10:00 am - 7:00 pm, Thursday - Friday 10:00 am - 8:00 pm, Saturday 10:00 am - 7:00 pm, Sunday 11:00 am - 6:00 pm",,,http://www.cartier.com/en-us/find-boutique/store-locator-listing/united-states/king-of-prussia/boutique-cartier-king-of-prussia-BTQ3043.html
Boutique Cartier Aventura Mall,,"19575 Biscayne Blvd,Suite 511",,Aventura,FL,33180,United States,+1 305 521 1800,,,"Monday - Saturday 10:00 am - 9:30 pm, Sunday 12:00 pm - 8:00 pm",,,http://www.cartier.com/en-us/find-boutique/store-locator-listing/united-states/aventura/boutique-cartier-aventura-mall-BTQ3057.html
Boutique Cartier Orlando Mall at Millenia,,"4200 Conroy Road,Suite 278",,Orlando,FL,32839,United States,+1 407 248 9886,,,"Monday - Saturday 10:00 am - 9:00 pm, Sunday 12:00 pm - 7:00 pm",,,http://www.cartier.com/en-us/find-boutique/store-locator-listing/united-states/orlando/boutique-cartier-orlando-mall-at-millenia-BTQ3040.html
Boutique Cartier Short Hills Mall,,"1200 Morris Turnpike,Suite B216",,Short Hills,NJ,7078,United States,+1 973 467 9005,,,"Monday - Saturday 10:00 am - 7:00 pm, Sunday 12:00 pm - 5:00 pm",,,http://www.cartier.com/en-us/find-boutique/store-locator-listing/united-states/short-hills/boutique-cartier-short-hills-mall-BTQ3047.html
Boutique Cartier Westfield Topanga Mall,,6600 Topanga Canyon Blvd.,,Canoga Park,CA,91303,United States,+1 818 737 3471,,,"Monday - Saturday 10:00 am - 8:00 pm, Sunday 11:00 am - 6:00 pm",,,http://www.cartier.com/en-us/find-boutique/store-locator-listing/united-states/canoga-park/boutique-cartier-westfield-topanga-mall-BTQ3048.html
Boutique Cartier Scottsdale Fashion Square,,7014 E Camelback Rd #1153,,Scottsdale,AZ,85251,United States,+1 602 956 0056,,,"Monday - Saturday 10:00 am - 6:00 pm, Sunday 12:00 pm - 5:00 pm",,,http://www.cartier.com/en-us/find-boutique/store-locator-listing/united-states/scottsdale/boutique-cartier-scottsdale-fashion-square-BTQ3044.html
Boutique Cartier San Francisco,,250 Post Street,,San Francisco,CA,94108,United States,+1 415 397 3180,,,"Monday - Saturday 10:00 am - 6:00 pm, Sunday 11:00 am - 6:00 pm",,,http://www.cartier.com/en-us/find-boutique/store-locator-listing/united-states/san-francisco/boutique-cartier-san-francisco-BTQ3045.html
Boutique Cartier NYC Saks Fifth Avenue,,611 Fifth Avenue,,New York,NY,10022,United States,+1 212 940 2220,,,"Monday - Saturday 10:00 am - 8:30 pm, Sunday 11:00 am - 7:00 pm",,,http://www.cartier.com/en-us/find-boutique/store-locator-listing/united-states/new-york/boutique-cartier-nyc-saks-fifth-avenue-BTQ3039.html
Boutique Cartier Chevy Chase,,5471B Wisconsin Avenue,,Chevy Chase,MD,20815,United States,+1 301 654 5858,,,"Monday - Friday 10:00 am - 6:00 pm, Saturday 10:00 am - 5:00 pm",,,http://www.cartier.com/en-us/find-boutique/store-locator-listing/united-states/chevy-chase/boutique-cartier-chevy-chase-BTQ10459.html
Cartier Boutique - DFS T Galleria Hawaii,,"3/F, 330 Royal Hawaiian Avenue, Honolulu",,Honolulu,96815,96815,United States,+1 808 931 2524,,,,,,http://www.cartier.com/en-us/find-boutique/store-locator-listing/united-states/honolulu/cartier-boutique---dfs-t-galleria-hawaii-BTQ10612.html
Boutique Cartier NYC JFK Airport,,JFK Airport Teminal One,,New York,NY,11430,United States,+1 718 751 2478,,,Daily 7:00 am - 11:30 pm,,,http://www.cartier.com/en-us/find-boutique/store-locator-listing/united-states/new-york/boutique-cartier-nyc-jfk-airport-BTQ10880.html
Boutique Cartier NYC Madison Avenue,,828 Madison Avenue,,New York,NY,10021,United States,+1 212 472 6400,,,Monday - Saturday 10:00 am - 6:00 pm,,,http://www.cartier.com/en-us/find-boutique/store-locator-listing/united-states/new-york/boutique-cartier-nyc-madison-avenue-BTQ3038.html
