store_name,store_number,address,address2,city,state,zip_code,country,phone_number,latitude,longitude,store_hours,store_type,other_fields,coming_soon
HIDALGO,1051,"HIDALGO # 31 Y 33, COL. SAN FRANCISCO DE TESITAN, C.P. 45200",,ZAPOPAN,JALISCO,,MEXICO,(33) 3805-2468,20.79910,-103.47727,Lun - Sab de 10:00 a 20:00 Dom 10:00 a 18:00,,,
ACUEDUCTO,1060,"AV. ACUEDUCTO #855 ENTRE AV. SANTA MARGARITA Y SANTA MERCEDES, COL. STA. MARGARITA, C.P. 45140",,ZAPOPAN,JALISCO,,MEXICO,(33) 3685-5651,20.73129,-103.42199,Lun - Sab de 10:00 a 20:00 Dom de 10:00 a 18:00,,,
AGUA FRIA,1147,"CARRETERA A SALTILLO 3510 COLONIA AGUA FRIA, C.P. 45180",,ZAPOPAN,JALISCO,,MEXICO,(38) 618-997,20.74522,-103.34575,Lun - Sab de 10:00 a 20:00 Dom de 10:00 a 15:00,,,
SANTA ANA,1150,"ANTIGUA CARRETERA A SANTA ANA #2059 COLONIA FRANCISCO SARABIA, C.P. 45230",,ZAPOPAN,JALISCO,,MEXICO,(33) 3188-7217,20.61235,-103.42892,Lun - Sab de 10:00 a 20:00 Dom de 10:00 a 16:00,,,
ATEMAJAC,1183,"AVENIDA PATRIA #55 ENTRE ITURBIDE Y FEDERALISMO COLONIA ATEMAJAC DEL VALLE, C.P. 45190",,ZAPOPAN,JALISCO,,MEXICO,(33) 285 113 0111,20.71525,-103.35506,Lun - Sab de 10:00 a 20:00  Dom de 10:00 de 17:00,,,
COPERNICO,130,AV. NICOLAS COPERNICO #950 COL. RESIDENCIAL PLAZA GPE. ENTRE MISION DE SAN ANTONIO Y AV. GPE. C.P. 45030,,ZAPOPAN,JALISCO,,MEXICO,(33) 3125-1572 3125-1573,20.65624,-103.43265,Lun - Sab de 10:00 a 20:00 Dom 10:00 a 17:00,,,
EL BATAN,209,PROLONGACION AVENIDA ALCALDE #288 COL. EL BATAN. ENTRE EXPERIENCIA Y PINO SUAREZ C.P. 45190,,ZAPOPAN,JALISCO,,MEXICO,(33) 3366-2319 3366-2481,20.72092,-103.34588,Lun - Sab de 10:00 a 20:00 Dom de 10:00 a 18:00,,,
AVIACION,396,AV. AVIACION #3775 COL. LA MONJONERA. ENTRE RAMON CORONA Y UNIDAD HABITACIONAL MILITAR C.P. 45200,,ZAPOPAN,JALISCO,,MEXICO,(33) 3636-4642 3636-4866,20.73206,-103.45214,Lun - Sab de 10:00 a 20:00 Dom de 10:00 a 18:00,,,
HIDALGO,514,AV. HIDALGO #42 COL. CENTRO. ENTRE AVE. EVA BRISEÑO Y GUADALUPE VICTORIA C.P. 45100,,ZAPOPAN,JALISCO,,MEXICO,(33) 3633-8303,20.72202,-103.39184,Lun - Sab de 10:00 a 20:00 Dom 10:00 a 18:00,,,
BRISEÑO,83,EVA BRISEÑO #43 COL. CENTRO. ENTRE 16 DE SEPTIEMBRE Y RAMON CORONA C.P. 45100,,ZAPOPAN,JALISCO,,MEXICO,(33) 3833-4187 3833-1246,20.72285,-103.39106,Lun - Sab 10:00 a 20:00 Dom 10:00 a 18:00,,,
MERCADO DEL MAR,888,PROLONGACION PINO SUAREZ #620 COL. EL VIGIA. ENTRE ESPUELA Y ESTRIBO C.P. 45140,,ZAPOPAN,JALISCO,,MEXICO,(33) 3656-6843,20.73147,-103.38922,Lun - Sab de 10:00 a 20:00 Dom de 10:00 a 18:00,,,
GUAYMAS,980,PUERTO DE GUAYMAS #871 COL. MIRAMAR. ENTRE BAHIA CHAMETLA Y PUERTO TEHUANTEPEC C.P. 45060,,ZAPOPAN,JALISCO,,MEXICO,(33) 1028-7499,20.64232,-103.44919,Lun - Sab de 10:00 a 20:00 Dom de 10:00 a 16:00,,,
20 DE NOVIEMBRE,424,AVE. 20 DE NOVIEMBRE #7 COL. CENTRO. ENTRE MORELOS Y OBREGON C.P. 49800,,TUXPAN,JALISCO,,MEXICO,(371) 417-2705,19.33212,-103.22365,Lun - Vie de 09:30 a 20:00 Sab de 9:30 a 20:30 Dom de 9:00 a 16:00,,,
CRUZ DEL SUR,1006,AV. CRUZ DEL SUR #3207 COL. LOMA BONITA EJIDAL. ENTRE JESUS REYES HEROES Y TABACHINES C.P. 45589,,TLAQUEPAQUE,JALISCO,,MEXICO,(33) 3144-9770,20.63385,-103.39995,Lun - Sab de 10:00 a 20:30 Dom de 10:00 a 17:00,,,
8 DE JULIO,1052,"AV. 8 DE JULIO #2047, COL. SAN SEBASTIANITO C.P. 45601",,TLAQUEPAQUE,JALISCO,,MEXICO,(33) 3797-9475,20.58444,-103.38572,Lun - Sab de 10:00 a 20:30 Dom de 10:00 a 16:00,,,
LAS PINTAS,1097,"CALLE ANTIGUA CARRETERA A CHAPALA #7000, COL. JUAN DE LA BARRERA, C.P. 45618",,TLAQUEPAQUE,JALISCO,,MEXICO,(33) 3695-6813,20.56986,-103.33343,Lun - Sab de 10:00 a 20:00 Dom de 10:00 a 17:00,,,
PARIAN,153,HERRERA #29 COL. CENTRO. ENTRE JUAREZ E HIDALGO C.P. 45500,,TLAQUEPAQUE,JALISCO,,MEXICO,(33) 3838-6217 3838-6280,20.63862,-103.31056,Lun - Sab de 9:30 a 20:00 Dom 10:00 a 17:00,,,
GOBERNADOR,175,GOBERNADOR CURIEL #5032 COL. LAS JUNTAS. ESQ. CON ARQUITECTURA C.P. 44490,,TLAQUEPAQUE,JALISCO,,MEXICO,(33) 3692-0430 3692-0431,20.60904,-103.34100,Lun - Sab de 10:00 a 20:00 Dom de 9:00 a 16:00,,,
CENTRO SUR,420,PERIFERICO SUR #7835 COL. SANTA MARIA TEQUEPEXPAN. ENTRE PROLONGACION AV. COLON Y ANTIGUO CAMINO REAL A COLIMA C.P. 45601,,TLAQUEPAQUE,JALISCO,,MEXICO,(33) 3684-6615 3684-6617,20.60323,-103.40118,Lun - Dom de 10:00 a 20:00,,,
MORELOS,513,MORELOS #44 COL. CENTRO. ENTRE OBREGON Y LEANDRO VALLE C.P. 45500,,TLAQUEPAQUE,JALISCO,,MEXICO,(33) 3639-5387,20.64024,-103.31038,Lun - Sab de 9:30 a 20:00 Dom de 10:00 a 17:00,,,
18 DE MARZO,723,18 DE MARZO #195-A COL. SAN PEDRITO. ENTRE POZA RICA Y PETROLEOS MEXICANOS C.P. 45625,,TLAQUEPAQUE,JALISCO,,MEXICO,(33) 3600-3585,20.61230,-103.28552,Lun - Sab de 10:00 a 20:00 Dom 10:00 a 16:00,,,
PLAZA FORUM,979,BLVD. MARCELINO GARCIA BARRAGAN #2077 COL. PRADOS DEL NILO. ENTRE RIO NILO Y CALLE ATOR C.P. 44840,,TLAQUEPAQUE,JALISCO,,MEXICO,(33) 3659-8027,20.64712,-103.31937,Lun - Sab de 11:00 a 20:30 Dom de 11:00 a 20:00,,,
GONZALEZ,272,BLVD. LIC. ANACLETO GLEZ. #393 COL. SAN MIGUEL. ESQ. CON ZARAGOZA C.P. 47600,,TEPATITLAN,JALISCO,,MEXICO,(378) 781-0206 781-0207,20.48567,-102.45923,Lun - Sab de 09:30 a 20:00  Dom de 09:30 a 17:00,,,
5 DE MAYO,989,5 DE MAYO #4 COL. CENTRO. ENTRE VENUSTIANO CARRANZA Y MIGUEL HIDALGO C.P. 47200,,TEOCALTICHE,JALISCO,,MEXICO,(346) 787-9148,21.26143,-102.34312,Lun - Sab de 10:00 a 20:30 Dom de 11:00 a 15:00,,,
TEQUILA,1160,"CARRETERA INTERNACIONAL #100, COLONIA OBRERA, C.P. 44820",,TEQUILA,JALISCO,,MEXICO,(374) 742-4706,20.88594,-103.83402,Lun - Sab de 10:00  a 20:00  y Dom de 09:00  a 17:00,,,
SIXTO GORJON,687,SIXTO GORJON #111 COL. CENTRO. ENTRE GUADALUPE VICTORIA Y GRAL. ARTEAGA C.P. 46400,,TEQUILA,JALISCO,,MEXICO,(374) 742-4712,20.52595,-103.50093,Lun - Sab de 10:00 a 20:00 Dom de 09:00 a 17:00,,,
MORELOS,1127,"CALLE MORELOS #2 COLONIA CENTRO, C.P. 49340",,TAPALPA,JALISCO,,MEXICO,(343) 432-0521,19.94480,-103.75719,Lun - Sab de 10:00 a 20:30 Dom de 10:00 a 17:00,,,
MADERO,36,JARDIN MADERO #16 COL. CENTRO. ENTRE B. DOMINGUEZ Y A. OBREGON C.P. 99000,,FRESNILLO,ZACATECAS,,MEXICO,(493) 932-8266,23.17453,-102.86818,Lun - Sab de 10:00 a 20:30 Dom 10:00 a 16:00,,,
MORELOS,538,MORELOS #2 NORTE COL. CENTRO. ENTRE JUAREZ Y REFORMA C.P. 99000,,FRESNILLO,ZACATECAS,,MEXICO,(493) 932-0993,23.17564,-102.87100,Lun - Sab de 10:00 a 20:30 Dom 10:00 a 16:00,,,
PINO SUAREZ,375,PINO SUAREZ #9 COL. CENTRO. ENTRE FUNDACION Y IGNACIO ALLENDE C.P. 36100,,SILAO,GUANAJUATO,,MEXICO,(472) 723-2424 723-2597,20.94589,-101.42735,Lun - Sab de 10:00 a 20:30 Dom de 10:00 a 16:00,,,
GALERIAS,474,BLVD. URIANGATO #240 COL. CENTRO. ENTRE PLAYA AZUL Y CIRCUNVALACION C.P. 38980,,URIANGATO,GUANAJUATO,,MEXICO,(445) 453-2711,20.12144,-101.17803,Lun - Sab 10:30 a 20:30  Dom de 11:00 a 20:30,,,
CONSTELACION,1010,BOULEVARD VALLE DE SANTIAGO #S/N COL. CONSTELACION. ENTRE COMUNICACION NORTE Y VILLAGRAN C.P. 36796,,SALAMANCA,GUANAJUATO,,MEXICO,(464) 641-5894,20.55699,-101.20213,Lun - Sab de 10:30 a 20:30 Dom de 11:00 a 19:00,,,
SANCHEZ TORRADO,320,SANCHEZ TORRADO #601 COL. CENTRO. ENTRE SAN ANTONIO Y SAN GONZALO C.P. 36700,,SALAMANCA,GUANAJUATO,,MEXICO,(464) 647-7953,20.57474,-101.19919,Lun - Sab de 10:00 a 20:00 Dom de 10:00 a 17:00,,,
JUAREZ,521,JUAREZ #201 COL. CENTRO. ENTRE ZARAGOZA Y ALVINO GARCIA C.P. 36700,,SALAMANCA,GUANAJUATO,,MEXICO,(464) 648-7505,20.56894,-101.19788,Lun - Sab de 10:00 a 20:00 Dom de 10:00 a 17:00,,,
ABASOLO,660,ABASOLO #209 COL. CENTRO. ENTRE 5 DE MAYO Y SANCHEZ TORRADO C.P. 36700,,SALAMANCA,GUANAJUATO,,MEXICO,(464) 647-7770,20.57251,-101.19940,Lun - Sab de 9:00 a 19:00 Dom de 10:00 a 16:00,,,
ALLENDE,786,ALLENDE #1 COL. CENTRO. ENTRE ECHEVERRIA Y BENITO JUAREZ C.P. 36200,,ROMITA,GUANAJUATO,,MEXICO,(432) 758-0470,20.87212,-101.51609,Lun - Sab de 09:30 a 20:00 Dom 11:00 a 16:00,,,
HIDALGO,460,HIDALGO #17 COL. CENTRO. ESQ. CON EMILIANO CARRANZA C.P. 36900,,PENJAMO,GUANAJUATO,,MEXICO,(469) 692-7470,20.42982,-101.72357,Lun - Sab de 9:30 a 20:00  Dom de 9:30 a 15:30,,,
ABASOLO,696,ABASOLO #7 COL. CENTRO. ENTRE ALDAMA Y JARDIN ANA MARIA GALLAGA C.P. 36900,,PENJAMO,GUANAJUATO,,MEXICO,(469) 692-4866,20.43083,-101.72303,Lun - Sab de 9:30 a 20:00 Dom de  9:30 a 15:00,,,
HIDALGO,735,AV. HIDALGO #52-B COL. CENTRO. ENTRE ABASOLO Y OBREROS LIBRES C.P. 38800,,MOROLEON,GUANAJUATO,,MEXICO,(445) 458-2829,20.13298,-101.18806,Lun - Sab de 10:00 a 20:00 Dom de 10:00 a 17:00,,,
CENTRO MAX,100,BLVD. ADOLFO LOPEZ MATEOS #2518 COL. JARDINES DE JEREZ. ENTRE PASEO DE JEREZ Y TORRES LANDA C.P. 37530,,LEON,GUANAJUATO,,MEXICO,(477) 771-7300 771-7302,21.09957,-101.63563,Lun - Sab  de 11:00 a 21:00  Dom de 11:00 a 20:00,,,
ECHEVESTE,1024,BLVD.MIGUEL HIDALGO #3018 COL. ECHEVESTE. ENTRE ESQUNA CON BOULEVARD JOSE MARIA MORELOS C.P. 37100,,LEON,GUANAJUATO,,MEXICO,(411) 775-2991,21.17599,-101.66412,Lun - Sab de 10:30 a 21:00 Dom de 10:00 a 15:00,,,
PLAZA PRINCIPAL,111,PLAZA PRINCIPAL #104 COL. CENTRO. ENTRE 5 DE FEBRERO Y ALVARO OBREGON C.P. 37000,,LEON,GUANAJUATO,,MEXICO,(477) 713-2992 713-8356,21.12227,-101.68302,Lun - Sab 10:00 a 21:00 Mar - Vie 10:00 a 20:30 Dom 11:00 a 16:00,,,
SAN JUAN BOSCO,1115,"BLVD. SAN JUAN BOSCO #2111 COLONIA CRUZ DE LAS HILAMAS, C.P. 37750",,LEON,GUANAJUATO,,MEXICO,(477) 197-0566,21.13532,-101.71853,Lun - Sab de 10:30 a 21:00  Dom 11:00 16:00,,,
OBREGON,112,"ALVARO OBREGON #214 COL. CENTRO, ENTRE 20 DE ENERO Y MIGUEL HIDALGO C.P. 37000",,LEON,GUANAJUATO,,MEXICO,(477) 713-0555,21.12405,-101.68302,Lun - Sab de 10:00 a 21:00 Dom 11:00 a 15:00  Mar - Vie 10:00 a 20:30,,,
OBELISCO,180,BLVD. HILARIO MEDINA #2001 COL. REAL PROVIDENCIA. ENTRE BLVD. VALTIERRA Y BLVD. SATURNO C.P. 37260,,LEON,GUANAJUATO,,MEXICO,(477) 764-1443 764-1444,21.13174,-101.65848,Lun - Sab de 10:30 a 21:00 y Dom de 11:00 a 16:00,,,
PLAZA SATELITE,246,BLVD. JUAN JOSE TORRES LANDA #1701 COL. LOMAS DE LA PISCINA. ESQ. BLVD. MIGUEL DE CERVANTES C.P. 37440,,LEON,GUANAJUATO,,MEXICO,(477) 778-2175 778-4042,21.10076,-101.71022,Lun - Sab 10:30 a 21:00 y Dom de 11:00 a 16:00,,,
MARAVILLA,278,BLVD. JUAN ALONSO DE TORRES #3702 COL. LEON I. ESQ. CON BLVD. JOSE MA MORELOS C.P. 37235,,LEON,GUANAJUATO,,MEXICO,(477) 772-1265 772-1317,21.13939,-101.63327,Lun - Sab de 10:30 a 21:00  Dom 11:00 a 16:00,,,
RIO MAYO,372,AV. RIO MAYO #6001 COL. LOMAS DE JEREZ. ENTRE VOLCAN DE JORULLO Y PASEO DEL JEREZ C.P. 37538,,LEON,GUANAJUATO,,MEXICO,(477) 148-8007,21.08293,-101.64012,Lun - Sab de 10:30 a 21:00  Dom de 11:00 a 15:00,,,
REFORMA,58,PINO SUAREZ #226 COL. CENTRO. ENTRE REFORMA Y BELISARIO DOMINGUEZ C.P. 37000,,LEON,GUANAJUATO,,MEXICO,(477) 713-1989,21.12015,-101.68321,Lun - Sab de 10:00 a 21:00 Mar y Vie  10:00 a 20:30 Dom 11:00 a 15:00,,,
BELISARIO DOMINGUEZ,711,BELISARIO DOMINGUEZ #417 COL. CENTRO. ENTRE MIGUEL ALEMAN Y AQUILES SERDAN C.P. 37000,,LEON,GUANAJUATO,,MEXICO,(411) 716-5749,21.12220,-101.68612,Lun - Sab de 9:00 a 20:00  Mar - Vie 9:00 19:30 Dom de 10:00 a 14:30,,,
LAS TORRES,780,BLVD. JUAN ALONSO DE TORRES #1315 COL. SAN JOSE DEL CONSUELO. ENTRE NICOLAS CALVO E BLVD. HILARIO MEDINA C.P. 37200,,LEON,GUANAJUATO,,MEXICO,(477) 776-6327,21.14590,-101.64764,Lun - Vier de 11:00 a 20:30 Sab - Dom de 11:00 a 21:00,,,
PLAZA JACARANDAS,263,AV. ARBOLEADAS #1200 COL. SAN MIGUELITO. ENTRE BLVD MARIANO J. GARCIA Y BLVD IRAPUATO C.P. 36557,,IRAPUATO,GUANAJUATO,,MEXICO,(462) 635-2455 635-2460,20.67265,101.37230,Lun - Sab de 10:30 a 21:00 Dom de 11:00 a 20:00,,,
DIAZ ORDAZ,352,BLVD. DIAZ ORDAZ #1016 COL. CENTRO. ENTRE LERDO DE TEJADA Y REVOLUCION C.P. 36500,,IRAPUATO,GUANAJUATO,,MEXICO,(462) 627-6918,20.67529,-101.33978,Lun - Sab de 09:30 a 20:00 Dom de 10:00 a 16:00,,,
LEANDRO VALLE,699,LEANDRO VALLE #470 COL. CENTRO. ENTRE BLVD. DIAZ ORDAZ Y LA FRAGUA C.P. 36500,,IRAPUATO,GUANAJUATO,,MEXICO,(462) 626-8495,20.67586,-101.34203,Lun - Sab de 9:30 a 20:00 Dom de 11:00 a 16:00,,,
CORONA,85,RAMON CORONA #155 COL. CENTRO. ENTRE PIPILA Y REVOLUCION C.P. 36500,,IRAPUATO,GUANAJUATO,,MEXICO,(462) 660-1028 660-1030,20.67157,-101.34817,Lun - Sab de 10:00 a 20:30 Dom de 10:00 a 17:00,,,
TORRES LANDA,1044,"BLVD. TORRES LANDA #305, COL. SAN SEBASTIAN, ENTRE PROLONGACION JUAREZ Y AVENIDA CENTRAL, C.P.. 37684",,GUANAJUATO,GUANAJUATO,,MEXICO,(477) 707-0242,21.10319,-101.69286,Lun - Sab de 10:30 a 21:00 Dom de 11:00 a 16:00,,,
ALHONDIGA,473,ALHONDIGA #15 COL. CENTRO. ENTRE JUAREZ Y DOS RIOS C.P. 36000,,GUANAJUATO,GUANAJUATO,,MEXICO,(473) 734-1172,21.02069,-101.25870,Lun - Sab de 10:00 a 20:30 Dom de 10:00 a 16:00,,,
JUAREZ,520,JUAREZ #71 COL. CENTRO. ENTRE AV. JUAREZ Y REFORMA C.P. 36000,,GUANAJUATO,GUANAJUATO,,MEXICO,(473) 732-1206,21.01744,-101.25704,Lun - Sab de 10:00 a 20:30 Dom 10:00 a 16:00,,,
HIDALGO,815,MIGUEL HIDALGO #109 COL. CENTRO. ENTRE BENITO JUAREZ Y GALEANA C.P. 36960,,CUERAMARO,GUANAJUATO,,MEXICO,(429) 694-2120,20.62730,-101.67237,Lun - Vie de 9:30 a 20:00 Dom de  9:30 a 15:00,,,
COMONFORT,1036,"CAMINO A CELAYA #18 Y 20, COL. CENTRO COMONFORT. C.P. 38200",,COMONFORT,GUANAJUATO,,MEXICO,(412) 156-3135,20.73028,-100.75904,Lun - Dom de 10:00 a 20:00,,,
HIDALGO,232,AVE. HIDALGO #840 COL. CENTRO. ENTRE MELCHOR OCAMPO Y LEANDRO VALLE C.P. 38600,,ACAMBARO,GUANAJUATO,,MEXICO,(417) 172-7112 172-7113,20.03087,-100.72082,Lun - Sab de 10:00 a 20:00 Dom de 10:00 a 18:00,,,
MELCHOR OCAMPO,690,MELCHOR OCAMPO #52 COL. CENTRO. ENTRE FCO I MADERO Y MIGUEL HIDALGO C.P. 38600,,ACAMBARO,GUANAJUATO,,MEXICO,(417) 172-8249,20.03175,-100.72036,Lun - Sab de 9:00 a 19:00 Dom de 9:00 a 17:00,,,
MORELOS,323,AV. JOSE MARIA MORALES #118 COL. CENTRO. ENTRE TELEGRAFISTAS Y CORREOS C.P. 40890,,ZIHUATANEJO,GUERRERO,,MEXICO,(755) 112-1750,17.64578,-101.55357,Lun - Dom de 10:00 a 20:00,,,
JUAREZ,792,AV. BENITO JUAREZ #10 COL. CENTRO. ENTRE PALAPAS Y LAS PALMAS C.P. 40880,,ZIHUATANEJO,GUERRERO,,MEXICO,(755) 544-7573,17.64076,-101.55542,Lun - Sab de 09:00 a 20:00 Dom de 10:00 a 16:00,,,
CUAUHTEMOC,1114,"CALLE PROLONGACION CUAUHTEMOC #2, ESQ. EL PIPILA, COL. CENTRO C.P. 41700",,OMETEPEC,GUERRERO,,MEXICO,(741) 414-8807,16.69125,-98.40820,Lun - Sab de 10:00 a 20:00 Dom de 11:00 a 20:00,,,
PLAZA CHILPANCINGO,219,"PROLONGACION BALTAZAR R. LEYVA MANCILLA. ENTRE PROSPERIDAD Y PASEO ALEJANDRO CERVANTES, C.P. 39060",,CHILPANCINGO,GUERRERO,,MEXICO,(747) 491-3011,17.54277,-99.50154,Lun - Sab de 10:00 a 20:00 Dom 11:00 a 20:00,,,
16 DE SEPTIEMBRE,571,AV. 16 DE SEPTIEMBRE #2 COL. CENTRO. ENTRE ALTAMIRANO Y 5 DE MAYO C.P. 39000,,CHILPANCINGO,GUERRERO,,MEXICO,(747) 472-2846,17.55254,-99.50051,Lun - Sab de 10:00 a 20:00 Dom 11:00 a 20:00,,,
PROGRESO,1407,"AVENIDA CUAUHTEMOC #199, LT 84-B Y 84-C, COLONIA PROGRESO,                  C.P. 39350",,ACAPULCO,GUERRERO,,MEXICO,Red Coppel 1407+Ext.,16.86065,-99.89133,Lun - Sab de 10:00 a 20:00 Dom de 11:00 a 20:00,,,
BAHIA,178,AVE. AQUILES SERDAN #509 COL. CENTRO ENTRE: HUMBOLT Y CONSTITUYENTES C.P. 39300,,ACAPULCO,GUERRERO,,MEXICO,(744) 483-3089,16.85631,-99.90359,Lun - Sab de 10:00 a 20:00 Dom 11:00 a 20:00,,,
ZAPATA,262,BLVD. VICENTE GUERRERO #652 COL. EMILIANO ZAPATA. ENTRE CALLE 2 Y CALLE 4 C.P. 39700,,ACAPULCO,GUERRERO,,MEXICO,(744) 451-9696,16.89781,-99.83135,Lun - Sab de 10:00 a 20:00 Dom 11:00 a 20:00,,,
PIE DE LA CUESTA,404,AVE. PIE DE LA CUESTA #239 COL. HOGAR MODERNO. ENTRE SECCION 22 Y MARAÑONA C.P. 39580,,ACAPULCO,GUERRERO,,MEXICO,(744) 483-1425,16.85765,-99.91513,Lun - Sab de 10:00 a 20:00 Dom de 11:00 a 20:00,,,
RENACIMIENTO,411,BLVD. VICENTE GUERRERO #305 COL. RENACIMIENTO. ENTRE ARROYO Y SECTOR 2 C.P. 39715,,ACAPULCO,GUERRERO,,MEXICO,(744) 116-1646 116-1605,16.89116,-99.83471,Lun - Sab de 10:00 a 20:00 Dom 11:00 a 20:00,,,
ESPINALILLO,570,AVE. CUAUHTEMOC #28 COL. CENTRO. ESQ. CON JAVIER MINA C.P. 39300,,ACAPULCO,GUERRERO,,MEXICO,(744) 483-9728,16.85317,-99.90623,Lun - Sab de 10:00 a 20:00 Dom 11:00 a 20:00,,,
CUAUHTEMOC,848,AV. CUAUHTEMOC #82-A COL. CENTRO. ENTRE JOSE VALDEZ AREVALO Y AV. CUCUHTEMOC C.P. 39300,,ACAPULCO,GUERRERO,,MEXICO,(744) 482-7567,16.85588,-99.90157,Lun - Sab de 10:00 a 20:00 Dom de 11:00 a 20:00,,,
LLANO LARGO,854,CARRETERA CAYACO PUERTO MARQUEZ S/N COL. LLANO LARGO. ENTRE PAROTA Y GUAMUCHIL C.P. 39906,,ACAPULCO,GUERRERO,,MEXICO,(744) 406-1420,16833147.00000,-99.81163,Lun - Sab de 10:00 a 20:00 Dom de 11:00 a 20:00,,,
LERDO,1164,"LERDO DE TEJADA PTE. #17 COL. CENTRO ZITATUARO MICHOACAN, C.P 61500",,ZITACUARO,MICHOACAN,,MEXICO,(715) 153-7516,19.43748,-100.36001,Lun - Sab de 10:00 a 20:00 y Dom 10:00 a 19:00,,,
REVOLUCION,479,AV. REVOLUCION #34 COL. CENTRO. ESQ. JOSE MA. COSS C.P. 61500,,ZITACUARO,MICHOACAN,,MEXICO,(715) 153-0236,19.43513,-100.35694,Lun - Sab de 10:00 a 20:00 Dom de 10:00 a 19:00,,,
CARDENAS,1141,"AVENIDA LAZARO CARDENAS 109 COLONIA CENTRO, C.P. 58930",,ZINAPECUARO,MICHOACAN,,MEXICO,(451) 355-2516,19.86304,-100.83771,--,,,
5 DE MAYO,195,5 DE MAYO #138 SUR COL. CENTRO. ENTRE COLON Y OCAMPO C.P. 59600,,ZAMORA,MICHOACAN,,MEXICO,(351) 515-7811,19.98513,-102.28171,Lun - Sab de 10:00 a 20:00 Dom de 10:00 a 18:00,,,
PLAZA ANA,53,CALZADA ZAMORA JACONA #1900 COL. CENTRO. ENTRE VIRREY DE MENDOZA C.P. 59800,,ZAMORA,MICHOACAN,,MEXICO,(351) 515-5297 515-8530,19.97334,-102.29550,Lun - Sab de 10:00 a 20:00 y Dom 10:00 a 18:00,,,
GUERRERO,531,MORELOS S/N COL. CENTRO. ESQ. CON GUERRERO C.P. 59600,,ZAMORA,MICHOACAN,,MEXICO,(351) 512-3678,19.98394,-102.28636,Lun - Sab de 9:00 a 20:00 y Dom de 10:00 a 16:00,,,
MADERO,806,AV. MADERO #213 SUR COL. CENTRO. ENTRE AMADO NERVO Y MELCHOR OCAMPO C.P. 59600,,ZAMORA,MICHOACAN,,MEXICO,(351) 512-3803,19.98382,-102.28637,Lun - Sab 10:00 a 20:00 y Dom de 10:00 a 18:00,,,
MORELOS,340,AV. MORELOS #442 COL. CENTRO. ENTRE ZARAGOZA Y JUAREZ C.P. 58600,,ZACAPU,MICHOACAN,,MEXICO,(436) 360-0837 360-0838,19.81654,-101.78821,Lun - Sab de 9:30 a 20:00 Dom de 10:00 a 18:00,,,
MORELOS,528,AV. MORELOS #488 COL. CENTRO. ENTRE GRAL. PUEBLITA Y GRAL. NEGRETE C.P. 58600,,ZACAPU,MICHOACAN,,MEXICO,(436) 363-1202,19.81610,-101.78733,Lun - Sab de 10:00 a 20:0 Dom 09:00 a 16:00,,,
DE LA FUENTE,487,CALZADA DE LA FUENTE #2350 COL. FUENTE DEL PARAMO. ESQ. CON CLAVEL C.P. 60630,,URUAPAN,MICHOACAN,,MEXICO,(452) 528-5807,19.41611,-102.03465,Lun - Sab de 10:00 a 20:00 Dom de 10:00 a 19:00,,,
CUPATITZIO,69,CUPATITZIO COL. CENTRO. ESQ. CON MORELOS C.P. 60000,,URUAPAN,MICHOACAN,,MEXICO,(452) 527-1663 523-0846,19.41967,-102.06307,Lun - Sab de 9:00 a 20:00 Dom de 10:00 a 14:00,,,
ALTAMIRANO,1067,ALTAMIRANO #132 COL. CENTRO. ENTRE ESQUINA SALVADOR DIAZ MIRON C.P. 60540,,TEPALCATEPEC,MICHOACAN,,MEXICO,(424) 536-1802,19.18999,-102.84525,Lun - Dom de 9:00 a 19:00,,,
MORELOS,811,MORELOS #30 COL. CENTRO. ENTRE INSURGENTES Y ZARAGOZA C.P. 59000,,SAHUAYO,MICHOACAN,,MEXICO,(353) 531-6640,20.05671,-102.72194,Lun - Sab de 10:00 a 20:00 Dom de 10:00 a 18:00,,,
CONSTITUCION,812,CONSTITUCION #148 COL. CENTRO. ENTRE BENITO JUAREZ Y ALDAMA C.P. 59000,,SAHUAYO,MICHOACAN,,MEXICO,(353) 531-8653,20.05721,-102.71988,Lun - Sab de 10:00 a 20:00 y Dom de 10:00 a 18:00,,,
VASCO DE QUIROGA,976,VASCO DE QUIROGA #7 COL. CENTRO. ENTRE AV. LAZARO CARDENAS E IGNACIO ALDAMA C.P. 58420,,QUIROGA,MICHOACAN,,MEXICO,(454) 354-2039,19.66495,-101.52345,Lun - Sab de 10:00 a 20:00 Dom de 09:30 a 17:30,,,
ITURBIDE,544,ITURBIDE #9 COL. CENTRO. ENTRE BENITO MENDOZA Y PORTAL ALLENDE C.P. 61600,,PATZCUARO,MICHOACAN,,MEXICO,(434) 342-0396,19.51452,-101.60954,Lun - Sab de 10:00 a 20:00 Dom 10:00 a 18:00,,,
CARDENAS,944,LAZARO CARDENAS #434 COL. CENTRO. ENTRE ESQUINA CON ANTIGUO CAMINO A PATZCUARO C.P. 61600,,PATZCUARO,MICHOACAN,,MEXICO,(434) 342-3530,19.53174,-101.61120,Lun - Sab de 10:00 a 20:00 Dom de 10:00 a 18:00,,,
MORELIA,1033,CALZADA VENTURA PUENTE #1843 COL. LOS VIVEROS. ENTRE LOCAL B-22 C.P. 56130,,MORELIA,MICHOACAN,,MEXICO,(443) 315-0207,19.68237,-101.17975,Lun - Dom  de 10:00 a 20:00,,,
REFORMA,1128,PASEO DE LA REPUBLICA #2150 COL. AMPLIACION ANA MARIA GALLAGA C.P. 58297,,MORELIA,MICHOACAN,,MEXICO,(443) 303-0464,19.67733,-101.23234,Lun - Dom de 10:00 a 20:00,,,
TRES PUENTES,216,AV. FCO I. MADERO #1875 COL. GERTRUDIS BOCANEGRA C.P. 58150,,MORELIA,MICHOACAN,,MEXICO,(443) 316-1968 304-0540,19.70235,-101.21233,Lun - Sab de 10:00 a 20:00 Dom de 10:00 a 17:30,,,
CARDENAS,42,LAZARO CARDENAS #316 COL. VENTURA PUENTES C.P. 58020,,MORELIA,MICHOACAN,,MEXICO,(443) 317-5564,19.69582,-101.19125,Lun - Sab de 9:30 a 20:00 Dom 10:00 a 17:00,,,
ALZATE,529,ANTONIO ALZATE #142-A COL. CENTRO. ESQ. CON VASCO DE QUIROGA C.P. 58000,,MORELIA,MICHOACAN,,MEXICO,(443) 312-7363,19.70085,-101.19010,Lun - Sab de 9:30 a 20:00 Dom de 9:30 a 19:00,,,
PLAZA MORELIA,653,"PERIFERICO, PASEO DE LA REPUBLICA #5030, COL. JARDINES DEL RINCON, ENTRE AV. ROTARISMO Y FLAMINGOS, C.P. 58270",,MORELIA,MICHOACAN,,MEXICO,(443) 333-3860,20.07507,-101.15044,Lun - Sab de 10:30 a 20:30 y Dom de 10:30 a 20:00,,,
MADERO,70,AV. MADERO #318 OTE. COL. CENTRO. ENTRE FRAY JUAN DE SAN MIGUEL Y FRAY ALONSO DE LA VERACRUZ C.P. 58000,,MORELIA,MICHOACAN,,MEXICO,(443) 313-5238,19.70279,-101.18844,Lun - Sab de 09:30 a 20:00 Dom 10:00 a 20:00,,,
ESTADIO,987,PERIFERICO PASEO DE LA REPUBLICA #3380 COL. EL LAGO. ENTRE GRAL. JERONIMO TREVIÑO Y EX-HACIENDA DE QUINCEO C.P. 58115,,MORELIA,MICHOACAN,,MEXICO,(443) 176-1568,19.72874,-101.22268,Lun - Dom de 10:00 a 20:00,,,
LIBRAMIENTO,1014,LIBRAMIENTO SUR #478 COL. CENTRO. ENTRE MOCTEZUMA Y CALLE PRINCIPAL C.P. 61250,,MARAVATIO,MICHOACAN,,MEXICO,(447) 478-4781,19.88834,-100.43953,Lun - Sab de 10:00 a 20:00 Dom de 10:00 a 19:00,,,
PLANCARTE JACONA,804,PLANCARTE S/N COL. CENTRO. ESQ. CON CONSTITUCION Y MADERO C.P. 59800,,JACONA,MICHOACAN,,MEXICO,(351) 516-6723,19.95547,-102.30542,Lun - Sab de 10:00 a 20:00 y Dom 10:00 a 18:00,,,
MORELOS,945,AVENIDA JOSE MARIA MORELOS #44 COL. LA MORITA. ENTRE VIDAL SOLIS Y CARLOS SALAZAR C.P. 61100,,HIDALGO,MICHOACAN,,MEXICO,(786) 154-9425,19.68770,-100.55132,Lun - Sab de 10:00 a 20:00 Dom de 10:00 a 19:00,,,
ANDRADE,157,CAYETANO ANDRADE #109 COL. CENTRO ENTRE AV. CONSTITUCION Y AV. JOSE MARIA COS C.P. 60600,,APATZINGAN,MICHOACAN,,MEXICO,(453) 537-5238 537-52392,19.08385,-102.35585,Lun - Dom  09:00 a 19:00,,,
CONSTITUCION,523,AV. CONSTITUCION #10-A COL. CENTRO. ENTRE FCO. MUJICA Y JOSE M. MORELOS C.P. 60600,,APATZINGAN,MICHOACAN,,MEXICO,(453) 534-0642,19.08814,-102.35437,Lun - Sab de 9:30 a 20:00 Dom de 10:00 a 14:00,,,
DEL SOL,870,BLVD. TEPIC - JALISCO #57 SUR COL. EL INDIO. ENTRE SANGANGUEY Y DATIL C.P. 63780,,XALISCO,NAYARIT,,MEXICO,(311) 211-4406,21.45217,-104.89883,Lun - Sab de 09:30 a 20:30 Dom de 09:00 a 17:00,,,
LA CANTERA,1196,Av. AGUAMILPA # 1160 ENTRE CALLE CANTERA Y LAS FLORES PLAZA LA CANTERA COLONIA VISTAS DE LA CANTERA C.P. 63173,,TEPIC,NAYARIT,,MEXICO,311- 181-3326,21.48824,-104.83185,Lun - Dom 10:00 a 20:00,,,
CIGARRERA,141,AV. INSURGENTES #615 COL. LLANITOS. ENTRE GAVIOTAS Y P. SANCHEZ C.P. 63170,,TEPIC,NAYARIT,,MEXICO,(311) 210-1381 210-1382,21.49688,-104.88294,Lun - Dom de 10:00 a 20:00,,,
PUEBLA,21,PUEBLA #133 NTE COL. CENTRO. ENTRE HIDALGO Y ZAPATA C.P. 63000,,TEPIC,NAYARIT,,MEXICO,(311) 1212-0129 1212-9999,21.50706,-104.88499,Lun - Sab de 09:00 a 20:00 Dom 09:00 a 17:00,,,
MALOLOA,25,AV. VICTORIA #62 PTE. COL. CENTRO. ENTRE VERACRUZ Y PEDRAZA C.P. 63000,,TEPIC,NAYARIT,,MEXICO,(311) 1212-6969,21.51596,-104.89093,Lun - Sab de 09:00 a 20:00 Dom 09:00 a 17:00,,,
COLOSIO,483,BLVD. LUIS DONALDO COLOSIO #680 COL. BENITO JUAREZ. ENTRE PASEO DEL LAGO Y CENTRAL PLUVIAL DEL SUBCENTRO URBANO C.P. 63195,,TEPIC,NAYARIT,,MEXICO,(311) 219-5525,21.49166,-104.86537,Lun - Dom de 11:00 a 21:00,,,
MEXICO,537,AV. MEXICO #145 COL. CENTRO. ESQ. CON HIDALGO C.P. 63000,,TEPIC,NAYARIT,,MEXICO,(311) 216-9015,21.51080,-104.89212,Lun - Sab de 09:30 a 20:00 Dom 10:00 a 14:00,,,
VERACRUZ,656,VERACRUZ #277 NTE. COL. CENTRO. ENTRE AMADO NERVO Y ZARAGOZA C.P. 63000,,TEPIC,NAYARIT,,MEXICO,(311) 217-9304,21.51287,-104.89205,Lun - Sab de 09:00 a 20:00 Dom de 09:00 a 17:00,,,
COLOSIO,790,BLVD. LUIS DONALDO COLOSIO #680 COL. BENITO JUAREZ. ENTRE PASEO DEL LAGO Y CENTRAL PLUVIAL DEL SUBCENTRO URBANO C.P. 63175,,TEPIC,NAYARIT,,MEXICO,(311) 219-5526,21.49164,-104.86538,Lun - Dom de 11:00 a 21:00,,,
MEXICO,722,MEXICO #101 COL. CENTRO. ESQ. CON MORELOS E HIDALGO C.P. 63440,,TECUALA,NAYARIT,,MEXICO,(389) 253-4006,22.39694,-105.45690,Lun - Sab de 09:00 a 19:30 Dom de 09:00 a 16:00,,,
HIDALGO,810,HIDALGO #40 PTE. COL. CENTRO. ENTRE AV. MEXICO Y GUANAJUATO C.P. 63440,,TECUALA,NAYARIT,,MEXICO,(389) 253-1259,22.39728,-105.45726,Lun - Sab de 09:00 a 19:30 Dom de 09:00 a 16:00,,,
PUEBLA,1170,"PUEBLA #27 COLONIA CENTRO,  C.P. 63620",,RUIZ,NAYARIT,,MEXICO,(319) 233-2986,21.95042,-105.14389,Lun - Sab de 8:30 a 19:30 Dom de 8:30 a 16:30,,,
JUAREZ,304,BENITO JUAREZ #96 COL. GUAYABAL. ESQ. CON JUAN ALDAMA C.P. 63700,,COMPOSTELA,NAYARIT,,MEXICO,(327) 277-0426 277-0410,21.23628,-104.89921,Lun - Sab de 09:30 a 20:00 Dom de 09:00 a 17:00,,,
PEDREGAL,383,CARRETERA TEQUISQUIAPAN-EZEQUIEL MONTES #100 KM. 15 COL. PEDREGAL. ENTRE PALMA Y OLIVO C.P. 76750,,TEQUISQUIAPAN,QUERETARO,,MEXICO,(414) 273-2961,20.52893,-99.89906,Lun - Sab de 10:00 a 20:00 Dom de 10:00 a 19:00,,,
RUIZ OBREGON,1423,"ROBERTO RUIZ OBREGON #7-B FRACCIONAMIENTO PARQUES INDUSTRIALES, C.P. 76150",,QUERETARO,QUERETARO,,MEXICO,Red Coppel 1423+Ext.,20.61423,-100.39896,--,,,
CIMANTARIO,233,AVE. DEL PARQUE #1001 COL. PLAZAS DEL SOL 3RA SECCION. ENTRE PLAZA ZIMAPAN Y CERRO DE LA BUFA C.P. 76087,,QUERETARO,QUERETARO,,MEXICO,(442) 222-7311,20.56402,-100.37478,Lun - Sab de 10:00 a 20:00 Dom 10:00 a 18:00,,,
REVOLUCION,328,AV. REVOLUCION #99 COL. EL SOL. ENTRE AV. GEISER Y PROLONGACION BERNARDO QUINTANA C.P. 76130,,QUERETARO,QUERETARO,,MEXICO,(442) 220-2556 220-2576,20.61946,-100.44047,Lun - Sab de 10:30 a 20:30 Dom de 11:00 a 19:00,,,
PLAZA CANDILES,414,AV. PROLONGACION CANDILES #204 COL. FRACC. CAMINO REAL. ENTRE CAMINO REAL Y BLVD. DE LAS AMERICAS C.P. 76190,,QUERETARO,QUERETARO,,MEXICO,(442) 299-3524 299-3525,20.54643,-100.39715,Lun - Sab de 10:30 a 20:30 Dom de 10:30 a 19:00,,,
PIE DE LA CUESTA,551,AV. PIE DE LA CUESTA #1207 COL. LOMAS DE SAN PEDRITO PEÑUELAS. ENTRE AV. TLALOC Y BLVD. DE LA NACION C.P. 76030,,QUERETARO,QUERETARO,,MEXICO,(442) 253-9398,20.63090,-100.40703,Lun - Dom de 10:00 a 20:00,,,
ZARAGOZA,59,AV. ZARAGOZA #70 PTE. COL. CENTRO. ENTRE GUERRERO Y ALLENDE C.P. 76000,,QUERETARO,QUERETARO,,MEXICO,(442) 212-5848 212-5867,20.58792,-100.39356,Lun - Sab 10:00 a 20:00 Dom 9:30 a 17:00,,,
QUINTANA,94,PROLONGACION EZEQUIEL MONTES #8 COL. SAN PABLO TECNOLOGICO. ESQ. CON BLVD. BERNARDO QUINTANA C.P. 76130,,QUERETARO,QUERETARO,,MEXICO,(442) 210-3383 210-3384,20.61511,-100.40450,Lun - Dom de 10:30 a 20:30,,,
ALMADA,678,JESUS ALMADA #119 COL. CENTRO. ENTRE MACARIO GAXIOLA Y ANGEL FLORES C.P. 80370,,NAVOLATO,SINALOA,,MEXICO,(672) 721-0495,24.76691,-107.69896,Lun - Sab de 8:30 a 19:00 Dom de 8:30 a 15:30,,,
JUAREZ,7,BENITO JUAREZ #54 NORTE COL. CENTRO. ENTRE ALMADA E HIDALGO C.P. 80370,,NAVOLATO,SINALOA,,MEXICO,(672) 721-0928,24.76601,-107.69778,Lun - Sab de 8:30 a 19:00 Dom 8:30 a 15:30,,,
MORELOS,820,MORELOS #119 COL. CENTRO. ENTRE ANGEL FLORES Y B. JUAREZ C.P. 80370,,NAVOLATO,SINALOA,,MEXICO,(672) 721-0496,24.76770,-107.69760,Lun - Sab de 8:30 a 19:00 Dom de 8:30 a 15:30,,,
BUELNA,391,CARRETERA MOCORITO-GUAMUCHIL #100 COL. CENTRO. ESQ. CON CARRETERA LOS ANGELES C.P. 80800,,MOCORITO,SINALOA,,MEXICO,(673) 735-1282,25.48017,-107.92480,Lun - Sab de 09:00 a 19:30 Dom de 09:00 16:00,,,
LAS FUENTES,183,"CARR. INTERNACIONAL #170 LOCAL F-2, ENTRE BLVD. COLOSIO Y AV. GRAL. MARTIN ESPINOZA. COL. REVOLUCION MEXICANA, C.P. 81106",,GUASAVE,SINALOA,,MEXICO,(687) 871-6209,25.58013,-108.46207,Lun - Sab de 9:00 a 19:30 Dom 9:00 a 18:00,,,
ZARAGOZA,536,IGNACIO ZARAGOZA #957 COL. CENTRO. ENTRE OBREGON Y TEOFILO NORIS C.P. 81000,,GUASAVE,SINALOA,,MEXICO,(687) 872-9866,25.55977,-108.45995,Lun - Sab de 08:30 a 19:00 Dom de 8:30 a 16:00,,,
RAFAEL BUELNA,634,RAFAEL BUELNA #105 COL. ANGEL FLORES. ESQ. CON ARTURO PEIMBERT CAMACHO C.P. 81040,,GUASAVE,SINALOA,,MEXICO,(687) 872-0464,25.56774,-108.46991,Lun - Sab de 9:00 a 20:00 Dom 9:00 a 18:00,,,
CARRASCO,8,JUAN CARRASCO #311 SUR COL. CENTRO. ENTRE GABRIEL LEYVA Y EMILIANO ZAPATA C.P. 81000,,GUASAVE,SINALOA,,MEXICO,(687) 872-2703,25.56466,-108.46314,Lun - Sab de 9:00 a 19:30 Dom de 9:00 a 18:00,,,
DE LA TORRE,9,DR. DE LA TORRE #440 SUR COL. CENTRO. ESQ. CON JUAREZ C.P. 81400,,GUAMUCHIL,SINALOA,,MEXICO,(673) 732-1378 732-1379,25.45945,-108.08564,Lun - Sab de 9:00 a 19:30 y Dom de 9:00 a 16:00,,,
HIDALGO II,106,MIGUEL HIDALGO #17 COL. CENTRO. ENTRE FCO. I. MADERO Y SEVERIANO MORENO C.P. 82400,,ESCUINAPA,SINALOA,,MEXICO,(695) 953-1141 953-1146,22.83523,-105.77530,Lun - Sab de 9:00 a 20:00 Dom 9:00 a 14:30,,,
CAMPIÑA,11,GUAMUCHIL #1870 COL. LA CAMPIÑA. ENTRE EUCALIPTO Y SABINOS C.P. 80060,,CULIACAN,SINALOA,,MEXICO,(667) 715-1905 715-3486,24.81693,-107.36578,Lun - Sab de 9:00 a 19:30 Dom de 9:00 a 18:00,,,
ANDRADE,13,ANDRADE #481 SUR COL. JORGE ALMADA. ESQ. CON JUAN JOSE RIOS C.P. 80200,,CULIACAN,SINALOA,,MEXICO,(667) 715-0354 715-4326,24.80088,-107.39123,Lun - Sab de 9:00 a 19:30 Dom 9:00 a 18:00,,,
ANGEL FLORES,2,ANGEL FLORES #245 PTE. COL. CENTRO. ENTRE RUBI Y MORELOS C.P. 80000,,CULIACAN,SINALOA,,MEXICO,(667) 715-3445,24.80871,-107.39741,Lun - Sab de 9:00 a 19:30 Dom de 9:00 a 18:00,,,
HUMAYA,204,BLVD. LOLA BELTRAN #2904 PTE. COL. HORIZONTES. ESQ. CON AV. VOLUNTAD C.P. 80054,,CULIACAN,SINALOA,,MEXICO,(667) 146-8972,24.81574,-107.42607,Lun - Sab de 9:00 a 19:30 Dom de 9:00 a 18:00,,,
PLAZA FORUM,230,BLVD. JOSE DIEGO VALADEZ #1676 COL. DESARROLLO URBANO TRES RIOS ESQ. CON BLVD. ENRIQUE SANCHEZ ALONSO C.P. 80020,,CULIACAN,SINALOA,,MEXICO,(667) 716-6214 716-6288,24.81458,-107.40099,Lun - Dom de 11:00 a 21:00,,,
BARRANCOS,239,SHILLER S/N COL. INFONAVIT BARRANCOS. ESQ. BLVD. BENJAMIN HILL C.P. 80189,,CULIACAN,SINALOA,,MEXICO,(667) 710-9616 710-9617,24.74702,-107.42667,Lun - Sab de 9:30 a 20:00 y Dom de 9:30 a 18:00,,,
ESCOBEDO,3,ESCOBEDO #190 PTE. COL. CENTRO SINALOA. ESQ. CON RUBI C.P. 80000,,CULIACAN,SINALOA,,MEXICO,(667) 753-7278,24.80636,-107.39610,Lun - Sab de 9:00 a 19:30 y Dom 9:00 a 18:00,,,
ABASTOS,392,AV. PATRIA #3146 SUR COL. LAZARO CARDENAS. ESQ. ARQ. LUIS F. MOLINA C.P. 80290,,CULIACAN,SINALOA,,MEXICO,(667) 718-9764 718-9755,24.76930,-107.37169,Lun - Sab 09:00 a 19:30 Dom 08:30 a 17:30,,,
OBREGON,4,ALVARO OBREGON #728 SUR COL. JORGE ALMADA. ESQ. CON IGNACIO RAMIREZ C.P. 80200,,CULIACAN,SINALOA,,MEXICO,(667) 759-4321,24.79816,-107.39358,Lun - Sab de 9:00 a 19:30 y Dom de 9:00 a 18:00,,,
UNIVERSITARIOS,415,AV. UNIVERSITARIOS #439 PTE. COL. DESARROLLO URBANO TRES RIOS ENTRE BLVD. ENRIQUE SANCHEZ ALONSO Y AV. OBREGON C.P. 80024,,CULIACAN,SINALOA,,MEXICO,(667) 753-7278,24.83412,-107.39867,Lun - Sab 09:00 a 19:30 Dom 09:00 a 18:00,,,
LAS TORRES,469,BLVD. LAS TORRES #6666 SUR COL. FRACC. TERRANOVA. ENTRE PASEO QUINTA DEL REY Y LOTE BALDIO C.P. 80143,,CULIACAN,SINALOA,,MEXICO,(667) 173-8472,24.76355,-107.45396,Lun - Sab de 09:30 a 20:00 Dom 09:30 a 18:00,,,
LA PRIMAVERA,490,AV. KIKI MURILLO #103 COL. DESARROLLO URBANO LA PRIMAVERA. ENTRE ISLA DEL OESTE Y CALLE DEL COMERCIO C.P. 80199,,CULIACAN,SINALOA,,MEXICO,(667) 744-0427,24.73913,-107.39310,Lun - Sab de 09:00 a 19:00,,,
PLAZA FIESTA,5,INSURGENTES #960 SUR COL. CENTRO SINALOA. ENTRE ESQ CON JAVIER MINA C.P. 80000,,CULIACAN,SINALOA,,MEXICO,(667) 714-3365,24.79514,-107.41165,Lun - Sab de 09:00 a 19:30 Dom de 09:00 a 18:00,,,
RUBI,632,DOMINGO RUBI #196 COL. CENTRO SINALOA. ESQ. CON ANGEL FLORES C.P. 80000,,CULIACAN,SINALOA,,MEXICO,(667) 716-4888,24.80881,-107.39649,Lun - Sab 9:00 a 19:30 Dom 9:00 a 18:00,,,
JUAN CARRASCO,633,AV. JUAN CARRASCO #461 COL. CENTRO SINALOA. ENTRE HIDALGO Y ANGEL FLORES C.P. 80000,,CULIACAN,SINALOA,,MEXICO,(667) 716-4434,24.80848,-107.39579,Lun - Sab de 9:00 a 19:30 Dom de 9:00 a 18:00,,,
CLOUTHIER,772,BLVD. MANUEL J. CLOUTHIER #3243 COL. LOMA LINDA. ESQ. CERRO DE LAS CUMBRES C.P. 80177,,CULIACAN,SINALOA,,MEXICO,(667) 262-0015,24.77797,-107.40753,Lun - Sab de 09:00 a 19:30 Dom de 09:00 a 18:00,,,
BENJAMIN HILL,773,BLVD. BENJAMIN HILL #3582 COL. INFONAVIT BARRANCOS. ENTRE ARTICULO 27 Y ARTICULO 115 C.P. 80189,,CULIACAN,SINALOA,,MEXICO,(667) 710-4206,24.75750,-107.42901,Lun - Sab de 09:30 a 8:00 Dom 09:30 a 18:00,,,
AMERICAS,783,CALZADA DE LAS AMERICAS #1162 COL. VILLA UNIVERSIDAD. ENTRE TIERRA Y NEPTUNO C.P. 80016,,CULIACAN,SINALOA,,MEXICO,(667) 753-8925,24.83501,-107.38480,Lun - Sab de 09:30 a 20:00 Dom de 09:30 a 18:00,,,
TIENDA VIRTUAL,800,AV. KIKI MURILLO #103 COL. DESARROLLO URBANO LA PRIMAVERA. ENTRE ISLA DEL OESTE Y CALLE DEL COMERCIO C.P. 80199,,CULIACAN,SINALOA,,MEXICO,(667) 758-9109,24.73911,-107.39301,Lun - Vie de 8:00 a 19:00 Sab de 9:00 a 13:00,,,
CAJERO OFICINAS CORPORATIVAS,932,REPUBLICA #2859 COL. RECURSOS HIDRAULICOS. ENTRE BLVD. PEDRO INFANTE Y LIBRAMIENTO C.P. 80105,,CULIACAN,SINALOA,,MEXICO,(667) 758-9975,24.79409,-107.42202,Lun - Vier 8:00 a 19:30,,,
BODEGA REMATE,950,AZTLAN #3064 COL. INDUSTRIAL PALMITO. ENTRE CRUZ MEDINA Y ESTEBAN BACA CALDERON C.P. 80160,,CULIACAN,SINALOA,,MEXICO,(667) 761-5996,24.77527,-107.43329,Lun - Vier de 08:00 a 17:00 Sab de 09:00 a 15:30 Dom de 09:00 a 13:00,,,
VALLE ALTO,966,BLVD. ALVARO DEL PORTILLO #2625 SUR COL. FRACCIONAMIENTO VALLE ALTO. ENTRE VALLE ALTO Y VALLE HUNDIDO C.P. 80050,,CULIACAN,SINALOA,,MEXICO,(667) 789-5694,24.80390,-107.46449,Lun - Sab de 09:30 a 20:00 Dom de 09:30 a 18:00,,,
MENDOZA,390,CARRETERA SALVADOR ALVARADO #81-A COL. CENTRO. ENTRE NARCISO MENDOZA Y MACARIO GAXIOLA C.P. 81600,,ANGOSTURA,SINALOA,,MEXICO,(697) 734-8232 734-8233,25.36676,-108.15368,Lun - Sab de 9:00 a 19:30 y Dom de 9:00 a 16:00,,,
AHOME,554,"CONSTITUCION #1, COL. CENTRO, ENTRE CONSTITUCION Y OLAS ALTAS, C.P. 81310",,AHOME,SINALOA,,MEXICO,(668) 863-1265,25.91866,-109.16822,Lun - Sab de 9:00 a 19:30 Dom de 9:00 a 16:00,,,
UNIVERSIDAD,355,CARRET. VIA CORTA 2 BOCAS S/N COL. CENTRO. ESQ. CON 1RO. DE NOVIEMBRE C.P. 86690,,CUNDUACAN,TABASCO,,MEXICO,(914) 336-2769,18.06935,-93.16455,Lun - Sab de 10:00 a 20:30 Dom de 10:00 a 18:00,,,
JUAREZ,156,"JUAREZ #212 COL. CENTRO, ENTRE: GREGORIO MENDEZ Y MORELOS C.P. 86300",,COMALCALCO,TABASCO,,MEXICO,(933) 334-5913,18.26339,-93.22422,Lun - Sab de 09:30 a 20:00 Dom 09:30 a 18:00,,,
PARAISO,329,GUILLERMO PRIETO #420-A OTE. COL. LOPEZ MATEOS. ESQ. CON CARRETERA PARAISO C.P. 83600,,COMALCALCO,TABASCO,,MEXICO,(933) 337-1127,18.27457,-93.21952,Lun - Sab de 10:00 a 20:30 Dom de 10:00 a 18:00,,,
MOLINA,275,"PERIFERICO CARLOS MOLINA COL. PASO Y PLAYA. ENTRE CARRETERA FEDERAL CARDENAS-HUIMANGUILLO, C.P. 86500",,CARDENAS,TABASCO,,MEXICO,(937) 372-3407,17.97468,-93.37698,Lun - Sab de 9:30am-8:00ppm Dom - de 9:30am-18:00pm,,,
BANDALA,308,ABRAHAM BAN S/N COL. CENTRO. ENTRE PLAZA HIDALGO Y AV. SANCHEZ MAGALLANES C.P. 86500,,CARDENAS,TABASCO,,MEXICO,(937) 322-5851,17.98927,-93.37802,Lun - Sab de 9:30 a 20:00 Dom de 9:30 a 18:00,,,
CARDENAS,596,MORELOS #111 COL. CENTRO. ENTRE GALEANA Y LOPEZ VELARDE C.P. 86500,,CARDENAS,TABASCO,,MEXICO,(937) 372-0214,17.99118,-93.37573,Lun - Sab de 9:30 a 20:00 Dom de 9:30 a 18:00,,,
CALLE 40,463,CALLE 40 #2002-A COL. CENTRO. ENTRE 41 Y 43 C.P. 97780,,VALLADOLID,YUCATAN,,MEXICO,(985) 856-0645,20.68941,-88.20080,Lun - Sab de 09:30 a 20:30 Dom de 10:00 a 18:00,,,
LOS REYES,973,CALLE 47 #394 COL. CENTRO. ENTRE 48 Y 50 C.P. 97700,,TIZIMIN,YUCATAN,,MEXICO,(986) 863-7431,21.14442,-88.15059,Lun - Sab de 09:30 a 20:00 Dom de 10:00 a 18:00,,,
ERMITA,1209,"CALLE 49 CON ESQUINA 46 # 91 COLONIA CENTRO, C.P. 97880",,OXKUTZCAB,YUCATAN,,MEXICO,(997) 975-0846,20.30358,-89.41654,Lun - Sab de 09:30 a 20:00 Dom de 10:00 a 18:00,,,
ORIENTE,1193,CALLE MIGUEL HIDALGO ORIENTE #35 ENTRE INDPEENDICA Y PEDRO GERNANDEZ C.P. 91660,,ZEMPOALA,VERACRUZ,,MEXICO,(296) 971-8686,19.44462,-96.40708,Lun - Sab de 09:30 a 20:00 Dom de 10:00 a 16:00,,,
ITURBIDE,805,"CARRETERA TLAXCALA-PUEBLA #77, 3RA SECCION DE ZACATELCO, COL. XOCHICALCO, ENTRE AV. ITURBIDE Y CALLE FRANCISCO SARABIA, C.P. 90740",,ZACATELCO,TLAXCALA,,MEXICO,(246) 497-0272,19.20059,-98.23854,Lun - Sab de 10:00 a 20:00 hrs Dom 11:00 a 20:00 hrs,,,
TEJADA,855,AV. LERDO DE TEJADA OTE. #10 COL. CENTRO. ENTRE AV. DEL PARQUE Y DOMINGO ATENAS C.P. 90740,,ZACATELCO,TLAXCALA,,MEXICO,(246) 497-7399,19.21513,-98.24080,Lun - Sab de 10:00 a 20:00 Dom de 11:00 a 20:00,,,
20 DE NOVIEMBRE,149,COLEGIO S/N COL. CENTRO. ESQ. AV. 20 DE NOVIEMBRE C.P. 33800,,PARRAL,CHIHUAHUA,,MEXICO,(627) 522-4414 522-4262,26.93243,-105.66425,Lun - Sab de 9:00 a 20:00 Dom de 10:00 a 14:00,,,
NIÑOS HEROES,360,AV. NIÑOS HEROES S/N COL. ALMANCENA C.P. 33800,,PARRAL,CHIHUAHUA,,MEXICO,(627) 525-4975,28.64000,-106.07760,Lun - Sab de 09:30 a 20:00 Dom de 10:00 a 17:00,,,
PARRAL,630,MACLOVIO HERRERA #10 COL. CENTRO. ENTRE GOMEZ MORIN Y CERRO DE LA CRUZ C.P. 33800,,PARRAL,CHIHUAHUA,,MEXICO,(627) 522-0285,26.93345,-105.66591,Lun - Sab de 09:00 a 20:00 Dom 10:00 a 14:00,,,
JESUS GARCIA,798,JESUS GARCIA #35 COL. CENTRO. ENTRE PALMILLA Y MINA LA NEGRITA C.P. 33800,,PARRAL,CHIHUAHUA,,MEXICO,(627) 525-7606,26.93527,-105.66740,Lun - Sab de 9:00 a 20:00 y Dom de 10:00 a 14:00,,,
CALLE CENTRAL,982,CENTRAL NORTE #S/N COL. CENTRO. ENTRE AVENIDA CENTRAL OTE. Y 1A AVENIDA NORTE OTE. C.P. 30470,,VILLAFLORES,CHIAPAS,,MEXICO,(965) 655-3679,16.23560,-93.26822,Lun - Sab de 10:00 a 20:30 Dom de 10:00 a 5:00,,,
LOS MANGUITOS,1139,"AVENIDA LUIS DONALDO COLOSIO #424 COLONIA LOS MANGUITOS, C.P. 24400",,CHAMPOTON,CAMPECHE,,MEXICO,(982) 828-2893,19.33850,-90.72652,Lun - Sab de 09:30 a 20:00 Dom de 10:00 a 18:00,,,
INDEPENDENCIA,1157,INDEPENDENCIA 207 ZONA CENTRO ENTRE CALLES MATAMOROS,,CALVILLO,AGUASCALIENTES,,MEXICO,(495) 956-3692,21.84625,-102.72028,Lun - Sab de 10:00 a 20:30 Dom de 10:00 a 16:00,,,
GALERIAS,1417,"AVENIDA INDEPENDENCIA #2351 COLONIA TROJES DE ALONSO, C.P. 20110",,AGUASCALIENTES,AGUASCALIENTES,,MEXICO,Red Coppel 1417+Ext.,21.92335,-102.29685,--,,,
PLAZA VELARIA,322,"AV. DE LOS MAESTROS #2615, LOCAL 43, ESQ. CON AV. AGUASCALIENTES. COL. NUEVA ESPAÑA, C.P. 20205",,AGUASCALIENTES,AGUASCALIENTES,,MEXICO,(449) 250-2529,21.85898,-102.31505,Lun - Sab de 10:00 a 20:30 Dom de 11:00 a 17:00,,,
PATRIA,38,JOSE MARIA CHAVEZ S/N COL. CENTRO. ESQ. CON RAYON C.P. 20000,,AGUASCALIENTES,AGUASCALIENTES,,MEXICO,(449) 915-8869 915-8984,21.87844,-102.29592,Lun - Sab de 10:00 a 20:30 Dom de 11:00 a 17:00,,,
ASUNCION,397,AV. SIGLO XXI #2302 COL. VILLA DE NTRA. SEÑORA DE LA ASUNCION. ENTRE PROLONGACION CALLES FRUTALES Y MATIAS DE LA MOTA C.P. 20126.,,AGUASCALIENTES,AGUASCALIENTES,,MEXICO,(449) 139-0592 139-0593,21.92633,-102.26736,Lun - Sab de 10:30 a 21:00 Dom de 10:00 a 16:00,,,
SAN MARCOS,49,AV. CONVENCION #2301 COL. FRACC. SAN CAYETANO. ESQ. CON CARLOS SAGREDO. C.P. 20010,,AGUASCALIENTES,AGUASCALIENTES,,MEXICO,(449) 912-4766 912-4788,21.89618,-102.30970,Lun - Sab de 10:00 a 20:30 Dom de 10:00 a 17:00,,,
RIVERO,515,AVE. JUAREZ #302 COL. CENTRO. ENTRE RIVERO Y GUTIERREZ C.P. 20000.,,AGUASCALIENTES,AGUASCALIENTES,,MEXICO,(449) 915-1509,21.88346,-102.29630,Lun - Sab de 10:30 a 21:00 Dom de 10:00 a 16:00,,,
MERCADO TERAN,525,5 DE MAYO #328 COL. CENTRO. ENTRE ADOLFO TORRES Y RIVERO G. C.P. 20000.,,AGUASCALIENTES,AGUASCALIENTES,,MEXICO,(449) 915-0080,21.88370,-102.29788,Lun - Sab de 10:00 a 20:30 Dom de 10:00 a 16:00,,,
5 DE MAYO,55,5 DE MAYO #524 COL. CENTRO. ENTRE BENJAMIN DE LA MORA Y LARREATEGUI C.P. 20000,,AGUASCALIENTES,AGUASCALIENTES,,MEXICO,(449) 916-5054 918-0577,21.88658,-102.29761,Lun - Sab de 10:00 a 20:30 Dom de 10:00 a 16:00,,,
SAN RAFAEL,1019,AV. PATRICIO TRUEBA #306 COL. BARRIO SAN RAFAEL. ENTRE VICENTE GUERRERO Y CALLE 6 C.P. 24090,,CAMPECHE,CAMPECHE,,MEXICO,(981) 812-5039,19.82542,-90.53456,Lun - Sab de 09:30 a 20:00 Dom de 10:00 a 18:00,,,
CALLE 53,751,CALLE 53 #17 COL. CENTRO. ENTRE CALLE 10 Y 12 C.P. 24000,,CAMPECHE,CAMPECHE,,MEXICO,(981) 811-0844,19.84562,-90.53545,Lun - Sab de 09:30 a 20:00 Dom de 10:00 a 18:00,,,
CALLE 10,809,CALLE 10 #325 COL. CENTRO. ENTRE 57 Y 59 C.P. 24000,,CAMPECHE,CAMPECHE,,MEXICO,(981) 816-3085,19.84507,-90.53765,Lun - Sab de 09:30 a 20:00 Dom de 10:00 a 18:00,,,
CRISTAL,264,AVE. LAS PALOMAS #5 COL. FRACC. HORTALIZAS JAPONESAS. ENTRE 10MA. Y AVE. PROLONGACION C.P. 30799,,TAPACHULA,CHIAPAS,,MEXICO,(962) 623-4221,14.87498,-92.28218,Lun - Sab de 10:00 a 20:30 Dom de 10:00 a 18:00,,,
CALLE 3,309,3TA PTE. #23 COL. CENTRO. ENTRE 2TA Y 4TA NORTE C.P. 30710,,TAPACHULA,CHIAPAS,,MEXICO,(962) 118-2813,14.90917,-92.26335,Lun - Sab de 9:30 a 20:00 Dom de 9:30 a 18:00,,,
SEXTA,585,SEXTA AVE. NORTE #33 COL. CENTRO. ENTRE TERCERA Y QUINTA PONIENTE C.P. 30700,,TAPACHULA,CHIAPAS,,MEXICO,(962) 626-4753,14.91016,-92.26436,Lun - Sab 9:30 a 20:00 y Dom de 9:30 a 18:00,,,
CENTRAL DEL NORTE,586,AVE. CENTRAL DEL NORTE #38 COL. CENTRO. ESQ. TERCERA PONIENTE C.P. 30700,,TAPACHULA,CHIAPAS,,MEXICO,(962) 626-1269,14.90854,-92.26242,Lun - Sab 09:30 a 20:00 Dom 10:00 a 18:00,,,
PLAZA GALERIAS,928,KM 2.5 CARRETERA TAPACHULA PUERTO MADERO COL. HORTENSIAS. ENTRE ESQUINA CON CALLE 7A SUR C.P. 30799,,TAPACHULA,CHIAPAS,,MEXICO,(962) 628-4456,14.87493,-92.28221,Lun - Dom de 11:00 a 21:00,,,
VELAZCO,429,DR. MANUEL VELASCO SUAREZ S/N COL. BARRIO LA ESPERANZA. ENTRE 3RA. Y 4TA. PONIENTE C.P. 29960,,PALENQUE,CHIAPAS,,MEXICO,(916) 345-2394,17.51213,-91.98914,Lun - Sab de 09:30 a 20:00 Dom de 09:30 a 18:00,,,
PERIFERICO,1008,AVENIDA PERIFERICO NORTE S/N COL. FRACCIONAMIENTO EL HERRADERO. ENTRE 6 NORTE Y 7 NORTE ORIENTE C.P. 29950,,OCOSINGO,CHIAPAS,,MEXICO,(919) 673-2494,16.91473,-92.09363,Lun - Sab de 9:30 a 20:00 Dom de 9:30 a 18:00,,,
MADERO,856,FCO. I. MADERO #19 COL. CENTRO. ENTRE GONZALEZ ORTEGA Y RAYON C.P. 30640,,HUIXTLA,CHIAPAS,,MEXICO,(964) 642-4121,15.13718,-92.46383,Lun - Sab de 09:30 a 20:00 Dom de 09:30 a 18:00,,,
CENTRAL SUR,878,CENTRAL SUR #120 COL. CENTRO. ENTRE 1RA SUR ORIENTE Y 2DA SUR PTE. C.P. 30400,,CINTALAPA,CHIAPAS,,MEXICO,(961) 684-6593,16.69664,-93.72156,Lun - Sab de 9:30 am a 8:00 pm Dom de 9:30 am a 18:00 pm,,,
OJINAGA,1197,"BLVD. LIBRE COMERCIO #1512 ENTRE CALLE JUSTO SIERRA Y AV. CUAUHTEMOC COLONICA 2 DE OCTUBRE, C.P. 32880",,OJINAGA,CHIHUAHUA,,MEXICO,(626) 453-0978,29.55036,-104.42310,Lun - Sab de 9:30 a 20:00 Dom de 10:00 a 18:00,,,
ALDAMA Y ZARAGOZA,797,PASEO IGNACIO ZARAGOZA #201 COL. CENTRO. ESQ. CON CALLE JUAN ALDAMA C.P. 33130,,MEOQUI,CHIHUAHUA,,MEXICO,(639) 473-7516,28.26819,-105.48046,Lun - Sab de 9:30 a 20:00 Dom de 10:00 a 18:00,,,
JUAREZ,1126,AVENIDA JUAREZ #319 COLONIA ANDAVAZO C.P: 33980,,JIMENEZ,CHIHUAHUA,,MEXICO,(62)-9542-4682,27.13032,-104.91691,Lun - Sab de 9:30 a 20:00 Dom de 9:00 a 16:00,,,
DEL CHARRO,1184,"PRIVADA CALZADA DEL CHARRO # 305 ORIENTE ESQUIA CON CALZADA DEL CHARRO COL. CENTRO, C.P. 33000",,DELICIAS,CHIHUAHUA,,MEXICO,Red Coppel 1184+Ext.,28.19520,-105.44813,Lun - Sab de 9:30 a 20:00 Dom de 10:00 a 18:00,,,
PRIMERA,48,AV. PRIMERA PONIENTE #201 COL. CENTRO. ENTRE AV. SEGUNDA Y TERCERA PTE. C.P. 33000,,DELICIAS,CHIHUAHUA,,MEXICO,(639) 474-6207,28.19380,-105.47437,Lun - Sab 9:30 a 20:00 Dom 10:00 a 18:00,,,
DELICIAS,522,CALZADA GOMEZ MORIN #500 COL. CENTRO. ENTRE AV. PLUTARCO ELIAS CALLES Y AV. DE LAS INDUSTRIAS C.P. 33000,,DELICIAS,CHIHUAHUA,,MEXICO,(639) 474-3175,28.18975,-105.45948,Lun - Sab de 9:30 a 20:00 Dom de 10:00 a 18:00,,,
TERCERA,629,AV. TERCERA #115 COL. CENTRO. ENTRE AV. PRIMERA Y AV. SEGUNDA C.P. 33000,,DELICIAS,CHIHUAHUA,,MEXICO,(639) 472-0844,28.19618,-105.47264,Lun - Sab de 9:30 a 20:00 Dom de 10:00 a 18:00,,,
SANTA ROSALIA,1151,"BLVD. SANTA ROSALIA S/N, COL. LAGUNITA, C.P. 33700, ENTRE JUAN ESCUTIA Y JUAN DE LA BARRERA.",,CAMARGO,CHIHUAHUA,,MEXICO,(648) 482-1198,27.68226,-105.16464,Lun - Sab de 9:30 a 20:00 Dom de 10:00 a 18:00,,,
ECHEVERRIA,315,PERIFERICO LUIS ECHEVERRIA #6301 COL. SAN RAMON C.P. 25020,,SALTILLO,COAHUILA,,MEXICO,(844) 412-9949 414-9705,25.41699,-100.97183,Lun - Sab de 10:00 a 20:00 Dom de 10:00 a 18:00,,,
CARRANZA II,35,EMILIO CARRANZA #1095 COL. CENTRO. ESQ. CON PRESIDENTE CARDENAS C.P. 25000,,SALTILLO,COAHUILA,,MEXICO,(844) 410-3659 412-3382,25.43453,-101.00549,Lun - Sab de 10:00 a 20:00 Dom 10:00 a 18:00,,,
SENDERO,412,BLVD. ANTIGUA LOS GONZALEZ #365 COL. EX HACIENDA SAN JOSE DE LOS CERRITOS. ESQ. CON VALDEZ SANCHEZ C.P. 25203,,SALTILLO,COAHUILA,,MEXICO,(844) 431-8266,25.44261,-100.95962,Lun - Dom de 11:00 a 21:00,,,
ALDAMA,51,ALDAMA #535 PTE. COL. CENTRO. ENTRE XICOTENCATL Y MANUEL ACUÑA C.P. 25000,,SALTILLO,COAHUILA,,MEXICO,(844) 410-3818 414-9202,25.42536,-101.00493,Lun - Sab de 9:30 a 20:00 Dom 10:00 a 18:00,,,
ALDAMA,647,ALDAMA #476 PTE. COL. CENTRO. ENTRE PADRE FLORES Y ACUÑA C.P. 25000,,SALTILLO,COAHUILA,,MEXICO,(844) 412-8205,25.42469,-101.00366,Lun - Sab de 9:30 a 20:00 Dom de 10:00 a 18:00,,,
PLAZA REAL,693,PERIFERICO LUIS ECHEVERRIA #1474 COL. FRACC. LOMAS DE LOURDES. ESQ. CON PROLONGACION URBIÑOLA C.P. 25000,,SALTILLO,COAHUILA,,MEXICO,(844) 418-0336,25.44324,-100.98244,Lun - Sab de 10:00 a 20:00 Dom de 11:00 a 20:00,,,
LOURDES,95,LUIS ECHEVERRIA ALVAREZ #1110 COL. MESA DE LOURDES. ESQ. CON CARRET. ZACATECAS C.P. 25070,,SALTILLO,COAHUILA,,MEXICO,(844) 417-5133 417-6267,25.39134,-101.00286,Lun - Sab de 10:00 a 20:00 Dom 10:00 a 18:00,,,
MADERO,1155,"CALLE FRANCISCO I. MADERO #512 Pte. ENTRE AMADOR CHAPA Y AV. REVOLUCION COLONIA CENTRO, C.P. 26779",,SABINAS,COAHUILA,,MEXICO,(861) 103-2166,27.85285,-101.12406,Lun - Sab de 9:30 a 20:00 Dom de 10:00 a 15:00,,,
18 DE JULIO,146,18 DE JULIO #77 COL. CENTRO. ENTRE TORRES QUINTERO Y MELCHOR OCAMPO C.P. 28100,,TECOMAN,COLIMA,,MEXICO,(313) 325-2253 325-2254,18.91181,-103.87233,Lun - Jue de 09:30 a 20:00 Vie - Sab 9:30 a 20:30 Dom de 10:00 a 17:00,,,
20 DE NOVIEMBRE,579,AV. 20 DE NOVIEMBRE #65 COL. CENTRO. ENTRE CONSTITUCION Y MEDELLIN C.P. 28100,,TECOMAN,COLIMA,,MEXICO,(313) 3326-7080,18.91001,-103.87246,Lun - Sab de 09:30 a 20:00 Dom de 9:30 a 17:30,,,
TECNOLOGICO,206,AV. MARIA AHUMADA DE GOMEZ #371 COL. CAMPESTRE. ENTRE ENRIQUE CORONA Y AV. TECNOLOGICO C.P. 28988,,COLIMA,COLIMA,,MEXICO,(312) 311-5518 311-5519,19.27312,-103.73700,Lun - Dom 10:00 a 20:00,,,
PLACETAS,380,PROLONGACION FRAY PEDRO DE GANTE #355 COL. VILLAS DEL BOSQUE. ESQ. BLVD. RODOLFO CHAVEZ CARRILLO C.P. 28050,,COLIMA,COLIMA,,MEXICO,(312) 307-0335,19.24276,-103.73746,Lun - Sab de 09:30 a 20:00 Dom de 9:30 a 17:00,,,
COLIMA,52,BLVD. RODOLFO CHAVEZ CARRILLO #501 COL. PLACETAS ESTADIO. ENTRE FRAY PEDRO DE GANTE Y LAZARO CARDENAS C.P. 28050,,COLIMA,COLIMA,,MEXICO,(312) 2314-4640 2314-1059,19.24440,-103.74097,Lun - Sab de 09:30 a 20:00 Dom 10:00 a 17:00,,,
MADERO,65,FCO. I. MADERO #279 COL. CENTRO. ENTRE GRAL. NUÑEZ E IGNACIO SANDOVAL C.P. 28000,,COLIMA,COLIMA,,MEXICO,(312) 2314-5289 2314-8630,19.24019,-103.72287,Lun - Mie de 09:30 a 20:00 Jue- Sab de 9:30 a 20:30 Dom de 10:00 a 16:00,,,
VILLA VIVERO,444,BLVD. MIGUEL ALEMAN #1207 COL. CENTRO. ENTRE MIGUEL AUZA Y CALLE DEL VIVERO C.P. 35150,,LERDO,DURANGO,,MEXICO,(871) 725-5223,25.55398,-103.50637,Lun - Sab 9:30 a 20:00 Dom 10:00 a 16:00,,,
JARDINES,129,MAGNOLIA #102 COL. FRACC. JARDINES DE DURANGO. ENTRE BLVD. FRANCISCO VILLA Y CALLE LIRIOS C.P. 34200,,DURANGO,DURANGO,,MEXICO,(618) 129-7284 129-7283,24.04377,-104.63127,Lun - Sab 9:30 a 20:00 Dom 10:00 a 18:00,,,
5 DE FEBRERO,172,5 DE FEBRERO #615 PTE. COL. CENTRO. ENTRE CONSTITUCION Y JUAREZ C.P. 34000,,DURANGO,DURANGO,,MEXICO,(618) 813-2849 813-2866,24.02333,-104.67041,Lun - Sab de 09:30 a 20:00 Dom 10:00 a 18:00,,,
PATONI,23,PATONI #204 SUR COL. CENTRO. ENTRE 20 DE NOV. Y NEGRETE C.P. 34000,,DURANGO,DURANGO,,MEXICO,(618) 811-6135,24.02589,-104.66680,Lun - Sab de 9:30 a 20:00 Dom de 10:00 a 18:00,,,
PLAZA MADERO,235,GONZALEZ DE LA VEGA #302 COL. CENTRO. ENTRE BLVD. DOMINGO ARRIETA Y PLAN DE SAN LUIS C.P. 34159,,DURANGO,DURANGO,,MEXICO,(618) 837-0963 837-0964,24.00780,104.66386,Lun - Sab 09:30 a 20:00 Dom 10:00 a 18:00,,,
ALAMEDA,61,FCO. I. MADERO #629 SUR COL. CENTRO. ENTRE DOLORES DEL RIO Y BACA ORTIZ C.P. 34000,,DURANGO,DURANGO,,MEXICO,(618) 811-3030 825-4108,24.02027,-104.66785,Lun - Sab 9:30 a 20:00 Dom 10:00 a 18:00,,,
PASTEUR,631,PASTEUR #400 COL. CENTRO. ESQ. CON 5 DE FEBRERO C.P. 34000,,DURANGO,DURANGO,,MEXICO,(618) 811-2668,24.02369,-104.66738,Lun - Sab de 09:30 a 20:00 Dom 10:00 a 18:00,,,
EJERCITO,158,AV. EJERCITO MEXICANO #717 COL. CENTRO. ENTRE PRIVADA ESTADIO Y AYUNTAMIENTO C.P. 89137,,TAMPICO,TAMAULIPAS,,MEXICO,(833) 213-7002 213-71002,22.25045,-97.86504,Lun - Vie de 10:30 a 20:30 Sab de 10:00 a 21:00 Dom 10:00 a 19:00,,,
CARRANZA,665,CARRANZA #201 COL. CENTRO. ENTRE OLMOS Y JUAREZ C.P. 89000,,TAMPICO,TAMAULIPAS,,MEXICO,(833) 212-5989,22.22163,-97.87994,Lun - Vie de 10:00 a 20:30 Sab de 10:00 a 21:00 Dom 10:00 a 19:00,,,
AEROPUERTO,667,CARRETERA TAMPICO MANTE #6905 COL. FCO. JAVIER MINA. ENTRE BLVD. ADOLFO LOPEZ MATEOS Y PUEBLA C.P. 89318,,TAMPICO,TAMAULIPAS,,MEXICO,(833) 228-7538,-48.45000,-97.00000,Lun - Vie de 10:00 a 20:30 Sab de 10:00 a 21:00 Dom 10:00 a 19:00,,,
DIAZ MIRON,74,DIAZ MIRON #314 COL. CENTRO. ENTRE ADUANA Y JUAREZ C.P. 89000,,TAMPICO,TAMAULIPAS,,MEXICO,(833) 212-9860 214-3509,22.24488,-97.83078,Lun - Vie de 09:30 a 20:00 Sab 9:30 a 21:00 Dom de 9:30 a 19:00,,,
AEROPUERTO,91,CARRETERA TAMPICO-MANTE #6095 COL. FCO. JAVIER MINA. ENTRE BLVD. ADOLFO LOPEZ MATEOS Y PUEBLA C.P. 89318,,TAMPICO,TAMAULIPAS,,MEXICO,(833) 228-4883,22.29829,-97.87559,Lun - Vie de 10:00 a 20:30 Sab de 10:00 a 21:00 Dom de 10:00 a 19:00,,,
LAS FUENTES,1117,"BLVD. HIDALGO #101, COL. LAS FUENTES, ENTRE CALLE FUENTE DE DIANA Y CALLE ORIENTE 2, C.P. 88710",,REYNOSA,TAMAULIPAS,,MEXICO,(899) 925-9316,26.07457,-98.31750,Lun - Sab de 10:00 a 20:00 Dom de 10:00 a 18:00,,,
MORELOS,121,BLVD. MORELOS #1005 COL. SANTA FE. ENTRE CLUB DE LEONES Y 5 DE MAYO C.P. 88758,,REYNOSA,TAMAULIPAS,,MEXICO,(899) 926-1200,26.05479,-98.29348,Lun - Sab de 10:00 a 20:00 Dom de 10:00 a 18:00,,,
HIDALGO,122,BLVD. MIGUEL HIDALGO #155 COL. LAS FUENTES ESQ. CON ELIAS PIÑA C.P. 88740,,REYNOSA,TAMAULIPAS,,MEXICO,(899) 925-5178 925-5179,26.07529,-98.31447,Lun - Sab de 10:00 a 20:00 Dom de 10:00 a 18:00,,,
PERIFERICO,598,"LIBRAMIENTO SUR REYNOSA. ENTRE HIDALGO Y AV. DE LOS EBANOS, COL. LOMAS DE REAL DE JARACHINAS NORTE, C.P. 88730",,REYNOSA,TAMAULIPAS,,MEXICO,(899) 946-8623,26.08405,-98.29601,Lun - Sab de 10:00 a 20:00 Dom de 10:00 a 18:00,,,
HIDALGO,664,HIDALGO #705 COL. CENTRO. ENTRE GUERRERO Y MATAMOROS C.P. 88500,,REYNOSA,TAMAULIPAS,,MEXICO,(899) 922-0993,26.05415,-98.36450,Lun - Sab de 09:00 a 19:00 Dom 10:00 a 18:00,,,
PLAZA REAL,710,BLVD. HIDALGO #101 COL. FRACC. LAS FUENTES. ENTRE BLVD. LAS FUENTES Y FUENTES DE DIANA C.P. 88710,,REYNOSA,TAMAULIPAS,,MEXICO,(899) 924-9273,26.07457,-98.31749,Lun - Sab de 10:00 a 20:00 Dom de 10:00 a 18:00,,,
RIBEREÑA,756,BLVD. LOS VIRREYES #1100 COL. FRACC. COUNTRY. ESQ. CON JOSEFINA MENCHACA C.P. 88620,,REYNOSA,TAMAULIPAS,,MEXICO,(899) 925-8963,26.08799,-98.30185,Lun - Sab de 10:00 a 20:00 Dom de 10:00 a 18:00,,,
HIDALGO,857,CARRETERA MONTERREY - REYNOSA #1000 COL. LOMAS REAL DE JARACHINA SUR. ENTRE LIBRAMIENTO SUR Y LIBRAMIENTO C.P. 88710,,REYNOSA,TAMAULIPAS,,MEXICO,(899) 946-8863,26.05415,-98.36450,Lun - Dom de 10:00 a 20:00,,,
JUAREZ,891,JUAREZ #901 COL. CENTRO. ENTRE MORELOS Y ZARAGOZA C.P. 88500,,REYNOSA,TAMAULIPAS,,MEXICO,(899) 922-1669,26.05576,-98.29308,Lun - Sab de 9:00 a 19:00 Dom de 10:00 a 18:00,,,
CITADINA,967,CARRETERA A SAN FERNANDO KM 2.5 S/N COL. PARQUE INDUSTRIAL STIVA. ENTRE ESQUINA CON AV. ALCALA C.P. 88796,,REYNOSA,TAMAULIPAS,,MEXICO,(899) 902-6196,26.00744,-98.27620,Lun - Sab de 10:00 a 20:00 Dom de 10:00 a 18:00,,,
PUERTO INDUSTRIAL,917,AV. PUERTO INDUSTRIAL #250 COL. CENTRO. ESQ. CON BLVD. ALLENDE C.P. 89600,,ALTAMIRA,TAMAULIPAS,,MEXICO,(833) 162-2895,22.39811,-97.92751,Lun - Vie de 09:30 a 20:00 Sab de 09:30 a 20:30 Dom de 09:30 a 18:30,,,
ZITLALPOPOCATL,438,ZITLALPOPOCATL #10 COL. CENTRO. ENTRE LIRA Y ORTEGA Y BENITO JUAREZ C.P. 90000,,TLAXCALA,TLAXCALA,,MEXICO,(246) 466-7656,19.32007,-98.23629,Lun - Sab de 10:00 a 20:00 Dom de 11:00 a 20:00,,,
OCOTLAN,580,BLVD. OCOTLAN #20 COL. CENTRO. ENTRE GABINO PALMA Y CALLE DE LA ROSA C.P. 90100,,TLAXCALA,TLAXCALA,,MEXICO,(246) 466-1030,19.31130,-98.23684,Lun - Sab de 10:00 a 20:00 Dom de 11:00 a 20:00,,,
MORELOS,493,AV. MORELOS #110 COL. CENTRO. ENTRE REFORMA NORTE Y JUAREZ NORTE C.P. 90500,,HUAMANTLA,TLAXCALA,,MEXICO,(247) 472-0890,19.31480,-97.92346,Lun - Sab de 10:00 a 20:00 Dom de 11:00 a 20:00,,,
JUAREZ SUR,895,AV. JUAREZ SUR #103 COL. CENTRO. ENTRE ZARAGOZA Y PARQUE JUAREZ C.P. 90500,,HUAMANTLA,TLAXCALA,,MEXICO,(247) 102-5037,19.31261,-97.92225,Lun - Sab de 10:00 a 20:00 Dom de 11:00 a 20:00,,,
PORTAL HIDALGO,1146,"CALLE HIDALGO #4 ENTRE NICOLAS BRAVO Y RIVAPALACIOS, C.P. 90200",,CALPULALPAN,TLAXCALA,,MEXICO,(749) 918-1819,19.58827,-98.57187,Lun - Sab de 10:00 a 20:00 Dom de 11:00 a 20:00,,,
MOTOLINIA,898,AV. MORELOS #47 COL. CENTRO. ESQ. MOTOLINIA C.P. 90200,,CALPULALPAN,TLAXCALA,,MEXICO,(749) 918-2021,19.58623,-98.56726,Lun - Sab de 10:00 a 20:00 Dom de 11:00 a 20:00,,,
16 DE SEPTIEMBRE,1011,BLVD.16 DE SEPTIEMBRE #1202 COL. CENTRO. ENTRE ESQUINA CON AVENIDA 20 DE NOVIEMBRE C.P. 90300,,APIZACO,TLAXCALA,,MEXICO,(241) 418-3614,19.41320,-98.13530,Lun - Sab de 10:00 a 20:00 Dom de 11:00 a 20:00,,,
INDEPENDENCIA,1142,"AV. FCO. I MADERO #130 COLONIA SAN MIGUEL , C.P. 90337",,APIZACO,TLAXCALA,,MEXICO,(241) 418-3805,19.41722,-98.14777,Lun - Sab de 10:00 a 20:00 Dom de 11:00 a 20:00,,,
PLAZA APIZACO,1228,"CARRETERA FEDERAL APIZACO - HUAMANTLA, COLONIA FERROCARRILERA, C.P 90300",,APIZACO,TLAXCALA,,MEXICO,(241) 418-5292,19.41159,-98.13267,Lun - Jue 10:00 a 20:00 Vie- Sab 11:00 a 21:00  Dom 11:00 a 20:00,,,
2 DE ABRIL,698,2 DE ABRIL #207 COL. CENTRO. ENTRE HIDALGO Y CUAUHTEMOC C.P. 90300,,APIZACO,TLAXCALA,,MEXICO,(241) 113-0942,19.41455,-98.14044,Lun - Sab de 10:00 a 20:00 Dom de 11:00 a 20:00,,,
GUERRERO,1130,"AV. VICENTE GUERRERO #190 COL. CENTRO, ENTRE BENITO JUAREZ Y JOSEFA ORTIZ DE DOMINGUEZ, C.P. 91240",,XICO,VERACRUZ,,MEXICO,(228) 1296724,19.42304,-97.01011,Lun - Sab de 10:00 a 20:30 Dom de 11:00 a 17:00,,,
PONTI,1098,"BLVD. DE LOS PATOS #1109, ENTRE AV. DE LOS PATOS Y LOS PAJAROS, COL. EL PALMAR PICA PICA, C.P. 91808",,VERACRUZ,VERACRUZ,,MEXICO,(229) 156-1181,19.21060,-96.22358,Lun - Sab de 10:30 a 20:30 Dom de 11:00 a 20:00,,,
NUCLEO DEPORTIVO,1102,"CALLE 16 #666, COL. POSITOS Y RIVERA, ENTRE ECHEVEN Y HERNAN CORTEZ, C.P. 91729",,VERACRUZ,VERACRUZ,,MEXICO,(229) 972-3311,19.17960,-96.15569,Lun - Sab de 10:30 a 20:30 Dom de 11:00 a 20:00,,,
HIDALGO,160,MIGUEL HIDALGO #953 COL. CENTRO. ENTRE HERNAN CORTES Y FCO. CANAL C.P. 91700,,VERACRUZ,VERACRUZ,,MEXICO,(229) 932-2099,19.19420,-96.13845,Lun - Sab de 10:00 a 20:30 Dom de 10:00 a 16:00,,,
DIAZ MIRON,171,AV. SALVADOR DIAZ MIRON #506-A COL. CENTRO. ENTRE PASO TRONCOS Y URIBE C.P. 91700,,VERACRUZ,VERACRUZ,,MEXICO,(229) 932-1489,19.19126,-96.13493,Lun - Sab de 9:30 a 20:00 Dom de 10:00 a 16:00,,,
LOS PINOS,177,RAFAEL CUERVO #60 COL. PLAYA LINDA. ENTRE PLAYA DEL REY Y PALMA SOLA C.P. 91810,,VERACRUZ,VERACRUZ,,MEXICO,(229) 980-9139,19.21484,-96.17318,Lun - Sab 10:30 a 20:30 Dom 11:00 a 20:00,,,
ALLENDE,439,AV. ALLENDE #2360 COL. CENTRO. ESQ. CON CARLOS CRUZ C.P. 91700,,VERACRUZ,VERACRUZ,,MEXICO,(229) 932-4821,19.19016,-96.13881,Lun - Sab de 10:00 a 20:30 Dom de 10:00 a 16:00,,,
HIDALGO,541,HIDALGO #1201 COL. CENTRO. ENTRE CAÑONERO TAMPICO Y JUAN SOTO C.P. 91700,,VERACRUZ,VERACRUZ,,MEXICO,(229) 955-0262,19.19244,-96.13703,Lun - Sab de 10:00 a 20:00 Dom de 10:00 a 19:00,,,
INDEPENDENCIA,614,INDEPENDENCIA #675 COL. CENTRO. ESQ. CON ESTEBAN MORALES C.P. 91700,,VERACRUZ,VERACRUZ,,MEXICO,(229) 931-5391,19.19765,-96.13676,Lun - Sab de 10:00 a 20:00 Dom de 10:00 a 19:00,,,
DIAZ MIRON,671,PROLONGACION DIAZ MIRON #410 COL. NUEVA ERA. ENTRE TRES Y CUATRO C.P. 91920,,VERACRUZ,VERACRUZ,,MEXICO,(229) 922-6184,19.16056,-96.13114,Lun - Sab de 10:00 a 20:00 Dom de 10:00 a 19:00,,,
MATAMOROS,766,AV. MATAMOROS #1062 COL. LOS PINOS. ENTRE CARMEN PEREZ Y J.B. FLORES C.P. 91870,,VERACRUZ,VERACRUZ,,MEXICO,(229) 165-1364,19.20429,-96.16135,Lun - Sab de 10:00 a 20:00 Dom de 10:00 a 19:00,,,
DIAZ MIRON II,835,AV. DIAZ MIRON #316 COL. CENTRO. ENTRE ABASOLO Y TRONCOSO C.P. 91700,,VERACRUZ,VERACRUZ,,MEXICO,(229) 955-0229,19.16056,-96.13114,Lun - Sab de 10:00 a 20:00 Dom de 10:00 19:00,,,
PLAZA PATIO TEJERIA,958,CARRETERA XALAPA VERACRUZ #S/N COL. BRUNO PAGLIAI PARQUE INDUSTRIAL. ENTRE AVE. DE LA FIDELIDAD Y ORIENTE C.P. 91697,,VERACRUZ,VERACRUZ,,MEXICO,(229) 981-1334,19.16748,-96.22386,Lun - Sab de 10:00 a 20:00 Dom de 11:00 a 20:00,,,
ATENAS,1086,"AV. ATENAS VERACRUZANA #1101, ENTRE MARTIN DE VALENCIA Y VALENTIN CANALIZO, COL. REVOLUCION, C.P. 91100",,XALAPA,VERACRUZ,,MEXICO,(228) 842-9271,19.56797,-96.91737,Lun - Sab de 10:00 a 20:30 Dom de 11:00 a 17:00,,,
JUAREZ,287,JUAREZ #40 COL. CENTRO. ENTRE DR. LUCIO Y FCO. I. MADERO C.P. 91000,,XALAPA,VERACRUZ,,MEXICO,(228) 820-3503,19.56240,-96.90063,Lun - Sab de 10:30 a 20:30 Dom de 11:00 a 17:00,,,
LAZARO CARDENAS,377,AV. LAZARO CARDENAS #388 COL. EL ENCINAL. ENTRE ANTONIO CHEDRAUI CARAM Y PROLONGACION PIPILA C.P. 91157,,XALAPA,VERACRUZ,,MEXICO,(228) 840-2373,19.54078,-96.90754,Lun - Vie de 10:00  a 20:30 Dom de 11:00 a 20:00,,,
DR. LUCIO,605,DR. LUCIO #52 COL. CENTRO. ENTRE JUAREZ Y ALTAMIRANO C.P. 91000,,XALAPA,VERACRUZ,,MEXICO,(228) 817-2936,19.52930,-96.92239,Lun - Sab de 10:30 a 20:30 Dom de 11:00 a 19:00,,,
REVOLUCION,606,REVOLUCION #163 COL. CENTRO. ENTRE G. VICTORIA Y POETA JESUS DIAZ C.P. 91000,,XALAPA,VERACRUZ,,MEXICO,(228) 812-4399,19.53233,-96.92361,Lun - Sab de 10:00 a 20:30 Dom 11:00 a 17:00,,,
URSULO GALVAN,728,URSULO GALVAN #201 COL. CENTRO. ENTRE GALEANA Y AYUNTAMIENTO C.P. 91000,,XALAPA,VERACRUZ,,MEXICO,(228) 841-4457,19.52588,-96.93110,Lun - Sab de 10:00 a 20:30 Dom de 11:00 a 17:00,,,
ATENAS,729,AV. ATENAS VERACRUZANAS #801 COL. REVOLUCION. ENTRE PLUTARCO ELIAS CALLES Y JOSE CORZO C.P. 91100,,XALAPA,VERACRUZ,,MEXICO,(228) 842-9133,19.56900,-96.91747,Lun - Sab de 10:00 a 20:30 Dom de 11:00 a 17:00,,,
GRAN PATIO XALAPA,919,AV. CIRCUITO RAFAEL GUIZAR Y VALENCIA. #900 COL. RESERVA TERRITORIAL C.P. 91096,,XALAPA,VERACRUZ,,MEXICO,(228) 168-1149,19.56900,-96.91747,Lun - Sab de 11:00 a 21:00 Dom de 11:00 a 20:00,,,
HIDALGO,1048,"HIDALGO #120 COL. CENTRO, ENTRE AV. LLAVE Y AV. ZARAGOZA, C.P. 93650",,TLAPACOYAN,VERACRUZ,,MEXICO,(225) 315-2884,19.96428,-97.21472,Lun - Sab de 10:00 a 20:30 Dom 11:00 a 19:00,,,
HIDALGO,1004,HIDALGO #15 COL. CENTRO. ENTRE BLVD. EMILIANO ZAPATA Y CALLE 5 DE MAYO C.P. 95096,,TEZONAPA,VERACRUZ,,MEXICO,(278) 736-0742,18.60284,-96.68709,Lun - Sab de 09:00 a 19:30 Dom 10:00 a 16:00,,,
DEMOCRACIA,325,DEMOCRACIA #52 COL. CENTRO C.P. 92101,,TANTOYUCA,VERACRUZ,,MEXICO,(789) 893-2528,21.35291,-98.22616,Lun - Sab de 10:00 a 20:00 Dom 9:00 a 18:00,,,
HUMBOLT,427,HUMBOLT #17 COL. CENTRO. ENTRE IGNACIO ZARAGOZA Y FRANCISCO I MADERO C.P. 91270,,PEROTE,VERACRUZ,,MEXICO,(282) 825-2023,19.56203,-97.24512,Lun - Sab de 10:00 a 20:30 Dom de 11:00  a 17:00,,,
MADERO,137,MADERO SUR #285 COL. CENTRO. ESQ. CON PONIENTE 7 C.P. 94300,,ORIZABA,VERACRUZ,,MEXICO,(272) 725-2258 725-21372,18.84594,-97.10469,Lun - Sab de 10:00 a 20:30 y Dom de 11:00 a 16:00,,,
ORIZABA,610,COLON PONIENTE #15 COL. CENTRO. ESQ. CON MADERO NORTE C.P. 94300,,ORIZABA,VERACRUZ,,MEXICO,(272) 725-0044,18.84849,-97.10543,Lun - Sab 10:00 a 20:30 Dom 11:00 a 16:00,,,
31 ORIENTE,867,AV. ORIENTE 31 #144 COL. ABELARDO RODRIGUEZ. ENTRE NORTE 2 Y 4 C.P. 94310,,ORIZABA,VERACRUZ,,MEXICO,(272) 725-8304,18.86287,-97.10932,Lun - Sab de 10:00 a 20:30 Dom de 10:00 a 15:00,,,
LA FLORIDA,1225,"CARRETERA COATZACOALCOS - SALINA CRUZ KM. 62/480, C.P. 96160",,OLUTA,VERACRUZ,,MEXICO,(924) 2451-288,17.94000,-94.90932,Lun - Sab de 10:00 a 20:30 Dom de 10:00 a 19:00,,,
JUSTO SIERRA,1073,JUSTO SIERRA #33 COL. CONSTITUCION C.P. 92320,,NARANJOS,VERACRUZ,,MEXICO,(768) 855-4740,21.35117,-97.68744,Lun - Sab de 10:00 a 20:00 Dom 9:00 a 18:00,,,
COMONFORT,936,COMONFORT #100 COL. CENTRO. ENTRE ESQUINA CON REFORMA C.P. 93821,,MISANTLA,VERACRUZ,,MEXICO,(235) 323-5078,19.92559,-96.85479,Lun - Sab de 10:00 a 20:30 Dom de 11:00 a 19:00,,,
HIDALGO,143,HIDALGO #96 COL. CENTRO. ENTRE JOSE ARENAS Y MANUEL RODRIGUEZ. C.P. 96700,,MINATITLAN,VERACRUZ,,MEXICO,(922) 224-1184,17.98478,-94.54502,Lun - Sab de 09:30 a 20:00 Dom 10:00 a 17:00,,,
INSURGENTES,378,EMILIANO ZAPATA #10 COL. INSURGENTES NORTE. ENTRE BLVD. INSTITUTO TECNOLOGICO Y CARRILLO PUERTO C.P. 96734,,MINATITLAN,VERACRUZ,,MEXICO,(922) 241-8344,17.99406,-94.57600,Lun - Sab de 10:00 a 20:30 Dom de 11:00 a 20:00,,,
HIDALGO,609,HIDALGO #43 COL. CENTRO. ENTRE GUTIERREZ ZAMORA Y SIMON BOLIVAR C.P. 96700,,MINATITLAN,VERACRUZ,,MEXICO,(922) 223-7229,17.98478,-94.54502,Lun - Sab 09:30 a 20:00 Dom 10:00 a 17:00,,,
EL TEJAR,1103,"AV. INDEPENDENCIA S/N CARRETERA EL TEJAR MEDELLIN, JUNTO A MERCADO SORIANA. COL. JARDINES 2 BOCA, C.P. 94273",,MEDELLIN,VERACRUZ,,MEXICO,(285) 113-0113,19.08924,-96.15275,Lun - Sab de 10:30 a 8:30 Dom de 11:00 a 20:00,,,
INDEPENDENCIA,956,INDEPENDENCIA #1482 COL. EL TEJAR. ENTRE ESQUINA CON GOMEZ FARIAS C.P. 94273,,MEDELLIN,VERACRUZ,,MEXICO,(285) 971-5511,19.07626,-96.16004,Lun - Sab de 10:00 a 20:00 Dom 10:00 a 19:00,,,
RAUL SANDOVAL II,1007,"RAUL SANDOVAL #646, ENTRE NETZAHUALCOYOTL Y CUAUHTEMOC COL. CENTRO. C.P. 95640",,ISLA,VERACRUZ,,MEXICO,(283) 874-3578,18.03049,-95.52952,Lun - Sab 10:00 a 20:00 Dom 10:00 a 16:00,,,
RAUL SANDOVAL,717,RAUL SANDOVAL #1349 COL. CENTRO. ESQ. CON DIAZ MIRON C.P. 95641,,ISLA,VERACRUZ,,MEXICO,(283) 874-1679,18.03729,-95.52917,Lun - Sab de 10:00 a 20:00 Dom de 10:00 a 19:00,,,
AVENIDA 3,924,AVENIDA 3 COL. CENTRO. ENTRE AVENIDA 4 Y AVENIDA 6 C.P. 94910,,CUITLAHUAC,VERACRUZ,,MEXICO,(278) 732-1728,18.81348,-96.72370,Lun - Vie de 9:00 a 19:00 y Dom de 9:00 a15:00,,,
NICOLAS BRAVO,1084,"AV. NICOLAS BRAVO # 1, ENTRE CARRETERA FEDERAL FORTIN-HUATUSCO Y REFORMA, COL. CENTRO, C.P. 94140.",,COSCOMATEPEC,VERACRUZ,,MEXICO,(273) 737-1907,19.07261,-97.04240,Lun - Sab de 10:00 a 20:30 Dom de 10:00 a 16:00,,,
RUIZ CORTINEZ,465,ADOLFO RUIZ CORTINEZ #101 COL. CENTRO. ENTRE FCO. I. MADERO Y MIGUEL ALEMAN C.P. 95400,,COSAMALOAPAN,VERACRUZ,,MEXICO,(288) 882-3559,18.36405,-95.79396,Lun - Sab de 09:30 a 19:30 Dom de 10:00 a 16:00,,,
SANTA LETICIA,1145,"BLVD. CORDOBA FORTIN KM. 335 SIN NUMERO, COLONIA SHANGRILA",,CORDOBA,VERACRUZ,,MEXICO,(271) 736-1688,18.90032,-96.96101,Lun - Sab de 10:00 a 20:30 Dom 10:00 16:00,,,
AVENIDA II,500,AVENIDA 11 #903 COL. CENTRO. ENTRE 9 Y 11 C.P. 94590,,CORDOBA,VERACRUZ,,MEXICO,(271) 712-9907,18.88862,-96.93470,Lun - Sab de 10:00 a 20:30 Dom de 10:00 a 16:00,,,
AVENIDA 1,603,AV. UNO #700 COL. CENTRO. ESQ. CON CALLE SIETE C.P. 94500,,CORDOBA,VERACRUZ,,MEXICO,(271) 712-3295,18.90005,-96.99775,Lun - Sab 10:00 a 20:30 Dom de 10:00 a 17:00,,,
AVENIDA 510,604,AVENIDA DOS #510 COL. CENTRO. ESQ. CON CALLE SIETE C.P. 94500,,CORDOBA,VERACRUZ,,MEXICO,(271) 712-3668,18.89114,-96.93504,Lun - Sab de 10:00 a 20:30 Dom de 10:00 a 17:00,,,
AVENIDA,78,AVENIDA 1 #907 COL. CENTRO. ENTRE CALLE 9 Y CALLE 11 C.P. 94500,,CORDOBA,VERACRUZ,,MEXICO,(271) 712-1733,18.89215,-96.93150,Lun - Sab de 10:00 a 20:30 Dom de 10:00 a 16:00,,,
SENDERO,1224,"FRANCISCO MAROSINI (SIN NUMERO) COLONICA VILLAS DE SAN MARTIN, C.P. 96536",,COATZACOALCOS,VERACRUZ,,MEXICO,(921) 248-4078,18.14421,-94.51431,Lun - Dom de 11:00 a 21:00,,,
PLAZA PATIO,1409,"AVENIDA MALECON COSTERO #1701, LOC-J07 FRACCIONAMIENTO PARAISO, C.P.96538",,COATZACOALCOS,VERACRUZ,,MEXICO,Red Coppel 1409+Ext.,18.14842,-94.46881,Lun - Sab de 11:00 a 21:00 Dom 11:00 a 21:00,,,
HIDALGO,168,HIDALGO #203 COL. CENTRO. ENTRE MORELOS Y CORREGIDORA C.P. 96400,,COATZACOALCOS,VERACRUZ,,MEXICO,(921) 212-8058,18.14549,-94.41298,Lun - Sab de 09:30 a 20:00 Dom 09:30 a 17:00,,,
EL PALMAR,234,AV. LAS PALMAS #101 COL. FRACC. PARAISO ESQ. AV. UNIVERSIDAD C.P. 96536,,COATZACOALCOS,VERACRUZ,,MEXICO,(921) 210-6160 210-6161,18.14257,-94.47485,Lun - Sab de 10:00 a 20:30 Dom de 11:00 a 20:00,,,
HIDALGO,601,HIDALGO #301 COL. CENTRO. ENTRE CARRANZA Y MORELOS C.P. 96400,,COATZACOALCOS,VERACRUZ,,MEXICO,(921) 212-0196,18.14549,-94.41298,Lun - Sab de 09:30 a 20:00 Dom de 09:30 a 17:00,,,
LAS PALMAS,602,AV. LAS PALMAS #101 COL. PARAISO C.P. 96400,,COATZACOALCOS,VERACRUZ,,MEXICO,(921) 218-8635,18.14253,-94.47488,Lun - Sab de 10:00 a 20:30 Dom 11:00 a 20:00,,,
PLAZA FORUM,916,AV. UNIVERSIDAD KM 8 S/N COL. PREDIO SANTA ROSA. ESQ. CON JOSE CLAVIJERO C.P. 96536,,COATZACOALCOS,VERACRUZ,,MEXICO,(921) 210-5019,18.14251,-94.47492,Lun - Dom de 11:00 a 21:00,,,
CARRANZA,1046,AVE. VENUSTIANO CARRANZA #8 COL. CENTRO. ENTRE MELCHOR OCAMPO Y MARIA BOETIGIR C.P. 95870,,CATEMACO,VERACRUZ,,MEXICO,(294) 943-7077,18.41888,-95.10944,Lun - Sab de 10:00 a 20:30 Dom 10:00 a 16:00,,,
CARRANZA,767,AV. VENUSTIANO CARRANZA #93 COL. CENTRO. ENTRE GUILLERMO PRIETO Y PROFESOR SANTIAGO GRACIA C.P. 95870,,CATEMACO,VERACRUZ,,MEXICO,(294) 943-2843,18.41971,-95.11100,Lun - Sab de 09:30 a 20:00 Dom de 09:30 a 15:30,,,
ZAPATA,952,EMILIANO ZAPATA #52 COL. CENTRO. ENTRE HILARIO GALLO Y GUADALUPE RODRIGUEZ C.P. 91680,,CARDEL,VERACRUZ,,MEXICO,(296) 962-4734,19.37027,-96.37153,Lun - Sab de 10:00 a 20:30 Dom de 10:00 a 18:00,,,
JUAN SOTO,902,AV. JUAN SOTO #42 COL. CENTRO. ENTRE SANTOS DEGOLLADO Y MIGUEL LERDO C.P. 91500,,COATEPEC,VERACRUZ,,MEXICO,(228) 816-8954,19.45338,-96.96283,Lun - Sab de 10:00 a 20:30 Dom de 10:00 a 16:00,,,
LIBERTAD,622,"AV. LIBERTAD # 38, ENTRE CONSTITUCION DE 1917 Y FRANCISCO SARABIA, COL. CENTRO, C.P. 91300",,BANDERILLA,VERACRUZ,,MEXICO,(228) 811 3531,19.58478,-96.93500,Lun - Sab de 10:00 a 20:30 Dom de 11:00 a 17:00,,,
ALVARADO,742,AV. IGNACIO DE LA LLAVE #10 COL. CENTRO. ENTRE JUAN SOTO Y GUADALUPE VICTORIA C.P. 95250,,ALVARADO,VERACRUZ,,MEXICO,(297) 973-2707,18.76761,-95.76129,Lun - Sab de 10:00 a 20:30 Dom de 10:00 a 16:00,,,
DE LA SANTA CRUZ,925,IGNACIO DE LA LLAVE COL. CENTRO. ENTRE ESQUINA CON IGNACIO ALDAMA C.P. 95250,,ALVARADO,VERACRUZ,,MEXICO,(297) 973-0942,18.77123,-95.76163,Lun - Sab de 10:00 a 20:00 Dom de 10:00 a 16:00,,,
ALLENDE,957,AV. IGNACIO ALLENDE #10 COL. CENTRO. ENTRE RAYON Y FRANCISCO I. MADERO C.P. 93700,,ALTOTONGA,VERACRUZ,,MEXICO,(226) 316-1396,19.63096,-96.73420,Lun - Sab de 10:00 a 20:30 Dom de 10:00 a 18:00,,,
CALLE 28,367,"CALLE 28 # 317, ENTRE 31 Y 31-A, COL. CENTRO, C.P. 97430",,MOTUL,YUCATAN,,MEXICO,(991) 918-1518,21.09269,-89.28504,Lun - Sab de 9:30 a 20:00 Dom de 10:00 a 18:00,,,
PLAZA DORADA,196,CALLE 50 #143 COL. FRACC. MIGUEL HIDALGO. ENTRE CALLE 15 Y CALLE 19 C.P. 97229,,MERIDA,YUCATAN,,MEXICO,(999) 987-8212 987-8213,20.99385,-89.65047,Lun - Dom 10:30 a 20:30,,,
PLAZA ORIENTE,197,CALLE 65 (AV. QUETZALCOATL) #197-A COL. EMILIO PORTES GIL. ESQ. CON CIRCUITO COLONIAS C.P. 97167,,MERIDA,YUCATAN,,MEXICO,(999) 983-8342 983-8341,20.95985,-89.59063,Lun - Sab de 11:00 a 21:00 Dom de 11:00 a 21:00,,,
58 CENTRO,229,CALLE 58 #533 COL. CENTRO. ENTRE 67 Y 69 C.P. 97000,,MERIDA,YUCATAN,,MEXICO,(999) 928-8496 928-8497,20.96273,-89.62296,Lun - Sab de 9:30 a 20:00 Dom de 10:00 a 19:00,,,
CANECK,231,AV. JACINTO CANECK #220 COL. YUCALPETEN. ESQ. CON MERIDA 2000 C.P. 97227,,MERIDA,YUCATAN,,MEXICO,(999) 945-9269 945-9270,20.99034,-89.66317,Lun - Dom de 11:00 a 21:00,,,
CONGRESO,285,CALLE 58 #490 COL. CENTRO. ENTRE 59 Y 61 C.P. 97000,,MERIDA,YUCATAN,,MEXICO,(999) 924-5365 924-5410,20.96805,-89.62161,Lun - Sab de 09:30 a 20:00 Dom de 10:00 a 18:00,,,
PLAZA FIESTA,314,CALLE 6 #400 SECCION 5-A COL. DIAZ ORDAZ C.P. 97130,,MERIDA,YUCATAN,,MEXICO,(999) 196-0531 196-0532,20.99932,-89.59666,Lun - Dom de 11:00 a 21:00,,,
PLAZA SENDERO,432,AV. CIRCUITO COLONIAS S/N COL. CHUMINOPOLIS. ENTRE 16 Y CALLE 20 C.P. 97158,,MERIDA,YUCATAN,,MEXICO,(999) 188-1019,20.97555,-89.59484,Lun - Dom de 11:00 a.m. a 21:00,,,
CALLE 60 II,618,CALLE 60 #502 COL. CENTRO. ESQ. CALLE 63 C.P. 97000,,MERIDA,YUCATAN,,MEXICO,(999) 928-6634,20.96633,-89.62317,Lun - Sab de 09:30 a 20:00 Dom 10:00 a 16:00,,,
MACROPLAZA,754,CALLE 33 #200-A COL. ITZIMNA POLIGONO 108. ENTRE CALLE 40 Y CALLE 44 C.P. 97143,,MERIDA,YUCATAN,,MEXICO,(999) 196-2236,21.00001,-89.57307,Lun - Dom de 11:00 a 21:00,,,
