store_name,store_number,address,address2,city,state,zip_code,country,phone_number,latitude,longitude,store_hours,store_type,other_fields,coming_soon
GLOSS SALON,,10519 4S Commons Drive suite 161 ,,San Diego ,CA,92127,US,,33.0193243,-117.1132756,,,,
Salon on 30th,,2225 30th Street ,,San Diego ,CA,92104,US,,32.7292062,-117.129908,,,,
HYDE EDWARDS,,2308 A KETTNER BLVD ,,SAN DIEGO ,CA,92101,US,,32.7282143,-117.1714042,,,,
HUSH SALON,,45 NORTH 3RD STREET 2ND FLOOR ,,PHILADELPHIA ,PA,19106,US,,39.9514983,-75.1448583,,,,
PREP &amp FOXX ASSOCIATES,,1532 SOUTH BROAD STREET ,,PHILADELPHIA ,PA,19146,US,2157556500,39.9308536,-75.1686017,,,,
CR Hair Studio,,1745 South Street 2nd Floor ,,Philadelphia ,PA,19146,US,2674212491,39.9445947,-75.1717656,,,,
Le Chandelie Salon And Boutique,,6212 Ridge Road ,,Philadelphia ,PA,19128,US,2154593049,40.0358027,-75.2180102,,,,
Salon Fiber,,22 South Main Street ,,Phoenixville ,PA,19460,US,7571999,40.1333003,-75.5159781,,,,
The Modern Monarch - AZ,,3240 E Camelback Rd # 17 ,,Phoenix ,AZ,85018,US,602-505-2571,33.5103346,-112.0110227,,,,
The Office Salon,,3233 E. Indian School Road ,,Phoenix ,AZ,85018,US,520-204-7787,33.4949301,-112.0117843,,,,
Salon Eclectic - AZ,,42407 North Vision Way ,,Phoenix ,AZ,85086,US,623-551-1262,33.8696679,-112.1510486,,,,
Salon Embellish - AZ,,3508 N. 7th Street # 105 ,,Phoenix ,AZ,85014,US,602-368-4855,33.4887888,-112.0657037,,,,
ROOSE PARLOUR,,918 N. 6TH ST. ,,PHOENIX ,AZ,85003,US,,33.4583367,-112.0665488,,,,
REPOSE SALON AND SPA,,11 West Washington Street Suite 240 ,,Phoenix ,AZ,85003,US,4804781701,33.4480348,-112.0742088,,,,
Shampu Salon,,2000 Bagby Street Suite 112 ,,Houston ,TX,77002,US,,29.7525819,-95.3766249,,,,
SHYN SALON,,321 W. ALABAMA STREET ,,HOUSTON ,TX,77006,US,,29.7386785,-95.3843211,,,,
Traci Scott Salon,,615 West Gray ,,Houston ,TX,77019,US,,29.7531213,-95.3887883,,,,
Alanis Salon,,1210 W Clay St Ste 21 ,,Houston ,TX,77019,US,713-524-2610,29.7560039,-95.3943711,,,,
ESTILO SALON,,2521 HAZARD STREET ,,HOUSTON ,TX,77019,US,,29.7430395,-95.4067292,,,,
KUHL LINSCOMB,,2424 WEST ALABAMA STREET ,,HOUSTON ,TX,77098,US,,29.7388848,-95.4172544,,,,
Viva Studio-Carmen Trejo,,5703 N Figueroa Street ,,Los Angeles ,CA,90042,US,323-270-5263,34.1458732,-118.1844725,,,,
The Hive Highland Park,,5670 York Blvd ,,Los Angeles ,CA,90042,US,323-254-2901,34.1187878,-118.194477,,,,
Perry McGrath Salon,,2019 Riverside Drive ,,Los Angeles ,CA,90039,US,,34.0994929,-118.2495984,,,,
NEIGHBORHOOD SALON,,1838 ECHO PARK AVE. ,,LOS ANGELES ,CA,90026,US,,34.0852173,-118.252748,,,,
GOLD ON GRAND SALON,,527 W. 7 ST. STE. 401 ,,LOS ANGELES ,CA,90014,US,9092389992,34.0470796,-118.2562707,,,,
THE HIVE,,1402 MICHELTORENA STREET ,,LOS ANGELES ,CA,90026,US,,34.0876012,-118.2755484,,,,
Milk+Honey Houston,,2800 Kirby Dr Suite A134 ,,Houston ,TX,77098,US,7132310250,29.7408785,-95.4193838,,,,
Bei Capelli Studio,,6419 Woodland Trails Dr ,,Houston ,TX,77088,US,832-746-1906,29.8753945,-95.4922375,,,,
JL Art,,17002 Irish Oaks Ct ,,Houston ,TX,77083,US,8325123814,29.6959121,-95.686403,,,,
FOXTAIL SALON,,4206 SANTA MONICA BLVD ,,LOS ANGELES ,CA,90029,US,,34.0907897,-118.2838898,,,,
HAIRROIN SALON,,1520 N. CAHUENGA AVE. # 2 ,,LOS ANGELES ,CA,90028,US,,34.0990036,-118.3291395,,,,
STAG HAIR PARLOR,,7223 MELROSE AVENUE ,,LOS ANGELES ,CA,90046,US,3235923496,34.083767,-118.3470695,,,,
Blow Me Away,,8223 West 3rd Street ,,Los Angeles ,CA,90048,US,323-655-0316,34.0727341,-118.3688488,,,,
TABOO SALON,,8446 W 3RD STREET ,,LOS ANGELES ,CA,90048,US,,34.0729468,-118.3747895,,,,
SALON BENJAMIN,,8910 Melrose Avenue ,,Los Angeles ,CA,90069,US,,34.0808121,-118.3870578,,,,
ANDY LECOMPTE SALON,,616 N. ALMONT DR. ,,LOS ANGELES ,CA,90069,US,,34.0813666,-118.387528,,,,
BEACH BEAUTY LOUNGE,,12751 W. Millennium Dr. Suite 125 ,,Los Angeles ,CA,90094,US,3108625555,33.9764078,-118.4160212,,,,
Skinrejuvenation Clinique,,1205 North Loop 1604 West ,,San Antonio ,TX,78258,US,210-365-6003,29.6112045,-98.5102073,,,,
Loma De Vida,,16641 La Cantera Pkwy ,,San Antonio ,TX,78256,US,210.558.2232,29.6030489,-98.6228295,,,,
GEORGE THE SALON,,945 NORTH RUSH 3RD FLOOR ,,CHICAGO ,IL,60611,US,,41.9005739,-87.6272112,,,,
PETROSINO PARLOR,,120 West Monroe Street ,,CHICAGO ,IL,60603,US,312.616.0016,41.8808083,-87.6316982,,,,
THE HAIR LOFT LTD,,217 WEST HURON STREET ,,CHICAGO ,IL,60654,US,312.943.5435,41.8945578,-87.635062,,,,
REVERIE A SAL MISSERI SALON,,300 West Grand Avenue Store 5 ,,Chicago ,IL,60654,US,440.479.4855,41.8913901,-87.6357723,,,,
TRIANON,,651 West Armitage Ave ,,CHICAGO ,IL,60614,US,3129518401,41.9180306,-87.6457483,,,,
KALA SALON,,689 N MILWAUKEE AVENUE ,,CHICAGO ,IL,60642,US,,41.8942875,-87.6520316,,,,
Lavender Park,,2537 North Sheffield ,,Chicago ,IL,60614,US,,41.9283052,-87.6535683,,,,
SALON 1800,,1133 WEST ARMITAGE AVENUE ,,CHICAGO ,IL,60614,US,773.929.6010,41.9178179,-87.6566998,,,,
SALON BLONDE,,1643 W. NORTH AVENUE ,,CHICAGO ,IL,60622,US,,41.9104522,-87.6693084,,,,
TSUBO,,1821 WEST HUBBARD SUITE 201 ,,CHICAGO ,IL,60622,US,708.287.0010,41.8890686,-87.6728227,,,,
MERAKI ROOM CHICAGO,,2028 West division Street ,,CHICAGO ,IL,60622,US,773.687.8107,41.903419,-87.6784232,,,,
THE CIRCLE SALON,,2135 W. DIVISION STREET ,,CHICAGO ,IL,60622,US,,41.9028701,-87.6811328,,,,
Marin Hair Co,,2500 N. CALIFORNIA AVE ,,CHICAGO ,IL,60647,US,773.687.9990,41.9267891,-87.6976647,,,,
NICOLE MARIE SALON,,3453 West 111TH Street ,,Chicago ,IL,60655,US,773.233.4622,41.6912165,-87.7078022,,,,
CR SALON,,6530 NORTH OXFORD AVENUE ,,CHICAGO ,IL,60631,US,630.205.5429,42.000166,-87.817703,,,,
MELANGE SALON,,127 E 56TH ST-2ND FL ,,NEW YORK ,NY,10022,US,,40.7606473,-73.9700095,,,,
HEADDRESS,,312 E. 9TH STREET ,,NEW YORK ,NY,10003,US,,40.728749,-73.9866802,,,,
BIANCHI SALON,,151 BB ALLEN ST ,,NEW YORK ,NY,10002,US,,40.7209079,-73.9899226,,,,
TAKAMICHI HAIR,,263 BOWERY STREET ,,NEW YORK ,NY,10002,US,,40.7233455,-73.9924928,,,,
Hairroin Salon NY LCC,,1333 Broadway ,,New York ,NY,10018,US,323-467-0392,40.7511815,-73.9882038,,,,
ASANDA,,598 Broadway ,,NEW YORK ,NY,10012,US,,40.72493,-73.996599,,,,
DAVID RYAN SALON,,429 WEST 46TH STREET ,,NEW YORK ,NY,10036,US,,40.7616835,-73.9918356,,,,
ION STUDIO,,41 WOOSTER STRET ,,NEW YORK ,NY,10013,US,,40.7225905,-74.0027641,,,,
DAMIAN WEST KOSA,,237 W 4TH STREET ,,NEW YORK ,NY,10014,US,,40.7344771,-74.002879,,,,
Ego Mechanix,,34 S. First Street ,,San Jose ,CA,95113,US,,37.3356339,-121.8896939,,,,
OSGOOD ONEIL,,6932 SNIDER PLAZA ,,DALLAS ,TX,75205,US,,32.8500774,-96.7876371,,,,
Larc Salon,,4441 McKinney Ave ,,Dallas ,TX,75205,US,214-526-2226,32.8209308,-96.7891053,,,,
OSGOOD ONEIL KNOX,,3213 KNOX STREET ,,DALLAS ,TX,75205,US,,32.8232139,-96.7896413,,,,
SALON LURE,,3839 McKinney Ave ,,Dallas ,TX,75204,US,214-919-5873,32.8092132,-96.7958029,,,,
Maryann Ring Salon,,5925 Forest Lane Suite 125 ,,Dallas ,TX,75230,US,214-674-8261,32.9101394,-96.8053739,,,,
Form Salon,,8411 Preston Rd Suite 102 ,,Dallas ,TX,75225,US,2143692500,32.8649634,-96.8047285,,,,
Artists + Architects Salon,,3888 Oak Lawn Ave # 110 ,,Dallas ,TX,75219,US,2142429250,32.8159582,-96.8013669,,,,
J Grace Salon,,6030 Luther Lane Suite 150 ,,Dallas ,TX,75225,US,2148901600,32.8632651,-96.8070647,,,,
Hair Revival Studio,,4209 Herschel Ave. ,,Dallas ,TX,75219,US,214793-9505,32.8209297,-96.8040685,,,,
Osgood ONeil - The Loft,,4320 Lovers Lane ,,Dallas ,TX,75225,US,817-253-0117,32.8514464,-96.8094181,,,,
OSGOOD ONEIL LOVERS LANE,,4320 LOVERS LANE ,,DALLAS ,TX,75225,US,,32.8514464,-96.8094181,,,,
Clive &amp Co.,,5301 Alpha Rd Suite 46 ,,Dallas ,TX,75240,US,972-934-0500,32.9338029,-96.8171288,,,,
Figueroa Salon,,5635 W Lovers Ln ,,Dallas ,TX,75209,US,214.812.9339,32.8515564,-96.8162325,,,,
JEAN PHILLIP &amp CO,,5600 W LOVERS LANE SUITE 125 ,,DALLAS ,TX,75209,US,3142341000,32.8505023,-96.8163507,,,,
Salon D,,13615 Inwood Rd.Suite 160 ,,Dallas ,TX,75244,US,972-897-0894,32.9335997,-96.8238355,,,,
EXPERIENCE,,8610 MADISON AVENUE ,,INDIANAPOLIS ,IN,46227,US,3178519212,39.6412449,-86.1195351,,,,
DL LOWRY,,1300 EAST 86TH STREET ,,INDIANAPOLIS ,IN,46240,US,,39.914735,-86.1384237,,,,
RICHARD RUDOLPH DESIGN,,317 SOUTH DELAWARE SUITE 6 ,,INDIANAPOLIS ,IN,46204,US,317.777.5072,39.7621448,-86.1544931,,,,
SALON ORANGE MOON,,2457 N. DELAWARE ,,INDIANAPOLIS ,IN,46205,US,,39.8028417,-86.1528457,,,,
STUDIO 2000 SALON &amp DAY SPA,,55 MONUMENT CIRCLE STE. 2 ,,INDIANAPOLIS ,IN,46204,US,,39.7682749,-86.1569443,,,,
FRENCH PHARMACIE,,823 1/2 E WESTFIELD BLVD ,,INDIANAPOLIS ,IN,46220,US,,39.8586101,-86.1572317,,,,
CAMAS BREEN-BRANDT,,355 INDIANA AVENUE ,,INDIANAPOLIS ,IN,46204,US,317.435.8400,39.7725598,-86.1625055,,,,
WEST 86TH STREET,,1478 WEST 86TH STREET ,,INDIANAPOLIS ,IN,46260,US,,39.9122556,-86.1853743,,,,
TYLER MASON,,9004 WEST 10TH STREET ,,INDIANAPOLIS ,IN,46234,US,,39.7791359,-86.3211602,,,,
Dye,,205 Chalmers Ave ,,Austin ,TX,78702,US,9792558915,30.2590371,-97.7258317,,,,
Milk+Honey Arboretum,,9722 Great Hills Trail Suite 154 ,,Austin ,TX,78759,US,5122361115,30.3954356,-97.7515584,,,,
Milk+Honey 2nd St Dist,,100A Guadalupe St. ,,Austin ,TX,78701,US,5122361115,30.2646751,-97.7481613,,,,
PROPAGANDA HAIR GROUP,,1611 WEST 5TH STREET STE 150 ,,AUSTIN ,TX,78727,US,,30.2741135,-97.7644761,,,,
Milk+Honey- South Lamar,,4715 S Lamar Blvd. Ste. 104 ,,Austin ,TX,78745,US,512.236.1115,30.2326002,-97.8113237,,,,
Boho Austin,,4505 Muskdeer Dr. ,,Austin ,TX,78749,US,512.514.5575,30.2038002,-97.8553505,,,,
tatis salon,,12627 san jose blvd ,,jacksonville ,flo,32223,US,,30.1378042,-81.6313286,,,,
VERDE ECO-SALON &amp SPA,,1550 HENDRICKS AVE ,,JACKSONVILLE ,FL,32207,US,,30.3093817,-81.6550677,,,,
Color Bar Austin,,12912 Hill Country Blvd Suite S-140 ,,Austin ,TX,78738,US,512-698-6290,30.3100656,-97.9424792,,,,
GROOVE SALON,,215 FREMONT STREET # 1 ,,SAN FRANCISCO ,CA,94105,US,,37.789146,-122.3943081,,,,
Venom Hair Studio,,520 Montgomery Street # M02 ,,San Francisco ,CA,94111,US,415-851-107,37.7941649,-122.4028233,,,,
Code Salon,,370 4th Street Suite 2 ,,San Francisco ,CA,94107,US,,37.7811475,-122.4000604,,,,
Tailored Salon,,266 Sutter Street ,,San Francisco ,CA,94108,US,,37.7899148,-122.405049,,,,
BIJOUX SALON,,391 SUTTER STREET SUITE 308 ,,SAN FRANCISCO ,CA,94108,US,,37.7893086,-122.4066661,,,,
PENTHOUSE HAIR SALON,,166 GEARY STREET SUITE 1606 ,,SAN FRANCISCO ,CA,94108,US,,37.7878089,-122.4061213,,,,
DEKKO SALON,,1325 INDIANA STREET ,,SAN FRANCISCO ,CA,94107,US,,37.7537043,-122.3902787,,,,
Veer &amp Wander,,6 Brady Street ,,San Francisco ,CA,94103,US,415-864-3012,37.7731501,-122.4211389,,,,
INTAVA SALON,,323 IVY STREET ,,SAN FRANCISCO ,CA,94102,US,4158964850,37.7771366,-122.4235421,,,,
The Social Beauty Co.,,1712 Fillmore Street ,,San Francisco ,CA,94115,US,415-529-1305,37.7854742,-122.4328758,,,,
David James,,600 Fillmore Street ,,San Francisco ,CA,94117,US,415-655-3973,37.7750826,-122.4308337,,,,
Arrow Salon,,1041 Guerrero ,,San Francisco ,CA,94110,US,4156587469,37.7538193,-122.4228562,,,,
Edo Salon,,601 Haight Street ,,San Francisco ,CA,94117,US,4158610131,37.7716255,-122.4322383,,,,
Chop Shop,,1714 Hayes Street ,,San Francisco ,CA,94117,US,415-922-6846,37.7742718,-122.4447325,,,,
VIERRA AND FRIENDS,,85 Carl Street ,,SAN FRANCISCO ,CA,94117,US,,37.7656837,-122.4495533,,,,
THE COLLECTION,,1378 N. Hamilton Road ,,Columbus ,OH,43230,US,(614) 499-2787,40.0542919,-82.8622043,,,,
HAIR ARTISTS - CINDY COX,,2111 POLARIS PKWY ,,COLUMBUS ,OH,43240,US,(614) 847-1010,40.144342,-82.9606595,,,,
MAX THE SALON,,548 S. THIRD ST. ,,COLUMBUS ,OH,43215,US,614.206.9760,39.9513187,-82.9954811,,,,
MAX SHORT NORTH,,640 N. HIGH ST. ,,COLUMBUS ,OH,43215,US,614.206.9760,39.9754418,-83.0029491,,,,
JEKYLL &amp HYDE HAIR SALON,,3169 N. HIGH ST ,,COLUMBUS ,OH,43202,US,,40.026794,-83.0148626,,,,
AKADA HAIR SALON,,1635 W. FIRST AVE ,,COLUMBUS ,OH,43212,US,,39.9817826,-83.0487979,,,,
BEAUTY FIRST LENNOX,,1735 OLENTANGY RIVER RD ,,COLUMBUS ,OH,43235,US,614-778-9779,40.1269629,-83.0366881,,,,
Max the Salon - Upper Arlington,,2260 W. Henderson Road ,,Columbus ,OH,43220,US,(614) 340-7000,40.0589916,-83.0785623,,,,
BEAUTY FIRST - DUBLIN,,3644 W. DUBLIN GRANVILLE RD. ,,COLUMBUS ,OH,43235,US,(614) 718-9779,40.0948283,-83.0875831,,,,
BLONDIES SALON &amp SPA,,808 3RD Street ,,Columbus ,IN,47201,US,812.390.9519,39.2019008,-85.9153234,,,,
PENNYS DESIGN STUDIO,,3159 NORTH NATIONAL ROAD ,,COLUMBUS ,IN,47201,US,812.371.0950,39.2304988,-85.9155889,,,,
Honeycomb Salon,,104 East Main Street ,,CHARLOTTESVILLE ,VA,22902,US,,38.0307284,-78.4812914,,,,
MOXIE HAIR LOUNGE,,612 A Preston Avenue ,,CHARLOTTESVILLE ,VA,22903,US,,38.0351295,-78.4859189,,,,
MO2 SALON,,8200 PROVIDENCE ROAD # 900 ,,CHARLOTTE ,NC,28277,US,,35.0952753,-80.7791381,,,,
ORANGE OLIVE,,2824 N. DAVIDSON ST. ,,CHARLOTTE ,NC,28205,US,,35.2448255,-80.8092025,,,,
BOHEMIAN STYLEHOUSE,,1318 Central Ave. Suite A-1 ,,Charlotte ,NC,28205,US,704-333-8785,35.2192558,-80.8157798,,,,
Illuminate Salon,,1111 Central Ave. Suite 210 ,,Charlotte ,NC,28204,US,704-608-5355,35.2216833,-80.8189257,,,,
In Sync Salon co Sola Studios,,6324 Fairview Rd. Suite 103 ,,Charlotte ,NC,28210,US,704-334-6344,35.1489562,-80.8355057,,,,
SEAN ROCCO SALON,,1412 East Blvd. Suite D ,,Charlotte ,NC,28203,US,704-898-7747,35.1999856,-80.844183,,,,
The Beauty Lab co Sola Salon,,4600 Park Rd. Suite 110 ,,Charlotte ,NC,28209,US,704-707-9852,35.168263,-80.851299,,,,
Woven StudioSola Salon Suites,,4600 PARK ROAD SUITE 114 ,,CHARLOTTE ,NC,28209,US,704-779-3722,35.168263,-80.851299,,,,
RE Salon,,1212 South Blvd. ,,Charlotte ,NC,28203,US,704-334-8087,35.2169786,-80.851836,,,,
SALON OPAL,,2000 SOUTH BLVD SUITE # 170 STUDIO 105 ,,CHARLOTTE ,NC,28203,US,,35.210707,-80.859637,,,,
Kenna Ehman@Sola Salon Suites,,2000 South Blvd. Suite 170 studio 127 ,,Charlotte ,NC,28203,US,989-640-6136,35.2092456,-80.8607013,,,,
BLUE ORCHID,,2000 SOUTH BLVD STUDIO 125 ,,CHARLOTTE ,NC,28203,US,,35.2092456,-80.8607013,,,,
Wonderlab Salon (K.B.),,4419 Applegate Rd. ,,Charlotte ,NC,28209,US,704-618-5694,35.180102,-80.868984,,,,
THE BEES KNEES,,3851 Camp Bowie ,,FORT WORTH ,TX,76107,US,,32.745422,-97.3746515,,,,
SHAMPOO,,5316 BIRCHMAN AVE ,,FORT WORTH ,TX,76107,US,,32.7351289,-97.401427,,,,
Christopher Edward Ortiz,,4824 Southwest Loop 820 Suite 233 ,,Fort Worth ,TX,76109,US,817-703-6022,32.6850516,-97.3976624,,,,
Salon Metro,,1714 n 45th ,,seattle ,WAS,98103,US,2065456905,47.6615192,-122.3369006,,,,
DOMINO BEAUTY BOUTIQUE,,115 N 85TH STREET SUITE 101 ,,SEATTLE ,WA,98103,US,,47.6903509,-122.3574083,,,,
HAZEL SALON,,5817 PHINNEY AVE N ,,SEATTLE ,WA,98103,US,,47.6716551,-122.3546042,,,,
RED X,,1121 PIKE STREET ,,SEATTLE ,WA,98101,US,,47.6136633,-122.3279544,,,,
ROBERT LEONARD,,2033 6TH AVENUE ,,SEATTLE ,WA,98121,US,2064419900,47.614678,-122.339414,,,,
VASUDA DOWNTOWN,,2201 4TH AVENUE STE 101 ,,SEATTLE ,WA,98121,US,,47.6145441,-122.3430935,,,,
ANTONIO SALON,,113 VIRGINIA ST ,,SEATTLE ,WAS,98101,US,,47.6112114,-122.342103,,,,
VAIN,,2018 1ST AVENUE ,,SEATTLE ,WA,98121,US,,47.6116217,-122.3430013,,,,
SARAH KAHN,,600 QUEEN ANNE AVE N # 105 ,,SEATTLE ,WA,98109,US,3604217112,47.6250362,-122.3565119,,,,
OLA SALON,,2942 SW AVALON WAY ,,SEATTLE ,WA,98126,US,2069336702,47.5696091,-122.3712287,,,,
Youphoria,,1985 North Reading Road ,,Denver ,PA,17517,US,7178267397,40.2199446,-76.1008578,,,,
Tonto Salon,,5075 Leetsdale Drive Unit G ,,Denver ,CO,80246,US,720-941-9800,39.7088818,-104.9281514,,,,
THE BAD KITTIE SALON,,2909 E COLFAX ,,DENVER ,CO,80206,US,,39.7404262,-104.9532746,,,,
Sola Salon - Danielle Sjoden,,299 Detroit St Ste 139 ,,Denver ,CO,80206-4848,US,303-8755184,39.7206802,-104.9549786,,,,
London Alley Salon,,1233 E. 13th Ave ,,Denver ,CO,80218,US,720-422-4535,39.7369851,-104.9720233,,,,
LET EM HAVE IT,,490 E. 20th Ave ,,Denver ,CO,80205,US,720-638-4619,39.7474181,-104.9814492,,,,
Urban Luxury - Second Nature,,403 16th St. Suite 300 ,,Denver ,CO,80202,US,720-495-4796,39.743547,-104.989582,,,,
Adorn Salon,,277 Broadway Unit D ,,Denver ,CO,80203,US,720-515-7818,39.7205255,-104.9879205,,,,
Elle B. Salon,,2931 W 25th Ave ,,Denver ,CO,80211,US,720-708-2867,39.7537723,-105.0244729,,,,
Lucky Lus,,3812 Lowell Blvd. ,,Denver ,CO,80211,US,303.990.9359,39.7698568,-105.0343262,,,,
REBELLE,,3921 TENNYSON STREET ,,DENVER ,CO,80212,US,3034333635,39.7715732,-105.0441271,,,,
IAN MCCABE STUDIO,,1101 23RD STREET ,,NEW WASHINGTON ,DC,20037,US,,38.9042122,-77.0498429,,,,
TALIO SALON,,1806 WISCONSIN AVE NW ,,WASHINGTON ,DC,20007,US,,38.9149201,-77.0675295,,,,
NEST,,53 BROMFIELD STREET ,,BOSTON ,MA,02108,US,(617) 910-7058,42.357039,-71.0606422,,,,
CARBON,,170 TREMONT STREET ,,BOSTON ,MA,02112,US,(617) 556-0044,42.3536955,-71.0638345,,,,
ANITA KURL,,1661 WASHINGTON STREET ,,BOSTON ,MA,02118,US,6172662668,42.3378228,-71.0756055,,,,
STILISTI SALON,,116 Newbury Street ,,BOSTON ,MA,02116,US,6172622234,42.3511624,-71.0759855,,,,
SHAG,,840 SUMMER STREET 3RD FLOOR ,,BOSTON ,MA,02127,US,6172682500,42.4332892,-71.1847862,,,,
TRUE SALON,,5101 SANDERLAIN ST. # 116 ,,MEMPHIS ,TN,38117,US,,35.116375,-89.891883,,,,
SALON 387,,387 S Main St ,,Memphis ,TN,38103,US,901-288-6208,35.136013,-90.0583983,,,,
LABORATORIE,,735 DEEPDENE RD. ,,BALTIMORE ,MD,21210,US,,39.3563941,-76.6341285,,,,
Salon W,,7304 N Western Ave ,,Oklahoma City ,OK,73116,US,405-608-0692,35.5459165,-97.5292837,,,,
BLACKBIRD SALON,,824 SW 134TH ST ,,OKLAHOMA CITY ,OK,73170,US,,35.3339721,-97.5292315,,,,
Salon Exclusive,,4225 W Memorial Rd Suite 103 ,,Oklahoma City ,OK,73134,US,405.608.0963,35.6102587,-97.5982121,,,,
LANKFORD AND LANKFORD,,4301 NW 63RD SUITE 204 ,,OKLAHOMA CITY ,OK,73116,US,,35.5373012,-97.5971718,,,,
HOTBOX SALON,,2075 East Windmill Lane ,,Las Vegas ,NV,89123,US,7025266456,36.0420828,-115.1224299,,,,
Look- Style Society,,6539 Las Vegas Blvd South Suite 110 ,,Las Vegas ,NV,89119,US,,36.0701727,-115.1722567,,,,
Nailed and Lashed - NV,,8320 W Sahara Ave # 110 ,,Las Vegas ,NV,89117,US,702-557-0678,36.1447509,-115.2729566,,,,
Look Style Society - Tivoli,,440 S. Rampart Blvd Suite 150 ,,Las Vegas ,NV,89145,US,702-712-4345,36.1685706,-115.285162,,,,
Glo Salon - LV,,8665 W. Flamingo Rd. ,,Las Vegas ,NV,89197,US,7029820170,36.1139721,-115.2810942,,,,
Haute Fringe - Las Vegas,,4005 S. El Capitan Way ,,Las Vegas ,NV,89147,US,702-862-9085,36.1165374,-115.2884645,,,,
SALON THOR,,3128 S KINNICKINNIC AVENUE ,,MILWAUKEE ,WI,53207,US,,42.987537,-87.8828571,,,,
CAPRICIO,,3041 N Oakland Avenue ,,Milwaukee ,WI,53211,US,414-967-0100,43.0739006,-87.8882017,,,,
Salon Amroze,,525 E Chicago Street ,,Milwaukee ,Wis,53202,US,,43.0326601,-87.9036753,,,,
BRIO SALON,,6850 N SANTA MONICA BLVD ,,MILWAUKEE ,WI,53217,US,,43.1416033,-87.9030197,,,,
Tailored,,234 W Florida # 101 ,,Milwaukee ,WI,53204,US,,43.0276508,-87.913608,,,,
STELLAS,,5050 W. VLIET STREET ,,MILWAUKEE ,WI,53208,US,,43.0492026,-87.9772956,,,,
PAPILLON SALON,,2713 N 92ND STREET ,,MILWAUKEE ,WI,53222,US,,43.0681248,-88.027607,,,,
MOXI EVOLUTION OF BEAUTY,,3513 Central Ave NE ,,ALBUQUERQUE ,NM,87106,US,,35.0800732,-106.6051131,,,,
CILA SALON,,109 AMHERST DR SE ,,ALBUQUERQUE ,NM,87106,US,,35.0794808,-106.6060581,,,,
STUDIO N,,10700 CORRALES RD NW # A ,,ALBUQUERQUE ,NM,87114,US,,35.2042958,-106.6459066,,,,
ARTINE SPA CO WESTIN PORTLAND HARB,,157 HIGH STREET ,,PORTLAND ,ME,04101,US,(207) 517-8879,43.6548779,-70.263817,,,,
WILD AT HEART,,6008 SE FOSTER RD ,,PORTLAND ,ORE,97206,US,,45.4917817,-122.6016577,,,,
TIGER TIGER SALON,,4228 N WILLIAMS ,,PORTLAND ,OR,97217,US,,45.554298,-122.666425,,,,
Mod Salon,,4007 N. Williams ,,Portland ,OR,97227,US,5034752639,45.552232,-122.6668752,,,,
ARABELLA SALON,,2637 NE MLK BLVD SUITE C ,,PORTLAND ,OR,97212,US,,45.5414763,-122.6619361,,,,
GREEN,,935 NE COUCH STREET ,,PORTLAND ,OR,97232,US,,45.5237542,-122.6558449,,,,
VENUS ALLURE SALON &amp SPA,,811 SE Belmont St. ,,Portland ,OR,97214,US,5038416368,45.5166722,-122.657482,,,,
220 Salon,,213 SW Ash Street Ste 211 ,,Portland ,OR,97204,US,5032950726,45.5222056,-122.6726377,,,,
A-LIST HAIR STUDIO,,1306 NW HOYT ST SUITE 303 ,,PORTLAND ,OR,97209,US,,45.526977,-122.6845927,,,,
COTERIE,,2335 NW SAIVER STREET ,,PORTLAND ,OR,97210,US,5032232756,45.534984,-122.6996169,,,,
GOSSAMER,,2636 NW THURMAN STREET ,,PORTLAND ,OR,97210,US,,45.5351852,-122.7056787,,,,
PRIMP,,7081 N Marks Avenue Suite 106 ,,Fresno ,CA,93711,US,,36.8389548,-119.8492298,,,,
Kurt and Quanna Hair Studio,,6383 E Grant Rd Suite 135 ,,Tucson ,AZ,85715,US,520-327-1757,32.2511453,-110.8562663,,,,
ARIA SALON,,4861 EAST GRANT RD. # 111 ,,TUCSON ,AZ,85712,US,5203053697,32.2514869,-110.8890266,,,,
Abstrax Salon &amp Day Spa - AZ,,2970 N Swan Rd # 137 ,,Tucson ,AZ,85712,US,520-325-4662,32.2609394,-110.8914286,,,,
Lisa at Blink - AZ,,4429 E Broadway Blvd ,,Tucson ,AZ,85711,US,520-373-5113,32.2218993,-110.8975615,,,,
SUBLIME SALON,,3161 North Country Club Road ,,Tucson ,AZ,85716,US,5206226220,32.2643425,-110.927134,,,,
Heat - A Blow Dry Lounge,,1865 E. River Rd. # 141 ,,Tucson ,AZ,85718,US,520-440-4067,32.2878293,-110.9444922,,,,
Salon 110 - AZ,,1600 N Tucson Blvd Suite 110 ,,Tucson ,AZ,85716,US,520-270-3855,32.2419093,-110.9347682,,,,
TROUVAILLE SALON &amp SPA,,7888 North Oracle Road ,,Tucson ,AZ,85704,US,520-297-0602,32.3496238,-110.9734622,,,,
CIRCA79 SALON,,5185 N. Genematas Drive ,,TUCSON ,AZ,85704,US,5208250015,32.301101,-110.9775504,,,,
English Salon,,27 N Scott Avenue ,,Tucson ,AZ,85701,US,520-777-8997,32.2225232,-110.9702215,,,,
WINK SALON,,1544 LASKIN ROAD STE222 ,,VIRGINIA BEACH ,VIR,23451,US,757-425-9465,36.8519953,-76.0151848,,,,
AOC SALON @ HILLTOP,,1628 LASKIN ROAD STE 710 ,,VIRGINIA BEACH ,VA,23451,US,,36.8520386,-76.0203152,,,,
GARY ALLEN HAIR &amp SKIN,,741 FIRST COLONIAL RD STE 102 ,,VIRGINIA BEACH ,VA,23451,US,757-425-1641,36.8518584,-76.0224988,,,,
SPA PHOENIX,,1817 REPUBLIC RD ,,VIRGINIA BEACH ,VA,23454,US,,36.8512461,-76.0266534,,,,
AVA MARIE SALON AND SPA,,425 REAGAN AVE ,,VIRGINIA BEACH ,VA,23454,US,,36.8472,-76.052635,,,,
MEYER SALON,,4640 SHORE DR STE 105 ,,VIRGINIA BEACH ,VA,23455,US,757-460-0260,36.9042847,-76.1315126,,,,
GARNISH SALON,,6400 CREEDMORE ROAD # 101 ,,RALEIGH ,NC,27613,US,9197934008,35.8732148,-78.6790257,,,,
BACIO SALON,,8020 CREEDMORE ROAD ,,RALEIGH ,NC,27613,US,9198360083,35.8969874,-78.6800696,,,,
MARIEMARIE SALON,,1388 MCLENDON AVENUE NE ,,ATLANTA ,GA,30307,US,,33.7650022,-84.3420534,,,,
UNION 16,,749 Moreland Ave SE C101 ,,Atlanta ,GA,30316,US,404-221-0440,33.7340082,-84.3494791,,,,
COMMONER SALON,,1188 McLendon Avenue SE ,,Atlanta ,GA,30312,US,678-575-4780,33.7651614,-84.3487131,,,,
SHEAR LOVE,,698 CLEBURNE TERRACE NE ,,ATLANTA ,GA,30306,US,,33.773507,-84.3537143,,,,
Akasa Salon,,593 Edgewood Ave SE Suite A ,,Atlanta ,GA,30312,US,678-575-4780,33.7539402,-84.3676876,,,,
AREA 4,,1536 MONROE DR. SUITE E ,,ATLANTA ,GA,30324,US,678-705-3572,33.7962686,-84.3687688,,,,
ARTISTRY,,260 Pharr Rd NE Suite 5 ,,Atlanta ,GA,30305,US,404-261-0404,33.8372565,-84.3782474,,,,
SALON NEXT,,857 COLLIER RD # 4 ,,ATLANTA ,GA,30318,US,,33.8089879,-84.4097813,,,,
AMBROSIA SALON,,1750 HOWELL MILL RD B-2 ,,ATLANTA ,GA,30318,US,,33.8016148,-84.4154271,,,,
Curb Appeal Salon and Spa,,518 S 10th St ,,Omaha ,NE,68102,US,(402) 345-0404,41.2550434,-95.9292442,,,,
H&ampA @ BOSS STUDIOS,,3667 N. 129th Street ,,Omaha ,NE,68124,US,,41.291008,-96.114383,,,,
Trios,,3525 N 147th Street # 212 ,,Omaha ,NE,68116,US,,41.2904667,-96.1401066,,,,
STAIY SALON,,2521 S. 174TH PLAZA ,,Omaha ,NE,68130,US,,41.2361849,-96.1869192,,,,
Selah Salon,,7610 N Union Blvd Ste135 ,,Colorado Springs ,CO,80920,US,719-644-9114,38.9433832,-104.7753493,,,,
FUTURE,,5405 COLLEGE AVENUE ,,OAKLAND ,CA,94618,US,,37.8402899,-122.2515298,,,,
CHARLES HUNT STUDIO,,4287 PIEDMONT AVE SUITE 110 ,,OAKLAND ,CA,94611,US,,37.8288236,-122.2496634,,,,
Salon Gold Ashley,,201 6th Street SE # 120 ,,Minneapolis ,MN,55414,US,,44.9892295,-93.2503901,,,,
THE BEAUTY ROOM,,4300 CHICAGO AVENUE SOUTH ,,MINNEAPOLIS ,MN,55407,US,,44.92499,-93.2627966,,,,
HONEYCOMB SALON,,3504 NICOLLET AVENUE ,,MINNEAPOLIS ,MN,55408,US,,44.9394168,-93.2783306,,,,
BANG BANG SALON,,11 WEST 38TH ST ,,MINNEAPOLIS ,MN,55409,US,,44.9339721,-93.2783811,,,,
WAVE SALON,,3501 HENNEPIN AVE. S ,,MINNEAPOLIS ,MN,55408,US,,44.9394039,-93.2983734,,,,
STUDIO 411,,411 S. CEDAR LAKE RD ,,MINNEAPOLIS ,MN,55405,US,,44.9732434,-93.3088856,,,,
Live &amp Reed Salon,,3033 Excelsior Blvd Suite 20 ,,Minneapolis ,MN,55416,US,612-205-2551,44.9476411,-93.3181198,,,,
Hello Salon,,1724 E 15th St ,,Tulsa ,OK,74120,US,9189499990,36.1403537,-95.9661114,,,,
PARLOUR SALON,,1335 E 11th Street Ste. C ,,TULSA ,OK,74120,US,,36.1481771,-95.9742419,,,,
Coco and Rose,,1332 E 41st St ,,Tulsa ,OK,74105,US,9187492232,36.1042991,-95.9749898,,,,
Sterling &amp Company,,1705 South Boston Ave ,,Tulsa ,OK,74119,US,,36.1376151,-95.9848814,,,,
THE FIRST WARD,,324 E 1ST ST ,,TULSA ,OK,74120,US,,36.1566477,-95.9875215,,,,
MEGAN GREEN,,24723 CEDAR RD SUITE: G-19 ,,CLEVELAND ,OH,44124,US,(440) 799-1967,41.5037319,-81.502128,,,,
SHAWN PAUL SALON,,2483 LEE BLVD ,,CLEVELAND HEIGHTS ,OH,44118,US,,41.5164709,-81.5692202,,,,
KRASA SALON,,801 LITERARY RD ,,CLEVELAND ,OH,44113,US,(216) 860-4610,41.4818827,-81.6859706,,,,
SoHo Salon,,7218 Bainbridge ,,Wichita ,KS,67206,US,949-903-1443,37.72495,-97.252749,,,,
SHINE SALON (316),,1725 EAST DOUGLAS AVE STE. 100 ,,WICHITA ,KS,67211,US,,37.6859418,-97.3165645,,,,
SHELTER SALON,,430 S. COMMERCE STE. 400 ,,WICHITA ,KS,67202,US,,37.6813028,-97.3306263,,,,
Rocket Science,,640 Elysian Fields Ave ,,New Orleans ,LA,70116,US,504-218-8982,29.9644681,-90.0568857,,,,
Style House,,1137 Esplanade Ave Suite 100 ,,New Orleans ,LA,70116,US,504.872.9415,29.9663965,-90.0636594,,,,
SPA ATLANTIS,,536 BIENVILLE ST ,,NEW ORLEANS ,LA,70130,US,,29.9539828,-90.066575,,,,
Color Bar Salon,,2039 Magazine St ,,New Orleans ,Lou,70130,US,504-544-5254,29.9306484,-90.0755619,,,,
JOHN MALTA SALON,,1530 DELACHAISE STREET ,,NEW ORLEANS ,LA,70115,US,,29.9271866,-90.0924278,,,,
Saint Pierre Salon,,2506 Jena St ,,New Orleans ,LA,70115,US,504-339-2064,29.9353554,-90.1044508,,,,
INFUSION HAIR GALLERY,,11695 HWY 70 ,,ARLINGTON ,TN,38002,US,,35.2936553,-89.6714302,,,,
STUDIO BLISS SALON AND SPA,,3100 19TH STREET SUITE # 300 ,,BAKERSFIELD ,CA,93301,US,,35.3765997,-119.0381189,,,,
Urbanity,,2614 W Kennedy Blvd ,,Tampa ,flo,33609,US,,27.944447,-82.487303,,,,
HAIR RX,,5496 S PARKER RD ,,AURORA ,CO,80015,US,3036807121,39.61656,-104.8158172,,,,
HMB,,1127 11th Avenue Ste. 202 ,,Honolulu ,HI,96816,US,(808) 732-2569,21.2823054,-157.8003269,,,,
Latitude 33,,416 South Anaheim Hills Road ,,Anaheim ,CA,92807,US,,33.8450113,-117.7766438,,,,
EVOLVE SALON,,5753 E Santa Ana Canyon Road Suite F ,,Anaheim Hills ,CA,92807,US,,33.8526197,-117.7888877,,,,
Thirteenth and Washington,,1300 Washington Ave. Unit C-1 ,,St. Louis ,MO,63101,US,,38.6318896,-90.1986043,,,,
REVOLUTION SALON,,5600 W. 36th Street ,,St. Louis Park ,MN,55416,US,651-983-0082,44.938036,-93.3502977,,,,
Salon Divine,,6646 S. Staples Suite 132 ,,Corpus Christi ,TX,78413,US,361.980.8800,27.6801254,-97.3861506,,,,
Daisy Salon,,530 Pavilions Lane Studio 55 ,,Sacramento ,CA,95825,US,,38.575799,-121.4103701,,,,
TULA SALON,,947 Enterprise studio SUITE 19 ,,Sacramento ,CA,95825,US,,38.583793,-121.417105,,,,
THE COLOUR BAR,,5539 H ST. # 70 ,,SACRAMENTO ,CA,95819,US,,38.5676759,-121.4344149,,,,
FEDERICO BEAUTY INSTITUTE,,1515 SPORT DRIVE ,,SACRAMENTO ,CA,95834,US,,38.648839,-121.4978192,,,,
MECCA SALON,,913 30TH ST. ,,SACRAMENTO ,CA,95816,US,,38.5737981,-121.466028,,,,
Salon 2512,,2512 J Street ,,Sacramento ,CA,95816,US,9163301723,38.5745143,-121.4727069,,,,
LAUREN,,2231 J. STREET ,,SACRAMENTO ,CA,95816,US,916-267-8600,38.5758771,-121.4760084,,,,
The Colour Bar - Midtown,,2314 K Street ,,Sacramento ,CA,95816,US,916-583-8785,38.5741662,-121.4758725,,,,
Evergreen Salon &amp Spa,,2847 35th Street ,,Sacramento ,CA,95817,US,916-917-5676,38.5511248,-121.4686793,,,,
The Banyan Tree,,2311 S. Street ,,Sacramento ,CA,95816,US,9163767318,38.5658885,-121.4795865,,,,
ZOE INSPIRED,,2820 Del Paso Road suite 400 ,,Sacramento ,CA,95834,US,916-419-7901,38.6546662,-121.5241379,,,,
Tangelo Salon,,2500 Franklin Blvd ,,Sacramento ,CA,95818,US,916-475-1252,38.5562495,-121.4760954,,,,
RED SALON,,920 J STREET ,,SACRAMENTO ,CA,95814,US,,38.580126,-121.4941093,,,,
SPACE 07,,1421 R STREET ,,SACRAMENTO ,CA,95811,US,,38.5699363,-121.4907845,,,,
Kevin Michael Salon #16,,621 Capitol Mall Suite 120 ,,SACRAMENTO ,CA,95814,US,,38.5788549,-121.4990929,,,,
NIRVANA SALON,,431 N TUSTIN AVENUE SUITE D ,,SANTA ANA ,CA,92705,US,,33.7488419,-117.8337158,,,,
SOGO Hair Salon,,5110 Westminster Ave ,,Ste.G Santa Ana ,CA,92703,US,714-539-1952,33.7591091,-117.937018,,,,
Esspa LLC  dba eDry Brow and Blow,,17 Brilliant Avenue ,,PITTSBURGH ,PA,15215,US,4127823888,40.4894158,-79.9013198,,,,
SALON M OF MT LOOKOUT,,1018 DELTA AVE ,,CINCINNATI ,OH,45208,US,513-533-2352,39.1290617,-84.4298505,,,,
A SALON NAMED DESIRE,,6091 MONTGOMERY RD. ,,CINCINNATI ,OH,45213,US,(513) 731-6091,39.1822639,-84.4276497,,,,
ALBA ORGANIC BEAUTY STUDIO,,2882 WASSON RD ,,CINCINNATI ,OH,45209,US,5136312522,39.1445499,-84.4358354,,,,
HIGH FIVE SALON,,2039 MADISON RD ,,CINCINNATI ,OH,45208,US,5135025293,39.1320742,-84.4614774,,,,
Parlour,,2600 Woodburn Ave. ,,Cincinnati ,OH,45206,US,(513) 961-4247,39.1272974,-84.4782887,,,,
BABYLON SALON,,226 WEST MCMILLIAN ,,CINCINNATI ,OH,45219,US,513-381-1223,39.1280621,-84.520321,,,,
PARAGON SALON - WESTERN HILLS,,6775 HARRISON AVE ,,CINCINNATI ,OH,45247,US,,39.1968596,-84.6691187,,,,
CHAKRAS SPA,,229 S. ELM STREET ,,GREENSBORO ,NC,27401,US,,36.0705253,-79.7900919,,,,
CROP SALON,,358 SOUTH ELM STREET ,,GREENSBORO ,NC,27401,US,3367632317,36.068227,-79.7909575,,,,
ORRELL DESIGN,,440 N. EUGENE STREET ,,GREENSBORO ,NC,27401,US,,36.0781357,-79.7935539,,,,
Cheveux,,1736 Battleground Avenue ,,Greensboro ,NC,27408,US,336-601-3016,36.0925276,-79.8135978,,,,
PARK PLACE SALON,,3509 Old Battleground Rd. ,,Greensboro ,NC,27410,US,336-456-3860,36.1254077,-79.8447641,,,,
Laguna Hair Lounge,,3900 Newpark Mall ,,Newark ,CA,94560,US,,37.5250525,-122.0046731,,,,
PEARLS OF CHICAGO,,6724 NORTH LINCOLN AVENUE ,,LINCOLNWOOD ,IL,60712,US,(773 )888-3139,42.0027532,-87.7275968,,,,
Accent Hair Studio Stacey,,1602 N 56th St ,,Lincoln ,NE,68504,US,,40.8285964,-96.6441357,,,,
STUDIO 55,,300 Tasso Place ,,LINCOLN ,CA,95648,US,,38.8726865,-121.3141707,,,,
SOAP BOX,,1219 Randolph Ave. ,,St. Paul ,MN,55105,US,,44.9271229,-93.1515368,,,,
LACE SALON,,116 I STREET STE B ,,SACRAMENTO ,CA,95814,US,,38.5843158,-121.5042776,,,,
ROBIN RICO,,6642 PACIFIC COAST HIGHWAY SUITE 114 ,,LONG BEACH ,CA,90803,US,,33.7538132,-118.1085743,,,,
GOLDHILL,,4358 ATLANTIC AVENUE ,,LONG BEACH ,CA,90807,US,,33.8357595,-118.1846687,,,,
STUDIO 806,,806 ELMWOOD AVENUE ,,BUFFALO ,NY,14222,US,,42.9190845,-78.8773191,,,,
Lakoe T Salon,,301 First Street ,,Jersey City ,NJ,07302,US,2019182095,40.7219603,-74.0475459,,,,
LAMBS EAT IVY SALON,,804 EAST WASHINGTON STREET ,,ORLANDO ,FL,32801,US,,28.5435178,-81.3672811,,,,
Alchemy Hair Salon,,2812 Edgewater Dr ,,Orlando ,fl,32804,US,,28.5766379,-81.3898113,,,,
STRUT SALON,,930 East Warner Road Suite 4 ,,Chandler ,AZ,85225,US,9493951835,33.3357523,-111.8267235,,,,
STUDIO CAPELLI,,1197 GREENVILLE HIGHWAY ,,HENDERSONVILLE ,NC,28739,US,,35.2977459,-82.4522919,,,,
Brush It Off Salon,,143 3rd St West ,,Hendersonville ,NC,28792,US,828-595-9449,35.3157372,-82.460796,,,,
TRUE BLUE STUDIO SALON,,1760 W Horizon Ridge # 120 ,,Henderson ,NV,89012,US,702-626-5602,36.0107943,-115.0637268,,,,
Charles Azzi Salon - NV,,2663 Windmill Parkway ,,Henderson ,NV,89074,US,702-335-7404,36.0408247,-115.1022853,,,,
Salon Dushons,,855 Seven Hills Drive Suite 160 ,,Henderson ,NV,89052,US,7025418800,35.9961107,-115.1238596,,,,
CHANGES CITY SPA,,710 W 21ST ST ,,NORFOLK ,VA,23517,US,,36.8702149,-76.2938925,,,,
AOC SALON,,821 W 21ST STREET SUITE 101 ,,NORFOLK ,VA,23517,US,,36.8711446,-76.297212,,,,
MOSHI MOSHI SALON - Durham,,807 E Main St. # 2-110 ,,Durham ,NC,27701,US,919-564-1272,35.9908127,-78.8902944,,,,
ROCK PAPER SCISSORS SALON,,413 EAST CHAPEL HILL STREET ,,DURHAM ,NC,27701,US,,35.9972442,-78.899297,,,,
Barberellas Beauty Salon,,413 E. Chapel Hill St. Suite 008 ,,Durham ,NC,27701,US,919-357-7762,35.9972442,-78.899297,,,,
EMPIRE SALON,,2967 MICHELSON DRIVE STE K ,,IRVINE ,CA,92612,US,,33.6724209,-117.8466716,,,,
BLUE,,1170 S. WELLS AVE # 1 ,,RENO ,NV,89502,US,7753294555,39.5140915,-119.8027018,,,,
ELUDE AT BOCAGE,,7809 JEFFERSON HWY SUITE # H1 ,,BATON ROUGE ,LA,70809,US,,30.4282949,-91.1065241,,,,
Lora Moon Styling,,10401 E McDowell Mtn Ranch Road Suite 1 ,,Scottsdale ,AZ,85255,US,,33.6271929,-111.8549525,,,,
Willow hair Design,,14676 N Frank Lloyd Wright Blvd Suite 12 ,,Scottsdale ,AZ,85260,US,4805514911,33.6199708,-111.8739417,,,,
LALOU SALON,,15444 NORTH GREENWAY HAYDEN LOOP ,,SCOTTSDALE ,AZ,85260,US,,33.6265179,-111.9229987,,,,
KRISTY BATTERSBY,,7045 East 3rd Avenue ,,Scottsdale ,AZ,85251,US,6026848065,33.4960978,-111.9293484,,,,
PARLOR SALON,,115 W BROAD STREET ,,RICHMOND ,VA,23220,US,,37.5462974,-77.4435031,,,,
JOSHUA HENDERSON CO THE HIVE,,1801 Highpoint Ave ,,RICHMOND ,VA,23220,US,231-447-7727,37.570202,-77.468824,,,,
The Hive Salon co Jillian and Heat,,1801 High Point Ave ,,Richmond ,Va,23221,US,,37.570202,-77.468824,,,,
STUDIO COPAL,,3317 WEST CARY STREET ,,RICHMOND ,VA,23221,US,,37.5540034,-77.4835963,,,,
Haley 2 Salon &amp Spa,,3420 W Cary Street ,,Richmond ,Va,23221,US,,37.555212,-77.485872,,,,
SPA 310,,3500 WEST CARY STREET ,,RICHMOND ,VA,23221,US,,37.5555289,-77.4866426,,,,
WOW SALON,,1810 SOUTH L STREET ,,RICHMOND ,IN,47374,US,,39.814564,-84.877443,,,,
WHITNEYS THE ART OF HAIR DESIGN,,1912 STRAIGHTLINE PIKE ,,RICHMOND ,IN,47374,US,765.977.4899,39.801527,-84.889825,,,,
NUDE SALON,,245 HAMILITON ROW ,,BIRMINGHAM ,MI,48009,US,(248) 642-1300,42.5476677,-83.2135918,,,,
LUIGI BRUNI SALON,,706 N. OLD WOODWARD AVE. ,,BIRMINGHAM ,MI,48009,US,248.723.1500,42.5521143,-83.2182958,,,,
ORBIT,,2030 C 11TH AVENUE SOUTH ,,BIRMINGHAM ,AL,35205,US,2059180333,33.5009458,-86.7949918,,,,
HARRY BRUNO SALON,,9 SOUTH GOODMAN STREET ,,ROCHESTER ,NY,14607,US,,43.1525264,-77.5888507,,,,
CAPELLI SALON AND SPA,,333 S. MAIN STREET ,,ROCHESTER ,MI,48307,US,(248) 841-1338,42.6803666,-83.1342013,,,,
MODA HAIR DESIGN,,403 W. UNIVERSITY DRIVE ,,ROCHESTER ,MI,48307,US,,42.6818932,-83.1377873,,,,
ANDREW MARKE SALON,,6838 N ROCHESTER RD ,,ROCHESTER HILLS ,MI,48306,US,2486018808,42.6979098,-83.1364644,,,,
SALON DOLCE,,920 E HOERNER AVE ,,SPOKANE ,WA,99218,US,5097108522,47.7419108,-117.3967347,,,,
DEPT Z,,22 W MAIN ST SUITE 3 ,,SPOKANE ,WA,99201,US,,47.6593683,-117.4121976,,,,
KOI,,319 W 2ND AVENUE ,,SPOKANE ,WA,99201,US,,47.6542853,-117.4173017,,,,
SALON NOUVEAU,,224 N. Howard ,,Spokane ,WA,99201,US,,47.6598126,-117.4208022,,,,
CROWN BEAUTY BAR,,509 W SPRING ST STE 215 ,,FAYETTEVILLE ,AR,72701,US,,36.0644736,-94.166259,,,,
SUBCULTURE,,715 PACIFIC AVE ,,TACOMA ,WA,98402,US,971 5333220,47.2567321,-122.4397995,,,,
THE PARLOR,,711 ST. HELENS AVE SUITE 101A ,,TACOMA ,WA,98402,US,,47.2573531,-122.4421496,,,,
DOLCE SALON,,747 S FAWCETT AVE ,,TACOMA ,WAS,98402,US,,47.255541,-122.4431274,,,,
REFINERY STYLE BAR,,2511 N. PROCTOR ST. ,,TACOMA ,WA,98406,US,2069140395,47.270657,-122.488648,,,,
CHEMEL SALON,,4430 6TH AVENUE ,,TACOMA ,WA,98406,US,,47.2551103,-122.497697,,,,
Sundari &amp Co,,6440 Ep True Pkwy # 1106 ,,Des Moines ,IA,50266,US,,41.5744385,-93.7958884,,,,
Salon West (A.S.),,125 W Washington St ,,Madison ,GA,30650,US,706-343-0024,33.595964,-83.4683867,,,,
STUDIO Z,,6025 MONONA DR ,,MADISON ,WI,53716,US,6082217888,43.0543826,-89.3254749,,,,
Ellenwood,,1965 Winnebago St ,,Madison ,WI,53704,US,,43.0918061,-89.3551316,,,,
THORPS,,1988 ATWOOD AVE ,,MADISON ,WI,53704,US,,43.0925031,-89.3552994,,,,
Love and Light Hair Dressing,,849 E Washington Ave # 200 ,,Madison ,WI,53703,US,,43.081788,-89.3732671,,,,
ELEVATIONS SALON AND SPA,,15 North Butler Street ,,Madison ,WI,53703,US,608-661-3636,43.0771217,-89.3815042,,,,
Willow Hair Studio,,421 S Yellowstone # 113 ,,Madison ,WI,53719,US,,43.059292,-89.491579,,,,
Adrian B Fix Salon,,7475 Mineral Point Road # 33 ,,Madison ,WI,53719,US,,43.0585316,-89.5124142,,,,
Pure Color,,6505 Line Ave Suite 31 ,,Shreveport ,LA,71106,US,318-564-6413,32.447264,-93.7454561,,,,
Clayton Keith Salon,,920 West 6th St. ,,Little Rock ,AR,72201,US,479.567.2256,34.7445489,-92.2816016,,,,
Lox Hair Lounge,,4910 Kavanaugh Blvd Suite G ,,Little Rock ,AR,72207,US,501-508-5605,34.7684405,-92.3294064,,,,
CARACALLA SPA,,5715 KAVANAUGH STREET ,,LITTLE ROCK ,AR,72207,US,,34.7700065,-92.3377859,,,,
Studio 2121,,8214 Cantrell Rd ,,Little Rock ,AR,72227,US,501.219.1086,34.7772553,-92.3665412,,,,
CAPELLI SALON,,1514 WEALTHY STREET ,,GRAND RAPIDS ,MI,49506,US,,42.954734,-85.632107,,,,
EASTOWN SALON,,1427 ROBINSON RD SE ,,GRAND RAPIDS ,MI,49506,US,,42.957963,-85.634208,,,,
BUTTERFLY JAC SALON,,1310 SOUTH 300 E ,,SALT LAKE CITY ,UT,84111,US,,40.7414565,-111.8825031,,,,
TROUBADOUR,,908 S JEFFERSON ST ,,SALT LAKE CITY ,UT,84101,US,8016347932,40.7494435,-111.8953952,,,,
FRINGE,,9305 N Farley Ave. ,,KANSAS CITY ,MO,64157,US,,39.261234,-94.472309,,,,
Daren + Co,,1701 McGee St Suite 300 ,,Kansas City ,MO,64108,US,8166079006,39.0929869,-94.5798465,,,,
BELLE EPOQUE,,1518 WALNUT STREET ,,KANSAS CITY ,MO,64108,US,,39.0951223,-94.58264,,,,
BESPOKE,,1919 WYANDOTTE ,,KANSAS CITY ,MO,64109,US,,39.0903825,-94.5858103,,,,
Spa On Penn,,4143 Pennsylvania Ave ,,Kansas City ,MO,64111,US,816-531-8600,39.051566,-94.5902282,,,,
ArchiTexture Salon,,115b Gregory Blvd ,,Kansas City ,MO,64114,US,816-822-2770,38.9991867,-94.5872503,,,,
MOOD SWINGS,,809 WEST 17TH STREET ,,KANSAS CITY ,MO,64108,US,8162210747,39.09295,-94.593888,,,,
Roc-Coco,,5042 Kingston Pike ,,Knoxville ,TN,37919,US,865-275-5042,35.9389207,-83.9875745,,,,
ALCHEMY SALON,,6440 PAPERMILL ROAD ,,KNOXVILLE ,TN,37919,US,,35.9350805,-84.0132886,,,,
Hair Designers,,236 Morrell Rd ,,Knoxville ,TN,37919,US,865-691-1919,35.9252027,-84.0341229,,,,
SALON MIZU,,732 THIMBLE SHAOLS BLVD # 601 ,,NEWPORT NEWS ,VA,23606,US,,37.0827927,-76.4674917,,,,
SALON ELITE,,12715 WARWICK BLVD UNIT T ,,NEWPORT NEWS ,VA,23606,US,757-930-0900,37.0887133,-76.5021576,,,,
NTRIGUE,,277 SHREWSBURY STREET ,,WORCESTER ,MA,01604,US,,42.2679796,-71.7809599,,,,
SALON SPICE,,9561 Nall Ave ,,OVERLAND PARK ,KS,66207,US,,38.9543199,-94.6484354,,,,
ENVY SALON,,9304 W 87TH STREET ,,OVERLAND PARK ,KS,66212,US,9134491328,38.9717428,-94.6941227,,,,
H Salon,,1467 Market St Unit 107 ,,Chattanooga ,TN,37402,US,423-648-5353,35.036616,-85.307816,,,,
THE PINK DOOR SALON,,10662 GARDEN GROVE BLVD ,,GARDEN GROVE ,CA,92843,US,,33.7738408,-117.9466981,,,,
Loft 914 Hair Lounge,,4645 Frazee Road Unit D ,,Oceanside ,CA,92057,US,760-453-7056,33.2372018,-117.2970076,,,,
Adora Studio,,4111 Oceanside Blvd ,,Oceanside ,CA,92056,US,7604297867,33.2056002,-117.2885735,,,,
SALON JADORE,,2161 FERGUSON SUITE 105 ,,JACKSON ,MIC,49203,US,(517) 782-9800,42.1992067,-84.439062,,,,
Tangle,,214 Main St. ,,Jackson ,CA,95642,US,,38.3504389,-120.7749964,,,,
ROLLANDS BEAUTY BAR,,121 QUINCY CIRCLE ,,SANTA ROSA BEACH ,FL,32459,US,,30.3209175,-86.1374868,,,,
Sparrow Hair Co,,100 E St Suite 110 ,,Santa Rosa ,CA,95404,US,,38.4409272,-122.7097226,,,,
L SQUARED SALON,,715 4TH ST ,,SANTA ROSA ,CA,95404,US,,38.441599,-122.7119298,,,,
Innovation,,527 C Mendocino Avenue ,,Santa Rosa ,CA,95401,US,707-526-5230,38.4430464,-122.716244,,,,
STUDIO EIGHT,,113 E 8TH ST ,,VANCOUVER ,WAS,98685,US,,45.6270431,-122.671009,,,,
ENVY ME,,109 W 7TH STREET ,,VANCOUVER ,WA,98660,US,,45.6262637,-122.6723012,,,,
SALON MADRID,,8200 Haven Avenue ,,Rancho Cucamonga ,CA,91730,US,909-948-9090,34.1045256,-117.5788355,,,,
Hair Unlimited,,3235 S Sycamore Ave ,,Sioux Falls ,SD,57110,US,,43.516238,-96.6713642,,,,
Bella Vagos Salon,,521 Mchenry Avenue ,,Modesto ,CA,95354,US,209-573-8605,37.6517842,-120.9941121,,,,
STREAKS SALON,,1421 Standiford Ave ,,Modesto ,CA,95350,US,2095239800,37.690109,-121.01531,,,,
JON DAVID SALON,,6720 COMMERCE STREET ,,SPRINGFIELD ,VA,22150,US,,38.7810955,-77.1781165,,,,
KINDEST CUT SALON,,6121 A BACKLICK RD. ,,CONCORD CENTRE SPRINGFIELD ,VA,22150,US,7034511311,38.7831394,-77.1839225,,,,
THE GALLERY HAIR AND SPA,,2939 MONTVALE DR ,,SPRINGFIELD ,IL,62704,US,2177878119,39.7671998,-89.6933003,,,,
APPEARANCES,,3240 PLEASANT RUN ,,SPRINGFIELD ,IL,62711,US,,39.7534334,-89.7314237,,,,
THE G SPOT,,1 ORM STREET ,,PROVIDENCE ,RI,02904,US,4012287858,41.8356458,-71.4131711,,,,
North Salon,,2640 East Coast Hwy ,,Corona Del Mar ,CA,92625,US,949-627-9998,33.6023843,-117.8730433,,,,
LUSSURIA SALON AN SPA,,160 OAKWAY RD STE 100 ,,EUGENE ,OR,97401,US,,44.0643996,-123.0793361,,,,
BLOOM HAIR STUDIO,,321 MILL STREET SUITE 7 ,,EUGENE ,OR,97401,US,,44.0563016,-123.0863005,,,,
GALLIPOTT,,1611 S COLLEGE AVE ,,FORT COLLINS ,CO,80525,US,,40.5661965,-105.0786153,,,,
Skylight Salon,,112 North Tennessee St Unit B ,,McKinney ,TX,75069,US,469.569.1914,33.1976553,-96.6148157,,,,
TRIM SALON,,429 WEST LEMON STREET ,,LANCASTER ,PA,17603,US,,40.0436796,-76.3146253,,,,
CENTER STAGE SALON,,1004 NISSLEY ROAD ,,LANCASTER ,PA,17601,US,,40.0730441,-76.3952707,,,,
SALON ELEVATION,,1736 ESSINGTON ROAD ,,JOLIET ,IL,60435,US,,41.5535621,-88.1605085,,,,
THE WILLOW ROOM,,15800 DETROIT RD ,,LAKEWOOD ,OH,44107,US,,41.481391,-81.8276215,,,,
Shear Productions,,7156 W Alaska Drive ,,Lakewood ,CO,80226-3224,US,303-934-5700,39.7090553,-105.0760393,,,,
STUDIO LUXE,,1811 FREEDOM DR. SUITE 101 ,,NAPERVILLE ,IL,60563,US,,41.8036562,-88.1275877,,,,
NIKI MOON SALON,,1100 NORTH SHERMAN AVENUE SUITE 104 ,,NAPERVILLE ,IL,60563,US,630.210.8262,41.7886712,-88.1349736,,,,
SHEAR STYLE- ANN MARIE,,2949 erie blvd suite 111 ,,SYRACUSE ,NY,13224,US,,43.0559769,-76.0879715,,,,
The Color Geek Salon,,216 Johnny Mercer Blvd. ,,Savannah ,GA,31410,US,912-349-6264,32.0149997,-80.9840118,,,,
STUDIO ONE SALON,,8708 OLD TROY PIKE STE B ,,DAYTON ,OHI,45424,US,(937) 424-8473,39.8801595,-84.1365683,,,,
EMILY HAIR STUDIO,,3124 Glen Rock Rd ,,DAYTON ,OH,45410,US,(937) 603-9114,39.740368,-84.1498005,,,,
252 WEST SALON MED SPA,,252 W FRANKLIN ST ,,DAYTON ,OH,45459,US,9374339378,39.6277984,-84.1678378,,,,
SALON RENEWAL,,82 MAGNOLLIA DR SUITE K ,,DAYTON ,OH,45440,US,(419) 306-8227,39.7459101,-84.1845482,,,,
AQUILANO ARTISTRY,,712 NORTH WASHINGTON STREET ,,ALEXANDRIA ,VIR,22314,US,703-683-0755,38.812437,-77.0457104,,,,
Cualtzin Salon,,1600 King Street ,,Alexandria ,VA,22314,US,,38.805982,-77.056851,,,,
Studio C Salon,,1116 Broadway St # 4 ,,Alexandria ,MN,55308,US,,45.8798664,-95.377736,,,,
AQUA COLOR LOUNGE,,787 WEATHERLY DR. SUITE 100 ,,CLARKSVILLE ,TN,37043,US,,36.5723454,-87.2867138,,,,
Meraki Hair Studio,,1725 Wilma Rudolph Blvd Unit G ,,Clarksville ,TN,37040,US,931.919.2558,36.5592435,-87.3159081,,,,
DUSSERRE SALON &amp SPA,,2143 N. TUSTIN # 12 ,,ORANGE ,CA,92865,US,,33.8236266,-117.8341051,,,,
ADIANAS SALON AND SPA,,1972 NORTH TUSTIN AVENUE ,,ORANGE ,CA,92865,US,,33.820931,-117.8368369,,,,
Suite Beauty,,665 N. Tustin Street Suite 119 ,,Orange ,CA,92867,US,7143374896,33.798198,-117.8351339,,,,
SALON 9,,190 SOUTH GASSELL STREET ,,ORANGE ,CA,92866,US,,33.7862806,-117.853549,,,,
SALON REBELLE,,127 S. OLIVE STREET ,,ORANGE ,CA,92866,US,,33.7872569,-117.853939,,,,
JOSHUA CHRISTOPHER,,363 EAST IMPERIAL HWY. ,,FULLERTON ,CA,92835,US,7148793932,33.9181246,-117.9267804,,,,
Salon Lujon,,216 North Harbor Blvd ,,Fullerton ,CA,92832,US,714-738-1882,33.8719946,-117.9240252,,,,
ANANADA HAIR LOUNGE,,49 WATER STREET ,,WARREN ,RI,02885,US,,41.734494,-71.28553,,,,
DAKOTA SALON,,8895 CENTRE PARK DRIVE ,,COLUMBIA ,MD,21045,US,,39.2295983,-76.8124444,,,,
PATRICKS,,9194 RED BRANCH RD ,,COLUMBIA ,MD,21045,US,,39.1975546,-76.8331764,,,,
VICTORIA AND ALBERT,,10715 CHARTER DRIVE STE 106 ,,COLUMBIA ,MD,21044,US,,39.2111733,-76.8831416,,,,
THE STRAND SALON,,1100 Club Village Dr Suite 106 ,,Columbia ,MO,65203,US,573-875-3008,38.9092793,-92.3559349,,,,
KARMA A SALON,,263 COLLEGE STREET ,,NEW HAVEN ,CT,06510,US,,41.3069849,-72.9286921,,,,
The Canyon Salon,,3693 E Thousand Oaks Blvd ,,Thousand Oaks ,CA,91362,US,8057771140,34.1650635,-118.8279294,,,,
GIBSON HAIR &amp MAKEUP,,17 PRINCESS STREET SUITE B ,,CHARLESTON ,SC,29401,US,843-720-1611,32.77994,-79.934197,,,,
ECLIPSE STUDIO,,1505 18TH STREET SUITE 5 ,,CHARLESTON ,IL,61920,US,(217)348-6700,39.4837971,-88.1624846,,,,
MOODS SALON AND SPA,,905 3rd Street SE Ste 1 ,,CEDAR RAPIDS ,IA,52402,US,,41.9722065,-91.6607584,,,,
MODE SALON,,603 E. UNIVERSITY AVE ,,GAINESVILLE ,FL,32601,US,,29.6518819,-82.319999,,,,
Boom Salon,,1721 County Road B2 West # 102 ,,Roseville ,MN,55113,US,,45.015734,-93.1725499,,,,
Rinse,,2401 Fairview Ave Studio 25 ,,Roseville ,MN,55113,US,,45.0130712,-93.1799648,,,,
The Beauty Parlor - Roseville,,342 Lincoln Street ,,Roseville ,CA,95678,US,916-705-3004,38.7517743,-121.2849331,,,,
The Garage,,121 Church Street ,,Roseville ,CA,95678,US,,38.7511587,-121.2855252,,,,
ECLECTIC CHIC,,4008 SOUTH DEMAREE SUITE B ,,VISALIA ,CA,93291,US,,36.294462,-119.329658,,,,
Marquis Hair Studio,,523 North Avenue ,,Elizabeth ,NJ,07208,US,9083528855,40.6730412,-74.2302728,,,,
PARLOUR 76,,420 Dixie St. ,,Carrollton ,GA,30117,US,770-490-6735,33.5745358,-85.0720849,,,,
ASHLEY STUDIO,,709 SOUTH 18TH STREET ,,LAFAYETTE ,IN,47905,US,765.404.7812,40.409634,-86.8765986,,,,
the loft,,1009 E St. Mary Blvd. ,,Lafayette ,LA,70503,US,337-873-1966,30.208216,-92.013174,,,,
MARCELOS SALON AND SPA,,2713 RODD STREET ,,MIDLAND ,MI,48640,US,,43.6231551,-84.2282419,,,,
CARLEE &amp COMPANY SALON,,2851 SOUTH PIKE AVE. SUITE E ,,ALLENTOWN ,PA,18103,US,6107910505,40.5677864,-75.4491278,,,,
NICOLE LYNN HAIR,,5930 Hamilton Blvd. Ste. # 5 ,,ALLENTOWN ,PA,18106,US,,40.5583944,-75.5714993,,,,
PURA VIDA COLOR STUDIO,,207 SOUTH 4TH AVENUE ,,ANN ARBOR ,MI,48104,US,,42.2802004,-83.7471839,,,,
Bombshells Hair Studio,,803 N Thompson Lane ,,Murfreesboro ,TN,37129,US,6159078004,35.8598304,-86.4304971,,,,
Anton Salon,,2887 College Ave ,,Berkeley ,CA,94705,US,5106478866,37.858837,-122.2528871,,,,
Panache on College,,2928 College Avenue ,,Berkeley ,CA,94705,US,,37.8578307,-122.2533413,,,,
VINE STREET SALON,,2118 VINE STREET SUITE D ,,BERKELEY ,CA,94709,US,,37.8801201,-122.2683197,,,,
BLOW SALON BERKELEY,,2112 BERKELEY WAY ,,BERKELEY ,CA,94704,US,,37.8729384,-122.267953,,,,
FESTOON (BERKELEY),,1401 MARTIN LUTHER KING JR WAY ,,BERKELEY ,CA,94709,US,,37.8813111,-122.273827,,,,
Le Salon - Berkeley,,1944 Bonita Avenue ,,Berkeley ,CA,94704,US,510-932-5285,37.8721751,-122.2720955,,,,
Modena Salon,,1722 Solano Avenue ,,Berkeley ,CA,94707,US,,37.89101,-122.281801,,,,
MAGNOLIA SALON,,2482 NEWPORT BLVD # 7 ,,COSTA MESA ,CA,92627,US,,33.6594975,-117.8999324,,,,
Sweeter Than Honey,,1724 Tustin Avenue ,,Costa Mesa ,CA,92627,US,9492209070,33.6312918,-117.9112255,,,,
LOTUS SALON &amp SPA,,427 E 17th Street STE B ,,COSTA MESA ,CA,92627,US,,33.6297776,-117.9114072,,,,
SHANGHAI,,333 EAST 17TH STREET # 6 ,,COSTA MESA ,CA,92627,US,,33.6318712,-117.9146004,,,,
SALTY BLONDE CUT,,1658 Santa Ana Ave ,,Costa Mesa ,CA,92627,US,,33.6319081,-117.9164027,,,,
TEK SALON AND SPA,,230 E. 17TH STREET # 120 ,,COSTA MESA ,CA,92627,US,,33.6349476,-117.917588,,,,
The Parlor,,1815 Newport Blvd Suite 6 ,,Costa Mesa ,CA,92627,US,,33.6403883,-117.9201256,,,,
Uncaged Salon,,188 E 17th Street # 102 ,,Costa Mesa ,CA,92627,US,949-722-7325,33.6358734,-117.9188231,,,,
Nichole Lee Salon,,3234 Kirkwood Hwy Ste C ,,Wilmington ,DE,19808,US,,39.7423187,-75.5765882,,,,
Salon Pasca,,4559 New Linden Hill ,,Wilmington ,DE,19808,US,,39.7345609,-75.6906363,,,,
BELLEZZA SALON,,5704 OLEANDER DRIVE ,,WILMINGTON ,NC,28403,US,,34.208457,-77.8501655,,,,
TWIG HAIR LOUNGE,,2653 GATEWAY ROAD SUITE 104 ,,CARLSBAD ,CA,92009,US,,33.1266403,-117.2534524,,,,
La Costa Resorts Omni Salon,,2100 Costa Del Mar Road ,,Carlsbad ,CA,92009,US,760-438-9111,33.0919712,-117.2662534,,,,
Head For Change,,1822 Marron Road Suite A Studio 7 ,,Carlsbad ,CA,92008,US,460-574-8044,33.178605,-117.3390725,,,,
BELLA DORA SPA,,5617 PASEO DEL NORTE # 200 ,,CARLSBAD ,CA,92008,US,7604387404,33.1262842,-117.3235708,,,,
Hair Body &amp Sol,,300 Carlsbad Village Dr Unit 210 ,,Carlsbad ,CA,92008,US,7606310034,33.1592711,-117.350639,,,,
NUMBER 34,,9029 EAST FLORENCE AVENUE ,,DOWNEY ,CA,90240,US,,33.9471211,-118.1163206,,,,
Bella Allure,,39584 Winchester Rd # B ,,Temecula ,CA,92592,US,9517571139,33.5412362,-117.1426895,,,,
Acappella,,28780 OLD TOWN FRONT STREET # C6 ,,TEMECULA ,CA,92590,US,,33.4889869,-117.1446089,,,,
ABOVE AND BEYOND BEAUTY,,41925 3RD ST ,,TEMECULA ,CA,92590,US,9516939777,33.4936184,-117.1473482,,,,
SALON MOSELLE,,41925 FIFTH ST # 103 ,,TEMECULA ,CA,92590,US,,33.4955506,-117.1499724,,,,
Main Street Salon - Temecula,,42031 Main Street # F ,,Temecula ,CA,92590,US,951-526-7646,33.4932653,-117.1492296,,,,
Rucci Salon &amp Spa Boutique,,7680 S University Blvd ,,Centennial ,CO,80122,US,303-770-5555,39.5780955,-104.9598439,,,,
Alyssa DeNoble,,2798 Sussex Road ,,Green Bay ,WI,54311,US,,44.545881,-87.902616,,,,
ICON SALON,,2331 VELP AVE STE. C ,,GREEN BAY ,WI,54303,US,,44.538856,-88.035631,,,,
Be A Belle  Courtney K,,2514 Parkwood Dr. ,,Green Bay ,Wis,54304,US,,44.507073,-88.094986,,,,
Downtown Refinery,,2595 Canyon Blvd Ste 110 ,,Boulder ,CO,80302,US,303-718-2696,40.0178873,-105.2609079,,,,
THE SIDE DOOR,,2070 BROADWAY ST. SUITE 110 ,,BOULDER ,CO,80302,US,3039276081,40.0185734,-105.280182,,,,
THE ARTISAN CO.,,117 W. SOUTH ST. ,,LANSING ,MI,48910,US,(989) 745-8480,42.7200154,-84.5532613,,,,
PURE HAIR STUDIO,,5515 UTICA RIDGE RD ,,DAVENPORT ,IA,52807,US,,41.578252,-90.5117865,,,,
BELLA HAIR SALON,,2322 E KIMBERLY BLVD SUITE 140S ,,DAVENPORT ,IA,52807,US,563.355.2303,41.5575374,-90.5432913,,,,
THE HAIR LOUNGE,,3420 ORCUTT RD. SUITE 102 ,,SANTA MARIA ,CA,93455,US,8059378986,34.8971547,-120.43558,,,,
Cutler 2 Salon,,2551 S. Texas Ave. Suite E ,,College Station ,TX,77840,US,979-764-3000,30.6059999,-96.3065287,,,,
Gentry Salon Inc.,,401 Clovis Avenue ,,Clovis ,CA,93612,US,559-298-4200,36.8247689,-119.700369,,,,
The Dandelion Salon &amp Barber,,1220 Shaw Ave Suite 101 ,,Clovis ,CA,93612,US,5599407841,36.8074042,-119.6935067,,,,
BRECYN,,8300 Beverly Blvd. ,,EVERETT ,WA,98203,US,4253489288,47.9224834,-122.2075279,,,,
1630 Hair Artisans,,1630 Duvall Ave NE Suite E ,,Renton ,WA,98059,US,4252773722,47.5065282,-122.1554324,,,,
Moda Organic Salon &amp Spa,,5335 NE 4TH ST. STE 2 ,,RENTON ,WA,98059,US,4252286222,47.4880972,-122.1471808,,,,
URBANNA NATURAL SPA,,740 SW 34TH ST ,,RENTON ,WA,98057,US,,47.449947,-122.2268097,,,,
DANIEL ROSS -BONNEY LAKE,,740 SW 34th ST ,,RENTON ,WA,98057,US,2534470999,47.449947,-122.2268097,,,,
Serenity,,24194 Alicia Pkwy Suite D ,,Mission Viejo ,CA,92691,US,9499168655,33.6091514,-117.6846796,,,,
GOLD AND BRAIDS,,27525 PUERTE REAL SUITE 600 ,,MISSION VIEJO ,CA,92891,US,,33.5636892,-117.6718436,,,,
Modern Love Salon,,2210 E Vista Way # 12 ,,Vista ,CA,92084,US,760-805-0325,33.1755839,-117.1766299,,,,
Xcentric Salon,,314 Park Avenue ,,Vista ,CA,92084,US,760-438-91111,33.2007766,-117.2393544,,,,
SALON SABEHA,,201 CATE STREET ,,PORTSMOUTH ,NH,03801,US,(603) 430-1133,43.0705289,-70.7753153,,,,
SODA SALON,,597 Atlanta Street ,,Roswell ,GA,30075,US,,34.0149942,-84.3626058,,,,
Adore Studio,,330 South 8th Street ,,Quincy ,IL,62301,US,(217) 617-0661,39.9284236,-91.4035375,,,,
Blossom,,336 East Winnie Lane ,,Carson City ,NV,89706,US,775-884-3667,39.179169,-119.7639984,,,,
VENUS STYLING,,4806 WEST 83RD STREET ,,BURBANK ,IL,60459,US,708.499.0994,41.742109,-87.741805,,,,
Darling Nikki Salon,,1022 N Hollywood Way ,,Burbank ,CA,91505,US,8185883262,34.1685871,-118.3470431,,,,
SUITE 103,,1300 Market Street SUITE 103 ,,Redding ,CA,96001,US,916-761-7042,40.5860288,-122.3919471,,,,
THE PARLOUR DOWNTOWN- Candace,,1324 Court Street ,,Redding ,CA,96001,US,5305263066,40.5846129,-122.3963144,,,,
SALON DIMARCO,,733 MASSACHUSETTS STREET ,,LAWRENCE ,KS,66044,US,7858430044,38.969989,-95.2361772,,,,
LISA GAEDE,,350 CHAPALA STREET SUITE 101 ,,SANTA BARBARA ,CA,93101,US,,34.4145548,-119.6947549,,,,
19 Blue,,19 West Ortega St ,,Santa Barbara ,CA,93101,US,8058861238,34.4179943,-119.6985269,,,,
UNDERGROUND HAIR ARTISTS INC,,1021 CHAPALA STREET ,,SANTA BARBARA ,CA,93101,US,,34.4209665,-119.7038217,,,,
MARRAKESH,,229 4TH AVE SE ,,ALBANY ,OR,97322,US,5417919411,44.6355024,-123.1023781,,,,
CIAO BELLA HAIR STUDIO,,1715 IRON HORSE DRIVE # 152 ,,LONGMONT ,CO,80501,US,3035322010,40.1587027,-105.0609893,,,,
MUSE A HAIR SALON-JENNIFER,,200 E PALMETTO PK ,,Boca Raton ,flo,33432,US,,26.3500847,-80.082886,,,,
SALON SORA,,1675 N Military Tr # 700 ,,Boca Raton ,Flo,33486,US,,26.363457,-80.124685,,,,
Beyond Hair by Jess,,720 S. Rancho Santa Fe Road ,,San Marcos ,CA,92078,US,760-450-8585,33.1325644,-117.2076003,,,,
LORRAINE COLOUR BAR,,2718 MAIN STREET ,,SANTA MONICA ,CA,90405,US,,34.0004124,-118.482391,,,,
ART LUNA,,2116 MAIN STREET ,,SANTA MONICA ,CA,90405,US,,34.0058877,-118.4878901,,,,
SALON TRU SANTA MONICA,,614 SANTA MONICA BLVD ,,SANTA MONICA ,CA,90401,US,,34.0181266,-118.492698,,,,
The Line - Gillian Kuhlmann,,1333 2nd Street Suite 100 Studio29 ,,Santa Monica ,CA,90401,US,661-733-8030,34.0157177,-118.4974729,,,,
SALON DECINZIA,,1146 BEACON STREET ,,NEWTON HIGHLANDS ,MA,02461,US,,42.3307704,-71.2098223,,,,
THE CLUB,,664 E 1ST AVE STE 30 ,,CHICO ,CA,95926,US,,39.7417471,-121.8372943,,,,
Two22 Salon,,222 West 3rd Street ,,Chico ,CA,95928,US,530-592-3961,39.728891,-121.841113,,,,
949 SALON,,3601 JAMBOREE RD. # 10 ,,NEWPORT BEACH ,CA,92660,US,,33.6546702,-117.8658825,,,,
Salon Gregories,,200 Newport Center Dr. # 103 ,,Newport Beach ,CA,92660,US,949-644-6671,33.612303,-117.874362,,,,
Lavender Salon &amp Boutique,,1617 Westcliff Drive Suite 102 ,,Newport Beach ,CA,92663,US,9495152900,33.6257687,-117.9057652,,,,
SOHO,,1815 WESTCLIFF DRIVE ,,NEWPORT BEACH ,CA,92660,US,,33.6265396,-117.9068287,,,,
Salon Luxe - Newport Beach,,472 Old Newport Blvd ,,Newport Beach ,CA,92663,US,949-631-1668,33.6278939,-117.9256161,,,,
LOLAS SALON &amp GALLERY,,60 BILTMORE AVE STE 2A ,,ASHEVILLE ,NC,28801,US,,35.5927999,-82.550796,,,,
ANANDA HAIR STUDIO,,22 Broadway ,,Asheville ,NC,28801,US,828-232-1017,35.5961038,-82.5518935,,,,
ECLIPSE SALON,,16 WALL STREET ,,ASHEVILLE ,NC,28801,US,828-285-0019,35.5946824,-82.5551791,,,,
ANANDA WEST,,37 Paynes Way Suite 005 ,,Asheville ,NC,28801,US,828-236-2444,35.5861437,-82.5663199,,,,
ROOTS HAIR SALON,,4516 Rogers Ave Suite B4 ,,Fort Smith ,AR,72901,US,4792263900,35.3675983,-94.3821884,,,,
AIDAN JAMES SALON,,36 NORTH WEST BLVD ,,NASHUA ,NH,03063,US,6035980795,42.8001973,-71.5420291,,,,
PALOMA &amp FRIENDS SALON,,12922 HADLEY STREET ,,WHITTIER ,CA,90601,US,,33.9825795,-118.0377815,,,,
SALON CHEVAL,,13505 WHITTIER BLVD. ,,WHITTIER ,CA,90605,US,,33.9627924,-118.0315125,,,,
ELEVATION THE SALON,,904 ELDORADO ROAD ,,BLOOMINGTON ,IL,61704,US,309.661.9400,40.4673287,-88.9533178,,,,
LIFT STUDIO,,2310 East Oakland Avenue Suite 12 ,,Bloomington ,IL,61701,US,309.663.0509,40.4740312,-88.9575281,,,,
Kindred- A Beauty Lounge,,301 South Range Line ,,Carmel ,IN,46032,US,,39.9756928,-86.1266475,,,,
Alexandra Grant Salon,,12955 Old Meridian Street Suite 105 ,,Carmel ,IN,46032,US,,39.9766885,-86.1462381,,,,
Ziba Beauty Lounge,,3664 B The Barnyard ,,Carmel ,CA,93923,US,831-601-0058,36.5407428,-121.9069456,,,,
ANTHONYS SALON,,3575 BRIDGE ROAD STE 17 ,,SUFFOLK ,VIR,23435,US,757-638-0088,36.860474,-76.4656929,,,,
FUSION3 - LIVERMORE,,1776 1ST STREET ,,LIVERMORE ,CA,94550,US,,37.6802228,-121.774311,,,,
ALCHEMY FINE HAIRSTYLING,,8 Traction Street ,,Greenville ,SC,29611,US,864-517-6618,34.8466352,-82.428718,,,,
SUITE ESCAPE,,11500 LANTERN ROAD ,,FISHERS ,IN,46038,US,765.620.9180,39.9559895,-86.0134927,,,,
SH Hair and Make Up,,1500 W CAYUSE CREEK DR STE 150 ,,MERIDIAN ,ID,83642,US,5414206630,43.656236,-116.4125254,,,,
SANCTUARY,,119 W STATE STREET O & # 039FALLON ,,,IL,62269,US,,38.5921808,-89.9120067,,,,
HONEY,,310 W. HOLLY STREET ,,BELLINGHAM ,WA,98225,US,,48.7516379,-122.4816258,,,,
SALON BELLISSIMA,,1215 OLD FAIRHAVEN PKWY # D ,,BELLINGHAM ,WA,98225,US,,48.7179125,-122.5014517,,,,
Sola Suites- Allison,,110 Triple Creek Dr Suite 40 Room 27 ,,Longview ,TX,75601,US,9032617473,32.5200752,-94.7379741,,,,
ASTRA SALON,,499 PROVIDENCE STREET ,,WARWICK ,RI,02886,US,4018270007,41.71301,-71.496959,,,,
Soho Salon,,11 First Street Suite 6 ,,Warwick ,NY,10990,US,845-544-7944,41.255623,-74.3598584,,,,
TANGERINE HAIR,,10NW MINNESOTA STE 130 ,,BEND ,OR,97701,US,,44.0580874,-121.3118354,,,,
HOUSE OF SMITH,,916 NW WALLSTREET STE 100 ,,BEND ,OR,97701,US,,44.0589215,-121.3136999,,,,
SPRUCE SALON,,220 MARSHALL STREET ,,REDWOOD CITY ,CA,94063,US,6503638107,37.4867562,-122.2318547,,,,
Salon Eleven,,700 Central Avenue Suite B ,,Napa ,CA,94558,US,,38.3142718,-122.2855337,,,,
Rose Ray Artistry,,1000 Clinton Street ,,Napa ,CA,94559,US,530-941-8565,38.3013465,-122.287493,,,,
SAGE SALON,,1041 LINCOLN AVENUE ,,NAPA ,CA,94558,US,7072545050,38.3085381,-122.2940709,,,,
The Parlor - Napa,,1701 Lincoln Avenue ,,Napa ,CA,94558,US,707-815-0711,38.307322,-122.300457,,,,
IPPATSU,,73 E CHESTER STREET ,,CHAMPAIGN ,IL,61820,US,,40.1155274,-88.239229,,,,
EDENS RAIN SALON,,501 North Neil ,,Champaign ,IL,61820,US,217.352.3366,40.1203518,-88.2437769,,,,
MIRROR IMAGE,,211 MAIN STREET ,,NEW ROCHELLE ,NY,10801,US,9146367441,40.9153301,-73.7717947,,,,
ANGELIC IMAGE,,1785 CRANSTON STREET ,,CRANSTON ,RI,02920,US,4019433022,41.780741,-71.466021,,,,
The Young American Salon,,150 East Main Street ,,Tustin ,CA,92780,US,714-728-7748,33.7419447,-117.8230862,,,,
SAGE TRYALL,,1300 WARDS FERRY ROAD ,,LYNCHBURG ,VA,24502,US,,37.3511756,-79.1911669,,,,
Bliss Salon,,103 Hexham Drive ,,Lynchburg ,Vir,24502,US,434-239-0763,37.3558474,-79.2402776,,,,
RO SHAM BO,,1101 E JACKSON ST STE 102 ,,MEDFORD ,OR,97504,US,5415317678,42.3313368,-122.8589706,,,,
THE NEST,,26 HAWTHORNE ST ,,MEDFORD ,OR,97504,US,541.973.7732,42.3288871,-122.867011,,,,
HEZ STUDIO,,528 MOOSIC STREET ,,SCRANTON ,PA,18505,US,5702097877,41.402589,-75.659755,,,,
SALON A GO GO,,544 SPRUCE STREEY ,,SCRANTON ,PA,18503,US,5709618875,41.4070926,-75.6626417,,,,
BLUSH,,100 W MICHIGAN AVE ,,KALAMAZOO ,MI,49007,US,,42.2921734,-85.5839413,,,,
Compliments Hair Design,,1422 Everett Street ,,Alameda ,CA,94501,US,510-523-9577,37.7638579,-122.2402473,,,,
DESERT ROSE SALON &amp SPA,,659 EAST 15TH STREET SUITE M ,,UPLAND ,CA,91786,US,,34.1187541,-117.6421938,,,,
COUTURE STUDIO ELAYNE,,141 West Foothill Blvd suite C ,,Upland ,CA,91786,US,909-374-7258,34.1083153,-117.6540234,,,,
PARLOR 113 SALON,,418 S Gay Street ,,AUBURN ,AL,36830,US,3343297113,32.598047,-85.480242,,,,
979 HAIR DESIGN,,979 LINCOLN WAY ,,AUBURN ,CA,95603,US,,38.8985178,-121.0715922,,,,
VINTAGE ROSE,,1291 LINCOLN WAY SUITE 100 ,,Auburn ,CA,95603,US,530-863-7692,38.8974929,-121.0748442,,,,
THE COMB HAIR STUDIO,,729 CHICAGO AVE ,,EVANSTON ,IL,60202,US,847.859.2566,42.0312732,-87.6781919,,,,
FUSION 3 PLEASANTON,,722 MAIN STREET ,,PLEASANTON ,CA,94566,US,,37.6631336,-121.8743635,,,,
HOUSE OF CABELO,,363 SAINT MARY ST. ,,PLEASANTON ,CA,94566,US,9254261250,37.6630504,-121.875805,,,,
Rock Paper Scissor,,420 Palladio Way ,,Folsom ,CA,95601,US,,38.6506034,-121.1215982,,,,
INDIE SALON,,715 SUTTER STREET SUITE A ,,FOLSOM ,CA,95630,US,,38.6772506,-121.1768161,,,,
CARBONJESSI KOEHLER,,2027 S Gladys Avenue ,,Appleton ,WI,54915,US,,44.243629,-88.3849526,,,,
Bold Salon,,207 W. College Ave Ste 200 ,,Appleton ,WI,54911,US,,44.2614531,-88.4076784,,,,
Sweet Salon - AZ,,13778 W McDowell Rd. # 302 ,,Goodyear ,AZ,85395,US,6239354354,33.4654749,-112.3556386,,,,
Thompson &amp Co,,513 E Washington St ,,Iowa City ,IA,52440,US,,41.659888,-91.5280319,,,,
STUDIO 7,,242 West Main Street ,,Decatur ,IL,62523,US,217.233.1597,39.8414756,-88.958151,,,,
VAN BIER,,914 CLINTON STREET ,,WAUKESHA ,WI,53186,US,2624463725,43.0115511,-88.232946,,,,
REDHEAD SALON,,1512 WHITE RIVER BOULEVARD ,,MUNCIE ,IN,47304,US,,40.1918403,-85.4044498,,,,
PARLOUS SALON,,2808 West Jackson Street ,,Muncie ,IN,47304,US,765.284.6100,40.1933229,-85.4200021,,,,
The Hive Hair Essentials - Redlands,,147 East Vine Street Suite 30 ,,Redlands ,CA,92373,US,909-641-7978,34.0549072,-117.1805906,,,,
HARLO &amp STATE,,6 EAST STATE STREET ,,REDLANDS ,CA,92373,US,,34.0561805,-117.1823291,,,,
Pure Vida,,505 Cerillos Road Unit A203 ,,Santa Fe ,NM,87501,US,505-463-5272,35.6822372,-105.9448974,,,,
WILD HARE OF SANTA FE,,418 MONTEZUMA AVENUE ,,SANTA FE ,NM,87501,US,,35.6850541,-105.9464513,,,,
SALON DEL MAR,,1221 FLAGMAN WAY # A1 ,,SANTA FE ,NM,87505,US,,35.6741994,-105.9616096,,,,
SALON LORRENE,,833 N. QUENTIN ROAD ,,PALATINE ,IL,60067,US,,42.1259731,-88.0616685,,,,
CHEERS!,,443 HILL ST ,,MISSOULA ,MT,59801-4207,US,4062416566,46.8571997,-113.9982667,,,,
LEQUIPE SALON,,276 FRANKLIN VILLAGE DRIVE ,,FRANKLIN ,MA,02038,US,,42.088997,-71.424731,,,,
ECCO SALON,,341 MAIN ST. ,,FRANKLIN ,TN,37064,US,,35.9245338,-86.8697572,,,,
COCO BLACK SALON,,2931 LONG PRAIRIE RD SUITE 200 ,,FLOWER MOUND ,TX,75022,US,,33.0252171,-97.0724224,,,,
KJ &amp Kompany,,2060 Crossroads Suite161 ,,Waterloo ,A,50702,US,,42.462275,-92.321914,,,,
Studio B,,108 North 10th Street ,,Mount Vernon ,IL,62864,US,,38.3180301,-88.9035951,,,,
Terrance Michael Salon,,9671 GLADIOLUS DRIVE STE 101 ,,FORT MYERS ,fl,33908,US,2394547200,26.519566,-81.9151106,,,,
Bobby Pin Salon,,1012 S. Pacific Coast Highway ,,Redondo Beach ,CA,90277,US,3109616996,33.8263866,-118.3853777,,,,
FOCAS,,870 SOUTH RANDALL ROAD ,,ST. CHARLES ,IL,60174,US,,41.9004067,-88.3393692,,,,
Posh Hair Lounge,,18340 Yorba Linda Blvd # 103 ,,Yorba Linda ,CA,92886,US,714-996-8674,33.8878649,-117.8132907,,,,
The Hair Lounge - YL,,4981 Valley View Ave # B ,,Yorba Linda ,CA,92886,US,714-986-9561,33.8891748,-117.8289357,,,,
INDULGE SALON,,1432 S MAIN STREET ,,WALNUT CREEK ,CA,94596,US,,37.892123,-122.0578013,,,,
Insignia Hair Salon,,1530 Locust ,,Walnut Creek ,CA,94596,US,925-891-4747,37.900176,-122.062544,,,,
Studio 11,,1651 Botelho Drive Suite 190 # 11 ,,Walnut Creek ,CA,94596,US,,37.8939213,-122.062127,,,,
SALON 730,,730 KENMORE AVE ,,FREDERICKSBURG ,VA,22401,US,,38.2986907,-77.4647745,,,,
ROBIN A HAIR STUDIO SALON,,736 WARRENTON RD STE 103 ,,FREDERICKSBURG ,VA,22406,US,,38.352771,-77.5041258,,,,
BELLEZA,,244 E PATRICK STREET ,,FREDERICK ,MD,21701,US,,39.4132709,-77.4173064,,,,
Opus Arcade,,460 Cambridge Avenue ,,Palo Alto ,CA,94306,US,6503227878,37.4265023,-122.1464037,,,,
Pin Up Salon,,113 West Birch Avenue ,,Flagstaff ,AZ,86001,US,9287741122,35.1997801,-111.6500387,,,,
Headspace - AZ,,217 S San Francisco Street ,,Flagstaff ,AZ,86001,US,310-560-2338,35.1938996,-111.6498115,,,,
THE LOFT SALON,,21 LEWIS ROAD ,,CAMARILLO ,CA,93010,US,,34.2163191,-119.0349581,,,,
Salon Elite  Nikki,,2110 Eagle Creek Lane # 550 ,,Woodbury ,MN,55129,US,,44.9184519,-92.9017806,,,,
APOTHECA SALON,,101 E 3RD STREET ,,BETHLEHEM ,PA,18015,US,,40.6121951,-75.3770709,,,,
CLEMENTINE SALON,,77 W. BROAD ST. 1C ,,BETHLEHEM ,PA,18018,US,,40.621936,-75.380764,,,,
CROP SALON CO KELLY,,1735 W STATE OF FRANKLIN RD SUITE 7 ,,JOHNSON CITY ,TN,37604,US,,36.300753,-82.377268,,,,
SHAKE IT,,2377 S EL CAMINO REAL ,,SAN CLEMENTE ,CA,92672,US,,33.4125818,-117.6002961,,,,
Rtistic Salon,,418 N El Camino ,,San Clemente ,CA,92672,US,9493697842,33.4293212,-117.6147209,,,,
Salon Zinnia,,641 Camino De Los Mares ,,San Clemente ,CA,92673,US,949-429-2020,33.4592886,-117.6504401,,,,
Teezerz,,291 Broadway ,,Bayonne ,NJ,07002,US,2018231556,40.6568494,-74.1245863,,,,
NAKED HAIR SALON,,290 SE 6TH AVE STE 3 ,,DELRAY BEACH ,FL,33483,US,5162653396,26.456391,-80.0672259,,,,
Cloud 10 Delray,,32 se 2nd ave ,,delray beach ,flo,33444,US,,26.46075,-80.0715748,,,,
TYLER PRESLEY,,15280 JOG ROAD # I ,,DELRAY BEACH ,FL,33446,US,,26.4497389,-80.1461399,,,,
Salon 356,,27601 Forbes Road Suite 60 ,,Laguna Niguel ,CA,92677,US,,33.5625158,-117.6751575,,,,
Studio OC,,23982 Aliso Creek Rd. ,,Laguna Niguel ,CA,92677,US,9496432710,33.5546342,-117.7112386,,,,
Studio M - Misty,,1319 Oak St ,,Conway ,Ar,72034,US,501-329-4110,35.0900268,-92.4422589,,,,
L.Evate,,1313 West San Antonio St. ,,New Braunfels ,TX,78130,US,830-237-4689,29.6919411,-98.1353058,,,,
CHANGING ROOM,,666 HURON BLVD ,,MARYSVILLE ,MI,48040,US,(810) 364-2888,42.9130014,-82.4865778,,,,
STUDIO 31,,17795 ST RTE 31 ,,MARYSVILLE ,OH,43040,US,937-642-3310,40.2605062,-83.3754122,,,,
Ciao Bella Salon,,1 West Pine Street ,,Lodi ,CA,95240,US,209-210-7687,38.1341333,-121.2722794,,,,
Stylush Salon,,3099 College Park Dr # 220 ,,Conroe ,TX,77384,US,832.296.0788,30.205292,-95.464643,,,,
FUTURE CONCEPTS,,6403 CITY WEST PARKWAY ,,EDEN PRAIRIE ,MN,55344,US,,44.8880162,-93.4177706,,,,
Onyx Salon,,9920 Foley Blvd Suite # 170 ,,Coon Rapids ,MN,55433,US,,45.1501613,-93.2766031,,,,
BREANNAS HAIR STUDIO,,285 N. EL CAMINO REAL STE. 100-6 ,,ENCINITAS ,CA,92024,US,7904680508,33.0535645,-117.2604589,,,,
Moonlight Hair Design,,345 South Coast Highway 101 Suite G ,,Encinitas ,CA,92024,US,760-942-9498,33.0477416,-117.2937323,,,,
BOMBSHELL SALON,,687 SOUTH COAST HIGHWAY 101 # 153 ,,ENCINITAS ,CA,92024,US,,33.0441208,-117.2930445,,,,
DIVINITY SALON AND BOUTIQUE,,583 S COAST HWY 101 ,,ENCINITAS ,CA,92024,US,,33.0449412,-117.2933878,,,,
PURE THE BLOWOUT BAR,,1031 S COAST HWY 101 ,,ENCINITAS ,CA,92024,US,,33.0390832,-117.2925998,,,,
Cielo Salon,,466 North Coast Highway 101 ,,Encinitas ,CA,92024,US,,33.0576355,-117.2992867,,,,
Salon Panache,,1945 Scottsville Rd Suite C4 ,,Bowling Green ,KY,42104,US,270.901.0404,36.9618966,-86.4317558,,,,
Beau Monde Salon,,14609 County Road 11 ,,Burnsville ,MN,55334,US,,44.7378221,-93.2572545,,,,
Mia Weber Hair,,2900 University Ave Ste 170 ,,West Des Moines ,IA,50266,US,,41.5991832,-93.7443343,,,,
BOMBSHELL HAIR DESIGN,,5465 MILLS CIVIC PKWY Suite 240 ,,WEST DES MOINES ,IA,50266,US,515-554-2443,41.561143,-93.7808793,,,,
HAIR HEART AND SOUL,,407 HOPE STREET ,,BRISTOL ,RI,02809,US,(401) 253-5200,41.669353,-71.2763736,,,,
WILLIAM DAVID SALON,,10970 B STATE BRIDGE RD. ,,ALPHARETTA ,GA,30022,US,,34.0480836,-84.2248463,,,,
The District Salon and Events,,28 N. Main Street ,,Alpharetta ,GA,30009,US,770-777-0230,34.0762484,-84.2949285,,,,
PARLOUR 17,,20540 STEVENS CREEK BLVD. # 17 ,,CUPERTINO ,CA,95014,US,4085699654,37.3218397,-122.0335367,,,,
BANKZ SALON,,42 N. MAIN STREET ,,MANSFIELD ,OH,44902,US,(419) 524-2259,40.7596407,-82.5152705,,,,
Crush Salon,,344 Main Street ,,Grand Junction ,CO,81501-2413,US,970-628-1732,39.0676146,-108.5667564,,,,
Salon Republic -Christina Nunley,,550 Zang Street Room # 206 ,,Broomfield ,CO,80021,US,720-277-6735,39.9280773,-105.1320004,,,,
Thairapy Salon by Shelena Smith,,5130 Commons Drive # 101 ,,Rocklin ,CA,95677,US,916-532-6620,38.8050717,-121.2058629,,,,
JOSEPH ANTHONY SALON,,6632 Lonetree Blvd suite 100 ,,ROCKlIN ,CA,95765,US,,38.8025258,-121.2948159,,,,
Urban Elements,,140 2nd Street # 112 ,,Petaluma ,CA,94952,US,7076582649,38.2332773,-122.637403,,,,
DUKES &amp DOLLS,,25 KENTUCKY STREET ,,PETALUMA ,CA,94952,US,7073962320,38.2332667,-122.6412875,,,,
Catherine Peters Studio,,877 4th Street ,,San Rafael ,CA,94901,US,,37.9726678,-122.5256335,,,,
Bellissima Salon - San Rafael,,1435 4th Street Suite B ,,San Rafael ,CA,94901,US,415-457-7739,37.9733436,-122.5327199,,,,
SALON DECOTA,,1522 4TH STREET ,,SAN RAFAEL ,CA,94901,US,,37.9738596,-122.5342148,,,,
Willow Salon,,1609 4th Street ,,San Rafael ,CA,94901,US,415-377-8701,37.9738302,-122.5369233,,,,
THE LIVING ROOM,,614 Central Ave ,,Great Falls ,MT,59401,US,406-216-5511,47.5050545,-111.2963713,,,,
CITRINE SALON,,3110 ENVIRON WAY ,,CHAPEL HILL ,NC,27517,US,,35.9064672,-79.0221231,,,,
CAPELLI DESIGNS,,4050 S. US HWY. 1 STE. 310 ,,JUPITER ,FL,33477,US,,26.8955742,-80.0618908,,,,
Tipsy Salon &amp Spa,,4601 Military Trail # 108 ,,Jupiter ,FL,33458,US,561-626-6074,26.8916997,-80.1027734,,,,
IZABEL GEORGE HAIR SALON,,2525 Military Trail # 109 ,,Jupiter ,Fl,33458,US,,26.9109244,-80.1013869,,,,
SALON LABREA,,1475 CADES BAY AVENUE ,,JUPITER ,FL,33458,US,,26.8937152,-80.1187689,,,,
Gymkhana Blue Salon,,40 Main Street # 104 ,,Dubuque ,IA,52001,US,,42.4937954,-90.6631037,,,,
CLAIBORNE SALON,,1420 TERRELL MILL RD SE ,,MARIETTA ,GA,30067,US,,33.9173305,-84.4681344,,,,
AMATA,,21333 John Milless Drive ,,Rogers ,MN,55374,US,7637778711,45.1914519,-93.5498087,,,,
DECARRA SALON,,20855 Ventura Blvd Suite 6 ,,Woodland Hills ,CA,91364,US,,34.1663628,-118.5878732,,,,
AQUA SALON,,1000 MANHATTAN AVENUE ,,MANHATTAN BEACH ,CA,90266,US,,33.883621,-118.4098751,,,,
BARDOT SALON,,1151 MANHATTAN AVENUE ,,MANHATTAN BEACH ,CA,90266,US,,33.8852062,-118.4112843,,,,
Blowout Co,,782 Old Hickory Blvd Suite 102 ,,Brentwood ,TN,37027,US,615.290.5080,36.0423589,-86.7788876,,,,
Studio Bhumi,,18 CADILLAC DR Suite 400 Studio 21 ,,Brentwood ,TN,37027,US,615.429.3673,36.0360824,-86.801589,,,,
TANGARINE SKY,,18 Cadillac Dr ,,Brentwood ,TN,37027,US,615-692-9428,36.0360824,-86.801589,,,,
Rake,,240 Oak Street ,,Brentwood ,CA,94513,US,,37.9325915,-121.6939414,,,,
SALON SEVA,,2424 32nd Ave So. # Suite 201 ,,GRAND FORKS ,ND,58201,US,,47.8900549,-97.0619169,,,,
JAMES ALAN SALON,,19240 AURORA AVE N SUITE A ,,SHORELINE ,WA,98133,US,,47.7680931,-122.345469,,,,
NOUVEAU MED SPA AND SALON,,4751 S AFTON PL ,,POCATELLO ,ID,83202,US,2082327546,42.9193999,-112.4685524,,,,
M And Company Salon,,135 North Hale Street ,,Wheaton ,IL,60187,US,,41.8657567,-88.1079642,,,,
Derek Salon,,610 Pineapple Ave ,,Sarasota ,flo,34236,US,,27.3316165,-82.5389351,,,,
June Salon,,320 e. Miller ct. ,,Castle Rock ,CO,80104,US,,39.3654302,-104.8588095,,,,
Arrow Salon &amp Spa  (Maxine Lyvers),,3101 E Cervantes Unit D ,,PENSACOLA ,FL,32503,US,,30.4246911,-87.1803352,,,,
SOLE SALON,,1222 WASHINGTON STREET ,,HOBOKEN ,NJ,07030,US,,40.7520438,-74.026515,,,,
TRILOGY,,34247 YUCAIPA BLVD SUITE J ,,YUCAIPA ,CA,92399,US,9095288659,34.0331158,-117.057605,,,,
AMANDA RICHARDS SALON,,6709 MANATEE AVE WEST ,,BRADENTON ,flo,34205,US,,27.4948859,-82.6293873,,,,
Bellagente Salon Inc,,207 Main Street ,,MILFORD ,MA,01757,US,5082982175,42.1401187,-71.5205037,,,,
HAIR BY CAMILLE,,56 BROAD STREET ,,MILFORD ,CT,06460,US,(203) 339-1559,41.2210285,-73.0571487,,,,
Emma Greaves at Dolce Vita,,8735 NW 26th Street ,,Ankeny ,Iow,50023,US,,41.719707,-93.65197,,,,
EVOLVE SALON,,706 A N. 7 HWY ,,BLUE SPRINGS ,MO,64014,US,,39.0253057,-94.2713647,,,,
Bloom Salon,,909 West Front Street ,,Burlington ,NC,27217,US,336-707-0166,36.0984,-79.448642,,,,
LAUREN SUMMER HAIR SALON,,309 Huffman Mill Road Ste 420 ,,Burlington ,NC,27215,US,336-350-7046,36.0786343,-79.4867936,,,,
RAW SALON,,336 N PINE STREET ,,BURLINGTON ,WI,53105,US,,42.6788775,-88.2753844,,,,
URBAN HAIR CO.,,241 E MARKET STREET SUITE 100 ,,HARRISONBURG ,VA,22801,US,540-434-2040,38.4487063,-78.865548,,,,
Luxe Salon,,112 N Glendora Avenue ,,Glendora ,CA,91741,US,626-914-5893,34.1364369,-117.8651471,,,,
B4 SALON,,1207 AARON DR ,,RICHLAND ,WA,99352,US,5094204211,46.260045,-119.28252,,,,
THE LOFT - PALM DESERT,,74390 HIGHWAY 111 SUITE B ,,PALM DESERT ,CA,92260,US,,33.7216784,-116.3673003,,,,
Jake Turner,,73399 El ,,Paseo Palm Desert ,CA,92260,US,7606255323,33.7194564,-116.3849728,,,,
Terra Lane Hair Design,,73300 EL PASEO SUITE C ,,PALM DESERT ,CA,92260,US,,33.7200555,-116.38576,,,,
Dishwater Blonde,,44630 Monterey Avenue Suite 200 ,,Palm Desert ,CA,92260,US,,33.7241624,-116.3909847,,,,
WILLOWS SALON,,5820 GRATIOT ROAD ,,SAGINAW ,MI,48638,US,,43.4160407,-84.0305666,,,,
Justus Salon,,1911 Roselawn Ave ,,Monroe ,LA,71201,US,318.538.8005,32.5230687,-92.108051,,,,
SALON SOPHIA,,132 OGDEN AVENUE ,,DOWNERS GROVE ,IL,60515,US,,41.8109851,-87.9898386,,,,
Charles Penzone Staff,,6671 Village Parkway ,,Dublin ,OH,43017,US,(614) 798-8400,40.1038287,-83.0976796,,,,
CPI DUBLIN,,6671 VILLAGE PARKWAY ,,DUBLIN ,OH,43017,US,614.206.9760,40.1038287,-83.0976796,,,,
STUDIO ON THE BRIDGE,,41 W. Bridge Street ,,Dublin ,OH,43017,US,(614) 929-8363,40.0992298,-83.1148845,,,,
PHENIX SALON,,6819 YORK AVE S ,,EDINA ,MN,55435,US,,44.8792296,-93.3193579,,,,
OLIVER TAYLOR,,5030 FRANCE AVE SOUTH ,,EDINA ,MN,55410,US,,44.9115749,-93.3290386,,,,
MC HAIR CONSULTANTS,,833 PORTAGE TRAIL ,,CUYAHOGA FALLS ,OH,44221,US,330-292-2210,41.1409354,-81.4936009,,,,
Salon 74,,31431 Santa Margarita Pkwy Suite K ,,Rancho Santa Margarita ,CA,92688,US,9494590808,33.6495959,-117.5829968,,,,
SALONS AT STONEGATE,,11734 BARKER CYPRESS RD ,,CYPRESS ,TX,77433,US,,29.9456386,-95.6755159,,,,
REVOLUTION HAIR DESIGN,,460 ROUTE 101 ,,BEDFORD ,NH,03110,US,603-488-2393,42.9123326,-71.5544192,,,,
SPA MINERALE,,44050 WOODBRIDGE PARKWAY ,,LEESBURG ,VA,20176,US,,39.0798574,-77.47702,,,,
MONDE SALON,,200 EAST CHESTNUT STREET SUITE 200 ,,STILLWATER ,MN,55082,US,,45.0558595,-92.806939,,,,
The Hairdresser,,1060 Curve Crest Blvd Suite 104 ,,Stillwater ,MN,55082,US,,45.0412818,-92.8227128,,,,
BIXELS SALON &amp SPA,,6101 HEISLEY RD ,,MENTOR ,OHI,44060,US,(440) 357-9278,41.7048217,-81.3066532,,,,
FACES &amp A LA MODE,,1601 OSOS STREET ,,SAN LUIS OBISPO ,CA,93401,US,,35.2771034,-120.6573957,,,,
Brush- Palm Springs,,1090 N. Palm Canyon Drive Suite H ,,Palm Springs ,CA,92262,US,7603990447,33.8373504,-116.5462974,,,,
SALON PURE,,1940 WAUKEGAN ROAD ,,GLENVIEW ,IL,60025,US,847.486.1400,42.0903671,-87.797907,,,,
SHEAR STYLE,,4740 GEORGE WASHINGTON MEM. HWY STE F ,,YORKTOWN ,VA,23692,US,757-968-5003,37.1516807,-76.4595634,,,,
SALON NOVEAU,,3602 MARKET STREET ,,YORK ,PA,17402,US,,39.9816788,-76.6528501,,,,
Epic Salon,,31 Mills Street ,,York ,PA,17402,US,7178402680,39.9763788,-76.6673854,,,,
Mode Salon,,2580 W. Main Street ,,Littleton ,CO,80120,US,303-797-0393,39.6135427,-105.0182002,,,,
Mystique,,1305 North H Street Suite J ,,Lompoc ,CA,93436,US,805-819-0097,34.6584837,-120.4591565,,,,
THE LOFT HAIR DESIGN,,3405 W. TRUMAN BLVD # 100 ,,JEFFERSON CITY ,MO,65109,US,,38.5912187,-92.2445731,,,,
Cheveux Salon,,413 Mount Cross Rd Ste 105 ,,Danville ,Vir,24541,US,434-797-1141,36.5931305,-79.4271709,,,,
WINGS OF CHANGE,,3817 NORTH VERMILION SUITE C ,,DANVILLE ,IL,61832,US,217.474.4863,40.1955478,-87.628973,,,,
Donald Kolinski,,111 A Town and Country Drive ,,Danville ,CA,94526,US,(510) 566-3586,37.8140657,-121.9986939,,,,
SALON WHIMZ,,3030 FRANK SCOTT PARKWAY W STE 7 ,,BELLEVILLE ,IL,62223,US,,38.5356315,-90.0357605,,,,
J. Stephens,,1952 Waddle Road Suite 101 ,,State College ,PA,16803,US,8142067001,40.8156025,-77.899347,,,,
Halo Hair Studio,,12152 N Rancho Vistoso # 100 ,,Oro Valley ,AZ,85755,US,520-742-4433,32.4269869,-110.9607345,,,,
SALON STYLUSH,,800 HOWARD STREET ,,FINDLAY ,OH,45840,US,,41.051568,-83.664991,,,,
Graton Resort &amp Casino,,630 Park Court ,,Rohnert Park ,CA,94928,US,707-849-5996,38.3573144,-122.7237174,,,,
Patricia Perry Salon,,302 South Ave East ,,Westfield ,NJ,07090,US,9083011001,40.6493165,-74.3382286,,,,
Adorn,,229 N Columbia St. ,,Covington ,LA,70433,US,,30.4751104,-90.0942146,,,,
FMD Salon,,73015 Hwy 25 Ste E/Covington ,,Covington ,LA.,70435,US,,30.5019321,-90.1091287,,,,
SESSO BELLA SALON SPA,,69 E 1ST STREET ,,FOND DU LAC ,WI,54935,US,,43.7762994,-88.4441957,,,,
Meche Salon,,8820 Burton Way ,,Beverly Hills ,CA,90211,US,,34.071848,-118.384415,,,,
CHRIS MCMILLAN SALON,,8944 BURTON WAY ,,BEVERLY HILLS ,CA,90211,US,,34.0718363,-118.38722,,,,
Ramirez Tran,,8912 Olympic Blvd ,,Beverly Hills ,CA,90211,US,3107248167,34.0591347,-118.3862057,,,,
HAIR JUNCTION,,125 W Main Street ,,Morgan Hill ,CA,95037,US,,37.1291114,-121.6571235,,,,
DEER CREEK SUITESRachel Olsen,,2501 128th Street # 216 ,,Urbandale ,IA,50323,US,515-401-8944,41.617109,-93.7895498,,,,
SAVANT,,1706 SE Walton Blvd Suite 8 ,,Bentonville ,AR,72712,US,,36.3346905,-94.1894375,,,,
Pure the Salon &amp Spa,,700 SE Walton Blvd Suite 6 ,,Bentonville ,AR,72712,US,479-238-4821,36.3349158,-94.202868,,,,
District Salon,,106 SE A St Unit 4 ,,Bentonville ,AR,72712,US,479-657-2114,36.3683491,-94.2088318,,,,
BOHO BOZE,,129 W MAIN ST ,,BOZEMAN ,MON,59715,US,,45.6795959,-111.0396436,,,,
The Escape Salon,,216 West Houston Street ,,Sherman ,TX,75090,US,903-893-5305,33.6361337,-96.6112333,,,,
Christopher Rey Lopez,,15125 Ventura Blvd Studio # 3 ,,Sherman Oaks ,CA,91403,US,818-231-5642,34.1532389,-118.462684,,,,
GUYS &amp DOLLS,,N112 W15800 MEQUON ROAD ,,GERMANTOWN ,WI,53022,US,,43.2222951,-88.1061957,,,,
Ella David Salon,,7518 2nd Street ,,Germantown ,TN,38138,US,901-309-1421,35.0864221,-89.8123121,,,,
SALON LA QUINTA,,49-499 Eisenhower Drive ,,LA QUINTA ,CA,92253,US,760774800,33.6884244,-116.3107341,,,,
M BIRD STUDIO,,8710 WASHINGTON BLVD ,,CULVER CITY ,CA,90232,US,,34.0293666,-118.3841143,,,,
Parlor Hair Studio,,223 Glenridge Avenue ,,Montclair ,NJ,07042,US,973-746-1182,40.8139601,-74.217096,,,,
FUGA SALON,,13815 W. CAPITAL DRIVE ,,BROOKFIELD ,WI,53005,US,,43.0895184,-88.0839671,,,,
Nova Hair Studio,,27 South Northwest Highway Suite 23 ,,Park Ridge ,IL,60068,US,,42.0105411,-87.8281532,,,,
Apothecary Hair Lounge Inc,,316 west Ridge Pike 1st Floor ,,Royersford ,PA,19468,US,6102093352,40.229869,-75.518924,,,,
BLOOM HAIR LOUNGE,,178 E. Main Street ,,Spartanburg ,SC,29306,US,864-804-6722,34.9504204,-81.9290953,,,,
SALON 837,,837 John B. White Sr. Blvd. ,,Spartanburg ,SC,29306,US,864-576-4247,34.928883,-81.958457,,,,
BELLA LENA,,525 1ST STREET SUITE 101 ,,LAKE OSWEGO ,OR,97034,US,,45.4208836,-122.6637296,,,,
Picasso,,449 B AVE ,,Lake Oswego ,OR,97034-3013,US,5038077497,45.4213108,-122.6684385,,,,
Scott Alan Hair Studio,,20504 W Dixie Hwy ,,Aventura ,Fl,33180,US,,25.9657619,-80.1480391,,,,
SALON ISH,,107 W Stewart STE B ,,PUYALLUP ,WA,98371,US,,47.193229,-122.294234,,,,
TUSCAN SALON LLC,,15414 MERIDIAN E ,,PUYALLUP ,WA,98375,US,2532212971,47.1172266,-122.2940069,,,,
ARBORVITAE SALON AND SPA,,361 E. M134 ,,CEDARVILLE ,MI,49719,US,(906) 322-8208,45.9995269,-84.3555812,,,,
Jett Vance,,W61N521 Washington Ave ,,Cedarburg ,WI,53012,US,,43.300713,-87.988945,,,,
SALON AND SPA VENESSA,,8516 Main Street ,,Woodstock ,GA,30188,US,770-591-2079,34.1020651,-84.5195509,,,,
SALON CONCRETE,,123 BROAD ST. ,,RED BANK ,NJ,07701,US,,40.3480032,-74.0647293,,,,
SALON BELLE VIE,,2272 KRESGE DR. ,,AMHERST ,OH,44001,US,(440) 240-6391,41.4166364,-82.2070564,,,,
