store_name,store_number,address,address2,city,state,zip_code,country,phone_number,latitude,longitude,store_hours,store_type,other_fields,coming_soon
Deb Shop,,12331 James St # 446,,Holland,MI,49424,United States,(616) 392-3326,,,,,,
Deb Shop,,5600 Harvey St,,Muskegon,MI,49444,United States,(231) 798-4831,,,,,,
Deb Shop,,3286 Alpine Ave NW # D,,Grand Rapids,MI,49544,United States,(616) 785-3297,,,,,,
Deb Shop,,3333 W Touhy Ave,,Lincolnwood,IL,60712,United States,(847) 673-8613,,,,,,
Deb Shop,,4511 Outer Loop,,Louisville,KY,40219,United States,(502) 966-9666,,,,,,
Deb Shop,,9 DIAMOND RUN MALL # 130,,Rutland,VT,05701,United States,(802) 747-4799,,,,,,
Deb Shop,,3404 W 13th St,,Grand Island,NE,68803,United States,(308) 382-4002,,,,,,
Deb Shop,,830 Main St # 18,,Presque Isle,ME,04769,United States,(207) 760-9415,,,,,,
Deb Shop,,3050 N 5th Street Hwy # C14,,Reading,PA,19605,United States,(610) 929-9073,,,,,,
Deb Shop,,622 George Washington Hwy #D5b,,Lincoln,RI,02865,United States,(401) 334-9651,,,,,,
Deb Shop,,1665 State Hill Rd,,Wyomissing,PA,19610,United States,(610) 376-9023,,,,,,
Deb Shop,,622 George Washington Hwy,,Lincoln,RI,02865,United States,(401) 334-9651,,,,,,
Deb Shop,,7 Neponset St,,Worcester,MA,01606,United States,(508) 595-0052,,,,,,
Deb Shop,,1485 Poleline Rd E,,Twin Falls,ID,83301,United States,(208) 736-4830,,,,,,
Deb Shop,,14002 E 21st St # 104,,Tulsa,OK,74134,United States,(918) 234-7101,,,,,,
Deb Shop,,315 N Telegraph Rd,,Waterford,MI,48328,United States,(248) 738-8041,,,,,,
Deb Shop,,14002 E 21st St Ste 104,,Tulsa,OK,74134,United States,(918) 234-7101,,,,,,
Deb Shop,,3232a Kirkwood Hwy,,Wilmington,DE,19808,United States,(302) 995-1191,,,,,,
Deb Shop,,3238 Kirkwood Hwy,,Wilmington,DE,19808,United States,(302) 995-1191,,,,,,
Deb Shop,,2300 E Lincoln Hwy,,Langhorne,PA,19047,United States,(215) 741-5196,,,,,,
Deb Shop,,160 N Gulph Rd # 110,,King of Prussia,PA,19406,United States,(610) 768-9852,,,,,,
Deb Shop,,2501 Mount Holly Rd,,Burlington,NJ,08016,United States,(609) 747-1095,,,,,,
Deb Shop,,825 Us Route 7 S,,Rutland,VT,05701,United States,(802) 747-4799,,,,,,
Deb Shop,,5 Purdy Ave,,Rye,NY,10580,United States,(914) 967-8575,,,,,,
Deb Shop,,Route 38 & Lenola Rd,,Moorestown,NJ,08057,United States,(856) 778-7028,,,,,,
Deb Shop,,Route 38 & Lenola Rd,,Moorestown,NJ,08057,United States,(856) 778-7028,,,,,,
Deb Shop,,1750 Deptford Center Rd,,Woodbury,NJ,08096,United States,(856) 384-7791,,,,,,
Deb Shop,,1067 W Baltimore Pike # 109,,Media,PA,19063,United States,(610) 566-9759,,,,,,
Deb Shop,,622 W 14 Mile Rd,,Troy,MI,48083,United States,(248) 733-9448,,,,,,
Deb Shop,,2000 Route 38 # 2020,,Cherry Hill,NJ,08002,United States,(856) 663-3534,,,,,,
Deb Shop,,28582 Dequindre Rd,,Warren,MI,48092,United States,(586) 558-9380,,,,,,
Deb Shop,,1200 Towne Centre Blvd,,Provo,UT,84601,United States,(801) 852-5060,,,,,,
Deb Shop,,32233 Gratiot Ave,,Roseville,MI,48066,United States,(586) 296-7746,,,,,,
Deb Shop,,2765 S Rochester Rd,,Rochester Hills,MI,48307,United States,(248) 852-5758,,,,,,
Deb Shop,,1200 Provo Towne Centre # 2120,,Provo,UT,84601,United States,(801) 852-5060,,,,,,
Deb Shop,,2001 Rivertown Pkwy SW,,Grandville,MI,49418,United States,(616) 532-8592,,,,,,
Deb Shop,,3545 28th St SE,,Grand Rapids,MI,49512,United States,(616) 956-0039,,,,,,
Deb Shop,,3000 Grapevine Mills Pkwy,,Grapevine,TX,76051,United States,(214) 513-8996,,,,,,
Deb Shop,,4301 W Wisconsin Ave # 118,,Appleton,WI,54913,United States,(920) 733-9933,,,,,,
Deb Shop,,13943 Hall Rd,,Shelby Township,MI,48315,United States,(586) 566-4735,,,,,,
Deb Shop,,2401 S Oneida St,,Green Bay,WI,54304,United States,(920) 498-9996,,,,,,
Deb Shop,,299 Bay Park Sq Ste 295,,Green Bay,WI,54304,United States,(920) 498-9996,,,,,,
Deb Shop,,4301 W Wisconsin Ave,,Appleton,WI,54913,United States,(920) 733-9933,,,,,,
Deb Shop,,5300 S 76th St,,Greendale,WI,53129,United States,(414) 421-9700,,,,,,
Deb Shop,,1110 28th St SW,,Wyoming,MI,49509,United States,(616) 532-0180,,,,,,
Deb Shop,,Green Bay & Durand Ave,,Racine,WI,53406,United States,(414) 554-0513,,,,,,
Deb Shop,,7700 120th Ave,,Kenosha,WI,53142,United States,(262) 857-9904,,,,,,
Deb Shop,,5780 Durand Ave,,Racine,WI,53406,United States,(262) 554-0513,,,,,,
Deb Shop,,6170 Grand Ave,,Gurnee,IL,60031,United States,(847) 855-9175,,,,,,
Deb Shop,,1534 Spring Hill Mall,,West Dundee,IL,60118,United States,(847) 844-9649,,,,,,
Deb Shop,,2121 N Monroe St,,Monroe,MI,48162,United States,(734) 241-5065,,,,,,
Deb Shop,,1801 SW Wanamaker Rd # F7,,Topeka,KS,66604,United States,(785) 228-0076,,,,,,
Deb Shop,,343 New Towne Square Dr,,Toledo,OH,43612,United States,(419) 476-0492,,,,,,
Deb Shop,,3725 Williston Rd,,Northwood,OH,43619,United States,(419) 698-9130,,,,,,
Deb Shop,,3200 S Airport Rd W,,Traverse City,MI,49684,United States,(231) 932-9468,,,,,,
Deb Shop,,350 Howe St,,Akron,OH,44307,United States,(330) 920-9411,,,,,,
Deb Shop,,2000 Brittain Rd # 80,,Akron,OH,44310,United States,(330) 634-0134,,,,,,
Deb Shop,,2700 Miamisburg Centerville Rd,,Dayton,OH,45459,United States,(937) 439-2051,,,,,,
Deb Shop,,987 E Ash St Ste 129,,Piqua,OH,45356,United States,(937) 773-9158,,,,,,
Deb Shop,,2040 S Reynolds Rd,,Toledo,OH,43614,United States,(419) 866-9527,,,,,,
Deb Shop,,2825 S Glenstone Ave # 101,,Springfield,MO,65804,United States,(417) 823-0009,,,,,,
Deb Shop,,2400 Romig Rd,,Akron,OH,44320,United States,(330) 745-0107,,,,,,
Deb Shop,,987 E Ash St # 129,,Piqua,OH,45356,United States,(937) 773-9158,,,,,,
Deb Shop,,367 Russell St # H10,,Hadley,MA,01035,United States,(413) 585-5810,,,,,,
Deb Shop,,1655 Boston Rd,,Springfield,MA,01129,United States,(413) 273-5988,,,,,,
Deb Shop,,3000 Gateway St Ste 218,,Springfield,OR,97477,United States,(541) 741-4414,,,,,,
Deb Shop,,50 Holyoke St,,Holyoke,MA,01040,United States,(413) 533-1383,,,,,,
Deb Shop,,101 Independence Mall Way,,Kingston,MA,02364,United States,(781) 585-5545,,,,,,
Deb Shop,,2501 Wabash Ave,,Springfield,IL,62704,United States,(217) 726-7291,,,,,,
Deb Shop,,14700 E Indiana Ave # 2164,,Spokane Valley,WA,99216,United States,(509) 892-1223,,,,,,
Deb Shop,,3000 Gateway St,,Springfield,OR,97477,United States,(541) 746-8165,,,,,,
Deb Shop,,14700 E Indiana Ave,,Spokane,WA,99216,United States,(509) 892-1223,,,,,,
Deb Shop,,1475 Upper Valley Pike,,Springfield,OH,45504,United States,(937) 323-1878,,,,,,
Deb Shop,,20801 Miles Rd,,Cleveland,OH,44128,United States,(216) 662-3604,,,,,,
Deb Shop,,4750 N Division St,,Spokane,WA,99207,United States,(509) 484-4996,,,,,,
Deb Shop,,2400 Romig Rd # 254,,Akron,OH,44322,United States,(330) 745-0107,,,,,,
Deb Shop,,4578 Midway Mall,,Elyria,OH,44035,United States,(440) 324-9910,,,,,,
Deb Shop,,8093 W Ridgewood Dr # 69,,Cleveland,OH,44129,United States,(440) 887-1105,,,,,,
Deb Shop,,100 Southpark Ctr,,Strongsville,OH,44136,United States,(440) 238-3561,,,,,,
Deb Shop,,262 Swansea Mall Dr # E2/12,,Swansea,MA,02777,United States,(508) 675-4131,,,,,,
Deb Shop,,8093 W Ridgewood Dr,,Cleveland,OH,44129,United States,(440) 887-1105,,,,,,
Deb Shop,,1 Knotty Walk,,Taunton,MA,02780,United States,(508) 884-2494,,,,,,
Deb Shop,,20801 Miles Rd Ofc,,Cleveland,OH,44128,United States,(216) 518-0261,,,,,,
Deb Shop,,Maine Mall Rd,,South Portland,ME,04106,United States,(207) 775-7224,,,,,,
Deb Shop,,10300 Mill Run Cir,,Owings Mills,MD,21117,United States,(410) 356-2149,,,,,,
Deb Shop,,4800 Texoma Pkwy,,Sherman,TX,75090,United States,(903) 870-1700,,,,,,
Deb Shop,,2200 El Mercado Loop,,Sierra Vista,AZ,85635,United States,(520) 452-1558,,,,,,
Deb Shop,,4800 Texoma Pkwy Ste 516,,Sherman,TX,75090,United States,(903) 870-1700,,,,,,
Deb Shop,,15619 Emerald Way,,Bowie,MD,20716,United States,(301) 809-1739,,,,,,
Deb Shop,,874 Lycoming Mall,,Muncy,PA,17756,United States,(570) 546-0699,,,,,,
Deb Shop,,3347 Kohler Memorial Dr,,Sheboygan,WI,53081,United States,(920) 208-3346,,,,,,
Deb Shop,,4314 Milan Rd Ste 305,,Sandusky,OH,44870,United States,(419) 624-1906,,,,,,
Deb Shop,,4314 Milan Rd,,Sandusky,OH,44870,United States,(419) 624-1906,,,,,,
Deb Shop,,6301 NW Loop 410,,San Antonio,TX,78238,United States,(210) 682-5117,,,,,,
Deb Shop,,4250 Cerrillos Rd,,Santa Fe,NM,87507,United States,(505) 471-6589,,,,,,
Deb Shop,,225 Columbia Mall Dr,,Bloomsburg,PA,17815,United States,(570) 784-9830,,,,,,
Deb Shop,,360 Kidder St,,Wilkes Barre,PA,18702,United States,(570) 829-9235,,,,,,
Deb Shop,,100 Viewmont Mall # 840,,Scranton,PA,18508,United States,(570) 347-4499,,,,,,
Deb Shop,,55 W Side Mall,,Edwardsville,PA,18704,United States,(570) 287-1448,,,,,,
Deb Shop,,1227 Broadway,,Saugus,MA,01906,United States,(781) 233-7484,,,,,,
Deb Shop,,4001 Sunset Dr Ste 1138,,San Angelo,TX,76904,United States,(325) 949-8153,,,,,,
Deb Shop,,Us Highway 11 & 15,,Selinsgrove,PA,17870,United States,(570) 374-1571,,,,,,
Deb Shop,,4001 W 41st St,,Sioux Falls,SD,57106,United States,(605) 362-7194,,,,,,
Deb Shop,,990 W Empire Mall,,Sioux Falls,SD,57106,United States,(605) 362-7194,,,,,,
Deb Shop,,4001 Southwest Blvd # 1138,,San Angelo,TX,76904,United States,(325) 949-8153,,,,,,
Deb Shop,,11160 Veirs Mill Rd # H7,,Silver Spring,MD,20902,United States,(301) 946-6972,,,,,,
Deb Shop,,120 Washington Avenue Ext,,Albany,NY,12203,United States,(518) 862-0746,,,,,,
Deb Shop,,800 New Loudon Rd # 83,,Latham,NY,12110,United States,(518) 220-9107,,,,,,
Deb Shop,,93 W Campbell Rd,,Schenectady,NY,12306,United States,(518) 393-9599,,,,,,
Deb Shop,,2300 N Salisbury Blvd,,Salisbury,MD,21801,United States,(410) 334-6726,,,,,,
Deb Shop,,14828 Baltimore Ave,,Laurel,MD,20707,United States,(301) 483-4726,,,,,,
Deb Shop,,1 Crossgates Mall Rd,,Albany,NY,12203,United States,(518) 456-4918,,,,,,
Deb Shop,,3702 Frederick Ave,,Saint Joseph,MO,64506,United States,(816) 232-6820,,,,,,
Deb Shop,,1770 Red Cliffs Dr,,Saint George,UT,84790,United States,(435) 628-5697,,,,,,
Deb Shop,,7501 W Cermak Rd,,Riverside,IL,60546,United States,(708) 442-8072,,,,,,
Deb Shop,,401 Center St NE # 190,,Salem,OR,97301,United States,(503) 391-4732,,,,,,
Deb Shop,,401 Center St Ne Ste 190,,Salem,OR,97301,United States,(503) 391-4732,,,,,,
Deb Shop,,2249 14th Ave SE,,Albany,OR,97322,United States,(541) 791-3511,,,,,,
Deb Shop,,800 Foxcroft Ave,,Martinsburg,WV,25401,United States,(304) 267-8003,,,,,,
Deb Shop,,4101 Wilder Rd # H261,,Bay City,MI,48706,United States,(989) 686-9818,,,,,,
Deb Shop,,4201 W Division St,,Saint Cloud,MN,56301,United States,(320) 253-6075,,,,,,
Deb Shop,,3111 Midwestern Pkwy,,Wichita Falls,TX,76308,United States,(940) 696-9993,,,,,,
Deb Shop,,1200 Us Highway 22 # 310,,Phillipsburg,NJ,08865,United States,(908) 859-8309,,,,,,
Deb Shop,,3320 Silas Creek Pkwy # 720,,Winston Salem,NC,27103,United States,(336) 659-0460,,,,,,
Deb Shop,,303 Northtown Dr Ne,,Minneapolis,MN,55434,United States,(763) 717-2953,,,,,,
Deb Shop,,1770 Park Manor Blvd,,Pittsburgh,PA,15205,United States,(412) 787-3467,,,,,,
Deb Shop,,5500 Buckeystown Pike,,Frederick,MD,21703,United States,(301) 631-0621,,,,,,
Deb Shop,,329 Willow Bnd,,Minneapolis,MN,55428,United States,(763) 533-6042,,,,,,
Deb Shop,,1155 Carlisle St # 34,,Hanover,PA,17331,United States,(717) 630-9195,,,,,,
Deb Shop,,3075 Clairton Rd # 850,,West Mifflin,PA,15123,United States,(412) 655-9865,,,,,,
Deb Shop,,Airport Rd,,Hazleton,PA,18201,United States,(570) 454-9234,,,,,,
Deb Shop,,67800 Mall Rd Unit 875,,Saint Clairsville,OH,43950,United States,(740) 526-1239,,,,,,
Deb Shop,,118 Shawan Rd,,Cockeysville,MD,21030,United States,(410) 527-0306,,,,,,
Deb Shop,,67800 Mall Rd # 875,,Saint Clairsville,OH,43950,United States,(740) 526-1239,,,,,,
Deb Shop,,2024 Eden Prairie Ctr,,Eden Prairie,MN,55344,United States,(952) 944-8664,,,,,,
Deb Shop,,915 County Road 42 W,,Burnsville,MN,55306,United States,(952) 435-7780,,,,,,
Deb Shop,,400 N Center St,,Westminster,MD,21157,United States,(410) 751-9143,,,,,,
Deb Shop,,151 N Garden,,Minneapolis,MN,55425,United States,(952) 851-9065,,,,,,
Deb Shop,,7166 10th St N,,Saint Paul,MN,55128,United States,(651) 714-4379,,,,,,
Deb Shop,,1850 Apple Blossom Dr,,Winchester,VA,22601,United States,(540) 535-1985,,,,,,
Deb Shop,,4630 Fashion Square Mall,,Saginaw,MI,48604,United States,(989) 797-2128,,,,,,
Deb Shop,,2228 Fox Valley Ctr,,Aurora,IL,60504,United States,(630) 820-1858,,,,,,
Deb Shop,,800 Foxcroft Ave # 422,,Martinsburg,WV,25401,United States,(304) 267-8003,,,,,,
Deb Shop,,1241 Blakeslee Blvd Dr # 13,,Lehighton,PA,18235,United States,(570) 386-8011,,,,,,
Deb Shop,,128 Lehigh Valley Mall,,Whitehall,PA,18052,United States,(610) 264-0779,,,,,,
Deb Shop,,3800 E Main St,,Saint Charles,IL,60174,United States,(630) 513-2401,,,,,,
Deb Shop,,127 Hickory Trl,,Cumming,GA,30040,United States,(770) 887-8064,,,,,,
Deb Shop,,21182 Salmon Rn Loop W # 127,,Watertown,NY,13601,United States,(315) 779-1707,,,,,,
Deb Shop,,470 Lewis Ave # 1046,,Meriden,CT,06451,United States,(203) 630-0671,,,,,,
Deb Shop,,495 Union St,,Waterbury,CT,06706,United States,(203) 755-5306,,,,,,
Deb Shop,,1201 Boston Post Rd # 2094,,Milford,CT,06460,United States,(203) 877-3118,,,,,,
Deb Shop,,Wausau Center Mall,,Wausau,WI,54403,United States,(715) 848-9887,,,,,,
Deb Shop,,Newark Plz,,Newark,NY,14513,United States,(315) 331-6577,,,,,,
Deb Shop,,337 Eastview Mall,,Victor,NY,14564,United States,(585) 223-6370,,,,,,
Deb Shop,,285 Irondequoit Blvd,,Rochester,NY,14609,United States,(585) 544-4740,,,,,,
Deb Shop,,4190 E Court St,,Burton,MI,48509,United States,(810) 742-4816,,,,,,
Deb Shop,,96 River Oaks Center Dr # D,,Calumet City,IL,60409,United States,(708) 891-1505,,,,,,
Deb Shop,,900 Dana Dr # 37c,,Redding,CA,96003,United States,(530) 223-6826,,,,,,
Deb Shop,,9500 Ridgeland Ave,,Chicago Ridge,IL,60415,United States,(708) 422-5655,,,,,,
Deb Shop,,3801 National Rd E,,Richmond,IN,47374,United States,(765) 939-8990,,,,,,
Deb Shop,,247 Lincoln Mall Dr,,Matteson,IL,60443,United States,(708) 747-1595,,,,,,
Deb Shop,,7601 S Cicero Ave,,Chicago,IL,60652,United States,(773) 585-5291,,,,,,
Deb Shop,,108 Washington St,,Wausau,WI,54403,United States,(715) 848-9887,,,,,,
Deb Shop,,2200 N Maple Ave,,Rapid City,SD,57701,United States,(605) 342-3191,,,,,,
Deb Shop,,830 Eastern Byp # 29,,Richmond,KY,40475,United States,(859) 624-8999,,,,,,
Deb Shop,,12300 Jefferson Ave,,Newport News,VA,23602,United States,(757) 886-9839,,,,,,
Deb Shop,,4200 Portsmouth Blvd,,Chesapeake,VA,23321,United States,(757) 488-9862,,,,,,
Deb Shop,,4200 Portsmouth Blvd # 328,,Chesapeake,VA,23321,United States,(757) 488-9862,,,,,,
Deb Shop,,1401 Greenbrier Pkwy # 1230,,Chesapeake,VA,23320,United States,(757) 420-8814,,,,,,
Deb Shop,,1401 Greenbrier Pkwy # 123,,Chesapeake,VA,23320,United States,(757) 420-8814,,,,,,
Deb Shop,,1800 W Mercury Blvd,,Hampton,VA,23666,United States,(757) 896-0352,,,,,,
Deb Shop,,4580 Virginia Beach Blvd,,Virginia Beach,VA,23462,United States,(757) 497-3470,,,,,,
Deb Shop,,5775 Beckley Rd # 66,,Battle Creek,MI,49015,United States,(269) 979-3957,,,,,,
Deb Shop,,4586 37 Pembroke Mall,,Virginia Beach,VA,23462,United States,(757) 497-9962,,,,,,
Deb Shop,,942 Lloyd Ctr,,Portland,OR,97232,United States,(503) 528-9270,,,,,,
Deb Shop,,1113 Lynnhaven Pkwy,,Virginia Beach,VA,23452,United States,(757) 340-9406,,,,,,
Deb Shop,,1105 Walnut St Spc G1160,,Cary,NC,27511,United States,(919) 465-9767,,,,,,
Deb Shop,,4325 Glenwood Ave,,Raleigh,NC,27612,United States,(919) 783-7949,,,,,,
Deb Shop,,6650 S Westnedge Ave # 138,,Portage,MI,49024,United States,(269) 324-1981,,,,,,
Deb Shop,,701 Lynnhaven Pkwy # 1113,,Virginia Beach,VA,23452,United States,(757) 340-9406,,,,,,
Deb Shop,,1105 Walnut St,,Cary,NC,27511,United States,(919) 465-9737,,,,,,
Deb Shop,,14500 W Colfax Ave # 450,,Golden,CO,80401,United States,(303) 279-3723,,,,,,
Deb Shop,,14500 W Colfax Ave,,Lakewood,CO,80401,United States,(303) 279-3723,,,,,,
Deb Shop,,10 Smithfield Blvd,,Plattsburgh,NY,12901,United States,(518) 563-6171,,,,,,
Deb Shop,,1250 S Hover Rd,,Longmont,CO,80501,United States,(303) 485-9498,,,,,,
Deb Shop,,226 Gateway Mall,,Lincoln,NE,68505,United States,(402) 466-1212,,,,,,
Deb Shop,,700 S Telshor Blvd,,Las Cruces,NM,88011,United States,(505) 521-9495,,,,,,
Deb Shop,,2400 ELIDA RD STE 120,,Lima,OH,45805,United States,(419) 331-0607,,,,,,
Deb Shop,,226 Gateway Mall # F612,,Lincoln,NE,68505,United States,(402) 466-1212,,,,,,
Deb Shop,,622 Schuylkill Mall,,Frackville,PA,17931,United States,(570) 874-9966,,,,,,
Deb Shop,,116 Montgomery Mall,,North Wales,PA,19454,United States,(215) 362-9854,,,,,,
Deb Shop,,5398 W Saginaw Hwy,,Lansing,MI,48917,United States,(517) 327-1821,,,,,,
Deb Shop,,8501 W Bowles Ave 548,,Littleton,CO,80123,United States,(303) 973-5803,,,,,,
Deb Shop,,318 E Fairmount Ave,,Lakewood,NY,14750,United States,(716) 763-6222,,,,,,
Deb Shop,,5712 Wasbury Pl C-202 Unit C 202,,Denver,CO,80227,United States,(303) 969-0130,,,,,,
Deb Shop,,771 S 30th St,,Heath,OH,43056,United States,(740) 522-4149,,,,,,
Deb Shop,,3800 State Road 16 # 189,,La Crosse,WI,54601,United States,(608) 781-9207,,,,,,
Deb Shop,,3800 State Road 16,,La Crosse,WI,54601,United States,(608) 781-9207,,,,,,
Deb Shop,,2721 Eastland Mall,,Columbus,OH,43232,United States,(614) 856-9689,,,,,,
Deb Shop,,2400 Elida Rd,,Lima,OH,45805,United States,(419) 331-0607,,,,,,
Deb Shop,,2721 S Hamilton Rd C-8,,Columbus,OH,43232,United States,(614) 856-9689,,,,,,
Deb Shop,,1635 River Valley Cir S # 765,,Lancaster,OH,43130,United States,(740) 654-9262,,,,,,
Deb Shop,,3710 Us Highway 9 # 2809,,Freehold,NJ,07728,United States,(732) 303-1108,,,,,,
Deb Shop,,755 State Route 18,,East Brunswick,NJ,08816,United States,(732) 432-8426,,,,,,
Deb Shop,,771 S 30th St,,Newark,OH,43056,United States,(740) 522-9919,,,,,,
Deb Shop,,150 Quaker Bridge Mall,,Lawrenceville,NJ,08648,United States,(609) 716-1738,,,,,,
Deb Shop,,1635 River Valley Cir S,,Lancaster,OH,43130,United States,(740) 654-9262,,,,,,
Deb Shop,,1357 S Main St,,Adrian,MI,49221,United States,(517) 265-4686,,,,,,
Deb Shop,,3701 S Main St,,Elkhart,IN,46517,United States,(574) 875-0297,,,,,,
Deb Shop,,1445 W Southern Ave,,Mesa,AZ,85202,United States,(480) 615-6022,,,,,,
Deb Shop,,1401 Route 300 # 160,,Newburgh,NY,12550,United States,(845) 566-6026,,,,,,
Deb Shop,,1 N Galleria Dr,,Middletown,NY,10941,United States,(845) 692-8721,,,,,,
Deb Shop,,1600 N Riverside Ave # 1160,,Medford,OR,97501,United States,(541) 734-2029,,,,,,
Deb Shop,,1629 W Mcgalliard Rd,,Muncie,IN,47304,United States,(765) 289-5507,,,,,,
Deb Shop,,6501 Grape Rd,,Mishawaka,IN,46545,United States,(574) 247-1718,,,,,,
Deb Shop,,1602 State Route 50 N,,Bradley,IL,60915,United States,(815) 929-9037,,,,,,
Deb Shop,,241 Linden St,,McKenzie,TN,38201,United States,(731) 352-5065,,,,,,
Deb Shop,,1600 State Route 50 N,,Kankakee,IL,60901,United States,(815) 935-1178,,,,,,
Deb Shop,,700 Broadway Ave E # 2,,Mattoon,IL,61938,United States,(217) 235-5012,,,,,,
Deb Shop,,70 Village Square Mall,,Effingham,IL,62401,United States,(217) 342-5860,,,,,,
Deb Shop,,2400 10th St SW,,Minot,ND,58701,United States,(701) 838-9497,,,,,,
Deb Shop,,6031 Saint Lawrence Ctr,,Massena,NY,13662,United States,(315) 769-3678,,,,,,
Deb Shop,,100 Saint Lawrence Ctr,,Massena,NY,13662,United States,(315) 769-3678,,,,,,
Deb Shop,,705 Richland Mall,,Mansfield,OH,44906,United States,(419) 528-3280,,,,,,
Deb Shop,,75 Crossroads Mall,,Mount Hope,WV,25880,United States,(304) 253-9030,,,,,,
Deb Shop,,1850 Adams St Ste 512,,Mankato,MN,56001,United States,(507) 388-1606,,,,,,
Deb Shop,,8300 Sudley Rd,,Manassas,VA,20109,United States,(703) 369-5596,,,,,,
Deb Shop,,1850 Adams St # 512,,Mankato,MN,56001,United States,(507) 388-1606,,,,,,
Deb Shop,,3000 W Deyoung St,,Marion,IL,62959,United States,(618) 993-5598,,,,,,
Deb Shop,,2100 S W S Young Dr,,Killeen,TX,76543,United States,(254) 690-3853,,,,,,
Deb Shop,,2101 Fort Henry Dr,,Kingsport,TN,37664,United States,(423) 245-9400,,,,,,
Deb Shop,,39 E Towne Mall,,Madison,WI,53704,United States,(608) 244-9918,,,,,,
Deb Shop,,20339 W 151st St,,Olathe,KS,66061,United States,(913) 780-1550,,,,,,
Deb Shop,,5555 Youngstown Warren Rd,,Niles,OH,44446,United States,(330) 652-8999,,,,,,
Deb Shop,,2500 Milton Ave Unit 118,,Janesville,WI,53545,United States,(608) 754-9932,,,,,,
Deb Shop,,11789 W 95th St,,Overland Park,KS,66214,United States,(913) 307-0144,,,,,,
Deb Shop,,5600 E Bannister Rd 35,,Kansas City,MO,64192,United States,(816) 761-1844,,,,,,
Deb Shop,,9693 Colerain Ave,,Cincinnati,OH,45251,United States,(513) 385-6216,,,,,,
Deb Shop,,5555 Youngstown Warren Rd #380,,Niles,OH,44446,United States,(330) 652-8999,,,,,,
Deb Shop,,4601 Eastgate Blvd,,Cincinnati,OH,45245,United States,(513) 753-6934,,,,,,
Deb Shop,,1 Levee Way,,Newport,KY,41071,United States,(859) 491-6603,,,,,,
Deb Shop,,1090 Us Highway # 121,,Florence,KY,41042,United States,(859) 525-9482,,,,,,
Deb Shop,,4076 Tuscarawas St W,,Canton,OH,44708,United States,(330) 477-1715,,,,,,
Deb Shop,,4334 Tuscarawas St W,,Canton,OH,44708,United States,(330) 477-1715,,,,,,
Deb Shop,,1 Sangertown Sq,,New Hartford,NY,13413,United States,(315) 724-8252,,,,,,
Deb Shop,,400 Mill Ave SE # 725,,New Philadelphia,OH,44663,United States,(330) 339-9954,,,,,,
Deb Shop,,400 Mill Ave SE Ste 725,,New Philadelphia,OH,44663,United States,(330) 339-9954,,,,,,
Deb Shop,,3575 Maple Ave,,Zanesville,OH,43701,United States,(740) 454-9448,,,,,,
Deb Shop,,8750 N 2nd St # 60,,Machesney Park,IL,61115,United States,(815) 636-1385,,,,,,
Deb Shop,,435 E Bannister Rd,,Kansas City,MO,64131,United States,(816) 761-1844,,,,,,
Deb Shop,,400 NW Barry Rd Ste 146,,Kansas City,MO,64155,United States,(816) 420-9755,,,,,,
Deb Shop,,400 NW Barry Rd # 154,,Kansas City,MO,64155,United States,(816) 420-9755,,,,,,
Deb Shop,,662 Cincinnati Mills Dr,,Cincinnati,OH,45240,United States,(513) 671-3017,,,,,,
Deb Shop,,2500 Milton Ave # 118,,Janesville,WI,53545,United States,(608) 754-9932,,,,,,
Deb Shop,,7620 Highway 70 S,,Nashville,TN,37221,United States,(615) 662-6542,,,,,,
Deb Shop,,1000 Two Mile Pkwy,,Goodlettsville,TN,37072,United States,(615) 851-6518,,,,,,
Deb Shop,,1000 Two Mile Pkwy C21,,Goodlettsville,TN,37072,United States,(615) 851-6518,,,,,,
Deb Shop,,101 N Range Line Rd,,Joplin,MO,64801,United States,(417) 782-4556,,,,,,
Deb Shop,,2501 W Memorial Rd,,Oklahoma City,OK,73134,United States,(405) 751-8820,,,,,,
Deb Shop,,5252 Hickory Hollow Pkwy # 1003,,Antioch,TN,37013,United States,(615) 731-3563,,,,,,
Deb Shop,,6801 E Reno Ave,,Oklahoma City,OK,73110,United States,(405) 741-3320,,,,,,
Deb Shop,,Plank Rd & Goods Ln,,Altoona,PA,16602,United States,(814) 943-9109,,,,,,
Deb Shop,,2800 S Columbia Rd,,Grand Forks,ND,58201,United States,(701) 787-5538,,,,,,
Deb Shop,,3600 Country Club Dr,,Jefferson City,MO,65109,United States,(573) 635-3362,,,,,,
Deb Shop,,1138 Jackson Xing,,Jackson,MI,49202,United States,(517) 782-4131,,,,,,
Deb Shop,,7000 Crossroads Mall,,Oklahoma City,OK,73149,United States,(405) 631-1260,,,,,,
Deb Shop,,3651 Wall Ave,,Ogden,UT,84405,United States,(801) 399-4394,,,,,,
Deb Shop,,7300 Dodge St # 47,,Omaha,NE,68114,United States,(402) 391-1836,,,,,,
Deb Shop,,1751 Madison Ave # 320,,Council Bluffs,IA,51503,United States,(712) 328-7205,,,,,,
Deb Shop,,1000 Rivergate Pkwy # C19,,Goodlettsville,TN,37072,United States,(615) 851-6518,,,,,,
Deb Shop,,500 Galleria Dr # 218,,Johnstown,PA,15904,United States,(814) 266-9075,,,,,,
Deb Shop,,600 Baltimore Pike,,Bel Air,MD,21014,United States,(410) 420-1664,,,,,,
Deb Shop,,7300 Dodge St,,Omaha,NE,68114,United States,(402) 391-1836,,,,,,
Deb Shop,,601-635 Harry L Dr,,Johnson City,NY,13790,United States,(607) 797-0733,,,,,,
Deb Shop,,10101 Brook Rd Ste 328,,Glen Allen,VA,23059,United States,(804) 266-9095,,,,,,
Deb Shop,,10101 Brook Rd # 328,,Glen Allen,VA,23059,United States,(804) 266-9095,,,,,,
Deb Shop,,1262 Vocke Rd # 174,,Cumberland,MD,21502,United States,(301) 729-0074,,,,,,
Deb Shop,,2300 Bernadette Dr,,Columbia,MO,65203,United States,(573) 234-2146,,,,,,
Deb Shop,,2204 E Kansas Ave,,Garden City,KS,67846,United States,(620) 275-6100,,,,,,
Deb Shop,,2300 Bernadette Dr # 209,,Columbia,MO,65203,United States,(573) 445-1606,,,,,,
Deb Shop,,2150 E Walnut Ave Ste 42,,Dalton,GA,30721,United States,(706) 277-2607,,,,,,
Deb Shop,,2150 E Walnut Ave,,Dalton,GA,30721,United States,(706) 277-2607,,,,,,
Deb Shop,,200 Paul Huff Pkwy NW,,Cleveland,TN,37312,United States,(423) 478-9434,,,,,,
Deb Shop,,2000 Brittain Rd,,Akron,OH,44310,United States,(330) 634-0134,,,,,,
Deb Shop,,3600 Erie Blvd E,,De Witt,NY,13214,United States,(315) 449-2836,,,,,,
Deb Shop,,2801 Wilma Rudolph Blvd # 685,,Clarksville,TN,37040,United States,(931) 552-9424,,,,,,
Deb Shop,,691 Richmond Rd,,Cleveland,OH,44143,United States,(440) 605-1701,,,,,,
Deb Shop,,323 G St,,Chula Vista,CA,91910,United States,(619) 426-9424,,,,,,
Deb Shop,,4155 State Route 31,,Clay,NY,13041,United States,(315) 622-3538,,,,,,
Deb Shop,,100 New River Rd,,Christiansburg,VA,24073,United States,(540) 382-9756,,,,,,
Deb Shop,,1774 Northland Mallway,,Columbus,OH,43214,United States,(614) 261-9219,,,,,,
Deb Shop,,1400 Dell Range Blvd,,Cheyenne,WY,82009,United States,(307) 635-2202,,,,,,
Deb Shop,,170 Jamestown Mall,,Florissant,MO,63034,United States,(314) 355-1860,,,,,,
Deb Shop,,3055 Black Gap Rd,,Chambersburg,PA,17201,United States,(717) 263-6369,,,,,,
Deb Shop,,5555 Saint Louis Mills Bl,,Hazelwood,MO,63042,United States,(314) 227-5260,,,,,,
Deb Shop,,1710 Briargate Blvd,,Colorado Springs,CO,80920,United States,(719) 266-8965,,,,,,
Deb Shop,,231 Chesterfield Mall G,,Chesterfield,MO,63017,United States,(636) 536-7834,,,,,,
Deb Shop,,3801 Union Rd,,Buffalo,NY,14225,United States,(716) 684-5209,,,,,,
Deb Shop,,101 Clearview Cir # 640,,Butler,PA,16001,United States,(724) 285-4666,,,,,,
Deb Shop,,231 Chesterfield Mall,,Chesterfield,MO,63017,United States,(636) 536-7834,,,,,,
Deb Shop,,350 N Milwaukee St # 1137,,Boise,ID,83704,United States,(208) 658-0928,,,,,,
Deb Shop,,1025 Charleston Town Ctr,,Charleston,WV,25389,United States,(304) 344-5838,,,,,,
Deb Shop,,163 Kanawha Mall,,Charleston,WV,25387,United States,(304) 925-9858,,,,,,
Deb Shop,,120 Kanawha Mall,,Charleston,WV,25387,United States,(304) 925-9858,,,,,,
Deb Shop,,Route 25 & Us 460,,Bluefield,WV,24701,United States,(304) 325-6520,,,,,,
Deb Shop,,25 460 Plz,,Bluefield,WV,24701,United States,(304) 325-6520,,,,,,
Deb Shop,,862 Kirkwood Mall,,Bismarck,ND,58504,United States,(701) 255-9306,,,,,,
Deb Shop,,1615 E Empire St,,Bloomington,IL,61701,United States,(309) 663-0284,,,,,,
Deb Shop,,1201 Paul Bunyan Dr NW,,Bemidji,MN,56601,United States,(218) 751-2661,,,,,,
Deb Shop,,864 Kirkwood Mall,,Bismarck,ND,58504,United States,(701) 255-9306,,,,,,
Deb Shop,,2866 E 3rd St # 1,,Bloomington,IN,47401,United States,(812) 336-0212,,,,,,
Deb Shop,,663 Stillwater Ave,,Bangor,ME,04401,United States,(207) 990-2755,,,,,,
Deb Shop,,404 Huntington Mall # 775,,Barboursville,WV,25504,United States,(304) 733-0926,,,,,,
Deb Shop,,1500 E 11th Ave # 105,,Hutchinson,KS,67501,United States,(620) 662-0733,,,,,,
Deb Shop,,1925 E Market St,,Harrisonburg,VA,22801,United States,(540) 434-9069,,,,,,
Deb Shop,,2899 Whiteford Rd,,York,PA,17402,United States,(717) 840-3279,,,,,,
Deb Shop,,1800 Loucks Rd,,York,PA,17404,United States,(717) 764-9981,,,,,,
Deb Shop,,42 Harrisburg # B,,Harrisburg,PA,17109,United States,(717) 652-9806,,,,,,
Deb Shop,,1138 Washington Sq,,Evansville,IN,47715,United States,(812) 479-8279,,,,,,
Deb Shop,,1108 S Green River Rd,,Evansville,IN,47715,United States,(812) 475-9028,,,,,,
Deb Shop,,651 Kapkowski Rd # 1450,,Elizabeth,NJ,07201,United States,(908) 353-8534,,,,,,
Deb Shop,,Rockaway Townsquare Mall,,Dover,NJ,07801,United States,(973) 366-5754,,,,,,
Deb Shop,,20131 Highway 59 N,,Humble,TX,77338,United States,(281) 540-1103,,,,,,
Deb Shop,,4800 Golf Rd,,Eau Claire,WI,54701,United States,(715) 832-9242,,,,,,
Deb Shop,,6725 Black Horse Pike,,Egg Harbor Township,NJ,08234,United States,(609) 677-1742,,,,,,
Deb Shop,,1101 Supermall Way # 1125,,Auburn,WA,98001,United States,(253) 804-2760,,,,,,
Deb Shop,,550 Center St,,Auburn,ME,04210,United States,(207) 784-0200,,,,,,
Deb Shop,,758 Logan Valley Mall,,Altoona,PA,16602,United States,(814) 942-7350,,,,,,
Deb Shop,,1284 M 32 W,,Alpena,MI,49707,United States,(989) 358-2050,,,,,,
Deb Shop,,7701 W Interstate 40 # 272,,Amarillo,TX,79121,United States,(806) 358-0523,,,,,,
Deb Shop,,7701 I-40 E 272,,Amarillo,TX,79118,United States,(806) 358-0523,,,,,,
Deb Shop,,3102 Plank Rd,,Fredericksburg,VA,22407,United States,(540) 786-9190,,,,,,
Deb Shop,,630 Spotsylvania Mall,,Fredericksburg,VA,22407,United States,(540) 786-9190,,,,,,
Deb Shop,,4350 24th Ave # 532,,Fort Gratiot,MI,48059,United States,(810) 385-7176,,,,,,
Deb Shop,,Us Highway 51,,Forsyth,IL,62535,United States,(217) 875-3689,,,,,,
Deb Shop,,4201 Coldwater Rd,,Fort Wayne,IN,46805,United States,(260) 471-8404,,,,,,
Deb Shop,,835 W Johnson St,,Fond Du Lac,WI,54935,United States,(920) 921-9914,,,,,,
Deb Shop,,555 John F Kennedy Rd # 471,,Dubuque,IA,52002,United States,(563) 556-8956,,,,,,
Deb Shop,,Route 255,,Du Bois,PA,15801,United States,(814) 371-9924,,,,,,
Deb Shop,,4601 E Main St Ste 400,,Farmington,NM,87402,United States,(505) 564-8996,,,,,,
Deb Shop,,3054 N Dupont Hwy # 1234,,Dover,DE,19901,United States,(302) 734-0525,,,,,,
Deb Shop,,3054 N Dupont Hwy,,Dover,DE,19901,United States,(302) 734-0525,,,,,,
Deb Shop,,4601 E Main St,,Farmington,NM,87402,United States,(505) 564-8996,,,,,,
Deb Shop,,1500 N Clinton St,,Defiance,OH,43512,United States,(419) 782-4949,,,,,,
Deb Shop,,1600 Miller Trunk Hwy # 106,,Duluth,MN,55811,United States,(218) 720-6199,,,,,,
Deb Shop,,325 Piedmont Dr # 153,,Danville,VA,24540,United States,(434) 792-2296,,,,,,
Deb Shop,,2917 N Vermilion St,,Danville,IL,61832,United States,(217) 443-6896,,,,,,
Deb Shop,,325 Piedmont Dr,,Danville,VA,24540,United States,(434) 792-2296,,,,,,
