store_name,store_number,address,address2,city,state,zip_code,country,phone_number,latitude,longitude,store_hours,store_type,other_fields,coming_soon
TAG HEUER OUTLET- HOUSTON,92960,29300 HEMPSTEAD ROAD STE 46 ,,CYPRESS,Texas,77433,United States,281-256-2140,29.996496,-95.756625,"Mo 10:00-21:00,Tu 10:00-21:00,We 10:00-21:00,Th 10:00-21:00,Fr 10:00-21:00,Sa 10:00-21:00,Su 11:00-19:00",,,
JARED,155141,1475 LAKE WOODLANDS DRIVE ,,THE WOODLANDS,Texas,77380,United States,(281) 419-4495,30.1677184,-95.4545945,"Mo 10:00-21:00,Tu 10:00-21:00,We 10:00-21:00,Th 10:00-21:00,Fr 10:00-21:00,Sa 10:00-21:00,Su 12:00-17:00",,,
Donoho's Jewellers,481447,9590 Six Pines Drive ,,The Woodlands,Texas,77380,United States,(281) 367-9050,30.14,-95.471,"Mo 10:00-18:00,Tu 10:00-18:00,We 10:00-18:00,Th 10:00-18:00,Fr 10:00-18:00,Sa 10:00-17:00",,,
JARED,92531,LAKELINE MALL 1147 PECAN PARK ,,CEDAR PARK,Texas,78613,United States,512-331-5448,30.4683959,-97.80623,"Mo 10:00-21:00,Tu 10:00-21:00,We 10:00-21:00,Th 10:00-21:00,Fr 10:00-21:00,Sa 10:00-21:00,Su 12:00-17:00",,,
MACY'S,385188,BROADWAY PLAZA 132 BROADWAY PLAZA ,,WALNUT CREEK,California,94596,United States,925-279-3333,37.8960999,-122.05767,"Mo 10:00-21:00,Tu 10:00-21:00,We 10:00-21:00,Th 10:00-21:00,Fr 10:00-21:00,Sa 10:00-21:00,Su 10:00-19:00",,,
FINK'S JEWELERS,92377,"16745 BIRKDALE COMMONS PKWY, UNIT 2 ",,Huntersville,North Carolina,28078,United States,(704) 927-4888,35.445088,-80.8815646,"Mo 10:00-21:00,Tu 10:00-21:00,We 10:00-21:00,Th 10:00-21:00,Fr 10:00-21:00,Sa 10:00-21:00,Su 10:00-18:00",,,
REEDS JEWELERS,92865,CONCORD MILLS MALL 8111 CONCORD MILLS BLVD. ,,CONCORD,North Carolina,28027,United States,704-979-1414,35.3697509765625,-80.715087890625,"Mo 10:00-21:00,Tu 10:00-21:00,We 10:00-21:00,Th 10:00-21:00,Fr 10:00-21:00,Sa 10:00-21:00,Su 12:00-19:00",,,
TAG HEUER BOUTIQUE-KING OF PRUSSIA,92957,KING OF PRUSSIA 16 N. GULPH ROAD STE 2944 ,,KING OF PRUSSIA,Pennsylvania,19406,United States,888-585-9136,40.087733,-75.390576,"Mo 10:00-21:00,Tu 10:00-21:00,We 10:00-21:00,Th 10:00-21:00,Fr 10:00-21:00,Sa 10:00-21:00,Su 11:00-18:00",,,
BLOOMINGDALE'S,769919,400 WEST MORELAND PARK ROAD WILLOW GROVE PARK MALL ,,WILLOW GROVE,Pennsylvania,19090,United States,215-706-3300,40.1405028,-75.125295,"Mo 10:00-21:00,Tu 10:00-21:00,We 10:00-21:00,Th 10:00-21:00,Fr 10:00-21:00,Sa 10:00-21:00,Su 12:00-18:00",,,
REIS NICHOLS,92892,3535 E 86TH STREET ,,INDIANAPOLIS,Indiana,46240,United States,317-255-4467,39.91015625,-86.1064453125,"Mo 10:00-19:00,Tu 10:00-19:00,We 10:00-19:00,Th 10:00-19:00,Fr 10:00-19:00,Sa 10:00-17:00",,,
"DFS, SAN FRANCISCO INTERNATIONAL AIRPORT",854302,"San Francisco International Airport, 100 International Loop, Concourse G, Gate 91  Courtyard 4, San Francisco, California 94128 ",,San Francisco,California,94128,United States,+1 650 444 1920,37.6143137,-122.3885088,,,,
JARED,92600,THE MALL AT TUTTLE CROSSING 561 TUTTLE CROSSING BLVD. ,,DUBLIN,Ohio,43017,United States,614-336-8576,40.075877,-83.1310163,"Mo 10:00-21:00,Tu 10:00-21:00,We 10:00-21:00,Th 10:00-21:00,Fr 10:00-21:00,Sa 10:00-21:00,Su 12:00-17:00",,,
BEN BRIDGE,92239,NORTH COUNTY FAIR 2 EAST VIA RANCHO PARKWAY # B-233 ,,ESCONDIDO,California,92025,United States,760-745-3900,33.0682373046875,-117.064697265625,"Mo 10:00-21:00,Tu 10:00-21:00,We 10:00-21:00,Th 10:00-21:00,Fr 10:00-21:00,Sa 10:00-20:00,Su 11:00-18:00",,,
JARED,92587,THE PAVILION AT KINGS GRANT 83 CONCORD MILLS BLVD. ,,CONCORD,North Carolina,28027,United States,704-979-6070,35.369384765625,-80.715087890625,"Mo 10:00-21:00,Tu 10:00-21:00,We 10:00-21:00,Th 10:00-21:00,Fr 10:00-21:00,Sa 10:00-21:00,Su 12:00-18:00",,,
BEN BRIDGE,92225,7040 N. MESA ST ,,el paso,Texas,79912,United States,915 - 584-4700,31.83655,-106.552259,"Mo 10:00-18:00,Tu 10:00-18:00,We 10:00-18:00,Th 10:00-18:00,Fr 10:00-18:00,Sa 10:00-18:00",,,
REIS NICHOLS,92891,789 US 31 NORTH ,,GREENWOOD,Indiana,46142,United States,317-883-4467,39.625244140625,-86.119384765625,"Mo 10:00-19:00,Tu 10:00-19:00,We 10:00-19:00,Th 10:00-19:00,Fr 10:00-19:00,Sa 10:00-17:00",,,
JARED,92519,729 WEST COUNTY LINE RD ,,GREENWOOD,Indiana,46142,United States,317-881-0879,39.636474609375,-86.08935546875,"Mo 10:00-21:00,Tu 10:00-21:00,We 10:00-21:00,Th 10:00-21:00,Fr 10:00-21:00,Sa 10:00-21:00,Su 12:00-18:00",,,
MOONLITE JEWELERS,92817,73-15 BROADWAY ,,JACKSON HEIGHTS,New York,11372,United States,718-446-1499,40.747485,-73.892047,"Mo 11:00-20:00,Tu 11:00-20:00,We 11:00-20:00,Th 11:00-20:00,Fr 11:00-20:00,Sa 11:00-20:00,Su 11:00-20:00",,,
MACY'S,92726,90-01 QUEENS BOULEVARD ,,ELMHURST,New York,11373,United States,718-271-7200,40.7607421875,-73.90087890625,"Mo 10:00-22:30,Tu 10:00-22:30,We 10:00-22:30,Th 10:00-22:30,Fr 10:00-22:30,Sa 09:00-22:30,Su 11:00-21:00",,,
BLOOMINGDALE'S,92286,400 HACKENSACK AVENUE DEPT. 903 ,,HACKENSACK,New Jersey,07602,United States,201-457-2000,40.7647171,-74.10343933,"Mo 10:00-21:30,Tu 10:00-21:30,We 10:00-21:30,Th 10:00-21:30,Fr 10:00-21:30,Sa 10:00-21:30",,,
TOURNEAU CORPORATE,854301,3100 47th Avenue 5th Floor ,,Long Island City,New York,11101,United States,,40.7420043,-73.935431,,,,
TOURNEAU,854300,3100 47TH AVE 5TH FLOOR ,,LONG ISLAND CITY,New York,11101,United States,,40.7420043,-73.935431,,,,
JARED,92514,8520 KEYSTONE CROSSING ,,INDIANAPOLIS,Indiana,46240,United States,317-466-0710,39.768310546875,-86.157958984375,"Mo 10:00-21:00,Tu 10:00-21:00,We 10:00-21:00,Th 10:00-21:00,Fr 10:00-21:00,Sa 10:00-21:00,Su 12:00-18:00",,,
JARED,92576,ST JOHN'S TOWN CENTER 4647 TOWN CENTER PKWY. ,,JACKSONVILLE,Florida,32246,United States,904-997-8122,30.2596435546875,-81.5283203125,"Mo 10:00-21:00,Tu 10:00-21:00,We 10:00-21:00,Th 10:00-21:00,Fr 10:00-21:00,Sa 10:00-21:00,Su 12:00-17:00",,,
LITTMAN JEWELERS,601475,"ORANGE PARK MALL 191 WELLS ROAD, SPACE G-11 ",,Orange Park,Florida,32073,United States,(904) 269-6688,30.184903,-81.7368147,"Mo 10:00-21:00,Tu 10:00-21:00,We 10:00-21:00,Th 10:00-21:00,Fr 10:00-21:00,Sa 10:00-21:00,Su 12:00-19:00",,,
VINHAS JEWELERS,93020,87 FERRY STREET ,,Newark,New Jersey,07105,United States,973-344-9260,40.72819519,-74.15657806,"Mo 09:00-19:00,Tu 09:00-19:00,We 09:00-19:00,Th 09:00-19:00,Fr 09:00-19:00,Sa 09:00-19:00",,,
WILLIAM BARTHMAN,93032,1118 KINGS HWY ,,BROOKLYN,New York,11229,United States,718-375-1818,40.6072464,-73.96122742,"Mo 10:00-18:45,Tu 10:00-18:45,We 10:00-18:45,Th 10:00-18:45,Fr 10:00-18:00,Su 11:00-18:00",,,
W. Kodak Jewelers,93021,1123 Hudson Street ,,Hoboken,New Jersey,07030,United States,(201) 710-5000,40.7499951,-74.0281584,"Mo 11:00-20:00,Tu 11:00-20:00,We 11:00-20:00,Th 11:00-20:00,Fr 11:00-20:00,Sa 11:00-18:00,Su 11:00-16:00",,,
MACY'S,92738,NEWPORT CENTRE MALL 2 MALL DRIVE ,,JERSEY CITY,New Jersey,07310,United States,201-255-5200,40.726332,-74.038861,"Mo 10:00-21:30,Tu 10:00-21:30,We 10:00-21:30,Th 10:00-21:30,Fr 10:00-21:30,Sa 09:00-22:00,Su 11:00-20:00",,,
DANIELLE B.,92342,871 7TH AVE ,,NEW YORK,New York,10019,United States,212-456-1400,40.764404296875,-73.980712890625,"Mo 10:00-20:00,Tu 10:00-20:00,We 10:00-20:00,Th 10:00-20:00,Fr 10:00-20:00,Sa 10:00-20:00",,,
BLOOMINGDALE'S,92296,1000 THIRD AVENUE DEPT. 903 ,,NEW YORK,New York,10022,United States,212-705-2000,40.7569580078125,-73.9541015625,"Mo 10:00-20:30,Tu 10:00-20:30,We 10:00-20:30,Th 10:00-20:30,Fr 10:00-20:30,Sa 10:00-20:30,Su 11:00-19:00",,,
TOURNEAU,93009,12 EAST 57TH STREET ,,NEW YORK,New York,10022,United States,212-758-7300,40.759724,-73.974536,"Mo 10:00-18:00,Tu 10:00-18:00,We 10:00-18:00,Th 10:00-19:00,Fr 10:00-18:00,Sa 10:00-18:00,Su 11:30-17:30",,,
LORD AND TAYLOR,92706,424 5TH AVENUE ,,NEW YORK,New York,10018,United States,212-891-3344,40.75146484375,-73.98291015625,"Mo 10:00-21:00,Tu 10:00-21:00,We 10:00-21:00,Th 10:00-21:00,Fr 10:00-21:00,Sa 10:00-21:00,Su 11:00-19:00",,,
HALTOMS,92423,6102 CAMP BOWIE ,,FT. WORTH,Texas,76116,United States,817-738-6511,32.7292551,-97.4175744,"Mo 10:00-17:30,Tu 10:00-17:30,We 10:00-17:30,Th 10:00-17:30,Fr 10:00-17:30,Sa 10:00-17:30",,,
MACY'S,92733,HERALD SQUARE 151 W. 34TH STREET ,,NEW YORK,New York,10001,United States,212-695-4400,40.750244140625,-73.987548828125,"Mo 09:00-21:30,Tu 09:00-21:30,We 09:00-21:30,Th 09:00-21:30,Fr 09:00-21:30,Sa 09:00-22:00,Su 11:00-20:30",,,
HALTOMS,92425,317 MAIN STREET ,,FT. WORTH,Texas,76102,United States,817-336-4051,32.7552856,-97.3336952,"Mo 09:30-17:30,Tu 09:30-17:30,We 09:30-17:30,Th 09:30-17:30,Fr 09:30-17:30,Sa 10:00-17:00",,,
JARED,92523,HULEN MALL 475 SOUTH HULEN ST. ,,FORT WORTH,Texas,76132,United States,817-346-1410,32.7511818,-97.36852,"Mo 10:00-21:00,Tu 10:00-21:00,We 10:00-21:00,Th 10:00-21:00,Fr 10:00-21:00,Sa 10:00-21:00,Su 12:00-17:00",,,
TIVOLI,92986,327 GRAHAM AVE ,,BROOKLYN,New York,11211,United States,718-384-1305,40.71409225,-73.94445038,"Mo 10:00-19:00,Tu 10:00-19:00,We 10:00-19:00,Th 10:00-19:00,Fr 10:00-19:00,Sa 10:00-19:00",,,
BERNIE ROBBINS JEWELERS,92265,200 N. SYCAMORE STREET ,,NEWTOWN,Pennsylvania,18940,United States,(215) 579-8224,40.230463,-74.940598,"Mo 10:00-18:00,Tu 10:00-18:00,We 10:00-18:00,Th 10:00-18:00,Fr 10:00-18:00,Sa 10:00-18:00,Su 10:00-18:00",,,
Oculus Westfield WTC,771181,"185 Greenwich Street, Wall Street, New York, NH, 10007 Suite LL ",,New York,New York,10007,United States,,40.7118596,-74.0109227,"Mo 09:00-21:00,Tu 09:00-21:00,We 09:00-21:00,Th 09:00-21:00,Fr 09:00-21:00,Sa 09:00-19:00,Su 09:00-17:00",,,
WEMPE,93027,700 FIFTH AVENUE ,,NEW YORK,New York,10019,United States,212-397-9000,40.76154327,-73.97503662,"Mo 10:00-18:00,Tu 10:00-18:00,We 10:00-18:00,Th 10:00-18:00,Fr 10:00-18:00,Sa 10:00-18:00,Su 12:00-17:00",,,
TOURNEAU,93000,510 MADISON AVE ,,NEW YORK,New York,10022,United States,212-758-5830,40.759724,-73.974536,"Mo 10:00-18:30,Tu 10:00-18:00,We 10:00-18:00,Th 10:00-18:30,Fr 10:00-18:00,Sa 10:00-18:00,Su 12:00-17:00",,,
WILLIAM BARTHMAN,93033,176 BROADWAY ,,NEW YORK,New York,10038,United States,212-732-0890,40.70988846,-74.00960541,"Mo 09:00-18:00,Tu 09:00-18:00,We 09:00-18:00,Th 09:00-18:30,Fr 09:00-18:00,Su 11:00-18:00",,,
MARKS JEWELERS,709640,975 BETHLEHEM PK ,,Montgomeryville,Pennsylvania,18936,United States,(215) 362-7132,40.227848,-75.234796,"Mo 10:00-18:30,Tu 10:00-18:30,We 10:00-20:00,Th 10:00-20:00,Fr 10:00-18:30,Sa 10:00-18:00,Su 11:00-15:30",,,
BENARI JEWELERS,92256,299 MAIN STREET ,,EXTON,Pennsylvania,19341,United States,610-363-8450,40.0222067,-75.6262885,"Mo 10:00-18:00,Tu 10:00-18:00,We 10:00-20:00,Th 10:00-18:00,Fr 10:00-20:00,Sa 10:00-17:00",,,
TOURNEAU,93008,"KING OF PRUSSIA MALL 16 NORTH GULPH ROAD, STORE 178A ",,KING OF PRUSSIA,Pennsylvania,19406,United States,610-491-8801,40.08927536,-75.39601898,"Mo 10:00-21:00,Tu 10:00-21:00,We 10:00-21:00,Th 10:00-21:00,Fr 10:00-21:00,Sa 10:00-21:00,Su 11:00-18:00",,,
TAG HEUER BOUTIQUE- GARDEN STATE PLAZA,92951,GARDEN STATE PLAZA SPACE 1148 1 GARDEN STATE PLAZA ,,PARAMUS,New Jersey,7652,United States,(201) 368-0710,40.918523,-74.076712,"Mo 10:00-21:30,Tu 10:00-21:30,We 10:00-21:30,Th 10:00-21:30,Fr 10:00-21:30,Sa 10:00-21:30",,,
MACY'S,92722,KING OF PRUSSIA 68 WEST DEKALB PIKE ,,KING OF PRUSSIA,Pennsylvania,19406,United States,610-337-9350,40.0886181,-75.387833,"Mo 10:00-21:30,Tu 10:00-21:30,We 10:00-21:30,Th 10:00-21:30,Fr 10:00-21:30,Sa 09:00-22:00,Su 11:00-19:00",,,
JARED,92564,5327 CONCORD PIKE ,,WILMINGTON,Delaware,19803,United States,302-478-4240,39.8309905,-75.543606,"Mo 10:00-21:00,Tu 10:00-21:00,We 10:00-21:00,Th 10:00-21:00,Fr 10:00-21:00,Sa 10:00-21:00,Su 12:00-17:00",,,
BERNIE ROBBINS,92264,THE PROMENADE AT SAGEMORE 5 ROUTE 73 SOUTH ,,MARLTON,New Jersey,08053,United States,856-985-4500,39.89122391,-74.92182922,"Mo 10:30-20:30,Tu 10:30-20:30,We 10:30-20:30,Th 10:30-20:30,Fr 10:30-20:30,Sa 10:30-20:30,Su 11:30-17:30",,,
Bernie Robbins Jewelers,769884,East 775 Lancaster Ave ,,Villanova,Pennsylvania,19085,United States,(610) 971-2446,40.0369108,-75.3517164,"Mo 10:00-19:00,Tu 10:00-19:00,We 10:00-19:00,Th 10:00-19:00,Fr 10:00-19:00,Sa 10:00-00:00",,,
BRAND JEWELERS,92313,DEPTFORD MALL 175 DEPTFORD CENTER RD ,,DEPTFORD,New Jersey,08096,United States,856-848-3511,39.82270432,-75.11951447,"Mo 10:00-19:00,Tu 10:00-19:00,We 10:00-19:00,Th 10:00-19:00,Fr 10:00-19:00,Sa 10:00-17:00",,,
A R MORRIS JEWELERS,92181,802 N. MARKET STREET ,,WILMINGTON,Delaware,19801,United States,302-658-4013,39.7435186,-75.5495162,"Mo 09:00-17:30,Tu 09:00-17:30,We 09:00-20:00,Th 09:00-17:30,Fr 09:00-17:30,Sa 10:00-17:00",,,
GOVBERG,92417,65 ST JAMES PLACE ,,ARDMORE,Pennsylvania,19003,United States,215 - 546-6905,40.0052948,-75.24249268,"Mo 10:00-19:00,Tu 10:00-19:00,We 10:00-19:00,Th 10:00-19:00,Fr 10:00-19:00,Sa 10:00-19:00,Su 12:00-17:00",,,
MACY'S,690825,1300 MARKET STREET ,,philadelphia,Pennsylvania,19107,United States,(215) 241-9000,39.9514423,-75.1642909,"Mo 10:00-21:00,Tu 10:00-21:00,We 10:00-21:00,Th 10:00-21:00,Fr 10:00-21:00,Sa 10:00-21:00,Su 11:00-18:00",,,
JARED,92559,693 E. BOUGHTON RD. ,,BOLINGBROOK,Illinois,60440,United States,630-783-0214,41.6986083984375,-88.068359375,"Mo 10:00-21:00,Tu 10:00-21:00,We 10:00-21:00,Th 10:00-21:00,Fr 10:00-21:00,Sa 10:00-21:00,Su 12:00-17:00",,,
JARED,92566,1700 E. WOODFIELD RD. ,,SCHAUMBURG,Illinois,60173,United States,847-995-0212,42.04325104,-88.04521179,"Mo 10:00-21:00,Tu 10:00-21:00,We 10:00-21:00,Th 10:00-21:00,Fr 10:00-21:00,Sa 10:00-21:00,Su 12:00-17:00",,,
MACY'S,92775,WOODFIELD MALL 1 WOODFIELD MALL DEPT 921 ,,SCHAUMBURG,Illinois,60173,United States,847-706-6160,42.04818726,-88.03921509,"Mo 10:00-21:00,Tu 10:00-21:00,We 10:00-21:00,Th 10:00-21:00,Fr 10:00-22:00,Sa 09:00-22:00,Su 11:00-20:00",,,
RAZNY JEWELERS,92861,1700 GREEN BAY road ,,HIGHLAND PARK,Illinois,60035,United States,847-432-5300,42.18169022,-87.80034637,"Mo 10:00-17:30,Tu 10:00-17:30,We 10:00-17:30,Th 10:00-19:00,Fr 10:00-17:30,Sa 10:00-17:00",,,
BENARI JEWELERS,92257,3606 WEST CHESTER PIKE ,,NEWTOWN SQUARE,Pennsylvania,19073,United States,610-565-5088,39.98659134,-75.4918455,"Mo 10:00-18:00,Tu 10:00-18:00,We 10:00-20:00,Th 10:00-18:00,Fr 10:00-20:00,Sa 10:00-17:00",,,
JAY ROBERTS JEWELERS,92629,515 ROUTE 73 SOUTH ,,MARLTON,New Jersey,08053,United States,856-596-8600,39.87522888,-74.92205811,"Mo 10:00-18:00,Tu 10:00-18:00,We 10:00-20:00,Th 10:00-20:00,Fr 10:00-18:00,Sa 10:00-18:00",,,
BELLA COSA,92213,7163 KINGERLY HWY ,,WILLOWBROOK,Illinois,60527,United States,630-455-1234,41.759164,-87.943475,"Mo 10:00-19:00,Tu 10:00-19:00,We 10:00-19:00,Th 10:00-19:00,Fr 10:00-19:00,Sa 10:00-17:00",,,
LITTMAN JEWELERS,92387,CHERRY HILL MALL 2 ROUTE 38 #1735 ,,CHERRY HILL,New Jersey,8002,United States,856-488-0063,39.94103622,-75.02500916,"Mo 10:00-21:30,Tu 10:00-21:30,We 10:00-21:30,Th 10:00-21:30,Fr 10:00-21:30,Sa 10:00-21:30,Su 11:00-18:00",,,
MACY'S,92721,CHERRY HILL MALL ROUTE 38 AND HADDONFIELD RD ,,CHERRY HILL,New Jersey,8002,United States,856-661-4211,39.9439888,-75.0287323,"Mo 10:00-21:30,Tu 10:00-21:30,We 10:00-21:30,Th 10:00-21:30,Fr 10:00-22:00,Sa 09:00-22:00,Su 11:00-19:00",,,
C.D. PEACOCK,92322,172 OAKBROOK CENTER ,,OAKBROOK,Illinois,60523,United States,630-571-5355,41.8509539,-87.9527142,"Mo 10:00-21:00,Tu 10:00-21:00,We 10:00-21:00,Th 10:00-21:00,Fr 10:00-21:00,Sa 10:00-21:00,Su 12:00-18:00",,,
C.D. PEACOCK,92324,4999 Old Orchard Center ,,Skokie,Illinois,60077,United States,(847) 679-1837,42.057211,-87.7486,"Mo 10:00-19:00,Tu 10:00-19:00,We 10:00-19:00,Th 10:00-20:00,Fr 10:00-19:00,Sa 10:00-18:00,Su 12:00-18:00",,,
MACY'S,92750,OLD ORCHARD MALL 1 OLD ORCHARD DEPT 921 ,,SKOKIE,Illinois,60077,United States,847-329-2892,42.0333251953125,-87.733154296875,"Mo 10:00-21:00,Tu 10:00-21:00,We 10:00-21:00,Th 10:00-21:00,Fr 10:00-21:00,Sa 09:00-22:00,Su 11:00-19:00",,,
RAZNY JEWELERS,92860,1501 W. LAKE STREET ,,ADDISON,Illinois,60101,United States,630-932-4900,41.94711304,-88.02479553,"Mo 10:00-17:30,Tu 10:00-17:30,We 10:00-17:30,Th 10:00-19:00,Fr 10:00-17:30,Sa 10:00-17:00",,,
JARED,92546,15341 LAGRANGE RD. ,,ORLAND PARK,Illinois,60462,United States,708-364-1680,41.613037109375,-87.841552734375,"Mo 10:00-21:00,Tu 10:00-21:00,We 10:00-21:00,Th 10:00-21:00,Fr 10:00-21:00,Sa 10:00-21:00,Su 12:00-17:00",,,
C.D. PEACOCK,92323,WOODFIELD MALL ,,SCHAUMBURG,Illinois,60173,United States,847-619-6260,42.04818726,-88.03921509,"Mo 10:00-21:00,Tu 10:00-21:00,We 10:00-21:00,Th 10:00-21:00,Fr 10:00-21:00,Sa 10:00-21:00,Su 12:00-18:00",,,
JARED,92510,FOUNTAIN SQUARE 237 FOUNTAIN SQUARE DR. ,,LOMBARD,Illinois,60148,United States,630-705-1720,41.8800048828125,-88.0078125,"Mo 10:00-21:00,Tu 10:00-21:00,We 10:00-21:00,Th 10:00-21:00,Fr 10:00-21:00,Sa 10:00-21:00,Su 12:00-17:00",,,
MACY'S,92773,"WATER TOWER PLACE 835 N. MICHIGAN AVENUE, DEPT. 921 ",,CHICAGO,Illinois,60611,United States,312-335-7733,41.89751434,-87.62820435,"Mo 10:00-21:00,Tu 10:00-21:00,We 10:00-21:00,Th 10:00-21:00,Fr 10:00-22:00,Sa 09:00-22:00,Su 10:00-21:00",,,
MACY'S,92766,111 N. STATE STREET DEPT 921 ,,CHICAGO,Illinois,60602,United States,321 - 781-4266,41.883956,-87.627557,"Mo 10:00-20:00,Tu 10:00-20:00,We 10:00-20:00,Th 10:00-20:00,Fr 10:00-21:00,Sa 09:00-22:00,Su 11:00-19:00",,,
NEW YORK JEWELERS,92833,11 NORTH WABASH ,,CHICAGO,Illinois,60602,United States,312-855-4999,41.88253403,-87.62573242,"Mo 10:00-17:30,Tu 10:00-17:30,We 10:00-17:30,Th 10:00-19:00,Fr 10:00-17:30,Sa 10:00-17:30",,,
Dufry,579662,O'Hare International Airport 1 W O'Hare Ave ,,"Chicago, IL",Illinois,60666,United States,773.601.2971,41.97402463531897,-87.88841485977173,,,,
JARED,92517,GREAT LAKE CROSSINGS 396 BALDWIN RD. ,,AUBURN HILLS,Michigan,48326,United States,248-253-0488,42.70263671875,-83.306396484375,"Mo 10:00-21:00,Tu 10:00-21:00,We 10:00-21:00,Th 10:00-21:00,Fr 10:00-21:00,Sa 10:00-21:00,Su 12:00-17:00",,,
MACY'S,92748,OAKBROOK CENTER MALL 1 OAKBROOK CENTER MALL DEPT. 921 ,,OAK BROOK,Illinois,60521,United States,630-684-2164,41.8397216796875,-87.953369140625,"Mo 10:00-21:00,Tu 10:00-21:00,We 10:00-21:00,Th 10:00-21:00,Fr 10:00-21:00,Sa 09:00-22:00,Su 11:00-19:00",,,
LUCIDO,92709,312 MAIN ST. ,,ROCHESTER,Michigan,48307,United States,248-402-0300,42.68017578125,-83.13330078125,"Mo 10:00-18:00,Tu 10:00-18:00,We 10:00-18:00,Th 10:00-20:00,Fr 10:00-18:00,Sa 10:00-17:00",,,
TAPPERS,92967,TWELVE OAKS MALL 27716 NOVI ROAD ,,NOVI,Michigan,48377,United States,248-465-1800,42.48059082,-83.47549438,"Mo 10:00-21:00,Tu 10:00-21:00,We 10:00-21:00,Th 10:00-21:00,Fr 10:00-21:00,Sa 10:00-21:00,Su 11:00-18:00",,,
JARED,92619,WEST OAKS MALL 27795 NOVI RD. ,,NOVI,Michigan,48377,United States,248-449-6613,42.48046875,-83.475341796875,"Mo 10:00-21:00,Tu 10:00-21:00,We 10:00-21:00,Th 10:00-21:00,Fr 10:00-21:00,Sa 10:00-21:00,Su 12:00-17:00",,,
JARED,92515,45011 PARK AVE. ,,UTICA,Michigan,48315,United States,586-997-9500,42.628662109375,-83.009521484375,"Mo 10:00-21:00,Tu 10:00-21:00,We 10:00-21:00,Th 10:00-21:00,Fr 10:00-21:00,Sa 10:00-21:00,Su 12:00-17:00",,,
LUCIDO,92710,42825 SCHOENHERR ROAD ,,STERLING HEIGHTS,Michigan,48313,United States,586-997-0011,42.6116943359375,-82.993408203125,"Mo 10:00-18:00,Tu 10:00-18:00,We 10:00-18:00,Th 10:00-20:00,Fr 10:00-18:00,Sa 10:00-17:00",,,
GENEVA SEAL,92406,112 EAST OAK STREET ,,CHICAGO,Illinois,60611,United States,312 - 944-3100,41.901463,-87.625322,"Mo 10:00-18:00,Tu 10:00-18:00,We 10:00-18:00,Th 10:00-18:00,Fr 10:00-18:00,Sa 10:00-18:00",,,
BLOOMINGDALE'S,92295,900 NORTH MICHIGAN AVENUE DEPT. 903 ,,CHICAGO,Illinois,60611,United States,312-440-4460,41.899674,-87.625175,"Mo 10:00-20:00,Tu 10:00-20:00,We 10:00-20:00,Th 10:00-20:00,Fr 10:00-20:00,Sa 10:00-20:00,Su 11:00-19:00",,,
TAPPERS,92966,SOMERSET MALL 28 WEST BIG BEAVER ROAD ,,TROY,Michigan,48084,United States,248 - 932-7700,42.56252289,-83.18402863,"Mo 10:00-21:00,Tu 10:00-21:00,We 10:00-21:00,Th 10:00-21:00,Fr 10:00-21:00,Sa 10:00-21:00,Su 12:00-18:00",,,
MACY'S,92762,2750 WEST BIG BEAVER ROAD DEPT. 921 ,,TROY,Michigan,48084,United States,248-816-4000,42.56299,-83.182322,"Mo 10:00-21:00,Tu 10:00-21:00,We 10:00-21:00,Th 10:00-21:00,Fr 10:00-21:00,Sa 09:00-22:00,Su 11:00-19:00",,,
TOURNEAU,93014,WATER TOWER PLACE 835 N. MICHIGAN AVENUE ,,CHICAGO,Illinois,60611,United States,312-266-7600,41.898268,-87.623824,"Mo 10:00-21:00,Tu 10:00-21:00,We 10:00-21:00,Th 10:00-21:00,Fr 10:00-21:00,Sa 10:00-21:00,Su 11:00-18:00",,,
EDMUND T AHEE,92357,20139 MACK AVENUE ,,GROSSE PT WOODS,Michigan,48236,United States,313-886-4600,42.434629,-82.908815,"Mo 10:00-18:00,Tu 10:00-18:00,We 10:00-18:00,Th 10:00-20:00,Fr 10:00-18:00,Sa 10:00-18:00",,,
JARED,92483,CAROLINA PLACE 953 PINEVILLE MATTHEWS RD. ,,PINEVILLE,North Carolina,28134,United States,704-752-7800,35.0869140625,-80.879150390625,"Mo 10:00-21:00,Tu 10:00-21:00,We 10:00-21:00,Th 10:00-21:00,Fr 10:00-21:00,Sa 10:00-21:00,Su 12:00-18:00",,,
Duty Free Americas,579675,"Detroit Metropolitan Airport 3 Northline Rd, Bldg 47 ",,"Romulus, MI",Michigan,48174,United States,313.363.4706,42.21033799073394,-83.3558464050293,,,,
World Duty Free Detroit,795323,Detroit Metropolitan Airport McNamara Terminal ,,Detroit,Michigan,48242,United States,,42.2161722,-83.3553842,,,,
LEO JEWELRY & GIFT,92669,34900 MICHIGAN AVE ,,WAYNE,Michigan,48184,United States,734-721-4311,42.28204346,-83.3820343,"Mo 09:30-18:00,Tu 09:30-18:00,We 09:30-18:00,Th 09:30-18:00,Fr 09:30-18:00,Sa 09:30-18:00",,,
REEDS JEWELERS,92876,NORTHLAKE MALL 681 NORTHLAKE MALL BLVD SUITE 155 ,,CHARLOTTE,North Carolina,28216,United States,704-509-1697,35.3533935546875,-80.85498046875,"Mo 10:00-21:00,Tu 10:00-21:00,We 10:00-21:00,Th 10:00-21:00,Fr 10:00-21:00,Sa 10:00-21:00,Su 12:00-18:00",,,
LUCIDO FINE JEWELRY OF BIRMINGHAM,771810,270 N OLD WOODWARD AVE ,,Birmingham,Michigan,48009,United States,(248) 402-0300,42.547697,-83.2166557,"Mo 10:00-17:00,Tu 10:00-17:00,We 10:00-17:00,Th 10:00-17:00,Fr 10:00-17:00,Sa 10:00-17:00",,,
REEDS JEWELERS,92884,11025 CAROLINA PLACE PKWY ,,PINEVILLE,North Carolina,28134,United States,704-543-9394,35.0821533203125,-80.877197265625,"Mo 10:00-21:00,Tu 10:00-21:00,We 10:00-21:00,Th 10:00-21:00,Fr 10:00-21:00,Sa 10:00-21:00,Su 12:00-18:00",,,
JARED,92557,POLARIS TOWN CENTER 1499 POLARIS PKWY. ,,COLUMBUS,Ohio,43240,United States,614-433-0671,40.1407415,-82.9788683,"Mo 10:00-21:00,Tu 10:00-21:00,We 10:00-21:00,Th 10:00-21:00,Fr 10:00-21:00,Sa 10:00-21:00,Su 12:00-17:00",,,
DIAMOND CELLAR,92925,EASTON TOWNE CENTRE 396 NEW BOND ST. ,,COLUMBUS,Ohio,43219,United States,614-923-6633,40.0532074,-82.91630554,"Mo 10:00-21:00,Tu 10:00-21:00,We 10:00-21:00,Th 10:00-21:00,Fr 10:00-21:00,Sa 10:00-21:00",,,
JARED,92498,4159 MORSE CROSSING ,,COLUMBUS,Ohio,43219,United States,614-476-6532,40.0551111,-82.9202121,"Mo 10:00-21:00,Tu 10:00-21:00,We 10:00-21:00,Th 10:00-21:00,Fr 10:00-21:00,Sa 10:00-21:00,Su 12:00-18:00",,,
BRAIDY JEWELERS,92312,39504 N DAISY MTN DRIVE #10 ,,ANTHEM,Arizona,85086,United States,(623) 551-9609,33.849283,-112.122731,"Mo 10:00-18:00,Tu 10:00-18:00,We 10:00-18:00,Th 10:00-18:00,Fr 10:00-18:00,Sa 10:00-17:00",,,
WINDSOR JEWELERS,93037,6809-D PHILLIPS PLACE COURT ,,CHARLOTTE,North Carolina,28210,United States,704 - 556-7747,35.147424,-80.827473,"Mo 10:00-18:00,Tu 10:00-18:00,We 10:00-18:00,Th 10:00-18:00,Fr 10:00-18:00,Sa 10:00-17:30",,,
JARED,92465,ARROWHEAD TOWN CENTER 752 W. BELL RD. ,,GLENDALE,Arizona,85308,United States,623-334-3033,33.6387883,-112.2236654,"Mo 10:00-21:00,Tu 10:00-21:00,We 10:00-21:00,Th 10:00-21:00,Fr 10:00-21:00,Sa 10:00-21:00,Su 12:00-17:00",,,
FINK'S JEWELERS,92379,"4400 SHARON ROAD, SUITE 199 ",,CHARLOTTE,North Carolina,28211,United States,704-366-3120,35.1523852,-80.834314,"Mo 10:00-20:00,Tu 10:00-20:00,We 10:00-20:00,Th 10:00-20:00,Fr 10:00-20:00,Sa 10:00-20:00,Su 12:30-18:00",,,
JARED,92567,SCOTTSDALE RENAISSANCE CENTER 4545 N. SCOTTSDALE RD. STE. 11 ,,SCOTTSDALE,Arizona,85251,United States,480-949-3100,33.5035400390625,-111.925537109375,"Mo 10:00-21:00,Tu 10:00-21:00,We 10:00-21:00,Th 10:00-21:00,Fr 10:00-21:00,Sa 10:00-21:00,Su 12:00-17:00",,,
BEN BRIDGE,92244,SCOTTSDALE FASHION SQUARE 714 EAST CAMELBACK ROAD #184 ,,SCOTTSDALE,Arizona,85251,United States,480-970-8209,33.5028076171875,-111.929443359375,"Mo 10:00-21:00,Tu 10:00-21:00,We 10:00-21:00,Th 10:00-21:00,Fr 10:00-21:00,Sa 10:00-21:00,Su 11:00-18:00",,,
DIAMOND CELLAR,92924,6280 SAWMILL ROAD ,,DUBLIN,Ohio,43017,United States,614-336-4545,40.09477234,-83.09072876,"Mo 09:30-20:00,Tu 09:30-20:00,We 09:30-20:00,Th 09:30-20:00,Fr 09:30-18:00,Sa 09:30-18:00",,,
GANEM,92398,3602 E RAY ROAD ,,PHOENIX,Arizona,85044,United States,480-706-1850,33.341552734375,-111.983154296875,"Mo 10:00-18:00,Tu 10:00-18:00,We 10:00-18:00,Th 10:00-18:00,Fr 10:00-18:00,Sa 10:00-17:00",,,
HYDE PARK,92446,BILTMORE FASHION PARK 2442 E. CAMELBACK RD. ,,PHOENIX,Arizona,85016,United States,602-667-3541,33.4483642578125,-112.073974609375,"Mo 10:00-18:00,Tu 10:00-18:00,We 10:00-18:00,Th 10:00-18:00,Fr 10:00-18:00,Sa 10:00-17:30,Su 12:00-17:30",,,
UNICORN,93019,16781 BERNARDO CENTER DRIVE #4 ,,RANCHO BERNARDO,California,92128,United States,858-487-6454,33.018772,-117.073568,"Mo 10:00-18:00,Tu 10:00-18:00,We 10:00-18:00,Th 10:00-18:00,Fr 10:00-18:00,Sa 10:00-17:00",,,
JARED,102011,2960 PLAZA BONITA RD ,,NATIONAL CITY,California,91950,United States,619-267-1323,32.656105,-117.06817,"Mo 10:00-21:00,Tu 10:00-21:00,We 10:00-21:00,Th 10:00-21:00,Fr 10:00-21:00,Sa 10:00-21:00,Su 12:00-18:00",,,
JARED,92503,DANA PARK VILLAGE 175 S. VALVISTA DR. ,,MESA,Arizona,85204,United States,480-813-2091,33.3828125,-111.75439453125,"Mo 10:00-21:00,Tu 10:00-21:00,We 10:00-21:00,Th 10:00-21:00,Fr 10:00-21:00,Sa 10:00-21:00,Su 12:00-17:00",,,
GANEM,92399,18560 N SCOTTSDALE RD ,,SCOTTSDALE,Arizona,85054,United States,480-820-1122,33.65749546,-111.9254494,"Mo 10:00-18:00,Tu 10:00-18:00,We 10:00-18:00,Th 10:00-18:00,Fr 10:00-18:00,Sa 10:00-17:00",,,
JARED,92548,12656 N. TATUM BLVD. ,,PHOENIX,Arizona,85032,United States,602-569-6200,33.6033935546875,-111.978271484375,"Mo 10:00-21:00,Tu 10:00-21:00,We 10:00-21:00,Th 10:00-21:00,Fr 10:00-21:00,Sa 10:00-21:00,Su 12:00-17:00",,,
BLOOMINGDALE'S,92289,FASHION VALLEY CENTER 757 FRAIRS ROAD ,,SAN DIEGO,California,92108,United States,619-610-6451,32.7685546875,-117.164306640625,"Mo 10:00-20:00,Tu 10:00-20:00,We 10:00-20:00,Th 10:00-21:00,Fr 10:00-21:00,Sa 10:00-21:00,Su 12:00-19:00",,,
JARED,92616,WESTFIELD MISSIN VALLEY 125 CAMINO DE LA REINA ,,SAN DIEGO,California,92108,United States,619-278-0060,32.7152099609375,-117.1572265625,"Mo 10:30-21:00,Tu 10:30-21:00,We 10:30-21:00,Th 10:30-21:00,Fr 10:30-21:00,Sa 10:00-21:00,Su 12:00-17:00",,,
DANIEL JEWELRY & GIFTS,92341,1241 PROSPECT STREET ,,LA JOLLA,California,92037,United States,858-454-8001,32.8489139,-117.2715332,"Mo 10:00-18:00,Tu 10:00-18:00,We 10:00-18:00,Th 10:00-18:00,Fr 10:00-18:00,Sa 10:00-18:00,Su 10:00-18:00",,,
BEN BRIDGE,92221,CHANDLER FASHION CENTER 3111 W CHANDLER BLVD SP 23 ,,CHANDLER,Arizona,85226,United States,480-722-1100,33.3013698,-111.9011988,"Mo 10:00-21:00,Tu 10:00-21:00,We 10:00-21:00,Th 10:00-21:00,Fr 10:00-21:00,Sa 10:00-21:00,Su 11:00-18:00",,,
MACY'S,92758,170 O'FARRELL ST. ,,SAN FRANCISCO,California,94102,United States,415-397-3333,37.78683472,-122.4074631,"Mo 10:00-21:00,Tu 10:00-21:00,We 10:00-21:00,Th 10:00-21:00,Fr 10:00-21:00,Sa 09:00-22:00,Su 11:00-20:00",,,
Jared The Galleria of Jewelry,709603,11998 Carmel Mountain Road ,,San Diego,California,92128,United States,(858) 487-2279,32.9829571,-117.0767742,"Mo 10:00-21:00,Tu 10:00-21:00,We 10:00-21:00,Th 10:00-21:00,Fr 10:00-21:00,Sa 10:00-18:00,Su 12:00-18:00",,,
BEN BRIDGE,92247,THE DOMAIN 341 ESPERANZA CROSSING ,,AUSTIN,Texas,78758,United States,512-491-8014,30.402933,-97.724242,"Mo 10:00-21:00,Tu 10:00-21:00,We 10:00-21:00,Th 10:00-21:00,Fr 10:00-21:00,Sa 10:00-21:00,Su 12:00-18:00",,,
BEN BRIDGE,92250,UNIVERSITY TOWN CENTER 455 LA JOLLA VILLAGE DRIVE STE C19 ,,SAN DIEGO,California,92122,United States,858-453-9996,32.8717041015625,-117.20947265625,"Mo 10:00-21:00,Tu 10:00-21:00,We 10:00-21:00,Th 10:00-21:00,Fr 10:00-21:00,Sa 10:00-20:00,Su 11:00-19:00",,,
HELLER JEWELERS,92438,2005 CROW CANYON PLACE #168 ,,SAN RAMON,California,94583,United States,925 - 904-0200,37.7797177,-121.9726947,"Mo 10:00-18:00,Tu 10:00-18:00,We 10:00-18:00,Th 10:00-18:00,Fr 10:00-18:00,Sa 10:00-17:00,Su 12:00-17:00",,,
BEN BRIDGE,92227,FASHION VALLEY CENTER 77 FRIARS RD #543 ,,SAN DIEGO,California,92108,United States,619-291-7572,32.7694091796875,-117.169677734375,"Mo 10:00-21:00,Tu 10:00-21:00,We 10:00-21:00,Th 10:00-21:00,Fr 10:00-21:00,Sa 10:00-21:00,Su 11:00-19:00",,,
CHONG HING JEWELERS,92332,"STANFORD SHOPPING CENTER 180 EL CAMINO REAL, SUITE 155 ",,PALO ALTO,California,94304,United States,408-577-0888,37.443126,-122.17157400000002,"Mo 11:00-19:00,Tu 11:00-19:00,Th 11:00-19:00,Fr 11:00-19:00,Sa 11:00-19:00,Su 11:00-19:00",,,
MACY'S,92771,VALLEY FAIR SHOPPING CENTER 2801 STEVENS CREEK BLVD. ,,SANTA CLARA,California,95050,United States,408-248-3333,37.3241803,-121.9505566,"Mo 10:00-21:30,Tu 10:00-21:30,We 10:00-21:30,Th 10:00-21:30,Fr 10:00-21:30,Sa 09:00-22:00,Su 11:00-20:00",,,
TOURNEAU,92994,865 MARKET STREET SPACE 144 ,,SAN FRANCISCO,California,94103,United States,415-974-1846,37.76783371,-122.3941879,"Mo 10:00-20:30,Tu 10:00-20:30,We 10:00-20:30,Th 10:00-20:30,Fr 10:00-20:30,Sa 10:00-20:30,Su 10:00-19:00",,,
JARED,92573,SOUTHLAKE TOWN SQUARE 15 E SOUTH LAKE BLVD ,,SOUTHLAKE,Texas,76092,United States,817-251-0286,32.9412841796875,-97.128662109375,"Mo 10:00-21:00,Tu 10:00-21:00,We 10:00-21:00,Th 10:00-21:00,Fr 10:00-21:00,Sa 10:00-21:00,Su 12:00-17:00",,,
BEN BRIDGE,92217,"BARTON CREEK SQUARE MALL 291 S CAPITOL OF TX HWY, SUITE J1A ",,AUSTIN,Texas,78746,United States,512-329-9066,30.256435,-97.809949,"Mo 10:00-21:00,Tu 10:00-21:00,We 10:00-21:00,Th 10:00-21:00,Fr 10:00-21:00,Sa 10:00-21:00,Su 12:00-18:00",,,
BLOOMINGDALE'S,92304,WESTFIELD SHOPPING CENTER 845 MARKET STREET ,,SAN FRANCISCO,California,94103,United States,(415) 856-5300,37.77492905,-122.4194183,"Mo 10:00-21:00,Tu 10:00-21:00,We 10:00-21:00,Th 10:00-21:00,Fr 10:00-21:00,Sa 10:00-21:00,Su 11:00-20:00",,,
BEN BRIDGE JEWELERS,603678,HILLSDALE SHOPPING CENTER 316 HILLSDALE MALL ,,San Mateo,California,94403,United States,(650) 571-1133,37.5370369,-122.299367,"Mo 10:00-21:00,Tu 10:00-21:00,We 10:00-21:00,Th 10:00-21:00,Fr 10:00-21:00,Sa 10:00-21:00,Su 11:00-19:00",,,
JARED,92513,FRISCO VILLAGE 311 PRESTON RD. ,,FRISCO,Texas,75034,United States,214-705-7354,33.1501085,-96.8345784,"Mo 10:00-21:00,Tu 10:00-21:00,We 10:00-21:00,Th 10:00-21:00,Fr 10:00-21:00,Sa 10:00-21:00,Su 12:00-17:00",,,
JARED,92595,THE SHOPS AT ARBOR TRAILS 431 W. WILLIAM CANNON DR. BLD J ,,AUSTIN,Texas,78749,United States,512-358-0277,30.26715087890625,-97.742919921875,"Mo 10:00-21:00,Tu 10:00-21:00,We 10:00-21:00,Th 10:00-21:00,Fr 10:00-21:00,Sa 10:00-21:00,Su 12:00-17:00",,,
MARKHAM JEWELERS,776769,8355 GAYLORD PARKWAY ,,FRISCO,Texas,75034,United States,(214) 705-9913,33.1023615,-96.8118663,"Mo 10:00-19:00,Tu 10:00-19:00,We 10:00-19:00,Th 10:00-19:00,Fr 10:00-19:00,Sa 10:00-18:00",,,
BENCHMARK JEWELERS,362714,"STONEBRIAR  MALL 261 PRESTON ROAD, SUITE 1112 ",,FRISCO,Texas,75034,United States,(214) 872-4470,33.0994074,-96.810689,"Mo 10:00-21:00,Tu 10:00-21:00,We 10:00-21:00,Th 10:00-21:00,Fr 10:00-21:00,Sa 10:00-21:00,Su 10:00-18:00",,,
MACY'S,92767,STONERIDGE MALL 13 STONERIDGE MALL ROAD ,,PLEASANTON,California,94588,United States,925-463-3333,37.693397,-121.928244,"Mo 10:00-21:00,Tu 10:00-21:00,We 10:00-21:00,Th 10:00-21:00,Fr 10:00-21:00,Sa 09:00-22:00,Su 11:00-19:00",,,
JARED,92550,THE PARKS AT ARLINGTON 3951 S. COOPER ST. ,,ARLINGTON,Texas,76015,United States,817-784-2744,32.67919921875,-97.134765625,"Mo 10:00-21:00,Tu 10:00-21:00,We 10:00-21:00,Th 10:00-21:00,Fr 10:00-21:00,Sa 10:00-21:00,Su 12:00-17:00",,,
BLOOMINGDALE'S,92301,1 STANFORD SHOPPING CENTER DEPT. 903 ,,PALO ALTO,California,94304,United States,650-463-2000,37.4417724609375,-122.1708984375,"Mo 10:00-20:00,Tu 10:00-20:00,We 10:00-20:00,Th 10:00-20:00,Fr 10:00-20:00,Sa 10:00-20:00,Su 12:00-19:00",,,
HALTOMS,92424,1469 W. HWY 114 ,,GRAPEVINE,Texas,76051,United States,817-488-5527,32.9246826171875,-97.05810546875,"Mo 10:00-17:30,Tu 10:00-17:30,We 10:00-17:30,Th 10:00-17:30,Fr 10:00-17:30,Sa 10:00-17:30",,,
JARED,92495,COLLIN CREEK MALL 31 W. PLANO PKWY. ,,PLANO,Texas,75075,United States,972-578-9400,33.009521484375,-96.710693359375,"Mo 10:00-21:00,Tu 10:00-21:00,We 10:00-21:00,Th 10:00-21:00,Fr 10:00-21:00,Sa 10:00-21:00,Su 12:00-17:00",,,
DFASS,579665,Dallas/Fort Worth International Airport International Pkwy ,,"Grapevine, TX",Texas,75261,United States,972.345.1903,32.902073827509504,-97.04017639160156,,,,
GOVINDJI'S JEWELERS,92419,245 NORTH CENTRAL EXPRESSWAY ,,RICHARDSON,Texas,75080,United States,972 - 231-6776,32.9530029296875,-96.73388671875,"Mo 12:00-19:00,We 12:00-19:00,Th 12:00-19:00,Fr 12:00-19:00,Sa 12:00-19:00,Su 12:00-19:00",,,
BACHENDORF'S,92205,"DALLAS GALLERIA 1335 DALLAS PKWY, L-1, STE 1415 ",,DALLAS,Texas,75240,United States,972-392-9900,32.9300537109375,-96.819580078125,"Mo 10:00-21:00,Tu 10:00-21:00,We 10:00-21:00,Th 10:00-21:00,Fr 10:00-21:00,Sa 10:00-21:00,Su 12:00-18:00",,,
BENCHMARK JEWELERS,92259,NORTH EAST MALL 111 MELBOURNE ST P11A ,,HURST,Texas,76053,United States,817-284-4700,32.830322265625,-97.199951171875,"Mo 10:00-21:00,Tu 10:00-21:00,We 10:00-21:00,Th 10:00-21:00,Fr 10:00-21:00,Sa 10:00-21:00,Su 12:00-18:00",,,
MACY'S,381830,NORTHPARK MALL 8687 NORTH CENTRAL EXPRESSWAY ,,Dallas,Texas,75225,United States,(469) 232-3600,32.8698753,-96.776476,"Mo 10:00-21:00,Tu 10:00-21:00,We 10:00-21:00,Th 10:00-21:00,Fr 10:00-21:00,Sa 10:00-19:00,Su 11:00-18:00",,,
WILLIS FINE JEWELRY,93031,2845 RIDGE ROAD STE 21 ,,ROCKWALL,Texas,75032,United States,972-771-1500,32.89350128,-96.47007751,"Tu 10:00-18:00,We 10:00-18:00,Th 10:00-20:00,Fr 10:00-18:00,Sa 10:00-18:00",,,
BENCHMARK JEWELERS,92258,ARLINGTON MALL 3811 SOUTH COOPER STREET ,,ARLINGTON,Texas,76015,United States,-,32.680852,-97.128754,"Mo 10:00-21:00,Tu 10:00-21:00,We 10:00-21:00,Th 10:00-21:00,Fr 10:00-21:00,Sa 10:00-21:00,Su 12:00-18:00",,,
HALTOMS,92422,4001 ARLINGTON HIGHLANDS BLVD ,,ARLINGTON,Texas,76018,United States,817-468-3813,32.6796875,-97.13330078125,"Mo 10:00-17:30,Tu 10:00-17:30,We 10:00-17:30,Th 10:00-17:30,Fr 10:00-17:30,Sa 10:00-17:30",,,
JARED,92541,NORTHEAST PLAZA 133 PIPELINE RD. ,,HURST,Texas,76053,United States,817-284-5476,32.8233642578125,-97.17041015625,"Mo 10:00-21:00,Tu 10:00-21:00,We 10:00-21:00,Th 10:00-21:00,Fr 10:00-21:00,Sa 10:00-21:00,Su 12:00-17:00",,,
JARED,92608,VISTA RIDGE III 2425 S. STEMMONS ,,LEWISVILLE,Texas,75067,United States,972-459-6738,33.004150390625,-96.968994140625,"Mo 10:00-21:00,Tu 10:00-21:00,We 10:00-21:00,Th 10:00-21:00,Fr 10:00-21:00,Sa 10:00-21:00,Su 12:00-17:00",,,
BACHENDORF'S,92207,THE PLAZA AT PRESTON CENTER 84 PRESTON RD ,,DALLAS,Texas,75225,United States,214-692-8400,32.8646240234375,-96.8037109375,"Mo 10:00-18:00,Tu 10:00-18:00,We 10:00-18:00,Th 10:00-18:00,Fr 10:00-18:00,Sa 10:00-18:00",,,
BACHENDORF'S,92204,6019 BERKSHIRE STE 200 ,,DALLAS,Texas,75225,United States,214-692-9000,32.8028564453125,-96.769775390625,"Mo 10:00-18:00,Tu 10:00-18:00,We 10:00-18:00,Th 10:00-18:00,Fr 10:00-18:00,Sa 10:00-18:00",,,
TAG HEUER BOUTIQUE- DALLAS,92950,NORTH PARK CENTER 8687 N CENTRAL EXPY B1 38 ,,DALLAS,Texas,75225,United States,214-346-5381,32.869333,-96.773118,"Mo 10:00-21:00,Tu 10:00-21:00,We 10:00-21:00,Th 10:00-21:00,Fr 10:00-21:00,Sa 10:00-21:00,Su 12:00-18:00",,,
JARED,92471,BAYBROOK GATE SHOPPING CENTER 145 W. BAY AREA BLVD. ,,WEBSTER,Texas,77598,United States,281-557-2340,29.54168701171875,-95.138916015625,"Mo 10:00-21:00,Tu 10:00-21:00,We 10:00-21:00,Th 10:00-21:00,Fr 10:00-21:00,Sa 10:00-21:00,Su 12:00-17:00",,,
JARED,92598,LAKESIDE AT TOWN CENTER 161 KENSINGTON DR. ,,SUGAR LAND,Texas,77478,United States,281-240-6200,29.5989990234375,-95.625732421875,"Mo 10:00-21:00,Tu 10:00-21:00,We 10:00-21:00,Th 10:00-21:00,Fr 10:00-21:00,Sa 10:00-21:00,Su 12:00-17:00",,,
JARED,92506,DEERBROOK MALL 127 FM 196 BYPASS ,,HUMBLE,Texas,77338,United States,281-446-8708,29.998779296875,-95.261962890625,"Mo 10:00-21:00,Tu 10:00-21:00,We 10:00-21:00,Th 10:00-21:00,Fr 10:00-21:00,Sa 10:00-21:00,Su 12:00-17:00",,,
Heinemann Houston,668336,George Bush Intercontinental Airport Terminal D 28 N Terminal Rd ,,Houston,Texas,77032,United States,,29.99002876811887,-95.33592224121094,,,,
BEN BRIDGE,92238,MEMORIAL CITY MALL 78 MEMORIAL CITY MALL ,,HOUSTON,Texas,77024,United States,713-935-9499,29.782407,-95.543976,"Mo 10:00-21:00,Tu 10:00-21:00,We 10:00-21:00,Th 10:00-21:00,Fr 10:00-21:00,Sa 10:00-21:00,Su 12:00-18:00",,,
JARED,92527,9829 KATY FREEWAY ,,HOUSTON,Texas,77024,United States,713-647-0934,29.784269,-95.538644,"Mo 10:00-21:00,Tu 10:00-21:00,We 10:00-21:00,Th 10:00-21:00,Fr 10:00-21:00,Sa 10:00-21:00,Su 12:00-17:00",,,
KARAT 22 JEWELERS,668223,5623 Hillcroft Avenue ,,Houston,Texas,77036,United States,(713) 783-0808,29.721778,-95.500544,"Mo 11:00-19:00,We 11:00-19:00,Th 11:00-19:00,Fr 11:00-19:00,Sa 11:00-19:00,Su 12:00-18:30",,,
BEN BRIDGE,92235,"HOUSTON GALLERIA 5135 WEST ALABAMA, SUITE 713, PHASE IV ",,HOUSTON,Texas,77056,United States,713-960-1998,29.740681,-95.466557,"Mo 10:00-21:00,Tu 10:00-21:00,We 10:00-21:00,Th 10:00-21:00,Fr 10:00-21:00,Sa 10:00-21:00,Su 11:00-19:00",,,
Joia Fine Jewelry & Timepieces,92811,5015 WESTHEIMER ROAD #3165A ,,HOUSTON,Texas,77056,United States,(713) 961-5642,29.7405552,-95.4629509,"Mo 10:00-21:00,Tu 10:00-21:00,We 10:00-21:00,Th 10:00-21:00,Fr 10:00-21:00,Sa 10:00-21:00,Su 11:00-19:00",,,
TAG HEUER BOUTIQUE- HOUSTON,92952,HOUSTON GALLERIA 585 WESTHEIMER RD. B 2861 ,,HOUSTON,Texas,77056,United States,713 - 850-7051,29.740514,-95.462912,"Mo 10:00-21:00,Tu 10:00-21:00,We 10:00-21:00,Th 10:00-21:00,Fr 10:00-21:00,Sa 10:00-21:00,Su 11:00-19:00",,,
ERNESTO'S JEWELRY FACTORY,92359,"651 N BUSINESS I.H. 35, STE 240 ",,NEW BRAUNFELS,Texas,78130,United States,830-625-3203,29.69731712,-98.10210419,"Mo 10:00-19:00,Tu 10:00-19:00,We 10:00-19:00,Th 10:00-19:00,Fr 10:00-19:00,Sa 10:00-17:00",,,
MACY'S,92747,NORTH STAR MALL 2 NORTHSTAR MALL ,,SAN ANTONIO,Texas,78216,United States,210-340-4203,29.424072265625,-98.493408203125,"Mo 10:00-21:00,Tu 10:00-21:00,We 10:00-21:00,Th 10:00-22:00,Fr 10:00-22:00,Sa 09:00-22:00,Su 11:00-19:00",,,
JARED,92551,PEARLAND TOWN CENTER 11222 BROADWAY STREET ,,PEARLAND,Texas,77584,United States,713-340-1655,29.55548095703125,-95.393310546875,"Mo 10:00-21:00,Tu 10:00-21:00,We 10:00-21:00,Th 10:00-21:00,Fr 10:00-21:00,Sa 10:00-21:00,Su 12:00-17:00",,,
BEN BRIDGE,92236,LOS CERRITOS CENTER 35 LOS CERRITOS CENTER ,,LOS CERRITOS,California,90703,United States,562-402-0090,33.86279296875,-118.091796875,"Mo 10:00-21:00,Tu 10:00-21:00,We 10:00-21:00,Th 10:00-21:00,Fr 10:00-21:00,Sa 10:00-20:00,Su 11:00-19:00",,,
DEUTSCH & DEUTSCH,92348,3747 WESTHEIMER ROAD ,,HOUSTON,Texas,77027,United States,713 - 627-7787,29.741874,-95.440228,"Mo 10:00-18:00,Tu 10:00-18:00,We 10:00-18:00,Th 10:00-18:00,Fr 10:00-18:00,Sa 10:00-17:00",,,
JARED,92584,8152 AGORA PKWY. ,,LIVE OAK,Texas,78154,United States,210-945-0208,29.56683349609375,-98.3291015625,"Mo 10:00-21:00,Tu 10:00-21:00,We 10:00-21:00,Th 10:00-21:00,Fr 10:00-21:00,Sa 10:00-21:00,Su 12:00-17:00",,,
JARED,92621,WILLOWBROOK MALL 74 FM 196 W. ,,HOUSTON,Texas,77070,United States,281-807-0316,29.76288414,-95.38306427,"Mo 10:00-21:00,Tu 10:00-21:00,We 10:00-21:00,Th 10:00-21:00,Fr 10:00-21:00,Sa 10:00-21:00,Su 12:00-17:00",,,
JEWEL SHOP,92633,395 SANTA MONICA PLACE #132 ,,SANTA MONICA,California,90401,United States,310-451-1113,34.0076844,-118.49971010000002,"Mo 10:00-19:00,Tu 10:00-19:00,We 10:00-19:00,Th 10:00-19:00,Fr 10:00-19:00,Sa 10:00-20:00,Su 11:00-18:00",,,
BLOOMINGDALE'S,770687,315 COLORADO AVE ,,Santa Monica,California,90401,United States,(310) 985-6400,34.013821,-118.4928922,"Mo 10:00-20:30,Tu 10:00-22:00,We 10:00-22:00,Th 10:00-22:00,Fr 10:00-22:00,Sa 10:00-22:00,Su 11:00-22:00",,,
LEE MICHAELS FINE JEWELERS,92664,"NORTH STAR MALL 74 SAN PEDRO AVE., STE 174 ",,SAN ANTONIO,Texas,78216,United States,210-541-9575,29.51800537109375,-98.498779296875,"Mo 10:00-21:00,Tu 10:00-21:00,We 10:00-21:00,Th 10:00-21:00,Fr 10:00-21:00,Sa 10:00-21:00,Su 12:00-18:00",,,
ZADOK JEWELERS,100916,1749 POST OAK BLVD. ,,HOUSTON,Texas,77056,United States,713-960-8950,29.74887466,-95.46114349,"Mo 10:00-18:00,Tu 10:00-18:00,We 10:00-18:00,Th 10:00-20:00,Fr 10:00-18:00,Sa 10:00-18:00",,,
BEN BRIDGE,92231,DEL AMO 2154 HAWTHORNE BLVD #417B ,,TORRANCE,California,90503,United States,310-371-3328,33.872179,-118.352065,"Mo 10:00-21:00,Tu 10:00-21:00,We 10:00-21:00,Th 10:00-21:00,Fr 10:00-21:00,Sa 10:00-20:00,Su 11:00-19:00",,,
MACY'S,92760,SHERMAN OAKS FASHION PLACE 14 RIVERSIDE DRIVE ,,SHERMAN OAKS,California,91423,United States,818-788-8350,34.1510009765625,-118.44921875,"Mo 10:00-22:00,Tu 10:00-22:00,We 10:00-22:00,Th 10:00-22:00,Fr 10:00-22:00,Sa 09:00-22:00,Su 11:00-20:00",,,
LEE MICHAELS FINE JEWELERS,92660,"LA CANTERA 159 LA CANTERA PARKWAY, SUITE 337 ",,SAN ANTONIO,Texas,78256,United States,210 - 699-9494,29.59222412109375,-98.61376953125,"Mo 10:00-18:00,Tu 10:00-18:00,We 10:00-18:00,Th 10:00-20:00,Fr 10:00-20:00,Sa 10:00-19:00,Su 12:00-18:00",,,
CHONG HING JEWELERS,92333,18436 COLIMA ROAD SUITE A ,,ROWLAND HEIGHTS,California,91748,United States,(626) 810-8883,33.9863276,-118.0423428,"Mo 11:30-19:30,Tu 11:30-19:30,We 11:30-19:30,Th 11:30-19:30,Fr 11:30-19:30,Sa 11:30-19:30,Su 11:30-19:30",,,
Westime Rodeo,93028,216 N RODEO DRIVE ,,Beverly Hills,California,90210,United States,(310) 888-8880,34.06734085,-118.401123,"Mo 10:00-18:00,Tu 10:00-18:00,We 10:00-18:00,Th 10:00-18:00,Fr 10:00-18:00,Sa 10:00-18:00,Su 12:00-17:00",,,
HING WA LEE,92440,1635 S. DEL MAR AVE. ,,San Gabriel,California,91776,United States,(626) 280-3993,34.0785299,-118.1030133,"Mo 10:30-19:30,Tu 10:30-19:30,We 10:30-19:30,Th 10:30-19:30,Fr 10:30-19:30,Sa 10:30-20:00,Su 10:30-20:00",,,
JARED,92594,THE RIM 17327 INTERSTATE HWY. 1 W. ,,SAN ANTONIO,Texas,78257,United States,210-561-7280,29.424072265625,-98.493408203125,"Mo 10:00-21:00,Tu 10:00-21:00,We 10:00-21:00,Th 10:00-21:00,Fr 10:00-21:00,Sa 10:00-21:00,Su 12:00-17:00",,,
WESTIME,93029,8569 W. SUNSET BLVD. ,,W. HOLLYWOOD,California,90069,United States,(310) 888-8880,34.04012299,-118.4275055,"Mo 10:00-18:00,Tu 10:00-18:00,We 10:00-18:00,Th 10:00-18:00,Fr 10:00-18:00,Sa 10:00-18:00,Su 12:00-17:00",,,
BLOOMINGDALE'S,92297,SHERMAN OAKS FASHION PLACE 146 RIVERSIDE DRIVE DEPT. 93 ,,SHERMAN OAKS,California,91423,United States,818-325-2200,34.157470703125,-118.43994140625,"Mo 10:00-21:00,Tu 10:00-21:00,We 10:00-21:00,Th 10:00-21:00,Fr 10:00-21:00,Sa 10:00-20:00,Su 11:00-19:00",,,
BHINDI GLENDALE,92267,2213 GALLERIA WAY ,,Glendale,California,91210,United States,(818) 243-8755,34.1460971,-118.2595657,"Mo 11:00-20:00,Tu 11:00-20:00,We 11:00-20:00,Th 11:00-20:00,Fr 11:00-20:00,Sa 11:00-20:00,Su 12:00-16:00",,,
"DFS, LOS ANGELES INTERNATIONAL AIRPORT",854305,"Los Angeles International Airport, 380 World Way, Los Angeles, California 90045 ",,Los Angeles,California,90045,United States,+310 348 2799,33.9415889,-118.40853,,,,
MACY'S CENTURY CITY,776253,10250 SANTA MONICA BLVD. ,,los angeles,California,90067,United States,(310) 556-1611,34.0578472,-118.4179781,"Mo 10:00-21:00,Tu 10:00-21:00,We 10:00-21:00,Th 10:00-21:00,Fr 10:00-21:00,Sa 10:00-19:00,Su 12:00-18:00",,,
JEWELRY PAVILION,695343,750 W 7TH STREET ,,LOS ANGELES,California,90017,United States,213-627-4515,34.0479181,-118.2592503,"Mo 10:00-18:00,Tu 10:00-18:00,We 10:00-18:00,Th 10:00-18:00,Fr 10:00-18:00",,,
PARAGON WATCH COMPANY,92842,8500 BEVERLY BLVD. #674 ,,LOS ANGELES,California,90048,United States,(310) 659-5525,34.075339,-118.3774735,"Mo 10:00-21:00,Tu 10:00-21:00,We 10:00-21:00,Th 10:00-21:00,Fr 10:00-21:00,Sa 10:00-21:00,Su 10:00-21:00",,,
FELDMAR WATCH COMPANY,92367,9000 WEST PICO BLVD ,,LOS ANGELES,California,90035,United States,310-274-8016,34.055007,-118.3882471,"Mo 09:00-18:00,Tu 09:00-18:00,We 09:00-18:00,Th 09:00-18:00,Fr 09:00-18:00,Sa 09:00-17:00",,,
BLOOMINGDALE'S,92287,"CENTURY CITY MALL 125 SANTA MONICA BLVD., DEPT. 93 ",,LOS ANGELES,California,90067,United States,310-772-7113,34.0555419921875,-118.416748046875,"Mo 10:00-21:00,Tu 10:00-21:00,We 10:00-21:00,Th 10:00-21:00,Fr 10:00-21:00,Sa 10:00-21:00,Su 11:00-19:00",,,
LESLIE GOLD JEWELERS,92672,607 SOUTH HILL STREET SUITE #8 ,,LOS ANGELES,California,90014,United States,(213) 626-3253,34.0472426,-118.2542452,"Mo 09:00-16:30,Tu 09:00-16:30,We 09:00-16:30,Th 09:00-16:30,Fr 09:00-16:30,Sa 10:00-13:00",,,
MILANO BIJOU,92809,KOREA TOWN PLAZA 928 S. WESTERN AVE ,,LOS ANGELES,California,90006,United States,213.382.1700,34.0551389,-118.3095592,"Mo 10:00-20:00,Tu 10:00-20:00,We 10:00-20:00,Th 10:00-20:00,Fr 10:00-20:00,Sa 10:00-20:00,Su 11:00-19:00",,,
BEN BRIDGE,92224,DOWNTOWN SEATTLE 1432 4TH AVENUE ,,SEATTLE,Washington,98101,United States,206-628-6800,47.6102294921875,-122.336181640625,"Mo 10:00-18:30,Tu 10:00-18:30,We 10:00-18:30,Th 10:00-18:30,Fr 10:00-18:30,Sa 10:00-18:30,Su 12:00-17:00",,,
B.C. CLARK,92202,NORTHPARK MALL 1242 NORTH MAY AVE. ,,OKLAHOMA CITY,Oklahoma,73120,United States,405-755-4040,35.5921630859375,-97.567138671875,"Mo 09:30-17:30,Tu 09:30-17:30,We 09:30-17:30,Th 09:30-17:30,Fr 09:30-17:30,Sa 09:30-17:30",,,
JARED,92508,1071 W. SUNSET RD. ,,HENDERSON,Nevada,89014,United States,702-898-7392,36.06787109375,-114.99365234375,"Mo 10:00-21:00,Tu 10:00-21:00,We 10:00-21:00,Th 10:00-21:00,Fr 10:00-21:00,Sa 10:00-21:00,Su 12:00-17:00",,,
BEN BRIDGE,92232,GALLERIA AT SUNSENT 13 W SUNSET RD SPACE 1261 ,,HENDERSON,Nevada,89014,United States,702-456-8807,36.06396484375,-115.038818359375,"Mo 10:00-21:00,Tu 10:00-21:00,We 10:00-21:00,Th 10:00-21:00,Fr 10:00-21:00,Sa 10:00-21:00,Su 11:00-18:00",,,
BEN BRIDGE,92246,100 TACOMA BLVD ,,Tacoma,Washington,98409,United States,(253) 473-1227,47.216726,-122.467368,"Mo 10:00-19:00,Tu 10:00-19:00,We 10:00-19:00,Th 10:00-19:00,Fr 10:00-19:00,Sa 10:00-19:00,Su 12:00-18:00",,,
Dufry Las Vegas,668337,Las Vegas International Airport Terminal 3 5757 Wayne Newton Blvd ,,Las Vegas,Nevada,89119,United States,,36.08406638291679,-115.1535415649414,,,,
JARED,92475,2110 N. RAINBOW STE. 110 ,,LAS VEGAS,Nevada,89108,United States,702-647-6722,36.197998046875,-115.2412109375,"Mo 10:00-21:00,Tu 10:00-21:00,We 10:00-21:00,Th 10:00-21:00,Fr 10:00-21:00,Sa 10:00-21:00,Su 12:00-17:00",,,
DFASS,579666,Denver International Airport 85 Pena Blvd ,,"Denver, CO",Colorado,80249,United States,,39.857837069406074,-104.67361450195312,,,,
MACY'S,92756,ROCKINGHAM MALL 99 ROCKINGHAM PARK BLVD. ,,SALEM,New Hampshire,03079,United States,603-890-5000,42.768092,-71.225352,"Mo 10:00-21:30,Tu 10:00-21:30,We 10:00-21:30,Th 10:00-21:30,Fr 10:00-21:30,Sa 09:00-22:00,Su 11:00-19:00",,,
BEN BRIDGE,92228,FLATIRON CROSSING #1 WEST FLATIRON CR SPACE 225 ,,BROOMFIELD,Colorado,80021,United States,(720) 887-1131,39.933154,-105.132444,"Mo 10:00-21:00,Tu 10:00-21:00,We 10:00-21:00,Th 10:00-21:00,Fr 10:00-21:00,Sa 10:00-21:00,Su 11:00-18:00",,,
HURDLES JEWELRY,92445,1402 PEARL STREET ,,BOULDER,Colorado,80302,United States,303-443-1084,40.018396,-105.277136,"Mo 10:00-17:30,Tu 10:00-17:30,We 10:00-17:30,Th 10:00-17:30,Fr 10:00-17:30,Sa 10:00-17:30",,,
MATI,92792,COTTONWOOD MALL 1 COORS BYPASS #E-11 ,,ALBUQUERQUE,New Mexico,87114,United States,505-792-1000,35.1971511,-106.6915039,"Mo 10:00-21:00,Tu 10:00-21:00,We 10:00-21:00,Th 10:00-21:00,Fr 10:00-21:00,Sa 10:00-21:00,Su 11:00-18:00",,,
JARED,92491,8854 SE SUNNYSIDE ROAD ,,CLACKAMAS,Oregon,97015,United States,503-659-1083,45.4328983,-122.5724458,"Mo 10:00-21:00,Tu 10:00-21:00,We 10:00-21:00,Th 10:00-21:00,Fr 10:00-21:00,Sa 10:00-21:00,Su 12:00-18:00",,,
TAG HEUER OUTLET- LAS VEGAS,92961,LAS VEGAS PREMIUM OUTLETS 65 S. GRAND CENTRAL PARKWAY STE 1238 ,,LAS VEGAS,Nevada,89106,United States,702-366-1898,36.11464691,-115.1728134,"Mo 10:00-21:00,Tu 10:00-21:00,We 10:00-21:00,Th 10:00-21:00,Fr 10:00-21:00,Sa 10:00-21:00,Su 10:00-20:00",,,
JARED,92579,19200 NW CORNELL RD ,,HILLSBORO,Oregon,97124,United States,503-645-0702,45.5086781,-122.8349272,"Mo 10:00-21:00,Tu 10:00-21:00,We 10:00-21:00,Th 10:00-21:00,Fr 10:00-21:00,Sa 10:00-21:00,Su 12:00-18:00",,,
FRED MEYER,92391,9567 S.W. WASHINGTON SQUARE RD ,,TIGARD,Oregon,97223,United States,(503) 443-3763,45.43978119,-122.7518234,"Mo 10:00-21:00,Tu 10:00-21:00,We 10:00-21:00,Th 10:00-21:00,Fr 10:00-21:00,Sa 10:00-21:00,Su 10:00-19:00",,,
BEN BRIDGE,92253,9518 SW WASHINGTON SQ RD ,,PORTLAND,Oregon,97223,United States,503-620-8452,45.4508056640625,-122.783203125,"Mo 10:00-21:00,Tu 10:00-21:00,We 10:00-21:00,Th 10:00-21:00,Fr 10:00-21:00,Sa 10:00-21:00,Su 10:00-19:00",,,
ORLOFF JEWELERS,105961,"770 W. SHAW AVE, #101 ",,FRESNO,California,93704,United States,(559) 221-6622,36.8088645,-119.8078991,"Mo 10:00-19:00,Tu 10:00-19:00,We 10:00-19:00,Th 10:00-19:00,Fr 10:00-19:00,Sa 10:00-19:00",,,
ORLOFF JEWELERS,99976,770 W. SHAW AVENUE #101 ,,FRESNO,California,93704,United States,559-221-6622,36.8084593,-119.80579940000001,"Mo 10:00-19:00,Tu 10:00-19:00,We 10:00-19:00,Th 10:00-19:00,Fr 10:00-19:00,Sa 10:00-19:00",,,
SMYTH JEWELERS,92184,1910 TOWNE CENTER ,,ANNAPOLIS,Maryland,21401,United States,443-321-0300,38.9803471,-76.5404073,"Mo 10:00-18:00,Tu 10:00-18:00,We 10:00-18:00,Th 10:00-20:00,Fr 10:00-18:00,Sa 10:00-18:00,Su 12:00-17:00",,,
FRED MEYER,690813,3800 S.E. 22ND AVE ,,PORTLAND,Oregon,97202,United States,503 -  797-5569,45.4952604,-122.642221,,,,
FRED MEYER,854295,P O BOX 42500 ,,PORTLAND,Oregon,97242,United States,,45.5,-122.65,,,,
BEN BRIDGE,92223,801 SW FIFTH AVENUE ,,PORTLAND,Oregon,97204,United States,503-295-2800,45.518301,-122.678061,"Mo 10:00-18:00,Tu 10:00-18:00,We 10:00-18:00,Th 10:00-18:00,Fr 10:00-18:00,Sa 10:00-18:00,Su 12:00-17:00",,,
MATI,92791,2240 Q STREET NE F 1F ,,ALBUQUERQUE,New Mexico,87110,United States,(505) 883-8078,35.1028979,-106.5691187,"Mo 10:00-21:00,Tu 10:00-21:00,We 10:00-21:00,Th 10:00-21:00,Fr 10:00-21:00,Sa 10:00-21:00,Su 10:00-18:00",,,
JARED,92479,5955 E. BROADWAY BLVD. ,,TUCSON,Arizona,85711,United States,520-514-9800,32.2216568,-110.8655319,"Mo 10:00-21:00,Tu 10:00-21:00,We 10:00-21:00,Th 10:00-21:00,Fr 10:00-21:00,Sa 10:00-21:00,Su 10:00-17:00",,,
JARED,92615,180 JENNIFER ROAD ,,ANNAPOLIS,Maryland,21401,United States,410-573-0160,38.9878141,-76.5440561,"Mo 10:00-21:00,Tu 10:00-21:00,We 10:00-21:00,Th 10:00-21:00,Fr 10:00-21:00,Sa 10:00-21:00,Su 10:00-18:00",,,
JARED,92544,4240 N. ORACLE RD. ,,TUCSON,Arizona,85705,United States,520-292-6265,32.283935546875,-110.97802734375,"Mo 10:00-21:00,Tu 10:00-21:00,We 10:00-21:00,Th 10:00-21:00,Fr 10:00-21:00,Sa 10:00-21:00,Su 12:00-17:00",,,
LILJENQUIST & BECKSTEAD,92677,ANNAPOLIS MALL 166 ANNAPOLIS MALL ,,ANNAPOLIS,Maryland,21401,United States,410-224-4787,38.990104,-76.545064,"Mo 10:00-21:00,Tu 10:00-21:00,We 10:00-21:00,Th 10:00-21:00,Fr 10:00-21:00,Sa 10:00-21:00,Su 11:00-19:00",,,
BEN BRIDGE,92222,CLACKAMAS TOWN CENTER 12 SE 82ND SUITE 233 ,,PORTLAND,Oregon,97086,United States,503-653-7797,45.436767578125,-122.575927734375,"Mo 10:00-21:00,Tu 10:00-21:00,We 10:00-21:00,Th 10:00-21:00,Fr 10:00-21:00,Sa 10:00-21:00,Su 11:00-18:00",,,
LITTMAN JEWELERS,92698,THE MALL IN COLUMBIA 13 LITTLE PATUXENT PARKWAY ,,COLUMBIA,Maryland,21044,United States,410-997-6494,39.217609,-76.863527,"Mo 10:00-21:00,Tu 10:00-21:00,We 10:00-21:00,Th 10:00-21:00,Fr 10:00-21:00,Sa 10:00-21:00,Su 12:00-18:00",,,
SMYTH JEWELERS,92185,2020 YORK ROAD ,,TIMONIUM,Maryland,21093,United States,410-252-6666,39.4372041,-76.6263313,"Mo 10:00-18:00,Tu 10:00-18:00,We 10:00-18:00,Th 10:00-20:00,Fr 10:00-18:00,Sa 10:00-18:00",,,
RADCLIFFE JEWELERS,92854,1848 REISTERSTOWN ROAD ,,BALTIMORE,Maryland,21208,United States,410-494-2900,39.3890380859375,-76.739501953125,"Mo 10:00-18:00,Tu 10:00-18:00,We 10:00-18:00,Th 10:00-18:00,Fr 10:00-18:00,Sa 10:00-17:00",,,
JARED,92470,9333 HONEYGO BLVD ,,BALTIMORE,Maryland,21236,United States,410-931-5380,39.37255859375,-76.470703125,"Mo 10:00-21:00,Tu 10:00-21:00,We 10:00-21:00,Th 10:00-21:00,Fr 10:00-21:00,Sa 10:00-21:00,Su 12:00-18:00",,,
J BROWN,92450,1802 REISTERSTOWN ROAD ,,PIKESVILLE,Maryland,21208,United States,410-484-3388,39.3843994140625,-76.73046875,"Mo 09:30-17:00,Tu 09:30-17:00,We 09:30-17:00,Th 09:00-19:00,Fr 09:30-17:00,Sa 10:00-17:00",,,
RADCLIFFE JEWELERS,92855,"825 DULANEY VALLEY RD., SUITE 208 ",,TOWSON,Maryland,21204,United States,410-321-6590,39.40293884,-76.60171509,"Mo 10:00-20:00,Tu 10:00-20:00,We 10:00-20:00,Th 10:00-20:00,Fr 10:00-20:00,Sa 10:00-20:00",,,
JARED,92459,2260 LOUISIANA BLVD. N.E. STE. 1A ,,ALBUQUERQUE,New Mexico,87110,United States,505-830-3075,35.1042471,-106.5706403,"Mo 10:00-21:00,Tu 10:00-21:00,We 10:00-21:00,Th 10:00-21:00,Fr 10:00-21:00,Sa 10:00-21:00,Su 12:00-17:00",,,
DAVIS JEWELERS,767124,9901 FOREST GREEN BLVD ,,LOUISVILLE,Kentucky,40223,United States,(502) 212-0421,38.2629254,-85.5756546,"Mo 10:00-18:00,Tu 10:00-18:00,We 10:00-19:00,Th 10:00-19:00,Fr 10:00-19:00,Sa 10:00-17:00",,,
GENESIS DIAMONDS,92405,SHELBIVLLE CENTER 46 SHELBIVILLE RD ,,LOUISVILLE,Kentucky,40207,United States,502 - 891-0424,38.2492884,-85.631307,"Mo 10:00-19:00,Tu 10:00-19:00,We 10:00-19:00,Th 10:00-19:00,Fr 10:00-19:00,Sa 10:00-17:00",,,
SMYTH JEWELERS,767244,11089 Resort Rd 200 ,,Ellicott City,Maryland,21042,United States,(410) 461-4044,39.2992892,-76.8967923,"Mo 10:00-18:00,Tu 10:00-18:00,We 10:00-18:00,Th 10:00-21:00,Fr 10:00-18:00,Sa 10:00-18:00,Su 12:00-18:00",,,
TREIBER & STRAUB JEWELERS,93017,14740 W. CAPITOL DRIVE ,,BROOKFIELD,Wisconsin,53005,United States,262-790-5757,43.09046173,-88.15623474,"Mo 10:00-18:00,Tu 10:00-18:00,We 10:00-18:00,Th 10:00-18:00,Fr 10:00-18:00,Sa 10:00-16:00",,,
MACY'S,92741,2500 N. MAYFAIR ROAD DEPT. 921 ,,WAUWATOSA,Wisconsin,53226,United States,414-471-3795,43.06394958,-88.04437256,"Mo 10:00-21:00,Tu 10:00-21:00,We 10:00-21:00,Th 10:00-21:00,Fr 10:00-21:00,Sa 09:00-22:00,Su 11:00-19:00",,,
LITTMAN JEWELERS,92699,8200 PERRY HALL BLVD ,,BALTIMORE,Maryland,21236,United States,410-931-7225,39.3751021,-76.4674078,"Mo 10:00-21:00,Tu 10:00-21:00,We 10:00-21:00,Th 10:00-21:00,Fr 10:00-21:00,Sa 10:00-21:00,Su 12:00-18:00",,,
SCHWANKE KASTEN JEWELERS,92929,417 E SILVER SPRING DRIVE ,,MILWAUKEE,Wisconsin,53217,United States,414 - 964-1242,43.078262,-87.9319437,"Mo 10:00-17:30,Tu 10:00-17:30,We 10:00-17:30,Th 10:00-17:30,Fr 10:00-17:30,Sa 10:00-16:00",,,
JARED,92466,7684 ARUNDEL MILLS BLVD. ,,HANOVER,Maryland,21076,United States,410-579-8595,39.15311813,-76.72982025,"Mo 10:00-21:00,Tu 10:00-21:00,We 10:00-21:00,Th 10:00-21:00,Fr 10:00-21:00,Sa 10:00-21:00,Su 12:00-18:00",,,
THE JEWELERS,92974,8502 W. LAKE MEAD BLVD ,,LAS VEGAS,Nevada,89128,United States,702-242-2000,36.15924835,-115.2189026,"Mo 10:00-18:00,Tu 10:00-18:00,We 10:00-18:00,Th 10:00-18:00,Fr 10:00-18:00,Sa 10:00-18:00",,,
Bezel,813453,Hard Rock Hotel and Casino 4455 Paradise Rd. ,,Las Vegas,Nevada,89169,United States,(702) 483-4883,36.1088139,-115.1538088,"Mo 10:00-23:00,Tu 10:00-23:00,We 10:00-23:00,Th 10:00-23:00,Fr 10:00-00:00,Sa 10:00-00:00,Su 10:00-23:00",,,
JARED,92590,THE POINT AT BRIDGEPORT 7162 SW HAZELFERN RD. ,,TIGARD,Oregon,97224,United States,503-598-7431,45.4081316,-122.80338449999999,"Mo 10:00-21:00,Tu 10:00-21:00,We 10:00-21:00,Th 10:00-21:00,Fr 10:00-21:00,Sa 10:00-21:00,Su 12:00-18:00",,,
TOURNEAU,93006,"THE FORUM SHOPS 35 LAS VEGAS BLVD,#F-7 ",,LAS VEGAS,Nevada,89109,United States,702-732-8463,36.114646,-115.172816,"Mo 10:00-23:00,Tu 10:00-23:00,We 10:00-23:00,Th 10:00-23:00,Fr 10:00-00:00,Sa 10:00-00:00,Su 10:00-23:00",,,
THE JEWELERS,92975,MANDALAY PLACE MALL 393 LAS VEGAS BLVD SOUTH ,,LAS VEGAS,Nevada,89119,United States,702-798-1790,36.11464691,-115.1728134,"Mo 10:00-23:00,Tu 10:00-23:00,We 10:00-23:00,Th 10:00-23:00,Fr 10:00-23:59,Sa 10:00-23:59,Su 10:00-23:00",,,
MOYER FINE JEWELERS,92821,14727 THATCHER LANE ,,CARMEL,Indiana,46032,United States,317-844-9003,38.2562561,-85.75332642,"Mo 10:00-19:00,Tu 10:00-19:00,We 10:00-19:00,Th 10:00-19:00,Fr 10:00-19:00,Sa 10:00-17:00",,,
HOROLOGIO TIMEPIECES,92443,"3377 LAS VEGAS BLVD., #2265 ",,LAS VEGAS,Nevada,89109,United States,702-733-0016,36.1212873,-115.171639,"Mo 10:00-23:00,Tu 10:00-23:00,We 10:00-23:00,Th 10:00-23:00,Fr 10:00-23:59,Sa 10:00-23:59,Su 10:00-23:00",,,
CA'D'ORO JEWELERS,107958,3325 LAS VEGAS BLVD SO. SUITE 152 - CASINO LEVEL ,,LAS VEGAS,Nevada,89109,United States,(702) 650-0225,36.1239405,-115.1695192,"Mo 10:00-23:00,Tu 10:00-23:00,We 10:00-23:00,Th 10:00-23:00,Fr 10:00-00:00,Sa 10:00-00:00,Su 10:00-23:00",,,
BEN BRIDGE,92226,FASHION SHOW MALL 32 LAS VEGAS BLVD SOUTH STE 27 ,,LAS VEGAS,Nevada,89109,United States,702-733-0003,36.1279296875,-115.16796875,"Mo 10:00-21:00,Tu 10:00-21:00,We 10:00-21:00,Th 10:00-21:00,Fr 10:00-21:00,Sa 10:00-21:00,Su 11:00-19:00",,,
MACY'S,92751,OXMORE CENTER 79 SHELBYVILLE RD ,,LOUISVILLE,Kentucky,40222,United States,502-423-3000,38.2525634765625,-85.75830078125,"Mo 10:00-21:00,Tu 10:00-21:00,We 10:00-21:00,Th 10:00-22:00,Fr 10:00-22:00,Sa 09:00-22:00,Su 11:00-19:00",,,
TAG HEUER BOUTIQUE- LAS VEGAS,92954,CRYSTAL AT CITY CENTER 372 S. LAS VEGAS BLVD ,,LAS VEGAS,Nevada,89109,United States,702 - 380-2820,36.108947,-115.17324,"Mo 10:00-23:00,Tu 10:00-23:00,We 10:00-23:00,Th 10:00-23:00,Fr 10:00-23:59,Sa 10:00-23:59,Su 10:00-23:00",,,
B.C. CLARK,92203,PENN SQUARE MALL 191 NW EXPRESSWAY #12 ,,OKLAHOMA CITY,Oklahoma,73118,United States,405-840-1441,35.5247802734375,-97.543701171875,"Mo 10:00-17:30,Tu 10:00-17:30,We 10:00-17:30,Th 10:00-17:30,Fr 10:00-17:30,Sa 10:00-17:30",,,
MACY'S,92728,FASHION SHOW MALL 32 LAS VEGAS BLVD. SOUTH ,,LAS VEGAS,Nevada,89109,United States,702-731-5111,36.1275236,-115.17150029999999,"Mo 10:00-21:00,Tu 10:00-21:00,We 10:00-21:00,Th 10:00-21:00,Fr 10:00-21:00,Sa 09:00-22:00,Su 11:00-19:00",,,
GROGAN JEWELERS,776250,1800 Galleria Blvd ,,Franklin,Tennessee,37067,United States,(615) 716-8626,35.9066,-86.7663,"Mo 10:00-21:00,Tu 10:00-21:00,We 10:00-21:00,Th 10:00-21:00,Fr 10:00-21:00,Sa 10:00-21:00,Su 12:00-18:00",,,
JARED,92597,THOROUGHBRED VILLAGE 549 COOL SPRINGS BLVD. ,,FRANKLIN,Tennessee,37067,United States,615-771-3922,35.949138,-86.8206056,"Mo 10:00-21:00,Tu 10:00-21:00,We 10:00-21:00,Th 10:00-21:00,Fr 10:00-21:00,Sa 10:00-21:00,Su 12:00-17:00",,,
BARMAKIAN JEWELERS,92211,300 DANIEL WEBSTER HWY ,,NASHUA,New Hampshire,03060,United States,603-888--7800,42.703947,-71.440852,"Tu 10:00-18:00,We 10:00-18:00,Th 10:00-20:00,Fr 10:00-20:00,Sa 10:00-17:00,Su 12:00-17:00",,,
HANNOUSH,92436,PHEASANT LANE MALL 31 DANIEL WEBSTER HIGHWAY ,,NASHUA,New Hampshire,3060,United States,603-888-4170,42.7016385,-71.4376215,"Mo 10:00-21:00,Tu 10:00-21:00,We 10:00-21:00,Th 10:00-21:00,Fr 10:00-21:00,Sa 10:00-21:00,Su 11:00-18:00",,,
Tourneau Time Dome Caesars,144541,"The Forum Shops At Caesars, , 3500 Las Vegas Blvd S, F-07, Nv ",,Las Vegas,Nevada,89109,United States,+1 702-732- 8463,36.1285609999999,-115.1711298,,,,
MGMMIRAGE,92980,3400 LAS VEGAS BLVD SOUTH ,,LAS VEGAS,Nevada,89109,United States,702-792-7772,36.11464691,-115.1728134,"Mo 09:00-22:00,Tu 09:00-22:00,We 09:00-22:00,Th 09:00-22:00,Fr 09:00-22:00,Sa 09:00-22:00,Su 09:00-22:00",,,
ROYAL JEWELERS,92919,58 MAIN STREET ,,ANDOVER,Massachusetts,01810,United States,978-475-3330,42.6556506,-71.1419814,"Th 10:00-19:00,Fr 10:00-17:30,Sa 10:00-17:00",,,
BARMAKIAN JEWELERS,92210,"496 COCHITUATE ROAD, RT 30 ",,FRAMINGHAM,Massachusetts,01701,United States,508-872-5454,42.307276,-71.416626,"Tu 10:00-18:00,We 10:00-18:00,Th 10:00-20:00,Fr 10:00-20:00,Sa 10:00-17:00",,,
B.C. CLARK,92201,101 PARK AVE ,,OKLAHOMA CITY,Oklahoma,73102,United States,405-232-8806,35.468994140625,-97.5146484375,"Mo 09:30-17:30,Tu 09:30-17:30,We 09:30-17:30,Th 09:30-17:30,Fr 09:30-17:30,Sa 09:30-17:30",,,
JARED,92582,THE AVENUE 2645 MEDICAL CENTER PARKWAY ,,MURFREESBORO,Tennessee,37129,United States,615-893-5523,35.8611214,-86.4462128,"Mo 10:00-21:00,Tu 10:00-21:00,We 10:00-21:00,Th 10:00-21:00,Fr 10:00-21:00,Sa 10:00-21:00,Su 12:00-17:00",,,
JARED THE GALLERIA OF JEWELRY,770688,404 LEGACY PLACE ,,DEDHAM,Massachusetts,02026,United States,(781) 320-8312,42.2316089,-71.1816517,"Mo 10:00-21:00,Tu 10:00-21:00,We 10:00-21:00,Th 10:00-21:00,Fr 10:00-21:00,Sa 10:00-21:00,Su 10:00-17:00",,,
JARED,92562,914 RIVERGATE PKWY. ,,GOODLETTSVILLE,Tennessee,37072,United States,615-855-2200,36.2991879,-86.6999612,"Mo 10:00-21:00,Tu 10:00-21:00,We 10:00-21:00,Th 10:00-21:00,Fr 10:00-21:00,Sa 10:00-21:00,Su 12:00-17:00",,,
KINGS,92650,4121 HILLSBORO ROAD ,,NASHVILLE,Tennessee,37215,United States,615-724-5464,36.1041689,-86.838661,"Mo 10:00-18:00,Tu 10:00-18:00,We 10:00-18:00,Th 10:00-18:00,Fr 10:00-18:00,Sa 10:00-17:00",,,
TOODIE'S FINE JEWELRY,92988,1163 HANCOCK ST. ,,QUINCY,Massachusetts,02169,United States,617-479-9464,42.25314713,-71.00485229,"Mo 10:00-18:00,Tu 10:00-18:00,We 10:00-18:00,Th 10:00-18:00,Fr 10:00-18:00,Sa 10:00-17:00",,,
SIDNEY THOMAS,92916,THE MALL AT CHESTNUT HILL 199 BOYLSTON ST. ,,CHESTNUT HILL,Massachusetts,2467,United States,617-965-5300,42.330552,-71.124609,"Mo 10:00-21:00,Tu 10:00-21:00,We 10:00-21:00,Th 10:00-21:00,Fr 10:00-21:00,Sa 10:00-20:00,Su 12:00-18:00",,,
HANNOUSH,92428,SOLOMON POND MALL 61 DONALD LYNCH BLVD ,,MARLBOROUGH,Massachusetts,1752,United States,508-624-9994,42.355135,-71.613182,"Mo 10:00-21:00,Tu 10:00-21:00,We 10:00-21:00,Th 10:00-21:00,Fr 10:00-21:00,Sa 10:00-21:00,Su 11:00-18:00",,,
"LUX, BOND & GREEN",92713,416 BOYLSTON STREET ,,BOSTON,Massachusetts,02116,United States,617-266-4747,42.35128784,-71.07247162,"Mo 10:00-18:00,Tu 10:00-18:00,We 10:00-18:00,Th 10:00-19:00,Fr 10:00-18:00,Sa 10:00-17:00",,,
SIDNEY THOMAS- SHOPS AT PRUDENTIAL,92913,800 BOYLSTON ST SUITE 135 ,,BOSTON,Massachusetts,2199,United States,(617) 262-0935,42.34847455,-71.08258367,"Mo 10:00-21:00,Tu 10:00-21:00,We 10:00-21:00,Th 10:00-21:00,Fr 10:00-21:00,Sa 10:00-21:00,Su 10:00-18:00",,,
LONG'S,92702,100 SUMMER STREET ,,BOSTON,Massachusetts,02210,United States,617-426-8500,42.35350037,-71.05776978,"Mo 09:30-18:00,Tu 09:30-18:00,We 09:30-18:00,Th 09:30-18:00,Fr 09:30-18:00,Sa 10:00-17:00",,,
LONG'S,92704,35 CROSS STREET ,,PEABODY,Massachusetts,01960,United States,978-531-6900,42.54396057,-70.94548798,"Mo 10:00-19:00,Tu 10:00-19:00,We 10:00-19:00,Th 10:00-20:00,Fr 10:00-20:00,Sa 10:00-18:00,Su 12:00-17:00",,,
BEN BRIDGE,92241,PARK MEADOWS CENTER 855 PARK MEADOWS CTR DRIVE STE 276 ,,LITTLETON,Colorado,80124,United States,303-706-1814,39.5596923828125,-104.872802734375,"Mo 10:00-21:00,Tu 10:00-21:00,We 10:00-21:00,Th 10:00-21:00,Fr 10:00-21:00,Sa 10:00-21:00,Su 11:00-18:00",,,
TOURNEAU,92991,BURLINGTON MALL 75 MIDDLESEX TURNPIKE SPACE 125 ,,BURLINGTON,Massachusetts,01803,United States,781-272-8463,42.48259,-71.21428,"Mo 10:00-21:00,Tu 10:00-21:00,We 10:00-21:00,Th 10:00-21:00,Fr 10:00-21:00,Sa 10:00-21:00,Su 11:00-18:00",,,
LONG'S,92703,60 A SOUTH STREET ,,BURLINGTON,Massachusetts,01803,United States,781-272-5400,42.48347473,-71.21999359,"Mo 10:00-19:00,Tu 10:00-19:00,We 10:00-19:00,Th 10:00-20:00,Fr 10:00-20:00,Sa 10:00-18:00,Su 12:00-17:00",,,
LONG'S,92705,SOUTH SHORE PLAZA 25 GRANITE STREET ,,BRAINTREE,Massachusetts,02184,United States,781-356-5300,42.2217262,-71.0242455,"Mo 10:00-21:00,Tu 10:00-21:00,We 10:00-21:00,Th 10:00-21:00,Fr 10:00-21:00,Sa 10:00-21:00,Su 11:00-18:00",,,
JARED,92618,9210 SHERIDAN BLVD. ,,WESTMINSTER,Colorado,80031,United States,303-426-4405,39.863964,-105.052324,"Mo 10:00-21:00,Tu 10:00-21:00,We 10:00-21:00,Th 10:00-21:00,Fr 10:00-21:00,Sa 10:00-21:00,Su 12:00-17:00",,,
JARED,92468,235 S. ABILENE ST. ,,AURORA,Colorado,80012,United States,303-364-0800,39.712684,-104.824526,"Mo 10:00-21:00,Tu 10:00-21:00,We 10:00-21:00,Th 10:00-21:00,Fr 10:00-21:00,Sa 10:00-21:00,Su 12:00-17:00",,,
JARED,92486,9535 E. COUNTY LINE RD. ,,ENGLEWOOD,Colorado,80112,United States,303-799-4739,39.566446,-104.876904,"Mo 10:00-21:00,Tu 10:00-21:00,We 10:00-21:00,Th 10:00-21:00,Fr 10:00-21:00,Sa 10:00-21:00,Su 12:00-17:00",,,
WILLIAMS JEWELERS,93035,5106 S. BROADWAY ,,ENGLEWOOD,Colorado,80110,United States,303-761-9700,39.623474,-104.987862,"Mo 10:00-18:00,Tu 10:00-18:00,We 10:00-18:00,Th 10:00-18:00,Fr 10:00-18:00,Sa 10:00-17:00",,,
JARED,92516,GOLD CREEK PLAZA II 2925 196TH ST. SW ,,LYNNWOOD,Washington,98036,United States,425-774-6933,47.821349,-122.2733424,"Mo 10:00-21:00,Tu 10:00-21:00,We 10:00-21:00,Th 10:00-21:00,Fr 10:00-21:00,Sa 10:00-21:00,Su 12:00-18:00",,,
TOURNEAU,92993,COPLEY PLACE 1 HUNTINGTON AVE SPACE D 13 ,,BOSTON,Massachusetts,2116,United States,617-267-8463,42.347872,-71.078668,"Mo 10:00-20:00,Tu 10:00-20:00,We 10:00-20:00,Th 10:00-20:00,Fr 10:00-20:00,Sa 10:00-20:00,Su 12:00-18:00",,,
MATHEU'S FINE WATCHES & JEWELRY,92790,9315 DORCHESTER ST ,,Highlands Ranch,Colorado,80129,United States,303-471-8463,39.5467381,-105.0006755,"Tu 10:00-18:00,We 10:00-18:00,Th 10:00-18:00,Fr 10:00-18:00,Sa 10:00-17:00",,,
DUFRY,579667,Seattle International Airport CA - 09 1781 International Blvd ,,"Seattle, WA",Washington,98158,United States,201.528.2559,47.44123751138045,-122.30006217956543,,,,
JARED,92497,COLORADO MILLS 14145 W. COLFAX AVE. ,,LAKEWOOD,Colorado,80401,United States,720-497-0400,39.73636627,-105.1580048,"Mo 10:00-21:00,Tu 10:00-21:00,We 10:00-21:00,Th 10:00-21:00,Fr 10:00-21:00,Sa 10:00-21:00,Su 12:00-17:00",,,
JARED,92533,LINCOLN PLAZA SHOPPING CENTER 251 SOUTH 38TH ST. #C1 ,,TACOMA,Washington,98409,United States,253-472-2279,47.26100159,-122.3982468,"Mo 10:00-21:00,Tu 10:00-21:00,We 10:00-21:00,Th 10:00-21:00,Fr 10:00-21:00,Sa 10:00-21:00,Su 12:00-18:00",,,
BEN BRIDGE,92216,ALDERWOOD MALL 3 184TH STREET SW SUITE 32 ,,LYNNWOOD,Washington,98037,United States,425-771-7227,47.830078125,-122.2724609375,"Mo 10:00-21:00,Tu 10:00-21:00,We 10:00-21:00,Th 10:00-21:00,Fr 10:00-21:00,Sa 10:00-21:00,Su 11:00-19:00",,,
WILLIAMS JEWELERS,93034,2825 EAST THIRD AVENUE ,,DENVER,Colorado,80206,United States,303-355-4322,39.72100449,-104.9537964,"Mo 10:00-18:00,Tu 10:00-18:00,We 10:00-18:00,Th 10:00-18:00,Fr 10:00-18:00,Sa 10:00-17:30",,,
BEN BRIDGE JEWELERS,690836,401 NE NORTHGATE WAY SUITE 880 ,,Seattle,Washington,98125-7136,United States,(206) 363-7227,47.7199222,-122.4103551,"Mo 10:00-21:00,Tu 10:00-21:00,We 10:00-21:00,Th 10:00-21:00,Fr 10:00-21:00,Sa 10:00-21:00,Su 11:00-19:00",,,
HYDE PARK,92447,3000 EAST FIRST AVE ,,DENVER,Colorado,80206,United States,303-320-0220,39.7154541015625,-104.951171875,"Mo 10:00-20:00,Tu 10:00-20:00,We 10:00-20:00,Th 10:00-20:00,Fr 10:00-20:00,Sa 10:00-18:00,Su 12:00-17:30",,,
DUFRY,579668,Seattle International Airport SS - 07 1781 International Blvd ,,"Seattle, WA",Washington,98158,United States,201.528.2559,47.438784789188745,-122.3021650314331,,,,
JARED,92581,CARRIAGE CROSSING 4615 MERCHANT PARK CIRCLE ,,COLLIERVILLE,Tennessee,38017,United States,901-854-0956,35.0255126953125,-89.716064453125,"Mo 10:00-21:00,Tu 10:00-21:00,We 10:00-21:00,Th 10:00-21:00,Fr 10:00-21:00,Sa 10:00-21:00,Su 12:00-17:00",,,
BOB RICHARDS JEWELERS,92307,1696 S GERMANTOWN RD ,,Germantown,Tennessee,38138,United States,(901) 751-8052,35.1140869,-89.8055877,"Mo 09:30-17:30,Tu 09:30-17:30,We 09:30-17:30,Th 09:30-17:30,Fr 09:30-17:30,Sa 09:30-14:00",,,
BEN BRIDGE,92219,BELLEVUE SQUARE 113 BELLEVUE SQUARE ,,BELLEVUE,Washington,98004,United States,425-454-9227,47.6157894,-122.2043277,"Mo 09:30-21:30,Tu 09:30-21:30,We 09:30-21:30,Th 09:30-21:30,Fr 09:30-21:30,Sa 09:30-21:30,Su 11:00-19:00",,,
JARED,102009,PARKWAY SQUARE SHOPPING CENTER 1684 SOUTHCENTER PKWY. ,,TUKWILA,Washington,98188,United States,206-575-2428,47.452504,-122.2630217,"Mo 10:00-21:00,Tu 10:00-21:00,We 10:00-21:00,Th 10:00-21:00,Fr 10:00-21:00,Sa 10:00-21:00,Su 12:00-18:00",,,
BEN BRIDGE,92254,WESTFIELD SOUTHCENTER MALL 258 SOUTHCENTER MALL ,,SEATTLE,Washington,98188,United States,206-246-6227,47.4987973,-122.3188018,"Mo 10:00-21:00,Tu 10:00-21:00,We 10:00-21:00,Th 10:00-21:00,Fr 10:00-21:00,Sa 10:00-21:00,Su 11:00-19:00",,,
BEN BRIDGE,92251,UNIVERSITY VILLAGE 262 NE VILLAGE LANE ,,SEATTLE,Washington,98105,United States,206.729.2413,47.6624308,-122.2996956,"Mo 09:30-21:00,Tu 09:30-21:00,We 09:30-21:00,Th 09:30-21:00,Fr 09:30-21:00,Sa 09:30-21:00,Su 11:00-18:00",,,
SISSY'S LOG CABIN,852819,404 GROVE PARK ,,Memphis,Tennessee,38117,United States,(901) 834-0067,35.1201202,-89.9132803,"Mo 10:00-17:30,Tu 10:00-17:30,We 10:00-17:30,Th 10:00-17:30,Fr 10:00-17:30,Sa 10:00-17:30",,,
JARED,92500,COUNTRYWOOD CROSSINGS 2293 NORTH GERMANTOWN PARKWAY ,,MEMPHIS,Tennessee,38016,United States,901-386-5805,35.1864013671875,-89.792724609375,"Mo 10:00-21:00,Tu 10:00-21:00,We 10:00-21:00,Th 10:00-21:00,Fr 10:00-21:00,Sa 10:00-21:00,Su 12:00-17:00",,,
ROGERS JEWELRY,92900,8521 BOND AVE ,,ELK GROVE,California,95624,United States,916-714-2590,38.4246842,-121.3897377,"Mo 10:00-19:00,Tu 10:00-19:00,We 10:00-19:00,Th 10:00-19:00,Fr 10:00-19:00,Sa 10:00-18:00,Su 11:00-17:00",,,
JARED,92556,1620 ARDEN WAY ,,SACRAMENTO,California,95815,United States,916-567-0930,38.60009765625,-121.439208984375,"Mo 10:00-21:00,Tu 10:00-21:00,We 10:00-21:00,Th 10:00-21:00,Fr 10:00-21:00,Sa 10:00-21:00,Su 12:00-17:00",,,
SHARIF JEWELERS,668649,DOWNTOWN SACRAMENTO 11 K St. ,,Sacramento,California,95814,United States,(916) 330-1977,38.5793345,-121.4958522,"Mo 11:00-18:30,Tu 11:00-18:30,We 11:00-18:30,Th 11:00-18:30,Fr 11:00-18:30,Sa 11:00-18:30",,,
JARED,92609,605 W. BARRET PKWY. BLDG. 200 ,,KENNESAW,Georgia,30144,United States,678-355-6585,34.0233154296875,-84.615478515625,"Mo 10:00-21:00,Tu 10:00-21:00,We 10:00-21:00,Th 10:00-21:00,Fr 10:00-21:00,Sa 10:00-21:00,Su 12:00-17:00",,,
MACY'S,92746,NORTH POINT MALL 5 NORTHPOINT CIRCLE ,,ALPHARETTA,Georgia,30022,United States,770-410-2680,34.0753173828125,-84.2939453125,"Mo 10:00-21:00,Tu 10:00-21:00,We 10:00-21:00,Th 10:00-22:00,Fr 10:00-22:00,Sa 09:00-22:00,Su 11:00-19:00",,,
ROGERS JEWELRY,92899,BIDWELL CENTER 965 E. BIDWELL ,,FOLSOM,California,95630,United States,916-984-8665,38.6699513,-121.1575842,"Mo 10:00-19:00,Tu 10:00-19:00,We 10:00-19:00,Th 10:00-19:00,Fr 10:00-19:00,Sa 10:00-18:00,Su 11:00-17:00",,,
BEN BRIDGE,92230,GALLERIA AT ROSEVILLE 1151 GALLERIA BLVD SUITE 137 ,,ROSEVILLE,California,95678,United States,916-780-7733,38.773681640625,-121.26904296875,"Mo 10:00-21:00,Tu 10:00-21:00,We 10:00-21:00,Th 10:00-21:00,Fr 10:00-21:00,Sa 10:00-21:00,Su 11:00-19:00",,,
JARED,92593,THE RIDGE AT CREEKSIDE 1128 GALLERIA BLVD. ,,ROSEVILLE,California,95678,United States,916-787-1701,38.7696533203125,-121.265380859375,"Mo 10:00-21:00,Tu 10:00-21:00,We 10:00-21:00,Th 10:00-21:00,Fr 10:00-21:00,Sa 10:00-21:00,Su 12:00-17:00",,,
BORSHEIMS,92311,120 REGENCY PARKWAY ,,OMAHA,Nebraska,68114,United States,402-391-0400,41.2599426,-96.0712466,"Mo 10:00-20:00,Tu 10:00-18:00,We 10:00-18:00,Th 10:00-20:00,Fr 10:00-18:00,Sa 10:00-17:30",,,
TRADITIONAL JEWELERS,93016,FASHION ISLAND 23 NEWPORT CENTER DRIVE ,,NEWPORT BEACH,California,92660,United States,949-721-9010,33.615352,-117.875665,"Mo 10:00-20:00,Tu 10:00-20:00,We 10:00-20:00,Th 10:00-20:00,Fr 10:00-20:00,Sa 10:00-19:00,Su 11:00-18:00",,,
JARED,92478,BREA PLAZA 1631 East Imperial Highway ,,Brea,California,92821,United States,714 - 257-1184,33.911152,-117.882253,"Mo 10:00-21:00,Tu 10:00-21:00,We 10:00-21:00,Th 10:00-21:00,Fr 10:00-21:00,Sa 10:00-21:00,Su 12:00-18:00",,,
BEN BRIDGE,92220,BREA MALL 122 BREA MALL ,,BREA,California,92821,United States,(714) 256-1833,33.91571,-117.887464,"Mo 10:00-21:00,Tu 10:00-21:00,We 10:00-21:00,Th 10:00-21:00,Fr 10:00-21:00,Sa 10:00-19:00,Su 11:00-18:00",,,
BEN BRIDGE,92245,SOUTH COAST PLAZA 3333 BRISTOL ST STE #1843 ,,COSTA MESA,California,92626,United States,714-549-3545,33.692626953125,-117.886474609375,"Mo 10:00-21:00,Tu 10:00-21:00,We 10:00-21:00,Th 10:00-21:00,Fr 10:00-21:00,Sa 10:00-20:00,Su 11:00-18:30",,,
FINK'S JEWELERS,92376,"300 E MONTICELLO AVENUE, SPACE 274 ",,NORFOLK,Virginia,23510,United States,757-640-1132,36.84954453,-76.28945923,"Mo 10:00-21:00,Tu 10:00-21:00,We 10:00-21:00,Th 10:00-21:00,Fr 10:00-21:00,Sa 10:00-21:00,Su 12:00-18:00",,,
MAYORS,92803,NORTH POINT MALL 1152 NORTH POINT CIRCLE ,,ALPHARETTA,Georgia,30022,United States,770-667-1887,34.0478801,-84.2966877,"Mo 10:00-21:00,Tu 10:00-21:00,We 10:00-21:00,Th 10:00-21:00,Fr 10:00-21:00,Sa 10:00-21:00,Su 12:00-18:00",,,
FINK'S JEWELERS,92380,"6910 FAYETTEVILLE ROAD, SUITE 160 ",,DURHAM,North Carolina,27713,United States,(919) 281-8407,35.903599,-78.94190600000002,"Mo 10:00-21:00,Tu 10:00-21:00,We 10:00-21:00,Th 10:00-21:00,Fr 10:00-21:00,Sa 10:00-21:00,Su 12:00-18:00",,,
TIVOL,92985,HAWTHORNE PLAZA 4721 W. 119TH STREET ,,OVERLAND PARK,Kansas,66209,United States,913-345-0200,38.9157401,-94.6467516,"Mo 10:00-17:30,Tu 10:00-17:30,We 10:00-17:30,Th 10:00-20:00,Fr 10:00-17:30,Sa 10:00-17:30",,,
FINK'S JEWELERS,92374,"4321 LASSITER AT NORTH HILLS AVE, SUITE 120 ",,RALEIGH,North Carolina,27609,United States,(919) 881-8247,35.837751,-78.643205,"Mo 10:00-19:00,Tu 10:00-19:00,We 10:00-19:00,Th 10:00-19:00,Fr 10:00-19:00,Sa 10:00-19:00,Su 12:00-18:00",,,
JARED,92499,6675 W. 135TH STREET ,,OVERLAND PARK,Kansas,66223,United States,931-851-1500,38.883734,-94.660545,"Mo 10:00-21:00,Tu 10:00-21:00,We 10:00-21:00,Th 10:00-21:00,Fr 10:00-21:00,Sa 10:00-21:00,Su 12:00-17:00",,,
JARED,92482,6100 CAPITAL BLVD. ,,RALEIGH,North Carolina,27604,United States,919-792-9280,35.807373046875,-78.61767578125,"Mo 10:00-21:00,Tu 10:00-21:00,We 10:00-21:00,Th 10:00-21:00,Fr 10:00-21:00,Sa 10:00-21:00,Su 12:00-18:00",,,
BLOOMINGDALE'S,92300,SOUTH COAST PLAZA 3333 S. BRISTOL ST ,,COSTA MESA,California,92626,United States,714-824-4600,33.64111328125,-117.91845703125,"Mo 10:00-21:00,Tu 10:00-21:00,We 10:00-21:00,Th 10:00-21:00,Fr 10:00-21:00,Sa 10:00-21:00,Su 11:00-19:00",,,
MAYORS,92798,"GALLERIA AT FT. LAUDERDALE 2472 EAST SUNRISE BLVD, SUITE 216 ",,Ft. Lauderdale,Florida,33304,United States,(954) 563-4181,26.137896,-80.114748,"Mo 10:00-21:00,Tu 10:00-21:00,We 10:00-21:00,Th 10:00-21:00,Fr 10:00-21:00,Sa 10:00-21:00,Su 12:00-20:00",,,
WATCH CONNECTION,93025,3033 SOUTH BRISTOL STREET ,,COSTA MESA,California,92626,United States,714-432-8200,33.6816287,-117.8866833,"Tu 11:00-17:30,We 11:00-17:30,Th 11:00-17:30,Fr 11:00-17:30,Sa 11:00-17:00",,,
BAILEY'S FINE JEWELRY,92209,415 DANIELS STREET ,,RALEIGH,North Carolina,27605,United States,919-829-7337,35.789794921875,-78.660888671875,"Mo 10:00-18:00,Tu 10:00-18:00,We 10:00-18:00,Th 10:00-18:00,Fr 10:00-18:00,Sa 10:00-17:00",,,
SIDNEY THOMAS,92917,THE STREETS AT SOUTHPOINT 691 FAYETTEVILLE ROAD SUITE 16 ,,DURHAM,North Carolina,27713,United States,919-544-1818,35.99403381,-78.89862061,"Mo 10:00-21:00,Tu 10:00-21:00,We 10:00-21:00,Th 10:00-21:00,Fr 10:00-21:00,Sa 10:00-21:00,Su 12:00-19:00",,,
JARED,92561,RENAISSANCE CENTER 6813 FAYETTEVILLE RD. STE. 14 ,,DURHAM,North Carolina,27713,United States,919-572-9932,35.9940185546875,-78.8984375,"Mo 10:00-21:00,Tu 10:00-21:00,We 10:00-21:00,Th 10:00-21:00,Fr 10:00-21:00,Sa 10:00-21:00,Su 12:00-18:00",,,
LITTMAN JEWELERS,601477,"BROWARD MALL 8 W BROWARD BLVD, SUITE 411 ",,Plantation,Florida,33388,United States,(954) 723-0355,26.1178269,-80.2569957,"Mo 10:00-21:00,Tu 10:00-21:00,We 10:00-21:00,Th 10:00-21:00,Fr 10:00-21:00,Sa 10:00-21:00,Su 11:00-18:00",,,
MACY'S,92752,11605 PINES BLVD ,,PEMBROKE PINES,Florida,33026,United States,954-438-2271,26.011474609375,-80.30224609375,"Mo 10:00-21:30,Tu 10:00-21:30,We 10:00-21:30,Th 10:00-21:30,Fr 10:00-21:30,Sa 09:00-21:00,Su 12:00-19:00",,,
Duty Free Americas,579670,Miami Internatiomnal Airport Terminal D15 21 NW 42nd Ave ,,"Miami, FL",Florida,33126,United States,305.869.4983,25.791554842840615,-80.27330160140991,,,,
Duty Free Americas,579671,Miami International Airport Terminal D30 21 NW 42nd Ave ,,"Miami, FL",Florida,33126,United States,305.546.9169,25.790772375345092,-80.27349472045898,,,,
MAYORS,362735,342 SAN LORENZO AVE SUITE 1 ,,CORAL GABLES,Florida,33146,United States,305-446-1233,25.7314167,-80.2610717,"Mo 10:00-21:00,Tu 10:00-21:00,We 10:00-21:00,Th 10:00-21:00,Fr 10:00-21:00,Sa 10:00-21:00,Su 12:00-18:00",,,
REEDS JEWELERS,92866,CRABTREE VALLEY MALL UNITS 4325 GLENWOOD AVE ,,RALEIGH,North Carolina,27612,United States,919-787-4992,35.841796875,-78.681640625,"Mo 10:00-21:00,Tu 10:00-21:00,We 10:00-21:00,Th 10:00-21:00,Fr 10:00-21:00,Sa 10:00-21:00,Su 12:00-19:00",,,
BLOOMINGDALE'S,92285,AVENTURA MALL 195555 BISCAYNE BLVD ,,AVENTURA,Florida,33180,United States,305-792-1000,25.95648193359375,-80.141845703125,"Mo 10:00-22:00,Tu 10:00-22:00,We 10:00-22:00,Th 10:00-22:00,Fr 10:00-22:00,Sa 10:00-22:00,Su 12:00-21:00",,,
MAYORS,92800,1000 LINCOLN ROAD ,,MIAMI BEACH,Florida,33139,United States,305-672-1662,25.78896904,-80.22644043,"Mo 11:00-21:00,Tu 11:00-21:00,We 11:00-21:00,Th 11:00-21:00,Fr 11:00-22:00,Sa 11:00-22:00,Su 12:00-20:00",,,
MACY'S,92763,SOUTH COAST PLAZA 3333 BEAR STREET ,,COSTA MESA,California,92626,United States,714-708-3333,33.64111328125,-117.91845703125,"Mo 10:00-22:00,Tu 10:00-22:00,We 10:00-22:00,Th 10:00-22:00,Fr 10:00-22:00,Sa 09:00-22:00,Su 11:00-20:00",,,
MAYORS,92796,DADELAND MALL 7457 NORTH KENDALL DRIVE ,,MIAMI,Florida,33156,United States,305-667-7517,25.78896904,-80.22644043,"Mo 10:00-21:30,Tu 10:00-21:30,We 10:00-21:30,Th 10:00-21:30,Fr 10:00-21:30,Sa 10:00-21:30,Su 12:00-19:00",,,
WESTIME BRICKELL CITY CENTER,752911,701 SOUTH MIAMI AVE #167 ,,Miami,Florida,33139,United States,(310) 205-5555,25.7671683,-80.1952609,"Mo 10:00-21:00,Tu 10:00-21:00,We 10:00-21:00,Th 10:00-21:00,Fr 10:00-21:00,Sa 10:00-21:00,Su 11:00-21:00",,,
JARED,92552,11077 PINES BOULEVARD ,,PEMBROOK PINES,Florida,33026,United States,954-437-0341,26.0093994140625,-80.295654296875,"Mo 10:00-21:00,Tu 10:00-21:00,We 10:00-21:00,Th 10:00-21:00,Fr 10:00-21:00,Sa 10:00-21:00,Su 12:00-17:00",,,
Duty Free Americas,579672,Miami International Airport Terminal H 21 NW 42nd Ave ,,"Miami, FL",Florida,33126,United States,305.869.4983,25.791390621695665,-80.27649879455566,,,,
Westime @ Brickell Center,769832,701 S. MIAMI AVE. #167 ,,Miami,Florida,33131,United States,(786) 271-7470,25.7671709,-80.1933694,"Mo 10:00-21:00,Tu 10:00-21:00,We 10:00-21:00,Th 10:00-21:00,Fr 10:00-21:00,Sa 10:00-21:00,Su 11:00-19:00",,,
TAG HEUER BOUTIQUE-MIAMI,92958,AVENTURA MALL 1951 BISCAYNE BLVLD. SPACE #37 ,,AVENTURA,Florida,33180,United States,855 - 469-5019,25.970391,-80.141144,"Mo 10:00-21:30,Tu 10:00-21:30,We 10:00-21:30,Th 10:00-21:30,Fr 10:00-21:30,Sa 10:00-21:30,Su 12:00-20:00",,,
MORAYS JEWELERS,92818,116 MIRACLE MILE ,,CORAL GABLES,Florida,33134,United States,(305) 374-0739,25.7493317,-80.2570993,"Mo 11:00-18:30,Tu 11:00-18:30,We 11:00-18:30,Th 11:00-18:30,Fr 11:00-18:30,Sa 11:00-18:30,Su 11:00-18:30",,,
JARED,92528,KENDALL VILLAGE CENTER 12355 SW 88TH ST. ,,MIAMI,Florida,33186,United States,305-630-3997,25.686745,-80.392459,"Mo 10:00-21:00,Tu 10:00-21:00,We 10:00-21:00,Th 10:00-21:00,Fr 10:00-21:00,Sa 10:00-21:00,Su 12:00-18:00",,,
MACY'S,92723,DADELAND MALL 733 S.W. 88TH STREET ,,MIAMI,Florida,33156,United States,305-662-3489,25.6895751953125,-80.311279296875,"Mo 10:00-21:30,Tu 10:00-21:30,We 10:00-21:30,Th 10:00-21:30,Fr 10:00-21:30,Sa 09:00-22:00,Su 12:00-19:00",,,
MAYORS,92801,MIAMI INTERNATIONAL MALL 1445 NW 17TH AVE ,,MIAMI,Florida,33172,United States,305-594-7447,25.78712082,-80.36763,"Mo 10:00-21:00,Tu 10:00-21:00,We 10:00-21:00,Th 10:00-21:00,Fr 10:00-21:00,Sa 10:00-21:00,Su 11:00-19:00",,,
MACY'S,92724,DEL AMO FASHION CENTER 216 HAWTHORNE BLVD. ,,TORRANCE,California,90503,United States,310-370-8511,33.8321533203125,-118.3505859375,"Mo 10:00-21:30,Tu 10:00-21:30,We 10:00-21:30,Th 10:00-21:30,Fr 10:00-21:30,Sa 09:00-22:00,Su 11:00-19:00",,,
BHINDI JEWELERS,92268,18508 PIONEER BLVD ,,ARTESIA,California,90701,United States,(562) 402-8755,33.863548,-118.081796,"Mo 11:00-19:30,Tu 11:00-19:30,We 11:00-19:30,Th 11:00-19:30,Fr 11:00-19:30,Sa 11:00-19:30,Su 11:00-19:30",,,
KIRK JEWELERS,92651,142 EAST FLAGLER STREET ,,MIAMI,Florida,33131,United States,305-371-1321,25.77410888671875,-80.191162109375,"Mo 10:00-17:30,Tu 10:00-17:30,We 10:00-17:30,Th 10:00-17:30,Fr 10:00-17:30,Sa 10:00-17:30",,,
JARED,92545,9510 QUIVIRIA RD ,,LENEXA,Kansas,66215,United States,913-894-5200,38.9561432,-94.7240874,"Mo 10:00-21:00,Tu 10:00-21:00,We 10:00-21:00,Th 10:00-21:00,Fr 10:00-21:00,Sa 10:00-21:00,Su 12:00-18:00",,,
REEDS JEWELERS,92872,"LYNNHAVEN MALL 71 LYNNHAVEN PKWY, SPACE 148 ",,VIRGINIA BEACH,Virginia,23452,United States,757-486-6360,36.8171047,-76.0714775,"Mo 10:00-21:00,Tu 10:00-21:00,We 10:00-21:00,Th 10:00-21:00,Fr 10:00-21:00,Sa 10:00-21:00,Su 12:00-18:00",,,
TAG BOUTIQUE - MIAMI DESIGN DISTRICT,197951,140 NE 39TH STREET SUITE 19 ,,MIAMI,Florida,33137,United States,(305) 576-0884,25.812218,-80.19258,"Mo 11:00-20:00,Tu 11:00-20:00,We 11:00-20:00,Th 11:00-20:00,Fr 11:00-20:00,Sa 11:00-20:00,Su 12:00-18:00",,,
JARED,92607,656 PHOENIX DR. ,,VIRGINIA BEACH,Virginia,23452,United States,757-340-5181,36.8248325,-76.0698482,"Mo 10:00-21:00,Tu 10:00-21:00,We 10:00-21:00,Th 10:00-21:00,Fr 10:00-21:00,Sa 10:00-21:00,Su 12:00-17:30",,,
NQ JEWELERS,92836,16041 BROOKHURST STREET ,,FOUNTAIN VALLEY,California,92708,United States,714-839-8885,33.70894241,-117.9545135,"Mo 10:30-19:00,We 10:30-19:00,Th 10:30-19:00,Fr 10:30-19:00,Sa 10:30-19:00,Su 10:30-19:00",,,
JARED,92520,GWINNETT PLACE MALL 215 PLEASANT HILL RD. NW ,,DULUTH,Georgia,30096,United States,770-497-9433,33.958740234375,-84.133544921875,"Mo 10:00-21:00,Tu 10:00-21:00,We 10:00-21:00,Th 10:00-21:00,Fr 10:00-21:00,Sa 10:00-21:00,Su 12:00-17:00",,,
JARED,92464,ARBOR PLACE MALL 931 THE LANDINGS DR. ,,DOUGLASVILLE,Georgia,30135,United States,770-577-0864,33.7301025390625,-84.739501953125,"Mo 10:00-21:00,Tu 10:00-21:00,We 10:00-21:00,Th 10:00-21:00,Fr 10:00-21:00,Sa 10:00-21:00,Su 12:00-17:00",,,
BROWN & COMPANY,92319,674 HOLCOMB BRIDGE ROAD ,,ROSWELL,Georgia,30076,United States,770-993-1080,34.0340576171875,-84.341064453125,"Mo 10:00-18:00,Tu 10:00-20:00,We 10:00-18:00,Th 10:00-20:00,Fr 10:00-18:00,Sa 10:00-18:00",,,
TOURNEAU,93005,SOUTH COAST PLAZA 3333 BRISTOL STREET ,,COSTA MESA,California,92626,United States,(714) 850-0222,33.64113235,-117.9186707,"Mo 10:00-21:00,Tu 10:00-21:00,We 10:00-21:00,Th 10:00-21:00,Fr 10:00-21:00,Sa 10:00-20:00,Su 11:00-18:30",,,
JARED,92586,THE MALL AT STONECREST 31 TURNER HILL RD. ,,LITHONIA,Georgia,30038,United States,678-526-8398,33.6942138671875,-84.08935546875,"Mo 10:00-21:00,Tu 10:00-21:00,We 10:00-21:00,Th 10:00-21:00,Fr 10:00-21:00,Sa 10:00-21:00,Su 12:00-17:00",,,
CUMBERLAND DIAMOND EXCHANGE,92340,2800 CUMBERLAND BLVD ,,SMYRNA,Georgia,30080,United States,770-434-4367,33.88427734375,-84.476806640625,"Tu 10:00-20:00,We 10:00-18:00,Th 10:00-20:00,Fr 10:00-18:00,Sa 10:00-17:00",,,
Duty Free Americas,579676,Atlanta International Airport Concourse E 26 Maynard H Jackson Jr Blvd ,,"Atlanta, GA",Georgia,30354,United States,404.382.2744,33.64081202766731,-84.42570447921753,,,,
MKOTT PICH JEWELRY INC,92810,2120 E ANAHEIM STREET ,,LONG BEACH,California,90804,United States,562-433-3530,33.782470703125,-118.166015625,"Mo 10:00-18:00,Tu 10:00-18:00,We 10:00-18:00,Th 10:00-18:00,Fr 10:00-18:00,Sa 10:00-18:00,Su 11:00-17:00",,,
JARED,92549,PARK PLACE 453 ASHFORD-DUNWOODY RD. ,,ATLANTA,Georgia,30346,United States,770-393-4599,33.924560546875,-84.33740234375,"Mo 10:00-21:00,Tu 10:00-21:00,We 10:00-21:00,Th 10:00-21:00,Fr 10:00-21:00,Sa 10:00-21:00,Su 12:00-17:00",,,
JARED,92624,WOODMEN COMMONS 172 E. WOODMEN RD. ,,COLORADO SPRINGS,Colorado,80920,United States,719-262-0701,38.9327392578125,-104.794189453125,"Mo 10:00-21:00,Tu 10:00-21:00,We 10:00-21:00,Th 10:00-21:00,Fr 10:00-21:00,Sa 10:00-21:00,Su 12:00-17:00",,,
MACY'S,92736,"LENOX SQAURE 3393 PEACHTREE ROAD, NE ",,ATLANTA,Georgia,30325,United States,404-231-2680,33.803955078125,-84.350341796875,"Mo 10:00-21:00,Tu 10:00-21:00,We 10:00-21:00,Th 10:00-22:00,Fr 10:00-22:00,Sa 09:00-22:00,Su 11:00-19:00",,,
HARLIN,92437,"250 SPRING ST., 6N102 ",,ATLANTA,Georgia,30303,United States,404-688-1942,33.7618408203125,-84.3896484375,"Mo 09:30-16:30,Tu 09:30-16:30,We 09:30-16:30,Th 09:30-16:30,Fr 09:30-16:30",,,
TIVOL,92987,220 NICHOLS ROAD ,,KANSAS CITY,Missouri,64112,United States,816-531-5800,39.04150772,-94.58986664,"Mo 10:00-17:30,Tu 10:00-17:30,We 10:00-17:30,Th 10:00-20:00,Fr 10:00-17:30,Sa 10:00-17:30",,,
Duty Free Americas,579669,Atlanta International Airport Concourse F 26 Maynard H Jackson Jr Blvd ,,"Atlanta, GA",Georgia,30354,United States,404.382.2744,33.63970444708181,-84.41969633102417,,,,
BLOOMINGDALE'S,92292,LENOX SQUARE 3393 PEACHTREE ROAD ,,ATLANTA,Georgia,30326,United States,404-495-2840,33.845947265625,-84.363525390625,"Mo 10:00-21:00,Tu 10:00-21:00,We 10:00-21:00,Th 10:00-21:00,Fr 10:00-21:00,Sa 10:00-21:00,Su 12:00-19:00",,,
TOURNEAU,92999,"LENOX SQUARE 3393 PEACHTREE RD NE, STE 382 ",,ATLANTA,Georgia,30326,United States,404-760-1883,33.80396271,-84.35045624,"Mo 10:00-21:00,Tu 10:00-21:00,We 10:00-21:00,Th 10:00-21:00,Fr 10:00-21:00,Sa 10:00-21:00,Su 12:00-18:00",,,
BROWN & COMPANY,92318,3225 PEACHTREE ROAD NE ,,ATLANTA,Georgia,30305,United States,404-814-9800,33.84234238,-84.37264252,"Mo 10:00-18:00,Tu 10:00-20:00,We 10:00-18:00,Th 10:00-20:00,Fr 10:00-18:00,Sa 10:00-18:00",,,
JARED,92481,801 COUNTY RD. 42 W. ,,BURNSVILLE,Minnesota,55306,United States,952-898-1414,44.7677001953125,-93.277587890625,"Mo 10:00-21:00,Tu 10:00-21:00,We 10:00-21:00,Th 10:00-21:00,Fr 10:00-21:00,Sa 10:00-21:00,Su 12:00-18:00",,,
MOODY'S,92814,8140 EAST 68ST ST ,,TULSA,Oklahoma,74133,United States,918-252-1696,36.0655517578125,-95.884521484375,"Mo 10:00-20:00,Tu 10:00-20:00,We 10:00-18:00,Th 10:00-20:00,Fr 10:00-20:00,Sa 10:00-18:00",,,
MOODY'S,92815,7015 S. LEWIS ,,TULSA,Oklahoma,74105,United States,918-749-4644,36.0609130859375,-95.957275390625,"Mo 10:00-18:00,Tu 10:00-18:00,We 10:00-18:00,Th 10:00-18:00,Fr 10:00-18:00,Sa 10:00-18:00",,,
JARED,92463,11905 ELM CREEK BLVD. N. ,,MAPLE GROVE,Minnesota,55369,United States,763-424-3872,45.0943603515625,-93.437255859375,"Mo 10:00-21:00,Tu 10:00-21:00,We 10:00-