store_name,store_number,address,address2,city,state,zip_code,country,phone_number,latitude,longitude,store_hours,store_type,other_fields,coming_soon
Wet Seal,,12565 Wayzata Blvd # 106,,Minnetonka,MN,55305,United States,(952) 542-8680,,,,,,
Wet Seal,,3340 Mall Loop Dr # 1249,,Joliet,IL,60431,United States,(815) 439-2033,,,,,,
Wet Seal,,11200 Lakeline Mall Dr # C2,,Cedar Park,TX,78613,United States,(512) 257-3573,,,,,,
Wet Seal,,3450 Wrightsboro Rd,,Augusta,GA,30909,United States,(706) 737-0110,,,,,,
Wet Seal,,11200 Lakeline Mall Dr,,Cedar Park,TX,78613,United States,(512) 257-3573,,,,,,
Wet Seal,,49 W Maryland St # F4,,Indianapolis,IN,46204,United States,(317) 951-0955,,,,,,
Wet Seal,,1251 Us Highway 31 N # C4,,Greenwood,IN,46142,United States,(317) 882-0637,,,,,,
Wet Seal,,371 Putnam Pike,,Smithfield,RI,02917,United States,(401) 231-3972,,,,,,
Wet Seal,,10450 S State St Ste 2212,,Sandy,UT,84070,United States,(801) 553-8259,,,,,,
Wet Seal,,Vancouver Mall,,Vancouver,WA,98662,United States,(360) 885-0823,,,,,,
Wet Seal,,8700 NE Vancouver Mall Dr,,Vancouver,WA,98662,United States,(360) 885-0823,,,,,,
Wet Seal,,1 N Galleria Dr,,Middletown,NY,10941,United States,(845) 692-4044,,,,,,
Wet Seal,,300 Monticello Ave,,Norfolk,VA,23510,United States,(757) 622-1747,,,,,,
Wet Seal,,500 Baybrook Mall,,Friendswood,TX,77546,United States,(281) 486-4442,,,,,,
Wet Seal,,19575 Biscayne Blvd,,Miami,FL,33180,United States,(305) 931-4754,,,,,,
Wet Seal,,Route 9 & Old Post Rd,,Wappingers Falls,NY,12590,United States,(845) 297-0903,,,,,,
Wet Seal,,271 Greece Ridge Center Dr #J6,,Rochester,NY,14626,United States,(585) 720-1770,,,,,,
Wet Seal,,700 Baybrook Mall 1338,,Friendswood,TX,77546,United States,(281) 486-4442,,,,,,
Wet Seal,,745 Eastview Mall,,Victor,NY,14564,United States,(585) 425-0170,,,,,,
Wet Seal,,1476 Willowbrook Mall,,Houston,TX,77070,United States,(281) 469-4225,,,,,,
Wet Seal,,4200 Portsmouth Blvd 546a,,Chesapeake,VA,23321,United States,(757) 405-3606,,,,,,
Wet Seal,,5000 Katy Mills Cir # 705,,Katy,TX,77494,United States,(281) 644-2433,,,,,,
Wet Seal,,1124 Willowbrook Mall,,Houston,TX,77070,United States,(281) 970-6222,,,,,,
Wet Seal,,5075 Westheimer Rd # 3260,,Houston,TX,77056,United States,(713) 840-7657,,,,,,
Wet Seal,,16535 Southwest Fwy,,Sugar Land,TX,77479,United States,(281) 265-4100,,,,,,
Wet Seal,,11401 Pines Blvd Ste 584,,Hollywood,FL,33026,United States,(954) 431-3011,,,,,,
Wet Seal,,2368 E Sunrise Blvd,,Fort Lauderdale,FL,33304,United States,(954) 563-4270,,,,,,
Wet Seal,,2483 E Sunrise Blvd,,Fort Lauderdale,FL,33304,United States,(954) 563-4270,,,,,,
Wet Seal,,9501 W Atlantic Blvd,,Pompano Beach,FL,33071,United States,(954) 755-8939,,,,,,
Wet Seal,,12801 W Sunrise Blvd # 627,,Sunrise,FL,33323,United States,(954) 846-8606,,,,,,
Wet Seal,,5015 Westheimer Rd # 3325,,Houston,TX,77056,United States,(713) 993-9290,,,,,,
Wet Seal,,12801 W Sunrise Blvd # 627,,Fort Lauderdale,FL,33323,United States,(954) 846-8606,,,,,,
Wet Seal,,1116 Baybrook Mall,,Friendswood,TX,77546,United States,(281) 286-0900,,,,,,
Wet Seal,,321 N University Dr,,Fort Lauderdale,FL,33324,United States,(954) 370-1442,,,,,,
Wet Seal,,201 Old Post Rd,,Poughkeepsie,NY,12601,United States,(845) 297-0903,,,,,,
Wet Seal,,8000 W Broward Blvd # 220,,Plantation,FL,33388,United States,(954) 476-7270,,,,,,
Wet Seal,,8000 W Broward Blvd,,Fort Lauderdale,FL,33388,United States,(954) 476-7270,,,,,,
Wet Seal,,701 Lynnhaven Pkwy,,Virginia Beach,VA,23452,United States,(757) 631-0965,,,,,,
Wet Seal,,700 SW 5th Ave,,Portland,OR,97204,United States,(503) 274-7936,,,,,,
Wet Seal,,701 Lynnhaven Pkwy # Eo48b,,Virginia Beach,VA,23452,United States,(757) 631-0965,,,,,,
Wet Seal,,1045 Lloyd Ctr,,Portland,OR,97232,United States,(503) 287-8065,,,,,,
Wet Seal,,6650 S Westnedge Ave # 863,,Portage,MI,49024,United States,(269) 327-1218,,,,,,
Wet Seal,,300 Monticello Ave # 180,,Norfolk,VA,23510,United States,(757) 622-3095,,,,,,
Wet Seal,,1000 N Point Cir,,Alpharetta,GA,30022,United States,(770) 753-8900,,,,,,
Wet Seal,,10450 S State St,,Sandy,UT,84070,United States,(801) 553-8259,,,,,,
Wet Seal,,2100 Pleasant Hill Rd,,Duluth,GA,30096,United States,(770) 497-0678,,,,,,
Wet Seal,,1200 Towne Centre Blvd,,Provo,UT,84601,United States,(801) 852-4445,,,,,,
Wet Seal,,8000 Mall Pkwy # 2622,,Lithonia,GA,30038,United States,(770) 484-6255,,,,,,
Wet Seal,,1000 N Point Cir 2014,,Alpharetta,GA,30022,United States,(678) 319-4273,,,,,,
Wet Seal,,2014 N Point Cir,,Alpharetta,GA,30022,United States,(770) 753-8900,,,,,,
Wet Seal,,1360 Cumberland Mall SE,,Atlanta,GA,30339,United States,(770) 432-5000,,,,,,
Wet Seal,,1360 Cumberland CT SE,,Smyrna,GA,30080,United States,(770) 432-5000,,,,,,
Wet Seal,,3393 Peachtree Rd NE # 4063,,Atlanta,GA,30326,United States,(404) 237-1888,,,,,,
Wet Seal,,371 Putnam Pike,,Greenville,RI,02828,United States,(401) 231-3972,,,,,,
Wet Seal,,4400 Ashford Dunwoody Rd,,Atlanta,GA,30346,United States,(770) 395-1300,,,,,,
Wet Seal,,6020 E 82nd St # 536,,Indianapolis,IN,46250,United States,(317) 578-2405,,,,,,
Wet Seal,,27478 Novi Rd,,Novi,MI,48377,United States,(248) 344-4947,,,,,,
Wet Seal,,385 Southbridge St,,Auburn,MA,01501,United States,(508) 721-9521,,,,,,
Wet Seal,,650 W 14 Mile Rd,,Troy,MI,48083,United States,(248) 585-3050,,,,,,
Wet Seal,,8000 Mall Pkwy,,Lithonia,GA,30038,United States,(770) 484-6255,,,,,,
Wet Seal,,2432 Fox Valley Ctr,,Aurora,IL,60504,United States,(630) 820-9072,,,,,,
Wet Seal,,14500 W Colfax Ave # 174,,Golden,CO,80401,United States,(303) 216-0189,,,,,,
Wet Seal,,8501 W Bowles Ave,,Littleton,CO,80123,United States,(303) 979-9713,,,,,,
Wet Seal,,14600 Lakeside Cir,,Sterling Heights,MI,48313,United States,(586) 532-1878,,,,,,
Wet Seal,,8405 Park Meadows Center,,Littleton,CO,80124,United States,(303) 768-0494,,,,,,
Wet Seal,,4658 Baldwin Rd,,Auburn Hills,MI,48326,United States,(248) 322-5675,,,,,,
Wet Seal,,8405 S Park Meadows Center Dr,,Lone Tree,CO,80124,United States,(303) 768-0494,,,,,,
Wet Seal,,1201 16th St,,Denver,CO,80202,United States,(303) 571-5551,,,,,,
Wet Seal,,3000 E 1st Ave,,Denver,CO,80206,United States,(303) 388-8282,,,,,,
Wet Seal,,1201 16th St Unit 200,,Denver,CO,80202,United States,(303) 623-3271,,,,,,
Wet Seal,,6001 Airport Blvd,,Austin,TX,78752,United States,(512) 453-5200,,,,,,
Wet Seal,,14200 E Alameda Ave # 2027,,Aurora,CO,80012,United States,(303) 344-4677,,,,,,
Wet Seal,,2901 S Capital of Texas H,,Austin,TX,78746,United States,(512) 327-5911,,,,,,
Wet Seal,,8501 W Bowles Ave # 2d267,,Littleton,CO,80123,United States,(303) 979-9713,,,,,,
Wet Seal,,1199 Highland Mall,,Austin,TX,78752,United States,(512) 452-8123,,,,,,
Wet Seal,,2825 S Glenstone Ave,,Springfield,MO,65804,United States,(417) 823-9144,,,,,,
Wet Seal,,691 Richmond Rd,,Cleveland,OH,44143,United States,(440) 684-0358,,,,,,
Wet Seal,,1201 Lakewoodlands Dr,,Spring,TX,77380,United States,(281) 367-8688,,,,,,
Wet Seal,,1201 Lake Woodlands Dr # 1114,,The Woodlands,TX,77380,United States,(281) 367-8688,,,,,,
Wet Seal,,6700 Douglas Blvd,,Douglasville,GA,30135,United States,(678) 838-1662,,,,,,
Wet Seal,,8300 Sudley Rd,,Manassas,VA,20109,United States,(703) 369-3805,,,,,,
Wet Seal,,2 W Stevens St,,East Taunton,MA,02718,United States,(508) 823-9877,,,,,,
Wet Seal,,400 Ernest W Barrett Pkwy,,Kennesaw,GA,30144,United States,(770) 919-0182,,,,,,
Wet Seal,,14700 E Indiana Ave # 1154,,Spokane Valley,WA,99216,United States,(509) 893-9609,,,,,,
Wet Seal,,999 S Washington St,,North Attleboro,MA,02760,United States,(508) 643-0229,,,,,,
Wet Seal,,700 Haywood Rd # 1040,,Greenville,SC,29607,United States,(864) 676-1011,,,,,,
Wet Seal,,8201 S Tamiami Trl # 37,,Sarasota,FL,34238,United States,(941) 923-6749,,,,,,
Wet Seal,,707 2nd St # 1026,,Santa Rosa,CA,95404,United States,(707) 571-0425,,,,,,
Wet Seal,,6555 E Southern Ave,,Mesa,AZ,85206,United States,(480) 218-1929,,,,,,
Wet Seal,,3111 W Chandler Blvd,,Chandler,AZ,85226,United States,(480) 814-8253,,,,,,
Wet Seal,,7804 Abercorn St,,Savannah,GA,31406,United States,(912) 352-2371,,,,,,
Wet Seal,,6901 22nd Ave N Ste 406,,Saint Petersburg,FL,33710,United States,(727) 381-2226,,,,,,
Wet Seal,,Oglethorpe Mall,,Savannah,GA,31406,United States,(912) 352-2371,,,,,,
Wet Seal,,4502 S Steele St # 404,,Tacoma,WA,98409,United States,(253) 472-3440,,,,,,
Wet Seal,,3000 184th St SW,,Lynnwood,WA,98037,United States,(425) 771-9034,,,,,,
Wet Seal,,957 S Carstens Pl,,Seattle,WA,98108,United States,(206) 241-0492,,,,,,
Wet Seal,,3499 W Chandler Blvd,,Chandler,AZ,85226,United States,(480) 782-8457,,,,,,
Wet Seal,,9617 N Metro Pkwy E # 1194,,Phoenix,AZ,85051,United States,(602) 861-1235,,,,,,
Wet Seal,,4400 Sergeant Rd # 114,,Sioux City,IA,51106,United States,(712) 276-2285,,,,,,
Wet Seal,,2051 S Dobson Rd Ste 17,,Mesa,AZ,85202,United States,(602) 604-9190,,,,,,
Wet Seal,,2104 Fiesta Mall,,Mesa,AZ,85202,United States,(602) 644-1546,,,,,,
Wet Seal,,21001 N Tatum Blvd,,Phoenix,AZ,85050,United States,(602) 538-9050,,,,,,
Wet Seal,,7000 E Camelback Rd # 3660,,Scottsdale,AZ,85251,United States,(480) 949-8887,,,,,,
Wet Seal,,4550 E Cactus Rd,,Phoenix,AZ,85032,United States,(602) 494-0335,,,,,,
Wet Seal,,7014 E Camelback Rd # 2021,,Scottsdale,AZ,85251,United States,(480) 423-9014,,,,,,
Wet Seal,,301 301 Blvd W,,Bradenton,FL,34205,United States,(941) 747-6293,,,,,,
Wet Seal,,205 W Blackstock Rd,,Spartanburg,SC,29301,United States,(864) 576-7877,,,,,,
Wet Seal,,3000 184th St SW # 660,,Lynnwood,WA,98037,United States,(425) 771-9034,,,,,,
Wet Seal,,8201 S Tamiami Trl # 680,,Sarasota,FL,34238,United States,(941) 923-6749,,,,,,
Wet Seal,,400 Bald Hill Rd,,Warwick,RI,02886,United States,(401) 732-4110,,,,,,
Wet Seal,,4750 N Division St,,Spokane,WA,99207,United States,(509) 483-6444,,,,,,
Wet Seal,,4950 Pacific Ave # 423,,Stockton,CA,95207,United States,(209) 477-8152,,,,,,
Wet Seal,,14700 E Indiana Ave,,Spokane,WA,99216,United States,(509) 893-9609,,,,,,
Wet Seal,,20131 Highway 59 N # 1086,,Humble,TX,77338,United States,(281) 446-0226,,,,,,
Wet Seal,,Deerbrook Mall,,Humble,TX,77338,United States,(281) 446-5299,,,,,,
Wet Seal,,8300 Sudley Rd # 847,,Manassas,VA,20109,United States,(703) 369-3805,,,,,,
Wet Seal,,4238 Wilson Blvd,,Arlington,VA,22203,United States,(703) 525-5125,,,,,,
Wet Seal,,11781 Lee Jackson Hwy,,Fairfax,VA,22033,United States,(703) 591-4927,,,,,,
Wet Seal,,1961 Chain Bridge Rd,,McLean,VA,22102,United States,(703) 790-8004,,,,,,
Wet Seal,,1100 S Hayes St,,Arlington,VA,22202,United States,(703) 414-0011,,,,,,
Wet Seal,,11711 Fair Oaks Mall 228,,Fairfax,VA,22033,United States,(703) 591-4927,,,,,,
Wet Seal,,6710c Springfield Mall,,Springfield,VA,22150,United States,(703) 922-4754,,,,,,
Wet Seal,,6710c # E5,,Springfield,VA,22150,United States,(703) 922-4754,,,,,,
Wet Seal,,2501 Wabash Ave,,Springfield,IL,62704,United States,(217) 726-7911,,,,,,
Wet Seal,,2000 Brittain Rd # 437,,Akron,OH,44310,United States,(330) 630-3188,,,,,,
Wet Seal,,3265 W Market St,,Fairlawn,OH,44333,United States,(330) 836-1185,,,,,,
Wet Seal,,3265 W Market St Ste 258,,Akron,OH,44333,United States,(330) 836-1185,,,,,,
Wet Seal,,6512 Springfield Mall,,Springfield,VA,22150,United States,(703) 922-6392,,,,,,
Wet Seal,,4954 Great Northern Mall,,North Olmsted,OH,44070,United States,(440) 734-6175,,,,,,
Wet Seal,,7899 W Ridgewood Dr,,Cleveland,OH,44129,United States,(440) 842-5880,,,,,,
Wet Seal,,1201 Lake Woodlands Dr # 1174,,Spring,TX,77380,United States,(281) 292-9200,,,,,,
Wet Seal,,7988 W Ridgewood Dr,,Cleveland,OH,44129,United States,(440) 842-5880,,,,,,
Wet Seal,,2000 Brittain Rd Ste 437,,Akron,OH,44310,United States,(330) 630-3188,,,,,,
Wet Seal,,724 S Park Ctr A0724,,Strongsville,OH,44136,United States,(440) 846-8197,,,,,,
Wet Seal,,724 Southpark Ctr,,Cleveland,OH,44136,United States,(440) 846-8197,,,,,,
Wet Seal,,208 W Hillcrest Dr,,Thousand Oaks,CA,91360,United States,(805) 373-6606,,,,,,
Wet Seal,,319 Paseo Nuevo,,Santa Barbara,CA,93101,United States,(805) 966-4077,,,,,,
Wet Seal,,400 S Baldwin Ave,,Arcadia,CA,91007,United States,(626) 445-3667,,,,,,
Wet Seal,,1855 41st Ave # E6,,Capitola,CA,95010,United States,(831) 475-6863,,,,,,
Wet Seal,,50 S Main St,,Salt Lake City,UT,84144,United States,(801) 532-9012,,,,,,
Wet Seal,,90 S Rio Grande St,,Salt Lake City,UT,84101,United States,(801) 456-0095,,,,,,
Wet Seal,,2360 Telegraph Ave,,Berkeley,CA,94704,United States,(510) 486-1797,,,,,,
Wet Seal,,4835 Highland Dr,,Salt Lake City,UT,84117,United States,(801) 272-9795,,,,,,
Wet Seal,,1076 Layton Hills Mall,,Layton,UT,84041,United States,(801) 444-7393,,,,,,
Wet Seal,,154 Northstar Mall,,San Antonio,TX,78202,United States,(210) 979-9720,,,,,,
Wet Seal,,1500 S Willow St,,Manchester,NH,03103,United States,(603) 622-3009,,,,,,
Wet Seal,,2219 University Square Mall,,Tampa,FL,33612,United States,(813) 977-1927,,,,,,
Wet Seal,,1186 Brookdale Ctr 1113,,Minneapolis,MN,55430,United States,(763) 566-4103,,,,,,
Wet Seal,,19 1/2 Crestwood Plz,,Saint Louis,MO,63126,United States,(314) 918-9363,,,,,,
Wet Seal,,1186 Brookdale Ctr,,Brooklyn Center,MN,55430,United States,(763) 566-4103,,,,,,
Wet Seal,,2400 Saint Louis Galleria,,Saint Louis,MO,63117,United States,(314) 727-8818,,,,,,
Wet Seal,,203 Rosedale Ctr,,Saint Paul,MN,55113,United States,(612) 639-0416,,,,,,
Wet Seal,,40 W County Ctr,,Saint Louis,MO,63131,United States,(314) 966-4112,,,,,,
Wet Seal,,2248 Mid Rivers Mall,,Saint Peters,MO,63376,United States,(636) 278-8833,,,,,,
Wet Seal,,556 Brandon Town Center M,,Brandon,FL,33511,United States,(813) 685-6336,,,,,,
Wet Seal,,8111 Citrus Park Town Ctr,,Tampa,FL,33625,United States,(813) 926-1474,,,,,,
Wet Seal,,12950 Sheldon Rd Ste 8130,,Tampa,FL,33625,United States,(813) 926-9957,,,,,,
Wet Seal,,27001 Us Highway 19 N # 2020,,Clearwater,FL,33761,United States,(727) 723-0667,,,,,,
Wet Seal,,7007 Friars Rd # 840,,San Diego,CA,92108,United States,(619) 291-0422,,,,,,
Wet Seal,,27001 US Highway 19 N,,Clearwater,FL,33761,United States,(727) 723-0667,,,,,,
Wet Seal,,Countryside Mall,,Safety Harbor,FL,34695,United States,(727) 724-9580,,,,,,
Wet Seal,,22500 Town Cir,,Moreno Valley,CA,92553,United States,(951) 653-5332,,,,,,
Wet Seal,,434 Northridge Shopping Ctr,,Salinas,CA,93906,United States,(831) 443-1876,,,,,,
Wet Seal,,5154 E Montclair Plaza Ln,,Montclair,CA,91763,United States,(909) 851-8128,,,,,,
Wet Seal,,128 Inland Ctr,,San Bernardino,CA,92408,United States,(909) 381-1987,,,,,,
Wet Seal,,175 N West Shore Blvd,,Tampa,FL,33609,United States,(813) 282-1520,,,,,,
Wet Seal,,849 E Commerce St # 515,,San Antonio,TX,78205,United States,(210) 226-6481,,,,,,
Wet Seal,,2855 Stevens Creek Blvd # B287,,Santa Clara,CA,95050,United States,(408) 260-7438,,,,,,
Wet Seal,,925 Blossom Hill Rd # 197,,San Jose,CA,95123,United States,(408) 226-1312,,,,,,
Wet Seal,,3400 S El Camino Real # 382,,San Mateo,CA,94403,United States,(650) 349-5580,,,,,,
Wet Seal,,3001 White Bear Ave N # 2047,,Saint Paul,MN,55109,United States,(651) 770-3666,,,,,,
Wet Seal,,9301 Tampa Ave # 172,,Northridge,CA,91324,United States,(818) 882-2601,,,,,,
Wet Seal,,121 N LA Cienega Blvd,,Los Angeles,CA,90048,United States,(310) 652-4968,,,,,,
Wet Seal,,105 Pleasant St Spc W243,,Salem,NH,03079,United States,(603) 893-0514,,,,,,
Wet Seal,,1245 Worcester St,,Natick,MA,01760,United States,(508) 655-6606,,,,,,
Wet Seal,,230 Santa Monica Pl,,Santa Monica,CA,90401,United States,(310) 451-2397,,,,,,
Wet Seal,,7 Winter St,,Boston,MA,02108,United States,(617) 695-3590,,,,,,
Wet Seal,,100 Independence Way,,Danvers,MA,01923,United States,(978) 646-8975,,,,,,
Wet Seal,,519 Hawthorn Ctr,,Vernon Hills,IL,60061,United States,(847) 362-7222,,,,,,
Wet Seal,,2219 University Square MA,,Tampa,FL,33612,United States,(813) 977-1927,,,,,,
Wet Seal,,75 Middlesex Tpke,,Burlington,MA,01803,United States,(781) 273-5630,,,,,,
Wet Seal,,1151 Galleria Blvd # 261,,Roseville,CA,95678,United States,(916) 784-2099,,,,,,
Wet Seal,,5947 Sunrise Mall,,Citrus Heights,CA,95610,United States,(916) 967-1836,,,,,,
Wet Seal,,1689 Arden Way,,Sacramento,CA,95815,United States,(916) 649-2064,,,,,,
Wet Seal,,4101 W Division St,,Saint Cloud,MN,56301,United States,(320) 656-0342,,,,,,
Wet Seal,,4500 N Oracle Rd,,Tucson,AZ,85705,United States,(520) 887-1845,,,,,,
Wet Seal,,547 L St,,Sacramento,CA,95814,United States,(916) 492-0360,,,,,,
Wet Seal,,7 Backus Ave,,Danbury,CT,06810,United States,(203) 798-9945,,,,,,
Wet Seal,,7000 Arundel Mills Cir,,Hanover,MD,21076,United States,(410) 799-2005,,,,,,
Wet Seal,,3200 S Airport Rd W,,Traverse City,MI,49684,United States,(231) 932-0201,,,,,,
Wet Seal,,10300 Mill Run Cir # 218,,Owings Mills,MD,21117,United States,(410) 902-6510,,,,,,
Wet Seal,,8200 Perry Hall Blvd # 216,,Baltimore,MD,21236,United States,(410) 933-3668,,,,,,
Wet Seal,,157 Annapolis Mall,,Annapolis,MD,21401,United States,(410) 571-0348,,,,,,
Wet Seal,,5001 Monroe St # 920,,Toledo,OH,43623,United States,(419) 472-1933,,,,,,
Wet Seal,,920 Single Park,,Toledo,OH,43623,United States,(419) 472-1933,,,,,,
Wet Seal,,1201 Boston Post Rd,,Milford,CT,06460,United States,(203) 878-9480,,,,,,
Wet Seal,,7021 S Memorial Dr # 228,,Tulsa,OK,74133,United States,(918) 254-0076,,,,,,
Wet Seal,,73 Hamilton Ave,,Waterbury,CT,06702,United States,(203) 757-3300,,,,,,
Wet Seal,,5065 Main St # 2098,,Trumbull,CT,06611,United States,(203) 371-8859,,,,,,
Wet Seal,,4601 S Broadway Ave,,Tyler,TX,75703,United States,(903) 561-3944,,,,,,
Wet Seal,,4082 Winchester Rd # D,,Temecula,CA,92591,United States,(951) 296-1130,,,,,,
Wet Seal,,8251 Flying Cloud Dr,,Eden Prairie,MN,55344,United States,(952) 944-8839,,,,,,
Wet Seal,,Eden Prairie Shpng Ctr 20,,Eden Prairie,MN,55344,United States,(952) 944-8839,,,,,,
Wet Seal,,12565 Wayzata Blvd,,Hopkins,MN,55305,United States,(952) 542-8680,,,,,,
Wet Seal,,8100 24th Ave S,,Minneapolis,MN,55425,United States,(952) 851-0966,,,,,,
Wet Seal,,784 Fairmount Ave,,Towson,MD,21204,United States,(410) 828-0883,,,,,,
Wet Seal,,262 South Blvd,,Minneapolis,MN,55425,United States,(952) 853-0253,,,,,,
Wet Seal,,136 South Blvd,,Minneapolis,MN,55425,United States,(612) 883-0838,,,,,,
Wet Seal,,Broadway Sq,,Tyler,TX,75703,United States,(903) 561-3944,,,,,,
Wet Seal,,915 County Road 42 W,,Burnsville,MN,55306,United States,(952) 898-1500,,,,,,
Wet Seal,,262 S Avenue,,Bloomington,MN,55425,United States,(952) 853-0253,,,,,,
Wet Seal,,3800 US Highway 98 N # 414,,Lakeland,FL,33809,United States,(863) 853-4709,,,,,,
Wet Seal,,625 Black Lake Blvd SW,,Olympia,WA,98502,United States,(360) 705-9353,,,,,,
Wet Seal,,1500 Apalachee Pkwy # 2053,,Tallahassee,FL,32301,United States,(850) 942-2877,,,,,,
Wet Seal,,1500 Apalachee Pkwy,,Tallahassee,FL,32301,United States,(850) 942-2877,,,,,,
Wet Seal,,159 N Garden,,Bloomington,MN,55425,United States,(952) 851-0966,,,,,,
Wet Seal,,1601 Willow Lawn Dr # 242,,Richmond,VA,23230,United States,(804) 282-6022,,,,,,
Wet Seal,,9200 Stony Point Pkwy,,Richmond,VA,23235,United States,(804) 272-9614,,,,,,
Wet Seal,,6000 Glades Rd,,Boca Raton,FL,33431,United States,(561) 391-8135,,,,,,
Wet Seal,,6910 Fayetteville Rd,,Durham,NC,27713,United States,(919) 544-1220,,,,,,
Wet Seal,,1441 Tamiami Trl # 102,,Port Charlotte,FL,33948,United States,(941) 255-0562,,,,,,
Wet Seal,,4802 Valley View Blvd NW,,Roanoke,VA,24012,United States,(540) 366-9609,,,,,,
Wet Seal,,2138 Town East Mall,,Mesquite,TX,75150,United States,(972) 681-8676,,,,,,
Wet Seal,,8111 Concord Mills Blvd # 67,,Concord,NC,28027,United States,(704) 979-0035,,,,,,
Wet Seal,,2401 S Stemmons Fwy # 1152,,Lewisville,TX,75067,United States,(972) 315-1158,,,,,,
Wet Seal,,4737 Concord Pike,,Wilmington,DE,19803,United States,(302) 479-0211,,,,,,
Wet Seal,,2300 E Lincoln Hwy # M4,,Langhorne,PA,19047,United States,(215) 752-2967,,,,,,
Wet Seal,,1067 W Baltimore Pike # 238,,Media,PA,19063,United States,(610) 891-6797,,,,,,
Wet Seal,,7700 W Arrowhead Towne CT,,Glendale,AZ,85308,United States,(623) 878-8033,,,,,,
Wet Seal,,500 W Germantown Pike,,Plymouth Meeting,PA,19462,United States,(610) 567-1684,,,,,,
Wet Seal,,250 Woodbridge Ctr # 1495,,Woodbridge,NJ,07095,United States,(732) 596-1919,,,,,,
Wet Seal,,1233 W Avenue P # 733,,Palmdale,CA,93551,United States,(661) 265-8776,,,,,,
Wet Seal,,30 Mall Dr W,,Jersey City,NJ,07310,United States,(201) 656-3238,,,,,,
Wet Seal,,1511 Palisades Center Dr,,West Nyack,NY,10994,United States,(845) 348-4737,,,,,,
Wet Seal,,285 Exton Square Mall,,Exton,PA,19341,United States,(610) 524-0855,,,,,,
Wet Seal,,9 Mall Walk,,Yonkers,NY,10704,United States,(914) 966-0233,,,,,,
Wet Seal,,1469 Willowbrook Mall,,Wayne,NJ,07470,United States,(973) 890-7467,,,,,,
Wet Seal,,355 N State Rt 17,,Paramus,NJ,07652,United States,(201) 291-8696,,,,,,
Wet Seal,,234 Market St,,Philadelphia,PA,19106,United States,(215) 922-4527,,,,,,
Wet Seal,,1750 Deptford Center Rd,,Woodbury,NJ,08096,United States,(856) 384-9008,,,,,,
Wet Seal,,5100 N 9th Ave Ste D415,,Pensacola,FL,32504,United States,(850) 478-0011,,,,,,
Wet Seal,,11025 Carolina Place Pkwy,,Pineville,NC,28134,United States,(704) 752-8298,,,,,,
Wet Seal,,11025 Carolina Place Pkwy #B11,,Pineville,NC,28134,United States,(704) 752-8298,,,,,,
Wet Seal,,100 Robinson Center Dr,,Pittsburgh,PA,15205,United States,(412) 788-5352,,,,,,
Wet Seal,,1000 Ross Park Mall Dr,,Pittsburgh,PA,15237,United States,(412) 366-1737,,,,,,
Wet Seal,,301 S Hills Vlg,,Pittsburgh,PA,15241,United States,(412) 835-8250,,,,,,
Wet Seal,,Mall Circle Blvd,,Monroeville,PA,15146,United States,(412) 856-6070,,,,,,
Wet Seal,,3075 Clairton Rd # 846,,West Mifflin,PA,15123,United States,(412) 653-6477,,,,,,
Wet Seal,,217 W Bridge St,,Homestead,PA,15120,United States,(412) 461-4882,,,,,,
Wet Seal,,5197 Meadowood Mall Cir,,Reno,NV,89502,United States,(775) 825-4377,,,,,,
Wet Seal,,6121 W Park Blvd Ste C112,,Plano,TX,75093,United States,(469) 366-0194,,,,,,
Wet Seal,,13350 Dallas Pkwy,,Dallas,TX,75240,United States,(972) 392-9052,,,,,,
Wet Seal,,6121 W Park Blvd Ste B112,,Plano,TX,75093,United States,(469) 366-0198,,,,,,
Wet Seal,,111 N Central Expy # 22026,,Plano,TX,75075,United States,(972) 423-6003,,,,,,
Wet Seal,,811 N Central Expy # 2026,,Plano,TX,75075,United States,(972) 423-6003,,,,,,
Wet Seal,,2401 S Stemmons Fwy,,Lewisville,TX,75067,United States,(972) 315-1520,,,,,,
Wet Seal,,5959 Triangle Town Blvd # 1142,,Raleigh,NC,27616,United States,(919) 792-2309,,,,,,
Wet Seal,,5959 Triangle Dr,,Raleigh,NC,27617,United States,(919) 792-2308,,,,,,
Wet Seal,,2801 Archerwood St,,Plano,TX,75074,United States,(972) 423-9706,,,,,,
Wet Seal,,4325 Glenwood Ave # 109,,Raleigh,NC,27612,United States,(919) 881-0021,,,,,,
Wet Seal,,5100 N 9th Ave # D415,,Pensacola,FL,32504,United States,(850) 478-0011,,,,,,
Wet Seal,,353 Town Center Rd,,Boca Raton,FL,33431,United States,(561) 368-2803,,,,,,
Wet Seal,,72840 Highway 111 # 329,,Palm Desert,CA,92260,United States,(760) 346-7680,,,,,,
Wet Seal,,5101 Hinkleville Rd,,Paducah,KY,42001,United States,(270) 443-6700,,,,,,
Wet Seal,,2226 Coastal Grand Cir,,Myrtle Beach,SC,29577,United States,(843) 443-9098,,,,,,
Wet Seal,,801 N Congress Ave # 343,,Boynton Beach,FL,33426,United States,(561) 736-8459,,,,,,
Wet Seal,,3501 N Granville Ave,,Muncie,IN,47303,United States,(765) 289-7941,,,,,,
Wet Seal,,4325 Glenwood Ave Ste 10,,Raleigh,NC,27612,United States,(919) 881-0021,,,,,,
Wet Seal,,10300 W Forest Hill Blvd,,Wellington,FL,33414,United States,(561) 791-2423,,,,,,
Wet Seal,,12441 Elm Creek Blvd N,,Osseo,MN,55369,United States,(763) 428-9200,,,,,,
Wet Seal,,2981 E South Blvd,,Montgomery,AL,36116,United States,(334) 281-4227,,,,,,
Wet Seal,,4700 Millhaven Rd,,Monroe,LA,71203,United States,(318) 651-7310,,,,,,
Wet Seal,,1801 Palm Beach Lakes Blv,,West Palm Beach,FL,33401,United States,(561) 478-4108,,,,,,
Wet Seal,,2925a Montgomery Mall,,Montgomery,AL,36116,United States,(334) 281-4227,,,,,,
Wet Seal,,3101 Pga Blvd,,Palm Beach Gardens,FL,33410,United States,(561) 625-5618,,,,,,
Wet Seal,,3101 Pga Blvd Ste C101,,Palm Beach Gardens,FL,33410,United States,(561) 775-9629,,,,,,
Wet Seal,,6501 Grape Rd,,Mishawaka,IN,46545,United States,(574) 277-2659,,,,,,
Wet Seal,,4511 N Midkiff Rd Ste E9,,Midland,TX,79705,United States,(432) 697-6249,,,,,,
Wet Seal,,95 N Moorland Rd,,Brookfield,WI,53005,United States,(262) 796-1219,,,,,,
Wet Seal,,5300 S 76th St,,Greendale,WI,53129,United States,(414) 423-1117,,,,,,
Wet Seal,,5300 S 76th St Spc E203,,Greendale,WI,53129,United States,(414) 423-1117,,,,,,
Wet Seal,,26972 Burbank,,El Toro,CA,92610,United States,(949) 583-9029,,,,,,
Wet Seal,,5600 Harvey St,,Muskegon,MI,49444,United States,(231) 798-4584,,,,,,
Wet Seal,,2500 N Mayfair Rd 515,,Milwaukee,WI,53226,United States,(414) 476-2148,,,,,,
Wet Seal,,4511 N Midkiff Rd,,Midland,TX,79705,United States,(432) 697-6046,,,,,,
Wet Seal,,2500 N Mayfair Rd,,Milwaukee,WI,53226,United States,(414) 476-2148,,,,,,
Wet Seal,,2760 N Germantown Pkwy,,Memphis,TN,38133,United States,(901) 385-2157,,,,,,
Wet Seal,,6048 Winchester Rd,,Memphis,TN,38115,United States,(901) 794-2278,,,,,,
Wet Seal,,2062 Southlake Mall,,Merrillville,IN,46410,United States,(219) 756-8018,,,,,,
Wet Seal,,691 Richmond Rd # 858,,Cleveland,OH,44143,United States,(440) 684-0358,,,,,,
Wet Seal,,7850 Mentor Ave,,Mentor,OH,44060,United States,(440) 205-9443,,,,,,
Wet Seal,,2200 S 10th St,,McAllen,TX,78503,United States,(956) 630-2277,,,,,,
Wet Seal,,2200 S 10th St # 17,,McAllen,TX,78503,United States,(956) 630-2277,,,,,,
Wet Seal,,378 Sunrise Mall,,Massapequa,NY,11758,United States,(516) 798-1040,,,,,,
Wet Seal,,1850 Adams St,,Mankato,MN,56001,United States,(507) 387-2305,,,,,,
Wet Seal,,604 Richland Mall,,Mansfield,OH,44906,United States,(419) 529-9838,,,,,,
Wet Seal,,1600 N Riverside Ave,,Medford,OR,97501,United States,(541) 282-9928,,,,,,
Wet Seal,,1225 Wisconsin Ave NW,,Washington,DC,20007,United States,(202) 298-6558,,,,,,
Wet Seal,,3661 Eisenhower Pkwy,,Macon,GA,31206,United States,(478) 405-5158,,,,,,
Wet Seal,,4403 Black Horse Pike # 214,,Mays Landing,NJ,08330,United States,(609) 677-0941,,,,,,
Wet Seal,,9401 W Colonial Dr # 532,,Ocoee,FL,34761,United States,(407) 532-0902,,,,,,
Wet Seal,,3201 Cornell Ave Ste M24,,Orlando,FL,32804,United States,(407) 896-0220,,,,,,
Wet Seal,,451 E Altamonte Dr # 2321,,Altamonte Springs,FL,32701,United States,(407) 834-4599,,,,,,
Wet Seal,,1475 Oviedo Marketplace B,,Oviedo,FL,32765,United States,(407) 977-6705,,,,,,
Wet Seal,,8001 S Orange Blossom Trl # 490,,Orlando,FL,32809,United States,(407) 855-6221,,,,,,
Wet Seal,,35 W Towne Mall,,Madison,WI,53719,United States,(608) 833-9444,,,,,,
Wet Seal,,1475 Oviedo Marketplace Blvd,,Oviedo,FL,32765,United States,(407) 977-6705,,,,,,
Wet Seal,,21 E Towne Mall,,Madison,WI,53704,United States,(608) 249-8669,,,,,,
Wet Seal,,1455 NW 107th Ave,,Miami,FL,33172,United States,(305) 594-7729,,,,,,
Wet Seal,,7535 SW 88th St Ste 1780,,Miami,FL,33156,United States,(305) 662-6102,,,,,,
Wet Seal,,401 Biscayne Blvd 100,,Miami,FL,33132,United States,(305) 372-8599,,,,,,
Wet Seal,,9501 Arlington Expy # 140,,Jacksonville,FL,32225,United States,(904) 721-2476,,,,,,
Wet Seal,,1910 Wells Rd,,Orange Park,FL,32073,United States,(904) 269-6656,,,,,,
Wet Seal,,33 S Owen Dr,,Madison,WI,53705,United States,(608) 833-9444,,,,,,
Wet Seal,,19501 Biscayne Blvd,,Miami,FL,33180,United States,(305) 933-0658,,,,,,
Wet Seal,,3001 S 144th St # 2112,,Omaha,NE,68144,United States,(402) 697-7144,,,,,,
Wet Seal,,10000 California St # 3665,,Omaha,NE,68114,United States,(402) 391-2559,,,,,,
Wet Seal,,10300 Southside Blvd,,Jacksonville,FL,32256,United States,(904) 363-3310,,,,,,
Wet Seal,,3001 S 144th St Ste 2112,,Omaha,NE,68144,United States,(402) 697-7144,,,,,,
Wet Seal,,1901 NW Expressway St # 2040,,Oklahoma City,OK,73118,United States,(405) 842-0063,,,,,,
Wet Seal,,2501 W Memorial Rd,,Oklahoma City,OK,73134,United States,(405) 751-6348,,,,,,
Wet Seal,,3651 Wall Ave,,Ogden,UT,84405,United States,(801) 621-0038,,,,,,
Wet Seal,,3651 Wall Ave 1080,,Ogden,UT,84405,United States,(801) 621-0038,,,,,,
Wet Seal,,5324 W Saginaw Hwy,,Lansing,MI,48917,United States,(517) 323-0042,,,,,,
Wet Seal,,1982 W Grand River Ave # 617,,Okemos,MI,48864,United States,(517) 347-5525,,,,,,
Wet Seal,,2070 Sam Rittenberg Blvd # 200,,Charleston,SC,29407,United States,(843) 571-4880,,,,,,
Wet Seal,,2150 Northwoods Blvd # H616,,North Charleston,SC,29406,United States,(843) 797-1492,,,,,,
Wet Seal,,2150 Northwoods Blvd,,Charleston,SC,29406,United States,(843) 797-1492,,,,,,
Wet Seal,,24242 Laguna Hills Mall,,Laguna Hills,CA,92653,United States,(949) 768-1757,,,,,,
Wet Seal,,7401 Market St,,Youngstown,OH,44512,United States,(330) 726-2666,,,,,,
Wet Seal,,1103 Newport Center Dr # E,,Newport Beach,CA,92660,United States,(949) 759-8790,,,,,,
Wet Seal,,1800 Galleria Blvd,,Franklin,TN,37067,United States,(615) 771-3787,,,,,,
Wet Seal,,7401 Market St # 725,,Youngstown,OH,44512,United States,(330) 726-2666,,,,,,
Wet Seal,,2070 Sam Rittenberg Blvd,,Charleston,SC,29407,United States,(843) 571-4880,,,,,,
Wet Seal,,5252 Hickory Hollow Pk # 1047,,Antioch,TN,37013,United States,(615) 731-0919,,,,,,
Wet Seal,,1824 Tamiami Trl N,,Naples,FL,34102,United States,(239) 403-4312,,,,,,
Wet Seal,,1900 Tamiami Trl E,,Naples,FL,34112,United States,(239) 263-6118,,,,,,
Wet Seal,,10000 California St # 3565,,Omaha,NE,68114,United States,(402) 391-2559,,,,,,
Wet Seal,,1000 Two Mile Pkwy,,Antioch,TN,37013,United States,(615) 731-0919,,,,,,
Wet Seal,,5000 Shelbyville Rd # 1525,,Louisville,KY,40207,United States,(502) 897-0800,,,,,,
Wet Seal,,1000 Rivergate Pkwy,,Goodlettsville,TN,37072,United States,(615) 859-5745,,,,,,
Wet Seal,,472 Opry Mills Dr,,Nashville,TN,37214,United States,(615) 514-7300,,,,,,
Wet Seal,,4212 Summit Plaza Dr,,Louisville,KY,40241,United States,(502) 339-6573,,,,,,
Wet Seal,,3500 Mccann Rd # H05,,Longview,TX,75605,United States,(903) 757-6525,,,,,,
Wet Seal,,3500 Mccann Rd,,Longview,TX,75605,United States,(903) 757-6525,,,,,,
Wet Seal,,5555 Youngstown Warren Rd,,Niles,OH,44446,United States,(330) 505-9084,,,,,,
Wet Seal,,6100 O St,,Lincoln,NE,68510,United States,(402) 464-2614,,,,,,
Wet Seal,,3811 S Cooper St Ste 1202,,Arlington,TX,76015,United States,(817) 472-7500,,,,,,
Wet Seal,,5215 W 117th St,,Leawood,KS,66211,United States,(913) 469-6490,,,,,,
Wet Seal,,1101 Melbourne Rd,,Hurst,TX,76053,United States,(817) 268-2229,,,,,,
Wet Seal,,3473 Nicholasville Rd,,Lexington,KY,40503,United States,(859) 271-9694,,,,,,
Wet Seal,,3401 Nchlsvlle Rd,,Lexington,KY,40503,United States,(859) 271-9374,,,,,,
Wet Seal,,2400 Elida Rd,,Lima,OH,45805,United States,(419) 225-8348,,,,,,
Wet Seal,,6000 W Markham St # 2102,,Little Rock,AR,72205,United States,(501) 663-9970,,,,,,
Wet Seal,,5300 San Dario Ave,,Laredo,TX,78041,United States,(956) 717-5166,,,,,,
Wet Seal,,3710 Us Highway 9 # 240,,Freehold,NJ,07728,United States,(732) 683-9823,,,,,,
Wet Seal,,400 Commons Way,,Bridgewater,NJ,08807,United States,(908) 575-0683,,,,,,
Wet Seal,,6000 W Markham St,,Little Rock,AR,72205,United States,(501) 663-9970,,,,,,
Wet Seal,,275 W Kaahumanu Ave,,Kahului,HI,96732,United States,(808) 877-3015,,,,,,
Wet Seal,,900 Front St B101,,Lahaina,HI,96761,United States,(808) 667-9117,,,,,,
Wet Seal,,214 Quaker Bridge Mall,,Lawrenceville,NJ,08648,United States,(609) 275-0970,,,,,,
Wet Seal,,533 Park City Ctr,,Lancaster,PA,17601,United States,(717) 390-1006,,,,,,
Wet Seal,,3200 Las Vegas Blvd S,,Las Vegas,NV,89109,United States,(702) 796-0344,,,,,,
Wet Seal,,3528 S Maryland Pkwy,,Las Vegas,NV,89109,United States,(702) 796-8859,,,,,,
Wet Seal,,1300 W Sunset Rd Ste 1241,,Henderson,NV,89014,United States,(702) 436-4040,,,,,,
Wet Seal,,3680 S Maryland Pkwy # 148,,Las Vegas,NV,89109,United States,(702) 369-5877,,,,,,
Wet Seal,,900 Front St # B101,,Lahaina,HI,96761,United States,(808) 667-9117,,,,,,
Wet Seal,,4300 Meadows Ln Ste 216,,Las Vegas,NV,89107,United States,(702) 870-1510,,,,,,
Wet Seal,,7400 Las Vegas Blvd S,,Las Vegas,NV,89123,United States,(702) 407-6821,,,,,,
Wet Seal,,496 W Prien Lake Rd,,Lake Charles,LA,70601,United States,(337) 562-8848,,,,,,
Wet Seal,,1300 W Sunset Rd # 1241,,Henderson,NV,89014,United States,(702) 436-4040,,,,,,
Wet Seal,,7600 Kingston Pike,,Knoxville,TN,37919,United States,(865) 531-9810,,,,,,
Wet Seal,,1401 W Esplanade Ave # 135,,Kenner,LA,70065,United States,(504) 468-1889,,,,,,
Wet Seal,,2100 SW S Young Dr # 1488,,Killeen,TX,76543,United States,(254) 690-7312,,,,,,
Wet Seal,,197 Westbank Expy,,Gretna,LA,70053,United States,(504) 368-5507,,,,,,
Wet Seal,,4211 Waialae Ave,,Honolulu,HI,96816,United States,(808) 737-1344,,,,,,
Wet Seal,,2011 N Roan St,,Johnson City,TN,37601,United States,(423) 282-6912,,,,,,
Wet Seal,,2415 Sagamore Pkwy S,,Lafayette,IN,47905,United States,(765) 448-6396,,,,,,
Wet Seal,,98-1005 Moanalua Rd # 509,,Aiea,HI,96701,United States,(808) 487-0522,,,,,,
Wet Seal,,1450 Ala Moana Blvd,,Honolulu,HI,96814,United States,(808) 941-9895,,,,,,
Wet Seal,,98-1005 Moanalua Rd,,Aiea,HI,96701,United States,(808) 486-1885,,,,,,
Wet Seal,,3180 NW Federal Hwy,,Jensen Beach,FL,34957,United States,(772) 692-2459,,,,,,
Wet Seal,,Pearlridge Cntr Phase II,,Aiea,HI,96701,United States,(808) 487-0522,,,,,,
Wet Seal,,46-056 Kamehameha Hwy,,Kaneohe,HI,96744,United States,(808) 235-0050,,,,,,
Wet Seal,,3700 Atlanta Hwy,,Athens,GA,30606,United States,(706) 552-3344,,,,,,
Wet Seal,,3 S Tunnel Rd,,Asheville,NC,28805,United States,(828) 299-7383,,,,,,
Wet Seal,,1540 Ala Moana Blvd,,Honolulu,HI,96814,United States,(808) 941-0553,,,,,,
Wet Seal,,4800 S Hulen St Ste 1054,,Fort Worth,TX,76132,United States,(817) 263-7000,,,,,,
Wet Seal,,4800 S Hulen St,,Fort Worth,TX,76132,United States,(817) 263-7000,,,,,,
Wet Seal,,3811 S Cooper St,,Arlington,TX,76015,United States,(817) 557-1709,,,,,,
Wet Seal,,11110 Mall Cir,,Waldorf,MD,20603,United States,(301) 374-9790,,,,,,
Wet Seal,,2036 Green Oaks Rd K17,,Fort Worth,TX,76116,United States,(817) 989-8067,,,,,,
Wet Seal,,3811 S Cooper St Ste 1042,,Arlington,TX,76015,United States,(817) 557-1709,,,,,,
Wet Seal,,320 W 5th Ave,,Anchorage,AK,99501,United States,(907) 272-0535,,,,,,
Wet Seal,,320 N Adams St,,Green Bay,WI,54301,United States,(920) 437-0382,,,,,,
Wet Seal,,4301 W Wisconsin Ave # 322,,Appleton,WI,54913,United States,(920) 991-0172,,,,,,
Wet Seal,,900 Bay Park Sq,,Green Bay,WI,54304,United States,(920) 490-1721,,,,,,
Wet Seal,,1100 Cardenas Dr SE B6,,Albuquerque,NM,87108,United States,(505) 883-9874,,,,,,
Wet Seal,,6600 Menaul Blvd NE # B6,,Albuquerque,NM,87110,United States,(505) 883-9874,,,,,,
Wet Seal,,3333 Buford Dr,,Buford,GA,30519,United States,(770) 614-6382,,,,,,
Wet Seal,,793 Iyannough Rd # 130,,Hyannis,MA,02601,United States,(508) 778-2750,,,,,,
Wet Seal,,4310 Buffalo Gap Rd,,Abilene,TX,79606,United States,(325) 793-1042,,,,,,
Wet Seal,,4301 W Wisconsin Ave,,Appleton,WI,54913,United States,(920) 991-0172,,,,,,
Wet Seal,,10000 Coors Byp NW # E235,,Albuquerque,NM,87114,United States,(505) 898-6632,,,,,,
Wet Seal,,Mall At Abiline,,Abilene,TX,79606,United States,(325) 793-1042,,,,,,
Wet Seal,,7701 W Interstate 40 # 336,,Amarillo,TX,79121,United States,(806) 351-0930,,,,,,
Wet Seal,,2801 S Memorial Pkwy,,Huntsville,AL,35801,United States,(256) 519-4438,,,,,,
Wet Seal,,7701 I H 40 W Ste 336,,Amarillo,TX,79106,United States,(806) 351-0930,,,,,,
Wet Seal,,4230 Belden Village St NW,,Canton,OH,44718,United States,(330) 491-1825,,,,,,
Wet Seal,,220 Goods Ln,,Altoona,PA,16602,United States,(814) 941-6266,,,,,,
Wet Seal,,100 Columbiana Cir # 1114,,Columbia,SC,29212,United States,(803) 732-2477,,,,,,
Wet Seal,,5488 S Padre Island Dr # 1626,,Corpus Christi,TX,78411,United States,(361) 985-0248,,,,,,
Wet Seal,,709 E Shaw Ave,,Fresno,CA,93710,United States,(559) 227-2401,,,,,,
Wet Seal,,1050 Shaw Ave # 1077,,Clovis,CA,93612,United States,(559) 299-5131,,,,,,
Wet Seal,,9477 Colerain Ave,,Cincinnati,OH,45251,United States,(513) 245-2582,,,,,,
Wet Seal,,1451 Coral Ridge Ave # 131,,Coralville,IA,52241,United States,(319) 338-8210,,,,,,
Wet Seal,,11700 Princeton Pike # B210,,Cincinnati,OH,45246,United States,(513) 671-7173,,,,,,
Wet Seal,,1710 Brrgate Blvd Ste 131,,Colorado Springs,CO,80920,United States,(719) 266-8482,,,,,,
Wet Seal,,2010 Florence Mall,,Florence,KY,41042,United States,(859) 746-9106,,,,,,
Wet Seal,,1628 Rio Rd E,,Charlottesville,VA,22901,United States,(434) 973-8721,,,,,,
Wet Seal,,1950 E 20th St # 715,,Chico,CA,95928,United States,(530) 893-1704,,,,,,
Wet Seal,,11700 Princeton Pike,,Cincinnati,OH,45246,United States,(513) 671-7173,,,,,,
Wet Seal,,1500 Harvey Rd,,College Station,TX,77840,United States,(979) 696-1914,,,,,,
Wet Seal,,1600 Rio Rd E,,Charlottesville,VA,22901,United States,(434) 973-8721,,,,,,
Wet Seal,,1123 Emmet St N,,Charlottesville,VA,22903,United States,(434) 245-9160,,,,,,
Wet Seal,,3000 Charleston Town Ctr,,Charleston,WV,25389,United States,(304) 342-7506,,,,,,
Wet Seal,,294 City Center Dr,,Columbus,OH,43215,United States,(614) 464-3163,,,,,,
Wet Seal,,2100 Hamilton Place Blvd,,Chattanooga,TN,37421,United States,(423) 553-1181,,,,,,
Wet Seal,,294 Columbus City Center Dr,,Columbus,OH,43215,United States,(614) 224-0411,,,,,,
Wet Seal,,4712 Morse Rd,,Columbus,OH,43230,United States,(614) 471-9603,,,,,,
Wet Seal,,130 Easton Town Ctr,,Columbus,OH,43219,United States,(614) 418-5915,,,,,,
Wet Seal,,5043 Tuttle Crossing Blvd,,Dublin,OH,43016,United States,(614) 336-9511,,,,,,
Wet Seal,,5043 Tuttle Crossing Blvd #124,,Dublin,OH,43016,United States,(614) 336-9511,,,,,,
Wet Seal,,3701 Mckinley Pkwy # 839,,Buffalo,NY,14219,United States,(716) 821-1485,,,,,,
Wet Seal,,4080 The Strand E,,Columbus,OH,43219,United States,(614) 471-9378,,,,,,
Wet Seal,,1 Galleria Dr,,Cheektowaga,NY,14225,United States,(716) 681-0293,,,,,,
Wet Seal,,7875 Montgomery Rd,,Cincinnati,OH,45236,United States,(513) 984-2474,,,,,,
Wet Seal,,1710 Briargate Blvd # 131,,Colorado Springs,CO,80920,United States,(719) 266-8482,,,,,,
Wet Seal,,5486 Padre Staples Mall,,Corpus Christi,TX,78411,United States,(361) 985-0248,,,,,,
Wet Seal,,1500 Polaris Pkwy,,Columbus,OH,43240,United States,(614) 846-2916,,,,,,
Wet Seal,,750 Citadel Dr E Ste 1116,,Colorado Springs,CO,80909,United States,(719) 574-9440,,,,,,
Wet Seal,,3320 Silas Creek Pkwy,,Winston Salem,NC,27103,United States,(336) 794-1070,,,,,,
Wet Seal,,2424 Highway 6 And 50,,Grand Junction,CO,81505,United States,(970) 255-1618,,,,,,
Wet Seal,,148 Four Seasons Town Ctr,,Greensboro,NC,27407,United States,(336) 299-1844,,,,,,
Wet Seal,,3320 Silas Creek Pkwy # 3332,,Winston Salem,NC,27103,United States,(336) 794-1070,,,,,,
Wet Seal,,6613 W Newberry Rd,,Gainesville,FL,32605,United States,(352) 331-8400,,,,,,
Wet Seal,,180 State Route 35 S # 3208,,Eatontown,NJ,07724,United States,(732) 389-2700,,,,,,
Wet Seal,,4125 Cleveland Ave,,Fort Myers,FL,33901,United States,(239) 275-6313,,,,,,
Wet Seal,,4125 Cleveland Ave # 216,,Fort Myers,FL,33901,United States,(239) 275-6313,,,,,,
Wet Seal,,4201 N Shiloh Dr 210,,Fayetteville,AR,72703,United States,(479) 442-2529,,,,,,
Wet Seal,,45 Westfarms Mall E-105,,Farmington,CT,06032,United States,(860) 313-0253,,,,,,
Wet Seal,,3902 13th Ave S,,Fargo,ND,58103,United States,(701) 277-7002,,,,,,
Wet Seal,,1350 Travis Blvd,,Fairfield,CA,94533,United States,(707) 422-0435,,,,,,
Wet Seal,,4201 N Shiloh Dr # 210,,Fayetteville,AR,72703,United States,(479) 442-2529,,,,,,
Wet Seal,,3300 Broadway St # 530,,Eureka,CA,95501,United States,(707) 443-8726,,,,,,
Wet Seal,,8401 Gateway Blvd W,,El Paso,TX,79925,United States,(915) 781-2200,,,,,,
Wet Seal,,654 Millcreek Mall,,Erie,PA,16565,United States,(814) 868-3997,,,,,,
Wet Seal,,3341 S Linden Rd,,Flint,MI,48507,United States,(810) 733-3195,,,,,,
Wet Seal,,800 N Green River Rd,,Evansville,IN,47715,United States,(812) 476-4470,,,,,,
Wet Seal,,1600 Miller Trunk Hwy,,Duluth,MN,55811,United States,(218) 727-4340,,,,,,
Wet Seal,,1365 N Dupont Hwy # 3054,,Dover,DE,19901,United States,(302) 734-7205,,,,,,
Wet Seal,,4800 Golf Rd # 422,,Eau Claire,WI,54701,United States,(715) 832-0581,,,,,,
Wet Seal,,1365 N Dupont Hwy,,Dover,DE,19901,United States,(302) 734-7205,,,,,,
Wet Seal,,4800 Golf Rd,,Eau Claire,WI,54701,United States,(715) 832-0581,,,,,,
Wet Seal,,4112 Legendary Dr,,Destin,FL,32541,United States,(850) 650-8651,,,,,,
Wet Seal,,1700 W Intl Spdwy,,Daytona Beach,FL,32114,United States,(386) 257-7806,,,,,,
Wet Seal,,320 W Kimberly Rd,,Davenport,IA,52806,United States,(563) 445-0959,,,,,,
Wet Seal,,2370 N Expressway,,Brownsville,TX,78526,United States,(956) 547-8282,,,,,,
Wet Seal,,2950 E Texas St,,Bossier City,LA,71111,United States,(318) 746-6460,,,,,,
Wet Seal,,350 N Milwaukee St # 2092,,Boise,ID,83704,United States,(208) 685-6702,,,,,,
Wet Seal,,2370 N Expressway # 1200,,Brownsville,TX,78526,United States,(956) 547-8282,,,,,,
Wet Seal,,2370 N Expressway 1200,,Brownsville,TX,78526,United States,(956) 547-8282,,,,,,
Wet Seal,,2000126 Rvrchase Gllria,,Birmingham,AL,35244,United States,(205) 987-7939,,,,,,
Wet Seal,,2894 E 3rd St,,Bloomington,IN,47401,United States,(812) 339-8342,,,,,,
Wet Seal,,300 S 24th St W,,Billings,MT,59102,United States,(406) 652-2364,,,,,,
Wet Seal,,6155 Eastex Fwy # 558,,Beaumont,TX,77706,United States,(409) 924-8730,,,,,,
Wet Seal,,2700 Miamisburg Centerville Rd,,Dayton,OH,45459,United States,(937) 428-7857,,,,,,
Wet Seal,,200 Prkdale Mall Ste E558,,Beaumont,TX,77706,United States,(409) 924-8730,,,,,,
Wet Seal,,2727 N Fairfield Rd,,Beavercreek,OH,45431,United States,(937) 429-7740,,,,,,
Wet Seal,,2700 Mmsburg Cntrville Rd,,Dayton,OH,45459,United States,(937) 428-7857,,,,,,
Wet Seal,,3000 Mall View Rd # 1097,,Bakersfield,CA,93306,United States,(661) 872-1610,,,,,,
Wet Seal,,9631 Cortana Pl,,Baton Rouge,LA,70815,United States,(225) 926-0001,,,,,,
Wet Seal,,4600 W Kellogg Dr # Q9,,Wichita,KS,67209,United States,(316) 945-2055,,,,,,
Wet Seal,,273 Lehigh Valley Mall,,Whitehall,PA,18052,United States,(610) 264-4330,,,,,,
Wet Seal,,Richland Mall,,Waco,TX,76710,United States,(254) 399-8603,,,,,,
Wet Seal,,6001 W Waco Dr,,Waco,TX,76710,United States,(254) 399-8603,,,,,,
