store_name,store_number,address,address2,city,state,zip_code,country,phone_number,latitude,longitude,store_hours,store_type,other_fields,coming_soon
The Source,,4804 39 St,,St. Paul,AB,T0A3A2,Canada,780 645-2167,,,"Su 12:00-17:00, Mo 10:00-18:00, Tu 10:00-18:00, We 10:00-18:00, Th 10:00-21:00, Fr 10:00-21:00, Sa 09:30-17:30",LocalBusiness,,
TNT Digital Systems,,4333 50 Ave.,,St. Paul,AB,T0A3A3,Canada,780 645-5519,,,"Mo 09:00-18:00, Tu 09:00-18:00, We 09:00-18:00, Th 09:00-18:00, Fr 09:00-18:00",LocalBusiness,,
The Source,,5201 50th Ave.,,Bonnyville,AB,T9N1X7,Canada,780 826-4308,,,"Su 11:00-17:00, Mo 10:00-18:00, Tu 10:00-18:00, We 10:00-18:00, Th 10:00-21:00, Fr 10:00-21:00, Sa 10:00-18:00",LocalBusiness,,
Connected Cellular,,4910 50th Ave,,Cold Lake,AB,T9M1P3,Canada,780 594-0887,,,"Mo 09:00-19:00, Tu 09:00-18:00, We 10:00-18:00, Th 09:00-19:00, Fr 09:00-19:00, Sa 09:00-17:00",LocalBusiness,,
The Source,,6503 51 St.,,Cold Lake,AB,T9M1C8,Canada,780 594-0408,,,"Su 10:00-18:00, Mo 09:30-21:00, Tu 09:30-21:00, We 09:30-21:00, Th 09:30-21:00, Fr 09:30-21:00, Sa 09:30-21:00",LocalBusiness,,
The Source,,6817 Hwy 16A W,,Vegreville,AB,T9C0A7,Canada,780 632-6637,,,"Su 12:00-17:00, Mo 10:00-18:00, Tu 10:00-18:00, We 10:00-18:00, Th 10:00-20:00, Fr 10:00-20:00, Sa 10:00-18:00",LocalBusiness,,
Innovative Wireless,,6109 50 Ave,,Vegreville,AB,T9C2R3,Canada,780 606-0073,,,"Mo 09:30-19:00, Tu 09:30-19:00, We 09:30-19:00, Th 09:30-19:00, Fr 09:30-19:00",LocalBusiness,,
Audio Video Unlimited,,3810 48 Ave.,,Camrose,AB,T4V3Z8,Canada,780 672-2225,,,"Mo 09:00-18:00, Tu 09:00-18:00, We 09:00-18:00, Th 09:00-21:00, Fr 09:00-21:00, Sa 10:00-17:00",LocalBusiness,,
Elite Mobility,,6601 48 Ave,,Camrose,AB,T4V3G8,Canada,780 679-0056,,,"Mo 09:00-18:00, Tu 09:00-18:00, We 09:00-18:00, Th 09:30-20:00, Fr 09:30-20:00, Sa 09:00-18:00",LocalBusiness,,
The Source,,6800 48 Ave.,,Camrose,AB,T4V4T1,Canada,780 672-3352,,,"Su 12:00-18:00, Mo 10:00-18:00, Tu 10:00-18:00, We 10:00-18:00, Th 10:00-20:00, Fr 10:00-20:00, Sa 10:00-18:00",LocalBusiness,,
The Source,,4910 50 St.,,Forestburg,AB,T0B1N0,Canada,780 582-3501,,,"Mo 09:00-17:00, Tu 09:00-17:00, We 09:00-17:00, Th 09:00-17:00, Fr 09:00-17:00, Sa 10:00-17:00",LocalBusiness,,
Bell,,5211 44 St.,,Lloydminster,AB,T9V0A7,Canada,780 872-5014,,,"Su 12:00-17:00, Mo 10:00-18:00, Tu 10:00-18:00, We 10:00-21:00, Th 10:00-21:00, Fr 10:00-21:00, Sa 10:00-18:00",LocalBusiness,,
Feel Like Talking Connections,,4100 70th Avenue,,Lloydminster,AB,T9V2X3,Canada,780 874-1114,,,"Su 11:00-17:00, Mo 10:00-18:00, Tu 10:00-18:00, We 10:00-18:00, Th 10:00-18:00, Fr 10:00-18:00, Sa 10:00-17:00",LocalBusiness,,
Logan's Audio Video,,1282 100 St,,North Battleford,SK,S9A0V7,Canada,306 446-2112,,,"Mo 10:00-18:00, Tu 10:00-18:00, We 10:00-18:00, Th 10:00-18:00, Fr 10:00-18:00, Sa 09:00-17:00",LocalBusiness,,
The Source,,4819 Herald Street,,Macklin,SK,S0L2C0,Canada,306 753-2227,,,"Mo 10:00-17:30, Tu 10:00-17:30, We 10:00-17:30, Th 10:00-17:30, Fr 10:00-17:30, Sa 10:00-15:00",LocalBusiness,,
The Source,,608 12 Ave. E,,Kindersley,SK,S0L1S2,Canada,306 463-1501,,,"Mo 09:00-18:00, Tu 09:00-18:00, We 09:00-18:00, Th 09:00-21:00, Fr 09:00-18:00, Sa 09:00-18:00",LocalBusiness,,
The Source,,40 2840-13th Ave.,,Wainwright,AB,T9W0A2,Canada,780 842-4253,,,"Su 12:00-17:00, Mo 10:00-19:00, Tu 10:00-19:00, We 10:00-19:00, Th 10:00-21:00, Fr 10:00-21:00, Sa 10:00-18:00",LocalBusiness,,
The Source,,7005 44 St.,,Lloydminster,AB,T9V2G6,Canada,780 875-1288,,,"Su 12:00-17:00, Mo 10:00-18:00, Tu 10:00-18:00, We 10:00-18:00, Th 10:00-21:00, Fr 10:00-21:00, Sa 10:00-19:00",LocalBusiness,,
The Source,,11421 Railway Ave.,,North Battleford,SK,S9A3G8,Canada,306 445-5530,,,"Su 12:00-17:00, Mo 09:30-18:00, Tu 09:30-18:00, We 09:30-18:00, Th 09:30-21:00, Fr 09:30-18:00, Sa 09:30-18:00",LocalBusiness,,
Audio Video Unlimited,,4520 44 St.,,Lloydminster,SK,S9V0G3,Canada,306 825-2277,,,"Tu 09:00-18:00, We 09:00-18:00, Th 09:00-18:00, Fr 09:00-18:00, Sa 09:00-17:00",LocalBusiness,,
The Source,,5036 50th St,,Barrhead,AB,T7N1G4,Canada,780 674-2815,,,"Mo 10:00-18:00, Tu 10:00-18:00, We 10:00-18:00, Th 10:00-18:00, Fr 10:00-18:00, Sa 10:00-18:00",LocalBusiness,,
The Source,,131 Century Cross.,,Spruce Grove,AB,T7X0C8,Canada,780 962-5965,,,"Su 12:00-17:00, Mo 10:00-21:00, Tu 10:00-21:00, We 10:00-21:00, Th 10:00-21:00, Fr 10:00-21:00, Sa 09:30-18:00",LocalBusiness,,
The Source,,4914 50 Ave.,,Stony Plain,AB,T7Z1S9,Canada,780 963-9231,,,"Mo 09:00-18:00, Tu 09:00-18:00, We 09:00-18:00, Th 09:00-21:00, Fr 09:00-21:00, Sa 10:00-17:00",LocalBusiness,,
Stony AVU,,75 Boulder Blvd.,,Stony Plain,AB,T7Z1V6,Canada,780 963-3119,,,"Mo 09:00-18:00, Tu 09:00-18:00, We 09:00-18:00, Th 09:00-18:00, Fr 09:00-18:00, Sa 09:00-17:00",LocalBusiness,,
Bell,,100 Jennifer Heil Way,,Spruce Grove,AB,T7X4B8,Canada,780 962-0456,,,"Su 11:00-17:00, Mo 10:00-21:00, Tu 10:00-21:00, We 10:00-21:00, Th 10:00-21:00, Fr 10:00-21:00, Sa 10:00-18:00",LocalBusiness,,
The Source,,10015 107 St.,,Westlock,AB,T7P2J5,Canada,780 349-4416,,,"Su 12:00-17:00, Mo 10:00-18:00, Tu 10:00-18:00, We 10:00-18:00, Th 10:00-20:00, Fr 10:00-20:00, Sa 10:00-18:00",LocalBusiness,,
Bell,,375 St Albert Trail,,St. Albert,AB,T8N3K8,Canada,780 458-1696,,,"Su 12:00-17:00, Mo 10:00-21:00, Tu 10:00-21:00, We 10:00-21:00, Th 10:00-21:00, Fr 10:00-21:00, Sa 09:30-17:30",LocalBusiness,,
The Source,,375 St. Albert Trail,,St. Albert,AB,T8N3K8,Canada,780 470-5047,,,"Su 12:00-17:00, Mo 10:00-21:00, Tu 10:00-21:00, We 10:00-21:00, Th 10:00-21:00, Fr 10:00-21:00, Sa 09:30-17:30",LocalBusiness,,
Visions Electronics,,525 St. Albert Trail,,St. Albert,AB,T8N4J8,Canada,780 488-8155,,,"Su 11:00-18:00, Mo 10:00-21:00, Tu 10:00-21:00, We 10:00-21:00, Th 10:00-21:00, Fr 10:00-21:00, Sa 09:30-18:00",LocalBusiness,,
Bell,,140 St Albert Trail,,St. Albert,AB,T8N7C8,Canada,780 460-2668,,,"Su 12:00-16:00, Mo 10:00-18:00, Tu 10:00-18:00, We 10:00-20:00, Th 10:00-20:00, Fr 10:00-20:00, Sa 11:00-18:00",LocalBusiness,,
Bell,,18559 Stony Plain Rd.,,Edmonton,AB,T5S2X6,Canada,780 644-9930,,,"Su 12:00-17:00, Mo 10:00-21:00, Tu 10:00-21:00, We 10:00-21:00, Th 10:00-21:00, Fr 10:00-21:00, Sa 10:00-18:00",LocalBusiness,,
Double Diamonds Electronics,,12210 163 St. NW,,Edmonton,AB,T5V1S2,Canada,780 443-4990,,,"Mo 07:30-16:00, Tu 07:30-16:00, We 07:30-16:00, Th 07:30-16:00, Fr 07:30-16:00, Sa 07:30-16:00",LocalBusiness,,
Bell,,13663 St. Albert Trail,,Edmonton,AB,T5L5E7,Canada,780 409-8345,,,"Mo 10:00-18:00, Tu 10:00-18:00, We 10:00-18:00, Th 10:00-18:00, Fr 10:00-18:00",LocalBusiness,,
Visions Electronics,,10421 170 St.,,Edmonton,AB,T5P4T2,Canada,780 489-3799,,,"Su 11:00-18:00, Mo 10:00-21:00, Tu 10:00-21:00, We 10:00-21:00, Th 10:00-21:00, Fr 10:00-21:00, Sa 09:30-18:00",LocalBusiness,,
Bell,,17551 100 Ave. NW,,Edmonton,AB,T5S2B8,Canada,780 498-0069,,,"Su 12:00-17:00, Mo 10:00-18:00, Tu 10:00-18:00, We 10:00-18:00, Th 10:00-18:00, Fr 10:00-18:00, Sa 10:00-17:30",LocalBusiness,,
Computer Trends,,10008 170 St. NW,,Edmonton,AB,T5S2H3,Canada,780 444-2236,,,"Su 12:00-17:00, Mo 09:30-20:00, Tu 09:30-20:00, We 09:30-20:00, Th 09:30-20:00, Fr 09:30-20:00, Sa 09:30-18:00",LocalBusiness,,
Bell,,9774 170 St. NW,,Edmonton,AB,T5T5L9,Canada,780 443-2345,,,"Su 11:00-17:00, Mo 09:30-20:30, Tu 09:30-20:30, We 09:30-20:30, Th 09:30-20:30, Fr 09:30-20:30, Sa 10:00-18:00",LocalBusiness,,
The Source,,8882 170 St. NW,,Edmonton,AB,T5T3J7,Canada,780 484-6658,,,"Su 11:00-17:00, Mo 10:00-21:00, Tu 10:00-21:00, We 10:00-21:00, Th 10:00-21:00, Fr 10:00-21:00, Sa 10:00-21:00",LocalBusiness,,
The Source,,8882 170 St. NW,,Edmonton,AB,T5T4J2,Canada,780 486-4346,,,"Su 11:00-18:00, Mo 10:00-21:00, Tu 10:00-21:00, We 10:00-21:00, Th 10:00-21:00, Fr 10:00-21:00, Sa 10:00-21:00",LocalBusiness,,
Bell,,"8882 170 St. NW, Suite 2880",,Edmonton,AB,T5T4M2,Canada,780 444-5926,,,"Su 11:00-17:00, Mo 10:00-21:00, Tu 10:00-21:00, We 10:00-21:00, Th 10:00-21:00, Fr 10:00-21:00, Sa 10:00-21:00",LocalBusiness,,
The Source,,4331 52 Ave.,,Whitecourt,AB,T7S1X6,Canada,780 778-5483,,,"Su 12:00-17:00, Mo 09:30-18:00, Tu 09:30-18:00, We 09:30-18:00, Th 09:30-18:00, Fr 09:30-21:00, Sa 09:30-18:00",LocalBusiness,,
Innovative Wireless,,3815 Caxton St,,Whitecourt,AB,T7S1R2,Canada,780 600-0447,,,"Mo 09:30-19:00, Tu 09:30-19:00, We 09:30-19:00, Th 09:30-19:00, Fr 09:30-19:00",LocalBusiness,,
The Source,,20 Commercial Crt.,,Fox Creek,AB,T0H1P0,Canada,780 622-3001,,,"Mo 09:00-18:00, Tu 09:00-18:00, We 09:00-18:00, Th 09:00-21:00, Fr 09:00-21:00, Sa 10:00-17:00",LocalBusiness,,
Nuwave Wireless,,118 49th Street,,Edson,AB,T7E1V2,Canada,780 723-3794,,,"Mo 08:30-17:30, Tu 08:30-17:30, We 08:30-17:30, Th 08:30-19:00, Fr 08:30-17:30, Sa 10:30-15:00",LocalBusiness,,
The Source,,408 50 St.,,Edson,AB,T7E1T8,Canada,780 723-3570,,,"Mo 08:30-18:00, Tu 08:30-18:00, We 08:30-18:00, Th 08:30-18:00, Fr 08:30-18:00, Sa 10:00-16:00",LocalBusiness,,
The Source,,104 4 Ave. SW,,Manning,AB,T0H2M0,Canada,780 836-3810,,,"Mo 09:00-17:30, Tu 09:00-17:30, We 09:00-17:30, Th 09:00-17:30, Fr 09:00-17:30, Sa 10:00-15:00",LocalBusiness,,
Bell,,10032 100 St.,,Peace River,AB,T8S1S2,Canada,780 624-1050,,,"Mo 09:30-18:00, Tu 09:30-18:00, We 09:30-18:00, Th 09:30-18:00, Fr 09:30-18:00, Sa 09:30-17:00",LocalBusiness,,
Beyond 2000,,5314 50 St.,,Grimshaw,AB,T0H1W0,Canada,780 332-2012,,,"Mo 09:00-18:00, Tu 09:00-18:00, We 09:00-18:00, Th 09:00-18:00, Fr 09:00-18:00, Sa 10:00-16:00",LocalBusiness,,
ICT Solutions,,5115 50th St,,High Prairie,AB,T0G1E0,Canada,780 523-3330,,,"Mo 09:00-18:00, Tu 09:00-18:00, We 09:00-18:00, Th 09:00-18:00, Fr 09:00-18:00, Sa 12:00-17:00",LocalBusiness,,
Bell,,3292 Dunmore Rd. SE,,Medicine Hat,AB,T1B2R4,Canada,403 488-7021,,,"Su 11:00-17:00, Mo 10:00-21:00, Tu 10:00-21:00, We 10:00-21:00, Th 10:00-21:00, Fr 10:00-21:00, Sa 09:30-18:00",LocalBusiness,,
The Source,,3292 Dunmore Rd. SE,,Medicine Hat,AB,T1B2R4,Canada,403 527-6773,,,"Su 11:00-17:00, Mo 10:00-21:00, Tu 10:00-21:00, We 10:00-21:00, Th 10:00-21:00, Fr 10:00-21:00, Sa 09:30-18:00",LocalBusiness,,
The Source,,20 Northlands Way NE Bay 103,,Medicine Hat,AB,T1C1Z2,Canada,403 488-4405,,,"Su 12:00-17:00, Mo 10:00-19:00, Tu 10:00-19:00, We 10:00-19:00, Th 10:00-20:00, Fr 10:00-20:00, Sa 10:00-18:00",LocalBusiness,,
Visions Electronics,,1930 Strachan Rd. SE,,Medicine Hat,AB,T1B4K4,Canada,403 526-2999,,,"Su 11:00-18:00, Mo 10:00-21:00, Tu 10:00-21:00, We 10:00-21:00, Th 10:00-21:00, Fr 10:00-21:00, Sa 09:30-18:00",LocalBusiness,,
Bell,,3728 Mayor Magrath Dr. S,,Lethbridge,AB,T1K7V1,Canada,403 388-4667,,,"Su 11:00-17:00, Mo 09:00-21:00, Tu 09:00-21:00, We 09:00-21:00, Th 09:00-21:00, Fr 09:00-21:00, Sa 10:00-18:00",LocalBusiness,,
Bell,,501 1 Ave. S,,Lethbridge,AB,T1J4L9,Canada,403 388-7021,,,"Su 12:00-17:00, Mo 10:00-21:00, Tu 10:00-21:00, We 10:00-21:00, Th 10:00-21:00, Fr 10:00-21:00, Sa 10:00-21:00",LocalBusiness,,
Feel Like Talking Connections,,2037 Mayor Magrath Dr S,,Lethbridge,AB,T1K2S2,Canada,587 425-3000,,,"Su 11:00-17:00, Mo 09:30-20:00, Tu 09:30-20:00, We 09:30-20:00, Th 09:30-20:00, Fr 09:30-20:00, Sa 10:00-18:00",LocalBusiness,,
The Source,,501 1 Ave. S,,Lethbridge,AB,T1J4L9,Canada,403 328-1179,,,"Su 12:00-17:00, Mo 10:00-21:00, Tu 10:00-21:00, We 10:00-21:00, Th 10:00-21:00, Fr 10:00-21:00, Sa 10:00-21:00",LocalBusiness,,
Computer Trends,,1336 1300 Mayor Magrath Dr.,,Lethbridge,AB,T1K2R2,Canada,403 327-3999,,,"Su 12:00-17:00, Mo 09:30-20:00, Tu 09:30-20:00, We 09:30-20:00, Th 09:30-20:00, Fr 09:30-20:00, Sa 09:30-18:00",LocalBusiness,,
Visions Electronics,,3040 Fairview St. S,,Lethbridge,AB,T1K6T9,Canada,403 320-2333,,,"Su 11:00-18:00, Mo 10:00-21:00, Tu 10:00-21:00, We 10:00-21:00, Th 10:00-21:00, Fr 10:00-21:00, Sa 09:30-18:00",LocalBusiness,,
PTT Wireless,,3709 Mayor Magrath Dr. S,,Lethbridge,AB,T1K8A8,Canada,403 381-3305,,,"Su 12:00-17:00, Mo 09:00-18:00, Tu 09:00-18:00, We 09:00-18:00, Th 09:00-21:00, Fr 09:00-21:00, Sa 09:00-17:30",LocalBusiness,,
The Source,,4080 3 St. E,,Claresholm,AB,T0L0T0,Canada,403 625-2501,,,"Mo 09:00-18:00, Tu 09:00-18:00, We 09:00-18:00, Th 09:00-21:00, Fr 09:00-21:00, Sa 10:00-17:00",LocalBusiness,,
The Source,,2422 3 Ave.,,Fort Macleod,AB,T0L0Z0,Canada,403 553-3320,,,"Mo 09:00-18:00, Tu 09:00-18:00, We 09:00-18:00, Th 09:00-21:00, Fr 09:00-21:00, Sa 10:00-17:00",LocalBusiness,,
The Source,,806 Main St.,,Pincher Creek,AB,T0K1W0,Canada,403 627-4088,,,"Su 12:00-17:00, Mo 10:00-18:00, Tu 10:00-18:00, We 10:00-18:00, Th 10:00-20:00, Fr 10:00-20:00, Sa 10:00-18:00",LocalBusiness,,
Bell,,420-5001 19th St,,Red Deer,AB,T4R3R1,Canada,403 309-9400,,,"Su 11:00-17:00, Mo 10:00-20:00, Tu 10:00-20:00, We 10:00-20:00, Th 10:00-20:00, Fr 10:00-20:00, Sa 10:00-18:00",LocalBusiness,,
Bell,,4900 Molly Banister Dr.,,Red Deer,AB,T4R1N9,Canada,403 755-7042,,,"Su 11:00-17:00, Mo 09:30-21:00, Tu 09:30-21:00, We 09:30-21:00, Th 09:30-21:00, Fr 09:30-21:00, Sa 09:30-21:00",LocalBusiness,,
Bell,,4747 67 St.,,Red Deer,AB,T4N6H3,Canada,403 755-7020,,,"Su 11:00-17:00, Mo 09:30-21:00, Tu 09:30-21:00, We 09:30-21:00, Th 09:30-21:00, Fr 09:30-21:00, Sa 09:30-18:00",LocalBusiness,,
Otto's Electric,,5101 49th Ave,,Olds,AB,T4H1E7,Canada,403 556-3477,,,"Mo 09:00-17:00, Tu 09:00-18:00, We 09:00-18:00, Th 09:00-18:00, Fr 09:00-18:00, Sa 10:00-17:00",LocalBusiness,,
The Source,,4804 50 St.,,Innisfail,AB,T4G1C2,Canada,403 227-2538,,,"Su 12:00-17:00, Mo 09:30-18:00, Tu 09:30-18:00, We 09:30-18:00, Th 09:30-18:00, Fr 09:30-18:00, Sa 09:30-18:00",LocalBusiness,,
The Source,,4900 Molly Bannister Dr.,,Red Deer,AB,T4R1N9,Canada,403 346-7566,,,"Su 11:00-17:00, Mo 09:30-21:00, Tu 09:30-21:00, We 09:30-21:00, Th 09:30-21:00, Fr 09:30-21:00, Sa 09:30-21:00",LocalBusiness,,
The Source,,6700 46 St.,,Olds,AB,T4H0A2,Canada,403 556-2749,,,"Su 12:00-17:00, Mo 10:00-19:00, Tu 10:00-19:00, We 10:00-19:00, Th 10:00-19:00, Fr 10:00-19:00, Sa 10:00-19:00",LocalBusiness,,
The Source,,4747 67th St.,,Red Deer,AB,T4N6H3,Canada,403 314-4430,,,"Su 11:00-17:00, Mo 09:30-21:00, Tu 09:30-21:00, We 09:30-21:00, Th 09:30-21:00, Fr 09:30-21:00, Sa 09:30-18:00",LocalBusiness,,
The Source,,3715 47 Ave.,,Sylvan Lake,AB,T4S0C8,Canada,403 887-2854,,,"Su 12:00-17:00, Mo 10:00-18:00, Tu 10:00-18:00, We 10:00-18:00, Th 10:00-19:00, Fr 10:00-19:00, Sa 10:00-18:00",LocalBusiness,,
Visions Electronics,,2119 50th Ave.,,Red Deer,AB,T4R1Z4,Canada,403 340-1750,,,"Su 11:00-18:00, Mo 10:00-21:00, Tu 10:00-21:00, We 10:00-21:00, Th 10:00-21:00, Fr 10:00-21:00, Sa 09:30-18:00",LocalBusiness,,
Computer Trends,,2310 Gaetz Ave.,,Red Deer,AB,T4R1C5,Canada,403 309-2100,,,"Su 12:00-17:00, Mo 09:30-20:00, Tu 09:30-20:00, We 09:30-20:00, Th 09:30-20:00, Fr 09:30-20:00, Sa 09:30-18:00",LocalBusiness,,
Bell,,9713 Hardin St.,,Fort McMurray,AB,T9H1L2,Canada,780 747-7014,,,"Su 12:00-17:00, Mo 10:00-21:00, Tu 10:00-21:00, We 10:00-21:00, Th 10:00-21:00, Fr 10:00-21:00, Sa 10:00-18:00",LocalBusiness,,
Bell,,19 Riedel St.,,Fort McMurray,AB,T9H5P8,Canada,780 747-8023,,,"Su 11:00-17:00, Mo 10:00-20:00, Tu 10:00-20:00, We 10:00-20:00, Th 10:00-21:00, Fr 10:00-21:00, Sa 10:00-18:00",LocalBusiness,,
Bell,,108 Riverstone Ridge,,Fort McMurray,AB,T9K1S6,Canada,587 537-9229,,,"Su 11:00-17:00, Mo 10:00-18:00, Tu 10:00-18:00, We 10:00-18:00, Th 10:00-21:00, Fr 10:00-21:00, Sa 10:00-18:00",LocalBusiness,,
The Source,,9713 Hardin St.,,Fort McMurray,AB,T9H1L2,Canada,780 743-2399,,,"Su 12:00-17:00, Mo 10:00-18:00, Tu 10:00-18:00, We 10:00-18:00, Th 10:00-21:00, Fr 10:00-21:00, Sa 10:00-18:00",LocalBusiness,,
NorthwesTel Inc.,,5201 50 Ave,,Yellowknife,NT,X1A2P1,Canada,867 873-4903,,,"Mo 09:00-18:00, Tu 09:00-18:00, We 09:00-18:00, Th 09:00-18:00, Fr 09:00-18:00, Sa 09:30-18:00",LocalBusiness,,
Roy's Audio Video Unlimited,,4802 50th Avenue,,Yellowknife,NT,X1A1C4,Canada,867 873-5441,,,"Mo 10:00-18:00, Tu 10:00-18:00, We 10:00-18:00, Th 10:00-18:00, Fr 10:00-18:00, Sa 10:00-18:00",LocalBusiness,,
GB Superior Sound,,4 Courtoreille St.,,Hay River,NT,X0E1G2,Canada,867 874-6688,,,"Mo 10:00-18:00, Tu 10:00-18:00, We 10:00-18:00, Th 10:00-21:00, Fr 10:00-18:00, Sa 10:00-18:00",LocalBusiness,,
Payless Mobility,,10603 100 Street,,La Crete,AB,T0H2H0,Canada,780 928-3448,,,"Mo 09:00-17:30, Tu 09:00-17:30, We 09:00-17:30, Th 09:00-17:30, Fr 09:00-17:30, Sa 09:00-17:00",LocalBusiness,,
The Source,,4 Lepine St.,,Hay River,NT,X0E1G1,Canada,867 874-4385,,,"Mo 09:00-18:00, Tu 09:00-18:00, We 09:00-18:00, Th 09:00-21:00, Fr 09:00-21:00, Sa 10:00-17:00",LocalBusiness,,
The Source,,5014 49 St.,,Yellowknife,NT,X1A3R7,Canada,867 920-4814,,,"Su 12:00-17:00, Mo 09:30-18:00, Tu 09:30-18:00, We 09:30-18:00, Th 09:30-18:00, Fr 09:30-20:00, Sa 09:30-18:00",LocalBusiness,,
The Source,,10010 100 Ave.,,La Crete,AB,T0H2H0,Canada,780 928-2752,,,"Mo 09:00-18:00, Tu 09:00-18:00, We 09:00-18:00, Th 09:00-18:00, Fr 09:00-18:00, Sa 09:00-17:00",LocalBusiness,,
Bell,,802 Bow Valley Trail,,Canmore,AB,T1W1N6,Canada,403 678-5558,,,"Mo 10:00-18:00, Tu 10:00-18:00, We 10:00-18:00, Th 10:00-18:00, Fr 10:00-18:00, Sa 10:00-17:00",LocalBusiness,,
Bell,,151 Crowfoot Terrace NW,,Calgary,AB,T3G4J8,Canada,403 374-0258,,,"Su 11:00-17:00, Mo 09:30-20:30, Tu 09:30-20:30, We 09:30-20:30, Th 09:30-20:30, Fr 09:30-20:30, Sa 10:00-18:00",LocalBusiness,,
Bell,,11714 Sarcee Trail NW,,Calgary,AB,T3R0A1,Canada,403 516-0347,,,"Su 11:00-17:00, Mo 09:30-20:00, Tu 09:30-20:00, We 09:30-20:00, Th 09:30-20:00, Fr 09:30-20:00, Sa 10:00-18:00",LocalBusiness,,
Bell,,3625 Shaganappi Trail NW,,Calgary,AB,T3A0E2,Canada,403 247-1102,,,"Su 11:00-18:00, Mo 09:30-21:00, Tu 09:30-21:00, We 09:30-21:00, Th 09:30-21:00, Fr 09:30-21:00, Sa 09:30-20:00",LocalBusiness,,
Bell,,3625 Shaganappi Trail NW,,Calgary,AB,T3A0E2,Canada,403 202-5729,,,"Su 11:00-18:00, Mo 09:30-21:00, Tu 09:30-21:00, We 09:30-21:00, Th 09:30-21:00, Fr 09:30-21:00, Sa 09:30-20:00",LocalBusiness,,
Bell,,5111 Northland Dr. NW,,Calgary,AB,T2L2J8,Canada,403 247-2864,,,"Su 11:00-17:00, Mo 10:00-21:00, Tu 10:00-21:00, We 10:00-21:00, Th 10:00-21:00, Fr 10:00-21:00, Sa 09:30-18:30",LocalBusiness,,
Bell,,1200 37 St. SW,,Calgary,AB,T3C1S2,Canada,403 355-2770,,,"Su 12:00-17:00, Mo 10:00-21:00, Tu 10:00-21:00, We 10:00-21:00, Th 10:00-21:00, Fr 10:00-21:00, Sa 09:30-17:30",LocalBusiness,,
Bell,,1632 14 Ave. NW,,Calgary,AB,T2N1M7,Canada,403 210-1932,,,"Su 11:00-17:00, Mo 10:00-21:00, Tu 10:00-21:00, We 10:00-21:00, Th 10:00-21:00, Fr 10:00-21:00, Sa 09:30-18:00",LocalBusiness,,
Bell,,9650 Harvest Hills Blvd. NE,,Calgary,AB,T3K0B3,Canada,403 532-3934,,,"Su 11:00-17:00, Mo 09:30-20:00, Tu 09:30-20:00, We 09:30-20:00, Th 09:30-20:00, Fr 09:30-20:00, Sa 10:00-18:00",LocalBusiness,,
The Source,,317 Banff Ave.,,Banff,AB,T1L1C1,Canada,403 760-7627,,,"Su 10:00-21:30, Mo 10:00-21:30, Tu 10:00-21:30, We 10:00-21:30, Th 10:00-21:30, Fr 10:00-21:30, Sa 10:00-21:30",LocalBusiness,,
The Source,,1140 Railway Ave.,,Canmore,AB,T1W1P4,Canada,403 678-0473,,,"Su 12:00-17:00, Mo 09:30-19:00, Tu 09:30-19:00, We 09:30-19:00, Th 09:30-20:00, Fr 09:30-20:00, Sa 09:30-19:00",LocalBusiness,,
The Source,,25 Quarry St. W Bay 17,,Cochrane,AB,T4C0W5,Canada,403 932-1188,,,"Su 11:00-17:00, Mo 09:30-19:00, Tu 09:30-19:00, We 09:30-19:00, Th 09:30-21:00, Fr 09:30-21:00, Sa 09:30-18:00",LocalBusiness,,
The Source,,526 13 St.,,Invermere,BC,V0A1K0,Canada,250 341-3756,,,"Su 11:00-16:00, Mo 10:00-18:00, Tu 10:00-18:00, We 10:00-18:00, Th 09:00-18:00, Fr 10:00-18:00, Sa 10:00-18:00",LocalBusiness,,
The Source,,1106 10 Ave. S,,Golden,BC,V0A1H2,Canada,250 344-2924,,,"Su 11:00-16:00, Mo 09:30-18:00, Tu 09:30-18:00, We 09:30-18:00, Th 09:30-18:00, Fr 09:30-18:00, Sa 09:30-18:00",LocalBusiness,,
The Source,,3625 Shaganappi Trail NW,,Calgary,AB,T3A0E2,Canada,403 288-0860,,,"Su 11:00-18:00, Mo 10:00-21:00, Tu 10:00-21:00, We 10:00-21:00, Th 10:00-21:00, Fr 10:00-21:00, Sa 09:30-20:00",LocalBusiness,,
The Source,,1632 14 Ave. NW,,Calgary,AB,T2N1M7,Canada,403 220-0722,,,"Su 11:00-17:00, Mo 10:00-21:00, Tu 10:00-21:00, We 10:00-21:00, Th 10:00-21:00, Fr 10:00-21:00, Sa 09:30-18:00",LocalBusiness,,
The Source,,751 3 St. SW,,Calgary,AB,T2P4K8,Canada,403 264-4325,,,"Su 12:00-17:00, Mo 10:00-18:00, Tu 10:00-18:00, We 10:00-18:00, Th 10:00-20:00, Fr 10:00-20:00, Sa 10:00-18:00",LocalBusiness,,
Computer Trends,,20 Crowfoot Cres. NW,,Calgary,AB,T3G2P6,Canada,403 208-7041,,,"Su 12:00-17:00, Mo 09:30-20:00, Tu 09:30-20:00, We 09:30-20:00, Th 09:30-20:00, Fr 09:30-20:00, Sa 09:30-18:00",LocalBusiness,,
Visions Electronics,,46 Crowfoot Circ. NW,,Calgary,AB,T3G2T3,Canada,403 208-2487,,,"Su 11:00-18:00, Mo 10:00-21:00, Tu 10:00-21:00, We 10:00-21:00, Th 10:00-21:00, Fr 10:00-21:00, Sa 09:30-18:00",LocalBusiness,,
Visions Electronics,,3915 51 St. SW,,Calgary,AB,T3E6N1,Canada,403 240-2296,,,"Su 11:00-18:00, Mo 10:00-21:00, Tu 10:00-21:00, We 10:00-21:00, Th 10:00-21:00, Fr 10:00-21:00, Sa 09:30-18:00",LocalBusiness,,
Bell,,216 Saddletowne Circle NE,,Calgary,AB,T3J0C9,Canada,403 568-5566,,,"Su 11:00-17:00, Mo 09:30-20:30, Tu 09:30-20:30, We 09:30-20:30, Th 09:30-20:30, Fr 09:30-20:30, Sa 10:00-18:00",LocalBusiness,,
Bell,,3800 Memorial Dr NW,,Calgary,AB,T2A2K2,Canada,403 441-5402,,,"Su 12:00-17:00, Mo 10:00-21:00, Tu 10:00-21:00, We 10:00-21:00, Th 10:00-21:00, Fr 10:00-21:00, Sa 10:00-17:00",LocalBusiness,,
Bell,,"2525 36 St. NE ,#TK24",,Calgary,AB,T1Y5T4,Canada,403 285-4527,,,"Su 11:00-17:00, Mo 10:00-21:00, Tu 10:00-21:00, We 10:00-21:00, Th 10:00-21:00, Fr 10:00-21:00, Sa 10:00-20:00",LocalBusiness,,
Bell,,2525 36 St. NE,,Calgary,AB,T1Y5T4,Canada,403 293-3549,,,"Su 11:00-17:00, Mo 10:00-21:00, Tu 10:00-21:00, We 10:00-21:00, Th 10:00-21:00, Fr 10:00-21:00, Sa 09:30-20:00",LocalBusiness,,
Bell,,4600 130 Ave. SE,,Calgary,AB,T2Z0C2,Canada,403 726-9081,,,"Su 11:00-17:00, Mo 09:30-20:30, Tu 09:30-20:30, We 09:30-20:30, Th 09:30-20:30, Fr 09:30-20:30, Sa 10:00-18:00",LocalBusiness,,
Bell,,19489 Seton Cres. SE,,Calgary,AB,T3M1T4,Canada,403 805-1111,,,"Su 12:00-16:00, Mo 10:00-20:00, Tu 10:00-20:00, We 10:00-20:00, Th 10:00-20:00, Fr 10:00-20:00, Sa 10:00-17:00",LocalBusiness,,
Bell,,261055 CrossIron blvd,,Rocky View County,AB,T4A0G3,Canada,403 516-0137,,,"Su 11:00-18:00, Mo 10:00-21:00, Tu 10:00-21:00, We 10:00-21:00, Th 10:00-21:00, Fr 10:00-21:00, Sa 10:00-21:00",LocalBusiness,,
Bell,,8180 11 St. SE,,Calgary,AB,T2H3B5,Canada,403 410-7260,,,"Su 11:00-18:00, Mo 10:00-18:00, Tu 10:00-18:00, We 10:00-18:00, Th 10:00-21:00, Fr 10:00-21:00, Sa 10:00-20:00",LocalBusiness,,
Bell,,751 3 St. SW,,Calgary,AB,T2P4K8,Canada,403 693-0051,,,"Su 12:00-17:00, Mo 10:00-18:00, Tu 10:00-18:00, We 10:00-18:00, Th 10:00-20:00, Fr 10:00-20:00, Sa 10:00-18:00",LocalBusiness,,
CellNet,,331 3 Ave,,Strathmore,AB,T1P1T5,Canada,403 983-8255,,,"Mo 10:00-18:00, Tu 10:00-18:00, We 10:00-18:00, Th 10:00-18:00, Fr 10:00-18:00",LocalBusiness,,
CellNet Wireless,,100 Marina Dr,,Chestermere,AB,T1X0A9,Canada,403 770-1883,,,"Mo 10:00-18:00, Tu 10:00-18:00, We 10:00-18:00, Th 10:00-18:00, Fr 10:00-18:00, Sa 10:00-17:00",LocalBusiness,,
Feel Like Talking Connections,,4818 Westwinds Dr. NE,,Calgary,AB,T3J3Z2,Canada,403 274-5464,,,"Su 11:00-17:00, Mo 09:30-20:00, Tu 09:30-20:00, We 09:30-20:00, Th 09:30-20:00, Fr 09:30-20:00, Sa 10:00-18:00",LocalBusiness,,
Speed Wireless,,999 36 St. NE,,Calgary,AB,T2A7X6,Canada,403 235-2258,,,"Su 11:00-19:00, Mo 11:00-19:00, Tu 11:00-19:00, We 11:00-19:00, Th 11:00-19:00, Fr 11:00-19:00, Sa 11:00-19:00",LocalBusiness,,
The Source,,105C 100 Ranch Market,,Strathmore,AB,T1P1J5,Canada,403 934-4580,,,"Su 12:00-17:00, Mo 10:00-18:00, Tu 10:00-18:00, We 10:00-18:00, Th 10:00-21:00, Fr 10:00-21:00, Sa 10:00-18:00",LocalBusiness,,
The Source,,3800 Memorial Dr. NE,,Calgary,AB,T2A2K2,Canada,403 272-3088,,,"Su 12:00-17:00, Mo 10:00-21:00, Tu 10:00-21:00, We 10:00-21:00, Th 10:00-21:00, Fr 10:00-21:00, Sa 10:00-19:00",LocalBusiness,,
The Source,,2525 36 St. NE,,Calgary,AB,T1Y5T4,Canada,403 293-9708,,,"Su 11:00-17:00, Mo 10:00-21:00, Tu 10:00-21:00, We 10:00-21:00, Th 10:00-21:00, Fr 10:00-21:00, Sa 10:00-20:00",LocalBusiness,,
The Source,,261055 Crossiron Blvd.,,Rocky View County,AB,T4A0G3,Canada,403 274-5376,,,"Su 11:00-18:00, Mo 10:00-21:00, Tu 10:00-21:00, We 10:00-21:00, Th 10:00-21:00, Fr 10:00-21:00, Sa 10:00-20:00",LocalBusiness,,
The Source,,315 8 Ave. SW,,Calgary,AB,T2P4K1,Canada,403 266-1655,,,"Mo 10:00-18:00, Tu 10:00-18:00, We 10:00-18:00, Th 10:00-20:00, Fr 10:00-20:00, Sa 10:00-17:30",LocalBusiness,,
Visions Electronics,,2930 32 Ave. NE,,Calgary,AB,T1Y5J4,Canada,403 250-9107,,,"Su 11:00-18:00, Mo 10:00-21:00, Tu 10:00-21:00, We 10:00-21:00, Th 10:00-21:00, Fr 10:00-21:00, Sa 09:30-18:00",LocalBusiness,,
Computer Trends,,1932 32 Ave. NE,,Calgary,AB,T2E6R6,Canada,403 219-3088,,,"Su 12:00-17:00, Mo 09:30-20:00, Tu 09:30-20:00, We 09:30-20:00, Th 09:30-20:00, Fr 09:30-20:00, Sa 09:30-18:00",LocalBusiness,,
The Source,,322 8 Ave.,,Brooks,AB,T1R1B8,Canada,403 362-6427,,,"Su 11:00-17:00, Mo 09:30-19:00, Tu 09:30-19:00, We 09:30-19:00, Th 09:30-21:00, Fr 09:30-21:00, Sa 09:30-18:00",LocalBusiness,,
Urban Mobility,,"20 Fairview Avenue, Bay 4",,Brooks,AB,T1R1P3,Canada,403 501-5503,,,"Mo 10:00-18:00, Tu 10:00-18:00, We 10:00-18:00, Th 10:00-18:00, Fr 11:00-16:00, Sa 10:00-18:00",LocalBusiness,,
Cactus Audio Video Unlimited,,1216 2nd St. W,,Brooks,AB,T1R0V5,Canada,403 362-4862,,,"Mo 09:00-18:00, Tu 09:00-18:00, We 09:00-18:00, Th 09:00-18:00, Fr 09:00-18:00, Sa 09:00-17:00",LocalBusiness,,
Reality Bytes,,155 3 Ave. W,,Drumheller,AB,T0J0Y0,Canada,403 823-2983,,,"Mo 08:00-18:00, Tu 08:00-18:00, We 08:00-18:00, Th 08:00-18:00, Fr 08:00-18:00, Sa 10:00-17:00",LocalBusiness,,
The Source,,650 S Railway Ave.,,Drumheller,AB,T0J0Y4,Canada,403 823-5178,,,"Su 12:00-17:00, Mo 10:00-19:00, Tu 10:00-19:00, We 10:00-19:00, Th 10:00-19:00, Fr 10:00-20:00, Sa 10:00-18:00",LocalBusiness,,
Foothills Mobility,,112 Centre St. SE,,High River,AB,T1V1M9,Canada,403 603-0002,,,"Mo 10:00-18:00, Tu 10:00-18:00, We 10:00-18:00, Th 10:00-18:00, Fr 10:00-18:00, Sa 10:00-16:00",LocalBusiness,,
Bell,,70 Shawville Blvd. SE,,Calgary,AB,T2Y2Z3,Canada,403 873-1015,,,"Su 11:00-17:00, Mo 10:00-20:00, Tu 10:00-20:00, We 10:00-20:00, Th 10:00-20:00, Fr 10:00-20:00, Sa 10:00-18:00",LocalBusiness,,
Bell,,100 Anderson Rd. SE,,Calgary,AB,T2J3V1,Canada,403 225-9500,,,"Su 11:00-17:00, Mo 09:30-21:00, Tu 09:30-21:00, We 09:30-21:00, Th 09:30-21:00, Fr 09:30-21:00, Sa 09:30-20:00",LocalBusiness,,
Bell,,6455 MacLeod Trail SW,,Calgary,AB,T2H0K8,Canada,403 252-9068,,,"Su 11:00-18:00, Mo 09:30-21:00, Tu 09:30-21:00, We 09:30-21:00, Th 09:30-21:00, Fr 09:30-21:00, Sa 09:30-21:00",LocalBusiness,,
Bell,,6455 Macleod Trail SW,,Calgary,AB,T2H0K8,Canada,403 410-7694,,,"Su 11:00-18:00, Mo 09:30-21:00, Tu 09:30-21:00, We 09:30-21:00, Th 09:30-21:00, Fr 09:30-21:00, Sa 09:30-21:00",LocalBusiness,,
CellNet,,28 Southridge Dr.,,Okotoks,AB,T1S0J7,Canada,403 831-9000,,,"Su 10:00-17:00, Mo 10:00-18:00, Tu 10:00-18:00, We 10:00-18:00, Th 10:00-18:00, Fr 10:00-18:00, Sa 10:00-18:00",LocalBusiness,,
The Source,,201 Southridge Dr.,,Okotoks,AB,T1S2E1,Canada,403 995-1733,,,"Su 11:00-17:00, Mo 10:00-21:00, Tu 10:00-21:00, We 10:00-21:00, Th 10:00-21:00, Fr 10:00-21:00, Sa 10:00-18:00",LocalBusiness,,
The Source,,98 Centre St. SE,,High River,AB,T1V1M7,Canada,403 652-2097,,,"Su 11:00-17:00, Mo 10:00-19:00, Tu 10:00-19:00, We 10:00-19:00, Th 10:00-19:00, Fr 10:00-19:00, Sa 10:00-18:00",LocalBusiness,,
The Source,,350 Shawville Blvd. SE,,Calgary,AB,T2Y3S4,Canada,403 256-2368,,,"Su 11:00-17:00, Mo 09:30-21:00, Tu 09:30-21:00, We 09:30-21:00, Th 09:30-21:00, Fr 09:30-21:00, Sa 09:30-18:00",LocalBusiness,,
The Source,,100 Anderson Rd. SE,,Calgary,AB,T2J3V1,Canada,403 255-6506,,,"Su 11:00-18:00, Mo 09:30-21:00, Tu 09:30-21:00, We 09:30-21:00, Th 09:30-21:00, Fr 09:30-21:00, Sa 09:30-20:00",LocalBusiness,,
The Source,,6455 MacLeod Trail SW,,Calgary,AB,T2H0K8,Canada,403 212-1169,,,"Su 11:00-18:00, Mo 09:30-21:00, Tu 09:30-21:00, We 09:30-21:00, Th 09:30-21:00, Fr 09:30-21:00, Sa 09:30-21:00",LocalBusiness,,
Visions Electronics,,200 Southridge Dr.,,Okotoks,AB,T1S0B2,Canada,403 995-1184,,,"Su 11:00-18:00, Mo 10:00-21:00, Tu 10:00-21:00, We 10:00-21:00, Th 10:00-21:00, Fr 10:00-21:00, Sa 09:30-18:00",LocalBusiness,,
Visions Electronics,,9950 Macleod Trail S,,Calgary,AB,T2J3K9,Canada,403 255-2255,,,"Su 11:00-18:00, Mo 10:00-21:00, Tu 10:00-21:00, We 10:00-21:00, Th 10:00-21:00, Fr 10:00-21:00, Sa 09:30-18:00",LocalBusiness,,
Computer Trends,,5720 Macleod Trail S,,Calgary,AB,T2H0J6,Canada,403 255-1927,,,"Su 12:00-17:00, Mo 09:30-20:00, Tu 09:30-20:00, We 09:30-20:00, Th 09:30-20:00, Fr 09:30-20:00, Sa 09:30-18:00",LocalBusiness,,
Bell,,2797 Main St S,,Airdrie,AB,T4B3S6,Canada,403 980-9220,,,"Su 11:00-17:00, Mo 10:00-20:00, Tu 10:00-20:00, We 10:00-20:00, Th 10:00-20:00, Fr 10:00-20:00, Sa 10:00-18:00",LocalBusiness,,
The Source,,505 Main St. S,,Airdrie,AB,T4B3K3,Canada,403 945-3199,,,"Su 12:00-17:00, Mo 09:30-21:00, Tu 09:30-21:00, We 09:30-21:00, Th 09:30-21:00, Fr 09:30-21:00, Sa 09:30-17:30",LocalBusiness,,
Visions Electronics,,294 Sierra Springs Dr. SE,,Airdrie,AB,T4B3G6,Canada,403 912-4101,,,"Su 11:00-18:00, Mo 10:00-21:00, Tu 10:00-21:00, We 10:00-21:00, Th 10:00-21:00, Fr 10:00-21:00, Sa 09:30-18:00",LocalBusiness,,
Elite Mobility,,4610 56 Street,,Wetaskiwin,AB,T9A3M5,Canada,780 361-0030,,,"Mo 10:00-19:00, Tu 10:00-19:00, We 10:00-19:00, Th 10:00-19:00, Fr 10:00-19:00, Sa 10:00-18:00",LocalBusiness,,
The Source,,5832 Hwy. 2A,,Lacombe,AB,T4L2G5,Canada,403 782-4839,,,"Su 12:00-17:00, Mo 09:30-18:00, Tu 09:30-18:00, We 09:30-18:00, Th 09:30-19:00, Fr 09:30-19:00, Sa 09:30-18:00",LocalBusiness,,
The Source,,5015 50 St.,,Ponoka,AB,T4J1R7,Canada,403 783-3024,,,"Su 12:00-17:00, Mo 10:00-18:00, Tu 10:00-18:00, We 10:00-18:00, Th 10:00-18:00, Fr 10:00-18:00, Sa 10:00-18:00",LocalBusiness,,
The Source,,5005 50th Ave.,,Rimbey,AB,T0C2J0,Canada,403 843-2732,,,"Mo 10:00-18:00, Tu 10:00-18:00, We 10:00-18:00, Th 10:00-20:00, Fr 10:00-20:00, Sa 10:00-18:00",LocalBusiness,,
The Source,,4802 56th St. Unit 110/112,,Wetaskiwin,AB,T9A1B2,Canada,780 312-2296,,,"Su 12:00-17:00, Mo 10:00-18:00, Tu 10:00-18:00, We 10:00-18:00, Th 10:00-20:00, Fr 10:00-20:00, Sa 10:00-18:00",LocalBusiness,,
The Source,,5207 48 St.,,Rocky Mountain House,AB,T4T0B1,Canada,403 845-3937,,,"Su 12:00-17:00, Mo 09:30-18:00, Tu 09:30-18:00, We 09:30-18:00, Th 09:30-20:00, Fr 09:30-20:00, Sa 09:30-18:00",LocalBusiness,,
Laser Tech Audio Video,,4810 50 Ave.,,Leduc,AB,T9E6X9,Canada,780 986-9404,,,"Tu 10:00-18:00, We 10:00-18:00, Th 10:00-20:00, Fr 10:00-18:00, Sa 10:00-18:00",LocalBusiness,,
The Source,,5209 Discovery Way,,Leduc,AB,T9E8N4,Canada,780 980-1198,,,"Su 11:00-17:00, Mo 10:00-21:00, Tu 10:00-21:00, We 10:00-21:00, Th 10:00-21:00, Fr 10:00-21:00, Sa 10:00-18:00",LocalBusiness,,
Hello Mobile,,5411 Discovery Way,,Leduc,AB,T9E8N4,Canada,780 980-0117,,,"Su 12:00-17:00, Mo 10:00-21:00, Tu 10:00-21:00, We 10:00-21:00, Th 10:00-21:00, Fr 10:00-21:00, Sa 11:00-18:00",LocalBusiness,,
Go West Wireless,,5004 50 Ave.,,Drayton Valley,AB,T7A1S4,Canada,780 515-9090,,,"Mo 08:30-18:00, Tu 08:30-18:00, We 08:30-18:00, Th 08:30-18:00, Fr 08:30-18:00, Sa 10:00-15:00",LocalBusiness,,
The Source,,5209 Power Centre Rd.,,Drayton Valley,AB,T7A0A5,Canada,780 542-3051,,,"Su 12:00-17:00, Mo 10:00-18:00, Tu 10:00-18:00, We 10:00-18:00, Th 10:00-19:00, Fr 10:00-19:00, Sa 10:00-18:00",LocalBusiness,,
RPH Mobility,,6002 29 Ave,,Beaumont,AB,T4X0H5,Canada,780 929-6860,,,"Su 12:00-16:00, Mo 09:00-19:00, Tu 09:00-19:00, We 09:00-19:00, Th 09:00-19:00, Fr 09:00-19:00, Sa 10:00-17:00",LocalBusiness,,
Bell,,3918 17 St NW,,Edmonton,AB,T6T0C2,Canada,780 465-3666,,,"Su 11:00-17:00, Mo 09:30-20:30, Tu 09:30-20:30, We 09:30-20:30, Th 09:30-20:30, Fr 09:30-20:30, Sa 10:00-18:00",LocalBusiness,,
Bell,,5511 23 Ave,,Edmonton,AB,T6L7B9,Canada,780 465-3400,,,"Su 11:00-17:00, Mo 09:30-20:30, Tu 09:30-20:30, We 09:30-20:30, Th 09:30-20:30, Fr 09:30-20:30, Sa 10:00-18:00",LocalBusiness,,
Bell,,2331 66 St. NW,,Edmonton,AB,T6K4B5,Canada,780 485-3566,,,"Su 12:00-17:00, Mo 10:00-21:00, Tu 10:00-21:00, We 10:00-21:00, Th 10:00-21:00, Fr 10:00-21:00, Sa 09:30-17:30",LocalBusiness,,
The Source,,2331 66 St. NW,,Edmonton,AB,T6K4B4,Canada,780 466-5592,,,"Su 12:00-17:00, Mo 10:00-21:00, Tu 10:00-21:00, We 10:00-21:00, Th 10:00-21:00, Fr 10:00-21:00, Sa 09:30-17:30",LocalBusiness,,
Visions Electronics,,5000 Emerald Dr.,,Sherwood Park,AB,T8H0P5,Canada,780 464-4832,,,"Su 11:00-18:00, Mo 10:00-21:00, Tu 10:00-21:00, We 10:00-21:00, Th 10:00-21:00, Fr 10:00-21:00, Sa 09:30-18:00",LocalBusiness,,
Bell,,1927 98 St. NW,,Edmonton,AB,T6N1L5,Canada,780 440-3179,,,"Su 11:00-18:00, Mo 10:00-21:00, Tu 10:00-21:00, We 10:00-21:00, Th 10:00-21:00, Fr 10:00-21:00, Sa 10:00-18:00",LocalBusiness,,
The Source,,2020 Sherwood Dr.,,Sherwood Park,AB,T8A3H9,Canada,780 416-1140,,,"Su 12:00-17:00, Mo 09:30-21:00, Tu 09:30-21:00, We 09:30-21:00, Th 09:30-21:00, Fr 09:30-21:00, Sa 09:30-17:30",LocalBusiness,,
Bell,,2020 Sherwood Dr.,,Sherwood Park,AB,T8A3H9,Canada,780 464-3914,,,"Su 12:00-17:00, Mo 09:30-21:00, Tu 09:30-21:00, We 09:30-21:00, Th 09:30-21:00, Fr 09:30-21:00, Sa 09:30-17:30",LocalBusiness,,
Visions Electronics,,10133 34th Ave.,,Edmonton,AB,T6E6J8,Canada,780 438-6242,,,"Su 11:00-18:00, Mo 10:00-21:00, Tu 10:00-21:00, We 10:00-21:00, Th 10:00-21:00, Fr 10:00-21:00, Sa 09:30-18:00",LocalBusiness,,
Bell,,5164 Windermere Blvd,,Edmonton,AB,T6W0L9,Canada,780 391-1701,,,"Su 11:00-17:00, Mo 10:00-20:00, Tu 10:00-20:00, We 10:00-20:00, Th 10:00-20:00, Fr 10:00-20:00, Sa 10:00-18:00",LocalBusiness,,
Bell,,3910 Gateway Blvd.,,Edmonton,AB,T6J7A9,Canada,780 409-8688,,,"Mo 10:00-18:00, Tu 10:00-18:00, We 10:00-18:00, Th 10:00-18:00, Fr 10:00-18:00, Sa 11:00-18:00",LocalBusiness,,
Bell,,5015 - 111 St NW,,Edmonton,AB,T6H4M6,Canada,780 409-9994,,,"Su 11:00-17:00, Mo 10:00-21:00, Tu 10:00-21:00, We 10:00-21:00, Th 10:00-21:00, Fr 10:00-21:00, Sa 09:00-18:00",LocalBusiness,,
Bell,,82 Ave. at 83 St.,,Edmonton,AB,T6C4E3,Canada,780 469-5560,,,"Su 12:00-17:00, Mo 10:00-21:00, Tu 10:00-21:00, We 10:00-21:00, Th 10:00-21:00, Fr 10:00-21:00, Sa 09:30-17:30",LocalBusiness,,
Innovative Wireless,,9327 63 Ave NW,,Edmonton,AB,T6E0G2,Canada,780 431-0264,,,"Mo 09:30-17:30, Tu 09:30-17:30, We 09:30-17:30, Th 09:30-17:30, Fr 09:30-17:30",LocalBusiness,,
Bell,,5004 98 Ave. NW,,Edmonton,AB,T6E4E3,Canada,780 469-3880,,,"Su 12:00-17:00, Mo 10:00-21:00, Tu 10:00-21:00, We 10:00-21:00, Th 10:00-21:00, Fr 10:00-21:00, Sa 10:00-18:00",LocalBusiness,,
The Source,,5015 111 St. NW,,Edmonton,AB,T6H4M6,Canada,780 433-5222,,,"Su 11:00-17:00, Mo 10:00-21:00, Tu 10:00-21:00, We 10:00-21:00, Th 10:00-21:00, Fr 10:00-21:00, Sa 09:30-18:00",LocalBusiness,,
The Source,,82nd Ave & 83rd St,,Edmonton,AB,T6C4E3,Canada,780 466-9688,,,"Su 12:00-17:00, Mo 10:00-21:00, Tu 10:00-21:00, We 10:00-21:00, Th 10:00-21:00, Fr 10:00-21:00, Sa 09:30-17:30",LocalBusiness,,
Computer Trends,,5728 104 St. NW,,Edmonton,AB,T6H2K2,Canada,780 431-1919,,,"Su 12:00-17:00, Mo 09:30-20:00, Tu 09:30-20:00, We 09:30-20:00, Th 09:30-20:00, Fr 09:30-20:00, Sa 09:30-18:00",LocalBusiness,,
Bell,,137 Ave. NW and 66 St.,,Edmonton,AB,T5C3C8,Canada,780 473-0141,,,"Su 12:00-17:00, Mo 10:00-21:00, Tu 10:00-21:00, We 10:00-21:00, Th 10:00-21:00, Fr 10:00-21:00, Sa 09:30-17:30",LocalBusiness,,
Bell,,9499 137 Ave. NW,,Edmonton,AB,T5E5R8,Canada,780 478-9815,,,"Su 12:00-17:00, Mo 10:00-21:00, Tu 10:00-21:00, We 10:00-21:00, Th 10:00-21:00, Fr 10:00-21:00, Sa 10:00-18:00",LocalBusiness,,
Bell,,3210 118 Ave. NW,,Edmonton,AB,T5W4W1,Canada,780 477-7795,,,"Su 12:00-17:00, Mo 10:00-21:00, Tu 10:00-21:00, We 10:00-21:00, Th 10:00-21:00, Fr 10:00-21:00, Sa 10:00-18:00",LocalBusiness,,
Bell,,15755 97 St NW,,Edmonton,AB,T5X0C7,Canada,780 637-8688,,,"Su 12:00-17:00, Mo 10:00-20:00, Tu 10:00-20:00, We 10:00-20:00, Th 10:00-20:00, Fr 10:00-20:00, Sa 11:00-18:00",LocalBusiness,,
Bell,,1 Kingsway Garden Mall NW,,Edmonton,AB,T5G3A6,Canada,780 378-0330,,,"Su 11:00-17:00, Mo 10:00-21:00, Tu 10:00-21:00, We 10:00-21:00, Th 10:00-21:00, Fr 10:00-21:00, Sa 09:30-17:30",LocalBusiness,,
Bell,,10200 102 Ave. NW,,Edmonton,AB,T5J4B7,Canada,780 421-9630,,,"Su 12:00-17:00, Mo 10:00-18:00, Tu 10:00-18:00, We 10:00-18:00, Th 10:00-20:00, Fr 10:00-20:00, Sa 10:00-18:00",LocalBusiness,,
Bell,,11646 104 Ave. NW,,Edmonton,AB,T5K2T7,Canada,780 669-9041,,,"Mo 10:00-18:00, Tu 10:00-18:00, We 10:00-18:00, Th 10:00-20:00, Fr 10:00-20:00, Sa 10:00-18:00",LocalBusiness,,
Bell,,Groat Rd. & 111 Ave.,,Edmonton,AB,T5M3L7,Canada,780 409-9530,,,"Su 12:00-17:00, Mo 10:00-21:00, Tu 10:00-21:00, We 10:00-21:00, Th 10:00-21:00, Fr 10:00-21:00, Sa 10:00-18:00",LocalBusiness,,
Bell,,7000 Emerald Dr,,Sherwood Park,AB,T8H0K9,Canada,780 604-9657,,,"Su 12:00-17:00, Mo 10:00-21:00, Tu 10:00-21:00, We 10:00-21:00, Th 10:00-21:00, Fr 10:00-21:00, Sa 11:00-19:00",LocalBusiness,,
Bell,,14822 Stony Plain Rd,,Edmonton,AB,T5N3S5,Canada,780 453-1580,,,"Mo 10:00-19:00, Tu 10:00-19:00, We 10:00-19:00, Th 10:00-18:30, Fr 10:00-19:00, Sa 10:00-17:30",LocalBusiness,,
Feel Like Talking Connections,,13508 Victoria Trail,,Edmonton,AB,T5A5C9,Canada,780 457-2258,,,"Su 11:00-17:00, Mo 10:00-20:30, Tu 10:00-20:30, We 10:00-20:30, Th 10:00-20:30, Fr 10:00-20:30, Sa 10:00-18:00",LocalBusiness,,
Feel Like Talking Connections,,15554 37 St NW,,Edmonton,AB,T5Y0S5,Canada,780 250-5553,,,"Su 11:00-17:00, Mo 10:00-20:30, Tu 10:00-20:30, We 10:00-20:30, Th 10:00-20:30, Fr 10:00-20:30, Sa 10:00-18:00",LocalBusiness,,
The Source,,250 Londonderry Mall NW,,Edmonton,AB,T5C3C8,Canada,780 406-4706,,,"Su 12:00-17:00, Mo 10:00-21:00, Tu 10:00-21:00, We 10:00-21:00, Th 10:00-21:00, Fr 10:00-21:00, Sa 09:30-17:30",LocalBusiness,,
The Source,,109 St. & Pr Elizabeth Ave.,,Edmonton,AB,T5G3A6,Canada,780 477-1219,,,"Su 11:00-17:00, Mo 10:00-21:00, Tu 10:00-21:00, We 10:00-21:00, Th 10:00-21:00, Fr 10:00-21:00, Sa 09:30-18:00",LocalBusiness,,
The Source,,10205 101 St. NW,,Edmonton,AB,T5J2Z2,Canada,780 423-0899,,,"Su 12:00-17:00, Mo 10:00-18:00, Tu 10:00-18:00, We 10:00-18:00, Th 10:00-20:00, Fr 10:00-20:00, Sa 10:00-18:00",LocalBusiness,,
Computer Trends,,204 Manning Cross,,Edmonton,AB,T5A5A1,Canada,780 475-2223,,,"Su 12:00-17:00, Mo 09:30-20:00, Tu 09:30-20:00, We 09:30-20:00, Th 09:30-20:00, Fr 09:30-20:00, Sa 09:30-18:00",LocalBusiness,,
Visions Electronics,,13723 42 St. NW,,Edmonton,AB,T5Y2W7,Canada,780 457-4888,,,"Su 11:00-18:00, Mo 10:00-21:00, Tu 10:00-21:00, We 10:00-21:00, Th 10:00-21:00, Fr 10:00-21:00, Sa 09:30-18:00",LocalBusiness,,
Cable Guys,,10811 112 St NW,,Edmonton,AB,T5H3H4,Canada,780 432-0101,,,"Mo 08:30-18:00, Tu 08:30-18:00, We 08:30-18:00, Th 08:30-21:00, Fr 08:30-21:00",LocalBusiness,,
Bell,,"8882 170 St. NW, Suite 1621",,Edmonton,AB,T5T4M2,Canada,780 443-4014,,,"Su 11:00-17:00, Mo 10:00-21:00, Tu 10:00-21:00, We 10:00-21:00, Th 10:00-21:00, Fr 10:00-21:00, Sa 10:00-21:00",LocalBusiness,,
Bell,,"8882 170 St. NW, Suite 2365",,Edmonton,AB,T5T4M2,Canada,780 930-1544,,,"Su 11:00-17:00, Mo 10:00-21:00, Tu 10:00-21:00, We 10:00-21:00, Th 10:00-21:00, Fr 10:00-21:00, Sa 10:00-21:00",LocalBusiness,,
The Source,,900 Carmichael Lane,,Hinton,AB,T7V1Y6,Canada,780 865-3360,,,"Su 12:00-17:00, Mo 10:00-18:00, Tu 10:00-18:00, We 10:00-18:00, Th 10:00-21:00, Fr 10:00-21:00, Sa 10:00-18:00",LocalBusiness,,
The Source,,9542 86 Ave.,,Fort Saskatchewan,AB,T8L4P4,Canada,780 998-2830,,,"Su 12:00-17:00, Mo 10:00-21:00, Tu 10:00-21:00, We 10:00-21:00, Th 10:00-21:00, Fr 10:00-21:00, Sa 10:00-18:00",LocalBusiness,,
The Source,,621 Patricia St.,,Jasper,AB,T0E1E0,Canada,780 852-5593,,,"Su 10:00-22:00, Mo 10:00-22:00, Tu 10:00-22:00, We 10:00-22:00, Th 10:00-22:00, Fr 10:00-22:00, Sa 10:00-22:00",LocalBusiness,,
Bell,,11801 100 St.,,Grande Prairie,AB,T8V3Y2,Canada,780 833-7020,,,"Su 12:00-17:00, Mo 09:30-18:00, Tu 09:30-18:00, We 09:30-18:00, Th 09:30-21:00, Fr 09:30-21:00, Sa 09:30-18:00",LocalBusiness,,
Bell,,10712 80th Ave.,,Grande Prairie,AB,T8W0G9,Canada,780 512-8900,,,"Su 11:00-18:00, Mo 10:00-19:00, Tu 10:00-19:00, We 10:00-19:00, Th 10:00-19:00, Fr 10:00-19:00, Sa 11:00-18:00",LocalBusiness,,
The Source,,11509 Westgate Dr,,Grande Prairie,AB,T8V3B1,Canada,587 259-0575,,,"Su 11:00-17:00, Mo 09:30-18:00, Tu 09:30-18:00, We 09:30-18:00, Th 09:30-21:00, Fr 09:30-21:00, Sa 09:30-18:00",LocalBusiness,,
The Source,,11801 100 St.,,Grande Prairie,AB,T8V3Y2,Canada,780 538-4496,,,"Su 12:00-17:00, Mo 10:00-18:00, Tu 10:00-18:00, We 10:00-18:00, Th 10:00-21:00, Fr 10:00-21:00, Sa 09:30-18:00",LocalBusiness,,
Computer Trends,,9606 100 St.,,Grande Prairie,AB,T8V2L3,Canada,780 539-5555,,,"Su 12:00-17:00, Mo 09:30-20:00, Tu 09:30-20:00, We 09:30-20:00, Th 09:30-20:00, Fr 09:30-20:00, Sa 09:30-18:00",LocalBusiness,,
Visions Electronics,,11706 99 Ave.,,Grande Prairie,AB,T8W0C7,Canada,780 538-3318,,,"Su 11:00-18:00, Mo 10:00-21:00, Tu 10:00-21:00, We 10:00-21:00, Th 10:00-21:00, Fr 10:00-21:00, Sa 09:30-18:00",LocalBusiness,,
