store_name,store_number,address,address2,city,state,zip_code,country,phone_number,latitude,longitude,store_hours,store_type,other_fields,coming_soon
DAVID YURMAN,291744,The Americana at Brand798 Americana Way,,Glendale,CA,91210,United States,(818) 241-2836,,,"Sun 11:00 AM - 8:00 PM, Mon 10:00 AM - 9:00 PM, Tue 10:00 AM - 9:00 PM, Wed 10:00 AM - 9:00 PM, Thu 10:00 AM - 9:00 PM, Fri 10:00 AM - 10:00 PM, Sat 10:00 AM - 10:00 PM",,,
DAVID YURMAN,290858,371 North Rodeo Drive,,Beverly Hills,CA,90210,United States,(310) 888-8618,,,"Sun 11:30 AM - 5:30 PM, Mon 10:00 AM - 6:00 PM, Tue 10:00 AM - 6:00 PM, Wed 10:00 AM - 6:00 PM, Thu 10:00 AM - 6:00 PM, Fri 10:00 AM - 6:00 PM, Sat 10:00 AM - 6:30 PM",,,
SAKS FIFTH AVENUEMen's Only,291047,9600 Wilshire Blvd.,,Beverly Hills,CA,90212,United States,(310) 275-4211,,,,,,
NEIMAN MARCUS,290870,9700 Wilshire Blvd.,,Beverly Hills,CA,90212,United States,(310) 550-5900,,,,,,
BLOOMINGDALE'S,290998,1250 Santa Monica Blvd.,,Los Angeles,CA,90067,United States,(310) 772-7113,,,,,,
Nordstrom,291549,400 South Baldwin Avenue,,Arcadia,CA,91007,United States,(626) 821-6363,,,,,,
BLOOMINGDALE'S,291045,14060 Riverside Dr.,,Sherman Oaks,CA,91423,United States,,,,,,,
BLOOMINGDALE'S,291477,315 Colorado Avenue,,Santa Monica,CA,90401,United States,,,,,,,
BLOOMINGDALE'S,291627,Santa Monica (MCA)315 Colorado BLVD,,Santa Monica,CA,90410,United States,,,,,,,
NORDSTROM,291346,21725 Victory Blvd,,Canoga Park,CA,91303,United States,,,,,,,
BLOOMINGDALE'S,291347,Fashion Valley Mall7057 Friars Road,,San Diego,CA,92108,United States,,,,,,,
NORDSTROM,290965,Fashion Valley6997 Friars Rd.,,San Diego,CA,92108,United States,(619) 295-4441,,,,,,
NEIMAN MARCUS,290876,Fashion Valley Center7027 Friars Rd.,,San Diego,CA,92108,United States,(619) 692-9100,,,,,,
Ben Bridge Jeweler,291667,Westfield UTC4505 La Jolla Village Dr. #19,,San Diego,CA,92122,United States,(858) 453-9996,,,,,,
DAVID YURMAN,291480,Scottsdale Fashion Square7014 East Camelback Road Suite 1109,,Scottsdale,AZ,85251,United States,(480) 444-2920,,,"Sun 12:00 PM - 6:00 PM, Mon 10:00 AM - 8:00 PM, Tue 10:00 AM - 8:00 PM, Wed 10:00 AM - 8:00 PM, Thu 10:00 AM - 8:00 PM, Fri 10:00 AM - 8:00 PM, Sat 10:00 AM - 8:00 PM",,,
SAKS FIFTH AVENUE,291640,Biltmore Fashion Park2446 E Camelback Rd,,Phoenix,AZ,85016,United States,(602) 955-8000,,,,,,
Neiman Marcus,300065,Scottsdale Fashion Square6900 E Camelback Rd,,Scottsdale,AZ,85251,United States,(480) 990-2100,,,,,,
HAMRA JEWELERS,290639,15435 North Scottsdale Rd.,,Scottsdale,AZ,85254,United States,(480) 946-5110,,,,,,
DAVID YURMAN,290860,40 East Oak St.,,Chicago,IL,60611,United States,(312) 787-7779,,,"Sun 12:00 PM - 6:00 PM, Mon 10:00 AM - 7:00 PM, Tue 10:00 AM - 7:00 PM, Wed 10:00 AM - 7:00 PM, Thu 10:00 AM - 7:00 PM, Fri 10:00 AM - 7:00 PM, Sat 10:00 AM - 7:00 PM",,,
David Yurman,300075,"Fashion Outlets of Chicago5220 Rose Street, Space 2131",,Rosemont,IL,60018,United States,(847) 233-9580,,,"Sun 12:00 PM - 5:00 PM, Mon 10:00 AM - 7:00 PM, Tue 10:00 AM - 7:00 PM, Wed 10:00 AM - 7:00 PM, Thu 10:00 AM - 7:00 PM, Fri 10:00 AM - 7:00 PM, Sat 10:00 AM - 6:00 PM",,,
DAVID YURMAN,300042,Oakbrook Center130 Oakbrook Center,,Oak Brook,IL,60523,United States,(630) 928-1005,,,"Sun 11:00 AM - 6:00 PM, Mon 10:00 AM - 9:00 PM, Tue 10:00 AM - 9:00 PM, Wed 10:00 AM - 9:00 PM, Thu 10:00 AM - 9:00 PM, Fri 10:00 AM - 9:00 PM, Sat 10:00 AM - 9:00 PM",,,
NORDSTROM,290958,55 East Grand Ave.,,Chicago,IL,60611,United States,(312) 464-1515,,,,,,
SAKS FIFTH AVENUE,291648,700 North Michigan Ave.,,Chicago,IL,60611,United States,(312) 994-6500,,,,,,
Neiman Marcus,291635,737 North Michigan Avenue,,Chicago,IL,60611,United States,(312) 642-5900,,,,,,
BLOOMINGDALE'S,291629,900 North Michigan Avenue,,Chicago,IL,60611,United States,(312) 440-4460,,,,,,
NORDSTROM,290961,77 Old Orchard Shopping Center,,Skokie,IL,60077,United States,(847) 677-2121,,,,,,
BLOOMINGDALE'S,290995,Westfield Old Orchard4963 Old Orchard Shopping Center,,Skokie,IL,60077,United States,(847) 675-5200,,,,,,
Nordstrom,291543,10 Oak Brook Center,,Oak Brook,IL,60523,United States,(630) 571-2121,,,,,,
LEE MICHAELS FINE JEWELRY,290684,North Star Mall7400 San Pedro Ave.,,San Antonio,TX,78216,United States,(210) 541-9575,,,,,,
SAKS FIFTH AVENUE,290928,7400 San Pedro Ave.,,San Antonio,TX,78216,United States,(210) 341-4111,,,,,,
NEIMAN MARCUS,290895,The Shops at La Cantera15900 La Cantera Pkwy,,San Antonio,TX,78256,United States,(210) 558-8000,,,,,,
LEE MICHAELS FINE JEWELRY,290688,The Shops at La Cantera15900 La Cantera Parkway,,San Antonio,TX,78256,United States,(210) 699-9494,,,,,,
DAVID YURMAN,290852,The Galleria5085 Westheimer Rd.,,Houston,TX,77056,United States,(713) 622-5799,,,"Sun 12:00 PM - 6:00 PM, Mon 10:00 AM - 9:00 PM, Tue 10:00 AM - 9:00 PM, Wed 10:00 AM - 9:00 PM, Thu 10:00 AM - 9:00 PM, Fri 10:00 AM - 9:00 PM, Sat 10:00 AM - 9:00 PM",,,
DAVID YURMAN,291745,"Houston Premium Outlets29300 Hempstead Road, Suite 1310",,Cypress,TX,77433,United States,(281) 758-4244,,,"Sun 11:00 AM - 7:00 PM, Mon 10:00 AM - 9:00 PM, Tue 10:00 AM - 9:00 PM, Wed 10:00 AM - 9:00 PM, Thu 10:00 AM - 9:00 PM, Fri 10:00 AM - 9:00 PM, Sat 10:00 AM - 9:00 PM",,,
NEIMAN MARCUS,290864,The Galleria2600 Post Oak Blvd,,Houston,TX,77056,United States,(713) 621-7100,,,,,,
SAKS FIFTH AVENUE,291650,The Galleria5175 Westheimer Rd,,Houston,TX,77056,United States,(713) 627-0500,,,,,,
Lewis Jewelers,290845,"19335 Gulf Fwy, Ste. 4",,Webster,TX,77598,United States,(281) 332-8433,,,,,,
DONOHO'S JEWELERS,290596,The Woodlands9590 Six Pines Dr.,,The Woodlands,TX,77380,United States,(281) 367-9050,,,,,,
David Yurman,300001,114 Prince Street,,New York,NY,10012,United States,(212) 343-7918,,,"Sun 12:00 PM - 6:00 PM, Mon 11:00 AM - 7:00 PM, Tue 11:00 AM - 7:00 PM, Wed 11:00 AM - 7:00 PM, Thu 11:00 AM - 7:00 PM, Fri 11:00 AM - 7:00 PM, Sat 11:00 AM - 7:00 PM",,,
DAVID YURMAN,290849,712 Madison Avenue at 63rd St.,,New York,NY,10065,United States,(212) 752-4255,,,"Sun 12:00 PM - 5:00 PM, Mon 10:00 AM - 7:00 PM, Tue 10:00 AM - 7:00 PM, Wed 10:00 AM - 7:00 PM, Thu 10:00 AM - 7:00 PM, Fri 10:00 AM - 7:00 PM, Sat 10:00 AM - 6:00 PM",,,
DAVID YURMAN,291004,Americana Manhasset2050 Northern Blvd.,,Manhasset,NY,11030,United States,(516) 627-1700,,,"Sun 12:00 PM - 5:30 PM, Mon 10:00 AM - 5:30 PM, Tue 10:00 AM - 5:30 PM, Wed 10:00 AM - 5:30 PM, Thu 10:00 AM - 6:30 PM, Fri 10:00 AM - 6:30 PM, Sat 10:00 AM - 6:30 PM",,,
SAKS FIFTH AVENUE,290898,611 Fifth Ave.,,New York,NY,10022,United States,(212) 940-2075,,,,,,
BLOOMINGDALE'S,291000,1000 Third Ave.,,New York,NY,10022,United States,(212) 705-3899,,,,,,
BLOOMINGDALE'S,290981,400 Hackensack Ave.,,Hackensack,NJ,07602,United States,(201) 457-2044,,,,,,
FREDERIC GOODMAN,290513,233 Bellevue Ave.,,Montclair,NJ,07043,United States,(973) 744-0400,,,,,,
NEIMAN MARCUS,290886,Westfield Garden State Plaza503 Garden State Plaza Blvd,,Paramus,NJ,07652,United States,(201) 291-1920,,,,,,
Nordstrom,300072,"Westfield Garden State Plaza501 Garden State Plaza Blvd, Store #520",,Paramus,NJ,07652,United States,(201) 843-1122,,,,,,
BLOOMINGDALE'S,290979,Willowbrook Mall3 Willowbrook Blvd.,,Wayne,NJ,07470,United States,(973) 582-2400,,,,,,
DAVID YURMAN,290859,King of Prussia Plaza350 Mall Boulevard,,King Of Prussia,PA,19406,United States,(610) 265-6370,,,"Sun 11:00 AM - 6:00 PM, Mon 10:00 AM - 9:00 PM, Tue 10:00 AM - 9:00 PM, Wed 10:00 AM - 9:00 PM, Thu 10:00 AM - 9:00 PM, Fri 10:00 AM - 9:00 PM, Sat 10:00 AM - 9:00 PM",,,
Nordstrom,291552,2000 Route 38,,Cherry Hill,NJ,08003,United States,(856) 773-5600,,,,,,
BENARI JEWELERS,291014,3606 West Chester Pike,,Newton Square,PA,19073,United States,(610) 355-1800,,,,,,
BLOOMINGDALE'S,290985,2400 Moreland Park,,Willow Grove,PA,19090,United States,(215) 657-7393,,,,,,
JAY ROBERTS JEWELERS,290655,The Shoppes at Borders515 Route 73 South,,Marlton,NJ,08053,United States,(856) 596-8600,,,,,,
BLOOMINGDALE'S,290989,660 West Dekalb Ave.,,King Of Prussia,PA,19406,United States,(610) 337-6367,,,,,,
NEIMAN MARCUS,290888,The Plaza at King of Prussia170 North Gulph Rd.,,King Of Prussia,PA,19406,United States,(610) 962-6200,,,,,,
Bernie Robbins Jewelers,290539,200 North Sycamore Street,,Newtown,PA,18940,United States,(215) 579-8224,,,,,,
BENARI JEWELERS,290601,299 Main St.,,Exton,PA,19341,United States,(610) 363-8450,,,,,,
HAMILTON JEWELERS,290638,92 Nassau St.,,Princeton,NJ,08540,United States,(609) 683-4200,,,,,,
DAVID YURMAN,290855,NorthPark Center323 Northpark Center,,Dallas,TX,75225,United States,(469) 232-4500,,,"Sun 12:00 PM - 6:00 PM, Mon 10:00 AM - 8:00 PM, Tue 10:00 AM - 8:00 PM, Wed 10:00 AM - 8:00 PM, Thu 10:00 AM - 8:00 PM, Fri 10:00 AM - 8:00 PM, Sat 10:00 AM - 8:00 PM",,,
NEIMAN MARCUS,290861,1618 Main St.1 Marcus Square,,Dallas,TX,75201,United States,(214) 741-6911,,,,,,
NEIMAN MARCUS,290862,Northpark400 North Park Center,,Dallas,TX,75225,United States,(214) 363-8311,,,,,,
BACHENDORF'S,290767,13350 Dallas PkwySuite 1415,,Dallas,TX,75240,United States,(972) 392-9900,,,,,,
Neiman Marcus,300069,2201 Dallas Pkwy,,Plano,TX,75093,United States,(972) 629-1700,,,,,,
Malouf's,291630,Southlake Town Square190 State Street,,Southlake,TX,76092,United States,(817) 416-7100,,,,,,
NEIMAN MARCUS,290863,2100 Green Oaks Rd.,,Fort Worth,TX,76116,United States,(817) 738-3581,,,,,,
REIS-NICHOLS,290738,789 US 31 North,,Greenwood,IN,46142,United States,(317) 883-4467,,,,,,
REIS-NICHOLS,290737,3535 East 86th St.,,Indianapolis,IN,46240,United States,(317) 255-4467,,,,,,
SAKS FIFTH AVENUE,291647,8701 Keystone Crossing,,Indianapolis,IN,46240,United States,(317) 816-0171,,,,,,
MOYER FINE JEWELERS,290721,14727 US 31 North,,Carmel,IN,46032,United States,(317) 844-9003,,,,,,
DAVID YURMAN,291728,Westfield Valley Fair2855 Stevens Creek Boulevard Space 1361,,Santa Clara,CA,95050,United States,(408) 296-6198,,,"Sun 11:00 AM - 6:00 PM, Mon 10:00 AM - 8:00 PM, Tue 10:00 AM - 8:00 PM, Wed 10:00 AM - 8:00 PM, Thu 10:00 AM - 8:00 PM, Fri 10:00 AM - 8:00 PM, Sat 10:00 AM - 8:00 PM",,,
NEIMAN MARCUS,290882,Stanford Shopping Center400 Stanford Shopping Center,,Palo Alto,CA,94304,United States,(650) 329-3300,,,,,,
NORDSTROM,291345,Stanford Shopping Center550 Stanford Shopping Center,,Palo Alto,CA,94304,United States,(650) 323-5111,,,,,,
BLOOMINGDALE'S,300060,Stanford Shopping Center1 Stanford Shopping Center,,Palo Alto,CA,94304,United States,(650) 463-2000,,,,,,
Nordstrom,291724,Stoneridge Shopping Center1600 Stoneridge Mall Rd,,Pleasanton,CA,94588,United States,(925) 463-5050,,,,,,
Neiman Marcus,300068,Broadway Plaza1000 S Main St,,Walnut Creek,CA,94596,United States,(925) 279-3000,,,,,,
NORDSTROM,290966,1200 Broadway Plaza,,Walnut Creek,CA,94596,United States,(925) 930-7959,,,,,,
BLOOMINGDALE'S,291628,845 Market Street,,San Francisco,CA,94103,United States,,,,,,,
Neiman Marcus,291633,150 Stockton Street,,San Francisco,CA,94108,United States,,,,,,,
SAKS FIFTH AVENUE,291641,384 Post St.,,San Francisco,CA,94108,United States,,,,,,,
Nordstrom,300051,The Village at Corte Madera1870 Redwood Hwy,,Corte Madera,CA,94925,United States,,,,,,,
UNDERWOOD'S JEWELERS,290784,2044 San Marco Blvd.,,Jacksonville,FL,32207,United States,(904) 398-9741,,,,,,
UNDERWOOD'S JEWELERS,290785,Avondale Shopping Center3617 St. Johns Ave.,,Jacksonville,FL,32205,United States,(904) 388-5406,,,,,,
Levy Jewelers,291735,St. John's Town Center10281 Midtown Parkway Suite 191,,Jacksonville,FL,32246,United States,(904) 527-2643,,,,,,
UNDERWOOD'S JEWELERS,290786,"The Shoppes of Ponte Vedra330 A1A N, Suite 204",,Ponte Vedra Beach,FL,32082,United States,(904) 280-1202,,,,,,
DAVID YURMAN,291005,"The Domain11600 Century Oaks Terrace, Ste 124",,Austin,TX,78758,United States,(512) 834-8700,,,"Sun 12:00 PM - 6:00 PM, Mon 10:00 AM - 8:00 PM, Tue 10:00 AM - 8:00 PM, Wed 10:00 AM - 8:00 PM, Thu 10:00 AM - 8:00 PM, Fri 10:00 AM - 8:00 PM, Sat 10:00 AM - 8:00 PM",,,
NEIMAN MARCUS,291020,The Domain3400 Palm Way,,Austin,TX,78758,United States,(512) 719-1200,,,,,,
DAVID YURMAN,291743,SouthPark Mall4400 Sharon Road Suite M14,,Charlotte,NC,28211,United States,(704) 366-7259,,,"Sun 12:30 PM - 6:00 PM, Mon 10:00 AM - 9:00 PM, Tue 10:00 AM - 9:00 PM, Wed 10:00 AM - 9:00 PM, Thu 10:00 AM - 9:00 PM, Fri 10:00 AM - 9:00 PM, Sat 10:00 AM - 9:00 PM",,,
Neiman Marcus,291537,4400 Sharon Road,,Charlotte,NC,28211,United States,(704) 442-7900,,,,,,
FINK'S JEWELERS,290611,SouthPark Mall4400 Sharon Rd. Suite 199,,Charlotte,NC,28211,United States,(704) 366-3120,,,,,,
Fink's Jewelers,300044,Birkdale Village16745 Birkdale Commons Pkwy,,Huntersville,NC,28078,United States,(704) 927-4888,,,,,,
DIAMOND CELLAR,290674,Easton Town Center3960 New Bond St.,,Columbus,OH,43219,United States,(614) 923-6633,,,,,,
DIAMOND CELLAR,290673,6280 Sawmill Rd.,,Dublin,OH,43017,United States,(614) 336-4545,,,,,,
SAKS FIFTH AVENUE,290949,Polaris Fashion Place1350 Polaris Pkwy,,Columbus,OH,43240,United States,(614) 430-3500,,,,,,
David Yurman,300012,Cherry Creek Shopping Center3000 East 1st Avenue,,Denver,CO,80206,United States,(303) 355-0453,,,"Sun 11:00 AM - 6:00 PM, Mon 10:00 AM - 9:00 PM, Tue 10:00 AM - 9:00 PM, Wed 10:00 AM - 9:00 PM, Thu 10:00 AM - 9:00 PM, Fri 10:00 AM - 9:00 PM, Sat 10:00 AM - 9:00 PM",,,
NEIMAN MARCUS,290885,Cherry Creek Mall3030 East First Ave.,,Denver,CO,80206,United States,(303) 329-2600,,,,,,
Nordstrom,291542,8465 Park Meadows Center Drive,,Lone Tree,CO,80124,United States,(303) 799-3400,,,,,,
NORDSTROM,290957,Flatiron Crossing21 West Flatiron Circle,,Broomfield,CO,80021,United States,(720) 887-0333,,,,,,
DAVID YURMAN,290595,Copley Place100 Huntington Ave.,,Boston,MA,02116,United States,(617) 236-8777,,,"Sun 12:00 PM - 6:00 PM, Mon 10:00 AM - 8:00 PM, Tue 10:00 AM - 8:00 PM, Wed 10:00 AM - 8:00 PM, Thu 10:00 AM - 8:00 PM, Fri 10:00 AM - 8:00 PM, Sat 10:00 AM - 8:00 PM",,,
LONG'S JEWELERS,291040,100 Summer Street,,Boston,MA,02110,United States,(617) 426-8500,,,,,,
SAKS FIFTH AVENUE,291649,800 Boylston St.,,Boston,MA,02199,United States,(617) 262-8500,,,,,,
BLOOMINGDALE'S,290988,225 Boylston St.,,Chestnut Hill,MA,02467,United States,(617) 630-6726,,,,,,
LONG'S JEWELERS,290732,South Shore Plaza250 Granite St.,,Braintree,MA,02184,United States,(781) 356-5300,,,,,,
Nordstrom,300050,Burlington Mall75 Middlesex Tpke,,Burlington,MA,01803,United States,(781) 345-7800,,,,,,
LONG'S JEWELERS,290733,60A South Ave.,,Burlington,MA,01803,United States,(781) 272-5400,,,,,,
LUX BOND AND GREEN,290707,60 Central St.,,Wellesley,MA,02482,United States,(781) 235-9119,,,,,,
LONG'S JEWELERS,290731,35 Cross St.,,Peabody,MA,01960,United States,(978) 531-6900,,,,,,
Neiman Marcus,300063,Natick Mall310 Speen St,,Natick,MA,01760,United States,(508) 620-5700,,,,,,
David Yurman,300011,CityCenterDC924 Palmer Alley NW,,Washington,DC,20001,United States,(202) 682-0260,,,"Sun 11:00 AM - 6:00 PM, Mon 10:00 AM - 8:00 PM, Tue 10:00 AM - 8:00 PM, Wed 10:00 AM - 8:00 PM, Thu 10:00 AM - 8:00 PM, Fri 10:00 AM - 8:00 PM, Sat 10:00 AM - 8:00 PM",,,
DAVID YURMAN,291043,Tysons Galleria1763 M Galleria at Tysons II,,McLean,VA,22102,United States,(703) 245-3515,,,"Sun 12:00 PM - 6:00 PM, Mon 10:00 AM - 9:00 PM, Tue 10:00 AM - 9:00 PM, Wed 10:00 AM - 9:00 PM, Thu 10:00 AM - 9:00 PM, Fri 10:00 AM - 9:00 PM, Sat 10:00 AM - 9:00 PM",,,
TINY JEWEL BOX,290774,1147 Connecticut Ave.,,Washington,DC,20036,United States,(202) 393-2747,,,,,,
NEIMAN MARCUS,290868,"5300 Wisconsin Ave., NW",,Washington,DC,20015,United States,(202) 966-9700,,,,,,
LILJENQUIST & BECKSTEAD,290822,7101 Democracy Blvd.,,Bethesda,MD,20817,United States,(301) 469-7575,,,,,,
BLOOMINGDALE'S,290986,Tysons Corner Center8100 Tysons Corner Center,,Tysons,VA,22102,United States,(703) 556-4600,,,,,,
NEIMAN MARCUS,290881,Tysons Galleria2255 International Drive,,Mclean,VA,22102,United States,(703) 761-1600,,,,,,
SAKS FIFTH AVENUE,290899,Tysons Galleria2051 International Dr.,,Mclean,VA,22102,United States,(703) 761-0700,,,,,,
FINK'S JEWELERS,290605,Dulles Town Center21100 Dulles Town CircleSuite 162,,Dulles,VA,20166,United States,(571) 434-6540,,,,,,
NORDSTROM,290976,10300 Little Patuxent Pkwy,,Columbia,MD,21044,United States,(410) 715-2222,,,,,,
DAVID YURMAN,291553,The Mall at Green Hills2126 Abbott Martin Road,,Nashville,TN,37215,United States,(615) 298-1190,,,"Sun 12:00 PM - 6:00 PM, Mon 10:00 AM - 9:00 PM, Tue 10:00 AM - 9:00 PM, Wed 10:00 AM - 9:00 PM, Thu 10:00 AM - 9:00 PM, Fri 10:00 AM - 9:00 PM, Sat 10:00 AM - 9:00 PM",,,
NORDSTROM,291018,700 Fairmont Ave.,,Towson,MD,21286,United States,(410) 296-1290,,,,,,
LILJENQUIST & BECKSTEAD,290820,1660 Annapolis Mall,,Annapolis,MD,21401,United States,(410) 224-4787,,,,,,
NORDSTROM,290975,Westfield Annapolis1880 Annapolis Mall Rd,,Annapolis,MD,21401,United States,(410) 573-1121,,,,,,
B.C. CLARK JEWELERS,290518,101 Park Ave.,,Oklahoma City,OK,73102,United States,(405) 232-8806,,,,,,
B.C. CLARK JEWELERS,290520,Penn Square Mall1901 NW Expressway Ste 1020,,Oklahoma City,OK,73118,United States,(405) 840-1441,,,,,,
B.C. CLARK JEWELERS,290519,12042 North May Ave.,,Oklahoma City,OK,73120,United States,(405) 755-4040,,,,,,
Davis Jewelers,291605,9901 Forest Green Blvd.,,Louisville,KY,40223,United States,(502) 212-0420,,,,,,
BEN BRIDGE JEWELER,300004,7040 N Mesa Street,,El Paso,TX,79912,United States,915-584-4700,,,,,,
DAVID YURMAN,291748,2801 West Big Beaver RoadSuite #114,,Troy,MI,48084,United States,(248) 649-6054,,,"Sun 12:00 PM - 6:00 PM, Mon 10:00 AM - 9:00 PM, Tue 10:00 AM - 9:00 PM, Wed 10:00 AM - 9:00 PM, Thu 10:00 AM - 9:00 PM, Fri 10:00 AM - 9:00 PM, Sat 10:00 AM - 7:00 PM",,,
JOSEPH ANTHONY,290842,100 Eugenie St. West,,Windsor,ON,N8X 4Y6,Canada,(519) 966-6906,,,,,,
AHEE JEWELERS,290599,20139 Mack Ave.,,Grosse Pointe Woods,MI,48236,United States,(313) 886-4600,,,,,,
SAKS FIFTH AVENUE,290911,Somerset Mall2901 West Big Beaver Rd.,,Troy,MI,48084,United States,(248) 643-9000,,,,,,
TAPPERS,290764,6337 Orchard Lake Rd.,,West Bloomfield,MI,48322,United States,(248) 932-7700,,,,,,
Tapper's Diamonds and Fine Jewelry,291555,27716 Novi Road,,Novi,MI,48377,United States,(248) 465-1800,,,,,,
David Fairclough,300000,7141 West Central Avenue,,Toledo,OH,43617,United States,419-843-8887,,,,,,
MEDNIKOW JEWELERS,290652,474 Perkins Extended,,Memphis,TN,38117,United States,(901) 767-2100,,,,,,
Nordstrom,291636,500 Pine Street,,Seattle,WA,98101,United States,,,,,,,
BEN BRIDGE,290529,113 Bellevue Square,,Bellevue,WA,98004,United States,(425) 455-5800,,,,,,
NORDSTROM,290952,Bellevue Square100 Bellevue Square,,Bellevue,WA,98004,United States,(425) 455-5800,,,,,,
Neiman Marcus,300062,The Shops At The Bravern11111 NE 8th St,,Bellevue,WA,98004,United States,(425) 452-3300,,,,,,
NORDSTROM,290954,701 SW Broadway,,Portland,OR,97205,United States,(503) 224-6666,,,,,,
NORDSTROM,290955,9700 SW Washington Square,,Tigard,OR,97223,United States,(502) 620-0555,,,,,,
DAVID YURMAN,291051,Las Vegas Premium Outlets795 S. Grand Central Parkway Space #2223,,Las Vegas,NV,89106,United States,(702) 383-9039,,,"Sun 9:00 AM - 8:00 PM, Mon 9:00 AM - 9:00 PM, Tue 9:00 AM - 9:00 PM, Wed 9:00 AM - 9:00 PM, Thu 9:00 AM - 9:00 PM, Fri 9:00 AM - 9:00 PM, Sat 9:00 AM - 9:00 PM",,,
DAVID YURMAN,290854,The Forum Shops at Caesars3500 South Las Vegas Blvd.,,Las Vegas,NV,89109,United States,(702) 794-4545,,,"Sun 10:00 AM - 11:00 PM, Mon 10:00 AM - 11:00 PM, Tue 10:00 AM - 11:00 PM, Wed 10:00 AM - 11:00 PM, Thu 10:00 AM - 11:00 PM, Fri 10:00 AM - 12:00 AM, Sat 10:00 AM - 12:00 AM",,,
Neiman Marcus,291634,Fashion Show Mall3200 Las Vegas Blvd. South,,Las Vegas,NV,89109,United States,(702) 731-3636,,,,,,
Prosecco,291033,The Grand Canal Shoppes3325 S Las Vegas Blvd,,Las Vegas,NV,89109,United States,(702) 607-3956,,,,,,
Aria Mens,291655,3730 Las Vegas Blvd.,,Las Vegas,NV,89158,United States,(702) 590-8734,,,,,,
TREIBER & STRAUB JEWELERS,290780,14740 West Capitol Dr.,,Brookfield,WI,53005,United States,(262) 790-5757,,,,,,
RAZNY JEWELERS,290736,1700 Green Bay Rd.,,Highland Park,IL,60035,United States,(847) 432-5300,,,,,,
Neiman Marcus,300064,Northbrook Court5000 Northbrook Ct,,Northbrook,IL,60062,United States,(847) 564-0300,,,,,,
Orloff Jewelers,291716,770 W. Shaw AveSuite #101,770 W. Shaw AveSuite #101,Fresno,CA,93704,United States,(559) 221-6622,,,,,,
DAVID YURMAN,290850,South Coast Plaza3333 Bristol St.,,Costa Mesa,CA,92626,United States,(714) 444-1080,,,"Sun 11:00 AM - 6:30 PM, Mon 10:00 AM - 9:00 PM, Tue 10:00 AM - 9:00 PM, Wed 10:00 AM - 9:00 PM, Thu 10:00 AM - 9:00 PM, Fri 10:00 AM - 9:00 PM, Sat 10:00 AM - 8:00 PM",,,
BLOOMINGDALE'S,300059,South Coast Plaza3333 Bristol St,,Costa Mesa,CA,92626,United States,(714) 824-4600,,,,,,
The Watch Connection,291725,3033 Bristol Street,,Costa Mesa,CA,92672,United States,(714) 432-8200,,,,,,
Neiman Marcus,291632,601 Newport Center,,Newport Beach,CA,92660,United States,,,,,,,
NORDSTROM,290969,1651 Arden Way,,Sacramento,CA,95815,United States,(916) 646-2400,,,,,,
NORDSTROM,291344,1131 Galleria Blvd,,Roseville,CA,95678,United States,,,,,,,
TIVOL,290776,Country Club Plaza220 Nichols Rd.,,Kansas City,MO,64112,United States,(816) 531-5800,,,,,,
MEIEROTTO'S MIDWEST JEWELRY,290717,4311 Northeast Vivion Rd.,,Kansas City,MO,64119,United States,(816) 454-2052,,,,,,
TIVOL,290775,Hawthorne Plaza4721 West 119th St.,,Overland Park,KS,66209,United States,(913) 345-0200,,,,,,
FINK'S JEWELERS,290607,MacArthur Center300 E. Monticello Ave. Space 274,,Norfolk,VA,23510,United States,(757) 640-1132,,,,,,
DAVID YURMAN,290853,Lenox Square Mall3393 Peachtree Rd. NE,,Atlanta,GA,30326,United States,(404) 812-9225,,,"Sun 12:00 PM - 6:00 PM, Mon 10:00 AM - 8:00 PM, Tue 10:00 AM - 8:00 PM, Wed 10:00 AM - 8:00 PM, Thu 10:00 AM - 8:00 PM, Fri 10:00 AM - 8:00 PM, Sat 10:00 AM - 8:00 PM",,,
NEIMAN MARCUS,290866,"3393 Peach Tree Rd., NE",,Atlanta,GA,30326,United States,(404) 266-8200,,,,,,
Saks Fifth Avenue,291538,Phipps Plaza3440 Peachtree Rd,,Atlanta,GA,30326,United States,(404) 261-7234,,,,,,
NORDSTROM,290977,4390 Ashford Dunwoody Rd.,,Atlanta,GA,30346,United States,(770) 394-1141,,,,,,
BROWN & CO.,290545,674 Holcomb Bridge Rd.,,Roswell,GA,30076,United States,(770) 993-1080,,,,,,
BAILEY'S FINE JEWELRY,290523,Cameron Village415 Daniels St.,,Raleigh,NC,27605,United States,(919) 829-7337,,,,,,
FINK'S JEWELERS,291730,North Hills4321 Lassiter at North Hills Ave Suite 120,,Raleigh,NC,27609,United States,(919) 881-8247,,,,,,
BAILEY'S FINE JEWELRY,291476,4325 Glenwood Ave.,,Raleigh,NC,27612,United States,(919) 788-7500,,,,,,
SAKS FIFTH AVENUE,290948,7700 Old Wake Forest Rd.,,Raleigh,NC,27616,United States,(919) 792-9100,,,,,,
FINK'S JEWELERS,290616,"The Streets at South Point6910 Fayetteville Rd, Suite 160",,Durham,NC,27713,United States,(919) 281-8407,,,,,,
BAILEY'S FINE JEWELRY,290521,West Ridge Plaza117 Winstead Ave.,,Rocky Mount,NC,27804,United States,(252) 443-7676,,,,,,
DAVID YURMAN,290851,Bal Harbour Shops9700 Collins Ave.,,Bal Harbour,FL,33154,United States,(305) 867-1772,,,"Sun 12:00 PM - 6:00 PM, Mon 10:00 AM - 9:00 PM, Tue 10:00 AM - 9:00 PM, Wed 10:00 AM - 9:00 PM, Thu 10:00 AM - 9:00 PM, Fri 10:00 AM - 9:00 PM, Sat 10:00 AM - 9:00 PM",,,
MORAYS JEWELERS,290719,50 Northeast 2nd Ave.,,Miami,FL,33132,United States,(305) 374-0739,,,,,,
Nordstrom,291727,4310 Ponce de Leon Boulevard,,Coral Gables,FL,33146,United States,(786) 999-1313,,,,,,
NEIMAN MARCUS,290892,390 San Lorenzo Ave.,,Coral Gables,FL,33146,United States,(786) 999-1000,,,,,,
SAKS FIFTH AVENUE,290915,Dadeland Mall7687 North Kendall Dr.,,Miami,FL,33156,United States,(305) 662-8655,,,,,,
NEIMAN MARCUS,290865,9700 Collins Ave.,,Bal Harbour,FL,33154,United States,(305) 865-6161,,,,,,
BLOOMINGDALE'S,290990,8778 SW 136th St.,,Miami,FL,33176,United States,(305) 252-6265,,,,,,
BLOOMINGDALE'S,290996,19555 Biscayne Blvd.,,Aventura,FL,33180,United States,(305) 792-1069,,,,,,
Nordstrom,291733,19507 Biscayne Boulevard,,Aventura,FL,33180,United States,(305) 356-6900,,,,,,
NEIMAN MARCUS,290878,2442 East Sunrise Blvd.,,Fort Lauderdale,FL,33304,United States,(954) 566-6666,,,,,,
DAVID YURMAN,291746,Galleria Edina3615 Galleria,,Edina,MN,55435,United States,(952) 920-9331,,,"Sun 11:00 AM - 6:00 PM, Mon 10:00 AM - 9:00 PM, Tue 10:00 AM - 9:00 PM, Wed 10:00 AM - 9:00 PM, Thu 10:00 AM - 9:00 PM, Fri 10:00 AM - 9:00 PM, Sat 10:00 AM - 9:00 PM",,,
Nordstrom,291544,1000 NW Court,,Bloomington,MN,55425,United States,(952) 883-2121,,,,,,
SAKS FIFTH AVENUE,290921,26100 Cedar Rd.,,Beachwood,OH,44122,United States,(216) 292-5500,,,,,,
Nordstrom,291723,26200 Cedar Road,,Beachwood,OH,44122,United States,(216) 378-2121,,,,,,
ALSON JEWELERS,290511,28149 Chagrin Blvd.,,Beachwood,OH,44122,United States,(216) 464-6767,,,,,,
THOM DUMA,290840,115 West Market St.,,Warren,OH,44481,United States,(330) 393-4696,,,,,,
BRUCE WEBER PRECIOUS JEWELS,290552,1700 Utica Square,,Tulsa,OK,74114,United States,(918) 749-1700,,,,,,
SAKS FIFTH AVENUE,290907,1780 Utica Square,,Tulsa,OK,74114,United States,(918) 744-0200,,,,,,
THE FIRST PLACE,290593,2929 North Rock Rd.Suite 165,2929 North Rock Rd.Suite 165,Wichita,KS,67226,United States,(888) 655-2338,,,,,,
Saks Fifth Avenue,300061,The Shops at Canal Place301 Canal St.,,New Orleans,LA,70130,United States,,,,,,,
AUCOIN HART JEWELERS,290517,1525 Metairie Rd.,,Metairie,LA,70005,United States,(504) 834-9999,,,,,,
LEE MICHAELS FINE JEWELRY,290686,"3301 Veterans Memorial Blvd, Suite 109",,Metairie,LA,70002,United States,(504) 832-0000,,,,,,
HOUSTON,290839,4717 Stockdale Hwy,,Bakersfield,CA,93309,United States,(661) 835-3530,,,,,,
David Yurman,300013,"International Plaza and Bay Street2223 N. Westshore Blvd., Suite 267",,Tampa,FL,33607,United States,813-870-2719,,,"Sun 11:00 AM - 6:00 PM, Mon 10:00 AM - 9:00 PM, Tue 10:00 AM - 9:00 PM, Wed 10:00 AM - 9:00 PM, Thu 10:00 AM - 9:00 PM, Fri 10:00 AM - 9:00 PM, Sat 10:00 AM - 9:00 PM",,,
NEIMAN MARCUS,290893,International Plaza and Bay Street2223 N West Shore Blvd,,Tampa,FL,33607,United States,(813) 877-5700,,,,,,
SAKS FIFTH AVENUE,290935,120 University Town Center Drive,,Sarasota,FL,34243,United States,(941) 364-5300,,,,,,
David Yurman,300014,"Ala Moana Center1450 Ala Moana Blvd., Suite 2830",,Honolulu,HI,96814,United States,(808) 947-8702,,,"Sun 10:00 AM - 7:00 PM, Mon 9:30 AM - 9:00 PM, Tue 9:30 AM - 9:00 PM, Wed 9:30 AM - 9:00 PM, Thu 9:30 AM - 9:00 PM, Fri 9:30 AM - 9:00 PM, Sat 9:30 AM - 9:00 PM",,,
NORDSTROM,291036,Ala Moana Center1519 Kapiolani Blvd.,,Honolulu,HI,96814,United States,(808) 953-6100,,,,,,
NEIMAN MARCUS,290889,1450 Ala Moana Blvd.,,Honolulu,HI,96814,United States,(808) 951-8887,,,,,,
FREDRIC H. RUBEL JEWELERS,290621,246 Forest Ave.,,Laguna Beach,CA,92651,United States,(949) 494-3513,,,,,,
NORDSTROM,290964,100 Shops at Mission Viejo,,Mission Viejo,CA,92691,United States,(949) 347-2710,,,,,,
FREDRIC H. RUBEL JEWELERS,290620,924 Shops at Mission Viejo,,Mission Viejo,CA,92691,United States,(949) 364-3535,,,,,,
DAVID YURMAN,291749,1701 South Lindbergh Boulevard #81,,St. Louis,MO,63131,United States,(314) 989-0524,,,"Sun 12:00 PM - 6:00 PM, Mon 10:00 AM - 8:00 PM, Tue 10:00 AM - 8:00 PM, Wed 10:00 AM - 8:00 PM, Thu 10:00 AM - 8:00 PM, Fri 10:00 AM - 8:00 PM, Sat 10:00 AM - 7:00 PM",,,
SAKS FIFTH AVENUE,291644,Frontenac Plaza1 Plaza Frontenac,,St. Louis,MO,63131,United States,,,,,,,
Neiman Marcus,291736,100 Plaza Frontenac,,St. Louis,MO,63131,United States,(314) 567-9811,,,,,,
JEWELS CROWN BAY MALL,291511,PO Box 1390,,St. Thomas,,804,"Virgin Islands, U.S.",(248) 809-5560 EXT 10180,,,,,,
CLARKSON JEWELERS,290837,1306C Clarkson/Clayton Center,,Ellisville,MO,63011,United States,(636) 227-2006,,,,,,
CORBETT-FRAME INC.,290588,369 West Vine St.,,Lexington,KY,40507,United States,(859) 254-1963,,,,,,
ORR'S JEWELERS,290725,5857 Forbes Avenue,,Pittsburgh,PA,15217,United States,(412) 421-6777,,,,,,
Nordstrom,291546,1000 Ross Park Mall Drive,,Pittsburgh,PA,15237,United States,(412) 548-4300,,,,,,
LOUIS ANTHONY JEWELERS,290698,1775 North Highland Rd.,,Pittsburgh,PA,15241,United States,(412) 854-0310,,,,,,
ORR'S JEWELERS,291019,532 Beaver Street,,Sewickley,PA,15143,United States,(412) 741-8080,,,,,,
SAKS FIFTH AVENUE,290905,101 West Fifth St.,,Cincinnati,OH,45202,United States,(513) 421-6800,,,,,,
Nordstrom,291545,Kenwood Towne Centre7801 Montgomery Rd,,Cincinnati,OH,45236,United States,(513) 699-4190,,,,,,
JAMES FREE JEWELERS,290654,9555 Main St.,,Montgomery,OH,45242,United States,(513) 793-0133,,,,,,
JAMES FREE JEWELERS,290653,3100 Far Hills Ave.,,Dayton,OH,45429,United States,(937) 298-0171,,,,,,
Fink's Jewelers,291440,1951 Battleground Avenue,,Greensboro,NC,27408,United States,(336) 292-8355,,,,,,
Schiffman's,291534,811 Friendly Center Road,,Greensboro,NC,27408,United States,(336) 294-4885,,,,,,
Frederic Goodman,300076,352 Springfield Ave,,Summit,NJ,07901,United States,(908) 522-8777,,,,,,
BLOOMINGDALE'S,290982,The Mall at Short Hills1200 Morris Turnpike,,Short Hills,NJ,07078,United States,(973) 548-2444,,,,,,
Neiman Marcus,300066,The Mall At Short Hills1200 Morris Turnpike,,Short Hills,NJ,07078,United States,(973) 912-0080,,,,,,
BRAUNSCHWEIGER JEWELERS,290544,Village Shopping Center1260 Springfield Ave,,New Providence,NJ,07974,United States,(908) 665-1487,,,,,,
DAVID YURMAN,29175011,"Yorkdale Shopping Centre,3401 Dufferin St Unit 217",,Toronto,ON,M6A 2T9,Canada,(416) 780-9598,,,"Sun 11:00 AM - 7:00 PM, Mon 10:00 AM - 9:00 PM, Tue 10:00 AM - 9:00 PM, Wed 10:00 AM - 9:00 PM, Thu 10:00 AM - 9:00 PM, Fri 10:00 AM - 9:00 PM, Sat 10:00 AM - 9:00 PM",,,
DAVID YURMAN,3000171,50 Bloor St W,,Toronto,ON,M4W 3L8,Canada,(416) 922-2333,,,"Sun 11:00 AM - 7:00 PM, Mon 10:00 AM - 9:00 PM, Tue 10:00 AM - 9:00 PM, Wed 10:00 AM - 9:00 PM, Thu 10:00 AM - 9:00 PM, Fri 10:00 AM - 9:00 PM, Sat 10:00 AM - 9:00 PM",,,
David Yurman at Saks Eaton Centre at Queen Street,300071,176 Yonge Street (at Queen Street),,Toronto,ON,M5C 2L7,Canada,(416) 507-3369,,,"Sun 12:00 PM - 6:00 PM, Mon 10:00 AM - 9:00 PM, Tue 10:00 AM - 9:00 PM, Wed 10:00 AM - 9:00 PM, Thu 10:00 AM - 9:00 PM, Fri 10:00 AM - 9:00 PM, Sat 10:00 AM - 9:00 PM",,,
David Yurman at Holt Renfrew,290643,50 Bloor Street West,,Toronto,ON,M4W 1A1,Canada,(416) 922-2333,,,"Sun 11:00 AM - 6:00 PM, Mon 10:00 AM - 8:00 PM, Tue 10:00 AM - 8:00 PM, Wed 10:00 AM - 8:00 PM, Thu 10:00 AM - 8:00 PM, Fri 10:00 AM - 8:00 PM, Sat 10:00 AM - 8:00 PM",,,
Holt Renfrew Men,300081,100 Bloor Street West,,Toronto,ON,M5S 3L3,Canada,416-960-2929,,,"Sun 11:00 AM - 6:00 PM, Mon 10:00 AM - 8:00 PM, Tue 10:00 AM - 8:00 PM, Wed 10:00 AM - 8:00 PM, Thu 10:00 AM - 8:00 PM, Fri 10:00 AM - 8:00 PM, Sat 10:00 AM - 8:00 PM",,,
Reeds Jewelers and Jenss Decor,300020,4001 Maple Road,,Amherst,NY,14226,United States,(716) 837-3934,,,,,,
Bandiera Jewelers,291722,123 Yorkville Ave,,Toronto,ON,M5R 1C4,Canada,(416) 642-8806,,,,,,
DAVID YURMAN,290856,Mall at Millenia4200 Conroy Rd.,,Orlando,FL,32839,United States,(407) 226-2920,,,"Sun 12:00 PM - 6:00 PM, Mon 10:00 AM - 9:00 PM, Tue 10:00 AM - 9:00 PM, Wed 10:00 AM - 9:00 PM, Thu 10:00 AM - 9:00 PM, Fri 10:00 AM - 9:00 PM, Sat 10:00 AM - 9:00 PM",,,
NEIMAN MARCUS,290894,Mall of Millenia4170 Convoy Rd.,,Orlando,FL,32839,United States,(407) 264-5900,,,,,,
MALOUF'S,290711,8201 Quaker Ave.,,Lubbock,TX,79424,United States,(806) 794-9500,,,,,,
DAVID YURMAN,291049,Colonnade Outlets at Sawgrass1800 Sawgrass Mills Circle Lot #2426,,Sunrise,FL,33323,United States,(954) 838-9979,,,"Sun 11:00 AM - 8:00 PM, Mon 10:00 AM - 9:30 PM, Tue 10:00 AM - 9:30 PM, Wed 10:00 AM - 9:30 PM, Thu 10:00 AM - 9:00 PM, Fri 10:00 AM - 9:30 PM, Sat 10:00 AM - 9:30 PM",,,
LEE MICHAELS FINE JEWELRY,290689,Bocage7560 Corporate Blvd.,,Baton Rouge,LA,70809,United States,(225) 926-4644,,,,,,
LEE MICHAELS FINE JEWELRY,290687,Mall of Louisiana6401 Bluebonnet Blvd.,,Baton Rouge,LA,70809,United States,(225) 766-6000,,,,,,
LEE MICHAELS FINE JEWELRY,290683,Ambassador Crossing4235 Ambassador Caffery Pkwy,,Lafayette,LA,70508,United States,(337) 981-8071,,,,,,
SAKS FIFTH AVENUE,290947,Stony Point Fashion Park9214 Stony Point Pkwy,,Richmond,VA,23235,United States,(804) 513-3590,,,,,,
FINK'S JEWELERS,290606,Chesterfield Towne Center11500 Midlothian TurnpikeSpace 612,,Richmond,VA,23235,United States,(804) 379-7171,,,,,,
SCHWARZSCHILD'S,290750,1200 Alverser Plaza,,Midlothian,VA,23113,United States,(804) 344-0150,,,,,,
FINK'S JEWELERS,290608,Short Pump Town Center11800 West Broad St. #1240,,Richmond,VA,23233,United States,(804) 377-8589,,,,,,
FINK'S JEWELERS,291482,One Towne Centre BlvdSuite 5600,,Fredericksburg,VA,22407,United States,(540) 736-1290,,,,,,
SAKS FIFTH AVENUE,291639,73555 El Paseo,,Palm Desert,CA,92260,United States,,,,,,,
BROMBERG & CO.,290547,2800 Cahaba Rd.,,Birmingham,AL,35223,United States,(205) 871-3276,,,,,,
SAKS FIFTH AVENUE,290942,The Summit129 Summit Blvd.,,Birmingham,AL,35243,United States,(205) 298-8550,,,,,,
BROMBERG & CO.,290548,131 Summit Blvd.,,Birmingham,AL,35243,United States,(205) 970-3042,,,,,,
MANN'S JEWELERS,290712,2945 Monroe Ave.,,Rochester,NY,14618,United States,(585) 271-4000,,,,,,
DAVID YURMAN,291747,6600 Topanga Canyon Blvd.Suite 185,,Canoga Park,CA,91303,United States,(818) 887-1530,,,"Sun 11:00 AM - 6:00 PM, Mon 10:00 AM - 8:00 PM, Tue 10:00 AM - 8:00 PM, Wed 10:00 AM - 8:00 PM, Thu 10:00 AM - 8:00 PM, Fri 10:00 AM - 8:00 PM, Sat 10:00 AM - 8:00 PM",,,
NEIMAN MARCUS,291035,6550 Topanga Canyon Blvd.,,Canoga Park,CA,91303,United States,(818) 316-7000,,,,,,
Ware Jewelers,291536,111 South College Street,,Auburn,AL,36830,United States,(334) 821-7375,,,,,,
LEE MICHAELS FINE JEWELRY,290682,6605 Youree Drive,,Shreveport,LA,71105,United States,(318) 222-2929,,,,,,
Ware Jewelers,291356,7268 East Chase Parkway,,Montgomery,AL,36117,United States,(334) 386-9273,,,,,,
NEIMAN MARCUS,290877,6 Oakbrook Center,,Oakbrook,IL,60523,United States,(630) 572-1500,,,,,,
RAZNY JEWELERS,290735,1501 West Lake Rd.,,Addison,IL,60101,United States,(630) 932-4900,,,,,,
NORDSTROM,290962,6 Woodfield Mall,,Schaumburg,IL,60173,United States,(847) 605-2121,,,,,,
DAVID YURMAN,291003,The Westchester125 Westchester Ave. Suite 1060,,White Plains,NY,10601,United States,(914) 539-4444,,,"Sun 11:00 AM - 5:00 PM, Mon 10:00 AM - 8:00 PM, Tue 10:00 AM - 8:00 PM, Wed 10:00 AM - 8:00 PM, Thu 10:00 AM - 8:00 PM, Fri 10:00 AM - 8:00 PM, Sat 10:00 AM - 8:00 PM",,,
BLOOMINGDALE'S,290984,175 Bloomingdale Rd.,,White Plains,NY,10605,United States,(914) 684-6300,,,,,,
NEIMAN MARCUS,290874,The Westchester2 Maple Ave,,White Plains,NY,10601,United States,(914) 428-2000,,,,,,
Sissy's Log Cabin,300015,1825 N Grant Street,,Little Rock,AR,72207,United States,501-663-0066,,,,,,
Ware Jewelers,291355,30500 State Hwy 181Suite #316,30500 State Hwy 181Suite #316,Spanish Fort,AL,36527,United States,(251) 338-9273,,,,,,
JEWELER'S TRADE SHOP,290844,26 Palafox Place,,Pensacola,FL,32502,United States,(850) 432-4433,,,,,,
MIRAGE RESORTS RETAIL,290770,875 Beach Blvd.,,Biloxi,MS,39530,United States,(702) 693-8447,,,,,,
WINDSOR JEWELERS,290799,National Hills Shopping Ctr2635 Washington Rd.,,Augusta,GA,30904,United States,(706) 738-7777,,,,,,
Nordstrom,291541,6191 South State Street,,Murray,UT,84107,United States,(801) 261-4402,,,,,,
LORING & CO. FINE JEWELERS,290831,800 Airport Rd.,,Huntsville,AL,35802,United States,(256) 880-1909,,,,,,
Loring & Co.,291531,800 Airport Road,,Huntsville,AL,35802,United States,(256) 880-1909,,,,,,
Kimball's Jewelers,291359,6464 Kingston Pike,,Knoxville,TN,37919,United States,(865) 584-0026,,,,,,
PROVIDENCE DIAMOND CO.,290729,Garden City Center65 Hillside Rd.,,Cranston,RI,02920,United States,(401) 946-7070,,,,,,
MONTALVO JEWELERS,290832,1910 South 10th St.,,Mcallen,TX,78503,United States,(956) 631-7840,,,,,,
LUX BOND AND GREEN,290702,1 Mohegan Sun Blvd.,,Uncasville,CT,06382,United States,(860) 862-9900,,,,,,
Lee Michaels at the Renaissance,290685,940 Highland Colony Parkway,,Ridgeland,MS,39157,United States,(601) 957-6100,,,,,,
DAVID YURMAN,291729,Town Center at Boca Raton6000 Glades Road Space: 1147A,,Boca Raton,FL,33431,United States,(561) 955-1848,,,"Sun 12:00 PM - 6:00 PM, Mon 10:00 AM - 9:00 PM, Tue 10:00 AM - 9:00 PM, Wed 10:00 AM - 9:00 PM, Thu 10:00 AM - 9:00 PM, Fri 10:00 AM - 9:00 PM, Sat 10:00 AM - 9:00 PM",,,
NEIMAN MARCUS,291405,5860 Glades Road,,Boca Raton,FL,33431,United States,(561) 471-5151,,,,,,
SAKS FIFTH AVENUE,290909,Town Center Mall5800 Glades Rd.,,Boca Raton,FL,33431,United States,(561) 620-1321,,,,,,
BLOOMINGDALE'S,290991,5840 Glades Rd.,,Boca Raton,FL,33431,United States,(561) 394-2289,,,,,,
DAVID YURMAN,291557,The Gardens Mall3101 PGA Blvd. J213,,Palm Beach Gardens,FL,33410,United States,(561) 624-5332,,,"Sun 12:00 PM - 5:00 PM, Mon 10:00 AM - 8:00 PM, Tue 10:00 AM - 8:00 PM, Wed 10:00 AM - 8:00 PM, Thu 10:00 AM - 8:00 PM, Fri 10:00 AM - 8:00 PM, Sat 10:00 AM - 8:00 PM",,,
SAKS FIFTH AVENUE,291637,3109 PGA Blvd.,,Palm Beach Gardens,FL,33410,United States,,,,,,,
BLOOMINGDALE'S,290993,PGA Mall3105 PGA Blvd.,,Palm Beach,FL,33410,United States,(561) 625-2189,,,,,,
NEIMAN MARCUS,290890,151 Worth Ave.,,Palm Beach,FL,33480,United States,(561) 805-6150,,,,,,
Nordstrom,291726,5489 Tamiami Trail North,,Naples,FL,34108,United States,(239) 325-6100,,,,,,
SAKS FIFTH AVENUE,290929,Waterside Shops5395 Tamiami Trail North,,Naples,FL,34108,United States,(941) 592-5900,,,,,,
BIGHAM,290541,2425 Tamiami Trail North,,Naples,FL,34103,United States,(239) 434-2800,,,,,,
LORILIL JEWELERS,290697,1500 Main St.,,Springfield,MA,01115,United States,(413) 731-5400,,,,,,
LUX BOND AND GREEN,290701,46 Lasalle Rd.,,West Hartford,CT,06107,United States,(860) 521-3015,,,,,,
LUX BOND AND GREEN,290703,Somerset Square140 Glastonbury Blvd.,,Glastonbury,CT,06033,United States,(860) 659-8510,,,,,,
NORDSTROM,291037,600 Westfarm Mall,,Farmington,CT,06032,United States,(860) 521-9090,,,,,,
ALBERT'S DIAMOND JEWELERS,290835,711 Main St.,,Schereville,IN,46375,United States,(219) 322-2700,,,,,,
LUX BOND AND GREEN,290705,136 Main St.,,Westport,CT,06880,United States,(203) 227-1300,,,,,,
NAGI,290841,828 High Ridge Rd.,,Stamford,CT,06905,United States,(203) 964-0551,,,,,,
BLOOMINGDALE'S,290997,Walt Whitman Shops270 Walt Whitman Rd.,,Huntington Station,NY,11746,United States,(631) 425-6700,,,,,,
SAKS FIFTH AVENUE,291651,Walt Whitman Shops230 Walt Whitman Rd.,,Huntington Station,NY,11746,United States,(631) 350-1100,,,,,,
LONDON JEWELERS,290782,Wheatley Plaza180 Wheatley Plaza,,Greenvale,NY,11548,United States,(516) 621-8844,,,,,,
NORDSTROM,290972,Roosevelt Field Mall630 Old Country Road,,Garden City,NY,11530,United States,(516) 746-0011,,,,,,
HARTGER'S JEWELERS,290640,699 Wyckoff Ave.,,Wyckoff,NJ,07481,United States,(201) 891-0044,,,,,,
Levy Jewelers,291734,2 East Broughton St,,Savannah,GA,31401,United States,(912) 233-1163,,,,,,
LEVY JEWELERS,290693,Oglethorpe Mall 7804 Abercorn St. Box 94,,Savannah,GA,31406,United States,(912) 238-2120,,,,,,
Forsythe Jewelers,291620,The Shops at Sea Pines Center71 Lighthouse Road #311,,Hilton Head Island,SC,29928,United States,(843) 671-7070,,,,,,
CAROL SAUNDERS GALLERY,290554,922 Gervais St.,,Columbia,SC,29201,United States,(803) 256-3046,,,,,,
REEDS,290827,630-7 Promenade Place,,Columbia,SC,29229,United States,(803) 699-9693,,,,,,
London Jewelers,300045,47 Main Street,,Southampton,NY,,United States,(631) 287-4499,,,,,,
LONDON JEWELERS,291283,2 Main Street,,East Hampton,NY,11937,United States,(631) 329-3939,,,,,,
REEDS,291457,Mount Pleasant Towne Centre1239 Belk Dr #102,,Mt Pleasant,SC,29464,United States,(843) 416-3174,,,,,,
NORDSTROM,290971,Menlo Park Mall449 Menlo Park Dr,,Edison,NJ,08837,United States,(732) 603-5000,,,,,,
Busch Jewelers,290553,250 Cypress,,Abilene,TX,79601,United States,(325) 677-9114,,,,,,
bixler's jewelers,300009,Shops At 3900 Hamilton Center3900 Hamilton Blvd,,Allentown,PA,18103,United States,610-821-8641,,,,,,
BLOOMINGDALE'S,290980,Bridgewater Commons410 Commons Way,,Bridgewater,NJ,08807,United States,(908) 762-2548,,,,,,
ALTER'S GEM JEWELRY,290512,3155 Dowlen Rd.,,Beaumont,TX,77706,United States,(409) 861-0840,,,,,,
ROYAL JEWELERS,290740,73 Broadway,,Fargo,ND,58102,United States,(701) 232-2491,,,,,,
REEDS,290826,926 Inspiration Dr,,Wilmington,NC,28405,United States,(910) 256-2962,,,,,,
ROYAL JEWELERS,290739,58 Main St.,,Andover,MA,01810,United States,(978) 475-3330,,,,,,
RUMMELE'S JEWELERS,290744,234 South Adams,,Green Bay,WI,54301,United States,(920) 432-0664,,,,,,
SUSAN ROBINSON COLLECTION,290763,6009 South Broadway,,Tyler,TX,75703,United States,(903) 581-5530,,,,,,
DAVID GARDNER'S INC.,290848,911 University Dr. East,,College Station,TX,77840,United States,(979) 764-8786,,,,,,
FINK'S JEWELERS,290603,"Valley View Mall4802 Valley View Blvd., NW",,Roanoke,VA,24012,United States,(540) 362-3779,,,,,,
FINK'S JEWELERS,290602,419 at Colonial Ave3545 Electric Rd.,,Roanoke,VA,24018,United States,(540) 342-2991,,,,,,
FINK'S JEWELERS,291010,Thomas Jefferson Crossings16960 Forest Rd.,,Forest,VA,24551,United States,(434) 237-6301,,,,,,
FRANK H ADAMS JEWELERS,290824,21 Stuyvesant Plaza,,Albany,NY,12203,United States,(518) 435-0075,,,,,,
Bailey's Fine Jewelers,300080,Lynndale Shoppes511 Red Banks Road,,Greenville,NC,27858,United States,(252) 353-3434,,,,,,
Reeds Jewelers,291558,The Shoppes at River Crossing5080 Riverside Drive (Suite 112),,Macon,GA,31210,United States,(478) 476-9621,,,,,,
"VANSCOY, MAURER & BASH DIAMOND JEWELERS",290526,830 Plaza Blvd.,,Lancaster,PA,17601,United States,(717) 299-4283,,,,,,
REEDS,291447,3 Tunnel Road,,Asheville,NC,28805,United States,(828) 298-4024,,,,,,
"GEISS & SONS, II",290630,765 Haywood Rd.,,Greenville,SC,29607,United States,(864) 297-6458,,,,,,
GARY MICHAELS FINE JEWELRY,290600,55 US Hwy 9 SouthSTE 800,55 US Hwy 9 SouthSTE 800,Manalapan,NJ,07726,United States,(732) 577-1030,,,,,,
David Yurman at Holt Renfrew,290649,Pacific Centre 737 Dunsmuir St.,,Vancouver,BC,V7Y 1E4,Canada,(604) 681-3121 ext. 71419,,,"Sun 11:00 AM - 6:00 PM, Mon 10:00 AM - 8:00 PM, Tue 10:00 AM - 8:00 PM, Wed 10:00 AM - 8:00 PM, Thu 10:00 AM - 8:00 PM, Fri 10:00 AM - 8:00 PM, Sat 10:00 AM - 8:00 PM",,,
David Yurman at Nordstrom Pacific Centre,300070,Pacific Centre799 Robson Street,,Vancouver,BC,V7Y 0A2,Canada,(604) 699-2100,,,"Sun 9:35 AM - 8:00 PM, Mon 9:35 AM - 8:00 PM, Tue 9:35 AM - 8:00 PM, Wed 9:35 AM - 8:00 PM, Thu 9:35 AM - 8:45 PM, Fri 9:35 AM - 8:00 PM, Sat 9:35 AM - 8:00 PM",,,
DAVID YURMAN,30001811,737 Dunsmuir St,,Vancouver,BC,V6C 1N5,Canada,(604) 681-3121,,,,,,
BLOOMINGDALE'S,290983,Roosevelt Field Mall630 Old Country Rd.,,Garden City,NY,11530,United States,(516) 873-2794,,,,,,
BLAKEMANS,290542,3202 Pinnacle Hills Pkwy,,Rogers,AR,72758,United States,(479) 845-0088,,,,,,
FINK'S JEWELERS,291007,Barracks Road Shopping Center1025 Emmet St. North,,Charlottesville,VA,22903,United States,(434) 284-4060,,,,,,
BRAUNSCHWEIGER Jewelers,290543,33 South St.,,Morristown,NJ,07960,United States,(973) 538-0668,,,,,,
TORIN BALES FINE JEWELRY,290592,6007 Zac Lentz Pkwy,,Victoria,TX,77904,United States,(361) 576-4777,,,,,,
Bernie Robbins Jewelers,291418,507 New Road,,Somers Point,NJ,08244,United States,(609) 927-4848,,,,,,
LEONARDO JEWELERS,290690,35 East Front St.,,Red Bank,NJ,07701,United States,(732) 747-7880,,,,,,
Neiman Marcus,300077,Roosevelt Field Mall630 Old Country Rd,,Garden City,NY,11530,United States,(516) 368-0500,,,,,,
McCaskill & Co.,291360,13390 Hwy. 98 W,,Destin,FL,32550,United States,(850) 650-2262,,,,,,
DAVID YURMAN,291750,3401 Dufferin Street Unit 217,,Toronto,ON,M6A 2T9,Canada,(416) 780-9598,,,"Sun 11:00 AM - 7:00 PM, Mon 10:00 AM - 9:00 PM, Tue 10:00 AM - 9:00 PM, Wed 10:00 AM - 9:00 PM, Thu 10:00 AM - 9:00 PM, Fri 10:00 AM - 9:00 PM, Sat 10:00 AM - 9:00 PM",,,
David Yurman at Holt Renfrew,290644,Yorkdale Shopping Centre3401 Dufferin St.,,Toronto,ON,M6A 2T9,Canada,(416) 789-5377 ext. 22413,,,"Sun 11:00 AM - 6:00 PM, Mon 10:00 AM - 8:00 PM, Tue 10:00 AM - 8:00 PM, Wed 10:00 AM - 8:00 PM, Thu 10:00 AM - 8:00 PM, Fri 10:00 AM - 8:00 PM, Sat 10:00 AM - 8:00 PM",,,
Perrywinkle’s Fine Jewelry,300016,227 Main Street,,Burlington,VT,05401,United States,(802) 865-2624,,,,,,
DAVID YURMAN,3000191,"1300 Sherbrooke St W,  QC H3G 1H9",,Montreal,QC,H3G 1H9,Canada,(514) 842-5111,,,,,,
REEDS,291444,Coastal Grand Mall2000 Coastal Grand Circle Space 195,,Myrtle Beach,SC,29577,United States,(843) 626-3588,,,,,,
