store_name,store_number,address,address2,city,state,zip_code,country,phone_number,latitude,longitude,store_hours,store_type,other_fields,coming_soon
SAN ANTONIO - ALAMO HEIGHTS,,5800 BROADWAY,SUITE #101,SAN ANTONIO,TX,78209,US,210-822-8557,29.479734,-98.464432,,,,
SAN ANTONIO - WURZBACH,,3511 OAKGATE DRIVE,,SAN ANTONIO,TX,78230,US,210-634-2230,29.539577,-98.552399,,,,
SAN ANTONIO - THOUSAND OAKS,,2816 THOUSAND OAKS DRIVE,,SAN ANTONIO,TX,78232,US,210-490-8211,29.578831,-98.444023,,,,
SAN ANTONIO - DE ZAVALA,,12770 CIMARRON PATH,SUITE #110,SAN ANTONIO,TX,78249,US,210-558-3644,29.562420,-98.597794,,,,
SAN ANTONIO - BITTERS & 1604,,2602 NW LOOP 1604,BUILDING 1  SUITE 103,SAN ANTONIO,TX,78248,US,210-418-3267,29.601616,-98.533691,,,,
SAN ANTONIO - STONE OAK,,19239 STONE OAK PARKWAY,SUITE #103,SAN ANTONIO,TX,78258,US,210-900-2786,29.628878,-98.496017,,,,
SAN ANTONIO - ENCINO,,21003 ENCINO COMMONS,SUITE #101,SAN ANTONIO,TX,78259,US,210-496-5866,29.637007,-98.452133,,,,
HELOTES,,12910 BANDERA ROAD,,HELOTES,TX,78023,US,210-695-4454,29.563622,-98.684410,,,,
SAN ANTONIO - CANYON SPRINGS,,26108 OVERLOOK PARKWAY,SUITE 2104,SAN ANTONIO,TX,78260,US,210-937-1099,29.685497,-98.473068,,,,
AUSTIN - CIRCLE C,,5700 W. SLAUGHTER LANE,SUITE #220,AUSTIN,TX,78749,US,512-796-9661,30.201691,-97.868408,,,,
AUSTIN - SOUTH,,4404 WILLIAM CANON,,AUSTIN,TX,78749,US,512-773-6591,30.223444,-97.839500,,,,
AUSTIN - UPLANDS RIDGE,,11805 BEE CAVE ROAD,SUITE #300,BEE CAVE,TX,78738,US,512-263-2884,30.307692,-97.921059,,,,
AUSTIN - LAKEWAY,,2300 LOHMANS SPUR,SUITE #128,AUSTIN,TX,78734,US,512-402-1550,30.338154,-97.971680,,,,
AUSTIN - WESTLAKE,,2712 BEE CAVE ROAD,SUITE #114,AUSTIN,TX,78746,US,512-306-9229,30.271004,-97.786293,,,,
AUSTIN - FOUR POINTS,,6618 SITIO DEL RIO,SUITE 102,AUSTIN,TX,78730,US,512-527-8960,30.392378,-97.843033,,,,
AUSTIN - WEST,,3563 FAR WEST BOULEVARD,SUITE #104,AUSTIN,TX,78731,US,512-340-0864,30.353045,-97.754059,,,,
AUSTIN - GREAT HILLS,,11150 RESEARCH BOULEVARD,SUITE #202B,AUSTIN,TX,78759,US,512-335-6020,30.406862,-97.747002,,,,
AUSTIN - ANDERSON MILL,,13492 RESEARCH BLVD.,SUITE #250,AUSTIN,TX,78750,US,512-257-8862,30.448872,-97.792183,,,,
CEDAR PARK - CENTRAL,,200 BUTTERCUP CREEK BOULEVARD,SUITE #120,CEDAR PARK,TX,78613,US,512-257-2664,30.502632,-97.821030,,,,
AUSTIN - WELLS BRANCH,,13717 BURNET RD,SUITE 245,AUSTIN,TX,78727,US,512-252-3600,30.437946,-97.698265,,,,
LEANDER,,1909 SOUTH HIGHWAY 183,SUITE 105,LEANDER,TX,78641,US,512-528-9003,30.553640,-97.842796,,,,
PFLUGERVILLE - EAST,,201 WEST MAIN STREET,SUITE #104,PFLUGERVILLE,TX,78660,US,512-989-6125,30.441095,-97.621704,,,,
CEDAR PARK - BREAKAWAY PARK,,12920 WEST PARMER LANE,#103,CEDAR PARK,TX,78613,US,512-813-5775,30.531986,-97.780067,,,,
ROUND ROCK - WEST,,1205 ROUND ROCK AVENUE,SUITE #106,ROUND ROCK,TX,78681,US,512-249-9408,30.510759,-97.694351,,,,
ROUND ROCK - EAST,,3810 GATTIS SCHOOL ROAD,SUITE 105,ROUND ROCK,TX,78664,US,-(512) 900-8558,30.497442,-97.612213,,,,
ROUND ROCK - OLD SETTLERS,,1400 EAST OLD SETTLERS BOULEVARD,SUITE #304,ROUND ROCK,TX,78664,US,512-535-4400,30.539280,-97.670731,,,,
GEORGETOWN,,3010 WILLIAMS DRIVE,SUITE #212,GEORGETOWN,TX,78628,US,512-819-0611,30.663042,-97.693024,,,,
PHOENIX - ARCADIA,,4041 E. THOMAS ROAD,#112,PHOENIX,AZ,85018,US,480-330-0684,33.479919,-111.994293,,,,
LAVEEN,,3636 WEST BASELINE ROAD,SUITE #188,PHOENIX,AZ,85339,US,602-734-0104,33.378712,-112.137489,,,,
N. CENTRAL,,1309 EAST NORTHERN AVENUE,,PHOENIX,AZ,85020,US,623-931-3004,33.552753,-112.054024,,,,
TEMPE - LAKES,,6340 S. RURAL RD,SUITE #119,TEMPE,AZ,85283,US,480-491-0038,33.365139,-111.929253,,,,
AHWATUKEE FOOTHILLS,,3145 E. CHANDLER BOULEVARD,SUITE #102,PHOENIX,AZ,85048,US,480-820-0967,33.304531,-112.015923,,,,
SCOTTSDALE - SHEA SCOTTSDALE,,10893 NORTH SCOTTSDALE ROAD,SUITE 127,SCOTTSDALE,AZ,85254,US,480-998-9453,33.584274,-111.924385,,,,
TEMPE - SOUTH,,4040 W. RAY ROAD,SUITE D-11,CHANDLER,AZ,85226,US,480-839-8899,33.321014,-111.913208,,,,
GLENDALE - NORTH,,15820 NORTH 35TH AVENUE,SUITE #28,PHOENIX,AZ,85023,US,602-690-9868,33.629398,-112.134186,,,,
PEORIA - EAST,,7440 WEST CACTUS ROAD,SUITE A-4,PEORIA,AZ,85381,US,623-931-3004,33.597385,-112.219315,,,,
PHOENIX - LOOKOUT MOUNTAIN,,420 EAST BELL ROAD,SUITE C 108,PHOENIX,AZ,85022,US,602-795-5386,33.641716,-112.067749,,,,
CHANDLER,,1949 - 37 WEST RAY ROAD,,CHANDLER,AZ,85224,US,480-507-0785,33.319149,-111.874100,,,,
PHOENIX - NORTHEAST,,5533 EAST BELL ROAD,SUITE #119,SCOTTSDALE,AZ,85254,US,602-923-9200,33.639946,-111.961647,,,,
SCOTTSDALE - PIMA,,14696 NORTH FRANK LLOYD WRIGHT BL,SUITE D-143,SCOTTSDALE,AZ,85260,US,480-443-5682,33.619438,-111.875435,,,,
SCOTTSDALE - MOUNTAINSIDE,,10855 NORTH FRANK LLOYD WRIGHT BOULEVARD,SUITE #108,SCOTTSDALE,AZ,85259,US,480-391-9379,33.584812,-111.833778,,,,
PHOENIX - DESERT RIDGE,,21050 NORTH TATUM BOULEVARD,SUITE A116,PHOENIX,AZ,85050,US,480-515-5722,33.677715,-111.978355,,,,
LITCHFIELD PARK,,14551 WEST INDIAN SCHOOL ROAD,SUITE #220,GOODYEAR,AZ,85395,US,623-535-0690,33.486221,-112.372849,,,,
CHANDLER - OCOTILLO,,3165 SOUTH ALMA SCHOOL ROAD,SUITE 17B,CHANDLER,AZ,85248,US,480-895-9530,33.259579,-111.857147,,,,
PHOENIX - HAPPY VALLEY,,2005 WEST HAPPY VALLEY ROAD,SUITE #185,PHOENIX,AZ,85085,US,623-581-1991,33.712250,-112.102722,,,,
ARROWHEAD,,8385 WEST DEER VALLEY ROAD,SUITE #104,PEORIA,AZ,85382,US,623-412-0146,33.680496,-112.239922,,,,
GILBERT - EAST,,911 SOUTH LINDSAY ROAD,SUITE #105,GILBERT,AZ,85296,US,480-632-8228,33.333729,-111.771797,,,,
GILBERT,,949 NORTH VAL VISTA DRIVE,SUITE #109,GILBERT,AZ,85234,US,480-813-1153,33.367847,-111.756160,,,,
GILBERT - SOUTH,,2487 SOUTH GILBERT ROAD,A-113,GILBERT,AZ,85295,US,480-782-5432,33.304882,-111.788956,,,,
SURPRISE,,14010 NORTH LITCHFIELD ROAD,SUITE #202,SURPRISE,AZ,85379,US,623-546-9717,33.611195,-112.360886,,,,
NORTH SCOTTSDALE,,8912 EAST PINNACLE PEAK ROAD,F-3,SCOTTSDALE,AZ,85255,US,480-391-9379,33.699257,-111.888329,,,,
PEORIA - NORTH,,9785 WEST HAPPY VALLEY ROAD,SUITE #1155,PEORIA,AZ,85383,US,623-512-8086,33.709034,-112.270111,,,,
CHANDLER - SOUTHEAST,,4990 S. GILBERT ROAD,SUITE #B-2,CHANDLER,AZ,85249,US,480-739-1700,33.234200,-111.790077,,,,
GILBERT - SOUTHEAST,,4844 SOUTH VAL VISTA DRIVE,SUITE A110,GILBERT,AZ,85298,US,480-710-8397,33.261795,-111.757034,,,,
CAVE CREEK - TATUM RANCH,,30835 NORTH CAVE CREEK ROAD,UNIT #121,CAVE CREEK,AZ,85331,US,602-412-3615,33.765491,-111.983780,,,,
MESA - SUPERSTITION SPRINGS,,1229 SOUTH POWER ROAD,SUITE #104,MESA,AZ,85206,US,480-807-5515,33.392601,-111.683868,,,,
ANTHEM,,42302 NORTH VISION WAY,SUITE #112,ANTHEM,AZ,85086,US,623-225-9128,33.868099,-112.151863,,,,
PRESCOTT,,843 SOUTH MILLER VALLEY ROAD,SUITE #202,PRESCOTT,AZ,86301,US,928-445-4855,34.556400,-112.481651,,,,
ORO VALLEY,,1335 WEST LAMBERT LANE,SUITE #145,TUCSON,AZ,85737,US,520-355-3535,32.394772,-110.994186,,,,
CHINATOWN,,123 BAXTER STREET,,NEW YORK,NY,10013,US,212-625-1883,40.718166,-73.998672,,,,
BATTERY PARK CITY,,2 SOUTH END AVENUE,,NEW YORK,NY,10280,US,212-786-4295,40.707977,-74.017349,,,,
JERSEY CITY - DOWNTOWN,,317 MARIN BOULEVARD,,JERSEY CITY,NJ,07302,US,201-942-6445,40.719784,-74.041550,,,,
GRAMERCY PARK,,381 2ND AVENUE,,NEW YORK,NY,10010,US,212-683-1232,40.737473,-73.981506,,,,
CHELSEA,,320 WEST 23RD STREET,,NEW YORK,NY,10011,US,212-242-6528,40.745464,-73.999352,,,,
CARROLL GARDENS,,337 SMITH STREET,,BROOKLYN,NY,11231,US,718-797-1944,40.680466,-73.994705,,,,
PROSPECT HEIGHTS,,671 VANDERBILT AVENUE,,BROOKLYN,NY,11238,US,718-636-2029,40.676933,-73.969124,,,,
PARK SLOPE,,434 5TH AVENUE,2ND FLOOR,BROOKLYN,NY,11215,US,347-384-8084,40.669518,-73.986023,,,,
JERSEY CITY - JOURNAL SQUARE,,717 NEWARK AVENUE,,JERSEY CITY,NJ,07306,US,201-942-2800,40.734924,-74.061501,,,,
LONG ISLAND CITY,,12-15 JACKSON AVENUE,SUITE #1,LONG ISLAND CITY,NY,11101,US,718-392-2075,40.743752,-73.950378,,,,
MIDTOWN - EAST,,962 1ST AVENUE,,NEW YORK,NY,10022,US,212-702-8769,40.755531,-73.964653,,,,
MIDTOWN WEST,,747 10TH AVENUE,,NEW YORK,NY,10019,US,212-399-4124,40.765198,-73.991982,,,,
SUNNYSIDE,,39-21 GREENPOINT AVE.,,SUNNYSIDE,NY,11104,US,718-392-0365,40.739056,-73.926598,,,,
KENSINGTON,,418 CHURCH AVENUE,,BROOKLYN,NY,11218,US,347-955-3300,40.644085,-73.975975,,,,
UPPER EAST SIDE I,,1582 FIRST AVENUE,,NEW YORK,NY,10028,US,212-717-1644,40.774414,-73.950844,,,,
SECAUCUS,,1005 RIVERSIDE STATION BOULEVARD,,SECAUCUS,NJ,07094,US,201-520-9090,40.762699,-74.080933,,,,
ASTORIA,,23-17 BROADWAY #1A,,ASTORIA,NY,11106,US,718-606-0358,40.764397,-73.929665,,,,
BROOKLYN - CHINATOWN,,5908 FORT HAMILTON PARKWAY,1ST FLOOR,BROOKLYN,NY,11219,US,718-576-6588,40.633350,-74.005165,,,,
ASTORIA - SOUTH,,32-78 48TH STREET,,ASTORIA,NY,11103,US,718-545-6100,40.754036,-73.914345,,,,
UPPER WEST SIDE,,700 COLUMBUS AVENUE,95TH & COLUMBUS,NEW YORK,NY,10025,US,212-866-1864,40.792007,-73.968605,,,,
BAYONNE,,793 BROADWAY,,BAYONNE,NJ,07002,US,201-535-5200,40.674286,-74.109695,,,,
BROOKLYN - BAY RIDGE,,8508 FOURTH AVE.,,BROOKLYN,NY,11209,US,718-759-1840,40.623287,-74.028358,,,,
JACKSON HEIGHTS,,40-45 75TH STREET,,ELMHURST,NY,11373,US,718-565-2818,40.745625,-73.889992,,,,
MIDWOOD,,2481 NOSTRAND AVENUE,,BROOKLYN,NY,11210,US,718-490-5781,40.624187,-73.946228,,,,
ELMHURST,,83-31 & 83-33 BROADWAY,LOWER LEVEL STORE,ELMHURST,NY,11373,US,718-271-3626,40.740580,-73.879170,,,,
HARLEM - CENTRAL,,2235 FREDERICK DOUGLASS BOULEVARD,,NEW YORK,NY,10027,US,212-866-6201,40.807415,-73.953545,,,,
BENSONHURST - NORTH,,10 AVENUE O,,BROOKLYN,NY,11204,US,646-763-5339,40.609894,-73.984695,,,,
BATH BEACH,,8659 18TH AVENUE,,BROOKLYN,NY,11214,US,718-266-1783,40.606037,-74.003654,,,,
CLIFFSIDE PARK,,541 ANDERSON AVENUE,FIRST FLOOR,CLIFFSIDE PARK,NJ,07010,US,201-840-1100,40.823059,-73.989838,,,,
MARINE PARK,,5116 AVENUE N,,BROOKLYN,NY,11234,US,347-275-2009,40.618881,-73.925278,,,,
STATEN ISLAND - SILVER LAKE,,977 VICTORY BLVD.,STORE #2,STATEN ISLAND,NY,10301,US,718-737-7770,40.620354,-74.099297,,,,
FOREST HILLS,,96-05 69TH AVENUE,,FOREST HILLS,NY,11375,US,718-268-7888,40.717075,-73.852325,,,,
GRAVESEND - WEST,,273 AVENUE U,,BROOKLYN,NY,11223,US,347-587-2333,40.597095,-73.973900,,,,
SHEEPSHEAD BAY,,2413 AVENUE U,,BROOKLYN,NY,11229,US,347-492-5002,40.599854,-73.947128,,,,
KEW GARDENS,,114-67 QUEENS BOULEVARD,,FOREST HILLS,NY,11375,US,718-793-6888,40.716434,-73.833461,,,,
NEWARK - COTTAGE PLACE,,649 DR. MARTIN LUTHER KING BOULEVARD,,NEWARK,NJ,07102,US,973-596-1119,40.730492,-74.181938,,,,
EAST RUTHERFORD,,127 A PARK AVENUE,,EAST RUTHERFORD,NJ,07073,US,201-438-1817,40.832729,-74.097343,,,,
BRIGHTON BEACH,,102 WEST END AVE,,BROOKLYN,NY,11235,US,718-266-1783,40.578899,-73.953636,,,,
FORT LEE,,2024 CENTER TREE AVENUE,2ND FLOOR,FORT LEE,NJ,07024,US,201-701-0781,40.852654,-73.971436,,,,
FLUSHING - WEST,,42-52 UNION STREET,,FLUSHING,NY,11355,US,718-358-7139,40.756748,-73.824135,,,,
SOUTH RICHMOND HILL,,127-06 LIBERTY AVENUE,,RICHMOND HILL,NY,11419,US,718-848-2191,40.688553,-73.817543,,,,
BRIARWOOD,,83-46 PARSONS BOULEVARD,,BRAIRWOOD,NY,11432,US,718-739-3040,40.714474,-73.807495,,,,
NUTLEY,,155 FRANKLIN AVENUE,,NUTLEY,NJ,07110,US,973-667-0403,40.813469,-74.163956,,,,
HASBROUCK HEIGHTS,,192 BOULEVARD,,HASBROUCK HEIGHTS,NJ,07604,US,201-288-3459,40.861012,-74.078781,,,,
TEANECK,,400 FRANK W. BURR BOULEVARD,GLENPOINTE CENTRE - 1ST FLOOR,TEANECK,NJ,07666,US,201-836-1599,40.872829,-74.005753,,,,
FRESH MEADOWS,,179-16 UNION TURNPIKE,,FRESH MEADOWS,NY,11365,US,718-380-0082,40.726738,-73.788460,,,,
WHITESTONE,,160-22 WILLETS POINT BLVD.,,WHITESTONE,NY,11357,US,718-225-4743,40.780727,-73.801468,,,,
ENGLEWOOD CLIFFS,,550 SYLVAN AVENUE,SUITE #LL1,ENGLEWOOD CLIFFS,NJ,07632,US,201-227-6100,40.883770,-73.949287,,,,
NEW SPRINGVILLE,,2555 RICHMOND AVENUE,,STATEN ISLAND,NY,10314,US,718-494-1781,40.584988,-74.167397,,,,
CLIFTON,,74 1/2 MARKET STREET,,CLIFTON,NJ,07012,US,973-968-6638,40.845740,-74.161290,,,,
PHILADELPHIA - CENTER CITY WEST,,238 NORTH 22ND STREET,FIRST FLOOR,PHILADELPHIA,PA,19103,US,215-564-6284,39.958900,-75.175957,,,,
BALA CYNWYD,,707 MONTGOMERY AVENUE,,NARBERTH,PA,19072,US,610-668-2990,40.010014,-75.255585,,,,
DEPTFORD,,1450 CLEMENTS BRIDGE ROAD,,DEPTFORD,NJ,08096,US,856-686-6005,39.831448,-75.111008,,,,
CHERRY HILL - WEST,,600 NORTH KINGS HIGHWAY,STORE #1,CHERRY HILL,NJ,08034,US,856-348-3650,39.924919,-75.000031,,,,
BRYN MAWR,,968 COUNTY LINE ROAD,,BRYN MAWR,PA,19010,US,610-228-4699,40.021519,-75.325417,,,,
BROOMALL,,1991 N. SPROUL ROAD,STORE # 17,BROOMALL,PA,19008,US,484-402-4277,39.961166,-75.354469,,,,
HUNTINGDON VALLEY - FOX CHASE,,767 HUNTINGDON PIKE,,HUNTINGDON VALLEY,PA,19006,US,215-663-9000,40.088032,-75.092567,,,,
CHERRY HILL,,2020 SPRINGDALE ROAD,,CHERRY HILL,NJ,08003,US,856-751-4533,39.909206,-74.965881,,,,
PHILADELPHIA - GRANT AVENUE,,2550 GRANT AVENUE,SUITE 310,PHILADELPHIA,PA,19114,US,215-613-1002,40.078033,-75.027283,,,,
VOORHEES,,200-300 WHITE HORSE ROAD,UNIT #17,VOORHEES,NJ,08043,US,856-346-4450,39.842228,-74.995926,,,,
CONSHOHOCKEN,,404 WEST RIDGE PIKE,,CONSHOHOCKEN,PA,19428,US,267-328-7767,40.095314,-75.291901,,,,
MOORESTOWN,,315 YOUNG AVENUE,,MOORESTOWN,NJ,08057,US,856-924-8989,39.971146,-74.917519,,,,
MARLTON,,515 ROUTE 73 SOUTH,SUITE 6,MARLTON,NJ,08053,US,856-985-0053,39.878230,-74.922490,,,,
WAYNE,,369A W. LANCASTER AVE,,WAYNE,PA,19087,US,610-263-2800,40.044660,-75.398590,,,,
TURNERSVILLE,,110 GREENTREE ROAD,STE. J,TURNERSVILLE,NJ,08012,US,856-227-1191,39.759693,-75.049187,,,,
HATBORO,,806 SOUTH YORK ROAD,,HATBORO,PA,19040,US,215-657-5878,40.163261,-75.111229,,,,
KING OF PRUSSIA,,140 ALLENDALE ROAD,,KING OF PRUSSIA,PA,19406,US,610-265-3377,40.089359,-75.382072,,,,
MT. LAUREL,,3111 ROUTE 38 WEST,UNIT #5,MT. LAUREL,NJ,08054,US,856-780-5130,39.971863,-74.874786,,,,
BENSALEM,,2635 STREET ROAD,STORE SUITE #8,BENSALEM,PA,19020,US,215-639-6993,40.108650,-74.952400,,,,
NORRISTOWN,,140 WEST GERMANTOWN PIKE,,EAST NORRITON,PA,19401,US,610-275-0862,40.145515,-75.320076,,,,
SPRING HOUSE,,805 BETHLEHEM PIKE,,LOWER GWYNEDD,PA,19002,US,215-280-9080,40.178590,-75.226300,,,,
SOUTHAMPTON,,502 SECOND STREET PIKE,,SOUTHAMPTON,PA,18966,US,215-718-5818,40.169810,-75.045130,,,,
PAOLI,,1776 EAST LANCASTER AVENUE,SUITE #14,PAOLI,PA,19301,US,610-644-3588,40.041618,-75.474281,,,,
MEDFORD,,176-180 ROUTE 70,SUITE 6A,MEDFORD,NJ,08055,US,609-654-5453,39.900475,-74.831375,,,,
GLEN MILLS,,1102 BALTIMORE PIKE,SUITE #119,GLEN MILLS,PA,19342,US,215-932-4105,39.880692,-75.542801,,,,
WARRINGTON,,1432 EASTON ROAD,SUITE #1E,WARRINGTON,PA,18976,US,215-491-9300,40.254143,-75.134041,,,,
COLLEGEVILLE,,3801 GERMANTOWN PIKE,SUITE 105,COLLEGEVILLE,PA,19426,US,610-831-5183,40.181347,-75.429314,,,,
LEVITTOWN,,1154 OXFORD VALLEY ROAD,,LEVITTOWN,PA,19057,US,215-946-8662,40.164780,-74.875070,,,,
HOUSTON - RIVER OAKS,,3425 SOUTH SHEPHERD,SUITE #230,HOUSTON,TX,77098,US,713-523-6284,29.735302,-95.410393,,,,
HOUSTON HEIGHTS,,2500 YALE STREET,SUITE A,HOUSTON,TX,77008,US,713-869-2633,29.809273,-95.398979,,,,
HOUSTON - WEST UNIVERSITY,,4009 BELLAIRE BOULEVARD,SUITES E&J,HOUSTON,TX,77025,US,713-662-2115,29.705879,-95.441483,,,,
HOUSTON - MEMORIAL VOSS,,6415 SAN FELIPE,SUITE N,HOUSTON,TX,77057,US,713-465-5838,29.749527,-95.498077,,,,
HOUSTON - BRAESWOOD HILLCROFT,,9726 HILLCROFT,,HOUSTON,TX,77096,US,713-728-8986,29.674480,-95.494385,,,,
HOUSTON - BUNKER HILL,,12514 MEMORIAL DRIVE,,HOUSTON,TX,77024,US,281-242-8868,29.766958,-95.551147,,,,
HOUSTON - SPRING BRANCH WEST,,1919 GESSNER DRIVE,,HOUSTON,TX,77080,US,713-932-6284,29.806873,-95.545662,,,,
HOUSTON - BELTWAY 8 & BELLAIRE,,6601 WEST SAM HOUSTON PKWAY S.,SUITE #4,HOUSTON,TX,77072,US,713-988-1234,29.707293,-95.556314,,,,
HOUSTON - WESTCHASE,,11920 WESTHEIMER,SUITE B,HOUSTON,TX,77077,US,281-407-5255,29.737713,-95.589180,,,,
HOUSTON - TULLY MEMORIAL,,14520 MEMORIAL DRIVE,SUITE #92,HOUSTON,TX,77079,US,281-589-7844,29.771597,-95.603294,,,,
PEARLAND - SILVERLAKE,,9330 BROADWAY,SUITE #212 & 216,PEARLAND,TX,77584,US,281-997-8117,29.557322,-95.365265,,,,
HUMBLE - FALL CREEK,,9701 NORTH SAM HOUSTON PARKWAY,,HUMBLE,TX,77396,US,281-973-3818,29.935053,-95.243942,,,,
HOUSTON - CHAMPIONS POINT,,5365 WEST RICHEY ROAD,,HOUSTON,TX,77066,US,281-537-7323,29.959454,-95.499855,,,,
LANSDALE,,1601 N. BROAD STREET,SUITE #100,LANSDALE,PA,19446,US,215-527-6415,40.255707,-75.268944,,,,
NEWTOWN,,2116 SOUTH EAGLE ROAD,STORE #13,NEWTOWN,PA,18940,US,215-718-5818,40.230255,-74.940514,,,,
BORDENTOWN,,2144 ROUTE 130 NORTH AND FAIRBROOK DRIVE,,BORDENTOWN,NJ,08505,US,609-499-9100,40.111263,-74.772285,,,,
PHOENIXVILLE,,550 KIMBERTON ROAD,STORE 12,PHOENIXVILLE,PA,19460,US,484-920-3434,40.130615,-75.550308,,,,
DOYLESTOWN,,466 TOWN CENTER MALL,,NEW BRITAIN,PA,18901,US,215-348-3667,40.297043,-75.190681,,,,
ROYERSFORD,,327 10TH AVENUE,SUITE #105,ROYERSFORD,PA,19468,US,484-933-4830,40.196175,-75.533028,,,,
EXTON,,14 MARCHWOOD ROAD,,EXTON,PA,19341,US,610-585-8690,40.047989,-75.639320,,,,
HARLEYSVILLE,,676 MAIN STREET,,HARLEYSVILLE,PA,19438,US,267-416-3737,40.286919,-75.397499,,,,
KENNETT SQUARE,,826 EAST BALTIMORE PIKE,SPACE 1C,KENNETT SQUARE,PA,19348,US,610-444-8784,39.860409,-75.683098,,,,
DOWNINGTOWN,,150 EAST PENNSYLVANIA AVENUE,SUITE #420,DOWNINGTOWN,PA,19335,US,610-873-6310,40.008324,-75.701706,,,,
HOCKESSIN,,134 LANTANA DRIVE,,HOCKESSIN,DE,19707,US,302-613-0832,39.774250,-75.711020,,,,
LAWRENCEVILLE,,2534 BRUNSWICK AVENUE,,LAWRENCEVILLE,NJ,08648,US,609-771-9455,40.259827,-74.723549,,,,
WILMINGTON - LIMESTONE,,127 KIRKWOOD SQUARE,,WILMINGTON,DE,19808,US,302-482-1337,39.712109,-75.675629,,,,
LAWRENCEVILLE 2,,160 LAWRENCEVILLE PENNINGTON ROAD,SUITE #5,LAWRENCEVILLE,NJ,08648,US,609-844-0988,40.303040,-74.749886,,,,
HAMILTON SQUARE,,1800 ROUTE 33,SUITE #108,HAMILTON SQUARE,NJ,08690,US,609-689-0333,40.225075,-74.651443,,,,
ROBBINSVILLE,,2350 N. J. 33,BUILDING B  SUITE #109,ROBBINSVILLE,NJ,08691,US,609-931-9177,40.218346,-74.627327,,,,
MERCERVILLE,,564 LAWRENCE SQUARE BOULEVARD S,,LAWRENCE TOWNSHIP,NJ,08648,US,618-659-2318,40.272427,-74.673767,,,,
BEAR,,540 EDEN CIRCLE,,BEAR,DE,19701,US,302-613-0832,39.632771,-75.654457,,,,
PRINCETON JUNCTION,,217 CLARKSVILLE ROAD,,WEST WINDSOR,NJ,08550,US,609-799-5866,40.300064,-74.641617,,,,
WEST WINDSOR,,2025 OLD TRENTON ROAD,,W. WINDSOR,NJ,08550,US,609-799-1799,40.280701,-74.570198,,,,
EAST WINDSOR,,761 ROUTE 33 WEST,,EAST WINDSOR,NJ,08520,US,609-448-5500,40.256580,-74.548325,,,,
CHICAGO - SOUTH LOOP,,2117 B. SOUTH CHINA PLACE,,CHICAGO,IL,60616,US,312-791-1440,41.854546,-87.632957,,,,
CHICAGO - LINCOLN PARK NORTH,,2828 NORTH CLARK STREET,SPACE #428 & 430,CHICAGO,IL,60657,US,773-931-6284,41.933601,-87.645996,,,,
CHICAGO - HYDE PARK,,1525 EAST 55TH STREET,SUITE #202,CHICAGO,IL,60615,US,773-955-7010,41.795120,-87.588104,,,,
CHICAGO - NORTHWEST,,3850 NORTH KEDZIE AVENUE,,CHICAGO,IL,60618,US,773-931-6284,41.951847,-87.708305,,,,
CHICAGO - ANDERSONVILLE,,5647 NORTH CLARK,SUITE #102,CHICAGO,IL,60660,US,773-828-8191,41.984779,-87.668678,,,,
OAK PARK,,137 NORTH OAK PARK AVENUE,SUITE #125,OAK PARK,IL,60301,US,630-306-4472,41.888248,-87.794785,,,,
CHICAGO - LINCOLN AVENUE,,6316 NORTH LINCOLN AVENUE,,CHICAGO,IL,60659,US,773-463-7788,41.995987,-87.717041,,,,
SKOKIE - CENTRAL,,4546-48 OAKTON ST.,,SKOKIE,IL,60076,US,847-410-1717,42.026443,-87.741959,,,,
PARK RIDGE,,401 DEVON AVENUE,,PARK RIDGE,IL,60068,US,847-939-5090,41.996380,-87.828285,,,,
NILES - SOUTH,,800 CIVIC CENTER DRIVE,UNIT #10,NILES,IL,60714,US,847-324-5120,42.023094,-87.801346,,,,
HINSDALE,,777 NORTH YORK ROAD,SUITE #13,HINSDALE,IL,60521,US,630-203-9700,41.815411,-87.924629,,,,
ELMHURST - NORTH,,420 NORTH YORK ROAD,SUITE B,ELMHURST,IL,60126,US,630-589-0089,41.910942,-87.940346,,,,
GLENVIEW - EAST,,1132 WAUKEGAN ROAD,SUITE #104,GLENVIEW,IL,60025,US,847-729-3592,42.074917,-87.799263,,,,
BURR RIDGE,,84 BURR RIDGE PARKWAY,UNIT #84,BURR RIDGE,IL,60527,US,630-325-2060,41.749710,-87.913788,,,,
DES PLAINES,,1531 ELLINWOOD AVENUE,,DES PLAINES,IL,60016,US,847-803-4547,42.040176,-87.886475,,,,
WILLOWBROOK,,50 WEST 63RD STREET,,WILLOWBROOK,IL,60527,US,630-321-0111,41.774336,-87.948946,,,,
GLENVIEW - WEST,,2825-71 PFINGSTEN ROAD,SPACE SUITE #17,GLENVIEW,IL,60025,US,847-834-9887,42.106438,-87.847382,,,,
LOMBARD,,1218 S. HIGHLAND AVENUE,,LOMBARD,IL,60148,US,630-629-1985,41.859470,-88.012817,,,,
ADDISON,,1250 WEST LAKE STREET,SUITE #21 & 22,ADDISON,IL,60101,US,630-628-7008,41.945148,-88.017464,,,,
PASADENA - EAST,,6721 FAIRMONT PARKWAY,,PASADENA,TX,77505,US,281-487-4450,29.651045,-95.136871,,,,
PEARLAND - EAST,,1819 EAST BROADWAY,SUITE #106,PEARLAND,TX,77581,US,281-482-3339,29.548370,-95.239250,,,,
HOUSTON - STEEPLECHASE,,11110 STEEPLECREST DRIVE,,HOUSTON,TX,77065,US,281-955-6284,29.912466,-95.586189,,,,
SUGAR LAND - SUGAR CREEK,,13835 SOUTHWEST FREEWAY,,SUGAR LAND,TX,77478,US,281-242-2223,29.621634,-95.598557,,,,
HOUSTON - KINGSBRIDGE,,8751 STATE HIGHWAY 6 SOUTH,SUITE K,HOUSTON,TX,77083,US,832-600-3485,29.682713,-95.642822,,,,
MISSOURI CITY - WEST,,4825 HIGHWAY 6 SOUTH,,MISSOURI CITY,TX,77459,US,832-573-6998,29.579510,-95.581253,,,,
MISSOURI CITY - SIENNA PLANTATION,,8817 HIGHWAY 6,SUITE #490,MISSOURI CITY,TX,77459,US,281-972-9313,29.540237,-95.536781,,,,
HOUSTON - COPPERFIELD,,6440 HIGHWAY 6 NORTH,,HOUSTON,TX,77084,US,281-861-8866,29.872202,-95.645157,,,,
SUGAR LAND - FIRST COLONY,,3360 HIGHWAY 6,,SUGAR LAND,TX,77478,US,281-835-6955,29.589640,-95.602390,,,,
SUGAR LAND - WOODBRIDGE VILLAGE,,11683 S. HIGHWAY 6,,SUGAR LAND,TX,77498,US,832-886-5235,29.646261,-95.649933,,,,
FRIENDSWOOD - NORTH,,196 S. FRIENDSWOOD DRIVE,,FRIENDSWOOD,TX,77546,US,281-819-4181,29.532299,-95.205002,,,,
HOUSTON - COPPERFIELD NORTH,,8520 HIGHWAY 6N,,HOUSTON,TX,77095,US,281-885-8849,29.902872,-95.633621,,,,
SUGAR LAND - TOWN CENTER,,16103 LEXINGTON BOULEVARD,SUITE #G,SUGAR LAND,TX,77479,US,832-452-9488,29.592470,-95.617607,,,,
CYPRESS CREEK - LAKEWOOD FOREST,,13360 JONES ROAD,,HOUSTON,TX,77070,US,281-807-9080,29.968485,-95.584152,,,,
HOUSTON - GRAND MISSION,,8433 FM 1464,SUITE G,RICHMOND,TX,77407,US,832-535-2181,29.689199,-95.687027,,,,
ATASCOCITA - TOWN CENTER,,7036 FM 1960 EAST,SUITE C,HUMBLE,TX,77346,US,281-812-4786,29.996830,-95.173149,,,,
CLEAR LAKE,,2425 BAY AREA BLVD.,,HOUSTON,TX,77058,US,281-461-4386,29.574265,-95.108582,,,,
SPRING - LOUETTA,,6402 LOUETTA RD.,SUITE #150,SPRING,TX,77379,US,281-376-4584,30.027838,-95.512871,,,,
KATY - GREEN TRAILS,,1655 S. FRY ROAD,,KATY,TX,77450,US,281-599-3299,29.762711,-95.715218,,,,
FRIENDSWOOD - EAST,,3141  FM 528,SUITE 330,FRIENDSWOOD,TX,77546,US,281-332-8088,29.521043,-95.160768,,,,
CYPRESS - LONE STAR,,8190 BARKER CYPRESS ROAD,SUITE 1300,CYPRESS,TX,77433,US,281-849-1260,29.895445,-95.682846,,,,
PLAINSBORO,,660 PLAINSBORO ROAD,SUITE #A3,PLAINSBORO,NJ,08536,US,609-378-0028,40.327419,-74.575592,,,,
SAN DIEGO - POINT LOMA,,3960 WEST POINT LOMA BLVD.,SUITE C,SAN DIEGO,CA,92110,US,619-738-5200,32.755245,-117.222313,,,,
KEARNY MESA,,4344 CONVOY STREET,SUITE T,SAN DIEGO,CA,92111,US,858-336-0744,32.819370,-117.155731,,,,
TIERRASANTA,,10615 TIERRASANTA BOULEVARD,SUITE G,SAN DIEGO,CA,92124,US,858-414-1152,32.822212,-117.101845,,,,
BONITA,,5035 CENTRAL AVENUE,SUITE #B,BONITA,CA,91902,US,619-472-0107,32.669476,-117.021706,,,,
UNIVERSITY CITY,,3232 GOVERNOR DRIVE,SUITE H,SAN DIEGO,CA,92122,US,858-456-0432,32.852291,-117.215858,,,,
LA JOLLA,,7825 FAY AVENUE,SUITE #B,LA JOLLA,CA,92037,US,858-456-0432,32.845089,-117.275055,,,,
CHULA VISTA,,1392 EAST PALOMAR STREET,SUITE #406,CHULA VISTA,CA,91913,US,619-422-6991,32.623272,-116.997536,,,,
MIRA MESA,,8230 MIRA MESA BLVD.,#L2,SAN DIEGO,CA,92126,US,858-271-1990,32.913260,-117.144340,,,,
RANCHO PENASQUITOS,,12798 RANCHO PENASQUITOS BOULEVARD,SUITE H,SAN DIEGO,CA,92129,US,858-484-0509,32.950878,-117.107574,,,,
CARMEL VALLEY,,12750 CARMEL COUNTRY ROAD,SUITE A-214,SAN DIEGO,CA,92130,US,858-863-3134,32.953979,-117.230171,,,,
POWAY,,12364 POWAY ROAD,,POWAY,CA,92064,US,858-679-1880,32.951904,-117.063354,,,,
SOLANA BEACH,,134 SOUTH SOLANA HILLS DRIVE,,SOLANA BEACH,CA,92075,US,858-794-8988,32.995739,-117.259026,,,,
4S RANCH,,16615 DOVE CANYON ROAD,SUITE #103,SAN DIEGO,CA,92127,US,858-472-8341,33.014969,-117.110062,,,,
RANCHO BERNARDO,,16395 BERNARDO CENTER DRIVE,,SAN DIEGO,CA,92128,US,858-592-9515,33.011730,-117.078600,,,,
ENCINITAS,,207 SOUTH EL CAMINO REAL,SUITE C,ENCINITAS,CA,92024,US,760-942-1799,33.043564,-117.259087,,,,
ESCONDIDO - CENTRAL,,330 W. FELICITA AVENUE,SUITE D01,ESCONDIDO,CA,92025,US,760-737-8565,33.104980,-117.074265,,,,
DOWNERS GROVE - NORTH,,1229 WEST OGDEN AVE.,SUITE A,DOWNERS GROVE,IL,60515,US,630-964-5070,41.808044,-88.016296,,,,
ELK GROVE,,12 EAST DEVON AVENUE,,ELK GROVE,IL,60007,US,847-545-4742,41.992680,-88.002235,,,,
DARIEN - WEST,,7511 LEMONT ROAD,SUITE #166,DARIEN,IL,60561,US,630-747-6576,41.749443,-88.010475,,,,
ORLAND PARK - WEST,,11311 WEST 143RD STREET,,ORLAND PARK,IL,60467,US,708-966-3232,41.629719,-87.894775,,,,
ORLAND PARK -  SOUTH,,9121 W. 159TH STREET,,ORLAND HILLS,IL,60487,US,708-364-0626,41.600822,-87.841095,,,,
ARLINGTON HEIGHTS - SOUTH,,1141 SOUTH ARLINGTON HEIGHTS ROAD,UNIT E-F,ARLINGTON HEIGHTS,IL,60005,US,847-640-2774,42.062988,-87.979507,,,,
GLEN ELLYN - NORTH,,817 MAIN STREET,SUITE #B,GLEN ELLYN,IL,60137,US,630-545-4149,41.895222,-88.063446,,,,
WHEELING,,431 EAST DUNDEE ROAD,,WHEELING,IL,60090,US,847-279-2797,42.139709,-87.904312,,,,
BLOOMINGDALE,,154 SOUTH BLOOMINGDALE ROAD,UNIT D,BLOOMINGDALE,IL,60108,US,630-539-7788,41.952130,-88.082740,,,,
WHEATON - SOUTH,,1121 EAST BUTTERFIELD ROAD,,WHEATON,IL,60189,US,630-868-8642,41.830788,-88.089470,,,,
LISLE - FOUR LAKES,,1550 MAPLE AVENUE,SUITE B,LISLE,IL,60532,US,630-874-2300,41.785934,-88.082130,,,,
WHEATON - NORTH,,238 EAST GENEVA ROAD,,WHEATON,IL,60187,US,630-510-7788,41.888088,-88.105186,,,,
HIGHLAND - WEST,,2010 45TH STREET,,HIGHLAND,IN,46322,US,219-513-4288,41.537560,-87.479970,,,,
SCHAUMBURG - WEATHERWAY PLAZA,,620 S. ROSELLE ROAD,,SCHAUMBURG,IL,60193,US,224-410-5328,42.015469,-88.080948,,,,
BUFFALO GROVE - SOUTH,,727 EAST DUNDEE ROAD,,ARLINGTON HEIGHTS,IL,60004,US,847-942-8510,42.138947,-87.971384,,,,
LINCOLNSHIRE,,30 RIVERWOODS ROAD,,LINCOLNSHIRE,IL,60069,US,847-520-1281,42.186432,-87.907730,,,,
NAPERVILLE - NORTH,,1512 N. NAPER BLVD.,SUITE 140,NAPERVILLE,IL,60563,US,630-717-6996,41.797607,-88.117958,,,,
SCHAUMBURG - GOLF CENTER,,23 GOLF CENTER,CORNER OF GOLF ROAD & ROSELLE,HOFFMAN ESTATES,IL,60194,US,847-592-5172,42.046936,-88.082268,,,,
SCHAUMBURG - SALEM PLAZA,,1057 SALEM PLAZA,,SCHAUMBURG,IL,60194,US,847-519-7788,42.045895,-88.098541,,,,
CAROL STREAM,,1812 ARMY TRAIL ROAD,,HANOVER PARK,IL,60133,US,630-372-2240,41.940754,-88.151253,,,,
KATY - SAUMS RD,,2343 FRY ROAD,,KATY,TX,77449,US,281-829-3330,29.800825,-95.719063,,,,
SPRING - GLEANNLOCH,,9305 SPRING CYPRESS ROAD,,SPRING,TX,77379,US,281-746-3300,30.026640,-95.561951,,,,
SUGAR LAND - NEW TERRITORY,,5858 NEW TERRITORY BOULEVARD,,SUGAR LAND,TX,77479,US,832-573-6998,29.589750,-95.674860,,,,
CYPRESS - LONGWOOD,,13215 GRANT ROAD,SUITE #900,CYPRESS,TX,77429,US,281-746-3700,29.994711,-95.624809,,,,
CYPRESS - COLES CROSSING,,12312 BARKER CYPRESS ROAD,SUITE #1800,CYPRESS,TX,77429,US,281-746-3003,29.955622,-95.670190,,,,
KATY - CINCO RANCH EAST,,2944 SOUTH MASON ROAD,SUITE A,KATY,TX,77450,US,281-395-6284,29.741730,-95.752594,,,,
RICHMOND - WATERSIDE ESTATES,,8019 WEST GRAND PARKWAY SOUTH,SUITE #1053,RICHMOND,TX,77407,US,281-232-6789,29.664020,-95.736960,,,,
KINGWOOD - EAST,,4003 RUSTIC WOODS DRIVE,SUITE J,KINGWOOD,TX,77339,US,281-570-4340,30.054930,-95.187210,,,,
SPRING - CENTRAL,,21346 KUYKENDAHL,SUITE A,SPRING,TX,77379,US,832-246-5900,30.078138,-95.517670,,,,
BAYTOWN,,407 W. BAKER ROAD,SUITE H,BAYTOWN,TX,77521,US,281-839-7470,29.769310,-94.967857,,,,
LEAGUE CITY,,246 SOUTH EGRET BAY BOULEVARD,,LEAGUE CITY,TX,77573,US,281-554-4529,29.519958,-95.074997,,,,
TOMBALL - SOUTH,,24922 TOMBALL PARKWAY,SUITE #119,TOMBALL,TX,77375,US,832-698-2733,30.044833,-95.609940,,,,
SUGAR LAND - GREATWOOD,,1135 CRAB RIVER ROAD,SUITE #130,RICHMOND,TX,77469,US,832-595-8300,29.551701,-95.697289,,,,
KATY - MORTON RANCH,,2918 W. GRAND  PARKWAY N.,SUITE 180,KATY,TX,77449,US,281-657-9229,29.812400,-95.772870,,,,
KATY - SEVEN LAKES,,23108 SEVEN MEADOWS PARKWAY,SUITE #300,KATY,TX,77494,US,832-437-3344,29.714201,-95.779030,,,,
KATY - GRAND PARKWAY WEST,,25757 WESTHEIMER PKWY.,SUITE #115,KATY,TX,77494,US,832-900-7575,29.750271,-95.798668,,,,
CARLSBAD - SOUTH,,6994 EL CAMINO REAL,SUITE #201/202,CARLSBAD,CA,92009,US,760-431-1497,33.103752,-117.266113,,,,
SAN MARCOS,,1001 W. SAN MARCOS BLVD.,SUITE #140,SAN MARCOS,CA,92069,US,760-591-7550,33.140953,-117.162086,,,,
CARLSBAD - NORTH,,2588 EL CAMINO REAL,SUITE E,CARLSBAD,CA,92008,US,760-827-0600,33.178059,-117.325455,,,,
OCEANSIDE - SOUTH,,4095 OCEANSIDE BOULEVARD,SUITE J,OCEANSIDE,CA,92056,US,760-936-0008,33.205135,-117.289963,,,,
TEMECULA TOWN,,27536 YNEZ ROAD,SUITE #F-9,TEMECULA,CA,92591,US,951-695-9411,33.506588,-117.146713,,,,
SAN CLEMENTE - BONITA CANYON PARK,,801 VIA SUERTE,SUITE 102,SAN CLEMENTE,CA,92673,US,949-429-8008,33.464123,-117.599838,,,,
MURRIETA - CENTRAL,,24540 VILLAGE WALK PLACE,SUITE E1,MURRIETA,CA,92562,US,951-387-3535,33.566582,-117.213020,,,,
CENTRAL LAGUNA NIGUEL,,30232 CROWN VALLEY PARKWAY,SUITE #A3,LAGUNA NIGUEL,CA,92677,US,949-363-8020,33.523880,-117.714485,,,,
LADERA RANCH,,25642 CROWN VALLEY PARKWAY,SUITE E-5,LADERA RANCH,CA,92694,US,949-456-8300,33.564590,-117.631203,,,,
MISSION VIEJO,,25380 MARGUERITE PARKWAY,SUITE #I,MISSION VIEJO,CA,92692,US,949-588-9620,33.594227,-117.659218,,,,
ALISO VIEJO,,27111 ALISO CREEK ROAD,SUITE #128,ALISO VIEJO,CA,92656,US,949-916-9662,33.568295,-117.725128,,,,
LAGUNA HILLS,,24881 ALICIA PARKWAY  SUITE I2,,LAGUNA HILLS,CA,92653,US,949-427-9900,33.600643,-117.693115,,,,
RANCHO SANTA MARGARITA,,30652 SANTA MARGARITA PARKWAY,SUITE F-107,RANCHO SANTA MARGARITA,CA,92688,US,949-207-5100,33.642406,-117.595421,,,,
MISSION VIEJO - NORTH,,27764 SANTA MARGARITA PARKWAY,,MISSION VIEJO,CA,92691,US,949-380-9988,33.650726,-117.645103,,,,
LAKE FOREST - SOUTH,,22821 LAKE FOREST DRIVE,SUITE #107,LAKE FOREST,CA,92630,US,949-455-9872,33.631573,-117.714081,,,,
LAKE FOREST - NORTH,,25432 TRABUCO ROAD,SUITE #107,LAKE FOREST,CA,92630,US,949-770-6535,33.647392,-117.686638,,,,
FOOTHILL RANCH,,26741 PORTOLA PARKWAY,SUITE 1-B,FOOTHILL RANCH,CA,92610,US,949-238-8100,33.680683,-117.663612,,,,
IRVINE-SOUTH,,4199 CAMPUS DRIVE,SUITE H,IRVINE,CA,92612,US,949-854-6284,33.650780,-117.838287,,,,
IRVINE-A,,4624 BARRANCA PARKWAY,,IRVINE,CA,92604,US,949-651-1200,33.677490,-117.799423,,,,
CENTRAL IRVINE,,13925 YALE AVENUE,SUITE #180,IRVINE,CA,92620,US,949-633-6728,33.705029,-117.772835,,,,
COSTA MESA - SOUTHWEST,,1835 NEWPORT BLVD.,SUITE E-163,COSTA MESA,CA,92627,US,714-689-7070,33.640614,-117.919823,,,,
PALATINE - NORTH,,112 WEST NORTHWEST HIGHWAY,,PALATINE,IL,60067,US,847-942-8510,42.121948,-88.046631,,,,
BUFFALO GROVE - NORTH,,1153 N. ARLINGTON HEIGHTS ROAD,,BUFFALO GROVE,IL,60089,US,847-913-1530,42.172685,-87.984293,,,,
NAPERVILLE - EAST,,2035 SOUTH WASHINGTON STREET,SUITE #143,NAPERVILLE,IL,60565,US,630-983-9483,41.730717,-88.130486,,,,
FRANKFORT - WEST,,95 WEST BANKVIEW DRIVE,,FRANKFORT,IL,60423,US,815-277-2560,41.510502,-87.850876,,,,
BOLINGBROOK - WEST,,481 SOUTH WEBER ROAD,UNIT J,BOLINGBROOK,IL,60490,US,630-226-1818,41.683430,-88.126945,,,,
HOFFMAN ESTATES,,1622 WEST ALGONQUIN ROAD,,HOFFMAN ESTATES,IL,60192,US,847-991-4403,42.091675,-88.119690,,,,
BARTLETT - TOWN CENTER,,132 BARTLETT PLAZA,,BARTLETT,IL,60103,US,630-540-9771,41.988365,-88.182571,,,,
NAPERVILLE - WEST,,632 AMERSALE DRIVE,,NAPERVILLE,IL,60563,US,630-778-6050,41.781815,-88.207405,,,,
LAKE BLUFF,,123 NORTH WAUKEGAN ROAD,UNITS 205 206  207,LAKE BLUFF,IL,60044,US,847-615-2889,42.283051,-87.880501,,,,
STREAMWOOD,,937 WEST IRVING PARK ROAD,,STREAMWOOD,IL,60107,US,630-372-5138,42.018391,-88.199768,,,,
NEW LENOX - EAST,,2067 EAST LARAWAY ROAD,,NEW LENOX,IL,60451,US,815-215-2100,41.485570,-87.924310,,,,
TUSTIN RANCH,,2915 EL CAMINO REAL,,TUSTIN,CA,92782,US,714-824-4020,33.726448,-117.794868,,,,
SANTA ANA - SOUTH COAST METRO,,3696 S. BRISTOL STREET,,SANTA ANA,CA,92704,US,714-754-7474,33.697662,-117.885620,,,,
TUSTIN,,17842 IRVINE BOULEVARD,SUITE #128 & 132,TUSTIN,CA,92780,US,714-573-8107,33.747982,-117.820564,,,,
HUNTINGTON BEACH - SOUTH,,9011 ADAMS AVENUE,,HUNTINGTON BEACH,CA,92646,US,714-963-0123,33.673172,-117.970917,,,,
CORONA - SOUTH,,265 E. ONTARIO AVENUE,SUITE 103,CORONA,CA,92879,US,951-444-9955,33.856979,-117.568108,,,,
SANTA ANA - EAST,,2425 NORTH TUSTIN AVENUE,SUITE A,SANTA ANA,CA,92705,US,714-785-8850,33.769302,-117.835754,,,,
FOUNTAIN VALLEY - CENTRAL,,18061 MAGNOLIA STREET,,FOUNTAIN VALLEY,CA,92708,US,714-824-5454,33.700340,-117.972427,,,,
ORANGE - SOUTH,,3532 EAST CHAPMAN AVENUE,,ORANGE,CA,92869,US,714-923-0100,33.787212,-117.815460,,,,
MORENO VALLEY,,22455 ALESSANDRO BLVD.,SUITE #118,MORENO VALLEY,CA,92553,US,951-485-8758,33.916065,-117.270561,,,,
CORONA - SERFAS CLUB,,2721 GREEN RIVER ROAD,SUITE #108,CORONA,CA,92882,US,951-256-5700,33.871937,-117.622643,,,,
ANAHEIM HILLS - OAK CANYON,,6505B EAST SERRANO AVENUE,,ANAHEIM HILLS,CA,92807,US,714-782-0280,33.831558,-117.760201,,,,
WESTMINSTER - EAST,,14541 BROOKHURST STREET,SUITE #B2,WESTMINSTER,CA,92683,US,714-855-9625,33.751381,-117.955772,,,,
HUNTINGTON BEACH - LARK VIEW PARK,,6034 WARNER AVENUE,,HUTINGTON BEACH,CA,92647,US,,33.715290,-118.023323,,,,
TEMPLE,,2112 SW HK DODGEN LOOP,SUITE 129,TEMPLE,TX,76504,US,254-774-1255,31.078800,-97.378021,,,,
COLLEGE STATION,,3206 LONGMIRE DRIVE,UNIT E,COLLEGE STATION,TX,77845,US,979-691-8128,30.586756,-96.290237,,,,
WACO,,8810 W. HIGHWAY 84,SUITE #503,WACO,TX,76712,US,254-313-9277,31.496883,-97.218430,,,,
SOUTHPORT,,8028 SOUTH EMERSON ROAD,SUITE K,INDIANAPOLIS,IN,46237,US,317-491-1818,39.649494,-86.083611,,,,
INDIANAPOLIS - PICKWICK COMMONS,,1260 W. 86TH ST.,,INDIANAPOLIS,IN,46260,US,317-669-0290,39.913177,-86.181885,,,,
GREENWOOD,,2801 FAIRVIEW PLACE,SUITE K,GREENWOOD,IN,46142,US,317-215-6045,39.621307,-86.157471,,,,
AVON,,8100 E. US 36,SUITE I,AVON,IN,46123,US,317-839-2568,39.764660,-86.379974,,,,
CARMEL - CENTRAL,,174 EAST CARMEL DRIVE,,CARMEL,IN,46032,US,317-575-9020,39.969692,-86.126915,,,,
BROWNSBURG,,1430 NORTH GREEN STREET,BAY F,BROWNSBURG,IN,46112,US,317-350-6070,39.864262,-86.393532,,,,
ZIONSVILLE,,37 BOONE VILLAGE,,ZIONSVILLE,IN,46077,US,317-688-7446,39.951900,-86.277199,,,,
FISHERS - WEST,,11846 ALLISONVILLE ROAD,,FISHERS,IN,46038,US,317-578-4555,39.960197,-86.037323,,,,
FISHERS - EAST,,10106 BROOKS SCHOOL ROAD,SUITE #300,FISHERS,IN,46037,US,317-567-1953,39.934925,-85.948097,,,,
COLUMBUS,,4250 WEST JONATHAN MOORE PIKE,B4,COLUMBUS,IN,47201,US,812-342-5672,39.200035,-85.971703,,,,
WEST LAFAYETTE,,2635 YEAGER ROAD,SUITES A & F,WEST LAFAYETTE,IN,47906,US,765-430-3981,40.456520,-86.924962,,,,
TERRE HAUTE,,615 EAST SPRINGHILL DRIVE,,TERRE HAUTE,IN,47802,US,812-232-2121,39.412369,-87.408188,,,,
LIBERTY TOWNSHIP - NORTH,,5434 LIBERTY SQUARE DRIVE,,LIBERTY TOWNSHIP,OH,45011,US,513-443-5885,39.418377,-84.474335,,,,
WEST CHESTER,,8202 HIGHLAND POINTE DRIVE WEST,,WEST CHESTER,OH,45069,US,513-777-0888,39.348656,-84.394768,,,,
DALLAS - PARK CITIES,,6703 HILLCREST,,DALLAS,TX,75205,US,214-808-8922,32.847809,-96.787094,,,,
DALLAS - CENTRAL,,11343 NORTH CENTRAL EXPRESSWAY,,DALLAS,TX,75230,US,214-808-8922,32.902134,-96.769981,,,,
ADDISON,,3816 BELT LINE ROAD,,ADDISON,TX,75001,US,214-356-0129,32.950798,-96.850746,,,,
IRVING - NORTH,,7410 NORTH MACARTHUR BOULEVARD,SUITE #105,IRVING,TX,75063,US,214-496-9121,32.907330,-96.957848,,,,
GARLAND - NORTHWEST,,4750 NORTH JUPITER ROAD,SUITE #201,GARLAND,TX,75044,US,972-675-6888,32.959618,-96.681999,,,,
DALLAS - BENT TREE,,17390 PRESTON RD.,SUITE 259,DALLAS,TX,75252,US,972-892-4100,32.988590,-96.801720,,,,
RICHARDSON - NORTH,,2701 CUSTER PARKWAY,SUITE #712,RICHARDSON,TX,75080,US,469-904-4020,32.991070,-96.728149,,,,
ROWLETT - WEST,,3374 LAKEVIEW PARKWAY,,ROWLETT,TX,75088,US,214-288-4310,32.907490,-96.570313,,,,
CARROLLTON - CENTRAL,,2701 OLD DENTON ROAD,UNIT 270,CARROLLTON,TX,75007,US,972-810-6900,32.988087,-96.910545,,,,
PLANO - SHEPARD,,1501 PRESTON ROAD,SUITE #825,PLANO,TX,75093,US,214-299-2002,33.019157,-96.795952,,,,
ARLINGTON - NORTH,,2745 N. COLLINS ST.,SUITE #103,ARLINGTON,TX,76006,US,972-345-1904,32.783176,-97.093422,,,,
COPPELL - WEST,,255 SOUTH DENTON TAP,SUITE #220,COPPELL,TX,75019,US,469-231-8995,32.963955,-96.994026,,,,
SACHSE,,5120 STATE HIGHWAY 78,SUITE #200,SACHSE,TX,75048,US,214-803-9346,32.968712,-96.604134,,,,
PLANO - PRESTONWOOD,,6529 WEST PLANO PARKWAY,SUITE C,PLANO,TX,75093,US,972-608-5249,33.031193,-96.839813,,,,
CARROLLTON - NORTHWEST,,1012 WEST HEBRON,SUITE #132,CARROLLTON,TX,75010,US,972-394-3899,33.021927,-96.917549,,,,
BEDFORD,,2900 S. HIGHWAY 121,SUITE 135,BEDFORD,TX,76021,US,817-786-4722,32.853004,-97.108139,,,,
PLANO - CARPENTER PARK,,4160 SPRING CREEK PARKWAY,SUITE A-200,PLANO,TX,75024,US,972-900-7171,33.055069,-96.773102,,,,
PLANO EAST-MURPHY,,4101 EAST PARK BOULEVARD,SUITE #147,PLANO,TX,75074,US,214-395-0352,33.032681,-96.648819,,,,
LEWISVILLE - SOUTH,,1071 WEST FM 3040,SUITE #300,LEWISVILLE,TX,75067,US,972-315-4600,33.006054,-97.016678,,,,
FORNEY,,1012 US HIGHWAY 80,,FORNEY,TX,75126,US,469-595-7040,32.743002,-96.442242,,,,
SOUTHLAKE - EAST,,2150 W. NORTHWEST HIGHWAY,SUITE 118,GRAPEVINE,TX,76051,US,817-421-6500,32.941807,-97.099998,,,,
WYLIE,,901 FM 544,SUITE #650,WYLIE,TX,75098,US,469-229-7300,33.007400,-96.551330,,,,
PLANO - NORTHEAST,,7801 ALMA DRIVE,SUITE #117,PLANO,TX,75025,US,469-241-0001,33.083546,-96.713783,,,,
COLLEYVILLE,,6118 COLLEYVILLE BOULEVARD,,COLLEYVILLE,TX,76034,US,817-416-6118,32.898167,-97.144699,,,,
ARLINGTON - SOUTHWEST,,3851 SOUTHWEST GREEN OAKS BOULEVARD,SUITE #111,ARLINGTON,TX,76017,US,817-454-4000,32.658722,-97.168488,,,,
NORTH RICHLAND HILLS - SOUTH,,9143 BLVD. 26,STE. 640,NORTH RICHLAND HILLS,TX,76180,US,817-281-8882,32.854576,-97.188545,,,,
FRISCO - STARWOOD,,5729 LEBANON ROAD,SUITE #132,FRISCO,TX,75034,US,972-624-7303,33.115505,-96.837326,,,,
MANSFIELD - NORTH,,920 HIGHWAY 287 NORTH,SUITE #208,MANSFIELD,TX,76063,US,682-518-8868,32.580987,-97.128961,,,,
FLOWER MOUND - EAST,,3353 LONG PRAIRIE ROAD,,FLOWER MOUND,TX,75022,US,469-231-8995,33.032246,-97.071396,,,,
ALLEN - TOWNE CENTER,,204 NORTH GREENVILLE AVENUE,#250,ALLEN,TX,75002,US,972-908-2508,33.102062,-96.659485,,,,
PLANO - FOUR CORNERS,,10185 CUSTER ROAD,SUITE #200,PLANO,TX,75025,US,214-563-3330,33.118126,-96.733955,,,,
FRISCO - EAST,,7010 PRESTON ROAD,SUITE #120,FRISCO,TX,75035,US,972-334-9989,33.136646,-96.802528,,,,
HIGHLAND VILLAGE,,2250 FM 407,SUITE #132,HIGHLAND VILLAGE,TX,75077,US,972-317-1320,33.071564,-97.055641,,,,
FRISCO - SOUTHWEST,,305 W. MAIN ST.,SUITE #212,FRISCO,TX,75034,US,972-624-7323,33.152397,-96.888901,,,,
KELLER - NORTH,,1540 KELLER PARKWAY,SUITE 100,KELLER,TX,76248,US,817-431-9254,32.932831,-97.217293,,,,
MCKINNEY - LAKE FOREST CROSSING,,5261 MCKINNEY RANCH PARKWAY,SUITE #300,MCKINNEY,TX,75070,US,214-585-0412,33.159002,-96.683292,,,,
FRISCO - WEST,,11550 LEGACY DRIVE,SUITE #450,FRISCO,TX,75033,US,972-377-6284,33.174625,-96.846443,,,,
MCKINNEY - WESTRIDGE,,1550 S. CUSTER ROAD,,MCKINNEY,TX,75070,US,972-439-9700,33.189964,-96.733574,,,,
MCKINNEY - STONEBRIDGE RANCH,,5913 VIRGINIA PARKWAY,SUITE #200,MCKINNEY,TX,75071,US,469-952-6284,33.197994,-96.696831,,,,
FORT WORTH - NORTH,,4324 HERITAGE TRACE PARKWAY,SUITE #809,FORT WORTH,TX,76244,US,817-379-6284,32.914059,-97.294739,,,,
JACKSONVILLE - SOUTHSIDE,,9978-2 OLD BAYMEADOWS ROAD,,JACKSONVILLE,FL,32256,US,904-642-7888,30.220772,-81.552383,,,,
MANDARIN,,11362 SAN JOSE BOULEVARD,UNIT #18,JACKSONVILLE,FL,32223,US,904-268-8861,30.167988,-81.632401,,,,
JACKSONVILLE - INTRACOASTAL WEST,,13475 ATLANTIC BOULEVARD,SUITE #27,JACKSONVILLE,FL,32225,US,904-744-2445,30.322004,-81.452538,,,,
JACKSONVILLE - FRUIT COVE,,445 STATE ROAD 13,SUITE 8,JACKSONVILLE,FL,32259,US,904-679-3654,30.119747,-81.623894,,,,
JACKSONVILLE BEACH,,1010-A 3RD STREET NORTH,,JACKSONVILLE BEACH,FL,32250,US,904-540-9570,30.297733,-81.394684,,,,
PONTE VEDRA - SOLANA ROAD,,280 SOLANA ROAD,,PONTE VEDRA BEACH,FL,32082,US,904-285-7775,30.225870,-81.388504,,,,
JACKSONVILLE - ST. JOHNS,,2220 CR 210 WEST,SUITE #306,JACKSONVILLE,FL,32259,US,904-910-5512,30.061443,-81.513824,,,,
PALM COAST,,160 CYPRESS POINT PARKWAY,SUITE A-206,PALM COAST,FL,32164,US,386-597-2855,29.548393,-81.227905,,,,
GAINESVILLE - WEST,,1014 NW 76TH BLVD.,,GAINESVILLE,FL,32606,US,352-222-4464,29.661400,-82.424049,,,,
DAYTONA BEACH - HOLLY HILL,,1757 NORTH NOVA ROAD,SUITE #101,HOLLY HILL,FL,32117,US,386-252-0026,29.244518,-81.062927,,,,
OCALA,,3913 SE LAKEWEIR AVENUE,,OCALA,FL,34480,US,352-351-9000,29.148643,-82.114983,,,,
GROVE CITY,,2436 STRINGTOWN ROAD,,COLUMBUS,OH,43123,US,614-305-1070,39.882713,-83.067741,,,,
UPPER ARLINGTON NORTH,,1214 KENNY CENTER ROAD,,UPPER ARLINGTON,OH,43220,US,614-538-0483,40.049660,-83.051773,,,,
DUBLIN - EAST,,5857 SAWMILL ROAD,,DUBLIN,OH,43017,US,614-792-6530,40.086365,-83.092979,,,,
PICKERINGTON,,1694 HILL ROAD NORTH,,PICKERINGTON,OH,43147,US,614-762-7187,39.924873,-82.784004,,,,
NEW ALBANY,,5187 HAMPSTEAD VILLAGE CENTER WAY,SUITE #14,NEW ALBANY,OH,43054,US,614-855-5880,40.089340,-82.825590,,,,
WESTERVILLE - NORTH,,5993 MAXTOWN ROAD,,WESTERVILLE,OH,43082,US,614-895-8666,40.146622,-82.921547,,,,
DUBLIN - AVERY,,6860 PERIMETER DRIVE,SUITE C,DUBLIN,OH,43016,US,614-356-3699,40.106449,-83.170982,,,,
LEWIS CENTER,,648 BEAR RUN,,LEWIS CENTER,OH,43035,US,614-883-6271,40.159409,-83.010742,,,,
POWELL,,74 CLAIREDAN DRIVE,,POWELL,OH,43065,US,614-505-9101,40.167656,-83.078842,,,,
BEAVERCREEK,,3293 SEAJAY DRIVE,,BEAVERCREEK,OH,45430,US,937-369-6599,39.721188,-84.062294,,,,
HUBER HEIGHTS,,4654 BRANDT PIKE,,DAYTON,OH,45424,US,937-321-8083,39.820675,-84.125587,,,,
KETTERING,,3059 WOODMAN DRIVE,,KETTERING,OH,45420,US,937-426-4079,39.701294,-84.125999,,,,
CENTERVILLE,,5771 FAR HILLS AVENUE,,DAYTON,OH,45429,US,937-885-6284,39.662235,-84.159248,,,,
WASHINGTON TOWNSHIP,,681 LYONS ROAD,,WASHINGTON TOWNSHIP,OH,45459,US,937-813-7313,39.630909,-84.191383,,,,
SPRINGBORO,,74 NORTH MAIN STREET,,SPRINGBORO,OH,45066,US,937-748-4296,39.558811,-84.232445,,,,
MASON,,6209 SNIDER ROAD,SUITE B,MASON,OH,45040,US,513-204-1504,39.348590,-84.330850,,,,
LOVELAND - CENTRAL,,531 LOVELAND - MADEIRA ROAD,,LOVELAND,OH,45140,US,513-239-3000,39.264042,-84.267410,,,,
BLUE ASH,,9719 KENWOOD ROAD,,BLUE ASH,OH,45242,US,513-891-7004,39.234989,-84.376656,,,,
ANDERSON,,8315 BEECHMONT AVENUE,SUITE #28,CINCINNATI,OH,45255,US,513-474-3400,39.071365,-84.323952,,,,
SAN JOSE - EAST,,779 STORY ROAD,SUITE #25,SAN JOSE,CA,95122,US,408-993-8882,37.329514,-121.859337,,,,
SAN JOSE - ROSE GARDEN,,1991 PARK AVENUE,,SAN JOSE,CA,95126,US,408-571-6007,37.338608,-121.930161,,,,
WILLOW GLEN,,1087 MERIDIAN AVENUE,UNIT #60,SAN JOSE,CA,95125,US,408-265-8300,37.304394,-121.914192,,,,
BERRYESSA - WEST,,1715 LUNDY AVE,SUITE #174,SAN JOSE,CA,95131,US,408-258-5256,37.387768,-121.887680,,,,
SANTA CLARA - AGNEW,,3170 DE LA CRUZ BOULEVARD,SUITE #104,SANTA CLARA,CA,95054,US,408-855-8666,37.380470,-121.941185,,,,
SANTA CLARA - CENTRAL,,238 SARATOGA AVENUE,,SANTA CLARA,CA,95050,US,408-789-7614,37.328610,-121.965480,,,,
BERRYESSA,,1030 PIEDMONT ROAD,SUITE G,SAN JOSE,CA,95132,US,408-258-0829,37.391880,-121.842712,,,,
EVERGREEN - WEST,,1785 EAST CAPITOL EXPRESSWAY,,SAN JOSE,CA,95121,US,408-270-8018,37.308380,-121.809814,,,,
CAMPBELL - EAST,,1784 WINCHESTER BLVD.,,CAMPBELL,CA,95008,US,408-796-3165,37.291431,-121.949455,,,,
SAN JOSE - CAMBRIAN PARK,,3005 MERIDIAN AVENUE,,SAN JOSE,CA,95124,US,408-723-4998,37.270313,-121.906593,,,,
SAN JOSE - CAPITOL MONTEREY,,4100 MONTEREY ROAD,SUITE #102/104,SAN JOSE,CA,95111,US,408-365-8666,37.278641,-121.835732,,,,
EVERGREEN,,3235 SOUTH WHITE ROAD,,SAN JOSE,CA,95148,US,408-274-9083,37.314758,-121.792198,,,,
SAN JOSE - ALMADEN,,5672 ALMADEN EXPRESSWAY,SUITE 100,SAN JOSE,CA,95118,US,408-569-6284,37.249371,-121.875008,,,,
MILPITAS,,304 SOUTH ABEL STREET,314 SOUTH ABEL STREET,MILPITAS,CA,95035,US,408-956-0881,37.426544,-121.908035,,,,
WEST SAN JOSE,,5169 MOORPARK AVENUE,,SAN JOSE,CA,95129,US,408-873-9644,37.309856,-121.994354,,,,
SUNNYVALE - EAST,,1040 EAST EL CAMINO REAL,,SUNNYVALE,CA,94087,US,408-542-9027,37.351456,-122.004700,,,,
LOS GATOS - BLOSSOM CREST,,15555 UNION AVENUE,,LOS GATOS,CA,95032,US,650-935-6950,37.241844,-121.932152,,,,
SAN JOSE - OAK GROVE,,6035 SNELL AVENUE,,SAN JOSE,CA,95123,US,408-753-3700,37.237717,-121.831917,,,,
SAN JOSE - SILVER CREEK,,5978 SILVER CREEK VALLEY ROAD,SUITE #35,SAN JOSE,CA,95138,US,408-365-8666,37.258488,-121.785599,,,,
SUNNYVALE-CENTRAL,,433 EAST EL CAMINO REAL,,SUNNYVALE,CA,94087,US,408-732-9898,37.364616,-122.028297,,,,
CUPERTINO - EAST,,20680 STEVENS CREEK BOULEVARD,,CUPERTINO,CA,95014,US,408-878-8998,37.322109,-122.035278,,,,
CUPERTINO,,1550-1552 SOUTH DE ANZA BOULEVARD,,SAN JOSE,CA,95129,US,408-732-9898,37.295853,-122.032089,,,,
HOMESTEAD,,1665 HOLLENBECK ROAD,,SUNNYVALE,CA,94087,US,408-746-3881,37.338825,-122.042534,,,,
LOS GATOS,,455 LOS GATOS BOULEVARD,SUITE #107,LOS GATOS,CA,95032,US,408-358-0747,37.229111,-121.966713,,,,
CUPERTINO - WEST,,21749 STEVENS CREEK BLVD.,,CUPERTINO,CA,95014,US,,37.323460,-122.054726,,,,
SARATOGA,,14363 SARATOGA AVENUE,SUITE #101,SARATOGA,CA,95070,US,408-867-5367,37.259727,-122.031029,,,,
MOUNTAIN VIEW - SUNNYVALE,,903 E. EL CAMINO REAL,SUITE #5,MOUNTAIN VIEW,CA,94040,US,408-222-1500,37.374760,-122.058876,,,,
FREMONT - WARM SPRINGS,,47812 WARM SPRINGS BOULEVARD,,FREMONT,CA,94539,US,510-585-5603,37.477787,-121.921242,,,,
SANTA TERESA,,7118 SANTA TERESA BOULEVARD,,SAN JOSE,CA,95139,US,408-224-2020,37.226051,-121.775238,,,,
CENTRAL LOS ALTOS,,1780 MIRAMONTE,,MOUNTAIN VIEW,CA,94040,US,650-969-3820,37.371822,-122.087112,,,,
LOS ALTOS,,2500 CALIFORNIA STREET,SUITE D,MOUNTAIN VIEW,CA,94040,US,650-948-4124,37.403522,-122.106148,,,,
FREMONT - MISSION SAN JOSE,,43430 MISSION BOULEVARD,SUITE #220,FREMONT,CA,94539,US,510-400-8146,37.532013,-121.919380,,,,
FREMONT - IRVINGTON,,40819 FREMONT BOULEVARD,,FREMONT,CA,94538,US,510-771-2030,37.534379,-121.962210,,,,
FREMONT - CENTERVILLE,,5200 MOWRY AVENUE,SUITE #G,FREMONT,CA,94538,US,510-305-4927,37.533501,-121.999046,,,,
PALO ALTO,,2730 MIDDLEFIELD ROAD,,PALO ALTO,CA,94306,US,650-969-1978,37.433146,-122.129580,,,,
FREMONT,,3129 WALNUT AVENUE,,FREMONT,CA,94538,US,510-979-1765,37.551041,-121.978630,,,,
EAST PALO ALTO - RAVENSWOOD,,1765 E. BAYSHORE ROAD,SUITE F,EAST PALO ALTO,CA,94303,US,650-460-7800,37.461113,-122.135223,,,,
NEWARK - SOUTH,,36724 CEDAR BLVD.,,NEWARK,CA,94560,US,510-789-1515,37.543625,-122.027580,,,,
FREMONT - NORTH,,3614 THORNTON AVENUE,,FREMONT,CA,94536,US,510-676-4171,37.562111,-122.008270,,,,
NEWARK,,35111 NEWARK BOULEVARD,SUITE D,NEWARK,CA,94560,US,510-979-1765,37.549675,-122.048714,,,,
UNION CITY - EAST,,34712 ALVARADO NILES ROAD,,UNION CITY,CA,94587,US,510-455-4846,37.586323,-122.018036,,,,
UNION CITY - ALVARADO,,32122 ALVARADO BOULEVARD,,UNION CITY,CA,94587,US,510-471-8887,37.590164,-122.068275,,,,
MORGAN HILL,,16375 MONTEREY ROAD,SUITE I,MORGAN HILL,CA,95037,US,408-778-6896,37.117668,-121.645859,,,,
HAYWARD - FAIRWAY PARK,,31153 MISSION BOULEVARD,,HAYWARD,CA,94544,US,510-731-1717,37.618382,-122.036011,,,,
REDWOOD CITY,,1060 EL CAMINO REAL,SUITE B,REDWOOD CITY,CA,94063,US,650-799-4099,37.480620,-122.227510,,,,
PLEASANTON - SOUTH,,5460 SUNOL BOULEVARD,SUITE 6,PLEASANTON,CA,94566,US,925-621-8155,37.650661,-121.879013,,,,
PLEASANTON,,1807 SANTA RITA ROAD,SUITE# J,PLEASANTON,CA,94566,US,925-426-8858,37.677982,-121.875122,,,,
SAN CARLOS,,165 EL CAMINO REAL,,SAN CARLOS,CA,94070,US,650-593-6284,37.512348,-122.265984,,,,
LIVERMORE - WEST,,1094 E. STANLEY BLVD.,,LIVERMORE,CA,94550,US,925-371-1996,37.680008,-121.782997,,,,
LIVERMORE,,4072 EAST AVENUE,,LIVERMORE,CA,94550,US,925-454-1870,37.680988,-121.747139,,,,
LITTLE TOKYO,,300 S. CENTRAL AVE.,,LOS ANGELES,CA,90013,US,310-543-5077,34.045681,-118.239075,,,,
HANCOCK PARK,,3700 WILSHIRE,SUITE #106,LOS ANGELES,CA,90010,US,213-389-8449,34.060551,-118.307190,,,,
PARK LA BREA,,5115 WILSHIRE BOULEVARD,SUITE E,LOS ANGELES,CA,90036,US,323-828-8045,34.062351,-118.341156,,,,
GLENDALE,,730 SOUTH CENTRAL AVENUE,SUITE #205,GLENDALE,CA,91204,US,818-681-8880,34.137207,-118.257286,,,,
EAGLE ROCK,,2352 COLORADO BOULEVARD,,LOS ANGELES,CA,90041,US,323-258-5878,34.139542,-118.217667,,,,
SOUTH PASADENA,,1515 GARFIELD AVENUE,SUITE #203 & 205,SOUTH PASADENA,CA,91030,US,626-818-1186,34.108578,-118.137733,,,,
ALHAMBRA,,1019 EAST MAIN STREET,,ALHAMBRA,CA,91801,US,626-943-0131,34.100433,-118.116394,,,,
WEST HOLLYWOOD,,8539 WEST SUNSET BLVD.,UNIT 22,WEST HOLLYWOOD,CA,90069,US,310-975-8555,34.093853,-118.377853,,,,
MONTEBELLO HILLS,,1318 POTRERO GRANDE DRIVE,,ROSEMEAD,CA,91770,US,626-288-3871,34.045280,-118.099388,,,,
BURBANK - SOUTH,,1042 W. ALAMEDA AVE.,,BURBANK,CA,91506,US,818-843-2885,34.162750,-118.314522,,,,
CULVER CITY,,10750 JEFFERSON BOULEVARD,BUILDING Z - SUITE D,CULVER CITY,CA,90230,US,310-641-9254,34.002365,-118.394287,,,,
BURBANK - WEST,,3808 VERDUGO AVENUE,,BURBANK,CA,91505,US,818-845-6118,34.160259,-118.345253,,,,
CULVER CITY - NORTH,,10401 VENICE BLVD.,SUITE #107A,LOS ANGELES,CA,90034,US,310-204-1064,34.020599,-118.404510,,,,
PASADENA - EAST,,1378 EAST WALNUT STREET,,PASADENA,CA,91106,US,626-396-9913,34.149445,-118.121910,,,,
DOWNEY - CENTRAL,,8143 FIRESTONE BOULEVARD,,DOWNEY,CA,90241,US,562-382-1988,33.940201,-118.134239,,,,
LA CANADA,,1051 FOOTHILL BOULEVARD,,LA CANADA,CA,91011,US,818-928-1088,34.205513,-118.202110,,,,
STUDIO CITY,,12215 VENTURA BOULEVARD,SUITE #116,STUDIO CITY,CA,91604,US,818-763-4546,34.143513,-118.398941,,,,
WESTCHESTER,,8801 SOUTH SEPULVEDA BOULEVARD,SUITE E,LOS ANGELES,CA,90045,US,424-226-6284,33.956932,-118.396774,,,,
SAN GABRIEL,,8998 HUNTINGTON DRIVE,,SAN GABRIEL,CA,91775,US,626-848-9025,34.130081,-118.075165,,,,
TEMPLE CITY,,9666 LAS TUNAS DRIVE,,TEMPLE CITY,CA,91780,US,626-287-8434,34.106804,-118.058586,,,,
NORTH BURBANK,,443 IRVING DRIVE,UNIT D,BURBANK,CA,91504,US,818-972-9883,34.200340,-118.327972,,,,
WEST LOS ANGELES,,11300 WEST OLYMPIC BOULEVARD,SUITE #120,WEST LOS ANGELES,CA,90064,US,310-473-7158,34.037544,-118.441193,,,,
VENICE,,12923 1/2 VENICE BLVD.,,LOS ANGELES,CA,90066,US,310-881-3838,34.001129,-118.439461,,,,
LA CRESCENTA,,2754 FOOTHILL BOULEVARD,,LA CRESCENTA,CA,91214,US,818-248-3123,34.223366,-118.239166,,,,
GARDENA - NORTH,,2015 WEST REDONDO BEACH BOULEVARD,SUITE #A,GARDENA,CA,90247,US,310-532-0391,33.887726,-118.314178,,,,
EAST SHERMAN OAKS,,4820 FULTON AVENUE,,SHERMAN OAKS,CA,91423,US,818-783-7810,34.158009,-118.422485,,,,
ARCADIA - SOUTH,,36 EAST LIVE OAK AVENUE,,ARCADIA,CA,91006,US,626-447-6178,34.107513,-118.029068,,,,
TORRANCE - NORTH,,2050 ARTESIA BOULEVARD,SUITE #101,TORRANCE,CA,90504,US,310-400-7913,33.872932,-118.315132,,,,
WHITTIER - SOUTH,,8317 SOUTH PAINTER AVENUE,SUITE #6,WHITTIER,CA,90602,US,562-696-5678,33.962929,-118.033730,,,,
EL SEGUNDO,,218 RICHMOND STREET,,EL SEGUNDO,CA,90245,US,310-416-9646,33.918484,-118.417152,,,,
MANHATTAN BEACH,,3627 NORTH SEPULVEDA BOULEVARD,,MANHATTAN BEACH,CA,90266,US,310-546-0063,33.901260,-118.396301,,,,
SUN VALLEY,,8718 SUNLAND BOULEVARD,,SUN VALLEY,CA,91352,US,818-765-8666,34.228279,-118.365799,,,,
ARCADIA - NORTH,,157 E. FOOTHILL BOULEVARD,,ARCADIA,CA,91006,US,626-263-9939,34.151066,-118.026405,,,,
SANTA MONICA,,718 SANTA MONICA BLVD.,,SANTA MONICA,CA,90401,US,310-394-0902,34.019024,-118.491661,,,,
LAKEWOOD - EAST,,4324 EAST SOUTH STREET,,LAKEWOOD,CA,90712,US,562-412-6802,33.860218,-118.146179,,,,
TORRANCE - WEST,,18529 HAWTHORNE BLVD.,,TORRANCE,CA,90504,US,310-370-3535,33.862228,-118.353165,,,,
LONG BEACH - BIXBY KNOLLS,,4151 LONG BEACH BL.,,LONG BEACH,CA,90807,US,562-424-3595,33.833580,-118.189842,,,,
ARTESIA,,17901 PIONEER BLVD.,UNIT D,ARTESIA,CA,90701,US,562-667-7007,33.867893,-118.083069,,,,
PACIFIC PALISADES,,860 VIA DE LA PAZ,SUITE C1,PACIFIC PALISADES,CA,90272,US,310-526-5445,34.046680,-118.527229,,,,
HACIENDA HEIGHTS - CENTRAL,,15922 HALLIBURTON ROAD,,HACIENDA HEIGHTS,CA,91745,US,626-581-7770,33.995945,-117.965256,,,,
VAN NUYS - PANORAMA CITY,,15333 SHERMAN WAY,,VAN NUYS,CA,91406,US,818-994-5724,34.201843,-118.467300,,,,
LONG BEACH - NORTH,,4103 VIKING WAY,SUITE B,LONG BEACH,CA,90808,US,562-425-3430,33.832630,-118.127144,,,,
TORRANCE - SEPULVEDA,,2738 WEST SEPULVEDA BLVD.,SUITE #4,TORRANCE,CA,90505,US,310-326-7843,33.822411,-118.333374,,,,
ENCINO,,17200 VENTURA BOULEVARD,SUITE #310,ENCINO,CA,91316,US,818-981-2451,34.159863,-118.507706,,,,
CERRITOS,,11889 DEL AMO BOULEVARD,,CERRITOS,CA,90703,US,562-924-6862,33.847103,-118.079971,,,,
CARSON - WEST,,234 EAST SEPULVEDA BLVD.,,CARSON,CA,90745,US,310-834-6284,33.806564,-118.271835,,,,
LA MIRADA,,15286 ROSECRANS AVE.,,LA MIRADA,CA,90638,US,562-946-4300,33.897224,-118.005669,,,,
LA PALMA,,7002 MOODY STREET,SUITE #201,LA PALMA,CA,90623,US,562-860-1368,33.857712,-118.045479,,,,
WEST COVINA,,1337 WEST GARVEY AVENUE N.,,WEST COVINA,CA,91790,US,626-698-4519,34.073357,-117.935104,,,,
LA HABRA,,145 SOUTH BEACH BOULEVARD,,LA HABRA,CA,90631,US,562-697-7722,33.931049,-117.968071,,,,
CHARLOTTE - MYERS PARK,,1600 EAST WOODLAWN ROAD,SUITE #261,CHARLOTTE,NC,28209,US,704-327-8839,35.171734,-80.849274,,,,
CHARLOTTE - PROVIDENCE,,5668 INTERNATIONAL DR.  SUITE F,,CHARLOTTE,NC,28270,US,704-503-8989,35.135162,-80.778633,,,,
CHARLOTTE - UNIVERSITY CITY,,9010 GLENWATER,#106,CHARLOTTE,NC,28262,US,704-972-8800,35.314339,-80.751350,,,,
CHARLOTTE - CARMEL WEST,,10110 JOHNSTON ROAD,SUITE #8,CHARLOTTE,NC,28210,US,704-877-2005,35.092243,-80.858955,,,,
CHARLOTTE - SOUTHWEST,,11116 SOUTH TRYON STREET,SUITE C,CHARLOTTE,NC,28273,US,704-588-8988,35.116909,-80.962059,,,,
CHARLOTTE - MINT HILL,,7114 BRIGHTON PARK DRIVE,SUITE 320,MINT HILL,NC,28227,US,980-505-8880,35.172501,-80.662323,,,,
CHARLOTTE - PROSPERITY CHURCH ROAD,,13010 EASTFIELD ROAD,SUITE C-500,HUNTERSVILLE,NC,28078,US,704-942-4403,35.384766,-80.785843,,,,
BELMONT,,6436 WILKINSON BLVD.,,BELMONT,NC,28012,US,704-413-1999,35.251324,-81.044228,,,,
MATTHEWS - WEDDINGTON MCKEE,,3016 WEDDINGTON ROAD,SUITE #400,MATTHEWS,NC,28105,US,704-846-8798,35.082851,-80.732834,,,,
HARRISBURG - TOWN CENTER,,4200 MAIN STREET,SUITE 105,HARRISBURG,NC,28075,US,704-312-5889,35.326508,-80.645889,,,,
CHARLOTTE - BALLANTYNE,,8810 BLAKENEY PROFESSIONAL DRIVE,,CHARLOTTE,NC,28277,US,704-752-7757,35.031456,-80.807114,,,,
CONCORD - SPEEDWAY,,3775 CONCORD PARKWAY SOUTH,SUITE #124,CONCORD,NC,28027,US,704-784-5866,35.368275,-80.664955,,,,
HUNTERSVILLE - NORTH,,16933 KAUFINGER STREET,SUITE #140,HUNTERSVILLE,NC,28078,US,704-281-6562,35.442890,-80.857468,,,,
WESLEY CHAPEL,,5922 WEDDINGTON MONROE ROAD,SUITE A7,WESLEY CHAPEL,NC,28104,US,704-843-5555,34.999844,-80.699707,,,,
MOORESVILLE,,132-C NORTH CARDIGAN WAY,,MOORESVILLE,NC,28117,US,704-660-5866,35.555126,-80.861519,,,,
LEWISVILLE,,1309 LEWISVILLE - CLEMMONS ROAD,,LEWISVILLE,NC,27023,US,336-766-2333,36.080406,-80.389854,,,,
GREENSBORO - JAMESTOWN,,1228 GUILFORD COLLEGE ROAD,SUITE #102,JAMESTOWN,NC,27282,US,336-624-5085,36.041023,-79.919853,,,,
COLUMBIA - SPRING VALLEY,,111 SPARKLEBERRY CROSSINGS ROAD,SUITE #4,COLUMBIA,SC,29229,US,803-873-9292,34.101730,-80.855309,,,,
GREENSBORO - NORTHWEST,,2002 NEW GARDEN ROAD,SUITE #206,GREENSBORO,NC,27410,US,336-543-3232,36.127399,-79.858467,,,,
SIMPSONVILLE - FIVE FORKS,,2700 WOODRUFF ROAD,SUITE E,SIMPSONVILLE,SC,29681,US,864-289-0684,34.805412,-82.227669,,,,
LEXINGTON,,5166 SUNSET BOULEVARD,SUITE I,LEXINGTON,SC,29072,US,803-808-3420,34.006306,-81.200256,,,,
GREENVILLE -  WOODS CROSSING,,838 WOODS CROSSING ROAD,,GREENVILLE,SC,29607,US,864-607-9400,34.849197,-82.336700,,,,
MEMPHIS - MIDTOWN,,3462 PLAZA AVENUE,SUITE 101,MEMPHIS,TN,38111,US,901-240-3920,35.129398,-89.946419,,,,
GERMANTOWN,,1912 EXETER ROAD,SUITE B 1,GERMANTOWN,TN,38138,US,901-309-5060,35.096748,-89.801422,,,,
CORDOVA,,1769 NORTH GERMANTOWN PARKWAY,SUITE #105,CORDOVA,TN,38016,US,901-309-7818,35.174160,-89.794495,,,,
SOUTHAVEN,,5847 GETWELL ROAD  BUILDING A,SUITE A3,SOUTHAVEN,MS,38672,US,662-253-8424,34.945736,-89.937294,,,,
MEMPHIS - SOUTHWIND,,4202 HACKS CROSS ROAD,SUITE 115,MEMPHIS,TN,38125,US,901-309-7818,35.033783,-89.794678,,,,
OLIVE BRANCH,,8230 CAMP CREEK BLVD.,SUITE 117,OLIVE BRANCH,MS,38654,US,662-892-3800,34.966461,-89.845131,,,,
COLLIERVILLE,,1109 HALLE PARK,,COLLIERVILLE,TN,38017,US,901-853-3117,35.054024,-89.698547,,,,
DETROIT - MIDTOWN,,41 BURROUGHS STREET,SUITE 105,DETROIT,MI,48202,US,313-873-7730,42.365158,-83.070885,,,,
WINDSOR - SOUTH,,3090 DOUGALL AVE  UNIT 404,,WINDSOR,ON,N9E 1S4,CA,519-250-6300,42.272110,-83.012093,,,,
WINDSOR - FOREST GLADE,,130 - 7610 TECUMSEH RD E,,WINDSOR,ON,N8T 1E9,CA,519-969-8881,42.314205,-82.935921,,,,
WINDSOR - LA SALLE,,158 - 5841 MALDEN RD,,WINDSOR,ON,N9H 1S3,CA,519-969-8881,42.248611,-83.062126,,,,
DEARBORN,,3361 GREENFIELD ROAD,,DEARBORN,MI,48120,US,313-982-9858,42.306396,-83.188866,,,,
WINDSOR - TECUMSEH,,25 AMY CROFT DRIVE,UNIT#33A,TECUMSEH,ON,N9K 1C7,CA,226-315-1787,42.306728,-82.851250,,,,
GROSSE POINTE WOODS,,21147 MACK AVENUE,,GROSSE POINTE WOODS,MI,48236,US,313-605-1143,42.449314,-82.905746,,,,
DEARBORN HEIGHTS,,22444 FORD ROAD,,DEARBORN HEIGHTS,MI,48127,US,313-565-1771,42.327358,-83.258598,,,,
TAYLOR,,23573 VAN BORN ROAD,,TAYLOR,MI,48180,US,313-492-6284,42.268887,-83.264923,,,,
DETROIT - RIVERDALE,,16742 LAMPHERE,,DETROIT,MI,48219,US,313-255-9085,42.412098,-83.261978,,,,
ROYAL OAK,,2707 WEST WEBSTER,,ROYAL OAK,MI,48073,US,248-541-7790,42.510342,-83.177261,,,,
WOODHAVEN,,19111 WEST ROAD,,WOODHAVEN,MI,48183,US,313-492-6284,42.140808,-83.222572,,,,
STERLING HEIGHTS,,37856 VAN DYKE AVENUE,,STERLING HEIGHTS,MI,48312,US,586-323-5116,42.571407,-83.028458,,,,
BIRMINGHAM,,960 EAST MAPLE ROAD,,BIRMINGHAM,MI,48009,US,248-593-8130,42.546425,-83.207504,,,,
TROY -  EAST,,38921 DEQUINDRE ROAD,,TROY,MI,48083,US,248-457-0640,42.577877,-83.089844,,,,
LIVONIA,,32614 SEVEN MILE ROAD,,LIVONIA,MI,48152,US,734-458-1854,42.426277,-83.369919,,,,
CLINTON TOWNSHIP,,37005 GRATIOT AVENUE,,CLINTON TOWNSHIP,MI,48036,US,586-723-1171,42.570557,-82.891342,,,,
FARMINGTON HILLS,,27622 MIDDLEBELT,,FARMINGTON HILLS,MI,48334,US,248-427-0772,42.498001,-83.337463,,,,
BLOOMFIELD HILLS - WEST MAPLE,,4050 WEST MAPLE ROAD,SUITE #100,BLOOMFIELD HILLS,MI,48301,US,248-594-7323,42.545265,-83.282143,,,,
WESTLAND,,38545 FORD ROAD,SUITE #203,WESTLAND,MI,48185,US,734-722-7907,42.323410,-83.420105,,,,
TROY - NORTH,,32 WEST SQUARE LAKE ROAD,,TROY,MI,48098,US,248-828-3556,42.606426,-83.150223,,,,
MACOMB,,46801 GARFIELD ROAD,,MACOMB TWP,MI,48044,US,586-532-1234,42.640759,-82.956833,,,,
PLYMOUTH,,580 FOREST AVENUE,,PLYMOUTH,MI,48170,US,734-454-5550,42.368240,-83.471245,,,,
BLOOMFIELD HILLS - NORTH WOODWARD,,43183 WOODWARD AVENUE,,BLOOMFIELD HILLS,MI,48302,US,248-874-1234,42.605305,-83.267578,,,,
CANTON - CENTRAL,,44946 FORD ROAD,,CANTON,MI,48187,US,734-354-0004,42.322010,-83.485069,,,,
WEST BLOOMFIELD,,6433 FARMINGTON ROAD,,WEST BLOOMFIELD,MI,48322,US,248-865-8666,42.543243,-83.380379,,,,
AUBURN HILLS,,65 SOUTH SQUIRREL ROAD,,AUBURN HILLS,MI,48326,US,248-932-6399,42.632347,-83.222572,,,,
CANTON - SOUTH,,4051 S. CANTON CENTER ROAD,,CANTON,MI,48188,US,734-629-0011,42.275585,-83.485786,,,,
NOVI - EAST,,41431 WEST 10 MILE ROAD,,NOVI,MI,48375,US,248-347-4491,42.466747,-83.456131,,,,
NORTHVILLE,,114 MAIN CENTRE,,NORTHVILLE,MI,48167,US,248-347-4491,42.430916,-83.483246,,,,
WASHINGTON - SHELBY,,52015 VAN DYKE,,SHELBY TOWNSHIP,MI,48316,US,586-254-9925,42.676991,-83.035065,,,,
ROCHESTER,,125 SOUTH MAIN STREET,,ROCHESTER,MI,48307,US,248-651-9267,42.677620,-83.133698,,,,
NOVI - CENTRAL,,25425 TAFT ROAD,,NOVI,MI,48374,US,248-667-8582,42.475128,-83.495102,,,,
COMMERCE,,2527 UNION LAKE ROAD,,COMMERCE TOWNSHIP,MI,48382,US,248-363-8666,42.598335,-83.446236,,,,
WALLED LAKE,,49030 PONTIAC TRAIL,SUITE #300,WIXOM,MI,48393,US,248-668-6980,42.524704,-83.533051,,,,
LEAMINGTON,,29 ELLIOT ST,,LEAMINGTON,ON,N8H 3M4,CA,519-322-4707,42.053455,-82.605782,,,,
YPSILANTI,,2076 WHITTAKER ROAD,,YPSILANTI,MI,48197,US,734-390-9988,42.210625,-83.619385,,,,
LAKE ORION,,1184 SOUTH LAPEER ROAD,,LAKE ORION,MI,48360,US,248-693-6284,42.764893,-83.242592,,,,
CLARKSTON,,5530 SASHABAW ROAD,,CLARKSTON,MI,48346,US,248-625-8666,42.719521,-83.378853,,,,
SOUTH LYON,,22335 PONTIAC TRAIL,,SOUTH LYON,MI,48178,US,248-486-4131,42.444454,-83.651970,,,,
ANN ARBOR - EAST,,2741 PLYMOUTH ROAD,,ANN ARBOR,MI,48105,US,734-761-4648,42.303905,-83.706177,,,,
ANN ARBOR - SOUTHEAST,,3086 PLATT ROAD,,ANN ARBOR,MI,48105,US,734-904-8343,42.244648,-83.700134,,,,
ANN ARBOR - SOUTH,,2411 OAK VALLEY DRIVE,UNIT #100,ANN ARBOR,MI,48103,US,734-222-8020,42.252357,-83.774307,,,,
SALINE,,533 E. MICHIGAN AVENUE,,SALINE,MI,48176,US,734-944-1443,42.171490,-83.770767,,,,
BRIGHTON,,9864 EAST GRAND RIVER AVE,,BRIGHTON,MI,48116,US,810-229-8679,42.520649,-83.766190,,,,
ANN ARBOR - WEST,,283 SOUTH ZEEB ROAD,SUITE L,ANN ARBOR,MI,48103,US,734-929-4798,42.282227,-83.837502,,,,
CHATHAM,,467 ST. CLAIR ST  2ND FLOOR,,CHATHAM,ON,N7L 3K6,CA,519-351-5880,42.418480,-82.203468,,,,
GRAND BLANC,,12741 S SAGINAW STREET,SUITE D-2,GRAND BLANC,MI,48439,US,810-606-8666,42.919360,-83.617980,,,,
SYLVANIA,,4024 NORTH HOLLAND SYLVANIA ROAD,UNIT #7,TOLEDO,OH,43623,US,419-517-1712,41.692020,-83.684601,,,,
PERRYSBURG,,580 CRAIG DRIVE,,PERRYSBURG,OH,43551,US,419-874-8029,41.537354,-83.633499,,,,
EL PASO - EAST,,1613 NORTH ZARAGOZA,SUITE #109,EL PASO,TX,79936,US,915-208-4311,31.745138,-106.286385,,,,
SEATTLE - BEACON HILL,,2531 16TH AVENUE SOUTH,,SEATTLE,WA,98144,US,206-795-6216,47.580044,-122.312309,,,,
SEATTLE - QUEEN ANNE/INTERBAY,,1827 15TH AVE. W.,,SEATTLE,WA,98119,US,206-216-4426,47.635456,-122.377014,,,,
WEST SEATTLE - NORTH,,2350 CALIFORNIA AVE.  S.W.,,SEATTLE,WA,98116,US,206-258-8313,47.581581,-122.386246,,,,
UNIVERSITY VILLAGE,,2625 NORTHEAST 46TH STREET,,SEATTLE,WA,98105,US,206-524-0915,47.661636,-122.299072,,,,
MERCER ISLAND,,2827 80TH AVENUE SE,,MERCER ISLAND,WA,98040,US,206-236-1815,47.584545,-122.232086,,,,
BELLEVUE - DOWNTOWN,,1075 BELLEVUE WAY NE,SPACE B - 5,BELLEVUE,WA,98004,US,425-646-2907,47.619888,-122.202782,,,,
KIRKLAND,,385 KIRKLAND AVENUE,,KIRKLAND,WA,98033,US,206-380-1663,47.675339,-122.200714,,,,
BELLEVUE - EAST,,13112 NORTHEAST 20TH STREET,SUITE #250,BELLEVUE,WA,98005,US,425-466-0811,47.628811,-122.165497,,,,
BELLEVUE - FACTORIA,,12838 SOUTHEAST 40TH PLACE,SUITE #102,BELLEVUE,WA,98006,US,206-236-1815,47.573528,-122.167725,,,,
BELLEVUE - NEWPORT HILLS,,5800 119TH AVENUE SOUTHEAST,,BELLEVUE,WA,98006,US,425-749-3066,47.551491,-122.177788,,,,
BELLEVUE - BEL-RED ROAD,,14904 B BEL-RED ROAD,,BELLEVUE,WA,98007,US,425-747-5916,47.627388,-122.141701,,,,
KIRKLAND - JUANITA,,13520 100TH AVENUE NE,SUITE 90,KIRKLAND,WA,98034,US,425-305-3500,47.721947,-122.206940,,,,
BELLEVUE - LAKEMONT,,4957 LAKEMONT BLVD. SE,SUITE C-3,BELLEVUE,WA,98006,US,425-647-8997,47.557800,-122.114822,,,,
REDMOND,,8133 161ST AVENUE NE,,REDMOND,WA,98052,US,425-869-3939,47.675762,-122.125580,,,,
KENMORE,,7800 BOTHELL WAY,SUITE 160 N.E.,KENMORE,WA,98028,US,425-286-6847,47.757225,-122.236145,,,,
RENTON - HIGHLANDS,,4575 NORTHEAST 4TH STREET,,RENTON,WA,98059,US,425-793-4159,47.487717,-122.157257,,,,
SHORELINE - NORTH,,20030 BALLINGER WAY NE,SUITE A-08,SHORELINE,WA,98155,US,206-533-2300,47.775242,-122.309700,,,,
RENTON - BENSON HILL,,17707 108TH AVENUE SOUTHEAST,,RENTON,WA,98055,US,425-277-6106,47.444305,-122.197647,,,,
EDMONDS,,22315 HIGHWAY 99,SUITE F,EDMONDS,WA,98026,US,425-771-0905,47.796772,-122.333221,,,,
RENTON - FAIRWOOD,,17620 140TH AVENUE SOUTHEAST,SUITE C-9,RENTON,WA,98058,US,425-873-2747,47.444736,-122.153679,,,,
SAMMAMISH,,22841 NE 8TH STREET,,SAMMAMISH,WA,98074,US,425-636-1277,47.616623,-122.033386,,,,
PINE LAKE,,2850 228TH AVENUE SOUTHEAST,SUITE D,SAMMAMISH,WA,98075,US,425-277-6106,47.584129,-122.034256,,,,
BOTHELL - CANYON PARK SOUTH,,1715 228TH STREET SE,,BOTHELL,WA,98021,US,425-492-9600,47.791702,-122.210503,,,,
REDMOND RIDGE,,22320 NORTHEAST MARKETPLACE DRIVE,SUITE #101,REDMOND,WA,98053,US,425-495-4968,47.694698,-122.042595,,,,
ALDERWOOD,,2027 196 ST.  SW,SUITE #R-5,LYNNWOOD,WA,98036,US,425-200-4518,47.821274,-122.260948,,,,
ISSAQUAH - HIGHLANDS,,1036 NORTHEAST PARK DRIVE,,ISSAQUAH,WA,98029,US,425-369-1072,47.543644,-122.015564,,,,
SILVERDALE,,9621 MICKELBERRY ROAD N.W.,SUITE 103B,SILVERDALE,WA,98383,US,360-692-6991,47.651314,-122.683075,,,,
MILL CREEK,,18001 BOTHELL EVERETT HIGHWAY,SUITE #109,BOTHELL,WA,98012,US,206-953-9245,47.834133,-122.209076,,,,
MUKILTEO,,11811 MUKILTEO SPEEDWAY,SUITE 107,MUKILTEO,WA,98275,US,425-290-1660,47.891598,-122.285233,,,,
MILL CREEK - NORTH,,13119 SEATTLE HILL ROAD,BUILDING 3  SUITE #103,SNOHOMISH,WA,98296,US,360-217-4117,47.878403,-122.164505,,,,
FEDERAL WAY,,1500 S 336TH STREET,SUITE # 11,FEDERAL WAY,WA,98003,US,253-802-5310,47.301258,-122.315025,,,,
TACOMA - NORTH END,,5703 NORTH 26TH STREET,,TACOMA,WA,98407,US,253-212-0513,47.271511,-122.513405,,,,
AUBURN - LAKE TAPPS,,208 182ND AVE. EAST,,LAKE TAPPS,WA,98391,US,253-333-2415,47.255600,-122.186800,,,,
TACOMA - UNIVERSITY PLACE,,7014 27TH STREET WEST,,UNIVERSITY PLACE,WA,98466,US,253-460-0088,47.235149,-122.530968,,,,
PUYALLUP - SOUTH HILL,,13107 MERIDIAN EAST,SUITE #102,PUYALLUP,WA,98373,US,253-848-6284,47.137280,-122.292389,,,,
OLYMPIA - NORTHWEST,,2302 HARRISON AVENUE NW,SUITE #204,OLYMPIA,WA,98502,US,360-915-6871,47.046413,-122.929031,,,,
LACEY - SOUTH,,4660 WHITMAN LANE SE,SUITE E,LACEY,WA,98513,US,360-890-3030,46.995975,-122.825745,,,,
OAK BAY,,1560 FORT ST,,VICTORIA,BC,V8S 5J2,CA,778-746-3185,48.425900,-123.338554,,,,
SAANICH,,204 - 3965 QUADRA ST,,VICTORIA,BC,V8X 1J8,CA,250-479-1800,48.468670,-123.363266,,,,
WEST SHORE - LANGFORD,,963 LANGFORD PARKWAY  UNIT 115,,VICTORIA,BC,V9B 0A5,CA,778-746-7770,48.442444,-123.513222,,,,
SIDNEY,,10091 RESTHAVEN DR,,SIDNEY,BC,V8L 3G3,CA,778-749-0688,48.654903,-123.402405,,,,
ABBOTSFORD - GLADWIN,,102 - 2777 GLADWIN RD,,ABBOTSFORD,BC,V2T 4V1,CA,604-864-2782,49.051815,-122.315544,,,,
ABBOTSFORD - CLEARBROOK,,2760 TRETHEWAY STREET,UNIT 201,ABBOTSFORD,BC,V2T 3R1,CA,604-855-7896,49.052502,-122.326279,,,,
GEORGETOWN,,2200 WISCONSIN AVENUE NW,,WASHINGTON,DC,20007,US,202-838-3500,38.919159,-77.071045,,,,
BETHESDA - BROOKMONT,,4701 SANGAMORE ROAD,SUITE S151,BETHESDA,MD,20816,US,301-272-2233,38.950008,-77.119667,,,,
ARLINGTON - YORKTOWN,,2499 NORTH HARRISON STREET,LL-6,ARLINGTON,VA,22207,US,703-237-2600,38.896408,-77.137856,,,,
BETHESDA - CHEVY CHASE,,6831 WISCONSIN AVENUE,SUITE #306,BETHESDA,MD,20815,US,301-652-1234,38.978252,-77.090538,,,,
MCLEAN - WEST,,1320 OLD CHAIN BRIDGE ROAD,SUITE #190,MCLEAN,VA,22101,US,703-734-0964,38.938843,-77.176750,,,,
FALLS CHURCH,,7115 LEESBURG PIKE R-103,,FALLS CHURCH,VA,22043,US,703-532-1599,38.894743,-77.191765,,,,
KENSINGTON,,3704 DECATUR AVENUE,,KENSINGTON,MD,20895,US,301-693-0545,39.033863,-77.073219,,,,
COLLEGE PARK - GREENBELT,,6078 GREENBELT ROAD,STORE #48A,COLLEGE PARK,MD,20770,US,301-332-1824,38.997734,-76.910141,,,,
SILVER SPRING - NORTH,,11161 NEW HAMPSHIRE AVENUE,SUITE #104,SILVER SPRING,MD,20901,US,240-450-2427,39.039360,-76.989273,,,,
LANHAM - WOODMORE,,9200 TAJ LANE,SUITE #544,LANHAM,MD,20706,US,301-322-5161,38.920410,-76.847984,,,,
ALEXANDRIA - FRANCONIA,,6188 GROVEDALE COURT,SUITE #100,ALEXANDRIA,VA,22310,US,703-725-9551,38.779549,-77.150536,,,,
ANNANDALE,,7893 HERITAGE DRIVE,,ANNANDALE,VA,22003,US,571-581-2600,38.825882,-77.212830,,,,
ROCKVILLE - MONTROSE,,6284 MONTROSE ROAD,,ROCKVILLE,MD,20852,US,301-854-0376,39.052742,-77.127434,,,,
POTOMAC - RIVER ROAD,,9812 FALLS ROAD,SPACE #113,POTOMAC,MD,20854,US,301-795-2788,39.017227,-77.210693,,,,
ASPEN HILL - WHEATON,,14301 LAYHILL ROAD,SUITE #101,SILVER SPRING,MD,20906,US,301-758-6390,39.091015,-77.044312,,,,
VIENNA - SOUTH,,525 MAPLE AVENUE WEST,UNIT B-4,VIENNA,VA,22180,US,703-691-0244,38.894421,-77.275047,,,,
ALEXANDRIA - NEWINGTON,,6444 LANDSDOWNE CENTRE,,ALEXANDRIA,VA,22315,US,571-775-5203,38.740063,-77.165489,,,,
ROCKVILLE - TOWN CENTER,,451 HUNGERFORD DRIVE  STE 113,,ROCKVILLE,MD,20850,US,301-916-9627,39.089516,-77.151367,,,,
FAIRFAX - EAST,,9916 MAIN STREET,,FAIRFAX,VA,22031,US,703-352-2888,38.844112,-77.288628,,,,
SPRINGFIELD - FORT BELVOIR,,7841 ROLLING ROAD,SUITE I,SPRINGFIELD,VA,22153,US,703-569-4918,38.743744,-77.211380,,,,
ROCKVILLE - WEST,,9741 TRAVILLE GATEWAY DRIVE,,ROCKVILLE,MD,20850,US,240-528-8123,39.091839,-77.203514,,,,
ROCKVILLE - KING FARM,,801 PLEASANT DRIVE,SUITE 150,ROCKVILLE,MD,20850,US,301-795-4224,39.114021,-77.171219,,,,
BURKE - TOWN CENTER,,6030 J BURKE COMMONS ROAD,,BURKE,VA,22015,US,703-239-0005,38.788029,-77.299675,,,,
FAIR OAKS,,11213 M LEE HIGHWAY,,FAIRFAX,VA,22030,US,703-539-5335,38.850231,-77.334023,,,,
RESTON - LAKE FAIRFAX,,11495 SUNSET HILLS ROAD,SUITE 108,RESTON,VA,20190,US,703-689-4567,38.951839,-77.344498,,,,
OLNEY,,2919-E OLNEY SANDY SPRING ROAD,,OLNEY,MD,20832,US,301-774-6644,39.150269,-77.059418,,,,
BOWIE - SOUTH,,3480 CRAIN HIGHWAY,,BOWIE,MD,20716,US,301-218-4215,38.936409,-76.718033,,,,
GAITHERSBURG - MUDDY BRANCH ROAD,,233 MUDDY BRANCH ROAD,,GAITHERSBURG,MD,20878,US,301-869-6284,39.128029,-77.205292,,,,
LAUREL - CHERRY TREE,,11200 SCAGGSVILLE ROAD,SUITE #3,LAUREL,MD,20723,US,301-332-1824,39.145320,-76.901620,,,,
GAITHERSBURG - QUINCE ORCHARD,,12129 DARNESTOWN ROAD,,GAITHERSBURG,MD,20878,US,240-720-7336,39.117271,-77.250603,,,,
HERNDON - ELDEN STREET,,1064 ELDEN STREET,,HERNDON,VA,20170,US,703-964-0024,38.967167,-77.397591,,,,
CROFTON,,1117 MD ROUTE 3,SUITE #1-E,GAMBRILLS,MD,21054,US,410-721-9079,39.023693,-76.691322,,,,
WOODBRIDGE - LAKE RIDGE EAST,,2214 TACKETT'S MILL DRIVE,,LAKE RIDGE,VA,22192,US,703-492-0690,38.675175,-77.277641,,,,
CHANTILLY,,13890 METROTECH DRIVE,,CHANTILLY,VA,20151,US,703-999-7377,38.894733,-77.422920,,,,
CLARKSVILLE,,6343 TEN OAKS ROAD,SPACES D4 AND D5,CLARKSVILLE,MD,21029,US,410-997-2617,39.205250,-76.955376,,,,
STERLING - CASCADES PARKWAY,,21950 CASCADES PARKWAY,SUITE 100,STERLING,VA,20164,US,703-472-6943,39.008663,-77.416916,,,,
COLUMBIA - EAST,,7060 OAKLAND MILLS ROAD,SUITE  O,COLUMBIA,MD,21046,US,410-312-9705,39.175850,-76.829575,,,,
ODENTON - FORT MEADE,,2288 BLUE WATER BLVD.,STORE NO. 230,ODENTON,MD,21113,US,301-658-6240,39.101265,-76.718369,,,,
CENTREVILLE - TOWN CENTER,,6041 CENTREVILLE CREST LANE,,CENTREVILLE,VA,20121,US,703-624-0101,38.836239,-77.434563,,,,
WHITE PLAINS - WALDORF,,10541 MIDDLEPORT LANE,SUITE #17,WHITE PLAINS,MD,20695,US,301-645-8344,38.590755,-76.945068,,,,
GERMANTOWN - TOWN CENTER,,13097 WISTERIA DRIVE,SUITE #201 & 202,GERMANTOWN,MD,20874,US,301-916-9627,39.178631,-77.272545,,,,
DALE CITY - POTOMAC MILLS,,14233 POTOMAC MILLS ROAD,,WOODBRIDGE,VA,22192,US,703-789-6273,38.637211,-77.295357,,,,
DALE CITY - WEST,,12647 GALVESTON COURT,,MANASSAS,VA,20112,US,703-334-2200,38.679800,-77.365630,,,,
ELKRIDGE,,6010 MEADOWRIDGE CENTER DRIVE,SUITE G,ELKRIDGE,MD,21075,US,410-799-6933,39.209427,-76.782455,,,,
MANASSAS - DAVIS FORD CROSSING,,9928 LIBERIA AVENUE,,MANASSAS,VA,20110,US,703-334-9000,38.743031,-77.452461,,,,
ASHBURN - LOUDOUN STATION,,43800 CENTRAL STATION DRIVE,SUITE 125,ASHBURN,VA,20147,US,703-995-9950,39.007668,-77.486748,,,,
SOUTH RIDING,,43130 AMBERWOOD PLAZA,SUITE #155,SOUTH RIDING,VA,20152,US,703-624-0101,38.923836,-77.511108,,,,
ELLICOTT CITY - DORSEY`S SEARCH,,5110 DORSEY HALL DRIVE,,ELLICOTT CITY,MD,21042,US,410-964-9025,39.245125,-76.834213,,,,
ASHBURN - NORTH,,20605 GORDON PARK SQUARE,SUITE #130,ASHBURN,VA,20147,US,703-729-2715,39.045856,-77.487465,,,,
CLARKSBURG,,23233 STRINGTOWN ROAD,,CLARKSBURG,MD,20871,US,301-944-3599,39.238014,-77.276253,,,,
BROOKLINE COOLIDGE CORNER,,318 HARVARD STREET,SUITE #28,BROOKLINE,MA,02446,US,617-278-6301,42.343204,-71.123482,,,,
MALDEN,,148 COMMERCIAL STREET,,MALDEN,MA,02148,US,781-399-7200,42.421670,-71.074540,,,,
MEDFORD,,25 RIVERSIDE AVENUE,,MEDFORD,MA,02155,US,781-391-1536,42.417767,-71.108856,,,,
BELMONT,,440 COMMON STREET,,BELMONT,MA,02478,US,617-244-9540,42.381462,-71.174568,,,,
MILTON,,362 GRANITE AVENUE,,MILTON,MA,02186,US,617-273-0500,42.258991,-71.041573,,,,
ARLINGTON,,1343 MASSACHUSETTS AVENUE,,ARLINGTON,MA,02476,US,781-443-7199,42.424583,-71.183434,,,,
NEWTON - NEWTON HIGHLANDS,,56 WINCHESTER STREET,SUITE 6,NEWTON,MA,02461,US,617-244-9540,42.317852,-71.208458,,,,
QUINCY,,27A COTTAGE AVENUE,,QUINCY,MA,02169,US,617-657-6089,42.249081,-71.000885,,,,
WAKEFIELD,,979 MAIN STREET,,WAKEFIELD,MA,01880,US,781-245-6284,42.481533,-71.066078,,,,
WALTHAM,,350 A MOODY STREET,,WALTHAM,MA,02453,US,781-369-5137,42.370201,-71.236977,,,,
DEDHAM,,598 PROVIDENCE HIGHWAY,,DEDHAM,MA,02026,US,781-329-6677,42.243168,-71.173355,,,,
WOBURN,,19 CUMMINGS PARK,,WOBURN,MA,01801,US,781-354-4080,42.498112,-71.124138,,,,
NEEDHAM,,119 CHAPEL STREET,,NEEDHAM,MA,02492,US,781-400-7373,42.280762,-71.237091,,,,
BRAINTREE,,659 WASHINGTON STREET,,BRAINTREE,MA,02184,US,781-769-3450,42.210442,-71.004280,,,,
READING,,580 MAIN STREET,SUITE #101,READING,MA,01867,US,781-670-9220,42.523247,-71.103661,,,,
LEXINGTON,,240 BEDFORD STREET,SUITE #9,LEXINGTON,MA,02420,US,781-863-5390,42.462173,-71.240036,,,,
PEABODY,,139 LYNNFIELD STREET,SUITE 101A,PEABODY,MA,01960,US,978-530-4848,42.517193,-70.957962,,,,
BURLINGTON,,203 MIDDLESEX TURNPIKE,SUITE #1 & 2,BURLINGTON,MA,01803,US,781-354-4080,42.495571,-71.225746,,,,
NORWOOD,,947 WASHINGTON STREET,,NORWOOD,MA,02062,US,781-762-6284,42.183338,-71.203835,,,,
NATICK,,4A WETHERSFIELD ROAD,,NATICK,MA,01760,US,508-433-6655,42.301308,-71.352768,,,,
NORWELL,,376 WASHINGTON STREET,BUILDING A  UNIT 4,NORWELL,MA,02061,US,781-982-3052,42.159935,-70.860458,,,,
SUDBURY,,416 BOSTON POST ROAD,SUITE #210,SUDBURY,MA,01776,US,978-443-6700,42.361298,-71.420914,,,,
BILLERICA,,306 BOSTON ROAD  STORE C1,,BILLERICA,MA,01862,US,978-667-3200,42.573479,-71.278008,,,,
SHARON,,700 MAIN STREET,,SHARON,MA,02067,US,781-762-6284,42.094707,-71.219490,,,,
FRAMINGHAM,,1164 WORCESTER ROAD,,FRAMINGHAM,MA,01702,US,508-875-0552,42.298656,-71.444710,,,,
ANDOVER,,28 ANDOVER STREET,,ANDOVER,MA,01810,US,978-775-5479,42.644791,-71.153458,,,,
ASHLAND,,134 POND STREET,,ASHLAND,MA,01721,US,508-271-7222,42.251537,-71.429817,,,,
ACTON,,271 GREAT ROAD,1ST FLOOR,ACTON,MA,01720,US,978-266-1747,42.495670,-71.416077,,,,
CHELMSFORD,,7 SUMMER STREET,SUITE #15,CHELMSFORD,MA,01824,US,978-250-9157,42.594109,-71.349159,,,,
MARLBOROUGH,,496 B BOSTON POST ROAD EAST,,MARLBOROUGH,MA,01752,US,508-786-5866,42.348751,-71.510086,,,,
WESTFORD,,175 LITTLETON ROAD,OA,WESTFORD,MA,01886,US,978-392-0583,42.567760,-71.423065,,,,
LOWELL,,1075-1095 WESTFORD STREET,SUITE104-105,LOWELL,MA,01851,US,978-319-9191,42.629707,-71.353683,,,,
NORTH ANDOVER,,127 MAIN STREET,UNIT #2,NORTH ANDOVER,MA,01845,US,978-681-6284,42.702457,-71.132248,,,,
MANSFIELD,,310-322 NORTH MAIN STREET,SUITE #3 & 4,MANSFIELD,MA,02048,US,508-339-1252,42.031204,-71.219017,,,,
FRANKLIN,,275 EAST CENTRAL STREET,,FRANKLIN,MA,02038,US,508-541-1326,42.081921,-71.384918,,,,
HOPKINTON,,77 MAIN STREET,,HOPKINTON,MA,01748,US,508-435-0273,42.227383,-71.523895,,,,
DRACUT,,1827 BRIDGE STREET,15,DRACUT,MA,01826,US,978-452-1299,42.685120,-71.309273,,,,
MILFORD,,138 & 140 SOUTH MAIN STREET,,MILFORD,MA,01757,US,508-478-5866,42.127151,-71.518188,,,,
KINGSTON,,187 SUMMER STREET,,KINGSTON,MA,02364,US,781-982-3052,42.012043,-70.730164,,,,
NORTH ATTLEBORO,,68 NORTH WASHINGTON STREET,,NORTH ATTLEBORO,MA,02760,US,508-699-7699,41.983856,-71.332848,,,,
WESTBOROUGH,,108 MILK STREET,SUITE #102,WESTBOROUGH,MA,01581,US,508-870-3133,42.273750,-71.625504,,,,
NORTHBOROUGH,,243 WEST MAIN STREET,UNIT #2,NORTHBOROUGH,MA,01532,US,508-393-7518,42.310085,-71.655472,,,,
SOUTH GRAFTON,,377 PROVIDENCE ROAD,,SOUTH GRAFTON,MA,01560,US,508-839-3788,42.168850,-71.668900,,,,
NASHUA,,505 WEST HOLLIS STREET,UNIT #103,NASHUA,NH,03062,US,603-897-6194,42.746929,-71.499916,,,,
SHREWSBURY,,196 BOSTON TURNPIKE,ROUTE 9,SHREWSBURY,MA,01545,US,508-798-0244,42.274605,-71.745338,,,,
WEST WORCESTER,,6 PARK AVENUE,SUITE #200,WORCESTER,MA,01605,US,508-754-5459,42.284771,-71.808243,,,,
BARRINGTON,,24 BOSWORTH STREET,SUITE 3,BARRINGTON,RI,02806,US,401-323-7875,41.736069,-71.305809,,,,
BEDFORD,,128 SOUTH RIVER ROAD,BUILDING C,BEDFORD,NH,03110,US,603-897-6194,42.954414,-71.478134,,,,
PORTSMOUTH,,95 BREWERY LANE,UNIT #8,PORTSMOUTH,NH,03801,US,603-427-8456,43.069424,-70.769600,,,,
AMHERST,,7 POMEROY LANE,SUITE #5,AMHERST,MA,01002,US,413-256-6700,42.339577,-72.519798,,,,
OKLAHOMA CITY - NORTH,,9300 NORTH MAY AVENUE,SUITE# 200,OKLAHOMA CITY,OK,73120,US,405-752-2000,35.565018,-97.566681,,,,
OKLAHOMA CITY - SOUTH,,10600 SOUTH PENN,SUITE #5,OKLAHOMA CITY,OK,73170,US,405-691-8900,35.362244,-97.545715,,,,
OKLAHOMA CITY - NORTHWEST,,6220 N.W. EXPRESSWAY,STE. C,OKLAHOMA CITY,OK,73132,US,405-721-7323,35.552197,-97.626266,,,,
YUKON - SOUTH,,501 S. MUSTANG ROAD,SUITES L&M,YUKON,OK,73099,US,405-265-0075,35.461155,-97.725349,,,,
EDMOND - WEST,,245 SOUTH SANTA FE AVENUE,,EDMOND,OK,73003,US,405-216-9800,35.652657,-97.513947,,,,
EDMOND - NORTH,,775 WEST COVELL ROAD,SUITE #150,EDMOND,OK,73003,US,405-715-1111,35.682674,-97.493523,,,,
NORMAN,,1320 NORTH INTERSTATE DRIVE,,NORMAN,OK,73072,US,405-364-1600,35.235062,-97.487633,,,,
TULSA - SOUTH,,9168 S. YALE AVENUE,SUITE 120,TULSA,OK,74137,US,918-523-6284,36.029682,-95.922989,,,,
TULSA - MIDTOWN,,1876 UTICA SQUARE,SUITE 2D,TULSA,OK,74114,US,918-292-8417,36.131508,-95.964706,,,,
BELLEVUE,,7055 HIGHWAY 70 SOUTH,,BELLEVUE,TN,37221,US,615-646-3243,36.075060,-86.918880,,,,
BRENTWOOD - MARYLAND FARMS,,500 WILSON PIKE CIRCLE,SUITE #217,BRENTWOOD,TN,37027,US,615-370-5776,36.020123,-86.788071,,,,
HENDERSONVILLE,,206 NORTH ANDERSON LANE,SPACE 203,HENDERSONVILLE,TN,37075,US,615-264-5733,36.322914,-86.597015,,,,
NOLENSVILLE,,7240 NOLENSVILLE ROAD,SUITE 303,NOLENSVILLE,TN,37135,US,615-472-9400,35.960609,-86.671913,,,,
FRANKLIN - EAST,,1113 MURFREESBORO ROAD,SUITE #309,FRANKLIN,TN,37064,US,615-790-0407,35.916355,-86.836021,,,,
MADISON - CENTRAL,,8103 HIGHWAY 72 WEST,,MADISON,AL,35758,US,256-325-6284,34.751434,-86.753342,,,,
PIKESVILLE,,2630 QUARRY LAKE DRIVE,,BALTIMORE,MD,21209,US,410-486-6284,39.384457,-76.689934,,,,
LUTHERVILLE - TIMONIUM,,1711 YORK ROAD  SUITE C,,LUTHERVILLE,MD,21093,US,443-470-7272,39.427246,-76.619370,,,,
PERRY HALL,,4355 EBENEZER ROAD,,BALTIMORE,MD,21236,US,410-668-4977,39.396725,-76.476379,,,,
ELLICOTT CITY - NORMANDY,,8480 BALTIMORE NATIONAL PIKE,SUITE #3110,ELLICOTT CITY,MD,21043,US,240-351-7125,39.286793,-76.808517,,,,
COCKEYSVILLE,,9974 YORK ROAD,,COCKEYSVILLE,MD,21030,US,410-666-1331,39.462601,-76.636795,,,,
OWINGS MILLS,,10995 OWINGS MILLS BOULEVARD,SUITE #206,OWINGS MILLS,MD,21117,US,410-902-4604,39.426662,-76.779411,,,,
MARRIOTTSVILLE,,2470 LONGSTONE LANE,SUITE E,MARRIOTTSVILLE,MD,21104,US,410-442-4480,39.308979,-76.898048,,,,
REISTERSTOWN,,114 WESTMINSTER PIKE,SUITE 107,REISTERSTOWN,MD,21136,US,410-702-9444,39.472542,-76.834381,,,,
URBANA,,3536 WORTHINGTON BOULEVARD,SUITE 101,FREDERICK,MD,21704,US,301-732-7878,39.329136,-77.353790,,,,
FREDERICK - NORTH,,ONE WORMANS MILL COURT,SUITE #10,FREDERICK,MD,21701,US,301-524-9339,39.441963,-77.397209,,,,
YORK - SOUTHEAST,,2091 SPRINGWOOD ROAD,,YORK,PA,17403,US,717-848-8300,39.940090,-76.693940,,,,
LANSDOWNE,,19321 WINMEADE DRIVE,,LEESBURG,VA,20176,US,571-707-3030,39.082130,-77.493866,,,,
LOUISVILLE - EAST END,,291 NORTH HUBBARDS LANE,SUITE 150,LOUISVILLE,KY,40207,US,502-895-5522,38.258682,-85.636658,,,,
JEFFERSONTOWN,,1933 SOUTH HURSTBOURNE PARKWAY,,LOUISVILLE,KY,40220,US,502-213-3183,38.218178,-85.585236,,,,
PROSPECT,,9555 US HIGHWAY 42,,PROSPECT,KY,40059,US,502-498-5161,38.344559,-85.616699,,,,
SPRINGHURST,,10212 WESTPORT ROAD,,LOUISVILLE,KY,40241,US,502-290-6910,38.292774,-85.561310,,,,
FERN CREEK,,6760 BARDSTOWN ROAD,,LOUISVILLE,KY,40291,US,502-233-4204,38.148136,-85.588112,,,,
MIDDLETOWN,,12428 SHELBYVILLE ROAD,,MIDDLETOWN,KY,40243,US,502-749-9040,38.243740,-85.520508,,,,
CRESTWOOD,,6003 PLEASANT COLONY COURT,SUITE #4,CRESTWOOD,KY,40014,US,502-269-3113,38.329002,-85.468819,,,,
LEXINGTON - SOUTH,,145 BURT ROAD,SUITE #1 & 2,LEXINGTON,KY,40503,US,859-276-4884,38.007832,-84.519264,,,,
LEXINGTON - SOUTHEAST,,3120 PIMLICO PARKWAY,SUITE #120,LEXINGTON,KY,40517,US,859-970-0004,37.984344,-84.461327,,,,
NEWBURGH,,3955 HALEY DRIVE,SUITE B,NEWBURGH,IN,47630,US,812-490-4625,37.977390,-87.389259,,,,
SAN FRANCISCO - CHINATOWN,,708-712 COMMERCIAL STREET,,SAN FRANCISCO,CA,94108,US,415-433-7511,37.794067,-122.405144,,,,
SAN FRANCISCO - MARINA DISTRICT,,1515 NORTH POINT STREET,,SAN FRANCISCO,CA,94123,US,415-673-3678,37.803982,-122.432442,,,,
SAN FRANCISCO - RICHMOND EAST,,3738 GEARY BOULEVARD,,SAN FRANCISCO,CA,94118,US,415-680-1414,37.781548,-122.459656,,,,
SAN FRANCISCO - BERNAL HEIGHTS,,3403 MISSION STREET,,SAN FRANCISCO,CA,94110,US,415-405-5835,37.741943,-122.421974,,,,
SAN FRANCISCO - DIAMOND HEIGHTS,,5214C DIAMOND HEIGHTS BOULEVARD,,SAN FRANCISCO,CA,94131,US,415-206-9772,37.743713,-122.439957,,,,
SAN FRANCISCO - RICHMOND,,1826 BALBOA STREET,,SAN FRANCISCO,CA,94121,US,415-239-1317,37.776787,-122.478592,,,,
SAN FRANCISCO - WEST PORTAL,,235 WEST PORTAL AVE,,SAN FRANCISCO,CA,94127,US,415-680-1115,37.738449,-122.468132,,,,
SAN FRANCISCO - SUNSET,,2215 JUDAH STREET,,SAN FRANCISCO,CA,94122,US,415-665-4169,37.761074,-122.485901,,,,
SAN FRANCISCO - OCEAN,,1827 OCEAN AVENUE,,SAN FRANCISCO,CA,94112,US,415-584-1843,37.724907,-122.461868,,,,
DALY CITY,,207 SOUTHGATE AVENUE,,DALY CITY,CA,94015,US,650-757-6284,37.697117,-122.484543,,,,
SERRAMONTE,,347 GELLERT BOULEVARD,SUITE A,DALY CITY,CA,94015,US,650-755-6284,37.666519,-122.467567,,,,
OAKLAND - CHINATOWN,,211 TENTH STREET,SUITE #302,OAKLAND,CA,94607,US,510-834-7809,37.799194,-122.267487,,,,
SOUTH SAN FRANCISCO,,643 EL CAMINO REAL,,SOUTH SAN FRANCISCO,CA,94080,US,650-871-6284,37.649181,-122.430229,,,,
SOUTH SAN FRANCISCO - WESTBOROUGH,,2288 WESTBOROUGH BLVD.,SUITE 103,SOUTH SAN FRANCISCO,CA,94080,US,650-835-1018,37.644230,-122.453140,,,,
ALAMEDA,,2325 ALAMEDA AVENUE,,ALAMEDA,CA,94501,US,510-522-2228,37.763622,-122.243729,,,,
ALBANY,,1027 SAN PABLO AVENUE,,ALBANY,CA,94706,US,510-859-3238,37.885704,-122.297241,,,,
OAKLAND - ROCKRIDGE,,6239 COLLEGE AVENUE,SUITE #301,OAKLAND,CA,94618,US,510-545-3886,37.849979,-122.252693,,,,
GLENVIEW-PIEDMONT,,4226 PARK BOULEVARD,,OAKLAND,CA,94602,US,510-482-8887,37.807411,-122.221817,,,,
MILLBRAE,,1400 EL CAMINO REAL,,SAN BRUNO,CA,94066,US,650-588-8288,37.611104,-122.401850,,,,
EL CERRITO,,11100 SAN PABLO AVENUE,SUITE #106,EL CERRITO,CA,94530,US,510-235-8666,37.918690,-122.313118,,,,
BURLINGAME,,1145 CALIFORNIA DRIVE,,BURLINGAME,CA,94010,US,650-344-3709,37.586945,-122.362541,,,,
SAN LEANDRO - DOWNTOWN,,308 DAVIS STREET,,SAN LEANDRO,CA,94577,US,510-877-9131,37.725563,-122.158485,,,,
SAN RAFAEL,,1435 4TH STREET,SUITE B,SAN RAFAEL,CA,94901,US,415-454-8590,37.973343,-122.532722,,,,
SAN MATEO - HILLSBOROUGH,,255 SOUTH B STREET,,SAN MATEO,CA,94401,US,650-348-9448,37.565865,-122.322380,,,,
PINOLE,,2860 PINOLE VALLEY ROAD,SUITE F & G,PINOLE,CA,94564,US,510-724-3000,37.993378,-122.285789,,,,
MORAGA,,588 CENTER STREET,,MORAGA,CA,94556,US,925-377-8877,37.856281,-122.126083,,,,
LAFAYETTE,,925 VILLAGE CENTER,SUITE #3,LAFAYETTE,CA,94549,US,925-284-9038,37.887741,-122.134499,,,,
FOSTER CITY,,951-M EDGEWATER BOULEVARD,,FOSTER CITY,CA,94404,US,650-572-2738,37.544331,-122.271500,,,,
SAN MATEO,,4222 OLYMPIC AVENUE,,SAN MATEO,CA,94403,US,650-759-8576,37.529156,-122.291542,,,,
CASTRO VALLEY,,20440 REDWOOD ROAD,,CASTRO VALLEY,CA,94546,US,510-523-4889,37.696968,-122.073456,,,,
HAYWARD - DOWNTOWN,,22628 FOOTHILL BLVD.,,HAYWARD,CA,94541,US,510-398-1444,37.673901,-122.080521,,,,
WALNUT CREEK,,1904 OLYMPIC BOULEVARD,SUITE #10,WALNUT CREEK,CA,94596,US,925-256-0609,37.895164,-122.066330,,,,
ALAMO,,120-B ALAMO PLAZA,,ALAMO,CA,94507,US,925-567-3238,37.851280,-122.034767,,,,
PLEASANT HILL,,2601 PLEASANT HILL ROAD,,PLEASANT HILL,CA,94523,US,925-256-0420,37.954090,-122.088745,,,,
DANVILLE - CENTRAL,,109-C TOWN & COUNTRY DRIVE,,DANVILLE,CA,94526,US,925-838-2658,37.814171,-121.998482,,,,
SAN RAMON - NORTH,,2550-G SAN RAMON VALLEY BOULEVARD,,SAN RAMON,CA,94583,US,925-318-1628,37.772869,-121.973785,,,,
WALNUT CREEK NORTH,,2839 YGNACIO VALLEY ROAD,,WALNUT CREEK,CA,94598,US,925-256-0786,37.927284,-122.014854,,,,
BENICIA,,2000 COLUMBUS PARKWAY,,BENICIA,CA,94510,US,707-747-6284,38.079681,-122.191147,,,,
SAN RAMON,,9260 ALCOSTA BOULEVARD,BLDG. B  SUITE #14,SAN RAMON,CA,94583,US,925-803-9870,37.730869,-121.926949,,,,
DUBLIN - WEST,,7764 DUBLIN BOULEVARD,,DUBLIN,CA,94568,US,925-261-8988,37.703094,-121.930222,,,,
CONCORD - EAST,,4115 CONCORD BOULEVARD,UNIT 32,CONCORD,CA,94519,US,925-609-9054,37.978630,-121.992256,,,,
HENDERSON - GREEN VALLEY NORTH,,4350 EAST SUNSET ROAD,SUITE #107A,HENDERSON,NV,89014,US,702-436-6284,36.071468,-115.078415,,,,
LAS VEGAS - PECCOLE RANCH,,8550 WEST CHARLESTON BOULEVARD,SUITE 112,LAS VEGAS,NV,89117,US,702-489-5867,36.159920,-115.279022,,,,
SUMMERLIN - NORTHEAST,,8300 W. CHEYENNE AVENUE,SUITE 104,LAS VEGAS,NV,89129,US,702-518-3103,36.218891,-115.274628,,,,
LAS VEGAS - ALIANTE,,6475 NORTH DECATUR BOULEVARD,SUITE #140,LAS VEGAS,NV,89131,US,702-656-3100,36.276913,-115.207832,,,,
SPRING VALLEY - EAST,,8665 WEST FLAMINGO ROAD,SUITE #120,LAS VEGAS,NV,89147,US,702-871-4828,36.113846,-115.280624,,,,
SUMMERLIN,,9691 TRAILWOOD DRIVE,SUITE #107,LAS VEGAS,NV,89134,US,702-240-4907,36.190941,-115.307205,,,,
LAS VEGAS - SILVERADO RANCH,,467 EAST SILVERADO RANCH BOULEVARD,SUITE #145,LAS VEGAS,NV,89183,US,702-570-4242,36.012150,-115.153229,,,,
LAS VEGAS - RHODES RANCH,,7345 SOUTH DURANGO DRIVE,SUITE #114,LAS VEGAS,NV,89113,US,702-586-8472,36.054779,-115.279266,,,,
HENDERSON,,55 SOUTH GIBSON ROAD,SUITE #107,HENDERSON,NV,89012,US,702-361-9858,36.031162,-115.029373,,,,
HENDERSON - ANTHEM HILLS PARK,,10890 SOUTH EASTERN AVENUE,SUITE #113,HENDERSON,NV,89052,US,702-365-5866,35.995167,-115.099823,,,,
LAS VEGAS - SOUTHERN HIGHLANDS PARKWAY,,11350 SOUTHERN HIGHLANDS PARKWAY,SUITE #140,LAS VEGAS,NV,89141,US,702-720-1028,35.983669,-115.190163,,,,
PORTLAND - HOLLYWOOD,,1615 N. E. 42ND AVENUE,,PORTLAND,OR,97232,US,503-928-4943,45.534679,-122.620804,,,,
PORTLAND - RALEIGH HILLS,,4810 SW SCHOLLS FERRY ROAD,,PORTLAND,OR,97225,US,503-336-1874,45.485279,-122.750870,,,,
PORTLAND - SOUTHEAST,,4800 SE 82ND AVENUE,,PORTLAND,OR,97266,US,503-820-0220,45.487835,-122.578583,,,,
CEDAR MILL,,13619 NORTHWEST CORNELL ROAD,,PORTLAND,OR,97229,US,503-446-9091,45.528206,-122.817413,,,,
LAKE OSWEGO,,333 SOUTH STATE STREET,SUITE C,LAKE OSWEGO,OR,97034,US,503-684-6168,45.413906,-122.663643,,,,
BETHANY VILLAGE,,15160 NORTHWEST LAIDLAW ROAD,,PORTLAND,OR,97229,US,503-924-2686,45.555691,-122.833099,,,,
LAKE GROVE,,16063 BOONES FERRY ROAD,,LAKE OSWEGO,OR,97035,US,503-635-2647,45.409870,-122.721390,,,,
ALOHA,,16755 SOUTHWEST BASELINE ROAD,SUITE #105,BEAVERTON,OR,97006,US,503-336-3709,45.512062,-122.849197,,,,
SOUTH BEAVERTON,,12325 SOUTHWEST HORIZON BOULEVARD,SUITE #221,BEAVERTON,OR,97007,US,503-639-7219,45.430786,-122.830589,,,,
VANCOUVER - EAST,,14930 SOUTHEAST MILL PLAIN BOULEVARD,SUITE #105,VANCOUVER,WA,98684,US,360-521-6284,45.617397,-122.518417,,,,
HAPPY VALLEY,,14614 SOUTHEAST SUNNYSIDE ROAD,,HAPPY VALLEY,OR,97015,US,503-698-6284,45.424847,-122.513115,,,,
HILLSBORO,,6582 NE CAMPUS WAY,,HILLSBORO,OR,97124,US,503-615-8666,45.531948,-122.911812,,,,
VANCOUVER - NORTH,,9901 N. E. 7TH AVENUE,SUITE B-112,VANCOUVER,WA,98685,US,360-576-0777,45.693756,-122.663712,,,,
WEST LINN,,2000 8TH AVENUE,SUITE B,WEST LINN,OR,97068,US,503-305-2828,45.346695,-122.653625,,,,
SHERWOOD,,16310 SOUTHWEST LANGER DRIVE,,SHERWOOD,OR,97140,US,503-545-7870,45.366520,-122.844505,,,,
WILSONVILLE,,29970-B SOUTHWEST TOWN CENTER LOOP WEST,,WILSONVILLE,OR,97070,US,503-685-9389,45.303360,-122.764595,,,,
ALBUQUERQUE,,5850 EUBANK BOULEVARD  NE,SUITE B-16,ALBUQUERQUE,NM,87111,US,505-250-0621,35.146648,-106.527519,,,,
RIO RANCHO,,3751 SOUTHERN BOULEVARD SOUTHEAST,SUITE D,RIO RANCHO,NM,87124,US,505-994-4466,35.242180,-106.660194,,,,
TUCSON - CATALINA FOOTHILLS,,5677 N. SWAN ROAD,,TUCSON,AZ,85718,US,520-327-1779,32.309834,-110.893181,,,,
TUCSON - CASAS ADOBES,,6004 NORTH ORACLE ROAD,,TUCSON,AZ,85704,US,520-797-0121,32.315775,-110.976526,,,,
GLENDALE,,6004 NORTH PORT WASHINGTON ROAD,SUITES 2 & 3,GLENDALE,WI,53217,US,414-967-1018,43.125740,-87.913280,,,,
WAUWATOSA,,11520 WEST NORTH AVENUE,,WAUWATOSA,WI,53226,US,414-727-4499,43.060280,-88.057205,,,,
OAK CREEK,,8617 SOUTH HOWELL AVENUE,,OAK CREEK,WI,53154,US,414-216-0013,42.887989,-87.913803,,,,
FRANKLIN - WEST,,6560 SOUTH LOVERS LANE,SUITE 250,FRANKLIN,WI,53132,US,414-858-9911,42.925114,-88.045975,,,,
NEW BERLIN,,15445 W. HOWARD AVE.,,NEW BERLIN,WI,53151,US,262-794-0511,42.974277,-88.106575,,,,
BROOKFIELD,,2205 NORTH CALHOUN ROAD,SUITE #26,BROOKFIELD,WI,53005,US,262-794-0511,43.059406,-88.128906,,,,
MEQUON,,1402 WEST MEQUON,,MEQUON,WI,53092,US,262-241-5100,43.221344,-87.924057,,,,
MENOMONEE FALLS,,N79 W14692 APPLETON AVENUE,,MENOMONEE FALLS,WI,53051,US,262-255-4883,43.162450,-88.093280,,,,
WAUKESHA,,1840 MEADOW LANE,SUITE A,PEWAUKEE,WI,53072,US,262-264-0826,43.041410,-88.256865,,,,
GURNEE - WEST,,6409 GRAND AVENUE,SPACE #3,GURNEE,IL,60031,US,847-625-8666,42.383030,-87.962387,,,,
GRAYSLAKE - TOWN CENTER,,142 HAWLEY STREET,SUITE #1,GRAYSLAKE,IL,60030,US,847-223-7290,42.345715,-88.041061,,,,
MUNDELEIN - IVANHOE,,812 N. RT. 83,,MUNDELEIN,IL,60060,US,847-388-9131,42.275295,-88.040146,,,,
MUNDELEIN SOUTH/VERNON HILLS,,726 SOUTH BUTTERFIELD ROAD,,MUNDELEIN,IL,60060,US,847-573-0560,42.252693,-87.980843,,,,
WAUCONDA,,523 LIBERTY STREET,,WAUCONDA,IL,60084,US,847-526-1669,42.257473,-88.151321,,,,
LAKE ZURICH,,724 S. RAND ROAD,,LAKE ZURICH,IL,60047,US,847-550-9748,42.185841,-88.091087,,,,
BARRINGTON - TOWN CENTER,,702 SOUTH NORTHWEST HIGHWAY,,BARRINGTON,IL,60010,US,847-713-5350,42.150013,-88.125031,,,,
ALGONQUIN - WEST,,4063 W. ALGONQUIN RD.,,ALGONQUIN,IL,60102,US,847-515-7555,42.174191,-88.369995,,,,
SUN PRAIRIE,,956 WEST MAIN STREET,,SUN PRAIRIE,WI,53590,US,608-837-6600,43.181313,-89.228767,,,,
MACHESNEY PARK,,1081 WEST LANE ROAD,,MACHESNEY PARK,IL,61115,US,815-668-8889,42.364059,-89.032356,,,,
SOUTH ELGIN,,317 RANDALL ROAD,,SOUTH ELGIN,IL,60177,US,847-488-9408,41.988390,-88.340699,,,,
ST. CHARLES - EAST,,582 KIRK ROAD,,ST. CHARLES,IL,60174,US,630-262-2004,41.923520,-88.275450,,,,
DENVER - UNIVERSITY HILLS,,1685 S. COLORADO BLVD.,UNIT R,DENVER,CO,80222,US,303-390-1818,39.685928,-104.941368,,,,
DENVER - LOWRY,,100 SPRUCE STREET,UNIT 102,DENVER,CO,80230,US,303-968-1025,39.722546,-104.894867,,,,
LAKEWOOD,,2594 SOUTH LEWIS WAY,SUITE #D,LAKEWOOD,CO,80227,US,303-914-0197,39.669937,-105.112061,,,,
DENVER - HAMPDEN SOUTH,,8000 EAST QUINCY AVENUE,UNIT 1050,DENVER,CO,80237,US,720-588-9222,39.637478,-104.896126,,,,
GREENWOOD VILLAGE,,5910 SOUTH UNIVERSITY BLVD.,UNIT A6,GREENWOOD VILLAGE,CO,80121,US,303-542-7200,39.608597,-104.958206,,,,
ARVADA - WEST,,12650 W. 64TH AVENUE,UNIT H,ARVADA,CO,80004,US,303-305-7777,39.811569,-105.141266,,,,
ENGLEWOOD,,7447 EAST ARAPAHOE ROAD,SUITE #7,ENGLEWOOD,CO,80112,US,303-779-2605,39.595211,-104.902412,,,,
THORNTON - NORTHGLENN,,3915-B EAST 120TH AVE.,,THORNTON,CO,80233,US,303-876-0001,39.913940,-104.941689,,,,
CENTENNIAL - PARK MEADOWS,,5730 EAST OTERO AVENUE,SUITE #650,CENTENNIAL,CO,80112,US,720-285-3568,39.568356,-104.921349,,,,
LITTLETON,,9142 WEST KEN CARYL AVENUE,UINT D-1,LITTLETON,CO,80128,US,720-922-7474,39.578995,-105.100136,,,,
BROOMFIELD,,6590 WEST 120TH AVENUE,UNIT B4,BROOMFIELD,CO,80020,US,720-388-8222,39.912975,-105.069290,,,,
AURORA,,17030 EAST QUINCY AVE.,,AURORA,CO,80015,US,720-870-9701,39.637154,-104.788559,,,,
HIGHLANDS RANCH,,541 WEST HIGHLANDS RANCH PARKWAY,UNIT #109,HIGHLANDS RANCH,CO,80129,US,303-779-2605,39.550610,-104.995193,,,,
WESTMINSTER,,12910 ZUNI STREET,UNIT 1000,WESTMINSTER,CO,80234,US,303-464-1210,39.930046,-105.013893,,,,
CENTENNIAL - FOXFIELD,,6262 SOUTH PARKER ROAD,SUITE #100,CENTENNIAL,CO,80016,US,720-870-0547,39.603367,-104.806389,,,,
HIGHLANDS RANCH - EAST,,9362 S. COLORADO BOULEVARD,SUITE D-08,HIGHLANDS RANCH,CO,80126,US,303-683-3339,39.545013,-104.942711,,,,
AURORA - SADDLE ROCK,,6040 SOUTH GUN CLUB ROAD,SUITE F-1,AURORA,CO,80016,US,303-627-1357,39.605309,-104.714699,,,,
LOUISVILLE - SUPERIOR,,502 CENTER DRIVE,SUITE L,SUPERIOR,CO,80027,US,303-876-1111,39.957703,-105.171532,,,,
LAFAYETTE,,535 WEST SOUTH BOULDER ROAD,SUITE #230,LAFAYETTE,CO,80026,US,303-604-2100,39.987701,-105.095520,,,,
PARKER,,10841 S. CROSSROADS DR.,SUITE 2,PARKER,CO,80134,US,720-418-8484,39.520653,-104.767067,,,,
ERIE,,720 AUSTIN AVENUE,SUITE #101,ERIE,CO,80516,US,303-222-9700,40.032532,-105.054901,,,,
BOULDER,,2525 ARAPAHOE AVE.,UNIT H-8,BOULDER,CO,80302,US,720-924-6284,40.015656,-105.261360,,,,
CASTLE ROCK - PLUM CREEK,,112 S. WILCOX STREET,,CASTLE ROCK,CO,80104,US,303-814-1751,39.367916,-104.860672,,,,
LONGMONT,,2318 WEST 17TH AVE.,SUITE D,LONGMONT,CO,80501,US,303-485-2830,40.189098,-105.129883,,,,
MONUMENT,,491 HIGHWAY 105,,MONUMENT,CO,80132,US,719-551-5575,39.095996,-104.866050,,,,
COLORADO SPRINGS - NORTH,,3586 HARTSEL DRIVE,SUITE #H,COLORADO SPRINGS,CO,80920,US,719-235-8675,38.939701,-104.758911,,,,
COLORADO SPRINGS - CIMARRON HILLS,,5857 CONSTITUTION AVE.,,COLORADO SPRINGS,CO,80915,US,719-551-5900,38.871899,-104.718330,,,,
FRESNO - BULLARD,,1731 W. BULLARD,SUITE #124,FRESNO,CA,93711,US,559-825-2028,36.822239,-119.825432,,,,
CLOVIS,,635 WEST HERNDON AVENUE,SUITE #300,CLOVIS,CA,93612,US,559-299-3309,36.837696,-119.727119,,,,
FRESNO - HERNDON PLACE,,6701 N. MILBURN,SUITE 140,FRESNO,CA,93722,US,559-374-5939,36.834763,-119.879547,,,,
FRESNO,,1170 EAST CHAMPLAIN DRIVE,SUITE #112,FRESNO,CA,93720,US,559-433-9344,36.871830,-119.762772,,,,
HANFORD,,729 WEST LACEY BOULEVARD,SUITE #3,HANFORD,CA,93230,US,559-583-0477,36.327526,-119.656128,,,,
MODESTO - EAST,,2307 OAKDALE ROAD,,MODESTO,CA,95355,US,209-551-3151,37.676079,-120.958405,,,,
MODESTO,,1411 STANDIFORD AVENUE,SUITE A,MODESTO,CA,95350,US,209-574-9550,37.689529,-121.014717,,,,
OVERLAND PARK -  NORTH,,5225 WEST 95TH STREET,,OVERLAND PARK,KS,66207,US,913-485-3678,38.956291,-94.645981,,,,
OVERLAND PARK - STOLL PARK,,11820 QUIVIRA ROAD,,OVERLAND PARK,KS,66210,US,913-451-1130,38.914047,-94.723824,,,,
OVERLAND PARK -  SOUTH,,8311-15 WEST 135TH STREET,,OVERLAND PARK,KS,66223,US,913-897-1111,38.882950,-94.682388,,,,
LEE`S SUMMIT,,604 NORTHEAST M-291 HIGHWAY,,LEE'S SUMMIT,MO,64086,US,816-554-3440,38.922554,-94.361702,,,,
STANLEY,,5333 WEST 151ST STREET,,LEAWOOD,KS,66224,US,913-681-0400,38.854179,-94.647301,,,,
OLATHE - EAST,,13632 SOUTH BLACKBOB ROAD,SUITE #101,OLATHE,KS,66062,US,913-782-0275,38.881676,-94.761086,,,,
LONG BEACH - LOS ALTOS PARK,,5555 STEARNS STREET,SUITE #208,LONG BEACH,CA,90815,US,562-493-4996,33.796036,-118.122948,,,,
SAN PEDRO - NORTHWEST,,1851 N. GAFFEY STREET,UNIT I,SAN PEDRO,CA,90731,US,310-833-5957,33.761593,-118.293411,,,,
LOS ALAMITOS,,11308 LOS ALAMITOS BOULEVARD,,LOS ALAMITOS,CA,90720,US,562-626-9200,33.798187,-118.070793,,,,
HUNTINGTON HARBOUR,,16105 BOLSA CHICA STREET,,HUNTINGTON BEACH,CA,92649,US,714-846-5113,33.728409,-118.042191,,,,
TORRANCE - REDONDO,,4172 PACIFIC COAST HIGHWAY,SUITE #108,TORRANCE,CA,90505,US,310-543-5077,33.806620,-118.357710,,,,
PALOS VERDES,,944 INDIAN PEAK ROAD,SUITE #130,ROLLING HILLS ESTATES,CA,90274,US,310-544-4449,33.768790,-118.370200,,,,
CYPRESS - NORTH,,9211 VALLEY VIEW STREET,,CYPRESS,CA,90630,US,714-995-7904,33.828175,-118.028259,,,,
HUNTINGTON BEACH,,7102 EDINGER AVE,,HUNTINGTON BEACH,CA,92647,US,714-841-0152,33.730019,-118.004570,,,,
P.V. PENINSULA,,28041 HAWTHORNE BOULEVARD,SUITE #204 & 205,RANCHO PALOS VERDES,CA,90275,US,310-541-7801,33.779560,-118.391014,,,,
STANTON,,11951 BEACH BOULEVARD,SUITE L,STANTON,CA,90680,US,714-895-7857,33.789032,-117.994003,,,,
GARDEN GROVE,,9042 GARDEN GROVE BOULEVARD,SUITE #130,GARDEN GROVE,CA,92844,US,714-636-4411,33.773438,-117.974472,,,,
BUENA PARK - SOUTH,,7896 ORANGETHORPE AVE.,,BUENA PARK,CA,90621,US,714-676-4181,33.858913,-117.995155,,,,
ANAHEIM,,720 SOUTH EUCLID ST,SUITE #9,ANAHEIM,CA,92802,US,714-772-7135,33.823147,-117.941185,,,,
NORTH GARDEN GROVE,,12922 HARBOR BOULEVARD,,GARDEN GROVE,CA,92840,US,714-638-5200,33.775318,-117.918259,,,,
FULLERTON - NORTH,,1865 NORTH EUCLID STREET,,FULLERTON,CA,92835,US,714-447-1085,33.892303,-117.946198,,,,
FULLERTON - DOWNTOWN,,138-A WEST WILSHIRE AVENUE,,FULLERTON,CA,92832,US,714-869-2700,33.872189,-117.926064,,,,
BREA,,860 WEST IMPERIAL HIGHWAY,SUITE C,BREA,CA,92821,US,714-255-0432,33.916779,-117.911392,,,,
PLACENTIA,,1525-G NORTH PLACENTIA AVE.,,PLACENTIA,CA,92870,US,714-579-1728,33.891453,-117.874214,,,,
ORANGE,,1317 EAST KATELLA AVENUE,,ORANGE,CA,92867,US,714-997-4430,33.810059,-117.840286,,,,
ORANGE - NORTH,,1601 E. LINCOLN AVENUE,SUITE 102,ORANGE,CA,92865,US,949-346-5411,33.835293,-117.837608,,,,
VIRGINIA BEACH - KEMPSVILLE,,4512 PRINCESS ANNE ROAD,SUITE #204 & 205,VIRGINIA BEACH,VA,23462,US,757-474-1130,36.805634,-76.133705,,,,
CHESAPEAKE - GREENBRIER,,801 VOLVO PARKWAY,SUITE #120,CHESAPEAKE,VA,23320,US,757-547-0445,36.767250,-76.230118,,,,
SUFFOLK - HARBOUR VIEW,,6546 HAMPTON ROADS PARKWAY,,SUFFOLK,VA,23435,US,757-484-4646,36.877300,-76.419960,,,,
NEWPORT NEWS - VICTORY BLVD.,,119 VILLAGE AVENUE,SUITE D,YORKTOWN,VA,23693,US,757-812-7171,37.115078,-76.462502,,,,
ASHLAND - SOUTH,,9533 KINGS CHARTER DRIVE,,ASHLAND,VA,23005,US,804-564-2017,37.692196,-77.435844,,,,
RICHMOND - POCONO CROSSING,,10444 MIDLOTHIAN TURNPIKE,,RICHMOND,VA,23235,US,804-677-3960,37.507092,-77.589096,,,,
ATLANTA - PIEDMONT PARK,,1529 PIEDMONT AVENUE,SUITE K,ATLANTA,GA,30324,US,404-736-6367,33.795647,-84.368904,,,,
ATLANTA - PEACHTREE BATTLE,,2221 PEACHTREE ROAD NORTHEAST,SUITE C,ATLANTA,GA,30309,US,404-351-7323,33.814571,-84.391151,,,,
ATLANTA - LAVISTA,,2175/2177 BRIARCLIFF ROAD,,ATLANTA,GA,30329,US,678-732-9250,33.817211,-84.335152,,,,
ATLANTA - CASCADE CROSSING,,3695 CASCADE ROAD  SUITE K,,ATLANTA,GA,30331,US,404-946-0077,33.725288,-84.509277,,,,
SMYRNA - VININGS,,1675 CUMBERLAND PARKWAY,SUITE #204A,SMYRNA,GA,30080,US,770-444-9162,33.849529,-84.489868,,,,
ATLANTA - BUCKHEAD NORTH,,4920 ROSWELL ROAD NE,SUITE #25,ATLANTA,GA,30342,US,404-497-0588,33.889687,-84.383186,,,,
ATLANTA - NORTHLAKE,,3204 NORTHLAKE PARKWAY,,ATLANTA,GA,30345,US,404-418-8848,33.853157,-84.258492,,,,
ATLANTA - SANDTOWN,,5819 CAMPBELLTON ROAD,SUITE #104 & 105,ATLANTA,GA,30331,US,404-346-7610,33.697140,-84.581078,,,,
ATLANTA - SANDY SPRINGS,,6597-J ROSWELL ROAD NE,,ATLANTA,GA,30328,US,678-668-8135,33.935555,-84.379265,,,,
MARIETTA - SOUTH,,137 JOHNSON FERRY ROAD,SUITE #2120,MARIETTA,GA,30068,US,770-330-5233,33.951806,-84.411580,,,,
NORCROSS - GLOBAL MALL,,5675 JIMMY CARTER BOULEVARD,SUITE #720,NORCROSS,GA,30071,US,770-840-8040,33.914600,-84.207687,,,,
DUNWOODY,,2090 DUNWOODY CLUB DRIVE,SUITE #116,SANDY SPRINGS,GA,30350,US,770-673-0013,33.960373,-84.300995,,,,
LILBURN - WEST,,375 ROCKBRIDGE ROAD,SUITE #160,LILBURN,GA,30047,US,678-462-7161,33.883362,-84.163895,,,,
MARIETTA -  EAST,,4400 ROSWELL ROAD,SUITE 140,MARIETTA,GA,30062,US,770-321-2637,33.984760,-84.422120,,,,
ALPHARETTA - HOLCOMB BRIDGE,,8420 HOLCOMB BRIDGE ROAD,SUITE 260,ALPHARETTA,GA,30022,US,470-336-3226,33.985336,-84.270523,,,,
MARIETTA - SOUTH SANDY PLAINS,,1860 SANDY PLAINS ROAD,SUITE #303,MARIETTA,GA,30066,US,678-213-3347,33.993633,-84.509575,,,,
FAYETTEVILLE,,105 NORTH 85 PARKWAY,SUITE B,FAYETTEVILLE,GA,30214,US,770-716-5932,33.484104,-84.433556,,,,
STOCKBRIDGE - EAGLE`S LANDING,,1375 ROCK QUARRY. ROAD,SUITE #101,STOCKBRIDGE,GA,30281,US,770-474-8770,33.514194,-84.230598,,,,
LILBURN - KILLIAN HILL,,4051 HIGHWAY 78,SUITE F-103,LILBURN,GA,30047,US,770-806-8830,33.835217,-84.074547,,,,
PEACHTREE CORNERS,,5075 PEACHTREE PARKWAY,SUITE #104,PEACHTREE CORNERS,GA,30092,US,770-416-9500,33.985138,-84.213692,,,,
MARIETTA - KENNESAW MOUNTAIN,,3451 BARRETT PARKWAY,UNIT #110,MARIETTA,GA,30064,US,678-602-3618,33.947502,-84.622688,,,,
ROSWELL - SHALLOWFORD CORNERS,,4401 SHALLOWFORD ROAD,SUITE 142,ROSWELL,GA,30075,US,678-790-0404,34.027340,-84.423882,,,,
ALPHARETTA - NESBIT FERRY,,9850 NESBIT FERRY ROAD,SUITE #7,ALPHARETTA,GA,30022,US,770-645-8252,34.019283,-84.278748,,,,
SNELLVILLE - CENTERVILLE,,3550 CENTERVILLE  HIGHWAY,SUITE 107,SNELLVILLE,GA,30039,US,770-290-0515,33.802826,-84.040878,,,,
DULUTH - GWINNETT PLACE,,1500 PLEASANT HILL ROAD,SUITE #111,DULUTH,GA,30096,US,678-206-2000,33.942523,-84.121357,,,,
DULUTH - BERKELEY LAKE,,3870 PEACHTREE INDUSTRIAL BOULEVARD,SUITE #240,DULUTH,GA,30096,US,770-743-4000,33.988041,-84.168877,,,,
ROSWELL - MOUNTAIN PARK,,4750 ALABAMA ROAD,SUITE #103,ROSWELL,GA,30075,US,770-670-1116,34.065697,-84.422791,,,,
ROSWELL - NORTH,,12040 ETRIS ROAD,SUITE D-120,ROSWELL,GA,30075,US,770-642-9193,34.073555,-84.362770,,,,
JOHNS CREEK - SOUTH,,6000 MEDLOCK BRIDGE PARKWAY,SUITE C-100,JOHNS CREEK,GA,30022,US,770-623-5959,34.031693,-84.188103,,,,
JOHNS CREEK - STATE BRIDGE,,10995 STATE BRIDGE ROAD,,JOHNS CREEK,GA,30022,US,770-280-4500,34.049761,-84.225452,,,,
DULUTH - TOWN CENTER,,2750 BUFORD HIGHWAY,SUITE #5-D,DULUTH,GA,30096,US,770-418-1088,34.007225,-84.131668,,,,
KENNESAW - WADE GREEN RD.,,1480 SHILOH ROAD,SUITE #400,KENNESAW,GA,30144,US,678-766-6284,34.051770,-84.593388,,,,
LAWRENCEVILLE - SUGARLOAF CROSSING,,4850 SUGARLOAF PARKWAY,SUITE #608,LAWRENCEVILLE,GA,30044,US,678-442-7509,33.923458,-84.018234,,,,
ALPHARETTA - WINDWARD PARKWAY,,865 NORTH MAIN STREET,SUITE #106,ALPHARETTA,GA,30004,US,770-625-1070,34.092468,-84.280609,,,,
ALPHARETTA - SARGENT,,11895 JONES BRIDGE ROAD,SUITE B,JOHNS CREEK,GA,30005,US,770-664-6284,34.070377,-84.203758,,,,
CONYERS - SOUTH,,2445 SALEM ROAD SOUTHEAST,SUITE #211-K,CONYERS,GA,30013,US,770-761-6334,33.623910,-83.976470,,,,
JOHNS CREEK - NORTH,,6955 MCGINNIS FERRY ROAD,SUITE #105,JOHNS CREEK,GA,30097,US,770-622-5886,34.061241,-84.158234,,,,
PEACHTREE CITY - NORTH,,1968 HIGHWAY 54 W.,SUITE D,PEACHTREE CITY,GA,30269,US,770-486-6806,33.402103,-84.579491,,,,
ACWORTH,,3451 COBB PARKWAY,SUITE 12,ACWORTH,GA,30101,US,678-574-8940,34.037895,-84.691162,,,,
SUWANEE - EAST,,2001 LAWRENCEVILLE-SUWANEE ROAD,SUITE #204,SUWANEE,GA,30024,US,770-743-3993,34.000893,-84.039032,,,,
LAWRENCEVILLE - SOUTH,,1121 GRAYSON HIGHWAY,SUITE T-12,LAWRENCEVILLE,GA,30046,US,770-325-0775,33.920292,-83.973236,,,,
WOODSTOCK - ROSE CREEK,,6422 BELLS FERRY ROAD,SUITE 146,WOODSTOCK,GA,30189,US,678-772-5114,34.113430,-84.580719,,,,
SUWANEE - NORTH,,686 PEACHTREE INDUSTRIAL BOULEVARD,SUITE #240,SUWANEE,GA,30024,US,770-614-7593,34.058838,-84.078407,,,,
ALPHARETTA - MILTON,,5665 ATLANTA HIGHWAY,SUITE #108,ALPHARETTA,GA,30004,US,770-314-7616,34.144772,-84.249855,,,,
CUMMING - SOUTH,,1595 PEACHTREE PARKWAY,SUITE #108,CUMMING,GA,30041,US,770-844-8408,34.122334,-84.168991,,,,
LAWRENCEVILLE - COLLINS HILL,,1475 BUFORD DRIVE,SUITE #404,LAWRENCEVILLE,GA,30043,US,678-571-2475,34.004948,-83.986259,,,,
PEACHTREE CITY - SOUTH,,1200 HIGHWAY 74 SOUTH,SUITE #10,PEACHTREE CITY,GA,30269,US,678-364-0887,33.342762,-84.536140,,,,
NEWNAN,,1065 SULLIVAN ROAD,SUITE J,NEWNAN,GA,30265,US,770-304-9044,33.403416,-84.706902,,,,
BUFORD - SUGAR HILL,,5885 CUMMING HIGHWAY,SUITE 110,BUFORD,GA,30518,US,678-926-9797,34.118793,-84.075150,,,,
CUMMING - CASTLEBERRY,,5456 BETHELVIEW ROAD,SUITE #108,CUMMING,GA,30040,US,678-513-7080,34.172527,-84.189110,,,,
OMAHA - NORTHWEST,,2085 N 120TH STREET,SUITE D-8,OMAHA,NE,68164,US,402-401-7272,41.278423,-96.099983,,,,
LINCOLN - SOUTH,,3201 PIONEERS BLVD.,,LINCOLN,NE,68502,US,402-484-6284,40.769451,-96.673988,,,,
NATOMAS,,4321 TRUXEL ROAD,SUITE F3,SACRAMENTO,CA,95834,US,916-574-9810,38.649783,-121.509894,,,,
ARDEN - ARCADE,,3000 ARDEN WAY,SUITE #2,SACRAMENTO,CA,95825,US,916-250-0000,38.595390,-121.394264,,,,
GREENHAVEN,,1327 FLORIN ROAD,,SACRAMENTO,CA,95831,US,916-422-8585,38.496521,-121.508736,,,,
RANCHO CORDOVA,,11015 OLSON DRIVE,SUITE# 10,RANCHO CORDOVA,CA,95670,US,916-366-6284,38.596363,-121.281930,,,,
ELK GROVE/LAGUNA,,7803 LAGUNA BOULEVARD,SUITE #210,ELK GROVE,CA,95758,US,916-691-4070,38.424300,-121.411230,,,,
ELK GROVE - SHELDON CROSSING,,8829 SHELDON ROAD,SUITE 120,ELK GROVE,CA,95624,US,916-585-8448,38.438869,-121.372925,,,,
DAVIS,,913 THIRD STREET,,DAVIS,CA,95616,US,530-757-2831,38.545208,-121.737823,,,,
WOODLAND,,1897 E. GIBSON ROAD,SUITE #A,WOODLAND,CA,95776,US,,38.663486,-121.739326,,,,
FAIR OAKS,,5233 HAZEL AVENUE,SUITE B,FAIR OAKS,CA,95628,US,916-526-7878,38.662155,-121.226860,,,,
ROSEVILLE,,1265 PLEASANT GROVE BOULEVARD,SUITE #120,ROSEVILLE,CA,95747,US,916-243-0661,38.771561,-121.314705,,,,
ROSEVILLE - EAST,,1850 DOUGLAS BOULEVARD,SUITE #908,ROSEVILLE,CA,95661,US,916-243-0661,38.743523,-121.256897,,,,
FOLSOM - CENTRAL,,622 EAST BIDWELL STREET,,FOLSOM,CA,95630,US,916-983-0522,38.672764,-121.161736,,,,
ROCKLIN,,2331 SUNSET BOULEVARD,SUITE #230,ROCKLIN,CA,95765,US,916-300-2050,38.797035,-121.265854,,,,
FOLSOM - SOUTHEAST,,98 CLARKSVILLE ROAD,#120,FOLSOM,CA,95630,US,916-941-5171,38.657463,-121.130081,,,,
GRANITE BAY,,8753 AUBURN-FOLSOM ROAD,,GRANITE BAY,CA,95746,US,916-300-2050,38.740479,-121.170570,,,,
EL DORADO HILLS,,2205 FRANCISCO DRIVE,SUITE #140,EL DORADO HILLS,CA,95762,US,916-933-1121,38.712269,-121.085197,,,,
VACAVILLE,,643 ELMIRA ROAD,,VACAVILLE,CA,95687,US,707-455-7200,38.352646,-121.950455,,,,
LODI,,1420 WEST KETTLEMAN LANE,SUITES H & I,LODI,CA,95242,US,209-333-8022,38.114929,-121.289787,,,,
FAIRFIELD,,3041 TRAVIS BOULEVARD,,FAIRFIELD,CA,94534,US,707-425-2488,38.258381,-122.066124,,,,
STOCKTON - NORTH,,4339 EAST MORADA LANE,SUITE A140,STOCKTON,CA,95212,US,209-487-4863,38.037313,-121.256144,,,,
STOCKTON - WEST,,1625 W. MARCH LANE,SUITE 104  105 &106,STOCKTON,CA,95207,US,209-952-5095,37.988106,-121.326935,,,,
ANTIOCH - SOUTHEAST,,5005 LONE TREE WAY,SUITE J,ANTIOCH,CA,94531,US,925-206-3737,37.963158,-121.759247,,,,
NAPA,,596 LINCOLN AVENUE,,NAPA,CA,94558,US,707-257-3817,38.310577,-122.281609,,,,
BRENTWOOD,,3840 BALFOUR ROAD,SUITE C,BRENTWOOD,CA,94513,US,925-240-7397,37.925076,-121.707397,,,,
CONCORD - CLAYTON VALLEY,,1460 WASHINGTON BOULEVARD,SUITE A101,CONCORD,CA,94521,US,925-672-8864,37.950546,-121.956436,,,,
MANTECA,,295 WEST LOUISE AVENUE,,MANTECA,CA,95336,US,209-239-4278,37.811935,-121.219513,,,,
TRACY,,1858 WEST 11TH STREET,,TRACY,CA,95376,US,209-833-9400,37.737591,-121.450562,,,,
DANVILLE,,4125 BLACKHAWK PLAZA CIRCLE,SUITE #180,DANVILLE,CA,94506,US,925-736-5544,37.802025,-121.920250,,,,
PLEASANTON - NORTH,,4554 B DUBLIN BOULEVARD,,DUBLIN,CA,94568,US,925-556-9888,37.704826,-121.881126,,,,
RALEIGH - TRIANGLE TOWN CENTER,,6401 TRIANGLE PLANTATION DRIVE,SUITE D109,RALEIGH,NC,27616,US,919-616-4899,35.874199,-78.582840,,,,
CARY - FARM WOODS,,1207 KILDAIRE FARM ROAD  STE. E,,CARY,NC,27511,US,919-674-0200,35.763783,-78.781929,,,,
CARY - HEMLOCK PLAZA,,2970 KILDAIRE FARM ROAD,,CARY,NC,27518,US,919-674-0900,35.718090,-78.788704,,,,
RALEIGH - NORTHWEST,,9101 LEESVILLE ROAD,SUITE 109,RALEIGH,NC,27613,US,919-848-6889,35.896679,-78.725571,,,,
MORRISVILLE -  LAKE CRABTREE,,9589 CHAPEL HILL ROAD,,MORRISVILLE,NC,27560,US,919-467-9788,35.804466,-78.812370,,,,
CARY - WEST,,270 CORNERSTONE DRIVE,SUITE 103,CARY,NC,27519,US,919-377-9600,35.787601,-78.847466,,,,
APEX,,1007-1 DAVIS DRIVE,,APEX,NC,27523,US,919-363-4131,35.753555,-78.848396,,,,
HOLLY SPRINGS,,1001 HAYES LANE,SUITE 101,HOLLY SPRINGS,NC,27540,US,919-762-3400,35.638367,-78.829613,,,,
DURHAM - LOWES GROVE,,4900 NC HIGHWAY 55,SUITE #180,DURHAM,NC,27713,US,919-293-0542,35.899055,-78.898537,,,,
DURHAM - UNIVERSITY,,4235 UNIVERSITY DRIVE,SUITE 103,DURHAM,NC,27707,US,919-402-0507,35.962173,-78.960129,,,,
CHAPEL HILL - ELLIOTT ROAD,,300 SOUTH ELLIOTT ROAD  STE AA,,CHAPEL HILL,NC,27514,US,919-852-2633,35.931950,-79.025910,,,,
FAYETTEVILLE,,140 WESTWOOD SHOPPING CENTER,,FAYETTEVILLE,NC,28314,US,910-302-5516,35.067551,-78.952797,,,,
MIAMI - CORAL WAY EAST,,2521 CORAL WAY,,MIAMI,FL,33145,US,305-351-0615,25.750650,-80.236656,,,,
CORAL GABLES - UNIVERSITY,,4699 PONCE DE LEON BLVD.,,CORAL GABLES,FL,33146,US,305-665-3276,25.725578,-80.264572,,,,
MIAMI SHORES,,9517 N. E. 2ND AVE.,,MIAMI SHORES,FL,33138,US,305-853-8600,25.862944,-80.193367,,,,
PINECREST,,12187 SOUTH DIXIE HIGHWAY,,PINECREST,FL,33156,US,786-573-1234,25.656897,-80.327950,,,,
DORAL,,10361 NORTHWEST 41ST STREET,,DORAL,FL,33178,US,305-994-7962,25.812080,-80.364815,,,,
MIAMI LAKES,,5803 151ST STREET NW,SUITE #100,MIAMI LAKES,FL,33014,US,305-558-5579,25.911196,-80.295815,,,,
PALMETTO BAY,,14689 S. DIXIE HIGHWAY,SPACE  NUMBER 7,PALMETTO BAY,FL,33176,US,305-439-9001,25.633755,-80.338737,,,,
NORTH MIAMI BEACH,,18327 NORTHEAST 19TH AVENUE,,NORTH MIAMI BEACH,FL,33179,US,305-682-8081,25.944405,-80.162735,,,,
KENDALL - NORTH,,7468 SW 117TH AVE.,,MIAMI,FL,33183,US,786-607-0400,25.689024,-80.382751,,,,
SOUTH KENDALL,,12544 SOUTHWEST 120TH STREET,,MIAMI,FL,33186,US,305-255-3959,25.655483,-80.397057,,,,
TAMIAMI - WEST,,14459 SW 42ND STREET,,MIAMI,FL,33175,US,305-229-1139,25.741560,-80.432110,,,,
PEMBROKE PINES - HIATUS,,11240 PINES BOULEVARD,,PEMBROKE PINES,FL,33026,US,954-450-6284,26.007605,-80.296989,,,,
MIRAMAR,,16391 MIRAMAR PARKWAY,,MIRAMAR,FL,33027,US,954-399-5582,25.978690,-80.362910,,,,
HOLLYWOOD - SHERIDAN,,3315 SHERIDAN STREET,,HOLLYWOOD,FL,33021,US,954-963-2774,26.033081,-80.176979,,,,
DAVIE - COOPER CITY,,5810 SOUTH UNIVERSITY DRIVE,SUITE #103,DAVIE,FL,33328,US,954-434-0131,26.046766,-80.248268,,,,
PEMBROKE PINES - SILVER LAKES,,17101 PINES BLVD.,,PEMBROKE PINES,FL,33027,US,954-885-6545,26.007748,-80.375496,,,,
DAVIE - SOUTHWEST RANCHES,,4919 SOUTHWEST 148TH AVENUE,,DAVIE,FL,33330,US,954-252-7211,26.058571,-80.346031,,,,
PEMBROKE PINES - WEST,,19431 SHERIDAN STREET,,PEMBROKE PINES,FL,33332,US,954-880-0721,26.030615,-80.407303,,,,
PLANTATION - SOUTH,,801  SOUTH UNIVERSITY DRIVE,SUITE M-103,PLANTATION,FL,33324,US,954-370-8996,26.112271,-80.251339,,,,
WESTON - SOUTH,,2209 NORTH COMMERCE PARKWAY,,WESTON,FL,33326,US,954-217-0033,26.092268,-80.368027,,,,
PLANTATION - CLEARY BLVD.,,851 NORTH NOB HILL ROAD,,PLANTATION,FL,33324,US,954-745-0066,26.133808,-80.289192,,,,
WESTON - SADDLE CLUB ROAD,,16662 SADDLE CLUB ROAD,,WESTON,FL,33326,US,954-217-0480,26.116318,-80.376030,,,,
FORT LAUDERDALE - CORAL RIDGE,,2056 EAST OAKLAND PARK BOULEVARD,,FORT LAUDERDALE,FL,33306,US,954-564-3625,26.167044,-80.120178,,,,
SUNRISE,,3483 NORTH HIATUS ROAD,,SUNRISE,FL,33351,US,954-249-4090,26.168955,-80.296310,,,,
POMPANO BEACH - EAST,,820 NORTH FEDERAL HIGHWAY,,POMPANO BEACH,FL,33062,US,954-781-8730,26.239586,-80.102356,,,,
CORAL SPRINGS - SOUTH,,1317 NORTH UNIVERSITY DRIVE,,CORAL SPRINGS,FL,33071,US,954-603-9050,26.246260,-80.252373,,,,
CORAL SPRINGS - TOWN CENTER,,10280 WEST SAMPLE ROAD,,CORAL SPRINGS,FL,33065,US,954-775-2177,26.272465,-80.262993,,,,
CORAL SPRINGS - EAST,,5855 WILES ROAD,,CORAL SPRINGS,FL,33067,US,954-509-0850,26.286249,-80.203896,,,,
PARKLAND,,5850 CORAL RIDGE DRIVE,,CORAL SPRINGS,FL,33076,US,954-828-2584,26.303537,-80.282043,,,,
ROSEVILLE,,2807 HAMLINE AVENUE NORTH,RETAIL BAY #8A,ROSEVILLE,MN,55113,US,651-638-9518,45.026234,-93.156937,,,,
EDINA,,5100 EDEN AVENUE,SUITE #202/203,EDINA,MN,55436,US,952-920-9082,44.910259,-93.351967,,,,
CRYSTAL,,333 WILLOW BEND,,CRYSTAL,MN,55428,US,763-253-0024,45.054203,-93.368401,,,,
PLYMOUTH,,3475 PLYMOUTH BOULEVARD,SUITE #400,PLYMOUTH,MN,55447,US,763-544-6284,45.019997,-93.477318,,,,
EAGAN,,3428 DENMARK AVENUE,,EAGAN,MN,55123,US,651-688-0306,44.831260,-93.158900,,,,
EDEN PRAIRIE,,12200 MIDDLESET ROAD,SUITE 300,EDEN PRAIRIE,MN,55344,US,952-944-8031,44.854908,-93.431465,,,,
MAPLE GROVE - ARBOR LAKES,,11234 86TH AVENUE NORTH,,MAPLE GROVE,MN,55369,US,763-657-1471,45.110062,-93.424644,,,,
BLOOMINGTON,,10800 NORMANDALE BOULEVARD,SUITE #103,BLOOMINGTON,MN,55437,US,952-253-1027,44.806950,-93.351036,,,,
BLAINE,,10904 BALTIMORE STREET  NE,SUITE #101,BLAINE,MN,55449,US,651-347-3250,45.168850,-93.233940,,,,
MEDINA,,5145 HIGHWAY 101 N,SUITE #1035,MEDINA,MN,55340,US,763-205-4933,45.046074,-93.526863,,,,
DEERFIELD BEACH - WEST,,348 SOUTH POWERLINE ROAD,,DEERFIELD BEACH,FL,33442,US,954-421-5881,26.312973,-80.152084,,,,
BOCA RATON - LOGGERS RUN,,11395E WEST PALMETTO PARK ROAD,,BOCA RATON,FL,33428,US,561-477-8222,26.349569,-80.228477,,,,
BOCA RATON - GLADES,,8221 GLADES ROAD,SUITE #9,BOCA RATON,FL,33434,US,561-488-1976,26.368404,-80.173889,,,,
BOYNTON BEACH - CENTRAL,,9819 S. MILITARY TRAIL - STE. H,,BOYNTON BEACH,FL,33436,US,561-732-4582,26.530119,-80.124344,,,,
LAKE WORTH - ABERDEEN,,7032 CHARLESTON SHORES BLVD.,,LAKE WORTH,FL,33467,US,561-965-8812,26.564342,-80.155113,,,,
WELLINGTON - SOUTH,,3975 ISLES VIEW DRIVE,SUITE 103,WELLINGTON,FL,33414,US,561-296-1184,26.622574,-80.233116,,,,
JUPITER - NORTH,,1695 WEST INDIANTOWN ROAD,SUITES 8 & 9,JUPITER,FL,33458,US,561-575-4640,26.935110,-80.123863,,,,
STUART,,2658 SE WILLOUGHBY BLVD.,,STUART,FL,34994,US,772-781-4773,27.173864,-80.247025,,,,
EXCELSIOR - MINNETONKA WEST,,19905 HIGHWAY 7 EAST,SUITE D2,SHOREWOOD,MN,55331,US,952-474-1030,44.907673,-93.531387,,,,
CHANHASSEN,,854 WEST 78TH STREET,SUITE #202,CHANHASSEN,MN,55317,US,952-474-4963,44.863420,-93.543010,,,,
BURNSVILLE,,2999 WEST COUNTY ROAD 42,SUITE #148,BURNSVILLE,MN,55306,US,952-746-0969,44.745590,-93.316521,,,,
APPLE VALLEY - EASTVIEW,,14050 PILOT KNOB RD.,SUITE 136,APPLE VALLEY,MN,55124,US,651-200-2557,44.745293,-93.175545,,,,
WOODBURY,,710 COMMERCE DRIVE,SUITE #170,WOODBURY,MN,55125,US,651-735-3072,44.941917,-92.914673,,,,
SHAKOPEE,,1275 RAMSEY STREET,SUITE #400,SHAKOPEE,MN,55379,US,952-345-3454,44.781559,-93.503059,,,,
LAKEVILLE - NORTH,,7604 160TH STREET WEST,,LAKEVILLE,MN,55044,US,952-649-7559,44.715660,-93.220690,,,,
ROCHESTER,,3245 19TH STREET NW,SUITE #2,ROCHESTER,MN,55901,US,507-287-0867,44.043621,-92.511925,,,,
TULSA - SOUTH CENTRAL,,61ST AND MEMORIAL,8228 EAST 61ST STREET SUITE #117,TULSA,OK,74133,US,918-254-5437,36.075378,-95.886368,,,,
BROKEN ARROW - NORTH,,2017 WEST HOUSTON,,BROKEN ARROW,OK,74012,US,918-251-5384,36.045475,-95.813316,,,,
OWASSO,,13720 E. 86TH STREET,SUITE 150,OWASSO,OK,74055,US,-(918) 346-0586,36.277893,-95.822220,,,,
BENTONVILLE,,231 NORTH WALTON BOULEVARD,SUITE #7,BENTONVILLE,AR,72712,US,479-273-5866,36.375065,-94.222137,,,,
WICHITA - EAST,,2621 NORTH GREENWICH,,WICHITA,KS,67226,US,316-652-8800,37.731979,-97.208740,,,,
WICHITA - WEST,,4041 N. MAIZE ROAD,SUITE 210,MAIZE,KS,67101,US,316-448-3700,37.756996,-97.463776,,,,
LYNDHURST,,5459 MAYFIELD ROAD,,LYNDHURST,OH,44124,US,440-449-0600,41.520561,-81.483070,,,,
WESTLAKE,,26583 CENTER RIDGE ROAD,,WESTLAKE,OH,44145,US,440-892-9999,41.451267,-81.914597,,,,
BROADVIEW HEIGHTS,,403 EAST ROYALTON ROAD,SUITE 123,BROADVIEW HEIGHTS,OH,44147,US,440-457-1111,41.314453,-81.682266,,,,
SOLON,,33431 AURORA ROAD,,SOLON,OH,44139,US,440-914-0171,41.387039,-81.441177,,,,
STRONGSVILLE,,20884 ROYALTON ROAD,UNIT C,STRONGSVILLE,OH,44149,US,440-878-4900,41.313168,-81.856247,,,,
HUDSON - DARROW ROAD,,5843 DARROW ROAD,SUITE # 1,HUDSON,OH,44236,US,234-284-2034,41.223919,-81.439674,,,,
FAIRLAWN,,2747 CRAWFIS ROAD,SUITE #107,FAIRLAWN,OH,44333,US,330-414-0305,41.131401,-81.612640,,,,
MEDINA,,5155 BUEHLERS DRIVE,SUITE A-108,MEDINA,OH,44256,US,330-952-0511,41.135399,-81.814445,,,,
NORTH CANTON,,1214 SOUTH MAIN STREET,,NORTH CANTON,OH,44720,US,330-492-4516,40.865868,-81.397720,,,,
NEW ORLEANS - UPTOWN,,4747 EARHART BLVD.,SUITE F,NEW ORLEANS,LA,70125,US,504-758-3900,29.957310,-90.106659,,,,
GRETNA - WESTBANK,,1800 CAROL SUE AVENUE,,GRETNA,LA,70056,US,504-368-0102,29.899775,-90.037941,,,,
MARRERO,,2324 BARATARIA BOULEVARD,SUITE #7,MARRERO,LA,70072,US,504-252-9130,29.861273,-90.099258,,,,
METAIRIE,,3440 DIVISION STREET,,METAIRIE,LA,70002,US,504-780-0010,30.006218,-90.164894,,,,
KENNER,,4041 WILLIAMS BOULEVARD,SPACE B6,KENNER,LA,70065,US,504-465-9952,30.029266,-90.239723,,,,
MANDEVILLE - CENTRAL,,4244 HIGHWAY 22,SUITE #6,MANDEVILLE,LA,70471,US,985-626-1819,30.395134,-90.095726,,,,
BATON ROUGE - S. HARRELLS FERRY,,14506 SOUTH HARRELLS FERRY ROAD,,BATON ROUGE,LA,70816,US,225-753-2009,30.429426,-91.024246,,,,
BATON ROUGE - SOUTH,,12646 PERKINS ROAD,,BATON ROUGE,LA,70801,US,225-916-4844,30.369623,-91.078796,,,,
BAKERSFIELD - CENTRAL,,5115 MING AVENUE,,BAKERSFIELD,CA,93309,US,661-835-8666,35.338448,-119.059868,,,,
OJAI,,530 WEST OJAI AVE. SUITE 103,,OJAI,CA,93023,US,805-640-3085,34.446129,-119.252060,,,,
VALENCIA - COPPER HILL,,23888 COPPER HILL DRIVE,,VALENCIA,CA,91354,US,661-219-0717,34.462875,-118.558296,,,,
VALENCIA - NORTH,,24015 NEWHALL RANCH RD.,,VALENCIA,CA,91355,US,661-222-1144,34.430748,-118.555939,,,,
SAUGUS,,26811 SECO CANYON ROAD,UNIT D,SANTA CLARITA,CA,91350,US,661-297-9974,34.433598,-118.532013,,,,
PALMDALE,,3135 RANCHO VISTA BLVD.,SUITE C,PALMDALE,CA,93551,US,661-274-2020,34.603565,-118.186508,,,,
STEVENSON RANCH,,25818 W. HEMINGWAY AVE.,SUITE 3,STEVENSON RANCH,CA,91381,US,661-260-1940,34.386715,-118.581490,,,,
CANYON COUNTRY,,18635 SOLEDAD CANYON ROAD,UNIT 107,SANTA CLARITA,CA,91351,US,661-298-1927,34.416286,-118.460358,,,,
MOORPARK,,484 EAST LOS ANGELES AVENUE,SUITE #202,MOORPARK,CA,93021,US,805-529-9676,34.278484,-118.875748,,,,
SANTA BARBARA,,3230 STATE STREET,SUITE B,SANTA BARBARA,CA,93105,US,805-687-5944,34.440689,-119.733696,,,,
SIMI VALLEY WEST,,2424 ERRINGER ROAD,,SIMI VALLEY,CA,93065,US,805-526-2987,34.279518,-118.761215,,,,
SIMI VALLEY EAST,,2139 TAPO STREET,UNIT #114,SIMI VALLEY,CA,93063,US,805-526-2993,34.273926,-118.709579,,,,
VENTURA,,1437 SOUTH VICTORIA AVE.,SUITE B,VENTURA,CA,93003,US,805-650-0361,34.251297,-119.211700,,,,
CAMARILLO,,2420 LAS POSAS ROAD,SUITE B,CAMARILLO,CA,93010,US,805-389-8909,34.236538,-119.039101,,,,
GOLETA,,5707 CALLE REAL,,GOLETA,CA,93117,US,805-967-8510,34.441151,-119.822617,,,,
OXNARD - NORTH,,2067 NORTH OXNARD BLVD.,,OXNARD,CA,93036,US,805-983-1991,34.220901,-119.177200,,,,
PORTER RANCH,,11163 TAMPA AVENUE,,NORTHRIDGE,CA,91326,US,818-366-1485,34.273975,-118.557434,,,,
THOUSAND OAKS - NORTH,,2024-J EAST AVENIDA DE LOS ARBOLES,,THOUSAND OAKS,CA,91362,US,805-422-3232,34.210251,-118.841820,,,,
NEWBURY PARK,,2804 CAMINO DOS RIOS,SUITE #203,NEWBURY PARK,CA,91320,US,213-545-4868,34.189976,-118.935738,,,,
SAN FERNANDO,,735 SOUTH WORKMAN STREET,,SAN FERNANDO,CA,91340,US,818-365-7750,34.282276,-118.451622,,,,
GRANADA HILLS,,10349 BALBOA BOULEVARD,SUITE #204,GRANADA HILLS,CA,91344,US,818-831-9139,34.258289,-118.502335,,,,
THOUSAND OAKS,,446 NORTH MOORPARK ROAD,,THOUSAND OAKS,CA,91360,US,805-777-0113,34.184643,-118.875099,,,,
NORTHRIDGE,,9657 RESEDA BOULEVARD,,NORTHRIDGE,CA,91324,US,818-772-1593,34.245827,-118.536102,,,,
WEST HILLS,,22742 ROSCOE BOULEVARD,,WEST HILLS,CA,91304,US,818-887-7235,34.218777,-118.622490,,,,
WESTLAKE VILLAGE,,2900 TOWNSGATE ROAD,SUITE #214,WESTLAKE VILLAGE,CA,91361,US,213-545-4868,34.151844,-118.823227,,,,
AGOURA,,29054 THOUSAND OAKS BLVD.,,AGOURA HILLS,CA,91301,US,818-665-3600,34.154263,-118.758911,,,,
WOODLAND HILLS,,21759 VENTURA BOULEVARD,LEASING OFFICE SUITE,WOODLAND HILLS,CA,91364,US,818-883-4536,34.168388,-118.602135,,,,
ORCUTT,,4869 SOUTH BRADLEY ROAD,SUITE #121,SANTA MARIA,CA,93455,US,805-354-0650,34.866459,-120.419167,,,,
CALABASAS - WEST,,4774 PARK GRANADA,SUITE #9,CALABASAS,CA,91302,US,818-224-3264,34.154266,-118.641716,,,,
TARZANA,,19011 VENTURA BOULEVARD,,TARZANA,CA,91356,US,818-708-8151,34.172974,-118.547829,,,,
CALABASAS,,22231 MULHOLLAND HIGHWAY,SUITE #116 A,CALABASAS,CA,91302,US,818-591-2599,34.148361,-118.612991,,,,
ATASCADERO,,7730 MORRO ROAD,SUITE #203,ATASCADERO,CA,93422,US,805-466-5350,35.475494,-120.668968,,,,
SAN LUIS OBISPO,,12320 LOS OSOS VALLEY ROAD,,SAN LUIS OBISPO,CA,93405,US,805-466-5350,35.248035,-120.683762,,,,
TAMPA - PALMA CEIA,,3415B BAY TO BAY BOULEVARD,,TAMPA,FL,33629,US,813-831-9495,27.919754,-82.499741,,,,
TEMPLE TERRACE,,10958 56TH ST. N.,,TEMPLE TERRACE,FL,33617,US,813-984-0427,28.048731,-82.394241,,,,
RIVERVIEW - BOYETTE,,11236 BOYETTE ROAD,,RIVERVIEW,FL,33569,US,813-280-8585,27.854624,-82.316551,,,,
BRANDON - EAST,,1242 KINGSWAY CROSSING,,BRANDON,FL,33510,US,813-662-1314,27.957458,-82.277664,,,,
TAMPA - CITRUS PARK,,7620 GUNN HIGHWAY,SUITE #190,TAMPA,FL,33625,US,813-425-4870,28.078238,-82.571259,,,,
BRANDON - BLOOMINGDALE,,374 EAST BLOOMINGDALE AVENUE,,BRANDON,FL,33511,US,813-661-1952,27.894735,-82.279205,,,,
TAMPA - WESTCHASE,,13962 WEST HILLSBOROUGH AVENUE,,TAMPA,FL,33635,US,813-818-7513,28.031317,-82.643356,,,,
NEW TAMPA,,5320 PRIMROSE LAKE CIRCLE,SUITE B,TAMPA,FL,33647,US,813-374-9274,28.131334,-82.378746,,,,
LUTZ - LAKE CROSSING,,19261 DALE MABRY HIGHWAY NORTH,,LUTZ,FL,33548,US,813-909-9122,28.157360,-82.480800,,,,
ST. PETERSBURG - EAST,,2538 DR. ML KING JR. STREET N.,,ST. PETERSBURG,FL,33704,US,727-822-4016,27.795484,-82.646854,,,,
EAST LAKE,,800 TARPON WOODS BLVD,SUITE A-1,PALM HARBOR,FL,34685,US,727-437-1900,28.088926,-82.698372,,,,
WESLEY CHAPEL - SOUTH,,2547 WINDGUARD CIRCLE,,WESLEY CHAPEL,FL,33544,US,813-907-8645,28.193880,-82.355072,,,,
LARGO - ULMERTON,,8109 ULMERTON ROAD,,LARGO,FL,33771,US,727-242-5990,27.894714,-82.750237,,,,
DUNEDIN,,2141 MAIN STREET,SUITE D,DUNEDIN,FL,34698,US,727-512-5429,28.019062,-82.749329,,,,
WESLEY CHAPEL - NORTH,,27311 WESLEY CHAPEL BOULEVARD,,WESLEY CHAPEL,FL,33544,US,813-973-2266,28.238415,-82.364548,,,,
LAKELAND - HIGHLANDS,,5371 SOUTH FLORIDA AVENUE,,LAKELAND,FL,33813,US,863-333-6222,27.968288,-81.964340,,,,
BRADENTON - EAST,,4322 EAST STATE ROAD 64,,BRADENTON,FL,34208,US,941-747-6284,27.496914,-82.507011,,,,
BRADENTON - WEST,,5767 MANATEE AVE.,,BRADENTON,FL,34209,US,941-794-2954,27.494707,-82.618507,,,,
BRADENTON - UNIVERSITY PARK,,8201 TOURIST CENTER DRIVE,,UNIVERSITY PARK,FL,34201,US,941-351-5555,27.392584,-82.455513,,,,
SARASOTA - BEE RIDGE,,4438 BEE RIDGE ROAD,,SARASOTA,FL,34233,US,941-462-2729,27.299164,-82.476250,,,,
INVERNESS,,3380 EAST GULF TO LAKE HIGHWAY,,INVERNESS,FL,34453,US,352-726-9694,28.850544,-82.377975,,,,
PORT CHARLOTTE,,701 JC CENTER COURT,UNIT #9,PORT CHARLOTTE,FL,33954,US,941-764-7890,27.019548,-82.052460,,,,
DR. PHILLIPS,,7657 TURKEY LAKE ROAD,,ORLANDO,FL,32819,US,407-363-2939,28.455927,-81.477173,,,,
OCOEE - TOWNE CENTER,,11107 WEST COLONIAL DRIVE,,OCOEE,FL,34761,US,407-656-9062,28.553028,-81.544434,,,,
ORLANDO - SOUTHCHASE,,12477 SOUTH ORANGE BLOSSOM TRAIL,,ORLANDO,FL,32837,US,407-930-5577,28.383497,-81.403564,,,,
ORLANDO - COLONIALTOWN,,2939 EAST COLONIAL DRIVE,,ORLANDO,FL,32803,US,407-898-5542,28.553354,-81.346405,,,,
ALTAMONTE SPRINGS,,1022 W. STATE ROAD 436,,ALTAMONTE SPRINGS,FL,32714,US,407-310-5332,28.665316,-81.424774,,,,
ORLANDO - VISTA LAKES,,8288 LEE VISTA BOULEVARD,SUITE D,ORLANDO,FL,32829,US,407-384-8881,28.465778,-81.272156,,,,
ORLANDO - GOLDENROD,,4950 HALL ROAD,SUITE B,ORLANDO,FL,32817,US,407-673-1130,28.610226,-81.278969,,,,
ORLANDO - WATERFORD LAKES,,312 NORTH ALAFAYA TRAIL,,ORLANDO,FL,32828,US,407-658-6284,28.550085,-81.204018,,,,
LAKE MARY,,3817 LAKE EMMA ROAD,UNIT B-3,LAKE MARY,FL,32746,US,407-732-2444,28.755056,-81.354004,,,,
OVIEDO,,1500 ALAFAYA TRAIL,SUITE 1040,OVIEDO,FL,32765,US,407-971-8514,28.647610,-81.208939,,,,
NUUANU - SOUTH,,1708 NUUANU AVENUE,,HONOLULU,HI,96817,US,808-622-0111,21.318542,-157.855026,,,,
MAKIKI HEIGHTS,,1313 PENSACOLA STREET,,HONOLULU,HI,96814,US,808-533-7890,21.303368,-157.844498,,,,
LANAKILA,,717 NORTH KUAKINI STREET,,HONOLULU,HI,96817,US,808-595-3131,21.326487,-157.860458,,,,
MAKIKI,,1429 MAKIKI STREET,ROOM 2207,HONOLULU,HI,96814,US,808-732-8667,21.301693,-157.836151,,,,
MAE MAE,,319 WYLLIE STREET,CAFETERIA,HONOLULU,HI,96817,US,808-595-3131,21.328629,-157.847824,,,,
MOILIILI,,1212 UNIVERSITY AVENUE,,HONOLULU,HI,96826,US,808-735-5786,21.294306,-157.822052,,,,
MANOA,,2804 EAST MANOA ROAD,,HONOLULU,HI,96822,US,808-988-6284,21.309063,-157.811844,,,,
MOANALUA,,1289 MAHIOLE STREET,,HONOLULU,HI,96819,US,808-295-2535,21.346907,-157.892532,,,,
WAIKIKI,,3410 CAMPBELL AVENUE,,HONOLULU,HI,96816,US,808-735-5786,21.274715,-157.812332,,,,
KAIMUKI,,1151-A 12TH AVENUE,,HONOLULU,HI,96816,US,808-739-6284,21.282146,-157.798599,,,,
SALT LAKE CENTER,,1131 ALA LILIKOI ST,ROOM P-1,HONOLULU,HI,96818,US,808-837-7676,21.351637,-157.911865,,,,
AIEA,,99-186 PUAKALA STREET,,AIEA,HI,96701,US,808-677-3462,21.377975,-157.929169,,,,
AINA HAINA,,850 WEST HIND DRIVE,SUITE 106,HONOLULU,HI,96821,US,808-383-1833,21.278194,-157.754761,,,,
KANEOHE TOWN,,45-495 KAMEHAMEHA HIGHWAY,LIBRARY & ROOM 32,KANEOHE,HI,96744,US,808-234-7323,21.396324,-157.795990,,,,
PEARL CITY,,1419 WAIMANO HOME ROAD,ROOM A3 & A4,PEARL CITY,HI,96782,US,808-425-5794,21.403286,-157.965317,,,,
KAILUA,,315 KUULEI ROAD ROOM J31,,KAILUA,HI,96734,US,808-262-9521,21.395061,-157.741272,,,,
KOKO HEAD,,189 LUNALILO HOME ROAD,ROOM J101,HONOLULU,HI,96825,US,808-256-5275,21.274237,-157.704895,,,,
EWA BEACH - OCEAN POINTE,,91-1061 KEAUNUI DRIVE,SPACES 210 & 211,EWA BEACH,HI,96706,US,808-681-6868,21.326942,-158.021469,,,,
WAIPIO,,94-1091 OLI LOOP,ROOM C101,WAIPAHU,HI,96797,US,808-200-7401,21.416140,-157.998535,,,,
MILILANI UKA,,94-380 KUAHELANI AVENUE,,MILILANI,HI,96789,US,808-261-8636,21.437222,-158.014542,,,,
MILILANI MAUKA,,95-1095 AINAMAKUA DRIVE,SUITE #7,MILILANI,HI,96789,US,808-628-0752,21.467024,-158.000870,,,,
KAPOLEI - WEST,,1001 KAMOKILA BOULEVARD,SUITE #126,KAPOLEI,HI,96707,US,808-389-9735,21.334661,-158.080536,,,,
MAKAKILO,,92-675 ANIPEAHI STREET,,KAPOLEI,HI,96707,US,808-487-1963,21.344433,-158.085007,,,,
WAHIAWA,,164 CALIFORNIA AVENUE,,WAHIAWA,HI,96786,US,808-622-0111,21.494493,-158.034546,,,,
WEST OAHU,,89 - 980 NANAKULI AVENUE,,WAIANAE,HI,96792,US,808-348-1597,21.387930,-158.134491,,,,
WAIANAE,,86-285 LEIHOKU STREET,CAFETERIA,WAIANAE,HI,96792,US,808-348-1597,21.438791,-158.174362,,,,
KAHUKU,,56-170 PUALALEA STREET,SUITE #K101,KAHUKU,HI,96731,US,808-358-4726,21.674452,-157.951065,,,,
LAHAINA,,816 NIHEU STREET  ROOM C-101 & A-LOUNGE,,LAHAINA,HI,96761,US,808-446-4756,20.886190,-156.664000,,,,
WAILUKU CENTER,,355 SOUTH HIGH STREET,ROOM B-1,WAILUKU,HI,96793,US,808-244-8887,20.882631,-156.505249,,,,
KAHULUI,,410 SOUTH HINA AVENUE,,KAHULUI,HI,96732,US,808-244-8887,20.878113,-156.471451,,,,
KIHEI - NORTH,,250 EAST LIPOA STREET,KIHEI SCHOOL LIBRARY,KIHEI,HI,96753,US,808-893-2417,20.748260,-156.448959,,,,
CLAYTON,,201 SOUTH CENTRAL AVENUE,SUITE #100,CLAYTON,MO,63105,US,314-863-2266,38.647373,-90.339012,,,,
LADUE,,9646 CLAYTON ROAD,,LADUE,MO,63124,US,314-993-9192,38.638947,-90.387764,,,,
KIRKWOOD,,449 S. KIRKWOOD RD.,,KIRKWOOD,MO,63122,US,314-835-1316,38.575630,-90.407463,,,,
FLORISSANT,,2754 NORTH HIGHWAY 67,,FLORISSANT,MO,63033,US,314-972-7999,38.806847,-90.303284,,,,
CREVE COEUR,,12390 OLIVE STREET,,CREVE COEUR,MO,63141,US,314-817-0077,38.672390,-90.458511,,,,
MARYLAND HTS,,2045 DORSETT VILLAGE,,MARYLAND HEIGHTS,MO,63043,US,314-576-2600,38.716223,-90.454423,,,,
MANCHESTER,,2190 SOUTH MASON ROAD,SUITE #209,ST. LOUIS,MO,63131,US,314-965-6895,38.596687,-90.478722,,,,
O`FALLON,,220 EAST STATE STREET,,O'FALLON,IL,62269,US,618-558-2849,38.592499,-89.909004,,,,
EDWARDSVILLE,,1043 CENTURY LANE,,EDWARDSVILLE,IL,62025,US,618-307-6958,38.787876,-89.981720,,,,
CHESTERFIELD - CENTRAL,,15510 OLIVE BOULEVARD,SUITE #110 & 105,CHESTERFIELD,MO,63017,US,636-537-5522,38.656914,-90.552727,,,,
BALLWIN - ELLISVILLE,,15525 MANCHESTER ROAD,,BALLWIN,MO,63011,US,314-348-5895,38.592770,-90.568939,,,,
ST. CHARLES,,2015 ZUMBEHL ROAD,,ST. CHARLES,MO,63303,US,636-410-7640,38.784331,-90.534983,,,,
HARVESTER,,3930 SOUTH OLD HIGHWAY 94,SUITE #47,ST. CHARLES,MO,63304,US,636-675-4961,38.742027,-90.589104,,,,
WILDWOOD,,16572 MANCHESTER ROAD,,WILDWOOD,MO,63040,US,636-405-3111,38.580269,-90.617096,,,,
O`FALLON,,2713-2717 HIGHWAY K,,O'FALLON,MO,63368,US,636-272-0440,38.768990,-90.700905,,,,
SPRINGFIELD - SOUTH,,2943 WEST WHITE OAKS DRIVE,,SPRINGFIELD,IL,62704,US,217-726-8080,39.765564,-89.711029,,,,
YORBA LINDA,,17530 YORBA LINDA BOULEVARD,,YORBA LINDA,CA,92886,US,714-572-6133,33.887413,-117.827423,,,,
ANAHEIM HILLS,,5642 EAST LA PALMA AVENUE,SUITE #207,ANAHEIM HILLS,CA,92807,US,714-970-7659,33.858528,-117.791183,,,,
YORBA LINDA - RANCH VILLAGE,,4945 YORBA RANCH ROAD,UNIT A,YORBA LINDA,CA,92887,US,714-660-0800,33.890385,-117.764748,,,,
ANAHEIM HILLS - WEIR CANYON,,701 SOUTH WEIR CANYON ROAD,SUITE 109,ANAHEIM,CA,92808,US,714-409-8750,33.862232,-117.739525,,,,
DIAMOND BAR - SOUTH,,2757 DIAMOND BAR BOULEVARD,,DIAMOND BAR,CA,91765,US,909-979-3909,33.975994,-117.837837,,,,
ROWLAND HEIGHTS,,19119 COLIMA ROAD,SUITE #114,ROWLAND HEIGHTS,CA,91748,US,626-964-3324,33.987919,-117.885872,,,,
DIAMOND BAR,,1155 S. DIAMOND BAR BLVD.,SUITE R & S1,DIAMOND BAR,CA,91765,US,909-260-1183,34.002365,-117.811539,,,,
WEST WALNUT,,18856 AMAR ROAD,UNIT #16,WALNUT,CA,91789,US,626-913-5722,34.028622,-117.890160,,,,
CHINO HILLS,,3280 CHINO HILLS PKWY,UNIT B-2,CHINO HILLS,CA,91709,US,909-260-1183,33.983002,-117.733742,,,,
CHINO HILLS-SOUTHEAST,,15934 UNIT C  LOS SERRANOS COUNTRY,CLUB DRIVE,CHINO HILLS,CA,91709,US,909-597-1530,33.963642,-117.696854,,,,
JURUPA VALLEY - EASTVALE,,6445 PAT`S RANCH ROAD,SUITE A,JURUPA VALLEY,CA,91752,US,951-268-3848,33.971214,-117.546010,,,,
NORCO,,2200 HAMNER AVENUE,SUITE #104,NORCO,CA,92860,US,951-898-5654,33.913715,-117.561287,,,,
ONTARIO,,2550 S. ARCHIBALD AVE.,SUITE N,ONTARIO,CA,91761,US,909-443-6161,34.027729,-117.595734,,,,
FONTANA - HERITAGE PARK,,7470 CHERRY AVENUE,SUITE #105,FONTANA,CA,92336,US,909-320-5090,34.117928,-117.489746,,,,
LOMA LINDA,,1570 BARTON ROAD,,REDLANDS,CA,92373,US,909-335-9643,34.047092,-117.207901,,,,
RANCHO CUCAMONGA,,8351 ROCHESTER AVENUE,SUITES 110 & 111,RANCHO CUCAMONGA,CA,91730,US,909-941-3705,34.101757,-117.545059,,,,
ALTA LOMA,,10431 LEMON AVENUE,UNIT L,RANCHO CUCAMONGA,CA,91730,US,909-941-3737,34.139065,-117.577263,,,,
CHINO - NORTH,,5370 SCHAEFER AVENUE,SUITE A,CHINO,CA,91710,US,909-591-9777,34.005108,-117.687698,,,,
UPLAND,,8880 BENSON AVE,SUITE #101,MONTCLAIR,CA,91763,US,909-949-8166,34.092922,-117.681450,,,,
CLAREMONT - NORTH,,574 EAST BASELINE ROAD,,CLAREMONT,CA,91711,US,909-626-4358,34.121593,-117.705246,,,,
LA VERNE,,2009 FOOTHILL BOULEVARD,,LA VERNE,CA,91750,US,909-593-4727,34.114441,-117.768242,,,,
GLENDORA,,1340 EAST ROUTE 66,SUITE #101,GLENDORA,CA,91740,US,626-914-1120,34.128510,-117.840744,,,,
SCOTT TOWNSHIP,,2101 GREENTREE ROAD,SUITE A-107.5,PITTSBURGH,PA,15220,US,412-608-4171,40.390385,-80.070900,,,,
FOX CHAPEL,,880 BUTLER STREET,SPACE #3,PITTSBURGH,PA,15223,US,412-781-0850,40.511559,-79.945114,,,,
NORTH HILLS,,1130 PERRY HIGHWAY,,PITTSBURGH,PA,15237,US,847-340-7662,40.548191,-80.035439,,,,
MONROEVILLE,,2644 MOSSIDE BOULEVARD,SUITE #114,MONROEVILLE,PA,15146,US,412-372-1021,40.431835,-79.750549,,,,
WEXFORD,,100 VIP DRIVE,SUITE #107,WEXFORD,PA,15090,US,724-591-8448,40.616650,-80.092842,,,,
WHEELING,,39 WASHINGTON AVENUE,,WHEELING,WV,26003,US,304-280-7671,40.071209,-80.685112,,,,
CORPUS CHRISTI,,5801 SOUTH STAPLES DRIVE,SUITE G,CORPUS CHRISTI,TX,78413,US,361-334-9666,27.695883,-97.378006,,,,
ANCHORAGE,,12001 INDUSTRY WAY,BUILDING  B  SUITE #7,ANCHORAGE,AK,99515,US,907-345-3874,61.112175,-149.860596,,,,
ROANOKE,,3939 BRAMBLETON AVENUE  SW,,ROANOKE,VA,24018,US,540-562-8000,37.240765,-79.994972,,,,
SOUTH ORANGE,,76 SOUTH ORANGE AVENUE,SUITE ST05,SOUTH ORANGE,NJ,07079,US,973-327-4737,40.745171,-74.257790,,,,
UNION,,1929 MORRIS AVENUE,1ST FLOOR FRONT,UNION,NJ,07083,US,908-686-7453,40.696018,-74.266495,,,,
MONTCLAIR,,49 CLAREMONT AVE.,,MONTCLAIR,NJ,07042,US,973-454-0976,40.813156,-74.207306,,,,
MILLBURN,,2933 VAUXHALL ROAD,,VAUXHALL,NJ,07088,US,908-687-6284,40.720798,-74.288315,,,,
WEST ORANGE,,651 EAGLE ROCK AVENUE,,WEST ORANGE,NJ,07052,US,973-325-7355,40.810371,-74.259300,,,,
UPPER MONTCLAIR,,590 VALLEY ROAD,,UPPER MONTCLAIR,NJ,07043,US,973-746-4848,40.840523,-74.208290,,,,
LIVINGSTON,,95 EAST MOUNT PLEASANT AVENUE,,LIVINGSTON,NJ,07039,US,973-422-9880,40.796982,-74.311066,,,,
GARWOOD,,702 NORTH AVENUE,UNIT F,GARWOOD,NJ,07027,US,908-317-5801,40.652729,-74.331001,,,,
SUMMIT,,545 MORRIS AVENUE,,SUMMIT,NJ,07901,US,973-819-6468,40.728420,-74.375275,,,,
EAST HANOVER,,478 RIDGEDALE AVENUE,,EAST HANOVER,NJ,07936,US,862-701-5858,40.827740,-74.356621,,,,
SADDLE BROOK,,446D MARKET STREET,,SADDLE BROOK,NJ,07663,US,201-509-5955,40.896866,-74.099098,,,,
COLONIA,,283 INMAN AVENUE,STORE #2,COLONIA,NJ,07067,US,732-943-3404,40.599926,-74.314850,,,,
SCOTCH PLAINS,,409-B PARK AVENUE,,SCOTCH PLAINS,NJ,07076,US,908-322-6699,40.650513,-74.397499,,,,
HACKENSACK,,720 MAIN STREET,,HACKENSACK,NJ,07601,US,201-518-0612,40.902570,-74.042180,,,,
WOODBRIDGE II,,10 MAIN STREET  UNIT F,,WOODBRIDGE,NJ,07095,US,732-218-7373,40.555836,-74.276825,,,,
JACKSON,,1212 WILDWOOD AVENUE,SUITE D,JACKSON,MI,49202,US,517-783-3144,42.252396,-84.429138,,,,
OKEMOS,,2199 JOLLY ROAD,SUITE #135A,OKEMOS,MI,48864,US,517-349-8599,42.682468,-84.429733,,,,
CLARENCE,,4275 TRANSIT ROAD,,WILLIAMSVILLE,NY,14221,US,716-616-0500,42.963891,-78.694467,,,,
EAST AMHERST,,1616 HOPKINS ROAD,,AMHERST,NY,14221,US,716-810-1020,43.023552,-78.737892,,,,
NIAGARA FALLS,,4725 DORCHESTER ROAD,,NIAGARA FALLS,ON,L2E 0A8,CA,289-271-9000,43.105358,-79.112183,,,,
ST. CATHARINES - SOUTH,,150 GLENDALE AVE,,ST CATHARINES,ON,L2T 2K1,CA,905-468-7041,43.133369,-79.235138,,,,
STONEY CREEK,,178 BARTON ST,UNIT 2,STONEY CREEK,ON,L8E 4W2,CA,905-648-9266,43.231819,-79.738785,,,,
STONEY CREEK MOUNTAIN,,256 MUD STREET WEST,UNIT 4,STONEY CREEK,ON,L8J 3Z6,CA,905-648-9266,43.196140,-79.792130,,,,
BURLINGTON - APPLEBY MALL,,5061 NEW ST,SUITE 206,BURLINGTON,ON,L7L 0G1,CA,905-631-9064,43.367992,-79.753349,,,,
HAMILTON - CENTRAL MOUNTAIN,,21 STONE CHURCH WEST,,HAMILTON,ON,L9B 1A1,CA,905-570-7684,43.211090,-79.890495,,,,
BURLINGTON - GUELPH LINE & FAIRVIEW,,678 GUELPH LINE  UNIT 4,,BURLINGTON,ON,L7R 3M8,CA,905-336-1414,43.343765,-79.793411,,,,
OAKVILLE - OLD OAKVILLE,,635 FOURTH LINE,UNIT 48,OAKVILLE,ON,L6L 5B3,CA,905-599-2002,43.433636,-79.700478,,,,
OAKVILLE - MAPLE GROVE,,610 FORD DR,UNIT 1A,OAKVILLE,ON,L6J 7V7,CA,905-901-1267,43.488247,-79.651550,,,,
HAMILTON - WEST END,,318 DUNDURN ST SOUTH,UNIT 6,HAMILTON,ON,L8P 4L6,CA,905-572-6284,43.252060,-79.892479,,,,
OAKVILLE - GLEN ABBEY,,1469 NOTTINGHILL GATE,,OAKVILLE,ON,L6M 1X7,CA,905-338-5773,43.445587,-79.731720,,,,
BURLINGTON - NORTHWEST,,2025 GUELPH LINE  UNIT 143B,,BURLINGTON,ON,L7P 4M8,CA,905-592-2595,43.366653,-79.822212,,,,
MISSISSAUGA - CLARKSON,,2425 TRUSCOTT DRIVE  UNIT 13E,,MISSISSAUGA,ON,L5J 2B4,CA,905-916-8777,43.512535,-79.648796,,,,
ETOBICOKE - MIMICO,,3003B LAKE SHORE BLVD WEST,,ETOBICOKE,ON,M8V 1K2,CA,416-487-9229,43.599998,-79.507744,,,,
TORONTO - RIVERDALE,,611 GERRARD ST E,,TORONTO,ON,M4M 1Y3,CA,416-463-4288,43.665554,-79.351372,,,,
BURLINGTON - NORTHEAST,,2455 APPLEBY LINE  UNIT C07,,BURLINGTON,ON,L7L 0B6,CA,289-787-0555,43.405048,-79.805191,,,,
TORONTO - CHINATOWN,,222 SPADINA AVE,UNIT C6,TORONTO,ON,M5T 2C2,CA,647-795-1415,43.650963,-79.397903,,,,
TORONTO - THE BEACHES,,2480-2490 GERRARD ST E,,TORONTO,ON,M1N 4C3,CA,647-352-8615,43.687542,-79.286140,,,,
OAKVILLE - WEST OAK,,2525 OLD BRONTE ROAD  UNIT 170,,OAKVILLE,ON,L6M 4J2,CA,905-599-7989,43.435661,-79.775604,,,,
OAKVILLE - RIVER OAKS,,2530 SIXTH LINE  UNIT #9,,OAKVILLE,ON,L6H 6W5,CA,905-901-1917,43.476372,-79.726547,,,,
TORONTO - CABBAGETOWN,,543A PARLIAMENT ST,,TORONTO,ON,M4X 1P7,CA,416-939-2300,43.666222,-79.368607,,,,
TORONTO - RONCESVALLES,,15 RONCESVALLES AVENUE  2ND FLOOR,,TORONTO,ON,M6R 2K2,CA,416-639-1000,43.639256,-79.446114,,,,
OAKVILLE - JOSHUA CREEK,,2501 PRINCE MICHAEL DRIVE,,OAKVILLE,ON,L6H 0E9,CA,905-901-3780,43.497971,-79.707199,,,,
TORONTO - DANFORTH VILLAGE,,1577 DANFORTH AVENUE,UNIT #5,TORONTO,ON,M4C 1H7,CA,416-487-6000,43.683376,-79.322960,,,,
WATERDOWN,,115 MAIN ST SOUTH,,WATERDOWN,ON,L0R 2H0,CA,905-719-1709,43.330978,-79.890076,,,,
TORONTO - THE DANFORTH,,463 DANFORTH AVE,2ND FLOOR,TORONTO,ON,M4K 1P1,CA,416-850-3623,43.677639,-79.350098,,,,
MISSISSAUGA - HURON PARK,,830 PAISLEY BLVD W,,MISSISSAUGA,ON,L5C 3P5,CA,647-232-8013,43.559135,-79.633392,,,,
MISSISSAUGA - APPLEWOOD VILLAGE,,1077 NORTH SERVICE RD  UNIT 35,,MISSISSAUGA,ON,L4Y 1A6,CA,905-232-1320,43.591648,-79.575775,,,,
SCARBOROUGH - WESTBOURNE,,79 WESTBOURNE AVE,,SCARBOROUGH,ON,M1L 2Y6,CA,416-221-9502,43.704483,-79.290565,,,,
ANCASTER,,240 WILSON ST E,UNIT 8,ANCASTER,ON,L9G 2B7,CA,905-648-5400,43.223370,-79.978287,,,,
TORONTO - ANNEX,,188 LOWTHER AVE,,TORONTO,ON,M5R 1E8,CA,416-249-5302,43.668503,-79.406647,,,,
MISSISSAUGA - ERIN MILLS WEST,,29 - 3355 THE COLLEGEWAY,,MISSISSAUGA,ON,L5L 5T3,CA,905-607-7330,43.524544,-79.704659,,,,
DUNDAS,,1 LYNNDALE DRIVE,,DUNDAS,ON,L9H 3L4,CA,905-570-7684,43.259243,-79.968979,,,,
MISSISSAUGA - SOUTH COMMON,,3535 SOUTH COMMON COURT,,MISSISSAUGA,ON,L5L 2B3,CA,647-323-3120,43.543060,-79.685265,,,,
TORONTO - BLOOR WEST VILLAGE,,14A JANE ST,,TORONTO,ON,M6S 3Y2,CA,416-767-6799,43.649727,-79.484856,,,,
ETOBICOKE - ISLINGTON & NORSEMAN,,200 - 1092 ISLINGTON AVE,,ETOBICOKE,ON,M8Z 4R9,CA,416-241-3233,43.636490,-79.520691,,,,
TORONTO - THORNCLIFFE PARK,,45 OVERLEA BLVD  UNIT B20,,TORONTO,ON,M4H 1C3,CA,416-244-4560,43.705597,-79.345993,,,,
MISSISSAUGA - GRAND PARK,,719 CENTRAL PARKWAY W  UNIT 210,,MISSISSAUGA,ON,L5B 4L1,CA,905-334-3441,43.577099,-79.645599,,,,
SCARBOROUGH - EASTOWN,,2642 EGLINTON AVE E,SUITE 105,SCARBOROUGH,ON,M1K 2S3,CA,416-898-7938,43.736080,-79.251114,,,,
TORONTO - DUFFERIN & ST. CLAIR,,1278 ST. CLAIR AVENUE WEST  UNIT 7,,TORONTO,ON,M6E 1B9,CA,416-839-2640,43.677177,-79.447311,,,,
TORONTO - RUNNYMEDE,,3416 DUNDAS STREET WEST  UNIT 206,,TORONTO,ON,M6S 2S1,CA,416-865-3276,43.665894,-79.485588,,,,
TORONTO - DAVISVILLE,,2040 YONGE STREET  UNIT 205,,TORONTO,ON,M4S 1Z9,CA,416-546-5051,43.701214,-79.397499,,,,
MISSISSAUGA - MISSISSAUGA VALLEY,,113 - 377 BURNHAMTHORPE RD E.,,MISSISSAUGA,ON,L5A 3Y1,CA,905-615-1234,43.602806,-79.626625,,,,
TORONTO - LEASIDE,,660 EGLINTON AVENUE EAST  SUITE 209,,TORONTO,ON,M4G 2K2,CA,416-489-3675,43.711712,-79.376244,,,,
MISSISSAUGA - CHURCHILL/EGLINTON,,2901 EGLINTON AVE W,UNIT 5,MISSISSAUGA,ON,L5M 6J3,CA,905-848-1010,43.552296,-79.716309,,,,
TORONTO - FOREST HILL,,801 EGLINTON AVE W,SUITE 105,TORONTO,ON,M5N 1E3,CA,416-614-1498,43.701252,-79.424217,,,,
MISSISSAUGA - RATHWOOD,,4120 DIXIE RD,UNIT 9,MISSISSAUGA,ON,L4W 4V8,CA,905-232-6284,43.624264,-79.605988,,,,
SCARBOROUGH - CEDARBRAE,,3482 LAWRENCE AVE E,UNIT 207,SCARBOROUGH,ON,M1H 3E5,CA,416-289-9771,43.760128,-79.227135,,,,
EL CENTRO,,1560 OCOTILLO DRIVE,SUITE D,EL CENTRO,CA,92243,US,760-352-7050,32.777550,-115.571350,,,,
ROCKLEDGE,,3819 MURRELL ROAD,SUITE A,ROCKLEDGE,FL,32955,US,321-632-0900,28.293875,-80.721375,,,,
SATELLITE BEACH,,1024 HIGHWAY A1A,SUITE #150,SATELLITE BEACH,FL,32937,US,321-777-3704,28.185438,-80.594040,,,,
PALM BAY - NORTH,,820 PALM BAY ROAD N.E.,SUITE 113,PALM BAY,FL,32905,US,321-373-3733,28.033440,-80.648598,,,,
VERO BEACH,,703 17TH STREET,,VERO BEACH,FL,32960,US,321-432-7751,27.631952,-80.387779,,,,
FORT MYERS - VILLAS,,6631 ORION DRIVE,SUITE #108,FORT MYERS,FL,33912,US,239-322-7698,26.545723,-81.848091,,,,
FORT WAYNE - WEST,,4916 ILLINOIS ROAD,SUITE #102,FORT WAYNE,IN,46804,US,260-459-6500,41.075741,-85.205505,,,,
FORT WAYNE - NORTH,,10130 AUBURN PARK DRIVE,,FORT WAYNE,IN,46825,US,260-489-6500,41.175800,-85.114334,,,,
GRANGER,,14500 STATE ROAD 23,,GRANGER,IN,46530,US,574-273-3032,41.736935,-86.149826,,,,
PORTAGE,,295 W. CENTRE STREET,,PORTAGE,MI,49024,US,269-327-3757,42.200600,-85.590830,,,,
BATTLE CREEK,,90B S. 20TH STREET,,BATTLE CREEK,MI,49015,US,269-963-8088,42.298218,-85.218941,,,,
LAREDO,,2715 DEL MAR BOULEVARD,UNIT A3,LAREDO,TX,78045,US,956-237-0869,27.580160,-99.456390,,,,
MIDLOTHIAN - SWIFT CREEK SOUTH,,13922 HULL STREET ROAD,,MIDLOTHIAN,VA,23112,US,804-601-3313,37.405182,-77.662308,,,,
RICHMOND - REGENCY,,8974 QUIOCCASIN ROAD,,RICHMOND,VA,23229,US,804-221-2903,37.605460,-77.570493,,,,
HENRICO - WEST TOWER,,8906- I WEST BROAD STREET,,RICHMOND,VA,23294,US,804-887-7707,37.636177,-77.544693,,,,
MIDLOTHIAN - WESTCHESTER COMMONS,,321 SCHOFIELD DRIVE,,MIDLOTHIAN,VA,23113,US,804-893-5115,37.514141,-77.695427,,,,
GLEN ALLEN - SHORT PUMP,,4300 POUNCEY TRACT,SUITE #7,GLEN ALLEN,VA,23060,US,804-869-4019,37.655018,-77.611382,,,,
MADISON - WEST,,6504 ODANA ROAD,,MADISON,WI,53719,US,608-827-9631,43.055019,-89.491768,,,,
GENEVA,,2401 KANEVILLE RD.,SPACE 7,GENEVA,IL,60134,US,630-262-3322,41.883644,-88.339111,,,,
RENO - MAYBERRY LANDING,,3890 MAYBERRY DRIVE,,RENO,NV,89519,US,775-954-0900,39.506260,-119.859451,,,,
RENO - SOUTH,,1111 STEAMBOAT PARKWAY,SUITE# 400,RENO,NV,89521,US,775-954-0909,39.423664,-119.739555,,,,
BOISE,,12505 WEST CHINDEN BOULEVARD,SUITE M,BOISE,ID,83713,US,208-947-8286,43.662071,-116.338135,,,,
FREDERICKSBURG - NORTHWEST,,20 PLANTATION DRIVE,SUITE #115,FREDERICKSBURG,VA,22406,US,540-368-3050,38.353973,-77.506409,,,,
CHARLOTTESVILLE,,225 CONNOR DRIVE,,CHARLOTTESVILLE,VA,22911,US,434-973-9040,38.127815,-78.442245,,,,
BRISTOW,,10490 BRISTOW CENTER DRIVE,SUITE A3,BRISTOW,VA,20136,US,703-334-0727,38.732323,-77.550064,,,,
GAINESVILLE,,7555 SOMERSET CROSSING DRIVE,SUITE #15,GAINESVILLE,VA,20155,US,703-468-2668,38.793205,-77.628868,,,,
VICTORVILLE - EAST,,12180 RIDGECREST ROAD,SUITE #432,VICTORVILLE,CA,92395,US,760-952-3456,34.473049,-117.277908,,,,
HOOVER,,3744 LORNA ROAD,,HOOVER,AL,35216,US,205-444-9485,33.379707,-86.800949,,,,
HUNTSVILLE - SOUTHEAST,,2030 CECIL ASHBURN DRIVE,SUITE #103,HUNTSVILLE,AL,35802,US,256-881-7117,34.671520,-86.537018,,,,
MONTGOMERY - CENTRAL,,1655 PERRY HILL ROAD,,MONTGOMERY,AL,36106,US,334-279-1400,32.355309,-86.242126,,,,
MONTGOMERY - SOUTHEAST,,8125 VAUGHN ROAD,,MONTGOMERY,AL,36116,US,334-649-1178,32.338757,-86.172935,,,,
AUBURN - OPELIKA,,1550 OPELIKA ROAD #9,,AUBURN,AL,36830,US,334-501-8586,32.624051,-85.446780,,,,
SPOKANE - SOUTHEAST,,4902 E SPRAGUE AVENUE,SUITE B,SPOKANE VALLEY,WA,99212,US,509-532-8660,47.656780,-117.338478,,,,
JOHNSTON,,5800 MERLE HAY ROAD,SUITE #2,JOHNSTON,IA,50131,US,515-225-8666,41.666775,-93.698959,,,,
WEST DES MOINES,,5934 ASHWORTH ROAD,,WEST DES MOINES,IA,50266,US,515-225-8666,41.583786,-93.788979,,,,
WILMINGTON - CROSSROADS CENTER,,890-1 SOUTH KERR AVENUE,,WILMINGTON,NC,28403,US,910-796-0307,34.220741,-77.886856,,,,
PITTSFORD,,2851 CLOVER STREET,,PITTSFORD,NY,14534,US,585-385-2680,43.086403,-77.543732,,,,
FAIRPORT,,6720 PITTSFORD-PALMYRA ROAD,,FAIRPORT,NY,14450,US,585-223-7564,43.070340,-77.441600,,,,
BELLEVILLE,,138 WALLBRIDGE LOYALIST RD,,BELLEVILLE,ON,K8N 4Z2,CA,613-394-7049,44.146549,-77.429314,,,,
LIVERPOOL,,4979 WEST TAFT ROAD,,LIVERPOOL,NY,13088,US,315-715-6005,43.123032,-76.169922,,,,
BOWMANVILLE,,1 HARTWELL AVE  SUITE 102,,BOWMANVILLE,ON,L1C 0N1,CA,289-276-2767,43.904545,-78.699524,,,,
DEWITT,,4463 EAST GENESEE STREET,,DEWITT,NY,13214,US,315-928-3700,43.035522,-76.066322,,,,
OSHAWA - SOUTH,,1413 HIGHWAY 2  UNIT 8,,COURTICE,ON,L1E 2J6,CA,289-240-5757,43.906105,-78.811012,,,,
WHITBY - WHITBY MALL,,1615 DUNDAS ST E  UNIT 43,,WHITBY,ON,L1N 2L1,CA,905-683-0980,43.884956,-78.910599,,,,
OSHAWA - NORTH,,1050 SIMCOE ST N  UNIT 107,,OSHAWA,ON,L1G 4W5,CA,905-240-8786,43.925667,-78.876183,,,,
WHITBY - NORTH,,3500 BROCK ST N  UNIT 5B,,WHITBY,ON,L1R 3J4,CA,905-430-2006,43.906979,-78.954765,,,,
AJAX - SOUTH,,105 BAYLY ST W  UNIT 24B,,AJAX,ON,L1S 7K7,CA,905-426-3843,43.842022,-79.022331,,,,
AJAX - CENTRAL,,145 KINGSTON ROAD EAST  UNIT 2,,AJAX,ON,L1S 7J4,CA,416-525-6832,43.861958,-79.017746,,,,
PETERBOROUGH - WEST,,1837 LANSDOWNE ST W,UNIT 4A,PETERBOROUGH,ON,K9K 1R4,CA,705-741-6286,44.274738,-78.373589,,,,
AJAX - TAUNTON,,1995 SALEM ROAD,UNIT 3,AJAX,ON,L1T 0J9,CA,905-391-7485,43.897774,-79.030800,,,,
PICKERING - EAST,,1792 LIVERPOOL ROAD,UNIT 103,PICKERING,ON,L1V 4G6,CA,416-525-6832,43.832344,-79.091362,,,,
PICKERING - WEST,,375 KINGSTON RD  UNIT 4A,,PICKERING,ON,L1V 1A3,CA,905-509-2266,43.809261,-79.128311,,,,
SCARBOROUGH - WEST ROUGE,,111 ISLAND RD,UNIT 1,SCARBOROUGH,ON,M1C 2P7,CA,416-286-1200,43.798256,-79.138069,,,,
SCARBOROUGH - WEST HILL,,201  4218 LAWRENCE AVE E,,SCARBOROUGH,ON,M1E 4X9,CA,647-219-0880,43.769409,-79.184517,,,,
KINGSTON - WEST,,745 BAYRIDGE DR,,KINGSTON,ON,K7P 2P2,CA,613-483-3470,44.251667,-76.591446,,,,
SCARBOROUGH - MORNINGSIDE,,1154 MORNINGSIDE AVE,UNITS 201 & 202,SCARBOROUGH,ON,M1B 3A4,CA,416-364-6220,43.801250,-79.200447,,,,
KINGSTON - CENTRAL,,16 BATH RD  UNIT 23,,KINGSTON,ON,K7L 1C4,CA,613-546-8808,44.240482,-76.512604,,,,
SCARBOROUGH - SCARBOROUGH TOWN CENTRE,,1240 ELLESMERE ROAD,,SCARBOROUGH,ON,M1P 2X4,CA,647-436-8982,43.768936,-79.266617,,,,
SCARBOROUGH - MALVERN,,720 TAPSCOTT RD  SUITE 203,,SCARBOROUGH,ON,M1X 1C6,CA,416-412-7733,43.814709,-79.237762,,,,
SCARBOROUGH - WEXFORD,,2131 LAWRENCE AVE EAST,SUITE 106,SCARBOROUGH,ON,M1R 5G4,CA,647-219-0880,43.746025,-79.288620,,,,
SCARBOROUGH - CHARTWELL PLAZA,,216 - 2375 BRIMLEY RD,,SCARBOROUGH,ON,M1S 3L6,CA,416-291-1238,43.798344,-79.272408,,,,
SCARBOROUGH - PARKWOODS,,2167 VICTORIA PARK AVE  UNIT 202,,SCARBOROUGH,ON,M1R 1V5,CA,416-269-7227,43.758892,-79.315002,,,,
SCARBOROUGH - HUNTINGWOOD,,2190 WARDEN AVE  UNIT G6-G8A,,SCARBOROUGH,ON,M1T 1V6,CA,416-727-3893,43.779869,-79.309059,,,,
SCARBOROUGH - ALTON TOWERS,,240 ALTON TOWERS CIRCLE  UNIT 103,,SCARBOROUGH,ON,M1V 4P2,CA,416-297-6200,43.826488,-79.277275,,,,
SCARBOROUGH - AGINCOURT NORTH,,3850 FINCH AVE EAST,UNIT G9,SCARBOROUGH,ON,M1T 3T6,CA,416-754-0013,43.800331,-79.300423,,,,
MARKHAM - CORNELL,,UNIT 4  106 CORNELL PARK AVE,,MARKHAM,ON,L6B 1B6,CA,905-471-5478,43.889519,-79.232658,,,,
NORTH YORK - DON MILLS,,895 LAWRENCE AVE E,UNIT 19,TORONTO,ON,M3C 3L2,CA,416-331-8118,43.736137,-79.347916,,,,
MARKHAM - SOUTH,,2401 DENISON STREET,,MARKHAM,ON,L3S 1G3,CA,416-412-7733,43.840698,-79.280556,,,,
MARKHAM - MARKHAM VILLAGE,,5762 HIGHWAY 7 EAST  UNIT 15,,MARKHAM,ON,L3P 1A8,CA,905-415-8666,43.872448,-79.266464,,,,
NORTH YORK - FAIRVIEW,,80 GEORGE HENRY BOULEVARD,,NORTH YORK,ON,M2J 1E7,CA,416-249-5302,43.773384,-79.350227,,,,
COLUMBUS - NORTH,,1290 DOUBLE CHURCHES ROAD,SUITE K,COLUMBUS,GA,31904,US,706-257-6963,32.555580,-84.973885,,,,
WARNER ROBINS,,500 OSIGIAN BOULEVARD,SUITE #100,WARNER ROBINS,GA,31088,US,478-953-9450,32.613422,-83.697205,,,,
MACON - NORTHWEST,,4357 FORSYTH ROAD,SUITE #265,MACON,GA,31210,US,478-254-6980,32.868652,-83.695984,,,,
SHREVEPORT,,5884 LINE AVE.,,SHREVEPORT,LA,71106,US,318-868-6008,32.455105,-93.746056,,,,
OSWEGO,,2440 U.S. ROUTE 30,SUITE B107,OSWEGO,IL,60543,US,630-229-6083,41.717743,-88.316635,,,,
AURORA - SOUTHEAST,,2942 OGDEN AVE,,AURORA,IL,60504,US,630-926-8538,41.741982,-88.243675,,,,
NAPERVILLE - SOUTH,,2744 FORGUE DRIVE,,NAPERVILLE,IL,60564,US,630-926-8538,41.714931,-88.204582,,,,
PLAINFIELD - NORTH,,11850 SOUTH ROUTE 59,SUITE 200,PLAINFIELD,IL,60585,US,815-733-5002,41.667034,-88.205917,,,,
SHOREWOOD - JOLIET,,18622 SOUTH ROUTE 59,UNIT D1,SHOREWOOD,IL,60404,US,815-267-8888,41.544594,-88.200752,,,,
YONKERS - SOUTHEAST,,819 YONKERS AVENUE,,YONKERS,NY,10704,US,914-237-4977,40.921322,-73.862038,,,,
BEDFORD PARK,,237 EAST 204TH STREET,,BRONX,NY,10458,US,917-751-1888,40.874561,-73.884659,,,,
EASTCHESTER,,15 JOHN R. ALBANESE PLACE,,EASTCHESTER,NY,10709,US,914-661-6372,40.949066,-73.818573,,,,
CLOSTER,,223 CLOSTER DOCK ROAD,,CLOSTER,NJ,07624,US,201-750-3242,40.973511,-73.961845,,,,
BERGENFIELD,,52B SOUTH WASHINGTON AVE,,BERGENFIELD,NJ,07621,US,551-900-3222,40.926121,-73.996841,,,,
NORWOOD,,518 LIVINGSTON STREET,,NORWOOD,NJ,07648,US,201-297-7240,40.998981,-73.954132,,,,
NEW ROCHELLE,,555 NORTH AVENUE,,NEW ROCHELLE,NY,10801,US,914-380-8600,40.921124,-73.787094,,,,
DOBBS FERRY,,123 MAIN STREET,,DOBBS FERRY,NY,10522,US,914-231-7040,41.015488,-73.874763,,,,
TAPPAN,,111 ROUTE 303,SUITE #107,TAPPAN,NY,10983,US,845-398-0912,41.024986,-73.942566,,,,
SCARSDALE - EAST,,1477 WEAVER STREET,,SCARSDALE,NY,10583,US,914-980-7916,40.980352,-73.776047,,,,
EMERSON,,201 KINDERKAMACK ROAD,,EMERSON,NJ,07630,US,201-967-7300,40.976131,-74.025978,,,,
PARAMUS,,299 FOREST AVENUE,SUITE F,PARAMUS,NJ,07652,US,201-390-8739,40.936466,-74.051720,,,,
PARAMUS - NORTH,,440 FOREST AVENUE,,PARAMUS,NJ,07652,US,201-483-7718,40.945648,-74.050827,,,,
HARTSDALE,,96 NORTH CENTRAL AVENUE,,HARTSDALE,NY,10530,US,914-328-6284,41.021389,-73.795456,,,,
HILLSDALE,,100 PARK AVENUE,SUITE #7,HILLSDALE,NJ,07642,US,201-497-6590,41.003571,-74.042580,,,,
MAMARONECK,,1214 EAST BOSTON POST ROAD,,MAMARONECK,NY,10543,US,914-873-8338,40.954281,-73.719620,,,,
TARRYTOWN,,61 NORTH BROADWAY,STORE #7,TARRYTOWN,NY,10591,US,914-829-5288,41.078476,-73.858002,,,,
WHITE PLAINS - NORTH,,600 NORTH BROADWAY,,WHITE PLAINS,NY,10603,US,914-461-9191,41.053963,-73.768715,,,,
RIDGEWOOD,,75 NORTH MAPLE AVENUE,,RIDGEWOOD,NJ,07450,US,201-670-0076,40.980293,-74.112358,,,,
GLEN ROCK,,251 ROCK ROAD,,GLEN ROCK,NJ,07452,US,201-421-8006,40.962608,-74.129677,,,,
MONTVALE,,70 CHESTNUT RIDGE ROAD,SUITE I,MONTVALE,NJ,07645,US,201-391-0780,41.052753,-74.069672,,,,
PORT CHESTER,,32 SOUTH MAIN STREET,,PORT CHESTER,NY,10573,US,914-881-1399,40.999363,-73.664570,,,,
PORT WASHINGTON,,925 PORT WASHINGTON BLVD.,,PORT WASHINGTON,NY,11050,US,516-767-0560,40.829685,-73.683487,,,,
BAYSIDE,,220-46 NORTHERN BOULEVARD,,BAYSIDE,NY,11361,US,718-225-4743,40.761459,-73.760384,,,,
SPRING VALLEY,,5 PERLMAN PLAZA,,SPRING VALLEY,NY,10977,US,845-371-1033,41.106022,-74.031891,,,,
GREAT NECK,,400 NORTHERN BOULEVARD,SUITE #2,GREAT NECK,NY,11021,US,516-504-0888,40.778946,-73.722794,,,,
NORTH LITTLE ROCK,,4810 WEST COMMERCIAL DRIVE,SUITE B,NORTH LITTLE ROCK,AR,72116,US,501-812-5437,34.797218,-92.220276,,,,
LITTLE ROCK - WEST,,222 WELLINGTON HILLS ROAD,SUITE 200,LITTLE ROCK,AR,72211,US,501-224-7323,34.758600,-92.442750,,,,
AUGUSTA - MARTINEZ,,500 FURY'S FERRY ROAD,SUITE #502-5,MARTINEZ,GA,30907,US,706-993-2232,33.536541,-82.080841,,,,
WATKINSVILLE,,1431 CAPITAL AVENUE,SUITE #113,WATKINSVILLE,GA,30677,US,706-705-1299,33.869362,-83.447357,,,,
AMARILLO - SOUTHWEST,,8801 BUCCOLA,SUITE 400,AMARILLO,TX,79119,US,806-414-5888,35.140690,-101.939598,,,,
MOBILE - SPRING HILL,,3152 OLD SHELL ROAD,SUITE #1,MOBILE,AL,36607,US,251-447-2264,30.697960,-88.118607,,,,
GRAND RAPIDS - NORTH,,4318 PLAINFIELD AVENUE,SUITE A,GRAND RAPIDS,MI,49525,US,616-363-2880,43.041134,-85.607246,,,,
GRANDVILLE,,4365 CANAL AVE.  SW,,GRANDVILLE,MI,49418,US,616-608-8181,42.885971,-85.773415,,,,
CASCADE,,6810 OLD 28TH STREET S. E.,SUITE 6,GRAND RAPIDS,MI,49546,US,616-977-0729,42.912025,-85.500603,,,,
EAST LANSING,,909 ABBOTT ROAD,SUITE A (PORTION OF SOUTH 2ND FLOOR),EAST LANSING,MI,48823,US,517-679-1300,42.742867,-84.484062,,,,
MIDLAND,,3114-B JEFFERSON AVENUE,,MIDLAND,MI,48640,US,989-631-5866,43.627449,-84.226448,,,,
SAGINAW,,4545 STATE STREET,,SAGINAW,MI,48603,US,989-249-6284,43.436337,-84.006187,,,,
BAY CITY,,928 WASHINGTON AVE.,,BAY CITY,MI,48708,US,989-391-3161,43.599918,-83.887238,,,,
FOOTHILL VILLAGE,,1440 SOUTH FOOTHILL DRIVE,SUITE #180,SALT LAKE CITY,UT,84108,US,801-582-2223,40.738625,-111.825447,,,,
SUGAR HOUSE,,1172 EAST BRICKYARD ROAD,SUITE #47,SALT LAKE CITY,UT,84106,US,801-412-0123,40.701244,-111.858368,,,,
BOUNTIFUL,,135 NORTH 500 WEST,SUITE B,BOUNTIFUL,UT,84010,US,801-296-5999,40.890770,-111.892242,,,,
HOLLADAY,,6315 HIGHLAND DRIVE,,HOLLADAY,UT,84121,US,801-716-8343,40.636604,-111.833710,,,,
WEST JORDAN - JORDAN LANDING,,6271 S. DIXIE DRIVE (3655 W),UNIT #1,WEST JORDAN,UT,84084,US,801-449-8200,40.636400,-111.977930,,,,
SANDY,,9419 SOUTH UNION SQUARE,UNIT B,SANDY,UT,84070,US,801-572-7815,40.580292,-111.873199,,,,
SOUTH JORDAN,,10380 SOUTH REDWOOD ROAD,,SOUTH JORDAN,UT,84095,US,801-688-0008,40.562649,-111.939049,,,,
DRAPER - EAST,,1442 EAST DRAPER PARKWAY DRIVE,SUITE E,DRAPER,UT,84020,US,801-900-3456,40.526720,-111.850020,,,,
LAYTON,,1860 NORTH WOODLAND PARK DRIVE,,LAYTON,UT,84041,US,801-825-1010,41.087128,-111.983635,,,,
CLINTON,,1808 WEST 1800 NORTH,SUITE B,CLINTON,UT,84015,US,801-773-5503,41.140244,-112.060600,,,,
TALLAHASSEE - EAST,,3111 MAHAN DRIVE,SUITE 31 & 32,TALLAHASSEE,FL,32308,US,850-219-6284,30.459871,-84.225014,,,,
CHATTANOOGA - EAST,,6231 PERIMETER DRIVE,SUITE #163,CHATTANOOGA,TN,37421,US,423-485-5050,35.029518,-85.183289,,,,
ALCOA - FOOTHILLS,,158 SOUTH CALDERWOOD STREET,SUITE N,ALCOA,TN,37701,US,865-984-3131,35.760899,-83.978783,,,,
JOHNSON CITY,,3101 BROWNS MILL ROAD,SUITE #2,JOHNSON CITY,TN,37604,US,423-282-8000,36.357502,-82.395729,,,,
LONGMEADOW - SOUTH,,749 MAPLE ROAD,,LONGMEADOW,MA,01106,US,413-798-4222,42.032593,-72.554718,,,,
VERNON,,10 HYDE AVENUE,,VERNON,CT,06066,US,860-875-3500,41.859791,-72.431061,,,,
SOUTH WINDSOR,,216 HEMLOCK AVENUE,,SOUTH WINDSOR,CT,06074,US,860-644-1100,41.815094,-72.554237,,,,
EDINBURG,,2163 S.  MCCOLL ROAD,,EDINBURG,TX,78539,US,956-289-1460,26.286830,-98.197570,,,,
MISSION - SHARYLAND,,2405 BROCK STREET,SUITE A,MISSION,TX,78572,US,956-445-5363,26.223227,-98.282806,,,,
EAST LYME,,179 FLANDERS ROAD,UNIT #1,NIANTIC,CT,06357,US,860-739-7323,41.362279,-72.209493,,,,
GLASTONBURY,,30 HEBRON AVENUE,,GLASTONBURY,CT,06033,US,860-633-7323,41.712204,-72.607368,,,,
CUMMING - EAST,,1668 BUFORD HIGHWAY,,CUMMING,GA,30041,US,770-329-0766,34.162342,-84.119438,,,,
WINDSOR,,153 JOHNSON STREET,,WINDSOR,CA,95492,US,707-838-8308,38.546612,-122.812836,,,,
SIOUX FALLS,,3616 SOUTHEASTERN DRIVE,,SIOUX FALLS,SD,57103,US,605-371-2319,43.510864,-96.687836,,,,
SPRINGFIELD - SOUTH,,4127 S. KANSAS EXPRESSWAY,SUITE 112,SPRINGFIELD,MO,65807,US,417-881-3800,37.139599,-93.320419,,,,
LOWELL,,112 SOUTH DIXIELAND ROAD,,LOWELL,AR,72745,US,479-770-0055,36.254295,-94.145668,,,,
FAYETTEVILLE,,1806 NORTH CROSSOVER ROAD,SUITE #1,FAYETTEVILLE,AR,72701,US,479-595-8765,36.086254,-94.119789,,,,
BEND,,155 SOUTHWEST CENTURY DRIVE,SUITE #103,BEND,OR,97702,US,541-728-0176,44.048859,-121.332413,,,,
APTOS,,8035 SOQUEL DRIVE,SUITE 43,APTOS,CA,95003,US,831-345-8377,36.977490,-121.901470,,,,
SANTA CRUZ,,181 WALNUT AVENUE,,SANTA CRUZ,CA,95060,US,831-423-6284,36.972866,-122.027939,,,,
AVON,,56 EAST MAIN STREET,,AVON,CT,06001,US,860-676-9100,41.807920,-72.825910,,,,
WEST HARTFORD,,1020 BOULEVARD,,WEST HARTFORD,CT,06119,US,860-616-3005,41.760254,-72.715851,,,,
NEWINGTON,,2434 BERLIN TURNPIKE,UNIT #15 & 16,NEWINGTON,CT,06111,US,860-666-5200,41.684490,-72.708221,,,,
MIDDLETOWN,,779 NEWFIELD STREET,,MIDDLETOWN,CT,06457,US,860-632-2700,41.580425,-72.673134,,,,
CHESHIRE,,15 SOUTH MAIN STREET,,CHESHIRE,CT,06410,US,203-651-6474,41.498749,-72.901810,,,,
NORTH HAVEN,,310 WASHINGTON AVENUE,UNIT #6,NORTH HAVEN,CT,06473,US,203-836-2112,41.404074,-72.847262,,,,
HAMDEN,,2340 WHITNEY AVENUE,,HAMDEN,CT,06518,US,203-823-9576,41.382641,-72.902519,,,,
SOUTHBURY,,1450 SOUTHFORD ROAD,SUITE L3,SOUTHBURY,CT,06488,US,203-267-3030,41.463989,-73.162415,,,,
WOODBRIDGE,,134 AMITY ROAD,,NEW HAVEN,CT,06515,US,203-881-6170,41.337433,-72.979317,,,,
BROOKFIELD,,640 FEDERAL ROAD,UNIT #19,BROOKFIELD,CT,06804,US,203-775-9333,41.470253,-73.410294,,,,
NEWTOWN,,266 S. MAIN STREET,,NEWTOWN,CT,06470,US,203-426-4500,41.368671,-73.272850,,,,
SHELTON,,702 BRIDGEPORT AVENUE,SUITE #303,SHELTON,CT,06484,US,203-260-9759,41.275467,-73.122299,,,,
TRUMBULL,,2 CORPORATE DRIVE,SUITE #102,TRUMBULL,CT,06611,US,203-794-6586,41.295574,-73.228134,,,,
MILFORD,,670 BOSTON POST ROAD,UNIT A2,MILFORD,CT,06460,US,203-881-6170,41.232731,-73.061409,,,,
DANBURY,,425 MAIN STREET,SUITE #3,DANBURY,CT,06810,US,203-744-7773,41.404465,-73.459190,,,,
STRATFORD,,2505 MAIN STREET,STORE 4  BUILDING 2,STRATFORD,CT,06615,US,203-378-5300,41.194954,-73.132553,,,,
FAIRFIELD,,2391 BLACK ROCK TURNPIKE,,FAIRFIELD,CT,06825,US,203-373-1074,41.183361,-73.255478,,,,
THE WOODLANDS - SOUTH,,574 SAWDUST ROAD,,SPRING,TX,77380,US,281-419-4434,30.126770,-95.451424,,,,
ROSENBERG,,24102 COMMERCIAL DRIVE,SUITE #402,ROSENBERG,TX,77471,US,281-725-8615,29.546267,-95.752014,,,,
FAIRFIELD - DOWNTOWN,,1139 POST ROAD,,FAIRFIELD,CT,06824,US,203-955-1070,41.143974,-73.253143,,,,
WESTPORT,,179 POST ROAD WEST,,WESTPORT,CT,06880,US,203-227-7798,41.135933,-73.369614,,,,
WILTON,,101 OLD RIDGEFIELD ROAD,,WILTON,CT,06897,US,203-423-2396,41.193089,-73.432915,,,,
NORWALK,,612 WEST AVENUE,,NORWALK,CT,06850,US,203-286-3516,41.113457,-73.415810,,,,
DARIEN,,899 BOSTON POST ROAD,,DARIEN,CT,06820,US,203-202-8045,41.077393,-73.469994,,,,
RIDGEFIELD,,90 EAST RIDGE,,RIDGEFIELD,CT,06877,US,203-790-7040,41.281460,-73.494484,,,,
STAMFORD,,111 HIGH RIDGE ROAD,SUITE 14 & 15,STAMFORD,CT,06905,US,203-348-8401,41.075771,-73.549011,,,,
STONYBROOK,,232 NORTH BELLE MEADE ROAD,,EAST SETAUKET,NY,11733,US,631-487-1005,40.895752,-73.089020,,,,
SMITHTOWN,,60 TERRY ROAD,STORE E,SMITHTOWN,NY,11787,US,631-656-0799,40.852287,-73.173843,,,,
COS COB,,132 EAST PUTNAM AVENUE,,COS COB,CT,06807,US,914-433-1116,41.037590,-73.600822,,,,
COMMACK,,6096 JERICHO TURNPIKE,,COMMACK,NY,11725,US,631-462-3300,40.841011,-73.304008,,,,
SOMERS,,325 ROUTE 100,SUITE #B202,SOMERS,NY,10589,US,914-772-8521,41.326241,-73.687881,,,,
MT. KISCO,,337 MAIN STREET,,MT. KISCO,NY,10549,US,914-864-0577,41.198620,-73.724617,,,,
HUNTINGTON - SOUTH,,326 WALT WHITMAN ROAD,,HUNTINGTON,NY,11746,US,631-689-9409,40.818356,-73.410720,,,,
SYOSSET,,125 JACKSON AVENUE,,SYOSSET,NY,11791,US,516-364-1050,40.822730,-73.502190,,,,
MANORVILLE,,460 COUNTY ROAD 111,STORE #7,MANORVILLE,NY,11949,US,631-399-1991,40.867393,-72.794754,,,,
PLEASANTVILLE,,8 PAULDING STREET,,PLEASANTVILLE,NY,10570,US,914-661-6372,41.131477,-73.790703,,,,
YORKTOWN HEIGHTS,,2025 CROMPOND ROAD,,YORKTOWN HEIGHTS,NY,10598,US,914-432-3202,41.277042,-73.784027,,,,
PLAINVIEW,,1163 OLD COUNTRY ROAD  STORE #9,,PLAINVIEW,NY,11803,US,516-433-3434,40.776489,-73.467346,,,,
WEST ISLIP,,796 UDALL ROAD,,WEST ISLIP,NY,11795,US,631-487-1005,40.726414,-73.298790,,,,
HICKSVILLE,,495 SOUTH BROADWAY,STORE SUITE #10,HICKSVILLE,NY,11801,US,516-933-8533,40.757156,-73.510414,,,,
FARMINGDALE,,279 MAIN STREET,,FARMINGDALE,NY,11735,US,516-293-2933,40.732700,-73.445580,,,,
OSSINING,,2 TODD PLACE,2ND FLOOR,OSSINING,NY,10562,US,914-923-0900,41.165939,-73.857498,,,,
MOHEGAN LAKE,,1950 EAST MAIN STREET,STORE # 3,MOHEGAN LAKE,NY,10547,US,914-528-0118,41.319653,-73.857483,,,,
LEVITTOWN,,3060 L HEMPSTEAD TURNPIKE,,LEVITTOWN,NY,11756,US,516-520-1500,40.724464,-73.522591,,,,
ALBERTSON,,1174 WILLIS AVENUE,,ALBERTSON,NY,11507,US,516-625-8666,40.776096,-73.649857,,,,
EAST MEADOW,,2072 FRONT STREET,,EAST MEADOW,NY,11554,US,516-794-2870,40.723858,-73.559593,,,,
NEW HARTFORD,,4520 COMMERCIAL DRIVE,,NEW HARTFORD,NY,13413,US,315-768-4147,43.084255,-75.319901,,,,
POOLER,,208 GRAND CENTRAL BLVD.,SUITE 200,POOLER,GA,31322,US,912-920-8899,32.134145,-81.257164,,,,
WAYNE - SOUTH,,580 VALLEY ROAD,,WAYNE,NJ,07470,US,973-694-9434,40.931473,-74.226692,,,,
WYCKOFF,,386 FRANKLIN AVENUE,SUITE #104,WYCKOFF,NJ,07481,US,201-425-9255,41.009258,-74.171753,,,,
OAKLAND,,350 RAMAPO VALLEY ROAD,SUITE #100,OAKLAND,NJ,07436,US,201-405-0222,41.023926,-74.241127,,,,
RAMSEY,,73 AND 75 W. MAIN STREET,,RAMSEY,NJ,07446,US,201-574-0205,41.057228,-74.144669,,,,
PARSIPPANY,,3191 ROUTE 46,,PARSIPPANY,NJ,07054,US,973-316-9700,40.870360,-74.423810,,,,
SUFFERN,,12 INDIAN ROCK,,SUFFERN,NY,10901,US,845-418-2467,41.113770,-74.128880,,,,
DENVILLE - DOWNTOWN,,123 EAST MAIN STREET,SUITE 28,DENVILLE,NJ,07834,US,973-625-9559,40.888767,-74.480644,,,,
BRIGHT`S GROVE,,2587 LAKESHORE RD,,BRIGHT'S GROVE,ON,N0N 1C0,CA,519-899-2329,43.028809,-82.240685,,,,
CEDAR RAPIDS - NORTHEAST,,7085 C AVENUE NORTHEAST,SUITE A4,CEDAR RAPIDS,IA,52402,US,319-373-8540,42.048866,-91.639809,,,,
WOODBRIDGE,,ONE WOODBRIDGE CENTER,SUITE #300,WOODBRIDGE,NJ,07095,US,732-896-7747,40.558670,-74.296562,,,,
EDISON - NORTH,,1121 INMAN AVE,,EDISON,NJ,08820,US,908-755-7729,40.595963,-74.363190,,,,
EDISON - PARSONAGE ROAD,,141 ROUTE 27,,EDISON,NJ,08820,US,732-640-2255,40.560230,-74.338470,,,,
SOUTH PLAINFIELD,,3600 PARK AVENUE,UNIT K,SOUTH PLAINFIELD,NJ,07080,US,908-753-0111,40.576607,-74.393028,,,,
METUCHEN,,414 MAIN STREET,,METUCHEN,NJ,08840,US,732-318-6320,40.541763,-74.361221,,,,
BERKELEY HEIGHTS,,489 SPRINGFIELD AVENUE,,BERKELEY HEIGHTS,NJ,07922,US,908-725-2857,40.684109,-74.441460,,,,
PISCATAWAY,,1030 STELTON ROAD,SUITE #101,PISCATAWAY,NJ,08854,US,732-981-1340,40.551674,-74.433144,,,,
SAYREVILLE - PARLIN,,2909 WASHINGTON ROAD,,PARLIN,NJ,08859,US,732-721-3200,40.467529,-74.312172,,,,
EDISON - SOUTH,,270 LORING AVENUE,,EDISON,NJ,08817,US,732-572-0647,40.513012,-74.405167,,,,
MINEOLA,,131 JERICHO TURNPIKE,SUITE A,MINEOLA,NY,11501,US,516-478-8313,40.749062,-73.640091,,,,
FLORAL PARK,,267-06 A HILLSIDE AVENUE,,FLORAL PARK,NY,11004,US,718-962-2574,40.738766,-73.701607,,,,
CROTON-ON-HUDSON,,2065 ALBANY POST ROAD,,CROTON-ON-THE-HUDSON,NY,10520,US,914-734-9356,41.239922,-73.920715,,,,
NEW CITY,,170 SOUTH MAIN STREET,,NEW CITY,NY,10956,US,845-638-1014,41.141190,-73.989639,,,,
WAPPINGERS FALLS,,265 NEW HACKENSACK ROAD,,WAPPINGERS FALLS,NY,12590,US,845-463-2790,41.626091,-73.884254,,,,
YAKIMA,,2610 WEST NOB HILL BLVD.,,YAKIMA,WA,98902,US,509-823-4116,46.585396,-120.544243,,,,
BRASELTON - VINEYARDS,,2095 HWY 211 NORTHWEST,STORE #5-B,BRASELTON,GA,30517,US,770-913-6474,34.102894,-83.812225,,,,
DACULA - HAMILTON MILL,,3523 BRASELTON HIGHWAY,SUITE C-900,DACULA,GA,30019,US,678-546-6725,34.069279,-83.911842,,,,
BUFORD - BOGAN PARK,,3280 HAMILTON MILL ROAD,SUITE #302,BUFORD,GA,30519,US,404-974-9933,34.094166,-83.936356,,,,
ALLENTOWN - WEST,,4612 BROADWAY ROAD,,ALLENTOWN,PA,18104,US,610-967-3265,40.586086,-75.559113,,,,
BETHLEHEM,,3650 NAZARETH PIKE,ROUTE 191,BETHLEHEM,PA,18017,US,610-967-3265,40.670494,-75.346268,,,,
EASTON,,1700 SULLIVAN TRAIL,,EASTON,PA,18040,US,484-373-4511,40.716225,-75.222633,,,,
READING - WYOMISSING,,840 PARK ROAD,,WYOMISSING,PA,19610,US,610-927-5338,40.346756,-75.958511,,,,
LEBANON,,56 PAYNE ROAD,UNIT #9,LEBANON,NJ,08833,US,908-735-2020,40.596348,-74.873985,,,,
FLEMINGTON,,18 COMMERCE STREET,STORESUITE #4,FLEMINGTON,NJ,08822,US,908-581-4561,40.495327,-74.856171,,,,
WHITEHOUSE STATION,,73 OLD ROUTE 28,,WHITEHOUSE,NJ,08888,US,908-938-2596,40.619656,-74.749939,,,,
MT. OLIVE,,7 NAUGHRIGHT ROAD,UNIT U,MT. OLIVE,NJ,07840,US,908-852-6868,40.850510,-74.782580,,,,
BRANCHBURG,,1260 ROUTE 28,SUITE #4,BRANCHBURG,NJ,08876,US,732-325-2511,40.606026,-74.694305,,,,
HILLSBOROUGH,,340 SOUTH BRANCH ROAD,SUITE #432,HILLSBOROUGH,NJ,08844,US,908-704-6796,40.508373,-74.683304,,,,
CHESTER,,85 WEST MAIN STREET,,CHESTER,NJ,07930,US,908-380-9680,40.782242,-74.699974,,,,
HILLSBOROUGH 2,,438 ROUTE 206,,HILLSBOROUGH,NJ,08844,US,908-359-1234,40.503120,-74.644958,,,,
SOMERVILLE,,11-45 ROUTE 206,,RARITAN,NJ,08869,US,908-393-1876,40.568480,-74.625790,,,,
BASKING RIDGE,,546 ALLEN ROAD,,BASKING RIDGE,NJ,07920,US,908-234-2529,40.654110,-74.620308,,,,
BRIDGEWATER,,1321 PRINCE RODGERS AVE.,,BRIDGEWATER,NJ,08807,US,908-722-2677,40.588276,-74.610802,,,,
SKILLMAN,,1330 ROUTE 206,SUITE J,SKILLMAN,NJ,08558,US,908-281-9886,40.404991,-74.650230,,,,
BERNARDSVILLE,,75 CLAREMONT ROAD,SUITE #200,BERNARDSVILLE,NJ,07924,US,908-766-5900,40.720551,-74.571114,,,,
FRANKLIN PARK,,3151 ROUTE 27,UNIT D,FRANKLIN PARK,NJ,08823,US,732-422-4777,40.436550,-74.542946,,,,
BEAUMONT - WEST,,3825 WEST LUCAS DRIVE,SUITE C,BEAUMONT,TX,77706,US,409-860-9584,30.116053,-94.147102,,,,
THE WOODLANDS - EAST,,4747 RESEARCH FOREST DRIVE,,THE WOODLANDS,TX,77381,US,832-562-4646,30.185072,-95.490486,,,,
THE WOODLANDS - ALDEN BRIDGE,,8021 RESEARCH FOREST DRIVE,SUITE C,THE WOODLANDS,TX,77382,US,281-353-6925,30.208344,-95.529182,,,,
THE WOODLANDS - WEST,,8000 MCBETH WAY,SUITE #180,THE WOODLANDS,TX,77382,US,832-432-0090,30.182600,-95.558922,,,,
CYPRESS - FAIRFIELD,,15202 MASON ROAD,SUITE #500,CYPRESS,TX,77433,US,281-304-6284,29.994862,-95.737335,,,,
BLOOMINGTON,,1701 E. EMPIRE STREET,SUITE 300,BLOOMINGTON,IL,61704,US,309-829-5053,40.485439,-88.950111,,,,
PEORIA,,8863 N. KNOXVILLE AVE.,STORE #15,PEORIA,IL,61615,US,309-691-7308,40.794178,-89.608444,,,,
CHAMPAIGN,,405 WEST WINDSOR PLACE,,CHAMPAIGN,IL,61820,US,217-359-2323,40.083019,-88.248802,,,,
COLUMBIA,,3401 BROADWAY BUSINESS PARK COURT,SUITE #111,COLUMBIA,MO,65203,US,573-446-6668,38.954769,-92.387421,,,,
JEFFERSON CITY,,3702 WEST TRUMAN BOULEVARD,SUITE #222,JEFFERSON CITY,MO,65109,US,573-636-0202,38.588802,-92.255470,,,,
NORWICH,,256 ROUTE FIVE SOUTH,,NORWICH,VT,05055,US,802-649-1416,43.699350,-72.317190,,,,
CAPE ELIZABETH,,327 OCEAN HOUSE ROAD,,CAPE ELIZABETH,ME,04107,US,207-767-1850,43.593788,-70.227539,,,,
SURREY - WHITE ROCK,,101B - 3237 KING GEORGE BLVD,,SURREY,BC,V4P 1B7,CA,778-294-7323,49.060444,-122.812843,,,,
LANGLEY - WILLOWBROOK,,5 - 19950 WILLOWBROOK DR,,LANGLEY,BC,V2Y 1K9,CA,778-278-3400,49.116280,-122.670319,,,,
SURREY - CLOVERDALE,,102  17618 58TH AVE,,SURREY,BC,V3S 1L3,CA,778-574-7715,49.107624,-122.734711,,,,
LANGLEY - WALNUT GROVE,,20999 88TH AVE,101 E,LANGLEY,BC,V1M 2C9,CA,1866-504 4724,49.162777,-122.638130,,,,
DELTA - SUNSHINE HILLS,,6345 120 ST  SUITE 119,,DELTA,BC,V4E 2A6,CA,778-263-0335,49.118313,-122.890717,,,,
SURREY - NEWTON CROSSING,,7130 KING GEORGE BLVD,UNIT 103,SURREY,BC,V3W 5A3,CA,604-595-1468,49.132816,-122.844536,,,,
SURREY - FLEETWOOD,,15955 FRASER HWY  UNIT 202,,SURREY,BC,V4N 0Y3,CA,604-518-8428,49.159153,-122.779541,,,,
GREEN BAY,,114 NORTH BROADWAY ST,,DE PERE,WI,54115,US,920-983-0466,44.449260,-88.060400,,,,
MERRILLVILLE,,5176 E. 81ST AVE.,,MERRILLVILLE,IN,46410,US,219-945-0846,41.471111,-87.273918,,,,
TILLSONBURG,,UNIT B  67 TILLSON AVENUE,,TILLSONBURG,ON,N4G 3A2,CA,519-842-7935,42.864086,-80.723351,,,,
BRANTFORD,,50 MARKET STREET SOUTH  UNIT 120,,BRANTFORD,ON,N3S 2E3,CA,226-400-4441,43.135860,-80.261551,,,,
LONDON - WHITE OAKS,,1071 WELLINGTON RD  SUITE 201 & 203,,LONDON,ON,N6E 1W4,CA,519-685-5655,42.934723,-81.225266,,,,
LONDON - WESTMOUNT SHOPPING CENTRE,,204 - 785 WONDERLAND RD S,,LONDON,ON,N6K 1M6,CA,519-679-0881,42.947601,-81.292549,,,,
LONDON - HIGHBURY & HURON,,1295 HIGHBURY AVE N  UNIT A4A,,LONDON,ON,N5Y 5L3,CA,519-913-3380,43.020584,-81.216782,,,,
CAMBRIDGE - SOUTH,,75 DUNDAS STREET  UNIT 4,,CAMBRIDGE,ON,N1R 6G5,CA,519-623-5515,43.358574,-80.291351,,,,
LONDON - NORTHWEST,,1225 WONDERLAND RD NORTH,UNIT 5,LONDON,ON,N6G 2V9,CA,519-455-7552,43.004898,-81.305298,,,,
LONDON - NORTHEAST,,203 - 235 NORTH CENTRE RD,,LONDON,ON,N5X 4E7,CA,519-643-7108,43.029243,-81.283409,,,,
CAMBRIDGE - CENTRAL,,500 CAN-AMERA PKWY,UNIT C,CAMBRIDGE,ON,N1T 0A2,CA,519-884-5318,43.405617,-80.285538,,,,
NORTH CAMBRIDGE,,201A PRESTON PARKWAY,(NEAR HWY 40 & HWY 8),CAMBRIDGE,ON,N3H 5E8,CA,519-841-5153,43.399014,-80.376144,,,,
KITCHENER - PIONEER VILLAGE,,10 PIONEER VILLAGE DRIVE  SUITE 202,,KITCHENER,ON,N2P 1A4,CA,519-888-1955,43.390808,-80.437866,,,,
KITCHENER - COUNTRY HILLS,,325 MAX BECKER DR  SUITE 103,,KITCHENER,ON,N2E 4H5,CA,519-746-5887,43.404800,-80.500778,,,,
KITCHENER - STANLEY PARK,,1375 WEBER ST E,UNIT 108,KITCHENER,ON,N2A 3Y7,CA,519-513-2018,43.432098,-80.441132,,,,
KITCHENER - IRA NEEDLES/HIGHLAND,,235 IRA NEEDLES BLVD  UNIT 10,,KITCHENER,ON,N2N 0B2,CA,519-741-9898,43.425510,-80.553635,,,,
KITCHENER - EVERGREEN MALL,,370 HIGHLAND RD W,UNIT 17A,KITCHENER,ON,N2M 5J9,CA,519-743-2300,43.438141,-80.511688,,,,
GUELPH - SOUTH,,31 FARLEY DR  UNIT E,(O/A UNIT 4),GUELPH,ON,N1L 0B7,CA,519-824-6668,43.502747,-80.187775,,,,
MILTON - WEST,,6941 DERRY RD W.  SUITE 206,,MILTON,ON,L9T 7H5,CA,905-864-1002,43.496384,-79.872810,,,,
MILTON  - EAST,,611 HOLLY AVE  UNIT 206,,MILTON,ON,L9T 0K4,CA,905-864-0033,43.511444,-79.855301,,,,
WATERLOO - NORTH,,370 UNIVERSITY AVE E,UNIT 203B,WATERLOO,ON,N2K 3N2,CA,519-342-1748,43.489483,-80.494957,,,,
WATERLOO-ERBSVILLE/LAURELWOOD,,606 LAURELWOOD DRIVE  UNIT 318,,WATERLOO,ON,N2V 0A2,CA,519-577-7070,43.471710,-80.593369,,,,
GUELPH - NORTHWEST,,UNIT 101  105 SILVER CREEK PARKWAY,,GUELPH,ON,N1H 6S4,CA,519-836-7000,43.539032,-80.277733,,,,
MILTON - JAMES SNOW & MAIN,,81 JAMES SNOW PARKWAY  5,,MILTON,ON,L9T 0R3,CA,289-350-1210,43.539402,-79.857735,,,,
GUELPH - NORTHEAST,,259 GRANGE ROAD  UNIT 1B,,GUELPH,ON,N1E 6R5,CA,226-326-1254,43.557499,-80.229424,,,,
KATY - FIRETHORNE,,1708 SPRING GREEN BLVD.,SUITE #160,KATY,TX,77494,US,281-712-4181,29.764300,-95.841590,,,,
KATY - CINCO RANCH SOUTHWEST,,5215 F.M. 1463,SUITE #675,KATY,TX,77494,US,281-712-2882,29.717900,-95.846210,,,,
LATHAM,,515 TROY SCHENECTADY ROAD,,LATHAM,NY,12110,US,518-313-4090,42.749218,-73.762611,,,,
GUILDERLAND,,10 NEW KARNER ROAD,,GUILDERLAND,NY,12084,US,518-596-0150,42.699043,-73.887444,,,,
CLIFTON PARK,,1407 ROUTE 9 BLD. 1,,CLIFTON PARK,NY,12065,US,518-371-4715,42.825430,-73.733070,,,,
MONROE,,109 STAGE ROAD,,MONROE,NY,10950,US,845-783-8621,41.327415,-74.187157,,,,
LAKE JACKSON,,201 HIGHWAY 332 WEST,SUITE 201A,LAKE JACKSON,TX,77566,US,979-417-2017,29.046072,-95.463783,,,,
LANCASTER,,1185 ERBS QUARRY ROAD  STE.#6,,LITITZ,PA,17543,US,717-560-3866,40.121296,-76.340996,,,,
HARRISBURG - PAXTONIA,,6011 ALLENTOWN BOULEVARD,SUITE E-126,HARRISBURG,PA,17112,US,717-540-0100,40.320747,-76.786598,,,,
MECHANICSBURG,,6499 CARLISLE PIKE,,MECHANICSBURG,PA,17050,US,717-610-2050,40.245388,-77.022926,,,,
DAYTON,,485 GEORGES ROAD,SUITE #116,DAYTON,NJ,08810,US,732-329-6600,40.381050,-74.518471,,,,
JAMESBURG - MONROE,,200 BUCKELEW AVENUE,SUITE C,JAMESBURG,NJ,08831,US,732-421-8500,40.346577,-74.433472,,,,
NORTH BRUNSWICK,,2178 ROUTE 130,,NORTH BRUNSWICK,NJ,08902,US,732-422-2119,40.435284,-74.485847,,,,
NORTH BRUNSWICK 2,,2223 US ROUTE 1,,NORTH BRUNSWICK,NJ,08902,US,732-658-1876,40.447010,-74.498180,,,,
SOMERSET - SOUTHEAST,,1705 ROUTE 27,,SOMERSET,NJ,08873,US,786-543-5040,40.464455,-74.502258,,,,
EAST BRUNSWICK,,575 CRANBURY ROAD,SUITE B5,EAST BRUNSWICK,NJ,08816,US,732-257-2252,40.412594,-74.418594,,,,
SPOTSWOOD,,420 MAIN STREET,,SPOTSWOOD,NJ,08884,US,732-658-5147,40.394260,-74.386421,,,,
FREEHOLD,,420 MOUNTS CORNER DRIVE,,FREEHOLD,NJ,07728,US,732-734-4580,40.241920,-74.305410,,,,
EAST BRUNSWICK II,,49 WEST PROSPECT STREET,,EAST BRUNSWICK,NJ,08816,US,732-698-9928,40.454861,-74.397179,,,,
MORGANVILLE,,184 HIGHWAY 9,,MARLBORO,NJ,07746,US,732-972-9722,40.346207,-74.306648,,,,
SOMERSET,,1075 EASTON AVENUE,,SOMERSET,NJ,08873,US,732-247-7199,40.516689,-74.488144,,,,
OLD BRIDGE II,,3671 HIGHWAY 9  NORTH,,OLD BRIDGE,NJ,08857,US,732-709-3057,40.375927,-74.306396,,,,
MARLBORO,,455 COUNTY ROAD 520,NEWMAN SPRINGS ROAD,MARLBORO,NJ,07746,US,732-780-7705,40.332729,-74.246758,,,,
HOWELL,,4554 ROUTE 9 SOUTH,,HOWELL,NJ,07731,US,732-889-4385,40.140266,-74.227264,,,,
SURREY - STRAWBERRY HILL,,12088 75A AVE,UNIT 2,SURREY,BC,V3W 1Y4,CA,604-759-5700,49.139870,-122.888161,,,,
MAPLE RIDGE,,103 - 22550 DEWDNEY TRUNK RD,,MAPLE RIDGE,BC,V2X 3J9,CA,604-477-7795,49.220078,-122.597092,,,,
SURREY - GUILDFORD,,9 - 10160 152 ST,,SURREY,BC,V3R 9W3,CA,604-588-5808,49.187027,-122.800125,,,,
DELTA - NORTH,,11962 88 AVE,,DELTA,BC,V4C 3C8,CA,604-349-6488,49.162670,-122.891830,,,,
SURREY - CEDAR HILLS,,12830 96 AVENUE,,SURREY,BC,V3V 6A8,CA,604-401-5550,49.176147,-122.867104,,,,
SURREY - CITY CENTRE,,10076 KING GEORGE HWY,,SURREY,BC,V3T 2W4,CA,604-345-4635,49.185612,-122.845390,,,,
PITT MEADOWS,,19150 LOUGHEED HWY  UNIT 131,,PITT MEADOWS,BC,V3Y 2H6,CA,604-449-3555,49.230564,-122.691238,,,,
DELTA - SOUTH,,4906 DELTA STREET,,DELTA,BC,V4K 2V2,CA,778-840-8407,49.092148,-123.086624,,,,
RICHMOND - HAMILTON,,23200 GILLEY RD  UNIT 145,,RICHMOND,BC,V6V 2L6,CA,604-767-5708,49.176563,-122.967026,,,,
NEW WESTMINSTER,,983 CARNARVON STREET,,NEW WESTMINSTER,BC,V3M 1G2,CA,604-515-2666,49.201012,-122.915413,,,,
POCO - TOWN KINGSWAY,,2071 KINGSWAY AVE,UNIT 101,PORT COQUITLAM,BC,V3C 6N2,CA,778-216-2306,49.259544,-122.774529,,,,
POCO - HYDE CREEK,,106 - 3377 COAST MERIDIAN RD,,PORT COQUITLAM,BC,V3B 3N6,CA,604-771-6814,49.273373,-122.756691,,,,
COQUITLAM - AUSTIN HEIGHTS,,1210 AUSTIN AVE,,COQUITLAM,BC,V3K 3P5,CA,778-822-1210,49.248665,-122.858368,,,,
BURNABY - EASTBURN,,7418 6TH ST,,BURNABY,BC,V3N 3L6,CA,778-397-7673,49.224991,-122.934807,,,,
COQUITLAM CENTRE,,203 - 2773 BARNET HIGHWAY,,COQUITLAM,BC,V3B 1C2,CA,604-944-1223,49.278473,-122.807205,,,,
BURNABY - SOUTH SLOPE,,7777 ROYAL OAK AVENUE  UNIT 101,,BURNABY,BC,V5J 4K2,CA,604-449-7877,49.213371,-122.988937,,,,
BURNABY - LOUGHEED TOWN CENTRE,,9632 CAMERON ST,,BURNABY,BC,V3J 7N3,CA,604-339-9548,49.253441,-122.897850,,,,
PORT MOODY - NEWPORT,,221 IOCO ROAD  UNIT 340,,PORT MOODY,BC,V3H 5H1,CA,778-731-0505,49.283703,-122.827415,,,,
BURNABY - DEER LAKE,,5151 CANADA WAY,,BURNABY,BC,V5E 3N1,CA,604-652-4868,49.239082,-122.962288,,,,
BURNABY - METROTOWN,,5000 KINGSWAY  UNIT 230,,BURNABY,BC,V5H 2E4,CA,604-436-1188,49.225830,-122.992416,,,,
RICHMOND - GARDEN CITY,,8040 GARDEN CITY RD  UNIT 150,,RICHMOND,BC,V6Y 2N9,CA,604-271-9881,49.154827,-123.124626,,,,
RICHMOND - ODLINWOOD,,4871 SHELL ROAD  UNIT 1105,,RICHMOND,BC,V6X 3Z6,CA,778-732-0380,49.177620,-123.103775,,,,
VANCOUVER - BOUNDARY PLAZA,,3665 KINGSWAY  UNIT 130,,VANCOUVER,BC,V5R 5W2,CA,604-324-8876,49.232655,-123.024200,,,,
RICHMOND - WEST,,120 - 6751 WESTMINSTER HWY,,RICHMOND,BC,V7C 4V4,CA,604-275-2183,49.170753,-123.153664,,,,
BURNABY - KENSINGTON SQUARE,,6542 HASTINGS STREET  UNIT 201,,BURNABY,BC,V5B 1S2,CA,604-676-0017,49.280285,-122.968437,,,,
VANCOUVER - SOUTH,,5550 FRASER ST,UNIT 1,VANCOUVER,BC,V5W 2Z4,CA,604-635-1162,49.234310,-123.090149,,,,
BURNABY - BURNABY HEIGHTS,,4725 HASTINGS ST,,BURNABY,BC,V5C 2K8,CA,604-298-9829,49.280994,-122.996658,,,,
VANCOUVER - MARPOLE,,204  8268 GRANVILLE STREET,,VANCOUVER,BC,V6P 4Z4,CA,778-321-2637,49.211521,-123.140099,,,,
VANCOUVER - CEDAR COTTAGE,,1219 KINGSWAY,,VANCOUVER,BC,V5V 3E2,CA,778-885-5026,49.251993,-123.079230,,,,
VANCOUVER - FIRST AVE,,204 - 2800 EAST 1ST AVE,,VANCOUVER,BC,V5M 4N9,CA,604-828-3283,49.268761,-123.046326,,,,
VANCOUVER - KERRISDALE,,2031 WEST 41ST AVENUE  UNIT 201,,VANCOUVER,BC,V6M 1Y7,CA,604-270-2977,49.234787,-123.152992,,,,
NORTH VANCOUVER - PARK & TILFORD,,101 - 1515 BARROW ST,,NORTH VANCOUVER,BC,V7J 1B7,CA,778-708-2323,49.304230,-123.031425,,,,
VANCOUVER - FAIRVIEW,,610 W 8TH AVENUE,,VANCOUVER,BC,V5Z 1C8,CA,604-272-5802,49.264046,-123.118118,,,,
VANCOUVER-WESTSIDE,,3584 WEST 16TH AVE,,VANCOUVER,BC,V6R 3C1,CA,604-222-0182,49.257587,-123.184387,,,,
NORTH VANCOUVER - LYNN VALLEY,,105 - 1258 LYNN VALLEY RD,,NORTH VANCOUVER,BC,V7J 2A3,CA,604-202-6862,49.336880,-123.039505,,,,
NORTH VANCOUVER - CAPILANO MALL,,935 MARINE DRIVE,SUITE 303,NORTH VANCOUVER,BC,V7P 1S3,CA,778-822-6284,49.322761,-123.099068,,,,
WEST VANCOUVER,,1410 CLYDE AVE  2ND FLOOR,,WEST VANCOUVER,BC,V7T 1G1,CA,604-913-2369,49.328556,-123.154976,,,,
HOLLIS,,205-09A HILLSIDE AVENUE,,HOLLIS,NY,11423,US,718-805-0565,40.721264,-73.760315,,,,
ST. ALBANS,,180-29 LINDEN BLVD.,,ST. ALBANS,NY,11434,US,718-657-5864,40.692284,-73.765556,,,,
RANDOLPH,,500 ROUTE 10 WEST,UNIT 3,RANDOLPH,NJ,07869,US,973-927-9559,40.863243,-74.567841,,,,
DENVILLE - SOUTH,,3108 ROUTE 10 WEST,SUITE #1,DENVILLE,NJ,07834,US,973-337-2223,40.869308,-74.513741,,,,
LEWISBURG,,534 NORTH DERR DRIVE,SUITE #2,LEWISBURG,PA,17837,US,570-523-0033,40.968807,-76.892494,,,,
WARREN,,31 K MOUNTAIN BOULEVARD,,WARREN,NJ,07059,US,908-755-3394,40.620350,-74.488487,,,,
MIDDLETOWN,,425 EAST MAIN STREET,,MIDDLETOWN,DE,19709,US,302-464-3050,39.451000,-75.701035,,,,
DOVER,,1151-D EAST LEBANON ROAD,ROUTE 10 PLAZA,DOVER,DE,19901,US,302-257-3111,39.118782,-75.511063,,,,
MAYS LANDING,,4450 BLACK HORSE PIKE,SUITE 3932,MAYS LANDING,NJ,08330,US,609-625-9400,39.451019,-74.647400,,,,
FALMOUTH,,390 US ROUTE 1,UNIT #5,FALMOUTH,ME,04105,US,207-781-4089,43.742481,-70.219070,,,,
LEESBURG - EAST,,635 POTOMAC STATION DRIVE,,LEESBURG,VA,20176,US,571-446-8388,39.097538,-77.528122,,,,
NORTHFIELD,,543 TILTON ROAD,SUITE #543,NORTHFIELD,NJ,08225,US,609-833-2212,39.383257,-74.555819,,,,
TOMS RIVER,,1561 ROUTE 9,SUITE #5,TOMS RIVER,NJ,08755,US,732-818-7828,40.005772,-74.212830,,,,
GEORGETOWN,,21141 STERLING AVENUE,SUITE #5,GEORGETOWN,DE,19947,US,302-854-9491,38.698657,-75.367520,,,,
MATAWAN,,443 ROUTE 34,SUITE J,MATAWAN,NJ,07747,US,732-566-2882,40.421890,-74.262924,,,,
ABERDEEN,,1070 ROUTE 34,,MATAWAN,NJ,07747,US,732-290-2334,40.399960,-74.229164,,,,
MIDDLETOWN,,1275 ROUTE 35,,MIDDLETOWN,NJ,07748,US,732-706-2777,40.400272,-74.117134,,,,
OCEANSIDE,,250 MERRICK ROAD,,OCEANSIDE,NY,11572,US,516-992-0167,40.653378,-73.627052,,,,
MERRICK,,71 MERRICK AVENUE,,MERRICK,NY,11566,US,516-206-4200,40.665802,-73.553322,,,,
VALLEY STREAM,,178 WEST MERRICK ROAD,,VALLEY STREAM,NY,11580,US,516-872-5772,40.666330,-73.703700,,,,
HEWLETT,,1586 BROADWAY,,HEWLETT,NY,11557,US,516-406-1000,40.645260,-73.692924,,,,
DUNCAN - COWICHAN,,2753 CHARLOTTE RD,,DUNCAN,BC,V9L 5J2,CA,250-743-3510,48.762047,-123.688553,,,,
SHREWSBURY,,555 SHREWSBURY AVENUE,,SHREWSBURY,NJ,07702,US,732-758-9802,40.332283,-74.072861,,,,
ETOBICOKE - BURNHAMTHORPE MALL,,666 BURNHAMTHORPE RD,,ETOBICOKE,ON,M9C 2Z4,CA,416-231-1400,43.641312,-79.576927,,,,
DELSON - CANDIAC,,81G BOULEVARD GEORGES-GAGNÉ S,,DELSON,QC,J5B 2E6,CA,450-635-9111,45.379074,-73.550827,,,,
CHÂTEAUGUAY,,72 BOUL ST-JEAN BAPTISTE  SUITE 137,,CHÂTEAUGUAY,QC,J6K 4Y7,CA,450-692-2555,45.361866,-73.712845,,,,
BROSSARD,,7900 BOUL TASCHEREAU  A101,,BROSSARD,QC,J4X 1C2,CA,450-465-9966,45.452244,-73.467682,,,,
MONTRÉAL - LASALLE,,7761 BOULEVARD NEWMAN,,LASALLE,QC,H8P 2M9,CA,514-364-3666,45.438065,-73.625015,,,,
MONTREAL - NOTRE DAME DE GRACE,,6387 RUE SHERBROOKE WEST,,MONTRÉAL,QC,H4B 1N1,CA,514-608-0032,45.465008,-73.626587,,,,
MONTRÉAL - DORVAL,,DORVAL AVENUE  UNIT 458,,DORVAL,QC,H9S 3H7,CA,514-300-2187,45.446121,-73.741501,,,,
ÎLE PERROT,,210A 6E AVENUE,,ÎLE PERROT,QC,J7V 4W9,CA,514-502-0980,45.394123,-73.957916,,,,
MONTRÉAL-SNOWDON,,6900 BOULEVARD DÉCARIE  BUREAU 3220,,MONTRÉAL,QC,H3X 1T8,CA,514-341-3686,45.490952,-73.650696,,,,
MONTRÉAL-POINTE-CLAIRE,,269 BOULEVARD ST-JEAN  SUITE 245M,,POINTE CLAIRE,QC,H9R 3J1,CA,514-630-5567,45.448628,-73.817749,,,,
MONTREAL - BERRI,,1058 RUE BERRI,,MONTRÉAL,QC,H2L 4X2,CA,514-944-5134,45.513130,-73.556831,,,,
VAUDREUIL-DORION,,17 CITE DES JEUNES EST BOULEVARD,LOCAL 240,VAUDREUIL-DORION,QC,J7V 0N3,CA,450-510-3456,45.386597,-74.009552,,,,
LONGUEUIL,,1185 CHEMIN DU TREMBLAY,SUITE 220,LONGUEUIL,QC,J4N 1R4,CA,450-448-3553,45.537708,-73.465462,,,,
MONTRÉAL - ACADIE-BEAUMONT,,6855 AVENUE DE L'ÉPÉE,BUREAU 100,MONTRÉAL,QC,H3N 2C7,CA,514-731-0903,45.526886,-73.619637,,,,
MONTRÉAL - PIERREFONDS-KIRKLAND,,4921-4923 BOULEVARD ST-CHARLES,,PIERREFONDS,QC,H9H 3E4,CA,514-620-0200,45.467766,-73.874687,,,,
MONTREAL - ST-LAURENT,,2016 RUE GRENET,,ST-LAURENT,QC,H4L 4Y9,CA,514-744-6648,45.520142,-73.700706,,,,
MONTRÉAL - DOLLARD-DES-ORMEAUX,,11773 BOULEVARD DE PIERREFONDS,,PIERREFONDS,QC,H9A 1A1,CA,514-965-2345,45.507492,-73.822220,,,,
LAVAL -STE DOROTHÉE,,17 BOULEVARD SAMSON,,LAVAL,QC,H7X 3S5,CA,450-314-4455,45.522449,-73.786171,,,,
MONTREAL - AHUNTSIC/ST MICHEL NORD,,1463 RUE FLEURY EST,,MONTRÉAL,QC,H2C 1S3,CA,514-994-3002,45.562168,-73.657043,,,,
MONTRÉAL - ST-LÉONARD,,8370 BLVD LACORDAIRE  2ÈME ÉTAGE  BU 4,,ST. LÉONARD,QC,H1R 3Y6,CA,514-326-5158,45.586899,-73.596962,,,,
LAVAL - DUVERNAY,,3542 BOULEVARD DE LA CONCORDE EST,SUITE B3,LAVAL,QC,H7E 2C5,CA,450-901-0127,45.594162,-73.660744,,,,
LAVAL - STE ROSE/FABREVILLE,,370 BOULEVARD CURÉ-LABELLE  SUITE 113,,LAVAL,QC,H7P 2P1,CA,450-736-6736,45.575932,-73.786095,,,,
ST-EUSTACHE,,360B  BOULEVARD ARTHUR-SAUVÉ,,SAINT-EUSTACHE,QC,J7R 2J3,CA,450-910-8338,45.561268,-73.902245,,,,
LAVAL - VIMONT,,2109 BOULEVARD DES LAURENTIDES,,LAVAL,QC,H7M 4M2,CA,450-933-1423,45.608097,-73.733894,,,,
MONTRÉAL- RIVIÈRE-DES-PRAIRIES,,11995 AVENUE PIERRE BAILLARGEON,,MONTRÉAL,QC,H1E 2E5,CA,514-452-2022,45.641113,-73.576118,,,,
SAINTE-THÉRÈSE,,SS7 - 14 RÉNÉ A. ROBERT,,SAINTE-THÉRÈSE,QC,J7E 1V6,CA,450-508-4782,45.643818,-73.833801,,,,
SPRING LAKE,,2040 HIGHWAY 35,,WALL,NJ,07719,US,732-974-5428,40.149628,-74.057091,,,,
OAKHURST,,2005 HIGHWAY 35,,OAKHURST,NJ,07755,US,732-517-0777,40.263924,-74.040863,,,,
SHERWOOD PARK - CENTRAL,,212 - 2016 SHERWOOD DR  EAST TOWER,,SHERWOOD PARK,AB,T8A 3X3,CA,780-570-5280,53.527336,-113.294075,,,,
SHERWOOD PARK - MILLENNIUM,,849 PREMIER WAY  UNIT 200,,SHERWOOD PARK,AB,T8H 0V2,CA,780-416-2842,53.556477,-113.313194,,,,
EDMONTON-TAMARACK,,2537-17 STREET NW,,EDMONTON,AB,T6T 0Y2,CA,587-402-5549,53.465057,-113.368881,,,,
EDMONTON - SCHONSEE,,16640 - 71 STREET NW  UNIT 204,,EDMONTON,AB,T5Z 0N5,CA,780-665-4700,53.628951,-113.450235,,,,
LEDUC,,4911 50TH AVENUE,,LEDUC,AB,T9E 6W7,CA,780-900-2399,53.264519,-113.551643,,,,
EDMONTON - MILLWOODS EAST,,2603 HEWES WAY NW  SUITE 209,,EDMONTON,AB,T6L 6W6,CA,780-440-3945,53.457230,-113.426147,,,,
EDMONTON - ELLERSLIE,,2330 ELLWOOD DRIVE SW  UNIT 201,,EDMONTON,AB,T6X 0A9,CA,780-490-7323,53.431385,-113.471725,,,,
EDMONTON - HERITAGE,,827 SADDLEBACK RD NW,,EDMONTON,AB,T6J 5R4,CA,780-244-0850,53.454037,-113.525530,,,,
EDMONTON - WINDERMERE,,5540 WINDERMERE BLVD  UNIT 215,,EDMONTON,AB,T6W 2Z8,CA,587-772-4222,53.439926,-113.619682,,,,
EDMONTON - RIVERBEND,,5607 RIVERBEND RD NW,,EDMONTON,AB,T6H 5K4,CA,780-433-5182,53.494312,-113.577171,,,,
EDMONTON - NORTHGATE,,9450 137 AVE NW,,EDMONTON,AB,T5E 6C2,CA,780-988-8886,53.600864,-113.488136,,,,
EDMONTON - LESSARD,,6104 172ND ST  UNIT 111,,EDMONTON,AB,T6M 1G9,CA,780-705-0054,53.496567,-113.622498,,,,
EDMONTON - CASTLE DOWN,,16743 - 100 STREET NW,,EDMONTON,AB,T5X 3Z9,CA,780-413-6299,53.629860,-113.497627,,,,
EDMONTON - TERRA LOSA,,17751 - 98A AVE,,EDMONTON,AB,T5T 5W8,CA,587-520-8993,53.533649,-113.627998,,,,
ST. ALBERT,,8 PERRON STREET  UNIT 202,,ST. ALBERT,AB,T8N 1E4,CA,780-569-3388,53.633396,-113.625366,,,,
SPRUCE GROVE - STONY PLAIN,,308 WESTGROVE DRIVE  UNIT 18,,SPRUCE GROVE,AB,T7X 4P9,CA,587-772-3000,53.539333,-113.924110,,,,
LETHBRIDGE,,505 7TH STREET SOUTH  UNIT 200,,LETHBRIDGE,AB,T1J 2G8,CA,403-329-1176,49.692623,-112.836517,,,,
HIGH RIVER,,909 1ST ST SW,,HIGH RIVER,AB,T1V 1A5,CA,403-652-1747,50.574329,-113.873848,,,,
OKOTOKS,,14 CRYSTALRIDGE DR  UNIT 104,,OKOTOKS,AB,T1S 2C3,CA,403-456-3900,50.722542,-113.957756,,,,
CALGARY - MCKENZIE LAKE,,16760 MCKENZIE LAKE BLVD SE,,CALGARY,AB,T2Z 1W3,CA,403-257-0436,50.902168,-113.990883,,,,
CALGARY - SHEPARD REGIONAL,,5222 130TH AVE SE  UNIT 374,(CORNER OF 130 AND 52 ST. SE ACROSS RBC),CALGARY,AB,T2Z 0G4,CA,403-264-2684,50.932266,-113.960274,,,,
CALGARY - MIDSUN,,208 MIDPARK WAY SE  UNIT 4,,CALGARY,AB,T2X 1J6,CA,403-256-6956,50.912956,-114.061615,,,,
CALGARY - SOUTH CENTRE,,210  11150 BONAVENTURE DR SE,,CALGARY,AB,T2J 6R9,CA,403-457-0068,50.952232,-114.058983,,,,
CALGARY - QUARRY PARK,,19 RIVERVALLEY DR. SE,,CALGARY,AB,T2C 3S1,CA,587-433-4000,50.972477,-114.016541,,,,
CALGARY - BRAESIDE,,22  11440 BRAESIDE DR SW,,CALGARY,AB,T2W 3N4,CA,403-681-0814,50.952984,-114.116287,,,,
CALGARY - HERITAGE,,909 HERITAGE DRIVE SW,,CALGARY,AB,T2V 2W8,CA,403-313-4949,50.979576,-114.084007,,,,
CHESTERMERE,,105B MARINA ROAD,,CHESTERMERE,AB,T1X 1V7,CA,403-456-3210,51.053146,-113.824562,,,,
CALGARY - EAST SIDE 17TH,,5430 17TH AVE SE,UNIT 136,CALGARY,AB,T2A 1J3,CA,403-870-5177,51.038292,-113.955910,,,,
CALGARY - MARDA LOOP,,2136 33RD AVE SW,,CALGARY,AB,T2T 1Z6,CA,403-249-3463,51.024319,-114.111458,,,,
CALGARY - WESTBROOK,,1610-37 STREET SW  UNIT 214,,CALGARY,AB,T3C 3P1,CA,403-251-4911,51.039585,-114.139969,,,,
CALGARY - SUNRIDGE HORIZON,,100  3821 27TH STREET NE,,CALGARY,AB,T1Y 7G2,CA,403-293-7093,51.087315,-113.995209,,,,
CALGARY - WESTSIDE,,6490 OLD BANFF COACH RD  SW SUITE 204,,CALGARY,AB,T3H 5R8,CA,403-226-8738,51.060894,-114.181175,,,,
CALGARY - CASTLERIDGE,,50 - 55 CASTLERIDGE BLVD NE,,CALGARY,AB,T3J 3J8,CA,403-863-2882,51.105320,-113.946370,,,,
CALGARY - FOOTHILLS,,4703 BOWNESS ROAD NW  15,,CALGARY,AB,T3B 0B5,CA,403-282-8244,51.072716,-114.161255,,,,
CALGARY - THORNCLIFFE,,102 - 4803 CENTRE ST NW,,CALGARY,AB,T2E 2Z6,CA,403-407-5910,51.094917,-114.062881,,,,
CALGARY - DALHOUSIE,,4039 BRENTWOOD ROAD NW,,CALGARY,AB,T2L 1L1,CA,403-226-8738,51.088818,-114.133041,,,,
CALGARY - SKYVIEW,,UNIT 1213  55 SKYVIEW RANCH ROAD NE,,CALGARY,AB,T3N 0E4,CA,403-398-5533,51.160339,-113.959816,,,,
CALGARY - COUNTRY HILLS,,106 - 30 COUNTRY HILLS LANDING NW,,CALGARY,AB,T3K 5P4,CA,403-818-5287,51.142925,-114.071251,,,,
CALGARY - SCENIC ACRES,,8555 SCURFIELD DRIVE NW,,CALGARY,AB,T3L 1Z6,CA,403-208-7369,51.120380,-114.211769,,,,
CALGARY - HAMPTONS,,333 EDGEPARK BLVD NW,,CALGARY,AB,T3A 4K4,CA,403-547-0752,51.136627,-114.158890,,,,
CALGARY - CREEKSIDE,,12424 SYMONS VALLEY RD NW,UNIT 15,CALGARY,AB,T3P 0A3,CA,403-547-0752,51.165234,-114.129196,,,,
CALGARY - ROYAL OAK,,7211 - 8650 112 AVE NW,,CALGARY,AB,T3R 0R5,CA,403-926-7332,51.152241,-114.211205,,,,
AIRDRIE,,2145 SUMMERFIELD BLVD SE  UNIT 9,,AIRDRIE,AB,T4B 1X5,CA,403-912-2972,51.273384,-114.011795,,,,
SALISBURY,,274 TILGHMAN ROAD,,SALISBURY,MD,21804,US,410-219-3339,38.367321,-75.549339,,,,
COCHRANE,,205 1ST STREET EAST  UNIT 8,,COCHRANE,AB,T4C 1X6,CA,403-907-0480,51.188328,-114.464996,,,,
GRANDE PRAIRIE,,10514 67 AVENUE  UNIT 101,,GRANDE PRAIRIE,AB,T8W 0K8,CA,587-771-1260,55.140968,-118.789948,,,,
VERNON,,4895 BELLA VISTA RD,,VERNON,BC,V1H 1A1,CA,250-307-7174,50.263222,-119.303482,,,,
KELOWNA,,103  2041 HARVEY AVE,,KELOWNA,BC,V1Y 6G7,CA,250-808-6284,49.881268,-119.447495,,,,
NANAIMO - APPLECROSS,,6421 APPLECROSS RD  UNIT 5,,NANAIMO,BC,V9V 1N1,CA,250-390-2411,49.235466,-124.043419,,,,
PRINCE GEORGE - OSPIKA,,3689 MASSEY DRIVE,,PRINCE GEORGE,BC,V2N 4E6,CA,250-563-8482,53.899002,-122.790184,,,,
WINNIPEG - RIVER PARK,,8 - 1500 DAKOTA ST,,WINNIPEG,MB,R2N 3Y7,CA,204-232-6284,49.810349,-97.095375,,,,
WINNIPEG - FORT GARRY,,14 - 1325 MARKHAM RD,,WINNIPEG,MB,R3T 4J6,CA,204-275-8425,49.802547,-97.164864,,,,
WINNIPEG - SOUTHDALE,,50 LAKEWOOD BLVD  150,,WINNIPEG,MB,R2J 2M7,CA,204-254-4136,49.853981,-97.079697,,,,
WINNIPEG - RIVER HEIGHTS,,12 - 1700 CORYDON AVE,,WINNIPEG,MB,R3N 0K1,CA,204-488-8838,49.863239,-97.197266,,,,
WINNIPEG - GARDEN CITY,,1099 KINGSBURY AVE,UNIT 2,WINNIPEG,MB,R2P 2P9,CA,204-515-3311,49.951941,-97.153559,,,,
KENORA CAS,,1290 HEENAN PLACE,,KENORA,ON,P9N 2Y8,CA,807-465-4065,49.781155,-94.460655,,,,
FREDERICTON,,403 REGENT STREET,UNIT  201,FREDERICTON,NB,E3B 3X6,CA,506-472-0203,45.955032,-66.644463,,,,
HALIFAX,,480 PARKLAND DR  UNIT 10,,HALIFAX,NS,B3S 1P9,CA,902-464-1043,44.670998,-63.676529,,,,
ST. JOHN`S,,141 TORBAY RD  UNIT 5,,ST. JOHN'S,NL,A1A 2H1,CA,709-726-2228,47.591789,-52.711170,,,,
STITTSVILLE,,108 - 1300 STITTSVILLE MAIN ST,,STITTSVILLE,ON,K2S 1A3,CA,613-831-2577,45.265442,-75.930222,,,,
KANATA - SOUTH,,430 HAZELDEAN ROAD  UNIT 5,,KANATA,ON,K2L 1T9,CA,613-963-0362,45.300888,-75.882072,,,,
KANATA - NORTH,,1023 TERON ROAD,,KANATA,ON,K2K 1R2,CA,613-270-0440,45.330532,-75.900230,,,,
OTTAWA - BARRHAVEN,,4 - 896 GREENBANK RD,,OTTAWA,ON,K2J 1S8,CA,613-825-4040,45.285683,-75.756340,,,,
OTTAWA - CENTREPOINTE,,261 CENTREPOINTE DR  UNIT 1-6,,OTTAWA,ON,K2G 6E8,CA,613-864-9384,45.339035,-75.771515,,,,
OTTAWA - CARLING,,2249 CARLING AVENUE  UNIT 103,,OTTAWA,ON,K2B 7E9,CA,613-714-0653,45.369286,-75.774361,,,,
OTTAWA - RIVERSIDE SOUTH,,671 RIVER RD  UPSTAIRS,,GLOUCESTER,ON,K1V 2G2,CA,613-822-0002,45.269508,-75.697365,,,,
OTTAWA - MERIVALE,,1508 MERIVALE ROAD  UNIT 6/7,,NEPEAN,ON,K2G 3J6,CA,613-519-6966,45.357407,-75.738106,,,,
OTTAWA - THE GLEBE,,796 BANK STREET,,OTTAWA,ON,K1S 3V8,CA,613-319-8080,45.402798,-75.688362,,,,
OTTAWA - ALTA VISTA,,1644 BANK STREET  SUITE 110,,OTTAWA,ON,K1V 7Y6,CA,613-627-4891,45.376884,-75.666702,,,,
NORTH GRENVILLE,,KEMPTVILLE MALL HWY 43 W,,KEMPTVILLE,ON,K0G 1J0,CA,613-406-5866,45.018066,-75.657082,,,,
OTTAWA - HUNT CLUB,,UNIT 00 - 4 LORRY GREENBERG DR,,OTTAWA,ON,K1G 5H6,CA,613-807-6284,45.369114,-75.620888,,,,
OTTAWA - ST LAURENT,,967 ST. LAURENT BLVD,,OTTAWA,ON,K1K 3B1,CA,613-440-2480,45.429806,-75.640121,,,,
ORLEANS - NORTH,,2288 ST JOSEPH BLVD,UNIT 2,ORLEANS,ON,K1C 1E8,CA,613-864-8696,45.468014,-75.531151,,,,
ORLEANS - FALLINGBROOK,,10TH LINE RD,,ORLEANS,ON,K1E 3E8,CA,613-830-5433,45.480820,-75.499130,,,,
PEMBROKE CAS,,464 ISABELLA ST,,PEMBROKE,ON,K8A 5T9,CA,613-735-1215,45.822716,-77.124832,,,,
PETAWAWA CAS,,22 LEEDER LANE,,PETAWAWA,ON,K8H 0B8,CA,613-585-8205,45.894962,-77.256721,,,,
UXBRIDGE,,65 BROCK ST W,UNIT 3,UXBRIDGE,ON,L9P 1P5,CA,289-465-6002,44.108696,-79.123413,,,,
STOUFFVILLE,,6601 MAIN ST  UNIT 10,,STOUFFVILLE,ON,L4A 6A9,CA,905-640-5078,43.972969,-79.236923,,,,
MARKHAM - MOUNT JOY,,9889 HIGHWAY 48,UNIT 5,MARKHAM,ON,L6E 0B7,CA,905-554-0935,43.906288,-79.265730,,,,
MARKHAM - UNIONVILLE,,33 THE BRIDLE TRAIL  UNIT 1,,MARKHAM,ON,L3R 4E7,CA,905-946-1969,43.876465,-79.309250,,,,
MARKHAM - ANGUS GLEN,,3990 MAJOR MACKENZIE DRIVE EAST,,MARKHAM,ON,L6C 1P8,CA,905-205-0009,43.894554,-79.336136,,,,
MARKHAM - MILLIKEN,,7130 WARDEN AVE  UNIT 202,,MARKHAM,ON,L3R 1S2,CA,647-833-8933,43.824062,-79.326141,,,,
MARKHAM - BUTTONVILLE,,8865 WOODBINE AVE,UNIT D4,MARKHAM,ON,L3R 5G1,CA,905-477-2937,43.857876,-79.359795,,,,
MARKHAM - CATHEDRALTOWN,,735 MARKLAND ST  UNIT B1-9,,MARKHAM,ON,L6C 0G6,CA,905-888-7666,43.886457,-79.373356,,,,
HUNTSVILLE,,33 MAIN STREET EAST,,HUNTSVILLE,ON,P1H 2B8,CA,705-788-1336,45.326050,-79.218086,,,,
BRACEBRIDGE,,158 MANITOBA ST,,BRACEBRIDGE,ON,P1L 2E2,CA,705-645-0777,45.043297,-79.315094,,,,
ORILLIA,,58 PETER ST NORTH,,ORILLIA,ON,L3V 6J6,CA,705-645-0777,44.609993,-79.418007,,,,
NORTH BAY,,174 OAK STREET WEST,,NORTH BAY,ON,P1B 2S7,CA,705-474-5132,46.311375,-79.465828,,,,
KESWICK,,213 THE QUEENSWAY SOUTH  UNIT 300,,KESWICK,ON,L4P 2A7,CA,905-656-6284,44.229382,-79.464737,,,,
BARRIE - BIG BAY POINT,,UNIT 2  750 BIG BAY POINT ROAD,,BARRIE,ON,L4M 4S6,CA,705-715-4685,44.362957,-79.623817,,,,
BARRIE - BAYFIELD MALL,,320 BAYFIELD STREET  UNIT 61A,,BARRIE,ON,L4M 3C1,CA,705-722-4857,44.401508,-79.702316,,,,
NEWMARKET - GREEN LANE COMMON,,18275 YONGE STREET,UNIT 4,EAST GWILLIMBURY,ON,L9N 0A2,CA,289-319-0915,44.073188,-79.484646,,,,
NEWMARKET - SOUTH,,16700 BAYVIEW AVE,UNIT 8,NEWMARKET,ON,L3X 1W1,CA,905-836-8788,44.040249,-79.452766,,,,
BARRIE-MAPLEVIEW,,62 COMMERCE PARK DR,,BARRIE,ON,L4N 8W8,CA,705-717-9086,44.325069,-79.684235,,,,
NEWMARKET - YONGE & DAVIS,,130 DAVIS DR  UNIT A6-7,,NEWMARKET,ON,L3Y 2N1,CA,905-235-6284,44.055138,-79.474808,,,,
AURORA - EAST,,UNIT B3  130 HOLLIDGE BLVD,,AURORA,ON,L4G 8A3,CA,905-713 2070,44.012543,-79.448235,,,,
BRADFORD,,312 HOLLAND ST W,,BRADFORD,ON,L3Z 1J2,CA,905-251-2882,44.111778,-79.575958,,,,
AURORA - YONGE & EDWARD,,265 EDWARD ST.  UNIT 17,,AURORA,ON,L4G 3M7,CA,905-900-0475,43.986549,-79.463257,,,,
OAK RIDGES,,13321 YONGE STREET  UNIT 202,,RICHMOND HILL,ON,L4E 0K5,CA,289-317-0559,43.952965,-79.455261,,,,
RICHMOND HILL - RICHMOND GREEN,,1285 ELGIN MILLS ROAD EAST,UNIT 22,RICHMOND HILL,ON,L4S 0B5,CA,905-737-1869,43.896156,-79.402817,,,,
RICHMOND HILL - ELGIN MILLS,,206 - 10909 YONGE ST,,RICHMOND HILL,ON,L4C 3E3,CA,905-237-8615,43.893387,-79.439384,,,,
RICHMOND HILL - TOWER HILL,,372 TOWER HILL RD  UNIT 11,,RICHMOND HILL,ON,L4E 0T8,CA,905-237-0583,43.913773,-79.472824,,,,
RICHMOND HILL - BAYVIEW HILL,,9665 BAYVIEW AVENUE  UNIT 9,,RICHMOND HILL,ON,L4C 9V4,CA,905-237-2595,43.867565,-79.412659,,,,
RICHMOND HILL - RICHVALE,,9174 YONGE STREET  UNIT 9,,RICHMOND HILL,ON,L4C 7A1,CA,905-886-5532,43.850750,-79.433350,,,,
NORTH YORK - DON VALLEY VILLAGE,,4821 LESLIE ST,,NORTH YORK,ON,M2J 2K8,CA,416-493-5102,43.778580,-79.365326,,,,
THORNHILL - EAST,,204  7355 BAYVIEW AVE,,THORNHILL,ON,L3T 5A6,CA,647-989-6284,43.813408,-79.398659,,,,
NORTH YORK - BAYVIEW,,208 - 3333 BAYVIEW AVE,,NORTH YORK,ON,M2K 1G4,CA,416-733-4563,43.791776,-79.393300,,,,
BAYVIEW - YORK MILLS,,2609 BAYVIEW AVE,,NORTH YORK,ON,M2L 1B5,CA,647-352-9025,43.751656,-79.384224,,,,
NORTH YORK - WILLOWDALE NORTH,,6464 YONGE ST,UNIT 204,NORTH YORK,ON,M2M 3X4,CA,416-499-2866,43.795872,-79.422287,,,,
VAUGHAN - KEELE & MAJOR MACKENZIE,,9929 KEELE STREET  UNIT 107,,VAUGHAN,ON,L6A 1Y5,CA,289-459-0399,43.852688,-79.511856,,,,
VAUGHAN - DUFFERIN HILL,,9200 DUFFERIN ST  UNIT 200,,VAUGHAN,ON,L4K 0C6,CA,905-303-3021,43.841850,-79.483467,,,,
VAUGHAN - WESTON & MAJOR MACKENZIE,,104 -3420 MAJOR MACKENZIE DR W,,VAUGHAN,ON,L4H 4J6,CA,905-737-6284,43.845737,-79.553154,,,,
THORNHILL - PROMENADE,,301N - 1 PROMENADE CIRCLE,,THORNHILL,ON,L4J 4P8,CA,905-370-0415,43.806618,-79.452248,,,,
THORNHILL - DUFFERIN CLARK,,1450 CLARK AVE W  UNIT 18,,THORNHILL,ON,L4J 7R5,CA,647-982-2036,43.798450,-79.470955,,,,
BOLTON,,12612 HIGHWAY 50  UNIT 6,,BOLTON,ON,L7E 1T6,CA,647-960-8976,43.860210,-79.712799,,,,
ORANGEVILLE,,210 BROADWAY,UNIT 109,ORANGEVILLE,ON,L9W 5G4,CA,289-961-0900,43.918823,-80.097527,,,,
BRAMPTON - SPRINGDALE,,105 FATHER TOBIN RD  UNIT 4,,BRAMPTON,ON,L6R 0W9,CA,905-793-2201,43.771145,-79.754814,,,,
WOODBRIDGE NORTH,,4561 LANGSTAFF SIDE RD E,,WOODBRIDGE,ON,L4L 2B2,CA,1-888-737-6284,43.801950,-79.579731,,,,
BRAMPTON - EBENEZER,,8920 HIGHWAY 50,UNIT E8,BRAMPTON,ON,L6P 3A3,CA,905-915-8666,43.775089,-79.653763,,,,
COLLINGWOOD,,200 MAPLE ST,,COLLINGWOOD,ON,L9Y 2R2,CA,705-444-5073,44.498402,-80.219887,,,,
VAUGHAN - WEST,,8000 HWY 27  UNIT 3A,,VAUGHAN,ON,L4H 0A8,CA,905-851-9002,43.778011,-79.623611,,,,
BRAMPTON - PROFESSOR`S LAKE,,2120 NORTH PARK DR,UNIT 11,BRAMPTON,ON,L6S 0C9,CA,289-323-0970,43.750668,-79.726814,,,,
BRAMPTON - DIXIE & NORTH PARK,,860 NORTH PARK DR  UNIT 10,,BRAMPTON,ON,L6S 4N5,CA,905-488-1120,43.729778,-79.749535,,,,
BRAMPTON - SNELGROVE,,423 WANLESS DR  UNIT 111,,BRAMPTON,ON,L7A 0N9,CA,647-709-2920,43.716381,-79.823158,,,,
BRAMPTON - HEART LAKE,,13 FISHERMAN DR  UNIT 5,,BRAMPTON,ON,L7A 2X9,CA,905-796-3033,43.713692,-79.799614,,,,
BRAMPTON - BRAMALEA CITY CENTRE,,211 - 50 PEEL CENTRE DR,,BRAMPTON,ON,L6T 0E2,CA,905-913-0287,43.714672,-79.726433,,,,
ETOBICOKE - ROWNTREE,,UNIT 11  2687 KIPLING AVENUE,,ETOBICOKE,ON,M9V 5G6,CA,416-533-2020,43.750938,-79.585678,,,,
NORTH YORK - JANE SHOREHAM,,4700 JANE ST,UNIT 203,TORONTO,ON,M3N 2L3,CA,416-665-9292,43.769802,-79.520691,,,,
BRAMPTON - KINGSPOINT PLAZA,,370 MAIN STREET N  UNIT 103,,BRAMPTON,ON,L6V 4A4,CA,905-453-7700,43.695927,-79.771057,,,,
MISSISSAUGA - MALTON,,7205 GOREWAY DRIVE  UNIT 17,,MISSISSAUGA,ON,L4T 2T9,CA,289-328-1222,43.719479,-79.637207,,,,
BRAMPTON - PENDALE BOVAIRD SQUARE,,791 BOVAIRD DR,UNIT 7,BRAMPTON,ON,L6X 0T9,CA,647-317-0171,43.688090,-79.805340,,,,
ETOBICOKE - ALBION,,UNIT B26  900 ALBION ROAD,,ETOBICOKE,ON,M9V 1A5,CA,416-255-5005,43.735294,-79.559761,,,,
BRAMPTON - NORTHWOOD PARK,,8990 CHINGUACOUSY RD,UNIT 6,BRAMPTON,ON,L6Y 5X6,CA,905-846-1111,43.664810,-79.781456,,,,
BRAMPTON - SPRING VALLEY,,305 ROYAL WEST DRIVE  UNIT M,,BRAMPTON,ON,L6X 5K8,CA,905-488-0444,43.659985,-79.813393,,,,
BRAMPTON - BARTLEY SQUARE,,24 - 1 BARTLEY BULL PARKWAY,,BRAMPTON,ON,L6W 3T7,CA,905-497-8787,43.667904,-79.734543,,,,
NORTH YORK - BATHURST/SHEPPARD,,638A SHEPPARD AVE WEST,203,NORTH YORK,ON,M3H 2S1,CA,416-471-9559,43.755539,-79.440987,,,,
NORTH YORK - CENTRAL NORTH YORK,,5418 YONGE ST  SUITE 1-2,,NORTH YORK,ON,M2N 5R8,CA,416-915-0557,43.775467,-79.414902,,,,
NORTH YORK - YORKDALE,,SUITE 202  75 DUFFLAW RD,,TORONTO,ON,M6A 2W4,CA,647-292-7449,43.717819,-79.462982,,,,
NORTH YORK - BLACK CREEK,,1635 LAWRENCE AVE W,UNIT 203,NORTH YORK,ON,M6L 3C9,CA,416-318-5055,43.704765,-79.491951,,,,
NORTH YORK - BEDFORD PARK,,3222 YONGE ST  2ND FL,,TORONTO,ON,M4N 2L2,CA,416-635-8299,43.728645,-79.403389,,,,
ETOBICOKE - THE WESTWAY,,1735 KIPLING AVE  UNIT 210,,ETOBICOKE,ON,M9R 2Y8,CA,647-352-8811,43.693314,-79.557281,,,,
GEORGETOWN - MOUNTAINVIEW,,378 MOUNTAINVIEW ROAD SOUTH  UNIT 8,,GEORGETOWN,ON,L7G 0L5,CA,905-495-0600,43.631603,-79.878143,,,,
BRAMPTON - RAY LAWSON,,499 RAY LAWSON BLVD  UNIT 10,,BRAMPTON,ON,L6Y 4E6,CA,905-216-0622,43.651009,-79.734756,,,,
MISSISSAUGA - MAVIS/DERRY,,735 TWAIN AVE,UNIT 1,MISSISSAUGA,ON,L5W 1X1,CA,905-216-2535,43.638023,-79.728149,,,,
MISSISSAUGA - LISGAR,,3945 DOUG LEAVENS BLVD,UNIT A1 - 110,MISSISSAUGA,ON,L5N 0A5,CA,905-824-2211,43.566906,-79.775459,,,,
MISSISSAUGA - CREDITVIEW/BRITANNIA,,6085 CREDITVIEW RD,,MISSISSAUGA,ON,L5V 2A8,CA,905-507-1847,43.599659,-79.712967,,,,
MISSISSAUGA - GLEN ERIN,,6040 GLEN ERIN DRIVE  UNIT 16,,MISSISSAUGA,ON,L5N 3M4,CA,905-593-8331,43.574303,-79.739677,,,,
MISSISSAUGA - BRITANNIA EAST,,130 - 75 WATLINE AVE,,MISSISAUGA,ON,L4Z 3E5,CA,905-501-8078,43.623035,-79.670929,,,,
MISSISSAUGA - TERRY FOX,,1010 DREAM CREST RD,UNIT 5,MISSISSAUGA,ON,L5V 3A4,CA,905-286-9030,43.590633,-79.679626,,,,
OWEN SOUND,,1125 8TH STREET EAST  SUITE 1,,OWEN SOUND,ON,N4K 1M5,CA,226-277-0800,44.565876,-80.921730,,,,
GREATER SUDBURY - NEW SUDBURY,,770 LASALLE BLVD,,SUDBURY,ON,P3A 4V4,CA,705-805-0338,46.522621,-80.964355,,,,
SAULT STE. MARIE,,140 NORTHERN AVE E,,SAULT STE. MARIE,ON,P6B 4H4,CA,705-759-0072,46.534542,-84.330109,,,,
THUNDER BAY,,1082 B MEMORIAL AVE,,THUNDER BAY,ON,P7B 4A3,CA,807-475-5274,48.404800,-89.246170,,,,
REGINA - ALBERT PARK,,4611 ALBERT STREET,,REGINA,SK,S4S 6B6,CA,306-988-7009,50.406052,-104.617943,,,,
REGINA - SOUTH EAST,,UNIT I - 3125 WOODHAMS DRIVE,,REGINA,SK,S4V 2R5,CA,306-751-0646,50.428413,-104.536720,,,,
REGINA - NORTH,,1050N ARNASON ST,,REGINA,SK,S4X 4K9,CA,306-536-5258,50.494690,-104.680550,,,,
SASKATOON - LAKEWOOD,,1 - 1025 BOYCHUK DR,,SASKATOON,SK,S7H 5B2,CA,306-955-8830,52.115940,-106.574501,,,,
SASKATOON - CONFEDERATION,,3322 FAIRLIGHT DRIVE  BAY K,,SASKATOON,SK,S7M 3Y4,CA,306-803-5056,52.128139,-106.724220,,,,
SASKATOON - NORTH,,3530 MILLAR AVE  #710,,SASKATOON,SK,S7P 0B6,CA,306-477-2169,52.192532,-106.646492,,,,
