store_name,store_number,address,address2,city,state,zip_code,country,phone_number,latitude,longitude,store_hours,store_type,other_fields,coming_soon
Accents and Interiors,4829324,Accents And Interiors 2701 86th St ,,Urbandale ,IA,50322,US,515-276-7201,41.618775,-93.735427,,,,
Adornments,4829325,Adornments 2826 E. 3rd Ave ,,Denver ,CO,80206,US,303-321-7992,39.7208593,-104.953915,,,,
Alexia's Gift Box,4829326,Alexia's Gift Box 25 West Eagle Road ,,Havertown ,PA,19083,US,(610) 446-3900,39.987174,-75.311532,,,,
Alixandra Blue-,4829327,Alixandra Collections 7027 E 5th Ave ,,Scottsdale ,AZ,85251,US,480-947-2055,33.4973416,-111.9299096,,,,
Alixandra Collections,4829328,Phoenix location Alixandra Collections 4410 E Camelback Rd ,,Phoenix ,AZ,85018,US,480-947-2055,33.5102305,-111.9858767,,,,
Alixandra Collections - Phoenix,4829329,Alixandra Collections 4410 E Camelback Rd ,,Phoenix ,AZ,85018,US,602-956-0140,33.5102305,-111.9858767,,,,
Allure,4829330,Allure 526 Seward Street ,,Seward ,NE,68434,US,402-643-3762,40.9079899,-97.0985504,,,,
Ambiance,4829333,Ambiance 737 Higuera St ,,San Luis Obispo ,CA,93401,US,(805) 540-3380,35.2791427,-120.6637786,,,,
Anything Bling,4829338,Anything Bling 16165 City Walk ,,Sugar Land ,TX,77479,US,281 813 6064,29.5953717,-95.6225182,,,,
Apartment 22,4829339,Apartment 22 #3110-8561 8a ave S.W.,,Calgary,AB,T2R 0V7,CA,403 452 5911,51.0608333,-114.2103739,,,,
Aranelle,4829341,Aranelle Betsy Simpson 2940 State Street ,,Carlsbad ,CA,92008,US,7604341140,33.1603653,-117.3490444,,,,
Art Effect,4829342,Art Effect 934 W. Armitage Ave ,,Chicago ,IL,60614,US,773-929-3600,41.9182412,-87.6523457,,,,
Art On Symmes,4829343,Art On Symmes 1000 Symmes Rd. ,,Fairfield ,OH,45014,US,513 844 2787,39.352301,-84.545584,,,,
ASPEN TRADERS Boutique,4829345,ASPEN TRADERS LTD ASPEN BOUTIQUE 4724 E. DOUGLAS ,,WICHITA ,KS,67208,US,316-682-6784,37.6869152,-97.2811245,,,,
Barbara Jean,4829348,Barbara Jean 7811 Cantrell Rd ,,Little Rock ,AR,72227,US,501-227-0054,34.7749296,-92.3621074,,,,
Be Jeweled MA,4829350,Be Jeweled 26 Centre Street ,,New Bedford ,MA,02740,US,508-990-1300,41.635136,-70.922535,,,,
Bella's House,4829352,Bell'as House 7890 E 106th Place Ste V-8 ,,Tulsa ,OK,,US,918) 970-4022/,36.008062,-95.8884361,,,,
BILLY'S,4829355,BILLY'S 18723 VENTURA BLVD ,,TARZANA ,CA,91356,US,818-343-5332,34.17146,-118.541301,,,,
BLANC BOUTIQUE 1,4829356,BLANC BOUTIQUE 514 SAN ANSELMO AVENUE ,,SAN ANSELMO ,CA,94960,US,415-485-0104,37.9746367,-122.5622089,,,,
Blonde,4829358,Blonde 73-200 El Paseo Drive Suite 3A ,,Palm Desert ,CA,92260,US,760-836-3366,33.7201052,-116.387066,,,,
Blond Genius,4829357,Blond Genius 165 S. Jordan Creek Pkwy. # 165 USA ,,West Des Moines ,IA,50266,US,712 830 4266,41.5671739,-93.8109849,,,,
BLOSSOM,4829359,BLOSSOM 13 S STATE STREET ,,NEWTON ,PA,18940,US,215-860-3388,40.2288037,-74.9365155,,,,
Blow Away,4829360,Blow Away 9580 N Sunny Side ,,Cloves ,CA,93619,US,559-243-6693,36.8480605,-119.7892754,,,,
Blue Ruby - Colorado,4829362,Blue Ruby 1428 Larimer St ,,Denver ,CO,80202,US,303-888-2547 - cell,39.7476609,-104.9990796,,,,
BLUE SKIES,4829363,BLUE SKIES 466 MAIN STREET ,,PLACERVILLE ,CA,95667,US,530-622-1589,38.7294298,-120.8002063,,,,
BOCA,4829364,BOCA 1024 SWARTHMORE AVE ,,PACIFIC PALISADES ,CA,90272,US,310-459-7259 x2,34.0296237,-118.4981003,,,,
Bodhi Bazaar,4829365,Bodhi Bazaar 500 Montezuma # 117 ,,Santa Fe ,NM,87501,US,505-982-3880,35.6925383,-105.9498699,,,,
bodybody,4829366,BODYBODY Richard 296 Commercial Street ,,Provincetown ,MA,02657,US,508-487-9400,42.0517456,-70.1863034,,,,
Bonnie Cannon,4829367,811 D scott ave ,,Greensbourogh ,NC,27403,US,310-367-5211,36.064625,-79.829913,,,,
Borders and Beyond Gallery,4829368,Borders and Beyond Gallery 24 W. Canal St. ,,Wabash ,IN,46992,US,260 563 3878,40.796139,-85.820831,,,,
Bottega llc,4829369,Bottega llc 1025 Shiloh Crossing Ste 4 ,,Billings ,MT,59102,US,406 248 9078,45.7503656,-108.6135361,,,,
Boutique @ Salon Salon,4829370,Boutique Salon Salon 1700 McHenry Ave # 29A ,,Modesto ,CA,95350,US,209-571-3503,37.6693289,-120.9918405,,,,
BOX TURTLE,4829373,BOX TURTLE 2616 KAVANAUGH BLVD ,,LITTLE ROCK ,AR,72205,US,501-661-1167,34.7574637,-92.3226645,,,,
Brownstein Smith,4829376,Brownstein Smith 310 Carriage House Drive ,,Jackson ,TN,38305,US,731-664-1842,35.667077,-88.841097,,,,
Bungalow Home,4829377,Bungalow Home 97 E. Dublin-Granville Rd ,,New Albany ,OH,43054,US,614-578-1814,40.0821697,-82.810551,,,,
Canary in a Clothes Mine,4829381,Canary in a Clothes Mine 114 S. Main St ,,Breckenridge ,CO,80424,US,970-547-9007,39.4815207,-106.0458644,,,,
Candace's Fine Jewelry,4829382,Candace's Fine Jewelry 5224 Nicholson Lane ,,Kensington ,MD,20895,US,301-984-0009,39.0460457,-77.1047556,,,,
Carla Alger Two Old Hippies,4829383,Two Old Hippies 401 12th Ave S ,,Nashville ,TN,37203,US,712-336-0441,36.152323,-86.7850037,,,,
Casual # 2 Simple,4829385,Simple 460 S Coast Highway ,,Laguna Beach ,CA,92651,US,949-494-8100,33.541184,-117.782271,,,,
Catherine H.,4829387,Catherine Hiriart 18-24 Parkway ,,Katonah ,NY,10536,US,914-232-2010:,41.2586174,-73.6846112,,,,
Catherine Mackie,4829388,107-211 Bear Street,,Banff,Alberta,T1L1B8,CA,,51.1772837,-115.5727351,,,,
C.C. Gallagher,4829379,C.C. Gallagher 523 Crescent Avenue ,,Avalon ,CA,90704,US,310 510 1278,33.3428975,-118.324623,,,,
Chesapeake Bay Outfitters,4829394,Chesapeake Bay Outfitters 100 N Talbot St ,,Saint Michaels ,MD,21663,US,410-745-3107,38.7866592,-76.2246698,,,,
Christina Demasi,4829396,10201 West Pico Blvd. Building 99 5 floor ,,Los AngelEs ,CA,90064,US,323 314 4460,34.0500796,-118.4106992,,,,
CHRISTINE'S CROSSING,4829397,Christine's 1000 Washington Rd ,,Rye ,NH,03870,US,603-964-6063,43.0010269,-70.7961308,,,,
Churchills - Mt Kisco,4829398,Churchills 41 South Moger Ave ,,mount kisco ,NY,10549,US,914-666-4800,41.2068899,-73.7288919,,,,
Ciao,4829399,Ciao 3409 West Cary ,,Richmond ,VA,23221,US,804-357-4493 cell,37.554438,-77.485072,,,,
City Art Works,4829400,City Art Works 1630 East Woodlawn Rd suite 267 ,,Charlotte ,NC,28209,US,(704) 527-1300,35.1719057,-80.8476871,,,,
C.Jane,4829380,C.Jane 2346 Guadalupe St ,,Austin ,TX,78705,US,512-236-1435,30.2873369,-97.7417691,,,,
Claudia,4829401,Claudia 51 Main St PO BOX 5068 ,,Edgartown ,MA,02539,US,508-627-8306,41.3898344,-70.5137745,,,,
Click Click Bang Salon & Gallery,4829402,Salon & Gallery 808 41 st Ave ,,Santa Cruz ,CA,95062,US,831-464-2724,36.9640606,-121.9647557,,,,
COLLIER WEST,4829404,Collier West 377a Atlantic Avenue ,,Brooklyn ,NY,11217,US,718-254-9378,40.6874796,-73.9856159,,,,
Colorado Co-Op,4829405,Colorado Co-Op 315 North Tejon St ,,Colorado Springs ,CO,80903,US,719-389-0696,38.8387752,-104.8230878,,,,
Columbine,4829406,Columbine 101 ,,Town Center Corte Madera ,CA,94925,US,415-927-8884,37.9273161,-122.5174445,,,,
COMPLEMENTS TWO,4829407,Complements Two 155 S Livingston Ave ,,Livingston ,NJ,07039,US,973-533-0608,40.7909694,-74.3132764,,,,
Cornell's Jewelers,4829409,Cornell's Jewelers 3100 Monroe Ave ,,Rochester ,NY,14618,US,800-537-8637,43.1077921,-77.5430885,,,,
Cotton Club Collection,4829410,Cotton Club Collection 3941 ,,San Felipe Houston ,TX,77027,US,713-522-9101,29.746361,-95.443489,,,,
Coucou & Olive,4829411,Coucou & Olive 1716 Sherman Ave ,,Evanston ,IL,60201,US,847-869-8203,42.0491307,-87.6820164,,,,
"Courtyards, LTD",4829412,Courtyards LTD 3980 Main Rd ,,Tiverton ,RI,02878,US,4016248682,41.568935,-71.186642,,,,
CUES,4829415,CUES 108 N. washington suite # 104 ,,spokane ,wa,99201,US,509-838-5837,47.6582809,-117.4177737,,,,
Daisy Pearl Boutique,4829417,Daisy Pearl Boutique 404 S Main St ,,Boerne ,TX,78006,US,830-249-0081,29.7911983,-98.7306117,,,,
Daniella Fox,4829419,Daniella Fox 500 Market Street ,,Market Station at the Railyard Santa Fe ,NM,87501,US,505-988-2399,35.6837932,-105.948391,,,,
David J Witchell,4829421,David J Witchell 25 South Street ,,Newton ,PA,18940,US,215-579-1200,40.2284969,-74.9365564,,,,
DEFINATELY WENDY,4829424,DEFINATELY WENDY 30 LYMAN STREET ,,WESTBOROUGH ,MA,01581,US,508-366-7696,42.2825208,-71.6471898,,,,
Details-GA,4829426,Details-GA 3000 Old Alabama Rd. # 106 ,,Johns Creek ,GA,30022,US,770 645 4711,34.0233857,-84.2704293,,,,
D'Mademoiselle,4829416,D'Mademoiselle 121 ,,Calle Del Norte Laredo ,TX,78041,US,956.206.0058,27.5543516,-99.493947,,,,
DOMUS,4829428,DOMUS 413 WEST 44TH ,,NEW YORK ,NY,10036,US,212-581-8099,40.760186,-73.992398,,,,
DRAGONFLY & AMBER GALLERY,4829430,DRAGONFLY & AMBER GALLERY 106-4200 beach ave,,PEACHLAND,BC,V0H-1X6,CA,250-767-6688,49.782357,-119.72386,,,,
EAVES,4829433,EAVES 105 N Aberdeen Ave. ,,Wayne ,PA,19087,US,610 688 4466,40.0443174,-75.3809892,,,,
ELEMENTS CHICAGO,4829434,ELEMENTS CHICAGO 741 NORTH WELLS STREET ,,CHICAGO ,IL,60610,US,312-642-6574,41.8960305,-87.6338018,,,,
Elie's Fine Jewelry,4829435,3011 Yamato Rd. Suite A-18 USA ,,Boca Raton ,FL,33434,US,561-997-2033,26.3968101,-80.1491592,,,,
Elizabeth Ranny Lawless,4829436,Elizabeth Lee Boutique 234 BOSTON POST RD ,,WAYLAND ,MA,01778,US,508-358-7788,42.363181,-71.361729,,,,
Elly Blue,4829437,Elly Blue 2607 W. Colorado Ave ,,Colorado Springs ,CO,80904,US,719-520-0556,38.8481467,-104.8644764,,,,
Elsie Garden,4829438,Elsie Garden 109 S. First St ,,Charlottesville ,VA,22902,US,434.979.2888,38.0304602,-78.4818986,,,,
EMERALD FOREST,4829439,EMERALD FOREST 12638 VENTURA BLVD ,,STUDIO CITY ,CA,91604,US,818-509-8529,34.1439393,-118.4087186,,,,
ENCHANTMENT RESORT,4829442,ENCHANTMENT RESORT 525 BOYNTON CANYON ROAD ,,SEDONA ,AZ,86336,US,928-204-6080,34.914215,-111.853951,,,,
ENIA,4829443,ENIA 326 E Jericho Tpke ,,Huntington ,NY,11746,US,631-271-7700,40.8294668,-73.3985918,,,,
Erba,4829445,Erba 114 Ave Del Mar # 1 ,,San Clemente ,CA,92672,US,949-492-2355,33.4273109,-117.6135686,,,,
Evoke Style,4829446,Evoke Style 1475 Western Avenue ,,Albany ,NY,12203,US,518-512-5240,42.6846983,-73.8398549,,,,
Fairen Del-del mar,4829449,Fairen Del 2690 Via De La Vale D-230 ,,Del Mar ,CA,92014,US,858-259-1120,32.981073,-117.2504858,,,,
FAVORITE CLOTHING COMPANY,4829451,FAVORITE CLOTHING COMPANY 25 HARMONY DRIVE ,,SEDONA ,AZ,86336,US,928-282-0995,34.8629258,-111.8071363,,,,
Faye's,4829452,Faye's 18900 W Bluemound Rd ,,Brookfield ,WI,53045,US,262-432-0070,43.0379484,-88.1480011,,,,
F. Bianco,4829447,F. Bianco 467 Angell Street ,,Providence ,RI,02906,US,401-228-6606,41.8298459,-71.3890482,,,,
Figue,4829453,Figue 210 11th Ave Suite 403 ,,New York ,NY,10001,US,212.219.8954,40.7498349,-74.0059027,,,,
FINCH,4829454,FINCH 613 Warren St ,,Hudson ,NY,12534,US,518-828-3430,42.248078,-73.785024,,,,
FINE & FUNKY,4829455,FINE & FUNKY 760 NORTH LAKE BLVD ,,TAHOE ,CA,96145,US,530-583-1400,39.172491,-120.137243,,,,
FIRE FINCH,4829456,FIRE FINCH 305 CHURCH ST # 102 ,,NASHVILLE ,TN,37201,US,615-385-5090,36.1639826,-86.777826,,,,
Franz Weber Inc,4829457,Fraz Weber Inc 4185 Caughliin Pkwy ,,Reno ,NV,89519,US,775-786-0226,39.493734,-119.868866,,,,
GALA,4829459,GALA 484 Magnolia Ave ,,Larkspur ,CA,94939,US,415-924-7680,37.9357883,-122.5351183,,,,
Galapagos,4829460,Galapagos Boutique 1593 Old Post Road ,,Charlestown ,RI,02813,US,401-322-3000,41.3552837,-71.7146247,,,,
Garbarant - Denver,4829461,Garbarini 239 Detorit st. ,,Denver ,CO,80206,US,303- 333-8686,39.7201483,-104.9549011,,,,
GET DRESSED,4829462,GET DRESSED 2501 FAR HILLS AVE ,,DAYTON ,OH,45419,US,937-299-9109,39.7088887,-84.1713262,,,,
Ginger Laurier,4829466,Ginger Laurier 52 McRae St #102,,Okotoks,AB,T1S1A6,CA,403-938-6146,50.7254507,-113.9702979,,,,
Girl Friday,4829468,Girl Friday 440 East Ave N ,,Ketchim ,ID,83340,US,208-622-7364,43.6825319,-114.3636527,,,,
Girl Next Door,4829469,Girl Next Door 19034 Old Detroit Road ,,Rocky River ,OH,44116,US,440 331 4025,41.4832726,-81.8333888,,,,
Gold Bug,4829471,Gold Bug 22 East Union St ,,Pasadena ,CA,91103,US,626-744-9963,34.1465969,-118.1500183,,,,
GREEN GODDESS -HINSDALE,4829475,THE GREEN GODDESS 52 Washington St ,,Hinsdale ,IL,60521,US,630-655-9050,41.8017554,-87.9295612,,,,
GREEN GODDESS - HINSDALE # 1,4829474,GREEN GODDESS HINSDALE 52 S Washington ,,Hinsdale ,IL,60521,US,630-655-9050,41.8017554,-87.9295612,,,,
Gregory's Fine Jewelry,4829477,Gregory's Fine Jewelry 16950 Jog Road # 112 ,,Delray Beach ,FL,33446,US,561-638-8522,26.425395,-80.1459657,,,,
Haberdashery,4829478,Haberdashery 221 East Main Street ,,Fredericksburg ,TX,78624,US,(830) 990-2462,30.273082,-98.870299,,,,
Hale Zen,4829479,Hale Zen 180 Dickenson St # 111 ,,Lahaina ,HI,96761,US,808-661-4802,20.874295,-156.6768135,,,,
HANAN Cosmetics,4829480,HANAN 31409 SOUTHFIELD ROAD ,,BEVERLY HILLS ,MI,48025,US,248-644-0277,42.5201026,-83.2240985,,,,
HEATHER BLOOM,4829481,Heather Bloom 2491 Mission St ,,San Marino ,CA,91108,US,626 403 2144,34.1165319,-118.1395275,,,,
HIPZEPHYR,4829482,HIPZEPHYR 2727 78th Av SE ,,Mercer Island ,WA,98040,US,206-905-6069,47.5859925,-122.2340865,,,,
Home Elements,4829483,Home Elements 518 Austin Hwy ,,San Antonio ,TX,78209,US,210-824-3483,29.4826728,-98.4598326,,,,
HopeSouth Apparel,4829484,HopeSouth Apparel 511 East Paces Ferry ,,Atlanta ,GA,30305,US,404 816 7702,33.8381687,-84.3713559,,,,
HOUSE OF LEE,4829485,HOUSE OF LEE 26265 PASEO DEL SUR ,,MONTEREY ,CA,93940,US,831-915-9065,36.5959589,-121.8660899,,,,
Hush La Botuquie,4829487,Hush La Botuquie 16950 Wright Plz Ste 109 ,,Omaha ,NE,68130,US,402 515 4330,41.2334463,-96.1793732,,,,
IN HER SHOES,4829489,IN HER SHOES 855 El Camino Real # 45 ,,Palo Alto ,CA,94301,US,650-326-9644,37.4383389,-122.1601351,,,,
Inspire Me,4829491,Inspire Me 520 E Colfax Ave. ,,South Bend ,IN,46617,US,574-232-1798,41.6776035,-86.2433738,,,,
In Watermelon Sugar,4829490,In Watermelon Sugar 3555 Chestnut Ave ,,Baltimore ,MD,21211,US,410-662-9090,39.3311287,-76.6291958,,,,
iRiNiRi,4829493,iRiNiRi 1358 Kings Highway ,,Sugar Loaf ,NY,10981,US,845-469-7934,41.3172104,-74.2871962,,,,
Isabelle Inc,4829494,Isabelle Inc 436 Carbonia Ave ,,Walnut ,CA,91789,US,909-598-5081,34.021651,-117.853363,,,,
Jackie's,4829497,Jackie's 6755 Phelan Blvd Suite 17 ,,Beaumont ,TX,77706,US,(409) 861-5762,30.0752583,-94.1747413,,,,
Jeri James,4829499,Jeri James 140 Glastonbury Blvd Suite # 5 ,,Glastonbury ,CT,06033,US,1 860 430 5688,41.7203643,-72.6203841,,,,
Jewelers Studio,4829500,Jewelers Studio 4130 N Buffalo Rd ,,Orchard Park ,NY,14127,US,716-662-8228,42.7711277,-78.7451813,,,,
J - LOR,4829495,J LOR 9315 Ventnor ave ,,Margate ,NJ,08402,US,609-541-4188,39.322188,-74.5146388,,,,
J. SEITZ & CO,4829496,J. SEITZ & CO 9 EAST SHORE RD RT. 45 ,,NEW PRESTON ,CT,06777,US,860-868-0119,41.6759925,-73.3556809,,,,
Just B LLC,4829505,Just B LLC 53 W State St ,,Doylestown ,PA,18901,US,215-348-8250,40.3094486,-75.131885,,,,
KARMA,4829507,KARMA 57 UNION STREET ,,NEWTON CENTER ,MA,02459,US,617-965-2851,42.3298462,-71.1922796,,,,
Kathleen Sommers,4829508,Kathleen Sommers 2417 North Main Street ,,San Antonio ,TX,78212,US,210-732-2207,29.452719,-98.494195,,,,
Kati Koos,4829509,Kati Koos 500 Sutter St Suite 602 ,,San Francisco ,CA,94102,US,415-362-3437,37.7894043,-122.4089734,,,,
KINGFISHER ROAD,4829510,KINGFISHER ROAD 4922 TOPANGA CANYON RD ,,WOODLAND HILLS ,CA,91364,US,818-887-1687,34.1576038,-118.6055979,,,,
Label and Thread,4829512,Label and Thread 312 E 23rd St # 10C ,,New York ,NY,10010,US,646-275-4625,40.7373459,-73.9803206,,,,
Lacy Couture Jewelry,4829513,Lacy Couture Jewelry 1081 Seven Locks Road ,,Rockville ,MD,20854,US,240.453.9007,39.0616739,-77.1595034,,,,
LA DE DA,4829511,LA DE DA 102 East Church Ave SE ,,Roanoke ,VA,24011,US,(540) 345-6131,37.270563,-79.9389682,,,,
Lanny Barnard Gallery,4829514,Lanny Barnard Gallery 74 South Main Street ,,Salt Lake City ,UT,84101,US,435-658-3130,40.7674368,-111.8914794,,,,
Lara's Jewelry and Design,4829515,Lara's Jewelry and Design 236 Cornerstone Blvd ,,Hot Springs ,AR,71913,US,(501) 525-4487,34.4604332,-93.059632,,,,
Laughing Dog Yoga,4829516,Laughing Dog Yoga 159 Linden St. 2nd Floor ,,Wellesley ,MA,02482,US,781-799-9554,42.2992296,-71.2931487,,,,
LILY,4829519,LILY 1131 COAST VILLAGE RD ,,SANTA BARBARA ,CA,93108,US,805-695-0625,34.4211333,-119.6467043,,,,
Little Bird,4829521,Little Bird 112 2nd Ave ,,Niwot ,CO,80544,US,303-652-0512,40.103492,-105.172512,,,,
Little Luxuries,4829522,Little Luxuries Sue Fink 212 s main st ,,Naperville ,IL,60540,US,630-357-1536,41.7726666,-88.149401,,,,
LOFT,4829525,LOFT 1316 BURLINGAME AVE ,,BURLINGAME ,CA,94010,US,650-347-8622,37.5777229,-122.3488406,,,,
Lori James,4829527,Lori James 6150 Popular Ave STE 118Memphis ,,,TN,38119,US,(901) 207-5427,35.1029163,-89.8574767,,,,
Lost Soul,4829529,Lost Soul 7609 E Pinnacle Peak Road # 18 ,,Scottsdale ,AZ,85255,US,480-515-3631,33.697944,-111.9154251,,,,
Lotus - Sarasota,4829530,Lotus 1451 Main St ,,Sarasota ,FL,34236,US,941-350-1033,27.336624,-82.5416282,,,,
Lou's Boutique,4829531,Lou's Boutique 1040 Willis Ave ,,Albertson ,NY,11507,US,516-833-7444,40.7720839,-73.6488971,,,,
LUNA CHICK,4829532,LUNA CHICK 10 SWAMP ROAD ,,NEWTON ,PA,18940,US,,40.2294444,-74.9395979,,,,
Madam Butterfly,4829537,Madam Butterfly 500 Pavilion Lane ,,Sacramento ,CA,95825,US,(916) 920-1220,38.5752874,-121.4104353,,,,
MAGGIES,4829538,MAGGIES 9391 Grogan's Mill Rd Suite B-4 ,,The Woodlands ,TX,77380,US,281-288-5634,30.1643691,-95.4637492,,,,
Maha,4829541,Maha 632 Lake St. ,,East Wayzata ,MN,55391,US,952-873-7001,44.9697073,-93.5127578,,,,
Manhattan Casuals,4829543,Manhattan Casuals 124 - 21st Street,,East,Saskatoon,,CA,store 1-306-664-6686,52.127509,-106.665074,,,,
Margaret O'Leary # B,4829545,Margaret O'Learly 807 NW 23rd Ave ,,Portland ,OR,92710,US,503-707-3352,45.5285978,-122.698738,,,,
MARGARET O'LEARY #B,4829546,MARGARET O'LEARY 1832 FOURTH STREET ,,BERKELEY ,CA,94710,US,415-354-6650,37.869393,-122.3007451,,,,
MARGARET O'LEARY #C,4829547,MARGARET O'LEARY 263 PRIMROSE RD ,,BURLINGAME ,CA,94010,US,,37.5774466,-122.3478381,,,,
Material Possessions- Chicago,4829548,Material Possessions 704 N Wabash ,,Chicago ,IL,60611,US,312-280-4885,41.8951282,-87.6269638,,,,
Material Possessions- IL,4829549,Material Possessions 954 Green Bay Rd ,,Winnetka ,IL,60093,US,847-446-8840,42.1177395,-87.7446342,,,,
Maxalto,4829550,Maxalto 5426 1/2 Walnut St ,,Pittsburgh ,PA,15232,US,412-683-0508,40.4508588,-79.9344962,,,,
Maxwell & Co.,4829551,Maxwell & Co. 200 main st ,,fallmouth ,MA,02540,US,508.274.8665,41.5524375,-70.6164663,,,,
Menina 27,4829553,Menina 27 27 E BROAD ST ,,WESTFIELD ,NJ,07090,US,(908) 654-0358,40.6506025,-74.3496441,,,,
MERCANTILE,4829554,MERCANTILE 3673 BALDWIN AVE ,,MAKAWAO ,HI,96768,US,,20.8542665,-156.31036,,,,
Mercantile Portland,4829555,Mercantile 729 SW Alder St ,,Portland ,OR,97205,US,503-223-6649,45.5202936,-122.6800509,,,,
Mercer Store,4829556,Mercer Store 3046 Issaquah Pine Lake Road SE ,,Sammamish ,WA,98075,US,425-392-2955,47.5828819,-122.0327681,,,,
Mercer Store #2,4829557,Mercer Store 2670 NE Unviversity Street ,,Seattle ,WA,98105,US,,47.6636598,-122.2978811,,,,
MERIDIAN,4829558,MERIDIAN LTD 101 EAST MAIN ST ,,BOZEMAN ,MT,59715,US,406-585-0608,45.679342,-111.035691,,,,
MERLE'S T.N.T.,4829559,MERLE'S T.N.T. 1207 STATION PLAZA ,,HEWLETT ,NY,11557,US,516-569-9009,40.6373652,-73.7033665,,,,
M-Fredric,4829536,M-Fredric 28024 Dorthy Drive ,,Agoura Hills ,CA,91301,US,818-597-0212,34.1415999,-118.737266,,,,
Millie,4829561,Millie 32880 PCH # 36 ,,Monarch Beach ,CA,92629,US,949-429-1144,33.485965,-117.7240311,,,,
Millie Rae's,4829562,Millie Rae's 1799 PosT RD ,,East Westport ,CT,06880,US,2032597200,41.1386775,-73.3015242,,,,
Mill Valley Merchantile,4829560,Mill Valley Merchantile 167-A Throckmorton Ave ,,Mill Valley ,CA,94941,US,415-388-9588,37.9053572,-122.5493564,,,,
Mississippi Diamond Jewelrs,4829563,MDJ 6 Northwest 3rd Street ,,Grand Rapids ,MN,55744,US,218-326-6242,47.234689,-93.528652,,,,
Mix The Store,4829564,Mix The Store 128/130 W Michigan Ave ,,Ypsilanti ,MI,48197,US,734-961-8704,42.2411761,-83.6144015,,,,
Modern Opulence,4829566,Modern Opulence 461 Central Ave ,,Highland Park ,IL,60035,US,312-504-5035,42.1865985,-87.7974664,,,,
MODERN ROMANCE,4829567,MODERN ROMANCE 257 NEWPORT CENTER DRIVE ,,NEWPORT BEACH ,CA,92660,US,949-640-5477,33.6159722,-117.87575,,,,
Morning Glory,4829568,Morning Glory 1436 Burlingame Avenue ,,Burlingame ,CA,94010,US,650-340-0301,37.5774754,-122.3490655,,,,
Mulholland and Sachs,4829570,Mulholland and Sachs 28699 Chagrin Boulevard ,,Woodmere ,OH,44122,US,216 831 4444,41.4633951,-81.4779335,,,,
MUSE,4829571,MUSE 106 N MARION ST ,,OAK PARK ,IL,60301,US,708-948-7052,41.8874895,-87.8023026,,,,
Ncolor Inc,4829574,Ncolor Inc 15495 N Tamiami Trail Suite 116 ,,Naples ,FL,34110,US,239-597-7005,26.2044208,-81.7995659,,,,
Nest,4829575,Nest 2300 Fillmore St ,,San Francisco ,CA,94115,US,415-292-6199,37.7908657,-122.4340502,,,,
No. 1911,4829577,No. 1911 1911 Main St ,,Baker City ,OR,97814,US,331-223-1926,44.7765246,-117.8297781,,,,
Nt Christensen,4829581,290 Rodrigues Ave ,,Milpitas ,CA,95035,US,,37.4315451,-121.881695,,,,
ODE,4829583,Ode Boutique 263 MAIN ST ,,NORTHAMPTON ,MA,01062,US,413 727 8026,42.3179735,-72.633279,,,,
O KOO RAN,4829582,O KOO RAN 40780 VILLAGE DR ,,BIG BEAR LAKE ,CA,92315,US,909-866-6652,34.240259,-116.9122402,,,,
OUR PLACE,4829586,OUR PLACE 6700 FAIRVIEW ROAD # 104 ,,CHARLOTTE ,NC,28210,US,704-554-7748,35.1471502,-80.8289856,,,,
Out Of Hand,4829587,Out Of Hand 113 Pitt St. Mt ,,Pleasant ,SC,29464,US,843 856 3585,32.7867893,-79.8764892,,,,
PACIFIC TRADING COMPANY,4829588,PACIFIC TRADING COMPANY 1224 PACIFIC AVENUE ,,SANTA CRUZ ,CA,95060,US,831-423-3349 NANCY,36.9736326,-122.025875,,,,
PANACHE-IDAHO,4829590,PANACHE 3 Mall Lane ,,THE SUN VALLEY MALL SUN VALLEY ,ID,83353,US,208-622-4228,43.6965205,-114.3540624,,,,
Paula Ashley,4829592,Linda's Loft 817 Old York Road ,,Jenkintown ,PA,19046,US,215-828-6973,40.105504,-75.123796,,,,
Paulanna,4829593,Paulanna 10139 Riverside Drive ,,Toluca Lake ,CA,91602,US,818-508-7708,34.15238,-118.352089,,,,
Perle,4829595,Perle 124 West Napa Street ,,Sonoma ,CA,95476,US,707-495-3005,38.292199,-122.459609,,,,
Phyllisophical,4829597,Phyllisophical 191 E Main St. ,,Tustin ,CA,92780,US,714 838 1600,33.742291,-117.822761,,,,
Piajeh- Crystal Cove,4829599,Piajeh Crystal Cove 7916 E Coast Highway ,,Newport Coast ,CA,92657,US,949 715 4800,33.5701722,-117.8332298,,,,
Pine Straw 1,4829601,Pine Straw 466 Washington Street ,,Wellesley ,MA,02481,US,781-235-1844,42.301239,-71.286989,,,,
Pitkin County Dry Goods,4829602,Pitkin County Dry Goods 401-1/2 East Cooper Avenue ,,Aspen ,CO,81611,US,970-925-1681,39.188099,-106.8182752,,,,
PLANET BLUE CORP,4829603,Planet Blue 1653 12th St ,,Santa Monica ,CA,90404,US,310-600-3369,34.0190185,-118.4829634,,,,
Platinum Pilates,4829604,Platinum Pilates 250 Rele Street ,,Mountain Brook ,AL,35223,US,205-746-4118,33.4865657,-86.7738416,,,,
Putting on the Ritz-SEE NOTES,4829608,Putting on the Ritz 470 E. Germantown Pike ,,Lafayette Hall ,PA,19444,US,610-825-5155,40.0904147,-75.2581526,,,,
Q BOUTIQUE,4829609,Q BOUTIQUE 152 PLAZA UNIT C-8 ,,BEAVER CREEK ,CO,81620,US,970-949-7733,39.604832,-106.515487,,,,
RANGE,4829612,Range Boutique 3872 Roswell Road ,,Atlanta ,GA,30342,US,,33.86048,-84.38183,,,,
RED E,4829615,RED E 146 N. YORK RD. ,,ELMHURST ,IL,60126,US,630-834-7333,41.9014293,-87.9401396,,,,
RED STELLA,4829616,RED STELLA 39108 OCEAN DR ,,GUALALA ,CA,95445,US,707-884-1072,38.769833,-123.530852,,,,
Red Wolf,4829617,Red Wolf 15 Spring St ,,Saratoga Springs ,NY,12866,US,518-306-5367,43.0797858,-73.7851252,,,,
Rincon Mexicano,4829619,Rincon Mexicano 4450 Eastgate Blvd. Suite 200 ,,Cincinnati ,OH,45245,US,513 520 2038,39.0937021,-84.2717627,,,,
Robina Corson,4829621,Robina Corson 1261 Prospect St. Suite 1 ,,La Jolla ,CA,92037,US,858 454 2964,32.8488585,-117.2712121,,,,
Romick's Into The West,4829623,Romick's Into The West 402 Lincoln Ave ,,Streamboat Springs ,CO,80487,US,970-879-8377,40.483985,-106.830243,,,,
Rouge,4829625,Rouge 2790 NE 187 ,,St Aventura ,FL,33180,US,954-401-9167,25.9480708,-80.1448322,,,,
Runway Couture Boutique,4829627,Runway Couture Boutique 38 Church St ,,Winchester ,MA,01890,US,,42.4513312,-71.1388604,,,,
SAFFRON ROAD,4829630,SAFFRON ROAD 577 RICHMOND STREET,,LONDON,ON,N6A 3G2,CA,519-673-3406,42.9896515,-81.2510166,,,,
San Ysidro Pharmacy,4829631,San Ysidro Pharmacy 1498 East Valley Road ,,Santa Barbara ,CA,93108,US,805-969-2284,34.437264,-119.632245,,,,
SCINTILLA,4829633,SCINTILLA 6268 AMBERLEY CT ,,LIBERTY TOWNSHIP ,OH,45044,US,(513) 779-2575,39.3896696,-84.3953374,,,,
Sedoni Gallery,4829634,Sedoni Gallery 304 New York Avenue ,,Huntington ,NY,11743,US,631-547-4811,40.8719697,-73.425917,,,,
See Saw,4829635,See Saw 6 West Rail Road ,,Tenafly ,NJ,07670,US,201-266-8881,40.9245123,-73.9651554,,,,
Sharron Repass,4829637,Black Bird General Store 23504 Calabasa Rd. ,,Calabasas ,CA,91302,US,310 383 1215,34.1572533,-118.6384368,,,,
She,4829638,She 110 ,,Crossroads Carmel ,CA,93923,US,831-626-4686,36.5373891,-121.9091592,,,,
SHEN,4829639,Shen 1 ,,Morse Court New Canan ,CT,06840,US,203-801-0228,41.1467177,-73.4924586,,,,
Shop 10,4829641,Shop 10 10 East First ST ,,Hinsdale ,IL,60521,US,630-887-7467,41.801415,-87.9286773,,,,
SHOP 65,4829642,Shop 65 1921 Walnut st ,,Philidelphia ,PA,19103,US,,39.9549047,-75.2067225,,,,
SHOWCASE @ CANYON RANCH RESORT,4829644,SHOWCASE CANYON RANCH RESORT 165 Kemble Street ,,Lennox ,MA,01240,US,520-749-9000,42.3446716,-73.2786191,,,,
Siany - Westlake Village Plaza,4829645,Siany Westlake Village Plaza 968 Westlake Blvd # 8 ,,Westlake Village ,CA,91361,US,805-557-1950,34.153124,-118.8264247,,,,
SIMPLY NATURAL,4829646,SIMPLY NATURAL 4330 GULF SHORE BLVD NORTH # 302 ,,NAPLES ,FL,34103,US,239-596-1700,26.1975296,-81.8115023,,,,
Smith and Western,4829647,Smith and Western 30220 Hwy 60/89 ,,Wickenburg ,AZ,85390,US,928-684-0112,33.9565,-112.709744,,,,
Soho of Sewickley,4829648,Soho of Sewickley 346 Beaver St ,,Sewickley ,PA,15143,US,1 (412) 741 1961,40.5414033,-80.1819105,,,,
Solaire,4829650,Solaire 1st and Clinton Street ,,Hudson ,OH,44236,US,(330)650-9095,41.242179,-81.44176,,,,
Sorella Designs,4829651,Sorella Designs at Creative Art Studiio 256 Sea Clilff Ave ,,Sea Cliff ,NY,11579,US,516-835-0201,40.8492539,-73.6461839,,,,
Spunky Steer,4829653,Spunky Steer 2395 N.W Stewart Prky ,,Roseburg ,OR,97471,US,(541) 673-5737,43.2364204,-123.3714799,,,,
Stacey Rhodes Boutique,4829654,Stacey Rhodes Boutique Stacey Rhodes 144 Franklin Road Suite A ,,Brentwood ,TN,37027,US,615-221-9992,36.0345157,-86.7877208,,,,
Statements - Madison,4829655,STATEMENTS BOUTIQUE 57 Main St ,,Madison ,NJ,07940,US,(973)-660-0900,40.758852,-74.4154091,,,,
Strawberry Fields-WI,4829657,STRAWBERRY FIELDS 707 MAIN STREET ,,LAKE GENEVA ,WI,53147,US,262-249-8550,42.5919326,-88.43393,,,,
Studio S Fashion House,4829658,Studio S Fashion House 3221 Quance St,,Regina,SK,S4V 3B7,CA,306-543-2013,50.444755,-104.538107,,,,
Studio T,4829660,Studio T 4849 Danbury Cir. ,,El Dorado Hills ,CA,95762,US,916 798 1316,38.7202129,-121.0783856,,,,
SUBSTANCE,4829662,SUBSTANCE 102 ,,Dona Luz TOAS ,NM,87571,US,575-751-0992,36.40691,-105.57611,,,,
SUNDANCE UTAH,4829664,SUNDANCE 8841 N Alpine Loop Rd ,,SUNDANCE ,UT,84604,US,801-223-4252,40.3913132,-111.5778256,,,,
Susan Berstein,4829666,91 Central Ave US ,,Stirling ,NJ,07980,US,,40.6775413,-74.4973855,,,,
Sussie's,4829667,Sussie's 4760 Preston Rd # 204 ,,Frisco ,TX,75034,US,972-335-2792,33.1183922,-96.8039751,,,,
Swag,4829668,Swag 8687 N Central Expressway Suite 510 ,,Dallas ,TX,75225,US,214-691-0123,32.866132,-96.775623,,,,
Symmetry 2,4829669,Symmetry 6410 W Jefferson Blvd. ,,Fort Wayne ,IN,46804,US,(260) 436-6000,41.056726,-85.2260381,,,,
The Apple Tree Oxford Ohio Only,4829670,The Apple Tree 28 E. High St ,,Oxford ,OH,45056,US,513-523-1388,39.5106824,-84.7413508,,,,
The Balloon Tycoon,4829672,The Balloon Tycoon Lynn Kamen 36 Charlotte Lane ,,Scarsdale ,NY,10583,US,914-723-4115,40.975118,-73.79288,,,,
The Blue Rose,4829673,The Blue Rose 419 Central Avenue ,,Great Falls ,MT,59401,US,406-231-9808,47.5054287,-111.2996615,,,,
The Classic,4829674,The Classic 420 Center Ave Suite 21 ,,Moorhead ,MN,56560,US,218-236-1110,46.875377,-96.771643,,,,
The Find,4829676,The Find 4865 Longley Ln # D ,,Reno ,NV,89502,US,775-322-3463 (find),39.4823199,-119.7632136,,,,
The Grey Colt,4829679,The Grey Colt 150 North Main Street ,,Hudson ,OH,44236,US,330-653-6355,41.242142,-81.4406127,,,,
The Lake House Furniture & Décor,4829680,The Lake House Furniture & Décor # 4-40 Hewlett Park Landing Sylvan,,Lake,AB,T4S 2J3,CA,403-887-0733,52.3049966,-114.0769554,,,,
The Market,4829681,The Market 248 W Garden St ,,Pensacola ,FL,32502,US,850-434-3012,30.4058004,-87.2305959,,,,
The Mercantile @ The Ranch at Rock Creek,4829682,The Mercantile The Ranch at Rock Creek Shannon Drage 79 Carriage House Lane ,,Philipsburg ,MT,59858,US,406-859-6027,46.256424,-113.522131,,,,
The Outpost Trading Co,4829683,The Outpost Trading Co 3547 Sagunto ST ,,Santa Ynez ,CA,93460,US,(805) 686-5588,34.6130445,-120.0816257,,,,
The Palms Golf Club,4829684,The Palms Golf Club 57000 Palms Dr ,,La Quinta ,CA,92253,US,760-771-2606,33.636137,-116.238982,,,,
The Phoenix,4829685,The Phoenix 3101 West Cary Street And 31 ,,Richmond ,VA,23221,US,804-354-0711,37.5530059,-77.4805232,,,,
The Porcupine,4829686,The Porcupine 1000 William Hilton Parkway E-4 ,,Hilton Head Island ,SC,29928,US,843-785-2779,32.159803,-80.754873,,,,
The Quarry at La Quinta,4829687,The Quarry at La Quinta One Quarry Lane ,,La Quinta ,CA,92253,US,760-777-1100,33.6243684,-116.2742773,,,,
The Rebecca Collection,4829688,The Rebecca Collection Sharon Markowitz 2 Mine Brook Rd ,,Brenardsville ,NJ,07924,US,908-221-0025,40.7181313,-74.5694228,,,,
The Silver Lining,4829689,The Silver Lining 4 Church St ,,Ramsey ,NJ,07446,US,201-236-9972,41.0575838,-74.1415683,,,,
THE STORE,4829690,THE STORE 68 THROCKMORTON AVE ,,MILL VALLEY ,CA,94941,US,415-888-8796,37.9066576,-122.5479215,,,,
The Willow Tree # 2,4829692,Willow Tree # 2 2109 Rainbow Drive ,,Gadsden ,AL,35901,US,1-256-593-7739,33.973178,-86.018062,,,,
The Willow Tree # 4,4829693,The Willow Tree # 4 1070 US HWY 431 ,,BOAZ ,AL,35957,US,,34.2149205,-86.1592392,,,,
Tiger Lily MD,4829694,Tiger Lily 19 N Main St ,,Bel Air ,MD,21014,US,410-420-9784,39.5371658,-76.3498535,,,,
Toscana Country Club & Spa,4829695,Toscana Country Club & Spa 76-009 ,,Via Club Villa Indina Wells ,CA,92210,US,(760) 772-7000,33.7366771,-116.3389654,,,,
TREASURE CHEST,4829697,Treasures 171 7th Ave ,,Brooklyn ,NY,11215,US,718 638 3898,40.6718076,-73.9772771,,,,
Trends and Traditions,4829698,Trends & Traditions 1917 Dutton Drive # 100 ,,San Marcos ,TX,78666,US,1 512 392 7236,29.8647208,-97.9600811,,,,
Tribez,4829700,Tribez 111 Town & Country Dr Suite G ,,Danville ,CA,94526,US,925-362-8600,37.8143065,-121.9983593,,,,
Tula,4829703,Tula 1 Old Town Square Fort ,,Collins ,CO,80524,US,970-482-1953,40.5873879,-105.0759644,,,,
UBER,4829706,UBER 5910 N College ,,Indianapolis ,IN,46220,US,317-722-0710,39.802563,-86.15631,,,,
Urban Cottage,4829708,Urban Cottage 157 Main Street ,,Peapack ,NJ,07977,US,908-719-2200,40.7153683,-74.6591938,,,,
Velvet Coat Des Moines,4829711,Velvet Coat 500 East Locust St ,,Des Moines ,IA,50309,US,515.244.6308,41.5898622,-93.61096,,,,
Velvet Coat Iowa City,4829712,Velvet Coat 105 E. College Street ,,Iowa City ,IA,52240,US,319-887-7151,41.6590967,-91.5338161,,,,
VESTA'S,4829713,VESTA'S 11525 CANTRELL RD. SUITE 610 ,,LITTLE ROCK ,AR,72212,US,501-375-7820,34.792062,-92.401062,,,,
V Holland,4829710,V Holland 432 E 17th St ,,Costa Mesa ,CA,92627,US,949-646-7506,33.6301118,-117.9108198,,,,
VIBRATO,4829714,VIBRATO THE GLEN TOWN CENTER 2021 TOWER DRIVE ,,GLENVIEW ,IL,60026,US,847-510-2081,42.0907139,-87.8248675,,,,
VIE,4829715,VIE 9660 Clayton Rd ,,Saint Louis ,MO,63124,US,314-997-0124,38.6388599,-90.388026,,,,
Vintage Jewelry,4829716,Vintage Jewelry 53 Main St PO Box 918 ,,Edgartown ,MA,02539,US,508-627-5409,41.3898625,-70.5138464,,,,
VINTAGE WILD ORCHID,4829717,WILD ORCHID 214 74th street ,,Virgina Beach ,VA,23451,US,757 553-1443,36.8446306,-75.9811029,,,,
WAKO INC,4829719,Am Inc 18324 Ward Street ,,Fountain Valley ,CA,92708,US,714-861-4424,33.7114403,-117.9460707,,,,
Warmth Company,4829721,Warmth Company 140 Post Office Drive ,,Aptos ,CA,95003,US,831-688-3200 x 13 x 14 naomi,36.976098,-121.901045,,,,
Wear Abouts,4829722,Wear Abouts 70 W Marcy St ,,Santa Fe ,NM,87501,US,505-982-1399,35.689166,-105.93778,,,,
Wendy Foster,4829723,Wendy Foster 516 San Ysidro Rd ,,Montecito ,CA,93108,US,805-966-2276,34.4375033,-119.631558,,,,
Wendy Foster - Los Olivos,4829724,Wendy Foster 2928 San Marcos Ave ,,Los Olivos ,CA,93441,US,805-686-0110,34.6659243,-120.1135018,,,,
Western Athletic Clubs-Redwood City,4829725,Pacific Athletic Club 200 Redwood Shores Parkway ,,Redwood City ,CA,94065,US,408 395 7111 x 24225,37.519908,-122.251162,,,,
Wh!msey,4829726,Wh!msey 1200 10th Street Ste.104 ,,Bellingham ,WA,98225,US,T 360 733 5568,48.7206829,-122.5048807,,,,
Wholly Tara,4829728,Wholly Tara 62 Main St ,,ashland ,NH,03217,US,603-968-7803,43.6965976,-71.6378113,,,,
Willow Creek,4829729,Willow Creek 115 East Broadway ,,Jackson ,WY,83001,US,307-733-7868,43.4797973,-110.7604091,,,,
WILLOW STREET STORE 1,4829730,WILLOW STREET 431 ,,SPRINGFIELD AVENUE SUMMIT ,NJ,07901,US,908-277-3334,40.7180888,-74.3599732,,,,
WILLOW STREET STORE 2,4829731,WILLOW ST. 2 12 S Street ,,Morris Town ,NJ,07960,US,973-267-6510,40.7858714,-74.468268,,,,
Winds Of Change Boutique,4829732,Winds Of Change Boutique 37 West Organge St. ,,Chagrin Falls ,OH,44022,US,440-247-2420,41.431674,-81.39388,,,,
Wings,4829733,Wings 625 Pine Knot Ave ,,Bear Bear Lake ,CA,92315,US,909.866.6300,34.2412169,-116.9112236,,,,
With Heart and Soul LLC,4829735,With Heart and Soul LLC 3751 Mendon Rd # 3 ,,Cumberland ,RI,02864,US,401-658-3470,41.9834188,-71.4679256,,,,
Workshop Inc,4829736,Workshop Inc. 10 Cobble Ct. ,,Litchfield ,CT,06759,US,860 567 0544,41.746739,-73.189721,,,,
Xenia,4829738,XENIA 11031 N Port Washington Road ,,Mequon ,WI,53092,US,262 240 1480,43.218488,-87.924832,,,,
Zelda,4829740,Zelda 4098 Hillsborough Rd. ,,Neshville ,TN,37215,US,615-292-8045,36.1024488,-86.8164764,,,,
