store_name,store_number,address,address2,city,state,zip_code,country,phone_number,latitude,longitude,store_hours,store_type,other_fields,coming_soon
Dick's Sporting Goods,,1531 Beaver Creek Commons Dr. ,,Apex ,NC,27502,US,(919) 367-0194,,,,,,
REI,,6911 Fayetteville Rd. ,,Durham ,NC,27713,US,(919) 806-3442,,,,,,
Dick's Sporting Goods,,168 Grand Hill Place ,,Holly Springs ,NC,27540,US,(919) 552-4148,,,,,,
Dick's Sporting Goods,,5422 New Hope Commons Dr. ,,Durham ,NC,27707,US,(919) 493-9884,,,,,,
DILLARDS,,1105 WALNUT STREET ,,CARY ,NC,27511,US,,,,,,,
KICKS SPORTSWEAR,,1801 Main St ,,Baker City ,OR,97814,US,,,,,,,
Dick's Sporting Goods,,3415 North Eagle Rd. ,,Meridian ,ID,83646,US,(208) 884-2026,,,,,,
Corridor Paddle Surf Shop,,314 East 35th ,,St. Garden City ,ID,83714,US,(208) 615-4787,,,,,,
Water Ski Pro Shop,,3725 Chinden Blvd. ,,Boise ,ID,83714,US,(208) 336-3270,,,,,,
REI,,8300 West Emerald St. ,,Boise ,ID,83704,US,(208) 322-1141,,,,,,
Dick's Sporting Goods,,10204A Two Notch Rd. ,,Columbia ,SC,29229,US,(803) 699-8380,,,,,,
Dick's Sporting Goods,,548 John Ross Pkwy ,,Rock Hill ,SC,29730,US,(803) 324-2393,,,,,,
Sun & Ski,,5341 Ballantyne Commons Pkwy ,,Charlotte ,NC,28277,US,(704) 246-1930,,,,,,
Dick's Sporting Goods,,1110 Bower Pkwy ,,Columbia ,SC,29212,US,(803) 749-0756,,,,,,
REI,,11067 Carolina Place Pkwy ,,Pineville ,NC,28134,US,(704) 341-7405,,,,,,
Moosejaw,,1445 West Webster Place ,,Chicago ,IL,60614,US,(877) 666-7352,,,,,,
REI,,1466 North Halsted St. ,,Chicago ,IL,60642,US,(312) 951-6020,,,,,,
Windward Boardshop,,3317 North Clark ,,Chicago ,IL,60657,US,(773) 472-6868,,,,,,
Dick's Sporting Goods,,1100 S. Canal St. ,,Chicago ,IL,60607,US,(312) 448-2184,,,,,,
Tilly's-River Forest Town Center,,7235 Lake St. River Forest ,,,IL,60305,US,,,,,,,
Tilly's-Stonewood Center,,140 Stonewood Street ,,Downey ,CA,90241,US,,,,,,,
Tilly's-Citadel Outlets Shopping Center,,100 Citadel Drive Suite 317 ,,Commerce ,CA,90040,US,,,,,,,
Xtreme Boardshop,,300 Lakewood Center Mall ,,Lakewood ,CA,90712,US,(562) 634-0734,,,,,,
MOTOR HELMETS,,1871 W Commonwealth Ave ,,Fullerton ,CA,92833,US,,,,,,,
Tilly's-Long Beach Towne Center,,7350 Carson Blvd. ,,Long Beach ,CA,90808,US,,,,,,,
Dick's Sporting Goods,,250 Town Center Pkwy ,,Slidell ,LA,70458,US,(985) 718-3252,,,,,,
DILLARDS,,150 NORTH SHORE BLVD SUITE # 2000 ,,SLIDELL ,LA,70460,US,,,,,,,
DILLARDS,,2600 BEACH BLVD STE 1 ,,BILOXI ,MS,39531,US,,,,,,,
Dick's Sporting Goods,,3893 Promenade Pkwy ,,D'Iberville ,MS,39540,US,(228) 392-1607,,,,,,
LE CAFE BEIGNET,,136 Rue Magnolia ,,Biloxi ,MS,39530,US,,,,,,,
Dick's Sporting Goods,,2235 Walker Lake Rd. ,,Ontario ,OH,44903,US,(419) 747-2727,,,,,,
Dick's Sporting Goods,,4020 Milan Rd. ,,Sandusky ,OH,44870,US,(419) 621-1660,,,,,,
Dick's Sporting Goods,,1960 Tiffin Ave. ,,Findlay ,OH,45840,US,(419) 423-5830,,,,,,
WEST MARINE,,4036 East Harbor Rd ,,Port Clinton ,OH,43452,US,,,,,,,
Dick's Sporting Goods,,1180 Polaris Pkwy ,,Columbus ,OH,43240,US,(614) 985-4729,,,,,,
COASTAL CRUISIN THREADS,,2249 WEALTHY STREET SE ,,Grand Rapids ,MI,49506,US,,,,,,,
Dick's Sporting Goods,,3660 Rivertown Pkwy SW ,,Grandville ,MI,49418,US,(616) 249-0660,,,,,,
Tilly's-RiverTown Crossings,,3700 RiverTown Parkway # 2054 ,,Grandville ,MI,49418,US,,,,,,,
Dick's Sporting Goods,,5118 28th St. SE ,,Grand Rapids ,MI,49512,US,(616) 977-2301,,,,,,
Action Water Sports,,4155 32nd Ave. ,,Hudsonville ,MI,49426,US,(616) 396-3100,,,,,,
Dick's Sporting Goods,,2925 Concord Rd. ,,York ,PA,17402,US,(717) 751-4450,,,,,,
Dick's Sporting Goods,,1313 Kenneth Rd. ,,York ,PA,17404,US,(717) 848-1696,,,,,,
Herhsey Park,,100 W Hersheypark Dr. ,,Hershey ,PA,17033,US,(800) 437-7439,,,,,,
Dick's Sporting Goods,,1155 Carlisle St. ,,Hanover ,PA,17331,US,(717) 632-9362,,,,,,
Dick's Sporting Goods,,5086 Jonestown Rd. ,,Harrisburg ,PA,17112,US,(717) 652-3174,,,,,,
Dick's Sporting Goods,,3301 Veterans Memorial Blvd. ,,Metairie ,LA,70002,US,(504) 835-0091,,,,,,
DILLARDS,,5953 WEST PARK AVE SUITE # 1000 ,,HOUMA ,LA,70364,US,,,,,,,
Dick's Sporting Goods,,197 Westbank Expy ,,Gretna ,LA,70053,US,(504) 361-3869,,,,,,
DILLARDS,,1990 HAMMOND SQUARE DRIVE ,,HAMMOND ,LA,70403,US,,,,,,,
Macys- Boise Towne Square,,370 N Milwaukee St ,,Boise ,ID,83704,US,(208) 373-6000,,,,,,
Dick's Sporting Goods,,131 N. Milwaukee St. ,,Boise ,ID,83704,US,(208) 999-3475,,,,,,
Dick's Sporting Goods,,16905 N. Marketplace Blvd. ,,Nampa ,ID,83687,US,(208) 546-3433,,,,,,
Bob Ward's Sporting Goods,,1120 N 1st St ,,Hamilton ,MT,59840,US,(406) 363-6204,,,,,,
Bob Ward's Sporting Goods,,3015 Paxson St ,,Missoula ,MT,59801,US,(406) 728-3220,,,,,,
Dick's Sporting Goods,,1968 Pavillion Way ,,Lexington ,KY,40509,US,(859) 264-8800,,,,,,
Dick's Sporting Goods,,3645 Nicholasville Rd. ,,Lexington ,KY,40503,US,(859) 273-1642,,,,,,
Dick's Sporting Goods,,2145 Lantern Ridge Dr. ,,Richmond ,KY,40475,US,(859) 353-3009,,,,,,
Dick's Sporting Goods,,7800 John Davis Dr. ,,Frankfort ,KY,40601,US,(502) 871-3624,,,,,,
Dick's Sporting Goods,,1336 Hansel Ave. ,,Suite Florence ,KY,41042,US,(859) 283-2702,,,,,,
MACY'S,,11001 Carolina Pl Pkwy ,,Pineville ,NC,28134,US,,,,,,,
Dick's Sporting Goods,,9600 Pineville-Matthews Rd. ,,Pineville ,NC,28134,US,(704) 540-4750,,,,,,
Dick's Sporting Goods,,10530 NE Pkwy ,,Matthews ,NC,28105,US,(704) 841-3959,,,,,,
NORDSTROM,,4400 Sharon Rd ,,Charlotte ,NC,28211,US,,,,,,,
WEST MARINE,,13000 York Rd. Suite # k ,,Charlotte ,NC,28278,US,,,,,,,
Duke & Duchess,,9091 Walker St. ,,Cypress ,CA,90630,US,(714) 826-5540,,,,,,
Tilly's-Plaza West Covina,,112 Plaza Drive Unit 460 ,,West Covina ,CA,91790,US,,,,,,,
Macy's- Los Angeles Downtown Plaza,,750 W 7th St ,,Los Angeles ,CA,90017,US,(213) 628-9311,,,,,,
SHOE CITY,,268 S Rosemead Blvd ,,Pasadena ,CA,91107,US,,,,,,,
Macy's- Brea Mall,,200 Brea Mall ,,Brea ,CA,92821,US,(714) 990-1400,,,,,,
DILLARDS,,1000 TURTLE CREEK DRIVE ,,HATTIESBURG ,MS,39402,US,,,,,,,
Dick's Sporting Goods,,1000 Turtle Creek Rd. ,,Hattiesburg ,MS,39402,US,(601) 264-6648,,,,,,
Dick's Sporting Goods,,1910 Valley View Blvd. NW ,,Roanoke ,VA,24012,US,(540) 265-0861,,,,,,
Dick's Sporting Goods,,500 New River Rd. ,,Christiansburg ,VA,24073,US,(540) 381-0102,,,,,,
Smith Mountain Wake,,16440 Booker T Washington Hwy ,,Moneta ,VA,24121,US,(540) 721-9253,,,,,,
Dick's Sporting Goods,,4026 Wards Rd. ,,Lynchburg ,VA,24502,US,(434) 832-5666,,,,,,
Dick's Sporting Goods,,145 Holt Garrison Pkwy ,,Danville ,VA,24540,US,(434) 792-9612,,,,,,
Dick's Sporting Goods,,360 Market Dr. ,,Elyria ,OH,44035,US,(440) 324-4100,,,,,,
REI,,6424 Sawmill Rd. ,,Columbus ,OH,43235,US,(614) 799-1938,,,,,,
Dick's Sporting Goods,,6111 Sawmill Rd. ,,Dublin ,OH,43017,US,(614) 798-1111,,,,,,
REI,,4150 Worth Ave. ,,Columbus ,OH,43219,US,(614) 785-0177,,,,,,
Dick's Sporting Goods,,4304 Easton Gateway Dr. ,,Columbus ,OH,43219,US,(614) 472-4250,,,,,,
Dick's Sporting Goods,,11800 W Broad St. ,,Richmond ,VA,23233,US,(804) 360-8165,,,,,,
NORDSTROM,,11812 W Broad St ,,Richmond ,VA,23233,US,,,,,,,
REI,,2020 Old Brick Rd. ,,Glen Allen ,VA,23060,US,(804) 360-1381,,,,,,
Peter Glenn Ski & Sport,,9507 West Broad St. ,,Richmond ,VA,23294,US,(804) 527-2020,,,,,,
Dick's Sporting Goods,,9940 Brook Rd. ,,Glen Allen ,VA,23059,US,(804) 261-1853,,,,,,
Dick's Sporting Goods,,5601 Touhy Ave. ,,Niles ,IL,60714,US,(847) 779-8800,,,,,,
Tilly's-Village Crossing,,5411 Touhy Ave. ,,Skokie ,IL,60077,US,,,,,,,
The Shred Shop,,3855 West Oakton St. ,,Skokie ,IL,60076,US,(847) 679-3060,,,,,,
Dick's Sporting Goods,,1900 Tower Dr. ,,Glenview ,IL,60026,US,(847) 730-7400,,,,,,
REI,,17 West 160 22nd St. ,,Oakbrook Terrace ,IL,60181,US,(630) 574-7700,,,,,,
Dick's Sporting Goods,,3530 W Shore Dr. ,,Holland ,MI,49424,US,(616) 820-0118,,,,,,
Reliable Cycle & Ski,,254 River Ave. ,,Holland ,MI,49423,US,(616) 396-7795,,,,,,
Mackinaw Kite Co.,,106 Washington ,,Grand Haven ,MI,49417,US,(616) 846-7501,,,,,,
Dick's Sporting Goods,,5660 South Harvey St. ,,Muskegon ,MI,49444,US,(231) 798-8003,,,,,,
Outpost Sports,,114 Dykman Ave. ,,South Haven ,MI,49090,US,(269) 637-5555,,,,,,
Tilly's-Fullerton Metro Center,,1429 S. Harbor Blvd. ,,Fullerton ,CA,92832,US,,,,,,,
REI,,214 North Santa Anita Ave. ,,Arcadia ,CA,91006,US,(626) 447-1062,,,,,,
Tilly's-Hastings Village,,3365 E. Foothill Blvd. ,,Pasadena ,CA,91107,US,,,,,,,
Tilly's-Cypress Plaza,,6836 Katella Ave ,,Cypress ,CA,90630-5108,US,,,,,,,
Dick's Sporting Goods,,3359 East Foothill Blvd. ,,Pasadena ,CA,91107,US,(626) 351-1843,,,,,,
Dick's Sporting Goods,,4325 Barclay Downs Rd. ,,Charlotte ,NC,28209,US,(704) 972-9400,,,,,,
Dick's Sporting Goods,,2701 David H McLeod Blvd. ,,Florence ,SC,29501,US,(843) 413-1321,,,,,,
Tilly's-Charlotte Premium Outlets,,5512 New Fashion Way Suite 1060 ,,Charlotte ,NC,28278,US,,,,,,,
Southtown Watersports,,3333 Scott Futrell Dr. ,,Charlotte ,NC,28208,US,(704) 837-0950,,,,,,
Dick's Sporting Goods,,8809 JW Clay Blvd. ,,Charlotte ,NC,28262,US,(704) 295-4411,,,,,,
WEST MARINE,,3658-B AIRPORT BLVD ,,MOBILE ,AL,36561,US,,,,,,,
Adrenaline Surf,,328 Fairhope Ave. ,,Fairhope ,AL,36532,US,(251) 990-0699,,,,,,
Dick's Sporting Goods,,6850 US Hwy 90 ,,Daphne ,AL,36526,US,(251) 621-0031,,,,,,
Dick's Sporting Goods,,9330 Mall of Louisianna Blvd. ,,Baton Rouge ,LA,70836,US,(225) 766-9100,,,,,,
Dick's Sporting Goods,,650 Eastgate South Dr. ,,Cincinnati ,OH,45245,US,(513) 752-5525,,,,,,
Dick's Sporting Goods,,175 Pavilion Pkwy ,,Newport ,KY,41071,US,(859) 261-1348,,,,,,
Dick's Sporting Goods,,3555 Springhurst Blvd. ,,Louisville ,KY,40241,US,(502) 429-0776,,,,,,
Dick's Sporting Goods,,3500 S Hurstbourne Pkwy ,,Louisville ,KY,40299,US,(502) 499-9029,,,,,,
REI,,2643 Edmondson Rd. ,,Cincinnati ,OH,45209,US,(513) 924-1938,,,,,,
STRONG WATER,,614 S Higgins Ave ,,Missoula ,Mt,59801,US,,,,,,,
REI,,3275 North Reserve St. ,,Missoula ,MT,59808,US,(406) 541-1938,,,,,,
REI,,129 North Ely ,,Kennewick ,WA,99336,US,(509) 734-8989,,,,,,
Sporthaus Northwest,,326 N Columbia Center Blvd. ,,Kennewick ,WA,99336,US,(509) 735-7555,,,,,,
Macy's- Columbia Center,,400 N Columbia Center Blvd ,,Kennewick ,WA,99336,US,(509) 734-6000,,,,,,
Dick's Sporting Goods,,120 Crossroad Mall Mt. ,,Hope ,WV,25880,US,(304) 252-3425,,,,,,
Dick's Sporting Goods,,164 Hanes Mall Circle ,,Winston Salem ,NC,27103,US,(336) 659-3557,,,,,,
REI,,3334 West Friendly Ave. ,,Greensboro ,NC,27410,US,(336) 323-3117,,,,,,
BOARD PARADISE,,1604 Battleground Ave ,,Greensboro ,NC,27408,US,,,,,,,
Dick's Sporting Goods,,1208 Bridford Pkwy ,,Greensboro ,NC,27407,US,(336) 856-8875,,,,,,
REI,,1751 Walnut St. ,,Cary ,NC,27511,US,(919) 460-9995,,,,,,
Tilly's-Crossroads Plaza,,301 Crossroads Blvd. ,,Cary ,NC,27518,US,,,,,,,
Dick's Sporting Goods,,401 Crossroads Blvd. ,,Cary ,NC,27518,US,(919) 851-7721,,,,,,
Water World Marine,,135 S Miami Blvd. ,,Durham ,NC,27703,US,(919) 596-8185,,,,,,
Dick's Sporting Goods,,8021 Brier Creek Pkwy ,,Raleigh ,NC,27617,US,(919) 806-5153,,,,,,
Dick's Sporting Goods,,540 West MacPhail Rd. ,,Bel Air ,MD,21014,US,(410) 638-7404,,,,,,
Dick's Sporting Goods,,118 Shawan Rd. ,,Cockeysville ,MD,21030,US,(410) 584-9050,,,,,,
Dick's Sporting Goods,,5950 Carlisle Pike ,,Mechanicsburg ,PA,17050,US,(717) 766-8377,,,,,,
Dick's Sporting Goods,,400 North Center St. ,,Westminster ,MD,21157,US,(410) 848-1039,,,,,,
REI,,63 West Aylesbury Rd. ,,Timonium ,MD,21093,US,(410) 252-5920,,,,,,
REI,,888 Willow Rd. ,,Northbrook ,IL,60062,US,(847) 480-1938,,,,,,
Dick's Sporting Goods,,810 E. Butterfield Rd. ,,Lombard ,IL,60148,US,(630) 317-0200,,,,,,
Dick's Sporting Goods,,601 North Martingale ,,Schaumburg ,IL,60173,US,(847) 995-0200,,,,,,
Tilly's-Woodfield Mall,,E314A Woodfield Mall ,,Schaumburg ,IL,60173,US,,,,,,,
Dick's Sporting Goods,,401 East Palatine Rd. ,,Arlington Heights ,IL,60004,US,(847) 577-1283,,,,,,
Dick's Sporting Goods,,7900 Shelbyville Rd. ,,Louisville ,KY,40222,US,(502) 420-6400,,,,,,
Tilly's-Mall St. Matthews,,5000 Shelbyville Rd. 1615 ,,Louisville ,KY,40207,US,,,,,,,
Dick's Sporting Goods,,309 E. Coliseum Blvd. ,,Fort Wayne ,IN,46805,US,(260) 470-4224,,,,,,
Tilly's-Glenbrook Square,,4201 Coldwater Rd. ,,Space E05 Fort Wayne ,IN,46805,US,,,,,,,
Dick's Sporting Goods,,1520 Apple Glen Blvd. ,,Ft Wayne ,IN,46804,US,(260) 434-0181,,,,,,
Ride The Wave,,2060 North 200 ,,West Angola ,IN,46703,US,(260) 833-6754,,,,,,
MASSEY'S PRO OUTFITTERS,,7519 Corporate Blvd ,,Baton Rouge ,LA,70809,US,,,,,,,
Bennett'S Boat & Ski,,18605 Barnett Rd. ,,Zachary ,LA,70791,US,(225) 654-0245,,,,,,
Dick's Sporting Goods,,6355 Westnedge Ave. ,,Portage ,MI,49002,US,(269) 329-1956,,,,,,
The Edge,,9009 Portage Rd. ,,Portage ,MI,49002,US,(269) 327-1000,,,,,,
Dick's Sporting Goods,,2801 Preyde Blvd. ,,Lansing ,MI,48912,US,(517) 702-1300,,,,,,
Dick's Sporting Goods,,4228 E. Bluegrass Rd. ,,Mt. Pleasant ,MI,48858,US,(989) 772-1990,,,,,,
Moosejaw,,555 East Grand River Ave. ,,East Lansing ,MI,48823,US,(877) 666-7352,,,,,,
Ron Jon Surf Shop,,22723 Perdido Beach Blvd. ,,Orange Beach ,AL,36561,US,(251) 981-8008,,,,,,
WEST MARINE,,24369 Commercial Ave ,,Orange Beach ,AL,36561,US,,,,,,,
Dick's Sporting Goods,,5100 N 9th Ave. ,,Pensacola ,FL,32504,US,(850) 478-9605,,,,,,
REI,,9755 Northlake Centre Pkwy ,,Charlotte ,NC,28216,US,(704) 921-0320,,,,,,
Sun & Ski,,8381 Concord Mills Blvd. ,,Concord ,NC,28027,US,(704) 979-6500,,,,,,
Dick's Sporting Goods,,6445 Northlake Mall Dr. ,,Charlotte ,NC,28216,US,(704) 598-2577,,,,,,
Dick's Sporting Goods,,415 Cox Rd. ,,Gastonia ,NC,28054,US,(704) 810-0994,,,,,,
Dick's Sporting Goods,,6080 Bayfield Pkwy ,,Concord ,NC,28027,US,(704) 262-7373,,,,,,
DILLARDS,,1003 BOSTON DRIVE ,,BURLINGTON ,NC,27215,US,,,,,,,
Dick's Sporting Goods,,1465 Boone Station Dr. ,,Burlington ,NC,27215,US,(336) 584-7545,,,,,,
WHALEBONE SURF SHOP,,4209 Lassiter Mill Rd # 102 ,,Raleigh ,NC,27609,US,(919) 758-8362,,,,,,
Whalebone Surf Shop,,4209 Lassister Mill Rd. ,,Raleigh ,NC,27609,US,(919) 758-8362,,,,,,
REI,,4291 The Circle at ,,North Hills Raleigh ,NC,27609,US,(919) 571-5031,,,,,,
Dick's Sporting Goods,,951 East Lewis & Clark Pkwy ,,Clarksville ,IN,47129,US,(812) 288-2194,,,,,,
DILLARDS,,125 FOUR SEASONS TOWN CENTER ,,GREENSBORO ,NC,27407,US,,,,,,,
Dick's Sporting Goods,,1925 East Market St. ,,Harrisonburg ,VA,22801,US,(540) 433-1268,,,,,,
Dick's Sporting Goods,,1940 Rio Hill Center ,,Charlottesville ,VA,22901,US,(434) 974-5640,,,,,,
Tilly's-Brea Union Plaza,,2365 E. Imperial Hwy ,,Brea ,CA,92821,US,,,,,,,
Dick's Sporting Goods,,2753 East Eastland Center Dr. ,,West Covina ,CA,91791,US,(626) 331-8227,,,,,,
BERTS MEGA MALL,,1151 N Azusa Ave ,,Covina ,CA,91722,US,,,,,,,
SHOE CITY,,3650 W Martin Luther King Jr Blvd ,,Los Angeles ,CA,90008,US,(323) 294-4766,,,,,,
Tilly's-Belmont Shore,,5286 E. 2nd Street ,,Long Beach ,CA,90803-5331,US,,,,,,,
Dick's Sporting Goods,,9204 Stony Point Pkwy ,,Richmond ,VA,23235,US,(804) 253-0800,,,,,,
Dick's Sporting Goods,,1520 Koger Center Blvd. North ,,Chesterfield ,VA,23235,US,(804) 897-5299,,,,,,
Stevies Inc / Ski Center,,15809 WC Main St. ,,Midlothian ,VA,23113,US,(804) 794-8500,,,,,,
PACSUN,,11500 MIDLOTHIAN TURNPIKE ,,RICHMOND ,VA,23235,US,,,,,,,
Dick's Sporting Goods,,14629 Hancock Village St. ,,Chesterfield ,VA,23832,US,(804) 639-1107,,,,,,
Tilly's-Easton Market,,3730 Easton Market ,,Columbus ,OH,43219,US,,,,,,,
Dick's Sporting Goods,,771 South 30th St. ,,Heath ,OH,43056,US,(740) 522-5555,,,,,,
Dick's Sporting Goods,,1825 Hilliard Rome Rd. ,,Hilliard ,OH,43026,US,(614) 777-1396,,,,,,
Dick's Sporting Goods,,200 Great Northern Mall ,,North Olmsted ,OH,44070,US,(440) 686-2400,,,,,,
Dick's Sporting Goods,,17071 SouthPark Center ,,Strongsville ,OH,44136,US,(440) 268-9153,,,,,,
Dick's Sporting Goods,,1982 W. Grand River Ave. ,,Okemos ,MI,48864,US,(517) 853-0400,,,,,,
Outpost Sports,,800 Lions Park Dr. ,,St. Joesph ,MI,49285,US,(269) 983-2010,,,,,,
GLIK'S,,109 E Ludington Ave ,,Ludington ,MI,49431,US,,,,,,,
Tilly's-University Park Mall,,6501 N. Grape Road 448 ,,Mishawaka ,IN,46545,US,,,,,,,
Dick's Sporting Goods,,4520 Grape Rd. ,,Mishawaka ,IN,46545,US,(574) 243-4789,,,,,,
DILLARDS,,5725 JOHNSTON ROAD ,,LAFAYETTE ,LA,70503,US,,,,,,,
Tilly's-Columbia Center,,1321 N. Columbia Center Blvd 355A ,,Kennewick ,WA,99336,US,,,,,,,
Dick's Sporting Goods,,1939 Fillmore St. ,,Twin Falls ,ID,83301,US,(208) 944-3105,,,,,,
Bob Ward's Sporting Goods,,1925 Dewey Blvd ,,Butte ,MT,59701,US,(406) 494-4452,,,,,,
Spokane Alpine Haus,,2925 South Regal St. ,,Spokane ,WA,99223,US,(509) 534-4554,,,,,,
Macy's- Silver Lake Mall,,200 W Hanley Ave # 4 ,,Coeur d\\\'Alene ,ID,83815,US,(208) 772-8700,,,,,,
Dick's Sporting Goods,,145 Shenstone Lane ,,Garner ,NC,27529,US,(919) 662-4177,,,,,,
Overtons,,6101 Capital Blvd. ,,Raleigh ,NC,27616,US,(919) 322-3214,,,,,,
DILLARDS,,3501 SUMNER BLVD ,,RALEIGH ,NC,27616,US,,,,,,,
Dick's Sporting Goods,,3630 Sumner Blvd. ,,Raleigh ,NC,27616,US,(919) 792-9090,,,,,,
Dick's Sporting Goods,,216 Hinton Oaks Blvd. ,,Knightdale ,NC,27545,US,(919) 266-7876,,,,,,
Dick's Sporting Goods,,8825 Townley Rd. ,,Huntersville ,NC,28078,US,(704) 896-6244,,,,,,
ICY WAVES SURF SHOP,,20601 Torrence Chapel Rd ,,Cornelius ,NC,28031,US,,,,,,,
Dick's Sporting Goods,,590 J River Hwy ,,Mooresville ,NC,28117,US,(704) 662-9066,,,,,,
Dick's Sporting Goods,,205 West Blackstock Rd. ,,Spartanburg ,SC,29301,US,(864) 595-9455,,,,,,
DILLARDS,,1930 US HIGHWAY 70 SE ,,HICKORY ,NC,28602,US,,,,,,,
Dick's Sporting Goods,,51 R H L Blvd. South ,,Charleston ,WV,25309,US,(304) 746-6256,,,,,,
Dick's Sporting Goods,,5555 Glenway Ave. ,,Cincinnati ,OH,45238,US,(513) 347-7570,,,,,,
Dick's Sporting Goods,,10220 Colerain Ave. ,,Cincinnati ,OH,45251,US,(513) 741-0800,,,,,,
Wake Edgers,,200 Boardwalk Way ,,Mineral ,VA,23117,US,(540) 894-5970,,,,,,
Dick's Sporting Goods,,324 Southpark Circle ,,Colonial Heights ,VA,23834,US,(804) 526-2745,,,,,,
Dick's Sporting Goods,,137 Spotsylvania Mall ,,Fredericksburg ,VA,22407,US,(540) 548-1200,,,,,,
Dick's Sporting Goods,,9721 Jefferson Davis Pkwy ,,Fredericksburg ,VA,22407,US,(540) 834-4561,,,,,,
Tilly's-Central Park,,1270 Carl D. Silver Parkway ,,Fredericksburg ,VA,22401,US,,,,,,,
Windward Boardshop,,1883 2nd St ,,Highland Park ,IL,60035,US,(847) 780-8970,,,,,,
REI,,1209 E Golf Rd. ,,Schaumburg ,IL,60173,US,(847) 619-6729,,,,,,
Dick's Sporting Goods,,328 West Army Trail Rd. ,,Bloomingdale ,IL,60108,US,(630) 351-0823,,,,,,
Dick's Sporting Goods,,One Orland Park Place Orland Park ,,,IL,60462,US,(708) 675-3100,,,,,,
Dick's Sporting Goods,,21830 West Long Grove Rd. ,,Deer Park ,IL,60010,US,(847) 550-1527,,,,,,
Dick's Sporting Goods,,7800 Montgomery Rd. ,,Cincinnati ,OH,45236,US,(513) 793-1033,,,,,,
Sun & Ski,,7565 Kenwood Rd. ,,Cincinnati ,OH,45236,US,(513) 745-0099,,,,,,
BOSCOVS,,8200 Perry Hall Boulevard ,,Baltimore ,MD,21236,US,,,,,,,
Dick's Sporting Goods,,5220 Campbell Blvd. ,,Baltimore ,MD,21236,US,(410) 933-0134,,,,,,
Bay Boat Works,,145 Hances Point Rd. ,,North East ,MD,21901,US,(410) 287-8113,,,,,,
Dick's Sporting Goods,,2767 Paper Mill Rd. ,,Reading ,PA,19610,US,(610) 373-7366,,,,,,
WEST MARINE,,8640 PULASKI HWY SUITE 105 ,,BALTIMORE ,MD,21237,US,,,,,,,
Outpost Sports,,3602 Grape Rd. ,,Mishawaka ,IN,46545,US,(574) 259-1000,,,,,,
Dick's Sporting Goods,,3343 Tittabawassee Rd. ,,Saginaw ,MI,48604,US,(989) 793-3346,,,,,,
Boater'S Choice Marine,,12011 Brooklyn Rd. ,,Brooklyn ,MI,49230,US,(517) 592-3989,,,,,,
Outpost Sports,,105 W. Buffalo ,,New Buffalo ,MI,49117,US,(269) 469-4210,,,,,,
Dick's Sporting Goods,,2051 Skibo Rd. ,,Fayetteville ,NC,28314,US,(910) 867-8566,,,,,,
Dick's Sporting Goods,,1860 Catawba Valley Blvd. SE ,,Hickory ,NC,28602,US,(828) 431-3025,,,,,,
REI,,1140 Woodruff Rd. ,,Greenville ,SC,29607,US,(864) 297-0588,,,,,,
Dick's Sporting Goods,,1125 Woodruff Rd. ,,Greenville ,SC,29607,US,(864) 284-6199,,,,,,
PACSUN,,700 Haywood Road ,,Greenville ,SC,29607,US,,,,,,,
Dick's Sporting Goods,,14014 East Indiana Ave. ,,Spokane Valley ,WA,99216,US,(509) 891-0977,,,,,,
Spokane Alpine Haus,,12710 E Indiana Ave. ,,Spokane Valley ,WA,99216,US,(509) 927-2505,,,,,,
Dick's Sporting Goods,,542 West Prien Lake Rd. ,,Lake Charles ,LA,70601,US,(337) 478-1488,,,,,,
Dick's Sporting Goods,,434 Pinnacle Pkwy ,,Bristol ,TN,37620,US,(423) 271-6696,,,,,,
Dick's Sporting Goods,,975 East Kemper Rd. ,,Springdale ,OH,45246,US,(513) 671-0707,,,,,,
Hern Marine,,147 Circle Freeway Dr. ,,Cincinnati ,OH,45246,US,(513) 874-2628,,,,,,
Wake Nation,,201 Joe Nexhall Way ,,Fairfield ,OH,45014,US,(513) 887-9253,,,,,,
Dick's Sporting Goods,,700 North Milwaukee Ave ,,Vernon Hills ,IL,60061,US,(847) 573-8240,,,,,,
Dick's Sporting Goods,,7370 West 191st ,,Tinley Park ,IL,60487,US,(815) 806-4952,,,,,,
Dick's Sporting Goods,,2763 West 75th St. ,,Naperville ,IL,60540,US,(630) 548-1476,,,,,,
Dick's Sporting Goods,,10251 Indianapolis Blvd. ,,Highland ,IN,46322,US,(219) 924-2237,,,,,,
Dick's Sporting Goods,,618 Commons Dr. ,,Geneva ,IL,60134,US,(630) 943-4100,,,,,,
INNERLIGHT,,6307 N 9th Ave ,,Pensacola ,FL,32504,US,,,,,,,
Innerlight Surf Shop,,6307 North 9th Ave. ,,Pensacola ,FL,32504,US,(850) 932-5134,,,,,,
Tilly's-Cordova Mall,,5100 N 9th Ave # B201A ,,Pensacola ,FL,32504,US,,,,,,,
Dick's Sporting Goods,,720 MacKenzie Lane ,,Flowood ,MS,39232,US,(601) 992-2341,,,,,,
Innerlight Surf Shop,,203 Gulf Breeze Pkwy ,,Gulf Breeze ,FL,32561,US,(850) 932-5134,,,,,,
Dick's Sporting Goods,,1407 Spring Meadow Dr. ,,Holland ,OH,43528,US,(419) 867-0810,,,,,,
Dick's Sporting Goods,,5001 Monroe St. ,,Toledo ,OH,43623,US,(419) 474-0170,,,,,,
Red Sky,,3135 West Central ,,Toledo ,OH,43606,US,(419) 536-3204,,,,,,
Dick's Sporting Goods,,851 West Alexis Rd. ,,Toledo ,OH,43612,US,(419) 269-2262,,,,,,
Bart's Water Ski Center,,7581 East 800 North ,,North Webster ,IN,46555,US,(574) 834-7666,,,,,,
MARSH CREEK WATERSPORTS,,675 Park Rd ,,Downingtown ,PA,19335,US,,,,,,,
The Ski Bum,,218 East Main St. ,,Newark ,DE,19711,US,,,,,,,
FELLS POINT SURF CO,,1631 Thames St ,,Baltimore ,MD,21231,US,,,,,,,
Dick's Sporting Goods,,1026 E. Lancaster Ave. ,,Downingtown ,PA,19335,US,(610) 518-5200,,,,,,
Tilly's-Christiana Mall,,520 Christiana Mall ,,Newark ,DE,19702,US,,,,,,,
Action Water Sports,,8051 Old US-23 ,,Fenton ,MI,48430,US,(248) 674-1932,,,,,,
Silver Spray Sports,,4037 West Silver Lake Rd. ,,Fenton ,MI,48430,US,(810) 629-6370,,,,,,
Isnorkel,,1136 Baker Rd. ,,Dexter ,MI,48130,US,(734) 253-2461,,,,,,
Dick's Sporting Goods,,9550 Village Place Blvd. ,,Brighton ,MI,48116,US,(810) 225-4849,,,,,,
Moosejaw,,327 South Main St. ,,Ann Arbor ,MI,48104,US,(877) 666-7352,,,,,,
Long Beach Windsurf Center,,3850 East Ocean Blvd. ,,Long Beach ,CA,90803,US,(562) 433-1014,,,,,,
O'Neill Surf Shop – Gardenwalk,,321 West Katella Ave. ,,Anaheim ,CA,92802,US,(714) 635-0424,,,,,,
Pacific Sunwear,,3454 East Miraloma Ave. ,,Anaheim ,CA,92806,US,(877) 372-2786,,,,,,
Tilly's-Glendale Galleria,,2180 Glendale ,,Galleria Glendale ,CA,91210,US,,,,,,,
Harbour Surfboards,,329 Main St. ,,Seal Beach ,CA,90740,US,(562) 430-5614,,,,,,
Dick's Sporting Goods,,300 Crocker Park Blvd. ,,Westlake ,OH,44145,US,(440) 835-3723,,,,,,
Dick's Sporting Goods,,4036 Medina Rd. ,,Akron ,OH,44333,US,(330) 668-1231,,,,,,
Power Sports Of Cleveland,,5475 Engle Rd. ,,Cleveland ,OH,44140,US,(216) 433-9011,,,,,,
Dick's Sporting Goods,,1656 Stringtown Rd. ,,Grove City ,OH,43123,US,(614) 801-1033,,,,,,
Dick's Sporting Goods,,175 Grandview Blvd. ,,Madison ,MS,39110,US,(601) 853-4373,,,,,,
Dick's Sporting Goods,,5700 Deerfield Blvd. ,,Mason ,OH,45040,US,(513) 770-4070,,,,,,
Dick's Sporting Goods,,3355 Princeton Rd. ,,Hamilton ,OH,45011,US,(513) 892-4302,,,,,,
Dick's Sporting Goods,,2300 Gary Farms Blvd. ,,Bowling Green ,KY,42104,US,(270) 796-9115,,,,,,
Dick's Sporting Goods,,2850 East 3rd St. ,,Bloomington ,IN,47401,US,(812) 335-1377,,,,,,
Dick's Sporting Goods,,2700 Miamisburg Centerville Rd. ,,Dayton ,OH,45459,US,(937) 436-5754,,,,,,
DILLARDS,,1078 Bonita Lakes Dr ,,Meridian ,MS,39301,US,,,,,,,
DOG HOUSE SURF SHOP,,246 Miracle Strip Pkwy SE ,,Fort Walton Beach ,FL,32548,US,,,,,,,
Scuba Tech,,301 Hwy 98 ,,East Destin ,FL,32541,US,(850) 837-2822,,,,,,
Dick's Sporting Goods,,620 E McGalliard Rd. ,,Muncie ,IN,47303,US,(765) 212-3677,,,,,,
Dick's Sporting Goods,,8220 Old Troy Pike ,,Huber Heights ,OH,45424,US,(937) 237-1900,,,,,,
Dick's Sporting Goods,,3718 National Rd. ,,East Richmond ,IN,47374,US,(765) 373-9607,,,,,,
Dick's Sporting Goods,,3120 Lohr Rd. ,,Ann Arbor ,MI,48108,US,(734) 332-6095,,,,,,
Dick's Sporting Goods,,100 Center Dr. ,,Newark ,DE,19702,US,(302) 738-8322,,,,,,
Dick's Sporting Goods,,351 W Schuylkill Rd. ,,Pottstown ,PA,19465,US,(610) 323-7100,,,,,,
Dick's Sporting Goods,,6633 Ritchie Hwy Glen ,,Burnie ,MD,21061,US,(410) 768-9372,,,,,,
WEST MARINE,,595 E Ordnance Rd ,,Glen Burnie ,MD,21060,US,,,,,,,
NORDSTROM,,10300 Little Patuxent Pkwy ,,Columbia ,MD,21044,US,,,,,,,
REI,,970 West Eisenhower Pkwy ,,Ann Arbor ,MI,48103,US,(734) 827-1938,,,,,,
Red Belly,,1671 Plymouth Rd. ,,Ann Arbor ,MI,48105,US,(734) 222-4704,,,,,,
Dick's Sporting Goods,,2710 South Green Bay Rd. ,,Mt. Pleasant ,WI,53406,US,(262) 554-8117,,,,,,
Dick's Sporting Goods,,469 River Hill Dr. ,,Ashland ,KY,41101,US,(606) 327-5561,,,,,,
Tilly's-Geneva Commons,,514 Commons Drive ,,Geneva ,IL,60134,US,,,,,,,
Dick's Sporting Goods,,2470 US Hwy 34 ,,Oswego ,IL,60543,US,(630) 554-9061,,,,,,
Tilly's-Gurnee Mills,,6170 W. Grand Ave. Suite 741 ,,Gurnee ,IL,60031,US,,,,,,,
Tilly's-Algonquin Commons,,1832 S. Randall Road ,,Algonquin ,IL,60102,US,,,,,,,
Dick's Sporting Goods,,1816 Randall Rd. ,,Algonquin ,IL,60102,US,(847) 960-7700,,,,,,
Dick's Sporting Goods,,15359 Montanus Dr. ,,Culpeper ,VA,22701,US,(540) 317-4839,,,,,,
Dick's Sporting Goods,,120 Gristmil Plaza ,,Williamsburg ,VA,23185,US,(757) 258-3364,,,,,,
REI,,15200 Potomac Town Place ,,Woodbridge ,VA,22191,US,(703) 583-1938,,,,,,
Tilly's-Potomac Mills Mall,,2700 Potomac Mills Circle Unit 319 ,,Woodbridge ,VA,22192,US,,,,,,,
Tilly's-Cross Creek Mall,,109 Cross Creek Mall ,,Fayetteville ,NC,28303,US,,,,,,,
Dick's Sporting Goods,,505 Eastgate Dr. ,,Goldsboro ,NC,27534,US,(919) 221-6331,,,,,,
Dick's Sporting Goods,,355 Azalea Sq. Blvd. ,,Summerville ,SC,29483,US,(843) 873-4065,,,,,,
Dick's Sporting Goods,,C138 Morganton Heights Blvd. ,,Morganton ,NC,28655,US,(828) 433-8332,,,,,,
Dick's Sporting Goods,,600 Coastal Grand Circle ,,Myrtle Beach ,SC,29577,US,(843) 916-9148,,,,,,
Dick's Sporting Goods,,3450 Wrightsboro Rd. ,,Augusta ,GA,30909,US,(706) 733-1199,,,,,,
Dick's Sporting Goods,,8113 W Ridgewood Dr. ,,Parma ,OH,44129,US,(440) 345-3035,,,,,,
Dick's Sporting Goods,,498 Howe Ave. ,,Cuyahoga Falls ,OH,44221,US,(330) 923-8224,,,,,,
Dick's Sporting Goods,,2727 Fairfield Commons ,,Beavercreek ,OH,45431,US,(937) 426-2955,,,,,,
Tilly's-The Greene,,4453 Glengarry Drive ,,Beavercreek ,OH,45440,US,,,,,,,
Dick's Sporting Goods,,6601 East Lloyd Expy ,,Evansville ,IN,47715,US,(812) 402-9100,,,,,,
Dick's Sporting Goods,,10202 East Washington St. ,,Indianapolis ,IN,46229,US,(317) 890-8802,,,,,,
Tilly's-Eastland Mall,,800 N. Green River Road 78 ,,Evansville ,IN,47715,US,,,,,,,
Eastern Mountain Sports,,4737 Concord Pike ,,Wilmington ,DE,19803,US,(302) 477-0859,,,,,,
Dick's Sporting Goods,,1000 Brandywine Pkwy ,,Wilmington ,DE,19803,US,(302) 477-9577,,,,,,
REI,,6100 Dobbin Rd. ,,Columbia ,MD,21045,US,(410) 872-1742,,,,,,
Dick's Sporting Goods,,6221 Columbia Crossing Circle ,,Columbia ,MD,21045,US,(410) 872-1100,,,,,,
Tilly's-Arundel Mills Mall,,7000 Arundel Mills Circle 212A ,,Hanover ,MD,21076,US,,,,,,,
Chicago Sea Ray,,215 North Point Dr. ,,Winthrope Harbor ,IL,60096,US,(815) 385-2720,,,,,,
Southport Rigging/Supply,,2926 75th St. ,,Kenosha ,WI,53140,US,(262) 652-3126,,,,,,
Dick's Sporting Goods,,44225 W 12 Mile Rd. ,,Novi ,MI,48377,US,(248) 596-3400,,,,,,
EOS Surf & Outdoor,,510 N 8th St ,,Sheboygan ,WI,53081,US,(920) 208-7873,,,,,,
Dick's Sporting Goods,,1020 Port Washington Rd. ,,Grafton ,WI,53024,US,(262) 377-6349,,,,,,
WEST MARINE,,862-b Hwy 98 ,,East Destin ,FL,32541,US,,,,,,,
Ono Surf Shop,,2236 East 30A ,,Santa Rosa Beach ,FL,32459,US,(850) 231-1573,,,,,,
Dick's Sporting Goods,,60 Mall Rd. ,,Barboursville ,WV,25504,US,(304) 733-9720,,,,,,
InFlight Surf & Sail,,1250 Pacific Coast Hwy ,,Seal Beach ,CA,90740,US,(562) 493-3661,,,,,,
Macy's- Westminster Mall,,300 Westminster Mall ,,Westminster ,CA,92683,US,(714) 657-3333,,,,,,
DIANE'S BEACHWEAR,,2401 W 208th St # 4 ,,Torrance ,CA,90501,US,,,,,,,
Tilly's-The Outlets at Orange,,20 City Blvd West Bld K Suite 406 ,,Orange ,CA,92868,US,,,,,,,
PACSUN,,20 City Blvd E # 203 ,,Orange ,CA,92868,US,,,,,,,
Dick's Sporting Goods,,13080 Worth Ave. ,,Woodbridge ,VA,22192,US,(703) 491-9432,,,,,,
WEST MARINE,,16723 General Puller Hwy ,,Deltaville ,VA,23043,US,(804) 776-7890,,,,,,
Dick's Sporting Goods,,46260 Lexington Village Way ,,Lexington Park ,MD,20653,US,(240) 725-0142,,,,,,
Dick's Sporting Goods,,11080 Mall Circle Rd. ,,Waldorf ,MD,20603,US,(301) 885-1762,,,,,,
Dick's Sporting Goods,,8009 Stonewall Shops Square ,,Gainesville ,VA,20155,US,(571) 248-6261,,,,,,
Eternal Wave Surf Shop,,837 Surfside Dr. ,,Surfside Beach ,SC,29575,US,(843) 839-1239,,,,,,
Tsunami Surf Shop,,1421 Dividend Loop ,,Myrtle Beach ,SC,29576,US,(843) 626-6562,,,,,,
PACSUN,,2150 Northwoods Blvd # 21A ,,North Charleston ,SC,29406,US,,,,,,,
Wallerbears Surf Shop,,4723 South King Hwy ,,Myrtle Beach ,Sc,29575,US,(843) 238-4079,,,,,,
Lake Life Clothing,,135 Clary Lane ,,Henrico ,NC,27842,US,(252) 537-1988,,,,,,
Chicago Sea Ray,,31535 North Hwy 12 ,,Round Lake ,IL,60073,US,(815) 385-2720,,,,,,
Munson Ski & Marine,,31695 US-12 ,,Volo ,IL,60073,US,(815) 363-5400,,,,,,
Dick's Sporting Goods,,2255 Southlake Mall ,,Merrillville ,IN,46410,US,(219) 791-0610,,,,,,
Dick's Sporting Goods,,825 Erica Lane ,,Yorkville ,IL,60560,US,(630) 553-5365,,,,,,
Dick's Sporting Goods,,6601 Springfield Mall ,,Springfield ,VA,22150,US,(571) 255-6367,,,,,,
Fairfax Surf Shop,,3936 Old Lee Hwy ,,Fairfax ,VA,22030,US,(703) 273-0015,,,,,,
REI,,3509 Carlin Springs Rd. ,,Bailey's Crossroads ,VA,22041,US,(703) 379-9400,,,,,,
Dick's Sporting Goods,,5714 Columbia Pike ,,Bailey Crossroads ,VA,22041,US,(703) 933-0736,,,,,,
Sun & Ski,,6280 Seven Corners Center Falls ,,Church ,VA,22044,US,(703) 521-1700,,,,,,
Dick's Sporting Goods,,100 Mall Dr. ,,Steubenville ,OH,43952,US,(740) 266-6323,,,,,,
Dick's Sporting Goods,,675 Route 18 ,,Monaca ,PA,15061,US,(724) 770-9081,,,,,,
Dick's Sporting Goods,,5544 Dressler Rd. NW ,,Canton ,OH,44720,US,(330) 966-0990,,,,,,
Dick's Sporting Goods,,347 Washington Rd. ,,Washington ,PA,15301,US,(724) 229-7556,,,,,,
Dick's Sporting Goods,,5000 Robinson Center Dr. ,,Pittsburgh ,PA,15205,US,(412) 787-1330,,,,,,
Dick's Sporting Goods,,1165 Vann Dr. ,,Jackson ,TN,38305,US,(731) 660-4344,,,,,,
Dick's Sporting Goods,,2801 Wilma Rudolph Blvd. ,,Clarksville ,TN,37040,US,(931) 645-2255,,,,,,
Dick's Sporting Goods,,5101 Hinkleville Rd. ,,Paducah ,KY,42001,US,(270) 442-0100,,,,,,
Dick's Sporting Goods,,6812 Charlotte Pike ,,Nashville ,TN,37209,US,(615) 354-0102,,,,,,
Sun & Ski,,545 Cool Springs Blvd. ,,Franklin ,TN,37067,US,(615) 628-0289,,,,,,
Dick's Sporting Goods,,339 Metropolis ,,Mile Plainfield ,IN,46168,US,(317) 839-4803,,,,,,
Dick's Sporting Goods,,10375 East US Hwy 36 ,,Avon ,IN,46123,US,(317) 271-7850,,,,,,
GLIKS,,634 Niblack Blvd ,,Vincennes ,IN,47591,US,,,,,,,
Dick's Sporting Goods,,9899 76th St. ,,Kenosha ,WI,53158,US,(262) 697-5764,,,,,,
Action Water Sports,,988 West Commerce Dr. ,,Traverse City ,MI,49684,US,(231) 943-3434,,,,,,
Tilly's-Southridge Mall,,5300 South 76th Street ,,Greendale ,WI,53129,US,,,,,,,
Dick's Sporting Goods,,21061 Haggerty Rd. ,,Novi ,MI,48375,US,(248) 735-8180,,,,,,
REI,,17559 Haggerty Rd. ,,Northville ,MI,48168,US,(248) 347-2100,,,,,,
Dick's Sporting Goods,,400 Front St. ,,Collegeville ,PA,19426,US,(610) 409-9790,,,,,,
Tilly's-Providence Town Center,,20 Town Center Drive 1 ,,Collegeville ,PA,19426,US,,,,,,,
Dick's Sporting Goods,,5500 Buckeystown Pike ,,Frederick ,MD,21703,US,(240) 772-3181,,,,,,
Dick's Sporting Goods,,160 N. Gulph Rd. ,,King of Prussia ,PA,19406,US,(484) 751-0071,,,,,,
Dick's Sporting Goods,,1417 South Main Chapel Way ,,Gambrills ,MD,21054,US,(410) 721-4941,,,,,,
Buckeye Sports Center Inc,,4610 State Rd. ,,Peninsula ,OH,44264,US,(330) 929-3366,,,,,,
Dick's Sporting Goods,,1500 River Valley Circle South ,,Lancaster ,OH,43130,US,(740) 654-6215,,,,,,
Dick's Sporting Goods,,24545 Cedar Rd. ,,Lyndhurst ,OH,44124,US,(216) 706-9400,,,,,,
Dick's Sporting Goods,,7305 Marketplace Dr. ,,Aurora ,OH,44202,US,(330) 562-4200,,,,,,
Dick's Sporting Goods,,45700 Michigan Ave. ,,Canton ,MI,48188,US,(734) 495-0387,,,,,,
Katin Surf Shop,,16250 Pacific Coast Hwy ,,Huntington Beach ,CA,92649,US,(562) 592-2052,,,,,,
O'Neill Outlet – Orange,,20 City Blvd W ,,Orange ,CA,92868,US,,,,,,,
PACSUN,,1500 E Village Way # 2163 ,,Orange ,CA,92865,US,,,,,,,
Tilly's-Galleria at South Bay,,1815 Hawthorne Blvd Suite 380 ,,Redondo Beach ,CA,90278,US,,,,,,,
Macy's- South Bay Galleria,,1801 Hawthorne Blvd ,,Redondo Beach ,CA,90278,US,(310) 370-2511,,,,,,
Dick's Sporting Goods,,11160 Veirs Mill Rd. ,,Wheaton ,MD,20902,US,(301) 933-3494,,,,,,
REI,,1701 Rockville Pike ,,Rockville ,MD,20852,US,(301) 230-7670,,,,,,
REI,,9801 Rhode Island Ave. ,,College Park ,MD,20740,US,(301) 982-9681,,,,,,
Dick's Sporting Goods,,2 Grand Corner Ave. ,,Gaithersburg ,MD,20878,US,(301) 947-0200,,,,,,
DJ BENNETT,,5335 WISCONSIN AVE NW # 501 ,,WASHINGTON ,DC,20015,US,,,,,,,
REI,,2225 Harvard Way ,,Reno ,NV,89502,US,(775) 828-9090,,,,,,
Macy's- Meadowood Mall,,5100 Meadowood Mall Cir ,,Reno ,NV,89502,US,(775) 826-8333,,,,,,
Tilly's-Meadowood Mall,,5000 Meadowood Mall Circle D107 ,,Reno ,NV,89502,US,,,,,,,
Scheels,,1200 Scheels Dr. ,,Sparks ,NV,89434,US,(775) 331-2700,,,,,,
Tilly's-Summit Sierra,,13985 S Virginia St Suite 800 ,,Reno ,NV,89511,US,,,,,,,
Ron Jon Surf Shop,,1308 Celebrity Circle ,,Myrtle Beach ,SC,29577,US,(843) 448-8882,,,,,,
Ron Jons Surf Shop,,1308 Celebrity Circle # R-9 ,,Myrtle Beach ,SC,29577,US,(843) 448-8882,,,,,,
Halfmoon Outfitters,,1084 East Montague Ave ,,North Charleston ,SC,29405,US,(877) 846-7589,,,,,,
Dick's Sporting Goods,,3500 Galleria Dr. ,,Greenville ,NC,27834,US,(252) 329-0241,,,,,,
REI,,11950 Grand Common Ave. ,,Fairfax ,VA,22030,US,(571) 522-6568,,,,,,
Dick's Sporting Goods,,12501 Fairlakes Circle ,,Fairfax ,VA,22033,US,(703) 803-0300,,,,,,
Skiers Pier,,2505 Dixie Hwy ,,Waterford ,MI,48328,US,(248) 674-4888,,,,,,
SHERPERS,,5750 S 108th St ,,Hales Corners ,WI,53130,US,,,,,,,
Tilly's-Baldwin Commons,,4812 South Baldwin Road ,,Orion Township ,MI,48359,US,,,,,,,
Dick's Sporting Goods,,11500 West Burleigh St. ,,Wauwatosa ,WI,53222,US,(414) 203-1380,,,,,,
Ski Haus Sports Center,,824 East College Pkwy ,,Annapolis ,MD,21409,US,(410) 757-6444,,,,,,
Dick's Sporting Goods,,486 Marketplace Blvd. ,,Selinsgrove ,PA,17870,US,(570) 743-1780,,,,,,
Eastern Mountain Sports,,525 West Lancaster Ave. ,,Haverford ,PA,19041,US,(610) 520-8000,,,,,,
Tilly's-Annapolis Mall,,1170 Annapolis Mall ,,Annapolis ,MD,21401,US,,,,,,,
NORDSTROM,,1880 Annapolis Mall ,,Annapolis ,MD,21401,US,,,,,,,
Dick's Sporting Goods,,6235 Wilson Mills Rd. ,,Highland Heights ,OH,44143,US,(440) 449-9199,,,,,,
Dick's Sporting Goods,,23349 Eureka Rd. ,,Taylor ,MI,48180,US,(734) 374-0429,,,,,,
Dick's Sporting Goods,,7850 Mentor Ave. ,,Mentor ,OH,44060,US,(440) 299-6005,,,,,,
Tilly's-CoolSprings Galleria,,1800 Galleria Boulevard Suite 2155 ,,Franklin ,TN,37067,US,,,,,,,
Dick's Sporting Goods,,2000 Mallory Lane ,,Franklin ,TN,37067,US,(615) 778-0595,,,,,,
REI,,261 Franklin Rd. ,,Brentwood ,TN,37027,US,(615) 376-4248,,,,,,
Sun & Ski,,501 Opry Mills Drive ,,Nashville ,TN,37214,US,(615) 886-4854,,,,,,
Tilly's-Opry Mills,,477 Opry Mills Drive ,,Nashville ,TN,37214,US,,,,,,,
Dick's Sporting Goods,,2626 East Stone Dr. ,,Kingsport ,TN,37660,US,(423) 245-3412,,,,,,
WEST MARINE,,7812 KINGSTON PIKE ,,KNOXVILLE ,TN,37919,US,,,,,,,
Tilly's-Diamond Ridge Marketplace,,1327 E. Gladstone St ,,Glendora ,CA,91740,US,,,,,,,
Huntington Surf & Sport,,7777 Edinger Ave. ,,Huntington Beach ,CA,92647,US,(714) 890-0800,,,,,,
Dick's Sporting Goods,,7542 Edinger Ave. ,,Huntington Beach ,CA,92647,US,(714) 847-3179,,,,,,
The Surfer'S Outlet,,16350 Gothard St. ,,Huntington Beach ,CA,92647,US,(714) 698-5757,,,,,,
REI,,1800 Rosecrans Ave. ,,Manhattan Beach ,CA,90266,US,(310) 727-0728,,,,,,
Sun & Ski,,203 Muddy Branch Rd. ,,Gaithersburg ,MD,20878,US,(301) 948-5200,,,,,,
Ron Jon Surf Shop,,4810 Hwy 17 South ,,North Myrtle Beach ,SC,29582,US,(843) 272-0888,,,,,,
Bert's Surf Shop,,806 21st Ave. South ,,North Myrtle Beach ,SC,29582,US,(843) 272-7458,,,,,,
Dick's Sporting Goods,,140 Fritz Dr. ,,Anderson ,SC,29621,US,(864) 225-7252,,,,,,
Carolina Watersports,,4482 Liberty Hwy ,,Anderson ,SC,29621,US,(864) 332-0090,,,,,,
Overtons,,111 Red Banks Rd ,,Greenville ,NC,27858,US,(800) 334-6541,,,,,,
CATALOG CONNECTION,,210 E 5th St ,,Greenville ,NC,27858,US,,,,,,,
REI,,8209 Watson St. ,,McLean ,VA,22102,US,(703) 506-1938,,,,,,
NORDSTROM,,1400 S Hayes St ,,Arlington ,VA,22202,US,,,,,,,
Dick's Sporting Goods,,10800 Sudley Manor Dr. ,,Manassas ,VA,20109,US,(703) 257-4300,,,,,,
REI,,13100 West Capitol Dr. ,,Brookfield ,WI,53005,US,(262) 783-6150,,,,,,
Dick's Sporting Goods,,2105 South Telegraph Rd. ,,Bloomfield ,MI,48302,US,(248) 456-1806,,,,,,
Eastern Mountain Sports,,200 Harker Place ,,Annapolis ,MD,21401,US,(410) 573-1240,,,,,,
BROWN EYED GIRL,,234 Main St ,,Annapolis ,MD,21401,US,,,,,,,
East of Maui,,2444 Solomons Island Rd ,,Annapolis ,MD,21401,US,(410) 573-9463,,,,,,
Dick's Sporting Goods,,2430 Chemical Rd. ,,Plymouth Meeting ,PA,19462,US,(610) 260-4400,,,,,,
Windsurf Ohio,,225 High St. ,,Fairport Harbor ,OH,44077,US,(440) 951-5253,,,,,,
Moosejaw,,17037 Kerchevel ,,Grosse Pointe ,MI,48230,US,(877) 666-7352,,,,,,
Dick's Sporting Goods,,2305 Gallatin Pike ,,North Madison ,TN,37115,US,(615) 855-1443,,,,,,
Dick's Sporting Goods,,401 South Mt. Juliet Rd. ,,Mt. Juliet ,TN,37122,US,(615) 773-6160,,,,,,
Dick's Sporting Goods,,376 Cox Creek Pkwy ,,Florence ,AL,35630,US,(256) 760-4211,,,,,,
Dick's Sporting Goods,,2615 Medical Center Pkwy ,,Murfreesboro ,TN,37129,US,(615) 896-8882,,,,,,
PACSUN,,7600 Kingston Pike ,,Knoxville ,TN,37919,US,,,,,,,
REI,,6700 Papermill Dr. ,,Knoxville ,TN,37919,US,(865) 584-1938,,,,,,
Dick's Sporting Goods,,221 North Peters Rd. ,,Knoxville ,TN,37923,US,(865) 531-2221,,,,,,
Xsile Sports,,1118 S. La Cienega ,,Los Angeles ,CA,90035,US,(310) 855-1946,,,,,,
Diver's Outlet,,329 West Bonita Ave. ,,San Dimas ,CA,91773,US,(909) 394-2180,,,,,,
Play It Again sports,,4868 190th St. ,,Torrence ,CA,90503,US,(310) 921-2800,,,,,,
Huntington Surf & Sport,,3801 Warner Ave. ,,Huntington Beach ,CA,92649,US,(714) 846-0181,,,,,,
Macy's- Main Place Mall,,2850 N Main St ,,Santa Ana ,CA,92705,US,(714) 547-7211,,,,,,
Dick's Sporting Goods,,1536 Hwy 17 North ,,North Myrtle Beach ,SC,29582,US,(843) 213-2103,,,,,,
Dick's Sporting Goods,,2070 Sam Rittenburg Blvd. ,,Charleston ,SC,29407,US,(843) 573-0891,,,,,,
WEST MARINE,,975 SAVANNAH HWY STE 133 ,,CHARLSTON ,SC,29407,US,,,,,,,
Charleston Scuba,,335 Savannah Hwy ,,Charleston ,SC,29407,US,(843) 763-3483,,,,,,
Dick's Sporting Goods,,12300 Jefferson Ave. ,,Newport News ,VA,23602,US,(757) 249-2140,,,,,,
Tilly's-Patrick Henry Mall,,12300 Jefferson Avenue 218 ,,Newport News ,VA,23602,US,,,,,,,
Macy's- Patrick Henry Mall,,12300 Jefferson Ave ,,Newport News ,VA,23602,US,(757) 249-1656,,,,,,
Skier's Edge,,7213 East 87th ,,Indianapolis ,IN,46256,US,(317) 841-1234,,,,,,
FLIP FLOP SHOP,,6020 E 82nd St # 104 ,,Indianapolis ,IN,46250,US,,,,,,,
Dick's Sporting Goods,,6020 East 82nd St. ,,Castleton ,IN,46250,US,(317) 576-0300,,,,,,
Tilly's-Castleton Square,,6020 East 82nd Street ,,Indianapolis ,IN,46250,US,,,,,,,
Buckeye Sports Center Inc,,8418 Castleton Corner Dr. ,,Indianapolis ,IN,46250,US,(330) 929-3367,,,,,,
Dick's Sporting Goods,,3436 Shoppers Dr. ,,McHenry ,IL,60051,US,(815) 578-8880,,,,,,
Dick's Sporting Goods,,100 Porter's Vale Blvd. ,,Valparaiso ,IN,46383,US,(219) 707-8237,,,,,,
Tilly's-Southern Park Mall,,7401 Market St. 763 ,,Youngstown ,OH,44512,US,,,,,,,
Dick's Sporting Goods,,550 Boardman Poland Rd. ,,Boardman ,OH,44512,US,(330) 629-6871,,,,,,
Dick's Sporting Goods,,301 South Hills Village ,,Pittsburgh ,PA,15241,US,(412) 831-5570,,,,,,
Dick's Sporting Goods,,2021 Mackenzie Way ,,Cranberry Twp ,PA,16066,US,(724) 778-3010,,,,,,
Dick's Sporting Goods,,830 Providence Blvd. ,,Pittsburgh ,PA,15237,US,(412) 548-0012,,,,,,
Village Ski Loft,,800 Tahoe Blvd. ,,Incline Village ,NV,89450,US,(775) 831-3537,,,,,,
Tahoe Paddle And Oar,,8299 North Lake Blvd. ,,Kings Beach ,CA,96143,US,(530) 581-3029,,,,,,
THE SPORTS EXCHANGE,,10095 W River St ,,Truckee ,CA,96161,US,,,,,,,
START HAUS,,10990 Donner Pass Rd ,,Truckee ,CA,96161,US,,,,,,,
Tahoe Mountain Sports,,11200 Donner Pass Rd. ,,Truckee ,CA,96161,US,(530) 546-7001,,,,,,
Dick's Sporting Goods,,24670 Dulles Landing Dr. ,,Sterling ,VA,20166,US,(571) 367-5120,,,,,,
Dick's Sporting Goods,,21070 Dulles ,,Towne Center Dulles ,VA,20166,US,(571) 434-0046,,,,,,
Summit Sports,,330 Enterprise Ct. ,,Bloomfield Hills ,MI,48302,US,(888) 271-7500,,,,,,
Tilly's-Brookfield Square,,95 N. Moorland Road A-40 ,,Brookfield ,WI,53005,US,,,,,,,
Beachnut Surf Shop,,302 West 12th St. ,,Traverse City ,MI,49684,US,(231) 357-0690,,,,,,
REI,,200 West Ridge Pike ,,Conshohocken ,PA,19428,US,(610) 940-0809,,,,,,
Dick's Sporting Goods,,17780 Garland Groh Blvd. ,,Hagerstown ,MD,21740,US,(240) 420-0140,,,,,,
Tilly's-Wolfchase Galleria,,2760 N. Germantown Parkway Ste. # 1290 ,,Memphis ,TN,38133,US,,,,,,,
Dick's Sporting Goods,,2393 North Germantown Pkwy ,,Cordova ,TN,38016,US,(901) 386-5302,,,,,,
Dick's Sporting Goods,,1250 East Main St. ,,Carbondale ,IL,62901,US,(618) 549-7581,,,,,,
Dick's Sporting Goods,,7766 Polo Grounds Blvd. ,,Memphis ,TN,38125,US,(901) 737-2216,,,,,,
Channel Islands Surfboards,,8175 Melrose Ave. ,,Los Angeles ,CA,90046,US,(323) 370-1700,,,,,,
Dick's Sporting Goods,,770 East Sepulveda Blvd. ,,El Segundo ,CA,90245,US,(310) 726-9123,,,,,,
Macy's- Del Amo Fashion Center,,21600 Hawthorne Blvd ,,Torrance ,CA,90503,US,(310) 370-8511,,,,,,
Macy's- Manhattan Village,,3400 N Sepulveda Blvd ,,Manhattan Beach ,CA,90266,US,(310) 546-5525,,,,,,
Surf Concepts,,2001 North Sepulveda Blvd. ,,Manhattan Beach ,CA,90266,US,(310) 545-7397,,,,,,
Dick's Sporting Goods,,13501 Middlebelt Rd. ,,Livonia ,MI,48150,US,(734) 293-0069,,,,,,
Dick's Sporting Goods,,2011 North Roan St. ,,Johnson City ,TN,37601,US,(423) 282-4430,,,,,,
Dick's Sporting Goods,,1114 Bowman Rd. ,,Mt. Pleasant ,SC,29464,US,(843) 800-3032,,,,,,
Parrot Surf Shop,,811 Cloeman Ave. Mt. ,,Pleasant ,SC,29464,US,(843) 819-6716,,,,,,
Parrot Surf Shop,,811 Coleman Blvd. Mt. ,,Pleasant ,SC,29464,US,(843) 884-1035,,,,,,
WEST MARINE,,1440 Ben Sawyer Boulevard # 801 ,,Mt. Pleasant ,SC,29464,US,(843) 881-2272,,,,,,
Trophy Sports,,3050 Marlin Rd. ,,Johns Island ,SC,29455,US,(843) 559-2520,,,,,,
Dick's Sporting Goods,,2040 Meadowbrook Mall ,,Bridgeport ,WV,26330,US,(304) 848-0482,,,,,,
Dick's Sporting Goods,,600 Commerce Blvd. ,,Dickson City ,PA,18519,US,(570) 963-1550,,,,,,
Prime Scuba,,360 Route 211 ,,East Middletown ,NY,10940,US,(845) 341-2078,,,,,,
Dick's Sporting Goods,,1 North Galleria Dr. ,,Middletown ,NY,10941,US,(845) 692-5035,,,,,,
Dick's Sporting Goods,,500 Commerce Blvd. ,,Stroudsburg ,PA,18360,US,(570) 421-7501,,,,,,
Dick's Sporting Goods,,479 Arena Hub Plaza ,,Wilkes-Barre ,PA,18702,US,(570) 823-8288,,,,,,
Dick's Sporting Goods,,5280 State Route 30 ,,Greensburg ,PA,15601,US,(724) 853-1752,,,,,,
High Mountain Sports,,21327 Garret Hwy ,,Oakland ,MD,21550,US,(301) 387-4199,,,,,,
Dick's Sporting Goods,,501 Monroeville Mall ,,Monroeville ,PA,15146,US,(412) 843-0024,,,,,,
Dick's Sporting Goods,,596 Giant St. ,,Morgantown ,WV,26501,US,(304) 598-0554,,,,,,
Dick's Sporting Goods,,3075 Clairton Rd. ,,West Mifflin ,PA,15123,US,(412) 650-0132,,,,,,
Sunrise Sports,,3790 Hwy 395 ,,Carson City ,CA,89705,US,(775) 588-8463,,,,,,
Tahoe City Marine Supply,,700 North Lake Blvd. ,,Tahoe City ,CA,96145,US,(530) 583-0925,,,,,,
TAHOE MARINE SUPPLY,,700 N Lake Blvd ,,Tahoe City ,CA,96145,US,,,,,,,
Tahoe Daves,,590 North Lake Blvd. ,,Tahoe City ,CA,96145,US,(800) 398-8915,,,,,,
WILLARDS SPORT SHOP,,170 N Lake Blvd ,,Tahoe City ,CA,96145,US,,,,,,,
REI,,412 S 27th St. ,,Pittsburgh ,PA,15203,US,(412) 488-9410,,,,,,
Dick's Sporting Goods,,350 East Waterfront Dr. ,,Homestead ,PA,15120,US,(412) 476-9940,,,,,,
REI,,600 Settlers Ridge ,,Pittsburgh ,PA,15205,US,(412) 747-1180,,,,,,
Dick's Sporting Goods,,113 Montgomery Mall ,,North Wales ,PA,19454,US,(215) 368-2186,,,,,,
Pelican Sport Center,,1230 NW End Blvd. ,,Quakertown ,PA,18951,US,(215) 538-2922,,,,,,
Wetsuit Wearhouse,,400 South Conococheague St. ,,Williamsport ,MD,21795,US,(866) 906-7848,,,,,,
Tilly's-Lehigh Valley Mall,,170 Lehigh Valley Mall ,,Whitehall ,PA,18052,US,,,,,,,
Xstreamline Sports,,1861 N. Gaffey St. ,,San Pedro ,CA,90731,US,(310) 518-9514,,,,,,
Tilly's-Rolling Hills Plaza,,2645 Pacific Coast Hwy ,,Torrance ,CA,90505,US,,,,,,,
Jack's Surfboards,,1630 Pacific Coast Hwy ,,Hermosa Beach ,CA,90254,US,(310) 374-7873,,,,,,
E.T. Surf,,904 Aviation Blvd. ,,Hermosa Beach ,CA,90254,US,(310) 379-7660,,,,,,
WEST MARINE,,7 Pacific Coast Hwy ,,Hermosa Beach ,CA,90254,US,,,,,,,
Dick's Sporting Goods,,221 Hamilton Crossing Dr. ,,Alcoa ,TN,37701,US,(865) 379-1480,,,,,,
Dick's Sporting Goods,,6275 University Dr. NW ,,Huntville ,AL,35806,US,(256) 922-9912,,,,,,
Dick's Sporting Goods,,1001 Barnes Crossing Rd. ,,Tupelo ,MS,38804,US,(662) 844-5799,,,,,,
Dick's Sporting Goods,,2718 Carl T Jones Dr. SE ,,Huntsville ,AL,35802,US,(256) 881-3212,,,,,,
Dick's Sporting Goods,,5809 Youngstown Warren Rd. ,,Niles ,OH,44446,US,(330) 505-9233,,,,,,
Mingos Surf Shop,,1101 B Ocean Blvd. ,,Isle of Palms ,SC,29451,US,(843) 886-8388,,,,,,
Dick's Sporting Goods,,329 Airport Rd. ,,Arden ,NC,28704,US,(828) 974-3371,,,,,,
PALMETTO SHADES,,384 College Avenue # 6 ,,Clemson ,SC,29631,US,,,,,,,
Dick's Sporting Goods,,347 Court St. ,,Binghamton ,NY,13904,US,(607) 724-4361,,,,,,
Dick's Sporting Goods,,2437 Vestal Pkwy ,,East Vestal ,NY,13850,US,(607) 797-5220,,,,,,
Dick's Sporting Goods,,387 Mount Hope Ave. ,,Rockaway ,NJ,7866,US,(973) 659-1950,,,,,,
Dick's Sporting Goods,,5006 State Hwy 23 ,,Oneonta ,NY,13820,US,(607) 432-0203,,,,,,
Pelican Sport Center,,2980 NJ-10 ,,Morris Plains ,NJ,7950,US,(973) 267-0964,,,,,,
Dick's Sporting Goods,,1112 Western Blvd. ,,Jacksonville ,NC,28546,US,(910) 455-0928,,,,,,
Willard's Sport Shop,,170 North Lake Blvd. ,,Tahoe City ,CA,96145,US,(530) 583-3356,,,,,,
High Sierra Waterski School,,1850 West Lake Blvd. ,,Tahoe City ,CA,96145,US,(530) 583-7417,,,,,,
Obexter's Boat Company,,5355 West Lake Blvd. ,,Homewood ,CA,96141,US,(916) 525-7962,,,,,,
Sunrise Sports,,237 Tramway ,,Stateline ,NV,89449,US,(775) 586-8168,,,,,,
Tahoe Sports Ltd.,,4000 Lake Tahoe Blvd. ,,South Lake Tahoe ,CA,96150,US,(530) 542-4000,,,,,,
Dick's Sporting Goods,,13157 Norell Lane ,,Noblesville ,IN,46060,US,(317) 776-1687,,,,,,
Dick's Sporting Goods,,2054 North State Route 50 ,,Bourbonnais ,IL,60914,US,(815) 802-0565,,,,,,
The Board Shop,,269 Broad St. ,,Lake Geneva ,WI,53147,US,(262) 248-1703,,,,,,
Dick's Sporting Goods,,6380 East State St. ,,Rockford ,IL,61108,US,(815) 397-7115,,,,,,
Dick's Sporting Goods,,329 Pittsburgh Mills Circle ,,Tarentum ,PA,15084,US,(724) 274-0240,,,,,,
Huntington Surf & Sport,,300 Pacific Coast Hwy ,,Huntington Beach ,CA,90402,US,(714) 841-4000,,,,,,
Becker Surfboards,,301 Pier Ave. ,,Hermosa Beach ,CA,90254,US,(310) 372-6554,,,,,,
Macy's- Burbank Town Center,,200 E Cypress Ave ,,Burbank ,CA,91502,US,(818) 841-2100,,,,,,
Play It Again Sports,,18352 Beach Blvd. ,,Huntington Beach ,CA,92648,US,(714) 848-6788,,,,,,
Tilly's-Five Points Plaza,,18545 Main St. ,,Huntington Beach ,CA,92648,US,,,,,,,
Dick's Sporting Goods,,2631 MacArthur Rd. ,,Whitehall ,PA,18052,US,(610) 231-0691,,,,,,
Dick's Sporting Goods,,1365 N DuPont Hwy ,,Dover ,DE,19901,US,(302) 678-9160,,,,,,
Dick's Sporting Goods,,2510 West Moreland Rd. ,,Willow Grove ,PA,19090,US,(215) 657-8977,,,,,,
Dick's Sporting Goods,,399 Almonesson Rd. ,,Deptford ,NJ,8096,US,(856) 384-8533,,,,,,
Moosejaw,,154 North Adams ,,Rochester Hills ,MI,48309,US,(877) 666-7352,,,,,,
Dick's Sporting Goods,,2041 US 45 ,,Columbus ,MS,39705,US,(662) 570-1025,,,,,,
Tilly's-The Terrace,,2220 Hamilton Place # 130 ,,Chattanooga ,TN,37421,US,,,,,,,
Dick's Sporting Goods,,2020 Gunbarrel Rd. ,,Chattanooga ,TN,37421,US,(423) 892-3122,,,,,,
Dick's Sporting Goods,,590 South County Center Way ,,Saint Louis ,MO,63129,US,(314) 416-1905,,,,,,
Dick's Sporting Goods,,6253 College Dr. ,,Suffolk ,VA,23435,US,(757) 638-2001,,,,,,
Sea Side Dive Shop,,28612 Harper Ave. ,,St. Clair Shores ,MI,48081,US,(586) 772-7676,,,,,,
Dick's Sporting Goods,,32385 Gratiot Ave. ,,Roseville ,MI,48066,US,(586) 279-1221,,,,,,
Moosejaw,,32200 North Avis ,,Madison Heights ,MI,48071,US,(248) 246-4000,,,,,,
REI,,31 Schenck Pkwy ,,Asheville ,NC,28803,US,(828) 687-0918,,,,,,
McKevlins Surf Shop,,8 Center St. ,,Folly Beach ,SC,29439,US,(843) 588-2247,,,,,,
Tilly's-Jacksonville Mall,,377 Jacksonville Mall H000 ,,Jacksonville ,NC,28546,US,,,,,,,
ISLAND PASSAGE,,4 Market St ,,Wilmington ,NC,28401,US,,,,,,,
PACSUN,,3500 Oleander Dr ,,Wilmington ,NC,28403,US,,,,,,,
Hot Wax Surf Shop,,4510 Hoggard Dr. ,,Wilmington ,NC,28403,US,(910) 791-9283,,,,,,
REI,,8490 Castleton Corner Dr. ,,Indianapolis ,IN,46250,US,(317) 585-1938,,,,,,
Dick's Sporting Goods,,6030 West 86th St. ,,Indianapolis ,IN,46278,US,(317) 956-1400,,,,,,
Dick's Sporting Goods,,14350 Clay Terrace Blvd. ,,Carmel ,IN,46032,US,(317) 818-3467,,,,,,
Dick's Sporting Goods,,2001 South Rd. ,,Poughkeepsie ,NY,12601,US,(845) 297-4767,,,,,,
Dick's Sporting Goods,,1300 Ulster Ave. ,,Kingston ,NY,12401,US,(845) 382-2151,,,,,,
Dick's Sporting Goods,,4423 Birkland Place ,,Easton ,PA,18045,US,(610) 330-0383,,,,,,
Dick's Sporting Goods,,76 Willowbrook Blvd. ,,Wayne ,NJ,7470,US,(973) 200-8077,,,,,,
Dick's Sporting Goods,,240 Route 10 West Suite East ,,Hanover ,NJ,7936,US,(973) 428-0889,,,,,,
SIDESTREET BOUTIQUE,,4000 Lake Tahoe Blvd # 19 ,,South Lake Tahoe ,CA,96150,US,,,,,,,
The Village,,3552 Lake Tahoe Blvd. ,,South Lake Tahoe ,CA,96150,US,(530) 541-4444,,,,,,
SOUTH TAHOE STANDUP PADDLE,,3115 Harrison Ave ,,South Lake Tahoe ,CA,96150,US,,,,,,,
Tahoe Sports Ltd.,,1032 Emerald Bay Blvd. ,,South Lake Tahoe ,CA,96150,US,(530) 542-4000,,,,,,
SIERRA AT TAHOE,,1111 Sierra at Tahoe Rd ,,Twin Bridges ,CA,95735,US,,,,,,,
Dick's Sporting Goods,,1216 County Route 64 ,,Horseheads ,NY,14845,US,(607) 796-0850,,,,,,
Dick's Sporting Goods,,300 Lycoming Mall Circle ,,Pennsdale ,PA,17756,US,(570) 546-2625,,,,,,
Dick's Sporting Goods,,40 Catherwood Rd. ,,Ithaca ,NY,14850,US,(607) 257-5077,,,,,,
Dick's Sporting Goods,,107 A River Hills Rd. ,,Asheville ,NC,28805,US,(828) 299-0077,,,,,,
Ocean Surf Shop,,31 Center St. ,,Folly Beach ,SC,29439,US,(843) 588-9175,,,,,,
Dick's Sporting Goods,,816 South College Rd. ,,Wilmington ,NC,28403,US,(910) 793-1904,,,,,,
Dick's Sporting Goods,,6810 Parker Farm Dr. ,,Wilmington ,NC,28405,US,(910) 208-4437,,,,,,
Onshore Surf Shop,,405 Roland Ave. ,,Surf City ,NC,28445,US,(910) 328-2232,,,,,,
50 South Surf Shop,,302 S Topsail Dr ,,Surf City ,NC,28445,US,(910) 328-7911,,,,,,
Bert's Surf Shop,,310 N New River Dr. ,,Surf City ,NC,28403,US,(910) 328-1010,,,,,,
Dick's Sporting Goods,,149 Falon Lane ,,Altoona ,PA,16602,US,(814) 941-2273,,,,,,
Dick's Sporting Goods,,400 John R. Rd. ,,Troy ,MI,48083,US,(248) 577-2879,,,,,,
Moosejaw,,34288 Woodward Ave. ,,Birmingham ,MI,48009,US,(877) 666-7352,,,,,,
REI,,766 East Big Beaver Rd. ,,Troy ,MI,48083,US,(248) 689-4402,,,,,,
Macy's- Westside Pavilion,,10730 W Pico Blvd ,,Los Angeles ,CA,90064,US,(310) 475-4911,,,,,,
SHOE LOCKER,,18291 Brookhurst St # 1 ,,Fountain Valley ,CA,92708,US,,,,,,,
Tilly's-Anaheim Hills Festival,,8176 E. Santa Ana Canyon Rd ,,Anaheim Hills ,CA,92808,US,,,,,,,
WEST MARINE,,4750 ADMIRALTY WY ,,MARINA DEL RAY ,CA,90292,US,,,,,,,
Rider Shack,,13211 West Washington Blvd. ,,Los Angeles ,CA,90066,US,(310) 821-7873,,,,,,
Mt. Recreation,,491 East Main St. ,,Grass Valley ,CA,95945,US,(530) 477-8006,,,,,,
WEST MARINE,,4445 GRANITE DR. SUITE 501 ,,ROCKLIN ,CA,95677,US,,,,,,,
Tilly's-Broadstone Plaza,,2761 East Bidwell Street 100 ,,Folsom ,CA,95630,US,,,,,,,
REI,,2425 Iron Point Rd. ,,Folsom ,CA,95630,US,(916) 817-8944,,,,,,
Macy's- Westfield Galleria at Roseville,,1197 Galleria Blvd ,,Roseville ,CA,95678,US,(916) 771-3333,,,,,,
Dick's Sporting Goods,,325 Colonade Blvd. ,,State College ,PA,16803,US,(814) 861-1350,,,,,,
MCNULTY'S GIFTS,,5522 Shaffer Rd # 64 ,,DuBois ,PA,15801,US,,,,,,,
Bert's Surf Shop,,5740 Oldeander Dr. ,,Wilmington ,NC,28403,US,(910) 392-4501,,,,,,
Aquatic Safaris,,7220 Wrightsville Ave. ,,Wilmington ,NC,28403,US,(910) 392-4386,,,,,,
Surf City Surf Shop,,530 Causeway Dr. ,,Wrightsville ,NC,28480,US,(910) 256-2265,,,,,,
Dick's Sporting Goods,,1521 North Main St. Ext ,,Butler ,PA,16001,US,(724) 284-8140,,,,,,
Dick's Sporting Goods,,398 Retail Commons Pkwy ,,Martinsburg ,WV,25403,US,(304) 263-1225,,,,,,
Dick's Sporting Goods,,1675 South Pleasant Valley Rd. ,,Winchester ,VA,22601,US,(540) 431-3487,,,,,,
Tilly's-Lakeside Mall,,14600 Lakeside Circle Space 2150 ,,Sterling Heights ,MI,48313,US,,,,,,,
Moosejaw,,17370 Hall Rd. ,,Clinton Township ,MI,48038,US,(877) 666-7352,,,,,,
Dick's Sporting Goods,,45230 Northpointe Blvd. ,,Utica ,MI,48315,US,(586) 254-2653,,,,,,
REI,,1148 Galleria Blvd. ,,Roseville ,CA,95678,US,(916) 724-6750,,,,,,
Tilly's-Galleria at Roseville,,1151 Galleria Blvd 2020 ,,Roseville ,CA,95678,US,,,,,,,
GROUND ZERO BOARDSHOP,,1801 TAYLOR ROAD UNIT # 130 ,,ROSEVILLE ,CA,95661,US,,,,,,,
Water Ski World,,8042 Greenback Lane ,,Citrus Heights ,CA,95610,US,(916) 723-2660,,,,,,
Macy's- Sunrise Mall,,6000 Sunrise Blvd ,,Citrus Heights ,CA,95610,US,(916) 962-3333,,,,,,
Dick's Sporting Goods,,1620 Clark St. ,,Auburn ,NY,13021,US,(315) 258-3750,,,,,,
LL Bean,,60 Eastview Mall Dr. ,,Victor ,NY,14564,US,(888) 552-5583,,,,,,
Tilly's-Eastview Mall,,766 Eastview Mall ,,Victor ,NY,14564,US,,,,,,,
Dick's Sporting Goods,,20 Cobblestone Court Dr. ,,Victor ,NY,14564,US,(585) 223-1530,,,,,,
Dick's Sporting Goods,,305 Miracle Mile Dr. ,,Rochester ,NY,14623,US,(585) 697-7400,,,,,,
Tilly's-Burbank Empire Center,,1751 N. Victory Place ,,Burbank ,CA,91504,US,,,,,,,
Tilly's-Chino Spectrum Towne Center,,3865 Grand Avenue ,,Chino ,CA,91710,US,,,,,,,
Openwater Habitat Marine,,1800 East First St. ,,Santa Ana ,CA,92705,US,(714) 558-1055,,,,,,
Action Water Sports,,4144 Lincoln Ave. ,,Marina Del Rey ,CA,90292,US,(310) 827-2233,,,,,,
San Pedro Surf,,2234 S. Pacific Ave. ,,San Pedro ,CA,90731,US,(310) 547-5159,,,,,,
Redline Watersports,,4805 Voges Rd. ,,Madison ,WI,53718,US,(608) 838-0838,,,,,,
Tilly's-Tippecanoe Mall,,2415 Sagamore Parkway South D05A ,,Lafayette ,IN,47905,US,,,,,,,
Dick's Sporting Goods,,2415 Sagamore Pkwy ,,Lafayette ,IN,47905,US,(765) 449-0914,,,,,,
Dick's Sporting Goods,,50580 Waterside Dr. ,,Chesterfield ,MI,48051,US,(586) 949-0760,,,,,,
CB Surf Shop,,209 S Lake Park Blvd. ,,Carolina Beach ,NC,28428,US,(910) 458-7005,,,,,,
Tilly's-Sunrise Mall,,6157 Sunrise Mall ,,Citrus Heights ,CA,95610-6903,US,,,,,,,
Norcal Mastercraft,,11379 Pyrites Way ,,Rancho Cordova ,CA,94588,US,(916) 851-5808,,,,,,
Larson Marine Inc.,,11361 Folsom Blvd. ,,Rancho Cordova ,CA,95742,US,(916) 635-8755,,,,,,
Dick's Sporting Goods,,1992 East 20th St. ,,Chico ,CA,95928,US,(530) 343-3351,,,,,,
Tilly's-Arden Fair,,1689 Arden Way Suite 1326 ,,Sacramento ,CA,95815,US,,,,,,,
Sleeping Bear Surf And Kayak,,10228 West Front St. ,,Empire ,MI,49630,US,(231) 326-9283,,,,,,
Dick's Sporting Goods,,1290 South Rochester Rd. ,,Rochester Hills ,MI,48307,US,(248) 608-9696,,,,,,
Tilly's-Deptford Mall,,1750 Deptford Center Road 1232 ,,Deptford ,NJ,8096,US,,,,,,,
Eastern Mountain Sports,,1700 Valley Square Blvd. ,,Warrington ,PA,18976,US,(215) 343-0169,,,,,,
Dick's Sporting Goods,,2130 Marlton Pike West ,,Cherry Hill ,NJ,8002,US,(856) 317-8394,,,,,,
Coast Guard,,510 Independence Pkwy ,,Chesapeake ,VA,23320,US,(757) 420-2480,,,,,,
Dick's Sporting Goods,,4180 Veterans Memorial Dr. ,,Batavia ,NY,14020,US,(585) 344-7150,,,,,,
Dick's Sporting Goods,,1062 Ridge Rd. ,,Webster ,NY,14580,US,(585) 872-1080,,,,,,
Dick's Sporting Goods,,304 Greece Ridge Center ,,Rochester ,NY,14626,US,(585) 227-3730,,,,,,
Dick's Sporting Goods,,4044 Grand Ave. ,,Chino ,CA,91710,US,(909) 590-7626,,,,,,
Dick's Sporting Goods,,23081 Savi Ranch Pkwy ,,Yorba Linda ,CA,92887,US,(714) 685-7802,,,,,,
Jack's Surfboards,,101 Main St. ,,Huntington Beach ,CA,92648,US,(714) 536-4516,,,,,,
Tilly's-Metro Pointe at South Coast,,901 K South Coast Drive ,,Costa Mesa ,CA,92626,US,,,,,,,
Macy's- South Coast Plaza,,3333 Bristol St ,,Costa Mesa ,CA,92626,US,(714) 556-0611,,,,,,
Dick's Sporting Goods,,200 Greenbriar Dr. ,,Normal ,IL,61761,US,(309) 454-1602,,,,,,
Dick's Sporting Goods,,350 East Towne Mall ,,Madison ,WI,53704,US,(608) 241-2764,,,,,,
REI,,280 State Route 10 East ,,Hanover ,NJ,7936,US,(973) 581-1938,,,,,,
Dick's Sporting Goods,,2400 Palisades Center Dr. ,,West Nyack ,NY,10994,US,(845) 353-1086,,,,,,
Pelican Sport Center,,3555 Route 22 ,,Somerville ,NJ,8876,US,(908) 534-2534,,,,,,
Macy's- Greenbrier Mall,,1401 Greenbrier Pkwy ,,Chesapeake ,VA,23320,US,(757) 424-6260,,,,,,
Dick's Sporting Goods,,4621 Columbus St. ,,Virginia Beach ,VA,23462,US,(757) 493-6400,,,,,,
WEST MARINE,,4000 VIRGINIA BEACH BLVD SUITE 100 ,,VIRGINIA BEACH ,VA,23452,US,(757) 340-8584,,,,,,
Nexcom,,3280 Virginia Beach Blvd. ,,Virginia Beach ,VA,23452,US,(757) 463-6200,,,,,,
Macy's- Arden Fair,,1701 Arden Way ,,Sacramento ,CA,95815,US,(916) 925-2845,,,,,,
REI,,1790 Expo Pkwy ,,Sacramento ,CA,95815,US,(916) 924-8900,,,,,,
Tilly's-Village at Sacramento Gateway,,3642 North Freeway Blvd Suite 210 ,,Sacramento ,CA,95834,US,,,,,,,
FLEET FEET SPORTS,,2311 J St ,,Sacramento ,CA,95816,US,,,,,,,
Hughes Ski Hut,,13600 CA-99 ,,Chico ,CA,95973,US,(530) 891-4032,,,,,,
Dick's Sporting Goods,,237 West Towne Mall ,,Madison ,WI,53719,US,(608) 829-1313,,,,,,
REI,,7483 West Towne Way ,,Madison ,WI,53719,US,(608) 833-6680,,,,,,
Isthmus Sailboards,,5495 Catfish Court ,,Waunakee ,WI,53597,US,(608) 849-4991,,,,,,
The Liquid Edge,,1710 North John St. ,,Farmer City ,IL,61842,US,(309) 928-9498,,,,,,
Dick's Sporting Goods,,2113 North Prospect Ave. ,,Champaign ,IL,61822,US,(217) 352-4173,,,,,,
NORDSTROM,,2000 Route 38 ,,Cherry Hill ,NJ,8002,US,,,,,,,
Sunrise Surf and Skateboard Shop,,259 Marlton Pike East ,,Cherry Hill ,NJ,8034,US,(856) 427-7873,,,,,,
Dick's Sporting Goods,,3434 Amelia Dr. ,,Orchard Park ,NY,14127,US,(716) 821-1616,,,,,,
Dick's Sporting Goods,,10311 Destiny Dr. ,,Syracuse ,NY,1320,US,(315) 471-7770,,,,,,
B.C. Surf & Sport,,1 Destiny Dr. ,,Syracuse ,NY,1320,US,(315) 474-1107,,,,,,
Val Surf,,4810 Whitsett Ave. ,,Vally Village ,CA,91607,US,(818) 769-6977,,,,,,
BOARDWALK SKATE + SURF,,201 Ocean Front Walk ,,Venice ,CA,90291,US,,,,,,,
Jack's Surfboards,,2012 Lincoln Blvd. ,,Santa Monica ,CA,90405,US,(301) 450-6569,,,,,,
ZJ Boarding House,,2619 Main St. ,,Santa Monica ,CA,90405,US,(310) 392-5646,,,,,,
Scuba Haus,,2501 Wilshire Blvd. ,,Santa Monica ,CA,90403,US,(310) 828-2916,,,,,,
Lynnhaven Dive Center,,1413 North Great Neck Rd. ,,Virginia Beach ,VA,23454,US,(757) 481-7949,,,,,,
Macy's- Lynnhaven Mall,,701 S Lynnhaven Rd ,,Virginia Beach ,VA,23452,US,(757) 306-0666,,,,,,
Dick's Sporting Goods,,240 N State Route 17 ,,Paramus ,NJ,7652,US,(201) 261-2926,,,,,,
Dick's Sporting Goods,,2700A Route 22 ,,East Union ,NJ,7083,US,(908) 964-2580,,,,,,
Dick's Sporting Goods,,45 Fitzgerald St. ,,Yonkers ,NY,10710,US,(914) 964-0580,,,,,,
REI,,49 Fitzgerald St. ,,Yonkers ,NY,10710,US,(914) 410-9500,,,,,,
Tilly's-Elk Grove Commons,,9688 Bruceville Road Space 106 ,,Elk Grove ,CA,95757,US,,,,,,,
Velocity Island Park,,755 North East St. ,,Woodland ,CA,95776,US,(530) 723-6885,,,,,,
REI,,5757 Pacific Ave. ,,Stockton ,CA,95207,US,(209) 957-9479,,,,,,
Dick's Sporting Goods,,5354 Pacific Ave. ,,Stockton ,CA,95207,US,(209) 992-5745,,,,,,
Tilly's-Weberstown Mall,,4950 Pacific Avenue Suite 315 ,,Stockton ,CA,95207-6306,US,,,,,,,
Dick's Sporting Goods,,5205 West War Memorial Dr. ,,Peoria ,IL,61615,US,(309) 683-2400,,,,,,
Wind Power,,7351 Winnebago Dr. ,,Fond Du Lac ,WI,54935,US,(920) 922-2550,,,,,,
Sunlust,,200 Mallard Dr. ,,Emerald Isle ,NC,28594,US,(252) 354-6466,,,,,,
Bert's Surf Shop,,8202 Emerald Dr. ,,Emerald Isle ,NC,28594,US,(252) 354-2441,,,,,,
Curtis Sports,,4276 St Francis Dr. ,,Hamburg ,NY,14075,US,(716) 627-2247,,,,,,
Dick's Sporting Goods,,3649 Erie Blvd. ,,East Dewitt ,NY,13214,US,(315) 449-2232,,,,,,
LL Bean,,304 Towne Center Dr. ,,Fayetteville ,NY,13066,US,(888) 615-9962,,,,,,
Dick's Sporting Goods,,2 Walden ,,Galleria Buffalo ,NY,14225,US,(716) 651-0600,,,,,,
Dick's Sporting Goods,,4081 Route 31 ,,Clay ,NY,13041,US,(315) 652-7674,,,,,,
Dick's Sporting Goods,,28564 Marlboro Ave. ,,Easton ,MD,21601,US,(410) 200-9560,,,,,,
Dick's Sporting Goods,,1300 Nixon Dr. Mt. ,,Laurel ,NJ,8054,US,(856) 802-1225,,,,,,
Dick's Sporting Goods,,20 Franklin Mills Blvd. ,,Philadelphia ,PA,19154,US,(215) 637-3230,,,,,,
Scuba.Com,,1752 Langley Ave. ,,Irvine ,CA,92614,US,(949) 459-9400,,,,,,
Tilly's-Montclair Plaza,,5144 E Montclair Plaza Lane ,,Montclair ,CA,91763,US,,,,,,,
Dick's Sporting Goods,,2771 El ,,Camino Real Tustin ,CA,92782,US,(714) 731-1300,,,,,,
Macy's- Montclair Place,,5200 N Montclair Plaza Ln ,,Montclair ,CA,91763,US,(909) 621-3011,,,,,,
REI,,2962 El ,,Camino Real Tustin ,CA,92782,US,(714) 505-0205,,,,,,
LL Bean,,1 Ridge Hill Blvd. ,,Yonkers ,NY,10710,US,(888) 490-3836,,,,,,
Dick's Sporting Goods,,499 Stelton Rd. ,,South Plainfield ,NJ,7080,US,(908) 226-4912,,,,,,
Dick's Sporting Goods,,1 Maple Ave. ,,White Plains ,NY,10605,US,(914) 328-3487,,,,,,
Pan Aqua Diving,,460 West 43rd St. ,,New York ,NY,10036,US,(212) 736-3483,,,,,,
Leisure Pro,,42 W 18th St. ,,New York ,NY,10011,US,(212) 645-1234,,,,,,
Tilly's-Lynnhaven Mall,,701 Lynnhaven Parkway B09 ,,Virginia Beach ,VA,23452,US,,,,,,,
Dick's Sporting Goods,,701 Lynnhaven Pkwy ,,Virginia Beach ,VA,23452,US,(757) 463-4379,,,,,,
OAKIES BOARD SHOP,,1275 E F St ,,Oakdale ,CA,95361,US,,,,,,,
Larson Marine Inc.,,1325 West Fremont St. ,,Stockton ,CA,95203,US,(209) 465-5801,,,,,,
WEST MARINE,,1810 FIELD AVE ,,STOCKTON ,CA,95203,US,,,,,,,
P3 MAMMOTH,,3325 Main St ,,Mammoth Lakes ,CA,93546,US,,,,,,,
Tilly's-Nut Tree Village,,1641 E. Monte Vista Ave. ,,Vacaville ,CA,95688,US,,,,,,,
White Birch Lodge,,571 Meguzee Point Rd. ,,Elk Rapids ,MI,49629,US,(231) 264-8271,,,,,,
ALDEN OUTFITTERS,,10520 Coy St ,,Alden ,MI,49612,US,,,,,,,
Dick's Sporting Goods,,4500 16th St. ,,Moline ,IL,61265,US,(309) 517-2572,,,,,,
Tilly's-District at Tustin Legacy,,2403 Park Avenue ,,Tustin ,CA,92782,US,,,,,,,
REI,,402 Santa Monica Blvd. ,,Santa Monica ,CA,90401,US,(310) 458-4370,,,,,,
O'Neill Surf shop,,131 Broadway ,,Santa Monica ,CA,90401,US,(657) 859-3721,,,,,,
Tilly's-3rd Street Promenade,,1426 3rd Street ,,Promenade Santa Monica ,CA,90401,US,,,,,,,
NORDSTROM,,01 Newport Center Dr ,,Newport Beach ,CA,92660,US,,,,,,,
Dick's Sporting Goods,,366 Woodbridge Center ,,Woodbridge ,NJ,7095,US,(732) 621-8400,,,,,,
Paragon Sporting Goods,,867 Broadway ,,New York ,NY,10003,US,(212) 255-8889,,,,,,
Tilly's-Woodbridge Center,,400 Woodbridge Center Drive 2060 ,,Woodbridge ,NJ,7095,US,,,,,,,
Aegir Boardworks,,99 Water St ,,Brooklyn ,NY,11201,US,(347) 987-3825,,,,,,
Dick's Sporting Goods,,2505 Richmond Ave. ,,Staten Island ,NY,10314,US,(718) 982-7260,,,,,,
Whalebone Surf Shop,,1624 Laskin Rd. ,,Virginia Beach ,VA,23451,US,(757) 437-8141,,,,,,
Freedom Surf Shop,,1361 Laskin Rd. ,,Virginia Beach ,VA,23451,US,(757) 491-0266,,,,,,
Wave Riding Vehicles,,1900 Cypress Avenue ,,Virginia Beach ,VA,23451,US,(757) 422-8823,,,,,,
Coastal Edge,,316 21st St. ,,Virginia Beach ,VA,23451,US,(757) 422-4640,,,,,,
Sports Cove,,1410 East Monte Vista Ave. ,,Vacaville ,CA,95688,US,(707) 448-9454,,,,,,
Delta Windsurfing,,3729A West Sherman Island Rd. ,,Rio Vista ,CA,94571,US,(916) 777-2299,,,,,,
Macy's- Modesto Vintage Faire Mall,,Vintage Faire Mall 500 Vintage Faire ,,Modesto ,CA,95356,US,(209) 575-3333,,,,,,
Dick's Sporting Goods,,3401 Dale Rd. ,,Modesto ,CA,95356,US,(209) 578-1215,,,,,,
Tilly's-Vintage Faire Mall,,3401 Dale Road Suite 227 ,,Modesto ,CA,95356,US,,,,,,,
REI,,501 Route 73 South ,,Marlton ,NJ,8053,US,(856) 810-1938,,,,,,
Dick's Sporting Goods,,2126 North 2nd St. ,,Millville ,NJ,8332,US,(856) 293-8520,,,,,,
Dick's Sporting Goods,,5105 Transit Rd. ,,Williamsville ,NY,14221,US,(716) 565-0417,,,,,,
Dick's Sporting Goods,,281 Meyer Rd. ,,Amherst ,NY,14226,US,(716) 833-4761,,,,,,
Crystal River Outfitter,,6249 Western Ave. ,,Glen Arbor ,MI,49636,US,(231) 334-4420,,,,,,
Tilly's-Millcreek Mall,,185 Millcreek Mall ,,Erie ,PA,16565,US,,,,,,,
Dick's Sporting Goods,,2088 Interchange Rd. ,,Erie ,PA,16565,US,(814) 864-3500,,,,,,
Dick's Sporting Goods,,150 Commerce Blvd. ,,Fairless Hills ,PA,19030,US,(215) 946-8750,,,,,,
Dick's Sporting Goods,,2703 Mount Holly Rd. ,,Burlington Twp ,NJ,8016,US,(609) 747-0400,,,,,,
Dick's Sporting Goods,,5130 Hwy 70 West ,,Morehead City ,NC,28557,US,(252) 222-3244,,,,,,
Atlantic Beach Surf Shop,,515 West Fort Macon Rd. ,,Atlantic Beach ,NC,28512,US,(252) 726-9382,,,,,,
Bert's Surf Shop,,304 West Fort Macon Rd. ,,Atlantic Beach ,NC,28512,US,(252) 726-1730,,,,,,
Dick's Sporting Goods,,7 Backus Ave. ,,Danbury ,CT,6810,US,(203) 730-0164,,,,,,
Dick's Sporting Goods,,325 State Route 18 ,,East Brunswick ,NJ,8816,US,(732) 651-3284,,,,,,
Outdoor Traders,,55 Arch St. ,,Greenwich ,CT,6830,US,(203) 862-9696,,,,,,
Pelican Sport Center,,393 New Jersey 18 South ,,East Brunswick ,NJ,8816,US,(732) 254-5115,,,,,,
Pelican Sport Center,,393 NJ-18 East ,,Brunswick ,NJ,8816,US,(732) 254-5115,,,,,,
Frog House,,6908 West Coast Hwy ,,Newport Beach ,CA,92663,US,(949) 642-5690,,,,,,
Surfside Sports,,233 East 17th St. ,,Costa Mesa ,CA,92627,US,(949) 625-4624,,,,,,
WEST MARINE,,3433 VIA LIDO ,,NEWPORT BEACH ,CA,92663,US,,,,,,,
Benton's Sport Shop,,1038 Swarthmore Ave. ,,Pacific Palisades ,CA,90272,US,(310) 459-8451,,,,,,
Jack's Surfboards,,2727 Newport Blvd. ,,Newport Beach ,CA,92663,US,(949 )673-2300,,,,,,
17th Street Surf Shop,,1608 Pacific Ave. ,,Virginia Beach ,VA,23451,US,(757) 422-6105,,,,,,
Coastal Edge,,1157 Nimmo Pkwy ,,Virginia Beach ,VA,23454,US,(757) 427-5665,,,,,,
Thumbs Up Kiteboarding,,6626 Beachway ,,Caseville ,MI,48725,US,(248) 421-4086,,,,,,
Dick's Sporting Goods,,5250 Elmore Ave. ,,Davenport ,IA,52807,US,(563) 441-7500,,,,,,
Tilly's-NorthPark Mall,,320 West Kimberly Road 65B ,,Davenport ,IA,52806,US,,,,,,,
California Marine Sports,,1240 Kellog St. ,,Suisun City ,CA,94585,US,(707) 864-4007,,,,,,
California Marine Sports Inc,,1240 Kellogg St. ,,Suisun ,CA,94585,US,(707) 864-2500,,,,,,
Dick's Sporting Goods,,1 Sangertown Square ,,New Hartford ,NY,13413,US,(315) 798-9626,,,,,,
Boards N More,,14870 Hwy 4 ,,Discovery Bay ,CA,94514,US,(925) 240-5653,,,,,,
Boards N More,,306 Oak St. ,,Brentwood ,CA,94513,US,(925) 240-5653,,,,,,
Tilly's-Streets of Brentwood,,2505 Sand Creek Road Bldg H 152 ,,Brentwood ,CA,94513,US,,,,,,,
Olympus Dive Center,,713 Shepard St. ,,Morehead City ,NC,28557,US,(252) 726-9432,,,,,,
REI,,3371 US Hwy 1 ,,Princeton ,NJ,8648,US,(609) 750-1938,,,,,,
LANDFALL NAVIGATION,,151 Harvard Ave ,,Stamford ,CT,6902,US,,,,,,,
Dick's Sporting Goods,,530 Nassau Park Blvd. ,,Princeton ,NJ,8540,US,(609) 419-1661,,,,,,
Surf & Adventure,,577 Sandbridge Rd. ,,Virginia Beach ,VA,23456,US,(757) 721-6210,,,,,,
Jack's Surfboards,,5581 Alton Parkway ,,Irvine ,CA,92618,US,(949) 242-7020,,,,,,
Dick's Sporting Goods,,435 Newport Center Dr. ,,Newport Beach ,CA,92660,US,(949) 640-1107,,,,,,
Macy's- Fashion Island,,101 Newport Center Dr ,,Newport Beach ,CA,92660,US,(949) 640-8333,,,,,,
Dick's Sporting Goods,,1939 North Campus Ave. ,,Upland ,CA,91784,US,(909) 946-7192,,,,,,
Tilly's-Colonies Crossroads,,1257 E. 19th Street ,,Upland ,CA,91784,US,,,,,,,
Dick's Sporting Goods,,1050 Fording Island Rd. ,,Bluffton ,SC,29910,US,(843) 815-3000,,,,,,
Island Republic/ Allstars,,1460 Fording Island Rd. ,,Bluffton ,SC,29910,US,(843) 836-2030,,,,,,
Sutton Bay Bikes,,318 St Joseph St. ,,Suttons Bay ,MI,49682,US,(231) 421-6815,,,,,,
Dick's Sporting Goods,,555 John F Kennedy Rd. ,,Dubuque ,IA,52002,US,(563) 557-6130,,,,,,
Tilly's-Monte Vista Crossings,,2737 Countryside Drive ,,Turlock ,CA,95380,US,,,,,,,
Dick's Sporting Goods,,2711 Countryside Dr. ,,Turlock ,CA,95380,US,(209) 216-4385,,,,,,
Sporting Edge Ski & Marine,,2005 Somersville Rd. ,,Antioch ,CA,94509,US,(925) 754-8800,,,,,,
Sunsports,,191 South Golden State Blvd. ,,Turlock ,CA,95380,US,(209) 634-2073,,,,,,
Macy's- Mt Shasta Mall,,1291 Hilltop Dr ,,Redding ,CA,96003,US,(530) 722-9111,,,,,,
Dick's Sporting Goods,,2300 N. Salisbury Blvd. ,,Salibury ,MD,21801,US,(410) 219-1136,,,,,,
Dick's Sporting Goods,,4715 24th Ave. ,,Ft. Gratiot ,MI,48059,US,(810) 385-5273,,,,,,
Tilly's-Hamilton Mall,,4403 Black Horse Pike 1042A ,,Mays Landing ,NJ,8330,US,,,,,,,
Scheels,,4301 West Wisconsin Ave. ,,Appleton ,Wi,54913,US,(920) 830-2977,,,,,,
Outdoor Sports Center,,80 Danbury Rd. ,,Wilton ,CT,6897,US,(203) 762-8797,,,,,,
REI,,189 Connecticut Ave. ,,Norwalk ,CT,6854,US,(203) 838-1938,,,,,,
Sundown Ski & Surf Shop,,47 Northern Blvd. ,,Greenvale ,NY,11548,US,(516) 621-6668,,,,,,
Dick's Sporting Goods,,875 Browning St. ,,Redding ,CA,96003,US,(530) 221-1399,,,,,,
Redding Sports,,950 Hill Top Dr. ,,Redding ,CA,96003,US,(530) 221-7333,,,,,,
Alpine Outfitters,,1261 Market St. ,,Redding ,CA,96001,US,(530) 243-2323,,,,,,
Tilly's-Merced Mall,,250 Merced Mall ,,Merced ,CA,95348,US,,,,,,,
REI,,1975 Diamond Blvd. ,,Concord ,CA,94520,US,(925) 825-9400,,,,,,
Jack's Surfboards,,900 Avocado Ave. ,,Corona Del Mar ,CA,92660,US,(949) 718-0001,,,,,,
Hobie Beach Company,,3140 East Coast Hwy ,,Corona Del Mar ,CA,92625,US,(949) 487-1282,,,,,,
Tilly's-Irvine Spectrum Center,,723 Spectrum Center Drive ,,Irvine ,CA,92618,US,,,,,,,
NORDSTROM,,800 Spectrum Center Drive ,,Irvine ,CA,92618,US,,,,,,,
Valley Skate N Surf,,16914 Parthenia St. ,,Northridge ,CA,91343,US,(818) 892-5566,,,,,,
QUIET STORM SURF SHOP,,1 N Forest Beach Dr Unit 107 ,,Hilton Head Island ,SC,29928,US,,,,,,,
THREE EAGLES OUTFITTERS,,78 Siler Rd ,,Franklin ,NC,28734,US,,,,,,,
Dick's Sporting Goods,,1791 Oconee Connector Blvd. ,,Athens ,GA,30606,US,(706) 227-4077,,,,,,
Macy's- Hamilton Mall,,4401 E Black Horse Pike ,,Mays Landing ,NJ,8330,US,(609) 646-4900,,,,,,
Dick's Sporting Goods,,210 Consumer Square ,,Mays Landing ,NJ,8330,US,(609) 407-1711,,,,,,
South End Surf Shop,,311 Beach Dr. ,,Cape May ,NJ,8204,US,(609) 898-0988,,,,,,
SHE BE SURFIN',,1430 STAGECOACH RD ,,Ocean View ,NJ,8230,US,,,,,,,
Dick's Sporting Goods,,4350 West Greenville Dr. ,,Appleton ,WI,54913,US,(920) 954-9266,,,,,,
Fort Fremont Marine,,8969 County Rd. ,,Fremont ,WI,54940,US,(920) 446-3220,,,,,,
MEC,,1230 Wellington Rd. ,,London ,ON,N6E 1M3,CA,(519) 668-6657,,,,,,
Dosil's Sportswear,,261 Route 36 ,,Middletown ,NJ,7748,US,(732) 787-0508,,,,,,
Downunder Kayaking,,575 Riverside Ave. ,,Westport ,CT,6880,US,(203) 956-6217,,,,,,
DOWNUNDER WESTPORT,,575 Riverside Ave ,,Westport ,CT,6880,US,,,,,,,
Dick's Sporting Goods,,811 Pilgrim Way ,,Green Bay ,WI,54304,US,(920) 490-8488,,,,,,
Eastern Mountain Sports,,204 Glen Cove Rd. ,,Carle Place ,NY,11514,US,(516) 747-7360,,,,,,
REI,,144 Glen Cove Rd. ,,Carle Place ,NY,11514,US,(516) 873-8540,,,,,,
Dick's Sporting Goods,,318 Mall Blvd. ,,Savannah ,GA,31406,US,(912) 480-9037,,,,,,
Ride The Wind,,486 Irvin Garrish ,,Ocracoke ,NC,27960,US,(252) 928-6311,,,,,,
Tilly's-Bay Park Square,,110A Bay Park Square Green ,,Bay ,WI,54304,US,,,,,,,
Adventure Dive & Travel,,2911 Stanton ,,Springfield ,IL,62703,US,(217) 529-6090,,,,,,
Scheels,,3801 South MacArthur Blvd. ,,Springfield ,IL,62711,US,(217) 726-6330,,,,,,
Dick's Sporting Goods,,2501 Wabash Ave. ,,Springfield ,IL,62704,US,(217) 726-6451,,,,,,
Tilly's-White Oaks Mall,,2501 Wabash Avenue ,,Springfield ,IL,62704,US,,,,,,,
Summer Sun Surf Shop,,315 Washington St ,,Cape May ,NJ,8204,US,(609) 884-3422,,,,,,
Heritage Surf and Sport,,3700 Landis Ave. ,,Sea Isle ,NJ,8243,US,(609) 263-3033,,,,,,
Kona Surf & Sport,,103 E Rio Grande Ave. ,,Wildwood ,NJ,8260,US,(609) 522-7899,,,,,,
Pete Smith's Surf Shop,,285 96th St. ,,Stone Harbor ,NJ,8247,US,(609) 368-7263,,,,,,
Pete Smith's Surf Shop,,318 114th St. ,,Stone Harbor ,NJ,8247,US,(609) 368-3663,,,,,,
Tilly's-Eastvale Gateway,,12327 Limonite Ave Suite 990 ,,Mira Loma ,CA,91752,US,,,,,,,
O'Neill Outlet – Ontario Mills,,1 Mills Cir # 408b ,,Ontario ,CA,91764,US,,,,,,,
Tilly's-Ontario Mills,,One Mills Road Suite 118 ,,Ontario ,CA,91764,US,,,,,,,
ACTIVE RIDE SHOP,,12178 4TH STREET ,,Rancho Cucamonga ,CA,91730,US,,,,,,,
Malibu Divers,,21231 Pacific Coast Hwy ,,Malibu ,CA,90265,US,(310) 456-2396,,,,,,
Tilly's-Roosevelt Field Mall,,630 Old Country Road 1122A ,,Garden City ,NY,11530,US,,,,,,,
Dick's Sporting Goods,,630 Old Country Rd. ,,Garden City ,NY,11530,US,(516) 247-6400,,,,,,
Dick's Sporting Goods,,1 Crossgates Mall Rd. ,,Albany ,NY,12203,US,(518) 218-7410,,,,,,
MORTON'S,,533 Central Ave ,,Cedarhurst ,NY,11516,US,,,,,,,
Green Bay Scuba Shop,,1316 Velp Ave. ,,Green Bay ,WI,54303,US,(920) 498-8499,,,,,,
Tommy's,,4075 M-75 ,,Walloon Lake ,MI,49796,US,(231) 535-6039,,,,,,
Dick's Sporting Goods,,150 Pearl Nix Pkwy ,,Gainesville ,GA,30501,US,(770) 534-4730,,,,,,
Avalon Surf,,2249 Dune Dr. ,,Avalon ,NJ,8202,US,(609) 967-7115,,,,,,
Wild Ocean Surf Shop,,5011 Ocean Ave. ,,Wildwood ,NJ,8260,US,(609) 729-0004,,,,,,
Surfers Supplies,,3101 Asbury Ave. ,,Ocean City ,NJ,8226,US,(609) 399-8399,,,,,,
Heritage Surf and Sport,,744 West Ave. ,,Ocean City ,NJ,8226,US,(609) 398-6390,,,,,,
7th Street Surf Shop,,720 Asbury Ave. ,,Ocean City ,NJ,8226,US,(609) 398-7070,,,,,,
Dick's Sporting Goods,,3200 Agency St. ,,Burlington ,IA,52601,US,(319) 237-3447,,,,,,
GLIK'S,,550 S Gear Ave # 50 ,,West Burlington ,IA,52655,US,,,,,,,
DENNYS CHILDRENS WEAR,,343 B SOUTH OYSTER BAY RD ,,Plaineview ,NY,11803,US,,,,,,,
Denali,,5065 Main St # 265 ,,Trumbull ,CT,6611,US,,,,,,,
LL Bean,,131 Colonie Center ,,Albany ,NY,12205,US,(888) 552-5519,,,,,,
WEST MARINE,,4989 Friendship Rd ,,Buford ,GA,30518,US,,,,,,,
Dick's Sporting Goods,,4040 Atlanta Hwy ,,Loganville ,GA,30052,US,(770) 466-1333,,,,,,
Tilly's-Mall of Georgia,,3333 Buford Dr. Space 1092 ,,Buford ,GA,30519,US,,,,,,,
B.C. Surf & Sport,,3333 Buford Dr. ,,Buford ,GA,30519,US,(770) 945-9969,,,,,,
Macy's- Concord Sunvalley Mall,,341 Sunvalley Mall ,,Concord ,CA,94520,US,(925) 689-3333,,,,,,
Tilly's-Sunvalley,,224 Sun Valley Mall ,,Concord ,CA,94520,US,,,,,,,
Dick's Sporting Goods,,2314 Monument Blvd. ,,Pleasant Hill ,CA,94523,US,(925) 222-3508,,,,,,
Sports Basement,,1881 Ygnacia Valley Rd. ,,Walnut Creek ,CA,94598,US,(415) 437-0100,,,,,,
Macy's- Walnut Creek Plaza,,1301 Broadway Plaza ,,Walnut Creek ,CA,94596,US,(925) 279-3333,,,,,,
REI,,12218 Foothill Blvd. ,,Rancho Cucamonga ,CA,91739,US,(909) 646-8360,,,,,,
Macy's- Laguna Hills Mall,,24100 Laguna Hills Mall ,,Laguna Hills ,CA,92653,US,(949) 586-1901,,,,,,
REI,,18605 Devonshire St. ,,Northridge ,CA,91324,US,(818) 831-5555,,,,,,
Macy's- Northridge Fashion Center,,9301 Tampa Ave ,,Northridge ,CA,91324,US,(818) 885-6611,,,,,,
Tilly's-Victoria Gardens,,12518 N. Mainstreet 3520 ,,Rancho Cucamonga ,CA,91739,US,,,,,,,
Heritage Surf and Sport,,1368 Boardwalk ,,Ocean City ,NJ,8226,US,(609) 391-7873,,,,,,
7th Street Surf Shop,,1118 Boardwalk ,,Ocean City ,NJ,8226,US,(609) 391-7877,,,,,,
Quiet Storm Surf,,126 Rehoboth Ave. ,,Rehoboth Beach ,DE,19971,US,(302) 226-2747,,,,,,
Sierra Moon,,16 Rehoboth Ave. ,,Rehoboth Beach ,DE,19971,US,(302) 227-3622,,,,,,
Island Revolution,,1159 Austin St. ,,Corolla ,NC,27927,US,(252) 453-9484,,,,,,
REI,,1600 Mall of Georgia Blvd. ,,Buford ,GA,30519,US,(770) 831-0676,,,,,,
Island Outfitters,,1189 Post Rd. ,,Fairfield ,CT,6824,US,(203) 292-8170,,,,,,
Macy's- Freehold Raceway,,3710 U.S. 9 ,,Freehold ,NJ,7728,US,(732) 683-1345,,,,,,
Tilly's-Freehold Raceway Mall,,3710 Rt. 9 E112 ,,Freehold ,NJ,7728,US,,,,,,,
Sundown Ski & Surf Shop,,2726 Hempstead Turnpike ,,Levittown ,NY,11756,US,(516) 796-1565,,,,,,
Macy's- Victoria Gardens,,7855 Kew Ave ,,Rancho Cucamonga ,CA,91739,US,(909) 646-3333,,,,,,
Tilly's-Topanga Plaza,,6600 Topanga Canyon Blvd 84A ,,Canoga Park ,CA,91303,US,,,,,,,
Macy's- Westfield Topanga,,21900 Vanowen St ,,Canoga Park ,CA,91303,US,(818) 883-7211,,,,,,
Sport Ltd.,,22644 Ventura Blvd. ,,Woodland Hills ,CA,91364,US,(818) 225-7669,,,,,,
Surfboards By Kennedy,,22755 Ventura Blvd. ,,Woodland Hills ,CA,91364,US,(818) 225-1999,,,,,,
OCEAN ATLANTIC RENTALS,,105 Shores Ave ,,Point Harbor ,NC,27964,US,,,,,,,
Corolla Surf Shop,,807 Ocean Trail ,,Corolla ,NC,27927,US,(252) 453-9283,,,,,,
Tilly's-Plaza Escuela,,1179 Locust Street B ,,Walnut Creek ,CA,94596,US,,,,,,,
Dick's Sporting Goods,,2820 Dublin Blvd. ,,Dublin ,CA,94568,US,(925) 479-0680,,,,,,
VENTURE QUALITY GOODS,,3571 Mt Diablo Blvd ,,Lafayette ,CA,94549,US,,,,,,,
Tilly's-Hacienda Crossings,,4980 Dublin Blvd. ,,Dublin ,CA,94568,US,,,,,,,
Norcal Mastercraft,,5385 Owens Ct. ,,Pleasanton ,CA,95670,US,(925) 460-9216,,,,,,
Dick's Sporting Goods,,650 Trotter's Way ,,Freehold ,NJ,7728,US,(732) 358-1400,,,,,,
Orbit Marine,,3273 Fairfield Ave. ,,Bridgeport ,CT,6605,US,(203) 333-3483,,,,,,
All Seasons Surf Shop Inc,,70 West Park ,,Long Beach ,NY,11561,US,(516) 431-5431,,,,,,
Long Beach Surf Shop,,70 West Park Ave. ,,Long Beach ,NY,11561,US,(516) 431-5431,,,,,,
Val Surf,,22864 Ventura Blvd. ,,Woodland Hills ,CA,91364,US,(818) 225-8177,,,,,,
Dick's Sporting Goods,,24821 Alicia Pkwy ,,Laguna Hills ,CA,92653,US,(949) 472-8180,,,,,,
Tilly's-Crossings at Corona,,3417 Grand Oaks Suite 101 ,,Corona ,CA,92881,US,,,,,,,
Zuma Jay Surfboards,,22775 Pacific Coast Hwy ,,Malibu ,CA,90265,US,(310) 456-8044,,,,,,
Hobie Beach Company,,294 Forest Ave. ,,Laguna Beach ,CA,92651,US,(949) 497-3304,,,,,,
Primal Surf,,3106 Revere Blvd. ,,Brigantine ,NJ,8203,US,(609) 264-1999,,,,,,
Dick's Sporting Goods,,223 Stafford Park Blvd. ,,Manahawkin ,NJ,8050,US,(609) 597-5396,,,,,,
REI,,7099 Amador Plaza Rd. ,,Dublin ,CA,94568,US,(925) 828-9826,,,,,,
Macy's- Stoneridge Mall,,1300 Stoneridge Mall Rd ,,Pleasanton ,CA,94588,US,(925) 463-3333,,,,,,
BROTHERHOOD BOARD SHOP,,1240 Mendocino Ave ,,Santa Rosa ,CA,95401,US,,,,,,,
Seals Water Sports,,2112 Armory Dr. ,,Santa Rosa ,CA,95401,US,(707) 542-3100,,,,,,
Santa Rosa Ski & Sport,,1125 West Steele Lane ,,Santa Rosa ,CA,95403,US,(707) 578-4754,,,,,,
K-Coast Surf Shop,,12703 Sunset Ave. ,,Ocean City ,MD,21842,US,(443) 664-2945,,,,,,
The Sport Spot,,660 Broad St. ,,Shrewsbury ,NJ,7702,US,(732) 747-0585,,,,,,
Sun & Ski,,197 South Service Rd. ,,Plainview ,NY,11803,US,(516) 249-7980,,,,,,
The Boat Locker,,706 Howard Ave. ,,Bridgeport ,CT,6605,US,(203) 259-7808,,,,,,
Jake's Surf Shop,,1096 Ocean Ave. ,,Sea Bright ,NJ,7760,US,(732) 933-8481,,,,,,
Tilly's-Porter Ranch Town Center,,19811 Rinaldi Street ,,Northridge ,CA,91326,US,,,,,,,
Laguna Surf and Sport,,1088 S Coast Hwy ,,Laguna Beach ,CA,92651,US,(949) 497-7000,,,,,,
Tilly's-Marketplace at Laguna Niguel,,27150 Alicia Pkwy ,,Laguna Niguel ,CA,92677,US,,,,,,,
Becker Surfboards,,23755 Malibu Rd. ,,Malibu ,CA,90265,US,(310) 456-7155,,,,,,
Tilly's-Santa Margarita Town Center,,30616 Santa Margarita Parkway C 102 & 103 Rancho ,,Santa Margarita ,CA,92688,US,,,,,,,
Bethany Surf Shop,,99 Garfield Pkwy ,,Bethany Beach ,DE,19930,US,(302) 539-6400,,,,,,
Tilly's-Huntington Shopping Center,,350 Route 110 ,,Huntington ,NY,11746,US,,,,,,,
Brave New World,,61 Oceanport Ave. ,,Little Silver ,NJ,7739,US,(732) 842-6767,,,,,,
Dick's Sporting Goods,,870 Walt Whitman Rd. ,,Melville ,NY,11747,US,(631) 421-3028,,,,,,
Root Beer Barrel,,301 10th St. ,,Brigantine ,NJ,8203,US,(609) 266-2505,,,,,,
Heritage Surf and Sport,,315 Washington St. ,,Ocean City ,NJ,8204,US,(609) 884-3422,,,,,,
DUCK VILLAGE OUTFITTERS,,1207 Duck Rd ,,Kitty Hawk ,NC,27949,US,,,,,,,
Duck Village Outfitters,,1207 Duck Rd ,,Duck ,NC,27949,US,(252) 261-7222,,,,,,
7th Street Surf Shop,,654 Boardwalk ,,Ocean City ,MD,8226,US,(609) 391-1700,,,,,,
Malibu's Surf Shop,,713 Atlantic Ave. ,,Ocean City ,MD,21842,US,(410) 289-3000,,,,,,
Chauncey's Surf shop,,2908 Coastal Hwy ,,Ocean City ,MD,21842,US,(410) 289-7405,,,,,,
Dick's Sporting Goods,,21143 Salmon Run Loop ,,East Watertown ,NY,13601,US,(315) 786-8681,,,,,,
Macy's- Galleria at Tyler,,3500 Tyler St ,,Riverside ,CA,92503,US,(951) 687-1021,,,,,,
Macy's- The Shops at Mission Viejo,,300 The Shops Blvd ,,Mission Viejo ,CA,92691,US,(949) 364-3111,,,,,,
Becker Surfboards,,28251 Marguerite Pkwy ,,Mission Viejo ,CA,92692,US,(949) 364-2665,,,,,,
Tilly's-Mercantile East Shopping Center,,27562 Antonio Parkway Bldg D ,,Ladera Ranch ,CA,92694,US,,,,,,,
Dick's Sporting Goods,,27502 Antonio Pkwy ,,Ladera Ranch ,CA,92694,US,(949) 365-1278,,,,,,
Fenwick Island Surf Shop,,205 DE-1 ,,Fenwick Island ,DE,19944,US,(302) 539-5800,,,,,,
Macy's- Santa Rosa Plaza,,800 Santa Rosa Plaza ,,Santa Rosa ,CA,95401,US,(707) 523-3333,,,,,,
Macy's- Coddingtown Mall,,555 Coddingtown Center ,,Santa Rosa ,CA,95401,US,(707) 579-3333,,,,,,
Dick's Sporting Goods,,1975 Cleveland Ave. ,,Santa Rosa ,CA,95401,US,(707) 228-1223,,,,,,
Tilly's-Santa Rosa Plaza,,2041 Santa Rosa Plaza ,,Santa Rosa ,CA,95401,US,,,,,,,
REI,,2715 Santa Rosa Ave. ,,Santa Rosa ,CA,95407,US,(707) 540-9025,,,,,,
Wave Riding Vehicles Kitty Hawk,,4812 North Croatan Hwy ,,Kitty Hawk ,NC,27949,US,(252) 261-7952,,,,,,
Duck Village Outfitters,,3213 North Croatan Hwy ,,Kill Devil Hills ,NC,27948,US,(252) 255-6222,,,,,,
Kitty Hawk Kites,,306 West Lake Dr. ,,Kill Devil Hills ,NC,27948,US,(252) 441-1719,,,,,,
The Pit,,1209 S Croatan Hwy ,,Kill Devil Hills ,NC,27948,US,(252) 480-3128,,,,,,
Ahloe-Cal Cruz Surf & Ski,,2779 Merrick Rd. ,,Bellmore ,NY,11710,US,(516) 781-2222,,,,,,
Dick's Sporting Goods,,579 Troy/Schenectady Rd. ,,Latham ,NY,12110,US,(518) 783-0701,,,,,,
Eastern Mountain Sports,,133 State Hwy Route 35 ,,Eatontown ,NJ,7724,US,(732) 460-0188,,,,,,
Macy's- Monmouth Mall,,180 NJ-35 ,,Eatontown ,NJ,7724,US,(732) 542-1212,,,,,,
Sundown Ski & Surf Shop,,1296 Broad Hollow Rd ,,Farmingdale ,NY,11735,US,(631) 420-3796,,,,,,
Macy's- Ocean County Mall,,1201 Hooper Ave ,,Toms River ,NJ,8753,US,(732) 240-6500,,,,,,
Brave New World,,1272 Hooper Ave. ,,Toms River ,NJ,8753,US,(732) 505-3600,,,,,,
Farias Surf And Sport,,823 North Bay Ave. ,,Beach Haven ,NJ,8008,US,(609) 492-0200,,,,,,
Tilly's-Ocean County Mall,,1201 Hooper Avenue Suite 1036A ,,Toms River ,NJ,8753,US,,,,,,,
K-Coast Surf Shop,,3505 Coastal Hwy ,,Ocean City ,MD,21842,US,(410) 524-8500,,,,,,
Ocean Atlantic Surf,,3404 Coastal Hwy ,,Ocean City ,MD,21842,US,(410) 289-3830,,,,,,
Chauncey's Surf Shop,,5309 Coastal Hwy ,,Ocean City ,MD,21842,US,(410) 524-6004,,,,,,
Ron Jon Surf Shop,,6701 Coastal Hwy ,,Ocean City ,MD,21842,US,(410) 390-4888,,,,,,
Quiet Storm Surf,,7409 Coastal Hwy ,,Ocean City ,MD,21842,US,(410) 723-1316,,,,,,
Dick's Sporting Goods,,26591 Carl Boyer Dr. ,,Santa Clarita ,CA,91350,US,(661) 253-9231,,,,,,
Val Surf,,24140 Valencia Blvd. ,,Santa Clarita ,CA,91355,US,(661) 222-7288,,,,,,
Macy's- Westfield Valencia Town Center,,26450 McBean Pkwy ,,Santa Clarita ,CA,91355,US,(661) 287-5911,,,,,,
Infinity Surfboards,,24382 Del Prado Ave. ,,Dana Point ,CA,92629,US,(949) 661-6699,,,,,,
Killer Dana,,24621 Del Prado Ave. ,,Dana Point ,CA,92629,US,(949) 489-8380,,,,,,
Sail Plein Air,,665 Laval Dr. ,,Oshawa ,ON,L1J 0B6,CA,(905) 448-1900,,,,,,
Transports,,1559 Solano Ave. ,,Berkeley ,CA,94707,US,(510) 528-8405,,,,,,
Dick's Sporting Goods,,401 Kenilworth Dr. ,,Petaluma ,CA,94952,US,(707) 763-3750,,,,,,
Sports Basement,,2727 Milvia St. ,,Berkeley ,CA,94703,US,(415) 437-0100,,,,,,
REI,,1338 San Pablo Ave. ,,Berkeley ,CA,94702,US,(510) 527-4140,,,,,,
Sonoma Coast Surf Shop,,9 Fourth St. ,,Petaluma ,CA,94952,US,(707) 763-3860,,,,,,
Dick's Sporting Goods,,901 Brandon Center Mall ,,Brandon ,FL,33511,US,(813) 684-3100,,,,,,
Tilly's-Brandon Town Center,,955 Brandon Town Center ,,Brandon ,FL,33511,US,,,,,,,
The Surfboard Warehouse,,1005 Crystal Carbon Way ,,Valrico ,FL,33594,US,(813) 436-0484,,,,,,
Swim Mart,,5923 Factory Shops Blvd. ,,Ellenton ,FL,34222,US,(941) 721-8924,,,,,,
Surf Outfitter,,1413 S Howard Ave. # 104 ,,Tampa ,FL,33606,US,(813) 489-4587,,,,,,
Aloha Grove Surf Shop,,78 Ocean Ave. ,,Long Branch ,NJ,7740,US,(732) 263-0100,,,,,,
Dick's Sporting Goods,,6070 Jericho Turnpike ,,Commack ,NY,11725,US,(631) 499-1410,,,,,,
Coastal Edge,,1600 South Croatan Hwy ,,Kill Devil Hills ,NC,27948,US,(252) 449-5560,,,,,,
Whalebone Surf Shop,,2214 South Croatan Hwy ,,Nags Head ,NC,27959,US,(252) 441-6747,,,,,,
SECRET SPOT SURF SHOP,,2815 S Croatan Hwy ,,Nags Head ,NC,27959,US,,,,,,,
Cavalier Surf Shop,,4324 S Virginia Dare Trail ,,Nags Head ,NC,27959,US,(252) 441-7349,,,,,,
WEST MARINE,,34235 Pacific Coast Hwy ,,Dana Point ,CA,92629,US,,,,,,,
Tilly's-Promenade at Town Center,,27027 McBean Pkwy ,,Valencia ,CA,91355,US,,,,,,,
Jack's Surfboards,,34320 Pacific Coast Hwy ,,Dana Point ,CA,92629,US,(949) 276-8080,,,,,,
Hobie Beach Company,,25836 Domingo Ave. ,,Capistrano Beach ,CA,92624,US,(949) 487-1282,,,,,,
Tilly's-The Shoppes at Westlake Village,,30730 Russell Ranch Rd. Suite H ,,Westlake Village ,CA,91362,US,,,,,,,
Farias Surf and Sport,,2801 Long Beach Blvd. ,,Ship Bottom ,NJ,8008,US,(609) 494-7368,,,,,,
Pinnacles Dive Center,,875 Grant Ave. ,,Novato ,CA,94945,US,(415) 897-9962,,,,,,
Sports Basement,,2251 Poplar St. ,,Oakland ,CA,94607,US,(415) 437-0100,,,,,,
California Canoe & Kayak,,409 Water St. ,,Oakland ,CA,94607,US,(510) 893-7833,,,,,,
Marin Dive Center,,3765 Redwood Hwy ,,San Rafael ,CA,94903,US,(415) 479-0333,,,,,,
101 Surf Sports,,115 Third St. ,,San Rafael ,CA,94901,US,(415) 524-8492,,,,,,
Dick's Sporting Goods,,258 Westshore Plaza ,,Tampa ,FL,33609,US,(813) 422-5132,,,,,,
American Shore Trading Co.,,8131 Main St. ,,Bradenton ,FL,34202,US,(941) 907-1122,,,,,,
RENO BEACH SURF SHOP,,1031 4th St N ,,St Petersburg ,FL,33701,US,,,,,,,
WEST MARINE,,3620 1st St # 120 ,,Bradenton ,FL,34208,US,,,,,,,
Dick's Sporting Goods,,4108 14th St. ,,West Bradenton ,FL,34205,US,(941) 751-6900,,,,,,
Spellbinders,,318 Main St. ,,Allenhurst ,NJ,7711,US,(732) 531-7873,,,,,,
Dick's Sporting Goods,,1201 Boston Post Rd. ,,Milford ,CT,6460,US,(203) 876-0477,,,,,,
LIGHTLY SALTED,,1000 Ocean Ave ,,Asbury Park ,NJ,7712,US,,,,,,,
OG SURF & SKATE,,39 S Main St ,,Neptune City ,NJ,7753,US,,,,,,,
MEC,,400 King St. ,,West Toronto ,ON,M5V 1K2,CA,(416) 340-2667,,,,,,
MEC,,1030 Brant St. ,,Burlington ,ON,L7R 0B2,CA,(905) 333-8559,,,,,,
Sail Plein Air,,2208 Industrial St. ,,Burlington ,ON,L7P 0N6,CA,(905) 592-0722,,,,,,
Dick's Sporting Goods,,1301 W. Rancho Vista Blvd. ,,Palmdale ,CA,93550,US,(661) 225-8019,,,,,,
MACY'S,,1123 W Rancho Vista Blvd ,,Palmdale ,CA,93551,US,,,,,,,
Drill,,30745 Pacific Coast Hwy ,,Malibu ,CA,90265,US,(310) 457-7715,,,,,,
Tilly's-Antelope Valley Mall,,1233 W Rancho Vista Rd Space 1129 ,,Palmdale ,CA,93551,US,,,,,,,
Surfin West,,1735 East Los Angeles Ave. ,,Simi Valley ,CA,93065,US,(805) 526-8801,,,,,,
Tilly's-Mall at Northgate,,5800 Northgate Dr Suite 56 ,,San Rafael ,CA,94903-6833,US,,,,,,,
Demo Sport,,1101 Francisco Blvd. ,,San Rafael ,CA,94901,US,(415) 454-3500,,,,,,
REI,,43962 Fremont Blvd. ,,Fremont ,CA,94538,US,(510) 651-0305,,,,,,
Sports Basement,,1301 6th St. ,,San Francisco ,CA,94167,US,(415) 437-0100,,,,,,
Dick's Sporting Goods,,43923 Pacific Commons Blvd. ,,Fremont ,CA,94538,US,(510) 897-6475,,,,,,
Bob Kislins,,1214 Hwy 37 East ,,Toms River ,NJ,8753,US,(732) 929-9300,,,,,,
Dick's Sporting Goods,,487 Route 70 ,,Brick ,NJ,8723,US,(732) 477-4844,,,,,,
Surf Shack,,2912 Long Beach Blvd. ,,Ship Bottom ,NJ,8008,US,(609) 494-4017,,,,,,
Surf Unlimited,,1820 19th Blvd. ,,Ship Bottom ,NJ,8008,US,(609) 494-3555,,,,,,
MACY'S,,2201 University Mall ,,Tampa ,FL,33612,US,,,,,,,
Scuba Haven,,2039 East Fowler Ave. ,,Tampa ,FL,33612,US,(813) 972-4455,,,,,,
Peter Glenn Ski & Sport,,7229 North Dale Mabry Hwy ,,Tampa ,FL,33614,US,(813) 960-2453,,,,,,
Bill Jackson's,,9501 US 19 ,,North Pinellas Park ,FL,33782,US,(727) 576-4169,,,,,,
MACY'S,,3800 US Hwy 98 N ,,Lakeland ,FL,33809,US,,,,,,,
WEST MARINE,,147 Sunrise Hwy ,,West Islip ,NY,11795,US,,,,,,,
Bunger Surf & Sport Shop,,50 E Main St ,,Babylon ,NY,11702,US,(631) 661-1526,,,,,,
Sun Diego,,W Avenida Vista ,,Hermosa San Clemente ,CA,92672,US,,,,,,,
Macy's- Simi Valley Town Center,,1475 Simi Town Center Way ,,Simi Valley ,CA,93065,US,(805) 581-3333,,,,,,
Catalyst,,1755 North El Camino Real ,,San Clemente ,CA,92672,US,(949) 492-5721,,,,,,
Val Surf,,3055 E Thousand Oaks Blvd ,,Thousand Oaks ,CA,91362,US,(805) 497-1166,,,,,,
Macy's-  Inland Center,,400 Inland Center Dr ,,San Bernardino ,CA,92408,US,(909) 888-1444,,,,,,
Surf Ontario,,100 Sunrise Ave # 103 M4A 1B3 ,,North York Canada ,No,rth York,CA,(647) 882-7873,,,,,,
Macy's- Corte Madera Village,,1400 Redwood Hwy ,,Corte Madera ,CA,94925,US,(415) 927-3333,,,,,,
BAY CLUB,,235 Bon Air Rd ,,Kentfield ,CA,94904,US,,,,,,,
REI,,213 Corte Madera Town Center ,,Corte Madera ,CA,94925,US,(415) 927-1938,,,,,,
Live Water Surf Shop,,69 Broadway ,,Fairfax ,CA,94930,US,(415) 868-0333,,,,,,
BAY CLUB,,220 Corte Madera Town Center ,,Corte Madera ,CA,94925,US,,,,,,,
Tilly's-Lakeland Square Mall,,3800 US Highway 98 North 0736A ,,Lakeland ,FL,33809,US,,,,,,,
Dick's Sporting Goods,,919 Lakeland Park Center Dr. ,,Lakeland ,FL,33809,US,(863) 248-1200,,,,,,
WEST MARINE,,2010 Tyrone Blvd N ,,St Petersburg ,FL,33710,US,,,,,,,
Swim Mart,,4677 Gulf Blvd. ,,St. Pete Beach ,FL,33706,US,(727) 367-1713,,,,,,
Tilly's-Tyrone Square,,6933 Tyrone Square 638A St. ,,Petersburg ,FL,33710,US,,,,,,,
Eastern Lines,,1605 Ocean Ave. ,,Belmar ,NJ,7719,US,(732) 681-6405,,,,,,
Dick's Sporting Goods,,635 Merrill Rd. ,,Pittsfield ,MA,1201,US,(413) 395-0870,,,,,,
Ron Jon Surf Shop,,201 9th Ave. ,,Ship Bottom ,NJ,8008,US,(609) 494-8844,,,,,,
TOMS RIVER MARINE AND MOTORSPORTS,,3117 Rte 37 E ,,Toms River ,NJ,8753,US,,,,,,,
B & B,,254 Drum Point Rd. ,,Brick ,NJ,8723,US,(732) 920-3300,,,,,,
T. Patterson,,1407 North El Camino Real ,,San Clemente ,CA,92672,US,(949) 366-2022,,,,,,
O'Neill Outlet – Lake Elsinore,,17600 Collier Ave # 113 ,,Lake Elsinore ,CA,92530,US,,,,,,,
PACSUN,,17600 Collier Ave ,,Lake Elsinore ,CA,92530,US,,,,,,,
Tilly's-Simi Valley Town Center,,1555 Simi Valley Town Ctr Way Suite 201 ,,Simi Valley ,CA,93065,US,,,,,,,
Catalina Scuba Luv,,126 Catalina St. ,,Avalon ,CA,90704,US,(310) 510-2616,,,,,,
Boardsports,,2010 Yonge St. ,,Toronto ,ON,M4S 1Z9,CA,(416) 485-9463,,,,,,
BAY CLUB,,150 Greenwich St ,,San Francisco ,CA,94111,US,,,,,,,
BAY CLUB,,370 Drumm St ,,San Francisco ,CA,94111,US,,,,,,,
Macy's- Union Square,,170 O\\\'Farrell St ,,San Francisco ,CA,94102,US,(415) 397-3333,,,,,,
Boardsports School,,1200 Clay St. ,,San Francisco ,CA,94108,US,(415) 385-1224,,,,,,
BOARDSPORTS SCHOOL & SHOP,,1200 Clay St ,,San Francisco ,CA,94108,US,,,,,,,
V-Town 2 Surf And Skate,,1900 Main St. ,,Sarasota ,FL,34236,US,(941) 955-9800,,,,,,
V-Town 2 Surf And Skate,,408 South Washington Blvd. ,,Sarasota ,FL,34236,US,(941) 955-9800,,,,,,
Swim Mart,,50 North Tamiami Trail ,,Sarasota ,FL,34236,US,(941) 954-8800,,,,,,
West Coast Surf Shop,,3902 Gulf Dr. ,,Holmes Beach ,FL,34217,US,(941) 778-1001,,,,,,
WEST COAST SURT SHOP,,3902 Gulf Dr ,,Holmes Beach ,FL,34217,US,(239) 463-1989,,,,,,
Dick's Sporting Goods,,620 Smith ,,Haven Mall Lake Grove ,NY,11755,US,(631) 265-2987,,,,,,
Tilly's-Smith Haven Mall,,230 Smith ,,Haven Mall Lake Grove ,NY,11755,US,,,,,,,
Dick's Sporting Goods,,110 Albany Turnpike Suite 1109 ,,Canton ,CT,6019,US,(860) 693-1619,,,,,,
Rick's Action Sports,,155 Carleton Ave. ,,East Islip ,NY,11730,US,(631) 581-9424,,,,,,
B & B,,500 SE Central Ave. ,,Seaside Park ,NJ,8752,US,(732) 793-1350,,,,,,
Right Coast,,214 SE Central Ave. ,,Seaside Park ,NJ,8752,US,(732) 854-9300,,,,,,
Tilly's-Inland Center,,340 Inland Center Drive ,,San Bernardino ,CA,92408,US,,,,,,,
The Surfer'S Outlet,,176 Avenida Del Mar ,,San Clemente ,CA,92673,US,(949) 366-9690,,,,,,
Macy's- Moreno Valley Mall,,22400 Town Cir ,,Moreno Valley ,CA,92553,US,(951) 656-1611,,,,,,
Catalyst,,124 South El Camino Real ,,San Clemente ,CA,92672,US,(949) 492-5721,,,,,,
Hobie Beach Company,,100 S El Camino Real ,,San Clemente ,CA,92673,US,(949) 543-3355,,,,,,
Sail Plein Air,,162 North Queen St. M9C 1A8 ,,Etobicoke ,ON,M9C 1A8,CA,(416) 915-5002,,,,,,
Dick's Sporting Goods,,8100 Citrus Park Town Center Mall ,,Tampa ,FL,33625,US,(813) 920-5700,,,,,,
Sun Coast Surf Shop,,9841 Gulf Blvd. ,,Treasure Island ,FL,33706,US,(727) 367-2483,,,,,,
Swim Mart,,3170 Gulf of Mexico Dr. ,,Longboat Key ,FL,34228,US,(941) 383-2288,,,,,,
Swim Mart,,4223 S Tamiami Trail ,,Sarasota ,FL,34231,US,(941) 924-8618,,,,,,
The Compound,,4063 Clark Rd. ,,Sarasota ,FL,34233,US,(941) 923-0430,,,,,,
Snow Shed,,1004 NY-112 ,,Pott Jefferson Station ,NY,11776,US,(631) 473-2572,,,,,,
Dick's Sporting Goods,,280 New Britain Ave. ,,Plainville ,CT,6062,US,(860) 747-2102,,,,,,
Sun & Ski,,195 West Main St. ,,Avon ,CT,6001,US,(860) 284-6818,,,,,,
Tilly's-Great Mall of the Bay Area,,447 Great Mall Drive 161 ,,Milpitas ,CA,95035,US,,,,,,,
O'Neill Outlet – Milpitas,,447 Great Mall Dr # 284 ,,Milpitas ,CA,95035,US,,,,,,,
WEST MARINE,,192 Donahue St ,,Marin City ,CA,94965,US,,,,,,,
REI,,840 Brannan St. ,,San Francisco ,CA,94103,US,(415) 934-1938,,,,,,
Proof Lab,,244 Shoreline Hwy ,,Mill Valley ,CA,94941,US,(415) 380-8900,,,,,,
Hobie Surf Shop,,151 Avenida Del Mar ,,San Clemente ,CA,92672,US,(949) 542-3400,,,,,,
Tilly's-Moreno Valley Mall,,22500 Town Circle Suite 1027 ,,Moreno Valley ,CA,92553,US,,,,,,,
SHERWOOD LAKE CLUB,,341 Williamsburg Way ,,Thousand Oaks ,CA,91361,US,,,,,,,
California Skier,,18171 Collier Ave. ,,Lake Elsinore ,CA,92530,US,(951) 674-7900,,,,,,
Stewart Surfboards,,2102 South El Camino Real ,,San Clemente ,CA,92672,US,(949) 492-1085,,,,,,
PIER SURF SEASIDE,,800 Ocean Terrace ,,Seaside Heights ,NJ,8751,US,,,,,,,
Ocean Hut Surf Shop,,3111 NJ-35 ,,Lavalette ,NJ,8735,US,(732) 793-3400,,,,,,
Brave New World,,1208 Richmond Ave. ,,Point Pleasant Beach ,NJ,8742,US,(732) 899-8220,,,,,,
Tilly's-Village at Moorpark,,33 N. Moorpark Road # A ,,Thousand Oaks ,CA,91360,US,,,,,,,
Macy's- The Oaks,,590 W Hillcrest Dr ,,Thousand Oaks ,CA,91360,US,(805) 496-4444,,,,,,
Dick's Sporting Goods,,706 Los Angeles Ave. ,,Moorpark ,CA,93021,US,(805) 978-4091,,,,,,
Tilly's-Mountain Grove at Citrus Plaza,,27461 San Bernardino Ave. Suite 170 ,,Redlands ,CA,92374,US,,,,,,,
Tilly's-Galleria at Tyler,,1115 Galleria at ,,Tyler Riverside ,CA,92503,US,,,,,,,
Tommy's,,16117 US 19N ,,Clearwater ,FL,33764,US,(727) 400-6836,,,,,,
Tilly's-Shops At Wiregrass,,28163 Paseo Drive 160 ,,Wesley Chapel ,FL,33543,US,,,,,,,
WEST MARINE,,4708 SOUTH TAMIAMI TRAIL ,,SARASOTA ,FL,34231,US,,,,,,,
Overhead Surf Shop,,12991 Village Blvd. ,,Maderira Beach ,FL,33708,US,(727) 398-7873,,,,,,
O'Neill Outlet – Tampa,,2312 Grand Cypress Dr # 827 ,,Wesley Chapel ,FL,33544,US,,,,,,,
Dick's Sporting Goods,,470 Lewis Ave. ,,Meriden ,CT,6451,US,(203) 686-0462,,,,,,
Y & I CLOTHING BOUTIQUE,,2101 Chestnut St ,,San Francisco ,CA,94123,US,,,,,,,
Proof Lab,,254 Shoreline Hwy ,,Mill Valley ,CA,94941,US,(415) 479-0103,,,,,,
Sports Basement,,610 Old Mason St. ,,San Francisco ,CA,94129,US,(415) 437-0100,,,,,,
Sports Basement,,1590 Bryant St. ,,San Francisco ,CA,94103,US,(415) 437-0100,,,,,,
Swim Outlet,,110 Rio Robles Dr. ,,San Jose ,CA,95134,US,(408) 514-4204,,,,,,
Dick's Sporting Goods,,14500 Bear Valley Rd. ,,Victorville ,CA,92392,US,(760) 245-4151,,,,,,
Tilly's-Mall of Victor Valley,,14400 Bear Valley Road 829 ,,Victorville ,CA,92392,US,,,,,,,
MACY'S,,14580 Bear Valley Rd ,,Victorville ,CA,92392,US,,,,,,,
Macy's- The Mall of Victor Valley,,14580 Bear Valley Rd ,,Victorville ,CA,92392,US,(760) 493-3300,,,,,,
Tilly's-Countryside Marketplace,,30046 Haun Road ,,Menifee ,CA,92584,US,,,,,,,
Macy's- River Park Shopping Center,,7890 N Blackstone Ave ,,Fresno ,CA,93720,US,(559) 451-3333,,,,,,
Tilly's-Shops at Riverpark,,90 Via del ,,Oro Fresno ,CA,93720,US,,,,,,,
REI,,7810 N Blackstone Ave. ,,Fresno ,CA,93720,US,(559) 261-4168,,,,,,
Wavelengths,,7732 North Blackstone Ave. ,,Fresno ,CA,93720,US,(559) 431-8823,,,,,,
Dick's Sporting Goods,,1225 Herndon Ave. ,,Clovis ,CA,93612,US,(559) 322-4628,,,,,,
Rodanthe Surf shop,,23580 NC Hwy 12 ,,Rodanthe ,NC,27968,US,(252) 987-2412,,,,,,
Revolution Surf Co.,,1775 Daily Dr. ,,Camarillo ,CA,93010,US,(805) 383-1288,,,,,,
Dick's Sporting Goods,,40404 Murrieta Hot Springs Rd. ,,Murrieta ,CA,92563,US,(951) 691-5401,,,,,,
Macy's- Promenade Temecula,,40780 Winchester Rd ,,Temecula ,CA,92591,US,,,,,,,
Tilly's-Promenade in Temecula,,40820 Winchester Rd Space 2230 ,,Temecula ,CA,92591,US,,,,,,,
Tilly's-Esplanade Shopping Center,,161 W. Esplanade Drive ,,Oxnard ,CA,93036-1101,US,,,,,,,
Sail Plein Air,,137 Chrislea Rd. ,,Vaughan ,ON,L4L 8N6,CA,(905) 266-1033,,,,,,
Real Watersports,,25706 Hwy 12 ,,Waves ,NC,27982,US,(252) 987-6000,,,,,,
Tilly's-Eastridge Mall,,2200 Eastridge Loop Space 2082 ,,San Jose ,CA,95122,US,,,,,,,
Tilly's-Marketplace at El Paseo,,6581 North Riverside Drive ,,Fresno ,CA,93722,US,,,,,,,
Herb Bauers Sporting Good,,6264 North Blackstone ,,Fresno ,CA,93710,US,(209) 435-8600,,,,,,
Dick's Sporting Goods,,3380 West Shaw Ave. ,,Fresno ,CA,93711,US,(559) 271-2701,,,,,,
Tilly's-Fashion Fair,,697 East Shaw Ave ,,Fresno ,CA,93710,US,,,,,,,
Dick's Sporting Goods,,231 W Esplanade Dr. ,,Oxnard ,CA,93036,US,(805) 973-1260,,,,,,
REI,,2700 Seaglass Way ,,Oxnard ,CA,93036,US,(805) 981-1938,,,,,,
B J Sporting Goods,,324 East Florida St. ,,Hemet ,CA,92543,US,(909) 658-7203,,,,,,
Momentum Surf Company,,461 West Channel Islands Blvd. ,,Port Hueneme ,CA,93041,US,(805) 985-4929,,,,,,
UP Sports,,1421 North Coast Hwy 101 ,,Oceanside ,CA,92054,US,(760) 966-1298,,,,,,
Plaza Surf & Sports,,89 NY-25A ,,Rocky Point ,NY,11778,US,(631) 744-5555,,,,,,
Swim Mart,,1960 Stickney Point Rd. ,,Sarasota ,FL,34231,US,(941) 922-4545,,,,,,
Mac's Sports,,2126 Drew St. ,,Clearwater ,FL,33765,US,(727) 442-9931,,,,,,
Dick's Sporting Goods,,26583 US Hwy 19 North ,,Clearwater ,FL,33761,US,(727) 791-8580,,,,,,
Tilly's-Westfield Countryside,,27001 US Highway 19 North Suite 1020 ,,Clearwater ,FL,33761,US,,,,,,,
Macy's- Westfield Countryside,,27001 US Hwy 19 N ,,Clearwater ,FL,33761,US,(727) 724-7312,,,,,,
Ocean Air/ All or Nothing,,39450 Hwy 12 South ,,Avon ,NC,27915,US,(252) 995-5000,,,,,,
Hatteras Island Boardsports,,41056 NC-12 Hwy ,,Avon ,NC,27915,US,(252) 995-6160,,,,,,
Macy's- Fashion Fair,,4888 N Fresno St ,,Fresno ,CA,93726,US,(559) 228-3333,,,,,,
Live Water Surf Shop,,3448 Shoreline Hwy ,,Stinson Beach ,CA,94970,US,(415) 868-0333,,,,,,
Wise Surfboards,,800 Great Hwy ,,San Francisco ,CA,94121,US,(415) 750-9473,,,,,,
BAY CLUB,,3250 Central Expy ,,Santa Clara ,CA,95051,US,,,,,,,
Sports Basement,,1177 Kern Ave. ,,Sunnyvale ,CA,94085,US,(415) 437-0100,,,,,,
ASYLUM SURF,,310 Mission Ave ,,Oceanside ,CA,92054,US,,,,,,,
Surf Ride,,1909 South Coast Hwy ,,Oceanside ,CA,92054,US,(760) 433-4020,,,,,,
Play It Again Sports,,4705 Telephone Rd. ,,Ventura ,CA,93003,US,(805) 644-4948,,,,,,
Tilly's-El Camino North Shopping Center,,2641 Vista Way ,,C Oceanside ,CA,92054,US,,,,,,,
Macy's- Pacific View,,477 S Mills Rd ,,Ventura ,CA,93003,US,(805) 642-7511,,,,,,
Denali,,1004 Main St ,,Branford ,CT,6405,US,,,,,,,
Dick's Sporting Goods,,499-64 Sunrise Hwy ,,Patchogue ,NY,11772,US,(631) 891-4044,,,,,,
Dick's Sporting Goods,,5925 Wesley Grove Blvd. ,,Wesley Chapel ,FL,33544,US,(813) 991-1618,,,,,,
Watersports West,,12900 Walsingham Rd. ,,Largo ,FL,33774,US,(727) 517-7000,,,,,,
Lopez Surf Shop,,1313 Gulf Blvd. ,,Indian Rocks Beach ,FL,33785,US,(727) 593-8292,,,,,,
Ron Jon Surf Shop,,377 Mandalay Ave. ,,Clearwater Beach ,FL,33767,US,(727) 286-5888,,,,,,
Windflight Surf Shop,,722 Albee Rd. ,,Nokomis ,FL,34275,US,(941) 484-2794,,,,,,
Macy's- The Shoppes at Carlsbad,,2559 El Camino Real ,,Carlsbad ,CA,92008,US,(760) 729-9121,,,,,,
Sun Diego,,2978 Carlsbad Blvd # 120 ,,Carlsbad ,CA,92008,US,(442) 500-2295,,,,,,
Carlsbad Pipelines,,2957 Carlsbad Blvd. ,,Carlsbad ,CA,92008,US,(760) 729-4423,,,,,,
Ventura Dive And Sport,,1559 Spinnaker Dr. ,,Ventura ,CA,93001,US,(805) 650-6500,,,,,,
Offshore Surf Shop,,3179 Carlsbad Blvd ,,Carlsbad ,CA,92008,US,(760) 729-4934,,,,,,
Macy's- Stonestown Galleria,,3251 20th Ave ,,San Francisco ,CA,94132,US,(415) 753-4000,,,,,,
Mel Cottons Sporting Goods,,1266 West ,,San Carlos San Jose ,CA,95126,US,(408) 287-5994,,,,,,
REI,,2450 Charleston Rd. ,,Mountain View ,CA,94043,US,(650) 969-1938,,,,,,
2 Mile Surf Shop,,22 Brighton Ave. ,,Bolinas ,CA,94924,US,(415) 868-0264,,,,,,
Macy's- Sunnyvale Town Center,,200 W Washington Ave ,,Sunnyvale ,CA,94086,US,(408) 732-3333,,,,,,
REI,,71 Raymond Rd. ,,West Hartford ,CT,6107,US,(860) 233-2211,,,,,,
Dick's Sporting Goods,,1300 Posner Blvd. ,,Davenport ,FL,33837,US,(863) 424-4444,,,,,,
Swim Mart,,1500 Placida Rd. ,,Englewood ,FL,34223,US,(941) 474-4088,,,,,,
Dick's Sporting Goods,,12936 Cortez Blvd. ,,Brooksville ,FL,34613,US,(352) 200-5716,,,,,,
Swiss Ski School,,13114 Skiing Paradise Blvd. ,,Clermont ,FL,34711,US,(352) 429-2178,,,,,,
Dick's Sporting Goods,,1325 Sandy Grove Rd. ,,Clermont ,FL,34711,US,(352) 404-5354,,,,,,
Dick's Sporting Goods,,3514 College Blvd. ,,Oceanside ,CA,92056,US,(760) 945-5444,,,,,,
Ventura Surf Shop,,88 East Thompson Blvd. ,,Ventura ,CA,93001,US,(805) 643-1062,,,,,,
Real Cheap Sports,,36 West Santa Clara St. ,,Ventura ,CA,93001,US,(805) 648-3803,,,,,,
Tilly's-Forum at Carlsbad,,1911 Calle Barcelona Suite 150 ,,Carlsbad ,CA,92009,US,,,,,,,
REI,,1590 Leucadia Blvd. ,,Encinitas ,CA,92024,US,(760) 944-9020,,,,,,
Fox Watersports,,47108 Hwy 12 ,,Buxton ,NC,27920,US,(252) 995-4102,,,,,,
Encinitas Surf Shop,,107 North Coast Hwy 101 ,,Encinitas ,CA,92024,US,(760) 753-0506,,,,,,
Hansen's,,1105 S Coast Hwy 101 ,,Encinitas ,CA,92024,US,(760) 753-6596,,,,,,
Surf Ride,,325 North Hwy 101 ,,Solana Beach ,CA,92075,US,(858) 755-0858,,,,,,
Dick's Sporting Goods,,1200 Auto Park Way ,,Escondido ,CA,92029,US,(760) 233-2700,,,,,,
Tilly's-Escondido Promenade,,1266-F Auto Park Way ,,Escondido ,CA,92029,US,,,,,,,
Macy's- Westfield Valley Fair,,2801 Stevens Creek Blvd ,,Santa Clara ,CA,95050,US,(408) 248-3333,,,,,,
PALO ALTO SPORT SHOP & TOY WORLD,,526 Waverley St ,,Palo Alto ,CA,94301,US,,,,,,,
Tilly's-Shops at Tanforan,,1150 El Camino Real Suite 163 ,,San Bruno ,CA,94066,US,,,,,,,
California Canoe & Kayak,,840 Brittan Ave. ,,San Carlos ,CA,94070,US,(650) 953-6060,,,,,,
REI,,1119 Industrial Rd. ,,San Carlos ,CA,94070,US,(650) 508-2330,,,,,,
Dick's Sporting Goods,,2985 Berlin Turnpike ,,Newington ,CT,6111,US,(860) 666-3877,,,,,,
Dick's Sporting Goods,,3065 Route 50 ,,Saratoga Springs ,NY,12866,US,(518) 583-7218,,,,,,
Sun Diego,,677 Lomas Santa Fe Drive # 675 ,,Solana Beach ,CA,92075,US,(858) 523-1733,,,,,,
Sun Diego,,677 Lomas Santa Fe Dr. ,,Solana Beach ,CA,92075,US,(858) 523-1733,,,,,,
HIS,,143 S Cedros Ave ,,Solana Beach ,CA,92075,US,,,,,,,
Sun Diego,,2600 Via De La Valle # 101 ,,Del Mar ,CA,92014,US,(858) 793-1054,,,,,,
Sun Diego,,2600 Via De La Valle Del ,,Mar ,CA,92014,US,(858) 793-1054,,,,,,
Tilly's-Loop West,,2613 West Osceola Parkway B-39 ,,Kissimmee ,FL,34741,US,,,,,,,
Tommy's,,13649 Granville ,,Clermont ,FL,34711,US,(407) 281-7909,,,,,,
O'Neill Orlando,,8189 International Dr ,,Orlando ,FL,32819,US,,,,,,,
Divers Direct,,5368 International Dr. ,,Orlando ,FL,32819,US,(407) 363-2883,,,,,,
Peter Glenn Ski & Sport,,5403 International Dr. ,,Orlando ,FL,32819,US,(407) 354-1234,,,,,,
WEST MARINE,,1119 INDUSTRIAL RD STE 2 ,,SAN CARLOS ,CA,94070,US,,,,,,,
Macy's- Hillsdale Shopping Center,,301 E Sailer Dr ,,San Mateo ,CA,94403,US,(650) 341-3333,,,,,,
Bodega Bay Surf Shack,,1400 Hwy 1 ,,Bodega Bay ,CA,94923,US,(707) 875-3944,,,,,,
Macy's- Stanford Shopping Center,,300 Stanford Shopping Center ,,Palo Alto ,CA,94304,US,(650) 326-3333,,,,,,
Dick's Sporting Goods,,64 Serramonte Center ,,Daly City ,CA,94015,US,(415) 325-4109,,,,,,
Rusty Del Mar,,201 15th St. ,,Del Mar ,CA,92014,US,(858) 259-3200,,,,,,
MORGAN RUN RESORT AND CLUB,,5690 Cancha De Golf Rancho ,,Santa Fe ,CA,92091,US,,,,,,,
Macy's- Westfield North County,,220 E Via Rancho Pkwy ,,Escondido ,CA,92025,US,(760) 489-2336,,,,,,
Tilly's-The Outlets at Tejon Ranch,,5701 Outlets at Tejon Ranch Parkway # 780 ,,Arvin ,CA,93203,US,,,,,,,
Sun Diego,,200 E. Via Rancho Pkwy # 179 ,,Escondido ,CA,92025,US,(760) 743-4133,,,,,,
A&S Boats,,735 John Fitch Blvd. South ,,Windsor ,CT,6074,US,(860) 528-8682,,,,,,
LL Bean,,75 Evergreen Way ,,South Windsor ,CT,6074,US,(888) 552-5517,,,,,,
Sail Plein Air,,150 Holiday Inn Dr. ,,Cambridge ,ON,N3C 1Z4,CA,(519) 231-0113,,,,,,
Sun Diego,,200 East Via Rancho Pkwy ,,Escondido ,CA,92025,US,(760) 743-4133,,,,,,
Tilly's-Del Mar Highlands Town Center,,12875 El Camino Real L-1 ,,San Diego ,CA,92130,US,,,,,,,
THE SANTALUZ CLUB,,8170 Caminito Santaluz E ,,San Diego ,CA,92127,US,,,,,,,
BAY CLUB,,12000 Carmel Country Rd ,,San Diego ,CA,92130,US,,,,,,,
Rinco Designs,,659 Linden Ave. ,,Carpinteria ,CA,93013,US,(805) 684-2413,,,,,,
Ron Jon Surf Shop,,5160 International Dr. ,,Orlando ,FL,32819,US,(407) 481-2555,,,,,,
Swim Mart,,5250 International Dr. ,,Orlando ,FL,32819,US,(239) 793-0101,,,,,,
Tilly's-Orlando Premium Outlets International Drive,,4967 International Drive 3A.37/3A.39 ,,Orlando ,FL,32819,US,,,,,,,
Dick's Sporting Goods,,8001 S Orange Blossom Trail ,,Orlando ,FL,32809,US,(321) 445-4286,,,,,,
Tilly's-Florida Mall,,8001 South Orange Blossom Trail 1212 ,,Orlando ,FL,32809,US,,,,,,,
Eastern Mountain Sports,,1510 Pleasant Valley Rd. ,,Manchester ,CT,6042,US,(860) 644-3517,,,,,,
Dick's Sporting Goods,,179 Pavilion Dr. ,,Manchester ,CT,6042,US,(860) 648-4044,,,,,,
Dick's Sporting Goods,,130 Elm St. ,,Enfield ,CT,6082,US,(860) 253-9475,,,,,,
Dick's Sporting Goods,,1779 Old Country Rd. ,,Riverhead ,NY,11901,US,(631) 727-1395,,,,,,
Macy's- Westfield Oakridge,,5411 Thornwood Dr ,,San Jose ,CA,95123,US,(408) 224-3333,,,,,,
Sports Basement,,1875 South Bascom Ave. ,,Campbell ,CA,95008,US,(415) 437-0100,,,,,,
Tilly's-Almaden Plaza Shopping Center,,5353 Almaden Expressway Suite J36 ,,San Jose ,CA,95118,US,,,,,,,
Central Valley Marine,,2355 South Bascom Ave. ,,Campbell ,CA,95008,US,(408) 371-6681,,,,,,
BAY CLUB,,10101 N Wolfe Rd ,,Cupertino ,CA,95014,US,,,,,,,
Macy's- The Florida Mall,,8001 S Orange Blossom Trail ,,Orlando ,FL,32809,US,(407) 854-2300,,,,,,
Revolution Cable Park,,17590 East St. N. ,,Ft. Myers ,FL,33917,US,(239) 656-3000,,,,,,
Performance Ski & Surf,,1355 Sand Lake Rd. ,,Orlando ,FL,32809,US,(407) 859-7544,,,,,,
Preformance Ski & Surf,,1355 Sand Lake Rd. Suite 1 ,,Orlando ,FL,32809,US,(407) 859-7544,,,,,,
Macy's- The Mall at Millenia,,4298 Millenia Blvd ,,Orlando ,FL,32839,US,(407) 264-2300,,,,,,
Wavelines Surf Shop,,11658 Carmel Mt. Rd. ,,San Diego ,CA,92128,US,(858) 675-9696,,,,,,
World Core,,7863 Girard St. ,,La Jolla ,CA,92037,US,(619) 488-9463,,,,,,
La Jolla Surf Systems,,2131 Avenida De La ,,Playa La Jolla ,CA,92037,US,(858) 456-2777,,,,,,
Mitch's Surf Shop,,631 Pearl St. ,,La Jolla ,CA,92037,US,(858) 459-5933,,,,,,
Macy's- Westfield University Town Center,,4333 La Jolla Village Dr ,,San Diego ,CA,92122,US,(858) 453-2060,,,,,,
WEST MARINE,,1089 OLD COUNTRY RD ,,RIVERHEAD ,NY,11901,US,,,,,,,
Tilly's-El Paseo De Saratoga,,650 El Paseo de Saratoga 650 ,,San Jose ,CA,95130,US,,,,,,,
REI,,400 El Paseo de Saratoga ,,San Jose ,CA,95130,US,(408) 871-8765,,,,,,
BAY CLUB,,14675 Winchester Blvd ,,Los Gatos ,CA,95032,US,,,,,,,
N.C. Surf & Sport,,16203 Los Gatos Blvd. ,,Los Gatos ,CA,95032,US,(408) 358-6070,,,,,,
Nor Cal Surf Shop,,5460 Coast Hwy ,,Pacifica ,CA,94044,US,(650) 738-9283,,,,,,
Sun Diego,,4465 La Jolla Village Drive Suite # H-14 ,,San Diego ,CA,92122,US,(858) 646-0632,,,,,,
Sun Diego,,4465 La Jolla Village Dr. ,,San Diego ,CA,92122,US,(858) 646-0632,,,,,,
Tilly's-Mira Mesa Marketplace,,10661 Westview Parkway Suite 700 ,,San Diego ,CA,92126,US,,,,,,,
West Coast Paddle Sports,,4360 Morena Blvd. ,,San Diego ,CA,92117,US,(858) 272-3278,,,,,,
South Coast Surf Shop,,740 Felspar St. ,,San Diego ,CA,92109,US,(619) 483-7660,,,,,,
Dick's Sporting Goods,,4615 Millenia Plaza Way ,,Orlando ,FL,32839,US,(407) 355-0733,,,,,,
Ski World Of Orlando,,1415 N Orange Ave. ,,Orlando ,FL,32804,US,(407) 894-5012,,,,,,
Dick's Sporting Goods,,4977 Cleveland Ave. ,,Ft. Myers ,FL,33907,US,(239) 362-9575,,,,,,
Capt Petes Discount Scuba Inc.,,4391 Colonial Blvd. ,,Fort Myers ,FL,33972,US,(239) 337-9564,,,,,,
Cpt Petes Discount Scuba,,4391 Colonial Blvd ,,Ft. Myers ,FL,33966,US,(239) 337-9564,,,,,,
Dick's Sporting Goods,,578 Aviation Rd. ,,Queensbury ,NY,12804,US,(518) 743-8790,,,,,,
Island Surf,,49 Sunset Ave. ,,West Hampton Beach ,NY,11978,US,(631) 288-4155,,,,,,
Anchor & Compass,,163 Main St ,,Deep River ,CT,6417,US,,,,,,,
MACY'S,,3505 E Colonial Dr ,,Orlando ,FL,32803,US,,,,,,,
Dick's Sporting Goods,,724 Herndon Ave. ,,Orlando ,FL,32803,US,(321) 332-9991,,,,,,
Joe Diver America,,11790 Metro Parkway ,,Fort Myers ,FL,33966,US,(239) 437-2900,,,,,,
WEST MARINE,,7070 College Pkwy ,,Fort Myers ,FL,33907,US,,,,,,,
Peter Glenn Ski & Sport,,990 North State Rd. ,,Altamonte Springs ,FL,32714,US,(407) 788-3334,,,,,,
REI,,5556 Copley Dr. ,,San Diego ,CA,92111,US,(858) 279-4400,,,,,,
Pacific Beach Surf Shop,,4150 Mission Blvd # 161 ,,San Diego ,CA,92109,US,(858) 373-1138,,,,,,
Clairmont Surf Shop,,6393 Balboa Ave. ,,San Diego ,CA,92111,US,(858) 292-1153,,,,,,
San Diego Ocean Enterprises,,7710 Balboa Ave. ,,San Diego ,CA,92111,US,(858) 565-9474,,,,,,
OCEAN ENTERPRISES,,7710 Balboa Ave # 101 ,,San Diego ,CA,92111,US,,,,,,,
Sun Diego,,3126 Mission Blvd. Suite A ,,San Diego ,CA,92109,US,(858) 866-0108,,,,,,
Sun Diego,,3126 Mission Blvd. ,,San Diego ,CA,92109,US,(858) 866-0108,,,,,,
Sun Diego,,3126 Mission Blvd ,,San Diego ,CA,92109,US,,,,,,,
SURF HARDWARE INTERNATIONAL,,7615 Othello Ave # B ,,San Diego ,CA,92111,US,(858) 300-2640,,,,,,
Anacapa Surf & Sport,,NAS Point ,,Mugu Oxnard ,CA,93042,US,(805) 488-2702,,,,,,
Sprockets,,55 North Santa Cruz Ave. ,,Los Gatos ,CA,95030,US,(408) 354-5450,,,,,,
Runners Factory,,51 University Ave. ,,Los Gatos ,CA,95030,US,(408) 395-4311,,,,,,
Half Moon Bay Boardshop,,3032 Cabrillo Hwy ,,North Half Moon Bay ,CA,94019,US,(650) 726-1476,,,,,,
Fast Lane Sailing Center,,2590 Ingraham St. ,,San Diego ,CA,92109,US,(619) 222-0766,,,,,,
Fast Lane Sailing Center,,2610 Ingraham St. ,,San Diego ,CA,92109,US,(619) 222-0766,,,,,,
Surf N Wear Beach House,,10 State St. ,,Santa Barbara ,CA,93101,US,(805) 963-1281,,,,,,
WEST MARINE,,132 Harbor Way ,,Santa Barbara ,CA,93109,US,,,,,,,
PADDLE SPORTS CENTER,,117 Harbor Way Ste B ,,Santa Barbara ,CA,93109,US,,,,,,,
INLAND OCEAN SURF SHOP,,1000 Pine Hollow Point ,,Altamonte Springs ,FL,32714,US,,,,,,,
Swim Mart,,20350 Summerlin Rd. ,,Ft. Myers ,FL,33908,US,(239) 466-1580,,,,,,
Tilly's-Waterford Lakes Town Center,,343 N Alafaya Trail Space A02 ,,Orlando ,FL,32828,US,,,,,,,
Dick's Sporting Goods,,1100 N Alafaya Trail ,,Orlando ,FL,32828,US,(407) 380-9066,,,,,,
Ron Jon Surf Shop,,10045 Gulf Center Dr. ,,Ft. Myers ,FL,33913,US,(239) 482-8888,,,,,,
Compass Rose,,4 River St ,,Deep River ,CT,6417,US,,,,,,,
Dick's Sporting Goods,,320 US Route 7 ,,South Rutland ,VT,5701,US,(802) 773-2710,,,,,,
WEST MARINE,,1667 Boston Post Rd ,,Old Saybrook ,CT,6475,US,,,,,,,
Dick's Sporting Goods,,367 Russell St. ,,Hadley ,MA,1035,US,(413) 584-6934,,,,,,
Adventure Outfitters,,451 Russell St. ,,Hadley ,MA,1035,US,(413) 253-5500,,,,,,
Channel Islands /Paddle Sports,,117 Harbor way ,,Santa Barbara ,CA,93109,US,(805) 617-3425,,,,,,
Channel Islands Surfboards,,35 Anacapa St. ,,Santa Barbara ,CA,93101,US,(805) 966-7213,,,,,,
Channel Islands Surfboards,,36 Anacapa St. ,,Santa Barbara ,CA,93101,US,(805) 966-7213,,,,,,
REI,,321 Anacapa St. ,,Santa Barbara ,CA,93101,US,(805) 560-1938,,,,,,
South Coast Surf Shop,,5023 Newport Ave. ,,San Diego ,CA,92107,US,(619) 223-7017,,,,,,
Dick's Sporting Goods,,10011 Gulf Center Dr. ,,Fort Myers ,FL,33913,US,(239) 433-0216,,,,,,
Dick's Sporting Goods,,350 Towne Center Circle ,,Sanford ,FL,32771,US,(407) 324-5800,,,,,,
Tilly's-Seminole Towne Center,,239 Towne Center Circle ,,Sanford ,FL,32771,US,,,,,,,
Macy's- Seminole Towne Center,,330 Town Center Cir ,,Sanford ,FL,32771,US,(407) 328-3300,,,,,,
SANDY FEET USA,,2250 Town Center Ave # 101 ,,Melbourne ,FL,32940,US,,,,,,,
Denali,,75 Main St ,,Old Saybrook ,CT,6475,US,,,,,,,
Dick's Sporting Goods,,72-800 Hwy 111 ,,Palm Desert ,CA,92260,US,(760) 340-3526,,,,,,
Tilly's-State Street,,917 State Street ,,Santa Barbara ,CA,93101,US,,,,,,,
Dick's Sporting Goods,,3265 Sports Arena Blvd. ,,San Diego ,CA,92110,US,(619) 523-0975,,,,,,
Macy's- Westfield Palm Desert,,72780 CA-111 ,,Palm Desert ,CA,92260,US,(760) 346-9300,,,,,,
Tilly's-Westfield Palm Desert,,72840 Hwy 111 ,,Space P303 Palm Desert ,CA,92260,US,,,,,,,
Dick's Sporting Goods,,4414 SW College Rd. ,,Ocala ,FL,34474,US,(352) 237-7672,,,,,,
Dick's Sporting Goods,,1700 West New Haven Ave. ,,Melbourne ,FL,32904,US,(321) 984-4012,,,,,,
Tilly's-Melbourne Square,,1700 W New Haven Blvd. # 887 ,,Melbourne ,FL,32904,US,,,,,,,
Macy's- Melbourne Square Mall,,1700 W New Haven Ave ,,Melbourne ,FL,32904,US,(321) 837-5300,,,,,,
Pleasure Sports,,2774 North Harbor City Blvd. ,,Melbourne ,FL,32935,US,(866) 573-0702,,,,,,
Windsurfing Hamptons,,1688 County Rd. 39 ,,Southampton ,NY,11968,US,(631) 283-9463,,,,,,
Macy's- Fashion Valley,,7017 Friars Rd ,,San Diego ,CA,92108,US,(619) 299-9811,,,,,,
Sun Diego,,7007 Friars Rd. # 844 ,,San Diego ,CA,92108,US,(619) 268-2295,,,,,,
Sun Diego,,7007 Friars Rd ,,San Diego ,CA,92108,US,(619) 268-2295,,,,,,
SURF CULTURE CLOTHING,,73375 El Paseo Suite J ,,Palm Desert ,CA,92260,US,,,,,,,
Tilly's-Mission Valley,,1640 Camino Del Rio North Space 310 ,,San Diego ,CA,92108,US,,,,,,,
Macy's- Merritt Square Mall,,777 E Merritt Island Causeway ,,Merritt Island ,FL,32952,US,(321) 454-1300,,,,,,
Swim Mart,,1866 94th Dr. ,,Vero Beach ,FL,32966,US,(772) 569-9171,,,,,,
Longboard House,,101 5th Ave. ,,Indialantic ,FL,32903,US,(321) 951-0730,,,,,,
MTB Surf Emporium,,2334 Florida A1A ,,Indialantic ,FL,32903,US,(321) 777-7261,,,,,,
Catalyst,,209 Ocean Ave. ,,Melbourne Beach ,FL,32951,US,(321) 728-2960,,,,,,
Sunrise to Sunset Surf-Sport,,36 Hill St. ,,Southampton ,NY,11968,US,(631) 283-2929,,,,,,
Flying Point Surf & Sport,,69 Main St. ,,Southampton ,NY,11968,US,(631) 287-0075,,,,,,
Macy's- Westfield Mission Valley,,1702 Camino Del Rio N ,,San Diego ,CA,92108,US,(619) 291-1111,,,,,,
WEST MARINE,,1250 ROSECRANS ,,SAN DIEGO ,CA,92106,US,,,,,,,
Tilly's-Santee Trolley Square,,9880 Mission Gorge Road ,,Santee ,CA,92071,US,,,,,,,
Macy's- La Cumbre Plaza,,3805 State St ,,Santa Barbara ,CA,93105,US,(805) 687-6411,,,,,,
Macy's- Westfield Horton Plaza,,160 Horton Plaza ,,San Diego ,CA,92101,US,(619) 231-4747,,,,,,
THE BEACH HOUSE,,5455 Tamiami Trail N ,,Naples ,FL,34108,US,(239) 598-4144,,,,,,
Dick's Sporting Goods,,5955 Naples Blvd. ,,Naples ,FL,34109,US,(239) 325-6456,,,,,,
Stickee Surf Shop,,200 South Washington Ave. ,,Titusville ,FL,32796,US,(321) 269-2203,,,,,,
Ron Jon Surf Shop,,4151 North Atlantic Ave. ,,Cocoa Beach ,FL,32931,US,(321) 799-8888,,,,,,
Scubadventures,,971 Creech Rd. ,,Naples ,FL,33940,US,(239) 434-7477,,,,,,
SEAPORT SHOE CO.,,809 W Harbor Dr ,,San Diego ,CA,92101,US,(619) 618-2892,,,,,,
Hanger 94,,5720 Jackson Dr. ,,La Mesa ,CA,91942,US,(619) 469-9494,,,,,,
Play It Again Sports,,4850 Hollister Ave. ,,Santa Barbara ,CA,93111,US,(805) 967-9889,,,,,,
Sun Diego,,477 Fletcher Parkway # 477 ,,El Cajon ,CA,92020,US,(619) 441-5213,,,,,,
Sun Diego,,477 Fletcher Parkway ,,El Cajon ,CA,92020,US,(619) 441-5213,,,,,,
FLIP FLOP SHOP,,1930 Tamiami Trail N ,,Naples ,FL,34102,US,,,,,,,
Ron Jon Surf Shop,,9086 Flounder St. ,,Cape Canaveral ,FL,32920,US,(321) 336-8088,,,,,,
OLD NAPLES SURF SHOP,,1311 3rd St S ,,Naples ,FL,34102,US,,,,,,,
Deep Six,,416 Miracle Mile ,,Vero Beach ,FL,32960,US,(561) 562-2891,,,,,,
Spunky'S Surf Shop,,1403 N US Hwy 1 Fort ,,Pierce ,FL,34950,US,(772) 466-7048,,,,,,
Flying Point Surf & Sport,,34 Main St. ,,Sag Harbor ,NY,11963,US,(631) 725-0705,,,,,,
Flying Point Surf & Sport,,2400 Montauk Hwy ,,Bridgehampton ,NY,11932,US,(631) 237-1350,,,,,,
Emerald City Boarding Source,,1118 Orange Ave. ,,Coronado ,CA,92118,US,(619) 4356677,,,,,,
Dick's Sporting Goods,,565 Fletcher Pkwy ,,El Cajon ,CA,92020,US,(619) 447-0191,,,,,,
Tilly's-Parkway Plaza,,363 Parkway Plaza ,,El Cajon ,CA,92020,US,,,,,,,
Macy's- Parkway Plaza,,291 Fletcher Pkwy ,,El Cajon ,CA,92020,US,(619) 440-1011,,,,,,
Macy's- Grossmont Center Theatre,,5500 Grossmont Center Dr ,,La Mesa ,CA,91942,US,(619) 465-1121,,,,,,
Dick's Sporting Goods,,915 Hartford Turnpike ,,Waterford ,CT,6385,US,(860) 447-2886,,,,,,
Main Beach Surf & Sport,,352 Montauk Hwy ,,Wainscott ,NY,11975,US,(631) 537-7873,,,,,,
Santa Barbara Aquatics,,5822 Hollister Ave. ,,Goleta ,CA,93117,US,(805) 967-4456,,,,,,
Sundance Beach,,59 South La Patera ,,Goleta ,CA,93117,US,(805) 966-2474,,,,,,
Tilly's-Camino Real Marketplace,,7046 Marketplace Drive ,,Goleta ,CA,93117,US,,,,,,,
Macy's- Westfield Plaza Bonita,,3000 Plaza Bonita Rd ,,National City ,CA,91950,US,(619) 267-3500,,,,,,
THE MADISON CLUB,,Avenue 53 ,,La Quinta ,CA,92253,US,(760) 777-9320,,,,,,
Denali,,,,Uncasville Montville ,CT,,US,,,,,,,
Khahn's Sports,,60 Park Place East ,,Hampton ,NY,11937,US,(631) 324-0703,,,,,,
Khahn's Sports,,500 Montauk Hwy ,,Amagansett ,NY,11930,US,(631) 324-1077,,,,,,
Swim Mart,,6060 Collier Blvd. ,,Naples ,FL,34114,US,(239) 793-0101,,,,,,
Red Dog Seasport,,801 Florida A1A ,,New Smyrna Beach ,FL,32169,US,(386) 423-8532,,,,,,
Dick's Sporting Goods,,2500 West International Speedway Blvd. ,,Daytona Beach ,FL,32114,US,(386) 255-5533,,,,,,
WEST MARINE,,3554 NW Federal Hwy ,,Jensen Beach ,FL,34957,US,,,,,,,
Macy's- Treasure Coast Square,,3106 NW Federal Hwy ,,Jensen Beach ,FL,34957,US,(772) 232-4300,,,,,,
Sun Diego,,3030 Plaza Bonita Road # 1160 ,,National City ,CA,91950,US,(619) 399-7959,,,,,,
Sun Diego,,3030 Plaza Bonita Rd. ,,National City ,CA,91950,US,(619) 399-7959,,,,,,
Macy's- Valley Plaza Mall,,2601 Ming Ave ,,Bakersfield ,CA,93304,US,,,,,,,
Tilly's-Valley Plaza,,2701 Ming Ave Suite 0246 ,,Bakersfield ,CA,93304-4415,US,,,,,,,
The Surf Hut,,710 Seacoast Dr. ,,Imperial Beach ,CA,91932,US,(619) 575-7873,,,,,,
Wavelengths,,3501 California Ave. ,,Bakersfield ,CA,93309,US,(661) 322-7873,,,,,,
REI,,2015 Birch Rd. ,,Chula Vista ,CA,91915,US,(619) 591-4924,,,,,,
Macy's- Otay Ranch Town Center,,2015 Birch Rd ,,Chula Vista ,CA,91915,US,(619) 591-7100,,,,,,
Dick's Sporting Goods,,9300 Rosedale Hwy ,,Bakersfield ,CA,93312,US,(661) 588-8100,,,,,,
Tilly's-Las Americas Premium Outlets,,4051 Camino De La Plaza # C98 ,,San Ysidro ,CA,92173,US,,,,,,,
Deep Six,,2525 NW Federal Hwy ,,Stuart ,FL,34994,US,(772) 288-3999,,,,,,
Jetset Surf Shop,,674 Bald Eagle Dr. ,,Marco Island ,FL,34145,US,(941) 394-5544,,,,,,
SURF RATZ,,1509 NW Federal Hwy ,,Stuart ,FL,34994,US,,,,,,,
Sandy Point Progressive Sports,,3090 S Ridgewood Ave. ,,South Daytona ,FL,32119,US,(386) 756-7564,,,,,,
Macy's- Volusia Mall,,1700 W International Speedway Blvd ,,Daytona Beach ,FL,32114,US,(386) 254-3300,,,,,,
O'Neill Outlet – At the Border,,4459 Camino De La Plaza # 422 ,,San Ysidro ,CA,92173,US,,,,,,,
Surf Connection,,1307 North H St. ,,Lompoc ,CA,93436,US,(805) 736-1730,,,,,,
Tilly's-The Crossroads at Santa Maria,,2348 So. Bradley Rd ,,Santa Maria ,CA,93455,US,,,,,,,
Macy's- Santa Maria Town Center,,302 Town Center E ,,Santa Maria ,CA,93454,US,(805) 349-8940,,,,,,
Pancho's Surf Shop,,181 Pomeroy Ave. ,,Pismo Beach ,CA,93449,US,(805) 773-7100,,,,,,
Dick's Sporting Goods,,160 River Rd. ,,Lisbon ,CT,6351,US,(860) 376-4141,,,,,,
Amagansett Beach Co.,,624 Montauk Hwy ,,Amagansett ,NY,11930,US,(516) 267-6325,,,,,,
WEST MARINE,,2506 SE FEDERAL HWY ,,STUART ,FL,34994,US,,,,,,,
Off The Wall,,811 North Beach St. ,,Daytona Beach ,FL,32114,US,(386) 673-5277,,,,,,
Cowabunga Surf and Sport,,4336 NE Ocean Blvd ,,Jensen Beach ,FL,34957,US,,,,,,,
Maui Nix,,717 North Atlantic Ave. ,,Daytona Beach ,FL,32118,US,(904) 253-1234,,,,,,
Off The Wall,,2429 North Atlantic Ave. ,,Daytona Beach ,FL,32118,US,(904) 673-5277,,,,,,
Central Coast Kayaks,,1879 Shell Beach Rd. ,,Shell Beach ,CA,93449,US,(805) 773-3500,,,,,,
Macy's- Imperial Valley Mall,,3551 S Dogwood Rd ,,El Centro ,CA,92243,US,(760) 352-5901,,,,,,
O'Neill Outlet – Tulare,,1489 Retherford St # 025 ,,Tulare ,CA,93274,US,,,,,,,
Arts Slo Cyclery,,183 Suburban Rd. ,,San Luis Obispo ,CA,93401,US,(805) 543-4416,,,,,,
Tilly's-Tulare Outlet Center,,1497 Retherford Street Space D-010 ,,Tulare ,CA,93274,US,,,,,,,
Off The Wall,,201 East Granada Blvd. ,,Ormond Beach ,FL,32176,US,(386) 673-5277,,,,,,
Lake Area Watersports,,829 FL-21 ,,Melrose ,FL,32666,US,(352) 475-3434,,,,,,
Lake Area Watersports,,829 North State Rd. 21 ,,Melrose ,FL,32666,US,(352) 475-3434,,,,,,
WEST MARINE,,285 US Hwy 1 ,,Tequesta ,FL,33469,US,,,,,,,
OCEAN MAGIC SURF AND SPORT,,103 S US Highway 1 ,,Jupiter ,FL,33458,US,,,,,,,
Tidal River,,28 W Main St # 1 ,,Groton ,CT,6340,US,(860) 536-6371,,,,,,
B.C. Surf & Sport,,10300 West Forest Hills Blvd. ,,Wellington ,FL,33414,US,(561) 422-0411,,,,,,
Dick's Sporting Goods,,8821 Southern Blvd. ,,Wellington ,FL,33411,US,(561) 204-4133,,,,,,
Macy's- The Gardens Mall,,3107 PGA Boulevard ,,Palm Beach Gardens ,FL,33410,US,(561) 775-2231,,,,,,
Divers Direct,,4074 Northlake Blvd. ,,Palm Beach Gardens ,FL,33410,US,(561) 775-0577,,,,,,
GROUNDSWELL SURF SHOP,,811 Donald Ross Rd ,,Juno Beach ,FL,33408,US,,,,,,,
Central Coast Surfboards,,855 Marsh St. ,,San Luis Obispo ,CA,93401,US,(805) 541 1129,,,,,,
Dick's Sporting Goods,,11970 Los Osos Valley Rd. ,,San Luis Obispo ,CA,93405,US,(805) 545-0740,,,,,,
Sea Barn,,444 Front St. ,,Avila Beach ,CA,93424,US,(805) 595-2142,,,,,,
Tilly's-Gran Plaza Outlets,,888 West 2nd Street Suite M100 ,,Calexico ,CA,92231,US,,,,,,,
Tilly's-Packwood West Regional Shopping Center,,4039 S. Mooney Blvd D-3 ,,Visalia ,CA,93277,US,,,,,,,
WEST MARINE,,9 MARITIME DRIVE ,,MYSTIC ,CT,6355,US,,,,,,,
Tilly's-Palm Beach Outlets,,1731 Palm Beach Lakes Blvd. # E315 ,,West Palm Beach ,FL,33401,US,,,,,,,
O'Neill Outlet – Palm Beach,,1741 Palm Beach Lakes Blvd e223 ,,West Palm Beach ,FL,33401,US,,,,,,,
Peter Glenn Ski & Sport,,1900 Okeechobee Blvd. ,,West Palm Beach ,FL,33409,US,(561) 622-7940,,,,,,
The Scuba Club,,4708 N Flagler Dr. ,,West Palm Beach ,FL,33407,US,(561) 844-2466,,,,,,
PURA VIDA DIVERS,,2513 Beach Ct ,,West Palm Beach ,FL,33404,US,,,,,,,
Plaza Surf & Sports,,716 Montauk Hwy ,,Montauk ,NY,11954,US,(631) 668-9300,,,,,,
Dick's Sporting Goods,,3637 South Mooney Blvd. ,,Visalia ,CA,93277,US,(559) 636-0633,,,,,,
ETCO Marine,,15366 East Mineral King Ave. ,,Visalia ,CA,93292,US,(559) 734-7471,,,,,,
Macy's- Visalia Mall,,2211 S Mooney Blvd ,,Visalia ,CA,93277,US,(559) 622-1111,,,,,,
Wavelengths,,988 Embarcadero ,,Morro Bay ,CA,93442,US,(805) 772-3904,,,,,,
Kahunas Surf N Sport,,817 12th St. ,,Paso Robles ,CA,93446,US,(805) 238-3214,,,,,,
Air And Speed Board Shop,,795 Montauk Why ,,Montauk ,NY,11954,US,(631) 668-0356,,,,,,
Island Outfitters,,109 Bay St. ,,Watch Hill ,RI,2891,US,(401) 348-1035,,,,,,
Dick's Sporting Goods,,42 Ash Brook Rd. ,,Keene ,NH,3431,US,(603) 357-0861,,,,,,
Macy's- CityPlace,,575 S Rosemary Ave ,,West Palm Beach ,FL,33401,US,(561) 242-4085,,,,,,
Island Watersports,,513 Lake Ave. ,,Lake Worth ,FL,33460,US,(561) 588-1728,,,,,,
Dick's Sporting Goods,,515 North Congress Ave. ,,Boynton Beach ,FL,33426,US,(561) 734-7771,,,,,,
Nomad Surf Shop,,4655 North Ocean Blvd. ,,Boyton Beach ,FL,33435,US,(561) 272-2882,,,,,,
Tilly's-Coral Square,,9541 W Atlantic Blvd. ,,Coral Springs ,FL,33071,US,,,,,,,
Alliance Board shop,,1233 Park St. ,,Paso Robles ,CA,93446,US,(805) 238-2600,,,,,,
Ride-A-Wav Surf Shop,,4 Winnapaug Rd. ,,Misquamicut ,RI,2891,US,(401) 596-7722,,,,,,
Dick's Sporting Goods,,70 Worchester Providence Turnpike ,,Millbury ,MA,1527,US,(508) 865-7250,,,,,,
Dick's Sporting Goods,,541E Lincoln St. ,,Worcester ,MA,1605,US,(508) 595-9808,,,,,,
Peter Glenn Ski & Sport,,1350 Linton Blvd. ,,Delray Beach ,FL,33444,US,(561) 330-8501,,,,,,
Macy's- Coral Square,,9129 W Atlantic Blvd ,,Coral Springs ,FL,33071,US,(954) 345-3300,,,,,,
Dick's Sporting Goods,,8921 West Atlantic Blvd. ,,Coral Springs ,FL,33071,US,(754) 484-3423,,,,,,
O'Neill Outlet – Sawgrass Mills,,12801 W Sunrise Blvd # 807 ,,Sunrise ,FL,33323,US,,,,,,,
Ron Jons Surf Shop,,2602 Sawgrass Mills Cir. Suite 1207A ,,Sunrise ,FL,33323,US,(954) 846-1880,,,,,,
Dick's Sporting Goods,,5102 Shops Way ,,Northborough ,MA,1532,US,(508) 393-1638,,,,,,
Dick's Sporting Goods,,1645 County Rd. B2 ,,W Roseville ,MN,55113,US,(651) 633-7242,,,,,,
REI,,1955 W. County Rd. ,,Roseville ,MN,55113,US,(651) 635-0211,,,,,,
Active Sports,,200 South Owasso Blvd. ,,St. Paul ,MN,55117,US,(651) 482-9995,,,,,,
Midwest Mastercraft,,5160 West Broadway ,,Crystal ,MN,55429,US,(763) 533-9666,,,,,,
MidweSt. MaSt.ercraft,,5160 W Broadway Ave. ,,Minneapolis ,MN,55429,US,(763) 533-9666,,,,,,
Aqua East Surf Shop,,1950 South A1A St. ,,Augustine Beach ,FL,32084,US,(904) 471-8070,,,,,,
Ski Rixen Quiet Waters,,401 S Powerline Rd. ,,Deerfield Beach ,FL,33442,US,(954) 429-0215,,,,,,
WEST MARINE,,1030 S PONCE DE LEON BLVD ,,ST. AUGUSTINE ,FL,32084,US,,,,,,,
The Surf Station,,1020 Anastasia Blvd. ,,St. Augustine ,FL,32080,US,(904) 471-9463,,,,,,
Boca Surf & Sail,,3191 North Federal Hwy ,,Boca Raton ,FL,33431,US,(561) 394-8818,,,,,,
Dick's Sporting Goods,,56 Orchard Hill Park Dr. ,,Leominster ,MA,1453,US,(978) 537-4081,,,,,,
Eastern Mountain Sports,,1 Vose Farm Rd. ,,Peterborough ,NH,3458,US,(603) 924-7231,,,,,,
Dick's Sporting Goods,,371 Putnam Pike ,,Smithfield ,RI,2917,US,(401) 232-0051,,,,,,
SWIM N THINGS,,5494 E Evans Ave ,,Denver ,CO,80222,US,,,,,,,
Dick's Sporting Goods,,1200 S. Ironton St. ,,Aurora ,CO,80012,US,(303) 755-0410,,,,,,
A-1 Scuba & Travel Center,,1603 West Belleview Ave. ,,Littleton ,CO,80120,US,(800) 783-7282,,,,,,
Dick's Sporting Goods,,6737 South Vine St. ,,Centennial ,CO,80122,US,(303) 797-3360,,,,,,
REI,,1416 Platte St. ,,Denver ,CO,80202,US,(303) 756-3100,,,,,,
Dick's Sporting Goods,,11361 Fountains Dr. ,,Maple Grove ,MN,55369,US,(763) 315-5377,,,,,,
REI,,11581 Fountains Dr. ,,Maple Grove ,MN,55369,US,(763) 493-7861,,,,,,
Dick's Sporting Goods,,12661 Riverdale Blvd. NW ,,Coon Rapids ,MN,55448,US,(763) 323-8611,,,,,,
Dick's Sporting Goods,,11260 Wayzata Blvd. ,,Minnetonka ,MN,55305,US,(952) 525-0200,,,,,,
WEST MARINE,,12350 WAYZATA BLVD ,,MINNETONKA ,MN,55305,US,,,,,,,
BOCA SURF AND SAIL,,3191 N Federal Hwy ,,Boca Raton ,FL,33431,US,,,,,,,
Blue Sky Surf Shop,,517 Anastasia Blvd. ,,St. Augustine ,FL,32080,US,(904) 824-2734,,,,,,
Island Water Sports,,1985 NE Second St. ,,Deerfield Beach ,FL,33441,US,(954) 427-4929,,,,,,
Dick's Sporting Goods,,801 South University Dr. ,,Plantation ,FL,33324,US,(954) 472-8855,,,,,,
Peter Glenn Ski & Sport,,2901 W Oakland Park Blvd. ,,Ft. Lauderdale ,FL,33311,US,(954) 484-3606,,,,,,
Block Island Sport Shop,,224 Water ,,New Shoreman ,RI,2807,US,(401) 466-5001,,,,,,
Dick's Sporting Goods,,1350 East Bald Hill Rd. ,,Warwick ,RI,2886,US,(401) 823-8079,,,,,,
REI,,9637 East County Line Rd. ,,Englewood ,CO,80112,US,(303) 858-1726,,,,,,
Dick's Sporting Goods,,7313 West Alaska Dr. ,,Lakewood ,CO,80226,US,(303) 600-2600,,,,,,
Tilly's-Park Meadows,,8505 Park Meadows Center Drive Suite # 2023 ,,Lone Tree ,CO,80124,US,,,,,,,
Macy's- Park Meadows Mall,,8455 Park Meadows Center Drive United States ,,Park Meadows Littleton ,CO,80124,US,(303) 566-6370,,,,,,
Dick's Sporting Goods,,8435 Park Meadows Center Dr. ,,Littleton ,CO,80124,US,(720) 479-0600,,,,,,
PETER GLENN SKI & SPORTS,,2901 W Oakland Park Blvd B12 ,,Fort Lauderdale ,FL,33311,US,,,,,,,
Tilly's-Tower Shops,,2150 S University Dr. ,,Davie ,FL,33324,US,,,,,,,
Surf World,,435 South Federal Hwy ,,Pompano Beach ,FL,33062,US,(954) 545-7873,,,,,,
Tilly's-Pembroke Lakes Mall,,11401 Pines Blvd 620 ,,Pembroke Pines ,FL,33026,US,,,,,,,
Dick's Sporting Goods,,11940 Pines Blvd. ,,Pembroke Pines ,FL,33026,US,(954) 430-5873,,,,,,
WEST MARINE,,91 Point Judith Rd ,,Narragansett ,RI,2882,US,,,,,,,
REI,,16-22 Chapel View Blvd. ,,Cranston ,RI,2920,US,(401) 275-5250,,,,,,
Warm Winds,,26 Kingstown Rd. ,,Narragansett ,RI,2882,US,(401) 789-9040,,,,,,
B.C. Surf & Sport,,8678 Park Meadows Center Dr. ,,Littleton ,CO,80124,US,(303) 768-8908,,,,,,
Dick's Sporting Goods,,15400 East Briarwood Circle ,,Aurora ,CO,80016,US,(303) 617-7930,,,,,,
REI,,5375 South Wadsworth Blvd. ,,Lakewood ,CO,80123,US,(303) 932-0600,,,,,,
B.C. Surf & Sport,,8501 West Bowles Ave. ,,Littleton ,CO,80123,US,(303) 972-1300,,,,,,
Surfboards.com,,9337 Commerce Center St. ,,Highlands Ranch ,CO,80129,US,(877) 346-4410,,,,,,
Yacht Chandlers,,750 W Sunrise Blvd. ,,Ft. Lauderdale ,FL,33311,US,(954) 761-3463,,,,,,
Dick's Sporting Goods,,2420 North Federal Hwy Ft. ,,Lauderdale ,FL,33305,US,(954) 566-1448,,,,,,
B.C. Surf & Sport,,1701 North Federal Hwy Ft. ,,Lauderdale ,FL,33305,US,(954) 564-0202,,,,,,
National Marine Suppliers,,2800 SW 2Nd Ave. ,,Fort Lauderdale ,FL,33315,US,(954) 764-0975,,,,,,
Lauderdale Diver,,1334 Southeast 17th St. ,,Ft. Lauderdale ,FL,33316,US,(954) 467-2822,,,,,,
Divers Direct,,180 Gulf Stream Way ,,Dania Beach ,FL,33004,US,(954) 925-7630,,,,,,
Tilly's-Orange Park Mall,,1910 Wells Road C22A ,,Orange Park ,FL,32073,US,,,,,,,
MACY'S,,1777 W 49th St ,,Hialeah ,FL,33012,US,,,,,,,
Dick's Sporting Goods,,1910 Wells Rd. ,,Orange Park ,FL,32073,US,(904) 215-0207,,,,,,
Peter Glenn Ski & Sport,,900 Park Centre Blvd. ,,Miami ,FL,33169,US,(305) 622-6440,,,,,,
Wakeboard & Waterski Specialty,,6851 Pecos St. ,,Denver ,CO,80221,US,(303) 430-0202,,,,,,
Larson's Ski & Sport,,4715 Kipling St. ,,Wheat Ridge ,CO,80033,US,(303) 423-0654,,,,,,
Tilly's-Southlands Shopping Center,,6200 S Main St Space J106 ,,Aurora ,CO,80016,US,,,,,,,
TOMMYS SLALOM SHOP,,12900 W 43rd Dr ,,Golden ,CO,80403,US,,,,,,,
Flatirons Scuba Center,,11965 Main St. ,,Broomfield ,CO,80020,US,(303) 469-4477,,,,,,
NORDSTROM,,6 Providence Place ,,Providence ,RI,2903,US,,,,,,,
Lake Placid Ski And Board,,2532 Main ,,St. Lake Placid ,NY,12946,US,(518) 523-7245,,,,,,
CALI STYLE,,222 Mt Hermon Rd ,,Scotts Valley ,CA,95066,US,,,,,,,
Tilly's-Dolphin Mall,,11401 N.W. 12 Street # 318 ,,Miami ,FL,33172,US,,,,,,,
Aqua Shop,,1740 Via Da ,,Fortuna Hallandale ,FL,33009,US,(954) 457-7931,,,,,,
Squalo Divers,,16604 NE 2nd Ave. ,,North Miami Beach ,FL,33162,US,(305) 940-0927,,,,,,
NORDSTROM,,19507 Biscayne Boulevard ,,Aventura ,FL,33180,US,,,,,,,
Island Water Sports,,16231 Biscayne Blvd. North ,,Miami Beach ,FL,33160,US,(305) 944-0104,,,,,,
Macy's- The Orchard Town Center,,14535 Delaware St ,,Westminster ,CO,80023,US,(303) 457-7333,,,,,,
Tilly's-Orchard Town Center,,14647 Delaware St. Ste # 1000 ,,Westminster ,CO,80023,US,,,,,,,
REI,,14696 Delaware St. ,,Westminster ,CO,80023,US,(720) 872-1938,,,,,,
B.C. Surf & Sport Inc,,1 West Flatirons Circle ,,Broomfield ,CO,80021,US,(720) 887-2444,,,,,,
Tilly's-FlatIron Crossing,,One West FlatIron Crossing Drive Space 1156 ,,Broomfield ,CO,80021,US,,,,,,,
Fogarty Lake Marina,,260 Lake Flower Ave. ,,Saranac Lake ,NY,12983,US,(518) 891-2340,,,,,,
Adventure Sports,,303 Potrero St. ,,Santa Cruz ,CA,95060,US,(831) 458-3648,,,,,,
LUPA SHOES,,7795 W Flagler St # 37 ,,Miami ,FL,33144,US,,,,,,,
Divers Den Miami,,12614 SW 88th St. ,,Miami ,FL,33186,US,(305) 595-2010,,,,,,
Tilly's-The Palms at Town & Country,,8740 Mills Drive ,,Miami ,FL,33183,US,,,,,,,
Dick's Sporting Goods,,11900 Mills Dr. ,,Miami ,FL,33183,US,(305) 595-9410,,,,,,
Miami Ski Nautique,,3828 NW 2nd Ave. ,,Miami ,FL,33127,US,(305) 438-9464,,,,,,
Dick's Sporting Goods,,31 West FlatIron Crossing Dr. ,,Broomfield ,CO,80021,US,(720) 887-0900,,,,,,
Dick's Sporting Goods,,2269 Prairie Center Pkwy ,,Brighton ,CO,80601,US,(720) 685-1701,,,,,,
Dick's Sporting Goods,,16521 Washington St. ,,Thornton ,CO,80023,US,(303) 280-6153,,,,,,
Weavers Dive & Travel,,637 S Broadway ,,Boulder ,CO,80305,US,(303) 499-8500,,,,,,
B.C. Surf & Sport,,1600 28th St. ,,Boulder ,CO,80301,US,(303) 440-6030,,,,,,
Dick's Sporting Goods,,1360 S Washington St. ,,North Attleboro ,MA,2760,US,(508) 699-8475,,,,,,
Dick's Sporting Goods,,275 Highland Ave. ,,Seekonk ,MA,2771,US,(508) 336-3004,,,,,,
Island Outfitters,,473 Thames St. ,,Newport ,RI,2840,US,(401) 848-9215,,,,,,
Pinewski'S Ski Shop,,546 West Main St. ,,Anoka ,MN,55303,US,(763) 422-0329,,,,,,
Tilly's-Mall of America,,246 North Garden ,,Bloomington ,MN,55425,US,,,,,,,
REI,,750 West American Blvd. ,,Bloomington ,MN,55420,US,(952) 884-4315,,,,,,
Dick's Sporting Goods,,1700 West 78th St. ,,Richfield ,MN,55423,US,(612) 869-0200,,,,,,
Dick's Sporting Goods,,8292 Tamarack Village ,,Woodbury ,MN,55125,US,(651) 731-0200,,,,,,
REI,,4862 Big Island Dr. ,,Jacksonville ,FL,32246,US,(904) 996-1613,,,,,,
WEST MARINE,,4874 BIG ISLAND DR ,,JACKSONVILLE ,FL,32246,US,,,,,,,
NORDSTROM,,4835 Town Crossing Dr ,,Jacksonville ,FL,32246,US,,,,,,,
Dick's Sporting Goods,,10390 Midtown Pkwy ,,Jacksonville ,FL,32246,US,(904) 642-4299,,,,,,
Miami Diver,,2994 N. Miami Ave. ,,Miami ,FL,33127,US,(305) 571-9700,,,,,,
Macy's- Capitola Mall,,1865 41st Ave ,,Capitola ,CA,95010,US,(831) 621-3333,,,,,,
O'Neill Surf Shop,,110 Cooper St. # 100D ,,Santa Cruz ,CA,95060,US,(831) 469-4377,,,,,,
HOT FEET,,219 Capitola Ave ,,Capitola ,CA,95010,US,,,,,,,
O'Neill Surf Shop,,1115 41st Ave. ,,Capitola ,CA,95010,US,(831) 475-4151,,,,,,
Freeline Design,,821 41St. Ave. ,,Santa Cruz ,CA,95062,US,(831) 476-2950,,,,,,
Boulder Outdoor Center,,2525 Arapahoe Ave. ,,Boulder ,CO,80302,US,(303) 444-8420,,,,,,
REI,,1789 28th St. ,,Boulder ,CO,80301,US,(303) 583-9970,,,,,,
Ocean First Divers,,3015 Bluff St. ,,Boulder ,CO,80301,US,(303) 444-7234,,,,,,
Dick's Sporting Goods,,210 Ken Pratt Blvd. ,,Longmont ,CO,80501,US,(303) 682-5740,,,,,,
B.C. Surf & Sport,,1710 Briar Gate Blvd. ,,Colorado Springs ,CO,80920,US,(719) 590-7873,,,,,,
Dick's Sporting Goods,,5080 Riverside Dr. Suite 1400 ,,North Macon ,GA,31210,US,(478) 477-6777,,,,,,
O'Neill Surf Shop,,400 Beach St. ,,Santa Cruz ,CA,95060,US,(831) 459-9230,,,,,,
Arrow Surf & Sport,,2324 Mission St. ,,Santa Cruz ,CA,95060,US,(831) 423-8286,,,,,,
Nolands,,41 Municipal ,,Wharf Santa Cruz ,CA,95060,US,(831) 458-1380,,,,,,
Mass Diving,,247 West Central St. ,,Natick ,MA,1760,US,(508) 651-0698,,,,,,
REI,,375 Cochituate Rd. ,,Framinham ,MA,1701,US,(508) 270-6325,,,,,,
Dick's Sporting Goods,,1336 Worcester St. ,,Natick ,MA,1760,US,(508) 653-0908,,,,,,
LL Bean,,1245 Worcester St. ,,Natick ,MA,7760,US,(800) 441-5713,,,,,,
Tilly's-Paragon Outlets Twin Cities at Eagan,,3995 Eagan Outlets Parkway Suite 115 ,,Eagan ,MN,55122,US,,,,,,,
Minnesota Inboard Watersports,,720 Galpin Lake Rd. ,,Excelsior ,MN,55331,US,(952) 474-1742,,,,,,
Dick's Sporting Goods,,901 County Rd. 42 West ,,Burnsville ,MN,55306,US,(952) 898-0743,,,,,,
Midwest Water Sports,,1400 Steiger Lake Lane ,,Victoria ,MN,55386,US,(763) 533-9667,,,,,,
Minnesota Inboard Watersports,,260 State Ave. ,,North New Germany ,MN,55367,US,(952) 353-1500,,,,,,
REI,,1376 East Woodmen Rd. ,,Colorado Springs ,CO,80920,US,(719) 260-1455,,,,,,
Macy's- The Promenade Shops at Centerra,,5995 Sky Pond Dr ,,Loveland ,CO,80538,US,(970) 612-1401,,,,,,
Dick's Sporting Goods,,5875 Sky Pond Dr. ,,Loveland ,CO,80538,US,(970) 461-9762,,,,,,
Underwater Connection,,4940 Rusina Rd. ,,Colorado Springs ,CO,80907,US,(719) 599-3483,,,,,,
Dick's Sporting Goods,,3133 Cinema Point ,,Colorado Springs ,CO,80922,US,(719) 638-3400,,,,,,
Divers Direct,,425 South Dixie Hwy ,,Coral Gables ,FL,33146,US,(305) 661-3300,,,,,,
Grove Scuba,,2809 SW 27th Ave. ,,Miami ,FL,33133,US,(305) 443-1313,,,,,,
Austin's Diving Center,,10525 S. Dixie Hwy ,,Miami ,FL,33156,US,(305) 665-0636,,,,,,
Catch A Wave,,2990 Mcfarlane Rd. ,,Coconut Grove ,FL,33133,US,(305) 569-0339,,,,,,
Peter Glenn Ski & Sport,,11855 S Dixie Hwy ,,Miami ,FL,33156,US,(305) 254-3309,,,,,,
Island Sports,,86 Aquidneck Ave. ,,Middletown ,RI,2842,US,(401) 846-4421,,,,,,
Scheels,,40 North Waite Ave. ,,Waite Park ,MN,56387,US,(320) 252-9494,,,,,,
Scheels,,1850 Adams St. ,,Mankato ,MN,56001,US,(507) 386-7767,,,,,,
Scheels,,1220 12th St. SW ,,Rochester ,MN,55902,US,(507) 281-2444,,,,,,
Dick's Sporting Goods,,4603 Maine Ave. SE ,,Rochester ,MN,55904,US,(507) 252-9651,,,,,,
Scheels,,4710 Golf Rd. ,,Eau Claire ,WI,54701,US,(715) 833-1886,,,,,,
REI,,4025 South College Ave. ,,Fort Collins ,CO,80525,US,(970) 223-0123,,,,,,
Macy's- The Plaza at Foothills Mall,,225 E Foothills Pkwy ,,Fort Collins ,CO,80525,US,(970) 226-5300,,,,,,
KIDSPORTS,,122 East Meadow Drive D2 ,,Vail ,CO,8165,US,,,,,,,
Rocky Mountain Boat Company,,290 S McCulloch Blvd. ,,Pueblo West ,CO,81007,US,(719) 547-3100,,,,,,
Powerstop / The Hammer,,905 North Main St. ,,Gunnison ,CO,81230,US,(970) 641-7375,,,,,,
Dick's Sporting Goods,,440 Glynn Isles ,,Brunswick ,GA,31525,US,(912) 262-2433,,,,,,
Sun & Ski,,5900 Sugarloaf Pkwy ,,Lawrenceville ,GA,30043,US,(678) 847-5717,,,,,,
Paddle And Putt,,300 Redfern Village ,,St. Simons Island ,GA,31522,US,(912) 268-4247,,,,,,
Sun & Ski,,8789 SW 132nd St. ,,Miami ,FL,33176,US,(305) 255-1166,,,,,,
Sunrise Surf Shop,,834 Beach Blvd. ,,Jacksonville Beach ,FL,32250,US,(904) 241-0822,,,,,,
South Beach Divers,,850 Washington Ave. ,,Miami Beach ,FL,33139,US,(305) 531-6110,,,,,,
MACY'S,,20507 S Dixie Hwy ,,Cutler Bay ,FL,33189,US,,,,,,,
Aqua East Surf Shop,,696 Atlantic Blvd. ,,Neptune Beach ,FL,32266,US,(904) 246-2550,,,,,,
Minnesota Inboard Watersports,,15779 Edgewood Dr. ,,Baxter ,MN,56425,US,(952) 474-1743,,,,,,
Minnesota Inboard Watersports,,15779 Edgewood Dr. ,,North Baxter ,MN,56425,US,(218) 822-4401,,,,,,
Dick's Sporting Goods,,1600 Miller Trunk Hwy ,,Duluth ,MN,55811,US,(218) 727-2078,,,,,,
Dick's Sporting Goods,,4400 WI-16 ,,La Crosse ,WI,54601,US,(608) 406-3684,,,,,,
NORBY'S DEPARTMENT STORE,,823 Washington Ave ,,Detroit Lakes ,MN,56501,US,,,,,,,
Ocean Motion,,1300 Ocean Blvd. ,,St. Simons Isle ,GA,31522,US,(912) 638-5225,,,,,,
Dick's Sporting Goods,,2145 Marketplace Blvd. ,,Cumming ,GA,30041,US,(770) 292-9834,,,,,,
Dick's Sporting Goods,,14964 Max Leggett Pkwy ,,Jacksonville ,FL,32218,US,(904) 757-9602,,,,,,
Coontail Sports,,1400 Hwy 51 North ,,Arbor Vitae ,WI,54568,US,(715) 385-9361,,,,,,
Scheels,,402 Viking Plaza ,,Cedar Falls ,IA,50613,US,(319) 277-3033,,,,,,
Dick's Sporting Goods,,1411 Flammang Dr. ,,Waterloo ,IA,50702,US,(319) 287-5722,,,,,,
Coontail Sports,,5466 Park St. ,,Boulder Junction ,WI,54512,US,(715) 385-9360,,,,,,
GLIKS,,1300 9th Ave SE # 105 ,,Watertown ,SD,57201,US,,,,,,,
REI,,644 North Ave. ,,Grand Junction ,CO,81501,US,(970) 254-8970,,,,,,
Eichner's,,1210 Ogallala Beach Rd. ,,Ogallalah ,NE,69153,US,(308) 284-4852,,,,,,
B.C. Surf & Sport,,2424 Hwy 6 Grand Junction ,,,CO,81505,US,(970) 241-0376,,,,,,
Dick's Sporting Goods,,1855 Jonesboro Rd. ,,McDonough ,GA,30253,US,(770) 957-4336,,,,,,
Dick's Sporting Goods,,6050 Peachtree Pkwy ,,Norcross ,GA,30092,US,(770) 613-0077,,,,,,
Macy's- Northridge Mall,,Northridge Mall 200 Northridge Center ,,Salinas ,CA,93901,US,(831) 443-1111,,,,,,
Tilly's-Harden Ranch Plaza,,1662 North Main Street ,,Salinas ,CA,93906,US,,,,,,,
PACSUN,,3100 Hwy 365 # 67 ,,Port Arthur ,TX,77642,US,,,,,,,
Dick's Sporting Goods,,6440 North Point Pkwy ,,Alpharetta ,GA,30022,US,(770) 521-1195,,,,,,
Tilly's-North Point Mall,,2164 North Point Circle ,,Alpharetta ,GA,30022,US,,,,,,,
Dick's Sporting Goods,,1223 N Davis Rd. ,,Salinas ,CA,93907,US,(831) 751-9019,,,,,,
REI,,145 General Stilwell Dr. ,,Marina ,CA,93933,US,(831) 883-8048,,,,,,
MACY'S,,4300 Ashford Dunwoody Rd ,,Atlanta ,GA,30346,US,,,,,,,
REI,,1165 Perimeter Center ,,West Atlanta ,GA,30338,US,(770) 901-9200,,,,,,
REI,,1800 NE Expy ,,Atlanta ,GA,30329,US,(404) 633-6508,,,,,,
Tilly's-Edgewater Shopping Center,,2080 California Avenue A ,,Sand City ,CA,93955,US,,,,,,,
On The Beach,,693 Lighthouse Ave. ,,Monterey ,CA,93940,US,(831) 646-9283,,,,,,
Sunshine Freestyle Sports,,443 Lighthouse Ave. ,,Monterey ,CA,93940,US,(831) 375-5015,,,,,,
Dick's Sporting Goods,,4700 Millhaven Rd. ,,Monroe ,LA,71203,US,(318) 410-1156,,,,,,
Strickly Hardcore,,3702 Ave. R ,,Galveston ,TX,77550,US,(409) 763-1559,,,,,,
Underground Surf Depot,,4700 Seawall Blvd. ,,Galvestown ,TX,77551,US,(409) 763-4036,,,,,,
Dick's Sporting Goods,,3535 Peachtree Rd. ,,Atlanta ,GA,30326,US,(404) 267-0200,,,,,,
Peter Glenn Ski & Sport,,5600 Roswell Rd. ,,Atalnta ,GA,30342,US,(404) 257-1706,,,,,,
Dick's Sporting Goods,,4269 Roswell Rd. ,,Marietta ,GA,30062,US,(678) 433-0010,,,,,,
Macy's- Del Monte Shopping Center,,100 Del Monte Center ,,Monterey ,CA,93940,US,(831) 372-3333,,,,,,
Salinas Valley Marine,,580 El Camino Real ,,North Salinas ,CA,93907,US,(831) 443-1616,,,,,,
Maximum Scuba,,2001 Bayport Blvd. ,,Seabrook ,TX,77586,US,(281) 291-9911,,,,,,
Dick's Sporting Goods,,7543 Youree Dr. ,,Shreveport ,LA,71105,US,(318) 797-9110,,,,,,
JAMMIN SPORTSWEAR,,2925 Gulf Fwy ,,League City ,TX,77573,US,,,,,,,
Sun & Ski,,1355 West Bay Area Blvd. ,,Webster ,TX,77598,US,(281) 823-5154,,,,,,
Macy's- Baybrook Mall,,200 Baybrook Mall ,,Friendswood ,TX,77546,US,(281) 226-5300,,,,,,
PACSUN,,1338 Baybrook Mall Dr ,,Friendswood ,TX,77546,US,,,,,,,
Kaiser Marine,,313 Eagle Ave. ,,Pasadena ,TX,77506,US,(713) 920-2157,,,,,,
WEST MARINE,,2510 COBB PKWY ,,SMYRNA ,GA,30080,US,,,,,,,
Dick's Sporting Goods,,1810 Cumming Hwy ,,Canton ,GA,30115,US,(770) 345-1218,,,,,,
Soundwaves,,3509 Montrose Blvd. ,,Houston ,TX,77006,US,(713) 520-9283,,,,,,
Sea Sport Scuba,,25701 I-45 North ,,The Woodlands ,TX,77380,US,(281) 367-6664,,,,,,
NORDSTROM,,1201 Lake Woodlands Dr ,,The Woodlands ,TX,77380,US,,,,,,,
Tyler's – Woodlands,,1555 Lake Woodlands Dr # 400 ,,The Woodlands ,TX,77380,US,,,,,,,
Sun & Ski,,6100 Westheimer Rd. ,,Houston ,TX,77057,US,(713) 783-8180,,,,,,
M2 Watersports,,6375 Westheimer Rd. ,,Houston ,TX,77057,US,(713) 433-4475,,,,,,
Maximum Scuba,,6423 Richmond Ave. ,,Houston ,TX,77057,US,(832) 582-7280,,,,,,
Sea Sport Scuba,,7543 Westheimer Rd. ,,Houston ,TX,77063,US,(713) 977-0028,,,,,,
Dive Pirates Foundation,,70 West Thymewood Place ,,The Woodlands ,TX,77382,US,(832) 212-1967,,,,,,
REI,,7538 Westheimer Rd. ,,Houston ,TX,77063,US,(713) 353-2582,,,,,,
REI,,1703 S. Brentwood Blvd. ,,St. Louis ,MO,63144,US,(314) 918-1004,,,,,,
Dick's Sporting Goods,,200 West County Center ,,Des Peres ,MO,63131,US,(314) 649-1400,,,,,,
Dick's Sporting Goods,,64 THF Blvd. ,,Chesterfield ,MO,63005,US,(636) 536-3718,,,,,,
Dick's Sporting Goods,,1600 Mid Rivers Mall St ,,Peters ,MO,63376,US,(636) 278-5050,,,,,,
Dri-Port Marine,,300 Lake Bluff Rd. ,,O'Fallon ,MO,63366,US,(636) 978-9999,,,,,,
Dick's Sporting Goods,,3162 Phoenix Center Dr. ,,Washington ,MO,63090,US,(636) 266-3006,,,,,,
Dick's Sporting Goods,,1866 Wentzville Pkwy ,,Wentzville ,MO,63385,US,(636) 445-3081,,,,,,
Island Vibe Surf Shop,,2022 1st Ave ,,Fernandina Beach ,FL,32034,US,(904) 432-8482,,,,,,
Dick's Sporting Goods,,1729 Apalachee Pkwy ,,Tallahassee ,FL,32301,US,(850) 309-0490,,,,,,
FLIP FLOP SHOP,,1500 Apalachee Pkwy # 1110 ,,Tallahassee ,FL,32301,US,,,,,,,
Xtremely Board,,610 State Rd. ,,Dartmouth ,MA,2747,US,(508) 990-9876,,,,,,
Dick's Sporting Goods,,475 State Rd. N ,,Dartmouth ,MA,2747,US,(508) 999-1617,,,,,,
LL Bean,,280 School St. ,,Mansfield ,MA,2048,US,(888) 552-5547,,,,,,
Eastern Mountain Sports,,246 Patriot Place ,,Foxborough ,MA,2035,US,(508) 543-1350,,,,,,
Dick's Sporting Goods,,2 Galleria Mall Dr. ,,Taunton ,MA,2780,US,(508) 823-8132,,,,,,
WEST MARINE,,114 Huttleston Ave ,,Fairhaven ,MA,2719,US,,,,,,,
Sandal Factory,,102411 Overseas Hwy ,,Key Largo ,FL,33037,US,(305) 453-9644,,,,,,
SANDAL FACTORY OUTLET,,102411 Overseas Hwy ,,Key Largo ,FL,33037,US,,,,,,,
Divers Direct,,522 Caribbean Dr. ,,Key Largo ,FL,33037,US,(305) 451-1113,,,,,,
Divers Direct,,99621 Overseas Hwy ,,Key Largo ,FL,33037,US,(305) 451-0118,,,,,,
Tsunami Surf And Sport,,533 Machi Rd. ,,Whitehorn ,CA,95589,US,(707) 923-1965,,,,,,
Dick's Sporting Goods,,435 Westgate Dr. ,,Brockton ,MA,2301,US,(508) 559-9290,,,,,,
LL Bean,,340 Legacy Place ,,Dedham ,MA,2026,US,(800) 650-6358,,,,,,
SIMON AND SONS,,679 Highland Ave ,,Needham ,MA,2494,US,,,,,,,
Windance Boardshop,,108 OR-35 ,,Hood River ,OR,97031,US,(541) 386-2131,,,,,,
Big Winds,,207 Front St. ,,Hood River ,OR,97031,US,(541) 386-6086,,,,,,
NORDSTROM,,828 West Main Avenue ,,Spokane ,WA,99201,US,,,,,,,
LIMITLESS,,501 26th St ,,Washougal ,WA,98671,US,,,,,,,
Eastern Mountain Sports,,145 Great Rd. ,,Acton ,MA,1720,US,(978) 263-4151,,,,,,
Dick's Sporting Goods,,180 Providence Way ,,Dedham ,MA,2026,US,(781) 329-2862,,,,,,
Winds Up,,199 Beach Rd. ,,Vineyard Haven ,MA,2568,US,(508) 693-4252,,,,,,
Board Stiff,,193 Main St ,,Falmouth ,MA,2540,US,(508) 540-9555,,,,,,
REI,,1125 Monroe St. ,,Spokane ,WA,99201,US,(509) 328-9900,,,,,,
WINTERSPORT,,3220 N. DIVISION ST ,,SPOKANE ,WA,99207,US,,,,,,,
Macy's- NorthTown Mall,,4770 N Division St ,,Spokane ,WA,99207,US,(509) 482-6800,,,,,,
Dick's Sporting Goods,,700 NW Eastman Pkwy ,,Gresham ,OR,97030,US,(503) 667-1950,,,,,,
NORDSTROM,,250 Granite St ,,Braintree ,MA,2184,US,,,,,,,
Tilly's-South Shore Plaza,,250 Granite Street ,,Braintree ,MA,2184,US,,,,,,,
THURO SURF AND SKATE,,362 BOLYSTON ST ,,BROOKLINE ,MA,2445,US,,,,,,,
Sandal Factory,,81917 Overseas Hwy ,,Islamorada ,FL,33036,US,(305) 664-9700,,,,,,
Dick's Sporting Goods,,63455 North Hwy 97 ,,Bend ,OR,97703,US,(541) 317-4820,,,,,,
NORDSTROM,,8601 NE Vancouver Mall Dr ,,Vancouver ,WA,98662,US,,,,,,,
Macy's- Vancouver Mall,,8208 NE Vancouver Mall Dr ,,Vancouver ,WA,98662,US,(360) 256-4411,,,,,,
Macy's- Bend River Promenade,,3188 N Hwy 97 ,,Bend ,OR,97701,US,(541) 317-6000,,,,,,
The Boneyard,,47 Main St. ,,Edgartown ,MA,2539,US,(508) 627-7907,,,,,,
Island Outfitters,,27 North Water St. ,,Edgartown ,MA,2539,US,(508) 627-7201,,,,,,
Dick's Sporting Goods,,9600 SE 82nd Ave. ,,Clackamas ,OR,97086,US,(503) 788-7616,,,,,,
Tilly's-Clackamas Town Center,,12000 SE 82nd Ave Suite 2096 ,,Happy Valley ,OR,97086,US,,,,,,,
Macy's- Clackamas Town Center,,12100 SE 82nd Ave ,,Happy Valley ,OR,97086,US,(503) 653-8811,,,,,,
REI,,12160 SE 82nd Ave. ,,Portland ,OR,97086,US,(503) 659-1156,,,,,,
NORDSTROM,,11900 SE 82nd Ave ,,Happy Valley ,OR,97086,US,,,,,,,
NORDSTROM,,8930 SE Sunnyside Rd ,,Clackamas ,OR,97015,US,,,,,,,
Tumalo Creek,,805 SW Industrial Way ,,Bend ,OR,97702,US,(541) 317-9407,,,,,,
REI,,380 Powerhouse Dr. ,,Bend ,OR,97702,US,(541) 385-0594,,,,,,
Dick's Sporting Goods,,1140 N. Hayden Meadow Dr. ,,Portland ,OR,97217,US,(503) 285-5040,,,,,,
EVO,,200 SE MLK Jr Blvd. ,,Portland ,OR,97214,US,(503) 972-5850,,,,,,
REI,,401 Park Dr. ,,Boston ,MA,2215,US,(617) 236-0746,,,,,,
Eastern Mountain Sports,,1 Brattle Square ,,Cambridge ,MA,2138,US,(617) 864-2061,,,,,,
Sandal Factory,,5195 Overseas Hwy ,,Marathon ,FL,33040,US,(305) 743-5778,,,,,,
Sumerland Sandal & Surf Co.,,24818 Overseas Hwy ,,Summerland Key ,FL,33042,US,(305) 745-9966,,,,,,
WEST MARINE,,12085 N PARKER AVE ,,PORTLAND ,OR,97217,US,,,,,,,
NORDSTROM,,245 SW Morrison St ,,Portland ,OR,97204,US,,,,,,,
Dick's Sporting Goods,,3500 Meridian St. ,,Puyallup ,WA,98373,US,(253) 845-5188,,,,,,
Gorge Preformance,,7400 SW Macadam ,,Portland ,OR,97219,US,(503) 246-6646,,,,,,
REI,,1405 NW Johnson St. ,,Portland ,OR,97209,US,(503) 221-1938,,,,,,
REI,,98 Derby St. ,,Hingham ,MA,2043,US,(781) 740-9430,,,,,,
NORDSTROM,,75 Middlesex Turnpike ,,Burlington ,MA,1803,US,,,,,,,
Sailworld Cape Cod,,139 Main St. ,,Buzzards Bay ,MA,2532,US,(508) 759-6559,,,,,,
NORDSTROM,,701 SW Broadway ,,Portland ,OR,97205,US,,,,,,,
Macy's- South Hill Mall,,3500 S Meridian ,,Puyallup ,WA,98373,US,(253) 840-7000,,,,,,
Dick's Sporting Goods,,17799 Lower Boones Ferry Rd. ,,Lake Oswego ,OR,97035,US,(503) 635-3800,,,,,,
REI,,7410 SW Bridgeport Rd. ,,Tigard ,OR,97224,US,(503) 624-8600,,,,,,
Tilly's-Nyberg Woods,,7039 Nyberg Road ,,Tualatin ,OR,97062,US,,,,,,,
LL Bean,,6 Wayside Rd. ,,Bulington ,MA,1803,US,(888) 552-9866,,,,,,
Dick's Sporting Goods,,205 Colony Place Rd. ,,Plymouth ,MA,2360,US,(508) 746-6932,,,,,,
Dick's Sporting Goods,,1422 10th Way NE ,,Issaquah ,WA,98029,US,(425) 427-9284,,,,,,
Macy's- Washington Square Mall,,9300 SW Washington Square Rd ,,Tigard ,OR,97223,US,(503) 620-3311,,,,,,
Dick's Sporting Goods,,9402 SW Washington Square Rd. ,,Tigard ,OR,97223,US,(503) 598-3081,,,,,,
NORDSTROM,,9700 SW Washington Square Road ,,Tigard ,OR,97223,US,,,,,,,
Dick's Sporting Goods,,1775 Washington St. ,,Hanover ,MA,2339,US,(781) 826-9282,,,,,,
Eastern Mountain Sports,,6 ShipyaRd. Dr. ,,Hingham ,MA,2043,US,(781) 741-8808,,,,,,
Dick's Sporting Goods,,310 Daniel Webster Hwy ,,Nashua ,NH,3060,US,(603) 888-3579,,,,,,
Eastern Mountain Sports,,281 Daniel Webster Hwy ,,Nashua ,NH,3060,US,(603) 891-1180,,,,,,
MOCEAN,,34 Steeple St ,,Mashpee ,MA,2649,US,,,,,,,
NORDSTROM,,9175 SW Cascade Ave ,,Beaverton ,OR,97008,US,,,,,,,
Active Watersports,,12050 SW Canyon Rd. ,,Beaverton ,OR,97005,US,(503) 643-501,,,,,,
REI,,735 NW Gilman Blvd. ,,Issaquah ,WA,98027,US,(425) 313-1660,,,,,,
Dick's Sporting Goods,,1819 South Commons Federal Way ,,,WA,98003,US,(206) 400-2811,,,,,,
REI,,6750 South 228th St. ,,Kent ,WA,98032,US,(253) 395-3780,,,,,,
Sun & Ski,,296 Old Oak St. ,,Pembroke ,MA,2359,US,(781) 826-3556,,,,,,
WEST MARINE,,299 MISHAWUM RD ,,WOBURN ,MA,1801,US,,,,,,,
Sun & Ski,,406 Washington St. ,,Woburn ,MA,7801,US,(781) 897-1090,,,,,,
NORDSTROM,,18100 NW Evergreen Pkwy ,,Beaverton ,OR,97006,US,,,,,,,
REI,,2235 NW Allie Ave. ,,Hillsboro ,OR,97124,US,(503) 617-6072,,,,,,
NORDSTROM,,4502 South Steele Street ,,Tacoma ,WA,98409,US,,,,,,,
Tilly's-Tacoma Mall,,4502 South Steele Street 630B ,,Tacoma ,WA,98409,US,,,,,,,
REI,,3825 South Steele St. ,,Tacoma ,WA,98409,US,(253) 671-1938,,,,,,
Dick's Sporting Goods,,1201 Broadway ,,Saugus ,MA,1906,US,(781) 233-0476,,,,,,
Dick's Sporting Goods,,915 North Landing Way ,,Renton ,WA,98057,US,(425) 255-3070,,,,,,
Dick's Sporting Goods,,7280 NW Butler St. ,,Hillsboro ,OR,97124,US,(503) 547-2904,,,,,,
REI,,240 Andover Pkwy ,,West Tukwila ,WA,98188,US,(206) 248-1938,,,,,,
Adrenaline Watersports,,13433 NE 20th St. ,,Bellevue ,WA,98005,US,(425) 746-9253,,,,,,
REI,,7500 166th Ave. NE ,,Redmond ,WA,98052,US,(425) 882-1158,,,,,,
Dick's Sporting Goods,,227 N. Stadium Blvd. ,,Columbia ,MO,65203,US,(573) 447-1001,,,,,,
Dick's Sporting Goods,,739 Stoneridge Pkwy ,,Jefferson City ,MO,65109,US,(573) 556-5602,,,,,,
Dick's Sporting Goods,,4635 Osage Beach Pkwy ,,Osage Beach ,MO,65065,US,(573) 302-7470,,,,,,
Wake Effects,,4773 Osage Beach Pkwy ,,Osage Beach ,MO,65065,US,(573) 348-2100,,,,,,
WEST MARINE,,3872 US-54 ,,Osage Beach ,MO,65065,US,,,,,,,
Macy's- Redmond Town Center,,7400 166th Ave NE ,,Redmond ,WA,98052,US,(425) 498-6000,,,,,,
NORDSTROM,,100 Bellevue Square ,,Bellevue ,WA,98004,US,,,,,,,
Wiley's Waterski and Wakeboard,,1417 South Trenton St. ,,Seattle ,WA,98108,US,(800) 962-0785,,,,,,
NORDSTROM,,400 Pine St ,,Seattle ,WA,98101,US,,,,,,,
NORDSTROM,,500 Pine St ,,Seattle ,WA,98101,US,,,,,,,
REI,,279 Salem St. ,,Reading ,MA,1867,US,(781) 944-5103,,,,,,
Nor'Easter Surf & Skate,,376 Gannett Rd. ,,Scituate ,MA,2066,US,(781) 544-9283,,,,,,
Macy's- Downtown Seattle,,300 Pine St ,,Seattle ,WA,98101,US,(206) 506-6000,,,,,,
REI,,222 Yale Ave. ,,North Seattle ,WA,98109,US,(206) 223-1944,,,,,,
B.C. Surf & Sport,,4514 University Way NE ,,Seattle ,WA,98105,US,(206) 547-5503,,,,,,
Urban Surf,,2100 N Northlake Way ,,Seattle ,WA,98103,US,(206) 545-9463,,,,,,
EVO,,3500 Stone Way ,,North Seattle ,WA,98103,US,(206) 973-4470,,,,,,
Tilly's-Independence Center,,18813 E. 39th Street South Suite 1152 ,,Independence ,MO,64057,US,,,,,,,
Dick's Sporting Goods,,17730 East 39th St. ,,South Independence ,MO,64055,US,(816) 350-0089,,,,,,
Dick's Sporting Goods,,1600 NW Chipman Rd. ,,Lee's Summit ,MO,64081,US,(816) 525-3006,,,,,,
NORDSTROM,,401 NE Northgate Way ,,Seattle ,WA,98125,US,,,,,,,
REI,,625 Black Lake Blvd. SW ,,Olympia ,WA,98502,US,(360) 786-1938,,,,,,
REI,,6035 Ulali Dr. NE ,,Keizer ,OR,97303,US,(503) 393-0909,,,,,,
Dick's Sporting Goods,,275 Lancaster Dr. NE ,,Salem ,OR,97301,US,(503) 363-4860,,,,,,
NORDSTROM,,19500 Alderwood Mall Parkway ,,Lynnwood ,WA,98036,US,,,,,,,
Island Outfitters,,21 Wianno Ave. ,,Osterville ,MA,2655,US,(508) 428-2355,,,,,,
REI,,3000 184th St. SW ,,Lynnwood ,WA,98037,US,(425) 640-6200,,,,,,
Macy's- Alderwood Mall,,8700 Alderwood Mall Blvd ,,Lynnwood ,WA,98036,US,(425) 712-6000,,,,,,
NORDSTROM,,420 Center Street NE ,,Salem ,OR,97301,US,,,,,,,
Dick's Sporting Goods,,1890 College St. ,,Liberty ,MO,64068,US,(816) 407-1111,,,,,,
Dick's Sporting Goods,,8600 Ward Pkwy ,,Kansas City ,MO,64114,US,(816) 363-1198,,,,,,
Tilly's-Town Center Plaza,,5215 W 117th Street ,,Leawood ,KS,66209,US,,,,,,,
Dick's Sporting Goods,,11801 Nall Ave. ,,Leawood ,KS,66211,US,(913) 661-0200,,,,,,
Eastern Mountain Sports,,1513 Lyannough Rd. ,,Hyannis ,MA,2601,US,(508) 362-8690,,,,,,
NORDSTROM,,210 Andover St ,,Peabody ,MA,1960,US,,,,,,,
Tilly's-Northshore Mall,,210 Andover Street E 151A ,,Peabody ,MA,1960,US,,,,,,,
Dick's Sporting Goods,,96 Commonwealth Ave. ,,Danvers ,MA,1923,US,(978) 646-6400,,,,,,
Boarding House,,354 Main St. ,,Hyannis ,MA,2601,US,(508) 778-4080,,,,,,
REI,,6281 West 135th St. ,,Overland Park ,KS,66223,US,(913) 402-1938,,,,,,
Sitzmark,,10500 Marty ,,Overland Park ,KS,66212,US,(913) 341-5332,,,,,,
Dick's Sporting Goods,,8665 NW Prairie View Rd. ,,Kansas City ,MO,64153,US,(816) 436-3524,,,,,,
Dick's Sporting Goods,,5600 Antioch Rd. ,,Merriam ,KS,66202,US,(913) 432-3945,,,,,,
Dick's Sporting Goods,,15280 W 119th St. ,,Olathe ,KS,66062,US,(913) 254-9196,,,,,,
Eastern Mountain Sports,,1500 South Willow St. ,,Manchester ,NH,3103,US,(603) 647-0845,,,,,,
Force 5 Watersports,,6 Union St. ,,Nantucket ,MA,2554,US,(508) 228-0700,,,,,,
Tilly's-Battlefield Mall,,101 Battlefield Mall Space P07B ,,Springfield ,MO,65804,US,,,,,,,
Williams Bros. Ski & Sport,,26009 MO-39 ,,Shell Knob ,MO,65747,US,(417) 858-6366,,,,,,
KC Water Sports,,25825 Edgemore Rd. ,,Paola ,KS,66071,US,(913) 783-4300,,,,,,
GLIKS,,1110 N Quincy Ave # 14 ,,Ottumwa ,IA,52501,US,,,,,,,
Ski & Sports,,1711 Prairie Creek Dr ,,Rogers ,AR,72756,US,(479) 631-1653,,,,,,
Dick's Sporting Goods,,4204 North Belt Hwy ,,St. Joseph ,MO,64506,US,(816) 390-8088,,,,,,
Dick's Sporting Goods,,2727 Iowa St. ,,Lawrence ,KS,66046,US,(785) 312-3317,,,,,,
Dick's Sporting Goods,,5900 SW Huntoon St. ,,Topeka ,KS,66604,US,(785) 271-5398,,,,,,
Dick's Sporting Goods,,3825 Phoenix Ave. ,,Fort Smith ,AR,72903,US,(479) 646-8900,,,,,,
Scheels,,1461 Coral Ridge Ave. ,,Coralville ,IA,52241,US,(319) 625-9959,,,,,,
Dick's Sporting Goods,,320 South Jordan Creek Pkwy ,,West Des Moines ,IA,50266,US,(515) 225-6230,,,,,,
Scheels,,101 Jordan Creek Pkwy ,,West Des Moines ,IA,50266,US,(515) 727-4065,,,,,,
Dick's Sporting Goods,,620 Elsinger Blvd. ,,Conway ,AR,72032,US,(501) 336-0700,,,,,,
Tilly's-Jordan Landing,,3746 W. Center Park Dr. ,,West Jordan ,UT,84084,US,,,,,,,
Marine Products,,949 West 1700 South ,,Salt Lake ,UT,84104,US,(801) 973-4017,,,,,,
Dick's Sporting Goods,,1201 North Hill Field Rd. ,,Layton ,UT,84041,US,(801) 444-6656,,,,,,
REI,,230 West 10600 South ,,Sandy ,UT,84070,US,(801) 501-0850,,,,,,
Dick's Sporting Goods,,1620 East Hillside Dr. ,,Broken Arrow ,OK,74012,US,(918) 355-3310,,,,,,
Dick's Sporting Goods,,10021 East 71st St. ,,Tulsa ,OK,74133,US,(918) 249-4444,,,,,,
Tilly's-Woodland Hills Mall,,7021 S Memorial Dr Space 0142 ,,Tulsa ,OK,74133,US,,,,,,,
PACSUN,,7021 S Memorial Dr # 219 ,,Tulsa ,OK,74133,US,,,,,,,
Sun & Ski,,6808 Memorial Dr. ,,Tulsa ,OK,74133,US,(918) 254-0673,,,,,,
B.C. Surf & Sport,,10450 South State St. ,,Sandy ,UT,84070,US,(801) 523-9270,,,,,,
Scheels,,11282 South State St. ,,Sandy ,UT,84070,US,(801) 948-7080,,,,,,
Dick's Sporting Goods,,41 South Rio Grande St. ,,Salt Lake City ,UT,84101,US,(801) 456-0200,,,,,,
Tilly's-Commons at Southtowne,,10465 South State Street ,,Sandy ,UT,84070,US,,,,,,,
NORDSTROM,,55 S W Temple ,,Salt Lake City ,UT,84101,US,,,,,,,
Macy's- City Creek Center,,21 Main St ,,Salt Lake City ,UT,84111,US,(801) 736-8950,,,,,,
Ski N' See,,772 East 9400 ,,Sandy ,UT,84094,US,(801) 571-2031,,,,,,
Dick's Sporting Goods,,7170 South 1000 ,,East Midvale ,UT,84047,US,(801) 566-2920,,,,,,
Tilly's-Station Park,,170 N Station Parkway ,,Farmington ,UT,84025,US,,,,,,,
REI,,3285 East 3300 South ,,Salt Lake City ,UT,84109,US,(801) 486-2100,,,,,,
Dick's Sporting Goods,,130 E University Pkwy ,,Orem ,UT,84058,US,(801) 225-7073,,,,,,
Macy's- University Place,,543 E University Pkwy ,,Orem ,UT,84097,US,(801) 227-3000,,,,,,
XTOutfitters,,3111 N. Canyon Rd. ,,Provo ,UT,84604,US,(801) 607-1087,,,,,,
M&M Watersports,,1015 N 2000 W ,,Springville ,UT,84663,US,(888) 669-7547,,,,,,
MACY'S,,4143 S Yale Ave ,,Tulsa ,OK,74135,US,,,,,,,
Dick's Sporting Goods,,7523 South Olympia Ave. ,,Tulsa ,OK,74132,US,(918) 447-1100,,,,,,
Dick's Sporting Goods,,401 3rd Place ,,Manhattan ,KS,66502,US,(785) 539-7800,,,,,,
Dick's Sporting Goods,,1420 Higdon Ferry Rd. ,,Hot Springs ,AR,71913,US,(501) 624-0200,,,,,,
Sandal Factory,,5180 Overseas Hwy ,,Stock Island ,FL,33040,US,(305) 292-9700,,,,,,
Sunset Watersports,,5130 US 1 Key ,,West ,FL,33040,US,(305) 294-5500,,,,,,
WEST MARINE,,951 Caroline St # 100 Key ,,West ,FL,33040,US,,,,,,,
Hammerhead Surf Shop,,201 William St. Key ,,West ,FL,33040,US,(855) 942-6637,,,,,,
Ron Jon Surf Shop,,503 Front St. Key ,,West ,FL,33040,US,(305) 293-8880,,,,,,
Divers Direct,,535 Greene St. Key ,,West ,FL,33040,US,(305) 293-5122,,,,,,
Sandal Factory,,400B Duval St ,,Key West ,FL,33040,US,(305) 294-5778,,,,,,
EGO K W INC/EGO,,607 Duval St Key ,,West ,FL,33040,US,,,,,,,
VENICE WORLD,,423 Duval St Key ,,West ,FL,33040,US,,,,,,,
Tyler's Raquet & Jog – Tyler,,5403 S Broadway Ave ,,Tyler ,TX,75703,US,,,,,,,
TYLER'S – RACQUET & JOG,,14250 Old FM Rd 344 ,,Bullard ,TX,75757,US,,,,,,,
Dick's Sporting Goods,,1005 East I30 ,,Rockwall ,TX,75087,US,(972) 722-4434,,,,,,
Extreme Sports Dallas,,5416 Ranger Dr ,,Rockwall ,TX,75032,US,(214) 494-9356,,,,,,
Tilly's-Town East Mall,,1024 Town East Mall ,,Mesquite ,TX,75150,US,,,,,,,
Dick's Sporting Goods,,205 Coneflower Dr. ,,Garland ,TX,75040,US,(972) 495-3208,,,,,,
Barnfield Raging Isle Sports,,66-250 Kamehameha Hwy ,,Haleiwa ,HI,96712,US,(808) 637-7797,,,,,,
Hawaiian Island Creations,,66-224 Kamehameha Hwy ,,Haleiwa ,HI,96712,US,(808) 637-0991,,,,,,
Surf-N-Sea,,62-595 Kamehameha Hwy ,,Haleiwa ,HI,96712,US,(808) 637-9887,,,,,,
Hawaiian Island Creations,,95-1249 Meheula Pkwy ,,Mililani ,HI,96789,US,(808) 627-7100,,,,,,
Local Motions,,94-798 Lumiaina St. ,,Waipahu ,HI,96797,US,(808) 668-7873,,,,,,
Hawaiian Island Creations,,590 Farrington Hwy ,,Kapolei ,HI,96707,US,(808) 674-4001,,,,,,
Macy's- Pearlridge Center,,98-205 Kaonohi St ,,Aiea ,HI,96701,US,(808) 486-6701,,,,,,
Town & Country Surfboards,,98-1005 Moanalua Rd. ,,Aiea ,HI,96701,US,(808) 483-5499,,,,,,
Macy's- Kapolei,,91 Kapolei Pkwy ,,Kapolei ,HI,96707,US,(808) 600-2000,,,,,,
UP AND RIDING,,98-1025 Moanalua Rd # 860 ,,Aiea ,HI,96701,US,,,,,,,
Town & Country Surfboards,,99-1295 Waiua Place ,,Aiea ,HI,96701,US,(808) 483-8383,,,,,,
Kohala Bay Collections,,57-091 Kamehameha Hwy ,,Honolulu ,HI,96815,US,(808) 293-2728,,,,,,
Local Motions,,46-056 Kamehameha Hwy ,,Kaneohe ,HI,96744,US,(808) 263-7873,,,,,,
Macy's- Windward Mall,,46-056 Kamehameha Hwy ,,Kaneohe ,HI,96744,US,(808) 235-6612,,,,,,
WEST MARINE,,420 N. NIMITZ HWY ,,HONOLULU ,HI,96817,US,,,,,,,
Ambush,,2555 Cobb Place Lane ,,Kennesaw ,GA,30144,US,(770) 420-9111,,,,,,
REI,,740 Barrett Pkwy ,,Kennesaw ,GA,30144,US,(770) 425-4480,,,,,,
CROMWELL SHOES,,79 S Hotel St ,,Honolulu ,HI,96813,US,,,,,,,
Local Motions,,870 Kawaiahao St. ,,Honolulu ,HI,96813,US,(808) 941-7873,,,,,,
Town & Country Surfboards,,1050 Ala Moana Blvd. ,,Honolulu ,HI,96815,US,(808) 592-5299,,,,,,
Hawaiian South Shore,,320 Ward Ave. ,,Honolulu ,HI,96814,US,(808) 597-9055,,,,,,
Macy's- Ala Moana Center,,1450 Ala Moana Blvd ,,Honolulu ,HI,96814,US,(808) 941-2345,,,,,,
Dick's Sporting Goods,,667 Ernest W. Barrett Pkwy NW ,,Kennesaw ,GA,30144,US,(770) 281-0200,,,,,,
Blue Hawaii Surf,,1450 Ala Moana Blvd. ,,Honolulu ,HI,96814,US,(808) 947-9988,,,,,,
NORDSTROM,,1519 Kapiolani Blvd ,,Honolulu ,HI,96814,US,,,,,,,
662 RIDE SHOP,,1960 Kapiolani Blvd ,,Honolulu ,HI,96826,US,,,,,,,
SUNSHINE SWIMWEAR,,227 Lewers St # 123 ,,Honolulu ,HI,96815,US,,,,,,,
Naish Hawaii,,155 Hamakua Dr. ,,Kailua ,HI,96734,US,(808) 261-3539,,,,,,
Hawaiian Island Creations,,348 Hahani St. ,,Kailua ,HI,96734,US,(808) 266-6730,,,,,,
South Seas Aquatics,,2255 Kuhio Ave. ,,Honolulu ,HI,96815,US,(808) 922-0852,,,,,,
ALLURE SWIMWEAR,,2301 Kalakaua Ave ,,Honolulu ,HI,96815,US,,,,,,,
Macy's- Waikiki,,2314 Kalakaua Ave ,,Honolulu ,HI,96815,US,(808) 926-5217,,,,,,
FUNCTION SURF,,2424 Kalakaua Ave Suite 207 ,,Honolulu ,HI,96815,US,,,,,,,
Dick's Sporting Goods,,382 Newnan Crossing Bypass ,,Newnan ,GA,30265,US,(770) 253-1501,,,,,,
Koa Board Sports,,2420 Koa Ave. ,,Honolulu ,HI,96815,US,(808) 923-0189,,,,,,
Breeze Hawaii,,3014 Kaimuki Ave. ,,Honolulu ,HI,96816,US,(808) 735-1856,,,,,,
Function Surf Hyatt Regency,,2424 Kalakaua Ave. ,,Honolulu ,HI,96815,US,(808) 922-5717,,,,,,
FOOD PANTRY/WATER WEAR,,3536 Harding Ave # 500 ,,Honolulu ,HI,96816,US,,,,,,,
Town & Country Surfboards,,41-1800 Kalanianaole Hwy ,,Waimanalo ,HI,96795,US,(808) 259-9941,,,,,,
MACY'S,,2060 Green Oaks Rd ,,Fort Worth ,TX,76116,US,,,,,,,
Tyler's – Ft. Worth,,1621 River Run # 100 ,,Fort Worth ,TX,76107,US,,,,,,,
Dick's Sporting Goods,,9356 Sage Meadow Trail Ft. ,,Worth ,TX,76177,US,(817) 750-1170,,,,,,
PACSUN,,4800 S Hulen St ,,Fort Worth ,TX,76132,US,,,,,,,
Sun & Ski,,4941 Overton Ridge Blvd. ,,Fort Worth ,TX,76132,US,(682) 747-0418,,,,,,
Texas Master Craft & Chaparral Boats,,2177 East Loop 820 North ,,Fort Worth ,TX,76118,US,(817) 589-7547,,,,,,
CD Ski & Sports,,5264 South Hulen St. ,,Fort Worth ,TX,76132,US,(817) 263-0490,,,,,,
Dick's Sporting Goods,,1101 Melbourne Rd. ,,Hurst ,TX,76053,US,(817) 590-0740,,,,,,
Tilly's-North East Mall,,1101 Melbourne Road 3039 ,,Hurst ,TX,76053,US,,,,,,,
REI,,1011 East Southlake Blvd. ,,Southlake ,TX,76092,US,(8174160948___,,,,,,
Tyler's – Southlake,,1420 Civic Pl ,,Southlake ,TX,76092,US,,,,,,,
Dick's Sporting Goods,,3891 South Cooper St. ,,Arlington ,TX,76015,US,(817) 987-4800,,,,,,
MACY'S,,3841 S Cooper St ,,Arlington ,TX,76015,US,,,,,,,
Sun & Ski,,1100 West Arbrook Blvd. ,,Arlington ,TX,76015,US,(682) 433-0027,,,,,,
Sun & Ski,,3000 Grapevine Mills Pkwy ,,Grapevine ,TX,76051,US,(972) 355-9424,,,,,,
Macy's- Kahala Mall,,4211 Waialae Ave ,,Honolulu ,HI,96816,US,(808) 737-5429,,,,,,
Town & Country Surfboards,,4211 Waialae Ave. ,,Honolulu ,HI,96816,US,(808) 733-5699,,,,,,
UP AND RIDING,,4211 Waialae Ave # 6050 ,,Honolulu ,HI,96816,US,,,,,,,
Local Motions,,7192 Kalanlanaole Hwy ,,Honolulu ,HI,96825,US,(808) 396-7873,,,,,,
M. Miura Store,,4-1419 Kuhio Hwy ,,Kapaa ,HI,96746,US,(808) 822-4401,,,,,,
Macy's- Kukui Grove Shopping Center,,3-2600 Kaumualii Hwy ,,Lihue ,HI,96766,US,(808) 245-7751,,,,,,
WATER WEAR HAWAII,,1571 POIPU RD SPACE # 9 ,,KOLOA ,HI,96756,US,(808) 742-0220,,,,,,
Nukumoi Surf Shop,,2100 Hoone Rd. ,,Koloa ,HI,96756,US,(808) 742-8019,,,,,,
POIPU SURF COMPANY,,2829 Ala Kalanikaumaka St h151 ,,Koloa ,HI,96756,US,,,,,,,
WHALERS VILLAGE,,2435 Kaanapali Pkwy ,,Lahaina ,HI,96761,US,(808) 661-4567,,,,,,
O'Neill Outlet – Grapevine Mills,,3000 Grapevine Mills Pkwy # 238 ,,Grapevine ,TX,76051,US,,,,,,,
Dick's Sporting Goods,,5801 Long Prairie Rd. ,,Flower Mound ,TX,75028,US,(972) 355-1111,,,,,,
JACK'S OUTFITTERS,,1101 Shoal Creek ,,Highland Village ,TX,75077,US,,,,,,,
Dick's Sporting Goods,,2000 Market Place Blvd. ,,Irving ,TX,75063,US,(972) 402-0600,,,,,,
Buxton Marine,,566 N Stemmons Fwy ,,Lewisville ,TX,75067,US,(972) 436-7412,,,,,,
Ocean Commotion Waterwear Westinmaui,,2365 Kaanapali Pkwy ,,Lahaina ,HI,96761,US,(808) 667-1819,,,,,,
Macy's- Hyatt Regency Maui Resort and Spa,,200 Nohea Kai Dr ,,Lahaina ,HI,96761,US,(808) 667-7785,,,,,,
Hawaiian Island Creations,,1221 Honoapiilani Hwy. ,,Lahaina ,HI,96761,US,(808) 667-6111,,,,,,
Local Motions,,355 Keawe St. ,,Lahaina ,HI,96761,US,(808) 661-7873,,,,,,
Hawaiian Island Creations,,900 Front St. ,,Lahaina ,HI,96761,US,(808)_661-1603,,,,,,
WEST MARINE,,2260 S. STEMMONS FREEWAY ,,LEWISVILLE ,TX,75067,US,,,,,,,
The Slalom Shop,,2908 North Stemmons ,,Lewisville ,TX,75077,US,(972) 221-9091,,,,,,
Mariner Sails,,11110 N Stemmons Fwy ,,Dallas ,TX,75229,US,(972) 241-1498,,,,,,
Mariner Sails,,11110 North Stemmons Fwy ,,Dallas ,TX,75229,US,(972) 241-1498,,,,,,
Dick's Sporting Goods,,305 West FM 1382 ,,Cedar Hill ,TX,75104,US,(972) 291-5530,,,,,,
Hanalei Surf Company,,5-5161 Kuhio Hwy ,,Hanalei ,HI,96714,US,(808) 826-9000,,,,,,
Hi Tech Surf Sports,,875 Kaahumanu Ave. ,,Kahului ,HI,96732,US,(808) 877-7873,,,,,,
Local Motions,,275 West Ka'Ahumanu Ave. ,,Kahului ,HI,96732,US,(808) 871-7873,,,,,,
Macy's- Queen Ka'ahumanu Center,,275 W Kaahumanu Ave ,,Kahului ,HI,96732,US,(808) 877-3361,,,,,,
Hawaiian Island Creations,,70 Ka'ahumanu Ave. ,,Kahului ,HI,96732,US,(808)_893-7873,,,,,,
ST. BERNARD SPORTS,,3120 Commonwealth Dr ,,Dallas ,TX,75247,US,(214) 357-1086,,,,,,
Tyler's – Highland Park,,5710 W Lovers Ln ,,Dallas ,TX,75209,US,,,,,,,
Dick's Sporting Goods,,13838 Dallas Pkwy ,,Dallas ,TX,75240,US,(972) 239-5455,,,,,,
PACSUN,,8687 N Central Expy # 1100 ,,Dallas ,TX,75225,US,,,,,,,
Dick's Sporting Goods,,8030 Park Lane ,,Dallas ,TX,75231,US,(214) 696-5800,,,,,,
Second Wind,,111 Hana Hwy ,,Kahului ,HI,96732,US,(808) 877-7467,,,,,,
Hi Tech Surf Sports,,425 Koloa St. ,,Kahului ,HI,96732,US,(808) 877-2111,,,,,,
HAWAIIAN ISLAND SURF & SPORT,,415 Dairy Rd Ste A ,,Kahului ,HI,96732,US,,,,,,,
Maui Clothing Co.,,411 Huku Lii Place ,,Kihei ,HI,96753,US,(808) 891-6311,,,,,,
Maui Dive Shop,,1455 South Kihei Rd. ,,Kihei ,HI,96753,US,(800) 542-3483,,,,,,
REI,,5929 East Northwest Hwy ,,Dallas ,TX,75231,US,(214) 368-1938,,,,,,
Sun & Ski,,11170 N Central Expy ,,Dallas ,TX,75243,US,(212) 442-7007,,,,,,
CrazyScuba,,7522 Campbell Rd. ,,Dallas ,TX,75248,US,(972) 422-9400,,,,,,
REI,,2424 Preston Rd. ,,Plano ,TX,75093,US,(972) 985-2241,,,,,,
CATCH BLISS BOUTIQUE,,3245 Main St Suite 235 # 218 ,,Frisco ,TX,75034,US,,,,,,,
Hi Tech Surf Sports,,58 Baldwin Ave. ,,Paia ,HI,96779,US,(808) 579-9297,,,,,,
Local Motions,,1819 South Kihei Rd. ,,Kihei ,HI,96753,US,(808) 879-7873,,,,,,
Hi Tech Surf Sports,,2021 South Kihei Rd. ,,Kihei ,HI,96753,US,(808) 879-9988,,,,,,
Kohala Divers,,61-3665 Akoni Pule Hwy # 1 ,,Waimea ,HI,96743,US,(808) 882-7774,,,,,,
Kohala Bay Collections,,69-425 Waikoloa Beach Dr. ,,Waiakaloa Village ,HI,96738,US,(808) 886-2673,,,,,,
MACY'S,,2201 135 East ,,South Denton ,TX,76205,US,,,,,,,
Dick's Sporting Goods,,2611 Preston Rd. ,,Frisco ,TX,75034,US,(214) 618-0200,,,,,,
Warming Hut,,331 North Central Expy ,,Richardson ,TX,75080,US,(972) 234-6088,,,,,,
Macy's- Kings' Shops,,250 Waikoloa Beach Dr # 6 ,,Waikoloa Village ,HI,96738,US,(808) 886-5385,,,,,,
Local Motions,,201 Waikoloa Beach Dr. ,,Waikoloa ,HI,96738,US,(808) 886-7873,,,,,,
Hawaiian Island Creations,,68-1330 Mauna Lani Dr. ,,Kohala Coast ,HI,96743,US,(808) 881-1400,,,,,,
Hawaiian Island Creations,,74-5450 Makala Blvd. ,,Kailua-Kona ,HI,96740,US,(808)_326-7873,,,,,,
Macy's- Makalapua Center,,74-5475 Kamakaeha Ave ,,Kailua-Kona ,HI,96740,US,(808) 329-6300,,,,,,
Dick's Sporting Goods,,170 E. Stacy Rd. ,,Allen ,TX,75002,US,(972) 678-0650,,,,,,
DOUG & LYNDA'S SKI SHOP,,227 E LOUISIANA ST ,,Mc Kinney ,TX,75069,US,,,,,,,
Scuba Etc.,,122 South Woods St. # B ,,Sherman ,TX,75092,US,(903) 868-0604,,,,,,
Dive Pros,,326 South US Hwy 81 ,,Duncan ,OK,73533,US,(580) 252-5674,,,,,,
Dick's Sporting Goods,,201 East Central Texas Expy ,,Harker Heights ,TX,76548,US,(254) 690-4220,,,,,,
Dive Pros,,302 SW Lee Blvd. ,,Lawton ,OK,73501,US,(580) 355-2912,,,,,,
Dick's Sporting Goods,,261 NW 2nd St. ,,Lawton ,OK,73507,US,(580) 350-3079,,,,,,
Underwater Connection,,2950 North 1st St. ,,Abilene ,TX,79603,US,(325) 677-2822,,,,,,
REI,,201 University Oaks Blvd. ,,Round Rock ,TX,78664,US,(512) 255-1938,,,,,,
Dick's Sporting Goods,,19000 Limestone Commercial Dr. ,,Pflugerville ,TX,78660,US,(512) 252-2800,,,,,,
Boardstop,,16628 Interstate 35 Frontage Rd. ,,Austin ,TX,78739,US,(888) 786-7411,,,,,,
Sun & Ski,,3301 West Main St. ,,Norman ,OK,73072,US,(405) 360-8058,,,,,,
DILLARDS,,3499 W Main St ,,Norman ,OK,73072,US,(405) 329-2600,,,,,,
PACSUN,,3363 W Main St ,,Norman ,OK,73072,US,,,,,,,
The Sail & Ski Center,,12971 U.S. 183 ,,Austin ,TX,78750,US,(512) 258-0733,,,,,,
WEST MARINE,,7900 N Fm 620 # 110 ,,Austin ,TX,78726,US,,,,,,,
Dick's Sporting Goods,,3210 Kramer Lane ,,Austin ,TX,78758,US,(512) 339-3299,,,,,,
REI,,9901 Capitol of Texas Hwy. ,,North Austin ,TX,78759,US,(512) 343-5550,,,,,,
FAST FORWARD SKATE SHOP,,9901 N Capital of Texas Hwy # 150 ,,Austin ,TX,78759,US,,,,,,,
Macy's- The Domain,,11701 N Mopac Expy ,,Austin ,TX,78759,US,(512) 490-3300,,,,,,
Breeze Hawaii,,74-5543 Kaiwi St. ,,East Kailua-Kona ,HI,96740,US,(808) 326-4085,,,,,,
Oshima Surf And Skate,,75-5595 Palani Rd. ,,Kailua-Kona ,HI,96740,US,(808) 327-1444,,,,,,
Hawaiian Island Creations,,67-1185 Mamalahoa Hwy. ,,Kamuela ,HI,96743,US,(808) 881-8442,,,,,,
Pacific Vibrations,,75-5702 Likana Lane ,,Kailua Kona ,HI,96740,US,(808) 329-4140,,,,,,
World Core,,75-5744 Alii Dr. ,,Kailua-Kona ,HI,96740,US,(808) 329-8825,,,,,,
Sun & Ski,,2438 West Anderson Lane ,,Austin ,TX,78757,US,(512) 467-2782,,,,,,
Dick's Sporting Goods,,760 SW 19th St. ,,Moore ,OK,73160,US,(405) 237-1585,,,,,,
The Sail & Ski Center,,16409 Stewart Rd. ,,Lakeway ,TX,78734,US,(512) 266-2588,,,,,,
Sail & Ski Center,,1106 Ranch Rd. 620 ,,North Lakeway ,TX,78734,US,(512) 266-1515,,,,,,
Tyler's Outlet,,7434 N Lamar Blvd ,,Austin ,TX,78752,US,,,,,,,
BEACHES SWIMWEAR HAWAII,,75-5799 Alii Dr C-4 ,,Kailua-Kona ,HI,96740,US,,,,,,,
Tom'S Dive & Ski,,5909 Burnett Rd. ,,Austin ,TX,78757,US,(512) 451-3425,,,,,,
BLUE ELEPHANT,,4001 N Lamar Blvd # 510 ,,Austin ,TX,78756,US,,,,,,,
Tyler's Drag,,2338 Guadalupe St ,,Austin ,TX,78705,US,,,,,,,
Dick's Sporting Goods,,3921 Market St. ,,Bee Cave ,TX,78738,US,(512) 263-2953,,,,,,
Tyler's Westlake,,701 S Capital of Texas Hwy ,,Austin ,TX,78746,US,,,,,,,
REI,,601 North Lamar ,,Austin ,TX,78703,US,(512) 482-3357,,,,,,
N STOCK NOW,,4405 N Harrison Ave ,,Shawnee ,OK,74804,US,,,,,,,
Dick's Sporting Goods,,7071 SE 29th St. ,,Midwest City ,OK,73110,US,(405) 732-0820,,,,,,
Dick's Sporting Goods,,6601 SW 3rd St. ,,Oklahoma City ,OK,73128,US,(405) 491-2570,,,,,,
David'S Sport Center,,6301 NW 10th St. ,,Oklahoma City ,OK,73127,US,(405) 789-2628,,,,,,
Tilly's-Penn Square Mall,,1901 NW Expressway Space 2080A ,,Oklahoma City ,OK,73118,US,,,,,,,
PACSUN,,1901 NW Expressway # 2006-B ,,Oklahoma City ,OK,73118,US,,,,,,,
Sun & Ski,,10109 North May Ave. ,,Oklahoma City ,OK,73120,US,(405) 755-7400,,,,,,
Adventure Sports,,3333 West Hefner Rd. ,,Oklahoma City ,OK,73120,US,(405) 755-7007,,,,,,
Tilly's-Quail Springs Marketplace,,2240 W. Memorial Road ,,Oklahoma City ,OK,73134,US,,,,,,,
MACY'S,,2501 W Memorial Rd ,,Oklahoma City ,OK,73134,US,,,,,,,
Dick's Sporting Goods,,14200 N. Pennsylvania Ave. ,,Oklahoma City ,OK,73134,US,(405) 749-4610,,,,,,
MOUNTAIN HIGH OUTFITTERS,,14 41st St N ,,Birmingham ,AL,35222,US,,,,,,,
DILLARDS,,700 QUINTARD DR ,,OXFORD ,AL,36203,US,,,,,,,
Dick's Sporting Goods,,1500 Oxford Exchange Blvd. ,,Oxford ,AL,36203,US,(256) 831-7739,,,,,,
ALABAMA OUTDOORS,,3054 Independence Dr ,,Homewood ,AL,35209,US,,,,,,,
Dick's Sporting Goods,,5201 Hwy 280 ,,Birmingham ,AL,35242,US,(205) 981-1320,,,,,,
Dick's Sporting Goods,,4401 Creekside Ave. ,,Hoover ,AL,35244,US,(205) 909-1400,,,,,,
Dick's Sporting Goods,,200 South Colonial Dr. ,,Alabaster ,AL,35007,US,(205) 564-2648,,,,,,
NAUTICAL WATERSPORTS,,1000 Mcculloch Blvd N ,,Lake Havasu City ,AZ,86403,US,,,,,,,
WEST MARINE,,1517 INDUSTRIAL BLVD ,,LAKE HAVASU ,AZ,86403,US,,,,,,,
MEC,,61 Bryne Dr. ,,Barrie ,ON,L4N 8V8,CA,(705) 792-4675,,,,,,
Buckeye Source For Sports,,12 Bolton St. K0M 1A0 ,,Bobcaygeon ,ON,K0M 1A0,CA,(705) 738-9283,,,,,,
California Day,,6801 A 83rd St. V0H 1VO ,,Osoyoos ,BC,V0H 1VO,CA,(250) 495-5150,,,,,,
BREAKWATER SKI SCHOOL,,19086 Sulfur Springs Rd ,,Mt Vernon ,WA,98274,US,,,,,,,
Tilly's-Arroyo Commons,,7235 Arroyo Crossings Pkwy Ste 100 ,,Las Vegas ,NV,89113,US,,,,,,,
Salinas Valley Marine,,3 Spring St. ,,Salinas ,NV,93901,US,(831) 443-1616,,,,,,
Tilly's-Silverado Ranch Plaza,,9863 S Eastern Ave. Suite D3 ,,Las Vegas ,NV,89123,US,,,,,,,
POWDER AND SUN SPORTS,,4555 S Fort Apache Rd # 128 ,,Las Vegas ,NV,89147,US,,,,,,,
O'Neill Outlet – Las Vegas South,,7400 S Las Vegas Blvd # 37b ,,Las Vegas ,NV,89123,US,,,,,,,
REI,,2220 Village Walk Dr. ,,Henderson ,NV,89052,US,(702) 896-7111,,,,,,
DILLARDS,,11011 SAGE PARK DRIVE ,,LAS VEGAS ,NV,89135,US,,,,,,,
Macy's- Downtown Summerlin,,2075 Festival Plaza Dr ,,Las Vegas ,NV,89135,US,(702) 854-6229,,,,,,
Tilly's-Boca Park Marketplace,,8800 W. Charleston Blvd Suite 8 ,,Las Vegas ,NV,89117,US,,,,,,,
REI,,710 S Rampart Blvd. ,,Las Vegas ,NV,89145,US,(702) 951-4488,,,,,,
Boulder Boats,,615 W. Lake Mead Parkway ,,Henderson ,NV,85210,US,(480) 373-4400,,,,,,
Dick's Sporting Goods,,2000 South Burlington Blvd. ,,Burlington ,WA,98233,US,(360) 419-6072,,,,,,
Macy's- Fashion Show,,3200 S Las Vegas Blvd ,,Las Vegas ,NV,89109,US,(702) 731-5111,,,,,,
NORDSTROM,,3200 S Las Vegas Blvd ,,Las Vegas ,NV,89109,US,,,,,,,
Proshop Motorsports & Marine,,575 West Lake Mead Parkway ,,Henderson ,NV,85210,US,(702) 564-8895,,,,,,
Tilly's-Galleria at Sunset,,1300 W. Sunset Road Unit 1239 ,,Henderson ,NV,89014,US,,,,,,,
Dick's Sporting Goods,,1308 West Sunset Rd. ,,Henderson ,NV,89014,US,(702) 855-5000,,,,,,
WEST MARINE,,252 E. Lake Mead Dr. ,,Henderson ,NV,89015,US,,,,,,,
Tilly's-Meadows Mall,,4300 Meadows Lane Suite 2150 ,,Las Vegas ,NV,89107,US,,,,,,,
O'Neill Outlet – Las Vegas North,,755 S Grand Central Pkwy # 1159 ,,Las Vegas ,NV,89106,US,,,,,,,
Zappos,,400 Stewart Ave. ,,Las vegas ,CA,89101,US,(702) 947-7822,,,,,,
REI,,10903 NW Myhre PL ,,Silverdale ,WA,98383,US,(360) 337-1938,,,,,,
Macy's- Kitsap Mall,,10315 Silverdale Way NW ,,Silverdale ,WA,98383,US,(360) 613-6000,,,,,,
Beach Bungalow,,2115 Hunter Frontage Rd. V0H 1E2 ,,Christina Lake ,BC,V0H 1E2,CA,(250) 447-9030,,,,,,
Redline Water Sports,,45770 Luckakuck Way ,,Chilliwack ,BC,V2R 4G2,CA,(604) 858-3688,,,,,,
Christina Lake Marina,,173 Larson Rd. V0H 1E0 ,,Christina Lake ,BC,V0H 1E0,CA,(250) 447-6122,,,,,,
Sun ‘N Sup,,176 Robinson Ave. ,,Naramata ,BC,V0H 1N0,CA,(250) 809-9094,,,,,,
REI,,400 36th St. ,,Bellingham ,WA,98225,US,(360) 647-8955,,,,,,
Kite Paddle Surf,,2620 N Harbor Loop Dr ,,Bellingham ,WA,98225,US,(360) 775-2741,,,,,,
Western Canoeing & Kayak,,1717 Salton Rd. ,,Abbotsford ,BC,V2S 4N8,CA,(604) 853-9320,,,,,,
Dockside,,2053 Campbell Rd. ,,Kelowna ,BC,V1Z 1S8,CA,(250) 765-3995,,,,,,
Diving Dynamics,,1884 Ambrosi Rd. ,,Kelowna ,BC,V1Y 4R9,CA,(250) 861-1848,,,,,,
Cruzwear,,539 Bernard Ave. ,,Kelowna ,BC,V1Y 6N8,CA,(250) 860-8879,,,,,,
Baby & Me,,1969 Harvey Ave. ,,Kelowna ,BC,V1Y 6G5,CA,(250) 717-0556,,,,,,
One Boardshop,,2340 Hwy 97N ,,Kelowna ,BC,V1X 4H8,CA,(250) 862-5874,,,,,,
Rayburns Marine World,,2330 Enterprise Way ,,Kelowna ,BC,V1X 4H7,CA,(250) 860-4232,,,,,,
Langley Diving,,20055 Willowbrook Dr. ,,Langley ,BC,V2Y 2T5,CA,(604) 514-8190,,,,,,
Innerspace Dive & Kayak,,2781 Hwy 97 ,,North Kelowna ,BC,V1X 4J8,CA,(250) 763-2040,,,,,,
Feral Boardsports,,15626 Marine Dr. V4B 1E2 ,,White Rock ,BC,V4B 1E2,CA,(778) 986-1981,,,,,,
Beaches Swim & Fitness,,14855 Marine Dr. ,,White Rock ,BC,V4B 1C1,CA,(604) 531-5666,,,,,,
Performance Watersports,,12-19889 96Th Ave. ,,Langley ,BC,V1M 3C7,CA,(604) 881-0123,,,,,,
Mallard'S Ski & Sport,,660 18th St. ,,Castlegar ,BC,V1N 2M9,CA,(250) 365-5588,,,,,,
Abra Kid Abra,,2024 Oak Bay Ave. V8R 1E4 ,,Victoria ,BC,V8R 1E4,CA,(250) 595-1613,,,,,,
Frank Whites Dive Store,,1620 Blanshard St. ,,Victoria ,BC,V8W 2J6,CA,(250) 385-4713,,,,,,
MEC,,1450 Government St. ,,Victoria ,BC,V8W1Z2,CA,(250) 386-2667,,,,,,
Coastline Surf & Sport,,1417 Broad St. ,,Victoria ,BC,V8W 2B2,CA,(250) 382-2123,,,,,,
Sports Rent,,3-1950 Government St. ,,Victoria ,BC,V8T 4N8,CA,(250) 385-7368,,,,,,
Sitka,,538 Yates St. ,,Victoria ,BC,V8W 1K8,CA,(250) 385-7873,,,,,,
Coastline Surf & Sport,,152-560 Johnson ,,Victoria ,BC,V8W 3C5,CA,(250) 382-2123,,,,,,
Sun & Ski,,900 South Gessner ,,Houston ,TX,77024,US,(713) 464-6363,,,,,,
Retail Concepts,,10560 Bissonnet St. ,,Houston ,TX,77099,US,(281) 340-5000,,,,,,
Sea Sport Scuba,,2004 South Mason Rd. ,,Katy ,TX,77450,US,(281) 392-3483,,,,,,
Academy Sports And Outdoors,,1800 North Mason Rd. ,,Katy ,TX,77449,US,(281) 646-5200,,,,,,
Dick's Sporting Goods,,5550 Whittlesey Blvd. ,,Columbus ,GA,31909,US,(706) 320-0179,,,,,,
Dick's Sporting Goods,,2718 Enterprise Dr. ,,Opelika ,AL,36801,US,(334) 749-8123,,,,,,
DILLARDS,,1627 Opelika Rd # 16 ,,Auburn ,AL,36830,US,,,,,,,
Stm Sports Traders,,508 Discovery St. ,,Victoria ,BC,V8T 1G8,CA,(250) 383-6443,,,,,,
Emerald Ocean Ventures,,199 Dallas Rd. V8V 1A1 ,,Victoria ,BC,V8V 1A1,CA,(250) 380-9119,,,,,,
Seca Marine,,11410 Petrie Rd. ,,Lake Country ,BC,V4V 1H8,CA,(877) 857-7322,,,,,,
Dive And Sea Sports,,825 Mcbride Blvd. ,,New Westminster ,BC,V3L 5B5,CA,(604) 524-1188,,,,,,
Sun & Ski,,5000 Katy Mills Circle ,,Katy ,TX,77494,US,(281) 994-5291,,,,,,
REI,,17717 Tomball Pkwy ,,Houston ,TX,77064,US,(832) 237-8833,,,,,,
Sea Sports Inc.,,12001 Barker Cypress Rd. ,,Cypress ,TX,77433,US,(281) 304-4666,,,,,,
Sherwood Marine Center,,6771 Oldfield Rd. V8M 2A2 ,,Saanichton ,BC,V8M 2A2,CA,(250) 652-6520,,,,,,
Wilson Diving,,1790 Island Hwy ,,Colwood ,BC,V9B 1H8,CA,(250) 478-4488,,,,,,
Reo Rafting,,845 Spence Way ,,Anmore ,BC,V3H 4Y6,CA,(604) 461-7238,,,,,,
Endless Adventure,,1290 Hwy 6 ,,Crescent Valley ,BC,V0G 1H0,CA,(250) 359-8181,,,,,,
Tilly's-Tanger Outlets San Marcos,,4015 IH 35 South Suite 404 ,,San Marcos ,TX,78666,US,,,,,,,
Dick's Sporting Goods,,303 Creekside Way ,,New Braunfels ,TX,78130,US,(830) 629-3100,,,,,,
Texas Ski Ranch,,6700 N Lh 35 ,,New Braunfels ,TX,78130,US,(830) 627-2843,,,,,,
D&D TEXAS OUTFITTERS,,516 Ih 10 E ,,Seguin ,TX,78155,US,,,,,,,
Sun & Ski,,13411 San Pedro Ave. ,,San Antonio ,TX,78216,US,(210) 494-0429,,,,,,
Ocean Quest Water Sports,,107-3790 Canada Way ,,Burnaby ,BC,V5G 1G4,CA,(604) 436-1157,,,,,,
Deep Cove Sports,,352 Lynn Ave. ,,North Vancouver ,BC,V7J 2C5,CA,(604) 987-2202,,,,,,
MEC,,212 Brooksbank Ave. ,,North Vancouver ,BC,V7J 2C1,CA,(604) 990-4417,,,,,,
MEC,,130 West Broadway ,,Vancouver ,BC,V5Y 1P3,CA,(604) 872-7858,,,,,,
Dick's Sporting Goods,,18103 Rim Dr. ,,San Antonio ,TX,78257,US,(210) 558-3444,,,,,,
REI,,11745 IH-10 West ,,San Antonio ,TX,78230,US,(210) 877-2329,,,,,,
The Sail & Ski Center,,141 Balcones Heights Rd. ,,San Antonio ,TX,78201,US,(210) 734-8199,,,,,,
MACY'S,,6301 NW Loop 410 ,,San Antonio ,TX,78238,US,,,,,,,
Dick's Sporting Goods,,5503 West Loop ,,San Antonio ,TX,78253,US,(210) 680-2288,,,,,,
Maximum Scuba,,330 North Dixie Dr. ,,Lake Jackson ,TX,77566,US,(979) 529-9174,,,,,,
North Shore Girl,,1627 Lonsdale Ave V7M 2J5 ,,North Vancouver Canada ,No,rth Vancouver,CA,(604) 983-4475,,,,,,
North Shore Ski & Board,,1625 Lonsdale Ave. ,,North Vancouver ,BC,V7M 2J5,CA,(604) 987-7245,,,,,,
Active Baby,,1985 Lonsdale Ave. N. ,,Vancouver ,BC,V7M 2K2,CA,(604) 986-8977,,,,,,
Little Treasures,,1496 Cartwright St. ,,Vancouver ,BC,V6H 3Y5,CA,(604) 677-3792,,,,,,
The Boardroom,,2057 Lonsdale Ave. N. ,,Vancouver ,BC,V7M 2K4,CA,(604) 985-9669,,,,,,
Dick's Sporting Goods,,7861 Eastchase Pkwy ,,Montgomery ,AL,36117,US,(334) 277-8180,,,,,,
Breaker Sports,,405 TX-332 ,,Freeport ,TX,77541,US,(979) 233-8308,,,,,,
Dick's Sporting Goods,,2310 S.W. Military Dr. ,,San Antonio ,TX,78224,US,(210) 202-2206,,,,,,
SEVEN BLUFFS CABIN,,4251 Co Rd 348 ,,Concan ,TX,78838,US,,,,,,,
DILLARDS,,3000 EASTDALE MALL ,,MONTGOMERY ,AL,36117,US,,,,,,,
Ecomarine,,1668 Duranleau St. ,,Vancouver ,BC,V6H 3S4,CA,(604) 689-7575,,,,,,
Pacific Boarder,,1793 W 4th Ave. ,,Vancouver ,BC,V6J 1M2,CA,(604) 734-7245,,,,,,
Rowand's Reef Scuba Shop,,1731 West 4th Ave. ,,Vancouver ,BC,V6J 1M2,CA,(604) 669-3483,,,,,,
The Boardroom,,1755 W 4th Ave V6J 1M2 ,,Vancouver Canada ,Va,ncouver,CA,(604) 734-7669,,,,,,
The Boardroom,,1723 W 4th Ave V6J 1M2 ,,Vancouver Canada ,Va,ncouver,CA,(604) 734-7547,,,,,,
Aunt Em's,,2670 West Broadway ,,Vancouver ,BC,V6K 2G3,CA,(604) 738-0340,,,,,,
Sea to Sky Scuba,,973 Marine Dr. ,,North Vancouver ,BC,V7P 1S4,CA,(604) 990-3483,,,,,,
Splash Swim & Cruise,,2950 West 4th Ave. ,,Vancouver ,BC,V6K 1R4,CA,(604) 736-8868,,,,,,
Airtime,,3671 W 4Th Ave. ,,Vancouver ,BC,V6R 1P1,CA,(604) 734-9463,,,,,,
Airtime Boardsports,,3671 West 4th Ave. ,,Vancouver ,BC,V6R 1P2,CA,(604) 734-9463,,,,,,
Windsure Windsurfing School,,1300 Discovery St. ,,Vancouver ,BC,V6R 4L9,CA,(604) 224-0615,,,,,,
Innerspace Dive & Kayak,,3006 32nd St. ,,Vernon ,BC,V1T 5M3,CA,(250) 549-2040,,,,,,
Big Sun,,4311 27th St. ,,Vernon ,BC,V1T 4Y5,CA,(250) 545-9313,,,,,,
Chicken Little,,4407 29th St. ,,Vernon ,BC,V1T 5B6,CA,(250) 549-1221,,,,,,
Mallard'S Ski & Sport,,532 Baker St. ,,Nelson ,BC,V1L 4H9,CA,(250) 365-5588,,,,,,
Mountain Baby,,636 Baker St. ,,Nelson ,BC,V1L 4J4,CA,(250) 352-1789,,,,,,
Jim Attridge Ski Center,,2706 48th Ave. ,,Vernon ,BC,V1T 3R4,CA,(250) 542-1515,,,,,,
Alberni Outpost,,109 Trans-Canada Hwy ,,Duncan ,BC,V9L 3P8,CA,(250) 597-2727,,,,,,
Tow-Rope Ski & Board Shop,,415 Point Ideal Dr. ,,Lake Cowichan ,BC,V0R 2G0,CA,(250) 749-3530,,,,,,
Ocean Pacific Scuba,,1168 Battle St. ,,Kamloops ,BC,V2N 2N5,CA,(250) 828-0188,,,,,,
Ocean Pacific Scuba,,238 Lansdowne St. ,,Kamloops ,BC,V2C 1X7,CA,(250) 828-0188,,,,,,
PACSUN,,4001 Sunset Dr ,,San Angelo ,TX,76904,US,,,,,,,
SIRENA WATER WEAR OUTFITTERS,,701 S Alister ,,St Port Aransas ,TX,78373,US,(361) 749-2782,,,,,,
Prokitesurf,,623 North Chaparral St. ,,Corpus Christi ,TX,78401,US,(361) 883-1473,,,,,,
American Diving & Marine Supply,,33256 State Park Rd. ,,South Padre Island ,TX,78597,US,(956) 761-2030,,,,,,
Family Powersports,,4160 W Houston Harte Expy ,,San Angelo ,TX,76901,US,(325) 947-2453,,,,,,
"Dockside, Sail, Surf, & Dive",,10306 South Padre Island Drive ,,Corpus Christi ,TX,78418,US,(361) 937-5451,,,,,,
THIRD COAST BEACH COMPANY,,14501 S Padre Island Dr ,,Corpus Christi ,TX,78418,US,,,,,,,
PACSUN,,5488 S Padre Island Dr # 1524 ,,Corpus Christi ,TX,78411,US,,,,,,,
Dick's Sporting Goods,,4938 South Staples St. ,,Corpus Christi ,TX,78411,US,(361) 980-1535,,,,,,
Sundown Diving,,22 Esplanade ,,Nanaimo ,BC,V9R 4Y7,CA,(250) 753-1880,,,,,,
Parker Marine Nanaimo,,1920 East Wellington Rd. ,,Nanaimo ,BC,V9S 5X6,CA,(250) 741-1618,,,,,,
Boathouse Marine,,2670 Trans-Canada Hwy ,,Salmon Arm ,BC,V1E 4N7,CA,(250) 832-7515,,,,,,
Dick's Sporting Goods,,4401 Montgomery Hwy ,,Dothan ,AL,36303,US,(334) 671-1370,,,,,,
Dick's Sporting Goods,,4651 1st Ave. SE ,,Cedar Rapids ,IA,52402,US,(319) 743-3066,,,,,,
Backcountry.com,,1678 W Redstone Center Dr. ,,Park City ,UT,84060,US,(800) 409-4502,,,,,,
Poco Loco Swim Shop,,67 N Main St. ,,Logan ,UT,84321,US,(800) 279-3233,,,,,,
Rendezvous River Sports,,945 West Broadway ,,Jackson ,WY,83001,US,(307) 733-2471,,,,,,
Dick's Sporting Goods,,601 SE Wyoming Blvd. ,,Casper ,WY,82609,US,(307) 265-4266,,,,,,
Dick's Sporting Goods,,1844 Hurley Dr. ,,Pocatello ,ID,83202,US,(208) 238-6002,,,,,,
REI,,160 West Wetmore Rd. ,,Tucson ,AZ,85705,US,(520) 887-1938,,,,,,
Tilly's-Tucson Mall,,4500 N. Oracle Rd # 191 ,,Tucson ,AZ,85705,US,,,,,,,
Tilly's-Park Place,,5870 East Broadway 114 ,,Tucson ,AZ,85711,US,,,,,,,
Tilly's-Tucson Spectrum,,5145 S. Calle ,,Santa Cruz Tucson ,AZ,85706,US,,,,,,,
Dick's Sporting Goods,,11935 North Oracle Rd. ,,Oro Valley ,AZ,85737,US,(520) 742-0792,,,,,,
Tilly's-Tucson Premium Outlets,,6401 West Marana Center Blvd. # 630 ,,Marana ,AZ,85653,US,,,,,,,
Tilly's-Promenade at Casa Grande,,1004 N. Promenade Parkway Suite 116 ,,Casa Grande ,AZ,85194,US,,,,,,,
Tilly's-Queen Creek Marketplace,,21536 S. Ellsworth Loop Rd ,,Queen Creek ,AZ,85142-7685,US,,,,,,,
Dick's Sporting Goods,,2269 S San Tan Village Pkwy ,,Gilbert ,AZ,85295,US,(480) 899-3993,,,,,,
Tilly's-Gilbert Gateway Towne Center,,5034 S Power Road ,,Mesa ,AZ,85212,US,,,,,,,
Tilly's-Crossroads Towne Center,,3885 S. Gilbert Road ,,Gilbert ,AZ,85297-2001,US,,,,,,,
Macy's- SanTan Village,,2190 E Williams Field Rd ,,Gilbert ,AZ,85295,US,(480) 792-6333,,,,,,
Macy's- Superstition Springs Center,,6535 E Southern Ave ,,Mesa ,AZ,85206,US,(480) 807-1400,,,,,,
Tilly's-Superstition Springs Center,,6555 E. Southern Ave Space B24 ,,Mesa ,AZ,85206,US,,,,,,,
Tilly's-Chandler Fashion Center,,3111 W Chandler Blvd Suite 2084 ,,Chandler ,AZ,85226,US,,,,,,,
Macy's- Chandler Fashion Center,,3107 W Chandler Blvd ,,Chandler ,AZ,85226,US,(480) 821-8611,,,,,,
Dick's Sporting Goods,,1455 West Southern Ave. ,,Mesa ,AZ,85202,US,(480) 615-2748,,,,,,
Boulder Boats,,33 West Broadway Rd. ,,Mesa ,AZ,89015,US,(702) 293-1122,,,,,,
No Snow Paddle Board Shop,,3654 N Power Road Suite # 104 ,,Mesa ,AZ,85215,US,(480) 807-6787,,,,,,
Dick's Sporting Goods,,8550 South Emerald Dr. ,,Tempe ,AZ,85284,US,(480) 592-0938,,,,,,
Action Watersports,,1320 West Broadway ,,Mesa ,AZ,85202,US,(480) 844-5180,,,,,,
El Mar Diiving Center,,2245 West Broadway ,,Mesa ,AZ,85202,US,(480) 833-2971,,,,,,
Ski Pro,,1924 W Rio Salado Parkway ,,Mesa ,AZ,85201,US,(480) 962-6910,,,,,,
O'Neill Outlet – Arizona Mills,,5000 S Arizona Mills Cir # 166 ,,Tempe ,AZ,85282,US,,,,,,,
Tilly's-Arizona Mills,,5000 S Arizona Mills Circle Space 562 ,,Tempe ,AZ,85282,US,,,,,,,
REI,,1405 West Southern ,,Tempe ,AZ,85282,US,(480) 967-5494,,,,,,
Tilly's-Tempe Marketplace,,2000 East Rio Salado Parkway Suite 1241 ,,Tempe ,AZ,85281,US,,,,,,,
Macy's- Scottsdale Fashion Square,,7014 E Camelback Rd # 5000 ,,Scottsdale ,AZ,85251,US,(480) 840-0333,,,,,,
Dick's Sporting Goods,,7014 East Camelback Rd. ,,Scottsdale ,AZ,85251,US,(480) 240-4409,,,,,,
Macy's- Biltmore Fashion Park,,2410 E Camelback Rd ,,Phoenix ,AZ,85016,US,(602) 468-2100,,,,,,
Ski Pro,,2110 E. Camelback Rd. ,,Phoenix ,AZ,85016,US,(602) 955-3939,,,,,,
Macy's- Paradise Valley Mall,,4500 E Cactus Rd ,,Phoenix ,AZ,85032,US,(602) 494-2100,,,,,,
Tilly's-Paradise Valley Mall,,4550 E. Cactus Rd Space 190 ,,Phoenix ,AZ,85032,US,,,,,,,
Tilly's-Promenade at Frank Lloyd Wright Blvd,,16455 N. Scottsdale Rd. Suite 115 ,,Scottsdale ,AZ,85254,US,,,,,,,
REI,,12634 North Paradise Village Pkwy. W. ,,Phoenix ,AZ,85032,US,(602) 996-5400,,,,,,
Tilly's-Desert Ridge Marketplace,,21001 N Tatum Blvd 62 ,,Phoenix ,AZ,85050,US,,,,,,,
Tilly's-Tanger Outlets at Westgate,,6800 N. 95th Ave. Suite 990 ,,Glendale ,AZ,85305,US,,,,,,,
Dick's Sporting Goods,,7680 West Arrowhead Towne Center ,,Glendale ,AZ,85308,US,(623) 334-8366,,,,,,
Tilly's-Arrowhead Towne Center,,7700 W. Arrowhead Town Center Suite 2169 ,,Glendale ,AZ,85308,US,,,,,,,
Tilly's-Happy Valley Towne Center,,2501 W Happy Valley Rd Suite 39 ,,Phoenix ,AZ,85085-3747,US,,,,,,,
Macy's- Arrowhead Towne Center,,7600 W Arrowhead Towne Center ,,Glendale ,AZ,85308,US,(623) 979-7900,,,,,,
Dick's Sporting Goods,,2350 West Happy Valley Rd. ,,Phoenix ,AZ,85085,US,(623) 434-3388,,,,,,
Tilly's-Lake Pleasant Pavilion,,24640 N. Lake Pleasant Pkwy Suite 101 ,,Peoria ,AZ,85383,US,,,,,,,
Dick's Sporting Goods,,5715 East State Route 69 ,,Prescott Valley ,AZ,86314,US,(928) 776-0499,,,,,,
THE HIKE HOUSE,,431 Hwy 179 B-1 ,,Sedona ,AZ,86336,US,,,,,,,
Scheels,,2400 10th St. SW ,,Minot ,ND,58701,US,(701) 852-1010,,,,,,
Dick's Sporting Goods,,1451 East LaSalle Dr. ,,Bismarck ,ND,58503,US,(701) 989-7908,,,,,,
Scheels,,800 Kirkwood Mall ,,Bismarck ,ND,58504,US,(701) 255-7255,,,,,,
Dick's Sporting Goods,,8889 Gateway West Blvd. ,,El Paso ,TX,79925,US,(915) 633-1120,,,,,,
Tilly's-Cielo Vista Mall,,8401 Gateway Blvd. W J02D ,,El Paso ,TX,79925,US,,,,,,,
Dick's Sporting Goods,,200 North Telshor Blvd. ,,Las Cruces ,NM,88011,US,(575) 522-9756,,,,,,
Pat's Bermuda Triangle,,1006 NM-195 ,,Elephant Butte ,NM,87935,US,(575) 744-4026,,,,,,
REI,,323 South Windsor Lane ,,Flagstaff ,AZ,86001,US,(928) 213-1914,,,,,,
Tilly's-South Plains Mall,,6002 Slide Road F-06 ,,Lubbock ,TX,79414,US,,,,,,,
Southwest Aqua Sports,,5116 58Th St. ,,Lubbock ,TX,79414,US,(806) 780-2782,,,,,,
Ski Skeller Sports,,3327 West Wadley Ave. ,,Midland ,TX,79707,US,(432) 697-0427,,,,,,
Christensen's,,39 North Main St. ,,Richfield ,UT,84701,US,(435) 896-6466,,,,,,
Dick's Sporting Goods,,15 South River Rd. ,,St. George ,UT,84790,US,(435) 673-4261,,,,,,
REI,,2220 Tschache St. ,,Bozeman ,MT,59718,US,(406) 587-1938,,,,,,
Bob Ward's Sporting Goods,,3011 Max Ave ,,Bozeman ,MT,59718,US,(406) 586-4381,,,,,,
Scheels,,1121 Shiloh Crossing Blvd. ,,Billings ,MT,59102,US,(406) 656-9220,,,,,,
REI,,1200 West Northern Lights Blvd. ,,Anchorage ,AK,99503,US,(907) 272-4565,,,,,,
NORDSTROM,,603 D Street ,,Anchorage ,AK,99501,US,,,,,,,
THE TOGGERY,,122 Central Ave ,,Whitefish ,Mt,59937,US,,,,,,,
Board Stiff,,542 2Nd Ave. ,,Fernie ,BC,V0B 1M1,CA,(250) 423-3473,,,,,,
Just Liquid Sports,,106 Van Horne St. ,,South Cranbrook ,BC,V1C 1Z3,CA,(250) 489-2837,,,,,,
Shadybrook Resort,,1783 Victoria Ave. ,,Windermere ,BC,V0B 2L0,CA,(250) 342-8662,,,,,,
Bob Ward's Sporting Goods,,3323 Dredge Dr ,,Helena ,MT,59602,US,(406) 443-2138,,,,,,
Scheels,,1200 10th Ave. ,,South Great Falls ,MT,59405,US,(406) 453-7666,,,,,,
Swimco Aquatic Sports,,6403 Burbank Rd. SE T2H 2EI ,,Calgary ,AB,T2H 2EI,CA,(403) 259-6113,,,,,,
Shuswap Ski & Board,,521 58th Ave. SE ,,Calgary ,AB,T2H 0P7,CA,(403) 255-0045,,,,,,
MEC,,830 10th Ave. SW T2R 0A9 ,,Calgary ,AB,T2R 0A9,CA,(403) 269-2420,,,,,,
Rayburns Marine World,,740 Meridian Rd. NE ,,Calgary ,BC,T2A 2N7,CA,(403) 273-4232,,,,,,
Hyperactive Watersports,,109 East Chestermere Dr. T1X 1A1 ,,Chestermere ,AB,T1X 1A1,CA,(403) 277-9118,,,,,,
Dick's Sporting Goods,,1540 Lareu St. ,,Garden City ,KS,67846,US,(620) 805-3442,,,,,,
REI,,500 Market St. ,,Santa Fe ,NM,87501,US,(505) 982-3557,,,,,,
PACSUN,,2200 S 10th St # 501 ,,McAllen ,TX,78503,US,,,,,,,
PACSUN,,2370 North Expy # 1270 ,,Brownsville ,TX,78521,US,,,,,,,
On The Beach,,2105 Padre Blvd. South ,,Padre Island ,TX,78597,US,(956) 761-1194,,,,,,
American Diving & Marine Supply,,1 Padre Blvd. South ,,Padre Island ,TX,78597,US,(956) 761-2030,,,,,,
Zaloudek Marine,,1802 North Van Buren St. ,,Enid ,OK,73703,US,(580) 237-1557,,,,,,
Marine World,,7979 W. Kellogg Dr. ,,Whichita ,KS,67209,US,(316) 265-2628,,,,,,
Dick's Sporting Goods,,4600 West Kellogg Dr. ,,Wichita ,KS,67209,US,(316) 942-0910,,,,,,
Tilly's-Towne East Square,,7700 E. Kellogg Drive Space H05B ,,Wichita ,KS,67207,US,,,,,,,
Dick's Sporting Goods,,2057 North Rock Rd. ,,Wichita ,KS,67206,US,(316) 682-6811,,,,,,
Cleanline Surf Shop,,60 N Roosevelt Dr. ,,Seaside ,OR,97138,US,(503) 738-7888,,,,,,
Cleanline Surf Shop,,171 Sunset Blvd. ,,Cannon Beach ,OR,97110,US,(503) 436-9726,,,,,,
Moment Surf Company,,33260 Cape Kiwanda Dr ,,Pacific City ,OR,97135,US,,,,,,,
Moment Surf Company,,33260 Cape Kiwanda Dr ,,Pacific City ,OR,97135,US,(503) 483-1025,,,,,,
Oregon Surf Shop,,3001 Southwest Hwy 101 ,,Lincoln City ,OR,97367,US,(877) 339-5672,,,,,,
Relic Surf Shop,,1998 Pennislua Rd. V0R 3A0 ,,Ucluelet ,BC,V0R 3A0,CA,(250) 726-4421,,,,,,
Long Beach Surf Shop,,2060 Peninsula Rd. V0R 3A0 ,,Ucluelet ,BC,V0R 3A0,CA,(250) 726-2700,,,,,,
Alberni Outpost,,3200 North Island Hwy ,,Nanaimo ,BC,V9T 1W0,CA,(250) 760-0044,,,,,,
Alternative Groove,,6750 North Island Hwy ,,Nanaimo ,BC,V9V 1S3,CA,(250) 390-7433,,,,,,
Wabisabi,,2310 Alberni Hwy ,,Coombs ,BC,V0R 1M0,CA,(250) 248-6272,,,,,,
OSSIES SURF SHOP,,4860 Oregon Coast Hwy ,,Newport ,OR,97365,US,(541) 574-4634,,,,,,
Long Beach Surf Shop,,630 Campbell St. ,,Tofino ,BC,V0R 2Z0,CA,(250) 725-3800,,,,,,
Storm,,444 Campbell St. ,,Tofino ,BC,V0R 2Z0,CA,(250) 725-3344,,,,,,
Alberni Outpost,,3025 Comox Rd. ,,Courtenay ,BC,V9N 3P7,CA,(250) 941-4243,,,,,,
Pacific Pro Dive Ltd.,,2270 Cliff Ave. ,,Courtenay ,BC,V9N 2L4,CA,(250) 338-6829,,,,,,
Comox Valley Kayaks,,2020 Cliffe Ave. ,,Courtenay ,BC,V9N 2L3,CA,(250) 334-2628,,,,,,
Parker Marine,,1605 Comox Rd. ,,Courtenay ,BC,V9N 3P7,CA,(250) 334-4808,,,,,,
Tantrums,,4670 B Marine Ave. ,,Powell River ,BC,V8A 2L4,CA,(604) 485-7518,,,,,,
Dick's Sporting Goods,,2450 9th St. ,,Salina ,KS,67401,US,(785) 827-3540,,,,,,
Scheels,,505 Center Ave. ,,Moorhead ,MN,56560,US,(218) 233-2751,,,,,,
Scheels,,3202 13th Ave. ,,South Fargo ,ND,58103,US,(701)232-8903,,,,,,
Dick's Sporting Goods,,3550 State Hwy 528 NW ,,Albuquerque ,NM,87114,US,(505) 899-0355,,,,,,
REI,,1550 Mercantile Ave. NE ,,Albuquerque ,NM,87107,US,(505) 247-1191,,,,,,
Sport Systems,,6915 Montgomery Blvd. NE ,,Albuquerque ,NM,87109,US,(505) 837-9400,,,,,,
Scheels,,1551 45th St. ,,South Fargo ,ND,58103,US,(701) 298-2918,,,,,,
Scheels,,2800 South Columbia Rd. ,,Grand Forks ,ND,58201,US,(701) 780-9424,,,,,,
The Scuba Co,,2715 San Mateo Blvd. NE ,,Albuquerque ,NM,87110,US,(505) 888-7990,,,,,,
Dick's Sporting Goods,,6600 Menaul Blvd. NE ,,Albuquerque ,NM,87110,US,(505) 884-4415,,,,,,
Tilly's-Coronado Center,,6600 Menaul Blvd. NE L-002 ,,Albuquerque ,NM,87110,US,,,,,,,
GLIKS,,2400 8th Ave SW ,,Jamestown ,ND,58401,US,,,,,,,
Shuswap Ski & Board,,302A Main St. ,,Sicamous ,BC,V0E 2V0,CA,(250) 836-0081,,,,,,
Free Spirit Sports,,203 First St. ,,West Revelstoke ,BC,V0E 2S0,CA,(250) 837-9453,,,,,,
The Starting Line,,825 Shswap Ave. ,,Chase ,BC,V0E 1N0,CA,(250) 679-3428,,,,,,
Captains Village Marina,,877 Captains Village Way ,,Scotch Creek ,BC,V0E 3L0,CA,(250) 955-2424,,,,,,
Top Notch,,419C 9Th Ave. ,,North Golden ,BC,V0A 1H0,CA,(250) 344-5560,,,,,,
Dick's Sporting Goods,,1030 Green Acres Rd. ,,Eugene ,OR,97408,US,(541) 344-9622,,,,,,
Macy's- Valley River Center,,100 Valley River Center ,,Eugene ,OR,97401,US,(541) 342-6611,,,,,,
REI,,306 Lawrence St. ,,Eugene ,OR,97401,US,(541) 465-1800,,,,,,
Tactics Boardshop,,375 West 4th Ave. ,,Eugene ,OR,97401,US,(541) 349-0087,,,,,,
Eugene Skin Divers Supply,,1090 W 6th Ave. ,,Eugene ,OR,97402,US,(541) 342-2351,,,,,,
Waldron'S Outdoor Sports,,330 NE Garden Valley Blvd. ,,Roseburg ,OR,97470,US,(541) 672-8992,,,,,,
Waxers Surf & Skate,,242 S Broadway ,,Coos Bay ,OR,97420,US,(541) 266-9020,,,,,,
Macy's- Rogue Valley Mall,,1800 N Riverside Ave ,,Medford ,OR,97501,US,(541) 772-3700,,,,,,
REI,,85 Rossanley Dr. ,,Medford ,OR,97504,US,(541) 732-1938,,,,,,
Dick's Sporting Goods,,15700 Panama ,,City Beach Park Panama City ,FL,32413,US,(850) 238-3322,,,,,,
Tilly's-Pier Park,,201 Bluefish Drive Suite 110 ,,Panama City Beach ,FL,32413,US,,,,,,,
Ron Jon Surf Shop,,16150 Front Beach Rd. ,,Panama City Beach ,FL,32413,US,(850) 233-8898,,,,,,
Mr Surf's,,7220 Thomas Dr. ,,Panama City Beach ,FL,32408,US,(850) 235-2702,,,,,,
Mr Surf's,,8021 Thomas Dr. ,,Panama City Beach ,FL,32408,US,(850) 235-2217,,,,,,
The Beach,,4314 Main St. ,,Whistler ,BC,V0N 1B4,CA,(604) 932-7505,,,,,,
Aquatic Scuba Adventures,,1363 LaClede St. ,,Sheridan ,WY,82801,US,(307) 673-4553,,,,,,
Escape Hatch Sport & Cycle,,642 Railroad Ave ,,Brookings ,OR,97415,US,(707) 464-2614,,,,,,
Escape Hatch Sport & Cycle,,960 Third. St ,,Crescent City ,CA,97415,US,(707) 464-2614,,,,,,
The Shop,,3174 Sophie Lane ,,Mckinleyville ,CA,95519,US,(707) 822-2248,,,,,,
New Outdoor Store,,876 G St. ,,Arcata ,CA,95521,US,(707) 443-6328,,,,,,
PRO SPORT CENTER,,1600 5th St ,,Eureka ,CA,95501,US,,,,,,,
Scheels,,1225 Eglin ,,St. Rapid City ,SD,57701,US,(605) 342-9033,,,,,,
Surfari,,26 Central St ,,Manchester-by-the-Sea ,MA,1944,US,(978) 704-9051,,,,,,
Board Stiff,,273 Commercial St. ,,Provincetown ,MA,2657,US,(508) 487-2406,,,,,,
Surfari,,210 Main St ,,Gloucester ,MA,1930,US,(978) 283-7873,,,,,,
Pauls Sportswear,,107 Bridge Rd. ,,Salisbury ,MA,1952,US,(978) 462-9475,,,,,,
BARE SKIN BEACHWEAR,,24 Bearskin Neck ,,Rockport ,MA,1966,US,,,,,,,
Dick's Sporting Goods,,700 Lafayette Rd. ,,Seabrook ,NH,3874,US,(603) 760-7369,,,,,,
Eastern Mountain Sports,,68 Fort Eddy Rd. ,,Concord ,NH,3301,US,(603) 224-8781,,,,,,
Dick's Sporting Goods,,295 Loudon Rd. ,,Concord ,NH,3301,US,(603) 224-1564,,,,,,
Pioneers Board Shop,,62 Lafayette Rd. ,,North Hampton ,NH,3862,US,(603) 964-7714,,,,,,
Summer Sessions,,2281 Ocean Blvd. ,,Rye Beach ,NH,3870,US,(603) 319-8207,,,,,,
Eastern Mountain Sports,,100 Arthur F Brady Dr. ,,Portsmouth ,NH,3801,US,(603) 334-6141,,,,,,
Dick's Sporting Goods,,45 Gosling Rd. ,,Portsmouth ,NH,3801,US,(603) 431-8036,,,,,,
Summer Sessions,,15 Vaughan Mall ,,Portsmouth ,NH,3801,US,(603) 373-8147,,,,,,
Kittery Trading Post,,301 Us Route 1 ,,Kittery ,ME,3904,US,(888) 587-6246,,,,,,
LL Bean,,8 Glen Rd. ,,West Lebanon ,NH,3784,US,(603) 298-6957,,,,,,
Liquid Dreams,,171 Long Beach Ave. ,,York ,ME,3909,US,(207) 351-2545,,,,,,
Sports And Marine Parafunalia,,44 Weirs Rd. ,,Gilford ,NH,3249,US,(603) 293-8998,,,,,,
Liquid Dreams,,696 Main St. ,,Ogunquit ,ME,3907,US,(207) 641-2545,,,,,,
Beaver Aquatics,,760 Island Hwy ,,Campbell River ,BC,V9W 2C2,CA,(250) 287-7652,,,,,,
Nauset Sports,,Orleans Marketplace 2 Ma-6A ,,Orleans ,MA,2653,US,(508) 255-4742,,,,,,
MEC,,4394 Rue Saint-Denis ,,Montreal ,QC,H2J 2L1,CA,(514) 840-4440,,,,,,
MEC,,8989 De L'Acdie Blvd. ,,Montreal ,QC,H4N 3K1,CA,(514) 788-5878,,,,,,
MEC,,4869 Tashchereau Blvd. ,,Longueuil ,QC,J4V 3K3,CA,(450) 766-1359,,,,,,
La Boutique Sharks,,313 Boulevard Cartier O ,,Laval,QC,H7N 2J3 ,CA,(450) 663-5543,,,,,,
La Boutique Sharks,,8025 Boulevard Taschereau  ,,Brossard,QC,J4Y 1A4,CA,(450) 462-3795,,,,,,
Sail Plein Air,,8780 Leduc Blvd. ,,Brossard ,QC,J4Y 0G4,CA,(450) 321-1835,,,,,,
Sail Plein Air,,2850 Rue Jacques-Bureau Ave. ,,Laval ,QC,H7P 0B7,CA,(450) 688-6264,,,,,,
Sail Plein Air,,1085 Industrie Blvd. ,,Beloeil ,QC,J3G 4S5,CA,(450) 467-5223,,,,,,
S.G. Sport Marine,,124 Authier St. J0E 2A0 ,,Alphonse De Granb ,QC,J0E 2A0,CA,(450) 777-1101,,,,,,
Drummondville Marine,,4550 Boulevard ,,Allard Saint-Nic_phore ,QC,J2A 1R1,CA,(819) 478-2297,,,,,,
Dick's Sporting Goods,,60 Smithfield Blvd. ,,Plattsburgh ,NY,12901,US,(518) 562-1121,,,,,,
LL Bean,,49 Church St. ,,Burlington ,VT,5401,US,(888) 615-9973,,,,,,
ALPINE SHOP,,1184 Williston Rd ,,South Burlington ,VT,5403,US,,,,,,,
Wind & Waves,,688 Pine St ,,Burlington ,VT,5401,US,,,,,,,
