store_name,store_number,address,address2,city,state,zip_code,country,phone_number,latitude,longitude,store_hours,store_type,other_fields,coming_soon
Shampoo Avenue B,,14 Avenue B ,,New York ,NY,10009,US,(212) 777-2031,,,,,,
Deluxe Salon,,211 N 4th Street ,,Brooklyn ,NY,11211,US,(718) 387-2970,,,,,,
Broome Street Society,,407 Broome Street ,,New York ,NY,10013,US,(646) 918-7837,,,,,,
Paul Fox Salon,,7 Cleveland Place ,,New York ,NY,10012,US,(646) 666-0559,,,,,,
Little Axe Salon,,124 Bedford Avenue ,,Brooklyn ,NY,11211,US,(718) 388-4700,,,,,,
Maria Bonita Salon & Spa,,199 Mott Street ,,New York ,NY,10012,US,(212) 845-3990,,,,,,
Marie Robinson Salon,,40 West 25th Street ,,New York ,NY,10010,US,(212) 358-7780,,,,,,
Lior Malka,,54 West 21st Street ,,New York ,NY,10010,US,(646) 649-3180,,,,,,
Allure 13,,308 West 13th St ,,New York ,NY,10014,US,(212) 924-4500,,,,,,
Loft 26 Salon,,122 west 26th street ,,New York ,NY,10001,US,(212) 414-2626,,,,,,
Three Squares Studio,,444 West 17th Street ,,New York ,NY,10011,US,(917) 847-3384,,,,,,
Chris Chase Salon,,182 Ninth Avenue ,,New York ,NY,10011,US,(212) 206-7991,,,,,,
Gotham Beauty Lounge,,32 West 40th Street ,,New York ,NY,10018,US,(212) 921-2002,,,,,,
Salon X,,228 Seventh Street ,,Jersey City ,NJ,07302,US,(201) 420-8782,,,,,,
Evolve Salon,,1211 2nd Avenue ,,New York ,NY,10065,US,(212) 755-4590,,,,,,
City Chemist Dumbo,,104 Jay Street ,,Brooklyn ,NY,11201,US,(718) 246-4100,,,,,,
Salon de Quartier - Dumbo,,43 Washington Street ,,Brooklyn ,NY,11201,US,(718) 254-8791,,,,,,
Studio Diva,,60 Henry Street ,,Brooklyn Heights ,NY,11201,US,(718) 222-0400,,,,,,
Studio 78,,78 Clark St ,,Brooklyn ,NY,11201,US,(718) 522-1222,,,,,,
Fringe Salon,,248 Broome Street ,,New York ,NY,10002,US,(212) 674-8383,,,,,,
Fabio Scalia,,155 Montague Street ,,Brooklyn ,NY,11201,US,(718) 855-5777,,,,,,
City Chemist - Brooklyn Heights,,129 Montague Street ,,Brooklyn ,NY,11201,US,(718) 237-2489,,,,,,
Arco Salon,,385 Atlantic Ave ,,Brooklyn ,NY,11217,US,(718) 536-9949,,,,,,
Northside Pharmacy,,559 Driggs Avenue ,,Brooklyn ,NY,11211,US,(718) 387-6566,,,,,,
Soon Beauty Lab - Fort Greene,,708 Fulton Street ,,Brooklyn ,NY,11217,US,(718) 643-4343,,,,,,
LAICALE,,129 Grand Street ,,New York ,NY,10013,US,(212) 219-2424,,,,,,
Arte Salon,,294 Elizabeth Street ,,New York ,NY,10012,US,(212) 941-5932,,,,,,
The Parlour Nolita,,280 Mulberry Street ,,New York ,NY,10012,US,(212) 226-8642,,,,,,
Thomas Heinz New York Inc.,,80 Nassau Street ,,New York ,NY,10038,US,(212) 414-1500,,,,,,
Space.N.K. Apothecary,,504 Broadway ,,New York ,NY,10012,US,(212) 729-5144,,,,,,
Salon de Quartier - Smith St,,206 Smith Street ,,Brooklyn ,NY,11201,US,(718) 246-7244,,,,,,
Pas de deux Salon,,79 Worth Street ,,New York ,NY,10013,US,(212) 274-0079,,,,,,
Roman K Salon,,317 Church Street ,,New York ,NY,10013,US,(212) 951-0041,,,,,,
White Rose Collective,,170 East 2nd Street ,,New York ,NY,10012,US,(646) 856-7191,,,,,,
Suite 303,,7 Bond Street ,,New York ,NY,10011,US,(212) 633-1011,,,,,,
Suite Caroline,,65 Greene Street ,,New York ,NY,10012,US,(212) 431-4400,,,,,,
Fabio Scalia,,311 West Broadway ,,New York ,NY,10013,US,(212) 343-0523,,,,,,
Soon Beauty Lab-Carroll Gardens,,290 Smith Street ,,Brooklyn ,NY,11231,US,(718) 624-2424,,,,,,
Bluemercury Apothecary and Spa,,275 Greenwich Ave ,,New York ,NY,10007,US,(202) 342-9800 x222,,,,,,
The Land of Barbers,,422 Graham Avenue ,,Brooklyn ,NY,11211,US,(347) 384-2153,,,,,,
Jet Set Salon,,220 Columbia Street ,,Brooklyn ,NY,11231,US,,,,,,,
Bluemercury Apothecary and Spa,,104 Third Avenue ,,New York ,NY,10003,US,,,,,,,
Donne Salon,,347 Smith Street ,,Brooklyn ,NY,11231,US,,,,,,,
Salon Musa,,156 Sullivan Street ,,New York ,NY,10012,US,(646) 484-6033,,,,,,
Bull in the Heather Salon,,219 Calyer Street ,,Brooklyn ,NY,11222,US,(718) 389-6700,,,,,,
Red Market Salon,,13 East 13th Street ,,New York ,NY,10003,US,(212) 929-9600,,,,,,
Bluemercury Apothecary and SPA,,404 Sixth Avenue ,,New York ,NY,10011,US,(732) 745-7770,,,,,,
White Room New York,,3 West 13th Street ,,New York ,NY,10011,US,(212) 316-9944,,,,,,
C.O. Bigelow Chemists,,414 6th Avenue ,,New York ,NY,10011,US,(212) 533-2700,,,,,,
Bluemercury Apothecary and SPA,,865 Broadway ,,New York ,NY,10003,US,(212) 243-8100,,,,,,
Whittemore House Salon,,45 Grove Street ,,New York ,NY,10014,US,(212) 242-8880,,,,,,
Vidov Salon,,106 W 13th Street ,,New York ,NY,10011,US,(212) 929-2400,,,,,,
Butterfly Studio,,149 5th Ave ,,New York ,NY,10010,US,(212) 253-2100,,,,,,
James Corbett Studio,,25 West 19th Street ,,New York ,NY,10011,US,(212) 388-1296,,,,,,
Gemini 14,,135 West 14th Street ,,New York ,NY,10011,US,(212) 531-6272,,,,,,
Edris Salon,,35 West 20th Street ,,New York ,NY,10011,US,(212) 989-6800,,,,,,
Davide Hair Studio,,379 Park Ave ,,South New York ,NY,10016,US,(646) 912-9382,,,,,,
Aerea Salon,,52 W 21st St ,,New York ,NY,10010,US,(212) 929-4680,,,,,,
Dream Dry,,35 West 21st Street ,,New York ,NY,10010,US,(917) 952-9840,,,,,,
Garden New York,,323 West 11th Street ,,New York ,NY,10014,US,(212) 355-0105,,,,,,
Soon Beauty Lab,,54 West 22nd Street ,,New York ,NY,10010,US,(212) 243-0245,,,,,,
bluemercury Apothecary and SPA,,695 Avenue of the Americas ,,New York ,NY,10010,US,(202) 342-9800,,,,,,
Muze Salon,,141 West 20th Street ,,New York ,NY,10011,US,(212) 991-8116,,,,,,
Riccardo Maggiore,,226 Fifth Avenue ,,New York ,NY,10001,US,(212) 448-0600,,,,,,
Icon Salon,,488 3rd Ave ,,New York ,NY,10016,US,(212) 213-0099,,,,,,
Luxy Lady,,10-17 Jackson Avenue ,,Long Island City ,NY,11101,US,(718) 786-1880,,,,,,
Michael Angelo's Wonderland Beauty Parlor,,418 West 13th Street ,,New York ,NY,10014,US,(212) 524-2800,,,,,,
Salon Vollo,,28 1/2 East 33 Street ,,New York City ,NY,10016,US,(212) 725-1616,,,,,,
Slope Suds,,462 7th Avenue ,,Brooklyn ,NY,11215,US,(718) 788-7837,,,,,,
Bon-Bon Salon Spa,,353 Lexington Avenue ,,New York ,NY,10016,US,(212) 286-5300,,,,,,
Hairroin Salon NYC,,1333 Broadway ,,New York ,NY,10018,US,(646) 794-5951,,,,,,
Eclat Salon & Boutique,,203 10th Avenue ,,New York ,NY,10011,US,(212) 229-0777,,,,,,
Bluemercury Apothecary and Spa,,420 Lexington Avenue ,,New York ,NY,10170,US,(215) 569-3100,,,,,,
Olivia Christensen Salon,,321 East 48th Street ,,New York ,NY,10017,US,(646) 726-4999,,,,,,
Salon Gatto,,22 Hudson Place ,,Hoboken ,NJ,07030,US,(201) 683-6700,,,,,,
DNY Hair Salon,,947 1st Avenue ,,New York ,NY,10022,US,(212) 688-7770,,,,,,
Matii New York,,875 Third Avenue ,,New York ,NY,10022,US,(212) 223-0300,,,,,,
Flirt Beauty Boutique,,1014 Second Avenue ,,New York ,NY,10022,US,(646) 682-7033,,,,,,
Marc Harris Rockefeller Center,,45 Rockefeller Plaza ,,New York ,NY,10111,US,(212) 767-1011,,,,,,
Bluemercury Apothecary and Spa,,1044 First Avenue ,,New York ,NY,10022,US,,,,,,,
Oon Arvelo,,12 East 52nd Street ,,New York ,NY,10022,US,(212) 897-1800,,,,,,
Anthony Leonard Salon,,532 Madison Avenue ,,Third Floor New York ,NY,10022,US,(212) 750-8100,,,,,,
Riccardo Maggiore Salon Uptown,,114 East 57th Street ,,New York ,NY,10022,US,(212) 586-6482,,,,,,
Space.N.K. Apothecary,,1000 Third Avenue ,,New York ,NY,10022,US,(212) 705-2772,,,,,,
Rita Hazan,,720 Fifth Avenue ,,New York ,NY,10019,US,(212) 586-4343,,,,,,
L'Appartement Hair Boudoir,,5 East 57th Street ,,New York ,NY,10022,US,(212) 355-2730,,,,,,
mizu new york,,505 Park Avenue ,,New York ,NY,10022,US,(212) 688-6498,,,,,,
Salon Ziba,,50 West 57th Street ,,New York ,NY,10019,US,(212) 767-0577,,,,,,
Salon De Lido,,875 8 Ave ,,New York ,NY,10019,US,(917) 734-1111,,,,,,
Nica & Sam Hair Salon,,743 9th Ave ,,New York ,NY,10019,US,(646) 484-6538,,,,,,
Bar Beaute,,57 West 58th Street ,,New York ,NY,10019,US,(212) 203-9702,,,,,,
Salon Ziba,,200 West 57th Street ,,New York ,NY,10019,US,(212) 767-0577,,,,,,
Nunzio Saviano Salon,,130 East 65th Street ,,New York ,NY,10065,US,(212) 988-0880,,,,,,
Salon Phoenix,,720 Monroe Street ,,Hoboken ,NJ,07030,US,(201) 239-0720,,,,,,
Dream Dry,,315 West 57th Street ,,New York ,NY,10019,US,(212) 951-0485,,,,,,
Bluemercury apothecary and spa,,1164 Third Avenue ,,New York ,NY,10065,US,,,,,,,
Alice Hair NYC,,1324 2nd Avenue ,,New York ,NY,10021,US,(212) 639-0875,,,,,,
Space.N.K. Apothecary,,968 Lexington Avenue ,,New York ,NY,10021,US,(212) 288-3212,,,,,,
Kolorbar 2nd/72nd,,1398B Second Avenue ,,New York ,NY,10022,US,(347) 208-1246,,,,,,
Bluemercury Apothecary and SPA,,1311 Third Avenue ,,New York ,NY,10021,US,(212) 396-1500,,,,,,
Alma Salon,,415 N. Camden Dr ,,Beverly Hills ,CA,90210,US,(310) 734-7973,,,,,,
Blown LA,,275 N. Canon Drive ,,Beverly Hills ,CA,90210,US,(310) 860-1880,,,,,,
SLS Hotel - Ciel Spa,,465 S. Cienega Blvd ,,Los Angeles ,CA,90048,US,(310) 246-5560,,,,,,
Makeup Mandy,,8441 Melrose Avenue ,,West Hollywood ,CA,90069,US,(310) 858-1970,,,,,,
Eden by Eden Sassoon,,8600 W. Sunset Blvd. ,,West Hollywood ,CA,90069,US,(310) 861-4660,,,,,,
Canale Martinez,,970 Monument Street ,,Pacific Palisades ,CA,90272,US,(310) 454-3444,,,,,,
The Well,,1006 S. Olive Street ,,Los Angeles ,CA,90015,US,(213) 550-4448,,,,,,
SB Boutique Salon,,13833 Ventura Blvd. ,,Sherman Oaks ,CA,91423,US,(818) 788-8899,,,,,,
Knives Out Salon,,941 East 2nd Street ,,Los Angeles ,CA,90012,US,(626) 203-9525,,,,,,
Hnl Studio,,17000 Ventura Blvd ,,Encino ,CA,91316,US,(818) 907-0575,,,,,,
Styling Beauty Salon & Boutique,,401 W Doran St ,,Glendale ,CA,91203,US,(818) 221-5155,,,,,,
Ramirez Tran Salon,,8912 W Olympic Blvd ,,Los Angeles ,CA,90039,US,(310) 724-8167,,,,,,
The Studio O,,5580 East 2nd Street ,,Long Beach ,CA,90803,US,(562) 438-9694,,,,,,
Shannon Hair,,25377 Wayne Mills Place ,,Valencia ,CA,91355,US,(661) 799-7272,,,,,,
Parlour E.lev.en,,301 Main Street ,,Huntington Beach ,CA,92648,US,(714) 969-1800,,,,,,
Space.N.K. Apothecary,,10250 Santa Monica Boulevard ,,Los Angeles ,CA,90067,US,(310) 772-7160,,,,,,
Neiman Marcus,,9700 Wilshire Boulevard ,,Beverly Hills ,CA,90212,US,(310) 550-5900,,,,,,
The Elite Group,,123 Santa Monica ,,Santa Monica ,CA,90405,US,(786) 631-6015,,,,,,
Nail Bar and Beauty Lounge,,321 South Robertson Boulevard ,,Beverly Hills ,CA,90211,US,(424) 302-0966,,,,,,
The H Salon,,417 N. Bedford Drive ,,Beverly Hills ,CA,90210,US,(310) 294-8142,,,,,,
Salon Kazumi,,9725 South Santa Monica Boulevard ,,Beverly Hills ,CA,90210,US,1 (310) 594-9419,,,,,,
Cristophe,,348 North Beverly Drive ,,Beverly Hills ,CA,90210,US,(310) 274-0851,,,,,,
Yanai Van Salon,,9565 South Santa Monica Boulevard ,,Beverly Hills ,CA,90210,US,(310) 888-8811,,,,,,
The Harlot,,1641 Abbot Kinney Blvd ,,Venice ,CA,90291,US,(310) 399-6525,,,,,,
Brighton Salon,,9409 Brighton Way ,,Beverly Hills ,CA,90210,US,(310) 247-2221,,,,,,
Thibiant Beverly Hills,,449 North Canon Drive ,,Beverly Hills ,CA,90210,US,(310) 278-7565,,,,,,
Bluemercury Apothecary and Spa,,11640 San Vicente Boulevard ,,Los Angeles ,CA,90049,US,(202) 342-9800,,,,,,
Méche Salon,,8820 Burton Way ,,Beverly Hills ,CA,90211,US,(310) 278-8930,,,,,,
Roil Salon,,9320 Civic Center Drive ,,Beverly Hills ,CA,90210,US,(310) 275-2808,,,,,,
Daidone Salon,,11911 San Vincente Blvd. ,,Los Angeles ,CA,90049,US,(310) 471-5555,,,,,,
Miakel Bishay Salon,,2919 Main Street ,,Santa Monica ,CA,90405,US,(310) 452-0500,,,,,,
Blossom,,2823 Main Street ,,Santa Monica ,CA,90405,US,(424) 214-2794,,,,,,
The Doves Studio,,2000 Main Street ,,Santa Monica ,CA,90405,US,(310) 399-7654,,,,,,
Salon Platinum Black,,142 South Barrington Avenue ,,Los Angeles ,CA,90049,US,(310) 476-4466,,,,,,
YUKA STYLE,,642 North Robertson Boulevard ,,West Hollywood ,CA,90069,US,(310) 282-5440,,,,,,
Space.N.K. Apothecary,,315 Colorado Avenue ,,Santa Monica ,CA,90401,US,(310) 985-6305,,,,,,
Ron Robinson,,1327 Fifth Street ,,Santa Monica ,CA,90401,US,(310) 815-0606,,,,,,
artLab Salon,,1357 4th Street ,,Santa Monica ,CA,90401,US,(310) 393-0011,,,,,,
Luxelab Salon,,1408 Montana Avenue ,,Santa Monica ,CA,90403,US,(310) 255-9900,,,,,,
Saulino Smith,,1431 Ocean Avenue ,,Santa Monica ,CA,90401,US,(310) 451-4443,,,,,,
Space.N.K. Apothecary,,225 26th Street ,,Los Angeles ,CA,90402,US,(310) 451-7284,,,,,,
Brambila Salon,,1327 Ocean Avenue ,,Los Angeles ,CA,90049,US,(310) 458-3770,,,,,,
Nine Zero One Salon,,901 Westbourne Drive West ,,Hollywood ,CA,90069,US,(310) 855-9099,,,,,,
Harper,,8259 Melrose Ave ,,West Hollywood ,CA,90046,US,(323) 931-0066,,,,,,
Ron Robinson,,8118 Melrose Avenue ,,Los Angeles ,CA,90046,US,(310) 815-0606,,,,,,
Bluemercury Apothecary and Spa,,8602 Sunset Boulevard ,,West Hollywood ,CA,90069,US,,,,,,,
RA Bar Beauty,,7931 Santa Monica Boulevard ,,West Hollywood ,CA,90046,US,(323) 651-4545,,,,,,
Cure Salon & Spa,,8358 Sunset Boulevard ,,West Hollywood ,CA,90069,US,(310) 623-9000,,,,,,
Studio Vasi,,8025 W. Sunset Blvd. ,,Los Angeles ,CA,90046,US,(310) 461-8515,,,,,,
"Bluemercury, Inc. : 172118 bluemercury apothecary and spa - Larchmont Blvd.",,158 Larchmont Boulevard ,,Larchmont ,CA,90004,US,(856) 810-7606,,,,,,
Atelier by Tiffany,,400 S. Western Ave ,,Los Angeles ,CA,90020,US,(213) 380-3235,,,,,,
Etude Lounge,,3500 West 6th Street ,,Los Angeles ,CA,90020,US,(213) 388-6969,,,,,,
Hairroin Salon,,1520 N. Cahuenga Blvd. ,,Los Angeles ,CA,90028,US,(323) 467-0392,,,,,,
Arianna Hair Boutique,,3287 Wilshire Boulevard ,,Los Angeles ,CA,90010,US,(213) 503-2612,,,,,,
Luxelab at The Glen,,2938 North Beverly Glen Circle ,,Bel Air ,CA,90077,US,(310) 475-9500,,,,,,
Bluemercury apothecary and spa,,840 South Sepulveda Boulevard ,,El Segundo ,CA,90245,US,,,,,,,
"The Ritz-Carlton Spa, Los Angeles",,900 West Olympic Avenue ,,Los Angeles ,CA,90015,US,(213) 763-4407,,,,,,
Suburbia Salon & Spa,,11908 Ventura Boulevard ,,Studio City ,CA,91604,US,(818) 505-1188,,,,,,
C The Salon,,12324 Ventura Blvd ,,Studio City ,CA,91604,US,(818) 763-4005,,,,,,
Salon True,,13563 Ventura Boulevard ,,Sherman Oaks ,CA,91423,US,(818) 461-0138,,,,,,
Hush Hush Hair Salon,,1020 Manhattan Ave ,,Manhattan Beach ,CA,90266,US,(310) 372-2600,,,,,,
Primo Salon,,14658 Ventura Blvd. ,,Sherman Oaks ,CA,91403,US,(818) 788-7880,,,,,,
Salon Pure,,117 East 6th Street ,,Los Angeles ,CA,90014,US,(213) 624-7873,,,,,,
A Tamara Dahill Salon,,10216 Riverside Drive ,,Toluca Lake ,CA,91602,US,(818) 752-6567,,,,,,
Memo Salon,,11225 Magnolia Boulevard ,,North Hollywood ,CA,91601,US,(818) 766-6366,,,,,,
Salon 1085,,1085 Aviation Boulevard ,,Hermosa Beach ,CA,90254,US,(310) 318-0010,,,,,,
Dylan Keith,,3508 West Magnolia Boulevard ,,Burbank ,CA,91505,US,(818) 433-7819,,,,,,
Atelier SAV,,142 N. Brand Boulevard ,,Glendale ,CA,91203,US,(818) 240-5100,,,,,,
Malibu Beach Salon,,# D220 ,,Malibu ,CA,90265,US,(310) 456-5130,,,,,,
Cure Salon & Spa,,22741 Pacific Coast Highway ,,Malibu ,CA,90265,US,(310) 623-9000,,,,,,
Sutra Salon,,24235 Hawthorne Boulevard ,,Torrance ,CA,90505,US,(310) 375-0658,,,,,,
Cie Sparks Salon,,3835 Cross Creek Road ,,Malibu ,CA,90265,US,(310) 456-2300,,,,,,
The Beauty Can,,22725 Ventura Boulevard ,,Woodland Hills ,CA,91364,US,(818) 642-2226,,,,,,
Brenton Lee Salon,,1011 South Fair Oaks South ,,Pasadena ,CA,91030,US,(626) 441-3400,,,,,,
Union Salon South Pasadena,,435 South Fair Oaks Avenue ,,Pasadena ,CA,91105,US,(626) 244-4983,,,,,,
Union Salon,,174 South De Lacey Avenue ,,Pasadena ,CA,91105,US,(626) 244-4983,,,,,,
Salon Sessions,,112 South De Lacey Avenue ,,Pasadena ,CA,91105,US,(626) 795-8856,,,,,,
Luxelab Pasadena,,42 South Fair Oaks Avenue ,,Pasadena ,CA,91105,US,(626) 564-0001,,,,,,
Chignon Hair Salon,,41 East Union Street ,,Pasadena ,CA,91103,US,(626) 683-3724,,,,,,
Hollywood Dolls,,336 W 7th Street ,,San Pedro ,CA,90731,US,(310) 832-3655,,,,,,
Flaunt Salon,,2204 East Broadway ,,Long Beach ,CA,90803,US,(562) 433-8600,,,,,,
Snips Salon & Spa,,59 East Foothill Blvd ,,Arcadia ,CA,91006,US,(626) 445-2854,,,,,,
The Salon,,4370 Katella Ave ,,Los Alamitos ,CA,90720,US,(562) 493-5848,,,,,,
Salon 3835,,3835 East Thousand Oaks Boulevard ,,Westlaske Village ,CA,91362,US,(805) 373-1212,,,,,,
Soncy,,600 Pacific Coast Highway ,,Seal Beach ,CA,90740,US,(562) 431-8000,,,,,,
The Parlor Hair Boutique,,307 Main Street ,,Seal Beach ,CA,90740,US,(562) 493-6882,,,,,,
Les Deux Salon,,252 S Citrus St. ,,West Covina ,CA,91791,US,(626) 991-6826,,,,,,
Cue Salon and Spa,,7821 Edinger Avenue ,,Huntington Beach ,CA,92647,US,(714) 901-4830,,,,,,
Echelon Salon,,27916 Seco Canyon ,,Santa Clarita ,CA,91350,US,(661) 263-2500,,,,,,
Luxe Salon,,112 North Glendora Avenue ,,Glendora ,CA,91741,US,(626) 914-5893,,,,,,
Hair Theory,,19051 Goldenest Street ,,Huntington Beach ,CA,92648,US,(657) 203-8250,,,,,,
Polished Perfect La Floresta,,3453 East Imperial Highway ,,Brea ,CA,92823,US,(949) 438-2937,,,,,,
Agence Salon,,150 W. Bonita Avenue ,,San Dimas ,CA,91773,US,(909) 599-5021,,,,,,
Space.N.K. Apothecary,,3333 South Bristol Street ,,Costa Mesa ,CA,92626,US,(714) 824-4648,,,,,,
Space.NK Apothecary - Nordstrom US,,3333 Bristol Street ,,Costa Mesa ,CA,92626,US,(212) 941-4200,,,,,,
Victor Paul Salon,,763 Baker Street ,,Costa Mesa ,CA,92626,US,(714) 966-1188,,,,,,
Blanc Noir Hairdressing,,750 1/2 ,,Saint Clair Costa Mesa ,CA,92626,US,(714) 617-4768,,,,,,
The Living Room Salon,,125 Rochester Street ,,Costa Mesa ,CA,92627,US,(949) 631-0808,,,,,,
Polished Perfect Flagship,,103 East 17th Street ,,Costa Mesa ,CA,92627,US,(949) 287-6563,,,,,,
Escape Salon,,508 Old Newport Boulevard ,,Newport Beach ,CA,92663,US,(949) 433-9656,,,,,,
Blowtique,,1 East Huron Street ,,Chicago ,IL,60611,US,(312) 280-2400,,,,,,
Arch Apothecary,,1359 North Wells Street ,,Chicago ,IL,60610,US,(312) 291-9750,,,,,,
Abeille Beauty,,2504 North Clark Street ,,Chicago ,IL,60614,US,(773) 904-8710,,,,,,
Arista Spa & Salon,,2155 City Gate Lane ,,Naperville ,IL,60563,US,(630) 579-7865,,,,,,
Coast Hair Salon,,27 N 2nd St ,,Geneva ,IL,60134,US,(630) 881-0883,,,,,,
Wildheart Salon,,6017 W Mequon Rd ,,Thiensville ,WI,53092,US,(262) 236-9098,,,,,,
Cha Cha Beauty and Barber,,912 Williamson Street ,,Madison ,WI,53703,US,(608) 204-3988,,,,,,
Diva Studio LTD,,5901 North Prospect Road ,,Peoria ,IL,61614,US,(309) 693-3788,,,,,,
Salon G,,270 South Main Street ,,Zionsville ,IN,46077,US,(317) 873-3743,,,,,,
G Michael Salon,,2727 East 86th Street ,,Indianapolis ,IN,46240,US,(317) 773-7700,,,,,,
Bobby Cooper Salon,,725 East 65th Street ,,Indianapolis ,IN,46220,US,(317) 251-5000,,,,,,
Matthew Ryan Salon & Spa,,1410 Turner Street ,,Lansing ,MI,48906,US,(517) 484-9299,,,,,,
K Sera Salon,,118 N. Broadway ,,De Pere ,WI,54115,US,(920) 347-4648,,,,,,
Solo Salon,,1065 W MADISON STREET ,,Chicago ,IL,60607,US,(312) 491-9771,,,,,,
Salon DJ,,300 N Elizabeth ,,Chicago ,IL,60607,US,(312) 804-4247,,,,,,
MANE Salon,,1119 West Grand Avenue ,,Chicago ,IL,60641,US,(312) 988-0297,,,,,,
Salon833,,833 W. Grand Avenue ,,Chicago ,IL,60642,US,(312) 226-0833,,,,,,
4 Elements Salon,,544 North Milwaukee Avenue ,,Chicago ,IL,60642,US,(312) 432-9600,,,,,,
&blowdry,,1315 South Michigan Avenue ,,Chicago ,IL,60605,US,(312) 929-3078,,,,,,
Appt-Only,,2016 West Concord Place ,,Chicago ,IL,60647,US,(312) 525-9661,,,,,,
East Bank Club,,500 North Kingsbury Street ,,Chicago ,IL,60654,US,(312) 527-5800 x.333,,,,,,
Cellar Door Salon & Studio,,1905 North Milwaukee Avenue ,,Chicago ,IL,60647,US,(773) 227-9223,,,,,,
Roque - The Lashe Spot,,1866 North Damen ,,Chicago ,IL,60647,US,(773) 697-3006,,,,,,
Bluemercury Apothecary and Spa,,356 North Clark Street ,,Chicago ,IL,60654,US,(215) 569-3100,,,,,,
Michael & Michael Salon,,365 West Chicago Avenue ,,Chicago ,IL,60654,US,(312) 951-0779,,,,,,
Marianne Strokirk Salon,,1325 N State Parkway ,,Chicago ,IL,60610,US,(312) 944-4428,,,,,,
Goran Coban Salon,,15 West Hubbard Street ,,Chicago ,IL,60654,US,(312) 955-0499,,,,,,
Roque Salon,,24 West Erie Street ,,Chicago ,IL,60654,US,(312) 863-7678,,,,,,
Blowtique Deux,,520 North Michigan Avenue ,,Chicago ,IL,60611,US,(312) 494-3389,,,,,,
Zazu Downtown,,46 East Superior Street ,,Chicago ,IL,60611,US,(312) 573-8088,,,,,,
Maxine Salon,,712 North Rush Street ,,Chicago ,IL,60611,US,(312) 751-1511,,,,,,
Renee Feldman Salon,,1006 North Clark Street ,,Chicago ,IL,60610,US,(312) 366-2117,,,,,,
Neiman Marcus,,737 North Michigan Avenue ,,Chicago ,IL,60611,US,(312) 642-5900,,,,,,
Waldorf Astoria Chicago,,11 East Walton Street ,,Chicago ,IL,60611,US,(773) 697-8172,,,,,,
Gloss Salon -  Chicago,,1050 N State Street ,,Chicago ,IL,60610,US,(312) 320-5424,,,,,,
Nancy Angelair Salon,,1009 North Rush Street ,,Chicago ,IL,60611,US,(312) 943-3011,,,,,,
Dita Spa Salon,,58 East Walton Street ,,Chicago ,IL,60611,US,(312) 337-0777,,,,,,
Paul Rehder Salon,,70 East Walton Street ,,Chicago ,IL,60611,US,(312) 943-7404,,,,,,
Blow by Blow (Downtown),,67 East Oak Street ,,Chicago ,IL,60611,US,(312) 867-0332,,,,,,
Dream Dry,,904 West Armitage Avenue ,,Chicago ,IL,60614,US,(773) 697-8172,,,,,,
Bluemercury Apothecary and Spa,,1153 North State Street ,,Chicago ,IL,60610,US,,,,,,,
Charles Ifergan - Oak Street,,106 East Oak Street ,,Chicago ,IL,60611,US,(312) 642-4484,,,,,,
Mitchell & Co.,,2558 North Southport Avenue ,,chicago ,IL,60614,US,(773) 281-3330,,,,,,
Bluemercury Apothecary and SPA,,2208 North Halsted ,,Chicago ,IL,60614,US,(773) 327-6900,,,,,,
Sine Qua Non Salon - West Town,,2038 North Lincoln Avenue ,,Chicago ,IL,60622,US,(773) 252-4700,,,,,,
Salon U,,2535 North Lincoln Avenue ,,Chicago ,IL,60614,US,(773) 327-2622,,,,,,
Salon Envy - Chicago,,2658 North Halsted St. ,,Chicago ,IL,60614,US,(773) 880-5033,,,,,,
XO Studio 2,,2142 West Roscoe ,,Chicago ,IL,60618,US,(773) 661-6977,,,,,,
Siren Salon,,3143 North Lincoln Avenue ,,Chicago ,IL,60657,US,(773) 549-0800,,,,,,
Sine Qua Non Salon II - Lakeview,,3417 N Lincoln Ave ,,Chicago ,IL,60657,US,(773) 404-8789,,,,,,
Bluemercury Apothecary and SPA,,3512 N Southport Avenue ,,Chicago ,IL,60657,US,(202) 342-9800 Ext.262,,,,,,
XO Studio,,3428 North Broadway ,,Chicago ,IL,60657,US,(773) 935-9077,,,,,,
bluemercury Apothecary and SPA,,21 East First Street ,,Hinsdale ,IL,60521,US,(630) 455-1400,,,,,,
Neiman Marcus,,6 Oakbrook Center ,,Oak Brook ,IL,60523,US,(630) 572-1500,,,,,,
Effigy Salon,,112 West Park Avenue ,,Elmhurst ,IL,60126,US,(630) 758-0101,,,,,,
Charles Ifergan - Oakbrook,,17W580 Butterfield Rd ,,Oakbrook Terrace ,IL,60181,US,(630) 916-8868,,,,,,
Beauty and Balance Salon,,640 Geenbay Road ,,Kenilworth ,IL,60043,US,(847) 256-2182,,,,,,
Marek Ashley Salon,,251 Rice Lake Square ,,Wheaton ,IL,60189,US,(630) 621-8633,,,,,,
PR Winnetka dba Paul Rehder Salon,,952 Green Bay Road ,,Winnetka ,IL,60093,US,(847) 501-4000,,,,,,
Velarde,,54 Bokelman Street ,,Roselle ,IL,60173,US,(847) 534-8778,,,,,,
Pascal Pour Elle,,368 Park Avenue ,,Glencoe ,IL,60022,US,(847) 501-3100,,,,,,
Michael Graham Salon,,50 South Main Street ,,Naperville ,IL,60540,US,(630) 946-6055,,,,,,
Neiman Marcus,,5000 Northbrook Court ,,Northbrook ,IL,60062,US,(847) 564-0300,,,,,,
Neo Bella Salon,,1292 Rickert Drive ,,Naperville ,IL,60540,US,(630) 717-8966,,,,,,
Salon Vole',,1783 St. Johns Ave. ,,Highland Park ,IL,60035,US,(847) 432-2640,,,,,,
Mane Cutters,,1934 First Street ,,Highland Park ,IL,60035,US,(847) 432-3969,,,,,,
Blow by Blow: a blow dry and color bar,,258 Green Bay Road ,,Highwood ,IL,60040,US,(312) 867-0332,,,,,,
Michael Graham Salon & Spa,,2860 Showplace Drive ,,Naperville ,IL,60564,US,(630) 904-7979,,,,,,
The Nines Hairspa,,900 Parker Place ,,Schererville ,IN,46375,US,(219) 865-9000,,,,,,
ZaZa Salon and Day Spa,,185 North Milwaukee Avenue ,,Lincolnshire ,IL,60069,US,(847) 793-1111,,,,,,
Navii Salon and Spa,,316 East US Highway 30 ,,Schererville ,IN,46375,US,(219) 865-6515,,,,,,
Taylor Reese Salon,,560 Western Avenue ,,Lake Forest ,IL,60045,US,(847) 735-8300,,,,,,
bluemercury apothecary and spa,,680 N Bank Lane ,,Lake Forest ,IL,60045,US,(847) 615-3000,,,,,,
Bluemercury Apothecary and Spa,,114 South Hough Street ,,Barrington ,IL,60010,US,,,,,,,
Arch Apothecary,,214 E State St ,,Rockford ,IL,61104,US,(815) 639-9515,,,,,,
The Collective,,765 N Jackson Street ,,Milwaukee ,WI,53202,US,(414) 765-0700,,,,,,
Indulge Studios,,407 East Silver Spring Drive ,,Whitefish Bay ,WI,53217,US,(414) 431-3155,,,,,,
De Riah Boutique Salon,,10526 North Port Washington Road ,,Mequon ,WI,53092,US,(262) 241-8899,,,,,,
Station 710 Salon,,710 McGregor Street ,,Bloomington ,IL,61701,US,(309) 827-2710,,,,,,
Urban Modern Hair,,235 South Kalamazoo Mall ,,Kalamazoo ,MI,49007,US,(269) 276-9980,,,,,,
Arch Apothecary,,23 South Pickney Street ,,Madison ,WI,53703,US,(608) 467-2480,,,,,,
Be Inspired Salon,,425 South Yellowstone Drive ,,Madison ,WI,53719,US,(608) 271-2771,,,,,,
Cheeky Strut,,216 Grandville Ave SW ,,Grand Rapids ,MI,49503,US,(616) 272-3123,,,,,,
Head of the Pride,,444 Bridge Street Northwest ,,Grand Rapids ,MI,49504,US,(616) 730-3143,,,,,,
Brindle & Blonde,,600 Monroe Avenue NW ,,Grand Rapids ,MI,49503,US,(616) 608-4584,,,,,,
The Crown Jewel Spa & Salon,,1035 Spaulding Avenue SE ,,Grand Rapids ,MI,49546,US,(616) 942-7696,,,,,,
Xscape  Salon,,25 Squires St ,,Rockford ,MI,49341,US,(616) 866-7289,,,,,,
Salon Halo,,2483 East 53rd Avenue ,,Bettendorf ,IA,52722,US,(563) 332-7225,,,,,,
Haus of Heir,,5171 Utica Ridge Road ,,Davenport ,IA,52807,US,(563) 355-7772,,,,,,
Five Star Salon and Spa,,1020 Mound Street ,,Davenport ,IA,52803,US,(563) 359-4498,,,,,,
Method Salon,,1200 West Carmel Drive ,,Carmel ,IN,46032,US,(317) 660-1717,,,,,,
MDG salon and studio,,820 East 116th Street ,,Carmel ,IN,46032,US,(317) 843-5353,,,,,,
Splash Salon,,4659 East 82nd Street ,,Indianapolis ,IN,46250,US,(317) 576-9200,,,,,,
A Do Hair Design,,6207 North College Ave ,,Indianapolis ,IN,46220,US,(317) 205-9850,,,,,,
The Mae,,4907 North Pennsylvania Street ,,Indianapolis ,IN,46205,US,(317) 468-8590,,,,,,
MDG salon | studio,,355 Indiana Avenue ,,Indianapolis ,IN,46204,US,(317) 237-5353,,,,,,
Creme Salon,,8548 Kapp Drive ,,Peosta ,IA,52068,US,(563) 582-7363,,,,,,
Parlour Salon,,2808 W. Jackson Street ,,Muncie ,IN,47304,US,(765) 284-6100,,,,,,
Julian's Salon,,859 Riverside Drive ,,Greenwood ,IN,46142,US,(317) 777-0648,,,,,,
J. Dall Hair Salon,,7951 Katy Freeway Suite F ,,Houston ,TX,77024,US,(713) 316-9555,,,,,,
Tease Color & Style Bar,,2828 Richmond Avenue ,,Houston ,TX,77098,US,(281) 299-3356,,,,,,
Salon Lindsay,,725 Ryan Street ,,Lake Charles ,LA,70601,US,(337) 436-5454,,,,,,
Wild Orchid Salon,,800 West 3rd Street ,,Austin ,TX,78701,US,(512) 474-2828,,,,,,
Wild Orchid Salon,,3600 North Capital of Texas Highway ,,Austin ,TX,78746,US,(512) 474-2828,,,,,,
The Fairest Salon,,7270 Old Jacksonville Hwy ,,Tyler ,TX,75703,US,(903) 515-0373,,,,,,
The Parlor Salon & Spa,,104 East 8th Street ,,Tyler ,TX,75701,US,(903) 363-9935,,,,,,
Salon David Escape Spa,,6333 DeZavala Road ,,San Antonio ,TX,78249,US,(210) 690-2875,,,,,,
Flowe Studio,,3420 Ella Boulevard ,,Houston ,TX,77018,US,(832) 974-0913,,,,,,
Lait Salon,,1502 Sawyer Street ,,Houston ,TX,77007,US,(832) 603-3886,,,,,,
Mercer Salon,,5555 Washington Avenue ,,Houston ,TX,77007,US,(281) 888-9810,,,,,,
Satori Heights,,2313 Edwards Street ,,Houston ,TX,77007,US,(713) 869-2444,,,,,,
Salon Vive,,5900 Memorial Dr. # 101 ,,Houston ,TX,77007,US,(713) 880-3363,,,,,,
Full Blown Dry Bar,,2024 West Gray Street ,,Houston ,TX,77019,US,(713) 322-8355,,,,,,
White Salon,,320 West Gray Street ,,Houston ,TX,77019,US,(713) 524-7100,,,,,,
Shampu,,2000 Bagby Road ,,Houston ,TX,77002,US,(713) 521-0090,,,,,,
Estilo Salon & Spa,,2521 Hazard Street ,,Houston ,TX,77019,US,(713) 807-7409,,,,,,
The Upper Hand - Hyde Park,,1800 Westheimer Road ,,Houston ,TX,77098,US,(713) 874-0000,,,,,,
CutLoose,,1711 Westheimer ,,Houston ,TX,77098,US,(713) 520-7401,,,,,,
Ceron Salon,,1180 12 Uptown Park Boulevard ,,Houston ,TX,77056,US,(713) 892-8330,,,,,,
Kuhl-Linscomb,,2424 West Alabama Street ,,Houston ,TX,77098,US,(713) 526-6000,,,,,,
SalonTrose,,3820 Roseland Street ,,Houston ,TX,77006,US,(832) 385-2863,,,,,,
Maison Luisant,,4059 Westheimer Road ,,Houston ,TX,77027,US,(713) 505-1560,,,,,,
M Salon,,3815 Richmond Avenue ,,Houston ,TX,77027,US,(713) 572-3100,,,,,,
Neiman Marcus,,2600 Post Oak Boulevard ,,Houston ,TX,77056,US,(713) 621-7100,,,,,,
Aqua Salon,,3005 West Loop S ,,Houston ,TX,77027,US,(713) 621-1326,,,,,,
Therapy Hair Studio,,5371 Westheimer ,,Houston ,TX,77056,US,(713) 355-4247,,,,,,
Beautique Day Spa and Salon,,2507 Times Boulevard ,,Houston ,TX,77005,US,(713) 526-1126,,,,,,
Bluemercury Apothecary and Spa,,2506 University Boulevard ,,Houston ,TX,77005,US,(202) 342-9800 x222,,,,,,
Studio 3 Salon,,3642 University Boulevard ,,Houston ,TX,77005,US,(713) 668-0333,,,,,,
Bluemercury Apothecary and Spa,,1407 South Voss Road ,,Houston ,TX,77057,US,(202) 342-9800 x222,,,,,,
Beautique Day Spa and Salon,,701 Town & Country Boulevard ,,Houston ,TX,77024,US,(713) 464-2953,,,,,,
Feather Salon,,11240 FM 1960 West ,,Houston ,TX,77065,US,(281) 469-1620,,,,,,
Trademark Salon,,10300 Louetta Rd ,,Houston ,TX,77070,US,(832) 717-3422,,,,,,
Emmanuel Salon,,1875 Highway 6 ,,Sugar Land ,TX,77478,US,(281) 313-3737,,,,,,
Flair Salon and Spa,,26011 Oak Ridge Drive ,,Spring ,TX,77380,US,(281) 419-1900,,,,,,
Hair Revolution,,14870 Space Center Boulevard ,,Houston ,TX,77062,US,(832) 224-4074,,,,,,
Emmanuel Salon,,2643 Commercial Center Blvd ,,Katy ,TX,77494,US,(281) 394-2212,,,,,,
Bella Rinova,,9595 Six Pines Drive ,,Spring ,TX,77380,US,(281) 367-0414,,,,,,
The Beauty Lounge,,2501 Research Forest Drive ,,The Woodlands ,TX,77381,US,(832) 829-3855,,,,,,
Salon Bugatti,,2520 Research Forest Drive ,,The Woodlands ,TX,77381,US,(281) 362-0422,,,,,,
On Stage Hair Design IV,,3759 FM 1488 ,,The Woodlands ,TX,77382,US,(409) 842-6200,,,,,,
Woodlands On Stage Hair Design,,6875 FM 1488 Road ,,Magnolia ,TX,77354,US,(281) 259-1222,,,,,,
Salon Naturale,,1720 W FM 646 Rd ,,League City ,TX,77539,US,(281) 337-2400,,,,,,
Salon Bei' Elle,,13185 FM 1097 Rd ,,W Willis ,TX,77318,US,(936) 232-8561,,,,,,
The San Luis Resort,,5222 Seawall Boulevard ,,Galveston ,TX,77551,US,(409) 744-1500,,,,,,
On Stage Hair Design & Day Spa,,178 S. Dowlen Road ,,Beaumont ,TX,77707,US,(409) 866-0560,,,,,,
On Stage Hair Design II,,4438 Dowlen ,,Beaumont ,TX,77706,US,(409) 899-2109,,,,,,
Bauhaus Salon,,4225 Lake Street ,,Lake Charles ,LA,70605,US,(337) 474-4000,,,,,,
Vibe Collective,,1904 East 12th St ,,Austin ,TX,78702,US,(830) 570-7772,,,,,,
Swamp Mermaid,,1000 East 5th Street ,,Austin ,TX,78702,US,(512) 520-4374,,,,,,
Ron King Salon,,315 E Cesar Chavez Street ,,Austin ,TX,78701,US,(512) 615-1500,,,,,,
Red Stella Salon,,5117 N Lamar Blvd ,,Austin ,TX,78751,US,(512) 640-2741,,,,,,
Luxe Apothetique (Downtown),,201 West 2nd Street ,,Austin ,TX,78701,US,(512) 215-0282,,,,,,
Ravens Row Salon,,4616 Triangle Ave ,,Austin ,TX,78751,US,(512) 323-0880,,,,,,
Ritual Salon,,4800 Burnet Rd ,,Austin ,TX,78756,US,(512) 391-0010,,,,,,
N Salon,,3027 North Lamar ,,Austin ,TX,78705,US,(512) 323-3600,,,,,,
Tarver Hill Salon,,6009 Burnet Road ,,Austin ,TX,78757,US,(512) 843-2401,,,,,,
I Love You Pink - Little Sister,,3715 S 1st St. ,,Austin ,TX,78704,US,(512) 485-3122,,,,,,
Jose Luis Boutique,,1100 South Lamar Blvd ,,Austin ,TX,78704,US,(512) 474-1146,,,,,,
Jose Luis Salon - Domain,,3100 Esperanza Crossing ,,Austin ,TX,78758,US,(512) 474-1146,,,,,,
Sabia,,1213 West 5th Street ,,Austin ,TX,78703,US,(512) 469-0447,,,,,,
Bella Salon and Spa,,1221 West 6th Street ,,Austin ,TX,78703,US,(512) 474-5999,,,,,,
Space.NK US ￢ﾀﾓ Nordstrom US The Domain,,3111 Palm Way ,,Austin ,TX,78758,US,(212) 941-4200,,,,,,
Karu Salon,,3500 Jefferson Street ,,Austin ,TX,78731,US,(512) 243-8208,,,,,,
The Salon at the Domain,,3201 Feathergrass Court ,,Austin ,TX,78758,US,(512) 832-8000,,,,,,
Luxe Apothetique (The Domain),,11501 Century Oaks Terrace ,,Austin ,TX,78758,US,(512) 346-8202,,,,,,
Propaganda Hair Group,,1611 West 5th Street ,,Austin ,TX,78703,US,(512) 473-0700,,,,,,
Jose Luis Salon,,1717 West Sixth Street ,,Austin ,TX,78703,US,(512) 474-1146,,,,,,
Shag Salon (Austin),,2203 S Lamar Blvd ,,Austin ,TX,78704,US,,,,,,,
Joel Ray Salon,,4006 S Lamar Blvd ,,Austin ,TX,78704,US,(512) 899-8311,,,,,,
"Dolce Salon (Austin, TX)",,3201 Bee Caves Rd. ,,Austin ,TX,78746,US,(512) 474-1174,,,,,,
Wild Orchid Salon,,14360 Falcon Head Blvd ,,Austin ,TX,78738,US,(512) 474-2828,,,,,,
Champu,,2383 Oak Alley ,,Tyler ,TX,75703,US,(903) 714-5792,,,,,,
Salon Vintage,,16635 CR 196 ,,Tyler ,TX,75703,US,(903) 534-3848,,,,,,
La Vita Bella Salon,,4855 Old Bullard Road ,,Tyler ,TX,75703,US,(903) 747-8519,,,,,,
Hair Studio - Sonterra,,1314 East Sonterra Boulevard ,,San Antonio ,TX,78258,US,(210) 403-3350,,,,,,
Koi Salon,,6706 N. New Braunfels Ave ,,San Antonio ,TX,78209,US,(210) 320-1196,,,,,,
LS Hair Designs,,8003 Broadway ,,San Antonio ,TX,78209,US,(210) 829-1464,,,,,,
Salon 555,,555 E Basse Rd ,,San Antonio ,TX,78209,US,,,,,,,
Bluemercury Apothecary and Spa,,280 East Basse Road ,,San Antonio ,TX,78209,US,,,,,,,
C.S. Cutting Co.,,444 N. Fredonia Street ,,Longview ,TX,75601,US,(903) 757-9848,,,,,,
Alta Moda Salon,,17503 La Cantera Pkwy ,,San Antonio ,TX,78257,US,(210) 561-8824,,,,,,
Rumours,,3394 US Highway 259 N ,,Longview ,TX,75605,US,(903) 663-0061,,,,,,
"Josh Comeaux Hair, LLC",,103 Stonemont Rd ,,Lafayette ,LA,70508,US,(337) 406-0043,,,,,,
J Elliot Salon,,1901 Chemin ,,Metairie Youngsville ,LA,70592,US,(337) 258-7385,,,,,,
Neiman Marcus,,1618 Main Street ,,Dallas ,TX,75201,US,(214) 741-6911,,,,,,
Adolphus Hotel and Spa,,1321 Commerce Street ,,Dallas ,TX,75202,US,(214) 651-3545,,,,,,
Craft & Co (A Muse Concept Salon),,750 Ft Worth Avenue ,,Dallas ,TX,75208,US,(214) 790-7466,,,,,,
Scene Salon LLC,,801 Core Street ,,Dallas ,TX,75207,US,(214) 484-5841,,,,,,
Revel Workshop,,1630 Irving Blvd ,,Dallas ,TX,75207,US,(469) 867-5127,,,,,,
Matthew Tully Hairdressing,,2815 Allen Street ,,Dallas ,TX,75204,US,(214) 999-1116,,,,,,
Pura Vida Salon,,3324 McKinney Avenue ,,Dallas ,TX,75205,US,(214) 378-8889,,,,,,
Daired's Salon and Spa,,2400 West Interstate 20 ,,Arlington ,TX,76017,US,(817) 465-9797,,,,,,
Muse the Salon,,2323 N Henderson Ave. ,,Dallas ,TX,75206,US,(214) 821-3434‎,,,,,,
Lure Salon,,3839 McKinney Avenue ,,Dallas ,TX,75204,US,(214) 919-5873,,,,,,
Studio 3511,,3511 Cedar Springs Road ,,Dallas ,TX,75219,US,(214) 704-6652,,,,,,
Hair Revival-Design District,,2242 Monitor Street ,,Dallas ,TX,75207,US,(214) 390-6138,,,,,,
William Carr Salon,,3301 Oak Lawn Avenue ,,Dallas ,TX,75219,US,(214) 520-0116,,,,,,
The Beauty Box Salon,,4123 Cedar Springs Road ,,Dallas ,TX,75219,US,(214) 559-3572,,,,,,
The Barbery Salon,,6220 Lower York Road ,,New Hope ,PA,18938,US,(267) 743-2155,,,,,,
Zanya Spa Salon,,287 South Main Street ,,Lambertville ,NJ,08530,US,(609) 773-0770,,,,,,
Vanity Room Salon,,786 Broad St ,,Shrewsbury ,NJ,07702,US,(732) 936-1111,,,,,,
Kevin Alan Salon,,45 Atlantic Ave ,,Long Branch ,NJ,07740,US,(732) 571-0055,,,,,,
Laboratory Hair Studio,,4 Dehart Street ,,Morristown ,NJ,07960,US,(973) 538-3757,,,,,,
Gumdrop Studios,,46 Church Street ,,Montclair ,NJ,07042,US,(973) 744-4008,,,,,,
Maka Salon,,1660 Sheepshead Bay Road ,,Brooklyn ,NY,11235,US,(718) 975-7777,,,,,,
Richel D'Ambra Spa & Salon,,10 Avenue of the Arts ,,Philadelphia ,PA,19102,US,(215) 523-8035,,,,,,
Jason Matthew Salon,,1735 Chestnut Street ,,Philadelphia ,PA,19103,US,(215) 665-8030,,,,,,
Heads and Tails Beauty Boutique,,265 S.19th Street ,,Philadelphia ,PA,19103,US,(215) 875-8343,,,,,,
Salon L Manayunk,,4360 Main Street ,,Manayunk ,PA,19127,US,(215) 483-2500,,,,,,
SL8 hair lounge,,8135 Germantown Ave ,,Philadelphia ,PA,19118,US,(267) 546-6037,,,,,,
Noel Sy Art in Beauty,,292 Montgomery Avenue ,,Bala Cynwyd ,PA,19004,US,(610) 667-8777,,,,,,
Mora Salon,,606 Haddonfield Road ,,Cherry Hill ,NJ,08002,US,(856) 663-0600,,,,,,
Salon 31,,31 Rittenhouse Place ,,Ardmore ,PA,19003,US,(610) 642-8600,,,,,,
Rizzieri Salon,,400 Route 38 ,,Moorestown ,NJ,08057,US,(856) 985-5500,,,,,,
Pageboy Hair,,12 West Lancaster Avenue ,,Ardmore ,PA,19003,US,(610) 645-0600,,,,,,
Soffiato Via,,11 E Main Street ,,Moorestown ,NJ,08057,US,(856) 581-9226,,,,,,
High Tech Hair Salon and Spa,,13023 Bustleton Avenue ,,Philadelphia ,PA,19116,US,(215) 464-6969,,,,,,
Bluemercury Apothecary and Spa,,925 West Lancaster Avenue ,,Bryn Mawr ,PA,19010,US,(203) 227-6900,,,,,,
Caryn Max Salon West,,220 Young Avenue ,,Morrestown ,NJ,08057,US,(856) 437-6612,,,,,,
Product Lounge at Louis Christian Wayne Robert,,1990 East Route 70 ,,Cherry Hill ,NJ,08003,US,(856) 528-2467,,,,,,
Le Reve Salon and Barbershop,,2110 Route 70 East ,,Cherry Hill ,NJ,08003,US,(856) 888-2436,,,,,,
Sorelle Hair Studio,,520 Limekiln Pike ,,Maple Glen ,PA,19002,US,(267) 470-4964,,,,,,
Verve - The Hair Gallery,,535 Street Road ,,Southampton ,PA,18966,US,(267) 684-6480,,,,,,
Bluemercury Apothecary and SPA,,300 Route 73 South ,,Marlton ,NJ,08053,US,(856) 810-7606,,,,,,
Moxie Blue Salon,,501 Route 73 South ,,Marlton ,NJ,08053,US,(856) 985-6255,,,,,,
Salon d'Artiste,,205 West Lancaster Avenue ,,Wayne ,PA,19087,US,(610) 687-2020,,,,,,
Artistre Salon and Spa,,1351 Route 38 ,,Hainesport ,NJ,08036,US,(609) 845-3161,,,,,,
Van Gogh Salon,,311 E Baltimore Ave ,,Media ,PA,19063,US,(484) 444-2062,,,,,,
Jay Michael Salon and Spa,,595 East Lancaster Avenue ,,Wayne ,PA,19087,US,(610) 964-0800,,,,,,
Bluemercury Apothecary and Spa,,114 South State Street ,,Newtown ,PA,18940,US,(202) 342-9800,,,,,,
David J Witchell,,25 South State Street ,,Newtown ,PA,18940,US,(215) 579-1200,,,,,,
Christopher Moore Salon,,508 Hurffville Crosskeys Road ,,Sewell ,NJ,08080,US,(856) 553-6153,,,,,,
Elizabeth Benke Salon,,1721 South Easton Road ,,Doylestown ,PA,18901,US,(213) 343-3003,,,,,,
Martino Cartier Salon,,304 Hurfville Cross Keys Rd. ,,Sewell ,NJ,08080,US,(856) 582-6600,,,,,,
Elizabeth Benke & Associates Salon and Color Studio,,7 West Oakland Avenue ,,Doylestown ,PA,18901,US,(215) 489-7090,,,,,,
Blush Hair Salon,,40 South Main Street ,,Yardley ,PA,19067,US,(215) 321-6186,,,,,,
VC Salon,,2350 Route 33 ,,Robbinsville ,NJ,08691,US,(609) 259-5952,,,,,,
Cosmo Bleu,,170 Nassau Street ,,Princeton ,NJ,08540,US,(609) 497-2538,,,,,,
Bluemercury Apothecary and SPA,,72 Palmer Square ,,Princeton ,NJ,08542,US,(609) 497-9100,,,,,,
Metropolis Spa & Salon,,301 North Harrison Street ,,Princeton ,NJ,08540,US,(609) 683-8388,,,,,,
Daniel Smits Salon,,830 State Road ,,Princeton ,NJ,08540,US,(609) 921-9051,,,,,,
Salon Azzurro,,133 Washington Street ,,Rocky Hill ,NJ,08553,US,(609) 924-1200,,,,,,
American Hairlines,,74 West Broad Street ,,Bethlehem ,PA,18018,US,(610) 882-9848,,,,,,
Avanti Day Resort,,345 Route 9 ,,South Manalapan ,NJ,07726,US,(732) 780-0222,,,,,,
Bell Tower Salon Spa,,18 State Hill Road ,,Wyomissing ,PA,19610,US,(610) 372-6379,,,,,,
Iron Roots LLC,,3311 Penn Avenue ,,Reading ,PA,19609,US,(484) 706-0227,,,,,,
Tsang Salon,,288 US Highway 22 ,,Green Brook ,NJ,08812,US,(732) 752-1211,,,,,,
The Salon at Warren,,125 Washington Valley Road ,,Warren ,NJ,07059,US,(732) 764-0550,,,,,,
Elan Hair Studio,,2150 Highway 35 ,,Sea Girt ,NJ,08750,US,(732) 449-9122,,,,,,
Gerber Salon,,100 West Front Street ,,Keyport ,NJ,07735,US,(732) 888-7575,,,,,,
Bluemercury Apothecary and Spa,,2150 Rte 35 Suite 22-23E ,,Sea Girt ,NJ,08750,US,(202) 342-9800,,,,,,
Prestigious Salon,,626 Arnold Avenue Point ,,Pleasant Beach ,NJ,08742,US,(732) 477-8444,,,,,,
Craft Hair Studio,,17 Mine Brook Road ,,Bernardsville ,NJ,07924,US,(908) 766-4000,,,,,,
Charles Studio,,288 South Avenue ,,Fanwood ,NJ,07023,US,(908) 889-5008,,,,,,
Vicki Popp,,456 Springfield Avenue ,,Summit ,NJ,07901,US,(908) 967-6492,,,,,,
BeBe Noritt Salon,,839 West Park Avenue ,,Ocean ,NJ,07712,US,(732) 266-2088,,,,,,
Iris Tree,,270 US-206 ,,Chester ,NJ,07930,US,(908) 206-4981,,,,,,
Cecil Diaz Hair- The Mendham Spa,,6 EAST MAIN STREET ,,Mendham ,NJ,07945,US,(973) 543-9444,,,,,,
Lambs & Wolves,,72 Bridge Avenue ,,Red Bank ,NJ,07701,US,(732) 530-5588,,,,,,
Bluemercury Apothecary and SPA,,571 Route 35 ,,Shrewsbury ,NJ,07702,US,(732) 842-7300,,,,,,
Hot Mess Studio,,600 Cookman Avenue ,,Asbury Park ,NJ,07712,US,(732) 774-3515,,,,,,
Industry Salon,,20 Broad St. ,,Red Bank ,NJ,07701,US,(908) 770-9699,,,,,,
Maji Hair Design,,84 East Main Street ,,Mendham ,NJ,07945,US,(973) 543-3300,,,,,,
Utopia Salon & Day Spa - NJ,,349 East South Avenue ,,Westfield ,NJ,07090,US,(908) 928-0008,,,,,,
Skin Deep Salon and Spa,,1330 Springfield Avenue ,,New Providence ,NJ,07974,US,(908) 508-1800,,,,,,
Hair Salon Body & Soul,,29 South Street ,,New Providence ,NJ,07974,US,(908) 522-9080,,,,,,
Color Couture Salon and Spa,,240 Route 206 ,,South Flanders ,NJ,07836,US,(973) 252-5355,,,,,,
Bombshell Salon,,105 South Avenue West ,,Cranford ,NJ,07016,US,(908) 324-4120,,,,,,
Bristle and Prim,,14 N Queen Street ,,Lancaster ,PA,17603,US,(717) 295-7600,,,,,,
Zoku Salon,,17 Union Place ,,Summit ,NJ,07901,US,(908) 273-9658,,,,,,
Bluemercury Apothecary and SPA,,374 Springfield Avenue ,,Summit ,NJ,07901,US,(732) 745-7770,,,,,,
Ateliers 113,,113 Summit Avenue ,,Summit ,NJ,07901,US,(908) 273-1143,,,,,,
Bloom Studio,,2 Maple Avenue ,,Morristown ,NJ,07960,US,(973) 650-8936,,,,,,
BC Salon,,142 South Street ,,Morristown ,NJ,07960,US,(973) 267-1300,,,,,,
Bluemercury apothecary and spa,,2 South Street ,,Morristown ,NJ,07960,US,,,,,,,
Space.N.K. Apothecary,,1200 Morris Turnpike ,,Short Hills ,NJ,07078,US,(973) 548-2419,,,,,,
Neiman Marcus,,1200 Morris Turnpike ,,Short Hills ,NJ,07078,US,(973) 912-0080,,,,,,
The House,,281 Essex Street ,,Millburn ,NJ,07041,US,(973) 379-5233,,,,,,
Beige + Blanc,,9 W Northfield Road ,,Livingston ,NJ,07039,US,(973) 992-8500,,,,,,
Bluemercury Apothecary and SPA,,3056 State Route 10 ,,Denville ,NJ,07834,US,(973) 659-1900,,,,,,
Yoni Kreger Salon,,9W South Orange South ,,Orange ,NJ,07079,US,(973) 762-2900,,,,,,
The Salon at Mountain Lakes,,50 Midvale Road ,,Mountain Lakes ,NJ,07046,US,(973) 334-1005,,,,,,
5th Ave Hair Studio,,9013 5th Avenue ,,Brooklyn ,NY,11209,US,(718) 439-4909,,,,,,
Ala Mode Salon,,7519 3rd Ave ,,Brooklyn ,NY,11209,US,(718) 491-1100,,,,,,
Delacqua Salon and Spa,,2027 86th Street ,,Brooklyn ,NY,11214,US,(718) 996-1900,,,,,,
Panico Salon & Spa,,763 Bloomfield Avenue ,,Caldwell ,NJ,07006,US,(973) 364-9600,,,,,,
Hair By Pearl,,400 Avenue U ,,Brooklyn ,NY,11223,US,(718) 484-1544,,,,,,
Tangles Salon & Spa,,1722 Sheepshead Bay Rd ,,Brooklyn ,NY,11235,US,(718) 872-7200,,,,,,
Glamvie,,2905 Ocean Ave ,,Brooklyn ,NY,11235,US,(718) 743-2374,,,,,,
Heaven & Earth Salon & Spa,,212 North Centre Street ,,Pottsville ,PA,17901,US,(570) 622-5056,,,,,,
Royal Edelweiss Beauty Center,,1610 E 19th Street ,,Brooklyn ,NY,11229,US,(646) 391-7429,,,,,,
Melandre Salon,,509 Franklin Avenue ,,Nutley ,NJ,07110,US,(973) 667-3100,,,,,,
Shampoo Ink,,696 E. Colter Street ,,Phoenix ,AZ,85012,US,(602) 759-8755,,,,,,
Cast Salon and Spa L.L.C,,5355 E High Street ,,Phoenix ,AZ,85054,US,(602) 329-1839,,,,,,
The Bespoke Salon,,4211 Winfield Scott Plaza ,,Scottsdale ,AZ,85251,US,(480) 941-4218,,,,,,
The Spa at DC Ranch,,18501 N. Thompson Peak Parkway ,,Scottsdale ,AZ,85255,US,(480) 502-8844,,,,,,
House & Parlour,,2470 Paseo Verde Parkway ,,Las Vegas ,NV,89074,US,(702) 279-1320,,,,,,
The Blonde Door Salon,,73725 El ,,Paseo Palm Desert ,CA,92260,US,(760) 278-3322,,,,,,
Anastasia K Salon,,41920 6th St ,,Temecula ,CA,92590,US,(951) 506-9000,,,,,,
Blowbunny,,10455 Craftsman Way ,,San Diego ,CA,92127,US,(858) 312-5556,,,,,,
Lex Salon & Spa,,40956 California Oaks Road ,,Murrieta ,CA,92562,US,(951) 698-1100,,,,,,
Theory Hair Studio,,640 W Beech St ,,San Diego ,CA,92101,US,(619) 822-2254,,,,,,
Cristina Q Salon,,7741 Fay Avenue ,,La Jolla ,CA,92037,US,(858) 456-2602,,,,,,
Dawnielle Jonene Salon,,24691 Del Prado ,,Dana Point ,CA,92629,US,(949) 240-5171,,,,,,
Dedication Salon,,29955 Alicia Parkway ,,Laguna Niguel ,CA,92677,US,(949) 495-9522,,,,,,
Project Luxe,,209 Gold Ave SW ,,Albuquerque ,NM,87102,US,(505) 242-5893,,,,,,
Craft Hair Studio,,512 Central Ave SE ,,Albuquerque ,NM,87102,US,(505) 903-5070,,,,,,
Salon Estique Spa and Boutique,,100 E Camelback Rd ,,Phoenix ,AZ,85012,US,(602) 248-0077,,,,,,
Norterra Salon and Spa,,2450 W Happy Valley Rd ,,Phoenix ,AZ,85085,US,(623) 434-8055,,,,,,
Bluemercury Apothecary and Spa,,2021 East Camelback Road ,,Phoenix ,AZ,85016,US,(202) 342-9800,,,,,,
Scissors Rox Paper,,4727 E. Cactus Road ,,Phoenix ,AZ,85032,US,(602) 296-5594,,,,,,
Luxxi Salon,,10855 N. Tatum Blvd. ,,Phoenix ,AZ,85028,US,(480) 991-9311,,,,,,
The Spa at Camelback Village,,4444 East Camelback Road ,,Phoenix ,AZ,85018,US,(602) 553-4917,,,,,,
Sanctuary on Camelback Mountain,,5700 East McDonald Drive ,,Paradise Valley ,AZ,85253,US,(480) 948-2100,,,,,,
Etch Salon,,15205 N Kierland Boulevard ,,Scottsdale ,AZ,85254,US,(480) 483-7777,,,,,,
Bluemercury Apothecary and SPA,,15215 N. Kierland Blvd. Suite 155 ,,Scottsdale ,AZ,85254,US,(202) 342-9800,,,,,,
Jo Paris Salon,,14202 Scottsdale Road ,,Scottsdale ,AZ,85254,US,(480) 663-8994,,,,,,
Dolce Salon & Spa,,15323 North Scottsdale Road ,,Scottsdale ,AZ,85254,US,(480) 722-0500,,,,,,
La Lou,,15444 North Greenway/Hayden Loop ,,Scottsdale ,AZ,85260,US,(480) 776-5726,,,,,,
Gossamer Salon & Grooming Co,,4400 N Scottsdale Rd ,,Scottsdale ,AZ,85253,US,(480) 427-4223,,,,,,
Taglio Salon,,7000 East Mayo Boulevard ,,Phoenix ,AZ,85054,US,(480) 991-6828,,,,,,
Dre's Hair Salon & Spa,,15551 N Greenway-Hayden Loop ,,Scottsdale ,AZ,85260,US,(602) 368-2009,,,,,,
Pucci Salon,,7293 North Scottsdale Road ,,Scottsdale ,AZ,85253,US,(480) 443-3030,,,,,,
Rumors Salon,,7001 N. Scottsdale Road ,,Scottsdale ,AZ,85253,US,(480) 998-1888,,,,,,
Zolton's Salon & Day Spa,,20821 North Scottsdale Road ,,Scottsdale ,AZ,85255,US,(480) 513-8414,,,,,,
Sachi Salon and Spa,,4821 North Scottsdale Road ,,Scottsdale ,AZ,85251,US,(480) 421-9100,,,,,,
Ramon Bacaui Hair & Spa,,4228 N Craftsman Ct # 1 ,,Scottsdale ,AZ,85251,US,(480) 946-2015,,,,,,
Hydrate Salon & Day Spa,,18261 North Pima Road ,,Scottsdale ,AZ,85255,US,(480) 656-5911,,,,,,
Desert Mountain,,10225 E. Desert Hills Drive ,,Scottsdale ,AZ,85262,US,(480) 845-0595,,,,,,
Dolce Salon and Spa,,3325 West Chandler Boulevard ,,Chandler ,AZ,85226,US,(480) 722-0500,,,,,,
Zynergy,,78 North Cooper Road ,,Gilbert ,AZ,85233,US,(480) 539-1111,,,,,,
Habit Salon,,4331 East Baseline Rd. ,,Gilbert ,AZ,85234,US,(480) 461-9425,,,,,,
The Spa at Ocotillo Village,,4200 South Alma School Road ,,Chandler ,AZ,85248,US,(480) 656-0045,,,,,,
Wander,,3000 E Ray Road BLDG 6 ,,Gilbert ,AZ,85296,US,(480) 310-5381,,,,,,
Mad Max Salon,,2567 N. Campbell Ave. ,,Tucson ,AZ,85719,US,(520) 795-6334,,,,,,
Wild Orchid Salon (AZ),,5425 North Kolb Road ,,Tucson ,AZ,85750,US,(520) 299-1889,,,,,,
Aria Salon (AZ),,4861 E Grant Rd ,,Tucson ,AZ,85712,US,(520) 305-3697,,,,,,
The Salon at Green Valley Ranch,,2300 Paseo Verde Drive ,,Henderson ,NV,89052,US,(702) 617-7570,,,,,,
Violet Hour Salon at the Cosmopoltan,,3708 Las Vegas Boulevard ,,South Las Vegas ,NV,89109,US,(702) 698-7171,,,,,,
TERRA LANE HAIR DESIGNS,,73-300 ,,El Paseo Palm Desert ,CA,92260,US,(760) 568-3900,,,,,,
Neiman Marcus,,3200 Las Vegas Boulevard ,,South Las Vegas ,NV,89109,US,(702) 731-3636,,,,,,
Glo Salon,,8665 West Flamingo ,,Las Vegas ,NV,89147,US,(702) 769-7686,,,,,,
Tease Boutique Salon,,9540 West Flamingo Road ,,Las Vegas ,NV,89147,US,(702) 489-4000,,,,,,
Square Color Salon,,1225 S. Fort Apache Rd ,,Las Vegas ,NV,89117,US,(702) 255-7050,,,,,,
Square Atelier,,1225 South Fort Apache Road ,,Las Vegas ,NV,89117,US,(702) 255-7050,,,,,,
Red Rock Casino Resort & Spa,,11011 West Charleston Boulevard ,,Las Vegas ,NV,89135,US,(702) 510-9685,,,,,,
Brien O'Brien Salon,,515 North Palm Canyon Drive ,,Palm Springs ,CA,92262,US,(760) 778-0333,,,,,,
The Blow Dry Bar,,2990 Jamacha Road ,,El Cajon ,CA,92019,US,(619) 851-2881,,,,,,
Harlo & State Salon,,6 East State Street ,,Redlands ,CA,92373,US,(909) 792-3340,,,,,,
Astutia Salon,,24619 Washington Avenue ,,Murrieta ,CA,92562,US,(951) 217-3343,,,,,,
Chief Behr Studio,,1875 West Redlands Boulevard ,,Redlands ,CA,92373,US,(909) 890-9001,,,,,,
The Lighthouse Salon,,3081 University Avenue ,,San Diego ,CA,92104,US,(619) 542-9077,,,,,,
Rinse Salon,,4201 30th Street ,,San Diego ,CA,92104,US,(619) 677-2078,,,,,,
The Lab A Salon,,3034 University Avenue ,,San Diego ,CA,92104,US,(619) 543-9952,,,,,,
Voila' Hair Atelier,,16236 San Dieguito Road ,,Rancho Santa Fe ,CA,92067,US,(858) 756-0082,,,,,,
GOLDLINE,,3009 Beech Street ,,San Diego ,CA,92102,US,(619) 200-9601,,,,,,
V Collective,,3000 5th Ave ,,San Diego ,CA,92103,US,(619) 795-3899,,,,,,
Space.N.K. Apothecary,,7057 Friars Road ,,San Diego ,CA,92108,US,(310) 451-7284,,,,,,
Neiman Marcus,,7027 Friars Road ,,San Diego ,CA,92108,US,(619) 692-9100,,,,,,
Cut,,1975 5th Avenue ,,San Diego ,CA,92101,US,(619) 233-0300,,,,,,
Stainless Salon,,162 S Rancho Santa Fe Road ,,Encinitas ,CA,92024,US,(760) 942-8311,,,,,,
Maida Salon,,1910 State Street ,,San Diego ,CA,92101,US,(619) 232-0807,,,,,,
Kelly Marie Salon,,2045 Kettner Blvd ,,Sann Diego ,CA,92101,US,(619) 795-7525,,,,,,
Bluemercury Apothecary and Spa,,12925 El Camino Real ,,San Diego ,CA,92130,US,(202) 342-9800,,,,,,
StellaBlue Salon and Color Bar,,131 Orange Avenue ,,Coronado ,CA,92118,US,(619) 435-1779,,,,,,
Evian Salon & Day Spa,,4130 La Jolla Village Drive ,,La Jolla ,CA,92037,US,(858) 224-1500,,,,,,
Headlines The Salon,,121 North El Camino Real ,,Encinitas ,CA,92024,US,(760) 436-1812,,,,,,
Bluemercury Apothecary and SPA,,1923 Calle Barcelona ,,Carlsbad ,CA,92009,US,(212) 396-1500,,,,,,
Do's and Lipstick,,143 S. Cedros Ave ,,Solana Beach ,CA,92075,US,(858) 793-5477,,,,,,
The Workshop,,3405 Kenyon Street ,,San Diego ,CA,92110,US,(619) 497-2880,,,,,,
VOHG Hair,,90 N. Coast Highway 101 ,,Encinitas ,CA,92024,US,(760) 230-2510,,,,,,
The Studio by Vanity,,705 North Vulcan ,,Encinitas ,CA,92024,US,(858) 509-3654,,,,,,
Bella D'ora Spa & Salon,,5617 Paseo del Norte ,,Carlsbad ,CA,92008,US,(760) 438-7404,,,,,,
Belle Sirene,,7838 Herschel Avenue ,,La Jolla ,CA,92037,US,(619) 876-8676,,,,,,
Atelier Aucoin,,7535 Girard Avenue ,,La Jolla ,CA,92037,US,(858) 454-9651,,,,,,
Bluemercury Apothecary and Spa,,7802 Girard Avenue ,,La Jolla ,CA,92037,US,,,,,,,
Waylon Salon,,5726 La Jolla Boulevard ,,La Jolla ,CA,92037,US,(858) 230-7992,,,,,,
The Jon Michael Salon,,3615 Main Street ,,Riverside ,CA,92501,US,(951) 782-0117,,,,,,
Ashen Salon,,6903 La Jolla Boulevard ,,La Jolla ,CA,92037,US,(858) 459-3216,,,,,,
ILo Hair,,3591 Merrill Ave ,,Riverside ,CA,92506,US,(951) 683-6595,,,,,,
Blowology Beauty Bar,,22431 Antonio Parkway ,,Rancho Santa Margarita ,CA,92688,US,(949) 295-9902,,,,,,
Sanctuary by Cha,,801 Avenida Talega ,,San Clemente ,CA,92673,US,(949) 429-5802,,,,,,
Legends Ladera Ranch Salon,,25612 Crown Valley Parkway ,,Ladera Ranch ,CA,92694,US,(949) 218-7600,,,,,,
Kut Haus,,123 Yale Avenue ,,Claremont ,CA,91711,US,(909) 621-4906,,,,,,
ILo Collective,,101 North Indian Hill Blvd ,,Claremont ,CA,91711,US,(909) 625-7525,,,,,,
Bluemercury Apothecary and Spa,,2963 Michelson Drive ,,Irvine ,CA,92612,US,,,,,,,
Hampton Salon,,301 Bayview Circle ,,Newport Beach ,CA,92660,US,(949) 854-6100,,,,,,
Anchor Frame,,101 Bryn Mawr Southeast ,,Albuquerque ,NM,87106,US,(505) 600-3361,,,,,,
Salon Gregories,,200 Newport Center Drive ,,Newport Beach ,CA,92660,US,(949) 644-6671,,,,,,
Ty Alexander Salon 2,,240 Newport Center Drive ,,Newport Beach ,CA,92660,US,(714) 658-5121,,,,,,
Salon 4411,,4411 Lemmon Avenue ,,Dallas ,TX,75219,US,(214) 521-9900,,,,,,
L.a.r.c Salon,,4441 McKinney Avenue ,,Dallas ,TX,75205,US,(214) 526-2226,,,,,,
Osgood - O'Neil Salon,,3213 Knox Street ,,Dallas ,TX,75205,US,(214) 520-0078,,,,,,
Neiman Marcus,,5200 Monahans Ave ,,Fort Worth ,TX,76109,US,1 (817) 738-3581,,,,,,
Goldwaves Salon,,5137 El Campo Avenue ,,Fort Worth ,TX,76107,US,(817) 731-8888,,,,,,
Ryan Wayne Salon,,5017 Colleyville Blvd. ,,Colleyville ,TX,76034,US,(817) 656-2400,,,,,,
Four Seasons Resort and Club,,4150 N MacArthur Blvd ,,Irving ,TX,75038,US,(972) 717-0700,,,,,,
Scott LeMaster Salon,,118 E. John W. Carpenter Frwy ,,Irving ,TX,75062,US,(972) 717-2725,,,,,,
Era Salon,,4023 Oaklawn Ave ,,Dallas ,TX,75219,US,(214) 520-6767,,,,,,
Studio One Ten,,4514 Travis Street ,,Dallas ,TX,75205,US,(214) 521-4110,,,,,,
The Songbird Society,,4631 Insurance Lane ,,Dallas ,TX,75205,US,(214) 361-2070,,,,,,
The Hair Bar,,1522 E. Southlake Blvd ,,Southlake ,TX,76092,US,(817) 442-5111,,,,,,
Bluemercury Apothecary and SPA,,219 Grand Ave ,,Southlake ,TX,76092,US,(212) 396-1500,,,,,,
Madison Salon,,445 E 17th St ,,Costa Mesa ,CA,92627,US,(949) 675-7757,,,,,,
Space.N.K. Apothecary,,701 Newport Center Drive ,,Newport Beach ,CA,92660,US,(949) 729-6803,,,,,,
Neiman Marcus,,601 Newport Center Drive ,,Newport Beach ,CA,92660,US,(949) 759-1900,,,,,,
Lavender Salon,,1617 Westcliff Drive ,,Newport Beach ,CA,92660,US,1 (949) 220-3442,,,,,,
Cue Hair Spa,,2901 West Coast Highway ,,Newport Beach ,CA,92663,US,(949) 887-9702,,,,,,
Studio 486,,486 Old Newport Blvd ,,Newport Beach ,CA,92663,US,(949) 650-0265,,,,,,
TEK Salon & Spa,,230 East 17th Street ,,Costa Mesa ,CA,92627,US,(949) 650-8351,,,,,,
Sessions Salon,,2905 Red Hill Avenue ,,Costa Mesa ,CA,92626,US,(714) 708-2807,,,,,,
Osgood - O'Neil Salon,,6932 Snider Plaza ,,Dallas ,TX,75205,US,(214) 373-6336,,,,,,
Osgood - O'Neil Salon,,4320 Lovers Lane ,,Dallas ,TX,75225,US,(214) 389-3294,,,,,,
Figueroa Salon,,5635 West Lovers Lane ,,Dallas ,TX,75209,US,(214) 812-9339,,,,,,
Johnny Rodriguez Salon,,5403 W. Lovers Lane ,,Dallas ,TX,75209,US,(214) 987-1919,,,,,,
Salon Di Lusso,,3411 Preston Road ,,Frisco ,TX,75034,US,(972) 571-7787,,,,,,
Robert Morales Hair Studio,,1241 East State Highway 114 ,,Southlake ,TX,76092,US,(817) 421-3388,,,,,,
209 Salon,,6595 Virginia Parkway ,,McKinney ,TX,75071,US,(972) 548-2815,,,,,,
Salon D' Bella,,5701 North Western Avenue ,,Oklahoma City ,OK,73118,US,(405) 608-0582,,,,,,
Lush Blow Dry Bar,,6492 Avondale Drive ,,Oklahoma City ,OK,73116,US,(405) 842-5874,,,,,,
Rutz Salon,,7301 North Classen Boulevard ,,Oklahoma City ,OK,73116,US,(405) 418-4525,,,,,,
Salon Pompeo,,5330 East Mockingbird Lane ,,Dallas ,TX,75206,US,(214) 203-3333,,,,,,
Neiman Marcus,,8687 North Central Expressway ,,Dallas ,TX,75225,US,(214) 363-8311,,,,,,
bluemercury apothecary and spa,,83 Highland Park ,,Vilage Dallas ,TX,75205,US,(202) 342-9800,,,,,,
Form Salon and Spa,,8201 Preston Rd ,,Dallas ,TX,75225,US,(214) 369-2500,,,,,,
Form Salon,,8411 Preston Road ,,Dallas ,TX,75225,US,(214) 369-2500,,,,,,
J. Grace Salon,,6030 Luther Lane ,,Dallas ,TX,75225,US,(972) 978-2510,,,,,,
Azure Salon,,6027 Berkshire Lane ,,Dallas ,TX,75225,US,(214) 363-8900,,,,,,
Salon D,,13615 Inwood Road ,,Dallas ,TX,75244,US,(972) 788-0975,,,,,,
Salon G!,,5275 Spring Valley Rd ,,Dallas ,TX,75254,US,(972) 866-8100,,,,,,
Grand Spa,,5100 Beltline Road ,,Dallas ,TX,75254,US,(972) 392-9393,,,,,,
Neiman Marcus,,2201 Dallas Parkway ,,Plano ,TX,75093,US,(972) 629-1700,,,,,,
Luxe Salon,,4017 Preston Road ,,Plano ,TX,75093,US,(972) 781-1720,,,,,,
Bluemercury apothecary and spa,,5760 Legacy Drive ,,Plano ,TX,75024,US,,,,,,,
Modern Luxe - Stonebriar,,1279 Legacy Drive ,,Frisco ,TX,75034,US,(214) 872-3400,,,,,,
Salon Estevan,,1701 Legacy Drive ,,Frisco ,TX,75034,US,(469) 579-4842,,,,,,
Modern Luxe,,4851 Legacy Drive ,,Frisco ,TX,75034,US,(214) 872-3400,,,,,,
Von Anthony Salon,,7004 Lebanon Road ,,Frisco ,TX,75034,US,(972) 731-7600,,,,,,
Amber Michelle Salon,,2500 Lakeside Pkwy ,,Flower Mound ,TX,75022,US,(972) 691-9500,,,,,,
David Ryan Salon,,4151 Cross Timbers Road ,,Flower Mound ,TX,75028,US,(972) 691-0022,,,,,,
Tangles Salon,,2913 Garnett Ave ,,Wichita Falls ,TX,76308,US,(940) 767-4600,,,,,,
Revel 8,,201 Northwest 10th Street ,,Oklahoma City ,OK,73103,US,(405) 596-1936,,,,,,
Blo,,5850 North Classen Boulevard ,,Oklahoma City ,OK,73118,US,(405) 286-2900,,,,,,
The Van Cleef Salon,,6452 Avondale Drive ,,Nichols Hills ,OK,73116,US,(405) 843-4826,,,,,,
Salon W (Oklahoma City),,7304 N. Western Avenue ,,Oklahoma City ,OK,73116,US,(405) 608-0692,,,,,,
Dodd salon,,7511 North may avenue ,,Oklahoma City ,OK,73116,US,(405) 753-6300,,,,,,
Schardein's,,9501 North May Avenue ,,Oklahoma City ,OK,73120,US,(405) 752-5353,,,,,,
Umbrella Salon,,2 North Market Street ,,San Jose ,CA,95113,US,(408) 293-4242,,,,,,
Salon Xeno,,2200 South Winchester Boulevard ,,Campbell ,CA,95008,US,(408) 429-8828,,,,,,
Limon Salon,,3410 Stevens Creek Boulevard ,,San Jose ,CA,95117,US,(408) 247-2700,,,,,,
Tangles Salon,,4002 Bay Street ,,Fremont ,CA,94538,US,(510) 226-7944,,,,,,
Gary Patrick Salon,,350 Main Street ,,Pleasanton ,CA,94566,US,(925) 462-2375,,,,,,
Salon Tivoli,,2219 1st Street ,,Livermore ,CA,94550,US,(925) 456-3000,,,,,,
SWOON a boutique salon,,1199 Laurel Street ,,San Carlos ,CA,94070,US,(650) 453-3678,,,,,,
Salon 1461,,1461 Burlingame Avenue ,,Burlingame ,CA,94010,US,(650) 342-6262,,,,,,
Harper Paige Oakland,,5030 Telegraph Avenue ,,Oakland ,CA,94609,US,(415) 391-1050,,,,,,
The Park Salon,,669 Chenery Street ,,San Francisco ,CA,94131,US,(415) 469-7976,,,,,,
Revamp Salon,,2164 Market Street ,,San Francisco ,CA,94114,US,(415) 431-8267,,,,,,
Cowboys and Angels,,207 Powell Street ,,San Francisco ,CA,94102,US,(415) 362-8516,,,,,,
Studio 323,,323 Geary ,,San Francisco ,CA,94108,US,(415) 777-0999,,,,,,
ORO,,305 Grant Avenue ,,San Francisco ,CA,94108,US,(415) 563-7430,,,,,,
Primp,,391 Sutter Street ,,San Francisco ,CA,94108,US,(415) 986-9012,,,,,,
Hector Estrada,,142 Fillmore Street ,,San Francisco ,CA,94117,US,(415) 861-0142,,,,,,
Berenice Salon,,1889 Union Street ,,San Francisco ,CA,94123,US,(415) 345-8898,,,,,,
Cameron James Salon,,2185A Union Street ,,San Francisco ,CA,94123,US,(415) 407-6040,,,,,,
Wanderlust Salon,,2250 Union Street ,,San Francisco ,CA,94123,US,(415) 913-7331,,,,,,
Salon Belle de Soir,,2208 Filbert Street ,,San Francisco ,CA,94123,US,(415) 441-6944,,,,,,
Dollhouse Salon,,4991 Cherry Avenue ,,San Jose ,CA,95118,US,(408) 266-2240,,,,,,
"OZ a Salon, Inc.",,1355 Lincoln Ave ,,San Jose ,CA,95125,US,(408) 275-9100,,,,,,
Faux Salon,,378 East Campbell Avenue ,,Campbell ,CA,95008,US,(408) 378-3289,,,,,,
Bellarmine Salon,,355 Santana Row ,,San Jose ,CA,95128,US,(408) 985-4247,,,,,,
Salon Amnesia,,529 North Santa Cruz Avenue ,,Los Gatos ,CA,95030,US,(408) 395-8120,,,,,,
B Society,,291 E Main St ,,Los Gatos ,CA,95030,US,(408) 354-0858,,,,,,
Dollhouse,,413A Monterey Avenue ,,Los Gatos ,CA,95030,US,(408) 439-1419,,,,,,
Dustin David Salon,,50 University Avenue ,,Los Gatos ,CA,95030,US,(408) 395-6225,,,,,,
Main Street Annex,,28 East Main Street ,,Los Gatos ,CA,95030,US,(408) 354-1981,,,,,,
172127 bluemercury apothecary and spa - Santa Clara Plaza,,2722 Augustine Drive ,,Santa Clara ,CA,95054,US,(215) 569-3100,,,,,,
Tangles Salon,,23 West Main Street ,,Los Gatos ,CA,95030,US,(408) 354-7800,,,,,,
Bluemercury Apothecary and SPA,,11 North Santa Cruz Avenue ,,Los Gatos ,CA,95030,US,(202) 342-9800,,,,,,
Michael Anthony Salon,,14487 Big Basin Way ,,Saratoga ,CA,95070,US,(408) 741-1115,,,,,,
Studio [O],,14510 Big Basin Way ,,Saratoga ,CA,95070,US,(408) 741-1330,,,,,,
A Hair Lounge,,220 State Street ,,Los Altos ,CA,94022,US,(650) 798-9925,,,,,,
Monica Foster,,2699 Middlefield Road ,,Palo Alto ,CA,94306,US,(650) 323-3937,,,,,,
Mahin and Co.,,350 S. California Avenue ,,Palo Alto ,CA,94306,US,(650) 323-7788,,,,,,
Faust Salon,,219 Mt. Hermon Rd. ,,Scotts Valley ,CA,95066,US,(831) 706-8960,,,,,,
Ascend Salon,,37140 Maple Street ,,Fremont ,CA,94536,US,(510) 713-9600,,,,,,
Edge Hair Salon,,250 University Avenue ,,Palo Alto ,CA,94301,US,(650) 462-1000,,,,,,
Vizavoo Salon,,174 University Avenue ,,Palo Alto ,CA,94301,US,(650) 328-0777,,,,,,
Neiman Marcus,,400 Stanford Shopping Center ,,Palo Alto ,CA,94304,US,(650) 329-3300,,,,,,
Arrow Beauty Bar,,2027 north pacific avenue ,,Santa Cruz ,CA,95060,US,(831) 471-8781,,,,,,
Stranded Beauty Bar,,417 Seabright ,,Santa Cruz ,CA,95062,US,(831) 477-8080,,,,,,
House of Cabelo Salon,,363 Saint Mary St ,,Pleasanton ,CA,94566,US,(925) 426-1250,,,,,,
Tribez Salon and Blow Dry Bar,,291 South Livermore Avenue ,,Livermore ,CA,94550,US,(925) 493-7643,,,,,,
Sasha Salon,,58 El Camino Real ,,San Carlos ,CA,94070,US,(650) 394-8080,,,,,,
Salon Kavi,,1100 Park Place ,,San Mateo ,CA,94403,US,(650) 578-8700,,,,,,
Salon Stilo (Burlingame),,1200 Howard Ave Suite 105 ,,Burlingame ,CA,94010,US,(650) 422-2142,,,,,,
Onyx Salon,,1113 Burlingame Avenue ,,Burlingame ,CA,94010,US,(650) 347-4737,,,,,,
Didi Salon,,1221 Donnelly Avenue ,,Burlingame ,CA,94010,US,(650) 344-3010,,,,,,
Tribez Salon & Blowdry Bar,,4062 Blackhawk Plaza Circle ,,Danville ,CA,94506,US,(925) 362-8600,,,,,,
Le Reve Salon,,841-A California Drive ,,Burlingame ,CA,94010,US,(650) 581-1270,,,,,,
Tribez Salon and Spa,,111 Town and Country Drive ,,Danville ,CA,94526,US,(925) 362-8600,,,,,,
"77 Salon, Inc. - Alameda",,1629 Park Street ,,Alameda ,CA,94501,US,(510) 601-7776,,,,,,
Salon One 50,,3189 Danville Blvd ,,Alamo ,CA,94507,US,(925) 208-1345,,,,,,
JauJou Studio,,3351 Grand Avenue ,,Oakland ,CA,94610,US,(510) 208-3449,,,,,,
One South Salon,,1310 Mt. Diablo Blvd ,,Walnut Creek ,CA,94596,US,(925) 947-2800,,,,,,
diPietro Todd Salon - Walnut Creek,,1919 Mt. Diablo Blvd ,,Walnut Creek ,CA,94596,US,(925) 938-1919,,,,,,
Rare Byrd Salon,,2341 Boulevard Circle ,,Walnut Creek ,CA,94595,US,(925) 357-8818,,,,,,
Phoenix Salon and Day Spa,,1613 North Main Street ,,Walnut Creek ,CA,94596,US,(925) 943-4944,,,,,,
Caroline's Salon,,57 Lafayette Circle ,,Lafayette ,CA,94549,US,(925) 310-4566,,,,,,
Bluemercury apothecary and spa,,3543 Mount Diablo Boulevard ,,Lafayette ,CA,94549,US,,,,,,,
"77 Salon, Inc.",,5358 College Avenue ,,Oakland ,CA,94618,US,(510) 601-7776,,,,,,
Dekko Salon,,1325 Indiana Street ,,San Francisco ,CA,94107,US,(415) 285-8848,,,,,,
James Colgan,,1331 18th Street ,,San Francisco ,CA,94107,US,(415) 260-0060,,,,,,
Werk Salon,,2867 Mission St ,,San Francisco ,CA,94110,US,(415) 655-9779,,,,,,
Bateau Hair Salon,,2 Townsend Street ,,San Francisco ,CA,94107,US,(415) 495-1912,,,,,,
Population Salon,,498 14th Street ,,San Francisco ,CA,94103,US,(415) 440-7677,,,,,,
Steel & Lacquer,,14 10th Street ,,San Francisco ,CA,94103,US,(415) 503-1210,,,,,,
Space.N.K. Apothecary,,845 Market Street ,,San Francisco ,CA,94103,US,(415) 856-5454,,,,,,
Archer Salon,,33 Grant Ave ,,San Francisco ,CA,94108,US,(415) 433-3334,,,,,,
Patrick Evan (6TH FLOOR),,55 Grant Avenue ,,San Francisco ,CA,94108,US,(414) 421-1111,,,,,,
Patrick Evan (4TH FLOOR),,55 Grant Ave ,,San Francisco ,CA,94108,US,(415) 421-1111,,,,,,
Zindagi Salon,,55 Grant Avenue ,,San Francisco ,CA,94108,US,(415) 989-9463,,,,,,
diPietro Todd Salon - Post Street,,177 Post Street ,,San Francisco ,CA,94108,US,(415) 397-0177,,,,,,
J. Roland Salon,,161 Sutter Street ,,San Francisco ,CA,94104,US,(415) 392-2969,,,,,,
James Colgan,,166 Geary Street ,,San Francisco ,CA,94108,US,(415) 260-0060,,,,,,
Neiman Marcus,,150 Stockton Street ,,San Francisco ,CA,94108,US,(415) 362-3900,,,,,,
Hair Collective,,11 Tillman Place ,,San Francisco ,CA,94108,US,(415) 434-4142,,,,,,
Barrow,,256 Sutter Street ,,San Francisco ,CA,94108,US,(415) 732-0356,,,,,,
Smoke & Mirrors,,256 Sutter Street ,,San Francisco ,CA,94108,US,(415) 249-0840,,,,,,
Pastel Hair Salon,,305 Grant Avenue ,,San Francisco ,CA,94108,US,(415) 398-4566,,,,,,
Elan Hair Salon,,305 Grant Avenue ,,San Francisco ,CA,94108,US,(415) 872-9221,,,,,,
Follicle Hair Salon,,798 Sutter Street ,,San Francisco ,CA,94109,US,(415) 402-5277,,,,,,
Harper Paige Salon,,11 Tillman Place ,,San Francisco ,CA,94108,US,(415) 391-1050,,,,,,
diPietro Todd - Palo Alto,,2307 Birch Street ,,San Francisco ,CA,94306,US,(650) 328-4545,,,,,,
Salon Flux,,1042 Hyde Street ,,San Francisco ,CA,94109,US,(415) 829-3805,,,,,,
Festoon Salon,,1401 Martin Luther King Jr. Way ,,Berkeley ,CA,94709,US,(888) 357-2566,,,,,,
Chioma Salon,,381 Cannery Row ,,Monterey ,CA,93940,US,(831) 646-1039,,,,,,
Tom's Beautiful Sexy Hair,,701 Greenwich Street ,,San Francisco ,CA,94133,US,(415) 434-1527,,,,,,
Susie's Salon,,1615 Hopkins St. ,,Berkeley ,CA,94707,US,(415) 328-6118,,,,,,
Space.N.K. Apothecary,,2000 Fillmore Street ,,San Francisco ,CA,94115,US,(310) 451-7284,,,,,,
Smoke & Mirrors - California St.,,2423 California Street ,,San Francisco ,CA,94115,US,(415) 608-6192,,,,,,
diPietro Todd Salon - Fillmore St,,2239 Fillmore Street ,,San Francisco ,CA,94115,US,(415) 674-4366,,,,,,
Posh Salon,,2444 Fillmore Street ,,San Francisco ,CA,94115,US,(415) 440-7674,,,,,,
Secret Agent Salon,,2843 California Street ,,San Francisco ,CA,94115,US,(415) 440-5247,,,,,,
Hair Solano,,888 Colusa Avenue ,,Berkeley ,CA,94707,US,(510) 524-4800,,,,,,
The Social Beauty Co.,,1712 Fillmore Street ,,San Francisco ,CA,94115,US,(415) 529-1305,,,,,,
Stile Salon,,3981 Easton Way ,,Columbus ,OH,43219,US,(614) 342-2133,,,,,,
Salon Vox,,115 West Liberty Street ,,Ann Arbor ,MI,48104,US,(734) 623-4869,,,,,,
Mitchell's Salon and Day Spa,,11330 Princeton Pike ,,Cincinnati ,OH,45246,US,(513) 793-0900,,,,,,
Mitchell's Salon and Day Spa,,5901 East Galbraith ,,Cincinnati ,OH,45236,US,(513) 793-0900,,,,,,
Mitchell's Salon and Day Spa,,7795 Discovery Drive West ,,Chester ,OH,45069,US,(513) 793-0900,,,,,,
Mitchell's Salon and Day Spa,,2692 Madison Rd ,,Cincinnati ,OH,45208,US,(513) 793-0900,,,,,,
Bellazio Salon and Day Spa,,101 East Alex Bell Rd ,,Dayton ,OH,45459,US,(937) 432-6722,,,,,,
Hairport,,189 Kentucky Avenue ,,Lexington ,KY,40502,US,(859) 259-0497,,,,,,
The Blowout Bar,,1378 Grandview Avenue ,,Columbus ,OH,43212,US,(614) 732-0965,,,,,,
Mukha Spa,,980 North High Street ,,Columbus ,OH,43201,US,(614) 294-7546,,,,,,
Off Broadway Salon,,1231 Magnolia Street ,,Bowling Green ,KY,42104,US,(270) 796-9014,,,,,,
Cheveux Salon,,7992 Aviation Drive ,,Marion ,IL,62959,US,(618) 998-9747,,,,,,
Tricho Salon & Spa,,470 Briarwood Circle Ann ,,Arbor ,MI,48108,US,(734) 214-3200,,,,,,
One One Nine,,119 W Washington St ,,Ann Arbor ,MI,48104,US,(734) 213-2400,,,,,,
Gwynne Mims Salon,,1620 Margaret St ,,Jacksonville ,FL,32204,US,(347) 546-8823,,,,,,
Zach and Isabelle,,138 Central Ave W ,,Blackshear ,GA,31516,US,(912) 449-8266,,,,,,
Sublime,,112 N Patterson St ,,Valdosta ,GA,31601,US,(229) 253-9566,,,,,,
Glo Hair Lounge,,5876 Red Bug Lake Road ,,Winter Springs ,FL,32708,US,(321) 422-0873,,,,,,
The Bay Street Salon & drybar,,811 Bay Street ,,Beaufort ,SC,29902,US,(843) 441-1627,,,,,,
Number 9 Salon,,321 10th Avenue North ,,Saint Petersburg ,FL,33701,US,(727) 822-6463,,,,,,
Tabula Rasa,,125 Cannon Steet ,,Charleston ,SC,29403,US,(843) 577-7595,,,,,,
Marmalade Salon and Boutique,,1927 South Osprey Avenue ,,Sarasota ,FL,34239,US,(941) 362-0276,,,,,,
The Valley Salon,,8317 Front Beach Road ,,Panama City Beach ,FL,32407,US,(850) 276-1339,,,,,,
project:STYLE salon and spa,,12115 Panama City Beach Pkwy ,,Panama City Beach ,FL,32407,US,(850) 276-3799,,,,,,
Pout Blow Dry and Beauty Bar,,2736 Devine Street ,,Columbia ,SC,29205,US,(803) 254-5051,,,,,,
The David K Space,,2401 North Dixie Highway ,,West Palm Beach ,FL,33407,US,(561) 340-6400,,,,,,
Palm Beach Beauty Lounge,,281 Royal Poinciana Way ,,Palm Beach ,FL,33480,US,(561) 835-4766,,,,,,
Brick Haus Salon,,2633 Herschel St ,,Jacksonville ,FL,32204,US,(904) 384-0411,,,,,,
MAC Hair Studio,,3831 Hendricks Avenue ,,Jacksonville ,FL,32207,US,(904) 399-2280,,,,,,
Cortello Hair Spa and Color Bar,,1086 3rd Street North ,,Jacksonville Beach ,FL,32250,US,(904) 853-6222,,,,,,
Ten A Sheila Powers Salon,,115 Professional Drive ,,Ponte Verde Beach ,FL,32082,US,(904) 285-7776,,,,,,
Bluemercury Apothecary and Spa,,310 Front Street ,,Ponte Vedra Beach ,FL,32082,US,(215) 569-3100,,,,,,
Trompe L'oeil Salon,,101 Marketside Avenue ,,Ponte Vedra ,FL,32081,US,(904) 543-1520,,,,,,
Uberzoot Hair Co.,,2465 Demere Road ,,Saint Simons Island ,GA,31522,US,(231) 343-2386,,,,,,
Danae Daniels Salon,,3603 Frederica Road ,,Saint Simons Island ,GA,31522,US,(912) 230-9638,,,,,,
Salon 119,,2725 Southwest 91st Street ,,Gainesville ,FL,32608,US,(352) 505-3819,,,,,,
Ideologie Salon,,1474 W Granada Blvd ,,Ormond Beach ,FL,32174,US,(386) 677-4656,,,,,,
Cameo's Salon & Spa,,3859 SE Lake Weir Ave ,,Ocala ,FL,34480,US,(352) 479-9999,,,,,,
Panacea Day Spa & Salon,,467 Wilma Street ,,Longwood ,FL,32750,US,(407) 332-8182,,,,,,
Stella Luca At Winter Park Village,,460 North Orlando Avenue ,,Orlando ,FL,32789,US,(407) 740-6711,,,,,,
Trend Studios,,119 North Orlando Avenue ,,Winter Park ,FL,32789,US,(407) 237-3213,,,,,,
Bluemercury Apothecary & Spa,,102 N. Park Avenue ,,Winter Park ,FL,32789,US,(202) 342-9800 x218,,,,,,
Bonne Vie a New York Salon,,157 East Morse Boulevard ,,Winter Park ,FL,32789,US,(407) 875-2525,,,,,,
Stella Luca Salon- West New England Avenue,,433 W New England Ave. ,,Winter Park ,FL,32789,US,(407) 740-7006,,,,,,
Lucia Benjamin Salon,,362 S Pennsylvania Ave ,,Winter Park ,FL,32789,US,(407) 622-2285,,,,,,
Dolce Vita Salon-Wp,,1286 Orange Avenue ,,Winter Park ,FL,32789,US,(407) 374-3333,,,,,,
Jem Hair Studio,,2211 Edgewater Drive ,,Orlando ,FL,32804,US,(407) 655-5533,,,,,,
Dolce Vita Salon,,801 North Orange Avenue ,,Orlando ,FL,32801,US,(407) 650-1811,,,,,,
B Street Salon,,418 East Broughton Street ,,Savannah ,GA,31401,US,(912) 443-0043,,,,,,
Bluemercury Apothecary and Spa,,110 Broughton Street ,,Savannah ,GA,31401,US,(203) 227-6900,,,,,,
Red Scarlet,,717 East Washington Street ,,Orlando ,FL,32801,US,(407) 246-5488,,,,,,
Rock Gorgeous Hair,,716 East Washington Street ,,Orlando ,FL,32801,US,(345) 925-2193,,,,,,
Atelier Hair Salon,,411 East Central Boulevard ,,Orlando ,FL,32801,US,(407) 583-9282,,,,,,
Trend Studios-Orlando,,101 South Garland Avenue ,,Orlando ,FL,32801,US,(407) 237-3213,,,,,,
Prive Salon,,4194 Conroy Road ,,Orlando ,FL,32839,US,(407) 355-9229,,,,,,
J. Christine Salon,,8014 Via Dellagio Way ,,Orlando ,FL,32819,US,(407) 370-0227,,,,,,
Xander Blue Salon,,7571 West Sand Lake Road ,,Orlando ,FL,32819,US,(407) 248-3480,,,,,,
Salon Karma,,12 State of Mind Street ,,Bluffton ,SC,29910,US,(843) 757-5762,,,,,,
House of Color Salon,,14 Oak Forest Road ,,Bluffton ,SC,29910,US,(843) 757-7516,,,,,,
Rebecca Black Salon,,3270 Suntree Boulevard ,,Melbourne ,FL,32940,US,(321) 543-6377,,,,,,
Haute Headz Salon,,1950 Thomasville Road ,,Tallahassee ,FL,32303,US,(850) 224-0414,,,,,,
The Styling Room,,3105 W Bay to Bay Blvd ,,Tampa ,FL,33629,US,(813) 464-0335,,,,,,
Primp,,4205 South MacDill Avenue ,,Tampa ,FL,33611,US,(813) 835-5600,,,,,,
Salon Gaboa,,812 S. Fort Harrison Ave. ,,Clearwater ,FL,33756,US,(727) 466-9598,,,,,,
Bluemercury Apothecary and Spa,,600 Freshfields Drive ,,Kiawah Island ,SC,29455,US,,,,,,,
Sasanqua Salon and Spa,,12 River Course Lane ,,Kiawah Island ,SC,29455,US,(843) 768-5725,,,,,,
Willow Salon James Island,,1739 Maybank Hwy ,,Charleston ,SC,29412,US,(843) 762-6400,,,,,,
Stella Nova,,2048 Sam Rittenberg Boulevard ,,Charleston ,SC,29407,US,(843) 766-6233,,,,,,
Gibson Hair and Makeup,,17 Princess Street ,,Charleston ,SC,29401,US,(843) 720-1611,,,,,,
Bluemercury Apothecary and SPA,,255 King Street ,,Charleston ,SC,29401,US,(843) 724-6767,,,,,,
Canvas Hair Color & Design,,436 King Street ,,Charleston ,SC,29403,US,(843) 727-1166,,,,,,
Royal Volume Salon,,334 East Bay Street ,,Charleston ,SC,29401,US,(843) 724-5002,,,,,,
Stox & Co. at the Boulevard,,725 Coleman Boulevard ,,Mount Pleasant ,SC,29464,US,(843) 884-7233,,,,,,
HauteDry,,3096 Cardinal Drive ,,Vero Beach ,FL,32963,US,(772) 999-5531,,,,,,
Park Place salon,,3001 Ocean Drive ,,Vero Beach ,FL,32963,US,(772) 231-2588,,,,,,
Elle 7 Twenty Salon,,2083 Indian River Boulevard ,,Vero Beach ,FL,32960,US,(772) 299-1570,,,,,,
Sur La Mer Salon,,1030 Easter Lily Lane ,,Vero Beach ,FL,32963,US,(772) 234-7670,,,,,,
Visage Salon,,612 Long Point Road Mount ,,Pleasant ,SC,29464,US,(843) 971-0222,,,,,,
Stella Nova,,1320 Theater Drive ,,Mount Pleasant ,SC,29464,US,(843) 884-3838,,,,,,
Cutting Loose Salon Lakewood Ranch,,5820 Ranch Lake Blvd ,,Lakewood Ranch ,FL,34202,US,(941) 404-7100,,,,,,
Mod Beaute Studio,,118 East Richardson Avenue ,,Summerville ,SC,29483,US,(843) 875-7525,,,,,,
Alexandria's Salon & Spa,,1031 Hwy 41 Mount ,,Pleasant ,SC,29466,US,(843) 881-6554,,,,,,
Cutting Loose Salon,,8429 Honore Avenue ,,University Park ,FL,34201,US,(941) 358-6000,,,,,,
Tricho Salon Sarasota,,140 University Town Center Drive ,,Sarasota ,FL,34243,US,(917) 767-6809,,,,,,
Amanda Jane Salon & Spa,,4420 Forsyth Rosd ,,Macon ,GA,31210,US,(478) 474-0355,,,,,,
Utopia Salon & Spa,,4581 Forsyth Road ,,Macon ,GA,31210,US,(478) 476-1960,,,,,,
Bluemercury Apothecary and Spa,,1500 Main Street ,,Sarasota ,FL,34236,US,,,,,,,
Amanda Vincent Hair Studio & Boutique,,252 S Links Avenue ,,Sarasota ,FL,34236,US,(941) 356-2037,,,,,,
The Met Fashion House Day Spa & Salon,,35 South Boulevard of the Presidents ,,Sarasota ,FL,34236,US,(941) 388-3991,,,,,,
Salon at Surrey,,351 Highland Avenue ,,Augusta ,GA,30909,US,(706) 364-1969,,,,,,
Hue Salon and Boutique,,231 Harrison Ave ,,Panama City ,FL,32401,US,(850) 763-0062,,,,,,
Salon 501,,1238 Broadway ,,Columbus ,GA,31901,US,(706) 940-0451,,,,,,
The Beauty Shop,,1701 Rollins Way ,,Columbus ,GA,31904,US,(706) 322-4157,,,,,,
Shine,,2912 Rosewood Drive ,,Columbia ,SC,29205,US,(803) 834-4313,,,,,,
Studio O2,,801 Gervais Street ,,Columbia ,SC,29201,US,(803) 667-9606,,,,,,
Metropolis Salon,,1218 Taylor Street ,,Columbia ,SC,29201,US,(803) 764-5738,,,,,,
The Blowzone,,110 Breakwater Court ,,Jupiter ,FL,33477,US,(561) 320-9195,,,,,,
Club at Admirals Cove,,200 Admirals Cove Blvd ,,Jupiter ,FL,33477,US,(561) 745-5895,,,,,,
Process. A Hair Salon,,3143 Forest Drive ,,Columbia ,SC,29204,US,(803) 563-5463,,,,,,
Trump National Golf Club,,115 Eagle Tree Terrace ,,Jupiter ,FL,33477,US,(561) 691-8706,,,,,,
Salon Twist,,4281 East County Highway 30A ,,Santa Rosa Beach ,FL,32459,US,(850) 231-7853,,,,,,
Salon Mikimoto,,5540 PGA Blvd. ,,Palm Beach Gardens ,FL,33418,US,(561) 799-3000,,,,,,
The Blow Zone PGA,,2578 PGA Boulevard ,,Palm Beach Gardens ,FL,33410,US,(561) 328-9018,,,,,,
Salon Luxe,,2000 PGA Boulevard ,,North Palm Beach ,FL,33408,US,(561) 630-0506,,,,,,
Rollands Beauty Bar and Art Gallery,,121 Quincy Circle ,,Santa Rosa Beach ,FL,32459,US,(850) 231-6085,,,,,,
Ambrosio Salon,,717 Northlake Boulevard ,,North Palm Beach ,FL,33408,US,(917) 675-1622,,,,,,
The Grove Salon,,50-2 Uptown Grayton Circle ,,Santa Rosa Beach ,FL,32459,US,(850) 231-0905,,,,,,
Salon dm3,,1059 Baxter Street ,,Athens ,GA,30606,US,(706) 613-3777,,,,,,
Dare La Vita,,3051 Frederick Road ,,Opelika ,AL,36801,US,(334) 745-8090,,,,,,
Lotus Hair Studio,,South Dixie Highway ,,West Palm Beach ,FL,33401,US,(561) 655-8004,,,,,,
Anushka Spa & Salon,,701 South Rosemary Avenue ,,West Palm Beach ,FL,33401,US,(561) 820-0500,,,,,,
Cosmo and Company,,2511 South Dixie Highway ,,West Palm Beach ,FL,33401,US,(561) 833-7411,,,,,,
Artistry salon and Spa,,23140 Fashion Drive ,,Estero ,FL,33928,US,(239) 949-9191,,,,,,
Trump Mar A Lago,,1100 South Ocean Boulevard ,,Palm Beach ,FL,33480,US,(561) 833-7167,,,,,,
Tease Salon,,411 Spruce Street ,,San Francisco ,CA,94118,US,(415) 340-3031,,,,,,
Edward's Salon,,655 Redwood Highway ,,Mill Valley ,CA,94941,US,(415) 381-1950,,,,,,
Miller and Mane,,45 Camino Alto ,,Mill Valley ,CA,94941,US,(415) 569-5000,,,,,,
Siren Salon,,703 San Anselmo Avenue ,,San Anselmo ,CA,94960,US,(415) 457-4736,,,,,,
Bluemercury apothecary and spa,,2060 Chestnut Street ,,San Francisco ,CA,94123,US,,,,,,,
Experience Salon,,36 Caledonia Street ,,Sausalito ,CA,94965,US,(415) 331-2798,,,,,,
D&O Salon,,800 Redwood Highway ,,Mill Valley ,CA,94941,US,(415) 389-8000,,,,,,
Showroom 383,,383 Miller Avenue ,,Mill Valley ,CA,94941,US,(415) 384-8440,,,,,,
diPietro Todd  - Mill Valley,,250 Camino Atlo ,,Mill Valley ,CA,94941,US,(415) 388-0250,,,,,,
Milvali Salon (Mill Valley),,3 East Blithedale Avenue ,,Mill Valley ,CA,94941,US,(415) 388-0988,,,,,,
Liberty,,74 Throckmorton Ave ,,Mill Valley ,CA,94941,US,(415) 380-8781,,,,,,
Fox and Stone Salon,,25 1st Street ,,Corte Madera ,CA,94925,US,(415) 927-7009,,,,,,
Plum Salon,,221 Corte Madera Avenue ,,Corte Madera ,CA,94925,US,(415) 927-1486,,,,,,
Space.N.K. Apothecary,,2011 Larkspur Landing Circle ,,Larkspur ,CA,94939,US,(415) 419-5904,,,,,,
MC23 Salon,,23 Ross Common suite 1 ,,Ross ,CA,94957,US,(415) 524-8851,,,,,,
Bilancio Salon,,1414 Fourth Street ,,San Rafael ,CA,94901,US,(415) 460-6300,,,,,,
Sproos Salon,,552 San Anselmo Ave ,,San Anselmo ,CA,94960,US,(415) 457-4900,,,,,,
The Pine,,410 Petaluma Blvd S. ,,Petaluma ,CA,94952,US,(707) 774-6034,,,,,,
Mockingbird Heights,,855 Lakeville Street ,,Petaluma ,CA,94952,US,(707) 775-3355,,,,,,
Structure Salon,,152 Kentucky Street ,,Petaluma ,CA,94952,US,(707) 776-4700,,,,,,
Kristin Maze Salon,,337 West Napa Street ,,Sonoma ,CA,95476,US,(707) 938-4648,,,,,,
B Salon + Bar,,68 South 12th Street ,,Pittsburgh ,PA,15203,US,(412) 904-1558,,,,,,
Marc Albert,,5417 Walnut Street ,,Pittsburgh ,PA,15232,US,(412) 352-6266,,,,,,
Serene Hair Studio & Spa,,158 Brickyard Road ,,Mars ,PA,16046,US,(724) 772-6070,,,,,,
Mystique Hair Studio,,6079 West Maple Road West ,,Bloomfield ,MI,48322,US,(248) 321-5783,,,,,,
Shear Shakti,,693 West King Street ,,Boone ,NC,28607,US,(828) 865-7425,,,,,,
Koi Salon,,7170 Fulton Dr NW ,,Canton ,OH,44718,US,(330) 832-7000,,,,,,
Dino Palmieri Salon,,3265 West Market Street ,,Summit ,OH,44333,US,(330) 865-1800,,,,,,
Dino Palmieri Salon,,236 Great Northern Mall ,,North Olmsted ,OH,44670,US,(440) 779-1600,,,,,,
Dino Palmieri Salon,,280 South Park Center Mall ,,Strongsville ,OH,44136,US,(440) 846-1444,,,,,,
Dante Lucci Salon,,2100 Center Road ,,Avon ,OH,44011,US,(440) 934-7727,,,,,,
Dino Palmieri,,257 Main Street ,,Westlake ,OH,44145,US,(440) 498-9411,,,,,,
Dante Lucci Salon,,19365 Detroit Road ,,Rocky River ,OH,44116,US,(440) 331-7222,,,,,,
Studio Wish Salon,,8922 Darrow Road ,,Twinsburg ,OH,44087,US,(330) 486-9474,,,,,,
La Carezza de Cielo Hair Studios,,151 Kruger St. ,,Wheeling ,WV,26003,US,(304) 243-5500,,,,,,
Studio Palmieri,,1388 W. 6th Street ,,Cleveland ,OH,44113,US,(216) 344-3200,,,,,,
Dino Palmieri Salon,,6025 Kruse Drive ,,Solon ,OH,44139,US,(440) 248-8810,,,,,,
Studio Taylor,,3463 Fairmount Boulevard ,,Cleveland Heights ,OH,44118,US,(216) 397-9643,,,,,,
Studio MZ,,27629 Chargin Boulevard ,,Woodmere ,OH,44122,US,(216) 464-3910,,,,,,
Bluemercury Apothecary and SPA,,28699 Chagrin Boulevard ,,Woodmere ,OH,44122,US,(212) 555-1212,,,,,,
Dino Palmieri Salon (Eton),,28699 Chagrin Boulevard ,,Woodmere Village ,OH,44122,US,(216) 464-7900,,,,,,
Gravity Hair Salon and Spa,,100 North Main Street ,,Chagrin Falls ,OH,44022,US,(440) 247-3535,,,,,,
Dino Palmieri Salon,,26300 Cedar Road ,,Beachwood ,OH,44122,US,(440) 498-9411,,,,,,
Palmieri Salon and Spa,,2101 Richmond Road ,,Beachwood ,OH,44122,US,(216) 765-1400,,,,,,
Glow Blotique Bar,,541 Beaver Street ,,Sewickley ,PA,15143,US,(412) 860-0986,,,,,,
Posh Pittsburgh,,1725 Washington Road ,,Pittsburgh ,PA,15241,US,(412) 833-6636,,,,,,
be.salon,,633 Washington Road ,,Pittsburgh ,PA,15228,US,(412) 343-0100,,,,,,
Bespoke Beauty Bar,,11530 Perry Highway ,,Wexford ,PA,15090,US,(724) 719-2559,,,,,,
Isle of You Hair Color Studios,,3000 Village Run Drive ,,Wexford ,PA,15090,US,(724) 799-8719,,,,,,
SOGNATORE SALON & SPA,,1100 Liberty Avenue ,,Pittsburgh ,PA,15222,US,(412) 391-1181,,,,,,
Destefino Beauty Bar,,2751 Sidney Street ,,Pittsburgh ,PA,15203,US,(412) 488-4418,,,,,,
The Zealous Root,,15011 Kercheval Avenue ,,Grosse Pointe Park Ave ,MI,48230,US,(313) 290-2018,,,,,,
Spa Roma,,170 Lakeview Drive ,,Morgantown ,WV,26508,US,(304) 594-9782,,,,,,
Girlie Girl,,19838 Mack Avenue ,,Grosse Pointe Woods ,MI,48236,US,(313) 881-4475,,,,,,
Edwin Paul Salon,,20327 Mack Avenue ,,Grosse Pointe ,MI,48236,US,(313) 885-9001,,,,,,
P. La Salon,,1041 South Main Street ,,Royal Oak ,MI,48073,US,(248) 565-4664,,,,,,
Tricho Salon & Spa (Royal Oak),,400 South Washington Avenue ,,Royal Oak ,MI,48067,US,(248) 543-4266,,,,,,
Bianchi's Salon of Royal Oak,,723 North Main Street ,,Royal Oak ,MI,48067,US,(248) 545-6000,,,,,,
Salon Freda,,41460 Grand River Avenue ,,Novi ,MI,48375,US,(248) 344-1900,,,,,,
Tricho Salon & Spa,,27194 Novi Road ,,Novi ,MI,48577,US,(248) 305-9111,,,,,,
Tricho Salon & Spa West,,27854 Novi Road ,,Novi ,MI,48377,US,(248) 722-3499,,,,,,
Artisan Colour Spa Salon,,202 Blue Spruce Way ,,Murrysville ,PA,15668,US,(724) 733-3900,,,,,,
Azenza Salon & Spa,,130 West 14 Mile Road ,,Birmingham ,MI,48009,US,(248) 594-6600,,,,,,
Blush Salon,,39590 W. 14 Mile Road ,,Commerce ,MI,48390,US,(248) 960-7499,,,,,,
Escova Salon,,387 South Old Woodward Avenue ,,Birmingham ,MI,48009,US,(248) 647-1111,,,,,,
Antonino Salon and Spa,,191 Townsend Street ,,Birmingham ,MI,48009,US,(248) 258-5990,,,,,,
Beauty Collective,,256 South Eton ,,Birmingham ,MI,48009,US,(248) 792-6563,,,,,,
Nude The Salon,,245 Hamilton Row ,,Birmingham ,MI,48009,US,(248) 642-1300,,,,,,
Salon H2O2,,383 Hamilton Row ,,Birmingham ,MI,48009,US,(248) 723-7250,,,,,,
Bianchi's Salon of Birmingham,,270 North Old Woodward Avenue ,,Birmingham ,MI,48009,US,(586) 263-7575,,,,,,
Pure Hair,,3655 West Maple Road ,,Bloomfield Township ,MI,48301,US,(248) 792-3146,,,,,,
Luigi Bruni,,706 North Old Woodward Avenue ,,Birmingham ,MI,48009,US,(248) 723-1500,,,,,,
The Beauty Lounge,,6381-A Orchard Lake Road West ,,Bloomfield ,MI,48322,US,(248) 538-3000,,,,,,
Lance Vincent Salon,,888 West Big Beaver ,,Troy ,MI,48084,US,(248) 824-6764,,,,,,
Bianchi's Salon of Troy,,1889 Big Beaver Road ,,Troy ,MI,48083,US,(248) 619-0100,,,,,,
Bashar Salon,,340 Hamilton Row ,,Birmingham ,MI,48009,US,(248) 649-5900,,,,,,
Tricho Salon & Spa (Somerset),,2800 West Big Beaver Road ,,Troy ,MI,48084,US,(248) 781-0007,,,,,,
Luminous Salon and Spa,,9740 Village Place Boulevard ,,Brighton ,MI,48116,US,(810) 355-6614,,,,,,
Bianchi's Salon and Spa (Clinton Twp),,16650 18 Mile Road ,,Clinton Township ,MI,48038,US,(586) 263-7575,,,,,,
Blo Salon,,45318 Market Street ,,Shelby Township ,MI,48315,US,(586) 566-7700,,,,,,
Andrew Marke Salon (Macomb),,21493 21 Mile Road ,,Macomb ,MI,48044,US,(586) 948-8200,,,,,,
Andrew Marke Salon,,6838 B. North Rochester Road ,,Rochester ,MI,48306,US,(248) 601-8808,,,,,,
Salon 416,,134 North Leroy Street ,,Fenton ,MI,48430,US,(810) 354-8602,,,,,,
Le Rouge Salon + Beauty Bar,,12830 S. Saginaw St. ,,Grand Blanc ,MI,48439,US,(810) 603-0123,,,,,,
Panache Salon & Spa,,2501 West 12th Street ,,Erie ,PA,16505,US,(814) 838-3333,,,,,,
The Parq,,162 Park Street ,,Abingdon ,VA,24210,US,(276) 525-4884,,,,,,
Ekskluziv Salon,,123 Kirk Ave Sw ,,Roanoke ,VA,24011,US,(540) 581-4690,,,,,,
Heaven the Salon,,650 Cedar Creek ,,Grade Winchester ,VA,22601,US,(540) 535-0888,,,,,,
Sage Tryall Salon,,1300 Wards Ferry Road ,,Lynchburg ,VA,24502,US,(434) 239-4454,,,,,,
Planet 21 Salon- The Arlington,,325 Arlington Avenue ,,Charlotte ,NC,28203,US,(704) 334-8480,,,,,,
Planet 21 Salon- The Fountains,,8031 Ardrey Kell Road ,,Charlotte ,NC,28277,US,(704) 847-1559,,,,,,
Tim Smith Salon,,268 West Evans Street ,,Florence ,SC,29501,US,(843) 468-1982,,,,,,
Ceremony Salon,,370 East Main Street ,,Carrboro ,NC,27510,US,(919) 260-4851,,,,,,
Alter Ego,,119 E Hargett Street ,,Raleigh ,NC,27601,US,(919) 832-6239,,,,,,
Mark Christopher Salon,,509 W Whitaker Mill Rd ,,Raleigh ,NC,27608,US,(919) 239-4383,,,,,,
Warren Scott,,103 Andrew Court ,,Wakeforrest ,NC,27587,US,(919) 870-0120,,,,,,
Brush Dry Bar,,7205 Wrightsville Avenue ,,Wilmington ,NC,28403,US,(910) 471-0867,,,,,,
Colour Bar Salon,,5732 Oleander Drive ,,Wilmington ,NC,28403,US,(910) 769-1592,,,,,,
Beauty Bar Boutique,,1125 Military Cutoff Road ,,Wilmington ,NC,28405,US,(910) 256-5757,,,,,,
Belle De Jour,,5290 Roswell Road NE ,,Atlanta ,GA,30342,US,(404) 250-9100,,,,,,
Blonde,,3165 East Shadowlawn Avenue NE ,,Atlanta ,GA,30305,US,(404) 869-0900,,,,,,
David Ross Salon,,2115 Southend Drive ,,Charlotte ,NC,28203,US,(704) 332-4414,,,,,,
New Creations Salon,,101 South Tyrone ,,Charlotte ,NC,28280,US,(704) 333-2129,,,,,,
Woo Skincare and Cosmetics,,2900 A Selwyn Avenue ,,Charlotte ,NC,28209,US,(704) 333-0443,,,,,,
8 the Salon,,4310 Sharon Road ,,Charlotte ,NC,28211,US,(704) 366-0858,,,,,,
Planet 21 Salon- The Arboretum,,8040 Providence Road ,,Charlotte ,NC,28277,US,(704) 543-1083,,,,,,
Salon M2,,8430 Rea Road ,,Charlotte ,NC,28277,US,(704) 258-6996,,,,,,
Bluemercury Apothecary and Spa,,9830 Rea Road ,,Charlotte ,NC,28277,US,,,,,,,
Salon Couture,,126 Town Center Dr ,,Mooresville ,NC,28117,US,(704) 941-1458,,,,,,
Alkali Hair Studio,,301 Brookstown Avenue ,,Winston Salem ,NC,27101,US,(336) 724-1453,,,,,,
The Worx Hair Salon,,1017 Bethania Rural Hall Road ,,Rural Hall ,NC,27045,US,(336) 969-2817,,,,,,
Bamboo a Boutique Salon,,120 West Pennsylvania Avenue ,,Southern Pines ,NC,28387,US,(910) 695-3376,,,,,,
Fire Salon - Greensboro,,320A South Elm Street ,,Greensboro ,NC,27401,US,(336) 645-8711,,,,,,
Chakras Salon,,229 South Elm Street ,,Greensboro ,NC,27401,US,(336) 272-0862,,,,,,
Tangles Hair Studio,,2623 Lawndale Drive ,,Greensboro ,NC,27455,US,(336) 282-4567,,,,,,
Salon Adelle,,10 Davis Keats Drive ,,Greenville ,SC,29607,US,(864) 787-6668,,,,,,
Megan Diez Salon,,100 East Stone Avenue ,,Greenville ,SC,29609,US,(864) 271-4503,,,,,,
Wilson's on Washington,,794 East Washington Street ,,Greenville ,SC,29601,US,(864) 235-3336,,,,,,
Bluemercury Apothecary and Spa,,131 N. Main Street ,,Greenville ,SC,29601,US,,,,,,,
Christopher Ashley Salon,,101-B West Court Street ,,Greenville ,SC,29601,US,(864) 242-0777,,,,,,
Brush It Off Salon & Boutique,,146 3rd Avenue. West ,,Hendersonville ,NC,28792,US,(828) 595-9449,,,,,,
Fire Salon and Spa,,3156 Walden Lane ,,Burlington ,NC,27215,US,(336) 584-9333,,,,,,
Hair Refinery,,2438 Tribek Court ,,Burlington ,NC,27215,US,(336) 266-2324,,,,,,
Cheveux,,8 Town Square Boulevard ,,Asheville ,NC,28803,US,(828) 676-1760,,,,,,
Wink Salon,,18 Brook Street ,,Asheville ,NC,28803,US,(828) 277-4070,,,,,,
The Clip Joint Salon,,132 Kinlaw Road ,,Fayetteville ,NC,28311,US,(910) 822-4440,,,,,,
Vent Salon,,1125 West North Carolina 54 ,,Durham ,NC,27707,US,(919) 403-8368,,,,,,
Atmosp'hair Salon,,1125 West NC Highway 54 ,,Durham ,NC,27707,US,(919) 641-6155,,,,,,
J & F Gemelli Salon-Cary Park,,10120 Green Level Church Road ,,Cary ,NC,27519,US,(919) 463-5599,,,,,,
Salon Povera,,105 W. Highway 54 ,,Durham ,NC,27713,US,(919) 864-8938,,,,,,
EnV Salon Color Bar,,219 North Salem Street ,,Apex ,NC,27502,US,(919) 303-1592,,,,,,
J&F Gemelli (Stonecreek),,113 Ledgestone Way ,,Cary ,NC,27519,US,(919) 380-1700,,,,,,
Culture Hair Studio,,211 North Church Street ,,Durham ,NC,27701,US,(828) 458-3273,,,,,,
Bacio-Salon,,8020 Creedmoor Road ,,Raleigh ,NC,27613,US,(919) 870-0004,,,,,,
Samuel Cole Salon,,8511 Colonnade Center Drive ,,Raleigh ,NC,27615,US,(919) 845-0098,,,,,,
Mirror Dance Hair Design,,127 Highlands Road ,,Franklin ,NC,28734,US,(828) 369-1999,,,,,,
Bangz Hair Salon & Spa,,1203 S 43rd Street ,,Wilmington ,NC,28403,US,(910) 452-4247,,,,,,
Brush Salon,,5329 Oleander Drive ,,Wilmington ,NC,28403,US,(910) 392-2220,,,,,,
Salon Aquarius,,5508 Kingston Pike ,,Knoxville ,TN,37919,US,(865) 200-4643,,,,,,
Pure Luxe,,10780 Hardin Valley Road ,,Knoxville ,TN,37932,US,(865) 474-7873,,,,,,
Salon Encore,,1790 Peachtree Parkway ,,Cumming ,GA,30041,US,(678) 341-9412,,,,,,
Rumm Color Studio,,5815 Winward Parkway ,,Alpharetta ,GA,30005,US,(770) 817-7866,,,,,,
M Salon & Spa,,12850 Highway 9 N ,,Alpharetta ,GA,30004,US,(678) 297-1800,,,,,,
Lumiere Salon de Beaute,,735 N Main Street ,,Alpharetta ,GA,30009,US,(470) 282-5262,,,,,,
The Cosmetic Market Avalon,,3130 Avalon Blvd ,,Alpharetta ,GA,30009,US,(678) 894-4012,,,,,,
Michele Coulter Salon,,12650 Crabapple Road ,,Milton ,GA,30004,US,(404) 261-2212,,,,,,
Salon Arcaro,,1055 Canton Street ,,Roswell ,GA,30075,US,(770) 645-0811,,,,,,
Salon Red,,804 Town Boulevard ,,Atlanta ,GA,30319,US,(404) 373-2003,,,,,,
Neiman Marcus,,3393 Peachtree Road NE ,,Atlanta ,GA,30326,US,(404) 266-8200,,,,,,
Skanda Salon,,3324 Peachtree Road ,,Atlanta ,GA,30326,US,(678) 705-1052,,,,,,
Baker Lanier Salon & Day Spa,,2983 Hardman Court ,,Atlanta ,GA,30305,US,(404) 266-9054,,,,,,
GlowDry,,3722 Roswell Road Northeast ,,Atlanta ,GA,30342,US,(404) 549-8007,,,,,,
Vis a Vis Salon,,327 Buckhead Avenue Northeast ,,Atlanta ,GA,30305,US,(404) 266-3320,,,,,,
Steve Hightower Salon,,646 Lindbergh Way NE ,,Atlanta ,GA,30324,US,(404) 264-9006,,,,,,
Artistry,,260 Pharr Road ,,Atlanta ,GA,30305,US,(404) 261-0404,,,,,,
Bluemercury Apothecary and SPA,,37 West Paces Ferry NW ,,Atlanta ,GA,30305,US,(202) 342-9800,,,,,,
Salon Red,,1642 Dekalb Avenue ,,Atlanta ,GA,30307,US,(404) 373-2868,,,,,,
Cortex Hair Studio- The Highlands,,1177 Virginia Avenue Northeast ,,Atlanta ,GA,30306,US,(404) 874-6913,,,,,,
Tracy B Hair Studio,,365 Peachtree Hills Ave ,,Atlanta ,GA,30305,US,(404) 233-1400,,,,,,
Trichology Salon,,14101 North May Ave ,,Oklahoma City ,OK,73134,US,(405) 302-6499,,,,,,
Cottonwood Salon Spa,,35 East 33rd Street ,,Edmond ,OK,73013,US,(405) 340-1700,,,,,,
Giardino Lifestyle Salon: Education Centre,,30 Macdonnell Street ,,Guelph ,ON,N1H 2Z3,CA,(613) 492-6000 Ext.,,,,,,
Euphoria 158 Hair Boutique,,158 Macnab St. ,,Hamilton ,ON,L8R 2M3,CA,(289) 339-0998 Ext.,,,,,,
The Studio,,795 Brant St. ,,Burlington ,ON,L7R 2J3,CA,(905) 631-0809 Ext.,,,,,,
Salon Estilo,,48 Main St S ,,Halton Hills ,ON,L7G 3G4,CA,289-891-6227,,,,,,
Art Hair color Studio & Spa,,10 Second Street L9W 2BE ,,Toronto ,Ontario,L9W 2BE,CA,(647) 350-8278,,,,,,
Blueberry Salon & Spa,,1525 Cornwall Road Unit # 24 ,,Oakville ,ON,L6J 0B2,CA,(905) 845-0700 Ext.,,,,,,
Mako,,20 Queen St E L6V 1A2 ,,Brampton ,ON,L6V 1A2,CA,905-460-0500,,,,,,
Agostino and company Hair studio,,3-130 QUEEN ST ,,EAST Brampton ,ON,L6V 1B1,CA,(905) 451-2334 Ext.,,,,,,
Lorenzo Salon,,1148 Birchview Drive ,,Toronto Ontario ,Ontario,L5H 3C8,CA,(905) 278-7511 Ext.,,,,,,
Metropolis Hair Studio,,40 Innovation Drive ,,Vaughan ,ON,L4H 0T2,CA,(905) 856-1001 Ext.,,,,,,
The HairCrew,,3883 Highway 7 ,,Vaughan ,ON,L4L 8C3,CA,(905) 850-7525 Ext.,,,,,,
Renaissance Salon and Estetica,,169 Ontario St. ,,Saint Catharines ,ON,L2R 5K2,CA,(905) 684-6000 Ext.,,,,,,
Nine Zero Five Salon,,48 Lake St. ,,Saint Catharines ,ON,L2R 5X1,CA,(905) 941-0606 Ext.,,,,,,
Scarlett O'Hair Inc.,,322 Scarlett Road ,,Toronto ,Toronto,ON M9A,CA,(416) 968-1300 Ext.,,,,,,
Evoke Salon,,2253 Bloor St. ,,W Toronto ,ON,M6S 1N8,CA,(416) 473-1079 Ext.,,,,,,
Salon Armando Frasca & Co,,3082 DUNDAS STRET WEST ,,Toronto ,ON,M6P 1Z8,CA,(416) 769-4367 Ext.,,,,,,
Salon Shyne,,129 Rountree Dairy Rd. ,,Vaughan ,ON,L4L 6C9,CA,(905) 264-7806 Ext.,,,,,,
Grateful Head Inc.,,231 Roncesvalles Ave ,,Toronto ,ON,M6R 2L6,CA,(416) 915-4323 Ext.,,,,,,
Babs + Lou Inc.,,2437 Dundas St. ,,W Toronto ,ON,M6P 1X3,CA,(416) 531-2977 Ext.,,,,,,
Dean Delmonte & Company,,1099 st. Clarens ave ,,Toronto ,ON,M6H 3X8,CA,(416) 368-3774 Ext.,,,,,,
Jacob and Sebastian,,622 Queen St. M6J 1E4 ,,W Toronto ,ON,M6J 1E4,CA,(647) 345-0478 Ext.,,,,,,
David Hillis salon & spa,,104 Hume St. ,,Collingwood ,ON,L9Y 1V5,CA,(705) 293-3388 Ext.,,,,,,
Donato Yorkdale,,3401 Dufferin Street ,,Toronto ,ON,M6A 2T9,CA,416-789-4332,,,,,,
Space.NK @ Nordstrom Yorkdale Centre,,3401 Dufferin Street ,,Toronto ,ON,M6A 2T9,CA,(212) 941-4231,,,,,,
Upper Village Spa,,1112 Eglington Avenue M6C 2E2 ,,West Toronto ,ON,M6C 2E2,CA,(416) 782-1539 Ext.,,,,,,
Disegno Salon,,# 2 216 HEATH ST. ,,WEST Toronto ,ON,M5P 1N7,CA,(416) 961-5323 Ext.,,,,,,
Stefanie Terzo,,890 Sheppard Ave unit 504 ,,Toronto ,ON,M3H 2T5,CA,(647) 206-4367 Ext.,,,,,,
The Salon By Lora Brown,,3901 Bell Street ,,Amarillo ,TX,79109,US,(806) 352-8688,,,,,,
J. Gregory Salon,,1701 S. Tejon St. ,,Colorado Springs ,CO,80905,US,,,,,,,
Sway Salon,,55 East 1st Avenue ,,Denver ,CO,80203,US,(303) 744-0448,,,,,,
Ana's Hair Salon,,5860 North Mesa Street ,,El Paso ,TX,79912,US,(915) 845-2887,,,,,,
Urban Glo Blow Dry Bar,,3415 North Loop 250 West ,,Midland ,TX,79707,US,(432) 210-9968,,,,,,
Chrysalis Salon & Beauty Store,,1512 Paseo De Peralta ,,Santa Fe ,NM,87501,US,(505) 983-8774,,,,,,
M Salon,,205 South Mill Street ,,Aspen ,CO,81611,US,(970) 925-3605,,,,,,
Salon Tullio,,208 East Main Street ,,Aspen ,CO,81611,US,(970) 925-7201,,,,,,
Wisp Hair Salon,,18575 Stage Run Road ,,Parker ,CO,80134,US,(303) 840-7384,,,,,,
Blue Mist Salon,,10047 Park Meadows Drive ,,Lone Tree ,CO,80124,US,(303) 799-6343,,,,,,
Skye Salon and Spa,,8253 South Quebec Street ,,Centennial ,CO,80112,US,,,,,,,
Posh The Salon,,2703 E. Louisiana Ave. ,,Denver ,CO,80210,US,(303) 333-3750,,,,,,
Vito Pini Salon Boutique Spa at Belmar,,430 South Teller Street ,,Lakewood ,CO,80226,US,(303) 990-5112,,,,,,
Flirt Salon,,1039 South Gaylord Street ,,Denver ,CO,80209,US,(720) 570-3540,,,,,,
Blondies the Beauty Shop,,763 South University Blvd. ,,Denver ,CO,80209,US,(303) 377-5313,,,,,,
Bang Salon - Wash Park,,1207 East Alameda Avenue ,,Denver ,CO,80209,US,(303) 282-5444,,,,,,
Tonto Hair Salon,,5075 Leetsdale Drive ,,Denver ,CO,80246,US,(720) 941-9800,,,,,,
The Look Hair Salon & Beauty Boutique,,75 South Madison St. ,,Denver ,CO,80209,US,(303) 322-4902,,,,,,
SoCo Salon and Spa,,231 Milwaukee St ,,Denver ,CO,80206,US,(303) 524-9313,,,,,,
Tolga Taskin Salon,,2708 East 3rd Avenue ,,Denver ,CO,80206,US,(303) 399-8999,,,,,,
Salon 387,,387 South Main Street ,,Memphis ,TN,38103,US,(901) 275-5245,,,,,,
Eden Medical Spa and Boutique,,2235 S Caraway RD ,,Jonesboro ,AR,72401,US,(870) 931-3223,,,,,,
Salon Scarlet,,11525 Cantrell Road ,,Little Rock ,AR,72212,US,(501) 221-1191,,,,,,
WheelHouse Salon,,2904 Linden Avenue ,,Homewood ,AL,35209,US,(205) 582-2083,,,,,,
Salon 2412,,2412 Canterbury Road ,,Mountain Brook ,AL,35223,US,(205) 414-7854,,,,,,
Harbuck Salon,,4135 Autumn Lane ,,Birmingham ,AL,35243,US,(917) 749-3928,,,,,,
Salon 43 One,,5291 Valleydale Road ,,Birmingham ,AL,35242,US,(205) 968-1620,,,,,,
B L O N D E,,1204 East Joyce Road ,,Fayetteville ,AR,72703,US,(479) 249-8880,,,,,,
Salon Euphoria,,2503 Main Drive ,,Fayetteville ,AR,72704,US,(479) 966-4444,,,,,,
Urban Bleu,,113 West Elm Street ,,Rogers ,AR,72756,US,(479) 246-9986,,,,,,
B.Lush Salon,,5100 West Pauline Whitaker Pkwy ,,Rogers ,AR,72758,US,(479) 799-5056,,,,,,
J. Renee Color Studio,,109 Crestwood Boulevard ,,Covington ,LA,70433,US,(985) 507-2241,,,,,,
Arthur Clarence Salon,,1512 Howell Mill Road ,,Atlanta ,GA,30318,US,(678) 793-0066,,,,,,
Evolve Galleries,,7638 Old Hammond Highway ,,Baton Rouge ,LA,70809,US,(225) 288-2315,,,,,,
Gould's Day Spa and Salon,,3400 Poplar Avenue ,,Memphis ,TN,38111,US,(901) 323-8594,,,,,,
Capelli Inc.,,4615 Poplar Avenue ,,Memphis ,TN,38117,US,(901) 767-5066,,,,,,
Daniel Shay's A Hair Studio,,420 South Germantown Parkway ,,Cordova ,TN,38018,US,(901) 309-0330,,,,,,
Gould's Day Spa and Salon,,7850 Poplar Avenue ,,Germantown ,TN,38138,US,(901) 754-2880,,,,,,
High Maintenance Salon,,7040 Windstone Blvd ,,Olive Branch ,MS,38654,US,(662) 890-9501,,,,,,
Richard & Co Salon,,2150 W. Poplar Ave. ,,Collierville ,TN,38017,US,(901) 861-1414,,,,,,
Bella Mia Salon,,1112 North Lamar ,,Oxford ,MS,38655,US,(228) 493-5231,,,,,,
La Rousse Salon & Spa,,1006 Jefferson Avenue ,,Oxford ,MS,38655,US,(662) 281-0548,,,,,,
Bouffant Salon and Spa,,1004 Commonwealth Blvd ,,Tupelo ,MS,38804,US,(662) 205-4683,,,,,,
Fringe (Benefits) Salon,,5600 Kavanaugh Boulevard ,,Little Rock ,AR,72207,US,(501) 664-1515,,,,,,
Red Beauty Lounge,,1923 North University Avenue ,,Little Rock ,AR,72207,US,(501) 664-4733,,,,,,
Studio 2121,,8214 Cantrell Road ,,Little Rock ,AR,72227,US,(501) 219-1086,,,,,,
The Cosmetic Market- Cool Springs,,545 Cool Springs Blvd ,,Franklin ,TN,37067,US,(615) 778-9115,,,,,,
Aqua The Day Spa,,1000 Highland Colony Parkway ,,Ridgeland ,MS,39157,US,(601) 898-9123,,,,,,
Salon P'Nash,,91 Seaboard Lane ,,Brentwood ,TN,37027,US,(615) 377-6700,,,,,,
WaterColor Salon,,115 West Jackson Street ,,Ridgeland ,MS,39157,US,(601) 605-4448,,,,,,
LW Boutique Salon,,625 Bakers Bridge Avenue ,,Franklin ,TN,37067,US,(615) 585-7845,,,,,,
A Moments Peace Salon & Day Spa,,9050 Carothers Parkway ,,Franklin ,TN,37067,US,(615) 224-0770,,,,,,
Gloss,,733 Lake Harbour Drive ,,Ridgeland ,MS,39157,US,(601) 951-0021,,,,,,
Harper and Olive,,4239 Harding Pike ,,Nashville ,TN,37205,US,(615) 292-4407,,,,,,
Parlour 3 Beauty,,144 B Franklin Road ,,Brentwood ,TN,37027,US,(615) 942-9020,,,,,,
The Cosmetic Market,,4015 Hillsboro Pike ,,Nashville ,TN,37215,US,(615) 298-7759,,,,,,
Absolution,,4015 Hillsboro Pike ,,Nashville ,TN,37215,US,(423) 779-1377,,,,,,
Woo Skincare & Cosmetics,,2154 Bandywood Drive ,,Nashville ,TN,37215,US,(615) 383-2170,,,,,,
Private Edition,,4009 Hillsboro Pike ,,Nashville ,TN,37215,US,(615) 292-8606,,,,,,
Trim Classic Barber & Legendary Beauty,,2315 12th Avenue South ,,Nashville ,TN,37204,US,(615) 269-8029,,,,,,
Watercolor at the Brock,,1220 East North Side Drive ,,Jackson ,MS,39211,US,(601) 366-9343,,,,,,
CRAFT Hair Co.,,1008 16th Avenue South ,,Nashville ,TN,37212,US,(423) 341-6616,,,,,,
Salon Nfuse,,2535 8th Avenue South ,,Nashville ,TN,37204,US,(615) 649-0501,,,,,,
Sage Salon & Color Bar,,4450 Old Canton Road ,,Jackson ,MS,39211,US,(601) 487-0368,,,,,,
Osho Collective,,2309 Grandview Avenue ,,Nashville ,TN,37211,US,(615) 212-9552,,,,,,
The Yellow House Salon,,1104 Forrest Avenue ,,Nashville ,TN,37206,US,(615) 209-8086,,,,,,
Local Honey,,519 Gallatin Avenue ,,Nashville ,TN,37206,US,(615) 915-1354,,,,,,
The Cosmetic Market,,218 Opry Mills Drive ,,Nashville ,TN,37214,US,(615) 515-8444,,,,,,
Rouge Boutique Salon,,1517 Washington St. ,,Vicksburg ,MS,39180,US,(318) 341-0925,,,,,,
The Collective,,2829 2nd Ave S ,,Birmingham ,AL,35233,US,(205) 253-1408,,,,,,
Gus Mayer,,225 Summit Blvd ,,Birmingham ,AL,35243,US,(205) 870-3300,,,,,,
Rain the Salon and Day Spa,,407 DeSiard Street ,,Monroe ,LA,71201,US,(318) 651-8088,,,,,,
W3 Salon,,1616 East Republic Road ,,Springfield ,MO,65804,US,(417) 889-9453,,,,,,
Karma Salon,,3046 South Kimbrough ,,Springfield ,MO,65807,US,(417) 887-0005,,,,,,
Illusions Color Spa,,4579 Chestnut Park Plaza ,,Saint Louis ,MO,63129,US,(314) 845-0118,,,,,,
Govero Salon - Des Peres,,11668 Manchester Road ,,Des Peres ,MO,63131,US,(314) 966-3233,,,,,,
Christina White Salon,,1238 Strassner Drive ,,Brentwood ,MO,63144,US,(314) 380-4508,,,,,,
Salon Joli & Spa,,333 Ozark Trail Dr ,,Ballwin ,MO,63146,US,(636) 386-5654,,,,,,
Neiman Marcus,,100 Plaza Frontenac ,,St. Louis ,MO,63131,US,(314) 567-9811,,,,,,
Preston Salon Spa,,525 South Hanley Road ,,St. Louis ,MO,63105,US,(314) 727-0007,,,,,,
Govero Salons,,8111 Maryland Avenue ,,Clayton ,MO,63105,US,(314) 565-9468,,,,,,
LUXE,,339 North West Avenue ,,Fayetteville ,AR,72701,US,(479) 582-3800,,,,,,
Freshair Salon,,210 W. Sunbridge ,,Fayetteville ,AR,72703,US,(479) 251-1877,,,,,,
Salon H. Ross,,203 W. Wood Street ,,Rogers ,AR,72756,US,(479) 372-6518,,,,,,
Gorilla Salon,,1143 N.W. J Street ,,Bentonville ,AR,72712,US,(479) 273-5531,,,,,,
Rock Paper Scissors Salon,,616 North Market Street ,,Chattanooga ,TN,37415,US,(423) 280-0558,,,,,,
The Cosmetic Market,,1110 Market Street ,,Chattanooga ,TN,37402,US,(423) 779-1377,,,,,,
Salon 30-A,,328 East ML King Boulevard ,,Chattanooga ,TN,37403,US,(423) 752-2700,,,,,,
Hair Benders Internationale,,1615 Gunbarrel Road ,,Chattanooga ,TN,37411,US,(423) 894-2973,,,,,,
Dyer & Posta,,600 Chastain Road Ste. 312 ,,Kennesaw ,GA,30144,US,(770) 514-1620,,,,,,
StudioPH,,60 Springdale Boulevard ,,Mobile ,AL,36606,US,(251) 219-4955,,,,,,
Woo Skincare and Cosmetics (ATL),,3509 Northside Parkway ,,NortWest Atlanta ,GA,30327,US,(404) 869-0300,,,,,,
Keri Gold Salon,,1258 West Paces Ferry Road ,,Atlanta ,GA,30327,US,(404) 990-3200,,,,,,
SWAY SALON BOUTIQUE,,1896 Popps Ferry Rd. ,,Biloxi ,MS,39532,US,(228) 392-9188,,,,,,
BLOWN by Oliv Arￃﾩs Haus of Glam,,1765 Popps Ferry Road ,,Biloxi ,MS,39532,US,(228) 273-1254,,,,,,
Salon Eden,,7450 Jefferson Highway ,,Baton Rouge ,LA,70806,US,(225) 925-1101,,,,,,
Nadia's Studio,,161 Mangum Street Southwest Suite 103 ,,Atlanta ,GA,30313,US,(404) 527-5777,,,,,,
J'Anna Bergmann Hair Salon,,446 Courthouse Rd ,,Gulfport ,MS,39507,US,(228) 896-5757,,,,,,
Coupe Rokei,,1923 1st Avenue ,,Seattle ,WA,98101,US,(206) 443-4646,,,,,,
Joe Bae Salon,,136 102nd Ave SE ,,Bellevue ,WA,98004,US,(425) 519-9951,,,,,,
Obadiah Salon,,10500 NE 8th St ,,Bellevue ,WA,98004,US,(425) 646-3666,,,,,,
Winslow Salon,,118 Central Way ,,Kirkland ,WA,98033,US,(425) 629-3686,,,,,,
Obadiah- Kirkland,,345 Kirkland Ave ,,Kirkland ,WA,98033,US,(425) 646-3666,,,,,,
Blueprint Modern Hair,,535 NE Couch Street ,,Portland ,OR,97232,US,(503) 764-9663,,,,,,
Salon 202,,6637 Southeast Milwaukee Avenue ,,Portland ,OR,97202,US,(971) 221-0231,,,,,,
Charbon Salon,,1823 Terry Avenue ,,Seattle ,WA,98101,US,(206) 755-0179,,,,,,
Robert Leonard Salon and Day Spa,,2033 6th Avenue ,,Seattle ,WA,98121,US,(206) 441-9900,,,,,,
Gene Juarez Salon and Day Spa - Downtown,,607 Pine Street ,,Seattle ,WA,98101,US,(206) 326-6000,,,,,,
Bocz Salon,,1523 6th Avenue ,,Seattle ,WA,98101,US,(206) 624-9134,,,,,,
Salon Refine,,900 Lenora Street ,,Seattle ,WA,98121,US,(206) 588-1062,,,,,,
Collage Salon,,2217 5th Avenue ,,Seattle ,WA,98121,US,(206) 441-4247,,,,,,
Collage on First,,2217 5th Avenue ,,Seattle ,WA,98121,US,(206) 448-9090,,,,,,
Marco Two Union Square,,601 Union Street ,,Seattle ,WA,98101,US,(206) 628-8881,,,,,,
Salon Circa,,1417 4th Avenue ,,Seattle ,WA,98101,US,(206) 223-0457,,,,,,
Sensa Salon,,1123 1st Avenue ,,Seattle ,WA,98101,US,(206) 395-2060,,,,,,
BANG SEATTLE SLU,,500 Yale Ave ,,North Seattle ,WA,98109,US,(206) 979-6639,,,,,,
The White Lodge Studio,,89 Yesler Way ,,Seattle ,WA,98101,US,(206) 850-0280,,,,,,
Allure Salon,,2046 Westlake Ave ,,North Seattle ,WA,98109,US,(206) 441-4500,,,,,,
Margi David Salon,,2723 Eastlake Avenue East ,,Seattle ,WA,98102,US,(206) 328-2052,,,,,,
Salon Nouveau,,2805 Beacon Ave S ,,Seattle ,WA,98144,US,(206) 324-0160,,,,,,
Ola Salon,,2942 Avalon Way SW ,,Seattle ,WA,98126,US,(206) 933-6702,,,,,,
Headlines Salon,,4629 Village Court Northeast ,,Seattle ,WA,98105,US,(206) 527-2400,,,,,,
Gene Juarez Salon and Day Spa,,2684 NE 49th Street ,,Seattle ,WA,98105,US,(206) 522-4700,,,,,,
Tonic Salon,,3406 NE 55th Street ,,Seattle ,WA,98105,US,(206) 545-2269,,,,,,
R&R Studio,,7407 Greenwood Ave N ,,Seattle ,WA,98103,US,(206) 789-1686,,,,,,
Mark Allen Salon,,10000 Main Street ,,Bellevue ,WA,98004,US,(425) 688-1436,,,,,,
Gene Juarez Salon and Day Spa - Northgate,,401 NE Northgate Way ,,Seattle ,WA,98125,US,(206) 365-6000,,,,,,
O2 Blow Dry Bar,,10500 Northeast 8th Street ,,Bellevue ,WA,98004,US,(425) 691-1965,,,,,,
Gene Juarez Salon and Day Spa,,550 106th Ave NE ,,Bellevue ,WA,98004,US,(425) 455-5511,,,,,,
Salon Tewl,,938 110th Avenue NE ,,Bellevue ,WA,98004,US,(425) 455-0818,,,,,,
GEM,,1255 Carillon Point ,,Kirkland ,WA,98033,US,(425) 822-2990,,,,,,
Tallulah East Collective,,909 112th Avenue North ,,East Bellevue ,WA,98004,US,,,,,,,
Sorella Salon & Spa,,15 Lake Street ,,Kirkland ,WA,98033,US,(425) 827-3000,,,,,,
Mollie Michelle Boutique Salon,,12121 Northrup Way # 214 ,,Bellevue ,WA,98005,US,(206) 818-6218,,,,,,
Chromatique Salon,,12727 Northup Way ,,Bellevue ,WA,98005,US,(206) 409-7498,,,,,,
The Spa at Pro Sports Club,,4455 148th Avenue Northeast ,,Bellevue ,WA,98007,US,(425) 885-5566,,,,,,
Gene Juarez Salon and Day Spa - Redmond,,16449 NE 74th Street ,,Redmond ,WA,98052,US,(425) 882-9000,,,,,,
Gene Juarez Salon and Day Spa - South Center,,280 South Center Mall ,,Tukwila ,WA,98188,US,(206) 431-8888,,,,,,
Oasis Spa & Salon,,18600 Woodinville Snohomish Road ,,Woodinville ,WA,98072,US,(425) 486-9200,,,,,,
Gene Juarez Salon and Day Spa - Alderwood,,3000 184th St SW ,,Lynnwood ,WA,98037,US,(425) 744-6000,,,,,,
Sorella Salon & Spa,,930 NE Park Drive ,,Issaquah ,WA,98029,US,(425) 392-9299,,,,,,
Gene Juarez Salon and Day Spa,,10315 Silverdale Way NW ,,Silverdale ,WA,98383,US,(360) 692-4600,,,,,,
Salon 371,,371 NW Lindvig Way ,,Poulsbo ,WA,98370,US,(360) 337-9566,,,,,,
The Salon at Mill Creek Town Center,,15111 Main ,,St Mill Creek ,WA,98012,US,(425) 876-3993,,,,,,
Gene Juarez Salon and Day Spa - South Hill,,3500 South Meridian Street ,,Puyallup ,WA,98409,US,(253) 770-8400,,,,,,
Gene Juarez Salon and Day Spa - Tacoma,,4502 South Steele Street ,,Tacoma ,WA,98409,US,(253) 472-9999,,,,,,
Teze Salon,,13210 Meridian Avenue East ,,Puyallup ,WA,98373,US,(253) 864-8393,,,,,,
Dollhouse Salon,,5010 Lacey Blvd SE ,,Lacey ,WA,98503,US,(360) 888-4899,,,,,,
Mas Belleza Salon,,104 Washington Avenue South ,,Eatonville ,WA,98328,US,(253) 691-3804,,,,,,
Fish Hair Salon,,1227 Broad Street V8W 2A4 ,,Victoria ,BC,V8W 2A4,CA,(250) 383-4475,,,,,,
The Spa at Posthotel,,309 8th Street ,,Leavenworth ,WA,98826,US,(206) 841-6904,,,,,,
Kaur Lounge,,2124 James Street ,,Bellingham ,WA,98225,US,(360) 306-5317,,,,,,
Michael David Hair Design,,147 Easy Way ,,Wenatchee ,WA,98801,US,(509) 884-8050,,,,,,
Vivid Hair Salon,,Unit # 190-8700 200th ,,Street Langley ,BC,V2Y 0B3,CA,(604) 371-3737,,,,,,
Union Salon Ltd. (BC),,3149 Granville Street ,,Vancouver ,BC,V6H 3K1,CA,(604) 732-8282,,,,,,
Space Salon,,528 West Broadway V5Z 1E9 ,,Vancouver ,BC,V5Z 1E9,CA,(604) 681-1444,,,,,,
Kiss & Makeup 2nd location,,1791 Manitoba Street ,,Vancouver ,Vancouver,C v5y0g,CA,(604) 922-6292,,,,,,
BeautyMark,,1268 Pacific Blvd ,,Vancouver ,Vancouver,BC V6B,CA,(604) 642-2294,,,,,,
Mysekai Hair,,1253 Pacific Blvd ,,Vancouver ,Vancouver,BC V6Z,CA,(604) 608-0550,,,,,,
IS salon,,101-1260 Hamilton Street ,,Vancouver ,BC,V6B 2S8,CA,(604) 569-4247,,,,,,
Beautybar,,2142 West 4th Avenue ,,Vancouver ,BC,V6K 1N6,CA,(604) 733-9000,,,,,,
IN Salon,,102-1120 Hamilton Street ,,Vancouver ,BC,V6B 2S2,CA,(604) 694-1000,,,,,,
Style Lab,,858 Cambie Street ,,Vancouver ,BC,V6B 2P6,CA,(604) 331-6981,,,,,,
Pony Salon,,73 E Cordova St ,,Vancouver ,BC,V6A 1K3,CA,(604) 620-9260,,,,,,
Blanche MacDonald Institute,,410 Robson Street ,,Vancouver ,Vancouver,BC V6B,CA,(604) 685-5560,,,,,,
Bob Salon,,1-119 West Pender Street ,,Vancouver ,BC,V6B 1S5,CA,(604) 559-3966,,,,,,
Lure Salon,,170-840 Howe Street ,,Vancouver ,BC,V6Z 2S9,CA,(604) 669-5873,,,,,,
A Salon,,1015 Burrard Street 2nd Fl. ,,Vancouver ,BC,V6Z 1Y5,CA,(604) 697-5321,,,,,,
Jason David Hair Studio,,175-625 Howe Street ,,Vancouver ,BC,V6C 2T6,CA,(604) 681-7400,,,,,,
Kiss & Makeup,,1545 Marine Drive West ,,Vancouver ,BC,V7V 1H9,CA,(604) 922-6292,,,,,,
Clutch Hair Company,,310 Oak Street # 104 ,,Hood River ,OR,97031,US,(503) 781-7777,,,,,,
New Vintage Beauty Lounge,,3864 N Mississippi Avenue ,,Portland ,OR,97227,US,(503) 327-8442,,,,,,
Genius,,1444 NE Weidler St ,,Portland ,OR,97232,US,(503) 284-4315,,,,,,
Magnum Opus,,1415 NW Savier Street ,,Portland ,OR,97209,US,(503) 228-1918,,,,,,
Bespoke Salon,,1251 NW 19th Ave ,,Portland ,OR,97209,US,(503) 501-6171,,,,,,
Juno Salon,,1112 NW 13th Street ,,Portland ,OR,97209,US,(503) 881-7276,,,,,,
Hair W,,1015 NW Lovejoy ,,Portland ,OR,97209,US,(503) 715-2884,,,,,,
Au Salon,,1207 NW 23rd Avenue ,,Portland ,OR,97210,US,(503) 228-8363,,,,,,
Za Hair,,626 Northwest 12th Street ,,Portland ,OR,97209,US,(503) 241-4712,,,,,,
Urbaca Salon,,120 Northwest 9th Street ,,Portland ,OR,97209,US,(503) 241-5030,,,,,,
Bluemercury Apothecary and SPA,,1037 NW Couch Street ,,Portland ,OR,97209,US,(202) 342-9800,,,,,,
Carbon,,2385 NW Westover Road ,,Portland ,OR,97210,US,,,,,,,
Moxie For Hair,,327 SW Pine Street ,,Portland ,OR,97204,US,(503) 200-1580,,,,,,
Pony Salon,,3 NW 23rd Place ,,Portland ,OR,97210,US,(503) 689-7971,,,,,,
Gold and Arrow,,1221 SW Alder Street ,,Portland ,OR,97205,US,(503) 750-3222,,,,,,
National Beauty,,812 SW Washington Street ,,Portland ,OR,97205,US,(503) 753-4859,,,,,,
London Influence,,713 SW 12th Avenue ,,Portland ,OR,97205,US,(503) 295-0342,,,,,,
Pigment Salon,,121 SW Morrison ,,Portland ,OR,97204,US,(503) 223-5921,,,,,,
Vertigo Style,,712 SW Jefferson Street ,,Portland ,OR,97201,US,(503) 224-0247,,,,,,
Oranj Studio,,0726 SW Gaines Street ,,Portland ,OR,97238,US,(503) 719-5338,,,,,,
Faye Judson Salon,,7421 SW Barbar Boulevard ,,Portland ,OR,97219,US,(503) 768-3293,,,,,,
Salon Be,,1270 Parrish ,,St Lake Oswego ,OR,97034,US,(503) 545-1110,,,,,,
Studio One hair & spa,,101 N Union Street ,,Kennewick ,WA,99336,US,(509) 735-3354,,,,,,
Mod Salon,,# 102- 2900 Pandosy Street ,,Kelowna ,BC,V1Y 1V9,CA,(250) 712-0009,,,,,,
Hyde Park Salon and Spa,,256 Lawrence Avenue ,,Kelowna ,BC,V1Y 6L3,CA,250 763 1150,,,,,,
Cream Salons Limited - Ellis St,,1389 Ellis Street ,,Kelowna ,BC,V1Y 1Z9,CA,(778) 478-0424,,,,,,
Cream Salons Limited - Cooper Road,,# 2 1771 Cooper Road ,,Kelowna ,BC,V1Y 7T1,CA,(250) 868-4889,,,,,,
'Ohana Salon,,2126 Milestone Dr. ,,Fort Collins ,CO,80525,US,(970) 232-1564,,,,,,
Lit Salon,,2730 W. Rasmussen Rd. ,,Park City ,UT,84098,US,(435) 655-2661,,,,,,
Shep Studio,,890 North 500 West ,,Provo ,UT,84604,US,(801) 373-4085,,,,,,
h2blow Dry Bar - Salt Lake,,1400 S Foothill Drive ,,Salt Lake City ,UT,84108,US,(801) 953-1017,,,,,,
Lucid Ends Salon,,1525 North Main ,,Bountiful ,UT,84010,US,(801) 298-3381,,,,,,
Jairus Noble Salon,,55 North Glenwood Street ,,Jackson Hole ,WY,83001,US,(307) 732-1700,,,,,,
Dolce Salon,,1550 East 15th Street ,,Tulsa ,OK,74120,US,(918) 382-0101,,,,,,
Paisley and Stripe,,11006 Metcalf Ave ,,Overland Park ,KS,66210,US,(913) 469-4247,,,,,,
Flock,,2009 Baltimore Avenue ,,Kansas City ,MO,64108,US,(816) 656-5727,,,,,,
Skyline Downtown Salon,,2001 Grand Boulevard ,,Kansas City ,MO,64108,US,(816) 221-2001,,,,,,
The White Room Salon,,6514 East 101st Street ,,Tulsa ,OK,74133,US,(918) 558-4306,,,,,,
Bang Salon at Park Hill,,2200 Kearney Street ,,Denver ,CO,80207,US,(720) 241-0355,,,,,,
Zen Salon,,320 St. Paul Street ,,Denver ,CO,80206,US,(303) 321-1122,,,,,,
Gordon's on Sixth,,1224 East 6th Avenue ,,Denver ,CO,80218,US,(303) 744-0324,,,,,,
Henry's Salon,,450 East 17th Avenue ,,Denver ,CO,80203,US,(720) 542-3488,,,,,,
LUXE,,1720 Wazee Street ,,Denver ,CO,80202,US,(303) 296-0166,,,,,,
Scarlet Salon,,1575 Boulder Street ,,Denver ,CO,80211,US,(720) 855-7839,,,,,,
Ergun Tercan European Salon,,2500 West 15th Street ,,Denver ,CO,80211,US,(303) 433-5544,,,,,,
Swank Salon,,1550 East 103rd Place ,,Commerce City ,CO,80022,US,(303) 279-6740,,,,,,
Deseo Salon,,2855 West 25th Avenue ,,Denver ,CO,80211,US,(720) 662-7100,,,,,,
Elle b. Salon,,2931 West 25th Avenue ,,Denver ,CO,80211,US,(303) 475-0732,,,,,,
Hazel & Harley Salon,,4901 Lowell Blvd ,,Denver ,CO,80221,US,(303) 667-7824,,,,,,
Salon Hethers,,7423 Grandview Avenue ,,Arvada ,CO,80002,US,(303) 421-8500,,,,,,
Studio Be Salon,,3060 Pearl Parkway ,,Boulder ,CO,80301,US,(720) 573-6422,,,,,,
Paul Morrison Colours,,2015 15th Street ,,Boulder ,CO,80302,US,(303) 447-0882,,,,,,
The Side Door Salon,,2070 Broadway ,,Boulder ,CO,80302,US,(303) 927-6081,,,,,,
Juno Studio,,720 Pearl St. ,,Boulder ,CO,80302,US,(303) 809-0897,,,,,,
Studio Boom,,1350 Ken Pratt Blvd ,,Longmont ,CO,80501,US,(303) 774-9880,,,,,,
Studio Nine Seven O,,1180 Main Street ,,Windsor ,CO,80550,US,(970) 405-9353,,,,,,
Studio Be Salon,,2720 Council Tree Avenue Fort ,,Collins ,CO,80525,US,(970) 416-0400,,,,,,
Balayage Salon and Spa,,1833 E. Harmony Road Fort ,,Collins ,CO,80525,US,(970) 282-3557,,,,,,
Tuana Hair Design,,818 South College Avenue Fort ,,Collins ,CO,80524,US,(970) 472-0522,,,,,,
Namaste Salon,,140 West Oak Street Fort ,,Collins ,CO,80524,US,(970) 224-5463,,,,,,
Studio Be Salon,,15 Old Town Square Fort ,,Collins ,CO,80524,US,(970) 416-0400,,,,,,
Lunatic Fringe (Holladay),,4640 South Holladay Boulevard ,,Holladay ,UT,84117,US,(801) 432-5533,,,,,,
Lunatic Fringe - Parleys,,2545 East Parleys Way ,,Salt Lake City ,UT,84109,US,(801) 463-1967,,,,,,
Falling Waters Spa and Salon,,1101 East Draper Parkway ,,Draper ,UT,84020,US,(801) 501-9000,,,,,,
h2blow Dry Bar - Park City,,1678 W Redstone Center Drive ,,Park City ,UT,84098,US,(435) 575-8800,,,,,,
Salon Shag,,1388 East Fort Union Boulevard ,,Cottonwood Heights ,UT,84121,US,(801) 727-0792,,,,,,
Lunatic Fringe (Union Heights),,7686 South Union Park Avenue ,,Midvale ,UT,84047,US,(801) 256-6884,,,,,,
Lunatic Fringe - Sugarhouse,,1511 East 2100 South ,,Salt Lake City ,UT,84105,US,(801) 463-0555,,,,,,
Lunatic Fringe (on 11th),,1790 South 1100 East ,,Salt Lake City ,UT,84105,US,(801) 322-4247,,,,,,
Glamour Gel Beauty Bar & Salon,,11340 South State Street ,,Sandy ,UT,84070,US,(801) 836-8448,,,,,,
Got Beauty,,904 East 2100 S ,,Salt Lake City ,UT,84106,US,(801) 474-2090,,,,,,
Sequel Salon,,380 East 900 South ,,Salt Lake City ,UT,84111,US,(801) 532-2929,,,,,,
The Grand Spa at the Grand American Hotel,,555 S. Main Street ,,Salt Lake City ,UT,84111,US,(801) 258-6786,,,,,,
9 Salon,,4709 Daybreak View Parkway South ,,Jordan ,UT,84095,US,(801) 280-9990,,,,,,
Silver Lining Salon and Spa,,981 South Main Street ,,Logan ,UT,84321,US,(435) 512-1850,,,,,,
Studio 170,,1451 North 200 East ,,Logan ,UT,84341,US,(435) 787-0707,,,,,,
Frost Salon,,185 Scott Lane ,,Jackson ,WY,83001,US,(307) 734-0804,,,,,,
B. Young Salon,,211 North Washington ,,Wichita ,KS,67206,US,(316) 518-3065,,,,,,
Salon Luxe,,2909 S. 169th Plaza ,,Omaha ,NE,68130,US,(402) 933-1900,,,,,,
Reve Salon and Spa,,11025 Elm Street ,,Omaha ,NE,68144,US,(402) 397-7383,,,,,,
Theory Salon,,802 North Wallace Avenue ,,Bozeman ,MT,59715,US,(406) 586-3198,,,,,,
Paisley & Stripe,,846 Illinois Street ,,Lawrence ,KS,66044,US,(785) 561-7222,,,,,,
Greenroom Salon,,924 1/2 Massachuetts Street ,,Lawrence ,KS,66044,US,(785) 749-1460,,,,,,
The Beauty Shop,,1402 South Peoria Ave ,,Tulsa ,OK,74120,US,(918) 779-7887,,,,,,
Bluemercury Apothecary and Spa,,3524 S Peoria Avenue ,,Tulsa ,OK,74105,US,(215) 569-3100,,,,,,
Michael Brothers Salon,,1148 South Harvard Avenue ,,Tulsa ,OK,74112,US,(918) 584-9400,,,,,,
Oliver's Hair Salon,,7590 West 119th Street ,,Overland Park ,KS,66213,US,(913) 338-2266,,,,,,
Bijin Salon & Day Spa,,6960 Mission Lane ,,Prairie Village ,KS,66208,US,(913) 671-7777,,,,,,
Bluemercury Apothecary and Spa,,4549 West 119th Street ,,Leawood ,KS,66209,US,(202) 342-9800,,,,,,
Bangs Hair Salon,,1115 West 47th Street ,,Kansas City ,MO,64112,US,(816) 756-1422,,,,,,
Bluemercury Country Club Plaza,,415 NICHOLS ROAD ,,Kansas City ,MO,64112,US,(212) 396-1500,,,,,,
Lumine Salon,,7430 Washington Street ,,Kansas City ,MO,64114,US,(816) 333-7800,,,,,,
Cavalry,,1341 Connecticut Avenue ,,Washington ,DC,20036,US,(202) 223-2066,,,,,,
Immortal Beloved,,1831 14th St. NW ,,Washington ,DC,20005,US,(202) 299-1050,,,,,,
Prim Salon,,2042 Somerville Road ,,Annapolis ,MD,21401,US,(410) 266-7431,,,,,,
The Spa at The Hotel Hershey,,100 Hotel Road ,,Hershey ,PA,17033,US,(717) 520-5815,,,,,,
Corte Salon,,1019 U Street NW ,,Washington ,DC,20001,US,(202) 462-6783,,,,,,
Celadon Salon and Day Spa,,1180 F Street Northwest ,,Washington ,DC,20004,US,(202) 347-3333,,,,,,
Salon Le Fini,,1543 New Jersey Avenue NW ,,Washington ,DC,20001,US,(202) 735-0262,,,,,,
Inizio Salon,,641 Florida Avenue Northwest ,,Washington ,DC,20001,US,(202) 415-2060,,,,,,
Bluemercury Apothecary and Spa,,1427 P St. NW ,,Washington ,DC,20005,US,(212) 396-1500,,,,,,
Parlour Salon,,1522 U Street NW ,,Washington ,DC,20009,US,(202) 986-0080,,,,,,
Ian McCabe Studio,,1101 23rd Street NW ,,Washington ,DC,20037,US,(202) 888-6700,,,,,,
Salon Cielo (Connecticut Ave),,1741 Connecticut Avenue Northwest ,,Washington ,DC,20009,US,(202) 518-9620,,,,,,
Karma by Erwin Gomez,,1104 24th Street NW ,,Washington ,DC,20037,US,(202) 293-3333,,,,,,
George at the Four Season,,2828 Pennsylvania Avenue NW ,,Washington ,DC,20007,US,(202) 342-1942,,,,,,
Izzy Salon,,2903 M Street Northwest ,,Washington ,DC,20007,US,(202) 342-2675,,,,,,
Roche Salon,,3000 K Street NW ,,Washington ,DC,20007,US,(202) 775-0775,,,,,,
bluemercury apothecary and spa,,3059 M Street NW ,,Washington ,DC,20007,US,(202) 965-1300,,,,,,
Todd Christofaro,,3146 Dumbarton Street NW ,,Washington ,DC,20007,US,(202) 333-7170,,,,,,
O Salon Georgetown,,3212 O Street NW ,,Washington ,DC,20007,US,(202) 338-9100,,,,,,
Salon Pejman,,1419 Wisconsin Avenue North ,,West Washington ,DC,20007,US,(202) 540-5679,,,,,,
VIOLET SALON AND SPA,,1513 Wisconsin Ave NW ,,Washington D.C. ,DC,20007,US,(202) 337-3477,,,,,,
Salon L'eau,,3240 P Street NW ,,Washington ,DC,20007,US,(202) 625-2220,,,,,,
Luigi Parasmo Salon and Spa,,1510 Wisconsin Ave NW ,,Washington ,DC,20007,US,(202) 333-2244,,,,,,
Bluemercury Apothecary and Spa,,3302 Wisconsin Ave. NW ,,Washington ,DC,20016,US,(202) 342-9800,,,,,,
Bluemercury Apothecary and SPA,,2855 Clarendon Boulevard ,,Arlington ,VA,22201,US,(732) 745-7770 x 204,,,,,,
Neiman Marcus,,5300 Wisconsin Avenue NW ,,Washington ,DC,20015,US,(202) 966-9700,,,,,,
Sugar House Day Spa & Salon,,111 North Alfred Street ,,Alexandria ,VA,22314,US,(703) 549-9940,,,,,,
BluemercuryApothecary and SPA,,600 King Street ,,Alexandria ,VA,22314,US,(732) 745-7770,,,,,,
PR at Partners - Old Town,,1008 King Street ,,Alexandria ,VA,22314,US,(703) 683-6600,,,,,,
Bluemercury Apothecary and SPA,,7105 Bethesda Lane ,,Bethesda ,MD,20814,US,(301) 986-0070,,,,,,
Blue Bell Salon and Spa,,7718 Woodmont Avenue ,,Bethesda ,MD,20814,US,(301) 503-2729,,,,,,
Franz Sebastian Salon,,4917 St. Elmo Avenue ,,Bethesda ,MD,20814,US,(301) 907-8080,,,,,,
Soleil Salon and Spa,,50 South Pickett Street ,,Alexandria ,VA,22304,US,(703) 823-2718,,,,,,
Wish Salon and Nails,,3000 Annandale Road Falls ,,Church ,VA,22042,US,(703) 536-7888,,,,,,
Alchemy Salon,,10739 Columbia Pike ,,Silver Spring ,MD,20901,US,(301) 593-8081,,,,,,
Ira Ludwick Salon,,10400 Old Georgetown Road ,,Bethesda ,MD,20814,US,(301) 530-3250,,,,,,
PR at Partners - Tysons Corner,,8024 L Tyson Corner Center Mc ,,Lean ,VA,22102,US,(703) 556-3303,,,,,,
Space.N.K. Apothecary,,8100 Tysons Corner Center ,,McLean ,VA,22102,US,(703) 556-4569,,,,,,
Neiman Marcus,,2255 International Drive ,,McLean ,VA,22102,US,(703) 761-1800,,,,,,
Colour Bar Studio,,8100 Boone Blvd ,,Vienna ,VA,22182,US,(703) 848-2000,,,,,,
Bluemercury Apothecary and Spa,,2905 District Avenue Suite 130 ,,Falls Church ,VA,22031,US,(202) 342-9800,,,,,,
Salon Nordine - Fairfax,,2905 District Avenue ,,Fairfax ,VA,22031,US,(703) 942-8355,,,,,,
Progressions Salon,,12211 Nebel Street ,,Rockville ,MD,20852,US,(301) 231-8757,,,,,,
Bella Moda Salon & Spa,,10118 River Rd ,,Potomac ,MD,20854,US,(301) 983-5545,,,,,,
Bellini Salon & Spa,,112 Pleasant Street SW ,,Vienna ,VA,22180,US,(703) 255-2555,,,,,,
Ronnie Elias Salon,,2952-I Chain Bridge Road ,,Oakton ,VA,22124,US,(703) 255-1114,,,,,,
Sechoir Avenir Place,,2715 East Ridge Court ,,Oakton ,VA,22124,US,(703) 698-8162,,,,,,
D Rock Salon,,11399 Government Center Parkway ,,Fairfax ,VA,22030,US,(703) 293-9400,,,,,,
Bluemercury Apothecary and Spa,,22 Grand Corner Ave. ,,Gaithersburg ,MD,20878,US,(212) 396-1500,,,,,,
Cahra Salon & Spa,,5 Grand Corner Avenue ,,Gaithersburg ,MD,20878,US,(301) 921-6655,,,,,,
PR at Partners - Reston Town Center,,11902 Democracy Drive ,,Reston ,VA,20190,US,(703) 481-1835,,,,,,
O'Hair Salon & Spa,,424 Main Street ,,Gaithersburg ,MD,20878,US,(301) 977-0800,,,,,,
Four Seasons Salon and Spa,,21100 Dulles Town Circle ,,Dulles ,VA,20166,US,,,,,,,
Patrick's Hair Design,,9194 Red Branch Road ,,Columbia ,MD,21045,US,(410) 730-1700,,,,,,
About Faces Day Spa & Salon,,1910 Towne Centre Blvd ,,Annapolis ,MD,21401,US,(410) 224-4110,,,,,,
PR at Partners - Belmont Chase Ashburn,,19800 Belmont Chase Drive ,,Ashburn ,VA,20147,US,(703) 724-4044,,,,,,
Radiance Salon & Medi-Spa - Ashburn,,43150 Broadlands Center Plaza ,,Ashburn ,VA,20148,US,(703) 723-4600,,,,,,
Hudson & Fouquet West Street,,181 West Street ,,Annapolis ,MD,21401,US,(410) 263-9790,,,,,,
Radiance Salon & Medi-Spa - Landsdowne,,19305 Winmeade Drive ,,Leesburg ,VA,20176,US,(571) 333-3005,,,,,,
PR at Partners - Bristow,,10470 Bristow Center Drive ,,Bristow ,VA,20136,US,(703) 365-0404,,,,,,
PR at Partners - Gainesville,,7340 Atlas Walk Way ,,Gainesville ,VA,20155,US,(703) 754-2999,,,,,,
Salon Nordine- Gainesville,,7530 Old Linton Hall Rd ,,Gainesville ,VA,20155,US,(703) 753-6971,,,,,,
M Salon,,1131 South Charles Street ,,Baltimore ,MD,21230,US,(410) 685-0089,,,,,,
PR at Partners - Haymarket,,5381 Merchants View Square ,,Haymarket ,VA,20169,US,(703) 893-7121,,,,,,
Studio 921 Salon & Day Spa,,921 East Fort Avenue ,,Baltimore ,MD,21230,US,(410) 783-7727,,,,,,
About Faces Day Spa & Salon,,1501 South Clinton Street ,,Baltimore ,MD,21224,US,(410) 675-0099,,,,,,
About Faces Day Spa & Salon,,1809 Reisterstown Road ,,Pikesville ,MD,21208-6321,US,(410) 602-0888,,,,,,
KCO Design and Day Spa,,6080 Falls Road ,,Baltimore ,MD,21209,US,(410) 377-7727,,,,,,
Jenny's Salon,,550 East Main Street ,,Purcellville ,VA,20132,US,(540) 338-7634,,,,,,
About Faces Day Spa & Salon,,894 Kenilworth Drive ,,Towson ,MD,21204,US,(410) 828-8666,,,,,,
Six East Salon & Spa,,6 East Church Street ,,Frederick ,MD,21701,US,(301) 698-0800,,,,,,
About Faces Day Spa & Salon,,110 West Timonium Road ,,Timonium ,MD,21093,US,(410) 560-6600,,,,,,
PR at Partners - Warrenton,,251 West Lee Highway ,,Warrenton Center ,VA,20186,US,(540) 349-1255,,,,,,
Ultimate Image,,907 South Main Street ,,Hampstead ,MD,21074,US,(443) 340-1558,,,,,,
Elizabeth Claire Salon,,22 North Harrison Street ,,Easton ,MD,21601,US,(410) 770-6998,,,,,,
Sagittarius Salon,,1136 Conrad Court ,,Hagerstown ,MD,21740,US,(301) 797-8008,,,,,,
About Faces Day Spa & Salon,,Waverly Plaza ,,Salisbury ,MD,21801,US,(410) 543-8100,,,,,,
5th Avenue,,1911 W Trindle Rd ,,Carlisle ,PA,17013,US,(717) 245-0706,,,,,,
Birch Salon,,3034 Parkwood Avenue ,,Richmond ,VA,23221,US,(804) 355-1122,,,,,,
Avenue 42 Style Studio,,16 East Main Street ,,Richmond ,VA,23219,US,(804) 303-3139,,,,,,
Bluemercury apothecary and spa,,5011 Huguenot Road ,,Richmond ,VA,23235,US,,,,,,,
Bluemercury Apothecary and SPA,,2035 Bond Street Unit 160 ,,Charlottesville ,VA,22901,US,(773) 327-6900,,,,,,
Roots Hair & Design,,106 South 1st Street ,,Charlottesville ,VA,22902,US,(434) 244-8466,,,,,,
Moxie Hair and Body Lounge,,612 A Preston Avenue ,,Charlottesville ,VA,22903,US,(434) 979-5556,,,,,,
Salon Yorya Inc.,,12720 Jefferson Davis Hwy ,,Chester ,VA,23831,US,(804) 796-5858,,,,,,
Station Row,,41 Lincoln Street ,,Newton ,MA,02461,US,(617) 796-0123,,,,,,
Newbury North Salon,,36 Salem St ,,Lynnfield ,MA,01940,US,(781) 245-2006,,,,,,
Hair  Connection,,75 High Street ,,Danvers ,MA,01923,US,(978) 777-9268,,,,,,
Simplicity Hair Studio,,357 Boston Post Road ,,Sudbury ,MA,01776,US,(978) 443-4816,,,,,,
Shine Hair Studio,,17A Beach Street ,,Manchester by the Sea ,MA,01944,US,(978) 526-1077,,,,,,
Act II Salon and Med Spa,,141 Main Street ,,Salem ,NH,03079,US,(603) 870-9300,,,,,,
Salon Noir & Lash Lounge,,1051 Park Avenue ,,Cranston ,RI,02520,US,(401) 944-5274,,,,,,
My Reis Salon,,137 Portsmouth Avenue ,,Exeter ,NH,03833,US,(603) 772-7347,,,,,,
Townhouse Beauty Bar,,28 Charles Street ,,Boston ,MA,02114,US,(857) 250-4433,,,,,,
Aria Salon & Spa,,332 Victory Road 2nd Floor ,,Quincy ,MA,02171,US,(617) 472-1344,,,,,,
Salon de Cheveux,,661A East Broadway ,,Boston ,MA,02127,US,(617) 269-2300,,,,,,
Shag,,840 Summer Street ,,Boston ,MA,02127,US,(617) 268-2500,,,,,,
Neiman Marcus,,5 Copley Place ,,Boston ,MA,02116,US,(617) 536-3660,,,,,,
Grettacole,,10 Huntington Avenue ,,Boston ,MA,02116,US,(617) 266-6166,,,,,,
Bluemercury Apothecary and Spa,,105 Seaport Boulevard ,,Boston ,MA,02210,US,,,,,,,
Salon Marc Harris,,4 Avery Street ,,Boston ,MA,02111,US,(617) 375-8510,,,,,,
Acote Salon,,132 Newbury Street ,,Boston ,MA,02116,US,(617) 262-5111,,,,,,
Salon Evamichelle,,118 Newbury Street ,,Boston ,MA,02116,US,(617) 262-8118,,,,,,
Stilisti,,116 Newbury Street ,,Boston ,MA,02116,US,(617) 262-2234,,,,,,
The Salon at 10 Newbury,,10 Newbury Street ,,Boston ,MA,02116,US,(617) 247-4900,,,,,,
James Joseph Salon,,30 Newbury Street ,,Boston ,MA,02116,US,(617) 266-7222,,,,,,
Avanti Salon,,20 Newbury Street ,,Boston ,MA,02116,US,(617) 267-4027,,,,,,
Haute Coiffure Salon 2,,52 high street ,,Boston ,MA,02110,US,(617) 439-9020,,,,,,
Patrice Vinci Salon,,91 Newbury Street ,,Boston ,MA,02116,US,(617) 267-1900,,,,,,
Cynthia K Salon,,35 Newbury Street ,,Boston ,MA,02116,US,(617) 456-0006,,,,,,
Beaucage Salon & Spa,,71 Newbury Street ,,Boston ,MA,02116,US,(617) 437-7171,,,,,,
Mario Russo,,9 Newbury Street ,,Boston ,MA,02116,US,(617) 424-6676,,,,,,
G2O Spa and Salon,,275 Newbury Street ,,Boston ,MA,02116,US,(617) 262-2220 ext. 136,,,,,,
Mario Russo Liberty,,22 Liberty Drive ,,Boston ,MA,02210,US,(857) 350-3139,,,,,,
Marc Harris,,115 Newbury Street ,,Boston ,MA,02116,US,(617) 262-2222,,,,,,
Fascino Salon and Spa,,30 Tremont Street ,,Boston ,MA,02108,US,(617) 367-2446,,,,,,
Dellaria Salons and Spas (Kenmore),,623 Commonwealth Avenue ,,Boston ,MA,02215,US,(617) 262-8750,,,,,,
Haute Coiffure Inc,,629 Commonwealth Avenue ,,Boston ,MA,02215,US,(617) 236-0667,,,,,,
Joi Salon and Spa,,2 Atlantic Avenue ,,Boston ,MA,02110,US,(617) 723-6330,,,,,,
Sanela Salon,,1706 Beacon Street ,,Brookline ,MA,02445,US,(617) 608-3774,,,,,,
Charles Hotel,,5 Bennett Street ,,Cambridge ,MA,02138,US,(617) 661-5772,,,,,,
Bluemercury Apothecary and SPA,,33 Boylston Street ,,Chestnut Hill ,MA,02467,US,(202) 342-9800,,,,,,
Space.N.K. Apothecary,,225 Boylston Street ,,Newton ,MA,02467,US,(617) 630-6768,,,,,,
James Joseph Salon Medford,,16 Earhart Landing ,,Medford ,MA,02155,US,(781) 393-6800,,,,,,
Evie Salon Studio,,57 Holland Street ,,Somerville ,MA,02144,US,(617) 764-4068,,,,,,
Vaiani & Clarke salon,,15 Cypress Street ,,Newton Center ,MA,02459,US,(617) 795-1550,,,,,,
Essentials Salon,,79 Trapelo Road ,,Belmont ,MA,02478,US,(617) 484-1163,,,,,,
Lola Hair Studio,,87 Blanchard Road ,,Cambridge ,MA,02138,US,(617) 921-5133,,,,,,
La Novita Salon & Spa,,1395 North Main Street ,,Randolph ,MA,02368,US,(781) 963-0055,,,,,,
Fisher Experience,,924 Washington Street ,,Braintree ,MA,02184,US,(781) 849-1770,,,,,,
Leon and Company,,84 Leonard Street ,,Belmont ,MA,02478,US,(617) 484-4777,,,,,,
Bluemercury Apothecary and Spa,,748 Legacy Place ,,Dedham ,MA,02026,US,(202) 342-9800,,,,,,
AZ Studio,,29 Main Street ,,Hingham ,MA,02043,US,(781) 740-0066,,,,,,
Salon Astante,,251 Moody Street ,,Waltham ,MA,02453,US,(781) 209-1200,,,,,,
Katana Salon,,618 Main Street ,,Winchester ,MA,01890,US,(781) 729-6767,,,,,,
Nicolo Salon,,79 Franklin Street ,,Melrose ,MA,02176,US,(781) 662-5204,,,,,,
ID Salon,,245 Washington Street ,,Wellesley Hills ,MA,02481,US,(781) 237-1233,,,,,,
Parlor Salon and Apothecary,,398 Washington Street ,,Wellesley ,MA,02781,US,(781) 237-2121,,,,,,
Bluemercury Apothecary and Spa,,200 Linden Street ,,Wellesley ,MA,02482,US,(203) 227-6900,,,,,,
"Bella Sante, The Spa in Wellesley",,190 Linden Street ,,Wellesley ,MA,02482,US,(617) 456-4650,,,,,,
Bluemercury Apothecary and SPA,,92 Derby Street ,,Hingham ,MA,02043,US,(781) 749-6700,,,,,,
Blue a Complete Hair Salon,,10 Muzzey Street ,,Lexington ,MA,02421,US,(781) 862-2030,,,,,,
Woop Woop Hair Salon,,109 Sharon Street ,,Stoughton ,MA,02702,US,(781) 436-3133,,,,,,
Green Tangerine Spa & Salon,,6 Wayside Road ,,Burlington ,MA,01803,US,(781) 273-0009,,,,,,
Texture and Gloss Salon,,109 Ripley Road ,,Cohasset ,MA,02025,US,(781) 383-0747,,,,,,
D'Spa by Dellaria,,75 Middlesex Turnpike ,,Burlington ,MA,01803,US,(617) 254-1004 ext. 18,,,,,,
Jesamondo Salon & Spa,,154 East Central Street ,,Natick ,MA,01760,US,(508) 907-7171,,,,,,
Twisted Elegance,,8 Brande Court ,,Reading ,MA,01867,US,(781) 872-1453,,,,,,
James Joseph 3rd Ave,,62 Second Avenue ,,Burlington ,MA,01803,US,(617) 323-4714,,,,,,
Charles David Salon,,222 Webster Street ,,Hanover ,MA,02339,US,(781) 982-1224,,,,,,
Guy Williams Salon,,279 Cambridge Street ,,Burlington ,MA,01803,US,(781) 273-5537,,,,,,
Lauren Craig Salon,,25 Andrew Avenue ,,Wayland ,MA,01778,US,(508) 358-1662,,,,,,
Bliss Salon,,165 Pleasant Street ,,Marblehead ,MA,01945,US,(781) 631-4500,,,,,,
Beauty Parlr,,1 Watson Place Building 3 Floor 3 ,,Framingham ,MA,01701,US,(508) 202-9538,,,,,,
Axle Color Studio,,203 Main Street ,,North Reading ,MA,01864,US,(978) 664-2800,,,,,,
Salon Entre Nous,,60 Central Street ,,Fayville ,MA,01745,US,(508) 303-8866,,,,,,
Michelle James Salon,,19 Central st ,,Manchester ,MA,01944,US,(978) 704-9684,,,,,,
Robert Jason Salon,,92 Main Street ,,Andover ,MA,01810,US,(978) 470-3100,,,,,,
Salon Invi,,28 Chestnut St ,,Andover ,MA,01810,US,(978) 378-3333,,,,,,
L'Equipe Hairdressing,,276 Franklin Village Drive ,,Franklin ,MA,02038,US,(508) 520-7828,,,,,,
Beehive the Salon,,8 Standish Street ,,Duxbury ,MA,02332,US,(781) 934-0226,,,,,,
Salon Riza & Day Spa,,1003 Osgood Street ,,North Andover ,MA,01845,US,(978) 557-7870,,,,,,
Spa Nijoli & Salon,,116 Pleasant Valley Street ,,Methuen ,MA,01844,US,(978) 682-9772,,,,,,
Sassafrass Hair Salon Inc.,,2390 Mendon Road ,,Cumberland ,RI,02864,US,(401) 658-3030,,,,,,
ViaStyle,,310 Daniel Webster Highway ,,Nashua ,NH,03060,US,(603) 557-7061,,,,,,
Cassandra Salon & Spa,,225 Daniel Webster Highway ,,Nashua ,NH,03060,US,(603) 888-3300,,,,,,
Amelia's Salon,,68 West Main Street ,,Merrimac ,MA,01860,US,(978) 346-8383,,,,,,
Interlocks Salon and Day Spa,,58 Merrimac Street ,,Newburyport ,MA,01950,US,(978) 465-3010,,,,,,
San Laurent,,160 Worcester Providence Turnpike ,,Sutton ,MA,01590,US,(508) 865-6454,,,,,,
Studio 6 Salon and Spa,,9 Simon Street ,,Nashua ,NH,03060,US,(603) 889-9222,,,,,,
Salon Prov,,1 Richmond Square ,,Providence ,RI,02906,US,,,,,,,
Orange Salon,,70 Worcester Providence TPK ,,Millbury ,MA,01516,US,(508) 865-5599,,,,,,
Charles David Salon -  Pinehills,,1 Village Green North ,,Plymouth ,MA,02360,US,(508) 591-7350,,,,,,
Salon Nina Raffaella,,138 Green Street ,,Worcester ,MA,01604,US,(508) 791-1800,,,,,,
Moss Salon,,114 North Main Street ,,Providence ,RI,02903,US,(401) 751-8877,,,,,,
Ky Michaels Salon,,442 Wickenden St. ,,Providence ,RI,02906,US,(401) 228-3808,,,,,,
Bella Viaggio Salon & Day Spa,,183 Rockingham Road ,,Windham ,NH,03087,US,(603) 898-9222,,,,,,
Salon Bogar,,25 Orchard View Drive ,,Londonderry ,NH,03053,US,(603) 434-2424,,,,,,
New Leaf Hair Studio,,18 State Street ,,Bristol ,RI,02809,US,(401) 254-9333,,,,,,
White Willow Salon and Spa,,189 South River Road ,,Bedford ,NH,03110,US,(603) 836-5613,,,,,,
H2O Salon & Spa,,7 Colby Court ,,Bedford ,NH,03110,US,(603) 641-3050,,,,,,
Portsmouth Haircare and Day Spa,,55 Congress Street ,,Portsmouth ,NH,03801,US,(603) 433-0059,,,,,,
My Reis (Portsmouth),,1600 Woodbury Avenue ,,Portsmouth ,NH,03801,US,(603) 772-7347,,,,,,
JF3 Salon & Spa,,34 Memorial Boulevard ,,West Newport ,RI,02840,US,(401) 847-7377,,,,,,
Maggie's Salon,,31 Beach Road ,,Vineyard Haven ,MA,02568,US,(508) 693-2875,,,,,,
Studio Oliver,,305 6th Street NE ,,Atlanta ,GA,30308,US,(404) 607-9757,,,,,,
Urban Evolution Salon,,1042 North Highland Avenue Northeast ,,Atlanta ,GA,30306,US,(404) 577-7771,,,,,,
Blush Salon INC,,238 1st Avenue West ,,Albany ,OR,97321,US,(541) 928-8306,,,,,,
Epic Day Spa,,517 SW Second St ,,Corvallis ,OR,97330,US,(541) 257-2140,,,,,,
Chikara Salon and Spa,,134 Oakway Center ,,Eugene ,OR,97401,US,(541) 683-2353,,,,,,
Salon Twist,,2736 NW Crossing Drive ,,Bend ,OR,97701,US,(541) 815-8155,,,,,,
Salon Envy,,70 Southwest Century Drive ,,Bend ,OR,97702,US,(541) 388-8311,,,,,,
The Hair Studio,,7 1/2 Main Street ,,Walla Walla ,WA,99362,US,(509) 301-5057,,,,,,
Beehive Cut and Color Bar,,126 E. Main Street ,,Walla Walla ,WA,99362,US,(509) 525-2201,,,,,,
Privato Salon & Spa,,9500 Brimhall Road ,,Bakersfield ,CA,93312,US,(661) 587-2566,,,,,,
Essentiels Spa et Beaute,,9000 Ming Avenue ,,Bakersfield ,CA,93311,US,(661) 654-0321,,,,,,
E Aveda Salon Spa,,10930 Stockdale Highway ,,Bakersfield ,CA,93311,US,(661) 654-0317,,,,,,
Fierro Hair,,1332 Madonna Road ,,San Luis Obispo ,CA,93405,US,(805) 543-1652,,,,,,
Jessi James Salon & Spa,,151 Iron Point Road ,,Folsom ,CA,95630,US,(916) 355-8005,,,,,,
Salon ETCetera,,2222 Francisco Drive ,,El Dorado Hills ,CA,95762,US,(916) 939-3388,,,,,,
Alchemy Salon and Spa,,3016 J Street ,,Sacramento ,CA,95816,US,(916) 492-2410,,,,,,
The Dandelion,,1631 Country Road ,,Minden ,NV,89423,US,(775) 901-3384,,,,,,
Michael Blunt Salon Bistro & Boutique,,1158 East Champlain Drive ,,Fresno ,CA,93720,US,(559) 434-3300,,,,,,
Salon Cotoure & Spa,,113 Court Street ,,Hanford ,CA,93230,US,(559) 583-0581,,,,,,
Shift Salon,,1050 Broad Street ,,San Luis Obispo ,CA,93401,US,(805) 546-9900,,,,,,
Twig + Arrow,,720 Marsh Street ,,San Luis Obispo ,CA,93401,US,(805) 698-4557,,,,,,
Capelli Capelli,,26346 Carmel Rancho Lane ,,Carmel ,CA,93923,US,(831) 625-4100,,,,,,
O Salon,,112 Crossroads Boulevard ,,Carmel ,CA,93923,US,(831) 620-0288,,,,,,
Fellini Salon,,Ocean Avenue & Mission Street Space116 Carmel By The ,,Sea ,CA,93923,US,(415) 990-8536,,,,,,
Pomp Salon,,349 Lincoln Center ,,Stockton ,CA,95207,US,(209) 954-9255,,,,,,
Prestige House Of Beaute,,4242 Fowler Lane ,,Diamond Springs ,CA,95619,US,(916) 436-6002,,,,,,
Adagio for Hair,,4356 Town Center Boulevard ,,El Dorado Hills ,CA,95762,US,(916) 939-6604,,,,,,
"Sugar, A Hair Boutique",,609 Fulton Avenue ,,Sacramento ,CA,95825,US,(916) 483-5600,,,,,,
Shapes for Hair,,3001 J Street ,,Sacramento ,CA,95816,US,(916) 498-1188,,,,,,
Mosaic Salon,,2212 K Street ,,Sacramento ,CA,95816,US,(916) 558-2700,,,,,,
Space 07,,1421 R Street ,,Sacramento ,CA,95811,US,(916) 444-7474,,,,,,
Red Salon Art,,920 J Street ,,Sacramento ,CA,95814,US,(916) 265-7401,,,,,,
Nevaeh,,3984 Douglas Boulevard ,,Roseville ,CA,95661,US,(916) 786-5888,,,,,,
Fredrick James Salon,,740 3rd Street ,,Santa Rosa ,CA,95404,US,(707) 888-7759,,,,,,
Sage Salon Napa,,1041 Lincoln Avenue ,,Napa ,CA,94558,US,(707) 637-4340,,,,,,
Bella Capelli,,3247 Browns Valley Road ,,Napa ,CA,94558,US,(707) 226-2061,,,,,,
Halo Salon,,52 Mission Circle ,,Santa Rosa ,CA,95409,US,(707) 578-1072,,,,,,
La Coupe Sauvage,,1619 Terrace Way ,,Santa Rosa ,CA,95404,US,(707) 576-7545,,,,,,
La De Da Salon,,513 E Street ,,Santa Rosa ,CA,95404,US,(707) 477-4940,,,,,,
J Leonard Salon,,10 Fourth Street ,,Santa Rosa ,CA,95401,US,(707) 544-2404,,,,,,
Abella Salon,,1300 50th St ,,West Des Moines ,IA,50266,US,(515) 327-5980,,,,,,
Fix Salon,,110 3rd Avenue Southwest ,,Cedar Rapids ,IA,52404,US,(319) 365-1500,,,,,,
Wright Salon,,700 16th Street NE ,,Cedar Rapids ,IA,52402,US,(319) 551-7414,,,,,,
Refined Reflection,,3270 19th Street Northwest ,,Rochester ,MN,55901,US,(507) 722-2628,,,,,,
Shear Envy,,2665 Commerce Dr NW ,,Rochester ,MN,55901,US,(507) 258-4020,,,,,,
Bombshell Bettys Salon West,,2180 North West 156th Street ,,Clive ,IA,50325,US,(515) 987-2331,,,,,,
J Michaels Salon,,2105 Ingersoll Avenue ,,Des Moines ,IA,50312,US,(515) 288-0541,,,,,,
Oliver + James,,1417 Walnut Street ,,Des Moines ,IA,50309,US,(515) 282-6495,,,,,,
Bombshell Bettys Salon East,,521 East Locust ,,Des Moines ,IA,50309,US,(515) 274-1577,,,,,,
Buzz,,110 South Dubuque Street ,,Iowa City ,IA,52240,US,(319) 466-4270,,,,,,
Flip Salon and Spa,,350 Beaver Kreek Centre ,,North Liberty ,IA,52317,US,(319) 626-8550,,,,,,
Cole's Salon,,8160 County Road 42 ,,Savage ,MN,55378,US,(952) 226-5310,,,,,,
Cole's Salon,,15050 Cedar Avenue South ,,Apple Valley ,MN,55124,US,(952) 891-4112,,,,,,
Cole's Salon,,14150 Nicollet Avenue South ,,Burnsville ,MN,55337,US,(952) 435-8585,,,,,,
Cole's Salon,,2131 Cliff Road ,,Eagan ,MN,55122,US,(651) 454-1390,,,,,,
Spalon Montage,,600 Market Street ,,Chanhassen ,MN,55317,US,(952) 915-2900,,,,,,
Cole's Salon,,3450 Pilot Knob Road ,,Eagan ,MN,55123,US,(651) 456-9454,,,,,,
Bella on the Bay,,474 2nd Street ,,Excelsior ,MN,55331,US,(952) 474-5005,,,,,,
Gary Allen Hair & Skin Care Centre,,741 First Colonial Road ,,Virginia Beach ,VA,23451,US,,,,,,,
Wink Salon Va Beach,,1544 Laskin Road ,,Virginia Beach ,VA,23451,US,(757) 425-9465,,,,,,
Bluemercury Apothecary and Spa,,196 Central Park Avenue ,,Virginia Beach ,VA,23462,US,(202) 342-9800,,,,,,
Hair Graphics,,342 Constitution Drive ,,Virginia Beach ,VA,23462,US,(757) 490-2467,,,,,,
Dupre's Salon & Day Spa,,1708 Pleasure House Road ,,Virginia Beach ,VA,23455,US,(757) 464-9100,,,,,,
G Patton Salon,,350 West 22nd Street ,,Nortfolk ,VA,23517,US,(757) 622-1221,,,,,,
Blonde Salon,,5664 Shoulders Hill Road ,,Suffolk ,VA,23435,US,(757) 483-2000,,,,,,
La Bella Salon & Day Spa,,404 Wythe Creek Road ,,Poquoson ,VA,23662,US,(757) 659-0115,,,,,,
Brittany's Beauty Bar,,601 Hampton Highway ,,Yorktown ,VA,23693,US,(757) 867-8105,,,,,,
Dolce Vita Salon & Spa,,101 Mill Road ,,Yorktown ,VA,23693,US,(757) 223-4633,,,,,,
Sil'Vie Hair Studio,,733 East Lake Street ,,Wayzata ,MN,55391,US,(952) 473-0848,,,,,,
Parlor of Wayzata,,306 Manitoba Ave S ,,Wayzata ,MN,55391,US,(952) 767-6533,,,,,,
Twiggs Salon,,812 Mill St ,,Wayzata ,MN,55391,US,(952) 258-0200,,,,,,
Bella Salon,,5015 Ewing Avenue South ,,Edina ,MN,55410,US,,,,,,,
Jon Charles Salon,,1313 Wayzata Boulevard ,,Wayzata ,MN,55391,US,(952) 767-9977,,,,,,
Spalon Montage,,3909 West 49 1/2 Street ,,Minneapolis ,MN,55424,US,(952) 915-2900,,,,,,
Sloanes Beauty Bar,,3617 W 50th St ,,Minneapolis ,MN,55410,US,(612) 251-4612,,,,,,
Bay Salon & Boutique,,13896 Ridgedale Drive ,,Minnetonka ,MN,55305,US,(952) 473-1511,,,,,,
HAUS Salon,,4240 Nicollet Avenue South ,,Minneapolis ,MN,55409,US,(612) 827-4287,,,,,,
Thomas Charles Salon,,4008 Minnetonka Boulevard ,,Minneapolis ,MN,55416,US,(952) 925-4277,,,,,,
Phresh Spa Salon,,1639 Park Place Boulevard ,,St. Louis Park ,MN,55416,US,(651) 288-4040,,,,,,
Jon Charles Salon,,1221 West Lake Street ,,Minneapolis ,MN,55408,US,(612) 724-2444,,,,,,
The Hair District,,802 West Lake Street ,,Minneapolis ,MN,55408,US,(612) 355-5250,,,,,,
Salon Rouge,,6 South 13th Street ,,Minneapolis ,MN,55403,US,(612) 374-2201,,,,,,
CaJah Salon,,247 Snelling Avenue South ,,Saint Paul ,MN,55105,US,(651) 200-3450,,,,,,
HAUS SALON (Downtown),,730 Washington Avenue N. ,,Minneapolis ,MN,55401,US,(612) 827-4287,,,,,,
Phresh Salon Spa,,937 Grand Avenue ,,Saint Paul ,MN,55105,US,(651) 227-6371,,,,,,
Gem Salon + Spa,,526 Selby Avenue ,,Saint Paul ,MN,55102,US,(651) 222-3839,,,,,,
Urban Village Salon,,134 Western Avenue North ,,Saint Paul ,MN,55102,US,(651) 330-8404,,,,,,
Ficocello's of Woodbury,,7150 Valley Creek Plaza # 212 ,,Woodbury ,MN,55125,US,(612) 709-6260,,,,,,
The Salon,,1815 Radio Drive ,,Woodbury ,MN,55125,US,(651) 340-8446,,,,,,
Salon Elite MN,,2110 Eagle Creek Lane ,,Woodbury ,MN,55129,US,(651) 739-3773,,,,,,
Bella Beau,,9891 Hundson Place ,,Woodbury ,MN,55125,US,(651) 501-8000,,,,,,
Salon Moda,,1144 County Road ,,East Vadnais Heights ,MN,55110,US,(651) 756-1909,,,,,,
Sun Bear Spa & Salon,,2207 3rd Street ,,White Bear Lake ,MN,55110,US,(651) 426-5884,,,,,,
Belli Capelli The Salon,,2256 Bunker Lake Boulevard NW ,,Andover ,MN,55304,US,(763) 427-6900,,,,,,
ATMA Beauty,,1874 West Avenue ,,Miami Beach ,FL,33139,US,(786) 216-7510,,,,,,
Elle Air Blowdry and Makeup Bar,,9480 Harding Avenue ,,Miami Beach ,FL,33154,US,(305) 763-8385,,,,,,
Bardot Salon and Spa,,698 Northwest 51st Street ,,Boca Raton ,FL,33431,US,(561) 989-8011,,,,,,
Air Bar Blowouts & Extensions,,8050 Trail Boulevard ,,Naples ,FL,34108,US,(239) 592-4556,,,,,,
Sean Donaldson,,701 Southwest Miami Drive ,,Miami ,FL,33131,US,(917) 767-6809,,,,,,
D&E Hair Studio,,245 NE 14th Street ,,Miami ,FL,33132,US,(917) 849-9383,,,,,,
Avant Garde Salon (FL),,155 Miracle Mile ,,Miami ,FL,33134,US,(305) 442-8136,,,,,,
RIK RAK,,1428 Brickell Avenue ,,Miami ,FL,33131,US,(305) 371-7324,,,,,,
Bluemercury Apothecary and Spa,,317 Miracle Mile ,,Coral Gables ,FL,33134,US,,,,,,,
Emena Spa,,4100 NE 2nd Avenue ,,Miami ,FL,33137,US,(305) 438-3777,,,,,,
Ugo Di Roma,,2801 Florida Avenue ,,Miami ,FL,33133,US,(305) 444-4661,,,,,,
Sharp Designers Hair Salon,,135 San Lorenzo Avenue ,,Miami ,FL,33146,US,(305) 443-7578,,,,,,
Atelier Posh,,7011 Biscayne Boulevard ,,Miami ,FL,33138,US,(561) 584-4010,,,,,,
Gee Beauty,,1845 Purdy Avenue ,,Miami Beach ,FL,33139,US,(305) 868-3533,,,,,,
Guy & Girl Salon,,1100 West Avenue ,,Miami Beach ,FL,33139,US,(305) 514-1950,,,,,,
Babalu,,1111 Lincoln Road ,,Miami Beach ,FL,33139,US,(305) 538-0777,,,,,,
Bluemercury Apothecary and Spa,,1109 Lincoln Road ,,Miami Beach ,FL,33139,US,,,,,,,
Oribe Salon,,1627 Euclid Avenue ,,Miami Beach ,FL,33139,US,(305) 538-8006,,,,,,
Safar South Beach,,22 Washington Avenue ,,Miami Beach ,FL,33139,US,(305) 538-1973,,,,,,
Orlando Salon and Spa,,3470 Northwest 82 Avenue ,,Miami ,FL,33122,US,(786) 220-5542,,,,,,
The Spa at The Miami Beach Edition,,2901 Collins Avenue ,,Miami Beach ,FL,33140,US,(786) 257-4538,,,,,,
Trump National Doral,,4400 NW 87th Avenue ,,Miami ,FL,33178,US,(305) 591-6438,,,,,,
Saints-n-Scissors,,11091 Biscayne Boulevard ,,North Miami Beach ,FL,33161,US,(305) 981-2220,,,,,,
Tricho Salon Dadeland Mall,,7547 N Kendall Drive ,,Miami ,FL,33156,US,(305) 663-9700,,,,,,
The Carillon Hotel & Spa,,6801 Collins Avenue ,,Miami Beach ,FL,33141,US,(305) 514-7000,,,,,,
Neiman Marcus,,9700 Collins Avenue ,,Bal Harbour ,FL,33154,US,(305) 865-6161,,,,,,
I Salon,,2790 Northeast 187th Street ,,Aventura ,FL,33180,US,(305) 931-0022,,,,,,
En Vogue Salon,,18800 NE 29th Ave ,,Aventura ,FL,33180,US,,,,,,,
Space.N.K. Apothecary,,19555 Biscayne Boulevard ,,Aventura ,FL,33180,US,(305) 792-1015,,,,,,
Maggie the Salon,,2120 North Flamingo Road ,,Pembroke Pines ,FL,33028,US,(954) 442-2223,,,,,,
Rock Spa Salon,,1 Seminole Way ,,Hollywood ,FL,33314,US,(954) 797-5888,,,,,,
"Patrick Taleb Salon & Spa, Inc.",,1585 Northpark Drive ,,Weston ,FL,33326,US,(954) 389-4600,,,,,,
Bluemercury Apothecary and Spa,,1010 East Las Olas Boulevard Fort ,,Lauderdale ,FL,33301,US,(202) 342-9800,,,,,,
Tease Salon,,401 East Las Olas Boulevard Fort ,,Lauderdale ,FL,33301,US,(954) 524-7400,,,,,,
Neiman Marcus,,2442 East Sunrise Boulevard Fort ,,Lauderdale ,FL,33304,US,(954) 566-6666,,,,,,
The Spa at Ocean Reef Club,,1 Service Village Lane ,,Key Largo ,FL,33037,US,(305) 367-6506,,,,,,
Salon 6,,6240 Coral Ridge Drive ,,Coral Springs ,FL,33076,US,(954) 344-5444,,,,,,
Wild Hare Salon Spa,,6877 SW 18th Street ,,Boca Raton ,FL,33433,US,(561) 347-8100,,,,,,
Boca Raton Resort and Club,,501 East Camino Real Boca ,,Raton ,FL,33432,US,(561) 447-3224,,,,,,
The Blow Zone Boca,,435 South Federal Highway ,,Boca Raton ,FL,33432,US,(561) 717-8182,,,,,,
Salon Monaco,,339 E Palmetto Park Road. ,,Boca Raton ,FL,33432,US,(561) 417-2929,,,,,,
Salon Cielo (Town Center at Boca Raton),,6000 Glades Road ,,Boca Raton ,FL,33431,US,(561) 367-0696,,,,,,
Jody Jack and Co.,,21090 Saint Andrews Blvd ,,Boca Raton ,FL,33433,US,(561) 391-7545,,,,,,
Neiman Marcus,,Town Center ,,Boca Raton ,FL,33431,US,(214) 573-5756,,,,,,
Space.N.K. Apothecary,,5840 Glades Road ,,Boca Raton ,FL,33431,US,(561) 394-2242,,,,,,
Peter Coppola Salon,,2200 Glades Road ,,Boca Raton ,FL,33431,US,,,,,,,
The Salon at Boca West,,20371 Country Club Boulevard ,,Boca Raton ,FL,33434,US,(561) 488-7820,,,,,,
"The Country Club at Woodfield, Inc.",,3650 Club Place ,,Boca Raton ,FL,33496,US,(561) 989-7278,,,,,,
Bliss Salon and Spa,,17940 N. Military Trail ,,Boca Raton ,FL,33496,US,(561) 988-8989,,,,,,
Hair by Scott & Company,,16850 Jog Road ,,Delray Beach ,FL,33446,US,(561) 865-8383,,,,,,
Resta Salon,,258 SE 6th Ave ,,Delray Beach ,FL,33483,US,(561) 266-2611,,,,,,
Odeon Salon,,75 SE 4th Ave ,,Delray Beach ,FL,33483,US,(561) 276-7999,,,,,,
Bond Street,,25 NE 2nd Avenue ,,Delray Beach ,FL,33444,US,(561) 330-8760,,,,,,
The Salon at Eau Spa,,100 South Ocean Boulevard ,,Lantana ,FL,33462,US,(561) 540-4960,,,,,,
Michael Angelo Salon and Spa,,4095 State Road 7 ,,Lakeworth ,FL,33467,US,(561) 966-1661,,,,,,
"JW Salon Marco, Inc.",,400 South Collier Boulevard ,,Marco Island ,FL,34145,US,,,,,,,
Blue Water Salon,,1575 Pine Ridge Road ,,Naples ,FL,34109,US,(239) 596-2082,,,,,,
Billy Salon Gallery,,5100 Tamiami Trail North ,,Naples ,FL,34103,US,(239) 206-8756,,,,,,
The Ritz-Carlton Spa Naples,,280 Vanderbilt Beach Road ,,Naples ,FL,34108,US,(239) 598-3300,,,,,,
NColor Salon and Boutique,,4760 Tamiami Trail North ,,Naples ,FL,34103,US,(239) 597-7005,,,,,,
Salon Forte,,2071 Central Drive Green ,,Bay ,WI,54311,US,(920) 680-0169,,,,,,
Salon West & Spa,,1615 Ludington Street ,,Escanaba ,MI,49829,US,(906) 233-7330,,,,,,
Chez Ann Salon in the City,,286 Delaware Avenue ,,Buffalo ,NY,14202,US,(716) 852-5252,,,,,,
Vanity Salon of Buffalo,,1413 Hertel Avenue ,,Buffalo ,NY,14216,US,(716) 836-4574,,,,,,
Chez Ann Salon and Day Spa,,5140 Main Street ,,Williamsville ,NY,14221,US,(716) 632-2258,,,,,,
Excuria Salon and Med Spa,,5725 Main Street ,,Williamsville ,NY,14221,US,(716) 839-3106,,,,,,
Space.NK @ Nordstrom Eton Centre,,260 Yonge Street ,,Toronto ,Toronto,M5B2L9,CA,(212) 941-4231,,,,,,
David Mitchell Studio Inc.,,241 King St. ,,East Toronto ,ON,M5A 1J9,CA,(416) 971-7733 Ext.,,,,,,
Toni & Guy,,128.5 Cumberland St. ,,Toronto ,Toronto,ON M5R,CA,(416) 920-7775 Ext.,,,,,,
Masoud Houshmand Salon,,27 Bellair St. ,,Toronto ,Toronto,ON M5R,CA,(416) 927-7277 Ext.,,,,,,
Maison de Cheveux,,201 St Charles Avenue ,,New Orleans ,LA,70170,US,(504) 908-4247,,,,,,
Mercer Studio,,17650 Highland Road ,,Baton Rouge ,LA,70810,US,(225) 752-5000,,,,,,
Rocket Science,,640 Elysia Fields Avenue ,,New Orleans ,LA,70117,US,(504) 218-8982,,,,,,
The Waldorf Astoria Spa,,130 Roosevelt Way ,,New Orleans ,LA,70112,US,(504) 335-3190,,,,,,
Mariposa Salon & Spa,,421 North Carrollton Avenue ,,New Orleans ,LA,70119,US,(504) 484-0440,,,,,,
Salon M,,4336 Canal Street ,,New Orleans ,LA,70119,US,(504) 304-6525,,,,,,
Carpe Diem,,209 Harrison avenue ,,New Orleans ,LA,70124,US,(504) 432-5509,,,,,,
Embodyment Salon & Spa,,3701 Magazine Street ,,New Orleans ,LA,70115,US,(504) 891-4440,,,,,,
David Falcon Salon,,3953 Magazine Street ,,New Orleans ,LA,70115,US,(504) 905-5099,,,,,,
Bluemercury Apothecary and Spa,,5601 Magazine Street ,,New Orleans ,LA,70115,US,,,,,,,
Glow Hair and Beauty,,3101 Metairie road ,,Metairie ,LA,70001,US,(504) 218-4288,,,,,,
Beau Rivage Resort and Casino Salon,,875 Beach Boulevard ,,Biloxi ,MS,39530,US,(228) 386-7489,,,,,,
Duke The Studio,,10925 Perkins Road ,,Baton Rouge ,LA,70810,US,(225) 769-1155,,,,,,
Soho Boutique Salon,,7731 Perkins Road ,,Baton Rouge ,LA,70810,US,(225) 246-8005,,,,,,
Style Downtown Salon,,192 North Palafox Street ,,Pensacola ,FL,32502,US,(850) 497-6648,,,,,,
Alex's Salon,,11 West De La Guerra ,,Santa Barbara ,CA,93103,US,(805) 741-4247,,,,,,
A Secret Place Salon & Spa,,1890 East Main Street ,,Ventura ,CA,93001,US,(805) 643-3526,,,,,,
KinShoppe,,2171 East Thompson Boulevard ,,Ventura ,CA,93001,US,(805) 641-2171,,,,,,
Ten Dash One,,390 S. Mills Road ,,Ventura ,CA,93003,US,(805) 477-9858,,,,,,
Infuse Hair Salon,,1020 Keeamoku Street ,,Honolulu ,HI,96814,US,(808) 554-4777,,,,,,
Salon Blanc,,1288 Ala Moana Boulevard ,,Honolulu ,HI,96914,US,(808) 593-2100,,,,,,
Colours Salon,,173 Ho'ohana Street ,,Kahului ,HI,96732,US,(808) 871-1002,,,,,,
Fairmont Orchid Hawaii,,1 North Kaniku Drive ,,Kohala Coast ,HI,96743,US,(808) 887-7514,,,,,,
Sixx Two Eight Salon and Style Bar,,339 Healdsburg Ave ,,Healdsburg ,CA,95448,US,(707) 473-8555,,,,,,
Advanced Skin Care Spa & Salon,,115 Farley Circle ,,Lewisburg ,PA,17837,US,(570) 524-4466,,,,,,
Evolve Studio,,326 West Beaver Avenue ,,State College ,PA,16801,US,(814) 272-3047,,,,,,
Art & Soul,,9802 103 Street ,,Grande Prairie ,Prairie,AB T8V,CA,780-532-0023,,,,,,
Art & Soul Hair Studio,,9802 102 Street ,,Grande Prairie ,AB,T8V 2V2,CA,780-532-0023,,,,,,
Glow Salon Spa & Nail,,# 110 8 McLeod Avenue ,,Spruce Grove ,AB,T7X 3X3,CA,587-286-4000,,,,,,
Studio 107 Hair Inc.,,20-585 St. Albert Trail St. ,,Albert ,AB,T8N 6G5,CA,(780) 458-0107,,,,,,
Epic Beauty Boutique,,2494 Guardian Road ,,Edmonton ,AB,T5T 1K8,CA,(780) 429-4499,,,,,,
The Cutting Room,,10126-121 St. ,,Edmonton ,AB,T5N 1K4,CA,(780) 496-9977,,,,,,
Jigsaw for Hair,,10215 109 Street ,,Edmonton ,AB,T5J 1N2,CA,780-413-1743,,,,,,
Soho Master Hair Stylists,,11815 40 Avenue ,,Edmonton ,AB,T6J 0R8,CA,(780) 465-7646,,,,,,
Dollhouse Hair Boutique,,6934 104 Street ,,Edmonton ,AB,T6H 2L7,CA,780-708-0575,,,,,,
Blue Gemini Hair Studio,,14115 23 Avenue ,,Edmonton ,AB,T6R 0G4,CA,780-436-4783,,,,,,
One Wellness & Spa,,187 Kananaskis Way T1W 0A3 ,,Canmore ,AB,T1W 0A3,CA,(403) 679-7179,,,,,,
House of Toli,,2144- 10 Aspen Stone Blvd SW ,,Calgary ,AB,T3H 0K3,CA,(403) 289-8654,,,,,,
Karma Salon,,820 3630 Brentwood BLVD NW ,,Calgary ,AB,T2L 1K8,CA,403 282 2485,,,,,,
Salon Fli,,1220 8th St SW T2R 1A9 ,,Calgary ,AB,T2R 1A9,CA,(403) 410-7400,,,,,,
Jami Symons Salon,,924 17 Avenue SW T2T 0A2 ,,Calgary ,AB,T2T 0A2,CA,(403) 290-1999,,,,,,
Bluemercury Apothecary and Spa,,184 Columbus Avenue ,,New York ,NY,10023,US,(847) 615-3000,,,,,,
Flavio Oliveira,,104 West 71st Street ,,NYC ,NY,10023,US,(212) 877-2020,,,,,,
Bluemercury Apothecary and SPA,,341 Amsterdam Ave ,,New York ,NY,10024,US,(202) 342-9800,,,,,,
TwoDo Salon,,210 W. 82nd Street ,,New York ,NY,10024,US,(212) 787-1277,,,,,,
Bluemercury Apothecary and SPA,,2305 Broadway ,,New York ,NY,10024,US,(202) 342-9800 X 222,,,,,,
Primp,,39 East Market Street ,,Corning ,NY,14830,US,(607) 973-2122,,,,,,
J. Luxe Salon,,210 West Division St. ,,Syracuse ,NY,13204,US,(315) 218-5760,,,,,,
Tiblez Tesfagaber,,45 St.Lawrence Street Unit 215 ,,Toronto ,ON,M5A 1M6,CA,(416) 368-6641 Ext.,,,,,,
Blonde,,82 Pover St. ,,Toronto ,Toronto,ON M5A,CA,(416) 361-3131 Ext.,,,,,,
Navigate Space,,904-285 Mutual Street ,,Toronto ,ON,M4Y 3C5,CA,(416) 366-6020 Ext.,,,,,,
Bang Salon,,859 DANFORTH AVE. ,,Toronto ,ON,M4J 1L8,CA,(647) 347-2264 Ext.,,,,,,
Vaffi Salon,,675 Danforth Ave ,,Toronto ,ON,M4J 1L2,CA,416-463-7921,,,,,,
Bob + Paige Salon,,239 Danforth ave. ,,Toronto ,ON,M4K 1N2,CA,(416) 850-9719 Ext.,,,,,,
Studio 17,,88 Bloor St. E ,,Toronto ,ON,M4W 3G9,CA,(416) 922-2992 Ext.,,,,,,
Salon Davachi by Felor,,97 Scollard St. ,,Toronto ,ON,M5R 1G4,CA,(416) 966-9797 Ext.,,,,,,
Marcy Chung (Fake Beauty),,84 Scollard St. ,,Toronto ,ON,M5R 1G2,CA,(647) 746-1304 Ext.,,,,,,
Ryan Dowell(Fake Beauty),,84 Scollard St. ,,Toronto ,ON,M5R 1G2,CA,(647) 350-3253 Ext.,,,,,,
Shagg Salon,,102 Scollard St ,,Toronto ,ON,M5R 1G2,CA,(416) 934-1817 Ext.,,,,,,
Orya Beauty Boutique,,131 Avenue Rd. ,,Toronto ,ON,M5R 2H7,CA,(416) 642-1716 Ext.,,,,,,
Lac And Co.,,172 Davenport road ,,Toronto ,ON,M5R 1J2,CA,(416) 962-8888 Ext.,,,,,,
Gee Beauty,,2 Roxborough Street ,,West Toronto ,ON,M4W 2L4,CA,(416) 486-0080 Ext.,,,,,,
Francesca Salon & Spa,,333A Lonsdale Rd ,,Toronto ,Toronto,ON M5P,CA,(416) 481-4966 Ext.,,,,,,
The Manor Boutique Salon,,659 Mt Pleasant Rd. ,,Toronto ,ON,M4S 2N2,CA,(416) 901-1412 Ext.,,,,,,
Look Hair Studio,,1820 Bayview Ave ,,Toronto ,ON,M4G 4G7,CA,(416) 322-5665 Ext.,,,,,,
Kozeta,,573 Eglinton Ave W ,,Toronto ,ON,M5N 1B5,CA,(416) 932-3131 Ext.,,,,,,
Kozeta,,573 Eglinton Ave W ,,Toronto ,ON,M5N 1B5,CA,(416) 932-3131,,,,,,
Maison LeDrew Costello,,536 Eglinton Ave. W ,,Toronto ,ON,M5N 1B4,CA,(647) 351-6527 Ext.,,,,,,
JASON LEE SALON (Formerly Saloniere),,2470 A Yonge St. ,,Toronto ,ON,M4P 2H5,CA,(416) 480-0020 Ext.,,,,,,
Donato Don Mills,,39 Clock Tower Road ,,Toronto ,Toronto,ON M3C,CA,416-390-9996,,,,,,
Dragan Hair Design (KERATIN),,3196 Yonge St ,,Toronto ,ON,M4N 2L1,CA,(647) 430-8598 Ext.,,,,,,
Pezh,,3371 Yonge St ,,Toronto ,ON,M4N 2M6,CA,416-792-8842,,,,,,
Mosaic Hair Group,,1848 Avenue Rd ,,Toronto ,ON,M5M 3Z5,CA,(416) 787-8899 Ext.,,,,,,
Scott Miller,,3340 Monroe Ave ,,Rochester ,NY,14618,US,(585) 264-9940,,,,,,
Inception Hair Studio,,7575 Younge St ,,Markham ,ON,L3T 5R5,CA,(289) 597-7575 Ext.,,,,,,
IGNITE SALON,,8150 Yonge Street ,,Vaughan ,ON,L4J 1W5,CA,905-597-1147,,,,,,
Shai Hair Salon at Farah's Salon & Esthetics,,8199 Yonge Street Unit 100 ,,Markham ,ON,L4J 1W5,CA,(416) 512-1991 Ext.,,,,,,
Cataldo Hair Design Ltd,,3601 HWY 7 E SuiTE-104 ,,Markham ,ON,L3R 0M3,CA,(905) 479-8900 Ext.,,,,,,
Wash Beauty Lounge,,8281 Yonge Street ,,Markham ,ON,L3T 2C7,CA,(905) 886-1011 Ext.,,,,,,
Scott Miller,,980 Ridge Road ,,Webster ,NY,14580,US,(585) 264-9940,,,,,,
SABRINA CATALDO,,43 LUCIDA CT ,,Toronto Ontario ,Ontario,L4A 1S1,CA,(416) 910-4247 Ext.,,,,,,
Femme Fatale,,99 Dunlop St. E L4M 1A6 ,,Barrie ,ON,L4M 1A6,CA,(705) 252-8917 Ext.,,,,,,
Salon You,,390 N Front St ,,Belleville ,ON,K8P 3C9,CA,613-771-1968,,,,,,
Liz Lanza's Salon & Day Spa,,238 West Willow Street ,,Syracuse ,NY,13202,US,(315) 472-1306,,,,,,
Hello Darling,,18 Winter Street ,,Reno ,NV,89503,US,(775) 329-2363,,,,,,
Studio Phi,,538 W. Plumb Lane ,,Reno ,NV,89509,US,(775) 826-5555,,,,,,
Tribe Salon,,7485 Longley Lane ,,Reno ,NV,89511,US,(408) 390-4958,,,,,,
Zoe Jane Salon,,774 Mays ,,Boluvard Incline Village ,NV,89451,US,(775) 831-1877,,,,,,
Zoe Jane Salon Truckee Division,,10120 Jibboom Street ,,Truckee ,CA,96161,US,(415) 317-3759,,,,,,
Two22 Salon,,222 West 3rd Street ,,Chico ,CA,95928,US,(530) 592-3961,,,,,,
Crush Hair Studio,,350 West Liberty Street ,,Reno ,NV,89501,US,(775) 324-4447,,,,,,
Wade West,,855 South Center Street ,,Reno ,NV,89501,US,(775) 470-8800,,,,,,
Spa Toscana - Peppermill Resort Spa & Casino,,2707 South Virginia Street ,,Reno ,NV,89502,US,(775) 689-7190,,,,,,
Posh Salon & Spa,,250 Crummer Lane ,,Reno ,NV,89502,US,(775) 826-7674,,,,,,
Urban Angels Salon,,10120 Jibboom Street ,,Truckee ,CA,96161,US,(530) 587-9900,,,,,,
The Hair Company,,2760 Esplanade ,,Chico ,CA,95973,US,(530) 894-2002,,,,,,
Halo Salon LLC,,3385 Colton Drive ,,Helena ,MT,59601,US,(406) 442-4256,,,,,,
Fete Style Bar,,110 North 8th Street ,,Boise ,ID,83702,US,(208) 344-3559,,,,,,
Wisteria Salon,,4940 East Mill Station Drive ,,Boise ,ID,83716,US,(208) 344-1711,,,,,,
Rejuv Medspa,,1631 South Wells Avenue ,,Boise ,ID,83702,US,(208) 884-3800,,,,,,
Two Rivers Salon & Spa,,661 South Rivershore Lane ,,Eagle ,ID,83616,US,(208) 938-9060,,,,,,
Mane Muse,,370 Walnut Ave ,,Ketchum ,ID,83340,US,(602) 663-0500,,,,,,
Salon Nouveau,,224 North Howard Street ,,Spokane ,WA,99201,US,(509) 838-0331,,,,,,
Red Union Salon,,118 Central Avenue ,,Whitefish ,MT,59937,US,(406) 730-1001,,,,,,
Lavish Body & Home,,600 Linden Street ,,Scranton ,PA,18503,US,570￢ﾀﾓ558-2273,,,,,,
Pierino Scarfo Salon Spa,,432 Richmond Road ,,Toronto Ontario ,Ontario,K2A 0G2,CA,(613) 828-6101 Ext. 2,,,,,,
Jean Paul Spa,,1475 Western Avenue ,,Albany ,NY,12203,US,(518) 482-2121,,,,,,
Jean Paul Salon,,1475 Western Ave ,,Albany ,NY,12203,US,(518) 482-2121,,,,,,
Jean Paul Salon,,594 New Loudon Rd ,,Latham ,NY,12110,US,(518) 482-2121,,,,,,
Mela Salon,,89 North Front Street ,,Kingston ,NY,12401,US,(845) 853-8373,,,,,,
John Christopher Salon,,33 Purchase Street ,,Rye ,NY,10580,US,(914) 967-4229,,,,,,
Craft & Theory,,22 Sheridan Avenue ,,Ho Ho Kus ,NJ,07423,US,(201) 857-5239,,,,,,
Nicole Rose Salon,,1689 Northern Boulevard ,,Manhasset ,NY,11030,US,(516) 627-4247,,,,,,
Bluemercury Apothecary and SPA,,48 Pondfield Rd. ,,Bronxville ,NY,10708,US,(212) 396-1500,,,,,,
Numi & Co,,69 Harney Road ,,Scarsdale ,NY,10583,US,(914) 574-6402,,,,,,
Dream Dry (Scarsdale),,10 Chase Road ,,Scarsdale ,NY,10583,US,(646) 360-1416,,,,,,
Julius Michael Scarsdale,,1 Christie Place ,,Scarsdale ,NY,10583,US,(914) 725-1123,,,,,,
Salon Topaz,,77 Main Street ,,Dobbs Ferry ,NY,10522,US,(914) 231-6212,,,,,,
Knotz Hair Studio,,241 Main Street ,,New Rochelle ,NY,10801,US,(914) 576-3931,,,,,,
Lege Artis Hair Salon,,28 Washington Street ,,Tenafly ,NJ,07670,US,(201) 399-7733,,,,,,
Kink Salon,,25 Nordhoff Place ,,Englewood ,NJ,07631,US,(201) 894-5465,,,,,,
Neiman Marcus,,2 E Maple Avenue ,,White Plains ,NY,10601,US,(914) 428-2000,,,,,,
Vasken Demirjian Salon,,12 City Place ,,White Plains ,NY,10601,US,(914) 285-0800,,,,,,
JK Salon,,1530 Palisade Avenue ,,Fort Lee ,NJ,07024,US,(201) 482-8774,,,,,,
Panico Salon & Spa,,393 Kinderkamack Road ,,Oradell ,NJ,07649,US,(201) 265-1765,,,,,,
Hudson Paul,,8 Purchase Street ,,Rye ,NY,10580,US,(914) 481-1300,,,,,,
Numi & Company,,99 Purchase Street ,,Rye ,NY,10580,US,(914) 921-6864,,,,,,
J&Co Hair Studio,,314 Route 4 ,,East Paramus ,NJ,07652,US,(201) 487-1008,,,,,,
Elie Esper Salon & Bridal,,483 Bergen Boulevard ,,Ridgefield ,NJ,07657,US,(212) 313-9363,,,,,,
The Color Room,,2664 Broadway ,,New York ,NY,10025,US,(212) 222-3100,,,,,,
Kolorbar Broadway,,2490 Broadway ,,New York ,NY,10025,US,(212) 496-2800,,,,,,
Val More Salon,,1323 Madison Avenue ,,New York ,NY,10128,US,1 (516) 974-6926,,,,,,
Bluemercury Apothecary and SPA,,2477 Broadway ,,New York ,NY,10025,US,(202) 342-9800,,,,,,
Commisso and Company,,30 Main Street Port ,,Washington ,NY,11050,US,(516) 767-7460,,,,,,
Christie & Co. Salon & Spa,,23-64 Bell Boulevard ,,Bayside ,NY,11360,US,(718) 225-7766,,,,,,
Bluemercury Apothecary and SPA,,1208 Madison Avenue ,,New York ,NY,10128,US,(732) 745-7770,,,,,,
Davida Salon,,1711 2nd Avenue ,,New York ,NY,10128,US,(212) 722-5900,,,,,,
Bluemercury 88th & 3rd,,1566 THIRD AVENUE ,,New York ,NY,10128,US,(212) 396-1500,,,,,,
Kolorbar,,306 East 86th Street ,,New York ,NY,10028,US,,,,,,,
Dream Spa Greenwich,,151 Greenwich Avenue ,,Greenwich ,CT,06830,US,(203) 629-2525,,,,,,
Mure Salon,,1566 2nd Ave ,,New York ,NY,10028,US,(212) 628-5393,,,,,,
Salon Ichi-e,,47 middle neck road ,,Great Neck ,NY,11021,US,(347) 688-8405,,,,,,
Jeffrey Stein Salon,,1498 Second Avenue ,,New York ,NY,10075,US,(212) 772-7717,,,,,,
Bluemercury Bpothecary and SPA,,391 Chestnut Ridge Road ,,Woodcliff Lake ,NJ,07677,US,(202) 342-9800,,,,,,
Moxie Blowdry & Beauty Bar,,26 Chestnut Ridge Road ,,Montvale ,NJ,07645,US,(201) 391-9050,,,,,,
Hopscotch Salon,,10 Railroad Avenue ,,Greenwich ,CT,06830,US,(203) 661-0107,,,,,,
Haru Salon & Spa,,189 East Franklin Turnpike ,,Ho Ho Kus ,NJ,07423,US,(201) 251-6633,,,,,,
Becker Salon Greenwich,,380 Greenwich Ave. ,,Greenwich ,CT,06830,US,(203) 340-9550,,,,,,
Panico Salon & Spa,,144 East Ridgewood Avenue ,,Ridgewood ,NJ,07450,US,(201) 652-4515,,,,,,
Christopher Noland Salon,,124 Greenwich Avenue ,,Greenwich ,CT,06830,US,(203) 622-4247,,,,,,
Jaafar Tazi,,149 Greenwhich Avenue ,,Greenwich ,CT,06830,US,(203) 340-2525,,,,,,
Riccardi Salon,,49 Greenwich Ave ,,Greenwich ,CT,06830,US,,,,,,,
Hairmode,,42-35 Main Street ,,Flushing ,NY,11355,US,(718) 888-9116,,,,,,
Salon Mimoza,,70 East Putnam Avenue ,,Greenwich ,CT,06830,US,(203) 869-2300,,,,,,
Sorell Salon,,1524 Old Northern Blvd. ,,Roslyn ,NY,11576,US,(516) 625-4488,,,,,,
SALON ROCK,,1372 Old Northern Blvd ,,Roslyn ,NY,11576,US,(516) 307-1177,,,,,,
Salon Pop,,160 Wheatley Plaza ,,Greenvale ,NY,11548,US,(516) 626-7444,,,,,,
Bluemercury Apothecary and SPA,,320 Wheatley Plaza ,,Greenvale ,NY,11548,US,(732) 745-7770 ext. 2,,,,,,
Oren Sassoon Salon,,107- 08 71st Road ,,Forest Hills ,NY,11375,US,(718) 575-7575,,,,,,
Fringe Hair Works,,7 North Main Street ,,West Hartford ,CT,06107,US,(860) 236-3746,,,,,,
The Lift (North Amherst MA),,68 Cowls Road ,,Amherst ,MA,01002,US,(413) 230-3318,,,,,,
The Lift,,116 Pleasant St ,,Easthampton ,MA,01027,US,(413) 527-4300,,,,,,
Batik Salon,,1004 Sullivan Ave ,,South Windsor ,CT,06074,US,(860) 648-2424,,,,,,
Contours Spa and Wellness,,2 Bestor Ln ,,Bloomfield ,CT,06002,US,(860) 243-0340,,,,,,
Bluemercury Apothecary and Spa,,140 Glastonbury Blvd. Suite 32 ,,Glastonbury ,CT,06033,US,,,,,,,
Bluemercury Apothecary and Spa,,987 Farmington Ave ,,West Hartford ,CT,06107,US,(202) 342-9800,,,,,,
Kathryn W Salon,,26 West Main Street ,,Mystic ,CT,06355,US,(860) 536-1383,,,,,,
BB SALON,,455 State Road ,,Vineyard Haven ,MA,02568,US,(508) 693-2312,,,,,,
Tracy & Company Salon,,985 Farmington Avenue ,,Kensington ,CT,06037,US,(860) 828-1629,,,,,,
Bloom,,180 Bay Street ,,Sault Ste. Marie ,ON,P6A 6S2,CA,(705) 254-4497 Ext.,,,,,,
The Spa at The Inn at Bay Harbor,,3600 Village Harbor Drive ,,Bay Harbor ,MI,49770,US,(231) 439-4046,,,,,,
Solace Spa,,1 Boyne Mountain Road ,,Boyne Falls ,MI,49713,US,(231) 549-7912,,,,,,
Edward Carriere,,162 Spence Street ,,Winnipeg ,MB,R3C 1Y3,CA,(204) 987-6441,,,,,,
The Spa at Litchfield Hills,,407A Bantam Road ,,Litchfield ,CT,06759,US,(860) 567-8575,,,,,,
Salon Couture of Southington,,38 Center Street ,,Southington ,CT,06489,US,(860) 426-9910,,,,,,
Chameleon Hair Color Cafe & Spa,,323 Washington Avenue ,,North Haven ,CT,06473,US,(203) 234-7900,,,,,,
Adam Broderick Salon & Spa,,730 Main Street ,,South Southbury ,CT,06488,US,(203) 267-7000,,,,,,
Joe's Salon & Spa,,25 Bank Street ,,New Milford ,CT,06776,US,(860) 354-4806,,,,,,
Timothy Pamment Salon,,22 Durham Road ,,Madison ,CT,06443,US,(203) 245-7707,,,,,,
Lis-A-Lis A Salon,,116 Whitfield St ,,Guilford ,CT,06437,US,(203) 481-9934,,,,,,
Bluemercury Apothecary and Spa,,51 Broadway ,,New Haven ,CT,06511,US,,,,,,,
Salon Epic,,1100 Main Street ,,Branford ,CT,06405,US,(203) 433-4679,,,,,,
Kate Emilies A Salon llc,,54 Pembroke Road ,,Danbury ,CT,06810,US,(203) 312-0577,,,,,,
Adam Broderick Salon & Spa,,89 Danbury Road ,,Ridgefield ,CT,06877,US,(203) 431-3994,,,,,,
Mari the Studio,,1997 Post Road ,,Fairfield ,CT,06824,US,(203) 255-2999,,,,,,
W Hair and Color,,1391 Post Road E ,,Westport ,CT,06880,US,(203) 256-2300,,,,,,
The Salon Lea-Lauren,,12 Center Street ,,Wilton ,CT,06897,US,(203) 762-6188,,,,,,
Vincent Palumbo Salon,,616 Post Road ,,East Westport ,CT,06880,US,(203) 454-8600,,,,,,
PIA-Personal Image Artist,,238 Post Rd ,,East Westport ,CT,06880,US,(203) 599-4763,,,,,,
Studio on Main,,125 Main Street ,,Westport ,CT,06880,US,(203) 454-9911,,,,,,
Bluemercury Apothecary and SPA,,62 Main Street ,,Westport ,CT,06880,US,(203) 227-6900,,,,,,
Illuminations Hair and Color Bar,,23 Danbury Road ,,Wilton ,CT,06897,US,(203) 762-6140,,,,,,
David Salon,,264 Main Avenue ,,Norwalk ,CT,06851,US,(203) 840-1018,,,,,,
Chrome Salon,,19 Warren Street ,,Concord ,NH,03301,US,(603) 224-1123,,,,,,
AVINO PARRUCCHIERE,,VIA DEL TAGLIO 24 ,,Modena ,Modena,a 41121,CA,0039059 225600,,,,,,
PROFUMERIA CALERI,,SALITA SANTA CATERINA 25 ,,Genova ,Genova,a 16123,CA,0039010 581312,,,,,,
FRANCESCO BASSO,,VIA CAIO PLINIO SECONDO 9 ,,Como ,Como,a 22100,CA,0039031 273123,,,,,,
Apotheke Portmann,,Höheweg 4 ,,Interlaken ,IN,3800,US,0041 33 828 34 34,,,,,,
Rob Peetoom,,Jan van Goyenstraat 15 Heemstede NH 2102 ,,,CA,,US,+31 (0) 23 547 05 55,,,,,,
Salon Queens Hair,,,,Kitkantie ,Kuusamo,93600,CA,+358 449811083,,,,,,
The Cool Red Room Hair Space ltd.,,250 Kent St K2P2A1 ,,Toronto ,Toronto,K2P2A1,CA,(613) 233-2665 Ext.,,,,,,
Donato Square One,,100 City Centre Drive Unit 20709 ,,Toronto Ontario ,Ontario,L5B 2C9,CA,(905) 566-5900 Ext.,,,,,,
Satori Salon and Spa,,479 Fore Street ,,Portland ,ME,04101,US,(207) 874-8047,,,,,,
Head Games Salon for Hair and Body,,116 Free Street ,,Portland ,ME,04101,US,(207) 773-8393,,,,,,
Bei Capelli,,450 Payne Road ,,Scarborough ,ME,04074,US,(207) 885-0888,,,,,,
RJ Miller Salon and Spa,,6 Amelia Drive ,,Nantucket ,MA,02554,US,(508) 228-3446,,,,,,
La Coupe Salon,,1115 Sherbrooke St. ,,West Montréal ,QC,H3A 1P4,CA,(514) 288-6131,,,,,,
Hair 7,,139 Interstate Shopping Center ,,Ramsey ,NJ,07446,US,(201) 760-1777,,,,,,
Luxe European Salon & Day Spa,,385 North Franklin Turnpike ,,Ramsey ,NJ,07446,US,(201) 825-4443,,,,,,
Giannetta Salon and Spa,,1158 North Ave ,,Beacon ,NY,12508,US,(845) 831-2421,,,,,,
Paulos Atelier,,725 Bedford Road ,,Bedford Hills ,NY,10507,US,(914) 666-2800,,,,,,
HED 2 TOE,,1433 Williston Road South ,,Burlington ,VT,05403,US,(802) 859-0707,,,,,,
27 Hampton Salon,,27 Hampton Road ,,Southampton ,NY,11968,US,(631) 377-3107,,,,,,
Tom New York,,135 Merrick Road ,,Merrick ,NY,11566,US,(516) 492-2922,,,,,,
Hollywood Salon & Day Spa,,929A Route 25A ,,Miller Place ,NY,11764,US,(631) 744-6600,,,,,,
Bluemercury Apothecary and SPA,,120 Main Street ,,New Canaan ,CT,06840,US,(202) 342-9800 x218,,,,,,
Greenwich Pharmacy - New Canaan,,116 Main Street ,,New Canaan ,CT,06840,US,(203) 801-0808,,,,,,
Space.N.K. Apothecary,,36 Elm Street ,,New Canaan ,CT,06840,US,(203) 801-0868,,,,,,
Lanphier Day Spa,,20 West Avenue ,,Darien ,CT,06820,US,(203) 656-4444,,,,,,
Le Boudoir - Darien,,13 Grove Street ,,Darien ,CT,06820,US,(203) 957-8600,,,,,,
Pharaohs,,165 Main Street ,,Center Moriches ,NY,11967,US,(631) 878-6353,,,,,,
The Loft Salon and Spa,,1051 Long Ridge Road ,,Stamford ,CT,06903,US,(203) 890-9494,,,,,,
Salon 3028,,3028B Jericho Turnpike ,,East Northport ,NY,11731,US,(631) 486-5097,,,,,,
Maria Livesay Salon,,1345 East Putnam Avenue Old ,,Greenwich ,CT,06870,US,(203) 698-3509,,,,,,
Papillon Salon,,16 Elm Street ,,Huntington ,NY,11743,US,(631) 549-8542,,,,,,
Bluemercury Apothecary and Spa,,46 Main Street ,,Southampton ,NY,11968,US,(202) 342-9800,,,,,,
Elegant Hair Salon,,155 Pine Hallow Road ,,Oyster Bay ,NY,11771,US,(516) 922-4292,,,,,,
ID Salon,,8063 Jericho Turnpike ,,Woodbury ,NY,11797,US,(516) 921-5541,,,,,,
Salon Rock (East Norwich),,1023 Oyster Bay Road ,,East Norwich ,NY,11732,US,,,,,,,
Entourage Studio,,567 Jericho Turnpike ,,Syosset ,NY,11791,US,(516) 496-1700,,,,,,
White's Apothecary,,81 Main Street ,,East Hampton ,NY,11937,US,(631) 324-0082,,,,,,
Bluemercury Apothecary and Spa,,67 Main Street ,,East Hampton ,NY,11937,US,(630) 455-1400,,,,,,
Erika Cole Salon and Spa,,348 Jericho Turnpike ,,Syosset ,NY,11791,US,(516) 921-3468,,,,,,
Erika Cole Salon,,1109 Old Country Road ,,Plainview ,NY,11803,US,(516) 932-1348,,,,,,
Salon Nouveau Plainview,,1008 Old Country Rd ,,Plainview ,NY,11803,US,(516) 931-9125,,,,,,
Salon Posh,,17 West Main Street ,,Babylon ,NY,11702,US,(631) 321-9702,,,,,,
Ambiance Hair Salon,,397 Glen Cove Road ,,Roslyn Heights ,NY,11577,US,(516) 484-0704,,,,,,
Salon Just Hair,,58 Glen Cove Road ,,East Hills ,NY,11577,US,(516) 484-2123,,,,,,
Beautique salon,,1234 Hicksville Avenue ,,Massapequa ,NY,11758,US,(516) 882-0029,,,,,,
Stetik Salon,,251 Post Ave. ,,Westbury ,NY,11590,US,(516) 307-9000,,,,,,
Neiman Marcus Roosevelt Field,,630 Old Country Road Garden ,,City ,NY,11530,US,(305) 865-6161,,,,,,
Hair Junkie Salon,,650A Willis Avenue ,,Williston Park ,NY,11596,US,(516) 747-1112,,,,,,
Space.N.K. Apothecary,,630 Old Country Road Garden ,,City ,NY,11530,US,(516) 873-2838,,,,,,
HX Salon,,100 Hofstra ,,University Hempstead ,NY,11550,US,(516) 463-7647,,,,,,
Bangz Hair and Color Lounge,,2773 Merrick Rd ,,Bellmore ,NY,11710,US,(516) 781-1111,,,,,,
Nouveau Salon Bellmore,,2603 Merrick Road ,,Bellmore ,NY,11710,US,(516) 308-7272,,,,,,
De La Mer,,2477 Merrick Road ,,Bellmore ,NY,11710,US,(516) 221-3662,,,,,,
Dirosa haircare,,868 Hempstead Turnpike ,,Franklin Square ,NY,11010,US,(516) 488-8038,,,,,,
Salon Pascani,,45 Clinton Avenue ,,Rockville Centre ,NY,11570,US,(516) 594-9600,,,,,,
OSIO Salon,,212 Merrrick Road ,,Rockville Centre ,NY,11570,US,,,,,,,
Sara Lindsay- The Makeup Store,,3420 Hill Avenue ,,Regina ,SK,S4S 0W9,CA,(306) 591-7821,,,,,,
Salon Haze,,2206 Dewdney Ave. ,,Regina ,SK,S4R 1H3,CA,(306)522-4293,,,,,,
Nuva Beaute & Spa,,1750 PIERRE- ,,PELADEAU Laval ,QC,H7T 2Z1,CA,(450) 682-3900 Ext.,,,,,,
Topnotch Resort and Spa,,4000 Mountain Rd. ,,Stowe ,VT,05672,US,(802) 253-6488,,,,,,
Lush Salon and Boutique,,722 South Main Street ,,Stowe ,VT,05672,US,(802) 253-7750,,,,,,
