store_name,store_number,address,address2,city,state,zip_code,country,phone_number,latitude,longitude,store_hours,store_type,other_fields,coming_soon
CLIFTON,,927 NORTH AVENUE G,,CLIFTON,TX,76634-0000,United States,254-675-2404,,,"Sun 08:00 AM - 10:00 PM, M-F 08:00 AM - 10:00 PM, Sat 08:00 AM - 10:00 PM",,,
COMANCHE,,1300 E CENTRAL AVE,,COMANCHE,TX,76442-2806,United States,325-356-2160,,,"Sun 08:00 AM - 10:00 PM, M-F 08:00 AM - 10:00 PM, Sat 08:00 AM - 10:00 PM",,,
COTULLA,,1064 N MAIN ST,,COTULLA,TX,78014-2455,United States,830-483-5379,,,"Sun 09:00 AM - 09:00 PM, M-F 08:00 AM - 09:00 PM, Sat 08:00 AM - 09:00 PM",,,
JACKSBORO,,124 LUMAR DR,,JACKSBORO,TX,76458-0000,United States,940-567-2152,,,"Sun 08:00 AM - 10:00 PM, M-F 08:00 AM - 10:00 PM, Sat 08:00 AM - 10:00 PM",,,
SEYMOUR,,711 S. MAIN STREET,,SEYMOUR,TX,76380-0000,United States,940-888-3047,,,"Sun 08:00 AM - 10:00 PM, M-F 08:00 AM - 10:00 PM, Sat 08:00 AM - 10:00 PM",,,
ANDREWS,,1203 NORTH MAIN STREET,,ANDREWS,TX,79714-3630,United States,432-523-3302,,,"Sun 08:00 AM - 10:00 PM, M-F 08:00 AM - 10:00 PM, Sat 08:00 AM - 10:00 PM",,,
MONAHANS,,1907 S. STOCKTON AVENUE,,MONAHANS,TX,79756-6507,United States,432-943-2558,,,"Sun 08:00 AM - 10:00 PM, M-F 08:00 AM - 10:00 PM, Sat 08:00 AM - 10:00 PM",,,
KERMIT,,334 E. HIGHWAY 302,,KERMIT,TX,79745-5105,United States,432-586-2127,,,"Sun 08:00 AM - 10:00 PM, M-F 08:00 AM - 10:00 PM, Sat 08:00 AM - 10:00 PM",,,
FAIRVIEW,,816 E STATE RD,,FAIRVIEW,OK,73737-2601,United States,580-227-3730,,,"Sun 08:00 AM - 09:00 PM, M-F 08:00 AM - 10:00 PM, Sat 08:00 AM - 09:00 PM",,,
ALPINE,,2500 E HIGHWAY 90,,ALPINE,TX,79830-4107,United States,432-837-7112,,,"Sun 08:00 AM - 10:00 PM, M-F 08:00 AM - 10:00 PM, Sat 08:00 AM - 10:00 PM",,,
LITTLEFIELD,,705 W. MARSHALL HOWARD BLVD,,LITTLEFIELD,TX,79339-0000,United States,806-385-0158,,,"Sun 08:00 AM - 10:00 PM, M-F 08:00 AM - 10:00 PM, Sat 08:00 AM - 10:00 PM",,,
TULIA,,908 NW 6TH STREET,,TULIA,TX,79088-0000,United States,806-995-1259,,,"Sun 08:00 AM - 10:00 PM, M-F 08:00 AM - 10:00 PM, Sat 08:00 AM - 10:00 PM",,,
PRESIDIO,,1000 US BUSINESS 67,,PRESIDIO,TX,79845-0000,United States,432-229-2040,,,"Sun 08:00 AM - 10:00 PM, M-F 08:00 AM - 10:00 PM, Sat 08:00 AM - 10:00 PM",,,
LOVINGTON,,908 WEST AVENUE D,,LOVINGTON,NM,88260-3808,United States,575-739-7467,,,"Sun 08:00 AM - 10:00 PM, M-F 08:00 AM - 10:00 PM, Sat 08:00 AM - 10:00 PM",,,
CANADIAN,,308 S 2ND STREET,,CANADIAN,TX,79014-2506,United States,806-323-8202,,,"Sun 08:00 AM - 10:00 PM, M-F 08:00 AM - 10:00 PM, Sat 08:00 AM - 10:00 PM",,,
PERRYTON,,1301 S. MAIN STREET,,PERRYTON,TX,79070-4709,United States,806-648-4300,,,"Sun 08:00 AM - 10:00 PM, M-F 08:00 AM - 10:00 PM, Sat 08:00 AM - 10:00 PM",,,
WOODSFIELD,,378 LEWISVILLE ROAD,,WOODSFIELD,OH,43793-0000,United States,740-472-0851,,,"Sun 08:00 AM - 09:00 PM, M-F 08:00 AM - 10:00 PM, Sat 08:00 AM - 10:00 PM",,,
MINERVA,,825 VALLEY STREET,,MINERVA,OH,44657-0000,United States,330-868-9958,,,"Sun 08:00 AM - 09:00 PM, M-F 08:00 AM - 10:00 PM, Sat 08:00 AM - 10:00 PM",,,
IMLAY CITY,,1995 SOUTH CEDAR,,IMLAY CITY,MI,48444-0000,United States,810-724-3611,,,"Sun 08:00 AM - 09:00 PM, M-F 08:00 AM - 10:00 PM, Sat 08:00 AM - 10:00 PM",,,
TECUMSEH,,2655 WEST CHICAGO BLVD,,TECUMSEH,MI,49286-0000,United States,517-423-9585,,,"Sun 08:00 AM - 09:00 PM, M-F 08:00 AM - 10:00 PM, Sat 08:00 AM - 10:00 PM",,,
BROOKLYN,,400 SOUTH MAIN STREET,,BROOKLYN,MI,49230-0000,United States,517-592-9550,,,"Sun 08:00 AM - 09:00 PM, M-F 08:00 AM - 10:00 PM, Sat 08:00 AM - 10:00 PM",,,
CHINO VALLEY,,1950 N HIGHWAY 89,,CHINO VALLEY,AZ,86323-5643,United States,928-237-5494,,,"Sun 09:00 AM - 07:00 PM, M-F 08:00 AM - 09:00 PM, Sat 08:00 AM - 09:00 PM",,,
BEAVER,,660 N MAIN ST,,BEAVER,UT,84713-7725,United States,435-438-6122,,,"Sun 09:00 AM - 08:00 PM, M-F 08:00 AM - 10:00 PM, Sat 08:00 AM - 10:00 PM",,,
SPRINGERVILLE,,207 S MOUNTAIN AVE,,SPRINGERVILLE,AZ,85938-5100,United States,928-333-1110,,,"Sun 09:00 AM - 07:00 PM, M-F 08:00 AM - 09:00 PM, Sat 08:00 AM - 09:00 PM",,,
ELY,,701 GREAT BASIN BLVD,,ELY,NV,89301-0000,United States,775-289-7981,,,"Sun 09:00 AM - 08:00 PM, M-F 08:00 AM - 10:00 PM, Sat 08:00 AM - 10:00 PM",,,
DELTA,,94 NORTH 400 EAST,,DELTA,UT,84624-0000,United States,435-864-2500,,,"Sun 09:00 AM - 07:00 PM, M-F 08:00 AM - 09:00 PM, Sat 08:00 AM - 09:00 PM",,,
BLANDING,,860 S MAIN STREET,,BLANDING,UT,84511-3911,United States,435-678-2438,,,"Sun 09:00 AM - 07:00 PM, M-F 08:00 AM - 10:00 PM, Sat 08:00 AM - 10:00 PM",,,
MOAB,,1145 SOUTH HIGHWAY 191,,MOAB,UT,84532-3062,United States,435-259-7286,,,"Sun 09:00 AM - 08:00 PM, M-F 08:00 AM - 09:00 PM, Sat 08:00 AM - 09:00 PM",,,
NEPHI,,1174 N. MAIN STREET,,NEPHI,UT,84648-1008,United States,435-250-8055,,,"Sun 09:00 AM - 07:00 PM, M-F 08:00 AM - 09:00 PM, Sat 08:00 AM - 09:00 PM",,,
SPANISH FORK,,955 NORTH MAIN STREET,,SPANISH FORK,UT,84660-1150,United States,801-798-7381,,,"Sun 09:00 AM - 09:00 PM, M-F 08:00 AM - 10:00 PM, Sat 08:00 AM - 10:00 PM",,,
OREM,,125 S STATE STREET,,OREM,UT,84058-5419,United States,801-224-6800,,,"Sun 09:00 AM - 09:00 PM, M-F 08:00 AM - 10:00 PM, Sat 08:00 AM - 10:00 PM",,,
BALLARD,,1635 E. HIGHWAY 40,,BALLARD,UT,84066-0000,United States,435-722-3888,,,"Sun 09:00 AM - 07:00 PM, M-F 08:00 AM - 10:00 PM, Sat 08:00 AM - 10:00 PM",,,
SANDY CITY,,2165 EAST 9400 SOUTH,,SANDY CITY,UT,84093-3201,United States,801-942-1919,,,"Sun 09:00 AM - 09:00 PM, M-F 08:00 AM - 10:00 PM, Sat 08:00 AM - 10:00 PM",,,
WEST JORDAN,,1553 WEST 9000 S,,WEST JORDAN,UT,84088-9219,United States,801-255-5100,,,"Sun 09:00 AM - 09:00 PM, M-F 08:00 AM - 10:00 PM, Sat 08:00 AM - 10:00 PM",,,
MURRAY,,5959 SOUTH STATE STREET,,MURRAY,UT,84107-7222,United States,801-261-0500,,,"Sun 09:00 AM - 09:00 PM, M-F 08:00 AM - 10:00 PM, Sat 08:00 AM - 10:00 PM",,,
TAYLORSVILLE,,5800 SOUTH REDWOOD ROAD,,SALT LAKE CITY,UT,84123-5327,United States,801-964-8100,,,"Sun 09:00 AM - 09:00 PM, M-F 08:00 AM - 10:00 PM, Sat 08:00 AM - 10:00 PM",,,
BUENA VISTA,,415 US HIGHWAY 24 N,,BUENA VISTA,CO,81211-0000,United States,719-966-5295,,,"Sun 08:00 AM - 09:00 PM, M-F 08:00 AM - 10:00 PM, Sat 08:00 AM - 09:00 PM",,,
LOWELL,,2052 E COMMERCIAL AVE,,LOWELL,IN,46356-2116,United States,219-690-1212,,,"Sun 09:00 AM - 08:00 PM, M-F 08:00 AM - 09:00 PM, Sat 08:00 AM - 09:00 PM",,,
KENOSHA,,5300  52ND ST,,KENOSHA,WI,53144-2398,United States,262-658-8099,,,"Sun 09:00 AM - 09:00 PM, M-F 08:00 AM - 10:00 PM, Sat 08:00 AM - 10:00 PM",,,
DEMOTTE,,334 N. HALLECK STREET,,DEMOTTE,IN,46310-9419,United States,219-270-3373,,,"Sun 09:00 AM - 07:00 PM, M-F 08:00 AM - 10:00 PM, Sat 08:00 AM - 09:00 PM",,,
RACINE,,4801 WASHINGTON AVE,,RACINE,WI,53406-4299,United States,262-637-7333,,,"Sun 09:00 AM - 09:00 PM, M-F 08:00 AM - 10:00 PM, Sat 08:00 AM - 10:00 PM",,,
BELVIDERE,,1400 BIG THUNDER BLVD,,BELVIDERE,IL,61008-1726,United States,815-547-3003,,,"Sun 09:00 AM - 09:00 PM, M-F 08:00 AM - 10:00 PM, Sat 08:00 AM - 10:00 PM",,,
DWIGHT,,110 WATTERS DRIVE,,DWIGHT,IL,60420-0000,United States,815-584-9566,,,"Sun 09:00 AM - 08:00 PM, M-F 08:00 AM - 09:00 PM, Sat 08:00 AM - 09:00 PM",,,
DELAVAN,,1450 EAST GENEVA STREET,,DELAVAN,WI,53115-2025,United States,262-728-0080,,,"Sun 09:00 AM - 09:00 PM, M-F 08:00 AM - 10:00 PM, Sat 08:00 AM - 10:00 PM",,,
DOWAGIAC,,56419 POKAGON STREET,,DOWAGIAC,MI,49047-0000,United States,269-782-5444,,,"Sun 08:00 AM - 09:00 PM, M-F 08:00 AM - 10:00 PM, Sat 08:00 AM - 10:00 PM",,,
JANESVILLE,,2500 E US HWY 14,,JANESVILLE,WI,53545-0309,United States,608-754-7000,,,"Sun 09:00 AM - 09:00 PM, M-F 08:00 AM - 10:00 PM, Sat 08:00 AM - 10:00 PM",,,
BELOIT,,2761 PRAIRIE AVE.,,BELOIT,WI,53511-2296,United States,608-365-5502,,,"Sun 09:00 AM - 09:00 PM, M-F 08:00 AM - 10:00 PM, Sat 08:00 AM - 10:00 PM",,,
SUSSEX,,N 66 W 25201 COUNTY VV,,SUSSEX,WI,53089-2677,United States,262-820-2563,,,"Sun 09:00 AM - 09:00 PM, M-F 08:00 AM - 10:00 PM, Sat 08:00 AM - 10:00 PM",,,
FORT ATKINSON,,1425 JANESVILLE AVE,,FORT ATKINSON,WI,53538-2797,United States,920-563-9343,,,"Sun 09:00 AM - 09:00 PM, M-F 08:00 AM - 10:00 PM, Sat 08:00 AM - 10:00 PM",,,
DIXON,,1350 NORTH GALENA AVENUE,,DIXON,IL,61021-1010,United States,815-284-9043,,,"Sun 09:00 AM - 09:00 PM, M-F 08:00 AM - 10:00 PM, Sat 08:00 AM - 10:00 PM",,,
GRAFTON,,1771 WISCONSIN AVE,,GRAFTON,WI,53024-2437,United States,262-375-1144,,,"Sun 09:00 AM - 09:00 PM, M-F 08:00 AM - 10:00 PM, Sat 08:00 AM - 10:00 PM",,,
ALLEGAN,,540 JENNER DRIVE,,ALLEGAN,MI,49010-0000,United States,269-686-9465,,,"Sun 09:00 AM - 09:00 PM, M-F 08:00 AM - 09:00 PM, Sat 08:00 AM - 09:00 PM",,,
SYRACUSE,,1101 N. INDIANA AVENUE,,SYRACUSE,IN,46567-0000,United States,574-457-5888,,,"Sun 08:00 AM - 09:00 PM, M-F 08:00 AM - 10:00 PM, Sat 08:00 AM - 10:00 PM",,,
LAKE MILLS RX,,203 N. MAIN STREET,,LAKE MILLS,WI,53551-1610,United States,920-648-3455,,,"Sun 10:00 AM - 05:00 PM, M-F 09:00 AM - 07:00 PM, Sat 09:00 AM - 05:00 PM",,,
PORT WASHINGTON,,1011 N WISCONSIN STREET,,PORT WASHINGTON,WI,53074-1207,United States,262-284-3436,,,"Sun 08:00 AM - 09:00 PM, M-F 08:00 AM - 09:00 PM, Sat 08:00 AM - 07:00 PM",,,
FREEPORT,,555 WEST SOUTH STREET,,FREEPORT,IL,61032-6792,United States,815-232-1800,,,"Sun 09:00 AM - 09:00 PM, M-F 08:00 AM - 10:00 PM, Sat 08:00 AM - 10:00 PM",,,
WATERTOWN WI,,701 S. CHURCH ST.,,WATERTOWN,WI,53094-6293,United States,920-261-7995,,,"Sun 09:00 AM - 09:00 PM, M-F 08:00 AM - 10:00 PM, Sat 08:00 AM - 10:00 PM",,,
WEST BEND,,1710 S. MAIN ST.,,WEST BEND,WI,53095-4998,United States,262-338-6131,,,"Sun 09:00 AM - 09:00 PM, M-F 08:00 AM - 10:00 PM, Sat 08:00 AM - 10:00 PM",,,
ATTICA,,1215 E. MAIN STREET,,ATTICA,IN,47918-0000,United States,765-762-0032,,,"Sun 09:00 AM - 08:00 PM, M-F 08:00 AM - 10:00 PM, Sat 08:00 AM - 09:00 PM",,,
MONROE,,405 W. EIGHTH STREET,,MONROE,WI,53566-1063,United States,608-328-3300,,,"Sun 09:00 AM - 09:00 PM, M-F 08:00 AM - 10:00 PM, Sat 08:00 AM - 10:00 PM",,,
MONONA,,2101 WEST BROADWAY,,MONONA,WI,53713-1698,United States,608-222-6010,,,"Sun 09:00 AM - 09:00 PM, M-F 08:00 AM - 10:00 PM, Sat 08:00 AM - 10:00 PM",,,
MAYVILLE,,2050 HORICON STREET,,MAYVILLE,WI,53050-0000,United States,920-387-0257,,,"Sun 09:00 AM - 08:00 PM, M-F 08:00 AM - 09:00 PM, Sat 08:00 AM - 09:00 PM",,,
MADISON NORTHEAST,,2201 ZEIER RD.,,MADISON,WI,53704-7415,United States,608-246-0700,,,"Sun 09:00 AM - 09:00 PM, M-F 08:00 AM - 10:00 PM, Sat 08:00 AM - 10:00 PM",,,
REDDING,,55 LAKE BOULEVARD,,REDDING,CA,96003-2500,United States,530-241-0415,,,"Sun 09:00 AM - 09:00 PM, M-F 08:00 AM - 10:00 PM, Sat 08:00 AM - 10:00 PM",,,
BEND,,60 NE BEND RIVER MALL AVE,,BEND,OR,97701-7528,United States,541-382-2121,,,"Sun 09:00 AM - 09:00 PM, M-F 08:00 AM - 10:00 PM, Sat 08:00 AM - 10:00 PM",,,
EUGENE NORTH,,2815 CHAD DRIVE,,EUGENE,OR,97408-7335,United States,541-485-7443,,,"Sun 09:00 AM - 09:00 PM, M-F 08:00 AM - 10:00 PM, Sat 08:00 AM - 10:00 PM",,,
ANTHONY,,710 N LL AND G AVENUE,,ANTHONY,KS,67003-2814,United States,620-842-3607,,,"Sun 08:00 AM - 09:00 PM, M-F 08:00 AM - 10:00 PM, Sat 08:00 AM - 09:00 PM",,,
DALHART,,509 BLAIR STREET,,DALHART,TX,79022-2557,United States,806-244-6710,,,"Sun 08:00 AM - 10:00 PM, M-F 08:00 AM - 10:00 PM, Sat 08:00 AM - 10:00 PM",,,
SALEM,,1230 LANCASTER DRIVE SE,,SALEM,OR,97317-5800,United States,503-371-6410,,,"Sun 09:00 AM - 09:00 PM, M-F 08:00 AM - 10:00 PM, Sat 08:00 AM - 10:00 PM",,,
BURLINGTON,,300 CROSS STREET,,BURLINGTON,KS,66839-0000,United States,620-364-2924,,,"Sun 08:00 AM - 09:00 PM, M-F 08:00 AM - 10:00 PM, Sat 08:00 AM - 09:00 PM",,,
EL DORADO SPRINGS,,1307 S STATE HWY 32,,EL DORADO SPRINGS,MO,64744-0000,United States,417-876-2943,,,"Sun 09:00 AM - 07:00 PM, M-F 08:00 AM - 09:00 PM, Sat 08:00 AM - 09:00 PM",,,
LYONS,,1212 W. MAIN STREET,,LYONS,KS,67554-0000,United States,620-257-3500,,,"Sun 08:00 AM - 09:00 PM, M-F 08:00 AM - 10:00 PM, Sat 08:00 AM - 09:00 PM",,,
LARNED,,908 E. 14TH STREET,,LARNED,KS,67550-0000,United States,620-285-6479,,,"Sun 08:00 AM - 09:00 PM, M-F 08:00 AM - 10:00 PM, Sat 08:00 AM - 09:00 PM",,,
ULYSSES,,515 EAST OKLAHOMA AVENUE,,ULYSSES,KS,67880-2817,United States,620-424-4365,,,"Sun 08:00 AM - 09:00 PM, M-F 08:00 AM - 10:00 PM, Sat 08:00 AM - 09:00 PM",,,
ABILENE,,1903 NORTH BUCKEYE AVENUE,,ABILENE,KS,67410-1505,United States,785-263-3742,,,"Sun 08:00 AM - 09:00 PM, M-F 08:00 AM - 10:00 PM, Sat 08:00 AM - 09:00 PM",,,
DONIPHAN,,115 LEROUX DRIVE,,DONIPHAN,MO,63935-0000,United States,573-996-3703,,,"Sun 09:00 AM - 08:00 PM, M-F 08:00 AM - 09:00 PM, Sat 08:00 AM - 09:00 PM",,,
RUSSELL,,87 S FOSSIL ST,,RUSSELL,KS,67665-3007,United States,785-445-3610,,,"Sun 08:00 AM - 09:00 PM, M-F 08:00 AM - 10:00 PM, Sat 08:00 AM - 09:00 PM",,,
SCOTT CITY,,1702 MAIN STREET,,SCOTT CITY,KS,67871-0000,United States,620-872-5578,,,"Sun 08:00 AM - 09:00 PM, M-F 08:00 AM - 10:00 PM, Sat 08:00 AM - 09:00 PM",,,
ROCKVILLE,,840 NORTH U.S. 41,,ROCKVILLE,IN,47872-0000,United States,765-569-6220,,,"Sun 09:00 AM - 08:00 PM, M-F 08:00 AM - 09:00 PM, Sat 08:00 AM - 09:00 PM",,,
BATESVILLE,,100 CROSS COUNTRY PLAZA,,BATESVILLE,IN,47006-0000,United States,812-933-0240,,,"Sun 09:00 AM - 08:00 PM, M-F 08:00 AM - 09:00 PM, Sat 08:00 AM - 09:00 PM",,,
TUSCOLA,,700 PROGRESS BLVD.,,TUSCOLA,IL,61953-0000,United States,217-253-9237,,,"Sun 09:00 AM - 08:00 PM, M-F 08:00 AM - 10:00 PM, Sat 08:00 AM - 09:00 PM",,,
BRANDENBURG,,777 BYPASS ROAD,,BRANDENBURG,KY,40108-0000,United States,270-422-7171,,,"Sun 09:00 AM - 08:00 PM, M-F 08:00 AM - 10:00 PM, Sat 08:00 AM - 09:00 PM",,,
MT. CARMEL,,1520 W. 9TH STREET,,MT. CARMEL,IL,62863-0000,United States,618-262-2475,,,"Sun 09:00 AM - 08:00 PM, M-F 08:00 AM - 10:00 PM, Sat 08:00 AM - 09:00 PM",,,
MONTICELLO,,200 W. BURNSIDE DRIVE,,MONTICELLO,IL,61856-0000,United States,217-762-9895,,,"Sun 09:00 AM - 08:00 PM, M-F 08:00 AM - 09:00 PM, Sat 08:00 AM - 09:00 PM",,,
JACKSONVILLE,,1964 W. MORTON AVE.,,JACKSONVILLE,IL,62650-2625,United States,217-243-5514,,,"Sun 09:00 AM - 09:00 PM, M-F 08:00 AM - 10:00 PM, Sat 08:00 AM - 10:00 PM",,,
MONMOUTH,,1190 NORTH 6TH STREET,,MONMOUTH,IL,61462-9672,United States,309-734-8351,,,"Sun 09:00 AM - 09:00 PM, M-F 08:00 AM - 10:00 PM, Sat 08:00 AM - 10:00 PM",,,
WHITEHALL,,3165 HOLTON-WHITEHALL ROAD,,WHITEHALL,MI,49461-0000,United States,231-894-2637,,,"Sun 08:00 AM - 09:00 PM, M-F 08:00 AM - 10:00 PM, Sat 08:00 AM - 10:00 PM",,,
NEWAYGO,,91 W. PINE LAKE DRIVE,,NEWAYGO,MI,49337-0000,United States,231-652-9357,,,"Sun 08:00 AM - 09:00 PM, M-F 08:00 AM - 10:00 PM, Sat 08:00 AM - 10:00 PM",,,
CLARE,,11250 NORTH MISSION ROAD,,CLARE,MI,48617-0000,United States,989-386-0765,,,"Sun 08:00 AM - 09:00 PM, M-F 08:00 AM - 09:00 PM, Sat 08:00 AM - 09:00 PM",,,
STANDISH,,3825 S. HURON ROAD,,STANDISH,MI,48658-0000,United States,989-846-9503,,,"Sun 08:00 AM - 09:00 PM, M-F 08:00 AM - 10:00 PM, Sat 08:00 AM - 10:00 PM",,,
GLADWIN,,174 JAMES ROBERTSON DRIVE,,GLADWIN,MI,48624-0000,United States,989-426-7230,,,"Sun 08:00 AM - 09:00 PM, M-F 08:00 AM - 10:00 PM, Sat 08:00 AM - 10:00 PM",,,
HART,,2278 N. COMFORT DRIVE,,HART,MI,49420-0000,United States,231-873-1904,,,"Sun 09:00 AM - 07:00 PM, M-F 08:00 AM - 10:00 PM, Sat 08:00 AM - 10:00 PM",,,
LACEY,,5500 MARTIN WAY E,,LACEY,WA,98516-6315,United States,360-438-0926,,,"Sun 09:00 AM - 09:00 PM, M-F 08:00 AM - 10:00 PM, Sat 08:00 AM - 10:00 PM",,,
WENATCHEE,,1340 NORTH WENATCHEE AVENUE,,WENATCHEE,WA,98801-1558,United States,509-662-6366,,,"Sun 09:00 AM - 09:00 PM, M-F 08:00 AM - 10:00 PM, Sat 08:00 AM - 10:00 PM",,,
YAKIMA,,5801 SUMMIT VIEW AVE,,YAKIMA,WA,98908-3006,United States,509-965-6236,,,"Sun 09:00 AM - 09:00 PM, M-F 08:00 AM - 10:00 PM, Sat 08:00 AM - 10:00 PM",,,
UNION GAP,,2530 RUDKIN ROAD,,UNION GAP,WA,98903-1632,United States,509-248-9465,,,"Sun 09:00 AM - 09:00 PM, M-F 08:00 AM - 10:00 PM, Sat 08:00 AM - 10:00 PM",,,
QUINCY,,814 13TH AVENUE SW,,QUINCY,WA,98848-0000,United States,509-787-4437,,,"Sun 09:00 AM - 07:00 PM, M-F 08:00 AM - 09:00 PM, Sat 08:00 AM - 09:00 PM",,,
PROSSER,,471 WINE COUNTRY ROAD,,PROSSER,WA,99350-9555,United States,509-786-0205,,,"Sun 08:00 AM - 09:00 PM, M-F 08:00 AM - 09:00 PM, Sat 08:00 AM - 09:00 PM",,,
KENNEWICK,,867 NORTH COLUMBIA CENTER BLVD,,KENNEWICK,WA,99336-7771,United States,509-736-0884,,,"Sun 09:00 AM - 09:00 PM, M-F 08:00 AM - 10:00 PM, Sat 08:00 AM - 10:00 PM",,,
WALLA WALLA,,1651 WEST ROSE STREET,,WALLA WALLA,WA,99362-1771,United States,509-525-8733,,,"Sun 09:00 AM - 09:00 PM, M-F 08:00 AM - 10:00 PM, Sat 08:00 AM - 10:00 PM",,,
SPOKANE NORTH,,9520 N NEWPORT HWY,,SPOKANE,WA,99218-1219,United States,509-466-2449,,,"Sun 09:00 AM - 09:00 PM, M-F 08:00 AM - 10:00 PM, Sat 08:00 AM - 10:00 PM",,,
SPOKANE SOUTH,,4515 SOUTH REGAL STREET,,SPOKANE,WA,99223-7938,United States,509-448-1693,,,"Sun 09:00 AM - 09:00 PM, M-F 08:00 AM - 10:00 PM, Sat 08:00 AM - 10:00 PM",,,
SPOKANE EAST,,13414 E SPRAGUE AVE,,SPOKANE,WA,99216-0848,United States,509-924-1110,,,"Sun 09:00 AM - 09:00 PM, M-F 08:00 AM - 10:00 PM, Sat 08:00 AM - 10:00 PM",,,
OLDTOWN,,67 SELKIRK WAY,,OLDTOWN,ID,83822-0000,United States,208-437-1000,,,"Sun 08:00 AM - 09:00 PM, M-F 08:00 AM - 10:00 PM, Sat 08:00 AM - 10:00 PM",,,
PULLMAN,,1450 SOUTH GRAND AVE.,,PULLMAN,WA,99163-4900,United States,509-332-0220,,,"Sun 09:00 AM - 09:00 PM, M-F 08:00 AM - 10:00 PM, Sat 08:00 AM - 10:00 PM",,,
COEUR D&#39;ALENE,,217 W. IRONWOOD DR.,,COEUR D&#39;ALENE,ID,83814-2651,United States,208-664-8496,,,"Sun 09:00 AM - 09:00 PM, M-F 08:00 AM - 10:00 PM, Sat 08:00 AM - 10:00 PM",,,
LEWISTON,,2120 THAIN GRADE,,LEWISTON,ID,83501-4105,United States,208-746-6804,,,"Sun 09:00 AM - 09:00 PM, M-F 08:00 AM - 10:00 PM, Sat 08:00 AM - 10:00 PM",,,
BONNERS FERRY,,6355 MAIN STREET,,BONNERS FERRY,ID,83805-0000,United States,208-267-1133,,,"Sun 08:00 AM - 09:00 PM, M-F 08:00 AM - 10:00 PM, Sat 08:00 AM - 10:00 PM",,,
OROFINO,,429 MICHIGAN AVE,,OROFINO,ID,83544-0000,United States,208-476-5727,,,"Sun 08:00 AM - 09:00 PM, M-F 08:00 AM - 10:00 PM, Sat 08:00 AM - 10:00 PM",,,
LIBBY,,31071 US HIGHWAY 2,,LIBBY,MT,59923-0000,United States,406-293-4151,,,"Sun 09:00 AM - 07:00 PM, M-F 08:00 AM - 09:00 PM, Sat 08:00 AM - 09:00 PM",,,
WHITEFISH,,6475 U.S. HIGHWAY 93 SOUTH #15,,WHITEFISH,MT,59937-0000,United States,406-730-8496,,,"Sun 08:00 AM - 09:00 PM, M-F 08:00 AM - 10:00 PM, Sat 08:00 AM - 10:00 PM",,,
KALISPELL,,1370 US HWY 2 EAST,,KALISPELL,MT,59901-3221,United States,406-257-1262,,,"Sun 09:00 AM - 09:00 PM, M-F 08:00 AM - 10:00 PM, Sat 08:00 AM - 10:00 PM",,,
NAMPA,,2100 CALDWELL BLVD.,,NAMPA,ID,83651-1510,United States,208-466-8984,,,"Sun 09:00 AM - 09:00 PM, M-F 08:00 AM - 10:00 PM, Sat 08:00 AM - 10:00 PM",,,
MISSOULA,,2510 SOUTH RESERVE STREET,,MISSOULA,MT,59801-7546,United States,406-721-2311,,,"Sun 09:00 AM - 09:00 PM, M-F 08:00 AM - 10:00 PM, Sat 08:00 AM - 10:00 PM",,,
BOISE WEST,,8105 W FAIRVIEW AVENUE,,BOISE,ID,83704-8426,United States,208-323-9240,,,"Sun 09:00 AM - 09:00 PM, M-F 08:00 AM - 10:00 PM, Sat 08:00 AM - 10:00 PM",,,
LEADVILLE,,401 US HIGHWAY 24,,LEADVILLE,CO,80461-3974,United States,719-486-6298,,,"Sun 08:00 AM - 09:00 PM, M-F 08:00 AM - 10:00 PM, Sat 08:00 AM - 09:00 PM",,,
KIMBALL,,1217 SOUTH HIGHWAY 71,,KIMBALL,NE,69145-0000,United States,308-235-2721,,,"Sun 09:00 AM - 07:00 PM, M-F 08:00 AM - 09:00 PM, Sat 08:00 AM - 09:00 PM",,,
YUMA,,502 E 8TH AVE,,YUMA,CO,80759-2140,United States,970-848-3117,,,"Sun 08:00 AM - 07:00 PM, M-F 08:00 AM - 09:00 PM, Sat 08:00 AM - 09:00 PM",,,
BURLINGTON,,333 S. LINCOLN,,BURLINGTON,CO,80807-2104,United States,719-346-6085,,,"Sun 08:00 AM - 07:00 PM, M-F 08:00 AM - 09:00 PM, Sat 08:00 AM - 09:00 PM",,,
WHEATLAND,,1701 16TH STREET,,WHEATLAND,WY,82201-0000,United States,307-322-2005,,,"Sun 09:00 AM - 07:00 PM, M-F 08:00 AM - 09:00 PM, Sat 08:00 AM - 09:00 PM",,,
TORRINGTON,,1100 EAST VALLEY ROAD,,TORRINGTON,WY,82240-3614,United States,307-532-4078,,,"Sun 09:00 AM - 07:00 PM, M-F 08:00 AM - 09:00 PM, Sat 08:00 AM - 09:00 PM",,,
OGALLALA,,100 TEXAS TRAIL DRIVE,,OGALLALA,NE,69153-0000,United States,308-284-8900,,,"Sun 09:00 AM - 07:00 PM, M-F 08:00 AM - 09:00 PM, Sat 08:00 AM - 09:00 PM",,,
ALLIANCE,,312 FLACK STREET,,ALLIANCE,NE,69301-0000,United States,308-762-2210,,,"Sun 09:00 AM - 07:00 PM, M-F 08:00 AM - 10:00 PM, Sat 08:00 AM - 09:00 PM",,,
DOUGLAS,,1950 E. RICHARDS,,DOUGLAS,WY,82633-0000,United States,307-358-5012,,,"Sun 09:00 AM - 07:00 PM, M-F 08:00 AM - 09:00 PM, Sat 08:00 AM - 09:00 PM",,,
NORTH PLATTE,,510 EAST PHILIP AVE.,,NORTH PLATTE,NE,69101-5538,United States,308-534-2441,,,"Sun 09:00 AM - 09:00 PM, M-F 08:00 AM - 10:00 PM, Sat 08:00 AM - 10:00 PM",,,
GORDON,,301 E HIGHWAY 20,,GORDON,NE,69343-0000,United States,308-282-1308,,,"Sun 09:00 AM - 07:00 PM, M-F 08:00 AM - 10:00 PM, Sat 08:00 AM - 09:00 PM",,,
GREEN RIVER,,1105 BRIDGER DRIVE,,GREEN RIVER,WY,82935-0000,United States,307-875-5244,,,"Sun 09:00 AM - 07:00 PM, M-F 08:00 AM - 09:00 PM, Sat 08:00 AM - 09:00 PM",,,
HOT SPRINGS,,2701 HWY 18 WEST,,HOT SPRINGS,SD,57747-0000,United States,605-745-4401,,,"Sun 09:00 AM - 07:00 PM, M-F 08:00 AM - 09:00 PM, Sat 08:00 AM - 09:00 PM",,,
GOTHENBURG,,718 4TH STREET,,GOTHENBURG,NE,69138-0000,United States,308-537-8780,,,"Sun 09:00 AM - 07:00 PM, M-F 08:00 AM - 10:00 PM, Sat 08:00 AM - 09:00 PM",,,
NORTON,,505 W. HOLME ST.,,NORTON,KS,67654-0000,United States,785-877-3363,,,"Sun 08:00 AM - 09:00 PM, M-F 08:00 AM - 10:00 PM, Sat 08:00 AM - 09:00 PM",,,
NEWCASTLE,,205 BOYD AVENUE,,NEWCASTLE,WY,82701-0000,United States,307-746-2751,,,"Sun 09:00 AM - 07:00 PM, M-F 08:00 AM - 09:00 PM, Sat 08:00 AM - 09:00 PM",,,
CUSTER,,1135 MT. RUSHMORE ROAD,,CUSTER,SD,57730-0000,United States,605-673-3883,,,"Sun 09:00 AM - 07:00 PM, M-F 08:00 AM - 09:00 PM, Sat 08:00 AM - 09:00 PM",,,
LANDER,,1255 MAIN STREET,,LANDER,WY,82520-0000,United States,307-332-3505,,,"Sun 09:00 AM - 07:00 PM, M-F 08:00 AM - 09:00 PM, Sat 08:00 AM - 08:00 PM",,,
MOUNTAIN VIEW,,1080 HWY 414,,MOUNTAIN VIEW,WY,82939-0000,United States,307-782-7919,,,"Sun 09:00 AM - 07:00 PM, M-F 08:00 AM - 09:00 PM, Sat 08:00 AM - 08:00 PM",,,
PALMYRA,,502 E. ROSS STREET,,PALMYRA,MO,63461-0000,United States,573-769-2636,,,"Sun 09:00 AM - 07:00 PM, M-F 08:00 AM - 09:00 PM, Sat 08:00 AM - 09:00 PM",,,
QUINCY,,3200 BROADWAY,,QUINCY,IL,62301-3712,United States,217-224-2355,,,"Sun 09:00 AM - 09:00 PM, M-F 08:00 AM - 10:00 PM, Sat 08:00 AM - 10:00 PM",,,
CARROLLTON,,812 HARVEST HILLS DRIVE,,CARROLLTON,MO,64633-0000,United States,660-542-1228,,,"Sun 09:00 AM - 07:00 PM, M-F 08:00 AM - 10:00 PM, Sat 08:00 AM - 09:00 PM",,,
MEMPHIS,,459 GRAND AVE,,MEMPHIS,MO,63555-0000,United States,660-465-2525,,,"Sun 09:00 AM - 07:00 PM, M-F 08:00 AM - 10:00 PM, Sat 08:00 AM - 09:00 PM",,,
FORT MADISON,,4810 AVENUE O,,FORT MADISON,IA,52627-0000,United States,319-372-4217,,,"Sun 09:00 AM - 09:00 PM, M-F 08:00 AM - 10:00 PM, Sat 08:00 AM - 10:00 PM",,,
TRENTON,,2001 EAST 9TH STREET,,TRENTON,MO,64683-2599,United States,660-359-2930,,,"Sun 09:00 AM - 07:00 PM, M-F 08:00 AM - 10:00 PM, Sat 08:00 AM - 09:00 PM",,,
GALLATIN,,212 NORTH MAIN STREET,,GALLATIN,MO,64640-0000,United States,660-663-3313,,,"Sun 09:00 AM - 07:00 PM, M-F 08:00 AM - 09:00 PM, Sat 08:00 AM - 09:00 PM",,,
BURLINGTON,,313 NORTH ROOSEVELT AVE,,BURLINGTON,IA,52601-1797,United States,319-753-5121,,,"Sun 09:00 AM - 09:00 PM, M-F 08:00 AM - 10:00 PM, Sat 08:00 AM - 10:00 PM",,,
BLOOMFIELD,,106 SMITH STREET,,BLOOMFIELD,IA,52537-2140,United States,641-664-2052,,,"Sun 09:00 AM - 07:00 PM, M-F 08:00 AM - 10:00 PM, Sat 08:00 AM - 09:00 PM",,,
ALBANY,,101 S. POLK,,ALBANY,MO,64402-0000,United States,660-726-3613,,,"Sun 09:00 AM - 07:00 PM, M-F 08:00 AM - 09:00 PM, Sat 08:00 AM - 09:00 PM",,,
CHARITON,,1901 COURT AVENUE,,CHARITON,IA,50049-0000,United States,641-774-2168,,,"Sun 09:00 AM - 07:00 PM, M-F 08:00 AM - 10:00 PM, Sat 08:00 AM - 09:00 PM",,,
MOUNT AYR,,201 N. FILLMORE,,MOUNT AYER,IA,50854-0000,United States,641-464-3414,,,"Sun 09:00 AM - 07:00 PM, M-F 08:00 AM - 09:00 PM, Sat 08:00 AM - 09:00 PM",,,
KALKASKA,,784 S. CEDAR STREET STE E,,KALKASKA,MI,49646-0000,United States,231-258-1443,,,"Sun 08:00 AM - 09:00 PM, M-F 08:00 AM - 10:00 PM, Sat 08:00 AM - 10:00 PM",,,
SHEBOYGAN,,518 SOUTH TAYLOR DRIVE,,SHEBOYGAN,WI,53081-4253,United States,920-458-1771,,,"Sun 09:00 AM - 09:00 PM, M-F 08:00 AM - 10:00 PM, Sat 08:00 AM - 10:00 PM",,,
MANITOWOC,,3415 CALUMET AVE.,,MANITOWOC,WI,54220-5498,United States,920-684-0255,,,"Sun 09:00 AM - 09:00 PM, M-F 08:00 AM - 10:00 PM, Sat 08:00 AM - 10:00 PM",,,
KEWAUNEE,,802 N. MAIN STREET,,KEWAUNEE,WI,54216-1046,United States,920-388-2915,,,"Sun 09:00 AM - 08:00 PM, M-F 08:00 AM - 09:00 PM, Sat 08:00 AM - 09:00 PM",,,
WEST VALLEY CITY,,4850 WEST 3500 SOUTH,,WEST VALLEY CITY,UT,84120-2927,United States,801-966-8500,,,"Sun 09:00 AM - 09:00 PM, M-F 08:00 AM - 10:00 PM, Sat 08:00 AM - 10:00 PM",,,
LAYTON,,1150 NORTH MAIN,,LAYTON,UT,84041-4853,United States,801-546-0700,,,"Sun 09:00 AM - 09:00 PM, M-F 08:00 AM - 10:00 PM, Sat 08:00 AM - 10:00 PM",,,
RIVERDALE,,4060 RIVERDALE ROAD,,RIVERDALE,UT,84405-1518,United States,801-392-5300,,,"Sun 09:00 AM - 09:00 PM, M-F 08:00 AM - 10:00 PM, Sat 08:00 AM - 10:00 PM",,,
OGDEN,,1018 WASHINGTON BOULEVARD,,OGDEN,UT,84404-4949,United States,801-393-2200,,,"Sun 09:00 AM - 09:00 PM, M-F 08:00 AM - 10:00 PM, Sat 08:00 AM - 10:00 PM",,,
BRIGHAM CITY,,747 SOUTH MAIN,,BRIGHAM CITY,UT,84302-3359,United States,435-723-1400,,,"Sun 09:00 AM - 09:00 PM, M-F 08:00 AM - 10:00 PM, Sat 08:00 AM - 10:00 PM",,,
TREMONTON,,440 W. MAIN STREET,,TREMONTON,UT,84337-0000,United States,435-257-8900,,,"Sun 09:00 AM - 08:00 PM, M-F 08:00 AM - 10:00 PM, Sat 08:00 AM - 10:00 PM",,,
LOGAN,,1341 NORTH MAIN STREET,,LOGAN,UT,84341-2221,United States,435-753-3800,,,"Sun 09:00 AM - 09:00 PM, M-F 08:00 AM - 10:00 PM, Sat 08:00 AM - 10:00 PM",,,
TWIN FALLS,,1649 POLE LINE RD E.,,TWIN FALLS,ID,83301-8397,United States,208-734-0902,,,"Sun 09:00 AM - 09:00 PM, M-F 08:00 AM - 10:00 PM, Sat 08:00 AM - 10:00 PM",,,
POCATELLO,,4215 YELLOWSTONE AVE,,CHUBBUCK,ID,83202-2419,United States,208-237-6610,,,"Sun 09:00 AM - 09:00 PM, M-F 08:00 AM - 10:00 PM, Sat 08:00 AM - 10:00 PM",,,
BEAVER DAM,,822 PARK AVE,,BEAVER DAM,WI,53916-2292,United States,920-887-1714,,,"Sun 09:00 AM - 09:00 PM, M-F 08:00 AM - 10:00 PM, Sat 08:00 AM - 10:00 PM",,,
FOND DU LAC,,616 WEST JOHNSON STREET,,FOND DU LAC,WI,54935-3134,United States,920-921-2950,,,"Sun 09:00 AM - 09:00 PM, M-F 08:00 AM - 10:00 PM, Sat 08:00 AM - 10:00 PM",,,
COLUMBUS,,200 COMMERCE DRIVE,,COLUMBUS,WI,53925-0000,United States,920-623-9183,,,"Sun 09:00 AM - 08:00 PM, M-F 08:00 AM - 10:00 PM, Sat 08:00 AM - 09:00 PM",,,
KIEL,,1120 S.T.H. 67,,KIEL,WI,53042-0000,United States,920-894-3604,,,"Sun 09:00 AM - 08:00 PM, M-F 08:00 AM - 09:00 PM, Sat 08:00 AM - 09:00 PM",,,
OSHKOSH,,1300 S KOELLER ROAD,,OSHKOSH,WI,54902-6196,United States,920-426-5700,,,"Sun 09:00 AM - 09:00 PM, M-F 08:00 AM - 10:00 PM, Sat 08:00 AM - 10:00 PM",,,
BRILLION,,1010 W. RYAN STREET,,BRILLION,WI,54110-0000,United States,920-756-2640,,,"Sun 09:00 AM - 08:00 PM, M-F 08:00 AM - 09:00 PM, Sat 08:00 AM - 09:00 PM",,,
MADISON WEST,,7401 MINERAL POINT RD.,,MADISON,WI,53717-1793,United States,608-833-8600,,,"Sun 09:00 AM - 09:00 PM, M-F 08:00 AM - 10:00 PM, Sat 08:00 AM - 10:00 PM",,,
NEENAH,,699 S GREEN BAY ROAD,,NEENAH,WI,54956-3153,United States,920-751-0250,,,"Sun 09:00 AM - 09:00 PM, M-F 08:00 AM - 10:00 PM, Sat 08:00 AM - 10:00 PM",,,
CLAY CENTER,,821 WEST CRAWFORD STREET,,CLAY CENTER,KS,67432-2343,United States,785-632-5535,,,"Sun 08:00 AM - 09:00 PM, M-F 08:00 AM - 10:00 PM, Sat 08:00 AM - 09:00 PM",,,
BELOIT,,1026 N. INDEPENDENCE AVENUE,,BELOIT,KS,67420-2147,United States,785-738-6521,,,"Sun 08:00 AM - 09:00 PM, M-F 08:00 AM - 10:00 PM, Sat 08:00 AM - 09:00 PM",,,
PHILLIPSBURG,,1401 STATE STREET,,PHILLIPSBURG,KS,67661-0000,United States,785-540-4092,,,"Sun 08:00 AM - 09:00 PM, M-F 08:00 AM - 10:00 PM, Sat 08:00 AM - 09:00 PM",,,
SENECA,,1710 NORTH STREET,,SENECA,KS,66538-0000,United States,785-336-3855,,,"Sun 08:00 AM - 09:00 PM, M-F 08:00 AM - 10:00 PM, Sat 08:00 AM - 09:00 PM",,,
SUPERIOR,,1150 EAST 3RD,,SUPERIOR,NE,68978-0006,United States,402-879-4840,,,"Sun 09:00 AM - 07:00 PM, M-F 08:00 AM - 10:00 PM, Sat 08:00 AM - 09:00 PM",,,
FALLS CITY,,1300 STONE STREET,,FALLS CITY,NE,68355-0000,United States,402-245-2441,,,"Sun 09:00 AM - 07:00 PM, M-F 08:00 AM - 09:00 PM, Sat 08:00 AM - 09:00 PM",,,
BOISE SOUTH,,2655 SOUTH BROADWAY AVE,,BOISE,ID,83706-4721,United States,208-345-8723,,,"Sun 09:00 AM - 09:00 PM, M-F 08:00 AM - 10:00 PM, Sat 08:00 AM - 10:00 PM",,,
HOLDREGE,,1533 BURLINGTON STREET,,HOLDREGE,NE,68949-0000,United States,308-995-6514,,,"Sun 09:00 AM - 07:00 PM, M-F 08:00 AM - 10:00 PM, Sat 08:00 AM - 09:00 PM",,,
OMAHA SOUTHWEST,,3020 SOUTH 84TH STREET,,OMAHA,NE,68124-3215,United States,402-391-3341,,,"Sun 09:00 AM - 09:00 PM, M-F 08:00 AM - 10:00 PM, Sat 08:00 AM - 10:00 PM",,,
OMAHA WEST,,14445 WEST CENTER ROAD,,OMAHA,NE,68144-5401,United States,402-333-9003,,,"Sun 09:00 AM - 09:00 PM, M-F 08:00 AM - 10:00 PM, Sat 08:00 AM - 10:00 PM",,,
BELLEVUE,,601 GALVIN ROAD SOUTH,,BELLEVUE,NE,68005-2249,United States,402-293-1805,,,"Sun 09:00 AM - 09:00 PM, M-F 08:00 AM - 10:00 PM, Sat 08:00 AM - 10:00 PM",,,
PLATTSMOUTH,,211 S. 23RD STREET,,PLATTSMOUTH,NE,68048-0000,United States,402-296-5252,,,"Sun 09:00 AM - 07:00 PM, M-F 08:00 AM - 10:00 PM, Sat 08:00 AM - 09:00 PM",,,
GLENWOOD,,902 S LOCUST,,GLENWOOD,IA,51534-0000,United States,712-527-9393,,,"Sun 09:00 AM - 07:00 PM, M-F 08:00 AM - 09:00 PM, Sat 08:00 AM - 09:00 PM",,,
MISSOURI VALLEY,,413 W HURON STREET,,MISSOURI VALLEY,IA,51555-0000,United States,712-642-5292,,,"Sun 09:00 AM - 07:00 PM, M-F 08:00 AM - 09:00 PM, Sat 08:00 AM - 09:00 PM",,,
RED OAK,,801 N. BROADWAY ST.,,RED OAK,IA,51566-0000,United States,712-623-4818,,,"Sun 09:00 AM - 07:00 PM, M-F 08:00 AM - 10:00 PM, Sat 08:00 AM - 09:00 PM",,,
HARLAN,,2099 CHATBURN AVENUE,,HARLAN,IA,51537-0000,United States,712-755-3147,,,"Sun 09:00 AM - 08:00 PM, M-F 08:00 AM - 10:00 PM, Sat 08:00 AM - 09:00 PM",,,
LINCOLN NORTH,,100 SOUTH 66TH STREET,,LINCOLN,NE,68510-2301,United States,402-489-3887,,,"Sun 09:00 AM - 09:00 PM, M-F 08:00 AM - 10:00 PM, Sat 08:00 AM - 10:00 PM",,,
LINCOLN NORTHWEST,,3400 NORTH 27TH STREET,,LINCOLN,NE,68521-1314,United States,402-465-5544,,,"Sun 09:00 AM - 09:00 PM, M-F 08:00 AM - 10:00 PM, Sat 08:00 AM - 10:00 PM",,,
LINCOLN SOUTH,,4200 SOUTH 27TH STREET,,LINCOLN,NE,68502-5897,United States,402-421-2220,,,"Sun 09:00 AM - 09:00 PM, M-F 08:00 AM - 10:00 PM, Sat 08:00 AM - 10:00 PM",,,
LINCOLN SOUTHEAST,,6845 SOUTH 27TH STREET,,LINCOLN,NE,68512-4823,United States,402-420-9400,,,"Sun 09:00 AM - 09:00 PM, M-F 08:00 AM - 10:00 PM, Sat 08:00 AM - 10:00 PM",,,
ONAWA,,2220 HWY 175 WEST,,ONAWA,IA,51040-0000,United States,712-423-3683,,,"Sun 09:00 AM - 08:00 PM, M-F 08:00 AM - 09:00 PM, Sat 08:00 AM - 09:00 PM",,,
WEST POINT,,500 PLAZA DRIVE,,WEST POINT,NE,68788-0000,United States,402-372-5343,,,"Sun 09:00 AM - 07:00 PM, M-F 08:00 AM - 10:00 PM, Sat 08:00 AM - 09:00 PM",,,
AUBURN,,2410 DAHLKE AVE.,,AUBURN,NE,68305-0000,United States,402-274-4974,,,"Sun 09:00 AM - 07:00 PM, M-F 08:00 AM - 09:00 PM, Sat 08:00 AM - 09:00 PM",,,
CLARINDA,,1180 S 16TH ST,,CLARINDA,IA,51632-2917,United States,712-850-1320,,,"Sun 09:00 AM - 07:00 PM, M-F 08:00 AM - 10:00 PM, Sat 08:00 AM - 09:00 PM",,,
AUDUBON,,109 N. MARKET STREET,,AUDUBON,IA,50025-0000,United States,712-563-2066,,,"Sun 09:00 AM - 07:00 PM, M-F 08:00 AM - 09:00 PM, Sat 08:00 AM - 09:00 PM",,,
CRETE,,930 MAIN AVENUE,,CRETE,NE,68333-0000,United States,402-826-4319,,,"Sun 09:00 AM - 07:00 PM, M-F 08:00 AM - 09:00 PM, Sat 08:00 AM - 09:00 PM",,,
BEATRICE,,123 N. 24TH STREET,,BEATRICE,NE,68310-0000,United States,402-223-3555,,,"Sun 09:00 AM - 07:00 PM, M-F 08:00 AM - 09:00 PM, Sat 08:00 AM - 09:00 PM",,,
GREENFIELD (IA),,202 SW. KENT,,GREENFIELD,IA,50849-0000,United States,641-743-6383,,,"Sun 09:00 AM - 07:00 PM, M-F 08:00 AM - 09:00 PM, Sat 08:00 AM - 09:00 PM",,,
IDA GROVE,,202 SUSAN LAWRENCE DRIVE,,IDA GROVE,IA,51445-0000,United States,712-364-3197,,,"Sun 09:00 AM - 07:00 PM, M-F 08:00 AM - 09:00 PM, Sat 08:00 AM - 09:00 PM",,,
WAYNE,,615 DEARBORN STREET,,WAYNE,NE,68787-0000,United States,402-375-1544,,,"Sun 09:00 AM - 07:00 PM, M-F 08:00 AM - 10:00 PM, Sat 08:00 AM - 09:00 PM",,,
SIOUX CITY,,3025 HAMILTON BLVD,,SIOUX CITY,IA,51104-2495,United States,712-255-4004,,,"Sun 09:00 AM - 09:00 PM, M-F 08:00 AM - 10:00 PM, Sat 08:00 AM - 10:00 PM",,,
NORFOLK,,2005 KRENZIEN DRIVE,,NORFOLK,NE,68701-4601,United States,402-379-1600,,,"Sun 09:00 AM - 09:00 PM, M-F 08:00 AM - 10:00 PM, Sat 08:00 AM - 10:00 PM",,,
RIVER FALLS,,1777 PAULSON ROAD,,RIVER FALLS,WI,54022-8299,United States,715-425-5828,,,"Sun 09:00 AM - 09:00 PM, M-F 08:00 AM - 10:00 PM, Sat 08:00 AM - 10:00 PM",,,
NEW PRAGUE,,200 10TH AVE SE,,NEW PRAGUE,MN,56071-1975,United States,952-758-2130,,,"Sun 09:00 AM - 08:00 PM, M-F 08:00 AM - 09:00 PM, Sat 08:00 AM - 09:00 PM",,,
NORTH BRANCH,,5630 ST. CROIX TRAIL,,NORTH BRANCH,MN,55056-4202,United States,651-674-9901,,,"Sun 09:00 AM - 09:00 PM, M-F 08:00 AM - 10:00 PM, Sat 08:00 AM - 10:00 PM",,,
ELLSWORTH,,598 LUCAS LANE,,ELLSWORTH,WI,54011-2800,United States,715-273-4278,,,"Sun 09:00 AM - 07:00 PM, M-F 08:00 AM - 09:00 PM, Sat 08:00 AM - 09:00 PM",,,
PRINCETON,,705 NORTHLAND DRIVE,,PRINCETON,MN,55371-2168,United States,763-389-9656,,,"Sun 09:00 AM - 07:00 PM, M-F 08:00 AM - 09:00 PM, Sat 08:00 AM - 09:00 PM",,,
GLENCOE,,3225 10TH STREET EAST,,GLENCOE,MN,55336-0000,United States,320-864-6005,,,"Sun 09:00 AM - 07:00 PM, M-F 08:00 AM - 09:00 PM, Sat 08:00 AM - 09:00 PM",,,
COKATO,,145 BROADWAY AVENUE N,,COKATO,MN,55321-4422,United States,320-559-0203,,,"Sun 09:00 AM - 07:00 PM, M-F 08:00 AM - 10:00 PM, Sat 08:00 AM - 09:00 PM",,,
HUTCHINSON,,125 MAIN STREET N,,HUTCHINSON,MN,55350-1807,United States,320-587-4994,,,"Sun 09:00 AM - 09:00 PM, M-F 08:00 AM - 10:00 PM, Sat 08:00 AM - 10:00 PM",,,
SAINT PETER,,1002 OLD MN AVE,,SAINT PETER,MN,56082-2044,United States,507-931-4410,,,"Sun 09:00 AM - 08:00 PM, M-F 08:00 AM - 09:00 PM, Sat 08:00 AM - 09:00 PM",,,
ST. CLOUD EAST,,501 HWY. 10 SE,,ST CLOUD,MN,56304-2227,United States,320-253-0344,,,"Sun 09:00 AM - 09:00 PM, M-F 08:00 AM - 10:00 PM, Sat 08:00 AM - 10:00 PM",,,
ST CLOUD WEST,,4161 SECOND STREET SOUTH,,ST CLOUD,MN,56301-3761,United States,320-253-5150,,,"Sun 09:00 AM - 09:00 PM, M-F 08:00 AM - 10:00 PM, Sat 08:00 AM - 10:00 PM",,,
MORA,,340 S. HWY 65,,MORA,MN,55051-1619,United States,320-679-5115,,,"Sun 09:00 AM - 07:00 PM, M-F 08:00 AM - 09:00 PM, Sat 08:00 AM - 09:00 PM",,,
MANKATO,,1850 E MADISON AVE.,,MANKATO,MN,56001-6140,United States,507-387-6511,,,"Sun 09:00 AM - 09:00 PM, M-F 08:00 AM - 10:00 PM, Sat 08:00 AM - 10:00 PM",,,
KASSON,,301 SOUTH MANTORVILLE AVENUE,,KASSON,MN,55944-0000,United States,507-634-7798,,,"Sun 09:00 AM - 07:00 PM, M-F 08:00 AM - 09:00 PM, Sat 08:00 AM - 09:00 PM",,,
ROCHESTER NORTH,,3708 HWY 63 NORTH,,ROCHESTER,MN,55906-3927,United States,507-281-0656,,,"Sun 09:00 AM - 09:00 PM, M-F 08:00 AM - 10:00 PM, Sat 08:00 AM - 10:00 PM",,,
PAYNESVILLE,,810 DIEKMANN DRIVE,,PAYNESVILLE,MN,56362-4657,United States,320-243-7177,,,"Sun 09:00 AM - 07:00 PM, M-F 08:00 AM - 09:00 PM, Sat 08:00 AM - 09:00 PM",,,
ROCHESTER SOUTH,,2820 HWY 63 SOUTH,,ROCHESTER,MN,55904-5571,United States,507-281-0686,,,"Sun 09:00 AM - 09:00 PM, M-F 08:00 AM - 10:00 PM, Sat 08:00 AM - 10:00 PM",,,
RICE LAKE,,320 S.  ACCESS ROAD,,RICE LAKE,WI,54868-0289,United States,715-236-7600,,,"Sun 09:00 AM - 09:00 PM, M-F 08:00 AM - 10:00 PM, Sat 08:00 AM - 10:00 PM",,,
SPOONER,,650 W. BEAVERBROOK AVE.,,SPOONER,WI,54801-0000,United States,715-635-8771,,,"Sun 09:00 AM - 08:00 PM, M-F 08:00 AM - 10:00 PM, Sat 08:00 AM - 09:00 PM",,,
EAU CLAIRE,,955 W CLAIREMONT AVE.,,EAU CLAIRE,WI,54701-6198,United States,715-832-9777,,,"Sun 09:00 AM - 09:00 PM, M-F 08:00 AM - 10:00 PM, Sat 08:00 AM - 10:00 PM",,,
ALBERT LEA,,2610 BRIDGE AVE.,,ALBERT LEA,MN,56007-2099,United States,507-373-6600,,,"Sun 09:00 AM - 09:00 PM, M-F 08:00 AM - 10:00 PM, Sat 08:00 AM - 10:00 PM",,,
CHIPPEWA FALLS,,2677 S PRAIRIE VIEW ROAD,,CHIPPEWA FALLS,WI,54729-8396,United States,715-726-1251,,,"Sun 09:00 AM - 09:00 PM, M-F 08:00 AM - 10:00 PM, Sat 08:00 AM - 10:00 PM",,,
AUSTIN,,1209 18TH AVE NORTHWEST,,AUSTIN,MN,55912-1881,United States,507-437-7785,,,"Sun 09:00 AM - 09:00 PM, M-F 08:00 AM - 10:00 PM, Sat 08:00 AM - 10:00 PM",,,
SAINT JAMES,,301 1ST AVENUE SOUTH,,SAINT JAMES,MN,56081-0000,United States,507-375-3188,,,"Sun 09:00 AM - 07:00 PM, M-F 08:00 AM - 09:00 PM, Sat 08:00 AM - 09:00 PM",,,
WINONA,,405 COTTONWOOD DR,,WINONA,MN,55987-1914,United States,507-452-1611,,,"Sun 09:00 AM - 09:00 PM, M-F 08:00 AM - 10:00 PM, Sat 08:00 AM - 10:00 PM",,,
ARCADIA,,1625 E BLASCHKO AVENUE,,ARCADIA,WI,54612-0000,United States,608-323-8224,,,"Sun 09:00 AM - 07:00 PM, M-F 08:00 AM - 09:00 PM, Sat 08:00 AM - 09:00 PM",,,
WINTERSET,,402 E. HWY 92,,WINTERSET,IA,50273-0000,United States,515-462-1030,,,"Sun 09:00 AM - 08:00 PM, M-F 08:00 AM - 10:00 PM, Sat 08:00 AM - 09:00 PM",,,
SAVANNA,,251 S. 4TH STREET,,SAVANNA,IL,61074-0000,United States,815-273-3556,,,"Sun 09:00 AM - 08:00 PM, M-F 08:00 AM - 10:00 PM, Sat 08:00 AM - 09:00 PM",,,
MANISTIQUE,,717 E. LAKESHORE DRIVE,,MANISTIQUE,MI,49854-0000,United States,906-341-7800,,,"Sun 09:00 AM - 08:00 PM, M-F 08:00 AM - 10:00 PM, Sat 08:00 AM - 09:00 PM",,,
SISTER BAY,,2541 SOUTH BAY SHORE DRIVE,,SISTER BAY,WI,54234-0000,United States,920-854-9180,,,"Sun 09:00 AM - 08:00 PM, M-F 08:00 AM - 09:00 PM, Sat 08:00 AM - 09:00 PM",,,
WETMORE,,E 9916 M28 EAST,,WETMORE,MI,49895-0000,United States,906-387-2525,,,"Sun 09:00 AM - 08:00 PM, M-F 08:00 AM - 09:00 PM, Sat 08:00 AM - 09:00 PM",,,
ESCANABA,,2530 FIRST AVENUE NORTH,,ESCANABA,MI,49829-1396,United States,906-786-4554,,,"Sun 09:00 AM - 09:00 PM, M-F 08:00 AM - 10:00 PM, Sat 08:00 AM - 10:00 PM",,,
GRAND ISLAND,,2208 NORTH WEBB RD,,GRAND ISLAND,NE,68803-1739,United States,308-382-8100,,,"Sun 09:00 AM - 09:00 PM, M-F 08:00 AM - 10:00 PM, Sat 08:00 AM - 10:00 PM",,,
ALBION,,2585 STATE HWY 14,,ALBION,NE,68620-2820,United States,402-395-6900,,,"Sun 09:00 AM - 07:00 PM, M-F 08:00 AM - 10:00 PM, Sat 08:00 AM - 09:00 PM",,,
REEDSBURG,,1515 E. MAIN STREET,,REEDSBURG,WI,53959-0000,United States,608-524-2230,,,"Sun 09:00 AM - 08:00 PM, M-F 08:00 AM - 10:00 PM, Sat 08:00 AM - 09:00 PM",,,
MAUSTON,,406 GATEWAY AVENUE,,MAUSTON,WI,53948-1401,United States,608-350-0962,,,"Sun 09:00 AM - 08:00 PM, M-F 08:00 AM - 10:00 PM, Sat 08:00 AM - 09:00 PM",,,
ADAMS,,220 W LINCOLN STREET,,ADAMS,WI,53910-0000,United States,608-339-2527,,,"Sun 09:00 AM - 08:00 PM, M-F 08:00 AM - 09:00 PM, Sat 08:00 AM - 09:00 PM",,,
WAUTOMA,,N2585 PLAZA ROAD,,WAUTOMA,WI,54982-0000,United States,920-787-7709,,,"Sun 09:00 AM - 08:00 PM, M-F 08:00 AM - 10:00 PM, Sat 08:00 AM - 09:00 PM",,,
WAUTOMA RX,,N2934 STATE ROAD 22,,WAUTOMA,WI,54982-5267,United States,920-787-5757,,,"Sun CLOSED - CLOSED, M-F 09:00 AM - 05:30 PM, Sat 09:00 AM - 01:00 PM",,,
WISCONSIN RAPIDS,,1100 EAST RIVERVIEW EXPRESSWAY,,WISCONSIN RAPIDS,WI,54494-5483,United States,715-423-3100,,,"Sun 09:00 AM - 09:00 PM, M-F 08:00 AM - 10:00 PM, Sat 08:00 AM - 10:00 PM",,,
PLOVER,,1800 PLOVER ROAD,,PLOVER,WI,54467-3978,United States,715-342-8974,,,"Sun 09:00 AM - 09:00 PM, M-F 08:00 AM - 10:00 PM, Sat 08:00 AM - 10:00 PM",,,
WAUPACA,,825 WEST FULTON STREET,,WAUPACA,WI,54981-0000,United States,715-258-9000,,,"Sun 09:00 AM - 08:00 PM, M-F 08:00 AM - 09:00 PM, Sat 08:00 AM - 09:00 PM",,,
WAUPACA RX,,800 RIVERSIDE DRIVE,,WAUPACA,WI,54981-1943,United States,715-256-1115,,,"Sun CLOSED - CLOSED, M-F 09:00 AM - 05:00 PM, Sat CLOSED - CLOSED",,,
STEVENS POINT NORTH,,1200 MAIN STREET,,STEVENS POINT,WI,54481-2063,United States,715-344-5600,,,"Sun 09:00 AM - 09:00 PM, M-F 08:00 AM - 10:00 PM, Sat 08:00 AM - 10:00 PM",,,
WINNECONNE,,946 E. MAIN STREET,,WINNECONNE,WI,54986-0000,United States,920-582-4414,,,"Sun 09:00 AM - 08:00 PM, M-F 08:00 AM - 09:00 PM, Sat 08:00 AM - 09:00 PM",,,
ONALASKA,,9366 STATE HIGHWAY 16,,ONALASKA,WI,54650-0000,United States,608-781-5444,,,"Sun 09:00 AM - 09:00 PM, M-F 08:00 AM - 10:00 PM, Sat 08:00 AM - 10:00 PM",,,
LA CROSSE SOUTH,,4344 MORMON COULEE RD,,LA CROSSE,WI,54601-7999,United States,608-788-8850,,,"Sun 09:00 AM - 09:00 PM, M-F 08:00 AM - 10:00 PM, Sat 08:00 AM - 10:00 PM",,,
MARSHFIELD,,1306 N. CENTRAL AV,,MARSHFIELD,WI,54449-1597,United States,715-387-2504,,,"Sun 09:00 AM - 09:00 PM, M-F 08:00 AM - 10:00 PM, Sat 08:00 AM - 10:00 PM",,,
NEILLSVILLE,,1008 E. DIVISION,,NEILLSVILLE,WI,54456-0000,United States,715-743-6568,,,"Sun 09:00 AM - 07:00 PM, M-F 08:00 AM - 09:00 PM, Sat 08:00 AM - 09:00 PM",,,
LANCASTER,,1625 HIGHWAY 61,,LANCASTER,WI,53813-0000,United States,608-723-4944,,,"Sun 09:00 AM - 08:00 PM, M-F 08:00 AM - 09:00 PM, Sat 08:00 AM - 09:00 PM",,,
SALMON,,1026 S. CHALLIS STREET,,SALMON,ID,83467-0000,United States,208-742-1285,,,"Sun 09:00 AM - 07:00 PM, M-F 08:00 AM - 09:00 PM, Sat 08:00 AM - 09:00 PM",,,
DILLON RX,,125 EAST GLENDALE,,DILLON,MT,59725-2505,United States,406-683-2316,,,"Sun CLOSED - CLOSED, M-F 09:00 AM - 06:00 PM, Sat 09:00 AM - 02:00 PM",,,
DILLON #2,,100 E HELENA STREET,,DILLON,MT,59725-2611,United States,406-683-6799,,,"Sun 09:00 AM - 07:00 PM, M-F 08:00 AM - 09:00 PM, Sat 08:00 AM - 09:00 PM",,,
IDAHO FALLS,,800 EAST 17TH STREET,,IDAHO FALLS,ID,83404-6151,United States,208-522-3061,,,"Sun 09:00 AM - 09:00 PM, M-F 08:00 AM - 10:00 PM, Sat 08:00 AM - 10:00 PM",,,
AFTON,,679 S WASHINGTON STREET,,AFTON,WY,83110-6000,United States,307-885-9804,,,"Sun 08:00 AM - 07:00 PM, M-F 08:00 AM - 09:00 PM, Sat 08:00 AM - 09:00 PM",,,
SHELBY,,1950 W ROOSEVELT HWY,,SHELBY,MT,59474-0000,United States,406-434-5293,,,"Sun 09:00 AM - 07:00 PM, M-F 08:00 AM - 09:00 PM, Sat 08:00 AM - 09:00 PM",,,
HELENA,,3101 N MONTANA AVE,,HELENA,MT,59602-7813,United States,406-443-4600,,,"Sun 09:00 AM - 09:00 PM, M-F 08:00 AM - 10:00 PM, Sat 08:00 AM - 10:00 PM",,,
PERRY,,1305 141ST STREET,,PERRY,IA,50220-0000,United States,515-465-5271,,,"Sun 09:00 AM - 08:00 PM, M-F 08:00 AM - 10:00 PM, Sat 08:00 AM - 09:00 PM",,,
JEFFERSON,,403 WEST HEAD STREET,,JEFFERSON,IA,50129-0000,United States,515-386-8107,,,"Sun 09:00 AM - 07:00 PM, M-F 08:00 AM - 09:00 PM, Sat 08:00 AM - 09:00 PM",,,
ELDORA,,1425 EDGINGTON AVENUE,,ELDORA,IA,50627-0000,United States,641-858-9002,,,"Sun 09:00 AM - 07:00 PM, M-F 08:00 AM - 09:00 PM, Sat 08:00 AM - 09:00 PM",,,
TOLEDO,,1006 S. COUNTY ROAD,,TOLEDO,IA,52342-0000,United States,641-484-5151,,,"Sun 09:00 AM - 08:00 PM, M-F 08:00 AM - 10:00 PM, Sat 08:00 AM - 09:00 PM",,,
WEBSTER CITY,,200 RED BULL DIVISION DRIVE,,WEBSTER CITY,IA,50595-7505,United States,515-832-1478,,,"Sun 09:00 AM - 08:00 PM, M-F 08:00 AM - 09:00 PM, Sat 08:00 AM - 09:00 PM",,,
CLARION,,1003 CENTRAL AVE. WEST,,CLARION,IA,50525-0000,United States,515-532-3319,,,"Sun 09:00 AM - 08:00 PM, M-F 08:00 AM - 10:00 PM, Sat 08:00 AM - 09:00 PM",,,
HAMPTON,,808 4TH ST. SOUTHEAST,,HAMPTON,IA,50441-0000,United States,641-456-4891,,,"Sun 09:00 AM - 07:00 PM, M-F 08:00 AM - 09:00 PM, Sat 08:00 AM - 09:00 PM",,,
HUMBOLDT,,511 10TH AVE NORTH,,HUMBOLDT,IA,50548-0000,United States,515-332-4391,,,"Sun 09:00 AM - 08:00 PM, M-F 08:00 AM - 09:00 PM, Sat 08:00 AM - 09:00 PM",,,
VINTON,,911 S K AVE,,VINTON,IA,52349-1073,United States,319-472-4432,,,"Sun 09:00 AM - 08:00 PM, M-F 08:00 AM - 10:00 PM, Sat 08:00 AM - 09:00 PM",,,
MASON CITY,,615 SOUTH MONROE AVE.,,MASON CITY,IA,50401-5061,United States,641-424-9055,,,"Sun 09:00 AM - 09:00 PM, M-F 08:00 AM - 10:00 PM, Sat 08:00 AM - 10:00 PM",,,
OELWEIN,,1345 S. FREDERICK AVENUE,,OELWEIN,IA,50662-0000,United States,319-283-4962,,,"Sun 09:00 AM - 07:00 PM, M-F 08:00 AM - 10:00 PM, Sat 08:00 AM - 09:00 PM",,,
FOREST CITY,,616 E US HWY 9,,FOREST CITY,IA,50436-0000,United States,641-582-2511,,,"Sun 09:00 AM - 08:00 PM, M-F 08:00 AM - 09:00 PM, Sat 08:00 AM - 09:00 PM",,,
CALUMET,,56835 STATION DRIVE,,CALUMET,MI,49913-2903,United States,906-337-2698,,,"Sun 09:00 AM - 08:00 PM, M-F 08:00 AM - 10:00 PM, Sat 08:00 AM - 09:00 PM",,,
HOUGHTON,,900 MEMORIAL DRIVE,,HOUGHTON,MI,49931-2481,United States,906-487-9000,,,"Sun 09:00 AM - 09:00 PM, M-F 08:00 AM - 10:00 PM, Sat 08:00 AM - 10:00 PM",,,
MARQUETTE,,1150 WEST WASHINGTON,,MARQUETTE,MI,49855-4099,United States,906-228-9393,,,"Sun 09:00 AM - 09:00 PM, M-F 08:00 AM - 10:00 PM, Sat 08:00 AM - 10:00 PM",,,
L&#39;ANSE,,15900 PICTURE BAY TRAIL,,L&#39;ANSE,MI,49946-0000,United States,906-524-2424,,,"Sun 09:00 AM - 08:00 PM, M-F 08:00 AM - 10:00 PM, Sat 08:00 AM - 09:00 PM",,,
ISHPEMING,,650 US HWY 41 WEST,,ISHPEMING,MI,49849-0000,United States,906-486-4413,,,"Sun 09:00 AM - 08:00 PM, M-F 08:00 AM - 09:00 PM, Sat 08:00 AM - 09:00 PM",,,
ELY,,1500 E. SHERIDAN STREET,,ELY,MN,55731-0000,United States,218-365-4700,,,"Sun 09:00 AM - 08:00 PM, M-F 08:00 AM - 09:00 PM, Sat 08:00 AM - 09:00 PM",,,
IRON RIVER,,890 RIVERSIDE PLAZA,,IRON RIVER,MI,49935-0000,United States,906-265-6181,,,"Sun 09:00 AM - 08:00 PM, M-F 08:00 AM - 10:00 PM, Sat 08:00 AM - 09:00 PM",,,
KINGSFORD,,500 S. CARPENTER AVE,,KINGSFORD,MI,49802-4597,United States,906-774-4991,,,"Sun 09:00 AM - 09:00 PM, M-F 08:00 AM - 10:00 PM, Sat 08:00 AM - 10:00 PM",,,
TWO HARBORS,,1009 7TH AVENUE,,TWO HARBORS,MN,55616-0000,United States,218-834-2889,,,"Sun 09:00 AM - 07:00 PM, M-F 08:00 AM - 09:00 PM, Sat 08:00 AM - 09:00 PM",,,
EAGLE RIVER,,810 N. RAILROAD ST.,,EAGLE RIVER,WI,54521-0000,United States,715-479-6878,,,"Sun 09:00 AM - 08:00 PM, M-F 08:00 AM - 09:00 PM, Sat 08:00 AM - 09:00 PM",,,
RHINELANDER,,2200 LINCOLN STREET,,RHINELANDER,WI,54501-3631,United States,715-362-3900,,,"Sun 09:00 AM - 09:00 PM, M-F 08:00 AM - 10:00 PM, Sat 08:00 AM - 10:00 PM",,,
DULUTH,,801 WEST CENTRAL ENTRANCE,,DULUTH,MN,55811-5468,United States,218-727-7131,,,"Sun 09:00 AM - 09:00 PM, M-F 08:00 AM - 10:00 PM, Sat 08:00 AM - 10:00 PM",,,
PARK FALLS,,1333 4TH AVENUE SOUTH,,PARK FALLS,WI,54552-0000,United States,715-762-2959,,,"Sun 09:00 AM - 08:00 PM, M-F 08:00 AM - 09:00 PM, Sat 08:00 AM - 09:00 PM",,,
MARINETTE,,2741 ROOSEVELT ROAD,,MARINETTE,WI,54143-3833,United States,715-735-0250,,,"Sun 09:00 AM - 09:00 PM, M-F 08:00 AM - 10:00 PM, Sat 08:00 AM - 10:00 PM",,,
MARINETTE RX,,2820 ROOSEVELT RD,,MARINETTE,WI,54143-0000,United States,715-330-6171,,,"Sun 08:00 AM - 04:00 PM, M-F 08:00 AM - 08:00 PM, Sat 08:00 AM - 04:00 PM",,,
TOMAHAWK,,79 HOMETOWN DRIVE,,TOMAHAWK,WI,54487-0000,United States,715-453-5996,,,"Sun 09:00 AM - 08:00 PM, M-F 08:00 AM - 09:00 PM, Sat 08:00 AM - 09:00 PM",,,
OCONTO,,126 CHARLES STREET,,OCONTO,WI,54153-9446,United States,920-834-5251,,,"Sun 09:00 AM - 08:00 PM, M-F 08:00 AM - 09:00 PM, Sat 08:00 AM - 09:00 PM",,,
WARROAD,,216 MAIN AVENUE NE,,WARROAD,MN,56763-2344,United States,218-386-4853,,,"Sun 09:00 AM - 07:00 PM, M-F 08:00 AM - 09:00 PM, Sat 08:00 AM - 09:00 PM",,,
SHAWANO RX,,100 COUNTY RD B,,SHAWANO,WI,54166-7072,United States,715-526-3456,,,"Sun CLOSED - CLOSED, M-F 07:30 AM - 05:30 PM, Sat 08:30 AM - 12:30 PM",,,
MOOSE LAKE,,4791 COUNTY ROAD 10,,MOOSE LAKE,MN,55767-0000,United States,218-485-4059,,,"Sun 09:00 AM - 08:00 PM, M-F 08:00 AM - 09:00 PM, Sat 08:00 AM - 09:00 PM",,,
SUAMICO,,2320 LINEVILLE ROAD,,GREEN BAY,WI,54313-8836,United States,920-434-2759,,,"Sun 09:00 AM - 09:00 PM, M-F 08:00 AM - 10:00 PM, Sat 08:00 AM - 10:00 PM",,,
DUBUQUE,,255 JOHN F KENNEDY RD,,DUBUQUE,IA,52002-5313,United States,563-583-5762,,,"Sun 09:00 AM - 09:00 PM, M-F 08:00 AM - 10:00 PM, Sat 08:00 AM - 10:00 PM",,,
DYERSVILLE,,1201 12TH AVENUE SE,,DYERSVILLE,IA,52040-0000,United States,563-875-9108,,,"Sun 09:00 AM - 07:00 PM, M-F 08:00 AM - 09:00 PM, Sat 08:00 AM - 09:00 PM",,,
SIOUX FALLS SOUTH,,1601 W. 41ST ST,,SIOUX FALLS,SD,57105-6371,United States,605-338-1118,,,"Sun 09:00 AM - 09:00 PM, M-F 08:00 AM - 10:00 PM, Sat 08:00 AM - 10:00 PM",,,
SIOUX FALLS EAST,,4501 EAST ARROWHEAD PARKWAY,,SIOUX FALLS,SD,57110-2701,United States,605-335-8822,,,"Sun 09:00 AM - 09:00 PM, M-F 08:00 AM - 10:00 PM, Sat 08:00 AM - 10:00 PM",,,
DELL RAPIDS,,1208 N HIGHWAY 77,,DELL RAPIDS,SD,57022-0000,United States,605-428-3740,,,"Sun 09:00 AM - 07:00 PM, M-F 08:00 AM - 09:00 PM, Sat 08:00 AM - 09:00 PM",,,
LUVERNE,,405 W. INTERSTATE DRIVE,,LUVERNE,MN,56156-0000,United States,507-283-1965,,,"Sun 09:00 AM - 08:00 PM, M-F 08:00 AM - 09:00 PM, Sat 08:00 AM - 09:00 PM",,,
MADISON SD,,800 S. WASHINGTON AVENUE,,MADISON,SD,57042-0000,United States,605-256-6641,,,"Sun 09:00 AM - 07:00 PM, M-F 08:00 AM - 10:00 PM, Sat 08:00 AM - 09:00 PM",,,
PIPESTONE,,1002 7TH STREET SE,,PIPESTONE,MN,56164-0000,United States,507-825-6501,,,"Sun 09:00 AM - 08:00 PM, M-F 08:00 AM - 09:00 PM, Sat 08:00 AM - 09:00 PM",,,
SHELDON,,1501 PARK STREET,,SHELDON,IA,51201-0000,United States,712-324-4301,,,"Sun 09:00 AM - 08:00 PM, M-F 08:00 AM - 09:00 PM, Sat 08:00 AM - 09:00 PM",,,
WORTHINGTON,,1755 NORTH HUMISTON AVE.,,WORTHINGTON,MN,56187-1757,United States,507-376-9300,,,"Sun 09:00 AM - 09:00 PM, M-F 08:00 AM - 10:00 PM, Sat 08:00 AM - 10:00 PM",,,
MITCHELL,,1900 N. MAIN STREET,,MITCHELL,SD,57301-1160,United States,605-996-5538,,,"Sun 09:00 AM - 09:00 PM, M-F 08:00 AM - 10:00 PM, Sat 08:00 AM - 10:00 PM",,,
MARSHALL,,1200 SUSAN DRIVE,,MARSHALL,MN,56258-1622,United States,507-532-3266,,,"Sun 09:00 AM - 09:00 PM, M-F 08:00 AM - 10:00 PM, Sat 08:00 AM - 10:00 PM",,,
CHEROKEE,,1620 N. 2ND STREET,,CHEROKEE,IA,51012-0000,United States,712-225-9010,,,"Sun 09:00 AM - 08:00 PM, M-F 08:00 AM - 09:00 PM, Sat 08:00 AM - 09:00 PM",,,
WINDOM,,2155 1ST AVENUE N,,WINDOM,MN,56101-0000,United States,507-831-5470,,,"Sun 09:00 AM - 08:00 PM, M-F 08:00 AM - 09:00 PM, Sat 08:00 AM - 09:00 PM",,,
WAGNER,,905 W SD HIGHWAY 46,,WAGNER,SD,57380-9376,United States,605-384-3003,,,"Sun 09:00 AM - 07:00 PM, M-F 08:00 AM - 10:00 PM, Sat 08:00 AM - 09:00 PM",,,
WATERTOWN SD,,700 9TH AVENUE SE,,WATERTOWN,SD,57201-5222,United States,605-882-2570,,,"Sun 09:00 AM - 09:00 PM, M-F 08:00 AM - 10:00 PM, Sat 08:00 AM - 10:00 PM",,,
ESTHERVILLE,,2402 CENTRAL AVE.,,ESTHERVILLE,IA,51334-2770,United States,712-362-0330,,,"Sun 09:00 AM - 08:00 PM, M-F 08:00 AM - 10:00 PM, Sat 08:00 AM - 09:00 PM",,,
EMMETSBURG,,3402 MAIN STREET,,EMMETSBURG,IA,50536-0000,United States,712-415-1448,,,"Sun 09:00 AM - 08:00 PM, M-F 08:00 AM - 10:00 PM, Sat 08:00 AM - 09:00 PM",,,
FAIRMONT,,1001 HIGHWAY 15 SOUTH,,FAIRMONT,MN,56031-4456,United States,507-238-9481,,,"Sun 09:00 AM - 09:00 PM, M-F 08:00 AM - 10:00 PM, Sat 08:00 AM - 10:00 PM",,,
MILBANK,,1400 MORNINGSIDE DR,,MILBANK,SD,57252-1532,United States,605-445-0122,,,"Sun 09:00 AM - 07:00 PM, M-F 08:00 AM - 09:00 PM, Sat 08:00 AM - 09:00 PM",,,
ONEILL,,404 E. HIGHWAY 20,,ONEILL,NE,68763-0000,United States,402-336-3297,,,"Sun 09:00 AM - 07:00 PM, M-F 08:00 AM - 10:00 PM, Sat 08:00 AM - 09:00 PM",,,
RAPID CITY,,1845 HAINES AVE,,RAPID CITY,SD,57701-0663,United States,605-342-1551,,,"Sun 09:00 AM - 09:00 PM, M-F 08:00 AM - 10:00 PM, Sat 08:00 AM - 10:00 PM",,,
THERMOPOLIS,,142 S HWY 20,,THERMOPOLIS,WY,82443-0000,United States,307-864-3777,,,"Sun 09:00 AM - 08:00 PM, M-F 08:00 AM - 09:00 PM, Sat 08:00 AM - 09:00 PM",,,
BUFFALO,,129 HARMONY ST.,,BUFFALO,WY,82834-0000,United States,307-684-4540,,,"Sun 09:00 AM - 07:00 PM, M-F 08:00 AM - 09:00 PM, Sat 08:00 AM - 09:00 PM",,,
STURGIS,,2105 LAZELLE ST.,,STURGIS,SD,57785-0000,United States,605-347-3641,,,"Sun 09:00 AM - 07:00 PM, M-F 08:00 AM - 09:00 PM, Sat 08:00 AM - 08:00 PM",,,
NEW HAMPTON,,660 WEST MILWAUKEE STREET,,NEW HAMPTON,IA,50659-0000,United States,641-394-4748,,,"Sun 09:00 AM - 07:00 PM, M-F 08:00 AM - 10:00 PM, Sat 08:00 AM - 09:00 PM",,,
WAUKON,,819 11TH AVENUE SW,,WAUKON,IA,52172-0000,United States,563-568-3293,,,"Sun 09:00 AM - 07:00 PM, M-F 08:00 AM - 09:00 PM, Sat 08:00 AM - 09:00 PM",,,
CRESCO,,22422 HIGHWAY 9,,CRESCO,IA,52136-8267,United States,563-547-5953,,,"Sun 09:00 AM - 07:00 PM, M-F 08:00 AM - 10:00 PM, Sat 08:00 AM - 09:00 PM",,,
MAHNOMEN,,416 U.S. HIGHWAY 59,,MAHNOMEN,MN,56557-4630,United States,218-936-4880,,,"Sun 09:00 AM - 07:00 PM, M-F 08:00 AM - 09:00 PM, Sat 08:00 AM - 09:00 PM",,,
MAYVILLE,,935 3RD STREET SE,,MAYVILLE,ND,58257-1630,United States,701-414-0159,,,"Sun 12:00 PM - 07:00 PM, M-F 08:00 AM - 09:00 PM, Sat 08:00 AM - 09:00 PM",,,
LISBON,,1709 MAIN STREET,,LISBON,ND,58054-4490,United States,701-683-9752,,,"Sun 12:00 PM - 07:00 PM, M-F 08:00 AM - 09:00 PM, Sat 08:00 AM - 09:00 PM",,,
FERGUS FALLS,,226 E. LINCOLN,,FERGUS FALLS,MN,56537-0000,United States,218-736-5448,,,"Sun 09:00 AM - 07:00 PM, M-F 08:00 AM - 09:00 PM, Sat 08:00 AM - 09:00 PM",,,
VALLEY CITY,,727 15TH AVENUE SW,,VALLEY CITY,ND,58072-0000,United States,701-845-2671,,,"Sun 12:00 PM - 07:00 PM, M-F 08:00 AM - 09:00 PM, Sat 08:00 AM - 09:00 PM",,,
PERHAM,,300 JAKE STREET,,PERHAM,MN,56573-0000,United States,218-346-7750,,,"Sun 09:00 AM - 07:00 PM, M-F 08:00 AM - 09:00 PM, Sat 08:00 AM - 09:00 PM",,,
EAST GRAND FORKS,,421 GATEWAY DRIVE NE,,EAST GRAND FORKS,MN,56721-0000,United States,218-773-1130,,,"Sun 09:00 AM - 07:00 PM, M-F 08:00 AM - 09:00 PM, Sat 08:00 AM - 09:00 PM",,,
OAKES,,1420 NORTH 7TH STREET,,OAKES,ND,58474-1351,United States,701-742-3460,,,"Sun 12:00 PM - 07:00 PM, M-F 08:00 AM - 09:00 PM, Sat 08:00 AM - 09:00 PM",,,
SISSETON,,1712 SD HWY 10,,SISSETON,SD,57262-0000,United States,605-742-0055,,,"Sun 09:00 AM - 07:00 PM, M-F 08:00 AM - 10:00 PM, Sat 08:00 AM - 09:00 PM",,,
MORRIS,,116 EAST STATE HWY 28,,MORRIS,MN,56267-0000,United States,320-589-2264,,,"Sun 09:00 AM - 07:00 PM, M-F 08:00 AM - 10:00 PM, Sat 08:00 AM - 09:00 PM",,,
GLENWOOD,,710 COUNTY ROAD 21 S,,GLENWOOD,MN,56334-0000,United States,320-634-3570,,,"Sun 09:00 AM - 07:00 PM, M-F 08:00 AM - 09:00 PM, Sat 08:00 AM - 09:00 PM",,,
GRAFTON,,932 W. 12TH STREET,,GRAFTON,ND,58237-0000,United States,701-352-2461,,,"Sun 12:00 PM - 07:00 PM, M-F 08:00 AM - 09:00 PM, Sat 08:00 AM - 09:00 PM",,,
WEBSTER,,620 E HIGHWAY 12,,WEBSTER,SD,57274-1135,United States,605-588-0115,,,"Sun 09:00 AM - 07:00 PM, M-F 08:00 AM - 09:00 PM, Sat 08:00 AM - 09:00 PM",,,
CARRINGTON,,6717 HIGHWAY 200,,CARRINGTON,ND,58421-8701,United States,701-652-1450,,,"Sun 12:00 PM - 07:00 PM, M-F 08:00 AM - 09:00 PM, Sat 08:00 AM - 09:00 PM",,,
ABERDEEN,,500 NORTH HIGHWAY 281,,ABERDEEN,SD,57401-1821,United States,605-225-0085,,,"Sun 09:00 AM - 09:00 PM, M-F 08:00 AM - 10:00 PM, Sat 08:00 AM - 10:00 PM",,,
CAVALIER,,601 DIVISION AVENUE SOUTH,,CAVALIER,ND,58220-4228,United States,701-265-4545,,,"Sun 12:00 PM - 07:00 PM, M-F 08:00 AM - 09:00 PM, Sat 08:00 AM - 09:00 PM",,,
ROSEAU,,1087 3RD STREET NW,,ROSEAU,MN,56751-0000,United States,218-463-2034,,,"Sun 09:00 AM - 07:00 PM, M-F 08:00 AM - 09:00 PM, Sat 08:00 AM - 09:00 PM",,,
AITKIN,,190 SOUTHGATE DRIVE,,AITKIN,MN,56431-0000,United States,218-927-2012,,,"Sun 09:00 AM - 07:00 PM, M-F 08:00 AM - 09:00 PM, Sat 08:00 AM - 09:00 PM",,,
REDFIELD,,614 W 3RD STREET,,REDFIELD,SD,57469-1042,United States,605-302-0176,,,"Sun 09:00 AM - 07:00 PM, M-F 08:00 AM - 10:00 PM, Sat 08:00 AM - 09:00 PM",,,
BILLINGS,,905 SOUTH 24 WEST,,BILLINGS,MT,59102-7408,United States,406-652-9411,,,"Sun 09:00 AM - 09:00 PM, M-F 08:00 AM - 10:00 PM, Sat 08:00 AM - 10:00 PM",,,
HARDIN #2,,1001 N. CENTER AVENUE,,HARDIN,MT,59034-1101,United States,406-623-5147,,,"Sun 08:00 AM - 09:00 PM, M-F 08:00 AM - 10:00 PM, Sat 08:00 AM - 10:00 PM",,,
ROUNDUP RX,,148 MAIN STREET,,ROUNDUP,MT,59072-2830,United States,406-323-1811,,,"Sun CLOSED - CLOSED, M-F 09:00 AM - 06:00 PM, Sat 09:00 AM - 01:00 PM",,,
POWELL,,1005 W COULTER AVENUE,,POWELL,WY,82435-0000,United States,307-754-5159,,,"Sun 09:00 AM - 07:00 PM, M-F 08:00 AM - 09:00 PM, Sat 08:00 AM - 09:00 PM",,,
GREYBULL,,925 NORTH 6TH STREET,,GREYBULL,WY,82426-0000,United States,307-765-4603,,,"Sun 09:00 AM - 07:00 PM, M-F 08:00 AM - 09:00 PM, Sat 08:00 AM - 09:00 PM",,,
LEWISTOWN,,825 NE MAIN,,LEWISTOWN,MT,59457-0000,United States,406-538-3423,,,"Sun 08:00 AM - 07:00 PM, M-F 08:00 AM - 09:00 PM, Sat 08:00 AM - 09:00 PM",,,
LIVINGSTON,,100 WASHINGTON STREET,,LIVINGSTON,MT,59047-0000,United States,406-222-7072,,,"Sun 09:00 AM - 07:00 PM, M-F 08:00 AM - 09:00 PM, Sat 08:00 AM - 09:00 PM",,,
WORLAND,,100 SOUTH 20TH STREET,,WORLAND,WY,82401-0000,United States,307-347-4239,,,"Sun 09:00 AM - 08:00 PM, M-F 08:00 AM - 09:00 PM, Sat 08:00 AM - 09:00 PM",,,
GREAT FALLS,,301 NORTHWEST BYPASS,,GREAT FALLS,MT,59404-4125,United States,406-727-9620,,,"Sun 09:00 AM - 09:00 PM, M-F 08:00 AM - 10:00 PM, Sat 08:00 AM - 10:00 PM",,,
GLASGOW,,804 US HWY 2 WEST,,GLASGOW,MT,59230-0000,United States,406-228-9845,,,"Sun 08:00 AM - 07:00 PM, M-F 08:00 AM - 09:00 PM, Sat 08:00 AM - 09:00 PM",,,
WOLF POINT,,600 US HIGHWAY 2E,,WOLF POINT,MT,59201-1435,United States,406-653-3980,,,"Sun 09:00 AM - 07:00 PM, M-F 08:00 AM - 09:00 PM, Sat 08:00 AM - 09:00 PM",,,
BELLE FOURCHE,,1 NORTH 5TH AVENUE,,BELLE FOURCHE,SD,57717-0000,United States,605-892-3393,,,"Sun 09:00 AM - 07:00 PM, M-F 08:00 AM - 09:00 PM, Sat 08:00 AM - 09:00 PM",,,
SIDNEY,,1159 S. CENTRAL AVENUE,,SIDNEY,MT,59270-0000,United States,406-482-3744,,,"Sun 08:00 AM - 07:00 PM, M-F 08:00 AM - 09:00 PM, Sat 08:00 AM - 09:00 PM",,,
SIDNEY #2,,500 N CENTRAL AVE,,SIDNEY,MT,59270-4220,United States,406-433-3080,,,"Sun 08:00 AM - 07:00 PM, M-F 08:00 AM - 09:00 PM, Sat 08:00 AM - 09:00 PM",,,
BOWMAN,,320 HIGHWAY 12 EAST,,BOWMAN,ND,58623-0000,United States,701-523-7679,,,"Sun 12:00 PM - 07:00 PM, M-F 08:00 AM - 09:00 PM, Sat 08:00 AM - 09:00 PM",,,
GREEN BAY WEST,,216 S. MILITARY AVE.,,GREEN BAY,WI,54303-2498,United States,920-494-3415,,,"Sun 09:00 AM - 09:00 PM, M-F 08:00 AM - 10:00 PM, Sat 08:00 AM - 10:00 PM",,,
ASHWAUBENON,,301 BAY PARK  SQUARE,,GREEN BAY,WI,54304-5294,United States,920-499-2122,,,"Sun 09:00 AM - 09:00 PM, M-F 08:00 AM - 10:00 PM, Sat 08:00 AM - 10:00 PM",,,
GREEN BAY EAST,,2430 EAST MASON,,GREEN BAY,WI,54302-3759,United States,920-468-6041,,,"Sun 09:00 AM - 09:00 PM, M-F 08:00 AM - 10:00 PM, Sat 08:00 AM - 10:00 PM",,,
DE PERE,,230 NORTH WISCONSIN STREET,,DEPERE,WI,54115-2799,United States,920-336-3101,,,"Sun 09:00 AM - 09:00 PM, M-F 08:00 AM - 10:00 PM, Sat 08:00 AM - 10:00 PM",,,
HOWARD,,2585 LINEVILLE ROAD,,GREEN BAY,WI,54313-9999,United States,920-662-9450,,,"Sun 08:00 AM - 09:00 PM, M-F 08:00 AM - 09:00 PM, Sat 08:00 AM - 09:00 PM",,,
LEDGEVIEW,,3705 MONROE ROAD,,DE PERE,WI,54115-9999,United States,920-336-6096,,,"Sun 08:00 AM - 09:00 PM, M-F 08:00 AM - 09:00 PM, Sat 08:00 AM - 09:00 PM",,,
SEYMOUR,,1010 SOUTH MAINLINE DR,,SEYMOUR,WI,54165-0000,United States,920-833-2141,,,"Sun 09:00 AM - 08:00 PM, M-F 08:00 AM - 09:00 PM, Sat 08:00 AM - 09:00 PM",,,
KIMBERLY,,800 EAST MAES AVE,,KIMBERLY,WI,54136-1596,United States,920-788-9161,,,"Sun 09:00 AM - 09:00 PM, M-F 08:00 AM - 10:00 PM, Sat 08:00 AM - 10:00 PM",,,
APPLETON NORTH,,2101 EAST EVERGREEN DRIVE,,APPLETON,WI,54913-9001,United States,920-733-2305,,,"Sun 08:00 AM - 09:00 PM, M-F 07:00 AM - 09:00 PM, Sat 08:00 AM - 09:00 PM",,,
APPLETON EAST,,W3208 VAN ROY ROAD,,APPLETON,WI,54915-4086,United States,920-733-3846,,,"Sun 08:00 AM - 09:00 PM, M-F 08:00 AM - 09:00 PM, Sat 08:00 AM - 09:00 PM",,,
APPLETON,,1000 WEST NORTHLAND AVE,,APPLETON,WI,54914-1496,United States,920-731-8181,,,"Sun 09:00 AM - 09:00 PM, M-F 08:00 AM - 10:00 PM, Sat 08:00 AM - 10:00 PM",,,
MENASHA,,1578 APPLETON RD,,MENASHA,WI,54952-1192,United States,920-722-8166,,,"Sun 09:00 AM - 09:00 PM, M-F 08:00 AM - 10:00 PM, Sat 08:00 AM - 10:00 PM",,,
CLINTONVILLE,,291 S. MAIN STREET,,CLINTONVILLE,WI,54929-0000,United States,715-823-3141,,,"Sun 09:00 AM - 08:00 PM, M-F 08:00 AM - 09:00 PM, Sat 08:00 AM - 09:00 PM",,,
BROKEN BOW,,2353 SOUTH E,,BROKEN BOW,NE,68822-0000,United States,308-872-2355,,,"Sun 09:00 AM - 07:00 PM, M-F 08:00 AM - 10:00 PM, Sat 08:00 AM - 09:00 PM",,,
VALENTINE,,525 E HWY 20,,VALENTINE,NE,69201-2115,United States,402-376-3531,,,"Sun 09:00 AM - 07:00 PM, M-F 08:00 AM - 10:00 PM, Sat 08:00 AM - 09:00 PM",,,
STANLEY,,409 JUNCTION AVENUE,,STANLEY,WI,54768-0000,United States,715-644-3340,,,"Sun 09:00 AM - 07:00 PM, M-F 08:00 AM - 09:00 PM, Sat 08:00 AM - 09:00 PM",,,
ABBOTSFORD,,1011 E. SPRUCE ST.,,ABBOTSFORD,WI,54405-0000,United States,715-223-4494,,,"Sun 09:00 AM - 08:00 PM, M-F 08:00 AM - 09:00 PM, Sat 08:00 AM - 09:00 PM",,,
MOBRIDGE,,2008 WEST HIGHWAY 12,,MOBRIDGE,SD,57601-4801,United States,605-845-5003,,,"Sun 09:00 AM - 07:00 PM, M-F 08:00 AM - 09:00 PM, Sat 08:00 AM - 09:00 PM",,,
WINNER,,1140 E. 5TH STREET,,WINNER,SD,57580-0000,United States,605-842-2288,,,"Sun 09:00 AM - 07:00 PM, M-F 08:00 AM - 10:00 PM, Sat 08:00 AM - 09:00 PM",,,
CHAMBERLAIN,,1951 E KING AVE,,CHAMBERLAIN,SD,57325-0000,United States,605-234-1512,,,"Sun 09:00 AM - 07:00 PM, M-F 08:00 AM - 10:00 PM, Sat 08:00 AM - 09:00 PM",,,
AINSWORTH,,1511 EAST 4TH STREET,,AINSWORTH,NE,69210-0000,United States,402-387-1357,,,"Sun 09:00 AM - 07:00 PM, M-F 08:00 AM - 09:00 PM, Sat 08:00 AM - 09:00 PM",,,
BEULAH,,1900 HWY 49,,BEULAH,ND,58523-0000,United States,701-873-5990,,,"Sun 12:00 PM - 07:00 PM, M-F 08:00 AM - 09:00 PM, Sat 08:00 AM - 09:00 PM",,,
LA CROSSE NORTH,,2400 ROSE STREET,,LA CROSSE,WI,54603-1612,United States,608-781-3400,,,"Sun 09:00 AM - 09:00 PM, M-F 08:00 AM - 10:00 PM, Sat 08:00 AM - 10:00 PM",,,
WAUSAU,,200 SOUTH 18TH AVE,,WAUSAU,WI,54401-4252,United States,715-842-7442,,,"Sun 09:00 AM - 09:00 PM, M-F 08:00 AM - 10:00 PM, Sat 08:00 AM - 10:00 PM",,,
ROTHSCHILD,,1105 E. GRAND AVE.,,ROTHSCHILD,WI,54474-1096,United States,715-359-3146,,,"Sun 09:00 AM - 09:00 PM, M-F 08:00 AM - 10:00 PM, Sat 08:00 AM - 10:00 PM",,,
RUGBY,,225 HWY 2 SE,,RUGBY,ND,58368-0000,United States,701-776-5828,,,"Sun 12:00 PM - 07:00 PM, M-F 08:00 AM - 09:00 PM, Sat 08:00 AM - 09:00 PM",,,
NEW TOWN,,102 COLLEGE DRIVE,,NEW TOWN,ND,58763-9114,United States,701-627-5200,,,"Sun 12:00 PM - 07:00 PM, M-F 08:00 AM - 09:00 PM, Sat 08:00 AM - 09:00 PM",,,
STANLEY ND,,702 WESTVIEW LANE,,STANLEY,ND,58784-0000,United States,701-628-2566,,,"Sun 12:00 PM - 07:00 PM, M-F 08:00 AM - 09:00 PM, Sat 08:00 AM - 09:00 PM",,,
TIOGA,,6527 HIGHWAY 40,,TIOGA,ND,58852-9213,United States,701-664-8006,,,"Sun 12:00 PM - 07:00 PM, M-F 08:00 AM - 09:00 PM, Sat 08:00 AM - 09:00 PM",,,
ROLLA,,602 MAIN AVENUE WEST,,ROLLA,ND,58367-7606,United States,701-953-5048,,,"Sun 12:00 PM - 07:00 PM, M-F 08:00 AM - 09:00 PM, Sat 08:00 AM - 09:00 PM",,,
ORD,,133 TROTTER AVENUE,,ORD,NE,68862-0000,United States,308-730-8145,,,"Sun 09:00 AM - 07:00 PM, M-F 08:00 AM - 10:00 PM, Sat 08:00 AM - 09:00 PM",,,
PLENTYWOOD,,117 WEST 1ST AVENUE,,PLENTYWOOD,MT,59254-0000,United States,406-765-1133,,,"Sun 09:00 AM - 07:00 PM, M-F 08:00 AM - 09:00 PM, Sat 08:00 AM - 09:00 PM",,,
