store_name,store_number,address,address2,city,state,zip_code,country,phone_number,latitude,longitude,store_hours,store_type,other_fields,coming_soon
State Beauty Supply,814,516 SE Washington Blvd.,,Bartlesville,OK,74006,United States,918-336-2322,36.7487792,-95.9353946,,,,
State Beauty Supply,1085,"900 E Will Rogers Blvd, Suite E",,Claremore,OK,74017,United States,918-923-4991,36.3073972,-95.5991836,,,,
State Beauty Supply,812,530 S. Virginia Ave.,,Joplin,MO,64801,United States,417-623-6883,37.0856573,-94.5125617,,,,
State Beauty Supply,857,3005 S. Sheridan Rd.,,Tulsa,OK,74129,United States,918-835-8960,36.1209905,-95.9032825,,,,
State Beauty Supply,799,9516 E. 54th St.,,Tulsa,OK,74145,United States,918-665-8300,36.0864475,-95.870298,,,,
State Beauty Supply,863,4969 S. Peoria Ave.,,Tulsa,OK,74105,United States,918-742-2948,36.0906056,-95.9747006,,,,
State Beauty Supply,800,407 N. Main St.,,Broken Arrow,OK,74012,United States,918-258-7677,36.0557687,-95.7903466,,,,
State Beauty Supply,854,502 S. Main St.,,Sapulpa,OK,74066,United States,918-224-6046,35.99297,-96.114229,,,,
State Beauty Supply,819,1900 N. Union St.,,Ponca City,OK,74601,United States,580-765-8446,36.72501,-97.085699,,,,
State Beauty Supply,832,128 E. Walnut St.,,Nevada,MO,64772,United States,417-667-8125,37.8391023,-94.3555784,,,,
State Beauty Supply,806,1621 E. Okmulgee Ave.,,Muskogee,OK,74403,United States,918-683-1431,35.7409146,-95.3508376,,,,
State Beauty Supply,894,"2020 N. Woodlawn St., Suite 325",,Wichita,KS,67208,United States,316-719-2880,37.721182,-97.260497,,,,
State Beauty Supply,816,"1200 S.E. 14th St., Suite 6",,Bentonville,AR,72712,United States,479-268-6260,36.3560256,-94.1950769,,,,
State Beauty Supply - Stillwater,815,3623 N. Park Dr.,,Stillwater,OK,74075,United States,405-372-0500,36.1590907,-97.0546484,,,,
State Beauty Supply,892,"7011 W. Central Ave., Suite 202",,Wichita,KS,67212,United States,316-687-0143,37.6934639,-97.4246835,,,,
State Beauty Supply,883,3450 N. Highway 112,,Fayetteville,AR,72704,United States,479-442-6112,36.1147314,-94.1796069,,,,
State Beauty Supply,804,1004 W. Willow Rd.,,Enid,OK,73703,United States,580-234-3815,36.4208571,-97.8911219,,,,
State Beauty Supply,1057,"2800 SW Wanamaker Rd., Suite 165",,Topeka,KS,66614,United States,785-267-9800,39.0156969,-95.7614258,,,,
State Beauty Supply,859,315 E. Woodland St.,,Springfield,MO,65807,United States,417-881-6603,37.1628652,-93.2913881,,,,
State Beauty Supply,1059,"13306 Larsen Lane, Apt. 101",,Overland Park,KS,66213,United States,913-940-6648,38.8896267,-94.7087581,,,,
State Beauty Supply,803,1905 S. Bedford,,Springfield,MO,65809,United States,417-889-1700,37.1785479,-93.2212485,,,,
State Beauty Supply,846,209 W. Jefferson St.,,Clinton,MO,64735,United States,660-885-6957,38.3694936,-93.7784628,,,,
State Beauty Supply,820,1134 N. Harrison St.,,Shawnee,OK,74801,United States,405-273-7883,35.3395208,-96.9126908,,,,
State Beauty Supply,896,115 N. Main St.,,Hutchinson,KS,67501,United States,620-259-8185,38.0540998,-97.9320837,,,,
State Beauty Supply,834,12625 W. 92nd St.,,Lenexa,KS,66215,United States,913-599-6464,38.9614649,-94.732294,,,,
State Beauty Supply,829,1251 S. Fretz Ave.,,Edmond,OK,73003,United States,405-348-3220,35.6418777,-97.4875958,,,,
State Beauty Supply,805,"6802 Rogers Ave., Suite 3",,Ft. Smith,AR,72903,United States,479-783-5070,35.3555394,-94.357374,,,,
State Beauty Supply,844,10909 Hickman Mills Dr.,,Kansas City,MO,64137,United States,816-761-8587,38.9269355,-94.5254207,,,,
State Beauty Supply,845,308 NW Victoria Dr.,,Lee&'s Summit,MO,64086,United States,816-246-9996,38.937021,-94.3887587,,,,
State Beauty Supply,830,6431 N. Olie Ave.,,Oklahoma City,OK,73116,United States,405-840-3220,35.538134,-97.5288604,,,,
State Beauty Supply,824,9421 N. May Ave.,,Oklahoma City,OK,73120,United States,405-753-9192,35.5674057,-97.5671852,,,,
State Beauty Supply,828,2320 S. Air Depot Blvd.,,Midwest City,OK,73110,United States,405-737-6557,35.4410146,-97.4060042,,,,
State Beauty Supply,821,1008 Westport Rd.,,Kansas City,MO,64111,United States,816-756-2122,39.0500366,-94.5982179,,,,
State Beauty Supply,831,316 S. 3rd St.,,McAlester,OK,74501,United States,918-423-1544,34.9279297,-95.7672734,,,,
State Beauty Supply,822,7280 Cherokee Crossing East,,Oklahoma City,OK,73132,United States,405-720-9099,35.5437379,-97.6126962,,,,
State Beauty Supply,838,"900 Hayes Drive, Suite C",,Manhattan,KS,66502,United States,785-539-8186,39.1880476,-96.5539222,,,,
State Beauty Supply,835,1116 Woods Chapel Rd.,,Blue Springs,MO,64015,United States,816-228-7464,39.0304495,-94.3047625,,,,
State Beauty Supply,801,"2209 W. I-240 Service Rd M49, Suite 304",,Oklahoma City,OK,73159,United States,405-682-1221,35.3938258,-97.5510607,,,,
State Beauty Supply,802,517 N. Telephone Rd.,,Moore,OK,73160,United States,405-912-1221,35.3430328,-97.4948603,,,,
State Beauty Supply,893,"901 E. Crawford St., Suite 100",,Salina,KS,67401,United States,785-404-6882,38.8274516,-97.5960384,,,,
State Beauty Supply,823,1751 Garth Brooks Blvd.,,Yukon,OK,73099,United States,405-354-1200,35.4807021,-97.7597166,,,,
State Beauty Supply,837,6306 NW Barry Rd.,,Kansas City,MO,64154,United States,816-746-1389,39.247015,-94.6525953,,,,
State Beauty Supply,817,814 N. Berry Rd.,,Norman,OK,73069,United States,405-321-3061,35.2285867,-97.4594235,,,,
State Beauty Supply,836,2101 Kara Ct.,,Liberty,MO,64068,United States,816-781-8778,39.2511447,-94.4526744,,,,
State Beauty Supply,809,115 E. Main St.,,Ada,OK,74820,United States,580-332-8511,34.7743846,-96.6779196,,,,
State Beauty Supply,843,903 Royal Blvd.,,Sedalia,MO,65301,United States,660-827-4051,38.706224,-93.2606377,,,,
State Beauty Supply,847,347 Lower Business Park Rd.,,Linn Creek,MO,65052,United States,573-317-0303,38.0360063,-92.6988126,,,,
State Beauty Supply,818,122 N. 5th St.,,Chickasha,OK,73018,United States,405-222-3883,35.0520013,-97.9380378,,,,
State Beauty Supply,874,519 S. Arkansas Ave.,,Russellville,AR,72801,United States,479-968-4114,35.2731761,-93.1335991,,,,
State Beauty Supply,813,415 S. Belt Hwy.,,St. Joseph,MO,64506,United States,816-233-1371,39.7635893,-94.8037044,,,,
State Beauty Supply,842,611 Frisco Ave.,,Clinton,OK,73601,United States,580-323-1885,35.514669,-98.967716,,,,
State Beauty Supply,825,1736 S. US Highway 63,,West Plains,MO,65775,United States,417-256-6500,36.7111563,-91.8229243,,,,
State Beauty Supply,810,607 W. Main St.,,Ardmore,OK,73401,United States,580-223-1808,34.174457,-97.1355993,,,,
State Beauty Supply,840,"520 Ellis Blvd., Suite 1",,Jefferson City,MO,65101,United States,573-761-4632,38.5513925,-92.1927273,,,,
State Beauty Supply,811,312 W. Main St.,,Durant,OK,74701,United States,580-924-8544,33.9913946,-96.3790133,,,,
State Beauty Supply,808,722 W. Main St.,,Duncan,OK,73533,United States,580-255-2400,34.5016939,-97.9558653,,,,
State Beauty Supply,872,715 Webster St.,,Chillicothe,MO,64601,United States,660-646-1048,39.7942806,-93.552691,,,,
State Beauty Supply,1082,3605 S Providence Rd,,Columbia,MO,65203,United States,573-443-5483,38.9110729,-92.3367549,,,,
State Beauty Supply,841,"600 N. Rolla St., Suite &quotA&quot",,Rolla,MO,65401,United States,573-364-7080,37.9489164,-91.7721534,,,,
State Beauty Supply,839,107 Austin Ave.,,Columbia,MO,65203,United States,573-442-8618,38.9641779,-92.335696,,,,
State Beauty Supply,807,907 S.W. D Ave.,,Lawton,OK,73501,United States,580-357-1475,34.60437,-98.40224,,,,
State Beauty Supply,905,"805 Monroe St., Suite 109",,Conway,AR,72032,United States,501-329-5050,35.089731,-92.4354369,,,,
State Beauty Supply,1068,2502 Vine St.,,Hays,KS,67601,United States,,38.8815008,-99.3177864,,,,
State Beauty Supply,855,121 Ross St.,,Hot Springs,AR,71913,United States,501-624-3702,34.4763863,-93.0485661,,,,
State Beauty Supply,856,"3812 Central Ave., Suite B",,Hot Springs,AR,71901,United States,501-525-6325,34.462657,-93.062785,,,,
RDA Pro Mart,1089,201 N. Collegiate Dr,Suite 850,Paris,TX,75460,United States,,33.6630301,-95.5263461,,,,
RDA Pro Mart,959,5422 Texoma Pkwy.,,Sherman,TX,75090,United States,903-891-8883,33.6909703,-96.5791359,,,,
State Beauty Supply,906,"11324 Arcade Dr., Suite 21",,Little Rock,AR,72212,United States,501-225-9555,34.7708705,-92.399372,,,,
State Beauty Supply,1087,800 Military Rd,,Benton,AR,72015,United States,,34.5703908,-92.5841283,,,,
State Beauty Supply,907,"4556 John F. Kennedy Blvd., Suite 13",,North Little Rock,AR,72116,United States,501-907-9555,34.7944344,-92.2574152,,,,
State Beauty Supply,909,3137 E. Race St.,,Searcy,AR,72143,United States,501-305-4114,35.2495891,-91.7005762,,,,
State Beauty Supply,1067,4105 Richmond Pl.,,Texarkana,TX,75503,United States,(903) 838-0317,33.471191,-94.0970337,,,,
State Beauty Supply,850,4227 Jefferson Ave.,,Texarkana,AR,71854,United States,870-772-4247,33.4644913,-94.0294492,,,,
RDA Pro Mart,999,4101 Call Field Rd.,,Wichita Falls,TX,76308,United States,940-696-8768,33.871587,-98.5481696,,,,
RDA Pro Mart,980,"2324 San Jacinto Blvd., Suite 215",,Denton,TX,76205,United States,940-320-2740,33.1922546,-97.113257,,,,
RDA Pro Mart,988,"910 W. Parker Rd., Suite 325",,Plano,TX,75075,United States,972-867-8848,33.0390861,-96.7141817,,,,
State Beauty Supply,895,1212 N. Fleming,,Garden City,KS,67846,United States,620-277-7131,37.9774808,-100.8542389,,,,
State Beauty Supply,861,208 N. Lincoln St.,,Desloge,MO,63601,United States,573-431-1100,37.8721046,-90.5281862,,,,
RDA Pro Mart,978,"1565 W. Main St., Suite 275",,Lewisville,TX,75067,United States,972-420-4676,33.0429002,-97.0337383,,,,
State Beauty Supply,827,12 Wentzville Market Pl.,,Wentzville,MO,63385,United States,636-332-1619,38.8069481,-90.8579818,,,,
RDA Pro Mart,963,1131 Ridge Rd.,,Rockwall,TX,75087,United States,972-722-0377,32.917189,-96.4608078,,,,
RDA Pro Mart,966,"15615 Coit Rd., Suite 200",,Dallas,TX,75248,United States,972-701-0215,32.9613012,-96.7705333,,,,
RDA Pro Mart,965,"2155 Marsh Ln., Suite 120",,Carrollton,TX,75006,United States,972-418-8083,32.9691637,-96.854642,,,,
State Beauty Supply,876,173 Eureka Towne Center Dr.,,Eureka,MO,63025,United States,636-587-3848,38.5061539,-90.6584718,,,,
State Beauty Supply,908,2103 Grant Ave.,,Jonesboro,AR,72401,United States,870-931-7272,35.817911,-90.679988,,,,
State Beauty Supply,833,770 S. Westwood Blvd.,,Poplar Bluff,MO,63901,United States,573-785-0602,36.7514856,-90.4095843,,,,
RDA Pro Mart,961,"9205 Skillman St., Suite 123",,Dallas,TX,75243,United States,214-348-6626,32.904108,-96.716305,,,,
RDA Pro Mart,962,"552 W. I-30, Suite 311",,Garland,TX,75043,United States,972-226-0034,32.8506767,-96.5683081,,,,
State Beauty Supply,853,1418 N. Vine St.,,Magnolia,AR,71753,United States,870-234-1646,33.280933,-93.244488,,,,
State Beauty Supply,877,17688 Chesterfield Airport Rd.,,Chesterfield,MO,63005,United States,636-536-1220,38.6682214,-90.6223093,,,,
RDA Pro Mart,1062,"6464 E. Northwest Hwy., Suite 347",,Dallas,TX,75214,United States,214-234-0422,32.8561054,-96.751887,,,,
State Beauty Supply,862,"131 Twin City Mall, Suite A",,Crystal City,MO,63019,United States,636-937-3572,38.2173231,-90.3878556,,,,
State Beauty Supply,904,65 Nationalway Shopping Center,,Manchester,MO,63011,United States,636-207-0707,38.5922793,-90.5102928,,,,
RDA Pro Mart,979,"2315 W. Airport Fwy., Suite 160",,Irving,TX,75062,United States,972-255-4646,32.8387891,-96.9758289,,,,
State Beauty Supply,826,4049 S. Cloverleaf Dr.,,St. Peters,MO,63376,United States,636-441-7000,38.7922577,-90.5695789,,,,
State Beauty Supply,866,539 S. 12th St.,,Quincy,IL,62301,United States,217-222-0067,39.92536,-91.3960309,,,,
State Beauty Supply,870,3484 Jeffco Blvd.,,Arnold,MO,63010,United States,636-467-2044,38.4147718,-90.3773648,,,,
RDA Pro Mart,967,"7653 Boulevard 26, Suite E",,North Richland Hills,TX,76180,United States,817-498-1300,32.8312651,-97.2185892,,,,
State Beauty Supply,868,171 Concord Plaza,,St. Louis,MO,63128,United States,314-849-6266,38.5239185,-90.362504,,,,
State Beauty Supply,875,2351 Millpark Dr.,,Maryland Heights,MO,63043,United States,314-423-9599,38.7005406,-90.4140224,,,,
State Beauty Supply,869,4226 Telegraph Rd.,,St. Louis,MO,63129,United States,314-894-6700,38.4876256,-90.3032782,,,,
State Beauty Supply,858,3500 Hampton Ave.,,St. Louis,MO,63139,United States,314-481-8113,38.5983042,-90.2922077,,,,
RDA Pro Mart,969,5132 Camp Bowie Blvd.,,Fort Worth,TX,76107,United States,817-570-9180,32.736596,-97.3981751,,,,
RDA Pro Mart,950,"4623 S. Cooper St., Suite 141",,Arlington,TX,76017,United States,817-459-2222,32.6709496,-97.1311965,,,,
State Beauty Supply,878,1772 N. New Florissant Rd.,,Florissant,MO,63033,United States,314-921-1900,38.8015563,-90.3159688,,,,
State Beauty Supply,852,800 N. West Ave.,,El Dorado,AR,71730,United States,870-862-4431,33.217898,-92.6656998,,,,
RDA Pro Mart,981,2318 Judson Rd.,,Longview,TX,75605,United States,903-234-2828,32.5376649,-94.7444227,,,,
State Beauty Supply,1055,2439 Northgate St.,,Ottumwa,IA,52501,United States,641-684-2235,41.0526911,-92.4102146,,,,
RDA Pro Mart,951,"300 Bryant Ave., Suite 108",,Midlothian,TX,76065,United States,972-775-4811,32.484918,-96.991263,,,,
State Beauty Supply,891,5749 Godfrey Rd.,,Godfrey,IL,62035,United States,618-467-0352,38.9495612,-90.1908034,,,,
RDA Pro Mart,968,101 N. Main St.,,Burleson,TX,76028,United States,817-295-5999,32.5433666,-97.3214303,,,,
State Beauty Supply,889,4180 Highway 162,,Granite City,IL,62040,United States,618-931-2122,38.7207539,-90.0711791,,,,
State Beauty Supply,888,"1600 N. Illinois St., Suite A",,Swansea,IL,62221,United States,618-277-8150,38.5314397,-89.9842773,,,,
State Beauty Supply,1053,"1980 NW 94th St., Suite E",,Clive,IA,50325,United States,515-334-5170,41.611346,-93.748112,,,,
RDA Pro Mart,995,"3502 S. Broadway, Suite 407",,Tyler,TX,75701,United States,903-581-1212,32.3105059,-95.3001367,,,,
State Beauty Supply,851,755 Shreveport-Barksdale Hwy.,,Shreveport,LA,71105,United States,318-861-3445,32.4801581,-93.7147591,,,,
State Beauty Supply,887,615 Broadway St.,,Cape Girardeau,MO,63701,United States,573-334-8430,37.3066139,-89.5257994,,,,
State Beauty Supply,867,1835 W. Morton Ave.,,Jacksonville,IL,62650,United States,217-245-6703,39.7225471,-90.2657375,,,,
RDA Pro Mart,964,"105 W. 7th Ave., Suite 1200",,Corsicana,TX,75110,United States,903-874-2277,32.0913749,-96.4631871,,,,
State Beauty Supply,860,5141 Pepper Chase Dr.,,Southaven,MS,38671,United States,662-342-6345,34.9359219,-89.9995869,,,,
State Beauty Supply,865,675 S. Mendenhall Rd.,,Memphis,TN,38117,United States,901-766-1031,35.1125097,-89.8962435,,,,
State Beauty Supply,848,"7174 Stage Rd., Suite 115",,Bartlett,TN,38133,United States,901-373-3997,35.2046888,-89.8239088,,,,
State Beauty Supply,864,"7990 Trinity Rd., Suite 120",,Cordova,TN,38018,United States,901-754-4442,35.143277,-89.7966852,,,,
State Beauty Supply,849,"642 US Hwy. 51 Bypass W, Suite A",,Dyersburg,TN,38024,United States,731-286-7667,36.056396,-89.39785,,,,
State Beauty Supply,890,306 N. State St.,,Litchfield,IL,62056,United States,217-324-4462,39.1765872,-89.6552291,,,,
RDA Pro Mart,948,310 West Lingleville Rd.,,Stephenville,TX,76401,United States,254-965-4444,32.2313635,-98.2116053,,,,
RDA Pro Mart,949,2626 Paramount Blvd.,,Amarillo,TX,79109,United States,806-359-8576,35.1851574,-101.8754401,,,,
State Beauty Supply,1020,1228 Rutledge Ln.,,Union City,TN,38261,United States,731-885-8425,36.411584,-89.073701,,,,
State Beauty Supply,885,2704 17th St.,,Marion,IL,62959,United States,618-998-0218,37.7452637,-88.9673227,,,,
State Beauty Supply,879,705 N. Lincoln Ave.,,Springfield,IL,62702,United States,217-726-7800,39.8094315,-89.6733648,,,,
State Beauty Supply,884,315 S. 9th St.,,Mt. Vernon,IL,62864,United States,618-242-2975,38.3153736,-88.9025717,,,,
State Beauty Supply,1052,2468 10th St.,,Coralville,IA,52241,United States,319-626-2966,41.6876947,-91.602304,,,,
State Beauty Supply,1006,831 Joe Clifton Dr.,,Paducah,KY,42001,United States,270-443-1111,37.080966,-88.6359416,,,,
RDA Pro Mart,997,4706 W. Waco Dr.,,Waco,TX,76710,United States,254-772-0841,31.5222044,-97.1771785,,,,
RDA Pro Mart,947,"3301 S. 14th, Suite 34",,Abilene,TX,79605,United States,325-691-1180,32.4309305,-99.7647692,,,,
RDA Pro Mart,984,536 S. Chestnut St.,,Lufkin,TX,75901,United States,936-632-0017,31.3319701,-94.7176619,,,,
State Beauty Supply,1051,"5400 Center Pointe Rd. NE, Studio B",,Cedar Rapids,IA,52402,United States,319-395-9797,42.0322792,-91.6671523,,,,
State Beauty Supply,1007,920-A S. 12th St.,,Murray,KY,42071,United States,270-753-1199,36.598486,-88.3152874,,,,
State Beauty Supply,1054,6814 34th St. Ct.,,Moline,IL,61265,United States,309-799-5551,41.4536009,-90.4888551,,,,
State Beauty Supply,871,445 N. Franklin St.,,Decatur,IL,62523,United States,217-429-8885,39.8452499,-88.9531559,,,,
State Beauty Supply,1056,1161 E. Kimberly Rd.,,Davenport,IA,52807,United States,563-355-3737,41.5562721,-90.5573216,,,,
State Beauty Supply,882,"2303 Hoffman Dr., Suite B",,Effingham,IL,62401,United States,217-342-6866,39.100543,-88.543932,,,,
RDA Pro Mart,1063,1516 Austin Ave.,,Brownwood,TX,76801,United States,325-600-4300,31.7082165,-98.9759118,,,,
RDA Pro Mart,982,8211 Indiana Ave.,,Lubbock,TX,79423,United States,806-792-2808,33.518777,-101.887219,,,,
RDA Pro Mart,998,"110 W. FM-2410, Suites D&ampE",,Harker Heights,TX,76548,United States,254-699-9687,31.0835102,-97.6597376,,,,
State Beauty Supply,873,1334 E. Empire St.,,Bloomington,IL,61701,United States,309-661-2044,40.4888819,-88.962401,,,,
State Beauty Supply,886,826 Blair St.,,Tupelo,MS,38804,United States,662-841-2163,34.2615644,-88.7165481,,,,
RDA Pro Mart,957,"700 University Dr., Suite 103",,College Station,TX,77840,United States,979-846-3333,30.6330791,-96.3282255,,,,
State Beauty Supply,932,124 N. Main St.,,Henderson,KY,42420,United States,270-830-0054,37.8402055,-87.5920232,,,,
State Beauty Supply,934,2310 W. Virginia St.,,Evansville,IN,47712,United States,812-425-0827,37.982149,-87.5995,,,,
State Beauty Supply,933,4910 Bellemead Ave.,,Evansville,IN,47715,United States,812-479-7477,37.9679825,-87.4922198,,,,
State Beauty Supply,1058,"356 Main St., Unit B",,Dubuque,IA,52001,United States,563-557-1994,42.497275,-90.6648961,,,,
State Beauty Supply,942,523 N. 7th St.,,Vincennes,IN,47591,United States,812-886-9325,38.6789401,-87.52382,,,,
State Beauty Supply,1016,653 N. Riverside Dr.,,Clarksville,TN,37040,United States,931-906-8005,36.5371227,-87.3671747,,,,
RDA Pro Mart,1001,"3500 W. Davis, Suite 320",,Conroe,TX,77304,United States,936-756-3701,30.323325,-95.48859,,,,
RDA Pro Mart,952,"2013 Wells Branch Pkwy., Suite 309",,Austin,TX,78728,United States,512-670-2442,30.4351571,-97.6828821,,,,
State Beauty Supply,935,3600-H Frederica St.,,Owensboro,KY,42301,United States,270-926-2942,37.737086,-87.1197,,,,
RDA Pro Mart,989,3234 Sherwood Way,,San Angelo,TX,76901,United States,325-227-8186,31.4454623,-100.479586,,,,
State Beauty Supply,1015,250-B Seville,,Florence,AL,35630,United States,256-766-8380,34.8346164,-87.6280876,,,,
RDA Pro Mart,953,"8868 Research Blvd., Suite 606",,Austin,TX,78758,United States,512-467-7566,30.3684698,-97.7208965,,,,
RDA Pro Mart,958,2116 S. Market Street,,Brenham,TX,77833,United States,979-836-6580,30.1499494,-96.3902161,,,,
RDA Pro Mart,1000,411 Sawdust Rd.,,The Woodlands,TX,77380,United States,281-292-8995,30.1266386,-95.4495429,,,,
State Beauty Supply,924,225 Main St.,,Ft. Morgan,CO,80701,United States,970-867-0387,40.2487362,-103.7988609,,,,
RDA Pro Mart,994,17303 Stuebner Airline,,Spring,TX,77379,United States,281-655-5151,30.0259486,-95.5294504,,,,
RDA Pro Mart,954,"4211 S. Lamar Blvd., Suite A-4",,Austin,TX,78704,United States,512-448-7770,30.234538,-97.7932866,,,,
RDA Pro Mart,974,"20144 Eastway Village, Suite 100",,Humble,TX,77338,United States,281-446-0028,30.007551,-95.263468,,,,
RDA ProMart,1066,900 State Highway 95,Suite 103,Bastrop,TX,78602,United States,512-985-5258,30.1098871,-97.3082058,,,,
State Beauty Supply,1021,"1412 Trotwood Ave., Suite 12",,Columbia,TN,38401,United States,931-388-0362,35.599806,-87.077066,,,,
RDA Pro Mart,956,1730 W. Commerce Pkwy.,,Beaumont,TX,77707,United States,409-833-3344,30.0974728,-94.1242664,,,,
State Beauty Supply,928,608 W. 4th St.,,Pueblo,CO,81003,United States,719-566-9818,38.270294,-104.614948,,,,
RDA Pro Mart,971,14910 Northwest Fwy.,,Houston,TX,77040,United States,713-849-0101,29.8694543,-95.5456505,,,,
State Beauty Supply,1024,1516 8th Ave. S.,,Nashville,TN,37203,United States,615-242-4595,36.1376643,-86.778375,,,,
State Beauty Supply,1029,"4096 Carothers Parkway, Suite 5",,Franklin,TN,37067,United States,615-599-9300,35.9129257,-86.8173611,,,,
RDA Pro Mart,973,"1718 Fry Rd., Suite 305/310",,Houston/Katy,TX,77084,United States,281-398-9998,29.7913268,-95.7165062,,,,
RDA Pro Mart,986,"3303 N. Midkiff Rd., Suite 185",,Midland,TX,79705,United States,432-699-2522,32.0203297,-102.1255892,,,,
RDA Pro Mart,1002,"5548 N. Main St., Suite B-1",,Baytown,TX,77521,United States,281-421-9300,29.785243,-94.963171,,,,
State Beauty Supply,915,1818 N. Academy Blvd.,,Colorado Springs,CO,80909,United States,719-573-7113,38.8580681,-104.7582611,,,,
State Beauty Supply,1086,4720 Old Hickory Blvd,,Old Hickory,TN,37138,United States,615-988-0018,36.2016632,-86.6212117,,,,
RDA Pro Mart,970,9323 Stella Link Rd.,,Houston,TX,77025,United States,713-667-3783,29.6809712,-95.439091,,,,
State Beauty Supply,1009,979 Lovers Ln.,,Bowling Green,KY,42103,United States,270-781-8777,36.9544689,-86.420508,,,,
State Beauty Supply,1034,"509 Garnet Ct., Suite 1",,Gallatin,TN,37066,United States,615-452-5562,36.3706738,-86.4630687,,,,
RDA Pro Mart,1005,"205 Cheatham St., Suite 5",,San Marcos,TX,78666,United States,512-392-3433,29.8771203,-97.938488,,,,
RDA Pro Mart,977,"5968 Fairmont Parkway, Suite H",,Pasadena,TX,77505,United States,281-991-0800,29.6481318,-95.1496228,,,,
RDA Pro Mart,983,110 W. Bender Blvd.,,Hobbs,NM,88240,United States,575-392-0505,32.7258012,-103.1364273,,,,
State Beauty Supply,1019,1000 Beltline Rd. SW,Suite K,Decatur,AL,35601,United States,256-340-7195,34.5614787,-87.0048762,,,,
State Beauty Supply,943,5101 N. State Road 37 Business,,Bloomington,IN,47404,United States,812-339-1959,39.224649,-86.540283,,,,
RDA-ProMart,1070,"5730 W Broadway St, Suite 110",,Pearland,TX,77581,United States,(832) 488-4484,29.5590758,-95.3093794,,,,
RDA Pro Mart,1069,3415 Brentwood Dr,,Odessa,Texas,79762,United States,,31.878378,-102.349331,,,,
State Beauty Supply,916,"3194 N. Industrial Way, Suite 300",,Castle Rock,CO,80109,United States,303-660-2591,39.4086531,-104.8720285,,,,
RDA Pro Mart,976,"1520 Live Oak St., Unit A",,Webster,TX,77598,United States,281-338-2919,29.54427,-95.130519,,,,
State Beauty Supply,1012,"1103 N.W. Broad Street, Suite D",,Murfreesboro,TN,37129,United States,615-895-0996,35.857652,-86.406302,,,,
State Beauty Supply,1011,529 W. Baddour Pkwy.,,Lebanon,TN,37087,United States,615-444-4477,36.2158403,-86.3028098,,,,
State Beauty Supply,1038,58 19th St. E.,,Jasper,AL,35501,United States,205-221-3932,33.8322557,-87.2762844,,,,
State Beauty Supply,919,"8775 E. Orchard Rd., Suite 814",,Greenwood Village,CO,80111,United States,720-382-1800,39.6106119,-104.8863415,,,,
State Beauty Supply,1050,"8020 Highway 72 West, Suite A",,Madison,AL,35758,United States,256-890-7006,34.7522322,-86.7501899,,,,
State Beauty Supply,929,611 Main St.,,Canon City,CO,81212,United States,719-275-6075,38.441683,-105.2391919,,,,
RDA Pro Mart,993,790 Howard St.,,New Braunfels,TX,78130,United States,830-629-0535,29.7070279,-98.141978,,,,
State Beauty Supply,918,"8262 S. University Blvd., Unit 170",,Centennial,CO,80122,United States,303-862-3418,39.5666574,-104.9590812,,,,
State Beauty Supply,920,4101 E. Evans Ave.,,Denver,CO,80222,United States,720 372-5288,39.6787203,-104.9392494,,,,
State Beauty Supply,917,"1500 W. Littleton Blvd., Suite 122",,Littleton,CO,80120,United States,303-730-8910,39.6116819,-105.0058009,,,,
State Beauty Supply,1018,4267 Highway 41 North,,Madinsonville,TN,37354,United States,423-337-5456,35.6653827,-86.2732236,,,,
State Beauty Supply,1017,2512 Elliott Ave. SW,,Huntsville,AL,35805,United States,256-534-8580,34.7122718,-86.5990068,,,,
State Beauty Supply,927,"3140 S. Wadsworth Blvd., Suite 110",,Lakewood,CO,80227,United States,303-339-3200,39.6617223,-105.0810196,,,,
State Beauty Supply,923,3519 W. 12th St.,,Greeley,CO,80634,United States,970-353-4380,40.420552,-104.736347,,,,
State Beauty Supply,911,12031 Tejon St.,,Westminster,CO,80234,United States,720-974-9470,39.9146207,-105.0120578,,,,
State Beauty Supply,925,3470 Wadsworth Blvd.,,Wheat Ridge,CO,80033,United States,303-234-0585,39.7653942,-105.080915,,,,
State Beauty Supply,926,7631 W. 88th Ave.,,Westminster,CO,80005,United States,303-420-5800,39.8564615,-105.0821651,,,,
State Beauty Supply,1028,1802 N. Jackson St. Suite 800,,Tullahoma,TN,37388,United States,931-393-3336,35.3822666,-86.2283351,,,,
State Beauty Supply,1008,208 S. Main St.,,Elizabethtown,KY,42701,United States,270-765-4828,37.6916735,-85.8593674,,,,
RDA Pro Mart,991,"4930 Windsor Hill, Suite 2",,San Antonio,TX,78239,United States,210-590-7111,29.5117718,-98.3928859,,,,
RDA Pro Mart,990,"8131 IH 10 West, Suite 215",,San Antonio,TX,78230,United States,210-348-8090,29.5553173,-98.5891314,,,,
RDA Pro Mart,992,7107 San Pedro Ave.,,San Antonio,TX,78216,United States,210-341-6179,29.5112126,-98.4992756,,,,
State Beauty Supply,941,3117 Blackiston Mill Rd.,,New Albany,IN,47150,United States,812-948-1797,38.3344344,-85.7970966,,,,
State Beauty Supply,1072,"1225 Ken Pratt Blvd, Suite 135",,Longmont,CO,80501,United States,720-684-4960,40.1517688,-105.1142611,,,,
State Beauty Supply,940,1226 Gardiner Ln.,,Louisville,KY,40213,United States,502-451-0595,38.1935659,-85.703636,,,,
State Beauty Supply,910,"3200 Valmont Rd., Suite 3",,Boulder,CO,80301,United States,303-447-1754,40.0287975,-105.251013,,,,
RDA Pro Mart,1088,120 Circle Way St.,,Lake Jackson,TX,77566,United States,,29.0417385,-95.4529486,,,,
State Beauty Supply,921,3534 John F. Kennedy Pkwy.,,Fort Collins,CO,80525,United States,970-282-1122,40.5397542,-105.0728836,,,,
State Beauty Supply,1035,"200 Hobson Street, Suite 48",,McMinnville,TN,37110,United States,931-507-2566,35.699767,-85.777234,,,,
State Beauty Supply,1037,3911 Brasher Chapel Rd.,,Guntersville,AL,35976,United States,256-891-3233,34.3581473,-86.2947041,,,,
State Beauty Supply,914,1721 Logan Ave.,,Cheyenne,WY,82001,United States,307-634-8984,41.1414434,-104.7969216,,,,
State Beauty Supply,1076,"129 W John Rowan Blvd, Unit B",,Bardstown,KY,40004,United States,502-348-9600,37.8269624,-85.4671054,,,,
State Beauty Supply,1013,"740 S. Willow Ave., Suite A",,Cookeville,TN,38501,United States,931-520-7134,36.147704,-85.518879,,,,
State Beauty Supply,1031,1319 E. Broadway,,Campbellsville,KY,42718,United States,270-465-0002,37.3515989,-85.3316172,,,,
RDA Pro Mart,996,7920 Zac Lentz Parkway,,Victoria,TX,77904,United States,361-572-8799,28.8199799,-96.9322375,,,,
State Beauty Supply,901,1522 Cerrillos Rd.,,Santa Fe,NM,87501,United States,505-988-4152,35.6682686,-105.9674903,,,,
State Beauty Supply,1036,56 Miller Way,,Crossville,TN,38555,United States,931-456-7088,35.9575104,-85.0338364,,,,
State Beauty Supply,1022,3605 Ringgold Rd.,,Chattanooga,TN,37412,United States,423-624-0976,35.0029225,-85.2591432,,,,
State Beauty Supply,1023,3620 S. Highway 27,,Somerset,KY,42503,United States,606-679-0096,37.0547446,-84.6270336,,,,
State Beauty Supply,937,145-A Moore Dr.,,Lexington,KY,40503,United States,859-278-2539,38.000594,-84.522665,,,,
State Beauty Supply,1039,54 Mouse Creek Rd. NW,,Cleveland,TN,37312,United States,423-473-0630,35.196246,-84.849779,,,,
State Beauty Supply,899,2740 Wyoming Blvd. NE,,Albuquerque,NM,87111,United States,505-298-1877,35.1176372,-106.5504427,,,,
State Beauty Supply,936,3140 Richmond Rd,,Lexington,KY,40509,United States,859-317-8223,38.0022298,-84.447187,,,,
State Beauty Supply,900,5622 Menaul Blvd. NE,,Albuquerque,NM,87110,United States,505-888-4808,35.1086989,-106.5811548,,,,
State Beauty Supply,1026,937 Butler Dr.,,Mobile,AL,36693,United States,251-666-2908,30.649048,-88.129722,,,,
State Beauty Supply,903,10028 N. Coors Blvd. NW,,Albuquerque,NM,87114,United States,505-898-3844,35.1947702,-106.6537662,,,,
State Beauty Supply,902,806 Park Ave. SW,,Albuquerque,NM,87102,United States,505-247-2231,35.0850401,-106.6571393,,,,
State Beauty Supply,1041,6021 E. Shirley Ln.,,Montgomery,AL,36117,United States,334-272-0900,32.3656982,-86.2044582,,,,
State Beauty Supply,1027,"41 Federal Dr., Suites 1 &amp 2",,Jackson,TN,38305,United States,731-661-9898,34.793366,-84.7674538,,,,
State Beauty Supply,1042,"1203 US Highway 98, Suite 4A",,Daphne,AL,36526,United States,251-625-2073,30.5956383,-87.8987785,,,,
State Beauty Supply,1030,"809 S. Main St., Carnaby Square Shopping Center",,London,KY,40741,United States,606-864-9666,37.1289771,-84.0832646,,,,
State Beauty Supply,1065,2107 Douglas Ave.,Suite 2111,Brewton,AL,36426,United States,251-867-1861,31.1393459,-87.0688389,,,,
State Beauty Supply,922,"1880 Loggers Lane, Suite D",,Steamboat Springs,CO,80487,United States,970-871-6112,40.4982655,-106.8546202,,,,
State Beauty Supply,1014,5409 Kingston Pike,,Knoxville,TN,37919,United States,865-588-5845,35.9360087,-83.9926994,,,,
RDA Pro Mart,960,5807 Weber Rd.,,Corpus Christi,TX,78413,United States,361-851-0956,27.710625,-97.4064889,,,,
State Beauty Supply,1025,100 S. 8th St.,,Opelika,AL,36801,United States,334-745-7783,32.6482324,-85.3792246,,,,
State Beauty Supply,898,"1480 E. 2nd Ave., Unit 2",,Durango,CO,81301,United States,970-375-1220,37.279253,-107.876979,,,,
State Beauty Supply,930,"1431 Hawk Parkway, Suite A",,Montrose,CO,81401,United States,970-249-9876,38.449728,-107.867327,,,,
State Beauty Supply,912,759 Cy Ave.,,Casper,WY,82601,United States,307-266-5239,42.8367557,-106.3338674,,,,
State Beauty Supply,897,"2501 E. 20th St., Suite 1",,Farmington,NM,87401,United States,505-327-5121,36.7475927,-108.173722,,,,
State Beauty Supply,1010,704 N. Liberty Hill Rd.,,Morristown,TN,37814,United States,423-581-0563,36.226584,-83.27716,,,,
RDA Pro Mart,975,"120 W. Village Blvd., Suite 108",,Laredo,TX,78041,United States,956-717-0956,27.5667626,-99.4981885,,,,
RDA Pro Mart,1003,"3333 Yarbrough Dr., Suite S",,El Paso,TX,79925,United States,915-598-2439,31.7900719,-106.3322784,,,,
State Beauty Supply,913,310 S. Miller Ave.,,Gillette,WY,82716,United States,307-682-3044,44.2918556,-105.4954286,,,,
State Beauty Supply,939,"160 Conn St., Suite 3",,Ivel,KY,41642,United States,606-478-1818,37.5961737,-82.6537455,,,,
State Beauty Supply,944,3317 13th St.,,Ashland,KY,41102,United States,606-324-4801,38.4582237,-82.6663382,,,,
State Beauty Supply,1033,1131 N. Eastman Rd.,,Kingsport,TN,37664,United States,423-245-1736,36.5305185,-82.5313289,,,,
RDA Pro Mart,985,221 N. 16th St.,,McAllen,TX,78501,United States,956-686-7291,26.20672,-98.236575,,,,
State Beauty Supply,1043,2440 Grant Road,,Billings,MT,59102,United States,406-652-7216,45.7517727,-108.577679,,,,
State Beauty Supply,1046,"808 Stoneridge Dr., Suite 2",,Bozeman,MT,59718,United States,406-624-0156,45.6877034,-111.0627439,,,,
State Beauty Supply,1047,1015 Boulder St,Suite C,Helena,MT,59601,United States,406-449-6001,46.596577,-112.0222498,,,,
State Beauty Supply,1045,"220 6th St. S., Suite D",,Great Falls,MT,59405,United States,406-453-3400,47.5023708,-111.2978404,,,,
State Beauty Supply,1049,"2424 Garfield, Suite B",,Missoula,MT,59801,United States,406-829-6579,46.848142,-114.023334,,,,
State Beauty Supply,1044,301 Expressway,,Missoula,MT,59808,United States,406-541-8383,46.905799,-114.0456984,,,,
State Beauty Supply,1048,404 W. Center St.,,Kalispell,MT,59901,United States,406-755-4878,48.1973709,-114.319948,,,,
