store_name,store_number,address,address2,city,state,zip_code,country,phone_number,latitude,longitude,store_hours,store_type,other_fields,coming_soon
Sephora Toreo,SEPHO-635,"Boulvard Manuel Avila Camacho 5, Fraccionamiento Lomas de Sotelo",,NaucalPan de Mexico,Estado de Mexico,,Mexico,,19.496873,-99.723267,,retail,,
"Sephora Columbia, MD",SEPHO-306,10300 Little Patuxent Pkwy #2080,,Columbia,MD,,United States,,39.216329,-76.860202,,retail,,
SHINSEGAE Incheon,SHINS-552,"1st FL, 35, Yeonnam-ro 35ga, Nam-gu",,Nam-gu,Incheon,,South Korea,032 430 2597,37.442492,126.701448,,retail,,
Sephora Fredericksburg,SEPHO-324,1 Towne Ctr Rd Unit #2800,,Fredericksburg,VA,,United States,,38.289872,-77.511939,,retail,,
Sephora Boulder,SEPHO-205,1755 29TH Street #1086,,Boulder,CO,,United States,,40.017648,-105.256297,,retail,,
Sephora Gardens,SEPHO-283,3101 Pga Blvd #229,,Palm Beach Garden,FL,,United States,,26.84878,-80.085807,,retail,,
Sephora Soho,SEPHO-239,555 Broadway,,New York City,NY,,United States,,40.723862,-73.998425,,retail,,
Sephora Lincoln Park,SEPHO-395,938 West North Ave,,Chicago,IL,,United States,,41.911303,-87.652583,,retail,,
Sephora Garden St. Plaza,SEPHO-247,Routes 4 And 17 #E2,,Paramus,NJ,,United States,,40.956192,-74.069037,,retail,,
Nordstrom Westfarms,NORDS-90,600 Westfarms Mall,,Farmington,CT,,United States,,41.722058,-72.762789,,retail,,
Nordstrom Oakbrook,NORDS-77,10 Oakbrook Center,,Oak Brook,IL,,United States,,41.852489,-87.951012,,retail,,
Beauty Mark,BEAUT-602,1268 Pacific Boulevard,,Vancouver,BC,,Canada,,49.273667,-123.122521,,retail,,
Sephora Pinnacle Hills,SEPHO-159,2203 S.45TH St #1140,,Rogers,AR,,United States,,36.30535,-94.176554,,retail,,
Sephora The Core,SEPHO-460,317 7TH Ave SW,,Calgary,AB,,Canada,,51.046455,-114.068531,,retail,,
Neiman Marcus Scottsdale,NEIMA-491,6900 E. Camelback Rd.,,Scottsdale,AZ,,United States,,33.502688,-111.932091,,retail,,
SHINSEGAE Yeong Deung Po,SHINS-549,"1st FL, Yeongjung-ro 9, Yeongdeungpo-gu",,Yeongdeungpo-gu,Seoul,,South Korea,02 2639 4171,37.517164,126.905536,,retail,,
Sephora Albuquerque,SEPHO-313,6600 Menaul NE Space M1,,Albuquerque,NM,,United States,,35.107768,-106.571332,,retail,,
Beauty Bar,BEAUT-601,2142 West 4TH Ave,,Vancouver,BC,,Canada,,49.268159,-123.153784,,retail,,
Sephora Lynnfield,SEPHO-206,720 Market Street,,Lynnfield,MA,,United States,,42.515711,-71.035593,,retail,,
Sephora Cumberland,SEPHO-408,1140 Cumberland Mall,,Atlanta,GA,,United States,,33.880975,-84.470011,,retail,,
Sephora Stonestown,SEPHO-336,3251 20TH Avenue Ste262,,San Francisco,CA,,United States,,37.728082,-122.477081,,retail,,
Sephora Southcenter,SEPHO-171,616 Southcenter Mall,,Seattle,WA,,United States,,47.458821,-122.261223,,retail,,
Nordstrom Fashion Valley,NORDS-86,6997 Friars Rd,,San Diego,CA,,United States,,32.768896,-117.168087,,retail,,
Sephora Brooklyn,SEPHO-403,210 Joraleman St,,Brooklyn,NY,,United States,,40.691996,-73.990448,,retail,,
Sephora The Westchester,SEPHO-249,125 Westchester Ave.Ste 1001,,White Plains,NY,,United States,,41.031508,-73.758454,,retail,,
LOTTE Suwon,LOTTE-541,"1st FL, Sehwa-ro 124, Gwonsun-gu",,Gwonsun-gu,"Suwon, Gyeonggi-do",,South Korea,031 8066 0142,37.26514,126.997286,,retail,,
Sephora Crabtree,SEPHO-123,4325 Glenwood Avenue #2088,,Raleigh,NC,,United States,,35.840899,-78.67884,,retail,,
Sephora Santa Monica,SEPHO-108,1244 Third St Promenade,,Santa Monica,CA,,United States,,34.017234,-118.498386,,retail,,
Sephora Walden,SEPHO-280,Walden Galleria Dr #G104,,Buffalo,NY,,United States,,42.915285,-78.765252,,retail,,
Neiman Marcus Oakbrook,NEIMA-483,6 Oakbrook Ctr,,Oak Brook,IL,,United States,,41.848677,-87.950503,,retail,,
HYUNDAI Daegu,HYUND-546,"1st FL, Dalgubeol-daero 2077, Jung-gu",,Jung-gu,Daegu,,South Korea,053 245 2133,35.866706,128.590608,,retail,,
Nordstrom Irvine,NORDS-82,101 Fortune Dr,,Irvine,CA,,United States,,33.648791,-117.742827,,retail,,
Sephora Pentagon,SEPHO-258,1100 S Hayes St. Ste F06A,,Arlington,VA,,United States,,38.863607,-77.060612,,retail,,
Sephora Georgetown,SEPHO-257,3065 M St NW,,Washington,DC,,United States,,38.905484,-77.060774,,retail,,
Sephora 86TH & Lexington,SEPHO-153,150 E. 86TH Street,,New York,NY,,United States,,40.779061,-73.955106,,retail,,
Sephora Angelopolis,SEPHO-640,Boulevard del Nino Poblano 2510. Concepcion La Cruz,,Puebla,Puebla,,Mexico,,19.031047,-98.231736,,retail,,
Sephora Oxford,SEPHO-392,2300 East Lincoln Hwy,,Langhorne,PA,,United States,,40.18354,-74.880937,,retail,,
Sephora Worcester,SEPHO-390,70 Worcester Providence Turnpike,,Millbury,MA,,United States,,42.198139,-71.776242,,retail,,
Sephora Robson,SEPHO-470,1045 Robson Street,,Vancouver,BC,,Canada,,49.284129,-123.123822,,retail,,
Nordstrom Houston Galleria,NORDS-92,5192 Hidalgo Street,,Houston,TX,,United States,,29.735875,-95.464229,,retail,,
Neiman Marcus Dtn Dallas,NEIMA-471,1618 Main Street,,Dallas,TX,,United States,,32.780732,-96.797295,,retail,,
Department Store - Wangfujing,DEPAR-513,"1F, Wangfujing Department Store, 15 Zongfu Road, Jinjiang District, Chengdu, Sichuan",,Chengdu,Sichuan,,China,028-86616770,30.658228,104.079894,,retail,,
Nordstrom Southcenter,NORDS-72,100 Southcenter Shopping Ctr,,Seattle,WA,,United States,,47.458731,-122.261357,,retail,,
Sephora Mayfair,SEPHO-220,2500 N. Mayfair Rd #120/121,,Wauwatosa,WI,,United States,,43.064415,-88.044662,,retail,,
Sephora Perimeter,SEPHO-308,4400 Ashford-Dunwoody Rd #1585,,Atlanta,GA,,United States,,33.923857,-84.340572,,retail,,
Sephora Saskatoon,SEPHO-450,2011 Avenue South,,Saskatoon,SK,,Canada,,52.127304,-106.666383,,retail,,
Sephora Otay Ranch,SEPHO-208,2015 Birch Rd #605,,Chula Vista,CA,,United States,,32.623801,-116.967741,,retail,,
Sephora Hollywood & Highla,SEPHO-110,6801 Hollywood Blvd #B2-245,,Hollywood,CA,,United States,,34.102268,-118.340366,,retail,,
Nordstrom Woodlands,NORDS-96,1201 Lake Woodlands Dr,,Woodlands,TX,,United States,,30.164234,-95.455334,,retail,,
Sephora The Oaks,SEPHO-107,338 W. Hillcrest Drive,,Thousand Oaks,CA,,United States,,34.184639,-118.885563,,retail,,
Sephora Times Square,SEPHO-325,5 Times Square,,New York,NY,,United States,,40.755945,-73.987515,,retail,,
Sephora Battlefield,SEPHO-210,2825 South Glestone Ave #G07B,,Springfield,MO,,United States,,37.162507,-93.262777,,retail,,
Sephora Franklin Park,SEPHO-207,5001 Monroe St #1610,,Toledo,OH,,United States,,41.6957,-83.641418,,retail,,
Sephora Watertower,SEPHO-275,845 N. Michigan Ave,,Chicago,IL,,United States,,41.897997,-87.623155,,retail,,
Department Store - Times Square,DEPAR-518,"1F, Times Square, 288 Chezhan Boulevard, Lucheng District, Wenzhou, Zhejiang",,Wenzhou,Zhejiang,,China,0577-88993434,27.998565,120.684629,,retail,,
Department Store - New Century Chongqing,DEPAR-529,"1F, 7 Pedestrian Street, Guanyin Bridge, Jiangbei District, Chongqing",,Chongqing,Chongqing,,China,023-88927455,29.573385,106.532491,,retail,,
Barneys New York Madison Ave,BARNE-22,660 Madison Ave,,New York,NY,,United States,,40.764822,-73.971141,,retail,,
LOTTE Downtown,LOTTE-538,"1st FL, Namdaemun-ro 81, Jung-gu",,Jung-gu,Seoul,,South Korea,02 726 4038,37.5648,126.981588,,retail,,
Neiman Marcus Boston Copley Pl,NEIMA-485,5 Copley Place,,Boston,MA,,United States,,42.347293,-71.078658,,retail,,
Sephora Pheasant Lane,SEPHO-211,310 Daniel Webster Hwy Ste W245,,Nashau,NH,,United States,,42.700934,-71.437588,,retail,,
Sephora Devonsh,SEPHO-466,3100 Howard Ave,,Windsor,ON,,Canada,,42.27467,-83.003556,,retail,,
Sephora Crestview Hills,SEPHO-362,2854 Town Ctr Blvd,,Crestview Hills,KY,,United States,,39.025006,-84.578049,,retail,,
Nordstrom Ala Moana,NORDS-91,1519 Kapiolani Blvd,,Honolulu,HI,,United States,,21.292823,-157.842328,,retail,,
Sephora Winston-Salem,SEPHO-400,3320 Silas Creek Pkwy,,Winston Salem,NC,,United States,,36.069451,-80.30043,,retail,,
Sephora Holyoke,SEPHO-162,50 Holyoke St #C327,,Holyoke,MA,,United States,,42.167706,-72.639715,,retail,,
Sephora First Colony,SEPHO-312,16535 SW Freeway Ste #3012,,Sugarland,TX,,United States,,29.59193,-95.624611,,retail,,
Sephora Somerset,SEPHO-223,2800 W. Big Beaver Rd #S218,,Troy,MI,,United States,,42.563076,-83.184354,,retail,,
Sephora Pembroke Gardens,SEPHO-301,516 SW 145TH Terrace,,Pembroke Pines,FL,,United States,,26.003272,-80.337191,,retail,,
Neiman Marcus Bal Harbour,NEIMA-475,9700 Collins Ave,,Bal Harbour,FL,,United States,,25.88856,-80.12474,,retail,,
Sephora Riverside,SEPHO-181,2077 Galleria @ Tyler,,Riverside,CA,,United States,,33.910452,-117.456954,,retail,,
Sephora Danbury,SEPHO-269,7 Backus Ave #D-205,,Danbury,CT,,United States,,41.379512,-73.482078,,retail,,
Sephora 99TH & Columbus Ave,SEPHO-347,808 Columbus Avenue,,New York,NY,,United States,,40.79467,-73.966654,,retail,,
Sephora Anchorage,SEPHO-398,320 W 5TH Ave #201,,Anchorage,AK,,United States,,61.217081,-149.888511,,retail,,
Sephora Carrefour Laval,SEPHO-428,3035 Le Carrefour Blvd,,Laval,QC,,Canada,,45.570174,-73.751989,,retail,,
Sephora Sherman Oaks,SEPHO-106,14006 Riverside Drive Ste 17,,Sherman Oaks,CA,,United States,,34.156564,-118.436993,,retail,,
Sephora Los Cerritos,SEPHO-148,161 Los Cerritos Ctr,,Cerritos,CA,,United States,,33.863225,-118.095608,,retail,,
Sephora Chinook,SEPHO-441,6455 Macloud Trail SW,,Calgary,AB,,Canada,,50.997522,-114.07176,,retail,,
Sephora Fair Oaks,SEPHO-255,11828L Fair Oaks,,Fairfax,VA,,United States,,38.864311,-77.356463,,retail,,
Sephora San Tan Village,SEPHO-177,2206 E Williams Field Rd #114,,Gilbert,AZ,,United States,,33.310331,-111.742744,,retail,,
Sephora Kenwood,SEPHO-221,7875 Montgomery Rd #2133,,Cincinnati,OH,,United States,,39.201269,-84.37807,,retail,,
Sephora Winnipeg,SEPHO-422,1485 Portage Ave,,Winnipeg,MB,,Canada,,49.883355,-97.199362,,retail,,
Sephora Bridgewater,SEPHO-266,400 Commons Way #141,,Bridgewater,NJ,,United States,,40.586122,-74.619317,,retail,,
Sephora Kitchener,SEPHO-447,2960 Kingsway Drive,,Kitchener,ON,,Canada,,43.424656,-80.439038,,retail,,
Sephora Park Place Mall,SEPHO-418,5870 E Broadway Blvd,,Tucson,AZ,,United States,,32.220266,-110.865505,,retail,,
Sephora Northpark,SEPHO-127,220 North Park Ctr Ste 2232,,Dallas,TX,,United States,,32.867402,-96.772883,,retail,,
Sephora Providence,SEPHO-272,168 Providence Pl,,Providence,RI,,United States,,41.82892,-71.41728,,retail,,
Neiman Marcus Ala Moana,NEIMA-493,1450 Ala Moana Blvd,,Honolulu,HI,,United States,,21.290458,-157.843751,,retail,,
Sephora Chevy Chase,SEPHO-332,5330 E Western Avenue,,Chevy Chase,MD,,United States,,38.960975,-77.086251,,retail,,
Sephora Village Pointe,SEPHO-203,17101 Davenport St. Ste 103,,Omaha,NE,,United States,,41.260632,-96.181797,,retail,,
Sephora Clackamas,SEPHO-311,12000 SE 82ND Ave Ste#1070,,Portland,OR,,United States,,45.436188,-122.573644,,retail,,
Sephora Pen Centre,SEPHO-468,221 Glendale Ave,,St Catharines,ON,,Canada,,43.134445,-79.224526,,retail,,
Sephora Citrus Park,SEPHO-356,7965 Citrus Park Twn Ctr,,Tampa,FL,,United States,,28.069148,-82.576286,,retail,,
Sephora Chestnut St,SEPHO-236,1714 Chestnut St,,Philadelphia,PA,,United States,,39.951525,-75.169386,,retail,,
Neiman Marcus Fashion Show,NEIMA-482,3200 S Las Vegas Blvd,,Las Vegas,NV,,United States,,36.12597,-115.169147,,retail,,
Nordstrom Brea,NORDS-79,500 Brea Mall Way,,Brea,CA,,United States,,33.915786,-117.888225,,retail,,
Sephora 42ND & Madison,SEPHO-279,300 Madison Ave #01-01,,New York,NY,,United States,,40.752587,-73.979932,,retail,,
Sephora Iowa City,SEPHO-397,1451 Coral Ridge Ave,,Iowa City,IA,,United States,,41.690327,-91.605283,,retail,,
Sephora Dayton,SEPHO-226,4421 Glengarry Drive,,Dayton,OH,,United States,,39.693356,-84.1022,,retail,,
Sephora Hamilton,SEPHO-457,999 Upper Wentworth St.,,Hamilton,ON,,Canada,,43.21735,-79.86192,,retail,,
Sephora Antara,SEPHO-632,Av Ejercito Nacional 843,,"Miguel Hidalgo, Granada",Ciudad de Mexico,,Mexico,,19.438825,-99.201515,,retail,,
Sephora Anjou,SEPHO-462,7999 Boul Les Galeries D'Anjou,,Montreal,QC,,Canada,,45.601346,-73.564313,,retail,,
Sephora Beachwood,SEPHO-230,26300 Cedar Road #1110,,Beachwood,OH,,United States,,41.498555,-81.494339,,retail,,
Sephora Upper Canada Mall,SEPHO-442,17600 Younge Street,,Newmarket,ON,,Canada,,44.056457,-79.484781,,retail,,
Sephora Pointe Claire,SEPHO-420,6815 Transcanada Hwy,,Pointe-Claire,QC,,Canada,,45.46408,-73.830544,,retail,,
Sephora Reston,SEPHO-333,11960 Market Street,,Reston,VA,,United States,,38.95873,-77.357942,,retail,,
Sephora Manhasset,SEPHO-252,1950 Northern Blvd,,Manhasset,NY,,United States,,40.795291,-73.674954,,retail,,
Sephora Colonie,SEPHO-225,131 Colonie Ctr Ste 130,,Albany,NY,,United States,,42.71022,-73.816162,,retail,,
Sephora Mall Of Georgia,SEPHO-291,3333 Buford Dr #1046B,,Buford,GA,,United States,,34.065149,-83.984766,,retail,,
Sephora Farmington,SEPHO-315,110 Albany Tpke Ste 607,,Canton,CT,,United States,,41.822746,-72.881375,,retail,,
Sogo Causeway Bay,SOGO -536,"SOGO, 555 Hennessy Road,",,Causeway Bay,,,Hong Kong,2831 8910,22.28046,114.184624,,retail,,
Sephora Bayshore,SEPHO-446,100 Bayshore Drive,,Ottawa,ON,,Canada,,45.347024,-75.806807,,retail,,
Sephora Columbus Circle,SEPHO-267,10 Columbus Circle #201,,New York,NY,,United States,,40.768414,-73.982704,,retail,,
Langham Place Fresh,LANGH-530,"Langham Place, Shop L2-03, 8 Argyle Street,",,Kowloon,,,Hong Kong,3514 4545,22.317949,114.16862,,boutique,,
Sephora Christiana,SEPHO-341,118 Christiana Mall,,Newark,DE,,United States,,39.679551,-75.652602,,retail,,
Sephora El Paso,SEPHO-340,8401 Gateway Blvd West #E11B,,El Paso,TX,,United States,,31.794994,-106.358759,,retail,,
Sephora Cherry Creek,SEPHO-326,3000 E. First Ave #236,,Denver,CO,,United States,,39.717501,-104.952671,,retail,,
Sephora Memorial City,SEPHO-130,900 Gessner Ste 700,,Houston,TX,,United States,,29.779128,-95.544359,,retail,,
Neiman Marcus Fort Worth,NEIMA-473,2100 Green Oaks Rd,,Ft. Worth,TX,,United States,,32.738841,-97.436725,,retail,,
Sephora 76TH & Broadway,SEPHO-243,2162 Broadway,,New York,NY,,United States,,40.78182,-73.98072,,retail,,
SHINSEGAE Downtown,SHINS-547,"1st FL, Chungmu-ro 1-ga, Jung-gu",,Jung-gu,Seoul,,South Korea,02 310 5075,37.561019,126.981071,,retail,,
Soap & Water - Oakville,SOAP -603,133 Lakeshore Road East,,Oakville,ON,,Canada,,43.444305,-79.66979,,retail,,
Sephora Pearlridge,SEPHO-154,98-105 Moanalua Rd Ste224,,Aiea,HI,,United States,,21.391323,-157.949448,,retail,,
Sephora Willowbrook,SEPHO-248,1760 Willbrook Mall,,Wayne,NJ,,United States,,40.889981,-74.259645,,retail,,
Sephora Willow Grove,SEPHO-237,2500 Moreland Rd Ste1103,,Willow Grove,PA,,United States,,40.140364,-75.123215,,retail,,
Sephora Temecula,SEPHO-322,40772 Winchester Rd #770,,Temecula,CA,,United States,,33.525592,-117.15872,,retail,,
Sephora Arden Fair,SEPHO-118,1689 Arden Way #1084,,Sacramento,CA,,United States,,38.60153,-121.427387,,retail,,
Sephora Victoria,SEPHO-432,3147 Douglas St.,,Victoria,BC,,Canada,,48.447491,-123.371805,,retail,,
Sephora Bakersfield,SEPHO-145,2701 Ming Ave #187,,Bakersfield,CA,,United States,,35.338236,-119.034423,,retail,,
Sephora Markville,SEPHO-461,5000 Hwy 7 East,,Markham,ON,,Canada,,43.868205,-79.288312,,retail,,
Sephora University Village,SEPHO-192,2618 NE University Village,,Seattle,WA,,United States,,47.663254,-122.299384,,retail,,
Sephora Dallas Galleria,SEPHO-125,13350 N.Dallas Pkwy Ste1250,,Dallas,TX,,United States,,32.928464,-96.820197,,retail,,
Sephora Orland Place,SEPHO-201,730 Square Drive,,Orland Park,IL,,United States,,41.61732,-87.849525,,retail,,
Neiman Marcus Int'L Plaza,NEIMA-496,2223 N. Westshore Blvd,,Tampa,FL,,United States,,27.963423,-82.520672,,retail,,
Sephora Appleton,SEPHO-352,4301 W Wisconsin Ave Ste 514,,Appleton,WI,,United States,,44.269672,-88.470068,,retail,,
Sephora Empire Mall,SEPHO-396,4001 W 41ST St,,Sioux Falls,SD,,United States,,43.511897,-96.774592,,retail,,
Sephora Houston Galleria,SEPHO-126,5015 Westheimer Ste 2380,,Houston,TX,,United States,,29.739549,-95.462716,,retail,,
Sephora Novato,SEPHO-195,208 Vintage Oaks K-3,,Navoto,CA,,United States,,38.087411,-122.552604,,retail,,
Neiman Marcus Northpark,NEIMA-472,8687 N. Central Expwy,,Dallas,TX,,United States,,32.867231,-96.772748,,retail,,
Sephora Century City,SEPHO-132,10250 Santa Monica Blvd Ste450,,Los Angeles,CA,,United States,,34.059633,-118.419429,,retail,,
Sephora St. Bruno,SEPHO-444,182 Boul Des Promenades,,St. Bruno,QC,,Canada,,45.506156,-73.378818,,retail,,
Sephora Market Mall,SEPHO-440,3625 Shaganappi Trail NW,,Calgary,AB,,Canada,,51.086523,-114.155994,,retail,,
Sephora Andares,SEPHO-639,Boulevard Puesta de Hierro 4965. Puerta de Hierro,,Zapopan,Jalisco,,Mexico,,20.709187,-103.413604,,retail,,
Sephora Maui,SEPHO-369,2435 Ka'Anapali Pkwy,,Lahaina,HI,,United States,,20.921067,-156.694373,,retail,,
Sephora Columbiana,SEPHO-381,100 Columbiana Cir,,Columbia,SC,,United States,,34.077949,-81.15692,,retail,,
Sephora Coconut Point,SEPHO-296,23161 Fashion Dr #113,,Estero,FL,,United States,,26.40214,-81.806828,,retail,,
Sephora Chestnut Mall,SEPHO-259,199 Boylston St #5203-05,,Chestnut Hill,MA,,United States,,42.321392,-71.176333,,retail,,
Sephora Mission Viejo,SEPHO-120,498 The Shops @ Mission Viejo,,Mission Viejo,CA,,United States,,33.557676,-117.669535,,retail,,
Nordstrom Glendale,NORDS-83,102 Caruso Avenue,,Glendale,CA,,United States,,34.143557,-118.255906,,retail,,
Sephora Mapleview,SEPHO-429,900 Maple Ave,,Burlington,ON,,Canada,,43.325726,-79.820545,,retail,,
Sephora Montgomery,SEPHO-263,7101 Democracy Blvd. #2042,,Bethesda,MD,,United States,,39.024121,-77.145958,,retail,,
Sephora Napervi,SEPHO-410,132 W Jefferson Ave,,Naperville,IL,,United States,,41.772867,-88.150656,,retail,,
Sephora Gainesville,SEPHO-329,6689 Newberry Rd,,Gainesville,FL,,United States,,29.659572,-82.414391,,retail,,
Sephora Summerlin,SEPHO-412,2115 Festival Plaza Dr,,Las Vegas,NV,,United States,,36.150026,-115.333441,,retail,,
Sephora Annapolis,SEPHO-161,2002 Annapolis Mall #1800,,Annapolis,MD,,United States,,38.989856,-76.545592,,retail,,
Sephora Akron,SEPHO-335,3265 W Market Street,,Fairlawn,OH,,United States,,41.134159,-81.617821,,retail,,
Sephora Georgian,SEPHO-467,509 Bayfield St.,,Barrie,ON,,Canada,,44.412739,-79.707076,,retail,,
Sephora University Pk Village,SEPHO-415,1612 S University Dr,,Ft Worth,TX,,United States,,32.727364,-97.363188,,retail,,
Sephora Greensboro,SEPHO-386,803B Friendly Center Rd,,Greensboro,NC,,United States,,36.086961,-79.830932,,retail,,
Sephora Kingsway Mall,SEPHO-452,109 St-Princess Elizabeth Ave,,Edmonton,AB,,Canada,,53.564263,-113.508026,,retail,,
Lane Crawford Times Square,LANE -534,"Time Square, 1 Matheson Street, Causeway Bay,",,Hong Kong Island,,,Hong Kong,3426 0688,22.278327,114.182178,,retail,,
Sephora Aboretum,SEPHO-129,9722 Great Hills Tr Ste115,,Austin,TX,,United States,,30.395424,-97.751566,,retail,,
Sephora Charlottesville,SEPHO-182,1600 Rio Rd E,,Charlottesville,VA,,United States,,38.077766,-78.474504,,retail,,
Fresh - Union Square,FRESH-502, 872 Broadway<br />corner of Broadway and 18th St.,,New York,NY,,United States,212-477-1100,40.737594,-73.989976,,boutique,,
Sephora Poughkeepsie,SEPHO-377,2001 South Rd,,Poughkeepsie,NY,,United States,,41.624351,-73.920492,,retail,,
Sephora Wolf Ranch,SEPHO-178,1015 W University Ave #400,,Georgetown,TX,,United States,,30.630276,-97.693631,,retail,,
Sephora Lafayette,SEPHO-319,5725 Johnson Street Ste B130,,Lafayette,LA,,United States,,30.171276,-92.075518,,retail,,
Neiman Marcus Topanga,NEIMA-498,6550 Topanga Canyon Blvd,,Canoga Park,CA,,United States,,34.190242,-118.605044,,retail,,
Sephora Garden City,SEPHO-405,142 Hillside Rd,,Cranston,RI,,United States,,41.760604,-71.458723,,retail,,
Sephora Scottsdale Quarter,SEPHO-373,15169 N Scottsdale Rd,,Scottsdale,AZ,,United States,,33.624653,-111.925112,,retail,,
Sephora Chesterfield,SEPHO-209,2008 Chesterfield Mall,,Chesterfield,MO,,United States,,38.652054,-90.564313,,retail,,
Sephora Pensacola,SEPHO-394,5100 N 9TH Ave,,Pensacola,FL,,United States,,30.475722,-87.205921,,retail,,
Sephora Oxmoor,SEPHO-196,7900 Shelbyville Rd #D6,,Louisville,KY,,United States,,38.247327,-85.610049,,retail,,
Sephora Brea,SEPHO-141,1065 Brea Mall #1023-#1024,,Brea,CA,,United States,,33.915676,-117.886117,,retail,,
Nordstrom Topanga,NORDS-84,21725 Victory Blvd,,Canoga Park,CA,,United States,,34.187726,-118.601666,,retail,,
Sephora Independence,SEPHO-186,2018 Independence Center Dr,,Independence,MO,,United States,,39.047339,-94.357907,,retail,,
LOTTE Pusan,LOTTE-540,"1st FL, Gaya-daero 772, Pusan Jin-gu",,Pusan Jin-gu,Pusan,,South Korea,051 810 4108,35.156898,129.056599,,retail,,
Sephora South Coast Plaza,SEPHO-399,3333 Bear St #213,,Costa Mesa,CA,,United States,,33.691605,-117.892698,,retail,,
Sephora Union Square,SEPHO-281,45 E. 17TH St,,New York,NY,,United States,,40.736892,-73.989367,,retail,,
Sephora South Calgary,SEPHO-451,100 Anderson Rd SE,,Calgary,AB,,Canada,,50.952737,-114.067156,,retail,,
Sephora Manhattan Beach,SEPHO-124,3200 Sepulveda Blvd,,Manhattan Beach,CA,,United States,,33.89639,-118.394296,,retail,,
Sephora Yorkdale,SEPHO-435,3401 Dufferin Street,,Toronto,ON,,Canada,,43.72659,-79.457475,,retail,,
Sephora Rosedale,SEPHO-175,2016 Rosedale Center #800,,Roseville,MN,,United States,,45.013413,-93.176027,,retail,,
Sephora La Plaza,SEPHO-139,2200 S. 10TH St #C04,,McAllen,TX,,United States,,26.187677,-98.235768,,retail,,
Sephora Northridge,SEPHO-370,9301 Tampa Ave,,Northridge,CA,,United States,,34.239133,-118.555711,,retail,,
Sephora Valley Fair,SEPHO-104,2855 Stevens Creek Blvd. Ste1061,,Santa Clara,CA,,United States,,37.325886,-121.945375,,retail,,
Sephora Northbridge,SEPHO-214,520 N. Michigan Ave Ste 129,,Chicago,IL,,United States,,41.891437,-87.624669,,retail,,
Fresh - Cloud Nine Mall (Zhongshan Park),BOUTI-515,"Fresh 1005, Clound Nine Mall, 1018 Changning Road, Changning District, Shanghai",,Shanghai,Shanghai,,China,021-52734740,31.218729,121.416253,,boutique,,
Nordstrom Mission Viejo,NORDS-81,100 The Shops Blvd,,Mission Viejo,CA,,United States,,33.561505,-117.669212,,retail,,
Nordstrom Corte Madera,NORDS-88,Mission Viejo,,Corte Madera,CA,,United States,,37.931502,-122.513732,,retail,,
Sephora Salt Lake City,SEPHO-376,50 South Main St.,,Salt Lake City,UT,,United States,,40.768228,-111.891191,,retail,,
Sephora Dedham,SEPHO-358,512 Legacy Place,,Dedham,MA,,United States,,42.230861,-71.178429,,retail,,
Sephora Macarthur,SEPHO-407,300 Monticello Ave,,Norfolk,VA,,United States,,36.849493,-76.28937,,retail,,
Sephora Village Arcade,SEPHO-298,2401 Times Blvd Ste 150,,Houston,TX,,United States,,29.716433,-95.415501,,retail,,
Neiman Marcus Beverly Hills,NEIMA-478,9700 Wilshire Blvd,,Beverly Hills,CA,,United States,,34.066688,-118.406146,,retail,,
Sephora Antea,SEPHO-641,Carretera Queretaro-San Luis Potosi 12401 Feliz Osores Sotomayor,,Queretaro,Queretaro,,Mexico,,20.674582,-100.436439,,retail,,
Sephora Syracuse,SEPHO-350,Carousel Center Ste B205,,Syracuse,NY,,United States,,43.071102,-76.170481,,retail,,
Sephora Tysons Corner,SEPHO-260,7966 Tysons Corner Ctr #D7U,,McLean,VA,,United States,,38.91709,-77.221138,,retail,,
Neiman Marcus Austin,NEIMA-497,3400 Palm Way,,Austin,TX,,United States,,30.403885,-97.724578,,retail,,
Sephora Ross Park,SEPHO-227,1000 Ross Park Mall Dr #C07A,,Pittsburg,PA,,United States,,40.544629,-80.008875,,retail,,
Department Store - Wulin Intime,DEPAR-514,"1F, Intime Department Store, 530 YanAn Road, Xiacheng District, Hangzhou, Zhejiang",,Hangzhou,Zhejiang,,China,0571-85836270,30.268209,120.16403,,retail,,
Sephora Southdale Ctr,SEPHO-382,10 Southdale Ctr,,Edina,MN,,United States,,44.881116,-93.325143,,retail,,
Department Store - Lane Crawford,DEPAR-516,"1F, Times Square Lane Crawford, 99 Middle Huaihai Road, Huangpu District, Shanghai",,Shanghai,Shanghai,,China,021-60755842,31.224647,121.478593,,retail,,
Sephora State Street,SEPHO-349,108 North State St. Ste 134,,Chicago,IL,,United States,,41.883897,-87.628465,,retail,,
Sephora Interlomas,SEPHO-637,Vialidad de la Barranca 6. Colonia Ex Hacienda Jesus del Monte,,Huixquilucan,Estado de Mexico,,Mexico,,19.396449,-99.281423,,retail,,
Sephora Little Rock,SEPHO-320,6000 Markham St #3130,,Little Rock,AR,,United States,,34.753438,-92.343116,,retail,,
Sephora Trumbull,SEPHO-351,5065 Main Street Ste 2090,,Trumball,CT,,United States,,41.229386,-73.226931,,retail,,
Neiman Marcus Stanford,NEIMA-487,400 Stanford Shop Ctr,,Palo Alto,CA,,United States,,37.440921,-122.173005,,retail,,
Sephora Spokane,SEPHO-393,808 West Main Ave,,Spokane,WA,,United States,,47.659471,-117.423847,,retail,,
Sephora Green Hills,SEPHO-144,2126 Abbot Martin Rd #180,,Nashville,TN,,United States,,36.107504,-86.814796,,retail,,
Sephora Evergreen Walk,SEPHO-384,200 Evergreen Way,,South Windsor,CT,,United States,,41.811506,-72.556225,,retail,,
Sephora Scarborough,SEPHO-437,300 Borough Dr,,Scarborough,ON,,Canada,,43.776771,-79.25733,,retail,,
Sephora Natick,SEPHO-276,1245 Worcester St,,Natick,MA,,United States,,42.301113,-71.381917,,retail,,
Sephora Sherway Gardens,SEPHO-431,25 The West Mall,,Toronto,ON,,Canada,,43.611289,-79.556867,,retail,,
Sephora Coquitlam,SEPHO-424,2929 Barnet Hwy,,Coquitlam,BC,,Canada,,49.278461,-122.798542,,retail,,
Sephora Flatiron,SEPHO-241,119 Fifth Ave,,New York City,NY,,United States,,40.739121,-73.990964,,retail,,
Sephora Northstar,SEPHO-128,7400 San Pedro #104,,San Antonio,TX,,United States,,29.517373,-98.497343,,retail,,
Sephora Easton Twn Ctr,SEPHO-388,4174 The Strand,,Columbus,OH,,United States,,40.053798,-82.914875,,retail,,
Sephora Palisades,SEPHO-278,1000 Palisades Ctr Dr #F106A,,West Nyack,NY,,United States,,41.099277,-73.955899,,retail,,
Nordstrom International Plaza,NORDS-94,2223 N.Westshore Blvd.,,Tampa,FL,,United States,,27.963423,-82.520672,,retail,,
Sephora Freehold,SEPHO-261,3710 Rt 9 #D220,,Freehold,NJ,,United States,,40.253646,-74.300177,,retail,,
ifc mall Shop 1086,IFC M-537,"Shop 1086, IFC Mall, 8 Finance Street, Central,",,Hong Kong Island,,,Hong Kong,35720126,22.286068,114.158108,,boutique,,
Sephora The Woodlands,SEPHO-135,1201 Lake Woodlands Dr #700,,Houston,TX,,United States,,30.164202,-95.455398,,retail,,
Sephora Nanuet,SEPHO-229,5129 Fashion Drive,,Nanuet,NY,,United States,,41.095418,-74.016369,,retail,,
Sephora Fayette,SEPHO-232,3401 Nicholsville Rd Stec326,,Lexington,KY,,United States,,37.989003,-84.527184,,retail,,
Sephora Menlo Park,SEPHO-199,488 Menlo Park Mall,,Edison,NJ,,United States,,40.548097,-74.335455,,retail,,
Sephora Dtn Seattle,SEPHO-194,415 Pine Street,,Seattle,WA,,United States,,47.611284,-122.336382,,retail,,
Sephora Ste Catherine,SEPHO-445,677 Rue Ste-Catherine,,Montreal,QC,,Canada,,45.503286,-73.570983,,retail,,
Sephora Santa Barbara,SEPHO-138,701 Paseo Nuevo,,Santa Barbara,CA,,United States,,34.419267,-119.700918,,retail,,
Sephora Valencia,SEPHO-342,24201 West Valencia Blvd Ste 3628,,Valencia,CA,,United States,,34.415658,-118.557627,,retail,,
Sephora South Hills,SEPHO-293,301 South Hills Village #1405A,,Pittsburgh,PA,,United States,,40.342634,-80.053644,,retail,,
Sephora Flatiron Crossing,SEPHO-174,1 W. Flat Iron Galleria #1008,,Broomfield,CO,,United States,,39.932605,-105.133561,,retail,,
Sephora Maine,SEPHO-334,364 Maine Mall Rd Ste W115,,South Portland,ME,,United States,,43.634213,-70.336788,,retail,,
Sephora Paramus Park,SEPHO-387,1460 Paramus Park Mall,,Paramus,NJ,,United States,,40.955808,-74.068457,,retail,,
Sephora Grand Rapids,SEPHO-343,3700 River Town Pkwy Ste1058,,Grandville,MI,,United States,,42.879999,-85.755991,,retail,,
Sephora Dieppe,SEPHO-455,477 Paul St.,,Dieppe,NB,,Canada,,46.098407,-64.758298,,retail,,
Sephora Cherry Hill,SEPHO-277,200 Rte 38 #1100/1105,,Cherry Hill,NJ,,United States,,39.95463,-74.946316,,retail,,
Sephora Augusta,SEPHO-309,3450 Wrightsboro Rd Ste #2520,,Augusta,GA,,United States,,33.465414,-82.080557,,retail,,
Sephora Evansville,SEPHO-323,800 N. Green River Rd #136,,Evansville,IN,,United States,,37.982282,-87.495816,,retail,,
Sephora Mall Of Louisiana,SEPHO-233,6401 Bluebonnet Blvd #620,,Baton Rouge,LA,,United States,,30.389723,-91.088394,,retail,,
Sephora Sunrise,SEPHO-187,1701 Sunrise Hwy #M20,,Bayshore,NY,,United States,,40.740101,-73.246484,,retail,,
Nordstrom Michigan Avenue,NORDS-76,55 East Grand Avenue,,Chicago,IL,,United States,,41.891454,-87.62618,,retail,,
Sephora Cataraqui,SEPHO-463,945 Gardiners Rd,,Kingston,ON,,Canada,,44.256871,-76.571183,,retail,,
Sephora Queens Ctr,SEPHO-406,90-15 Queens Blvd,,Elmhurst,NY,,United States,,40.734803,-73.869567,,retail,,
Sephora Malibu,SEPHO-375,3896 Cross Creek Rd,,Malibu,CA,,United States,,34.035153,-118.684038,,retail,,
Sephora Tucson,SEPHO-316,4500 N. Oracle Rd Box 295,,Tucson,AZ,,United States,,32.288197,-110.974071,,retail,,
Sephora Willowbrook,SEPHO-131,7925 Fm 1960,,Houston,TX,,United States,,29.961413,-95.545137,,retail,,
Sephora Chandler,SEPHO-234,3111 W. Chandler Blvd,,Chandler,AZ,,United States,,33.301665,-111.898018,,retail,,
Sephora Lansing,SEPHO-409,2916 Towne Ctr Blvd,,Lansing,MI,,United States,,42.763745,-84.517852,,retail,,
Sephora Riverchase,SEPHO-163,2000 Riverchase Galleria #259,,Hoover,AL,,United States,,33.379733,-86.807571,,retail,,
Sephora Northbrook Court,SEPHO-218,2171 Northbrook Court,,Northbrook,IL,,United States,,42.149948,-87.817612,,retail,,
Airport Store - Guangzhou Baiyun Airport TA,AIRPO-528,"Counter A9021, 3F, Departure Zone, East Connection Building, Guangzhou Baiyun Airport TA, Guangzhou",,Guangzhou,Guangdong,,China,020-36067653,23.395908,113.30797,,retail,,
Sephora Emeryville,SEPHO-151,5626 Bay St.,,Emeryville,CA,,United States,,37.834622,-122.292195,,retail,,
LOTTE Jamsil,LOTTE-539,"1st FL, Olympics-ro 240, Songpa-gu",,Songpa-gu,Seoul,,South Korea,02 2143 1930,37.512386,127.099399,,retail,,
Sephora Dix30,SEPHO-458,9160 Boul Leduc,,Brossard,QC,,Canada,,45.44719,-73.435851,,retail,,
Sephora Town Sq,SEPHO-150,6711 Las Vegas Blvd #Da-131,,Las Vegas,NV,,United States,,36.068368,-115.172516,,retail,,
Neiman Marcus Short Hills,NEIMA-488,1200 Morris Turnpike,,Short Hills,NJ,,United States,,40.73883,-74.365578,,retail,,
Sephora Prudential Ctr,SEPHO-262,800 Boylson St #B123,,Boston,MA,,United States,,42.348657,-71.082586,,retail,,
Department Store - Westgate Isetan,DEPAR-527,"Counter 11, 1F, Westgate Isetan Plaza, 1038 West Nanjing Road, Shanghai",,Shanghai,Shanghai,,China,021-62186093,31.228638,121.456786,,retail,,
Sephora Roseville,SEPHO-338,1151 Galleria Blvd,,Roseville,CA,,United States,,38.773442,-121.269283,,retail,,
Department Store - Hanguang Beijing,DEPAR-525,"1F, Hanguang Department Store, 176 West Danbei Avenue, Xicheng District, Beijing",,Beijing,Beijing,,China,010-66082688,39.9096,116.375131,,retail,,
Department Store - Century Ginwa Shopping Mall,DEPAR-521,"B1, Century Ginwa Shopping Mall, Zhonglou Plaza, 1 West Avenue, Beiling District, Xi'an, Shaanxi",,Xi'an,Shaanxi,,China,029-87382630,34.259912,108.946006,,retail,,
Sephora Bloor St,SEPHO-438,131 Bloor St. West,,Toronto,ON,,Canada,,43.668713,-79.392259,,retail,,
New Town Plaza Fresh,NEW T-531,"Shop 305, New Town Plaza Phase 1, 18 Sha Tin Centre St,",,New Territories,,,Hong Kong,2336 0688,22.382356,114.187993,,boutique,,
Neiman Marcus Tysons Ii Galleria,NEIMA-486,2255 International Dr,,Mclean,VA,,United States,,38.92286,-77.22419,,retail,,
Sephora Huntsville,SEPHO-367,335 The Bridge St,,Huntsville,AL,,United States,,34.715042,-86.673236,,retail,,
Sephora San Francisco Centre,SEPHO-419,865 Market St.,,San Francisco,CA,,United States,,37.783951,-122.407162,,retail,,
Nordstrom Barton Creek,NORDS-93,2901 Capital Of TX Freeway S.,,Austin,TX,,United States,,30.257339,-97.807188,,retail,,
Sephora Utc Sarasota,SEPHO-413,140 University Tc Dr,,Sarasota,FL,,United States,,27.382197,-82.451389,,retail,,
Nordstrom Washington Sq,NORDS-74,9700 SW Washington Sq Rd,,Tigard,OR,,United States,,45.448122,-122.782682,,retail,,
Sephora Ridgedale,SEPHO-212,12669 Wayzata Blvd,,Minnetonka,MN,,United States,,44.968769,-93.435852,,retail,,
Sephora Walt Whitman,SEPHO-245,160 Walt Whitman Ave. Sp1043,,Huntington Station,NY,,United States,,40.826241,-73.411924,,retail,,
Sephora Polaris,SEPHO-215,1500 Polaris Pkwy,,Columbus,OH,,United States,,40.145239,-82.981441,,retail,,
Sephora Chattanooga,SEPHO-360,2100 Hamilton Place Blvd,,Chattanooga,TN,,United States,,35.035203,-85.158286,,retail,,
Neiman Marcus Cherry Creek,NEIMA-489,3030 E. 1St Ave,,Denver,CO,,United States,,39.717172,-104.952093,,retail,,
Sephora Baybrook,SEPHO-158,1168 Baybrook Mall,,Friendship,TX,,United States,,29.540157,-95.149579,,retail,,
Sephora Oshawa,SEPHO-456,419 Kings St West,,Oshawa,ON,,Canada,,43.889878,-78.879663,,retail,,
SHINSEGAE Gyeonggi,SHINS-550,"1st FL, Poeun-daero 536, Suji-gu",,Suji-gu,"Yongin-si, Gyeonggi-do",,South Korea,031 695 2278,37.324807,127.108379,,retail,,
Sephora Carriage Crossing,SEPHO-295,4630 Merchants Park Circle #709,,Colliersville,TN,,United States,,35.020722,-89.719809,,retail,,
Sephora 60TH & Lex,SEPHO-149,750 Lexington Ave,,New York,NY,,United States,,40.762591,-73.967985,,retail,,
Sephora Guildford,SEPHO-459,10355 152ND St.,,Surrey,BC,,Canada,,49.189511,-122.804908,,retail,,
Sephora Tacoma,SEPHO-346,4502 S. Steele St Ste 1317,,Tacoma,WA,,United States,,47.216417,-122.467857,,retail,,
Sephora South Park,SEPHO-264,4400 Sharon Road #E11A,,Charlotte,NC,,United States,,35.151755,-80.831925,,retail,,
Fresh - South Coast Plaza,FRESH-503,3333 Bristol Street,,Costa Mesa,CA,,United States,714-549-7086,33.692985,-117.887093,,boutique,,
Fresh - TaiKoo Hui Guangzhou,BOUTI-524,"Counter MU27, Podium Above Subway,TaiKoo Hui Shopping Mall, 383 Tianhe Road, Tianhe District, Guangzhou",,Guangzhou,Guangdong,,China,020-38088302,23.134226,113.332457,,boutique,,
Sephora Miracle Mile,SEPHO-116,3663 S.Las Vegsa Blvd Ste 140,,Las Vegas,NV,,United States,,36.110732,-115.172237,,retail,,
Sephora Smith Haven,SEPHO-176,510 Smith Haven Mall,,Lake Grove,NY,,United States,,40.862974,-73.129814,,retail,,
Sephora West County Ctr,SEPHO-231,37 West County Ctr #A2,,Des Peres,MO,,United States,,38.600645,-90.445517,,retail,,
Department Store - Heiwado Wuyi Plaza,DEPAR-523,"1F, Heiwado Hunan Commercial Building, 88 Middle Huangxing Road, Furong District, Changsha, Hunan",,Changsha,Hunan,,China,0731-89856568,28.194731,112.97714,,retail,,
HYUNDAI Pusan,HYUND-545,"1st FL, Bumil-ro 125, Dong-gu",,Dong-gu,Pusan,,South Korea,051 667 0153,35.141532,129.05838,,retail,,
Sephora So Coast Plaza,SEPHO-105,3333 Bristol St. Suite 1001,,Costa Mesa,CA,,United States,,33.690908,-117.885426,,retail,,
Fresh - Pasadena,FRESH-509,40 W Colorado Blvd,,Pasadena,CA,,United States,626-564-2638,34.145487,-118.151399,,boutique,,
Sephora Jordan Creek,SEPHO-197,101 Jordan Creek Pkwy #11240,,W. Des Moines,IA,,United States,,41.570262,-93.80714,,retail,,
Sephora Toronto Eaton Cent,SEPHO-434,220 Yonge Street,,Toronto,ON,,Canada,,43.653611,-79.38006,,retail,,
Sephora Glendale,SEPHO-353,230 Americana Way,,Glendale,CA,,United States,,34.144373,-118.256608,,retail,,
Neiman Marcus Willowbend,NEIMA-481,2201 Dallas Pkwy,,Dallas,TX,,United States,,33.030272,-96.831512,,retail,,
Sephora Short Pump,SEPHO-414,11800 W Broad St.,,Richmond,VA,,United States,,37.65673,-77.620215,,retail,,
HYUNDAI Mokdong,HYUND-544,"1st FL, Mokdong-ro 257, Yangchun-gu",,Yangchun-gu,Seoul,,South Korea,02 2163 3224,37.526339,126.87537,,retail,,
Sephora University Park,SEPHO-198,6501 North Grape Rd #472A,,Mishawaka,IN,,United States,,41.718675,-86.190276,,retail,,
Sephora Mall Of Millenia,SEPHO-402,4200 Conroy Rd,,Orlando,FL,,United States,,28.485565,-81.43155,,retail,,
Sephora 34TH Street,SEPHO-242,130 West 34TH St.,,New York,NY,,United States,,40.75015,-73.989395,,retail,,
Sephora Anaheim,SEPHO-109,1570 S. Disneyland Drive,,Anaheim,CA,,United States,,33.808388,-117.924595,,retail,,
Sephora Bellevue,SEPHO-191,148 Bellevue Square,,Bellevue,WA,,United States,,47.611918,-122.201478,,retail,,
Sephora Plaza Las Americas,SEPHO-404,525 Avenida Franklin Delano Roosevelt,,San Juan,PR,,United States,,18.421831,-66.074398,,retail,,
Sephora Quakerbridge,SEPHO-389,174 Quaker Bridge Mall,,Lawrenceville,NJ,,United States,,40.290485,-74.685356,,retail,,
Sephora Pacific Ctr,SEPHO-423,701 W Georgia St.,,Vancouver,BC,,Canada,,49.282888,-123.118207,,retail,,
Fresh - The Grove,FRESH-505,189 The Grove Dr,,Los Angeles,CA,,United States,323-932-2580,34.073051,-118.358569,,boutique,,
Sephora Fresno Fashion Fai,SEPHO-137,639 East Shaw Ave #123,,Fresno,CA,,United States,,36.808058,-119.776371,,retail,,
Sephora Oakridge,SEPHO-165,925 Blossom Hill Rd Ste 1198,,San Jose,CA,,United States,,37.251402,-121.862141,,retail,,
Nordstrom Aventura,NORDS-95,19507 Biscayne Blvd,,Aventura,FL,,United States,,25.957111,-80.145023,,retail,,
Sephora Modesto,SEPHO-318,3401 Dale Road Ste 658,,Modesto,CA,,United States,,37.686557,-121.05024,,retail,,
Sephora Ft. Collins,SEPHO-321,2720 Council Tree Ave Ste 124,,Ft. Collins,CO,,United States,,40.525783,-105.026555,,retail,,
Sephora Galleria Ft. Laud,SEPHO-305,2414 E. Sunrise Blvd #2204,,Ft. Lauderdale,FL,,United States,,26.137129,-80.113431,,retail,,
Fresh-Singapore-Ion Orchard,FRESH-511,2 Orchard Turn #B3-45/46/47,,Singapore,,,Singapore,65 6509 6481,1.303916,103.831464,,boutique,,
Fresh - Bleecker Street,FRESH-501,388 Bleecker Street<br />between Perry St. and West 11th St.,,New York,NY,,United States,917-408-1850,40.735419,-74.005155,,boutique,,
Sephora South Beach,SEPHO-282,721 Collins Avenue,,Miami,FL,,United States,,25.777281,-80.132105,,retail,,
Sephora Kalakaua,SEPHO-345,2250 Kalakaua Ave Ste 153,,Honolulu,HI,,United States,,21.279252,-157.828587,,retail,,
Sephora Coyoacan,SEPHO-633,Av. Coyoacan 2000,,"Benito Juarez, Xoco",Mexico Distrito Federal,,Mexico,,19.360126,-99.170326,,retail,,
Sephora Rockingham,SEPHO-254,99 Rockingham Park Blvd #E211C,,Salem,NH,,United States,,42.767921,-71.231377,,retail,,
Sephora Twelve Oaks,SEPHO-222,27484 Novi Rd,,Novi,MI,,United States,,42.49169,-83.469865,,retail,,
Sephora Culver City,SEPHO-374,6000 Sepulveda Blvd,,Culver City,CA,,United States,,33.984583,-118.395075,,retail,,
Neiman Marcus Lenox,NEIMA-476,3393 Peachtree Rd NE,,Atlanta,GA,,United States,,33.844113,-84.36146,,retail,,
Sephora Southpoint,SEPHO-274,6910 Fayetteville Rd #181,,Durham,NC,,United States,,35.90347,-78.943008,,retail,,
Sephora Tallahassee,SEPHO-383,1500 Apalachee Pkwy,,Tallahassee,FL,,United States,,30.43732,-84.253548,,retail,,
Fresh - Spring Street/Soho,FRESH-500,57 Spring Street<br />between Mulberry St. and Lafayette St.,,New York,NY,,United States,212-925-0099,40.722379,-73.996704,,boutique,,
Sephora Burlington,SEPHO-253,75 Middlesex Turnpike #1061,,Burlington,MA,,United States,,42.48326,-71.213138,,retail,,
Sephora Regency Square,SEPHO-256,1420 Parham Rd Ste S-129,,Richmond,VA,,United States,,37.601411,-77.567535,,retail,,
Sephora Newport Centre,SEPHO-146,30 Mall Dr West #A58B,,Jersey City,NJ,,United States,,40.726581,-74.038919,,retail,,
Sephora Meat Packing,SEPHO-355,21-27 Ninth Avenue,,New York,NY,,United States,,40.740224,-74.006126,,retail,,
Nordstrom Santa Anita,NORDS-85,400 S. Baldwin Ave,,Arcadia,CA,,United States,,34.134955,-118.048656,,retail,,
Sephora Summit Reno,SEPHO-114,13915 S Virginia St Ste 110,,Reno,NV,,United States,,39.407039,-119.749831,,retail,,
Sephora Briarwood,SEPHO-235,876 Briarwood Circle #E136,,Ann Arbor,MI,,United States,,42.241996,-83.743181,,retail,,
Sephora Willow Bend,SEPHO-337,6121 W Park Blvd Ste C110,,Plano,TX,,United States,,33.030978,-96.832795,,retail,,
Sephora Broadway,SEPHO-152,150 Broadway,,New York,NY,,United States,,40.70931,-74.010236,,retail,,
Sephora Powell Street,SEPHO-122,33 Powell Street,,San Francisco,CA,,United States,,37.784885,-122.408149,,retail,,
Sephora City Place,SEPHO-292,550 S. Rosemary Ave Ste 144,,West Palm Beach,FL,,United States,,26.70899,-80.056917,,retail,,
Sephora Zona Rosa,SEPHO-317,8758 NW Prairie View Rd,,Kansas City,MO,,United States,,39.252666,-94.665297,,retail,,
Nordstrom Valley Fair,NORDS-89,2400 Forest Ave,,San Jose,CA,,United States,,37.326174,-121.947058,,retail,,
Sephora Ala Moana,SEPHO-143,1450 Ala Moana Blvd #2058,,Honolulu,HI,,United States,,21.289579,-157.843471,,retail,,
Neiman Marcus Houston Galleria,NEIMA-474,2600 S. Post Oak Rd,,Houston,TX,,United States,,29.740746,-95.460984,,retail,,
"Sephora Deerpark, IL",SEPHO-202,20530 N. Rand Rd #244,,Deer Park,IL,,United States,,42.162385,-88.053349,,retail,,
Sephora White Oaks,SEPHO-430,1105 Wellington Rd,,London,ON,,Canada,,42.931334,-81.224666,,retail,,
Sephora Mohegan Sun,SEPHO-364,1 Mohegan Sun Blvd,,Uncasville,CT,,United States,,41.491734,-72.090917,,retail,,
Sephora Cape Cod,SEPHO-379,793 Lyannough Rd,,Hyannis,MA,,United States,,41.668474,-70.2981,,retail,,
Sephora Colorado Springs,SEPHO-378,1645 Briargate Pkwy,,Colorado Springs,CO,,United States,,38.963143,-104.796065,,retail,,
Airport Store - Beijing Capital Airport T3,AIRPO-519,"Counter A3W3-3, Domestic Zone, Beijing Capital Airport T3, Beijing",,Beijing,Beijing,,China,010-64530672,40.052815,116.615689,,retail,,
Sephora Brandon,SEPHO-294,910 Brandon Twn Ctr Mall,,Brandon,FL,,United States,,27.931783,-82.326066,,retail,,
Department Store - Hangzhou Tower,DEPAR-522,"1F, Building A, Hangzhou Tower Shopping City, 1 Wuling Plaza, Xiacheng District, Hangzhou, Zhejiang",,Hangzhou,Zhejiang,,China,0571-86028350,30.27229,120.161277,,retail,,
Fresh - San Francisco,FRESH-504,301 Sutter Street<br />Corner of Grant St.,,San Francisco,CA,,United States,415-248-0210,37.789488,-122.405549,,boutique,,
Sephora Arlington,SEPHO-366,3811 South Cooper St,,Arlington,TX,,United States,,32.679345,-97.129586,,retail,,
Sephora Crocker Park,SEPHO-156,160 Crocker Park Blvd,,Westlake,OH,,United States,,41.460012,-81.951246,,retail,,
Sephora Woodland Hills,SEPHO-173,7021 S Memorial Dr Ste 215,,Tulsa,OK,,United States,,36.063098,-95.881269,,retail,,
Sephora Boca Raton,SEPHO-284,6000 W.Glades #1024B,,Boca Raton,FL,,United States,,26.365904,-80.134344,,retail,,
Sephora Penn Square,SEPHO-300,1901 NW Expressway #2032A,,Oklahoma City,OK,,United States,,35.524737,-97.543966,,retail,,
Sephora Portland,SEPHO-372,413 SW Morrison Street,,Portland,OR,,United States,,45.519049,-122.676834,,retail,,
Sephora Forest Hills,SEPHO-268,71-30 Austin Street,,Forest Hills,NY,,United States,,40.719588,-73.843769,,retail,,
Sephora Pacific View,SEPHO-348,3301-1242 E Main St,,Ventura,CA,,United States,,34.267514,-119.250723,,retail,,
Sephora Hawthorn,SEPHO-391,411 Hawthorn Ctr,,Vernon Hills,IL,,United States,,42.242718,-87.949684,,retail,,
Neiman Marcus Michigan Ave,NEIMA-484,737 N. Michigan Ave,,Chicago,IL,,United States,,41.896004,-87.623831,,retail,,
Fresh - Columbus Ave,FRESH-506,159 Columbus Avenue<br />corner of Columbus and 67th St.,,New York,NY,,United States,212-787-3505,40.774367,-73.980769,,boutique,,
Sephora Garelias,SEPHO-638,Avenida Rafael Sanzio 150. Camichines Vallarta.,,Zapopan,Jalisco,,Mexico,,20.676934,-103.43221,,retail,,
Sephora Cambridgeside,SEPHO-180,100 Cambridgeside Pl Ste E114,,Cambridge,MA,,United States,,42.368126,-71.076239,,retail,,
Sephora Venetian,SEPHO-115,3377 Las Vegas Blvd South #1001,,Las Vegas,NV,,United States,,36.121863,-115.169649,,retail,,
Sephora San Luis Obispo,SEPHO-297,999 Monterey St,,San Luis Obispo,CA,,United States,,35.281404,-120.661241,,retail,,
Neiman Marcus Somerset,NEIMA-494,2705 W. Big Beaver Rd,,Troy,MI,,United States,,42.559861,-83.182337,,retail,,
Sephora Kennesaw,SEPHO-327,400 Barrett Pkwy #236,,Kennesaw,GA,,United States,,34.018047,-84.563836,,retail,,
Sephora Caesars,SEPHO-371,3500 S Las Vegas Blvd,,Las Vegas,NV,,United States,,36.118475,-115.175571,,retail,,
Sephora Fairview,SEPHO-421,1800 Sheppard Ave East,,Toronto,ON,,Canada,,43.777878,-79.344654,,retail,,
Sephora South Shore,SEPHO-339,250 Granite St. Ste 1230,,Braintree,MA,,United States,,42.221635,-71.022542,,retail,,
Sephora Richmond,SEPHO-433,6551 No. 3 Rd,,Richmond,BC,,Canada,,49.165305,-123.137776,,retail,,
FACESSS Queensway Plaza,FACES-535,"Queensway Plaza, 93 Queensway, Admiralty,",,Hong Kong Island,,,Hong Kong,2113 8106,22.278495,114.164725,,retail,,
Sephora Regina,SEPHO-465,2102 11TH Ave,,Regina,SK,,Canada,,50.450854,-104.61124,,retail,,
Nordstrom Somerset,NORDS-78,2850 W. Big Beaver Rd.,,Troy,MI,,United States,,42.56271,-83.185822,,retail,,
Fresh-London,FRESH-510,92 Marylebone High Street,,London,,,United Kingdom,0207-486-4100,51.519956,-0.15207,,boutique,,
Sephora Washington Sq.,SEPHO-188,9585 Sw Washington Sq Rd,,Portland,OR,,United States,,45.450406,-122.78332,,retail,,
Sephora Stanford,SEPHO-117,355 Stanford Shopping Ctr,,Palo Alto,CA,,United States,,37.439651,-122.173766,,retail,,
Sephora Santa Anita,SEPHO-167,400 S. Baldwin Ave Ste 448L,,Arcadia,CA,,United States,,34.134955,-118.048656,,retail,,
Sephora Square One,SEPHO-436,100 City Center Dr,,Mississauga,ON,,Canada,,43.593106,-79.642247,,retail,,
Sephora Lehigh Valley,SEPHO-290,835 Lehigh Lifestyle Ctr #1240,,Whitehall,PA,,United States,,40.63013,-75.48028,,retail,,
Sephora Shadyside,SEPHO-273,5526 Walnut Street,,Pittsburgh,PA,,United States,,40.451249,-79.932633,,retail,,
Sephora Northlake,SEPHO-200,6801 Northlake Mall Dr #240,,Charlotte,NC,,United States,,35.351802,-80.851791,,retail,,
Fresh - Boston,FRESH-499,121 Newbury Street<br />between Clarendon St. and Dartmouth St.,,Boston,MA,,United States,617-421-1212,42.351507,-71.076444,,boutique,,
Sephora Partridge Creek,SEPHO-184,17410 Hall Rd Ste 167,,Clinton,MI,,United States,,42.627664,-82.948023,,retail,,
SHINSEGAE Centum,SHINS-551,"1st FL, Centumnam-daero 35, Haeundae-gu",,Haeundae-gu,Pusan,,South Korea,051 745 1249,35.168683,129.129278,,retail,,
Sephora 5TH Avenue,SEPHO-270,597 Fifth Avenue,,New York,NY,,United States,,40.757383,-73.977804,,retail,,
Nordstrom Walnut Creek,NORDS-87,1200 Broadway Plaza,,Walnut Creek,CA,,United States,,37.897166,-122.058178,,retail,,
Sephora Short Hills,SEPHO-246,1200 Morris Turnpike #C205,,Short Hills,NJ,,United States,,40.739637,-74.365637,,retail,,
Sephora Lakeside,SEPHO-314,3301 Veterans Memorial Blvd #74,,Metairie,LA,,United States,,30.007294,-90.158279,,retail,,
Sephora Springfield Twn Ctr,SEPHO-411,6707 Springfield Mall,,Springfield,VA,,United States,,38.771588,-77.171588,,retail,,
Sephora Towson,SEPHO-169,825 Dulaney Valley Rd Ste 2190,,Towson,MD,,United States,,39.4039,-76.600627,,retail,,
Sephora Oakbrook,SEPHO-219,104 Oakbrook Center,,Oakbrook,IL,,United States,,41.849847,-87.95345,,retail,,
Sephora Scottsdale,SEPHO-265,7014 East Camelback Rd #1049,,Scottsdale,AZ,,United States,,33.502509,-111.929023,,retail,,
Nordstrom Park Meadows,NORDS-75,8465 Park Meadows Dr.,,Littleton,CO,,United States,,39.558947,-104.873716,,retail,,
Neiman Marcus Coral Gables,NEIMA-495,390 San Lorenzo Avenue,,Coral Gables,FL,,United States,,25.731802,-80.261427,,retail,,
Sephora Southlake Twn Sq,SEPHO-365,312 Grand Avenue W,,Southlake,TX,,United States,,32.944465,-97.130629,,retail,,
Sephora Alderwood,SEPHO-189,3000 184TH St. SW,,Lynnwood,WA,,United States,,47.829906,-122.272568,,retail,,
Nigel Beauty Emporium,NIGEL-628,11252 Magnolia Blvd,,North Hollywood,CA,,United States,,34.164891,-118.376473,,retail,,
Sephora Northeast,SEPHO-133,1001 Melbourne Rd,,Hurst,TX,,United States,,32.827151,-97.19797,,retail,,
Sephora Edmonton,SEPHO-439,8882-170TH St,,Edmonton,AB,,Canada,,53.52244,-113.621873,,retail,,
GALLERIA Apkujeong West,GALLE-553,"1st FL, Apgujeong-ro 343, Gangnam-gu",,Gangnam-gu,Seoul,,South Korea,02 547 4115,37.528483,127.0402,,retail,,
Sephora Mic Mac,SEPHO-469,21 Mic Mac Blvd,,Dartmouth,NS,,Canada,,44.685657,-63.559347,,retail,,
Sephora Southgate,SEPHO-426,5015-111TH St.,,Edmonton,AB,,Canada,,53.487885,-113.515433,,retail,,
Sephora Madison,SEPHO-170,71 West Towne Mall,,Madison,WI,,United States,,43.057384,-89.505917,,retail,,
Sephora Stoneridge,SEPHO-103,2125 Stoneridge Mall,,Pleasanton,CA,,United States,,37.69816,-121.927817,,retail,,
Sephora Arrowhead,SEPHO-140,7700 W. Arrowhead Towne Ctr #1199,,Glendale,AZ,,United States,,33.641537,-112.226423,,retail,,
Sephora Palm Desert,SEPHO-354,73505 El Paseo Ste 1620,,Palm Desert,CA,,United States,,33.719703,-116.382895,,retail,,
Neiman Marcus King Of Prussia,NEIMA-492,170 N. Gulph Rd,,King Of Prussia,PA,,United States,,40.085656,-75.391668,,retail,,
Sephora Barton Creek,SEPHO-168,2901 Capitol Of Tx Hwy S.,,Austin,TX,,United States,,30.257339,-97.807188,,retail,,
Nordstrom Alderwood,NORDS-73,3200 184TH Street SW,,Lynnwood,WA,,United States,,47.831168,-122.273947,,retail,,
Sephora Lenox,SEPHO-307,3393 Peachtree Rd NE #3042,,Atlanta,GA,,United States,,33.847848,-84.363602,,retail,,
Sephora Wichita,SEPHO-363,2000 N Rock Rd,,Wichita,KS,,United States,,37.720325,-97.242548,,retail,,
Sephora International Plaz,SEPHO-304,#145 - Lower Level,,Tampa,FL,,United States,,27.964364,-82.519518,,retail,,
Sephora Eastview,SEPHO-299,7979 Pittsford-Victor Rd #156,,Victor,NY,,United States,,43.029455,-77.442413,,retail,,
Sephora Oak Park,SEPHO-160,11731 W 95TH St. #139,,Overland Park,KS,,United States,,38.956452,-94.721616,,retail,,
Neiman Marcus San Francisco,NEIMA-480,150 Stockton St.,,San Francisco,CA,,United States,,37.787275,-122.406556,,retail,,
Sephora Strongville,SEPHO-157,4421 Glengarry Dr Ste #128,,Dayton,OH,,United States,,39.693356,-84.1022,,retail,,
Sephora Park Royal,SEPHO-464,796 Main St.,,Vancouver,BC,,Canada,,49.326722,-123.138424,,retail,,
Sephora Florida Mall,SEPHO-286,8001 S.Orange Blossom Trl#1128B,,Orlando,FL,,United States,,28.446638,-81.394995,,retail,,
Sephora Kelowna,SEPHO-449,2271 Harvey Ave,,Kelowna,BC,,Canada,,49.880671,-119.440739,,retail,,
Sephora Halifax,SEPHO-448,7001 Mumford Rd,,Halifax,NS,,Canada,,44.64901,-63.618633,,retail,,
Sephora Yonkers,SEPHO-357,163 Market St,,Yonkers,NY,,United States,,40.963378,-73.85615,,retail,,
Sephora Santa Fe,SEPHO-634,Av. Vasco de Quiroga 3800,,Cuajimalpa de Morelos,Mexico Distrito Federal,,Mexico,,19.361407,-99.274541,,retail,,
Sephora Aventura,SEPHO-285,19575 Biscayne Blvd #527,,Aventura,FL,,United States,,25.957605,-80.144051,,retail,,
Sephora La Cantera,SEPHO-142,15900 La Cantera Pkwy #7720 Bldg7,,San Antonio,TX,,United States,,29.594415,-98.615204,,retail,,
Fresh - Northpark,FRESH-508,8687 N Central Expy,,Dallas,TX,,United States,214-691-1500,32.868793,-96.773744,,boutique,,
Nordstrom Cerritos,NORDS-80,300 Los Cerritos Ctr,,Cerritos,CA,,United States,,33.862112,-118.094205,,retail,,
Sephora Utc,SEPHO-113,4545 La Jolla Village Dr. #C16,,San Diego,CA,,United States,,32.871741,-117.210463,,retail,,
Sephora Dadeland,SEPHO-287,7407 N. Kendall Drive Ste 2105,,Miami,FL,,United States,,25.690502,-80.313589,,retail,,
Sephora Lancaster,SEPHO-166,319 Park City Center,,Lancaster,PA,,United States,,40.065286,-76.336707,,retail,,
Sephora Destin,SEPHO-359,4236 Legendary Drive,,Destin,FL,,United States,,30.391285,-86.42618,,retail,,
Fresh - Century City,FRESH-507,10250 Santa Monica Blvd,,Los Angeles,CA,,United States,310-552-0798,34.059633,-118.419429,,boutique,,
HYUNDAI Apkujeong,HYUND-542,"1st FL, Apgujeong-ro 165, Gangnam-gu",,Gangnam-gu,Seoul,,South Korea,02 3438 6026,37.527512,127.027223,,retail,,
Sephora Northshore,SEPHO-228,210 Andover St Space #X107,,Peabody,MA,,United States,,42.541107,-70.94431,,retail,,
Sephora Keystone,SEPHO-224,8702 Keystone Crossing,,Indianapolis,IN,,United States,,39.914065,-86.111152,,retail,,
Sephora Birmingham,SEPHO-155,225 Summit Blvd Ste 1100,,Birmingham,AL,,United States,,33.448738,-86.727466,,retail,,
Sephora Greenwood,SEPHO-328,1251 US Hwy 31 N,,Greenwood,IN,,United States,,39.633188,-86.120686,,retail,,
Sephora Park Meadows,SEPHO-179,8505 Park Meadows Ctr Dr #2069,,Littleton,CO,,United States,,39.56207,-104.876512,,retail,,
Sephora Rideau Centre,SEPHO-443,50 Rideau St.,,Ottawa,ON,,Canada,,45.425582,-75.692568,,retail,,
Sephora Beverly Ctr,SEPHO-121,8500 Beverly Blvd #756,,Los Angeles,CA,,United States,,34.075331,-118.377493,,retail,,
Sephora Staten Island,SEPHO-250,2655 Richmond Ave. Ste 1545,,Staten Island,NY,,United States,,40.582398,-74.166055,,retail,,
SHINSEGAE Gangnam,SHINS-548,"1st FL, Sinbanpo-ro 176, Seocho-gu",,Seocho-gu,Seoul,,South Korea,02 3479 6202,37.50525,127.004031,,retail,,
Sephora Virginia Beach,SEPHO-310,701 Lynnhaven Park Ste 1068,,Virginia Beach,VA,,United States,,36.818239,-76.070086,,retail,,
Sephora Knoxville,SEPHO-172,7600 Kingston Pike #1094A,,Knoxville,TN,,United States,,35.924442,-84.039058,,retail,,
Sephora Montclair,SEPHO-183,2061 Montclair Plaza Lane,,Montclair,CA,,United States,,34.086743,-117.693621,,retail,,
Sephora Metrotown,SEPHO-427,216-4820 Kingsway,,Burnaby,BC,,Canada,,49.227396,-123.000014,,retail,,
Sephora Victoria Gardens,SEPHO-134,12522 N. Main St.,,Rancho Cucamonga,CA,,United States,,34.11208,-117.532157,,retail,,
Sephora Topanga,SEPHO-185,6600 Topanga Canyon,,Canoga Park,CA,,United States,,34.191145,-118.602493,,retail,,
Sephora Deptford,SEPHO-289,1750 Deptford Ctr Rd #1184,,Deptford,NJ,,United States,,39.831424,-75.098617,,retail,,
Sephora Union Street,SEPHO-190,2083 Union Street,,San Francisco,CA,,United States,,37.797192,-122.433439,,retail,,
Sephora Quebec City,SEPHO-425,2450 Blvd Laurier Local,,Quebec,QC,,Canada,,46.773588,-71.279095,,retail,,
Sephora Miami Int'L,SEPHO-368,1455 NW 107TH Ave,,Doral,FL,,United States,,25.786811,-80.365403,,retail,,
Sephora Walnut Creek,SEPHO-193,1149 Broadway Plaza #C-70,,Walnut Creek,CA,,United States,,37.896998,-122.05872,,retail,,
Sephora Fashion Place,SEPHO-330,6191 S State Street Ste 212,,Murray,UT,,United States,,40.63595,-111.886504,,retail,,
Sephora St Vital,SEPHO-453,1225 St Marys Rd,,Winnipeg,MB,,Canada,,49.829193,-97.110046,,retail,,
Sephora Champaign,SEPHO-344,2000 N Neil St. Ste 600,,Champaign,IL,,United States,,40.142778,-88.243865,,retail,,
Sephora St. Johns,SEPHO-288,Midtown Pkwy #D7,,Jacksonville,FL,,United States,,30.256718,-81.528144,,retail,,
Sephora Twn Ctr Plaza,SEPHO-417,5000 W 119TH Street,,Leawood,KS,,United States,,38.914673,-94.643622,,retail,,
Sephora Santa Rosa,SEPHO-401,1071 Santa Rosa Plaza,,Santa Rosa,CA,,United States,,38.439379,-122.716401,,retail,,
Sephora Greenville,SEPHO-385,700 Haywood Rd,,Greenville,SC,,United States,,34.849937,-82.333109,,retail,,
Neiman Marcus Paramus,NEIMA-490,503 Garden State Plaza,,Paramus,NJ,,United States,,40.917277,-74.073634,,retail,,
Sephora Greenwich,SEPHO-238,75 Greenwich Avenue,,Greenwich,CT,,United States,,41.029758,-73.626096,,retail,,
Sephora Wolfchase,SEPHO-303,2760 N. Germantown Pkwy #2460,,Memphis,TN,,United States,,35.200499,-89.787784,,retail,,
Sephora Fashion Valley,SEPHO-112,7007 Friars Rd Suite 314,,San Diego,CA,,United States,,32.768286,-117.166929,,retail,,
Sephora Westfarms,SEPHO-251,307 Westfarms Mall #D114,,Farmington,CT,,United States,,41.722533,-72.762023,,retail,,
Neiman Marcus Northbrook Ct,NEIMA-477,5000 Northbrook Ct,,Northbrook,IL,,United States,,42.150559,-87.817053,,retail,,
Sephora Satelite,SEPHO-636,Circuito Centro Comercial 2251,,Ciudad de Satelite,Estado de Mexico,,Mexico,,19.515496,-99.232882,,retail,,
Sephora Calabasas,SEPHO-416,4799 Commons Way,,Calabasas,CA,,United States,,34.153443,-118.646719,,retail,,
Lane Crawford Canton Road,LANE -533,"Harbour City, 3-27 Canton Road, Tsim Sha Tsui,",,Kowloon,,,Hong Kong,2113 1711,22.297078,114.167387,,retail,,
HYUNDAI COEX,HYUND-543,"2nd FL, Teheran-no 517, Gangnam-gu",,Gangnam-gu,Seoul,,South Korea,02 3467 8414,37.508571,127.059734,,retail,,
Sephora Mall Of America,SEPHO-213,200 West Market #W200,,Bloomington,MN,,United States,,44.856563,-93.244288,,retail,,
Sephora Roosevelt Field,SEPHO-244,650 Old Country Rd Ste 1155,,Garden City,NY,,United States,,40.737192,-73.611595,,retail,,
Airport Store - Shanghai Pudong Airport T1,AIRPO-512,"Domestic Departure Gate 8/9, Pudong Airport T1, Shanghai",,Shanghai,Shanghai,,China,021-38923889,31.151248,121.806697,,retail,,
Sephora Watters Creek,SEPHO-204,919 Garden Park Dr,,Allen,TX,,United States,,33.087999,-96.684531,,retail,,
Sephora Pasadena,SEPHO-111,13 W. Colorado Blvd,,Pasadena,CA,,United States,,34.145941,-118.150995,,retail,,
Sephora Burlingame,SEPHO-119,1205 Burlingame Avenue,,Burlingame,CA,,United States,,37.578924,-122.346236,,retail,,
Sephora Charleston,SEPHO-380,1019 Charleston Town Ctr,,Charleston,WV,,United States,,38.354188,-81.638577,,retail,,
Sephora Geneva Commons,SEPHO-361,406 Commons Drive,,Geneva,IL,,United States,,41.894645,-88.343148,,retail,,
Sephora Boise,SEPHO-164,350 North Milwaukee #1031,,Boise,ID,,United States,,43.609702,-116.277121,,retail,,
Sephora Rockland,SEPHO-454,2305 Chemin Rockland,,Montreal,QC,,Canada,,45.526407,-73.64768,,retail,,
Sephora Woodfield,SEPHO-217,5 Woodfield S/C Ste 329,,Schaumburg,IL,,United States,,42.045436,-88.036858,,retail,,
Department Store - Wushang Plaza,DEPAR-517,"1F, Wushang Plaza, 688 Jiefang Boulevard, Jianghan District, Wuhan, Hubei",,Wuhan,Hubei,,China,027-85638958,30.580625,114.269955,,retail,,
Sephora King Of Prussia,SEPHO-271,160 N.Gulph Rd #2108,,King Of Prussia,PA,,United States,,40.087823,-75.391915,,retail,,
Neiman Marcus Fashion Island,NEIMA-479,601 Newport Center Dr,,Newport Beach,CA,,United States,,33.617919,-117.875087,,retail,,
Fresh - Super Brand Mall,BOUTI-520,"Counter 01FL34, 1F, 168 West Lujiazui Road, Pudong District, Shanghai",,Shanghai,Shanghai,,China,021-68597001,31.237389,121.499197,,boutique,,
Sephora Northpoint,SEPHO-302,1000 North Point Circle #1034,,Alpharetta,GA,,United States,,34.047148,-84.295127,,retail,,
Sephora Jackson,SEPHO-331,1000 Highland Colony Pkwy #9010,,Ridgeland,MS,,United States,,32.434374,-90.147543,,retail,,
Sephora Stonebriar,SEPHO-136,2601 Prreston Rd #1230/1234,,Frisco,TX,,United States,,33.098734,-96.811056,,retail,,
Department Store - Harbin Grand Shopping Center,DEPAR-526,"1F, Heilongjiang Grand Shopping Center, 378 Guogeli Avenue, Nangang District, Harbin, Heilongjiang",,Harbin,Heilongjiang,,China,0451-87539436,45.760906,126.643755,,retail,,
Sephora Galleria St. Louis,SEPHO-147,2403 St. Louis Galleria #2407,,St. Louis,MO,,United States,,38.637139,-90.348703,,retail,,
Sephora Old Orchard,SEPHO-216,34 Old Orchard S/C,,Skokie,IL,,United States,,42.061463,-87.747345,,retail,,
Sephora Times Square,SEPHO-240,1500 Broadway,,New York City,NY,,United States,,40.756658,-73.985719,,retail,,
Fresh Galeries Lafayette,FRESH-512,Galeries Lafayette Haussmann,40 Boulevard Haussmann,Paris,,75009,France,0033144519304,48.873058,2.332381,,retail,,
Nordstrom Del Amo,NORDS-97,21500 Hawthorne Blvd,,Torrence,CA,,United States,,33.833544,-118.352462,,retail,,
Nordstrom Downtown Seattle,NORDS-98,500 Pine Street,,Seattle,WA,,United States,,47.612294,-122.336285,,retail,,
Bluermercury - Legacy,BLUEM-72,748 LEGACY PLACE,,DEDHAM,MA,02026,United States,,42.230723,-71.17734,,retail,,
Bluermercury - Derby,BLUEM-73,98 DERBY STREET,,HINGHAM,MA,02043,United States,,42.177563,-70.909558,,retail,,
Bluermercury - Dallas,BLUEM-74,47 Highland Park Village,,Dallas,TX,07520,United States,,32.836315,-96.805443,,retail,,
Bluermercury - Brentwood,BLUEM-75,11648 San Vicente Blvd,,Brentwood,CA,90049,United States,,34.053521,-118.463337,,retail,,
Bluermercury - Southlake,BLUEM-76,219 Grand Avenue,,Southlake,TX,76092,United States,,32.943143,-97.130563,,retail,,
Bluermercury - Washingtonian,BLUEM-77,20 E Grand Corner Ave,,Gaithersburg,MD,20878,United States,,39.118273,-77.201849,,retail,,
Bluermercury - Bronxville,BLUEM-78,48 Pondfield Rd.,,Bronxville,NY,10708,United States,,40.940978,-73.834103,,retail,,
Bluermercury - P Street,BLUEM-79,1427 P Street NW,,Washington DC,Washington DC,20005,United States,,38.909812,-77.033062,,retail,,
Bluermercury - Carlsbad,BLUEM-80,"1925 Calle Barcelona, ste. 163",,Carlsbad,CA,92009,United States,,33.072012,-117.266128,,retail,,
Bluermercury - Tampa,BLUEM-81,704 South Village Circle,,Tampa,FL,33606,United States,,27.93658,-82.475186,,retail,,
Bluermercury - Sea Girt,BLUEM-82,2150 Route 35,Space 22/23E,Sea Grit,NJ,08750,United States,,40.139195,-74.061066,,retail,,
Bluermercury - Country Club Plaza,BLUEM-83,415 Nichols Road,Space 22/23E,Kansas City,MO,64112,United States,,39.041014,-94.592316,,retail,,
Bluermercury - 88th & 3rd,BLUEM-84,1566 Third Ave.,Space 22/23E,New York,NY,10128,United States,,40.78013,-73.953348,,retail,,
Bluermercury - Reston Town Center,BLUEM-85,11900 Market Street,Suite #C,Reston,VA,20190,United States,,38.958502,-77.358379,,retail,,
Bluermercury - Winter Park,BLUEM-87,102 N. Park Avenue,Suite #C,Winter Park,FL,32789,United States,,28.597909,-81.350862,,retail,,
Bluermercury - Amsterdam Ave.,BLUEM-86,341 Amsterdam Ave.,Suite #C,New York,NY,10023,United States,,40.781254,-73.979223,,retail,,
Bluermercury - Kierland Commons,BLUEM-88,"15215 N. Kierland Boulevard, Suite 155",Suite #C,Scottsdale,AZ,85254,United States,,33.625026,-111.928576,,retail,,
Bluermercury - Hartford,BLUEM-89,987 FARMINGTON AVE,,WEST HARTFORD,CT,06107,United States,,41.760988,-72.744463,,retail,,
Bluermercury - Ridgewood,BLUEM-90,29 E. Ridgewood,,Ridgewood,NJ,07450,United States,,40.979878,-74.119251,,retail,,
JC PENNEY #0260-0 MOUNT SHASTA,JCPE-140,950 DANA DR,,REDDING,CA,96003,United States,,40.588226,-122.354365,,retail,,
JC PENNEY #0530-6 UNIVERSITY MALL,JCPE-154,155 DORSET ST,,SOUTH BURLINGTON,VT,05403,United States,,44.465249,-73.1835,,retail,,
JC PENNEY #0882-1 TIPPECANOE,JCPE-155,2415 SAGAMORE PKWY,,LAFAYETTE,IN,47905,United States,,40.3917,-86.849976,,retail,,
JC PENNEY #0920-9 WEST PARK,JCPE-156,200 W PARK MALL,,CAPE GIRARDEAU,MO,63703,United States,,37.298477,-89.572458,,retail,,
JC PENNEY #1134-6 VIEWMONT,JCPE-157,80 VIEWMONT MALL,,SCRANTON,PA,18508,United States,,41.458465,-75.654042,,retail,,
JC PENNEY #1210-4 VALLEY VIEW S/C,JCPE-158,3700 VALLEY VIEW MALL,,LA CROSSE,WI,54601,United States,,43.772309,-91.203808,,retail,,
JC PENNEY #1241-9 NORTHRIDGE,JCPE-159,100 Northridge Mall,,SALINAS,CA,93906,United States,,36.714984,-121.661017,,retail,,
SEPHORA #934 DEL MONTE,SEPHO-487,230 DEL MONTE CTR,,MONTEREY,CA,93940,United States,,36.584096,-121.897199,,retail,,
SEPHORA #596 AVALON,SEPHO-488,48 KENMOUNT RD,,ST JOHNS,NL,A1B1W3,Canada,,47.560672,-52.753606,,retail,,
SEPHORA #856 HILLCREST,SEPHO-489,9350 YONGE ST #B021,,RICHMOND HILL,ON,L4C 5G2,Canada,,43.854637,-79.437424,,retail,,
SEPHORA #852 MASONVILLE,SEPHO-490,1680 RICHMOND ST N #U076C,,London,ON,N6G3Y9,Canada,,42.98695,-81.243177,,retail,,
SEPHORA #598 DEVONSHIRE,SEPHO-491,3100 HOWARD AVE #C4A,,Windsor,ON,N8X3Y8,Canada,,42.314937,-83.036363,,retail,,
SEPHORA #854 NANAIMO,SEPHO-493,6631 ISLAND HWY N #40,,NANAIMO,BC,V9T4T7,Canada,,49.236575,-124.050628,,retail,,
SEPHORA #848 HIGHSTREET,SEPHO-494,3122 MT LEHMAN RD,,ABBOTSFORD,BC,V2T0C5,Canada,,49.058216,-122.378514,,retail,,
SEPHORA #850 BOWER PLACE,SEPHO-495,4900 MOLLY BANISTER DR,,RED DEER,AB,T4R1N9,Canada,,52.243262,-113.809506,,retail,,
JC PENNEY #1591-7 CLIFTON COUNTRY,JCPE-160,22 CLIFTON COUNTRY RD STE 2,,CLIFTON PARK,NY,12065,United States,,42.858413,-73.778214,,retail,,
JC PENNEY #1674-1 HUNTINGTON,JCPE-161,800 MALL RD,,BARBOURSVILLE,WV,25504,United States,,38.418875,-82.264968,,retail,,
JC PENNEY #1722-8 MILLCREEK,JCPE-162,840 Mill Creek Mall,,ERIE,PA,16565,United States,,42.071074,-80.223359,,retail,,
JC PENNEY #1775-6 KIRKWOOD MALL,JCPE-163,850 KIRKWOOD MALL,,BISMARCK,ND,58504,United States,,46.797262,-100.785172,,retail,,
JC PENNEY #1842-4 VISALIA FAIR S/C,JCPE-164,2115 S Mooney Blvd,,VISALIA,CA,93277,United States,,36.311158,-119.316794,,retail,,
JC PENNEY #1993-5 JOHNSON CITY,JCPE-165,2011 N ROAN ST,,JOHNSON CITY,TN,37601,United States,,36.339763,-82.375311,,retail,,
JC PENNEY #1994-3 WEST ACRES REG,JCPE-166,3902 13TH AVE SW STE 200,,FARGO,ND,58103,United States,,46.859274,-96.848855,,retail,,
JC PENNEY #2316-8 ALBANY,JCPE-167,2601 DAWSON RD,,ALBANY,GA,31707,United States,,31.618057,-84.216745,,retail,,
JC PENNEY #2507-2 PRIEN LAKE,JCPE-168,312 W PRIEN LAKE RD,,LAKE CHARLES,LA,70601,United States,,30.200771,-93.244722,,retail,,
JC PENNEY #2527-0 ASHLAND,JCPE-170,500 WINDCHESTER AVE,,Ashland,KY,41101,United States,,38.483837,-82.653411,,retail,,
JC PENNEY #2651-8 GATEWAY,JCPE-172,68 Gateway Mall,,LINCOLN,NE,68505,United States,,40.81546,-96.63599,,retail,,
JC PENNEY #2821-7 SIOUX CITY,JCPE-173,4340 SERGEANT RD,,SIOUX CITY,IA,51106,United States,,42.44801,-96.349437,,retail,,
JC PENNEY #2868-8 MT JULIET,JCPE-174,401 S. MT JULIET RD STE 630,,MT JULIET,TN,37122,United States,,36.168729,-86.510273,,retail,,
JC PENNEY #2878-7 HARRISBURG,JCPE-175,4680 HIGH POINTE BLVD,,HARRISBURG,PA,17111,United States,,40.24692,-76.80313,,retail,,
JC PENNEY #2976-9 TRIADELPHIA,JCPE-178,515 Cabela Dr,,TRIADELPHIA,WV,26059,United States,,40.054872,-80.599379,,retail,,
JC PENNEY #2613-8 CHICO,JCPE-179,1932 EAST 20TH STREET,,CHICO,CA,95928,United States,,39.728413,-121.806739,,retail,,
JC PENNEY #0197-4 BROOKLYN,JCPE-180,360 GATEWAY DR,,BROOKLYN,NY,11239,United States,,40.651768,-73.874783,,retail,,
JC PENNEY #0709-6 ORLANDO FASHION SQ,JCPE-181,3115 E COLONIAL DR,,Orlando,FL,32803,United States,,28.557081,-81.341758,,retail,,
SEPHORA #918 STAMFORD,SEPHO-471,100 GREYROCK PLACE #E135,,STAMFORD,CT,6901,United States,,41.053077,-73.537144,,retail,,
SEPHORA #942 HINGHAM,SEPHO-472,98 DERBY ST #411,,HINGHAM,MA,2043,United States,,42.177563,-70.909558,,retail,,
SEPHORA #916 SUBURBAN SQ,SEPHO-473,42A ST GEORGES RD,,ARDMORE,PA,19003,United States,,40.008891,-75.289808,,retail,,
SEPHORA #936 CLARENDON,SEPHO-474,2800 CLARENDON BLVD #R550,,Arlington,VA,22201,United States,,38.887847,-77.092546,,retail,,
SEPHORA #944 MERRICK PK,SEPHO-475,358 SAN LORENZO AVE #2100,,CORAL GABLES,FL,33146,United States,,25.731942,-80.260815,,retail,,
SEPHORA #932 COOLSPRINGS GALERIA,SEPHO-476,1800 GALLERIS BLVD #1252,,FRANKLIN,TN,37067,United States,,35.957298,-86.813906,,retail,,
SEPHORA #912 CHARLESTON,SEPHO-477,289 KING STREET,,Charleston,SC,29401,United States,,32.78288,-79.934654,,retail,,
SEPHORA #954 KATY,SEPHO-478,23501 CINCO RANCH BLVD #B130,,KATY,TX,77494,United States,,29.742829,-95.77626,,retail,,
SEPHORA #914 HUNTINGTON BEACH,SEPHO-479,21040 PACIFIC CST HWY #F120,,HUNTINGTON BEACH,CA,92648,United States,,33.654908,-117.997614,,retail,,
SEPHORA #956 COUNTRY CLUB PLAZA,SEPHO-480,424 NICHOLS RD,,KANSAS CITY,MO,64112,United States,,39.04144,-94.592557,,retail,,
SEPHORA #922 MARINA DEL RAY,SEPHO-481,4766 ADMIRAL WAY #C1-3,,MARINA DEL RAY,CA,90292,United States,,33.978259,-118.438511,,retail,,
SEPHORA #946 THE GROVE,SEPHO-482,189 THE GROVE DR,,LOS ANGELES,CA,90036,United States,,34.072462,-118.358099,,retail,,
SEPHORA #948 DEL AMO,SEPHO-483,3525 W CARSON ST,,TORRANCE,CA,90503,United States,,33.832414,-118.347591,,retail,,
SEPHORA #928 BEVERLY DRIVE,SEPHO-484,270 N BEVERLY DR,,LOS ANGELES,CA,90210,United States,,34.068588,-118.400227,,retail,,
SEPHORA #938 WESTLAKE,SEPHO-485,140 PROMENADE WAY #C3,,WESTLAKE VILLAGE,CA,91362,United States,,34.158777,-118.820882,,retail,,
SEPHORA #958 SANTANA ROW,SEPHO-486,377 SANTANA ROW #1010,,SAN JOSE,CA,95128,United States,,37.319883,-121.948999,,retail,,
SEPHORA #864 OAKVILLE PLACE,SEPHO-655,240 Leighland Avenue Space #207,,Oakville,ON,L6H 3H6,Canada,,48.101554,-123.375866,,retail,,
SEPHORA #956 COUNTRY CLUB PLAZA,SEPHO-660,424 Nichols Road,,Kansas City,MO,64112,United States,,39.04144,-94.592557,,retail,,
Sephora Playa del Carmen,SEPHO-674,Calle Quinta Avenida S/N,,Playa Del Carmen,Mexico,,Mexico,,20.640696,-87.062114,,retail,,
SEPHORA #862 YONGE & EGLINGTON,SEPHO-650,2300 Yonge St,2300 Yonge St,Toronto,ON,M4P 1E4,Canada,,43.707276,-79.399562,,retail,,
SEPHORA #916 SUBURBAN SQ,SEPHO-665,42A St. George's Road,,Ardmore,PA,19003,United States,,40.478846,-74.446251,,retail,,
SEPHORA #260 DISNEY SPRINGS,SEPHO-669,1530 E. Buena Vista Dr. Space B17-101,,Buena Vista,FL,32830,United States,,28.367752,-81.520565,,retail,,
SEPHORA #490 FASHION SHOW MALL,SEPHO-671,3200 Las Vegas Blvd South Suite #1350,,Las Vegas,NV,89109,United States,,36.127224,-115.171551,,retail,,
Sephora Oasis Coyoacan,SEPHO-675,Avenida Miguel Angel de Quevado 217,,Coyoacan,,,Mexico,,19.346382,-99.179501,,retail,,
bluemercury - Hartford,BLUEM-92,987 Farmington Ave,,West Hartford,CT,6107,United States,,41.760988,-72.744463,,retail,,
SEPHORA #850 BOWER PLACE,SEPHO-643,4900 Molly Bannister Drive,,Red Deer,AB,T4R 1N9,Canada,,52.244911,-113.81356,,retail,,
SEPHORA #852 Masonville,SEPHO-644,1680 Richmond St,,London,ON,N6G 3Y9,Canada,,43.025874,-81.278679,,retail,,
SEPHORA #854 NANAIMO,SEPHO-645,6631 Island Hwy N #40,,Nanaimo,BC,V9T 4T7,Canada,,49.23924,-124.053928,,retail,,
SEPHORA #932 COOLSPRINGS GALERIA,SEPHO-646,"1800 Galleria Blvd, Space #1252",,Franklin,TN,37067,United States,,35.957118,-86.813538,,retail,,
SEPHORA #928 BEVERLY DRIVE,SEPHO-647,270 N Beverly Drive,,Los Angeles,CA,90210,United States,,34.068588,-118.400227,,retail,,
SEPHORA #596 AVALON,SEPHO-651,48 Kenmount Road,,St. John's,NL,A1B 1W3,Canada,,47.561221,-52.753345,,retail,,
SEPHORA #860 BRAMALEA CITY CTR,SEPHO-654,25 Peel Centre Drive Space #640,,Brampton,ON,L6T 3R5,Canada,,43.715643,-79.722419,,retail,,
SEPHORA #954 KATY,SEPHO-657,23501 Cinco Ranch Blvd,,Katy,TX,,United States,,29.742829,-95.77626,,retail,,
SEPHORA #958 SANTANA ROW,SEPHO-661,377 Santana Row #1010,,San Jose,CA,95128,United States,,37.319883,-121.948999,,retail,,
SEPHORA #938 WESTLAKE,SEPHO-662,4000 Thousand Oaks Blvd,,Westlake Village,CA,91362,United States,,34.160184,-118.822221,,retail,,
SEPHORA #918 STAMFORD,SEPHO-664,100 Greyrock Place,,Stamford,CT,06901,United States,,41.053077,-73.537144,,retail,,
SEPHORA #942 HINGHAM,SEPHO-667,98 Derby St,,Hingham,MA,02043,United States,,42.177563,-70.909558,,retail,,
SEPHORA #912 KING STREET,SEPHO-668,289 King Street,,Charleston,SC,29401,United States,,32.78288,-79.934654,,retail,,
SEPHORA #908 NEWPORT,SEPHO-670,49 Long Wharf Mall,,Newport,RI,2840,United States,,41.489979,-71.31679,,retail,,
SEPHORA #848 HIGHSTREET,SEPHO-642,3122 Mount Lehman Rd J120,,Abbotsford,BC,V2T 0C5,Canada,,49.058084,-122.378358,,retail,,
SEPHORA #934 DEL MONTE,SEPHO-648,230 Del Monte Center,,Monterey,CA,93940,United States,,36.584096,-121.897199,,retail,,
SEPHORA #936 CLARENDON,SEPHO-649,2800 Clarendon Blvd,,Claredon,VA,22201,United States,,38.887847,-77.092546,,retail,,
SEPHORA #856 HILLCREST,SEPHO-656,9350 Yonge St B021,,Richmond Hill,ON,L4C 5G2,Canada,,43.854816,-79.436813,,retail,,
SEPHORA #948 DEL AMO,SEPHO-658,3525 W Carson St,,Torrance,CA,90503,United States,,33.832414,-118.347591,,retail,,
SEPHORA #946 THE GROVE,SEPHO-659,189 The Grove Dr F20,,Los Angeles,CA,90036,United States,,34.071954,-118.356973,,retail,,
SEPHORA #914 HUNTINGTON BEACH,SEPHO-663,21040 Pacific Coast Highway Space F120,,Huntington Beach,CA,92648,United States,,33.654908,-117.997614,,retail,,
SEPHORA #696 PONCE MARKET,SEPHO-672,650 North Avenue Space #S104,,Atlanta,GA,30308,United States,,33.665053,-84.410742,,retail,,
SEPHORA #922 MARINA DEL RAY,SEPHO-673,4766 Admiralty Way,,Marina del Rey,CA,90202,United States,,33.978259,-118.438511,,retail,,
Sephora Andamar,SEPHO-676,Boulevard Adolfo Ruiz Cortines 4300,,Veracruz,,94298,Mexico,,19.13896,-96.102563,,retail,,
bluemercury - Tampa,BLUEM-91,704 S Village Cir,,Tampa,FL,33606,United States,,27.936552,-82.475184,,retail,,
bluemercury - Dallas,BLUEM-93,83 Highland Park Village,,Dallas,TX,75205,United States,,32.83649,-96.806769,,retail,,
SEPHORA #944 MERRICK PK,SEPHO-652,358 San Lorenzo Ave,,Coral Gables,FL,33146,United States,,25.731942,-80.260815,,retail,,
SEPHORA #858 VAUGHAN,SEPHO-653,1 Bass Pro Mills Dr Unit #232,,Vaughn,ON,L4K 5W4,Canada,,43.825477,-79.5386,,retail,,
SEPHORA #960 EAST COBB,SEPHO-666,4475 Roswell Road Suite 1520,,Marietta,GA,30062,United States,,33.988856,-84.422703,,retail,,
