store_name,store_number,address,address2,city,state,zip_code,country,phone_number,latitude,longitude,store_hours,store_type,other_fields,coming_soon
Richland Avenue,,392 Richland Avenue,,Athens,OH,45701,United States,(740) 594-4766,39.31440086172983,-82.10409792512792,"MON 6:30 AM - 11:00 PM, TUE 6:30 AM - 11:00 PM, WED 6:30 AM - 11:00 PM, THU 6:30 AM - 11:00 PM, FRI 6:30 AM - 1:00 AM, SAT 7:00 AM - 1:00 AM, SUN 8:00 AM - 10:00 PM",,,
Sunrise Highway,,100 Sunrise Highway,,Lindenhurst,NY,11757,United States,(631) 450-4449,40.69549725259181,-73.3881676197052,"MON 9:00 AM - 11:00 PM, TUE 9:00 AM - 11:00 PM, WED 9:00 AM - 11:00 PM, THU 9:00 AM - 11:00 PM, FRI 9:00 AM - 11:00 PM, SAT 9:00 AM - 11:00 PM, SUN 9:00 AM - 11:00 PM",,,
S Wells Avenue,,770 S Wells Avenue,,Reno,NV,89502,United States,(775) 786-8422,39.518638176676525,-119.80286883564986,"MON 7:00 AM - 10:00 PM, TUE 7:00 AM - 10:00 PM, WED 7:00 AM - 10:00 PM, THU 7:00 AM - 10:00 PM, FRI 7:00 AM - 11:00 PM, SAT 8:00 AM - 11:00 PM, SUN 8:00 AM - 10:00 PM",,,
Red Arrow Highway,,4107 Red Arrow Highway,,Stevensville,MI,49127,United States,(269) 281-7916,42.04303320186755,-86.5133826658348,"MON 7:00 AM - 10:00 PM, TUE 7:00 AM - 10:00 PM, WED 7:00 AM - 10:00 PM, THU 7:00 AM - 10:00 PM, FRI 7:00 AM - 10:00 PM, SAT 8:00 AM - 10:00 PM, SUN 8:00 AM - 10:00 PM",,,
Pulliam Avenue,,1001 Pulliam Avenue,,Worland,WY,82401,United States,(307) 347-6429,44.019140708259066,-107.95537501573563,"MON 7:00 AM - 10:00 PM, TUE 7:00 AM - 10:00 PM, WED 7:00 AM - 10:00 PM, THU 7:00 AM - 10:00 PM, FRI 7:00 AM - 10:00 PM, SAT 8:00 AM - 10:00 PM, SUN 8:00 AM - 10:00 PM",,,
South Street,,1457 South Street,,Wheatland,WY,82201,United States,(307) 322-4058,42.0513600155497,-104.96141150593758,"MON 6:00 AM - 10:00 PM, TUE 6:00 AM - 10:00 PM, WED 6:00 AM - 10:00 PM, THU 6:00 AM - 10:00 PM, FRI 6:00 AM - 10:00 PM, SAT 6:00 AM - 10:00 PM, SUN 8:00 AM - 10:00 PM",,,
W 20th Street,,224 W 20th Street,,Torrington,WY,82240,United States,(307) 532-3711,42.06419903934182,-104.1869142245369,"MON 7:00 AM - 10:00 PM, TUE 7:00 AM - 10:00 PM, WED 7:00 AM - 10:00 PM, THU 7:00 AM - 10:00 PM, FRI 7:00 AM - 10:00 PM, SAT 7:00 AM - 10:00 PM, SUN 7:00 AM - 10:00 PM",,,
Park Street,,407 Park Street,,Thermopolis,WY,82443,United States,(307) 864-2262,43.650328407496154,-108.20920678230323,"MON 7:30 AM - 10:00 PM, TUE 7:30 AM - 10:00 PM, WED 7:30 AM - 10:00 PM, THU 7:30 AM - 10:00 PM, FRI 7:30 AM - 10:00 PM, SAT 8:00 AM - 10:00 PM, SUN 8:00 AM - 10:00 PM",,,
Sugarland Drive,,2175 Sugarland Drive,,Sheridan,WY,82801,United States,(307) 674-7504,44.77425926205827,-106.93924158811569,"MON 7:00 AM - 11:00 PM, TUE 7:00 AM - 11:00 PM, WED 7:00 AM - 11:00 PM, THU 7:00 AM - 11:00 PM, FRI 7:00 AM - 12:00 PM, SAT 7:00 AM - 12:00 PM, SUN 7:00 AM - 11:00 PM",,,
W Main Street,,623 W Main Street,,Riverton,WY,82501,United States,(307) 856-9649,43.024322675656386,-108.39858993887901,"MON 6:30 AM - 10:00 PM, TUE 6:30 AM - 10:00 PM, WED 6:30 AM - 10:00 PM, THU 6:30 AM - 10:00 PM, FRI 6:30 AM - 10:00 PM, SAT 6:30 AM - 10:00 PM, SUN 8:00 AM - 10:00 PM",,,
N Center Street,,450 N Center Street,,Rock Springs,WY,82901,United States,(307) 362-2252,41.590119810087906,-109.2243455350399,"MON 7:00 AM - 10:00 PM, TUE 7:00 AM - 10:00 PM, WED 7:00 AM - 10:00 PM, THU 7:00 AM - 10:00 PM, FRI 7:00 AM - 10:00 PM, SAT 7:00 AM - 10:00 PM, SUN 8:00 AM - 10:00 PM",,,
E Cedar Street,,1821 E Cedar Street,,Rawlins,WY,82301,United States,(307) 324-4932,41.792492601288295,-107.21669733524323,"MON 6:00 AM - 10:00 PM, TUE 6:00 AM - 10:00 PM, WED 6:00 AM - 10:00 PM, THU 6:00 AM - 10:00 PM, FRI 6:00 AM - 10:00 PM, SAT 6:00 AM - 10:00 PM, SUN 7:00 AM - 10:00 PM",,,
W Andrew Johnson Highway,,2770 W Andrew Johnson Highway,,Morristown,TN,37814,United States,(423) 587-2640,36.20202665694531,-83.33317058535613,"MON 7:00 AM - 10:00 PM, TUE 7:00 AM - 10:00 PM, WED 7:00 AM - 10:00 PM, THU 7:00 AM - 10:00 PM, FRI 7:00 AM - 10:00 PM, SAT 8:00 AM - 10:00 PM, SUN 8:00 AM - 10:00 PM",,,
Lynnhaven Parkway,,701 Lynnhaven Parkway,,Virginia Beach,VA,23452,United States,(757) 769-7037,36.815799,-76.071941,"MON 10:00 AM - 9:00 PM, TUE 10:00 AM - 9:00 PM, WED 10:00 AM - 9:00 PM, THU 10:00 AM - 9:00 PM, FRI 10:00 AM - 9:00 PM, SAT 10:00 AM - 9:00 PM, SUN 11:00 AM - 6:00 PM",,,
1315 Euclid Avenue,,1315 Euclid Avenue,,Bristol,VA,24201,United States,(800) 854-0819,36.60211700156294,-82.19662652172701,,,,
2nd Avenue W,,1215 2nd Avenue W,,Williston,ND,58801,United States,(701) 572-7980,48.15655562428973,-103.62627357244492,"MON 5:30 AM - 2:00 AM, TUE 5:30 AM - 2:00 AM, WED 5:30 AM - 2:00 AM, THU 5:30 AM - 2:00 AM, FRI 5:30 AM - 2:00 AM, SAT 5:30 AM - 2:00 AM, SUN 5:30 AM - 2:00 AM",,,
6th Avenue SE,,109 6th Avenue SE,,Watford City,ND,58854,United States,(701) 842-6505,47.79551114034512,-103.2792788286406,"MON 5:30 AM - 2:00 AM, TUE 5:30 AM - 2:00 AM, WED 5:30 AM - 2:00 AM, THU 5:30 AM - 2:00 AM, FRI 5:30 AM - 2:00 AM, SAT 5:30 AM - 2:00 AM, SUN 5:30 AM - 2:00 AM",,,
Dakota Avenue,,801 Dakota Avenue,,Wahpeton,ND,58075,United States,(701) 642-4680,46.263648934460875,-96.6116005406002,"MON 6:30 AM - 11:00 PM, TUE 6:30 AM - 11:00 PM, WED 6:30 AM - 11:00 PM, THU 6:30 AM - 11:00 PM, FRI 6:30 AM - 11:00 PM, SAT 6:30 AM - 11:00 PM, SUN 6:30 AM - 11:00 PM",,,
Broad Street,,601 Broad Street,,Elizabethton,TN,37643,United States,(423) 543-4999,36.35194628787764,-82.21529468893999,"MON 7:00 AM - 10:00 PM, TUE 7:00 AM - 10:00 PM, WED 7:00 AM - 10:00 PM, THU 7:00 AM - 10:00 PM, FRI 7:00 AM - 10:00 PM, SAT 8:00 AM - 10:00 PM, SUN 8:00 AM - 10:00 PM",,,
SW Wanamaker Road,,1015 SW Wanamaker Road,,Topeka,KS,66604,United States,(785) 783-2990,39.04941673436844,-95.76218694448465,"MON 7:00 AM - 12:00 AM, TUE 7:00 AM - 12:00 AM, WED 7:00 AM - 12:00 AM, THU 7:00 AM - 12:00 AM, FRI 7:00 AM - 12:00 AM, SAT 7:00 AM - 12:00 AM, SUN 7:00 AM - 12:00 AM",,,
151st Street,,18617 151st Street,,Olathe,KS,66062,United States,(913) 829-8226,38.85421181351348,-94.8006038591484,"MON 6:00 AM - 10:00 PM, TUE 6:00 AM - 10:00 PM, WED 6:00 AM - 10:00 PM, THU 6:00 AM - 10:00 PM, FRI 6:00 AM - 11:00 PM, SAT 7:00 AM - 11:00 PM, SUN 7:00 AM - 10:00 PM",,,
E Kansas Street,,2100 E Kansas Street,,McPherson,KS,67460,United States,(620) 504-6486,38.36994892317704,-97.62947112321854,"MON 7:00 AM - 12:00 AM, TUE 7:00 AM - 12:00 AM, WED 7:00 AM - 12:00 AM, THU 7:00 AM - 12:00 AM, FRI 7:00 AM - 12:00 AM, SAT 7:00 AM - 12:00 AM, SUN 7:00 AM - 12:00 AM",,,
Leavenworth Street,,214 Leavenworth Street,,Manhattan,KS,66502,United States,(785) 320-6133,39.18177716423823,-96.55947625637054,"MON 7:00 AM - 10:00 PM, TUE 7:00 AM - 10:00 PM, WED 7:00 AM - 10:00 PM, THU 7:00 AM - 10:00 PM, FRI 7:00 AM - 10:00 PM, SAT 7:00 AM - 10:00 PM, SUN 7:00 AM - 10:00 PM",,,
1000 Pancake Blvd,,1000 Pancake Blvd,,Liberal,KS,67901,United States,(620) 626-5409,37.0329822,-100.910555,"MON, TUE, WED, THU, FRI, SAT, SUN",,,
N Main St,,480 N Main St,,Lansing,KS,66043,United States,(913) 364-5036,39.25652164324279,-94.89946112036705,"MON 7:00 AM - 10:00 PM, TUE 7:00 AM - 10:00 PM, WED 7:00 AM - 10:00 PM, THU 7:00 AM - 10:00 PM, FRI 7:00 AM - 11:00 PM, SAT 8:00 AM - 11:00 PM, SUN 8:00 AM - 10:00 PM",,,
E 30th Avenue,,420 E 30th Avenue,,Hutchinson,KS,67502,United States,(620) 259-7270,38.08690764898221,-97.9237979650498,"MON 7:00 AM - 12:00 AM, TUE 7:00 AM - 12:00 AM, WED 7:00 AM - 12:00 AM, THU 7:00 AM - 12:00 AM, FRI 7:00 AM - 2:00 AM, SAT 7:00 AM - 2:00 AM, SUN 7:00 AM - 12:00 AM",,,
Commerce Road,,2304 Commerce Road,,Goodland,KS,67735,United States,(785) 890-8226,39.332216591219854,-101.72684043645859,"MON 7:00 AM - 10:00 PM, TUE 7:00 AM - 10:00 PM, WED 7:00 AM - 10:00 PM, THU 7:00 AM - 10:00 PM, FRI 7:00 AM - 10:00 PM, SAT 7:00 AM - 10:00 PM, SUN 7:00 AM - 10:00 PM",,,
Lincoln Street,,2122 Lincoln Street,,Concordia,KS,66901,United States,(785) 243-4335,39.55564925829308,-97.657919973135,"MON 7:00 AM - 11:00 PM, TUE 7:00 AM - 11:00 PM, WED 7:00 AM - 11:00 PM, THU 7:00 AM - 11:00 PM, FRI 7:00 AM - 11:00 PM, SAT 7:00 AM - 12:00 AM, SUN 7:00 AM - 11:00 PM",,,
W Willow,,625 W Willow,,Colby,KS,67701,United States,(785) 460-8226,39.36580533014369,-101.05209723114967,"MON 7:00 AM - 10:00 PM, TUE 7:00 AM - 10:00 PM, WED 7:00 AM - 10:00 PM, THU 7:00 AM - 10:00 PM, FRI 7:00 AM - 10:00 PM, SAT 7:00 AM - 10:00 PM, SUN 7:00 AM - 10:00 PM",,,
S Santa Fe Avenue,,1503 S Santa Fe Avenue,,Chanute,KS,66720,United States,(620) 433-4056,37.66564150531812,-95.45281291007996,"MON 6:30 AM - 10:00 PM, TUE 6:30 AM - 10:00 PM, WED 6:30 AM - 10:00 PM, THU 6:30 AM - 10:00 PM, FRI 6:30 AM - 11:00 PM, SAT 8:00 AM - 11:00 PM, SUN 8:00 AM - 10:00 PM",,,
Kansas Avenue,,13032 Kansas Avenue,,Bonner Springs,KS,66012,United States,(913) 422-7304,39.08750313835961,-94.88315688820876,"MON 7:00 AM - 10:00 PM, TUE 7:00 AM - 10:00 PM, WED 7:00 AM - 10:00 PM, THU 7:00 AM - 10:00 PM, FRI 7:00 AM - 10:00 PM, SAT 8:00 AM - 10:00 PM, SUN 8:00 AM - 10:00 PM",,,
S 10th Street,,216 S 10th Street,,Atchison,KS,66002,United States,(913) 367-0276,39.55953492215567,-95.1269848644734,"MON 6:00 AM - 11:00 PM, TUE 6:00 AM - 11:00 PM, WED 6:00 AM - 11:00 PM, THU 6:00 AM - 11:00 PM, FRI 6:00 AM - 12:00 AM, SAT 6:00 AM - 12:00 AM, SUN 7:00 AM - 11:00 PM",,,
13th Avenue E,,1560 13th Avenue E,,West Fargo,ND,58078,United States,(701) 281-1977,46.86241749814112,-96.87549948692316,"MON 7:00 AM - 11:00 PM, TUE 7:00 AM - 11:00 PM, WED 7:00 AM - 11:00 PM, THU 7:00 AM - 11:00 PM, FRI 7:00 AM - 11:00 PM, SAT 7:00 AM - 11:00 PM, SUN 7:00 AM - 11:00 PM",,,
Main Avenue E,,110 Main Avenue E,,West Fargo,ND,58078,United States,(701) 277-1711,46.87723024197935,-96.89919412136078,"MON 7:00 AM - 10:00 PM, TUE 7:00 AM - 10:00 PM, WED 7:00 AM - 10:00 PM, THU 7:00 AM - 11:00 PM, FRI 7:00 AM - 11:00 PM, SAT 8:00 AM - 11:00 PM, SUN 8:00 AM - 10:00 PM",,,
Oxford Street,,1444 Oxford Street,,Worthington,MN,56187,United States,(507) 376-6661,43.63097342565734,-95.59129133820534,"MON 7:00 AM - 10:30 PM, TUE 7:00 AM - 10:30 PM, WED 7:00 AM - 10:30 PM, THU 7:00 AM - 10:30 PM, FRI 8:00 AM - 10:30 PM, SAT 8:00 AM - 10:30 PM, SUN 8:00 AM - 10:30 PM",,,
Gilmore Avenue,,1213 Gilmore Avenue,,Winona,MN,55987,United States,(507) 452-6057,44.046626,-91.669132,"MON 7:00 AM - 1:00 AM, TUE 7:00 AM - 1:00 AM, WED 7:00 AM - 1:00 AM, THU 7:00 AM - 1:00 AM, FRI 7:00 AM - 1:00 AM, SAT 8:00 AM - 10:00 PM, SUN 9:00 AM - 8:00 PM",,,
S 1st Street,,1303 S 1st Street,,Willmar,MN,56201,United States,(320) 231-2716,45.10422226564944,-95.04200669380225,"MON 7:00 AM - 11:00 PM, TUE 7:00 AM - 11:00 PM, WED 7:00 AM - 11:00 PM, THU 7:00 AM - 11:00 PM, FRI 7:00 AM - 12:00 AM, SAT 7:00 AM - 12:00 AM, SUN 7:00 AM - 11:00 PM",,,
S Lake Street,,4430 S Lake Street,,White Bear Lake,MN,55110,United States,(651) 653-5997,45.07523764868373,-93.01740333437925,"MON 7:00 AM - 10:00 PM, TUE 7:00 AM - 10:00 PM, WED 7:00 AM - 10:00 PM, THU 7:00 AM - 10:00 PM, FRI 7:00 AM - 11:00 PM, SAT 8:00 AM - 11:00 PM, SUN 8:00 AM - 10:00 PM",,,
N State Street,,1401 N State Street,,Waseca,MN,56093,United States,(507) 833-2201,44.09208821241339,-93.50769370794296,"MON 7:00 AM - 10:00 PM, TUE 7:00 AM - 10:00 PM, WED 7:00 AM - 10:00 PM, THU 7:00 AM - 10:00 PM, FRI 7:00 AM - 11:00 PM, SAT 8:00 AM - 11:00 PM, SUN 8:00 AM - 10:00 PM",,,
Division Street,,29 Division Street,,Waite Park,MN,56387,United States,(320) 251-4220,45.55380055541866,-94.21515718102455,"MON 7:00 AM - 11:00 PM, TUE 7:00 AM - 11:00 PM, WED 7:00 AM - 11:00 PM, THU 7:00 AM - 11:00 PM, FRI 7:00 AM - 12:00 PM, SAT 7:00 AM - 12:00 PM, SUN 7:00 AM - 10:00 PM",,,
Haskell Avenue,,2309 Haskell Avenue,,Lawrence,KS,66046,United States,(785) 842-5533,38.941945468585445,-95.2238193154335,"MON 7:00 AM - 12:00 AM, TUE 7:00 AM - 12:00 AM, WED 7:00 AM - 12:00 AM, THU 7:00 AM - 12:00 AM, FRI 7:00 AM - 1:00 AM, SAT 8:00 AM - 1:00 AM, SUN 8:00 AM - 11:00 PM",,,
W 6th Street,,1101 W 6th Street,,Lawrence,KS,66044,United States,(785) 843-0936,38.9728433610435,-95.24786129593849,"MON 7:00 AM - 12:00 AM, TUE 7:00 AM - 12:00 AM, WED 7:00 AM - 12:00 AM, THU 7:00 AM - 12:00 AM, FRI 8:00 AM - 1:00 AM, SAT 8:00 AM - 1:00 AM, SUN 8:00 AM - 11:00 PM",,,
S Santa Fe Avenue,,303 S Santa Fe Avenue,,Salina,KS,67401,United States,(785) 825-6382,38.835673288650135,-97.60870814323425,"MON 7:00 AM - 12:00 AM, TUE 7:00 AM - 12:00 AM, WED 7:00 AM - 12:00 AM, THU 7:00 AM - 12:00 AM, FRI 7:00 AM - 12:00 AM, SAT 7:00 AM - 12:00 AM, SUN 7:00 AM - 12:00 AM",,,
3rd Street W,,122 3rd Street W,,Thief River Falls,MN,56701,United States,(218) 681-5987,48.11893910469677,-96.18281629447745,"MON 7:00 AM - 11:00 PM, TUE 7:00 AM - 11:00 PM, WED 7:00 AM - 11:00 PM, THU 7:00 AM - 11:00 PM, FRI 7:00 AM - 12:00 AM, SAT 8:00 AM - 12:00 AM, SUN 8:00 AM - 11:00 PM",,,
N Minnesota Avenue,,103 N Minnesota Avenue,,St Peter,MN,56082,United States,(507) 934-6201,44.32603073244298,-93.95497754216194,"MON 7:00 AM - 10:00 PM, TUE 7:00 AM - 10:00 PM, WED 7:00 AM - 10:00 PM, THU 7:00 AM - 10:00 PM, FRI 7:00 AM - 10:00 PM, SAT 8:00 AM - 10:00 PM, SUN 8:00 AM - 10:00 PM",,,
Rice Street,,3340 Rice Street,,St Paul,MN,55126,United States,(651) 483-5776,45.04233,-93.10587,"MON 6:00 AM - 10:00 PM, TUE 6:00 AM - 10:00 PM, WED 6:00 AM - 10:00 PM, THU 6:00 AM - 10:00 PM, FRI 6:00 AM - 11:00 PM, SAT 7:00 AM - 11:00 PM, SUN 7:00 AM - 10:00 PM",,,
County Road 75 W,,211 County Road 75 W,,St Joseph,MN,56374,United States,(320) 557-0557,45.56810864744159,-94.32003825902939,"MON 7:00 AM - 10:00 PM, TUE 7:00 AM - 10:00 PM, WED 7:00 AM - 10:00 PM, THU 7:00 AM - 10:00 PM, FRI 7:00 AM - 10:00 PM, SAT 7:00 AM - 10:00 PM, SUN 8:00 AM - 10:00 PM",,,
N 9th Avenue,,25 N 9th Avenue,,St Cloud,MN,56303,United States,(320) 251-0596,45.55985,-94.163622,"MON 7:00 AM - 10:00 PM, TUE 7:00 AM - 10:00 PM, WED 7:00 AM - 10:00 PM, THU 7:00 AM - 10:00 PM, FRI 7:00 AM - 8:00 PM, SAT 10:00 AM - 8:00 PM, SUN 10:00 AM - 8:00 PM",,,
Heather Street,,1301 Heather Street,,Shakopee,MN,55379,United States,(952) 496-2798,44.78252802831051,-93.50781708955765,"MON 7:00 AM - 10:00 PM, TUE 7:00 AM - 10:00 PM, WED 7:00 AM - 10:00 PM, THU 7:00 AM - 10:00 PM, FRI 7:00 AM - 10:00 PM, SAT 8:00 AM - 10:00 PM, SUN 8:00 AM - 10:00 PM",,,
Egan Drive,,4111 Egan Drive,,Savage,MN,55378,United States,(952) 890-6100,44.74595791092329,-93.33105951547628,"MON 7:00 AM - 10:00 PM, TUE 7:00 AM - 10:00 PM, WED 7:00 AM - 10:00 PM, THU 7:00 AM - 10:00 PM, FRI 7:00 AM - 10:00 PM, SAT 8:00 AM - 10:00 PM, SUN 8:00 AM - 10:00 PM",,,
Canada Avenue,,15085 Canada Avenue,,Rosemount,MN,55068,United States,(651) 423-6005,44.72987507116067,-93.13248308750195,"MON 7:00 AM - 10:00 PM, TUE 7:00 AM - 10:00 PM, WED 7:00 AM - 10:00 PM, THU 7:00 AM - 10:00 PM, FRI 7:00 AM - 10:00 PM, SAT 8:00 AM - 10:00 PM, SUN 8:00 AM - 10:00 PM",,,
County Road 120,,155 County Road 120,,Sartell,MN,56377,United States,(320) 281-5588,45.591758114700184,-94.19309735298157,"MON 7:00 AM - 10:00 PM, TUE 7:00 AM - 10:00 PM, WED 7:00 AM - 10:00 PM, THU 7:00 AM - 10:00 PM, FRI 7:00 AM - 11:00 PM, SAT 7:00 AM - 11:00 PM, SUN 7:00 AM - 10:00 PM",,,
Tower St,,5820 Tower St.,,Rockford,MN,55373,United States,(763) 595-1299,45.0888543,-93.74157989999999,"MON 7:00 AM - 10:00 PM, TUE 7:00 AM - 10:00 PM, WED 7:00 AM - 10:00 PM, THU 7:00 AM - 10:00 PM, FRI 7:00 AM - 10:00 PM, SAT 7:00 AM - 10:00 PM, SUN 7:00 AM - 10:00 PM",,,
7th Street Northwest,,1045 7th Street Northwest,,Rochester,MN,55901,United States,(507) 281-9409,44.03169629807868,-92.47849347444571,"MON 7:00 AM - 10:00 PM, TUE 7:00 AM - 10:00 PM, WED 7:00 AM - 10:00 PM, THU 7:00 AM - 10:00 PM, FRI 7:00 AM - 10:00 PM, SAT 7:00 AM - 10:00 PM, SUN 7:00 AM - 10:00 PM",,,
W 23rd Street,,1626 W 23rd Street,,Lawrence,KS,66044,United States,(785) 842-8185,38.943144,-95.255555,"MON 7:00 AM - 12:00 AM, TUE 7:00 AM - 12:00 AM, WED 7:00 AM - 12:00 AM, THU 7:00 AM - 12:00 AM, FRI 7:00 AM - 1:00 AM, SAT 8:00 AM - 1:00 AM, SUN 8:00 AM - 11:00 PM",,,
S Rum River Drive,,301 S Rum River Drive,,Princeton,MN,55371,United States,(763) 389-5478,45.56680080741407,-93.58052909374237,"MON 6:00 AM - 10:00 PM, TUE 6:00 AM - 10:00 PM, WED 6:00 AM - 10:00 PM, THU 6:00 AM - 10:00 PM, FRI 6:00 AM - 10:00 PM, SAT 8:00 AM - 10:00 PM, SUN 8:00 AM - 9:00 PM",,,
S Cedar Avenue,,1839 S Cedar Avenue,,Owatonna,MN,55060,United States,(507) 451-2023,44.06502830944468,-93.22540730237961,"MON 7:00 AM - 10:00 PM, TUE 7:00 AM - 10:00 PM, WED 7:00 AM - 10:00 PM, THU 7:00 AM - 10:00 PM, FRI 7:00 AM - 11:00 PM, SAT 7:00 AM - 11:00 PM, SUN 8:00 AM - 9:00 PM",,,
38668 US Hwy 169,,38668 US Highway 169,,Onamia,MN,56359,United States,(800) 854-0819,46.1103286,-93.6455628,,,,
Gershwin Avenue N,,1010 Gershwin Avenue N,,Oakdale,MN,55128,United States,(651) 738-6831,44.96349319649741,-92.98170447349548,"MON 7:00 AM - 10:00 PM, TUE 7:00 AM - 10:00 PM, WED 7:00 AM - 10:00 PM, THU 7:00 AM - 10:00 PM, FRI 7:00 AM - 10:00 PM, SAT 7:00 AM - 10:00 PM, SUN 8:00 AM - 10:00 PM",,,
Neal Avenue N,,5910 Neal Avenue N,,Oak Park Heights,MN,55082,United States,(651) 439-7771,45.033375621445536,-92.84736335277557,"MON 7:00 AM - 10:00 PM, TUE 7:00 AM - 10:00 PM, WED 7:00 AM - 10:00 PM, THU 7:00 AM - 10:00 PM, FRI 7:00 AM - 10:00 PM, SAT 7:00 AM - 10:00 PM, SUN 8:00 AM - 10:00 PM",,,
Lor Ray Drive,,1601 Lor Ray Drive,,North Mankato,MN,56003,United States,(507) 625-8226,44.175531460182285,-94.03395878525771,"MON 7:00 AM - 10:30 PM, TUE 7:00 AM - 10:30 PM, WED 7:00 AM - 10:30 PM, THU 7:00 AM - 10:30 PM, FRI 7:00 AM - 10:30 PM, SAT 8:00 AM - 10:00 PM, SUN 8:00 AM - 10:00 PM",,,
S Broadway Street,,1301 S Broadway Street,,New Ulm,MN,56073,United States,(507) 354-8226,44.2998430515354,-94.44782674312592,"MON 6:30 AM - 11:30 PM, TUE 6:30 AM - 11:30 PM, WED 6:30 AM - 11:30 PM, THU 6:30 AM - 11:30 PM, FRI 6:30 AM - 11:30 PM, SAT 6:30 AM - 11:30 PM, SUN 7:30 AM - 10:30 PM",,,
Winnetka Avenue N,,4217 Winnetka Avenue N,,New Hope,MN,55428,United States,(763) 432-7294,45.033372778190866,-93.38248014450073,"MON 7:00 AM - 10:00 PM, TUE 7:00 AM - 10:00 PM, WED 7:00 AM - 10:00 PM, THU 7:00 AM - 10:00 PM, FRI 7:00 AM - 10:00 PM, SAT 8:00 AM - 10:00 PM, SUN 8:00 AM - 10:00 PM",,,
Silver Lake Road NW,,2040 Silver Lake Road NW,,New Brighton,MN,55112,United States,(651) 636-8065,45.08371224237101,-93.21940451860422,"MON 7:00 AM - 10:00 PM, TUE 7:00 AM - 10:00 PM, WED 7:00 AM - 10:00 PM, THU 7:00 AM - 10:00 PM, FRI 7:00 AM - 10:00 PM, SAT 8:00 AM - 10:00 PM, SUN 8:00 AM - 10:00 PM",,,
Riffel Dr,,3049 Riffel Dr,,Salina,KS,67401,United States,(785) 404-1600,38.781272202875925,-97.61372119188309,"MON 7:00 AM - 12:00 PM, TUE 7:00 AM - 12:00 PM, WED 7:00 AM - 12:00 PM, THU 7:00 AM - 12:00 PM, FRI 7:00 AM - 12:00 PM, SAT 7:00 AM - 12:00 PM, SUN 7:00 AM - 12:00 PM",,,
Atlantic Avenue,,108 Atlantic Avenue,,Morris,MN,56267,United States,(320) 589-2133,45.58310766710296,-95.9108617901802,"MON 6:00 AM - 10:00 PM, TUE 6:00 AM - 10:00 PM, WED 6:00 AM - 10:00 PM, THU 6:00 AM - 10:00 PM, FRI 6:00 AM - 10:00 PM, SAT 8:00 AM - 10:00 PM, SUN 8:00 AM - 9:00 PM",,,
Center Avenue,,801 Center Avenue,,Moorhead,MN,56560,United States,(218) 233-0012,46.87482419797296,-96.76729740949668,"MON 7:00 AM - 11:00 PM, TUE 7:00 AM - 11:00 PM, WED 7:00 AM - 11:00 PM, THU 7:00 AM - 11:00 PM, FRI 7:00 AM - 1:00 AM, SAT 8:00 AM - 1:00 AM, SUN 8:00 AM - 11:00 PM",,,
Deegan Avenue NE,,9495 Deegan Avenue NE,,Monticello,MN,55362,United States,(763) 295-6913,45.288129388357696,-93.80700141191483,"MON 7:00 AM - 10:00 PM, TUE 7:00 AM - 10:00 PM, WED 7:00 AM - 10:00 PM, THU 7:00 AM - 10:00 PM, FRI 7:00 AM - 10:00 PM, SAT 7:00 AM - 10:00 PM, SUN 7:00 AM - 10:00 PM",,,
E College Drive,,1300 E College Drive,,Marshall,MN,56258,United States,(507) 537-1363,44.45020470783649,-95.76864570379257,"MON 7:00 AM - 10:30 PM, TUE 7:00 AM - 10:30 PM, WED 7:00 AM - 10:30 PM, THU 7:00 AM - 10:30 PM, FRI 7:00 AM - 11:00 PM, SAT 8:00 AM - 11:00 PM, SUN 8:00 AM - 10:30 PM",,,
Grove Drive,,13320 Grove Drive,,Maple Grove,MN,55369,United States,(763) 416-1460,45.10420554277235,-93.44922959804535,"MON 7:00 AM - 10:00 PM, TUE 7:00 AM - 10:00 PM, WED 7:00 AM - 10:00 PM, THU 7:00 AM - 10:00 PM, FRI 7:00 AM - 10:00 PM, SAT 7:00 AM - 10:00 PM, SUN 8:00 AM - 10:00 PM",,,
S Kniss Avenue,,900 S Kniss Avenue,,Luverne,MN,56156,United States,(507) 283-4562,43.643448862683044,-96.21374713631667,"MON 7:00 AM - 10:00 PM, TUE 7:00 AM - 10:00 PM, WED 7:00 AM - 10:00 PM, THU 7:00 AM - 10:00 PM, FRI 7:00 AM - 10:00 PM, SAT 8:00 AM - 10:00 PM, SUN 8:00 AM - 10:00 PM",,,
Lemieur Street,,109 Lemieur Street,,Little Falls,MN,56345,United States,(320) 632-2754,45.97425705094682,-94.33733448386192,"MON 7:00 AM - 10:00 PM, TUE 7:00 AM - 10:00 PM, WED 7:00 AM - 10:00 PM, THU 7:00 AM - 10:00 PM, FRI 7:00 AM - 10:00 PM, SAT 7:00 AM - 10:00 PM, SUN 7:00 AM - 10:00 PM",,,
E Depot,,719 E Depot,,Litchfield,MN,55355,United States,(320) 693-3554,45.12355738001037,-94.51416539400952,"MON 6:30 AM - 10:00 PM, TUE 6:30 AM - 10:00 PM, WED 6:30 AM - 10:00 PM, THU 6:30 AM - 10:00 PM, FRI 6:30 AM - 10:00 PM, SAT 7:00 AM - 10:00 PM, SUN 7:00 AM - 10:00 PM",,,
Marquette Avenue,,607 Marquette Avenue,,Minneapolis,MN,55402,United States,(612) 332-7000,44.97686169071804,-93.27001158897474,"MON 6:30 AM - 6:00 PM, TUE 6:30 AM - 6:00 PM, WED 6:30 AM - 6:00 PM, THU 6:30 AM - 6:00 PM, FRI 6:30 AM - 6:00 PM, SAT, SUN",,,
4th Avenue NW,,134 4th Avenue NW,,Hutchinson,MN,55350,United States,(320) 587-3424,44.89678607186918,-94.37346920371061,"MON 7:00 AM - 10:00 PM, TUE 7:00 AM - 10:00 PM, WED 7:00 AM - 10:00 PM, THU 7:00 AM - 10:00 PM, FRI 7:00 AM - 10:00 PM, SAT 8:00 AM - 10:00 PM, SUN 8:00 AM - 10:00 PM",,,
13th Avenue E,,2502 13th Avenue E,,Hibbing,MN,55746,United States,(218) 262-5052,47.420264,-92.923561,"MON 7:00 AM - 10:00 PM, TUE 7:00 AM - 10:00 PM, WED 7:00 AM - 10:00 PM, THU 7:00 AM - 10:00 PM, FRI 7:00 AM - 11:00 PM, SAT 8:00 AM - 11:00 PM, SUN 8:00 AM - 10:00 PM",,,
S Pokegama Avenue,,910 S Pokegama Avenue,,Grand Rapids,MN,55744,United States,(218) 326-4402,47.222238217453565,-93.52815049141776,"MON 7:00 AM - 10:00 PM, TUE 7:00 AM - 10:00 PM, WED 7:00 AM - 10:00 PM, THU 7:00 AM - 10:00 PM, FRI 7:00 AM - 12:00 AM, SAT 8:00 AM - 11:00 PM, SUN 8:00 AM - 10:00 PM",,,
W Broadway Avenue,,1966 W Broadway Avenue,,Forest Lake,MN,55025,United States,(651) 464-7590,45.279014221166356,-93.00860971212387,"MON 6:00 AM - 10:00 PM, TUE 6:00 AM - 10:00 PM, WED 6:00 AM - 10:00 PM, THU 6:00 AM - 10:00 PM, FRI 6:00 AM - 10:00 PM, SAT 7:00 AM - 10:00 PM, SUN 7:00 AM - 10:00 PM",,,
N Union Avenue,,1212 N Union Avenue,,Fergus Falls,MN,56537,United States,(218) 739-3563,46.29539177158085,-96.07711046934128,"MON 6:30 AM - 10:00 PM, TUE 6:30 AM - 10:00 PM, WED 6:30 AM - 10:00 PM, THU 6:30 AM - 10:00 PM, FRI 6:30 AM - 10:00 PM, SAT 6:30 AM - 10:00 PM, SUN 6:30 AM - 10:00 PM",,,
4th Street NW,,1431 4th Street NW,,Faribault,MN,55021,United States,(507) 334-3287,44.2922897318004,-93.28958988189697,"MON 7:00 AM - 10:00 PM, TUE 7:00 AM - 10:00 PM, WED 7:00 AM - 10:00 PM, THU 7:00 AM - 10:00 PM, FRI 7:00 AM - 11:00 PM, SAT 7:00 AM - 11:00 PM, SUN 8:00 AM - 9:00 PM",,,
E Blue Earth Avenue,,901 E Blue Earth Avenue,,Fairmont,MN,56031,United States,(507) 238-2322,43.65243588463787,-94.45051120968856,"MON 7:00 AM - 10:00 PM, TUE 7:00 AM - 10:00 PM, WED 7:00 AM - 10:00 PM, THU 7:00 AM - 10:00 PM, FRI 7:00 AM - 10:00 PM, SAT 7:00 AM - 10:00 PM, SUN 8:00 AM - 10:00 PM",,,
Zane Street NW,,18033 Zane Street NW,,Elk River,MN,55330,United States,(763) 441-6380,45.29849776144114,-93.55048835277557,"MON 6:30 AM - 10:00 PM, TUE 6:30 AM - 10:00 PM, WED 6:30 AM - 10:00 PM, THU 6:30 AM - 10:00 PM, FRI 6:30 AM - 10:00 PM, SAT 8:00 AM - 10:00 PM, SUN 8:00 AM - 9:00 PM",,,
Highway 10 West,,1425 Highway 10 West,,Detroit Lakes,MN,56501,United States,(218) 844-4660,46.8269515351532,-95.87406724691391,"MON 6:30 AM - 10:00 PM, TUE 6:30 AM - 10:00 PM, WED 6:30 AM - 10:00 PM, THU 6:30 AM - 10:00 PM, FRI 6:30 AM - 10:00 PM, SAT 6:30 AM - 10:00 PM, SUN 6:30 AM - 10:00 PM",,,
N Main Street,,605 N Main Street,,Crookston,MN,56716,United States,(218) 281-7357,47.779311248310336,-96.60489904137648,"MON 6:30 AM - 11:00 PM, TUE 6:30 AM - 11:00 PM, WED 6:30 AM - 11:00 PM, THU 6:30 AM - 11:00 PM, FRI 6:30 AM - 11:00 PM, SAT 8:00 AM - 11:00 PM, SUN 8:00 AM - 11:00 PM",,,
2nd Avenue NE,,225 2nd Avenue NE,,Cambridge,MN,55008,United States,(763) 689-4553,45.57391372510333,-93.22224589439429,"MON 7:00 AM - 10:00 PM, TUE 7:00 AM - 10:00 PM, WED 7:00 AM - 10:00 PM, THU 7:00 AM - 10:00 PM, FRI 7:00 AM - 10:00 PM, SAT 7:00 AM - 10:00 PM, SUN 8:00 AM - 10:00 PM",,,
Highway 33 S,,1200 Highway 33 S,,Cloquet,MN,55720,United States,(218) 879-0902,46.70662298685759,-92.4563312977989,"MON 7:00 AM - 11:00 PM, TUE 7:00 AM - 11:00 PM, WED 7:00 AM - 11:00 PM, THU 7:00 AM - 11:00 PM, FRI 7:00 AM - 12:00 AM, SAT 7:00 AM - 12:00 AM, SUN 8:00 AM - 11:00 PM",,,
Highway 25 N,,1201 Highway 25 N,,Buffalo,MN,55313,United States,(763) 682-9100,45.18535847656974,-93.8767871260643,"MON 7:00 AM - 10:00 PM, TUE 7:00 AM - 10:00 PM, WED 7:00 AM - 10:00 PM, THU 7:00 AM - 10:00 PM, FRI 7:00 AM - 10:00 PM, SAT 7:00 AM - 10:00 PM, SUN 7:00 AM - 10:00 PM",,,
NE Washington Street,,301 NE Washington Street,,Brainerd,MN,56401,United States,(218) 829-7375,46.36024939646419,-94.18505609035492,"MON 6:00 AM - 11:00 PM, TUE 6:00 AM - 11:00 PM, WED 6:00 AM - 11:00 PM, THU 6:00 AM - 11:00 PM, FRI 6:30 AM - 12:00 AM, SAT 8:00 AM - 12:00 AM, SUN 8:00 AM - 11:00 PM",,,
Madison Avenue,,1040 Madison Avenue,,Mankato,MN,56001,United States,(507) 386-8226,44.16712287017154,-93.97959217429161,"MON 7:00 AM - 11:00 PM, TUE 7:00 AM - 11:00 PM, WED 7:00 AM - 11:00 PM, THU 7:00 AM - 11:00 PM, FRI 7:00 AM - 11:00 PM, SAT 8:00 AM - 11:00 PM, SUN 8:00 AM - 10:00 PM",,,
Paul Bunyan Drive NW,,1285 Paul Bunyan Drive NW,,Bemidji,MN,56601,United States,(218) 751-5907,47.49296111665992,-94.89868998527527,"MON 7:00 AM - 10:00 PM, TUE 7:00 AM - 10:00 PM, WED 7:00 AM - 10:00 PM, THU 7:00 AM - 10:00 PM, FRI 7:00 AM - 12:00 AM, SAT 8:00 AM - 11:00 PM, SUN 8:00 AM - 10:00 PM",,,
W Oakland Avenue,,308 W Oakland Avenue,,Austin,MN,55912,United States,(507) 433-3870,43.666796219064786,-92.97838883849181,"MON 7:00 AM - 11:00 PM, TUE 7:00 AM - 10:00 PM, WED 7:00 AM - 10:00 PM, THU 7:00 AM - 10:00 PM, FRI 7:00 AM - 11:00 PM, SAT 7:00 AM - 11:00 PM, SUN 8:00 AM - 9:00 PM",,,
Large Avenue,,5952 Large Avenue,,Albertville,MN,55301,United States,(763) 276-7187,45.237313894927446,-93.65148340165888,"MON 7:00 AM - 10:00 PM, TUE 7:00 AM - 10:00 PM, WED 7:00 AM - 10:00 PM, THU 7:00 AM - 10:00 PM, FRI 7:00 AM - 10:00 PM, SAT 7:00 AM - 10:00 PM, SUN 8:00 AM - 10:00 PM",,,
US Hwy 62 West,,530 US Hwy 62 West,,Princeton,KY,42445,United States,(270) 365-7112,37.11693063471455,-87.89577524364404,"MON 7:00 AM - 12:00 AM, TUE 7:00 AM - 12:00 AM, WED 7:00 AM - 12:00 AM, THU 7:00 AM - 12:00 AM, FRI 7:00 AM - 12:00 AM, SAT 7:00 AM - 12:00 AM, SUN 7:00 AM - 12:00 AM",,,
E Main Street,,2225 E Main Street,,Albert Lea,MN,56007,United States,(507) 373-9818,43.656054703424985,-93.33781063556671,"MON 7:00 AM - 10:00 PM, TUE 7:00 AM - 10:00 PM, WED 7:00 AM - 10:00 PM, THU 7:00 AM - 10:00 PM, FRI 7:00 AM - 11:00 PM, SAT 7:00 AM - 11:00 PM, SUN 8:00 AM - 9:00 PM",,,
Broadway Street,,1702 Broadway Street,,Alexandria,MN,56308,United States,(320) 763-7885,45.87224718199332,-95.37827968597418,"MON 7:00 AM - 11:00 PM, TUE 7:00 AM - 11:00 PM, WED 7:00 AM - 11:00 PM, THU 7:00 AM - 11:00 PM, FRI 7:00 AM - 12:00 AM, SAT 7:00 AM - 12:00 AM, SUN 7:00 AM - 11:00 PM",,,
Chestnut Street,,1100 Chestnut Street,,Murray,KY,42071,United States,(270) 753-9697,36.617478125737264,-88.31384271383291,"MON 6:30 AM - 12:00 AM, TUE 6:30 AM - 12:00 AM, WED 6:30 AM - 12:00 AM, THU 6:30 AM - 12:00 AM, FRI 6:30 AM - 12:00 AM, SAT 6:30 AM - 12:00 AM, SUN 8:00 AM - 12:00 AM",,,
Paris Road,,1016 Paris Road,,Mayfield,KY,42066,United States,(270) 247-0545,36.727822803083285,-88.62994330376523,"MON 6:30 AM - 11:00 PM, TUE 6:30 AM - 11:00 PM, WED 6:30 AM - 11:00 PM, THU 6:30 AM - 11:00 PM, FRI 6:30 AM - 11:00 PM, SAT 7:30 AM - 11:00 PM, SUN 8:00 AM - 11:00 PM",,,
N Main Street,,1076 N Main Street,,Madisonville,KY,42431,United States,(270) 821-6568,37.345334958514265,-87.4977506920709,"MON 7:00 AM - 10:00 PM, TUE 7:00 AM - 10:00 PM, WED 7:00 AM - 10:00 PM, THU 7:00 AM - 10:00 PM, FRI 7:00 AM - 10:00 PM, SAT 7:00 AM - 10:00 PM, SUN 7:00 AM - 10:00 PM",,,
N Broad Court,,2112 N Broad Court,,Mankato,MN,56001,United States,(507) 388-2836,44.187197112806395,-93.9824540913105,"MON 7:00 AM - 10:00 PM, TUE 7:00 AM - 10:00 PM, WED 7:00 AM - 10:00 PM, THU 7:00 AM - 10:00 PM, FRI 7:00 AM - 11:00 PM, SAT 7:00 AM - 11:00 PM, SUN 8:00 AM - 10:00 PM",,,
Fort Campbell Blvd,,2525 Fort Campbell Blvd,,Hopkinsville,KY,42240,United States,(270) 881-4000,36.84452084225325,-87.48535394668579,"MON 7:00 AM - 10:00 PM, TUE 7:00 AM - 10:00 PM, WED 7:00 AM - 10:00 PM, THU 7:00 AM - 10:00 PM, FRI 7:00 AM - 11:00 PM, SAT 8:00 AM - 11:00 PM, SUN 8:00 AM - 10:00 PM",,,
US Highway 41 N,,1949 US Highway 41 N,,Henderson,KY,42420,United States,(270) 830-6585,37.86340735352926,-87.57474917790984,"MON 7:00 AM - 10:00 PM, TUE 7:00 AM - 10:00 PM, WED 7:00 AM - 10:00 PM, THU 7:00 AM - 10:00 PM, FRI 7:00 AM - 10:00 PM, SAT 7:00 AM - 10:00 PM, SUN 8:00 AM - 10:00 PM",,,
Main Street,,360 Main Street,,Benton,KY,42025,United States,(270) 527-1670,36.866290559906,-88.35055679082876,"MON 6:30 AM - 10:00 PM, TUE 6:30 AM - 10:00 PM, WED 6:30 AM - 10:00 PM, THU 6:30 AM - 10:00 PM, FRI 6:30 AM - 10:00 PM, SAT 8:00 AM - 10:00 PM, SUN 8:00 AM - 10:00 PM",,,
London Road,,1810 London Road,,Duluth,MN,55812,United States,(218) 728-4797,46.802273733467864,-92.07278832793236,"MON 7:00 AM - 2:00 AM, TUE 7:00 AM - 2:00 AM, WED 7:00 AM - 2:00 AM, THU 7:00 AM - 2:00 AM, FRI 7:00 AM - 3:00 AM, SAT 7:00 AM - 3:00 AM, SUN 8:00 AM - 1:00 AM",,,
Miller Trunk Highway,,1600 Miller Trunk Highway,,Duluth,MN,55811,United States,(218) 727-1896,46.802656,-92.159208,"MON 10:00 AM - 9:00 PM, TUE 10:00 AM - 9:00 PM, WED 10:00 AM - 9:00 PM, THU 10:00 AM - 9:00 PM, FRI 9:00 AM - 9:00 PM, SAT 9:00 AM - 9:00 PM, SUN 10:00 AM - 6:00 PM",,,
E. Malone,,1409 E. Malone,,Sikeston,MO,63801,United States,(573) 471-3344,36.88286559587969,-89.56520855426794,"MON 7:00 AM - 10:00 PM, TUE 7:00 AM - 10:00 PM, WED 7:00 AM - 10:00 PM, THU 7:00 AM - 10:00 PM, FRI 7:00 AM - 11:00 PM, SAT 8:00 AM - 11:00 PM, SUN 8:00 AM - 10:00 PM",,,
Grand Avenue,,4601 Grand Avenue,,Duluth,MN,55807,United States,(218) 624-1044,46.74591696274999,-92.15979382395744,"MON 7:00 AM - 2:00 AM, TUE 7:00 AM - 2:00 AM, WED 7:00 AM - 2:00 AM, THU 7:00 AM - 2:00 AM, FRI 7:00 AM - 3:00 AM, SAT 7:00 AM - 3:00 AM, SUN 8:00 AM - 1:00 AM",,,
N 2nd Street,,309 N 2nd Street,,Odessa,MO,64076,United States,(816) 633-8662,39.00366733317271,-93.95372495055199,"MON 6:30 AM - 10:00 PM, TUE 6:30 AM - 10:00 PM, WED 6:30 AM - 10:00 PM, THU 6:30 AM - 10:00 PM, FRI 6:30 AM - 11:00 PM, SAT 6:30 AM - 11:00 PM, SUN 8:00 AM - 10:00 PM",,,
S Main Street,,1015 S Main Street,,Maryville,MO,64468,United States,(660) 582-8056,40.33494773000157,-94.87330781670607,"MON 6:00 AM - 12:00 AM, TUE 6:00 AM - 12:00 AM, WED 6:00 AM - 12:00 AM, THU 6:00 AM - 12:00 AM, FRI 6:00 AM - 2:00 AM, SAT 6:00 AM - 2:00 AM, SUN 7:00 AM - 12:00 AM",,,
E Central Entrance,,312 E Central Entrance,,Duluth,MN,55811,United States,(218) 727-5667,46.80006495507618,-92.12514504790306,"MON 7:00 AM - 12:30 AM, TUE 7:00 AM - 12:30 AM, WED 7:00 AM - 12:30 AM, THU 7:00 AM - 12:30 AM, FRI 7:00 AM - 2:00 AM, SAT 7:00 AM - 2:00 AM, SUN 8:00 AM - 12:30 AM",,,
Millcreek Road,,1215 Millcreek Road,,Lebanon,MO,65536,United States,(417) 533-7000,37.68419604187124,-92.64474660158157,"MON 5:00 AM - 11:00 PM, TUE 5:00 AM - 11:00 PM, WED 5:00 AM - 11:00 PM, THU 5:00 AM - 11:00 PM, FRI 5:00 AM - 11:00 PM, SAT 5:00 AM - 11:00 PM, SUN 5:00 AM - 11:00 PM",,,
Northtown Dr NE,,515 Northtown Dr NE,,Blaine,MN,55434,United States,(763) 786-2689,45.1266096076142,-93.26052461568906,"MON 8:00 AM - 9:00 PM, TUE 8:00 AM - 9:00 PM, WED 8:00 AM - 9:00 PM, THU 8:00 AM - 9:00 PM, FRI 8:00 AM - 9:00 PM, SAT 10:00 AM - 8:00 PM, SUN 11:00 AM - 6:00 PM",,,
Ulysses Street NE,,11724 Ulysses Street NE,,Blaine,MN,55434,United States,(763) 767-3344,45.18335455102661,-93.23844283819199,"MON 7:00 AM - 10:00 PM, TUE 7:00 AM - 10:00 PM, WED 7:00 AM - 10:00 PM, THU 7:00 AM - 10:00 PM, FRI 7:00 AM - 11:00 PM, SAT 8:00 AM - 11:00 PM, SUN 8:00 AM - 10:00 PM",,,
N Kings Highway,,111 N Kings Highway,,Cape Girardeau,MO,63701,United States,(573) 651-3555,37.30855219816557,-89.55231919884682,"MON 7:00 AM - 10:00 PM, TUE 7:00 AM - 10:00 PM, WED 7:00 AM - 10:00 PM, THU 7:00 AM - 10:00 PM, FRI 7:00 AM - 10:00 PM, SAT 8:00 AM - 10:00 PM, SUN 8:00 AM - 10:00 PM",,,
NW Woods Chapel Road,,811 NW Woods Chapel Road,,Blue Springs,MO,64015,United States,(816) 224-8168,39.02705831974397,-94.30489718914032,"MON 7:00 AM - 10:00 PM, TUE 7:00 AM - 10:00 PM, WED 7:00 AM - 10:00 PM, THU 7:00 AM - 10:00 PM, FRI 7:00 AM - 11:00 PM, SAT 7:00 AM - 11:00 PM, SUN 8:00 AM - 10:00 PM",,,
S Central Avenue,,724 S Central Avenue,,Sidney,MT,59270,United States,(406) 433-2295,47.70873319514223,-104.16121597668649,"MON 7:00 AM - 10:00 PM, TUE 7:00 AM - 10:00 PM, WED 7:00 AM - 10:00 PM, THU 7:00 AM - 10:00 PM, FRI 7:00 AM - 10:00 PM, SAT 8:00 AM - 10:00 PM, SUN 8:00 AM - 10:00 PM",,,
S Haynes Street,,911 S Haynes Street,,Miles City,MT,59301,United States,(406) 234-2627,46.399649607168094,-105.8229893445968,"MON 7:00 AM - 10:00 PM, TUE 7:00 AM - 10:00 PM, WED 7:00 AM - 10:00 PM, THU 7:00 AM - 10:00 PM, FRI 7:00 AM - 10:00 PM, SAT 7:00 AM - 10:00 PM, SUN 7:00 AM - 9:00 PM",,,
Lake Avenue,,6110 Lake Avenue,,St Joseph,MO,64504,United States,(816) 238-5685,39.712700524516606,-94.87322735043563,"MON 6:00 AM - 12:00 AM, TUE 6:00 AM - 12:00 AM, WED 6:00 AM - 12:00 AM, THU 6:00 AM - 12:00 AM, FRI 6:00 AM - 2:00 AM, SAT 6:00 AM - 2:00 AM, SUN 7:00 AM - 12:00 AM",,,
W Lewis Street,,1115 W Lewis Street,,Livingston,MT,59047,United States,(406) 222-1911,45.65362006257548,-110.57075858895496,"MON 7:00 AM - 10:00 PM, TUE 7:00 AM - 10:00 PM, WED 7:00 AM - 10:00 PM, THU 7:00 AM - 10:00 PM, FRI 7:00 AM - 10:00 PM, SAT 7:00 AM - 10:00 PM, SUN 8:00 AM - 10:00 PM",,,
US Highway 60,,5266 US Highway 60,,Paducah,KY,42001,United States,(270) 415-5586,37.083101,-88.640597,"MON 7:00 AM - 10:00 PM, TUE 7:00 AM - 10:00 PM, WED 7:00 AM - 10:00 PM, THU 7:00 AM - 10:00 PM, FRI 7:00 AM - 10:00 PM, SAT 7:00 AM - 10:00 PM, SUN 7:00 AM - 10:00 PM",,,
Bridge Street,,2201 Bridge Street,,Paducah,KY,42003,United States,(270) 443-6716,37.057129264852094,-88.58216688036919,"MON 6:00 AM - 11:00 PM, TUE 6:00 AM - 11:00 PM, WED 6:00 AM - 11:00 PM, THU 6:00 AM - 11:00 PM, FRI 6:00 AM - 12:00 AM, SAT 7:00 AM - 12:00 AM, SUN 8:00 AM - 11:00 PM",,,
1st Street S,,101 1st Street S,,Laurel,MT,59044,United States,(406) 628-8546,45.667422892042886,-108.7718877196312,"MON 6:30 AM - 10:00 PM, TUE 6:30 AM - 10:00 PM, WED 6:30 AM - 10:00 PM, THU 6:30 AM - 10:00 PM, FRI 6:30 AM - 11:00 PM, SAT 7:00 AM - 11:00 PM, SUN 7:00 AM - 10:00 PM",,,
505 1st St West,,505 1st St West,,Havre,MT,59501,United States,(406) 265-6100,48.555151154384426,-109.6923358645472,"MON 6:00 AM - 12:00 AM, TUE 6:00 AM - 12:00 AM, WED 6:00 AM - 12:00 AM, THU 6:00 AM - 12:00 AM, FRI 6:00 AM - 2:00 AM, SAT 6:00 AM - 2:00 AM, SUN 6:00 AM - 12:00 AM",,,
Jackson Street,,2956 Jackson Street,,Paducah,KY,42003,United States,(270) 442-9399,37.06678336139402,-88.63042786717409,"MON 7:00 AM - 10:00 PM, TUE 7:00 AM - 10:00 PM, WED 7:00 AM - 10:00 PM, THU 7:00 AM - 10:00 PM, FRI 7:00 AM - 10:00 PM, SAT 8:00 AM - 10:00 PM, SUN 8:00 AM - 10:00 PM",,,
14th Street W,,215 14th Street W,,Hardin,MT,59034,United States,(406) 665-1370,45.74384139708263,-107.61107148977317,"MON 7:00 AM - 10:00 PM, TUE 7:00 AM - 10:00 PM, WED 7:00 AM - 10:00 PM, THU 7:00 AM - 10:00 PM, FRI 7:00 AM - 11:00 PM, SAT 7:00 AM - 11:00 PM, SUN 7:00 AM - 10:00 PM",,,
S Atlantic Street,,205 S Atlantic Street,,Dillon,MT,59725,United States,(406) 683-6422,45.213982331486115,-112.6357519626618,"MON 7:00 AM - 10:00 PM, TUE 7:00 AM - 10:00 PM, WED 7:00 AM - 10:00 PM, THU 7:00 AM - 10:00 PM, FRI 7:00 AM - 10:00 PM, SAT 8:00 AM - 10:00 PM, SUN 8:00 AM - 10:00 PM",,,
N Belt Highway,,2205 N Belt Highway,,St Joseph,MO,64506,United States,(816) 364-2131,39.784973951031155,-94.80292707681656,"MON 6:00 AM - 12:00 AM, TUE 6:00 AM - 12:00 AM, WED 6:00 AM - 12:00 AM, THU 6:00 AM - 12:00 AM, FRI 6:00 AM - 2:00 AM, SAT 6:00 AM - 2:00 AM, SUN 7:00 AM - 12:00 AM",,,
Harrison Avenue,,1960 Harrison Avenue,,Butte,MT,59701,United States,(406) 723-8223,45.993948048783324,-112.51235651227034,"MON 6:30 AM - 1:00 AM, TUE 6:30 AM - 1:00 AM, WED 6:30 AM - 1:00 AM, THU 6:30 AM - 1:00 AM, FRI 6:30 AM - 3:00 AM, SAT 6:30 AM - 3:00 AM, SUN 6:30 AM - 3:00 AM",,,
Central Avenue W,,232 Central Avenue W,,Browning,MT,59417,United States,(406) 338-4831,48.555655437830474,-113.01779240369797,"MON 7:00 AM - 10:00 PM, TUE 7:00 AM - 10:00 PM, WED 7:00 AM - 10:00 PM, THU 7:00 AM - 10:00 PM, FRI 7:00 AM - 10:00 PM, SAT 7:30 AM - 10:00 PM, SUN 8:00 AM - 10:00 PM",,,
Frederick Blvd,,3702 Frederick Blvd,,St Joseph,MO,64506,United States,(816) 232-8101,39.775192,-94.800438,"MON 10:00 AM - 9:00 PM, TUE 10:00 AM - 9:00 PM, WED 10:00 AM - 9:00 PM, THU 10:00 AM - 9:00 PM, FRI 10:00 AM - 9:00 PM, SAT 10:00 AM - 9:00 PM, SUN 11:30 AM - 5:00 PM",,,
N 7th Avenue,,303 N 7th Avenue,,Bozeman,MT,59715,United States,(406) 587-0373,45.68209785497402,-111.04668083044089,"MON 7:00 AM - 10:00 PM, TUE 7:00 AM - 10:00 PM, WED 7:00 AM - 10:00 PM, THU 7:00 AM - 10:00 PM, FRI 7:00 AM - 10:00 PM, SAT 7:00 AM - 10:00 PM, SUN 8:00 AM - 10:00 PM",,,
S Belt Highway,,1315 S Belt Highway,,St Joseph,MO,64507,United States,(816) 364-3355,39.75452716574477,-94.8020607233048,"MON 6:00 AM - 12:00 AM, TUE 6:00 AM - 12:00 AM, WED 6:00 AM - 12:00 AM, THU 6:00 AM - 12:00 AM, FRI 6:00 AM - 2:00 AM, SAT 6:00 AM - 2:00 AM, SUN 7:00 AM - 12:00 AM",,,
Dakota Avenue,,2701 Dakota Avenue,,South Sioux City,NE,68776,United States,(402) 494-4002,42.46416738459768,-96.41450913997681,"MON 7:00 AM - 10:30 PM, TUE 7:00 AM - 10:30 PM, WED 7:00 AM - 10:30 PM, THU 7:00 AM - 10:30 PM, FRI 7:00 AM - 11:00 PM, SAT 7:00 AM - 11:00 PM, SUN 7:00 AM - 10:30 PM",,,
W Broadway,,623 W Broadway,,Missoula,MT,59802,United States,(406) 543-7273,46.87452856884427,-114.00300666689873,"MON 7:00 AM - 10:00 PM, TUE 7:00 AM - 10:00 PM, WED 7:00 AM - 10:00 PM, THU 7:00 AM - 10:00 PM, FRI 7:00 AM - 10:00 PM, SAT 7:00 AM - 10:00 PM, SUN 7:00 AM - 10:00 PM",,,
Avenue I,,3206 Avenue I,,Scottsbluff,NE,69361,United States,(308) 633-3100,41.87848636314129,-103.6759614944458,"MON 6:00 AM - 11:00 PM, TUE 6:00 AM - 11:00 PM, WED 6:00 AM - 11:00 PM, THU 6:00 AM - 11:00 PM, FRI 6:00 AM - 12:00 AM, SAT 6:00 AM - 12:00 AM, SUN 7:00 AM - 11:00 PM",,,
S Reserve Street,,2600 S Reserve Street,,Missoula,MT,59801,United States,(406) 543-7275,46.84675680181166,-114.03917759656906,"MON 7:00 AM - 10:00 PM, TUE 7:00 AM - 10:00 PM, WED 7:00 AM - 10:00 PM, THU 7:00 AM - 10:00 PM, FRI 7:00 AM - 10:00 PM, SAT 7:00 AM - 10:00 PM, SUN 8:00 AM - 10:00 PM",,,
E Douglas Street,,1002 E Douglas Street,,O'Neill,NE,68763,United States,(402) 336-3421,42.458039687518124,-98.63769337534904,"MON 6:00 AM - 10:00 PM, TUE 6:00 AM - 10:00 PM, WED 6:00 AM - 10:00 PM, THU 6:00 AM - 10:00 PM, FRI 6:00 AM - 10:00 PM, SAT 6:00 AM - 10:00 PM, SUN 6:00 AM - 10:00 PM",,,
Prospect Avenue,,1450 Prospect Avenue,,Helena,MT,59601,United States,(406) 443-0649,46.591441337787785,-112.01527118682861,"MON 6:00 AM - 12:00 AM, TUE 6:00 AM - 12:00 AM, WED 6:00 AM - 12:00 AM, THU 6:00 AM - 12:00 AM, FRI 6:00 AM - 2:00 AM, SAT 6:00 AM - 2:00 AM, SUN 6:00 AM - 12:00 AM",,,
S 11th Street,,2410 S 11th Street,,Nebraska City,NE,68410,United States,(402) 873-7956,40.65560414797018,-95.86001247167587,"MON 10:00 AM - 10:00 PM, TUE 10:00 AM - 10:00 PM, WED 10:00 AM - 10:00 PM, THU 10:00 AM - 10:00 PM, FRI 10:00 AM - 10:00 PM, SAT 10:00 AM - 10:00 PM, SUN 10:00 AM - 10:00 PM",,,
West B Street,,710 West B Street,,McCook,NE,69001,United States,(308) 345-1980,40.19862055717286,-100.63607856631279,"MON 7:00 AM - 10:00 PM, TUE 7:00 AM - 10:00 PM, WED 7:00 AM - 10:00 PM, THU 7:00 AM - 10:00 PM, FRI 7:00 AM - 10:00 PM, SAT 7:00 AM - 10:00 PM, SUN 8:00 AM - 10:00 PM",,,
10th Avenue S,,1301 10th Avenue S,,Great Falls,MT,59405,United States,(406) 727-2222,47.49458311539215,-111.28474071621895,"MON 6:30 AM - 11:00 PM, TUE 6:30 AM - 11:00 PM, WED 6:30 AM - 11:00 PM, THU 6:30 AM - 11:00 PM, FRI 6:30 AM - 12:00 AM, SAT 6:30 AM - 12:00 AM, SUN 6:30 AM - 11:00 PM",,,
W 5th St.,,501 N. Madison,,Lexington,NE,68850,United States,(308) 324-6610,40.777985302147385,-99.7447469039389,"MON 7:00 AM - 10:00 PM, TUE 7:00 AM - 10:00 PM, WED 7:00 AM - 10:00 PM, THU 7:00 AM - 10:00 PM, FRI 7:00 AM - 10:00 PM, SAT 7:00 AM - 10:00 PM, SUN 7:00 AM - 10:00 PM",,,
N Montana Avenue,,2301 N Montana Avenue,,Helena,MT,59601,United States,(406) 443-3710,46.608097158589565,-112.0203401372055,"MON 6:00 AM - 12:00 AM, TUE 6:00 AM - 12:00 AM, WED 6:00 AM - 12:00 AM, THU 6:00 AM - 12:00 AM, FRI 6:00 AM - 2:00 AM, SAT 6:00 AM - 2:00 AM, SUN 6:00 AM - 12:00 AM",,,
14th Street N,,1001 14th Street N,,Great Falls,MT,59401,United States,(406) 727-2758,47.516494215730766,-111.28223821520805,"MON 6:30 AM - 11:00 PM, TUE 6:30 AM - 11:00 PM, WED 6:30 AM - 11:00 PM, THU 6:30 AM - 11:00 PM, FRI 6:30 AM - 12:00 AM, SAT 6:30 AM - 12:00 AM, SUN 6:30 AM - 11:00 PM",,,
Northwest Bypass,,825 Northwest Bypass,,Great Falls,MT,59404,United States,(406) 453-4141,47.51652138829545,-111.32641822099686,"MON 6:30 AM - 11:00 PM, TUE 6:30 AM - 11:00 PM, WED 6:30 AM - 11:00 PM, THU 6:30 AM - 11:00 PM, FRI 6:30 AM - 12:00 PM, SAT 6:30 AM - 12:00 PM, SUN 7:30 AM - 11:00 PM",,,
Main Street,,402 Main Street,,Billings,MT,59105,United States,(406) 248-8002,45.805471417125275,-108.47674280405045,"MON 6:30 AM - 11:00 PM, TUE 6:30 AM - 11:00 PM, WED 6:30 AM - 11:00 PM, THU 6:30 AM - 11:00 PM, FRI 6:30 AM - 3:00 AM, SAT 6:30 AM - 3:00 AM, SUN 7:00 AM - 11:00 PM",,,
S Lincoln Avenue,,3609 S Lincoln Avenue,,York,NE,68467,United States,(402) 362-4736,40.8276895709628,-97.59687917681731,"MON 7:00 AM - 11:00 PM, TUE 7:00 AM - 11:00 PM, WED 7:00 AM - 11:00 PM, THU 7:00 AM - 11:00 PM, FRI 7:00 AM - 11:00 PM, SAT 8:00 AM - 11:00 PM, SUN 8:00 AM - 11:00 PM",,,
Maple Street,,8303 Maple Street,,Omaha,NE,68134,United States,(402) 397-8380,41.28457091673222,-96.04242146015167,"MON 6:00 AM - 10:30 PM, TUE 6:00 AM - 10:30 PM, WED 6:00 AM - 10:30 PM, THU 6:00 AM - 10:30 PM, FRI 6:00 AM - 12:00 AM, SAT 7:00 AM - 12:00 AM, SUN 8:00 AM - 10:00 PM",,,
Central Avenue,,2655 Central Avenue,,Billings,MT,59102,United States,(406) 656-3688,45.77002073419202,-108.58376562595367,"MON 6:30 AM - 12:00 AM, TUE 6:30 AM - 12:00 AM, WED 6:30 AM - 12:00 AM, THU 6:30 AM - 12:00 AM, FRI 6:30 AM - 12:00 AM, SAT 7:00 AM - 12:00 AM, SUN 8:00 AM - 10:00 PM",,,
S 20th Street W,,749 S 20th Street W,,Billings,MT,59102,United States,(406) 655-9764,45.75700489877548,-108.566173017025,"MON 7:00 AM - 10:00 PM, TUE 7:00 AM - 10:00 PM, WED 7:00 AM - 10:00 PM, THU 7:00 AM - 10:00 PM, FRI 7:00 AM - 10:00 PM, SAT 7:00 AM - 10:00 PM, SUN 8:00 AM - 10:00 PM",,,
N 168th Circle,,350 N 168th Circle,,Omaha,NE,68118,United States,(402) 330-5253,41.2619986536928,-96.17852302642859,"MON 6:00 AM - 10:30 PM, TUE 6:00 AM - 10:30 PM, WED 6:00 AM - 10:30 PM, THU 6:00 AM - 10:30 PM, FRI 6:00 AM - 1:00 AM, SAT 7:00 AM - 1:00 AM, SUN 8:00 AM - 10:00 PM",,,
Lincoln Avenue,,1806 Lincoln Avenue,,York,NE,68467,United States,(402) 362-4737,40.878374298746536,-97.59260416030884,"MON 7:00 AM - 11:00 PM, TUE 7:00 AM - 11:00 PM, WED 7:00 AM - 11:00 PM, THU 7:00 AM - 11:00 PM, FRI 7:00 AM - 11:00 PM, SAT 8:00 AM - 11:00 PM, SUN 8:00 AM - 11:00 PM",,,
Vine Street,,4700 Vine Street,,Lincoln,NE,68503,United States,(402) 466-3950,40.82111783034507,-96.65470004081726,"MON 7:00 AM - 11:00 PM, TUE 7:00 AM - 11:00 PM, WED 7:00 AM - 11:00 PM, THU 7:00 AM - 11:00 PM, FRI 7:00 AM - 11:00 PM, SAT 8:00 AM - 11:00 PM, SUN 8:00 AM - 11:00 PM",,,
N 27th Street,,3301 N 27th Street,,Lincoln,NE,68521,United States,(402) 466-8226,40.84510439168445,-96.68270096182823,"MON 7:00 AM - 11:00 PM, TUE 7:00 AM - 11:00 PM, WED 7:00 AM - 11:00 PM, THU 7:00 AM - 11:00 PM, FRI 7:00 AM - 12:00 AM, SAT 8:00 AM - 12:00 AM, SUN 8:00 AM - 11:00 PM",,,
L Street,,5445 L Street,,Omaha,NE,68117,United States,(402) 731-8250,41.21194951845108,-95.99856734275818,"MON 6:00 AM - 11:00 PM, TUE 6:00 AM - 11:00 PM, WED 6:00 AM - 11:00 PM, THU 6:00 AM - 11:00 PM, FRI 6:00 AM - 1:00 AM, SAT 7:00 AM - 1:00 AM, SUN 8:00 AM - 10:00 PM",,,
Detco Circle,,3211 Detco Circle,,North Platte,NE,69101,United States,(308) 534-0200,41.105687694934055,-100.76460758895496,"MON 6:30 AM - 10:00 PM, TUE 6:30 AM - 10:00 PM, WED 6:30 AM - 10:00 PM, THU 6:30 AM - 10:00 PM, FRI 6:30 AM - 11:00 PM, SAT 6:30 AM - 11:00 PM, SUN 8:00 AM - 10:00 PM",,,
S 72 St,,510 S 72 St,,Omaha,NE,68114,United States,(402) 502-1172,41.25584284053918,-96.02450522037543,"MON 6:00 AM - 10:30 PM, TUE 6:00 AM - 10:30 PM, WED 6:00 AM - 10:30 PM, THU 6:00 AM - 10:30 PM, FRI 6:00 AM - 12:00 AM, SAT 7:00 AM - 12:00 AM, SUN 8:00 AM - 10:00 PM",,,
E 4th Street,,1216 E 4th Street,,North Platte,NE,69101,United States,(308) 534-2258,41.13441841348931,-100.74931606650352,"MON 6:30 AM - 10:00 PM, TUE 6:30 AM - 10:00 PM, WED 6:30 AM - 10:00 PM, THU 6:30 AM - 10:00 PM, FRI 6:30 AM - 11:00 PM, SAT 6:30 AM - 11:00 PM, SUN 8:00 AM - 10:00 PM",,,
S 56th Street,,5641 S 56th Street,,Lincoln,NE,68516,United States,(402) 423-8230,40.75740313771139,-96.64499312639236,"MON 7:00 AM - 11:00 PM, TUE 7:00 AM - 11:00 PM, WED 7:00 AM - 11:00 PM, THU 7:00 AM - 11:00 PM, FRI 7:00 AM - 12:00 AM, SAT 8:00 AM - 12:00 AM, SUN 8:00 AM - 11:00 PM",,,
E 25th Street,,419 E 25th Street,,Kearney,NE,68847,United States,(308) 234-9515,40.6999303796854,-99.07510936260218,"MON 7:00 AM - 11:00 PM, TUE 7:00 AM - 11:00 PM, WED 7:00 AM - 11:00 PM, THU 7:00 AM - 11:00 PM, FRI 7:00 AM - 12:00 AM, SAT 8:00 AM - 12:00 AM, SUN 8:00 AM - 11:00 PM",,,
S 3rd Avenue,,810 S 3rd Avenue,,Kearney,NE,68845,United States,(308) 236-6595,40.68267050048182,-99.08601882310904,"MON 7:00 AM - 10:00 PM, TUE 7:00 AM - 10:00 PM, WED 7:00 AM - 10:00 PM, THU 7:00 AM - 10:00 PM, FRI 7:00 AM - 10:00 PM, SAT 8:00 AM - 10:00 PM, SUN 8:00 AM - 10:00 PM",,,
105 W. 56th St,,105 W. 56th St,,Kearney,NE,68847,United States,(308) 224-2400,40.72785839424394,-99.08209115266806,"MON 7:00 AM - 11:00 PM, TUE 7:00 AM - 11:00 PM, WED 7:00 AM - 11:00 PM, THU 7:00 AM - 11:00 PM, FRI 7:00 AM - 12:00 AM, SAT 8:00 AM - 12:00 AM, SUN 8:00 AM - 11:00 PM",,,
W 4th Avenue,,225 W 4th Avenue,,Holdrege,NE,68949,United States,(308) 995-2207,40.43758351561037,-99.38298538327217,"MON 7:00 AM - 11:00 PM, TUE 7:00 AM - 11:00 PM, WED 7:00 AM - 11:00 PM, THU 7:00 AM - 11:00 PM, FRI 7:00 AM - 11:00 PM, SAT 7:00 AM - 11:00 PM, SUN 7:00 AM - 11:00 PM",,,
Weir Street,,15375 Weir Street,,Omaha,NE,68137,United States,(402) 614-4250,41.20563259849005,-96.15526467561722,"MON 6:00 AM - 10:30 PM, TUE 6:00 AM - 10:30 PM, WED 6:00 AM - 10:30 PM, THU 6:00 AM - 10:30 PM, FRI 6:00 AM - 1:00 AM, SAT 7:00 AM - 1:00 AM, SUN 8:00 AM - 10:00 PM",,,
S Saddle Creek Road,,1115 S Saddle Creek Road,,Omaha,NE,68106,United States,(402) 553-7400,41.24822741995051,-95.9879574403385,"MON 6:00 AM - 10:30 PM, TUE 6:00 AM - 10:30 PM, WED 6:00 AM - 10:30 PM, THU 6:00 AM - 10:30 PM, FRI 6:00 AM - 12:00 AM, SAT 7:00 AM - 12:00 AM, SUN 8:00 AM - 10:00 PM",,,
South Street,,1126 South Street,,Lincoln,NE,68502,United States,(402) 477-2943,40.792147663031884,-96.70471519231796,"MON 7:00 AM - 11:00 PM, TUE 7:00 AM - 11:00 PM, WED 7:00 AM - 11:00 PM, THU 7:00 AM - 11:00 PM, FRI 7:00 AM - 11:00 PM, SAT 8:00 AM - 11:00 PM, SUN 8:00 AM - 11:00 PM",,,
N 84th Street,,2301 N 84th Street,,Lincoln,NE,68507,United States,(402) 325-0105,40.835655499752846,-96.60648599267006,"MON 6:00 AM - 10:00 PM, TUE 6:00 AM - 10:00 PM, WED 6:00 AM - 10:00 PM, THU 6:00 AM - 10:00 PM, FRI 6:00 AM - 10:00 PM, SAT 6:00 AM - 10:00 PM, SUN 7:00 AM - 10:00 PM",,,
S Burlington Street,,729 S Burlington Street,,Hastings,NE,68901,United States,(402) 462-4211,40.57617518184148,-98.39215859770775,"MON 7:00 AM - 11:00 PM, TUE 7:00 AM - 11:00 PM, WED 7:00 AM - 11:00 PM, THU 7:00 AM - 11:00 PM, FRI 7:00 AM - 12:00 AM, SAT 7:00 AM - 12:00 AM, SUN 8:00 AM - 11:00 PM",,,
Wickersham,,11310 Wickersham,,Gretna,NE,68028,United States,(402) 315-9347,41.143828630361824,-96.1631932854653,"MON 6:00 AM - 11:00 PM, TUE 6:00 AM - 11:00 PM, WED 6:00 AM - 11:00 PM, THU 6:00 AM - 11:00 PM, FRI 6:00 AM - 11:00 PM, SAT 6:00 AM - 11:00 PM, SUN 8:00 AM - 11:00 PM",,,
N 108th Street,,2901 N 108th Street,,Omaha,NE,68164,United States,(402) 964-2111,41.28447014045095,-96.08104258775711,"MON 6:00 AM - 11:00 PM, TUE 6:00 AM - 11:00 PM, WED 6:00 AM - 11:00 PM, THU 6:00 AM - 11:00 PM, FRI 6:00 AM - 1:00 AM, SAT 7:00 AM - 1:00 AM, SUN 8:00 AM - 10:00 PM",,,
Grand Avenue,,1105 Grand Avenue,,Billings,MT,59102,United States,(406) 252-3318,45.78442891733754,-108.54436665773392,"MON 6:30 AM - 11:00 PM, TUE 6:30 AM - 11:00 PM, WED 6:30 AM - 11:00 PM, THU 6:30 AM - 11:00 PM, FRI 6:30 AM - 3:00 AM, SAT 8:00 AM - 3:00 AM, SUN 8:00 AM - 10:00 PM",,,
N 10th Street,,3650 N 10th Street,,Gering,NE,69341,United States,(308) 632-3100,41.84782043214425,-103.66101714225806,"MON 6:00 AM - 11:00 PM, TUE 6:00 AM - 11:00 PM, WED 6:00 AM - 11:00 PM, THU 6:00 AM - 11:00 PM, FRI 6:00 AM - 12:00 AM, SAT 6:00 AM - 12:00 AM, SUN 7:00 AM - 11:00 PM",,,
E Elk Lane,,3310 E Elk Lane,,Fremont,NE,68025,United States,(402) 620-4385,41.45036169999999,-96.4548939,"MON 6:00 AM - 11:00 PM, TUE 6:00 AM - 11:00 PM, WED 6:00 AM - 11:00 PM, THU 6:00 AM - 11:00 PM, FRI 6:00 AM - 1:00 AM, SAT 6:00 AM - 1:00 AM, SUN 8:00 AM - 11:00 PM",,,
Howard Blvd,,3805 Howard Blvd,,Columbus,NE,68601,United States,(402) 564-1022,41.43234767396901,-97.37477660179138,"MON 6:00 AM - 10:00 PM, TUE 6:00 AM - 10:00 PM, WED 6:00 AM - 10:00 PM, THU 6:00 AM - 10:00 PM, FRI 6:00 AM - 12:00 AM, SAT 7:00 AM - 12:00 AM, SUN 8:00 AM - 10:00 PM",,,
W Highway 20,,1310 W Highway 20,,Chadron,NE,69337,United States,(308) 432-4509,42.82887595336334,-103.01856279373169,"MON 6:30 AM - 10:00 PM, TUE 6:30 AM - 10:00 PM, WED 6:30 AM - 10:00 PM, THU 6:30 AM - 10:00 PM, FRI 6:30 AM - 11:00 PM, SAT 6:30 AM - 11:00 PM, SUN 6:30 AM - 10:00 PM",,,
930 G Street,,930 G Street,,Central City,NE,68826,United States,(308) 946-2801,41.11073484438379,-98.00991959405115,"MON 7:00 AM - 10:00 PM, TUE 7:00 AM - 10:00 PM, WED 7:00 AM - 10:00 PM, THU 7:00 AM - 10:00 PM, FRI 7:00 AM - 10:00 PM, SAT 7:00 AM - 10:00 PM, SUN 7:00 AM - 10:00 PM",,,
South E Street,,2990 South E Street,,Broken Bow,NE,68822,United States,(308) 767-2070,41.401089,-99.664257,"MON 6:00 AM - 10:00 PM, TUE 6:00 AM - 10:00 PM, WED 6:00 AM - 10:00 PM, THU 6:00 AM - 10:00 PM, FRI 6:00 AM - 10:00 PM, SAT 6:00 AM - 10:00 PM, SUN 8:00 AM - 10:00 PM",,,
Harlan Drive,,1314 Harlan Drive,,Bellevue,NE,68005,United States,(402) 934-9655,41.14083458322284,-95.91228561850585,"MON 6:00 AM - 10:30 PM, TUE 6:00 AM - 10:30 PM, WED 6:00 AM - 10:30 PM, THU 6:00 AM - 10:30 PM, FRI 6:00 AM - 12:00 AM, SAT 7:00 AM - 12:00 AM, SUN 8:00 AM - 10:00 PM",,,
N 6th Street,,1215 N 6th Street,,Beatrice,NE,68310,United States,(402) 228-1334,40.2784575149161,-96.74690768122673,"MON 5:30 AM - 11:00 PM, TUE 5:30 AM - 11:00 PM, WED 5:30 AM - 11:00 PM, THU 5:30 AM - 11:00 PM, FRI 5:30 AM - 11:00 PM, SAT 5:30 AM - 11:00 PM, SUN 6:30 AM - 11:00 PM",,,
E 3rd Street,,824 E 3rd Street,,Alliance,NE,69301,United States,(308) 762-6590,42.09760644436906,-102.85998120903969,"MON 6:00 AM - 10:00 PM, TUE 6:00 AM - 10:00 PM, WED 6:00 AM - 10:00 PM, THU 6:00 AM - 10:00 PM, FRI 6:00 AM - 10:00 PM, SAT 6:00 AM - 10:00 PM, SUN 6:00 AM - 10:00 PM",,,
2nd Street NE,,148 2nd Street NE,,Valley City,ND,58072,United States,(701) 845-5495,46.923948481144,-98.0020460486412,"MON 8:00 AM - 10:00 PM, TUE 8:00 AM - 10:00 PM, WED 8:00 AM - 10:00 PM, THU 8:00 AM - 10:00 PM, FRI 8:00 AM - 10:00 PM, SAT 8:00 AM - 10:00 PM, SUN 8:00 AM - 10:00 PM",,,
305 2nd Ave NE,,305 2nd Ave NE,,Parshall,ND,58770,United States,(701) 862-4444,47.95629044413844,-102.12738725105737,"MON 7:00 AM - 11:00 PM, TUE 7:00 AM - 11:00 PM, WED 7:00 AM - 11:00 PM, THU 7:00 AM - 11:00 PM, FRI 7:00 AM - 11:00 PM, SAT 8:00 AM - 11:00 PM, SUN 8:00 AM - 11:00 PM",,,
E Main Street,,814 E Main Street,,Mandan,ND,58554,United States,(701) 663-2828,46.82829395144945,-100.87880373001099,"MON 6:30 AM - 11:00 PM, TUE 6:30 AM - 11:00 PM, WED 6:30 AM - 11:00 PM, THU 6:30 AM - 11:00 PM, FRI 6:30 AM - 11:00 PM, SAT 7:00 AM - 11:00 PM, SUN 7:00 AM - 10:30 PM",,,
10th Street SE,,718 10th Street SE,,Jamestown,ND,58401,United States,(701) 252-2508,46.89880708541517,-98.69797962161101,"MON 6:00 AM - 11:00 PM, TUE 6:00 AM - 11:00 PM, WED 6:00 AM - 11:00 PM, THU 6:00 AM - 11:00 PM, FRI 6:00 AM - 12:00 AM, SAT 6:00 AM - 12:00 AM, SUN 6:00 AM - 11:00 PM",,,
14th Street W,,180 14th Street W,,Dickinson,ND,58601,United States,(701) 483-0975,46.89820643736086,-102.78636664152145,"MON 5:30 AM - 2:00 AM, TUE 5:30 AM - 2:00 AM, WED 5:30 AM - 2:00 AM, THU 5:30 AM - 2:00 AM, FRI 5:30 AM - 2:00 AM, SAT 5:30 AM - 2:00 AM, SUN 5:30 AM - 2:00 AM",,,
Highway 2 West,,354 Highway 2 West,,Devils Lake,ND,58301,United States,(701) 662-2227,48.1069153757161,-98.87071162462234,"MON 6:30 AM - 11:00 PM, TUE 6:30 AM - 11:00 PM, WED 6:30 AM - 11:00 PM, THU 6:30 AM - 11:00 PM, FRI 6:30 AM - 11:00 PM, SAT 6:30 AM - 11:00 PM, SUN 6:30 AM - 11:00 PM",,,
Broadway Street,,1014 Broadway Street,,Yankton,SD,57078,United States,(605) 665-4114,42.88011871452943,-97.39639880510367,"MON 7:00 AM - 10:00 PM, TUE 7:00 AM - 10:00 PM, WED 7:00 AM - 10:00 PM, THU 7:00 AM - 10:00 PM, FRI 7:00 AM - 12:00 AM, SAT 7:00 AM - 12:00 AM, SUN 8:00 AM - 10:00 PM",,,
9th Avenue SE,,24 9th Avenue SE,,Watertown,SD,57201,United States,(605) 886-3149,44.88979261679319,-97.11708605289454,"MON 6:30 AM - 1:00 AM, TUE 6:30 AM - 1:00 AM, WED 6:30 AM - 1:00 AM, THU 6:30 AM - 1:00 AM, FRI 6:30 AM - 1:00 AM, SAT 7:30 AM - 1:00 AM, SUN 7:30 AM - 1:00 AM",,,
E Cherry Street,,825 E Cherry Street,,Vermillion,SD,57069,United States,(605) 624-9431,42.78630949904279,-96.91880869120496,"MON 6:30 AM - 11:00 PM, TUE 6:30 AM - 11:00 PM, WED 6:30 AM - 11:00 PM, THU 6:30 AM - 11:00 PM, FRI 6:30 AM - 11:00 PM, SAT 8:00 AM - 11:00 PM, SUN 8:00 AM - 11:00 PM",,,
S Junction Avenue,,2314 S Junction Avenue,,Sturgis,SD,57785,United States,(605) 347-3556,44.400228301384296,-103.50840523838997,"MON 7:00 AM - 10:30 PM, TUE 7:00 AM - 10:30 PM, WED 7:00 AM - 10:30 PM, THU 7:00 AM - 10:30 PM, FRI 7:00 AM - 10:30 PM, SAT 7:00 AM - 10:30 PM, SUN 8:00 AM - 10:30 PM",,,
E Hickory Street,,406 E Hickory Street,,Sisseton,SD,57262,United States,(605) 698-7310,45.65990422116288,-97.04538255929947,"MON 7:00 AM - 10:00 PM, TUE 7:00 AM - 10:00 PM, WED 7:00 AM - 10:00 PM, THU 7:00 AM - 10:00 PM, FRI 7:00 AM - 10:00 PM, SAT 7:00 AM - 10:00 PM, SUN 8:00 AM - 10:00 PM",,,
S Locust Street,,1408 S Locust Street,,Grand Island,NE,68801,United States,(308) 382-0380,40.907061516079175,-98.3400821685791,"MON 7:00 AM - 10:00 PM, TUE 7:00 AM - 10:00 PM, WED 7:00 AM - 10:00 PM, THU 7:00 AM - 10:00 PM, FRI 7:00 AM - 10:00 PM, SAT 8:00 AM - 10:00 PM, SUN 8:00 AM - 10:00 PM",,,
W 2nd Street,,1007 W 2nd Street,,Grand Island,NE,68801,United States,(308) 384-6141,40.92050360499097,-98.34933268278974,"MON 7:00 AM - 10:00 PM, TUE 7:00 AM - 10:00 PM, WED 7:00 AM - 10:00 PM, THU 7:00 AM - 10:00 PM, FRI 7:00 AM - 11:00 PM, SAT 7:00 AM - 11:00 PM, SUN 7:00 AM - 10:00 PM",,,
W Jackson Blvd,,504 W Jackson Blvd,,Spearfish,SD,57783,United States,(605) 642-4620,44.49059323894355,-103.86516451835632,"MON 6:30 AM - 11:30 PM, TUE 6:30 AM - 11:30 PM, WED 6:30 AM - 11:30 PM, THU 6:30 AM - 11:30 PM, FRI 6:30 AM - 12:00 AM, SAT 6:30 AM - 12:00 AM, SUN 7:30 AM - 11:00 PM",,,
Main Street,,100 Main Street,,Porcupine,SD,57772,United States,(605) 867-5333,43.2398015,-102.3303086,"MON 7:00 AM - 11:00 PM, TUE 7:00 AM - 11:00 PM, WED 7:00 AM - 11:00 PM, THU 7:00 AM - 11:00 PM, FRI 7:00 AM - 11:00 PM, SAT 7:00 AM - 11:00 PM, SUN 7:00 AM - 10:00 PM",,,
N Webb Road,,2210 N Webb Road,,Grand Island,NE,68803,United States,(308) 381-8267,40.94200119653041,-98.37918877601624,"MON 7:00 AM - 11:00 PM, TUE 7:00 AM - 11:00 PM, WED 7:00 AM - 11:00 PM, THU 7:00 AM - 11:00 PM, FRI 7:00 AM - 12:00 AM, SAT 7:00 AM - 12:00 AM, SUN 8:00 AM - 11:00 PM",,,
E Sioux Avenue,,415 E Sioux Avenue,,Pierre,SD,57501,United States,(605) 224-2083,44.36388287973569,-100.34929543733591,"MON 5:30 AM - 12:00 AM, TUE 5:30 AM - 12:00 AM, WED 5:30 AM - 12:00 AM, THU 5:30 AM - 12:00 AM, FRI 5:30 AM - 1:00 AM, SAT 5:30 AM - 1:00 AM, SUN 5:30 AM - 11:00 PM",,,
River Drive,,1240 River Drive,,North Sioux City,SD,57049,United States,(605) 232-5809,42.52434478424316,-96.49510726332664,"MON 7:00 AM - 10:00 PM, TUE 7:00 AM - 10:00 PM, WED 7:00 AM - 10:00 PM, THU 7:00 AM - 10:00 PM, FRI 7:00 AM - 10:00 PM, SAT 8:00 AM - 10:00 PM, SUN 8:00 AM - 10:00 PM",,,
E Grand Crossing,,221 E Grand Crossing,,Mobridge,SD,57601,United States,(605) 845-7559,45.53718928522758,-100.43125167489052,"MON 7:00 AM - 10:00 PM, TUE 7:00 AM - 10:00 PM, WED 7:00 AM - 10:00 PM, THU 7:00 AM - 10:00 PM, FRI 7:00 AM - 10:00 PM, SAT 7:00 AM - 10:00 PM, SUN 8:00 AM - 10:00 PM",,,
N Broadway,,623 North Broadway,,Minot,ND,58703,United States,(701) 838-5611,48.243281709854536,-101.29653931779092,"MON 6:00 AM - 2:00 AM, TUE 6:00 AM - 2:00 AM, WED 6:00 AM - 2:00 AM, THU 6:00 AM - 2:00 AM, FRI 6:00 AM - 2:00 AM, SAT 6:00 AM - 2:00 AM, SUN 6:00 AM - 2:00 AM",,,
10th Street SW,,2400 10th Street SW,,Minot,ND,58701,United States,(701) 839-7716,48.20619973059548,-101.31154060363764,"MON 10:00 AM - 9:00 PM, TUE 10:00 AM - 9:00 PM, WED 10:00 AM - 9:00 PM, THU 10:00 AM - 9:00 PM, FRI 10:00 AM - 9:00 PM, SAT 10:00 AM - 7:00 PM, SUN 12:00 PM - 6:00 PM",,,
South Broadway,,1725 South Broadway,,Minot,ND,58701,United States,(701) 838-3289,48.21548042332444,-101.29555018993415,"MON 6:00 AM - 2:00 AM, TUE 6:00 AM - 2:00 AM, WED 6:00 AM - 2:00 AM, THU 6:00 AM - 2:00 AM, FRI 6:00 AM - 2:00 AM, SAT 6:00 AM - 2:00 AM, SUN 6:00 AM - 2:00 AM",,,
S 3rd Street,,320 S 3rd Street,,Bismarck,ND,58501,United States,(701) 222-1878,46.80235195023185,-100.78838643435859,"MON 6:30 AM - 11:00 PM, TUE 6:30 AM - 11:00 PM, WED 6:30 AM - 11:00 PM, THU 6:30 AM - 11:00 PM, FRI 6:30 AM - 11:00 PM, SAT 7:00 AM - 11:00 PM, SUN 7:00 AM - 10:30 PM",,,
26th Avenue South,,4522 26th Avenue South,,Fargo,ND,58104,United States,(701) 356-8900,46.83964855274829,-96.86274021863937,"MON 7:00 AM - 11:00 PM, TUE 7:00 AM - 11:00 PM, WED 7:00 AM - 11:00 PM, THU 7:00 AM - 11:00 PM, FRI 7:00 AM - 12:00 PM, SAT 8:00 AM - 12:00 PM, SUN 8:00 AM - 11:00 PM",,,
E Broadway Avenue,,1922 E Broadway Avenue,,Bismarck,ND,58501,United States,(701) 258-5151,46.80636649659796,-100.76207222791709,"MON 6:30 AM - 10:00 PM, TUE 6:30 AM - 10:00 PM, WED 6:30 AM - 10:00 PM, THU 6:30 AM - 10:00 PM, FRI 6:30 AM - 10:00 PM, SAT 8:00 AM - 10:00 PM, SUN 8:00 AM - 10:00 PM",,,
N 13th Street,,1911 N 13th Street,,Bismarck,ND,58501,United States,(701) 223-7547,46.8265441239864,-100.77191233634949,"MON 6:30 AM - 11:00 PM, TUE 6:30 AM - 11:00 PM, WED 6:30 AM - 11:00 PM, THU 6:30 AM - 11:00 PM, FRI 6:30 AM - 11:00 PM, SAT 7:00 AM - 11:00 PM, SUN 7:00 AM - 10:30 PM",,,
Burnt Boat Drive,,1518 Burnt Boat Drive,,Bismarck,ND,58503,United States,(701) 258-1688,46.83135119549497,-100.81633910536766,"MON 6:30 AM - 11:00 PM, TUE 6:30 AM - 11:00 PM, WED 6:30 AM - 11:00 PM, THU 6:30 AM - 11:00 PM, FRI 6:30 AM - 11:00 PM, SAT 7:00 AM - 11:00 PM, SUN 8:00 AM - 10:30 PM",,,
N 10th Street,,318 N 10th Street,,Fargo,ND,58102,United States,(701) 232-9500,46.88019211685069,-96.7942875623703,"MON 7:00 AM - 11:00 PM, TUE 7:00 AM - 11:00 PM, WED 7:00 AM - 11:00 PM, THU 7:00 AM - 11:00 PM, FRI 7:00 AM - 12:00 AM, SAT 8:00 AM - 12:00 AM, SUN 8:00 AM - 11:00 PM",,,
32nd Avenue S,,2601 32nd Avenue S,,Fargo,ND,58103,United States,(701) 237-6039,46.83273888711779,-96.82270916553534,"MON 6:30 AM - 11:00 PM, TUE 6:30 AM - 11:00 PM, WED 6:30 AM - 11:00 PM, THU 6:30 AM - 11:00 PM, FRI 6:30 AM - 12:00 AM, SAT 6:30 AM - 12:00 AM, SUN 7:00 AM - 11:00 AM",,,
S 13th Avenue,,2201 S 13th Avenue,,Fargo,ND,58103,United States,(701) 232-0551,46.86193699655771,-96.81571438908571,"MON 7:00 AM - 11:00 PM, TUE 7:00 AM - 11:00 PM, WED 7:00 AM - 11:00 PM, THU 7:00 AM - 11:00 PM, FRI 7:00 AM - 12:00 AM, SAT 7:00 AM - 12:00 AM, SUN 8:00 AM - 11:00 PM",,,
W 41st Street,,6729 W 41st Street,,Sioux Falls,SD,57106,United States,(605) 362-1020,43.51425531613349,-96.81012332439423,"MON 6:00 AM - 11:00 PM, TUE 6:00 AM - 11:00 PM, WED 6:00 AM - 11:00 PM, THU 6:00 AM - 11:00 PM, FRI 6:00 AM - 2:00 AM, SAT 6:00 AM - 2:00 AM, SUN 6:00 AM - 11:00 PM",,,
S Louise Avenue,,5100 S Louise Avenue,,Sioux Falls,SD,57108,United States,(605) 361-9920,43.49941820606402,-96.77005069705046,"MON 6:30 AM - 10:00 PM, TUE 6:30 AM - 10:00 PM, WED 6:30 AM - 10:00 PM, THU 6:30 AM - 10:00 PM, FRI 6:30 AM - 10:00 PM, SAT 6:30 AM - 10:00 PM, SUN 8:00 AM - 10:00 PM",,,
N Cliff Avenue,,4209 N Cliff Avenue,,Sioux Falls,SD,57104,United States,(605) 338-7121,43.59286467962231,-96.71186864376068,"MON 6:00 AM - 10:00 PM, TUE 6:00 AM - 10:00 PM, WED 6:00 AM - 10:00 PM, THU 6:00 AM - 10:00 PM, FRI 6:00 AM - 10:00 PM, SAT 6:00 AM - 10:00 PM, SUN 8:00 AM - 10:00 PM",,,
W 41st Street,,4001 W 41st Street,,Sioux Falls,SD,57106,United States,(605) 361-7970,43.51153388516063,-96.77685052156448,"MON 10:00 AM - 9:00 PM, TUE 10:00 AM - 9:00 PM, WED 10:00 AM - 9:00 PM, THU 10:00 AM - 9:00 PM, FRI 10:00 AM - 9:00 PM, SAT 10:00 AM - 9:00 PM, SUN 12:00 PM - 6:00 PM",,,
W Main Street,,2810 W Main Street,,Rapid City,SD,57702,United States,(605) 343-7844,44.08247760798746,-103.26993717790981,"MON 6:30 AM - 11:00 PM, TUE 6:30 AM - 11:00 PM, WED 6:30 AM - 11:00 PM, THU 6:30 AM - 11:00 PM, FRI 6:30 AM - 11:00 PM, SAT 6:30 AM - 11:00 PM, SUN 8:00 AM - 10:00 PM",,,
N Maple Avenue,,2200 N Maple Avenue,,Rapid City,SD,57701,United States,(605) 342-6996,44.106668,-103.211732,"MON 10:00 AM - 9:00 PM, TUE 10:00 AM - 9:00 PM, WED 10:00 AM - 9:00 PM, THU 10:00 AM - 9:00 PM, FRI 10:00 AM - 8:00 PM, SAT 10:00 AM - 8:00 PM, SUN 11:00 AM - 6:00 PM",,,
Haines Avenue,,1828 Haines Avenue,,Rapid City,SD,57701,United States,(605) 343-3119,44.10274081910962,-103.22122471781768,"MON 6:30 AM - 11:00 PM, TUE 6:30 AM - 11:00 PM, WED 6:30 AM - 11:00 PM, THU 6:30 AM - 11:00 PM, FRI 6:30 AM - 12:00 AM, SAT 6:30 AM - 12:00 AM, SUN 7:30 AM - 11:00 PM",,,
Cambell Street,,1710 Cambell Street,,Rapid City,SD,57701,United States,(605) 343-6778,44.069677747210406,-103.19129303097725,"MON 6:00 AM - 11:00 PM, TUE 6:00 AM - 11:00 PM, WED 6:00 AM - 11:00 PM, THU 6:00 AM - 11:00 PM, FRI 6:00 AM - 12:00 AM, SAT 6:00 AM - 12:00 AM, SUN 8:00 AM - 11:00 PM",,,
W 12th Street,,1920 W 12th Street,,Sioux Falls,SD,57103,United States,(605) 338-8518,43.544295,-96.753331,"MON, TUE, WED, THU, FRI, SAT, SUN",,,
E 10th Street,,1609 E 10th Street,,Sioux Falls,SD,57103,United States,(605) 339-9558,43.54640671220431,-96.70554131269455,"MON, TUE, WED, THU, FRI, SAT, SUN",,,
24th Avenue S,,2651 24th Avenue S,,Grand Forks,ND,58201,United States,(701) 780-9800,47.89633025345488,-97.06480979919434,"MON 7:00 AM - 11:00 PM, TUE 7:00 AM - 11:00 PM, WED 7:00 AM - 11:00 PM, THU 7:00 AM - 11:00 PM, FRI 7:00 AM - 11:00 PM, SAT 8:00 AM - 11:00 PM, SUN 8:00 AM - 11:00 PM",,,
S Washington Street,,1111 S Washington Street,,Grand Forks,ND,58201,United States,(701) 772-9550,47.9109649698465,-97.04472675919527,"MON 6:30 AM - 11:00 PM, TUE 6:30 AM - 11:00 PM, WED 6:30 AM - 11:00 PM, THU 6:30 AM - 11:00 PM, FRI 6:30 AM - 1:00 AM, SAT 8:00 AM - 1:00 AM, SUN 8:00 AM - 11:00 PM",,,
W 41st Street,,1420 W 41st Street,,Sioux Falls,SD,57105,United States,(605) 339-2730,43.51514458527061,-96.7433479652027,"MON, TUE, WED, THU, FRI, SAT, SUN",,,
N Sanborn Blvd,,701 N Sanborn Blvd,,Mitchell,SD,57301,United States,(605) 996-4445,43.71556089792705,-98.03008988499641,"MON 7:00 AM - 10:00 PM, TUE 7:00 AM - 10:00 PM, WED 7:00 AM - 10:00 PM, THU 7:00 AM - 10:00 PM, FRI 7:00 AM - 11:00 PM, SAT 7:00 AM - 11:00 PM, SUN 7:00 AM - 10:00 PM",,,
E 57th Street,,1224 E 57th Street,,Sioux Falls,SD,57108,United States,(605) 332-0300,43.50099563287942,-96.70823693275452,"MON 6:30 AM - 10:00 PM, TUE 6:30 AM - 10:00 PM, WED 6:30 AM - 10:00 PM, THU 6:30 AM - 10:00 PM, FRI 6:30 AM - 10:00 PM, SAT 6:30 AM - 10:00 PM, SUN 8:00 AM - 10:00 PM",,,
W 4th Avenue,,219 W 4th Avenue,,Milbank,SD,57252,United States,(605) 432-4906,45.219125979602815,-96.64240973444976,"MON 7:00 AM - 10:00 PM, TUE 7:00 AM - 10:00 PM, WED 7:00 AM - 10:00 PM, THU 7:00 AM - 10:00 PM, FRI 7:00 AM - 10:30 PM, SAT 7:00 AM - 10:30 PM, SUN 7:00 AM - 10:00 PM",,,
N Josephine Avenue,,223 N Josephine Avenue,,Madison,SD,57042,United States,(605) 256-2587,44.00690122734419,-97.11861357092857,"MON 7:00 AM - 10:00 PM, TUE 7:00 AM - 10:00 PM, WED 7:00 AM - 10:00 PM, THU 7:00 AM - 10:00 PM, FRI 7:00 AM - 11:00 PM, SAT 7:00 AM - 10:00 PM, SUN 7:30 AM - 10:00 PM",,,
S Minnesota Avenue,,1100 S Minnesota Avenue,,Sioux Falls,SD,57105,United States,(605) 332-3811,43.535515798499745,-96.73098340630531,"MON 6:30 AM - 10:00 PM, TUE 6:30 AM - 10:00 PM, WED 6:30 AM - 10:00 PM, THU 6:30 AM - 10:00 PM, FRI 6:30 AM - 1:00 AM, SAT 6:30 AM - 1:00 AM, SUN 8:00 AM - 10:00 PM",,,
Dakota Avenue N,,410 Dakota Avenue N,,Huron,SD,57350,United States,(605) 352-4474,44.37083210761078,-98.21378993243115,"MON 6:30 AM - 12:00 AM, TUE 6:30 AM - 12:00 AM, WED 6:30 AM - 12:00 AM, THU 6:00 AM - 12:00 AM, FRI 6:30 AM - 12:00 AM, SAT 6:30 AM - 12:00 AM, SUN 7:30 AM - 11:00 PM",,,
Gateway Drive,,2522 Gateway Drive,,Grand Forks,ND,58203,United States,(701) 772-5712,47.93332710648423,-97.06390321254736,"MON 6:30 AM - 11:00 PM, TUE 6:30 AM - 11:00 PM, WED 6:30 AM - 11:00 PM, THU 6:30 AM - 11:00 PM, FRI 6:30 AM - 12:00 AM, SAT 8:00 AM - 12:00 AM, SUN 8:00 AM - 11:00 PM",,,
Jensen Highway,,1145 Jensen Highway,,Hot Springs,SD,57747,United States,(605) 745-6880,43.422130953519115,-103.46256628632545,"MON 7:00 AM - 10:00 PM, TUE 7:00 AM - 10:00 PM, WED 7:00 AM - 10:00 PM, THU 7:00 AM - 10:00 PM, FRI 7:00 AM - 10:00 PM, SAT 7:00 AM - 10:00 PM, SUN 8:00 AM - 9:00 PM",,,
Highway 212,,301 Highway 212,,Eagle Butte,SD,57625,United States,(605) 964-8146,45.00857043375198,-101.23416423797607,"MON 7:00 AM - 10:00 PM, TUE 7:00 AM - 10:00 PM, WED 7:00 AM - 10:00 PM, THU 7:00 AM - 10:00 PM, FRI 7:00 AM - 10:00 PM, SAT 7:00 AM - 10:00 PM, SUN 7:00 AM - 10:00 PM",,,
Charles Street,,86 Charles Street,,Deadwood,SD,57732,United States,(605) 578-3975,44.36970330644668,-103.72975990176201,"MON 7:00 AM - 10:30 PM, TUE 7:00 AM - 10:30 PM, WED 7:00 AM - 10:30 PM, THU 7:00 AM - 10:30 PM, FRI 7:00 AM - 11:00 PM, SAT 7:00 AM - 11:00 PM, SUN 7:00 AM - 10:30 PM",,,
S Front Street,,126 S Front Street,,Chamberlain,SD,57325,United States,(605) 734-4115,43.797122747526366,-99.33594705911673,"MON 7:00 AM - 11:00 PM, TUE 7:00 AM - 11:00 PM, WED 7:00 AM - 11:00 PM, THU 7:00 AM - 11:00 PM, FRI 7:00 AM - 11:00 PM, SAT 7:00 AM - 11:00 PM, SUN 7:00 AM - 11:00 PM",,,
E 5th Street,,704 E 5th Street,,Canton,SD,57013,United States,(605) 987-2410,43.30106980789204,-96.58459337802924,"MON 8:00 AM - 9:30 PM, TUE 8:00 AM - 9:30 PM, WED 8:00 AM - 9:30 PM, THU 8:00 AM - 9:30 PM, FRI 8:00 AM - 10:00 PM, SAT 8:00 AM - 10:00 PM, SUN 8:00 AM - 8:30 PM",,,
Medary Avenue,,609 Medary Avenue,,Brookings,SD,57006,United States,(605) 692-7524,44.31198110470354,-96.78888114543952,"MON 6:30 AM - 12:00 AM, TUE 6:30 AM - 12:00 AM, WED 6:30 AM - 12:00 AM, THU 6:30 AM - 12:00 AM, FRI 6:30 AM - 1:00 AM, SAT 6:30 AM - 1:00 AM, SUN 6:30 AM - 12:00 AM",,,
Split Rock Blvd,,101 Split Rock Blvd,,Brandon,SD,57005,United States,(605) 582-7287,43.59496020109994,-96.573072317791,"MON 6:00 AM - 10:00 PM, TUE 6:00 AM - 10:00 PM, WED 6:00 AM - 10:00 PM, THU 6:00 AM - 10:00 PM, FRI 6:00 AM - 11:00 PM, SAT 6:00 AM - 11:00 PM, SUN 6:00 AM - 10:00 PM",,,
Mill Street,,1401 Mill Street,,Belle Fourche,SD,57717,United States,(605) 892-6436,44.66235381750818,-103.85547101497644,"MON 7:00 AM - 10:00 PM, TUE 7:00 AM - 10:00 PM, WED 7:00 AM - 10:00 PM, THU 7:00 AM - 10:00 PM, FRI 7:00 AM - 10:00 PM, SAT 7:00 AM - 10:00 PM, SUN 7:00 AM - 10:00 PM",,,
SE 6th Avenue,,2300 SE 6th Avenue,,Aberdeen,SD,57401,United States,(605) 225-2533,45.45895292185747,-98.45542788505549,"MON 6:00 AM - 12:00 AM, TUE 6:00 AM - 12:00 AM, WED 6:00 AM - 12:00 AM, THU 6:00 AM - 12:00 AM, FRI 6:00 AM - 1:00 AM, SAT 6:30 AM - 1:00 AM, SUN 7:30 AM - 11:00 PM",,,
E Grand Avenue,,610 E Grand Avenue,,Wisconsin Rapids,WI,54494,United States,(715) 421-0602,44.38790482455414,-89.81908634305,"MON 6:00 AM - 12:00 AM, TUE 6:00 AM - 12:00 AM, WED 6:00 AM - 12:00 AM, THU 6:00 AM - 12:00 AM, FRI 6:00 AM - 1:00 AM, SAT 7:00 AM - 1:00 AM, SUN 7:00 AM - 11:00 AM",,,
WI-21 (Temporarily Closed),,W7684 WI-21,,Wautoma,WI,54982,United States,(920) 787-1050,44.06861491311972,-89.26641047000885,"MON 7:00 AM - 10:00 PM, TUE 7:00 AM - 10:00 PM, WED 7:00 AM - 10:00 PM, THU 7:00 AM - 10:00 PM, FRI 7:00 AM - 10:00 PM, SAT 7:00 AM - 10:00 PM, SUN 8:00 AM - 10:00 PM",,,
N Grand Avenue,,317 N Grand Avenue,,Waukesha,WI,53186,United States,(262) 524-9898,43.006383026447274,-88.23136746883392,"MON 5:30 AM - 12:00 AM, TUE 5:30 AM - 12:00 AM, WED 5:30 AM - 12:00 AM, THU 5:30 AM - 12:00 AM, FRI 5:30 AM - 12:00 AM, SAT 7:00 AM - 12:00 AM, SUN 7:00 AM - 12:00 AM",,,
Tower Avenue,,2437 Tower Avenue,,Superior,WI,54880,United States,(715) 395-1725,46.708176299914406,-92.10463419556618,"MON 7:00 AM - 12:00 AM, TUE 7:00 AM - 12:00 AM, WED 7:00 AM - 12:00 AM, THU 7:00 AM - 12:00 AM, FRI 7:00 AM - 1:00 AM, SAT 7:00 AM - 1:00 AM, SUN 8:00 AM - 12:00 AM",,,
US Highway 51 S,,5512 US Highway 51 S,,Schofield,WI,54476,United States,(715) 298-3413,44.90683535836392,-89.60627049207687,"MON 7:00 AM - 10:00 PM, TUE 7:00 AM - 10:00 PM, WED 7:00 AM - 10:00 PM, THU 7:00 AM - 10:00 PM, FRI 7:00 AM - 10:00 PM, SAT 7:00 AM - 10:00 PM, SUN 8:00 AM - 10:00 PM",,,
S Decker Drive,,2941 S Decker Drive,,Rice Lake,WI,54868,United States,(715) 234-3011,45.472383257542084,-91.75254464149475,"MON 7:00 AM - 10:00 PM, TUE 7:00 AM - 10:00 PM, WED 7:00 AM - 10:00 PM, THU 7:00 AM - 10:00 PM, FRI 7:00 AM - 11:00 PM, SAT 7:00 AM - 10:00 PM, SUN 8:00 AM - 10:00 PM",,,
Lincoln Street,,2141 Lincoln Street,,Rhinelander,WI,54501,United States,(715) 362-7996,45.63376984815254,-89.38243972512282,"MON 7:00 AM - 10:00 PM, TUE 7:00 AM - 10:00 PM, WED 7:00 AM - 10:00 PM, THU 7:00 AM - 10:00 PM, FRI 7:00 AM - 10:00 PM, SAT 7:00 AM - 10:00 PM, SUN 8:00 AM - 10:00 PM",,,
E Business Highway 151,,1465 E Business Highway 151,,Platteville,WI,53818,United States,(608) 348-5400,42.732495744295576,-90.4538069665432,"MON 7:00 AM - 10:00 PM, TUE 7:00 AM - 10:00 PM, WED 7:00 AM - 10:00 PM, THU 7:00 AM - 10:00 PM, FRI 7:00 AM - 10:00 PM, SAT 8:00 AM - 10:00 PM, SUN 8:00 AM - 10:00 PM",,,
Cox Lane,,12910 Cox Lane,,Osseo,WI,54758,United States,(715) 597-6819,44.57979247301117,-91.20933830738068,"MON 7:00 AM - 11:00 PM, TUE 7:00 AM - 11:00 PM, WED 7:00 AM - 11:00 PM, THU 7:00 AM - 11:00 PM, FRI 7:00 AM - 11:00 PM, SAT 7:00 AM - 11:00 PM, SUN 7:00 AM - 11:00 PM",,,
N Sawyer Street,,105 N Sawyer Street,,Oshkosh,WI,54902,United States,(920) 230-8226,44.01815315589568,-88.56783449649811,"MON 6:30 AM - 10:30 PM, TUE 6:30 AM - 10:30 PM, WED 6:30 AM - 10:30 PM, THU 6:30 AM - 10:30 PM, FRI 6:30 AM - 10:30 PM, SAT 7:30 AM - 10:30 PM, SUN 7:30 AM - 10:30 PM",,,
Monona Drive,,6305 Monona Drive,,Monona,WI,53716,United States,(608) 221-4622,43.04989783348944,-89.32553440332413,"MON 7:00 AM - 10:00 PM, TUE 7:00 AM - 10:00 PM, WED 7:00 AM - 10:00 PM, THU 7:00 AM - 10:00 PM, FRI 7:00 AM - 11:00 PM, SAT 7:00 AM - 10:00 PM, SUN 8:00 AM - 10:00 PM",,,
Broadway Street N,,1526 Broadway Street N,,Menomonie,WI,54751,United States,(715) 235-4477,44.900587382965895,-91.93126919122733,"MON 6:30 AM - 10:00 PM, TUE 6:30 AM - 10:00 PM, WED 6:30 AM - 10:00 PM, THU 6:30 AM - 10:00 PM, FRI 6:30 AM - 10:00 PM, SAT 6:30 AM - 10:00 PM, SUN 8:00 AM - 10:00 PM",,,
N Central Avenue,,813 N Central Avenue,,Marshfield,WI,54449,United States,(715) 387-4884,44.6746512812014,-90.16750084610976,"MON 7:00 AM - 10:00 PM, TUE 7:00 AM - 10:00 PM, WED 7:00 AM - 10:00 PM, THU 7:00 AM - 10:00 PM, FRI 7:00 AM - 11:00 PM, SAT 7:00 AM - 11:00 PM, SUN 8:00 AM - 10:00 PM",,,
East Ann Street,,300 East Ann Street,,Kaukauna,WI,54130,United States,(920) 766-6080,44.26033600117418,-88.27180445194244,"MON 6:00 AM - 10:00 PM, TUE 6:00 AM - 10:00 PM, WED 6:00 AM - 10:00 PM, THU 6:00 AM - 10:00 PM, FRI 6:00 AM - 10:00 PM, SAT 6:00 AM - 10:00 PM, SUN 6:00 AM - 10:00 PM",,,
Milton Avenue,,2821 Milton Avenue,,Janesville,WI,53546,United States,(608) 563-2096,42.717545,-88.999324,"MON 6:00 AM - 11:00 PM, TUE 6:00 AM - 11:00 PM, WED 6:00 AM - 11:00 PM, THU 6:00 AM - 11:00 PM, FRI 6:00 AM - 12:00 AM, SAT 6:00 AM - 12:00 AM, SUN 6:00 AM - 11:00 PM",,,
11th St S,,710 11th St S,,Hudson,WI,54016,United States,(715) 386-5522,44.96361086098414,-92.74335667490959,"MON 6:30 AM - 10:00 PM, TUE 6:30 AM - 10:00 PM, WED 6:30 AM - 10:00 PM, THU 6:30 AM - 10:00 PM, FRI 6:30 AM - 10:00 PM, SAT 6:30 AM - 10:00 PM, SUN 8:00 AM - 10:00 PM",,,
North Main Street,,84 North Main Street,,Fond du Lac,WI,54935,United States,(920) 922-4400,43.781591581674604,-88.4473805129528,"MON 6:00 AM - 12:00 AM, TUE 6:00 AM - 12:00 AM, WED 6:00 AM - 12:00 AM, THU 6:00 AM - 12:00 AM, FRI 6:00 AM - 3:00 AM, SAT 7:30 AM - 3:00 AM, SUN 8:00 AM - 10:00 PM",,,
Goede Road,,11180 Goede Road Suite #1,,Edgerton,WI,53534,United States,(608) 884-0196,42.835764347215076,-89.02412384748453,"MON 6:00 AM - 11:00 PM, TUE 6:00 AM - 11:00 PM, WED 6:00 AM - 11:00 PM, THU 6:00 AM - 11:00 PM, FRI 6:00 AM - 12:00 AM, SAT 6:00 AM - 12:00 AM, SUN 6:00 AM - 11:00 PM",,,
Oasis Road,,400 Oasis Road,,Black River Falls,WI,54615,United States,(715) 284-3010,44.296267608270995,-90.82033485174179,"MON 7:00 AM - 11:00 PM, TUE 7:00 AM - 11:00 PM, WED 7:00 AM - 11:00 PM, THU 7:00 AM - 11:00 PM, FRI 7:00 AM - 11:00 PM, SAT 7:00 AM - 11:00 PM, SUN 7:00 AM - 11:00 PM",,,
Liberty Avenue,,147 Liberty Avenue,,Beloit,WI,53511,United States,(608) 365-7055,42.51138181257235,-89.03825104236608,"MON 6:00 AM - 10:00 PM, TUE 6:00 AM - 10:00 PM, WED 6:00 AM - 10:00 PM, THU 6:00 AM - 10:00 PM, FRI 6:00 AM - 10:00 PM, SAT 6:00 AM - 10:00 PM, SUN 6:00 AM - 10:00 PM",,,
Eaton Road,,2672 Eaton Road,,Bellevue,WI,54311,United States,(920) 406-7630,44.46470882473955,-87.9492661356926,"MON 7:00 AM - 10:00 PM, TUE 7:00 AM - 10:00 PM, WED 7:00 AM - 10:00 PM, THU 7:00 AM - 10:00 PM, FRI 7:00 AM - 10:00 PM, SAT 7:00 AM - 10:00 PM, SUN 8:00 AM - 10:00 PM",,,
Highway 45 N,,2405 Highway 45 N,,Antigo,WI,54409,United States,(715) 627-0500,45.16469008002933,-89.14749473333359,"MON 7:00 AM - 10:00 PM, TUE 7:00 AM - 10:00 PM, WED 7:00 AM - 10:00 PM, THU 7:00 AM - 10:00 PM, FRI 7:00 AM - 10:00 PM, SAT 8:00 AM - 10:00 PM, SUN 8:00 AM - 10:00 PM",,,
E Wellesley,,E 1002 Wellesley,,Spokane,WA,99207,United States,(509) 487-6093,47.70045504854438,-117.3945701122284,"MON 7:00 AM - 10:00 PM, TUE 7:00 AM - 10:00 PM, WED 7:00 AM - 10:00 PM, THU 7:00 AM - 10:00 PM, FRI 7:00 AM - 10:00 PM, SAT 8:00 AM - 10:00 PM, SUN 8:00 AM - 10:00 PM",,,
Barnes Blvd,,504 Barnes Blvd,,McChord AFB,WA,98438,United States,(253) 581-5145,47.126678,-122.49615,"MON 11:00 AM - 5:00 PM, TUE 11:00 AM - 5:00 PM, WED 11:00 AM - 5:00 PM, THU 11:00 AM - 5:00 PM, FRI 11:00 AM - 5:00 PM, SAT 11:00 AM - 5:00 PM, SUN 11:00 AM - 5:00 PM",,,
Vineyard Drive,,701 Vineyard Drive,,Kennewick,WA,99336,United States,(509) 586-2964,46.206848143393046,-119.12767007946968,"MON 7:00 AM - 10:00 PM, TUE 7:00 AM - 10:00 PM, WED 7:00 AM - 10:00 PM, THU 7:00 AM - 10:00 PM, FRI 7:00 AM - 10:00 PM, SAT 7:00 AM - 10:00 PM, SUN 8:00 AM - 10:00 PM",,,
41st Division Dr,,5280 41st Division Dr,,Fort Lewis,WA,98433,United States,(253) 964-4430,47.09199240018317,-122.58946546920924,"MON 10:30 AM - 8:00 PM, TUE 10:30 AM - 8:00 PM, WED 10:30 AM - 8:00 PM, THU 10:30 AM - 8:00 PM, FRI 10:30 AM - 8:00 PM, SAT 10:30 AM - 8:00 PM, SUN 10:30 AM - 8:00 PM",,,
East Coulter Avenue,,525 East Coulter Avenue,,Powell,WY,82435,United States,(307) 754-9527,44.753183119881804,-108.75218018889427,"MON 7:00 AM - 11:00 PM, TUE 7:00 AM - 11:00 PM, WED 7:00 AM - 11:00 PM, THU 7:00 AM - 11:00 PM, FRI 7:00 AM - 11:00 PM, SAT 7:00 AM - 11:00 PM, SUN 8:00 AM - 11:00 PM",,,
W Yellowstone Highway,,3533 W Yellowstone Highway,,Mills,WY,82604,United States,(307) 235-8102,42.84749074995462,-106.37435093522072,"MON 7:00 AM - 10:00 PM, TUE 7:00 AM - 10:00 PM, WED 7:00 AM - 10:00 PM, THU 7:00 AM - 10:00 PM, FRI 7:00 AM - 11:00 PM, SAT 8:00 AM - 11:00 PM, SUN 8:00 AM - 11:00 PM",,,
Grand Avenue,,2114 Grand Avenue,,Laramie,WY,82070,United States,(307) 745-5085,41.30933646852949,-105.56670384856261,"MON 7:00 AM - 11:00 PM, TUE 7:00 AM - 11:00 PM, WED 7:00 AM - 11:00 PM, THU 7:00 AM - 11:00 PM, FRI 7:00 AM - 12:00 AM, SAT 7:00 AM - 12:00 AM, SUN 8:00 AM - 10:00 PM",,,
Main Street,,870 Main Street,,Lander,WY,82520,United States,(307) 332-0291,42.83586465795851,-108.74289572238922,"MON 7:00 AM - 10:00 PM, TUE 7:00 AM - 10:00 PM, WED 7:00 AM - 10:00 PM, THU 7:00 AM - 10:00 PM, FRI 7:00 AM - 10:00 PM, SAT 7:00 AM - 10:00 PM, SUN 8:00 AM - 10:00 PM",,,
Teton Way,,400 Teton Way,,Douglas,WY,82633,United States,(307) 358-3744,42.763285679132544,-105.4037788510322,"MON 7:00 AM - 10:00 PM, TUE 7:00 AM - 10:00 PM, WED 7:00 AM - 10:00 PM, THU 7:00 AM - 10:00 PM, FRI 7:00 AM - 11:00 PM, SAT 8:00 AM - 11:00 PM, SUN 8:00 AM - 10:00 PM",,,
W Prairie View Road,,257 W Prairie View Road,,Chippewa Falls,WI,54729,United States,(715) 723-5011,44.91302470463003,-91.39090868087806,"MON 6:00 AM - 10:30 PM, TUE 6:00 AM - 10:30 PM, WED 6:00 AM - 10:30 PM, THU 6:00 AM - 10:30 PM, FRI 6:00 AM - 10:30 PM, SAT 6:00 AM - 10:30 PM, SUN 7:00 AM - 10:30 PM",,,
Monitor Street,,602 Monitor Street,,La Crosse,WI,54603,United States,(608) 782-1750,43.8280477771471,-91.24772742390633,"MON 6:30 AM - 12:00 AM, TUE 6:30 AM - 12:00 AM, WED 6:30 AM - 12:00 AM, THU 6:30 AM - 3:00 AM, FRI 6:30 AM - 3:00 AM, SAT 7:30 AM - 3:00 AM, SUN 7:30 AM - 12:00 AM",,,
Jackson Street,,1211 Jackson Street,,La Crosse,WI,54601,United States,(608) 782-1890,43.80167218610926,-91.23905139418639,"MON 6:30 AM - 12:00 AM, TUE 6:30 AM - 12:00 AM, WED 6:30 AM - 12:00 AM, THU 6:30 AM - 3:00 AM, FRI 6:30 AM - 3:00 AM, SAT 7:30 AM - 3:00 AM, SUN 7:30 AM - 12:00 AM",,,
17th Street,,2207 17th Street,,Cody,WY,82414,United States,(307) 527-6424,44.51457558779089,-109.05284106731415,"MON 7:00 AM - 11:00 PM, TUE 7:00 AM - 11:00 PM, WED 7:00 AM - 11:00 PM, THU 7:00 AM - 11:00 PM, FRI 7:00 AM - 11:00 PM, SAT 7:00 AM - 11:00 PM, SUN 7:00 AM - 10:00 PM",,,
Commercial Blvd,,2982 Commercial Blvd,,Chippewa Falls,WI,54729,United States,(715) 726-2335,44.88602830264141,-91.41937617790984,"MON 6:00 AM - 11:00 PM, TUE 6:00 AM - 11:00 PM, WED 6:00 AM - 11:00 PM, THU 6:00 AM - 11:00 PM, FRI 6:00 AM - 11:00 PM, SAT 6:00 AM - 11:00 PM, SUN 7:00 AM - 11:00 PM",,,
Golf Road,,4800 Golf Road,,Eau Claire,WI,54701,United States,(715) 834-1991,44.775857,-91.441392,"MON 8:30 AM - 9:00 PM, TUE 8:30 AM - 9:00 PM, WED 8:30 AM - 9:00 PM, THU 8:30 AM - 9:00 PM, FRI 8:30 AM - 9:00 PM, SAT 8:30 AM - 9:00 PM, SUN 9:00 AM - 6:00 PM",,,
Brackett Avenue,,2001 Brackett Avenue,,Eau Claire,WI,54701,United States,(715) 834-0031,44.79964535097243,-91.47303164005285,"MON 6:00 AM - 10:30 PM, TUE 6:00 AM - 10:30 PM, WED 6:00 AM - 10:30 PM, THU 6:00 AM - 10:30 PM, FRI 6:00 AM - 10:30 PM, SAT 6:00 AM - 10:30 PM, SUN 7:00 AM - 10:30 PM",,,
E Hart Street,,100 E Hart Street,,Buffalo,WY,82834,United States,(307) 684-7747,44.354369153474195,-106.69487223029137,"MON 7:00 AM - 10:00 PM, TUE 7:00 AM - 10:00 PM, WED 7:00 AM - 10:00 PM, THU 7:00 AM - 10:00 PM, FRI 7:00 AM - 11:00 PM, SAT 7:00 AM - 11:00 PM, SUN 7:00 AM - 10:00 PM",,,
W. Wisconsin Avenue,,4301 W. Wisconsin Avenue,,Appleton,WI,54913,United States,(920) 997-6061,44.268624,-88.47113,"MON 8:00 AM - 9:00 PM, TUE 8:00 AM - 9:00 PM, WED 8:00 AM - 9:00 PM, THU 8:00 AM - 9:00 PM, FRI 8:00 AM - 9:00 PM, SAT 8:00 AM - 9:00 PM, SUN 9:00 AM - 6:00 PM",,,
N Richmond Street,,1416 N Richmond Street,,Appleton,WI,54911,United States,(920) 733-0544,44.27425248009383,-88.41532811522484,"MON 6:30 AM - 11:00 PM, TUE 6:30 AM - 11:00 PM, WED 6:30 AM - 11:00 PM, THU 6:30 AM - 11:00 PM, FRI 6:30 AM - 11:00 PM, SAT 7:30 AM - 11:00 PM, SUN 7:30 AM - 10:00 PM",,,
E Box Elder Road,,610 E Box Elder Road,,Gillette,WY,82718,United States,(307) 685-6950,44.27585029700597,-105.49645453691483,"MON 6:00 AM - 11:00 PM, TUE 6:00 AM - 11:00 PM, WED 6:00 AM - 11:00 PM, THU 6:00 AM - 11:00 PM, FRI 6:00 AM - 12:00 AM, SAT 6:00 AM - 12:00 AM, SUN 7:00 AM - 11:00 PM",,,
E Pershing Blvd (Temporarily Closed),,3411 E Pershing Blvd,,Cheyenne,WY,82001,United States,(307) 634-7430,41.14535610192211,-104.76793261619605,"MON, TUE, WED, THU, FRI, SAT, SUN",,,
E 2nd Street,,808 E 2nd Street,,Gillette,WY,82716,United States,(307) 682-2224,44.29264491029746,-105.49171641469002,"MON 7:00 AM - 10:00 PM, TUE 7:00 AM - 10:00 PM, WED 7:00 AM - 10:00 PM, THU 7:00 AM - 10:00 PM, FRI 7:00 AM - 10:00 PM, SAT 7:00 AM - 10:00 PM, SUN 8:00 AM - 10:00 PM",,,
N Yellowstone Road,,5421 Yellowstone Road,,Cheyenne,WY,82009,United States,(307) 637-2863,41.1692957,-104.8282032,"MON 5:45 AM - 11:00 PM, TUE 5:45 AM - 11:00 PM, WED 5:45 AM - 11:00 PM, THU 5:45 AM - 11:00 PM, FRI 5:45 AM - 12:00 AM, SAT 5:45 AM - 12:00 AM, SUN 5:45 AM - 11:00 PM",,,
Dell Range Blvd,,3308 Dell Range Blvd,,Cheyenne,WY,82009,United States,(307) 514-3244,41.160387884753206,-104.76873727890052,"MON 6:00 AM - 11:00 PM, TUE 6:00 AM - 11:00 PM, WED 6:00 AM - 11:00 PM, THU 6:00 AM - 11:00 PM, FRI 6:00 AM - 12:00 AM, SAT 6:00 AM - 12:00 AM, SUN 6:00 AM - 11:00 PM",,,
Carey Avenue,,2220 Carey Avenue,,Cheyenne,WY,82001,United States,(307) 634-7853,41.138260635711895,-104.82056200504303,"MON 6:00 AM - 11:00 PM, TUE 6:00 AM - 11:00 PM, WED 6:00 AM - 11:00 PM, THU 6:00 AM - 11:00 PM, FRI 6:00 AM - 11:00 PM, SAT 6:00 AM - 11:00 PM, SUN 6:00 AM - 11:00 PM",,,
West F Street,,80 West F Street,,Casper,WY,82601,United States,(307) 235-0297,42.85749008053625,-106.3259822353939,"MON 7:00 AM - 10:00 PM, TUE 7:00 AM - 10:00 PM, WED 7:00 AM - 10:00 PM, THU 7:00 AM - 10:00 PM, FRI 7:00 AM - 11:00 PM, SAT 8:00 AM - 11:00 PM, SUN 8:00 AM - 10:00 PM",,,
W Bremer Avenue,,617 W Bremer Avenue,,Waverly,IA,50677,United States,(319) 352-5055,42.725452472833744,-92.47860746832885,"MON 7:00 AM - 10:00 PM, TUE 7:00 AM - 10:00 PM, WED 7:00 AM - 10:00 PM, THU 7:00 AM - 10:00 PM, FRI 7:00 AM - 10:00 PM, SAT 8:00 AM - 10:00 PM, SUN 8:00 AM - 10:00 PM",,,
S Greeley Highway,,101 S Greeley Highway,,Cheyenne,WY,82007,United States,(307) 634-1555,41.11655074041031,-104.8027628660202,"MON 6:00 AM - 12:00 AM, TUE 6:00 AM - 12:00 AM, WED 6:00 AM - 12:00 AM, THU 6:00 AM - 12:00 AM, FRI 6:00 AM - 1:00 AM, SAT 6:00 AM - 1:00 AM, SUN 6:00 AM - 12:00 AM",,,
Hickman Rd,,205 Hickman Rd,,Waukee,IA,50263,United States,(515) 216-2204,41.61533537682935,-93.86689697210386,"MON 7:00 AM - 11:00 PM, TUE 7:00 AM - 11:00 PM, WED 7:00 AM - 11:00 PM, THU 7:00 AM - 11:00 PM, FRI 7:00 AM - 12:00 AM, SAT 8:00 AM - 12:00 AM, SUN 8:00 AM - 11:00 PM",,,
Laporte Road,,1620 Laporte Road,,Waterloo,IA,50702,United States,(319) 233-3651,42.470499319364656,-92.32306256890291,"MON 7:00 AM - 12:00 AM, TUE 7:00 AM - 12:00 AM, WED 7:00 AM - 12:00 AM, THU 7:00 AM - 12:00 AM, FRI 7:00 AM - 1:00 AM, SAT 7:00 AM - 1:00 AM, SUN 7:00 AM - 12:00 AM",,,
S Alpine Road,,3269 S Alpine Road,,Rockford,IL,61109,United States,(779) 368-0832,42.22774476022318,-89.02937561273575,"MON 6:00 AM - 10:00 PM, TUE 6:00 AM - 10:00 PM, WED 6:00 AM - 10:00 PM, THU 6:00 AM - 10:00 PM, FRI 6:00 AM - 10:00 PM, SAT 6:00 AM - 10:00 PM, SUN 7:00 AM - 10:00 PM",,,
CY Avenue,,766 CY Avenue,,Casper,WY,82601,United States,(307) 265-6805,42.8371627823031,-106.33452415466309,"MON 7:00 AM - 10:00 PM, TUE 7:00 AM - 10:00 PM, WED 7:00 AM - 10:00 PM, THU 7:00 AM - 10:00 PM, FRI 7:00 AM - 11:00 PM, SAT 8:00 AM - 11:00 PM, SUN 8:00 AM - 10:00 PM",,,
N Court Street,,903 N Court Street,,Marion,IL,62959,United States,(618) 993-8901,37.73740892154864,-88.93231811376609,"MON 7:00 AM - 10:00 PM, TUE 7:00 AM - 10:00 PM, WED 7:00 AM - 10:00 PM, THU 7:00 AM - 10:00 PM, FRI 7:00 AM - 11:00 PM, SAT 8:00 AM - 11:00 PM, SUN 8:00 AM - 10:00 PM",,,
N 2nd Street,,8304 N 2nd Street,,Machesney Park,IL,61115,United States,(815) 877-3141,42.34300113635697,-89.05234068632132,"MON 6:00 AM - 12:00 AM, TUE 6:00 AM - 12:00 AM, WED 6:00 AM - 12:00 AM, THU 6:00 AM - 12:00 AM, FRI 6:00 AM - 12:00 AM, SAT 6:00 AM - 12:00 AM, SUN 6:00 AM - 12:00 AM",,,
Royal Vista Circle,,7605 Royal Vista Circle,,Windsor,CO,80528,United States,(970) 266-2665,40.47889209278517,-104.98728275299072,"MON 5:45 AM - 11:30 PM, TUE 5:45 AM - 11:30 PM, WED 5:45 AM - 11:30 PM, THU 5:45 AM - 11:30 PM, FRI 5:45 AM - 12:00 AM, SAT 5:45 AM - 12:00 AM, SUN 5:45 AM - 11:30 PM",,,
280 W 136th Ave (Coming Soon),,280 W 136th Ave,,Westminster,CO,80234,United States,(720) 728-6886,39.940245489328454,-104.99063593386848,"MON 7:00 AM - 11:00 PM, TUE 7:00 AM - 11:00 PM, WED 7:00 AM - 11:00 PM, THU 7:00 AM - 11:00 PM, FRI 7:00 AM - 11:00 PM, SAT 7:00 AM - 11:00 PM, SUN 7:30 AM - 11:00 PM",,,
S. 6th Street,,7910 S. 6th Street,,Wellington,CO,80549,United States,(970) 568-3967,40.70080476900333,-104.99964371323586,"MON 7:00 AM - 10:00 PM, TUE 7:00 AM - 10:00 PM, WED 7:00 AM - 10:00 PM, THU 7:00 AM - 10:00 PM, FRI 7:00 AM - 10:00 PM, SAT 7:00 AM - 10:00 PM, SUN 7:00 AM - 10:00 PM",,,
Washington Street,,9675 Washington Street,,Thornton,CO,80229,United States,(303) 484-9828,39.87233945415428,-104.97838275881804,"MON 7:00 AM - 11:00 PM, TUE 7:00 AM - 11:00 PM, WED 7:00 AM - 11:00 PM, THU 7:00 AM - 11:00 PM, FRI 7:00 AM - 11:00 PM, SAT 7:00 AM - 11:00 PM, SUN 7:30 AM - 11:00 PM",,,
W Main Street,,317 W Main Street,,Sterling,CO,80751,United States,(970) 522-5564,40.62518363841615,-103.21591168642044,"MON 6:00 AM - 10:00 PM, TUE 6:00 AM - 10:00 PM, WED 6:00 AM - 10:00 PM, THU 6:00 AM - 10:00 PM, FRI 6:00 AM - 11:00 PM, SAT 6:00 AM - 11:00 PM, SUN 6:00 AM - 10:00 PM",,,
N Arkansas Avenue,,1103 N Arkansas Avenue,,Russellville,AR,72801,United States,(479) 967-1985,35.28865141870331,-93.13374146819115,"MON 6:30 AM - 11:00 PM, TUE 6:30 AM - 11:00 PM, WED 6:30 AM - 11:00 PM, THU 6:30 AM - 11:00 PM, FRI 6:30 AM - 11:00 PM, SAT 8:00 AM - 11:00 PM, SUN 8:00 AM - 11:00 PM",,,
E Main Street,,1300 E Main Street,,Montrose,CO,81401,United States,(970) 765-2224,38.485924503571965,-107.86663681268692,"MON 7:00 AM - 10:00 PM, TUE 7:00 AM - 10:00 PM, WED 7:00 AM - 10:00 PM, THU 7:00 AM - 10:00 PM, FRI 7:00 AM - 10:00 PM, SAT 8:00 AM - 10:00 PM, SUN 8:00 AM - 10:00 PM",,,
N. Lincoln Avenue,,1635 N. Lincoln Avenue,,Loveland,CO,80538,United States,(970) 667-2066,40.41071860667073,-105.07345139980316,"MON 7:00 AM - 10:00 PM, TUE 7:00 AM - 10:00 PM, WED 7:00 AM - 10:00 PM, THU 7:00 AM - 10:00 PM, FRI 7:00 AM - 10:00 PM, SAT 7:00 AM - 10:00 PM, SUN 8:00 AM - 10:00 PM",,,
East Main Street,,1819 East Main Street,,Russellville,AR,72801,United States,(479) 280-1932,35.278647621479585,-93.1114912033081,"MON 6:30 AM - 10:00 PM, TUE 6:30 AM - 10:00 PM, WED 6:30 AM - 10:00 PM, THU 6:30 AM - 10:00 PM, FRI 6:30 AM - 10:00 PM, SAT 8:00 AM - 10:00 PM, SUN 8:00 AM - 10:00 PM",,,
Main Street,,933 Main Street,,Longmont,CO,80501,United States,(303) 485-0684,40.17531563833131,-105.10279342532158,"MON 7:00 AM - 10:00 PM, TUE 7:00 AM - 10:00 PM, WED 7:00 AM - 10:00 PM, THU 7:00 AM - 10:00 PM, FRI 7:00 AM - 11:00 PM, SAT 7:00 AM - 10:00 PM, SUN 8:00 AM - 10:00 PM",,,
Main Street,,1701 S. Main Street,,Lamar,CO,81052,United States,(719) 336-2124,38.0743692,-102.6178236,"MON 6:30 AM - 10:00 PM, TUE 6:30 AM - 10:00 PM, WED 6:30 AM - 10:00 PM, THU 6:30 AM - 10:00 PM, FRI 6:30 AM - 11:00 PM, SAT 6:30 AM - 11:00 PM, SUN 8:00 AM - 10:00 PM",,,
11th Avenue,,2508 11th Avenue,,Greeley,CO,80631,United States,(970) 352-5438,40.39683423407959,-104.69655635210074,"MON 6:00 AM - 11:00 PM, TUE 6:00 AM - 11:00 PM, WED 6:00 AM - 11:00 PM, THU 6:00 AM - 11:00 PM, FRI 6:00 AM - 12:00 AM, SAT 6:00 AM - 12:00 AM, SUN 6:00 AM - 11:00 PM",,,
W Riverview Avenue,,120 W Riverview Avenue,,Fort Morgan,CO,80701,United States,(970) 867-3403,40.26098712099781,-103.80233511328697,"MON 6:30 AM - 10:00 PM, TUE 6:30 AM - 10:00 PM, WED 6:30 AM - 10:00 PM, THU 6:30 AM - 10:00 PM, FRI 6:30 AM - 10:00 PM, SAT 6:30 AM - 10:00 PM, SUN 8:00 AM - 10:00 PM",,,
Vista Drive,,7253 Vista Drive,,West Des Moines,IA,50266,United States,(515) 457-9100,41.58957716916364,-93.80735144019127,"MON 6:30 AM - 12:00 AM, TUE 6:30 AM - 12:00 AM, WED 6:30 AM - 12:00 AM, THU 6:30 AM - 12:00 AM, FRI 6:30 AM - 1:00 AM, SAT 8:00 AM - 1:00 AM, SUN 8:00 AM - 12:00 AM",,,
Valley West,,1551 Valley West Dr,,West Des Moines,IA,50265,United States,(515) 440-3684,41.59871111717199,-93.75010822713648,"MON 10:00 AM - 9:00 PM, TUE 10:00 AM - 9:00 PM, WED 10:00 AM - 9:00 PM, THU 10:00 AM - 9:00 PM, FRI 10:00 AM - 9:00 PM, SAT 10:00 AM - 9:00 PM, SUN 11:00 AM - 6:00 PM",,,
Jordan Creek Parkway,,101 Jordan Creek Parkway,,West Des Moines,IA,50266,United States,(515) 226-0656,41.56925430712666,-93.80371400722652,"MON 10:00 AM - 9:00 PM, TUE 10:00 AM - 9:00 PM, WED 10:00 AM - 9:00 PM, THU 10:00 AM - 9:00 PM, FRI 10:00 AM - 9:00 PM, SAT 10:00 AM - 9:00 PM, SUN 11:00 AM - 6:00 PM",,,
Martinez Street,,6110 Martinez Street,,Fort Carson,CO,80913,United States,(719) 576-5661,38.737490034470376,-104.79584813117981,"MON 7:00 AM - 10:00 PM, TUE 7:00 AM - 10:00 PM, WED 7:00 AM - 10:00 PM, THU 7:00 AM - 10:00 PM, FRI 7:00 AM - 10:00 PM, SAT 7:00 AM - 10:00 PM, SUN 8:00 AM - 10:00 PM",,,
Logan Street,,5810 Logan Street,,Denver,CO,80216,United States,(720) 889-1780,39.802309106216775,-104.98230457305908,"MON 6:30 AM - 10:00 PM, TUE 6:30 AM - 10:00 PM, WED 6:30 AM - 10:00 PM, THU 6:30 AM - 1:00 AM, FRI 6:30 AM - 2:00 AM, SAT 6:30 AM - 2:00 AM, SUN 6:30 AM - 10:00 PM",,,
Grand Avenue,,350 Grand Avenue,,West Des Moines,IA,50265,United States,(515) 255-4485,41.58230698109849,-93.70681734110451,"MON 6:30 AM - 12:00 AM, TUE 6:30 AM - 12:00 AM, WED 6:30 AM - 12:00 AM, THU 6:30 AM - 12:00 AM, FRI 6:30 AM - 1:00 AM, SAT 7:00 AM - 1:00 AM, SUN 8:00 AM - 12:00 AM",,,
Hwy 6 & 24,,3226 Hwy 6 and 24,,Clifton,CO,81520,United States,(970) 314-2291,39.08937826955274,-108.45302769550472,"MON 7:00 AM - 10:00 PM, TUE 7:00 AM - 10:00 PM, WED 7:00 AM - 10:00 PM, THU 7:00 AM - 10:00 PM, FRI 7:00 AM - 11:00 PM, SAT 8:00 AM - 11:00 PM, SUN 8:00 AM - 10:00 PM",,,
Washington Street North,,1643 Washington Street North,,Twin Falls,ID,83301,United States,(208) 933-2190,42.59074051948699,-114.48054850101477,"MON 7:00 AM - 10:00 PM, TUE 7:00 AM - 10:00 PM, WED 7:00 AM - 10:00 PM, THU 7:00 AM - 10:00 PM, FRI 7:00 AM - 11:00 PM, SAT 7:00 AM - 11:00 PM, SUN 7:00 AM - 10:00 PM",,,
N Main Street,,495 N Main Street,,Mountain Home,ID,83647,United States,(208) 587-5832,43.13392436530801,-115.69717302918434,"MON 7:00 AM - 10:00 PM, TUE 7:00 AM - 10:00 PM, WED 7:00 AM - 10:00 PM, THU 7:00 AM - 10:00 PM, FRI 7:00 AM - 10:00 PM, SAT 7:00 AM - 10:00 PM, SUN 7:00 AM - 10:00 PM",,,
Yellowstone Avenue,,4050 Yellowstone Avenue,,Pocatello,ID,83202,United States,(208) 238-2126,42.90687522775523,-112.46531367301941,"MON 7:00 AM - 11:00 PM, TUE 7:00 AM - 11:00 PM, WED 7:00 AM - 11:00 PM, THU 7:00 AM - 11:00 PM, FRI 7:00 AM - 11:00 PM, SAT 7:00 AM - 11:00 PM, SUN 7:00 AM - 11:00 PM",,,
W McMillan Rd,,1410 W. McMillan Rd.,,Meridian,ID,83646,United States,(208) 893-9242,43.648815,-116.412266,"MON 7:00 AM - 10:00 PM, TUE 7:00 AM - 10:00 PM, WED 7:00 AM - 10:00 PM, THU 7:00 AM - 10:00 PM, FRI 7:00 AM - 10:00 PM, SAT 7:00 AM - 10:00 PM, SUN 7:00 AM - 10:00 PM",,,
Southway Avenue,,99 Southway Avenue,,Lewiston,ID,83501,United States,(208) 746-3498,46.40143190238522,-117.03301285211637,"MON 7:00 AM - 10:00 PM, TUE 7:00 AM - 10:00 PM, WED 7:00 AM - 10:00 PM, THU 7:00 AM - 10:00 PM, FRI 7:00 AM - 10:00 PM, SAT 7:00 AM - 10:00 PM, SUN 8:00 AM - 10:00 PM",,,
N Henderson St.,,1922 N Henderson St.,,Galesburg,IL,61401,United States,(309) 297-4072,40.97142126808317,-90.38356393575668,"MON 7:00 AM - 11:00 PM, TUE 7:00 AM - 11:00 PM, WED 7:00 AM - 11:00 PM, THU 7:00 AM - 11:00 PM, FRI 7:00 AM - 11:00 PM, SAT 7:00 AM - 11:00 PM, SUN 8:00 AM - 10:00 PM",,,
E Washington Street,,2422 E Washington Street,,East Peoria,IL,61611,United States,(309) 699-7412,40.67458843934413,-89.53857153654099,"MON 7:00 AM - 1:00 AM, TUE 7:00 AM - 1:00 AM, WED 7:00 AM - 1:00 AM, THU 7:00 AM - 1:00 AM, FRI 7:00 AM - 3:00 AM, SAT 7:00 AM - 3:00 AM, SUN 8:00 AM - 1:00 AM",,,
902 Meijer Dr,,902 Meijer Dr,,Champaign,IL,61822,United States,(217) 607-5577,40.1465313,-88.25813389999999,"MON 7:00 AM - 12:00 AM, TUE 7:00 AM - 12:00 AM, WED 7:00 AM - 12:00 AM, THU 7:00 AM - 12:00 AM, FRI 7:00 AM - 12:00 AM, SAT 7:00 AM - 12:00 AM, SUN 8:00 AM - 10:00 PM",,,
S Main Street,,725 S Main Street,,Creve Coeur,IL,61610,United States,(309) 698-0027,40.63544102978997,-89.60948243737221,"MON 7:00 AM - 3:00 AM, TUE 7:00 AM - 3:00 AM, WED 7:00 AM - 3:00 AM, THU 7:00 AM - 3:00 AM, FRI, SAT, SUN 7:00 AM - 3:00 AM",,,
S Kennedy Drive,,484 S Kennedy Drive,,Bradley,IL,60915,United States,(815) 939-3064,41.13900905501796,-87.87659704685211,"MON 6:00 AM - 11:00 PM, TUE 6:00 AM - 11:00 PM, WED 6:00 AM - 11:00 PM, THU 6:00 AM - 11:00 PM, FRI 6:00 AM - 12:00 AM, SAT 6:00 AM - 12:00 AM, SUN 7:00 AM - 12:00 AM",,,
W Main Street,,901 W Main Street,,Grangeville,ID,83530,United States,(208) 983-7508,45.927237,-116.131759,"MON 7:00 AM - 10:00 PM, TUE 7:00 AM - 10:00 PM, WED 7:00 AM - 10:00 PM, THU 7:00 AM - 10:00 PM, FRI 7:00 AM - 10:00 PM, SAT 7:00 AM - 10:00 PM, SUN 8:00 AM - 10:00 PM",,,
Specht Point Road,,1609 Specht Point Road,,Fort Collins,CO,80525,United States,(970) 472-0086,40.56689792089522,-105.03650665283203,"MON 6:00 AM - 10:00 PM, TUE 6:00 AM - 10:00 PM, WED 6:00 AM - 10:00 PM, THU 6:00 AM - 10:00 PM, FRI 6:00 AM - 11:00 AM, SAT 6:00 AM - 11:00 AM, SUN 7:00 AM - 10:00 PM",,,
William R Latham Sr Drive,,562 William R Latham Sr Drive,,Bourbonnais,IL,60914,United States,(815) 929-1333,41.1621886535226,-87.88366466760635,"MON 6:00 AM - 11:00 PM, TUE 6:00 AM - 11:00 PM, WED 6:00 AM - 11:00 PM, THU 6:00 AM - 11:00 PM, FRI 6:00 AM - 12:00 AM, SAT 6:00 AM - 12:00 AM, SUN 7:00 AM - 11:00 PM",,,
S Main Street,,1525 S Main Street,,Bloomington,IL,61701,United States,(309) 828-4336,40.46295106525294,-88.99318724870682,"MON 7:00 AM - 11:00 PM, TUE 7:00 AM - 11:00 PM, WED 7:00 AM - 11:00 PM, THU 7:00 AM - 11:00 PM, FRI 7:00 AM - 12:00 AM, SAT 7:00 AM - 12:00 AM, SUN 7:00 AM - 10:00 PM",,,
North Ave.,,1430 North Ave.,,Grand Junction,CO,81501,United States,(970) 314-9620,39.07772543092478,-108.54830145835876,"MON 7:00 AM - 10:00 PM, TUE 7:00 AM - 10:00 PM, WED 7:00 AM - 10:00 PM, THU 7:00 AM - 10:00 PM, FRI 7:00 AM - 10:00 PM, SAT 8:00 AM - 10:00 PM, SUN 8:00 AM - 10:00 PM",,,
Highway 6 & 50,,2424 Highway 6 & 50,,Grand Junction,CO,81505,United States,(970) 254-9465,39.09516150117714,-108.60346645116812,"MON 10:00 AM - 9:00 PM, TUE 10:00 AM - 9:00 PM, WED 10:00 AM - 9:00 PM, THU 10:00 AM - 9:00 PM, FRI 10:00 AM - 9:00 PM, SAT 10:00 AM - 9:00 PM, SUN 11:00 AM - 6:00 PM",,,
E Horsetooth Road,,200 E Horsetooth Road,,Fort Collins,CO,80525,United States,(970) 204-4335,40.53853557476881,-105.0749534368515,"MON 6:00 AM - 11:00 PM, TUE 6:00 AM - 11:00 PM, WED 6:00 AM - 11:00 PM, THU 6:00 AM - 11:00 PM, FRI 6:00 AM - 11:00 PM, SAT 6:00 AM - 11:00 PM, SUN 7:00 AM - 11:00 PM",,,
NW Urbandale Drive,,3924 NW Urbandale Drive,,Urbandale,IA,50322,United States,(515) 252-9977,41.6316222949004,-93.756733708085,"MON 7:00 AM - 10:00 PM, TUE 7:00 AM - 10:00 PM, WED 7:00 AM - 10:00 PM, THU 7:00 AM - 10:00 PM, FRI 7:00 AM - 11:00 PM, SAT 8:00 AM - 11:00 PM, SUN 8:00 AM - 10:00 PM",,,
E Milwaukee Avenue,,211 E Milwaukee Avenue,,Storm Lake,IA,50588,United States,(712) 732-9065,42.64777515083371,-95.19817605614662,"MON 8:00 AM - 10:00 PM, TUE 8:00 AM - 10:00 PM, WED 8:00 AM - 10:00 PM, THU 8:00 AM - 10:00 PM, FRI 8:00 AM - 11:00 PM, SAT 8:00 AM - 11:00 PM, SUN 8:00 AM - 11:00 PM",,,
Circle Drive W,,2329 Circle Drive W,,Spirit Lake,IA,51360,United States,(712) 336-4849,43.42002254410304,-95.12568906134231,"MON 7:00 AM - 10:00 PM, TUE 7:00 AM - 10:00 PM, WED 7:00 AM - 10:00 PM, THU 7:00 AM - 10:00 PM, FRI 7:00 AM - 10:00 PM, SAT 7:00 AM - 10:00 PM, SUN 8:00 AM - 10:00 PM",,,
12th Avenue SW,,1400 12th Avenue SW,,Spencer,IA,51301,United States,(712) 580-5566,43.12313345332177,-95.16143649816513,"MON 7:00 AM - 10:00 PM, TUE 7:00 AM - 10:00 PM, WED 7:00 AM - 10:00 PM, THU 7:00 AM - 10:00 PM, FRI 7:00 AM - 11:00 PM, SAT 8:00 AM - 11:00 PM, SUN 8:00 AM - 10:00 PM",,,
Washington Avenue,,2509 Washington Avenue,,Evansville,IN,47714,United States,(812) 473-7841,37.962367081606544,-87.51866966485971,"MON 7:00 AM - 10:00 PM, TUE 7:00 AM - 10:00 PM, WED 7:00 AM - 10:00 PM, THU 7:00 AM - 10:00 PM, FRI 7:00 AM - 10:00 PM, SAT 8:00 AM - 10:00 PM, SUN 8:00 AM - 10:00 PM",,,
N St Joe Avenue,,604 N St Joe Avenue,,Evansville,IN,47712,United States,(812) 467-0804,37.98353762746252,-87.60079106994056,"MON 7:00 AM - 10:00 PM, TUE 7:00 AM - 10:00 PM, WED 7:00 AM - 10:00 PM, THU 7:00 AM - 10:00 PM, FRI 7:00 AM - 10:00 PM, SAT 8:00 AM - 10:00 PM, SUN 8:00 AM - 10:00 PM",,,
N Main Avenue,,334 N Main Avenue,,Sioux Center,IA,51250,United States,(712) 722-3435,43.08035969473745,-96.17520245166816,"MON 7:00 AM - 10:00 PM, TUE 7:00 AM - 10:00 PM, WED 7:00 AM - 10:00 PM, THU 7:00 AM - 10:00 PM, FRI 7:00 AM - 10:00 PM, SAT 8:00 AM - 10:00 PM, SUN 8:00 AM - 10:00 PM",,,
34th Avenue,,100 34th Avenue,,Sheldon,IA,51201,United States,(712) 324-5287,43.18558224517379,-95.81740247460402,"MON 7:00 AM - 10:00 PM, TUE 7:00 AM - 10:00 PM, WED 7:00 AM - 10:00 PM, THU 7:00 AM - 10:00 PM, FRI 7:00 AM - 10:00 PM, SAT 7:00 AM - 10:00 PM, SUN 7:00 AM - 10:00 PM",,,
W 16th Street,,911 W 16th Street,,Pella,IA,50219,United States,(641) 628-8818,41.4088484538181,-92.95194536447525,"MON 7:00 AM - 10:00 PM, TUE 7:00 AM - 10:00 PM, WED 7:00 AM - 10:00 PM, THU 7:00 AM - 10:00 PM, FRI 7:00 AM - 10:30 PM, SAT 8:00 AM - 10:30 PM, SUN 8:00 AM - 10:00 PM",,,
Church Street,,423 Church Street,,Ottumwa,IA,52501,United States,(641) 682-0965,41.00926684063329,-92.41907894611353,"MON 7:00 AM - 2:00 AM, TUE 7:00 AM - 2:00 AM, WED 7:00 AM - 2:00 AM, THU 7:00 AM - 2:00 AM, FRI 7:00 AM - 2:00 AM, SAT 7:00 AM - 2:00 AM, SUN 8:00 AM - 2:00 AM",,,
A Avenue W,,711 A Avenue W,,Oskaloosa,IA,52577,United States,(641) 673-3264,41.296447319085686,-92.65303462743759,"MON 6:30 AM - 12:00 AM, TUE 6:30 AM - 12:00 AM, WED 6:30 AM - 12:00 AM, THU 6:30 AM - 12:00 AM, FRI 6:30 AM - 1:00 AM, SAT 7:00 AM - 1:00 AM, SUN 7:00 AM - 12:00 AM",,,
8th Street SW,,224 8th Street SW,,Orange City,IA,51041,United States,(712) 737-4555,42.99734404742846,-96.06089651584625,"MON 7:00 AM - 10:30 PM, TUE 7:00 AM - 10:30 PM, WED 7:00 AM - 10:30 PM, THU 7:00 AM - 10:30 PM, FRI 7:00 AM - 10:30 PM, SAT 8:00 AM - 10:30 PM, SUN 8:00 AM - 10:00 PM",,,
1st Avenue E,,2106 1st Avenue E,,Newton,IA,50208,United States,(641) 792-1798,41.69955663343998,-93.02494436502457,"MON 7:00 AM - 11:00 PM, TUE 7:00 AM - 11:00 PM, WED 7:00 AM - 11:00 PM, THU 7:00 AM - 11:00 PM, FRI 7:00 AM - 11:00 PM, SAT 7:00 AM - 11:00 PM, SUN 7:00 AM - 11:00 PM",,,
Sunset Drive,,1611 Sunset Drive,,Norwalk,IA,50211,United States,(515) 981-0598,41.48324496469754,-93.67629919946467,"MON 7:00 AM - 10:00 PM, TUE 7:00 AM - 10:00 PM, WED 7:00 AM - 10:00 PM, THU 7:00 AM - 10:00 PM, FRI 7:00 AM - 11:00 PM, SAT 8:00 AM - 11:00 PM, SUN 8:00 AM - 10:00 PM",,,
Grandview Avenue,,506 Grandview Avenue,,Muscatine,IA,52761,United States,(563) 264-8911,41.410249574328574,-91.06138899922365,"MON 6:00 AM - 10:00 PM, TUE 6:00 AM - 10:00 PM, WED 6:00 AM - 10:00 PM, THU 6:00 AM - 10:00 PM, FRI 6:00 AM - 11:00 PM, SAT 7:00 AM - 11:00 PM, SUN 7:00 AM - 10:00 PM",,,
Highway 30,,1971 Highway 30,,Missouri Valley,IA,51555,United States,(712) 642-3448,41.55070178673848,-95.92016637325287,"MON 5:30 AM - 10:30 PM, TUE 5:30 AM - 10:30 PM, WED 5:30 AM - 10:30 PM, THU 5:30 AM - 10:30 PM, FRI 5:30 AM - 10:30 PM, SAT 7:00 AM - 11:00 PM, SUN 7:00 AM - 11:00 PM",,,
S Federal Avenue,,603 S Federal Avenue,,Mason City,IA,50401,United States,(641) 423-8503,43.146013797535836,-93.200713545084,"MON 7:00 AM - 12:00 AM, TUE 7:00 AM - 12:00 AM, WED 7:00 AM - 12:00 AM, THU 7:00 AM - 12:00 AM, FRI 7:00 AM - 2:00 PM, SAT 7:00 AM - 2:00 AM, SUN 8:00 AM - 12:00 AM",,,
S Center Street,,907 S Center Street,,Marshalltown,IA,50158,United States,(641) 753-6211,42.03743379744562,-92.91329070925713,"MON 7:00 AM - 11:00 PM, TUE 7:00 AM - 11:00 PM, WED 7:00 AM - 11:00 PM, THU 7:00 AM - 11:00 PM, FRI 7:00 AM - 11:00 PM, SAT 7:00 AM - 11:00 PM, SUN 8:00 AM - 10:00 PM",,,
43rd Street,,1306 43rd Street,,Maquoketa,IA,52060,United States,(563) 652-0048,42.0691474972803,-90.68706216663259,"MON 7:00 AM - 10:00 PM, TUE 7:00 AM - 10:00 PM, WED 7:00 AM - 10:00 PM, THU 7:00 AM - 10:00 PM, FRI 7:00 AM - 10:00 PM, SAT 7:00 AM - 10:00 PM, SUN 7:00 AM - 10:00 PM",,,
5th Avenue SW,,320 5th Avenue SW,,Le Mars,IA,51031,United States,(712) 546-4008,42.78867310577559,-96.17323815822601,"MON 7:00 AM - 12:00 AM, TUE 7:00 AM - 12:00 AM, WED 7:00 AM - 12:00 AM, THU 7:00 AM - 12:00 AM, FRI 7:00 AM - 12:00 AM, SAT 8:00 AM - 12:00 AM, SUN 8:00 AM - 12:00 AM",,,
N Jefferson Way,,1103 N Jefferson Way,,Indianola,IA,50125,United States,(515) 961-3335,41.370504033292654,-93.55892749877967,"MON 6:00 AM - 10:00 PM, TUE 6:00 AM - 10:00 PM, WED 6:00 AM - 10:00 PM, THU 6:00 AM - 10:00 PM, FRI 6:00 AM - 11:00 PM, SAT 7:00 AM - 11:00 PM, SUN 7:00 AM - 10:00 PM",,,
West Street,,1020 West Street,,Grinnell,IA,50112,United States,(641) 236-4863,41.74557972017931,-92.72693576663869,"MON 7:00 AM - 11:00 PM, TUE 7:00 AM - 11:00 PM, WED 7:00 AM - 11:00 PM, THU 7:00 AM - 11:00 PM, FRI 7:00 AM - 12:00 AM, SAT 7:00 AM - 12:00 AM, SUN 8:00 AM - 11:00 PM",,,
SE Destination Drive,,250 SE Destination Drive,,Grimes,IA,50111,United States,(515) 986-3360,41.68668576046274,-93.76950236412085,"MON 7:00 AM - 10:30 PM, TUE 7:00 AM - 10:30 PM, WED 7:00 AM - 10:30 PM, THU 7:00 AM - 10:30 PM, FRI 7:00 AM - 11:00 PM, SAT 8:00 AM - 11:00 PM, SUN 8:00 AM - 10:30 PM",,,
5th Avenue South,,2949 5th Avenue South,,Fort Dodge,IA,50501,United States,(515) 573-8226,42.50092314819992,-94.15613608809502,"MON 7:00 AM - 10:00 PM, TUE 7:00 AM - 10:00 PM, WED 7:00 AM - 10:00 PM, THU 7:00 AM - 10:00 PM, FRI 7:00 AM - 11:00 PM, SAT 7:00 AM - 11:00 PM, SUN 8:00 AM - 10:00 PM",,,
W Burlington Avenue,,703 W Burlington Avenue,,Fairfield,IA,52556,United States,(641) 472-7833,41.006772208226,-91.97244420647621,"MON 7:00 AM - 11:00 PM, TUE 7:00 AM - 11:00 PM, WED 7:00 AM - 11:00 PM, THU 7:00 AM - 11:00 PM, FRI 7:00 AM - 11:00 PM, SAT 7:00 AM - 11:00 PM, SUN 8:00 AM - 10:00 PM",,,
Sergeant Rd,,4400 Sergeant Rd,,Sioux City,IA,51106,United States,(712) 276-5615,42.446287,-96.353967,"MON 10:00 AM - 9:00 PM, TUE 10:00 AM - 9:00 PM, WED 10:00 AM - 9:00 PM, THU 10:00 AM - 9:00 PM, FRI 10:00 AM - 9:00 PM, SAT 10:00 AM - 9:00 PM, SUN 11:00 AM - 6:00 PM",,,
Gordon Drive,,3601 Gordon Drive,,Sioux City,IA,51106,United States,(712) 255-9996,42.48653812779024,-96.36082070323027,"MON 7:00 AM - 11:00 PM, TUE 7:00 AM - 11:00 PM, WED 7:00 AM - 11:00 PM, THU 7:00 AM - 11:00 PM, FRI 7:00 AM - 1:00 AM, SAT 7:00 AM - 1:00 AM, SUN 8:00 AM - 11:00 PM",,,
Singing Hills Blvd,,3218 Singing Hills Blvd,,Sioux City,IA,51106,United States,(712) 222-1223,42.43525835662474,-96.36619719118016,"MON 7:00 AM - 10:00 PM, TUE 7:00 AM - 10:00 PM, WED 7:00 AM - 10:00 PM, THU 7:00 AM - 10:00 PM, FRI 7:00 AM - 10:00 PM, SAT 7:00 AM - 10:00 PM, SUN 8:00 AM - 10:00 PM",,,
27th Street,,2111 27th Street,,Sioux City,IA,51104,United States,(712) 255-8709,42.5178280491347,-96.38348042964935,"MON 7:00 AM - 11:00 PM, TUE 7:00 AM - 11:00 PM, WED 7:00 AM - 11:00 PM, THU 7:00 AM - 11:00 PM, FRI 7:00 AM - 12:00 AM, SAT 7:00 AM - 12:00 AM, SUN 8:00 AM - 11:00 PM",,,
Hamilton Blvd,,1721 Hamilton Blvd,,Sioux City,IA,51103,United States,(712) 258-8023,42.509253812133366,-96.41702371092833,"MON 6:30 AM - 11:00 PM, TUE 6:30 AM - 11:00 PM, WED 6:30 AM - 11:00 PM, THU 6:30 AM - 11:00 PM, FRI 7:00 AM - 1:00 AM, SAT 8:00 AM - 1:00 AM, SUN 8:00 AM - 11:00 PM",,,
S Walnut Street,,708 S Walnut Street,,Creston,IA,50801,United States,(641) 782-4731,41.049543338101934,-94.36056643724436,"MON 7:00 AM - 11:00 PM, TUE 7:00 AM - 11:00 PM, WED 7:00 AM - 11:00 PM, THU 7:00 AM - 11:00 PM, FRI 7:00 AM - 11:00 PM, SAT 7:00 AM - 11:00 PM, SUN 7:00 AM - 11:00 PM",,,
2nd Street,,204 2nd Street,,Coralville,IA,52241,United States,(319) 354-5965,41.66937403887754,-91.56813430043258,"MON 7:00 AM - 11:00 PM, TUE 7:00 AM - 11:00 PM, WED 7:00 AM - 11:00 PM, THU 7:00 AM - 11:00 PM, FRI 7:00 AM - 12:00 AM, SAT 7:00 AM - 12:00 AM, SUN 8:00 AM - 11:00 PM",,,
Lincoln Way,,1941 Lincoln Way,,Clinton,IA,52732,United States,(563) 243-5271,41.815556,-90.231772,"MON 7:00 AM - 11:00 PM, TUE 7:00 AM - 11:00 PM, WED 7:00 AM - 11:00 PM, THU 7:00 AM - 11:00 PM, FRI 7:00 AM - 11:00 PM, SAT 8:00 AM - 10:00 PM, SUN 8:00 AM - 10:00 PM",,,
4th Avenue South,,2905 4th Avenue South,,Clear Lake,IA,50428,United States,(641) 357-0900,43.13295742064769,-93.35310459136963,"MON 7:00 AM - 10:00 PM, TUE 7:00 AM - 10:00 PM, WED 7:00 AM - 10:00 PM, THU 7:00 AM - 10:00 PM, FRI 7:00 AM - 10:00 PM, SAT 8:00 AM - 10:00 PM, SUN 8:00 AM - 10:00 PM",,,
N 2nd Street,,902 N 2nd Street,,Cherokee,IA,51012,United States,(712) 225-0374,42.76169206349258,-95.55102290960349,"MON 7:00 AM - 10:00 PM, TUE 7:00 AM - 10:00 PM, WED 7:00 AM - 10:00 PM, THU 7:00 AM - 10:00 PM, FRI 7:00 AM - 10:00 PM, SAT 7:00 AM - 10:00 PM, SUN 8:00 AM - 10:00 PM",,,
Gilbert Street,,905 Gilbert Street,,Charles City,IA,50616,United States,(641) 257-0511,43.06561247816176,-92.6829881966114,"MON 7:00 AM - 10:00 PM, TUE 7:00 AM - 10:00 PM, WED 7:00 AM - 10:00 PM, THU 7:00 AM - 10:00 PM, FRI 7:00 AM - 10:00 PM, SAT 8:00 AM - 10:00 PM, SUN 8:00 AM - 10:00 PM",,,
University Avenue,,6210 University Avenue,,Cedar Falls,IA,50613,United States,(319) 277-6658,42.51376425931726,-92.43258118629456,"MON 7:00 AM - 12:00 AM, TUE 7:00 AM - 12:00 AM, WED 7:00 AM - 12:00 AM, THU 7:00 AM - 12:00 AM, FRI 7:00 AM - 1:00 AM, SAT 7:00 AM - 1:00 AM, SUN 7:00 AM - 12:00 AM",,,
E 6th Street,,513 E 6th Street,,Carroll,IA,51401,United States,(712) 792-2646,42.06423678448428,-94.86052215099335,"MON 7:00 AM - 10:00 PM, TUE 7:00 AM - 10:00 PM, WED 7:00 AM - 10:00 PM, THU 7:00 AM - 10:00 PM, FRI 7:00 AM - 11:00 PM, SAT 8:00 AM - 11:00 PM, SUN 8:00 AM - 10:00 PM",,,
S Roosevelt Av,,119 S Roosevelt Av,,Burlington,IA,52601,United States,(319) 754-5114,40.809718,-91.143189,"MON 7:00 AM - 11:00 PM, TUE 7:00 AM - 11:00 PM, WED 7:00 AM - 11:00 PM, THU 7:00 AM - 11:00 PM, FRI 7:00 AM - 11:00 PM, SAT 7:00 AM - 11:00 PM, SUN 8:00 AM - 11:00 PM",,,
Story Street,,415 Story Street,,Boone,IA,50036,United States,(515) 432-7600,42.0601983882255,-93.88034105300903,"MON 7:00 AM - 10:30 PM, TUE 7:00 AM - 10:30 PM, WED 7:00 AM - 10:30 PM, THU 7:00 AM - 10:30 PM, FRI 7:00 AM - 11:00 PM, SAT 7:00 AM - 11:00 PM, SUN 7:00 AM - 10:30 PM",,,
N Chestnut Street,,7005 N Chestnut Street,,Avoca,IA,51521,United States,(712) 343-4007,41.49944935465637,-95.33447568122938,"MON 7:00 AM - 10:00 PM, TUE 7:00 AM - 10:00 PM, WED 7:00 AM - 10:00 PM, THU 7:00 AM - 10:00 PM, FRI 7:00 AM - 11:00 PM, SAT 8:00 AM - 11:00 PM, SUN 8:00 AM - 10:00 PM",,,
S Ankeny Blvd,,319 S Ankeny Blvd,,Ankeny,IA,50023,United States,(515) 964-9800,41.72804007073857,-93.59957277774811,"MON 7:00 AM - 11:00 PM, TUE 7:00 AM - 11:00 PM, WED 7:00 AM - 11:00 PM, THU 7:00 AM - 11:00 PM, FRI 7:00 AM - 12:00 AM, SAT 7:00 AM - 12:00 AM, SUN 7:00 AM - 11:00 PM",,,
Lincoln Way,,500 Lincoln Way,,Ames,IA,50010,United States,(515) 232-3176,42.022597386421566,-93.61724140497245,"MON 6:30 AM - 12:00 AM, TUE 6:30 AM - 12:00 AM, WED 6:30 AM - 12:00 AM, THU 6:30 AM - 12:00 AM, FRI 6:30 AM - 1:00 AM, SAT 7:00 AM - 1:00 AM, SUN 7:00 AM - 12:00 AM",,,
Flint Hill Drive,,2258 Flint Hill Drive,,Dubuque,IA,52003,United States,(563) 583-3642,42.45846514064028,-90.67457556724548,"MON 7:00 AM - 11:00 PM, TUE 7:00 AM - 11:00 PM, WED 7:00 AM - 11:00 PM, THU 7:00 AM - 11:00 PM, FRI 7:00 AM - 12:00 AM, SAT 7:00 AM - 12:00 AM, SUN 8:00 AM - 10:00 PM",,,
Douglas Avenue,,5824 Douglas Avenue,,Des Moines,IA,50322,United States,(515) 270-4624,41.628949349648984,-93.69880829755857,"MON 7:00 AM - 11:00 PM, TUE 7:00 AM - 11:00 PM, WED 7:00 AM - 11:00 PM, THU 7:00 AM - 11:00 PM, FRI 7:00 AM - 12:00 AM, SAT 8:00 AM - 12:00 AM, SUN 8:00 AM - 11:00 PM",,,
E 20th Street,,17 E 20th Street,,Dubuque,IA,52001,United States,(563) 582-3443,42.511523180204115,-90.66974624991423,"MON 5:30 AM - 1:00 AM, TUE 5:30 AM - 1:00 AM, WED 5:30 AM - 1:00 AM, THU 5:30 AM - 1:00 AM, FRI 5:30 AM - 1:00 AM, SAT 5:30 AM - 1:00 AM, SUN 7:00 AM - 12:00 AM",,,
W Kimberly Rd,,320 W Kimberly Rd,,Davenport,IA,52806,United States,(563) 388-7322,41.562584,-90.576455,"MON 10:00 AM - 9:00 PM, TUE 10:00 AM - 9:00 PM, WED 10:00 AM - 9:00 PM, THU 10:00 AM - 9:00 PM, FRI 10:00 AM - 9:00 PM, SAT 10:00 AM - 9:00 PM, SUN 11:00 AM - 6:00 PM",,,
E Euclid Avenue,,921 E Euclid Avenue,,Des Moines,IA,50316,United States,(515) 262-0110,41.62744021396712,-93.60503735395469,"MON 6:30 AM - 12:00 AM, TUE 6:30 AM - 12:00 AM, WED 6:30 AM - 12:00 AM, THU 6:30 AM - 12:00 AM, FRI 6:30 AM - 1:00 AM, SAT 7:00 AM - 1:00 AM, SUN 7:00 AM - 12:00 AM",,,
W Broadway,,2300 W Broadway,,Council Bluffs,IA,51501,United States,(712) 323-7088,41.262190732082146,-95.8786484599114,"MON 7:00 AM - 11:00 PM, TUE 7:00 AM - 11:00 PM, WED 7:00 AM - 11:00 PM, THU 7:00 AM - 11:00 PM, FRI 7:00 AM - 12:00 AM, SAT 8:00 AM - 12:00 AM, SUN 8:00 AM - 11:00 PM",,,
E Kimberly Road,,1915 E Kimberly Road,,Davenport,IA,52807,United States,(563) 355-2044,41.55636006776825,-90.54802626371384,"MON 6:00 AM - 10:00 PM, TUE 6:00 AM - 10:00 PM, WED 6:00 AM - 10:00 PM, THU 6:00 AM - 10:00 PM, FRI 6:00 AM - 11:00 PM, SAT 6:00 AM - 11:00 PM, SUN 7:00 AM - 10:00 PM",,,
Fleur Dr,,4521 Fleur Dr,,Des Moines,IA,50321,United States,(515) 287-2775,41.5435278303015,-93.64361422511138,"MON 7:00 AM - 11:00 PM, TUE 7:00 AM - 11:00 PM, WED 7:00 AM - 11:00 PM, THU 7:00 AM - 11:00 PM, FRI 7:00 AM - 11:00 PM, SAT 8:00 AM - 11:00 PM, SUN 8:00 AM - 11:00 PM",,,
SW 9th Street,,2727 SW 9th Street,,Des Moines,IA,50315,United States,(515) 282-8800,41.56041128537331,-93.62535417079926,"MON 6:30 AM - 12:00 AM, TUE 6:30 AM - 12:00 AM, WED 6:30 AM - 12:00 AM, THU 6:30 AM - 12:00 AM, FRI 6:30 AM - 1:00 AM, SAT 8:00 AM - 1:00 AM, SUN 8:00 AM - 12:00 AM",,,
Edgewood Road NW,,226 Edgewood Road NW,,Cedar Rapids,IA,52405,United States,(319) 396-2025,41.974120351240835,-91.71644881367683,"MON 6:30 AM - 10:00 PM, TUE 6:30 AM - 10:00 PM, WED 6:30 AM - 10:00 PM, THU 6:30 AM - 10:00 PM, FRI 6:30 AM - 10:00 PM, SAT 8:00 AM - 10:00 PM, SUN 8:00 AM - 10:00 PM",,,
Ingersoll Avenue,,2600 Ingersoll Avenue,,Des Moines,IA,50312,United States,(515) 243-6900,41.58549514619102,-93.65236761423148,"MON 6:30 AM - 11:00 PM, TUE 6:30 AM - 11:00 PM, WED 6:30 AM - 11:00 PM, THU 6:30 AM - 11:00 PM, FRI 6:30 AM - 12:00 AM, SAT 8:00 AM - 12:00 AM, SUN 8:00 AM - 11:00 PM",,,
1st Avenue SE,,4401 1st Avenue SE,,Cedar Rapids,IA,52402,United States,(319) 393-6101,42.02243054237268,-91.62740886211401,"MON 6:00 AM - 11:00 PM, TUE 6:00 AM - 11:00 PM, WED 6:00 AM - 11:00 PM, THU 6:00 AM - 11:00 PM, FRI 6:00 AM - 12:00 AM, SAT 7:00 AM - 12:00 AM, SUN 7:00 AM - 11:00 PM",,,
Adventureland Drive,,2501 Adventureland Drive,,Altoona,IA,50009,United States,(515) 967-8777,41.6589780909972,-93.49275514483452,"MON 6:30 AM - 12:00 AM, TUE 6:30 AM - 12:00 AM, WED 6:30 AM - 12:00 AM, THU 6:30 AM - 12:00 AM, FRI 6:30 AM - 1:00 AM, SAT 7:00 AM - 1:00 AM, SUN 7:00 AM - 12:00 AM",,,
E Broadway,,217 E Broadway,,Council Bluffs,IA,51503,United States,(712) 323-5121,41.264065785282256,-95.84211409091955,"MON 7:00 AM - 12:00 AM, TUE 7:00 AM - 12:00 AM, WED 7:00 AM - 12:00 AM, THU 7:00 AM - 12:00 AM, FRI 7:00 AM - 3:00 AM, SAT 8:00 AM - 3:00 AM, SUN 8:00 AM - 12:00 AM",,,
Hubbell Avenue,,2121 Hubbell Avenue,,Des Moines,IA,50317,United States,(515) 262-5211,41.59975418682194,-93.57909277081484,"MON 6:30 AM - 12:00 AM, TUE 6:30 AM - 12:00 AM, WED 6:30 AM - 12:00 AM, THU 6:30 AM - 12:00 AM, FRI 6:30 AM - 1:00 AM, SAT 6:30 AM - 1:00 AM, SUN 8:00 AM - 12:00 AM",,,
E Army Post Road,,1250 E. Army Post Road,,Des Moines,IA,50315,United States,(515) 285-1331,41.52697752906152,-93.59911278651452,"MON 6:30 AM - 11:00 PM, TUE 6:30 AM - 11:00 PM, WED 6:30 AM - 11:00 PM, THU 6:30 AM - 11:00 PM, FRI 6:30 AM - 12:00 AM, SAT 8:00 AM - 12:00 AM, SUN 8:00 AM - 11:00 PM",,,
SE Wyoming Blvd,,601 SE Wyoming Blvd,,Casper,WY,82609,United States,(307) 237-8968,42.845988,-106.264771,"MON 10:00 AM - 9:00 PM, TUE 10:00 AM - 9:00 PM, WED 10:00 AM - 9:00 PM, THU 10:00 AM - 9:00 PM, FRI 10:00 AM - 9:00 PM, SAT 10:00 AM - 9:00 PM, SUN 11:00 AM - 9:00 PM",,,
E 2nd Street,,4031 E 2nd Street,,Casper,WY,82609,United States,(307) 235-4016,42.84861459770736,-106.27509042620659,"MON 7:00 AM - 10:00 PM, TUE 7:00 AM - 10:00 PM, WED 7:00 AM - 10:00 PM, THU 7:00 AM - 10:00 PM, FRI 7:00 AM - 11:00 PM, SAT 8:00 AM - 11:00 PM, SUN 8:00 AM - 10:00 PM",,,
