store_name,store_number,address,address2,city,state,zip_code,country,phone_number,latitude,longitude,store_hours,store_type,other_fields,coming_soon
Citicorp Center,,500 West Madison Street,,Chicago,Illinois,60661,United States of America,312-466-1828,41.881934,-87.639773,,,,
North Riverside Park Mall,,7501 W. Cermak Rd.,,North Riverside,Illinois,60546,United States of America,708-443-6353,41.84978867,-87.8130188,,,,
Harlem Irving Plaza,,4104 N Harlem Ave,,Norridge,Illinois,60706,United States of America,708-452-1100,41.9546,-87.809148,,,,
Pilot #1042,,7501 South Harlem,,Bridgeview,Illinois,60455,United States of America,708-469-9353,41.75513,-87.79983,,,,
Old Orchard Mall,,4999 Old Orchard Center,,Skokie,Illinois,60077,United States of America,847-673-2045,42.0593,-87.7496,,,,
Pilot #1030,,12680 S. Kedzie,,Alsip,Illinois,60803,United States of America,708-385-2271,41.6634,-87.69982,,,,
Yorktown Mall,,203 Yorktown Mall,,Lombard,Illinois,60148,United States of America,(630) 261-1161,41.837037,-88.00989,,,,
Orland Square,,144 Orland Square,,Orland Park,Illinois,60462,United States of America,(708) 364-0710,41.622208,-87.849599,,,,
Woodfield Mall,,D203 Woodfield Mall,,Schaumburg,Illinois,60173,United States of America,847/995-0715,42.0491,-88.0339,,,,
Pilot 430 Russellville,,215 SR 331 North,,Russellville,Arkansas,72802,United States of America,479-967-7414,41.90289,-88.1028,,,,
Stratford Square,,206 Stratford Square,,Bloomingdale,Illinois,60108,United States of America,630-307-3605,41.9402,-88.1149,,,,
Pilot #1041,,170 W. North Avenue,,Carol Stream,Illinois,60188,United States of America,630-510-0156,41.9034996,-88.12271881,,,,
Pilot #650,,1401 Ripley Street,,Lake Station,Indiana,46405,United States of America,219-962-6555,41.5862,-87.23987,,,,
Fox Valley Mall,,195 Fox Valley Center,,Aurora,Illinois,60504,United States of America,630-820-1171,41.75865,-88.21753,,,,
Gallery @ Market East,,1101 Market Street,,Philadelphia,Pennsylvania,19107,United States of America,215/592-8551,39.951763,-75.158372,,,,
Deptford Mall,,"1750 Deptford Center Road, 2B-19C",,Deptford,New Jersey,08096,United States of America,856-384-1666,39.828258,-75.098801,,,,
Walt Whitman Travel Plaza,,"NJ Turnpike, Mile Marker 30.2S",,Cherry Hill,New Jersey,08034,United States of America,(856)429-9323,39.88688,-75.00023,,,,
30th Street Station,,"30th Street Station, 2951 Market Street - Space #20",,Philadelphia,Pennsylvania,19014,United States of America,267-353-0473,39.8524,-75.3482,,,,
Moorestown Mall,,400 S. Route 38,,Moorestown,New Jersey,08057,United States of America,856-234-7085,39.9614,-74.9301,,,,
James Cooper Travel Plaza,,5 Hartford Road,,Mt Laurel,New Jersey,08054,United States of America,856-234-4930,39.931853,-74.862901,,,,
Clara Barton Travel Plaza,,Slumpy Lane Southside. NJ TP,,Pennagrove,New Jersey,08069,United States of America,856-299-6051,39.6979,-75.39308,,,,
Exton Square Mall,,301 Exton Square Parkway Space #2645,,Exton,Pennsylvania,19341,United States of America,(610)363-5264,40.034576,-75.625091,,,,
Christiana Mall,,715 Christiana Mall Unit #1536,,Newark,Delaware,19702,United States of America,(302) 731-5565,39.6777,-75.6876,,,,
"Delaware House Travel Plaza,",,530 JFK Memorial HWY Interstate 95 Delaware Turnpike,,Newark,Delaware,19702-5427,United States of America,302-731-8599,39.6592,-75.6955,,,,
Horton Plaza,,467 Horton Plaza # 335,,San Diego,California,92101-6150,United States of America,619-702-7500,32.71527,-117.16147,,,,
Plaza Bonita,,"3030 Plaza Bonita Rd., Suite FC2",,National City,California,91950,United States of America,619-472-1111,32.65913,-117.0674,,,,
Parkway Plaza,,647 Parkway Plaza,,El Cajon,California,92020,United States of America,619-440-3500,32.80694537,-116.9674538,,,,
Outlets on the Border,,4463 Camino de la Plaza,,San Ysidro,California,92173,United States of America,(619) 746-6565,32.54536495,-117.0392183,,,,
East Thomas Rd,,4445 E. Thomas Rd.,,Phoenix,Arizona,85018,United States of America,(602) 808-9800,33.47995,-111.98289,,,,
West Southern Avenue,,1401 West Southern Avenue,,Tempe,Arizona,85282,United States of America,480-966-7672,33.39262,-111.96182,,,,
Arizona Mills Mall,,5000 S Arizona Mills Cir,,Tempe,Arizona,85282,United States of America,(480) 588-0557,33.3847066,-111.9669532,,,,
North Black Canyon Highway,,9016 N. Black Canyon Highway,,Phoenix,Arizona,85051,United States of America,602-944-1915,33.5678,-112.117,,,,
Desert Sky Mall,,7611 W. Thomas Rd.,,Phoenix,Arizona,85033,United States of America,623-455-5695,33.47826,-112.22357,,,,
Scottsdale Fashion Square,,7014 E. Camelback Road,,Scottsdale,Arizona,85251,United States of America,480-941-6900,33.50369,-111.92965,,,,
Metro Center Cinnabon,,9617 Metro Parkway,,Phoenix,Arizona,85051,United States of America,(602) 331-4400,33.57538,-112.12148,,,,
West Bell Road,,1520 West Bell Road,,Phoenix,Arizona,85025,United States of America,602-472-3500,33.64039,-112.09188,,,,
North 90th Street,,10070 N. 90th Street,,Scottsdale,Arizona,85258,United States of America,480-657-9449,33.57705,-111.88527,,,,
Chandler Fashion Center,,3111 West Chandler Blvd.,,Chandler,Arizona,85226,United States of America,480-300-5089,33.3037,-111.89857,,,,
Country Club,,408 W. Juanita Ave,,Mesa,Arizona,85210,United States of America,480-833-6540,33.38255,-111.84031,,,,
Arrowhead Town Centre,,"7700 W Arrowhead Town Ctr, #2196",,Glendale,Arizona,85308,United States of America,623-486-4400,33.639763,-112.22738,,,,
North Litchfield Road,,395 N. Litchfield Road,,Goodyear,Arizona,85338,United States of America,623-925-2009,33.45043,-112.35752,,,,
Superstition Springs Center,,6555 E Southern Ave,,Mesa,Arizona,85206,United States of America,480-582-9648,33.39383818,-111.6898106,,,,
Burger King (WTC),,106 Liberty Street,,New York,New York,10006,United States of America,(917) 338-1887,40.7479,-73.9851,,,,
Burger King - Broadway,,1313 Broadway,,New York,New York,10001,United States of America,(917) 512-6975,40.7499,-73.9879,,,,
8612 3rd Avenue,,8612 3rd Ave.,,Brooklyn,New York,11209,United States of America,718-238-3092,40.623344,-74.031194,,,,
Queens Center,,"90-15 Queens Blvd., Sp. 201-202",,Elmhurst,New York,11373,United States of America,(718) 592-7172,40.734106,-73.871471,,,,
Queens Center,,90-15 Queens Blvd,,Elmhurst,New York,11373,United States of America,(718) 592-7172,40.73455,-73.870797,,,,
Kings Plaza,,5174 Kings Plaza,,Brooklyn,New York,11234,United States of America,718-692-3331,40.610102,-73.921797,,,,
Vince Lombardi Travel Plaza,,"NJ Turnpike, Mile Marker 116 E.",,Richfield,New Jersey,07657,United States of America,(201) 943-1018,40.83902,-74.018395,,,,
The Mills at Jersey Gardens,,651 Kapkowski Rd.,,Elizabeth,New Jersey,07201,United States of America,908-352-5864,40.662694,-74.174612,,,,
Hackensack,,450 Hackensack Ave,,Hackensack,New Jersey,07601,United States of America,201-487-7600,40.91033,-74.03309,,,,
Bay Plaza Shopping Center,,290 Baychester Avenue,,Bronx,New York,10475,United States of America,718-320-2582,40.86871,-73.82198,,,,
Green Acres Mall,,1122 Green Acres Mall #71,,Valley Stream,New York,11581,United States of America,(516) 561-9887,40.663305,-73.720945,,,,
Cross County Center,,6-A Mall Walk,,Yonkers,New York,10704,United States of America,914-969-6100,40.9279,-73.8532,,,,
"Willowbrook Mall, Waterside Food Court",,3102 Willowbrook #E2,,Wayne,New Jersey,07470,United States of America,(973) 785-4007,40.892,-74.2494,,,,
Livingston Mall,,122 Eisenhower Parkway,,Livingston,New Jersey,07039,United States of America,973-758-1005,40.76855,-74.35997,,,,
Woodbridge Center,,Woodbridge Ctr Dr Space # 155,,Woodbridge,New Jersey,07095,United States of America,(732) 634-7555,40.5483,-74.298,,,,
Roosevelt Field Mall,,630 Old Country Road,,Garden City,New York,11530,United States of America,(516) 741-9100,40.7378,-73.6128,,,,
Broadway Mall,,358 N. Broadway,,Hicksville,New York,11801,United States of America,(516)-938-2409,40.77891159,-73.53070831,,,,
Brunswick Square Mall,,755 State Route 18,,East Brunswick,New Jersey,08816,United States of America,732-613-1013,40.4257869,-74.38094169,,,,
Rockaway Mall,,Rt. 80 & Mt. Hope Avenue,,Rockaway,New Jersey,07866,United States of America,(973) 989-1050,40.9066,-74.5483,,,,
Smith Haven Mall,,"Route 25 & Route 347, Site A22",,Lake Grove,New York,11755,United States of America,(516) 366-4535,40.862049,-73.135385,,,,
Glendale Galleria Mall,,1111B Glendale Galleria,,Glendale,California,91210,United States of America,818-549-0562,34.14642,-118.25557,,,,
Universal Studios Hollywood,,100 Universal City Plaza,,Universal City,California,91608,United States of America,818-622-5955,34.13619116,-118.354357,,,,
Universal California - City Walk,,1000 Universal City Plaza,,Universal City,California,91608,United States of America,818-506-8296,34.13660812,-118.3557816,,,,
Montebello Town Center,,2136 Montebello Town Ctr BU-16,,Montebello,California,90640,United States of America,323/887-0404,34.0392,-118.0908,,,,
Fox Hills Mall,,"6000 S. Sepulveda Blvd., No. 2410",,Culver City,California,90230,United States of America,310-391-3503,33.9859,-118.393,,,,
Burbank Town Center Mall,,"201 E. Magnolia, Suite 376",,Burbank,California,91502,United States of America,(818) 729-0945,34.184,-118.313,,,,
Stonewood Center,,251 Stonewood St.,,Downey,California,90241,United States of America,562-923-1807,33.93728726,-118.1226933,,,,
Santa Anita,,400 S. Baldwin Ave. #T22,,Arcadia,California,91007,United States of America,626-445-4351,34.1352,-118.051,,,,
Galleria @ Southbay,,1815 Hawthorne Blvd # 369,,Redondo Beach,California,90278,United States of America,310/921-2626,33.87121171,-118.3527645,,,,
Lakewood Center Mall,,"500 Lakewood Center Mall, Suite 356",,Lakewood,California,90714,United States of America,(562)634-5021,33.85040514,-118.1415794,,,,
Los Cerritos,,141 Los Cerritos Center,,Cerritos,California,90703,United States of America,(562)809-4355,33.8586998,-118.0923233,,,,
Del Amo Fashion Center,,"21540 Hawthorne Blvd., Suite #514C",,Torrance,California,90503,United States of America,310-370-5852,33.83276,-118.35273,,,,
Del Amo Fashion Ctr.,,21880 Hawthorne Blvd. #335B,,Torrance,California,90503,United States of America,310/214-0229,33.82812738,-118.3518887,,,,
Plaza West Covina,,112 Plaza Drive,,West Covina,California,91790,United States of America,(626) 960-8032,34.0698722,-117.9279542,,,,
Puente Hills Mall,,"1600 Azusa Avenue, Suite K-5",,City of Industry,California,91748,United States of America,626-810-6666,33.99357,-117.92763,,,,
Knott's Berry Farm,,7675 Crescent Ave.,,Buena Park,California,90620,United States of America,714.220.5084,33.83948,-117.99922,,,,
Northridge Fashion Ctr.,,"9301 Tampa Ave., Space 108",,Northridge,California,91324,United States of America,818/993-4299,34.239342,-118.5562,,,,
Brea Mall,,2152 Brea Mall,,Brea,California,92821,United States of America,(714)256-2866,33.91300857,-117.8859857,,,,
East Imperial Hwy,,"2500 E. Imperial Hwy., Ste 196",,Brea,California,92821,United States of America,714-256-1100,33.91058,-117.86514,,,,
Montclair Plaza,,5192 Montclair Plaza,,Montclair,California,91763,United States of America,(909)624-8422,34.08815,-117.69388,,,,
Ontario Intl Airport Terminal 2,,"2900 East Airport Drive, Terminal 2",,Ontario,California,91761,United States of America,909-975-8008,34.063,-117.5977,,,,
Ontario Intl Airport Terminal 4,,"2900 East Airport Drive, Terminal 4",,Ontario,California,91761,United States of America,909-975-8008,34.063,-117.5977,,,,
Thousand Oaks Mall,,284 West Hillcrest Drive,,Thousand Oaks,California,91360,United States of America,805-371-8869,34.18447,-118.888,,,,
Ontario Mills Mall,,"One Mills Circle, FC-01",,Ontario,California,91764,United States of America,909-481-3231,34.07383,-117.55175,,,,
Ontario Mills Mall,,"1 Mills Circle, PC-39",,Ontario,California,91764,United States of America,909-481-3231,34.07383,-117.55175,,,,
Galleria at Tyler,,1341 Galleria Ct.,,Riverside,California,92503,United States of America,(909)352-0432,33.90777022,-117.457836,,,,
Fort Sam Houston,,"Ft. Sam Houston Food Court, Bldg 2420",,San Antonio,Texas,78234,United States of America,(210) 225-4694,29.46732,-98.43094,,,,
N Towne Shopping Center,,"6900 San Pedro, Ste.101",,San Antonio,Texas,78216,United States of America,210-822-7077,29.50425,-98.49874,,,,
North Star Mall,,7400 San Pedro Ave,,San Antonio,Texas,78216,United States of America,210-524-9024,29.5186,-98.4954,,,,
Colonial Plaza,,2514 Nacogdoches Road,,San Antonio,Texas,78217,United States of America,210-828-8635,29.51751,-98.44985,,,,
Perrin Beitel Road,,8534 Perrin -Beitel Road,,San Antonio,Texas,78217,United States of America,210-599-1138,29.51653,-98.41065,,,,
Blanco Road,,11803 Blanco Road,,San Antonio,Texas,78216,United States of America,210-366-0383,29.54865,-98.51054,,,,
San Antonio Airport,,9800 Airport Blvd.,,San Antonio,Texas,78216,United States of America,210-265-3254,29.5348,-98.4111,,,,
Highway 151,,8311 Highway 151,,San Antonio,Texas,78245,United States of America,210-647-5099,29.3972,-98.6495,,,,
Bandera Mainland,,7990 Bandera Rd.,,San Antonio,Texas,78250,United States of America,210-522-9794,29.51521,-98.63408,,,,
Schlotzskys I10 W,,12834 I-10 W,,San Antonio,Texas,78249,United States of America,210-558-3354,29.565699,-98.592807,,,,
Potranco Rd,,9827 Potranco Rd. Suite 100,,San Antonio,Texas,78251,United States of America,210-543-0800,29.43714523,-98.68442535,,,,
North Loop,,1530 North Loop 1604 East,,San Antonio,Texas,78232,United States of America,210-494-4217,29.60836,-98.47078,,,,
Schlotzskys Culebra Rd,,"11010 Culebra Rd, Suite 101",,San Antonio,Texas,78253,United States of America,210-688-2200,29.496012,-98.711136,,,,
Pilot 4899 Von Ormy,,14555 IH 35 South,,Von Ormy,Texas,78073,United States of America,210-622-9384,29.279899,-98.66938,,,,
Pilot 467 San Antonio,,4105 Texas 1604 Loop,,San Antonio,Texas,78264,United States of America,210-626-9183,29.22399,-98.41016,,,,
US Highway 281 North,,"20821 US Highway 281, North, Ste. 102",,San Antonio,Texas,78258,United States of America,210-490-8222,29.6515,-98.4491,,,,
Schlotzskys Corridor Loop,,17604 Interstate 35 Frontage Rd,,Schertz,Texas,78154,United States of America,(210) 658-8224,29.600077,-98.275282,,,,
IH 10 West,,"25235 IH 10 West, Suite 101",,San Antonio,Texas,78257,United States of America,210-595-3220,29.676436,-98.637699,,,,
Schlotzskys 2678,,1776 Independence Drive,,New Braunfels,Texas,78132,United States of America,830-625-2801,29.71655083,-98.16214752,,,,
North Hwy 123 Bypass,,330 North Hwy 123 Bypass,,Sequin,Texas,78155,United States of America,830-379-1202,29.568575,-97.941133,,,,
Eastridge Mall,,359 Eastridge Mall #D-25,,san jose,California,95122,United States of America,408-238-0888,37.32438482,-121.8114442,,,,
Great Mall of Bay Area,,175 Great Mall Drive,,Milpitas,California,95035,United States of America,408/934-1244,37.41901779,-121.9009552,,,,
Oakridge Mall,,"925 Blossom Hill Road, # 1115",,San Jose,California,95123,United States of America,408/365-1261,37.251991,-121.862037,,,,
Circle Centre Mall,,49 West Maryland Avenue D18,,Indianapolis,Indiana,46204,United States of America,317-261-1258,39.765585,-86.159055,,,,
Lafayette Square,,3919 Lafayette Road,,Indianapolis,Indiana,46254,United States of America,317-216-9141,39.826299,-86.237067,,,,
Pilot 242 Shelbyville,,1851 West 400 North,,Shelbyville,Indiana,46176,United States of America,317-392-8771,39.58428,-85.81557,,,,
Pilot 655 Spiceland,,5300 South State Rte 3,,Spiceland,Indiana,47385,United States of America,765-987-1833,39.85231,-85.41409,,,,
Schlotzskys Bakery Coffeehouse,,218 S. Lamar Blvd.,,Austin,Texas,78704,United States of America,(512) 476-2867,30.263437,-97.757698,,,,
Sunset Valley,,"5601 Brodie Lane, Suite #1700",,Sunset Valley,Texas,78745,United States of America,512-892-3119,30.22753,-97.82114,,,,
Four Corners Shopping Ctr,,"111 W. William Cannon Drive, Ste. 202",,Austin,Texas,78745,United States of America,512-462-2222,30.19333,-97.7797,,,,
Northcross Mall,,2545 W. Anderson Ln.,,Austin,Texas,78757,United States of America,512-419-0031,30.35769,-97.73407,,,,
AustinBergstrom International Airport,,"3600 Presidential Blvd, Gate 12",,Austin,Texas,78719,United States of America,(512) 530-2915,30.201797,-97.667733,,,,
Balcones Woods,,5105 Balcones Woods Dr.,,Austin,Texas,78757,United States of America,512-338-9494,30.40763,-97.74493,,,,
Center Park at Tech Ridge,,"500 Canyou Ridge Drive, #G",,Austin,Texas,78753,United States of America,512-873-8700,30.40362,-97.67327,,,,
North FM 620,,"8300 North FM 620, Building A, Suite 100",,Austin,Texas,78726,United States of America,512-285-3500,30.42042509,-97.84561895,,,,
Parmer McNeil Drive,,"6301 W. Parmer Lane, Suite 608",,Austin,Texas,78729,United States of America,(512) 918-2867,30.44555,-97.74364,,,,
Schlotzskys FM 967,,125 Farm to Market 1626,,Buda,Texas,78610,United States of America,512-295-0247,30.09823,-97.875847,,,,
Maconda Park,,13201 F.M. 620,,Austin,Texas,78717,United States of America,(512) 257-2112,30.4697,-97.79157,,,,
La Frontera,,2700-B Parker Drive,,Round Rock,Texas,78681,United States of America,512-671-6101,30.48077,-97.68009,,,,
US 183 1431,,110 East Whiteshore Blvd.,,Cedar Park,Texas,78613,United States of America,512-258-2360,30.52096,-97.82985,,,,
Cannon Drive,,"1025 Cannon Drive, Suite 101",,Dripping Springs,Texas,78620,United States of America,512-894-2043,30.1920266,-98.0841557,,,,
West Hwy 290,,1131 W. Hwy 290,,Elgin,Texas,78621,United States of America,512 285 2867,30.34923553,-97.38388062,,,,
State Highway 71 West,,492 State Highway 71 West,,Bastrop,Texas,78602,United States of America,512-332-2857,30.110477,-97.32568,,,,
Pilot #1047,,7010 Prichard Road,,Jacksonville,Florida,32219,United States of America,904-786-7844,30.37204,-81.76344,,,,
Avenues Mall,,10300 Southside Blvd. # 2671,,Jacksonville,Florida,32256,United States of America,904/363-8843,30.180678,-81.551868,,,,
The Shoppes at Tanforan,,1150 El Camino Real,,San Bruno,California,94066,United States of America,650-583-5009,37.63635457,-122.4208749,,,,
Southland Mall,,One Southland Mall,,Hayward,California,94545,United States of America,510-259-0879,37.65027,-122.1056,,,,
Sun Valley Mall,,1 Sunvalley Mall,,Concord,California,94520,United States of America,(925) 421-2972,37.96716481,-122.0625412,,,,
Houston Tunnels,,815 Walker Street #T-26,,Houston,Texas,77002,United States of America,713-225-3354,29.75846,-95.36547,,,,
Walmart 249,,831 South US 59,,Pearland,Texas,77327,United States of America,832-966-9669,29.74394035,-95.36345673,,,,
Yale Street,,76 Yale Street,,Houston,Texas,77007,United States of America,713-880-0505,29.770319,-95.398283,,,,
Richmond Ave,,4001 Richmond Ave. Suite A,,Houston,Texas,77027,United States of America,713-661-6852,29.73223,-95.44153,,,,
South Main,,8200 S. Main St.,,Houston,Texas,77025,United States of America,(713) 665-0011,29.69253731,-95.4164505,,,,
Galleria Mall,,"5015 Westheimer, #1403",,Houston,Texas,77056,United States of America,713-871-1882,29.7396,-95.4639,,,,
Gulf Freeway,,6969 Gulf Freeway Ste. 100,,Houston,Texas,77087,United States of America,713-640-2465,29.70176,-95.2959,,,,
Katy Freeway,,7670 Katy Freeway,,Houston,Texas,77024,United States of America,832-582-8854,29.7848314,-95.4672841,,,,
Schlotzskys Westheimer Road,,6127 Westheimer Road,,Houston,Texas,77057,United States of America,(713) 974-2867,29.73795,-95.49058,,,,
South West Freeway,,7501 South West Freeway,,Houston,Texas,77074,United States of America,713-988-2757,29.697,-95.5206,,,,
North West Crossing,,13236B Northwest Freeway,,Houston,Texas,77040,United States of America,713-462-3335,29.84912,-95.50558,,,,
Memorial City Mall,,303 Memorial City Way,,Houston,Texas,77024,United States of America,(713) 973-2072,29.776816,-95.544319,,,,
Memorial City Mall,,800 Gessner,,Houston,Texas,77024,United States of America,(713) 973-2072,29.776816,-95.544319,,,,
Westheimer Road,,10001 Westheimer Road #2126,,Houston,Texas,77042,United States of America,713-974-6462,29.73683,-95.54845,,,,
Pilot Pasadena,,1305 E. Pasadena Freeway,,Pasadena,Texas,77506,United States of America,713-534-0038,29.71289,-95.19537,,,,
Greenspoint Dr,,12142 Greenspoint Dr.,,Houston,Texas,77060,United States of America,832-446-6073,29.94425,-95.40846,,,,
Spencer Hwy,,3834 Spencer Hwy.,,Pasadena,Texas,77504,United States of America,(713) 946-2034,29.6649,-95.184,,,,
Fuqua,,12720 Featherwood,,Houston,Texas,77034,United States of America,281-484-7600,29.61713,-95.21613,,,,
Broadway,,9121 Broadway,,Pearland,Texas,77548,United States of America,281-997-6464,29.5585,-95.3645,,,,
Memorial Dr,,14510  Memorial Dr.,,Houston,Texas,77079,United States of America,(281) 493-9778,29.7702,-95.6028,,,,
Pearland Town Center Mall,,11200 Broadway Suite #1210,,Pearland,Texas,77584,United States of America,713-433-8188,29.55588,-95.38746,,,,
Pilot 1025 Channelview,,102 South Sheldon Road,,Channelview,Texas,77530,United States of America,(281) 457-1435,29.77197075,-95.12431335,,,,
Dairy Ashford,,12485 Werstheimer Road,,Houston,Texas,77077,United States of America,281-558-2867,29.73584,-95.61689,,,,
Schlotzskys Spencer Highway,,"8920 Spencer Highway, Suite F",,La Porte,Texas,77571,United States of America,(281) 479-2000,29.6502,-95.1557,,,,
Bush Intercontinental Airport,,IAH - Bush Intercontinental Airport 3950 S Terminal Road #32 Terminal E,,Houston,Texas,77032,United States of America,281-209-1600,29.598,-95.2032,,,,
Pilot 0375 Houston,,4440 N. McCarty Street,,Houston,Texas,77090,United States of America,(281) 893-0423,29.99865,-95.42614,,,,
Willowbrook Mall,,1198 Willowbrook Lane,,Houston,Texas,77070,United States of America,(281) 890-6660,29.958723,-95.541851,,,,
Champions Village,,"5603 FM 1960 W., Suite C",,Houston,Texas,77069,United States of America,(281) 580-2867,29.96579,-95.53861,,,,
Highway 6,,"5320 Highway 6, Suite 160",,Missouri City,Texas,77459,United States of America,281-208-8801,29.57174,-95.56989,,,,
FM 1960 Bypass West,,9781 F.M. 1960 Bypass West,,Humble,Texas,77338,United States of America,281-446-1871,30.00522,-95.27392,,,,
SW Freeway,,15287 SW Freeway,,Sugar Land,Texas,77478,United States of America,281-565-2867,29.60597165,-95.6138695,,,,
Deerbrook Mall,,20131 Highway 59,,Humble,Texas,77338,United States of America,(281)540-3556,30.012705,-95.265014,,,,
Highway 6 North,,8254 Highway 6 North,,Houston,Texas,77095,United States of America,281-550-1734,29.89961,-95.63461,,,,
First Colony Mall,,"16535 Southwest Freeway, Ste. 1",,Sugarland,Texas,77479,United States of America,281-313-2438,29.59417,-95.62648,,,,
Baybrook Mall,,"500 Baybrook, #1080",,Friendswood,Texas,77546,United States of America,(281) 286-2276,29.545633,-95.149269,,,,
East Parkwood,,109 East Parkwood,,Friendswood,Texas,77546,United States of America,(281) 996-5483,29.50915,-95.18796,,,,
Kingwood Drive,,1263 Kingwood Drive,,Kingwood,Texas,77339,United States of America,281-358-2867,30.04982,-95.23476,,,,
South Mason Road,,502 S. Mason Road,,Katy,Texas,77450,United States of America,281-395-1001,29.77733,-95.75187,,,,
Garth Road,,4010 Garth Road,,Baytown,Texas,77521,United States of America,281-420-1557,29.76627,-94.97694,,,,
Highway 6 South,,"8751 Highway 6 South, Suite Z",,Houston,Texas,77083,United States of America,281-530-2345,29.561872,-95.690724,,,,
South FM 270,,221 South FM 270,,League City,Texas,77573,United States of America,281-557-2444,29.51887,-95.07398,,,,
Katy Mills,,5000 Katy Mills Circle,,Katy,Texas,77494,United States of America,281-665-1480,29.77923,-95.806928,,,,
Katy Mills Shopping Center,,5000 Katy Mills Cir,,Katy,Texas,77494,United States of America,281-665-7401,29.778158,-95.810168,,,,
Victory Lake Town Center,,1635 FM 646,,League City,Texas,77073,United States of America,281-337-4477,29.48926404,-95.05747274,,,,
Pilot 472 Beasley,,525 1st St.,,Beasley,Texas,77471,United States of America,(979) 387 - 2620,29.4943,-95.91143,,,,
Gaston Avenue,,3903 Gaston Avenue,,Dallas,Texas,75077,United States of America,214-461-2638,32.8219,-96.7861,,,,
Empire Central,,8235 North Stemmons Freeway,,Dallas,Texas,75247,United States of America,214-630-9944,32.82974,-96.87413,,,,
Greenville Avenue,,6862 Greenville Avenue,,Dallas,Texas,75231,United States of America,(214) 361-9155,32.85968,-96.76812,,,,
West Wheatland Road,,3335 W. Wheatland Road,,Dallas,Texas,75237,United States of America,214-339-9784,32.66221,-96.87205,,,,
Forest Lane,,7804 Forest Lane,,Dallas,Texas,75230,United States of America,214-369-2867,32.90911,-96.77108,,,,
Las Colinas,,4970 N. O'Connor  Road,,Irving,Texas,75062,United States of America,972-717-2015,32.8682,-96.9435,,,,
Midway Road,,13881 Midway Road #101,,Farmers Branch,Texas,75244,United States of America,972-239-8002,32.93474,-96.8403,,,,
Beltline Road,,"3740 Beltline Road, Suite 117-A",,Addison,Texas,75001,United States of America,(972) 807-6793,32.9531,-96.8539,,,,
North MacArthur Blvd,,7530 N. MacArthur Blvd,,Irving,Texas,75063,United States of America,972-409-0837,32.90977,-96.95822,,,,
Midway,,"2661 Midway, Ste. 239",,Carrolton,Texas,75006,United States of America,972-733-7283,32.98504,-96.84258,,,,
East FM Road,,207 East FM Road 1382,,Cedar Hill,Texas,75104,United States of America,(972) 293-1500,32.59736,-96.94064,,,,
North Highway 360,,2035 N. Highway 360,,Grand Prairie,Texas,75050,United States of America,817-640-1011,32.78104,-97.06013,,,,
West I20,,2519 West I-20,,Grand Prairie,Texas,75052,United States of America,972-623-9700,32.67738,-97.04194,,,,
Park Midway Center,,3300 Hebron Pklwy,,Carrollton,Texas,75010,United States of America,972.820.7111,33.02594,-96.84331,,,,
South Denton Tap Road,,135 S. Denton Tap Road,,Coppell,Texas,75019,United States of America,(972) 393-3233,32.96837,-96.99371,,,,
Jupiter Road,,"1405 Jupiter Road, Ste. 100",,Plano,Texas,75074,United States of America,(972) 516-6639,33.01955,-96.68268,,,,
Big Vineyard Village,,2830 Hwy 121,,Euless,Texas,76039,United States of America,817.399.8100,32.877951,-97.099495,,,,
Vista Ridge Plaza,,450 E.Round Grove Road,,Lewisville,Texas,75067,United States of America,(972) 315-3641,33.0043,-96.9792,,,,
West Airport Freeway,,2323 West Airport Freeway,,Euless,Texas,76040,United States of America,817-640-1011,32.83689,-97.12058,,,,
South Main,,1801 S. Main Street,,Grapevine,Texas,76051,United States of America,(817) 424-5201,32.92403,-97.07891,,,,
Central Expressway,,5045 Central Expressway,,Plano,Texas,75023,United States of America,(972) 424-1664,33.05672,-96.69338,,,,
East Hwy 80,,"750 E. Hwy 80, Suite 100",,Forney,Texas,75126,United States of America,(972) 552-2996,32.7428,-96.4485,,,,
Parks at Arlington Mall,,3811 South Cooper Street # 2024,,Arlington,Texas,76051,United States of America,817-557-1051,32.6841,-97.1326,,,,
North Josey Lane,,6360 North Josey Lane,,The Colony,Texas,75056,United States of America,214-469-1034,33.0663,-96.8889,,,,
East Interstate 30,,706 East  Interstate 30,,Rockwall,Texas,75063,United States of America,972-772-7900,32.8978,-96.4674,,,,
Village at Sports Center,,5001 South Cooper Street #101,,Arlington,Texas,76017,United States of America,817-465-0030,32.6687,-97.1335,,,,
Eastchase Parkway,,1548 Eastchase Parkway,,Fort Worth,Texas,76120,United States of America,(817) 861-6900,32.75623,-97.16812,,,,
Grapevine Highway,,320 Grapevine Highway,,Hurst,Texas,76054,United States of America,817-576-4344,32.86852264,-97.17140961,,,,
North West Plaza,,3851 Long Prairie Road,,Flower Mound,Texas,75022,United States of America,972-899-8130,33.0374,-97.0696,,,,
US Hwy 287,,2002 US Hwy 287 North,,Mansfield,Texas,76063,United States of America,817-453-3809,32.52434,-97.08675,,,,
West Southlake Blvd,,2000 W. Southlake Blvd.,,Southlake,Texas,76092,United States of America,817-442-9666,32.9369,-97.18664,,,,
Rufe Snow,,6237 Rufe Snow,,Watauga,Texas,76148,United States of America,(817) 581-6007,32.85694,-97.23778,,,,
South Main,,1085 S. Main Street,,Keller,Texas,76248,United States of America,817-562-8825,32.90528,-97.25703,,,,
North Beach,,6360 North Beach,,Haltom City,Texas,76137,United States of America,(817) 428-6448,32.8571,-97.2891,,,,
Forest Hill,,3216 S.E. Loop 820,,Fort Worth,Texas,76140,United States of America,(817) 551-7733,32.661,-97.27894,,,,
North Hwy 377,,1320 N. Hwy. 377,,Roanoke,Texas,76262,United States of America,817-541-8273,33.01428281,-97.21970335,,,,
State Highway 34 South,,1610 State Highway 34 South,,Terrell,Texas,75160,United States of America,972-551-0793,32.705,-96.27797,,,,
Pilot 434 Fort Worth,,2400 Alliance Gateway,,Fort Worth,Texas,76177,United States of America,(817) 337-5324,32.95863,-97.30887,,,,
Westport Parkway,,2410 Westport Parkway,,Fort Worth,Texas,76177,United States of America,(817) 439-1919,32.9733,-97.327,,,,
SE Wilshire Boulevard,,705 SE Wilshire Boulevard,,Burleson,Texas,76028,United States of America,817-295-5606,32.5433,-97.3162,,,,
Camp Bowie,,"6000 Camp Bowie Blvd.,",,Fort Worth,Texas,76116,United States of America,(817) 732-3021,32.72868,-97.41629,,,,
North West Center Drive,,3530 North West Center Drive,,Fort  Worth,Texas,76135,United States of America,817-882-6885,32.8093,-97.42,,,,
Bryant Irving Road,,4608 Bryant Irving Road #430,,Fort Worth,Texas,76132,United States of America,(817) 423-4300,32.6834,-97.41382,,,,
Easton Town Center,,160 Easton Town Center A-109,,Columbus,Ohio,43219,United States of America,614-337-1633,40.050903,-82.9152,,,,
Pilot 454 London,,1365 State Highway 42 NE,,London,Ohio,43140,United States of America,614-879-4128,39.88545,-83.44856,,,,
Charlotte Airport,,Cinnabon Main Atrium,,Charlotte,North Carolina,28208,United States of America,704-359-4440,35.2077,-80.9423,,,,
Charlotte Douglas Intl Airport,,"PO Box 19066, Concourse A",,Charlotte,North Carolina,28219,United States of America,704-359-4610,35.21455,-80.94749,,,,
North Lake Mall,,6801 Northlake Mall,,Charlotte,North Carolina,28216,United States of America,704-598-9322,35.35335541,-80.85079956,,,,
Carowinds Amusement Park,,14523 Carowinds Blvd.,,Charlotte,North Carolina,28273,United States of America,704-588-5000,35.100189,-80.948345,,,,
Concord Mills Mall,,8111 Concord Mall Dr.,,Concord,North Carolina,28027,United States of America,(704) 979-1900,35.371818,-80.719242,,,,
East Franklin Blvd,,3735 East Franklin Blvd.,,Gastonia,North Carolina,28056,United States of America,(704) 824-3611,35.25688934,-81.1126709,,,,
Freedom Crossing,,"1613 Pleasonton Road, Suite 8-108, Ft. Bliss TX",,Ft. Bliss,Texas,79906,United States of America,915 298 1001,31.8193,-106.4276,,,,
Cielo Vista Mall,,8401 Gateway West,,El Paso,Texas,79925,United States of America,915-772-0145,31.77353,-106.38086,,,,
Lee Trevino,,"1840 Lee Trevino, Suite #705",,El Paso,Texas,79936,United States of America,915-592-2867,31.7671,-106.32,,,,
North Mesa Street,,7040 N. Mesa Street,,El Paso,Texas,79912,United States of America,915-581-7400,31.83608,-106.55136,,,,
Colorado Mills,,14520 W Colfax Ave.,,Lakewood,Colorado,80401,United States of America,303-590-1503,39.73425843,-105.1602725,,,,
Aurora Mall,,14200 East Alameda Avenue,,Aurora,Colorado,80012,United States of America,303/340-2737,39.71104525,-104.8225656,,,,
Southwest Plaza Mall,,"8501 West Baules Avenue, Suite 2090",,Littleton,Colorado,80123,United States of America,303-569-6486,39.61068726,-105.0955048,,,,
Greenwood Village,,9624 East Arapahoe Road,,Greenwood Village,Colorado,80112,United States of America,(720) 266-5200,39.59489487,-104.8771392,,,,
South Main,,1831 South Main Street,,Weatherford,Texas,76086,United States of America,(817) 599-3900,32.73688,-97.7961,,,,
The Fashion Centre at Pentagon City,,1100 S. Hayes St.,,Arlington,Virginia,22202,United States of America,410-266-6196,38.86334991,-77.0606308,,,,
Prince George Plaza,,"3500 East-West Hwy, #G",,Hyattsville,Maryland,20782,United States of America,301-885-0010,38.967001,-76.959429,,,,
Wheaton Mall,,11160 Veirs Mill Road,,Wheaton,Maryland,20902,United States of America,301-244-0803,39.03890513,-77.0536416,,,,
Tyson Corner,,1961 Chain Bridge Rd. #7949LA,,McLean,Virginia,22102,United States of America,410) 225-2782,38.919692,-77.226022,,,,
Springfield Town Center,,6500 Springfield Mall,,Springfield,Virginia,22150,United States of America,240-602-8813,38.77190463,-77.17494249,,,,
Fair Oaks Mall,,"11750 Fair Oaks, Unit # 11933U",,Fairfax,Virginia,22033,United States of America,703-934-8800,38.8664,-77.3599,,,,
Lake Forest Mall,,701 Russell Ave,,Gaithersburg,Maryland,20877,United States of America,301-330-5071,39.150902,-77.204224,,,,
St. Charles Square,,11110 Mall Circle,,Waldorf,Maryland,20603,United States of America,301-559-1202,38.616091,-76.928392,,,,
Dulles Town Center Mall,,21100 Dulles Town Circle,,Dulles,Virginia,20166,United States of America,571-325-2998,39.03474368,-77.42358461,,,,
Potomac Mills,,2700 Potomac Mills Circle,,Prince William,Virginia,22192,United States of America,443-736-4473,38.645815,-77.298874,,,,
Arundel Mills Mall,,7000 Arundel Mills Blvd.,,Hanover,Maryland,21076,United States of America,410) 799-2776,39.155422,-76.727874,,,,
Baltimore Airport (BWI),,Concourse A,,Baltimore,Maryland,21240,United States of America,410-859-5151,39.18401,-76.76446,,,,
Westfield Shopping Town,,1016 Annapolis Mall Road,,Annapolis,Maryland,21401,United States of America,410-266-6196,38.991492,-76.546534,,,,
Opry Mall,,336 Opry Mills Drive,,Nashville,Tennessee,37214,United States of America,615-290-5361,36.20378,-86.693634,,,,
Galleria Blvd,,1708 Galleria Blvd.,,Franklin,Tennessee,37064,United States of America,(615) 778-0100,35.96606,-86.81051,,,,
Pilot 411 Leganon,,921 Murfreesboro Rd.,,Lebanon,Tennessee,37090,United States of America,615-453-8866,36.18257,-86.29609,,,,
Pilot 409 Dickson,,2320 Highway 46 S.,,Dickson,Tennessee,37055,United States of America,410-266-6196,36.02353,-87.34004,,,,
Fairlane Town Center,,"18900 Michigan Avenue, G118",,Dearborn,Michigan,48126,United States of America,313-441-4433,42.309739,-83.221912,,,,
Oakland Mall,,"498 West 14 Mile Road, Ste. A",,Troy,Michigan,48083,United States of America,248-307-0395,42.534238,-83.111799,,,,
Lakeside Mall,,14600 Lakeside Circle,,Sterling Heights,Michigan,48313,United States of America,586-247-6767,42.6199,-82.9845,,,,
Twelve Oaks Mall,,27470 AB Novi Road,,Novi,Michigan,48377-3412,United States of America,248-513-3644,42.50669479,-83.47358704,,,,
Briarwood Mall,,448 Briarwood Circle,,Ann Arbor,Michigan,48108,United States of America,734-327-4360,42.238179,-83.747289,,,,
Mondawmin Mall,,2401 Liberty Heights Ave,,Baltimore,Maryland,21215,United States of America,240-602-8813,39.3190632,-76.65526047,,,,
Eastpoint Mall,,7839 Eastpoint Mall,,Baltimore,Maryland,21224,United States of America,410) 225-2782,39.29180391,-76.50928661,,,,
Security Square Mall,,6901 Security Blvd,,Baltimore,Maryland,21224,United States of America,443-316-8057,39.31312,-76.7503,,,,
Mall in Columbia,,10300 Little Patuxent Parkway,,Columbia,Maryland,21044,United States of America,410-997-6911,39.226882,-76.853973,,,,
74th Street,,1505 S.W. 74th St.,,Oklahoma City,Oklahoma,73159,United States of America,(405) 681-7393,35.39182,-97.54659,,,,
North West Expressway,,3323 N.W. Expressway,,Oklahoma City,Oklahoma,73112,United States of America,(405) 842-3066,35.53161,-97.57721,,,,
South Air Depot,,2400 S. Air Depot,,Midwest City,Oklahoma,73110,United States of America,405-455-5989,35.4364,-97.4047,,,,
Rockwell Avenue,,8425 N. Rockwell Ave.,,Oklahoma City,Oklahoma,73132,United States of America,(405) 722-3279,35.55613,-97.6382,,,,
West Memorial Rd,,2620 W. Memorial Rd.,,Oklahoma City,Oklahoma,73134,United States of America,(405) 755-8355,35.60835,-97.56167,,,,
SW 19th Street,,"633 SW 19th Street, Suite 104",,Moore,Oklahoma,73160,United States of America,405-703-8400,35.3199,-97.4956,,,,
North Portland,,19417 N. Portland,,Oklahoma City,Oklahoma,73012,United States of America,405-359-1211,35.6675646,-97.5850219,,,,
West Lindsey,,2030 W. Lindsey,,Norman,Oklahoma,73069,United States of America,(405) 364-4349,35.2037,-97.47137,,,,
St. Matthews Mall,,5000 Shelbyville Road,,Louisville,Kentucky,40270,United States of America,502-899-5934,38.25025,-85.62357,,,,
Fischer Park Dr,,10531 Fischer Park Dr.,,Louisville,Kentucky,40241,United States of America,(502) 425-8447,38.2966,-85.5578,,,,
Pilot 354 Simpsonville,,819 Buck Creek Road,,Simpsonville,Kentucky,40067,United States of America,502-722-5636,38.196406,-85.345964,,,,
Pilot 478 Leavenworth,,6921 South State Road 66,,Leavenworth,Indiana,47137,United States of America,812-739-2002,38.23921,-86.3611,,,,
Memphis Airport (MEM),,"2491 Winchester Road, Terminal C",,Memphis,Tennessee,38116,United States of America,901) 922-8000,35.0605,-89.978,,,,
Poplar Avenue,,4758 Poplar Avenue,,Memphis,Tennessee,38117,United States of America,901-763-0741,35.11525,-89.90348,,,,
Solomon Pond Mall,,"601 Donald Lynch Blvd, #N-139",,Marlboro,Massachusetts,01752,United States of America,508/624-7999,42.352597,-71.616548,,,,
Lloyd Center,,1109 Lloyd Center,,Portland,Oregon,97232,United States of America,(503) 288-1777,45.53366505,-122.6547763,,,,
Washington Square,,9473 SW Washington Sq. Rd,,Tigard,Oregon,97223,United States of America,(503) 620-6652,45.44991508,-122.7833285,,,,
Clackamas Town Center,,12000 SE 82nd Ave. Suite #2181,,Happy Valley,Oregon,97086,United States of America,(503) 659-9701,45.436288,-122.57897,,,,
Vancouver Mall,,8700 N.E Vancouver Mall Drive,,Vancouver,Washington,98662,United States of America,(360) 256-4800.,45.65668,-122.58201,,,,
Pilot 5009 Aurora,,12334 Ehlen Road,,Aurora,Oregon,97002,United States of America,503-678-1262,45.23455,-122.81018,,,,
Boulevard Mall,,3480 South Maryland Parkway,,Las Vegas,Nevada,89169,United States of America,(702) 731-0522,36.12627223,-115.137058,,,,
Meadows Mall,,4300 Meadows Lane,,Las Vegas,Nevada,89107,United States of America,(702) 822-1696,36.17025577,-115.1974721,,,,
Casino Royal,,3411 Las Vegas Blvd.,,Las Vegas,Nevada,89109,United States of America,702-369-0845,36.12187,-115.17171,,,,
West Charleston,,5119 West Charleston,,Las Vegas,Nevada,89146,United States of America,702-877-8768,36.15919,-115.21149,,,,
Excalibur Casino,,3850 Las Vegas Blvd. South,,Las Vegas,Nevada,89109,United States of America,(702) 987-8424,36.09961,-115.17303,,,,
Las Vegas/McCarran Intl Arpt,,P. O. box 11007,,Las Vegas,Nevada,89119,United States of America,(702) 261-4303,36.0888,-115.146,,,,
Las Vegas Term D,,PO Box 11007,,Las Vegas,Nevada,89119,United States of America,(702) 261-4303,36.08467865,-115.1469116,,,,
Las Vegas South Premium Outlets,,7400 S. Las Vegas Bvld.,,Las Vegas,Nevada,89123-1000,United States of America,702-372-7442,36.05522722,-115.1722889,,,,
Galleria at Sunset,,1300 West Sunset #2801,,Henderson,Nevada,89014,United States of America,(702) 436-4005,36.06386326,-115.0404905,,,,
Coronado Mall,,"6600 Menaul Blvd NE, Sp#S-5",,Albuquerque,New Mexico,87110,United States of America,(505) 881-8044,35.107128,-106.572766,,,,
Fiesta Del Norte,,6001 San Mateo Blvd. Ste G5,,Albuquerque,New Mexico,87109,United States of America,505-881-6549,35.14508,-106.58647,,,,
Pilot #689,,9911 Avalon Rd NW,,Albuquerque,New Mexico,87105,United States of America,505-831-2001,35.08474,-106.70436,,,,
Rio Rancho Drive,,1701 Rio Rancho Drive,,Rio Rancho,New Mexico,87124,United States of America,(505) 891-3131,35.22934,-106.65902,,,,
Cottonwood Mall,,"10000 Coors Bypass NW, SP D7",,Albuquerque,New Mexico,87114,United States of America,(505) 792-8316,35.15392685,-106.8440247,,,,
Pilot 1051 Lake Charles,,1119 Lowe-Grout Road,,Iowa,Louisiana,70647,United States of America,(337) 582-5464,35.01632,-106.06771,,,,
Arden Fair,,"1689 Arden Way, #2002",,Sacramento,California,95815,United States of America,916-561-0502,38.60021509,-121.4280163,,,,
Sunrise Mall,,6041 Sunrise Mall,,Citrus Heights,California,95610,United States of America,916-727-0487,38.67788,-121.26713,,,,
Pilot 168 Dunnigan,,30035 County Road 8,,Dunnigan,California,95937,United States of America,530-724-3060,38.862178,-121.9506,,,,
Forni Road,,3025 Forni Road,,Placerville,California,95667,United States of America,530-621-3025,38.72045898,-120.8313522,,,,
Bellevue Square,,1038 Bellevue Square,,Bellevue,Washington,98004,United States of America,425-453-5026,47.6174,-122.199,,,,
Northgate Mall,,"401 Northgate Way, NE, Space #471",,Seattle,Washington,98125,United States of America,(206)366-9764,47.70743,-122.3234,,,,
Alderwood Mall,,3000 184th St SW,,Lynnwood,Washington,98037,United States of America,425-673-6310,47.83173479,-122.2734848,,,,
Mayfair Mall,,2500 N. Mayfair Road,,Wauwatosa,Wisconsin,53226,United States of America,(414) 476-8866,43.06429,-88.04443,,,,
Brookfield Square,,95 N. Moorland Road,,Brookfield,Wisconsin,53005,United States of America,262-860-1284,43.031579,-88.110175,,,,
West Brown Deer Road,,6800 West Brown Deer Road,,Milwaukee,Wisconsin,53223,United States of America,(414) 355-6161,43.17789,-87.99456,,,,
Lynnhaven Mall,,701 Lynnhaven Pkwy.,,Virginia Beach,Virginia,23452,United States of America,757-340-930,36.82001084,-76.06706209,,,,
Virginia Ave,,861 Virginia Ave.,,Hapeville,Georgia,30354,United States of America,404-767-0112,33.65873,-84.41759,,,,
Cumberland Festival,,"2980 Cobb Pkwy., Ste. 208",,Atlanta,Georgia,30339,United States of America,(770) 612-8044,33.88033,-84.46011,,,,
Cumberland Mall,,"1000 Cumberland Mall, Sp. 1302",,Atlanta,Georgia,30339,United States of America,770-333-6160,33.879191,-84.471446,,,,
Windy Hill Rd,,"3000 Windy Hill Rd., Suite A-10",,Marietta,Georgia,30067,United States of America,770-591-5875,33.90455,-84.46776,,,,
Southlake Mall,,1000 Southlake Cir.,,Morrow,Georgia,30260,United States of America,678-422-7062,33.57442327,-84.35539305,,,,
Perimeter Mall,,"4400 Ashford Dunwoody Road, NE",,Atlanta,Georgia,30346-1579,United States of America,770-702-0495,33.92350388,-84.34056091,,,,
Mall at Stone Crest,,2929 Turner Hill Rd.,,Lithonia,Georgia,30038,United States of America,(678) 323-8069,33.69836,-84.08892,,,,
Pleasant Hill Rd,,1625 Pleasant Hill Rd.,,Duluth,Georgia,30096,United States of America,770-717-0503,33.94535266,-84.1252964,,,,
Arbor Place Mall,,6700 Douglas Blvd. Suite 2495,,Douglasville,Georgia,30165,United States of America,678-275-2080,33.7284,-84.7466,,,,
Town Center at Cobb,,400 Barrett Pkwy.,,Kennesaw,Georgia,30144,United States of America,770-419-8575,34.01608,-84.56336,,,,
Sugarloaf Mills Mall,,5900 Sugar Loaf Pkwy,,Lawrenceville,Georgia,30043,United States of America,678-847-5960,33.98601,-84.080028,,,,
Schlotzsky's Austin Eatery,,2260 Peachtree Industrial Blvd.,,Duluth,Georgia,30097,United States of America,678-226-5223,34.020712,-84.123094,,,,
Lawrenceville Suwanee Road,,2941 Lawrenceville Suwanee Road,,Suwanee,Georgia,30024,United States of America,678-765-6336,34.02838516,-84.04586029,,,,
Pilot 417 Temple,,625 Carrollton Street,,Temple,Georgia,30179,United States of America,770-562-9773,33.71981,-85.02853,,,,
Southern Cross Shopping Center,,1869 S. Nevada Avenue,,Colorado Springs,Colorado,80905,United States of America,719-633-5445,38.80754,-104.82142,,,,
North Academy,,2381 N. Academy Blvd.,,Colorado Springs,Colorado,80909,United States of America,719-574-0001,38.86496,-104.75655,,,,
Centennial Blvd,,4560 Centennial Blvd.,,Colorado Springs,Colorado,80919,United States of America,719-528-5678,38.89781,-104.8504,,,,
Razorback Road,,8310 Razorback Road,,Colorado Springs,Colorado,80920,United States of America,719-536-0001,38.9511,-104.802,,,,
North Saddle Creek Road,,530 N. Saddle Creek Road,,Omaha,Nebraska,68131,United States of America,(402) 397-9305,41.25524,-96.02392,,,,
129th Avenue,,2782 South 129th Avenue,,Omaha,Nebraska,68144,United States of America,402-691-0611,41.23365216,-96.11463994,,,,
Pump & Pantry 50 Bellvue,,3605 Summit Plaza Drive,,Bellevue,Nebraska,68123,United States of America,402-938-4960,41.17867,-96.06846,,,,
Pump & Pantry 48 Freemont,,3441 E. 24 ST,,Fremont,Nebraska,68025,United States of America,402-727-7045,41.452097,-96.452931,,,,
Crabtree Valley Mall,,4325 Glenwood Avenue,,Raleigh,North Carolina,27615,United States of America,919-771-7933,35.83932114,-78.67902374,,,,
Triangle Town Center,,5959 Triangle Town Blvd FU2083,,Raleigh,North Carolina,27616,United States of America,410-997-6911,35.864887,-78.571552,,,,
Streets at Southpoint,,6910 Fayetteville Road,,Durham,North Carolina,27713,United States of America,919-908-1128,35.9036006,-78.93881679,,,,
Pilot 057 Mebane,,1342 Trollingwood Rd,,Mebane,North Carolina,27302,United States of America,919-563-4999,36.0706,-79.32824,,,,
Pembroke Lakes Mall,,11401 Pines Blvd. Suite 238,,Pembroke Pines,Florida,33026,United States of America,954-436-6661,26.009403,-80.302917,,,,
Southdale Shopping Center,,3425 West 66th Street,,Edina,Minnesota,55435,United States of America,952-922-2530,44.8834,-93.32388,,,,
Mall of America,,E. 180 Broadway,,Bloomington,Minnesota,55425,United States of America,952-858-8208,44.854262,-93.240173,,,,
Maplewood Mall,,1054 Maplewood Mall,,Maplewood,Minnesota,55109,United States of America,651-773-5505,45.03219,-93.02167,,,,
Valley Fair,,One Valleyfair Drive,,Shakopee,Minnesota,55379,United States of America,952-445-7600,44.7976,-93.4501,,,,
Burnsville Center,,1078 Burnsville Center,,Burnsville,Minnesota,55306,United States of America,952-898-1040,44.7433,-93.2944,,,,
Pilot 470 Roberts,,1191 70th Avenue,,Roberts,Wisconsin,54023,United States of America,715-749-4238,44.9635,-92.56018,,,,
Westminster Mall,,2052 Westminster Mall,,Westminster,California,92683,United States of America,(714) 894-8688,33.74664322,-118.0152453,,,,
Westfield MainPlace,,"2800 N. Main Street, # 568",,Santa Ana,California,92701,United States of America,(714)-543-5920,33.74710083,-117.8676376,,,,
Towne East Square,,7700 East Kellogg Drive,,Wichita,Kansas,67207,United States of America,(316) 686-3341,37.683,-97.2493,,,,
South Rock Road,,1140 S. Rock Road,,Wichita,Kansas,67207,United States of America,316-686-3821,37.66951,-97.24402,,,,
West Central,,8710 West Central,,Wichita,Kansas,67212,United States of America,316-425-7720,37.6942,-97.4439,,,,
Tucson Mall,,4500 N. Oracle Road # 126,,Tucson,Arizona,85705,United States of America,(520) 292-6400,32.28878751,-110.9780911,,,,
East Valencia Road,,3270 E. Valencia Road,,Tucson,Arizona,85706,United States of America,520-741-2333,32.13406,-110.92443,,,,
Pilot 593 Tucson,,5570 E. Travel Plaza Way,,Tucson,Arizona,85756,United States of America,520-663-3348,32.12635,-110.8754,,,,
East 41st Street,,4905 E. 41st Street,,Tulsa,Oklahoma,74135,United States of America,918 289 0003,36.1044,-95.9214,,,,
71st Lewis,,2343 E. 71st St.,,Tulsa,Oklahoma,74136,United States of America,(918) 496-4663,36.061021,-95.95828,,,,
South Memorial,,10205 South Memorial,,Tulsa,Oklahoma,74137,United States of America,(918) 369-4801,36.01383,-95.88644,,,,
East Prospect Avenue,,813 E. Prospect Avenue,,Ponca City,Oklahoma,74601,United States of America,(580) 749-5246,35.9886,-96.1186,,,,
East Kenosha,,1250 E. Kenosha,,Broken Arrow,Oklahoma,74012,United States of America,(918) 258-7878,36.06084,-95.77136,,,,
Cleveland Airport (CLE),,5300 Riverside Dr. Space MT-280,,Cleveland,Ohio,44135,United States of America,(216) 265-8468,41.40424,-81.85056,,,,
Great Northern Mall,,4954 Great Nothern Shop Center,,North Olmsted,Ohio,44070,United States of America,440-238-9199,41.41617112,-81.90950878,,,,
SouthPark Mall,,500 Southpark Center,,Strongsville,Ohio,44136,United States of America,440-716-0436,41.3093248,-81.8207098,,,,
Ala Moana Center,,1450 Ala Moana Blvd. #1105,,Honolulu,Hawaii,96814,United States of America,(808) 949-7179,21.28959,-157.84286,,,,
Pearlridge Shopping Center,,604 Pearlridge Downtown,,Aiea,Hawaii,96701,United States of America,(808) 487- 2430,21.38352,-157.94183,,,,
Fresno Fashion Fair,,505 East Shaw Drive,,Fresno,California,93710,United States of America,559 243 5609,36.8065,-119.777,,,,
Pilot 365 Madera,,22717 Avenue 18,,Madera,California,93637,United States of America,559-673-3878,37.01116,-120.13326,,,,
Valley Plaza,,2701 Ming Avenue #0148,,Bakersfield,California,93304,United States of America,661-835-8012,35.33933491,-119.0335735,,,,
Pilot 154 Lost Hills,,14808 Warren Street,,Lost Hills,California,93249,United States of America,661-797-2122,35.61563873,-119.6590576,,,,
Riverside,,5720 Sycamore Canyon Blvd.,,Riverside,California,92507,United States of America,951-786-3645,33.9467,-117.30151,,,,
Moreno Valley Mall,,22500 Town Center #1111,,Moreno Valley,California,92553,United States of America,(951) 867-3027,33.940227,-117.272514,,,,
Pilot 642 Alorton,,140 Racehorse Drive,,Alorton,Illinois,62207,United States of America,618-337-4579,38.57644,-90.09731,,,,
County Center St Louis,,18 S County Center Way,,St. Louis,Missouri,63129,United States of America,314-753-4365,38.50395463,-90.3313715,,,,
St. Claire Square,,134 St Clair Square,,Fairview Heights,Illinois,62208,United States of America,614-207-8949,38.59660339,-89.97842407,,,,
South Alameda,,4218 South Alameda,,Corpus Christi,Texas,78412,United States of America,(361) 992-2850,27.73118,-97.37238,,,,
Leopard Street Ste 106,,11326 Leopard Street Ste 106,,Corpus Christi,Texas,78410,United States of America,361-241-4444,27.84817,-97.58998,,,,
Nicholasville Road,,4001 Nicholasville Road,,Lexington,Kentucky,40503,United States of America,859-245-1624,37.98097992,-84.53005981,,,,
Pilot 353 Georgetown,,110 Triport Road,,Georgetown,Kentucky,40324,United States of America,502-863-2708,38.275814,-84.552594,,,,
Westfield Brandon Mall,,459 Brandon Town Center Dr.,,Brandon,Florida,33511,United States of America,813-651-2710,27.9309,-82.32295,,,,
Pilot 625 Tampa,,11555 East Sligh Ave,,Tampa,Florida,33584,United States of America,813-612-9438,28.009873,-82.303551,,,,
Pilot 471 Haines City,,35647 US Hwy 27 North,,Haines City,Florida,33845,United States of America,863-421-3571,28.1075,-81.62421,,,,
Pittsburgh International Airport,,1000 Airport Blvd.,,Pittsburgh,Pennsylvania,15231,United States of America,412- 472-0333,40.48533,-80.23688,,,,
Pilot 307 North Palm Springs,,6605 North Indian Canyon Dr,,North Palm Springs,California,92258,United States of America,760-329-5562,33.86694,-116.5455,,,,
Anchorage International Airport,,"W. 50th Ave Old Airport Rd, B-X Terminal",,Anchorage,Alaska,99502,United States of America,907-929-3128,61.173965,-149.98235,,,,
Ted Steven Anchorage Intl. Airport,,5000 West International Airport Road,,Anchorage,Alaska,99502,United States of America,907 929-3128,61.1749,-149.9989,,,,
East Dimond Blvd,,321 E. Dimond Blvd,,Anchorage,Alaska,99515,United States of America,907-868-3960,61.1446,-149.8792,,,,
Weberstown Mall,,4950 Pacific Ave. Suite #303,,Stockton,California,95207,United States of America,209-478-0068,37.99578,-121.313926,,,,
Pilot 617 Lodi,,15100 North Thornton Road,,Lodi,California,95242,United States of America,209-339-4066,38.117975,-121.394906,,,,
Vintage Faire Mall,,431 Vintage Faire Mall,,Modesto,California,95350,United States of America,209/524-9662,37.68592648,-121.052206,,,,
Tri County Mall,,11700 Princeton Pike (D-3),,Cincinnati,Ohio,45251,United States of America,(513) 671-2942,39.28932,-84.466608,,,,
Kings Island,,P O box 901,,Kings Island,Ohio,45034,United States of America,513-754-5800,39.34689,-84.27303,,,,
Worlds of Fun,,4545 Worlds of Fun Ave,,Kansas City,Missouri,64161,United States of America,816-454-4545,39.17798,-94.48667,,,,
Metcalf Avenue,,12071 Metcalf Avenue,,Overland Park,Kansas,66213,United States of America,913-498-2867,38.9067,-94.66766,,,,
South Strangline Road,,12221 S. Strangline Road,,Olathe,Kansas,66062,United States of America,(913) 782-2867,38.83491135,-94.7798996,,,,
Erie Islands,,1012 North County Rd. 260,,Clyde,Ohio,43410,United States of America,(419) 547-3807,41.369982,-82.954421,,,,
Pilot 0190 Hampton,,66 Route 173 West,,Hampton,New Jersey,08827,United States of America,908-735-7711,40.63628,-74.97082,,,,
North 27th Street,,4320 N. 27th Street,,Lincoln,Nebraska,68521,United States of America,402-4387442,40.85674286,-96.68149567,,,,
Pump & Pantry 9 Lincoln,,345 West O Street,,Lincoln,Nebraska,68522,United States of America,308-384-2913,40.79179242,-96.72300987,,,,
Four Seasons Town Centre,,222 Four Seasons Town Ctr,,Greensboro,North Carolina,27407,United States of America,301-942-2600,36.041482,-79.83541,,,,
Hanes Mall,,1148 Hanes Mall,,Winston-Salem,North Carolina,27103,United States of America,(336) 765-2788,36.06769,-80.320641,,,,
North Airline Highwy,,1324 North Airline Highwy,,Gonzales,Louisiana,70737,United States of America,225-644-3633,30.24391,-90.91855,,,,
Universal Orlando - City Walk,,"6000 Universal Blvd., Ste 745",,Orlando,Florida,32819,United States of America,407-224-2360,28.474273,-81.463702,,,,
Universal Orlando -Isl of Advent.,,1000 Universal Studios Plaza,,Orlando,Florida,32819,United States of America,407-224-4604,28.47778,-81.470661,,,,
Orlando Airport (MCO),,1 Jeff Fuqua Blvd,,Orlando,Florida,32827,United States of America,(407) 825-8269,28.43825,-81.31086,,,,
Altamonte Mall,,451 East Altamonte Drive,,Altamonte Springs,Florida,32701,United States of America,407-332-6400,28.665,-81.376892,,,,
Orlando Sanford Airport,,"112 Starport Way, Sanford FL.2",,Sanford,Florida,32773,United States of America,407-585-4700,28.7848,-81.2393,,,,
Pilot 5204 Cotulla,,"I-35, Exit 69 / NW",,Cotulla,Texas,78014,United States of America,830-876-9754,28.40567398,-99.08517456,,,,
Pilot 1026 Carrizo Springs,,1045 S. Highway 83,,Carrizo Springs,Texas,78834,United States of America,830-876-9754,28.528502,-99.8589384,,,,
Pilot 1002 Tilden,,3080 N. Hwy 16,,Tilden,Texas,78072,United States of America,361-274-1558,28.46019,-98.55069,,,,
Schlotzsky’s Cinnabon,,20248 State Highway 46 West #170,,Spring Branch,Texas,78070,United States of America,830-980-6602,29.7438332,-98.4530729,,,,
Pilot 1059 Schulenburg,,709 US Hwy. 77 N,,Schulenburg,Texas,78956,United States of America,979-743-2547,29.6949061,-96.9045618,,,,
Cherryvale Mall,,"7200 Harrison RD, #H52",,Rockford,Illinois,61112,United States of America,(815)-332-3435,42.241212,-88.97542,,,,
Kenosha Travel Plaza,,11800 Burlington Road,,Kenosha,Wisconsin,53144,United States of America,262-854-5072,42.61421,-87.95004,,,,
Gurnee Mills,,"6170 West Grand Ave., #F-205",,Gurnee,Illinois,60031,United States of America,847 855-2900,42.3895,-87.9574,,,,
Westfield Hawthron,,122 Hawthorn Center #610,,Vernon Hills,Illinois,60061,United States of America,847-247-4417,42.2431,-87.9503,,,,
North Casaloma Drive,,881 North Casaloma Drive,,Appleton,Wisconsin,54913,United States of America,(920) 731-7272,44.26794,-88.4759,,,,
West Mason Street,,2420 West Mason Street,,Green Bay,Wisconsin,54303,United States of America,(920) 497-1313,44.52443314,-88.09020996,,,,
Pilot 236 Minooka,,301 Ridge Road,,Minooka,Illinois,60447,United States of America,815-467-4416,41.459026,-88.271401,,,,
Pilot 5199 Morris,,3801 N. Division St.,,Morris,Illinois,60450,United States of America,815-705-0120,41.392554,-88.422239,,,,
Pilot 271 Gary,,2501 Burr Street,,Gary,Indiana,46404,United States of America,219-844-2661,41.57354,-87.40336,,,,
Southlake Mall,,2190 Southlake Mall,,Merrillville,Indiana,46410,United States of America,(219)736-5611,41.467001,-87.308466,,,,
Pilot 448 Hebron,,18011 Colorado Street,,Hebron,Indiana,46341,United States of America,219-696-8265,41.289745,-87.295999,,,,
Pilot 1012 Mount Pleasant,,1300 N. Grand Ave.,,Mount Pleasant,Iowa,52641,United States of America,319-385-1440,40.98007965,-91.53971863,,,,
19th Street,,3715 19th Street,,Lubbock,Texas,79410,United States of America,806-793-5542,33.57768,-101.8946,,,,
Angola Travel Plaza,,Mile Marker 447 NY State Thruway,,Angola,New York,14006,United States of America,716-549-0066,42.6357,-78.9893,,,,
Pilot 4452 New Haven,,3105 Doyle Road,,New Haven,Indiana,46774,United States of America,260-493-4035,41.0635,-84.9897,,,,
South Washington St,,1042 S Washington St.,,Van Wert,Ohio,45891,United States of America,419-238-3354,40.85558,-84.58467,,,,
Broward Mall,,"8000 Broward Blvd., # 507",,Plantation,Florida,33388,United States of America,(954) 370-0183,26.1208,-80.2553,,,,
Sawgrass Mills,,12801 Sunrise Blvd. Suite #711,,Sunrise,Florida,33323,United States of America,954-835-9015,26.151145,-80.321223,,,,
Meadowood Mall,,5230 Meadowood Mall Center,,Reno,Nevada,89502,United States of America,775-828-0435,39.47561637,-119.7806445,,,,
Pilot 1005 Fernley,,480 Truck Inn Way,,Fernley,Nevada,89408,United States of America,775-575-5919,39.614774,-119.2178,,,,
Schlotzskys Essen Lane,,5565 Essen Lane,,Baton Rouge,Louisiana,70809,United States of America,(225) 400-9996,30.397647,-91.10746,,,,
Katy Freeway,,9746 Katy Freeway Suite 700,,Houston,Texas,77055,United States of America,713-467-6565,30.4399,-91.0232,,,,
Preston Road,,3887 Preston Road,,Frisco,Texas,75034,United States of America,(972) 731-8780,33.10692,-96.80548,,,,
Stone Briar Mall,,"2601 Preston Road, #2134",,Frisco,Texas,75034,United States of America,(972)731-8290,33.107539,-96.805867,,,,
West McDermott Drive,,502 West McDermott Drive,,Allen,Texas,75013,United States of America,(972) 396-7278,33.102227,-96.675002,,,,
Crossroads Mall,,6834 South Wesley,,Greenville,Texas,75402,United States of America,(903) 454-6164,33.10323,-96.10925,,,,
Preston Road,,19160 Preston Road,,Dallas,Texas,75252,United States of America,972-996-1152,33.1257,-96.7325,,,,
West University Drive,,1521 W. University Drive,,McKinney,Texas,75069,United States of America,469-952-5806,33.1988,-96.6381,,,,
Marshal Creek Commons,,11650 Hwy. 380,,Cross Roads,Texas,76227,United States of America,940-365-9533,33.23659134,-97.02010345,,,,
South IH 35 East,,2410 South I-35 East,,Denton,Texas,76205,United States of America,(940) 384-7404,33.1854,-97.10712,,,,
West University Drive Denton,,416 W. University Drive,,Denton,Texas,76201,United States of America,940-565-1900,33.23093,-97.13679,,,,
Maverik #503 (Boise 2),,2650 S. Orchard Street,,Boise,Idaho,83705,United States of America,(208) 336-1520,43.57888,-116.24365,,,,
Boise Towne Center,,350 North Milwaukee Avenue,,Boise,Idaho,83704,United States of America,208-658-9200,43.60825807,-116.2838734,,,,
Maverik 485 Boise,,3080 S. Five Mile Road,,Boise,Idaho,83709,United States of America,208-362-3737,43.57484,-116.31417,,,,
Maverik #470,,12127 W Franklin Rd,,Boise,Idaho,83709,United States of America,208-377-0135,43.60495,-116.3314,,,,
Maverik 410 Meridian,,1630 E McMillan Road,,Meridian,Idaho,83646,United States of America,208-888-2100,43.6484,-116.37412,,,,
Maverik 465 Star,,11243 W State St,,Star,Idaho,83669,United States of America,208-898-4294,43.69207,-116.49378,,,,
Maverik 522 Nampa,,2516 W Karcher Road,,Nampa,Idaho,83651,United States of America,208-468-7805,43.60502,-116.61198,,,,
Maverik 430 Caldwell,,4923 Cleveland Blvd.,,Caldwell,Idaho,83605,United States of America,208-453-1890,43.63479,-116.64642,,,,
Pilot 638 Caldwell,,3512 Franklin Rd,,Caldwell,Idaho,83605,United States of America,575-887-7033,43.66275,-116.65383,,,,
Pilot 602 Birmingham,,224 Daniel Payne Drive,,Birmingham,Alabama,35207,United States of America,205-323-2177,33.56245,-86.84589,,,,
Inverness Corners,,103 Inverness Corners,,Birmingham,Alabama,35242,United States of America,205-991-0035,33.41850847,-86.69349544,,,,
Pilot 497 Lincoln,,121 Honda Drive,,Lincoln,Alabama,35096,United States of America,205-763-2225,33.593159,-86.160873,,,,
Northtown Mall,,"N. 4750 Division Street, #163",,Spokane,Washington,99207,United States of America,(509)482-1933,47.68897629,-117.3888931,,,,
Pilot 968 Belgrade,,6505 Jackrabbit Lane,,Belgrade,Montana,59714,United States of America,406-388-4124,47.62144,-117.50652,,,,
Pilot 963 Spokane,,3709 S. Geiger Blvd,,Spokane,Washington,99224,United States of America,509-456-8843,47.62062073,-117.507019,,,,
Spokane Valley,,14700 East Indiana Avenue,,Spokane,Washington,99216,United States of America,(509)926-2578,47.67604597,-117.2106591,,,,
Sullivan Road,,901 Sullivan Road,,Spokane Valley,Washington,99037,United States of America,509-926-5805,47.64879,-117.1974,,,,
Pilot 0913 Altoona,,3231 Adventureland Dr.,,Altoona,Iowa,50009,United States of America,515-967-7878,41.65868,-93.49906,,,,
Jordan Creek Town Center Mall,,"101 Jordan Creek Pkwy, Space 2082",,Des Moines,Iowa,50266,United States of America,515-327-9283,41.572827,-93.74972,,,,
Tacoma Mall,,"4502 S. Steele Street, # 364",,Tacoma,Washington,98409,United States of America,(253)474-5379,47.21824265,-122.4681473,,,,
South Hills Mall,,3500 South Meridian,,Puyallup,Washington,98373,United States of America,(253) 850-2677,47.15790287,-122.2930361,,,,
Super Mall of Great North West,,"1101 Outlet Collection Way, Suite #1268",,Auburn,Washington,98001,United States of America,253-333-8373,47.29646511,-122.24585,,,,
Capital City Mall,,"625 Black Lake Blvd., Suite 9019",,Olympia,Washington,98502,United States of America,(360) 754-4352,47.04108462,-122.9302412,,,,
Pilot #0322,,7767 State Rd 53,,Bath,New York,14810,United States of America,607-776-2012,42.3776,-77.363,,,,
Cinnabon Arnot Mall,,3300 Chambers Road,,Horseheads,New York,14845,United States of America,607-846-2820,42.15958,-76.87818,,,,
Oakdale Mall,,601-635 Harry L. Drive,,Johnson City,New York,13790,United States of America,607-797-2380,42.12874,-75.97474,,,,
Pilot 001 Mill Hall,,5868 Nittany Valley Drive,,Mill Hall,Pennsylvania,17751,United States of America,570-726-7618,41.033959,-77.515672,,,,
Millcreek Mall,,642 Millcreek Mall,,Erie,Pennsylvania,16565,United States of America,814-866-6161,42.06955388,-80.09545371,,,,
Wyoming Valley Mall,,29 Wyoming Valley Mall,,Wilkes-Barre,Pennsylvania,18702,United States of America,570-825-5380,41.246491,-75.844471,,,,
Pilot Portersville,,2010 New Castle Road,,Portersville,Pennsylvania,16051,United States of America,724-368-3028,40.96613,-80.15026,,,,
North Dean,,131 North Dean,,Auburn,Alabama,36830,United States of America,334-246-3009,32.60762787,-85.46546936,,,,
Carmichael Road,,5055 Carmichael Road,,Montgomery,Alabama,36106,United States of America,(334) 409-9993,32.35862,-86.23029,,,,
Eastdale Mall,,5501 Atlanta Highway,,Montgomery,Alabama,36117,United States of America,334- 396-5091,32.38522,-86.20621,,,,
Pilot 604 Hope Hull,,900 Tyson Road,,Hope Hull,Alabama,36043,United States of America,334-613-0212,32.19549,-86.41768,,,,
Westfield Palm Desert Mall,,72-840 California 111,,Palm Desert,California,92260,United States of America,760-341-2400,33.69120026,-116.396019,,,,
Pilot 114 Crossville,,2449 Genesis Rd,,Crossville,Tennessee,38571,United States of America,731-422-5545,32.544285,-93.515199,,,,
Valencia Town Center,,24201 Valencia Blvd. #110,,Valencia,California,91355,United States of America,6612911046,34.41323116,-118.5572226,,,,
Pilot 384 Colonial Heights,,2126 Ruffin Mill Road,,Colonial Heights,Virginia,23834,United States of America,804-524-9556,37.31101,-77.39259,,,,
Akron-Canton Airport (AKR),,5400 Lauby Road NW,,Canton,Ohio,44720-1598,United States of America,443-736-4473,40.9178,-81.4442,,,,
Pilot 287 Burbank,,10048 Avon Lake Road,,Burbank,Ohio,44214,United States of America,330-948-4571,40.999386,-81.996299,,,,
The Outlets at Little Rock,,11201 Bass Pro Dr,,Little Rock,Arkansas,72209,United States of America,501-615-8212,34.660943,-92.408018,,,,
Pilot 338 Cayce,,3008 Highway 321,,Cayce,South Carolina,29033,United States of America,803-739-2921,33.9287,-81.0772,,,,
Walmart Shopping Center,,1355 Knox Abbott Drive,,Cayce,South Carolina,29033,United States of America,(803) 223-0762,33.97854902,-81.07298814,,,,
Bush River Road,,529 Bush River Road,,Columbia,South Carolina,29210,United States of America,803-798-1775,34.03108,-81.09537,,,,
East Greenville St,,603 East Greenville St.,,Anderson,South Carolina,29621,United States of America,(864) 226-1346,34.51355,-82.64779,,,,
Pilot 493 St. George,,113 Motel Drive,,St. George,South Carolina,29477,United States of America,843-563-8989,33.1947,-80.60365,,,,
Alps Village,,1490 Baxter Street,,Athens,Georgia,30606,United States of America,(706) 543-2518,33.9457,-83.40868,,,,
Pilot 63 Piedmont,,110 Frontage Road,,Piedmont,South Carolina,29673,United States of America,864-845-8177,34.71015,-82.4983,,,,
Old Boiling Springs Road,,103 Old Boiling Springs Road,,Greer,South Carolina,29650,United States of America,864-234-1449,34.85983,-82.26615,,,,
Pilot 267 Byron,,2965 Highway 247C,,Byron,Georgia,31008,United States of America,478-956-5316,32.5758,-83.59015,,,,
Pilot 714 Rock Hill,,2435 Mount Holly Road,,Rock Hill,South Carolina,29730,United States of America,803-328-5700,34.854434,-81.007012,,,,
Oglethorpe Mall,,7804 Abercorn Street,,Savannah,Georgia,31406,United States of America,912-354-0730,32.005823,-81.116367,,,,
Schlotzskys 1459,,302-A Broad Street,,Gainesville,Georgia,30501,United States of America,770-534-6400,34.2988,-83.8242,,,,
Northwoods Mall,,2150 Northwoods Blvd.,,Charleston,South Carolina,29406,United States of America,443-365-9444,32.942474,-80.041755,,,,
Pilot 1082,,5714 North Rhett Avenue,,North Charleston,South Carolina,29406,United States of America,843-745-9300,32.89691925,-79.98557281,,,,
Blue Water Convenience Store,,1325 Bowman Rd,,Mt. Pleasant,South Carolina,29464,United States of America,(843) 795-6910,32.80811,-79.85163,,,,
West Palmetto Street,,1935 West Palmetto Street,,Florence,South Carolina,29501,United States of America,843-673-0777,34.188507,-79.807632,,,,
Old Milton Parkway,,3345 Old Milton Parkway,,Alpharetta,Georgia,30005,United States of America,770-753-4833,34.06771,-84.26426,,,,
Pilot 337 Florence,,2015 West Lucas Street,,Florence,South Carolina,29501,United States of America,843-662-2646,34.231559,-79.801683,,,,
North Point Mall,,1000 North Point Circle,,Alpharetta,Georgia,30022,United States of America,678-514-2893,34.04806048,-84.2983257,,,,
Mountain Energy Travel Plaza,,377 Long Shoal Road,,Arden,North Carolina,28704,United States of America,828-676-3608,35.481353,-82.55297,,,,
West Highway 54,,2771 W. Highway 54,,Peachtree City,Georgia,30269,United States of America,(770) 742-0566,33.39695,-84.59314,,,,
Hwy 92,,"9040 Hwy 92, Ste. 130",,Woodstock,Georgia,30188,United States of America,(770) 591-5875,34.08492,-84.54039,,,,
The Parkway at Gatlinburg,,"762 Parkway, Suite 2",,Gatlinburg,Tennessee,37738,United States of America,410-289-5005,35.66907501,-83.47692871,,,,
Albany Mall,,2601 Dawson Road,,Albany,Georgia,31707,United States of America,229-434-8212,31.6186,-84.2167,,,,
Pilot 381 Hesperia,,8701 Highway 395,,Hesperia,California,92345,United States of America,760-956-2844,34.4117,-117.3991,,,,
Camp Pendleton Marine Corp Base,,51096 Basilone Road,,San Clemento,California,92672,United States of America,(949) 492-1030,33.38772964,-117.5660172,,,,
Pilot 1021 Holland,,853 Interchange Drive,,Holland,Michigan,49423,United States of America,616-796-2240,42.74036,-86.05678,,,,
Maverik 539 Base Camp,,185 S State St,,Salt Lake City,Utah,84111,United States of America,(801) 521-4194,40.76534,-111.88821,,,,
Pilot 746 Salt Lake City,,2025 S 900W,,Salt Lake City,Utah,84104,United States of America,(801) 972-3711,40.72694,-111.9169,,,,
Maverik 537,,1290 S. Wallace Road,,Salt Lake City,Utah,84104,United States of America,775-753-7688,40.74162975,-111.9462217,,,,
Maverik #386,,"880 W Center Street, N.",,Salt Lake City,Utah,84054,United States of America,801-936-5573,40.84195,-111.93251,,,,
Maverik #524,,7360 Union Park Ave,,Midvale,Utah,84047,United States of America,(208) 377-0135,40.61761,-111.85882,,,,
University Mall,,"575 East University Parkway, Suite B-48",,Orem,Utah,84097,United States of America,801-437-5502,40.5625,-111.8948,,,,
Maverik #459,,705 South State Street,,Pleasant Grove,Utah,84062,United States of America,801-785-1566,40.53704,-111.97679,,,,
Maverik #397,,957 W Shepard Ln,,Farmington,Utah,84025,United States of America,801-451-9160,41.0008,-111.90969,,,,
Maverik #488,,14817 S Minuteman Drive,,Draper,Utah,84020,United States of America,(801) 572-9210,40.47907,-111.90218,,,,
Maverik #361,,435 N. Main St.,,Heber City,Utah,84032,United States of America,435-654-4421,40.51343,-111.41336,,,,
The Galleria at White Plains,,"100 Main Street,",,White Plains,New York,10601,United States of America,914-686-1800,41.032,-73.7708,,,,
"Stamford Carvel/Cinnabon, Shoprite Plaza",,1980 W Main Street,,Stamford,Connecticut,06902,United States of America,203-569-7910,41.05,-73.5481,,,,
South Travel Plaza,,1 Connecticut West,,Darien,Connecticut,06820,United States of America,203-309-5455,41.07747,-73.46767,,,,
University,,4319 University Dr.,,Huntsville,Alabama,35816,United States of America,(256) 830-6400,34.73487,-86.63647,,,,
Memorial Pkwy SW,,11120 Memorial Pkwy. SW,,Huntsville,Alabama,35803,United States of America,(256) 650-6300,34.62635,-86.56728,,,,
Highway 20,,8969 Highway 20,,Madison,Alabama,35758,United States of America,(256) 464-5300,34.67597,-86.75253,,,,
Cross Creek Mall,,419 Cross Creek Mall,,Fayetteville,North Carolina,28303,United States of America,910-223-9139,35.07123184,-78.95854187,,,,
McGhee Tyson Airport (TYS),,2055 Alcoa Highway Alcoa,,Knoxville,Tennessee,37701,United States of America,865) 342-2969,35.8103,-83.9953,,,,
Pilot #0722,,800 Watt Rd.,,Knoxville,Tennessee,37932,United States of America,865-531-7400,35.8814,-84.2374,,,,
The Island,,131 The Island Drive Ste. 3104,,Pigeon Forge,Tennessee,37863,United States of America,443-316-8057,35.804484,-83.574028,,,,
Pilot 173 Pigeon Forge,,4035 Parkway,,Pigeon Forge,Tennessee,37863,United States of America,410-859-5151,35.78016663,-83.56380463,,,,
Pilot 412 White Pine,,3624 Roy Messer Highway,,White Pine,Tennessee,37890,United States of America,865-674-8570,36.10837,-83.33399,,,,
Pilot 752 Winchester,,1530 Rest Church Road,,Winchester,Virginia,22624,United States of America,540-678-3641,42.0707,-72.0998,,,,
The Shoppes at Bel Air,,3299 Bel Air Mall,,Mobile,Alabama,36606,United States of America,(251) 478-1893,30.67163,-88.12305,,,,
Cordova Mall,,5100 N. 9th Ave.,,Pensacola,Florida,32504,United States of America,(850) 484-6776,30.473625,-87.211916,,,,
Antelope Valley Mall,,"1233 Rancho Vista Blvd, #753",,Palmdale,California,93551,United States of America,661-273-0042,34.60189506,-118.1523424,,,,
South Ross St,,1612 S. Ross St.,,Amarillo,Texas,79102,United States of America,(806) 374-5513,35.19415,-101.81712,,,,
Wellington Square,,1619 Kentucky Ste. 1350,,Amarillo,Texas,79109,United States of America,(806) 359-4445,35.197,-101.869,,,,
Puckett Plaza Shopping Center,,"3440 Bell St., Ste. 322",,Amarillo,Texas,79109,United States of America,(806) 353-7859,35.17576,-101.902,,,,
Pilot 436 Amarillo,,715 South Lakeside Drive,,Amarillo,Texas,79111,United States of America,806-335-3323,35.12158,-101.76867,,,,
South 23rd,,901 S. 23rd,,Canyon,Texas,79105,United States of America,(806) 655-2867,34.9744,-101.91896,,,,
Pilot 1027 Vega,,6555 US Highway 385,,Vega,Texas,79092,United States of America,806-335-3323,35.2344317,-102.4273456,,,,
Pilot 256 Muskogee,,3000 North 32nd Street,,Muskogee,Oklahoma,74401,United States of America,434-792-1180,35.2730715,-102.5942279,,,,
Governor's Square Mall,,1500 Apalachee Parkway,,Tallahassee,Florida,32301-3006,United States of America,(850) 877-5828,30.435413,-84.257254,,,,
Pilot 623 Quincy,,32670 Blue Star Hwy,,Quincy,Florida,32351,United States of America,850-574-2409,30.493116,-84.429645,,,,
Kimball Twp,,2424 Wadhams Road,,Port Huron,Michigan,48074,United States of America,810-987-7823,35.1527,-84.9489,,,,
West Walnut Ave,,1325 W. Walnut Ave.,,Dalton,Georgia,30720,United States of America,(706) 217-2867,34.75876617,-84.99233246,,,,
Santa Rosa Plaza,,1066 Santa Rosa Plaza,,Santa Rosa,California,95401,United States of America,707-568-6285,38.43978815,-122.717609,,,,
Solano Mall,,1350 Travis Blvd.,,Fairfield,California,94533,United States of America,707/422-2666,38.25822473,-122.0533553,,,,
Plaza Camino Real,,2525 El Camino Real,,Carlsbad,California,92008,United States of America,760-434-4400,33.17969933,-117.3269201,,,,
North County Faire,,"200 East Via Rancho Parkway, #425",,Escondido,California,92025,United States of America,760-738-2018,33.06918226,-117.0687716,,,,
Pilot 716 South Dakota,,5201 Granite Lane,,Sioux Falls,South Dakota,57107,United States of America,605-977-1438,43.5978,-96.77144,,,,
Treasure Coast Mall,,3312 NW Federal Highway,,Jensen Beach,Florida,34957,United States of America,772-692-4851,27.2425,-80.2712,,,,
Pilot #0090,,7300 West Okeechobee Rd,,Fort Pierce,Florida,34945,United States of America,772-460-0611,27.41312,-80.39944,,,,
Treetops,,2451 Lakeland Drive,,Flowood,Mississippi,39232,United States of America,(601) 939-1449,32.32848,-90.11951,,,,
Northpark Mall,,1200 E. County Line Rd.,,Ridgeland,Mississippi,39157-1904,United States of America,601-500-7885,32.39957482,-90.13130754,,,,
Colony Crossings Shopping Center,,205 Colony Way,,Madison,Mississippi,39110,United States of America,601-707-5169,32.47573413,-90.14336608,,,,
Palm Beach Outlets,,1801 Palm Beach Lakes Boulevard,,West Palm Beach,Florida,33401,United States of America,(561) 686-2115,26.725575,-80.089388,,,,
Pilot 624 Dade City,,29933 State Road 52,,Dade City,Florida,33576,United States of America,352-588-5444,28.32645,-82.322456,,,,
Pilot 386 Brooks,,4220 Brooklake Road,,Brooks,Oregon,97305,United States of America,503-463-1114,45.0496,-122.97528,,,,
North Glenstone,,1316 North Glenstone,,Springfield,Missouri,65802,United States of America,(417) 868-8188,37.2228,-93.2612,,,,
South Campbell,,4132 S. Campbell,,Springfield,Missouri,65807,United States of America,417-889-2445,37.13965,-93.29585,,,,
Pilot 1061,,4939 West Chestnut Expressway,,Springfield,Missouri,65802,United States of America,(417) 864-4175,37.21269093,-93.38916555,,,,
South Hover St,,1266 S. Hover St.,,Longmont,Colorado,80501,United States of America,303-651-7410,40.14594,-105.1309,,,,
Pilot #759,,2250 Etchepare Drive,,Cheyenne,Wyoming,82007,United States of America,(307) 635-2918,41.09937,-104.85285,,,,
Pilot #0402,,8020 Campstool Road,,Cheyenne,Wyoming,82007,United States of America,307-635-5744,41.1384,-104.7104,,,,
Hat Six Travel Center,,6985 Nugget,,Evansville,Wyoming,82636,United States of America,307-473-8589,42.8474552,-106.2178585,,,,
Pump & Pantry 49 - Omaha,,11108 Sapp Brothers Dr,,Omaha,Nebraska,68138,United States of America,308-382-0740,42.82993698,-103.0044327,,,,
Valley River Center,,12 Valley River Center,,Eugene,Oregon,97401,United States of America,(541)485-8696,44.069339,-123.10805,,,,
Pilot 237 Salinas,,951 Work Street,,Salinas,California,93901,United States of America,831-775-0308,36.6654129,-121.6305542,,,,
Northridge Mall,,446 Northridge Mall,,Salinas,California,93906,United States of America,831-443-5777,36.71659425,-121.6568027,,,,
Trumbull Mall,,5065 Main Street,,Trumbull,Connecticut,06611,United States of America,(203)873-6690,41.230085,-73.21998,,,,
Pilot 0255 Milford,,433 Old Gate Lane,,Milford,Connecticut,06460,United States of America,203-876-1266,41.237,-73.0242,,,,
Susquehanna Valley Mall,,One Susquehanna Valley Mall Drive,,Selinsgrove,Pennsylvania,17870,United States of America,570-374-0368,40.81996366,-76.84717588,,,,
Woodbury Commons Premium Outlet,,498 Red Apple Court,,Central Valley,New York,10917,United States of America,845-928-8611,41.3165,-74.126,,,,
Pilot 53 Hurrinace Mills,,15559 Highway 13 South,,Hurricane Mills,Tennessee,37078,United States of America,931-296-7180,35.883931,-87.799073,,,,
South Main,,619 S. Main Street,,SmithÕs Grove,Kentucky,42171,United States of America,270-563-5250,37.0449,-86.20957,,,,
Pilot 404 Murfreesboro,,2441 South Church Street,,Murfreesboro,Tennessee,37127,United States of America,615-907-9595,35.8074,-86.3974,,,,
Pilot 219 Knoxville,,7210 Straw Plains Pike,,Knoxville,Tennessee,37914,United States of America,865-544-1067,35.1285,-87.7526,,,,
Pilot 366 Jackson,,30 Sand Pebble Rd.,,Jackson,Tennessee,38305,United States of America,931-787-1901,35.68793,-88.81228,,,,
North Green River Road,,301 N. Green River Road,,Evansville,Indiana,47715,United States of America,815-471-4011,37.97792,-87.49266,,,,
Pilot 4892 Charleston,,2460 US-60,,Charleston,Missouri,63834,United States of America,573-683-4153,36.91542,-89.32202,,,,
Pilot 447 Haubstadt,,1042 East Warrenton Road,,Haubstadt,Indiana,47639,United States of America,812-868-1048,38.16572,-87.48574,,,,
Pilot 399 Lebanon Junction,,150 Park Plaza Boulevard,,Lebanon Junction,Kentucky,40150,United States of America,502-833-2727,37.82924,-85.72632,,,,
Peachtree Mall,,3131 Manchester Expressway,,Columbus,Georgia,31099,United States of America,706-327-3232,35.5091,-84.9437,,,,
Mall at Barnes Crossing,,1001 Barnes Crossing Road,,Tupelo,Mississippi,38804,United States of America,228-326-6425,34.31565,-88.70354,,,,
Fairfield Commons Mall,,2727 Fairfield Commons #W221,,Beavercreek,Ohio,45431,United States of America,937-429-9199,39.7675,-84.0564,,,,
Dayton Mall,,2700 Miamisburg-Centerville,,Dayton,Ohio,45459,United States of America,(937)438-0842,39.636641,-84.2191,,,,
Pilot Vandalia,,175 Northwoods Blvd.,,Vandalia,Ohio,45377,United States of America,937-264-8520,39.90918,-84.19136,,,,
Dixie Highway,,3589 Dixie Highway,,Franklin,Ohio,45005,United States of America,(513) 420-9200,39.49723,-84.33608,,,,
Pilot 698 Jeffersonville,,9935 State Highway 41,,Jeffersonville,Ohio,43128,United States of America,740-426-9136,39.65152,-83.55896,,,,
Killeen,,"902 West Central Texas Expressway, Ste. F",,Killeen,Texas,76541,United States of America,(254) 554-5550,31.10744,-97.74577,,,,
West Central Texas Expressway,,103 West Central Texas Expressway,,Harker Heights,Texas,76548,United States of America,(254) 680-2869,31.071615,-97.670348,,,,
Cove Terrace,,#80 Cove Terrace,,Copperas Cove,Texas,76522,United States of America,254-542-1107,31.11917,-97.89679,,,,
East 2nd Avenue,,1012 East 2nd  Avenue,,Belton,Texas,76513,United States of America,(254) 939-8300,31.05564,-97.45301,,,,
South 31st Street,,2668 S. 31st Street Suite A,,Temple,Texas,76504,United States of America,254-778-3400,31.07459,-97.36749,,,,
Riverview Drive,,102 Riverview Drive,,Lampasas,Texas,76530,United States of America,512-556-5000,31.06451,-98.16051,,,,
Maverik #358,,3569 North Thanksgiving Way,,Lehi,Utah,84043,United States of America,801-768-2764,40.4335,-111.89403,,,,
Great Lakes Crossing,,"4000 Baldwin Road, #521",,Auburn Hills,Michigan,48326,United States of America,248-874-3552,42.70068,-83.30468,,,,
Interstate 35,,1508 Interstate 35 Frontage Rd,,Waco,Texas,76706,United States of America,254-714-0955,31.53740311,-97.12821198,,,,
North Valley Mills,,621 North Valley Mills,,Waco,Texas,76710,United States of America,(254) 741-9288,31.5294,-97.1758,,,,
Paragon Outlets,,2774 Paragon Outlets Drive,,Livermore Valley,California,94551,United States of America,925-292-7032,37.25510025,-119.6175232,,,,
Travis AFB,,461 Skymaster Drive,,Travis AFB,California,94535,United States of America,707-437-4490,37.25510025,-119.6175232,,,,
Pilot 200 Boron,,5725 Highway 58,,Boron,California,93516,United States of America,760-762-0041,34.9923,-117.5416,,,,
The Oaks Mall,,6329 M Newberry Road,,Gainesville,Florida,32605,United States of America,352/332-4444,29.659431,-82.410396,,,,
Gage,,2019 Gage Blvd.,,Topeka,Kansas,66604,United States of America,(785) 273-4313,39.03070025,-95.72499409,,,,
Pilot 4889 Williams,,3040 220th Street,,Williams,Iowa,50271,United States of America,515-854-9117,42.47144,-93.56413,,,,
Marriott Subway,,"101 First Avenue SW, Suite 15",,Rochester,Minnesota,55902,United States of America,507-281-1233,44.02268,-92.46432,,,,
Empire Plaza,,508 I. A. A. Drive,,Bloomington,Illinois,61701,United States of America,(309) 663-6364,40.4891,-88.95433,,,,
Tanger Outlets Foxwood,,455 Trolley Line Boulevard,,Mashantucket,Connecticut,06338,United States of America,480-941-6900,41.4761646,-71.9621866,,,,
Johnston Street,,2968 Johnston Street,,Lafayette,Louisiana,70503,United States of America,337-232-6515,30.1846,-92.0676,,,,
Pinhook Rd,,3570 Pinhook Rd.,,Lafayette,Louisiana,70508,United States of America,337-837-5255,30.16121,-91.99173,,,,
Andrews Highway,,1109 Andrews Highway,,Midland,Texas,79701,United States of America,(432) 689-2867,32.00053,-102.11426,,,,
Pilot 1033 Midland,,3302 Garden City Highway,,Midland,Texas,79702,United States of America,432-685-1296,31.9814,-102.03366,,,,
West Wadley,,"5211 West Wadley, Suite #500",,Midland,Texas,79707,United States of America,432-683-9169,32.01286,-102.15509,,,,
John Ben Sheppard Parkway,,5003 John Ben Sheppard Parkway,,Odessa,Texas,79762,United States of America,432-552-0110,31.90638,-102.33846,,,,
Schlotzskys North Judge Ely Blvd,,1018 N. Judge Ely Blvd,,Abilene,Texas,79601,United States of America,(325) 672-9500,32.4588,-99.706,,,,
South 14th Street,,4518 South 14th St.,,Abilene,Texas,79605,United States of America,(325) 695-2021,32.43105,-99.78132,,,,
Interstate Highway 35 South,,19350 Interstate Highway 35 South,,Kyle,Texas,78640,United States of America,512-262-7267,32.52834,-100.12156,,,,
South East Georgia Ave,,204 South East Georgia Ave.,,Sweetwater,Texas,79556,United States of America,(325) 235-5000,32.44976096,-100.3974726,,,,
Shopês at Port Arthur,,8745 Memorial Blvd Suite #100,,Port Arthur,Texas,77640,United States of America,(409) 721-9997,29.9495,-93.9977,,,,
County Lane Drive,,295 County Lane Drive,,Lumberton,Texas,77657,United States of America,409-751-2131,30.24270058,-94.20809291,,,,
"Lehigh Valley Mall, Ent A",,250 Lehigh Valley Mall,,Whitehall,Pennsylvania,18052,United States of America,610-264-2662,40.630407,-75.480603,,,,
Dorney Park & Wild Water Kingdom,,3830 Dorney Park Road,,Allentown,Pennsylvania,18104,United States of America,1-610-395-3724,40.58073,-75.53469,,,,
Allentown Travel Plaza,,5052 Cetronia Road,,Allentown,Pennsylvania,18106,United States of America,610-366-3872.,40.57445,-75.55898,,,,
Pilot Frystown,,2210 Camp Swatara Road,,Frystown,Pennsylvania,17067,United States of America,717-933-4146,40.46179,-76.33785,,,,
Maverik #516,,1078 E State Road,,American Fork,Utah,84003,United States of America,801-756-1539,40.37086,-111.77211,,,,
Road Ranger 242,,22345 Highway 28,,St. Robert,Missouri,65584,United States of America,815-315-4953,37.8364057,-92.1014379,,,,
Flying J Joplin,,11570 State Hwy FF,,Joplin,Missouri,64804,United States of America,417-626-7600,37.055979,-94.429315,,,,
Rangeline Road,,531 Rangeline Road,,Joplin,Missouri,64801,United States of America,417-659-8822,37.08725,-94.4774,,,,
South Main St,,"3120 S. Main St., Suite 13",,Joplin,Missouri,64804,United States of America,417-868-8188,37.0558,-94.5148,,,,
Pilot 5005 Oakwood,,"503 N. Oakwood St. [I-74, Exit 206]",,Oakwood,Illinois,61858,United States of America,217-354-4270,40.12517,-87.78093,,,,
Pilot 645 Pontoon Beach,,1310 East Chain of Rocks Road,,Pontoon Beach,Illinois,62040,United States of America,618-931-1580,39.42042,-87.69181,,,,
Honey Creek Mall,,3401 South US Highway 41,,Terre Haute,Indiana,47802,United States of America,(812) 234-5295,39.425381,-87.416092,,,,
Pilot 444 Brazil,,4376 North State Road 59,,Brazil,Indiana,47834,United States of America,812-446-9400,39.45264,-87.12622,,,,
Tippecanoe Mall,,2415 Sagamore Pkwy Lane,,Lafayette,Indiana,47905,United States of America,(765)448-1463,40.383886,-86.844834,,,,
"MCX Food Court, Camp Lejeune",,1401 W Rd # 1231,,Camp Lejeune,North Carolina,28547,United States of America,910-450-9459,34.674724,-77.340789,,,,
Coastal Grand Mall,,2000 Coastal Grand Cir,,Myrtle Beach,South Carolina,29577,United States of America,843-839-3301,33.70097,-78.92178,,,,
Pilot 685 Fargo,,3150 39th. St.,,Fargo,North Dakota,58102,United States of America,701-282-7766,46.8338,-96.84572,,,,
Mall of New Hampshire,,"1500 South Willow Street, E127",,Manchester,New Hampshire,03130,United States of America,603/622-0033,42.956249,-71.435607,,,,
Schlotzskys Frontage Rd,,601 Interstate 35 Frontage Rd,,Georgetown,Texas,78626,United States of America,512-868-1244,30.639598,-97.687714,,,,
Highway 281,,2410 Highway 281,,Marble Falls,Texas,78654,United States of America,830-798-9333,30.59462,-98.27156,,,,
Freehold Raceway Mall,,3710 Route 9,,Freehold,New Jersey,07728,United States of America,732-780-9024,40.25696263,-74.29107696,,,,
Molly Pitcher Travel Plaza,,Route 2 Box 23,,Cranbury,New Jersey,08512,United States of America,(609) 655-4330,40.323898,-74.485597,,,,
Quaker Bridge Mall,,150 Quaker Bridge Mall,,Lawrence Township,New Jersey,08648,United States of America,609-799-5500,40.29447734,-74.68227111,,,,
Ocean County Mall,,1201 Hooper Avenue,,Toms River,New Jersey,08753,United States of America,(732) 736-6838,39.98088,-74.17858,,,,
Hamilton Mall,,"4403 Black Horse Pike, Space 2126",,Mays Landing,New Jersey,08330,United States of America,609-383-3400,39.450443,-74.641143,,,,
The Pier at Caesars,,"One Atlantic Ocean, Space BW 200",,Atlantic City,New Jersey,08401,United States of America,609-348-0200,39.36553955,-74.43535614,,,,
Cumberland Mall,,3849 S. Delsea Drive,,Vineland,New Jersey,08360,United States of America,856-765-3423,39.43303026,-75.04051633,,,,
Rimrock Mall,,300 South 24th Street W,,Billings,Montana,59102,United States of America,406-651-7655,45.767,-108.578,,,,
Pilot 626 St. Augustine,,950 State Road 206 West,,St. Augustine,Florida,32086,United States of America,904-794-0426,29.74892,-81.3444,,,,
Sikes Center,,3111 Midwestern Parkway,,Wichita Falls,Texas,76308,United States of America,940-691-8877,33.870445,-98.533098,,,,
Kemp Blvd,,"3916-B Kemp Blvd., Suite B",,Wichita Falls,Texas,76308,United States of America,940-691-4415,33.86774,-98.52961,,,,
East University Boulevard,,1763 East University Boulevard Suite A,,Las Cruces,New Mexico,88001,United States of America,575-522-3355,32.3483,-106.7694,,,,
Lima Mall,,2400 Elida Road,,Lima,Ohio,45805,United States of America,567-371-3154,40.762867,-84.149072,,,,
Pilot 552 Lebanon,,3140 State Road 350,,Lebanon,Ohio,45036,United States of America,513-933-0312,39.4109,-84.14988,,,,
South Palestine Street,,215 S. Palestine Street,,Athens,Texas,75751,United States of America,(903) 677-0202,32.20283479,-95.85367709,,,,
Palmer Highway,,3325 Palmer Highway,,Texas City,Texas,77590,United States of America,409-995-0374,29.3955,-94.9448,,,,
61st Street,,"2705 61st Street, Suite H",,Galveston,Texas,77551,United States of America,832-582-8854,29.271905,-94.829658,,,,
Seawall Boulevard Ste 410,,"500 Seawall Boulevard, Ste. 410",,Galveston,Texas,77550,United States of America,409-763-6173,29.3054,-94.7731,,,,
South College,,107 South College Ave.,,College Station,Texas,77840,United States of America,(979) 260-2867,30.62328,-96.3423,,,,
Southwood,,2210 Harvey Mitchell Parkway South,,College Station,Texas,77845,United States of America,(979) 680-8150,30.5651,-96.2778,,,,
Schlotzskys IH45 South,,118 IH45 South,,Huntsville,Texas,77340,United States of America,936-293-1900,30.717238,-95.567716,,,,
Kroger Center,,"12709 i-45 North, suite 600",,Willis,Texas,77318,United States of America,936-856-7100,30.42348616,-95.49315937,,,,
Cedar Point,,One Cedar Point Drive,,Sandusky,Ohio,44870,United States of America,419-627-2175,41.46242,-82.67228,,,,
Commodore Perry Travel Plaza,,888 North County Rd. 260,,Clyde,Ohio,43410,United States of America,(419) 547-8667,41.364529,-82.954562,,,,
Pilot Chillicothe,,1111 East Main Street,,Chillicothe,Ohio,45601,United States of America,740-772-2300,40.75128,-81.40385,,,,
New River Valley Mall,,782 New River Road,,Christiansburg,Virginia,24073,United States of America,410-289-5005,37.30415,-79.964,,,,
West Harris,,302 West Harris,,San Angelo,Texas,76903,United States of America,(325) 658-3354,31.4621,-100.443,,,,
Central Mall,,38 Central Mall,,Lawton,Oklahoma,73501,United States of America,580-250-4008,34.602669,-98.390983,,,,
15th Street East,,405 15th Street East,,Tuscaloosa,Alabama,35401,United States of America,(205) 248-2472,33.19752,-87.53139,,,,
Pilot 195 Wasco,,91485 Biggs Rufus Highway,,Wasco,Oregon,97065,United States of America,541-739-2174,45.66954,-120.83428,,,,
Columbia Center,,511 Columbia Center Blvd.,,Kennewick,Washington,99336,United States of America,(509) 735-4014,46.2271,-119.2197,,,,
Pilot 390 Stanfield,,2115 Hiway 395,,Stanfield,Oregon,97875,United States of America,541-449-1403,45.7706,-119.2054,,,,
Pilot 151 Tumwater,,2430 93rd Ave SW,,Tumwater,Washington,95812,United States of America,360-754-0151,46.95266,-122.93423,,,,
Bellis Fair Mall,,"1 Bellis Fair Parkway, Space # 518",,Bellingham,Washington,98226,United States of America,(360)738-7433,48.785171,-122.489824,,,,
Colexico,,"888 West 2nd Street, Suite 1240",,Calexico,California,92231,United States of America,818-246-3000,32.6657742,-115.5071308,,,,
Imperial Valley Mall,,3451 South Dogwood Ave.,,El Centro,California,92243,United States of America,760-337-8689,32.7705,-115.5642,,,,
Pilot 0608 Ehrenberg,,"I-10, Exit 1 S. Frontage Road",,Ehrenberg,Arizona,85334,United States of America,928-923-9600,33.602,-114.5263,,,,
Zips Travel Plaza,,48286 Vicksburg Road,,Salome,Arizona,85326,United States of America,928-859-3165,33.63121033,-113.767189,,,,
McCulloch Blvd,,2144 McCulloch Blvd. N,,Lake Havasu City,Arizona,86403,United States of America,928-854-2144,34.4753,-114.324,,,,
Pilot 1019 Orland,,4444 Commerce Lane,,Orland,California,95963,United States of America,530-865-0108,39.7473803,-122.1963748,,,,
Pilot 391 Central Point,,1600 East Pine Street,,Central Point,Oregon,97502,United States of America,541-664-7001,42.3787,-122.89989,,,,
Harveys Casino Lake Tahoe,,18 Hwy 50,,Stateline,Nevada,89448,United States of America,530-545-1753,38.96012,-119.94161,,,,
Kings Dominion,,1600 Theme Park Way,,Doswell,Virginia,23047,United States of America,410-289-5005,37.84578,-77.45028,,,,
Rogers Ave,,7010 Rogers Ave.,,Fort Smith,Arkansas,72903,United States of America,479-484-7310,35.3564,-94.3589,,,,
Park City Mall,,106 Park City Center,,Lancaster,Pennsylvania,17601,United States of America,(717) 399-9855,40.065301,-76.336789,,,,
Maverik #484,,2577 S 1900 West,,West Haven,Utah,84401,United States of America,801-731-8597,41.21911,-112.02568,,,,
Pilot 293 Ocala,,2020 SW 135th Street,,Ocala,Florida,34473,United States of America,352-347-8555,41.244786,-112.01969,,,,
Maverik #527,,2577 South Weber Drive,,South Weber,Utah,84405,United States of America,801-479-7918,41.127559,-111.9141997,,,,
Southern Hills Mall,,"4400 Sargent Road, # 201",,Sioux City,Iowa,51106,United States of America,712-266-9692,42.449606,-96.354427,,,,
Highway 271,,720 U.S. Highway 271 N.,,Gilmer,Texas,75644,United States of America,903-680-3354,32.7234311,-94.9447413,,,,
NE 27th Street,,62080 N. E. 27th Street,,Bend,Oregon,97701,United States of America,541-317-5980,44.0528,-121.2632,,,,
West Sunset Ave,,1919 West Sunset Ave.,,Springdale,Arkansas,72762,United States of America,479-751-9800,36.174441,-94.151455,,,,
West Walnut,,2709 West Walnut,,Rogers,Arkansas,72756,United States of America,479-636-990,36.3345,-94.1594,,,,
Pump & Pantry 46 York,,3901 S. Lincoln Avenue,,York,Nebraska,68467,United States of America,402-332-4405,40.8252731,-97.59746499,,,,
Pump & Pantry 38 Gretna,,14341 Hwy 31,,Gretna,Nebraska,68028,United States of America,402-362-1331,40.82551,-97.59764,,,,
Maverik #521,,995 E. St. George Blvd.,,St. George,Utah,84770,United States of America,435-673-3320,37.10984,-113.56216,,,,
Stadium Blvd,,1605 Stadium Blvd.,,Jonesboro,Arkansas,72401,United States of America,870-336-0660,35.82595132,-90.66880077,,,,
Pilot Canton,,2330 Faircrest Street,,Canton,Ohio,44706,United States of America,330-484-3965,39.338,-82.95161,,,,
Cerrillos Road,,3401 Cerrillos Road,,Santa Fe,New Mexico,87501,United States of America,505-474-3711,35.64759,-106.0036,,,,
Gause Rd,,1522 Gause Rd.,,Slidell,Louisiana,70458,United States of America,985-707-1145,30.2835,-89.7496,,,,
Pilot 1043 Idaho Falls,,6485 West Overland Drive,,Idaho Falls,Idaho,83402,United States of America,208-522-4149,43.4372,-112.12083,,,,
Pilot 350 Mt. Home,,1050 Highway 20,,Mountain Home,Idaho,83647,United States of America,208-587-4465,43.142264,-115.662167,,,,
Pilot 640 Jerome (Twin Falls),,5350 Highway 93,,Jerome,Idaho,83338,United States of America,208-324-3454,42.666367,-114.443679,,,,
Pilot 431 McCammon,,587 E US Hwy 30,,McCammon,Idaho,83250,United States of America,409-745-1124,42.62699,-112.16431,,,,
Pilot 437 Williamsburg,,481 West Highway 92,,Williamsburg,Kentucky,40769,United States of America,606-549-0162,35.237934,-111.822212,,,,
Panama City,,4127 W. Hwy. 98,,Panama City,Florida,32401,United States of America,(850) 913-1899,30.18044,-85.71427,,,,
Pier Park,,"600 Pier Park Drive, Suite 100",,Panama City,Florida,32413,United States of America,850-236-8900,30.2215,-85.8729,,,,
Pilot 1010 Jasper,,8059 State Highway 6 West,,Jasper,Florida,32052,United States of America,386-638-1635,30.51612091,-83.05879974,,,,
North 12th Street,,2000 North 12th Street,,Bismarck,North Dakota,58501,United States of America,(701) 221-2446,46.83434,-100.77165,,,,
Pilot 150 Hagerstown,,11633 Greencastle Pike,,Hagerstown,Maryland,21740,United States of America,301-582-9004,39.637505,-77.807175,,,,
Apple Blossom Mall,,1850 Apple Blossom Dr,,Winchester,Virginia,22601,United States of America,443-365-9444,39.16499376,-78.16270553,,,,
Pilot 754 Wytheville,,3249 Chapman Road,,Wytheville,Virginia,24382,United States of America,276-228-7110,36.94662,-81.04699,,,,
Morton Travel Plaza,,Mile Marker 72 N WV Tpk,,Gallagher,West Virginia,25083,United States of America,304- 595-2525,38.102047,-81.382803,,,,
Hwy 290 and Hwy 36,,2606 Hwy 36 South,,Brenham,Texas,77833,United States of America,(979)421-6340,30.1661,-96.424,,,,
Tomball Pkwy,,28431 Tomball Pkwy,,Tomball,Texas,77375,United States of America,281-357-5464,30.08678,-95.63186,,,,
Spring Town Center,,"20920 Kuykendahl, Suite # A",,Spring,Texas,77379,United States of America,281-907-7655,30.0737,-95.5129,,,,
Louetta Rd,,"1620 Louetta Rd., Suite A",,Houston,Texas,77388,United States of America,(832) 585-1592,30.065059,-95.439201,,,,
Schlotzskys Old FM 1488 Rd,,"6209 Old FM 1488 Rd, Ste. A",,Magnolia,Texas,77354,United States of America,281-259-7444,30.222733,-95.561953,,,,
Sidney Baker,,1423 Sidney Baker,,Kerrville,Texas,78028,United States of America,830-895-3354,30.05703,-99.12818,,,,
Pilot 1006 Junction,,2342 North Main Street,,Junction,Texas,76849,United States of America,325-446-2085,30.50744,-99.77615,,,,
Pilot 5003 Caddo Valley,,"I-30, Exit 78, Northwest Quadrant",,Caddo Valley,Arkansas,71923,United States of America,870-245-3119,34.19,-93.07035,,,,
Pilot 606 Texarkana,,8300 State Hwy 108,,Texarkana,Arkansas,71854,United States of America,870-774-3595,33.50775,-93.94948,,,,
Richmond Road,,3652 Richmond Road,,Texarkana,Texas,75503,United States of America,903-831-0036,33.46898,-94.09609,,,,
Pilot 575 St. Mary's,,491 St. Mary's Road,,St. Mary's,Georgia,31558,United States of America,912-576-5424,30.75908,-81.65181,,,,
Highway 77 North,,"507 Highway 77 North, Suite 126 B",,Waxahachie,Texas,76165,United States of America,(972) 923-1818,32.40775,-96.84256,,,,
West Henderson,,1216 W. Henderson,,Cleburne,Texas,76033,United States of America,817-645-6677,32.3423,-97.40253,,,,
Water Edge Drive,,1100 Water Edge Drive,,Granbury,Texas,76048,United States of America,817-573-9909,32.43231,-97.77782,,,,
Main Avenue,,846 Main Avenue,,Durango,Colorado,81301,United States of America,(970)764-4774,37.27281189,-107.8804932,,,,
Pilot 141 Evanston,,289 Bear River Drive,,Evanston,Wyoming,82930,United States of America,307-783-5930,41.27109,-110.95295,,,,
Pilot 474 Sutton,,270 Scotts Fork-Bonnie Road,,Sutton,West Virginia,26601,United States of America,304-765-9270,38.705404,-80.664207,,,,
Pilot 4450 Harrisonburg,,3634 North Valley Pike,,Harrisonburg,Virginia,22802,United States of America,540-434-2529,38.4829,-78.8163,,,,
West Owen K Garriott Rd,,5229 W. Owen K. Garriott Rd.,,Enid,Oklahoma,73703,United States of America,580-234-5059,36.3902933,-97.9452806,,,,
North Perkins Road,,310 North Perkins Road,,Stillwater,Oklahoma,74075,United States of America,405-624-0807,36.1271,-97.0697,,,,
East Fry Blvd,,3900 E. Fry Blvd.,,Sierra Vista,Arizona,85635,United States of America,520-458-4022,31.55437,-110.25771,,,,
Pilot 612 Winslow,,400 Transcon Lane,,Winslow,Arizona,86047,United States of America,928-289-2081,35.01853,-110.67382,,,,
Harrah's - Laughlin,,2900 S Casino Drive,,Laughlin,Nevada,89029,United States of America,(702) 298-8207,35.14447784,-114.5770645,,,,
Riverside Casino,,1650 S. Casino Drive,,Laughlin,Nevada,89029,United States of America,(702) 298-8207,35.1664505,-114.5717621,,,,
MacArthur Dr,,959 MacArthur Dr.,,Alexandria,Louisiana,71303,United States of America,(318) 445-3354,31.29246,-92.47668,,,,
Road Ranger 272 Encinal,,45 East Texas State Highway 44,,Encinal,Texas,78019,United States of America,830-663-2940,31.25615,-94.30416,,,,
North Street,,2608 North Street,,Nacogdoches,Texas,75961,United States of America,(936) 564-2867,31.6266185,-94.65229221,,,,
Pilot 1023 Lufkin,,1920 E. Denman Ave.,,Lufkin,Texas,75901,United States of America,936-899-7101,31.35234,-94.72137,,,,
Southloop Crossing,,4601 South Medford,,Lufkin,Texas,75901,United States of America,(936) 639-4900,31.31068611,-94.72385406,,,,
Turtle Creek Mall,,1000 Turtle Creek Dr.,,Hattiesburg,Mississippi,39402,United States of America,601-336-8200,31.32247008,-89.37340982,,,,
Pump & Pantry 13 St. Paul,,514 2nd Street,,St. Paul,Nebraska,68873-2106,United States of America,402-292-2999,40.93879,-98.30098,,,,
Pump & Pantry 10 Grand Island - South Locust,,3212 S. Locust,,Grand Island,Nebraska,68801-8870,United States of America,308-754-4439,40.89054,-98.33988,,,,
Pump & Pantry 6 Grand Island,,3355 W Stolley Park Road,,Grand Island,Nebraska,68803,United States of America,308-384-1261,40.90271,-98.3799,,,,
Pump & Pantry 3 Grand Island - Captial,,2511 N Diers Ave.,,Grand Island,Nebraska,68803-1213,United States of America,308-234-4400,40.94643021,-98.38442993,,,,
Bossleman Travel Center,,3335 West Wood River Road,,Grand Island,Nebraska,68803,United States of America,308-382-2288,40.8298,-98.39783,,,,
Pump & Pantry 27 Kearney,,4311 Second Avenue,,Kearney,Nebraska,68847-2409,United States of America,402-435-2022,40.71720886,-99.08325195,,,,
Pump & Pantry 22 Burwell,,517 South First,,Burwell,Nebraska,68823,United States of America,308-234-4400,40.71649,-99.08392,,,,
Maverik 531,,1033 West 200 N.,,Logan,Utah,84321,United States of America,(435) 753-9543,41.73569463,-111.8606056,,,,
Maverik #526,,300 S Main St,,Logan,Utah,84321,United States of America,435-752-4470,41.72596,-111.93511,,,,
Pilot Belmont,,66377 Belmont Morristown Rd,,Belmont,Ohio,43718,United States of America,740-782-0134,40.057881,-81.050851,,,,
Pilot 0503 Morgantown,,2309 Smithtown Road,,Morgantown,West Virginia,26508,United States of America,304-284-8518,39.5376,-79.9955,,,,
Pilot 348 Bentleyville,,205 Wilson Road,,Bentleyville,Pennsylvania,15314,United States of America,724-239-5855,40.1265,-80.004,,,,
Pine Tree Square,,2812 Suddeth Drive,,Ruidoso,New Mexico,88345,United States of America,575-257-9557,33.33326,-105.67897,,,,
Pilot 490 Hobbs,,3710 West Carlsbad Way,,Hobbs,New Mexico,88240,United States of America,575-391-0120,32.69686,-103.20384,,,,
West Joe Harvey Blvd,,1710 W. Joe Harvey Blvd.,,Hobbs,New Mexico,88240,United States of America,575-492-9852,32.74211571,-103.1575575,,,,
Pilot 1070,,2464 Historic Route 66,,Santa Rosa,New Mexico,88435,United States of America,575-472-7200,34.94563,-104.66238,,,,
Pilot 736 Pecos,,100 E Pinehurst 120 US hwy 285,,Pecos,Texas,79772,United States of America,432-445-9436,31.4053645,-103.5062555,,,,
East Central,,6507 E. Central #85,,Wichita,Kansas,67206,United States of America,316-687-3206,37.36369,-97.26046,,,,
Pump & Pantry 35 Alma,,710 N Hwy 183,,Alma,Nebraska,68920,United States of America,308-995-6907,40.07493,-99.37479,,,,
Pump & Pantry 23 Holdrege,,916 4th Avenue,,Holdrege,Nebraska,68949,United States of America,308-928-2590,40.43815,-99.36821,,,,
Pilot 1004 Tonkawa,,16600 West South Ave.,,Tonkawa,Oklahoma,74653,United States of America,580-628-2934,36.69593048,-97.34942627,,,,
Pilot 550 Minot,,3800 US 2,,Minot,North Dakota,58701,United States of America,701-839-5061,48.223576,-101.35058,,,,
Logan Valley Mall,,5580 Goods Lane,,Altoona,Pennsylvania,16602,United States of America,814- 944-4800,40.46804309,-78.41489889,,,,
East 20th St,,484 East 20th St.,,Farmington,New Mexico,87401,United States of America,(505) 327-2722,36.7491188,-108.2005005,,,,
Pilot 749 Carmel Church,,24279 Rogers Clark Blvd.,,Carmel Church,Virginia,22546,United States of America,804-448-9047,37.9338,-77.4752,,,,
Ruther Glen,,23866 Rogers Clark Blvd.,,Ruther Glen,Virginia,22546,United States of America,804-448-3077,37.94103,-77.46315,,,,
Pilot 408 Grantsville,,3000 Chestnut Ridge Rd.,,Grantsville,Maryland,21536,United States of America,301-895-4536,39.65918,-79.09961,,,,
Pilot Terrell,,1200 South Hillcrest,,Sulphur Springs,Texas,75482,United States of America,903-885-0020,33.11706573,-95.63506968,,,,
Gilmer Street,,1050 Gilmer Street,,Sulphur Springs,Texas,75482,United States of America,903-919-5060,33.1236995,-95.59721097,,,,
Pilot 388 Meridian,,1555 Tommy Webb Drive,,Meridian,Mississippi,37307,United States of America,601-484-5106,32.3452,-88.7276,,,,
Pilot 610 Kingman,,3300 E Andy DeVine Ave,,Kingman,Arizona,86401,United States of America,928-757-7300,35.22049,-114.00777,,,,
Regency Lane,,3124 Regency Lane,,Denison,Texas,75020,United States of America,903-462-4592,33.76084518,-96.58368683,,,,
