store_name,store_number,address,address2,city,state,zip_code,country,phone_number,latitude,longitude,store_hours,store_type,other_fields,coming_soon
Philadelphia - Juniata Storage Units,,830 E. Hunting Park Ave. ,,Philadelphia ,PA,19124,United States,215-825-8536,,,"M-F 9:00am - 6:00pm, Sat 8:30am - 5:30pm, Sun 10:00am - 5:00pm",,,
Philadelphia - Germantown Storage Units,,6224 Germantown Ave. ,,Philadelphia ,PA,19144,United States,215-825-8539,,,"M-F 9:00am - 7:00pm, Sat 8:30am - 5:30pm, Sun 10:00am - 5:00pm",,,
Philadelphia - Tacony Storage Units,,6371 Keystone Street ,,Philadelphia ,PA,19135,United States,215-825-8527,,,"M-F 9:00am - 6:00pm, Sat 8:30am - 5:30pm, Sun 10:00am - 5:00pm",,,
Mountainside Storage Units,,1096 US Highway 22 ,,Mountainside ,NJ,07092,United States,908-264-4045,,,"M-F 9:00am - 6:00pm, Sat 8:30am - 5:30pm, Sun 10:00am - 5:00pm",,,
Philadelphia - Oak Lane Storage Units,,1499 66th Avenue ,,Philadelphia ,PA,19126,United States,215-825-8573,,,"M-F 9:00am - 6:00pm, Sat 8:30am - 5:30pm, Sun 10:00am - 5:00pm",,,
Philadelphia - Temple Storage Units,,1221 N. Broad Street ,,Philadelphia ,PA,19122,United States,215-825-8572,,,"M-F9:00am - 7:00pm, Sat8:30am - 5:30pm, Sun 10:00am - 5:00pm",,,
Philadelphia - Frankford Storage Units,,3300 Frankford Avenue ,,Philadelphia ,PA,19134,United States,267-440-0074,,,"M-F 9:00am - 7:00pm, Sat 8:30am - 5:30pm, Sun10:00am - 5:00pm",,,
Holmdel Storage Units,,2152 Route 35 ,,Holmdel ,NJ,07733,United States,732-474-7618,,,"M-F 9:00am - 6:00pm, Sat 8:30am - 5:30pm, Sun 10:00am - 5:00pm",,,
Philadelphia - Fox Chase Storage Units,,1333 Rhawn Street ,,Philadelphia ,PA,19111,United States,215-825-8524,,,"M-F 9:00am - 6:00pm, Sat 8:30am - 5:30pm, Sun 10:00am - 5:00pm",,,
Garfield Storage Units,,182 Belmont Avenue ,,Garfield ,NJ,07026,United States,973-883-9008,,,"M-F 9:00am - 6:00pm, Sat 8:30am - 5:30pm, Sun 10:00am - 5:00pm",,,
Elizabeth Storage Units,,140 Spring Street (Rt. 1 & 9) ,,Elizabeth ,NJ,07201,United States,908-264-4022,,,"M-F  9:00am - 7:00pm, Sat   8:30am - 5:30pm, Sun 10:00am - 5:00pm",,,
Metairie - N. Causeway Boulevard Storage Units,,3301 N. Causeway Boulevard ,,Metairie ,LA,70002,United States,504-322-4537,,,"M-F  9:00am \u2013 6:00pm, Sat   8:30am \u2013 5:30pm, Sun 10:00am \u2013 5:00pm",,,
Westchester - Thornwood Storage Units,,950 Broadway ,,Thornwood ,NY,10594,United States,914-885-9255,,,"M-F 9:00am - 6:00pm, Sat 8:30am - 5:30pm, Sun 10:00am - 5:00pm",,,
Miami - West Miami Storage Units,,7691 NW 12th Street ,,Miami ,FL,33126,United States,305-434-7155,,,"M-F 9:00am - 6:00pm, Sat 8:30am - 5:30pm, Sun 10:00am - 5:00pm",,,
Palatine Storage Units,,1136 E. NW Highway ,,Palatine ,IL,60074,United States,847-499-8194,,,"M-F 9:00am - 6:00pm, Sat 8:30am - 5:30pm, Sun 10:00am - 5:00pm",,,
Metairie - Kenner Storage Units,,6400 Riverside Drive ,,Metairie ,LA,70003,United States,504-655-9197,,,"M-F 9:00am - 6:00pm, Sat 8:30am - 5:30pm, Sun 10:00am - 5:00pm",,,
Westchester - Yonkers Storage Units,,188 S. Broadway ,,Yonkers ,NY,10705,United States,914-885-9243,,,"M-F 9:00am - 7:00pm, Sat 8:30am - 5:30pm, Sun 10:00am - 5:00pm",,,
New Orleans - Erato Street Storage Units,,919 Erato Street ,,New Orleans ,LA,70130,United States,504-273-2879,,,"M-F 9:00am - 6:00pm, Sat 8:30am - 5:30pm, Sun 10:00am - 5:00pm",,,
Westchester - Elmsford Storage Units,,3-7 Valley Avenue ,,Elmsford ,NY,10523,United States,914-885-9245,,,"M-F 9:00am - 7:00pm, Sat 8:30am - 5:30pm, Sun 10:00am - 5:00pm",,,
Westchester - New Rochelle Storage Units,,85 Weyman Avenue ,,New Rochelle ,NY,10805,United States,914-595-2422,,,"M-F 9:00am - 7:00pm, Sat 8:30am - 5:30pm, Sun 10:00am - 5:00pm",,,
Queens - Ridgewood Storage Units,,1726 Hancock St. ,,Ridgewood ,NY,11385,United States,718-412-3939,,,"M-F 9:00am - 7:00pm, Sat 8:30am - 5:30pm, Sun 10:00am - 5:00pm",,,
Queens - Richmond Hill Storage Units,,119-24 Jamaica Avenue ,,Richmond Hill ,NY,11418,United States,646-452-9389,,,"M-F 9:00am - 7:00pm, Sat 8:30am - 5:30pm, Sun 10:00am - 5:00pm",,,
Queens - Ozone Park Storage Units,,101-09 103rd Avenue ,,Ozone Park ,NY,11417,United States,646-452-9387,,,"M-F 9:00am - 7:00pm, Sat 8:30am - 5:30pm, Sun 10:00am - 5:00pm",,,
Queens - Hollis Storage Units,,204-02 Jamaica Ave. ,,Hollis ,NY,11423,United States,718-412-3930,,,"M-F 9:00am - 7:00pm, Sat 8:30am - 5:30pm, Sun 10:00am - 5:00pm",,,
Queens - Astoria Storage Units,,41-15 Astoria Blvd. ,,Astoria ,NY,11105,United States,646-452-9391,,,"M-F 9:00am - 7:00pm, Sat 8:30am - 5:30pm, Sun 10:00am - 5:00pm",,,
Nassau - West Hempstead Storage Units,,45 Hempstead Turnpike ,,West Hempstead ,NY,11552,United States,516-403-8541,,,"M-F 9:00am - 6:00pm, Sat 8:30am - 5:30pm, Sun 10:00am - 5:00pm",,,
Queens - Jamaica Storage Units,,156-01 Liberty Ave. ,,Jamaica ,NY,11433,United States,718-412-3940,,,"M-F 9:00am - 7:00pm, Sat 8:30am - 5:30pm, Sun 10:00am - 5:00pm",,,
Nassau - New Hyde Park Storage Units,,115 New Hyde Park Road ,,New Hyde Park ,NY,11040,United States,516-403-8514,,,"M-F 9:00am - 6:00pm, Sat 8:30am - 5:30pm, Sun 10:00am - 5:00pm",,,
Nassau - Hewlett Storage Units,,1176 Broadway ,,Hewlett ,NY,11557,United States,516-403-8547,,,"M-F 9:00am - 6:00pm, Sat 8:30am - 5:30pm, Sun 10:00am - 5:00pm",,,
Nassau - Massapequa Storage Units,,6000 Sunrise Highway ,,Massapequa ,NY,11758,United States,516-665-0727,,,"M-F 9:00am - 6:00pm, Sat 8:30am - 5:30pm, Sun 10:00am - 5:00pm",,,
Brooklyn - Flatbush Storage Units,,629 Utica Ave. ,,Brooklyn ,NY,11203,United States,718-475-5679,,,"M-F 9:00am - 7:00pm, Sat 8:30am - 5:30pm, Sun 10:00am - 5:00pm",,,
Brooklyn - Flatlands Storage Units,,1635 Albany Ave. ,,Brooklyn ,NY,11210,United States,718-475-5665,,,"M-F 9:00am - 7:00pm, Sat 8:30am - 5:30pm, Sun 10:00am - 5:00pm",,,
Brooklyn - Ebbets Field Storage Units,,115 Empire Blvd. ,,Brooklyn ,NY,11225,United States,646-291-8931,,,"M-F 9:00am - 7:00pm, Sat 8:30am - 5:30pm, Sun 10:00am - 5:00pm",,,
Brooklyn - East Williamsburg Storage Units,,930 Grand Street ,,Brooklyn ,NY,11211,United States,718-233-3877,,,"M-F 9:00am - 7:00pm, Sat 8:30am - 5:30pm, Sun 10:00am - 5:00pm",,,
Brooklyn - East New York Storage Units,,1648 East New York Avenue ,,Brooklyn ,NY,11212,United States,718-475-5669,,,"M-F 9:00am - 7:00pm, Sat 8:30am - 5:30pm, Sun 10:00am - 5:00pm",,,
Brooklyn - Crown Heights Storage Units,,1206 E. NY Avenue ,,Brooklyn ,NY,11212,United States,646-291-8930,,,"M-F 9:00am - 7:00pm, Sat 8:30am - 5:30pm, Sun 10:00am - 5:00pm",,,
Brooklyn - Atlantic Avenue Storage Units,,2941 Atlantic Avenue ,,Brooklyn ,NY,11207,United States,646-291-8970,,,"M-F 9:00am - 7:00pm, Sat 8:30am - 5:30pm, Sun 10:00am - 5:00pm",,,
McCook Storage Units,,9001 West 47th Street ,,McCook ,IL,60525,United States,708-273-4844,,,"M-F 9:00am - 6:00pm, Sat 8:30am - 5:30pm, Sun 10:00am - 5:00pm",,,
Lyons Storage Units,,4310 1st Avenue ,,Lyons ,IL,60534,United States,708-273-4813,,,"M-F 9:00am - 6:00pm, Sat 8:30am - 5:30pm, Sun 10:00am - 5:00pm",,,
Lombard Storage Units,,638 E. St Charles Road ,,Lombard ,IL,60148,United States,630-929-3569,,,"M-F 9:00am - 6:00pm, Sat 8:30am - 5:30pm, Sun 10:00am - 5:00pm",,,
Bronx - Concourse Village Storage Units,,1253 Jerome Avenue ,,Bronx ,NY,10452,United States,718-475-5640,,,"M-F 9:00am - 7:00pm, Sat 8:30am - 5:30pm, Sun 10:00am - 5:00pm",,,
Des Plaines Storage Units,,2020 Mannheim Road ,,Des Plaines ,IL,60018,United States,847-499-8195,,,"M-F 9:00am - 6:00pm, Sat 8:30am - 5:30pm, Sun 10:00am - 5:00pm",,,
Darien Storage Units,,8131 Lemont Road ,,Darien ,IL,60561,United States,630-929-3588,,,"M-F 9:00am - 6:00pm, Sat 8:30am - 5:30pm, Sun 10:00am - 5:00pm",,,
Bronx - East Tremont Storage Units,,1112 East Tremont Avenue ,,Bronx ,NY,10460,United States,646-351-8620,,,"M-F   9:00am - 7:00pm, Sat    8:30am - 5:30pm, Sun  10:00am - 5:00pm",,,
Chicago - West Rogers Park Storage Units,,6014 N. California Ave. ,,Chicago ,IL,60659,United States,312-523-0739,,,"M-F 9:00am - 6:00pm, Sat 8:30am - 5:30pm, Sun 10:00am - 5:00pm",,,
Bronx - Wakefield Storage Units,,4301 Bronx Blvd. ,,Bronx ,NY,10466,United States,646-452-9375,,,"M-F 9:00am - 7:00pm, Sat 8:30am - 5:30pm, Sun 10:00am - 5:00pm",,,
Chicago - Beverly Storage Units,,1909 West 95th Street ,,Chicago ,IL,60643,United States,773-977-7077,,,"M-F  9:00am-6:00pm, Sat   8:30am-5:30pm, Sun 10:00am-5:00pm",,,
Chicago - Uptown Storage Units,,5026 N. Sheridan Road ,,Chicago ,IL,60640,United States,773-915-2202,,,"M-F 9:00am - 6:00pm, Sat 8:30am - 5:30pm, Sun 10:00am - 5:00pm",,,
Chicago - Lake View Storage Units,,2757 N. Clybourn Ave. ,,Chicago ,IL,60614,United States,773-977-7730,,,"M-F 9:00am - 6:00pm, Sat 8:30am - 5:30pm, Sun 10:00am - 5:00pm",,,
Bridgeview Storage Units,,9800 S. Harlem Avenue ,,Bridgeview ,IL,60455,United States,708-273-4825,,,"M-F 9:00am - 6:00pm, Sat 8:30am - 5:30pm, Sun 10:00am - 5:00pm",,,
Chicago - South Loop Storage Units,,1353 S. Wabash Avenue ,,Chicago ,IL,60605,United States,312-523-0710,,,"M-F 9:00am - 6:00pm, Sat 8:30am - 5:30pm, Sun 10:00am - 5:00pm",,,
Arlington Heights Storage Units,,523 W Algonquin Road ,,Arlington Heights ,IL,60005,United States,847-499-8187,,,"M-F 9:00am - 6:00pm, Sat 8:30am - 5:30pm, Sun 10:00am - 5:00pm",,,
Chicago - Hermosa Storage Units,,4534 W. North Ave. ,,Chicago ,IL,60639,United States,773-596-9300,,,"M-F 9:00am - 6:00pm, Sat 8:30am - 5:30pm, Sun 10:00am - 5:00pm",,,
Addison Storage Units,,21W379 Lake Street ,,Addison ,IL,60101,United States,630-274-5451,,,"M-F 9:00am - 6:00pm, Sat 8:30am - 5:30pm, Sun 10:00am - 5:00pm",,,
Miami - Palmetto Bay Storage Units,,17171 S. Dixie Highway ,,Palmetto Bay ,FL,33157,United States,786-587-1974,,,"M-F 9:00am - 6:00pm, Sat 8:30am - 5:30pm, Sun 10:00am - 5:00pm",,,
Miami - Little Havana Storage Units,,800 West Flagler Street ,,Miami ,FL,33130,United States,305-722-7614,,,"M-F 9:00am - 7:00pm, Sat 8:30am - 5:30pm, Sun 10:00am - 5:00pm",,,
Miami - Coconut Grove Storage Units,,2650 S. W. 28th Lane ,,Coconut Grove ,FL,33133,United States,305-434-7154,,,"M-F 9:00am - 6:00pm, Sat 8:30am - 5:30pm, Sun 10:00am - 5:00pm",,,
Miami - Hialeah North East Storage Units,,12000 NW 27th Avenue ,,Miami ,FL,33167,United States,786-245-0379,,,"M-F 9:00am - 7:00pm, Sat 8:30am - 5:30pm, Sun 10:00am - 5:00pm",,,
Broward - Pompano Beach Storage Units,,2571 N. Federal Highway ,,Pompano Beach ,FL,33064,United States,954-414-4134,,,"M-F 9:00am - 6:00pm, Sat 8:30am - 5:30pm, Sun 10:00am - 5:00pm",,,
Broward - Miramar Storage Units,,7950 Riviera Blvd. ,,Miramar ,FL,33023,United States,954-665-2435,,,"M-F 9:00am - 6:00pm, Sat 8:30am - 5:30pm, Sun 10:00am - 5:00pm",,,
Miami - Miami Gardens Storage Units,,16701 Park Centre Blvd. ,,Miami ,FL,33169,United States,786-587-1947,,,"M-F 9:00am - 7:00pm, Sat 8:30am - 5:30pm, Sun 10:00am - 5:00pm",,,
Broward - Tamarac Storage Units,,6101 W. Commercial Blvd. ,,Tamarac ,FL,33319,United States,954-414-2053,,,"M-F 9:00am - 6:00pm, Sat 8:30am - 5:30pm, Sun 10:00am - 5:00pm",,,
Broward - Coconut Creek Storage Units,,3950 W Hillsboro Blvd. ,,Coconut Creek ,FL,33073,United States,954-414-2046,,,"M-F 9:00am - 6:00pm, Sat 8:30am - 5:30pm, Sun 10:00am - 5:00pm",,,
Marrero - Lapalco Boulevard Storage Units,,6827 Lapalco Blvd ,,Marrero ,LA,70072,United States,504-322-7926,,,"M-F  9:00am - 6:00pm, Sat   8:30am - 5:30pm, Sun 10:00am - 5:00pm",,,
Metairie - I-10 Service Road Storage Units,,4009 I-10 Service Rd ,,Metairie ,LA,70002,United States,504-322-7925,,,"M-F  9:00am - 6:00pm, Sat   8:30am - 5:30pm, Sun 10:00am - 5:00pm",,,
Baton Rouge - Jefferson Highway Storage Units,,10770 Jefferson Highway ,,Baton Rouge ,LA,70809,United States,225-341-8213,,,"M-F 9:00am - 6:00pm, Sat 8:30am - 5:30pm, Sun 10:00am - 5:00pm",,,
Baton Rouge - Coursey Blvd Storage Units,,10811 Coursey Boulevard ,,Baton Rouge ,LA,70816,United States,225-910-8435,,,"M-F 9:00am - 6:00pm, Sat 8:30am - 5:30pm, Sun 10:00am - 5:00pm",,,
Harvey - Manhattan Boulevard Storage Units,,1001 Manhattan Blvd ,,Harvey ,LA,70058,United States,504-322-7927,,,"M-F 9:00am - 6:00pm, Sat 8:30am - 5:30pm, Sun 10:00am - 5:00pm",,,
Broward - Hollywood Storage Units,,3090 Sheridan Street ,,Hollywood ,FL,33021,United States,954-302-3488,,,"M-F 9:00am - 6:00pm, Sat  8:30am - 5:30pm, Sun 10:00am - 5:00pm",,,
Miami - Design District Storage Units,,515 NW 36th Street ,,Miami ,FL,33127,United States,305-434-7169,,,"M-F 9:00am - 6:00pm, Sat 8:30am - 5:30pm, Sun 10:00am - 5:00pm",,,
