store_name,store_number,address,address2,city,state,zip_code,country,phone_number,latitude,longitude,store_hours,store_type,other_fields,coming_soon
Universal Self Storage,,28099 Greenspot Road ,,Highland ,CA,92346,United States,(909) 572-0050,,,"Office Hours: Monday 9:00AM -6:00PM Tuesday 9:00AM -6:00PM Wednesday 9:00AM -6:00PM Thursday 9:00AM -6:00PM Friday 9:00AM -6:00PM Saturday 9:00AM -6:00PM Sunday Closed Access Hours: Monday 6:00AM -7:00PM Tuesday 6:00AM -7:00PM Wednesday 6:00AM -7:00PM Thursday 6:00AM -7:00PM Friday 6:00AM -7:00PM Saturday 6:00AM -7:00PM Sunday 6:00AM -7:00PM Additional Hours: Our offices and gate access will be closed on Monday, May 29th in observance of Memorial Day",,,https://www.castorage.com/self-storage-locations/california/highland-ca-storage-units/28099-Greenspot-Road
StorAmerica Self Storage,,12336 Carson St ,,Hawaiian Gardens ,CA,90716,United States,(562) 340-7979,,,"Office Hours: Monday 9:00AM - 6:00PM Tuesday 9:00AM - 6:00PM Wednesday 9:00AM - 6:00PM Thursday 9:00AM - 6:00PM Friday 9:00AM - 6:00PM Saturday 9:00AM - 6:00PM Sunday 9:00AM - 6:00PM Access Hours: Monday 7:00AM - 7:00PM Tuesday 7:00AM - 7:00PM Wednesday 7:00AM - 7:00PM Thursday 7:00AM - 7:00PM Friday 7:00AM - 7:00PM Saturday 7:00AM - 7:00PM Sunday 7:00AM - 7:00PM Additional Hours: Our offices and gate access will be closed on Monday, May 29th in observance of Memorial Day",,,https://www.castorage.com/self-storage-locations/california/hawaiian-gardens-ca-storage-units/12336-Carson-St
Universal Self Storage,,25980 Barton Road ,,Loma Linda ,CA,92354,United States,(909) 570-0025,,,"Office Hours: Monday 9:00AM -6:00PM Tuesday 9:00AM -6:00PM Wednesday 9:00AM -6:00PM Thursday 9:00AM -6:00PM Friday 9:00AM -6:00PM Saturday 9:00AM -6:00PM Sunday 9:00AM -6:00PM Access Hours: Monday 6:00AM -7:00PM Tuesday 6:00AM -7:00PM Wednesday 6:00AM -7:00PM Thursday 6:00AM -7:00PM Friday 6:00AM -7:00PM Saturday 6:00AM -7:00PM Sunday 6:00AM -7:00PM Additional Hours: Our offices and gate access will be closed on Monday, May 29th in observance of Memorial Day",,,https://www.castorage.com/self-storage-locations/california/loma-linda-ca-storage-units/25980-Barton-Road
Crown Valley Self Storage,,27680 Center Drive ,,Mission Viejo ,CA,92692,United States,(949) 682-9951,,,"Office Hours: Monday 9:00AM - 6:00PM Tuesday 9:00AM - 6:00PM Wednesday 9:00AM - 6:00PM Thursday 9:00AM - 6:00PM Friday 9:00AM - 6:00PM Saturday 9:00AM - 6:00PM Sunday Closed Access Hours: Monday 7:00AM - 7:00PM Tuesday 7:00AM - 7:00PM Wednesday 7:00AM - 7:00PM Thursday 7:00AM - 7:00PM Friday 7:00AM - 7:00PM Saturday 7:00AM - 7:00PM Sunday 7:00AM - 7:00PM Additional Hours: Our offices and gate access will be closed on Monday, May 29th in observance of Memorial Day",,,https://www.castorage.com/self-storage-locations/california/mission-viejo-ca-storage-units/27680-Center-Drive
Mentone Self Storage,,2055 Mentone Blvd. ,,Mentone ,CA,92359,United States,(909) 351-3100,,,"Office Hours: Monday 9:00AM -6:00PM Tuesday 9:00AM -6:00PM Wednesday 9:00AM -6:00PM Thursday 9:00AM -6:00PM Friday 9:00AM -6:00PM Saturday 9:00AM -6:00PM Sunday Closed Access Hours: Monday 7:00AM -5:45PM Tuesday 7:00AM -5:45PM Wednesday 7:00AM -5:45PM Thursday 7:00AM -5:45PM Friday 7:00AM -5:45PM Saturday 7:00AM -5:45PM Sunday 7:00AM -5:45PM Additional Hours: Our offices and gate access will be closed on Monday, May 29th in observance of Memorial Day",,,https://www.castorage.com/self-storage-locations/california/mentone-ca-storage-units/2055-Mentone-Blvd.
StorAmerica Self Storage,,2250 Central Ave ,,Duarte ,CA,91010,United States,(626) 385-7915,,,"Office Hours: Monday 9:00AM -6:00PM Tuesday 9:00AM -6:00PM Wednesday 9:00AM -6:00PM Thursday 9:00AM -6:00PM Friday 9:00AM -6:00PM Saturday 9:00AM -6:00PM Sunday Closed Access Hours: Monday 6:00AM -9:00PM Tuesday 6:00AM -9:00PM Wednesday 6:00AM -9:00PM Thursday 6:00AM -9:00PM Friday 6:00AM -9:00PM Saturday 6:00AM -9:00PM Sunday 6:00AM -9:00PM Additional Hours: Our offices and gate access will be closed on Monday, May 29th in observance of Memorial Day",,,https://www.castorage.com/self-storage-locations/california/duarte-ca-storage-units/2250-Central-Ave
Seacliff Self Storage,,18100 Kovac Lane. ,,Huntington Beach ,CA,92648,United States,(714) 489-5889,,,"Office Hours: Monday 7:00AM - 8:00PM Tuesday 7:00AM - 8:00PM Wednesday 7:00AM - 8:00PM Thursday 7:00AM - 8:00PM Friday 7:00AM - 8:00PM Saturday 7:00AM - 8:00PM Sunday 9:00AM - 6:00PM Access Hours: Monday 7:00AM - 7:45PM Tuesday 7:00AM - 7:45PM Wednesday 7:00AM - 7:45PM Thursday 7:00AM - 7:45PM Friday 7:00AM - 7:45PM Saturday 7:00AM - 7:45PM Sunday 9:00AM - 5:45PM Additional Hours: Our offices and gate access will be closed on Monday, May 29th in observance of Memorial Day",,,https://www.castorage.com/self-storage-locations/california/huntington-beach-ca-storage-units/18100-Kovac-Lane.
Costa Mesa Self Storage,,3180 Red Hill Ave ,,Costa Mesa ,CA,92626,United States,(714) 489-5895,,,"Office Hours: Monday 9:00AM - 6:00PM Tuesday 9:00AM - 6:00PM Wednesday 9:00AM - 6:00PM Thursday 9:00AM - 6:00PM Friday 9:00AM - 6:00PM Saturday 9:00AM - 6:00PM Sunday Closed Access Hours: Monday 6:00AM - 7:45PM Tuesday 6:00AM - 7:45PM Wednesday 6:00AM - 7:45PM Thursday 6:00AM - 7:45PM Friday 6:00AM - 7:45PM Saturday 6:00AM - 7:45PM Sunday 6:00AM - 7:45PM Additional Hours: Our offices and gate access will be closed on Monday, May 29th in observance of Memorial Day",,,https://www.castorage.com/self-storage-locations/california/costa-mesa-ca-storage-units/3180-Red-Hill-Ave
StorAmerica Self Storage,,3830 N Santa Anita Ave ,,El Monte ,CA,91731,United States,(626) 872-5988,,,"Office Hours: Monday 9:00AM -6:00PM Tuesday 9:00AM -6:00PM Wednesday 9:00AM -6:00PM Thursday 9:00AM -6:00PM Friday 9:00AM -6:00PM Saturday 9:00AM -6:00PM Sunday Closed Access Hours: Monday 7:30AM -7:00PM Tuesday 7:30AM -7:00PM Wednesday 7:30AM -7:00PM Thursday 7:30AM -7:00PM Friday 7:30AM -7:00PM Saturday 7:30AM -7:00PM Sunday 7:30AM -7:00PM Additional Hours: Our offices and gate access will be closed on Monday, May 29th in observance of Memorial Day",,,https://www.castorage.com/self-storage-locations/california/el-monte-ca-storage-units/3830-N-Santa-Anita-Ave
A-1 Self Storage,,4918 W. First St. ,,Santa Ana ,CA,92703,United States,(714) 278-4643,,,"Office Hours: Monday 9:00AM -6:00PM Tuesday 9:00AM -6:00PM Wednesday 9:00AM -6:00PM Thursday 9:00AM -6:00PM Friday 9:00AM -6:00PM Saturday 9:00AM -6:00PM Sunday Closed Access Hours: Monday 5:00AM -8:00PM Tuesday 5:00AM -8:00PM Wednesday 5:00AM -8:00PM Thursday 5:00AM -8:00PM Friday 5:00AM -8:00PM Saturday 5:00AM -8:00PM Sunday 5:00AM -8:00PM Additional Hours: Our offices and gate access will be closed on Monday, May 29th in observance of Memorial Day",,,https://www.castorage.com/self-storage-locations/california/santa-ana-ca-storage-units/4918-W.-First-St.
Universal Self Storage,,15007 South Bridlepath Drive ,,Fontana ,CA,92336,United States,(909) 572-0069,,,"Office Hours: Monday 8:00AM -5:00PM Tuesday 8:00AM -5:00PM Wednesday 8:00AM -5:00PM Thursday 8:00AM -5:00PM Friday 8:00AM -5:00PM Saturday 8:00AM -5:00PM Sunday Closed Access Hours: Monday 6:00AM -7:00PM Tuesday 6:00AM -7:00PM Wednesday 6:00AM -7:00PM Thursday 6:00AM -7:00PM Friday 6:00AM -7:00PM Saturday 6:00AM -7:00PM Sunday 6:00AM -7:00PM Additional Hours: Our offices and gate access will be closed on Monday, May 29th in observance of Memorial Day",,,https://www.castorage.com/self-storage-locations/california/fontana-ca-storage-units/15007-South-Bridlepath-Drive
El Camino Self Storage,,201 S El Camino Real ,,Encinitas ,CA,92024,United States,(760) 523-2761,,,"Office Hours: Monday 8:00AM -7:00PM Tuesday 8:00AM -7:00PM Wednesday 8:00AM -7:00PM Thursday 8:00AM -7:00PM Friday 8:00AM -7:00PM Saturday 9:00AM -6:00PM Sunday 9:00AM -6:00PM Access Hours: Monday 8:00AM -6:45PM Tuesday 8:00AM -6:45PM Wednesday 8:00AM -6:45PM Thursday 8:00AM -6:45PM Friday 8:00AM -6:45PM Saturday 9:00AM -5:45PM Sunday 9:00AM -5:45PM Additional Hours: Our offices and gate access will be closed on Monday, May 29th in observance of Memorial Day",,,https://www.castorage.com/self-storage-locations/california/encinitas-ca-storage-units/201-S-El-Camino-Real
Universal Self Storage,,2050 Compton Avenue ,,Corona ,CA,92881,United States,(951) 339-2900,,,"Office Hours: Monday 9:00AM -6:00PM Tuesday 9:00AM -6:00PM Wednesday 9:00AM -6:00PM Thursday 9:00AM -6:00PM Friday 9:00AM -6:00PM Saturday 9:00AM -6:00PM Sunday Closed Access Hours: Monday 6:00AM -7:00PM Tuesday 6:00AM -7:00PM Wednesday 6:00AM -7:00PM Thursday 6:00AM -7:00PM Friday 6:00AM -7:00PM Saturday 6:00AM -7:00PM Sunday 6:00AM -7:00PM Additional Hours: Our offices and gate access will be closed on Monday, May 29th in observance of Memorial Day",,,https://www.castorage.com/self-storage-locations/california/corona-ca-storage-units/2050-Compton-Avenue
StorAmerica Self Storage,,13533 Powhatan Court ,,Apple Valley ,CA,92308,United States,(760) 383-2653,,,"Office Hours: Monday 9:00AM -6:00PM Tuesday 9:00AM -6:00PM Wednesday 9:00AM -6:00PM Thursday 9:00AM -6:00PM Friday 9:00AM -6:00PM Saturday 9:00AM -6:00PM Sunday Closed Access Hours: Monday 7:00AM -6:45PM Tuesday 7:00AM -6:45PM Wednesday 7:00AM -6:45PM Thursday 7:00AM -6:45PM Friday 7:00AM -6:45PM Saturday 7:00AM -6:45PM Sunday 7:00AM -6:45PM Additional Hours: Our offices and gate access will be closed on Monday, May 29th in observance of Memorial Day",,,https://www.castorage.com/self-storage-locations/california/apple-valley-ca-storage-units/13533-Powhatan-Court
Wildomar Storage & RV,,33868 Mission Trail ,,Wildomar ,CA,92595,United States,(951) 384-2440,,,"Office Hours: Monday 9:00AM -6:00PM Tuesday 9:00AM -6:00PM Wednesday 9:00AM -6:00PM Thursday 9:00AM -6:00PM Friday 9:00AM -6:00PM Saturday 9:00AM -6:00PM Sunday 9:00AM -6:00PM Access Hours: Monday 9:00AM -5:45PM Tuesday 9:00AM -5:45PM Wednesday 9:00AM -5:45PM Thursday 9:00AM -5:45PM Friday 9:00AM -5:45PM Saturday 9:00AM -5:45PM Sunday 9:00AM -5:45PM Additional Hours: Our offices and gate access will be closed on Monday, May 29th in observance of Memorial Day",,,https://www.castorage.com/self-storage-locations/california/wildomar-ca-storage-units/33868-Mission-Trail
StorAmerica Self Storage,,14421 Borego Rd ,,Victorville ,CA,92392,United States,(760) 383-2654,,,"Office Hours: Monday 9:00AM -6:00PM Tuesday 9:00AM -6:00PM Wednesday 9:00AM -6:00PM Thursday 9:00AM -6:00PM Friday 9:00AM -6:00PM Saturday 9:00AM -6:00PM Sunday Closed Access Hours: Monday 7:00AM -6:45PM Tuesday 7:00AM -6:45PM Wednesday 7:00AM -6:45PM Thursday 7:00AM -6:45PM Friday 7:00AM -6:45PM Saturday 7:00AM -6:45PM Sunday 7:00AM -6:45PM Additional Hours: Our offices and gate access will be closed on Monday, May 29th in observance of Memorial Day",,,https://www.castorage.com/self-storage-locations/california/victorville-ca-storage-units/14421-Borego-Rd
StorAmerica Self Storage,,12474 Industrial Blvd ,,Victorville ,CA,92392,United States,(760) 383-2655,,,"Office Hours: Monday 9:00AM -6:00PM Tuesday 9:00AM -6:00PM Wednesday 9:00AM -6:00PM Thursday 9:00AM -6:00PM Friday 9:00AM -6:00PM Saturday 9:00AM -6:00PM Sunday Closed Access Hours: Monday 7:00AM -6:45PM Tuesday 7:00AM -6:45PM Wednesday 7:00AM -6:45PM Thursday 7:00AM -6:45PM Friday 7:00AM -6:45PM Saturday 7:00AM -6:45PM Sunday 7:00AM -6:45PM Additional Hours: Our offices and gate access will be closed on Monday, May 29th in observance of Memorial Day",,,https://www.castorage.com/self-storage-locations/california/victorville-ca-storage-units/12474-Industrial-Blvd
Universal Self Storage,,10150 I Avenue ,,Hesperia ,CA,92345,United States,(760) 659-7600,,,"Office Hours: Monday 8:00AM -5:00PM Tuesday 8:00AM -5:00PM Wednesday 8:00AM -5:00PM Thursday 8:00AM -5:00PM Friday 8:00AM -5:00PM Saturday 8:00AM -5:00PM Sunday Closed Access Hours: Monday 6:00AM -7:00PM Tuesday 6:00AM -7:00PM Wednesday 6:00AM -7:00PM Thursday 6:00AM -7:00PM Friday 6:00AM -7:00PM Saturday 6:00AM -7:00PM Sunday 6:00AM -7:00PM Additional Hours: Our offices and gate access will be closed on Monday, May 29th in observance of Memorial Day",,,https://www.castorage.com/self-storage-locations/california/hesperia-ca-storage-units/10150-I-Avenue
StorAmerica Self Storage,,14915 La Mesa Rd ,,Victorville ,CA,92392,United States,(760) 412-4340,,,"Office Hours: Monday 9:00AM -6:00PM Tuesday 9:00AM -6:00PM Wednesday 9:00AM -6:00PM Thursday 9:00AM -6:00PM Friday 9:00AM -6:00PM Saturday 9:00AM -6:00PM Sunday Closed Access Hours: Monday 7:00AM -7:30PM Tuesday 7:00AM -7:30PM Wednesday 7:00AM -7:30PM Thursday 7:00AM -7:30PM Friday 7:00AM -7:30PM Saturday 7:00AM -7:30PM Sunday 7:00AM -7:30PM Additional Hours: Our offices and gate access will be closed on Monday, May 29th in observance of Memorial Day",,,https://www.castorage.com/self-storage-locations/california/victorville-ca-storage-units/14915-La-Mesa-Rd
Tustin Gateway Self Storage,,1671 Edinger Avenue ,,Tustin ,CA,92780,United States,(714) 793-0688,,,"Office Hours: Monday 9:00AM - 6:00PM Tuesday 9:00AM - 6:00PM Wednesday 9:00AM - 6:00PM Thursday 9:00AM - 6:00PM Friday 9:00AM - 6:00PM Saturday 9:00AM - 6:00PM Sunday Closed Access Hours: Monday 6:00AM - 8:00PM Tuesday 6:00AM - 8:00PM Wednesday 6:00AM - 8:00PM Thursday 6:00AM - 8:00PM Friday 6:00AM - 8:00PM Saturday 6:00AM - 8:00PM Sunday 6:00AM - 8:00PM Additional Hours: Our offices and gate access will be closed on Monday, May 29th in observance of Memorial Day",,,https://www.castorage.com/self-storage-locations/california/tustin-ca-storage-units/1671-Edinger-Avenue
Universal Self Storage,,9312 I Avenue ,,Hesperia ,CA,92345,United States,(760) 354-8660,,,"Office Hours: Monday 8:00AM -5:00PM Tuesday 8:00AM -5:00PM Wednesday 8:00AM -5:00PM Thursday 8:00AM -5:00PM Friday 8:00AM -5:00PM Saturday 8:00AM -5:00PM Sunday Closed Access Hours: Monday 6:00AM -7:00PM Tuesday 6:00AM -7:00PM Wednesday 6:00AM -7:00PM Thursday 6:00AM -7:00PM Friday 6:00AM -7:00PM Saturday 6:00AM -7:00PM Sunday 6:00AM -7:00PM Additional Hours: Our offices and gate access will be closed on Monday, May 29th in observance of Memorial Day",,,https://www.castorage.com/self-storage-locations/california/hesperia-ca-storage-units/9312-I-Avenue
StorAmerica Self Storage,,12185 Locust Ave ,,Victorville ,CA,92395,United States,(760) 354-9339,,,"Office Hours: Monday 9:00AM -6:00PM Tuesday 9:00AM -6:00PM Wednesday 9:00AM -6:00PM Thursday 9:00AM -6:00PM Friday 9:00AM -6:00PM Saturday 9:00AM -6:00PM Sunday Closed Access Hours: Monday 6:00AM -9:00PM Tuesday 6:00AM -9:00PM Wednesday 6:00AM -9:00PM Thursday 6:00AM -9:00PM Friday 6:00AM -9:00PM Saturday 6:00AM -9:00PM Sunday 6:00AM -9:00PM Additional Hours: Our offices and gate access will be closed on Monday, May 29th in observance of Memorial Day",,,https://www.castorage.com/self-storage-locations/california/victorville-ca-storage-units/12185-Locust-Ave
StorAmerica Self Storage,,19464 Town Center Dr ,,Apple Valley ,CA,92308,United States,(760) 383-2652,,,"Office Hours: Monday 9:00AM -6:00PM Tuesday 9:00AM -6:00PM Wednesday 9:00AM -6:00PM Thursday 9:00AM -6:00PM Friday 9:00AM -6:00PM Saturday 9:00AM -6:00PM Sunday Closed Access Hours: Monday 7:00AM -6:45PM Tuesday 7:00AM -6:45PM Wednesday 7:00AM -6:45PM Thursday 7:00AM -6:45PM Friday 7:00AM -6:45PM Saturday 7:00AM -6:45PM Sunday 7:00AM -6:45PM Additional Hours: Our offices and gate access will be closed on Monday, May 29th in observance of Memorial Day",,,https://www.castorage.com/self-storage-locations/california/apple-valley-ca-storage-units/19464-Town-Center-Dr
Coachella Self Storage & RV,,49901 Oates Lane ,,Coachella ,CA,92236,United States,(760) 475-9773,,,"Office Hours: Monday 9:00AM -6:00PM Tuesday 9:00AM -6:00PM Wednesday 9:00AM -6:00PM Thursday 9:00AM -6:00PM Friday 9:00AM -6:00PM Saturday 9:00AM -6:00PM Sunday Closed Access Hours: Monday 7:00AM -6:00PM Tuesday 7:00AM -6:00PM Wednesday 7:00AM -6:00PM Thursday 7:00AM -6:00PM Friday 7:00AM -6:00PM Saturday 7:00AM -6:00PM Sunday 7:00AM -6:00PM Additional Hours: Our offices and gate access will be closed on Monday, May 29th in observance of Memorial Day",,,https://www.castorage.com/self-storage-locations/california/coachella-ca-storage-units/49901-Oates-Lane
StorAmerica Self Storage,,74876 42nd Ave ,,Palm Desert ,CA,92260,United States,(760) 278-3432,,,"Office Hours: Monday 9:00AM -6:00PM Tuesday 9:00AM -6:00PM Wednesday 9:00AM -6:00PM Thursday 9:00AM -6:00PM Friday 9:00AM -6:00PM Saturday 9:00AM -6:00PM Sunday 10:00AM -4:00PM Access Hours: Monday 6:00AM -7:30PM Tuesday 6:00AM -7:30PM Wednesday 6:00AM -7:30PM Thursday 6:00AM -7:30PM Friday 6:00AM -7:30PM Saturday 6:00AM -7:30PM Sunday 6:00AM -7:30PM Additional Hours: Our offices and gate access will be closed on Monday, May 29th in observance of Memorial Day",,,https://www.castorage.com/self-storage-locations/california/palm-desert-ca-storage-units/74876-42nd-Ave
Woodbridge Self Storage,,5020 Barranca Pkwy. ,,Irvine ,CA,92604,United States,(949) 391-3968,,,"Office Hours: Monday 9:00AM - 6:00PM Tuesday 9:00AM - 6:00PM Wednesday 9:00AM - 6:00PM Thursday 9:00AM - 6:00PM Friday 9:00AM - 6:00PM Saturday 9:00AM - 6:00PM Sunday Closed Access Hours: Monday 7:00AM - 7:00PM Tuesday 7:00AM - 7:00PM Wednesday 7:00AM - 7:00PM Thursday 7:00AM - 7:00PM Friday 7:00AM - 7:00PM Saturday 7:00AM - 7:00PM Sunday 7:00AM - 7:00PM Additional Hours: Our offices and gate access will be closed on Monday, May 29th in observance of Memorial Day",,,https://www.castorage.com/self-storage-locations/california/irvine-ca-storage-units/5020-Barranca-Pkwy.
Irvine Self Storage,,2960 Main St ,,Irvine ,CA,92614,United States,(949) 390-9152,,,"Office Hours: Monday 9:00AM - 6:00PM Tuesday 9:00AM - 6:00PM Wednesday 9:00AM - 6:00PM Thursday 9:00AM - 6:00PM Friday 9:00AM - 6:00PM Saturday 9:00AM - 6:00PM Sunday Closed Access Hours: Monday 7:00AM - 7:00PM Tuesday 7:00AM - 7:00PM Wednesday 7:00AM - 7:00PM Thursday 7:00AM - 7:00PM Friday 7:00AM - 7:00PM Saturday 7:00AM - 7:00PM Sunday 7:00AM - 7:00PM Additional Hours: Our offices and gate access will be closed on Monday, May 29th in observance of Memorial Day",,,https://www.castorage.com/self-storage-locations/california/irvine-ca-storage-units/2960-Main-St
StorAmerica Self Storage,,42189 Winchester Rd ,,Temecula ,CA,92590,United States,(951) 383-3567,,,"Office Hours: Monday 9:00AM - 6:00PM Tuesday 9:00AM - 6:00PM Wednesday 9:00AM - 6:00PM Thursday 9:00AM - 6:00PM Friday 9:00AM - 6:00PM Saturday 9:00AM - 6:00PM Sunday Closed Access Hours: Monday 7:00AM - 7:00PM Tuesday 7:00AM - 7:00PM Wednesday 7:00AM - 7:00PM Thursday 7:00AM - 7:00PM Friday 7:00AM - 7:00PM Saturday 7:00AM - 7:00PM Sunday 7:00AM - 7:00PM Additional Hours: Our offices and gate access will be closed on Monday, May 29th in observance of Memorial Day",,,https://www.castorage.com/self-storage-locations/california/temecula-ca-storage-units/42189-Winchester-Rd
StorAmerica Self Storage,,45800 Flower Street ,,Indio ,CA,92201,United States,(760) 203-5851,,,"Office Hours: Monday 9:00AM -6:00PM Tuesday 9:00AM -6:00PM Wednesday 9:00AM -6:00PM Thursday 9:00AM -6:00PM Friday 9:00AM -6:00PM Saturday 9:00AM -6:00PM Sunday Closed Access Hours: Monday 6:00AM -7:45PM Tuesday 6:00AM -7:45PM Wednesday 6:00AM -7:45PM Thursday 6:00AM -7:45PM Friday 6:00AM -7:45PM Saturday 6:00AM -7:45PM Sunday 6:00AM -7:45PM Additional Hours: Our offices and gate access will be closed on Monday, May 29th in observance of Memorial Day",,,https://www.castorage.com/self-storage-locations/california/indio-ca-storage-units/45800-Flower-Street
Rancho RV & Self Storage,,12050 Arrow Rte ,,Rancho Cucamonga ,CA,91739,United States,(909) 584-5724,,,"Office Hours: Monday 9:00AM - 6:00PM Tuesday 9:00AM - 6:00PM Wednesday 9:00AM - 6:00PM Thursday 9:00AM - 6:00PM Friday 9:00AM - 6:00PM Saturday 9:00AM - 6:00PM Sunday Closed Access Hours: Monday 6:00AM - 10:00PM Tuesday 6:00AM - 10:00PM Wednesday 6:00AM - 10:00PM Thursday 6:00AM - 10:00PM Friday 6:00AM - 10:00PM Saturday 6:00AM - 10:00PM Sunday 6:00AM - 10:00PM Additional Hours: Our offices and gate access will be closed on Monday, May 29th in observance of Memorial Day",,,https://www.castorage.com/self-storage-locations/california/rancho-cucamonga-ca-storage-units/12050-Arrow-Rte
StorAmerica Self Storage,,43421 Monroe St ,,Indio ,CA,92201,United States,(760) 523-2688,,,"Office Hours: Monday 9:00AM - 6:00PM Tuesday 9:00AM - 6:00PM Wednesday 9:00AM - 6:00PM Thursday 9:00AM - 6:00PM Friday 9:00AM - 6:00PM Saturday 9:00AM - 6:00PM Sunday Closed Access Hours: Monday 7:00AM - 9:00PM Tuesday 7:00AM - 9:00PM Wednesday 7:00AM - 9:00PM Thursday 7:00AM - 9:00PM Friday 7:00AM - 9:00PM Saturday 7:00AM - 9:00PM Sunday 7:00AM - 9:00PM Additional Hours: Our offices and gate access will be closed on Monday, May 29th in observance of Memorial Day",,,https://www.castorage.com/self-storage-locations/california/indio-ca-storage-units/43421-Monroe-St
StorAmerica Self Storage,,12024 Center St ,,South Gate ,CA,90280,United States,(562) 270-1679,,,"Office Hours: Monday 8:00AM -7:00PM Tuesday 8:00AM -7:00PM Wednesday 8:00AM -7:00PM Thursday 8:00AM -7:00PM Friday 8:00AM -7:00PM Saturday 8:00AM -7:00PM Sunday 9:00AM -6:00PM Access Hours: Monday 8:00AM -6:45PM Tuesday 8:00AM -6:45PM Wednesday 8:00AM -6:45PM Thursday 8:00AM -6:45PM Friday 8:00AM -6:45PM Saturday 8:00AM -6:45PM Sunday 9:00AM -5:45PM Additional Hours: Our offices and gate access will be closed on Monday, May 29th in observance of Memorial Day",,,https://www.castorage.com/self-storage-locations/california/south-gate-ca-storage-units/12024-Center-St
Plano Self Storage,,30359 Esperanza ,,Rancho Santa Margarita ,CA,92688,United States,(949) 390-9787,,,"Office Hours: Monday 9:00AM -6:00PM Tuesday 9:00AM -6:00PM Wednesday 9:00AM -6:00PM Thursday 9:00AM -6:00PM Friday 9:00AM -6:00PM Saturday 9:00AM -6:00PM Sunday Closed Access Hours: Monday 7:00AM -7:00PM Tuesday 7:00AM -7:00PM Wednesday 7:00AM -7:00PM Thursday 7:00AM -7:00PM Friday 7:00AM -7:00PM Saturday 7:00AM -7:00PM Sunday 7:00AM -7:00PM Additional Hours: Our offices and gate access will be closed on Monday, May 29th in observance of Memorial Day",,,https://www.castorage.com/self-storage-locations/california/rancho-santa-margarita-ca-storage-units/30359-Esperanza
Sunnymead Self Storage,,14125 Indian Street ,,Moreno Valley ,CA,92553,United States,(951) 376-5110,,,"Office Hours: Monday 8:00am - 5:00pm Tuesday 8:00am - 5:00pm Wednesday 8:00am - 5:00pm Thursday 8:00am - 5:00pm Friday 8:00am - 5:00pm Saturday 8:00am - 5:00pm Sunday Closed Access Hours: Monday 7:00am - 6:00pm Tuesday 7:00am - 6:00pm Wednesday 7:00am - 6:00pm Thursday 7:00am - 6:00pm Friday 7:00am - 6:00pm Saturday 7:00am - 6:00pm Sunday 7:00am - 6:00pm Additional Hours: Our offices and gate access will be closed on Monday, May 29th in observance of Memorial Day",,,https://www.castorage.com/self-storage-locations/california/moreno-valley-ca-storage-units/14125-Indian-Street
Universal Self Storage,,3086 Kendall Drive ,,San Bernardino ,CA,92407,United States,(909) 361-3341,,,"Office Hours: Monday 9:00AM -6:00PM Tuesday 9:00AM -6:00PM Wednesday 9:00AM -6:00PM Thursday 9:00AM -6:00PM Friday 9:00AM -6:00PM Saturday 9:00AM -6:00PM Sunday Closed Access Hours: Monday 6:00AM -7:00PM Tuesday 6:00AM -7:00PM Wednesday 6:00AM -7:00PM Thursday 6:00AM -7:00PM Friday 6:00AM -7:00PM Saturday 6:00AM -7:00PM Sunday 6:00AM -7:00PM Additional Hours: Our offices and gate access will be closed on Monday, May 29th in observance of Memorial Day",,,https://www.castorage.com/self-storage-locations/california/san-bernardino-ca-storage-units/3086-Kendall-Drive
All American Self Storage,,6225 El Cajon Blvd ,,San Diego ,CA,92115,United States,(619) 377-8224,,,"Office Hours: Monday 8:00AM - 7:00PM Tuesday 8:00AM - 7:00PM Wednesday 8:00AM - 7:00PM Thursday 8:00AM - 7:00PM Friday 8:00AM - 7:00PM Saturday 8:00AM - 7:00PM Sunday 9:00AM - 6:00PM Access Hours: Monday 8:00AM - 6:45PM Tuesday 8:00AM - 6:45PM Wednesday 8:00AM - 6:45PM Thursday 8:00AM - 6:45PM Friday 8:00AM - 6:45PM Saturday 8:00AM - 6:45PM Sunday 9:00AM - 5:45PM Additional Hours: Our offices and gate access will be closed on Monday, May 29th in observance of Memorial Day",,,https://www.castorage.com/self-storage-locations/california/san-diego-ca-storage-units/6225-El-Cajon-Blvd
Statewide Self Storage,,18671 Van Buren Blvd ,,Riverside ,CA,92508,United States,(951) 732-8984,,,"Office Hours: Monday 9:00AM - 6:00PM Tuesday 9:00AM - 6:00PM Wednesday 9:00AM - 6:00PM Thursday 9:00AM - 6:00PM Friday 9:00AM - 6:00PM Saturday 9:00AM - 6:00PM Sunday Closed Access Hours: Monday 7:00AM - 7:00PM Tuesday 7:00AM - 7:00PM Wednesday 7:00AM - 7:00PM Thursday 7:00AM - 7:00PM Friday 7:00AM - 7:00PM Saturday 7:00AM - 7:00PM Sunday 7:00AM - 7:00PM Additional Hours: Our offices and gate access will be closed on Monday, May 29th in observance of Memorial Day",,,https://www.castorage.com/self-storage-locations/california/riverside-ca-storage-units/18671-Van-Buren-Blvd
StorAmerica Self Storage,,395 Iowa Ave ,,Riverside ,CA,92507,United States,(951) 387-5898,,,"Office Hours: Monday 9:00AM -6:00PM Tuesday 9:00AM -6:00PM Wednesday 9:00AM -6:00PM Thursday 9:00AM -6:00PM Friday 9:00AM -6:00PM Saturday 9:00AM -6:00PM Sunday Closed Access Hours: Monday 7:00AM -6:45PM Tuesday 7:00AM -6:45PM Wednesday 7:00AM -6:45PM Thursday 7:00AM -6:45PM Friday 7:00AM -6:45PM Saturday 7:00AM -6:45PM Sunday 7:00AM -6:45PM Additional Hours: Our offices and gate access will be closed on Monday, May 29th in observance of Memorial Day",,,https://www.castorage.com/self-storage-locations/california/riverside-ca-storage-units/395-Iowa-Ave
Alessandro Self Storage,,21941 Alessandro Blvd ,,Moreno Valley ,CA,92553,United States,(951) 226-5999,,,"Office Hours: Monday 10:00AM -7:00PM Tuesday 10:00AM -7:00PM Wednesday 10:00AM -7:00PM Thursday 10:00AM -7:00PM Friday 10:00AM -7:00PM Saturday 10:00AM -7:00PM Sunday 10:00AM -7:00PM Access Hours: Monday 7:00AM -6:45PM Tuesday 7:00AM -6:45PM Wednesday 7:00AM -6:45PM Thursday 7:00AM -6:45PM Friday 7:00AM -6:45PM Saturday 7:00AM -6:45PM Sunday 7:00AM -3:45PM Additional Hours: Our offices and gate access will be closed on Monday, May 29th in observance of Memorial Day",,,https://www.castorage.com/self-storage-locations/california/moreno-valley-ca-storage-units/21941-Alessandro-Blvd
Mission Village Private Storage,,8131 Lindbergh Drive ,,Riverside ,CA,92508,United States,(951) 387-5909,,,"Office Hours: Monday 9:00AM -6:00PM Tuesday 9:00AM -6:00PM Wednesday 9:00AM -6:00PM Thursday 9:00AM -6:00PM Friday 9:00AM -6:00PM Saturday 9:00AM -6:00PM Sunday Closed Access Hours: Monday 6:00AM -8:00PM Tuesday 6:00AM -8:00PM Wednesday 6:00AM -8:00PM Thursday 6:00AM -8:00PM Friday 6:00AM -8:00PM Saturday 6:00AM -8:00PM Sunday 6:00AM -8:00PM Additional Hours: Our offices and gate access will be closed on Monday, May 29th in observance of Memorial Day",,,https://www.castorage.com/self-storage-locations/california/riverside-ca-storage-units/8131-Lindbergh-Drive
710 Del Amo Self Storage & RV,,20321 S. Susana Rd ,,Rancho Dominguez ,CA,90221,United States,(310) 692-9500,,,"Office Hours: Monday 8:00AM - 7:00PM Tuesday 8:00AM - 7:00PM Wednesday 8:00AM - 7:00PM Thursday 8:00AM - 7:00PM Friday 8:00AM - 7:00PM Saturday 8:00AM - 7:00PM Sunday 9:00AM - 6:00PM Access Hours: Monday 8:00AM - 6:45PM Tuesday 8:00AM - 6:45PM Wednesday 8:00AM - 6:45PM Thursday 8:00AM - 6:45PM Friday 8:00AM - 6:45PM Saturday 8:00AM - 6:45PM Sunday 9:00AM - 5:45PM Additional Hours: Our offices and gate access will be closed on Monday, May 29th in observance of Memorial Day",,,https://www.castorage.com/self-storage-locations/california/rancho-dominguez-ca-storage-units/20321-S.-Susana-Rd
StorAmerica Self Storage,,2926 North Perris Blvd ,,Perris ,CA,92571,United States,(951) 432-5100,,,"Office Hours: Monday 9:00AM -6:00PM Tuesday 9:00AM -6:00PM Wednesday 9:00AM -6:00PM Thursday 9:00AM -6:00PM Friday 9:00AM -6:00PM Saturday 9:00AM -6:00PM Sunday Closed Access Hours: Monday 7:00AM -5:45PM Tuesday 7:00AM -5:45PM Wednesday 7:00AM -5:45PM Thursday 7:00AM -5:45PM Friday 7:00AM -5:45PM Saturday 7:00AM -5:45PM Sunday 7:00AM -5:45PM Additional Hours: Our offices and gate access will be closed on Monday, May 29th in observance of Memorial Day",,,https://www.castorage.com/self-storage-locations/california/perris-ca-storage-units/2926-North-Perris-Blvd
Country Club Self Storage,,749 Main Street ,,Riverside ,CA,92501,United States,(951) 667-5003,,,"Office Hours: Monday 9:00AM -6:00PM Tuesday 9:00AM -6:00PM Wednesday 9:00AM -6:00PM Thursday 9:00AM -6:00PM Friday 9:00AM -6:00PM Saturday 9:00AM -6:00PM Sunday Closed Access Hours: Monday 6:00AM -9:00PM Tuesday 6:00AM -9:00PM Wednesday 6:00AM -9:00PM Thursday 6:00AM -9:00PM Friday 6:00AM -9:00PM Saturday 6:00AM -9:00PM Sunday 6:00AM -9:00PM Additional Hours: Our offices and gate access will be closed on Monday, May 29th in observance of Memorial Day",,,https://www.castorage.com/self-storage-locations/california/riverside-ca-storage-units/749-Main-Street
Paramount-Jackson Self Storage,,7752 Jackson St ,,Paramount ,CA,90723,United States,(562) 726-2926,,,"Office Hours: Monday 8:00AM -7:00PM Tuesday 8:00AM -7:00PM Wednesday 8:00AM -7:00PM Thursday 8:00AM -7:00PM Friday 8:00AM -7:00PM Saturday 8:00AM -7:00PM Sunday 9:00AM -6:00PM Access Hours: Monday 8:00AM -6:45PM Tuesday 8:00AM -6:45PM Wednesday 8:00AM -6:45PM Thursday 8:00AM -6:45PM Friday 8:00AM -6:45PM Saturday 8:00AM -6:45PM Sunday 8:00AM -6:45PM Additional Hours: Our offices and gate access will be closed on Monday, May 29th in observance of Memorial Day",,,https://www.castorage.com/self-storage-locations/california/paramount-ca-storage-units/7752-Jackson-St
Arlington Self Storage,,9660 Arlington Ave. ,,Riverside ,CA,92503,United States,(951) 291-0809,,,"Office Hours: Monday 10:00AM -7:00PM Tuesday 10:00AM -7:00PM Wednesday 10:00AM -7:00PM Thursday 10:00AM -7:00PM Friday 10:00AM -7:00PM Saturday 10:00AM -7:00PM Sunday 10:00AM -7:00PM Access Hours: Monday 7:00AM -6:45PM Tuesday 7:00AM -6:45PM Wednesday 7:00AM -6:45PM Thursday 7:00AM -6:45PM Friday 7:00AM -6:45PM Saturday 7:00AM -6:45PM Sunday 7:00AM -3:45PM Additional Hours: Our offices and gate access will be closed on Monday, May 29th in observance of Memorial Day",,,https://www.castorage.com/self-storage-locations/california/riverside-ca-storage-units/9660-Arlington-Ave.
Leave It Lock It Self Storage,,1825 Service Court ,,Riverside ,CA,92507,United States,(951) 291-0725,,,"Office Hours: Monday 9:00AM - 6:00PM Tuesday 9:00AM - 6:00PM Wednesday 9:00AM - 6:00PM Thursday 9:00AM - 6:00PM Friday 9:00AM - 6:00PM Saturday 9:00AM - 6:00PM Sunday Closed Access Hours: Monday 6:00AM - 9:00PM Tuesday 6:00AM - 9:00PM Wednesday 6:00AM - 9:00PM Thursday 6:00AM - 9:00PM Friday 6:00AM - 9:00PM Saturday 6:00AM - 9:00PM Sunday 6:00AM - 9:00PM Additional Hours: Our offices and gate access will be closed on Monday, May 29th in observance of Memorial Day",,,https://www.castorage.com/self-storage-locations/california/riverside-ca-storage-units/1825-Service-Court
StorAmerica Self Storage,,2431 Rubidoux ,,Riverside ,CA,92509,United States,(951) 387-5897,,,"Office Hours: Monday 9:00AM -6:00PM Tuesday 9:00AM -6:00PM Wednesday 9:00AM -6:00PM Thursday 9:00AM -6:00PM Friday 9:00AM -6:00PM Saturday 9:00AM -6:00PM Sunday Closed Access Hours: Monday 7:00AM -6:45PM Tuesday 7:00AM -6:45PM Wednesday 7:00AM -6:45PM Thursday 7:00AM -6:45PM Friday 7:00AM -6:45PM Saturday 7:00AM -6:45PM Sunday 7:00AM -6:45PM Additional Hours: Our offices and gate access will be closed on Monday, May 29th in observance of Memorial Day",,,https://www.castorage.com/self-storage-locations/california/riverside-ca-storage-units/2431-Rubidoux
AllSafe Freeway Storage,,1807 Columbia Avenue ,,Riverside ,CA,92507,United States,(951) 790-2963,,,"Office Hours: Monday 9:00AM - 6:00PM Tuesday 9:00AM - 6:00PM Wednesday 9:00AM - 6:00PM Thursday 9:00AM - 6:00PM Friday 9:00AM - 6:00PM Saturday 9:00AM - 6:00PM Sunday Closed Access Hours: Monday 6:00AM - 9:00PM Tuesday 6:00AM - 9:00PM Wednesday 6:00AM - 9:00PM Thursday 6:00AM - 9:00PM Friday 6:00AM - 9:00PM Saturday 6:00AM - 9:00PM Sunday 6:00AM - 9:00PM Additional Hours: Our offices and gate access will be closed on Monday, May 29th in observance of Memorial Day",,,https://www.castorage.com/self-storage-locations/california/riverside-ca-storage-units/1807-Columbia-Avenue
Mary Street Self Storage,,3248 Mary Street ,,Riverside ,CA,92506,United States,(951) 384-0310,,,"Office Hours: Monday 9:00AM - 6:00PM Tuesday 9:00AM - 6:00PM Wednesday 9:00AM - 6:00PM Thursday 9:00AM - 6:00PM Friday 9:00AM - 6:00PM Saturday 9:00AM - 6:00PM Sunday Closed Access Hours: Monday 6:00AM - 9:00PM Tuesday 6:00AM - 9:00PM Wednesday 6:00AM - 9:00PM Thursday 6:00AM - 9:00PM Friday 6:00AM - 9:00PM Saturday 6:00AM - 9:00PM Sunday 6:00AM - 9:00PM Additional Hours: Our offices and gate access will be closed on Monday, May 29th in observance of Memorial Day",,,https://www.castorage.com/self-storage-locations/california/riverside-ca-storage-units/3248-Mary-Street
Universal Self Storage,,1695 N. Benson ,,Upland ,CA,91784,United States,(909) 303-6664,,,"Office Hours: Monday 8:00AM -5:00PM Tuesday 8:00AM -5:00PM Wednesday 8:00AM -5:00PM Thursday 8:00AM -5:00PM Friday 8:00AM -5:00PM Saturday 8:00AM -5:00PM Sunday Closed Access Hours: Monday 6:00AM -7:00PM Tuesday 6:00AM -7:00PM Wednesday 6:00AM -7:00PM Thursday 6:00AM -7:00PM Friday 6:00AM -7:00PM Saturday 6:00AM -7:00PM Sunday 6:00AM -7:00PM Additional Hours: Our offices and gate access will be closed on Monday, May 29th in observance of Memorial Day",,,https://www.castorage.com/self-storage-locations/california/upland-ca-storage-units/1695-N.-Benson
StorAmerica Self Storage,,10580 Benson Ave ,,Montclair ,CA,91763,United States,(909) 992-0603,,,"Office Hours: Monday 9:00AM - 6:00PM Tuesday 9:00AM - 6:00PM Wednesday 9:00AM - 6:00PM Thursday 9:00AM - 6:00PM Friday 9:00AM - 6:00PM Saturday 9:00AM - 6:00PM Sunday Closed Access Hours: Monday 6:00AM - 9:00PM Tuesday 6:00AM - 9:00PM Wednesday 6:00AM - 9:00PM Thursday 6:00AM - 9:00PM Friday 6:00AM - 9:00PM Saturday 6:00AM - 9:00PM Sunday 6:00AM - 9:00PM Additional Hours: Our offices and gate access will be closed on Monday, May 29th in observance of Memorial Day",,,https://www.castorage.com/self-storage-locations/california/montclair-ca-storage-units/10580-Benson-Ave
Upland Self Storage,,2026 West Foothill Blvd ,,Upland ,CA,91786,United States,(909) 341-0893,,,"Office Hours: Monday 9:00AM -6:00PM Tuesday 9:00AM -6:00PM Wednesday 9:00AM -6:00PM Thursday 9:00AM -6:00PM Friday 9:00AM -6:00PM Saturday 9:00AM -6:00PM Sunday Closed Access Hours: Monday 7:00AM -6:45PM Tuesday 7:00AM -6:45PM Wednesday 7:00AM -6:45PM Thursday 7:00AM -6:45PM Friday 7:00AM -6:45PM Saturday 7:00AM -6:45PM Sunday 7:00AM -6:45PM Additional Hours: Our offices and gate access will be closed on Monday, May 29th in observance of Memorial Day",,,https://www.castorage.com/self-storage-locations/california/upland-ca-storage-units/2026-West-Foothill-Blvd
StorAmerica Self Storage,,1661 S. Campus Ave ,,Ontario ,CA,91761,United States,(909) 265-4966,,,"Office Hours: Monday 9:00AM - 6:00PM Tuesday 9:00AM - 6:00PM Wednesday 9:00AM - 6:00PM Thursday 9:00AM - 6:00PM Friday 9:00AM - 6:00PM Saturday 9:00AM - 6:00PM Sunday Closed Access Hours: Monday 7:00AM - 7:00PM Tuesday 7:00AM - 7:00PM Wednesday 7:00AM - 7:00PM Thursday 7:00AM - 7:00PM Friday 7:00AM - 7:00PM Saturday 7:00AM - 7:00PM Sunday 7:00AM - 7:00PM Additional Hours: Our offices and gate access will be closed on Monday, May 29th in observance of Memorial Day",,,https://www.castorage.com/self-storage-locations/california/ontario-ca-storage-units/1661-S.-Campus-Ave
Storage Max Self Storage,,8363 E Foothill Blvd ,,Rancho Cucamonga ,CA,91730,United States,(909) 315-5138,,,"Office Hours: Monday 9:00AM -6:00PM Tuesday 9:00AM -6:00PM Wednesday 9:00AM -6:00PM Thursday 9:00AM -6:00PM Friday 9:00AM -6:00PM Saturday 9:00AM -6:00PM Sunday Closed Access Hours: Monday 6:00AM -9:00PM Tuesday 6:00AM -9:00PM Wednesday 6:00AM -9:00PM Thursday 6:00AM -9:00PM Friday 6:00AM -9:00PM Saturday 6:00AM -9:00PM Sunday 6:00AM -9:00PM Additional Hours: Our offices and gate access will be closed on Monday, May 29th in observance of Memorial Day",,,https://www.castorage.com/self-storage-locations/california/rancho-cucamonga-ca-storage-units/8363-E-Foothill-Blvd
StorAmerica Self Storage,,4455 Federal Blvd ,,San Diego ,CA,92102,United States,(619) 359-8339,,,"Office Hours: Monday 8:00AM -7:00PM Tuesday 8:00AM -7:00PM Wednesday 8:00AM -7:00PM Thursday 8:00AM -7:00PM Friday 8:00AM -7:00PM Saturday 8:00AM -7:00PM Sunday 9:00AM -6:00PM Access Hours: Monday 7:00AM -6:45PM Tuesday 7:00AM -6:45PM Wednesday 7:00AM -6:45PM Thursday 7:00AM -6:45PM Friday 7:00AM -6:45PM Saturday 7:00AM -6:45PM Sunday 7:00AM -5:45PM Additional Hours: Our offices and gate access will be closed on Monday, May 29th in observance of Memorial Day",,,https://www.castorage.com/self-storage-locations/california/san-diego-ca-storage-units/4455-Federal-Blvd
Carlsbad Airport Self Storage,,1910 Palomar Oaks Way ,,Carlsbad ,CA,92008,United States,(760) 718-1796,,,"Office Hours: Monday 9:00AM - 6:00PM Tuesday 9:00AM - 6:00PM Wednesday 9:00AM - 6:00PM Thursday 9:00AM - 6:00PM Friday 9:00AM - 6:00PM Saturday 9:00AM - 6:00PM Sunday Closed Access Hours: Monday 7:00AM - 6:00PM Tuesday 7:00AM - 6:00PM Wednesday 7:00AM - 6:00PM Thursday 7:00AM - 6:00PM Friday 7:00AM - 6:00PM Saturday 7:00AM - 6:00PM Sunday 7:00AM - 5:00PM Additional Hours: Our offices and gate access will be closed on Monday, May 29th in observance of Memorial Day",,,https://www.castorage.com/self-storage-locations/california/carlsbad-ca-storage-units/1910-Palomar-Oaks-Way
StorAmerica Self Storage,,4550 E Mesquite Ave ,,Palm Springs ,CA,92264,United States,(760) 289-5912,,,"Office Hours: Monday 9:00AM -6:00PM Tuesday 9:00AM -6:00PM Wednesday 9:00AM -6:00PM Thursday 9:00AM -6:00PM Friday 9:00AM -6:00PM Saturday 9:00AM -6:00PM Sunday Closed Access Hours: Monday 6:00AM -10:00PM Tuesday 6:00AM -10:00PM Wednesday 6:00AM -10:00PM Thursday 6:00AM -10:00PM Friday 6:00AM -10:00PM Saturday 6:00AM -10:00PM Sunday 6:00AM -10:00PM Additional Hours: Our offices and gate access will be closed on Monday, May 29th in observance of Memorial Day",,,https://www.castorage.com/self-storage-locations/california/palm-springs-ca-storage-units/4550-E-Mesquite-Ave
Power Self Storage,,16408 E Gale Ave ,,City of Industry ,CA,91745,United States,(626) 465-3176,,,"Office Hours: Monday 9:00AM -6:00PM Tuesday 9:00AM -6:00PM Wednesday 9:00AM -6:00PM Thursday 9:00AM -6:00PM Friday 9:00AM -6:00PM Saturday 9:00AM -6:00PM Sunday Closed Access Hours: Monday 9:00AM -5:45PM Tuesday 9:00AM -5:45PM Wednesday 9:00AM -5:45PM Thursday 9:00AM -5:45PM Friday 9:00AM -5:45PM Saturday 9:00AM -5:45PM Sunday 9:00AM -5:45PM Additional Hours: Our offices and gate access will be closed on Monday, May 29th in observance of Memorial Day",,,https://www.castorage.com/self-storage-locations/california/city-of-industry-ca-storage-units/16408-E-Gale-Ave
StorAmerica Self Storage,,3560 Mission Ave. ,,Oceanside ,CA,92058,United States,(760) 332-8956,,,"Office Hours: Monday 9:00AM - 6:00PM Tuesday 9:00AM - 6:00PM Wednesday 9:00AM - 6:00PM Thursday 9:00AM - 6:00PM Friday 9:00AM - 6:00PM Saturday 9:00AM - 6:00PM Sunday Closed Access Hours: Monday 7:00AM - 6:45PM Tuesday 7:00AM - 6:45PM Wednesday 7:00AM - 6:45PM Thursday 7:00AM - 6:45PM Friday 7:00AM - 6:45PM Saturday 7:00AM - 6:45PM Sunday 7:00AM - 6:45PM Additional Hours: Our offices and gate access will be closed on Monday, May 29th in observance of Memorial Day",,,https://www.castorage.com/self-storage-locations/california/oceanside-ca-storage-units/3560-Mission-Ave.
StorAmerica Self Storage,,5630 Peck Rd ,,Arcadia ,CA,91006,United States,(626) 667-4966,,,"Office Hours: Monday 9:00AM -6:00PM Tuesday 9:00AM -6:00PM Wednesday 9:00AM -6:00PM Thursday 9:00AM -6:00PM Friday 9:00AM -6:00PM Saturday 9:00AM -6:00PM Sunday Closed Access Hours: Monday 7:00AM -6:45PM Tuesday 7:00AM -6:45PM Wednesday 7:00AM -6:45PM Thursday 7:00AM -6:45PM Friday 7:00AM -6:45PM Saturday 7:00AM -6:45PM Sunday 7:00AM -6:45PM Additional Hours: Our offices and gate access will be closed on Monday, May 29th in observance of Memorial Day",,,https://www.castorage.com/self-storage-locations/california/arcadia-ca-storage-units/5630-Peck-Rd
StorAmerica Self Storage,,1441 N Baxter St ,,Anaheim ,CA,92806,United States,(714) 361-9662,,,"Office Hours: Monday 9:00AM -6:00PM Tuesday 9:00AM -6:00PM Wednesday 9:00AM -6:00PM Thursday 9:00AM -6:00PM Friday 9:00AM -6:00PM Saturday 9:00AM -6:00PM Sunday Closed Access Hours: Monday 7:00AM -7:00PM Tuesday 7:00AM -7:00PM Wednesday 7:00AM -7:00PM Thursday 7:00AM -7:00PM Friday 7:00AM -7:00PM Saturday 7:00AM -7:00PM Sunday 7:00AM -7:00PM Additional Hours: Our offices and gate access will be closed on Monday, May 29th in observance of Memorial Day",,,https://www.castorage.com/self-storage-locations/california/anaheim-ca-storage-units/1441-N-Baxter-St
StorAmerica Self Storage,,6933 E. Thomas Rd ,,Scottsdale ,AZ,85251,United States,(480) 269-9751,,,"Office Hours: Monday 8:00AM -7:00PM Tuesday 8:00AM -7:00PM Wednesday 8:00AM -7:00PM Thursday 8:00AM -7:00PM Friday 8:00AM -7:00PM Saturday 8:00AM -7:00PM Sunday 8:00AM -7:00PM Access Hours: Monday 8:00AM -6:45PM Tuesday 8:00AM -6:45PM Wednesday 8:00AM -6:45PM Thursday 8:00AM -6:45PM Friday 8:00AM -6:45PM Saturday 8:00AM -6:45PM Sunday 8:00AM -6:45PM Additional Hours: Our offices and gate access will be closed on Monday, May 29th in observance of Memorial Day",,,https://www.castorage.com/self-storage-locations/arizona/scottsdale-az-storage-units/6933-E.-Thomas-Rd
StorAmerica Self Storage,,2845 N. 52nd St ,,Phoenix ,AZ,85008,United States,(480) 382-3891,,,"Office Hours: Monday 8:00AM -7:00PM Tuesday 8:00AM -7:00PM Wednesday 8:00AM -7:00PM Thursday 8:00AM -7:00PM Friday 8:00AM -7:00PM Saturday 8:00AM -7:00PM Sunday 8:00AM -7:00PM Access Hours: Monday 8:00AM -6:45PM Tuesday 8:00AM -6:45PM Wednesday 8:00AM -6:45PM Thursday 8:00AM -6:45PM Friday 8:00AM -6:45PM Saturday 8:00AM -6:45PM Sunday 8:00AM -6:45PM Additional Hours: Our offices and gate access will be closed on Monday, May 29th in observance of Memorial Day",,,https://www.castorage.com/self-storage-locations/arizona/phoenix-az-storage-units/2845-N.-52nd-St
Goodyear Self Storage & RV,,2121 S Litchfield Road ,,Goodyear ,AZ,85338,United States,(602) 551-8975,,,"Office Hours: Monday 9:00AM -6:00PM Tuesday 9:00AM -6:00PM Wednesday 9:00AM -6:00PM Thursday 9:00AM -6:00PM Friday 9:00AM -6:00PM Saturday 9:00AM -6:00PM Sunday Closed Access Hours: Monday 6:00AM -7:45PM Tuesday 6:00AM -7:45PM Wednesday 6:00AM -7:45PM Thursday 6:00AM -7:45PM Friday 6:00AM -7:45PM Saturday 6:00AM -7:45PM Sunday 6:00AM -7:45PM Additional Hours: Our offices and gate access will be closed on Monday, May 29th in observance of Memorial Day",,,https://www.castorage.com/self-storage-locations/arizona/goodyear-az-storage-units/2121-S-Litchfield-Road
StorAmerica Self Storage,,3114 N. 24th St ,,Phoenix ,AZ,85016,United States,(623) 980-3910,,,"Office Hours: Monday 8:00AM -7:00PM Tuesday 8:00AM -7:00PM Wednesday 8:00AM -7:00PM Thursday 8:00AM -7:00PM Friday 8:00AM -7:00PM Saturday 8:00AM -7:00PM Sunday 8:00AM -7:00PM Access Hours: Monday 8:00AM -6:45PM Tuesday 8:00AM -6:45PM Wednesday 8:00AM -6:45PM Thursday 8:00AM -6:45PM Friday 8:00AM -6:45PM Saturday 8:00AM -6:45PM Sunday 8:00AM -6:45PM Additional Hours: Our offices and gate access will be closed on Monday, May 29th in observance of Memorial Day",,,https://www.castorage.com/self-storage-locations/arizona/phoenix-az-storage-units/3114-N.-24th-St
