store_name,store_number,address,address2,city,state,zip_code,country,phone_number,latitude,longitude,store_hours,store_type,other_fields,coming_soon
CHELSEA,154,110 7th Avenue,Chelsea,New York,NY,10011,US,(212) 633-2203,40.740343,-73.998768,"Monday 10:00 AM - 8:00 PM, Tuesday 10:00 AM - 8:00 PM, Wednesday 10:00 AM - 8:00 PM, Thursday 10:00 AM - 8:00 PM, Friday 10:00 AM - 8:00 PM, Saturday 10:00 AM - 8:00 PM, Sunday 11:00 AM - 6:00 PM",Standard,,
SHOPS AT COLUMBUS CIRCLE,3,10 Columbus Circle,Suite 114,New York,NY,10019,US,(212) 581-1146,40.76876,-73.983205,"Monday 10:00 AM - 7:00 PM, Tuesday 10:00 AM - 9:00 PM, Wednesday 10:00 AM - 9:00 PM, Thursday 10:00 AM - 9:00 PM, Friday 10:00 AM - 9:00 PM, Saturday 10:00 AM - 9:00 PM, Sunday 11:00 AM - 8:00 PM",Standard,,
MADISON AVE,65,1175 Madison Avenue,86th And Madison,New York,NY,10028,US,(212) 289-6832,40.781078,-73.95842,"Monday 10:00 AM - 7:00 PM, Tuesday 10:00 AM - 7:00 PM, Wednesday 10:00 AM - 7:00 PM, Thursday 10:00 AM - 7:00 PM, Friday 10:00 AM - 7:00 PM, Saturday 10:00 AM - 7:00 PM, Sunday 11:00 AM - 6:00 PM",Standard,,
HACKENSACK,72,225 Riverside Square,,Hackensack,NJ,07601,US,(201) 488-3440,40.907443,-74.032371,"Monday 10:00 AM - 9:00 PM, Tuesday 10:00 AM - 9:00 PM, Wednesday 10:00 AM - 9:00 PM, Thursday 10:00 AM - 9:00 PM, Friday 10:00 AM - 9:00 PM, Saturday 10:00 AM - 9:00 PM, Sunday Closed",Standard,,
UPPER MONTCLAIR,480,630 Valley Rd,,Upper Montclair,NJ,07043,US,(973) 783-1799,40.842366,-74.208374,"Monday 10:00 AM - 7:00 PM, Tuesday 10:00 AM - 8:00 PM, Wednesday 10:00 AM - 8:00 PM, Thursday 10:00 AM - 8:00 PM, Friday 10:00 AM - 8:00 PM, Saturday 10:00 AM - 8:00 PM, Sunday 11:00 AM - 5:00 PM",Standard,,
WESTFIELD,312,127 Central Avenue,,Westfield,NJ,07090,US,(908) 301-0075,40.651854,-74.346801,"Monday 10:00 AM - 7:00 PM, Tuesday 10:00 AM - 7:00 PM, Wednesday 10:00 AM - 7:00 PM, Thursday 10:00 AM - 9:00 PM, Friday 10:00 AM - 7:00 PM, Saturday 10:00 AM - 7:00 PM, Sunday 11:00 AM - 5:00 PM",Standard,,
MALL AT SHORT HILLS,815,1200 Morris Turnpike,B-258,Short Hills,NJ,07078,US,(973) 467-3641,40.739637,-74.365637,"Monday 10:00 AM - 9:00 PM, Tuesday 10:00 AM - 9:00 PM, Wednesday 10:00 AM - 9:00 PM, Thursday 10:00 AM - 9:00 PM, Friday 10:00 AM - 9:00 PM, Saturday 10:00 AM - 8:00 PM, Sunday Closed",Standard,,
ROOSEVELT FIELD,223,Roosevelt Field Shopping Ctr,Space 1033,Garden City,NY,11530,US,(516) 742-0342,40.738063,-73.612808,"Monday 10:00 AM - 9:30 PM, Tuesday 10:00 AM - 9:30 PM, Wednesday 10:00 AM - 9:30 PM, Thursday 10:00 AM - 9:30 PM, Friday 10:00 AM - 9:30 PM, Saturday 10:00 AM - 9:30 PM, Sunday 11:00 AM - 7:00 PM",Standard,,
TICES CORNER,454,395 Chestnut Ridge Road,Space #3,Woodcliff Lake,NJ,07677,US,(201) 307-8762,41.040396,-74.075746,"Monday 10:00 AM - 8:00 PM, Tuesday 10:00 AM - 8:00 PM, Wednesday 10:00 AM - 8:00 PM, Thursday 10:00 AM - 8:00 PM, Friday 10:00 AM - 8:00 PM, Saturday 10:00 AM - 8:00 PM, Sunday Closed",Standard,,
THE WESTCHESTER,976,125 Westchester Avenue,Space 1070A,White Plains,NY,10601,US,(914) 644-8360,41.031515,-73.75855,"Monday 10:00 AM - 8:00 PM, Tuesday 10:00 AM - 8:00 PM, Wednesday 10:00 AM - 8:00 PM, Thursday 10:00 AM - 8:00 PM, Friday 10:00 AM - 8:00 PM, Saturday 10:00 AM - 8:00 PM, Sunday 11:00 AM - 6:00 PM",Standard,,
GROVE AT SHREWSBURY,805,579 Route 35,Space N17,Shrewbury,NJ,07702,US,(732) 747-0128,40.332532,-74.060983,"Monday 10:00 AM - 9:00 PM, Tuesday 10:00 AM - 9:00 PM, Wednesday 10:00 AM - 9:00 PM, Thursday 10:00 AM - 9:00 PM, Friday 10:00 AM - 9:00 PM, Saturday 10:00 AM - 6:00 PM, Sunday 12:00 PM - 5:00 PM",Standard,,
WALT WHITMAN,332,160-5 Route 110,Space 1013,Huntington Station,NY,11746,US,(631) 549-4699,40.825986,-73.411995,"Monday 10:00 AM - 9:00 PM, Tuesday 10:00 AM - 9:00 PM, Wednesday 10:00 AM - 9:00 PM, Thursday 10:00 AM - 9:00 PM, Friday 10:00 AM - 9:00 PM, Saturday 10:00 AM - 6:00 PM, Sunday 11:00 AM - 7:00 PM",Standard,,
BRIDGEWATER COMMONS,804,400 Commons Way,Ste 147,Bridgewater,NJ,08807,US,(908) 707-9222,40.585841,-74.619495,"Monday 10:00 AM - 9:00 PM, Tuesday 10:00 AM - 9:00 PM, Wednesday 10:00 AM - 9:00 PM, Thursday 10:00 AM - 9:00 PM, Friday 10:00 AM - 9:00 PM, Saturday 10:00 AM - 9:00 PM, Sunday 10:00 AM - 6:00 PM",Standard,,
STAMFORD TOWN CENTER,472,100 Greyrock Place,Sp. D227,Stamford,CT,06901,US,(203) 961-0977,41.053077,-73.537144,"Monday 10:00 AM - 9:00 PM, Tuesday 10:00 AM - 9:00 PM, Wednesday 10:00 AM - 9:00 PM, Thursday 10:00 AM - 9:00 PM, Friday 10:00 AM - 9:00 PM, Saturday 10:00 AM - 9:00 PM, Sunday 11:00 AM - 6:00 PM",Standard,,
BROOK 35,533,2150 Hwy 35,Ste 24,Sea Girt,NJ,08750,US,(732) 449-5119,40.139196,-74.061066,"Monday 10:00 AM - 5:00 PM, Tuesday 10:00 AM - 8:00 PM, Wednesday 10:00 AM - 8:00 PM, Thursday 10:00 AM - 8:00 PM, Friday 10:00 AM - 8:00 PM, Saturday 10:00 AM - 6:00 PM, Sunday 11:00 AM - 5:00 PM",Standard,,
PRINCETON MARKET FAIR,90,3535 US-1,Space 312,Princeton,NJ,08540,US,(609) 419-1390,40.314924,-74.660987,"Monday 10:00 AM - 9:00 PM, Tuesday 10:00 AM - 9:00 PM, Wednesday 10:00 AM - 9:00 PM, Thursday 10:00 AM - 9:00 PM, Friday 10:00 AM - 9:00 PM, Saturday 10:00 AM - 9:00 PM, Sunday 11:00 AM - 5:00 PM",Standard,,
WESTPORT,237,136 Main Street,,Westport,CT,06880,US,(203) 221-8667,41.143184,-73.361337,"Monday 10:00 AM - 6:30 PM, Tuesday 10:00 AM - 6:30 PM, Wednesday 10:00 AM - 6:30 PM, Thursday 10:00 AM - 6:30 PM, Friday 10:00 AM - 6:30 PM, Saturday 10:00 AM - 6:30 PM, Sunday 11:00 AM - 5:00 PM",Standard,,
DANBURY FAIR MALL,812,7 Backus Avenue,,Danbury,CT,06810,US,(203) 797-0182,41.380052,-73.481733,"Monday 10:00 AM - 9:00 PM, Tuesday 10:00 AM - 9:00 PM, Wednesday 10:00 AM - 9:00 PM, Thursday 10:00 AM - 9:00 PM, Friday 10:00 AM - 9:00 PM, Saturday 10:00 AM - 9:00 PM, Sunday 11:00 AM - 6:00 PM",Standard,,
TANGER OUTLET CENTER,661,1770 West Main Street,Suite 1601,Riverhead,NY,11901,US,(631) 727-5649,40.919586,-72.716262,"Monday 10:00 AM - 9:00 PM, Tuesday 10:00 AM - 9:00 PM, Wednesday 10:00 AM - 9:00 PM, Thursday 10:00 AM - 9:00 PM, Friday 10:00 AM - 9:00 PM, Saturday 10:00 AM - 9:00 PM, Sunday 10:00 AM - 8:00 PM",Outlet,,
WILLOW GROVE,350,2500 Moreland Road,Suite 1104,Willow Grove,PA,19090,US,(215) 657-1430,40.143128,-75.120134,"Monday 10:00 AM - 9:00 PM, Tuesday 10:00 AM - 9:00 PM, Wednesday 10:00 AM - 9:00 PM, Thursday 10:00 AM - 9:00 PM, Friday 10:00 AM - 9:00 PM, Saturday 10:00 AM - 9:00 PM, Sunday 11:00 AM - 6:00 PM",Standard,,
CHERRY HILL,53,2000 Route 38 Suite 1845,,Cherry Hill,NJ,08002,US,(856) 661-0383,39.942387,-75.025193,"Monday 10:00 AM - 9:30 PM, Tuesday 10:00 AM - 9:30 PM, Wednesday 10:00 AM - 9:30 PM, Thursday 10:00 AM - 9:30 PM, Friday 10:00 AM - 9:30 PM, Saturday 10:00 AM - 9:30 PM, Sunday 11:00 AM - 6:00 PM",Standard,,
LEHIGH VALLEY MALL,953,926 Lehigh Valley Lifestyle Cn,Ste 1310,Whitehall,PA,18052,US,(610) 264-0360,40.629765,-75.480749,"Monday 10:00 AM - 9:00 PM, Tuesday 10:00 AM - 9:00 PM, Wednesday 10:00 AM - 9:00 PM, Thursday 10:00 AM - 9:00 PM, Friday 10:00 AM - 9:00 PM, Saturday 10:00 AM - 9:00 PM, Sunday 11:00 AM - 6:00 PM",Standard,,
THE BELLEVUE,420,200 South Broad St # M6,,Philadelphia,PA,19102,US,(215) 545-7392,39.949078,-75.164858,"Monday 12:00 PM - 5:00 PM, Tuesday 10:00 AM - 7:00 PM, Wednesday 10:00 AM - 7:00 PM, Thursday 10:00 AM - 7:00 PM, Friday 10:00 AM - 7:00 PM, Saturday 10:00 AM - 7:00 PM, Sunday 12:00 PM - 5:00 PM",Standard,,
KING OF PRUSSIA,261,160 North Gulph Road,Suite 1932,King Of Prussia,PA,19406,US,(610) 265-5970,40.087906,-75.389763,"Monday 10:00 AM - 9:00 PM, Tuesday 10:00 AM - 9:00 PM, Wednesday 10:00 AM - 9:00 PM, Thursday 10:00 AM - 9:00 PM, Friday 10:00 AM - 9:00 PM, Saturday 10:00 AM - 9:00 PM, Sunday 11:00 AM - 6:00 PM",Standard,,
BRIDGEHAMPTON COMMONS,807,2044 Montauk Hwy,Space 49,Bridgehampton,NY,11932,US,(631) 537-3040,40.932904,-72.316853,"Monday 10:00 AM - 6:00 PM, Tuesday 10:00 AM - 6:00 PM, Wednesday 10:00 AM - 6:00 PM, Thursday 10:00 AM - 6:00 PM, Friday 10:00 AM - 6:00 PM, Saturday 10:00 AM - 6:00 PM, Sunday 11:00 AM - 6:00 PM",Standard,,
WESTBROOK OUTLET CENTER,75,314 Flatrock Place,Space A145,Westbrook,CT,06498,US,(860) 399-0195,41.289118,-72.429369,"Monday 9:00 AM - 9:00 PM, Tuesday 9:00 AM - 9:00 PM, Wednesday 9:00 AM - 9:00 PM, Thursday 9:00 AM - 9:00 PM, Friday 9:00 AM - 9:00 PM, Saturday 9:00 AM - 9:00 PM, Sunday 10:00 AM - 7:00 PM",Outlet,,
WESTFARMS MALL,839,500 Westfarms Mall,C228,Farmington,CT,06032,US,(860) 561-1494,41.721902,-72.763477,"Monday 10:00 AM - 9:00 PM, Tuesday 10:00 AM - 9:00 PM, Wednesday 10:00 AM - 9:00 PM, Thursday 10:00 AM - 9:00 PM, Friday 10:00 AM - 9:00 PM, Saturday 10:00 AM - 9:00 PM, Sunday 11:00 AM - 6:00 PM",Standard,,
SHOPPES AT BRINTON LAKE,529,937 Baltimore Pike,Space E-100,Glen Mills,PA,19342,US,(484) 840-1950,39.885906,-75.533084,"Monday 10:00 AM - 9:00 PM, Tuesday 10:00 AM - 9:00 PM, Wednesday 10:00 AM - 9:00 PM, Thursday 10:00 AM - 9:00 PM, Friday 10:00 AM - 9:00 PM, Saturday 10:00 AM - 9:00 PM, Sunday 11:00 AM - 6:00 PM",Standard,,
PROMENADE AT EVERGREEN WALK,720,200 Evergreeen Way,Suite 256,South Windsor,CT,06074,US,(860) 644-1990,41.811108,-72.556973,"Monday 10:00 AM - 6:00 PM, Tuesday 10:00 AM - 9:00 PM, Wednesday 10:00 AM - 9:00 PM, Thursday 10:00 AM - 9:00 PM, Friday 10:00 AM - 9:00 PM, Saturday 10:00 AM - 9:00 PM, Sunday 11:00 AM - 6:00 PM",Standard,,
CHRISTIANA,349,178 Christiana Mall,,Newark,DE,19702,US,(302) 368-7707,39.680842,-75.651655,"Monday 10:00 AM - 9:00 PM, Tuesday 10:00 AM - 9:00 PM, Wednesday 10:00 AM - 9:00 PM, Thursday 10:00 AM - 9:00 PM, Friday 10:00 AM - 9:00 PM, Saturday 10:00 AM - 9:00 PM, Sunday 11:00 AM - 6:00 PM",Standard,,
PARK CITY CENTER,948,354 Park City Center,"Spaces C0354, D0338",Lancaster,PA,17601,US,(717) 291-1495,40.065116,-76.341284,"Monday 10:00 AM - 9:00 PM, Tuesday 10:00 AM - 9:00 PM, Wednesday 10:00 AM - 9:00 PM, Thursday 10:00 AM - 9:00 PM, Friday 10:00 AM - 9:00 PM, Saturday 10:00 AM - 9:00 PM, Sunday 11:00 AM - 6:00 PM",Standard,,
CROSSGATES MALL,813,120 Washington Ave Ext,Space 215D,Albany,NY,12203,US,(518) 456-0201,42.691004,-73.85324,"Monday 10:00 AM - 9:30 PM, Tuesday 10:00 AM - 9:30 PM, Wednesday 10:00 AM - 9:30 PM, Thursday 10:00 AM - 9:30 PM, Friday 10:00 AM - 9:30 PM, Saturday 10:00 AM - 9:30 PM, Sunday 11:00 AM - 6:00 PM",Standard,,
GARDEN CITY CENTER,6010,41 Hillside Rd #134,,Cranston,RI,02920,US,(401) 943-0681,41.763552,-71.45879,"Monday 10:00 AM - 9:00 PM, Tuesday 10:00 AM - 9:00 PM, Wednesday 10:00 AM - 9:00 PM, Thursday 10:00 AM - 9:00 PM, Friday 10:00 AM - 9:00 PM, Saturday 10:00 AM - 9:00 PM, Sunday 12:00 PM - 6:00 PM",Standard,,
SHOPS AT SUSQUEHANNA MKPL,729,2571 Brindle Drive,,Harrisburg,PA,17110,US,(717) 652-3465,40.303989,-76.844305,"Monday 10:00 AM - 9:00 PM, Tuesday 10:00 AM - 9:00 PM, Wednesday 10:00 AM - 9:00 PM, Thursday 10:00 AM - 9:00 PM, Friday 10:00 AM - 9:00 PM, Saturday 10:00 AM - 9:00 PM, Sunday 12:00 PM - 6:00 PM",Standard,,
VILLAGE SQUARE,284,70 Village Square,,Baltimore,MD,21210,US,(410) 435-6020,39.354689,-76.64628,"Monday 10:00 AM - 7:00 PM, Tuesday 10:00 AM - 7:00 PM, Wednesday 10:00 AM - 7:00 PM, Thursday 10:00 AM - 7:00 PM, Friday 10:00 AM - 7:00 PM, Saturday 10:00 AM - 6:00 PM, Sunday 11:00 AM - 5:00 PM",Standard,,
NATICK WEST,977,1245 Worcester Street,Suite 3012,Natick,MA,01760,US,(508) 655-2191,42.301926,-71.384379,"Monday 10:00 AM - 9:00 PM, Tuesday 10:00 AM - 9:00 PM, Wednesday 10:00 AM - 9:00 PM, Thursday 10:00 AM - 9:00 PM, Friday 10:00 AM - 9:00 PM, Saturday 10:00 AM - 9:00 PM, Sunday 11:00 AM - 6:00 PM",Standard,,
ANNAPOLIS MALL,701,1705 Annapolis Mall,,Annapolis,MD,21401,US,(410) 571-0589,38.989578,-76.548593,"Monday 10:00 AM - 9:30 PM, Tuesday 10:00 AM - 9:30 PM, Wednesday 10:00 AM - 9:30 PM, Thursday 10:00 AM - 9:30 PM, Friday 10:00 AM - 9:30 PM, Saturday 10:00 AM - 9:30 PM, Sunday 11:00 AM - 7:00 PM",Standard,,
LEGACY PLACE,790,520 Legacy Place,,Dedham,MA,02026,US,(781) 326-5120,42.230685,-71.178237,"Monday 10:00 AM - 6:00 PM, Tuesday 10:00 AM - 9:00 PM, Wednesday 10:00 AM - 9:00 PM, Thursday 10:00 AM - 9:00 PM, Friday 10:00 AM - 9:00 PM, Saturday 10:00 AM - 9:00 PM, Sunday 11:00 AM - 6:00 PM",Standard,,
MALL IN COLUMBIA,907,10300 Little Patuxent Pkwy,Space 1020,Columbia,MD,21044,US,(410) 884-0324,39.215311,-76.861216,"Monday 10:00 AM - 9:00 PM, Tuesday 10:00 AM - 9:00 PM, Wednesday 10:00 AM - 9:00 PM, Thursday 10:00 AM - 9:00 PM, Friday 10:00 AM - 9:00 PM, Saturday 10:00 AM - 9:00 PM, Sunday 11:00 AM - 6:00 PM",Standard,,
BURLINGTON MALL,515,75 Middlesex Turnpike,,Burlington,MA,01803,US,(781) 273-1114,42.482538,-71.213508,"Monday 10:00 AM - 9:00 PM, Tuesday 10:00 AM - 9:00 PM, Wednesday 10:00 AM - 9:00 PM, Thursday 10:00 AM - 9:00 PM, Friday 10:00 AM - 9:00 PM, Saturday 10:00 AM - 9:00 PM, Sunday 11:00 AM - 6:00 PM",Standard,,
DERBY STREET SHOPPES,704,96 Derby Street,Suite 315,Hingham,MA,02043,US,(781) 740-4690,42.175977,-70.911033,"Monday Closed, Tuesday 10:00 AM - 9:00 PM, Wednesday 10:00 AM - 9:00 PM, Thursday 10:00 AM - 9:00 PM, Friday 10:00 AM - 9:00 PM, Saturday 10:00 AM - 9:00 PM, Sunday 11:00 AM - 6:00 PM",Standard,,
MASHPEE COMMONS,461,38 Nathan Ellis Highway,,Mashpee,MA,02649,US,(508) 477-1800,41.616876,-70.490513,"Monday 10:00 AM - 6:00 PM, Tuesday 10:00 AM - 6:00 PM, Wednesday 10:00 AM - 6:00 PM, Thursday 10:00 AM - 6:00 PM, Friday 10:00 AM - 6:00 PM, Saturday 10:00 AM - 6:00 PM, Sunday 11:00 AM - 5:00 PM",Standard,,
DESTINY USA,525,9734 Destiny USA Drive,Space F222,Syracuse,NY,13204,US,(315) 425-9922,43.071796,-76.171174,"Monday 10:00 AM - 9:30 PM, Tuesday 10:00 AM - 9:30 PM, Wednesday 10:00 AM - 9:30 PM, Thursday 10:00 AM - 9:30 PM, Friday 10:00 AM - 9:30 PM, Saturday 10:00 AM - 9:30 PM, Sunday 11:00 AM - 6:00 PM",Standard,,
MARKETSTREET LYNNFIELD,6029,1310 Market Street,,Lynnfield,MA,01940,US,(781) 334-3690,42.516486,-71.034028,"Monday 10:00 AM - 9:00 PM, Tuesday 10:00 AM - 9:00 PM, Wednesday 10:00 AM - 9:00 PM, Thursday 10:00 AM - 9:00 PM, Friday 10:00 AM - 9:00 PM, Saturday 10:00 AM - 9:00 PM, Sunday 11:00 AM - 6:00 PM",Standard,,
MALL AT ROCKINGHAM PARK,570,99 Rockingham Park Blvd,Space #W151A,Salem,NH,03079,US,(603) 890-3506,42.76612,-71.23032,"Monday 10:00 AM - 9:00 PM, Tuesday 10:00 AM - 9:00 PM, Wednesday 10:00 AM - 9:00 PM, Thursday 10:00 AM - 9:00 PM, Friday 10:00 AM - 9:00 PM, Saturday 10:00 AM - 9:00 PM, Sunday 11:00 AM - 6:00 PM",Standard,,
BETHESDA ROW,6100,4824 Bethesda Avenue,,Bethesda,MD,20814,US,(301) 718-3071,38.980788,-77.096803,"Monday 10:00 AM - 5:00 PM, Tuesday 10:00 AM - 8:00 PM, Wednesday 10:00 AM - 8:00 PM, Thursday 10:00 AM - 8:00 PM, Friday 10:00 AM - 8:00 PM, Saturday 10:00 AM - 8:00 PM, Sunday 12:00 PM - 6:00 PM",Standard,,
MARKET COMMON AT CLARENDON,537,2700 Clarendon Blvd.,Space R-150,Arlington,VA,22201,US,(703) 248-8150,38.887687,-77.091105,"Monday 10:00 AM - 9:00 PM, Tuesday 10:00 AM - 9:00 PM, Wednesday 10:00 AM - 9:00 PM, Thursday 10:00 AM - 9:00 PM, Friday 10:00 AM - 9:00 PM, Saturday 10:00 AM - 9:00 PM, Sunday 12:00 PM - 5:00 PM",Standard,,
OLD TOWN,502,825 S. Washington St,,Alexandria,VA,22314,US,(703) 836-1904,38.796265,-77.049214,"Monday 10:00 AM - 7:00 PM, Tuesday 10:00 AM - 7:00 PM, Wednesday 10:00 AM - 7:00 PM, Thursday 10:00 AM - 7:00 PM, Friday 10:00 AM - 7:00 PM, Saturday 10:00 AM - 6:00 PM, Sunday 11:00 AM - 5:00 PM",Standard,,
TYSONS GALLERIA,266,1833 G International Dr.,,Mclean,VA,22102,US,(703) 917-0005,38.924078,-77.226738,"Monday 10:00 AM - 9:00 PM, Tuesday 10:00 AM - 9:00 PM, Wednesday 10:00 AM - 9:00 PM, Thursday 10:00 AM - 9:00 PM, Friday 10:00 AM - 9:00 PM, Saturday 10:00 AM - 9:00 PM, Sunday 12:00 PM - 6:00 PM",Standard,,
MOSAIC,6219,2920 District Ave Ste 115,,Fairfax,VA,22031,US,(703) 280-5180,38.871383,-77.230642,"Monday 10:00 AM - 9:00 PM, Tuesday 10:00 AM - 9:00 PM, Wednesday 10:00 AM - 9:00 PM, Thursday 10:00 AM - 9:00 PM, Friday 10:00 AM - 9:00 PM, Saturday 10:00 AM - 9:00 PM, Sunday 12:00 PM - 6:00 PM",Standard,,
RESTON TOWN CENTER,459,11897 Market Street,,Reston,VA,20190,US,(571) 203-8815,38.958603,-77.356487,"Monday 10:00 AM - 9:00 PM, Tuesday 10:00 AM - 9:00 PM, Wednesday 10:00 AM - 9:00 PM, Thursday 10:00 AM - 9:00 PM, Friday 10:00 AM - 9:00 PM, Saturday 10:00 AM - 9:00 PM, Sunday 11:00 AM - 5:00 PM",Standard,,
FAIR OAKS MALL,98,11818-L Fair Oaks,Space #L133,Fairfax,VA,22033,US,(703) 352-7162,38.864296,-77.356377,"Monday 10:00 AM - 9:30 PM, Tuesday 10:00 AM - 9:30 PM, Wednesday 10:00 AM - 9:30 PM, Thursday 10:00 AM - 9:30 PM, Friday 10:00 AM - 9:30 PM, Saturday 10:00 AM - 9:30 PM, Sunday 11:00 AM - 6:00 PM",Standard,,
EASTVIEW MALL,719,280 Eastview Mall Dr,,Victor,NY,14564,US,(585) 223-1660,43.027331,-77.445452,"Monday 10:00 AM - 9:30 PM, Tuesday 10:00 AM - 9:30 PM, Wednesday 10:00 AM - 9:30 PM, Thursday 10:00 AM - 9:30 PM, Friday 10:00 AM - 9:30 PM, Saturday 10:00 AM - 9:30 PM, Sunday 11:00 AM - 6:00 PM",Standard,,
MAINE MALL,347,621 Maine Mall Rd,Space N-185,South Portland,ME,04106,US,(207) 772-9175,43.630667,-70.340911,"Monday 10:00 AM - 9:00 PM, Tuesday 10:00 AM - 9:00 PM, Wednesday 10:00 AM - 9:00 PM, Thursday 10:00 AM - 9:00 PM, Friday 10:00 AM - 9:00 PM, Saturday 10:00 AM - 9:00 PM, Sunday 11:00 AM - 6:00 PM",Standard,,
MERCHANTS SQUARE,259,440 W Duke Of Gloucester St,,Williamsburg,VA,23185,US,(757) 220-0450,37.270612,-76.707218,"Monday 10:00 AM - 5:00 PM, Tuesday 10:00 AM - 7:00 PM, Wednesday 10:00 AM - 7:00 PM, Thursday 10:00 AM - 7:00 PM, Friday 10:00 AM - 7:00 PM, Saturday 9:00 AM - 7:00 PM, Sunday 11:00 AM - 5:00 PM",Standard,,
SHORT PUMP TOWN CENTER,702,11800 West Broad Street,Space  # 2128,Richmond,VA,23233,US,(804) 364-9915,37.656201,-77.619462,"Monday 10:00 AM - 9:00 PM, Tuesday 10:00 AM - 9:00 PM, Wednesday 10:00 AM - 9:00 PM, Thursday 10:00 AM - 9:00 PM, Friday 10:00 AM - 9:00 PM, Saturday 10:00 AM - 9:00 PM, Sunday 11:00 AM - 6:00 PM",Standard,,
WALDEN GALLERIA,558,One Walden Galleria,Space #G113,Buffalo,NY,14225,US,(716) 651-0057,42.912026,-78.76344,"Monday 10:00 AM - 5:00 PM, Tuesday 10:00 AM - 9:30 PM, Wednesday 10:00 AM - 9:30 PM, Thursday 10:00 AM - 9:30 PM, Friday 10:00 AM - 9:30 PM, Saturday 10:00 AM - 9:30 PM, Sunday 11:00 AM - 6:00 PM",Standard,,
VIRGINIA BEACH,254,1860 Laskin Rd. Suite 102,,Virginia Beach,VA,23454,US,(757) 428-8908,36.849818,-76.031007,"Monday 10:00 AM - 5:00 PM, Tuesday 10:00 AM - 7:00 PM, Wednesday 10:00 AM - 7:00 PM, Thursday 10:00 AM - 7:00 PM, Friday 10:00 AM - 7:00 PM, Saturday 10:00 AM - 7:00 PM, Sunday 12:00 PM - 5:00 PM",Standard,,
MACARTHUR PLACE,401,300 Monticello Ave.,Suite 287,Norfolk,VA,23510,US,(757) 625-6008,36.848903,-76.28795,"Monday 10:00 AM - 9:00 PM, Tuesday 10:00 AM - 9:00 PM, Wednesday 10:00 AM - 9:00 PM, Thursday 10:00 AM - 9:00 PM, Friday 10:00 AM - 9:00 PM, Saturday 10:00 AM - 9:00 PM, Sunday 12:00 PM - 6:00 PM",Standard,,
SHOPS STONEFIELD,6001,2030 Bond St Suite 180,,Charlottesville,VA,22901,US,(434) 973-2155,38.064582,-78.49105,"Monday 10:00 AM - 7:00 PM, Tuesday 10:00 AM - 9:00 PM, Wednesday 10:00 AM - 9:00 PM, Thursday 10:00 AM - 9:00 PM, Friday 10:00 AM - 9:00 PM, Saturday 10:00 AM - 9:00 PM, Sunday 10:00 AM - 6:00 PM",Standard,,
SHADYSIDE,345,5514 Walnut Street,,Pittsburgh,PA,15232,US,(412) 688-9220,40.451137,-79.933089,"Monday 10:00 AM - 7:00 PM, Tuesday 10:00 AM - 7:00 PM, Wednesday 10:00 AM - 7:00 PM, Thursday 10:00 AM - 7:00 PM, Friday 10:00 AM - 7:00 PM, Saturday 10:00 AM - 7:00 PM, Sunday 11:00 AM - 5:00 PM",Standard,,
ROSS PARK,341,1000 Ross Park Mall Dr,Ste D7,Pittsburgh,PA,15237,US,(412) 635-7401,40.544558,-80.008739,"Monday 10:00 AM - 9:00 PM, Tuesday 10:00 AM - 9:00 PM, Wednesday 10:00 AM - 9:00 PM, Thursday 10:00 AM - 9:00 PM, Friday 10:00 AM - 9:00 PM, Saturday 10:00 AM - 9:00 PM, Sunday 11:00 AM - 6:00 PM",Standard,,
MT LEBANON,271,The Galleria of Mt. Lebanon,1500 Washington Rd. Suite 1203,Pittsburgh,PA,15228,US,(412) 341-3411,40.357004,-80.051746,"Monday 10:00 AM - 9:00 PM, Tuesday 10:00 AM - 9:00 PM, Wednesday 10:00 AM - 9:00 PM, Thursday 10:00 AM - 9:00 PM, Friday 10:00 AM - 9:00 PM, Saturday 10:00 AM - 9:00 PM, Sunday 12:00 PM - 5:00 PM",Standard,,
EATON CENTRE,536,220 Yonge Street,Space C17,Toronto,ON,M5B 2H1,CA,(416) 260-1255,43.653559,-79.380405,"Monday 10:00 AM - 9:30 PM, Tuesday 10:00 AM - 9:30 PM, Wednesday 10:00 AM - 9:30 PM, Thursday 10:00 AM - 9:30 PM, Friday 10:00 AM - 9:30 PM, Saturday 9:30 AM - 9:30 PM, Sunday 10:00 AM - 7:00 PM",Standard,,
SHERWAY GARDENS,712,25 The West Mall,Space 1394,Toronto,ON,M9C 1B8,CA,(416) 621-9005,43.611824,-79.557016,"Monday 10:00 AM - 9:00 PM, Tuesday 10:00 AM - 9:00 PM, Wednesday 10:00 AM - 9:00 PM, Thursday 10:00 AM - 9:00 PM, Friday 10:00 AM - 9:00 PM, Saturday 9:30 AM - 9:00 PM, Sunday 11:00 AM - 6:00 PM",Standard,,
LA PLACE,710,2101 Richmond Road,,Beachwood,OH,44122,US,(216) 839-1780,41.500423,-81.496796,"Monday 12:00 PM - 5:00 PM, Tuesday 10:00 AM - 8:00 PM, Wednesday 10:00 AM - 8:00 PM, Thursday 10:00 AM - 8:00 PM, Friday 10:00 AM - 8:00 PM, Saturday 10:00 AM - 6:00 PM, Sunday 12:00 PM - 5:00 PM",Standard,,
SOUTH PARK CENTER,306,508 South Park Center,Space EL,Strongsville,OH,44136,US,(440) 846-1887,41.307979,-81.82196,"Monday 10:00 AM - 9:00 PM, Tuesday 10:00 AM - 9:00 PM, Wednesday 10:00 AM - 9:00 PM, Thursday 10:00 AM - 9:00 PM, Friday 10:00 AM - 9:00 PM, Saturday 10:00 AM - 9:00 PM, Sunday 11:00 AM - 6:00 PM",Standard,,
RALEIGH,293,4325 Glenwood Ave,,Raleigh,NC,27612,US,(919) 782-3145,35.837702,-78.675894,"Monday 10:00 AM - 6:00 PM, Tuesday 10:00 AM - 9:00 PM, Wednesday 10:00 AM - 9:00 PM, Thursday 10:00 AM - 9:00 PM, Friday 10:00 AM - 9:00 PM, Saturday 10:00 AM - 9:00 PM, Sunday 12:00 PM - 7:00 PM",Standard,,
THE STREETS AT SOUTHPOINT,256,6910 Fayetteville Road,Space #162,Durham,NC,27713,US,(919) 484-1706,35.903599,-78.941906,"Monday 10:00 AM - 9:00 PM, Tuesday 10:00 AM - 9:00 PM, Wednesday 10:00 AM - 9:00 PM, Thursday 10:00 AM - 9:00 PM, Friday 10:00 AM - 9:00 PM, Saturday 10:00 AM - 9:00 PM, Sunday 12:00 PM - 7:00 PM",Standard,,
FRIENDLY CENTER,679,3320 W. Friendly Avenue,Suite #108,Greensboro,NC,27410,US,(336) 294-2063,36.08609,-79.836038,"Monday 10:00 AM - 9:00 PM, Tuesday 10:00 AM - 9:00 PM, Wednesday 10:00 AM - 9:00 PM, Thursday 10:00 AM - 9:00 PM, Friday 10:00 AM - 9:00 PM, Saturday 10:00 AM - 9:00 PM, Sunday 12:00 PM - 6:00 PM",Standard,,
HANES MALL,294,3320 Silas Creek Parkway,DU-770,Winston-Salem,NC,27103,US,(336) 765-1808,36.071812,-80.299336,"Monday 10:00 AM - 9:00 PM, Tuesday 10:00 AM - 9:00 PM, Wednesday 10:00 AM - 9:00 PM, Thursday 10:00 AM - 9:00 PM, Friday 10:00 AM - 9:00 PM, Saturday 10:00 AM - 9:00 PM, Sunday Closed",Standard,,
EASTON TOWN CENTER,406,4009 Easton Station,,Columbus,OH,43219,US,(614) 476-2957,40.049712,-82.914777,"Monday 10:00 AM - 6:00 PM, Tuesday 10:00 AM - 9:00 PM, Wednesday 10:00 AM - 9:00 PM, Thursday 10:00 AM - 9:00 PM, Friday 10:00 AM - 9:00 PM, Saturday 10:00 AM - 9:00 PM, Sunday 12:00 PM - 6:00 PM",Standard,,
POLARIS FASHION PLACE,36,1500 Polaris Parkway,Space #2240,Columbus,OH,43240,US,(614) 430-0118,40.141455,-82.978951,"Monday 10:00 AM - 9:00 PM, Tuesday 10:00 AM - 9:00 PM, Wednesday 10:00 AM - 9:00 PM, Thursday 10:00 AM - 9:00 PM, Friday 10:00 AM - 9:00 PM, Saturday 10:00 AM - 9:00 PM, Sunday 12:00 PM - 6:00 PM",Standard,,
SOMERSET COLLECTION,718,2801 West Big Beaver Road,Suite G-219,Troy,MI,48084,US,(248) 637-0672,42.560099,-83.183419,"Monday 10:00 AM - 9:00 PM, Tuesday 10:00 AM - 9:00 PM, Wednesday 10:00 AM - 9:00 PM, Thursday 10:00 AM - 9:00 PM, Friday 10:00 AM - 9:00 PM, Saturday 10:00 AM - 7:00 PM, Sunday 12:00 PM - 6:00 PM",Standard,,
VILLAGE OF ROCHESTER HILLS,191,352 North Adams Road,,Rochester Hills,MI,48309,US,(248) 375-5891,42.684595,-83.192384,"Monday 10:00 AM - 6:00 PM, Tuesday 10:00 AM - 9:00 PM, Wednesday 10:00 AM - 9:00 PM, Thursday 10:00 AM - 9:00 PM, Friday 10:00 AM - 9:00 PM, Saturday 10:00 AM - 9:00 PM, Sunday 12:00 PM - 6:00 PM",Standard,,
MAYFAIRE TOWN CENTER,723,6852 Main Street,,Wilmington,NC,28405,US,(910) 256-0266,34.242093,-77.829865,"Monday 10:00 AM - 9:00 PM, Tuesday 10:00 AM - 9:00 PM, Wednesday 10:00 AM - 9:00 PM, Thursday 10:00 AM - 9:00 PM, Friday 10:00 AM - 9:00 PM, Saturday 10:00 AM - 9:00 PM, Sunday 12:00 PM - 6:00 PM",Standard,,
TWELVE OAKS MALL,979,27710B Novi Rd,Space C-283,Novi,MI,48377,US,(248) 596-1036,42.493295,-83.476127,"Monday 10:00 AM - 6:00 PM, Tuesday 10:00 AM - 9:00 PM, Wednesday 10:00 AM - 9:00 PM, Thursday 10:00 AM - 9:00 PM, Friday 10:00 AM - 9:00 PM, Saturday 10:00 AM - 9:00 PM, Sunday 11:00 AM - 6:00 PM",Standard,,
FRANKLIN PARK,819,5001 Monroe Street,Space #1720,Toledo,OH,43623,US,(419) 475-6368,41.694446,-83.640774,"Monday 10:00 AM - 9:00 PM, Tuesday 10:00 AM - 9:00 PM, Wednesday 10:00 AM - 9:00 PM, Thursday 10:00 AM - 9:00 PM, Friday 10:00 AM - 9:00 PM, Saturday 10:00 AM - 9:00 PM, Sunday 11:00 AM - 6:00 PM",Standard,,
JEFFERSONVILLE,6130,8600 Factory Outlet Shops Blvd,Suite 600,Jeffersonville,OH,43128,US,(740) 948-2281,39.621479,-83.601253,"Monday 9:00 AM - 9:00 PM, Tuesday 9:00 AM - 9:00 PM, Wednesday 9:00 AM - 9:00 PM, Thursday 9:00 AM - 9:00 PM, Friday 9:00 AM - 9:00 PM, Saturday 9:00 AM - 8:00 PM, Sunday 10:00 AM - 7:00 PM",Outlet,,
BRIARWOOD,714,808 Briarwood Circle,Space #E105,Ann Arbor,MI,48108,US,(734) 665-1500,42.242545,-83.744756,"Monday 10:00 AM - 6:00 PM, Tuesday 10:00 AM - 9:00 PM, Wednesday 10:00 AM - 9:00 PM, Thursday 10:00 AM - 9:00 PM, Friday 10:00 AM - 9:00 PM, Saturday 10:00 AM - 9:00 PM, Sunday 11:00 AM - 6:00 PM",Standard,,
BIRKDALE VILLAGE,73,16740 Birkdale Commons Pkwy,Suite A,Huntersville,NC,28078,US,(704) 895-8331,35.444538,-80.881033,"Monday 10:00 AM - 7:00 PM, Tuesday 10:00 AM - 7:00 PM, Wednesday 10:00 AM - 7:00 PM, Thursday 10:00 AM - 8:00 PM, Friday 10:00 AM - 8:00 PM, Saturday 10:00 AM - 8:00 PM, Sunday 12:00 PM - 6:00 PM",Standard,,
BIRCH RUN OUTLETS,334,12150 South Beyer Road,Suite F210,Birch Run,MI,48415,US,(989) 624-6092,43.247976,-83.779844,"Monday 10:00 AM - 9:00 PM, Tuesday 10:00 AM - 9:00 PM, Wednesday 10:00 AM - 9:00 PM, Thursday 10:00 AM - 9:00 PM, Friday 10:00 AM - 9:00 PM, Saturday 10:00 AM - 9:00 PM, Sunday 10:00 AM - 7:00 PM",Outlet,,
SPECIALTY SHOPS IN THE PARK,843,6401 Morrison Blvd,Spaces 14 and 15,Charlotte,NC,28211,US,(704) 364-8886,35.156192,-80.831431,"Monday 10:00 AM - 7:00 PM, Tuesday 10:00 AM - 7:00 PM, Wednesday 10:00 AM - 7:00 PM, Thursday 10:00 AM - 7:00 PM, Friday 10:00 AM - 7:00 PM, Saturday 10:00 AM - 7:00 PM, Sunday 12:00 PM - 6:00 PM",Standard,,
KENWOOD TOWNE CENTER,507,7875 Montgomery Road,Space #U121,Cincinnati,OH,45236,US,(513) 793-3445,39.202503,-84.377022,"Monday 10:00 AM - 9:00 PM, Tuesday 10:00 AM - 9:00 PM, Wednesday 10:00 AM - 9:00 PM, Thursday 10:00 AM - 9:00 PM, Friday 10:00 AM - 9:00 PM, Saturday 10:00 AM - 9:00 PM, Sunday 12:00 PM - 6:00 PM",Standard,,
EASTWOOD TOWNE CENTRE,78,3040 Towne Centre Blvd,,Lansing,MI,48912,US,(517) 316-9314,42.764092,-84.517649,"Monday 10:00 AM - 9:00 PM, Tuesday 10:00 AM - 9:00 PM, Wednesday 10:00 AM - 9:00 PM, Thursday 10:00 AM - 9:00 PM, Friday 10:00 AM - 9:00 PM, Saturday 10:00 AM - 9:00 PM, Sunday 11:00 AM - 6:00 PM",Standard,,
ASHEVILLE,991,10 Brook Street,Suite 140,Asheville,NC,28803,US,(828) 277-3707,35.567046,-82.541017,"Monday 10:00 AM - 7:00 PM, Tuesday 10:00 AM - 7:00 PM, Wednesday 10:00 AM - 7:00 PM, Thursday 10:00 AM - 7:00 PM, Friday 10:00 AM - 7:00 PM, Saturday 10:00 AM - 7:00 PM, Sunday 12:00 PM - 5:00 PM",Standard,,
FAYETTE MALL,310,3473 Nicholasville Rd,Space D414,Lexington,KY,40503,US,(859) 272-5856,37.986795,-84.529494,"Monday 10:00 AM - 9:00 PM, Tuesday 10:00 AM - 9:00 PM, Wednesday 10:00 AM - 9:00 PM, Thursday 10:00 AM - 9:00 PM, Friday 10:00 AM - 9:00 PM, Saturday 10:00 AM - 6:00 PM, Sunday 12:00 PM - 6:00 PM",Standard,,
HAYWOOD MALL,811,700 Haywood Road,Suite 1023A,Greenville,SC,29607,US,(864) 234-7740,34.849917,-82.333588,"Monday 10:00 AM - 9:00 PM, Tuesday 10:00 AM - 9:00 PM, Wednesday 10:00 AM - 9:00 PM, Thursday 10:00 AM - 9:00 PM, Friday 10:00 AM - 9:00 PM, Saturday 10:00 AM - 9:00 PM, Sunday 12:00 PM - 7:00 PM",Standard,,
WOODLAND,309,3195 28th Street SE,Space # H -108,Grand Rapids,MI,49512,US,(616) 956-2297,42.916265,-85.588267,"Monday 10:00 AM - 9:00 PM, Tuesday 10:00 AM - 9:00 PM, Wednesday 10:00 AM - 9:00 PM, Thursday 10:00 AM - 9:00 PM, Friday 10:00 AM - 9:00 PM, Saturday 10:00 AM - 9:00 PM, Sunday 12:00 PM - 6:00 PM",Standard,,
WEST TOWN MALL,806,7600 Kingston Pike,Space 1004C,Knoxville,TN,37919,US,(865) 539-1070,35.923007,-84.041226,"Monday 10:00 AM - 9:00 PM, Tuesday 10:00 AM - 9:00 PM, Wednesday 10:00 AM - 9:00 PM, Thursday 10:00 AM - 9:00 PM, Friday 10:00 AM - 9:00 PM, Saturday 10:00 AM - 9:00 PM, Sunday 12:00 PM - 6:00 PM",Standard,,
KING STREET,6013,359 King Street,,Charleston,SC,29401,US,(843) 805-4051,32.785013,-79.93609,"Monday 10:00 AM - 6:00 PM, Tuesday 10:00 AM - 6:00 PM, Wednesday 10:00 AM - 6:00 PM, Thursday 10:00 AM - 7:00 PM, Friday 10:00 AM - 7:00 PM, Saturday 8:00 AM - 7:00 PM, Sunday 12:00 PM - 6:00 PM",Standard,,
KEYSTONE AT THE CROSSING,506,8702 Keystone Crossing,Space 145,Indianapolis,IN,46240,US,(317) 848-1431,39.914065,-86.111152,"Monday 10:00 AM - 6:00 PM, Tuesday 10:00 AM - 9:00 PM, Wednesday 10:00 AM - 9:00 PM, Thursday 10:00 AM - 9:00 PM, Friday 10:00 AM - 9:00 PM, Saturday 10:00 AM - 9:00 PM, Sunday 11:00 AM - 6:00 PM",Standard,,
MALL ST MATTHEWS,681,5000 Shelbyville Rd,Ste 50,Louisville,KY,40207,US,(502) 896-5740,38.247112,-85.623725,"Monday 10:00 AM - 9:00 PM, Tuesday 10:00 AM - 9:00 PM, Wednesday 10:00 AM - 9:00 PM, Thursday 10:00 AM - 9:00 PM, Friday 10:00 AM - 9:00 PM, Saturday 10:00 AM - 9:00 PM, Sunday 11:00 AM - 6:00 PM",Standard,,
AUGUSTA MALL,956,3450 Wrightsboro Road,Space B205,Augusta,GA,30909,US,(706) 736-6006,33.463551,-82.078836,"Monday 10:00 AM - 9:00 PM, Tuesday 10:00 AM - 9:00 PM, Wednesday 10:00 AM - 9:00 PM, Thursday 10:00 AM - 9:00 PM, Friday 10:00 AM - 9:00 PM, Saturday 10:00 AM - 10:00 PM, Sunday Closed",Standard,,
NORTH GA PREMIUM OUTLETS,192,800 Highway 400 South,Space #810,Dawsonville,GA,30534,US,(706) 216-5211,34.357814,-84.047948,"Monday 10:00 AM - 9:00 PM, Tuesday 10:00 AM - 9:00 PM, Wednesday 10:00 AM - 9:00 PM, Thursday 10:00 AM - 9:00 PM, Friday 10:00 AM - 9:00 PM, Saturday 10:00 AM - 9:00 PM, Sunday 11:00 AM - 7:00 PM",Outlet,,
LINCOLN PARK,6016,1550 N Fremont St,,Chicago,IL,60622,US,(312) 255-0643,41.910205,-87.651689,"Monday 10:00 AM - 5:00 PM, Tuesday 10:00 AM - 8:00 PM, Wednesday 10:00 AM - 8:00 PM, Thursday 10:00 AM - 8:00 PM, Friday 10:00 AM - 8:00 PM, Saturday 10:00 AM - 8:00 PM, Sunday 11:00 AM - 6:00 PM",Standard,,
MALL OF GEORGIA,411,3333 Buford Drive,Ste. 2032,Buford,GA,30519,US,(678) 482-4049,34.06427,-83.982806,"Monday 10:00 AM - 9:00 PM, Tuesday 10:00 AM - 9:00 PM, Wednesday 10:00 AM - 9:00 PM, Thursday 10:00 AM - 9:00 PM, Friday 10:00 AM - 9:00 PM, Saturday 10:00 AM - 9:00 PM, Sunday 12:00 PM - 6:00 PM",Standard,,
OLD ORCHARD,289,4999 Old Orchard Center,Suite N28,Skokie,IL,60077,US,(847) 933-9803,42.059572,-87.749028,"Monday 10:00 AM - 8:00 PM, Tuesday 10:00 AM - 8:00 PM, Wednesday 10:00 AM - 8:00 PM, Thursday 10:00 AM - 8:00 PM, Friday 10:00 AM - 9:00 PM, Saturday 10:00 AM - 9:00 PM, Sunday 11:00 AM - 6:00 PM",Standard,,
RENAISSANCE PLACE,452,1866 Second Street,Suite #100,Highland Park,IL,60035,US,(847) 681-9615,42.186299,-87.801984,"Monday 11:00 AM - 4:00 PM, Tuesday 10:00 AM - 6:00 PM, Wednesday 10:00 AM - 6:00 PM, Thursday 10:00 AM - 6:00 PM, Friday 10:00 AM - 6:00 PM, Saturday 10:00 AM - 6:00 PM, Sunday 11:00 AM - 5:00 PM",Standard,,
ORLAND SQUARE MALL,728,326 Orland Square,,Orland Park,IL,60462,US,(708) 226-0672,41.619956,-87.848264,"Monday 10:00 AM - 9:00 PM, Tuesday 10:00 AM - 9:00 PM, Wednesday 10:00 AM - 9:00 PM, Thursday 10:00 AM - 9:00 PM, Friday 10:00 AM - 9:00 PM, Saturday 10:00 AM - 9:00 PM, Sunday 11:00 AM - 6:00 PM",Standard,,
LAKE FOREST,41,271 Market Square,,Lake Forest,IL,60045,US,(847) 295-7045,42.252014,-87.840588,"Monday 10:00 AM - 6:00 PM, Tuesday 10:00 AM - 6:00 PM, Wednesday 10:00 AM - 6:00 PM, Thursday 10:00 AM - 6:00 PM, Friday 10:00 AM - 6:00 PM, Saturday 10:00 AM - 6:00 PM, Sunday 11:00 AM - 5:00 PM",Standard,,
AVALON,6215,8180 Avalon Blvd Ste 8180,,Alpharetta,GA,30009,US,(678) 448-4105,34.070799,-84.275152,"Monday 10:00 AM - 9:00 PM, Tuesday 10:00 AM - 9:00 PM, Wednesday 10:00 AM - 9:00 PM, Thursday 10:00 AM - 9:00 PM, Friday 10:00 AM - 9:00 PM, Saturday 10:00 AM - 9:00 PM, Sunday 12:00 PM - 7:00 PM",Standard,,
OAKBROOK CENTER,859,142 Oakbrook Center,,Oakbrook,IL,60523,US,(630) 571-2702,41.847639,-87.951318,"Monday 10:00 AM - 9:00 PM, Tuesday 10:00 AM - 9:00 PM, Wednesday 10:00 AM - 9:00 PM, Thursday 10:00 AM - 9:00 PM, Friday 10:00 AM - 9:00 PM, Saturday 10:00 AM - 9:00 PM, Sunday 11:00 AM - 6:00 PM",Standard,,
FORUM ON PEACHTREE PARKWAY,517,5145 Peachtree Parkway,Space #405,Norcross,GA,30092,US,(770) 326-6270,33.98158,-84.216428,"Monday 10:00 AM - 9:00 PM, Tuesday 10:00 AM - 9:00 PM, Wednesday 10:00 AM - 9:00 PM, Thursday 10:00 AM - 9:00 PM, Friday 10:00 AM - 9:00 PM, Saturday 10:00 AM - 9:00 PM, Sunday 11:00 AM - 6:00 PM",Standard,,
DEER PARK TOWN CENTER,975,20530 N. Rand Road,Suite 322 & 324,Deer Park,IL,60010,US,(847) 550-0803,42.161574,-88.054181,"Monday 10:00 AM - 5:00 PM, Tuesday 10:00 AM - 9:00 PM, Wednesday 10:00 AM - 9:00 PM, Thursday 10:00 AM - 9:00 PM, Friday 10:00 AM - 9:00 PM, Saturday 10:00 AM - 9:00 PM, Sunday 12:00 PM - 5:00 PM",Standard,,
THE AVENUE AT EAST COBB,626,4475 Roswell Road,Suite 800,Marietta,GA,30062,US,(678) 560-3660,33.987059,-84.421051,"Monday 10:00 AM - 6:00 PM, Tuesday 10:00 AM - 9:00 PM, Wednesday 10:00 AM - 9:00 PM, Thursday 10:00 AM - 9:00 PM, Friday 10:00 AM - 9:00 PM, Saturday 9:00 AM - 9:00 PM, Sunday 11:00 AM - 6:00 PM",Standard,,
JACKSON AVE,410,9 West Jackson Ave,Ste 103,Naperville,IL,60540,US,(630) 369-4167,41.772163,-88.148829,"Monday 12:00 PM - 5:00 PM, Tuesday 10:00 AM - 7:00 PM, Wednesday 10:00 AM - 7:00 PM, Thursday 10:00 AM - 7:00 PM, Friday 10:00 AM - 7:00 PM, Saturday 10:00 AM - 7:00 PM, Sunday 11:00 AM - 5:00 PM",Standard,,
MAYFAIR MALL,816,2500 N. Mayfair Road,Space 56,Wauwatosa,WI,53226,US,(414) 771-3755,43.063848,-88.045648,"Monday 8:00 AM - 9:00 PM, Tuesday 10:00 AM - 9:00 PM, Wednesday 10:00 AM - 9:00 PM, Thursday 10:00 AM - 9:00 PM, Friday 10:00 AM - 9:00 PM, Saturday 10:00 AM - 6:00 PM, Sunday 11:00 AM - 6:00 PM",Standard,,
LENOX SQUARE,947,3393 Peachtree Road NE,Space 4003,Atlanta,GA,30326,US,(404) 812-1703,33.847555,-84.36197,"Monday 10:00 AM - 9:00 PM, Tuesday 10:00 AM - 9:00 PM, Wednesday 10:00 AM - 9:00 PM, Thursday 10:00 AM - 9:00 PM, Friday 10:00 AM - 9:00 PM, Saturday 10:00 AM - 9:00 PM, Sunday 11:00 AM - 7:00 PM",Standard,,
PONCE CITY MARKET,6125,675 Ponce de Leon Ave NE,NE 160,Atlanta,GA,30308,US,(404) 810-7486,33.772522,-84.365968,"Monday 10:00 AM - 9:00 PM, Tuesday 10:00 AM - 9:00 PM, Wednesday 10:00 AM - 9:00 PM, Thursday 10:00 AM - 9:00 PM, Friday 10:00 AM - 9:00 PM, Saturday 10:00 AM - 9:00 PM, Sunday 11:00 AM - 7:00 PM",Standard,,
GENEVA COMMONS,173,322 Commons Drive,Space #2120,Geneva,IL,60134,US,(630) 262-8390,41.891176,-88.343532,"Monday 10:00 AM - 5:00 PM, Tuesday 10:00 AM - 9:00 PM, Wednesday 10:00 AM - 9:00 PM, Thursday 10:00 AM - 9:00 PM, Friday 10:00 AM - 9:00 PM, Saturday 10:00 AM - 9:00 PM, Sunday 12:00 PM - 4:00 PM",Standard,,
GREEN HILLS MALL,501,2126 Abbott Martin Rd.,"Space #248, 276",Nashville,TN,37215,US,(615) 292-5066,36.108577,-86.813343,"Monday 10:00 AM - 6:00 PM, Tuesday 10:00 AM - 9:00 PM, Wednesday 10:00 AM - 9:00 PM, Thursday 10:00 AM - 9:00 PM, Friday 10:00 AM - 9:00 PM, Saturday 10:00 AM - 9:00 PM, Sunday 12:00 PM - 6:00 PM",Standard,,
COOLSPRINGS GALLERIA,520,1800 Galleria Boulevard,Space #1565,Franklin,TN,37067,US,(615) 771-0427,35.957118,-86.813538,"Monday 10:00 AM - 9:00 PM, Tuesday 10:00 AM - 9:00 PM, Wednesday 10:00 AM - 9:00 PM, Thursday 10:00 AM - 9:00 PM, Friday 10:00 AM - 9:00 PM, Saturday 10:00 AM - 9:00 PM, Sunday 11:00 AM - 6:00 PM",Standard,,
AVENUE AT PEACHTREE CITY,531,256 City Circle,Space #1240,Peachtree City,GA,30269,US,(770) 632-0553,33.394656,-84.591546,"Monday 10:00 AM - 6:00 PM, Tuesday 10:00 AM - 9:00 PM, Wednesday 10:00 AM - 9:00 PM, Thursday 10:00 AM - 9:00 PM, Friday 10:00 AM - 9:00 PM, Saturday 10:00 AM - 9:00 PM, Sunday 11:00 AM - 6:00 PM",Standard,,
FOX RIVER MALL,61,4301 West Wisconsin Avenue,Space #148,Appleton,WI,54913,US,(920) 997-8014,44.269672,-88.470068,"Monday 10:00 AM - 9:00 PM, Tuesday 10:00 AM - 9:00 PM, Wednesday 10:00 AM - 9:00 PM, Thursday 10:00 AM - 9:00 PM, Friday 10:00 AM - 9:00 PM, Saturday 10:00 AM - 9:00 PM, Sunday 10:00 AM - 6:00 PM",Standard,,
PARKWAY PLACE,204,2801 Memorial Parkway SW,Space #131,Huntsville,AL,35801,US,(256) 534-2008,34.707289,-86.587271,"Monday 10:00 AM - 9:00 PM, Tuesday 10:00 AM - 9:00 PM, Wednesday 10:00 AM - 9:00 PM, Thursday 10:00 AM - 9:00 PM, Friday 10:00 AM - 9:00 PM, Saturday 10:00 AM - 9:00 PM, Sunday 11:00 AM - 6:00 PM",Standard,,
WEST TOWNE MALL,348,66 West Towne Mall,Space C-24-28,Madison,WI,53719,US,(608) 833-9733,43.057252,-89.505511,"Monday 10:00 AM - 6:00 PM, Tuesday 10:00 AM - 9:00 PM, Wednesday 10:00 AM - 9:00 PM, Thursday 10:00 AM - 9:00 PM, Friday 10:00 AM - 9:00 PM, Saturday 10:00 AM - 9:00 PM, Sunday 11:00 AM - 6:00 PM",Standard,,
ST JOHNS TOWN CTR,818,4712 River City Drive,Suite 109,Jacksonville,FL,32246,US,(904) 998-4304,30.257298,-81.525646,"Monday 10:00 AM - 9:00 PM, Tuesday 10:00 AM - 9:00 PM, Wednesday 10:00 AM - 9:00 PM, Thursday 10:00 AM - 9:00 PM, Friday 10:00 AM - 9:00 PM, Saturday 10:00 AM - 9:00 PM, Sunday 12:00 PM - 5:00 PM",Standard,,
SUMMIT BIRMINGHAM,974,211 Summit Blvd,Suite 200,Birmingham,AL,35243,US,(205) 970-4101,33.447194,-86.72829,"Monday 10:00 AM - 6:00 PM, Tuesday 10:00 AM - 9:00 PM, Wednesday 10:00 AM - 9:00 PM, Thursday 10:00 AM - 9:00 PM, Friday 10:00 AM - 9:00 PM, Saturday 10:00 AM - 9:00 PM, Sunday 11:00 AM - 6:00 PM",Standard,,
PLAZA FRONTENAC,716,260 Plaza Frontenac,,St. Louis,MO,63131,US,(314) 567-9211,38.630052,-90.407334,"Monday 12:00 PM - 5:00 PM, Tuesday 10:00 AM - 8:00 PM, Wednesday 10:00 AM - 8:00 PM, Thursday 10:00 AM - 8:00 PM, Friday 10:00 AM - 8:00 PM, Saturday 10:00 AM - 7:00 PM, Sunday 12:00 PM - 6:00 PM",Standard,,
GRAVOIS BLUFF,6226,788 Gravois Bluffs Blvd,,Fenton,MO,63026,US,(636) 326-6456,38.502436,-90.451617,"Monday 10:00 AM - 9:00 PM, Tuesday 10:00 AM - 9:00 PM, Wednesday 10:00 AM - 9:00 PM, Thursday 10:00 AM - 9:00 PM, Friday 10:00 AM - 9:00 PM, Saturday 10:00 AM - 9:00 PM, Sunday 10:00 AM - 6:00 PM",Outlet,,
PARK AVENUE,503,142 Park Avenue,,Winter Park,FL,32789,US,(407) 628-5900,28.597043,-81.35074,"Monday 10:00 AM - 8:00 PM, Tuesday 10:00 AM - 8:00 PM, Wednesday 10:00 AM - 8:00 PM, Thursday 10:00 AM - 8:00 PM, Friday 10:00 AM - 8:00 PM, Saturday 9:00 AM - 8:00 PM, Sunday 11:00 AM - 6:00 PM",Standard,,
MALL AT MILLENIA,39,4200 Conroy Road,Space #179,Orlando,FL,32839,US,(407) 354-3244,28.485565,-81.43155,"Monday 10:00 AM - 9:00 PM, Tuesday 10:00 AM - 9:00 PM, Wednesday 10:00 AM - 9:00 PM, Thursday 10:00 AM - 9:00 PM, Friday 10:00 AM - 9:00 PM, Saturday 10:00 AM - 9:00 PM, Sunday 11:00 AM - 7:00 PM",Standard,,
CLEARANCE OUTLET MEMPHIS,50,4708 Spottswood,,Memphis,TN,38117,US,(901) 763-1500,35.11264,-89.905319,"Monday 10:00 AM - 8:00 PM, Tuesday 10:00 AM - 8:00 PM, Wednesday 10:00 AM - 8:00 PM, Thursday 10:00 AM - 8:00 PM, Friday 10:00 AM - 8:00 PM, Saturday 10:00 AM - 8:00 PM, Sunday 12:00 PM - 6:00 PM",Outlet,,
VERO BEACH FASHION OUTLET,6028,1732 94th Dr G160,,Vero Beach,FL,32966,US,(772) 794-2942,27.635413,-80.519665,"Monday 9:00 AM - 8:00 PM, Tuesday 9:00 AM - 8:00 PM, Wednesday 9:00 AM - 8:00 PM, Thursday 9:00 AM - 8:00 PM, Friday 9:00 AM - 8:00 PM, Saturday 9:00 AM - 8:00 PM, Sunday 11:00 AM - 6:00 PM",Outlet,,
SHOPS AT WIREGRASS,869,28250 Paseo Drive,Ste 160,Wesley Chapel,FL,33544,US,(813) 991-0311,28.18844,-82.348643,"Monday 10:00 AM - 9:00 PM, Tuesday 10:00 AM - 9:00 PM, Wednesday 10:00 AM - 9:00 PM, Thursday 10:00 AM - 9:00 PM, Friday 10:00 AM - 9:00 PM, Saturday 10:00 AM - 9:00 PM, Sunday 12:00 PM - 6:00 PM",Standard,,
DESTIN COMMONS,952,4124 Legendary Drive,Space A108,Destin,FL,32541,US,(850) 654-1632,30.391225,-86.426175,"Monday 10:00 AM - 9:00 PM, Tuesday 10:00 AM - 9:00 PM, Wednesday 10:00 AM - 9:00 PM, Thursday 10:00 AM - 9:00 PM, Friday 10:00 AM - 9:00 PM, Saturday 10:00 AM - 9:00 PM, Sunday 11:00 AM - 7:00 PM",Standard,,
INTERNATIONAL PLAZA,590,2223 North West Shore Blvd.,Space 249,Tampa,FL,33607,US,(813) 353-0700,27.965612,-82.521121,"Monday 10:00 AM - 9:00 PM, Tuesday 10:00 AM - 9:00 PM, Wednesday 10:00 AM - 9:00 PM, Thursday 10:00 AM - 9:00 PM, Friday 10:00 AM - 9:00 PM, Saturday 10:00 AM - 9:00 PM, Sunday 11:00 AM - 6:00 PM",Standard,,
ROSEDALE SHOPPING CENTER,951,1595 HIghway 36 W,Space 910,Roseville,MN,55113,US,(651) 636-0253,45.012849,-93.169048,"Monday 10:00 AM - 9:00 PM, Tuesday 10:00 AM - 9:00 PM, Wednesday 10:00 AM - 9:00 PM, Thursday 10:00 AM - 9:00 PM, Friday 10:00 AM - 9:00 PM, Saturday 10:00 AM - 9:00 PM, Sunday 11:00 AM - 6:00 PM",Standard,,
EDINA GALLERIA,717,3512 Galleria,,Edina,MN,55435,US,(952) 285-1338,44.877004,-93.326599,"Monday 10:00 AM - 5:00 PM, Tuesday 10:00 AM - 9:00 PM, Wednesday 10:00 AM - 9:00 PM, Thursday 10:00 AM - 9:00 PM, Friday 10:00 AM - 9:00 PM, Saturday 10:00 AM - 8:00 PM, Sunday 11:00 AM - 6:00 PM",Standard,,
THE GARDENS,844,3101 PGA Blvd,Space A109,Palm Beach Gardens,FL,33410,US,(561) 799-2425,26.847398,-80.085384,"Monday 10:00 AM - 9:00 PM, Tuesday 10:00 AM - 9:00 PM, Wednesday 10:00 AM - 9:00 PM, Thursday 10:00 AM - 9:00 PM, Friday 10:00 AM - 9:00 PM, Saturday 10:00 AM - 9:00 PM, Sunday 12:00 PM - 6:00 PM",Standard,,
RIDGEDALE CENTER,6137,12251 Wayzata Blvd,,Minnetonka,MN,55305,US,(952) 546-1180,44.968635,-93.436035,"Monday 10:00 AM - 9:00 PM, Tuesday 10:00 AM - 9:00 PM, Wednesday 10:00 AM - 9:00 PM, Thursday 10:00 AM - 9:00 PM, Friday 10:00 AM - 9:00 PM, Saturday 10:00 AM - 9:00 PM, Sunday 11:00 AM - 6:00 PM",Standard,,
THE SHOPPES AT ARBOR LAKES,703,12229 Elm Creek Blvd,,Maple Grove,MN,55369,US,(763) 315-0780,45.092766,-93.436496,"Monday 10:00 AM - 5:00 PM, Tuesday 10:00 AM - 9:00 PM, Wednesday 10:00 AM - 9:00 PM, Thursday 10:00 AM - 9:00 PM, Friday 10:00 AM - 9:00 PM, Saturday 10:00 AM - 9:00 PM, Sunday 11:00 AM - 6:00 PM",Standard,,
JORDAN CREEK TOWN CENTER,721,101 Jordan Creek Parkway,Space 11300,West Des Moines,IA,50266,US,(515) 225-6613,41.570262,-93.807039,"Monday 10:00 AM - 9:00 PM, Tuesday 10:00 AM - 9:00 PM, Wednesday 10:00 AM - 9:00 PM, Thursday 10:00 AM - 9:00 PM, Friday 10:00 AM - 9:00 PM, Saturday 10:00 AM - 9:00 PM, Sunday 11:00 AM - 6:00 PM",Standard,,
UNIVERSITY TOWN C,6065,140 University Town Center Dr,Suite 253,Sarasota,FL,34243,US,(941) 866-6347,27.384433,-82.453188,"Monday 10:00 AM - 9:00 PM, Tuesday 10:00 AM - 9:00 PM, Wednesday 10:00 AM - 9:00 PM, Thursday 10:00 AM - 9:00 PM, Friday 10:00 AM - 9:00 PM, Saturday 10:00 AM - 9:00 PM, Sunday 10:00 AM - 6:00 PM",Standard,,
LEGACY VILLAGE,6221,9 Du Rhu Dr Ste 340,,Mobile,AL,36608,US,(251) 304-8964,30.689155,-88.131103,"Monday 10:00 AM - 9:00 PM, Tuesday 10:00 AM - 9:00 PM, Wednesday 10:00 AM - 9:00 PM, Thursday 10:00 AM - 9:00 PM, Friday 10:00 AM - 9:00 PM, Saturday 10:00 AM - 9:00 PM, Sunday 12:00 PM - 6:00 PM",Standard,,
TOWN CENTER,391,6000 Glades Rd,Space 1051A,Boca Raton,FL,33431,US,(561) 620-0245,26.365902,-80.134347,"Monday 10:00 AM - 9:00 PM, Tuesday 10:00 AM - 9:00 PM, Wednesday 10:00 AM - 9:00 PM, Thursday 10:00 AM - 9:00 PM, Friday 10:00 AM - 9:00 PM, Saturday 10:00 AM - 9:00 PM, Sunday 12:00 PM - 6:00 PM",Standard,,
RENAISSANCE AT COLONY PARK,603,1000 Highland Colony Parkway,Suite 4002,Ridgeland,MS,39157,US,(601) 898-8882,32.438187,-90.147741,"Monday 10:00 AM - 6:00 PM, Tuesday 10:00 AM - 8:00 PM, Wednesday 10:00 AM - 8:00 PM, Thursday 10:00 AM - 8:00 PM, Friday 10:00 AM - 8:00 PM, Saturday 10:00 AM - 8:00 PM, Sunday 10:00 AM - 7:00 PM",Standard,,
FT LAUDERDALE GALLERIA,919,2398 East Sunrise Boulevard,Space E15,Ft. Lauderdale,FL,33304,US,(954) 565-3717,26.137526,-80.112589,"Monday 10:00 AM - 9:00 PM, Tuesday 10:00 AM - 9:00 PM, Wednesday 10:00 AM - 9:00 PM, Thursday 10:00 AM - 9:00 PM, Friday 10:00 AM - 9:00 PM, Saturday 10:00 AM - 9:00 PM, Sunday 12:00 PM - 6:00 PM",Standard,,
BELL TOWER SHOPS,421,13499 U.S. 41 S.E.,Suite 157,Ft. Myers,FL,33907,US,(239) 415-4222,26.546206,-81.871439,"Monday 10:00 AM - 7:00 PM, Tuesday 10:00 AM - 7:00 PM, Wednesday 10:00 AM - 7:00 PM, Thursday 10:00 AM - 7:00 PM, Friday 10:00 AM - 7:00 PM, Saturday 10:00 AM - 9:00 PM, Sunday 12:00 PM - 5:00 PM",Standard,,
VILLAGE AT GULFSTREAM PARK,984,800 Silks Run,Suite 1305,Hallandale Beach,FL,33009,US,(954) 454-9261,25.976733,-80.14107,"Monday 10:00 AM - 6:00 PM, Tuesday 10:00 AM - 9:00 PM, Wednesday 10:00 AM - 9:00 PM, Thursday 10:00 AM - 9:00 PM, Friday 10:00 AM - 9:00 PM, Saturday 10:00 AM - 9:00 PM, Sunday 11:00 AM - 8:00 PM",Standard,,
MIDTOWNE LITTLE ROCK,838,201 North University Avenue,Space 140,Little Rock,AR,72205,US,(501) 663-3019,34.753185,-92.340717,"Monday 10:00 AM - 8:00 PM, Tuesday 10:00 AM - 8:00 PM, Wednesday 10:00 AM - 8:00 PM, Thursday 10:00 AM - 8:00 PM, Friday 10:00 AM - 8:00 PM, Saturday 10:00 AM - 8:00 PM, Sunday 12:00 PM - 6:00 PM",Standard,,
THE LINCOLN,6133,1691 Michigan Ave Ste 116,,Miami,FL,33139,US,(305) 674-8157,25.791797,-80.138548,"Monday 10:00 AM - 9:00 PM, Tuesday 10:00 AM - 9:00 PM, Wednesday 10:00 AM - 9:00 PM, Thursday 10:00 AM - 9:00 PM, Friday 10:00 AM - 10:00 PM, Saturday 10:00 AM - 10:00 PM, Sunday 11:00 AM - 8:00 PM",Standard,,
COUNTRY CLUB PLAZA,28,4764 Broadway,Country Club Plaza,Kansas City,MO,64112,US,(816) 561-4358,39.040683,-94.591976,"Monday 10:00 AM - 7:00 PM, Tuesday 10:00 AM - 7:00 PM, Wednesday 10:00 AM - 7:00 PM, Thursday 10:00 AM - 8:00 PM, Friday 10:00 AM - 8:00 PM, Saturday 10:00 AM - 8:00 PM, Sunday 11:00 AM - 5:00 PM",Standard,,
MERRICK PARK,13,350 San Lorenzo Avenue,Space 2005,Coral Gables,FL,33146,US,(305) 446-9421,25.731423,-80.260127,"Monday 10:00 AM - 9:00 PM, Tuesday 10:00 AM - 9:00 PM, Wednesday 10:00 AM - 9:00 PM, Thursday 10:00 AM - 9:00 PM, Friday 10:00 AM - 9:00 PM, Saturday 10:00 AM - 9:00 PM, Sunday 12:00 PM - 6:00 PM",Standard,,
LEAWOOD TOWN CENTER PLAZA,847,5204 West 119th Street,Spaces 2105 - 2100,Leawood,KS,66209,US,(913) 345-1989,38.913027,-94.642518,"Monday 10:00 AM - 9:00 PM, Tuesday 10:00 AM - 9:00 PM, Wednesday 10:00 AM - 9:00 PM, Thursday 10:00 AM - 9:00 PM, Friday 9:30 AM - 9:00 PM, Saturday 9:00 AM - 9:00 PM, Sunday 11:00 AM - 6:00 PM",Standard,,
THE FALLS,972,8888 Southwest 136th Street,Space 470,Miami,FL,33176,US,(305) 378-5046,25.644382,-80.339479,"Monday 10:00 AM - 9:00 PM, Tuesday 10:00 AM - 9:00 PM, Wednesday 10:00 AM - 9:00 PM, Thursday 10:00 AM - 9:00 PM, Friday 10:00 AM - 9:00 PM, Saturday 10:00 AM - 9:00 PM, Sunday 12:00 PM - 7:00 PM",Standard,,
PINNACLE HILLS,954,2203 Promenade Blvd,Ste 2180,Rogers,AR,72758,US,(479) 636-0153,36.304661,-94.174559,"Monday 10:00 AM - 9:00 PM, Tuesday 10:00 AM - 9:00 PM, Wednesday 10:00 AM - 9:00 PM, Thursday 10:00 AM - 9:00 PM, Friday 10:00 AM - 9:00 PM, Saturday 10:00 AM - 9:00 PM, Sunday 12:00 PM - 6:00 PM",Standard,,
REGENCY COURT,707,120 Regency Pkwy,Space #150,Omaha,NE,68114,US,(402) 391-3824,41.259415,-96.071545,"Monday 10:00 AM - 8:00 PM, Tuesday 10:00 AM - 8:00 PM, Wednesday 10:00 AM - 8:00 PM, Thursday 10:00 AM - 8:00 PM, Friday 10:00 AM - 8:00 PM, Saturday 10:00 AM - 7:00 PM, Sunday 12:00 PM - 5:00 PM",Standard,,
LAKESIDE MALL,416,3301 Veterans Memorial Blvd,Ste 54A,Metairie,LA,70002,US,(504) 828-3769,30.006298,-90.15731,"Monday 10:00 AM - 9:00 PM, Tuesday 10:00 AM - 9:00 PM, Wednesday 10:00 AM - 9:00 PM, Thursday 10:00 AM - 9:00 PM, Friday 10:00 AM - 9:00 PM, Saturday 10:00 AM - 9:00 PM, Sunday 12:00 PM - 6:00 PM",Standard,,
WATERSIDE SHOPS,841,5375 Tamiami Trail N.,Space E7,Naples,FL,34108,US,(239) 514-2213,37.09024,-95.712891,"Monday 10:00 AM - 7:00 PM, Tuesday 10:00 AM - 7:00 PM, Wednesday 10:00 AM - 7:00 PM, Thursday 10:00 AM - 7:00 PM, Friday 10:00 AM - 7:00 PM, Saturday 10:00 AM - 7:00 PM, Sunday 11:00 AM - 6:00 PM",Standard,,
LEESBURG,468,"241 Fort Evans Rd., Sp. 1001",Premium Outlet-Leesburg Corner,Leesburg,VA,20176,US,(703) 443-9259,37.09024,-95.712891,"Monday 10:00 AM - 9:00 PM, Tuesday 10:00 AM - 9:00 PM, Wednesday 10:00 AM - 9:00 PM, Thursday 10:00 AM - 9:00 PM, Friday 10:00 AM - 9:00 PM, Saturday 10:00 AM - 9:00 PM, Sunday 10:00 AM - 7:00 PM",Outlet,,
MALL OF LOUISIANA,635,6401 Bluebonnet Blvd,Suite 1206,Baton Rouge,LA,70836,US,(225) 757-0016,30.389513,-91.088056,"Monday 10:00 AM - 9:00 PM, Tuesday 10:00 AM - 9:00 PM, Wednesday 10:00 AM - 9:00 PM, Thursday 10:00 AM - 9:00 PM, Friday 10:00 AM - 9:00 PM, Saturday 10:00 AM - 9:00 PM, Sunday Closed",Standard,,
UTICA SQUARE,842,2016 Utica Square,,Tulsa,OK,74114,US,(918) 742-5252,36.131931,-95.962873,"Monday 10:00 AM - 5:00 PM, Tuesday 10:00 AM - 7:00 PM, Wednesday 10:00 AM - 7:00 PM, Thursday 10:00 AM - 7:00 PM, Friday 10:00 AM - 7:00 PM, Saturday 10:00 AM - 7:00 PM, Sunday 12:00 PM - 5:00 PM",Standard,,
BRADLEY FAIR,342,2000 North Rock Road,Suite 152,Wichita,KS,67206,US,(316) 636-5990,37.717278,-97.242762,"Monday 10:00 AM - 9:00 PM, Tuesday 10:00 AM - 9:00 PM, Wednesday 10:00 AM - 9:00 PM, Thursday 10:00 AM - 9:00 PM, Friday 10:00 AM - 9:00 PM, Saturday 10:00 AM - 9:00 PM, Sunday 11:00 AM - 6:00 PM",Standard,,
PENN SQUARE MALL,630,1901 Northwest Expressway,Suite 1064A,Oklahoma City,OK,73118,US,(405) 843-5013,35.524691,-97.544011,"Monday 10:00 AM - 6:00 PM, Tuesday 10:00 AM - 9:00 PM, Wednesday 10:00 AM - 9:00 PM, Thursday 10:00 AM - 9:00 PM, Friday 10:00 AM - 9:00 PM, Saturday 10:00 AM - 9:00 PM, Sunday 12:00 PM - 6:00 PM",Standard,,
STONEBRIAR CENTRE,512,2601 Preston Road,Space #1216,Frisco,TX,75034,US,(972) 712-9455,33.09823,-96.805935,"Monday 10:00 AM - 9:00 PM, Tuesday 10:00 AM - 9:00 PM, Wednesday 10:00 AM - 9:00 PM, Thursday 10:00 AM - 9:00 PM, Friday 10:00 AM - 9:00 PM, Saturday 10:00 AM - 9:00 PM, Sunday 12:00 PM - 6:00 PM",Standard,,
PRESTON PARK VILLAGE,631,1900 Preston Road,Suite 130,Plano,TX,75093,US,(972) 964-5838,33.025879,-96.789588,"Monday 10:00 AM - 8:00 PM, Tuesday 10:00 AM - 8:00 PM, Wednesday 10:00 AM - 8:00 PM, Thursday 10:00 AM - 8:00 PM, Friday 10:00 AM - 8:00 PM, Saturday 10:00 AM - 8:00 PM, Sunday 12:00 PM - 6:00 PM",Standard,,
WSH NORTHPARK,6140,8687 N Central Expressway,C1-504,Dallas,TX,75225,US,(469) 232-9271,32.868502,-96.773512,"Monday 10:00 AM - 9:00 PM, Tuesday 10:00 AM - 9:00 PM, Wednesday 10:00 AM - 9:00 PM, Thursday 10:00 AM - 9:00 PM, Friday 10:00 AM - 9:00 PM, Saturday 10:00 AM - 9:00 PM, Sunday 12:00 PM - 6:00 PM",Standard,,
SOUTHLAKE TOWN SQUARE,680,172 State Street,Space 270,Southlake,TX,76092,US,(817) 416-5932,32.941973,-97.132029,"Monday 10:00 AM - 7:00 PM, Tuesday 10:00 AM - 7:00 PM, Wednesday 10:00 AM - 7:00 PM, Thursday 10:00 AM - 8:00 PM, Friday 10:00 AM - 7:00 PM, Saturday 10:00 AM - 7:00 PM, Sunday 12:00 PM - 5:00 PM",Standard,,
UNIVERSITY PARK VILLAGE,973,1620 South University Drive,Suite 203,Fort Worth,TX,76107,US,(817) 334-0009,32.72743,-97.361689,"Monday 10:00 AM - 8:00 PM, Tuesday 10:00 AM - 8:00 PM, Wednesday 10:00 AM - 8:00 PM, Thursday 10:00 AM - 8:00 PM, Friday 10:00 AM - 8:00 PM, Saturday 10:00 AM - 8:00 PM, Sunday 12:00 PM - 6:00 PM",Standard,,
HIGHLAND VILLAGE,711,4060 Westheimer,,Houston,TX,77027,US,(713) 212-0346,29.74225,-95.446807,"Monday 10:00 AM - 9:00 PM, Tuesday 10:00 AM - 9:00 PM, Wednesday 10:00 AM - 9:00 PM, Thursday 10:00 AM - 9:00 PM, Friday 10:00 AM - 9:00 PM, Saturday 10:00 AM - 9:00 PM, Sunday 12:00 PM - 6:00 PM",Standard,,
TOWN AND COUNTRY VILLAGE,950,12850 Memorial Drive,Suite 420,Houston,TX,77024,US,(713) 827-8056,29.777288,-95.561016,"Monday 10:00 AM - 9:00 PM, Tuesday 10:00 AM - 9:00 PM, Wednesday 10:00 AM - 9:00 PM, Thursday 10:00 AM - 9:00 PM, Friday 10:00 AM - 9:00 PM, Saturday 10:00 AM - 9:00 PM, Sunday 12:00 PM - 6:00 PM",Standard,,
FIRST COLONY MALL,921,16535 Southwest Freeway,Space 1004,Sugar Land,TX,77479,US,(281) 313-1180,29.592916,-95.623048,"Monday 8:00 AM - 9:00 PM, Tuesday 10:00 AM - 9:00 PM, Wednesday 10:00 AM - 9:00 PM, Thursday 10:00 AM - 9:00 PM, Friday 10:00 AM - 9:00 PM, Saturday 10:00 AM - 6:00 PM, Sunday 12:00 PM - 6:00 PM",Standard,,
ARBORETUM MARKET,978,9722 Great Hills Trail,Suite 150,Austin,TX,78759,US,(512) 231-1813,30.395436,-97.751558,"Monday 10:00 AM - 7:00 PM, Tuesday 10:00 AM - 7:00 PM, Wednesday 10:00 AM - 7:00 PM, Thursday 10:00 AM - 7:00 PM, Friday 10:00 AM - 8:00 PM, Saturday 10:00 AM - 7:00 PM, Sunday 12:00 PM - 6:00 PM",Standard,,
BARTON CREEK SQUARE,706,2901 S Capital of Texas Hwy,Space H-03A,Austin,TX,78746,US,(512) 328-5220,30.257339,-97.807188,"Monday 10:00 AM - 9:00 PM, Tuesday 10:00 AM - 9:00 PM, Wednesday 10:00 AM - 9:00 PM, Thursday 10:00 AM - 9:00 PM, Friday 10:00 AM - 9:00 PM, Saturday 10:00 AM - 9:00 PM, Sunday 11:00 AM - 7:00 PM",Standard,,
SAN MARCOS PREMIUM OUTLETS,466,3939 IH 35 South,Space 920,San Marcos,TX,78666,US,(512) 805-1002,29.827903,-97.980498,"Monday 10:00 AM - 9:00 PM, Tuesday 10:00 AM - 9:00 PM, Wednesday 10:00 AM - 9:00 PM, Thursday 10:00 AM - 9:00 PM, Friday 10:00 AM - 9:00 PM, Saturday 10:00 AM - 9:00 PM, Sunday 10:00 AM - 7:00 PM",Outlet,,
SHOPS AT LA CANTERA,836,15900 La Cantera Parkway,Suite 5515,San Antonio,TX,78256,US,(210) 694-0146,29.593293,-98.61094,"Monday 10:00 AM - 9:00 PM, Tuesday 10:00 AM - 9:00 PM, Wednesday 10:00 AM - 9:00 PM, Thursday 10:00 AM - 9:00 PM, Friday 10:00 AM - 9:00 PM, Saturday 10:00 AM - 9:00 PM, Sunday 12:00 PM - 6:00 PM",Standard,,
MALL OF SAN JUAN,6135,1000 Mall of San Juan Blvd,Suite 253,San Juan,PR,00924,US,(787) 302-0449,18.412405,-66.026213,"Monday 10:00 AM - 7:00 PM, Tuesday 10:00 AM - 9:00 PM, Wednesday 10:00 AM - 9:00 PM, Thursday 10:00 AM - 9:00 PM, Friday 10:00 AM - 9:00 PM, Saturday 10:00 AM - 9:00 PM, Sunday 10:00 AM - 7:00 PM",Standard,,
PARK MEADOWS,970,8405 Park Meadows Center Drive,Suite 1160,Littleton,CO,80124,US,(303) 790-2565,39.563318,-104.877954,"Monday 10:00 AM - 9:00 PM, Tuesday 10:00 AM - 9:00 PM, Wednesday 10:00 AM - 9:00 PM, Thursday 10:00 AM - 9:00 PM, Friday 10:00 AM - 9:00 PM, Saturday 10:00 AM - 9:00 PM, Sunday 11:00 AM - 6:00 PM",Standard,,
CHERRY CREEK,161,3000 East First Ave,#261,Denver,CO,80206,US,(303) 394-2226,39.717475,-104.956739,"Monday 10:00 AM - 9:00 PM, Tuesday 10:00 AM - 9:00 PM, Wednesday 10:00 AM - 9:00 PM, Thursday 10:00 AM - 9:00 PM, Friday 10:00 AM - 9:00 PM, Saturday 10:00 AM - 9:00 PM, Sunday Closed",Standard,,
BRIARGATE LIFESTYLE CENTER,700,1885 Briargate Parkway,Space # 519,Colorado Springs,CO,80920,US,(719) 593-0261,38.963143,-104.792582,"Monday 10:00 AM - 8:00 PM, Tuesday 10:00 AM - 8:00 PM, Wednesday 10:00 AM - 8:00 PM, Thursday 10:00 AM - 8:00 PM, Friday 10:00 AM - 8:00 PM, Saturday 10:00 AM - 8:00 PM, Sunday 11:00 AM - 6:00 PM",Standard,,
ASPEN GROVE,566,7301 South Santa Fe Dr.,Space #510,Littleton,CO,80120,US,(303) 794-4744,39.584483,-105.025323,"Monday 10:00 AM - 9:00 PM, Tuesday 10:00 AM - 9:00 PM, Wednesday 10:00 AM - 9:00 PM, Thursday 10:00 AM - 9:00 PM, Friday 10:00 AM - 9:00 PM, Saturday 10:00 AM - 9:00 PM, Sunday 11:00 AM - 6:00 PM",Standard,,
FLAT IRON CROSSING,514,1 West Flat Iron Circle,,Broomfield,CO,80021,US,(720) 887-2900,39.932111,-105.131402,"Monday 10:00 AM - 9:00 PM, Tuesday 10:00 AM - 9:00 PM, Wednesday 10:00 AM - 9:00 PM, Thursday 10:00 AM - 9:00 PM, Friday 10:00 AM - 9:00 PM, Saturday 10:00 AM - 9:00 PM, Sunday 10:00 AM - 6:00 PM",Standard,,
YORKDALE,6222,3401 Dufferin St Suite CRU 530,,Toronto,ON,M6A 2T9,CA,(416) 789-1904,56.130366,-106.346771,"Monday 10:00 AM - 9:00 PM, Tuesday 10:00 AM - 9:00 PM, Wednesday 10:00 AM - 9:00 PM, Thursday 10:00 AM - 9:00 PM, Friday 10:00 AM - 9:00 PM, Saturday 9:30 AM - 9:00 PM, Sunday 11:00 AM - 7:00 PM",Standard,,
ALBUQUERQUE UPTOWN,914,2261 Q Street Northeast,Space 2G,Albuquerque,NM,87110,US,(505) 872-0486,35.104089,-106.56753,"Monday 10:00 AM - 7:00 PM, Tuesday 10:00 AM - 7:00 PM, Wednesday 10:00 AM - 7:00 PM, Thursday 10:00 AM - 7:00 PM, Friday 10:00 AM - 7:00 PM, Saturday 10:00 AM - 7:00 PM, Sunday 12:00 PM - 6:00 PM",Standard,,
SHOPPES EL PASO,6103,7051 S Desert Blvd,F-610,Canutillo,TX,79835,US,(915) 877-9056,31.913461,-106.58603,"Monday 10:00 AM - 9:00 PM, Tuesday 10:00 AM - 9:00 PM, Wednesday 10:00 AM - 9:00 PM, Thursday 10:00 AM - 9:00 PM, Friday 10:00 AM - 9:00 PM, Saturday 10:00 AM - 9:00 PM, Sunday 10:00 AM - 7:00 PM",Outlet,,
SHOPS AT RIVER WOODS,331,4801 N University Ave,Ste 130,Provo,UT,84604,US,(801) 229-1901,40.299143,-111.659024,"Monday 10:00 AM - 8:00 PM, Tuesday 10:00 AM - 8:00 PM, Wednesday 10:00 AM - 8:00 PM, Thursday 10:00 AM - 8:00 PM, Friday 10:00 AM - 8:00 PM, Saturday 10:00 AM - 8:00 PM, Sunday Closed",Standard,,
TROLLEY SQUARE,640,312 Trolley Square,,Salt Lake City,UT,84102,US,(801) 359-0459,40.757369,-111.872667,"Monday 10:00 AM - 9:00 PM, Tuesday 10:00 AM - 9:00 PM, Wednesday 10:00 AM - 9:00 PM, Thursday 10:00 AM - 9:00 PM, Friday 10:00 AM - 9:00 PM, Saturday 10:00 AM - 6:00 PM, Sunday 12:00 PM - 5:00 PM",Standard,,
CHINOOK CENTRE,820,6455 Macleod Trail South,Unit 0123A,Calgary,AB,T2H 0K8,CA,(403) 410-9191,50.996478,-114.07414,"Monday 9:30 AM - 9:00 PM, Tuesday 9:30 AM - 9:00 PM, Wednesday 9:30 AM - 9:00 PM, Thursday 9:30 AM - 9:00 PM, Friday 9:30 AM - 9:00 PM, Saturday 9:30 AM - 9:00 PM, Sunday 11:00 AM - 7:00 PM",Standard,,
WEST EDMONTON MALL,667,8882 170 Street Space 2862,Upper Level Phase 2,Edmonton,AB,T5T 4J2,CA,(780) 481-3618,53.52244,-113.621873,"Monday 10:00 AM - 9:00 PM, Tuesday 10:00 AM - 9:00 PM, Wednesday 10:00 AM - 9:00 PM, Thursday 10:00 AM - 9:00 PM, Friday 10:00 AM - 9:00 PM, Saturday 10:00 AM - 9:00 PM, Sunday 11:00 AM - 6:00 PM",Standard,,
LA ENCANTADA,709,2905 East Skyline Drive,Space #103,Tucson,AZ,85718,US,(520) 615-3595,32.324742,-110.930113,"Monday 10:00 AM - 7:00 PM, Tuesday 10:00 AM - 7:00 PM, Wednesday 10:00 AM - 7:00 PM, Thursday 10:00 AM - 8:00 PM, Friday 10:00 AM - 8:00 PM, Saturday 10:00 AM - 8:00 PM, Sunday 10:00 AM - 6:00 PM",Standard,,
SCOTTSDALE FASHION SQUARE,313,7014 - 1236 E. Camelback Rd.,,Scottsdale,AZ,85251,US,(480) 425-7756,33.502333,-111.929194,"Monday 10:00 AM - 9:00 PM, Tuesday 10:00 AM - 9:00 PM, Wednesday 10:00 AM - 9:00 PM, Thursday 10:00 AM - 9:00 PM, Friday 10:00 AM - 9:00 PM, Saturday 10:00 AM - 9:00 PM, Sunday 11:00 AM - 6:00 PM",Standard,,
BILTMORE PLAZA,20,2450 E. Camelback Road,Biltmore Fashion Park,Phoenix,AZ,85016,US,(602) 957-0430,33.509649,-112.02909,"Monday 10:00 AM - 8:00 PM, Tuesday 10:00 AM - 8:00 PM, Wednesday 10:00 AM - 8:00 PM, Thursday 10:00 AM - 8:00 PM, Friday 10:00 AM - 8:00 PM, Saturday 10:00 AM - 8:00 PM, Sunday 11:00 AM - 6:00 PM",Standard,,
BOISE TOWNE SQUARE,532,350 N Milwaukee Ave,Ste 1077,Boise,ID,83704,US,(208) 685-0455,43.608518,-116.279418,"Monday 10:00 AM - 9:00 PM, Tuesday 10:00 AM - 9:00 PM, Wednesday 10:00 AM - 9:00 PM, Thursday 10:00 AM - 9:00 PM, Friday 10:00 AM - 9:00 PM, Saturday 10:00 AM - 9:00 PM, Sunday 11:00 AM - 7:00 PM",Standard,,
RIVER PARK SQUARE,397,808 W. Main St,,Spokane,WA,99201,US,(509) 455-3438,47.659572,-117.423616,"Monday 10:00 AM - 6:00 PM, Tuesday 10:00 AM - 8:00 PM, Wednesday 10:00 AM - 8:00 PM, Thursday 10:00 AM - 8:00 PM, Friday 10:00 AM - 8:00 PM, Saturday 10:00 AM - 8:00 PM, Sunday 11:00 AM - 6:00 PM",Standard,,
SHOPS AT GREEN VALLEY RANCH,722,2255 Village Walk Drive,Suite 129,Henderson,NV,89052,US,(702) 897-2346,36.021012,-115.086765,"Monday 10:00 AM - 8:00 PM, Tuesday 10:00 AM - 8:00 PM, Wednesday 10:00 AM - 8:00 PM, Thursday 10:00 AM - 8:00 PM, Friday 10:00 AM - 9:00 PM, Saturday 10:00 AM - 6:00 PM, Sunday 10:00 AM - 6:00 PM",Standard,,
RAMPART COMMONS,569,1001 South Rampart Blvd,,Las Vegas,NV,89145,US,(702) 938-9480,36.160593,-115.291978,"Monday 10:00 AM - 5:00 PM, Tuesday 10:00 AM - 8:00 PM, Wednesday 10:00 AM - 8:00 PM, Thursday 10:00 AM - 8:00 PM, Friday 10:00 AM - 8:00 PM, Saturday 10:00 AM - 8:00 PM, Sunday 11:00 AM - 6:00 PM",Standard,,
PRIMM OUTLET,383,32100  Las Vegas Blvd South,Space #140,Primm,NV,89019,US,(702) 874-1780,35.607897,-115.388179,"Monday 10:00 AM - 8:00 PM, Tuesday 10:00 AM - 8:00 PM, Wednesday 10:00 AM - 8:00 PM, Thursday 10:00 AM - 8:00 PM, Friday 10:00 AM - 8:00 PM, Saturday 10:00 AM - 8:00 PM, Sunday 10:00 AM - 8:00 PM",Outlet,,
GARDENS AT EL PASEO,308,73505 El Paseo,Suite 1612,Palm Desert,CA,92260,US,(760) 862-1290,33.719719,-116.382895,"Monday 10:00 AM - 6:00 PM, Tuesday 10:00 AM - 6:00 PM, Wednesday 10:00 AM - 6:00 PM, Thursday 10:00 AM - 6:00 PM, Friday 10:00 AM - 6:00 PM, Saturday 10:00 AM - 6:00 PM, Sunday 11:00 AM - 5:00 PM",Standard,,
THE SUMMIT RENO,845,13945 S. Viriginia Street,#600,Reno,NV,89511,US,(775) 853-6877,39.401693,-119.751922,"Monday 10:00 AM - 9:00 PM, Tuesday 10:00 AM - 9:00 PM, Wednesday 10:00 AM - 9:00 PM, Thursday 10:00 AM - 9:00 PM, Friday 10:00 AM - 9:00 PM, Saturday 10:00 AM - 6:00 PM, Sunday 11:00 AM - 6:00 PM",Standard,,
BELLEVUE SQUARE,641,216 Bellevue Square,,Bellevue,WA,98004,US,(425) 454-7007,47.617948,-122.201623,"Monday 9:30 AM - 9:30 PM, Tuesday 9:30 AM - 9:30 PM, Wednesday 9:30 AM - 9:30 PM, Thursday 9:30 AM - 9:30 PM, Friday 9:30 AM - 9:30 PM, Saturday 9:30 AM - 7:00 PM, Sunday 11:00 AM - 7:00 PM",Standard,,
ALDERWOOD MALL,724,3000 184th Street SW,Suite 942,Lynnwood,WA,98037,US,(425) 778-8053,47.829954,-122.272571,"Monday 10:00 AM - 9:00 PM, Tuesday 10:00 AM - 9:00 PM, Wednesday 10:00 AM - 9:00 PM, Thursday 10:00 AM - 9:00 PM, Friday 10:00 AM - 9:00 PM, Saturday 10:00 AM - 9:00 PM, Sunday Closed",Standard,,
UNIVERSITY VILLAGE,344,2530 NE University Village,,Seattle,WA,98105,US,(206) 523-3733,47.663267,-122.299448,"Monday 9:30 AM - 9:00 PM, Tuesday 9:30 AM - 9:00 PM, Wednesday 9:30 AM - 9:00 PM, Thursday 9:30 AM - 9:00 PM, Friday 9:30 AM - 9:00 PM, Saturday 9:30 AM - 9:00 PM, Sunday 11:00 AM - 6:00 PM",Standard,,
PROMENADE IN TEMECULA,795,40764 Winchester Road,Space #560,Temecula,CA,92591,US,(951) 296-0061,33.525938,-117.158198,"Monday 10:00 AM - 7:00 PM, Tuesday 10:00 AM - 9:00 PM, Wednesday 10:00 AM - 9:00 PM, Thursday 10:00 AM - 9:00 PM, Friday 10:00 AM - 9:00 PM, Saturday 10:00 AM - 9:00 PM, Sunday 10:00 AM - 7:00 PM",Standard,,
VICTORIA GARDENS,726,12514 South Mainstreet,,Rancho Cucamonga,CA,91739,US,(909) 646-8400,34.110854,-117.532353,"Monday 10:00 AM - 9:00 PM, Tuesday 10:00 AM - 9:00 PM, Wednesday 10:00 AM - 9:00 PM, Thursday 10:00 AM - 9:00 PM, Friday 10:00 AM - 9:00 PM, Saturday 10:00 AM - 9:00 PM, Sunday 11:00 AM - 7:00 PM",Standard,,
UNIVERSITY TOWN CENTER,6049,4575 La Jolla Village Dr,Suite C,San Diego,CA,92122,US,(858) 824-9180,32.87244,-117.208705,"Monday 10:00 AM - 9:00 PM, Tuesday 10:00 AM - 9:00 PM, Wednesday 10:00 AM - 9:00 PM, Thursday 10:00 AM - 9:00 PM, Friday 10:00 AM - 9:00 PM, Saturday 10:00 AM - 9:00 PM, Sunday 11:00 AM - 7:00 PM",Standard,,
FASHION VALLEY,21,7007 Friars Road,Suite 591A,San Diego,CA,92108,US,(619) 295-0510,32.768489,-117.16596,"Monday 10:00 AM - 9:00 PM, Tuesday 10:00 AM - 9:00 PM, Wednesday 10:00 AM - 9:00 PM, Thursday 10:00 AM - 9:00 PM, Friday 10:00 AM - 9:00 PM, Saturday 10:00 AM - 9:00 PM, Sunday 11:00 AM - 7:00 PM",Standard,,
GRANVILLE,955,2903 Granville Street,,Vancouver,BC,V6H 3H8,CA,(778) 330-2581,49.259711,-123.138706,"Monday 10:00 AM - 7:00 PM, Tuesday 10:00 AM - 7:00 PM, Wednesday 10:00 AM - 7:00 PM, Thursday 10:00 AM - 8:00 PM, Friday 10:00 AM - 8:00 PM, Saturday 10:00 AM - 7:00 PM, Sunday 11:00 AM - 6:00 PM",Standard,,
THE SHOPS AT MISSION VIEJO,413,914 The Shops At Mission Viejo,,Mission Viejo,CA,92691,US,(949) 347-7190,33.557288,-117.671344,"Monday 10:00 AM - 9:00 PM, Tuesday 10:00 AM - 9:00 PM, Wednesday 10:00 AM - 9:00 PM, Thursday 10:00 AM - 9:00 PM, Friday 10:00 AM - 9:00 PM, Saturday 10:00 AM - 8:00 PM, Sunday 11:00 AM - 6:00 PM",Standard,,
BREA MALL,6174,1065 Brea Mall,Space 2004,Brea,CA,92821,US,(714) 529-3716,33.91489,-117.886692,"Monday 10:00 AM - 9:00 PM, Tuesday 10:00 AM - 9:00 PM, Wednesday 10:00 AM - 9:00 PM, Thursday 10:00 AM - 9:00 PM, Friday 10:00 AM - 9:00 PM, Saturday 10:00 AM - 9:00 PM, Sunday 11:00 AM - 7:00 PM",Standard,,
PASADENA AT THE COMMONS,11,142 S. Lake Avenue,The Commons,Pasadena,CA,91101,US,(626) 795-5045,34.143382,-118.132092,"Monday 10:00 AM - 8:00 PM, Tuesday 10:00 AM - 8:00 PM, Wednesday 10:00 AM - 8:00 PM, Thursday 10:00 AM - 8:00 PM, Friday 10:00 AM - 8:00 PM, Saturday 10:00 AM - 8:00 PM, Sunday 11:00 AM - 4:00 PM",Standard,,
SOUTH COAST PLAZA,6073,3333 Bear Street Ste 155,,Costa Mesa,CA,92626,US,(714) 540-1397,33.692055,-117.8929,"Monday 10:00 AM - 9:00 PM, Tuesday 10:00 AM - 9:00 PM, Wednesday 10:00 AM - 9:00 PM, Thursday 10:00 AM - 9:00 PM, Friday 10:00 AM - 9:00 PM, Saturday 10:00 AM - 8:00 PM, Sunday 10:00 AM - 6:00 PM",Standard,,
CRYSTAL COVE,814,8032 East Coast Highway,,Newport Coast,CA,92657,US,(949) 464-2168,33.568369,-117.83269,"Monday 10:00 AM - 7:00 PM, Tuesday 10:00 AM - 7:00 PM, Wednesday 10:00 AM - 7:00 PM, Thursday 10:00 AM - 7:00 PM, Friday 10:00 AM - 7:00 PM, Saturday 10:00 AM - 7:00 PM, Sunday 10:00 AM - 6:00 PM",Standard,,
NW 23RD AND FLANDERS,664,338 Northwest 23rd Avenue,,Portland,OR,97210,US,(503) 946-2300,45.52536,-122.698265,"Monday 10:00 AM - 6:00 PM, Tuesday 10:00 AM - 8:00 PM, Wednesday 10:00 AM - 8:00 PM, Thursday 10:00 AM - 8:00 PM, Friday 10:00 AM - 8:00 PM, Saturday 10:00 AM - 7:00 PM, Sunday 11:00 AM - 6:00 PM",Standard,,
WASHINGTON SQUARE,837,9367 SW Washington Square Road,,Tigard,OR,97223,US,(503) 684-2784,45.449609,-122.783262,"Monday 10:00 AM - 9:00 PM, Tuesday 10:00 AM - 9:00 PM, Wednesday 10:00 AM - 9:00 PM, Thursday 10:00 AM - 9:00 PM, Friday 10:00 AM - 9:00 PM, Saturday 10:00 AM - 9:00 PM, Sunday 10:00 AM - 7:00 PM",Standard,,
VALENCIA TOWN CENTER,637,24201 West Valencia Blvd,Space 3560,Valencia,CA,91355,US,(661) 288-2396,34.41763,-118.560804,"Monday 10:00 AM - 9:00 PM, Tuesday 10:00 AM - 9:00 PM, Wednesday 10:00 AM - 9:00 PM, Thursday 10:00 AM - 9:00 PM, Friday 10:00 AM - 9:00 PM, Saturday 10:00 AM - 9:00 PM, Sunday 11:00 AM - 6:00 PM",Standard,,
SHERMAN OAKS FASHION SQUARE,121,14006 Riverside Drive,Space #268,Sherman Oaks,CA,91423,US,(818) 906-2787,34.156564,-118.436993,"Monday 10:00 AM - 9:00 PM, Tuesday 10:00 AM - 9:00 PM, Wednesday 10:00 AM - 9:00 PM, Thursday 10:00 AM - 9:00 PM, Friday 10:00 AM - 9:00 PM, Saturday 10:00 AM - 9:00 PM, Sunday 10:00 AM - 7:00 PM",Standard,,
BEVERLY HILLS,2,339 N. Beverly Drive,,Beverly Hills,CA,90210,US,(310) 274-9127,34.069069,-118.401575,"Monday 10:00 AM - 7:00 PM, Tuesday 10:00 AM - 7:00 PM, Wednesday 10:00 AM - 7:00 PM, Thursday 10:00 AM - 7:00 PM, Friday 10:00 AM - 7:00 PM, Saturday 10:00 AM - 7:00 PM, Sunday 11:00 AM - 6:00 PM",Standard,,
FIG GARDEN VILLAGE,846,734 West Shaw Avenue,,Fresno,CA,93704,US,(559) 228-0563,36.808488,-119.804848,"Monday 10:00 AM - 7:00 PM, Tuesday 10:00 AM - 7:00 PM, Wednesday 10:00 AM - 7:00 PM, Thursday 10:00 AM - 7:00 PM, Friday 10:00 AM - 7:00 PM, Saturday 10:00 AM - 7:00 PM, Sunday 11:00 AM - 6:00 PM",Standard,,
THE MARKETPLACE,945,9000 Ming Avenue,Suite I1,Bakersfield,CA,93311,US,(661) 665-7920,35.341368,-119.103607,"Monday 10:00 AM - 8:00 PM, Tuesday 10:00 AM - 8:00 PM, Wednesday 10:00 AM - 8:00 PM, Thursday 10:00 AM - 8:00 PM, Friday 10:00 AM - 8:00 PM, Saturday 10:00 AM - 8:00 PM, Sunday 11:00 AM - 6:00 PM",Standard,,
MANHATTAN VILLAGE,218,3200 North Sepulveda Blvd,Space #A-9,Manhattan Beach,CA,90266,US,(310) 546-1900,33.895264,-118.39422,"Monday 10:00 AM - 6:00 PM, Tuesday 10:00 AM - 9:00 PM, Wednesday 10:00 AM - 9:00 PM, Thursday 10:00 AM - 9:00 PM, Friday 10:00 AM - 9:00 PM, Saturday 10:00 AM - 8:00 PM, Sunday 11:00 AM - 6:00 PM",Standard,,
SANTA MONICA,618,1600 Montana Avenue,,Santa Monica,CA,90403,US,(310) 586-1018,34.033694,-118.49294,"Monday 9:30 AM - 7:00 PM, Tuesday 9:30 AM - 7:00 PM, Wednesday 9:30 AM - 7:00 PM, Thursday 9:30 AM - 7:00 PM, Friday 9:30 AM - 7:00 PM, Saturday 9:30 AM - 7:00 PM, Sunday 10:00 AM - 5:00 PM",Standard,,
PROMENADE ON THE PENINSULA,408,550 Deep Valley Dr,Ste 137,Rolling Hills Estate,CA,90274,US,(310) 265-2214,33.772126,-118.373358,"Monday 10:00 AM - 8:00 PM, Tuesday 10:00 AM - 8:00 PM, Wednesday 10:00 AM - 8:00 PM, Thursday 10:00 AM - 8:00 PM, Friday 10:00 AM - 8:00 PM, Saturday 10:00 AM - 8:00 PM, Sunday 11:00 AM - 6:00 PM",Standard,,
TOPANGA,848,6600 Topanga Canyon Boulevard,Space 1040,Canoga Park,CA,91303,US,(818) 703-9394,34.190077,-118.604267,"Monday 9:00 AM - 9:00 PM, Tuesday 10:00 AM - 9:00 PM, Wednesday 10:00 AM - 9:00 PM, Thursday 10:00 AM - 9:00 PM, Friday 10:00 AM - 9:00 PM, Saturday 10:00 AM - 9:00 PM, Sunday 11:00 AM - 7:00 PM",Standard,,
COMMONS CALABASAS,6134,4776 Commons Way Suite H,,Calabasas,CA,91302,US,(818) 591-5940,34.155047,-118.64299,"Monday 9:00 AM - 7:00 PM, Tuesday 9:00 AM - 7:00 PM, Wednesday 9:00 AM - 7:00 PM, Thursday 9:00 AM - 7:00 PM, Friday 9:00 AM - 7:00 PM, Saturday 9:00 AM - 7:00 PM, Sunday 11:00 AM - 6:00 PM",Standard,,
THE OAKS,856,556 West Hillcrest Drive,Space P-15,Thousand Oaks,CA,91360,US,(805) 495-3632,34.187463,-118.888744,"Monday 10:00 AM - 9:00 PM, Tuesday 10:00 AM - 9:00 PM, Wednesday 10:00 AM - 9:00 PM, Thursday 10:00 AM - 9:00 PM, Friday 10:00 AM - 9:00 PM, Saturday 10:00 AM - 9:00 PM, Sunday 11:00 AM - 7:00 PM",Standard,,
GALLERIA AT ROSEVILLE,478,1151 Galleria Blvd,Suite # 128,Roseville,CA,95678,US,(916) 788-1240,38.773442,-121.269283,"Monday 10:00 AM - 9:00 PM, Tuesday 10:00 AM - 9:00 PM, Wednesday 10:00 AM - 9:00 PM, Thursday 10:00 AM - 9:00 PM, Friday 10:00 AM - 9:00 PM, Saturday 10:00 AM - 9:00 PM, Sunday 10:00 AM - 7:00 PM",Standard,,
PAVILIONS,636,525 Pavilions Lane,,Sacramento,CA,95825,US,(916) 923-3301,38.5756,-121.41105,"Monday 10:00 AM - 5:00 PM, Tuesday 10:00 AM - 7:00 PM, Wednesday 10:00 AM - 7:00 PM, Thursday 10:00 AM - 7:00 PM, Friday 10:00 AM - 7:00 PM, Saturday 10:00 AM - 6:00 PM, Sunday 11:00 AM - 5:00 PM",Standard,,
LA CUMBRE PLAZA,625,3835 State Street,Space C-150-A,Santa Barbara,CA,93105,US,(805) 569-6913,34.440404,-119.747692,"Monday 10:00 AM - 8:00 PM, Tuesday 10:00 AM - 8:00 PM, Wednesday 10:00 AM - 8:00 PM, Thursday 10:00 AM - 8:00 PM, Friday 10:00 AM - 8:00 PM, Saturday 10:00 AM - 6:00 PM, Sunday 11:00 AM - 6:00 PM",Standard,,
MONTEREY STREET,6213,864 Monterey Street,,San Luis Obispo,CA,93401,US,(805) 786-4160,35.280894,-120.662866,"Monday 10:00 AM - 9:00 PM, Tuesday 10:00 AM - 9:00 PM, Wednesday 10:00 AM - 9:00 PM, Thursday 10:00 AM - 9:00 PM, Friday 10:00 AM - 9:00 PM, Saturday 10:00 AM - 7:00 PM, Sunday 11:00 AM - 6:00 PM",Standard,,
STONERIDGE MALL,713,2537 Stoneridge Mall,,Pleasanton,CA,94588,US,(925) 737-0459,37.69603,-121.925553,"Monday 10:00 AM - 9:00 PM, Tuesday 10:00 AM - 9:00 PM, Wednesday 10:00 AM - 9:00 PM, Thursday 10:00 AM - 9:00 PM, Friday 10:00 AM - 9:00 PM, Saturday 10:00 AM - 9:00 PM, Sunday 11:00 AM - 7:00 PM",Standard,,
WALNUT CREEK,104,1470 Mount Diablo Blvd.,,Walnut Creek,CA,94596,US,(925) 210-1215,37.897729,-122.059676,"Monday 10:00 AM - 9:00 PM, Tuesday 10:00 AM - 9:00 PM, Wednesday 10:00 AM - 9:00 PM, Thursday 10:00 AM - 9:00 PM, Friday 10:00 AM - 9:00 PM, Saturday 10:00 AM - 8:00 PM, Sunday 11:00 AM - 6:00 PM",Standard,,
VALLEY FAIR MALL,6009,2855 Stevens Creek Blvd,Space B313,Santa Clara,CA,95050,US,(408) 985-1507,37.325845,-121.945615,"Monday 10:00 AM - 9:30 PM, Tuesday 10:00 AM - 9:30 PM, Wednesday 10:00 AM - 9:30 PM, Thursday 10:00 AM - 9:30 PM, Friday 10:00 AM - 9:30 PM, Saturday 10:00 AM - 9:00 PM, Sunday 11:00 AM - 7:00 PM",Standard,,
SONOMA,6069,605 Broadway,,Sonoma,CA,95476,US,(707) 939-8974,38.290142,-122.458481,"Monday 10:00 AM - 4:00 PM, Tuesday 10:00 AM - 6:00 PM, Wednesday 10:00 AM - 6:00 PM, Thursday 10:00 AM - 6:00 PM, Friday 10:00 AM - 6:00 PM, Saturday 10:00 AM - 6:00 PM, Sunday 10:00 AM - 6:00 PM",Standard,,
LOS GATOS,528,122 N. Santa Cruz Ave,,Los Gatos,CA,95030,US,(408) 354-7302,37.224974,-121.982387,"Monday 10:00 AM - 7:00 PM, Tuesday 10:00 AM - 7:00 PM, Wednesday 10:00 AM - 7:00 PM, Thursday 10:00 AM - 7:00 PM, Friday 10:00 AM - 8:00 PM, Saturday 10:00 AM - 7:00 PM, Sunday 11:00 AM - 6:00 PM",Standard,,
ALAMEDA WAREHOUSE OUTLET,6218,1680 Viking St.,Unit B of Bldg 169,Alameda,CA,94501,US,0,37.77608,-122.295554,"Monday Closed, Tuesday Closed, Wednesday Closed, Thursday 10:00 AM - 5:00 PM, Friday 10:00 AM - 5:00 PM, Saturday 10:00 AM - 5:00 PM, Sunday 10:00 AM - 5:00 PM",Outlet,,
STANFORD SHOPPING CENTER,356,180 El Camino Real,Space 701,Palo Alto,CA,94304,US,(650) 321-3486,37.444615,-122.170321,"Monday 10:00 AM - 9:00 PM, Tuesday 10:00 AM - 9:00 PM, Wednesday 10:00 AM - 9:00 PM, Thursday 10:00 AM - 9:00 PM, Friday 10:00 AM - 9:00 PM, Saturday 10:00 AM - 7:00 PM, Sunday 11:00 AM - 6:00 PM",Standard,,
POST STREET,392,340 Post Street,,San Francisco,CA,94108,US,(415) 362-9450,37.788701,-122.407517,"Monday 9:00 AM - 9:00 PM, Tuesday 9:00 AM - 9:00 PM, Wednesday 9:00 AM - 9:00 PM, Thursday 9:00 AM - 9:00 PM, Friday 9:00 AM - 9:00 PM, Saturday 9:00 AM - 9:00 PM, Sunday 10:00 AM - 6:00 PM",Standard,,
HILLSDALE MALL,6175,113 Hillsdale Mall,SPC 1012,San Mateo,CA,94403,US,(650) 577-1027,37.534549,-122.30065,"Monday 10:00 AM - 9:00 PM, Tuesday 10:00 AM - 9:00 PM, Wednesday 10:00 AM - 9:00 PM, Thursday 10:00 AM - 9:00 PM, Friday 10:00 AM - 9:00 PM, Saturday 10:00 AM - 9:00 PM, Sunday 11:00 AM - 7:00 PM",Standard,,
CHESTNUT STREET,252,2000 Chestnut St.,,San Francisco,CA,94123,US,(415) 929-2520,37.800953,-122.436738,"Monday 10:00 AM - 8:00 PM, Tuesday 10:00 AM - 8:00 PM, Wednesday 10:00 AM - 8:00 PM, Thursday 10:00 AM - 8:00 PM, Friday 10:00 AM - 8:00 PM, Saturday 10:00 AM - 8:00 PM, Sunday 10:00 AM - 6:00 PM",Standard,,
VILLAGE AT CORTE MADERA,809,1802 Redwood Highway,Suite B-037,Corte Madera,CA,94925,US,(415) 924-6799,37.934472,-122.515869,"Monday 10:00 AM - 6:00 PM, Tuesday 10:00 AM - 8:00 PM, Wednesday 10:00 AM - 8:00 PM, Thursday 10:00 AM - 8:00 PM, Friday 10:00 AM - 8:00 PM, Saturday 10:00 AM - 7:00 PM, Sunday 10:00 AM - 6:00 PM",Standard,,
DEL MONTE CENTER,908,1210 Del Monte Center,,Monterey,CA,93940,US,(831) 641-9398,36.584502,-121.895244,"Monday 10:00 AM - 9:00 PM, Tuesday 10:00 AM - 9:00 PM, Wednesday 10:00 AM - 9:00 PM, Thursday 10:00 AM - 9:00 PM, Friday 10:00 AM - 9:00 PM, Saturday 10:00 AM - 7:00 PM, Sunday 11:00 AM - 5:00 PM",Standard,,
ALA MOANA CENTER,621,1450 Ala Moana Blvd.,Space #3406,Honolulu,HI,96814,US,(808) 951-0088,21.289566,-157.84347,"Monday 9:30 AM - 9:00 PM, Tuesday 9:30 AM - 9:00 PM, Wednesday 9:30 AM - 9:00 PM, Thursday 9:30 AM - 9:00 PM, Friday 9:30 AM - 9:00 PM, Saturday 9:30 AM - 9:00 PM, Sunday 10:00 AM - 7:00 PM",Standard,,
