store_name,store_number,address,address2,city,state,zip_code,country,phone_number,latitude,longitude,store_hours,store_type,other_fields,coming_soon
Winchell's Donut House,,2100 W Beverly Blvd,,Los Angeles,CA,90057,United States,(213) 483-6605,34.066826,-118.270650,Mon-Sun 12:00 AM-12:00 AM|,,,
Winchell's Donut House,,1213 S Soto,,Los Angeles,CA,90023,United States,(323) 780-4331,34.027751,-118.219515,Mon-Sun 12:00 AM-12:00 AM|,,,
Winchell's Donut House,,2501 S San Pedro St,,Los Angeles,CA,90011,United States,(213) 745-9038,34.022452,-118.260765,Mon-Sun 12:00 AM-12:00 AM|,,,
Winchell's Donut House,,697 S Hoover St,,Los Angeles,CA,90005,United States,(213) 480-8416,34.059858,-118.284211,Mon-Sun 12:00 AM-12:00 AM|,,,
Winchell's Donut House,,2548 Glendale Blvd,,Los Angeles,CA,90039,United States,(323) 669-9562,34.103929,-118.259132,Mon-Sun 12:00 AM-12:00 AM|,,,
Winchell's Donut House,,1700 S Western Ave,,Los Angeles,CA,90006,United States,(323) 731-9725,34.041715,-118.308998,Mon-Sun 12:00 AM-12:00 AM|,,,
Winchell's Donut House,,716 N Western Ave,,Los Angeles,CA,90029,United States,(323) 467-0044,34.084150,-118.309136,Mon-Sun 12:00 AM-12:00 AM|,,,
Winchell's Donut House,,3610 Venice Blvd,,Los Angeles,CA,90019,United States,(323) 733-6075,34.043543,-118.323849,Mon-Sun 12:00 AM-12:00 AM|,,,
Winchell's Donut House,,6101 Pacific Blvd.,,Huntington Park,CA,90255,United States,(323)277-9874,33.985266,-118.225218,Mon-Sun 12:00 AM-12:00 AM|,,,
Winchell's Donut House,,3501 E Slauson Ave,,Maywood,CA,90270,United States,(323) 582-6523,33.988884,-118.202378,Mon-Sun 12:00 AM-12:00 AM|,,,
Winchell's Donut House,,"1457 E. Florence Ave., #107",,Los Angeles,CA,90001,United States,(323) 277-3255,33.974753,-118.248176,Mon-Sun 12:00 AM-12:00 AM|,,,
Winchell's Donut House,,1316 N Vine St,,Hollywood,CA,90028,United States,(323) 462-8617,34.094895,-118.326633,Mon-Sun 12:00 AM-12:00 AM|,,,
Winchell's Donut House,,1455 S Atlantic Blvd,,Los Angeles,CA,90022,United States,(323) 267-8540,34.011254,-118.159159,Mon-Sun 12:00 AM-12:00 AM|,,,
Winchell's Donut House,,101 W Florence Ave,,Los Angeles,CA,90003,United States,(323) 753-9850,33.974695,-118.274344,Mon-Sun 12:00 AM-12:00 AM|,,,
Winchell's Donut House,,6014 Atlantic Blvd,,Maywood,CA,90270,United States,(323) 560-0891,33.985132,-118.185878,Mon-Sun 12:00 AM-12:00 AM|,,,
Winchell's Donut House,,928 W Florence Ave,,Los Angeles,CA,90044,United States,(323) 789-6753,33.974620,-118.290197,Mon-Sun 12:00 AM-12:00 AM|,,,
Winchell's Donut House,,7158 Melrose Ave,,Los Angeles,CA,90046,United States,(323) 938-8578,34.083454,-118.345358,Mon-Sun 12:00 AM-12:00 AM|,,,
Winchell's Donut House,,438 Fairoaks Ave,,S. Pasadena,CA,91030,United States,(626) 799-9324,34.120978,-118.163170,Mon-Sun 12:00 AM-12:00 AM|,,,
Winchell's Donut House,,"8567 S. Broadway, #2",,Los Angeles,CA,90003,United States,(323) 758-2372,33.960440,-118.278285,Mon-Sun 12:00 AM-12:00 AM|,,,
Winchell's Donut House,,3023 W Florence Ave,,Los Angeles,CA,90043,United States,(323) 751-7462,33.974558,-118.326245,Mon-Sun 12:00 AM-12:00 AM|,,,
Winchell's Donut House,,4000 E Firestone Blvd,,South Gate,CA,90280,United States,(323) 357-9953,33.953592,-118.199925,Mon-Sun 12:00 AM-12:00 AM|,,,
Winchell's Donut House,,2601 W Manchester,,Inglewood,CA,90305,United States,(323) 753-4091,33.960018,-118.322375,Mon-Sun 12:00 AM-12:00 AM|,,,
Winchell's Donut House,,6333 Florence Ave,,Bell Gardens,CA,90201,United States,(562) 927-3755,33.965528,-118.151675,Mon-Sun 12:00 AM-12:00 AM|,,,
Winchell's Donut House,,600 S Victory Blvd,,Burbank,CA,91502,United States,(818) 842-8823,34.169507,-118.311664,Mon-Sun 12:00 AM-12:00 AM|,,,
Winchell's Donut House,,1404 W Imperial Hwy,,Los Angeles,CA,90047,United States,(323) 754-8346,33.930895,-118.300701,Mon-Sun 12:00 AM-12:00 AM|,,,
Winchell's Donut House,,4328 Imperial Hwy,,Lynwood,CA,90262,United States,(310) 605-0948,33.930826,-118.184970,Mon-Sun 12:00 AM-12:00 AM|,,,
Winchell's Donut House,,10801 S Crenshaw Blvd,,Inglewood,CA,90303,United States,(310) 677-5825,33.937598,-118.326544,Mon-Sun 12:00 AM-12:00 AM|,,,
Winchell's Donut House,,439 E Orange Grove Blvd,,Pasadena,CA,91104,United States,(626) 744-1863,34.157775,-118.141158,Mon-Sun 12:00 AM-12:00 AM|,,,
Winchell's Donut House,,571 S Lake St,,Pasadena,CA,91101,United States,(626) 396-7065,34.153312,-118.132067,Mon-Sun 12:00 AM-12:00 AM|,,,
Winchell's Donut House,,11413 Jefferson Blvd,,Culver City,CA,90230,United States,(310) 397-9714,33.989844,-118.395943,Mon-Sun 12:00 AM-12:00 AM|,,,
Winchell's Donut House,,10833 National Blvd,,Los Angeles,CA,90064,United States,(310) 474-9010,34.030660,-118.420870,Mon-Sun 12:00 AM-12:00 AM|,,,
Winchell's Donut House,,11330 Washington Blvd,,Whittier,CA,90606,United States,(562) 695-1716,33.971437,-118.069414,Mon-Sun 12:00 AM-12:00 AM|,,,
Winchell's Donut House,,1300 E Alondra Blvd,,Compton,CA,90221,United States,(310) 762-9435,33.888617,-118.207927,Mon-Sun 12:00 AM-12:00 AM|,,,
Winchell's Donut House,,2033 N Durfee Ave,,South El Monte,CA,91733,United States,(626) 575-0455,34.046117,-118.029412,Mon-Sun 12:00 AM-12:00 AM|,,,
Winchell's Donut House,,6502 Greenleaf Ave,,Whittier,CA,90601,United States,(562) 698-5719,33.982600,-118.037346,Mon-Sun 12:00 AM-12:00 AM|,,,
Winchell's Donut House,,3495 E Artesia Blvd,,Long Beach,CA,90805,United States,(562) 216-7079,33.874797,-118.151344,Mon-Sun 12:00 AM-12:00 AM|,,,
Winchell's Donut House,,13070 E Valley Blvd,,La Puente,CA,91746,United States,(626) 336-9081,34.051956,-118.000340,Mon-Sun 12:00 AM-12:00 AM|,,,
Winchell's Donut House,,2727 Manhattan Beach Blvd,,Redondo Beach,CA,90278,United States,(310) 536-0694,33.872923,-118.361963,Mon-Sun 12:00 AM-12:00 AM|,,,
Winchell's Donut House,,184 E Carson St,,Carson,CA,90745,United States,(310) 835-7511,33.831576,-118.274739,Mon-Sun 12:00 AM-12:00 AM|,,,
Winchell's Donut House,,13811 Roscoe Blvd,,Panorama City,CA,91402,United States,(818) 894-9045,34.221655,-118.433678,Mon-Sun 12:00 AM-12:00 AM|,,,
Winchell's Donut House,,1128 S Hacienda Blvd,,Hacienda Heights,CA,91745,United States,(626) 336-9611,34.009695,-117.963259,Mon-Sun 12:00 AM-12:00 AM|,,,
Winchell's Donut House,,15015 Roscoe Blvd,,Panorama City,CA,91402,United States,(818) 891-9125,34.221471,-118.460017,Mon-Sun 12:00 AM-12:00 AM|,,,
Winchell's Donut House,,1695 W Pacific Coast Hwy,,Long Beach,CA,90810,United States,(562) 437-8463,33.789859,-118.215141,Mon-Sun 12:00 AM-12:00 AM|,,,
Winchell's Donut House,,5416 Reseda Blvd,,Tarzana,CA,91356,United States,(818) 708-2174,34.169417,-118.535942,Mon-Sun 12:00 AM-12:00 AM|,,,
Winchell's Donut House,,14530 Brand Blvd,,San Fernando,CA,91340,United States,(818) 361-9017,34.274645,-118.449216,Mon-Sun 12:00 AM-12:00 AM|,,,
Winchell's Donut House,,127 N Azusa,,Covina,CA,91722,United States,(626) 339-7515,34.087040,-117.907863,Mon-Sun 12:00 AM-12:00 AM|,,,
Winchell's Donut House,,18881 E Colima Rd,,Rowland Heights,CA,91748,United States,(626) 913-7545,33.987722,-117.892399,Mon-Sun 12:00 AM-12:00 AM|,,,
Winchell's Donut House,,901 S Euclid Ave,,Anaheim,CA,92802,United States,(714) 774-1885,33.802838,-117.941067,Mon-Sun 12:00 AM-12:00 AM|,,,
Winchell's Donut House,,12951 Chapman Ave,,Garden Grove,CA,92840,United States,(714) 750-0771,33.788890,-117.906877,Mon-Sun 12:00 AM-12:00 AM|,,,
Winchell's Donut House,,17030 Magnolia St,,Fountain Valley,CA,92708,United States,(714) 847-1955,33.715318,-117.971778,Mon-Sun 12:00 AM-12:00 AM|,,,
Winchell's Donut House,,1501 Rosecrans St,,San Diego,CA,92106,United States,(619) 222-1653,32.726287,-117.227722,Mon-Sun 12:00 AM-12:00 AM|,,,
Winchell's Donut House,,2447 E Plaza Blvd,,National City,CA,91950,United States,(619) 479-8300,32.679488,-117.080727,Mon-Sun 12:00 AM-12:00 AM|,,,
Winchell's Donut House,,12372 Poway Rd,,Poway,CA,92064,United States,(858) 748-7955,32.942535,-117.064460,Mon-Sun 12:00 AM-12:00 AM|,,,
Winchell's Donut House,,640 E Laurel Dr,,Salinas,CA,93906,United States,(831) 770-0731,36.696487,-121.639256,Mon-Sun 12:00 AM-12:00 AM|,,,
Winchell's Donut House,,969 E Alisal St,,Salinas,CA,93905,United States,(831) 770-0766,36.672971,-121.627806,Mon-Sun 12:00 AM-12:00 AM|,,,
Winchell's Donut House,,1120 S Main St,,Salinas,CA,93901,United States,(831) 758-4588,36.659632,-121.658749,Mon-Sun 12:00 AM-12:00 AM|,,,
Winchell's Donut House,,1301 S Broadway,,Denver,CO,80210,United States,(303) 777-9361,39.692806,-104.987488,Mon-Sun 12:00 AM-12:00 AM|,,,
Winchell's Donut House,,5195 W First Ave,,Denver,CO,80219,United States,(303) 934-5352,39.718359,-105.053188,Mon-Sun 12:00 AM-12:00 AM|,,,
Winchell's Donut House,,4965 Federal Blvd,,Denver,CO,80221,United States,(303) 477-5926,39.786815,-105.025257,Mon-Sun 12:00 AM-12:00 AM|,,,
Winchell's Donut House,,6801 W Colfax,,Lakewood,CO,80214,United States,(303) 232-4789,39.740367,-105.072464,Mon-Sun 12:00 AM-12:00 AM|,,,
Winchell's Donut House,,6550 E Evans,,Denver,CO,80224,United States,(303) 756-4991,39.678448,-104.912030,Mon-Sun 12:00 AM-12:00 AM|,,,
Winchell's Donut House,,10000 W 44th Ave,,Wheatridge,CO,80033,United States,(303) 423-1231,39.778827,-105.103173,Mon-Sun 12:00 AM-12:00 AM|,,,
Winchell's Donut House,,7930 Sheridan Blvd,,Arvada,CO,80003,United States,(303) 428-3277,39.839504,-105.053257,Mon-Sun 12:00 AM-12:00 AM|,,,
Winchell's Donut House,,15195 E Hampden,,Aurora,CO,80014,United States,(303) 693-3164,39.651073,-104.811505,Mon-Sun 12:00 AM-12:00 AM|,,,
Winchell's Donut House,,502 Main St,,Longmont,CO,80501,United States,(303) 772-4100,40.167581,-105.102506,Mon-Sun 12:00 AM-12:00 AM|,,,
Winchell's Donut House,,1503 8th Ave,,Greeley,CO,80631,United States,(970) 353-5728,40.415393,-104.690919,Mon-Sun 12:00 AM-12:00 AM|,,,
Winchell's Donut House,,401 N Eastern Ave,,Las Vegas,NV,89101,United States,(702) 384-3463,36.169611,-115.116046,Mon-Sun 12:00 AM-12:00 AM|,,,
Winchell's Donut House,,830 Rancho Dr,,Las Vegas,NV,89106,United States,(702) 648-9036,36.179958,-115.178114,Mon-Sun 12:00 AM-12:00 AM|,,,
Winchell's Donut House,,"4700 Meadow Lane, Ste 150",,Las Vegas,NV,89107,United States,(702) 870-6340,36.170198,-115.204754,Mon-Sun 12:00 AM-12:00 AM|,,,
Winchell's Donut House,,4111 Boulder Hwy,,Las Vegas,NV,89121,United States,(702) 641-9800,36.131555,-115.085248,Mon-Sun 12:00 AM-12:00 AM|,,,
Winchell's Donut House,,3307 S Jones,,Las Vegas,NV,89146,United States,(702) 367-1427,36.128931,-115.225041,Mon-Sun 12:00 AM-12:00 AM|,,,
Winchell's Donut House,,4580 E Tropicana,,Las Vegas,NV,89121,United States,(702) 456-7100,36.100364,-115.073697,Mon-Sun 12:00 AM-12:00 AM|,,,
Winchell's Donut House,,"7660 W Cheyenne, #123",,Las Vegas,NV,89129,United States,(702) 396-0889,36.218362,-115.262324,Mon-Sun 12:00 AM-12:00 AM|,,,
Winchell's Donut House,,"600 E Warm Springs Rd, # 110",,Henderson,NV,89119,United States,(702) 914-2478,36.057075,-115.149883,Mon-Sun 12:00 AM-12:00 AM|,,,
Winchell's Donut House,,"4035 S. Durango Ave, #102",,Las Vegas,NV,89147,United States,(702) 242-2080,36.116429,-115.279004,Mon-Sun 12:00 AM-12:00 AM|,,,
Winchell's Donut House,,8110 Warm Springs Rd.,,Las Vegas,NV,89113,United States,(702) 407-9128,36.055574,-115.268007,Mon-Sun 12:00 AM-12:00 AM|,,,
Winchell's Donut House,,272 N Tustin St,,Orange,CA,92867,United States,(714) 538-0421,33.791104,-117.835719,Mon-Sun 12:00 AM-12:00 AM|,,,
Winchell's Donut House,,12437 Central Ave,,Chino,CA,91710,United States,(909) 591-7142,34.027425,-117.689290,Mon-Sun 12:00 AM-12:00 AM|,,,
Winchell's Donut House,,2527 N 72nd St,,Omaha,NE,68134,United States,(402) 885-8545,41.282429,-96.023815,Mon-Sun 12:00 AM-12:00 AM|,,,
Winchell's Donut House,,8412 W Dodge,,Omaha,NE,68114,United States,(402) 390-0726,41.262069,-96.043420,Mon-Sun 12:00 AM-12:00 AM|,,,
Winchell's Donut House,,2905 S 120th St,,Omaha,NE,68144,United States,(402) 334-5140,41.233031,-96.100717,Mon-Sun 12:00 AM-12:00 AM|,,,
Winchell's Donut House,,2240 N 48th,,Lincoln,NE,68504,United States,(402) 465-4433,40.835005,-96.653665,Mon-Sun 12:00 AM-12:00 AM|,,,
Winchell's Donut House,,1205 W Pawnee Ave,,Wichita,KS,67213,United States,(316) 265-0663,37.651526,-97.354036,Mon-Sun 12:00 AM-12:00 AM|,,,
Winchell's Donut House,,1705 University Ave,,Riverside,CA,92507,United States,(951) 682-8834,33.975735,-117.348724,Mon-Sun 12:00 AM-12:00 AM|,,,
Winchell's Donut House,,15001 7th St,,Victorville,CA,92395,United States,(760) 241-4587,34.524597,-117.304334,Mon-Sun 12:00 AM-12:00 AM|,,,
Winchell's Donut House,,202 N Milpas,,Santa Barbara,CA,93103,United States,(805) 965-9203,34.423614,-119.681674,Mon-Sun 12:00 AM-12:00 AM|,,,
Winchell's Donut House,,"34091 Date Palm Dr., Ste. A",,Cathedral City,CA,92234,United States,(760) 328-8700,33.800674,-116.458164,Mon-Sun 12:00 AM-12:00 AM|,,,
Winchell's Donut House,,45995 Monroe St,,Indio,CA,92201,United States,(760) 342-3287,33.715303,-116.233887,Mon-Sun 12:00 AM-12:00 AM|,,,
Winchell's Donut House,,"78395 Varner Rd., Suite C",,Palm Desert,CA,92211,United States,(760) 360-5011,33.760038,-116.296191,Mon-Sun 12:00 AM-12:00 AM|,,,
Winchell's Donut House,,308 S Van Buren,,Enid,OK,73703,United States,(580) 234-2882,36.394208,-97.890150,Mon-Sun 12:00 AM-12:00 AM|,,,
