store_name,store_number,address,address2,city,state,zip_code,country,phone_number,latitude,longitude,store_hours,store_type,other_fields,coming_soon
,,"2585 Miracle Mile
                                STE 128",,Bullhead City,AZ,86442,United States,(928) 299-5068,,,,,,
,,289 Lake Havasu Ave S,,Lake Havasu City,AZ,86403,United States,(928) 299-5068,,,,,,
,,"1929 S. Arizona Ave.
                                Ste 5",,Yuma,AZ,85364,United States,(928) 299-5068,,,,,,
,,"1841 AZ-69
                                STE 102",,Prescott,AZ,86301,United States,(928) 299-5068,,,,,,
,,9611 West Camelback Road Suite #117,,Phoenix,AZ,85037,United States,(928) 299-5068,,,,,,
,,6640 W. Cactus Rd. Ste. A111,,Glendale,AZ,85304,United States,(623) 776-1130,,,,,,
,,2734 West Bell Road Suite 1306,,Phoenix,AZ,85053,United States,(623) 776-1130,,,,,,
,,6120 N 16th St,,Phoenix,AZ,85016,United States,(623) 776-1130,,,,,,
,,3133 E. Greenway Rd.,,Phoenix,AZ,85032,United States,(623) 776-1130,,,,,,
,,8100 S. Priest Dr. #106,,Tempe,AZ,85284,United States,(623) 776-1130,,,,,,
,,15090 N Northsite Blvd. Ste. 110,,Scottsdale,AZ,85260,United States,(480) 607-4427,,,,,,
,,8473 E. McDonald Dr,,Scottsdale,AZ,85250,United States,(480) 607-4427,,,,,,
,,3205 N Arizona Ave Ste A1,,Chandler,AZ,85225,United States,(480) 607-4427,,,,,,
,,6052 E. Baseline Rd. Ste. 101,,Mesa,AZ,85206,United States,(480) 607-4427,,,,,,
,,3900 East Route 66 #6,,Flagstaff,AZ,86004,United States,(480) 607-4427,,,,,,
,,6741 N. Thornydale Rd. #135,,Tucson,AZ,85741,United States,(520) 219-0325,,,,,,
,,4444 E. Grant Rd. #122,,Tucson,AZ,85712,United States,(520) 219-0325,,,,,,
,,151 N White Mountain Rd. Ste C,,Show Low,AZ,85901,United States,(520) 219-0325,,,,,,
,,6200 Coors Blvd. N.W. Bldg. A,,Albuquerque,NM,87120,United States,(520) 219-0325,,,,,,
,,5504 Menaul Blvd NE #3,,Albuquerque,NM,87110,United States,(520) 219-0325,,,,,,
,,126 Wyatt Dr.,,Las Cruces,NM,88005,United States,(575) 527-4100,,,,,,
,,"4700 N Mesa St
                                Suite E-4",,El Paso,TX,79912,United States,(575) 527-4100,,,,,,
,,6800 Gateway Blvd. E. #1A,,El Paso,TX,79915,United States,(575) 527-4100,,,,,,
,,700 E. 1st St. #747,,Alamogordo,NM,88310,United States,(575) 527-4100,,,,,,
,,"2921 George Dieter
                                Ste C",,El Paso,TX,79936,United States,(575) 527-4100,,,,,,
,,1005 St. Francis Dr. #111,,Santa Fe,NM,87505,United States,(505) 983-0038,,,,,,
,,1300 W. Alameda St.,,Roswell,NM,88203,United States,(505) 983-0038,,,,,,
,,1206 W. 21st St.,,Clovis,NM,88101,United States,(505) 983-0038,,,,,,
,,4112 S.W. 45th Ave.,,Amarillo,TX,79109,United States,(505) 983-0038,,,,,,
,,2784 N. Grandview Ave.,,Odessa,TX,79761,United States,(505) 983-0038,,,,,,
,,3322 83rd St.,,Lubbock,TX,79423,United States,(806) 791-1076,,,,,,
,,2900 Olton Rd. Ste. 11,,Plainview,TX,79072,United States,(806) 791-1076,,,,,,
,,3211 W. Wadley Ave. #6,,Midland,TX,79705,United States,(806) 791-1076,,,,,,
,,2531 W Loop 306,,San Angelo,TX,76904,United States,(806) 791-1076,,,,,,
,,318 N. Treadway Blvd.,,Abilene,TX,79601,United States,(806) 791-1076,,,,,,
,,3100 Grant St.,,Wichita Falls,TX,76308,United States,(877) 691-9403,,,,,,
,,413 Early Blvd,,Brownwood,TX,76802,United States,(877) 691-9403,,,,,,
,,721 Hill Country Dr.,,Kerrville,TX,78028,United States,(877) 691-9403,,,,,,
,,6909 Northwest Expressway Unit 5,,Oklahoma City,OK,73132,United States,(877) 691-9403,,,,,,
,,9416 North May,,Oklahoma City,OK,73120,United States,(877) 691-9403,,,,,,
,,7313 South Western Avenue,,Oklahoma City,OK,73139,United States,(405) 631-4786,,,,,,
,,3424 S. Blvd.,,Edmond,OK,73013,United States,(405) 631-4786,,,,,,
,,842 N.W. 12th St.,,Moore,OK,73160,United States,(405) 631-4786,,,,,,
,,2272 W Main,,Norman,OK,73069,United States,(405) 631-4786,,,,,,
,,1901 Martin Dr.,,Weatherford,TX,76086,United States,(405) 631-4786,,,,,,
,,1200 South Air Depot Blvd. Suite Q,,Midwest City,OK,73110,United States,(405) 733-7841,,,,,,
,,1405-B Mormon Mill Rd.,,Marble Falls,TX,78654,United States,(405) 733-7841,,,,,,
,,"11654 Bandera Rd
                                Ste 101",,San Antonio,TX,78250,United States,(405) 733-7841,,,,,,
,,3206 Northwestern Ave,,San Antonio,TX,78238,United States,(405) 733-7841,,,,,,
,,3904 Fredericksburg Rd.,,San Antonio,TX,78201,United States,(405) 733-7841,,,,,,
,,"3717 McClelland St.
                                #5",,Laredo,TX,78040,United States,(956) 523-8677,,,,,,
,,"8507 N. McCullough Ave.
                                Ste A-13",,San Antonio,TX,78216,United States,(956) 523-8677,,,,,,
,,6636 Lake Worth Blvd. #200,,Lake Worth,TX,76135,United States,(956) 523-8677,,,,,,
,,1740 Mall Circle,,Fort Worth,TX,76116,United States,(956) 523-8677,,,,,,
,,"3660 Thousand Oaks Dr.
                                #120",,San Antonio,TX,78247,United States,(956) 523-8677,,,,,,
,,2508 Pleasanton Rd.,,San Antonio,TX,78221,United States,(210) 927-5205,,,,,,
,,"15150 Nacogdoches Rd.
                                Ste 155",,San Antonio,TX,78247,United States,(210) 927-5205,,,,,,
,,3861 S.W. Loop 820,,Fort Worth,TX,76133,United States,(210) 927-5205,,,,,,
,,112 NW Magnolia,,Burleson,TX,76028,United States,(210) 927-5205,,,,,,
,,3123 Commerce Dr.,,Killeen,TX,76543,United States,(210) 927-5205,,,,,,
,,1540 Keller Pkwy. #105,,Keller,TX,76248,United States,(817) 337-1852,,,,,,
,,1628 W. University Dr.,,Denton,TX,76201,United States,(817) 337-1852,,,,,,
,,770 W Bedford Euless Rd,,Hurst,TX,76053,United States,(817) 337-1852,,,,,,
,,645 FM 1044,,New Braunfels,TX,78130,United States,(817) 337-1852,,,,,,
,,200 South Bell Blvd. Ste F-4,,Cedar Park,TX,78613,United States,(817) 337-1852,,,,,,
,,4882 Little Rd.,,Arlington,TX,76017,United States,(817) 561-0996,,,,,,
,,1297 FM 407 #322,,Lewisville,TX,75077,United States,(817) 561-0996,,,,,,
,,12518 Research Blvd. Ste B,,Austin,TX,78759,United States,(817) 561-0996,,,,,,
,,"9900 S IH35, Service Road SB
                                Suite 700",,Austin,TX,78748,United States,(817) 561-0996,,,,,,
,,"1104 Thorpe Ln.
                                Ste. T",,San Marcos,TX,78666,United States,(817) 561-0996,,,,,,
,,3100 South Lamar Blvd.,,Austin,TX,78704,United States,(512) 444-6777,,,,,,
,,"2200 N Interstate 35 Frontage Rd
                                Ste B3",,Round Rock,TX,78681,United States,(512) 444-6777,,,,,,
,,1010 North Lamar Blvd.,,Austin,TX,78703,United States,(512) 444-6777,,,,,,
,,"8000 Anderson Sq.
                                #201",,Austin,TX,78757,United States,(512) 444-6777,,,,,,
,,688 West Pioneer Pkwy Suite # 110,,Grand Prairie,TX,75051,United States,(512) 444-6777,,,,,,
,,2213 North Story Rd.,,Irving,TX,75062,United States,(972) 255-3696,,,,,,
,,"4713 State Hwy 121
                                #308",,The Colony,TX,75056,United States,(972) 255-3696,,,,,,
,,"2327 S 57th St
                                Suite 100",,Temple,TX,76502,United States,(972) 255-3696,,,,,,
,,2122 Country Club Dr. #120,,Carrollton,TX,75006,United States,(972) 255-3696,,,,,,
,,735 W. Wheatland Rd.,,Duncanville,TX,75116,United States,(972) 255-3696,,,,,,
,,3338 Franklin Ave.,,Waco,TX,76710,United States,(254) 752-9939,,,,,,
,,13311 Montfort Dr.,,Dallas,TX,75240,United States,(254) 752-9939,,,,,,
,,"9200 Lebanon Rd.
                                Ste. 30",,Frisco,TX,75035,United States,(254) 752-9939,,,,,,
,,4633 N. Central Expwy. Ste. 100,,Dallas,TX,75205,United States,(254) 752-9939,,,,,,
,,1301 Custer Rd. Ste. 232,,Plano,TX,75075,United States,(254) 752-9939,,,,,,
,,106 Chambers Circle,,Waxahachie,TX,75165,United States,(800) 500-4046,,,,,,
,,5213 Texoma Pkwy,,Sherman,TX,75090,United States,(800) 500-4046,,,,,,
,,"121A North Greenville
                                Ste A",,Allen,TX,75002,United States,(800) 500-4046,,,,,,
,,145 South Central Expy.,,McKinney,TX,75070,United States,(800) 500-4046,,,,,,
,,3317 Essex Dr.,,Richardson,TX,75082,United States,(800) 500-4046,,,,,,
,,1901 E. Northwest Hwy. #108,,Garland,TX,75041,United States,(469) 429 1098,,,,,,
,,614 White Hills Dr,,Rockwall,TX,75087,United States,(469) 429 1098,,,,,,
,,2311 Washington Street,,Bartlesville,OK,74006,United States,(469) 429 1098,,,,,,
,,9433-E. East 51st St.,,Tulsa,OK,74145,United States,(469) 429 1098,,,,,,
,,11628 E. 86th Street North,,Owasso,OK,74055,United States,(469) 429 1098,,,,,,
,,1091 S. Aspen Ave.,,Broken Arrow,OK,74012,United States,(918) 994-6020,,,,,,
,,2824 Terrell Rd. Ste. 603,,Greenville,TX,75402,United States,(918) 994-6020,,,,,,
,,2111 W. Briargate Dr.,,Bryan,TX,77802,United States,(918) 994-6020,,,,,,
,,5803 John Stockbauer Dr. Ste. L,,Victoria,TX,77904,United States,(918) 994-6020,,,,,,
,,2301 S York St,,Muskogee,OK,74403,United States,(918) 994-6020,,,,,,
,,"910 E. Veteran Blvd
                                Suite 18",,Palmview,TX,78572,United States,,,,,,,
,,3070 Lamar Ave.,,Paris,TX,75460,United States,,,,,,,
,,2232 S. Market St.,,Brenham,TX,77833,United States,,,,,,,
,,6047 Weber Rd.,,Corpus Christi,TX,78413,United States,,,,,,,
,,1615 N. 11th,,McAllen,TX,78501,United States,,,,,,,
,,2616 E. 5th St.,,Tyler,TX,75701,United States,(903) 592-5710,,,,,,
,,618 S. 77 Sunshine Strip,,Harlingen,TX,78550,United States,(903) 592-5710,,,,,,
,,575 S. Mason Rd.,,Katy,TX,77450,United States,(903) 592-5710,,,,,,
,,17305 FM 529,,Houston,TX,77095,United States,(903) 592-5710,,,,,,
,,9420 Collegd Park Dr. #170,,The Woodlands,TX,77384,United States,(903) 592-5710,,,,,,
,,224 S. Loop 336 W Suite H,,Conroe,TX,77304,United States,(936) 756-7511,,,,,,
,,10541 FM 1960 Rd. W. #170,,Houston,TX,77070,United States,(936) 756-7511,,,,,,
,,8320 Louetta Road Ste 170,,Spring,TX,77379,United States,(936) 756-7511,,,,,,
,,12230 Westheimer Rd. #35,,Houston,TX,77077,United States,(936) 756-7511,,,,,,
,,110 Triple Creek Dr. #85,,Longview,TX,75601,United States,(936) 756-7511,,,,,,
,,15110 N.W. Frwy. #170,,Houston,TX,77040,United States,(713) 849-9143,,,,,,
,,23180 I-45 North,,Spring,TX,77373,United States,(713) 849-9143,,,,,,
,,15293 Southwest Frwy.,,Sugar Land,TX,77478,United States,(713) 849-9143,,,,,,
,,6892 S.W. Frwy,,Houston,TX,77074,United States,(713) 849-9143,,,,,,
,,3040 FM 1960 Rd. E. #107,,Houston,TX,77073,United States,(713) 849-9143,,,,,,
,,2055 Westheimer Rd #125,,Houston,TX,77098,United States,(713) 807-7246,,,,,,
,,6051 Broadway St.,,Pearland,TX,77581,United States,(713) 807-7246,,,,,,
,,"2951 John Redditt Dr
                                Suite 20",,Lufkin,TX,75901,United States,(713) 807-7246,,,,,,
,,10759 Gulf Frwy.,,Houston,TX,77034,United States,(713) 807-7246,,,,,,
,,319 Garland Dr.,,Lake Jackson,TX,77566,United States,(713) 807-7246,,,,,,
,,3408 Summerhill Rd.,,Texarkana,TX,75503,United States,(866) 532-1005,,,,,,
,,142 Gulf Fwy North,,League City,TX,77573,United States,(866) 532-1005,,,,,,
,,3720 North Main St.,,Baytown,TX,77521,United States,(866) 532-1005,,,,,,
,,15037 Delaney Rd.,,La Marque,TX,77568,United States,(866) 532-1005,,,,,,
,,3351 Youree Dr,,Shreveport,LA,71105,United States,(866) 532-1005,,,,,,
,,424 E. Gibson St.,,Jasper,TX,75951,United States,(409) 384-6256,,,,,,
,,7525 Calder Ave.,,Beaumont,TX,77706,United States,(409) 384-6256,,,,,,
,,3941 Ryan St. Ste.H,,Lake Charles,LA,70605,United States,(409) 384-6256,,,,,,
,,6135 Masonic Dr.,,Alexandria,LA,71301,United States,(409) 384-6256,,,,,,
,,1812 Auburn Ave.,,Monroe,LA,71201,United States,(409) 384-6256,,,,,,
,,921 Creswell Ln.,,Opelousas,LA,70570,United States,(337) 942-1052,,,,,,
,,201 Bertrand Dr.,,Lafayette,LA,70506,United States,(337) 942-1052,,,,,,
,,"204 Feu Follet Rd, Ste # 200",,Lafayette,LA,70508,United States,(337) 942-1052,,,,,,
,,1107 Center St,,New Iberia,LA,70560,United States,(337) 942-1052,,,,,,
,,6868 Florida Blvd,,Baton Rouge,LA,70806,United States,(337) 942-1052,,,,,,
,,11115 Industriplex Blvd.,,Baton Rouge,LA,70809,United States,(225) 291-6557,,,,,,
,,144 W. Ford St. Ste. A,,Ridgeland,MS,39157,United States,(225) 291-6557,,,,,,
,,219 Enterprise Dr.,,Houma,LA,70360,United States,(225) 291-6557,,,,,,
,,2003 27th St.,,Kenner,LA,70062,United States,(225) 291-6557,,,,,,
,,5200 Hwy. 22 #12,,Mandeville,LA,70471,United States,(225) 291-6557,,,,,,
,,5225 Canal Blvd.,,New Orleans,LA,70124,United States,(504) 488-1200,,,,,,
,,5140 Taravella Rd.,,Marrero,LA,70072,United States,(504) 488-1200,,,,,,
,,"5268 Old Highway 11
                                Suite 3",,Hattiesburg,MS,39402,United States,(504) 488-1200,,,,,,
,,"2500 Old North Hills Street
                                Suite A",,Meridian,MS,39305,United States,(504) 488-1200,,,,,,
,,451 Wilkins Wise Rd,,Columbus,MS,39705,United States,(504) 488-1200,,,,,,
,,9466 Three Rivers Rd.,,Gulfport,MS,39503,United States,(228) 868-9071,,,,,,
,,708 Lakeside Dr. West,,Mobile,AL,36693,United States,(228) 868-9071,,,,,,
,,"Jubilee Pointe Shopping Centre
                                28600 U.S. Highway 98, Ste. B.",,Daphne,AL,36526,United States,(228) 868-9071,,,,,,
,,6440 Tippin Ave.,,Pensacola,FL,32504,United States,(228) 868-9071,,,,,,
,,"2441 Pinnacle Lane
                                #D-109",,Prattville,AL,36066,United States,(228) 868-9071,,,,,,
