store_name,store_number,address,address2,city,state,zip_code,country,phone_number,latitude,longitude,store_hours,store_type,other_fields,coming_soon
,,14 JAY ST ,,NEW YORK ,NY,10013-2849,United States,646-869-5970,,,,,,
,,202 HESTER ST ,,NEW YORK ,NY,10013-3640,United States,212-226-8288,,,,,,
,,456 W BROADWAY FL 2 ,,NEW YORK ,NY,10012-3141,United States,212-254-7547,,,,,,
,,147 GRAND ST ,,NEW YORK ,NY,10013-3105,United States,646-869-1052,,,,,,
,,233 SPRING ST ,,NEW YORK ,NY,10013-1522,United States,877-283-3229,,,,,,
,,456 W BROADWAY ,,NEW YORK ,NY,10012-3141,United States,646-912-9530,,,,,,
,,119 MONTAGUE ST ,,BROOKLYN ,NY,11201-3464,United States,718-855-5900,,,,,,
,,102 AVENUE B ,,NEW YORK ,NY,10009-6257,United States,212-673-5520,,,,,,
,,49 GREENWICH AVE ,,NEW YORK ,NY,10014-2753,United States,212-206-7622,,,,,,
,,336 E 5TH ST ,,GROUND FLOOR NEW YORK ,NY,10003,United States,646-245-4048,,,,,,
,,60 CHRISTOPHER COLUMBUS DR ,,JERSEY CITY ,NJ,07302-2945,United States,201-332-2866,,,,,,
,,140 Fifth Ave at 19th St ,,NEW YORK ,NY,10011,United States,212-645-4797,,,,,,
,,6005 SOUTH ST RD ,,AUBURN ,NY,13021-5327,United States,315-253-7812,,,,,,
,,500A JERSEY AVE ,,JERSEY CITY ,NJ,07302-5467,United States,201-309-1200,,,,,,
,,320 BEDFORD AVE ,,BROOKLYN ,NY,11211,United States,347-384-2116,,,,,,
,,150 W 26TH ST ,,NEW YORK ,NY,10001-6813,United States,212-390-8082,,,,,,
,,527 ATLANTIC AVE ,,BROOKLYN ,NY,11217-1913,United States,347-384-2334,,,,,,
,,610 WASHINGTON ST ,,HOBOKEN ,NJ,07030-5176,United States,201-683-9970,,,,,,
,,1124 WASHINGTON ST ,,HOBOKEN ,NJ,07030-5388,United States,201-795-2220,,,,,,
,,104 MESEROLE AVE ,,BROOKLYN ,NY,11222-2636,United States,718-609-1155,,,,,,
,,294 5TH AVE ,,BROOKLYN ,NY,11215-8640,United States,347-689-3827,,,,,,
,,319 FLATBUSH AVE ,,BROOKLYN ,NY,11217-2897,United States,347-227-7249,,,,,,
,,10 GRAND CENTRAL TERMINAL ,,NEW YORK ,NY,10017-5503,United States,212-682-5397,,,,,,
,,673 BERGEN AVE ,,JERSEY CITY ,NJ,07304-2645,United States,201-332-6100,,,,,,
,,142 E 49TH ST ,,NEW YORK ,NY,10017-1211,United States,212-759-6670,,,,,,
,,120 E 56TH ST FRNT 3 ,,NEW YORK ,NY,10022-3696,United States,212-966-0219,,,,,,
,,10 Columbus Circle STE 308 ,,NEW YORK ,NY,10019,United States,212-823-9714,,,,,,
,,1169 2ND AVE ,,NEW YORK ,NY,10065-8241,United States,646-998-5319,,,,,,
,,1303 2ND AVE ,,NEW YORK ,NY,10065-5731,United States,212-879-4800,,,,,,
,,257 COLUMBUS AVE ,,NEW YORK ,NY,10023-3330,United States,212-496-3904,,,,,,
,,247 E 77TH ST ,,NEW YORK ,NY,10075-2070,United States,212-734-7778,,,,,,
,,4621 SKILLMAN AVE STE 21 ,,SUNNYSIDE ,NY,11104-2118,United States,917-226-0473,,,,,,
,,242 E 86TH ST ,,NEW YORK ,NY,10028-3005,United States,212-496-3901,,,,,,
,,1739 2ND AVE ,,NEW YORK ,NY,10128-3502,United States,212-410-2005,,,,,,
,,175 W 90TH ST ,,NEW YORK ,NY,10024-1214,United States,212-877-0200,,,,,,
,,711 AMSTERDAM AVE ,,NEW YORK ,NY,10025-6907,United States,646-595-5039,,,,,,
,,3417 30TH AVE ,,ASTORIA ,NY,11103-4620,United States,718-777-7755,,,,,,
,,2641 BROADWAY AT 100TH ST ,,NEW YORK ,NY,10025,United States,212-665-7149,,,,,,
,,2929 BROADWAY ,,NEW YORK ,NY,10025-7819,United States,212-496-3902,,,,,,
,,2637 CONEY ISLAND AVE ,,BROOKLYN ,NY,11223-5501,United States,718-368-2655,,,,,,
,,1444 RICHMOND RD ,,STATEN ISLAND ,NY,10304-2314,United States,718-987-2482,,,,,,
,,386 FRANKLIN AVE ,,NUTLEY ,NJ,07110-1646,United States,973-542-8173,,,,,,
,,460 BLOOMFIELD AVE ,,MONTCLAIR ,NJ,07042-3582,United States,973-667-0220,,,,,,
,,15814 NORTHERN BLVD STE ML1 ,,FLUSHING ,NY,11358-1657,United States,917-285-2703,,,,,,
,,2575 FRANCIS LEWIS BLVD ,,FLUSHING ,NY,11358-1142,United States,718-428-1650,,,,,,
,,2655 RICHMOND AVE STE 1275 ,,STATEN ISLAND ,NY,10314-5816,United States,718-761-1563,,,,,,
,,3262 JOHNSON AVE ,,BRONX ,NY,10463-3505,United States,718-548-4023,,,,,,
,,1874 SPRINGFIELD AVE ,,MAPLEWOOD ,NJ,07040-2952,United States,973-762-7222,,,,,,
,,1 Garden State Plaza ,,PARAMUS ,NJ,07652,United States,201-291-7900,,,,,,
,,25220 NORTHERN BLVD ,,LITTLE NECK ,NY,11362-1300,United States,718-229-0809,,,,,,
,,550 BOULEVARD ,,KENILWORTH ,NJ,07033-1685,United States,908-272-9741,,,,,,
,,,,FAIR LAWN ,NJ,07410-1434,United States,201-773-8687,,,,,,
,,24 LITTLE FALLS RD ,,FAIRFIELD ,NJ,07004-1913,United States,973-808-1811,,,,,,
,,645 LAFAYETTE AVE ,,HAWTHORNE ,NJ,07506-2436,United States,973-304-4170,,,,,,
,,1200 MORRIS TPKE STE C105 ,,SHORT HILLS ,NJ,07078-0320,United States,973-467-4500,,,,,,
,,208 E RIDGEWOOD AVE ,,RIDGEWOOD ,NJ,07450-3816,United States,201-652-3933,,,,,,
,,180 WESTWOOD AVE ,,WESTWOOD ,NJ,07675-1708,United States,201-497-8877,,,,,,
,,683B WESTWOOD AVE ,,RIVER VALE ,NJ,07675-6335,United States,201-497-5300,,,,,,
,,254 W PARK AVE ,,LONG BEACH ,NY,11561-3212,United States,516-889-3900,,,,,,
,,50 MARTINE AVE S ,,FANWOOD ,NJ,07023-1221,United States,908-322-5400,,,,,,
,,216 LIVINGSTON ST STE 3 ,,NORTHVALE ,NJ,07647-1735,United States,201-660-8877,,,,,,
,,122 S BROADWAY ,,SOUTH AMBOY ,NJ,08879-1722,United States,732-721-7060,,,,,,
,,300 BRAE BLVD ,,PARK RIDGE ,NJ,07656-1829,United States,201-307-9300,,,,,,
,,1010 WILSHIRE BLVD APT 115 ,,LOS ANGELES ,CA,90017-5663,United States,213-785-5109,,,,,,
,,3500 W 6TH ST STE 321 ,,LOS ANGELES ,CA,90020-5805,United States,213-487-5600,,,,,,
,,4312 W SUNSET BLVD ,,LOS ANGELES ,CA,90029-2112,United States,323-663-6965,,,,,,
,,2522 HYPERION AVE ,,LOS ANGELES ,CA,90027-3317,United States,323-230-9966,,,,,,
,,2894 ROWENA AVE ,,LOS ANGELES ,CA,90039-2074,United States,323-230-6100,,,,,,
,,2112 COLORADO BLVD ,,EAGLE ROCK ,CA,90041-1222,United States,323-244-2568,,,,,,
,,130 S BRAND BLVD ,,GLENDALE ,CA,91204-1308,United States,818-547-9474,,,,,,
,,2121 GLENDALE GALLERIA ,,GLENDALE ,CA,91210-2101,United States,818-246-3680,,,,,,
,,513 E BROADWAY ,,GLENDALE ,CA,91205-1110,United States,818-240-6340,,,,,,
,,102 CARUSO AVE ,,GLENDALE ,CA,91210,United States,,,,,,,
,,8211 W 3RD ST ,,LOS ANGELES ,CA,90048-4302,United States,323-591-0979,,,,,,
,,131 N LA CIENEGA BLVD STE 673 ,,LOS ANGELES ,CA,90048-3309,United States,310-659-5067,,,,,,
,,8126 MELROSE AVE ,,LOS ANGELES ,CA,90046-7012,United States,323-951-1011,,,,,,
,,8515 SANTA MONICA BLVD ,,WEST HOLLYWOOD ,CA,90069-4107,United States,310-652-0919,,,,,,
,,8950 W OLYMPIC BLVD STE 215 ,,BEVERLY HILLS ,CA,90211-3576,United States,310-273-8060,,,,,,
,,5035 W SLAUSON AVE STE E ,,LOS ANGELES ,CA,90056-1647,United States,323-292-8300,,,,,,
,,117 E COLORADO BLVD STE B13 ,,PASADENA ,CA,91105-1938,United States,626-304-0433,,,,,,
,,52 HUGUS ALY ,,PASADENA ,CA,91103-3644,United States,626-304-0007,,,,,,
,,2823 S ROBERTSON BLVD ,,LOS ANGELES ,CA,90034-2405,United States,310-837-5600,,,,,,
,,610 S LAKE AVE ,,PASADENA ,CA,91106-3918,United States,626-304-9903,,,,,,
,,9200 W SUNSET BLVD STE 170 ,,WEST HOLLYWOOD ,CA,90069-3615,United States,213-894-9200,,,,,,
,,817 S GLENOAKS BLVD ,,BURBANK ,CA,91502-1523,United States,818-566-6667,,,,,,
,,10824 WASHINGTON BLVD ,,CULVER CITY ,CA,90232-3610,United States,310-559-9600,,,,,,
,,2403 W MAGNOLIA BLVD ,,BURBANK ,CA,91506-1737,United States,818-845-7545,,,,,,
,,10250 SANTA MONICA BLVD STE 1875 ,,LOS ANGELES ,CA,90067-6501,United States,310-843-9808,,,,,,
,,12132 VENTURA BLVD ,,STUDIO CITY ,CA,91604-2514,United States,818-506-1220,,,,,,
,,12506 MOORPARK ,,STUDIO CITY ,CA,91604-1355,United States,818-762-6111,,,,,,
,,10935 WEYBURN AVE ,,LOS ANGELES ,CA,90024-2808,United States,310-209-2000,,,,,,
,,3073 FOOTHILL BLVD ,,LA CRESCENTA ,CA,91214-2714,United States,818-248-5443,,,,,,
,,14006 RIVERSIDE DR UNIT 18 ,,SHERMAN OAKS ,CA,91423-1949,United States,818-501-1444,,,,,,
,,13124 PHILADELPHIA ST ,,WHITTIER ,CA,90601-4301,United States,562-907-9909,,,,,,
,,13311 PENN ST ,,WHITTIER ,CA,90602-1727,United States,562-907-2820,,,,,,
,,18 W SIERRA MADRE BLVD ,,SIERRA MADRE ,CA,91024-2434,United States,626-355-3762,,,,,,
,,820 S SEPULVEDA BLVD STE A104 ,,EL SEGUNDO ,CA,90245,United States,310-322-6454,,,,,,
,,2617 LINCOLN BLVD STE 202 ,,SANTA MONICA ,CA,90405,United States,310-452-1046,,,,,,
,,2905 SEPULVEDA BLVD STE B ,,MANHATTAN BEACH ,CA,90266-2736,United States,310-546-1431,,,,,,
,,2525 MAIN ST ,,SANTA MONICA ,CA,90405-3686,United States,310-392-4866,,,,,,
,,806 MANHATTAN BEACH BLVD STE 105 ,,MANHATTAN BEACH ,CA,90266-4960,United States,310-372-4939,,,,,,
,,395 SANTA MONICA PL STE 202 ,,SANTA MONICA ,CA,90401-3479,United States,310-393-7888,,,,,,
,,1121 MONTANA AVE ,,SANTA MONICA ,CA,90403-1609,United States,310-310-8238,,,,,,
,,315 W HUNTINGTON DR STE C ,,MONROVIA ,CA,91016-3379,United States,626-357-6695,,,,,,
,,1312 AVIATION BLVD STE 101 ,,REDONDO BEACH ,CA,90278-4068,United States,310-372-3332,,,,,,
,,4232 ATLANTIC AVE ,,LONG BEACH ,CA,90807-2802,United States,562-427-7977,,,,,,
,,198 S MYRTLE AVE ,,MONROVIA ,CA,91016-2845,United States,626-357-1886,,,,,,
,,505 PIER AVE ,,HERMOSA BEACH ,CA,90254-3822,United States,310-376-2266,,,,,,
,,11660 SOUTH ST STE 104 ,,ARTESIA ,CA,90701-6609,United States,562-860-2030,,,,,,
,,524 S PACIFIC COAST HWY ,,REDONDO BEACH ,CA,90277-4219,United States,310-697-3331,,,,,,
,,1830 S ELENA AVE ,,REDONDO BEACH ,CA,90277-5706,United States,310-791-1711,,,,,,
,,3614 PACIFIC COAST HWY STE A ,,TORRANCE ,CA,90505-6020,United States,310-373-2569,,,,,,
,,2310 N BELLFLOWER BLVD STE 103 ,,LONG BEACH ,CA,90815-2019,United States,562-430-5100,,,,,,
,,314 ELM AVE ,,LONG BEACH ,CA,90802-2415,United States,562-433-9946,,,,,,
,,2218 E 4TH ST ,,LONG BEACH ,CA,90814-1051,United States,562-987-9200,,,,,,
,,4405 E 4TH ST ,,LONG BEACH ,CA,90814-3002,United States,562-439-1400,,,,,,
,,175 E COLLEGE ST ,,COVINA ,CA,91723-2105,United States,626-915-7205,,,,,,
,,155 N TOPANGA CANYON BLVD ,,TOPANGA ,CA,90290-3831,United States,310-455-2266,,,,,,
,,203 GLENDORA AVE ,,LONG BEACH ,CA,90803-3500,United States,562-987-4799,,,,,,
,,12800 SEAL BEACH BLVD STE D ,,SEAL BEACH ,CA,90740-2786,United States,562-431-9009,,,,,,
,,381 W 7TH ST ,,SAN PEDRO ,CA,90731-3323,United States,310-832-3836,,,,,,
,,142 E AMERIGE AVE ,,FULLERTON ,CA,92832-1920,United States,714-773-4995,,,,,,
,,219 E COMMONWEALTH AVE ,,FULLERTON ,CA,92832-1910,United States,714-525-3337,,,,,,
,,20861 VENTURA BLVD ,,WOODLAND HILLS ,CA,91364-2319,United States,818-883-2887,,,,,,
,,2044 Brea Mall ,,BREA ,CA,92821,United States,714-256-9254,,,,,,
,,6600 TOPANGA CANYON BLVD STE 1042 ,,CANOGA PARK ,CA,91303-2654,United States,818-348-0800,,,,,,
,,1000 E CHAPMAN AVE ,,FULLERTON ,CA,92831-3812,United States,657-217-5460,,,,,,
,,1934 E ROUTE 66 STE C ,,GLENDORA ,CA,91740-4655,United States,626-857-0553,,,,,,
,,705 S DEARBORN ST ,,CHICAGO ,IL,60605-1837,United States,312-877-5650,,,,,,
,,150 S WACKER DR LL1 ,,CHICAGO ,IL,60606-4103,United States,312-236-8048,,,,,,
,,707 S DEARBORN ST ,,CHICAGO ,IL,60605-1837,United States,312-362-0101,,,,,,
,,35 W WACKER DR ,,CHICAGO ,IL,60601-1723,United States,312-372-9211,,,,,,
,,55 E ONTARIO ,,CHICAGO ,IL,60611-2727,United States,312-664-0200,,,,,,
,,401 W ONTARIO ST STE 175 ,,CHICAGO ,IL,60654-6756,United States,312-943-6253,,,,,,
,,747 N LA SALLE DR STE 500A ,,CHICAGO ,IL,60654-5568,United States,312-371-0773,,,,,,
,,835 N MICHIGAN AVE STE 6010 ,,CHICAGO ,IL,60611-2214,United States,312-664-0417,,,,,,
,,1140 W GRAND AVE ,,CHICAGO ,IL,60622-5800,United States,312-666-6466,,,,,,
,,1513 N WELLS ST ,,CHICAGO ,IL,60610-1307,United States,312-971-9567,,,,,,
,,1001 W NORTH AVE ,,CHICAGO ,IL,60642-2552,United States,312-649-0707,,,,,,
,,1804 N HALSTED ST ,,CHICAGO ,IL,60614-5007,United States,312-664-1004,,,,,,
,,2108 N HALSTED ,,CHICAGO ,IL,60614-4316,United States,773-529-3333,,,,,,
,,2139 W CHICAGO AVE ,,CHICAGO ,IL,60622-4821,United States,872-802-4591,,,,,,
,,1007 W WEBSTER AVE ,,CHICAGO ,IL,60614-3502,United States,773-296-0616,,,,,,
,,1400 W WEBSTER ,,CHICAGO ,IL,60614-3076,United States,773-244-0999,,,,,,
,,2828 N CLARK ST ,,CHICAGO ,IL,60657-5775,United States,773-883-1560,,,,,,
,,3336 N CLARK ST ,,CHICAGO ,IL,60657-4565,United States,773-388-9999,,,,,,
,,1637 W BELMONT AVE ,,CHICAGO ,IL,60657-3017,United States,970-618-0196,,,,,,
,,3337 N SOUTHPORT AVE ,,CHICAGO ,IL,60657-1440,United States,773-348-3838,,,,,,
,,835 W SHERIDAN RD ,,CHICAGO ,IL,60613-3003,United States,773-687-9350,,,,,,
,,5335 N CLARK ST ,,CHICAGO ,IL,60640-2121,United States,773-561-5566,,,,,,
,,2249 W IRVING PARK RD ,,CHICAGO ,IL,60618-3864,United States,773-250-5440,,,,,,
,,4737 N DAMEN AVE ,,CHICAGO ,IL,60625-1478,United States,872-208-7266,,,,,,
,,4625 N LINCOLN AVE ,,CHICAGO ,IL,60625-2007,United States,872-208-5588,,,,,,
,,1059 W ARGYLE ST ,,CHICAGO ,IL,60640-3707,United States,773-506-4320,,,,,,
,,5008 N LINCOLN AVE ,,CHICAGO ,IL,60625-3653,United States,773-942-6462,,,,,,
,,1134 W BRYN MAWR AVE ,,CHICAGO ,IL,60660-4410,United States,773-989-2358,,,,,,
,,4218 W LAWRENCE AVE ,,CHICAGO ,IL,60630-2729,United States,773-657-3126,,,,,,
,,7406 MADISON ST ,,FOREST PARK ,IL,60130-1566,United States,708-366-8850,,,,,,
,,3261 HARLEM AVE ,,BERWYN ,IL,60402-2806,United States,708-317-4456,,,,,,
,,8402 GRAND AVE ,,RIVER GROVE ,IL,60171-1416,United States,708-209-1505,,,,,,
,,6012 N KEATING AVE ,,CHICAGO ,IL,60646-4902,United States,773-685-3650,,,,,,
,,3944 W TOUHY AVE ,,LINCOLNWOOD ,IL,60712-1028,United States,847-568-9191,,,,,,
,,625 GROVE ST ,,EVANSTON ,IL,60201-4403,United States,847-328-6877,,,,,,
,,1604 SHERMAN AVE ,,EVANSTON ,IL,60201-5621,United States,847-475-9300,,,,,,
,,1004 E 31ST ST ,,LA GRANGE PARK ,IL,60526-1217,United States,708-482-3038,,,,,,
,,10548 S WESTERN AVE ,,CHICAGO ,IL,60643-2528,United States,773-941-6565,,,,,,
,,10 W HARRIS AVE ,,LA GRANGE ,IL,60525-2332,United States,708-352-2345,,,,,,
,,10412 S CICERO AVE ,,OAK LAWN ,IL,60453-4704,United States,708-423-2230,,,,,,
,,520 W TOUHY AVE ,,PARK RIDGE ,IL,60068-4276,United States,847-698-0123,,,,,,
,,4999 OLD ORCHARD CTR STE K21 ,,SKOKIE ,IL,60077,United States,847-679-1863,,,,,,
,,2207 S WOLF RD ,,HILLSIDE ,IL,60162-2212,United States,708-947-9900,,,,,,
,,3232 LAKE AVE STE 160 ,,WILMETTE ,IL,60091-1090,United States,847-266-7777,,,,,,
,,183 E BUTTERFIELD RD ,,ELMHURST ,IL,60126,United States,630-834-6300,,,,,,
,,176 N YORK RD ,,ELMHURST ,IL,60126-2765,United States,630-758-0038,,,,,,
,,49 1/2 S WASHINGTON ,,HINSDALE ,IL,60521-4164,United States,630-321-1772,,,,,,
,,10 GRANT SQ ,,HINSDALE ,IL,60521-3360,United States,630-325-8110,,,,,,
,,2815 JORIE BLVD ,,OAK BROOK ,IL,60523-2161,United States,630-581-6707,,,,,,
,,98 Oakbrook Center ,,OAK BROOK ,IL,60523,United States,630-571-5370,,,,,,
,,10 OAKBROOK CENTER MALL ,,HINSDALE ,IL,60523,United States,,,,,,,
,,820 VILLAGE CENTER DR ,,BURR RIDGE ,IL,60527-4519,United States,630-590-5492,,,,,,
,,1992 TOWER DR ,,GLENVIEW ,IL,60026-7801,United States,847-266-7777,,,,,,
,,158 E IRVING PK RD ,,WOOD DALE ,IL,60191-2024,United States,630-766-6777,,,,,,
,,2350 S ELMHURST RD ,,MOUNT PROSPECT ,IL,60056-5805,United States,847-439-8811,,,,,,
,,203 YORKTOWN SHOPPING CTR STE 352 ,,LOMBARD ,IL,60148-5555,United States,630-953-1400,,,,,,
,,1763 RIVER OAKS DR ,,CALUMET CITY ,IL,60409-5003,United States,708-868-0811,,,,,,
,,637 W GOLF RD ,,DES PLAINES ,IL,60016-2462,United States,847-640-0141,,,,,,
,,864 E NORTHWEST HWY ,,MOUNT PROSPECT ,IL,60056-3443,United States,847-797-8202,,,,,,
,,1254 BURNHAM AVE ,,CALUMET CITY ,IL,60409-5706,United States,708-868-5011,,,,,,
,,1 N MAIN ST ,,LOMBARD ,IL,60148-2352,United States,630-705-0141,,,,,,
,,2116 NORTHBROOK CT ,,NORTHBROOK ,IL,60062-1415,United States,847-509-9354,,,,,,
,,616 ORLAND SQUARE DR ,,ORLAND PARK ,IL,60462-3219,United States,708-403-1402,,,,,,
,,1506 N ELMHURST RD ,,MOUNT PROSPECT ,IL,60056-1011,United States,847-797-0090,,,,,,
,,7511 LEMONT RD STE 140 ,,DARIEN ,IL,60561-8920,United States,630-910-1101,,,,,,
,,944 S ARTHUR AVE ,,ARLINGTON HEIGHTS ,IL,60005-2829,United States,847-259-9155,,,,,,
,,18065 HARWOOD AVE APT B ,,HOMEWOOD ,IL,60430-1851,United States,708-206-3336,,,,,,
,,480 N MAIN ST ,,GLEN ELLYN ,IL,60137-5178,United States,630-310-6062,,,,,,
,,653 CENTRAL AVE ,,HIGHLAND PARK ,IL,60035-3227,United States,847-266-7777,,,,,,
,,20 N VAIL AVE ,,ARLINGTON HEIGHTS ,IL,60005-1431,United States,847-253-2020,,,,,,
,,660 E IRVING PARK RD ,,ROSELLE ,IL,60172-2303,United States,630-893-4247,,,,,,
,,4001 W FLOSSMOOR RD ,,COUNTRY CLUB HILLS ,IL,60478-5771,United States,708-922-1010,,,,,,
,,601 N MARTINGALE RD STE 233 ,,SCHAUMBURG ,IL,60173-5900,United States,847-592-5000,,,,,,
,,14907 FOUNDERS XING ,,HOMER GLEN ,IL,60491-6712,United States,708-949-8038,,,,,,
,,,,SCHAUMBURG ,IL,60173,United States,847-413-0438,,,,,,
,,641 E BOUGHTON RD STE 517 ,,BOLINGBROOK ,IL,60440-3143,United States,630-739-4949,,,,,,
,,503 OTIS BOWEN DR ,,MUNSTER ,IN,46321-4158,United States,219-934-2850,,,,,,
,,109 N MAIN ST ,,WHEATON ,IL,60187-5326,United States,630-580-9925,,,,,,
,,1319 W WEBSTER ST ,,HOUSTON ,TX,77019-5541,United States,713-528-3699,,,,,,
,,719 W GRAY ST STE A ,,HOUSTON ,TX,77019-4324,United States,713-521-0500,,,,,,
,,1704 FAIRVIEW ,,HOUSTON ,TX,77006,United States,713-522-5131,,,,,,
,,249 W 19TH ST ,,HOUSTON ,TX,77008-4009,United States,713-783-0111,,,,,,
,,5302 MORNINGSIDE DR ,,HOUSTON ,TX,77005-2529,United States,281-768-8375,,,,,,
,,STE 270 1700 POST OAK BLVD ,,HOUSTON ,TX,77056-3802,United States,713-728-6198,,,,,,
,,5135 W ALABAMA ST STE 7190 ,,HOUSTON ,TX,77056-5822,United States,713-572-5500,,,,,,
,,5791 SAN FELIPE ,,HOUSTON ,TX,77057-3101,United States,713-783-0111,,,,,,
,,12651 MEMORIAL DR STE A ,,HOUSTON ,TX,77024-4863,United States,713-468-9996,,,,,,
,,11200 BROADWAY ST STE 625 ,,PEARLAND ,TX,77584-2199,United States,713-433-8885,,,,,,
,,1127 ELDRIDGE PKWY STE 1008 ,,HOUSTON ,TX,77077-1773,United States,281-870-0083,,,,,,
,,5474 FM 1960 RD W ,,HOUSTON ,TX,77069-4302,United States,281-444-1430,,,,,,
,,8790 HIGHWAY 6 STE 150 ,,MISSOURI CITY ,TX,77459-7116,United States,281-208-9090,,,,,,
,,15510 LEXINGTON ST STE G ,,SUGAR LAND ,TX,77478,United States,281-980-5160,,,,,,
,,7825 HIGHWAY 6 N STE 103 ,,HOUSTON ,TX,77095-1705,United States,832-593-8877,,,,,,
,,8475 HWY 6 NORTH STE F ,,HOUSTON ,TX,77095,United States,281-550-5302,,,,,,
,,4715 SWEETWATER BLVD ,,SUGAR LAND ,TX,77479-3125,United States,281-277-7007,,,,,,
,,700 BAYBROOK MALL STE B107 ,,FRIENDSWOOD ,TX,77546-2760,United States,281-332-9100,,,,,,
,,19439 GULF FWY ,,WEBSTER ,TX,77598-2804,United States,281-332-9100,,,,,,
,,126 VINTAGE PARK BLVD STE A ,,HOUSTON ,TX,77070-3959,United States,281-537-0771,,,,,,
,,2665 ROYAL FRST STE A ,,KINGWOOD ,TX,77339-5045,United States,281-359-3300,,,,,,
,,111 MAIN ST ,,SPRING ,TX,77373-8330,United States,832-628-9060,,,,,,
,,107 MAIN ST ,,SPRING ,TX,77373-8330,United States,281-475-0879,,,,,,
,,9825 S MASON RD ,,RICHMOND ,TX,77406-5810,United States,281-239-3600,,,,,,
,,3206 MARINA BAY DR STE P1 ,,LEAGUE CITY ,TX,77573,United States,832-864-2788,,,,,,
,,23501 CINCO RANCH BLVD STE A110 ,,KATY ,TX,77494-3096,United States,281-395-6711,,,,,,
,,6920 S FRY RD STE C ,,KATY ,TX,77494-8101,United States,281-395-8600,,,,,,
,,1915 BROADWAY ST STE 105 ,,SAN ANTONIO ,TX,78215-1133,United States,210-776-7175,,,,,,
,,3126 N SAINT MARYS ST ,,SAN ANTONIO ,TX,78212-4267,United States,210-545-0729,,,,,,
,,1022 DONALDSON AVE ,,SAN ANTONIO ,TX,78228-5101,United States,210-733-7131,,,,,,
,,310 BASSE RD STE 109 ,,SAN ANTONIO ,TX,78209-8407,United States,210-824-3015,,,,,,
,,7959 BROADWAY ST STE 100B ,,SAN ANTONIO ,TX,78209-2669,United States,210-414-0836,,,,,,
,,7959 BROADWAY ST STE 100 ,,SAN ANTONIO ,TX,78209-2669,United States,210-798-3383,,,,,,
,,7400 SAN PEDRO AVE # 5535 ,,SAN ANTONIO ,TX,78216-5353,United States,214-272-7717,,,,,,
,,2211 NW MILITARY HWY STE 122 A ,,SAN ANTONIO ,TX,78213,United States,210-308-7447,,,,,,
,,6301 NW LOOP STE R3 ,,SAN ANTONIO ,TX,78238,United States,210-521-2252,,,,,,
,,14353 BLANCO RD ,,SAN ANTONIO ,TX,78216-7723,United States,210-408-0101,,,,,,
,,555 W BITTERS RD ,,SAN ANTONIO ,TX,78216-7902,United States,210-545-6555,,,,,,
,,18720 STONE OAK PKWY STE 123 ,,SAN ANTONIO ,TX,78258-4151,United States,210-403-0955,,,,,,
,,8080 PAT BROOKER RD ,,LIVE OAK ,TX,78233,United States,210-654-7400,,,,,,
,,15900 La Cantera Pkwy STE # 6620 ,,SAN ANTONIO ,TX,78256,United States,210-561-0686,,,,,,
,,21003 ENCINO COMMONS STE 121 ,,SAN ANTONIO ,TX,78259-2792,United States,210-222-0023,,,,,,
,,20215 W TEJAS TRL ,,SAN ANTONIO ,TX,78257-1601,United States,210-798-4444,,,,,,
,,6032 FM 3009 STE 160 ,,SCHERTZ ,TX,78154-3259,United States,210-651-5885,,,,,,
,,635 5TH AVE ,,SAN DIEGO ,CA,92101-6915,United States,619-237-4413,,,,,,
,,930 ORANGE AVE ,,CORONADO ,CA,92118-2610,United States,619-435-9294,,,,,,
,,1010 UNIVERSITY AVE STE C111 ,,SAN DIEGO ,CA,92103-3361,United States,619-299-5750,,,,,,
,,1617 W LEWIS ST ,,SAN DIEGO ,CA,92103-1222,United States,619-298-2525,,,,,,
,,700 FRIARS RD STE 875A ,,SAN DIEGO ,CA,92108,United States,619-220-8518,,,,,,
,,3025 CANON ST ,,SAN DIEGO ,CA,92106-2611,United States,619-222-3212,,,,,,
,,4993 NIAGARA AVE STE 205 ,,SAN DIEGO ,CA,92107-3185,United States,619-222-6777,,,,,,
,,1415 GARNET AVE ,,PACIFIC BEACH ,CA,92109-3015,United States,858-270-6500,,,,,,
,,8043 LA MESA BLVD ,,LA MESA ,CA,91942-6434,United States,619-464-6066,,,,,,
,,7295 NAVAJO RD ,,SAN DIEGO ,CA,92119-1607,United States,619-461-5828,,,,,,
,,8843 VILLA LA JOLLA DR STE 206 ,,LA JOLLA ,CA,92037-1964,United States,858-457-3334,,,,,,
,,5915 MIRA MESA BLVD STE C ,,SAN DIEGO ,CA,92121-4303,United States,858-625-0277,,,,,,
,,2015 BIRCH RD STE 1604 ,,CHULA VISTA ,CA,91915-2013,United States,619-421-3911,,,,,,
,,2650 JAMACHA RD STE 133 ,,EL CAJON ,CA,92019-4319,United States,619-670-5279,,,,,,
,,4645 CARMEL MOUNTAIN RD STE 204 ,,SAN DIEGO ,CA,92130-6630,United States,619-299-5750,,,,,,
,,11960 BERNARDO PLAZA DR ,,SAN DIEGO ,CA,92128-2538,United States,858-673-1100,,,,,,
,,910 2ND ST ,,ENCINITAS ,CA,92024-4410,United States,760-633-1970,,,,,,
,,200 E Via Rancho Pkwy ,,Escondido ,CA,92025-8006,United States,760-233-1184,,,,,,
,,3699 MCKINNEY AVE STE 412 ,,DALLAS ,TX,75204-4564,United States,214-969-1901,,,,,,
,,2303 ABRAMS RD ,,DALLAS ,TX,75214-3621,United States,214-887-8647,,,,,,
,,5321 E MOCKINGBIRD LN STE 140 ,,DALLAS ,TX,75206,United States,214-515-0400,,,,,,
,,5560 WEST LOVERS LN STE 250 ,,DALLAS ,TX,75209-4282,United States,214-352-4111,,,,,,
,,8687 NO CENTRAL EXPRESSWAY ,,DALLAS ,TX,75225,United States,,,,,,,
,,8687 N CENTRAL EXPY STE 742 ,,DALLAS ,TX,75225-4564,United States,214-346-9686,,,,,,
,,4343 W NORTHWEST HWY STE 385 ,,DALLAS ,TX,75220-3800,United States,214-358-4370,,,,,,
,,9100 N CENTRAL EXPY STE 220 ,,DALLAS ,TX,75231-5902,United States,214-987-4247,,,,,,
,,8188 PARK LN ,,DALLAS ,TX,75231-6005,United States,214-363-1291,,,,,,
,,7949 WALNUT HILL LN STE 105 ,,DALLAS ,TX,75230,United States,972-393-9200,,,,,,
,,11661 PRESTON RD 135 ,,DALLAS ,TX,75230-2745,United States,214-346-9201,,,,,,
,,4030 N MCARTHUR BLVD STE 216 ,,IRVING ,TX,75038-6425,United States,972-717-9200,,,,,,
,,5100 BELT LINE RD STE 712 ,,DALLAS ,TX,75254-7036,United States,972-506-0211,,,,,,
,,305 W FM 1382 STE 108 ,,CEDAR HILL ,TX,75104-1886,United States,972-293-7007,,,,,,
,,2100 DALLAS PKWY STE 106 ,,PLANO ,TX,75093-4364,United States,972-818-2991,,,,,,
,,6121 West Park Blvd STE A124 ,,PLANO ,TX,75093,United States,972-202-5589,,,,,,
,,240 N DENTON TAP RD STE 490 ,,COPPELL ,TX,75019-2160,United States,972-393-9200,,,,,,
,,202 N INTERSTATE 35 SERVICE RD ,,RED OAK ,TX,75154-4295,United States,214-230-2995,,,,,,
,,200 N MESQUITE ST STE 109 ,,ARLINGTON ,TX,76011-7529,United States,817-275-8686,,,,,,
,,2540 KING ARTHUR BLVD STE 113 ,,LEWISVILLE ,TX,75056-5512,United States,972-899-0329,,,,,,
,,808 W ABRAMS ,,ARLINGTON ,TX,76013,United States,817-460-5544,,,,,,
,,4001 ARLINGTON HIGHLANDS B STE 123 ,,ARLINGTON ,TX,76018-6034,United States,817-419-1004,,,,,,
,,909 S MAIN ST STE 100 ,,GRAPEVINE ,TX,76051-7534,United States,817-424-3887,,,,,,
,,7300 LONE STAR DR STE C138 ,,PLANO ,TX,75024-5647,United States,469-467-9492,,,,,,
,,85 VILLAGE LN STE 150 ,,COLLEYVILLE ,TX,76034-2940,United States,817-427-9700,,,,,,
,,2601 Preston Road STE 2228 ,,FRISCO ,TX,75034,United States,972-731-8588,,,,,,
,,1161 E SOUTHLAKE BLVD STE 290 ,,SOUTHLAKE ,TX,76092-6349,United States,817-332-1155,,,,,,
,,1101 MELBOURNE RD ,,HURST ,TX,76053-6205,United States,817-284-9244,,,,,,
,,1101 MELBOURNE ROAD ,,HURST ,TX,76053,United States,,,,,,,
,,962 VILLAGE GREEN DR ,,ALLEN ,TX,75013,United States,972-908-3350,,,,,,
,,8880 STATE HIGHWAY 121 ,,MC KINNEY ,TX,75070-3132,United States,972-908-2774,,,,,,
,,1047 LINCOLN AVE STE 101 ,,SAN JOSE ,CA,95125-6003,United States,408-293-3494,,,,,,
,,2400 FOREST AVE ,,SAN JOSE ,CA,95128,United States,,,,,,,
,,377 SANTANA ROW STE 1175 ,,SAN JOSE ,CA,95128-2061,United States,408-244-4222,,,,,,
,,2855 Stevens Creek Blvd STE 1045 ,,SANTA CLARA ,CA,95050,United States,408-554-4230,,,,,,
,,378 SANTANA ROW STE 1120 ,,SAN JOSE ,CA,95128-2041,United States,408-244-4222,,,,,,
,,3011 MERIDIAN AVE ,,SAN JOSE ,CA,95124-2455,United States,408-723-0106,,,,,,
,,14107 WINCHESTER BLVD STE U ,,LOS GATOS ,CA,95032-1836,United States,408-340-5435,,,,,,
,,224 N SANTA CRUZ AVE STE B ,,LOS GATOS ,CA,95030-7207,United States,408-354-7979,,,,,,
,,65 W MAIN ST ,,LOS GATOS ,CA,95030-6829,United States,408-354-7717,,,,,,
,,110 S SANTA CRUZ AVE STE A ,,LOS GATOS ,CA,95030-6702,United States,408-354-3852,,,,,,
,,14451 BIG BASIN WAY ,,SARATOGA ,CA,95070-6008,United States,408-867-4381,,,,,,
,,2310 HOMESTEAD RD STE C ,,LOS ALTOS ,CA,94024-7300,United States,408-732-8332,,,,,,
,,660 FREMONT AVE ,,LOS ALTOS ,CA,94024-4812,United States,650-948-5343,,,,,,
,,5615 AUTOMALL PKWY ,,FREMONT ,CA,94538-3133,United States,510-623-7873,,,,,,
,,3990 EL CAMINO REAL UNIT A ,,PALO ALTO ,CA,94306-3335,United States,650-855-9080,,,,,,
,,334 S CALIFORNIA AVE ,,PALO ALTO ,CA,94306-1603,United States,650-322-2104,,,,,,
,,2702 MOWRY AVE ,,FREMONT ,CA,94538,United States,510-791-0882,,,,,,
,,240 UNIVERSITY AVE ,,PALO ALTO ,CA,94301-1711,United States,650-328-4067,,,,,,
,,10A STANFORD SHOPPING CTR ,,PALO ALTO ,CA,94304,United States,650-853-1890,,,,,,
,,644 SANTA CRUZ AVE ,,MENLO PARK ,CA,94025-4503,United States,650-321-1100,,,,,,
,,17300 MONTEREY RD UNIT 120 ,,MORGAN HILL ,CA,95037-3755,United States,408-779-1077,,,,,,
,,2920 WOODSIDE RD ,,WOODSIDE ,CA,94062-2410,United States,650-851-1150,,,,,,
,,2115 BROADWAY ST STE 4 ,,REDWOOD CITY ,CA,94063-1611,United States,415-377-3137,,,,,,
,,3201 OAK KNOLL DR ,,REDWOOD CITY ,CA,94062-3045,United States,650-556-1787,,,,,,
,,3037 HOPYARD RD STE D ,,PLEASANTON ,CA,94588-5262,United States,925-484-3650,,,,,,
,,4635 SOQUEL DR ,,SOQUEL ,CA,95073-2249,United States,831-600-8857,,,,,,
,,1032 STONERIDGE MALL RD SPC A115 ,,PLEASANTON ,CA,94588-3218,United States,925-227-0115,,,,,,
,,211 WALTER SEAHOLM DR STE 130 ,,AUSTIN ,TX,78701,United States,512-478-7744,,,,,,
,,500 N LAMAR BLVD STE 120 ,,AUSTIN ,TX,78703-5492,United States,512-478-7744,,,,,,
,,1508 LAVACA ST ,,AUSTIN ,TX,78701-1688,United States,512-477-7068,,,,,,
,,1007 S CONGRESS AVE STE 10C ,,AUSTIN ,TX,78704,United States,512-472-3331,,,,,,
,,1705 NUECES ST ,,AUSTIN ,TX,78701-1107,United States,512-320-1520,,,,,,
,,507 PRESSLER ST STE 800 ,,AUSTIN ,TX,78703-5151,United States,512-472-6357,,,,,,
,,1605 W 6TH ST ,,AUSTIN ,TX,78703-5059,United States,512-236-9868,,,,,,
,,1330 SHORE DISTRICT DR STE 300 ,,AUSTIN ,TX,78741-1353,United States,512-458-4162,,,,,,
,,1107 S 8TH ST ,,AUSTIN ,TX,78704-2373,United States,512-482-8573,,,,,,
,,3300 N INTERSTATE 35 STE 100 ,,AUSTIN ,TX,78705-1849,United States,512-320-8080,,,,,,
,,2415 EXPOSITION BLVD ,,AUSTIN ,TX,78703-2271,United States,512-476-7068,,,,,,
,,1822 W 35TH ST ,,AUSTIN ,TX,78703-1323,United States,512-454-0080,,,,,,
,,2901 Capitol of Texas Hwy SPC R12 ,,AUSTIN ,TX,78746,United States,512-732-2266,,,,,,
,,7739 NORTHCROSS DR STE K ,,AUSTIN ,TX,78757,United States,512-458-4162,,,,,,
,,9901 N CAPITAL OF TEXAS HW STE 240 ,,AUSTIN ,TX,78759-5853,United States,512-502-8268,,,,,,
,,3310 W BRAKER LN STE 200 ,,AUSTIN ,TX,78758,United States,512-349-9992,,,,,,
,,10515 N MOPAC EXPY STE A 105 ,,AUSTIN ,TX,78759-5324,United States,512-372-1080,,,,,,
,,9600 ESCARPMENT BLVD STE 920H ,,AUSTIN ,TX,78749-1982,United States,512-637-0888,,,,,,
,,3111 PALM WAY ,,AUSTIN ,TX,78758,United States,,,,,,,
,,12101 FM 2244 ,,BEE CAVE ,TX,78738-5391,United States,512-402-9992,,,,,,
,,11200 LAKELINE MALL DR STE F16 ,,CEDAR PARK ,TX,78613-1501,United States,512-335-7000,,,,,,
,,1512 TOWN CENTER DR STE 350 ,,PFLUGERVILLE ,TX,78660-7678,United States,512-251-6763,,,,,,
,,2051 GATTIS SCHOOL RD STE 190 ,,ROUND ROCK ,TX,78664-7466,United States,512-255-6763,,,,,,
,,200 E MAIN ST STE A ,,ROUND ROCK ,TX,78664-5249,United States,512-373-3595,,,,,,
,,,,CEDAR PARK ,TX,78613-7598,United States,512-528-9151,,,,,,
,,50 W WASHINGTON ST ,,INDIANAPOLIS ,IN,46204-3402,United States,317-524-2575,,,,,,
,,630 FLETCHER AVE ,,INDIANAPOLIS ,IN,46203-1066,United States,317-631-2775,,,,,,
,,2825 E 56TH ST ,,INDIANAPOLIS ,IN,46220-2979,United States,317-937-2573,,,,,,
,,6150 HILLSIDE AVE ,,INDIANAPOLIS ,IN,46220-2412,United States,317-769-9000,,,,,,
,,916 E WESTFIELD BLVD STE 110 ,,INDIANAPOLIS ,IN,46220-1980,United States,317-251-4800,,,,,,
,,2210 E SOUTHPORT RD ,,INDIANAPOLIS ,IN,46227-5222,United States,317-780-1818,,,,,,
,,1251 US 31 N P150 ,,GREENWOOD ,IN,46142-4503,United States,317-865-0187,,,,,,
,,8487 UNION CHAPEL RD STE 420 ,,INDIANAPOLIS ,IN,46240-4382,United States,317-251-6100,,,,,,
,,84 GABLE DR ,,AVON ,IN,46123-8954,United States,317-209-8798,,,,,,
,,520 N MADISON AVE STE C ,,GREENWOOD ,IN,46142-4049,United States,317-889-4943,,,,,,
,,8701 Keystone Crossing ,,INDIANAPOLIS ,IN,46240,United States,317-580-0808,,,,,,
,,8691 RIVER CROSSING BLVD ,,INDIANAPOLIS ,IN,46240-2168,United States,317-564-9020,,,,,,
,,6020 E 82ND ST ,,INDIANAPOLIS ,IN,46250,United States,317-578-5500,,,,,,
,,100 N MADISON AVE ,,GREENWOOD ,IN,46142-3578,United States,317-888-3900,,,,,,
,,9873 N MICHIGAN RD STE 100 ,,CARMEL ,IN,46032-7959,United States,317-870-1700,,,,,,
,,7158 E US HIGHWAY 36 ,,AVON ,IN,46123-7778,United States,317-272-0955,,,,,,
,,6845 E US HIGHWAY 36 STE 430 ,,AVON ,IN,46123-9769,United States,317-272-0039,,,,,,
,,70 E PINE ST ,,ZIONSVILLE ,IN,46077-1528,United States,317-873-6785,,,,,,
,,47 S ELM ST ,,ZIONSVILLE ,IN,46077-1511,United States,317-733-1900,,,,,,
,,41 W CITY CENTER DR ,,CARMEL ,IN,46032-3086,United States,317-805-1858,,,,,,
,,1928 RHETTSBURY ST ,,CARMEL ,IN,46032-7295,United States,317-846-3073,,,,,,
,,4310 SARATOGA PKWY STE 500 ,,PLAINFIELD ,IN,46168-9208,United States,317-203-5522,,,,,,
,,8594 E 116TH ST STE 80 ,,FISHERS ,IN,46038-1566,United States,317-537-2508,,,,,,
,,11691 FALL CREEK RD STE 150 ,,INDIANAPOLIS ,IN,46256-9449,United States,317-595-6300,,,,,,
,,14701 CUMMBERLAND RD STE 160 ,,NOBLESVILLE ,IN,46060-8715,United States,317-770-6762,,,,,,
,,13185 HARRELL PKWY STE 200 ,,NOBLESVILLE ,IN,46060-3371,United States,317-770-7416,,,,,,
,,17219 MERCANTILE BLVD ,,NOBLESVILLE ,IN,46060-3930,United States,317-770-4500,,,,,,
,,2 E MAIN ST ,,GREENFIELD ,IN,46140-2319,United States,317-467-4700,,,,,,
,,45 WEST BAY ST STE 201 ,,JACKSONVILLE ,FL,32202-3632,United States,904-359-2006,,,,,,
,,1622 HENDRICKS AVE ,,JACKSONVILLE ,FL,32207-3110,United States,904-515-8802,,,,,,
,,3574 SAINT JOHNS AVE ,,JACKSONVILLE ,FL,32205-8446,United States,904-389-6221,,,,,,
,,4352 SOUTHSIDE BLVD UNIT 3 ,,JACKSONVILLE ,FL,32216-5487,United States,904-997-0201,,,,,,
,,4413 TOWN CENTER PKWY STE 225 ,,JACKSONVILLE ,FL,32246-8569,United States,904-503-0087,,,,,,
,,4835 TOWN CROSSING DRIVE ,,JACKSONVILLE ,FL,32246,United States,,,,,,,
,,9810 BAYMEADOWS RD ,,JACKSONVILLE ,FL,32256-7971,United States,904-683-3769,,,,,,
,,10601 SAN JOSE BLVD STE 5 ,,JACKSONVILLE ,FL,32257-6255,United States,904-647-4575,,,,,,
,,10300 SOUTHSIDE BLVD ,,JACKSONVILLE ,FL,32256-0770,United States,904-519-9365,,,,,,
,,2758 RACE TRACK RD STE 403 ,,JACKSONVILLE ,FL,32259,United States,904-209-1320,,,,,,
,,1560 BUSINESS CENTER DR STE 7 ,,FLEMING ISLAND ,FL,32003-4405,United States,904-278-1868,,,,,,
,,1257 S THIRD ST ,,JACKSONVILLE BEACH ,FL,32250,United States,904-241-1411,,,,,,
,,275 GOUGH ST ,,SAN FRANCISCO ,CA,94102-5905,United States,415-255-8827,,,,,,
,,1654 POST ST ,,SAN FRANCISCO ,CA,94115,United States,650-964-0964,,,,,,
,,845 Market St Ste 273 ,,San Francisco ,CA,94103-1900,United States,415-974-5300,,,,,,
,,1045 BUSH ST ,,SAN FRANCISCO ,CA,94109-6211,United States,415-806-4769,,,,,,
,,1221 DIVISADERO ST ,,SAN FRANCISCO ,CA,94115-3910,United States,415-549-7276,,,,,,
,,1728 DIVISADERO ST ,,SAN FRANCISCO ,CA,94115-3012,United States,415-346-4100,,,,,,
,,561 CASTRO ST ,,SAN FRANCISCO ,CA,94114-2511,United States,415-626-7700,,,,,,
,,305 KEARNY ST ,,SAN FRANCISCO ,CA,94108-3204,United States,415-989-4400,,,,,,
,,155 BRANNAN ST ,,SAN FRANCISCO ,CA,94107-2004,United States,415-371-1335,,,,,,
,,155 MAIN ST ,,SAN FRANCISCO ,CA,94105-1804,United States,415-543-2807,,,,,,
,,2263 UNION ST ,,SAN FRANCISCO ,CA,94123-3901,United States,415-567-8944,,,,,,
,,1299 CHURCH ST ,,SAN FRANCISCO ,CA,94114-3925,United States,415-642-9229,,,,,,
,,850 GREENWICH ST ,,SAN FRANCISCO ,CA,94133-2623,United States,415-800-7440,,,,,,
,,304 TARAVAL ST ,,SAN FRANCISCO ,CA,94116-1953,United States,415-682-8758,,,,,,
,,3251 20TH AVE STE 211 ,,SAN FRANCISCO ,CA,94132-1918,United States,415-566-7550,,,,,,
,,5689 BAY ST ,,EMERYVILLE ,CA,94608-2407,United States,510-654-1422,,,,,,
,,831 BROADWAY ,,OAKLAND ,CA,94607-4015,United States,510-995-0625,,,,,,
,,391B 17TH ST ,,OAKLAND ,CA,94612,United States,510-301-7237,,,,,,
,,1846 4TH ST ,,BERKELEY ,CA,94710-1911,United States,510-849-0992,,,,,,
,,2235 S SHORE CENTER ,,ALAMEDA ,CA,94501-8042,United States,510-523-4262,,,,,,
,,5095 TELEGRAPH AVE STE D ,,OAKLAND ,CA,94609-2067,United States,510-338-6772,,,,,,
,,3869 PIEDMONT AVE ,,OAKLAND ,CA,94611-5378,United States,510-652-5454,,,,,,
,,755 KAINS AVE ,,SAN BRUNO ,CA,94066-3431,United States,650-871-7702,,,,,,
,,1599 HOPKINS ST ,,BERKELEY ,CA,94707-2731,United States,510-526-1700,,,,,,
,,2634 ASHBY AVE ,,BERKELEY ,CA,94705-2228,United States,510-841-4696,,,,,,
,,4224 PARK BLVD ,,OAKLAND ,CA,94602-1312,United States,510-482-2392,,,,,,
,,1880 SOLANO AVE ,,BERKELEY ,CA,94707-2309,United States,510-527-3100,,,,,,
,,1870 REDWOOD HIGHWAY ,,CORTE MADERA ,CA,94925,United States,,,,,,,
,,1540 REDWOOD HWY ,,CORTE MADERA ,CA,94925-1224,United States,415-927-2594,,,,,,
,,371 PRIMROSE RD ,,BURLINGAME ,CA,94010-4004,United States,650-343-4409,,,,,,
,,222 LORTON AVE ,,BURLINGAME ,CA,94010-4204,United States,650-342-3929,,,,,,
,,1419 BURLINGAME AVE STE V ,,BURLINGAME ,CA,94010-4123,United States,650-343-0733,,,,,,
,,405 S B ST ,,SAN MATEO ,CA,94401-4118,United States,650-362-8722,,,,,,
,,159 ALDER AVE ,,SAN ANSELMO ,CA,94960-1744,United States,415-827-1352,,,,,,
,,1091 PARK PL ,,SAN MATEO ,CA,94403-1575,United States,650-272-8888,,,,,,
,,5800 NORTHGATE MALL STE 134 ,,SAN RAFAEL ,CA,94903-6840,United States,415-592-6152,,,,,,
,,285 HILLSDALE SHOPPING CTR ,,SAN MATEO ,CA,94403-3410,United States,650-378-8300,,,,,,
,,1525 LOCUST ST ,,WALNUT CREEK ,CA,94596-4116,United States,925-932-2242,,,,,,
,,300 MAIN ST ,,HALF MOON BAY ,CA,94019-1784,United States,650-726-2088,,,,,,
,,1459 E NEWELL AVE ,,WALNUT CREEK ,CA,94596-5316,United States,925-256-9914,,,,,,
,,146 BROADWAY LANE STE # 1120 ,,WALNUT CREEK ,CA,94596,United States,925-932-1220,,,,,,
,,631 MAIN ST ,,MARTINEZ ,CA,94553-1128,United States,925-228-2010,,,,,,
,,208 VINTAGE WAY STE K29 ,,NOVATO ,CA,94945-5025,United States,415-897-8777,,,,,,
,,275 S 4TH ST ,,COLUMBUS ,OH,43215-5245,United States,614-365-3333,,,,,,
,,757 S HIGH ST ,,COLUMBUS ,OH,43206-1908,United States,614-487-3033,,,,,,
,,755 N HIGH ST ,,COLUMBUS ,OH,43215-1425,United States,614-545-7100,,,,,,
,,1581 N HIGH ST ,,COLUMBUS ,OH,43201-1122,United States,614-291-2421,,,,,,
,,1618 NEIL AVE ,,COLUMBUS ,OH,43201-2333,United States,614-291-2421,,,,,,
,,1325 GRANDVIEW AVE ,,COLUMBUS ,OH,43212-3438,United States,614-487-0876,,,,,,
,,2353 E MAIN ST ,,BEXLEY ,OH,43209-2421,United States,614-725-4460,,,,,,
,,1335 DUBLIN RD STE 116C ,,COLUMBUS ,OH,43215-1000,United States,614-486-7578,,,,,,
,,524 N CASSADY AVE ,,BEXLEY ,OH,43209-1033,United States,740-258-0660,,,,,,
,,1581 W LANE AVE ,,UPPER ARLINGTON ,OH,43221-3924,United States,614-487-3033,,,,,,
,,2927 N HIGH ST ,,COLUMBUS ,OH,43202-1144,United States,614-784-1177,,,,,,
,,4050 The Strand W SPCE B 104 ,,COLUMBUS ,OH,43219-6127,United States,614-476-9600,,,,,,
,,529 HIGH ST ,,WORTHINGTON ,OH,43085-3943,United States,614-436-6688,,,,,,
,,6029 S SUNBURY RD ,,WESTERVILLE ,OH,43081-3846,United States,614-891-3600,,,,,,
,,1387 E JOHNSTOWN RD ,,GAHANNA ,OH,43230-6831,United States,614-775-1500,,,,,,
,,2655 FEDERATED BLVD ,,COLUMBUS ,OH,43235-4991,United States,614-791-8888,,,,,,
,,1839 WINDERLY LN ,,PICKERINGTON ,OH,43147-8637,United States,614-577-0794,,,,,,
,,491 LAZELLE RD ,,WESTERVILLE ,OH,43081-9540,United States,740-272-2582,,,,,,
,,1500 POLARIS PKWY STE 1073 ,,COLUMBUS ,OH,43240-2142,United States,614-985-1337,,,,,,
,,5485 NEW ALBANY RD W ,,NEW ALBANY ,OH,43054-8221,United States,614-775-0505,,,,,,
,,6455 PERIMETER DR UNIT H ,,DUBLIN ,OH,43016-8459,United States,614-766-4247,,,,,,
,,7196 MUIRFIELD DR ,,DUBLIN ,OH,43017-3801,United States,614-760-9090,,,,,,
,,9733 SAWMILL PKWY UNIT F ,,POWELL ,OH,43065-6101,United States,614-336-3666,,,,,,
,,3893 POWELL RD ,,POWELL ,OH,43065-7983,United States,614-336-3942,,,,,,
,,122 W WILLIAM ST ,,DELAWARE ,OH,43015-2305,United States,740-369-2887,,,,,,
,,129 BREVARD CT ,,CHARLOTTE ,NC,28202-1926,United States,980-474-1009,,,,,,
,,220 N PINE ST STE A ,,CHARLOTTE ,NC,28202-1808,United States,704-335-2277,,,,,,
,,1520 SOUTH BLVD STE 150 ,,CHARLOTTE ,NC,28203-4799,United States,704-333-9940,,,,,,
,,1236 EAST BLVD STE A ,,CHARLOTTE ,NC,28203-6342,United States,704-919-0109,,,,,,
,,4237 PARK RD STE B ,,CHARLOTTE ,NC,28209-2231,United States,803-802-5877,,,,,,
,,324 S SHARON AMITY RD ,,CHARLOTTE ,NC,28211-2806,United States,704-364-0270,,,,,,
,,4400 Sharon Road ,,CHARLOTTE ,NC,28211,United States,704-362-3023,,,,,,
,,4400 SHARON RD ,,CHARLOTTE ,NC,28211-3592,United States,704-644-4500,,,,,,
,,7115 NORTHLAKE MALL DR ,,CHARLOTTE ,NC,28216-1938,United States,704-598-3151,,,,,,
,,10829 PINEVILLE RD STE 4 ,,PINEVILLE ,NC,28134-8200,United States,704-651-6878,,,,,,
,,33 N MAIN ST STE A ,,BELMONT ,NC,28012-3155,United States,704-825-1248,,,,,,
,,7124 MATTHEWS MINT HILL RD ,,MINT HILL ,NC,28227-7592,United States,704-595-3506,,,,,,
,,7808 REA RD ,,CHARLOTTE ,NC,28277-6582,United States,704-542-6550,,,,,,
,,,,CHARLOTTE ,NC,28277-3479,United States,704-542-0098,,,,,,
,,15235 JOHN J DELANEY DR ,,CHARLOTTE ,NC,28277-2835,United States,704-540-5640,,,,,,
,,9818 GILEAD RD STE 105B ,,HUNTERSVILLE ,NC,28078-7597,United States,704-727-0386,,,,,,
,,,,CHARLOTTE ,NC,28277,United States,704-543-3748,,,,,,
,,985 MARKET ST STE 101 ,,FORT MILL ,SC,29708-6533,United States,803-802-5877,,,,,,
,,331 CODDLE MARKET DR NW STE 130 ,,CONCORD ,NC,28027-2419,United States,704-786-2449,,,,,,
,,124 HIGHWAY 16 S ,,DENVER ,NC,28037-8905,United States,704-966-0617,,,,,,
,,169 W MAIN AVE ,,GASTONIA ,NC,28052-4154,United States,704-867-8311,,,,,,
,,427 CHURCH ST N ,,CONCORD ,NC,28025-4577,United States,704-795-4586,,,,,,
,,1654 DICKERSON BLVD STE E ,,MONROE ,NC,28110-2882,United States,704-289-9881,,,,,,
,,1612 S UNIVERSITY DR 403 ,,FORT WORTH ,TX,76107-6562,United States,817-332-1155,,,,,,
,,4801 OVERTON RIDGE BLVD STE 148 ,,FORT WORTH ,TX,76132-1971,United States,682-747-5971,,,,,,
,,251 TOWN CENTER LN STE 2107 ,,KELLER ,TX,76248-2166,United States,817-379-3011,,,,,,
,,1346 OTTAWA ST UNIT A N8X 2E8 ,,WINDSOR ,ON,,United States,519-254-8447,,,,,,
,,3100 HOWARD AVE ,,WINDSOR ,N8X,3Y8,United States,519-969-0027,,,,,,
,,350 CABANA RD E STE 7 N9G 1A3 ,,WINDSOR ,ON,,United States,519-972-8500,,,,,,
,,16914 KERCHEVAL AVE ,,GROSSE POINTE ,MI,48230-1533,United States,313-881-4500,,,,,,
,,2959 BIDDLE AVE ,,WYANDOTTE ,MI,48192-5213,United States,734-561-3764,,,,,,
,,7840 ALLEN RD ,,ALLEN PARK ,MI,48101-1702,United States,313-386-5557,,,,,,
,,20559 MACK AVE ,,GROSSE POINTE WOODS ,MI,48236-1655,United States,313-423-0087,,,,,,
,,610 TELEGRAPH RD ,,DEARBORN ,MI,48128-1620,United States,313-563-0295,,,,,,
,,2512 ROCHESTER RD ,,ROYAL OAK ,MI,48073-3635,United States,248-298-2460,,,,,,
,,409 S CENTER ST ,,ROYAL OAK ,MI,48067-3847,United States,248-336-5500,,,,,,
,,321 S WASHINGTON AVE ,,ROYAL OAK ,MI,48067-3822,United States,248-545-1790,,,,,,
,,15007 EUREKA RD ,,SOUTHGATE ,MI,48195-2609,United States,734-282-4247,,,,,,
,,2949 W 12 MILE RD ,,BERKLEY ,MI,48072-1413,United States,248-547-4084,,,,,,
,,1707 LIVERNOIS RD ,,TROY ,MI,48083-1735,United States,248-250-6445,,,,,,
,,16030 15 MILE RD ,,FRASER ,MI,48026-3703,United States,586-415-0249,,,,,,
,,19125 WEST RD ,,WOODHAVEN ,MI,48183-3315,United States,734-561-3764,,,,,,
,,248 RAMSEY ST N9V 0O0 ,,AMHERSTBURG ,ON,,United States,519-736-8300,,,,,,
,,32669 W WARREN RD STE 3 ,,GARDEN CITY ,MI,48135-1677,United States,734-422-6420,,,,,,
,,335 E MAPLE RD ,,BIRMINGHAM ,MI,48009-6325,United States,248-385-1166,,,,,,
,,,,TROY ,MI,48084,United States,248-816-3333,,,,,,
,,25471 TELEGRAPH RD ,,FLAT ROCK ,MI,48134-1009,United States,734-782-7033,,,,,,
,,33318 GRAND RIVER AVE ,,FARMINGTON ,MI,48336-3179,United States,248-442-4999,,,,,,
,,17450 HALL RD STE 160 ,,CLINTON TOWNSHIP ,MI,48038-1330,United States,586-226-0336,,,,,,
,,3999 CENTERPT PKWY STE 110 ,,PONTIAC ,MI,48341-3122,United States,248-334-4500,,,,,,
,,242 N CANTON CENTER RD ,,CANTON ,MI,48187,United States,734-414-9980,,,,,,
,,50400 VAN DYKE AVE ,,SHELBY TOWNSHIP ,MI,48317-1358,United States,586-254-9171,,,,,,
,,50688 SCHOENHERR RD ,,SHELBY TOWNSHIP ,MI,48315-3135,United States,586-566-0110,,,,,,
,,43267 CRESCENT BLVD ,,NOVI ,MI,48375-1207,United States,248-735-1584,,,,,,
,,2038 CASS LAKE RD STE 3 ,,KEEGO HARBOR ,MI,48320-1268,United States,248-674-4247,,,,,,
,,27406 Novi Rd SPC 209 ,,NOVI ,MI,48377,United States,248-374-0672,,,,,,
,,528 N MAIN ,,ROCHESTER ,MI,48307-1457,United States,248-652-4060,,,,,,
,,2626 N STANTON ST ,,EL PASO ,TX,79902-3117,United States,915-833-4050,,,,,,
,,745 S MESA HILLS STE C ,,EL PASO ,TX,79912,United States,915-842-9901,,,,,,
,,8889 GATEWAY BLVD W STE 180 ,,EL PASO ,TX,79925-6540,United States,915-260-5550,,,,,,
,,10 N MAIN ST STE 100 ,,MEMPHIS ,TN,38103-2148,United States,901-527-7511,,,,,,
,,2157 CENTRAL AVE ,,MEMPHIS ,TN,38104-5502,United States,901-818-0773,,,,,,
,,374 GROVE PARK RD STE 101 ,,MEMPHIS ,TN,38117-3529,United States,901-818-0773,,,,,,
,,1015 1ST AVE ,,SEATTLE ,WA,98104-1007,United States,206-682-0748,,,,,,
,,528 2ND AVE ,,SEATTLE ,WA,98104-2336,United States,206-728-1234,,,,,,
,,600 PINE ST STE 136 ,,SEATTLE ,WA,98101-3718,United States,206-624-2450,,,,,,
,,2030 1ST AVE ,,SEATTLE ,WA,98121-2183,United States,206-441-5511,,,,,,
,,1514 10TH AVE ,,SEATTLE ,WA,98122-3807,United States,206-329-9933,,,,,,
,,390 WESTLAKE AVE N ,,SEATTLE ,WA,98109,United States,206-728-1234,,,,,,
,,512 BROADWAY E ,,SEATTLE ,WA,98102-5024,United States,206-860-0323,,,,,,
,,1809 QUEEN ANNE AVE N ,,SEATTLE ,WA,98109-2849,United States,206-436-7700,,,,,,
,,2302 24TH AVE E ,,SEATTLE ,WA,98112-2607,United States,206-465-7820,,,,,,
,,2138 CALIFORNIA AVE ,,SEATTLE ,WA,98116-2164,United States,206-932-5988,,,,,,
,,1905 N 45TH ST ,,SEATTLE ,WA,98103-6804,United States,206-805-2055,,,,,,
,,4502 42ND AVE SW STE B ,,SEATTLE ,WA,98116-5858,United States,206-258-3330,,,,,,
,,2622 NE University Village SPC 727 ,,SEATTLE ,WA,98105,United States,206-526-2610,,,,,,
,,2101 N 55TH ST STE 120 ,,SEATTLE ,WA,98103-6264,United States,206-547-1510,,,,,,
,,6417 ROOSEVELT WAY NE STE 204 ,,SEATTLE ,WA,98115-6657,United States,206-525-4774,,,,,,
,,8011 GREENWOOD AVE N ,,SEATTLE ,WA,98103-4228,United States,206-947-3115,,,,,,
,,243 Bellevue Square ,,BELLEVUE ,WA,98004,United States,425-454-1375,,,,,,
,,401 NE NORTHGATE WAY SPC 1001 ,,SEATTLE ,WA,98125,United States,206-367-4700,,,,,,
,,218 KIRKLAND AVE ,,KIRKLAND ,WA,98033-6503,United States,425-822-6040,,,,,,
,,6525 132ND AVE NE ,,KIRKLAND ,WA,98033-8628,United States,425-881-8811,,,,,,
,,211 SOUTHCENTER MALL ,,TUKWILA ,WA,98188-2834,United States,206 241-0364,,,,,,
,,16528 CLEVELAND ST STE D ,,REDMOND ,WA,98052-4460,United States,425-882-1641,,,,,,
,,16375 NE 85TH ST STE 101 ,,REDMOND ,WA,98052-3554,United States,425-284-0404,,,,,,
,,14545 148TH AVE NE STE 221 ,,WOODINVILLE ,WA,98072-8938,United States,425-402-8888,,,,,,
,,512 5TH AVE S STE 1 ,,EDMONDS ,WA,98020-3480,United States,425-776-5055,,,,,,
,,68 E SUNSET WAY ,,ISSAQUAH ,WA,98027-3813,United States,425-392-3367,,,,,,
,,19620 HIGHWAY 99 STE 104 ,,LYNNWOOD ,WA,98036-5565,United States,425-697-2086,,,,,,
,,3000 184th St SW STE 517 ,,LYNNWOOD ,WA,98037,United States,425-672-0710,,,,,,
,,18500 33RD AVE W STE C ,,LYNNWOOD ,WA,98037-4777,United States,425-776-1013,,,,,,
,,3200 184TH STREET SW ,,LYNNWOOD ,WA,98037,United States,,,,,,,
,,9130 WASHINGTON AVE NW ,,SILVERDALE ,WA,98383-8379,United States,360-698-0781,,,,,,
,,19980 10TH AVE NE STE 102 ,,POULSBO ,WA,98370-6322,United States,360-598-3333,,,,,,
,,4418 AUBURN WAY N STE 1 ,,AUBURN ,WA,98002-1385,United States,253-854-1650,,,,,,
,,32921 1ST AVE S STE C ,,FEDERAL WAY ,WA,98003-2609,United States,253-661-2700,,,,,,
,,35 SE EVERETT MALL WAY STE 101 ,,EVERETT ,WA,98208-3215,United States,425-513-9360,,,,,,
,,3111 HARBORVIEW DR STE 100 ,,GIG HARBOR ,WA,98335-2124,United States,253-851-5599,,,,,,
,,2701 N PROCTOR ,,TACOMA ,WA,98407-5227,United States,253-565-7765,,,,,,
,,1301 SPEER BLVD STE A ,,DENVER ,CO,80204-2570,United States,303-777-5914,,,,,,
,,700 16TH ST ,,DENVER ,CO,80202-3229,United States,303-567-7500,,,,,,
,,1717 CHAMPA ST ,,DENVER ,CO,80202-2704,United States,303-308-0524,,,,,,
,,1650 MARKET ST ,,DENVER ,CO,80202-1514,United States,303-892-8922,,,,,,
,,1019 E 9TH AVE ,,DENVER ,CO,80218-3321,United States,303-837-1300,,,,,,
,,572 INCA ST ,,DENVER ,CO,80204-5018,United States,303-733-3733,,,,,,
,,284 S DOWNING ST ,,DENVER ,CO,80209-2433,United States,303-777-9251,,,,,,
,,485 S PEARL ST ,,DENVER ,CO,80209-2021,United States,303-733-0845,,,,,,
,,200 CLAYTON ST ,,DENVER ,CO,80206-4843,United States,303-321-0022,,,,,,
,,3500 E 12TH AVE ,,DENVER ,CO,80206-3434,United States,303-399-9156,,,,,,
,,2810 EAST 1ST AVE ,,DENVER ,CO,80206,United States,,,,,,,
,,3000 E 1ST AVE STE 160 ,,DENVER ,CO,80206-5635,United States,303-320-0104,,,,,,
,,3390 W 32ND AVE ,,DENVER ,CO,80211-3686,United States,303-455-3320,,,,,,
,,40 W LOUISIANA AVE ,,DENVER ,CO,80223-3227,United States,303-284-9205,,,,,,
,,4500 W 38TH AVE STE 120 ,,DENVER ,CO,80212-2005,United States,303-863-7041,,,,,,
,,457 WADSWORTH BLVD STE B ,,LAKEWOOD ,CO,80226-1535,United States,303-233-8089,,,,,,
,,8216 NORTHFIELD BLVD STE 1330 ,,DENVER ,CO,80238-3116,United States,303-373-5455,,,,,,
,,1555 SIMMS ST ,,LAKEWOOD ,CO,80215-2609,United States,303-462-2003,,,,,,
,,,,DENVER ,CO,80231-4848,United States,303-773-3441,,,,,,
,,2611 S PARKER RD ,,AURORA ,CO,80014-1617,United States,303-337-6309,,,,,,
,,7170 W RADCLIFF AVE ,,LITTLETON ,CO,80123-1208,United States,303-933-2884,,,,,,
,,229 W LITTLETON BLVD ,,LITTLETON ,CO,80120-2331,United States,303-799-4262,,,,,,
,,2580 W MAIN ST ,,LITTLETON ,CO,80120-4627,United States,303-797-0393,,,,,,
,,14235 W COLFAX AVE ,,LAKEWOOD ,CO,80401-3211,United States,303-733-3733,,,,,,
,,14200 EAST ALAMEDA AVE ,,AURORA ,CO,80012-2511,United States,720-858-0909,,,,,,
,,1258 S ABILENE ST ,,AURORA ,CO,80012-4629,United States,303-337-5862,,,,,,
,,14710 W COLFAX AVE # 140 ,,LAKEWOOD ,CO,80401-3215,United States,303-278-8686,,,,,,
,,14799 W 6TH AVE STE A6 ,,GOLDEN ,CO,80401-5256,United States,303-278-1386,,,,,,
,,8000 E BELLEVIEW AVE STE B90 ,,GREENWOOD VILLAGE ,CO,80111-2642,United States,303-740-9140,,,,,,
,,9765 OSCEOLA ST ,,WESTMINSTER ,CO,80030-2605,United States,303-465-5655,,,,,,
,,2154 E COMMONS AVE STE 312 ,,CENTENNIAL ,CO,80122-3267,United States,303-331-6621,,,,,,
,,8501 W BOWLES AVE ,,LITTLETON ,CO,80123-9502,United States,303-979-9402,,,,,,
,,7301 S SANTA FE DR STE 350 ,,LITTLETON ,CO,80120-2981,United States,303-730-9399,,,,,,
,,15400 W 64TH AVE UNIT E11 ,,ARVADA ,CO,80007-6852,United States,303-425-0931,,,,,,
,,,,BROOMFIELD ,CO,80021-6093,United States,303-429-6465,,,,,,
,,3901 E 112TH AVE UNIT B ,,THORNTON ,CO,80233-2546,United States,303-450-2727,,,,,,
,,9690 E ARAPAHOE RD ,,GREENWOOD VILLAGE ,CO,80112-3703,United States,303-662-1912,,,,,,
,,7824 PARK MEADOWS DR STE 100 ,,LONE TREE ,CO,80124-2567,United States,303-799-4499,,,,,,
,,9325 DORCHESTER ST STE 130 ,,HIGHLANDS RANCH ,CO,80129-2519,United States,303-470-7900,,,,,,
,,8405 PARK MEADOWS CENTER Ste 1147 ,,LONE TREE ,CO,80124-5047,United States,303-799-1981,,,,,,
,,291 E FLATIRON CROSSING DR UNIT B ,,BROOMFIELD ,CO,80021-8060,United States,303-469-4606,,,,,,
,,1 W Flatiron Circle STE 1176 ,,BROOMFIELD ,CO,80021,United States,720-887-1981,,,,,,
,,9854 ZENITH MERIDIAN DR STE B ,,ENGLEWOOD ,CO,80112-6334,United States,303-799-4242,,,,,,
,,6820 S LIVERPOOL ST STE A ,,AURORA ,CO,80016-1774,United States,303-617-7778,,,,,,
,,3140 VILLAGE VISTA DR UNIT 103 ,,ERIE ,CO,80516-2529,United States,720-449-6228,,,,,,
,,2325 PRAIRIE CENTER PKWY UNIT A ,,BRIGHTON ,CO,80601-7035,United States,303-655-8242,,,,,,
,,765 E SOUTH BOULDER RD UNIT 200 ,,LOUISVILLE ,CO,80027,United States,720-890-3987,,,,,,
,,502 W BASELINE RD ,,LAFAYETTE ,CO,80026-1723,United States,303-926-0426,,,,,,
,,301 S 4TH ST ,,BRIGHTON ,CO,80601-2035,United States,303-659-8872,,,,,,
,,2765 DAGNY WAY STE 100 ,,LAFAYETTE ,CO,80026-8021,United States,303-666-7036,,,,,,
,,3601 ARAPAHOE AVE STE D180 ,,BOULDER ,CO,80303-1310,United States,720-465-9057,,,,,,
,,1810 29TH ST UNIT 2000 ,,BOULDER ,CO,80301-1062,United States,303-442-4247,,,,,,
,,2575 PEARL ST ,,BOULDER ,CO,80302-3851,United States,303-440-0722,,,,,,
,,1320 PEARL ST STE 200 ,,BOULDER ,CO,80302-5279,United States,303-938-8015,,,,,,
,,380 ARAPAHOE AVE ,,BOULDER ,CO,80302-5823,United States,303-444-0330,,,,,,
,,75 NEWBURY ST # 2 ,,BOSTON ,MA,02116-3281,United States,617-267-3080,,,,,,
,,91 MAIN ST ,,CHARLESTOWN ,MA,02129-3739,United States,617-242-3200,,,,,,
,,518 TREMONT ST UNIT 1B ,,BOSTON ,MA,02116-6311,United States,857-305-3106,,,,,,
,,800 BOYLSTON ST UNIT 230 ,,BOSTON ,MA,02199-1900,United States,617-423-1350,,,,,,
,,473 SHAWMUT AVE ,,BOSTON ,MA,02118-3838,United States,617-375-7827,,,,,,
,,485 COMMONWEALTH AVE ,,BOSTON ,MA,02215-2204,United States,617-651-0044,,,,,,
,,471 ARTISAN WAY ,,SOMERVILLE ,MA,02145-1205,United States,617-628-7662,,,,,,
,,1050 MASSACHUSETTS AVE ,,CAMBRIDGE ,MA,02138-5359,United States,781-270-9200,,,,,,
,,233 HARVARD ST STE 12 ,,BROOKLINE ,MA,02446-5017,United States,617-277-3339,,,,,,
,,1 GROVE ST ,,WATERTOWN ,MA,02472-2047,United States,617-924-4424,,,,,,
,,588 MOUNT AUBURN ST ,,WATERTOWN ,MA,02472-4124,United States,617-923-1988,,,,,,
,,620 HAMMOND ST ,,CHESTNUT HILL ,MA,02467-2101,United States,617-734-8100,,,,,,
,,6 BELGRADE AVE STE 8 ,,ROSLINDALE ,MA,02131-3006,United States,617-325-0002,,,,,,
,,199 BOYLSTON ST STE N125 ,,CHESTNUT HILL ,MA,02467-1607,United States,617-559-0121,,,,,,
,,518 LINCOLN AVE ,,SAUGUS ,MA,01906-3849,United States,781-558-2538,,,,,,
,,539 COMMONWEALTH AVE ,,BOSTON ,MA,02215-2005,United States,617-437-1313,,,,,,
,,6 THOMPSON ST ,,WINCHESTER ,MA,01890-2904,United States,781-729-7484,,,,,,
,,201 MASSACHUSETTS AVE ,,LEXINGTON ,MA,02420-4003,United States,781-863-5274,,,,,,
,,,,WALTHAM ,MA,02453-4313,United States,617-319-8821,,,,,,
,,587 HIGH ST ,,DEDHAM ,MA,02026-1863,United States,781-493-6000,,,,,,
,,87 ALBION ST ,,WAKEFIELD ,MA,01880-2801,United States,781-224-9826,,,,,,
,,250 Granite St Ste 2059A ,,BRAINTREE ,MA,02184-2804,United States,781-843-0911,,,,,,
,,18 CHESTNUT ST ,,WAKEFIELD ,MA,01880-2313,United States,781-820-0001,,,,,,
,,576 SOUTH ST ,,WALTHAM ,MA,02453-8913,United States,781-891-0909,,,,,,
,,134 HUMPHREY ST ,,SWAMPSCOTT ,MA,01907-2510,United States,781-593-3700,,,,,,
,,75 Middlesex Tpke Ste 1092 ,,BURLINGTON ,MA,01803,United States,781-270-4046,,,,,,
,,65 SOUTH ST ,,HINGHAM ,MA,02043-2524,United States,781-749-4500,,,,,,
,,101 MIDDLESEX TURNPIKE ,,BURLINGTON ,MA,01803-4914,United States,781-270-9200,,,,,,
,,1132 MAIN ST ,,WEYMOUTH ,MA,02190-1511,United States,781-335-4545,,,,,,
,,115A TOWER RD ,,WALTHAM ,MA,02451,United States,781-890-9211,,,,,,
,,210 ANDOVER STREET ,,PEABODY ,MA,01960,United States,,,,,,,
,,316 DERBY ST ,,SALEM ,MA,01970-3633,United States,978-741-8110,,,,,,
,,60 ATLANTIC AVE STE C ,,MARBLEHEAD ,MA,01945-3035,United States,781-639-1708,,,,,,
,,85 ANDOVER ST ,,DANVERS ,MA,01923-1417,United States,978-624-7277,,,,,,
,,812 CHIEF JUSTICE CUSHING HW STE 4 ,,COHASSET ,MA,02025-2151,United States,781-383-6663,,,,,,
,,21 MAIN ST STE 1A ,,NORTH READING ,MA,01864-2286,United States,978-276-3400,,,,,,
,,776 WASHINGTON ST ,,CANTON ,MA,02021-3009,United States,781-828-8338,,,,,,
,,116 RANTOUL ST ,,BEVERLY ,MA,01915-4256,United States,978-922-0322,,,,,,
,,10 WASHINGTON ST ,,NORWELL ,MA,02061-1749,United States,781-871-4545,,,,,,
,,203 MAIN ST ,,WALPOLE ,MA,02081-4023,United States,508-668-7132,,,,,,
,,50 FERNCROFT RD ,,DANVERS ,MA,01923-4017,United States,978-777-4813,,,,,,
,,1245 Worcester St STE 1184 ,,NATICK ,MA,01760,United States,508-651-9229,,,,,,
,,9 CHURCH ST ,,WEST CONCORD ,MA,01742-3001,United States,978-369-1009,,,,,,
,,419 WORCESTER RD ,,FRAMINGHAM ,MA,01701-5367,United States,508-370-9866,,,,,,
,,14 WEST ST ,,BEVERLY ,MA,01915-2226,United States,978-927-2883,,,,,,
,,268 GREAT RD ,,ACTON ,MA,01720-4709,United States,978-263-9027,,,,,,
,,4 SUMMER ST STE A ,,MANCHESTER ,MA,01944-1567,United States,978-525-3221,,,,,,
,,25 W UNION ST ,,ASHLAND ,MA,01721-1465,United States,508-881-4004,,,,,,
,,173 MARKET ST ,,LOWELL ,MA,01852-1810,United States,978-458-1132,,,,,,
,,155 BROADWAY RD ,,DRACUT ,MA,01826-2735,United States,978-674-8188,,,,,,
,,2214 ELLISTON PL STE 100 ,,NASHVILLE ,TN,37203-5285,United States,615-515-3767,,,,,,
,,2817 W END AVE STE 109 ,,NASHVILLE ,TN,37203-1480,United States,615-329-4454,,,,,,
,,2126 Abbott Martin Rd Ste 214 ,,Nashville ,TN,37215-2639,United States,615-297-2621,,,,,,
,,2624 OLD LEBANON PIKE ,,NASHVILLE ,TN,37214,United States,615-889-5538,,,,,,
,,15556 OLD HICKORY BLVD ,,NASHVILLE ,TN,37211-7330,United States,615-331-9800,,,,,,
,,135 BELLE FOREST CIR ,,NASHVILLE ,TN,37221-2103,United States,615-646-2722,,,,,,
,,7052 HIGHWAY 70 S ,,NASHVILLE ,TN,37221,United States,615-646-8600,,,,,,
,,1000 RIVERGATE PKWY STE 4 ,,GOODLETTSVILLE ,TN,37072-2405,United States,615-855-2728,,,,,,
,,1765 GALLERIA BLVD ,,FRANKLIN ,TN,37067-1602,United States,615-567-5417,,,,,,
,,2000 MERIDIAN BLVD STE 104 ,,FRANKLIN ,TN,37065-6347,United States,615-771-6400,,,,,,
,,443 COOL SPRINGS BLVD STE 105 ,,FRANKLIN ,TN,37067-4628,United States,615-771-9005,,,,,,
,,121 3RD AVE N ,,FRANKLIN ,TN,37064-2502,United States,615-599-5339,,,,,,
,,817 S BOND ST ,,BALTIMORE ,MD,21231-3308,United States,410-327-1300,,,,,,
,,2700 REMINGTON AVE STE 300 ,,BALTIMORE ,MD,21211-3041,United States,410-366-6169,,,,,,
,,5726 FALLS RD ,,BALTIMORE ,MD,21209-3708,United States,410-435-4414,,,,,,
,,105 WARE AVE ,,TOWSON ,MD,21204-4004,United States,410-823-3942,,,,,,
,,825 Dulaney Valley Road SPC 4040 ,,TOWSON ,MD,21204,United States,410-847-9340,,,,,,
,,8086 MAIN ST ,,UPPR LEVEL ELLICOTT CITY ,MD,21043-4617,United States,410-480-5101,,,,,,
,,9051 BALTIMORE NATIONAL PIKE STE 2 ,,ELLICOTT CITY ,MD,21042-3927,United States,410-203-1865,,,,,,
,,9832 YORK RD STE 2F ,,COCKEYSVILLE ,MD,21030-4965,United States,410-628-6061,,,,,,
,,3905 MOUNTAIN RD STE D ,,PASADENA ,MD,21122-4441,United States,410-255-4119,,,,,,
,,6925 OAKLAND MILLS RD STE E ,,COLUMBIA ,MD,21045-4714,United States,410-381-7070,,,,,,
,,10300 Little Patuxent Pkw STE 1835 ,,COLUMBIA ,MD,21044,United States,410-772-0100,,,,,,
,,1510 Annapolis Mall ,,Annapolis ,MD,21401-3087,United States,410-224-2329,,,,,,
,,227 ARCHER STREET ,,BEL AIR ,MD,21014-3639,United States,410-838-0845,,,,,,
,,1 PARK PLACE STE 11 ,,ANNAPOLIS ,MD,21401-3475,United States,410-268-2828,,,,,,
,,517 W MAIN ST ,,OKLAHOMA CITY ,OK,73102-2219,United States,405-722-3336,,,,,,
,,4200 N WESTERN AVE STE B ,,OKLAHOMA CITY ,OK,73118-5400,United States,405-525-6110,,,,,,
,,5740 N CLASSEN BLVD STE 1 ,,OKLAHOMA CITY ,OK,73118,United States,405-340-8190,,,,,,
,,2801 S DOUGLAS BLVD STE 102 ,,MIDWEST CITY ,OK,73130-7133,United States,405-741-0004-101,,,,,,
,,12200 N MACARTHUR BLVD STE E ,,OKLAHOMA CITY ,OK,73162-1849,United States,405-722-3336,,,,,,
,,316 W EDMOND RD ,,EDMOND ,OK,73003-5600,United States,405-844-4600,,,,,,
,,3720 W ROBINSON STE 130 ,,NORMAN ,OK,73072-3640,United States,918-587-2566,,,,,,
,,1121 BARDSTOWN RD STE 1 ,,LOUISVILLE ,KY,40204-1385,United States,502-451-9100,,,,,,
,,1832 FRANKFORT AVE ,,LOUISVILLE ,KY,40206-3174,United States,502-287-3000,,,,,,
,,4600 SHELBYVILLE RD STE 302 ,,LOUISVILLE ,KY,40207-3326,United States,502-897-5553,,,,,,
,,322 VINCENNES ST ,,NEW ALBANY ,IN,47150-1620,United States,812-945-5480,,,,,,
,,2401 BARDSTOWN RD STE B ,,LOUISVILLE ,KY,40205-2122,United States,502-618-8000,,,,,,
,,3938 DUTCHMANS LN ,,LOUISVILLE ,KY,40207-4702,United States,502-897-5369,,,,,,
,,5000 Shelbyville Road ,,LOUISVILLE ,KY,40207,United States,502-896-1030,,,,,,
,,113 E MARKET ST ,,NEW ALBANY ,IN,47150-3409,United States,812-944-4050,,,,,,
,,712 HIGHLANDER POINT DR ,,FLOYDS KNOBS ,IN,47119-9442,United States,812-923-9557,,,,,,
,,9407 SHELBYVILLE RD ,,LOUISVILLE ,KY,40222-5115,United States,502-426-2226,,,,,,
,,4045 SUMMIT PLAZA DR ,,LOUISVILLE ,KY,40241-8119,United States,502-426-2213,,,,,,
,,10118 TAYLORSVILLE RD ,,LOUISVILLE ,KY,40299-3623,United States,502-267-4624,,,,,,
,,3592 SPRINGHURST BLVD STE B ,,LOUISVILLE ,KY,40241-4141,United States,502-412-1505,,,,,,
,,13206 W HIGHWAY 42 ,,PROSPECT ,KY,40059-8221,United States,502-228-9786,,,,,,
,,8003 BARDSTOWN RD ,,LOUISVILLE ,KY,40291-3439,United States,502-231-1341,,,,,,
,,13128 SHELBYVILLE RD ,,LOUISVILLE ,KY,40243-1572,United States,502-290-4311,,,,,,
,,4815 N PRESTON HWY STE 3 ,,SHEPHERDSVILLE ,KY,40165-8419,United States,502-277-1767,,,,,,
,,6630 W HIGHWAY 146 ,,CRESTWOOD ,KY,40014-8475,United States,502-243-4046,,,,,,
,,1025 N BARDSTOWN RD ,,MOUNT WASHINGTON ,KY,40047-7602,United States,502-538-8142,,,,,,
,,700 SW 5TH AVE STE 2015 ,,PORTLAND ,OR,97204-2000,United States,503-224-9339,,,,,,
,,325 NW 13TH AVE ,,PORTLAND ,OR,97209,United States,503-294-6000,,,,,,
,,1811 SW RIVER DR STE 100 ,,PORTLAND ,OR,97201-5180,United States,503-226-1336,,,,,,
,,801 N RUSSELL ST ,,PORTLAND ,OR,97227-1731,United States,503-280-2044,,,,,,
,,1423 NE BROADWAY ,,PORTLAND ,OR,97232-1404,United States,503-287-0800,,,,,,
,,10222 E BURNSIDE ST ,,PORTLAND ,OR,97216-2732,United States,503-517-8512,,,,,,
,,205 W 6TH ST ,,VANCOUVER ,WA,98660,United States,360-885-1077,,,,,,
,,12000 SE 82ND AVE STE L 125 ,,HAPPY VALLEY ,OR,97086,United States,503-228-8280,,,,,,
,,2006 MAIN ST ,,VANCOUVER ,WA,98660-2637,United States,360-906-0826,,,,,,
,,6615 NE FOURTH PLAIN BLVD ,,VANCOUVER ,WA,98661-7264,United States,360-619-0008,,,,,,
,,14795 SW MURRAY SCHOLLS DR STE 101 ,,BEAVERTON ,OR,97007-9230,United States,503-579-1500,,,,,,
,,19360 NW CORNELL RD ,,HILLSBORO ,OR,97124-9378,United States,503-645-2950,,,,,,
,,8700 NE VANCOUVER MALL DR STE 128 ,,VANCOUVER ,WA,98662-7920,United States,360-253-3444,,,,,,
,,19215 SE 34TH ST ,,CAMAS ,WA,98607-8829,United States,360-254-2120,,,,,,
,,13203 SE 172ND AVE STE 172 ,,HAPPY VALLEY ,OR,97086-8738,United States,503-454-0565,,,,,,
,,10 NW 3RD ST ,,GRESHAM ,OR,97030-7202,United States,503-489-5421,,,,,,
,,21430 SW LANGER FARMS PKWY STE 152 ,,SHERWOOD ,OR,97140-9141,United States,503-822-5485,,,,,,
,,218 NE 4TH AVE ,,CAMAS ,WA,98607-2124,United States,360-844-6018,,,,,,
,,7509 S 5TH ST STE 113B ,,RIDGEFIELD ,WA,98642-7157,United States,360-921-7340,,,,,,
,,3200 LAS VEGAS BLVD SOUTH ,,LAS VEGAS ,NV,89109,United States,,,,,,,
,,211 E FLAMINGO RD FL 4 ,,LAS VEGAS ,NV,89169-4708,United States,702-636-2424,,,,,,
,,4856 S EASTERN AVE ,,LAS VEGAS ,NV,89119-6103,United States,702-459-2900,,,,,,
,,6639 LAS VEGAS BLVD S UNIT 129 ,,LAS VEGAS ,NV,89119-3265,United States,702-270-2860,,,,,,
,,7991 W TROPICAL PKWY STE 120 ,,LAS VEGAS ,NV,89149-4539,United States,702-839-9669,,,,,,
,,7625 S RAINBOW BLVD STE 103 ,,LAS VEGAS ,NV,89139-0402,United States,702-269-4566,,,,,,
,,4165 S GRAND CANYON DR ,,LAS VEGAS ,NV,89147-7175,United States,702-364-8783,,,,,,
,,2265 VILLAGE WALK DR STE 105 ,,HENDERSON ,NV,89052-5691,United States,702-407-0516,,,,,,
,,1825 FESTIVAL PLAZA DR STE 100 ,,LAS VEGAS ,NV,89135-2917,United States,702-444-4602,,,,,,
,,7580 NORMAN ROCKWELL LN STE 110 ,,LAS VEGAS ,NV,89143-6019,United States,702-754-3300,,,,,,
,,10550 SOUTHERN HIGHLANDS P STE 150 ,,LAS VEGAS ,NV,89141-4388,United States,702-364-8783,,,,,,
,,101 MONTELAGO BLVD ,,HENDERSON ,NV,89011-3203,United States,702-567-6000,,,,,,
,,327 E SAINT PAUL AVE FL 1 ,,MILWAUKEE ,WI,53202-5817,United States,414-227-2889,,,,,,
,,327 E SAINT PAUL AVE FL 1 ,,MILWAUKEE ,WI,53202-5817,United States,414-227-2888,,,,,,
,,925 E OGDEN AVE ,,MILWAUKEE ,WI,53202-2830,United States,414-291-6161,,,,,,
,,810 S 5TH ST ,,MILWAUKEE ,WI,53204-1729,United States,414-383-7088,,,,,,
,,1919 E KENILWORTH PL ,,MILWAUKEE ,WI,53202-1121,United States,414-227-2888,,,,,,
,,2624 N DOWNER AVE ,,MILWAUKEE ,WI,53211-4244,United States,414-961-7000,,,,,,
,,4503 N OAKLAND AVE ,,SHOREWOOD ,WI,53211-1216,United States,414-963-4300,,,,,,
,,3724 S KINNICKINNIC AVE ,,SAINT FRANCIS ,WI,53235-4224,United States,414-482-7271,,,,,,
,,7430 HARWOOD AVE ,,WAUWATOSA ,WI,53213-2641,United States,414-453-4672,,,,,,
,,7620 W CENTER ST ,,MILWAUKEE ,WI,53222-5083,United States,414-808-2828,,,,,,
,,5714 N BAYSHORE DR ,,GLENDALE ,WI,53217-4518,United States,414-227-2888,,,,,,
,,8735 W NORTH AVE ,,WAUWATOSA ,WI,53226-2723,United States,414-258-4744,,,,,,
,,8851 W NORTH AVE ,,WAUWATOSA ,WI,53226-2725,United States,414-763-9498,,,,,,
,,6918 N PORT WASHINGTON RD ,,GLENDALE ,WI,53217-3921,United States,414-477-9877,,,,,,
,,2500 N Mayfair Rd ,,Wauwatosa ,WI,53226-1409,United States,414-778-2255,,,,,,
,,2727 N MAYFAIR RD STE C ,,WAUWATOSA ,WI,53222-4400,United States,414-258-4444,,,,,,
,,4969 S 76TH ST ,,GREENFIELD ,WI,53220-4305,United States,414-282-8080,,,,,,
,,11533 W NORTH AVE ,,WAUWATOSA ,WI,53226-2127,United States,414-778-0098,,,,,,
,,2336 N 124TH ST ,,WAUWATOSA ,WI,53226-1011,United States,414-774-3668,,,,,,
,,4111 S 108TH ST ,,GREENFIELD ,WI,53228-1905,United States,414-425-1700,,,,,,
,,7435 S HOWELL AVE ,,OAK CREEK ,WI,53154-2109,United States,414-762-7100,,,,,,
,,7441 S 27TH ST STE 3 ,,FRANKLIN ,WI,53132-9383,United States,414-483-3644,,,,,,
,,15060 W GREENFIELD AVE STE 106 ,,BROOKFIELD ,WI,53005-7061,United States,262-789-0545,,,,,,
,,95 N MOORLAND RD STE C4 ,,BROOKFIELD ,WI,53005-6021,United States,414-227-2888,,,,,,
,,15155 W NATIONAL AVE ,,NEW BERLIN ,WI,53151-5150,United States,262-202-8572,,,,,,
,,7720 S LOVERS LN RD STE 260 ,,FRANKLIN ,WI,53132-2289,United States,414-425-3485,,,,,,
,,10902 N PORT WASHINGTON STORE # 63 ,,MEQUON ,WI,53092-5031,United States,414-227-2888,,,,,,
,,3885 N BROOKFIELD RD ,,BROOKFIELD ,WI,53045-1983,United States,414-227-2888,,,,,,
,,N88W16653 APPLETON AVE ,,MENOMONEE FALLS ,WI,53051-2852,United States,262-502-9115,,,,,,
,,166 GREEN BAY RD ,,THIENSVILLE ,WI,53092-1660,United States,262-238-0333,,,,,,
,,S76W17789 JANESVILLE RD ,,MUSKEGO ,WI,53150-9299,United States,262-971-2000,,,,,,
,,N96W17035 DIVISION RD STE B ,,GERMANTOWN ,WI,53022-6419,United States,262-253-6800,,,,,,
,,W61 N306 WASHINGTON AVE STE. 102 ,,CEDARBURG ,WI,53012,United States,262-618-4922,,,,,,
,,5052 DOUGLAS AVE ,,RACINE ,WI,53402-2028,United States,262-681-5530,,,,,,
,,2900 GOLF RD ,,PEWAUKEE ,WI,53072-5449,United States,262-650-8000,,,,,,
,,3305 WASHINGTON AVE ,,RACINE ,WI,53405-3038,United States,262-633-5505,,,,,,
,,151 E CAPITOL DR ,,HARTLAND ,WI,53029-2129,United States,262-367-0204,,,,,,
,,231 N FRANKLIN ST ,,PORT WASHINGTON ,WI,53074-1934,United States,262-268-9140,,,,,,
,,212 W MAIN ST ,,WATERFORD ,WI,53185-4132,United States,262-534-9700,,,,,,
,,3500 CENTRAL AVE SE ,,ALBUQUERQUE ,NM,87106-1446,United States,505-266-2400,,,,,,
,,401 CENTRAL AVE NE ,,ALBUQUERQUE ,NM,87102-3517,United States,505-298-2983,,,,,,
,,201 3RD ST NW STE O ,,ALBUQUERQUE ,NM,87102-3375,United States,505-839-1885,,,,,,
,,500 COPPER NW UNIT 1B ,,ALBUQUERQUE ,NM,87102-5304,United States,505-839-1885,,,,,,
,,5113 COMANCHE RD NE ,,ALBUQUERQUE ,NM,87110-1182,United States,505-881-0464,,,,,,
,,1816 CENTRAL AVE SW ,,ALBUQUERQUE ,NM,87104-1160,United States,505-294-5333,,,,,,
,,404 SAN FELIPE ST NW STE C1 ,,ALBUQUERQUE ,NM,87104-1472,United States,505-273-9723,,,,,,
,,1100 JUAN TABO BLVD NE ,,ALBUQUERQUE ,NM,87112-5703,United States,505-298-2983,,,,,,
,,,,ALBUQUERQUE ,NM,87120,United States,505-792-0116,,,,,,
,,5101 COORS BLVD NW STE A ,,ALBUQUERQUE ,NM,87120-1923,United States,505-897-3356,,,,,,
,,8001 WYOMING BLVD NE ,,ALBUQUERQUE ,NM,87113-2009,United States,505-856-7700,,,,,,
,,3600 HWY 528 NW ,,ALBUQUERQUE ,NM,87114-8900,United States,505-898-1105,,,,,,
,,10420 COORS BYPASS NW STE B ,,ALBUQUERQUE ,NM,87114-1368,United States,505-298-2983,,,,,,
,,1751 HIGHWAY 528 STE 105 ,,RIO RANCHO ,NM,87124,United States,505-220-6205,,,,,,
,,4020 PEGGY RD SE STE E ,,RIO RANCHO ,NM,87124-1035,United States,505-891-9131,,,,,,
,,1160 BOSQUE FARMS BLVD STE J ,,BOSQUE FARMS ,NM,87068-9335,United States,505-869-3000,,,,,,
,,845 N PARK AVE STE 105 ,,TUCSON ,AZ,85719-4876,United States,520-207-2660,,,,,,
,,426 E 7TH ST ,,TUCSON ,AZ,85705-8575,United States,520-623-2235,,,,,,
,,614 N 4TH AVE ,,TUCSON ,AZ,85705-8449,United States,520-623-3804,,,,,,
,,5350 E BROADWAY BLVD STE 160 ,,TUCSON ,AZ,85711-3721,United States,520-747-1388,,,,,,
,,2951 N SWAN ,,TUCSON ,AZ,85712-1257,United States,520-325-3300,,,,,,
,,6370 N CAMPBELL AVE STE 140 ,,TUCSON ,AZ,85718-3175,United States,520-989-9395,,,,,,
,,2905 E Skyline Dr ,,Tucson ,AZ,85718-3087,United States,520-232-9435,,,,,,
,,7025 N ORACLE RD ,,TUCSON ,AZ,85704-4329,United States,520-297-0747,,,,,,
,,12120 N DOVE MOUNTAIN BLVD STE 162 ,,MARANA ,AZ,85658-4571,United States,520-770-7874,,,,,,
,,5054 N PALM AVE ,,FRESNO ,CA,93704-2201,United States,559-224-2667,,,,,,
,,610 5TH ST ,,CLOVIS ,CA,93612-1107,United States,559-322-0465,,,,,,
,,1603 HOWARD RD ,,MADERA ,CA,93637-5128,United States,559-395-4402,,,,,,
,,3271 FOLSOM BLVD ,,SACRAMENTO ,CA,95816-5220,United States,916-451-4949,,,,,,
,,2106 11TH AVE ,,SACRAMENTO ,CA,95818-4359,United States,916 448 4422,,,,,,
,,1651 ARDEN WAY ,,SACRAMENTO ,CA,95815,United States,,,,,,,
,,2527 FAIR OAKS BLVD ,,SACRAMENTO ,CA,95825-7686,United States,916-631-7151,,,,,,
,,4730 NATOMAS BLVD STE 120 ,,SACRAMENTO ,CA,95835-2235,United States,916-285-0054,,,,,,
,,9840 FAIR OAKS BLVD ,,FAIR OAKS ,CA,95628-7068,United States,916-961-1000,,,,,,
,,9620 BRUCEVILLE RD STE 100 ,,ELK GROVE ,CA,95757-5511,United States,916-686-6785,,,,,,
,,5259 SUNRISE BLVD ,,FAIR OAKS ,CA,95628-3538,United States,916-631-7151,,,,,,
,,135 F ST STE 1A ,,DAVIS ,CA,95616-4627,United States,530-759-0795,,,,,,
,,9157 ELK GROVE BLVD ,,ELK GROVE ,CA,95624-2044,United States,916-405-0071,,,,,,
,,520 MAIN ST ,,WOODLAND ,CA,95695-3434,United States,530-668-9144,,,,,,
,,1198 ROSEVILLE PKWY STE 130 ,,ROSEVILLE ,CA,95678-1373,United States,916-774-9772,,,,,,
,,1151 Galleria Blvd Ste 2059 ,,Roseville ,CA,95678-1944,United States,916-771-8127,,,,,,
,,781 PLEASANT GROVE BLVD STE 190 ,,ROSEVILLE ,CA,95678-6170,United States,916-788-2600,,,,,,
,,3211 STANFORD RANCH RD STE 200 ,,ROCKLIN ,CA,95765-5576,United States,916-625-1980,,,,,,
,,350 PALLADIO PKWY STE 1975 ,,FOLSOM ,CA,95630-8816,United States,916-542-7363,,,,,,
,,380 PALLADIO PKWY STE 309 ,,FOLSOM ,CA,95630-8824,United States,916-294-7392,,,,,,
,,1000 WHITE ROCK RD ,,EL DORADO HILLS ,CA,95762-5560,United States,916-939-3868,,,,,,
,,16572 BOLSA CHICA ST ,,HUNTINGTON BEACH ,CA,92649-3511,United States,714-840-4000,,,,,,
,,6492 EDINGER AVE ,,HUNTINGTON BEACH ,CA,92647-3342,United States,714-625-4247,,,,,,
,,18040 MAGNOLIA ST ,,FOUNTAIN VALLEY ,CA,92708-5603,United States,714-369-8477,,,,,,
,,9812 BOLSA AVE STE C105 ,,WESTMINSTER ,CA,92683-6678,United States,714-775-6963,,,,,,
,,3333 BEAR ST STE 152 ,,COSTA MESA ,CA,92626-1779,United States,714-427-0407,,,,,,
,,3333 BRISTOL ST STE 1852 ,,COSTA MESA ,CA,92626-1866,United States,714-540-2423,,,,,,
,,3109 VILLA WAY ,,NEWPORT BEACH ,CA,92663-3823,United States,949-722-1500,,,,,,
,,2981 BRISTOL ST ,,COSTA MESA ,CA,92626-5915,United States,714-557-2097,,,,,,
,,227 E CHAPMAN AVE STE E ,,ORANGE ,CA,92866-1534,United States,714-289-8085,,,,,,
,,340 POINSETTIA AVE ,,CORONA DEL MAR ,CA,92625-3033,United States,949-698-8017,,,,,,
,,5405 ALTON PKWY STE D ,,IRVINE ,CA,92604-3719,United States,949-551-5909,,,,,,
,,601 WALNUT ST STE 200 ,,KANSAS CITY ,MO,64106-1406,United States,816-912-3258,,,,,,
,,601 WALNUT ST STE 200A ,,KANSAS CITY ,MO,64106-1406,United States,816-266-4324,,,,,,
,,2450 GRAND BLVD STE 203 ,,KANSAS CITY ,MO,64108-2516,United States,816-471-8138,,,,,,
,,1517 WESTPORT RD ,,KANSAS CITY ,MO,64111-4366,United States,816-753-4447,,,,,,
,,414 E 63RD ST ,,KANSAS CITY ,MO,64110-3328,United States,816-214-5290,,,,,,
,,6125 NW 63RD TERR ,,KANSAS CITY ,MO,64151-3325,United States,816-746-4772,,,,,,
,,8675 N STODDARD AVE ,,KANSAS CITY ,MO,64153-1940,United States,816-886-9111,,,,,,
,,10589 MISSION RD ,,LEAWOOD ,KS,66206-2522,United States,913-696-1616,,,,,,
,,11185 W 95TH ST ,,OVERLAND PARK ,KS,66214-1824,United States,913-469-9532,,,,,,
,,11601 W 95TH ST ,,OVERLAND PARK ,KS,66214-1829,United States,913-438-1441,,,,,,
,,18920 E VALLEY VIEW PKWY STE A ,,INDEPENDENCE ,MO,64055-7017,United States,816-350-7007,,,,,,
,,12 N MAIN ST ,,LIBERTY ,MO,64068-1638,United States,816-429-7265,,,,,,
,,5054 W 119TH ST ,,LEAWOOD ,KS,66209,United States,913-291-2243,,,,,,
,,11849 COLLEGE BLVD ,,OVERLAND PARK ,KS,66210-1314,United States,913-469-9532,,,,,,
,,930 NW BLUE PKWY STE J ,,LEES SUMMIT ,MO,64086-6012,United States,816-524-5797,,,,,,
,,300 SW NOEL ST ,,LEES SUMMIT ,MO,64063-3810,United States,816-304-1390,,,,,,
,,622 NE STATE ROUTE 291 ,,LEES SUMMIT ,MO,64086-2534,United States,816-876-1457,,,,,,
,,1701 W 40 HWY STE 104 ,,BLUE SPRINGS ,MO,64015-4647,United States,816-229-4742,,,,,,
,,5412 W 151ST ST ,,LEAWOOD ,KS,66224-8713,United States,913-685-0880,,,,,,
,,617 NW R D MIZE RD ,,BLUE SPRINGS ,MO,64014-2424,United States,816-224-3115,,,,,,
,,861 SW LEMANS LN ,,LEES SUMMIT ,MO,64082-4618,United States,816-623-3689,,,,,,
,,871 W EISENHOWER RD STE C ,,LANSING ,KS,66043-2207,United States,913-651-4247,,,,,,
,,2727 E MCKELLIPS RD STE 112 ,,MESA ,AZ,85213-3121,United States,480-218-7979,,,,,,
,,1660 S VAL VISTA DR STE 120 ,,MESA ,AZ,85204-7381,United States,480-633-5839,,,,,,
,,520 S MILL AVE STE 205 ,,TEMPE ,AZ,85281-3653,United States,480-968-0268,,,,,,
,,10 N SAN MARCOS PL STE C ,,CHANDLER ,AZ,85225-7871,United States,480-912-2404,,,,,,
,,6870 E 5TH AVE ,,SCOTTSDALE ,AZ,85251-3812,United States,480-945-2711,,,,,,
,,7014 E Camel Back Rd STE 1072 ,,SCOTTSDALE ,AZ,85251,United States,480-941-2333,,,,,,
,,1464 E WILLIAMS FIELD RD STE 101 ,,GILBERT ,AZ,85295-1813,United States,480-786-9778,,,,,,
,,3111 West Chandler Blvd STE 1044 ,,CHANDLER ,AZ,85226,United States,480-726-1585,,,,,,
,,3199 W CHANDLER BLVD ,,CHANDLER ,AZ,85226,United States,,,,,,,
,,2200 E WILLIAMS FIELD RD STE 105 ,,GILBERT ,AZ,85295-0762,United States,480-855-4600,,,,,,
,,2910 N POWER RD STE 101 ,,MESA ,AZ,85215-1698,United States,480-396-3112,,,,,,
,,,,SCOTTSDALE ,AZ,85250-5422,United States,480-998-0268,,,,,,
,,8475 S EMERALD DR STE 113 ,,TEMPE ,AZ,85284-1064,United States,303-567-7500,,,,,,
,,4085 S GILBERT RD STE 8 ,,CHANDLER ,AZ,85249-2505,United States,480-757-2547,,,,,,
,,2113 E CAMELBACK RD STE A19 ,,PHOENIX ,AZ,85016-4712,United States,602-955-9300,,,,,,
,,3 S 2ND ST STE 212 ,,PHOENIX ,AZ,85004-2253,United States,602-253-8885,,,,,,
,,2831 N CENTRAL AVE ,,PHOENIX ,AZ,85004-1031,United States,602-265-3880,,,,,,
,,,,PHOENIX ,AZ,85032,United States,602-765-4445,,,,,,
,,1339 W THOMAS RD ,,PHOENIX ,AZ,85013-4209,United States,602-264-2320,,,,,,
,,7077 E BELL RD STE 204 ,,SCOTTSDALE ,AZ,85254-1517,United States,480-478-6993,,,,,,
,,3312 W BELL RD ,,PHOENIX ,AZ,85053-2925,United States,602-942-1611,,,,,,
,,700 19TH ST STE 105 ,,VIRGINIA BEACH ,VA,23451-4100,United States,757-428-2639,,,,,,
,,2109 W GREAT NECK RD STE 103 ,,VIRGINIA BEACH ,VA,23451-1546,United States,757-222-4848,,,,,,
,,2137 UPTON DR STE 314 ,,VIRGINIA BEACH ,VA,23454-1191,United States,757-427-5114,,,,,,
,,232 CENTRAL PARK AVE ,,VIRGINIA BEACH ,VA,23462-3021,United States,757-456-9900,,,,,,
,,473 KEMPSVILLE RD ,,CHESAPEAKE ,VA,23320-3895,United States,757-436-5267,,,,,,
,,200 W 21ST ST STE B ,,NORFOLK ,VA,23517-2205,United States,757-963-6767,,,,,,
,,300 MONTICELLO AVE STE 171 ,,NORFOLK ,VA,23510-4423,United States,757-622-2412,,,,,,
,,200 MONTICELLO AVE ,,NORFOLK ,VA,23510-2301,United States,757-622-2506,,,,,,
,,929 PEACHTREE ST NE ,,ATLANTA ,GA,30309-3918,United States,404-250-3356-...,,,,,,
,,483 MORELAND STE 1 ,,ATLANTA ,GA,30307-1530,United States,404-522-3223,,,,,,
,,778 N HIGHLAND AVE NE ,,ATLANTA ,GA,30306-4506,United States,404-874-6604,,,,,,
,,378 CLIFTON RD NE ,,ATLANTA ,GA,30307-2102,United States,404-377-7077,,,,,,
,,1745 PEACHTREE ST NE ,,ATLANTA ,GA,30309-2410,United States,404-649-7119,,,,,,
,,1581 N DECATUR RD NE ,,ATLANTA ,GA,30307-1015,United States,404-873-6512,,,,,,
,,,,ATLANTA ,GA,30329,United States,404-600-2170,,,,,,
,,224 E PONCE DE LEON AVE ,,DECATUR ,GA,30030-3404,United States,404-377-7039,,,,,,
,,3393 PEACHTREE RD NE STE 3086C ,,ATLANTA ,GA,30326-1162,United States,404-495-9984,,,,,,
,,226 PHARR RD NE ,,ATLANTA ,GA,30305-2204,United States,404-237-1507,,,,,,
,,39 W PACES FERRY RD NW ,,ATLANTA ,GA,30305-1301,United States,404-237-4664,,,,,,
,,3209 PACES FERRY PL ,,ATLANTA ,GA,30305-5317,United States,404-233-6555,,,,,,
,,3872 ROSWELL RD ,,ATLANTA ,GA,30342-4437,United States,404-266-9696,,,,,,
,,4920 ROSWELL RD STE 9 ,,ATLANTA ,GA,30342-2636,United States,404-255-5131,,,,,,
,,4969 ROSWELL RD NE STE 225 ,,ATLANTA ,GA,30342-2681,United States,404-963-1953,,,,,,
,,3689 ATLANTA RD SE ,,SMYRNA ,GA,30080-5970,United States,770-434-6001,,,,,,
,,220 SANDY SPRINGS CIRCLE ,,SANDY SPRINGS ,GA,30328-3816,United States,404-255-0026,,,,,,
,,4220 1ST AVE ,,TUCKER ,GA,30084-4429,United States,770-938-3130,,,,,,
,,6309 ROSWELL RD STE 110 ,,SANDY SPRINGS ,GA,30328-3218,United States,770-993-0058,,,,,,
,,4400 ASHFORD DUNWOODY RD STE 2613 ,,ATLANTA ,GA,30346-1593,United States,770-522-9972,,,,,,
,,2856 DELK RD STE 307 ,,MARIETTA ,GA,30067-6376,United States,770-952-6952,,,,,,
,,5588 CHAMBLEE DUNWOODY RD ,,DUNWOODY ,GA,30338-4111,United States,718-813-7187,,,,,,
,,351 THORNTON RD STE 106 ,,LITHIA SPRINGS ,GA,30122-1589,United States,770-948-8000,,,,,,
,,4475 ROSWELL RD ,,MARIETTA ,GA,30062-8193,United States,404-566-4247,,,,,,
,,880 MARIETTA HWY STE 620 ,,ROSWELL ,GA,30075-6755,United States,678-381-2485,,,,,,
,,5161 PEACHTREE PKWY STE 606 ,,NORCROSS ,GA,30092-2561,United States,678-987-3600,,,,,,
,,1585 HOLCOMB BRIDGE RD STE 240 ,,ROSWELL ,GA,30076-2517,United States,770-993-0058,,,,,,
,,6461 CHURCH ST ,,DOUGLASVILLE ,GA,30134-1810,United States,770-942-2225,,,,,,
,,90 E CROSSVILLE RD ,,ROSWELL ,GA,30075-3044,United States,404-550-6408,,,,,,
,,3625 DALLAS HWY SW STE 550 ,,MARIETTA ,GA,30064-5915,United States,678-581-8783,,,,,,
,,400 Ernest W Barrett Pkwy STE 239 ,,KENNESAW ,GA,30144,United States,678-290-4854,,,,,,
,,2965 RING RD NW STE 300 ,,KENNESAW ,GA,30144-4928,United States,770-795-1001,,,,,,
,,1172 N POINT CIR ,,ALPHARETTA ,GA,30022-3084,United States,770-777-4148,,,,,,
,,3534 CANTON RD ,,MARIETTA ,GA,30066,United States,770-591-5264,,,,,,
,,1300 ERNEST W BARRETT PKWY STE 290 ,,KENNESAW ,GA,30152-5008,United States,770-795-1515,,,,,,
,,5945 STATE BRIDGE RD ,,DULUTH ,GA,30097-8244,United States,770-623-0888,,,,,,
,,3473 OLD NORCROSS RD STE 203 ,,DULUTH ,GA,30096-4656,United States,770-418-9882,,,,,,
,,10 ROSWELL ST STE 100 ,,ALPHARETTA ,GA,30009-7947,United States,770-475-8111,,,,,,
,,3155 AVALON BLVD ,,ALPHARETTA ,GA,30009-2261,United States,678-987-3678,,,,,,
,,10595 OLD ALABAMA CONNECTOR RD ,,ALPHARETTA ,GA,30022-8276,United States,678-795-1000,,,,,,
,,1905 SCENIC HWY STE 410 ,,SNELLVILLE ,GA,30078-5690,United States,770-978-7376,,,,,,
,,12910 HWY 92 STE 106 ,,WOODSTOCK ,GA,30188-4202,United States,770-924-4492,,,,,,
,,1291 OLD PEACHTREE RD NW STE 105 ,,SUWANEE ,GA,30024-2026,United States,770-545-8056,,,,,,
,,2110 SOUTHGATE RD STE 201 ,,COLORADO SPRINGS ,CO,80906-2685,United States,719-578-8332,,,,,,
,,6041 BARNES RD ,,COLORADO SPRINGS ,CO,80922-2603,United States,719-574-3205,,,,,,
,,5182 N NEVADA AVE STE 150 ,,COLORADO SPRINGS ,CO,80918-8671,United States,719-265-5660,,,,,,
,,7443 N ACADEMY BLVD ,,COLORADO SPRINGS ,CO,80920-3204,United States,719-314-1480,,,,,,
,,1790 BRIARGATE BLVD ,,COLORADO SPRINGS ,CO,80920-3443,United States,719-536-0314,,,,,,
,,11550 RIDGELINE DR UNIT 124 ,,COLORADO SPRINGS ,CO,80921-3953,United States,719-481-0734,,,,,,
,,216 W MIDLAND AVE ,,WOODLAND PARK ,CO,80863,United States,719-687-2599,,,,,,
,,1864 WOODMOOR DR STE 200 ,,MONUMENT ,CO,80132-9096,United States,719-487-1281,,,,,,
,,4950 DODGE ST ,,OMAHA ,NE,68132-2963,United States,402-344-4336,,,,,,
,,1924 S 67TH ST ,,OMAHA ,NE,68106,United States,402-551-7627,,,,,,
,,6068 MAPLE ST ,,OMAHA ,NE,68104-4072,United States,402-991-1887,,,,,,
,,1007 FARNAM ON THE MALL ,,OMAHA ,NE,68102-1883,United States,402-934-2909,,,,,,
,,10375 PACIFIC ST ,,OMAHA ,NE,68114-4713,United States,402-715-5757,,,,,,
,,532 1ST AVE STE 204 ,,COUNCIL BLFS ,IA,51503-0803,United States,712-256-7383,,,,,,
,,4323 N 156TH ST ,,OMAHA ,NE,68116-1429,United States,402-932-2969,,,,,,
,,17310 LAKESIDE HILLS PLAZA ,,OMAHA ,NE,68130-2352,United States,402-697-7378,,,,,,
,,4209 LASSITER MILL RD STE 114 ,,RALEIGH ,NC,27609-5882,United States,919-782-0808,,,,,,
,,4325 GLENWOOD AVE STE 1054 ,,RALEIGH ,NC,27612-3374,United States,919-792-2424,,,,,,
,,2230 WALNUT ST ,,CARY ,NC,27518-9208,United States,919-859-0888,,,,,,
,,1398 KILDAIRE FARMS RD ,,CARY ,NC,27511-5567,United States,919-380-2029,,,,,,
,,9650 STRICKLAND RD STE 153 ,,RALEIGH ,NC,27615-2252,United States,919-844-9422,,,,,,
,,1009 MARKET CENTER DR ,,MORRISVILLE ,NC,27560-7503,United States,919-481-0603,,,,,,
,,3671 SW CARY PKWY ,,CARY ,NC,27513-8913,United States,919-678-3134,,,,,,
,,13251 NEW FALLS OF NEUSE STE 101 ,,RALEIGH ,NC,27614-8573,United States,919-263-9501,,,,,,
,,2008 CREEKSIDE LANDING DR ,,APEX ,NC,27502-3982,United States,919-387-1815,,,,,,
,,6910 Fayetteville Road STE 132 ,,DURHAM ,NC,27713,United States,919-544-0209,,,,,,
,,6910 FAYETTEVILLE RD STE 700 ,,DURHAM ,NC,27713-8277,United States,919-361-8868-...,,,,,,
,,3065 FULLER ST ,,COCONUT GROVE ,FL,33133-5819,United States,305-448-5750,,,,,,
,,2417 GALIANO ST ,,CORAL GABLES ,FL,33134-6110,United States,305-444-1412,,,,,,
,,281 MIRACLE MILE ,,CORAL GABLES ,FL,33134-5907,United States,305-443-0101,,,,,,
,,4310 PONCE DE LEON BLVD ,,CORAL GABLES ,FL,33146,United States,,,,,,,
,,3025 COLLINS AVE ,,MIAMI BEACH ,FL,33140-4106,United States,305-908-5460,,,,,,
,,9999 SUNSET DR ,,MIAMI ,FL,33173-4663,United States,305-279-0958,,,,,,
,,16701 COLLINS AVE ,,SUNNY ISLES BEACH ,FL,33160-4201,United States,305-949-1300,,,,,,
,,19575 Biscayne Blvd Space 495 ,,Miami ,FL,33180-1312,United States,305-937-0704,,,,,,
,,1930 HARRISON ST STE C ,,HOLLYWOOD ,FL,33020-7827,United States,954-639-7798,,,,,,
,,5111 SHERIDAN ST ,,HOLLYWOOD ,FL,33021,United States,954-966-2650,,,,,,
,,14830 PINES BLVD ,,PEMBROKE PINES ,FL,33027-1222,United States,954-391-5587,,,,,,
,,4186 S UNIVERSITY DR ,,DAVIE ,FL,33328-3006,United States,954-990-0484,,,,,,
,,525 N FEDERAL HWY STE 300 ,,FORT LAUDERDALE ,FL,33301-2558,United States,954-524-2270,,,,,,
,,234 S UNIVERSITY DR ,,PLANTATION ,FL,33324,United States,954-473-1122,,,,,,
,,651 NICOLLET MALL SKYWAY ,,LEVEL MINNEAPOLIS ,MN,55402,United States,612-332-3512,,,,,,
,,222 S 9TH ST STE 200 ,,MINNEAPOLIS ,MN,55402-3353,United States,612-208-0273,,,,,,
,,800 LASALLE PLAZA STE 220 ,,MINNEAPOLIS ,MN,55402-2010,United States,612-333-1376,,,,,,
,,333 WASHINGTON AVE N STE 100 ,,MINNEAPOLIS ,MN,55401-1352,United States,612-208-1330,,,,,,
,,1201 HARMON PLACE STE 105 ,,MINNEAPOLIS ,MN,55403-2053,United States,612-333-0300,,,,,,
,,400 Central Ave SE ,,MINNEAPOLIS ,MN,55414,United States,612-331-1400,,,,,,
,,1851 WASHINGTON AVE S ,,MINNEAPOLIS ,MN,55454-1062,United States,612-333-6789,,,,,,
,,2945 HENNEPIN AVE S ,,MINNEAPOLIS ,MN,55408-1955,United States,612-823-0977,,,,,,
,,3255 LYNDALE AVE S ,,MINNEAPOLIS ,MN,55408-3647,United States,612-823-2900,,,,,,
,,3105 HENNEPIN AVE ,,MINNEAPOLIS ,MN,55408-2620,United States,612-822-2414,,,,,,
,,4753 CHICAGO AVE ,,MINNEAPOLIS ,MN,55407-3514,United States,612-767-3500,,,,,,
,,1641 COUNTY RD C ,,ROSEVILLE ,MN,55113-1302,United States,651-639-0576,,,,,,
,,1457 GRAND AVE ,,SAINT PAUL ,MN,55105-2206,United States,651-699-2624,,,,,,
,,857 GRAND AVE ,,SAINT PAUL ,MN,55105-3398,United States,651-222-4121,,,,,,
,,4300 GLUMACK DR across from checkpoints 2 and 3 ,,SAINT PAUL ,MN,55111-3002,United States,612-355-4758,,,,,,
,,4400 VALLEY VIEW RD ,,EDINA ,MN,55424-1803,United States,952-926-5285,,,,,,
,,3092 LEXINGTON AVE N ,,ROSEVILLE ,MN,55113-1916,United States,651-483-4966,,,,,,
,,6800 PENN AVE S ,,RICHFIELD ,MN,55423-2009,United States,952-884-8777,,,,,,
,,2670 SOUTHDALE CTR ,,EDINA ,MN,55435-7011,United States,952-925-4343,,,,,,
,,1855 Southdale Center SPC 455 ,,EDINA ,MN,55435,United States,952-920-3411,,,,,,
,,165 WESTERN AVE N STE 9 ,,SAINT PAUL ,MN,55102-4613,United States,651-228-9327,,,,,,
,,2170 SILVER LAKE RD ,,NEW BRIGHTON ,MN,55112-5302,United States,651-633-4756,,,,,,
,,7819 SOUTHTOWN CTR ,,MINNEAPOLIS ,MN,55431-1324,United States,952-884-5226,,,,,,
,,12401 WAYZATA BLVD ,,MINNETONKA ,MN,55305,United States,,,,,,,
,,288 W MARKET ,,BLOOMINGTON ,MN,55425-5522,United States,952-854-0595,,,,,,
,,12635 WAYZATA BLVD ,,MINNETONKA ,MN,55305-1974,United States,763-559-3185,,,,,,
,,134 W MARKET ,,BLOOMINGTON ,MN,55425-5521,United States,952-851-9999,,,,,,
,,,,SAINT PAUL ,MN,55144-1001,United States,651-733-0982,,,,,,
,,6001 SHADY OAK RD S STE 160 ,,MINNETONKA ,MN,55343-9138,United States,952-935-0505,,,,,,
,,5218 W 84TH ST ,,BLOOMINGTON ,MN,55437-1308,United States,952-842-0200,,,,,,
,,3530 VICKSBURG LN STE 400 ,,PLYMOUTH ,MN,55447-1335,United States,763-559-3185,,,,,,
,,11620 FOUNTAINS DR ,,MAPLE GROVE ,MN,55369-7195,United States,763-559-3185,,,,,,
,,1125 E WAYZATA BLVD ,,WAYZATA ,MN,55391-1935,United States,952-404-9955,,,,,,
,,995 PRAIRIE CENTER DR ,,EDEN PRAIRIE ,MN,55344-3671,United States,952-949-1313,,,,,,
,,574 PRAIRIE CENTER DR STE 155 ,,EDEN PRAIRIE ,MN,55344-7941,United States,952-942-8444,,,,,,
,,11202 86TH AVE N ,,MAPLE GROVE ,MN,55369-4510,United States,763-494-5074,,,,,,
,,10950 CLUB WEST PKWY STE 150 ,,BLAINE ,MN,55449-3672,United States,763-767-2548,,,,,,
,,16506 W 78TH ST STE B ,,EDEN PRAIRIE ,MN,55346-4318,United States,952-253-4500,,,,,,
,,4000 PHEASANT RIDGE DR NE ,,BLAINE ,MN,55449-7101,United States,763-783-4250,,,,,,
,,4436 HIGHWAY 61 N ,,WHITE BEAR LAKE ,MN,55110-3720,United States,651-490-9391,,,,,,
,,2160 NORTHDALE BLVD ,,COON RAPIDS ,MN,55433-3005,United States,763-427-0511,,,,,,
,,2225 4TH ST ,,WHITE BEAR LAKE ,MN,55110-3012,United States,651-762-8840,,,,,,
,,12162 BUSINESS PARK BLVD N ,,CHAMPLIN ,MN,55316-4525,United States,763-421-2999,,,,,,
,,1705 WEIR DR ,,WOODBURY ,MN,55125-2288,United States,651-578-7779,,,,,,
,,92 MAHTOMEDI AVE ,,MAHTOMEDI ,MN,55115-1675,United States,651-429-9777,,,,,,
,,5615 MANITOU RD ,,TONKA BAY ,MN,55331-8567,United States,952-474-4412,,,,,,
,,8505 VALLEY CREEK RD ,,WOODBURY ,MN,55125-2342,United States,651-734-9000,,,,,,
,,9040 HUDSON RD STE 212 ,,WOODBURY ,MN,55125-7737,United States,651-251-9500,,,,,,
,,14755 VICTOR HUGO BLVD N STE 101 ,,HUGO ,MN,55038-4624,United States,651-426-0388,,,,,,
,,7420 80TH ST S STE 103 ,,COTTAGE GROVE ,MN,55016-3042,United States,651-459-5858,,,,,,
,,4908 HIGHWAY 12 ,,MAPLE PLAIN ,MN,55359-8729,United States,763-479-0331,,,,,,
,,3515 LAKE ELMO AVE N ,,LAKE ELMO ,MN,55042-8469,United States,651-770-3515,,,,,,
,,17640 KENWOOD TRAIL ,,LAKEVILLE ,MN,55044-9764,United States,952-898-3111,,,,,,
,,13005 MAIN ST ,,ROGERS ,MN,55374-9401,United States,763-428-4159,,,,,,
,,7962 SUNWOOD DR NW STE 100 ,,RAMSEY ,MN,55303,United States,763-367-6425,,,,,,
,,225 CHESTNUT ST E ,,STILLWATER ,MN,55082-5117,United States,651-439-5673,,,,,,
,,280 12TH ST SW STE 1 ,,FOREST LAKE ,MN,55025-3780,United States,651-464-6612,,,,,,
,,208 LOCUST ST ,,HUDSON ,WI,54016-1668,United States,715-386-8440,,,,,,
,,100 E 2ND ST ,,TULSA ,OK,74103-3207,United States,918-587-2567,,,,,,
,,1876 UTICA SQ STE 1A ,,TULSA ,OK,74114-1442,United States,918-587-2566,,,,,,
,,7021 South Memorial SPC 230A ,,TULSA ,OK,74133,United States,918-249-8060,,,,,,
,,8343 S MEMORIAL DR ,,TULSA ,OK,74133-4304,United States,918-587-2566,,,,,,
,,100 S DAVIS ,,CLAREMORE ,OK,74017,United States,918-341-8500,,,,,,
,,1211 SAINT CLAIR AVE NE STE 125 ,,CLEVELAND ,OH,44114-1877,United States,216-465-4435,,,,,,
,,10904 CLIFTON BLVD ,,CLEVELAND ,OH,44102-1553,United States,216-961-3000,,,,,,
,,6901 ROCKSIDE RD ,,INDEPENDENCE ,OH,44131-2379,United States,216-328-9900,,,,,,
,,20140 DETROIT RD ,,ROCKY RIVER ,OH,44116-2421,United States,440-333-9696,,,,,,
,,25377 CEDAR RD ,,LYNDHURST ,OH,44124-3785,United States,440-255-5572,,,,,,
,,26300 Cedar Road SPC 1036 ,,BEACHWOOD ,OH,44122,United States,216-292-2777,,,,,,
,,24350 CENTER RIDGE RD ,,WESTLAKE ,OH,44145-4212,United States,440-899-1225,,,,,,
,,26155 DETROIT RD ,,WESTLAKE ,OH,44145-2430,United States,440-808-1391,,,,,,
,,5720 WALLINGS RD ,,NORTH ROYALTON ,OH,44133-3015,United States,440-457-7788,,,,,,
,,660 DOVER CENTER RD STE 28 ,,BAY VILLAGE ,OH,44140-2370,United States,440-892-0251,,,,,,
,,25343 LORAIN RD ,,NORTH OLMSTED ,OH,44070-2061,United States,440-777-4215,,,,,,
,,6255 WILSON MILLS RD ,,HIGHLAND HEIGHTS ,OH,44143-2106,United States,440-449-0999,,,,,,
,,8239 CHIPPEWA RD ,,BRECKSVILLE ,OH,44141-2000,United States,440-526-3090,,,,,,
,,6727 EASTGATE DR ,,MAYFIELD HEIGHTS ,OH,44124-2021,United States,216-839-4850,,,,,,
,,189 MAIN ST ,,WESTLAKE ,OH,44145-6980,United States,440-385-4144,,,,,,
,,30436 EUCLID AVE ,,WICKLIFFE ,OH,44092-1578,United States,440-943-2662,,,,,,
,,17901 SOUTHPARK CTR SPC 160 ,,STRONGSVILLE ,OH,44136-9314,United States,440-255-9494,,,,,,
,,30590 CENTER RIDGE RD ,,WESTLAKE ,OH,44145-5135,United States,440-871-7440,,,,,,
,,1032 SOUTHPARK CTR ,,STRONGSVILLE ,OH,44136,United States,440-846-0460,,,,,,
,,33200 BAINBRIDGE RD ,,SOLON ,OH,44139-2850,United States,440-349-4435,,,,,,
,,15165 PEARL RD ,,STRONGSVILLE ,OH,44136-5034,United States,216-839-4850,,,,,,
,,33705 STATION ST ,,SOLON ,OH,44139-2940,United States,216-839-4850,,,,,,
,,34302 EUCLID AVE ,,WILLOUGHBY ,OH,44094-3334,United States,440-525-5066,,,,,,
,,9832 VALLEY VIEW RD ,,MACEDONIA ,OH,44056-2046,United States,330-748-4271,,,,,,
,,89 N MAIN ST ,,CHAGRIN FALLS ,OH,44022-3002,United States,216-839-4850,,,,,,
,,35400 VINE ST UNIT 8 ,,EASTLAKE ,OH,44095-3169,United States,440-510-8230,,,,,,
,,35840 CHESTER RD ,,AVON ,OH,44011-1240,United States,440-934-2915,,,,,,
,,516 E WASHINGTON ST ,,CHAGRIN FALLS ,OH,44022-4402,United States,440-247-2424,,,,,,
,,38010 EUCLID AVE UNIT A ,,WILLOUGHBY ,OH,44094-6102,United States,440-975-8795,,,,,,
,,8027 MAYFIELD RD ,,CHESTERLAND ,OH,44026-2438,United States,440-729-9008,,,,,,
,,36000 WESTMINSTER AVE ,,NORTH RIDGEVILLE ,OH,44039-4539,United States,440-327-0888,,,,,,
,,16 PUBLIC SQ ,,WILLOUGHBY ,OH,44094-7843,United States,440-953-9755,,,,,,
,,8584 E WASHINGTON ST ,,BAINBRIDGE ,OH,44023-5369,United States,440-543-1066,,,,,,
,,7750 PLAZA BLVD ,,MENTOR ,OH,44060-5551,United States,440-350-4247,,,,,,
,,51 S MAIN ST ,,HUDSON ,OH,44236-3000,United States,216-839-4850,,,,,,
,,8780 MENTOR AVE ,,MENTOR ,OH,44060-6210,United States,440-255-5572,,,,,,
,,5951 DARROW RD ,,HUDSON ,OH,44236-3803,United States,330-650-6688,,,,,,
,,8816 MENTOR AVE ,,MENTOR ,OH,44060-6212,United States,440-255-9494,,,,,,
,,1875 N RIDGE RD E ,,LORAIN ,OH,44055-3371,United States,440-277-8777,,,,,,
,,869 N CLEVELAND MASSILLON RD ,,AKRON ,OH,44333-2167,United States,330-666-4661,,,,,,
,,5445 BEAVER CREST DR ,,LORAIN ,OH,44053-1700,United States,440-282-2355,,,,,,
,,9570 MENTOR AVE STE D ,,MENTOR ,OH,44060-4570,United States,440-357-4569,,,,,,
,,6071 MIDDLE RIDGE RD ,,LORAIN ,OH,44053-3948,United States,440-233-8508,,,,,,
,,504 E DOUGLAS AVE ,,WICHITA ,KS,67202-3502,United States,316-267-8000,,,,,,
,,313 N MEAD ST ,,WICHITA ,KS,67202-2721,United States,316-440-4500,,,,,,
,,6534 E CENTRAL AVE ,,WICHITA ,KS,67206-1925,United States,316-202-2112,,,,,,
,,2132 N ROCK RD STE 103A ,,WICHITA ,KS,67206-1274,United States,316-634-3737,,,,,,
,,1720 N WEBB RD ,,WICHITA ,KS,67206-3417,United States,316-636-2900,,,,,,
,,7721 W 21ST ST N ,,WICHITA ,KS,67205-1737,United States,316-721-0091,,,,,,
,,2350 N GREENWICH RD STE 900 ,,WICHITA ,KS,67226-8269,United States,316-634-1005,,,,,,
,,1034 N ANDOVER RD ,,ANDOVER ,KS,67002,United States,316-260-3005,,,,,,
,,,,DERBY ,KS,67037-2359,United States,316-201-6121,,,,,,
,,4151 WALLER CRK STE 110 ,,HIGHLAND VILLAGE ,TX,75077-3255,United States,972-317-6800,,,,,,
