store_name,store_number,address,address2,city,state,zip_code,country,phone_number,latitude,longitude,store_hours,store_type,other_fields,coming_soon
,5156,8620 Camfield Street,,CHARLOTTE,NC,28277,United States,(704) 542-3336,,,7:00 a.m. - 10:00 p.m.,,,
,5640,9101 Pineville-Matthews Road,,PINEVILLE,NC,28134,United States,(704) 542-5150,,,6:00 a.m. - 11:00 p.m.,,,
,5093,6507 Wilkinson Blvd.,,BELMONT,NC,28012,United States,(704) 825-7054,,,7:00 a.m. - 11:00 p.m.,,,
,5413,2924 Mt. Holly - Huntersville Road,,CHARLOTTE,NC,28214,United States,(704) 391-0354,,,6:00 a.m. - 11:00 p.m.,,,
,5582,421 Hwy 27 South,,STANLEY,NC,28164,United States,(704) 263-6230,,,6:00 a.m. - 11:00 p.m.,,,
,5633,2601 South New Hope Road,,GASTONIA,NC,28056,United States,(704) 854-4702,,,6:00 a.m. - 11:00 p.m.,,,
,5206,2204 Union Rd.,,GASTONIA,NC,28054,United States,(704) 864-4600,,,7:00 a.m. - 11:00 p.m.,,,
,5026,595 Hwy 601 Bypass South,,CONCORD,NC,28025,United States,(704) 793-1331,,,7:00 a.m. - 11:00 p.m.,,,
,5763,2142 East Victory Drive,,SAVANNAH,GA,31404,United States,(912) 232-1422,,,7:00 a.m. - 10:00 p.m.,,,
,5746,1042 US Highway 80 West,,POOLER,GA,31322,United States,(912) 748-8208,,,7:00 a.m. - 10:00 p.m.,,,
,5282,4464 Devine St.,,COLUMBIA,SC,29205,United States,(803) 738-1108,,,7:00 a.m. - 11:00 p.m.,,,
,5723,300 Knox Abbott Drive,,CAYCE,SC,29033,United States,(803) 926-0312,,,7:00 a.m. - 11:00 p.m.,,,
,5065,7830 Garners Ferry,,COLUMBIA,SC,29209,United States,(803) 647-7114,,,7:00 a.m. - 11:00 p.m.,,,
,5218,9003 Two Notch Road,,COLUMBIA,SC,29223,United States,(803) 736-0200,,,7:00 a.m. - 11:00 p.m.,,,
,5638,120 Forum Drive,,COLUMBIA,SC,29229,United States,(803) 699-8332,,,6:00 a.m. - 12:00 a.m.,,,
,5442,6021 St. Andrews Road,,COLUMBIA,SC,29212,United States,(803) 798-2703,,,6:00 a.m. - 12:00 a.m.,,,
,5578,2453 Charleston Hwy.,,CAYCE,SC,29033,United States,(803) 796-6759,,,5:00 a.m. - 11:00 p.m.,,,
,5615,2349 Augusta Rd.,,WEST COLUMBIA,SC,29169,United States,(803) 794-0062,,,6:00 a.m. - 12:00 a.m.,,,
,5580,2916 Emanuel Church Road,,WEST COLUMBIA,SC,29170,United States,(803) 356-6040,,,7:00 a.m. - 11:00 p.m.,,,
,5135,421 Columbia Ave.,,LEXINGTON,SC,29072,United States,(803) 359-7775,,,7:00 a.m. - 11:00 p.m.,,,
,5757,760 Highway 378,,LEXINGTON,SC,29072,United States,(803) 996-3140,,,7:00 a.m. - 10:00 p.m.,,,
,5751,630 Skylark Drive,,CHARLESTON,SC,29407,United States,(843) 852-4817,,,6:00 a.m. - 11:00 p.m.,,,
,5448,860 Folly Road,,CHARLESTON,SC,29412,United States,(843) 406-7515,,,6:00 a.m. - 11:00 p.m.,,,
,5726,1000 Tanner Ford Blvd.,,HANAHAN,SC,29410,United States,(843) 553-4077,,,6:00 a.m. - 11:00 p.m.,,,
,5409,1200 Sam Rittenburg Blvd.,,CHARLESTON,SC,29407,United States,(843) 573-4776,,,7:00 a.m. - 11:00 p.m.,,,
,5266,4391 Dorchester Rd.,,NORTH CHARLESTON,SC,29405,United States,(843) 529-0615,,,7:00 a.m. - 10:00 p.m.,,,
,5246,142 E. St. James Avenue,,GOOSE CREEK,SC,29445,United States,(843) 572-2442,,,7:00 a.m. - 11:00 p.m.,,,
,5153,3125 Bees Ferry Road,,CHARLESTON,SC,29414,United States,(843) 766-3360,,,6:00 a.m. - 12:00 a.m.,,,
,5410,774 S. Shelmore Blvd.,,MOUNT PLEASANT,SC,29464,United States,(843) 388-1550,,,7:00 a.m. - 11:00 p.m.,,,
,5749,9616 Highway 78,,LADSON,SC,29456,United States,(843) 572-2119,,,7:00 a.m. - 10:00 p.m.,,,
,5623,1625 N. Main St.,,SUMMERVILLE,SC,29483,United States,(843) 875-2880,,,7:00 a.m. - 11:00 p.m.,,,
,5743,3575 Maybank Highway,,JOHNS ISLAND,SC,29455,United States,(843) 559-5542,,,7:00 a.m. - 11:00 p.m.,,,
,5228,975 Bacons Bridge Rd.,,SUMMERVILLE,SC,29485,United States,(843) 871-0043,,,6:00 a.m. - 11:00 p.m.,,,
,5286,1909 US Hwy. 17 North Bypass,,MOUNT PLEASANT,SC,29464,United States,(843) 881-4042,,,6:00 a.m. - 11:00 p.m.,,,
,5296,1452 Boone Hill Rd.,,SUMMERVILLE,SC,29483,United States,(843) 875-2356,,,7:00 a.m. - 10:00 p.m.,,,
,5421,511 Smokey Park Hwy,,CANDLER,NC,28715,United States,(828) 670-1961,,,7:00 a.m. - 11:00 p.m.,,,
,5547,205 NC Hwy 9,,BLACK MOUNTAIN,NC,28711,United States,(828) 669-2306,,,7:00 a.m. - 11:00 p.m.,,,
,5605,1955 Davis Park Rd.,,GASTONIA,NC,28052,United States,(704) 865-8391,,,7:00 a.m. - 11:00 p.m.,,,
,5764,136 South Main Street,,CLOVER,SC,29710,United States,(803) 222-3500,,,7:00 a.m. - 10:00 p.m.,,,
,5716,1401 E. Main St.,,ROCK HILL,SC,29730,United States,(803) 366-6755,,,6:00 a.m. - 12:00 a.m.,,,
,5287,717D East Liberty Street,,YORK,SC,29745,United States,(803) 628-1525,,,6:00 a.m. - 12:00 a.m.,,,
,5719,1095 Filbert Hwy.,,YORK,SC,29745,United States,(803) 628-7806,,,6:00 a.m. - 11:00 p.m.,,,
,5704,"101 Verdae Blvd, Suite 1200",,GREENVILLE,SC,29607,United States,(864) 627-4490,,,6:00 a.m. - 12:00 a.m.,,,
,5653,148 Walnut Lane,,TRAVELERS REST,SC,29690,United States,(864) 834-0575,,,7:00 a.m. - 10:00 p.m.,,,
,5092,3715 E. North St.,,GREENVILLE,SC,29615,United States,(864) 268-7734,,,7:00 a.m. - 11:00 p.m.,,,
,5150,3619 Pelham Rd.,,GREENVILLE,SC,29615,United States,(864) 288-4162,,,6:00 a.m. - 11:00 p.m.,,,
,5016,6 K-Mart Plaza,,GREENVILLE,SC,29605,United States,(864) 370-2710,,,7:00 a.m. - 11:00 p.m.,,,
,5563,1315 S. Pleasantburg,,GREENVILLE,SC,29605,United States,(864) 277-1479,,,7:00 a.m. - 11:00 p.m.,,,
,5613,15 Farrs Bridge Road,,GREENVILLE,SC,29617,United States,(864) 246-1528,,,7:00 a.m. - 11:00 p.m.,,,
,5608,2111 North Pleasantburg Drive,,GREENVILLE,SC,29611,United States,(864) 242-3851,,,7:00 a.m. - 11:00 p.m.,,,
,5195,2435 East North Street,,GREENVILLE,SC,29615,United States,(864) 292-2209,,,6:00 a.m. - 11:00 p.m.,,,
,5188,207 W. Butler Rd,,MAULDIN,SC,29662,United States,(864) 297-3844,,,7:00 a.m. - 11:00 p.m.,,,
,5274,2460 Hudson Rd.,,GREER,SC,29651,United States,(864) 268-9811,,,7:00 a.m. - 11:00 p.m.,,,
,5273,1818 Woodruff Rd.,,GREENVILLE,SC,29607,United States,(864) 297-0646,,,7:00 a.m. - 11:00 p.m.,,,
,5568,3518 South Carolina Hwy 153,,GREENVILLE,SC,29611,United States,(864) 220-1380,,,7:00 a.m. - 10:00 p.m.,,,
,5057,2607 Woodruff Road,,SIMPSONVILLE,SC,29681,United States,(864) 288-0136,,,6:00 a.m. - 11:00 p.m.,,,
,5661,120 Hwy 14,,SIMPSONVILLE,SC,29681,United States,(864) 967-4986,,,6:00 a.m. - 11:00 p.m.,,,
,5161,1365 W. Wade Hampton Blvd.,,GREER,SC,29650,United States,(864) 968-8830,,,7:00 a.m. - 11:00 p.m.,,,
,5624,699 Fairview Rd,,SIMPSONVILLE,SC,29680,United States,(864) 967-2660,,,6:00 a.m. - 11:00 p.m.,,,
,5283,1021 S. Pendleton St.,,EASLEY,SC,29642,United States,(864) 855-4672,,,7:00 a.m. - 11:00 p.m.,,,
,5256,330 Lebby Street,,PELZER,SC,29669,United States,(864) 947-9214,,,7:00 a.m. - 11:00 p.m.,,,
,5297,14154 E Wade Hampton Blvd,,GREER,SC,29651,United States,(864) 968-9117,,,7:00 a.m. - 10:00 p.m.,,,
,5612,1103 North Main St.,,FOUNTAIN INN,SC,29644,United States,(864) 862-5585,,,7:00 a.m. - 10:00 p.m.,,,
,5417,2055 Wedgefield Road,,SUMTER,SC,29154,United States,(803) 938-9926,,,6:00 a.m. - 12:00 a.m.,,,
,5275,70 Pope Avenue,,HILTON HEAD,SC,29928,United States,(843) 842-8691,,,7:00 a.m. - 10:00 p.m.,,,
,5164,95 Mathews Drive,,HILTON HEAD,SC,29928,United States,(843) 681-5327,,,7:00 a.m. - 10:00 p.m.,,,
,5519,140 Fernwood Drive,,SPARTANBURG,SC,29307,United States,(864) 573-5358,,,7:00 a.m. - 10:00 p.m.,,,
,5265,100 North Town Drive,,SPARTANBURG,SC,29303,United States,(864) 583-1351,,,7:00 a.m. - 10:00 p.m.,,,
,5182,2401 Reidville Rd.,,SPARTANBURG,SC,29301,United States,(864) 576-0401,,,6:00 a.m. - 12:00 a.m.,,,
,5408,2199 Southport Road,,SPARTANBURG,SC,29306,United States,(864) 342-9558,,,7:00 a.m. - 11:00 p.m.,,,
,5089,11153 Asheville Hwy.,,INMAN,SC,29349,United States,(864) 472-3311,,,7:00 a.m. - 11:00 p.m.,,,
,5446,12189 Greenville Hwy,,LYMAN,SC,29365,United States,(864) 949-3420,,,7:00 a.m. - 11:00 p.m.,,,
,5178,712 S. Alabama Ave.,,CHESNEE,SC,29323,United States,(864) 461-3141,,,7:00 a.m. - 11:00 p.m.,,,
,5550,500 Pamplico Hwy.,,FLORENCE,SC,29501,United States,(843) 292-1505,,,7:00 a.m. - 11:00 p.m.,,,
,5587,508 Lamar Hwy.,,DARLINGTON,SC,29532,United States,(843) 395-6206,,,7:00 a.m. - 11:00 p.m.,,,
