store_name,store_number,address,address2,city,state,zip_code,country,phone_number,latitude,longitude,store_hours,store_type,other_fields,coming_soon
16th Ave.  Markham Rd,,208-5990 16th Ave,,MARKHAM,ON,,Canada,905-471-5593,43.891951,-79.2641482,"monday:9:00am - 9:00pm,tuesday:9:00am - 9:00pm,wednesday:9:00am - 9:00pm,thursday:9:00am - 9:00pm,friday:9:00am - 9:00pm,saturday:9:00am - 6:00pm,sunday:10:00am - 5:00pm",,,
1st Street  3 Ave,,320 1st West,,COCHRANE,AB,,Canada,403-932-3132,51.1909883,-114.4678603,"monday:9:00am - 7:00pm,tuesday:9:00am - 7:00pm,wednesday:9:00am - 7:30pm,thursday:9:00am - 7:30pm,friday:9:00am - 8:00pm,saturday:9:30am - 5:30pm,sunday:10:00am - 5:00pm",,,
23rd Ave  111 Street,,2027A 111 ST NW,,EDMONTON (Heritage Village),AB,,Canada,780-705-8868,53.4523937,-113.5161685,"monday:9:00am - 9:00pm,tuesday:9:00am - 9:00pm,wednesday:9:00am - 9:00pm,thursday:9:00am - 9:00pm,friday:9:00am - 9:00pm,saturday:9:00am - 6:00pm,sunday:11:00pm - 5:00pm",,,
460 Boulevard Greber,,460 Boul. Greber,,GATINEAU,QC,,Canada,819-205-2900,45.48769,-75.703043,"monday:9:30am - 6:30pm,tuesday:9:30am - 6:30pm,wednesday:9:30am - 6:30pm,thursday:9:30am - 9:00pm,friday:9:30am - 9:00pm,saturday:9:00am - 5:00pm,sunday:9:00am - 5:00am",,,
48th Ave  56 Street,,5706 48th Avenue,,CAMROSE,AB,,Canada,780-608-2024,53.0180317,-112.8383973,"monday:9:30am - 7:00pm,tuesday:9:30am - 7:00pm,wednesday:9:30am - 7:00pm,thursday:9:30am - 8:00pm,friday:9:30am - 7:00pm,saturday:9:30am - 6:00pm,sunday:11:00am - 5:00pm",,,
50 Avenue,,5103 50 Avenue,Unit 117,LEDUC,AB,,Canada,780-980-8711,53.2646369,-113.5552903,"monday:9:30am - 8:00pm,tuesday:9:30am - 8:00pm,wednesday:9:30am - 8:00pm,thursday:9:30am - 8:00pm,friday:9:30am - 8:00pm,saturday:9:30am - 6:00pm,sunday:11:00am - 5:00pm",,,
55th Ave  50th St.,,4930 55th Avenue,,DRAYTON VALLEY,AB,,Canada,780-514-3752,53.2252503,-114.9636749,"monday:9:00am - 7:00pm,tuesday:9:00am - 7:00pm,wednesday:9:00am - 7:00pm,thursday:9:00am - 7:00pm,friday:9:00am - 7:00pm,saturday:10:00am - 6:00pm,sunday:12:00pm - 4:00pm",,,
900 Talbot St.,,900 Talbot Street,,ST. THOMAS,ON,,Canada,519 207 3663,42.7788542,-81.1826917,"monday:9:00am - 9:00pm,tuesday:9:00am - 9:00pm,wednesday:9:00am - 9:00pm,thursday:9:00am - 9:00pm,friday:9:00am - 9:00pm,saturday:9:00am - 6:00pm,sunday:11:00am - 5:00am",,,
Algonquin  Hwy 17/11,,34 Champlain Street,,NORTH BAY,ON,,Canada,705-472-3331,46.333189,-79.471255,"monday:9:00am - 7:00pm,tuesday:9:00am - 7:00pm,wednesday:9:00am - 7:00pm,thursday:9:00am - 9:00pm,friday:9:00am - 9:00pm,saturday:9:00am - 6:00pm,sunday:11:00am - 5:00am",,,
Appleby Line  New Street,,450 Appleby Line,,BURLINGTON,ON,,Canada,905-639-5969,43.36757,-79.75488,"monday:9:00am - 9:00pm,tuesday:9:00am - 9:00pm,wednesday:9:00am - 9:00pm,thursday:9:00am - 9:00pm,friday:9:00am - 9:00pm,saturday:9:00am - 6:00pm,sunday:10:00am - 6:00pm",,,
Auto Mile,,4523-56 Street,,WETASKIWIN,AB,,Canada,780-361-2024,52.9661836,-113.3897019,"monday:10:00am - 6:00pm,tuesday:10:00am - 6:00pm,wednesday:10:00am - 6:00pm,thursday:10:00am - 6:00pm,friday:10:00am - 6:00pm,saturday:10:00am - 6:00pm,sunday:11:00am - 5:00pm",,,
Avenue Rd  Felbrigg Ave,,1947 Avenue Road,(Felbrigg Avenue),TORONTO,ON,,Canada,416-783-8836,43.7340881,-79.4197033,"monday:10:00am - 7:30pm,tuesday:10:00am - 7:30pm,wednesday:9:30am - 7:30pm,thursday:9:30am - 7:30pm,friday:9:30am - 7:30pm,saturday:9:30am - 6:00pm,sunday:11:00am - 5:00pm",,,
Bank St.  Grove Ave.,,1176 Bank Street,,OTTAWA,ON,,Canada,613-422-6741,45.3921443,-75.6818987,"monday:10:00am - 9:00pm,tuesday:10:00am - 9:00pm,wednesday:10:00am - 9:00pm,thursday:10:00am - 9:00pm,friday:10:00am - 9:00pm,saturday:10:00am - 6:00pm,sunday:11:00am - 5:00am",,,
Beauport Plaza,,965 Rue Nordique,,QUEBEC CITY,QC,,Canada,418-914-4266,46.890305,-71.191964,"monday:9:00am - 6:00pm,tuesday:9:00am - 6:00pm,wednesday:9:00am - 6:00pm,thursday:9:00am - 9:00pm,friday:9:00am - 9:00pm,saturday:9:00am - 5:00pm,sunday:9:00am - 5:00pm",,,
Bedford Commons,,30 Damascus Street,,BEDFORD,NS,,Canada,902-835-2250,44.7500341,-63.6403835,"monday:10:00am - 7:00pm,tuesday:10:00am - 7:00pm,wednesday:10:00am - 8:00pm,thursday:10:00am - 8:00pm,friday:10:00am - 8:00pm,saturday:9:00am - 6:00pm,sunday:11:00am - 5:00pm",,,
Bell's Corner (Robertson Ctr.),,2150 Robertson Road,,OTTAWA,ON,,Canada,613-726-7622,45.320216,-75.836584,"monday:9:30am - 8:00pm,tuesday:9:30am - 8:00pm,wednesday:9:30am - 8:00pm,thursday:9:30am - 9:00pm,friday:9:30am - 9:00pm,saturday:9:30am - 6:00pm,sunday:10:00am - 5:00pm",,,
Belmont Ave.  Glasgow St.,,669 Belmont Ave. West,,KITCHENER,ON,,Canada,519-571-4444,43.4528357,-80.5178687,"monday:9:30am - 7:00pm,tuesday:9:30am - 7:00pm,wednesday:9:30am - 7:00pm,thursday:9:30am - 7:00pm,friday:9:30am - 7:00pm,saturday:9:00am - 6:00pm,sunday:12:00pm - 5:00pm",,,
Bloor  High Park,,2100 Bloor Street West,,TORONTO,ON,,Canada,416-604-9272,43.652377,-79.470723,"monday:9:00am - 9:00pm,tuesday:9:00am - 9:00pm,wednesday:9:00am - 9:00pm,thursday:9:00am - 9:00pm,friday:9:00am - 9:00pm,saturday:9:00am - 6:00pm,sunday:10:00am - 6:00pm",,,
Boul Grande Alle and  Rue Levis,,1341  Grande Allee,,TERREBONNE,QC,,Canada,450-471-1967,45.710011,-73.625789,"monday:9:00am - 6:00pm,tuesday:9:00am - 6:00pm,wednesday:9:00am - 6:00pm,thursday:9:00am - 9:00pm,friday:9:00am - 9:00pm,saturday:9:00am - 5:00pm,sunday:9:00am - 5:00pm",,,
Boul. Pierrefonds  Rue St. Pierre,,14905 Boulevard Pierrefonds,,PIERREFONDS,QC,,Canada,514-696-0111,45.4834789,-73.8603505,"monday:9:30am - 6:30pm,tuesday:9:30am - 6:30pm,wednesday:9:30am - 6:30pm,thursday:9:30am - 9:00pm,friday:9:30am - 9:00pm,saturday:10:00am - 5:00pm,sunday:10:00am - 5:00pm",,,
Brimley Road  Sheppard Ave. East,,2369 Brimley Road,,SCARBOROUGH,ON,,Canada,416-298-0028,43.797799,-79.271781,"monday:9:30am - 7:30pm,tuesday:9:30am - 7:30pm,wednesday:9:30am - 7:30pm,thursday:9:30am - 7:30pm,friday:9:30am - 7:30pm,saturday:9:30am - 6:00pm,sunday:12:00pm - 5:00pm",,,
Brisdale  Bovaird (Fortinos Plaza),,17 Worthington Avenue,,BRAMPTON,ON,,Canada,905-495-5531,43.6828148,-79.8147779,"monday:9:30am - 8:00pm,tuesday:9:30am - 8:00pm,wednesday:9:30am - 8:00pm,thursday:9:30am - 8:00pm,friday:9:30am - 8:00pm,saturday:9:30am - 6:00pm,sunday:10:00am - 5:00pm",,,
Broadway  HWY 10,,47 Broadway,,ORANGEVILLE,ON,,Canada,519-942-8187,43.917395,-80.1062486,"monday:8:30am - 8:00pm,tuesday:8:30am - 8:00pm,wednesday:8:30am - 8:00pm,thursday:8:30am - 9:00pm,friday:8:30am - 9:00pm,saturday:9:00am - 6:00pm,sunday:10:00am - 5:00pm",,,
Brock Rd  Welwood,,2B Welwood Drive,,UXBRIDGE,ON,,Canada,905-862-3262,44.0886073,-79.1338086,"monday:9:00am - 8:00pm,tuesday:9:00am - 8:00pm,wednesday:9:00am - 8:00pm,thursday:9:00am - 8:00pm,friday:9:00am - 9:00pm,saturday:9:00am - 6:00pm,sunday:11:00am - 5:00am",,,
Callingwood,,6655 178th Street,,EDMONTON,AB,,Canada,780-481-3347,53.501347,-113.6307201,"monday:9:00am - 9:00pm,tuesday:9:00am - 9:00pm,wednesday:9:00am - 9:00pm,thursday:9:00am - 9:00pm,friday:9:00am - 9:00pm,saturday:9:00am - 6:00pm,sunday:10:00am - 5:00pm",,,
Canyon Plaza Mall,,3701 50 Avenue,,RED DEER,AB,,Canada,403-309-3232,52.2562967,-113.8139582,"monday:9:00am - 8:00pm,tuesday:9:00am - 8:00pm,wednesday:9:00am - 8:00pm,thursday:9:00am - 8:00pm,friday:9:00am - 8:00pm,saturday:10:00am - 6:00pm,sunday:10:00am - 6:00pm",,,
Centre 25ieme,,136 25th Avenue,,ST EUSTACHE,QC,,Canada,450-974-2777,45.5730249,-73.8731538,"monday:9:30am - 6:30pm,tuesday:9:30am - 6:30pm,wednesday:9:30am - 6:30pm,thursday:9:30am - 9:00pm,friday:9:30am - 9:00pm,saturday:9:30am - 5:00pm,sunday:9:30am - 5:00am",,,
Centre 25ieme D'achat Hudson,,3100 Harwood,,VAUDREUIL-DORION,QC,,Canada,450-455-0262,45.4277808,-74.1095873,"monday:9:30am - 6:30pm,tuesday:9:30am - 6:30pm,wednesday:9:30am - 6:30pm,thursday:9:30am - 9:00pm,friday:9:30am - 9:00pm,saturday:9:00am - 5:00pm,sunday:9:00am - 5:00pm",,,
Centre Dachat Vaudreuil,,585 St. Charles Ave,,VAUDREUIL-DORION,QC,,Canada,450-424-4545,45.4070201,-74.0324032,"monday:9:30am - 6:30pm,tuesday:9:30am - 6:30pm,wednesday:9:30am - 6:30pm,thursday:9:30am - 9:00pm,friday:9:30am - 9:00pm,saturday:9:30am - 5:00pm,sunday:9:30am - 5:00pm",,,
Centre Grande-Riviere,,203 Chemin d'Aylmer,,GATINEAU,QC,,Canada,819-557-4868,45.3960915,-75.8335175,"monday:9:30am - 6:30pm,tuesday:9:30am - 6:30pm,wednesday:9:30am - 6:30pm,thursday:9:30am - 9:00pm,friday:9:30am - 9:00pm,saturday:9:30am - 5:00pm,sunday:9:30am - 5:00am",,,
Chain Lake Rd.  Washmill Lake,,209 Chain Lake Road,,HALIFAX,NS,,Canada,902-876-0894,44.6502041,-63.6756605,"monday:9:00am - 7:00pm,tuesday:9:00am - 7:00pm,wednesday:9:00am - 9:00pm,thursday:9:00am - 9:00pm,friday:9:00am - 9:00pm,saturday:9:00am - 6:00pm,sunday:11:00am - 5:00pm",,,
Champlain St.  Wheeler Blvd.,,9 Champlain Street,,DIEPPE,NB,,Canada,506-854-8316,46.0934917,-64.7597564,"monday:9:00am - 9:00pm,tuesday:9:00am - 9:00pm,wednesday:9:00am - 9:00pm,thursday:9:00am - 9:00pm,friday:9:00am - 9:00pm,saturday:9:00am - 9:00pm,sunday:10:00am - 6:00pm",,,
Clair Rd.  Gordon,,5 Clair Rd. West,,GUELPH,ON,,Canada,519-823-3004,43.5000866,-80.1893976,"monday:9:30am - 8:00pm,tuesday:9:30am - 8:00pm,wednesday:9:30am - 8:00pm,thursday:9:30am - 8:00pm,friday:9:30am - 8:00pm,saturday:9:00am - 6:00pm,sunday:11:00am - 5:00pm",,,
Clarkson Village,,1865 Lakeshore Road West,,Mississauga,ON,,Canada,905-822-1616,43.515556,-79.62659,"monday:10:00am - 9:00pm,tuesday:10:00am - 9:00pm,wednesday:10:00am - 9:00pm,thursday:10:00am - 9:00pm,friday:10:00am - 9:00pm,saturday:10:00am - 6:00pm,sunday:11:00am - 5:00am",,,
Cliffcrest Plaza,,2975 Kingston Road,,SCARBOROUGH,ON,,Canada,416-266-1881,43.7248222,-79.2312713,"monday:9:00am - 9:00pm,tuesday:9:00am - 9:00pm,wednesday:9:00am - 9:00pm,thursday:9:00am - 9:00pm,friday:9:00am - 9:00pm,saturday:9:00am - 6:00pm,sunday:10:00am - 5:00pm",,,
Country Hills Village,,5149 Country Hills Blvd NW,,CALGARY (EDGEMONT),AB,,Canada,403-454-7387,51.1379615,-114.1587365,"monday:9:00am - 9:00pm,tuesday:9:00am - 9:00pm,wednesday:9:00am - 9:00pm,thursday:9:00am - 9:00pm,friday:9:00am - 9:00pm,saturday:9:00am - 6:00pm,sunday:10:00am - 6:00pm",,,
Creditview  Burnhamthorpe W.,,1170 Burnhamthorpe Road,,MISSISSAUGA,ON,,Canada,905-501-0411,43.56849,-79.6640933,"monday:10:00am - 8:00pm,tuesday:10:00am - 8:00pm,wednesday:10:00am - 8:00pm,thursday:10:00am - 8:00pm,friday:10:00am - 8:00pm,saturday:10:00am - 6:00pm,sunday:10:00am - 5:00pm",,,
Creditview and Bristol Road West,,1525 Bristol Road West,,MISSISSAUGA,ON,,Canada,905-816-0330,43.586782,-79.698686,"monday:10:00am - 9:00pm,tuesday:10:00am - 9:00pm,wednesday:10:00am - 9:00pm,thursday:10:00am - 9:00pm,friday:10:00am - 9:00pm,saturday:9:00am - 6:00pm,sunday:11:00am - 6:00pm",,,
Danforth  Broadview,,243 Danforth Avenue,,TORONTO,ON,,Canada,416-463-7387,43.6767716,-79.3551897,"monday:10:00am - 8:00pm,tuesday:10:00am - 8:00pm,wednesday:10:00am - 8:00pm,thursday:10:00am - 8:00pm,friday:10:00am - 8:00pm,saturday:9:00am - 6:00pm,sunday:10:00am - 6:00pm",,,
Decarie Blvd.  Coolbrook St.,,5326 Chemin Queen Mary,,MONTREAL,QC,,Canada,514 482-0100 ,45.4830609,-73.6295119,"monday:9:30am - 6:30pm,tuesday:9:30am - 6:30pm,wednesday:9:30am - 6:30pm,thursday:9:30am - 9:00pm,friday:9:30am - 9:00pm,saturday:9:00am - 5:00pm,sunday:9:00am - 5:00pm",,,
Dillworth Shopping Centre,,2339 Highway 97 N,,KELOWNA,BC,,Canada,250-861-3663,49.8827722,-119.4322542,"monday:10:00am - 6:00pm,tuesday:10:00am - 6:00pm,wednesday:10:00am - 6:00pm,thursday:10:00am - 6:00pm,friday:10:00am - 6:00pm,saturday:10:00am - 6:00pm,sunday:12:00pm - 5:00pm",,,
Division St.  Munroe St.,,471 Division Street,,COBOURG,ON,,Canada,905-373-1984,43.9660386,-78.1682595,"monday:9:00am - 7:00pm,tuesday:9:00am - 7:00pm,wednesday:9:00am - 7:00pm,thursday:9:00am - 7:00pm,friday:9:00am - 7:00pm,saturday:9:00am - 5:00pm,sunday:11:00am - 5:00pm",,,
Don Quichotte Plaza,,475 Grand Boulevard,,ILE PERROT,QC,,Canada,514-453-4000,45.3881087,-73.9657425,"monday:9:30am - 6:30pm,tuesday:9:30am - 6:30pm,wednesday:9:30am - 6:30pm,thursday:9:30am - 9:00pm,friday:9:30am - 9:00pm,saturday:9:30am - 5:00pm,sunday:9:30am - 5:00am",,,
Dundas  2nd Dug Hill Rd,,470 2nd Dug Hill Road,Wal-Mart Plaza,TRENTON,ON,,Canada,613-392-9191,44.0959751,-77.6038946,"monday:9:00am - 8:00pm,tuesday:9:00am - 8:00pm,wednesday:9:00am - 8:00pm,thursday:9:00am - 8:00pm,friday:9:00am - 8:00pm,saturday:9:00am - 6:00pm,sunday:10:00am - 5:00pm",,,
Dundas  Hamilton St. North,,255 Dundas St. West,,WATERDOWN,ON,,Canada,905-689-3377,43.3297982,-79.897032,"monday:9:00am - 9:00pm,tuesday:9:00am - 9:00pm,wednesday:9:00am - 9:00pm,thursday:9:00am - 9:00pm,friday:9:00am - 9:00pm,saturday:9:00am - 6:00pm,sunday:10:00am - 5:00am",,,
Dundas St.  Walkers Line,,3550 Dundas St,,BURLINGTON,ON,,Canada,905-319-1999,43.3909378,-79.8251007,"monday:9:00am - 9:00pm,tuesday:9:00am - 9:00pm,wednesday:9:00am - 9:00pm,thursday:9:00am - 9:00pm,friday:9:00am - 9:00pm,saturday:9:00am - 6:00pm,sunday:10:00am - 5:00pm",,,
Dundurn  Main St. West,,50 Dundurn St. South,,HAMILTON,ON,,Canada,905-528-2775,43.261611,-79.889388,"monday:9:00am - 9:00pm,tuesday:9:00am - 9:00pm,wednesday:9:00am - 9:00pm,thursday:9:00am - 9:00pm,friday:9:00am - 9:00am,saturday:closed,sunday:10:00am - 6:00pm",,,
Dupont  St.George,,171-173 Dupont Street,,TORONTO,ON,,Canada,416-964-0450,43.6755711,-79.4033557,"monday:10:00am - 7:00pm,tuesday:10:00am - 7:00pm,wednesday:10:00am - 8:00pm,thursday:10:00am - 8:00pm,friday:10:00am - 8:00pm,saturday:9:30am - 7:00pm,sunday:12:00am - 6:00pm",,,
Eagleson  Stonehaven,,700 Eagleson Road,,KANATA (BRIDLEWOOD),ON,,Canada,613-599-0660,45.2843828,-75.8661465,"monday:10:00am - 8:00pm,tuesday:10:00am - 8:00pm,wednesday:10:00am - 8:00pm,thursday:10:00am - 8:00pm,friday:10:00am - 8:00pm,saturday:9:00am - 6:00pm,sunday:10:00am - 5:00pm",,,
East Village Common,,200 Carnwith Drive East,,BROOKLIN,ON,,Canada,905-425-1899,43.9682237,-78.9482456,"monday:9:30am - 8:00pm,tuesday:9:30am - 8:00pm,wednesday:9:30am - 8:00pm,thursday:9:30am - 8:00pm,friday:9:30am - 8:00pm,saturday:9:30am - 6:00pm,sunday:11:00am - 4:00pm",,,
Eglinton  Avenue Rd,,381 Eglinton Avenue West,,TORONTO,ON,,Canada,416-482-4995,43.7039789,-79.4106886,"monday:9:00am - 7:00pm,tuesday:9:30am - 7:00pm,wednesday:9:30am - 7:00pm,thursday:9:30am - 7:00pm,friday:9:30am - 7:00pm,saturday:9:30am - 6:00pm,sunday:11:00am - 5:00pm",,,
Eglinton  Warden,,1900 Eglinton Ave. East,,SCARBOROUGH,ON,,Canada,416-759-3331,43.7271887,-79.2930079,"monday:10:30am - 8:00pm,tuesday:10:30am - 8:00pm,wednesday:10:30am - 8:00pm,thursday:10:30am - 8:00pm,friday:10:30am - 8:00pm,saturday:10:00am - 6:00pm,sunday:11:00am - 5:00pm",,,
Eglinton  Winston Churchill,,2901 Eglinton Ave. West,,MISSISSAUGA,ON,,Canada,905-369-0577,43.551468,-79.7150555,"monday:10:00am - 8:00pm,tuesday:10:00am - 8:00pm,wednesday:10:00am - 8:00pm,thursday:10:00am - 8:00pm,friday:10:00am - 8:00pm,saturday:9:00am - 6:00pm,sunday:10:00am - 5:00am",,,
Ellesmere  McCowan,,1575 Ellesmere Road,,SCARBOROUGH,ON,,Canada,416-289-6255,43.7722224,-79.2509414,"monday:10:00am - 8:00pm,tuesday:10:00am - 8:00pm,wednesday:10:00am - 8:00pm,thursday:10:00am - 8:00pm,friday:10:00am - 8:00pm,saturday:10:00am - 6:00pm,sunday:10:00am - 5:00pm",,,
Essa Rd  Veterans Dr.,,420 Essa Road,,BARRIE,ON,,Canada,705-792-4152,44.3471545,-79.7041825,"monday:9:00am - 8:00pm,tuesday:9:00am - 8:00pm,wednesday:9:00am - 8:00pm,thursday:9:00am - 8:00pm,friday:9:00am - 8:00pm,saturday:9:00am - 6:00pm,sunday:10:00am - 5:00pm",,,
Fairville  Main St.,,600 Fairville Blvd,,SAINT JOHN,NB,,Canada,506-653-8661,45.2542114,-66.0949778,"monday:9:00am - 9:00pm,tuesday:9:00am - 9:00pm,wednesday:9:00am - 9:00pm,thursday:9:00am - 9:00pm,friday:9:00am - 9:00pm,saturday:9:00am - 9:00pm,sunday:10:00pm - 6:00pm",,,
Faubourg du Vieux Port,,1160 Blvd. St-Joseph,Faubourg du Vieux Port,GATINEAU,QC,,Canada,819-205-0200,45.473822,-75.740645,"monday:10:00am - 6:30pm,tuesday:10:00am - 6:30pm,wednesday:10:00am - 6:30pm,thursday:10:00am - 9:00pm,friday:10:00am - 9:00pm,saturday:9:30am - 5:00pm,sunday:9:30am - 5:00pm",,,
Fennell  Upper Gage,,989 Fennell Ave. East,,HAMILTON,ON,,Canada,905-575-9422,43.2277533,-79.8377508,"monday:9:30am - 8:00pm,tuesday:9:30am - 8:00pm,wednesday:9:30am - 8:00pm,thursday:9:30am - 9:00pm,friday:9:30am - 9:00pm,saturday:9:00am - 6:00pm,sunday:11:00am - 5:00am",,,
Forest Glen Shopping Center,,700 Strasburg Road,,KITCHENER,ON,,Canada,519-749-2821,43.413301,-80.477723,"monday:9:00am - 9:00pm,tuesday:9:00am - 9:00pm,wednesday:9:00am - 9:00pm,thursday:9:00am - 9:00pm,friday:9:00am - 9:00pm,saturday:9:00am - 6:00pm,sunday:10:00am - 5:00pm",,,
Franklin  Elgin St.,,970 Franklin Boulevard,,CAMBRIDGE,ON,,Canada,519-624-2555,43.3923249,-80.3041036,"monday:9:30am - 9:00pm,tuesday:9:30am - 9:00pm,wednesday:9:30am - 9:00pm,thursday:9:30am - 9:00pm,friday:9:30am - 9:00pm,saturday:9:30am - 6:00pm,sunday:10:00am - 5:00pm",,,
Front St  Coldwater St,,55 Front Street North,,ORILLIA,ON,,Canada,705-326-7474,44.6116976,-79.4157108,"monday:9:00am - 9:00pm,tuesday:9:00am - 9:00pm,wednesday:9:00am - 9:00pm,thursday:9:00am - 9:00pm,friday:9:00am - 9:00pm,saturday:9:00am - 6:00pm,sunday:10:00am - 6:00pm",,,
Fundy Trail Mall,,68 Robie Street,Fundy Trail Plaza,TRURO,NS,,Canada,902-895-4646,45.3677867,-63.313693,"monday:9:00am - 9:00pm,tuesday:9:00am - 9:00pm,wednesday:9:00am - 9:00pm,thursday:9:00am - 9:00pm,friday:9:00am - 9:00pm,saturday:9:00am - 7:00pm,sunday:11:00am - 5:00pm",,,
Gateshead Plaza,,184 Highway 8,,STONEY CREEK,ON,,Canada,905-662-2415,43.2223985,-79.7413549,"monday:9:00am - 8:00pm,tuesday:9:00am - 8:00pm,wednesday:9:00am - 8:00pm,thursday:9:00am - 8:00pm,friday:9:00am - 8:00pm,saturday:9:00am - 6:00pm,sunday:11:00am - 5:00am",,,
Grand Lake Crossings,,20 Sydney Port Access Road,,SYDNEY,NS,,Canada,902-567-5457,46.1489956,-60.1459417,"monday:9:30am - 9:00pm,tuesday:9:30am - 9:00pm,wednesday:9:30am - 9:00pm,thursday:9:30am - 9:00pm,friday:9:30am - 9:00pm,saturday:9:00am - 6:00pm,sunday:11:00am - 5:00pm",,,
Grande Prairie (Royal Oaks Plaza),,10530 - 117th Avenue (Royal Oaks Plaza),,GRANDE PRAIRIE,AB,,Canada,780-357-2100,55.186725,-118.812255,"monday:9:30am - 8:00pm,tuesday:9:30am - 8:00pm,wednesday:9:30am - 8:00pm,thursday:9:30am - 8:00pm,friday:9:30am - 8:00pm,saturday:9:30am - 6:00pm,sunday:11:00pm - 5:00pm",,,
Grandview  Bloor St,,600 Grandview St. South,Grandview and Bloor,OSHAWA,ON,,Canada,905-245-0247,43.8914936,-78.8143099,"monday:9:30am - 8:00pm,tuesday:9:30am - 8:00pm,wednesday:9:30am - 8:00pm,thursday:9:30am - 8:00pm,friday:9:30am - 8:00pm,saturday:10:00am - 6:00pm,sunday:10:00am - 6:00pm",,,
Grange Victoria Plaza,,19 Victoria Rd. North,,GUELPH,ON,,Canada,519-822-6922,43.5573818,-80.2314639,"monday:9:00am - 8:00pm,tuesday:9:00am - 8:00pm,wednesday:9:00am - 8:00pm,thursday:9:00am - 8:00pm,friday:9:00am - 8:00pm,saturday:9:00am - 6:00pm,sunday:10:00am - 5:00pm",,,
Granville Street Plaza,,454 Granville Street,,SUMMERSIDE,PEI,,Canada,902-724-1326,46.4117029,-63.7821585,"monday:9:00am - 9:00pm,tuesday:9:00am - 9:00pm,wednesday:9:00am - 9:00pm,thursday:9:00am - 9:00pm,friday:9:00am - 9:00pm,saturday:9:00am - 9:00pm,sunday:12:00pm - 5:00pm",,,
Guelph St.  Mountainview,,#302 - 280 Guelph St.,,GEORGETOWN,ON,,Canada,905-873-7086,43.6499424,-79.8970941,"monday:10:00am - 8:00pm,tuesday:10:00am - 8:00pm,wednesday:10:00am - 8:00pm,thursday:10:00am - 9:00pm,friday:10:00am - 9:00pm,saturday:9:30am - 6:00pm,sunday:12:00pm - 5:00pm",,,
Harwood  HWY 401 / Bayly St. E,,310 Harwood Ave South,,AJAX,ON,,Canada,905-428-7387,43.8452356,-79.018973,"monday:9:30am - 8:30pm,tuesday:9:30am - 8:30pm,wednesday:9:30am - 8:30pm,thursday:9:30am - 8:30pm,friday:9:30am - 8:30pm,saturday:9:30am - 6:00pm,sunday:11:00am - 5:00pm",,,
Herbert Rd.  HWY 2,,1 Hebert Road,,ST.ALBERT,AB,,Canada,780-458-7775,53.6232431,-113.6075114,"monday:9:00am - 9:00pm,tuesday:9:00am - 9:00pm,wednesday:9:00am - 9:00pm,thursday:9:00am - 9:00pm,friday:9:00am - 9:00pm,saturday:9:00am - 6:00pm,sunday:10:00am - 5:00pm",,,
Hewlett Park Landing  47 Ave.,,40 Hewlett Park Landing,,SYLVAN LAKE,AB,,Canada,403-887-2024,52.3058425,-114.0762463,"monday:9:00am - 8:00pm,tuesday:9:00am - 8:00pm,wednesday:9:00am - 8:00pm,thursday:9:00am - 8:00pm,friday:9:00am - 8:00pm,saturday:10:00am - 6:00pm,sunday:10:00am - 6:00am",,,
Highway 7  Kennedy Road,,4721 Highway 7 East,,UNIONVILLE,ON,,Canada,905-475-5777,43.863329,-79.300746,"monday:9:00am - 9:00pm,tuesday:9:00am - 9:00pm,wednesday:9:00am - 9:00pm,thursday:9:00am - 9:00pm,friday:9:00am - 9:00pm,saturday:9:00am - 6:00pm,sunday:10:00am - 5:00am",,,
Holland St.  Toronto St.,,170 Holland Street West,,BRADFORD,ON,,Canada,905-775-4640,44.120221,-79.561908,"monday:9:00am - 9:00pm,tuesday:9:00am - 9:00pm,wednesday:9:00am - 9:00pm,thursday:9:00am - 9:00pm,friday:9:00am - 9:00pm,saturday:9:00am - 6:00pm,sunday:10:00am - 5:00am",,,
Humbertown Plaza,,270 The Kingsway,,ETOBICOKE,ON,,Canada,416-234-0056,43.6627103,-79.5195572,"monday:9:30am - 7:00pm,tuesday:9:30am - 7:00pm,wednesday:9:30am - 7:00pm,thursday:9:30am - 7:30pm,friday:9:30am - 7:30pm,saturday:9:30am - 6:00pm,sunday:12:00pm - 5:00pm",,,
Hunt Club Market Place,,228 Hunt Club Road,,OTTAWA,ON,,Canada,613-736-6726,45.333567,-75.691308,"monday:10:00am - 9:00pm,tuesday:10:00am - 9:00pm,wednesday:10:00am - 9:00pm,thursday:10:00am - 9:00pm,friday:10:00am - 9:00pm,saturday:10:00am - 6:00pm,sunday:10:00am - 5:00am",,,
Hurontario St.  Wanless Dr.,,10886 Hurontario Street,,BRAMPTON,ON,,Canada,905-495-4455,43.7233965,-79.8130729,"monday:9:30am - 8:00pm,tuesday:9:30am - 8:00pm,wednesday:9:30am - 8:00pm,thursday:9:30am - 8:00pm,friday:9:30am - 8:00pm,saturday:9:00am - 6:00pm,sunday:11:00am - 5:00pm",,,
Hwy 2  Green Road,,2316 Highway 2,,BOWMANVILLE,ON,,Canada,905-623-4302,43.9098092,-78.7183258,"monday:9:00am - 8:00pm,tuesday:9:00am - 8:00pm,wednesday:9:00am - 8:00pm,thursday:9:00am - 8:00pm,friday:9:00am - 8:00pm,saturday:9:00am - 6:00pm,sunday:10:00am - 6:00am",,,
HWY 2  McQuay,,910 Dundas Street West,,WHITBY,ON,,Canada,905-493-6474,43.8754481,-78.9618018,"monday:9:00am - 9:00pm,tuesday:9:00am - 9:00pm,wednesday:9:00am - 9:00pm,thursday:9:00am - 9:00pm,friday:9:00am - 9:00pm,saturday:9:00am - 6:00pm,sunday:10:00am - 5:00pm",,,
HWY 26  Balsam St.,,20 Balsam Street,,COLLINGWOOD,ON,,Canada,705-446-9539,44.503362,-80.234935,"monday:9:00am - 8:00pm,tuesday:9:00am - 8:00pm,wednesday:9:00am - 8:00pm,thursday:9:00am - 8:00pm,friday:9:00am - 8:00pm,saturday:9:00am - 6:00pm,sunday:10:00am - 6:00pm",,,
Jamieson Pkwy  Townline Rd.,,940 Jamieson Parkway,,CAMBRIDGE,ON,,Canada,519-651-1056,43.424923,-80.285108,"monday:10:00am - 8:00pm,tuesday:10:00am - 8:00pm,wednesday:10:00am - 8:00pm,thursday:10:00am - 8:00pm,friday:10:00am - 8:00pm,saturday:9:00am - 6:00pm,sunday:10:00am - 5:00am",,,
Jasper Ave,,10103  117 Street NW,,EDMONTON,AB,,Canada,780-454-0808,53.541074,-113.522921,"monday:9:00am - 9:00pm,tuesday:9:00am - 9:00pm,wednesday:9:00am - 9:00pm,thursday:9:00am - 9:00pm,friday:9:00am - 9:00pm,saturday:10:00am - 6:00pm,sunday:10:00am - 6:00pm",,,
Kenaston Village Mall,,1855 Grant Avenue,Kenaston Village Mall,WINNIPEG,MB,,Canada,204-416-7100,49.857527,-97.2039585,"monday:9:00am - 9:00pm,tuesday:9:00am - 9:00pm,wednesday:9:00am - 9:00pm,thursday:9:00am - 9:00pm,friday:9:00am - 9:00pm,saturday:9:00am - 6:00pm,sunday:10:00am - 5:00pm",,,
Kennedy Circle  Louis St. Laurent Ave,,1030 Kennedy Circle,,MILTON,ON,,Canada,905-864-9738,43.5091888,-79.8375338,"monday:9:00am - 9:00pm,tuesday:9:00am - 9:00pm,wednesday:9:00am - 9:00pm,thursday:9:00am - 9:00pm,friday:9:00am - 9:00pm,saturday:9:00am - 6:00pm,sunday:10:00am - 5:00pm",,,
Kent St. West  HWY 35,,370 Kent St. West,,LINDSAY,ON,,Canada,705-324-9794,44.3499209,-78.7604745,"monday:9:30am - 6:00pm,tuesday:9:30am - 6:00pm,wednesday:9:30am - 6:00pm,thursday:9:30am - 6:00pm,friday:9:30am - 6:00pm,saturday:9:00am - 6:00pm,sunday:11:00am - 4:00am",,,
King George  HWY 403,,39 King George Rd,,BRANTFORD,ON,,Canada,519-759-8531,43.1639239,-80.2743614,"monday:9:30am - 9:00pm,tuesday:9:30am - 9:00pm,wednesday:9:30am - 9:00pm,thursday:9:30am - 9:00pm,friday:9:30am - 9:00pm,saturday:9:00am - 6:00pm,sunday:10:00am - 5:00am",,,
King George Plaza,,110 North Front Street,,BELLEVILLE,ON,,Canada,613-966-8100,44.175816,-77.391386,"monday:9:30am - 6:00pm,tuesday:9:30am - 6:00pm,wednesday:9:30am - 8:00pm,thursday:9:30am - 8:00pm,friday:9:30am - 8:00pm,saturday:9:30am - 6:00pm,sunday:11:00am - 5:00pm",,,
King Side Road  Dufferin,,1700 King Road,,KING CITY,ON,,Canada,905-833-7387,43.931953,-79.513577,"monday:10:00am - 8:00pm,tuesday:10:00am - 8:00pm,wednesday:10:00am - 8:00pm,thursday:10:00am - 9:00pm,friday:10:00am - 9:00pm,saturday:9:00am - 6:00pm,sunday:11:00am - 5:00pm",,,
King St.  Hugal Ave,,268 King Street,,MIDLAND,ON,,Canada,705-527-4432,44.7504878,-79.8860848,"monday:9:00am - 6:00pm,tuesday:9:00am - 6:00pm,wednesday:9:00am - 6:00pm,thursday:9:00am - 7:00pm,friday:9:00am - 7:00pm,saturday:9:00am - 6:00pm,sunday:11:00am - 5:00pm",,,
King St. West  Atlantic Ave,,75 Hanna Avenue,,TORONTO,ON,,Canada,416-534-7368,43.6391952,-79.4198203,"monday:10:00am - 9:00pm,tuesday:10:00am - 9:00pm,wednesday:10:00am - 9:00pm,thursday:10:00am - 9:00pm,friday:10:00am - 9:00pm,saturday:10:00am - 6:00pm,sunday:10:00am - 6:00pm",,,
Kingsview Market Square Plaza,,1800 Market Street SE,,AIRDRIE,AB,,Canada,403-980-8816,51.2686537,-113.9928754,"monday:9:00am - 9:00pm,tuesday:9:00am - 9:00pm,wednesday:9:00am - 9:00pm,thursday:9:00am - 9:00pm,friday:9:00am - 9:00pm,saturday:10:00am - 6:00pm,sunday:10:00am - 6:00pm",,,
Kipling  The Queensway,,1278 The Queensway,,ETOBICOKE,ON,,Canada,647-341-5202,43.6210283,-79.5267043,"monday:10:00am - 8:00pm,tuesday:10:00am - 8:00pm,wednesday:10:00am - 8:00pm,thursday:10:00am - 8:00pm,friday:10:00am - 8:00pm,saturday:10:00am - 6:00pm,sunday:11:00am - 5:00pm",,,
Lakeshore  Mississauga Rd. South,,224 Lakeshore Rd. West,,MISSISSAUGA,ON,,Canada,905-278-4112,43.5458612,-79.5922893,"monday:9:00am - 8:00pm,tuesday:9:00am - 8:00pm,wednesday:9:00am - 8:00pm,thursday:9:00am - 8:00pm,friday:9:00am - 8:00pm,saturday:9:00am - 6:00pm,sunday:11:00am - 5:00pm",,,
Laurelwoods Shopping Centre,,440-450 Columbia Street West,,WATERLOO,ON,,Canada,519-725-4343,43.4683601,-80.568595,"monday:9:30am - 9:00pm,tuesday:9:30am - 9:00pm,wednesday:9:30am - 9:00pm,thursday:9:30am - 9:00pm,friday:9:30am - 9:00pm,saturday:9:00am - 6:00pm,sunday:11:00am - 5:00pm",,,
Lawrence Ave East  Bennett Rd,,"166 Bennett Rd, West Hill",West Hill,SCARBOROUGH,ON,,Canada,416-286-5673,43.7726912,-79.1662686,"monday:10:00am - 8:00pm,tuesday:10:00am - 8:00pm,wednesday:10:00am - 8:00pm,thursday:10:00am - 8:00pm,friday:10:00am - 8:00pm,saturday:10:00am - 6:00pm,sunday:10:00am - 6:00pm",,,
Lawrence Blvd. (Albion Park Plaza),,91 Lawrence Blvd.,Albion Park Plaza,NEW GLASGOW,NS,,Canada,902-755-5609,45.5719,-62.665901,"monday:9:00am - 8:00pm,tuesday:9:00am - 8:00pm,wednesday:9:00am - 8:00pm,thursday:9:00am - 8:00pm,friday:9:00am - 8:00pm,saturday:9:00am - 6:00pm,sunday:11:00am - 5:00pm",,,
Leslie  Davis Dr,,17730 Leslie Street,,NEWMARKET,ON,,Canada,905-853-9550,44.0712692,-79.4347689,"monday:9:00am - 9:00pm,tuesday:9:00am - 9:00pm,wednesday:9:00am - 9:00pm,thursday:9:00am - 9:00pm,friday:9:00am - 9:00pm,saturday:9:00am - 6:00pm,sunday:10:00am - 5:00am",,,
Leslie  York Mills Road,,808 York Mills Road,,TORONTO,ON,,Canada,416-449-7900,43.7531143,-79.3593958,"monday:10:00am - 8:00pm,tuesday:10:00am - 8:00pm,wednesday:10:00am - 8:00pm,thursday:10:00am - 8:00pm,friday:10:00am - 8:00pm,saturday:9:00am - 6:00pm,sunday:10:00am - 6:00pm",,,
Livingstone  St. Vincent St.,,181 Livingstone Street East,,BARRIE,ON,,Canada,705-733-9002,44.4179336,-79.6955311,"monday:9:00am - 8:00pm,tuesday:9:00am - 8:00pm,wednesday:9:00am - 8:00pm,thursday:9:00am - 8:00pm,friday:9:00am - 8:00pm,saturday:9:00am - 6:00pm,sunday:10:00am - 5:00pm",,,
London Southdale,,911 Southdale Rd. West,,LONDON,ON,,Canada,519-652-3643,42.935489,-81.314991,"monday:9:00am - 9:00pm,tuesday:9:00am - 9:00pm,wednesday:9:00am - 9:00pm,thursday:9:00am - 9:00pm,friday:9:00am - 9:00pm,saturday:9:00am - 6:00pm,sunday:10:00am - 5:00pm",,,
Main St.  9th Line,,5892 Main Street,,STOUFFVILLE,ON,,Canada,905-640-4400,43.9687808,-79.2585633,"monday:9:00am - 9:00pm,tuesday:9:00am - 9:00pm,wednesday:9:00am - 9:00pm,thursday:9:00am - 9:00pm,friday:9:00am - 9:00pm,saturday:9:00am - 6:00pm,sunday:10:00am - 5:00pm",,,
Main St.  Brookside Dr.,,102 Main Street,(Nashawaaksis Plaza),Fredericton,New Brunswick,,Canada,506-472-3407,45.980734,-66.658291,"monday:9:00am - 9:00pm,tuesday:9:00am - 9:00pm,wednesday:9:00am - 9:00pm,thursday:9:00am - 9:00pm,friday:9:00am - 9:00pm,saturday:9:00am - 9:00pm,sunday:10:00am - 6:00pm",,,
Main St.  Gordon Ave,,100 Main St - Westphal Plaza,,DARTMOUTH,NS,,Canada,902-434-8361,44.6815919,-63.5421267,"monday:9:00am - 7:00pm,tuesday:9:00am - 7:00pm,wednesday:9:00am - 9:00pm,thursday:9:00am - 9:00pm,friday:9:00am - 9:00pm,saturday:9:00am - 6:00pm,sunday:11:00am - 5:00pm",,,
Main St.  Hazeldean Rd,,6081 Hazeldean Road,,OTTAWA (STITTSVILLE),ON,,Canada,613-836-3023,45.271664,-75.9315406,"monday:9:30am - 8:00pm,tuesday:9:30am - 8:00pm,wednesday:9:30am - 8:00pm,thursday:9:30am - 8:00pm,friday:9:30am - 8:00pm,saturday:9:30am - 6:00pm,sunday:12:00am - 5:00pm",,,
Main St.  Mill St. E,,8 Main Street North,,ACTON,ON,,Canada,519-853-8833,43.6339088,-80.041322,"monday:9:00am - 8:00pm,tuesday:9:00am - 8:00pm,wednesday:9:00am - 8:00pm,thursday:9:00am - 9:00pm,friday:9:00am - 9:00pm,saturday:9:00am - 6:00pm,sunday:10:00am - 6:00am",,,
Main St.  Owen Sound St,,226 First Ave East,,SHELBURNE,ON,,Canada,519-925-3471,44.0799573,-80.2018333,"monday:9:00am - 7:00pm,tuesday:9:00am - 7:00pm,wednesday:9:00am - 7:00pm,thursday:9:00am - 8:00pm,friday:9:00am - 8:00pm,saturday:9:00am - 6:00pm,sunday:10:00am - 5:00pm",,,
Main Street Centre,,400 Main Street North,,AIRDRIE,AB,,Canada,403-945-3663,51.2917119,-114.0134549,"monday:9:00am - 9:00pm,tuesday:9:00am - 9:00pm,wednesday:9:00am - 9:00pm,thursday:9:00am - 9:00pm,friday:9:00am - 9:00pm,saturday:10:00am - 6:00pm,sunday:10:00am - 6:00pm",,,
Major Mackenzie  Bayview,,1070 Major Mackenzie Drive E.,,RICHMOND HILL,ON,,Canada,905-508-8895,43.8770024,-79.4087348,"monday:10:00am - 8:00pm,tuesday:10:00am - 8:00pm,wednesday:10:00am - 8:00pm,thursday:10:00am - 8:00pm,friday:10:00am - 9:00pm,saturday:10:00am - 7:00pm,sunday:12:00pm - 6:00pm",,,
Manning Crossing,,276 Manning Crossing,137 Ave.  58 St.,EDMONTON,AB,,Canada,780-457-3647,53.6356719,-113.3940354,"monday:9:00am - 9:00pm,tuesday:9:00am - 9:00pm,wednesday:9:00am - 9:00pm,thursday:9:00am - 9:00pm,friday:9:00am - 9:00pm,saturday:9:00am - 9:00pm,sunday:10:00am - 6:00pm",,,
Marda Loop Shopping Plaza,,2101 33 Avenue SW,,CALGARY (MARDA LOOP),AB,,Canada,403-452-7297,51.0239883,-114.1097295,"monday:9:30am - 8:00pm,tuesday:9:30am - 8:00pm,wednesday:9:30am - 8:00pm,thursday:9:30am - 8:00pm,friday:9:30am - 8:00pm,saturday:10:00am - 6:00pm,sunday:10:00am - 6:00am",,,
McAllister Dr  Rothesay Ave.,,80 McAllister Drive,,SAINT JOHN,NB,,Canada,506-652-2622,45.3119366,-66.0208141,"monday:9:00am - 9:00pm,tuesday:9:00am - 9:00pm,wednesday:9:00am - 9:00pm,thursday:9:00am - 9:00pm,friday:9:00am - 9:00pm,saturday:9:00am - 9:00pm,sunday:10:00pm - 6:00pm",,,
Meadowvale Town Centre,,6590 Meadowvale Town Centre Circle,,MISSISSAUGA,ON,,Canada,905-819-9255,43.5803622,-79.759331,"monday:9:30am - 8:00pm,tuesday:9:30am - 8:00pm,wednesday:9:30am - 8:00pm,thursday:9:30am - 8:00pm,friday:9:30am - 8:00pm,saturday:9:30am - 6:00pm,sunday:11:00am - 5:00am",,,
Mountain Rd.  Mapleton Rd,,1049 Mountain Road,,MONCTON,NB,,Canada,506-859-8595,46.1231344,-64.8544537,"monday:9:00am - 9:00pm,tuesday:9:00am - 9:00pm,wednesday:9:00am - 9:00pm,thursday:9:00am - 9:00pm,friday:9:00am - 9:00pm,saturday:9:00am - 9:00pm,sunday:10:00am - 6:00pm",,,
New Minas,,8934 Commercial Street,New Minas Plaza,NEW MINAS,NS,,Canada,902-681-0757,45.0683416,-64.4643646,"monday:9:00am - 9:00pm,tuesday:9:00am - 9:00pm,wednesday:9:00am - 9:00pm,thursday:9:00am - 9:00pm,friday:9:00am - 9:00pm,saturday:9:00am - 6:00pm,sunday:12:00pm - 5:00am",,,
Northmount Dr.  14th St.,,761 Northmount Drive NW,,CALGARY (CAMBRIAN),AB,,Canada,403-457-1914,51.0825712,-114.0955652,"monday:9:00am - 8:00pm,tuesday:9:00am - 8:00pm,wednesday:9:00am - 8:00pm,thursday:9:00am - 8:00pm,friday:9:00am - 8:00pm,saturday:9:00am - 6:00pm,sunday:10:00am - 6:00pm",,,
Ontario St.  Burritt St.,,684 Ontario Street,,STRATFORD,ON,,Canada,519-305-5000,43.3711104,-80.9591305,"monday:9:00am - 8:00pm,tuesday:9:00am - 8:00pm,wednesday:9:00am - 8:00pm,thursday:9:00am - 8:00pm,friday:9:00am - 8:00pm,saturday:9:00am - 6:00pm,sunday:10:00am - 5:00pm",,,
Ontario St.  Main St. East,,400 Main St. East,,MILTON,ON,,Canada,905-878-9808,43.5174429,-79.8785374,"monday:9:00am - 9:00pm,tuesday:9:00am - 9:00pm,wednesday:9:00am - 9:00pm,thursday:9:00am - 9:00pm,friday:9:00am - 9:00pm,saturday:9:00am - 6:00pm,sunday:10:00am - 5:00pm",,,
Osler Dr.  Grant Ave.,,119 Osler Drive,Unit 12,DUNDAS,ON,,Canada,905-628-8700,43.2589129,-79.9414658,"monday:9:00am - 9:00pm,tuesday:9:00am - 9:00pm,wednesday:9:00am - 9:00pm,thursday:9:00am - 9:00pm,friday:9:00am - 9:00pm,saturday:9:00am - 6:00pm,sunday:10:00am - 5:00pm",,,
PM Ahunstic,,10410 Lajeunesse,,MONTREAL,QC,,Canada,514-507-8131,45.553866,-73.663405,"monday:9:30am - 6:30pm,tuesday:9:30am - 6:30pm,wednesday:9:30am - 6:30pm,thursday:9:30am - 9:00pm,friday:9:30am - 9:00pm,saturday:9:30am - 5:00pm,sunday:9:30am - 5:00am",,,
Pharmacy  Ellesmere,,122 Ellesmere Road,,SCARBOROUGH,ON,,Canada,416-443-0788,43.759239,-79.309532,"monday:10:00am - 8:00pm,tuesday:10:00am - 8:00pm,wednesday:10:00am - 8:00pm,thursday:10:00am - 8:00pm,friday:10:00am - 8:00pm,saturday:10:00am - 6:00pm,sunday:10:00am - 6:00pm",,,
Pitou Minou  Compagnons Boucherville,,450 Boulevard de Mortagne,,BOUCHERVILLE,QC,,Canada,450-906-3494,45.5906298,-73.4375871,"monday:9:30am - 6:30pm,tuesday:9:30am - 6:30pm,wednesday:9:30am - 6:30pm,thursday:9:30am - 9:00pm,friday:9:30am - 9:00pm,saturday:9:30am - 5:00pm,sunday:10:00am - 5:00pm",,,
Pitou Minou et Compagnons Brossard,,8200 Blvd. Taschereau,,BROSSARD,QC,,Canada,450 812-2562,45.4481084,-73.4692599,"monday:9:30am - 6:30pm,tuesday:9:30am - 6:30pm,wednesday:9:30am - 6:30pm,thursday:9:30am - 9:00pm,friday:9:30am - 9:00pm,saturday:9:30am - 5:00pm,sunday:9:30am - 5:00am",,,
Portage Plaza,,1154 Chemong Road,,PETERBOROUGH,ON,,Canada,705-743-2727,44.3296445,-78.3416899,"monday:9:00am - 8:00pm,tuesday:9:00am - 8:00pm,wednesday:9:00am - 8:00pm,thursday:9:00am - 8:00pm,friday:9:00am - 8:00pm,saturday:9:00am - 6:00pm,sunday:11:00am - 4:00am",,,
Portage Rd.  Thorold Stone Rd,,3643 Portage Road,,NIAGARA FALLS,ON,,Canada,905-356-3555,43.1202011,-79.0995822,"monday:9:30am - 7:00pm,tuesday:9:30am - 7:00pm,wednesday:9:30am - 7:00pm,thursday:9:30am - 8:00pm,friday:9:30am - 8:00pm,saturday:9:30am - 5:00pm,sunday:10:30am - 5:00pm",,,
Princess  Sir John A. MacDonald,,1111 Princess Street,,KINGSTON,ON,,Canada,613-548-8048,44.2445776,-76.5184996,"monday:9:00am - 8:00pm,tuesday:9:00am - 8:00pm,wednesday:9:00am - 8:00pm,thursday:9:00am - 8:00pm,friday:9:00am - 9:00pm,saturday:9:00am - 6:00pm,sunday:10:00am - 5:00pm",,,
Queen St  Allan Dr,,356 Queen St South,,BOLTON,ON,,Canada,905-857-7623,43.8722406,-79.7280135,"monday:9:00am - 8:00pm,tuesday:9:00am - 8:00pm,wednesday:9:00am - 9:00pm,thursday:9:00am - 9:00pm,friday:9:00am - 9:00pm,saturday:9:00am - 6:00pm,sunday:10:00am - 5:00pm",,,
Queen St. East  Kingston Rd,,1753 Queen Street East,,TORONTO,ON,,Canada,416-686-9468,43.6677476,-79.3099038,"monday:10:00am - 8:00pm,tuesday:10:00am - 8:00pm,wednesday:10:00am - 8:00pm,thursday:10:00am - 8:00pm,friday:10:00am - 8:00pm,saturday:9:00am - 6:00pm,sunday:10:00am - 6:00pm",,,
Queen Street  Airport Road (beside Payless Shoes),,2933 Queen Street East,,BRAMPTON,ON,,Canada,905-793-2899,43.7411701,-79.6975941,"monday:10:00am - 9:00pm,tuesday:10:00am - 9:00pm,wednesday:10:00am - 9:00pm,thursday:10:00am - 9:00pm,friday:10:00am - 9:00pm,saturday:10:00am - 6:00pm,sunday:11:00am - 5:00pm",,,
Queensway  Glenwoods,,443 Queensway South,,KESWICK,ON,,Canada,905-476-0575,44.2139992,-79.4647302,"monday:9:00am - 9:00pm,tuesday:9:00am - 9:00pm,wednesday:9:00am - 9:00pm,thursday:9:00am - 9:00pm,friday:9:00am - 9:00pm,saturday:9:00am - 6:00pm,sunday:10:00am - 4:00pm",,,
Rathburn  West Mall,,452 Rathburn Road,,ETOBICOKE,ON,,Canada,416-621-2745,43.6530675,-79.5725133,"monday:9:00am - 8:00pm,tuesday:9:00am - 8:00pm,wednesday:9:00am - 8:00pm,thursday:9:00am - 9:00pm,friday:9:00am - 9:00pm,saturday:9:00am - 6:00pm,sunday:11:00am - 5:00pm",,,
Regent St.  Priestman,,1111 Regent Street,,FREDERICTON,NB,,Canada,506-455-1133,45.9407991,-66.6573482,"monday:9:00am - 9:00pm,tuesday:9:00am - 9:00pm,wednesday:9:00am - 9:00pm,thursday:9:00am - 9:00pm,friday:9:00am - 9:00pm,saturday:9:00am - 9:00pm,sunday:10:00pm - 6:00pm",,,
Rutherford Village,,9200 Bathurst Street,Rutherford Village,THORNHILL,ON,,Canada,905-597-3353,43.8465988,-79.4605462,"monday:9:00am - 9:00pm,tuesday:9:00am - 9:00pm,wednesday:9:00am - 9:00pm,thursday:9:00am - 9:00pm,friday:9:00am - 9:00pm,saturday:10:00am - 7:00pm,sunday:10:00am - 6:00pm",,,
Rymal Corners Plaza,,2273 Rymal Road East,,STONEY CREEK,ON,,Canada,905-578-3500,43.1746364,-79.777551,"monday:9:30am - 8:00pm,tuesday:9:30am - 8:00pm,wednesday:9:30am - 8:00pm,thursday:9:30am - 8:00pm,friday:9:30am - 8:00pm,saturday:9:00am - 6:00pm,sunday:11:00am - 5:00am",,,
Salem Rd  Taunton Rd,,1965 Salem Road North,,AJAX,ON,,Canada,905-427-7387,43.8965225,-79.0302706,"monday:9:30am - 8:00pm,tuesday:9:30am - 8:00pm,wednesday:9:30am - 8:00pm,thursday:9:30am - 8:00pm,friday:9:30am - 8:00pm,saturday:9:30am - 6:00pm,sunday:11:00am - 5:00pm",,,
Scotland  Belsyde Ave,,600 Scotland,,FERGUS,ON,,Canada,519-787-7079,43.7063216,-80.3615239,"monday:9:00am - 8:00pm,tuesday:9:00am - 8:00pm,wednesday:9:00am - 8:00pm,thursday:9:00am - 9:00pm,friday:9:00am - 9:00pm,saturday:9:00am - 6:00pm,sunday:11:00am - 5:00am",,,
Scott St.  Niagara,,400 Scott Street,,ST. CATHARINES,ON,,Canada,905-646-0508,43.189236,-79.227905,"monday:9:00am - 6:00pm,tuesday:9:00am - 6:00pm,wednesday:9:00am - 8:00pm,thursday:9:00am - 8:00pm,friday:9:00am - 8:00pm,saturday:9:00am - 5:00pm,sunday:10:00am - 4:00pm",,,
Shawnessy Shopping Centre,,285 Shawville Blvd. SE,,CALGARY(SHAWNESSY),AB,,Canada,587-353-9373,50.902114,-114.0648969,"monday:10:00am - 8:00pm,tuesday:10:00am - 8:00pm,wednesday:10:00am - 8:00pm,thursday:10:00am - 9:00pm,friday:10:00am - 9:00pm,saturday:10:00am - 6:00pm,sunday:11:00am - 5:00pm",,,
Sheppard  Willowdale,,280 Sheppard Ave. East,,NORTH YORK,ON,,Canada,416-222-8253,43.7642935,-79.3983822,"monday:10:00am - 7:30pm,tuesday:10:00am - 7:30pm,wednesday:10:00am - 7:30pm,thursday:10:00am - 7:30pm,friday:10:00am - 7:30pm,saturday:9:30am - 6:00pm,sunday:12:00pm - 5:00pm",,,
Sherwood Park,,"993 Fir Street, Unit 21","(Villlage Market),",Sherwood Park,Alberta,,Canada,587-269-0220,53.512667,-113.322552,"monday:9:00am - 7:00pm,tuesday:9:00am - 7:00pm,wednesday:9:00am - 7:00pm,thursday:9:00am - 7:00pm,friday:9:00am - 7:00pm,saturday:9:00am - 5:00pm,sunday:9:00am - 5:00pm",,,
Shoppes of St. Vital at Avalon Rd.,,1220 St. Mary's Road,Unit C,WINNIPEG,MB,,Canada,204-414-7387,49.829102,-97.115032,"monday:9:00am - 9:00pm,tuesday:9:00am - 9:00pm,wednesday:9:00am - 9:00pm,thursday:9:00am - 9:00pm,friday:9:00am - 9:00pm,saturday:9:00am - 6:00pm,sunday:10:00am - 6:00pm",,,
Springbank  Devonshire,,385 Springbank Avenue,,WOODSTOCK,ON,,Canada,519-539-0111,43.146521,-80.7362836,"monday:9:00am - 9:00pm,tuesday:9:00am - 9:00pm,wednesday:9:00am - 9:00pm,thursday:9:00am - 9:00pm,friday:9:00am - 9:00pm,saturday:8:00am - 6:00pm,sunday:10:00am - 6:00pm",,,
St. Laurent Blvd.  Cyrville Road,,1021 Cyrville Road,,OTTAWA,ON,,Canada,613-744-0230,45.425747,-75.637778,"monday:9:30am - 9:00pm,tuesday:9:30am - 9:00pm,wednesday:9:30am - 9:00pm,thursday:9:30am - 9:00pm,friday:9:30am - 9:00pm,saturday:9:30am - 6:00pm,sunday:10:00am - 5:00pm",,,
St. Laurent Boul.  Mont Royal Ave. E,,4528 St. Laurent Blvd.,,MONTREAL,QC,,Canada, 514-285-0500,45.5204254,-73.5871431,"monday:10:00am - 7:00pm,tuesday:10:00am - 7:00pm,wednesday:10:00am - 7:00pm,thursday:10:00am - 9:00pm,friday:10:00am - 9:00pm,saturday:10:00am - 5:00pm,sunday:10:00am - 5:00pm",,,
St.Jean Boul.  Donegani Ave,,245F St. Jean Boulevard,,POINTE CLAIRE,QC,,Canada,514-694-2152,45.4440524,-73.8157182,"monday:10:00am - 6:00pm,tuesday:10:00am - 6:00pm,wednesday:10:00am - 6:00pm,thursday:10:00am - 9:00pm,friday:10:00am - 9:00pm,saturday:9:00am - 5:00pm,sunday:9:00am - 5:00pm",,,
St.Lawrence Market,,125 Lower Jarvis Street,,TORONTO,ON,,Canada,416-368-4222,43.6487051,-79.3708845,"monday:10:00am - 8:00pm,tuesday:10:00am - 8:00pm,wednesday:10:00am - 8:00pm,thursday:10:00am - 8:00pm,friday:10:00am - 8:00pm,saturday:9:00am - 6:00pm,sunday:10:00am - 6:00pm",,,
Stonebridge Plaza -Near Walmart,,3 Market Lane,,WASAGA,ON,,Canada,705-429-2224,44.5239954,-80.0069261,"monday:9:00am - 8:00pm,tuesday:9:00am - 8:00pm,wednesday:9:00am - 8:00pm,thursday:9:00am - 8:00pm,friday:9:00am - 9:00pm,saturday:9:00am - 6:00pm,sunday:10:00am - 6:00am",,,
StoneChurch  Upper James,,1400 Upper James Street,,HAMILTON,ON,,Canada,905-383-2224,43.208924,-79.890485,"monday:9:30am - 8:30pm,tuesday:9:30am - 8:30pm,wednesday:9:30am - 8:30pm,thursday:9:30am - 8:30pm,friday:9:30am - 8:30pm,saturday:9:30am - 6:00pm,sunday:11:00am - 5:00pm",,,
Strandherd Dr.  Woodroffe Ave,,3191 Strandherd Dr,,OTTAWA (BARRHAVEN),ON,,Canada,613-825-5615,45.2751693,-75.7206444,"monday:9:30am - 9:00pm,tuesday:9:30am - 9:00pm,wednesday:9:30am - 9:00pm,thursday:9:30am - 9:00pm,friday:9:30am - 9:00pm,saturday:9:30am - 6:00pm,sunday:12:00am - 5:00pm",,,
Strouds Ln  Whites Rd,,1822 Whites Road,Amberlea Shopping Plaza (near Metro),PICKERING,ON,,Canada,905-831-4554,43.8334224,-79.1218923,"monday:10:00am - 8:00pm,tuesday:10:00am - 8:00pm,wednesday:10:00am - 8:00pm,thursday:10:00am - 8:00pm,friday:10:00am - 8:00pm,saturday:10:00am - 6:00pm,sunday:10:00am - 6:00pm",,,
Taunton  Harmony,,789 Taunton Rd. East,,OSHAWA,ON,,Canada,905-721-0199,43.938339,-78.8504,"monday:9:00am - 8:00pm,tuesday:9:00am - 8:00pm,wednesday:9:00am - 8:00pm,thursday:9:00am - 8:00pm,friday:9:00am - 8:00pm,saturday:9:00am - 6:00pm,sunday:10:00am - 6:00pm",,,
Tenth Line Rd.  Charlemagne Blvd,,1675 Tenth Line Road,,OTTAWA (ORLEANS),ON,,Canada,613-837-0350,45.469712,-75.4908568,"monday:9:30am - 9:00pm,tuesday:9:30am - 9:00pm,wednesday:9:30am - 9:00pm,thursday:9:30am - 9:00pm,friday:9:30am - 9:00pm,saturday:9:30am - 6:00pm,sunday:12:00pm - 5:00pm",,,
Thornton  Rossland,,575 Thornton Rd. North,,OSHAWA,ON,,Canada,905-723-5428,43.9071761,-78.9003701,"monday:10:00am - 8:00pm,tuesday:10:00am - 8:00pm,wednesday:10:00am - 8:00pm,thursday:10:00am - 8:00pm,friday:10:00am - 8:00pm,saturday:9:00am - 6:00pm,sunday:11:00am - 5:00pm",,,
Tower Hill Rd  Young St,,126 Tower Hill Road,,RICHMOND HILL,ON,,Canada,905-883-4729,43.9146785,-79.4506224,"monday:10:00am - 8:00pm,tuesday:10:00am - 8:00pm,wednesday:10:00am - 8:00pm,thursday:10:00am - 8:00pm,friday:10:00am - 8:00pm,saturday:10:00am - 6:00pm,sunday:12:00pm - 5:00pm",,,
University Avenue  Kirkwood Drive,,405 University Avenue,,CHARLOTTETOWN,PEI,,Canada,902-368-1326,46.2459684,-63.1350771,"monday:9:00am - 9:00pm,tuesday:9:00am - 9:00pm,wednesday:9:00am - 9:00pm,thursday:9:00am - 9:00pm,friday:9:00am - 9:00pm,saturday:9:00am - 9:00pm,sunday:12:00pm - 5:00pm",,,
University Downs Plaza,,425 University Ave. East,,WATERLOO,ON,,Canada,519-579-9494,43.4894705,-80.4937878,"monday:9:30am - 9:00pm,tuesday:9:30am - 9:00pm,wednesday:9:30am - 9:00pm,thursday:9:30am - 9:00pm,friday:9:30am - 9:00pm,saturday:9:00am - 6:00pm,sunday:11:00pm - 5:00pm",,,
Upper Middle Rd  Eighth Line,,1011 Upper Middle Road,,OAKVILLE,ON,,Canada,905-339-1503,43.483621,-79.694972,"monday:9:00am - 9:00pm,tuesday:9:00am - 9:00pm,wednesday:9:00am - 9:00pm,thursday:9:00am - 9:00pm,friday:9:00am - 9:00pm,saturday:9:00am - 6:00pm,sunday:10:00am - 5:00pm",,,
Victoria St.  Paris St.,,113 Victoria Street West,,ALLISTON,ON,,Canada,705-434-3311,44.1532408,-79.8728408,"monday:9:00am - 8:00pm,tuesday:9:00am - 8:00pm,wednesday:9:00am - 8:00pm,thursday:9:00am - 8:00pm,friday:9:00am - 8:00pm,saturday:9:00am - 6:00pm,sunday:10:00am - 5:00pm",,,
Village Mall,,6320 50 Ave #43,,RED DEER-NORTH,AB,,Canada,403-352-7797,52.2837189,-113.8139799,"monday:9:00am - 8:00pm,tuesday:9:00am - 8:00pm,wednesday:9:00am - 8:00pm,thursday:9:00am - 8:00pm,friday:9:00am - 8:00pm,saturday:10:00am - 6:00pm,sunday:10:00am - 6:00pm",,,
Wellington  Hamilton,,1200 Wellington Street,,OTTAWA (HINTONBURG),ON,,Canada,613-695-8884,45.4004173,-75.7301068,"monday:10:00am - 8:00pm,tuesday:10:00am - 8:00pm,wednesday:10:00am - 8:00pm,thursday:10:00am - 8:00pm,friday:10:00am - 8:00pm,saturday:9:00am - 6:00pm,sunday:10:00am - 5:00pm",,,
Wellington North of Commissioners,,395 Wellington Road,,LONDON,ON,,Canada,519-686-7387,42.9592272,-81.2328069,"monday:9:00am - 9:00pm,tuesday:9:00am - 9:00pm,wednesday:9:00am - 9:00pm,thursday:9:00am - 9:00pm,friday:9:00am - 9:00pm,saturday:9:00am - 6:00pm,sunday:11:00am - 5:00pm",,,
Wellington St W and Imperial Rd,,715 Wellington St. West,,GUELPH,ON,,Canada,519-265-8966,43.5413246,-80.2442983,"monday:9:00am - 8:00pm,tuesday:9:00am - 8:00pm,wednesday:9:00am - 8:00pm,thursday:9:00am - 9:00pm,friday:9:00am - 9:00pm,saturday:9:00am - 6:00pm,sunday:11:00am - 5:00pm",,,
West 85th,,8561 8A Avenue SW,,CALGARY,AB,,Canada,403-240-1443,51.060791,-114.212193,"monday:9:30am - 8:00pm,tuesday:9:30am - 8:00pm,wednesday:9:30am - 8:00pm,thursday:9:30am - 8:00pm,friday:9:30am - 8:00pm,saturday:9:30am - 5:00pm,sunday:11:00am - 5:00pm",,,
Weston Rd  HWY 7,,7887 Weston Road,,WOODBRIDGE,ON,,Canada,905-851-4297,43.7925324,-79.547604,"monday:9:30am - 9:00pm,tuesday:9:30am - 9:00pm,wednesday:9:30am - 9:00pm,thursday:9:30am - 9:00pm,friday:9:30am - 9:00pm,saturday:9:30am - 6:00pm,sunday:11:00am - 5:00pm",,,
Whitecourt Power Centre,,4331 52 Avenue,,WHITECOURT,AB,,Canada,780-778-5470,54.1424341,-115.6720265,"monday:9:00am - 7:00pm,tuesday:9:00am - 7:00pm,wednesday:9:00am - 7:00pm,thursday:9:00am - 7:00pm,friday:9:00am - 7:00pm,saturday:9:00am - 6:00pm,sunday:12:00pm - 5:00pm",,,
Wilson Fiddler's Green Rd,,73 Wilson Street West,,ANCASTER,ON,,Canada,905-304-0020,43.2200766,-79.9838186,"monday:9:00am - 8:00pm,tuesday:9:00am - 8:00pm,wednesday:9:00am - 8:00pm,thursday:9:00am - 8:00pm,friday:9:00am - 8:00pm,saturday:9:00am - 6:00pm,sunday:10:00am - 5:00pm",,,
Wonderland  Commissioners,,509 Commissioners Rd. West,,LONDON,ON,,Canada,519-474-3647,42.9545955,-81.2886274,"monday:9:00am - 8:00pm,tuesday:9:00am - 8:00pm,wednesday:9:00am - 8:00pm,thursday:9:00am - 8:00pm,friday:9:00am - 8:00pm,saturday:10:00am - 6:00pm,sunday:10:00am - 5:00pm",,,
Yonge  Davis Dr,,130 Davis Drive,,NEWMARKET,ON,,Canada,905-898-7910,44.059187,-79.461256,"monday:9:00am - 9:00pm,tuesday:9:00am - 9:00pm,wednesday:9:00am - 9:00pm,thursday:9:00am - 9:00pm,friday:9:00am - 9:00pm,saturday:9:00am - 6:00pm,sunday:10:00am - 5:00am",,,
Yonge  Davisville,,2019 Yonge Street,,TORONTO,ON,,Canada,416-487-6267,43.7012799,-79.3972038,"monday:9:30am - 7:00pm,tuesday:9:30am - 7:00pm,wednesday:9:30am - 7:00pm,thursday:9:30am - 7:00pm,friday:9:30am - 7:00pm,saturday:9:30am - 6:00pm,sunday:10:00am - 5:00pm",,,
Yonge  Murray Dr.,,14800 Yonge Street,,AURORA,ON,,Canada,905-727-3448,43.987322,-79.465981,"monday:9:30am - 8:00pm,tuesday:9:30am - 8:00pm,wednesday:9:30am - 8:00pm,thursday:9:30am - 8:00pm,friday:9:30am - 8:00pm,saturday:9:30am - 6:00pm,sunday:11:00am - 5:00pm",,,
Yonge  Steeles,,70 Doncaster Ave,,THORNHILL,ON,,Canada,905-771-9227,43.804119,-79.415633,"monday:9:00am - 9:00pm,tuesday:9:00am - 9:00pm,wednesday:9:00am - 9:00pm,thursday:9:00am - 9:00pm,friday:9:00am - 9:00pm,saturday:9:00am - 6:00pm,sunday:10:00am - 5:00pm",,,
