phone_number,city,distributor_name,store_type,store_number,country,address2,longitude,store_hours,store_name,state,other_fields,address,latitude,zip_code
(214) 765-9911,Dallas,,,,United States,,-96.806569,"Sun - Thu : 11:00AM to 09:00PM, Fri - Sat : 09:00PM to 09:00PM",Preston Center Pavilion,TX,,8305 Westchester Dr.,32.86366,75225
(661) 600-0132,Santa Clarita,,,,United States,,-118.55855,"Sun - Thu : 11:00AM to 09:00PM, Fri - Sat : 10:00PM to 10:00PM",Valencia Crossroads,CA,,24250 Valencia Blvd.,34.4131,91355
(702) 898-6730,Henderson,,,,United States,,-115.04111,"Sun - Thu : 11:00AM to 09:00PM, Fri - Sat : 10:00PM to 10:00PM",Sunset & Stephanie,NV,,1311 W Sunset Rd Suite 120,36.06369,89014
(303) 215-1933,Lakewood,,,,United States,,-105.15657,"Sun - Thu : 11:00AM to 09:00PM, Fri - Sat : 09:00PM to 09:00PM",,CO,,14255 Colfax Dr.,39.73678,80401
(936) 271-9217,Shenandoah,,,,United States,,-95.45022,"Sun - Thu : 10:30AM to 09:00PM, Fri - Sat : 10:00PM to 10:00PM",,TX,,19075 IH 45 S Suite 480,30.17911,77385
(281) 885-5430,Houston,,,,United States,,-95.508679,"Sun - Thu : 11:00AM to 09:00PM, Fri - Sat : 10:00PM to 10:00PM",Champions Village,TX,,5203 FM 1960 W Suite E,29.98224,77069
(469) 948-9000,Lewisville,,,,United States,,-96.970219,"Sun - Thu : 11:00AM to 09:00PM, Fri - Sat : 10:00PM to 10:00PM",LakePoint,TX,,713 Hebron Pkwy. Suite 200,33.00911,75057
(720) 532-5999,Denver,,,,United States,,-104.90356,"Sun - Thu : 11:00AM to 09:00PM, Fri - Sat : 09:00PM to 09:00PM",Lowry Town Center,CO,,"200 Quebec St. Bldg. 100, Suite 115",39.71996,80230
(520) 514-7004,Tucson,,,,United States,,-110.87973,"Sun - Thu : 10:30AM to 09:00PM, Fri - Sat : 09:30PM to 09:30PM",Williams Center,AZ,,5285 E Broadway Blvd. Suite 151,32.2217399,85711
(817) 722-0070,Southlake,,,,United States,,-97.12764,"Sun - Thu : 11:00AM to 09:00PM, Fri - Sat : 10:00PM to 10:00PM",Southlake Town Square,TX,,1582 E Southlake Blvd.,32.9409399,76092
(281) 240-1931,Sugar Land,,,,United States,,-95.625489,"Sun - Thu : 11:00AM to 09:00PM, Fri - Sat : 10:00PM to 10:00PM",Town Center Lakeside,TX,,16101 Kensington Dr.,29.59861,77479
(303) 346-4329,Highlands Ranch,,,,United States,,-104.9432,"Sun - Thu : 11:00AM to 09:00PM, Fri - Sat : 09:00PM to 09:00PM",Highlands Ranch,CO,,9352 S Colorado Blvd. Suite G-1,39.54608,80126
(713) 661-0900,Houston,,,,United States,,-95.427989,"Sun - Thu : 10:30AM to 09:00PM, Fri - Sat : 10:00PM to 10:00PM",Plaza in the Park,TX,,5110 Buffalo Speedway Suite 100,29.7279599,77005
(817) 466-4545,Arlington,,,,United States,,-97.13504,"Sun - Thu : 11:00AM to 09:00PM, Fri - Sat : 10:00PM to 10:00PM",Village by the Parks,TX,,4133 S Cooper St. Suite 307,32.67848,76015
(972) 373-8000,Irving,,,,United States,,-96.958669,"Sun - Thu : 10:00AM to 09:00PM, Fri - Sat : 10:00PM to 10:00PM",MacArthur Crossing,TX,,7600 N MacArthur Blvd. Suite 102,32.90977,75063
(949) 629-1000,Newport Beach,,,,United States,,-117.86268,"Sun - Thu : 11:00AM to 09:00PM, Fri - Sat : 10:00PM to 10:00PM",The Bluffs,CA,,1302 Bison Ave.,33.6374199,92660
(609) 734-4790,Princeton,,,,United States,,-74.661611,"Sun - Thu : 11:00AM to 09:00PM, Fri - Sat : 10:00PM to 10:00PM",West Windsor Plaza,NJ,,"3522 U.S. Highway, Route 1, Suite 1",40.310834,08540
(310) 397-1761,Culver City,,,,United States,,-118.41293,"Sun - Thu : 11:00AM to 09:00PM, Fri - Sat : 10:00PM to 10:00PM",Culver Crossroads,CA,,"4114 S. Sepulveda Blvd., Suite E",34.00725,90230
(602) 707-0049,Phoenix,,,,United States,,-112.06408,"Sun - Thu : 10:45AM to 09:00PM, Fri - Sat : 10:00PM to 10:00PM",Madison Village Marketplace,AZ,,742 E Glendale Suite 110,33.53819,85020
(405) 751-6539,Oklahoma City,,,,United States,,-97.602035,"Sun - Thu : 11:00AM to 09:00PM, Fri - Sat : 10:00PM to 10:00PM",,OK,,4401 W Memorial Road Suite 104,35.611675,73134
(407) 351-3532,Orlando,,,,United States,,-81.42932,"Sun - Thu : 11:00AM to 09:00PM, Fri - Sat : 10:00PM to 10:00PM",Millenia Plaza,FL,,4728 Millenia Plaza Way,28.48976,32839
(239) 530-1201,Naples,,,,United States,,-81.69909,"Sun - Thu : 11:00AM to 09:00PM, Fri - Sat : 10:00PM to 10:00PM",,FL,,6821 Collier Blvd Unit 102,26.06338,34114
(904) 247-4490,Jacksonville Beach,,,,United States,,-81.39107,"Sun - Thu : 11:00AM to 09:00PM, Fri - Sat : 10:00PM to 10:00PM",,FL,,319 3rd Street S,30.28439,32250
(239) 433-4208,Fort Myers,,,,United States,,-81.794579,"Sun - Thu : 11:00AM to 09:00PM, Fri - Sat : 10:00PM to 10:00PM",Gulf Coast Landings,FL,,16441 Corporate Commerce Way,26.49292,33913
(239) 495-3113,Estero,,,,United States,,-81.811267,"Sun - Thu : 11:00AM to 09:00PM, Fri - Sat : 10:00PM to 10:00PM",,FL,,22909 Lyden Drive,26.40616,33928
(281) 665-6030,Katy,,,,United States,,-95.81307,"Sun - Thu : 11:00AM to 09:00PM, Fri - Sat : 10:00PM to 10:00PM",Southpark at Cinco Ranch,TX,,"24926 FM 1093, Ste. A",29.69742,77494
(904) 292-2852,Jacksonville,,,,United States,,-81.629637,"Sun - Thu : 11:00AM to 09:00PM, Fri - Sat : 10:00PM to 10:00PM",,FL,,"11200 San Jose Blvd, Ste. 105",30.170586,32223
(501) 821-8720,Little Rock,,,,United States,,-92.45882,"Sun - Thu : 10:45AM to 09:00PM, Fri - Sat : 09:00PM to 09:00PM",,AR,,17701 Chenal Parkway,34.76988,72223
(281) 758-4154,Cypress,,,,United States,,-95.74941,"Sun - Thu : 11:00AM to 09:00PM, Fri - Sat : 10:00PM to 10:00PM",,TX,,"28902 Highway 290, Suite J-05",29.99241,77433
(210) 497-6380,San Antonio,,,,United States,,-98.450474,"Sun - Thu : 11:00AM to 09:00PM, Fri - Sat : 10:00PM to 10:00PM",,TX,,"22106 US Highway 281, Suite 105",29.648965,78258
(904) 619-2831,Jacksonville,,,,United States,,-81.54729,"Sun - Thu : 11:00AM to 09:00PM, Fri - Sat : 10:00PM to 10:00PM",Bartram Village,FL,,"12553 Bartram Park Blvd, Suite 304",30.14204,32258
(281)251-0450,Houston,,,,United States,,-95.56193,"Sun - Thu : 11:00AM to 09:00PM, Fri - Sat : 10:00PM to 10:00PM",,TX,,"10115 Louetta Road, Suite 100",29.99959,77070
(281) 997-5525,Pearland,,,,United States,,-95.263473,"Sun - Thu : 11:00AM to 09:00PM, Fri - Sat : 10:00PM to 10:00PM",The Center at Pearland Parkway,TX,,"2630 Pearland Parkway, Suite 130",29.555914,77581
(407) 347-9928,Winter Garden,,,,United States,,-81.55904,"Sun - Thu : 11:00AM to 09:00PM, Fri - Sat : 10:00PM to 10:00PM",,FL,,"3337 Daniels Road, Suite 100",28.55204,34787
602-870-7199,Phoenix,,,,United States,,-112.12445,"Sun - Thu : 11:00AM to 09:00PM, Fri - Sat : 10:00PM to 10:00PM",Metrocenter,AZ,,10450 North 28th Drive,33.58179,85051
954-346-1055,Coral Springs,,,,United States,,-80.25073,"Sun - Thu : 11:00AM to 09:00PM, Fri - Sat : 10:00PM to 10:00PM",Conerstone Plaza,FL,,"3112 University Drive, Bldg A",26.2691,33065
727-821-0370,Saint Petersburg,,,,United States,,-82.638494,"Sun - Thu : 11:00AM to 09:00PM, Fri - Sat : 10:00PM to 10:00PM",,FL,,1345 4th Street N,27.785545,33701
214-459-2100,Richardson,,,,United States,,-96.699858,"Sun - Thu : 11:00AM to 09:00PM, Fri - Sat : 10:00PM to 10:00PM",City Line Market,TX,,"1425 East Renner Road, Suite 610",32.9981,75082
(972) 238-7399,Richardson,,,,United States,,-96.76804,"Sun - Thu : 11:00AM to 09:00PM, Fri - Sat : 10:00PM to 10:00PM",Pavillion East,TX,,"1401 West Campbell Road, Suite 200",32.97851,75080
(407)566-8488,Celebration,,,,United States,,-81.5347,"Sun - Thu : 11:00AM to 09:00PM, Fri - Sat : 10:00PM to 10:00PM",The Shops at Celebration,FL,,6250 W Irlo Bronson Memorial Hwy,28.33268,34747
817-741-4848,Fort Worth,,,,United States,,-97.3173,"Sun - Thu : 10:45AM to 09:00PM, Fri - Sat : 10:00PM to 10:00PM",Alliance Town Center,TX,,"2901 Heritage Trace Parkway, Suite 105",32.91448,76177
4057327788,Midwest City,,,,United States,,-97.39495,"Sun - Thu : 11:00AM to 09:00PM, Fri - Sat : 10:00PM to 10:00PM",Midwest City Town Center,OK,,7311 S.E. 29th Street,35.43583,73110
(561)483-7067,Boca Raton,,,,United States,,-80.2036,"Sun - Thu : 11:00AM to 09:00PM, Fri - Sat : 10:00PM to 10:00PM",Westwinds of Boca Shopping Center,FL,,"9982 Glades Rd, Suite G5",26.368,33434
(405)799-2888,Oklahoma City,,,,United States,,-97.50185,"Sun - Thu : 11:00AM to 09:00PM, Fri - Sat : 10:00PM to 10:00PM",Fritts Farm,OK,,750 SW 19th St.,35.31983,73160
954-784-2460,Pompano Beach,,,,United States,,-80.099577,"Sun - Thu : 11:00AM to 09:00PM, Fri - Sat : 10:00PM to 10:00PM",23 Hundred,FL,,"2390 N Federal Highway, Suite 101",26.26113,33062
(214)494-6150,Lewisville,,,,United States,,-96.88875,"Sun - Thu : 11:00AM to 09:00PM, Fri - Sat : 10:00PM to 10:00PM",Castle Hills,TX,,"4600 S.H. 121, Suite 120",33.06521,75056
479-464-7900,Rogers,,,,United States,,-94.18344,"Sun - Thu : 10:45AM to 09:00PM, Fri - Sat : 09:00PM to 09:00PM",Pinnacle Hills,AR,,4895 W Pauline Whitaker Parkway,36.29803,72758
(561) 279-4424,Delray Beach,,,,United States,,-80.071255,"Sun - Thu : 11:00AM to 09:00PM, Fri - Sat : 10:00PM to 10:00PM",Delray Place,FL,,1831 S. Federal Hwy. #300,26.43974,33483
5616894405,West Palm Beach,,,,United States,,-80.05218,"Sun - Thu : 11:00AM to 09:00PM, Fri - Sat : 10:00PM to 10:00PM",Palm Beach Mall,FL,,1815 Palm Beach Lakes Blvd. Suite #03,26.7058,33401
(214) 324-0020,Dallas,,,,United States,,-96.70336,"Sun - Thu : 11:00AM to 09:00PM, Fri - Sat : 10:00PM to 10:00PM",Casa Linda,TX,,"9540 Garland Road, Suite 383 Building F",32.83399,75218
(813) 286-2603,Tampa,,,,United States,,-82.5245,"Sun - Thu : 11:00AM to 09:00PM, Fri - Sat : 10:00PM to 10:00PM",The Corner,FL,,1816 N. West Shore Dr.,27.95835,33607
(817) 285-1776,Hurst,,,,United States,,-97.186307,"Sun - Thu : 11:00AM to 09:00PM, Fri - Sat : 10:00PM to 10:00PM",Hurst Retail Center,TX,,1460 Precinct Line Road,32.83783,76053
(305) 252-6124,Miami,,,,United States,,-80.32903,"Sun - Thu : 11:00AM to 09:00PM, Fri - Sat : 10:00PM to 10:00PM",Dixie Belle Shoppes,FL,,"12175 S. Dixie Hwy.,",25.65551,33156
