store_name,store_number,address,address2,city,state,zip_code,country,phone_number,latitude,longitude,store_hours,store_type,other_fields,coming_soon
Riverchase Galleria,,2000 Riverchase Galleria ,,Birmingham ,AL,35244,United States,205-402-6522,,,,,,
Colonial Brookwood Village,,716 Brookwood Village ,,Birmingham ,AL,35209,United States,205-871-2240,,,,,,
Factory Store - Wiregrass Commons,,900 Commons Drive ,,Dothan ,AL,36303,United States,334-678-7747,,,,,,
Factory Store - Regency Square Mall,,301 Cox Creek Parkway ,,Florence ,AL,35630,United States,256-760-0756,,,,,,
Factory Store - Tanger Outlet Center Foley,,2601 South Mckenzie ,,Foley ,AL,36535,United States,251-971-2834,,,,,,
Colonial Mall Bel Aire,,3449 Bel Air Mall ,,Mobile ,AL,36606,United States,251-476-3732,,,,,,
Factory Store - Quintard Mall,,700 Quintard Drive ,,Oxford ,AL,36203,United States,256-831-6171,,,,,,
Dimond Center Mall,,800 E. Dimond Blvd ,,Anchorage ,AK,99515,United States,907-222-5242,,,,,,
Factory Store - Aurora Mall,,14200 E Alameda Avenue ,,Aurora ,CO,80012,United States,303-344-5177,,,,,,
Town Center at Aurora,,14200 E Alameda ,,Aurora ,CO,80012,United States,303-344-5177,,,,,,
Flatiron Crossing,,1 West Flat Iron Circle ,,Broomfield ,CO,80021,United States,720-887-9797,,,,,,
Castle Rock,,5050 Factory Shops Blvd ,,Castle Rock ,CO,80108,United States,720-733-6795,,,,,,
Factory Store - The Citadel,,750 Citadel Drive ,,Colorado Springs ,CO,80909,United States,719-622-9871,,,,,,
Factory Store - Chapel Hills Mall,,1710 Briargate Boulevard ,,Colorado Springs ,CO,80920,United States,719-598-8363,,,,,,
Factory Store - Colorado Mills,,14500 Colfax Avenue ,,Lakewood ,CO,80401,United States,303-590-1835,,,,,,
Park Meadows,,8505 Park Meadows Center Drive ,,Littleton ,CO,80124,United States,303-708-9015,,,,,,
The Shops at Centerra,,5971 Sky Pond Drive ,,Loveland ,CO,80538,United States,970-667-2088,,,,,,
Factory Store - Northwest Arkansas Mall,,4201 North Shiloh Drive ,,Fayetteville ,AR,72703,United States,479-443-1680,,,,,,
McCain Mall,,3929 McCain Blvd. N. Little ,,Rock ,AR,72116,United States,501-812-6533,,,,,,
Factory Store - McCain Mall,,3929 McCain Blvd ,,North Little Rock ,AR,72116,United States,501-812-6533,,,,,,
Factory Store - Clinton Crossing Premium Outlets,,20-A Killingworth Turnpike ,,Clinton ,CT,06413,United States,860-669-5738,,,,,,
Danbury Fair Mall,,7 Backus Avenue ,,Danbury ,CT,06810,United States,203-791-2827,,,,,,
Westfarms Mall,,148 Westfarms Mall ,,Farmington ,CT,06032,United States,860-521-3088,,,,,,
Factory Store - Westgate,,6800 North 95 Avenue ,,Glendale ,AZ,85305,United States,623-877-8465,,,,,,
Arrowhead Towne Centre,,7700 West Arrowhead Towne Center ,,Glendale ,AZ,85308,United States,623-486-5120,,,,,,
Factory Store - Mariposa Mall,,350 West Mariposa Road ,,Nogales ,AZ,85621,United States,520-281-0420,,,,,,
Factory Store - The Outlets at Tejon Ranch,,5701 Outlets at Tejon Parkway ,,Arvin ,CA,93203,United States,661-858-2870,,,,,,
Factory Store - Valley Plaza,,2701 Ming Avenue ,,Bakersfield ,CA,93304,United States,661-396-1157,,,,,,
The Orchard Town Center,,14697 Delaware St. ,,Westminster ,CO,80020,United States,303-280-8252,,,,,,
Factory Store - The Orchard Town Center,,14697 Delaware Street ,,Westminster ,CO,80020,United States,303-280-8252,,,,,,
Factory Store - The Shoppes at Buckland Hills,,194 Buckland Hills Drive ,,Manchester ,CT,06042,United States,860-648-1702,,,,,,
Factory Store - Connecticut Post,,1201 Boston Post Road ,,Milford ,CT,06460,United States,203-882-8124,,,,,,
Stamford Town Center,,100 Grey Rock Place ,,Stamford ,CT,06901,United States,203-353-0028,,,,,,
Trumbull Shopping Park,,5065 Main Street ,,Trumbull ,CT,06611,United States,203-371-8871,,,,,,
Factory Store - Brass Mill Center,,495 Union Street ,,Waterbury ,CT,06706,United States,203-759-1796,,,,,,
Factory Store - Metrocenter Mall,,9818 Metro Parkway East ,,Phoenix ,AZ,85051,United States,602-997-8797,,,,,,
Factory Store - Arizona Mills Mall,,5000 Arizona Mills Circle ,,Tempe ,AZ,85282,United States,480-491-1021,,,,,,
Arizona Mills,,5000 Arizona Mills Circle ,,Tempe ,AZ,85282,United States,480-345-0947,,,,,,
Park Place,,5870 E. Broadway Boulevard ,,Tucson ,AZ,85711,United States,520-514-0972,,,,,,
Tucson Mall,,4500 North Oracle Road ,,Tucson ,AZ,85705,United States,5202933214,,,,,,
Factory Store - Yuma Palms Regional Center,,1327 S. Yuma Palms Parkway ,,Yuma ,AZ,85365,United States,928-783-4883,,,,,,
Tanger Barstow,,2796 Tanger Way Suite 345 ,,Barstow ,CA,92311,United States,760-253-9999,,,,,,
Factory Store - Tanger Barstow,,2796 Tanger Way ,,Barstow ,CA,92311,United States,760-253-9999,,,,,,
Factory Store - Gran Plaza Outlet,,888 West 2nd Street ,,Calexico ,CA,92231,United States,760-768-8353,,,,,,
Factory Store - Camarillo Premium Outlets,,740 East Ventura Boulevard ,,Camarillo ,CA,93010,United States,805-482-0084,,,,,,
Camarillo Premium Outlets,,740 Ventura Blvd ,,Camarillo ,CA,93010,United States,805-482-0084,,,,,,
Factory Store - Los Cerritos Center,,156 Los Cerritos Center ,,Cerritos ,CA,90703,United States,562-402-0172,,,,,,
Factory Store - Chula Vista Center,,555 Broadway ,,Chula Vista ,CA,91910,United States,619-427-0069,,,,,,
Factory Store - Citadel Outlets,,100 Citadel Dr ,,Commerce ,CA,90040,United States,323-726-0017,,,,,,
Citadel Outlets,,100 Citadel Dr. ,,Commerce ,CA,90040,United States,323-726-0017,,,,,,
Sunvalley Mall,,236 Sunvalley Mall ,,Concord ,CA,94520,United States,925-689-9237,,,,,,
Westfield Culver City,,6000 Sepulveda Blvd ,,Culver City ,CA,90230,United States,310-390-0400,,,,,,
Stonewood Center,,251 Stonewood Street ,,Downey ,CA,90241,United States,562-861-7500,,,,,,
Factory Store - Imperial Valley Mall,,3451 South Dogwood Avenue ,,El Centro ,CA,92243,United States,760-352-5139,,,,,,
Imperial Valley Mall,,3451 South Dogwood Avenue ,,El Centro ,CA,92243,United States,760-370-0181,,,,,,
Factory Store - Solano Mall,,1350 Travis Blvd ,,Fairfield ,CA,94533,United States,707-425-0337,,,,,,
Factory Store - Folsom Premium Outlets,,13000 Folsom Boulevard ,,Folsom ,CA,95630,United States,916-985-3017,,,,,,
Factory Store - Fresno Fashion Fair,,693 East Shaw Avenue ,,Fresno ,CA,93710,United States,559-229-9141,,,,,,
Fresno Fashion Fair,,693 East Shaw Ave ,,Fresno ,CA,93710,United States,559-229-9141,,,,,,
Factory Store - Gilroy Premium Outlets,,681 Leavesley Road ,,Gilroy ,CA,95020,United States,408-848-4500,,,,,,
Gilroy Premium Outlets,,8375 Arroyo Circle ,,Gilroy ,CA,95020,United States,408-848-4500,,,,,,
Glendale Galleria,,2187 Glendale Galleria ,,Glendale ,CA,91210,United States,818-545-8972,,,,,,
Factory Store - Lakewood Center,,372 Lakewood Center ,,Lakewood ,CA,90712,United States,562-633-6183,,,,,,
Factory Store - Merced Mall,,280 Merced Mall ,,Merced ,CA,95348,United States,209-722-5175,,,,,,
Factory Store - Great Mall,,480 Great Mall Drive ,,Milpitas ,CA,95035,United States,408-946-1165,,,,,,
Factory Store - Vintage Faire Mall,,3401 Dale Road ,,Modesto ,CA,95356,United States,209-521-1946,,,,,,
Montclair Plaza,,2128 Montclair Plaza Lane ,,Montclair ,CA,91763,United States,909-626-7703,,,,,,
Montebello Town Center,,2119 Montebello TC Drive ,,Montebello ,CA,90640,United States,323-726-1381,,,,,,
Moreno Valley Mall,,22500 Town Circle ,,Moreno Valley ,CA,92553,United States,951-656-5444,,,,,,
Factory Store - Plaza Bonita,,3030 Plaza Bonita Road ,,National City ,CA,91950,United States,619-475-1805,,,,,,
Factory Store - New Park Mall,,1047 Newpark Mall ,,Newark ,CA,94560,United States,510-794-0107,,,,,,
Northridge Fashion Center,,9301 Tampa Avenue ,,Northridge ,CA,91324,United States,818-772-7849,,,,,,
Factory Store - Ontario Mills,,One Mills Circle # 404 ,,Ontario ,CA,91764,United States,909-980-1366,,,,,,
Ontario Mills,,One Mills Circle ,,Ontario ,CA,91764,United States,909-980-1366,,,,,,
Outlets at Orange,,20 City Blvd West ,,Orange ,CA,92868,United States,714-940-0610,,,,,,
Factory Store - Palm Desert,,72840 Highway 111 ,,Palm Desert ,CA,92260,United States,760-341-3264,,,,,,
Antelope Valley,,1233 West Rancho Vista Blvd. ,,Palmdale ,CA,93551,United States,661-538-0876,,,,,,
Panorama Mall,,8401 Van Nuys Blvd. ,,Panorama ,CA,91402,United States,818-830-7262,,,,,,
Factory Store - Panorama Mall,,8401 Van Nuys Boulevard ,,Panorama City ,CA,91402,United States,818-830-7262,,,,,,
Factory Store - Petaluma Village Premium Outlets,,2200 Petaluma Boulevard North ,,Petaluma ,CA,94952,United States,707-769-1497,,,,,,
Petaluma Village Premium Outlets,,2200 Petaluma Blvd North ,,Petaluma ,CA,94952,United States,707-769-1497,,,,,,
Pismo Beach Premium Outlets,,333 Five Cities Drive ,,Pismo Beach ,CA,93449,United States,805-773-1158,,,,,,
Stoneridge Mall,,1 Stoneridge Mall Road ,,Pleasanton ,CA,95488,United States,925-463-3133,,,,,,
Factory Store - Galleria at Tyler,,1299 Galleria at Tyler ,,Riverside ,CA,92503,United States,951-343-0433,,,,,,
Galleria at Roseville,,1151 Galleria Parkway ,,Roseville ,CA,95678,United States,916-781-6404,,,,,,
Arden Fair,,1689 Arden Way ,,Sacramento ,CA,95815,United States,916-924-1647,,,,,,
Factory Store - Northridge Mall,,674 Northridge Center ,,Salinas ,CA,93906,United States,831-442-0930,,,,,,
Northridge Mall,,674 Northridge Mall ,,Salinas ,CA,93906,United States,831-442-0930,,,,,,
Horton Plaza,,59 Horton Plaza ,,San Diego ,CA,92101,United States,619-702-7734,,,,,,
Eastridge Mall,,2200 Eastridge Loop ,,San Jose ,CA,95122,United States,408-532-8229,,,,,,
Factory Store - Eastridge Mall,,1 Eastridge Center ,,San Jose ,CA,95122,United States,408-532-8229,,,,,,
Factory Store - Las Americas Premium Outlets,,4211 Camino De La Plaza ,,San Ysidro ,CA,92173,United States,619-690-1376,,,,,,
The Shops at the Las Americas,,4141 Camino De La Plaza Drive ,,San Ysidro ,CA,92173,United States,619-690-1376,,,,,,
Factory Store - Main Place,,2800 N. Main Street ,,Santa Ana ,CA,92705,United States,714-542-5585,,,,,,
Santa Rosa Plaza,,1012 Santa Rosa Plaza ,,Santa Rosa ,CA,95401,United States,707-579-4337,,,,,,
Factory Store - Weberstown Mall,,4950 Pacific Avenue ,,Stockton ,CA,95207,United States,209-952-2587,,,,,,
Weberstown Mall,,4950 Pacific Ave. ,,Stockton ,CA,95207,United States,209-952-2587,,,,,,
Del Amo Mall,,3525 Carson St. ,,Torrance ,CA,90503,United States,310-214-4083,,,,,,
Factory Store - Horizon Outlet Center,,1701 Retherford Street ,,Tulare ,CA,93274,United States,559-684-8631,,,,,,
Factory Store - Vacaville Premium Outlets,,321 Nut Tree Road ,,Vacaville ,CA,95687,United States,707-447-5755,,,,,,
Vacaville Premium Oulet,,321 Nut Tree Road ,,Vacaville ,CA,95687,United States,707-455-1649,,,,,,
Pacific View Mall,,3301 East Main Street ,,Ventura ,CA,93003,United States,805-642-1790,,,,,,
Mall at Victor Valley,,14400 Bear Valley Road ,,Victorville ,CA,92392,United States,760-951-9834,,,,,,
Visalia Mall,,2221 South Mooney Boulevard ,,Visalia ,CA,93277,United States,559-625-0235,,,,,,
Plaza at West Covina,,466 Plaza Drive ,,West Covina ,CA,91790,United States,626-960-0507,,,,,,
Factory Store - Westminster Mall,,2044A Westminster Mall ,,Westminster ,CA,92683,United States,714-379-8130,,,,,,
Factory Store - Yuba Sutter Mall,,1185 Colusa Ave ,,Yuba City ,CA,95991,United States,530-751-7319,,,,,,
Factory Store - Dover Mall,,3024 Dover Mall ,,Dover ,DE,19901,United States,302-741-2100,,,,,,
Christiana Mall,,102 Christiana Mall ,,Newark ,DE,19702,United States,302-737-1324,,,,,,
Lenox Square,,3393 Peachtree Rd ,,Atlanta ,GA,30326,United States,404-848-2860,,,,,,
Cumberland Mall,,1341 Cumberland SE ,,Atlanta ,GA,30339,United States,678-503-0675,,,,,,
Perimeter Mall,,4400 Ashford Dunwoody Road ,,Atlanta ,GA,30346,United States,770-481-0808,,,,,,
Augusta Mall,,3450 Wrightsboro Road ,,Augusta ,GA,30909,United States,706-729-0340,,,,,,
Altamonte Mall,,451 East Altamonte Drive ,,Altamonte Springs ,FL,32701,United States,407-830-4105,,,,,,
Town Center at Boca Raton,,6000 Glades Road ,,Boca Raton ,FL,33431,United States,561-347-8910,,,,,,
Factory Store - Boynton Beach Mall,,801 North Congress Avenue ,,Boynton Beach ,FL,33426,United States,561-734-5488,,,,,,
Mall of Georgia,,3333 Buford Drive ,,Buford ,GA,30519,United States,678-714-2555,,,,,,
Galleria Centerville,,2922 Watson Blvd ,,Centerville ,GA,31028,United States,478-953-0865,,,,,,
Factory Store - Galleria Centerville,,2922 Watson Boulevard ,,Centerville ,GA,31028,United States,478-953-0865,,,,,,
Factory Store - Peachtree Mall,,3507 Manchester Expwy ,,Columbus ,GA,31909,United States,706-660-0955,,,,,,
Factory Store - Commerce II,,800 Steven B. Tanger Boulevard ,,Commerce ,GA,30529,United States,706-423-9773,,,,,,
Tanger Commerce 2,,800 Steven B. Tanger Blvd ,,Commerce ,GA,30529,United States,706-423-9773,,,,,,
Factory Store - Walnut Square Mall,,2150 East Walnut Avenue ,,Dalton ,GA,30721,United States,706-279-2021,,,,,,
Walnut Square Mall,,2150 East Walnut Ave. ,,Dalton ,GA,30721,United States,706-279-2021,,,,,,
Brandon Town Center,,553 Brandon Town Center Mall ,,Brandon ,FL,33511,United States,813-654-3452,,,,,,
Coral Square Mall,,9501 W. Atlantic Boulevard ,,Coral Springs ,FL,33071,United States,954-340-7229,,,,,,
Factory Store - Southland Mall,,20505 S. Dixie Highway ,,Cutler Bay ,FL,33189,United States,305-251-1133,,,,,,
Factory Store - Volusia Mall,,1700 W. Intl. Speedway Blvd. ,,Daytona Beach ,FL,32114,United States,386-257-5028,,,,,,
Volusia Mall,,1700 West Int Speedway Blvd ,,Daytona Beach ,FL,32114,United States,386-257-5028,,,,,,
Factory Store - Ellenton Premium Outlets,,5109 Factory Shops Boulevard ,,Ellenton ,FL,34222,United States,941-721-6306,,,,,,
Miromar Outlet,,10801 Corkscrew Rd Suite 510 ,,Estero ,FL,33928,United States,239-947-5040,,,,,,
Boise Towne Square,,350 N. Milwaukee ,,Boise ,ID,83704,United States,208-321-0040,,,,,,
Factory Store - Grand Teton Mall,,2300 East 17th Street ,,Idaho Falls ,ID,83404,United States,208-529-2504,,,,,,
Factory Store - North Georgia Premium Outlets,,800 Hwy 400 South ,,Dawsonville ,GA,30534,United States,706-216-3609,,,,,,
North Georgia Premium,,800 Hwy 400 South ,,Dawsonville ,GA,30534,United States,706-344-3957,,,,,,
Factory Store - Arbor Place,,6700 Douglas Boulevard ,,Douglasville ,GA,30135,United States,678-715-0000,,,,,,
Factory Store - Gwinnett Place,,2100 Pleasant Hill Road ,,Duluth ,GA,30096,United States,770-813-1832,,,,,,
Towne Center At Cobb,,400 Earnett Barrett Parkway ,,Kennesaw ,GA,30144,United States,770-422-1958,,,,,,
Locust Grove,,1000 Tanger Drive ,,Locust Grove ,GA,30248,United States,678-583-8736,,,,,,
Factory Store - Southlake Mall,,1206 Southlake Mall ,,Morrow ,GA,30260,United States,678-422-0595,,,,,,
Factory Store - Miromar Outlet,,10801 Corkscrew Road ,,Estero ,FL,33928,United States,239-947-5040,,,,,,
Florida Keys Outlet Center,,250 East Palm Dr. ,,Florida City ,FL,33034,United States,305-246-9630,,,,,,
Factory Store - Prime Outlets Florida City,,250 East Palm Drive ,,Florida City ,FL,33034,United States,305-246-9630,,,,,,
Edison Mall,,4125 Cleveland Avenue ,,Fort Myers ,FL,33901,United States,239-939-3157,,,,,,
The Oaks Mall,,6357 West Newberry Road ,,Gainesville ,FL,32605,United States,352-332-6700,,,,,,
Westland Mall,,1685 W. 49th St ,,Hialeah ,FL,33012,United States,305-824-1811,,,,,,
St John's Town Center,,10281 Midtown Parkway ,,Jacksonville ,FL,32246,United States,904-646-2815,,,,,,
The Avenues,,10300 Southside Boulevard ,,Jacksonville ,FL,32256,United States,904-519-9405,,,,,,
Factory Store - Mt. Berry Square,,32 Mt. Berry Square NE ,,Rome ,GA,30165,United States,706-235-5285,,,,,,
Oglethorpe Mall,,7804 Abercorn Street ,,Savannah ,GA,31406,United States,912-354-6408,,,,,,
The Outlet Shoppes at Atlanta,,915 Ridgewalk Parkway ,,Woodstock ,GA,30188,United States,770-517-2318,,,,,,
Treasure Coast Mall,,3256 Northwest Federal Highway ,,Jensen Beach ,FL,34957,United States,772-692-0355,,,,,,
The Loop,,3220 North John Young Parkway ,,Kissimmee ,FL,34741,United States,407-846-0694,,,,,,
Eagle Ridge,,430 Eagle Ridge Drive ,,Lake Wales ,FL,33859,United States,863-676-9198,,,,,,
Factory Store - Lakeland Square,,3800 US Hwy 98 North ,,Lakeland ,FL,33809,United States,863-859-4934,,,,,,
Factory Store - Merritt Square,,777 East Merritt Island Cswy ,,Merritt Island ,FL,32952,United States,321-453-5141,,,,,,
The Falls,,8888 SW 136th St ,,Miami ,FL,33176,United States,786-573-1930,,,,,,
Dadeland,,7225 Dadeland Mall ,,Miami ,FL,33156,United States,305-661-1054,,,,,,
Factory Store - Dolphin Mall,,11401 North West 12th Street ,,Miami ,FL,33172,United States,305-418-9361,,,,,,
Coastland Center,,1912 Tamiami Trail North ,,Naples ,FL,34102,United States,239-261-2275,,,,,,
Factory Store - Paddock Mall,,3100 College Road ,,Ocala ,FL,34474,United States,352-861-9409,,,,,,
Orange Park,,1910 Wells Road ,,Orange Park ,FL,32073,United States,904-278-6762,,,,,,
Florida Mall,,8001 S. Orange Blossom Trail ,,Orlando ,FL,32809,United States,407-438-4811,,,,,,
Lake Buena Vista,,15555 S. Apopka Vineland Rd ,,Orlando ,FL,32821,United States,407-465-8636,,,,,,
Orlando Premium Outlets,,4975 International Drive ,,Orlando ,FL,32819,United States,407-248-9024,,,,,,
Factory Store - Panama City Mall,,2202 Martin Luther King Jr. Blvd ,,Panama City ,FL,32405,United States,850-522-6996,,,,,,
Pembroke Lakes Mall,,11401 Pines Boulevard ,,Pembroke Pines ,FL,33026,United States,954-432-9213,,,,,,
Cordova Mall,,5100 North Nine Avenue ,,Pensacola ,FL,32504,United States,850-505-9507,,,,,,
Factory Store - Seminole Towne Center,,268 Towne Center Circle ,,Sanford ,FL,32771,United States,407-321-3918,,,,,,
Factory Store - St. Augustine Premium Outlets,,2700 State Road 16 ,,St. Augustine ,FL,32092,United States,904-825-0878,,,,,,
Factory Store - Tyrone Square,,6901 22nd Avenue North ,,St. Petersburg ,FL,33710,United States,727-343-4114,,,,,,
Factory Store - Sawgrass Mills,,12801 West Sunrise Boulevard ,,Sunrise ,FL,33323,United States,954-845-9236,,,,,,
Factory Store - Governor's Square,,1500 Apalachee Parkway ,,Tallahassee ,FL,32301,United States,850-219-0356,,,,,,
Factory Store - University Mall,,2205 University Square Mall ,,Tampa ,FL,33612,United States,813-971-6602,,,,,,
Citrus Park Town Center,,8081 Citrus Park Town Center ,,Tampa ,FL,33625,United States,813-926-4819,,,,,,
Mall at Wellington Green,,10300 West Forest Hill Blvd ,,Wellington ,FL,33414,United States,561-795-5066,,,,,,
Algoniquin Commons,,1904 South Randall Road ,,Algonquin ,IL,60102,United States,847-458-4790,,,,,,
Factory Store - Fox Valley,,2426 Fox Valley Center ,,Aurora ,IL,60504,United States,630-851-6191,,,,,,
Chicago Premium Outlets,,1650 Premium Outlets Boulevard ,,Aurora ,IL,60504,United States,630-585-2308,,,,,,
Factory Store - Stratford Square Mall,,220 Stratford Square ,,Bloomingdale ,IL,60108,United States,630-980-6343,,,,,,
Factory Store - Eastland Mall,,1615 E. Empire Street ,,Bloomington ,IL,61701,United States,309-662-1703,,,,,,
Factory Store - Market Place,,2000 North Neil Street ,,Champaign ,IL,61820,United States,217-352-2567,,,,,,
Water Tower Place,,835 North Michigan Ave ,,Chicago ,IL,60611,United States,312-787-2466,,,,,,
Chicago Ridge Mall,,591 Chicago Ridge Mall ,,Chicago Ridge ,IL,60415,United States,708-422-0403,,,,,,
St. Clair Square,,105 Street Clair Square ,,Fairview Heights ,IL,62208,United States,618-622-3280,,,,,,
Factory Store - Gurnee Mills,,6170 West Grand Avenue ,,Gurnee ,IL,60031,United States,847-855-2626,,,,,,
Gurnee Mills,,6170 W. Grand Ave. ,,Gurnee ,IL,60031,United States,847-855-2626,,,,,,
Louis Joliet,,1118 Mall Loop Drive ,,Joliet ,IL,60431,United States,815-609-8430,,,,,,
Yorktown Mall,,133 Yorktown Center ,,Lombard ,IL,60148,United States,630-889-0509,,,,,,
Harlem Irving Plaza,,4154 E. North Harlem Ave. ,,Norridge ,IL,60706,United States,708-453-0687,,,,,,
Factory Store - North Riverside Park,,7501 West Cermak Road ,,North Riverside ,IL,60546,United States,708-442-6922,,,,,,
North Riverside Park Mall,,7501 Cermak Road ,,North Riverside ,IL,60546,United States,708-442-6922,,,,,,
Orland Square,,240 Orland Square ,,Orland Park ,IL,60462,United States,708-873-9845,,,,,,
Northwoods Mall,,4501 War Memorial Drive ,,Peoria ,IL,61613,United States,309-681-9605,,,,,,
Factory Store - CherryVale Mall,,7200 Harrison Avenue ,,Rockford ,IL,61112,United States,815-332-9010,,,,,,
Fashion Outlets of Chicago,,5220 Rose Street ,,Rosemont ,IL,60018,United States,847-233-9650,,,,,,
Woodfield Mall,,5 Woodfield Mall ,,Schaumburg ,IL,60173,United States,847-995-0521,,,,,,
Factory Store - Hawthorn Center,,707 Hawthorn Center ,,Vernon Hills ,IL,60061,United States,847-549-9548,,,,,,
Factory Store - Spring Hill Mall,,1422 Spring Hill Mall ,,West Dundee ,IL,60118,United States,847-783-4719,,,,,,
Jordan Creek,,101 Jordan Creek Parkway ,,Des Moines ,IA,50266,United States,515-221-0959,,,,,,
Factory Store - Southern Hills,,4400 Sergeant Road ,,Sioux City ,IA,51106,United States,712-276-2570,,,,,,
Factory Store - Valley West Mall,,1551 Valley West Drive ,,West Des Moines ,IA,50266,United States,515-225-2307,,,,,,
Factory Store - Greenwood Mall,,2625 Scottsville Road ,,Bowling Green ,KY,42104,United States,270-746-9502,,,,,,
Factory Store - Florence Mall,,2028 Florence Mall ,,Florence ,KY,41042,United States,859-283-5292,,,,,,
Florence Mall,,2028 Florence Mall ,,Florence ,KY,41042,United States,859-282-7051,,,,,,
Fayette Mall,,3615 Nicholasville Road ,,Lexington ,KY,40503,United States,859-272-0648,,,,,,
Factory Store - Green Tree Mall,,757 East Highway 131 ,,Clarksville ,IN,47129,United States,812-282-2731,,,,,,
Factory Store - Edinburgh Premium Outlets,,11660 North East Executive Drive ,,Edinburgh ,IN,46124,United States,812-526-6241,,,,,,
Edinburgh Premium Outlets,,11660 NE Executive Dr. ,,Edinburgh ,IN,46124,United States,812-526-6241,,,,,,
Eastland Mall,,800 N. Green River Road ,,Evansville ,IN,47715,United States,(812) 473-2944,,,,,,
Factory Store - The Legends at Village West,,1837 Village West Parkway ,,Kansas City ,KS,66111,United States,913-328-1707,,,,,,
The Legends at Village West,,1837 VillageWEst Parkway ,,Kansas City ,KS,66109,United States,913-328-1707,,,,,,
Oak Park Mall,,11401 West 95th Street ,,Overland Park ,KS,66214,United States,913-599-5025,,,,,,
Factory Store - Towne East Square,,7700 E. Kellogg Drive Suite 745 ,,Wichita ,KS,67207,United States,316-612-1100,,,,,,
The Mall at St. Matthews,,5000 Shelbyville Road ,,Louisville ,KY,40207,United States,502-895-9050,,,,,,
Jefferson Mall,,4801 Outer Loop Road ,,Louisville ,KY,40219,United States,502-962-4766,,,,,,
The Outlet Shoppes of the Blue Grass,,1155 Buck Creek Road ,,Simpsonville ,KY,40067,United States,502-772-8011,,,,,,
Glenbrook Square Mall,,4201 Coldwater Road ,,Fort Wayne ,IN,46805,United States,260-482-8200,,,,,,
Greenwood Park Mall,,1251 US 31 North ,,Indianapolis ,IN,46142,United States,317-882-3770,,,,,,
Factory Store - Circle Centre Mall,,49 West Maryland Street ,,Indianapolis ,IN,46225,United States,317-631-1725,,,,,,
Castleton Square,,6020 East 82nd Street ,,Indianapolis ,IN,46250,United States,317-841-2800,,,,,,
Factory Store - Markland Mall,,1207 South Reed Road ,,Kokomo ,IN,46902,United States,765-457-9840,,,,,,
Tippecanoe Mall,,2415 Sagamore Parkway South ,,Lafayette ,IN,47905,United States,765-447-6353,,,,,,
Southlake Mall,,2141 Southlake Mall Drive ,,Merrillville ,IN,46410,United States,219- 791-0386,,,,,,
Towne East Square,,7700 E. Kellogg Drive Suite 745 ,,Wichita ,KS,67207,United States,316-612-9430,,,,,,
Bangor Mall,,663 Stillwater Avenue ,,Bangor ,ME,04401,United States,207-990-0470,,,,,,
Factory Store - The Maine Outlet,,375 US Route 1 ,,Kittery ,ME,03904,United States,207-439-6548,,,,,,
The Maine Outlet,,345 US Route 1 ,,Kittery ,ME,03904,United States,207-451-9400,,,,,,
Maine Mall,,224 Maine Mall ,,South Portland ,ME,04106,United States,207-541-2671,,,,,,
Factory Store - Lighthouse Place Premium Outlets,,815 Lighhouse Place ,,Michigan City ,IN,46360,United States,219-879-2753,,,,,,
University Park Mall,,6501 North Grape Road ,,Mishawaka ,IN,46545,United States,574-272-9160,,,,,,
Factory Store - Muncie Mall,,3501 North Granville Avenue ,,Muncie ,IN,47303,United States,765-287-9341,,,,,,
Hamilton Town Center,,13976 Town Center Blvd ,,Noblesville ,IN,46060,United States,317-773-7515,,,,,,
Factory Store - Alexandria Mall,,3437 Masonic Drive ,,Alexandria ,LA,71301,United States,318-443-9389,,,,,,
Mall of Louisiana,,6401 Blue Bonnet Boulevard ,,Baton Rouge ,LA,70836,United States,225-766-6291,,,,,,
Factory Store - Pierre Bossier,,2950 East Texas Street ,,Bossier ,LA,71111,United States,318-746-4614,,,,,,
Factory Store - Gonzales Outlet Center,,2400 Tanger Boulevard ,,Gonzales ,LA,70737,United States,225-644-5804,,,,,,
Gonzales Outlet Center,,2400 Tanger Blvd ,,Gonzales ,LA,70737,United States,225-644-5804,,,,,,
Oakwood Center,,197-33 W. Bank Expressway ,,Gretna ,LA,70056,United States,504-362-2253,,,,,,
Factory Store - Southland Mall,,5953 West Park Avenue ,,Houma ,LA,70364,United States,985-876-0352,,,,,,
Acadiana Mall,,5725 Johnston Street ,,Lafayette ,LA,70503,United States,337-988-3669,,,,,,
Prien Lake Mall,,616 West Prien Lake Mall ,,Lake Charles ,LA,70601,United States,337-474-2157,,,,,,
Lakeside Mall,,3301 Veterans Memorial Boulevard ,,Metairie ,LA,70002,United States,504-835-7780,,,,,,
White Marsh,,8200 Perry Hall Boulevard ,,Baltimore ,MD,21236,United States,410-931-3595,,,,,,
Montgomery Mall,,7101 Democracy Blvd ,,Bethesda ,MD,20817,United States,301-365-2682,,,,,,
Columbia Mall,,10300 Little Patuxent Parkway ,,Columbia ,MD,21044,United States,410-772-3950,,,,,,
Factory Store - Francis Scott Key,,5500 Buckyestown Pike ,,Frederick ,MD,21703,United States,240-379-6732,,,,,,
Factory Store - Lakeforest Mall,,701 Russell Avenue ,,Gaithersburg ,MD,20877,United States,240-631-2184,,,,,,
Factory Store - Hagerstown Premium Outlets,,495 Prime Outlets Boulevard ,,Hagerstown ,MD,21740,United States,301-393-9160,,,,,,
Factory Store - Valley Mall,,17301 Valley Mall Road ,,Hagerstown ,MD,21740,United States,301-582-6227,,,,,,
Factory Store - Arundel Mills,,7000 Arundel Mills Circle ,,Hanover ,MD,21076,United States,443-755-1680,,,,,,
Queenstown Premium Outlets,,416 Outlet Center Drive ,,Queenstown ,MD,21658,United States,410-827-9444,,,,,,
Factory Store - Center at Salisbury,,2300 N. Salisbury Boulevard ,,Salisbury ,MD,21801,United States,410-572-8610,,,,,,
Factory Store - Wheaton Mall,,11160 Veirs Mill Road ,,Silver Spring ,MD,20902,United States,301-946-0181,,,,,,
Towson Town Center,,825 Dulaney Valley Road ,,Towson ,MD,21204,United States,410-825-8008,,,,,,
Factory Store - St. Charles Towne Center,,5000 Route 301 South ,,Waldorf ,MD,20603,United States,301-705-8002,,,,,,
St. Charles Towne Center,,11110 Mall Circle ,,Waldorf ,MD,20603,United States,301-705-8002,,,,,,
Edgewater Mall,,2600 Beach Boulevard ,,Biloxi ,MS,39531,United States,228-385-2511,,,,,,
Gulfport Premium Outlets,,10310 Factory Shops Blvd ,,Gulfport ,MS,39503,United States,228-868-0242,,,,,,
Factory Store - Prime Outlets Gulfport,,10310 Factory Shops Boulevard ,,Gulfport ,MS,39503,United States,228-868-0242,,,,,,
Factory Store - Turtle Creek Mall,,1000 Turtle Creek Drive ,,Hattiesburg ,MS,39402,United States,601-261-0497,,,,,,
Briarwood Mall,,266 Briarwood Circle ,,Ann Arbor ,MI,48108,United States,734-302-4323,,,,,,
Factory Store - Great Lakes Crossing,,4532 Baldwin Road ,,Auburn Hills ,MI,48326,United States,248-335-9030,,,,,,
Factory Store - Birch Run Premium Outlets,,12140 South Beyer Road ,,Birch Run ,MI,48415,United States,989-624-7221,,,,,,
Factory Store - Northpark,,1200 East County Line Road ,,Ridgeland ,MS,39157,United States,601-977-0144,,,,,,
Genesee Valley Center,,3231 South Linden Road ,,Flint ,MI,48507,United States,810-732-0541,,,,,,
Rivertown Crossing,,3700 Rivertown Parkway SW ,,Grandville ,MI,49418,United States,616-534-0761,,,,,,
Factory Store - Lansing Mall,,5318 W. Saginaw Avenue ,,Lansing ,MI,48917,United States,517-323-3637,,,,,,
Twelve Oaks Mall,,27688 Novi Road ,,Novi ,MI,48377,United States,248-347-7810,,,,,,
Factory Store - Meridian Mall,,1982 East Grand River Avenue ,,Okemos ,MI,48864,United States,517-349-6681,,,,,,
Crossroads Mall,,6650 South Westnedge ,,Portage ,MI,49024,United States,269-327-7900,,,,,,
Factory Store - Fashion Square Mall,,4691 Fashion Square Mall ,,Saginaw ,MI,48604,United States,989-797-4253,,,,,,
Factory Store - Albertville  Premium Outlets,,6415 Labeaux Avenue ,,Albertville ,MN,55301,United States,763-497-1911,,,,,,
Outlet Center at Albertville,,6415 Labeaux Avenue ,,Albertville ,MN,55301,United States,763-494-4952,,,,,,
Mall of America,,267 North Garden ,,Bloomington ,MN,55425,United States,952-854-9446,,,,,,
Factory Store - Auburn Mall,,385 South Bridge Street ,,Auburn ,MA,01501,United States,508-832-5613,,,,,,
South Shore,,250 Granite Street ,,Braintree ,MA,02184,United States,781-843-5200,,,,,,
Factory Store - Westgate Mall,,200 Westgate Drive ,,Brockton ,MA,02301,United States,508-588-6241,,,,,,
Factory Store - Burnsville Center,,1178 Burnsville Center ,,Burnsville ,MN,55306,United States,952-892-6881,,,,,,
Burnsville Center,,2016 Burnsville Center ,,Burnsville ,MN,55306,United States,952-892-6881,,,,,,
Miller Hill,,1600 Miller Trunk Highway ,,Duluth ,MN,55811,United States,218-786-0184,,,,,,
Factory Store - River Hills Mall,,1850 Adams Street ,,Mankato ,MN,56001,United States,507-386-0443,,,,,,
Apache Mall,,333 Apache Mall ,,Rochester ,MN,55901,United States,507-281-3149,,,,,,
Rosedale Shopping Center,,10 Rosedale Center ,,Roseville ,MN,55113,United States,651-633-0114,,,,,,
Crossroads,,4101 W. Division Street ,,St. Cloud ,MN,56301,United States,(320) 229-9080,,,,,,
Cambridgeside Galleria,,100 Cambridgeside Place ,,Cambridge ,MA,02141,United States,617-225-2455,,,,,,
Holyoke Mall,,50 Holyoke Street ,,Holyoke ,MA,01040,United States,413-538-9462,,,,,,
Cape Cod Mall,,769 Iyannough Road ,,Hyannis ,MA,02601,United States,508-778-4762,,,,,,
Lee Premium Outlets,,250 Prime Outlets Blvd ,,Lee ,MA,01238,United States,413-243-1916,,,,,,
Factory Store - Lee Premium Outlets,,250 Premium Outlets Boulevard ,,Lee ,MA,01238,United States,413-243-1916,,,,,,
Solomon Pond,,601 Donald Lynch Boulevard ,,Marlborough ,MA,01752,United States,508-786-0346,,,,,,
Natick Mall,,1245 Worcester Road ,,Natick ,MA,01760,United States,508-653-2555,,,,,,
Emerald Square,,999 S. Washington Street ,,North Attleboro ,MA,02760,United States,508-643-0650,,,,,,
Factory Store - North Dartmouth Mall,,137 N. Dartmouth Mall ,,North Dartmouth ,MA,02747,United States,508-992-3042,,,,,,
Northshore Mall,,210 Andover Street ,,Peabody ,MA,01960,United States,978-538-5371,,,,,,
Square One Mall,,1201 Broadway ,,Saugus ,MA,01906,United States,781-941-2981,,,,,,
Factory Store - Eastfield Mall,,1655 Boston Road ,,Springfield ,MA,01129,United States,413-543-4581,,,,,,
Factory Store - Wrentham Village Premium Outlets,,One Premium Outlets Boulevard ,,Wrentham ,MA,02093,United States,508-384-0981,,,,,,
Wrentham Village Premium Outlets,,One Premium Outlets Blvd ,,Wrentham ,MA,02093,United States,508-384-0981,,,,,,
West County Mall,,33 West County Center ,,De Peres ,MO,63131,United States,314-822-1404,,,,,,
Independence Center,,18801 E. 39th Street South ,,Independence ,MO,64057,United States,816-795-0903,,,,,,
South County Mall,,342 South County Cente Way ,,Koch ,MO,63129,United States,314-487-7990,,,,,,
Factory Store - Osage Beach Premium Outlets,,4540 Highway 54 ,,Osage Beach ,MO,65065,United States,573-348-0900,,,,,,
Battlefield Mall,,2825 South Glenstone ,,Springfield ,MO,65804,United States,417-890-1611,,,,,,
Factory Store - South County Mall,,342 South County Center Way ,,St. Louis ,MO,63129,United States,314-487-7990,,,,,,
Factory Store - Westroads Mall,,10000 California Street ,,Omaha ,NE,68114,United States,402-393-7602,,,,,,
Mall Of New Hampshire,,1500 South Willow Street ,,Manchester ,NH,03103,United States,603-621-9562,,,,,,
Merrimack Premium Outlets,,80 Premium Outlets Blvd ,,Merrimack ,NH,03054,United States,603-424-6709,,,,,,
Merrimack Premium Outlets,,80 Premium Outlets Blvd. ,,Merrimack ,NH,03054,United States,603-424-6709,,,,,,
Pheasant Lane Mall,,310 Daniel Webster Highway ,,Nashua ,NH,03060,United States,603-888-4410,,,,,,
Fox Run Mall,,50 Fox Run Road ,,Newington ,NH,03801,United States,603-433-1855,,,,,,
The Mall at Rockingham,,99 Rockingham Park Blvd. ,,Salem ,NH,03079,United States,603 893-3020,,,,,,
Factory Store - Meadows Mall,,4300 Meadows Lane ,,Las Vegas ,NV,89107,United States,702-821-1605,,,,,,
Las Vegas Outlet,,7400 Las Vegas Blvd South ,,Las Vegas ,NV,89123,United States,702-759-0129,,,,,,
Factory Store - Las Vegas Outlet Center,,7400 Las Vegas Boulevard South ,,Las Vegas ,NV,89123,United States,702-896-5599,,,,,,
Factory Store - Las Vegas Fashion Outlets,,32100 Las Vegas Blvd. ,,Primm ,NV,89019,United States,702-874-2384,,,,,,
Meadowood Mal,,5330 Meadowood Mall ,,Reno ,NV,89502,United States,775-827-4630,,,,,,
Factory Store - Atlantic City Center,,111B North Michigan Avenue ,,Atlantic City ,NJ,08401,United States,609-343-9926,,,,,,
Bridgewater Commons,,400 Commons Way ,,Bridgewater ,NJ,08807,United States,908-704-0724,,,,,,
Deptford Mall,,300 North Almonesson Road ,,Deptford ,NJ,08096,United States,856-384-8293,,,,,,
Factory Store - Brunswick Square,,755 Street Highway 18 ,,East Brunswick ,NJ,08816,United States,732-613-1469,,,,,,
Monmouth Mall,,Routes 35 & 36 ,,Eatontown ,NJ,07724,United States,732-389-3919,,,,,,
Menlo Park Mall,,100 Menlo Park Road ,,Edison ,NJ,08837,United States,732-549-0583,,,,,,
Factory Store - The Mill at Jersey Gardens,,651 Kapkowski Road ,,Elizabeth ,NJ,07201,United States,908-353-6988,,,,,,
Freehold Raceway Mall,,3710 Route 9 ,,Freehold ,NJ,07728,United States,732-577-0012,,,,,,
Jackson Premium Outlets,,537 Monmouth Road ,,Jackson ,NJ,08527,United States,732-928-5073,,,,,,
Factory Store - Jackson Premium Outlets,,537 Monmouth Road ,,Jackson ,NJ,08527,United States,732-833-0503,,,,,,
Factory Store - Newport Centre,,30 Mall Drive West ,,Jersey City ,NJ,07310,United States,201-795-0330,,,,,,
Newport Centre,,30-262 Mall Drive West ,,Jersey City ,NJ,07310,United States,201-795-0330,,,,,,
Quaker Bridge Mall,,150 Quaker Bridge Mall ,,Lawrenceville ,NJ,08608,United States,609-275-8524,,,,,,
Factory Store - Livingston Mall,,112 Eisenhower Parkway ,,Livingston ,NJ,07039,United States,973-740-2510,,,,,,
Paramus Park Mall,,700 Paramus Park ,,Paramus ,NJ,07652,United States,201-599-8442,,,,,,
Rockaway Townsquare,,301 Mount Hope Ave ,,Rockaway ,NJ,07866,United States,973-361-4483,,,,,,
Factory Store - Jersey Shore Premium Outlets,,One Premium Outlets Blvd ,,Tinton Falls ,NJ,07753,United States,732-493-3673,,,,,,
Ocean County Mall,,1201 Hooper Avenue ,,Toms River ,NJ,08753,United States,732-244-9399,,,,,,
Factory Store - Cumberland Mall,,3849 South Delsea Drive ,,Vineland ,NJ,08360,United States,856-293-9441,,,,,,
Factory Store - Coronado Center,,6600 Menual Northeast ,,Albuquerque ,NM,87110,United States,505-884-0918,,,,,,
Cottonwood Mall,,10000 Coors Blvd. NW ,,Albuquerque ,NM,87114,United States,505-899-8211,,,,,,
Willowbrook Mall,,1444 Willowbrook Mall ,,Wayne ,NJ,07470,United States,973-785-1527,,,,,,
Factory Store - Woodbridge Center,,260 Woodbridge Center Drive ,,Woodbridge ,NJ,07095,United States,732-634-7877,,,,,,
Factory Store - Cottonwood Mall,,10000 Coors Boulevard NW ,,Albuquerque ,NM,87114,United States,505-899-8211,,,,,,
Animas Valley Mall,,4601 East Main ,,Farmington ,NM,87402,United States,505-325-9129,,,,,,
Crossgates Mall,,120 Washington Avenue Extension ,,Albany ,NY,12203,United States,518-869-1500,,,,,,
Colonie Center,,131 Colonie Center ,,Albany ,NY,12205,United States,518-489-9123,,,,,,
Factory Store - South Shore Mall,,1701 Sunrise Highway ,,Bay Shore ,NY,11706,United States,631-969-9320,,,,,,
Factory Store - The Mall at Bay Plaza,,200 Baychester Avenue ,,Bronx ,NY,10475,United States,718-320-0124,,,,,,
Woodbury Common Premium Outlets,,498 Red Apple Court ,,Central Valley ,NY,10917,United States,845-928-4000,,,,,,
Shoppingtown Mall,,3649 Erie Boulevard East ,,Dewitt ,NY,13214,United States,315-449-0502,,,,,,
Queens Center,,90-15 Queens Boulevard ,,Elmhurst ,NY,11373,United States,718-271-1048,,,,,,
Roosevelt Field Mall,,Old Country Road ,,Garden City ,NY,11530,United States,516-746-4031,,,,,,
Factory Store - Broadway Mall,,879 Broadway Mall ,,Hicksville ,NY,11801,United States,516-827-1499,,,,,,
Factory Store - Oakdale Mall,,601-635 Harry L. Drive Suite 76 ,,Johnson City ,NY,13790,United States,607-797-1426,,,,,,
Oakdale Mall,,601-635 Harry L. Drive ,,Johnson City ,NY,13790,United States,607-797-1426,,,,,,
Factory Store - Hudson Valley Mall,,1300 Ulster Ave ,,Kingston ,NY,12401,United States,845-336-5293,,,,,,
Smith Haven Mall,,148 Smith Haven Mall ,,Lake Grove ,NY,11755,United States,631-979-6916,,,,,,
Factory Store - Sunrise Mall,,100 Sunrise Mall ,,Massapequa ,NY,11758,United States,516-795-6275,,,,,,
Galleria At Crystal Run,,1 Galleria Drive ,,Middletown ,NY,10940,United States,845-692-0441,,,,,,
Manhattan Mall,,901 6th Avenue ,,New York ,NY,10001,United States,212-239-5201,,,,,,
Factory Store - Fashion Outlets of Niagara Falls,,1672 Military Road ,,Niagara Falls ,NY,14304,United States,716-298-8140,,,,,,
Poughkeepsie Galleria,,2001 South Road ,,Poughkeepsie ,NY,12601,United States,845-298-1573,,,,,,
Factory Store - Tanger Outlet Riverhead,,1770 West Main Street ,,Riverhead ,NY,11901,United States,631-208-3112,,,,,,
Factory Store - The Mall at Greece Ridge,,Ridge & Long Pond Road ,,Rochester ,NY,14626,United States,585-723-1670,,,,,,
Factory Store - Marketplace Mall,,3400 West Henrietta Road ,,Rochester ,NY,14623,United States,585-475-0710,,,,,,
The Mall at Greece Ridge,,458 Greece Center Drive ,,Rochester ,NY,14626,United States,585-723-1670,,,,,,
Staten Island Mall,,2655 Richmond Avenue ,,Staten Island ,NY,10314,United States,718-698-7407,,,,,,
Destiny USA,,1 Destiny USA Drive ,,Syracuse ,NY,13204,United States,315-422-1972,,,,,,
Factory Store - Green Acres Mall,,1005 Green Acres Mall ,,Valley Stream ,NY,11581,United States,516-599-3108,,,,,,
Green Acres Mall,,1048 Green Acres Mall ,,Valley Stream ,NY,11581,United States,516-599-3108,,,,,,
Eastview Mall,,782 Eastview Mall ,,Victor ,NY,14564,United States,585-425-0467,,,,,,
Factory Store - Waterloo Premium Outlets,,655 Route 318 ,,Waterloo ,NY,13165,United States,315-539-4533,,,,,,
Palisades Center,,2452 Palisades Center Drive ,,West Nyack ,NY,10994,United States,845-358-2087,,,,,,
Factory Store - Galleria at White Plains,,100 Main Street ,,White Plains ,NY,10601,United States,914-681-7110,,,,,,
Factory Store - Cross County Mall,,31 Mall Walk ,,Yonkers ,NY,10704,United States,914- 969-0863,,,,,,
Cross County Mall,,5110 Xavier Drive ,,Yonkers ,NY,10704,United States,914-969-0860,,,,,,
Jefferson Valley Mall,,650 Lee Boulevard ,,Yorktown Heights ,NY,10598,United States,914-245-0207,,,,,,
Randolph Mall,,345 Randolph Mall ,,Asheboro ,NC,27203,United States,336-625-1474,,,,,,
Factory Store - Randolph Mall,,345 East Dixie Drive ,,Asheboro ,NC,27203,United States,336-625-1474,,,,,,
Charlotte Premium Outlets,,5512 New Fashion Way ,,Charlotte ,NC,28217,United States,704-583-0612,,,,,,
Carolina Place,,11025 Carolina Place Parkway ,,Charlotte ,NC,28134,United States,704-541-9733,,,,,,
Northlake Mall,,6801 Northlake Mall Drive ,,Charlotte ,NC,28216,United States,704-598-3077,,,,,,
Factory Store - Concord Mills,,8111 Concord Mills Boulevard ,,Concord ,NC,28027,United States,(704)979-0193,,,,,,
Factory Store - Carolina Mall,,1408 Concord Parkway North ,,Concord ,NC,28025,United States,704-788-6900,,,,,,
Concord Mills,,8111 Concord Mills Boulevard ,,Concord ,NC,28027,United States,704-979-0193,,,,,,
Carolina Mall,,1480 Concord Parkway North ,,Concord ,NC,28025,United States,704-788-6900,,,,,,
Factory Store - Northgate Mall,,1058 W. Club Boulevard ,,Durham ,NC,27701,United States,919-286-2992,,,,,,
Streets at Southpoint,,6910 Fayetteville Road ,,Durham ,NC,27713,United States,919-572-9432,,,,,,
Northgate Mall,,1058 W. Club Road ,,Durham ,NC,27701,United States,919-286-2992,,,,,,
Cross Creek Mall,,443 Cross Creek Mall ,,Fayetteville ,NC,28303,United States,910-868-8655,,,,,,
Factory Store - Berkeley Mall,,621A Berkeley Blvd ,,Goldsboro ,NC,27534,United States,919-751-2296,,,,,,
Factory Store - Four Seasons Town Center,,209 Four Seasons Town Centre ,,Greensboro ,NC,27427,United States,336-854-9981,,,,,,
Four Seasons Town Center,,209 Four Seasons Town Cntr ,,Greensboro ,NC,27427,United States,336-854-9981,,,,,,
Factory Store - Greenville Mall,,714 SE Greenville Boulevard ,,Greenville ,NC,27858,United States,252-215-9002,,,,,,
Factory Store - Valley Hills Mall,,1960 Highway 70 South ,,East Hickory ,NC,28602,United States,828-267-7549,,,,,,
Triangle Town Center,,5959 Town Boulevard ,,Raleigh ,NC,27616,United States,919-792-2192,,,,,,
Crabtree Valley,,4325 Glenwood Avenue ,,Raleigh ,NC,27612,United States,919-787-4216,,,,,,
Triangle Town Center,,5959 Triangle Town Boulevard ,,Raleigh ,NC,27616,United States,919-792-2192,,,,,,
Factory Store - Carolina Premium Outlets,,1025 Industrial Park Drive ,,Smithfield ,NC,27577,United States,919-989-8757,,,,,,
Carolina Premium Outlet,,1025 Outlet Center Drive ,,Smithfield ,NC,27577,United States,919-989-0154,,,,,,
Factory Store - Independence Mall,,3500 Oleander Drive ,,Wilmington ,NC,28403,United States,910-792-1332,,,,,,
Hanes Mall,,3320 Silas Creek Parkway ,,Winston Salem ,NC,27103,United States,336-768-1775,,,,,,
Factory Store - Rogue Valley Mall,,1600 North Riverside Avenue ,,Medford ,OR,97501,United States,541-776-9829,,,,,,
Clackamas Town Center,,12000 South East 82nd Avenue ,,Portland ,OR,97266,United States,503-653-5331,,,,,,
Woodburn Company Store,,1001 Arney Road ,,Woodburn ,OR,97071,United States,503-981-1866,,,,,,
Factory Store - Aurora Farms Premium Outlets,,549 S. Chillicothe Road ,,Aurora ,OH,44202,United States,330.995.9644,,,,,,
Aurora Premium Outlets,,549 S. Chillicothe Road ,,Aurora ,OH,44202,United States,330-995-9644,,,,,,
Factory Store - The Mall at Fairfield Commons,,2727 Fairfield Commons Drive ,,Beavercreek ,OH,45431,United States,937-429-2545,,,,,,
Factory Store - Lodi Station Outlet,,9911 Avon Lake Road ,,Burbank ,OH,44214,United States,330-948-3103,,,,,,
Belden Village,,4381 Belden Village Mall ,,Canton ,OH,44718,United States,330-499-3375,,,,,,
Factory Store - Tri-County Mall,,11700 Princeton Pike ,,Cincinnati ,OH,45246,United States,513-671-3160,,,,,,
Kenwood Towne Center,,7875 Montgomery Road ,,Cincinnati ,OH,45236,United States,513-794-1073,,,,,,
Factory Store - Northgate Mall,,9707/9709 Colerain Ave ,,Cincinnati ,OH,45251,United States,513-923-9323,,,,,,
Polaris Fashion Place,,1500 Polaris Parkway ,,Columbus ,OH,43240,United States,614-888-9433,,,,,,
Factory Store - Dayton Mall,,2700 Miamisburg-Centerville Road ,,Dayton ,OH,45459,United States,937-435-8830,,,,,,
Factory Store - Tuttle Crossing,,5043 Tuttle Crossing Boulevard ,,Dublin ,OH,43016,United States,614-336-0541,,,,,,
Tuttle Crossing,,5043 Tuttle Crossing Blvd ,,Dublin ,OH,43016,United States,614-336-0541,,,,,,
Penn Square Mall,,1901 Northwest Expressway ,,Oklahoma City ,OK,73118,United States,405-843-4202,,,,,,
Oklahoma Factory Shops,,7628 W. Reno Ave ,,Oklahoma City ,OK,73127,United States,405-787-8811,,,,,,
Factory Store - Woodland Hills Mall,,7021 South Memorial Srive ,,Tulsa ,OK,74133,United States,918-252-9516,,,,,,
Woodland Hills Mall,,7021 South Memorial Drive ,,Tulsa ,OK,74133,United States,918-252-9516,,,,,,
Factory Store - Lima Mall,,2400 Elida Road ,,Lima ,OH,45805,United States,419-225-9977,,,,,,
Shops at Fallen Timber,,3100 Main Street ,,Maumee ,OH,43537,United States,419-878-0897,,,,,,
Great Lakes Mall,,7850 Mentor Avenue ,,Mentor ,OH,44060,United States,440-255-5722,,,,,,
Factory Store - Cincinnati Premium Outlets,,874 Premium Outlet Drive ,,Monroe ,OH,45050,United States,513-539-7785,,,,,,
Factory Store - Great Northern Mall,,4954 Great Northern Boulevard ,,North Olmstead ,OH,44070,United States,440-777-6777,,,,,,
Factory Store - Sandusky Mall,,4314 Milan Road ,,Sandusky ,OH,44870,United States,419-621-7986,,,,,,
Southpark Center,,408 Southpark Center ,,Strongsville ,OH,44136,United States,440-878-3934,,,,,,
Franklin Park Mall,,5001 Monroe Street ,,Toledo ,OH,43623,United States,419-473-8762,,,,,,
Factory Store - Logan Valley Mall,,5580 Good Lane ,,Altoona ,PA,16602,United States,814-946-3093,,,,,,
Factory Store - Neshaminy Mall,,622 Neshaminy Mall ,,Bensalem ,PA,19020,United States,215-396-7194,,,,,,
Factory Store - Capital City,,3568 Capital City Mall ,,Camp Hill ,PA,17011,United States,717-612-8443,,,,,,
Mill Creek Mall,,250 Millcreek Mall ,,Erie ,PA,16565,United States,814-864-9138,,,,,,
Factory Store - Prime Retail Grove City,,1911 Leesburg Grove City Road ,,Grove City ,PA,16127,United States,724-748-4952,,,,,,
Prime Retail Grove City,,1911 Leesburg Grove City Rd ,,Grove City ,PA,16127,United States,724-748-4952,,,,,,
Factory Store - Outlets at Hershey,,124 Outlet Square ,,Hershey ,PA,17033,United States,717-533-7435,,,,,,
Factory Store - The Galleria,,500 Industrial Park Road ,,Johnstown ,PA,15904,United States,814-266-3003,,,,,,
The Plaza at King of Prussia,,160 N. Gulph Road ,,King of Prussia ,PA,19406,United States,610-265-7219,,,,,,
Park City Center,,220 Park City Center ,,Lancaster ,PA,17601,United States,717-390-4865,,,,,,
Tanger Outlets Lancaster,,905 Stanley K Tanger Blvd ,,Lancaster ,PA,17602,United States,717-393-2247,,,,,,
Oxford Valley Mall,,2300 East Lincoln Highway ,,Langhorne ,PA,19047,United States,215-752-3172,,,,,,
Factory Store - Philadelphia Premium Outlets,,18 Lightcap Road ,,Limerick ,PA,19464,United States,610-326-7316,,,,,,
Factory Store - Philadelphia Mills Mall,,1434 Franklin Mills Circle ,,Philadelphia ,PA,19154,United States,215-281-0078,,,,,,
Ross Park Mall,,1000 Ross Park Mall Drive ,,Pittsburgh ,PA,15237,United States,412-364-9316,,,,,,
Philadelphia Premium Outlet,,18 West Lightcap Road ,,Pottstown ,PA,19464,United States,610-326-7316,,,,,,
Viewmont Mall,,38 Viewmont Mall ,,Scranton ,PA,18505,United States,570-346-7290,,,,,,
Mall At Steam Town,,240 The Mall at Steamtown ,,Scranton ,PA,18503,United States,570-343-8832,,,,,,
Factory Store - Susquehanna Mall,,1 Susquehanna Valley Mall Drive ,,Selinsgrove ,PA,17870,United States,570-374-5697,,,,,,
Factory Store - Springfield Mall,,1250 Baltimore Parkway ,,Springfield ,PA,19064,United States,610-328-0100,,,,,,
Factory Store - Stroud Mall,,152 Stroud Road ,,Stroudsburg ,PA,18360,United States,570-424-7446,,,,,,
Factory Store - The Crossings Premium Outlets,,1000 Route 611 ,,Tannersville ,PA,18372,United States,570-620-0811,,,,,,
Factory Store - Uniontown Mall,,1332 Mall Run Road ,,Uniontown ,PA,15401,United States,724-439-1315,,,,,,
Lehigh Valley Mall,,224 Lehigh Valley Mall ,,Whitehall ,PA,18052,United States,610-264-8480,,,,,,
Wyoming Valley Mall,,346 Wyoming Valley Mall ,,Wilkes-Barre ,PA,18702,United States,570-822-2908,,,,,,
Berkshire Mall,,1665 State Hill Road ,,Wyomissing ,PA,19610,United States,610-378-8671,,,,,,
Factory Store - Puerto Rico Premium Outlets,,1 Prime Outlet Boulevard ,,Barceloneta ,PR,00613,United States,787-846-1093,,,,,,
Puerto Rico Premium Outlets,,1 Prime Outlet Bvld ,,Barceloneta ,PR,00612,United States,787-846-1093,,,,,,
Plaza Del Sol,,725 Avenida Principle Oeste ,,Bayamon ,PR,00961,United States,787-778-3810,,,,,,
Las Catalinas Mall,,400 Calle Betances ,,Caguas ,PR,00725-52,United States,787-703-2139,,,,,,
Factory Store - The Outlet at Route 66,,State Road # 3 KM 18.4 ,,Canovanas ,PR,00729,United States,787-256-6411,,,,,,
Factory Store - Plaza Carolina,,65 Infantry and Fragoso ,,Carolina ,PR,00983,United States,787-752-4232,,,,,,
Plaza Del Norte,,506 Trucado ST ,,Hatillo ,PR,00659,United States,787-878-0700,,,,,,
Factory Store - Plaza Isabela,,PR 2 & PR 4494 ,,Isabela ,PR,00662,United States,787-830-3340,,,,,,
Plaza Las Americas,,FD Roosevelt Avenue ,,San Juan ,PR,00936,United States,787-754-5171,,,,,,
Providence Place,,118 Providence Place ,,Providence ,RI,02903,United States,401-270-4120,,,,,,
Warwick Mall,,400 Bald Hill Road ,,Warwick ,RI,02886,United States,401-773-7820,,,,,,
Factory Store - Anderson Mall,,3101 North Main Street ,,Anderson ,SC,29621,United States,864-226-7130,,,,,,
Columbiana Center,,100 Columbiana Circle ,,Columbia ,SC,29212,United States,803-749-2945,,,,,,
Factory Store - Gaffney Premium Outlets,,235 Factory Shops Boulevard ,,Gaffney ,SC,29341,United States,864-488-0404,,,,,,
Haywood Mall,,700 Haywood Mall ,,Greenville ,SC,29607,United States,864-987-7315,,,,,,
Colonial Myrtle Beach,,10177 North Kings Highway ,,Myrtle Beach ,SC,29572,United States,843-361-1704,,,,,,
Factory Store - Myrtle Beach Factory Stores,,4625 Factory Stores Boulevard ,,Myrtle Beach ,SC,29579,United States,843-903-5720,,,,,,
Factory Store - Northwoods Mall,,2150 Northwoods Boulevard N. ,,Charleston ,SC,29406,United States,843-797-7331,,,,,,
Empire Mall,,1230 Empire Mall ,,Sioux Falls ,SD,57106,United States,605-323-2660,,,,,,
Hamilton Place,,2100 Hamitlon Place Boulevard ,,Chattanooga ,TN,37421,United States,423-894-9009,,,,,,
Governor's Square,,2801 Wilma-Rudolph Blvd. ,,Clarksville ,TN,37042,United States,931-552-1050,,,,,,
Coolsprings Galleria,,1800 Galleria Boulevard ,,Franklin ,TN,37067,United States,615-778-2401,,,,,,
Factory Store - RiverGate Mall,,1000 Rivergate Parkway ,,Goodlettsville ,TN,37072,United States,615-859-8012,,,,,,
Factory Store - Old Hickory,,2021 North Highland Avenue ,,Jackson ,TN,38305,United States,731-664-6621,,,,,,
Old Hickory,,2021 North Highland Ave. ,,Jackson ,TN,38305,United States,731-664-6621,,,,,,
Factory Store - Mall At Johnson City,,2011 North Roan Street ,,Johnson City ,TN,37601,United States,423-610-0981,,,,,,
West Town Mall,,7600 Kingston Pike ,,Knoxville ,TN,37919,United States,865-560-0406,,,,,,
Lebanon Premium Outlets,,315 Outlet Viallage Blvd ,,Lebanon ,TN,37090,United States,615-453-0828,,,,,,
Factory Store - The Lebanon Premium Outlets,,315 Outlet Village Boulevard ,,Lebanon ,TN,37090,United States,615-453-0828,,,,,,
Factory Store - Oak Court,,4465 Poplar Avenue ,,Memphis ,TN,38117,United States,901-767-6304,,,,,,
Wolfchase Galleria,,2760 Germantown Parkway ,,Memphis ,TN,38133,United States,901-266-4494,,,,,,
Factory Store - College Square,,2550 East Morris Boulevard ,,Morristown ,TN,37813,United States,423-318-2291,,,,,,
Factory Store - Opry Mills,,476 Opry Mills Drive ,,Nashville ,TN,37214,United States,615-514-2680,,,,,,
Opry Mills Mall,,433 Opry Mills Drive ,,Nashville ,TN,37214,United States,615-678-0801,,,,,,
Factory Store - Tanger Outlet Sevierville,,1645 Parkway Suite ,,Sevierville ,TN,37862,United States,865-428-0105,,,,,,
Layton Hills Mall,,2008 Layton Hills Mall ,,Layton ,UT,84041,United States,801-546-0741,,,,,,
Fashion Place,,6191 South State Street ,,Murray ,UT,84107,United States,801-281-0452,,,,,,
Factory Store - Newgate Mall,,3651 Wall Avenue ,,Ogden ,UT,84405,United States,801-621-1644,,,,,,
Tanger Outlet Park City,,6699 North Landmark Drive ,,Park City ,UT,84098,United States,435-655-3580,,,,,,
Factory Store - Provo Towne Centre,,1200 Towne Centre Boulevard ,,Provo ,UT,84601,United States,801-494-0875,,,,,,
Factory Store - South Towne Center,,10450 South State Street ,,Sandy ,UT,84070,United States,801-572-7767,,,,,,
Factory Store - Red Cliffs Mall,,1770 E. Red Cliffs Drive ,,St. George ,UT,84790,United States,435-251-8751,,,,,,
Factory Store - Jordan Landing,,7138 South Plaza Center Drive ,,West Jordan ,UT,84084,United States,801-280-0779,,,,,,
Factory Store - Mall of Abilene,,4301 Buffalo Gap Road ,,Abilene ,TX,79606,United States,325-691-0405,,,,,,
Allen Premium Outlets,,820 West Stacy Road ,,Allen ,TX,75013,United States,972-678-4995,,,,,,
Factory Store - Westgate Mall,,7701 West Interstate 40 ,,Amarillo ,TX,79121,United States,806-352-8272,,,,,,
Parks at Arlington,,3811 South Cooper Street ,,Arlington ,TX,76015,United States,817-375-8804,,,,,,
The Domain,,11010 Domain Dr ,,Austin ,TX,78757,United States,512-973-3128,,,,,,
Barton Creek,,2901 Capital of Texas Highway ,,Austin ,TX,78746,United States,512-330-9117,,,,,,
Factory Store - Parkdale Mall,,6155 Eastex Freeway ,,Beaumont ,TX,77706,United States,409-892-1087,,,,,,
Factory Store - Sunrise Mall,,2370 North Express Way ,,Brownsville ,TX,78521,United States,956-504-0877,,,,,,
Sunrise Mall,,2370 North Exp. ,,Brownsville ,TX,78521,United States,956-504-0877,,,,,,
The Outlet Shoppes at El Paso,,7051 South Desert Blvd ,,Canutillo ,TX,79835,United States,915-877-4901,,,,,,
Hillside Village,,305 West FM ,,Cedar Hill ,TX,75104,United States,972-293-8328,,,,,,
Factory Store - Lakeline Mall,,11200 Lakeline Mall Drive ,,Cedar Park ,TX,78613,United States,512-249-5530,,,,,,
Factory Store - Post Oak Mall,,1500 Harvey Road ,,College Station ,TX,77840,United States,979-693-8800,,,,,,
Padre Staples Mall,,5488 S. Padre Island Drive ,,Corpus Christi ,TX,78411,United States,361-991-0418,,,,,,
Dallas Galleria,,13350 Dallas Parkway ,,Dallas ,TX,75240,United States,972-385-9935,,,,,,
Factory Store - Golden Triangle Mall,,2201 I-35E ,,Denton ,TX,76205,United States,940-387-8600,,,,,,
Factory Store - Sunland Park,,750 Sunland Park Drive ,,El Paso ,TX,79912,United States,915-833-3180,,,,,,
Factory Store - Cielo Vista,,8401 Gateway West ,,El Paso ,TX,79925,United States,915-781-0175,,,,,,
Cielo Vista,,8401 Gateway Blvd. ,,El Paso ,TX,79925,United States,915-781-0175,,,,,,
Las Palmas Marketplace,,11917 Gateway West ,,El Paso ,TX,79936,United States,915-594-7923,,,,,,
Factory Store - Hulen Mall,,4800 S Hulen St ,,Fort Worth ,TX,76132,United States,817-423-9988,,,,,,
Baybrook,,1306 Baybrook Mall ,,Friendswood ,TX,77546,United States,281-280-8100,,,,,,
Stonebriar Mall,,2601 Preston Road ,,Frisco ,TX,75034,United States,214-705-1120,,,,,,
Firewheel Town Center,,365 Cedar Sage Drive ,,Garland ,TX,75040,United States,972-496-0680,,,,,,
Paragon Outlets at Grand Prairie,,2950 West Interstate 20 ,,Grand Prairie ,TX,75052,United States,972-602-0581,,,,,,
Factory Store - Grapevine Mills,,3000 Grapevine Mills Parkway ,,Grapevine ,TX,76051,United States,214-513-2000,,,,,,
Factory Store - Valle Vista,,2020 S Expressway 83 ,,Harlingen ,TX,78552,United States,956-440-0051,,,,,,
Valle Vista,,2020 S. Expressway 83 ,,Harlingen ,TX,78552,United States,956-440-0051,,,,,,
Factory Store - Houston Premium Outlets,,29300 Hempstead Road ,,Houston ,TX,77433,United States,281-304-5820,,,,,,
Factory Store - Memorial City Mall,,303 Memorial City Mall ,,Houston ,TX,77027,United States,(713)984-8530,,,,,,
The Galleria,,5085 Westheimer Road ,,Houston ,TX,77056,United States,713-963-8845,,,,,,
Houston Premium Outlet,,29300 Hempstead Road ,,Houston ,TX,77433,United States,281-256-8347,,,,,,
Factory Store - Willowbrook Mall,,2000 Willowbrooke Mall ,,Houston ,TX,77070,United States,281-970-7125,,,,,,
Memorial City Mall,,303 Memorial City Mall ,,Houston ,TX,77027,United States,713-984-8577,,,,,,
Willowbrook Mall,,1028 Willowbrook Mall ,,Houston ,TX,77070,United States,281-970-7125,,,,,,
Factory Store - Deerbrook Mall,,20131 Highway 59 North ,,Humble ,TX,77338,United States,281-548-2812,,,,,,
Northeast Mall,,1001 Melbourne Street ,,Hurst ,TX,76053,United States,817-268-4700,,,,,,
Factory Store - Irving Mall,,3732 Irving Mall Drive ,,Irving ,TX,75062,United States,972-255-3057,,,,,,
Irving Mall,,3732 Irving Mall Dr. ,,Irving ,TX,75062,United States,972-255-3057,,,,,,
Factory Store - Katy Mills Outlet,,5000 Katy Mills Circle ,,Katy ,TX,77494,United States,281-644-4450,,,,,,
Katy Mills,,5000 Katy Mills Circle ,,Katy ,TX,77494,United States,281-574-7305,,,,,,
Mall Del Norte,,5300 South Dario ,,Laredo ,TX,78041,United States,956-717-1088,,,,,,
Factory Store - Mall Del Norte,,5300 San Dario Avenue ,,Laredo ,TX,78041,United States,956-717-1088,,,,,,
Factory Store - Longview Mall,,3500 McCann Road ,,Longview ,TX,75605,United States,903-236-0179,,,,,,
Factory Store - South Plains Mall,,6002 Slide Road ,,Lubbock ,TX,79414,United States,806-788-0711,,,,,,
Factory Store - La Plaza,,2200 S. 10th Street ,,McAllen ,TX,78503,United States,956-972-0057,,,,,,
La Plaza Mall,,2200 S. 10th Street ,,McAllen ,TX,78503,United States,956-972-0073,,,,,,
Rio Grande Premium Outlets,,5001 East Expressway 83 ,,Mercedes ,TX,78570,United States,956-825-7111,,,,,,
Factory Store - Rio Grande Valley  Premium Outlets,,5001 East Expressway 83 ,,Mercedes ,TX,78570,United States,956-565-3900,,,,,,
Factory Store - Town East,,1238 Town East Mall ,,Mesquite ,TX,75150,United States,972-686-2541,,,,,,
Town East Mall,,2063 Town East Mall ,,Mesquite ,TX,75150,United States,972-686-2541,,,,,,
Midland Mall,,4511 N. Midkiff Drive ,,Midland ,TX,79705,United States,432-689-0972,,,,,,
Pearland Town Center,,11200 Broadway ,,Pearland ,TX,77584,United States,713-340-1410,,,,,,
Factory Store - Collin Creek,,811 North Central Expressway ,,Plano ,TX,75075,United States,469-241-0201,,,,,,
Factory Store - Round Rock Premium Outlets,,4401 North IH 35 ,,Round Rock ,TX,78664,United States,512-869-3384,,,,,,
North Star,,7400 San Pedro Avenue ,,San Antonio ,TX,78216,United States,210-377-0231,,,,,,
Rivercenter Mall,,849 East Commerce Street ,,San Antonio ,TX,78205,United States,210-212-6146,,,,,,
Factory Store - Ingram Park Mall,,6301 Northwest Loop 410 ,,San Antonio ,TX,78238,United States,210-521-5979,,,,,,
South Park Mall,,2310 SW Military Drive ,,San Antonio ,TX,78224,United States,210-927-1600,,,,,,
Factory Store - San Marcos Premium Outlets,,3939 IH 35 South ,,San Marcos ,TX,78666,United States,512-392-7793,,,,,,
Southlake Town Center,,251 Grand Avenue ,,Southlake ,TX,76092,United States,817-305-0000,,,,,,
First Colony,,16535 Southwest Freeway ,,Sugarland ,TX,77479,United States,281-242-0567,,,,,,
Factory Store - Tanger Outlet Texas City,,5885 Gulf Freeway ,,Texas City ,TX,77591,United States,281-534-3675,,,,,,
Woodlands Mall,,1201 Lake Woodlands Drive ,,The Woodlands ,TX,77380,United States,281-419-6999,,,,,,
Factory Store - Broadway Square,,4601 South Broadway ,,Tyler ,TX,75703,United States,903-561-2726,,,,,,
Factory Store - Victoria Mall,,7800 North Navarro ,,Victoria ,TX,77904,United States,361-572-0341,,,,,,
Factory Store - Richland Mall,,6001 West Waco Drive ,,Waco ,TX,76710,United States,254-751-7601,,,,,,
Factory Store - Sikes Senter,,3111 Midwestern Parkway ,,Wichita Falls ,TX,76308,United States,940-692-0400,,,,,,
Factory Store - Greenbrier Mall,,1401 Greenbrier Parkway ,,Chesapeake ,VA,23320,United States,757-420-8205,,,,,,
Factory Store - Southpark Mall,,224 South Park Circle ,,Colonial Heights ,VA,23834,United States,804-520-6089,,,,,,
Factory Store - Piedmont Mall,,325 Piedmont Drive ,,Danville ,VA,24540,United States,434-791-4640,,,,,,
Dulles Town Center,,21100 Dulles Town Circle ,,Dulles ,VA,20166,United States,703-404-1800,,,,,,
Leesburg Premium Outlet,,241 Fort Evan Rd NE ,,Leesburg ,VA,20176,United States,703-669-4614,,,,,,
Factory Store - Leesburg Corner Premium Outlets,,241 Fort Evan Road NE ,,Leesburg ,VA,20176,United States,703-737-3071,,,,,,
Tysons Corner Center,,7983 Tysons Corner Center ,,McLean ,VA,22102,United States,703-848-1750,,,,,,
Patrick Henry,,12300 Jefferson Avenue ,,Newport News ,VA,23602,United States,757-249-3821,,,,,,
Factory Store - Potomac Mills Center,,2700 Potomac Mills Circle ,,Prince William ,VA,22192,United States,703-497-4557,,,,,,
Factory Store - Chesterfield Towne Center,,11500 Midlothian Turnpike ,,Richmond ,VA,23235,United States,804-794-5094,,,,,,
Factory Store - Valley View Mall,,4802 Valley View Road ,,Roanoke ,VA,24012,United States,540-366-3486,,,,,,
Valley View Mall,,4802 Valley View Road ,,Roanoke ,VA,24012,United States,540-265-1480,,,,,,
Valley View Mall,,4802 Valley View Road ,,Roanoke ,VA,24012,United States,540-265-8934,,,,,,
Lynnhaven Mall,,701 Lynnhaven Parkway ,,Virginia Beach ,VA,23452,United States,757-463-0232,,,,,,
Factory Store - Prime Outlets at Williamsburg,,5715-E080 Richmond Road ,,Williamsburg ,VA,23188,United States,757-220-5485,,,,,,
Factory Store - Apple Blossom Mall,,1850 Apple Blossom Drive ,,Winchester ,VA,22601,United States,540-662-9240,,,,,,
The Outlet Collection,,1101 Outlet Collection Way ,,Auburn ,WA,98001,United States,253-833-1009,,,,,,
Factory Store - Centralia Outlets,,1322 Lum Road ,,Centralia ,WA,98531,United States,360-736-2841,,,,,,
Columbia Center,,1321 North Columbia Center Blvd ,,Kennewick ,WA,99336,United States,509-735-8589,,,,,,
Factory Store - Spokane Valley Mall,,14700 East Indiana Avenue ,,Spokane ,WA,99216,United States,509-893-1157,,,,,,
Seattle Premium Outlets,,10600 Quil Ceda Boulevard ,,Tulalip ,WA,98271,United States,360-716-2304,,,,,,
Seattle Premium Outlets,,10600 Quil Ceda Blvd. ,,Tulalip ,WA,98271,United States,360-716-2303,,,,,,
Factory Store - Westfield Vancouver Mall,,8700 NE Vancouver Mall Drive ,,Vancouver ,WA,98662,United States,360-896-8216,,,,,,
Valley Mall,,2529 Main Street ,,Yakima ,WA,98903,United States,509-469-1256,,,,,,
Factory Store - Huntington Mall,,Route 60 and Mall Road ,,Barboursville ,WV,25504,United States,304-733-1820,,,,,,
Charlestown Town Center,,2105 Charleston Town Center ,,Charleston ,WV,25389,United States,304-343-0665,,,,,,
Factory Store - Crossroads Mall,,5475 Robert C. Byrd Drive ,,Prosperity ,WV,25909,United States,304-255-3012,,,,,,
Fox River Mall and Plaza,,4301 West Wisconsin Avenue ,,Appleton ,WI,54913,United States,920-749-9204,,,,,,
Brookfield Square,,95 W. Mooreland Road ,,Brookfield ,WI,53005,United States,262-784-5064,,,,,,
Factory Store - Oakwood Mall,,4800 Golf Road ,,Eau Claire ,WI,54701,United States,715-855-0964,,,,,,
Bay Park Square,,303 Bay Park Square ,,Green Bay ,WI,54304,United States,920-494-7470,,,,,,
Southridge Mall,,5300 South 76th Street ,,Greendale ,WI,53129,United States,414-421-4200,,,,,,
Factory Store - Pleasant Prairie Premium Outlets,,11211 120th Avenue ,,Kenosha ,WI,53158,United States,262-857-6536,,,,,,
Factory Store - East Towne Mall,,21 East Towne Mall ,,Madison ,WI,53704,United States,608-244-0305,,,,,,
The Outlet Shoppes at Oshkosh,,3001 South Washburn Street ,,Oshkosh ,WI,54904,United States,920-424-5055,,,,,,
