store_name,store_number,address,address2,city,state,zip_code,country,phone_number,latitude,longitude,store_hours,store_type,other_fields,coming_soon
Florence Mall,2058604070,301 Cox Creek Pkwy,Ste 1306,Florence,AL,35630,US,256-764-0666,34.83611,-87.6309,"MON 10:00 AM-9:00 PM, TUE 10:00 AM-9:00 PM, WED 10:00 AM-9:00 PM, THU 10:00 AM-9:00 PM, FRI 10:00 AM-9:00 PM, SAT 10:00 AM-9:00 PM, SUN 1:00 PM-5:30 PM",,,
The Shoppes at Bel Air,960062704,3216  Bel Air Mall,Ste C15,Mobile,AL,36606,US,251-473-3736,30.6723402749954,-88.1230086681944,"MON 10:00 AM-9:00 PM, TUE 10:00 AM-9:00 PM, WED 10:00 AM-9:00 PM, THU 10:00 AM-9:00 PM, FRI 10:00 AM-9:00 PM, SAT 10:00 AM-9:00 PM, SUN 12:00 PM-5:30 PM",,,
Bridge St Town Centre,2058604067,365 The Bridge St,Ste 117,Huntsville,AL,35806,US,256-327-5458,34.714398733623,-86.673139095445,"MON 10:00 AM-9:00 PM, TUE 10:00 AM-9:00 PM, WED 10:00 AM-9:00 PM, THU 10:00 AM-9:00 PM, FRI 10:00 AM-10:00 PM, SAT 10:00 AM-10:00 PM, SUN 12:00 PM-7:00 PM",,,
Riverchase Galleria,960062699,2000 Riverchase Galleria,Ste 290,Hoover,AL,35244,US,205-987-3725,33.38009,-86.80686,"MON 10:00 AM-9:00 PM, TUE 10:00 AM-9:00 PM, WED 10:00 AM-9:00 PM, THU 10:00 AM-9:00 PM, FRI 10:00 AM-9:00 PM, SAT 10:00 AM-9:00 PM, SUN 12:00 PM-6:00 PM",,,
Parkway Place Mall,960062701,2801 Memorial Pkwy SW,Ste 281,Huntsville,AL,35801,US,256-518-9855,34.70711,-86.58914,"MON 10:00 AM-9:00 PM, TUE 10:00 AM-9:00 PM, WED 10:00 AM-9:00 PM, THU 10:00 AM-9:00 PM, FRI 10:00 AM-9:00 PM, SAT 10:00 AM-9:00 PM, SUN 12:00 PM-6:00 PM",,,
East Chase Center,960062703,6840 Eastchase Pkwy,Ste A120,Montgomery,AL,36117,US,334-356-2205,32.3574660527877,-86.1694856514433,"MON 10:00 AM-9:00 PM, TUE 10:00 AM-9:00 PM, WED 10:00 AM-9:00 PM, THU 10:00 AM-9:00 PM, FRI 10:00 AM-9:00 PM, SAT 10:00 AM-9:00 PM, SUN 1:00 PM-6:00 PM",,,
University Mall,960062700,1701 McFarland Blvd E,Ste 165,Tuscaloosa,AL,35404,US,205-562-0280,33.1953234788673,-87.525926035331,"MON 10:00 AM-9:00 PM, TUE 10:00 AM-9:00 PM, WED 10:00 AM-9:00 PM, THU 10:00 AM-9:00 PM, FRI 10:00 AM-9:00 PM, SAT 10:00 AM-9:00 PM, SUN 1:00 PM-5:30 PM",,,
Park Place,987481766,5870 E Broadway Blvd,Ste 209,Tucson,AZ,85711,US,520-514-9575,32.22151,-110.86712,"MON 10:00 AM-9:00 PM, TUE 10:00 AM-9:00 PM, WED 10:00 AM-9:00 PM, THU 10:00 AM-9:00 PM, FRI 10:00 AM-9:00 PM, SAT 10:00 AM-9:00 PM, SUN 11:00 AM-6:00 PM",,,
Arizona Mills,266958499,5000 S Arizona Mills Circle,Ste 621 SA,Tempe,AZ,85282,US,480-839-1248,33.38485,-111.96697,"MON 10:00 AM-9:00 PM, TUE 10:00 AM-9:00 PM, WED 10:00 AM-9:00 PM, THU 10:00 AM-9:00 PM, FRI 10:00 AM-9:00 PM, SAT 10:00 AM-9:00 PM, SUN 11:00 AM-6:00 PM",,,
Tempe Marketplace,960062995,2000 E Rio Salado Pkwy,Ste 1237,Tempe,AZ,85281,US,480-966-3007,33.42935,-111.90045,"MON 10:00 AM-9:00 PM, TUE 10:00 AM-9:00 PM, WED 10:00 AM-9:00 PM, THU 10:00 AM-9:00 PM, FRI 10:00 AM-9:00 PM, SAT 10:00 AM-9:00 PM, SUN 11:00 AM-6:00 PM",,,
Santan Village,960062996,2200 E Williams Field Rd,Ste 109,Gilbert,AZ,85295,US,480-917-3040,33.30688,-111.74336959596,"MON 10:00 AM-9:00 PM, TUE 10:00 AM-9:00 PM, WED 10:00 AM-9:00 PM, THU 10:00 AM-9:00 PM, FRI 10:00 AM-9:00 PM, SAT 10:00 AM-9:00 PM, SUN 11:00 AM-6:00 PM",,,
Scottsdale Fashion Square,988318585,7014 E  Camelback Rd,Ste 2093,Scottsdale,AZ,85251,US,480-947-4782,33.5023143474222,-111.928940431955,"MON 10:00 AM-9:00 PM, TUE 10:00 AM-9:00 PM, WED 10:00 AM-9:00 PM, THU 10:00 AM-9:00 PM, FRI 10:00 AM-9:00 PM, SAT 10:00 AM-9:00 PM, SUN 11:00 AM-6:00 PM",,,
Scottsdale Quarter,1362415462,15147 N Scottsdale Rd,Ste 175,Scottsdale,AZ,85254,US,480-607-6531,33.6239975,-111.925549130435,"MON 10:00 AM-9:00 PM, TUE 10:00 AM-9:00 PM, WED 10:00 AM-9:00 PM, THU 10:00 AM-9:00 PM, FRI 10:00 AM-9:00 PM, SAT 10:00 AM-9:00 PM, SUN 12:00 PM-6:00 PM",,,
Flagstaff Mall,960062999,4650 N US Highway 89,Ste C14,Flagstaff,AZ,86004,US,928-522-9190,35.2231929,-111.5817908,"MON 10:00 AM-9:00 PM, TUE 10:00 AM-9:00 PM, WED 10:00 AM-9:00 PM, THU 10:00 AM-9:00 PM, FRI 10:00 AM-9:00 PM, SAT 10:00 AM-9:00 PM, SUN 11:00 AM-6:00 PM",,,
The Tucson Mall,960062998,4500 N Oracle Rd,Ste 460,Tucson,AZ,85705,US,520-293-6565,32.2888944594595,-110.978143378378,"MON 10:00 AM-9:00 PM, TUE 10:00 AM-9:00 PM, WED 10:00 AM-9:00 PM, THU 10:00 AM-9:00 PM, FRI 10:00 AM-9:00 PM, SAT 10:00 AM-9:00 PM, SUN 12:00 PM-6:00 PM",,,
Chandler Fashion Center,960062994,3111 W Chandler Blvd,Ste 2182,Chandler,AZ,85226,US,480-726-3906,33.3057113513513,-111.896554864865,"MON 10:00 AM-9:00 PM, TUE 10:00 AM-9:00 PM, WED 10:00 AM-9:00 PM, THU 10:00 AM-9:00 PM, FRI 10:00 AM-9:00 PM, SAT 10:00 AM-9:00 PM, SUN 11:00 AM-6:00 PM",,,
Prescott Gateway,960063000,3250 Gateway Blvd,Ste 266,Prescott,AZ,86303,US,928-778-4955,34.5468241748068,-112.411371279855,"MON 10:00 AM-8:00 PM, TUE 10:00 AM-8:00 PM, WED 10:00 AM-8:00 PM, THU 10:00 AM-8:00 PM, FRI 10:00 AM-9:00 PM, SAT 10:00 AM-9:00 PM, SUN 11:00 AM-6:00 PM",,,
Arrowhead Towne Center,960062997,7700 W Arrowhead Towne Ctr,Ste 2184,Glendale,AZ,85308,US,623-334-4777,33.63964,-112.2246,"MON 10:00 AM-9:00 PM, TUE 10:00 AM-9:00 PM, WED 10:00 AM-9:00 PM, THU 10:00 AM-9:00 PM, FRI 10:00 AM-9:00 PM, SAT 10:00 AM-9:00 PM, SUN 11:00 AM-6:00 PM",,,
Superstition Springs Center,960062993,6555 E Southern Ave,Ste 1310,Mesa,AZ,85206,US,480-654-8600,33.3938862857143,-111.689748857143,"MON 10:00 AM-9:00 PM, TUE 10:00 AM-9:00 PM, WED 10:00 AM-9:00 PM, THU 10:00 AM-9:00 PM, FRI 10:00 AM-9:00 PM, SAT 10:00 AM-9:00 PM, SUN 11:00 AM-6:00 PM",,,
Anchorage 5th Ave Mall,-1527680250,320 W 5th Ave,Ste 210,Anchorage,AK,99501,US,907-274-1034,61.2175679591837,-149.887760408163,"MON 10:00 AM-9:00 PM, TUE 10:00 AM-9:00 PM, WED 10:00 AM-9:00 PM, THU 10:00 AM-9:00 PM, FRI 10:00 AM-9:00 PM, SAT 10:00 AM-9:00 PM, SUN 11:00 AM-6:00 PM",,,
Weberstown Mall,1060360372,4950 Pacific Ave,Ste 221,Stockton,CA,95207,US,,37.9940672463768,-121.313704347826,"MON 10:00 AM-9:00 PM, TUE 10:00 AM-9:00 PM, WED 10:00 AM-9:00 PM, THU 10:00 AM-9:00 PM, FRI 10:00 AM-9:00 PM, SAT 10:00 AM-9:00 PM, SUN 11:00 AM-6:00 PM",,,
Irvine Spectrum Center,960063016,655 Spectrum Center Dr,,Irvine,CA,92618,US,949-585-9521,33.6490314,-117.7449429,"MON 10:00 AM-9:00 PM, TUE 10:00 AM-9:00 PM, WED 10:00 AM-9:00 PM, THU 10:00 AM-9:00 PM, FRI 10:00 AM-10:00 PM, SAT 10:00 AM-10:00 PM, SUN 10:00 AM-8:00 PM",,,
Stoneridge Shopping Center,960063020,2225 Stoneridge Mall Rd,,Pleasanton,CA,94588,US,925-924-0013,37.6960427544663,-121.931979270877,"MON 10:00 AM-9:00 PM, TUE 10:00 AM-9:00 PM, WED 10:00 AM-9:00 PM, THU 10:00 AM-9:00 PM, FRI 10:00 AM-9:00 PM, SAT 10:00 AM-9:00 PM, SUN 11:00 AM-6:00 PM",,,
Westfield Palm Desert,960063014,72840 Highway 111,Ste V423,Palm Desert,CA,92260,US,760-346-1209,33.7216151885385,-116.393943393693,"MON 10:00 AM-8:00 PM, TUE 10:00 AM-8:00 PM, WED 10:00 AM-8:00 PM, THU 10:00 AM-8:00 PM, FRI 10:00 AM-9:00 PM, SAT 10:00 AM-9:00 PM, SUN 11:00 AM-7:00 PM",,,
Conway Commons,526015272,670 Elsinger Blvd,Ste 30,Conway,AR,72032,US,501-504-2022,35.0877720116233,-92.4127093311713,"MON 10:00 AM-9:00 PM, TUE 10:00 AM-9:00 PM, WED 10:00 AM-9:00 PM, THU 10:00 AM-9:00 PM, FRI 10:00 AM-9:00 PM, SAT 10:00 AM-9:00 PM, SUN 12:00 PM-6:00 PM",,,
Pinnacle Hills Promenade,960062903,2203 S Promenade Blvd,Ste 3145,Rogers,AR,72758,US,479-936-8500,36.3052892335716,-94.1790040041691,"MON 10:00 AM-9:00 PM, TUE 10:00 AM-9:00 PM, WED 10:00 AM-9:00 PM, THU 10:00 AM-9:00 PM, FRI 10:00 AM-9:00 PM, SAT 10:00 AM-9:00 PM, SUN 12:00 PM-6:00 PM",,,
Northwest Arkansas Mall,960062902,4201 N Shiloh Dr,Ste 1700,Fayetteville,AR,72703,US,479-444-9558,36.12483,-94.14527,"MON 10:00 AM-9:00 PM, TUE 10:00 AM-9:00 PM, WED 10:00 AM-9:00 PM, THU 10:00 AM-9:00 PM, FRI 10:00 AM-9:00 PM, SAT 10:00 AM-9:00 PM, SUN 12:00 PM-6:00 PM",,,
The Mall @ Turtle Creek,960062901,3000 E Highland Dr,Ste 213,Jonesboro,AR,72401,US,870-935-5818,35.82114,-90.66812,"MON 10:00 AM-9:00 PM, TUE 10:00 AM-9:00 PM, WED 10:00 AM-9:00 PM, THU 10:00 AM-9:00 PM, FRI 10:00 AM-9:00 PM, SAT 10:00 AM-9:00 PM, SUN 12:30 PM-6:00 PM",,,
Central Mall,960062904,5111 Rogers Ave,Ste 142,Fort Smith,AR,72903,US,479-452-7349,35.3637203762791,-94.3746451834162,"MON 10:00 AM-9:00 PM, TUE 10:00 AM-9:00 PM, WED 10:00 AM-9:00 PM, THU 10:00 AM-9:00 PM, FRI 10:00 AM-9:00 PM, SAT 10:00 AM-9:00 PM, SUN 12:00 PM-6:00 PM",,,
Park Plaza,960062900,6000 W Markham St,Ste 3054,Little Rock,AR,72205,US,501-661-0953,34.75219,-92.34113,"MON 10:00 AM-9:00 PM, TUE 10:00 AM-9:00 PM, WED 10:00 AM-9:00 PM, THU 10:00 AM-9:00 PM, FRI 10:00 AM-9:00 PM, SAT 10:00 AM-9:00 PM, SUN 12:00 PM-6:00 PM",,,
Arden Fair Mall,1090017070,1689 Arden Way,Ste 2038,Sacramento,CA,95815,US,916-922-1537,38.5995948979592,-121.426853877551,"MON 10:00 AM-9:00 PM, TUE 10:00 AM-9:00 PM, WED 10:00 AM-9:00 PM, THU 10:00 AM-9:00 PM, FRI 10:00 AM-9:00 PM, SAT 10:00 AM-9:00 PM, SUN 11:00 AM-7:00 PM",,,
Antelope Valley Mall,1897134378,1233 W Rancho Vista Blvd,Ste 1109,Palmdale,CA,93551,US,661-272-8928,34.60185,-118.152343469388,"MON 10:00 AM-9:00 PM, TUE 10:00 AM-9:00 PM, WED 10:00 AM-9:00 PM, THU 10:00 AM-9:00 PM, FRI 10:00 AM-9:00 PM, SAT 10:00 AM-8:00 PM, SUN 11:00 AM-6:00 PM",,,
Valley Plaza Shopping Center,960063017,2701 Ming Ave,Ste 342,Bakersfield,CA,93304,US,661-397-8723,35.33938,-119.033033802817,"MON 10:00 AM-9:00 PM, TUE 10:00 AM-9:00 PM, WED 10:00 AM-9:00 PM, THU 10:00 AM-9:00 PM, FRI 10:00 AM-9:00 PM, SAT 10:00 AM-9:00 PM, SUN 11:00 AM-6:00 PM",,,
Fresno Fashion Fair,960063018,559 E Shaw Ave,Ste D01,Fresno,CA,93710,US,559-222-7215,36.80848,-119.77776625,"MON 10:00 AM-9:00 PM, TUE 10:00 AM-9:00 PM, WED 10:00 AM-9:00 PM, THU 10:00 AM-9:00 PM, FRI 10:00 AM-9:00 PM, SAT 10:00 AM-9:00 PM, SUN 11:00 AM-7:00 PM",,,
Westfield Galleria at Roseville,960063023,1151 Galleria Blvd,Ste 246,Roseville,CA,95678,US,916-788-1011,38.77212,-121.26588,"MON 10:00 AM-9:00 PM, TUE 10:00 AM-9:00 PM, WED 10:00 AM-9:00 PM, THU 10:00 AM-9:00 PM, FRI 10:00 AM-9:00 PM, SAT 10:00 AM-9:00 PM, SUN 11:00 AM-7:00 PM",,,
McCain Mall,960062899,3929 McCain Blvd,Ste 17FA,North Little Rock,AR,72116,US,501-758-7377,34.7902188505747,-92.2269047126437,"MON 10:00 AM-9:00 PM, TUE 10:00 AM-9:00 PM, WED 10:00 AM-9:00 PM, THU 10:00 AM-9:00 PM, FRI 10:00 AM-9:00 PM, SAT 10:00 AM-9:00 PM, SUN 12:00 PM-7:00 PM",,,
Colorado Mills - Closed until further notice,-341455227,14500 W. Colfax Ave,Unit 443,Lakewood,CO,80401,US,303-278-1979,39.73481,-105.15964,"MON 10:00 AM-9:00 PM, TUE 10:00 AM-9:00 PM, WED 10:00 AM-9:00 PM, THU 10:00 AM-9:00 PM, FRI 10:00 AM-9:00 PM, SAT 10:00 AM-9:00 PM, SUN 11:00 AM-6:00 PM",,,
Cherry Creek Shopping Center,1711566550,3000 E 1st Ave,Ste 228,Denver,CO,80206,US,303-355-0083,39.71803,-104.95222,"MON 10:00 AM-9:00 PM, TUE 10:00 AM-9:00 PM, WED 10:00 AM-9:00 PM, THU 10:00 AM-9:00 PM, FRI 10:00 AM-9:00 PM, SAT 10:00 AM-9:00 PM, SUN 11:00 AM-6:00 PM",,,
High Plains Shopping Center,960062968,1305 W Main St,,Sterling,CO,80751,US,970-522-3404,40.6251,-103.231372455117,"MON 9:00 AM-8:00 PM, TUE 9:00 AM-8:00 PM, WED 9:00 AM-8:00 PM, THU 9:00 AM-8:00 PM, FRI 9:00 AM-8:00 PM, SAT 9:00 AM-6:00 PM, SUN 12:00 PM-6:00 PM",,,
Foothills Fashion Mall,960062965,215 E Foothills Pkwy,Ste E11,Fort Collins,CO,80525,US,970-223-6898,40.5433016129032,-105.075994677419,"MON 10:00 AM-8:00 PM, TUE 10:00 AM-8:00 PM, WED 10:00 AM-8:00 PM, THU 10:00 AM-8:00 PM, FRI 10:00 AM-9:00 PM, SAT 10:00 AM-9:00 PM, SUN 11:00 AM-6:00 PM",,,
Northfield Stapleton,960062963,8316 Northfield Blvd,Ste 1650,Denver,CO,80238,US,303-574-0842,39.7852407960125,-104.891698059812,"MON 11:00 AM-8:00 PM, TUE 11:00 AM-8:00 PM, WED 11:00 AM-8:00 PM, THU 11:00 AM-8:00 PM, FRI 10:00 AM-9:00 PM, SAT 10:00 AM-9:00 PM, SUN 11:00 AM-6:00 PM",,,
Vintage Faire Mall,960063021,3401 Dale Rd,Ste 449,Modesto,CA,95356,US,209-527-5121,37.68817,-121.04986,"MON 10:00 AM-9:00 PM, TUE 10:00 AM-9:00 PM, WED 10:00 AM-9:00 PM, THU 10:00 AM-9:00 PM, FRI 10:00 AM-9:00 PM, SAT 10:00 AM-9:00 PM, SUN 11:00 AM-7:00 PM",,,
Chico Mall,960063024,1950 E 20th St,Ste D411,Chico,CA,95928,US,530-343-4215,39.72728,-121.804895,"MON 10:00 AM-9:00 PM, TUE 10:00 AM-9:00 PM, WED 10:00 AM-9:00 PM, THU 10:00 AM-9:00 PM, FRI 10:00 AM-9:00 PM, SAT 10:00 AM-9:00 PM, SUN 12:00 PM-6:00 PM",,,
Santa Rosa Plaza,960063022,2040 Santa Rosa Plz,Ste 2040,Santa Rosa,CA,95401,US,707-566-8084,38.4397625926258,-122.717528180286,"MON 10:00 AM-9:00 PM, TUE 10:00 AM-9:00 PM, WED 10:00 AM-9:00 PM, THU 10:00 AM-9:00 PM, FRI 10:00 AM-9:00 PM, SAT 10:00 AM-8:00 PM, SUN 11:00 AM-6:00 PM",,,
Mount Shasta Mall,960063025,900 Dana Dr,Ste D1,Redding,CA,96003,US,530-722-0664,40.58639,-122.35713,"MON 10:00 AM-9:00 PM, TUE 10:00 AM-9:00 PM, WED 10:00 AM-9:00 PM, THU 10:00 AM-9:00 PM, FRI 10:00 AM-9:00 PM, SAT 10:00 AM-9:00 PM, SUN 11:00 AM-6:00 PM",,,
Parkway Plaza,960063012,479 Parkway Plz,,El Cajon,CA,92020,US,619-441-9028,32.8071890909091,-116.9674,"MON 10:00 AM-9:00 PM, TUE 10:00 AM-9:00 PM, WED 10:00 AM-9:00 PM, THU 10:00 AM-9:00 PM, FRI 10:00 AM-9:00 PM, SAT 10:00 AM-9:00 PM, SUN 11:00 AM-7:00 PM",,,
The Promenade in Temecula,960063015,40820 Winchester Rd,Ste 1220,Temecula,CA,92591,US,951-719-3232,33.5255847169811,-117.15883490566,"MON 10:00 AM-9:00 PM, TUE 10:00 AM-9:00 PM, WED 10:00 AM-9:00 PM, THU 10:00 AM-9:00 PM, FRI 10:00 AM-9:00 PM, SAT 10:00 AM-9:00 PM, SUN 11:00 AM-7:00 PM",,,
Greeley Mall,960062967,1964 Greeley Mall,Ste 30,Greeley,CO,80631,US,970-353-7066,40.3899804081633,-104.708849591837,"MON 10:00 AM-9:00 PM, TUE 10:00 AM-9:00 PM, WED 10:00 AM-9:00 PM, THU 10:00 AM-9:00 PM, FRI 10:00 AM-9:00 PM, SAT 10:00 AM-9:00 PM, SUN 12:00 PM-6:00 PM",,,
Pueblo Mall,960062971,3523 Dillon Dr,G-15,Pueblo,CO,81008,US,719-543-1717,38.305946376684,-104.606825122021,"MON 10:00 AM-9:00 PM, TUE 10:00 AM-9:00 PM, WED 10:00 AM-9:00 PM, THU 10:00 AM-9:00 PM, FRI 10:00 AM-9:00 PM, SAT 10:00 AM-9:00 PM, SUN 11:00 AM-6:00 PM",,,
Mesa Mall,960062972,2424 Highway 6 and 50,,Grand Junction,CO,81505,US,970-257-1885,39.0951733,-108.6034802,"MON 10:00 AM-9:00 PM, TUE 10:00 AM-9:00 PM, WED 10:00 AM-9:00 PM, THU 10:00 AM-9:00 PM, FRI 10:00 AM-9:00 PM, SAT 10:00 AM-9:00 PM, SUN 11:00 AM-6:00 PM",,,
The Citadel,960062969,750 Citadel Dr E,Ste 2226A,Colorado Springs,CO,80909,US,719-574-9227,38.8435946737312,-104.7588,"MON 10:00 AM-9:00 PM, TUE 10:00 AM-9:00 PM, WED 10:00 AM-9:00 PM, THU 10:00 AM-9:00 PM, FRI 10:00 AM-9:00 PM, SAT 10:00 AM-9:00 PM, SUN 11:00 AM-6:00 PM",,,
Park Meadows Center,960062962,8505 Park Meadows Center Dr,Ste 2048,Littleton,CO,80124,US,303-706-9217,39.5606546543385,-104.879319123754,"MON 10:00 AM-9:00 PM, TUE 10:00 AM-9:00 PM, WED 10:00 AM-9:00 PM, THU 10:00 AM-9:00 PM, FRI 10:00 AM-9:00 PM, SAT 10:00 AM-9:00 PM, SUN 11:00 AM-6:00 PM",,,
Chapel Hills Mall,960062970,1710 Briargate Blvd,Ste 415,Colorado Springs,CO,80920,US,719-598-2518,38.945206410353,-104.795783957245,"MON 10:00 AM-9:00 PM, TUE 10:00 AM-9:00 PM, WED 10:00 AM-9:00 PM, THU 10:00 AM-9:00 PM, FRI 10:00 AM-9:00 PM, SAT 10:00 AM-9:00 PM, SUN 11:00 AM-6:00 PM",,,
Victoria Gardens,978777307,12553 N Mainstreet,,Rancho Cucamonga,CA,91739,US,909-646-7133,34.11209,-117.53111,"MON 10:00 AM-9:00 PM, TUE 10:00 AM-9:00 PM, WED 10:00 AM-9:00 PM, THU 10:00 AM-9:00 PM, FRI 10:00 AM-10:00 PM, SAT 10:00 AM-10:00 PM, SUN 11:00 AM-7:00 PM",,,
Flat Iron Crossing,960062960,1 W Flatiron Dr,Ste 1084,Broomfield,CO,80021,US,720-887-6242,39.9299,-105.13091,"MON 10:00 AM-9:00 PM, TUE 10:00 AM-9:00 PM, WED 10:00 AM-9:00 PM, THU 10:00 AM-9:00 PM, FRI 10:00 AM-9:00 PM, SAT 10:00 AM-9:00 PM, SUN 11:00 AM-6:00 PM",,,
Southwest Plaza,960062961,8501 W Bowles Ave,Ste 2055,Littleton,CO,80123,US,303-904-8000,39.60983,-105.09463,"MON 10:00 AM-9:00 PM, TUE 10:00 AM-9:00 PM, WED 10:00 AM-9:00 PM, THU 10:00 AM-9:00 PM, FRI 10:00 AM-9:00 PM, SAT 10:00 AM-9:00 PM, SUN 11:00 AM-6:00 PM",,,
The Promenade Shops @ Centerra,960062966,5897 Sky Pond Dr,Ste 124,Loveland,CO,80538,US,970-613-1122,40.4107055519044,-104.987697118596,"MON 10:00 AM-9:00 PM, TUE 10:00 AM-9:00 PM, WED 10:00 AM-9:00 PM, THU 10:00 AM-9:00 PM, FRI 10:00 AM-9:00 PM, SAT 10:00 AM-9:00 PM, SUN 11:00 AM-6:00 PM",,,
Oglethorpe Mall,983186205,7804 Abercorn St,Ste 25,Savannah,GA,31406,US,912-351-2455,32.0059705798227,-81.1162880744377,"MON 10:00 AM-9:00 PM, TUE 10:00 AM-9:00 PM, WED 10:00 AM-9:00 PM, THU 10:00 AM-9:00 PM, FRI 10:00 AM-9:00 PM, SAT 10:00 AM-9:00 PM, SUN 12:00 PM-6:00 PM",,,
The Shoppes at River Crossing,1303396524,5080 Riverside Dr,Ste 320,Macon,GA,31210,US,478-405-6117,32.9294865217391,-83.713902826087,"MON 10:00 AM-9:00 PM, TUE 10:00 AM-9:00 PM, WED 10:00 AM-9:00 PM, THU 10:00 AM-9:00 PM, FRI 10:00 AM-9:00 PM, SAT 10:00 AM-9:00 PM, SUN 12:00 PM-6:00 PM",,,
Valdosta Mall,2067190390,1702 Norman Dr,Ste 1210,Valdosta,GA,31601,US,229-671-9890,30.841691297939,-83.318873358615,"MON 10:00 AM-9:00 PM, TUE 10:00 AM-9:00 PM, WED 10:00 AM-9:00 PM, THU 10:00 AM-9:00 PM, FRI 10:00 AM-9:00 PM, SAT 10:00 AM-9:00 PM, SUN 1:00 PM-6:00 PM",,,
Cumberland Mall,-1494223418,2860 Cumberland Mall SE,Ste 1321,Atlanta,GA,30339,US,770-805-9769,33.88075,-84.47206,"MON 10:00 AM-9:00 PM, TUE 10:00 AM-9:00 PM, WED 10:00 AM-9:00 PM, THU 10:00 AM-9:00 PM, FRI 10:00 AM-9:00 PM, SAT 10:00 AM-9:00 PM, SUN 12:00 PM-6:00 PM",,,
Mount Berry Square Mall,-1305309742,720 Mount Berry Sq NE,,Rome,GA,30165,US,706-235-1997,34.2606742,-85.1805764,"MON 10:00 AM-9:00 PM, TUE 10:00 AM-9:00 PM, WED 10:00 AM-9:00 PM, THU 10:00 AM-9:00 PM, FRI 10:00 AM-9:00 PM, SAT 10:00 AM-9:00 PM, SUN 12:00 PM-6:00 PM",,,
Augusta Mall,960062681,3450 Wrightsboro Rd,,Augusta,GA,30909,US,706-733-2165,33.4673,-82.0807666666667,"MON 10:00 AM-9:00 PM, TUE 10:00 AM-9:00 PM, WED 10:00 AM-9:00 PM, THU 10:00 AM-9:00 PM, FRI 10:00 AM-9:00 PM, SAT 10:00 AM-9:00 PM, SUN 12:00 PM-6:00 PM",,,
Peachtree Mall,1277198673,3131 Manchester Expy,Ste 10,Columbus,GA,31909,US,706-596-8939,32.50601,-84.94481,"MON 10:00 AM-9:00 PM, TUE 10:00 AM-9:00 PM, WED 10:00 AM-9:00 PM, THU 10:00 AM-9:00 PM, FRI 10:00 AM-9:00 PM, SAT 10:00 AM-9:00 PM, SUN 12:00 PM-6:00 PM",,,
Town Center at Cobb,960062679,400 Ernest Barrett Pkwy,Ste 155,Kennesaw,GA,30144,US,678-354-2223,34.018009,-84.5642654,"MON 10:00 AM-9:00 PM, TUE 10:00 AM-9:00 PM, WED 10:00 AM-9:00 PM, THU 10:00 AM-9:00 PM, FRI 10:00 AM-9:00 PM, SAT 10:00 AM-9:00 PM, SUN 12:00 PM-6:00 PM",,,
Mall of Georgia,960062680,3333 Buford Dr,Ste 2077,Buford,GA,30519,US,678-482-5412,34.06898,-83.98531,"MON 10:00 AM-9:00 PM, TUE 10:00 AM-9:00 PM, WED 10:00 AM-9:00 PM, THU 10:00 AM-9:00 PM, FRI 10:00 AM-9:00 PM, SAT 10:00 AM-9:00 PM, SUN 12:00 PM-6:00 PM",,,
Arbor Place Mall,960062678,6700 Douglas Blvd,Ste 2055,Douglasville,GA,30135,US,770-942-7755,33.7293283467998,-84.7502684496897,"MON 10:00 AM-9:00 PM, TUE 10:00 AM-9:00 PM, WED 10:00 AM-9:00 PM, THU 10:00 AM-9:00 PM, FRI 10:00 AM-9:00 PM, SAT 10:00 AM-9:00 PM, SUN 12:00 PM-6:00 PM",,,
The Village at Meridian,-1204485452,3505 E Monarch Sky Ln,Ste 120,Meridian,ID,83646,US,208-887-2126,43.6210243,-116.3507274,"MON 10:00 AM-9:00 PM, TUE 10:00 AM-9:00 PM, WED 10:00 AM-9:00 PM, THU 10:00 AM-9:00 PM, FRI 10:00 AM-10:00 PM, SAT 10:00 AM-10:00 PM, SUN 11:00 AM-6:00 PM",,,
The Village at Riverstone,960062978,2009 N Main St,,Coeur D Alene,ID,83814,US,208-665-7278,47.6951573469388,-116.806580408163,"MON 10:00 AM-9:00 PM, TUE 10:00 AM-9:00 PM, WED 10:00 AM-9:00 PM, THU 10:00 AM-9:00 PM, FRI 10:00 AM-9:00 PM, SAT 10:00 AM-9:00 PM, SUN 11:00 AM-6:00 PM",,,
Magic Valley Mall,960062975,1485 Pole Line Rd E,Ste 197,Twin Falls,ID,83301,US,208-736-7008,42.5919510294118,-114.455208676471,"MON 10:00 AM-9:00 PM, TUE 10:00 AM-9:00 PM, WED 10:00 AM-9:00 PM, THU 10:00 AM-9:00 PM, FRI 10:00 AM-9:00 PM, SAT 10:00 AM-9:00 PM, SUN 11:00 AM-6:00 PM",,,
Grand Teton Mall,960062976,2300 E 17th St,,Idaho Falls,ID,83404,US,208-522-0410,43.48219,-111.98853,"MON 10:00 AM-9:00 PM, TUE 10:00 AM-9:00 PM, WED 10:00 AM-9:00 PM, THU 10:00 AM-9:00 PM, FRI 10:00 AM-9:00 PM, SAT 10:00 AM-9:00 PM, SUN 12:00 PM-6:00 PM",,,
Palouse Empire Mall,960062979,2006 W Pullman Rd,,Moscow,ID,83843,US,208-882-7356,46.7325212621359,-117.029884174757,"MON 10:00 AM-9:00 PM, TUE 10:00 AM-9:00 PM, WED 10:00 AM-9:00 PM, THU 10:00 AM-9:00 PM, FRI 10:00 AM-9:00 PM, SAT 10:00 AM-9:00 PM, SUN 12:00 PM-6:00 PM",,,
Pine Ridge Mall,960062974,4155 Yellowstone Ave,Ste 1185,Chubbuck,ID,83202,US,208-237-0225,42.9084943926637,-112.46632,"MON 10:00 AM-9:00 PM, TUE 10:00 AM-9:00 PM, WED 10:00 AM-9:00 PM, THU 10:00 AM-9:00 PM, FRI 10:00 AM-9:00 PM, SAT 10:00 AM-9:00 PM, SUN 12:00 PM-5:00 PM",,,
Boise Towne Center,960062977,350 N Milwaukee St,Ste 1089,Boise,ID,83704,US,208-376-3230,43.60831,-116.28406,"MON 10:00 AM-9:00 PM, TUE 10:00 AM-9:00 PM, WED 10:00 AM-9:00 PM, THU 10:00 AM-9:00 PM, FRI 10:00 AM-9:00 PM, SAT 10:00 AM-9:00 PM, SUN 11:00 AM-7:00 PM",,,
Destin Commons,976526022,4108 Legendary Dr,Ste A103,Destin,FL,32541,US,850-269-2684,30.3917899210784,-86.4262509470594,"MON 10:00 AM-9:00 PM, TUE 10:00 AM-9:00 PM, WED 10:00 AM-9:00 PM, THU 10:00 AM-9:00 PM, FRI 10:00 AM-9:00 PM, SAT 10:00 AM-9:00 PM, SUN 11:00 AM-7:00 PM",,,
Treasure Coast Square,987616473,3050 NW Federal Hwy,,Jensen Beach,FL,34957,US,772-692-1933,27.241651627907,-80.2709574418605,"MON 10:00 AM-9:00 PM, TUE 10:00 AM-9:00 PM, WED 10:00 AM-9:00 PM, THU 10:00 AM-9:00 PM, FRI 10:00 AM-9:00 PM, SAT 10:00 AM-9:00 PM, SUN 12:00 PM-6:00 PM",,,
Pier Park,-341455224,15601 Starfish St,Ste 115,Panama City Beach,FL,32413,US,850-230-1771,30.22038,-85.86977,"MON 10:00 AM-10:00 PM, TUE 10:00 AM-10:00 PM, WED 10:00 AM-10:00 PM, THU 10:00 AM-10:00 PM, FRI 10:00 AM-10:00 PM, SAT 10:00 AM-10:00 PM, SUN 10:00 AM-10:00 PM",,,
International Plaza,422446714,2223 N Westshore Blvd,,Tampa,FL,33607,US,813-261-0221,27.9610504556887,-82.5238798481038,"MON 10:00 AM-9:00 PM, TUE 10:00 AM-9:00 PM, WED 10:00 AM-9:00 PM, THU 10:00 AM-9:00 PM, FRI 10:00 AM-9:00 PM, SAT 10:00 AM-9:00 PM, SUN 11:00 AM-6:00 PM",,,
Governor's Square,960062685,1500 Apalachee Pkwy,Ste 1215,Tallahassee,FL,32301,US,850-877-2500,30.43444,-84.25493,"MON 10:00 AM-9:00 PM, TUE 10:00 AM-9:00 PM, WED 10:00 AM-9:00 PM, THU 10:00 AM-9:00 PM, FRI 10:00 AM-9:00 PM, SAT 10:00 AM-9:00 PM, SUN 12:00 PM-6:00 PM",,,
Coastland Center,960062696,1960 Tamiami Trl N,,Naples,FL,34102,US,239-263-3682,26.1711935024448,-81.7994906569107,"MON 10:00 AM-9:00 PM, TUE 10:00 AM-9:00 PM, WED 10:00 AM-9:00 PM, THU 10:00 AM-9:00 PM, FRI 10:00 AM-9:00 PM, SAT 10:00 AM-9:00 PM, SUN 12:00 PM-6:00 PM",,,
Volusia Mall,960062683,1700 W Int'l Speedway Blvd,Ste 562,Daytona Beach,FL,32114,US,386-252-8279,29.1968329,-81.0636192,"MON 10:00 AM-9:00 PM, TUE 10:00 AM-9:00 PM, WED 10:00 AM-9:00 PM, THU 10:00 AM-9:00 PM, FRI 10:00 AM-9:00 PM, SAT 10:00 AM-9:00 PM, SUN 12:00 PM-6:00 PM",,,
Westfield Sarasota Square,960062697,8201 S Tamiami Trl,Ste 76,Sarasota,FL,34238,US,941-925-0458,27.23332,-82.49758,"MON 10:00 AM-9:00 PM, TUE 10:00 AM-9:00 PM, WED 10:00 AM-9:00 PM, THU 10:00 AM-9:00 PM, FRI 10:00 AM-9:00 PM, SAT 10:00 AM-9:00 PM, SUN 12:00 PM-5:30 PM",,,
Westfield Countryside,960062694,27001 US Highway 19 N,Ste 1047,Clearwater,FL,33761,US,727-797-6349,28.0173889,-82.7342675,"MON 10:00 AM-9:00 PM, TUE 10:00 AM-9:00 PM, WED 10:00 AM-9:00 PM, THU 10:00 AM-9:00 PM, FRI 10:00 AM-9:00 PM, SAT 10:00 AM-9:00 PM, SUN 12:00 PM-6:00 PM",,,
Seminole Towne Center,960062690,261 Towne Center Cir,,Sanford,FL,32771,US,407-322-5910,28.8039066666667,-81.3407966666667,"MON 10:00 AM-9:00 PM, TUE 10:00 AM-9:00 PM, WED 10:00 AM-9:00 PM, THU 10:00 AM-9:00 PM, FRI 10:00 AM-9:00 PM, SAT 10:00 AM-9:00 PM, SUN 12:00 PM-6:00 PM",,,
Shops at Wiregrass,1518561000,28211 Paseo Dr,Ste 140 Bldg 9,Wesley Chapel,FL,33543,US,813-973-8112,28.1882889518299,-82.3500323636808,"MON 10:00 AM-9:00 PM, TUE 10:00 AM-9:00 PM, WED 10:00 AM-9:00 PM, THU 10:00 AM-9:00 PM, FRI 10:00 AM-9:00 PM, SAT 10:00 AM-9:00 PM, SUN 12:00 PM-6:00 PM",,,
Panama City Mall,960062686,2258 M L King Jr Blvd,,Panama City,FL,32405,US,850-784-2770,30.1877467,-85.648184,"MON 10:00 AM-9:00 PM, TUE 10:00 AM-9:00 PM, WED 10:00 AM-9:00 PM, THU 10:00 AM-9:00 PM, FRI 10:00 AM-9:00 PM, SAT 10:00 AM-9:00 PM, SUN 12:00 PM-6:00 PM",,,
Altamonte Mall,960062689,451 E Altamonte Dr,Ste 1285,Altamonte Springs,FL,32701,US,407-830-7588,28.6637019671493,-81.3787773281176,"MON 10:00 AM-9:00 PM, TUE 10:00 AM-9:00 PM, WED 10:00 AM-9:00 PM, THU 10:00 AM-9:00 PM, FRI 10:00 AM-9:00 PM, SAT 10:00 AM-9:00 PM, SUN 12:00 PM-6:00 PM",,,
Coconut Point,960062695,23141 Fashion Dr,Ste 101,Estero,FL,33928,US,239-495-7859,26.4028744808701,-81.8068953148015,"MON 10:00 AM-9:00 PM, TUE 10:00 AM-9:00 PM, WED 10:00 AM-9:00 PM, THU 10:00 AM-9:00 PM, FRI 10:00 AM-9:00 PM, SAT 10:00 AM-9:00 PM, SUN 12:00 PM-6:00 PM",,,
Paddock Mall,995727970,3100 SW College Rd,Ste 348A,Ocala,FL,34474,US,352-237-0773,29.1601837322477,-82.1749414102012,"MON 10:00 AM-9:00 PM, TUE 10:00 AM-9:00 PM, WED 10:00 AM-9:00 PM, THU 10:00 AM-9:00 PM, FRI 10:00 AM-9:00 PM, SAT 10:00 AM-9:00 PM, SUN 12:00 PM-5:30 PM",,,
Waterford Lakes Town Center,1115924046,501 N Alafaya Trl,,Orlando,FL,32828,US,407-381-3422,28.5528997459108,-81.20515447253,"MON 10:00 AM-9:00 PM, TUE 10:00 AM-9:00 PM, WED 10:00 AM-9:00 PM, THU 10:00 AM-9:00 PM, FRI 10:00 AM-9:00 PM, SAT 10:00 AM-9:00 PM, SUN 12:00 PM-6:00 PM",,,
The Avenues,1291834961,10300 Southside Blvd,,Jacksonville,FL,32256,US,904-363-0122,30.1821576271186,-81.5517830508474,"MON 10:00 AM-9:00 PM, TUE 10:00 AM-9:00 PM, WED 10:00 AM-9:00 PM, THU 10:00 AM-9:00 PM, FRI 10:00 AM-9:00 PM, SAT 10:00 AM-9:00 PM, SUN 12:00 PM-6:00 PM",,,
The Mall at Millenia,1933490496,4200 Conroy Rd,Ste 109,Orlando,FL,32839,US,407-352-5108,28.4893876344086,-81.4294667741936,"MON 10:00 AM-9:00 PM, TUE 10:00 AM-9:00 PM, WED 10:00 AM-9:00 PM, THU 10:00 AM-9:00 PM, FRI 10:00 AM-9:00 PM, SAT 10:00 AM-9:00 PM, SUN 11:00 AM-7:00 PM",,,
Florida Mall,1048899363,8001 S Orange Blossom Trl,Ste 490,Orlando,FL,32809,US,407-812-5450,28.44983,-81.40083,"MON 10:00 AM-9:00 PM, TUE 10:00 AM-9:00 PM, WED 10:00 AM-9:00 PM, THU 10:00 AM-9:00 PM, FRI 10:00 AM-9:00 PM, SAT 10:00 AM-9:00 PM, SUN 12:00 PM-6:00 PM",,,
Orange Park Mall,960062682,1910 Wells Rd,,Orange Park,FL,32073,US,904-269-8816,30.1868520689655,-81.7360837931035,"MON 10:00 AM-9:00 PM, TUE 10:00 AM-9:00 PM, WED 10:00 AM-9:00 PM, THU 10:00 AM-9:00 PM, FRI 10:00 AM-9:00 PM, SAT 10:00 AM-9:00 PM, SUN 12:00 PM-6:00 PM",,,
Cordova Mall,960062687,5100 N 9th Ave,Ste L1105A,Pensacola,FL,32504,US,850-473-1007,30.474475,-87.211565,"MON 10:00 AM-9:00 PM, TUE 10:00 AM-9:00 PM, WED 10:00 AM-9:00 PM, THU 10:00 AM-9:00 PM, FRI 10:00 AM-9:00 PM, SAT 10:00 AM-9:00 PM, SUN 12:00 PM-6:00 PM",,,
Westfield Citrus Park,960062693,8118 Citrus Park Town Ctr,Ste 1040,Tampa,FL,33625,US,813-926-4349,28.0668591959799,-82.5763140201005,"MON 10:00 AM-9:00 PM, TUE 10:00 AM-9:00 PM, WED 10:00 AM-9:00 PM, THU 10:00 AM-9:00 PM, FRI 10:00 AM-9:00 PM, SAT 10:00 AM-9:00 PM, SUN 12:00 PM-6:00 PM",,,
The Oaks Mall,960062688,6337 W Newberry Rd,,Gainesville,FL,32605,US,352-331-1115,29.65956,-82.4110041509434,"MON 10:00 AM-9:00 PM, TUE 10:00 AM-9:00 PM, WED 10:00 AM-9:00 PM, THU 10:00 AM-9:00 PM, FRI 10:00 AM-9:00 PM, SAT 10:00 AM-9:00 PM, SUN 12:00 PM-6:00 PM",,,
Saint John's Center,960062684,10281 Midtown Pkwy,Ste 151,Jacksonville,FL,32246,US,904-642-9673,30.2580855,-81.526273,"MON 10:00 AM-9:00 PM, TUE 10:00 AM-9:00 PM, WED 10:00 AM-9:00 PM, THU 10:00 AM-9:00 PM, FRI 10:00 AM-9:00 PM, SAT 10:00 AM-9:00 PM, SUN 11:00 AM-6:00 PM",,,
Westfield Brandon,960062691,556 Brandon Town Ctr Mall,,Brandon,FL,33511,US,813-571-7750,27.9291049865808,-82.3231304429508,"MON 10:00 AM-9:00 PM, TUE 10:00 AM-9:00 PM, WED 10:00 AM-9:00 PM, THU 10:00 AM-9:00 PM, FRI 10:00 AM-9:00 PM, SAT 10:00 AM-9:00 PM, SUN 11:00 AM-6:00 PM",,,
Markland Mall,-1204485458,1206 S 17th St,,Kokomo,IN,46902,US,765-868-1101,40.4735985714286,-86.1108712244898,"MON 10:00 AM-9:00 PM, TUE 10:00 AM-9:00 PM, WED 10:00 AM-9:00 PM, THU 10:00 AM-9:00 PM, FRI 10:00 AM-9:00 PM, SAT 10:00 AM-9:00 PM, SUN 12:00 PM-6:00 PM",,,
Hamilton Town Center,960062742,13904 Town Center Blvd,Ste 100,Noblesville,IN,46060,US,317-773-1072,39.9935917326098,-85.9315693098465,"MON 10:00 AM-9:00 PM, TUE 10:00 AM-9:00 PM, WED 10:00 AM-9:00 PM, THU 10:00 AM-9:00 PM, FRI 10:00 AM-9:00 PM, SAT 10:00 AM-9:00 PM, SUN 11:00 AM-6:00 PM",,,
The Shops at Perry Crossing,960062744,2499 Perry Crossing Way,Ste 140,Plainfield,IN,46168,US,317-837-9268,39.7108243,-86.359166,"MON 10:00 AM-9:00 PM, TUE 10:00 AM-9:00 PM, WED 10:00 AM-9:00 PM, THU 10:00 AM-9:00 PM, FRI 10:00 AM-9:00 PM, SAT 10:00 AM-9:00 PM, SUN 12:00 PM-6:00 PM",,,
Southlake Mall,960062746,2168 Southlake Mall,Ste 528,Merrillville,IN,46410,US,219-736-2102,41.47045,-87.3102199827458,"MON 10:00 AM-9:00 PM, TUE 10:00 AM-9:00 PM, WED 10:00 AM-9:00 PM, THU 10:00 AM-9:00 PM, FRI 10:00 AM-9:00 PM, SAT 10:00 AM-9:00 PM, SUN 11:00 AM-6:00 PM",,,
Glenbrook Square,960062749,4201 Coldwater Rd,Ste L7,Fort Wayne,IN,46805,US,260-471-1959,41.1159110062325,-85.1352414388152,"MON 10:00 AM-9:00 PM, TUE 10:00 AM-9:00 PM, WED 10:00 AM-9:00 PM, THU 10:00 AM-9:00 PM, FRI 10:00 AM-9:00 PM, SAT 10:00 AM-9:00 PM, SUN 11:00 AM-6:00 PM",,,
Eastland Mall,960062753,800 N Green River Rd,Ste 71,Evansville,IN,47715,US,812-476-5881,37.9841832833641,-87.4926783338432,"MON 10:00 AM-9:00 PM, TUE 10:00 AM-9:00 PM, WED 10:00 AM-9:00 PM, THU 10:00 AM-9:00 PM, FRI 10:00 AM-9:00 PM, SAT 10:00 AM-9:00 PM, SUN 12:00 PM-6:00 PM",,,
Green Tree Mall,960062750,757 E Lewis and Clark Pkwy,Ste 524,Clarksville,IN,47129,US,812-284-4760,38.314988,-85.7637073,"MON 10:00 AM-9:00 PM, TUE 10:00 AM-9:00 PM, WED 10:00 AM-9:00 PM, THU 10:00 AM-9:00 PM, FRI 10:00 AM-9:00 PM, SAT 10:00 AM-9:00 PM, SUN 12:00 PM-6:00 PM",,,
Castleton Square,960062745,6020 East 82nd St,,Indianapolis,IN,46250,US,317-849-2883,39.9053525044117,-86.0640920985327,"MON 10:00 AM-9:00 PM, TUE 10:00 AM-9:00 PM, WED 10:00 AM-9:00 PM, THU 10:00 AM-9:00 PM, FRI 10:00 AM-9:00 PM, SAT 10:00 AM-9:00 PM, SUN 11:00 AM-8:00 PM",,,
University Park Mall,960062747,6501 Grape Rd,Ste 120A,Mishawaka,IN,46545,US,574-273-1721,41.71943,-86.18775,"MON 10:00 AM-9:00 PM, TUE 10:00 AM-9:00 PM, WED 10:00 AM-9:00 PM, THU 10:00 AM-9:00 PM, FRI 10:00 AM-9:00 PM, SAT 10:00 AM-9:00 PM, SUN 11:00 AM-6:00 PM",,,
Muncie Mall,960062751,3501 N Granville Ave,,Muncie,IN,47303,US,765-741-9990,40.2214000479369,-85.3728167456311,"MON 10:00 AM-9:00 PM, TUE 10:00 AM-9:00 PM, WED 10:00 AM-9:00 PM, THU 10:00 AM-9:00 PM, FRI 10:00 AM-9:00 PM, SAT 10:00 AM-9:00 PM, SUN 12:00 PM-6:00 PM",,,
Honey Creek Mall,960062754,3401 S US Highway 41,Ste D1B,Terre Haute,IN,47802,US,812-234-6092,39.4221186,-87.413392,"MON 10:00 AM-9:00 PM, TUE 10:00 AM-9:00 PM, WED 10:00 AM-9:00 PM, THU 10:00 AM-9:00 PM, FRI 10:00 AM-9:00 PM, SAT 10:00 AM-9:00 PM, SUN 12:00 PM-6:00 PM",,,
College Mall,960062752,3040 E 3rd St,,Bloomington,IN,47401,US,812-323-7141,39.16421,-86.49422,"MON 10:00 AM-9:00 PM, TUE 10:00 AM-9:00 PM, WED 10:00 AM-9:00 PM, THU 10:00 AM-9:00 PM, FRI 10:00 AM-9:00 PM, SAT 10:00 AM-9:00 PM, SUN 12:00 PM-6:00 PM",,,
Yorktown Shopping Center,960062830,203 Yorktown Shopping Ctr,Ste 364,Lombard,IL,60148,US,630-424-2876,41.8398107035176,-88.0107079396985,"MON 10:00 AM-9:00 PM, TUE 10:00 AM-9:00 PM, WED 10:00 AM-9:00 PM, THU 10:00 AM-9:00 PM, FRI 10:00 AM-9:00 PM, SAT 10:00 AM-9:00 PM, SUN 11:00 AM-6:00 PM",,,
Deer Park Town Center,1253862027,20530 N. Rand Rd,Ste 232,Deer Park,IL,60010,US,847-438-6432,42.16231,-88.05303,"MON 10:00 AM-9:00 PM, TUE 10:00 AM-9:00 PM, WED 10:00 AM-9:00 PM, THU 10:00 AM-9:00 PM, FRI 10:00 AM-9:00 PM, SAT 10:00 AM-9:00 PM, SUN 12:00 PM-5:00 PM",,,
Louis Joliet Mall,1261741598,3340 Mall Loop Dr,Ste 1048,Joliet,IL,60431,US,815-436-2159,41.5794696666667,-88.1653213333333,"MON 10:00 AM-9:00 PM, TUE 10:00 AM-9:00 PM, WED 10:00 AM-9:00 PM, THU 10:00 AM-9:00 PM, FRI 10:00 AM-9:00 PM, SAT 10:00 AM-9:00 PM, SUN 11:00 AM-6:00 PM",,,
Gurnee Mills,2020126632,6170  Grand Ave,Ste 745,Gurnee,IL,60031,US,847-856-8208,42.3833817171717,-87.9553782828283,"MON 10:00 AM-9:00 PM, TUE 10:00 AM-9:00 PM, WED 10:00 AM-9:00 PM, THU 10:00 AM-9:00 PM, FRI 10:00 AM-9:00 PM, SAT 10:00 AM-9:30 PM, SUN 11:00 AM-7:00 PM",,,
University Mall,960062843,1237 E Main St,Ste 1000,Carbondale,IL,62901,US,618-457-3349,37.7310815982625,-89.1919327165193,"MON 10:00 AM-9:00 PM, TUE 10:00 AM-9:00 PM, WED 10:00 AM-9:00 PM, THU 10:00 AM-9:00 PM, FRI 10:00 AM-9:00 PM, SAT 10:00 AM-9:00 PM, SUN 12:00 PM-5:00 PM",,,
Greenwood Park Mall,960062743,1251 US Highway 31 N,Ste D4A,Greenwood,IN,46142,US,317-889-0950,39.6329483,-86.120412,"MON 10:00 AM-9:00 PM, TUE 10:00 AM-9:00 PM, WED 10:00 AM-9:00 PM, THU 10:00 AM-9:00 PM, FRI 10:00 AM-9:00 PM, SAT 10:00 AM-9:00 PM, SUN 12:00 PM-6:00 PM",,,
Tippecanoe Mall,960062755,2415 Sagamore Pkwy S,Ste C05B,Lafayette,IN,47905,US,765-449-8566,40.392485934006,-86.8540044663063,"MON 10:00 AM-9:00 PM, TUE 10:00 AM-9:00 PM, WED 10:00 AM-9:00 PM, THU 10:00 AM-9:00 PM, FRI 10:00 AM-9:00 PM, SAT 10:00 AM-9:00 PM, SUN 12:00 PM-6:00 PM",,,
Jefferson Pointe,960062748,4120 W Jefferson Blvd,Ste H7,Fort Wayne,IN,46804,US,260-459-7644,41.0704815504874,-85.1945134416958,"MON 10:00 AM-9:00 PM, TUE 10:00 AM-9:00 PM, WED 10:00 AM-9:00 PM, THU 10:00 AM-9:00 PM, FRI 10:00 AM-9:00 PM, SAT 10:00 AM-9:00 PM, SUN 12:00 PM-5:00 PM",,,
Cherryvale Mall,960062835,7200 Harrison Ave,Ste G69,Rockford,IL,61112,US,815-332-3255,42.24118,-88.97549,"MON 10:00 AM-9:00 PM, TUE 10:00 AM-9:00 PM, WED 10:00 AM-9:00 PM, THU 10:00 AM-9:00 PM, FRI 10:00 AM-9:00 PM, SAT 10:00 AM-9:00 PM, SUN 9:00 AM-9:00 PM",,,
Quincy Mall,960062841,3359 Quincy Mall,,Quincy,IL,62301,US,217-223-0228,39.9357912121212,-91.3624212121212,"MON 10:00 AM-9:00 PM, TUE 10:00 AM-9:00 PM, WED 10:00 AM-9:00 PM, THU 10:00 AM-9:00 PM, FRI 10:00 AM-9:00 PM, SAT 10:00 AM-9:00 PM, SUN 12:00 PM-5:00 PM",,,
Northwoods Mall,960062837,2200 W War Memorial Dr,Ste BU02,Peoria,IL,61613,US,309-682-5633,40.7401622803438,-89.6259533792188,"MON 10:00 AM-9:00 PM, TUE 10:00 AM-9:00 PM, WED 10:00 AM-9:00 PM, THU 10:00 AM-9:00 PM, FRI 10:00 AM-9:00 PM, SAT 10:00 AM-9:00 PM, SUN 11:00 AM-6:00 PM",,,
Saint Clair Square,960062840,204 Saint Clair Sq,,Fairview Heights,IL,62208,US,618-632-0198,38.5979715471443,-89.9784740138492,"MON 10:00 AM-9:00 PM, TUE 10:00 AM-9:00 PM, WED 10:00 AM-9:00 PM, THU 10:00 AM-9:00 PM, FRI 10:00 AM-9:00 PM, SAT 10:00 AM-9:00 PM, SUN 11:00 AM-7:00 PM",,,
Market Place Shopping Center,960062839,2000 N Neil St,Ste. 150,Champaign,IL,61820,US,217-356-5053,40.13998,-88.2449,"MON 10:00 AM-9:00 PM, TUE 10:00 AM-9:00 PM, WED 10:00 AM-9:00 PM, THU 10:00 AM-9:00 PM, FRI 10:00 AM-9:00 PM, SAT 10:00 AM-9:00 PM, SUN 11:00 AM-6:00 PM",,,
Northfield Square,960062834,1602 N State Route 50,Ste 128,Bourbonnais,IL,60914,US,815-932-6860,41.1760792,-87.8485771,"MON 10:00 AM-9:00 PM, TUE 10:00 AM-9:00 PM, WED 10:00 AM-9:00 PM, THU 10:00 AM-9:00 PM, FRI 10:00 AM-9:00 PM, SAT 10:00 AM-9:00 PM, SUN 11:00 AM-6:00 PM",,,
Legends Outlet Kansas City,960062857,1837 Village West Pkwy,Ste B105,Kansas City,KS,66111,US,913-334-9655,39.1254426651847,-94.8291226651847,"MON 10:00 AM-9:00 PM, TUE 10:00 AM-9:00 PM, WED 10:00 AM-9:00 PM, THU 10:00 AM-9:00 PM, FRI 10:00 AM-9:00 PM, SAT 10:00 AM-9:00 PM, SUN 11:00 AM-6:00 PM",,,
Towne East Square,960062864,7700 E Kellogg Dr,Ste R6,Wichita,KS,67207,US,316-687-3552,37.67974,-97.24816,"MON 10:00 AM-9:00 PM, TUE 10:00 AM-9:00 PM, WED 10:00 AM-9:00 PM, THU 10:00 AM-9:00 PM, FRI 10:00 AM-9:00 PM, SAT 10:00 AM-9:00 PM, SUN 12:00 PM-6:00 PM",,,
Big Creek Crossing,960062869,2918 Vine St,Ste 300,Hays,KS,67601,US,785-625-4624,38.889472195122,-99.3177578048781,"MON 10:00 AM-9:00 PM, TUE 10:00 AM-9:00 PM, WED 10:00 AM-9:00 PM, THU 10:00 AM-9:00 PM, FRI 10:00 AM-9:00 PM, SAT 10:00 AM-9:00 PM, SUN 11:00 AM-6:00 PM",,,
Central Mall,960062866,2259 S 9th St,Ste 50,Salina,KS,67401,US,785-825-1753,38.8016029983758,-97.6126992855486,"MON 10:00 AM-9:00 PM, TUE 10:00 AM-9:00 PM, WED 10:00 AM-9:00 PM, THU 10:00 AM-9:00 PM, FRI 10:00 AM-9:00 PM, SAT 10:00 AM-9:00 PM, SUN 12:00 PM-6:00 PM",,,
Downtown,960062868,1313 Main St,,Great Bend,KS,67530,US,620-793-9338,38.3645773536665,-98.76513,"MON 9:00 AM-7:00 PM, TUE 9:00 AM-7:00 PM, WED 9:00 AM-7:00 PM, THU 9:00 AM-9:00 PM, FRI 9:00 AM-7:00 PM, SAT 9:00 AM-6:00 PM, SUN 1:00 PM-5:00 PM",,,
White Oaks Mall,960062842,2501 Wabash Ave,Ste 211,Springfield,IL,62704,US,217-793-9137,39.76418,-89.70375,"MON 10:00 AM-9:00 PM, TUE 10:00 AM-9:00 PM, WED 10:00 AM-9:00 PM, THU 10:00 AM-9:00 PM, FRI 10:00 AM-9:00 PM, SAT 10:00 AM-9:00 PM, SUN 11:00 AM-7:00 PM",,,
Peru Mall,960062836,3940 Route 251,Ste B14,Peru,IL,61354,US,815-223-7987,41.3554608,-89.1280752,"MON 10:00 AM-9:00 PM, TUE 10:00 AM-9:00 PM, WED 10:00 AM-9:00 PM, THU 10:00 AM-9:00 PM, FRI 10:00 AM-9:00 PM, SAT 10:00 AM-9:00 PM, SUN 11:00 AM-6:00 PM",,,
Orland Square Shopping Center,960062832,524 Orland Sq Dr,Ste E07,Orland Park,IL,60462,US,708-403-7590,41.6205280769231,-87.8444234615385,"MON 10:00 AM-9:00 PM, TUE 10:00 AM-9:00 PM, WED 10:00 AM-9:00 PM, THU 10:00 AM-9:00 PM, FRI 10:00 AM-9:00 PM, SAT 10:00 AM-9:00 PM, SUN 11:00 AM-6:00 PM",,,
Eastland Mall,960062838,1615 E Empire St,Ste B4,Bloomington,IL,61701,US,309-664-6870,40.48814,-88.9563230769231,"MON 10:00 AM-9:00 PM, TUE 10:00 AM-9:00 PM, WED 10:00 AM-9:00 PM, THU 10:00 AM-9:00 PM, FRI 10:00 AM-9:00 PM, SAT 10:00 AM-9:00 PM, SUN 12:00 PM-6:00 PM",,,
Fox Valley Mall,960062833,1260 Fox Valley Ctr Dr,,Aurora,IL,60504,US,630-236-5719,41.7588088474677,-88.2175291956847,"MON 10:00 AM-9:00 PM, TUE 10:00 AM-9:00 PM, WED 10:00 AM-9:00 PM, THU 10:00 AM-9:00 PM, FRI 10:00 AM-9:00 PM, SAT 10:00 AM-9:00 PM, SUN 11:00 AM-6:00 PM",,,
Spring Hill Mall,960062829,1390 Spring Hill Mall,,West Dundee,IL,60118,US,847-844-9486,42.1003934693878,-88.2964673469388,"MON 10:00 AM-9:00 PM, TUE 10:00 AM-9:00 PM, WED 10:00 AM-9:00 PM, THU 10:00 AM-9:00 PM, FRI 10:00 AM-9:00 PM, SAT 10:00 AM-9:00 PM, SUN 12:00 PM-6:00 PM",,,
Downtown in Storm Lake,960062779,521 Lake Ave,,Storm Lake,IA,50588,US,712-732-4316,42.6435365306122,-95.2008559183674,"MON 10:00 AM-7:00 PM, TUE 10:00 AM-7:00 PM, WED 10:00 AM-7:00 PM, THU 10:00 AM-8:00 PM, FRI 10:00 AM-7:00 PM, SAT 9:00 AM-5:30 PM, SUN 12:00 PM-5:00 PM",,,
South Park Mall,960062783,901 11th St SW,,Spencer,IA,51301,US,712-262-8839,43.1269234951903,-95.1556537883727,"MON 10:00 AM-8:00 PM, TUE 10:00 AM-8:00 PM, WED 10:00 AM-8:00 PM, THU 10:00 AM-8:00 PM, FRI 10:00 AM-8:00 PM, SAT 10:00 AM-6:00 PM, SUN 12:00 PM-5:00 PM",,,
CitiPlaza Downtown,960062784,529 N Adams St,,Carroll,IA,51401,US,712-792-5711,42.0652528571429,-94.8690914285714,"MON 10:00 AM-7:00 PM, TUE 10:00 AM-7:00 PM, WED 10:00 AM-7:00 PM, THU 10:00 AM-7:00 PM, FRI 10:00 AM-7:00 PM, SAT 10:00 AM-5:30 PM, SUN 12:00 PM-5:00 PM",,,
Southbridge Mall,960062777,100 S Federal Ave,Ste 106,Mason City,IA,50401,US,641-423-4622,43.151577972973,-93.2011099324324,"MON 10:00 AM-9:00 PM, TUE 10:00 AM-9:00 PM, WED 10:00 AM-9:00 PM, THU 10:00 AM-9:00 PM, FRI 10:00 AM-9:00 PM, SAT 10:00 AM-7:00 PM, SUN 11:00 AM-6:00 PM",,,
Southern Hills Mall,960062782,4400 Sergeant Rd,Ste 408A,Sioux City,IA,51106,US,712-274-7441,42.44815,-96.35026,"MON 10:00 AM-9:00 PM, TUE 10:00 AM-9:00 PM, WED 10:00 AM-9:00 PM, THU 10:00 AM-9:00 PM, FRI 10:00 AM-9:00 PM, SAT 10:00 AM-9:00 PM, SUN 12:00 PM-6:00 PM",,,
Liberal Plaza,960062872,1533 N Kansas Ave,,Liberal,KS,67901,US,620-626-5401,37.0545261902059,-100.922262713392,"MON 10:00 AM-9:00 PM, TUE 10:00 AM-9:00 PM, WED 10:00 AM-9:00 PM, THU 10:00 AM-9:00 PM, FRI 10:00 AM-9:00 PM, SAT 10:00 AM-9:00 PM, SUN 1:00 PM-8:00 PM",,,
Village Square Mall,960062870,2601 Central Ave,,Dodge City,KS,67801,US,620-225-1227,37.7786042424242,-100.016264848485,"MON 10:00 AM-9:00 PM, TUE 10:00 AM-9:00 PM, WED 10:00 AM-9:00 PM, THU 10:00 AM-9:00 PM, FRI 10:00 AM-9:00 PM, SAT 10:00 AM-9:00 PM, SUN 12:00 PM-6:00 PM",,,
Garden City Plaza,960062871,2214 E Kansas Ave,,Garden City,KS,67846,US,620-275-6586,37.9767642857143,-100.845055714286,"MON 10:00 AM-9:00 PM, TUE 10:00 AM-9:00 PM, WED 10:00 AM-9:00 PM, THU 10:00 AM-9:00 PM, FRI 10:00 AM-9:00 PM, SAT 10:00 AM-9:00 PM, SUN 12:00 PM-6:00 PM",,,
Manhattan Town Center,960062860,100 Manhattan Town Ctr,Ste 695,Manhattan,KS,66502,US,785-537-4130,39.17727,-96.55946,"MON 10:00 AM-9:00 PM, TUE 10:00 AM-9:00 PM, WED 10:00 AM-9:00 PM, THU 10:00 AM-9:00 PM, FRI 10:00 AM-9:00 PM, SAT 10:00 AM-9:00 PM, SUN 12:00 PM-6:00 PM",,,
Flinthills Mall,960062863,1682 Industrial Rd,,Emporia,KS,66801,US,620-342-4153,38.4181869798658,-96.2170488590604,"MON 10:00 AM-9:00 PM, TUE 10:00 AM-9:00 PM, WED 10:00 AM-9:00 PM, THU 10:00 AM-9:00 PM, FRI 10:00 AM-9:00 PM, SAT 10:00 AM-9:00 PM, SUN 12:00 PM-6:00 PM",,,
Towne West Square,960062865,4600 W Kellogg Dr,Ste 926,Wichita,KS,67209,US,316-943-7524,37.67367,-97.3955,"MON 10:00 AM-9:00 PM, TUE 10:00 AM-9:00 PM, WED 10:00 AM-9:00 PM, THU 10:00 AM-9:00 PM, FRI 10:00 AM-9:00 PM, SAT 10:00 AM-9:00 PM, SUN 12:00 PM-6:00 PM",,,
Woodfield Mall,960062831,D110 Woodfield Mall,Ste D-110,Schaumburg,IL,60173,US,847-619-0753,42.04937,-88.03944,"MON 10:00 AM-9:00 PM, TUE 10:00 AM-9:00 PM, WED 10:00 AM-9:00 PM, THU 10:00 AM-9:00 PM, FRI 10:00 AM-9:00 PM, SAT 10:00 AM-9:00 PM, SUN 11:00 AM-6:00 PM",,,
Ashland Town Center,2058604069,500 Winchester Ave,Ste 330,Ashland,KY,41101,US,606-324-5300,38.48479,-82.6517,"MON 10:00 AM-9:00 PM, TUE 10:00 AM-9:00 PM, WED 10:00 AM-9:00 PM, THU 10:00 AM-9:00 PM, FRI 10:00 AM-9:00 PM, SAT 10:00 AM-9:00 PM, SUN 12:00 PM-6:00 PM",,,
Mall of Saint Matthews,960062721,5000 Shelbyville Rd,Ste 1685,Louisville,KY,40207,US,502-894-0464,38.25017,-85.62352,"MON 10:00 AM-9:00 PM, TUE 10:00 AM-9:00 PM, WED 10:00 AM-9:00 PM, THU 10:00 AM-9:00 PM, FRI 10:00 AM-9:00 PM, SAT 10:00 AM-9:00 PM, SUN 12:00 PM-6:00 PM",,,
Fayette Mall,960062722,3401 Nicholasville Rd,Ste I916,Lexington,KY,40503,US,859-273-7667,37.99026,-84.52411,"MON 10:00 AM-9:00 PM, TUE 10:00 AM-9:00 PM, WED 10:00 AM-9:00 PM, THU 10:00 AM-9:00 PM, FRI 10:00 AM-9:00 PM, SAT 10:00 AM-9:00 PM, SUN 12:00 PM-6:00 PM",,,
Kentucky Oaks Mall,960062724,5101 Hinkleville Rd,Ste 575,Paducah,KY,42001,US,270-443-0110,37.07743,-88.68427,"MON 10:00 AM-9:00 PM, TUE 10:00 AM-9:00 PM, WED 10:00 AM-9:00 PM, THU 10:00 AM-9:00 PM, FRI 10:00 AM-9:00 PM, SAT 10:00 AM-9:00 PM, SUN 12:00 PM-6:00 PM",,,
Greenwood Mall,960062725,2625 Scottsville Rd,Ste 222,Bowling Green,KY,42104,US,270-843-9174,36.9488477478907,-86.4244714688021,"MON 10:00 AM-9:00 PM, TUE 10:00 AM-9:00 PM, WED 10:00 AM-9:00 PM, THU 10:00 AM-9:00 PM, FRI 10:00 AM-9:00 PM, SAT 10:00 AM-9:00 PM, SUN 12:30 PM-6:00 PM",,,
Florence Mall,960062723,2108 Florence Mall,,Florence,KY,41042,US,859-282-0989,38.9945269629072,-84.652647361789,"MON 10:00 AM-9:00 PM, TUE 10:00 AM-9:00 PM, WED 10:00 AM-9:00 PM, THU 10:00 AM-9:00 PM, FRI 10:00 AM-9:00 PM, SAT 10:00 AM-9:00 PM, SUN 12:00 PM-6:00 PM",,,
Metro Crossing,960062785,3627 Denmark Dr.,Ste 100,Council Bluffs,IA,51501,US,712-328-9414,41.2229890984162,-95.8379151956142,"MON 10:00 AM-9:00 PM, TUE 10:00 AM-9:00 PM, WED 10:00 AM-9:00 PM, THU 10:00 AM-9:00 PM, FRI 10:00 AM-9:00 PM, SAT 10:00 AM-9:00 PM, SUN 12:00 PM-6:00 PM",,,
Northpark Mall,960062791,320 W Kimberly Rd,Ste 36,Davenport,IA,52806,US,563-391-9369,41.5602193939394,-90.5771512121212,"MON 10:00 AM-9:00 PM, TUE 10:00 AM-9:00 PM, WED 10:00 AM-9:00 PM, THU 10:00 AM-9:00 PM, FRI 10:00 AM-9:00 PM, SAT 10:00 AM-9:00 PM, SUN 12:00 PM-6:00 PM",,,
Crossroads Center,960062781,2060 Crossroads Blvd,Ste 227,Waterloo,IA,50702,US,319-232-0455,42.46531,-92.32114,"MON 10:00 AM-9:00 PM, TUE 10:00 AM-9:00 PM, WED 10:00 AM-9:00 PM, THU 10:00 AM-9:00 PM, FRI 10:00 AM-9:00 PM, SAT 10:00 AM-9:00 PM, SUN 12:00 PM-6:00 PM",,,
North Grand Mall,960062774,2801 Grand Ave,,Ames,IA,50010,US,515-233-2000,42.04938,-93.62064,"MON 10:00 AM-9:00 PM, TUE 10:00 AM-9:00 PM, WED 10:00 AM-9:00 PM, THU 10:00 AM-9:00 PM, FRI 10:00 AM-9:00 PM, SAT 10:00 AM-9:00 PM, SUN 12:00 PM-5:00 PM",,,
Meadowbrook Mall,960062862,202 E Centennial Dr,,Pittsburg,KS,66762,US,620-231-0210,37.3818,-94.70368,"MON 10:00 AM-9:00 PM, TUE 10:00 AM-9:00 PM, WED 10:00 AM-9:00 PM, THU 10:00 AM-9:00 PM, FRI 10:00 AM-9:00 PM, SAT 10:00 AM-9:00 PM, SUN 12:00 PM-6:00 PM",,,
Hutchinson Mall,960062867,1500 E 11th Ave,Ste 40,Hutchinson,KS,67501,US,620-665-6668,38.0649,-97.89928,"MON 10:00 AM-9:00 PM, TUE 10:00 AM-9:00 PM, WED 10:00 AM-9:00 PM, THU 10:00 AM-9:00 PM, FRI 10:00 AM-9:00 PM, SAT 10:00 AM-9:00 PM, SUN 11:00 AM-8:00 PM",,,
Westridge Mall,960062861,1801 SW Wanamaker Rd,Ste A07B,Topeka,KS,66604,US,785-273-9363,39.0338184511412,-95.7620457464658,"MON 10:00 AM-9:00 PM, TUE 10:00 AM-9:00 PM, WED 10:00 AM-9:00 PM, THU 10:00 AM-9:00 PM, FRI 10:00 AM-9:00 PM, SAT 10:00 AM-9:00 PM, SUN 12:00 PM-6:00 PM",,,
Oak Park Mall,960062859,11225 W 95th St,,Overland Park,KS,66214,US,913-599-4552,38.95648,-94.7160274626866,"MON 10:00 AM-9:00 PM, TUE 10:00 AM-9:00 PM, WED 10:00 AM-9:00 PM, THU 10:00 AM-9:00 PM, FRI 10:00 AM-9:00 PM, SAT 10:00 AM-9:00 PM, SUN 11:00 AM-6:00 PM",,,
Towne Center Plaza,960062858,5227 W 117th St,,Leawood,KS,66211,US,913-451-7222,38.9164825301205,-94.6464127710843,"MON 10:00 AM-9:00 PM, TUE 10:00 AM-9:00 PM, WED 10:00 AM-9:00 PM, THU 10:00 AM-9:00 PM, FRI 10:00 AM-9:00 PM, SAT 10:00 AM-9:00 PM, SUN 12:00 PM-5:00 PM",,,
Westland Mall,960062790,550 S Gear Ave,Ste 44,West Burlington,IA,52655,US,319-752-8830,40.8215096116505,-91.1699630097087,"MON 10:00 AM-9:00 PM, TUE 10:00 AM-9:00 PM, WED 10:00 AM-9:00 PM, THU 10:00 AM-9:00 PM, FRI 10:00 AM-9:00 PM, SAT 10:00 AM-9:00 PM, SUN 12:00 PM-6:00 PM",,,
Valley West Mall,960062775,1551 Valley West Dr,Ste 113,West Des Moines,IA,50266,US,515-225-3818,41.595493209322,-93.75183,"MON 10:00 AM-9:00 PM, TUE 10:00 AM-9:00 PM, WED 10:00 AM-9:00 PM, THU 10:00 AM-9:00 PM, FRI 10:00 AM-9:00 PM, SAT 10:00 AM-9:00 PM, SUN 11:00 AM-6:00 PM",,,
Kennedy Mall,960062786,555 John F Kennedy Rd,Unit 435,Dubuque,IA,52002,US,563-588-2030,42.4951243028638,-90.7187290467118,"MON 10:00 AM-9:00 PM, TUE 10:00 AM-9:00 PM, WED 10:00 AM-9:00 PM, THU 10:00 AM-9:00 PM, FRI 10:00 AM-9:00 PM, SAT 10:00 AM-9:00 PM, SUN 10:00 AM-6:00 PM",,,
College Square Mall,960062780,6301 University Ave,Ste 1340,Cedar Falls,IA,50613,US,319-266-9155,42.5127706980065,-92.4326724144632,"MON 10:00 AM-9:00 PM, TUE 10:00 AM-9:00 PM, WED 10:00 AM-9:00 PM, THU 10:00 AM-9:00 PM, FRI 10:00 AM-9:00 PM, SAT 10:00 AM-7:00 PM, SUN 12:00 PM-6:00 PM",,,
Lindale Mall,960062788,4444 1st Ave NE,Ste 103,Cedar Rapids,IA,52402,US,319-378-1380,42.0232103546549,-91.6267285813804,"MON 10:00 AM-9:00 PM, TUE 10:00 AM-9:00 PM, WED 10:00 AM-9:00 PM, THU 10:00 AM-9:00 PM, FRI 10:00 AM-9:00 PM, SAT 10:00 AM-9:00 PM, SUN 12:00 PM-6:00 PM",,,
Crossroads Mall,960062778,217 S 25th St,Ste C18,Fort Dodge,IA,50501,US,515-573-1023,42.5040908542714,-94.1630954271357,"MON 10:00 AM-9:00 PM, TUE 10:00 AM-9:00 PM, WED 10:00 AM-9:00 PM, THU 10:00 AM-9:00 PM, FRI 10:00 AM-9:00 PM, SAT 10:00 AM-8:00 PM, SUN 12:00 PM-6:00 PM",,,
Fremaux Town Center,-341455225,770 Town Center Parkway,Ste C200,Slidell,LA,70458,US,985-643-1920,30.268706,-89.7613958,"MON 10:00 AM-9:00 PM, TUE 10:00 AM-9:00 PM, WED 10:00 AM-9:00 PM, THU 10:00 AM-9:00 PM, FRI 10:00 AM-9:00 PM, SAT 10:00 AM-9:00 PM, SUN 11:00 AM-6:00 PM",,,
Alexandria Mall,960062898,3437 Masonic Dr,Ste 1146,Alexandria,LA,71301,US,318-445-0154,31.2799028016465,-92.4630944785182,"MON 10:00 AM-9:00 PM, TUE 10:00 AM-9:00 PM, WED 10:00 AM-9:00 PM, THU 10:00 AM-9:00 PM, FRI 10:00 AM-9:00 PM, SAT 10:00 AM-9:00 PM, SUN 12:00 PM-6:00 PM",,,
Mall of Saint Vincent,960062895,1133 Saint Vincent Ave,Ste 430,Shreveport,LA,71104,US,318-221-7088,32.4798419050651,-93.7528547405022,"MON 10:00 AM-9:00 PM, TUE 10:00 AM-9:00 PM, WED 10:00 AM-9:00 PM, THU 10:00 AM-9:00 PM, FRI 10:00 AM-9:00 PM, SAT 10:00 AM-9:00 PM, SUN 12:00 PM-6:00 PM",,,
Premier Centre,1362415463,3470 Highway  190,Ste 4,Mandeville,LA,70471,US,985-626-4393,30.392461293527,-90.0848557462539,"MON 10:00 AM-9:00 PM, TUE 10:00 AM-9:00 PM, WED 10:00 AM-9:00 PM, THU 10:00 AM-9:00 PM, FRI 10:00 AM-9:00 PM, SAT 10:00 AM-9:00 PM, SUN 12:00 PM-6:00 PM",,,
Pierre Bossier Mall,960062896,2950 E Texas St,Ste 618,Bossier City,LA,71111,US,318-741-0060,32.5286673469388,-93.705912244898,"MON 10:00 AM-9:00 PM, TUE 10:00 AM-9:00 PM, WED 10:00 AM-9:00 PM, THU 10:00 AM-9:00 PM, FRI 10:00 AM-9:00 PM, SAT 10:00 AM-9:00 PM, SUN 12:00 PM-6:00 PM",,,
Coral Ridge Mall,960062787,1451 Coral Ridge Ave,Ste 408,Coralville,IA,52241,US,319-625-2300,41.6912361904762,-91.6084414285714,"MON 10:00 AM-9:00 PM, TUE 10:00 AM-9:00 PM, WED 10:00 AM-9:00 PM, THU 10:00 AM-9:00 PM, FRI 10:00 AM-9:00 PM, SAT 10:00 AM-9:00 PM, SUN 11:00 AM-6:00 PM",,,
Jordan Creek Town Center,960062776,101 Jordan Creek Pkwy,Ste 12130,West Des Moines,IA,50266,US,515-226-1771,41.56849,-93.8092,"MON 10:00 AM-9:00 PM, TUE 10:00 AM-9:00 PM, WED 10:00 AM-9:00 PM, THU 10:00 AM-9:00 PM, FRI 10:00 AM-9:00 PM, SAT 10:00 AM-9:00 PM, SUN 11:00 AM-6:00 PM",,,
Pecanland Mall,960062897,4700 Millhaven Rd,Ste 1532,Monroe,LA,71203,US,318-398-0295,32.500355,-92.060685625,"MON 10:00 AM-9:00 PM, TUE 10:00 AM-9:00 PM, WED 10:00 AM-9:00 PM, THU 10:00 AM-9:00 PM, FRI 10:00 AM-9:00 PM, SAT 10:00 AM-9:00 PM, SUN 12:30 PM-5:30 PM",,,
Mall of Louisiana,960062894,6401 Bluebonnet Blvd,Ste 2108,Baton Rouge,LA,70836,US,225-767-6101,30.3922650439536,-91.0904049560464,"MON 10:00 AM-9:00 PM, TUE 10:00 AM-9:00 PM, WED 10:00 AM-9:00 PM, THU 10:00 AM-9:00 PM, FRI 10:00 AM-9:00 PM, SAT 10:00 AM-9:00 PM, SUN 12:00 PM-6:00 PM",,,
Acadiana Mall,960062892,5725 Johnston St,Ste 176,Lafayette,LA,70503,US,337-981-9016,30.17446603814,-92.078016018458,"MON 10:00 AM-9:00 PM, TUE 10:00 AM-9:00 PM, WED 10:00 AM-9:00 PM, THU 10:00 AM-9:00 PM, FRI 10:00 AM-9:00 PM, SAT 10:00 AM-9:00 PM, SUN 12:00 PM-6:00 PM",,,
Prien Lake Mall,960062893,556 W Prien Lake Rd,,Lake Charles,LA,70601,US,337-477-3997,30.19826,-93.227255,"MON 10:00 AM-9:00 PM, TUE 10:00 AM-9:00 PM, WED 10:00 AM-9:00 PM, THU 10:00 AM-9:00 PM, FRI 10:00 AM-9:00 PM, SAT 10:00 AM-9:00 PM, SUN 12:00 PM-6:00 PM",,,
Lakeside Shopping Center,960062890,3301 Veteran's Pkwy,Ste 61,Metairie,LA,70002,US,504-831-0007,30.00364,-90.15649,"MON 10:00 AM-9:00 PM, TUE 10:00 AM-9:00 PM, WED 10:00 AM-9:00 PM, THU 10:00 AM-9:00 PM, FRI 10:00 AM-9:00 PM, SAT 10:00 AM-9:00 PM, SUN 12:00 PM-6:00 PM",,,
Southland Mall,960062891,5953 W Park Ave,Ste 2049,Houma,LA,70364,US,985-868-4080,29.6338330177412,-90.7580923696316,"MON 10:00 AM-9:00 PM, TUE 10:00 AM-9:00 PM, WED 10:00 AM-9:00 PM, THU 10:00 AM-9:00 PM, FRI 10:00 AM-9:00 PM, SAT 10:00 AM-9:00 PM, SUN 12:00 PM-6:00 PM",,,
Natick Mall,1353834347,1245 Worcester St,Ste 2169,Natick,MA,01760,US,508-651-8720,42.29922,-71.38522,"MON 10:00 AM-9:00 PM, TUE 10:00 AM-9:00 PM, WED 10:00 AM-9:00 PM, THU 10:00 AM-9:00 PM, FRI 10:00 AM-9:00 PM, SAT 10:00 AM-9:00 PM, SUN 12:00 PM-6:00 PM",,,
The Mall in Columbia,960062657,10300 Little Patuxent Pkwy,Ste 2645,Columbia,MD,21044,US,410-884-4370,39.2167634228697,-76.8578803308999,"MON 10:00 AM-9:00 PM, TUE 10:00 AM-9:00 PM, WED 10:00 AM-9:00 PM, THU 10:00 AM-9:00 PM, FRI 10:00 AM-9:00 PM, SAT 10:00 AM-9:00 PM, SUN 12:00 PM-6:00 PM",,,
Westfield Annapolis,960062659,1145 Annapolis Mall,,Annapolis,MD,21401,US,410-266-3338,38.9874223655158,-76.5478952953892,"MON 10:00 AM-9:00 PM, TUE 10:00 AM-9:00 PM, WED 10:00 AM-9:00 PM, THU 10:00 AM-9:00 PM, FRI 10:00 AM-9:00 PM, SAT 10:00 AM-9:00 PM, SUN 11:00 AM-7:00 PM",,,
Great Lakes Crossing Outlets,-341455230,4230 Baldwin Rd,Ste 545,Auburn Hills,MI,48326,US,248-270-9318,42.7014692592593,-83.3065886419753,"MON 10:00 AM-9:00 PM, TUE 10:00 AM-9:00 PM, WED 10:00 AM-9:00 PM, THU 10:00 AM-9:00 PM, FRI 10:00 AM-9:00 PM, SAT 10:00 AM-9:00 PM, SUN 11:00 AM-6:00 PM",,,
Twelve Oaks Mall,994392255,27484 Novi Rd,,Novi,MI,48377,US,248-349-5985,42.4896722183709,-83.4759759618718,"MON 10:00 AM-9:00 PM, TUE 10:00 AM-9:00 PM, WED 10:00 AM-9:00 PM, THU 10:00 AM-9:00 PM, FRI 10:00 AM-9:00 PM, SAT 10:00 AM-9:00 PM, SUN 11:00 AM-6:00 PM",,,
The Village of Rochester Hills,960062759,148 N Adams Rd,,Rochester Hills,MI,48309,US,248-375-0391,42.6823502790217,-83.1940928463956,"MON 10:00 AM-9:00 PM, TUE 10:00 AM-9:00 PM, WED 10:00 AM-9:00 PM, THU 10:00 AM-9:00 PM, FRI 10:00 AM-9:00 PM, SAT 10:00 AM-9:00 PM, SUN 12:00 PM-6:00 PM",,,
Briarwood Mall,960062757,440 Briarwood Cir,,Ann Arbor,MI,48108,US,734-994-1090,42.241415,-83.7422475,"MON 10:00 AM-9:00 PM, TUE 10:00 AM-9:00 PM, WED 10:00 AM-9:00 PM, THU 10:00 AM-9:00 PM, FRI 10:00 AM-9:00 PM, SAT 10:00 AM-9:00 PM, SUN 11:00 AM-6:00 PM",,,
Meridian Mall,960062764,1982 W Grand River Ave,Ste 215,Okemos,MI,48864,US,517-347-1605,42.7209811111111,-84.4216844444444,"MON 10:00 AM-9:00 PM, TUE 10:00 AM-9:00 PM, WED 10:00 AM-9:00 PM, THU 10:00 AM-9:00 PM, FRI 10:00 AM-9:00 PM, SAT 10:00 AM-9:00 PM, SUN 12:00 PM-6:00 PM",,,
Birchwood Mall,960062756,4350 24th Ave,Ste. 534,Fort Gratiot,MI,48059,US,810-385-4105,43.0357085663286,-82.4564435597669,"MON 10:00 AM-9:00 PM, TUE 10:00 AM-9:00 PM, WED 10:00 AM-9:00 PM, THU 10:00 AM-9:00 PM, FRI 10:00 AM-9:00 PM, SAT 10:00 AM-9:00 PM, SUN 10:00 AM-7:00 PM",,,
Midland Mall,960062763,6800 Eastman Ave,Ste 215,Midland,MI,48642,US,989-631-7711,43.6591752631579,-84.2472105263158,"MON 10:00 AM-9:00 PM, TUE 10:00 AM-9:00 PM, WED 10:00 AM-9:00 PM, THU 10:00 AM-9:00 PM, FRI 10:00 AM-9:00 PM, SAT 10:00 AM-9:00 PM, SUN 12:00 PM-6:00 PM",,,
Fashion Square Mall,960062762,4862 Fashion Square Mall,,Saginaw,MI,48604,US,989-797-2484,43.4783,-83.97072,"MON 10:00 AM-9:00 PM, TUE 10:00 AM-9:00 PM, WED 10:00 AM-9:00 PM, THU 10:00 AM-9:00 PM, FRI 10:00 AM-9:00 PM, SAT 10:00 AM-9:00 PM, SUN 12:00 PM-6:00 PM",,,
The Crossroads,960062767,6650 S Westnedge Ave,Ste 239,Portage,MI,49024,US,269-327-8859,42.22097,-85.58945,"MON 10:00 AM-9:00 PM, TUE 10:00 AM-9:00 PM, WED 10:00 AM-9:00 PM, THU 10:00 AM-9:00 PM, FRI 10:00 AM-9:00 PM, SAT 10:00 AM-9:00 PM, SUN 12:00 PM-6:00 PM",,,
Grand Traverse Mall,960062773,3200 S Airport Rd W,Ste 220,Traverse City,MI,49684,US,231-929-9640,44.7235577989735,-85.636159985326,"MON 10:00 AM-9:00 PM, TUE 10:00 AM-9:00 PM, WED 10:00 AM-9:00 PM, THU 10:00 AM-9:00 PM, FRI 10:00 AM-9:00 PM, SAT 10:00 AM-9:00 PM, SUN 12:00 PM-6:00 PM",,,
Lakeview  Square,960062765,5775 Beckley Rd,Ste 229,Battle Creek,MI,49015,US,269-979-9509,42.26105,-85.1824981395349,"MON 10:00 AM-9:00 PM, TUE 10:00 AM-9:00 PM, WED 10:00 AM-9:00 PM, THU 10:00 AM-9:00 PM, FRI 10:00 AM-9:00 PM, SAT 10:00 AM-9:00 PM, SUN 12:00 PM-6:00 PM",,,
Woodland Mall,960062772,3195 28th St SE,H110A,Grand Rapids,MI,49512,US,616-956-0620,42.9125110126582,-85.5884893670886,"MON 10:00 AM-9:00 PM, TUE 10:00 AM-9:00 PM, WED 10:00 AM-9:00 PM, THU 10:00 AM-9:00 PM, FRI 10:00 AM-9:00 PM, SAT 10:00 AM-9:00 PM, SUN 12:00 PM-6:00 PM",,,
Genesee Valley Center,960062761,3375 S Linden Rd,Ste 220,Flint,MI,48507,US,810-732-9130,42.9768,-83.77199,"MON 10:00 AM-9:00 PM, TUE 10:00 AM-9:00 PM, WED 10:00 AM-9:00 PM, THU 10:00 AM-9:00 PM, FRI 10:00 AM-9:00 PM, SAT 10:00 AM-9:00 PM, SUN 12:00 PM-6:00 PM",,,
Rivertown Crossings,960062769,3700 Rivertown Pkwy SW,Ste 2074,Grandville,MI,49418,US,616-261-9170,42.8823,-85.7551882352941,"MON 10:00 AM-9:00 PM, TUE 10:00 AM-9:00 PM, WED 10:00 AM-9:00 PM, THU 10:00 AM-9:00 PM, FRI 10:00 AM-9:00 PM, SAT 10:00 AM-9:00 PM, SUN 12:00 PM-6:00 PM",,,
Westwood Mall,960062768,1816 W Michigan Ave,,Jackson,MI,49202,US,517-780-4046,42.2474695555556,-84.4378033333333,"MON 10:00 AM-9:00 PM, TUE 10:00 AM-9:00 PM, WED 10:00 AM-9:00 PM, THU 10:00 AM-9:00 PM, FRI 10:00 AM-9:00 PM, SAT 10:00 AM-9:00 PM, SUN 12:00 PM-6:00 PM",,,
Lakeside Mall,960062760,14600 Lakeside Cir,Ste 2040,Sterling Heights,MI,48313,US,586-532-1806,42.6252166378138,-82.9828092617782,"MON 10:00 AM-9:00 PM, TUE 10:00 AM-9:00 PM, WED 10:00 AM-9:00 PM, THU 10:00 AM-9:00 PM, FRI 10:00 AM-9:00 PM, SAT 10:00 AM-9:00 PM, SUN 12:00 PM-6:00 PM",,,
Northpark Mall,960062717,1200 E County Line Rd,Ste 126,Ridgeland,MS,39157,US,601-956-1153,32.39953,-90.13147,"MON 10:00 AM-9:00 PM, TUE 10:00 AM-9:00 PM, WED 10:00 AM-9:00 PM, THU 10:00 AM-9:00 PM, FRI 10:00 AM-9:00 PM, SAT 10:00 AM-9:00 PM, SUN 12:00 PM-6:00 PM",,,
The Mall at Barnes Crossing,960062716,1001 Barnes Crossing Rd,Ste 208,Tupelo,MS,38804,US,662-844-0855,34.31556,-88.70338,"MON 10:00 AM-9:00 PM, TUE 10:00 AM-9:00 PM, WED 10:00 AM-9:00 PM, THU 10:00 AM-9:00 PM, FRI 10:00 AM-9:00 PM, SAT 10:00 AM-9:00 PM, SUN 12:30 PM-6:00 PM",,,
Bonita Lakes Circle,960062718,1210 Bonita Lakes Cir,Ste 1070,Meridian,MS,39301,US,601-485-4211,32.3583446653079,-88.675376070247,"MON 10:00 AM-9:00 PM, TUE 10:00 AM-9:00 PM, WED 10:00 AM-9:00 PM, THU 10:00 AM-9:00 PM, FRI 10:00 AM-9:00 PM, SAT 10:00 AM-9:00 PM, SUN 12:00 PM-6:00 PM",,,
Edgewater Mall,960062720,2600 Beach Blvd,Ste 10,Biloxi,MS,39531,US,228-594-0133,30.38956,-88.98929,"MON 10:00 AM-9:00 PM, TUE 10:00 AM-9:00 PM, WED 10:00 AM-9:00 PM, THU 10:00 AM-9:00 PM, FRI 10:00 AM-9:00 PM, SAT 10:00 AM-9:00 PM, SUN 12:00 PM-6:00 PM",,,
Turtle Creek Mall,960062719,1000 Turtle Creek Dr,Ste 200,Hattiesburg,MS,39402,US,601-579-9104,31.32321,-89.37636,"MON 10:00 AM-9:00 PM, TUE 10:00 AM-9:00 PM, WED 10:00 AM-9:00 PM, THU 10:00 AM-9:00 PM, FRI 10:00 AM-9:00 PM, SAT 10:00 AM-9:00 PM, SUN 12:00 PM-6:00 PM",,,
Southland Center,960062758,23000 Eureka Rd,,Taylor,MI,48180,US,734-374-3490,42.19783,-83.25679,"MON 10:00 AM-9:00 PM, TUE 10:00 AM-9:00 PM, WED 10:00 AM-9:00 PM, THU 10:00 AM-9:00 PM, FRI 10:00 AM-9:00 PM, SAT 10:00 AM-9:00 PM, SUN 12:00 PM-6:00 PM",,,
The Lakes Mall,960062771,5600 Harvey St,Ste 1064,Muskegon,MI,49444,US,231-799-9200,43.1501227272727,-86.2058736363636,"MON 10:00 AM-9:00 PM, TUE 10:00 AM-9:00 PM, WED 10:00 AM-9:00 PM, THU 10:00 AM-9:00 PM, FRI 10:00 AM-9:00 PM, SAT 10:00 AM-9:00 PM, SUN 11:00 AM-6:00 PM",,,
Maplewood Mall,-1266919903,3001 White Bear Ave. N,Space 1035,St. Paul,MN,55109,US,651-748-7981,45.03156,-93.01815,"MON 10:00 AM-9:00 PM, TUE 10:00 AM-9:00 PM, WED 10:00 AM-9:00 PM, THU 10:00 AM-9:00 PM, FRI 10:00 AM-9:00 PM, SAT 10:00 AM-9:00 PM, SUN 11:00 AM-6:00 PM",,,
Crossroads Center,960062816,4101 W Division St,Ste 24,Saint Cloud,MN,56301,US,320-252-8337,45.5534440946395,-94.2091967889019,"MON 10:00 AM-9:00 PM, TUE 10:00 AM-9:00 PM, WED 10:00 AM-9:00 PM, THU 10:00 AM-9:00 PM, FRI 10:00 AM-9:00 PM, SAT 10:00 AM-9:00 PM, SUN 11:00 AM-6:00 PM",,,
River Hills Mall,960062815,1850 Adams St,Ste 314,Mankato,MN,56001,US,507-345-1467,44.17047,-93.95239,"MON 10:00 AM-9:00 PM, TUE 10:00 AM-9:00 PM, WED 10:00 AM-9:00 PM, THU 10:00 AM-9:00 PM, FRI 10:00 AM-9:00 PM, SAT 10:00 AM-9:00 PM, SUN 11:00 AM-7:00 PM",,,
Miller Hill Mall,960062813,1600 Miller Trunk Hwy,,Duluth,MN,55811,US,218-727-8815,46.80661,-92.16072,"MON 10:00 AM-9:00 PM, TUE 10:00 AM-9:00 PM, WED 10:00 AM-9:00 PM, THU 10:00 AM-9:00 PM, FRI 10:00 AM-9:00 PM, SAT 10:00 AM-7:00 PM, SUN 10:00 AM-9:00 PM",,,
Apache Mall,960062814,414 Apache Mall,,Rochester,MN,55902,US,507-288-6570,44.0062008595725,-92.479191216961,"MON 10:00 AM-9:00 PM, TUE 10:00 AM-9:00 PM, WED 10:00 AM-9:00 PM, THU 10:00 AM-9:00 PM, FRI 10:00 AM-9:00 PM, SAT 10:00 AM-9:00 PM, SUN 11:00 AM-8:00 PM",,,
Rosedale Shopping Center,960062805,1595 Highway 36W,Ste 620,Roseville,MN,55113,US,651-639-9916,45.00912,-93.07748,"MON 10:00 AM-9:00 PM, TUE 10:00 AM-9:00 PM, WED 10:00 AM-9:00 PM, THU 10:00 AM-9:00 PM, FRI 10:00 AM-9:00 PM, SAT 10:00 AM-9:00 PM, SUN 11:00 AM-6:00 PM",,,
Ridgedale Center,960062807,12343 Wayzata Blvd,Ste 1415,Minnetonka,MN,55305,US,952-541-7873,44.9704470149254,-93.4357455223881,"MON 10:00 AM-9:00 PM, TUE 10:00 AM-9:00 PM, WED 10:00 AM-9:00 PM, THU 10:00 AM-9:00 PM, FRI 10:00 AM-9:00 PM, SAT 10:00 AM-9:00 PM, SUN 12:00 PM-6:00 PM",,,
Mall of  America,960062811,203 E Broadway,,Bloomington,MN,55425,US,952-854-4388,44.8539302255639,-93.2404350626566,"MON 10:00 AM-9:30 PM, TUE 10:00 AM-9:30 PM, WED 10:00 AM-9:30 PM, THU 10:00 AM-9:30 PM, FRI 10:00 AM-9:30 PM, SAT 9:30 AM-9:30 PM, SUN 11:00 AM-7:00 PM",,,
Burnsville Center,960062808,1094 Burnsville Ctr,,Burnsville,MN,55337,US,952-898-1495,44.7445211367537,-93.2843426820522,"MON 10:00 AM-9:00 PM, TUE 10:00 AM-9:00 PM, WED 10:00 AM-9:00 PM, THU 10:00 AM-9:00 PM, FRI 10:00 AM-9:00 PM, SAT 10:00 AM-9:00 PM, SUN 11:00 AM-6:00 PM",,,
Eden Prairie Center,960062809,8251 Flying Cloud Dr,Ste 2012,Eden Prairie,MN,55344,US,952-944-9192,44.8541582943497,-93.4298413020072,"MON 10:00 AM-9:00 PM, TUE 10:00 AM-9:00 PM, WED 10:00 AM-9:00 PM, THU 10:00 AM-9:00 PM, FRI 10:00 AM-9:00 PM, SAT 10:00 AM-9:00 PM, SUN 11:00 AM-6:00 PM",,,
The Shoppes at Arbor Lakes,960062810,12437 Elm Creek Blvd N,,Maple Grove,MN,55369,US,763-425-6777,45.0940504714058,-93.4385189567097,"MON 10:00 AM-9:00 PM, TUE 10:00 AM-9:00 PM, WED 10:00 AM-9:00 PM, THU 10:00 AM-9:00 PM, FRI 10:00 AM-9:00 PM, SAT 10:00 AM-9:00 PM, SUN 11:00 AM-6:00 PM",,,
Woodbury Lakes,960062806,9000 Hudson Rd,Ste 608,Woodbury,MN,55125,US,651-738-2100,44.9442065306122,-92.9238109183673,"MON 10:00 AM-9:00 PM, TUE 10:00 AM-9:00 PM, WED 10:00 AM-9:00 PM, THU 10:00 AM-9:00 PM, FRI 10:00 AM-9:00 PM, SAT 10:00 AM-9:00 PM, SUN 11:00 AM-6:00 PM",,,
West County Center,988193165,26 W County Ctr,Ste 1080,Des Peres,MO,63131,US,314-821-0368,38.6027435994763,-90.4484706404888,"MON 10:00 AM-9:00 PM, TUE 10:00 AM-9:00 PM, WED 10:00 AM-9:00 PM, THU 10:00 AM-9:00 PM, FRI 10:00 AM-9:00 PM, SAT 10:00 AM-9:00 PM, SUN 11:00 AM-6:00 PM",,,
Summit Fair,1115924047,880 NW Blue Pkwy,,Lees Summit,MO,64086,US,816-347-9880,38.9300903852718,-94.400857562813,"MON 10:00 AM-9:00 PM, TUE 10:00 AM-9:00 PM, WED 10:00 AM-9:00 PM, THU 10:00 AM-9:00 PM, FRI 10:00 AM-9:00 PM, SAT 10:00 AM-9:00 PM, SUN 12:00 PM-6:00 PM",,,
St Louis Galleria,1296460066,1155 Saint Louis Galleria,Ste 2122,St Louis,MO,63117,US,314-862-2187,38.6360564939007,-90.3473263719146,"MON 10:00 AM-9:00 PM, TUE 10:00 AM-9:00 PM, WED 10:00 AM-9:00 PM, THU 10:00 AM-9:00 PM, FRI 10:00 AM-9:00 PM, SAT 10:00 AM-9:00 PM, SUN 11:00 AM-6:00 PM",,,
Columbia Mall,960062853,2300 Bernadette Dr,Ste 614,Columbia,MO,65203,US,573-445-2422,38.96586,-92.37412,"MON 10:00 AM-9:00 PM, TUE 10:00 AM-9:00 PM, WED 10:00 AM-9:00 PM, THU 10:00 AM-9:00 PM, FRI 10:00 AM-9:00 PM, SAT 10:00 AM-9:00 PM, SUN 11:00 AM-6:00 PM",,,
Holiday Village Mall,960062824,1200 10th Ave S,Ste 25,Great Falls,MT,59405,US,406-454-2655,47.49415,-111.28695,"MON 10:00 AM-9:00 PM, TUE 10:00 AM-9:00 PM, WED 10:00 AM-9:00 PM, THU 10:00 AM-9:00 PM, FRI 10:00 AM-9:00 PM, SAT 10:00 AM-9:00 PM, SUN 11:00 AM-6:00 PM",,,
Southgate Mall,960062826,2901 Brooks St,Ste D8,Missoula,MT,59801,US,406-542-7671,46.84393,-114.02513,"MON 10:00 AM-9:00 PM, TUE 10:00 AM-9:00 PM, WED 10:00 AM-9:00 PM, THU 10:00 AM-9:00 PM, FRI 10:00 AM-9:00 PM, SAT 10:00 AM-9:00 PM, SUN 11:00 AM-6:00 PM",,,
Rimrock Mall,960062823,300 S 24th St W,Ste A08,Billings,MT,59102,US,406-652-0525,45.76468,-108.57624,"MON 10:00 AM-9:00 PM, TUE 10:00 AM-9:00 PM, WED 10:00 AM-9:00 PM, THU 10:00 AM-9:00 PM, FRI 10:00 AM-9:00 PM, SAT 10:00 AM-9:00 PM, SUN 12:00 PM-6:00 PM",,,
Gallatin Valley Mall,960062825,2825 W Main St,Ste 4E,Bozeman,MT,59718,US,406-587-8733,45.6720772616212,-111.075360936063,"MON 10:00 AM-9:00 PM, TUE 10:00 AM-9:00 PM, WED 10:00 AM-9:00 PM, THU 10:00 AM-9:00 PM, FRI 10:00 AM-9:00 PM, SAT 10:00 AM-9:00 PM, SUN 11:00 AM-6:00 PM",,,
Kalispell Center Mall,960062827,20 N Main St,Ste 141,Kalispell,MT,59901,US,406-756-2006,48.19915,-114.31397,"MON 10:00 AM-9:00 PM, TUE 10:00 AM-9:00 PM, WED 10:00 AM-9:00 PM, THU 10:00 AM-9:00 PM, FRI 10:00 AM-9:00 PM, SAT 10:00 AM-7:00 PM, SUN 11:00 AM-5:00 PM",,,
North Park Mall,960062851,101 N Range Line Rd,Ste 158,Joplin,MO,64801,US,417-624-5704,37.09089,-94.477,"MON 10:00 AM-9:00 PM, TUE 10:00 AM-9:00 PM, WED 10:00 AM-9:00 PM, THU 10:00 AM-9:00 PM, FRI 10:00 AM-9:00 PM, SAT 10:00 AM-9:00 PM, SUN 12:00 PM-6:00 PM",,,
Thompson Hills Shopping Center,960062854,890 Thompson Blvd,,Sedalia,MO,65301,US,660-827-9844,38.7063561341018,-93.2650596592166,"MON 10:00 AM-9:00 PM, TUE 10:00 AM-9:00 PM, WED 10:00 AM-9:00 PM, THU 10:00 AM-9:00 PM, FRI 10:00 AM-9:00 PM, SAT 10:00 AM-9:00 PM, SUN 12:00 PM-6:00 PM",,,
Capital Mall,960062852,3600 Country Club Dr,Ste 1118,Jefferson City,MO,65109,US,573-893-4475,38.58365,-92.25391,"MON 10:00 AM-9:00 PM, TUE 10:00 AM-9:00 PM, WED 10:00 AM-9:00 PM, THU 10:00 AM-9:00 PM, FRI 10:00 AM-9:00 PM, SAT 10:00 AM-9:00 PM, SUN 11:00 AM-7:00 PM",,,
East Hills Shopping Center,960062850,3702 Frederick Ave,Ste 40,Saint Joseph,MO,64506,US,816-233-7887,39.7769502040816,-94.802673877551,"MON 10:00 AM-9:00 PM, TUE 10:00 AM-9:00 PM, WED 10:00 AM-9:00 PM, THU 10:00 AM-9:00 PM, FRI 10:00 AM-9:00 PM, SAT 10:00 AM-9:00 PM, SUN 12:00 PM-5:00 PM",,,
Battlefield Mall,960062855,2825 S Glenstone Ave,Ste P9,Springfield,MO,65804,US,417-882-8085,37.1632707189025,-93.2627698325172,"MON 10:00 AM-9:00 PM, TUE 10:00 AM-9:00 PM, WED 10:00 AM-9:00 PM, THU 10:00 AM-9:00 PM, FRI 10:00 AM-9:00 PM, SAT 10:00 AM-9:00 PM, SUN 12:00 PM-6:00 PM",,,
Independence Center,960062848,18801 E 39th Street S,Ste 1066,Independence,MO,64057,US,816-795-0677,39.0479292857143,-94.3574921428571,"MON 10:00 AM-9:00 PM, TUE 10:00 AM-9:00 PM, WED 10:00 AM-9:00 PM, THU 10:00 AM-9:00 PM, FRI 10:00 AM-9:00 PM, SAT 10:00 AM-9:00 PM, SUN 12:00 PM-6:00 PM",,,
West Park Mall,960062847,3049 William St,Ste 257,Cape Girardeau,MO,63703,US,573-339-0067,37.30084,-89.57021,"MON 10:00 AM-9:00 PM, TUE 10:00 AM-9:00 PM, WED 10:00 AM-9:00 PM, THU 10:00 AM-9:00 PM, FRI 10:00 AM-9:00 PM, SAT 10:00 AM-9:00 PM, SUN 12:00 PM-6:00 PM",,,
Mid Rivers Mall,960062846,1600 Mid Rivers Mall Dr,Ste 1018,Saint Peters,MO,63376,US,636-278-3274,38.797175495082,-90.6204437377049,"MON 10:00 AM-9:00 PM, TUE 10:00 AM-9:00 PM, WED 10:00 AM-9:00 PM, THU 10:00 AM-9:00 PM, FRI 10:00 AM-9:00 PM, SAT 10:00 AM-9:00 PM, SUN 11:00 AM-6:00 PM",,,
South County Center,960062845,416 S County Center Way,,Saint Louis,MO,63129,US,314-416-7066,38.505209140319,-90.3346359671166,"MON 10:00 AM-9:00 PM, TUE 10:00 AM-9:00 PM, WED 10:00 AM-9:00 PM, THU 10:00 AM-9:00 PM, FRI 10:00 AM-9:00 PM, SAT 10:00 AM-9:00 PM, SUN 11:00 AM-6:00 PM",,,
Zona Rosa,960062849,7107 NW 86th Ter,,Kansas City,MO,64153,US,816-505-1147,39.2509483512487,-94.6622915412594,"MON 10:00 AM-9:00 PM, TUE 10:00 AM-9:00 PM, WED 10:00 AM-9:00 PM, THU 10:00 AM-9:00 PM, FRI 10:00 AM-9:00 PM, SAT 10:00 AM-9:00 PM, SUN 12:00 PM-6:00 PM",,,
Buckle Distribution Center,1440233112,2915 W 16th St,,Kearney,NE,68845,US,1-800-626-1255,40.69023,-99.10424,"MON 8:00 AM-5:00 PM, TUE 8:00 AM-5:00 PM, WED 8:00 AM-5:00 PM, THU 8:00 AM-5:00 PM, FRI 8:00 AM-5:00 PM, SAT Closed-Closed, SUN Closed-Closed",,,
Village Pointe Mall,-723956001,17151 Davenport St,Ste 109,Omaha,NE,68118,US,402-289-2928,41.2608907486376,-96.1831602665178,"MON 10:00 AM-9:00 PM, TUE 10:00 AM-9:00 PM, WED 10:00 AM-9:00 PM, THU 10:00 AM-9:00 PM, FRI 10:00 AM-9:00 PM, SAT 10:00 AM-9:00 PM, SUN 12:00 PM-6:00 PM",,,
Corporate Office,1440233110,2407 W 24th St,P.O. Box 1480,Kearney,NE,68845,US,800-626-1255,40.69944,-99.1147768181818,"MON 7:45 AM-10:00 PM, TUE 7:45 AM-10:00 PM, WED 7:45 AM-10:00 PM, THU 7:45 AM-10:00 PM, FRI 7:45 AM-10:00 PM, SAT 8:00 AM-10:00 PM, SUN 11:00 AM-6:00 PM",,,
Village Centre,960062879,118 E 24th St,,Columbus,NE,68601,US,402-564-2911,41.43922,-97.32881,"MON 10:00 AM-8:00 PM, TUE 10:00 AM-8:00 PM, WED 10:00 AM-8:00 PM, THU 10:00 AM-8:00 PM, FRI 10:00 AM-8:00 PM, SAT 10:00 AM-7:00 PM, SUN 12:00 PM-6:00 PM",,,
Sunset Plaza,960062880,1700 Market Ln,Ste 210,Norfolk,NE,68701,US,402-371-1804,42.0187,-97.43185,"MON 10:00 AM-9:00 PM, TUE 10:00 AM-9:00 PM, WED 10:00 AM-9:00 PM, THU 10:00 AM-9:00 PM, FRI 10:00 AM-9:00 PM, SAT 10:00 AM-7:00 PM, SUN 12:00 PM-6:00 PM",,,
Conestoga Mall,960062881,3404 W 13th St,Ste D40a,Grand Island,NE,68803,US,308-384-3629,40.93155,-98.3809685714286,"MON 10:00 AM-9:00 PM, TUE 10:00 AM-9:00 PM, WED 10:00 AM-9:00 PM, THU 10:00 AM-9:00 PM, FRI 10:00 AM-9:00 PM, SAT 10:00 AM-9:00 PM, SUN 12:00 PM-6:00 PM",,,
Monument Mall,960062889,2302 Frontage Rd,Ste 27,Scottsbluff,NE,69361,US,308-632-5772,41.8698615551888,-103.646382868654,"MON 10:00 AM-8:00 PM, TUE 10:00 AM-8:00 PM, WED 10:00 AM-8:00 PM, THU 10:00 AM-8:00 PM, FRI 10:00 AM-8:00 PM, SAT 10:00 AM-7:00 PM, SUN 12:00 PM-6:00 PM",,,
Westview Plaza,960062887,218 N Highway 83,,McCook,NE,69001,US,308-345-5141,40.2017993966306,-100.644893366648,"MON 10:00 AM-8:00 PM, TUE 10:00 AM-8:00 PM, WED 10:00 AM-8:00 PM, THU 10:00 AM-8:00 PM, FRI 10:00 AM-8:00 PM, SAT 10:00 AM-6:00 PM, SUN 12:00 PM-5:00 PM",,,
Platte River Mall,960062888,1000 S Dewey St,Ste 200,North Platte,NE,69101,US,308-534-2283,41.12439,-100.76284,"MON 10:00 AM-9:00 PM, TUE 10:00 AM-9:00 PM, WED 10:00 AM-9:00 PM, THU 10:00 AM-9:00 PM, FRI 10:00 AM-9:00 PM, SAT 10:00 AM-9:00 PM, SUN 12:00 PM-6:00 PM",,,
Indian Creek Mall,960062876,2205 N 6th St,Ste 20,Beatrice,NE,68310,US,402-223-3800,40.2863201396765,-96.746890372957,"MON 10:00 AM-8:00 PM, TUE 10:00 AM-8:00 PM, WED 10:00 AM-8:00 PM, THU 10:00 AM-8:00 PM, FRI 10:00 AM-8:00 PM, SAT 10:00 AM-6:00 PM, SUN 12:00 PM-5:00 PM",,,
Gateway Mall,960062877,170 Gateway Mall,,Lincoln,NE,68505,US,402-466-3164,40.815427,-96.636012,"MON 10:00 AM-9:00 PM, TUE 10:00 AM-9:00 PM, WED 10:00 AM-9:00 PM, THU 10:00 AM-9:00 PM, FRI 10:00 AM-9:00 PM, SAT 10:00 AM-9:00 PM, SUN 11:00 AM-6:00 PM",,,
Hilltop Mall,960062886,5019 2nd Ave,Ste 36,Kearney,NE,68847,US,308-236-7966,40.7233469565217,-99.0838778260869,"MON 10:00 AM-9:00 PM, TUE 10:00 AM-9:00 PM, WED 10:00 AM-9:00 PM, THU 10:00 AM-9:00 PM, FRI 10:00 AM-9:00 PM, SAT 10:00 AM-9:00 PM, SUN 12:00 PM-6:00 PM",,,
Fremont Mall,960062873,920 E 23rd St,Ste D06,Fremont,NE,68025,US,402-721-0228,41.451498989899,-96.4851111111111,"MON 10:00 AM-9:00 PM, TUE 10:00 AM-9:00 PM, WED 10:00 AM-9:00 PM, THU 10:00 AM-9:00 PM, FRI 10:00 AM-9:00 PM, SAT 10:00 AM-9:00 PM, SUN 12:00 PM-5:00 PM",,,
Oak View Mall,960062875,3001 S 144th St,Ste G5,Omaha,NE,68144,US,402-330-7833,41.2291655014327,-96.1384557020057,"MON 10:00 AM-9:00 PM, TUE 10:00 AM-9:00 PM, WED 10:00 AM-9:00 PM, THU 10:00 AM-9:00 PM, FRI 10:00 AM-9:00 PM, SAT 10:00 AM-9:00 PM, SUN 11:00 AM-6:00 PM",,,
Southpointe Pavilions,960062878,2950 Pine Lake Rd,Ste B,Lincoln,NE,68516,US,402-420-9111,40.7406581499136,-96.678285550259,"MON 10:00 AM-9:00 PM, TUE 10:00 AM-9:00 PM, WED 10:00 AM-9:00 PM, THU 10:00 AM-9:00 PM, FRI 10:00 AM-9:00 PM, SAT 10:00 AM-9:00 PM, SUN 12:00 PM-6:00 PM",,,
Westroads Mall,960062874,10000 California St,Ste 3611,Omaha,NE,68114,US,402-926-0065,41.2645,-96.06688,"MON 10:00 AM-9:00 PM, TUE 10:00 AM-9:00 PM, WED 10:00 AM-9:00 PM, THU 10:00 AM-9:00 PM, FRI 10:00 AM-9:00 PM, SAT 10:00 AM-9:00 PM, SUN 11:00 AM-6:00 PM",,,
Downtown Summerlin,-1204485454,2020 Park Centre Dr,Ste 100,Las Vegas,NV,89135,US,702-228-2313,36.15323,-115.32314,"MON 10:00 AM-10:00 PM, TUE 10:00 AM-10:00 PM, WED 10:00 AM-10:00 PM, THU 10:00 AM-10:00 PM, FRI 10:00 AM-10:00 PM, SAT 10:00 AM-10:00 PM, SUN 11:00 AM-7:00 PM",,,
The Outlets at Sparks,1054892894,1330 Scheels Dr,Ste F138,Sparks,NV,89434,US,,39.5311213970919,-119.719681113391,"MON 10:00 AM-9:00 PM, TUE 10:00 AM-9:00 PM, WED 10:00 AM-9:00 PM, THU 10:00 AM-9:00 PM, FRI 10:00 AM-9:00 PM, SAT 10:00 AM-9:00 PM, SUN 11:00 AM-6:00 PM",,,
Galleria at Sunset,960063005,1300 W Sunset Rd,Ste 1653,Henderson,NV,89014,US,702-434-0589,36.06382,-115.04032,"MON 10:00 AM-9:00 PM, TUE 10:00 AM-9:00 PM, WED 10:00 AM-9:00 PM, THU 10:00 AM-9:00 PM, FRI 10:00 AM-9:00 PM, SAT 10:00 AM-9:00 PM, SUN 11:00 AM-6:00 PM",,,
Fashion Show Mall,1115924048,3200 Las Vegas Blvd S,Ste 1000,Las Vegas,NV,89109,US,702-650-5348,36.12773,-115.16795,"MON 10:00 AM-9:00 PM, TUE 10:00 AM-9:00 PM, WED 10:00 AM-9:00 PM, THU 10:00 AM-9:00 PM, FRI 10:00 AM-9:00 PM, SAT 10:00 AM-9:00 PM, SUN 11:00 AM-7:00 PM",,,
Meadowood Mall,960063006,5335 Meadowood Mall Cir,Ste D110,Reno,NV,89502,US,775-829-2255,39.4757319824417,-119.780710327596,"MON 10:00 AM-9:00 PM, TUE 10:00 AM-9:00 PM, WED 10:00 AM-9:00 PM, THU 10:00 AM-9:00 PM, FRI 10:00 AM-9:00 PM, SAT 10:00 AM-9:00 PM, SUN 11:00 AM-6:00 PM",,,
The Summit,960063007,13987 S Virginia St,Ste 706,Reno,NV,89511,US,775-851-9511,39.4056842743205,-119.748090822142,"MON 10:00 AM-9:00 PM, TUE 10:00 AM-9:00 PM, WED 10:00 AM-9:00 PM, THU 10:00 AM-9:00 PM, FRI 10:00 AM-9:00 PM, SAT 10:00 AM-9:00 PM, SUN 11:00 AM-6:00 PM",,,
Mesilla Valley Mall,1575778276,700 S Telshor Blvd,Ste 1432,Las Cruces,NM,88011,US,575-522-0672,32.31249,-106.74195,"MON 10:00 AM-9:00 PM, TUE 10:00 AM-9:00 PM, WED 10:00 AM-9:00 PM, THU 10:00 AM-9:00 PM, FRI 10:00 AM-9:00 PM, SAT 10:00 AM-9:00 PM, SUN 12:00 PM-6:00 PM",,,
North Plains Mall,960063004,2809 N Prince St,Ste 167,Clovis,NM,88101,US,575-763-0456,34.4263918181818,-103.1965,"MON 10:00 AM-9:00 PM, TUE 10:00 AM-9:00 PM, WED 10:00 AM-9:00 PM, THU 10:00 AM-9:00 PM, FRI 10:00 AM-9:00 PM, SAT 10:00 AM-9:00 PM, SUN 12:00 PM-6:00 PM",,,
Coronado Center,960063001,6600 Menaul Blvd NE,Ste H009,Albuquerque,NM,87110,US,505-872-0668,35.10904,-106.57095,"MON 10:00 AM-9:00 PM, TUE 10:00 AM-9:00 PM, WED 10:00 AM-9:00 PM, THU 10:00 AM-9:00 PM, FRI 10:00 AM-9:00 PM, SAT 10:00 AM-9:00 PM, SUN 12:00 PM-6:00 PM",,,
Cottonwood Mall,960063002,10000 Coors Blvd Byp NW,Ste C209,Albuquerque,NM,87114,US,505-890-9118,35.19604,-106.65878,"MON 10:00 AM-9:00 PM, TUE 10:00 AM-9:00 PM, WED 10:00 AM-9:00 PM, THU 10:00 AM-9:00 PM, FRI 10:00 AM-9:00 PM, SAT 10:00 AM-9:00 PM, SUN 11:00 AM-6:00 PM",,,
Animas Valley Mall,960063003,4601 E Main St,Ste 270,Farmington,NM,87402,US,505-564-9075,36.7649760747682,-108.152031233641,"MON 10:00 AM-9:00 PM, TUE 10:00 AM-9:00 PM, WED 10:00 AM-9:00 PM, THU 10:00 AM-9:00 PM, FRI 10:00 AM-9:00 PM, SAT 10:00 AM-9:00 PM, SUN 12:00 PM-6:00 PM",,,
Hamilton Mall,987494610,4403 Black Horse Pike,Ste 256,Mays Landing,NJ,08330,US,609-813-2159,39.4495917928053,-74.6390056848487,"MON 10:00 AM-9:00 PM, TUE 10:00 AM-9:00 PM, WED 10:00 AM-9:00 PM, THU 10:00 AM-9:00 PM, FRI 10:00 AM-9:00 PM, SAT 10:00 AM-9:00 PM, SUN 11:00 AM-6:00 PM",,,
Deptford Mall,1066526003,1750 Deptford Center Rd,Ste 2023,Deptford,NJ,08096,US,856-686-5861,39.8282247709695,-75.0985479417167,"MON 10:00 AM-9:30 PM, TUE 10:00 AM-9:30 PM, WED 10:00 AM-9:30 PM, THU 10:00 AM-9:30 PM, FRI 10:00 AM-9:30 PM, SAT 10:00 AM-9:30 PM, SUN 11:00 AM-6:00 PM",,,
Walden Galleria,976526020,1 Walden Galleria,Ste D110,Buffalo,NY,14225,US,716-681-1928,42.90886,-78.76198,"MON 10:00 AM-9:30 PM, TUE 10:00 AM-9:30 PM, WED 10:00 AM-9:30 PM, THU 10:00 AM-9:30 PM, FRI 10:00 AM-9:30 PM, SAT 10:00 AM-9:30 PM, SUN 11:00 AM-6:00 PM",,,
Crossgates Mall,1056063071,1 Crossgates Mall Rd,Ste L207,Albany,NY,12203,US,518-456-4106,42.68729,-73.85113,"MON 10:00 AM-9:00 PM, TUE 10:00 AM-9:00 PM, WED 10:00 AM-9:00 PM, THU 10:00 AM-9:00 PM, FRI 10:00 AM-9:00 PM, SAT 10:00 AM-9:00 PM, SUN 11:00 AM-6:00 PM",,,
Eastview Mall,1106321253,222 Eastview Mall,,Victor,NY,14564,US,585-223-6444,43.0298033333333,-77.4497496296296,"MON 10:00 AM-9:30 PM, TUE 10:00 AM-9:30 PM, WED 10:00 AM-9:30 PM, THU 10:00 AM-9:30 PM, FRI 10:00 AM-9:30 PM, SAT 10:00 AM-9:30 PM, SUN 11:00 AM-6:00 PM",,,
Destiny USA,2058604066,1 Destiny USA Dr,Ste B105,Syracuse,NY,13204,US,315-422-0587,43.0678271,-76.172985,"MON 10:00 AM-9:30 PM, TUE 10:00 AM-9:30 PM, WED 10:00 AM-9:30 PM, THU 10:00 AM-9:30 PM, FRI 10:00 AM-9:30 PM, SAT 10:00 AM-9:30 PM, SUN 11:00 AM-6:00 PM",,,
Carolina Place Mall,987418238,11025 Carolina Place Pkwy,Ste C17,Pineville,NC,28134,US,704-543-6250,35.0828484934593,-80.8796660815591,"MON 10:00 AM-9:00 PM, TUE 10:00 AM-9:00 PM, WED 10:00 AM-9:00 PM, THU 10:00 AM-9:00 PM, FRI 10:00 AM-9:00 PM, SAT 10:00 AM-9:00 PM, SUN 12:00 PM-6:00 PM",,,
Concord Mills,-1494223405,8441 Concord Mills Blvd,Ste R2,Concord,NC,28027,US,704-979-3710,35.3720929960757,-80.7207759402341,"MON 10:00 AM-9:00 PM, TUE 10:00 AM-9:00 PM, WED 10:00 AM-9:00 PM, THU 10:00 AM-9:00 PM, FRI 10:00 AM-9:00 PM, SAT 10:00 AM-9:00 PM, SUN 12:00 PM-7:00 PM",,,
The Friendly Center,-1266919905,803D Friendly Center Rd,,Greenboro,NC,27408,US,336-218-5053,36.0861782812678,-79.8307523567723,"MON 10:00 AM-9:00 PM, TUE 10:00 AM-9:00 PM, WED 10:00 AM-9:00 PM, THU 10:00 AM-9:00 PM, FRI 10:00 AM-9:00 PM, SAT 10:00 AM-6:00 PM, SUN 1:00 PM-6:00 PM",,,
Jacksonville Mall,1097875225,375 Jacksonville Mall,,Jacksonville,NC,28546,US,910-353-0064,34.7673658424508,-77.3816585412109,"MON 10:00 AM-9:00 PM, TUE 10:00 AM-9:00 PM, WED 10:00 AM-9:00 PM, THU 10:00 AM-9:00 PM, FRI 10:00 AM-9:00 PM, SAT 10:00 AM-9:00 PM, SUN 12:00 PM-6:00 PM",,,
Greenville Mall,1578961389,714 Greenville Blvd SE,Ste E4,Greenville,NC,27858,US,252-756-3026,35.586395795941,-77.3700417104892,"MON 10:00 AM-9:00 PM, TUE 10:00 AM-9:00 PM, WED 10:00 AM-9:00 PM, THU 10:00 AM-9:00 PM, FRI 10:00 AM-9:00 PM, SAT 10:00 AM-9:00 PM, SUN 1:00 PM-6:00 PM",,,
Crabtree Valley Mall,960062667,4325 Glenwood Ave,Ste 1007,Raleigh,NC,27612,US,919-420-7888,35.84123,-78.67848,"MON 10:00 AM-9:00 PM, TUE 10:00 AM-9:00 PM, WED 10:00 AM-9:00 PM, THU 10:00 AM-9:00 PM, FRI 10:00 AM-9:00 PM, SAT 10:00 AM-9:00 PM, SUN 12:00 PM-7:00 PM",,,
Cross Creek Mall,960062670,419 Cross Creek Mall,TA-13,Fayetteville,NC,28303,US,910-826-8717,35.073592502011,-78.9634999977477,"MON 10:00 AM-9:00 PM, TUE 10:00 AM-9:00 PM, WED 10:00 AM-9:00 PM, THU 10:00 AM-9:00 PM, FRI 10:00 AM-9:00 PM, SAT 10:00 AM-9:00 PM, SUN 12:00 PM-6:00 PM",,,
Hanes Mall,960062666,3320 Silas Creek Pkwy,Ste 444,Winston Salem,NC,27103,US,336-794-3021,36.073295323332,-80.2981407315668,"MON 10:00 AM-9:00 PM, TUE 10:00 AM-9:00 PM, WED 10:00 AM-9:00 PM, THU 10:00 AM-9:00 PM, FRI 10:00 AM-9:00 PM, SAT 10:00 AM-9:00 PM, SUN 12:00 PM-6:00 PM",,,
Valley Hills Mall,960062672,1960 US Highway 70 SE,Ste 142,Hickory,NC,28602,US,828-322-2322,35.7037364,-81.3051226,"MON 10:00 AM-9:00 PM, TUE 10:00 AM-9:00 PM, WED 10:00 AM-9:00 PM, THU 10:00 AM-9:00 PM, FRI 10:00 AM-9:00 PM, SAT 10:00 AM-9:00 PM, SUN 12:00 PM-6:00 PM",,,
Asheville Mall,960062673,3 S Tunnel Rd,Ste L50,Asheville,NC,28805,US,828-296-1861,35.5841602029446,-82.5261008198124,"MON 10:00 AM-9:00 PM, TUE 10:00 AM-9:00 PM, WED 10:00 AM-9:00 PM, THU 10:00 AM-9:00 PM, FRI 10:00 AM-9:00 PM, SAT 10:00 AM-9:00 PM, SUN 12:00 PM-6:00 PM",,,
Mayfaire Town Center,960062671,6814 Main Street,Ste 2,Wilmington,NC,28405,US,910-509-1802,34.242575,-77.8319,"MON 10:00 AM-9:00 PM, TUE 10:00 AM-9:00 PM, WED 10:00 AM-9:00 PM, THU 10:00 AM-9:00 PM, FRI 10:00 AM-9:00 PM, SAT 10:00 AM-9:00 PM, SUN 12:00 PM-6:00 PM",,,
The Streets at Southpoint,960062668,6910 Fayetteville Rd,Ste. 2220,Durham,NC,27713,US,919-484-7266,35.9034665334611,-78.9388336888144,"MON 10:00 AM-9:00 PM, TUE 10:00 AM-9:00 PM, WED 10:00 AM-9:00 PM, THU 10:00 AM-9:00 PM, FRI 10:00 AM-9:00 PM, SAT 10:00 AM-9:00 PM, SUN 12:00 PM-7:00 PM",,,
Northlake Mall,960062669,6801 Northlake Mall Dr,Ste 121,Charlotte,NC,28216,US,704-596-4391,35.3498151470588,-80.8501561764706,"MON 10:00 AM-9:00 PM, TUE 10:00 AM-9:00 PM, WED 10:00 AM-9:00 PM, THU 10:00 AM-9:00 PM, FRI 10:00 AM-9:00 PM, SAT 10:00 AM-9:00 PM, SUN 12:00 PM-6:00 PM",,,
Dakota Square,1092606206,2400 10th St SW,Ste 514,Minot,ND,58701,US,701-839-1043,48.20818,-101.30673,"MON 10:00 AM-9:00 PM, TUE 10:00 AM-9:00 PM, WED 10:00 AM-9:00 PM, THU 10:00 AM-9:00 PM, FRI 10:00 AM-9:00 PM, SAT 10:00 AM-7:00 PM, SUN 12:00 PM-6:00 PM",,,
Columbia Mall,960062821,2800 S Columbia Rd,Ste 316,Grand Forks,ND,58201,US,701-772-0757,47.89215,-97.06667,"MON 10:00 AM-9:00 PM, TUE 10:00 AM-9:00 PM, WED 10:00 AM-9:00 PM, THU 10:00 AM-9:00 PM, FRI 10:00 AM-9:00 PM, SAT 10:00 AM-9:00 PM, SUN 12:00 PM-6:00 PM",,,
West Acres Shopping Center,960062820,3902 13th Ave S,Ste 4314,Fargo,ND,58103,US,701-277-1621,46.8615984269663,-96.8465321348314,"MON 10:00 AM-9:00 PM, TUE 10:00 AM-9:00 PM, WED 10:00 AM-9:00 PM, THU 10:00 AM-9:00 PM, FRI 10:00 AM-9:00 PM, SAT 10:00 AM-9:00 PM, SUN 12:00 PM-6:00 PM",,,
Kirkwood Mall,960062822,715 Kirkwood Mall,,Bismarck,ND,58504,US,701-222-2125,46.7980723076923,-100.783090769231,"MON 10:00 AM-9:00 PM, TUE 10:00 AM-9:00 PM, WED 10:00 AM-9:00 PM, THU 10:00 AM-9:00 PM, FRI 10:00 AM-9:00 PM, SAT 10:00 AM-7:00 PM, SUN 12:00 PM-6:00 PM",,,
Ponca Plaza,960062916,2101 N 14th St,,Ponca City,OK,74601,US,580-762-0452,36.72596,-97.06722,"MON 10:00 AM-8:00 PM, TUE 10:00 AM-8:00 PM, WED 10:00 AM-8:00 PM, THU 10:00 AM-8:00 PM, FRI 10:00 AM-8:00 PM, SAT 10:00 AM-8:00 PM, SUN 1:00 PM-6:00 PM",,,
Washington Park Mall,960062911,2350 SE Washington Blvd,Ste 218,Bartlesville,OK,74006,US,918-333-1938,36.71533,-95.93512,"MON 10:00 AM-9:00 PM, TUE 10:00 AM-9:00 PM, WED 10:00 AM-9:00 PM, THU 10:00 AM-9:00 PM, FRI 10:00 AM-9:00 PM, SAT 10:00 AM-9:00 PM, SUN 12:00 PM-6:00 PM",,,
Shops at Ardmore,960062908,1211 N Commerce St,Ste B3,Ardmore,OK,73401,US,580-223-0721,34.1883116666667,-97.14312,"MON 10:00 AM-8:00 PM, TUE 10:00 AM-8:00 PM, WED 10:00 AM-8:00 PM, THU 10:00 AM-8:00 PM, FRI 10:00 AM-8:00 PM, SAT 10:00 AM-8:00 PM, SUN 1:00 PM-5:00 PM",,,
Pioneer Square,960062912,719 N Perkins Rd,,Stillwater,OK,74075,US,405-372-6266,36.1296588888889,-97.0514811111111,"MON 10:00 AM-9:00 PM, TUE 10:00 AM-9:00 PM, WED 10:00 AM-9:00 PM, THU 10:00 AM-9:00 PM, FRI 10:00 AM-9:00 PM, SAT 10:00 AM-9:00 PM, SUN 12:00 PM-6:00 PM",,,
Central Mall,960062909,143 Central Mall,,Lawton,OK,73501,US,580-355-2669,34.6042544720632,-98.3915960272478,"MON 10:00 AM-9:00 PM, TUE 10:00 AM-9:00 PM, WED 10:00 AM-9:00 PM, THU 10:00 AM-9:00 PM, FRI 10:00 AM-9:00 PM, SAT 10:00 AM-9:00 PM, SUN 12:00 PM-7:00 PM",,,
Arrowhead Mall,960062915,501 N Main St,Ste 80,Muskogee,OK,74401,US,918-687-3784,35.75164,-95.36731,"MON 10:00 AM-9:00 PM, TUE 10:00 AM-9:00 PM, WED 10:00 AM-9:00 PM, THU 10:00 AM-9:00 PM, FRI 10:00 AM-9:00 PM, SAT 10:00 AM-9:00 PM, SUN 12:00 PM-6:00 PM",,,
Shawnee Mall,960062917,4901 N Kickapoo Ave,Ste 1578,Shawnee,OK,74804,US,405-878-0920,35.38537,-96.92974,"MON 10:00 AM-9:00 PM, TUE 10:00 AM-9:00 PM, WED 10:00 AM-9:00 PM, THU 10:00 AM-9:00 PM, FRI 10:00 AM-9:00 PM, SAT 10:00 AM-9:00 PM, SUN 12:00 PM-6:00 PM",,,
Sooner Mall,960062905,3519 W. Main,Ste 435,Norman,OK,73072,US,405-321-6790,35.21847,-97.493635,"MON 10:00 AM-9:00 PM, TUE 10:00 AM-9:00 PM, WED 10:00 AM-9:00 PM, THU 10:00 AM-9:00 PM, FRI 10:00 AM-9:00 PM, SAT 10:00 AM-9:00 PM, SUN 12:00 PM-6:00 PM",,,
Land Run Town Center,960062910,4408 W Owen K Garriot Rd,Ste G,Enid,OK,73703,US,580-233-7335,36.3908506896552,-97.9327431034483,"MON 10:00 AM-9:00 PM, TUE 10:00 AM-9:00 PM, WED 10:00 AM-9:00 PM, THU 10:00 AM-9:00 PM, FRI 10:00 AM-9:00 PM, SAT 10:00 AM-9:00 PM, SUN 12:00 PM-6:00 PM",,,
Woodland Hills Mall,960062913,7021 S Memorial Dr,Ste 109A,Tulsa,OK,74133,US,918-252-9752,36.0628283673469,-95.8863040816327,"MON 10:00 AM-9:00 PM, TUE 10:00 AM-9:00 PM, WED 10:00 AM-9:00 PM, THU 10:00 AM-9:00 PM, FRI 10:00 AM-9:00 PM, SAT 10:00 AM-9:00 PM, SUN 12:00 PM-7:00 PM",,,
Rogue Valley Mall,960063029,1600 N Riverside Ave,Ste 2101,Medford,OR,97501,US,541-773-9379,42.34198,-122.87825,"MON 10:00 AM-9:00 PM, TUE 10:00 AM-9:00 PM, WED 10:00 AM-9:00 PM, THU 10:00 AM-9:00 PM, FRI 10:00 AM-9:00 PM, SAT 10:00 AM-9:00 PM, SUN 11:00 AM-7:00 PM",,,
Clackamas Town Center,960063026,12000 SE 82nd Ave,Ste 1082,Happy Valley,OR,97086,US,503-653-5690,45.436497979798,-122.57908030303,"MON 10:00 AM-9:00 PM, TUE 10:00 AM-9:00 PM, WED 10:00 AM-9:00 PM, THU 10:00 AM-9:00 PM, FRI 10:00 AM-9:00 PM, SAT 10:00 AM-9:00 PM, SUN 11:00 AM-6:00 PM",,,
Washington Square,1507358308,9636 SW Washington Square Rd,,Tigard,OR,97223,US,503-624-5808,45.448556,-122.782876,"MON 10:00 AM-9:00 PM, TUE 10:00 AM-9:00 PM, WED 10:00 AM-9:00 PM, THU 10:00 AM-9:00 PM, FRI 10:00 AM-9:00 PM, SAT 10:00 AM-9:00 PM, SUN 11:00 AM-7:00 PM",,,
Old Mill District,1529415445,425 SW Powerhouse Dr,,Bend,OR,97702,US,541-389-1916,44.0464721183602,-121.315526728984,"MON 10:00 AM-8:00 PM, TUE 10:00 AM-8:00 PM, WED 10:00 AM-8:00 PM, THU 10:00 AM-8:00 PM, FRI 10:00 AM-8:00 PM, SAT 10:00 AM-8:00 PM, SUN 11:00 AM-6:00 PM",,,
Salem Center,960063027,480 Center St NE,Ste 124,Salem,OR,97301,US,503-364-6072,44.9429589795918,-123.035860204082,"MON 10:00 AM-8:00 PM, TUE 10:00 AM-8:00 PM, WED 10:00 AM-8:00 PM, THU 10:00 AM-8:00 PM, FRI 10:00 AM-8:00 PM, SAT 10:00 AM-8:00 PM, SUN 11:00 AM-6:00 PM",,,
Penn Square Mall,960062906,1901 NW Expressway,Ste 2011,Oklahoma City,OK,73118,US,405-843-1970,35.5246909,-97.5440106,"MON 10:00 AM-9:00 PM, TUE 10:00 AM-9:00 PM, WED 10:00 AM-9:00 PM, THU 10:00 AM-9:00 PM, FRI 10:00 AM-9:00 PM, SAT 10:00 AM-9:00 PM, SUN 12:00 PM-6:00 PM",,,
Quail Springs Mall,960062907,2501 W Memorial Rd,Ste 151,Oklahoma City,OK,73134,US,405-751-2582,35.60978,-97.55836,"MON 10:00 AM-9:00 PM, TUE 10:00 AM-9:00 PM, WED 10:00 AM-9:00 PM, THU 10:00 AM-9:00 PM, FRI 10:00 AM-9:00 PM, SAT 10:00 AM-9:00 PM, SUN 12:00 PM-6:00 PM",,,
Tulsa Promenade,960062914,4107 S Yale Ave,Ste 222,Tulsa,OK,74135,US,918-622-1369,36.1042674148378,-95.922278039774,"MON 10:00 AM-9:00 PM, TUE 10:00 AM-9:00 PM, WED 10:00 AM-9:00 PM, THU 10:00 AM-9:00 PM, FRI 10:00 AM-9:00 PM, SAT 10:00 AM-9:00 PM, SUN 12:00 PM-6:00 PM",,,
Valley River Center,960063028,204 Valley River Ctr,Ste E12B,Eugene,OR,97401,US,541-343-6728,44.0689192554363,-123.105029597822,"MON 10:00 AM-9:00 PM, TUE 10:00 AM-9:00 PM, WED 10:00 AM-9:00 PM, THU 10:00 AM-9:00 PM, FRI 10:00 AM-9:00 PM, SAT 10:00 AM-9:00 PM, SUN 11:00 AM-7:00 PM",,,
Ross Park Mall,960062652,1000 Ross Park Mall Dr,Ste L06,Pittsburgh,PA,15237,US,412-367-0617,40.54627,-80.00581,"MON 10:00 AM-9:00 PM, TUE 10:00 AM-9:00 PM, WED 10:00 AM-9:00 PM, THU 10:00 AM-9:00 PM, FRI 10:00 AM-9:00 PM, SAT 10:00 AM-9:00 PM, SUN 11:00 AM-6:00 PM",,,
Lehigh Valley Mall,976526021,272 Lehigh Valley Mall,,Whitehall,PA,18052,US,610-264-1326,40.628800236702,-75.4775799765626,"MON 10:00 AM-9:00 PM, TUE 10:00 AM-9:00 PM, WED 10:00 AM-9:00 PM, THU 10:00 AM-9:00 PM, FRI 10:00 AM-9:00 PM, SAT 10:00 AM-9:00 PM, SUN 11:00 AM-6:00 PM",,,
Capital City Mall,-1037115271,3571 Capital City Mall Drive,,Camp Hill,PA,17011,US,717-737-6190,40.2239893909092,-76.9325003445604,"MON 10:00 AM-9:00 PM, TUE 10:00 AM-9:00 PM, WED 10:00 AM-9:00 PM, THU 10:00 AM-9:00 PM, FRI 10:00 AM-9:00 PM, SAT 10:00 AM-9:00 PM, SUN 11:00 AM-6:00 PM",,,
South Hills Village,960062653,301 South Hills Vlg,Ste 2065,Pittsburgh,PA,15241,US,412-831-7910,40.3420318181818,-80.0532654545455,"MON 10:00 AM-9:00 PM, TUE 10:00 AM-9:00 PM, WED 10:00 AM-9:00 PM, THU 10:00 AM-9:00 PM, FRI 10:00 AM-9:00 PM, SAT 10:00 AM-9:00 PM, SUN 11:00 AM-6:00 PM",,,
Park City Center,1095233561,743 Park City Ctr,,Lancaster,PA,17601,US,717-291-7283,40.06598596302,-76.3401870724191,"MON 10:00 AM-9:30 PM, TUE 10:00 AM-9:30 PM, WED 10:00 AM-9:30 PM, THU 10:00 AM-9:30 PM, FRI 10:00 AM-9:30 PM, SAT 10:00 AM-9:30 PM, SUN 11:00 AM-6:00 PM",,,
Westmoreland Mall,1648823950,5256 State Route 30,Ste 213,Greensburg,PA,15601,US,724-836-4120,40.3031074071527,-79.5077132026596,"MON 10:00 AM-9:00 PM, TUE 10:00 AM-9:00 PM, WED 10:00 AM-9:00 PM, THU 10:00 AM-9:00 PM, FRI 10:00 AM-9:00 PM, SAT 10:00 AM-9:00 PM, SUN 11:00 AM-5:00 PM",,,
Logan Valley Mall,960062655,5580 Goods LN,Ste 1109,Altoona,PA,16602,US,814-941-7079,40.46803,-78.41471,"MON 10:00 AM-9:00 PM, TUE 10:00 AM-9:00 PM, WED 10:00 AM-9:00 PM, THU 10:00 AM-9:00 PM, FRI 10:00 AM-9:00 PM, SAT 10:00 AM-9:00 PM, SUN 12:00 PM-6:00 PM",,,
Millcreek Mall,960062654,255 Millcreek Mall,Ste 255,Erie,PA,16565,US,814-868-3460,42.0720583492827,-80.0992527511451,"MON 10:00 AM-9:00 PM, TUE 10:00 AM-9:00 PM, WED 10:00 AM-9:00 PM, THU 10:00 AM-9:00 PM, FRI 10:00 AM-9:00 PM, SAT 10:00 AM-9:00 PM, SUN 11:00 AM-6:00 PM",,,
Robinson Town Centre,960062651,100 Robinson Center Dr,Ste 243,Pittsburgh,PA,15205,US,412-787-8504,40.45167,-80.1577,"MON 10:00 AM-9:00 PM, TUE 10:00 AM-9:00 PM, WED 10:00 AM-9:00 PM, THU 10:00 AM-9:00 PM, FRI 10:00 AM-9:00 PM, SAT 10:00 AM-9:30 PM, SUN 11:00 AM-5:00 PM",,,
Monroeville Mall,960062650,200 Monroeville Mall,Ste 128,Monroeville,PA,15146,US,412-856-1477,40.43103109375,-79.7949176953125,"MON 10:00 AM-9:00 PM, TUE 10:00 AM-9:00 PM, WED 10:00 AM-9:00 PM, THU 10:00 AM-9:00 PM, FRI 10:00 AM-9:00 PM, SAT 10:00 AM-9:00 PM, SUN 12:00 PM-6:00 PM",,,
Providence Place,1314853407,151 Providence Pl,,Providence,RI,02903,US,401-383-4850,41.8277604522613,-71.4177762311558,"MON 10:00 AM-9:00 PM, TUE 10:00 AM-9:00 PM, WED 10:00 AM-9:00 PM, THU 10:00 AM-9:00 PM, FRI 10:00 AM-9:00 PM, SAT 10:00 AM-9:00 PM, SUN 12:00 PM-6:00 PM",,,
Crocker Park,976526023,263 Crocker Park Blvd,,Westlake,OH,44145,US,440-250-0895,41.4594352173913,-81.9525713043478,"MON 10:00 AM-9:00 PM, TUE 10:00 AM-9:00 PM, WED 10:00 AM-9:00 PM, THU 10:00 AM-9:00 PM, FRI 10:00 AM-9:00 PM, SAT 10:00 AM-9:00 PM, SUN 11:00 AM-6:00 PM",,,
Lima Mall,994914666,2400 Elida Rd,Ste 140A,Lima,OH,45805,US,419-331-1000,40.76305,-84.14971,"MON 10:00 AM-9:00 PM, TUE 10:00 AM-9:00 PM, WED 10:00 AM-9:00 PM, THU 10:00 AM-9:00 PM, FRI 10:00 AM-9:00 PM, SAT 10:00 AM-9:00 PM, SUN 12:00 PM-6:00 PM",,,
Liberty Center,-341455226,7100 Foundry Rd,,Liberty Township,OH,45069,US,513-755-3694,39.3715513,-84.369891,"MON 10:00 AM-9:00 PM, TUE 10:00 AM-9:00 PM, WED 10:00 AM-9:00 PM, THU 10:00 AM-9:00 PM, FRI 10:00 AM-10:00 PM, SAT 10:00 AM-10:00 PM, SUN 12:00 PM-6:00 PM",,,
Ohio Valley Mall,266958500,67800 Mall Road,Unit 465,St. Clairsville,OH,43950,US,740-695-9556,40.0694984769335,-80.8636704096939,"MON 10:00 AM-9:00 PM, TUE 10:00 AM-9:00 PM, WED 10:00 AM-9:00 PM, THU 10:00 AM-9:00 PM, FRI 10:00 AM-9:00 PM, SAT 10:00 AM-9:00 PM, SUN 11:00 AM-6:00 PM",,,
Westfield SouthPark,960062733,500  Southpark Ctr,Ste DL436,Strongsville,OH,44136,US,440-572-1587,41.3116090014558,-81.8202274438513,"MON 10:00 AM-9:00 PM, TUE 10:00 AM-9:00 PM, WED 10:00 AM-9:00 PM, THU 10:00 AM-9:00 PM, FRI 10:00 AM-9:00 PM, SAT 10:00 AM-9:00 PM, SUN 11:00 AM-6:00 PM",,,
Shoppes at Fallen Timbers,960062730,3100 Main St,Ste 1360,Maumee,OH,43537,US,419-878-0661,41.54717,-83.70607,"MON 10:00 AM-9:00 PM, TUE 10:00 AM-9:00 PM, WED 10:00 AM-9:00 PM, THU 10:00 AM-9:00 PM, FRI 10:00 AM-9:00 PM, SAT 10:00 AM-9:00 PM, SUN 12:00 PM-6:00 PM",,,
Tuttle Crossing,960062726,5043 Tuttle Crossing Blvd,Ste 284,Dublin,OH,43016,US,614-659-1242,40.076418,-83.129892,"MON 10:00 AM-9:00 PM, TUE 10:00 AM-9:00 PM, WED 10:00 AM-9:00 PM, THU 10:00 AM-9:00 PM, FRI 10:00 AM-9:00 PM, SAT 10:00 AM-9:00 PM, SUN 12:00 PM-6:00 PM",,,
Summit Mall,987494611,3265 W Market St,Ste 164A,Fairlawn,OH,44333,US,330-835-4513,41.1327,-81.61935,"MON 10:00 AM-9:00 PM, TUE 10:00 AM-9:00 PM, WED 10:00 AM-9:00 PM, THU 10:00 AM-9:00 PM, FRI 10:00 AM-9:00 PM, SAT 10:00 AM-9:00 PM, SUN 11:00 AM-6:00 PM",,,
Kenwood Towne Center,1097273432,7875 Montgomery Rd,Ste 1249,Cincinnati,OH,45236,US,513-794-0102,39.1999166666667,-84.3776862962963,"MON 10:00 AM-9:00 PM, TUE 10:00 AM-9:00 PM, WED 10:00 AM-9:00 PM, THU 10:00 AM-9:00 PM, FRI 10:00 AM-9:00 PM, SAT 10:00 AM-9:00 PM, SUN 12:00 PM-6:00 PM",,,
Beachwood Place,1092606207,26300 Cedar Rd,Ste 2315,Beachwood,OH,44122,US,216-896-9395,41.50127,-81.4956022981366,"MON 10:00 AM-9:00 PM, TUE 10:00 AM-9:00 PM, WED 10:00 AM-9:00 PM, THU 10:00 AM-9:00 PM, FRI 10:00 AM-9:00 PM, SAT 10:00 AM-9:00 PM, SUN 12:00 PM-6:00 PM",,,
Eastwood Mall Complex,1583359542,5555 Youngstown Warren Rd,Ste 409,Niles,OH,44446,US,330-544-1545,41.21105,-80.75283,"MON 10:00 AM-9:00 PM, TUE 10:00 AM-9:00 PM, WED 10:00 AM-9:00 PM, THU 10:00 AM-9:00 PM, FRI 10:00 AM-9:00 PM, SAT 10:00 AM-9:00 PM, SUN 11:00 AM-6:00 PM",,,
The Greene,2058604068,4480 Cedar Park Dr,,Beavercreek,OH,45440,US,937-431-1084,39.6942693548387,-84.1033322580645,"MON 10:00 AM-9:00 PM, TUE 10:00 AM-9:00 PM, WED 10:00 AM-9:00 PM, THU 10:00 AM-9:00 PM, FRI 10:00 AM-9:00 PM, SAT 10:00 AM-9:00 PM, SUN 12:00 PM-6:00 PM",,,
Great Lakes Mall,960062732,7850 Mentor Ave,Ste 1038A,Mentor,OH,44060,US,440-255-8820,41.66139,-81.35963,"MON 10:00 AM-9:00 PM, TUE 10:00 AM-9:00 PM, WED 10:00 AM-9:00 PM, THU 10:00 AM-9:00 PM, FRI 10:00 AM-9:00 PM, SAT 10:00 AM-9:00 PM, SUN 11:00 AM-6:00 PM",,,
Franklin Park Mall,960062731,5001 Monroe St,Ste 1830,Toledo,OH,43623,US,419-474-5641,41.6981383673469,-83.6419485714286,"MON 10:00 AM-9:00 PM, TUE 10:00 AM-9:00 PM, WED 10:00 AM-9:00 PM, THU 10:00 AM-9:00 PM, FRI 10:00 AM-9:00 PM, SAT 10:00 AM-9:00 PM, SUN 11:00 AM-6:00 PM",,,
Findlay Village Mall,960062741,1800 Tiffin Ave,Ste 401,Findlay,OH,45840,US,419-423-4600,41.0529527336517,-83.6143047362178,"MON 10:00 AM-9:00 PM, TUE 10:00 AM-9:00 PM, WED 10:00 AM-9:00 PM, THU 10:00 AM-9:00 PM, FRI 10:00 AM-9:00 PM, SAT 10:00 AM-9:00 PM, SUN 11:00 AM-7:00 PM",,,
Miami Valley Centre Mall,960062738,987 E Ash St,Ste B6,Piqua,OH,45356,US,937-778-0433,40.15105,-84.22385,"MON 10:00 AM-9:00 PM, TUE 10:00 AM-9:00 PM, WED 10:00 AM-9:00 PM, THU 10:00 AM-9:00 PM, FRI 10:00 AM-9:00 PM, SAT 10:00 AM-9:00 PM, SUN 12:00 PM-7:00 PM",,,
River Valley Mall,960062727,1635 River Valley Cir S,,Lancaster,OH,43130,US,740-654-4258,39.7310321006515,-82.6253766314907,"MON 10:00 AM-9:00 PM, TUE 10:00 AM-9:00 PM, WED 10:00 AM-9:00 PM, THU 10:00 AM-9:00 PM, FRI 10:00 AM-9:00 PM, SAT 10:00 AM-9:00 PM, SUN 12:00 PM-6:00 PM",,,
Easton Town Center,960062728,135 Easton Town Ctr,,Columbus,OH,43230,US,614-428-7452,40.0498865656566,-82.9156366666667,"MON 10:00 AM-9:00 PM, TUE 10:00 AM-9:00 PM, WED 10:00 AM-9:00 PM, THU 10:00 AM-9:00 PM, FRI 10:00 AM-10:00 PM, SAT 10:00 AM-10:00 PM, SUN 12:00 PM-6:00 PM",,,
The Mall at Fairfield Commons,960062739,2727 Fairfield Commons Blvd,Ste  123,Beavercreek,OH,45431,US,937-429-1936,39.7669338073482,-84.0536074377453,"MON 10:00 AM-9:00 PM, TUE 10:00 AM-9:00 PM, WED 10:00 AM-9:00 PM, THU 10:00 AM-9:00 PM, FRI 10:00 AM-9:00 PM, SAT 10:00 AM-9:00 PM, SUN 12:00 PM-6:00 PM",,,
Belden Village Mall,960062736,4182 Belden Village Mall,,Canton,OH,44718,US,330-494-8934,40.8552486226801,-81.4263445914484,"MON 10:00 AM-9:00 PM, TUE 10:00 AM-9:00 PM, WED 10:00 AM-9:00 PM, THU 10:00 AM-9:00 PM, FRI 10:00 AM-9:00 PM, SAT 10:00 AM-9:00 PM, SUN 11:00 AM-6:00 PM",,,
Polaris Fashion Place,960062729,1500 Polaris Pkwy,Ste 2164,Columbus,OH,43240,US,614-985-6551,40.1415927502706,-82.9773875468073,"MON 10:00 AM-9:00 PM, TUE 10:00 AM-9:00 PM, WED 10:00 AM-9:00 PM, THU 10:00 AM-9:00 PM, FRI 10:00 AM-9:30 PM, SAT 10:00 AM-9:30 PM, SUN 12:00 PM-6:00 PM",,,
Tri-County Mall,960062737,11700 Princeton Pike,Ste A10,Cincinnati,OH,45246,US,513-671-1265,39.2904,-84.46667,"MON 10:00 AM-9:00 PM, TUE 10:00 AM-9:00 PM, WED 10:00 AM-9:00 PM, THU 10:00 AM-9:00 PM, FRI 10:00 AM-9:00 PM, SAT 10:00 AM-9:00 PM, SUN 12:00 PM-6:00 PM",,,
Dayton Mall,960062740,2700 Miamisburg Centerville Rd,Ste 650,Dayton,OH,45459,US,937-291-1056,39.636739091748,-84.2190084872719,"MON 10:00 AM-9:00 PM, TUE 10:00 AM-9:00 PM, WED 10:00 AM-9:00 PM, THU 10:00 AM-9:00 PM, FRI 10:00 AM-9:00 PM, SAT 10:00 AM-9:00 PM, SUN 12:00 PM-6:00 PM",,,
Southern Park Mall,978777308,7401 Market St,Ste 747,Youngstown,OH,44512,US,330-965-9352,41.0222599963242,-80.6627342574621,"MON 10:00 AM-9:00 PM, TUE 10:00 AM-9:00 PM, WED 10:00 AM-9:00 PM, THU 10:00 AM-9:00 PM, FRI 10:00 AM-9:00 PM, SAT 10:00 AM-9:00 PM, SUN 12:00 PM-6:00 PM",,,
Coastal Grand Mall,960062675,2000 Coastal Grand Cir,Ste 455,Myrtle Beach,SC,29577,US,843-626-6295,33.7006768634866,-78.9217642024861,"MON 10:00 AM-10:00 PM, TUE 10:00 AM-10:00 PM, WED 10:00 AM-10:00 PM, THU 10:00 AM-10:00 PM, FRI 10:00 AM-10:00 PM, SAT 10:00 AM-10:00 PM, SUN 12:00 PM-7:00 PM",,,
Mount Pleasant Towne Centre,-723956002,1220 Belk Dr.,Ste K3,Mount Pleasant,SC,29464,US,843-216-7718,32.8292925,-79.83015,"MON 10:00 AM-9:00 PM, TUE 10:00 AM-9:00 PM, WED 10:00 AM-9:00 PM, THU 10:00 AM-9:00 PM, FRI 10:00 AM-9:00 PM, SAT 10:00 AM-9:00 PM, SUN 12:00 PM-6:00 PM",,,
Columbiana Centre,960062674,100 Columbiana Cir,Ste 1450,Columbia,SC,29212,US,803-749-5311,34.07458,-81.15546,"MON 10:00 AM-9:00 PM, TUE 10:00 AM-9:00 PM, WED 10:00 AM-9:00 PM, THU 10:00 AM-9:00 PM, FRI 10:00 AM-9:00 PM, SAT 10:00 AM-9:00 PM, SUN 12:00 PM-6:00 PM",,,
Haywood Mall,960062676,700 Haywood Rd,Ste 2043A,Greenville,SC,29607,US,864-288-9461,34.8497,-82.33776,"MON 10:00 AM-9:00 PM, TUE 10:00 AM-9:00 PM, WED 10:00 AM-9:00 PM, THU 10:00 AM-9:00 PM, FRI 10:00 AM-9:00 PM, SAT 10:00 AM-9:00 PM, SUN 12:30 PM-6:00 PM",,,
Empire Mall,960062817,1060 W Empire Mall,Ste 30,Sioux Falls,SD,57106,US,605-361-2045,43.5129258566069,-96.77709,"MON 10:00 AM-9:00 PM, TUE 10:00 AM-9:00 PM, WED 10:00 AM-9:00 PM, THU 10:00 AM-9:00 PM, FRI 10:00 AM-9:00 PM, SAT 10:00 AM-9:00 PM, SUN 11:00 AM-6:00 PM",,,
Rushmore Mall,960062819,2200 N Maple Ave,Ste 224,Rapid City,SD,57701,US,605-342-2350,44.10696,-103.20798,"MON 10:00 AM-9:00 PM, TUE 10:00 AM-9:00 PM, WED 10:00 AM-9:00 PM, THU 10:00 AM-9:00 PM, FRI 10:00 AM-9:00 PM, SAT 10:00 AM-8:00 PM, SUN 11:00 AM-7:00 PM",,,
Aberdeen Mall,960062818,3315 6th Ave SE,Ste 23,Aberdeen,SD,57401,US,605-229-3111,45.45913,-98.4424649697058,"MON 10:00 AM-9:00 PM, TUE 10:00 AM-9:00 PM, WED 10:00 AM-9:00 PM, THU 10:00 AM-9:00 PM, FRI 10:00 AM-9:00 PM, SAT 10:00 AM-7:00 PM, SUN 12:00 PM-6:00 PM",,,
The Mall at Green Hills,992737200,2126 Abbott Martin Rd,Ste 179,Nashville,TN,37215,US,615-292-5825,36.10634,-86.81822,"MON 10:00 AM-9:00 PM, TUE 10:00 AM-9:00 PM, WED 10:00 AM-9:00 PM, THU 10:00 AM-9:00 PM, FRI 10:00 AM-9:00 PM, SAT 10:00 AM-9:00 PM, SUN 12:00 PM-6:00 PM",,,
Opry Mills,-1305309743,442 Opry Mills Dr,Ste 246,Nashville,TN,37214,US,615-232-5040,36.2057333333333,-86.696524,"MON 10:00 AM-9:00 PM, TUE 10:00 AM-9:00 PM, WED 10:00 AM-9:00 PM, THU 10:00 AM-9:00 PM, FRI 10:00 AM-9:00 PM, SAT 10:00 AM-9:00 PM, SUN 11:00 AM-7:00 PM",,,
RiverGate Mall,960062707,1000 Rivergate Pkwy,Ste 1509,Goodlettsville,TN,37072,US,615-851-3791,36.2983549180328,-86.6998773770492,"MON 10:00 AM-9:00 PM, TUE 10:00 AM-9:00 PM, WED 10:00 AM-9:00 PM, THU 10:00 AM-9:00 PM, FRI 10:00 AM-9:00 PM, SAT 10:00 AM-9:00 PM, SUN 12:00 PM-6:00 PM",,,
Governor's Square Mall,1063793784,2801 Wilma Rudolph Blvd,Ste 550,Clarksville,TN,37040,US,931-645-6925,36.58802,-87.29368,"MON 10:00 AM-9:00 PM, TUE 10:00 AM-9:00 PM, WED 10:00 AM-9:00 PM, THU 10:00 AM-9:00 PM, FRI 10:00 AM-9:00 PM, SAT 10:00 AM-9:00 PM, SUN 12:00 PM-6:00 PM",,,
Wolfchase Galleria,960062714,2760 N Germantown Pkwy,Ste 217,Memphis,TN,38133,US,901-381-2839,35.2009367288395,-89.792071276901,"MON 10:00 AM-9:00 PM, TUE 10:00 AM-9:00 PM, WED 10:00 AM-9:00 PM, THU 10:00 AM-9:00 PM, FRI 10:00 AM-9:00 PM, SAT 10:00 AM-9:00 PM, SUN 12:00 PM-6:00 PM",,,
West Town Center,960062711,7600 Kingston Pike,Ste 1017,Knoxville,TN,37919,US,865-691-7244,35.92816,-84.03742,"MON 10:00 AM-9:00 PM, TUE 10:00 AM-9:00 PM, WED 10:00 AM-9:00 PM, THU 10:00 AM-9:00 PM, FRI 10:00 AM-9:00 PM, SAT 10:00 AM-9:00 PM, SUN 12:00 PM-6:00 PM",,,
The Mall at Johnson City,960062710,2011 N Roan St,Ste 23,Johnson City,TN,37601,US,423-610-0352,36.33962,-82.37457,"MON 10:00 AM-9:00 PM, TUE 10:00 AM-9:00 PM, WED 10:00 AM-9:00 PM, THU 10:00 AM-9:00 PM, FRI 10:00 AM-9:00 PM, SAT 10:00 AM-9:00 PM, SUN 12:00 PM-6:00 PM",,,
Hamilton Place,960062709,2100 Hamilton Place Blvd,Ste 144,Chattanooga,TN,37421,US,423-553-0051,35.0369,-85.161,"MON 10:00 AM-9:00 PM, TUE 10:00 AM-9:00 PM, WED 10:00 AM-9:00 PM, THU 10:00 AM-9:00 PM, FRI 10:00 AM-9:00 PM, SAT 10:00 AM-9:00 PM, SUN 12:00 PM-6:00 PM",,,
Old Hickory Mall,960062715,2021 N Highland Ave,Ste D4,Jackson,TN,38305,US,731-660-2100,35.6565715940328,-88.8278682980479,"MON 10:00 AM-9:00 PM, TUE 10:00 AM-9:00 PM, WED 10:00 AM-9:00 PM, THU 10:00 AM-9:00 PM, FRI 10:00 AM-9:00 PM, SAT 10:00 AM-9:00 PM, SUN 12:00 PM-6:00 PM",,,
Coolsprings Galleria,960062706,1800 Galleria Blvd,Ste 1440,Franklin,TN,37067,US,615-771-8592,35.95775,-86.81128,"MON 10:00 AM-9:00 PM, TUE 10:00 AM-9:00 PM, WED 10:00 AM-9:00 PM, THU 10:00 AM-9:00 PM, FRI 10:00 AM-9:00 PM, SAT 10:00 AM-9:00 PM, SUN 12:00 PM-6:00 PM",,,
The Avenue Mufreesboro,960062708,2615 Medical Ctr Pkwy,Ste 1340,Murfreesboro,TN,37129,US,615-867-4072,35.8604072806505,-86.4427198700292,"MON 10:00 AM-9:00 PM, TUE 10:00 AM-9:00 PM, WED 10:00 AM-9:00 PM, THU 10:00 AM-9:00 PM, FRI 10:00 AM-9:00 PM, SAT 10:00 AM-9:00 PM, SUN 12:00 PM-6:00 PM",,,
Carriage Crossing,960062713,4650 Merchants Park Cir,Ste 826,Collierville,TN,38017,US,901-854-8390,35.02436,-89.715845,"MON 10:00 AM-9:00 PM, TUE 10:00 AM-9:00 PM, WED 10:00 AM-9:00 PM, THU 10:00 AM-9:00 PM, FRI 10:00 AM-9:00 PM, SAT 10:00 AM-9:00 PM, SUN 12:00 PM-6:00 PM",,,
Station Park,-1037115272,185 N. West Promontory,,Farmington,UT,84025,US,801-451-1978,40.9842459,-111.9075437,"MON 10:00 AM-9:00 PM, TUE 10:00 AM-9:00 PM, WED 10:00 AM-9:00 PM, THU 10:00 AM-9:00 PM, FRI 10:00 AM-9:00 PM, SAT 10:00 AM-9:00 PM, SUN 12:00 PM-6:00 PM",,,
District at South Jordan,960062982,11560 S District Main Dr,Ste 500,South Jordan,UT,84095,US,801-878-8407,40.5414670886076,-111.98066,"MON 10:00 AM-9:00 PM, TUE 10:00 AM-9:00 PM, WED 10:00 AM-9:00 PM, THU 10:00 AM-9:00 PM, FRI 10:00 AM-9:00 PM, SAT 10:00 AM-9:00 PM, SUN 12:00 PM-6:00 PM",,,
Fashion Place,960062985,6191 S State St,Ste 374,Murray,UT,84107,US,801-685-0636,40.6360916216216,-111.889254594595,"MON 10:00 AM-9:00 PM, TUE 10:00 AM-9:00 PM, WED 10:00 AM-9:00 PM, THU 10:00 AM-9:00 PM, FRI 10:00 AM-9:00 PM, SAT 10:00 AM-9:00 PM, SUN 12:00 PM-6:00 PM",,,
Cache Valley Mall,960062986,1300 N Main St,Ste 1167,Logan,UT,84341,US,435-753-3502,41.7554429268293,-111.834421463415,"MON 10:00 AM-9:00 PM, TUE 10:00 AM-9:00 PM, WED 10:00 AM-9:00 PM, THU 10:00 AM-9:00 PM, FRI 10:00 AM-9:00 PM, SAT 10:00 AM-9:00 PM, SUN 12:00 PM-5:00 PM",,,
Layton Hills Mall,960062980,1201 N Hill Field Rd,Ste 1091,Layton,UT,84041,US,801-593-8811,41.0776237931034,-111.973511896552,"MON 10:00 AM-9:00 PM, TUE 10:00 AM-9:00 PM, WED 10:00 AM-9:00 PM, THU 10:00 AM-9:00 PM, FRI 10:00 AM-9:00 PM, SAT 10:00 AM-9:00 PM, SUN 12:00 PM-6:00 PM",,,
Red Cliffs Mall,960062990,1770 Red Cliffs Dr,Ste 148,Saint George,UT,84790,US,435-628-0034,37.1181504064463,-113.545613605941,"MON 10:00 AM-9:00 PM, TUE 10:00 AM-9:00 PM, WED 10:00 AM-9:00 PM, THU 10:00 AM-9:00 PM, FRI 10:00 AM-9:00 PM, SAT 10:00 AM-9:00 PM, SUN 12:00 PM-5:00 PM",,,
South Towne Center,960062981,10450 S State St,Ste 1228,Sandy,UT,84070,US,801-816-0119,40.561580952381,-111.890930952381,"MON 10:00 AM-9:00 PM, TUE 10:00 AM-9:00 PM, WED 10:00 AM-9:00 PM, THU 10:00 AM-9:00 PM, FRI 10:00 AM-9:00 PM, SAT 10:00 AM-9:00 PM, SUN 12:00 PM-6:00 PM",,,
Newgate Mall,960062987,3651 Wall Ave,Ste 1190,Ogden,UT,84405,US,801-627-6323,41.197002244898,-111.979430408163,"MON 10:00 AM-9:00 PM, TUE 10:00 AM-9:00 PM, WED 10:00 AM-9:00 PM, THU 10:00 AM-9:00 PM, FRI 10:00 AM-9:00 PM, SAT 10:00 AM-9:00 PM, SUN 12:00 PM-6:00 PM",,,
The Gateway,960062984,131 S Rio Grande St,,Salt Lake City,UT,84101,US,801-456-0055,40.7666020689655,-111.904075862069,"MON 10:00 AM-9:00 PM, TUE 10:00 AM-9:00 PM, WED 10:00 AM-9:00 PM, THU 10:00 AM-9:00 PM, FRI 10:00 AM-10:00 PM, SAT 10:00 AM-10:00 PM, SUN 12:00 PM-6:00 PM",,,
Provo Towne Centre,960062988,1200 Towne Centre Blvd,Ste 1028,Provo,UT,84601,US,801-805-0010,40.21785,-111.66047,"MON 10:00 AM-9:00 PM, TUE 10:00 AM-9:00 PM, WED 10:00 AM-9:00 PM, THU 10:00 AM-9:00 PM, FRI 10:00 AM-9:00 PM, SAT 10:00 AM-9:00 PM, SUN 12:00 PM-6:00 PM",,,
University Mall,960062983,575 E University Pkwy,Ste E82,Orem,UT,84097,US,801-802-8333,40.27346,-111.681515,"MON 10:00 AM-9:00 PM, TUE 10:00 AM-9:00 PM, WED 10:00 AM-9:00 PM, THU 10:00 AM-9:00 PM, FRI 10:00 AM-9:00 PM, SAT 10:00 AM-9:00 PM, SUN Closed-Closed",,,
Patrick Henry Mall,983186206,12300 Jefferson Ave,Ste 220,Newport News,VA,23602,US,757-881-9081,37.11255,-76.49947,"MON 10:00 AM-9:00 PM, TUE 10:00 AM-9:00 PM, WED 10:00 AM-9:00 PM, THU 10:00 AM-9:00 PM, FRI 10:00 AM-9:00 PM, SAT 10:00 AM-9:00 PM, SUN 12:00 PM-6:00 PM",,,
Lynnhaven Mall,960062662,701 Lynnhaven Pkwy,Ste C6,Virginia Beach,VA,23452,US,757-306-4015,36.82004625,-76.0670075,"MON 10:00 AM-9:00 PM, TUE 10:00 AM-9:00 PM, WED 10:00 AM-9:00 PM, THU 10:00 AM-9:00 PM, FRI 10:00 AM-9:00 PM, SAT 10:00 AM-9:00 PM, SUN 12:00 PM-6:00 PM",,,
Charlottesville Fashion Square,1507358309,1601 Rio Rd E,Ste 1214B,Charlottesville,VA,22901,US,434-245-0160,38.07986,-78.47273,"MON 10:00 AM-9:00 PM, TUE 10:00 AM-9:00 PM, WED 10:00 AM-9:00 PM, THU 10:00 AM-9:00 PM, FRI 10:00 AM-9:00 PM, SAT 10:00 AM-9:00 PM, SUN 12:30 PM-5:30 PM",,,
Spotsylvania Towne Centre,1976925822,245 Spotsylvania Mall,,Fredericksburg,VA,22407,US,540-786-6409,38.2940466841051,-77.5121814584659,"MON 10:00 AM-9:30 PM, TUE 10:00 AM-9:30 PM, WED 10:00 AM-9:30 PM, THU 10:00 AM-9:30 PM, FRI 10:00 AM-9:30 PM, SAT 10:00 AM-9:30 PM, SUN 11:00 AM-6:00 PM",,,
Valley View Mall,960062663,4802 Valley View Blvd NW,Ste UB75,Roanoke,VA,24012,US,540-265-7322,37.303027804257,-79.9585288650109,"MON 10:00 AM-9:00 PM, TUE 10:00 AM-9:00 PM, WED 10:00 AM-9:00 PM, THU 10:00 AM-9:00 PM, FRI 10:00 AM-9:00 PM, SAT 10:00 AM-9:00 PM, SUN 12:00 PM-6:00 PM",,,
Short Pump Town Center,960062661,11800 W Broad St,Ste 2044,Richmond,VA,23233,US,804-364-4130,37.6543,-77.6233,"MON 10:00 AM-9:00 PM, TUE 10:00 AM-9:00 PM, WED 10:00 AM-9:00 PM, THU 10:00 AM-9:00 PM, FRI 10:00 AM-9:00 PM, SAT 10:00 AM-9:00 PM, SUN 12:00 PM-6:00 PM",,,
Firewheel Town Center,987494612,450 Coneflower Dr,,Garland,TX,75040,US,972-414-9757,32.9528257142857,-96.6122624489796,"MON 10:00 AM-9:00 PM, TUE 10:00 AM-9:00 PM, WED 10:00 AM-9:00 PM, THU 10:00 AM-9:00 PM, FRI 10:00 AM-9:00 PM, SAT 10:00 AM-9:00 PM, SUN 12:00 PM-6:00 PM",,,
North Star Mall,988319653,7400 San Pedro Ave,Ste 718,San Antonio,TX,78216,US,210-541-0856,29.51689,-98.49927,"MON 10:00 AM-9:00 PM, TUE 10:00 AM-9:00 PM, WED 10:00 AM-9:00 PM, THU 10:00 AM-9:00 PM, FRI 10:00 AM-9:00 PM, SAT 10:00 AM-9:00 PM, SUN 12:00 PM-6:00 PM",,,
NorthPark Center,993372307,8687 N Central Expy,Ste 2128,Dallas,TX,75225,US,214-265-7680,32.8697964516129,-96.77071,"MON 10:00 AM-9:00 PM, TUE 10:00 AM-9:00 PM, WED 10:00 AM-9:00 PM, THU 10:00 AM-9:00 PM, FRI 10:00 AM-9:00 PM, SAT 10:00 AM-9:00 PM, SUN 12:00 PM-6:00 PM",,,
Mall Del Norte,2058604071,5300 San Dario Ave,Ste 164,Laredo,TX,78041,US,956-722-0708,27.54788,-99.50315,"MON 10:00 AM-9:00 PM, TUE 10:00 AM-9:00 PM, WED 10:00 AM-9:00 PM, THU 10:00 AM-9:00 PM, FRI 10:00 AM-9:00 PM, SAT 10:00 AM-9:00 PM, SUN 11:00 AM-7:00 PM",,,
Golden Triangle Mall,-2067962700,2201 S Interstate 35 E,Ste 16-A,Denton,TX,76205,US,940-383-3439,33.345066200038,-97.1821713897114,"MON 10:00 AM-9:00 PM, TUE 10:00 AM-9:00 PM, WED 10:00 AM-9:00 PM, THU 10:00 AM-9:00 PM, FRI 10:00 AM-9:00 PM, SAT 10:00 AM-9:00 PM, SUN 11:00 AM-6:00 PM",,,
Brazos Mall,-1698012849,100 Highway 332,Ste 1190,Lake Jackson,TX,77566,US,979-297-3873,29.04666,-95.45565,"MON 10:00 AM-9:00 PM, TUE 10:00 AM-9:00 PM, WED 10:00 AM-9:00 PM, THU 10:00 AM-9:00 PM, FRI 10:00 AM-9:00 PM, SAT 10:00 AM-9:00 PM, SUN 12:00 PM-6:00 PM",,,
Grapevine Mills,-1527680260,3000 Grapevine Mills Pkwy,Ste 520,Grapevine,TX,76051,US,214-513-1368,32.96797,-97.03708,"MON 10:00 AM-9:00 PM, TUE 10:00 AM-9:00 PM, WED 10:00 AM-9:00 PM, THU 10:00 AM-9:00 PM, FRI 10:00 AM-9:00 PM, SAT 10:00 AM-9:00 PM, SUN 11:00 AM-7:00 PM",,,
Galleria Dallas,-1527680253,13350 Dallas Pkwy,Ste 2380,Dallas,TX,75240,US,972-385-5256,32.93079,-96.82116,"MON 10:00 AM-9:00 PM, TUE 10:00 AM-9:00 PM, WED 10:00 AM-9:00 PM, THU 10:00 AM-9:00 PM, FRI 10:00 AM-9:00 PM, SAT 10:00 AM-9:00 PM, SUN 12:00 PM-6:00 PM",,,
Katy Mills,-1494223427,5000 Katy Mills Cir,Ste 209,Katy,TX,77494,US,281-665-4140,29.776645,-95.81226,"MON 10:00 AM-9:00 PM, TUE 10:00 AM-9:00 PM, WED 10:00 AM-9:00 PM, THU 10:00 AM-9:00 PM, FRI 10:00 AM-9:00 PM, SAT 10:00 AM-9:00 PM, SUN 11:00 AM-6:00 PM",,,
Shops at Rivercenter,-563305280,849 E. Commerce St,Ste 509,San Antonio,TX,78205,US,210-228-9030,29.4228723529412,-98.483941372549,"MON 10:00 AM-9:00 PM, TUE 10:00 AM-9:00 PM, WED 10:00 AM-9:00 PM, THU 10:00 AM-9:00 PM, FRI 10:00 AM-9:00 PM, SAT 10:00 AM-9:00 PM, SUN 12:00 PM-6:00 PM",,,
Sunrise Mall,258298649,2370 N. Expressway,Ste 1282,Brownsville,TX,78526,US,956-542-2814,25.9842716,-97.4870306,"MON 10:00 AM-9:00 PM, TUE 10:00 AM-9:00 PM, WED 10:00 AM-9:00 PM, THU 10:00 AM-9:00 PM, FRI 10:00 AM-9:00 PM, SAT 10:00 AM-9:00 PM, SUN 12:00 PM-7:00 PM",,,
Southlake Town Square,960062931,408 Grand Ave,,Southlake,TX,76092,US,817-310-0706,32.9454305263158,-97.1295373684211,"MON 10:00 AM-9:00 PM, TUE 10:00 AM-9:00 PM, WED 10:00 AM-9:00 PM, THU 10:00 AM-9:00 PM, FRI 10:00 AM-9:00 PM, SAT 10:00 AM-9:00 PM, SUN 12:00 PM-6:00 PM",,,
Hulen Mall,960062933,4800 S Hulen St,Ste 2620,Fort Worth,TX,76132,US,817-292-7363,32.67759,-97.3955,"MON 10:00 AM-9:00 PM, TUE 10:00 AM-9:00 PM, WED 10:00 AM-9:00 PM, THU 10:00 AM-9:00 PM, FRI 10:00 AM-9:00 PM, SAT 10:00 AM-9:00 PM, SUN 12:00 PM-6:00 PM",,,
Highland Village,960062921,1700 Cottonwood Crk,Ste 120,Highland Village,TX,75077,US,972-966-3900,33.0745116778523,-97.0851567114094,"MON 10:00 AM-9:00 PM, TUE 10:00 AM-9:00 PM, WED 10:00 AM-9:00 PM, THU 10:00 AM-9:00 PM, FRI 10:00 AM-9:00 PM, SAT 10:00 AM-9:00 PM, SUN 12:00 PM-6:00 PM",,,
Hillside Village,960062923,305 W FM 1382,Ste 510,Cedar Hill,TX,75104,US,972-293-7700,32.60065,-96.94456,"MON 10:00 AM-9:00 PM, TUE 10:00 AM-9:00 PM, WED 10:00 AM-9:00 PM, THU 10:00 AM-9:00 PM, FRI 10:00 AM-9:00 PM, SAT 10:00 AM-9:00 PM, SUN 12:00 PM-6:00 PM",,,
Pearland Town Center,960062945,11200 Broadway St,Ste 1340,Pearland,TX,77584,US,713-436-7508,29.5556864705882,-95.3935560784314,"MON 10:00 AM-9:00 PM, TUE 10:00 AM-9:00 PM, WED 10:00 AM-9:00 PM, THU 10:00 AM-9:00 PM, FRI 10:00 AM-9:00 PM, SAT 10:00 AM-9:00 PM, SUN 11:00 AM-7:00 PM",,,
The Domain,1044549865,11010 Domain Dr,Ste 108,Austin,TX,78758,US,512-873-7948,30.3963409023118,-97.7265638522612,"MON 10:00 AM-9:00 PM, TUE 10:00 AM-9:00 PM, WED 10:00 AM-9:00 PM, THU 10:00 AM-9:00 PM, FRI 10:00 AM-9:00 PM, SAT 10:00 AM-9:00 PM, SUN 12:00 PM-6:00 PM",,,
The Village at Fairview,1046328240,212 Town Pl,,Fairview,TX,75069,US,972-549-4130,33.1319889009704,-96.6509543689348,"MON 10:00 AM-9:00 PM, TUE 10:00 AM-9:00 PM, WED 10:00 AM-9:00 PM, THU 10:00 AM-9:00 PM, FRI 10:00 AM-9:00 PM, SAT 10:00 AM-9:00 PM, SUN 12:00 PM-6:00 PM",,,
South Plains Mall,960062956,6002 Slide Rd,Ste F14,Lubbock,TX,79414,US,806-793-0559,33.5397,-101.92241,"MON 10:00 AM-9:00 PM, TUE 10:00 AM-9:00 PM, WED 10:00 AM-9:00 PM, THU 10:00 AM-9:00 PM, FRI 10:00 AM-9:00 PM, SAT 10:00 AM-9:00 PM, SUN 12:00 PM-7:00 PM",,,
Westgate Mall,960062955,7701 W Interstate 40,Ste 326,Amarillo,TX,79121,US,806-358-7705,35.19305,-101.7554,"MON 10:00 AM-9:00 PM, TUE 10:00 AM-9:00 PM, WED 10:00 AM-9:00 PM, THU 10:00 AM-9:00 PM, FRI 10:00 AM-9:00 PM, SAT 10:00 AM-9:00 PM, SUN 12:00 PM-6:00 PM",,,
Central Mall,960062925,49 Central Mall,,Texarkana,TX,75503,US,903-838-3032,33.4544234980632,-94.0840737841244,"MON 10:00 AM-9:00 PM, TUE 10:00 AM-9:00 PM, WED 10:00 AM-9:00 PM, THU 10:00 AM-9:00 PM, FRI 10:00 AM-9:00 PM, SAT 10:00 AM-9:00 PM, SUN 12:00 PM-7:00 PM",,,
Sikes Center Mall,960062934,3111 Midwestern Pkwy,Ste 642,Wichita Falls,TX,76308,US,940-691-2660,33.8704620408163,-98.5327714285714,"MON 10:00 AM-9:00 PM, TUE 10:00 AM-9:00 PM, WED 10:00 AM-9:00 PM, THU 10:00 AM-9:00 PM, FRI 10:00 AM-9:00 PM, SAT 10:00 AM-9:00 PM, SUN 11:00 AM-8:00 PM",,,
Sunset Mall,960062937,4001 Sunset Dr,Ste 1028,San Angelo,TX,76904,US,325-949-9081,31.4283582828283,-100.495409393939,"MON 10:00 AM-9:00 PM, TUE 10:00 AM-9:00 PM, WED 10:00 AM-9:00 PM, THU 10:00 AM-9:00 PM, FRI 10:00 AM-9:00 PM, SAT 10:00 AM-9:00 PM, SUN 12:00 PM-6:00 PM",,,
Midland Park Mall,960062958,4511 N Midkiff Rd,Ste F6,Midland,TX,79705,US,432-694-8225,32.0317650427615,-102.128785461164,"MON 10:00 AM-9:00 PM, TUE 10:00 AM-9:00 PM, WED 10:00 AM-9:00 PM, THU 10:00 AM-9:00 PM, FRI 10:00 AM-9:00 PM, SAT 10:00 AM-9:00 PM, SUN 11:00 AM-6:00 PM",,,
Longview Mall,960062926,3500 McCann Rd,,Longview,TX,75605,US,903-758-3889,32.53819,-94.75442,"MON 10:00 AM-9:00 PM, TUE 10:00 AM-9:00 PM, WED 10:00 AM-9:00 PM, THU 10:00 AM-9:00 PM, FRI 10:00 AM-9:00 PM, SAT 10:00 AM-9:00 PM, SUN 11:00 AM-6:00 PM",,,
Mall of Abilene,960062957,4310 Buffalo Gap Rd,Ste 1382,Abilene,TX,79606,US,325-695-9778,32.39921,-99.75933,"MON 10:00 AM-9:00 PM, TUE 10:00 AM-9:00 PM, WED 10:00 AM-9:00 PM, THU 10:00 AM-9:00 PM, FRI 10:00 AM-9:00 PM, SAT 10:00 AM-9:00 PM, SUN 12:00 PM-6:00 PM",,,
Lakeline Mall,960062953,11200 Lakeline Mall Dr,Ste M13,Cedar Park,TX,78613,US,512-257-1551,30.47181,-97.80343,"MON 10:00 AM-9:00 PM, TUE 10:00 AM-9:00 PM, WED 10:00 AM-9:00 PM, THU 10:00 AM-9:00 PM, FRI 10:00 AM-9:00 PM, SAT 10:00 AM-9:00 PM, SUN 12:00 PM-6:00 PM",,,
Broadway Square,960062927,4601 S Broadway Ave,Ste B05,Tyler,TX,75703,US,903-534-4820,32.3008112749022,-95.3007722244814,"MON 10:00 AM-9:00 PM, TUE 10:00 AM-9:00 PM, WED 10:00 AM-9:00 PM, THU 10:00 AM-9:00 PM, FRI 10:00 AM-9:00 PM, SAT 10:00 AM-9:00 PM, SUN 12:00 PM-6:00 PM",,,
The Parks at Arlington,960062929,3811 S Cooper St,Ste 1212,Arlington,TX,76015,US,817-419-0159,32.6841264705882,-97.1326441176471,"MON 10:00 AM-9:00 PM, TUE 10:00 AM-9:00 PM, WED 10:00 AM-9:00 PM, THU 10:00 AM-9:00 PM, FRI 10:00 AM-9:00 PM, SAT 10:00 AM-9:00 PM, SUN 12:00 PM-6:00 PM",,,
Post Oak Mall,960062947,1500 Harvey Rd,Ste 2022,College Station,TX,77840,US,979-695-1159,30.62766,-96.30469,"MON 10:00 AM-9:00 PM, TUE 10:00 AM-9:00 PM, WED 10:00 AM-9:00 PM, THU 10:00 AM-9:00 PM, FRI 10:00 AM-9:00 PM, SAT 10:00 AM-9:00 PM, SUN 12:00 PM-6:00 PM",,,
Midway Mall,960062922,4800 Texoma Pkwy,Ste B310,Sherman,TX,75090,US,903-891-3215,33.68612,-96.58245,"MON 11:00 AM-8:00 PM, TUE 11:00 AM-8:00 PM, WED 11:00 AM-8:00 PM, THU 11:00 AM-8:00 PM, FRI 11:00 AM-8:00 PM, SAT 10:00 AM-9:00 PM, SUN 12:00 PM-6:00 PM",,,
Town East Mall,960062924,2114 Town East Mall,,Mesquite,TX,75150,US,972-613-1672,32.8084209822128,-96.6263232426009,"MON 10:00 AM-9:00 PM, TUE 10:00 AM-9:00 PM, WED 10:00 AM-9:00 PM, THU 10:00 AM-9:00 PM, FRI 10:00 AM-9:00 PM, SAT 10:00 AM-9:00 PM, SUN 12:00 PM-6:00 PM",,,
Richland Mall,960062936,6001 W Waco Dr,Ste 114,Waco,TX,76710,US,254-741-1333,31.5138015994843,-97.1875688850791,"MON 10:00 AM-9:00 PM, TUE 10:00 AM-9:00 PM, WED 10:00 AM-9:00 PM, THU 10:00 AM-9:00 PM, FRI 10:00 AM-9:00 PM, SAT 10:00 AM-9:00 PM, SUN 12:00 PM-6:00 PM",,,
Barton Creek Square,960062954,2901 S Capitol of Texas Hwy,Ste K7,Austin,TX,78746,US,512-306-1855,30.25632,-97.8107975,"MON 10:00 AM-9:00 PM, TUE 10:00 AM-9:00 PM, WED 10:00 AM-9:00 PM, THU 10:00 AM-9:00 PM, FRI 10:00 AM-9:00 PM, SAT 10:00 AM-9:00 PM, SUN 11:00am-7:00 PM",,,
South Hill Mall,960063033,3500 S Meridian,Ste 640,Puyallup,WA,98373,US,253-848-5016,47.15801,-122.2931,"MON 10:00 AM-9:00 PM, TUE 10:00 AM-9:00 PM, WED 10:00 AM-9:00 PM, THU 10:00 AM-9:00 PM, FRI 10:00 AM-9:00 PM, SAT 10:00 AM-9:00 PM, SUN 10:00 AM-6:00 PM",,,
Capital Mall,960063035,625 Black Lake Blvd SW,Ste 362,Olympia,WA,98502,US,360-754-4809,47.04116,-122.93006,"MON 10:00 AM-9:00 PM, TUE 10:00 AM-9:00 PM, WED 10:00 AM-9:00 PM, THU 10:00 AM-9:00 PM, FRI 10:00 AM-9:00 PM, SAT 10:00 AM-9:00 PM, SUN 11:00 AM-6:00 PM",,,
Bellevue Square,1043804960,182 Bellevue Sq,,Bellevue,WA,98004,US,425-453-3234,47.615815433526,-122.201694739884,"MON 9:30 AM-9:30 PM, TUE 9:30 AM-9:30 PM, WED 9:30 AM-9:30 PM, THU 9:30 AM-9:30 PM, FRI 9:30 AM-9:30 PM, SAT 9:30 AM-9:30 PM, SUN 11:00 AM-7:00 PM",,,
Tacoma Mall,1261741597,4502 S Steele St,Ste 646A,Tacoma,WA,98409,US,253-473-9748,47.2178619463087,-122.467657114094,"MON 10:00 AM-9:00 PM, TUE 10:00 AM-9:00 PM, WED 10:00 AM-9:00 PM, THU 10:00 AM-9:00 PM, FRI 10:00 AM-9:00 PM, SAT 10:00 AM-9:00 PM, SUN 11:00 AM-7:00 PM",,,
Spokane Valley Mall,960063040,14700 E Indiana Ave,Ste 1032,Spokane Valley,WA,99216,US,509-893-0661,47.67607,-117.21087,"MON 10:00 AM-9:00 PM, TUE 10:00 AM-9:00 PM, WED 10:00 AM-9:00 PM, THU 10:00 AM-9:00 PM, FRI 10:00 AM-9:00 PM, SAT 10:00 AM-9:00 PM, SUN 11:00 AM-6:00 PM",,,
First Colony Mall,960062943,16535 Southwest Fwy,Ste 320B,Sugar Land,TX,77479,US,281-277-8500,29.59339,-95.62748,"MON 10:00 AM-9:00 PM, TUE 10:00 AM-9:00 PM, WED 10:00 AM-9:00 PM, THU 10:00 AM-9:00 PM, FRI 10:00 AM-9:00 PM, SAT 10:00 AM-9:00 PM, SUN 12:00 PM-6:00 PM",,,
The Galleria II,960062939,5085 Westheimer Rd,Ste B3860,Houston,TX,77056,US,713-355-4593,29.7406859401364,-95.4636270376354,"MON 10:00 AM-9:00 PM, TUE 10:00 AM-9:00 PM, WED 10:00 AM-9:00 PM, THU 10:00 AM-9:00 PM, FRI 10:00 AM-9:00 PM, SAT 10:00 AM-9:00 PM, SUN 11:00 AM-7:00 PM",,,
Ingram Park Mall,960062949,6301 NW Loop 410,Ste H10B,San Antonio,TX,78238,US,210-682-2617,29.4692627,-98.6207688,"MON 10:00 AM-9:00 PM, TUE 10:00 AM-9:00 PM, WED 10:00 AM-9:00 PM, THU 10:00 AM-9:00 PM, FRI 10:00 AM-9:00 PM, SAT 10:00 AM-9:00 PM, SUN 12:00 PM-6:00 PM",,,
La Palmera,960062951,5488 South Padre Island Dr,Ste 1524,Corpus Christi,TX,78411,US,361-991-0818,27.7088842857143,-97.3719126530612,"MON 10:00 AM-9:00 PM, TUE 10:00 AM-9:00 PM, WED 10:00 AM-9:00 PM, THU 10:00 AM-9:00 PM, FRI 10:00 AM-9:00 PM, SAT 10:00 AM-9:00 PM, SUN 11:00 AM-7:00 PM",,,
Parkdale Mall,960062946,6155 Eastex Fwy,Ste 240,Beaumont,TX,77706,US,409-892-0224,30.1275019751298,-94.1596983770546,"MON 10:00 AM-9:00 PM, TUE 10:00 AM-9:00 PM, WED 10:00 AM-9:00 PM, THU 10:00 AM-9:00 PM, FRI 10:00 AM-9:00 PM, SAT 10:00 AM-9:00 PM, SUN 12:00 PM-6:00 PM",,,
Baybrook Mall,960062944,1134 Baybrook Mall,,Friendswood,TX,77546,US,281-488-6125,29.5401092257049,-95.1495927018142,"MON 10:00 AM-9:00 PM, TUE 10:00 AM-9:00 PM, WED 10:00 AM-9:00 PM, THU 10:00 AM-9:00 PM, FRI 10:00 AM-9:00 PM, SAT 10:00 AM-9:00 PM, SUN 12:00 PM-6:00 PM",,,
Columbia Center,960063041,1321 N Columbia Center Blvd,Ste 242,Kennewick,WA,99336,US,509-374-9084,46.2246768686869,-119.224014848485,"MON 10:00 AM-9:00 PM, TUE 10:00 AM-9:00 PM, WED 10:00 AM-9:00 PM, THU 10:00 AM-9:00 PM, FRI 10:00 AM-9:00 PM, SAT 10:00 AM-9:00 PM, SUN 11:00 AM-7:00 PM",,,
Valley Mall,960063038,2529 Main St,Ste 166,Union Gap,WA,98903,US,509-469-8958,46.5642813043478,-120.480876086957,"MON 10:00 AM-9:00 PM, TUE 10:00 AM-9:00 PM, WED 10:00 AM-9:00 PM, THU 10:00 AM-9:00 PM, FRI 10:00 AM-9:00 PM, SAT 10:00 AM-9:00 PM, SUN 11:00 AM-7:00 PM",,,
Wenatchee Valley Mall,960063037,511 Valley Mall Pkwy,Ste A4,East Wenatchee,WA,98802,US,509-886-4807,47.4107832102562,-120.290318952345,"MON 10:00 AM-9:00 PM, TUE 10:00 AM-9:00 PM, WED 10:00 AM-9:00 PM, THU 10:00 AM-9:00 PM, FRI 10:00 AM-9:00 PM, SAT 10:00 AM-9:00 PM, SUN 11:00 AM-6:00 PM",,,
Westfield Southcenter Mall,960063031,681 Southcenter Mall,,Tukwila,WA,98188,US,206-246-4603,47.45692,-122.257899795918,"MON 10:00 AM-9:00 PM, TUE 10:00 AM-9:00 PM, WED 10:00 AM-9:00 PM, THU 10:00 AM-9:00 PM, FRI 10:00 AM-9:00 PM, SAT 10:00 AM-9:00 PM, SUN 11:00 AM-7:00 PM",,,
Vancouver Mall,960063036,8700 NE Vancouver Mall Dr,Ste 150,Vancouver,WA,98662,US,360-882-1626,45.6563430769231,-122.583251153846,"MON 10:00 AM-9:00 PM, TUE 10:00 AM-9:00 PM, WED 10:00 AM-9:00 PM, THU 10:00 AM-9:00 PM, FRI 10:00 AM-9:00 PM, SAT 10:00 AM-9:00 PM, SUN 11:00 AM-6:00 PM",,,
Bellis Fair,960063032,1 Bellis Fair Pkwy,Ste 613,Bellingham,WA,98226,US,360-734-2819,48.78438,-122.48618,"MON 10:00 AM-9:00 PM, TUE 10:00 AM-9:00 PM, WED 10:00 AM-9:00 PM, THU 10:00 AM-9:00 PM, FRI 10:00 AM-9:00 PM, SAT 10:00 AM-9:00 PM, SUN 11:00 AM-6:00 PM",,,
Cielo Vista Mall,960062959,8401 Gateway Blvd W,Ste T01E,El Paso,TX,79925,US,915-881-0380,31.773600576894,-106.381125375809,"MON 10:00 AM-9:00 PM, TUE 10:00 AM-9:00 PM, WED 10:00 AM-9:00 PM, THU 10:00 AM-9:00 PM, FRI 10:00 AM-9:00 PM, SAT 10:00 AM-9:00 PM, SUN 12:00 PM-6:00 PM",,,
North East Mall,960062930,1101 Melbourne Rd,Ste 3035,Hurst,TX,76053,US,817-595-2494,32.82864,-97.1973,"MON 10:00 AM-9:00 PM, TUE 10:00 AM-9:00 PM, WED 10:00 AM-9:00 PM, THU 10:00 AM-9:00 PM, FRI 10:00 AM-9:00 PM, SAT 10:00 AM-9:00 PM, SUN 12:00 PM-6:00 PM",,,
Lufkin Mall,960062928,4600 S Medford Dr,Ste 1116,Lufkin,TX,75901,US,936-632-2010,31.3116352898551,-94.7237468115942,"MON 10:00 AM-9:00 PM, TUE 10:00 AM-9:00 PM, WED 10:00 AM-9:00 PM, THU 10:00 AM-9:00 PM, FRI 10:00 AM-9:00 PM, SAT 10:00 AM-9:00 PM, SUN 12:00 PM-6:00 PM",,,
Ridgmar Mall,960062932,2014 Green Oaks Rd,,Fort Worth,TX,76116,US,817-377-4790,32.74046,-97.43382,"MON 10:00 AM-9:00 PM, TUE 10:00 AM-9:00 PM, WED 10:00 AM-9:00 PM, THU 10:00 AM-9:00 PM, FRI 10:00 AM-9:00 PM, SAT 10:00 AM-9:00 PM, SUN 12:00 PM-6:00 PM",,,
Stonebriar Centre,960062918,2601 Preston Rd,Ste 2252,Frisco,TX,75034,US,972-668-0560,33.10098,-96.80579,"MON 10:00 AM-9:00 PM, TUE 10:00 AM-9:00 PM, WED 10:00 AM-9:00 PM, THU 10:00 AM-9:00 PM, FRI 10:00 AM-9:00 PM, SAT 10:00 AM-9:00 PM, SUN 12:00 PM-6:00 PM",,,
La Plaza Shopping Center,960062952,2200 S 10th St,Ste M05,McAllen,TX,78503,US,956-683-1030,26.18426,-98.23333,"MON 10:00 AM-9:00 PM, TUE 10:00 AM-9:00 PM, WED 10:00 AM-9:00 PM, THU 10:00 AM-9:00 PM, FRI 10:00 AM-9:00 PM, SAT 10:00 AM-9:00 PM, SUN 11:00 AM-7:00 PM",,,
Northtown Mall,960063039,4750 N Division St,Ste 1226,Spokane,WA,99207,US,509-487-2882,47.7015806060606,-117.41112,"MON 10:00 AM-9:00 PM, TUE 10:00 AM-9:00 PM, WED 10:00 AM-9:00 PM, THU 10:00 AM-9:00 PM, FRI 10:00 AM-9:00 PM, SAT 10:00 AM-9:00 PM, SUN 11:00 AM-6:00 PM",,,
Alderwood Mall,960063030,3000 184th St SW,Ste 242,Lynnwood,WA,98037,US,425-771-7820,47.83178,-122.27328,"MON 10:00 AM-9:00 PM, TUE 10:00 AM-9:00 PM, WED 10:00 AM-9:00 PM, THU 10:00 AM-9:00 PM, FRI 10:00 AM-9:00 PM, SAT 10:00 AM-9:00 PM, SUN 11:00 AM-7:00 PM",,,
Kitsap Mall,960063034,10315 Silverdale Way NW,Ste B6,Silverdale,WA,98383,US,360-337-2200,47.6562925166735,-122.687886734994,"MON 10:00 AM-9:00 PM, TUE 10:00 AM-9:00 PM, WED 10:00 AM-9:00 PM, THU 10:00 AM-9:00 PM, FRI 10:00 AM-9:00 PM, SAT 10:00 AM-9:00 PM, SUN 11:00 AM-6:00 PM",,,
Victoria Mall,960062948,7800 N Navarro St,Ste 365,Victoria,TX,77904,US,361-574-7011,28.8667633557047,-96.9973712080537,"MON 10:00 AM-9:00 PM, TUE 10:00 AM-9:00 PM, WED 10:00 AM-9:00 PM, THU 10:00 AM-9:00 PM, FRI 10:00 AM-9:00 PM, SAT 10:00 AM-9:00 PM, SUN 12:00 PM-6:00 PM",,,
Killeen Mall,960062935,2100 S W S Young Dr,Ste 1248,Killeen,TX,76543,US,254-680-3200,31.09544,-97.72107,"MON 10:00 AM-9:00 PM, TUE 10:00 AM-9:00 PM, WED 10:00 AM-9:00 PM, THU 10:00 AM-9:00 PM, FRI 10:00 AM-9:00 PM, SAT 10:00 AM-9:00 PM, SUN 12:00 PM-6:00 PM",,,
Memorial City Mall,960062938,303 Memorial City Mall,Ste 375,Houston,TX,77024,US,713-468-3651,29.7786672745491,-95.5399420240481,"MON 10:00 AM-9:00 PM, TUE 10:00 AM-9:00 PM, WED 10:00 AM-9:00 PM, THU 10:00 AM-9:00 PM, FRI 10:00 AM-9:00 PM, SAT 10:00 AM-9:00 PM, SUN 12:00 PM-6:00 PM",,,
The Woodlands,960062942,1201 Lake Woodlands Dr,Ste 2198,The Woodlands,TX,77380,US,281-363-1511,30.1674403030303,-95.4537841414141,"MON 10:00 AM-9:00 PM, TUE 10:00 AM-9:00 PM, WED 10:00 AM-9:00 PM, THU 10:00 AM-9:00 PM, FRI 10:00 AM-9:00 PM, SAT 10:00 AM-9:00 PM, SUN 12:00 PM-6:00 PM",,,
Deerbrook Mall,960062941,20131 Highway 59 N,Ste 1164,Humble,TX,77338,US,281-548-3725,30.0067566666667,-95.2677533333333,"MON 10:00 AM-9:00 PM, TUE 10:00 AM-9:00 PM, WED 10:00 AM-9:00 PM, THU 10:00 AM-9:00 PM, FRI 10:00 AM-9:00 PM, SAT 10:00 AM-9:00 PM, SUN 12:00 PM-6:00 PM",,,
Willowbrook Mall,960062940,1476 Willowbrook Mall,,Houston,TX,77070,US,281-477-3376,29.9640375675676,-95.5399887387387,"MON 10:00 AM-9:00 PM, TUE 10:00 AM-9:00 PM, WED 10:00 AM-9:00 PM, THU 10:00 AM-9:00 PM, FRI 10:00 AM-9:00 PM, SAT 10:00 AM-9:00 PM, SUN 12:00 PM-6:00 PM",,,
The Shops at La Cantera,960062950,15900 La Cantera Pkwy,Ste 7730,San Antonio,TX,78256,US,210-558-7044,29.58921,-98.61957,"MON 10:00 AM-9:00 PM, TUE 10:00 AM-9:00 PM, WED 10:00 AM-9:00 PM, THU 10:00 AM-9:00 PM, FRI 10:00 AM-9:00 PM, SAT 10:00 AM-9:00 PM, SUN 12:00 PM-6:00 PM",,,
Meadowbrook Mall,2067190391,2399 Meadowbrook Mall,Ste 670,Bridgeport,WV,26330,US,304-842-9690,39.31535,-80.27212,"MON 10:00 AM-9:00 PM, TUE 10:00 AM-9:00 PM, WED 10:00 AM-9:00 PM, THU 10:00 AM-9:00 PM, FRI 10:00 AM-9:00 PM, SAT 10:00 AM-9:00 PM, SUN 11:00 AM-6:00 PM",,,
Crossroads Mall,-723956000,5475 Robert C Byrd Dr,Space F-12,Bradley,WV,25818,US,304-250-0800,37.8470631,-81.1953613,"MON 10:00 AM-9:00 PM, TUE 10:00 AM-9:00 PM, WED 10:00 AM-9:00 PM, THU 10:00 AM-9:00 PM, FRI 10:00 AM-9:00 PM, SAT 10:00 AM-9:00 PM, SUN 12:00 PM-6:00 PM",,,
Grand Central Mall,960062665,100 Grand Central Ave,Ste 256,Vienna,WV,26105,US,304-424-7111,39.3026,-81.54902,"MON 10:00 AM-9:00 PM, TUE 10:00 AM-9:00 PM, WED 10:00 AM-9:00 PM, THU 10:00 AM-9:00 PM, FRI 10:00 AM-9:00 PM, SAT 10:00 AM-9:00 PM, SUN 12:00 PM-6:00 PM",,,
Morgantown Mall,1295343708,9611 Mall Rd,,Morgantown,WV,26501,US,304-983-2243,39.6280952062309,-79.9955153007272,"MON 10:00 AM-9:00 PM, TUE 10:00 AM-9:00 PM, WED 10:00 AM-9:00 PM, THU 10:00 AM-9:00 PM, FRI 10:00 AM-9:00 PM, SAT 10:00 AM-9:00 PM, SUN 12:00 PM-6:00 PM",,,
Charleston Town Center,960062664,3000 Charleston Town Ctr,Ste 2017,Charleston,WV,25389,US,304-342-4771,38.3539993425441,-81.6343985802763,"MON 10:00 AM-9:00 PM, TUE 10:00 AM-9:00 PM, WED 10:00 AM-9:00 PM, THU 10:00 AM-9:00 PM, FRI 10:00 AM-9:00 PM, SAT 10:00 AM-9:00 PM, SUN 12:30 PM-6:00 PM",,,
Huntington Mall,960062660,1 Mall Rd,Ste 190,Barboursville,WV,25504,US,304-736-4150,38.41884,-82.26147,"MON 10:00 AM-9:00 PM, TUE 10:00 AM-9:00 PM, WED 10:00 AM-9:00 PM, THU 10:00 AM-9:00 PM, FRI 10:00 AM-9:00 PM, SAT 10:00 AM-9:00 PM, SUN 12:00 PM-6:00 PM",,,
Eastridge Mall,1561146314,601 SE Wyoming Blvd,Ste 1268,Casper,WY,82609,US,307-234-9497,42.84418,-106.26679,"MON 10:00 AM-9:00 PM, TUE 10:00 AM-9:00 PM, WED 10:00 AM-9:00 PM, THU 10:00 AM-9:00 PM, FRI 10:00 AM-9:00 PM, SAT 10:00 AM-9:00 PM, SUN 11:00 AM-6:00 PM",,,
Frontier Mall,960062973,1400 Dell Range Blvd,Ste 16,Cheyenne,WY,82009,US,307-638-8533,41.16031,-104.80639,"MON 10:00 AM-9:00 PM, TUE 10:00 AM-9:00 PM, WED 10:00 AM-9:00 PM, THU 10:00 AM-9:00 PM, FRI 10:00 AM-9:00 PM, SAT 10:00 AM-9:00 PM, SUN 11:00 AM-6:00 PM",,,
East Towne Mall,960062797,20 E Towne Mall,Ste E516,Madison,WI,53704,US,608-241-8003,43.1224729819282,-89.3063049354579,"MON 10:00 AM-9:00 PM, TUE 10:00 AM-9:00 PM, WED 10:00 AM-9:00 PM, THU 10:00 AM-9:00 PM, FRI 10:00 AM-9:00 PM, SAT 10:00 AM-9:00 PM, SUN 11:00 AM-6:00 PM",,,
West Towne Mall,960062798,49 West Towne Mall,Unit A05A,Madison,WI,53719,US,608-833-4323,43.059911,-89.506609,"MON 10:00 AM-9:00 PM, TUE 10:00 AM-9:00 PM, WED 10:00 AM-9:00 PM, THU 10:00 AM-9:00 PM, FRI 10:00 AM-9:00 PM, SAT 10:00 AM-9:00 PM, SUN 10:00 AM-6:00 PM",,,
Valley View Mall,960062801,3800 State Road 16,Ste 116,La Crosse,WI,54601,US,608-781-6659,43.7899,-91.2040046519153,"MON 10:00 AM-9:00 PM, TUE 10:00 AM-9:00 PM, WED 10:00 AM-9:00 PM, THU 10:00 AM-9:00 PM, FRI 10:00 AM-9:00 PM, SAT 10:00 AM-9:00 PM, SUN 11:00 AM-6:00 PM",,,
Fox River Mall,960062803,4301 W Wisconsin Ave,Ste 317,Appleton,WI,54913,US,920-832-9511,44.2730344444444,-88.4698355555556,"MON 10:00 AM-9:00 PM, TUE 10:00 AM-9:00 PM, WED 10:00 AM-9:00 PM, THU 10:00 AM-9:00 PM, FRI 10:00 AM-9:00 PM, SAT 10:00 AM-9:00 PM, SUN 10:00 AM-6:00 PM",,,
Oakwood Mall,960062802,4800 Golf  Rd,Ste 406,Eau Claire,WI,54701,US,715-836-9008,44.7750795846042,-91.4375577988194,"MON 10:00 AM-9:00 PM, TUE 10:00 AM-9:00 PM, WED 10:00 AM-9:00 PM, THU 10:00 AM-9:00 PM, FRI 10:00 AM-9:00 PM, SAT 10:00 AM-9:00 PM, SUN 11:00 AM-7:00 PM",,,
Southridge Mall,960062793,5300 S 76th St,Ste 320,Greendale,WI,53129,US,414-421-9311,42.9483540740741,-88.008397037037,"MON 10:00 AM-9:00 PM, TUE 10:00 AM-9:00 PM, WED 10:00 AM-9:00 PM, THU 10:00 AM-9:00 PM, FRI 10:00 AM-9:00 PM, SAT 10:00 AM-9:00 PM, SUN 11:00 AM-6:00 PM",,,
Forest Mall,960062804,835 W Johnson St,Ste D04,Fond Du Lac,WI,54935,US,920-922-3635,43.7844477779002,-88.4756555618608,"MON 10:00 AM-9:00 PM, TUE 10:00 AM-9:00 PM, WED 10:00 AM-9:00 PM, THU 10:00 AM-9:00 PM, FRI 10:00 AM-9:00 PM, SAT 10:00 AM-8:00 PM, SUN 10:00 AM-5:00 PM",,,
Wausau Center,960062800,D-444 Wausau Ctr,Ste. D444,Wausau,WI,54403,US,715-842-7321,44.95841,-89.628106,"MON 10:00 AM-9:00 PM, TUE 10:00 AM-9:00 PM, WED 10:00 AM-9:00 PM, THU 10:00 AM-9:00 PM, FRI 10:00 AM-9:00 PM, SAT 9:30 AM-9:00 PM, SUN 11:00 AM-6:00 PM",,,
Janesville Mall,960062796,2500 Milton Ave,Ste 164B,Janesville,WI,53545,US,608-756-3806,42.7126609090909,-89.001433030303,"MON 10:00 AM-9:00 PM, TUE 10:00 AM-9:00 PM, WED 10:00 AM-9:00 PM, THU 10:00 AM-9:00 PM, FRI 10:00 AM-9:00 PM, SAT 10:00 AM-9:00 PM, SUN 11:00 AM-6:00 PM",,,
Mayfair Mall,960062794,2500 N Mayfair Rd,Ste 618,Wauwatosa,WI,53226,US,414-771-4702,43.0646011842105,-88.0476442105263,"MON 10:00 AM-9:00 PM, TUE 10:00 AM-9:00 PM, WED 10:00 AM-9:00 PM, THU 10:00 AM-9:00 PM, FRI 10:00 AM-9:00 PM, SAT 10:00 AM-9:00 PM, SUN 11:00 AM-6:00 PM",,,
Bay Park Square,960062799,697 Bay Park Sq,,Green Bay,WI,54304,US,920-490-8849,44.4831317150297,-88.0656535989584,"MON 10:00 AM-9:00 PM, TUE 10:00 AM-9:00 PM, WED 10:00 AM-9:00 PM, THU 10:00 AM-9:00 PM, FRI 10:00 AM-9:00 PM, SAT 10:00 AM-9:00 PM, SUN 11:00 AM-6:00 PM",,,
Brookfield Square,960062792,95 N Moorland Rd,Ste D5,Brookfield,WI,53005,US,262-787-0772,43.0321933333333,-88.1068988888889,"MON 10:00 AM-9:00 PM, TUE 10:00 AM-9:00 PM, WED 10:00 AM-9:00 PM, THU 10:00 AM-9:00 PM, FRI 10:00 AM-9:00 PM, SAT 10:00 AM-9:00 PM, SUN 11:00 AM-6:00 PM",,,
