store_name,store_number,address,address2,city,state,zip_code,country,phone_number,latitude,longitude,store_hours,store_type,other_fields,coming_soon
Pinnacle Hills Promenade,,2203 S. 45th Street ,,Rogers ,AR,72758,United States,479 936-7949,,,"Monday: 10:00 am - 09:00 pm, Tuesday: 10:00 am - 09:00 pm, Wednesday: 10:00 am - 09:00 pm, Thursday: 10:00 am - 09:00 pm, Friday: 10:00 am - 09:00 pm, Saturday: 10:00 am - 09:00 pm, Sunday: 12:00 pm - 06:00 pm",,,0
Rehoboth Outlet,,36502 Seaside Outlet Drive Suite 1230 ,,Rehoboth ,DE,19971,United States,302-864-9016,,,"Sunday: 10:00 am - 07:00 pm, Monday: 09:00 am - 07:00 pm, Tuesday: 09:00 am - 07:00 pm, Wednesday: 09:00 am - 07:00 pm, Thursday: 09:00 am - 07:00 pm, Friday: 09:00 am - 09:00 pm, Saturday: 09:00 am - 09:00 pm",,,0
Park Plaza,,6000 West Markham St. ,,Little Rock ,AR,72205,United States,501 603-0800,,,"Monday: 10:00 am - 09:00 pm, Tuesday: 10:00 am - 09:00 pm, Wednesday: 10:00 am - 09:00 pm, Thursday: 10:00 am - 09:00 pm, Friday: 10:00 am - 09:00 pm, Saturday: 10:00 am - 09:00 pm, Sunday: 12:00 pm - 06:00 pm",,,0
Christiana Mall,,740 Christiana Mall Space 1150 ,,Newark ,DE,19702,United States,302-273-6310,,,"Monday: 10:00 am - 09:00 pm, Tuesday: 10:00 am - 09:00 pm, Wednesday: 10:00 am - 09:00 pm, Thursday: 10:00 am - 09:00 pm, Friday: 10:00 am - 09:00 pm, Saturday: 10:00 am - 09:00 pm, Sunday: 11:00 am - 06:00 pm",,,0
Westfield Trumbull,,5065 Main St ,,Trumbull ,CT,06611,United States,203 372-2700,,,"Monday: 10:00 am - 09:00 pm, Tuesday: 10:00 am - 09:00 pm, Wednesday: 10:00 am - 09:00 pm, Thursday: 10:00 am - 09:00 pm, Friday: 10:00 am - 09:00 pm, Saturday: 10:00 am - 09:00 pm, Sunday: 11:00 am - 06:00 pm",,,0
Boise Towne Square,,350 N Milwaukee St ,,Boise ,ID,83704,United States,208 321-8200,,,"Monday: 10:00 am - 09:00 pm, Tuesday: 10:00 am - 09:00 pm, Wednesday: 10:00 am - 09:00 pm, Thursday: 10:00 am - 09:00 pm, Friday: 10:00 am - 09:00 pm, Saturday: 10:00 am - 09:00 pm, Sunday: 11:00 am - 07:00 pm",,,0
The Shoppes at Buckland Hills,,194 Buckland Hills Dr. ,,Manchester ,CT,06040,United States,860-648-1607,,,"Monday: 10:00 am - 09:00 pm, Tuesday: 10:00 am - 09:00 pm, Wednesday: 10:00 am - 09:00 pm, Thursday: 10:00 am - 09:00 pm, Friday: 10:00 am - 09:00 pm, Saturday: 10:00 am - 09:00 pm, Sunday: 11:00 am - 06:30 pm",,,0
Jordan Creek Town Center,,101 Jordan Creek Parkway ,,West Des Moines ,IA,50266,United States,515 225-6177,,,"Monday: 10:00 am - 09:00 pm, Tuesday: 10:00 am - 09:00 pm, Wednesday: 10:00 am - 09:00 pm, Thursday: 10:00 am - 09:00 pm, Friday: 10:00 am - 09:00 pm, Saturday: 10:00 am - 09:00 pm, Sunday: 11:00 am - 06:00 pm",,,0
The Mall at Turtle Creek,,3000 East Highland Drive ,,Jonesboro ,AR,72401,United States,870 268-8581,,,"Monday: 10:00 am - 09:00 pm, Tuesday: 10:00 am - 09:00 pm, Wednesday: 10:00 am - 09:00 pm, Thursday: 10:00 am - 09:00 pm, Friday: 10:00 am - 09:00 pm, Saturday: 10:00 am - 09:00 pm, Sunday: 12:30 pm - 06:00 pm",,,0
Westfarms,,112 Westfarms Mall Space H124 ,,Farmington ,CT,06032,United States,860-313-4055,,,"Monday: 10:00 am - 09:30 pm, Tuesday: 10:00 am - 09:30 pm, Wednesday: 10:00 am - 09:30 pm, Thursday: 10:00 am - 09:30 pm, Friday: 10:00 am - 09:30 pm, Saturday: 10:00 am - 09:30 pm, Sunday: 11:00 am - 06:00 pm",,,0
Towne East Square,,7700 East Kellogg Dr ,,Wichita ,KS,67207,United States,316 684-3700,,,"Monday: 10:00 am - 09:00 pm, Tuesday: 10:00 am - 09:00 pm, Wednesday: 10:00 am - 09:00 pm, Thursday: 10:00 am - 09:00 pm, Friday: 10:00 am - 09:00 pm, Saturday: 10:00 am - 09:00 pm, Sunday: 12:00 pm - 06:00 pm",,,0
NorthPark Mall,,320 West Kimberly Road ,,Davenport ,IA,52806,United States,563 391-4694,,,"Monday: 10:00 am - 09:00 pm, Tuesday: 10:00 am - 09:00 pm, Wednesday: 10:00 am - 09:00 pm, Thursday: 10:00 am - 09:00 pm, Friday: 10:00 am - 10:00 pm, Saturday: 10:00 am - 09:30 pm, Sunday: 12:00 pm - 06:00 pm",,,0
Oglethorpe Mall,,7804 Abercorn Street ,,Savannah ,GA,31406,United States,912 352-1876,,,"Monday: 10:00 am - 09:00 pm, Tuesday: 10:00 am - 09:00 pm, Wednesday: 10:00 am - 09:00 pm, Thursday: 10:00 am - 09:00 pm, Friday: 10:00 am - 09:00 pm, Saturday: 10:00 am - 09:00 pm, Sunday: 12:00 pm - 06:00 pm",,,0
Town Center at Cobb,,400 ErnestW. Barrett Pkwy NW Suite 276 ,,Kennesaw ,GA,30144-4957,United States,678-354-0603,,,"Monday: 10:00 am - 09:00 pm, Tuesday: 10:00 am - 09:00 pm, Wednesday: 10:00 am - 09:00 pm, Thursday: 10:00 am - 09:00 pm, Friday: 10:00 am - 09:00 pm, Saturday: 10:00 am - 09:00 pm, Sunday: 12:00 pm - 06:00 pm",,,0
The Maine Mall,,364 Maine Mall Rd. ,,Portland ,ME,04106,United States,207 541-3789,,,"Monday: 10:00 am - 09:00 pm, Tuesday: 10:00 am - 09:00 pm, Wednesday: 10:00 am - 09:00 pm, Thursday: 10:00 am - 09:00 pm, Friday: 10:00 am - 09:00 pm, Saturday: 10:00 am - 09:00 pm, Sunday: 12:00 pm - 06:00 pm",,,0
Bangor Mall,,663 Stillwater Avenue ,,Bangor ,ME,04401,United States,207 262-1041,,,"Monday: 10:00 am - 09:00 pm, Tuesday: 10:00 am - 09:00 pm, Wednesday: 10:00 am - 09:00 pm, Thursday: 10:00 am - 09:00 pm, Friday: 10:00 am - 09:00 pm, Saturday: 10:00 am - 09:00 pm, Sunday: 11:00 am - 06:00 pm",,,0
Paddock Shops,,4130 Summit Plaza Drive ,,Louisville ,KY,40241,United States,502-426-9285,,,"Monday: 10:00 am - 09:00 pm, Tuesday: 10:00 am - 09:00 pm, Wednesday: 10:00 am - 09:00 pm, Thursday: 10:00 am - 09:00 pm, Friday: 10:00 am - 09:00 pm, Saturday: 10:00 am - 09:00 pm, Sunday: 12:00 pm - 06:00 pm",,,0
Arbor Place,,6700 Douglas Blvd Suite 2010 ,,Douglasville ,GA,30135-7109,United States,678-838-4567,,,"Monday: 10:00 am - 09:00 pm, Tuesday: 10:00 am - 09:00 pm, Wednesday: 10:00 am - 09:00 pm, Thursday: 10:00 am - 09:00 pm, Friday: 10:00 am - 09:00 pm, Saturday: 10:00 am - 09:00 pm, Sunday: 12:00 pm - 06:00 pm",,,0
Mall Of Georgia,,3333 Buford DriveSuite 2017 ,,Buford ,GA,30519-4913,United States,770-945-2990,,,"Monday: 10:00 am - 09:00 pm, Tuesday: 10:00 am - 09:00 pm, Wednesday: 10:00 am - 09:00 pm, Thursday: 10:00 am - 09:00 pm, Friday: 10:00 am - 09:00 pm, Saturday: 10:00 am - 09:00 pm, Sunday: 12:00 pm - 06:00 pm",,,0
Augusta Mall,,3450 Wrightsboro Rd ,,Augusta ,GA,30909,United States,706 736-0895,,,"Monday: 10:00 am - 09:00 pm, Tuesday: 10:00 am - 09:00 pm, Wednesday: 10:00 am - 09:00 pm, Thursday: 10:00 am - 09:00 pm, Friday: 10:00 am - 09:00 pm, Saturday: 10:00 am - 09:00 pm, Sunday: 12:00 pm - 06:00 pm",,,0
The Mall at Stonecrest - Store Closed,,2929 Turner Hill Road Suite 1220 ,,Atlanta ,GA,30038,United States,770-482-9239,,,,,,0
Cumberland Mall,,1000 Cumberland Mall Space 113 ,,Atlanta ,GA,30339,United States,770-803-6328,,,"Monday: 10:00 am - 09:00 pm, Tuesday: 10:00 am - 09:00 pm, Wednesday: 10:00 am - 09:00 pm, Thursday: 10:00 am - 09:00 pm, Friday: 10:00 am - 09:00 pm, Saturday: 10:00 am - 08:00 pm, Sunday: 12:00 pm - 07:00 pm",,,0
Lakeside Shopping Center,,3301 Veterans Memorial Blvd Suite 99 ,,Metairie ,LA,70002,United States,(504) 539-3963,,,"Sunday: 12:00 pm - 06:00 pm, Monday: 10:00 am - 09:00 pm, Tuesday: 10:00 am - 09:00 pm, Wednesday: 10:00 am - 09:00 pm, Thursday: 10:00 am - 09:00 pm, Friday: 10:00 am - 09:00 pm, Saturday: 10:00 am - 09:00 pm",,,0
The Mall of Acadiana,,5725 Johnson Street ,,Lafayette ,LA,70503,United States,337 984-8079,,,"Monday: 10:00 am - 09:00 pm, Tuesday: 10:00 am - 09:00 pm, Wednesday: 10:00 am - 09:00 pm, Thursday: 10:00 am - 09:00 pm, Friday: 10:00 am - 09:00 pm, Saturday: 10:00 am - 09:00 pm, Sunday: 12:00 pm - 06:00 pm",,,0
Mall of Louisiana,,6401 Bluebonnet Blvd. Suite 1102 ,,Baton Rouge ,LA,70836,United States,225-766-2084,,,"Monday: 10:00 am - 09:00 pm, Tuesday: 10:00 am - 09:00 pm, Wednesday: 10:00 am - 09:00 pm, Thursday: 10:00 am - 09:00 pm, Friday: 10:00 am - 09:00 pm, Saturday: 10:00 am - 09:00 pm, Sunday: 12:00 pm - 06:00 pm",,,0
Phipps Plaza,,3500 Peachtree Road NE Suite 2034 ,,Atlanta ,GA,30326,United States,(404) 848-1515,,,"Sunday: 12:00 pm - 05:30 pm, Monday: 10:00 am - 09:00 pm, Tuesday: 10:00 am - 09:00 pm, Wednesday: 10:00 am - 09:00 pm, Thursday: 10:00 am - 09:00 pm, Friday: 10:00 am - 09:00 pm, Saturday: 10:00 am - 09:00 pm",,,0
North Point Mall,,1092 North Point Circle ,,Alpharetta ,GA,30022,United States,770-442-0900,,,"Monday: 10:00 am - 09:00 pm, Tuesday: 10:00 am - 09:00 pm, Wednesday: 10:00 am - 09:00 pm, Thursday: 10:00 am - 09:00 pm, Friday: 10:00 am - 09:00 pm, Saturday: 10:00 am - 09:00 pm, Sunday: 12:00 pm - 07:00 pm",,,0
Louisiana Boardwalk Outlets,,425 Boardwalk Blvd ,,Bossier City ,LA,71111,United States,318 747-5573,,,"Monday: 10:00 am - 09:00 pm, Tuesday: 10:00 am - 09:00 pm, Wednesday: 10:00 am - 09:00 pm, Thursday: 10:00 am - 09:00 pm, Friday: 10:00 am - 10:00 pm, Saturday: 10:00 am - 10:00 pm, Sunday: 11:00 am - 07:00 pm",,,0
Shops at Wiregrass,,28163 Paseo Drive Unit # 170 Bldg. 8 ,,Wesley Chapel ,FL,33543,United States,813-973-4931,,,"Monday: 10:00 am - 09:00 pm, Tuesday: 10:00 am - 09:00 pm, Wednesday: 10:00 am - 09:00 pm, Thursday: 10:00 am - 09:00 pm, Friday: 10:00 am - 09:00 pm, Saturday: 10:00 am - 09:00 pm, Sunday: 12:00 pm - 06:00 pm",,,0
The Mall at Wellington Green,,10300 W. Forest Hill Blvd. Suite 114 ,,Wellington ,FL,33414,United States,561-345-6649,,,"Monday: 10:00 am - 09:00 pm, Tuesday: 10:00 am - 09:00 pm, Wednesday: 10:00 am - 09:00 pm, Thursday: 10:00 am - 09:00 pm, Friday: 10:00 am - 09:00 pm, Saturday: 10:00 am - 08:00 pm, Sunday: 12:00 pm - 07:00 pm",,,0
Pembroke Lakes Mall,,11401 Pines Blvd. ,,Pembroke Pines ,FL,33026,United States,954 433-0458,,,"Monday: 10:00 am - 09:00 pm, Tuesday: 10:00 am - 09:00 pm, Wednesday: 10:00 am - 09:00 pm, Thursday: 10:00 am - 09:00 pm, Friday: 10:00 am - 09:00 pm, Saturday: 10:00 am - 09:00 pm, Sunday: 12:00 pm - 06:00 pm",,,0
The Gardens Mall,,3101 P GA Blvd Suite C117 ,,Palm Beach Gardens ,FL,33410-2826,United States,561-630-7734,,,"Monday: 10:00 am - 09:00 pm, Tuesday: 10:00 am - 09:00 pm, Wednesday: 10:00 am - 09:00 pm, Thursday: 10:00 am - 09:00 pm, Friday: 10:00 am - 09:00 pm, Saturday: 10:00 am - 09:00 pm, Sunday: 12:00 pm - 06:00 pm",,,0
Build-A-Bear Workshop® At T-REX Cafe,,1676 East Buena Vista Drive ,,Lake Buena Vista ,FL,32830,United States,407-828-8739,,,"Sunday: 09:30 am - 11:00 pm, Monday: 09:30 am - 11:00 pm, Tuesday: 09:30 am - 11:00 pm, Wednesday: 09:30 am - 11:00 pm, Thursday: 09:30 am - 11:00 pm, Friday: 09:30 am - 12:00 am, Saturday: 09:30 am - 12:00 am",,,0
The Florida Mall,,8001 South Orange Blossom Trail Number 1244 ,,Orlando ,FL,32809-7663,United States,407-438-8882,,,"Monday: 10:00 am - 09:00 pm, Tuesday: 10:00 am - 09:00 pm, Wednesday: 10:00 am - 09:00 pm, Thursday: 10:00 am - 09:00 pm, Friday: 10:00 am - 09:00 pm, Saturday: 10:00 am - 10:00 pm, Sunday: 12:00 pm - 08:00 pm",,,0
"Orlando Premium Intl Outlets- Store Closed April 23, 2017",,4967 International Dr Ste 3A27 ,,Orlando ,FL,32819,United States,,,,,,,0
"Build-A-Bear Workshop At Toys""R""Us - Miami Intl Mall",,1645 NW 107th Ave ,,Miami ,FL,33172,United States,314-452-8963,,,"Monday: 10:00 am - 09:00 pm, Tuesday: 10:00 am - 09:00 pm, Wednesday: 10:00 am - 09:00 pm, Thursday: 10:00 am - 09:00 pm, Friday: 10:00 am - 09:00 pm, Saturday: 10:00 am - 09:00 pm, Sunday: 11:00 am - 07:00 pm",,,0
The Falls,,US1 & SW 136 Street ,,Miami ,FL,33176,United States,786 573-3463,,,"Monday: 10:00 am - 09:00 pm, Tuesday: 10:00 am - 09:00 pm, Wednesday: 10:00 am - 09:00 pm, Thursday: 10:00 am - 09:00 pm, Friday: 10:00 am - 09:00 pm, Saturday: 10:00 am - 09:00 pm, Sunday: 12:00 pm - 07:00 pm",,,0
Build-A-Bear Workshop within Gaylord Palms Resort & Convention Center,,6000 W Osceola Pkwy ,,Kissimmee ,FL,34746,United States,,,,"Sunday: 10:00 am - 10:00 pm, Monday: 10:00 am - 08:00 pm, Tuesday: 10:00 am - 08:00 pm, Wednesday: 10:00 am - 08:00 pm, Thursday: 10:00 am - 08:00 pm, Friday: 10:00 am - 10:00 pm, Saturday: 10:00 am - 10:00 pm",,,0
The Avenues,,10300 Southside Blvd ,,Space 158A Jacksonville ,FL,32256,United States,904-538-0760,,,"Monday: 10:00 am - 09:00 pm, Tuesday: 10:00 am - 09:00 pm, Wednesday: 10:00 am - 09:00 pm, Thursday: 10:00 am - 09:00 pm, Friday: 10:00 am - 09:00 pm, Saturday: 10:00 am - 09:00 pm, Sunday: 12:00 pm - 06:00 pm",,,0
The Oaks Mall,,6419 Newberry Rd. Space 5680 ,,Gainesville ,FL,32605,United States,,,,,,,1
Coconut Point,,23191 Fashion Drive ,,Estero ,FL,33928,United States,239 947-5871,,,"Monday: 10:00 am - 09:00 pm, Tuesday: 10:00 am - 09:00 pm, Wednesday: 10:00 am - 09:00 pm, Thursday: 10:00 am - 09:00 pm, Friday: 10:00 am - 09:00 pm, Saturday: 10:00 am - 09:00 pm, Sunday: 12:00 pm - 06:00 pm",,,0
Destin Commons,,4336 Legendary Drive ,,Destin ,FL,32541,United States,850 654-6001,,,"Monday: 10:00 am - 09:00 pm, Tuesday: 10:00 am - 09:00 pm, Wednesday: 10:00 am - 09:00 pm, Thursday: 10:00 am - 09:00 pm, Friday: 10:00 am - 09:00 pm, Saturday: 10:00 am - 09:00 pm, Sunday: 11:00 am - 07:00 pm",,,0
Coral Square,,9581 W. Atlantic Blvd. ,,Coral Springs ,FL,33071,United States,954 575-0500,,,"Monday: 10:00 am - 09:00 pm, Tuesday: 10:00 am - 09:00 pm, Wednesday: 10:00 am - 09:00 pm, Thursday: 10:00 am - 09:00 pm, Friday: 10:00 am - 09:00 pm, Saturday: 10:00 am - 08:00 pm, Sunday: 12:00 pm - 07:00 pm",,,0
Westfield Countryside,,27001 US Highway 19 North Suite 2063 ,,Clearwater ,FL,33761,United States,727-724-1700,,,"Monday: 10:00 am - 09:00 pm, Tuesday: 10:00 am - 09:00 pm, Wednesday: 10:00 am - 09:00 pm, Thursday: 10:00 am - 09:00 pm, Friday: 10:00 am - 09:00 pm, Saturday: 10:00 am - 09:00 pm, Sunday: 12:00 pm - 06:00 pm",,,0
Westfield Brandon,,459 Brandon Town Center Mall ,,Brandon ,FL,33511,United States,813 681-2285,,,"Monday: 10:00 am - 09:00 pm, Tuesday: 10:00 am - 09:00 pm, Wednesday: 10:00 am - 09:00 pm, Thursday: 10:00 am - 09:00 pm, Friday: 10:00 am - 09:00 pm, Saturday: 10:00 am - 09:00 pm, Sunday: 11:00 am - 06:00 pm",,,0
"Build-A-Bear Workshop At Toys""R""Us - Brandon",,330 Brandon Town Center Blvd ,,Brandon ,FL,33511,United States,(314) 413-7433,,,"Monday: 10:00 am - 09:00 pm, Tuesday: 10:00 am - 09:00 pm, Wednesday: 10:00 am - 09:00 pm, Thursday: 10:00 am - 09:00 pm, Friday: 10:00 am - 09:00 pm, Saturday: 10:00 am - 09:00 pm, Sunday: 11:00 am - 07:00 pm",,,0
Altamonte Mall,,451 E. Altamonte Drive ,,Altamonte Springs ,FL,32701,United States,407 260-0347,,,"Monday: 10:00 am - 09:00 pm, Tuesday: 10:00 am - 09:00 pm, Wednesday: 10:00 am - 09:00 pm, Thursday: 10:00 am - 09:00 pm, Friday: 10:00 am - 09:00 pm, Saturday: 10:00 am - 09:00 pm, Sunday: 12:00 pm - 06:00 pm",,,0
Fayette Mall,,3473 Nicholasville Rd ,,Lexington ,KY,40503,United States,(314) 452-8963,,,"Monday: 10:00 am - 09:00 pm, Tuesday: 10:00 am - 09:00 pm, Wednesday: 10:00 am - 09:00 pm, Thursday: 10:00 am - 09:00 pm, Friday: 10:00 am - 09:00 pm, Saturday: 10:00 am - 09:00 pm, Sunday: 12:00 pm - 06:00 pm",,,0
Florence Mall,,2028 Florence Mall ,,Florence ,KY,41042,United States,859 647-2431,,,"Monday: 10:00 am - 09:00 pm, Tuesday: 10:00 am - 09:00 pm, Wednesday: 10:00 am - 09:00 pm, Thursday: 10:00 am - 09:00 pm, Friday: 10:00 am - 09:00 pm, Saturday: 10:00 am - 09:00 pm, Sunday: 12:00 pm - 06:00 pm",,,0
Coral RidgeMall,,1451 Coral Ridge Avenue ,,Coralville ,IA,52241,United States,319-337-3336,,,"Monday: 10:00 am - 09:00 pm, Tuesday: 10:00 am - 09:00 pm, Wednesday: 10:00 am - 09:00 pm, Thursday: 10:00 am - 09:00 pm, Friday: 10:00 am - 09:00 pm, Saturday: 10:00 am - 09:00 pm, Sunday: 11:00 am - 06:00 pm",,,0
University Park Mall,,6501 Grape Rd. Ste 284 ,,Mishawaka ,IN,46545,United States,574 277-4060,,,"Monday: 10:00 am - 09:00 pm, Tuesday: 10:00 am - 09:00 pm, Wednesday: 10:00 am - 09:00 pm, Thursday: 10:00 am - 09:00 pm, Friday: 10:00 am - 09:00 pm, Saturday: 10:00 am - 09:00 pm, Sunday: 11:00 am - 06:00 pm",,,0
Westfield Southlake,,2138 Southlake Mall Ste 568 ,,Merrillville ,IN,46410,United States,219 736-7161,,,"Monday: 10:00 am - 09:00 pm, Tuesday: 10:00 am - 09:00 pm, Wednesday: 10:00 am - 09:00 pm, Thursday: 10:00 am - 09:00 pm, Friday: 10:00 am - 09:00 pm, Saturday: 10:00 am - 09:00 pm, Sunday: 11:00 am - 06:00 pm",,,0
Castleton Square,,6020 East 82nd. St. Suite 909 ,,Indianapolis ,IN,46250-4572,United States,317-596-8888,,,"Monday: 10:00 am - 09:00 pm, Tuesday: 10:00 am - 09:00 pm, Wednesday: 10:00 am - 09:00 pm, Thursday: 10:00 am - 09:00 pm, Friday: 10:00 am - 09:00 pm, Saturday: 10:00 am - 09:00 pm, Sunday: 11:00 am - 06:00 pm",,,0
Build-A-Bear Workshop® At T-REX Cafe,,1847 Village West Parkway Suite K125 ,,Kansas City ,KS,66111,United States,913-334-8888,,,"Sunday: 10:00 am - 08:00 pm, Monday: 10:00 am - 09:00 pm, Tuesday: 10:00 am - 09:00 pm, Wednesday: 10:00 am - 09:00 pm, Thursday: 10:00 am - 09:00 pm, Friday: 10:00 am - 09:30 pm, Saturday: 10:00 am - 09:30 pm",,,0
Greenwood Park Mall,,1251 US Highway 31 ,,Greenwood ,IN,46142,United States,317 881-1856,,,"Monday: 10:00 am - 09:00 pm, Tuesday: 10:00 am - 09:00 pm, Wednesday: 10:00 am - 09:00 pm, Thursday: 10:00 am - 09:00 pm, Friday: 10:00 am - 09:00 pm, Saturday: 10:00 am - 09:00 pm, Sunday: 11:00 am - 06:00 pm",,,0
Glenbrook Square,,4201 Coldwater Road ,,Ft. Wayne ,IN,46825,United States,260-484-0311,,,"Monday: 10:00 am - 09:00 pm, Tuesday: 10:00 am - 09:00 pm, Wednesday: 10:00 am - 09:00 pm, Thursday: 10:00 am - 09:00 pm, Friday: 10:00 am - 09:00 pm, Saturday: 10:00 am - 09:00 pm, Sunday: 12:00 pm - 06:00 pm",,,0
Eastland Mall,,800 N. Green River Rd. ,,Evansville ,IN,47715,United States,(812) 469-9999,,,"Monday: 10:00 am - 09:00 pm, Tuesday: 10:00 am - 09:00 pm, Wednesday: 10:00 am - 09:00 pm, Thursday: 10:00 am - 09:00 pm, Friday: 10:00 am - 09:00 pm, Saturday: 10:00 am - 09:00 pm, Sunday: 12:00 pm - 06:00 pm",,,0
College Mall,,2834 E. Third Street ,,Bloomington ,IN,47401,United States,812 333-2453,,,"Monday: 10:00 am - 09:00 pm, Tuesday: 10:00 am - 09:00 pm, Wednesday: 10:00 am - 09:00 pm, Thursday: 10:00 am - 09:00 pm, Friday: 10:00 am - 09:00 pm, Saturday: 10:00 am - 09:00 pm, Sunday: 12:00 pm - 06:00 pm",,,0
Oak Park Mall,,11465 W. 95th Street ,,Overland Park- Kansas City ,KS,66214-1827,United States,913-307-0328,,,"Monday: 10:00 am - 09:00 pm, Tuesday: 10:00 am - 09:00 pm, Wednesday: 10:00 am - 09:00 pm, Thursday: 10:00 am - 09:00 pm, Friday: 10:00 am - 09:00 pm, Saturday: 10:00 am - 09:00 pm, Sunday: 11:00 am - 06:00 pm",,,0
White Oaks Mall,,2501 West Wabash Ave. ,,Springfield ,IL,62704,United States,217 793-9437,,,"Monday: 10:00 am - 09:00 pm, Tuesday: 10:00 am - 09:00 pm, Wednesday: 10:00 am - 09:00 pm, Thursday: 10:00 am - 09:00 pm, Friday: 10:00 am - 09:00 pm, Saturday: 10:00 am - 09:00 pm, Sunday: 11:00 am - 06:00 pm",,,0
"Old Orchard Mall- Store Closed February 24, 2017",,4999 Old Orchard Ctr Ste F15 ,,Skokie ,IL,60077,United States,(847) 674-4874,,,,,,0
Woodfield Shopping Center,,5 Woodfield Mall ,,Schaumburg ,IL,60173,United States,847-517-4155,,,"Monday: 10:00 am - 09:00 pm, Tuesday: 10:00 am - 09:00 pm, Wednesday: 10:00 am - 09:00 pm, Thursday: 10:00 am - 09:00 pm, Friday: 10:00 am - 09:00 pm, Saturday: 10:00 am - 09:00 pm, Sunday: 11:00 am - 06:00 pm",,,0
Cherryvale Mall,,72100 Harrison Ave ,,Rockford ,IL,61112,United States,815-332-1741,,,"Sunday: 12:00 pm - 06:00 pm, Monday: 10:00 am - 09:00 pm, Tuesday: 10:00 am - 09:00 pm, Wednesday: 10:00 am - 09:00 pm, Thursday: 10:00 am - 09:00 pm, Friday: 10:00 am - 09:00 pm, Saturday: 10:00 am - 09:00 pm",,,0
NorthWoods,,2200 W. War Memorial Dr. ,,Peoria ,IL,61613,United States,309-687-4289,,,"Monday: 10:00 am - 09:00 pm, Tuesday: 10:00 am - 09:00 pm, Wednesday: 10:00 am - 09:00 pm, Thursday: 10:00 am - 09:00 pm, Friday: 10:00 am - 09:00 pm, Saturday: 10:00 am - 09:00 pm, Sunday: 11:00 am - 06:00 pm",,,0
Orland Square,,148 Orland Square Dr ,,Orland Park ,IL,60462,United States,708-226-1234,,,"Monday: 10:00 am - 09:00 pm, Tuesday: 10:00 am - 09:00 pm, Wednesday: 10:00 am - 09:00 pm, Thursday: 10:00 am - 09:00 pm, Friday: 10:00 am - 09:00 pm, Saturday: 10:00 am - 09:00 pm, Sunday: 11:00 am - 06:00 pm",,,0
Oakbrook Center,,72 Oakbrook Center ,,Oak Brook ,IL,60523-1810,United States,630-928-0497,,,"Monday: 10:00 am - 09:00 pm, Tuesday: 10:00 am - 09:00 pm, Wednesday: 10:00 am - 09:00 pm, Thursday: 10:00 am - 09:00 pm, Friday: 10:00 am - 09:00 pm, Saturday: 10:00 am - 09:00 pm, Sunday: 11:00 am - 06:00 pm",,,0
Northbrook Court,,1515 Lake Cook Road Space 5515 ,,Northbrook ,IL,60062,United States,,,,,,,1
Gurnee Mills,,6170 Gurnee Ave ,,Gurnee ,IL,60031,United States,847-855-5488,,,"Sunday: 10:00 am - 07:00 pm, Monday: 10:00 am - 09:00 pm, Tuesday: 10:00 am - 09:00 pm, Wednesday: 10:00 am - 09:00 pm, Thursday: 10:00 am - 09:00 pm, Friday: 10:00 am - 09:00 pm, Saturday: 10:00 am - 09:30 pm",,,0
St. Clair Square,,288 St. Clair Square ,,Fairview Heights ,IL,62208,United States,618-622-0737,,,"Monday: 10:00 am - 09:00 pm, Tuesday: 10:00 am - 09:00 pm, Wednesday: 10:00 am - 09:00 pm, Thursday: 10:00 am - 09:00 pm, Friday: 10:00 am - 09:00 pm, Saturday: 10:00 am - 09:00 pm, Sunday: 11:00 am - 06:00 pm",,,0
Navy Pier,,700 East Grand Ave. ,,Chicago ,IL,60611,United States,312-832-0114,,,"Monday: 10:00 am - 08:00 pm, Tuesday: 10:00 am - 08:00 pm, Wednesday: 10:00 am - 08:00 pm, Thursday: 10:00 am - 08:00 pm, Friday: 10:00 am - 10:00 pm, Saturday: 10:00 am - 10:00 pm, Sunday: 10:00 am - 07:00 pm",,,0
Water Tower Place,,835 N. Michigan Avenue ,,Chicago ,IL,60611,United States,312-725-1710,,,"Monday: 10:00 am - 09:00 pm, Tuesday: 10:00 am - 09:00 pm, Wednesday: 10:00 am - 09:00 pm, Thursday: 10:00 am - 09:00 pm, Friday: 10:00 am - 09:00 pm, Saturday: 10:00 am - 09:00 pm, Sunday: 11:00 am - 06:00 pm",,,0
Build-A-Bear Workshop At Macy's State Street,,111 North State Street ,,Chicago ,IL,60602,United States,(312) 781-1000,,,"Sunday: 11:00 am - 07:00 pm, Monday: 10:00 am - 09:30 pm, Tuesday: 10:00 am - 09:30 pm, Wednesday: 10:00 am - 09:30 pm, Thursday: 10:00 am - 09:30 pm, Friday: 10:00 am - 09:30 pm, Saturday: 10:00 am - 09:30 pm",,,0
Westfield Fox Valley,,1477 Fox Valley Center Dr ,,Aurora ,IL,60504,United States,630 585-1953,,,"Monday: 10:00 am - 09:00 pm, Tuesday: 10:00 am - 09:00 pm, Wednesday: 10:00 am - 09:00 pm, Thursday: 10:00 am - 09:00 pm, Friday: 10:00 am - 09:00 pm, Saturday: 10:00 am - 09:00 pm, Sunday: 11:00 am - 06:00 pm",,,0
Danbury Fair Mall,,7 Backus Avenue ,,Danbury ,CT,06810,United States,203-748-6673,,,"Monday: 10:00 am - 09:30 pm, Tuesday: 10:00 am - 09:30 pm, Wednesday: 10:00 am - 09:30 pm, Thursday: 10:00 am - 09:30 pm, Friday: 10:00 am - 09:30 pm, Saturday: 10:00 am - 09:30 pm, Sunday: 11:00 am - 07:00 pm",,,0
Tucson Mall,,4500 N. Oracle Rd. ,,Tucson ,AZ,85705,United States,520 888-9218,,,"Monday: 10:00 am - 09:00 pm, Tuesday: 10:00 am - 09:00 pm, Wednesday: 10:00 am - 09:00 pm, Thursday: 10:00 am - 09:00 pm, Friday: 10:00 am - 09:00 pm, Saturday: 10:00 am - 09:00 pm, Sunday: 12:00 pm - 06:00 pm",,,0
Scottsdale Fashion Square,,7014 E. Camelback Rd.Suite 2060 ,,Scottsdale ,AZ,85251-1239,United States,480-946-2327,,,"Monday: 10:00 am - 09:00 pm, Tuesday: 10:00 am - 09:00 pm, Wednesday: 10:00 am - 09:00 pm, Thursday: 10:00 am - 09:00 pm, Friday: 10:00 am - 09:00 pm, Saturday: 10:00 am - 09:00 pm, Sunday: 11:00 am - 06:00 pm",,,0
Arrowhead Towne Center,,7700 W. Arrowhead Towne Cntr. ,,Glendale ,AZ,85308,United States,623-773-3964,,,"Monday: 10:00 am - 09:00 pm, Tuesday: 10:00 am - 09:00 pm, Wednesday: 10:00 am - 09:00 pm, Thursday: 10:00 am - 09:00 pm, Friday: 10:00 am - 09:00 pm, Saturday: 10:00 am - 09:00 pm, Sunday: 11:00 am - 06:00 pm",,,0
SanTan Village,,2180 E. Williams Field Road Bldg 1Ste. 106 ,,Gilbert ,AZ,85295,United States,480 812-2622,,,"Monday: 10:00 am - 09:00 pm, Tuesday: 10:00 am - 09:00 pm, Wednesday: 10:00 am - 09:00 pm, Thursday: 10:00 am - 09:00 pm, Friday: 10:00 am - 09:00 pm, Saturday: 10:00 am - 09:00 pm, Sunday: 11:00 am - 06:00 pm",,,0
Chandler Fashion Center,,3111 West Chandler Blvd ,,Chandler ,AZ,85226,United States,480-821-5800,,,"Monday: 10:00 am - 09:00 pm, Tuesday: 10:00 am - 09:00 pm, Wednesday: 10:00 am - 09:00 pm, Thursday: 10:00 am - 09:00 pm, Friday: 10:00 am - 09:00 pm, Saturday: 10:00 am - 09:00 pm, Sunday: 11:00 am - 06:00 pm",,,0
The Promenade Shops at Centerra,,5957 Sky Pond Drive ,,Loveland ,CO,80538,United States,970 635-2595,,,"Monday: 10:00 am - 09:00 pm, Tuesday: 10:00 am - 09:00 pm, Wednesday: 10:00 am - 09:00 pm, Thursday: 10:00 am - 09:00 pm, Friday: 10:00 am - 09:00 pm, Saturday: 10:00 am - 09:00 pm, Sunday: 11:00 am - 06:00 pm",,,0
Park Meadows,,8505 Park Meadows Center Drive Suite 2040 ,,Lone Tree ,CO,80124,United States,303-362-8561,,,"Sunday: 11:00 am - 06:00 pm, Monday: 10:00 am - 09:00 pm, Tuesday: 10:00 am - 09:00 pm, Wednesday: 10:00 am - 09:00 pm, Thursday: 10:00 am - 09:00 pm, Friday: 10:00 am - 09:00 pm, Saturday: 10:00 am - 09:00 pm",,,0
Colorado Mills- This location is temporarily closed.,,,,Lakewood ,CO,80401,United States,303-216-9700,,,"Monday: 10:00 am - 09:00 pm, Tuesday: 10:00 am - 09:00 pm, Wednesday: 10:00 am - 09:00 pm, Thursday: 10:00 am - 09:00 pm, Friday: 10:00 am - 09:00 pm, Saturday: 10:00 am - 09:00 pm, Sunday: 11:00 am - 06:00 pm",,,0
Chapel Hills Mall,,1710 Briargate Blvd. ,,Colorado Springs ,CO,80920,United States,719 532-7265,,,"Monday: 10:00 am - 09:00 pm, Tuesday: 10:00 am - 09:00 pm, Wednesday: 10:00 am - 09:00 pm, Thursday: 10:00 am - 09:00 pm, Friday: 10:00 am - 09:00 pm, Saturday: 10:00 am - 09:00 pm, Sunday: 11:00 am - 06:00 pm",,,0
Flatiron Crossing,,1 West Flatiron Crossing Drive ,,Broomfield ,CO,80021,United States,720-887-9001,,,"Monday: 10:00 am - 09:00 pm, Tuesday: 10:00 am - 09:00 pm, Wednesday: 10:00 am - 09:00 pm, Thursday: 10:00 am - 09:00 pm, Friday: 10:00 am - 09:00 pm, Saturday: 10:00 am - 09:00 pm, Sunday: 11:00 am - 06:00 pm",,,0
Plaza West Covina,,112 Plaza Drive Space 737 ,,West Covina ,CA,91790,United States,(626) 646-2833,,,"Monday: 10:00 am - 09:00 pm, Tuesday: 10:00 am - 09:00 pm, Wednesday: 10:00 am - 09:00 pm, Thursday: 10:00 am - 09:00 pm, Friday: 10:00 am - 09:00 pm, Saturday: 10:00 am - 08:00 pm, Sunday: 12:00 pm - 07:00 pm",,,0
Visalia Mall,,2031 S. Mooney Blvd. ,,Visalia ,CA,93277,United States,559 622-9650,,,"Monday: 10:00 am - 09:00 pm, Tuesday: 10:00 am - 09:00 pm, Wednesday: 10:00 am - 09:00 pm, Thursday: 10:00 am - 09:00 pm, Friday: 10:00 am - 09:00 pm, Saturday: 10:00 am - 08:00 pm, Sunday: 11:00 am - 06:00 pm",,,0
Del Amo Fashion Center,,21712 Hawthorn Bl. Space # 232 ,,Torrance ,CA,90503,United States,310 921-2327,,,"Monday: 10:00 am - 09:00 pm, Tuesday: 10:00 am - 09:00 pm, Wednesday: 10:00 am - 09:00 pm, Thursday: 10:00 am - 09:00 pm, Friday: 10:00 am - 09:00 pm, Saturday: 10:00 am - 08:00 pm, Sunday: 11:00 am - 07:00 pm",,,0
Pacific View Mall,,3301 East Main Space 1024 ,,Ventura ,CA,93003,United States,805-626-3015,,,"Monday: 10:00 am - 09:00 pm, Tuesday: 10:00 am - 09:00 pm, Wednesday: 10:00 am - 09:00 pm, Thursday: 10:00 am - 09:00 pm, Friday: 10:00 am - 09:00 pm, Saturday: 10:00 am - 08:00 pm, Sunday: 12:00 pm - 07:00 pm",,,0
The Promenade in Temecula,,40820 Winchester Road ,,Temecula ,CA,92591,United States,951 719-1389,,,"Monday: 10:00 am - 09:00 pm, Tuesday: 10:00 am - 09:00 pm, Wednesday: 10:00 am - 09:00 pm, Thursday: 10:00 am - 09:00 pm, Friday: 10:00 am - 09:00 pm, Saturday: 10:00 am - 09:00 pm, Sunday: 11:00 am - 07:00 pm",,,0
The Oaks Shopping Center,,550 W. Hillcrest Drive ,,Thousand Oaks ,CA,91360,United States,805-449-8704,,,"Monday: 10:00 am - 09:00 pm, Tuesday: 10:00 am - 09:00 pm, Wednesday: 10:00 am - 09:00 pm, Thursday: 10:00 am - 09:00 pm, Friday: 10:00 am - 09:00 pm, Saturday: 10:00 am - 09:00 pm, Sunday: 11:00 am - 06:00 pm",,,0
Hillsdale Mall,,328 Hillsdale Mall ,,San Mateo ,CA,94403,United States,650 577-8713,,,"Monday: 10:00 am - 09:00 pm, Tuesday: 10:00 am - 09:00 pm, Wednesday: 10:00 am - 09:00 pm, Thursday: 10:00 am - 09:00 pm, Friday: 10:00 am - 09:00 pm, Saturday: 10:00 am - 09:00 pm, Sunday: 11:00 am - 07:00 pm",,,0
Westfield Valley Fair,,2855 Stevens Creek Boulevard ,,Santa Clara ,CA,95050,United States,408-248-9988,,,"Monday: 10:00 am - 09:30 pm, Tuesday: 10:00 am - 09:30 pm, Wednesday: 10:00 am - 09:30 pm, Thursday: 10:00 am - 09:30 pm, Friday: 10:00 am - 09:30 pm, Saturday: 10:00 am - 09:00 pm, Sunday: 11:00 am - 07:00 pm",,,0
Build-A-Bear Workshop At Macy's Union Square,,170 O'Farrell Street (415) 397-3333 ext # 4621 ,,San Francisco ,CA,94102,United States,,,,"Sunday: 10:00 am - 08:00 pm, Monday: 10:00 am - 09:00 pm, Tuesday: 10:00 am - 09:00 pm, Wednesday: 10:00 am - 09:00 pm, Thursday: 10:00 am - 09:00 pm, Friday: 10:00 am - 10:00 pm, Saturday: 10:00 am - 10:00 pm",,,0
Oak Ridge Mall,,925 Blossom Hill Rd Spc G5 ,,San Jose ,CA,95123,United States,(408) 629-3094,,,"Sunday: 11:00 am - 07:30 pm, Monday: 10:00 am - 09:00 pm, Tuesday: 10:00 am - 09:00 pm, Wednesday: 10:00 am - 09:00 pm, Thursday: 10:00 am - 09:00 pm, Friday: 10:00 am - 10:00 pm, Saturday: 10:00 am - 10:00 pm",,,0
Northridge Mall,,796 Northridge Mall Space L03 ,,Salinas ,CA,93906,United States,831-676-2171,,,"Monday: 10:00 am - 09:00 pm, Tuesday: 10:00 am - 09:00 pm, Wednesday: 10:00 am - 09:00 pm, Thursday: 10:00 am - 09:00 pm, Friday: 10:00 am - 09:00 pm, Saturday: 10:00 am - 08:00 pm, Sunday: 12:00 pm - 07:00 pm",,,0
Fashion Valley,,7007 Friars Road ,,San Diego ,CA,92108,United States,619-542-1565,,,"Monday: 10:00 am - 09:00 pm, Tuesday: 10:00 am - 09:00 pm, Wednesday: 10:00 am - 09:00 pm, Thursday: 10:00 am - 09:00 pm, Friday: 10:00 am - 09:00 pm, Saturday: 10:00 am - 09:00 pm, Sunday: 11:00 am - 07:00 pm",,,0
Galleria at Roseville,,1151 Galleria Blvd. ,,Roseville ,CA,95678,United States,916-724-0613,,,"Monday: 09:30 am - 09:00 pm, Tuesday: 09:30 am - 09:00 pm, Wednesday: 09:30 am - 09:00 pm, Thursday: 09:30 am - 09:00 pm, Friday: 09:30 am - 09:30 pm, Saturday: 09:30 am - 09:30 pm, Sunday: 10:30 am - 07:30 pm",,,0
Galleria at Tyler,,1274 Galleria at Tyler ,,Riverside ,CA,92503,United States,951 688-8690,,,"Monday: 10:00 am - 09:00 pm, Tuesday: 10:00 am - 09:00 pm, Wednesday: 10:00 am - 09:00 pm, Thursday: 10:00 am - 09:00 pm, Friday: 10:00 am - 09:00 pm, Saturday: 10:00 am - 09:00 pm, Sunday: 11:00 am - 07:00 pm",,,0
Stoneridge,,1 Stoneridge Mall Road ,,Pleasanton ,CA,94588,United States,(925) 398-2281,,,"Saturday: 10:00 am - 09:00 pm, Friday: 10:00 am - 09:00 pm, Thursday: 10:00 am - 09:00 pm, Wednesday: 10:00 am - 09:00 pm, Tuesday: 10:00 am - 09:00 pm, Monday: 10:00 am - 09:00 pm, Sunday: 11:00 am - 06:00 pm",,,0
Westfield Palm Desert,,72840 Highway 111 ,,Palms Desert ,CA,92260,United States,(760) 836-9182,,,,,,0
Antelope Valley Mall,,1233 Rancho Vista Blvd. ,,Palmdale ,CA,93551,United States,661 538-1096,,,"Monday: 10:00 am - 09:00 pm, Tuesday: 10:00 am - 09:00 pm, Wednesday: 10:00 am - 09:00 pm, Thursday: 10:00 am - 09:00 pm, Friday: 10:00 am - 09:00 pm, Saturday: 10:00 am - 08:00 pm, Sunday: 11:00 am - 06:00 pm",,,0
Ontario Mills,,One Mills Circle ,,Ontario ,CA,91764,United States,909-980-0520,,,"Monday: 10:00 am - 09:00 pm, Tuesday: 10:00 am - 09:00 pm, Wednesday: 10:00 am - 09:00 pm, Thursday: 10:00 am - 09:00 pm, Friday: 10:00 am - 09:00 pm, Saturday: 10:00 am - 09:00 pm, Sunday: 11:00 am - 08:00 pm",,,0
Northridge Fashion Center,,9301 Tampa Avenue ,,Northridge ,CA,91324,United States,818 772-5587,,,"Monday: 10:00 am - 09:00 pm, Tuesday: 10:00 am - 09:00 pm, Wednesday: 10:00 am - 09:00 pm, Thursday: 10:00 am - 09:00 pm, Friday: 10:00 am - 09:00 pm, Saturday: 10:00 am - 09:00 pm, Sunday: 11:00 am - 07:00 pm",,,0
Shops at Montebello,,2052 Montebello Town Center ,,Montebello ,CA,90640,United States,323-720-9424,,,,,,0
The Shops at Mission Viejo,,312 The Shops at Mission Viejo ,,Mission Viejo ,CA,92691,United States,949-347-6992,,,"Monday: 10:00 am - 09:00 pm, Tuesday: 10:00 am - 09:00 pm, Wednesday: 10:00 am - 09:00 pm, Thursday: 10:00 am - 09:00 pm, Friday: 10:00 am - 09:00 pm, Saturday: 10:00 am - 08:00 pm, Sunday: 11:00 am - 06:00 pm",,,0
Vintage Faire,,3401 Dale Rd ,,Modesto ,CA,95356,United States,209 529-9833,,,"Monday: 10:00 am - 09:00 pm, Tuesday: 10:00 am - 09:00 pm, Wednesday: 10:00 am - 09:00 pm, Thursday: 10:00 am - 09:00 pm, Friday: 10:00 am - 09:00 pm, Saturday: 10:00 am - 08:00 pm, Sunday: 11:00 am - 06:00 pm",,,0
Glendale Galleria,,100 W. Broadway Space 5536 ,,Glendale ,CA,91210,United States,,,,,,,1
Fashion Fair Mall,,645 East Shaw Avenue ,,Fresno ,CA,93726,United States,559 224-6641,,,"Monday: 10:00 am - 09:00 pm, Tuesday: 10:00 am - 09:00 pm, Wednesday: 10:00 am - 09:30 pm, Thursday: 10:00 am - 09:30 pm, Friday: 10:00 am - 09:30 pm, Saturday: 10:00 am - 09:30 pm, Sunday: 11:00 am - 08:00 pm",,,0
Westfield Culver City,,6000 Sepulveda Blvd Space 1430 ,,Culver City ,CA,90230,United States,310-754-2619,,,"Sunday: 11:00 am - 07:00 pm, Monday: 10:00 am - 09:00 pm, Tuesday: 10:00 am - 09:00 pm, Wednesday: 10:00 am - 09:00 pm, Thursday: 10:00 am - 09:00 pm, Friday: 10:00 am - 09:00 pm, Saturday: 10:00 am - 09:00 pm",,,0
Westfield Solano,,1350 Travis Blvd. ,,Fairfield ,CA,94533,United States,707 422-9504,,,"Monday: 10:30 am - 08:30 pm, Tuesday: 10:30 am - 08:30 pm, Wednesday: 10:30 am - 08:30 pm, Thursday: 10:30 am - 08:30 pm, Friday: 10:30 am - 08:30 pm, Saturday: 10:00 am - 09:00 pm, Sunday: 11:00 am - 06:00 pm",,,0
Sunvalley Shopping Center,,1 Sunvalley Mall Space K203 ,,Concord ,CA,94520,United States,,,,,,,1
Otay Ranch Town Center,,2015 Birch Road ,,Chula Vista ,CA,91915,United States,619 482-9622,,,"Monday: 10:00 am - 09:00 pm, Tuesday: 10:00 am - 09:00 pm, Wednesday: 10:00 am - 09:00 pm, Thursday: 10:00 am - 09:00 pm, Friday: 10:00 am - 09:00 pm, Saturday: 10:00 am - 09:00 pm, Sunday: 11:00 am - 06:00 pm",,,0
Los Cerritos Center,,239 Los Cerritos Center Space D23 ,,Cerritos ,CA,90703,United States,562-263-2391,,,"Monday: 10:00 am - 09:00 pm, Tuesday: 10:00 am - 09:00 pm, Wednesday: 10:00 am - 09:00 pm, Thursday: 10:00 am - 09:00 pm, Friday: 10:00 am - 09:00 pm, Saturday: 10:00 am - 08:00 pm, Sunday: 12:00 pm - 07:00 pm",,,0
Valley Plaza,,2701 Ming Avenue ,,Bakersfield ,CA,93304,United States,661 837-4482,,,"Monday: 10:00 am - 08:00 pm, Tuesday: 10:00 am - 08:00 pm, Wednesday: 10:00 am - 08:00 pm, Thursday: 10:00 am - 08:00 pm, Friday: 10:00 am - 08:00 pm, Saturday: 10:00 am - 08:00 pm, Sunday: 11:00 am - 07:00 pm",,,0
Eastern Shore Centre,,30500 State Highway 181 ,,Spanish Fort ,AL,36527,United States,251 625-4183,,,"Monday: 10:00 am - 09:00 pm, Tuesday: 10:00 am - 09:00 pm, Wednesday: 10:00 am - 09:00 pm, Thursday: 10:00 am - 09:00 pm, Friday: 10:00 am - 09:00 pm, Saturday: 10:00 am - 09:00 pm, Sunday: 12:00 pm - 06:00 pm",,,0
DOWNTOWN DISNEY® District,,1540 S. Disneyland Drive Suite 101 ,,Anaheim ,CA,92802,United States,714-776-5980,,,"Monday: 10:00 am - 10:30 pm, Tuesday: 10:00 am - 10:30 pm, Wednesday: 10:00 am - 10:30 pm, Thursday: 10:00 am - 10:30 pm, Friday: 09:00 am - 11:30 pm, Saturday: 09:00 am - 11:30 pm, Sunday: 10:00 am - 10:30 pm",,,0
The Wharf,,4751 Main Street # F122 ,,Orange Beach ,AL,36561,United States,251 224-1686,,,"Monday: 10:00 am - 06:00 pm, Tuesday: 10:00 am - 06:00 pm, Wednesday: 10:00 am - 06:00 pm, Thursday: 10:00 am - 06:00 pm, Friday: 10:00 am - 06:00 pm, Saturday: 10:00 am - 06:00 pm, Sunday: 12:00 pm - 06:00 pm",,,0
Parkway Place,,2801 Memorial Pkwy South ,,Huntsville ,AL,35801,United States,256 536-8088,,,"Monday: 10:00 am - 09:00 pm, Tuesday: 10:00 am - 09:00 pm, Wednesday: 10:00 am - 09:00 pm, Thursday: 10:00 am - 09:00 pm, Friday: 10:00 am - 09:00 pm, Saturday: 10:00 am - 09:00 pm, Sunday: 01:00 pm - 06:00 pm",,,0
Riverchase Galleria,,2000 Riverchase Galleria Suite 111 ,,Birmingham ,AL,35244,United States,205-733-8686,,,"Monday: 10:00 am - 09:00 pm, Tuesday: 10:00 am - 09:00 pm, Wednesday: 10:00 am - 09:00 pm, Thursday: 10:00 am - 09:00 pm, Friday: 10:00 am - 09:00 pm, Saturday: 10:00 am - 09:00 pm, Sunday: 12:00 pm - 06:00 pm",,,0
St. Charles Towne Center,,11110 Mall Circle ,,Waldorf ,MD,20603,United States,301 632-6022,,,"Monday: 10:00 am - 09:00 pm, Tuesday: 10:00 am - 09:00 pm, Wednesday: 10:00 am - 09:00 pm, Thursday: 10:00 am - 09:00 pm, Friday: 10:00 am - 09:00 pm, Saturday: 10:00 am - 09:00 pm, Sunday: 12:00 pm - 06:00 pm",,,0
Towson Town Center,,825 Dulaney Valley Road ,,Towson ,MD,21204,United States,410-321-5958,,,"Monday: 10:00 am - 09:00 pm, Tuesday: 10:00 am - 09:00 pm, Wednesday: 10:00 am - 09:00 pm, Thursday: 10:00 am - 09:00 pm, Friday: 10:00 am - 09:00 pm, Saturday: 10:00 am - 09:00 pm, Sunday: 11:00 am - 06:00 pm",,,0
National Harbor,,173 Waterfront Street ,,National Harbor ,MD,20745,United States,301-567-2641,,,"Monday: 10:00 am - 08:00 pm, Tuesday: 10:00 am - 08:00 pm, Wednesday: 10:00 am - 08:00 pm, Thursday: 10:00 am - 08:00 pm, Friday: 10:00 am - 09:00 pm, Saturday: 10:00 am - 09:00 pm, Sunday: 12:00 pm - 06:00 pm",,,0
Build-A-Bear Workshop within Gaylord National Resort,,201 Waterfront St ,,National Harbor ,MD,20745,United States,,,,"Sunday: 10:00 am - 10:00 pm, Monday: 10:00 am - 08:00 pm, Tuesday: 10:00 am - 08:00 pm, Wednesday: 10:00 am - 08:00 pm, Thursday: 10:00 am - 08:00 pm, Friday: 10:00 am - 10:00 pm, Saturday: 10:00 am - 10:00 pm",,,0
Northshore Mall,,210 Andover Street Space E189 ,,Peabody ,MA,01960,United States,978-532-6588,,,"Monday: 10:00 am - 09:00 pm, Tuesday: 10:00 am - 09:00 pm, Wednesday: 10:00 am - 09:00 pm, Thursday: 10:00 am - 09:00 pm, Friday: 10:00 am - 09:00 pm, Saturday: 10:00 am - 09:00 pm, Sunday: 12:00 pm - 06:00 pm",,,0
Emerald Square,,999 S. Washington Street Suite E246 ,,North Attleboro ,MA,02760-7801,United States,508-643-3443,,,"Monday: 10:00 am - 09:00 pm, Tuesday: 10:00 am - 09:00 pm, Wednesday: 10:00 am - 09:00 pm, Thursday: 10:00 am - 09:00 pm, Friday: 10:00 am - 09:00 pm, Saturday: 10:00 am - 09:00 pm, Sunday: 11:00 am - 06:00 pm",,,0
Somerset Collection,,2800 West Big Beaver Road Suite 364 ,,Troy ,MI,48084,United States,248-822-8988,,,"Monday: 10:00 am - 09:00 pm, Tuesday: 10:00 am - 09:00 pm, Wednesday: 10:00 am - 09:00 pm, Thursday: 10:00 am - 09:00 pm, Friday: 10:00 am - 09:00 pm, Saturday: 10:00 am - 09:00 pm, Sunday: 12:00 pm - 06:00 pm",,,0
Rosedale Center,,10 Rosedale Center Location Space 525 lower level near Macy's ,,Roseville ,MN,55113,United States,952-229-5317,,,"Monday: 10:00 am - 09:00 pm, Tuesday: 10:00 am - 09:00 pm, Wednesday: 10:00 am - 09:00 pm, Thursday: 10:00 am - 09:00 pm, Friday: 10:00 am - 09:00 pm, Saturday: 10:00 am - 09:00 pm, Sunday: 11:00 am - 06:00 pm",,,0
Ridgedale Center,,12401 Wayzata Blvd ,,Minnetonka ,MN,55305,United States,,,,,,,1
Mall at Barnes Crossing,,1001 Barnes Crossing Rd. (662) 840- 3833 ,,Tupelo ,MS,38804,United States,,,,,,,0
"Northpark Mall - closing January 22, 2017",,1200 East County Line Rd. ,,Ridgeland ,MS,39157,United States,601 991-9907,,,"Monday: 10:00 am - 09:00 pm, Tuesday: 10:00 am - 09:00 pm, Wednesday: 10:00 am - 09:00 pm, Thursday: 10:00 am - 09:00 pm, Friday: 10:00 am - 09:00 pm, Saturday: 10:00 am - 09:00 pm, Sunday: 12:00 pm - 06:00 pm",,,0
Build-A-Bear Workshop® At The Zoo,,One Government Drive ,,St. Louis ,MO,63110,United States,314 646-4735,,,"Monday: 09:00 am - 05:00 pm, Tuesday: 09:00 am - 05:00 pm, Wednesday: 09:00 am - 05:00 pm, Thursday: 09:00 am - 05:00 pm, Friday: 09:00 am - 05:00 pm, Saturday: 09:00 am - 05:00 pm, Sunday: 09:00 am - 05:00 pm",,,0
West County Center,,67 West County Center ,,St. Louis ,MO,63131,United States,314-821-1227,,,"Monday: 10:00 am - 09:00 pm, Tuesday: 10:00 am - 09:00 pm, Wednesday: 10:00 am - 09:00 pm, Thursday: 10:00 am - 09:00 pm, Friday: 10:00 am - 09:00 pm, Saturday: 10:00 am - 09:00 pm, Sunday: 11:00 am - 06:00 pm",,,0
Rimrock Mall,,300 S. 24th Street West ,,Billings ,MT,59102,United States,406 652-3065,,,"Monday: 10:00 am - 09:00 pm, Tuesday: 10:00 am - 09:00 pm, Wednesday: 10:00 am - 09:00 pm, Thursday: 10:00 am - 09:00 pm, Friday: 10:00 am - 09:00 pm, Saturday: 10:00 am - 09:00 pm, Sunday: 12:00 pm - 06:00 pm",,,0
The Mall at Rockingham Park,,99 Rockingham Park Blvd. ,,Salem ,NH,03079,United States,603-870-0081,,,"Monday: 10:00 am - 09:00 pm, Tuesday: 10:00 am - 09:00 pm, Wednesday: 10:00 am - 09:00 pm, Thursday: 10:00 am - 09:00 pm, Friday: 10:00 am - 09:00 pm, Saturday: 10:00 am - 09:00 pm, Sunday: 12:00 pm - 06:00 pm",,,0
Build-A-Bear Workshop® @ Busch Stadium™,,420 South 8th Street (Located inside Busch Stadium in Ford Plaza) ,,St. Louis ,MO,63102,United States,314-241-5972,,,"Monday: 2 hrs before game -end of game, Tuesday: 2 hrs before game -end of game, Wednesday: 2 hrs before game -end of game, Thursday: 2 hrs before game -end of game, Friday: 2 hrs before game -end of game, Saturday: 2 hrs before game -end of game, Sunday: 2 hrs before game -end of game",,,0
Cottonwood Mall,,10000 Coors Byp Nw ,,Albuquerque ,NM,87114,United States,505 792-2128,,,"Monday: 10:00 am - 09:00 pm, Tuesday: 10:00 am - 09:00 pm, Wednesday: 10:00 am - 09:00 pm, Thursday: 10:00 am - 09:00 pm, Friday: 10:00 am - 09:00 pm, Saturday: 10:00 am - 09:00 pm, Sunday: 11:00 am - 06:00 pm",,,0
Coronado Center,,6600 Menaul NE Suite 1 Space 5517 ,,Albuquerque ,NM,87110,United States,,,,,,,1
Willowbrook Mall,,1400 Willowbrook Mall Space 5513 ,,Wayne ,NJ,07470,United States,,,,,,,1
"Build-A-Bear Workshop At Toys""R""Us - Totowa",,445 US Highway 46 ,,Totowa ,NJ,07512,United States,314-683-7202,,,"Monday: 10:00 am - 09:00 pm, Tuesday: 10:00 am - 09:00 pm, Wednesday: 10:00 am - 09:00 pm, Thursday: 10:00 am - 09:00 pm, Friday: 10:00 am - 09:00 pm, Saturday: 10:00 am - 09:00 pm, Sunday: 11:00 am - 07:00 pm",,,0
Ocean County Mall,,1201 Hooper Avenue ,,Toms River ,NJ,08753,United States,732 240-6971,,,"Monday: 10:00 am - 09:30 pm, Tuesday: 10:00 am - 09:30 pm, Wednesday: 10:00 am - 09:30 pm, Thursday: 10:00 am - 09:30 pm, Friday: 10:00 am - 09:30 pm, Saturday: 10:00 am - 09:30 pm, Sunday: 11:00 am - 06:00 pm",,,0
Rockaway Townsquare,,Rockaway Townsquare MallSpace # 1037 ,,Rockaway ,NJ,07866,United States,973-366-8118,,,"Monday: 10:00 am - 09:30 pm, Tuesday: 10:00 am - 09:30 pm, Wednesday: 10:00 am - 09:30 pm, Thursday: 10:00 am - 09:30 pm, Friday: 10:00 am - 09:30 pm, Saturday: 10:00 am - 09:30 pm, Sunday: 11:00 am - 06:00 pm",,,0
Paramus Park,,700 Paramus Park ,,Paramus ,NJ,07652,United States,201-599-2996,,,"Monday: 10:00 am - 09:30 pm, Tuesday: 10:00 am - 09:30 pm, Wednesday: 10:00 am - 09:30 pm, Thursday: 10:00 am - 09:30 pm, Friday: 10:00 am - 09:30 pm, Saturday: 10:00 am - 09:30 pm",,,0
Freehold Raceway Mall,,3710 Highway 9 Suite # F-222 ,,Freehold ,NJ,07728-4801,United States,732-409-0505,,,"Monday: 10:00 am - 09:30 pm, Tuesday: 10:00 am - 09:30 pm, Wednesday: 10:00 am - 09:30 pm, Thursday: 10:00 am - 09:30 pm, Friday: 10:00 am - 09:30 pm, Saturday: 10:00 am - 09:30 pm, Sunday: 11:00 am - 07:00 pm",,,0
"Build-A-Bear Workshop At Toys""R""Us - Freehold",,600 Trotter Way ,,Freehold ,NJ,07728,United States,314-651-0393,,,"Monday: 10:00 am - 09:00 pm, Tuesday: 10:00 am - 09:00 pm, Wednesday: 10:00 am - 09:00 pm, Thursday: 10:00 am - 09:00 pm, Friday: 10:00 am - 09:00 pm, Saturday: 10:00 am - 09:00 pm, Sunday: 11:00 am - 07:00 pm",,,0
Menlo Park Mall,,55 Parsonage Rd space 1270B ,,Edison ,NJ,08837,United States,732-744-1811,,,"Monday: 10:00 am - 09:30 pm, Tuesday: 10:00 am - 09:30 pm, Wednesday: 10:00 am - 09:30 pm, Thursday: 10:00 am - 09:30 pm, Friday: 10:00 am - 09:30 pm, Saturday: 10:00 am - 09:30 pm, Sunday: 11:00 am - 07:00 pm",,,0
"Build-A-Bear Workshop At Toys""R""Us - Secaucus",,7 Mill Creek Drive ,,Secaucus ,NJ,07094,United States,314-452-1109,,,"Monday: 10:00 am - 09:00 pm, Tuesday: 10:00 am - 09:00 pm, Wednesday: 10:00 am - 09:00 pm, Thursday: 10:00 am - 09:00 pm, Friday: 10:00 am - 09:00 pm, Saturday: 10:00 am - 09:00 pm, Sunday: 11:00 am - 07:00 pm",,,0
Deptford Mall,,1750 Deptford Center Road Space KI12 ,,Deptford ,NJ,08096,United States,,,,,,,1
Cherry Hill Mall,,2000 Route 38 ,,Cherry Hill ,NJ,08002,United States,856-665-1612,,,"Monday: 10:00 am - 09:30 pm, Tuesday: 10:00 am - 09:30 pm, Wednesday: 10:00 am - 09:30 pm, Thursday: 10:00 am - 09:30 pm, Friday: 10:00 am - 09:30 pm, Saturday: 10:00 am - 09:30 pm, Sunday: 11:00 am - 06:00 pm",,,0
Meadowood Mall,,5000 # 1 Meadowood Mall ,,Reno ,NV,89502,United States,775 828-1212,,,"Monday: 10:00 am - 09:00 pm, Tuesday: 10:00 am - 09:00 pm, Wednesday: 10:00 am - 09:00 pm, Thursday: 10:00 am - 09:00 pm, Friday: 10:00 am - 09:00 pm, Saturday: 10:00 am - 09:00 pm, Sunday: 11:00 am - 06:00 pm",,,0
Summerlin,,1980 Festival Plaza Dr Suite 145 ,,Las Vegas ,NV,89135,United States,702-684-8903,,,"Monday: 10:00 am - 09:00 pm, Tuesday: 10:00 am - 09:00 pm, Wednesday: 10:00 am - 09:00 pm, Thursday: 10:00 am - 09:00 pm, Friday: 10:00 am - 09:00 pm, Saturday: 10:00 am - 09:00 pm, Sunday: 11:00 am - 07:00 pm",,,0
Galleria at Sunset,,1300 W. Sunset Road ,,Henderson ,NV,89014,United States,702-458-7363,,,"Monday: 10:00 am - 09:00 pm, Tuesday: 10:00 am - 09:00 pm, Wednesday: 10:00 am - 09:00 pm, Thursday: 10:00 am - 09:00 pm, Friday: 10:00 am - 09:00 pm, Saturday: 10:00 am - 09:00 pm, Sunday: 11:00 am - 06:00 pm",,,0
Pheasant Lane Mall,,310 Daniel Webster Hwy Spc W155A ,,Nashua ,NH,03060,United States,(603) 888-0438,,,"Sunday: 11:00 am - 06:00 pm, Monday: 10:00 am - 09:00 pm, Tuesday: 10:00 am - 09:00 pm, Wednesday: 10:00 am - 09:00 pm, Thursday: 10:00 am - 09:00 pm, Friday: 10:00 am - 09:00 pm, Saturday: 10:00 am - 09:00 pm",,,0
Saint Louis Galleria,,1444 Saint Louis Galleria ,,St. Louis ,MO,63117-3500,United States,314-725-8282,,,"Monday: 10:00 am - 09:00 pm, Tuesday: 10:00 am - 09:00 pm, Wednesday: 10:00 am - 09:00 pm, Thursday: 10:00 am - 09:00 pm, Friday: 10:00 am - 09:00 pm, Saturday: 10:00 am - 09:00 pm, Sunday: 11:00 am - 06:00 pm",,,0
Oak View Mall,,3001 S. 144th Street ,,Omaha ,NE,68144,United States,402-334-1505,,,"Monday: 10:00 am - 09:00 pm, Tuesday: 10:00 am - 09:00 pm, Wednesday: 10:00 am - 09:00 pm, Thursday: 10:00 am - 09:00 pm, Friday: 10:00 am - 09:00 pm, Saturday: 10:00 am - 09:00 pm, Sunday: 11:00 am - 06:00 pm",,,0
Mall of New Hampshire,,1500 S Willow Street ,,Manchester ,NH,03103,United States,603-624-0579,,,"Monday: 10:00 am - 09:00 pm, Tuesday: 10:00 am - 09:00 pm, Wednesday: 10:00 am - 09:00 pm, Thursday: 10:00 am - 09:00 pm, Friday: 10:00 am - 09:00 pm, Saturday: 10:00 am - 09:00 pm, Sunday: 12:00 pm - 06:00 pm",,,0
Saint Louis Science Center,,5050 Oakland Ave. ,,St. Louis ,MO,63110,United States,314 534-3612,,,"Monday: 09:30 am - 04:30 pm, Tuesday: 09:30 am - 04:30 pm, Wednesday: 09:30 am - 04:30 pm, Thursday: 09:30 am - 04:30 pm, Friday: 09:30 am - 04:30 pm, Saturday: 09:30 am - 04:30 pm, Sunday: 11:00 am - 04:30 pm",,,0
Battlefield Mall,,2825 S. Glenstone Ave. ,,Springfield ,MO,65804,United States,417-888-0098,,,"Monday: 10:00 am - 09:00 pm, Tuesday: 10:00 am - 09:00 pm, Wednesday: 10:00 am - 09:00 pm, Thursday: 10:00 am - 09:00 pm, Friday: 10:00 am - 09:00 pm, Saturday: 10:00 am - 09:00 pm, Sunday: 11:00 am - 06:00 pm",,,0
Zona Rosa,,8640 N. Dixson Avenue ,,Kansas City ,MO,64153,United States,816 587-6515,,,"Monday: 10:00 am - 09:00 pm, Tuesday: 10:00 am - 09:00 pm, Wednesday: 10:00 am - 09:00 pm, Thursday: 10:00 am - 09:00 pm, Friday: 10:00 am - 09:00 pm, Saturday: 10:00 am - 09:00 pm, Sunday: 12:00 pm - 06:00 pm",,,0
Independence Center,,18813 E. 39th Street South ,,Independence ,MO,64057,United States,816 795-5266,,,"Monday: 10:00 am - 09:00 pm, Tuesday: 10:00 am - 09:00 pm, Wednesday: 10:00 am - 09:00 pm, Thursday: 10:00 am - 09:00 pm, Friday: 10:00 am - 09:00 pm, Saturday: 10:00 am - 09:00 pm, Sunday: 12:00 pm - 06:00 pm",,,0
Columbia Mall,,2300 Bernadette Drive Space 5526 ,,Columbia ,MO,65203,United States,573-514-6238,,,"Sunday: 11:00 am - 07:00 pm, Monday: 10:00 am - 09:00 pm, Tuesday: 10:00 am - 09:00 pm, Wednesday: 10:00 am - 09:00 pm, Thursday: 10:00 am - 09:00 pm, Friday: 10:00 am - 09:00 pm, Saturday: 10:00 am - 09:00 pm",,,0
Branson Landing,,313 Branson Landing ,,Branson ,MO,65616,United States,417-239-0820,,,"Monday: 10:00 am - 09:00 pm, Tuesday: 10:00 am - 09:00 pm, Wednesday: 10:00 am - 09:00 pm, Thursday: 10:00 am - 09:00 pm, Friday: 10:00 am - 09:00 pm, Saturday: 10:00 am - 09:00 pm, Sunday: 12:00 pm - 06:00 pm",,,0
Mall Of America,,172 E. Broadway ,,Bloomington ,MN,55425,United States,952 854-1164,,,"Monday: 10:00 am - 09:30 pm, Tuesday: 10:00 am - 09:30 pm, Wednesday: 10:00 am - 09:30 pm, Thursday: 10:00 am - 09:30 pm, Friday: 10:00 am - 09:30 pm, Saturday: 10:00 am - 09:30 pm, Sunday: 11:00 am - 07:00 pm",,,0
Mall of America Concourse Shop,,172 E. Broadway ,,Bloomington ,MN,55425,United States,952-854-1604,,,"Monday: 10:00 am - 09:30 pm, Tuesday: 10:00 am - 09:30 pm, Wednesday: 10:00 am - 09:30 pm, Thursday: 10:00 am - 09:30 pm, Friday: 10:00 am - 09:30 pm, Saturday: 10:00 am - 09:30 pm, Sunday: 11:00 am - 07:00 pm",,,0
Miller Hill Mall,,1600 Miller Trunk Hwy H07C ,,Duluth ,MN,55811,United States,(218) 722-2493,,,"Sunday: 11:00 am - 06:00 pm, Monday: 10:00 am - 09:00 pm, Tuesday: 10:00 am - 09:00 pm, Wednesday: 10:00 am - 09:00 pm, Thursday: 10:00 am - 09:00 pm, Friday: 10:00 am - 09:00 pm, Saturday: 10:00 am - 09:00 pm",,,0
The Crossroads,,6650 South Westnedge Ave. ,,Portage ,MI,49024,United States,269 324-2411,,,"Monday: 10:00 am - 09:00 pm, Tuesday: 10:00 am - 09:00 pm, Wednesday: 10:00 am - 09:00 pm, Thursday: 10:00 am - 09:00 pm, Friday: 10:00 am - 09:00 pm, Saturday: 10:00 am - 09:00 pm, Sunday: 12:00 pm - 06:00 pm",,,0
Twelve Oaks,,27400 Novi Road ,,Novi ,MI,48377-3416,United States,248-374-8987,,,"Monday: 10:00 am - 09:00 pm, Tuesday: 10:00 am - 09:00 pm, Wednesday: 10:00 am - 09:00 pm, Thursday: 10:00 am - 09:00 pm, Friday: 10:00 am - 09:00 pm, Saturday: 10:00 am - 09:00 pm, Sunday: 11:00 am - 06:00 pm",,,0
Rivertown Crossings,,3700 Rivertown Parkway SW Suite 1138 ,,Grandville ,MI,49418,United States,616-530-6988,,,"Monday: 10:00 am - 09:00 pm, Tuesday: 10:00 am - 09:00 pm, Wednesday: 10:00 am - 09:00 pm, Thursday: 10:00 am - 09:00 pm, Friday: 10:00 am - 09:00 pm, Saturday: 10:00 am - 09:00 pm, Sunday: 12:00 pm - 06:00 pm",,,0
Great Lakes Crossing Outlet,,4000 Baldwin Road Space K300 ,,Auburn Hills ,MI,48326,United States,,,,,,,1
Briarwood Mall,,100 Briarwood Circle Space K165 Near the children's play area in Von Maur Wing. Ann ,,Arbor ,MI,48108,United States,(734) 887-5995,,,"Sunday: 11:00 am - 07:00 pm, Monday: 10:00 am - 09:00 pm, Tuesday: 10:00 am - 09:00 pm, Wednesday: 10:00 am - 09:00 pm, Thursday: 10:00 am - 09:00 pm, Friday: 10:00 am - 09:00 pm, Saturday: 10:00 am - 09:00 pm",,,0
Natick Mall,,1245 Worcester StreetSuite 2126 ,,Natick ,MA,01760-1554,United States,508-651-0241,,,"Monday: 10:00 am - 09:00 pm, Tuesday: 10:00 am - 09:00 pm, Wednesday: 10:00 am - 09:00 pm, Thursday: 10:00 am - 09:00 pm, Friday: 10:00 am - 09:00 pm, Saturday: 10:00 am - 09:00 pm, Sunday: 11:00 am - 06:00 pm",,,0
Holyoke Mall at Ingleside,,50 Holyoke St. ,,Holyoke ,MA,01040,United States,413 533-8350,,,"Monday: 10:00 am - 09:30 pm, Tuesday: 10:00 am - 09:30 pm, Wednesday: 10:00 am - 09:30 pm, Thursday: 10:00 am - 09:30 pm, Friday: 10:00 am - 09:30 pm, Saturday: 10:00 am - 09:30 pm, Sunday: 11:00 am - 06:00 pm",,,0
South Shore Plaza,,250 Granite Street ,,Braintree ,MA,02184-2804,United States,781-356-8400,,,"Monday: 10:00 am - 09:00 pm, Tuesday: 10:00 am - 09:00 pm, Wednesday: 10:00 am - 09:00 pm, Thursday: 10:00 am - 09:00 pm, Friday: 10:00 am - 09:00 pm, Saturday: 10:00 am - 09:00 pm, Sunday: 11:00 am - 06:00 pm",,,0
Burlington Mall,,75 Middlesex Turnpike ,,Burlington ,MA,01803,United States,781 272-5155,,,"Monday: 10:00 am - 09:00 pm, Tuesday: 10:00 am - 09:00 pm, Wednesday: 10:00 am - 09:00 pm, Thursday: 10:00 am - 09:00 pm, Friday: 10:00 am - 09:00 pm, Saturday: 10:00 am - 09:00 pm, Sunday: 11:00 am - 06:00 pm",,,0
The Mall in Columbia,,10300 Little Patuxent Parkway Suite 1320 ,,Columbia ,MD,21044-3341,United States,314-378-9563,,,"Monday: 10:00 am - 09:00 pm, Tuesday: 10:00 am - 09:00 pm, Wednesday: 10:00 am - 09:00 pm, Thursday: 10:00 am - 09:00 pm, Friday: 10:00 am - 09:00 pm, Saturday: 10:00 am - 09:00 pm, Sunday: 11:00 am - 06:00 pm",,,0
Westfield Montgomery,,7101 Democracy Blvd Space 1258 ,,Bethesda ,MD,20817,United States,301-365-8388,,,"Monday: 10:00 am - 09:00 pm, Tuesday: 10:00 am - 09:00 pm, Wednesday: 10:00 am - 09:00 pm, Thursday: 10:00 am - 09:00 pm, Friday: 10:00 am - 09:00 pm, Saturday: 10:00 am - 09:00 pm, Sunday: 11:00 am - 06:00 pm",,,0
White Marsh Mall,,8200 Perry Hall Blvd ,,Baltimore ,MD,21236,United States,,,,,,,1
Westfield Annapolis,,1800 Annapolis Mall Space 1805 ,,Annapolis ,MD,21401,United States,410-897-0828,,,"Monday: 10:00 am - 09:00 pm, Tuesday: 10:00 am - 09:00 pm, Wednesday: 10:00 am - 09:00 pm, Thursday: 10:00 am - 09:00 pm, Friday: 10:00 am - 09:00 pm, Saturday: 10:00 am - 09:00 pm, Sunday: 11:00 am - 07:00 pm",,,0
Palisades Center,,3760 Palisades Center Drive ,,West Nyack ,NY,10994,United States,845-353-1895,,,"Monday: 10:00 am - 09:30 pm, Tuesday: 10:00 am - 09:30 pm, Wednesday: 10:00 am - 09:30 pm, Thursday: 10:00 am - 09:30 pm, Friday: 10:00 am - 09:30 pm, Saturday: 10:00 am - 09:30 pm, Sunday: 11:00 am - 07:00 pm",,,0
Eastview,,443 Eastview Mall ,,Victor ,NY,14564,United States,585-425-2050,,,"Monday: 10:00 am - 09:30 pm, Tuesday: 10:00 am - 09:30 pm, Wednesday: 10:00 am - 09:30 pm, Thursday: 10:00 am - 09:30 pm, Friday: 10:00 am - 09:30 pm, Saturday: 10:00 am - 09:30 pm, Sunday: 11:00 am - 06:00 pm",,,0
Crabtree Valley Mall,,4325 Glenwood Avenue Suite 1021 ,,Raleigh ,NC,27612,United States,919-789-8837,,,"Monday: 10:00 am - 09:00 pm, Tuesday: 10:00 am - 09:00 pm, Wednesday: 10:00 am - 09:00 pm, Thursday: 10:00 am - 09:00 pm, Friday: 10:00 am - 09:00 pm, Saturday: 10:00 am - 09:00 pm, Sunday: 12:00 pm - 06:00 pm",,,0
Hanes Mall,,3320 Silas Creek Pkwy ,,Winston-Salem ,NC,27103,United States,336-794-0154,,,"Monday: 10:00 am - 09:00 pm, Tuesday: 10:00 am - 09:00 pm, Wednesday: 10:00 am - 09:00 pm, Thursday: 10:00 am - 09:00 pm, Friday: 10:00 am - 09:00 pm, Saturday: 10:00 am - 09:00 pm, Sunday: 12:00 pm - 06:00 pm",,,0
Carolina Place,,11025 Carolina Place Parkway ,,Pineville ,NC,28134,United States,704 543-9800,,,"Monday: 10:00 am - 09:00 pm, Tuesday: 10:00 am - 09:00 pm, Wednesday: 10:00 am - 09:00 pm, Thursday: 10:00 am - 09:00 pm, Friday: 10:00 am - 09:00 pm, Saturday: 10:00 am - 09:00 pm, Sunday: 12:00 pm - 06:00 pm",,,0
Friendly Center,,809 Friendly Center Road ,,Greensboro ,NC,27408,United States,336-291-2597,,,"Sunday: 01:00 pm - 06:00 pm, Monday: 10:00 am - 09:00 pm, Tuesday: 10:00 am - 09:00 pm, Wednesday: 10:00 am - 09:00 pm, Thursday: 10:00 am - 09:00 pm, Friday: 10:00 am - 09:00 pm, Saturday: 10:00 am - 09:00 pm",,,0
Cross Creek,,438 Cross Creek Mall ,,Fayetteville ,NC,28303,United States,910 487-3348,,,"Monday: 10:00 am - 09:00 pm, Tuesday: 10:00 am - 09:00 pm, Wednesday: 10:00 am - 09:00 pm, Thursday: 10:00 am - 09:00 pm, Friday: 10:00 am - 09:00 pm, Saturday: 10:00 am - 09:00 pm, Sunday: 12:00 pm - 06:00 pm",,,0
The Streets at Southpoint,,6910 Fayetteville Road Space 6605 ,,Durham ,NC,27713,United States,,,,,,,1
Asheville Mall,,3 South Tunnel Road ,,Asheville ,NC,28805,United States,828 298-1852,,,"Monday: 10:00 am - 09:00 pm, Tuesday: 10:00 am - 09:00 pm, Wednesday: 10:00 am - 09:00 pm, Thursday: 10:00 am - 09:00 pm, Friday: 10:00 am - 09:00 pm, Saturday: 10:00 am - 09:00 pm, Sunday: 12:00 pm - 06:00 pm",,,0
Concord Mills,,8111 Concord Mills Blvd. Suite 646 ,,Concord ,NC,28027-6462,United States,704-979-0328,,,"Monday: 10:00 am - 09:00 pm, Tuesday: 10:00 am - 09:00 pm, Wednesday: 10:00 am - 09:00 pm, Thursday: 10:00 am - 09:00 pm, Friday: 10:00 am - 09:00 pm, Saturday: 10:00 am - 09:00 pm, Sunday: 12:00 pm - 07:00 pm",,,0
Southern Park Mall,,7401 Market Street ,,Youngstown ,OH,44512,United States,330 758-3460,,,"Monday: 10:00 am - 09:00 pm, Tuesday: 10:00 am - 09:00 pm, Wednesday: 10:00 am - 09:00 pm, Thursday: 10:00 am - 09:00 pm, Friday: 10:00 am - 09:00 pm, Saturday: 10:00 am - 09:00 pm, Sunday: 11:00 am - 06:00 pm",,,0
Destiny USA,,9090 Destiny USA Drive ,,Syracuse ,NY,13290,United States,315-426-0250,,,"Monday: 10:00 am - 09:30 pm, Tuesday: 10:00 am - 09:30 pm, Wednesday: 10:00 am - 09:30 pm, Thursday: 10:00 am - 09:30 pm, Friday: 10:00 am - 09:30 pm, Saturday: 10:00 am - 09:30 pm, Sunday: 11:00 am - 06:00 pm",,,0
Southpark Mall,,320 Southpark Center ,,Strongsville ,OH,44136,United States,440-878-1322,,,"Monday: 10:30 am - 08:30 pm, Tuesday: 10:30 am - 08:30 pm, Wednesday: 10:30 am - 08:30 pm, Thursday: 10:30 am - 08:30 pm, Friday: 10:30 am - 08:30 pm, Saturday: 10:00 am - 09:00 pm, Sunday: 11:00 am - 06:00 pm",,,0
Westfield Franklin Park,,5001 Monroe Street ,,Toledo ,OH,43623,United States,419 471-0320,,,"Monday: 10:30 am - 08:30 pm, Tuesday: 10:30 am - 08:30 pm, Wednesday: 10:30 am - 08:30 pm, Thursday: 10:30 am - 08:30 pm, Friday: 10:30 am - 08:30 pm, Saturday: 10:00 am - 09:00 pm, Sunday: 11:00 am - 06:00 pm",,,0
Great Lakes Mall,,7850 Mentor Avenue Suite 760 ,,Mentor ,OH,44060,United States,440-205-8898,,,"Monday: 10:00 am - 09:00 pm, Tuesday: 10:00 am - 09:00 pm, Wednesday: 10:00 am - 09:00 pm, Thursday: 10:00 am - 09:00 pm, Friday: 10:00 am - 09:00 pm, Saturday: 10:00 am - 09:00 pm, Sunday: 11:00 am - 06:00 pm",,,0
Broadway at the Beach,,1301 Celebrity Circle Suite FS3 ,,Myrtle Beach ,SC,29577-7454,United States,843-445-7675,,,"Sunday: 10:00 am - 09:00 pm, Tuesday: 10:00 am - 09:00 pm, Wednesday: 10:00 am - 09:00 pm, Thursday: 10:00 am - 09:00 pm, Friday: 10:00 am - 09:00 pm, Saturday: 10:00 am - 09:00 pm, Sunday: 10:00 am - 09:00 pm",,,0
The Empire Mall,,4001 W 41st Street ,,Sioux Falls ,SD,57106,United States,(605)362-6553,,,"Sunday: 12:00 pm - 06:00 pm, Monday: 10:00 am - 09:00 pm, Tuesday: 10:00 am - 09:00 pm, Wednesday: 10:00 am - 09:00 pm, Thursday: 10:00 am - 09:00 pm, Friday: 10:00 am - 09:00 pm, Saturday: 10:00 am - 09:00 pm",,,0
Hilton Head Outlet,,1414 Fording Island Road Space A133 ,,Bluffton ,SC,29910,United States,(843) 837-2327,,,"Sunday: 10:00 am - 07:00 pm, Monday: 09:00 am - 09:00 pm, Tuesday: 09:00 am - 09:00 pm, Wednesday: 09:00 am - 09:00 pm, Thursday: 09:00 am - 09:00 pm, Friday: 09:00 am - 09:00 pm, Saturday: 09:00 am - 09:00 pm",,,0
Columbiana Centre,,100 Columbiana Circle ,,Columbia ,SC,29212,United States,803 749-4844,,,"Monday: 10:00 am - 09:00 pm, Tuesday: 10:00 am - 09:00 pm, Wednesday: 10:00 am - 09:00 pm, Thursday: 10:00 am - 09:00 pm, Friday: 10:00 am - 09:00 pm, Saturday: 10:00 am - 09:00 pm, Sunday: 12:00 pm - 06:00 pm",,,0
Providence Place,,One Providence Place ,,Providence ,RI,02903,United States,(401) 369-7919,,,"Monday: 10:00 am - 09:00 pm, Tuesday: 10:00 am - 09:00 pm, Wednesday: 10:00 am - 09:00 pm, Thursday: 10:00 am - 09:00 pm, Friday: 10:00 am - 09:00 pm, Saturday: 10:00 am - 09:00 pm, Sunday: 11:00 am - 06:00 pm",,,0
Plaza Las Americas,,525 F.D. Roosevelt Ave. ,,San Juan ,PR,00918,United States,787 766-1616,,,"Monday: 09:00 am - 09:00 pm, Tuesday: 09:00 am - 09:00 pm, Wednesday: 09:00 am - 09:00 pm, Thursday: 09:00 am - 09:00 pm, Friday: 09:00 am - 09:00 pm, Saturday: 09:00 am - 09:00 pm, Sunday: 11:00 am - 05:00 pm",,,0
Haywood Mall,,700 Haywood Rd.Space # 2014 ,,Greenville ,SC,29607,United States,864 284-6432,,,"Monday: 10:00 am - 09:00 pm, Tuesday: 10:00 am - 09:00 pm, Wednesday: 10:00 am - 09:00 pm, Thursday: 10:00 am - 09:00 pm, Friday: 10:00 am - 09:00 pm, Saturday: 10:00 am - 09:00 pm, Sunday: 12:30 pm - 06:00 pm",,,0
Willow Grove Park,,2500 W.Moreland Road ,,Willow Grove ,PA,19090,United States,215-657-8633,,,"Monday: 10:00 am - 09:00 pm, Tuesday: 10:00 am - 09:00 pm, Wednesday: 10:00 am - 09:00 pm, Thursday: 10:00 am - 09:00 pm, Friday: 10:00 am - 09:00 pm, Saturday: 10:00 am - 09:00 pm, Sunday: 11:00 am - 06:00 pm",,,0
Lehigh Valley Mall,,238 Lehigh Valley Mall ,,Whitehall ,PA,18052,United States,610 264-0362,,,"Monday: 10:00 am - 09:00 pm, Tuesday: 10:00 am - 09:00 pm, Wednesday: 10:00 am - 09:00 pm, Thursday: 10:00 am - 09:00 pm, Friday: 10:00 am - 09:00 pm, Saturday: 10:00 am - 09:00 pm, Sunday: 11:00 am - 06:00 pm",,,0
Springfield Mall,,1250 Baltimore Pike ,,Springfield ,PA,19064,United States,610-544-7727,,,"Monday: 10:00 am - 09:00 pm, Tuesday: 10:00 am - 09:00 pm, Wednesday: 10:00 am - 09:00 pm, Thursday: 10:00 am - 09:00 pm, Friday: 10:00 am - 09:00 pm, Saturday: 10:00 am - 09:00 pm, Sunday: 11:00 am - 06:00 pm",,,0
South Hills Village,,301 South Hills Village ,,Pittsburgh ,PA,15241,United States,412-851-9033,,,"Monday: 10:00 am - 09:00 pm, Tuesday: 10:00 am - 09:00 pm, Wednesday: 10:00 am - 09:00 pm, Thursday: 10:00 am - 09:00 pm, Friday: 10:00 am - 09:00 pm, Saturday: 10:00 am - 09:00 pm, Sunday: 11:00 am - 06:00 pm",,,0
Ross Park Mall,,1000 Ross Park Mall Drive Space D10C ,,Pittsburgh ,PA,15237,United States,412-635-0386,,,"Monday: 10:00 am - 09:00 pm, Tuesday: 10:00 am - 09:00 pm, Wednesday: 10:00 am - 09:00 pm, Thursday: 10:00 am - 09:00 pm, Friday: 10:00 am - 09:00 pm, Saturday: 10:00 am - 09:00 pm, Sunday: 11:00 am - 06:00 pm",,,0
Build-A-Bear Workshop At Macy's Center City,,1300 Market Street ,,Philadelphia ,PA,19107,United States,(215) 241-9000,,,"Sunday: 11:00 am - 07:00 pm, Monday: 10:00 am - 08:00 pm, Tuesday: 10:00 am - 09:00 pm, Wednesday: 10:00 am - 09:00 pm, Thursday: 10:00 am - 09:00 pm, Friday: 10:00 am - 09:00 pm, Saturday: 10:00 am - 09:00 pm",,,0
The Mall at Robinson,,100 Robinson Center Dr. Space 2615 ,,Pittsburgh ,PA,15205,United States,412-788-6530,,,"Monday: 10:00 am - 09:00 pm, Tuesday: 10:00 am - 09:00 pm, Wednesday: 10:00 am - 09:00 pm, Thursday: 10:00 am - 09:00 pm, Friday: 10:00 am - 09:00 pm, Saturday: 10:00 am - 09:30 pm, Sunday: 11:00 am - 06:00 pm",,,0
Park City Center,,228 Park City Center ,,Lancaster ,PA,17601,United States,717-393-6340,,,"Monday: 10:00 am - 09:30 pm, Tuesday: 10:00 am - 09:30 pm, Wednesday: 10:00 am - 09:30 pm, Thursday: 10:00 am - 09:30 pm, Friday: 10:00 am - 09:30 pm, Saturday: 10:00 am - 09:30 pm, Sunday: 11:00 am - 06:00 pm",,,0
The Plaza at King of Prussia,,160 North Gulph Road Suite Y-2 ,,King of Prussia ,PA,19406-2937,United States,610-992-1037,,,"Monday: 10:00 am - 09:00 pm, Tuesday: 10:00 am - 09:00 pm, Wednesday: 10:00 am - 09:00 pm, Thursday: 10:00 am - 09:00 pm, Friday: 10:00 am - 09:00 pm, Saturday: 10:00 am - 09:00 pm, Sunday: 11:00 am - 06:00 pm",,,0
Oxford Valley Mall,,2300 East Lincoln Highway ,,Langhorne ,PA,19047,United States,215-702-0288,,,"Monday: 10:00 am - 09:00 pm, Tuesday: 10:00 am - 09:00 pm, Wednesday: 10:00 am - 09:00 pm, Thursday: 10:00 am - 09:00 pm, Friday: 10:00 am - 09:00 pm, Saturday: 10:00 am - 09:00 pm, Sunday: 11:00 am - 06:00 pm",,,0
Capital City Mall,,3519 Capital City Mall Drive ,,Camp Hill ,PA,17011,United States,717 737-9878,,,"Monday: 10:00 am - 09:00 pm, Tuesday: 10:00 am - 09:00 pm, Wednesday: 10:00 am - 09:00 pm, Thursday: 10:00 am - 09:00 pm, Friday: 10:00 am - 09:00 pm, Saturday: 10:00 am - 09:00 pm, Sunday: 12:00 pm - 05:00 pm",,,0
Millcreek Mall,,440 Millcreek Mall ,,Erie ,PA,16565,United States,814 868-5453,,,"Monday: 10:00 am - 09:00 pm, Tuesday: 10:00 am - 09:00 pm, Wednesday: 10:00 am - 09:00 pm, Thursday: 10:00 am - 09:00 pm, Friday: 10:00 am - 09:00 pm, Saturday: 10:00 am - 09:00 pm, Sunday: 11:00 am - 06:00 pm",,,0
The Mall at Tuttle Crossings,,5043 Tuttle Crossing Boulevard ,,Dublin ,OH,43016,United States,614 336-8319,,,"Monday: 10:00 am - 09:00 pm, Tuesday: 10:00 am - 09:00 pm, Wednesday: 10:00 am - 09:00 pm, Thursday: 10:00 am - 09:00 pm, Friday: 10:00 am - 09:00 pm, Saturday: 10:00 am - 09:00 pm, Sunday: 12:00 pm - 06:00 pm",,,0
Liberty,,7100 Foundry Row Suite 218 ,,Liberty Township ,OH,45069,United States,(513) 755-2371,,,"Sunday: 12:00 pm - 06:00 pm, Monday: 10:00 am - 09:00 pm, Tuesday: 10:00 am - 09:00 pm, Wednesday: 10:00 am - 09:00 pm, Thursday: 10:00 am - 09:00 pm, Friday: 10:00 am - 09:00 pm, Saturday: 10:00 am - 10:00 pm",,,0
Easton Town Center,,4046 Fenlon Street Suite 806 ,,Columbus ,OH,43219,United States,614-473-8888,,,"Monday: 10:00 am - 09:00 pm, Tuesday: 10:00 am - 09:00 pm, Wednesday: 10:00 am - 09:00 pm, Thursday: 10:00 am - 09:00 pm, Friday: 10:00 am - 09:00 pm, Saturday: 10:00 am - 10:00 pm, Sunday: 12:00 pm - 06:00 pm",,,0
Belden Village Mall,,4230 Belden Village Mall Space B16 ,,Canton ,OH,44718,United States,(330) 491-1427,,,"Monday: 10:30 am - 08:30 pm, Tuesday: 10:30 am - 08:30 pm, Wednesday: 10:30 am - 08:30 pm, Thursday: 10:30 am - 08:30 pm, Friday: 10:30 am - 08:30 pm, Saturday: 10:00 am - 09:00 pm, Sunday: 11:00 am - 06:00 pm",,,0
Kenwood Towne Centre,,7875 Montgomery Rd ,,Cincinnati ,OH,45236,United States,513-794-1333,,,"Monday: 10:00 am - 09:00 pm, Tuesday: 10:00 am - 09:00 pm, Wednesday: 10:00 am - 09:00 pm, Thursday: 10:00 am - 09:00 pm, Friday: 10:00 am - 09:00 pm, Saturday: 10:00 am - 09:00 pm, Sunday: 12:00 pm - 06:00 pm",,,0
The Mall at Fairfield Commons,,2727 Fairfield Commons Blvd Space E 277 ,,Beaver Creek ,OH,45431,United States,937-431-5480,,,"Monday: 10:00 am - 09:00 pm, Tuesday: 10:00 am - 09:00 pm, Wednesday: 10:00 am - 09:00 pm, Thursday: 10:00 am - 09:00 pm, Friday: 10:00 am - 09:00 pm, Saturday: 10:00 am - 09:00 pm, Sunday: 12:00 pm - 06:00 pm",,,0
Woodland Hills Mall,,7021 S Memorial Drive ,,Tulsa ,OK,74133,United States,918-461-0877,,,"Monday: 10:00 am - 09:00 pm, Tuesday: 10:00 am - 09:00 pm, Wednesday: 10:00 am - 09:00 pm, Thursday: 10:00 am - 09:00 pm, Friday: 10:00 am - 09:00 pm, Saturday: 10:00 am - 09:00 pm, Sunday: 12:00 pm - 07:00 pm",,,0
Beachwood Place,,26300 Cedar Road Space 1015 ,,Beachwood ,OH,44122,United States,216-910-9044,,,"Monday: 10:00 am - 09:00 pm, Tuesday: 10:00 am - 09:00 pm, Wednesday: 10:00 am - 09:00 pm, Thursday: 10:00 am - 09:00 pm, Friday: 10:00 am - 09:00 pm, Saturday: 10:00 am - 09:00 pm, Sunday: 12:00 pm - 06:00 pm",,,0
Penn Square Mall,,1901 NW Expressway ,,Oklahoma City ,OK,73118,United States,405-842-4316,,,"Monday: 10:00 am - 09:00 pm, Tuesday: 10:00 am - 09:00 pm, Wednesday: 10:00 am - 09:00 pm, Thursday: 10:00 am - 09:00 pm, Friday: 10:00 am - 09:00 pm, Saturday: 10:00 am - 09:00 pm, Sunday: 12:00 pm - 06:00 pm",,,0
Woodburn Outlet,,1001 N Arney Rd Space 308 ,,Woodburn ,OR,97071,United States,(503) 981-2381,,,"Sunday: 10:00 am - 07:00 pm, Monday: 10:00 am - 09:00 pm, Tuesday: 10:00 am - 09:00 pm, Wednesday: 10:00 am - 09:00 pm, Thursday: 10:00 am - 09:00 pm, Friday: 10:00 am - 09:00 pm, Saturday: 10:00 am - 09:00 pm",,,0
Washington Square,,9485 SW Washington Square Rd. ,,Tigard ,OR,97223,United States,503-620-9555,,,"Monday: 10:00 am - 09:00 pm, Tuesday: 10:00 am - 09:00 pm, Wednesday: 10:00 am - 09:00 pm, Thursday: 10:00 am - 09:00 pm, Friday: 10:00 am - 09:00 pm, Saturday: 10:00 am - 09:00 pm, Sunday: 10:00 am - 07:00 pm",,,0
Clackamas Town Center,,12000 Se 82nd Ave Ste 1109 ,,Portland ,OR,97266-7736,United States,503-513-0457,,,"Monday: 10:00 am - 09:00 pm, Tuesday: 10:00 am - 09:00 pm, Wednesday: 10:00 am - 09:00 pm, Thursday: 10:00 am - 09:00 pm, Friday: 10:00 am - 09:00 pm, Saturday: 10:00 am - 09:00 pm, Sunday: 11:00 am - 06:00 pm",,,0
Valley River Mall,,293 Valley River Center Space K0006 ,,Eugene ,OR,97401,United States,541-505-3090,,,"Sunday: 11:00 am - 07:00 pm, Monday: 10:00 am - 09:00 pm, Tuesday: 10:00 am - 09:00 pm, Wednesday: 10:00 am - 09:00 pm, Thursday: 10:00 am - 09:00 pm, Friday: 10:00 am - 09:00 pm, Saturday: 10:00 am - 09:00 pm",,,0
Galleria at Crystal Run,,1 E Galleria Drive Space B210 ,,Middletown ,NY,10941,United States,845-695-1777,,,"Monday: 10:00 am - 09:30 pm, Tuesday: 10:00 am - 09:30 pm, Wednesday: 10:00 am - 09:30 pm, Thursday: 10:00 am - 09:30 pm, Friday: 10:00 am - 09:30 pm, Saturday: 10:00 am - 09:30 pm, Sunday: 11:00 am - 06:00 pm",,,0
Staten Island Mall,,2655 Richmond Avenue ,,New York ,NY,10314,United States,718 698-1477,,,"Monday: 10:00 am - 09:00 pm, Tuesday: 10:00 am - 09:00 pm, Wednesday: 10:00 am - 09:00 pm, Thursday: 10:00 am - 09:00 pm, Friday: 10:00 am - 09:00 pm, Saturday: 10:00 am - 09:00 pm, Sunday: 11:00 am - 06:00 pm",,,0
Smith Haven Mall,,540 Smith Haven Mall ,,Lake Grove ,NY,11755,United States,631-979-7656,,,"Monday: 10:00 am - 09:30 pm, Tuesday: 10:00 am - 09:30 pm, Wednesday: 10:00 am - 09:30 pm, Thursday: 10:00 am - 09:30 pm, Friday: 10:00 am - 09:30 pm, Saturday: 10:00 am - 09:30 pm, Sunday: 11:00 am - 07:00 pm",,,0
Poughkeepsie Galleria,,2001 South Rd ,,Poughkeepsie ,NY,12601,United States,845 296-1660,,,"Monday: 10:00 am - 09:30 pm, Tuesday: 10:00 am - 09:30 pm, Wednesday: 10:00 am - 09:30 pm, Thursday: 10:00 am - 09:30 pm, Friday: 10:00 am - 09:30 pm, Saturday: 10:00 am - 09:30 pm, Sunday: 11:00 am - 06:00 pm",,,0
Walt Whitman Shops,,160 Walt Whitman Rd. ,,Huntington Station ,NY,11746,United States,631-760-2036,,,,,,0
Queens Center,,9015 Queens Blvd Space K304 ,,Elmhurst ,NY,11373,United States,,,,,,,1
Roosevelt Field,,630 Old Country Road ,,Garden City ,NY,11530,United States,516-248-0027,,,"Monday: 10:00 am - 09:30 pm, Tuesday: 10:00 am - 09:30 pm, Wednesday: 10:00 am - 09:30 pm, Thursday: 10:00 am - 09:30 pm, Friday: 10:00 am - 09:30 pm, Saturday: 10:00 am - 09:30 pm, Sunday: 11:00 am - 07:00 pm",,,0
Kings Plaza Shopping Center,,5100 Kings Plaza Space OK11 ,,Brooklyn ,NY,11234,United States,,,,,,,1
Walden Galleria,,1 Galleria Drive ,,Buffalo ,NY,14225,United States,(716) 686-0242,,,"Monday: 10:00 am - 09:30 pm, Tuesday: 10:00 am - 09:30 pm, Wednesday: 10:00 am - 09:30 pm, Thursday: 10:00 am - 09:30 pm, Friday: 10:00 am - 09:30 pm, Saturday: 10:00 am - 09:30 pm, Sunday: 11:00 am - 06:00 pm",,,0
Crossgates Mall,,1 Crossgates Mall Rd. ,,Albany ,NY,12203,United States,518-464-2853,,,"Monday: 10:00 am - 09:30 pm, Tuesday: 10:00 am - 09:30 pm, Wednesday: 10:00 am - 09:30 pm, Thursday: 10:00 am - 09:30 pm, Friday: 10:00 am - 09:30 pm, Saturday: 10:00 am - 09:30 pm, Sunday: 11:00 am - 06:00 pm",,,0
The Island at Pigeon Forge,,131 Island Drive Suite 9113 ,,Pigeon Forge ,TN,37863,United States,865-280-6993,,,,,,0
Opry Mills,,401 Opry Mills Drive Suite 205A ,,Nashville ,TN,37214,United States,615-823-3183,,,"Monday: 10:00 am - 09:00 pm, Tuesday: 10:00 am - 09:00 pm, Wednesday: 10:00 am - 09:00 pm, Thursday: 10:00 am - 09:00 pm, Friday: 10:00 am - 09:00 pm, Saturday: 10:00 am - 09:00 pm, Sunday: 11:00 am - 06:00 pm",,,0
Build-A-Bear Workshop within Gaylord Opryland Resort,,2088 Opryland Drive ,,Nashville ,TN,37214,United States,,,,"Sunday: 10:00 am - 10:00 pm, Monday: 10:00 am - 08:00 pm, Tuesday: 10:00 am - 08:00 pm, Wednesday: 10:00 am - 08:00 pm, Thursday: 10:00 am - 08:00 pm, Friday: 10:00 am - 10:00 pm, Saturday: 10:00 am - 10:00 pm",,,0
The Shops at Carriage Crossing,,4674 Merchants Park Circle ,,Memphis/Collierville ,TN,38017-9130,United States,901 861-7688,,,"Monday: 10:00 am - 09:00 pm, Tuesday: 10:00 am - 09:00 pm, Wednesday: 10:00 am - 09:00 pm, Thursday: 10:00 am - 09:00 pm, Friday: 10:00 am - 09:00 pm, Saturday: 10:00 am - 09:00 pm, Sunday: 12:00 pm - 06:00 pm",,,0
Richland Mall,,6001 West Waco Drive Suite 317 ,,Waco ,TX,76710,United States,254-741-1079,,,"Monday: 10:00 am - 09:00 pm, Tuesday: 10:00 am - 09:00 pm, Wednesday: 10:00 am - 09:00 pm, Thursday: 10:00 am - 09:00 pm, Friday: 10:00 am - 09:00 pm, Saturday: 10:00 am - 09:00 pm, Sunday: 12:00 pm - 06:00 pm",,,0
Wolfchase Galleria,,2760 N. Germantown Parkway Suite 124 ,,Memphis ,TN,38133,United States,901-266-4548,,,"Monday: 10:00 am - 09:00 pm, Tuesday: 10:00 am - 09:00 pm, Wednesday: 10:00 am - 09:00 pm, Thursday: 10:00 am - 09:00 pm, Friday: 10:00 am - 09:00 pm, Saturday: 10:00 am - 09:00 pm, Sunday: 12:00 pm - 06:00 pm",,,0
West Town Mall,,7600 Kingston Pike Suite 1056B ,,Knoxville ,TN,37919,United States,865-693-8699,,,"Monday: 10:00 am - 09:00 pm, Tuesday: 10:00 am - 09:00 pm, Wednesday: 10:00 am - 09:00 pm, Thursday: 10:00 am - 09:00 pm, Friday: 10:00 am - 09:00 pm, Saturday: 10:00 am - 09:00 pm, Sunday: 12:00 pm - 06:00 pm",,,0
Broadway Square,,4601 S. Broadway Ave. C06A ,,Tyler ,TX,75703,United States,903 534-9072,,,"Monday: 10:00 am - 09:00 pm, Tuesday: 10:00 am - 09:00 pm, Wednesday: 10:00 am - 09:00 pm, Thursday: 10:00 am - 09:00 pm, Friday: 10:00 am - 09:00 pm, Saturday: 10:00 am - 09:00 pm, Sunday: 12:00 pm - 06:00 pm",,,0
The Woodlands Mall,,1201 Lake Woodlands DriveSpace 1016 ,,The Woodlands ,TX,77380,United States,281-419-8512,,,"Monday: 10:00 am - 09:00 pm, Tuesday: 10:00 am - 09:00 pm, Wednesday: 10:00 am - 09:00 pm, Thursday: 10:00 am - 09:00 pm, Friday: 10:00 am - 09:00 pm, Saturday: 10:00 am - 09:00 pm, Sunday: 12:00 pm - 06:00 pm",,,0
First Colony Mall,,16535 Southwest Freeway ,,Sugar Land ,TX,77479-2321,United States,281 565-2327,,,"Monday: 10:00 am - 09:00 pm, Tuesday: 10:00 am - 09:00 pm, Wednesday: 10:00 am - 09:00 pm, Thursday: 10:00 am - 09:00 pm, Friday: 10:00 am - 09:00 pm, Saturday: 10:00 am - 09:00 pm, Sunday: 12:00 pm - 06:00 pm",,,0
Tanger Outlets San Marcos,,4015 I-35 South Suite 500 ,,San Marcos ,TX,78666,United States,(512) 214-6018,,,"Sunday: 10:00 am - 07:00 pm, Monday: 09:00 am - 09:00 pm, Tuesday: 09:00 am - 09:00 pm, Wednesday: 09:00 am - 09:00 pm, Thursday: 09:00 am - 09:00 pm, Friday: 09:00 am - 09:00 pm, Saturday: 09:00 am - 09:00 pm",,,0
The Shops at La Cantera,,16300 La Cantera Pkwy ,,San Antonio ,TX,78256,United States,(210) 694-0287,,,"Monday: 10:00 am - 09:00 pm, Tuesday: 10:00 am - 09:00 pm, Wednesday: 10:00 am - 09:00 pm, Thursday: 10:00 am - 09:00 pm, Friday: 10:00 am - 09:00 pm, Saturday: 10:00 am - 09:00 pm, Sunday: 12:00 pm - 06:00 pm",,,0
North Star Mall,,7400 San Pedro Ave ,,San Antonio ,TX,78216,United States,(210) 348-9213,,,"Monday: 10:00 am - 09:00 pm, Tuesday: 10:00 am - 09:00 pm, Wednesday: 10:00 am - 09:00 pm, Thursday: 10:00 am - 09:00 pm, Friday: 10:00 am - 09:00 pm, Saturday: 10:00 am - 09:00 pm, Sunday: 12:00 pm - 06:00 pm",,,0
Potomac Mills,,2700 Potomac Mills Circle ,,Woodbridge ,VA,22192,United States,703-499-8220,,,"Monday: 10:00 am - 09:00 pm, Tuesday: 10:00 am - 09:00 pm, Wednesday: 10:00 am - 09:00 pm, Thursday: 10:00 am - 09:00 pm, Friday: 10:00 am - 09:00 pm, Saturday: 10:00 am - 09:00 pm, Sunday: 11:00 am - 06:00 pm",,,0
Mayfair,,2500 North Mayfair Road ,,Wauwatosa ,WI,53226,United States,414-453-2327,,,"Monday: 10:00 am - 09:00 pm, Tuesday: 10:00 am - 09:00 pm, Wednesday: 10:00 am - 09:00 pm, Thursday: 10:00 am - 09:00 pm, Friday: 10:00 am - 09:00 pm, Saturday: 10:00 am - 09:00 pm, Sunday: 11:00 am - 06:00 pm",,,0
River Center Mall,,849 E. Commerce Suite 650 ,,San Antonio ,TX,78205,United States,210-536-8083,,,"Monday: 10:00 am - 09:00 pm, Tuesday: 10:00 am - 09:00 pm, Wednesday: 10:00 am - 09:00 pm, Thursday: 10:00 am - 09:00 pm, Friday: 10:00 am - 09:00 pm, Saturday: 10:00 am - 09:00 pm, Sunday: 12:00 pm - 06:00 pm",,,0
West Towne,,50 West Towne Mall ,,Madison ,WI,53719,United States,608 833-0200,,,"Monday: 10:00 am - 09:00 pm, Tuesday: 10:00 am - 09:00 pm, Wednesday: 10:00 am - 09:00 pm, Thursday: 10:00 am - 09:00 pm, Friday: 10:00 am - 09:00 pm, Saturday: 10:00 am - 09:00 pm, Sunday: 11:00 am - 06:00 pm",,,0
Valley View Mall,,3800 State Road 16 Suite 109 ,,La Crosse ,WI,54601,United States,608-781-3755,,,"Sunday: 12:00 pm - 06:00 pm, Monday: 10:00 am - 09:00 pm, Tuesday: 10:00 am - 09:00 pm, Wednesday: 10:00 am - 09:00 pm, Thursday: 10:00 am - 09:00 pm, Friday: 10:00 am - 09:00 pm, Saturday: 10:00 am - 09:00 pm",,,0
Bay Park Square,,357 Bay Park Square ,,Green Bay ,WI,54304,United States,920 494-1066,,,"Monday: 10:00 am - 09:00 pm, Tuesday: 10:00 am - 09:00 pm, Wednesday: 10:00 am - 09:00 pm, Thursday: 10:00 am - 09:00 pm, Friday: 10:00 am - 09:00 pm, Saturday: 10:00 am - 09:00 pm, Sunday: 11:00 am - 06:00 pm",,,0
Tanger Outlet Center Wisconsin Dells,,210 Gasser Road Suite 371 ,,Baraboo ,WI,53913,United States,608 253-7100,,,"Monday: 09:00 am - 09:00 pm, Tuesday: 09:00 am - 09:00 pm, Wednesday: 09:00 am - 09:00 pm, Thursday: 09:00 am - 09:00 pm, Friday: 09:00 am - 09:00 pm, Saturday: 09:00 am - 09:00 pm, Sunday: 10:00 am - 07:00 pm",,,0
Fox River Mall,,4301 West Wisconsin Ave. Suite 404 ,,Appleton ,WI,54913-8625,United States,920-749-8800,,,"Monday: 10:00 am - 09:00 pm, Tuesday: 10:00 am - 09:00 pm, Wednesday: 10:00 am - 09:00 pm, Thursday: 10:00 am - 09:00 pm, Friday: 10:00 am - 09:00 pm, Saturday: 10:00 am - 09:00 pm, Sunday: 10:00 am - 06:00 pm",,,0
Charleston Town Center,,1027 Charleston Town Center ,,Charleston ,WV,25389,United States,304 343-1874,,,"Monday: 10:00 am - 09:00 pm, Tuesday: 10:00 am - 09:00 pm, Wednesday: 10:00 am - 09:00 pm, Thursday: 10:00 am - 09:00 pm, Friday: 10:00 am - 09:00 pm, Saturday: 10:00 am - 09:00 pm, Sunday: 12:30 pm - 06:00 pm",,,0
Southcenter Mall,,656 Southcenter Mall ,,Tukwila ,WA,98188,United States,314-378-7332,,,"Sunday: 11:00 am - 07:00 pm, Monday: 10:00 - 09:00 pm, Tuesday: 10:00 - 09:00 pm, Wednesday: 10:00 - 09:00 pm, Thursday: 10:00 - 09:00 pm, Friday: 10:00 - 09:00 pm, Saturday: 10:00 - 09:00 pm",,,0
Tacoma Mall,,4502 S. Steele Street ,,Tacoma ,WA,98409,United States,253-671-2327,,,"Monday: 10:00 am - 09:00 pm, Tuesday: 10:00 am - 09:00 pm, Wednesday: 10:00 am - 09:00 pm, Thursday: 10:00 am - 09:00 pm, Friday: 10:00 am - 09:00 pm, Saturday: 10:00 am - 09:00 pm, Sunday: 11:00 am - 07:00 pm",,,0
Alderwood,,3000 184th Street SW Suite 414 ,,Lynnwood ,WA,98037,United States,425-778-3606,,,"Monday: 10:00 am - 09:00 pm, Tuesday: 10:00 am - 09:00 pm, Wednesday: 10:00 am - 09:00 pm, Thursday: 10:00 am - 09:00 pm, Friday: 10:00 am - 09:00 pm, Saturday: 10:00 am - 09:00 pm, Sunday: 11:00 am - 07:00 pm",,,0
Spokane Valley Mall,,14700 East Indiana ,,Spokane ,WA,99216,United States,509 924-2223,,,"Tuesday: 10:00 am - 09:00 pm, Wednesday: 10:00 am - 09:00 pm, Thursday: 10:00 am - 09:00 pm, Friday: 10:00 am - 09:00 pm, Saturday: 10:00 am - 09:00 pm, Sunday: 11:00 am - 06:00 pm",,,0
Williamsburg Outlet,,5711 Richmond Rd Suite 28-B ,,Williamsburg ,VA,23188,United States,(757) 345-7019,,,"Sunday: 10:00 am - 07:00 pm, Monday: 10:00 am - 09:00 pm, Tuesday: 10:00 am - 09:00 pm, Wednesday: 10:00 am - 09:00 pm, Thursday: 10:00 am - 09:00 pm, Friday: 10:00 am - 09:00 pm, Saturday: 10:00 am - 09:00 pm",,,0
Lynnhaven Mall,,701 Lynnhaven Parkway Space # F06B ,,Virginia Beach ,VA,23452,United States,757-340-7300,,,"Monday: 10:00 am - 09:00 pm, Tuesday: 10:00 am - 09:00 pm, Wednesday: 10:00 am - 09:00 pm, Thursday: 10:00 am - 09:00 pm, Friday: 10:00 am - 09:00 pm, Saturday: 10:00 am - 09:00 pm, Sunday: 11:00 am - 06:00 pm",,,0
Tysons Corner Center,,1961 Chain Bridge Road Suite J8L ,,Tysons Corner ,VA,22102,United States,703-852-1558,,,"Monday: 10:00 am - 09:30 pm, Tuesday: 10:00 am - 09:30 pm, Wednesday: 10:00 am - 09:30 pm, Thursday: 10:00 am - 09:30 pm, Friday: 10:00 am - 09:30 pm, Saturday: 10:00 am - 09:30 pm, Sunday: 11:00 am - 07:00 pm",,,0
Valley View Mall,,4802 Valley View Blvd. NW Unit UD175 ,,Roanoke ,VA,24012,United States,540-265-1004,,,"Monday: 10:00 am - 09:00 pm, Tuesday: 10:00 am - 09:00 pm, Wednesday: 10:00 am - 09:00 pm, Thursday: 10:00 am - 09:00 pm, Friday: 10:00 am - 09:00 pm, Saturday: 10:00 am - 09:00 pm, Sunday: 12:00 pm - 06:00 pm",,,0
Short Pump Town Center,,11800 West Broad Street ,,Richmond ,VA,23233,United States,804-364-4700,,,"Monday: 10:00 am - 09:00 pm, Tuesday: 10:00 am - 09:00 pm, Wednesday: 10:00 am - 09:00 pm, Thursday: 10:00 am - 09:00 pm, Friday: 10:00 am - 09:00 pm, Saturday: 10:00 am - 09:00 pm, Sunday: 11:00 am - 06:00 pm",,,0
Fair Oaks,,11770U Fair Oaks ,,,,,United States,703-251-9004,,,"Monday: 10:00 am - 09:30 pm, Tuesday: 10:00 am - 09:30 pm, Wednesday: 10:00 am - 09:30 pm, Thursday: 10:00 am - 09:30 pm, Friday: 10:00 am - 09:30 pm, Saturday: 10:00 am - 09:30 pm, Sunday: 11:00 am - 06:00 pm",,,0
Spotsylvania Towne Centre,,137 Spotsylvania Mall ,,Fredericksburg ,VA,22407,United States,540 786-0202,,,"Monday: 10:00 am - 09:30 pm, Tuesday: 10:00 am - 09:30 pm, Wednesday: 10:00 am - 09:30 pm, Thursday: 10:00 am - 09:30 pm, Friday: 10:00 am - 09:30 pm, Saturday: 10:00 am - 09:30 pm, Sunday: 11:00 am - 06:00 pm",,,0
Charlottesville Fashion Square,,1600 East Rio Road ,,Charlottesville ,VA,22901,United States,434 964-1998,,,"Monday: 10:00 am - 09:00 pm, Tuesday: 10:00 am - 09:00 pm, Wednesday: 10:00 am - 09:00 pm, Thursday: 10:00 am - 09:00 pm, Friday: 10:00 am - 09:00 pm, Saturday: 10:00 am - 09:00 pm, Sunday: 12:30 pm - 05:30 pm",,,0
Town East Mall,,2063 Town East Mall Space 5553 ,,Mesquite ,TX,75150,United States,,,,,,,1
La Plaza Mall,,2200 S. 10th Street ,,McAllen ,TX,78503,United States,956 661-8444,,,"Monday: 10:00 am - 09:00 pm, Tuesday: 10:00 am - 09:00 pm, Wednesday: 10:00 am - 09:00 pm, Thursday: 10:00 am - 09:00 pm, Friday: 10:00 am - 09:00 pm, Saturday: 10:00 am - 09:00 pm, Sunday: 11:00 am - 07:00 pm",,,0
South Plains Mall,,6002 Slide Road Space K107 ,,Lubbock ,TX,79414,United States,,,,,,,1
Mall del Norte,,5300 San Dario Suite 430 ,,Laredo ,TX,78041,United States,956-796-0967,,,"Monday: 10:00 am - 09:00 pm, Tuesday: 10:00 am - 09:00 pm, Wednesday: 10:00 am - 09:00 pm, Thursday: 10:00 am - 09:00 pm, Friday: 10:00 am - 09:00 pm, Saturday: 10:00 am - 09:00 pm, Sunday: 11:00 am - 07:00 pm",,,0
Katy Mills,,5000 Katy Mills Circle Ste 606A ,,Katy ,TX,77494,United States,346-307-8192,,,"Monday: 10:00 am - 09:00 pm, Tuesday: 10:00 am - 09:00 pm, Wednesday: 10:00 am - 09:00 pm, Thursday: 10:00 am - 09:00 pm, Friday: 10:00 am - 09:00 pm, Saturday: 10:00 am - 09:00 pm, Sunday: 12:00 pm - 06:00 pm",,,0
North East Mall,,1101 Melbourne Road Space 53 ,,Hurst ,TX,76053,United States,682-757-9447,,,"Sunday: 12:00 pm - 06:00 pm, Monday: 10:00 am - 09:00 pm, Tuesday: 10:00 am - 09:00 pm, Wednesday: 10:00 am - 09:00 pm, Thursday: 10:00 am - 09:00 pm, Friday: 10:00 am - 09:00 pm, Saturday: 10:00 am - 09:00 pm",,,0
Build-A-Bear Workshop® At Rainforest Cafe®,,3000 Grapevine Mills Pkwy ,,Grapevine ,TX,76051,United States,972 539-5001,,,,,,0
Build-A-Bear Workshop® At Rainforest Cafe®,,5310 Seawall Blvd. Ste. A ,,Galveston ,TX,77551,United States,409 744-6000,,,,,,0
Memorial City Mall,,303 Memorial City Way Suite 348 ,,Houston ,TX,77024,United States,713-468-6987,,,"Monday: 10:00 am - 09:00 pm, Tuesday: 10:00 am - 09:00 pm, Wednesday: 10:00 am - 09:00 pm, Thursday: 10:00 am - 09:00 pm, Friday: 10:00 am - 09:00 pm, Saturday: 10:00 am - 09:00 pm, Sunday: 12:00 pm - 07:00 pm",,,0
Firewheel Town Center,,610 Beebalm Lane ,,Garland ,TX,75040,United States,972 495-6222,,,"Monday: 10:00 am - 09:00 pm, Tuesday: 10:00 am - 09:00 pm, Wednesday: 10:00 am - 09:00 pm, Thursday: 10:00 am - 09:00 pm, Friday: 10:00 am - 09:00 pm, Saturday: 10:00 am - 09:00 pm, Sunday: 12:00 pm - 06:00 pm",,,0
Deerbrook Mall,,20131 Highway 59 North ,,Humble ,TX,77338,United States,281 540-9829,,,"Monday: 10:00 am - 09:00 pm, Tuesday: 10:00 am - 09:00 pm, Wednesday: 10:00 am - 09:00 pm, Thursday: 10:00 am - 09:00 pm, Friday: 10:00 am - 09:00 pm, Saturday: 10:00 am - 09:00 pm, Sunday: 12:00 pm - 06:00 pm",,,0
Build-A-Bear Workshop within Gaylord Texan Resort,,1501 Gaylord Trail ,,Grapevine ,TX,76051,United States,,,,"Sunday: 10:00 am - 10:00 pm, Monday: 10:00 am - 08:00 pm, Tuesday: 10:00 am - 08:00 pm, Wednesday: 10:00 am - 08:00 pm, Thursday: 10:00 am - 08:00 pm, Friday: 10:00 am - 10:00 pm, Saturday: 10:00 am - 10:00 pm",,,0
Willowbrook Mall,,2000 Willowbrook Mall Suite 1238 ,,Houston ,TX,77070,United States,281 890-8882,,,"Monday: 10:00 am - 09:00 pm, Tuesday: 10:00 am - 09:00 pm, Wednesday: 10:00 am - 09:00 pm, Thursday: 10:00 am - 09:00 pm, Friday: 10:00 am - 09:00 pm, Saturday: 10:00 am - 09:00 pm, Sunday: 12:00 pm - 06:00 pm",,,0
Grapevine Mills,,3000 Grapevine Mills Pkwy Space 514 ,,Grapevine ,TX,76051,United States,972-874-5444,,,"Monday: 10:00 am - 09:00 pm, Tuesday: 10:00 am - 09:00 pm, Wednesday: 10:00 am - 09:00 pm, Thursday: 10:00 am - 09:00 pm, Friday: 10:00 am - 09:00 pm, Saturday: 10:00 am - 09:00 pm, Sunday: 11:00 am - 07:00 pm",,,0
Stonebriar Centre,,2601 Preston Road Suite 1246 ,,Frisco ,TX,75034,United States,972-377-0281,,,"Monday: 10:00 am - 09:00 pm, Tuesday: 10:00 am - 09:00 pm, Wednesday: 10:00 am - 09:00 pm, Thursday: 10:00 am - 09:00 pm, Friday: 10:00 am - 09:00 pm, Saturday: 10:00 am - 09:00 pm, Sunday: 12:00 pm - 06:00 pm",,,0
Baybrook Mall,,1320 Baybrook Mall ,,Friendswood ,TX,77546,United States,281-461-0819,,,"Monday: 10:00 am - 09:00 pm, Tuesday: 10:00 am - 09:00 pm, Wednesday: 10:00 am - 09:00 pm, Thursday: 10:00 am - 09:00 pm, Friday: 10:00 am - 09:00 pm, Saturday: 10:00 am - 09:00 pm, Sunday: 12:00 pm - 06:00 pm",,,0
Hulen Mall,,4800 S. Hulen St Space # 2335 ,,Fort Worth ,TX,76132,United States,817-840-4966,,,"Monday: 10:00 am - 09:00 pm, Tuesday: 10:00 am - 09:00 pm, Wednesday: 10:00 am - 09:00 pm, Thursday: 10:00 am - 09:00 pm, Friday: 10:00 am - 09:00 pm, Saturday: 10:00 am - 09:00 pm, Sunday: 12:00 pm - 06:00 pm",,,0
Cook Children's Medical Center,,801 Seventh Ave. ,,Fort Worth ,TX,76104,United States,,,,"Sunday: 12:00 pm - 04:00 pm, Monday: 10:00 am - 06:00 pm, Tuesday: 10:00 am - 06:00 pm, Wednesday: 10:00 am - 06:00 pm, Thursday: 10:00 am - 06:00 pm, Friday: 10:00 am - 06:00 pm, Saturday: 10:00 am - 05:00 pm",,,0
"Ridgmar - Closing January 25, 2017",,1958 Green Oaks Road ,,Fort Worth ,TX,76116-1708,United States,817-569-8830,,,"Monday: 10:00 am - 09:00 pm, Tuesday: 10:00 am - 09:00 pm, Wednesday: 10:00 am - 09:00 pm, Thursday: 10:00 am - 09:00 pm, Friday: 10:00 am - 09:00 pm, Saturday: 10:00 am - 09:00 pm, Sunday: 12:00 pm - 06:00 pm",,,0
Cielo Vista Mall,,8401 Gateway Blvd. West ,,El Paso ,TX,79925,United States,915 772-2026,,,"Monday: 10:00 am - 09:00 pm, Tuesday: 10:00 am - 09:00 pm, Wednesday: 10:00 am - 09:00 pm, Thursday: 10:00 am - 09:00 pm, Friday: 10:00 am - 09:00 pm, Saturday: 10:00 am - 09:00 pm, Sunday: 12:00 pm - 06:00 pm",,,0
Galleria Dallas,,13350 Dallas Pkwy. ,,Space 2465a Dallas ,TX,75240,United States,(469) 587-1068,,,"Sunday: 12:00 pm - 06:00 pm, Monday: 10:00 am - 09:00 pm, Tuesday: 10:00 am - 09:00 pm, Wednesday: 10:00 am - 09:00 pm, Thursday: 10:00 am - 09:00 pm, Friday: 10:00 am - 09:00 pm, Saturday: 10:00 am - 09:00 pm",,,0
La Palmera,,5488 S. Padre Island Dr. ,,Corpus Christi ,TX,78411,United States,361-906-0734,,,"Sunday: 12:00 pm - 06:00 pm, Monday: 10:00 am - 09:00 pm, Tuesday: 10:00 am - 09:00 pm, Wednesday: 10:00 am - 09:00 pm, Thursday: 10:00 am - 09:00 pm, Friday: 10:00 am - 09:00 pm, Saturday: 10:00 am - 09:00 pm",,,0
Lakeline Mall,,11200 Lakeline Mall Drive ,,Cedar Park ,TX,78613,United States,512-401-0850,,,"Monday: 10:00 am - 09:00 pm, Tuesday: 10:00 am - 09:00 pm, Wednesday: 10:00 am - 09:00 pm, Thursday: 10:00 am - 09:00 pm, Friday: 10:00 am - 09:00 pm, Saturday: 10:00 am - 09:00 pm, Sunday: 12:00 pm - 06:00 pm",,,0
Sunrise Mall,,2370 N. Expressway Suite 1062 ,,Brownsville ,TX,78526,United States,956-546-2683,,,"Monday: 10:00 am - 09:00 pm, Tuesday: 10:00 am - 09:00 pm, Wednesday: 10:00 am - 09:00 pm, Thursday: 10:00 am - 09:00 pm, Friday: 10:00 am - 09:00 pm, Saturday: 10:00 am - 09:00 pm, Sunday: 12:00 pm - 07:00 pm",,,0
Parkdale Mall,,6155 Eastex Freeway ,,Beaumont ,TX,77076-6797,United States,(409) 899-9097,,,"Monday: 10:00 am - 09:00 pm, Tuesday: 10:00 am - 09:00 pm, Wednesday: 10:00 am - 09:00 pm, Thursday: 10:00 am - 09:00 pm, Friday: 10:00 am - 09:00 pm, Saturday: 10:00 am - 09:00 pm, Sunday: 12:00 pm - 06:00 pm",,,0
Barton Creek Square,,2901S. Capital of Texas Highway ,,Austin ,TX,78746,United States,512-347-0620,,,"Monday: 10:00 am - 09:00 pm, Tuesday: 10:00 am - 09:00 pm, Wednesday: 10:00 am - 09:00 pm, Thursday: 10:00 am - 09:00 pm, Friday: 10:00 am - 09:00 pm, Saturday: 10:00 am - 09:00 pm, Sunday: 12:00 pm - 06:00 pm",,,0
"The Gateway - Closing on July 12th, 2015",,25 South Rio Grande Street ,,Salt Lake City ,UT,84101,United States,801-456-0275,,,"Monday: 10:00 am - 09:00 pm, Tuesday: 10:00 am - 09:00 pm, Wednesday: 10:00 am - 09:00 pm, Thursday: 10:00 am - 09:00 pm, Friday: 10:00 am - 09:00 pm, Saturday: 10:00 am - 09:00 pm, Sunday: 12:00 pm - 06:00 pm",,,0
The Parks at Arlington,,3811 South Cooper St. Space 2208 ,,Arlington ,TX,76015,United States,817-465-0800,,,"Monday: 10:00 am - 09:00 pm, Tuesday: 10:00 am - 09:00 pm, Wednesday: 10:00 am - 09:00 pm, Thursday: 10:00 am - 09:00 pm, Friday: 10:00 am - 09:00 pm, Saturday: 10:00 am - 09:00 pm, Sunday: 12:00 pm - 06:00 pm",,,0
Fashion Place,,6191 S. State St. ,,Salt Lake City ,UT,84107,United States,801-293-1222,,,"Monday: 10:00 am - 09:00 pm, Tuesday: 10:00 am - 09:00 pm, Wednesday: 10:00 am - 09:00 pm, Thursday: 10:00 am - 09:00 pm, Friday: 10:00 am - 09:00 pm, Saturday: 10:00 am - 09:00 pm, Sunday: 12:00 pm - 06:00 pm",,,0
University Mall,,575 University Pkwy ,,Orem ,UT,84097,United States,801 426-0966,,,,,,0
Station Park,,220 N ,,West Promontory Farmington ,UT,84025,United States,(801) 218-9967,,,"Sunday: 12:00 pm - 06:00 pm, Monday: 10:00 am - 09:00 pm, Tuesday: 10:00 am - 09:00 pm, Wednesday: 10:00 am - 09:00 pm, Thursday: 10:00 am - 09:00 pm, Friday: 10:00 am - 09:00 pm, Saturday: 10:00 am - 09:00 pm",,,0
The Mall at Johnson City,,2011 North Roan Street Space # 21 ,,Johnson City ,TN,37601,United States,423-282-1232,,,"Sunday: 11:00 am - 07:00 pm, Monday: 10:00 am - 09:00 pm, Tuesday: 10:00 am - 09:00 pm, Wednesday: 10:00 am - 09:00 pm, Thursday: 10:00 am - 09:00 pm, Friday: 10:00 am - 09:00 pm, Saturday: 10:00 am - 09:00 pm",,,0
CoolSprings Galleria,,1800 Galleria Blvd. ,,Franklin ,TN,37067,United States,615 771-9783,,,"Monday: 10:00 am - 09:00 pm, Tuesday: 10:00 am - 09:00 pm, Wednesday: 10:00 am - 09:00 pm, Thursday: 10:00 am - 09:00 pm, Friday: 10:00 am - 09:00 pm, Saturday: 10:00 am - 09:00 pm, Sunday: 12:00 pm - 06:00 pm",,,0
Hamilton Place,,2100 Hamilton Place Blvd. ,,Chattanooga ,TN,37421,United States,423-499-8999,,,"Monday: 10:00 am - 09:00 pm, Tuesday: 10:00 am - 09:00 pm, Wednesday: 10:00 am - 09:00 pm, Thursday: 10:00 am - 09:00 pm, Friday: 10:00 am - 09:00 pm, Saturday: 10:00 am - 09:00 pm, Sunday: 12:00 pm - 06:00 pm",,,0
