store_name,store_number,address,address2,city,state,zip_code,country,phone_number,latitude,longitude,store_hours,store_type,other_fields,coming_soon
Chatters Hair Salon Lansdowne Place,,"#244, 645 Lansdowne St. W.",,Peterborough,ON,K9J 7Y5,Canada,705-745-7419,,,Mon - Fri: 9:30am - 9:00pm Sat: 9:30am - 6:00pm Sun: 11:00am - 5:00pm Labour Day: Closed Thanksgiving Day: Closed Rememberance Day: 11:00am - 5:00pm Christmas Eve: 8:00am - 5:00pm Christmas Day: Closed Boxing Day: 8:00am - 6:00pm New Year's Eve: 9:30am - 5:00pm New Year's Day: 11:00am - 6:00pm Family Day: 9:30am - 9:00pm Good Friday: Closed Easter Sunday: Closed Victoria Day: Closed Canada Day: Closed Heritage Day: 11:00am - 6:00p,,,
Chatters Hair Salon Kenaston,,"Unit 1, 1589 Kenaston Blvd.",,Winnipeg,MB,R3P 2N3,Canada,204-487-7807,,,Mon - Fri: 9:00am - 9:00pm Sat: 9:00am - 6:00pm Sun: 11:00am - 6:00pm Labour Day: Closed Thanksgiving Day: 11:00am - 6:00pm Rememberance Day: 1:00pm - 9:00pm Christmas Eve: 9:00am - 5:00pm Christmas Day: Closed Boxing Day: 8:00am - 6:00pm New Year's Eve: 9:00am - 5:00pm New Year's Day: Closed Family Day: 9:00am - 9:00pm Good Friday: Closed Easter Sunday: Closed Easter Monday: Closed Victoria Day: 11:00am - 6:00pm Canada Day: Closed Heritage Day: 9:00am - 9:00p,,,
Chatters Hair Salon Kingsway Garden Mall,,"624, 109th St.& Princess Elizabeth Ave.",,Edmonton,AB,T5G 3A6,Canada,780-477-3088,,,Mon - Fri: 10:00am - 9:00pm Sat: 9:30am - 6:00pm Sun: 11:00am - 5:00p,,,
Chatters Hair Salon Grandview Corners,,"Unit 80, 16041 - 24th Ave.",,Surrey,BC,V3S 9H7,Canada,778-294-4410,,,Mon - Tues: 9:00am - 6:00pm Wed - Fri: 9:00am - 9:00pm Sat: 9:00am - 6:00pm Sun: 11:00am - 6:00pm Labour Day: 11:00am - 5:00pm Thanksgiving Day: 11:00am - 5:00pm Rememberance Day: 11:00am - 5:00pm Christmas Eve: 9:00am - 5:00pm Christmas Day: Closed Boxing Day: 9:00am - 5:00pm New Year's Eve: 9:00am - 5:00pm New Year's Day: Closed BC Day: 11:00am - 5:00pm Good Friday: 11:00am - 5:00pm Easter Sunday: Closed Easter Monday: 11:00am - 5:00pm Victoria Day: 11:00am - 5:00pm Canada Day: 11:00am - 5:00pm Heritage Day: 11:00am - 5:00p,,,
Chatters Hair Salon Kelsey Drive,,1 Kiwanis Street Unit 1A,,St.John's,NL,A1B 0A2,Canada,709-576-0660,,,Mon - Fri: 9:30am - 9:00pm Sat: 9:30am - 6:00pm Sun: 11:00am - 5:00pm Labour Day: Closed Thanksgiving Day: Closed Rememberance Day: Closed Christmas Eve: 9:30am - 2:00pm Christmas Day: Closed Boxing Day: Closed New Year's Eve: 9:30am - 2:00pm New Year's Day: Closed Family Day: 9:30am - 9:00pm Good Friday: Closed Easter Sunday: Closed Easter Monday: 9:30am - 9:00pm Victoria Day: Canada Canada Day: Canada Heritage Day: 9:30am - 9:00p,,,
Chatters Hair Salon Grande Prairie Westgate,,"#114, 11517 Westgate Drive",,Grande Prairie,AB,T8V 3B1,Canada,780-532-9224,,,Mon - Fri: 9:30am - 9:00pm Sat: 9:30am - 6:00pm Sun: 12:00pm - 5:00pm Labour Day: 11:00am - 6:00pm Thanksgiving Day: 11:00am - 6:00pm Rememberance Day: 11:00am - 6:00pm Christmas Eve: 10:00am - 4:00pm Christmas Day: Closed Boxing Day: 9:30am - 6:00pm New Year's Eve: 10:00am - 4:00pm New Year's Day: Closed Family Day: 11:00am - 6:00pm Good Friday: 11:00am - 6:00pm Easter Sunday: Closed Easter Monday: 11:00am - 6:00pm Victoria Day: 11:00am - 6:00pm Canada Day: 11:00am - 6:00pm Heritage Day: 11:00am - 6:00p,,,
Chatters Hair Salon Empress Street,,"Unit 1, 675 Empress Street",,Winnipeg,MB,R3G 3P7,Canada,204-772-4247,,,Mon - Fri: 10:00am - 9:00pm Sat: 9:00am - 6:00pm Sun: 11:00am - 5:00pm Labour Day: Closed Thanksgiving Day: 11:00am - 5:00pm Rememberance Day: 1:00pm - 9:00pm Christmas Eve: 11:00am - 5:00pm Christmas Day: Closed Boxing Day: 9:00am - 9:00pm New Year's Eve: 11:00am - 5:00pm New Year's Day: Closed Family Day: 11:00am - 5:00pm Good Friday: Closed Easter Sunday: Closed Easter Monday: 11:00am - 5:00pm Victoria Day: Closed Canada Day: Closed Heritage Day: 11:00am - 5:00p,,,
Chatters Hair Salon Hillside Shopping Ctr.,,"#38, 1644 Hillside Avenue",,Victoria,BC,V8T 2C5,Canada,250-592-1444,,,Mon - Tue: 9:30am - 5:30pm Wed - Fri: 9:30am - 9:00pm Sat: 9:30am - 5:30pm Sun: 11:00am - 5:30pm Labour Day: 11:00am - 5:00pm Thanksgiving Day: 11:00am - 5:00pm Rememberance Day: 11:00am - 9:00pm Christmas Eve: 9:30am - 5:00pm Christmas Day: Closed Boxing Day: 9:00am - 5:30pm New Year's Eve: 9:30am - 5:00pm New Year's Day: 11:00am - 5:00pm BC Day: 11:00am - 5:00pm Good Friday: 11:00am - 5:00pm Easter Sunday: 11:00am - 5:00pm Easter Monday: 11:00am - 5:30pm Victoria Day: 11:00am - 5:00pm Canada Day: 11:00am - 5:00pm Heritage Day: 11:00am - 5:00p,,,
Chatters Hair Salon Emerald Hills,,"#373, 5000 Emerald Drive",,Sherwood Park,AB,T8H 0P5,Canada,780-417-0054,,,Mon - Fri: 9:00am - 9:00pm Sat: 9:00am - 6:00pm Sun: 11:00am - 5:00pm Labour Day: 11-5 Thanksgiving Day: 11-5 Rememberance Day: 11-5 Christmas Eve: 9:00am - 3:00pm Christmas Day: Closed Boxing Day: 11-5 New Year's Eve: 9:00am - 3:00pm New Year's Day: 9:00am - 3:00pm Family Day: 11-5 Good Friday: 11-5 Easter Sunday: 11:00am - 5:00pm Easter Monday: 9:00am - 9:00pm Victoria Day: 11-5 Canada Day: 11-5 Heritage Day: 11-,,,
Chatters Hair Salon Deerfoot Meadows,,"# 852, 8180 - 11th Street SE",,Calgary,AB,T2H 3B5,Canada,403-253-5511,,,Mon - Thur: 9:00am - 9:00pm Fri: 9:00am - 8:00pm Sat: 9:00am - 6:00pm Sun: 11:00am - 5:00pm Labour Day: 11:00am - 5:00pm Thanksgiving Day: 11:00am - 5:00pm Rememberance Day: 11:00am - 5:00pm Christmas Eve: 9:00am - 4:00pm Christmas Day: Closed Boxing Day: 9:00am - 6:00pm New Year's Eve: 9:00am - 4:00pm New Year's Day: Closed Family Day: 11:00am - 5:00pm Good Friday: 11:00am - 5:00pm Easter Sunday: Closed Easter Monday: 11:00am - 5:00pm Victoria Day: 11:00am - 5:00pm Canada Day: 11:00am - 5:00pm Heritage Day: 11:00am - 5:00p,,,
Chatters Hair Salon Dartmouth Crossing,,86 Hector Gate,,Dartmouth,NS,B3B 0B9,Canada,902-407-1011,,,Mon - Fri: 9:00am - 9:00pm Sat: 9:00am - 9:00pm Sun: 12:00pm - 5:00pm Labour Day: Closed Thanksgiving Day: Closed Rememberance Day: Closed Christmas Eve: 9:00am - 4:00pm Christmas Day: Closed Boxing Day: Closed New Year's Eve: 9:00am - 6:00pm New Year's Day: Closed Family Day: 9:00am - 9:00pm Good Friday: Closed Easter Sunday: Closed Easter Monday: 9:00am - 9:00pm Victoria Day: 9:00am - 5:00pm Canada Day: Closed Heritage Day: 9:00am - 9:00p,,,
Chatters Hair Salon Crowfoot Crossing,,84 Crowfoot Terrace NW,,Calgary,AB,T3G 2P6,Canada,403-265-8101,,,Mon - Fri: 9:00am - 9:00pm Sat: 9:00am - 6:00pm Sun: 11:00am - 5:00pm Labour Day: 11:00am - 6:00pm Thanksgiving Day: 11:00am - 6:00pm Rememberance Day: 11:00am - 6:00pm Christmas Eve: 9:00am - 4:00pm Christmas Day: Closed Boxing Day: 11:00am - 6:00pm New Year's Eve: 9:00am - 4:00pm New Year's Day: Closed Family Day: 11:00am - 6:00pm Good Friday: 11:00am - 6:00pm Easter Sunday: Closed Easter Monday: 11:00am - 6:00pm Victoria Day: 11:00am - 6:00pm Canada Day: 11:00am - 6:00pm Heritage Day: 11:00am - 6:00p,,,
Chatters Salon Square One,,"Unit 1-819,  100 City Centre Drive, ",, Mississauga, Ontario,L5B 2C9,Canada,905-566-9609,,,Mon - Fri: 10:00am - 9:00pm Sat: 9:30am - 9:00pm Sun: 11:00am - 7:00pm Labour Day: 11:00am - 6:00pm Thanksgiving Day: 11:00am - 6:00pm Rememberance Day: Christmas Eve: 8:00 am - 6:00 pm Christmas Day: Closed New Years' Eve: 9:00 am - 6:00 pm New Years' Day: 11:00 am - 6:00 pm Family Day: 11:00am - 6:00pm Good Friday: Closed Easter Sunday: Closed Easter Monday: 11:00am - 9:00pm Victoria Day: 11:00am - 6:00pm Canada Day: 11:00am - 6:00pm Civic Holiday: 11:00am - 9:00p,,,
Chatters Hair Salon Heartland Town Centre,,#6 6055 Mavis Road,,Mississauga,ONT.,L5R 4G6,Canada,905-568-0303,,,Mon - Fri: 9:00am - 9:00pm Sat: 9:00am - 6:00pm Sun: 11:00am - 5:00pm Labour Day: Closed Thanksgiving Day: Closed Rememberance Day: 9:00am - 9:00pm Christmas Eve: 9:00am - 5:00pm Christmas Day: Closed Boxing Day: 9:00am - 5:00pm New Year's Eve: 9:00am - 5:00pm New Year's Day: Closed Family Day: Closed Good Friday: Closed Easter Sunday: Closed Easter Monday: 9:00am - 9:00pm Victoria Day: Closed Canada Day: Closed Heritage Day: 9:00am - 9:00p,,,
Chatters Hair Salon Woodgrove Centre,,"Unit 77, 6631 Island Highway North",,Nanaimo,BC,V9T 4T7,Canada,250-390-1188,,,Mon - Tue: 10:00am - 6:00pm Wed- Fri: 10:00am - 9:00pm Sat: 10:00am - 7:00pm Sun: 11:00am - 6:00pm Labour Day: 11:00am - 6:00pm Thanksgiving Day: 11:00am - 6:00pm Rememberance Day: 11:00am - 6:00pm Christmas Eve: 9:30am - 5:00pm Christmas Day: Closed Boxing Day: 8:00am - 6:00pm New Year's Eve: 10:00am - 5:00pm New Year's Day: 12:00pm - 5:00pm BC Day: 11:00am - 6:00pm Good Friday: 11:00am - 6:00pm Easter Sunday: 11:00am - 6:00pm Easter Monday: 11:00am - 6:00pm Victoria Day: 11:00am - 6:00pm Canada Day: 11:00am - 6:00pm Heritage Day: 11:00am - 6:00p,,,
Chatters Hair Salon Winnipeg Outlet,,Unit 203,,Winnipeg,Manitoba,R3P 2T3,Canada,204-560-0227,,,Mon - Sat: 9:30am - 9:00pm Sun: 9:00am - 6:00pm Labour Day: Closed Thanksgiving Day: Closed Rememberance Day: Closed Christmas Eve: Closed Christmas Day: Closed Boxing Day: Closed New Year's Eve: Closed New Year's Day: Closed Family Day: Closed Good Friday: Closed Easter Sunday: Closed Easter Monday: Closed Victoria Day: Closed Canada Day: Closed Heritage Day: Close,,,
Chatters Salon Kingston,,"Unit No. L29A, Cataraqui Centre,",,Kingston,ON,K7M 7H4,Canada,613-389-1088,,,Mon - Fri: 9:30am - 9:00pm Sat: 9:30am - 6:00pm Sun: 11:00am - 5:00pm Labour Day: 11:00am - 5:00pm Thanksgiving Day: 11:00am - 5:00pm Remembrance Day: Christmas Eve: 9:30am - 5:00pm Christmas Day: Closed Boxing Day: 8:00am - 6:00pm New Year's Eve: 11:00am - 5:00pm New Year's Day: Closed Family Day: 11:00am - 5:00pm Good Friday: Closed Easter Sonday: Closed Victoria Day: 11:00am - 5:00pm Canada Day: 11:00am - 5:00pm Civic Holiday: 11:00am - 5:00p,,,
Chatters Hair Salon Windermere,,"Unit 5, 5154 Windermere Blvd.",,Edmonton,AB,T6W 0L9,Canada,780-439-7078,,,Mon - Fri: 9:00am - 9:00pm Sat: 9:00am - 6:00pm Sun: 11:00am - 5:00pm Labour Day: 11:00am - 5:00pm Thanksgiving Day: 11:00am - 5:00pm Rememberance Day: 11:00am - 5:00pm Christmas Eve: 9:00am - 2:00pm Christmas Day: Closed Boxing Day: 11:00am - 5:00pm New Year's Eve: 11:00am - 5:00pm New Year's Day: Closed Family Day: 11:00am - 5:00pm Good Friday: 11:00am - 5:00pm Easter Sunday: Closed Easter Monday: 11:00am - 5:00pm Victoria Day: 11:00am - 5:00pm Canada Day: 11:00am - 5:00pm Heritage Day: 11:00am - 5:00p,,,
Chatters Hair Salon Willowbrook Centre,,2100A Willowbrook Drive,,Cranbrook,BC,V1C 7H2,Canada,250-417-2761,,,Mon - Fri: 9:30am - 9:00pm Sat: 9:30am - 6:00pm Sun: 10:00am - 5:00pm Labour Day: 11:00am - 5:00pm Thanksgiving Day: 11:00am - 5:00pm Rememberance Day: 12:00pm - 5:00pm Christmas Eve: 9:30am - 5:00pm Christmas Day: Closed Boxing Day: 11:00am - 4:00pm New Year's Eve: 9:30am - 5:00pm New Year's Day: Closed Family Day: 11:00am - 5:00pm Good Friday: 9:30am - 9:00pm Easter Sunday: Closed Easter Monday: 9:30am - 9:00pm Victoria Day: 11:00am - 5:00pm Canada Day: 11:00am - 5:00pm Heritage Day: 11:00am - 5:00p,,,
Chatters Hair Salon Whitemud Meadows,,1942 - 38th Ave. NW,,Edmonton,AB,T6T 0B9,Canada,780-469-2301,,,Mon - Fri: 9:00am - 9:00pm Sat: 9:00am - 6:00pm Sun: 11:00am - 5:00pm Labour Day: 11:00am - 5:00pm Thanksgiving Day: 11:00am - 5:00pm Rememberance Day: 11:00am - 5:00pm Christmas Eve: 9:00am - 6:00pm Christmas Day: Closed Boxing Day: 9:00am - 6:00pm New Year's Eve: 9:00am - 6:00pm New Year's Day: Closed Family Day: 11:00am - 5:00pm Good Friday: 11:00am - 5:00pm Easter Sunday: Closed Easter Monday: 11:00am - 5:00pm Victoria Day: 11:00am - 5:00pm Canada Day: 11:00am - 5:00pm Heritage Day: 11:00am - 5:00p,,,
Chatters Hair Salon Westshore Town Centre,,"Unit 406, 2945 Jacklin Road",,Victoria,BC,V9B 5E3,Canada,250-478-5749,,,Mon - Fri: 9:00am - 9:00pm Sat: 9:00am - 5:30pm Sun: 10:00am - 5:00pm Labour Day: 11:00am - 5:00pm Thanksgiving Day: 11:00am - 5:00pm Rememberance Day: 11:00am - 5:00pm Christmas Eve: 9:00am - 4:00pm Christmas Day: Closed Boxing Day: 11:00am - 5:00pm New Year's Eve: 9:00am - 4:00pm New Year's Day: Closed BC Day: 11:00am - 5:00pm Good Friday: 11:00am - 5:00pm Easter Sunday: 11:00am - 5:00pm Easter Monday: 11:00am - 5:00pm Victoria Day: 11:00am - 5:00pm Canada Day: 11:00am - 5:00pm Heritage Day: 11:00am - 5:00p,,,
Chatters Hair Salon Westgate,,"Unit 113, 6007 Southridge Ave.",,Prince George,BC,V2N 6Z4,Canada,250-964-0311,,,Mon - Fri: 9:30am - 9:00pm Sat: 9:30am - 6:00pm Sun: 11:00am - 5:00pm Labour Day: 11:00am - 5:00pm Thanksgiving Day: 11:00am - 5:00pm Rememberance Day: 11:00am - 5:00pm Christmas Eve: 9:30am - 5:00pm Christmas Day: Closed Boxing Day: 9:30am - 6:00pm New Year's Eve: 9:30am - 5:00pm New Year's Day: Closed BC Day: 11:00am - 5:00pm Good Friday: 11:00am - 5:00pm Easter Sunday: Closed Easter Monday: 9:30am - 5:00pm Victoria Day: 11:00am - 5:00pm Canada Day: 11:00am - 5:00pm Heritage Day: 11:00am - 5:00p,,,
Chatters Hair Salon Willoughby Centre,,"Unit 310, 20202 - 66th Ave.",,Langley,BC,V2Y 1M9,Canada,604-514-6968,,,Mon - Fri: 9:00am - 9:00pm Sat: 9:00am - 6:00pm Sun: 11:00am - 5:00pm Labour Day: 11:00am - 6:00pm Thanksgiving Day: 11:00am - 6:00pm Rememberance Day: 11:00am - 6:00pm Christmas Eve: 9:00am - 5:00pm Christmas Day: Closed Boxing Day: 11:00am - 6:00pm New Year's Eve: 9:00am - 5:00pm New Year's Day: 11:00am - 6:00pm BC Day: 11:00am - 6:00pm Good Friday: 11:00am - 6:00pm Easter Sunday: 11:00am - 5:00pm Easter Monday: 11:00am - 6:00pm Victoria Day: 11:00am - 6:00pm Canada Day: 11:00am - 6:00pm Heritage Day: 11:00am - 6:00p,,,
Chatters Hair Salon West Edmonton Mall,,"Unit 2099, 8882 - 170th Street",,Edmonton,AB,T5T 3J7,Canada,780-484-0389,,,Mon - Fri: 9:00am - 9:00pm Sat: 9:00am - 9:00pm Sun: 11:00am - 6:00pm Labour Day: 10:00am - 6:00pm Thanksgiving Day: 10:00am - 6:00pm Rememberance Day: 12:00am - 6:00pm Christmas Eve: 9:30am - 5:00pm Christmas Day: Closed Boxing Day: 7:00am - 9:00pm New Year's Eve: 10:00am - 6:00pm New Year's Day: 11:00am - 6:00pm Family Day: 10:00am - 6:00pm Good Friday: 10:00am - 6:00pm Easter Sunday: 11:00am - 6:00pm Easter Monday: 10:00am - 9:00pm Victoria Day: 10:00am - 6:00pm Canada Day: 10:00am - 6:00pm Heritage Day: 10:00am - 6:00p,,,
Chatters Hair Salon Village Green Mall,,"#530, 4900 - 27 Street",,Vernon,BC,V1T 7G7,Canada,250-260-7778,,,Mon - Wed: 9:30am - 5:30pm Thur - Fri: 9:30am - 9:00pm Sat: 9:30am - 5:30pm Sun: 11:00am - 5:00pm Labour Day: 11:00am - 5:00pm Thanksgiving Day: 11:00am - 5:00pm Rememberance Day: 11:15am - 5:00pm Christmas Day: Closed Boxing Day: 9:00am - 6:00pm BC Day: 11:00am - 5:00pm Good Friday: 11:00am - 5:00pm Easter Sunday: Closed Easter Monday: 9:30am - 5:00pm Victoria Day: 11:00am - 5:00pm Canada Day: 11:00am - 5:00pm Heritage Day: 11:00am - 5:00p,,,
Chatters Hair Salon Tsawwassen Mills,,"#220, 5000 Canoe Pass Way.",,Delta,BC,V4M 0B3,Canada,604-948-0476,,,Mon - Sat: 10:00am - 9:00pm Sun: 10:00am - 7:00pm Labour Day: 10:00am - 7:00pm Thanksgiving Day: 10:00am - 7:00pm Rememberance Day: 10:00am - 7:00pm Christmas Eve: 10:00am - 7:00pm Christmas Day: Closed Boxing Day: 10:00am - 7:00pm New Year's Eve: 10:00am - 7:00pm New Year's Day: 10:00am - 7:00pm Family Day: 10:00am - 7:00pm Good Friday: 10:00am - 7:00pm Easter Sunday: 10:00am - 7:00pm Easter Monday: 10:00am - 7:00pm Victoria Day: 10:00am - 7:00pm Canada Day: 10:00am - 7:00pm Heritage Day: 10:00am - 7:00p,,,
Chatters Hair Salon Town & Country Mall,,1235 Main Street N.,,Moose Jaw,SK,S6H 6M4,Canada,306-692-4247,,,Mon - Tue: 9:00am - 6:00pmt Wed - Fri: 9:00am - 9:00pm Sat: 9:00am - 6:00pm Sun: 12:00pm - 5:00pm Labour Day: Closed Thanksgiving Day: Closed Rememberance Day: Closed Christmas Eve: 9:00am - 4:00pm Christmas Day: Closed Boxing Day: 12:00pm - 5:00pm New Year's Eve: 9:00am - 4:00pm New Year's Day: Closed Family Day: 9:00am - 6:00pm Good Friday: Closed Easter Sunday: Closed Easter Monday: 9:00am - 6:00pm Victoria Day: Closed Canada Day: Closed Heritage Day: Close,,,
Chatters Hair Salon Westbank Hub Centre North,,"Unit 110, 2130 Louie Drive",,Westbank,BC,V4T 3E5,Canada,250-768-1458,,,Mon - Wed: 9:00am - 7:00pm Thur - Fri: 9:00am - 9:00pm Sat: 9:00am - 6:00pm Sun: 10:00am - 6:00pm Labour Day: 9:00am - 5:00pm Thanksgiving Day: 9:00am - 5:00pm Rememberance Day: 9:00am - 5:00pm Christmas Eve: 9:00am - 5:00pm Christmas Day: Closed Boxing Day: 9:00am - 5:00pm New Year's Eve: 9:00am - 5:00pm New Year's Day: Closed BC Day: 9:00am - 7:00pm Good Friday: 9:00am - 5:00pm Easter Sunday: Closed Easter Monday: 9:00am - 7:00pm Victoria Day: 9:00am - 5:00pm Canada Day: 9:00am - 5:00pm Heritage Day: 9:00am - 5:00p,,,
Chatters Hair Salon Tillicum Centre,,"#117, 3170 Tillicum Road",,Victoria,BC,V9A 7C5,Canada,250-381-1710,,,Mon - Tues: 9:00am - 5:30pm Wed - Fri: 9:00am - 9:00pm Sat: 9:00am - 5:30pm Sun: 11:00am - 5:00pm Labour Day: 11:00am - 5:00pm Thanksgiving Day: 11:00am - 5:00pm Rememberance Day: 11:00am - 5:00pm Christmas Eve: 9:30am - 5:30pm Christmas Day: Closed Boxing Day: 9:00am - 5:30pm New Year's Eve: 9:30am - 5:30pm New Year's Day: Closed BC Day: 11:00am - 5:00pm Good Friday: 11:00am - 5:00pm Easter Sunday: Closed Easter Monday: 9:00am - 9:00pm Victoria Day: 11:00am - 5:00pm Canada Day: 11:00am - 5:00pm Heritage Day: 11:00am - 5:00p,,,
Chatters Hair Salon Thunder Centre,,"Unit C7, 369 Main Street",,Thunder Bay,ON,P7B 5L6,Canada,807-626-9063,,,Mon - Fri: 9:00am - 9:00pm Sat: 9:00am - 6:00pm Sun: 11:00am - 5:00pm Labour Day: Closed Thanksgiving Day: Closed Rememberance Day: 9:00am - 6:00pm Christmas Eve: 9:00am - 4:00pm Christmas Day: Closed Boxing Day: 9:00am - 6:00pm New Year's Eve: 9:00am - 4:00pm New Year's Day: Closed Family Day: 9:00am - 9:00pm Good Friday: 9:00am - 6:00pm Easter Sunday: Closed Easter Monday: 9:00am - 9:00pm Victoria Day: Closed Canada Day: Closed Heritage Day: Close,,,
Chatters Hair Salon The Quarry,,"#11, 25 Quarry Street West",,Cochrane,AB,T4C 0W5,Canada,403-851-1820,,,Mon - Fri: 9:00am - 9:00pm Sat: 9:00am - 6:00pm Sun: 11:00am - 5:00pm Labour Day: 11:00am - 5:00pm Thanksgiving Day: 11:00am - 5:00pm Rememberance Day: 11:00am - 5:00pm Christmas Eve: 9:00am - 4:00pm Christmas Day: Closed Boxing Day: 11:00am - 5:00pm New Year's Eve: 9:00am - 4:00pm New Year's Day: Closed Family Day: 11:00am - 5:00pm Good Friday: 11:00am - 5:00pm Easter Sunday: Closed Easter Monday: 11:00am - 5:00pm Victoria Day: 11:00am - 5:00pm Canada Day: 11:00am - 5:00pm Heritage Day: 11:00am - 5:00p,,,
Chatters Hair Salon TD Square,,"#169, 317 - 7th Avenue SW",,Calgary,Alberta,T2P 2Y9,Canada,587-475-0597,,,Mon - Wed: 10:00am - 6:00pm Thur - Fri: 10:00am - 8:00pm Sat: 10:00am - 6:00pm Sun: 12:00pm - 5:00pm Labour Day: 12:00pm - 5:00pm Thanksgiving Day: 12:00pm - 5:00pm Rememberance Day: 9:30am - 6:00pm Christmas Day: Close,,,
Chatters Hair Salon Eastgate,,"2035 Prince of Wales Dr,",,Regina,SK,S4V 3A3,Canada,306-586-3343,,,Mon - Fri: 9:30am - 9:00pm Sat: 9:00am - 6:00pm Sun: 11:00am - 5:00pm Labour Day: 11:00am - 5:00pm Thanksgiving Day: 11:00am - 5:00pm Rememberance Day: 11:00am - 5:00pm Christmas Eve: 9:30am - 4:00pm Christmas Day: Closed Boxing Day: 11:00am - 5:00pm New Year's Eve: 9:30am - 5:00pm New Year's Day: Closed Family Day: 11:00am - 5:00pm Good Friday: 11:00am - 5:00pm Easter Sunday: Closed Easter Monday: 9:30am - 9:00pm Victoria Day: 11:00am - 5:00pm Canada Day: 11:00am - 5:00pm Heritage Day: 11:00am - 5:00p,,,
Chatters Hair Salon Sunridge Mall,,"#226, 2525 - 36th St. NE",,Calgary,AB,T1Y 5T4,Canada,403-280-5144,,,Mon - Fri: 10:00am - 9:00pm Sat: 10:00am - 8:00pm Sun: 11:00am - 5:00pm Labour Day: 11:00am - 5:00pm Thanksgiving Day: 11:00am - 5:00pm Rememberance Day: 11:15am - 9:00pm Christmas Eve: 10:00am - 6:00pm Christmas Day: Closed New Year's Eve: 10:00am - 6:00pm New Year's Day: 11:00am - 5:00pm Family Day: 11:00am - 5:00pm Good Friday: 10:30am - 5:00pm Easter Sunday: 10:00am - 9:00pm Easter Monday: 10:00am - 9:00pm Victoria Day: 11:00am - 5:00pm Canada Day: 11:00am - 5:00pm Heritage Day: 11:00am - 5:00p,,,
Chatters Hair Salon Stoneycreek,,Unit 105 100 Riverstone Ridge,,Fort McMurray,AB,T9K 1S6,Canada,587-276-4247,,,Mon - Fri: 9:00am - 9:00pm Sat: 9:00am - 6:00pm Sun: 11:00am - 5:00pm Labour Day: 11:00am - 5:00pm Thanksgiving Day: 11:00am - 5:00pm Rememberance Day: 11:00am - 5:00pm Christmas Eve: 9:00am - 4:00pm Christmas Day: Closed Boxing Day: 11:00am - 5:00pm New Year's Eve: 9:00am - 5:00pm New Year's Day: Closed Family Day: 11:00am - 5:00pm Good Friday: 11:00am - 5:00pm Easter Sunday: 11:00am - 5:00pm Easter Monday: 11:00am - 5:00pm Victoria Day: 11:00am - 5:00pm Canada Day: 11:00am - 5:00pm Heritage Day: 11:00am - 5:00p,,,
Chatters Hair Salon Summit Centre Mall,,"G101, 1180 Columbia Street West",,Kamloops,BC,V2C 6R6,Canada,250-828-2163,,,Mon - Fri: 9:00am - 9:00pm Sat: 9:00am - 6:00pm Sun: 9:00am - 6:00pm Labour Day: 9:00am - 6:00pm Thanksgiving Day: 9:00am - 6:00pm Rememberance Day: 9:00am - 6:00pm Christmas Eve: 9:00am - 5:00pm Christmas Day: Closed Boxing Day: 9:00am - 6:00pm New Year's Eve: 9:00am - 5:00pm New Year's Day: Closed BC Day: 9:00am - 6:00pm Good Friday: 9:00am - 6:00pm Easter Sunday: 9:00am - 6:00pm Easter Monday: 9:00am - 6:00pm Victoria Day: 9:00am - 6:00pm Canada Day: 9:00am - 6:00pm Heritage Day: 9:00am - 6:00p,,,
Chatters Hair Salon St. Albert,,"510, 700 St. Albert Trail",,St Albert,AB,T8N 7A5,Canada,780-459-9024,,,Mon - Fri: 9:30am - 9:00pm Sat: 9:30am - 6:00pm Sun: 12:00pm - 5:00pm Labour Day: 12:00pm - 5:00pm Thanksgiving Day: 12:00pm - 5:00pm Rememberance Day: 12:00pm - 5:00pm Christmas Eve: 9:30am - 4:00pm Christmas Day: Closed Boxing Day: 12:00pm - 5:00pm New Year's Eve: 9:30am - 4:00pm New Year's Day: Closed Family Day: 12:00pm - 5:00pm Good Friday: 12:00pm - 5:00pm Easter Sunday: Closed Easter Monday: 12:00pm - 5:00pm Victoria Day: 12:00pm - 5:00pm Canada Day: 12:00pm - 5:00pm Heritage Day: 12:00pm - 5:00p,,,
Chatters Hair Salon Southpointe Common,,"Unit 101, 2030 - 50 Avenue",,Red Deer,AB,T4R 3A2,Canada,403-346-2887,,,Mon - Fri: 9:00am - 9:00pm Sat: 9:00am - 6:00pm Sun: 11:00am - 5:00pm Labour Day: 11:00am - 5:00pm Thanksgiving Day: 11:00am - 5:00pm Rememberance Day: 11:00am - 5:00pm Christmas Eve: 9:00am - 4:00pm Christmas Day: Closed Boxing Day: 11:00am - 5:00pm New Year's Eve: 9:00am - 4:00pm New Year's Day: Closed Family Day: 11:00am - 5:00pm Good Friday: 11:00am - 5:00pm Easter Sunday: Closed Easter Monday: 11:00am - 5:00pm Victoria Day: 11:00am - 5:00pm Canada Day: 11:00am - 5:00pm Heritage Day: 11:00am - 5:00p,,,
Chatters Hair Salon Southlands Crossing,,"Unit 107, 2011 Strachan Road SE",,Medicine Hat,AB,T1B 0G4,Canada,403-527-2177,,,Mon - Fri: 9:00am - 9:00pm Sat: 9:00am - 6:00pm Sun: 12:00pm - 5:00pm Labour Day: 12:00pm - 5:00pm Thanksgiving Day: 12:00pm - 5:00pm Rememberance Day: 12:00pm - 5:00pm Christmas Eve: 9:00am - 4:00pm Christmas Day: Closed Boxing Day: 12:00pm - 5:00pm New Year's Eve: Closed New Year's Day: 9:00am - 4:00pm Family Day: 12:00pm - 5:00pm Good Friday: 12:00pm - 5:00pm Easter Sunday: Closed Easter Monday: 12:00pm - 5:00pm Victoria Day: 12:00pm - 5:00pm Canada Day: 12:00pm - 5:00pm Heritage Day: 12:00pm - 5:00p,,,
Chatters Hair Salon St. Johns,,98 Aberdeen Avenue,,St.John's,NL,A1A 5N6,Canada,709-722-2525,,,Mon - Fri: 9:30am - 9:00pm Sat: 9:30am - 6:00pm Sun: 11:00am - 5:00pm Labour Day: Closed Thanksgiving Day: Closed Rememberance Day: Closed Christmas Eve: 9:30am - 4:00pm Christmas Day: Closed Boxing Day: Closed New Year's Eve: 9:30am - 2:00pm New Year's Day: Closed Family Day: 9:30am - 9:00pm Good Friday: Closed Easter Sunday: Closed Easter Monday: Closed Victoria Day: Closed Canada Day: Closed Heritage Day: Close,,,
Chatters Hair Salon South Magrath,,"#2, 3712 Mayor Magrath Dr. S",,Lethbridge,AB,T1K 7V1,Canada,403-320-9994,,,Mon - Fri: 9:00am - 9:00pm Sat: 9:00am - 6:00pm Sun: 12:00pm - 5:00pm Labour Day: 12:00pm - 5:00pm Thanksgiving Day: 12:00pm - 5:00pm Rememberance Day: 12:00pm - 5:00pm Christmas Eve: 9:00am - 4:00pm Christmas Day: Closed Boxing Day: 9:00am - 5:00pm New Year's Eve: 9:00am - 5:00pm New Year's Day: Closed Family Day: 12:00pm - 5:00pm Good Friday: 9:00am - 5:00pm Easter Sunday: Closed Easter Monday: 9:00am - 9:00pm Victoria Day: 12:00pm - 5:00pm Canada Day: 12:00pm - 5:00pm Heritage Day: 12:00pm - 5:00p,,,
Chatters Hair Salon South Centre,,"Unit #44, 100 Anderson Road S.E",,Calgary,AB,T2J 3V1,Canada,403-723-2375,,,Mon - Fri: 9:30am - 9:00pm Sat: 9:30am - 8:00pm Sun: 11:00am - 6:00pm Labour Day: 11:00am - 6:00pm Thanksgiving Day: 11:00am - 6:00pm Rememberance Day: 11:05am - 9:00pm Christmas Eve: 9:30am - 5:00pm Christmas Day: Closed Boxing Day: 8:00am - 7:00pm New Year's Eve: 9:30am - 5:00pm New Year's Day: 11:00am - 6:00pm Family Day: 11:00am - 6:00pm Good Friday: 11:00am - 6:00pm Easter Sunday: 11:00am - 6:00pm Easter Monday: 9:30am - 9:00pm Victoria Day: 11:00am - 6:00pm Canada Day: 11:00am - 6:00pm Heritage Day: 11:00am - 6:00p,,,
Chatters Hair Salon Signal Hill,,5470 Signal Hill Center SW,,Calgary,AB,T3H 3P8,Canada,403-685-0500,,,Mon - Fri: 9:00am - 9:00pm Sat: 9:00am - 6:00pm Sun: 11:00am - 6:00pm Labour Day: 11:00am - 6:00pm Thanksgiving Day: 11:00am - 6:00pm Rememberance Day: 11:00am - 6:00pm Christmas Eve: 10:00am - 4:00pm Christmas Day: Closed Boxing Day: 11:00am - 6:00pm New Year's Eve: 10:00am - 4:00pm New Year's Day: Closed Family Day: 11:00am - 6:00pm Good Friday: 11:00am - 6:00pm Easter Sunday: 10:00am - 4:00pm Easter Monday: 11:00am - 6:00pm Victoria Day: 11:00am - 6:00pm Canada Day: 11:00am - 6:00pm Heritage Day: 11:00am - 6:00p,,,
Chatters Hair Salon Sierra Springs,,"#105, 2821 Main Street",,Airdrie,AB,T4B 3S6,Canada,403-948-4732,,,Mon - Fri: 9:00am - 9:00pm Sat: 9:00am - 6:00pm Sun: 11:00am - 5:00pm Labour Day: 11:00am - 5:00pm Thanksgiving Day: Closed Rememberance Day: 11:00am - 5:00pm Christmas Eve: 9:00am - 5:00pm Christmas Day: Closed Boxing Day: 9:00am - 9:00pm New Year's Eve: 9:00am - 5:00pm New Year's Day: Closed Family Day: 11:00am - 5:00pm Good Friday: 11:00am - 5:00pm Easter Sunday: Closed Easter Monday: 11:00am - 5:00pm Victoria Day: 11:00am - 5:00pm Canada Day: 11:00am - 5:00pm Heritage Day: 11:00am - 5:00p,,,
Chatters Hair Salon Sherwood Park Mall,,"#62A, 2020 Sherwood Drive",,Sherwood Park,AB,T8A 3H9,Canada,780-417-5115,,,Mon - Fri: 9:30am - 9:00pm Sat: 9:30am - 5:30pm Sun: 12:00pm - 5:00pm Labour Day: 12:00pm - 5:00pm Thanksgiving Day: 12:00pm - 5:00pm Rememberance Day: 12:00pm - 5:00pm Christmas Eve: 9:30am - 5:00pm Christmas Day: Closed Boxing Day: 9:30am - 6:00pm New Year's Eve: 9:30am - 5:00pm New Year's Day: Closed Family Day: 12:00pm - 5:00pm Good Friday: 12:00pm - 5:00pm Easter Sunday: Closed Easter Monday: 9:30am - 9:00pm Victoria Day: 12:00pm - 5:00pm Canada Day: 12:00pm - 5:00pm Heritage Day: 12:00pm - 5:00p,,,
Chatters Hair Salon Sherring North,,"#10, 3115 - 26th Ave. N",,Lethbridge,AB,T1H 5P4,Canada,,,,Mon - Fri: 9:00am - 9:00pm Sat: 9:00am - 6:00pm Sun: 12:00pm - 5:00pm Labour Day: 12:00pm - 5:00pm Thanksgiving Day: 12:00pm - 5:00pm Rememberance Day: 12:00pm - 5:00pm Christmas Eve: 9:00am - 3:00pm Christmas Day: Closed Boxing Day: 9:00am - 5:00pm New Year's Eve: 9:00am - 5:00pm New Year's Day: Closed Family Day: 12:00pm - 5:00pm Good Friday: Closed Easter Sunday: Closed Easter Monday: 12:00pm - 5:00pm Victoria Day: 12:00pm - 5:00pm Canada Day: 12:00pm - 5:00pm Heritage Day: 12:00pm - 5:00p,,,
Chatters Hair Salon Shawnessy Towne Centre,,"Unit 530, 85 Shawville Blvd. SE",,Calgary,AB,T2Y 3W5,Canada,403-873-2101,,,Mon - Fri: 9:00am - 9:00pm Sat: 9:00am - 6:00pm Sun: 11:00am - 6:00pm Labour Day: 11:00am - 6:00pm Thanksgiving Day: 11:00am - 6:00pm Rememberance Day: 11:00am - 6:00pm Christmas Eve: 9:00am - 4:00pm Christmas Day: Closed Boxing Day: 9:00am - 4:00pm New Year's Eve: 9:00am - 4:00pm New Year's Day: Closed Family Day: 11:00am - 6:00pm Good Friday: 11:00am - 6:00pm Easter Sunday: Closed Easter Monday: 11:00am - 6:00pm Victoria Day: 11:00am - 6:00pm Canada Day: 11:00am - 6:00pm Heritage Day: 11:00am - 6:00p,,,
Chatters Hair Salon Sevenoaks Shopping Centre,,"101, 32900 S. Fraser Way",,Abbotsford,BC,V2S 5A1,Canada,604-556-7088,,,Mon - Tue: 9:00am - 9:00pm Wed- Fri: 9:00am - 9:00pm Sat: 9:00am - 6:00pm Sun: 11:00am - 5:00pm Labour Day: 11:00am - 5:00pm Thanksgiving Day: 11:00am - 5:00pm Rememberance Day: 11:00am - 5:00pm Christmas Eve: 9:00am - 5:00pm Christmas Day: Closed Boxing Day: 9:00am - 6:00pm New Year's Eve: 9:00am - 5:00pm New Year's Day: 11:00am - 5:00pm BC Day: 9:00am - 6:00pm Good Friday: 11:00am - 5:00pm Easter Sunday: Closed Easter Monday: 9:00am - 6:00pm Victoria Day: 11:00am - 5:00pm Canada Day: 11:00am - 5:00pm Heritage Day: 11:00am - 5:00p,,,
Chatters Hair Salon S.Edmonton Common,,9731 - 19th Ave.,,Edmonton,AB,T6N 1N5,Canada,780-461-4247,,,Mon - Fri: 9:00am - 9:00pm Sat: 9:00am - 6:00pm Sun: 11:00am - 6:00pm Labour Day: 11:00am - 6:00pm Thanksgiving Day: 11:00am - 6:00pm Rememberance Day: 11:00am - 6:00pm Christmas Eve: 9:00am - 9:00pm Christmas Day: Closed Boxing Day: 11:00am - 6:00pm New Year's Eve: 9:00am - 9:00pm New Year's Day: Closed Family Day: 11:00am - 6:00pm Good Friday: 11:00am - 6:00pm Easter Sunday: 11:00am - 6:00pm Easter Monday: 11:00am - 6:00pm Victoria Day: 11:00am - 6:00pm Canada Day: 11:00am - 6:00pm Heritage Day: 11:00am - 6:00p,,,
Chatters Hair Salon Southland Mall,,"#36, 2965 Gordon Road",,Regina,SK,S4S 6H7,Canada,306-585-7559,,,Mon - Tue: 9:30am - 6:00pm Wed - Fri: 9:30am - 9:00pm Sat: 9:30am - 6:00pm Sun: 12:00pm - 5:00pm Labour Day: 12:00pm - 5:00pm Thanksgiving Day: 12:00pm - 5:00pm Rememberance Day: 12:00pm - 5:00pm Christmas Eve: 9:30am - 4:00pm Christmas Day: Closed Boxing Day: 9:30am - 6:00pm New Year's Eve: 9:30am - 4:00pm New Year's Day: Closed Family Day: 12:00pm - 5:00pm Good Friday: 12:00pm - 5:00pm Easter Sunday: 12:00pm - 5:00pm Easter Monday: 9:30am - 6:00pm Victoria Day: 12:00pm - 5:00pm Canada Day: 12:00pm - 5:00pm Heritage Day: 12:00pm - 5:00p,,,
Chatters Hair Salon Rochdale,,3955 Rochdale Boulevard,,Regina,SK,S4X 4P7,Canada,306-525-9115,,,Mon - Tue: 9:30am - 6:00pm Wed - Fri: 9:30am - 9:00pm Sat: 9:30am - 6:00pm Sun: 11:00am - 5:00pm Labour Day: 11:00am - 5:00pm Thanksgiving Day: 11:00am - 5:00pm Rememberance Day: 11:00am - 5:00pm Christmas Eve: 9:00am - 4:00pm Christmas Day: Closed Boxing Day: 11:00am - 5:00pm New Year's Eve: 9:30am - 5:00pm New Year's Day: Closed Family Day: 11:00am - 5:00pm Good Friday: 11:00am - 5:00pm Easter Sunday: Closed Easter Monday: 9:30am - 9:00pm Victoria Day: 11:00am - 5:00pm Canada Day: 11:00am - 5:00pm Heritage Day: 11:00am - 5:00p,,,
Chatters Hair Salon Hylands Centre,,"Unit 117B, 1703 Richmond Street N",,London,ON,N5X 3Y2,Canada,519-663-4121,,,Mon - Fri: 9:00am - 9:00pm Sat: 9:00am - 5:00pm Sun: 11:00am - 5:00pm Labour Day: Closed Thanksgiving Day: Closed Rememberance Day: 9:00am - 5:00pm Christmas Eve: 9:00am - 2:00pm Christmas Day: Closed Boxing Day: 9:00am - 5:00pm New Year's Eve: 9:00am - 2:00pm New Year's Day: Closed Family Day: Closed Good Friday: Closed Easter Sunday: Closed Easter Monday: 9:00am - 9:00pm Victoria Day: Closed Canada Day: Closed Heritage Day: Close,,,
Chatters Hair Salon Guildford Town Ctr,,"#2256, 10355 - 152 Street",,Surrey,BC,V3R 7C1,Canada,604-930-4247,,,Mon : 10:00am - 9:00pm Tues - Fri : 9:30am - 9:00pm Sat: 9:30am - 9:00pm Sun: 10:00am - 6:00pm Labour Day: 10:00am - 6:00pm Thanksgiving Day: 10:00am - 6:00pm Rememberance Day: 10:00am - 6:00pm Christmas Eve: 8:00am - 5:00pm Christmas Day: Closed Boxing Day: 8:00am - 6:00pm New Year's Eve: 10:00am - 5:00pm New Year's Day: 11:00am - 6:00pm BC Day: 10:00am - 6:00pm Good Friday: 10:00am - 6:00pm Easter Sunday: Closed Easter Monday: 10:00am - 6:00pm Victoria Day: 10:00am - 6:00pm Canada Day: 10:00am - 6:00pm Heritage Day: 10:00am - 6:00p,,,
Chatters Hair Salon Queensborough Landing,,"H120, 805 Boyd Street",,New Westminster,BC,V3M 5X2,Canada,604-522-0466,,,Mon-Tues: 10:00am - 6:00pm Wed- Fri: 10:00am - 9:00pm Sat: 9:30am - 6:00pm Sun: 11:00am - 6:00pm Labour Day: 10:00am - 6:00pm Thanksgiving Day: 10:00am - 6:00pm Rememberance Day: 10:00am - 6:00pm Christmas Eve: 10:00am - 6:00pm Christmas Day: Closed Boxing Day: 9:00am - 7:00pm New Year's Eve: 10:00am - 6:00pm New Year's Day: Closed BC Day: 10:00am - 6:00pm Good Friday: 10:00am - 6:00pm Easter Sunday: 11:00am - 6:00pm Easter Monday: 10:00am - 6:00pm Victoria Day: 10:00am - 6:00pm Canada Day: 10:00am - 6:00pm Heritage Day: 10:00am - 6:00p,,,
Chatters Hair Salon Stonegate Mall,,"100, 3011 Clarence Avenue S.",,Saskatoon,SK,S7T 0B4,Canada,306-664-3399,,,Mon - Fri: 9:00am - 9:00pm Sat: 9:00am - 6:00pm Sun: 11:00am - 6:00pm Labour Day: 11:00am - 6:00pm Thanksgiving Day: 11:00am - 6:00pm Rememberance Day: 11:00am - 6:00pm Christmas Eve: 9:00am - 4:00pm Christmas Day: Closed Boxing Day: 11:00am - 6:00pm New Year's Eve: 11:00am - 6:00pm New Year's Day: Closed Family Day: 11:00am - 6:00pm Good Friday: 11:00am - 6:00pm Easter Sunday: 11:00am - 6:00pm Easter Monday: 11:00am - 6:00pm Victoria Day: 11:00am - 6:00pm Canada Day: 11:00am - 6:00pm Heritage Day: 9:00am - 9:00p,,,
Chatters Hair Salon Preston Crossing,,"Unit 130, 1718 Preston Ave N.",,Saskatoon,SK,S7N 4Y1,Canada,306-477-7760,,,Mon - Fri: 9:00am - 9:00pm Sat: 9:00am - 6:00pm Sun: 11:00am - 6:00pm Labour Day: 11:00am - 6:00pm Thanksgiving Day: 11:00am - 6:00pm Rememberance Day: 11:00am - 6:00pm Christmas Eve: 9:00am - 4:00pm Christmas Day: Closed Boxing Day: 11:00am - 6:00pm New Year's Eve: 9:00am - 4:00pm New Year's Day: 11:00am - 6:00pm Family Day: 11:00am - 6:00pm Good Friday: 11:00am - 6:00pm Easter Sunday: Closed Easter Monday: 11:00am - 6:00pm Victoria Day: 11:00am - 6:00pm Canada Day: 11:00am - 6:00pm Heritage Day: 11:00am - 6:00p,,,
Chatters Hair Salon Power Centre (Sumas),,"Unit 210, 1215 Sumas Way",,Abbotsford,BC,V2S 8H2,Canada,604-855-0261,,,Mon - Fri: 9:00am - 9:00pm Sat: 9:00am - 6:00pm Sun: 11:00am - 6:00pm Labour Day: 11:00am - 6:00pm Thanksgiving Day: 11:00am - 6:00pm Rememberance Day: 11:00am - 6:00pm Christmas Eve: 9:00am - 5:00pm Christmas Day: Closed Boxing Day: 9:00am - 6:00pm New Year's Eve: 9:00am - 5:00pm New Year's Day: 11:00am - 6:00pm BC Day: 11:00am - 6:00pm Good Friday: 11:00am - 6:00pm Easter Sunday: Closed Easter Monday: 11:00am - 6:00pm Victoria Day: 11:00am - 6:00pm Canada Day: 11:00am - 6:00pm Heritage Day: 11:00am - 6:00p,,,
Chatters Hair Salon Polo Park,,"L131G, 1485 Portage Avenue",,Winnipeg,MB,R3G 0W4,Canada,204-786-8514,,,Mon - Fri: 9:00am - 9:00pm Sat: 9:00am - 6:00pm Sun: 11:00am - 6:00pm Labour Day: Closed Thanksgiving Day: 11:00am - 6:00pm Rememberance Day: 1:00pm - 9:00pm Christmas Eve: 9:00am - 5:00pm Christmas Day: Closed Boxing Day: 8:00am - 6:00pm New Year's Eve: 10:00am - 5:00pm New Year's Day: Closed Family Day: 9:00am - 9:00pm Good Friday: 11:00am - 6:00pm Easter Sunday: 11:00am - 6:00pm Easter Monday: Closed Victoria Day: 11:00am - 6:00pm Canada Day: Closed Heritage Day: 9:00am - 9:00p,,,
Chatters Hair Salon Park Royal Shopping Centre,,912 Park Royal South,,West Vancouver,BC,V7T 1A1,Canada,778-279-7780,,,Mon - Tue: 10:00am - 7:00pm Wed- Fri: 10:00am - 9:00pm Sat: 9:30am - 6:00pm Sun: 11:00am - 6:00pm Labour Day: 11:00am - 6:00pm Thanksgiving Day: 11:00am - 6:00pm Rememberance Day: 11:00am - 6:00pm Christmas Day: Closed Boxing Day: 8:00am - 9:00pm BC Day: 11:00am - 6:00pm Good Friday: 11:00am - 6:00pm Easter Monday: 11:00am - 6:00pm Victoria Day: 11:00am - 6:00pm Canada Day: 11:00am - 6:00pm Heritage Day: 11:00am - 6:00p,,,
Chatters Hair Salon Parkland Mall,,"#281, 4747 - 67 Street",,Red Deer,AB,T4N 6H3,Canada,403-346-5857,,,Mon - Fri: 9:00am - 9:00pm Sat: 9:00am - 6:00pm Sun: 11:00am - 5:00pm Labour Day: 11:00am - 5:00pm Thanksgiving Day: 11:00am - 5:00pm Rememberance Day: 11:00am - 5:00pm Christmas Eve: 9:00am - 4:00pm Christmas Day: Closed Boxing Day: 9:00am - 6:00pm New Year's Eve: 9:00am - 4:00pm New Year's Day: Closed Family Day: 11:00am - 5:00pm Good Friday: 11:00am - 5:00pm Easter Sunday: Closed Easter Monday: 11:00am - 5:00pm Victoria Day: 11:00am - 5:00pm Canada Day: 11:00am - 5:00pm Heritage Day: 11:00am - 5:00p,,,
Chatters Hair Salon Owen Sound,,"F1, 1969 16th St E,",,Owen Sound,ON,N4K 5N3,Canada,519-371-7917,,,Mon - Fri: 9:00am - 9:00pm Sat: 9:00am - 6:00pm Sun: 11:00am - 5:00pm Labour Day: Closed Thanksgiving Day: Closed Rememberance Day: 9:00am - 9:00pm Christmas Eve: 9:00am - 5:00pm Christmas Day: Closed Boxing Day: 10:00am - 5:00pm New Year's Eve: 9:00am - 5:00pm New Year's Day: Closed Family Day: 9:00am - 9:00pm Good Friday: Closed Easter Sunday: Closed Easter Monday: 9:00am - 9:00pm Victoria Day: Closed Canada Day: Closed Heritage Day: 9:00am - 6:00p,,,
Chatters Hair Salon Ottawa Trainyards,,"Unit 22, 100 Ottawa Trainyards",,Ottawa,ON,K1G 3S2,Canada,613-244-0040,,,Mon - Fri: 9:00am - 9:00pm Sat: 9:00am - 6:00pm Sun: 11:00am - 5:00pm × Holiday Hours Labour Day: Closed Thanksgiving Day: Closed Rememberance Day: 12:30pm - 9:00pm Christmas Eve: 9:00am - 5:00pm Christmas Day: Closed Boxing Day: 9:00am - 6:00pm New Year's Eve: 9:00am - 5:00pm New Year's Day: Closed Family Day: Closed Good Friday: Closed Easter Sunday: Closed Easter Monday: 9:00am - 9:00pm Victoria Day: Closed Canada Day: Closed Heritage Day: 9:00am - 5:00pm Holiday Hour,,,
Chatters Hair Salon Ottawa Tanger,,440 - 8555 Campeau Drive,,Kanata,ON,K2T 0K5,Canada,613-831-0595,,,Mon - Sat: 9:30am - 9:00pm Sun: 10:00am - 6:00pm Labour Day: Closed Thanksgiving Day: Closed Rememberance Day: 12:30pm - 9:00pm Christmas Eve: 9:30am - 5:00pm Christmas Day: Closed Boxing Day: 9:30am - 6:00pm New Year's Eve: 9:30am - 5:00pm New Year's Day: Closed Family Day: Closed Good Friday: Closed Easter Sunday: Closed Easter Monday: 9:30am - 9:00pm Victoria Day: Closed Canada Day: Closed Heritage Day: 9:30am - 5:00p,,,
Chatters Hair Salon Ottawa Bayshore,,100 Bayshore Drive Unit B2A.,,Ottawa,Ontario,K2B 8C1,Canada,613-828-8123,,,Mon - Saturday: 9:00am - 9:00pm Sun: 10:00am - 6:00pm Labour Day: TBD Thanksgiving Day: TBD Rememberance Day: TBD Christmas Eve: TBD Christmas Day: TBD Boxing Day: TBD New Year's Eve: TBD New Year's Day: TBD Family Day: TBD Good Friday: TBD Easter Sunday: Closed Easter Monday: TBD Victoria Day: Closed Canada Day: Closed Heritage Day: TB,,,
Chatters Hair Salon Oshawa Town Centre,,"#4087, 419 King Street West.",,Oshawa,ON,L1J 2K5,Canada,905-728-0192,,,Mon - Sat: 9:30am - 9:00pm Sun: 11:00am - 6:00pm Labour Day: Closed Thanksgiving Day: Closed Rememberance Day: 9:30am - 9:00pm Christmas Eve: 9:00am - 5:00pm Christmas Day: Closed Boxing Day: 9:30am - 5:00pm New Year's Eve: Closed New Year's Day: Closed Family Day: Closed Good Friday: Closed Easter Sunday: Closed Easter Monday: Closed Victoria Day: Closed Canada Day: Closed Heritage Day: 9:30am - 6:00p,,,
Chatters Hair Salon Mount Pearl,,160 Old Placentia Rd.,,Mount Pearl,NL,A1N 4Y9,Canada,709-747-4848,,,Mon - Fri: 9:30am - 9:00pm Sat: 9:30am - 6:00pm Sun: 11:00am - 5:00pm Labour Day: Closed Thanksgiving Day: Closed Rememberance Day: Closed Christmas Eve: 9:30am - 2:00pm Christmas Day: Closed Boxing Day: Closed New Year's Eve: 9:30am - 4:00pm New Year's Day: Closed Family Day: 9:30am - 9:00pm Good Friday: Closed Easter Sunday: Closed Easter Monday: 9:30am - 9:00pm Victoria Day: Closed Canada Day: Closed Heritage Day: 9:30am - 9:00p,,,
Chatters Hair Salon Pine Centre,,"#246, 3055 Massey Drive",,Prince George,BC,V2N 2S9,Canada,250-563-4424,,,Mon - Wed: 9:30am - 6:00pm Thur - Fri: 9:30am - 9:00pm Sat: 9:30am - 6:00pm Sun: 11:00am - 5:00pm Labour Day: 11:00am - 5:00pm Thanksgiving Day: 11:00am - 5:00pm Rememberance Day: 11:00am - 5:00pm Christmas Eve: 9:30am - 5:00pm Christmas Day: Closed Boxing Day: 9:30am - 5:00pm New Year's Eve: 11:00am - 5:00pm New Year's Day: Closed BC Day: 11:00am - 5:00pm Good Friday: 11:00am - 5:00pm Easter Sunday: Closed Easter Monday: 11:00am - 5:00pm Victoria Day: 11:00am - 5:00pm Canada Day: 11:00am - 5:00pm Heritage Day: 11:00am - 5:00p,,,
Chatters Hair Salon Prairie Mall,,"#184, 11801 - 100 Street",,Grande Prairie,AB,T8V 3Y2,Canada,780-831-1190,,,Labour Day: 12:00pm - 5:00pm Thanksgiving Day: 12:00pm - 5:00pm Rememberance Day: 12:00pm - 5:00pm Christmas Eve: 9:30am - 4:00pm Christmas Day: Closed Boxing Day: 9:30am - 6:00pm New Year's Eve: 9:30am - 4:00pm New Year's Day: Closed Family Day: 12:00pm - 5:00pm Good Friday: 12:00pm - 5:00pm Easter Sunday: Closed Easter Monday: 9:30am - 6:00pm Victoria Day: 12:00pm - 5:00pm Canada Day: 12:00pm - 5:00pm Heritage Day: 12:00pm - 5:00p,,,
Chatters Hair Salon Mic Mac Mall,,"Unit 147, 21 MicMac Blvd",,Dartmouth,NS,B3A 4K6,Canada,902-469-4009,,,Mon - Fri: 9:30am - 9:00pm Sat: 9:00am - 9:00pm Sun: 12:00am - 5:00pm Labour Day: Closed Thanksgiving Day: Closed Rememberance Day: Closed Christmas Eve: 9:30am - 5:00pm Christmas Day: Closed Boxing Day: Closed New Year's Eve: 9:00am - 5:00pm New Year's Day: Closed Family Day: Closed Good Friday: Closed Easter Sunday: Closed Easter Monday: 9:30am - 9:00pm Victoria Day: 9:30am - 5:00pm Canada Day: Closed Heritage Day: 12:00pm - 5:00p,,,
Chatters Hair Salon Park Place,,"#29, 501 - 1st Ave. S",,Lethbridge,AB,T1J 4L9,Canada,403-320-9161,,,Mon - Fri: 9:00am - 9:00pm Sat: 9:00am - 9:00pm Sun: 12:00pm - 5:00pm Labour Day: 10:00am - 6:00pm Thanksgiving Day: 10:00am - 6:00pm Rememberance Day: 10:00am - 6:00pm Christmas Eve: 10:00am - 5:00pm Christmas Day: Closed Boxing Day: 9:00am - 9:00pm New Year's Eve: 10:00am - 5:00pm New Year's Day: Closed Family Day: 10:00am - 6:00pm Good Friday: 10:00am - 6:00pm Easter Sunday: Closed Easter Monday: 10:00am - 6:00pm Victoria Day: 10:00am - 6:00pm Canada Day: 10:00am - 6:00pm Heritage Day: 10:00am - 6:00p,,,
Chatters Hair Salon Mayfair Mall,,"#387, 3147 Douglas St.",,Victoria,BC,V8Z 6E3,Canada,250-386-1366,,,Mon: 9:30am - 6:00pm Tue: 10:00am - 6:00pm Wed - Fri: 9:30am - 9:00pm Sat: 9:00am - 6:00pm Sun: 11:00am - 6:00pm Labour Day: 11:00am - 6:00pm Thanksgiving Day: 11:00am - 6:00pm Rememberance Day: 11:15am - 6:00pm Christmas Eve: 9:30am - 5:00pm Christmas Day: Closed Boxing Day: 8:00am - 6:00pm New Year's Eve: 9:30am - 5:00pm New Year's Day: 12:00pm - 5:00pm BC Day: 11:00am - 6:00pm Good Friday: 11:00am - 6:00pm Easter Sunday: Closed Easter Monday: 9:30am - 6:00pm Victoria Day: 11:00am - 6:00pm Canada Day: 11:00am - 6:00pm Heritage Day: 9:30am - 6:00p,,,
Chatters Hair Salon Orchard Park,,"#280, 2271 Harvey Ave.",,Kelowna,BC,V1Y 6H2,Canada,250-869-4090,,,Mon - Tue: 9:00am - 6:00pm Wed - Fri: 9:00am - 9:00pm Sat: 9:00am - 6:00pm Sun: 10:00am - 6:00pm Labour Day: 10:00am - 6:00pm Thanksgiving Day: 10:00am - 6:00pm Rememberance Day: 10:00am - 6:00pm Christmas Eve: 9:00am - 5:00pm Christmas Day: Closed Boxing Day: 9:00am - 6:00pm New Year's Eve: 10:00am - 5:00pm New Year's Day: Closed BC Day: 10:00am - 6:00pm Good Friday: 11:00am - 6:00pm Easter Sunday: Closed Easter Monday: 10:00am - 6:00pm Victoria Day: 10:00am - 6:00pm Canada Day: 10:00am - 6:00pm Heritage Day: 10:00am - 6:00p,,,
Chatters Hair Salon Mayfield Common,,Unit 150 Mayfield Common,,Edmonton,AB,T5P 4B3,Canada,780-484-4203,,,Mon - Fri: 9:00am - 9:00pm Sat: 9:00am - 6:00pm Sun: 11:00pm - 6:00pm Labour Day: 11:00am - 6:00pm Thanksgiving Day: 11:00am - 6:00pm Rememberance Day: 12:00pm - 6:00pm Christmas Eve: 9:00am - 5:00pm Christmas Day: Closed Boxing Day: 11:00am - 6:00pm New Year's Eve: 10:00am - 5:00pm New Year's Day: Closed Family Day: 11:00am - 6:00pm Good Friday: 11:00am - 6:00pm Easter Sunday: Closed Easter Monday: 9:00am - 9:00pm Victoria Day: 11:00am - 6:00pm Canada Day: 11:00am - 6:00pm Heritage Day: 11:00am - 6:00p,,,
Chatters Hair Salon Midtown Plaza,,42 Midtown Plaza,,Saskatoon,SK,S7K 1J9,Canada,306-244-9994,,,Closed for renovations Jan17-31 Re-opening with regular hours February 1 Mon - Tue: 9:00am - 7:00pm Wed- Fri: 9:00am - 9:00pm Sat: 9:00am - 7:00pm Sun: 9:00am - 6:00pm Labour Day: 11:00am - 6:00pm Thanksgiving Day: 11:00am - 6:00pm Rememberance Day: 11:15am - 6:00pm Christmas Eve: 9:00am - 4:00pm Christmas Day: Closed Boxing Day: 7:00am - 7:00pm New Year's Eve: 9:00am - 4:00pm New Year's Day: Closed Family Day: 11:00am - 6:00pm Good Friday: 11:00am - 6:00pm Easter Sunday: Closed Easter Monday: 11:00am - 6:00pm Victoria Day: 11:00am - 6:00pm Canada Day: 11:00am - 6:00pm Heritage Day: 11:00am - 6:00p,,,
Chatters Hair Salon Marlborough Mall,,"#103, 1137 - 3800 Memorial Dr. NE",,Calgary,AB,T2A 2K2,Canada,403-272-2622,,,Mon - Fri: 10:00am - 9:00pm Sat: 10:00am - 7:00pm Sun: 12:00pm - 5:00pm Labour Day: 12:00pm - 5:00pm Thanksgiving Day: 12:00pm - 5:00pm Rememberance Day: 12:00pm - 5:00pm Christmas Eve: 10:00am - 5:00pm Christmas Day: Closed Boxing Day: 9:00am - 6:00pm New Year's Eve: 10:00am - 5:00pm New Year's Day: Closed Family Day: 12:00pm - 5:00pm Good Friday: 12:00pm - 5:00pm Easter Sunday: Closed Easter Monday: 10:00am - 9:00pm Victoria Day: 12:00pm - 5:00pm Canada Day: 12:00pm - 5:00pm Heritage Day: 12:00pm - 5:00p,,,
Chatters Hair Salon McKenzie Towne,,"Bld D, 4709 - 130th Ave. SE",,Calgary,AB,T2Z 4J2,Canada,403-257-7559,,,Mon - Fri: 9:00am - 9:00pm Sat: 9:00am - 6:00pm Sun: 11:00am  - 5:00pm Labour Day: 11:00am - 5:00pm Thanksgiving Day: 11:00am - 5:00pm Rememberance Day: 11:00am - 5:00pm Christmas Eve: 9:00am - 4:00pm Christmas Day: Closed Boxing Day: 9:00am - 9:00pm New Year's Eve: 9:00am - 4:00pm New Year's Day: Closed Family Day: 11:00am - 5:00pm Good Friday: 11:00am - 5:00pm Easter Sunday: Closed Easter Monday: 9:00am - 9:00pm Victoria Day: 11:00am - 5:00pm Canada Day: 11:00am - 5:00pm Heritage Day: 11:00am - 5:00p,,,
Chatters Hair Salon Marlborough Mall II,,"#34, 1439 - 3800 Memorial Dr. NE",,Calgary,AB,T2A 7E7,Canada,403-293-4447,,,Mon - Fri: 10:00am - 9:00pm Sat: 10:00am - 7:00pm Sun: 12:00pm - 5:00pm Labour Day: 12:00pm - 5:00pm Thanksgiving Day: 12:00pm - 5:00pm Rememberance Day: 12:00pm - 5:00pm Christmas Eve: 12:00pm - 5:00pm Christmas Day: Closed Boxing Day: 12:00pm - 5:00pm New Year's Eve: 12:00pm - 5:00pm New Year's Day: Closed Family Day: 12:00pm - 5:00pm Good Friday: 12:00pm - 5:00pm Easter Sunday: Closed Easter Monday: 12:00pm - 5:00pm Victoria Day: 12:00pm - 5:00pm Canada Day: 12:00pm - 5:00pm Heritage Day: 12:00pm - 5:00p,,,
Chatters Hair Salon Lloyd Mall,,"Unit 119,  5211 - 44th Street",,Lloydminster,AB,T9V 0A7,Canada,780-875-8702,,,Mon - Fri: 9:30am - 9:00pm Sat: 9:00am - 6:00pm Sun: 12:00pm - 5:00pm Labour Day: 12:00pm - 5:00pm Thanksgiving Day: 12:00pm - 5:00pm Rememberance Day: 12:00pm - 5:00pm Christmas Eve: 9:30am - 5:00pm Christmas Day: Closed Boxing Day: 12:00pm - 5:00pm New Year's Eve: 9:30am - 5:00pm New Year's Day: Closed Family Day: 12:00pm - 5:00pm Good Friday: 12:00pm - 5:00pm Easter Sunday: Closed Easter Monday: 12:00pm - 5:00pm Victoria Day: 12:00pm - 5:00pm Canada Day: 12:00pm - 5:00pm Heritage Day: 12:00pm - 5:00p,,,
Chatters Hair Salon Lawson Heights,,"Bay 30, 134 Primrose Drive",,Saskatoon,SK,S7K 4S8,Canada,306-931-3010,,,Mon - Tue: 9:00am - 6:00pm Wed - Fri: 9:00am - 9:00pm Sat: 9:00am - 6:00pm Sun: 11:00am - 5:00pm Labour Day: 11:00am - 5:00pm Thanksgiving Day: 11:00am - 5:00pm Rememberance Day: 11:15am - 5:00pm Christmas Eve: 9:30am - 4:00pm Christmas Day: Closed Boxing Day: 9:30am - 6:00pm New Year's Eve: 9:30am - 5:00pm New Year's Day: Closed Family Day: 11:00am - 5:00pm Good Friday: 11:00am - 5:00pm Easter Sunday: Closed Easter Monday: 9:30am - 6:00pm Victoria Day: 11:00am - 5:00pm Canada Day: Closed Heritage Day: 11:00am - 5:00p,,,
Chatters Hair Salon Courtenay,,"#5, 3195 Cliffe Avenue",,Courtenay,BC,V9N 2L9,Canada,250-897-0012,,,Mon - Fri: 9:00am - 9:00pm Sat: 9:00am - 5:30pm Sun: 10:00am - 5:00pm Labour Day: 9:00am - 5:00pm Thanksgiving Day: 11:00am - 5:00pm Rememberance Day: 10:00am - 5:00pm Christmas Eve: 9:00am - 5:00pm Christmas Day: Closed Boxing Day: 9:00am - 5:00pm New Year's Eve: 9:00am - 5:00pm New Year's Day: Closed BC Day: 10:00am - 5:00pm Good Friday: 10:00am - 5:00pm Easter Sunday: Closed Easter Monday: 10:00am - 5:00pm Victoria Day: 10:00am - 5:00pm Canada Day: 10:00am - 5:00pm Heritage Day: 10:00am - 5:00p,,,
Chatters Hair Salon Corral Center,,"Unit 13, 825 - 18th Street N.",,Brandon,MB,R7A 7S1,Canada,204-571-1180,,,Mon - Fri: 9:00am - 9:00pm Sat: 9:00am - 6:00pm Sun: 11:00am - 6:00pm Labour Day: Closed Thanksgiving Day: 11:00am - 6:00pm Rememberance Day: 1:00pm - 9:00pm Christmas Eve: 9:00am - 5:00pm Christmas Day: Closed Boxing Day: 9:00am - 5:00pm New Year's Eve: 9:00am - 5:00pm New Year's Day: Closed Family Day: 11:00am - 6:00pm Good Friday: Closed Easter Sunday: Closed Easter Monday: 9:00am - 9:00pm Victoria Day: 11:00am - 6:00pm Canada Day: Closed Heritage Day: 11:00am - 6:00p,,,
Chatters Hair Salon Corner Brook,,14 Murphy Square,,Corner Brook,NL,A2H 1R4,Canada,709-634-5600,,,Mon - Fri: 9:30am - 9:00pm Sat: 9:30am - 6:00pm Sun: 11:00am - 5:00pm Labour Day: Closed Thanksgiving Day: Closed Rememberance Day: Closed Christmas Eve: 9:30am - 3:00pm Christmas Day: Closed Boxing Day: Closed New Year's Eve: 9:30am - 4:00pm New Year's Day: Closed Family Day: 9:30am - 9:00pm Good Friday: Closed Easter Sunday: Closed Easter Monday: Closed Victoria Day: Closed Canada Day: Closed Heritage Day: 9:30am - 9:00p,,,
Chatters Hair Salon London Fanshawe,,109 Fanshawe Park Road E,,London,Ontario,N5X 3W1,Canada,519-660-1185,,,Mon - Fri: 9:00am - 9:00pm Sat: 9:00am - 5:00pm Sun: 11:00am - 5:00pm Labour Day: Closed Thanksgiving Day: Closed Rememberance Day: Regular Store Hours Christmas Eve: 9:00am - 2:00pm Christmas Day: Closed Boxing Day: 11:00am - 5:00pm New Year's Eve: 9:00am - 5:00pm New Year's Day: Closed Family Day: Closed Good Friday: Closed Easter Sunday: Closed Easter Monday: 9:00am - 9:00pm Victoria Day: Closed Canada Day: Closed Heritage Day: Close,,,
Chatters Hair Salon Clearwater Landing,,"Unit 203, 19 Riedel Street",,Fort McMurray,AB,T9H 5P8,Canada,780-743-2105,,,Mon - Fri: 9:00am - 9:00pm Sat: 9:00am - 6:00pm Sun: 11:00am - 5:00pm Labour Day: 11:00am - 5:00pm Thanksgiving Day: 11:00am - 5:00pm Rememberance Day: 11:00am - 5:00pm Christmas Eve: 9:00am - 4:00pm Christmas Day: Closed Boxing Day: 11:00am - 5:00pm New Year's Eve: 9:00am - 4:00pm New Year's Day: Closed Family Day: 11:00am - 5:00pm Good Friday: 11:00am - 5:00pm Easter Sunday: 11:00am - 5:00pm Easter Monday: 11:00am - 5:00pm Victoria Day: 11:00am - 5:00pm Canada Day: 11:00am - 5:00pm Heritage Day: 11:00am - 5:00p,,,
Chatters Hair Salon Market Mall,,"R08, 3625 Shaganappi Trail NW",,Calgary,AB,T3A 0E2,Canada,403-288-2583,,,Mon - Fri: 9:30am - 9:00pm Sat: 9:30am - 8:00pm Sun: 11:00am - 6:00pm Labour Day: 11:00am - 6:00pm Thanksgiving Day: 11:00am - 6:00pm Rememberance Day: 11:00am - 6:00pm Christmas Eve: 9:00am - 4:00pm Christmas Day: Closed Boxing Day: 8:00am - 7:00pm New Year's Eve: 9:30am - 5:30pm New Year's Day: 11:00am - 6:00pm Family Day: 11:00am - 6:00pm Good Friday: 11:00am - 6:00pm Easter Sunday: Closed Easter Monday: 9:00am - 9:30pm Victoria Day: 11:00am - 6:00pm Canada Day: 11:00am - 6:00pm Heritage Day: 11:00am - 6:00p,,,
Chatters Hair Salon Lougheed,,"# 154, 9855 Austin Ave.",,Burnaby,BC,V3J 1N4,Canada,604-421-2442,,,Mon - Tue: 10:00am - 6:00pm Wed - Fri: 10:00am - 9:00pm Sat: 9:00am - 6:00pm Sun: 11:00am - 6:00pm Labour Day: 10:00am - 6:00pm Thanksgiving Day: 10:00am - 6:00pm Rememberance Day: 10:00am - 6:00pm Christmas Eve: 10:00am - 6:00pm Christmas Day: Closed Boxing Day: 10:00am - 9:00pm New Year's Eve: 10:00am - 6:00pm New Year's Day: 11:00am - 6:00pm BC Day: 10:00am - 6:00pm Good Friday: 10:00am - 6:00pm Easter Sunday: 11:00am - 6:00pm Easter Monday: 11:00am - 6:00pm Victoria Day: 10:00am - 6:00pm Canada Day: 10:00am - 6:00pm Heritage Day: 10:00am - 6:00p,,,
Chatters Hair Salon College Square,,"Unit B, 1365 Woodroofe Ave",,Nepean,ON,K2G 1V7,Canada,613-225-4247,,,Mon - Fri: 9:00am - 9:00pm Sat: 9:00am - 6:00pm Sun: 11:00am - 5:00pm Labour Day: Closed Thanksgiving Day: Closed Rememberance Day: 12:30pm - 9:00pm Christmas Eve: 9:00am - 5:00pm Christmas Day: Closed Boxing Day: 9:00am - 5:00pm New Year's Eve: 9:00am - 5:00pm New Year's Day: Closed Family Day: Closed Good Friday: Closed Easter Sunday: 11:00am - 5:00pm Easter Monday: 9:00am - 9:00pm Victoria Day: Closed Canada Day: Closed Heritage Day: 9:00am - 5:00p,,,
Chatters Hair Salon Cimarron Shopping Centre,,"#305, 105 Southbank Blvd.",,Okotoks,AB,T1S 0G1,Canada,403-995-9422,,,Mon - Fri: 9:00am - 9:00pm Sat: 9:00am - 6:00pm Sun: 11:00am - 5:00pm Labour Day: 11:00am - 5:00pm Thanksgiving Day: 11:00am - 5:00pm Rememberance Day: 11:00am - 5:00pm Christmas Eve: 9:00am - 3:00pm Christmas Day: Closed Boxing Day: 9:00am - 6:00pm New Year's Eve: 9:00am - 5:00pm New Year's Day: Closed Family Day: 11:00am - 5:00pm Good Friday: 11:00am - 5:00pm Easter Sunday: Closed Victoria Day: 11:00am - 5:00pm Canada Day: 11:00am - 5:00pm Heritage Day: 11:00am - 5:00p,,,
Chatters Hair Salon Chinook Centre,,"# 144, 6455 McLeod Trail S.",,Calgary,AB,T2H 0K3,Canada,403-252-9805,,,Mon - Fri: 9:30am - 9:00pm Sat: 9:30am - 9:00pm Sun: 11:00am - 7:00pm Labour Day: 11:00am - 7:00pm Thanksgiving Day: 11:00am - 7:00pm Rememberance Day: 11:00am - 7:00pm Christmas Day: Closed Family Day: 11:00am - 7:00pm Good Friday: 11:00am - 7:00pm Easter Monday: 11:00am - 7:00pm Victoria Day: 11:00am - 6:00pm Canada Day: 11:00am - 6:00pm Heritage Day: 11:00am - 7:00p,,,
Chatters Hair Salon Cherry Lane,,"Unit 105, 2111 Main Street",,Penticton,BC,V2A 6W6,Canada,250-493-2600,,,Mon - Wed: 9:00am - 5:30pm Thur- Fri: 9:00am - 9:00pm Sat: 9:00am - 5:30pm Sun: 11:00am - 5:00pm Labour Day: 11:00am - 5:00pm Thanksgiving Day: 11:00am - 5:00pm Rememberance Day: 11:00am - 5:00pm Christmas Eve: 9:00am - 5:00pm Christmas Day: Closed Boxing Day: 9:30am - 5:30pm New Year's Eve: 9:30am - 5:00pm New Year's Day: Closed BC Day: 9:00am - 5:30pm Good Friday: 11:00am - 5:00pm Easter Sunday: Closed Easter Monday: 9:00am - 5:30pm Victoria Day: 11:00am - 5:00pm Canada Day: 11:00am - 5:00pm Heritage Day: 11:00am - 5:00p,,,
Chatters Hair Salon Chahko-Mika Mall,,"Unit 116, 1105 Lakeside Drive",,Nelson,BC,V1L 5Z3,Canada,250-352-9866,,,Mon - Wed: 9:30am - 5:30pm Thur- Fri: 9:30am - 9:00pm Sat: 9:30am - 5:30pm Sun: 9:30am - 5:00pm Labour Day: 11:00am - 5:00pm Thanksgiving Day: 11:00am - 5:00pm Rememberance Day: 11:00am - 5:00pm Christmas Eve: 9:00am - 5:00pm Christmas Day: Closed Boxing Day: 11:00am - 5:00pm New Year's Eve: 9:00am - 5:30pm New Year's Day: Closed BC Day: 11:00am - 5:00pm Good Friday: 11:00am - 5:00pm Easter Sunday: Closed Easter Monday: 9:00am - 5:30pm Victoria Day: 11:00am - 5:00pm Canada Day: 11:00am - 5:00pm Heritage Day: 11:00am - 5:00p,,,
Chatters Hair Salon Century Crossing,,"#200, 151 Century Crossing",,Spruce Grove,AB,T7X 0C8,Canada,780-962-8810,,,Mon - Fri: 9:30am - 9:00pm Sat: 9:30am - 6:00pm Sun: 11:00am - 5:00pm Labour Day: 11:00am - 5:00pm Thanksgiving Day: 11:00am - 5:00pm Rememberance Day: 11:00am - 5:00pm Christmas Eve: 9:30am - 5:00pm Christmas Day: Closed Boxing Day: 11:00am - 5:00pm New Year's Day: Closed Family Day: 11:00am - 5:00pm Good Friday: 11:00am - 5:00pm Easter Sunday: Closed Easter Monday: 9:30am - 9:00pm Victoria Day: 11:00am - 5:00pm Canada Day: 11:00am - 5:00pm Heritage Day: 11:00am - 5:00p,,,
Chatters Hair Salon Crossroads,,"Unit 2, 1594 Regent Ave. West",,Winnipeg,MB,R2C 3B4,Canada,204-663-7908,,,Mon - Fri: 10:00am - 9:00pm Sat: 9:00am - 6:00pm Sun: 12:00pm - 6:00pm Labour Day: Closed Thanksgiving Day: 12:00pm - 6:00pm Rememberance Day: 1:00pm - 9:00pm Christmas Eve: 10:00am - 5:00pm Christmas Day: Closed Boxing Day: 10:00am - 6:00pm New Year's Eve: 10:00am - 5:00pm New Year's Day: Closed Family Day: 12:00pm - 6:00pm Good Friday: Closed Easter Sunday: Closed Easter Monday: 10:00am - 9:00pm Victoria Day: 12:00pm - 6:00pm Canada Day: Closed Heritage Day: 12:00pm - 6:00p,,,
Chatters Hair Salon Creekside,,"Unit 152, 12024 Symons Valley Rd. NW",,Calgary,AB,T3P 0A3,Canada,403-274-1010,,,Mon - Fri: 9:00am - 9:00pm Sat: 9:00am - 6:00pm Sun: 11:00am - 5:00pm Labour Day: 9:00am - 5:00pm Thanksgiving Day: 9:00am - 5:00pm Rememberance Day: 9:00am - 5:00pm Christmas Eve: 9:00am - 5:00pm Christmas Day: Closed Boxing Day: 9:00am - 5:00pm New Year's Eve: 9:00am - 5:00pm New Year's Day: Closed Family Day: 9:00am - 5:00pm Good Friday: 9:00am - 5:00pm Easter Sunday: 11:00am - 5:00pm Easter Monday: 9:00am - 5:00pm Victoria Day: 9:00am - 5:00pm Canada Day: 9:00am - 5:00pm Heritage Day: 9:00am - 5:00p,,,
Chatters Hair Salon Center @ Circle 8th,,3510-8th Street E.,,Saskatoon,SK,S7H 0W6,Canada,306-651-3067,,,Mon - Tue: 9:00am - 6:00pm Wed - Fri: 9:00am - 9:00pm Sat: 9:00am - 6:00pm Sun: 11:00am - 5:00pm Labour Day: 11:00am - 5:00pm Thanksgiving Day: 11:00am - 5:00pm Rememberance Day: 11:15am - 5:00pm Christmas Eve: 9:30am - 4:00pm Christmas Day: Closed New Year's Eve: 9:30am - 5:00pm New Year's Day: Closed Boxing Day: 9:00am - 6:00pm Family Day: 9:00am - 9:00pm Good Friday: 11:00am - 5:00pm Easter Sunday: 11:00am - 5:00pm Easter Monday: 11:00am - 5:00pm Victoria Day: 11:00am - 5:00pm Canada Day: 11:00am - 5:00pm Heritage Day: 9:00am - 9:00p,,,
Chatters Hair Salon Cornwall Center,,"#17, 2102 - 11 Avenue",,Regina,SK,S4P 3Y6,Canada,306-525-4200,,,Mon - Tue: 9:30am - 6:00pm Wed - Fri: 9:30am - 9:00pm Sat: 9:00am - 6:00pm Sun: 12:00pm - 5:00pm Labour Day: 12:00pm - 5:00pm Thanksgiving Day: 12:00pm - 5:00pm Rememberance Day: 12:00pm - 5:00pm Christmas Eve: 9:30am - 5:00pm Christmas Day: Closed Boxing Day: 9:30am - 6:00pm New Year's Eve: 9:30am - 5:00pm New Year's Day: Closed Family Day: 12:00pm - 5:00pm Good Friday: 12:00pm - 5:00pm Easter Sunday: 12:00pm - 5:00pm Easter Monday: 12:00pm - 5:00pm Victoria Day: 12:00pm - 5:00pm Canada Day: 12:00pm - 5:00pm Heritage Day: 12:00pm - 5:00p,,,
Chatters Hair Salon Camrose Commons,,Unit #325 6805 48 Ave.,,Camrose,Alberta,T4V 4W1,Canada,780-679-2207,,,Mon - Fri: 9:00am - 9:00pm Sat: 9:00am - 5:00pm Sun: 11:00am - 5:00pm Labour Day: 11:00am - 5:00pm Thanksgiving Day: 11:00am - 5:00pm Rememberance Day: 11:00am - 5:00pm Christmas Eve: 9:30am - 5:00pm Christmas Day: Closed Boxing Day: 11:00am - 5:00pm New Year's Eve: 9:30am - 5:00pm New Year's Day: 11:00am - 5:00pm Family Day: 11:00am - 5:00pm Good Friday: 11:00am - 5:00pm Easter Sunday: Closed Easter Monday: 11:00am - 5:00pm Victoria Day: 11:00am - 5:00pm Canada Day: 11:00am - 5:00pm Heritage Day: 11:00am - 5:00p,,,
Chatters Hair Salon Cottonwood Mall,,"#206, 45585 Luckakuck Way",,Chilliwack,BC,V2R 1A1,Canada,604-858-0594,,,CLOSED FOR RENOVATIONS UNTIL JUNE 1 Mon - Wed: 9:30am - 8:00pm Thur - Fri: 9:30am - 9:00pm Sat: 9:00am - 5:30pm Sun: 11:00am - 6:00pm Labour Day: 11:00am - 5:00pm Thanksgiving Day: 11:00am - 5:00pm Rememberance Day: 11:00am - 5:00pm Christmas Eve: 9:30am - 5:00pm Christmas Day: Closed Boxing Day: 8:00am - 6:00pm New Year's Eve: 9:30am - 5:00pm New Year's Day: 12:00pm - 5:00pm BC Day: 11:00am - 5:00pm Good Friday: 10:00am - 5:00pm Easter Sunday: Closed Easter Monday: 11:00am - 5:00pm Victoria Day: 11:00am - 5:00pm Canada Day: 11:00am - 5:00pm Heritage Day: 11:00am - 5:00p,,,
Chatters Hair Salon Calgary East Hills,,337 East Hills Boulevard SE,,Calgary,AB,T2A 4X7,Canada,587-470-2098,,,Mon - Fri: 9:00am - 9:00pm Sat: 9:00am - 6:00pm Sun: 10:00am - 5:00pm Labour Day: 11:00am - 5:00pm Thanksgiving Day: 11:00am - 5:00pm Rememberance Day: 11:00am - 5:00pm Christmas Eve: 9:30am - 5:00pm Christmas Day: Closed Boxing Day: 11:00am - 5:00pm New Year's Eve: 9:30am - 5:00pm New Year's Day: 11:00am - 5:00pm Family Day: 11:00am - 5:00pm Good Friday: 11:00am - 5:00pm Easter Sunday: Closed Easter Monday: 11:00am - 5:00pm Victoria Day: 11:00am - 5:00pm Canada Day: 11:00am - 5:00pm Heritage Day: 11:00am - 5:00p,,,
Chatters Hair Salon Bower Place,,"#154A, 4900 Molly Banister Dr.",,Red Deer,AB,T4N 2E5,Canada,403-342-2233,,,Mon: 9:30am - 9:00pm Tues - Fri: 9:00am - 9:00pm Sat: 11:00am - 5:00pm Sun: 11:00am - 5:00pm Labour Day: 11:00am - 5:00pm Thanksgiving Day: 11:00am - 5:00pm Rememberance Day: 12:00pm - 5:00pm Christmas Eve: 9:00am - 5:00pm Christmas Day: Closed Boxing Day: 8:00am - 5:00pm New Year's Eve: 9:30am - 5:00pm New Year's Day: 11:00am - 5:00pm Family Day: 11:00am - 5:00pm Good Friday: 11:00am - 5:00pm Easter Sunday: Closed Easter Monday: 9:00am - 9:00pm Victoria Day: 11:00am - 5:00pm Canada Day: 11:00am - 5:00pm Heritage Day: 11:00am - 5:00p,,,
Chatters Hair Salon Beacon Hill Centre,,11618 Sarcee Trail NW,,Calgary,AB,T3R 0A1,Canada,403-295-3312,,,Mon - Fri: 9:00am - 9:00pm Sat: 9:00am - 6:00pm Sun: 11:00am - 6:00pm Labour Day: 11:00am - 6:00pm Thanksgiving Day: 11:00am - 6:00pm Rememberance Day: 11:00am - 6:00pm Christmas Eve: 9:00am - 4:00pm Christmas Day: Closed Boxing Day: 11:00am - 6:00pm New Year's Eve: 9:00am - 5:00pm New Year's Day: Closed Family Day: 11:00am - 6:00pm Good Friday: 11:00am - 6:00pm Easter Sunday: Closed Easter Monday: 11:00am - 6:00pm Victoria Day: 11:00am - 6:00pm Canada Day: 11:00am - 6:00pm Heritage Day: 11:00am - 6:00p,,,
Chatters Hair Salon Barrie,,"H1, 454 Bayfield Street",,Barrie,ON,L4M 5A2,Canada,705-727-0555,,,Mon - Fri: 9:30am - 9:00pm Sat: 9:00am - 6:00pm Sun: 11:00am - 5:00pm Labour Day: Close Thanksgiving Day: Closed Rememberance Day: 9:30am - 9:00pm Christmas Eve: 9:30am - 3:00pm Christmas Day: Closed Boxing Day: 9:30am - 5:00pm New Year's Eve: 9:30am - 4:00pm New Year's Day: Closed Family Day: Closed Good Friday: Closed Easter Sunday: Closed Easter Monday: Closed Victoria Day: Closed Canada Day: Closed Heritage Day: Close,,,
Chatters Hair Salon Ajax,,"​Unit H, 276 Kingston Road​,",,​Ajax,ON,L1Z 1G1,Canada,905-​427-7017,,,Mon - Fri: 10:00am - 9:00pm Sat: 10:00am - 7:00pm Sun: 10:00am - 5:00pm Labour Day: Closed Thanksgiving Day: Closed Rememberance Day: Closed Christmas Eve: 10:00am - 5:00pm Christmas Day: Closed Boxing Day: 10:00am - 9:00pm New Year's Eve: 10:00am - 5:00pm New Year's Day: Closed Good Friday: Closed Easter Sunday: Closed Victoria Day: Closed Canada Day: Closed Heritage Day: 10:00am - 9:00p,,,
Chatters Hair Salon Aberdeen Mall,,"#115, 1320 West TransCanada Hwy.",,Kamloops,BC,V1S 1J2,Canada,250-851-0887,,,Mon - Wed: 8:30am - 7:00pm Thurs- Fri: 8:30am - 9:00pm Sat: 8:30am - 6:00pm Sun: 9:00am - 5:00pm Labour Day: 9:30am - 5:00pm Thanksgiving Day: 9:30am - 5:00pm Rememberance Day: 9:30am - 5:00pm Christmas Eve: 9:30am - 5:00pm Christmas Day: Closed Boxing Day: 8:30am - 6:00pm New Year's Eve: 9:30am - 5:00pm New Year's Day: Closed BC Day: 9:30am - 5:00pm Good Friday: 9:30am - 5:00pm Easter Sunday: Closed Easter Monday: 9:00am - 9:00pm Victoria Day: 9:30am - 5:00pm Canada Day: 9:30am - 5:00pm Heritage Day: 9:30am - 5:00p,,,
Chatters Hair Salon Bayers Lake,,194 Chain Lake Drive,,Halifax,NS,B3S 1C5,Canada,902-407-4121,,,Mon - Fri: 9:30am - 9:00pm Sat: 9:00am - 6:00pm Sun: 12:00pm - 5:00pm Labour Day: Closed Thanksgiving Day: Closed Rememberance Day: Closed Christmas Eve: 9:30am - 9:00pm Christmas Day: Closed Boxing Day: Closed New Year's Eve: 9:30am - 5:00pm New Year's Day: Closed Family Day: Closed Good Friday: Closed Easter Sunday: Closed Easter Monday: Closed Victoria Day: 12:00pm - 5:00pm Canada Day: Closed Heritage Day: 12:00pm - 5:00p,,,
