store_name,store_number,address,address2,city,state,zip_code,country,phone_number,latitude,longitude,store_hours,store_type,other_fields,coming_soon
Lincoln Park Center,798,755 West North Ave Space  110,,Chicago,IL,60610,United States,(312) 280-4732,41.91077,-87.648002,Mon - Wed: 10am - 8pm ~ Thur - Sat: 10am - 9pm ~ Sunday: 12pm - 7pm,AFA,,
Old Orchard,97,4999 Old Orchard Suite M22,,Skokie,IL,60077,United States,(847) 568-1633,42.060374,-87.74972,Mon - Sat: 10am - 9pm ~ Sunday: 11am - 6pm,AFA,,
Village Plaza Outlet,885,7220 Dempster St.  Suite 7232A,,Morton Grove,IL,60053,United States,(847) 967-0876,42.04127,-87.80668,Mon - Sat: 10am - 9pm ~ Sunday: 11am - 6pm,Outlet,,
Burr Ridge,980,750 Village Center Drive,,Burr Ridge,IL,60527,United States,(630) 203-2019,41.753677,-87.912047,Mon - Sat: 10am - 8pm ~ Sunday: 11am - 6pm,AFA,,
Oakbrook Center,16,79 Oakbrook Center,,Oakbrook,IL,60523,United States,(630) 574-8060,41.849935,-87.956715,Mon - Sat: 10am - 9pm ~ Sunday: 11am - 6pm,Apparel,,
Yorktown,908,203 Yorktown Center  163,,Lombard,IL,60148,United States,(630) 705-9088,41.839834,-88.001314,Mon - Sat: 10am - 9pm ~ Sunday: 11am - 6pm,Apparel,,
Orland Square,106,452 Orland Square Dr.  Space D-13D,,Orland Park,IL,60462,United States,708-403-7177,41.61895,-87.848045,Mon - Sat: 10am - 9pm ~ Sunday: 11am - 6pm,AFA,,
Woodfield Mall,24,5 Woodfield Mall    E-310,,Schaumburg,IL,60173,United States,(847) 619-0909,42.048475,-88.043146,Mon - Sat: 10am - 9pm ~ Sunday: 11am - 6pm,AFA,,
Main Place,547,110 West Jefferson Avenue,,Naperville,IL,60540,United States,(630) 961-3615,41.772916,-88.149531,Mon - Wed: 10am - 8pm ~ Thursday: 10am - 9pm ~ Fri - Sat: 9am - 9pm ~ Sunday: 11am - 6pm,AFA,,
Hawthorn Mall,39,101 Hawthorn Center,,Vernon Hills,IL,60061,United States,(847) 680-8607,42.245423,-87.949397,Mon - Sat: 10am - 9pm ~ Sunday: 11am - 6pm,AFA,,
Chicago Premium Outlets,313,1650  Premium Outlets Blvd.  325,,Aurora,IL,60504,United States,(630)499-7062,41.800937,-88.274035,Mon - Sat: 10am - 9pm ~ Sunday: 10am - 7pm,Outlet,,
Lighthouse Place Premium Outlets,254,1105 Lighthouse Place,,Michigan City,IN,46360,United States,(219) 874-6178,41.715091,-86.908175,Mon - Sat: 9am - 9pm ~ Sunday: 10am - 6pm,Outlet,,
Pleasant Prairie Premium Outlets,381,11211 120th Ave suite 554,,Pleasant Prairie,WI,53158-1705,United States,(262) 857-2649,42.514154,-87.951192,Mon - Sat: 10am - 9pm ~ Sunday: 10am - 7pm,Outlet,,
Heritage Square,502,7135 Heritage Square Dr    320,,Granger,IN,46530,United States,(574) 243-9089,41.722993,-86.177487,Mon - Sat: 10am - 8pm ~ Sunday: 12pm - 5pm,Apparel,,
Southridge,779,5300 S 76th St Space  1290,,Greendale,WI,53129,United States,(414) 423-7870,42.948117,-88.004489,Mon - Sat: 10am - 9pm ~ Sunday: 11am - 6pm,AFA,,
Mayfair,64,2500 North Mayfair Road   432,,Wauwatosa,WI,53226,United States,(414) 475-7114,43.064602,-88.04762,Mon - Sat: 10am - 9pm ~ Sunday: 11am - 6pm,Apparel,,
Village at Topanga,485,6256 Topanga Canyon Blvd  Space 1240,,Woodland Hills,CA,91367,United States,(818) 610-1256,34.184183,-118.605818,Mon - Thur: 10am - 8pm ~ Fri - Sat: 10am - 9pm ~ Sunday: 11am - 7pm,AFA,,
San Clemente Outlet,21,101 West Avenida Vista Hermosa Suite 158,,San Clemente,CA,92672,United States,(949) 498-2770,33.437927,-117.629097,Mon - Sun: 10am - 8pm,Outlet,,
Desert Hill Premium Outlet,162,48400 Seminole Drive Space 520,,Cabazon,CA,92230,United States,951-922-3923,33.930007,-116.817089,Mon - Sat: 10am - 9pm ~ Sunday: 10am - 8pm,Outlet,,
100 Fifth Avenue,232,100 5th Avenue,,New York,NY,10011,United States,(212) 414-8546,40.736966,-73.993176,Mon - Sat: 10am - 8pm ~ Sunday: 11am - 7pm,Apparel,,
7000 Austin St.,851,7000 Austin Street,,Forest Hills,NY,11375,United States,(718) 459-2270,40.72095,-73.846939,Mon - Fri: 10am - 8pm ~ Saturday: 10am - 6pm ~ Sunday: 11am - 6pm,Apparel,,
Garden State Plaza,160,1 Garden State Plaza Suite T7,,Paramus,NJ,07652,United States,(201) 843-1403,40.918116,-74.076363,Mon - Sat: 10am - 9:30pm ~ Sunday: Closed,Apparel,,
The Grove at Shrewsbury,96,563 Route 35,,Shrewsbury,NJ,07702,United States,(732) 530-4649,40.3331,-74.062883,Mon - Fri: 10am - 9pm ~ Saturday: 10am - 6pm ~ Sunday: 11am - 5pm,AFA,,
Rockaway Town Square,109,301 Mount Hope Avenue   1082,,Rockaway,NJ,07866-2139,United States,(973) 361-0855,40.907805,-74.554166,Mon - Sat: 10am - 9:30pm ~ Sunday: 11am - 6pm,Apparel,,
Bridgewater Commons,62,400 Commons Way  Space 2455,,Bridgewater,NJ,08807,United States,908-707-9330,40.585989,-74.619343,Mon - Sat: 10am - 9pm ~ Sunday: 11am - 6pm,AFA,,
Jersey Shore Premium Outlets,277,1 Premium Outlets Blvd  Suite 830,,Tinton Falls,NJ,07753,United States,(732) 493-2871,40.22525,-74.092073,Mon - Sat: 10am - 9pm ~ Sunday: 10am - 7pm,Outlet,,
Arches at Deer Park Outlet,360,152 The Arches Circle suite 637,,Deer Park,NY,11729,United States,(631) 586-1021,40.7647,-73.306148,Mon - Sat: 9am - 9pm ~ Sunday: 10am - 8pm,Outlet,,
Woodbury Common Premium Outlets,815,223 Red Apple Court,,Central Valley,NY,10917,United States,(845) 928-2690,41.314369,-74.126903,Mon - Sun: 9am - 9pm,Outlet,,
Danbury Fair Mall,829,7 Backus Ave  F110,,Danbury,CT,06810,United States,(203) 748-7765,41.379514,-73.480425,Mon - Sat: 10am - 9:30pm ~ Sunday: 11am - 7pm,AFA,,
Tanger Outlets-Riverhead,884,602 Tanger Mall Dr SPC 602A,,Riverhead,NY,11901,United States,(631) 369-0531,40.920155,-72.715563,Mon - Tue: 10am - 9pm ~ Wed - Sat: 9am - 9pm ~ Sunday: 10am - 8pm,Outlet,,
The Crossings,95,1000 Premium Outlets Dr Sp  C09,,Tannersville,PA,18372,United States,(570) 629-2240,41.0484,-75.31199,Mon - Sat: 10am - 9pm ~ Sunday: 10am - 8pm,Outlet,,
Montgomery Mall,440,248 Montgomery Mall Space 2128,,North Wales,PA,19454,United States,(215) 362-2573,40.236447,-75.242205,Mon - Sat: 10am - 9pm ~ Sunday: 11am - 6pm,AFA,,
Gloucester Premium Outlets,218,100 Premium Outlets Drive Suite 330,,Blackwood,NJ,08012,United States,(856) 221-8219,39.78429,-75.05067,Mon - Thur: 10am - 7pm ~ Fri - Sat: 10am - 9pm ~ Sunday: 10am - 7pm,Outlet,,
King of Prussia,992,160 N Gulph Rd Spave 2212A,,King of Prussia,PA,19406,United States,(610) 233-0086,40.08564,-75.39166,Mon - Sat: 10am - 9pm ~ Sunday: 10am - 6pm,AFA,,
Philadelphia Premium Outlets,351,18 Light Cap Road   1099,,Pottstown,PA,19464,United States,(610) 327-2961,40.22949,-75.558537,Mon - Wed: 10am - 7pm ~ Thur - Sat: 10am - 9pm ~ Sunday: 10am - 7pm,Outlet,,
Westbrook Outlet,897,314 Flat Rock Place   C-105,,Westbrook,CT,06498,United States,(860) 399-9268,41.289976,-72.441854,Mon - Sat: 9am - 9pm ~ Sunday: 10am - 7pm,Outlet,,
Atlantic City Outlet,409,2121 Atlantic Avenue,,Atlantic City,NJ,08401,United States,(609) 345-0734,39.358438,-74.437174,Mon - Sat: 10am - 8pm ~ Sunday: 10am - 7pm,Outlet,,
Shoppes Brinton Lake,869,961 Baltimore Pike,,Glen Mills,PA,19342,United States,(610) 558-5950,39.883928,-75.534618,Mon - Thur: 10am - 8pm ~ Fri - Sat: 10am - 9pm ~ Sunday: 11am - 6pm,AFA,,
Westgate Center Outlets,110,6800 N. 95th Ave Suite 440,,Glendale,AZ,85305,United States,(623) 772-5305,33.534314,-112.264994,Holiday Hours ~ Mon - Thur: 9am - 9pm ~ Fri - Sat: 9am - 10pm ~ Sunday: 10am - 7pm,Outlet,,
Chandler Fashion Center,923,3111 West Chandler Blvd   1142,,Chandler,AZ,85226,United States,(480) 855-6223,33.305713,-111.896578,Mon - Sat: 10am - 9pm ~ Sunday: 11am - 6pm,AFA,,
La Centerra @ Cinco Ranch,996,23501 Cinco Ranch Blvd  Suite G130,,Katy,TX,77494,United States,(281) 574-3700,29.743787,-95.77597,Mon - Sat: 10am - 9pm ~ Sunday: 12pm - 6pm,AFA,,
Houston Premium Outlets,14,29300 Hempstead Rd.  Suite 943,,Cypress,TX,77433,United States,(281) 256-1374,29.997168,-95.757276,Mon - Sat: 10am - 9pm ~ Sunday: 11am - 7pm,Outlet,,
Market Street at Woodlands,478,9595 Six Pines Ave. Suite  890,,Spring,TX,77380,United States,(281) 298-0657,30.164222,-95.461149,Mon - Sat: 10am - 9pm ~ Sunday: 12pm - 6pm,AFA,,
Huebner Oaks Center,775,11745  IH10  West   607,,San Antonio,TX,78230,United States,(210) 558-9112,29.551961,-98.585598,Mon - Sat: 10am - 8pm ~ Sunday: 12pm - 6pm,Apparel,,
Stone Oak,995,22710 North US Hwy 281 Building C  Suite 108,,San Antonio,TX,78258,United States,(210) 481-5775,29.65373,-98.44823,Mon - Sat: 10am - 8pm ~ Sunday: 12pm - 6pm,Apparel,,
San Marcos Outlet,875,4015 South Interstate 35 Suite 640,,San Marcos,TX,78666,United States,(512) 805-4845,29.827247,-97.98566,Mon - Sat: 9am - 9pm ~ Sunday: 10am - 7pm,AFA,,
Hill Country Galleria,982,12912 Hill Country Blvd. Suite F-115,,Bee Cave,TX,78738,United States,(512) 263-4317,30.309535,-97.941853,Mon - Fri: 10am - 10pm ~ Saturday: 10am - 6pm ~ Sunday: 12pm - 6pm,Apparel,,
Round Rock Premium Outlets,308,4401 North Interstate Hwy 35   0793,,Round Rock,TX,78664,United States,(512) 931-0700,30.565084,-97.692149,Mon - Sat: 10am - 9pm ~ Sunday: 11am - 7pm,Outlet,,
Christiana Mall,48,132 Christiana Mall Suite 1384,,Newark,DE,19702,United States,(302) 733-0159,39.677835,-75.649766,Mon - Sat: 10am - 9pm ~ Sunday: 11am - 6pm,AFA,,
Tanger Outlet-Lancaster,874,1140 Stanley K. Tanger Blvd,,Lancaster,PA,17602,United States,(717) 481-8501,40.024231,-76.221484,Mon - Sat: 9am - 9pm ~ Sunday: 10am - 7pm,Outlet,,
Towson Town Center,284,825 Dulaney Valley Road  Suite 4220,,Towson,MD,21204,United States,(410) 296-5106,39.40377,-76.59934,Mon - Sat: 10am - 9pm ~ Sunday: 11am - 6pm,AFA,,
Tanger Outlets Rehoboth Beach,238,36502 Seaside Outlet Drive  1250,,Rehoboth Beach,DE,19971,United States,(302) 227-5070,38.718273,-75.112751,Mon - Thur: 9am - 7pm ~ Fri - Sat: 9am - 9pm ~ Sunday: 10am - 7pm,Outlet,,
Queenstown Outlet,429,126 Outlet Center Drive,,Queenstown,MD,21658,United States,(410) 827-8749,38.983945,-76.160768,Mon - Sat: 10am - 9pm ~ Sunday: 10am - 8pm,Outlet,,
Shoppes at Susquehanna Marketplace,988,2603 Brindle Dr   G,,Harrisburg,PA,17110,United States,(717) 810-1962,40.304075,-76.844116,Mon - Sat: 10am - 9pm ~ Sunday: 11am - 6pm,Apparel,,
Arena Hub Outlet,261,417 Arena Hub Plaza,,Wilkes-Barre,PA,18702,United States,(570) 823-7002,41.242361,-75.843116,Mon - Sat: 10am - 9pm ~ Sunday: 11am - 6pm,Outlet,,
Annapolis Mall,793,1835 Annapolis Mall Road  1444,,Annapolis,MD,21401,United States,(410) 266-0503,38.991369,-76.547025,Mon - Sat: 10am - 9:30pm ~ Sunday: 11am - 7pm,AFA,,
Arundel Mills,872,7000 Arundel Mills Circle   76,,Hanover,MD,21076,United States,(443) 755-1411,39.162409,-76.725707,Mon - Sat: 10am - 9:30pm ~ Sunday: 11am - 7pm,Outlet,,
Viejas Outlet,882,5001 Willows Road   J101,,Alpine,CA,91901,United States,(619) 659-0955,32.840902,-116.706937,Mon - Sat: 10am - 8pm ~ Sunday: 10am - 7pm,Outlet,,
Shops at Park Lane,747,8020 Park Lane  Suite 115,,Dallas,TX,75231,United States,(214) -361-2851,32.871378,-96.768014,Mon - Sat: 10am - 9pm ~ Sunday: 12pm - 6pm,Apparel,,
Southlake Town Center,791,1402 Main Street,,Southlake,TX,76092,United States,(817) 416-6106,32.942561,-97.13072,Mon - Sat: 10am - 9pm ~ Sunday: 12pm - 6pm,AFA,,
Watters Creek @ Montgomery Farm,984,865 Market Street,,Allen,TX,75013,United States,(972) 649-6225,33.088511,-96.683539,Mon - Sat: 10am - 9pm ~ Sunday: 12pm - 6pm,Apparel,,
Great Mall (OLTL),164,447 Great Mall Drive  Space  155A,,Milpitas,CA,95035,United States,408-262-0104,37.417128,-121.897506,Mon - Sat: 10am - 9pm ~ Sunday: 11am - 8pm,Outlet,,
Gilroy Premium Outlets,253,8325-28 Arroyo Circle  Bldg. A    28,,Gilroy,CA,95020,United States,(408) 842-4445,37.023136,-121.562833,Mon - Sat: 10am - 9pm ~ Sunday: 10am - 7pm,Outlet,,
128 Post Street,2,128 Post St.,,San Francisco,CA,94108,United States,(415) 398-2879,37.788872,-122.404269,Mon - Sat: 10am - 6pm ~ Sunday: 11am - 6pm,AFA,,
Town Center Corte Madera,56,214 Corte Madera Town Center,,Corte Madera,CA,94925,United States,(415) 945-9189,37.926974,-122.518078,Mon - Fri: 10am - 8pm ~ Saturday: 10am - 6pm ~ Sunday: 11am - 6pm,Apparel,,
Vintage Oaks at Novato,262,140 Vintage Way   G-12,,Novato,CA,94945,United States,(415) 878-0205,38.090783,-122.556366,Mon - Sat: 10am - 8pm ~ Sunday: 11am - 6pm,Outlet,,
Vacaville Premium Outlets,867,131-F Nut Tree Road,,Vacaville,CA,95687,United States,(707) 451-0780,38.368062,-121.955989,Mon - Sat: 10am - 9pm ~ Sunday: 10am - 7pm,Outlet,,
Santa Rosa Plaza,320,1071 Santa Rosa Plaza   1069,,Santa Rosa,CA,95401,United States,(707) 528-3823,38.439696,-122.717654,Holiday Hours ~ Mon - Sat: 9am - 10pm ~ Sunday: 10am - 10pm,AFA,,
Folsom Premium Outlets,887,13000 Folsom Blvd  1450,,Folsom,CA,95630,United States,(916) 985-4881,38.6459,-121.188757,Mon - Sat: 10am - 9pm ~ Sunday: 10am - 7pm,Outlet,,
St Augustine Premium Outlets,236,2700 State Road 16  103,,St Augustine,FL,32092,United States,(904) 824-2888,29.9227,-81.417986,Mon - Sat: 9am - 9pm ~ Sunday: 10am - 6pm,Outlet,,
Charlotte Premium Outlets,498,5506 New Fashion Way  Suite 370,,Charlotte,NC,28278,United States,(704) 504-0494,35.171889,-80.971494,Mon - Sat: 10am - 9pm ~ Sunday: 10am - 7pm,Outlet,,
Concord Mills Outlet,850,8111 Concord Mills Blvd.   614,,Concord,NC,28027,United States,(704) 979-0051,35.371477,-80.718465,Mon - Sat: 10am - 9pm ~ Sunday: 12pm - 7pm,Outlet,,
Gaffney Outlet,437,610 Factory Shops Blvd,,Gaffney,SC,29341,United States,(864) 487-4024,35.082831,-81.708886,Mon - Sat: 10am - 9pm ~ Sunday: 1:30pm - 7pm,Outlet,,
Hanes Mall,208,3320 Silas Creek Parkway Space  DU-752,,Winston-Salem,NC,27103,United States,(336) 659-9883,36.073777,-80.298402,Mon - Sat: 10am - 9pm ~ Sunday: 12pm - 6pm,AFA,,
Friendly Shopping Ctr,466,801A Friendly Center Road,,Greensboro,NC,27408,United States,(336) 852-3635,36.08615,-79.830749,Mon - Sat: 10am - 9pm ~ Sunday: 12pm - 6pm,Apparel,,
Asheville Mall,391,3 South Tunnel Road   A-14,,Asheville,NC,28805,United States,(828) 298-6000,35.581513,-82.525894,Holiday Hours ~ Monday: 8am - 10pm ~ Tue - Fri: 8am - 11pm ~ Saturday: 8am - 6pm ~ Sunday: 10am - 10pm,AFA,,
Warehouse Outlet,469,4599 Fisher Road,,Columbus,OH,43228,United States,(614) 278-9281,39.971315,-83.122831,Monday: 10am - 7pm ~ Tuesday: Closed ~ Wed - Sat: 10am - 7pm ~ Sunday: 11am - 5pm,Warehouse,,
Easton Town Center,808,4047 Gramercy Street  Space A-125,,Columbus,OH,43219,United States,(614) 418-5760,40.051812,-82.914955,Mon - Thur: 10am - 9pm ~ Fri - Sat: 10am - 10pm ~ Sunday: 12pm - 6pm,AFA,,
Jeffersonville Outlet,407,8195 Factory Shops Blvd.,,Jeffersonville,OH,43128,United States,(740) 948-2177,39.619548,-83.602638,Mon - Sat: 9am - 9pm ~ Sunday: 10am - 7pm,Outlet,,
The Greene,999,4427 Glengarry Drive  Space C-122,,Beavercreek,OH,45440,United States,(937) 429-2213,39.693521,-84.102428,Mon - Sat: 10am - 9pm ~ Sunday: 12pm - 6pm,AFA,,
Liberty Center,774,7561 Bales Street,,Liberty Township,OH,45069,United States,(513) 755-4921,39.372088,-84.374795,Mon - Thur: 10am - 9pm ~ Fri - Sat: 10am - 10pm ~ Sunday: 12pm - 6pm,AFA,,
Ohio Station Outlets ? The Market Platform,894,9911 Avon Lake Road   330,,Burbank,OH,44214,United States,(330) 948-1529,41.002602,-81.996284,Mon - Sat: 10am - 9pm ~ Sunday: 10am - 6pm,Outlet,,
Kenwood Town Center,88,7875 Montgomery Road   2435,,Cincinnati,OH,45236,United States,(513) 984-0033,39.19991,-84.377664,Holiday Hours ~ Monday: 9am - 10pm ~ Tue - Fri: 10am - 9pm ~ Saturday: 10am - 6pm ~ Sunday: 12pm - 6pm,Apparel,,
Rookwood Commons,834,2663 Edmondson Road,,Cincinnati,OH,45209,United States,(513) 531-0400,39.148991,-84.444517,Mon - Sat: 10am - 9pm ~ Sunday: 12pm - 6pm,Apparel,,
Circle Center,432,49 West Maryland Street   D09,,Indianapolis,IN,46204,United States,(317) 632-4441,39.765685,-86.15904,Mon - Sat: 10am - 9pm ~ Sunday: 12pm - 6pm,AFA,,
Clay Terrace,950,14395 Clay Terrace Blvd  C28,,Carmel,IN,46032,United States,(317) 817-9338,39.997157,-86.129648,Mon - Sat: 10am - 9pm ~ Sunday: 11am - 6pm,AFA,,
Edinburgh Premium Outlets,414,3000 Outlet Drive  Space F120,,Edinburgh,IN,46124-9014,United States,(812) 526-9006,39.308026,-85.962739,Mon - Sat: 10am - 9pm ~ Sunday: 10am - 7pm,Outlet,,
Galleria at Roseville,843,1151 Galleria Blvd   133,,Roseville,CA,95678,United States,(916) 788-1140,38.77218,-121.26587,Holiday Hours ~ Mon - Fri: 10am - 9pm ~ Saturday: 8am - 10pm ~ Sunday: 11am - 7pm,AFA,,
Somerset Collection,36,2801 W Big Beaver Road Suite K256,,Troy,MI,48084,United States,(248) 649-2662,42.560099,-83.183419,Mon - Fri: 10am - 9pm ~ Saturday: 10am - 7pm ~ Sunday: 12pm - 6pm,AFA,,
Laurel Park,121,37552 West Six Mile Road,,Livonia,MI,48152,United States,(734) 462-9305,42.41095,-83.415017,Mon - Sat: 10am - 9pm ~ Sunday: 11am - 6pm,AFA,,
Mall at Partridge Creek,972,17420 Hall Road  SPC 133,,Clinton Township,MI,48038,United States,(586) 263-6917,42.627684,-82.947906,Mon - Sat: 10am - 9pm ~ Sunday: 11am - 6pm,AFA,,
Twelve Oaks Mall,42,27394 Novi Road   A203,,Novi,MI,48377,United States,(248) 348-4411,42.489528,-83.475963,Mon - Sat: 10am - 9pm ~ Sunday: 11am - 6pm,AFA,,
Village of Rochester,931,388 N Adams Road,,Rochester,MI,48309,United States,(248) 375-5960,42.685167,-83.194225,Mon - Sat: 10am - 9pm ~ Sunday: 12pm - 6pm,AFA,,
Great Lakes Crossing Outlet,763,4720 Baldwin Road   210,,Auburn Hills,MI,48326,United States,(248) 745-0512,42.702681,-83.306649,Holiday Hours ~ Mon - Sat: 10am - 9pm ~ Sunday: 11am - 6pm,Outlet,,
Briarwood Mall,92,204 Briarwood Circle    G145,,Ann Arbor,MI,48108,United States,(734) 761-5740,42.242773,-83.747326,Mon - Sat: 10am - 9pm ~ Sunday: 11am - 6pm,Apparel,,
Tanger Outlets-Kensington Valley,128,1475 North Burkhart Road   G340,,Howell,MI,48855,United States,(517) 552-9206,42.62105,-83.993452,Mon - Sat: 9am - 9pm ~ Sunday: 10am - 7pm,Outlet,,
Westfield Franklin Park,65,5001 Monroe Street Suite 1620,,Toledo,OH,43623,United States,(419) 471-1002,41.698138,-83.641943,Mon - Sat: 10am - 9pm ~ Sunday: 11am - 6pm,AFA,,
Birch Run Outlet,255,12150 South Beyer Rd.   F-20,,Birch Run,MI,48415,United States,(989) 624-6022,43.248269,-83.782106,Mon - Sat: 10am - 9pm ~ Sunday: 10am - 7pm,Outlet,,
Crocker Park,939,184 Main Street,,Westlake,OH,44145,United States,(440) 871-2910,41.457898,-81.951772,Mon - Sat: 10am - 9pm ~ Sunday: 11am - 6pm,AFA,,
University Village,427,2690 NE Village Lane,,Seattle,WA,98105-5025,United States,(206) 527-2646,47.662736,-122.29902,Mon - Sat: 9:30am - 9pm ~ Sunday: 11am - 6pm,AFA,,
Bellevue Square,9,1033 Bellevue Square Suite 118,,Bellevue,WA,98004,United States,(425) 453 0450,47.615673,-122.204475,Mon - Sat: 9:30am - 9:30pm ~ Sunday: 11am - 7pm,AFA,,
Northgate Mall,85,401 NE Northgate Way   720,,Seattle,WA,98125,United States,(206) 367-7767,47.708629,-122.324658,Mon - Sat: 10am - 9pm ~ Sunday: 11am - 7pm,Apparel,,
Westfield Southcenter,51,2800 Southcenter Mall Space  212,,Seattle,WA,98188,United States,(206)-246-2569,47.458711,-122.261215,Mon - Sat: 10am - 9pm ~ Sunday: 11am - 7pm,Apparel,,
Woodinville Outlet,818,13910 N.E. Mill Place,,Woodinville,WA,98072,United States,(425) 806-5557,47.758585,-122.156206,Mon - Sat: 9:30am - 9pm ~ Sunday: 10am - 7pm,Outlet,,
Alderwood Mall,84,3000 184th Street SW Space   294,,Lynnwood,WA,98037,United States,425-774-8678,47.830128,-122.272488,Mon - Sat: 10am - 9pm ~ Sunday: 11am - 7pm,AFA,,
Silverdale Outlet,314,9990 Mickelberry Road,,Silverdale,WA,98383,United States,(360) 698-9558,47.655271,-122.682294,Mon - Sat: 9:30am - 8pm ~ Sunday: 11am - 6pm,Outlet,,
The Outlet Collection Seattle,448,1101 Outlet Collection Way,,Auburn,WA,98001,United States,(253) 939-0525,47.296417,-122.245182,Mon - Sat: 10am - 9pm ~ Sunday: 11am - 6pm,Outlet,,
Factory Stores at North Bend,895,661 South Fork Avenue SW   4C,,North Bend,WA,98045,United States,(425) 831-3113,47.491043,-121.792341,Mon - Sat: 10am - 9pm ~ Sunday: 10am - 7pm,Outlet,,
Tacoma Mall,329,4502 South Steele Street   545,,Tacoma,WA,98409,United States,(253) 473-5530,47.217839,-122.467641,Mon - Sat: 10am - 9pm ~ Sunday: 11am - 7pm,Apparel,,
Seattle Premium Outlets,372,10600 Quil Ceda Blvd.   340,,Tulalip,WA,98271,United States,(360) 716-2714,48.091748,-122.185664,Mon - Sat: 10am - 9pm ~ Sunday: 10am - 7pm,Outlet,,
Cherry Creek,170,250 Columbine Street  150,,Denver,CO,80206,United States,(303) 377-2100,39.718025,-104.952175,Mon - Sat: 10am - 8pm ~ Sunday: 11am - 6pm,AFA,,
Colorado Mills,119,14500 W Colfax Ave  Space 160A,,Lakewood,CO,80401,United States,(720) 497-1481,39.73159,-105.15851,Mon - Sat: 10am - 9pm ~ Sunday: 11am - 6pm,Outlet,,
Southwest Plaza,28,8501 West Bowles Avenue  Space 1027,,Littleton,CO,80123,United States,(303) 979-6347,39.612122,-105.095776,Mon - Sat: 10am - 9pm ~ Sunday: 11am - 6pm,AFA,,
Aspen Grove,915,7301 S. Santa Fe Drive   420,,Littleton,CO,80120,United States,(303) 703-9777,39.585362,-105.02329,Mon - Sat: 10am - 9pm ~ Sunday: 11am - 6pm,AFA,,
Park Meadows,504,8445 Park Meadows Center Drive   1145,,Lone Tree,CO,80124,United States,(303) 649-9069,39.561494,-104.872453,Mon - Sat: 10am - 9pm ~ Sunday: 11am - 6pm,AFA,,
Orchard Town Center,994,14583 Orchard Parkway  Suite 600  Space 910,,Westminster,CO,80023,United States,(720) 929-0264,39.957895,-104.996555,Mon - Thur: 10am - 8pm ~ Fri - Sat: 10am - 9pm ~ Sunday: 11am - 6pm,Apparel,,
Flat Iron Crossing,860,1 W Flatiron Crossing Dr Space 1160,,Broomfield,CO,80021,United States,(720) 887-1928,39.932939,-105.132472,Holiday Hours ~ Mon - Fri: 10am - 9pm ~ Sat - Sun: 10am - 6pm,AFA,,
Main Street at Southlands,946,6290 S Main Street   105,,Aurora,CO,80016,United States,(303) 400-4744,39.602885,-104.708876,Mon - Sat: 10am - 9pm ~ Sunday: 11am - 6pm,Apparel,,
Castle Rock Outlet,724,5050 Factory Shops Blvd.   850,,Castle Rock,CO,80108,United States,(303) 814-3839,39.413777,-104.875109,Mon - Sat: 10am - 8pm ~ Sunday: 11am - 6pm,Outlet,,
29th Street,979,1750 29th Street  Suite  1032,,Boulder,CO,80301,United States,(303) 449-2025,40.017966,-105.255852,Mon - Sat: 10am - 9pm ~ Sunday: 11am - 6pm,AFA,,
The Shops at Centerra,938,5957 Sky Pond Drive  D100,,Loveland,CO,80537,United States,(970) 635-2664,40.410555,-104.98901,Mon - Sat: 10am - 9pm ~ Sunday: 12pm - 4pm,AFA,,
The Shops at Briargate,935,1845 Briargate Pkwy   411,,Colorado Springs,CO,80920,United States,(719) 265-6869,38.9647,-104.7948,Mon - Sat: 10am - 9pm ~ Sunday: Closed,Apparel,,
Silverthorne Outlet,496,145-A Stephens Way,,Silverthorne,CO,80498,United States,(970) 262-2920,39.627857,-106.06473,Mon - Fri: 9am - 8pm ~ Saturday: 9am - 6pm ~ Sunday: 10am - 6pm,Outlet,,
Capital Promenade,698,2525 4th Avenue West space 105,,Olympia,WA,98502,United States,(360) 943-0575,47.041504,-122.935259,Mon - Thur: 10am - 7pm ~ Fri - Sat: 10am - 8pm ~ Sunday: 11am - 6pm,Apparel,,
The Outlet Shoppes at Burlington,33,220 Fashion Way,,Burlington,WA,98233,United States,(360) 707-0334,48.457216,-122.335982,Mon - Sat: 9:30am - 8:30pm ~ Sunday: 10am - 7pm,Outlet,,
Centralia Outlet,423,1404 Lum Road,,Centralia,WA,98531,United States,(360) 736-3262,46.732648,-122.977639,Mon - Sat: 9am - 8pm ~ Sunday: 10am - 7pm,Outlet,,
Mayfair,178,638-3147 Douglas Street,,Victoria,BC,V8Z 6E3,Canada,(250) 383-1322,48.419534,-123.366373,Mon - Tue: 10am - 6pm ~ Wed - Fri: 10am - 9pm ~ Sat - Sun: 10am - 6pm,Apparel,,
Government Street,412,1254 Government Street,,Victoria,BC,V8W 1Y3,Canada,(250) 383-1964,48.426248,-123.367623,Mon - Wed: 10am - 6pm ~ Thur - Sat: 10am - 8pm ~ Sunday: 11am - 6pm,AFA,,
Legacy Place,102,242 Legacy Place,,Dedham,MA,02026,United States,(781) 326-4892,42.231893,-71.177205,Mon - Sat: 10am - 9pm ~ Sunday: 11am - 6pm,Apparel,,
Market Street at Lynnfield,22,1145 Market Street,,Lynnfield,MA,01940,United States,(781) 334-2169,42.515196,-71.032128,Mon - Sat: 10am - 9pm ~ Sunday: 11am - 6pm,AFA,,
Burlington Mall,73,75 Middlesex Turnpike Space 1068B,,Burlington,MA,01803,United States,781-273-2555,42.481127,-71.216752,Holiday Hours ~ Mon - Sat: 10am - 9pm ~ Sunday: 11am - 6pm,AFA,,
Natick Mall,123,1245 Worcester Road Suite 2050,,Natick,MA,01760,United States,(508) 655-2357,42.301885,-71.382578,Mon - Sat: 10am - 9pm ~ Sunday: 11am - 6pm,Apparel,,
Wrentham Village Premium Outlets,807,One Premium Outlets Blvd  Suite 640,,Wrentham,MA,02093,United States,(508) 384-0635,42.036198,-71.347056,Please call store for hours.,Outlet,,
Highland Commons,742,26 Highland Commons East,,Hudson,MA,01749,United States,(978) -562-3065,42.394787,-71.594826,Mon - Wed: 10am - 8pm ~ Thur - Sat: 10am - 9pm ~ Sunday: 11am - 6pm,Apparel,,
Kittery Outlet/Maine Gate Mall,274,280 US Route 1   5,,Kittery,ME,03904,United States,(207) 439-7749,43.103555,-70.743261,Mon - Thur: 9am - 6pm ~ Fri - Sat: 9am - 8pm ~ Sunday: 9am - 6pm,Outlet,,
Tanger Outlets at Foxwoods,452,455 Trolley Line Boulevard Suite  280,,Mashantucket,CT,06338,United States,(860) 383-2906,41.474049,-71.959587,Mon - Thur: 10am - 9pm ~ Fri - Sat: 10am - 11pm ~ Sunday: 10am - 9pm,Outlet,,
Tilton Outlet,495,120  Laconia Road    225,,Tilton,NH,03276,United States,(603) 286-7440,43.459063,-71.558458,Mon - Sat: 9am - 9pm ~ Sunday: 10am - 7pm,Outlet,,
The Promenade Shops at Evergreen Walk,934,200 Evergreen Way  232,,South Windsor,CT,06074,United States,(860) 648-9121,41.811727,-72.556512,Mon - Sat: 10am - 9pm ~ Sunday: 11am - 6pm,AFA,,
The Maine Mall,99,364 Maine Mall Road,,So. Portland,ME,04106,United States,(207) 775-6074,43.634831,-70.337418,Mon - Sat: 10am - 9pm ~ Sunday: 11am - 6pm,AFA,,
National Harbor,422,6800 Oxon Hill Road Suite 570,,Oxon Hill,MD,20745,United States,(301) 567-1199,38.797475,-77.002398,Mon - Sat: 9am - 9pm ~ Sunday: 10am - 7pm,Outlet,,
Tysons Corner,31,1961 Chain Bridge Road Space H5L,,McLean,VA,22102,United States,(703) 893-4483,38.91973,-77.226109,Mon - Sat: 10am - 9:30pm ~ Sunday: 11am - 7pm,AFA,,
Fair Oaks Mall,55,11715-U Fair Oaks Mall    J225,,Fairfax,VA,22033,United States,(703) 273-7728,38.861437,-77.354877,Mon - Sat: 10am - 9:30pm ~ Sunday: 11am - 6pm,Apparel,,
Mall in Columbia,175,10300 Little Patuxent Parkway   1860,,Columbia,MD,21044,United States,(410) 740-9540,39.21661,-76.857824,Mon - Sat: 10am - 9pm ~ Sunday: 11am - 6pm,AFA,,
Leesburg Corner Premium Outlets,871,241 Fort Evans Road NE   1257,,Leesburg,VA,20176,United States,(703) 771-9810,39.109725,-77.536512,Mon - Sat: 10am - 9pm ~ Sunday: 10am - 7pm,Outlet,,
Prime Outlets at Hagerstown,789,500 Prime Outlet Blvd,,Hagerstown,MD,21740,United States,(301) 393-5595,39.608219,-77.733238,Mon - Sat: 10am - 9pm ~ Sunday: 10am - 7pm,Outlet,,
The Outlet Shoppes at Gettysburg,5,1863 Gettysburg Village Drive    510,,Gettysburg,PA,17325,United States,(717) 334-7772,39.79594,-77.199436,Holiday Hours ~ Mon - Fri: 10am - 9pm ~ Saturday: 9am - 9pm ~ Sunday: 9am - 7pm,Outlet,,
Short Pump,933,11800 West Broad Street  1730,,Richmond,VA,23233,United States,(804) 360-5817,37.654327,-77.623365,Mon - Sat: 10am - 9pm ~ Sunday: 11am - 6pm,Apparel,,
Charlottesville Fashion Square,903,1607 Rio Road East,,Charlottesville,VA,22901,United States,(434) 973-8695,38.080064,-78.472843,Holiday Hours ~ Mon - Sat: 10am - 9pm ~ Sunday: 12pm - 6pm,Apparel,,
Penn Square,317,1901 Northwest Expressway   1022,,Oklahoma City,OK,73118,United States,(405) 848-9892,35.523066,-97.546228,Holiday Hours ~ Mon - Sat: 10am - 9pm ~ Sunday: Closed,Apparel,,
Sooner Mall,844,3305 West Main Street,,Norman,OK,73072,United States,(405) 307-0554,35.21847,-97.491775,Mon - Sat: 10am - 9pm ~ Sunday: 12pm - 6pm,Apparel,,
Outlet Shoppes of the Bluegrass,224,1155 Buck Creek Rd  Suite D-406,,Simpsonville,KY,40067,United States,(502) 722-8579,38.195615,-85.344054,Mon - Sat: 10am - 9pm ~ Sunday: 10am - 7pm,Outlet,,
Fayette Mall,759,3555 Nicholasville Rd Suite 922,,Lexington,KY,40503,United States,(859) 245-4608,37.987914,-84.528035,Mon - Sat: 10am - 9pm ~ Sunday: 12pm - 6pm,AFA,,
Pioneer Place,139,700 SW 5th Ave Suite  3045,,Portland,OR,97204,United States,(503) 225-0213,45.518344,-122.675962,Mon - Sat: 10am - 8pm ~ Sunday: 11am - 6pm,AFA,,
Clackamas Town Center,26,12000 SE 82nd Avenue  Suite 2076,,Happy Valley,OR,97086,United States,(503) 653-8430,45.436079,-122.573827,Mon - Sat: 10am - 9pm ~ Sunday: 11am - 7pm,AFA,,
Columbia Gorge Premium Outlets,370,450 NW 257th Ave.   200,,Troutdale,OR,97060,United States,(503) 665-5933,45.544365,-122.389315,Mon - Sat: 10am - 9pm ~ Sunday: 10am - 7pm,Outlet,,
Woodburn Outlet,817,1001 Arney Road   600,,Woodburn,OR,97071,United States,(503) 981-4197,45.1545,-122.8778,Mon - Sat: 10am - 9pm ~ Sunday: 10am - 7pm,Outlet,,
Seaside Factory Outlet Center,219,1111 North Roosevelt  Space  100,,Seaside,OR,97138,United States,(503) 738-2036,46.000969,-123.917349,Mon - Sat: 10am - 8pm ~ Sunday: 10am - 6pm,Outlet,,
Lincoln City Outlet,153,1500 S.E. East Devils Lake Road    312,,Lincoln City,OR,97367,United States,(541) 994-2220,44.959293,-124.012494,Mon - Sat: 10am - 8pm ~ Sunday: 10am - 6pm,Outlet,,
Outlet Village of Lebanon,768,230 Outlet Village Blvd.,,Lebanon,TN,37090,United States,(615) 453-6928,36.178353,-86.303115,Mon - Sat: 10am - 9pm ~ Sunday: 10am - 7pm,Outlet,,
ABQ Uptown,985,2240 Q Street   10H,,Albuquerque,NM,87110,United States,(505) 881-8400,35.103013,-106.567186,Mon - Sat: 10am - 9pm ~ Sunday: 11am - 6pm,AFA,,
Cottonwood Mall,436,10000 Coors Blvd. Bypass   C-15,,Albuquerque,NM,87114,United States,(505) 890-4936,35.196054,-106.6588,Mon - Sat: 10am - 9pm ~ Sunday: 11am - 6pm,AFA,,
Santa Fe Premium Outlets,268,8380 Cerrillos Road,,Santa Fe,NM,87507,United States,(505) 424-4443,35.613925,-106.032688,Mon - Sat: 10am - 7pm ~ Sunday: 11am - 6pm,Outlet,,
Johnson Creek Premium Outlets,737,595 W. Linmar Lane   B-40,,Johnson Creek,WI,53038,United States,(920) 699-4145,43.089833,-88.762249,Holiday Hours ~ Mon - Sat: 10am - 9pm ~ Sunday: 12pm - 7pm,Outlet,,
The Outlet Shops at Oshkosh,214,3001 South Washburn   E-80,,Oshkosh,WI,54901-6620,United States,(920) 426-5011,43.983184,-88.583298,Mon - Sat: 10am - 9pm ~ Sunday: 10am - 6pm,Outlet,,
West Towne,151,66 West Towne Mall Space  D2A,,Madison,WI,53719,United States,(608) 833-7300,43.058504,-89.509178,Holiday Hours ~ Mon - Sat: 10am - 9pm ~ Sunday: 11am - 6pm,AFA,,
Fox River,301,4301 West Wisconsin Ave.  128,,Appleton,WI,54915,United States,(920) 380-0253,44.269672,-88.470068,Mon - Sat: 10am - 9pm ~ Sunday: 10am - 6pm,Apparel,,
Fig Garden Village,782,738 West Shaw Avenue,,Fresno,CA,93704,United States,(559) 244-6440,36.808466,-119.807604,Mon - Sat: 10am - 7pm ~ Sunday: 11am - 6pm,AFA,,
Preferred Outlets at Tulare,293,1789 Retherford Street   E110,,Tulare,CA,93274,United States,(559) 688-0341,36.232443,-119.335385,Mon - Sat: 10am - 9pm ~ Sunday: 10am - 7pm,Outlet,,
Avenue at East Cobb,947,4475 Roswell Road  300,,Marietta,GA,30062,United States,(770) 578-8792,33.986588,-84.421541,Mon - Sat: 10am - 9pm ~ Sunday: 12pm - 6pm,Apparel,,
Avenue at West Cobb,975,3625 Dallas Hwy SW   860,,Marietta,GA,30064,United States,(770) 250-0002,33.953413,-84.658323,Mon - Sat: 10am - 9pm ~ Sunday: 12pm - 6pm,Apparel,,
Sugarloaf Mills,240,5900 Sugarloaf Parkway   280,,Lawrenceville,GA,30043,United States,(678) 847-5484,33.984907,-84.078468,Mon - Sat: 10am - 9pm ~ Sunday: 12pm - 6pm,Outlet,,
Outlet Shops at Atlanta,795,915 Ridgewalk Pkwy Suite Suite 620,,Woodstock,GA,30188,United States,(770) 926-1991,34.119628,-84.526869,Mon - Sat: 10am - 9pm ~ Sunday: 11am - 7pm,Outlet,,
North Georgia Premium Outlets,838,800 Highway 400 South    835,,Dawsonville,GA,30534,United States,(706) 216-8732,34.35703,-84.045526,Mon - Sat: 10am - 9pm ~ Sunday: 11am - 7pm,Outlet,,
Commerce Outlet,438,800 Steven B Tanger Blvd.    809,,Commerce,GA,30529,United States,(706) 335-3281,34.25036,-83.172362,Mon - Sat: 9am - 9pm ~ Sunday: 10am - 7pm,Outlet,,
Hamilton Place,449,2115 Gunbarrel Road,,Chattanooga,TN,37421,United States,(423) 510-8250,35.034219,-85.153337,Mon - Sat: 10am - 9pm ~ Sunday: 12pm - 6pm,AFA,,
Country Club Plaza,310,436 Nichols Rd,,Kansas City,MO,64112,United States,(816) 756-5390,39.041221,-94.592314,Mon - Wed: 10am - 8pm ~ Thursday: 10am - 9pm ~ Fri - Sat: 10am - 8pm ~ Sunday: 12pm - 5pm,Apparel,,
Oak Park,294,11231 W. 95TH Street,,Overland Park,KS,66214,United States,(913) 894-5333,38.95645,-94.71895,Mon - Sat: 10am - 9pm ~ Sunday: 11am - 6pm,Apparel,,
Legends Outlets,786,1813 Village West Pkwy  Q-116,,Kansas City,KS,66111,United States,(913) 328-0143,39.126341,-94.823083,Mon - Sat: 10am - 9pm ~ Sunday: 11am - 6pm,Outlet,,
West Ridge Mall,663,1801 SW Wanamaker Road   D-13,,Topeka,KS,66604,United States,(785) 228-1627,39.033906,-95.762066,Mon - Sat: 10am - 9pm ~ Sunday: 12pm - 6pm,Apparel,,
MacArthur Center,802,300 East Monticello Ave   206,,Norfolk,VA,23510,United States,(757) 623-3552,36.849673,-76.289641,Holiday Hours ~ Mon - Sat: 10am - 9pm ~ Sunday: 12pm - 6pm,AFA,,
Williamsburg Outlet,223,5715-E075 Richmond Road Suite,,Williamsburg,VA,23188,United States,(757) 565-3758,37.320612,-76.735907,Mon - Sat: 10am - 9pm ~ Sunday: 10am - 7pm,Outlet,,
Nags Head Outlet,477,7100 South Croatan Hwy   20,,Nags Head,NC,27959,United States,(252) 441-1424,35.91249,-75.601015,Mon - Sat: 9am - 9pm ~ Sunday: 10am - 7pm,Outlet,,
One Pacific Place,321,10323 Pacific Street,,Omaha,NE,68114,United States,(402) 398-1177,41.248703,-96.073717,Mon - Sat: 10am - 8pm ~ Sunday: 11am - 5pm,Apparel,,
Nebraska Crossing,217,21323 Nebraska Crossing Dr. Ste G-117,,Gretna,NE,68028,United States,(402) 332-5596,41.140455,-96.243684,Mon - Sat: 10am - 9pm ~ Sunday: 11am - 6pm,Outlet,,
Gateway Mall,472,6100 East O Street   45,,Lincoln,NE,68505,United States,(402) 464-2121,40.813461,-96.638216,Mon - Sat: 10am - 9pm ~ Sunday: 12pm - 6pm,AFA,,
Southern Hills Mall,650,4400 Sergeant Road   108,,Sioux City,IA,51106,United States,(712) 274-9724,42.44814,-96.350234,Mon - Sat: 10am - 9pm ~ Sunday: 12pm - 6pm,Apparel,,
Carolina Premium Outlets,244,1239 Industrial Park Drive,,Smithfield,NC,27577,United States,(919) 989-8570,35.511313,-78.307477,Mon - Sat: 10am - 9pm ~ Sunday: 11am - 7pm,Outlet,,
Aurora Farms Premium Outlets,278,549 S Chillicothe Road  630,,Aurora,OH,44202,United States,(330) 562-1730,41.302485,-81.345593,Mon - Sat: 10am - 9pm ~ Sunday: 10am - 7pm,Outlet,,
Summit Mall,529,3265 W. Market St  Space 430,,Fairlawn,OH,44333,United States,(330) 836-1350,41.132433,-81.618801,Mon - Sat: 10am - 9pm ~ Sunday: 11am - 6pm,AFA,,
Grove City Outlet,497,1911 Leesburg Road  900,,Grove City,PA,16127,United States,(724) 748-5757,41.143429,-80.158251,Mon - Sat: 10am - 9pm ~ Sunday: 10am - 7pm,Outlet,,
Millcreek Mall,855,135 Millcreek Mall,,Erie,PA,16565,United States,(814) 864-9894,42.072052,-80.100164,Mon - Sat: 10am - 9pm ~ Sunday: 11am - 6pm,AFA,,
Woodland Hills,309,7021 South Memorial Drive   212,,Tulsa,OK,74133,United States,(918) 252-0200,36.061883,-95.886266,Mon - Sat: 10am - 9pm ~ Sunday: 12pm - 7pm,Apparel,,
Southdale Center,23,2214 Southdale Center,,Edina,MN,55435,United States,(952) 925-1225,44.883012,-93.324528,Mon - Sat: 10am - 9pm ~ Sunday: 11am - 6pm,AFA,,
Ridgedale Center,40,12715 Wayzata Blvd  2280,,Minnetonka,MN,55305,United States,(952) 593-9111,44.970512,-93.440061,Mon - Sat: 10am - 9pm ~ Sunday: 11am - 6pm,AFA,,
Mall of America,291,214 South Avenue,,Bloomington,MN,55425,United States,(952) 851-0727,44.853922,-93.243759,Mon - Fri: 10am - 9:30pm ~ Saturday: 9:30am - 9:30pm ~ Sunday: 11am - 7pm,AFA,,
Eden Prairie,911,1136 Eden Prairie Center,,Eden Prairie,MN,55344,United States,(952) 942-9400,44.856986,-93.421832,Mon - Sat: 10am - 9pm ~ Sunday: 11am - 6pm,AFA,,
Twin Cities Premium Outlets,226,3945 Eagan Outlets Pkwy Ste 1030,,Eagan,MN,55122,United States,651-452-8785,44.815059,-93.21407,Mon - Sat: 10am - 9pm ~ Sunday: 10am - 7pm,Outlet,,
Burnsville Center,76,2060 Burnsville Center,,Burnsville,MN,55306,United States,(952) 892-6868,44.745009,-93.284754,Mon - Sat: 10am - 9pm ~ Sunday: 11am - 6pm,AFA,,
Woodbury Lakes,953,9040 Hudson Road   208,,Woodbury,MN,55125,United States,(651) 855-0385,44.945647,-92.921391,Mon - Sat: 10am - 9pm ~ Sunday: 11am - 6pm,AFA,,
Albertville Premium Outlets,826,6415 Labeaux NE   B290,,Albertville,MN,55301,United States,(763) 497-5458,45.244556,-93.663402,Mon - Sat: 10am - 9pm ~ Sunday: 10am - 7pm,Outlet,,
Medford Outlet,44,6750 West Frontage Road   321,,Medford,MN,55049,United States,(507) 446-5866,44.168682,-93.259194,Holiday Hours ~ Monday: 10am - 6pm ~ Tue - Sat: 10am - 8pm ~ Sunday: 11am - 6pm,Outlet,,
Oakwood Mall,397,4800 Golf Road   822,,Eau Claire,WI,54701,United States,(715) 838-0880,44.774766,-91.437649,Mon - Sat: 10am - 9pm ~ Sunday: 11am - 6pm,Apparel,,
Bradley Fair,375,1900 N. Rock Rd Space  136,,Wichita,KS,67206,United States,(316) 634-0215,37.720181,-97.244576,Mon - Sat: 10am - 9pm ~ Sunday: 12pm - 6pm,AFA,,
New Market Sq Outlet,237,2441 North Maize Road   805,,Wichita,KS,67205,United States,(316) 721-0951,37.727117,-97.462558,Mon - Sat: 10am - 9pm ~ Sunday: 12pm - 6pm,Outlet,,
Citrus Park Town Center,787,7911 Citrus Park Town Center Mall   520,,Tampa,FL,33625,United States,(813) 926-4990,28.066441,-82.57655,Mon - Sat: 10am - 9pm ~ Sunday: 12pm - 6pm,Apparel,,
Lake Buena Vista Factory Stores,280,15813 State Road 535,,Orlando,FL,32821,United States,(407) 465-8621,28.34769,-81.48813,Mon - Sat: 10am - 9pm ~ Sunday: 10am - 7pm,Outlet,,
Saint Louis Galleria,251,1115 St Louis Galleria Space 1113,,St. Louis,MO,63117,United States,(314) 721-1272,38.637597,-90.347628,Mon - Sat: 10am - 9pm ~ Sunday: 11am - 6pm,AFA,,
West County Center,104,18 West County Center   1050,,Des Peres,MO,63131,United States,(314) 965-6462,38.602556,-90.448493,Mon - Sat: 10am - 9pm ~ Sunday: 11am - 6pm,AFA,,
Chesterfield Mall,94,255 Chesterfield Mall Drive   640,,Chesterfield,MO,63017,United States,(636) 537-9721,38.649585,-90.564053,Mon - Sat: 10am - 9pm ~ Sunday: 11am - 6pm,Apparel,,
St. Louis Premium Outlets,387,18501 Outlet Blvd. Suite 300,,Chesterfield,MO,63005,United States,636-778-2245,38.675392,-90.660639,Mon - Sat: 10am - 9pm ~ Sunday: 10am - 7pm,Outlet,,
Ross Park Mall,71,1000 Ross Park Mall Drive Suite H14A,,Pittsburgh,PA,15237,United States,(412) 367-5793,40.544569,-80.008751,Mon - Sat: 10am - 9pm ~ Sunday: 11am - 6pm,AFA,,
South Hills Village,70,301 S. Hills Village Space  1340,,Bethel Park,PA,15241,United States,(412) 831-1059,40.342957,-80.057092,Mon - Sat: 10am - 9pm ~ Sunday: 11am - 6pm,Apparel,,
Tanger at Pittsburgh,356,2200 Tanger Blvd. suite 805,,Washington,PA,15301-7922,United States,(724) 228-6435,40.218798,-80.210667,Mon - Sat: 9am - 9pm ~ Sunday: 10am - 7pm,Outlet,,
Logan Valley Mall,761,5580 Goods Lane Ste 2127,,Altoona,PA,16602,United States,(814) 949-9320,40.469331,-78.411373,Mon - Sat: 10am - 9pm ~ Sunday: 12pm - 6pm,Apparel,,
Anchorage 5th Avenue Mall,111,320 West 5th Ave  Ste  C44A,,Anchorage,AK,99501,United States,(907) 279-6606,61.217563,-149.888762,Mon - Sat: 10am - 9pm ~ Sunday: 11am - 6pm,AFA,,
Valley View Mall,518,4802 Valley View Blvd.   LB50,,Roanoke,VA,24012,United States,(540) 366-6911,37.3092,-79.9634,Mon - Sat: 10am - 9pm ~ Sunday: 12pm - 6pm,AFA,,
Jefferson Point,925,4220 West Jefferson Blvd   O-6,,Ft. Wayne,IN,46804,United States,(260) 434-1137,41.069934,-85.195449,Mon - Sat: 10am - 9pm ~ Sunday: 12pm - 5pm,AFA,,
Walden Galleria,112,1 Walden Galleria Space TH152,,Buffalo,NY,14225,United States,(716) 681-2170,42.914034,-78.762789,Mon - Sat: 10am - 9:30pm ~ Sunday: 11am - 6pm,AFA,,
Niagara Falls Outlet,421,1900 Military Road,,Niagara Falls,NY,14304,United States,(716) 297-5770,43.09875,-78.976481,Mon - Sat: 10am - 9pm ~ Sunday: 10am - 6pm,Outlet,,
The Outlet Collection at Niagara,264,300 Taylor Rd Unit  317 Bldg 300,,Niagara on the Lake,ON,L0S 1J0,Canada,(905) 682-9217,43.157522,-79.168131,Holiday Hours ~ Mon - Thur: 10am - 9pm ~ Friday: 10am - 6pm ~ Saturday: 10am - 9pm ~ Sunday: 10am - 6pm,Outlet,,
Lime Ridge,918,999 Upper Wentworth Street   411,,Hamilton,ON,L9A 4X5,Canada,(905) 574-2066,43.216898,-79.864569,Mon - Fri: 10am - 9pm ~ Saturday: 9:30am - 7pm ~ Sunday: 11am - 6pm,AFA,,
Toronto Eaton Centre,991,220 Yonge Street  A046B,,Toronto,ON,M5B 2H6,Canada,(416) 642-0638,43.653289,-79.379605,Holiday Hours ~ Mon - Thur: 10am - 9:30pm ~ Friday: 10am - 6pm ~ Saturday: 9:30am - 9:30pm ~ Sunday: 12pm - 5pm,Apparel,,
Sherway Gardens,30,25 The West Mall   1051,,Etobicoke,ON,M9C 1B8,Canada,(416) 622-9531,43.610471,-79.561445,Mon - Fri: 10am - 9pm ~ Saturday: 9:30am - 9pm ~ Sunday: 11am - 6pm,AFA,,
Square One Centre,990,100 City Centre Dr,,Mississauga,ON,L5B 2C9,Canada,(905) 366-0086,43.59024,-79.641458,Mon - Fri: 10am - 9pm ~ Saturday: 9:30am - 9pm ~ Sunday: 11am - 7pm,AFA,,
Shops at Don Mills,520,32 Karl Fraser Road CRU J10,,North York,ON,M3C 0E8,Canada,(416) 640-2291,43.733814,-79.344775,Mon - Thur: 10am - 9pm ~ Friday: 10am - 7pm ~ Saturday: 9:30am - 7pm ~ Sunday: 11am - 6pm,AFA,,
Fairview Mall,75,1800 Sheppard Ave. E.   1012,,Willowdale,ON,M2J 5A7,Canada,(416) 490-9444,43.775492,-79.345215,Mon - Fri: 10am - 9pm ~ Saturday: 9:30am - 9pm ~ Sunday: 11am - 7pm,AFA,,
Toronto Premium Outlets,499,13850 Steeles Avenue West  Suite 300,,Halton Hills,ON,L7G 0J1,Canada,(905) -875-3512,43.577338,-79.830454,Mon - Fri: 10am - 9pm ~ Saturday: 9:30am - 9pm ~ Sunday: 11am - 7pm,Outlet,,
Oshawa Centre,827,419 King Street West,,Oshawa,ON,L1J 2K5,Canada,(905) 436-9800,43.89401,-78.879187,Mon - Sat: 9:30am - 9pm ~ Sunday: 11am - 6pm,AFA,,
Markville Shopping Centre,221,5000 Hwy 7 E.  325A,,Markham,ON,L3R 4M9,Canada,(905) 513-6969,43.866258,-79.288483,Mon - Fri: 10am - 9pm ~ Saturday: 9:30am - 6pm ~ Sunday: Closed,AFA,,
Vaughan Mills,233,1 Bass Pro Mills Dr Ste 713,,Vaughan,ON,L4K 5W4,Canada,(905) 738-8755,43.825477,-79.5386,Mon - Sat: 10am - 9pm ~ Sunday: 11am - 7pm,Outlet,,
Eastview Mall,456,781 Eastview Mall   159,,Victor,NY,14564,United States,(585) 425-9860,43.025544,-77.443915,Mon - Sat: 10am - 9:30pm ~ Sunday: 11am - 6pm,AFA,,
Upper Canada Mall,954,17600 Yonge Street   DD16,,Newmarket,ON,L3Y 4Z1,Canada,(905) 836-5614,44.056943,-79.480903,Mon - Fri: 10am - 9pm ~ Saturday: 9am - 6pm ~ Sunday: 11am - 6pm,AFA,,
Tanger Outlets Cookstown,101,3311 Simcoe Road 89 Ste  H40,,Cookstown,ON,L0L 1L0,Canada,(705) 458-4238,44.202001,-79.647489,Mon - Sat: 9:30am - 9pm ~ Sunday: 10am - 6pm,Outlet,,
Waterloo Premium Outlets,673,655 State Route 318    95,,Waterloo,NY,13165,United States,(315) 539-3696,42.954217,-76.921337,Mon - Thur: 10am - 7pm ~ Friday: 10am - 9pm ~ Saturday: 9am - 9pm ~ Sunday: 10am - 6pm,Outlet,,
The Crossroads,201,6650 S. Westnedge   136,,Portage,MI,49024,United States,(269) 324-9199,42.220941,-85.58949,Mon - Sat: 10am - 9pm ~ Sunday: 12pm - 6pm,AFA,,
South Plains,307,6002 Slide Road   F-8,,Lubbock,TX,79414,United States,(806) 785-8777,33.539637,-101.922364,Mon - Sat: 10am - 9pm ~ Sunday: 12pm - 6pm,AFA,,
Tanger Outlet-Wisconsin Dells,311,210 Gasser Road   581,,Baraboo,WI,53913,United States,(608) 253-4827,43.57566,-89.785279,Holiday Hours ~ Mon - Thur: 10am - 6pm ~ Fri - Sat: 10am - 9pm ~ Sunday: 11am - 5pm,Outlet,,
Meadowood Mall,250,5108 Meadowood Mall Circle,,Reno,NV,89502,United States,(775) 827-9222,39.473018,-119.786113,Mon - Sat: 10am - 9pm ~ Sunday: 11am - 7pm,AFA,,
Boise Town Square,155,350 N. Milwaukee     1321,,Boise,ID,83704,United States,(208) 375-0031,43.60822,-116.283971,Mon - Sat: 10am - 9pm ~ Sunday: 11am - 7pm,AFA,,
Boise Factory Outlet,249,6954 South Eisenman Road,,Boise,ID,83716,United States,(208) 344-4883,43.539486,-116.163532,Mon - Sat: 10am - 8pm ~ Sunday: 11am - 6pm,Outlet,,
Quinte Mall,993,390 North Front Street   D11,,Belleville,ON,K8P 3E1,Canada,(613) 969-9076,44.188308,-77.39635,Mon - Fri: 9:30am - 9pm ~ Saturday: 9:30am - 6pm ~ Sunday: 11am - 5pm,AFA,,
Destiny USA Outlet,334,306 Hiawatha Blvd. W  Space J217,,Syracuse,NY,13204,United States,(315) 479-1507,43.068628,-76.171467,Mon - Sat: 10am - 9:30pm ~ Sunday: 11am - 6pm,Outlet,,
The Outlets Shops of Grand River,248,6200 Grand River Blvd E Ste 118,,Leeds,AL,35094,United States,(205) 699-5670,33.548686,-86.596208,Mon - Sat: 10am - 9pm ~ Sunday: 12pm - 6pm,Outlet,,
Spokane Valley Outlet,90,15635 E Broadway,,Veradale,WA,99037,United States,(509) 927-4334,47.66431,-117.194567,Mon - Sat: 9:30am - 8pm ~ Sunday: 11am - 6pm,Outlet,,
Nez Perce Plaza,458,2634 Nez Perce Drive,,Lewiston,ID,83501,United States,(208) 746-0918,46.400624,-116.995302,Mon - Sat: 10am - 8pm ~ Sunday: 11am - 7pm,Outlet,,
Valley West Mall,326,1551 Valley West Drive   110,,West Des Moines,IA,50266,United States,(515) 221-0204,41.59548,-93.751716,Mon - Sat: 10am - 9pm ~ Sunday: 11am - 6pm,AFA,,
North Grand Mall,378,2801 Grand Avenue,,Ames,IA,50010,United States,(515) 233-0669,42.049382,-93.620636,Mon - Sat: 10am - 9pm ~ Sunday: 12pm - 5pm,Apparel,,
Tanger Outlets -Williamsburg,892,236 Tanger Drive,,Williamsburg,IA,52361-9611,United States,(319) 668-2661,41.689692,-92.004202,Mon - Sat: 9am - 9pm ~ Sunday: 10am - 7pm,Outlet,,
Mayfaire Town Center,977,6819 Main Street,,Wilmington,NC,28405,United States,(910) 256-6220,34.242562,-77.831741,Mon - Sat: 10am - 9pm ~ Sunday: 12pm - 6pm,AFA,,
Myrtle Beach Outlet,764,4620 Factory Store Blvd   N-100,,Myrtle Beach,SC,29579,United States,(843) 903-1024,33.750342,-78.958394,Mon - Sat: 9am - 9pm ~ Sunday: 10am - 7pm,Outlet,,
Shoppes at Grand Prairie,948,5201 W War Memorial Dr   475,,Peoria,IL,61615,United States,(309) 691-2601,40.776615,-89.674879,Mon - Sat: 10am - 9pm ~ Sunday: 11am - 6pm,AFA,,
Westgate,376,7701 West Interstate 40   348,,Amarillo,TX,79121,United States,(806) 352-0456,35.186416,-101.925417,Mon - Sat: 10am - 9pm ~ Sunday: 12pm - 6pm,AFA,,
Park Plaza,323,6000 W. Markham Street   3058,,Little Rock,AR,72205,United States,(501) 660-4555,34.752105,-92.340613,Mon - Sat: 10am - 9pm ~ Sunday: 12pm - 6pm,Apparel,,
Tanger Outlet at Foley,893,2601 South McKenzie Street Suite 260,,Foley,AL,36535,United States,(251) 943-5110,30.370153,-87.683312,Mon - Sat: 9am - 9pm ~ Sunday: 10am - 7pm,Outlet,,
Silver Sands Factory Stores,242,10562 Emerald Coast Parkway Space 10-14,,Destin,FL,32550,United States,(850) 650-9190,30.387075,-86.444206,Mon - Sat: 10am - 9pm ~ Sunday: 10am - 6pm,Outlet,,
Rivertown,803,3700 Rivertown Parkway  Space 1040,,Grandville,MI,49418,United States,(616) 534-6850,42.8823,-85.755187,Mon - Sat: 10am - 9pm ~ Sunday: 11am - 6pm,AFA,,
Fashion Place,117,6117 South State Street  1960,,Murray,UT,84109,United States,(801) 265-0120,40.636528,-111.889238,Mon - Sat: 10am - 9pm ~ Sunday: 12pm - 6pm,AFA,,
Park City Outlet,386,6699 N. Landmark Drive,,Park City,UT,84098,United States,(435) 647-0669,40.72986,-111.549589,Mon - Sat: 9am - 9pm ~ Sunday: 10am - 7pm,Outlet,,
Traverse Mountain,245,3700 N. Cabelas Blvd Space   440,,Lehi,UT,84043,United States,(801) 901-1920,40.435037,-111.88406,Mon - Sat: 10am - 9pm ~ Sunday: 11am - 6pm,Outlet,,
Newgate Mall,740,3651 Wall Ave  1212,,Ogden,UT,84405,United States,(801) 392-2477,41.196949,-111.979401,Mon - Sat: 10am - 9pm ~ Sunday: 12pm - 6pm,AFA,,
University Mall,835,575 East University Parkway   N231,,Orem,UT,84097,United States,(801) 426-6950,40.273408,-111.681502,Mon - Sat: 10am - 9pm ~ Sunday: Closed,Apparel,,
West Town,341,7600 Kingston Pike   1124,,Knoxville,TN,37919,United States,(865) 690-5707,35.928202,-84.037391,Mon - Sat: 10am - 9pm ~ Sunday: 12pm - 6pm,Apparel,,
Five Oaks Outlet,846,1645 Parkway   1140,,Sevierville,TN,37862,United States,(865) 774-1965,35.83302,-83.572815,Mon - Thur: 10am - 7pm ~ Friday: 10am - 9pm ~ Saturday: 10am - 8pm ~ Sunday: 10am - 7pm,Outlet,,
Lee Premium Outlets,234,270 Premium Outlets Blvd.,,Lee,MA,01238,United States,(413) 243-6149,42.296867,-73.235323,Mon - Sat: 10am - 9pm ~ Sunday: 10am - 7pm,Outlet,,
Manchester Designer Outlets,247,135 Depot Street  82,,Manchester Center,VT,05255,United States,(802) 362-0785,43.175724,-73.054886,Mon - Sat: 10am - 6pm ~ Sunday: 10am - 5pm,Outlet,,
Rio Grande Valley Premium Outlets,383,5001 East Expressway 83  Bldg 8   820,,Mercedes,TX,78570,United States,(956) 565-5645,26.159513,-97.886745,Mon - Sat: 10am - 9pm ~ Sunday: 11am - 7pm,Outlet,,
Miromar Outlet,464,10801 Corkscrew Rd. Suite 82,,Estero,FL,33928,United States,(239) 949-9188,26.436239,-81.774694,Mon - Sat: 10am - 9pm ~ Sunday: 11am - 6pm,Outlet,,
Empire Mall,662,1580 W Empire Mall,,Sioux Falls,SD,57106,United States,(605) 361-7770,43.5111,-96.7713,Mon - Sat: 10am - 9pm ~ Sunday: 12pm - 6pm,AFA,,
Tanger Outlet at Branson,832,300 Tanger Blvd   313,,Branson,MO,65616,United States,(417) 336-3281,36.643456,-93.264409,Holiday Hours ~ Mon - Sat: 9am - 9pm ~ Sunday: 11am - 6pm,Outlet,,
Osage Beach Premium Outlets,18,4540 Highway 54   J-1,,Osage Beach,MO,65065,United States,(573) 348-0053,38.146511,-92.625001,Mon - Sat: 10am - 9pm ~ Sunday: 10am - 7pm,Outlet,,
Pinnacle Hills,482,2203 Promenade Blvd    9120,,Rogers,AR,72758,United States,(479) 621-7971,36.305283,-94.179033,Mon - Sat: 10am - 9pm ~ Sunday: 12pm - 6pm,Apparel,,
Bend Outlet,256,61334 South Highway 97   210,,Bend,OR,97702,United States,(541) 383-1928,44.027901,-121.313257,Mon - Sat: 9:30am - 8pm ~ Sunday: 10am - 6pm,Outlet,,
Northway Mall,266,1440 Central Avenue,,Colonie,NY,12205,United States,(518) 482-4569,42.707855,-73.821673,Mon - Sat: 10am - 9pm ~ Sunday: 11am - 6pm,Outlet,,
Saratoga Springs,692,338 Broadway,,Saratoga Springs,NY,12866,United States,(518) 581-8001,43.079978,-73.785841,Mon - Sat: 10am - 9pm ~ Sunday: 11am - 6pm,Apparel,,
Oakdale Mall,396,601-635 Harry L Drive  Space 81A,,Johnson City,NY,13790-1251,United States,(607) 798-0100,42.124533,-75.973301,Mon - Sat: 10am - 9pm ~ Sunday: 11am - 7pm,Apparel,,
Hilton Head Outlet,225,1414 Fording Island Road  G140,,Bluffton,SC,29910,United States,(843) 837-6188,32.240993,-80.819422,Mon - Sat: 9am - 9pm ~ Sunday: 10am - 7pm,Outlet,,
Tanger at Charleston Outlet,324,4840 Tanger Outlet Blvd   801,,North Charleston,SC,29418,United States,(843) 529-2750,32.874394,-80.016322,Holiday Hours ~ Mon - Thur: 9am - 9pm ~ Friday: 9am - 10pm ~ Saturday: 9am - 8pm ~ Sunday: 10am - 7pm,Outlet,,
Lindale Mall,380,4444 First Ave N.E. Space  124,,Cedar Rapids,IA,52402,United States,(319) 378-0051,42.025518,-91.627213,Mon - Sat: 10am - 9pm ~ Sunday: 12pm - 6pm,Apparel,,
Coral Ridge Mall,752,1451 Coral Ridge Ave.   232,,Coralville,IA,52241,United States,(319) 338-9740,41.691184,-91.60841,Mon - Sat: 10am - 9pm ~ Sunday: 11am - 6pm,AFA,,
Columbia Mall,681,2300 Bernadette Drive   432,,Columbia,MO,65203,United States,(573) 446-2901,38.96585,-92.374135,Holiday Hours ~ Mon - Sat: 10am - 9pm ~ Sunday: Closed,Apparel,,
West Acres Mall,461,3902  13th Avenue SW   4228,,Fargo,ND,58103,United States,(701) 281-0459,46.861597,-96.84655,Mon - Sat: 10am - 9pm ~ Sunday: 12pm - 6pm,AFA,,
Columbia Mall,393,2800 Columbia Road   251,,Grand Forks,ND,58201,United States,(701) 772-8211,47.892084,-97.066646,Mon - Sat: 10am - 9pm ~ Sunday: 12pm - 6pm,Apparel,,
Settler's Green Outlet,263,2 Common Court    2,,North Conway,NH,03860,United States,(603) 356-5160,44.024145,-71.109673,Mon - Thur: 9am - 6pm ~ Fri - Sat: 9am - 9pm ~ Sunday: 10am - 6pm,Outlet,,
Rimrock Mall,379,300 South 24th Street West,,Billings,MT,59102,United States,(406) 655-9218,45.764681,-108.576239,Mon - Sat: 10am - 9pm ~ Sunday: 12pm - 6pm,AFA,,
Grandview Corners,6,2428 160 St Suite  40,,Surrey,BC,V3S 0C8,Canada,(604) 541-9064,49.045637,-122.779085,Mon - Wed: 10am - 6pm ~ Thur - Fri: 10am - 9pm ~ Saturday: 9:30am - 6pm ~ Sunday: 11am - 6pm,Outlet,,
Tsawwassen,881,130 5000 Canoe Pass Way,,Tsawwassen,BC,V4M 0B3,Canada,(604)-948-5086,49.040482,-123.086699,Mon - Sat: 10am - 9pm ~ Sunday: 10am - 7pm,Outlet,,
Coquitlam Centre,405,2929 Barnet Highway,,Port Coquitlam,BC,V3B 5R5,Canada,(604) 464-6674,49.277064,-122.800512,Mon - Tue: 10am - 7pm ~ Wed - Fri: 10am - 9pm ~ Saturday: 9:30am - 7pm ~ Sunday: 11am - 6pm,AFA,,
Oakridge Centre,493,650 West 41st Avenue    279,,Vancouver,BC,V5Z 2M9,Canada,(604) 261-2621,49.232577,-123.116601,Mon - Tue: 9:30am - 7pm ~ Wed - Fri: 9:30am - 9pm ~ Saturday: 9:30am - 7pm ~ Sunday: 11am - 6pm,AFA,,
Robson Street,228,1150 Robson Street,,Vancouver,BC,V6E 1B2,Canada,(604) 695-0615,49.285068,-123.125531,Mon - Wed: 10am - 7pm ~ Thur - Fri: 10am - 9pm ~ Saturday: 10am - 6pm ~ Sunday: 11am - 6pm,AFA,,
Tanger Outlet @ West Branch,243,2990 Cook Road   113A,,West Branch,MI,48661,United States,(989) 345-1399,44.248585,-84.225488,Mon - Thur: 10am - 6pm ~ Fri - Sat: 10am - 9pm ~ Sunday: 11am - 7pm,Outlet,,
Adirondack Outlet,144,1444 State Route 9  Space 23,,Lake George,NY,12845,United States,(518) 793-2047,43.365663,-73.699818,Mon - Thur: 10am - 6pm ~ Fri - Sat: 10am - 9pm ~ Sunday: 10am - 6pm,Outlet,,
Columbia Center,473,1321 N Columbia Center   375,,Kennewick,WA,99336,United States,(509) 783-5349,46.224641,-119.223998,Mon - Sat: 10am - 9pm ~ Sunday: 11am - 7pm,AFA,,
Shasta Outlet,463,1785 Hwy 273,,Anderson,CA,96007,United States,(530) 378-2438,40.437256,-122.29033,Mon - Sat: 9:30am - 8pm ~ Sunday: 11am - 6pm,Outlet,,
Miller Hill Mall,756,1600 Miller Trunk Highway,,Duluth,MN,55811,United States,(218) 722-4226,46.806593,-92.160721,Mon - Sat: 10am - 9pm ~ Sunday: 11am - 6pm,Apparel,,
Park Royal Shopping Centre,171,2002 Park Royal S. Space 997,,West Vancouver,BC,V7T 2W4,Canada,(604) 925-0858,49.327495,-123.137354,Mon - Tue: 10am - 7pm ~ Wed - Fri: 10am - 9pm ~ Saturday: 9:30am - 7pm ~ Sunday: 11am - 6pm,AFA,,
Woodgrove,945,80-6631 Island Hwy North,,Nanaimo,BC,V9T 4T7,Canada,(250) 390-9388,49.171553,-123.94171,Mon - Tue: 10am - 6pm ~ Wed - Fri: 10am - 9pm ~ Saturday: 10am - 7pm ~ Sunday: 11am - 6pm,AFA,,
Whistler Village,701,4314 Main Street  Unit 6,,Whistler,BC,V0N 1B4,Canada,(604) 966-0870,50.116503,-122.956925,Mon - Sat: 9:30am - 9pm ~ Sunday: 10am - 8pm,AFA,,
Rogue Valley Mall,389,1600 N. Riverside Suite 2113,,Medford,OR,97501,United States,(541) 773-1848,42.341907,-122.878204,Mon - Sat: 10am - 9pm ~ Sunday: 11am - 7pm,Apparel,,
Outlets at Zion,269,250 North Red Cliff Drive   12,,St. George,UT,84790,United States,(435) 674-4431,37.112147,-113.554087,Holiday Hours ~ Mon - Sat: 10am - 9pm ~ Sunday: 11am - 4pm,Outlet,,
Tanger Outlets -Ocean City,471,12741 Ocean Gateway Space   940,,Ocean City,MD,21842,United States,(410) 213-1373,38.337657,-75.108315,Mon - Sat: 9am - 9pm ~ Sunday: 10am - 7pm,Outlet,,
Rushmore,400,2200 North Maple   466,,Rapid City,SD,57701,United States,(605) 341-7773,44.106862,-103.20799,Holiday Hours ~ Mon - Fri: 8am - 10pm ~ Saturday: 8am - 5pm ~ Sunday: 8am - 10pm,AFA,,
Southgate,443,Southgate Mall   J2,,Missoula,MT,59801,United States,(406) 542-2244,46.845662,-114.02619,Mon - Sat: 10am - 9pm ~ Sunday: 11am - 6pm,AFA,,
Aspen Place,348,319 South Regent St  E-200,,Flagstaff,AZ,86001,United States,(928) 774-2333,35.194912,-111.640932,Mon - Sat: 10am - 8pm ~ Sunday: 10am - 5pm,Apparel,,
Kirkwood Mall,516,872 Kirkwood Mall  Space 430,,Bismarck,ND,58504,United States,(701) 250-9055,46.798332,-100.783956,Holiday Hours ~ Monday: 10am - 5pm ~ Tue - Fri: 10am - 9pm ~ Saturday: 10am - 7pm ~ Sunday: 12pm - 6pm,Apparel,,
Dakota Square,785,2400 10th Street SW    228,,Minot,ND,58701,United States,(701) 837-4860,48.20818,-101.306729,Mon - Fri: 10am - 9pm ~ Saturday: 10am - 7pm ~ Sunday: 12pm - 6pm,Apparel,,
Market Place Augusta Outlet,896,8 Stephen King Drive   1,,Augusta,ME,04330,United States,(207) 622-2957,44.347804,-69.786829,Mon - Sat: 9:30am - 9pm ~ Sunday: 11am - 6pm,Outlet,,
Cache Street,500,55 S Cache Street,,Jackson Hole,WY,83001,United States,(307) 733-7336,43.478994,-110.762386,Mon - Sat: 10am - 7pm ~ Sunday: 11am - 5pm,AFA,,
Church Street,533,11-17 Church Street,,Burlington,VT,05401,United States,(802) 658-9920,44.480097,-73.212645,Mon - Sat: 10am - 8pm ~ Sunday: 11am - 5pm,AFA,,
Gallatin Valley,824,2825 West Main Street    D3,,Bozeman,MT,59718,United States,(406) 582-7574,45.672147,-111.075296,Mon - Sat: 10am - 8pm ~ Sunday: 11am - 5pm,AFA,,
Southgate Shopping Centre,684,11100 51st Ave NW  Space 31,,Edmonton,AB,T6H 4M6,Canada,(780) 437-1155,53.488277,-113.515483,Holiday Hours ~ Monday: 8am - 7pm ~ Tue - Fri: 10am - 9pm ~ Saturday: 9:30am - 5pm ~ Sunday: 10am - 6pm,Apparel,,
Kingsway Mall,7,109th  and  Princess Elizabeth Ave NW,,Edmonton,AB,T5G 3A6,Canada,(780) 474-8545,53.564184,-113.5084,Mon - Fri: 10am - 9pm ~ Saturday: 9:30am - 6pm ~ Sunday: 11am - 5pm,AFA,,
West Edmonton Mall,10,8770 170 St NW  1992,,Edmonton,AB,T5T 4M2,Canada,(780) 444-1440,53.522241,-113.615576,Mon - Sat: 10am - 9pm ~ Sunday: 11am - 6pm,AFA,,
Southcentre Mall,63,100 Anderson Road SE    306,,Calgary,AB,T2J 3V1,Canada,(403) 278-6440,50.949598,-114.061311,Mon - Fri: 9:30am - 9pm ~ Saturday: 9:30am - 8pm ~ Sunday: 11am - 6pm,AFA,,
Chinook Centre,487,6455 MacLeod Trail SW  1229,,Calgary,AB,T2H 0K8,Canada,(403) 253-4004,50.996867,-114.0717,Mon - Sat: 9:30am - 9pm ~ Sunday: 11am - 7pm,AFA,,
Signal Hill,712,5669 Signal Hill Centre S.W.,,Calgary,AB,T3H 3P8,Canada,(403) 727-4124,51.018515,-114.170627,Mon - Fri: 10am - 9pm ~ Saturday: 10am - 6pm ~ Sunday: 11am - 5pm,Outlet,,
Market Mall,936,3625 Shaganappi Trail NW  Space  39,,Calgary,AB,T3A 0E2,Canada,(403) 247-6373,51.085546,-114.152979,Mon - Fri: 9:30am - 9pm ~ Saturday: 9:30am - 8pm ~ Sunday: 11am - 6pm,AFA,,
Polo Park,468,1485 Portage Avenue Space   265C,,Winnipeg,MB,R3G 0W4,Canada,(204) 786-2110,49.880919,-97.198223,Mon - Fri: 10am - 9pm ~ Saturday: 9:30am - 6pm ~ Sunday: 11am - 6pm,AFA,,
Champlain Place,515,477 Paul Street    W4,,Dieppe,NB,E1A 4X5,Canada,(506) 854-8444,46.094763,-64.759494,Mon - Sat: 10am - 9pm ~ Sunday: 12pm - 5pm,AFA,,
Mic Mac Mall,406,21 Mic Mac Boulevard   137A,,Dartmouth,NS,B3A 4N3,Canada,(902) 461-4415,44.684166,-63.558728,Mon - Sat: 9:30am - 9pm ~ Sunday: 12pm - 5pm,AFA,,
Tanger Outlets Ottawa,790,8555 Campeau Dr Suite  380,,Ottawa,ON,K2T 0K5,Canada,(613) 435-8551,45.298196,-75.937757,Mon - Sat: 9:30am - 9pm ~ Sunday: 10am - 6pm,Outlet,,
Bayshore,703,100 Bayshore Drive,,Nepean,ON,K2B 8C1,Canada,(613) 829-0438,45.348619,-75.804244,Mon - Sat: 9am - 9pm ~ Sunday: 10am - 6pm,AFA,,
Rideau Centre,132,50 Rideau   291,,Ottawa,ON,K1N 9J7,Canada,(613) 567-3010,45.425938,-75.692367,Mon - Fri: 9:30am - 9pm ~ Saturday: 9:30am - 7pm ~ Sunday: 11am - 5pm,AFA,,
Place d'Orleans,345,110 Place D'Orleans Drive    700,,Orleans,ON,K1C 2L9,Canada,(613) 841-0460,45.477988,-75.520377,Mon - Fri: 9:30am - 9pm ~ Saturday: 9:30am - 7pm ~ Sunday: 11am - 5pm,AFA,,
Cornwall Shopping Centre,683,2102 11th Ave.    TT8A,,Regina,SK,S4P 3Y6,Canada,(306) 781-8680,50.450403,-104.610877,Mon - Tue: 9:30am - 6pm ~ Wed - Fri: 9:30am - 9pm ~ Saturday: 9:30am - 6pm ~ Sunday: 12pm - 5pm,AFA,,
Midtown Plaza,404,201 First Avenue S.,,Saskatoon,SK,S7K 1J5,Canada,(306) 664-9771,52.126164,-106.666971,Mon - Tue: 9:30am - 7pm ~ Wed - Fri: 9:30am - 9pm ~ Saturday: 9:30am - 7pm ~ Sunday: 11am - 6pm,AFA,,
