store_name,store_number,address,address2,city,state,zip_code,country,phone_number,latitude,longitude,store_hours,store_type,other_fields,coming_soon
"Fantastic Sams Los Angeles, CA",,7111 Sunset Blvd. ,,Los Angeles ,CA,90046,United States,(323) 850-1770,,,"Mon: 9:30 am-8:00 pm , Tue: 9:30 am-8:00 pm , Wed: 9:30 am-8:00 pm , Thu: 9:30 am-8:00 pm , Fri: 9:30 am-8:00 pm , Sat: 9:00 am-7:00 pm , Sun: 10:00 am-6:00 pm ",,,
"Fantastic Sams Los Angeles, CA",,5419 Hollywood Blvd. ,,Los Angeles ,CA,90027,United States,(323) 469-0191,,,"Mon: 9:30 am-8:00 pm , Tue: 9:30 am-8:00 pm , Wed: 9:30 am-8:00 pm , Thu: 9:30 am-8:00 pm , Fri: 9:30 am-8:00 pm , Sat: 9:30 am-7:00 pm , Sun: 10:00 am-6:00 pm ",,,
"Fantastic Sams Los Angeles, CA",,1831 S La Cienega Blvd ,,Los Angeles ,CA,90035,United States,(310) 559-5006,,,,,,
"Fantastic Sams Los Angeles, CA",,11658 San Vicente Blvd. ,,Los Angeles ,CA,90049,United States,(310) 820-8300,,,"Mon: 9:00 am-7:00 pm , Tue: 9:00 am-7:00 pm , Wed: 9:00 am-7:00 pm , Thu: 9:00 am-7:00 pm , Fri: 9:00 am-7:00 pm , Sat: 9:00 am-7:00 pm , Sun: 10:00 am-5:00 pm ",,,
"Fantastic Sams San Antonio, TX",,8503 NW Military Highway 115 ,,San Antonio ,TX,78231,United States,(210) 408-9075,,,"Mon: 9:00 am-8:00 pm , Tue: 9:00 am-8:00 pm , Wed: 9:00 am-8:00 pm , Thu: 9:00 am-8:00 pm , Fri: 9:00 am-8:00 pm , Sat: 9:00 am-7:00 pm , Sun: Closed ",,,
"Fantastic Sams Phoenix, AZ",,3141 E. Indian School Rd. ,,Phoenix ,AZ,85016,United States,(602) 955-0365,,,,,,
"Fantastic Sams Phoenix, AZ",,5045 W Baseline Rd ,,Phoenix ,AZ,85339,United States,(602) 605-8020,,,"Mon: 9:00 am-8:00 pm , Tue: 9:00 am-8:00 pm , Wed: 9:00 am-8:00 pm , Thu: 9:00 am-8:00 pm , Fri: 9:00 am-8:00 pm , Sat: 9:00 am-6:00 pm , Sun: 10:00 am-5:00 pm ",,,
"Fantastic Sams San Diego, CA",,3245 University Ave ,,San Diego ,CA,92104,United States,(619) 283-3300,,,,,,
"Fantastic Sams Dallas, TX",,11910 Preston Road ,,Dallas ,TX,75230,United States,(972) 387-8037,,,"Mon: 10:00 am-7:00 pm , Tue: 10:00 am-7:00 pm , Wed: 10:00 am-7:00 pm , Thu: 10:00 am-7:00 pm , Fri: 10:00 am-7:00 pm , Sat: 9:00 am-6:00 pm , Sun: 12:00 pm-5:00 pm ",,,
"Fantastic Sams Austin, TX",,6301 West Parmer Lane ,,Austin ,TX,78729,United States,(512) 331-5257,,,"Mon: Closed , Tue: 10:00 am-7:00 pm , Wed: 10:00 am-7:00 pm , Thu: 10:00 am-7:00 pm , Fri: 10:00 am-7:00 pm , Sat: 9:00 am-6:00 pm , Sun: 12:00 pm-5:00 pm ",,,
"Fantastic Sams San Jose, CA",,5205 Prospect Rd. ,,San Jose ,CA,95129,United States,(408) 865-1167,,,,,,
"Fantastic Sams Indianapolis, IN",,1012 North Shadeland Ave. ,,Indianapolis ,IN,46219,United States,(317) 536-1600,,,"Mon: 9:00 am-8:00 pm , Tue: 9:00 am-8:00 pm , Wed: 9:00 am-8:00 pm , Thu: 9:00 am-8:00 pm , Fri: 9:00 am-8:00 pm , Sat: 9:00 am-6:00 pm , Sun: 12:00 pm-5:00 pm ",,,
"Fantastic Sams San Diego, CA",,4203 Genesee Ave ,,San Diego ,CA,92123,United States,(858) 268-1798,,,"Mon: 9:00 am-7:00 pm , Tue: 9:00 am-7:00 pm , Wed: 9:00 am-7:00 pm , Thu: 9:00 am-7:00 pm , Fri: 9:00 am-7:00 pm , Sat: 9:00 am-6:00 pm , Sun: 10:00 am-5:00 pm ",,,
"Fantastic Sams Columbus, OH",,8659 Sancus Blvd ,,Columbus ,OH,43240,United States,(614) 985-1677,,,,,,
"Fantastic Sams San Diego, CA",,3225 Sports Arena Blvd ,,San Diego ,CA,92110,United States,(619) 223-9527,,,"Mon: 9:00 am-7:00 pm , Tue: 9:00 am-7:00 pm , Wed: 9:00 am-7:00 pm , Thu: 9:00 am-7:00 pm , Fri: 9:00 am-7:00 pm , Sat: 9:00 am-6:00 pm , Sun: 10:00 am-5:00 pm ",,,
"Fantastic Sams Fort Worth, TX",,6650 North Beach Street ,,Fort Worth ,TX,76137,United States,(817) 428-5030,,,"Mon: 9:00 am-8:00 pm , Tue: 9:00 am-8:00 pm , Wed: 9:00 am-8:00 pm , Thu: 9:00 am-8:00 pm , Fri: 9:00 am-8:00 pm , Sat: 9:00 am-6:00 pm , Sun: 11:00 am-5:00 pm ",,,
"Fantastic Sams Fort Worth, TX",,12650 North Beach Street ,,Fort Worth ,TX,76244,United States,(817) 337-7395,,,,,,
"Fantastic Sams Charlotte, NC",,16011 Lancaster Highway ,,Charlotte ,NC,28277,United States,(704) 910-2108,,,,,,
"Fantastic Sams San Diego, CA",,3755 Murphy Canyon Rd ,,San Diego ,CA,92123,United States,(858) 496-0900,,,"Mon: 9:00 am-8:00 pm , Tue: 9:00 am-8:00 pm , Wed: 9:00 am-8:00 pm , Thu: 9:00 am-8:00 pm , Fri: 9:00 am-8:00 pm , Sat: 9:00 am-6:00 pm , Sun: 10:00 am-5:00 pm ",,,
"Fantastic Sams San Diego, CA",,1721 Garnet Ave ,,San Diego ,CA,92109,United States,(858) 270-4000,,,,,,
"Fantastic Sams San Diego, CA",,12075 Carmel Mountain Rd ,,San Diego ,CA,92128,United States,(858) 630-5235,,,"Mon: 9:00 am-8:00 pm , Tue: 9:00 am-8:00 pm , Wed: 9:00 am-8:00 pm , Thu: 9:00 am-8:00 pm , Fri: 9:00 am-8:00 pm , Sat: 9:00 am-6:00 pm , Sun: 10:00 am-5:00 pm ",,,
"Fantastic Sams San Diego, CA",,8866 Navajo Rd ,,San Diego ,CA,92119,United States,(619) 466-3090,,,"Mon: 9:00 am-8:00 pm , Tue: 9:00 am-8:00 pm , Wed: 9:00 am-8:00 pm , Thu: 9:00 am-8:00 pm , Fri: 9:00 am-8:00 pm , Sat: 9:00 am-6:00 pm , Sun: 10:00 am-5:00 pm ",,,
"Fantastic Sams San Diego, CA",,7728 Regents Rd. ,,San Diego ,CA,92122,United States,(858) 202-1776,,,"Mon: 9:00 am-8:00 pm , Tue: 9:00 am-8:00 pm , Wed: 9:00 am-8:00 pm , Thu: 9:00 am-8:00 pm , Fri: 9:00 am-8:00 pm , Sat: 9:00 am-6:00 pm , Sun: 10:00 am-5:00 pm ",,,
"Fantastic Sams San Diego, CA",,6165 El Cajon Blvd ,,San Diego ,CA,92115,United States,(619) 583-5500,,,"Mon: 9:00 am-8:00 pm , Tue: 9:00 am-8:00 pm , Wed: 9:00 am-8:00 pm , Thu: 9:00 am-8:00 pm , Fri: 9:00 am-8:00 pm , Sat: 9:00 am-6:00 pm , Sun: 10:00 am-5:00 pm ",,,
"Fantastic Sams San Diego, CA",,9460 Mira Mesa Blvd ,,San Diego ,CA,92126,United States,(858) 530-9005,,,"Mon: 9:00 am-8:00 pm , Tue: 9:00 am-8:00 pm , Wed: 9:00 am-8:00 pm , Thu: 9:00 am-8:00 pm , Fri: 9:00 am-8:00 pm , Sat: 9:00 am-6:00 pm , Sun: 10:00 am-5:00 pm ",,,
"Fantastic Sams San Diego, CA",,5375 Napa Street ,,San Diego ,CA,92110,United States,(619) 299-7267,,,,,,
"Fantastic Sams Phoenix, AZ",,4212 W Cactus ,,Phoenix ,AZ,85029,United States,(602) 298-7660,,,"Mon: 9:00 am-7:00 pm , Tue: 9:00 am-7:00 pm , Wed: 9:00 am-7:00 pm , Thu: 9:00 am-7:00 pm , Fri: 9:00 am-7:00 pm , Sat: 9:00 am-6:00 pm , Sun: 10:00 am-5:00 pm ",,,
"Fantastic Sams Phoenix, AZ",,5555 N. 7th St. ,,Phoenix ,AZ,85014,United States,(602) 277-5144,,,"Mon: 9:00 am-8:00 pm , Tue: 9:00 am-8:00 pm , Wed: 9:00 am-8:00 pm , Thu: 9:00 am-8:00 pm , Fri: 9:00 am-8:00 pm , Sat: 9:00 am-7:00 pm , Sun: 10:00 am-6:00 pm ",,,
"Fantastic Sams Phoenix, AZ",,267 E. Bell Road ,,Phoenix ,AZ,85022,United States,(602) 588-4247,,,"Mon: 9:00 am-7:00 pm , Tue: 9:00 am-7:00 pm , Wed: 9:00 am-7:00 pm , Thu: 9:00 am-7:00 pm , Fri: 9:00 am-7:00 pm , Sat: 9:00 am-7:00 pm , Sun: 10:00 am-6:00 pm ",,,
"Fantastic Sams Phoenix, AZ",,3120 W. Carefree Highway ,,Phoenix ,AZ,85086,United States,(623) 587-0329,,,"Mon: 9:00 am-7:00 pm , Tue: 9:00 am-7:00 pm , Wed: 9:00 am-7:00 pm , Thu: 9:00 am-7:00 pm , Fri: 9:00 am-7:00 pm , Sat: 9:00 am-5:00 pm , Sun: 10:00 am-5:00 pm ",,,
"Fantastic Sams San Antonio, TX",,9355 Culebra Rd ,,San Antonio ,TX,78251,United States,(210) 684-4331,,,,,,
"Fantastic Sams San Antonio, TX",,8111 Mainland Dr ,,San Antonio ,TX,78240,United States,(210) 509-1450,,,,,,
"Fantastic Sams San Antonio, TX",,10650 Culebra Rd ,,San Antonio ,TX,78251,United States,(210) 684-4331,,,"Mon: 10:00 am-7:00 pm , Tue: 10:00 am-7:00 pm , Wed: 10:00 am-7:00 pm , Thu: 10:00 am-7:00 pm , Fri: 10:00 am-7:00 pm , Sat: 9:00 am-6:00 pm , Sun: 11:00 am-6:00 pm ",,,
"Fantastic Sams San Antonio, TX",,4102 South New Braunfels ,,San Antonio ,TX,78223,United States,(210) 533-7267,,,,,,
"Fantastic Sams San Antonio, TX",,3138 Southeast Military Dr ,,San Antonio ,TX,78235,United States,(210) 337-0300,,,,,,
"Fantastic Sams San Antonio, TX",,1533 Austin Hghwy ,,San Antonio ,TX,78218,United States,(210) 930-5300,,,,,,
"Fantastic Sams San Antonio, TX",,1150 North Loop 1604 W ,,San Antonio ,TX,78248,United States,(210) 493-7762,,,"Mon: 9:00 am-8:00 pm , Tue: 9:00 am-8:00 pm , Wed: 9:00 am-8:00 pm , Thu: 9:00 am-8:00 pm , Fri: 9:00 am-8:00 pm , Sat: 9:00 am-7:00 pm , Sun: 11:00 am-6:00 pm ",,,
"Fantastic Sams San Antonio, TX",,5230 De Zavala ,,San Antonio ,TX,78249,United States,(210) 699-9377,,,"Mon: 10:00 am-8:00 pm , Tue: 10:00 am-8:00 pm , Wed: 10:00 am-8:00 pm , Thu: 10:00 am-8:00 pm , Fri: 10:00 am-8:00 pm , Sat: 9:00 am-7:00 pm , Sun: 11:00 am-6:00 pm ",,,
"Fantastic Sams San Antonio, TX",,20770 Highway 281 North ,,San Antonio ,TX,78259,United States,(210) 402-5440,,,"Mon: 10:00 am-8:00 pm , Tue: 10:00 am-8:00 pm , Wed: 10:00 am-8:00 pm , Thu: 10:00 am-8:00 pm , Fri: 10:00 am-8:00 pm , Sat: 9:00 am-7:00 pm , Sun: 11:00 am-6:00 pm ",,,
"Fantastic Sams San Antonio, TX",,2949 Thousand Oaks ,,San Antonio ,TX,78247,United States,(210) 490-2783,,,"Mon: 9:00 am-8:00 pm , Tue: 9:00 am-8:00 pm , Wed: 9:00 am-8:00 pm , Thu: 9:00 am-8:00 pm , Fri: 9:00 am-8:00 pm , Sat: 9:00 am-7:00 pm , Sun: 11:00 am-6:00 pm ",,,
"Fantastic Sams San Antonio, TX",,1803 Vance Jackson ,,San Antonio ,TX,78213,United States,(210) 735-7267,,,"Mon: 10:00 am-8:00 pm , Tue: 10:00 am-8:00 pm , Wed: 10:00 am-8:00 pm , Thu: 10:00 am-8:00 pm , Fri: 10:00 am-8:00 pm , Sat: 11:00 am-6:00 pm , Sun: 11:00 am-6:00 pm ",,,
"Fantastic Sams San Antonio, TX",,9110 North Loop 1604 W ,,San Antonio ,TX,78249,United States,(210) 521-7772,,,"Mon: 10:00 am-8:00 pm , Tue: 10:00 am-8:00 pm , Wed: 10:00 am-8:00 pm , Thu: 10:00 am-8:00 pm , Fri: 10:00 am-8:00 pm , Sat: 9:00 am-7:00 pm , Sun: 11:00 am-6:00 pm ",,,
"Fantastic Sams San Antonio, TX",,10730 Potranco Rd ,,San Antonio ,TX,78251,United States,(210) 521-0806,,,"Mon: 10:00 am-8:00 pm , Tue: 10:00 am-8:00 pm , Wed: 10:00 am-8:00 pm , Thu: 10:00 am-8:00 pm , Fri: 10:00 am-8:00 pm , Sat: 9:00 am-7:00 pm , Sun: 11:00 am-6:00 pm ",,,
"Fantastic Sams San Antonio, TX",,1901 Nacogdoches Rd. ,,San Antonio ,TX,78209,United States,(210) 930-2933,,,"Mon: 10:00 am-8:00 pm , Tue: 10:00 am-8:00 pm , Wed: 10:00 am-8:00 pm , Thu: 10:00 am-8:00 pm , Fri: 10:00 am-8:00 pm , Sat: 9:00 am-7:00 pm , Sun: 11:00 am-6:00 pm ",,,
"Fantastic Sams San Antonio, TX",,3910 Mcullough Suite 5 ,,San Antonio ,TX,78212,United States,(210) 826-1299,,,"Mon: 10:00 am-8:00 pm , Tue: 10:00 am-8:00 pm , Wed: 10:00 am-8:00 pm , Thu: 10:00 am-8:00 pm , Fri: 10:00 am-8:00 pm , Sat: 9:00 am-7:00 pm , Sun: 11:00 am-6:00 pm ",,,
"Fantastic Sams Los Angeles, CA",,1824 Westwood Blvd. ,,Los Angeles ,CA,90025,United States,(310) 441-5593,,,"Mon: 9:00 am-7:00 pm , Tue: 9:00 am-7:00 pm , Wed: 9:00 am-7:00 pm , Thu: 9:00 am-7:00 pm , Fri: 9:00 am-7:00 pm , Sat: 9:00 am-7:00 pm , Sun: 10:00 am-5:00 pm ",,,
"Fantastic Sams Memphis, TN",,8 N. McLean Blvd. ,,Memphis ,TN,38104,United States,(901) 276-1405,,,"Mon: 9:00 am-8:00 pm , Tue: 9:00 am-8:00 pm , Wed: 9:00 am-8:00 pm , Thu: 9:00 am-8:00 pm , Fri: 9:00 am-8:00 pm , Sat: 9:00 am-6:00 pm , Sun: 12:00 pm-5:00 pm ",,,
"Fantastic Sams Memphis, TN",,571 Erin Drive ,,Memphis ,TN,38117,United States,(901) 683-8355,,,,,,
"Fantastic Sams Denver, CO",,7111 W Alameda Ave ,,Denver ,CO,80226,United States,(303) 922-3714,,,,,,
"Fantastic Sams Washington, UT",,875 W Red Cliffs Dr ,,Washington ,UT,84780,United States,(435) 688-8455,,,,,,
"Fantastic Sams Mount Washington, KY",,240 Eastbrooke Pkwy ,,Mount Washington ,KY,40047,United States,(502) 538-2799,,,"Mon: 9:00 am-9:00 pm , Tue: 9:00 am-9:00 pm , Wed: 9:00 am-9:00 pm , Thu: 9:00 am-9:00 pm , Fri: 9:00 am-9:00 pm , Sat: 8:00 am-6:00 pm , Sun: Closed ",,,
"Fantastic Sams Washington, MO",,1627 Aroy Dr ,,Washington ,MO,63090,United States,(636) 239-9696,,,"Mon: 9:00 am-9:00 pm , Tue: 9:00 am-9:00 pm , Wed: 9:00 am-9:00 pm , Thu: 9:00 am-9:00 pm , Fri: 9:00 am-9:00 pm , Sat: 8:00 am-5:00 pm , Sun: 10:00 am-5:00 pm ",,,
"Fantastic Sams Washington, IN",,1717 South State Rd. 57 ,,Washington ,IN,47501,United States,(812) 254-2600,,,"Mon: 9:00 am-8:00 pm , Tue: 9:00 am-8:00 pm , Wed: 9:00 am-8:00 pm , Thu: 9:00 am-8:00 pm , Fri: 9:00 am-8:00 pm , Sat: 9:00 am-5:00 pm , Sun: 12:00 pm-5:00 pm ",,,
"Fantastic Sams Township Of Washington, NJ",,299 Pascack Road ,,Township Of Washington ,NJ,07676,United States,(201) 666-0097,,,"Mon: 9:30 am-7:00 pm , Tue: 9:30 am-8:00 pm , Wed: 9:30 am-8:00 pm , Thu: 9:30 am-8:00 pm , Fri: 9:30 am-7:00 pm , Sat: 9:00 am-6:00 pm , Sun: 11:00 am-4:00 pm ",,,
"Fantastic Sams Denver, CO",,7341 E 29th Ave ,,Denver ,CO,80238,United States,(303) 316-7701,,,"Mon: 9:00 am-8:00 pm , Tue: 9:00 am-8:00 pm , Wed: 9:00 am-8:00 pm , Thu: 9:00 am-8:00 pm , Fri: 9:00 am-8:00 pm , Sat: 9:00 am-5:00 pm , Sun: 10:00 am-5:00 pm ",,,
"Fantastic Sams Denver, CO",,7150 Leetsdale Drive ,,Denver ,CO,80224,United States,(303) 333-8288,,,,,,
"Fantastic Sams Las Vegas, NV",,5715 S Eastern Ave ,,Las Vegas ,NV,89119,United States,(702) 898-1408,,,"Mon: 9:00 am-7:00 pm , Tue: 9:00 am-7:00 pm , Wed: 9:00 am-7:00 pm , Thu: 9:00 am-7:00 pm , Fri: 9:00 am-7:00 pm , Sat: 9:00 am-6:00 pm , Sun: 10:00 am-5:00 pm ",,,
"Fantastic Sams Las Vegas, NV",,5965 West Tropicana Ave ,,Las Vegas ,NV,89103,United States,(702) 257-9060,,,"Mon: 9:00 am-7:00 pm , Tue: 9:00 am-7:00 pm , Wed: 9:00 am-7:00 pm , Thu: 9:00 am-7:00 pm , Fri: 9:00 am-7:00 pm , Sat: 9:00 am-6:00 pm , Sun: 10:00 am-5:00 pm ",,,
"Fantastic Sams Albuquerque, NM",,10660 Unser Blvd NW ,,Albuquerque ,NM,87114,United States,(505) 831-5558,,,"Mon: 10:00 am-7:00 pm , Tue: 10:00 am-7:00 pm , Wed: 10:00 am-7:00 pm , Thu: 10:00 am-7:00 pm , Fri: 10:00 am-7:00 pm , Sat: 9:00 am-6:00 pm , Sun: 10:00 am-5:00 pm ",,,
"Fantastic Sams Albuquerque, NM",,330 Eubank Blvd NE ,,Albuquerque ,NM,87123,United States,(505) 293-7267,,,"Mon: 11:00 am-7:00 am , Tue: 11:00 am-7:00 pm , Wed: 11:00 am-7:00 pm , Thu: 11:00 am-7:00 pm , Fri: 11:00 am-7:00 pm , Sat: 9:00 am-6:00 pm , Sun: Closed ",,,
"Fantastic Sams Albuquerque, NM",,4411 Montano Rd NW ,,Albuquerque ,NM,87120,United States,(505) 890-2999,,,"Mon: 10:00 am-7:00 pm , Tue: 10:00 am-7:00 pm , Wed: 10:00 am-7:00 pm , Thu: 10:00 am-7:00 pm , Fri: 10:00 am-7:00 pm , Sat: 9:00 am-6:00 pm , Sun: 10:00 am-5:00 pm ",,,
"Fantastic Sams Las Vegas, NV",,1916 Village Center Circle ,,Las Vegas ,NV,89134,United States,(702) 233-6984,,,"Mon: 9:00 am-8:00 pm , Tue: 9:00 am-8:00 pm , Wed: 9:00 am-8:00 pm , Thu: 9:00 am-8:00 pm , Fri: 9:00 am-8:00 pm , Sat: 9:00 am-8:00 pm , Sun: 10:00 am-5:00 pm ",,,
"Fantastic Sams Long Beach, CA",,5630 E 2nd Street ,,Long Beach ,CA,90803,United States,(562) 621-6666,,,,,,
"Fantastic Sams Long Beach, CA",,590 Long Beach Blvd. ,,Long Beach ,CA,90802,United States,(562) 432-2705,,,,,,
"Fantastic Sams Long Beach, CA",,7671 Carson Street ,,Long Beach ,CA,90808,United States,(562) 429-5890,,,,,,
"Fantastic Sams Las Vegas, NV",,5841 E Charleston Blvd ,,Las Vegas ,NV,89142,United States,(702) 641-5600,,,"Mon: 9:00 am-7:00 pm , Tue: 9:00 am-7:00 pm , Wed: 9:00 am-7:00 pm , Thu: 9:00 am-7:00 pm , Fri: 9:00 am-7:00 pm , Sat: 9:00 am-6:00 pm , Sun: 10:00 am-5:00 pm ",,,
"Fantastic Sams Las Vegas, NV",,8020 S Rainbow Blvd ,,Las Vegas ,NV,89139,United States,(702) 270-2001,,,"Mon: 9:00 am-8:00 pm , Tue: 9:00 am-8:00 pm , Wed: 9:00 am-8:00 pm , Thu: 9:00 am-8:00 pm , Fri: 9:00 am-8:00 pm , Sat: 9:00 am-7:00 pm , Sun: 10:00 am-6:00 pm ",,,
"Fantastic Sams Las Vegas, NV",,11700 W Charleston ,,Las Vegas ,NV,89135,United States,(702) 341-7899,,,"Mon: 9:00 am-7:00 pm , Tue: 9:00 am-7:00 pm , Wed: 9:00 am-7:00 pm , Thu: 9:00 am-7:00 pm , Fri: 9:00 am-7:00 pm , Sat: 9:00 am-6:00 pm , Sun: 10:00 am-5:00 pm ",,,
"Fantastic Sams N. Las Vegas, NV",,5546 Camino Al Norte N. ,,Las Vegas ,NV,89031,United States,(702) 639-4309,,,"Mon: 9:00 am-7:00 pm , Tue: 9:00 am-7:00 pm , Wed: 9:00 am-7:00 pm , Thu: 9:00 am-7:00 pm , Fri: 9:00 am-7:00 pm , Sat: 9:00 am-7:00 pm , Sun: 10:00 am-6:00 pm ",,,
"Fantastic Sams Las Vegas, NV",,4690 W Ann Rd ,,Las Vegas ,NV,89031,United States,(702) 655-2006,,,"Mon: 9:00 am-7:00 pm , Tue: 9:00 am-7:00 pm , Wed: 9:00 am-7:00 pm , Thu: 9:00 am-7:00 pm , Fri: 9:00 am-7:00 pm , Sat: 9:00 am-7:00 pm , Sun: 10:00 am-6:00 pm ",,,
"Fantastic Sams Las Vegas, NV",,8170 S. Eastern ,,Las Vegas ,NV,89123,United States,(702) 897-7166,,,,,,
"Fantastic Sams Las Vegas, NV",,9101 W. Sahara Ave ,,Las Vegas ,NV,89117,United States,(702) 243-0849,,,,,,
"Fantastic Sams Las Vegas, NV",,7500 W. Lake Mead ,,Las Vegas ,NV,89128,United States,(702) 838-9729,,,,,,
"Fantastic Sams Las Vegas, NV",,5466 Boulder Hwy ,,Las Vegas ,NV,89122,United States,(702) 948-4856,,,"Mon: 9:00 am-7:00 pm , Tue: 9:00 am-7:00 pm , Wed: 9:00 am-7:00 pm , Thu: 9:00 am-7:00 pm , Fri: 9:00 am-7:00 pm , Sat: 9:00 am-6:00 pm , Sun: 10:00 am-5:00 pm ",,,
"Fantastic Sams Las Vegas, NV",,9775 S Maryland Parkway ,,Las Vegas ,NV,89183,United States,(702) 361-1381,,,"Mon: 9:00 am-7:00 pm , Tue: 9:00 am-7:00 pm , Wed: 9:00 am-7:00 pm , Thu: 9:00 am-7:00 pm , Fri: 9:00 am-7:00 pm , Sat: 9:00 am-6:00 pm , Sun: 10:00 am-5:00 pm ",,,
"Fantastic Sams Denver, CO",,3333 S Tamarac Dr ,,Denver ,CO,80231,United States,(303) 338-1800,,,"Mon: 9:00 am-8:00 pm , Tue: 9:00 am-8:00 pm , Wed: 9:00 am-8:00 pm , Thu: 9:00 am-8:00 pm , Fri: 9:00 am-8:00 pm , Sat: 9:00 am-5:00 pm , Sun: 10:00 am-4:00 pm ",,,
"Fantastic Sams Las Vegas, NV",,505 E. Windmill Lane ,,Las Vegas ,NV,89123,United States,(702) 270-2401,,,"Mon: 9:00 am-7:00 pm , Tue: 9:00 am-7:00 pm , Wed: 9:00 am-7:00 pm , Thu: 9:00 am-7:00 pm , Fri: 9:00 am-7:00 pm , Sat: 9:00 am-6:00 pm , Sun: 10:00 am-5:00 pm ",,,
"Fantastic Sams Kansas City, MO",,14129 E. 40 Hwy. ,,Kansas City ,MO,64136,United States,(816) 478-1664,,,"Mon: 8:30 am-7:00 pm , Tue: 8:30 am-7:00 pm , Wed: 8:30 am-7:00 pm , Thu: 8:30 am-7:00 pm , Fri: 8:30 am-7:00 pm , Sat: 9:00 am-5:00 pm , Sun: 12:00 pm-5:00 pm ",,,
"Fantastic Sams Virginia Beach, VA",,2111 Princess Anne Road ,,Virginia Beach ,VA,23456,United States,(757) 301-2800,,,,,,
"Fantastic Sams Kansas City, MO",,8406 Wornall Road ,,Kansas City ,MO,64114,United States,(816) 363-7115,,,"Mon: 9:00 am-7:00 pm , Tue: 9:00 am-7:00 pm , Wed: 9:00 am-7:00 pm , Thu: 9:00 am-7:00 pm , Fri: 9:00 am-6:00 pm , Sat: 9:00 am-5:00 pm , Sun: 12:00 pm-5:00 pm ",,,
"Fantastic Sams Mesa, AZ",,2665 E. Broadway Rd. ,,Mesa ,AZ,85204,United States,(480) 889-5613,,,"Mon: 9:00 am-8:00 pm , Tue: 9:00 am-8:00 pm , Wed: 9:00 am-8:00 pm , Thu: 9:00 am-8:00 pm , Fri: 9:00 am-8:00 pm , Sat: 9:00 am-6:00 pm , Sun: 10:00 am-5:00 pm ",,,
"Fantastic Sams Colorado Springs, CO",,1722 Dublin Blvd. ,,Colorado Springs ,CO,80918,United States,(719) 388-7647,,,"Mon: 9:00 am-7:00 pm , Tue: 9:00 am-7:00 pm , Wed: 9:00 am-7:00 pm , Thu: 9:00 am-7:00 pm , Fri: 9:00 am-7:00 pm , Sat: 9:00 am-6:00 pm , Sun: 11:00 am-5:00 pm ",,,
"Fantastic Sams Mesa, AZ",,1035 N. Ellsworth ,,Mesa ,AZ,85207,United States,(480) 380-9580,,,"Mon: 9:00 am-7:00 pm , Tue: 9:00 am-7:00 pm , Wed: 9:00 am-7:00 pm , Thu: 9:00 am-7:00 pm , Fri: 9:00 am-7:00 pm , Sat: 9:00 am-5:00 pm , Sun: 12:00 pm-5:00 pm ",,,
"Fantastic Sams Mesa, AZ",,1240 E. Baseline Road ,,Mesa ,AZ,85204,United States,(480) 539-0466,,,"Mon: 9:00 am-8:00 pm , Tue: 9:00 am-8:00 pm , Wed: 9:00 am-8:00 pm , Thu: 9:00 am-8:00 pm , Fri: 9:00 am-8:00 pm , Sat: 9:00 am-6:00 pm , Sun: 10:00 am-5:00 pm ",,,
"Fantastic Sams Raleigh, NC",,8363 Creedmoor Rd ,,Raleigh ,NC,27613,United States,(919) 847-7272,,,"Mon: 9:00 am-8:00 pm , Tue: 9:00 am-8:00 pm , Wed: 9:00 am-8:00 pm , Thu: 9:00 am-8:00 pm , Fri: 9:00 am-8:00 pm , Sat: 9:00 am-6:00 pm , Sun: 12:00 pm-6:00 pm ",,,
"Fantastic Sams Raleigh, NC",,13600 Falls of Neuse Rd ,,Raleigh ,NC,27614,United States,(919) 554-9643,,,"Mon: 10:00 am-8:00 pm , Tue: 10:00 am-8:00 pm , Wed: 10:00 am-8:00 pm , Thu: 10:00 am-8:00 pm , Fri: 10:00 am-8:00 pm , Sat: 9:00 am-6:00 pm , Sun: 12:00 pm-6:00 pm ",,,
"Fantastic Sams Minneapolis, MN",,5003 34th Avenue So. ,,Minneapolis ,MN,55417,United States,(612) 729-4643,,,,,,
"Fantastic Sams Mesa, AZ",,2235 S. Power Road ,,Mesa ,AZ,85209,United States,(480) 218-0188,,,"Mon: 9:00 am-8:00 pm , Tue: 9:00 am-8:00 pm , Wed: 9:00 am-8:00 pm , Thu: 9:00 am-8:00 pm , Fri: 9:00 am-8:00 pm , Sat: 9:00 am-6:00 pm , Sun: 10:00 am-5:00 pm ",,,
"Fantastic Sams Mesa, AZ",,425 N Stapley ,,Mesa ,AZ,85203,United States,(480) 835-6200,,,"Mon: 9:00 am-8:00 pm , Tue: 9:00 am-8:00 pm , Wed: 9:00 am-8:00 pm , Thu: 9:00 am-8:00 pm , Fri: 9:00 am-8:00 pm , Sat: 9:00 am-6:00 pm , Sun: 10:00 am-5:00 pm ",,,
"Fantastic Sams Mesa, AZ",,2920 N. Power Road ,,Mesa ,AZ,85215,United States,(480) 218-4557,,,"Mon: 9:00 am-8:00 pm , Tue: 9:00 am-8:00 pm , Wed: 9:00 am-8:00 pm , Thu: 9:00 am-8:00 pm , Fri: 9:00 am-8:00 pm , Sat: 9:00 am-6:00 pm , Sun: 10:00 am-5:00 pm ",,,
"Fantastic Sams Arlington, TX",,4001 West Green Oaks Blvd. ,,Arlington ,TX,76016,United States,(817) 516-5711,,,,,,
"Fantastic Sams Arlington, TX",,1630 E Lamar Blvd ,,Arlington ,TX,76011,United States,(817) 299-8514,,,,,,
"Fantastic Sams Wichita, KS",,2790 South Seneca ,,Wichita ,KS,67217,United States,(316) 265-9466,,,"Mon: 9:30 am-7:30 pm , Tue: 9:30 am-7:30 pm , Wed: 9:30 am-7:30 pm , Thu: 9:30 am-7:30 pm , Fri: 9:30 am-7:30 pm , Sat: 9:00 am-5:00 pm , Sun: Closed ",,,
"Fantastic Sams Tampa, FL",,8490 W Hillsborough Ave ,,Tampa ,FL,33615,United States,(813) 886-3700,,,"Mon: 9:00 am-8:00 pm , Tue: 9:00 am-8:00 pm , Wed: 9:00 am-8:00 pm , Thu: 9:00 am-8:00 pm , Fri: 9:00 am-8:00 pm , Sat: 9:00 am-6:00 pm , Sun: 10:00 am-5:00 pm ",,,
"Fantastic Sams Tampa, FL",,4644 Gandy Blvd ,,Tampa ,FL,33611,United States,(813) 831-6544,,,"Mon: 9:00 am-8:00 pm , Tue: 9:00 am-8:00 pm , Wed: 9:00 am-8:00 pm , Thu: 9:00 am-8:00 pm , Fri: 9:00 am-8:00 pm , Sat: 9:00 am-6:00 pm , Sun: 11:00 am-4:00 pm ",,,
"Fantastic Sams Tampa, FL",,7334 W. Waters Ave. ,,Tampa ,FL,33634,United States,(813) 886-5555,,,"Mon: 9:00 am-8:00 pm , Tue: 9:00 am-8:00 pm , Wed: 9:00 am-8:00 pm , Thu: 9:00 am-8:00 pm , Fri: 9:00 am-8:00 pm , Sat: 9:00 am-6:00 pm , Sun: 11:00 am-4:00 pm ",,,
"Fantastic Sams Tampa, FL",,13250 N. Dale Mabry ,,Tampa ,FL,33618,United States,(813) 962-0222,,,"Mon: 9:00 am-8:00 pm , Tue: 9:00 am-8:00 pm , Wed: 9:00 am-8:00 pm , Thu: 9:00 am-8:00 pm , Fri: 9:00 am-8:00 pm , Sat: 9:00 am-6:00 pm , Sun: 11:00 am-5:00 pm ",,,
"Fantastic Sams Tampa, FL",,5373 Ehrlich Road ,,Tampa ,FL,33625,United States,(813) 265-3334,,,"Mon: 9:00 am-8:00 pm , Tue: 9:00 am-8:00 pm , Wed: 9:00 am-8:00 pm , Thu: 9:00 am-8:00 pm , Fri: 9:00 am-8:00 pm , Sat: 9:00 am-6:00 pm , Sun: 11:00 am-5:00 pm ",,,
"Fantastic Sams Wichita, KS",,4738 South Broadway ,,Wichita ,KS,67216,United States,(316) 524-3552,,,"Mon: 9:30 am-7:30 pm , Tue: 9:30 am-7:30 pm , Wed: 9:30 am-7:30 pm , Thu: 9:30 am-7:30 pm , Fri: 9:30 am-7:30 pm , Sat: 9:00 am-5:00 pm , Sun: Closed ",,,
"Fantastic Sams Wichita, KS",,1656 South Rock Road ,,Wichita ,KS,67207,United States,(316) 686-7736,,,"Mon: 9:30 am-7:30 pm , Tue: 9:30 am-7:30 pm , Wed: 9:30 am-7:30 pm , Thu: 9:30 am-7:30 pm , Fri: 9:30 am-7:30 pm , Sat: 9:00 am-5:00 pm , Sun: Closed ",,,
"Fantastic Sams Wichita, KS",,7340 West Central ,,Wichita ,KS,67212,United States,(316) 729-4840,,,"Mon: 9:30 am-7:30 pm , Tue: 9:30 am-7:30 pm , Wed: 9:30 am-7:30 pm , Thu: 9:30 am-7:30 pm , Fri: 9:30 am-7:30 pm , Sat: 9:00 am-5:00 pm , Sun: Closed ",,,
"Fantastic Sams Kansas City, MO",,4906 N. Oak ,,Kansas City ,MO,64118,United States,(816) 454-0049,,,,,,
"Fantastic Sams Kansas City, MO",,8562 N. Church Road ,,Kansas City ,MO,64158,United States,(816) 781-0999,,,,,,
"Fantastic Sams Kansas City, MO",,6244 Nw Barry Road ,,Kansas City ,MO,64154,United States,(816) 741-4888,,,,,,
"Fantastic Sams Kansas City, MO",,5522 Northeast Antioch Rd. ,,Kansas City ,MO,64119,United States,(816) 455-5440,,,,,,
"Fantastic Sams Honolulu, HI",,377 Keahole St. ,,Honolulu ,HI,96825,United States,(808) 396-3565,,,,,,
"Fantastic Sams Aurora, CO",,1155 South Havana Street ,,Aurora ,CO,80012,United States,(303) 750-9878,,,,,,
"Fantastic Sams Anaheim, CA",,8160 E. Santa Ana Canyon Rd. ,,Anaheim ,CA,92808,United States,(714) 685-6815,,,,,,
"Fantastic Sams Santa Ana, CA",,2274 E. 17th Street ,,Santa Ana ,CA,92705,United States,(714) 836-4456,,,,,,
"Fantastic Sams St. Louis, MO",,5445 Telegraph Rd. ,,St. Louis ,MO,63129,United States,(314) 200-8149,,,,,,
"Fantastic Sams Riverside, CA",,3380 La Sierra Ave ,,Riverside ,CA,92503,United States,(951) 354-7244,,,,,,
"Fantastic Sams Lake St. Louis, MO",,6107 Ronald Reagan Drive ,,Lake St. Louis ,MO,63367,United States,(636) 561-1999,,,"Mon: 9:00 am-9:00 pm , Tue: 9:00 am-9:00 pm , Wed: 9:00 am-9:00 pm , Thu: 9:00 am-9:00 pm , Fri: 9:00 am-9:00 pm , Sat: 8:00 am-6:00 pm , Sun: 10:00 am-6:00 pm ",,,
"Fantastic Sams Riverside, CA",,321 East Alessandro ,,Riverside ,CA,92508,United States,(951) 780-0108,,,,,,
"Fantastic Sams Riverside, CA",,17096 Van Buren Blvd ,,Riverside ,CA,92504,United States,(951) 776-2312,,,,,,
"Fantastic Sams Riverside, CA",,2955 Van Buren Blvd ,,Riverside ,CA,92503,United States,(951) 354-2408,,,,,,
"Fantastic Sams Riverside, CA",,3267 Arlington Ave ,,Riverside ,CA,92506,United States,(951) 684-2407,,,,,,
"Fantastic Sams St. Louis, MO",,7243 Watson Rd.. ,,St. Louis ,MO,63119,United States,(314) 353-8330,,,"Mon: 9:00 am-8:00 pm , Tue: 9:00 am-8:00 pm , Wed: 9:00 am-8:00 pm , Thu: 9:00 am-8:00 pm , Fri: 9:00 am-8:00 pm , Sat: 8:00 am-5:30 pm , Sun: 10:00 am-5:00 pm ",,,
"Fantastic Sams St. Louis, MO",,1916 Mckelvey Road ,,St. Louis ,MO,63043,United States,(314) 576-2079,,,"Mon: 9:00 am-8:00 pm , Tue: 9:00 am-8:00 pm , Wed: 9:00 am-8:00 pm , Thu: 9:00 am-8:00 pm , Fri: 9:00 am-8:00 pm , Sat: 9:00 am-5:30 pm , Sun: 10:00 am-5:00 pm ",,,
"Fantastic Sams St. Louis, MO",,2520 Lemay Ferry Road ,,St. Louis ,MO,63125,United States,(314) 487-0679,,,"Mon: 9:00 am-8:00 pm , Tue: 9:00 am-8:00 pm , Wed: 9:00 am-8:00 pm , Thu: 9:00 am-8:00 pm , Fri: 9:00 am-8:00 pm , Sat: 8:00 am-5:30 pm , Sun: 10:00 am-5:00 pm ",,,
"Fantastic Sams St. Louis, MO",,11473 Olive Blvd. ,,St. Louis ,MO,63141,United States,(314) 432-6614,,,"Mon: 8:00 am-8:00 pm , Tue: 8:00 am-8:00 pm , Wed: 8:00 am-8:00 pm , Thu: 8:00 am-8:00 pm , Fri: 8:00 am-8:00 pm , Sat: 8:00 am-5:30 pm , Sun: 9:00 am-5:00 pm ",,,
"Fantastic Sams St. Louis, MO",,115 Concord Plaza Shopping Center ,,St. Louis ,MO,63128,United States,(314) 849-4450,,,"Mon: 9:00 am-8:00 pm , Tue: 9:00 am-8:00 pm , Wed: 9:00 am-8:00 pm , Thu: 9:00 am-8:00 pm , Fri: 9:00 am-8:00 pm , Sat: 8:00 am-5:30 pm , Sun: 10:00 am-5:00 pm ",,,
"Fantastic Sams Plano, TX",,3131 Custer Rd ,,Plano ,TX,75075,United States,(469) 814-0765,,,"Mon: 9:00 am-8:00 pm , Tue: 9:00 am-8:00 pm , Wed: 9:00 am-8:00 pm , Thu: 9:00 am-8:00 pm , Fri: 9:00 am-8:00 pm , Sat: 9:00 am-8:00 pm , Sun: 11:00 am-6:00 pm ",,,
"Fantastic Sams Plano, TX",,7000 Independence Pkwy ,,Plano ,TX,75025,United States,(972) 491-0614,,,,,,
"Fantastic Sams Aurora, CO",,18121 East Hampden Avenue ,,Aurora ,CO,80013,United States,(720) 870-1229,,,,,,
"Fantastic Sams Aurora, CO",,6616 S. Parker Road ,,Aurora ,CO,80016,United States,(720) 870-3904,,,"Mon: 9:00 am-8:00 pm , Tue: 9:00 am-8:00 pm , Wed: 9:00 am-8:00 pm , Thu: 9:00 am-8:00 pm , Fri: 9:00 am-8:00 pm , Sat: 8:00 am-6:00 pm , Sun: 9:00 am-5:00 pm ",,,
"Fantastic Sams Honolulu, HI",,1960 Kapiolani Blvd ,,Honolulu ,HI,96817,United States,(808) 955-8422,,,,,,
"Fantastic Sams Honolulu, HI",,1235 Wilder Avenue ,,Honolulu ,HI,96822,United States,(808) 528-5559,,,,,,
"Fantastic Sams Honolulu, HI",,1620 School St. ,,Honolulu ,HI,96817,United States,(808) 841-4415,,,,,,
"Fantastic Sams Honolulu, HI",,3221 Waialae Ave. ,,Honolulu ,HI,96816,United States,(808) 732-6200,,,,,,
"Fantastic Sams Henderson, NV",,615 N. Stephanie St. ,,Henderson ,NV,89014,United States,(702) 451-2711,,,"Mon: 9:00 am-7:00 pm , Tue: 9:00 am-7:00 pm , Wed: 9:00 am-7:00 pm , Thu: 9:00 am-7:00 pm , Fri: 9:00 am-7:00 pm , Sat: 9:00 am-7:00 pm , Sun: 10:00 am-7:00 pm ",,,
"Fantastic Sams Henderson, NV",,2654 W. Horizon Ridge Parkway ,,Henderson ,NV,89052,United States,(702) 617-6720,,,"Mon: 9:00 am-7:00 pm , Tue: 9:00 am-7:00 pm , Wed: 9:00 am-7:00 pm , Thu: 9:00 am-7:00 pm , Fri: 9:00 am-7:00 pm , Sat: 9:00 am-6:00 pm , Sun: 10:00 am-5:00 pm ",,,
"Fantastic Sams Henderson, NV",,55 S Valle Verde Drive ,,Henderson ,NV,89012,United States,(702) 837-9800,,,"Mon: 9:00 am-7:00 pm , Tue: 9:00 am-7:00 pm , Wed: 9:00 am-7:00 pm , Thu: 9:00 am-7:00 pm , Fri: 9:00 am-7:00 pm , Sat: 9:00 am-6:00 pm , Sun: 10:00 am-5:00 pm ",,,
"Fantastic Sams Buffalo, NY",,2476 Seneca St. ,,Buffalo ,NY,14210,United States,(716) 822-2214,,,,,,
"Fantastic Sams Chula Vista, CA",,730 Otay Lakes Rd. ,,Chula Vista ,CA,91910,United States,(619) 482-0121,,,,,,
"Fantastic Sams Chula Vista, CA",,1181 Broadway ,,Chula Vista ,CA,91911,United States,(619) 691-1981,,,"Mon: 9:00 am-8:00 pm , Tue: 9:00 am-8:00 pm , Wed: 9:00 am-8:00 pm , Thu: 9:00 am-8:00 pm , Fri: 9:00 am-8:00 pm , Sat: 9:00 am-6:00 pm , Sun: 10:00 am-5:00 pm ",,,
"Fantastic Sams Orlando, FL",,12648 S Orange Blossom Trail ,,Orlando ,FL,32837,United States,(407) 493-1733,,,"Mon: 9:00 am-8:00 pm , Tue: 9:00 am-8:00 pm , Wed: 9:00 am-8:00 pm , Thu: 9:00 am-8:00 pm , Fri: 9:00 am-8:00 pm , Sat: 9:00 am-6:00 pm , Sun: 10:00 am-5:00 pm ",,,
"Fantastic Sams Orlando, FL",,16837 E Colonial Dr ,,Orlando ,FL,32820,United States,(407) 568-9558,,,"Mon: 9:00 am-8:00 pm , Tue: 9:00 am-8:00 pm , Wed: 9:00 am-8:00 pm , Thu: 9:00 am-8:00 pm , Fri: 9:00 am-6:00 pm , Sat: 9:00 pm-6:00 pm , Sun: 11:00 am-5:00 pm ",,,
"Fantastic Sams Chandler, AZ",,1020 E Ray Road ,,Chandler ,AZ,85226,United States,(480) 899-0314,,,"Mon: 9:00 am-8:00 pm , Tue: 9:00 am-8:00 pm , Wed: 9:00 am-8:00 pm , Thu: 9:00 am-8:00 pm , Fri: 9:00 am-8:00 pm , Sat: 9:00 am-6:00 pm , Sun: 10:00 am-5:00 pm ",,,
"Fantastic Sams Chandler, AZ",,4980 W Ray Rd ,,Chandler ,AZ,85226,United States,(480) 839-4822,,,"Mon: 9:00 am-7:00 pm , Tue: 9:00 am-7:00 pm , Wed: 9:00 am-7:00 pm , Thu: 9:00 am-7:00 pm , Fri: 9:00 am-7:00 pm , Sat: 9:00 am-6:00 pm , Sun: 10:00 am-5:00 pm ",,,
"Fantastic Sams Chandler, AZ",,2880 E. Germann Rd. ,,Chandler ,AZ,85286,United States,(480) 726-2624,,,"Mon: 9:00 am-8:00 pm , Tue: 9:00 am-8:00 pm , Wed: 9:00 am-8:00 pm , Thu: 9:00 am-8:00 pm , Fri: 9:00 am-8:00 pm , Sat: 9:00 am-7:00 pm , Sun: 10:00 am-6:00 pm ",,,
"Fantastic Sams Durham, NC",,202 W NC Hwy 54 ,,Durham ,NC,27713,United States,(919) 361-2950,,,"Mon: 9:00 am-8:00 pm , Tue: 9:00 am-8:00 pm , Wed: 9:00 am-8:00 pm , Thu: 9:00 am-8:00 pm , Fri: 9:00 am-8:00 pm , Sat: 9:00 am-6:00 pm , Sun: 12:00 pm-5:00 pm ",,,
"Fantastic Sams Lubbock, TX",,6301 82nd St ,,Lubbock ,TX,79424,United States,(806) 794-7261,,,"Mon: 10:00 am-8:00 pm , Tue: 10:00 am-8:00 pm , Wed: 10:00 am-8:00 pm , Thu: 10:00 am-8:00 pm , Fri: 10:00 am-8:00 pm , Sat: 9:00 am-7:00 pm , Sun: 12:00 pm-6:00 pm ",,,
"Fantastic Sams Chandler, AZ",,4040 S. Arizona Avenue ,,Chandler ,AZ,85248,United States,(480) 883-2283,,,"Mon: 9:00 am-8:00 pm , Tue: 9:00 am-8:00 pm , Wed: 9:00 am-8:00 pm , Thu: 9:00 am-8:00 pm , Fri: 9:00 am-8:00 pm , Sat: 9:00 am-6:00 pm , Sun: 10:00 am-5:00 pm ",,,
"Fantastic Sams Irvine, CA",,17655 E-Harvard Avenue ,,Irvine ,CA,92614,United States,(949) 756-8665,,,,,,
"Fantastic Sams Glendale, AZ",,8271 W Union Hills Rd ,,Glendale ,AZ,85308,United States,(623) 825-3553,,,"Mon: 9:00 am-7:00 pm , Tue: 9:00 am-7:00 pm , Wed: 9:00 am-7:00 pm , Thu: 9:00 am-7:00 pm , Fri: 9:00 am-7:00 pm , Sat: 9:00 am-5:00 pm , Sun: 10:00 am-5:00 pm ",,,
"Fantastic Sams Glendale, AZ",,5707 W Northern Avenue ,,Glendale ,AZ,85301,United States,(623) 847-3855,,,"Mon: 9:00 am-8:00 pm , Tue: 9:00 am-8:00 pm , Wed: 9:00 am-8:00 pm , Thu: 9:00 am-8:00 pm , Fri: 9:00 am-8:00 pm , Sat: 9:00 am-6:00 pm , Sun: 10:00 am-5:00 pm ",,,
"Fantastic Sams Orlando, FL",,4434 Hoffner Ave. ,,Orlando ,FL,32812,United States,(407) 812-7500,,,"Mon: 9:00 am-8:00 pm , Tue: 9:00 am-8:00 pm , Wed: 9:00 am-8:00 pm , Thu: 9:00 am-8:00 pm , Fri: 9:00 am-8:00 pm , Sat: 9:00 am-6:00 pm , Sun: 11:00 am-5:00 pm ",,,
"Fantastic Sams Reno, NV",,6633 S. Virginia St. ,,Reno ,NV,89511,United States,(775) 852-1434,,,"Mon: 9:00 am-7:00 am , Tue: 9:00 am-7:00 am , Wed: 9:00 am-7:00 am , Thu: 9:00 am-7:00 am , Fri: 9:00 am-7:00 am , Sat: 9:00 am-7:00 am , Sun: 9:00 am-6:00 pm ",,,
"Fantastic Sams Baton Rouge, LA",,5353 Jones Creek Rd ,,Baton Rouge ,LA,70817,United States,(225) 752-0999,,,"Mon: 9:00 am-7:00 pm , Tue: 9:00 am-7:00 pm , Wed: 9:00 am-7:00 pm , Thu: 9:00 am-7:00 pm , Fri: 9:00 am-7:00 pm , Sat: 9:00 am-5:00 pm , Sun: Closed ",,,
"Fantastic Sams Baton Rouge, LA",,5245 Highland Rd ,,Baton Rouge ,LA,70808,United States,(225) 769-6677,,,"Mon: 9:00 am-7:00 pm , Tue: 9:00 am-7:00 pm , Wed: 9:00 am-7:00 pm , Thu: 9:00 am-7:00 pm , Fri: 9:00 am-7:00 pm , Sat: 9:00 am-5:00 pm , Sun: Closed ",,,
"Fantastic Sams Gilbert, AZ",,1435 E Warner Rd. ,,Gilbert ,AZ,85296,United States,(480) 633-7457,,,"Mon: 9:00 am-8:00 pm , Tue: 9:00 am-8:00 pm , Wed: 9:00 am-8:00 pm , Thu: 9:00 am-8:00 pm , Fri: 9:00 am-8:00 pm , Sat: 8:00 am-7:00 pm , Sun: 10:00 am-6:00 pm ",,,
"Fantastic Sams Scottsdale, AZ",,7349 N Via Paseo Del Sur ,,Scottsdale ,AZ,85258,United States,(480) 609-1920,,,"Mon: 9:00 am-8:00 pm , Tue: 9:00 am-8:00 pm , Wed: 9:00 am-8:00 pm , Thu: 9:00 am-8:00 pm , Fri: 9:00 am-8:00 pm , Sat: 9:00 am-6:00 pm , Sun: 10:00 am-5:00 pm ",,,
"Fantastic Sams Scottsdale, AZ",,15231 N 87th St ,,Scottsdale ,AZ,85260,United States,(480) 443-0228,,,"Mon: 9:00 am-8:00 pm , Tue: 9:00 am-8:00 pm , Wed: 9:00 am-8:00 pm , Thu: 9:00 am-8:00 pm , Fri: 9:00 am-8:00 pm , Sat: 9:00 am-8:00 pm , Sun: 10:00 am-5:00 pm ",,,
"Fantastic Sams Spokane, WA",,12204 N. Division ,,Spokane ,WA,99218,United States,(509) 467-3158,,,"Mon: 9:00 am-6:00 pm , Tue: 9:00 am-8:00 pm , Wed: 9:00 am-8:00 pm , Thu: 9:00 am-8:00 pm , Fri: 9:00 am-6:00 pm , Sat: 9:00 am-6:00 pm , Sun: Closed ",,,
"Fantastic Sams Spokane, WA",,13817 E. Sprague Ave. ,,Spokane ,WA,99216,United States,(509) 924-4978,,,"Mon: 9:00 am-6:00 pm , Tue: 9:00 am-6:00 pm , Wed: 9:00 am-8:00 pm , Thu: 9:00 am-8:00 pm , Fri: 9:00 am-6:00 pm , Sat: 9:00 am-5:00 pm , Sun: 10:00 am-4:00 pm ",,,
"Fantastic Sams Spokane, WA",,6230 North Division Rd. ,,Spokane ,WA,99207,United States,(509) 487-1322,,,"Mon: 9:00 am-6:00 pm , Tue: 9:00 am-8:00 pm , Wed: 9:00 am-8:00 pm , Thu: 9:00 am-8:00 pm , Fri: 9:00 am-6:00 pm , Sat: 9:00 am-5:00 pm , Sun: 10:00 am-4:00 pm ",,,
"Fantastic Sams Richmond, VA",,10476 Ridgefield Parkway ,,Richmond ,VA,23233,United States,(804) 740-7267,,,"Mon: 9:00 am-7:00 pm , Tue: 9:00 am-7:00 pm , Wed: 9:00 am-7:00 pm , Thu: 9:00 am-7:00 pm , Fri: 9:00 am-7:00 pm , Sat: 9:00 am-6:00 pm , Sun: Closed ",,,
"Fantastic Sams Richmond, VA",,1545 North Parham Rd ,,Richmond ,VA,23229,United States,(804) 288-2637,,,"Mon: 10:00 am-7:00 pm , Tue: 10:00 am-7:00 pm , Wed: 10:00 am-7:00 pm , Thu: 10:00 am-7:00 pm , Fri: 10:00 am-7:00 pm , Sat: 9:00 am-6:00 pm , Sun: Closed ",,,
"Fantastic Sams San Bernardino, CA",,4164 N. Sierra Way ,,San Bernardino ,CA,92407,United States,(909) 475-8451,,,,,,
"Fantastic Sams Spokane, WA",,1423 N. Argonne Rd. ,,Spokane ,WA,99212,United States,(509) 927-8115,,,"Mon: 9:00 am-6:00 pm , Tue: 9:00 am-6:00 pm , Wed: 9:00 am-8:00 pm , Thu: 9:00 am-8:00 pm , Fri: 9:00 am-6:00 pm , Sat: 9:00 am-5:00 pm , Sun: Closed ",,,
"Fantastic Sams Scottsdale, AZ",,11219 E Via Linda ,,Scottsdale ,AZ,85259,United States,(480) 314-0362,,,"Mon: 8:00 am-8:00 pm , Tue: 8:00 am-8:00 pm , Wed: 8:00 am-8:00 pm , Thu: 8:00 am-8:00 pm , Fri: 8:00 am-8:00 pm , Sat: 9:00 am-7:00 pm , Sun: 10:00 am-6:00 am ",,,
"Fantastic Sams Modesto, CA",,3601 Pelandale Ave. ,,Modesto ,CA,95356,United States,(209) 545-7777,,,,,,
"Fantastic Sams Fayetteville, NC",,4749 Ramsey St ,,Fayetteville ,NC,28311,United States,(910) 630-6030,,,"Mon: 9:00 am-8:00 pm , Tue: 9:00 am-8:00 pm , Wed: 9:00 am-8:00 pm , Thu: 9:00 am-8:00 pm , Fri: 9:00 am-8:00 pm , Sat: 9:00 am-6:00 pm , Sun: 11:00 am-5:00 pm ",,,
"Fantastic Sams Fayetteville, NC",,5555 Waldos Beach Rd ,,Fayetteville ,NC,28306,United States,(910) 424-7267,,,"Mon: 9:00 am-8:00 pm , Tue: 9:00 am-8:00 pm , Wed: 9:00 am-8:00 pm , Thu: 9:00 am-8:00 pm , Fri: 9:00 am-8:00 pm , Sat: 9:00 am-6:00 pm , Sun: 11:00 am-5:00 pm ",,,
"Fantastic Sams Fayetteville, NC",,1800 Skibo Road ,,Fayetteville ,NC,28303,United States,(910) 487-1110,,,"Mon: 9:00 am-7:00 pm , Tue: 9:00 am-7:00 pm , Wed: 9:00 am-7:00 pm , Thu: 9:00 am-7:00 pm , Fri: 9:00 am-7:00 pm , Sat: 9:00 am-6:00 pm , Sun: 12:00 pm-5:00 pm ",,,
"Fantastic Sams Fayetteville, NC",,7968 Raeford Rd ,,Fayetteville ,NC,28304,United States,(910) 223-9770,,,"Mon: 9:00 am-7:00 pm , Tue: 9:00 am-7:00 pm , Wed: 9:00 am-7:00 pm , Thu: 9:00 am-7:00 pm , Fri: 9:00 am-7:00 pm , Sat: 9:00 am-6:00 pm , Sun: 11:00 am-5:00 pm ",,,
"Fantastic Sams Oxnard, CA",,1941 N Rose Ave ,,Oxnard ,CA,93030,United States,(805) 983-8797,,,,,,
"Fantastic Sams Fontana, CA",,15032 Summit Avenue ,,Fontana ,CA,92336,United States,(909) 463-2110,,,,,,
"Fantastic Sams Moreno Valley, CA",,14435 Moreno Beach Drive ,,Moreno Valley ,CA,92555,United States,(951) 242-0100,,,,,,
"Fantastic Sams Moreno Valley, CA",,25970 Iris Avenue ,,Moreno Valley ,CA,92551,United States,(951) 485-8155,,,,,,
"Fantastic Sams Huntington Beach, CA",,7777 Edinger Avenue ,,Huntington Beach ,CA,92647,United States,(714) 799-0700,,,,,,
"Fantastic Sams Mobile, AL",,5451 Halls Mill Rd ,,Mobile ,AL,36619,United States,(251) 666-4247,,,"Mon: 8:00 am-7:00 pm , Tue: 8:00 am-7:00 pm , Wed: 8:00 am-7:00 pm , Thu: 8:00 am-7:00 pm , Fri: 8:00 am-7:00 pm , Sat: 9:00 am-6:00 pm , Sun: Closed ",,,
"Fantastic Sams Glendale, CA",,811 Americana Way ,,Glendale ,CA,91204,United States,(818) 240-4411,,,"Mon: 9:00 am-8:00 pm , Tue: 9:00 am-8:00 pm , Wed: 9:00 am-8:00 pm , Thu: 9:00 am-8:00 pm , Fri: 9:00 am-8:00 pm , Sat: 9:00 am-8:00 pm , Sun: 10:00 am-7:00 pm ",,,
"Fantastic Sams Garden Grove, CA",,9877 Chapman Avenue ,,Garden Grove ,CA,92841,United States,(714) 534-5255,,,,,,
"Fantastic Sams Providence, RI",,550 Hartford Avenue ,,Providence ,RI,02909,United States,(401) 351-8918,,,"Mon: 9:00 am-5:00 pm , Tue: 9:00 am-8:00 pm , Wed: 9:00 am-8:00 pm , Thu: 9:00 am-8:00 pm , Fri: 9:00 am-8:00 pm , Sat: 8:00 am-5:00 pm , Sun: Closed ",,,
"Fantastic Sams Garden Grove, CA",,13208 Harbor Blvd. ,,Garden Grove ,CA,92843,United States,(714) 534-9106,,,,,,
"Fantastic Sams Oceanside, CA",,2530 Vista Way ,,Oceanside ,CA,92054,United States,(760) 439-7909,,,"Mon: 9:00 am-8:00 pm , Tue: 9:00 am-8:00 pm , Wed: 9:00 am-8:00 pm , Thu: 9:00 am-8:00 pm , Fri: 9:00 am-8:00 pm , Sat: 9:00 am-8:00 pm , Sun: 10:00 am-5:00 am ",,,
"Fantastic Sams Rancho Cucamonga, CA",,7375 Day Creek Boulevard ,,Rancho Cucamonga ,CA,91739,United States,(909) 803-2853,,,,,,
"Fantastic Sams Rancho Cucamonga, CA",,11398 Kenyon Way ,,Rancho Cucamonga ,CA,91701,United States,(909) 948-7406,,,,,,
"Fantastic Sams Tempe, AZ",,6340 S Rural Rd. ,,Tempe ,AZ,85283,United States,(480) 820-0865,,,"Mon: 9:00 am-8:00 pm , Tue: 9:00 am-8:00 pm , Wed: 9:00 am-8:00 pm , Thu: 9:00 am-8:00 pm , Fri: 9:00 am-8:00 pm , Sat: 9:00 am-7:00 pm , Sun: 10:00 am-6:00 pm ",,,
"Fantastic Sams Ontario, CA",,4150 E 4th St ,,Ontario ,CA,91764,United States,(909) 476-3796,,,,,,
"Fantastic Sams Ontario, CA",,3045 S Archibald Ave ,,Ontario ,CA,91761,United States,(909) 923-6769,,,,,,
"Fantastic Sams Cape Coral, FL",,2311 Santa Barbara Blvd. ,,Cape Coral ,FL,33991,United States,(239) 800-5207,,,"Mon: 9:00 am-8:00 pm , Tue: 9:00 am-8:00 pm , Wed: 9:00 am-8:00 pm , Thu: 9:00 am-8:00 pm , Fri: 9:00 am-8:00 pm , Sat: 9:00 am-6:00 pm , Sun: 10:00 am-4:00 pm ",,,
"Fantastic Sams Cape Coral, FL",,511 SW Pine Island Rd. ,,Cape Coral ,FL,33993,United States,(239) 458-7681,,,"Mon: 9:00 am-7:00 pm , Tue: 9:00 am-7:00 pm , Wed: 9:00 am-7:00 pm , Thu: 9:00 am-7:00 pm , Fri: 9:00 am-7:00 pm , Sat: 9:00 am-5:00 pm , Sun: 11:00 am-4:00 pm ",,,
"Fantastic Sams Springfield, MO",,3422 S Glenstone ,,Springfield ,MO,65804,United States,(417) 889-0079,,,"Mon: 9:00 am-7:00 pm , Tue: 9:00 am-7:00 pm , Wed: 9:00 am-7:00 pm , Thu: 9:00 am-7:00 pm , Fri: 9:00 am-7:00 pm , Sat: 9:00 am-6:00 pm , Sun: 11:00 am-4:00 pm ",,,
"Fantastic Sams Springfield, MO",,450 W. Battlefield ,,Springfield ,MO,65807,United States,(417) 887-6712,,,,,,
"Fantastic Sams Peoria, AZ",,7558 W Thunderbird Road ,,Peoria ,AZ,85381,United States,(623) 878-4474,,,"Mon: 9:00 am-7:00 pm , Tue: 9:00 am-7:00 pm , Wed: 9:00 am-7:00 pm , Thu: 9:00 am-7:00 pm , Fri: 9:00 am-7:00 pm , Sat: 9:00 am-5:00 pm , Sun: 10:00 am-5:00 pm ",,,
"Fantastic Sams Peoria, AZ",,21391 N. Lake Pleasant Parkway ,,Peoria ,AZ,85382,United States,(623) 376-6114,,,"Mon: 9:00 am-7:00 pm , Tue: 9:00 am-7:00 pm , Wed: 9:00 am-7:00 pm , Thu: 9:00 am-7:00 pm , Fri: 9:00 am-7:00 pm , Sat: 9:00 am-5:00 pm , Sun: 10:00 am-5:00 pm ",,,
"Fantastic Sams Springfield, MO",,1845 East Turner ,,Springfield ,MO,65803,United States,(417) 864-5820,,,,,,
"Fantastic Sams Rancho Cucamonga, CA",,9784 19th Street ,,Rancho Cucamonga ,CA,91737,United States,(909) 980-6834,,,,,,
"Fantastic Sams Corona, CA",,2621 Green River Rd ,,Corona ,CA,92882,United States,(951) 371-7045,,,"Mon: 9:00 am-8:00 pm , Tue: 9:00 am-8:00 pm , Wed: 9:00 am-8:00 pm , Thu: 9:00 am-8:00 pm , Fri: 9:00 am-8:00 pm , Sat: 9:00 am-5:00 pm , Sun: 10:00 am-5:00 pm ",,,
"Fantastic Sams Corona, CA",,2150 California Ave. ,,Corona ,CA,92881,United States,(951) 270-0999,,,,,,
"Fantastic Sams Palmdale, CA",,39256 10th Street W ,,Palmdale ,CA,93551,United States,(661) 266-1156,,,,,,
"Fantastic Sams Corona, CA",,11882 De Palma Rd ,,Corona ,CA,92883,United States,(951) 277-2002,,,,,,
"Fantastic Sams Corona, CA",,387 Magnolia Avenue ,,Corona ,CA,92879,United States,(951) 371-1905,,,"Mon: 9:00 am-7:00 pm , Tue: 9:00 am-7:00 pm , Wed: 9:00 am-7:00 pm , Thu: 9:00 am-7:00 pm , Fri: 9:00 am-7:00 pm , Sat: 9:00 am-5:00 pm , Sun: 10:00 am-5:00 pm ",,,
"Fantastic Sams Corona, CA",,2279 Eagle Glen Parkway ,,Corona ,CA,92883,United States,(951) 808-0200,,,,,,
"Fantastic Sams Fort Collins, CO",,1101 W. Drake Rd. ,,Fort Collins ,CO,80526,United States,(970) 206-9214,,,"Mon: 9:00 am-7:00 pm , Tue: 9:00 am-7:00 pm , Wed: 9:00 am-7:00 pm , Thu: 9:00 am-7:00 pm , Fri: 9:00 am-7:00 pm , Sat: 8:00 am-6:00 pm , Sun: 9:00 am-5:00 pm ",,,
"Fantastic Sams Cary, NC",,6450 Tryon Road ,,Cary ,NC,27518,United States,(919) 977-3528,,,"Mon: 10:00 am-7:00 pm , Tue: 10:00 am-7:00 pm , Wed: 10:00 am-7:00 pm , Thu: 10:00 am-7:00 pm , Fri: 10:00 am-7:00 pm , Sat: 9:00 am-6:00 pm , Sun: 12:00 pm-5:00 pm ",,,
"Fantastic Sams Cary, NC",,3460 Ten Ten Road ,,Cary ,NC,27518,United States,(919) 362-9044,,,"Mon: 10:00 am-8:00 pm , Tue: 10:00 am-8:00 pm , Wed: 10:00 am-8:00 pm , Thu: 10:00 am-8:00 pm , Fri: 10:00 am-8:00 pm , Sat: 9:00 am-6:00 pm , Sun: 12:00 pm-5:00 pm ",,,
"Fantastic Sams Cary, NC",,1971 High House Rd ,,Cary ,NC,27513,United States,(919) 462-0220,,,"Mon: 9:00 am-8:00 pm , Tue: 9:00 am-8:00 pm , Wed: 9:00 am-8:00 pm , Thu: 9:00 am-8:00 pm , Fri: 9:00 am-8:00 pm , Sat: 8:00 am-6:00 pm , Sun: 10:00 am-5:00 pm ",,,
"Fantastic Sams McKinney, TX",,9245 Virginia Parkway ,,McKinney ,TX,75071,United States,(972) 347-9753,,,"Mon: 10:00 am-7:00 pm , Tue: 10:00 am-7:00 pm , Wed: 10:00 am-7:00 pm , Thu: 10:00 am-7:00 pm , Fri: 10:00 am-7:00 pm , Sat: 9:00 am-6:00 pm , Sun: 11:00 am-6:00 pm ",,,
"Fantastic Sams Escondido, CA",,1629 East Valley Pkwy ,,Escondido ,CA,92027,United States,(760) 509-8995,,,,,,
"Fantastic Sams Kansas City, KS",,2823 South 47th Street ,,Kansas City ,KS,66106,United States,(913) 677-9928,,,"Mon: 9:00 am-7:30 pm , Tue: 9:00 am-7:30 pm , Wed: 9:00 am-7:30 pm , Thu: 9:00 am-7:30 pm , Fri: 9:00 am-6:00 pm , Sat: 9:00 am-5:00 pm , Sun: 12:00 pm-5:00 pm ",,,
"Fantastic Sams Kansas City, KS",,8157 State Ave. ,,Kansas City ,KS,66112,United States,(913) 299-8820,,,"Mon: 9:00 am-8:00 pm , Tue: 9:00 am-8:00 pm , Wed: 9:00 am-8:00 pm , Thu: 9:00 am-8:00 pm , Fri: 9:00 am-6:00 pm , Sat: 9:00 am-5:00 pm , Sun: 12:00 pm-5:00 pm ",,,
"Fantastic Sams Escondido, CA",,840 W Valley Pkwy ,,Escondido ,CA,92025,United States,(760) 479-6800,,,,,,
"Fantastic Sams Torrance, CA",,4952 W 190th St ,,Torrance ,CA,90503,United States,(310) 542-6700,,,"Mon: 9:00 am-8:00 pm , Tue: 9:00 am-8:00 pm , Wed: 9:00 am-8:00 pm , Thu: 9:00 am-8:00 pm , Fri: 9:00 am-8:00 pm , Sat: 9:00 am-6:00 pm , Sun: 10:00 am-5:00 pm ",,,
"Fantastic Sams Torrance, CA",,25365 Crenshaw Blvd ,,Torrance ,CA,90505,United States,(310) 539-2191,,,"Mon: 9:00 am-8:00 pm , Tue: 9:00 am-8:00 pm , Wed: 9:00 am-8:00 pm , Thu: 9:00 am-8:00 pm , Fri: 9:00 am-8:00 pm , Sat: 9:00 am-6:00 pm , Sun: 10:00 am-6:00 pm ",,,
"Fantastic Sams Lakewood, CO",,11068 W. Jewell Ave. ,,Lakewood ,CO,80232,United States,(303) 988-9692,,,"Mon: 8:00 am-8:00 pm , Tue: 8:00 am-8:00 pm , Wed: 8:00 am-8:00 pm , Thu: 8:00 am-8:00 pm , Fri: 8:00 am-8:00 pm , Sat: 8:00 am-7:00 pm , Sun: 9:00 am-6:00 pm ",,,
"Fantastic Sams Torrance, CA",,4661 Torrance Blvd. ,,Torrance ,CA,90503,United States,(310) 370-9895,,,,,,
"Fantastic Sams Naperville, IL",,8 West Gartner Rd ,,Naperville ,IL,60540,United States,(630) 355-2168,,,"Mon: 9:00 am-6:00 pm , Tue: 9:00 am-8:00 pm , Wed: 9:00 am-6:00 pm , Thu: 9:00 am-8:00 pm , Fri: 9:00 am-6:00 pm , Sat: 8:00 am-4:00 pm , Sun: 10:00 am-3:00 pm ",,,
"Fantastic Sams Clarksville, TN",,1960-D Madison Street ,,Clarksville ,TN,37043,United States,(931) 647-4625,,,,,,
"Fantastic Sams Orange, CA",,2532 E. Chapman ,,Orange ,CA,92869,United States,(714) 538-1724,,,,,,
"Fantastic Sams Orange, CA",,8420 Chapman Ave. ,,Orange ,CA,92869,United States,(714) 288-1460,,,,,,
"Fantastic Sams Fullerton, CA",,951 Starbuck St ,,Fullerton ,CA,92832,United States,(714) 525-7300,,,,,,
"Fantastic Sams Pasadena, CA",,502 South Lake Ave. ,,Pasadena ,CA,91101,United States,(626) 639-3737,,,"Mon: 10:00 am-8:00 pm , Tue: 10:00 am-8:00 pm , Wed: 10:00 am-8:00 pm , Thu: 10:00 am-8:00 pm , Fri: 10:00 am-8:00 pm , Sat: 10:00 am-6:00 pm , Sun: 10:00 am-6:00 pm ",,,
"Fantastic Sams Frisco, TX",,8745 Gary Burns Dr ,,Frisco ,TX,75034,United States,(214) 705-8404,,,"Mon: 10:00 am-8:00 pm , Tue: 10:00 am-8:00 pm , Wed: 10:00 am-8:00 pm , Thu: 10:00 am-8:00 pm , Fri: 10:00 am-8:00 pm , Sat: 10:00 am-7:00 pm , Sun: 11:00 am-5:00 pm ",,,
"Fantastic Sams Pasadena, CA",,3645 East Foothill ,,Pasadena ,CA,91107,United States,(626) 351-4720,,,,,,
"Fantastic Sams Warren, MI",,29138 Ryan Road ,,Warren ,MI,48092,United States,(586) 751-4498,,,"Mon: 9:00 am-8:00 pm , Tue: 9:00 am-8:00 pm , Wed: 9:00 am-8:00 pm , Thu: 9:00 am-8:00 pm , Fri: 9:00 am-8:00 pm , Sat: 9:00 am-6:00 pm , Sun: 11:00 am-4:00 pm ",,,
"Fantastic Sams West Valley City, UT",,4645 South 4000 West ,,West Valley City ,UT,84120,United States,(801) 840-2422,,,"Mon: 9:00 am-8:00 pm , Tue: 9:00 am-8:00 pm , Wed: 9:00 am-8:00 pm , Thu: 9:00 am-8:00 pm , Fri: 9:00 am-8:00 pm , Sat: 9:00 am-6:00 pm , Sun: 11:00 am-4:00 pm ",,,
"Fantastic Sams West Valley City, UT",,2993 S 5600 W ,,West Valley City ,UT,84120,United States,(801) 966-0182,,,"Mon: 9:00 am-8:00 pm , Tue: 9:00 am-8:00 pm , Wed: 9:00 am-8:00 pm , Thu: 9:00 am-8:00 pm , Fri: 9:00 am-8:00 pm , Sat: 9:00 am-6:00 pm , Sun: 11:00 am-4:00 pm ",,,
"Fantastic Sams Olathe, KS",,14920 W 119th ,,Olathe ,KS,66062,United States,(913) 782-7400,,,"Mon: 9:00 am-8:00 pm , Tue: 9:00 am-8:00 pm , Wed: 9:00 am-8:00 pm , Thu: 9:00 am-8:00 pm , Fri: 9:00 am-7:00 pm , Sat: 9:00 am-5:00 pm , Sun: 12:00 pm-5:00 pm ",,,
"Fantastic Sams Sterling Heights, MI",,2253 Eighteen Mile Road ,,Sterling Heights ,MI,48314,United States,(586) 726-1390,,,,,,
"Fantastic Sams Thousand Oaks, CA",,1392 N. Moorpark Rd. ,,Thousand Oaks ,CA,91360,United States,(805) 373-8929,,,,,,
"Fantastic Sams Thornton, CO",,9890 Grant St ,,Thornton ,CO,80229,United States,(303) 280-3442,,,"Mon: 8:00 am-8:00 pm , Tue: 8:00 am-8:00 pm , Wed: 8:00 am-8:00 pm , Thu: 8:00 am-8:00 pm , Fri: 8:00 am-8:00 pm , Sat: 8:00 am-6:00 pm , Sun: 10:00 am-5:00 pm ",,,
"Fantastic Sams Simi Valley, CA",,660 E. Los Angeles Avenue ,,Simi Valley ,CA,93065,United States,(805) 584-1495,,,,,,
"Fantastic Sams Coral Springs, FL",,938 N University Dr ,,Coral Springs ,FL,33071,United States,(954) 757-1717,,,"Mon: 9:00 am-8:30 pm , Tue: 9:00 am-8:30 pm , Wed: 9:00 am-8:30 pm , Thu: 9:00 am-8:30 pm , Fri: 9:00 am-8:30 pm , Sat: 8:00 am-7:00 pm , Sun: 10:00 am-5:00 pm ",,,
"Fantastic Sams Simi Valley, CA",,3998 Cochran St ,,Simi Valley ,CA,93063,United States,(805) 584-0665,,,,,,
"Fantastic Sams Lafayette, LA",,3537 Ambassador Caffery ,,Lafayette ,LA,70503,United States,(337) 981-1186,,,,,,
"Fantastic Sams Surprise, AZ",,13980 W. Bell Rd ,,Surprise ,AZ,85374,United States,(623) 544-5290,,,"Mon: 9:00 am-7:00 pm , Tue: 9:00 am-7:00 pm , Wed: 9:00 am-7:00 pm , Thu: 9:00 am-7:00 pm , Fri: 9:00 am-7:00 pm , Sat: 9:00 am-5:00 pm , Sun: 11:00 am-5:00 pm ",,,
"Fantastic Sams Surprise, AZ",,17031 W. Bell Rd. ,,Surprise ,AZ,85374,United States,(623) 544-5266,,,"Mon: 9:00 am-8:00 pm , Tue: 9:00 am-8:00 pm , Wed: 9:00 am-8:00 pm , Thu: 9:00 am-8:00 pm , Fri: 9:00 am-8:00 pm , Sat: 9:00 am-5:00 pm , Sun: 11:00 am-5:00 pm ",,,
"Fantastic Sams Evansville, IN",,139 North Burkhardt Rd. ,,Evansville ,IN,47715,United States,(812) 474-9020,,,"Mon: 9:00 am-7:00 pm , Tue: 9:00 am-7:00 pm , Wed: 9:00 am-7:00 pm , Thu: 9:00 am-7:00 pm , Fri: 9:00 am-7:00 pm , Sat: 9:00 am-6:00 pm , Sun: Closed ",,,
"Fantastic Sams Evansville, IN",,5435 Pearl Dr ,,Evansville ,IN,47712,United States,(812) 422-4098,,,"Mon: 9:00 am-7:00 pm , Tue: 9:00 am-7:00 pm , Wed: 9:00 am-7:00 pm , Thu: 9:00 am-7:00 pm , Fri: 9:00 am-7:00 pm , Sat: 9:00 am-6:00 pm , Sun: Closed ",,,
"Fantastic Sams Independence, MO",,513 E 24 Hwy ,,Independence ,MO,64050,United States,(816) 252-1122,,,,,,
"Fantastic Sams Independence, MO",,16635 E 23rd Street ,,Independence ,MO,64055,United States,(816) 833-8585,,,,,,
"Fantastic Sams Independence, MO",,17911 E. 24 Hwy ,,Independence ,MO,64056,United States,(816) 257-2522,,,,,,
"Fantastic Sams Ann Arbor, MI",,3131 Oak Valley Drive ,,Ann Arbor ,MI,48103,United States,(734) 994-6425,,,"Mon: 9:00 am-8:00 pm , Tue: 9:00 am-8:00 pm , Wed: 9:00 am-8:00 pm , Thu: 9:00 am-8:00 pm , Fri: 9:00 am-8:00 pm , Sat: 9:00 am-5:00 pm , Sun: 11:00 am-4:00 pm ",,,
"Fantastic Sams Lansing, MI",,5218 South Cedar ,,Lansing ,MI,48911,United States,(517) 882-7700,,,"Mon: 9:00 am-8:00 pm , Tue: 9:00 am-8:00 pm , Wed: 9:00 am-8:00 pm , Thu: 9:00 am-8:00 pm , Fri: 9:00 am-8:00 pm , Sat: 9:00 am-5:00 pm , Sun: 12:00 pm-5:00 pm ",,,
"Fantastic Sams Downey, CA",,113 Stonewood Street ,,Downey ,CA,90241,United States,(562) 923-0999,,,,,,
"Fantastic Sams Costa Mesa, CA",,1545 Adams Avenue ,,Costa Mesa ,CA,92626,United States,(714) 438-2435,,,,,,
"Fantastic Sams Wilmington, NC",,5539 Carolina Beach Rd ,,Wilmington ,NC,28412,United States,(910) 667-2157,,,"Mon: 10:00 am-8:00 pm , Tue: 10:00 am-8:00 pm , Wed: 10:00 am-8:00 pm , Thu: 10:00 am-8:00 pm , Fri: 10:00 am-8:00 pm , Sat: 9:00 am-6:00 pm , Sun: 11:00 pm-5:00 pm ",,,
"Fantastic Sams Wilmington, NC",,140 Hays Lane ,,Wilmington ,NC,28411,United States,(910) 681-1183,,,"Mon: 10:00 am-8:00 pm , Tue: 10:00 am-8:00 pm , Wed: 10:00 am-8:00 pm , Thu: 10:00 am-8:00 pm , Fri: 10:00 am-8:00 pm , Sat: 9:00 am-6:00 pm , Sun: 11:00 am-5:00 pm ",,,
"Fantastic Sams Arvada, CO",,7310 W 52nd Ave ,,Arvada ,CO,80002,United States,(303) 422-9208,,,,,,
"Fantastic Sams Arvada, CO",,6488 Ward Rd ,,Arvada ,CO,80004,United States,(303) 422-4206,,,"Mon: 8:00 am-8:00 pm , Tue: 8:00 am-8:00 pm , Wed: 8:00 am-8:00 pm , Thu: 8:00 am-8:00 pm , Fri: 8:00 am-8:00 pm , Sat: 8:00 am-6:00 pm , Sun: 9:00 am-5:00 pm ",,,
"Fantastic Sams Arvada, CO",,14455 W 64th Ave ,,Arvada ,CO,80004,United States,(303) 423-8110,,,,,,
"Fantastic Sams Arvada, CO",,7735 Wadsworth Blvd. ,,Arvada ,CO,80003,United States,(303) 467-3900,,,"Mon: 8:00 am-8:00 pm , Tue: 8:00 am-8:00 pm , Wed: 8:00 am-8:00 pm , Thu: 8:00 am-8:00 pm , Fri: 8:00 am-8:00 pm , Sat: 8:00 am-6:00 pm , Sun: 9:00 am-5:00 pm ",,,
"Fantastic Sams Rochester, MN",,4662 Maine Avenue SE ,,Rochester ,MN,55904,United States,(507) 288-3660,,,"Mon: 9:00 am-8:00 pm , Tue: 9:00 am-8:00 pm , Wed: 9:00 am-8:00 pm , Thu: 9:00 am-8:00 pm , Fri: 9:00 am-8:00 pm , Sat: 9:00 am-5:00 pm , Sun: 11:00 am-5:00 pm ",,,
"Fantastic Sams Wilmington, NC",,3905 Independence Blvd ,,Wilmington ,NC,28412,United States,(910) 667-2137,,,"Mon: 9:00 am-8:00 pm , Tue: 9:00 am-8:00 pm , Wed: 9:00 am-8:00 pm , Thu: 9:00 am-8:00 pm , Fri: 9:00 am-8:00 pm , Sat: 9:00 am-6:00 pm , Sun: 12:00 pm-5:00 pm ",,,
"Fantastic Sams Manchester, NH",,373 South Willow Street ,,Manchester ,NH,03103,United States,(603) 222-7227,,,"Mon: 9:00 am-8:00 pm , Tue: 9:00 am-8:00 pm , Wed: 9:00 am-8:00 pm , Thu: 9:00 am-8:00 pm , Fri: 9:00 am-8:00 pm , Sat: 9:00 am-7:00 pm , Sun: 9:00 am-4:00 pm ",,,
"Fantastic Sams Rochester, MN",,1190 16th Street SW ,,Rochester ,MN,55904,United States,(507) 281-8300,,,"Mon: 9:00 am-8:00 pm , Tue: 9:00 am-8:00 pm , Wed: 9:00 am-8:00 pm , Thu: 9:00 am-8:00 pm , Fri: 9:00 am-8:00 pm , Sat: 9:00 am-5:00 pm , Sun: 11:00 am-5:00 pm ",,,
"Fantastic Sams Manchester, NH",,North Side Plaza ,,Manchester ,NH,03104,United States,(603) 222-2268,,,"Mon: 9:00 am-7:00 pm , Tue: 9:00 am-7:00 pm , Wed: 9:00 am-7:00 pm , Thu: 9:00 am-7:00 pm , Fri: 9:00 am-7:00 pm , Sat: 9:00 am-5:30 pm , Sun: 10:00 am-4:00 pm ",,,
"Fantastic Sams Westminster, CO",,7243 N Federal Blvd ,,Westminster ,CO,80030,United States,(303) 657-1800,,,,,,
"Fantastic Sams West Jordan, UT",,7759 South 4800 West ,,West Jordan ,UT,84084,United States,(801) 255-1330,,,"Mon: 9:00 am-8:00 pm , Tue: 9:00 am-8:00 pm , Wed: 9:00 am-8:00 pm , Thu: 9:00 am-8:00 pm , Fri: 9:00 am-8:00 pm , Sat: 8:00 am-5:00 pm , Sun: Closed ",,,
"Fantastic Sams West Jordan, UT",,3961 West 9000 South ,,West Jordan ,UT,84088,United States,(801) 280-2391,,,"Mon: 9:00 am-8:00 pm , Tue: 9:00 am-8:00 pm , Wed: 9:00 am-8:00 pm , Thu: 9:00 am-8:00 pm , Fri: 9:00 am-8:00 pm , Sat: 8:00 am-5:00 pm , Sun: Closed ",,,
"Fantastic Sams West Jordan, UT",,9011 South Redwood Road ,,West Jordan ,UT,84088,United States,(801) 565-3600,,,"Mon: 9:00 am-8:00 pm , Tue: 9:00 am-8:00 pm , Wed: 9:00 am-8:00 pm , Thu: 9:00 am-8:00 pm , Fri: 9:00 am-8:00 pm , Sat: 9:00 am-6:00 pm , Sun: Closed ",,,
"Fantastic Sams Westminster, CO",,4750 W. 120th Ave. ,,Westminster ,CO,80020,United States,(303) 466-6113,,,,,,
"Fantastic Sams Clearwater, FL",,2237 Gulf to Bay Blvd. ,,Clearwater ,FL,33765,United States,(727) 466-0400,,,"Mon: 9:00 am-8:00 pm , Tue: 9:00 am-8:00 pm , Wed: 9:00 am-8:00 pm , Thu: 9:00 am-8:00 pm , Fri: 9:00 am-8:00 pm , Sat: 9:00 am-6:00 pm , Sun: 11:00 am-4:00 pm ",,,
"Fantastic Sams Clearwater, FL",,1229 S Missouri Ave ,,Clearwater ,FL,33756,United States,(727) 443-7607,,,"Mon: 9:00 am-8:00 pm , Tue: 9:00 am-8:00 pm , Wed: 9:00 am-8:00 pm , Thu: 9:00 am-8:00 pm , Fri: 9:00 am-8:00 pm , Sat: 9:00 am-6:00 pm , Sun: 11:00 am-4:00 pm ",,,
"Fantastic Sams Westminster, CO",,9975 Wadsworth Pkwy ,,Westminster ,CO,80021,United States,(303) 940-0476,,,,,,
"Fantastic Sams Pueblo West, CO",,74 N Mcculloch Blvd E ,,Pueblo West ,CO,81007,United States,(719) 647-2699,,,"Mon: 9:00 am-7:00 pm , Tue: 9:00 am-7:00 pm , Wed: 9:00 am-7:00 pm , Thu: 9:00 am-7:00 pm , Fri: 9:00 am-7:00 pm , Sat: 9:00 am-5:00 pm , Sun: 12:00 pm-5:00 pm ",,,
"Fantastic Sams Murrieta, CA",,39540 Murrieta Hot Springs Rd. ,,Murrieta ,CA,92563,United States,(951) 677-0241,,,"Mon: 9:00 am-7:00 pm , Tue: 9:00 am-7:00 pm , Wed: 9:00 am-7:00 pm , Thu: 9:00 am-7:00 pm , Fri: 9:00 am-7:00 pm , Sat: 9:00 am-6:00 pm , Sun: 10:00 am-5:00 pm ",,,
"Fantastic Sams Temecula, CA",,31867 Rancho California Road ,,Temecula ,CA,92591,United States,(951) 695-6204,,,,,,
"Fantastic Sams Centennial, CO",,7562 S University Blvd ,,Centennial ,CO,80122,United States,(303) 741-2337,,,"Mon: 9:00 am-7:00 pm , Tue: 9:00 am-7:00 pm , Wed: 9:00 am-7:00 pm , Thu: 9:00 am-7:00 pm , Fri: 9:00 am-7:00 pm , Sat: 9:00 am-5:00 pm , Sun: 9:00 am-5:00 pm ",,,
"Fantastic Sams Burbank, CA",,321 East Alameda Ave. ,,Burbank ,CA,91502,United States,(818) 955-8446,,,"Mon: 9:00 am-8:00 pm , Tue: 9:00 am-8:00 pm , Wed: 9:00 am-8:00 pm , Thu: 9:00 am-8:00 pm , Fri: 9:00 am-8:00 pm , Sat: 9:00 am-6:00 pm , Sun: 10:00 am-5:00 pm ",,,
"Fantastic Sams Burbank, CA",,1785 N Victory Place ,,Burbank ,CA,91502,United States,(818) 729-0534,,,,,,
"Fantastic Sams Burbank, CA",,343 North Pass Avenue ,,Burbank ,CA,91505,United States,(818) 840-9291,,,,,,
"Fantastic Sams Santa Maria, CA",,2214 S Bradley Rd ,,Santa Maria ,CA,93455,United States,(805) 739-0229,,,"Mon: 10:00 am-7:00 pm , Tue: 10:00 am-7:00 pm , Wed: 10:00 am-7:00 pm , Thu: 10:00 am-7:00 pm , Fri: 10:00 am-7:00 pm , Sat: 9:00 am-6:00 pm , Sun: 10:00 am-5:00 pm ",,,
"Fantastic Sams El Cajon, CA",,2518 Jamacha Rd ,,El Cajon ,CA,92019,United States,(619) 670-8810,,,"Mon: 9:00 am-8:00 pm , Tue: 9:00 am-8:00 pm , Wed: 9:00 am-8:00 pm , Thu: 9:00 am-8:00 pm , Fri: 9:00 am-8:00 pm , Sat: 9:00 am-6:00 pm , Sun: 10:00 am-5:00 pm ",,,
"Fantastic Sams El Cajon, CA",,755 Jamacha Rd ,,El Cajon ,CA,92019,United States,(619) 588-0950,,,"Mon: 10:00 am-6:00 pm , Tue: 10:00 am-6:00 pm , Wed: 10:00 am-6:00 pm , Thu: 10:00 am-6:00 pm , Fri: 10:00 am-6:00 pm , Sat: 9:00 am-5:00 pm , Sun: 10:00 am-5:00 am ",,,
"Fantastic Sams El Cajon, CA",,124 W Main Street ,,El Cajon ,CA,92020,United States,(619) 440-0339,,,,,,
"Fantastic Sams Lakeland, FL",,4267 Us Highway 98 North ,,Lakeland ,FL,33809,United States,(863) 859-6362,,,"Mon: 9:00 am-8:00 pm , Tue: 9:00 am-8:00 pm , Wed: 9:00 am-8:00 pm , Thu: 9:00 am-8:00 pm , Fri: 9:00 am-8:00 pm , Sat: 9:00 am-6:00 pm , Sun: 11:00 am-5:00 pm ",,,
"Fantastic Sams Lakeland, FL",,4525 S Florida Avenue ,,Lakeland ,FL,33813,United States,(863) 646-4694,,,"Mon: 9:00 am-8:00 pm , Tue: 9:00 am-8:00 pm , Wed: 9:00 am-8:00 pm , Thu: 9:00 am-8:00 pm , Fri: 9:00 am-8:00 pm , Sat: 9:00 am-6:00 pm , Sun: 12:00 pm-5:00 pm ",,,
"Fantastic Sams Vista, CA",,1605 South Melrose Dr ,,Vista ,CA,92081,United States,(760) 598-7232,,,"Mon: 9:00 am-8:00 pm , Tue: 9:00 am-8:00 pm , Wed: 9:00 am-8:00 pm , Thu: 9:00 am-8:00 pm , Fri: 9:00 am-8:00 pm , Sat: 9:00 am-8:00 pm , Sun: 10:00 am-5:00 pm ",,,
"Fantastic Sams Mission Viejo, CA",,23052 Alicia Parkway ,,Mission Viejo ,CA,92692,United States,(949) 472-8510,,,,,,
"Fantastic Sams Mission Viejo, CA",,25106 Margeurite Parkway ,,Mission Viejo ,CA,92692,United States,(949) 455-1015,,,,,,
"Fantastic Sams Greeley, CO",,3810 W 10th St ,,Greeley ,CO,80634,United States,(970) 351-8900,,,,,,
"Fantastic Sams Livonia, MI",,30977 Five Mile Rd ,,Livonia ,MI,48154,United States,(734) 425-0660,,,,,,
"Fantastic Sams Livonia, MI",,33000 7 Mile Rd ,,Livonia ,MI,48152,United States,(248) 426-8588,,,"Mon: 9:00 am-8:00 pm , Tue: 9:00 am-8:00 pm , Wed: 9:00 am-8:00 pm , Thu: 9:00 am-8:00 pm , Fri: 9:00 am-8:00 pm , Sat: 9:00 am-6:00 pm , Sun: 11:00 am-4:00 pm ",,,
"Fantastic Sams Livonia, MI",,17305 Inkster Rd. ,,Livonia ,MI,48152,United States,(734) 525-8511,,,"Mon: 9:00 am-8:00 pm , Tue: 9:00 am-8:00 pm , Wed: 9:00 am-8:00 pm , Thu: 9:00 am-8:00 pm , Fri: 9:00 am-8:00 pm , Sat: 9:00 am-5:00 pm , Sun: 11:00 am-4:00 pm ",,,
"Fantastic Sams Vacaville, CA",,210 Peabody Rd. ,,Vacaville ,CA,95687,United States,(707) 446-4402,,,"Mon: 9:00 am-7:00 pm , Tue: 9:00 am-7:00 pm , Wed: 9:00 am-7:00 pm , Thu: 9:00 am-7:00 pm , Fri: 9:00 am-7:00 pm , Sat: 9:00 am-5:00 pm , Sun: 10:00 am-5:00 pm ",,,
"Fantastic Sams Roswell, GA",,660 W. Crossville Rd. ,,Roswell ,GA,30075,United States,(770) 649-5888,,,,,,
"Fantastic Sams Sparks, NV",,287 Los Altos Parkway ,,Sparks ,NV,89436,United States,(775) 626-7444,,,"Mon: 9:00 am-8:00 pm , Tue: 9:00 am-8:00 pm , Wed: 9:00 am-8:00 pm , Thu: 9:00 am-8:00 pm , Fri: 9:00 am-8:00 pm , Sat: 9:00 am-7:00 pm , Sun: 9:00 am-6:00 pm ",,,
"Fantastic Sams Lee's Summit, MO",,424 SW Ward ,,Lee's Summit ,MO,64081,United States,(816) 525-1144,,,"Mon: 9:00 am-8:00 pm , Tue: 9:00 am-8:00 pm , Wed: 9:00 am-8:00 pm , Thu: 9:00 am-8:00 pm , Fri: 9:00 am-7:00 pm , Sat: 9:00 am-5:00 pm , Sun: 12:00 pm-5:00 pm ",,,
"Fantastic Sams Lee's Summit, MO",,813 NE Rice Road ,,Lee's Summit ,MO,64063,United States,(816) 272-1580,,,"Mon: 9:00 am-8:00 pm , Tue: 9:00 am-8:00 pm , Wed: 9:00 am-8:00 pm , Thu: 9:00 am-8:00 pm , Fri: 9:00 am-7:00 pm , Sat: 9:00 am-5:00 pm , Sun: 12:00 pm-5:00 pm ",,,
"Fantastic Sams Carson, CA",,21780 Avalon Blvd ,,Carson ,CA,90745,United States,(310) 513-6444,,,,,,
"Fantastic Sams Santa Monica, CA",,2639 Lincoln Blvd ,,Santa Monica ,CA,90405,United States,(310) 399-1636,,,,,,
"Fantastic Sams Santa Monica, CA",,2461 Santa Monica Boulevard ,,Santa Monica ,CA,90404,United States,(310) 453-5103,,,,,,
"Fantastic Sams Orem, UT",,76 South State St. ,,Orem ,UT,84058,United States,(801) 221-9595,,,,,,
"Fantastic Sams Orem, UT",,1549 North State Street ,,Orem ,UT,84057,United States,(801) 802-8081,,,,,,
"Fantastic Sams League City, TX",,192 C-1 Gulf Freeway South ,,League City ,TX,77573,United States,(281) 554-5467,,,"Mon: 10:00 am-8:00 pm , Tue: 10:00 am-8:00 pm , Wed: 10:00 am-8:00 pm , Thu: 10:00 am-8:00 pm , Fri: 10:00 am-8:00 pm , Sat: 9:00 am-6:00 pm , Sun: 10:00 am-5:00 pm ",,,
"Fantastic Sams Santa Barbara, CA",,1928 Cliff Dr ,,Santa Barbara ,CA,93109,United States,(805) 966-3801,,,"Mon: 10:00 am-7:00 pm , Tue: 10:00 am-7:00 pm , Wed: 10:00 am-7:00 pm , Thu: 10:00 am-7:00 pm , Fri: 10:00 am-7:00 pm , Sat: 9:00 am-6:00 pm , Sun: 10:00 am-5:00 pm ",,,
"Fantastic Sams Santa Barbara, CA",,3303 State St ,,Santa Barbara ,CA,93105,United States,(805) 569-5551,,,"Mon: 10:00 am-7:00 pm , Tue: 10:00 am-7:00 pm , Wed: 10:00 am-7:00 pm , Thu: 10:00 am-7:00 pm , Fri: 10:00 am-7:00 pm , Sat: 9:00 am-6:00 pm , Sun: 10:00 am-5:00 pm ",,,
"Fantastic Sams Sandy, UT",,9469 South 700 East ,,Sandy ,UT,84070,United States,(801) 495-3002,,,,,,
"Fantastic Sams Sandy, UT",,2055 E. 9400 S ,,Sandy ,UT,84093,United States,(801) 733-9966,,,,,,
"Fantastic Sams Greenville, NC",,4420 East 10th Street ,,Greenville ,NC,27858,United States,(252) 227-4687,,,"Mon: 10:00 am-8:00 pm , Tue: 10:00 am-8:00 pm , Wed: 10:00 am-8:00 pm , Thu: 9:00 am-8:00 pm , Fri: 9:00 am-8:00 pm , Sat: 9:00 am-8:00 pm , Sun: Closed ",,,
"Fantastic Sams Greenville, NC",,3150 Evans Street ,,Greenville ,NC,27834,United States,(252) 758-7267,,,"Mon: 10:00 am-8:00 pm , Tue: 10:00 am-8:00 pm , Wed: 10:00 am-8:00 am , Thu: 9:00 am-8:00 pm , Fri: 9:00 am-8:00 pm , Sat: 9:00 am-8:00 pm , Sun: Closed ",,,
"Fantastic Sams Fall River, MA",,390 Rhode Island Avenue ,,Fall River ,MA,02721,United States,(508) 678-2720,,,"Mon: 9:00 am-8:00 pm , Tue: 9:00 am-8:00 pm , Wed: 9:00 am-8:00 pm , Thu: 9:00 am-8:00 pm , Fri: 9:00 am-8:00 pm , Sat: 8:00 am-5:00 pm , Sun: Closed ",,,
"Fantastic Sams Fort Smith, AR",,9103 Highway 71 South ,,Fort Smith ,AR,72908,United States,(479) 434-5183,,,"Mon: 9:00 am-7:00 pm , Tue: 9:00 am-7:00 pm , Wed: 9:00 am-7:00 pm , Thu: 9:00 am-7:00 pm , Fri: 9:00 am-7:00 pm , Sat: 9:00 am-5:00 pm , Sun: Closed ",,,
"Fantastic Sams Fort Smith, AR",,7612 Rogers Avenue ,,Fort Smith ,AR,72903,United States,(479) 478-0242,,,"Mon: 9:00 am-7:00 pm , Tue: 9:00 am-7:00 pm , Wed: 9:00 am-7:00 pm , Thu: 9:00 am-7:00 pm , Fri: 9:00 am-7:00 pm , Sat: 9:00 am-5:00 pm , Sun: Closed ",,,
"Fantastic Sams Whittier, CA",,15030 E. Whittier Blvd. ,,Whittier ,CA,90603,United States,(562) 698-5983,,,,,,
"Fantastic Sams Whittier, CA",,13502 Whittier Boulevard ,,Whittier ,CA,91764,United States,(562) 696-6655,,,,,,
"Fantastic Sams Bloomington, MN",,2137 West 80 1/2 Street ,,Bloomington ,MN,55431,United States,(952) 406-8180,,,"Mon: 9:00 am-8:00 pm , Tue: 9:00 am-8:00 pm , Wed: 9:00 am-8:00 pm , Thu: 9:00 am-8:00 pm , Fri: 9:00 am-7:00 pm , Sat: 9:00 am-5:00 pm , Sun: 10:00 am-4:00 pm ",,,
"Fantastic Sams Bloomington, MN",,3835 West Old Shakopee Rd. ,,Bloomington ,MN,55431,United States,(952) 881-4310,,,,,,
"Fantastic Sams Duluth, MN",,5300 Bristol Street ,,Duluth ,MN,55807,United States,(218) 624-8022,,,"Mon: 9:00 am-8:00 pm , Tue: 9:00 am-8:00 pm , Wed: 9:00 am-8:00 pm , Thu: 9:00 am-8:00 pm , Fri: 9:00 am-8:00 pm , Sat: 9:00 am-5:00 pm , Sun: Closed ",,,
"Fantastic Sams Duluth, MN",,5115 Burning Tree Rd. ,,Duluth ,MN,55811,United States,(218) 723-4027,,,"Mon: 9:00 am-8:00 pm , Tue: 9:00 am-8:00 pm , Wed: 9:00 am-8:00 pm , Thu: 9:00 am-8:00 pm , Fri: 9:00 am-8:00 pm , Sat: 9:00 am-5:00 pm , Sun: Closed ",,,
"Fantastic Sams Hawthorne, CA",,14394 Oceangate Avenue ,,Hawthorne ,CA,90250,United States,(310) 644-9737,,,,,,
"Fantastic Sams Bloomington, MN",,8413 Lyndale Avenue South ,,Bloomington ,MN,55420,United States,(952) 944-2900,,,"Mon: 9:00 am-8:00 pm , Tue: 9:00 am-8:00 pm , Wed: 9:00 am-8:00 pm , Thu: 9:00 am-8:00 pm , Fri: 9:00 am-7:00 pm , Sat: 9:00 am-5:00 pm , Sun: 10:00 am-4:00 pm ",,,
"Fantastic Sams Tracy, CA",,1839 West 11th Street ,,Tracy ,CA,95376,United States,(209) 833-8888,,,,,,
"Fantastic Sams Indio, CA",,44100 Jefferson St ,,Indio ,CA,92201,United States,(760) 345-2900,,,"Mon: 9:00 am-5:00 pm , Tue: 9:00 am-5:00 pm , Wed: 9:00 am-5:00 pm , Thu: 9:00 am-5:00 pm , Fri: 9:00 am-5:00 pm , Sat: 9:00 am-5:00 pm , Sun: 10:30 am-3:00 pm ",,,
"Fantastic Sams Meridian, ID",,1551 W Cherry Ln ,,Meridian ,ID,83642,United States,(208) 888-9284,,,"Mon: 9:00 am-8:00 pm , Tue: 9:00 am-8:00 pm , Wed: 9:00 am-8:00 pm , Thu: 9:00 am-8:00 pm , Fri: 9:00 am-8:00 pm , Sat: 9:00 am-6:00 pm , Sun: 12:00 pm-4:00 pm ",,,
"Fantastic Sams O'Fallon, MO",,36 O'Fallon Square ,,O'Fallon ,MO,63366,United States,(636) 240-8047,,,"Mon: 9:00 am-9:00 pm , Tue: 9:00 am-9:00 pm , Wed: 9:00 am-9:00 pm , Thu: 9:00 am-9:00 pm , Fri: 9:00 am-9:00 pm , Sat: 9:00 am-5:00 pm , Sun: 10:00 am-4:00 pm ",,,
"Fantastic Sams Johns Creek, GA",,10955 Jones Bridge Rd. ,,Johns Creek ,GA,30022,United States,(678) 691-2837,,,"Mon: 10:00 am-8:00 pm , Tue: 10:00 am-8:00 pm , Wed: 10:00 am-8:00 pm , Thu: 10:00 am-8:00 pm , Fri: 10:00 am-8:00 pm , Sat: 10:00 am-6:00 pm , Sun: 11:00 am-6:00 pm ",,,
"Fantastic Sams Bloomington, IN",,1835 N. Kinser Pike ,,Bloomington ,IN,47404,United States,(812) 330-0987,,,"Mon: 9:00 am-8:00 pm , Tue: 9:00 am-8:00 pm , Wed: 9:00 am-8:00 pm , Thu: 9:00 am-8:00 pm , Fri: 9:00 am-8:00 pm , Sat: 9:00 am-6:00 pm , Sun: Closed ",,,
"Fantastic Sams Westland, MI",,141 N. Wayne Rd. ,,Westland ,MI,48185,United States,(734) 721-3000,,,"Mon: 9:00 am-8:00 pm , Tue: 9:00 am-8:00 pm , Wed: 9:00 am-8:00 pm , Thu: 9:00 am-8:00 pm , Fri: 9:00 am-8:00 pm , Sat: 9:00 am-5:00 pm , Sun: 11:00 am-4:00 pm ",,,
"Fantastic Sams Warwick, RI",,2404 Warwick Avenue ,,Warwick ,RI,02889,United States,(401) 738-5979,,,,,,
"Fantastic Sams Hemet, CA",,4672 W Florida Ave ,,Hemet ,CA,92545,United States,(951) 658-7267,,,"Mon: 9:00 am-7:00 pm , Tue: 9:00 am-6:00 pm , Wed: 9:00 am-7:00 pm , Thu: 9:00 am-7:00 pm , Fri: 9:00 am-7:00 pm , Sat: 9:00 am-6:00 pm , Sun: 10:00 am-5:00 pm ",,,
"Fantastic Sams Farmington Hills, MI",,35552 Grand River Ave. ,,Farmington Hills ,MI,48335,United States,(248) 474-4328,,,,,,
"Fantastic Sams Farmington Hills, MI",,33226 12 Mile Road ,,Farmington Hills ,MI,48335,United States,(248) 324-1200,,,"Mon: 9:00 am-8:00 pm , Tue: 9:00 am-8:00 pm , Wed: 9:00 am-8:00 pm , Thu: 9:00 am-8:00 pm , Fri: 9:00 am-8:00 pm , Sat: 9:00 am-5:00 pm , Sun: 11:00 am-4:00 pm ",,,
"Fantastic Sams Lakewood, CA",,5137 Candlewood St. ,,Lakewood ,CA,90712,United States,(562) 925-7267,,,,,,
"Fantastic Sams Chino, CA",,3817 Grand Ave ,,Chino ,CA,91710,United States,(714) 696-1457,,,,,,
"Fantastic Sams Chino, CA",,12081 Central Avenue ,,Chino ,CA,91710,United States,(909) 628-0322,,,,,,
"Fantastic Sams Chino Hills, CA",,13089 Peyton Dr. ,,Chino Hills ,CA,91709,United States,(909) 364-1177,,,"Mon: 9:00 am-7:00 pm , Tue: 9:00 am-7:00 pm , Wed: 9:00 am-7:00 pm , Thu: 9:00 am-7:00 pm , Fri: 9:00 am-7:00 pm , Sat: 9:00 am-5:00 pm , Sun: 9:00 am-5:00 pm ",,,
"Fantastic Sams Chino, CA",,6939 Schaefer Ave ,,Chino ,CA,91710,United States,(909) 591-8700,,,,,,
"Fantastic Sams Lake Forest, CA",,20025 Lake Forest Drive ,,Lake Forest ,CA,92630,United States,(949) 768-7267,,,,,,
"Fantastic Sams Lake Forest, CA",,23819 El Toro Rd ,,Lake Forest ,CA,92630,United States,(714) 696-1457,,,,,,
"Fantastic Sams Palm Coast, FL",,5200 East Hwy 100 ,,Palm Coast ,FL,32164,United States,(386) 206-9595,,,"Mon: 9:00 am-8:00 pm , Tue: 9:00 am-8:00 pm , Wed: 9:00 am-8:00 pm , Thu: 9:00 am-8:00 pm , Fri: 9:00 am-8:00 pm , Sat: 9:00 am-6:00 pm , Sun: 12:00 pm-5:00 pm ",,,
"Fantastic Sams Largo, FL",,10597 Ulmerton Rd. ,,Largo ,FL,33771,United States,(727) 585-5544,,,"Mon: 9:00 am-8:00 pm , Tue: 9:00 am-8:00 pm , Wed: 9:00 am-8:00 pm , Thu: 9:00 am-8:00 pm , Fri: 9:00 am-8:00 pm , Sat: 9:00 am-6:00 pm , Sun: 11:00 am-4:00 pm ",,,
"Fantastic Sams Brooklyn Park, MN",,9326 Zane Ave ,,Brooklyn Park ,MN,55443,United States,(763) 315-9111,,,"Mon: 9:00 am-8:00 pm , Tue: 9:00 am-8:00 pm , Wed: 9:00 am-8:00 pm , Thu: 9:00 am-8:00 pm , Fri: 9:00 am-7:00 pm , Sat: 8:00 am-6:00 pm , Sun: 10:00 am-4:00 pm ",,,
"Fantastic Sams Largo, FL",,3665 East Bay Dr ,,Largo ,FL,33771,United States,(727) 530-4441,,,"Mon: 9:00 am-8:00 pm , Tue: 9:00 am-8:00 pm , Wed: 9:00 am-8:00 pm , Thu: 9:00 am-8:00 pm , Fri: 9:00 am-8:00 pm , Sat: 9:00 am-6:00 pm , Sun: 11:00 am-4:00 pm ",,,
"Fantastic Sams Largo, FL",,13819 Walsingham Rd. ,,Largo ,FL,33774,United States,(727) 593-0353,,,"Mon: 8:00 am-8:00 pm , Tue: 8:00 am-8:00 pm , Wed: 8:00 am-8:00 pm , Thu: 8:00 am-8:00 pm , Fri: 8:00 am-6:00 pm , Sat: 8:00 am-5:00 pm , Sun: Closed ",,,
"Fantastic Sams Tustin, CA",,554 East 1st ,,Tustin ,CA,92780,United States,(714) 731-3810,,,,,,
"Fantastic Sams St. Joseph, MO",,2913 S. Belt ,,St. Joseph ,MO,64503,United States,(816) 279-7267,,,"Mon: 9:00 am-7:00 pm , Tue: 9:00 am-7:00 pm , Wed: 9:00 am-7:00 pm , Thu: 9:00 am-7:00 pm , Fri: 9:00 am-6:00 pm , Sat: 9:00 am-5:00 pm , Sun: Closed ",,,
"Fantastic Sams St. Joseph, MO",,1407 N. Belt Hwy. ,,St. Joseph ,MO,64506,United States,(816) 233-6493,,,"Mon: 9:00 am-7:00 pm , Tue: 9:00 am-7:00 pm , Wed: 9:00 am-7:00 pm , Thu: 9:00 am-7:00 pm , Fri: 9:00 am-6:00 pm , Sat: 9:00 am-5:00 pm , Sun: Closed ",,,
"Fantastic Sams St. George, UT",,2628 S Pioneer Rd ,,St. George ,UT,84790,United States,(435) 656-1016,,,,,,
"Fantastic Sams Baldwin Park, CA",,14510 Baldwin Park Towne Center ,,Baldwin Park ,CA,91706,United States,(626) 814-2717,,,,,,
"Fantastic Sams Upland, CA",,1233 W Foothill Boulevard ,,Upland ,CA,91786,United States,(909) 981-4302,,,,,,
"Fantastic Sams San Ramon, CA",,11040 Bollinger Canyon Rd. ,,San Ramon ,CA,94582,United States,(925) 736-7864,,,,,,
"Fantastic Sams Bolingbrook, IL",,269 North Weber Rd ,,Bolingbrook ,IL,60490,United States,(630) 759-7330,,,"Mon: 9:00 am-6:00 pm , Tue: 9:00 am-8:00 pm , Wed: 9:00 am-6:00 pm , Thu: 9:00 am-8:00 pm , Fri: 9:00 am-6:00 pm , Sat: 8:00 am-4:00 pm , Sun: 10:00 am-3:00 pm ",,,
"Fantastic Sams Plymouth, MN",,10100 6th Avenue North ,,Plymouth ,MN,55441,United States,(763) 546-1586,,,"Mon: 10:00 am-7:00 pm , Tue: 10:00 am-7:00 pm , Wed: 10:00 am-7:00 am , Thu: 10:00 am-7:00 am , Fri: 10:00 am-7:00 am , Sat: 9:00 am-5:00 am , Sun: 10:00 am-3:00 pm ",,,
"Fantastic Sams Appleton, WI",,3020 East College Ave ,,Appleton ,WI,54915,United States,(920) 903-9620,,,,,,
"Fantastic Sams Gastonia, NC",,3090 E Franklin Blvd. ,,Gastonia ,NC,28056,United States,(704) 865-1635,,,"Mon: 10:00 am-8:00 pm , Tue: 10:00 am-8:00 pm , Wed: 10:00 am-8:00 pm , Thu: 10:00 am-8:00 pm , Fri: 11:00 am-8:00 pm , Sat: 9:00 am-6:00 pm , Sun: 12:00 pm-6:00 pm ",,,
"Fantastic Sams Plymouth, MN",,3505 Vicksburg Lane No ,,Plymouth ,MN,55447,United States,(763) 551-0800,,,,,,
"Fantastic Sams Rochester Hills, MI",,1417 N. Rochester Rd. ,,Rochester Hills ,MI,48307,United States,(248) 608-1234,,,,,,
"Fantastic Sams Plymouth, MN",,4345 Nathan Lane ,,Plymouth ,MN,55442,United States,(763) 557-4960,,,"Mon: 10:00 am-8:00 pm , Tue: 10:00 am-8:00 pm , Wed: 10:00 am-8:00 pm , Thu: 10:00 am-8:00 pm , Fri: 10:00 am-7:00 pm , Sat: 9:00 am-5:00 pm , Sun: 11:00 am-4:00 pm ",,,
"Fantastic Sams Goodyear, AZ",,1170 N Estrella Parkway ,,Goodyear ,AZ,85338,United States,(623) 932-9949,,,"Mon: 9:00 am-7:00 pm , Tue: 9:00 am-7:00 pm , Wed: 9:00 am-7:00 pm , Thu: 9:00 am-7:00 pm , Fri: 9:00 am-7:00 pm , Sat: 9:00 am-6:00 pm , Sun: 10:00 am-5:00 pm ",,,
"Fantastic Sams Manteca, CA",,257 Spreckels Avenue ,,Manteca ,CA,95336,United States,(209) 823-4424,,,,,,
"Fantastic Sams Loveland, CO",,262 E. 29th Street ,,Loveland ,CO,80538,United States,(970) 667-0023,,,,,,
"Fantastic Sams Apple Valley, CA",,14880 Dale Evans Parkway ,,Apple Valley ,CA,92307,United States,(760) 991-3036,,,"Mon: 10:00 am-7:00 pm , Tue: 10:00 am-7:00 pm , Wed: 10:00 am-7:00 pm , Thu: 10:00 am-7:00 pm , Fri: 10:00 am-7:00 pm , Sat: 9:00 am-6:00 pm , Sun: 10:00 am-5:00 pm ",,,
"Fantastic Sams Turlock, CA",,3206 Countryside Drive ,,Turlock ,CA,95380,United States,(209) 632-7777,,,,,,
"Fantastic Sams Redlands, CA",,10010 Alabama Street ,,Redlands ,CA,92373,United States,(909) 748-6444,,,"Mon: 10:00 am-7:30 pm , Tue: 10:00 am-7:30 pm , Wed: 10:00 am-7:30 pm , Thu: 10:00 am-7:30 pm , Fri: 10:00 am-7:30 pm , Sat: 9:00 am-6:00 pm , Sun: 10:00 am-5:00 pm ",,,
"Fantastic Sams Jacksonville, NC",,521 Yopp Rd ,,Jacksonville ,NC,28546,United States,(910) 577-7274,,,"Mon: 9:00 am-8:00 pm , Tue: 9:00 am-8:00 pm , Wed: 9:00 am-8:00 pm , Thu: 9:00 am-8:00 pm , Fri: 9:00 am-8:00 pm , Sat: 9:00 am-6:00 pm , Sun: 11:00 am-5:00 pm ",,,
"Fantastic Sams Jacksonville, NC",,835 Piney Green Rd ,,Jacksonville ,NC,28546,United States,(910) 219-1077,,,"Mon: 9:00 am-8:00 pm , Tue: 9:00 am-8:00 pm , Wed: 9:00 am-8:00 pm , Thu: 9:00 am-8:00 pm , Fri: 9:00 am-8:00 pm , Sat: 9:00 am-6:00 pm , Sun: 11:00 am-5:00 pm ",,,
"Fantastic Sams Franklin, TN",,4001 Hughes Crossing ,,Franklin ,TN,37064,United States,(615) 794-6463,,,,,,
"Fantastic Sams Flagstaff, AZ",,1233 South Plaza Way ,,Flagstaff ,AZ,86001,United States,(928) 226-7279,,,"Mon: 9:00 am-8:00 pm , Tue: 9:00 am-8:00 pm , Wed: 9:00 am-8:00 pm , Thu: 9:00 am-8:00 pm , Fri: 9:00 am-8:00 pm , Sat: 9:00 am-6:00 pm , Sun: 10:00 am-4:00 pm ",,,
"Fantastic Sams Flower Mound, TX",,2550 Cross Timber Rd. ,,Flower Mound ,TX,75028,United States,(972) 899-3544,,,"Mon: 9:00 am-7:00 pm , Tue: 9:00 am-7:00 pm , Wed: 9:00 am-7:00 pm , Thu: 9:00 am-7:00 am , Fri: 9:00 am-7:00 pm , Sat: 9:00 am-6:00 pm , Sun: 11:00 am-5:00 pm ",,,
"Fantastic Sams Fort Myers, FL",,7950 Dani Dr ,,Fort Myers ,FL,33966,United States,(239) 337-0009,,,"Mon: 9:00 am-8:00 pm , Tue: 9:00 am-8:00 pm , Wed: 9:00 am-8:00 pm , Thu: 9:00 am-8:00 pm , Fri: 9:00 am-8:00 pm , Sat: 9:00 am-6:00 pm , Sun: 10:00 am-4:00 pm ",,,
"Fantastic Sams Fort Myers, FL",,7101 Cypress Lakes Dr ,,Fort Myers ,FL,33907,United States,(239) 288-7410,,,"Mon: 9:00 am-8:00 pm , Tue: 9:00 am-8:00 pm , Wed: 9:00 am-8:00 pm , Thu: 9:00 am-8:00 pm , Fri: 9:00 am-8:00 pm , Sat: 9:00 am-6:00 pm , Sun: 10:00 am-4:00 pm ",,,
"Fantastic Sams Jackson, TN",,105-F Stonebrook Place ,,Jackson ,TN,38305,United States,(731) 664-7376,,,"Mon: 9:00 am-6:00 pm , Tue: 9:00 am-7:00 pm , Wed: 9:00 am-6:00 pm , Thu: 9:00 am-7:00 pm , Fri: 9:00 am-6:00 pm , Sat: 7:00 am-5:00 pm , Sun: 12:00 pm-5:00 pm ",,,
"Fantastic Sams St. Charles, MO",,2305 Elm St. ,,St. Charles ,MO,63301,United States,(636) 940-5422,,,"Mon: 9:00 am-9:00 pm , Tue: 9:00 am-9:00 pm , Wed: 9:00 am-9:00 pm , Thu: 9:00 am-9:00 pm , Fri: 9:00 am-9:00 pm , Sat: 8:00 am-5:00 pm , Sun: 10:00 am-4:00 pm ",,,
"Fantastic Sams Eau Claire, WI",,2705 N. Clairemont Ave. ,,Eau Claire ,WI,54703,United States,(715) 830-0271,,,"Mon: 9:00 am-8:00 pm , Tue: 9:00 am-8:00 pm , Wed: 9:00 am-8:00 pm , Thu: 9:00 am-8:00 pm , Fri: 9:00 am-6:00 pm , Sat: 8:00 am-4:00 pm , Sun: 11:00 am-4:00 pm ",,,
"Fantastic Sams St. Charles, MO",,2051 Zumbehl Road ,,St. Charles ,MO,63303,United States,(636) 947-6661,,,"Mon: 9:00 am-8:00 pm , Tue: 9:00 am-8:00 pm , Wed: 9:00 am-8:00 pm , Thu: 9:00 am-8:00 pm , Fri: 9:00 am-8:00 pm , Sat: 9:00 am-6:00 pm , Sun: 10:00 am-5:00 pm ",,,
"Fantastic Sams Yorba Linda, CA",,20625 Yorba Linda Blvd ,,Yorba Linda ,CA,92886,United States,(714) 779-1099,,,"Mon: 9:00 am-8:00 pm , Tue: 9:00 am-8:00 pm , Wed: 9:00 am-8:00 pm , Thu: 9:00 am-8:00 pm , Fri: 9:00 am-8:00 pm , Sat: 9:00 am-6:00 pm , Sun: 10:00 am-5:00 pm ",,,
"Fantastic Sams Eau Claire, WI",,2839 Mall Dr ,,Eau Claire ,WI,54701,United States,(715) 835-2774,,,"Mon: 9:00 am-8:00 pm , Tue: 9:00 am-8:00 pm , Wed: 9:00 am-8:00 pm , Thu: 9:00 am-8:00 pm , Fri: 9:00 am-6:00 pm , Sat: 8:00 am-4:00 pm , Sun: 11:00 am-4:00 pm ",,,
"Fantastic Sams Yorba Linda, CA",,17484 E. Yorba Linda Blvd. ,,Yorba Linda ,CA,92886,United States,(714) 993-5512,,,,,,
"Fantastic Sams Bossier City, LA",,2951 East Texas Street ,,Bossier City ,LA,71111,United States,(318) 741-5571,,,,,,
"Fantastic Sams St. Cloud, MN",,305 Fifth Ave South ,,St. Cloud ,MN,56301,United States,(320) 654-8529,,,,,,
"Fantastic Sams St. Cloud, MN",,4143 West Division St ,,St. Cloud ,MN,56301,United States,(320) 259-0066,,,,,,
"Fantastic Sams Camarillo, CA",,742 Arneill Road ,,Camarillo ,CA,93010,United States,(805) 445-9886,,,"Mon: 9:00 am-7:00 pm , Tue: 9:00 am-7:00 pm , Wed: 9:00 am-7:00 pm , Thu: 9:00 am-7:00 pm , Fri: 9:00 am-7:00 pm , Sat: 9:00 am-6:00 pm , Sun: 11:00 am-5:00 pm ",,,
"Fantastic Sams Schenectady, NY",,2330 Watt Street ,,Schenectady ,NY,12304,United States,(518) 377-1939,,,,,,
"Fantastic Sams Schenectady, NY",,1400 Altamont Ave. ,,Schenectady ,NY,12303,United States,(518) 356-9128,,,"Mon: 9:00 am-8:00 pm , Tue: 9:00 am-8:00 pm , Wed: 9:00 am-8:00 pm , Thu: 9:00 am-8:00 pm , Fri: 9:00 am-8:00 pm , Sat: 9:00 am-5:00 pm , Sun: 10:00 am-5:00 pm ",,,
"Fantastic Sams Woodbury, MN",,7455 Currell Blvd ,,Woodbury ,MN,55125,United States,(651) 340-8475,,,"Mon: 9:00 am-8:00 pm , Tue: 9:00 am-8:00 pm , Wed: 9:00 am-8:00 pm , Thu: 9:00 am-8:00 pm , Fri: 9:00 am-8:00 pm , Sat: 9:00 am-5:00 pm , Sun: Closed ",,,
"Fantastic Sams Eagan, MN",,2075 Cliff Rd ,,Eagan ,MN,55122,United States,(651) 379-0697,,,"Mon: 9:00 am-8:00 pm , Tue: 9:00 am-8:00 pm , Wed: 9:00 am-8:00 pm , Thu: 9:00 am-8:00 pm , Fri: 9:00 am-7:00 pm , Sat: 9:00 am-5:00 pm , Sun: 10:00 am-4:00 pm ",,,
"Fantastic Sams Woodbury, MN",,10150 Hudson Road ,,Woodbury ,MN,55129,United States,(651) 738-9393,,,"Mon: 9:00 am-8:00 pm , Tue: 9:00 am-8:00 pm , Wed: 9:00 am-8:00 pm , Thu: 9:00 am-8:00 pm , Fri: 9:00 am-8:00 pm , Sat: 9:00 am-5:00 pm , Sun: 11:00 am-5:00 pm ",,,
"Fantastic Sams Eagan, MN",,1442 Yankee Doodle Rd ,,Eagan ,MN,55122,United States,(651) 454-5644,,,"Mon: 9:00 am-8:00 pm , Tue: 9:00 am-8:00 pm , Wed: 9:00 am-8:00 pm , Thu: 9:00 am-8:00 pm , Fri: 9:00 am-7:00 pm , Sat: 9:00 am-5:00 pm , Sun: 10:00 am-4:00 pm ",,,
"Fantastic Sams Maple Grove, MN",,9859 Maple Grove Parkway N. ,,Maple Grove ,MN,55369,United States,(763) 391-6664,,,"Mon: 10:00 am-8:30 pm , Tue: 10:00 am-8:30 pm , Wed: 10:00 am-8:30 pm , Thu: 10:00 am-8:30 pm , Fri: 10:00 am-7:00 pm , Sat: 9:00 am-5:00 pm , Sun: 11:00 am-5:00 pm ",,,
"Fantastic Sams Maple Grove, MN",,6334 Vinewood Lane ,,Maple Grove ,MN,55311,United States,(763) 550-7955,,,"Mon: 10:00 am-8:30 pm , Tue: 10:00 am-8:30 pm , Wed: 10:00 am-8:30 pm , Thu: 10:00 am-8:30 pm , Fri: 10:00 am-7:00 pm , Sat: 9:00 am-5:00 pm , Sun: 11:00 am-5:00 pm ",,,
"Fantastic Sams Kissimmee, FL",,3321 South Orange Blossom Trail ,,Kissimmee ,FL,34746,United States,(407) 846-7655,,,"Mon: 9:00 am-7:00 pm , Tue: 9:00 am-7:00 pm , Wed: 9:00 am-7:00 pm , Thu: 9:00 am-7:00 pm , Fri: 9:00 am-6:00 pm , Sat: 9:00 am-6:00 pm , Sun: 12:00 pm-5:00 pm ",,,
"Fantastic Sams Laguna Niguel, CA",,27932 La Paz Rd. ,,Laguna Niguel ,CA,92677,United States,(949) 448-8000,,,,,,
"Fantastic Sams Laguna Niguel, CA",,30035 Alicia Parkway ,,Laguna Niguel ,CA,92677,United States,(949) 495-7267,,,,,,
"Fantastic Sams Shawnee, KS",,7407 Quivira Road ,,Shawnee ,KS,66216,United States,(913) 268-1032,,,"Mon: 9:00 am-8:00 pm , Tue: 9:00 am-8:00 pm , Wed: 9:00 am-8:00 pm , Thu: 9:00 am-8:00 pm , Fri: 9:00 am-6:00 pm , Sat: 9:00 am-5:00 pm , Sun: 12:00 pm-5:00 pm ",,,
"Fantastic Sams Rockville, MD",,835 Rockville Pike ,,Rockville ,MD,20852,United States,(301) 762-5554,,,"Mon: 10:00 am-8:00 pm , Tue: 10:00 am-8:00 pm , Wed: 10:00 am-8:00 pm , Thu: 10:00 am-8:00 pm , Fri: 10:00 am-8:00 pm , Sat: 9:00 am-6:00 pm , Sun: 10:00 am-5:00 pm ",,,
"Fantastic Sams Lorain, OH",,4340 Leavitt Rd. ,,Lorain ,OH,44053,United States,(440) 960-0123,,,"Mon: 9:00 am-8:00 pm , Tue: 9:00 am-8:00 pm , Wed: 9:00 am-8:00 pm , Thu: 9:00 am-8:00 pm , Fri: 9:00 am-8:00 pm , Sat: 9:00 am-6:00 pm , Sun: Closed ",,,
"Fantastic Sams Lodi, CA",,2624 West Kettleman Lane ,,Lodi ,CA,95242,United States,(209) 334-3000,,,,,,
"Fantastic Sams New Braunfels, TX",,651 South Walnut ,,New Braunfels ,TX,78130,United States,(830) 625-2535,,,"Mon: 9:00 am-8:00 pm , Tue: 9:00 am-8:00 pm , Wed: 9:00 am-8:00 pm , Thu: 9:00 am-8:00 pm , Fri: 9:00 am-8:00 pm , Sat: 9:00 am-7:00 pm , Sun: 11:00 am-6:00 pm ",,,
"Fantastic Sams Eden Prairie, MN",,10165 Hennepin Town Road ,,Eden Prairie ,MN,55347,United States,(952) 746-0999,,,"Mon: 9:00 am-8:00 pm , Tue: 9:00 am-8:00 pm , Wed: 9:00 am-8:00 pm , Thu: 9:00 am-8:00 pm , Fri: 9:00 am-7:00 pm , Sat: 9:00 am-5:00 pm , Sun: Closed ",,,
"Fantastic Sams Eden Prairie, MN",,8755 Columbine Rd ,,Eden Prairie ,MN,55344,United States,(952) 944-0816,,,"Mon: 9:00 am-8:00 pm , Tue: 9:00 am-8:00 pm , Wed: 9:00 am-8:00 pm , Thu: 9:00 am-8:00 pm , Fri: 9:00 am-7:00 pm , Sat: 9:00 am-5:00 pm , Sun: 10:00 am-4:00 pm ",,,
"Fantastic Sams Cheyenne, WY",,1958 Dell Range ,,Cheyenne ,WY,82009,United States,(307) 635-6562,,,"Mon: 9:00 am-7:00 pm , Tue: 9:00 am-7:00 pm , Wed: 9:00 am-7:00 pm , Thu: 9:00 am-7:00 pm , Fri: 9:00 am-7:00 pm , Sat: 9:00 am-5:00 pm , Sun: 11:00 am-5:00 pm ",,,
"Fantastic Sams Daytona Beach, FL",,1808 W. International Speedway Blvd. ,,Daytona Beach ,FL,32114,United States,(386) 255-2050,,,"Mon: 9:00 am-8:00 pm , Tue: 9:00 am-8:00 pm , Wed: 9:00 am-8:00 pm , Thu: 9:00 am-8:00 pm , Fri: 9:00 am-8:00 pm , Sat: 9:00 am-6:00 pm , Sun: 12:00 pm-5:00 pm ",,,
"Fantastic Sams Coon Rapids, MN",,12778 Riverdale Blvd ,,Coon Rapids ,MN,55448,United States,(763) 862-7882,,,,,,
"Fantastic Sams Coon Rapids, MN",,455 99th Avenue NW ,,Coon Rapids ,MN,55433,United States,(763) 786-7267,,,"Mon: 9:00 am-8:00 pm , Tue: 9:00 am-8:00 pm , Wed: 9:00 am-8:00 pm , Thu: 9:00 am-8:00 pm , Fri: 9:00 am-8:00 pm , Sat: 9:00 am-6:00 pm , Sun: 10:00 am-5:00 pm ",,,
"Fantastic Sams La Habra, CA",,1641 W Imperial Hwy ,,La Habra ,CA,90631,United States,(562) 697-2076,,,"Mon: 10:00 am-7:00 pm , Tue: 10:00 am-7:00 pm , Wed: 10:00 am-7:00 pm , Thu: 10:00 am-7:00 pm , Fri: 10:00 am-7:00 pm , Sat: 9:00 am-6:00 pm , Sun: 10:00 am-5:00 pm ",,,
"Fantastic Sams Monterey Park, CA",,2222 South Atlantic Blvd. ,,Monterey Park ,CA,91754,United States,(323) 722-3379,,,,,,
"Fantastic Sams Burnsville, MN",,1038 East Country Rd 42 ,,Burnsville ,MN,55337,United States,(952) 953-4622,,,"Mon: 9:00 am-8:00 pm , Tue: 9:00 am-8:00 pm , Wed: 9:00 am-8:00 pm , Thu: 9:00 am-8:00 pm , Fri: 9:00 am-7:00 pm , Sat: 9:00 am-5:00 pm , Sun: 11:00 am-4:00 pm ",,,
"Fantastic Sams Terre Haute, IN",,3550 S Us Highway 41 ,,Terre Haute ,IN,47802,United States,(812) 235-6366,,,"Mon: 9:00 am-7:00 pm , Tue: 9:00 am-7:00 pm , Wed: 9:00 am-7:00 pm , Thu: 9:00 am-7:00 pm , Fri: 9:00 am-7:00 pm , Sat: 9:00 am-6:00 pm , Sun: Closed ",,,
"Fantastic Sams Terre Haute, IN",,2175 State Road 46 ,,Terre Haute ,IN,47803,United States,(812) 234-4024,,,"Mon: 9:00 am-8:00 pm , Tue: 9:00 am-8:00 pm , Wed: 9:00 am-8:00 pm , Thu: 9:00 am-8:00 pm , Fri: 9:00 am-8:00 pm , Sat: 9:00 am-6:00 pm , Sun: Closed ",,,
"Fantastic Sams Mansfield, TX",,1301 E. Debbie Lane ,,Mansfield ,TX,76063,United States,(817) 453-1941,,,"Mon: 9:00 am-7:00 pm , Tue: 9:00 am-7:00 pm , Wed: 9:00 am-7:00 pm , Thu: 9:00 am-7:00 pm , Fri: 9:00 am-7:00 pm , Sat: 9:00 am-6:00 pm , Sun: 12:00 pm-5:00 pm ",,,
"Fantastic Sams Taylorsville, UT",,1767 W 4700 S ,,Taylorsville ,UT,84118,United States,(801) 966-2600,,,"Mon: 9:00 am-8:00 pm , Tue: 9:00 am-8:00 pm , Wed: 9:00 am-8:00 pm , Thu: 9:00 am-8:00 pm , Fri: 9:00 am-8:00 pm , Sat: 9:00 am-6:00 pm , Sun: Closed ",,,
"Fantastic Sams Blaine, MN",,3453 Lake Drive ,,Blaine ,MN,55014,United States,(763) 786-9180,,,"Mon: 9:00 am-8:00 pm , Tue: 9:00 am-8:00 pm , Wed: 9:00 am-8:00 pm , Thu: 9:00 am-8:00 pm , Fri: 9:00 am-7:00 pm , Sat: 9:00 am-5:00 am , Sun: 11:00 am-4:00 pm ",,,
"Fantastic Sams Blaine, MN",,10904 Baltimore St. NE ,,Blaine ,MN,55449,United States,(763) 786-1888,,,"Mon: 9:00 am-8:00 pm , Tue: 9:00 am-8:00 pm , Wed: 9:00 am-8:00 pm , Thu: 9:00 am-8:00 pm , Fri: 9:00 am-7:00 pm , Sat: 9:00 am-5:00 pm , Sun: 11:00 am-4:00 pm ",,,
"Fantastic Sams St. Clair Shores, MI",,23511 Nine Mack Dr. ,,St. Clair Shores ,MI,48080,United States,(586) 772-7267,,,,,,
"Fantastic Sams St. Clair Shores, MI",,28632 Harper Avenue ,,St. Clair Shores ,MI,48081,United States,(586) 777-0610,,,,,,
"Fantastic Sams Gardena, CA",,1717 W. Artesia Blvd.. ,,Gardena ,CA,90248,United States,(310) 808-1041,,,,,,
"Fantastic Sams National City, CA",,1536 Sweetwater Rd ,,National City ,CA,91950,United States,(619) 512-4576,,,,,,
"Fantastic Sams National City, CA",,925 East Plaza Blvd ,,National City ,CA,91950,United States,(619) 900-6022,,,,,,
"Fantastic Sams Rocklin, CA",,6696 Lonetree Blvd. ,,Rocklin ,CA,95765,United States,(916) 797-5556,,,,,,
"Fantastic Sams Casper, WY",,4801 East 2nd Street ,,Casper ,WY,82609,United States,(307) 234-6836,,,"Mon: 9:00 am-7:00 pm , Tue: 9:00 am-7:00 pm , Wed: 9:00 am-7:00 pm , Thu: 9:00 am-7:00 pm , Fri: 9:00 am-7:00 pm , Sat: 9:00 am-5:00 pm , Sun: Closed ",,,
"Fantastic Sams South Jordan, UT",,3649 West 10400 South ,,South Jordan ,UT,84095,United States,(801) 446-4200,,,"Mon: 9:00 am-7:00 am , Tue: 9:00 am-7:00 pm , Wed: 9:00 am-7:00 pm , Thu: 9:00 am-7:00 pm , Fri: 9:00 am-7:00 pm , Sat: 9:00 am-5:00 pm , Sun: Closed ",,,
"Fantastic Sams North Port, FL",,14824 Tamiami Trail ,,North Port ,FL,34287,United States,(941) 426-8588,,,"Mon: 9:00 am-8:00 pm , Tue: 9:00 am-8:00 pm , Wed: 9:00 am-8:00 pm , Thu: 9:00 am-8:00 pm , Fri: 9:00 am-8:00 pm , Sat: 9:00 am-6:00 pm , Sun: 11:00 am-4:00 pm ",,,
"Fantastic Sams La Mesa, CA",,5500 Grossmont Center Drive ,,La Mesa ,CA,91942,United States,(619) 668-1179,,,,,,
"Fantastic Sams Lakeville, MN",,18445 Orchard Trail ,,Lakeville ,MN,55044,United States,(952) 898-7267,,,"Mon: 9:00 am-8:00 pm , Tue: 9:00 am-8:00 pm , Wed: 9:00 am-8:00 pm , Thu: 9:00 am-8:00 pm , Fri: 9:00 am-7:00 pm , Sat: 9:00 am-5:00 pm , Sun: 10:00 am-4:00 pm ",,,
"Fantastic Sams Lakeville, MN",,7690 160th Street West ,,Lakeville ,MN,55044,United States,(952) 431-5865,,,"Mon: 9:00 am-8:00 pm , Tue: 9:00 am-8:00 pm , Wed: 9:00 am-8:00 pm , Thu: 9:00 am-8:00 pm , Fri: 9:00 am-8:00 pm , Sat: 9:00 am-5:00 pm , Sun: 11:00 am-4:00 pm ",,,
"Fantastic Sams Lakeville, MN",,16239 Kenrick Ave. ,,Lakeville ,MN,55044,United States,(952) 898-3270,,,"Mon: 9:00 am-8:00 pm , Tue: 9:00 am-8:00 pm , Wed: 9:00 am-8:00 pm , Thu: 9:00 am-8:00 pm , Fri: 9:00 am-7:00 pm , Sat: 9:00 am-5:00 pm , Sun: Closed ",,,
"Fantastic Sams Bartlett, TN",,6490 Memphis Arlington Rd. ,,Bartlett ,TN,38135,United States,(901) 266-4001,,,,,,
"Fantastic Sams Novi, MI",,21522 Novi Rd ,,Novi ,MI,48331,United States,(248) 344-8900,,,"Mon: 9:00 am-8:00 pm , Tue: 9:00 am-8:00 am , Wed: 9:00 am-8:00 am , Thu: 9:00 am-8:00 am , Fri: 9:00 am-8:00 am , Sat: 9:00 am-5:00 pm , Sun: 10:00 am-3:00 pm ",,,
"Fantastic Sams Lake Elsinore, CA",,32275 Mission Trail ,,Lake Elsinore ,CA,92530,United States,(951) 245-1470,,,"Mon: 9:00 am-7:00 pm , Tue: 9:00 am-7:00 pm , Wed: 9:00 am-7:00 pm , Thu: 9:00 am-7:00 pm , Fri: 9:00 am-7:00 pm , Sat: 9:00 am-6:00 pm , Sun: 10:00 am-5:00 pm ",,,
"Fantastic Sams Lake Elsinore, CA",,29991 Canyon Hills Road ,,Lake Elsinore ,CA,92532,United States,(951) 244-7788,,,,,,
"Fantastic Sams Ocala, FL",,5400 SW College Rd ,,Ocala ,FL,34474,United States,(352) 237-5036,,,"Mon: 9:00 am-7:00 pm , Tue: 9:00 am-7:00 pm , Wed: 9:00 am-7:00 pm , Thu: 9:00 am-7:00 pm , Fri: 9:00 am-7:00 pm , Sat: 9:00 am-6:00 pm , Sun: 11:00 am-4:00 pm ",,,
"Fantastic Sams Oak Lawn, IL",,6352 West 95th St. ,,Oak Lawn ,IL,60453,United States,(708) 598-7267,,,"Mon: 9:00 am-8:00 pm , Tue: 9:00 am-8:00 pm , Wed: 9:00 am-8:00 pm , Thu: 9:00 am-8:00 pm , Fri: 9:00 am-8:00 pm , Sat: 9:00 am-5:00 pm , Sun: 10:00 am-3:00 pm ",,,
"Fantastic Sams Oak Lawn, IL",,9608 S Pulaski Road ,,Oak Lawn ,IL,60453,United States,(708) 423-5576,,,,,,
"Fantastic Sams Fountain Valley, CA",,17037 Brookhurst St. ,,Fountain Valley ,CA,92708,United States,(714) 962-6419,,,,,,
"Fantastic Sams Buckeye, AZ",,860 S. Watson Rd. Ste 103 ,,Buckeye ,AZ,85326,United States,(623) 327-3463,,,"Mon: 9:00 am-7:00 pm , Tue: 9:00 am-7:00 pm , Wed: 9:00 am-7:00 pm , Thu: 9:00 am-7:00 pm , Fri: 9:00 am-7:00 pm , Sat: 9:00 am-6:00 pm , Sun: 10:00 am-5:00 pm ",,,
"Fantastic Sams Woodland Hills, CA",,19944 1/2 Ventura Blvd. ,,Woodland Hills ,CA,91364,United States,(818) 914-4155,,,"Mon: 10:00 am-7:00 pm , Tue: 10:00 am-7:00 pm , Wed: 10:00 am-7:00 pm , Thu: 10:00 am-7:00 pm , Fri: 10:00 am-7:00 pm , Sat: 10:00 am-6:00 pm , Sun: 10:00 am-5:00 pm ",,,
"Fantastic Sams Woodland Hills, CA",,22808 Victory Blvd ,,Woodland Hills ,CA,91367,United States,(818) 888-9393,,,,,,
"Fantastic Sams Diamond Bar, CA",,303 S. Diamond Bar Blvd. ,,Diamond Bar ,CA,91765,United States,(909) 861-9636,,,"Mon: 9:00 am-8:00 pm , Tue: 9:00 am-8:00 pm , Wed: 9:00 am-8:00 pm , Thu: 9:00 am-8:00 pm , Fri: 9:00 am-8:00 pm , Sat: 9:00 am-6:00 pm , Sun: 10:00 am-5:00 pm ",,,
"Fantastic Sams Santee, CA",,9723 Mission Gorge Rd. ,,Santee ,CA,92071,United States,(619) 448-8199,,,,,,
"Fantastic Sams Sanford, FL",,3663 Orlando Dr. ,,Sanford ,FL,32773,United States,(407) 323-9045,,,"Mon: 9:00 am-8:00 pm , Tue: 9:00 am-8:00 pm , Wed: 9:00 am-8:00 pm , Thu: 9:00 am-8:00 pm , Fri: 9:00 am-8:00 pm , Sat: 9:00 am-6:00 pm , Sun: 11:00 am-4:00 pm ",,,
"Fantastic Sams Eastvale, CA",,12523 Limonite ,,Eastvale ,CA,91752,United States,(951) 749-0150,,,,,,
"Fantastic Sams Eastvale, CA",,14268 Schleisman Road ,,Eastvale ,CA,92880,United States,(951) 255-2845,,,,,,
"Fantastic Sams St. Peters, MO",,1255 Jungermann Road ,,St. Peters ,MO,63376,United States,(636) 939-0772,,,"Mon: 9:00 am-8:00 pm , Tue: 9:00 am-8:00 pm , Wed: 9:00 am-8:00 pm , Thu: 9:00 am-8:00 pm , Fri: 9:00 am-8:00 pm , Sat: 9:00 am-5:00 pm , Sun: 10:00 am-4:00 pm ",,,
"Fantastic Sams Elyria, OH",,819 Chestnut Commons Dr. ,,Elyria ,OH,44035,United States,(440) 366-1115,,,"Mon: 9:00 am-8:00 pm , Tue: 9:00 am-8:00 pm , Wed: 9:00 am-8:00 pm , Thu: 9:00 am-8:00 pm , Fri: 9:00 am-8:00 pm , Sat: 9:00 am-6:00 pm , Sun: Closed ",,,
"Fantastic Sams Hendersonville, TN",,1022B Glennbrook Way ,,Hendersonville ,TN,37075,United States,(615) 824-2513,,,,,,
"Fantastic Sams Sarasota, FL",,3640 Bee Ridge Rd. ,,Sarasota ,FL,34233,United States,(941) 922-8645,,,"Mon: 8:00 am-8:00 pm , Tue: 8:00 am-8:00 pm , Wed: 8:00 am-8:00 pm , Thu: 8:00 am-8:00 pm , Fri: 8:00 am-8:00 pm , Sat: 9:00 am-6:00 pm , Sun: 10:00 am-4:00 pm ",,,
"Fantastic Sams Blue Springs, MO",,728 N. 7 Hwy ,,Blue Springs ,MO,64015,United States,(816) 229-6474,,,"Mon: 9:00 am-8:00 pm , Tue: 9:00 am-8:00 pm , Wed: 9:00 pm-8:00 pm , Thu: 9:00 am-8:00 pm , Fri: 9:00 am-8:00 pm , Sat: 9:00 am-5:00 pm , Sun: 12:00 pm-5:00 pm ",,,
"Fantastic Sams Castle Rock, CO",,312 Metzler Dr ,,Castle Rock ,CO,80108,United States,(303) 660-0550,,,"Mon: 9:00 am-7:00 pm , Tue: 9:00 am-7:00 pm , Wed: 9:00 am-7:00 pm , Thu: 9:00 am-7:00 pm , Fri: 9:00 am-7:00 pm , Sat: 9:00 am-6:00 pm , Sun: 10:00 am-5:00 pm ",,,
"Fantastic Sams Pensacola, FL",,1741 E Nine Mile Road ,,Pensacola ,FL,32514,United States,(850) 479-4247,,,"Mon: 9:00 am-8:00 pm , Tue: 9:00 am-8:00 pm , Wed: 9:00 am-8:00 pm , Thu: 9:00 am-8:00 pm , Fri: 9:00 am-8:00 pm , Sat: 9:00 am-6:00 pm , Sun: 12:00 pm-5:00 pm ",,,
"Fantastic Sams Pensacola, FL",,36 South Blue Angel Parkway ,,Pensacola ,FL,32506,United States,(850) 453-5107,,,"Mon: 9:00 am-8:00 pm , Tue: 9:00 am-8:00 pm , Wed: 9:00 am-8:00 pm , Thu: 9:00 am-8:00 pm , Fri: 9:00 am-8:00 pm , Sat: 9:00 am-6:00 pm , Sun: 12:00 pm-5:00 pm ",,,
"Fantastic Sams Pensacola, FL",,13019 Sorrento Rd. ,,Pensacola ,FL,32507,United States,(850) 492-9858,,,"Mon: 8:00 am-7:00 pm , Tue: 8:00 am-7:00 pm , Wed: 8:00 am-7:00 pm , Thu: 8:00 am-7:00 pm , Fri: 8:00 am-6:00 pm , Sat: 8:00 am-4:00 pm , Sun: Closed ",,,
"Fantastic Sams Pensacola, FL",,4600 Mobile Highway ,,Pensacola ,FL,32506,United States,(850) 457-0000,,,"Mon: 9:00 am-8:00 pm , Tue: 9:00 am-8:00 pm , Wed: 9:00 am-8:00 pm , Thu: 9:00 am-8:00 pm , Fri: 9:00 am-8:00 pm , Sat: 9:00 am-6:00 pm , Sun: 12:00 pm-5:00 pm ",,,
"Fantastic Sams Yucaipa, CA",,33676 Yucaipa Blvd ,,Yucaipa ,CA,92399,United States,(909) 790-0248,,,,,,
"Fantastic Sams Pensacola, FL",,6235 North Davis Hwy ,,Pensacola ,FL,32504,United States,(850) 474-9750,,,"Mon: 9:00 am-8:00 pm , Tue: 9:00 am-8:00 pm , Wed: 9:00 am-8:00 pm , Thu: 9:00 am-8:00 pm , Fri: 9:00 am-8:00 pm , Sat: 9:00 am-6:00 pm , Sun: Closed ",,,
"Fantastic Sams Pensacola, FL",,8950 Pensacola Blvd. ,,Pensacola ,FL,32534,United States,(850) 479-1459,,,"Mon: 9:00 am-8:00 pm , Tue: 9:00 am-8:00 pm , Wed: 9:00 am-8:00 pm , Thu: 9:00 am-8:00 pm , Fri: 9:00 am-8:00 pm , Sat: 9:00 am-6:00 pm , Sun: 12:00 pm-5:00 pm ",,,
"Fantastic Sams Florissant, MO",,8213 N. Lindbergh ,,Florissant ,MO,63031,United States,(314) 830-1848,,,"Mon: 8:30 am-9:00 pm , Tue: 8:30 am-9:00 pm , Wed: 8:30 am-9:00 pm , Thu: 8:30 am-9:00 pm , Fri: 8:30 am-9:00 pm , Sat: 8:00 am-6:00 pm , Sun: 10:00 am-5:00 pm ",,,
"Fantastic Sams Bradenton, FL",,6092 14th Street West ,,Bradenton ,FL,34207,United States,(941) 755-7565,,,"Mon: 8:00 am-8:00 pm , Tue: 8:00 am-8:00 pm , Wed: 8:00 am-8:00 pm , Thu: 8:00 am-8:00 pm , Fri: 8:00 am-8:00 pm , Sat: 9:00 am-6:00 pm , Sun: 11:00 am-4:00 pm ",,,
"Fantastic Sams Bradenton, FL",,6379 Manatee Avenue West ,,Bradenton ,FL,34209,United States,(941) 896-9691,,,"Mon: 9:00 am-5:00 pm , Tue: 9:00 am-5:00 pm , Wed: 9:00 am-5:00 pm , Thu: 9:00 am-5:00 pm , Fri: 9:00 am-5:00 pm , Sat: 9:00 am-6:00 pm , Sun: 10:00 am-4:00 pm ",,,
"Fantastic Sams Bradenton, FL",,11215 Florida 70 East ,,Bradenton ,FL,34202,United States,(941) 739-0300,,,"Mon: 9:00 am-8:00 pm , Tue: 9:00 am-8:00 pm , Wed: 9:00 am-8:00 pm , Thu: 9:00 am-8:00 pm , Fri: 9:00 am-8:00 pm , Sat: 9:00 am-6:00 pm , Sun: 11:00 am-4:00 pm ",,,
"Fantastic Sams Bradenton, FL",,5526 Cortez Road West ,,Bradenton ,FL,34210,United States,(941) 795-6350,,,"Mon: 8:00 am-7:00 pm , Tue: 8:00 am-7:00 pm , Wed: 8:00 am-7:00 pm , Thu: 8:00 am-7:00 pm , Fri: 8:00 am-7:00 pm , Sat: 8:00 am-6:00 pm , Sun: 12:00 pm-5:00 pm ",,,
"Fantastic Sams La Crosse, WI",,4338 Mormon Coulee Rd ,,La Crosse ,WI,54601,United States,(608) 788-2266,,,"Mon: 9:00 am-8:00 pm , Tue: 9:00 am-8:00 pm , Wed: 9:00 am-8:00 pm , Thu: 9:00 am-8:00 pm , Fri: 9:00 am-8:00 pm , Sat: 9:00 am-5:00 pm , Sun: 10:00 am-4:00 pm ",,,
"Fantastic Sams Ankeny, IA",,2310 SE Delaware Ave ,,Ankeny ,IA,50021,United States,(515) 965-3400,,,"Mon: 9:00 am-9:00 pm , Tue: 9:00 am-9:00 pm , Wed: 9:00 am-9:00 pm , Thu: 9:00 am-9:00 pm , Fri: 9:00 am-9:00 pm , Sat: 9:00 am-5:00 pm , Sun: 9:00 am-5:00 pm ",,,
"Fantastic Sams Southaven, MS",,4935 Pepper Chase Drive ,,Southaven ,MS,38672,United States,(662) 393-3338,,,"Mon: 9:00 am-7:00 pm , Tue: 9:00 am-7:00 am , Wed: 9:00 am-7:00 am , Thu: 9:00 am-7:00 am , Fri: 9:00 am-7:00 am , Sat: 8:30 am-6:00 pm , Sun: Closed ",,,
"Fantastic Sams Southaven, MS",,775 Goodman Rd. ,,Southaven ,MS,38671,United States,(662) 349-3082,,,,,,
"Fantastic Sams Glendora, CA",,127 W Route 66 ,,Glendora ,CA,91741,United States,(626) 963-7524,,,,,,
"Fantastic Sams Apple Valley, MN",,15594 Pilot Knob Rd. ,,Apple Valley ,MN,55124,United States,(952) 423-5565,,,"Mon: 9:00 am-8:00 pm , Tue: 9:00 am-8:00 pm , Wed: 9:00 am-8:00 pm , Thu: 9:00 am-8:00 pm , Fri: 9:00 am-7:00 pm , Sat: 9:00 am-5:00 pm , Sun: 10:00 am-4:00 pm ",,,
"Fantastic Sams Pinellas Park, FL",,4412 Park Blvd. ,,Pinellas Park ,FL,33781,United States,(727) 541-7404,,,"Mon: 9:00 am-8:00 pm , Tue: 9:00 am-8:00 pm , Wed: 9:00 am-8:00 pm , Thu: 9:00 am-8:00 pm , Fri: 9:00 am-8:00 pm , Sat: 9:00 am-6:00 pm , Sun: 11:00 am-5:00 pm ",,,
"Fantastic Sams Wilson, NC",,2340 Forest Hills Drive ,,Wilson ,NC,27893,United States,(252) 237-6600,,,"Mon: 10:00 am-7:00 pm , Tue: 10:00 am-7:00 pm , Wed: 10:00 am-7:00 pm , Thu: 10:00 am-7:00 pm , Fri: 10:00 am-7:00 pm , Sat: 9:00 am-6:00 pm , Sun: Closed ",,,
"Fantastic Sams Edina, MN",,3329 Hazelton Rd ,,Edina ,MN,55435,United States,(952) 746-5515,,,"Mon: 10:00 am-8:00 pm , Tue: 10:00 am-8:00 pm , Wed: 10:00 am-8:00 pm , Thu: 10:00 am-8:00 pm , Fri: 10:00 am-7:00 pm , Sat: 9:00 am-5:00 pm , Sun: 11:00 am-5:00 pm ",,,
"Fantastic Sams Huntington, WV",,101 7th Avenue ,,Huntington ,WV,25701,United States,(304) 529-7267,,,,,,
"Fantastic Sams La Mirada, CA",,15280 Rosecrans Ave ,,La Mirada ,CA,90638,United States,(714) 739-2010,,,"Mon: 9:00 am-8:00 pm , Tue: 9:00 am-8:00 pm , Wed: 9:00 am-8:00 pm , Thu: 9:00 am-8:00 pm , Fri: 9:00 am-8:00 pm , Sat: 9:00 am-6:00 pm , Sun: 10:00 am-5:00 pm ",,,
"Fantastic Sams Caldwell, ID",,5210 East Cleveland Blvd. ,,Caldwell ,ID,83607,United States,(208) 454-7959,,,"Mon: 9:00 am-8:00 pm , Tue: 9:00 am-8:00 pm , Wed: 9:00 am-8:00 pm , Thu: 9:00 am-8:00 pm , Fri: 9:00 am-8:00 pm , Sat: 9:00 am-6:00 pm , Sun: 12:00 pm-4:00 pm ",,,
"Fantastic Sams Cypress, CA",,6946 Katella ,,Cypress ,CA,90630,United States,(714) 891-3272,,,"Mon: 10:00 am-8:00 pm , Tue: 10:00 am-8:00 pm , Wed: 10:00 am-8:00 pm , Thu: 10:00 am-8:00 pm , Fri: 10:00 am-8:00 pm , Sat: 9:00 am-6:00 pm , Sun: 10:00 am-5:00 pm ",,,
"Fantastic Sams Galveston, TX",,6203 Central City Blvd. ,,Galveston ,TX,77551,United States,(409) 740-3722,,,,,,
"Fantastic Sams Sheboygan, WI",,2705 S Business Drive ,,Sheboygan ,WI,53081,United States,(920) 783-6650,,,,,,
"Fantastic Sams Parker, CO",,11153 S. Parker Rd. ,,Parker ,CO,80134,United States,(720) 851-7881,,,,,,
"Fantastic Sams Parker, CO",,16526 Keystone Blvd. ,,Parker ,CO,80134,United States,(720) 536-5276,,,,,,
"Fantastic Sams Leesburg, VA",,1073 Edwards Ferry Rd NE ,,Leesburg ,VA,20176,United States,(571) 209-9141,,,,,,
"Fantastic Sams Roseville, MI",,29008 Gratiot Avenue ,,Roseville ,MI,48066,United States,(586) 443-4247,,,"Mon: 9:00 am-8:00 pm , Tue: 9:00 am-8:00 pm , Wed: 9:00 am-8:00 pm , Thu: 9:00 am-8:00 pm , Fri: 9:00 am-8:00 pm , Sat: 9:00 am-6:00 pm , Sun: 11:00 am-3:00 pm ",,,
"Fantastic Sams St. Louis Park, MN",,5330 Cedar Lake Road ,,St. Louis Park ,MN,55416,United States,(952) 933-0082,,,"Mon: 9:00 am-9:00 pm , Tue: 9:00 am-9:00 pm , Wed: 9:00 am-9:00 pm , Thu: 9:00 am-9:00 pm , Fri: 9:00 am-9:00 pm , Sat: 8:00 am-6:00 pm , Sun: 10:00 am-6:00 pm ",,,
"Fantastic Sams St. Louis Park, MN",,5005 Excelsior Blvd. ,,St. Louis Park ,MN,55416,United States,(952) 345-0003,,,"Mon: 9:00 am-9:00 pm , Tue: 9:00 am-9:00 pm , Wed: 9:00 am-9:00 pm , Thu: 9:00 am-9:00 pm , Fri: 9:00 am-9:00 pm , Sat: 8:00 am-6:00 pm , Sun: 10:00 am-6:00 pm ",,,
"Fantastic Sams Collierville, TN",,622 W Poplar Avenue ,,Collierville ,TN,38017,United States,(901) 853-0899,,,"Mon: 9:00 am-6:00 pm , Tue: 9:00 am-7:00 pm , Wed: 9:00 am-7:00 pm , Thu: 9:00 am-7:00 pm , Fri: 9:00 am-6:00 pm , Sat: 9:00 am-6:00 pm , Sun: Closed ",,,
"Fantastic Sams Cedar Hill, TX",,425 East Pleasant Run Road ,,Cedar Hill ,TX,75104,United States,(972) 291-7800,,,,,,
"Fantastic Sams San Luis Obispo, CA",,3910 Broad St ,,San Luis Obispo ,CA,93401,United States,(805) 547-0440,,,"Mon: 10:00 am-7:00 pm , Tue: 10:00 am-7:00 pm , Wed: 10:00 am-7:00 pm , Thu: 10:00 am-7:00 pm , Fri: 10:00 am-7:00 pm , Sat: 9:00 am-6:00 pm , Sun: 10:00 am-5:00 pm ",,,
"Fantastic Sams Palm Springs, CA",,425 S Sunrise Way ,,Palm Springs ,CA,92262,United States,(760) 327-8855,,,,,,
"Fantastic Sams Jeffersonville, IN",,2903 East 10th Street ,,Jeffersonville ,IN,47130,United States,(812) 283-0907,,,"Mon: 9:00 am-8:00 pm , Tue: 9:00 am-8:00 pm , Wed: 9:00 am-8:00 pm , Thu: 9:00 am-8:00 pm , Fri: 9:00 am-8:00 pm , Sat: 8:00 am-6:00 pm , Sun: 12:00 pm-5:00 pm ",,,
"Fantastic Sams Columbus, IN",,1321 North National Road ,,Columbus ,IN,47203,United States,(812) 375-9951,,,"Mon: 9:00 am-8:00 pm , Tue: 9:00 am-8:00 pm , Wed: 9:00 am-8:00 pm , Thu: 9:00 am-8:00 pm , Fri: 9:00 am-8:00 pm , Sat: 9:00 am-6:00 pm , Sun: Closed ",,,
"Fantastic Sams Draper, UT",,684 East 11400 South ,,Draper ,UT,84020,United States,(801) 523-2292,,,"Mon: 9:00 am-8:00 pm , Tue: 9:00 am-8:00 pm , Wed: 9:00 am-8:00 pm , Thu: 9:00 am-8:00 pm , Fri: 9:00 am-8:00 pm , Sat: 9:00 am-6:00 pm , Sun: Closed ",,,
"Fantastic Sams Lincoln, CA",,731 Sterling Parkway ,,Lincoln ,CA,95648,United States,(916) 408-8606,,,"Mon: 9:00 am-7:00 pm , Tue: 9:00 am-7:00 pm , Wed: 9:00 am-7:00 pm , Thu: 9:00 am-7:00 pm , Fri: 9:00 am-7:00 pm , Sat: 9:00 am-6:00 pm , Sun: 10:00 am-5:00 pm ",,,
"Fantastic Sams Biloxi, MS",,2370 Pass Rd ,,Biloxi ,MS,39531,United States,(228) 207-0751,,,"Mon: 9:00 am-7:00 pm , Tue: 9:00 am-7:00 pm , Wed: 9:00 am-7:00 pm , Thu: 9:00 am-7:00 pm , Fri: 9:00 am-7:00 pm , Sat: 9:00 am-6:00 pm , Sun: 12:00 pm-5:00 pm ",,,
"Fantastic Sams Littleton, CO",,7939 S Broadway ,,Littleton ,CO,80122,United States,(720) 283-8622,,,,,,
"Fantastic Sams Littleton, CO",,12482 W Ken Caryl Blvd ,,Littleton ,CO,80127,United States,(303) 973-4606,,,"Mon: 8:00 am-8:00 am , Tue: 8:00 am-8:00 am , Wed: 8:00 am-8:00 am , Thu: 8:00 am-8:00 am , Fri: 8:00 am-8:00 am , Sat: 8:00 am-6:00 pm , Sun: 9:00 am-5:00 pm ",,,
"Fantastic Sams Littleton, CO",,5894 S Zang St ,,Littleton ,CO,80127,United States,(720) 922-0300,,,,,,
"Fantastic Sams Littleton, CO",,8500 W. Crestline Avenue ,,Littleton ,CO,80123,United States,(303) 971-0696,,,"Mon: 8:00 am-8:30 pm , Tue: 8:00 am-8:30 pm , Wed: 8:00 am-8:30 pm , Thu: 8:00 am-8:30 pm , Fri: 8:00 am-8:30 pm , Sat: 8:00 am-6:00 pm , Sun: 9:00 am-5:00 pm ",,,
"Fantastic Sams Lompoc, CA",,705 North H St ,,Lompoc ,CA,93436,United States,(805) 735-7881,,,"Mon: 10:00 am-7:00 pm , Tue: 10:00 am-7:00 pm , Wed: 10:00 am-7:00 pm , Thu: 10:00 am-7:00 pm , Fri: 10:00 am-7:00 pm , Sat: 9:00 am-6:00 pm , Sun: 10:00 am-5:00 pm ",,,
"Fantastic Sams Jefferson City, MO",,825 Eastland Drive ,,Jefferson City ,MO,65101,United States,(573) 761-4422,,,"Mon: 9:00 am-7:00 pm , Tue: 9:00 am-7:00 pm , Wed: 9:00 am-7:00 pm , Thu: 9:00 am-7:00 pm , Fri: 9:00 am-6:00 pm , Sat: 8:00 am-5:00 pm , Sun: 11:00 am-4:00 pm ",,,
"Fantastic Sams Jefferson City, MO",,2219 Missouri Blvd ,,Jefferson City ,MO,65109,United States,(573) 635-4422,,,"Mon: 9:00 am-7:00 pm , Tue: 9:00 am-7:00 pm , Wed: 9:00 am-7:00 pm , Thu: 9:00 am-7:00 pm , Fri: 9:00 am-6:00 pm , Sat: 8:00 am-5:00 pm , Sun: 11:00 am-4:00 pm ",,,
"Fantastic Sams Bountiful, UT",,555 S. 200 W ,,Bountiful ,UT,84010,United States,(801) 299-8578,,,"Mon: 9:00 am-8:00 pm , Tue: 9:00 am-8:00 pm , Wed: 9:00 am-8:00 pm , Thu: 9:00 am-8:00 pm , Fri: 9:00 am-8:00 pm , Sat: 9:00 am-6:00 pm , Sun: Closed ",,,
"Fantastic Sams Keller, TX",,9500 Ray White Rd ,,Keller ,TX,76244,United States,(817) 741-7267,,,,,,
"Fantastic Sams Belleville, IL",,651 S Carlyle Ave ,,Belleville ,IL,62221,United States,(618) 236-7267,,,,,,
"Fantastic Sams Brea, CA",,407 W Imperial Hwy ,,Brea ,CA,92821,United States,(714) 671-9360,,,,,,
"Fantastic Sams Brea, CA",,2500 E Imperial Hwy ,,Brea ,CA,92821,United States,(714) 257-9603,,,,,,
"Fantastic Sams Rockwall, TX",,951 I-30 Frontage Rd ,,Rockwall ,TX,75087,United States,(972) 722-7975,,,"Mon: 10:00 am-7:00 am , Tue: 10:00 am-7:00 am , Wed: 10:00 am-7:00 am , Thu: 10:00 am-7:00 am , Fri: 10:00 am-7:00 am , Sat: 9:00 am-6:00 am , Sun: 11:00 am-5:00 pm ",,,
"Fantastic Sams St. Cloud, FL",,4415 13th Street ,,St. Cloud ,FL,34771,United States,(407) 498-0049,,,"Mon: 9:00 am-8:00 pm , Tue: 9:00 am-8:00 pm , Wed: 9:00 am-8:00 pm , Thu: 9:00 am-8:00 pm , Fri: 9:00 am-8:00 pm , Sat: 9:00 am-6:00 pm , Sun: 11:00 am-5:00 pm ",,,
"Fantastic Sams Beverly, MA",,45 Enon Street ,,Beverly ,MA,01915,United States,(978) 921-1888,,,"Mon: 9:00 am-7:00 pm , Tue: 9:00 am-7:00 pm , Wed: 9:00 am-7:00 pm , Thu: 9:00 am-8:00 pm , Fri: 9:00 am-8:00 pm , Sat: 9:00 am-6:00 pm , Sun: 9:00 am-2:00 pm ",,,
"Fantastic Sams Burleson, TX",,12770 South Freeway ,,Burleson ,TX,76028,United States,(817) 426-5822,,,"Mon: 10:00 am-8:00 pm , Tue: 10:00 am-8:00 pm , Wed: 10:00 am-8:00 pm , Thu: 10:00 am-8:00 pm , Fri: 10:00 am-8:00 pm , Sat: 9:00 am-6:00 pm , Sun: 12:00 pm-5:00 pm ",,,
"Fantastic Sams Mankato, MN",,1754 Commerce Dr ,,Mankato ,MN,56003,United States,(507) 388-2112,,,"Mon: 9:00 am-8:00 pm , Tue: 9:00 am-8:00 pm , Wed: 9:00 am-8:00 pm , Thu: 9:00 am-8:00 pm , Fri: 9:00 am-8:00 pm , Sat: 9:00 am-8:00 pm , Sun: 11:00 am-4:00 pm ",,,
"Fantastic Sams Mankato, MN",,201 Sioux Road ,,Mankato ,MN,56001,United States,(507) 345-4007,,,"Mon: 9:00 am-8:00 pm , Tue: 9:00 pm-8:00 pm , Wed: 9:00 am-8:00 pm , Thu: 9:00 am-8:00 pm , Fri: 9:00 am-8:00 pm , Sat: 9:00 am-5:00 pm , Sun: 11:00 am-4:00 pm ",,,
"Fantastic Sams Prescott Valley, AZ",,7025 E Florentine Rd ,,Prescott Valley ,AZ,86314,United States,(928) 759-3550,,,"Mon: 9:00 am-7:00 pm , Tue: 9:00 am-7:00 pm , Wed: 9:00 am-7:00 pm , Thu: 9:00 am-7:00 pm , Fri: 9:00 am-7:00 pm , Sat: 9:00 am-6:00 pm , Sun: 11:00 am-5:00 pm ",,,
"Fantastic Sams Prescott, AZ",,1260 Gail Gardner Way ,,Prescott ,AZ,86305,United States,(928) 541-0090,,,"Mon: 9:00 am-7:00 pm , Tue: 9:00 am-7:00 pm , Wed: 9:00 am-7:00 pm , Thu: 9:00 am-7:00 pm , Fri: 9:00 am-7:00 pm , Sat: 9:00 am-6:00 pm , Sun: 11:00 am-5:00 pm ",,,
"Fantastic Sams Beaumont, CA",,1484 2nd Street ,,Marketplace Beaumont ,CA,92223,United States,(951) 845-9002,,,"Mon: 9:00 am-7:00 pm , Tue: 9:00 am-7:00 pm , Wed: 9:00 am-7:00 pm , Thu: 9:00 am-7:00 pm , Fri: 9:00 am-7:00 pm , Sat: 9:00 am-6:00 pm , Sun: 10:00 am-5:00 pm ",,,
"Fantastic Sams Mankato, MN",,1600 Warren St ,,Mankato ,MN,56001,United States,(507) 345-1544,,,"Mon: 10:00 am-7:00 pm , Tue: 10:00 am-7:00 pm , Wed: 10:00 am-7:00 pm , Thu: 10:00 am-7:00 pm , Fri: 10:00 am-7:00 pm , Sat: 9:00 am-5:00 am , Sun: Closed ",,,
"Fantastic Sams Crystal Lake, IL",,6162 Northwest Highway ,,Crystal Lake ,IL,60014,United States,(815) 455-2212,,,"Mon: 9:00 am-8:00 pm , Tue: 9:00 am-8:00 pm , Wed: 9:00 am-8:00 pm , Thu: 9:00 am-8:00 pm , Fri: 9:00 am-8:00 pm , Sat: 8:00 am-5:30 pm , Sun: 10:00 am-4:00 pm ",,,
"Fantastic Sams Hickory, NC",,1411 29th Ave NE ,,Hickory ,NC,28601,United States,(828) 256-7990,,,,,,
"Fantastic Sams Hickory, NC",,2229 US-70 SE ,,Hickory ,NC,28602,United States,(828) 323-8255,,,,,,
"Fantastic Sams Brentwood, TN",,6688 Nolensville Pike ,,Brentwood ,TN,37027,United States,(615) 941-2575,,,,,,
"Fantastic Sams Brentwood, TN",,330 Franklin Rd ,,Brentwood ,TN,37027,United States,(615) 377-2950,,,,,,
"Fantastic Sams Maplewood, MN",,1275 East County Road D ,,Maplewood ,MN,55109,United States,(651) 739-1109,,,,,,
"Fantastic Sams Culver City, CA",,10814 Jefferson Blvd. ,,Culver City ,CA,90230,United States,(310) 559-1140,,,"Mon: 9:00 am-8:00 pm , Tue: 9:00 am-8:00 pm , Wed: 9:00 am-8:00 am , Thu: 9:00 am-8:00 pm , Fri: 9:00 am-8:00 pm , Sat: 9:00 am-6:00 pm , Sun: 10:00 am-6:00 pm ",,,
"Fantastic Sams Germantown, TN",,7820 Poplar Ave ,,Germantown ,TN,38138,United States,(901) 757-5262,,,"Mon: 9:00 am-7:00 pm , Tue: 9:00 am-7:00 pm , Wed: 9:00 am-7:00 pm , Thu: 9:00 am-7:00 pm , Fri: 9:00 am-6:00 pm , Sat: 8:00 am-5:00 pm , Sun: Closed ",,,
"Fantastic Sams Wausau, WI",,4424 Rib Mountain Rd. ,,Wausau ,WI,54401,United States,(715) 359-2724,,,"Mon: 9:00 am-8:00 pm , Tue: 9:00 am-8:00 pm , Wed: 9:00 am-8:00 pm , Thu: 9:00 am-8:00 pm , Fri: 9:00 am-8:00 pm , Sat: 8:00 am-4:00 pm , Sun: 10:00 am-3:00 pm ",,,
"Fantastic Sams Woburn, MA",,84 Washington St ,,Woburn ,MA,01801,United States,(781) 939-9959,,,"Mon: 10:00 am-7:00 pm , Tue: 10:00 am-7:00 pm , Wed: 10:00 am-7:00 pm , Thu: 10:00 am-8:00 pm , Fri: 10:00 am-8:00 pm , Sat: 9:00 am-5:00 pm , Sun: 10:00 am-4:00 pm ",,,
"Fantastic Sams Shakopee, MN",,8090 Old Carriage Court ,,Shakopee ,MN,55379,United States,(952) 303-4990,,,"Mon: 10:00 am-8:00 pm , Tue: 10:00 am-8:00 pm , Wed: 10:00 am-8:00 pm , Thu: 10:00 am-8:00 pm , Fri: 10:00 am-7:00 pm , Sat: 9:00 am-5:00 pm , Sun: 11:00 am-4:00 pm ",,,
"Fantastic Sams Ocoee, FL",,340 Moore Rd. ,,Ocoee ,FL,34761,United States,(407) 614-2778,,,"Mon: 9:00 am-9:00 pm , Tue: 9:00 am-9:00 pm , Wed: 9:00 am-9:00 pm , Thu: 9:00 am-9:00 pm , Fri: 9:00 am-9:00 pm , Sat: 9:00 am-7:00 pm , Sun: 12:00 pm-5:00 pm ",,,
"Fantastic Sams Shakopee, MN",,1349 Heather St ,,Shakopee ,MN,55379,United States,(952) 233-5798,,,"Mon: 10:00 am-8:00 pm , Tue: 10:00 am-8:00 pm , Wed: 10:00 am-8:00 pm , Thu: 10:00 am-8:00 pm , Fri: 10:00 am-7:00 pm , Sat: 9:00 am-5:00 pm , Sun: 11:00 am-4:00 pm ",,,
"Fantastic Sams Brookfield, WI",,3930 N. Brookfield Rd ,,Brookfield ,WI,53045,United States,(262) 373-0123,,,"Mon: 9:00 am-6:00 pm , Tue: 9:00 am-8:00 pm , Wed: 9:00 am-8:00 pm , Thu: 9:00 am-8:00 pm , Fri: 9:00 am-6:00 pm , Sat: 9:00 am-5:00 pm , Sun: 10:00 am-3:00 pm ",,,
"Fantastic Sams Dover, DE",,96 Salt Creek Dr ,,Dover ,DE,19901,United States,(302) 677-1500,,,"Mon: 10:00 am-8:00 pm , Tue: 10:00 am-8:00 pm , Wed: 10:00 am-8:00 pm , Thu: 10:00 am-8:00 pm , Fri: 10:00 am-8:00 pm , Sat: 9:30 am-5:30 am , Sun: Closed ",,,
"Fantastic Sams Monrovia, CA",,180 W Foothill Bvd ,,Monrovia ,CA,91016,United States,(626) 359-2543,,,,,,
