store_name,store_number,address,address2,city,state,zip_code,country,phone_number,latitude,longitude,store_hours,store_type,other_fields,coming_soon
,,400 Pine St,,Seattle,Washington,98101,United States,(206) 682-1325,,,Mon: 10:00 am - 8:00 pm Tue: 10:00 am - 8:00 pm Wed: 10:00 am - 8:00 pm Thu: 10:00 am - 8:00 pm Fri: 10:00 am - 8:00 pm Sat: 10:00 am - 8:00 pm Sun: 11:00 am - 6:00 p,,,
,,129 Bellevue Sq,,Bellevue,Washington,98004,United States,(425) 454-1556,,,Mon: 9:30 am - 9:30 pm Tue: 9:30 am - 9:30 pm Wed: 9:30 am - 9:30 pm Thu: 9:30 am - 9:30 pm Fri: 9:30 am - 9:30 pm Sat: 9:30 am - 9:30 pm Sun: 11:00 am - 7:00 p,,,
,,14006 Riverside Dr,,Sherman Oaks,California,91423,United States,(818) 906-9665,,,Mon: 10:00 am - 9:00 pm Tue: 10:00 am - 9:00 pm Wed: 10:00 am - 9:00 pm Thu: 10:00 am - 9:00 pm Fri: 10:00 am - 8:00 pm Sat: 10:00 am - 8:00 pm Sun: 11:00 am - 6:00 p,,,
,,395 Santa Monica Pl,,Santa Monica,California,90401,United States,(310) 395-1526,,,Mon: 10:00 am - 9:00 pm Tue: 10:00 am - 9:00 pm Wed: 10:00 am - 9:00 pm Thu: 10:00 am - 9:00 pm Fri: 10:00 am - 9:00 pm Sat: 10:00 am - 9:00 pm Sun: 11:00 am - 8:00 p,,,
,,845 Market St,,San Francisco,California,94103,United States,(415) 278-0438,,,Mon: 10:00 am - 8:30 pm Tue: 10:00 am - 8:30 pm Wed: 10:00 am - 8:30 pm Thu: 10:00 am - 8:30 pm Fri: 10:00 am - 8:30 pm Sat: 10:00 am - 8:30 pm Sun: 10:00 am - 7:00 p,,,
,,401 Newport Center Dr,,Newport Beach,California,92660,United States,(949) 219-9953,,,Mon: 10:00 am - 9:00 pm Tue: 10:00 am - 9:00 pm Wed: 10:00 am - 9:00 pm Thu: 10:00 am - 9:00 pm Fri: 10:00 am - 9:00 pm Sat: 10:00 am - 7:00 pm Sun: 11:00 am - 6:00 p,,,
,,3251 20th Ave,,San Francisco,California,94132,United States,(415) 682-8234,,,Mon: 10:00 am - 9:00 pm Tue: 10:00 am - 9:00 pm Wed: 10:00 am - 9:00 pm Thu: 10:00 am - 9:00 pm Fri: 10:00 am - 9:00 pm Sat: 10:00 am - 9:00 pm Sun: 11:00 am - 6:00 p,,,
,,6600 Topanga Canyon Blvd,,Los Angeles,California,91303,United States,(818) 346-1720,,,Mon: 10:00 am - 9:00 pm Tue: 10:00 am - 9:00 pm Wed: 10:00 am - 9:00 pm Thu: 10:00 am - 9:00 pm Fri: 10:00 am - 9:00 pm Sat: 10:00 am - 9:00 p,,,
,,690 W Dekalb Pike,,King of Prussia,Pennsylvania,19406,United States,(610) 337-1860,,,Mon: 11:00 am - 6:00 pm Tue: 10:00 am - 9:00 pm Wed: 10:00 am - 9:00 pm Thu: 10:00 am - 9:00 pm Fri: 10:00 am - 9:00 pm Sat: 10:00 am - 9:00 pm Sun: 11:00 am - 6:00 p,,,
,,"309 Rosedale Ctr, Ste 120",,St Paul,Minnesota,55113,United States,(651) 633-9887,,,Mon: 10:00 am - 9:00 pm Tue: 10:00 am - 9:00 pm Wed: 10:00 am - 9:00 pm Thu: 10:00 am - 9:00 pm Fri: 10:00 am - 9:00 pm Sat: 10:00 am - 9:00 pm Sun: 11:00 am - 6:00 p,,,
,,1595 Highway 36 W,,Roseville,Minnesota,55113,United States,(651) 633-9887,,,"Hours may fluctuate. For detailed hours of operation, please contact the store directly",,,
,,"1 Garden State Plz, Ste 1130",,Paramus,New Jersey,07652,United States,(201) 843-3139,,,Mon: 10:00 am - 9:30 pm Tue: 10:00 am - 9:30 pm Wed: 10:00 am - 9:30 pm Thu: 10:00 am - 9:30 pm Fri: 10:00 am - 9:30 pm Sat: 10:00 am - 9:30 p,,,
,,3710 Us-9,,Freehold,New Jersey,07728,United States,(732) 625-1900,,,Mon: 11:00 am - 6:00 pm Tue: 10:00 am - 9:00 pm Wed: 10:00 am - 9:00 pm Thu: 10:00 am - 9:00 pm Fri: 10:00 am - 9:00 pm Sat: 10:00 am - 7:00 p,,,
,,1 Garden St,,Dumont,New Jersey,07628,United States,(201) 387-0176,,,"Hours may fluctuate. For detailed hours of operation, please contact the store directly",,,
,,216 North Garden,,Bloomington,Minnesota,55425,United States,(952) 854-5804,,,Mon: 10:00 am - 9:30 pm Tue: 10:00 am - 9:30 pm Wed: 10:00 am - 9:30 pm Thu: 10:00 am - 9:30 pm Fri: 10:00 am - 9:30 pm Sat: 10:00 am - 9:30 pm Sun: 11:00 am - 7:00 p,,,
,,210 Andover St,,Peabody,Massachusetts,01960,United States,(978) 531-1776,,,Mon: 10:00 am - 9:00 pm Tue: 10:00 am - 9:00 pm Wed: 10:00 am - 9:00 pm Thu: 10:00 am - 9:00 pm Fri: 10:00 am - 9:00 pm Sat: 10:00 am - 9:00 pm Sun: 11:00 am - 6:00 p,,,
,,1245 Worcester St,,Natick,Massachusetts,01760,United States,(508) 545-2648,,,Mon: 10:00 am - 9:00 pm Tue: 10:00 am - 9:00 pm Wed: 10:00 am - 9:00 pm Thu: 10:00 am - 9:00 pm Fri: 10:00 am - 9:00 pm Sat: 10:00 am - 9:00 pm Sun: 12:00 pm - 6:00 p,,,
,,250 Granite St,,Braintree,Massachusetts,02184,United States,(781) 843-2065,,,Mon: 10:00 am - 9:00 pm Tue: 10:00 am - 9:00 pm Wed: 10:00 am - 9:00 pm Thu: 10:00 am - 9:00 pm Fri: 10:00 am - 9:00 pm Sat: 10:00 am - 9:00 pm Sun: 11:00 am - 6:00 p,,,
,,132 Christiana Mall,,Newark,Delaware,19702,United States,(302) 731-7286,,,Mon: 10:00 am - 9:30 pm Tue: 10:00 am - 9:30 pm Wed: 10:00 am - 9:30 pm Thu: 10:00 am - 9:30 pm Fri: 10:00 am - 9:30 pm Sat: 10:00 am - 9:30 pm Sun: 9:00 am - 6:00 p,,,
,,4905 Old Orchard Ctr,,Skokie,Illinois,60077,United States,(847) 673-9000,,,Mon: 10:00 am - 8:00 pm Tue: 10:00 am - 8:00 pm Wed: 10:00 am - 8:00 pm Thu: 10:00 am - 8:00 pm Fri: 10:00 am - 9:00 pm Sat: 10:00 am - 9:00 pm Sun: 11:00 am - 6:00 p,,,
,,123 S Washington St,,Naperville,Illinois,60540,United States,(630) 355-6250,,,Mon: 10:00 am - 5:00 pm Tue: 10:00 am - 5:00 pm Wed: 10:00 am - 5:00 pm Thu: 10:00 am - 6:00 pm Fri: 10:00 am - 6:00 pm Sat: 10:00 am - 6:00 pm Sun: 11:00 am - 5:00 p,,,
,,5 Woodfield Mall,,Schaumburg,Illinois,60173,United States,(847) 413-1455,,,Mon: 10:00 am - 9:00 pm Tue: 10:00 am - 9:00 pm Wed: 10:00 am - 9:00 pm Thu: 10:00 am - 9:00 pm Fri: 10:00 am - 9:00 pm Sat: 10:00 am - 9:00 pm Sun: 11:00 am - 6:00 p,,,
,,4745 N Lincoln Ave,,Chicago,Illinois,60625,United States,(773) 784-7991,,,Mon: 11:00 am - 7:00 pm Tue: 11:00 am - 7:00 pm Wed: 11:00 am - 7:00 pm Thu: 11:00 am - 7:00 pm Fri: 11:00 am - 9:00 pm Sat: 10:00 am - 9:00 pm Sun: 10:00 am - 5:00 p,,,
,,"1735 N Ashland Ave, #1",,Chicago,Illinois,60622,United States,(773) 360-1662,,,"Hours may fluctuate. For detailed hours of operation, please contact the store directly",,,
,,835 N Michigan Ave,,Chicago,Illinois,60611,United States,(312) 255-1201,,,Mon: 10:00 am - 9:00 pm Tue: 10:00 am - 9:00 pm Wed: 10:00 am - 9:00 pm Thu: 10:00 am - 9:00 pm Fri: 10:00 am - 9:00 pm Sat: 10:00 am - 9:00 pm Sun: 10:00 am - 6:00 p,,,
,,825 Dulaney Valley Rd,,Towson,Maryland,21204,United States,(410) 825-1479,,,Mon: 10:00 am - 9:00 pm Tue: 10:00 am - 9:00 pm Wed: 10:00 am - 9:00 pm Thu: 10:00 am - 9:00 pm Fri: 10:00 am - 9:00 pm Sat: 10:00 am - 9:00 pm Sun: 12:00 pm - 6:00 p,,,
,,10300 Little Patuxent Pkwy,,Columbia,Maryland,21044,United States,(410) 997-0023,,,Mon: 10:00 am - 9:00 pm Tue: 10:00 am - 9:00 pm Wed: 10:00 am - 9:00 pm Thu: 10:00 am - 9:00 pm Fri: 10:00 am - 9:00 pm Sat: 10:00 am - 9:00 pm Sun: 10:00 am - 6:00 p,,,
,,55 E Grand Ave,,Chicago,Illinois,60611,United States,(312) 494-7769,,,Mon: 10:00 am - 7:00 pm Tue: 10:00 am - 7:00 pm Wed: 10:00 am - 7:00 pm Thu: 10:00 am - 7:00 pm Fri: 10:00 am - 7:00 pm Sat: 10:00 am - 7:00 pm Sun: 11:00 am - 6:00 p,,,
,,"7101 Democracy Blvd, Ste 1292",,Bethesda,Maryland,20817,United States,(301) 469-5061,,,Mon: 10:00 am - 9:00 pm Tue: 10:00 am - 9:00 pm Wed: 10:00 am - 9:00 pm Thu: 10:00 am - 9:00 pm Fri: 10:00 am - 9:00 pm Sat: 10:00 am - 9:00 pm Sun: 10:00 am - 9:00 p,,,
,,2460 Annapolis Mall,,Annapolis,Maryland,21401,United States,(410) 266-3015,,,Mon: 10:00 am - 9:00 pm Tue: 10:00 am - 9:00 pm Wed: 10:00 am - 9:00 pm Thu: 10:00 am - 9:00 pm Fri: 10:00 am - 9:00 pm Sat: 10:00 am - 9:00 pm Sun: 11:00 am - 7:00 p,,,
