store_name,store_number,address,address2,city,state,zip_code,country,phone_number,latitude,longitude,store_hours,store_type,other_fields,coming_soon
,,"6424 Bells Ferry,Ste 124",,Woodstock,Georgia,30189,United States,(770) 924-9300,,,Mon: 12:00 pm - 8:00 pm Tue: 12:00 pm - 8:00 pm Wed: 12:00 pm - 8:00 pm Thu: 12:00 pm - 8:00 pm Fri: 11:00 am - 9:00 pm Sat: 11:00 am - 9:00 pm Sun: 12:00 pm - 8:00 p,,,
,,9330 Center Lake Dr,,Charlotte,North Carolina,28216,United States,(704) 921-2722,,,"Hours may fluctuate. For detailed hours of operation, please contact the store directly",,,
,,"1453 Riverstone Pkwy, Ste 170",,Canton,Georgia,30114,United States,(770) 720-7529,,,Mon: 10:00 am - 9:00 pm Tue: 10:00 am - 9:00 pm Wed: 10:00 am - 9:00 pm Thu: 10:00 am - 9:00 pm Fri: 10:00 am - 9:00 pm Sat: 10:00 am - 9:00 pm Sun: 12:00 pm - 6:00 p,,,
,,"6124 Hickory Flat Hwy, Ste D",,Canton,Georgia,30115,United States,(770) 720-7529,,,Mon: 12:00 am - 9:00 pm Tue: 12:00 am - 9:00 pm Wed: 12:00 am - 9:00 pm Thu: 12:00 am - 9:00 pm Fri: 12:00 am - 9:00 pm Sat: 11:00 am - 10:00 p,,,
,,"2990 Eagle Dr, #110",,Woodstock,Georgia,30189,United States,(770) 924-9300,,,Mon: 10:00 am - 9:00 pm Tue: 10:00 am - 9:00 pm Wed: 10:00 am - 9:30 pm Thu: 10:00 am - 9:00 pm Fri: 10:00 am - 10:00 pm Sat: 10:00 am - 10:00 pm Sun: 12:00 pm - 8:00 p,,,
,,"9816 Rea Rd, #A",,Charlotte,North Carolina,28277,United States,(704) 749-1540,,,"Hours may fluctuate. For detailed hours of operation, please contact the store directly",,,
,,230 E W T Harris Blvd,,Charlotte,North Carolina,28262,United States,(704) 549-1112,,,"Hours may fluctuate. For detailed hours of operation, please contact the store directly",,,
,,,,Fairbanks,Alaska,99712,United States,(907) 374-4849,,,"Hours may fluctuate. For detailed hours of operation, please contact the store directly",,,
,,11525 Busy St,,Richmond,Virginia,23236,United States,(804) 897-4768,,,"Hours may fluctuate. For detailed hours of operation, please contact the store directly",,,
,,2438 W Anderson Ln,,Austin,Texas,78757,United States,(512) 458-4263,,,Mon: 10:00 am - 9:00 pm Tue: 10:00 am - 9:00 pm Wed: 10:00 am - 9:00 pm Thu: 10:00 am - 9:00 pm Fri: 10:00 am - 9:00 pm Sat: 10:00 am - 9:00 am Sun: 10:00 am - 9:00 a,,,
,,1717 E 38th St,,Erie,Pennsylvania,16510,United States,(814) 825-3743,,,Mon: 10:00 am - 9:00 pm Tue: 10:00 am - 9:00 pm Wed: 10:00 am - 9:00 pm Thu: 10:00 am - 9:00 pm Fri: 10:00 am - 10:00 pm Sat: 10:00 am - 10:00 pm Sun: 10:00 am - 9:00 p,,,
,,"9070 Research Blvd, Ste 204b",,Austin,Texas,78758,United States,(512) 458-4263,,,Mon: 10:00 am - 9:00 pm Tue: 10:00 am - 9:00 pm Wed: 10:00 am - 9:00 pm Thu: 10:00 am - 9:00 pm Fri: 10:00 am - 9:00 pm Sat: 10:00 am - 9:00 p,,,
,,2930 W Cary St,,Richmond,Virginia,23221,United States,(804) 353-7529,,,Mon: 11:00 am - 8:00 pm Tue: 11:00 am - 8:00 pm Wed: 11:00 am - 8:00 pm Thu: 11:00 am - 8:00 pm Fri: 11:00 am - 8:00 pm Sat: 11:00 am - 8:00 pm Sun: 12:00 pm - 5:00 p,,,
,,1520 W 26th St,,Erie,Pennsylvania,16508,United States,(814) 456-4263,,,"Hours may fluctuate. For detailed hours of operation, please contact the store directly",,,
,,7336 Forest Ave,,Richmond,Virginia,23226,United States,(804) 330-7529,,,"Hours may fluctuate. For detailed hours of operation, please contact the store directly",,,
,,1460 Orchard Rd,,Aurora,Illinois,60506,United States,(630) 907-9991,,,"Hours may fluctuate. For detailed hours of operation, please contact the store directly",,,
,,"601 E Dimond Blvd, Ste 4",,Anchorage,Alaska,99515,United States,(907) 344-4263,,,Mon: 12:00 am - 11:59 pm Tue: 12:00 am - 11:59 pm Wed: 12:00 am - 11:59 pm Thu: 12:00 am - 11:59 pm Fri: 12:00 am - 11:59 pm Sat: 12:00 am - 11:59 pm Sun: 12:00 am - 11:59 p,,,
,,"601 W 36th Ave, Ste 13",,Anchorage,Alaska,99503,United States,(907) 344-4263,,,Mon: 10:00 am - 9:00 pm Tue: 10:00 am - 9:00 pm Wed: 10:00 am - 9:00 pm Thu: 10:00 am - 9:00 pm Fri: 10:00 am - 9:00 pm Sat: 10:00 am - 8:00 pm Sun: 11:00 am - 6:00 p,,,
,,"4407 Little Rd, #670",,Arlington,Texas,76016,United States,(817) 561-0016,,,"Hours may fluctuate. For detailed hours of operation, please contact the store directly",,,
,,809 Patton Ave,,Asheville,North Carolina,28806,United States,(828) 350-0343,,,"Hours may fluctuate. For detailed hours of operation, please contact the store directly",,,
,,18801 E Hampden Ave,,Aurora,Colorado,80013,United States,(720) 870-2404,,,"Hours may fluctuate. For detailed hours of operation, please contact the store directly",,,
,,8802 Michigan Rd,,Indianapolis,Indiana,46268,United States,(317) 875-7529,,,"Hours may fluctuate. For detailed hours of operation, please contact the store directly",,,
,,1632 Ashland St,,Ashland,Oregon,97520,United States,(541) 488-5400,,,"Hours may fluctuate. For detailed hours of operation, please contact the store directly",,,
,,"6810 S Emerson Ave, #E",,Indianapolis,Indiana,46237,United States,(317) 222-6134,,,"Hours may fluctuate. For detailed hours of operation, please contact the store directly",,,
,,"2620 N Narragansett Ave, #B10",,Chicago,Illinois,60639,United States,(773) 637-0500,,,"Hours may fluctuate. For detailed hours of operation, please contact the store directly",,,
,,5937 Berkshire Ct,,Alexandria,Virginia,22303,United States,(703) 360-1997,,,"Hours may fluctuate. For detailed hours of operation, please contact the store directly",,,
,,4713 S Kedzie Ave,,Chicago,Illinois,60632,United States,(773) 254-7529,,,"Hours may fluctuate. For detailed hours of operation, please contact the store directly",,,
,,5200 S Pulaski Rd,,Chicago,Illinois,60632,United States,(773) 581-4263,,,"Hours may fluctuate. For detailed hours of operation, please contact the store directly",,,
,,3918 N Cicero Ave,,Chicago,Illinois,60641,United States,(773) 930-3092,,,"Hours may fluctuate. For detailed hours of operation, please contact the store directly",,,
,,"1330 Calle Avanzado, Fl 2",,San Clemente,California,92673,United States,(949) 812-7903,,,Mon: 8:00 am - 5:00 pm Tue: 8:00 am - 5:00 pm Wed: 8:00 am - 5:00 pm Thu: 8:00 am - 5:00 pm Fri: 8:00 am - 5:00 pm Sat: 8:00 am - 7:00 pm Sun: 8:00 am - 7:00 p,,,
,,"131 Calle Iglesia, Ste 200",,San Clemente,California,92672,United States,(949) 812-7900,,,"Hours may fluctuate. For detailed hours of operation, please contact the store directly",,,
,,131 Calle Avanzado # 200,,San Clemente,California,92673,United States,(949) 812-7903,,,"Hours may fluctuate. For detailed hours of operation, please contact the store directly",,,
,,"1255 Airport Way, Ste 1",,Fairbanks,Alaska,99701,United States,(907) 374-4849,,,"Hours may fluctuate. For detailed hours of operation, please contact the store directly",,,
,,139 Arnould Blvd,,Lafayette,Louisiana,70506,United States,(337) 456-5163,,,"Hours may fluctuate. For detailed hours of operation, please contact the store directly",,,
,,"2668 Johnston St, #A3",,Lafayette,Louisiana,70503,United States,(337) 456-5163,,,"Hours may fluctuate. For detailed hours of operation, please contact the store directly",,,
,,2601 Blanding Ave,,Alameda,California,94501,United States,(510) 523-4828,,,Mon: 11:00 am - 8:00 pm Tue: 11:00 am - 8:00 pm Wed: 11:00 am - 8:00 pm Thu: 11:00 am - 8:00 pm Fri: 11:00 am - 8:00 pm Sat: 11:00 am - 8:00 pm Sun: 11:00 am - 6:00 p,,,
,,3226 S Clack St,,Abilene,Texas,79606,United States,(325) 698-4263,,,"Hours may fluctuate. For detailed hours of operation, please contact the store directly",,,
