store_name,store_number,address,address2,city,state,zip_code,country,phone_number,latitude,longitude,store_hours,store_type,other_fields,coming_soon
,313,5105 Montgomery Hwy,,Dothan,AL,36303,United States,334-984-0084,31.271905,-85.451009,"Monday 9:00am - 9:00pm , Tuesday 9:00am - 9:00pm , Wednesday 9:00am - 9:00pm , Thursday 9:00am - 9:00pm , Friday 9:00am - 9:00pm , Saturday 9:00am - 9:00pm , Sunday 10:00am - 6:00pm ",,,
,485,14640 W. Freeway Drive,,Forest Lake,MN,55025,United States,651-464-0707,45.235247,-93.031363,"Monday 9:00am - 9:00pm , Tuesday 9:00am - 9:00pm , Wednesday 9:00am - 9:00pm , Thursday 9:00am - 9:00pm , Friday 9:00am - 9:00pm , Saturday 9:00am - 9:00pm , Sunday 10:00am - 6:00pm ",,,
,493,614 2nd St S,,Waite Park,MN,56387,United States,320-654-6600,45.548689,-94.224854,"Monday 9:00am - 9:00pm , Tuesday 9:00am - 9:00pm , Wednesday 9:00am - 9:00pm , Thursday 9:00am - 9:00pm , Friday 9:00am - 9:00pm , Saturday 9:00am - 9:00pm , Sunday 10:00am - 6:00pm ",,,
,483,16861 Kenyon Avenue,,Lakeville,MN,55044,United States,952-435-3805,44.703711,-93.287445,"Monday 9:00am - 9:00pm , Tuesday 9:00am - 9:00pm , Wednesday 9:00am - 9:00pm , Thursday 9:00am - 9:00pm , Friday 9:00am - 9:00pm , Saturday 9:00am - 9:00pm , Sunday 10:00am - 6:00pm ",,,
,481,1940 Adams Street,,Mankato,MN,56001,United States,507-345-3600,44.173156,-93.947619,"Monday 9:00am - 9:00pm , Tuesday 9:00am - 9:00pm , Wednesday 9:00am - 9:00pm , Thursday 9:00am - 9:00pm , Friday 9:00am - 9:00pm , Saturday 9:00am - 9:00pm , Sunday 10:00am - 6:00pm ",,,
,367,3470 55th Street NW,,Rochester,MN,55901,United States,507-252-2033,44.077884,-92.516935,"Monday 9:00am - 9:00pm , Tuesday 9:00am - 9:00pm , Wednesday 9:00am - 9:00pm , Thursday 9:00am - 9:00pm , Friday 9:00am - 9:00pm , Saturday 9:00am - 9:00pm , Sunday 10:00am - 6:00pm ",,,
,490,4275 Haines Road,,Hermantown,MN,55811,United States,218-786-9800,46.819819,-92.176798,"Monday 9:00am - 9:00pm , Tuesday 9:00am - 9:00pm , Wednesday 9:00am - 9:00pm , Thursday 9:00am - 9:00pm , Friday 9:00am - 9:00pm , Saturday 9:00am - 9:00pm , Sunday 10:00am - 6:00pm ",,,
,368,20870 Rogers Drive,,Rogers,MN,55374,United States,763-496-0919,45.192506,-93.544277,"Monday 9:00am - 9:00pm , Tuesday 9:00am - 9:00pm , Wednesday 9:00am - 9:00pm , Thursday 9:00am - 9:00pm , Friday 9:00am - 9:00pm , Saturday 9:00am - 9:00pm , Sunday 10:00am - 6:00pm ",,,
,489,12160 Technology Drive,,Eden Prairie,MN,55344,United States,952-944-5422,44.8626002,-93.4330036,"Monday 9:00am - 9:00pm , Tuesday 9:00am - 9:00pm , Wednesday 9:00am - 9:00pm , Thursday 9:00am - 9:00pm , Friday 9:00am - 9:00pm , Saturday 9:00am - 9:00pm , Sunday 10:00am - 6:00pm ",,,
,487,10650 Baltimore St NE,,Blaine,MN,55449,United States,763-783-7200,45.163532,-93.233091,"Monday 9:00am - 9:00pm , Tuesday 9:00am - 9:00pm , Wednesday 9:00am - 9:00pm , Thursday 9:00am - 9:00pm , Friday 9:00am - 9:00pm , Saturday 9:00am - 9:00pm , Sunday 10:00am - 6:00pm ",,,
,486,14275 Edgewood Dr Suite 100,,Baxter,MN,56425,United States,218-828-1736,46.357601,-94.24746,"Monday 9:00am - 9:00pm , Tuesday 9:00am - 9:00pm , Wednesday 9:00am - 9:00pm , Thursday 9:00am - 9:00pm , Friday 9:00am - 9:00pm , Saturday 9:00am - 9:00pm , Sunday 10:00am - 6:00pm ",,,
,175,14100 Pardee Road,,Taylor,MI,48180,United States,734-287-7420,42.2042570,-83.2572600,"Monday 9:00am - 9:00pm , Tuesday 9:00am - 9:00pm , Wednesday 9:00am - 9:00pm , Thursday 9:00am - 9:00pm , Friday 9:00am - 9:00pm , Saturday 9:00am - 9:00pm , Sunday 10:00am - 6:00pm ",,,
,484,1313 Paul Bunyan Drive NW,,Bemidji,MN,56601,United States,218-755-6150,47.493617,-94.898508,"Monday 9:00am - 9:00pm , Tuesday 9:00am - 9:00pm , Wednesday 9:00am - 9:00pm , Thursday 9:00am - 9:00pm , Friday 9:00am - 9:00pm , Saturday 9:00am - 9:00pm , Sunday 10:00am - 6:00pm ",,,
,152,315 W Pine St,,West Baraboo,WI,53913,United States,608-356-9800,43.472107,-89.770363,"Monday 9:00am - 9:00pm , Tuesday 9:00am - 9:00pm , Wednesday 9:00am - 9:00pm , Thursday 9:00am - 9:00pm , Friday 9:00am - 9:00pm , Saturday 9:00am - 9:00pm , Sunday 10:00am - 6:00pm ",,,
,171,13975 Hall Rd,,Utica,MI,48315,United States,586-247-9900,42.629056,-82.991848,"Monday 9:00am - 9:00pm , Tuesday 9:00am - 9:00pm , Wednesday 9:00am - 9:00pm , Thursday 9:00am - 9:00pm , Friday 9:00am - 9:00pm , Saturday 9:00am - 9:00pm , Sunday 10:00am - 6:00pm ",,,
,174,2270 Tittabawassee Rd,,Saginaw,MI,48604,United States,989-791-3500,43.482228,-83.961318,"Monday 9:00am - 9:00pm , Tuesday 9:00am - 9:00pm , Wednesday 9:00am - 9:00pm , Thursday 9:00am - 9:00pm , Friday 9:00am - 9:00pm , Saturday 9:00am - 9:00pm , Sunday 10:00am - 6:00pm ",,,
,178,3500 MarketPlace Cir Suite B,,Traverse City,MI,49684,United States,231-929-5590,44.732606,-85.6474,"Monday 9:00am - 9:00pm , Tuesday 9:00am - 9:00pm , Wednesday 9:00am - 9:00pm , Thursday 9:00am - 9:00pm , Friday 9:00am - 9:00pm , Saturday 9:00am - 9:00pm , Sunday 10:00am - 6:00pm ",,,
,112,2440 E Moreland Blvd,,Waukesha,WI,53186,United States,262-798-0424,43.03399,-88.175351,"Monday 9:00am - 9:00pm , Tuesday 9:00am - 9:00pm , Wednesday 9:00am - 9:00pm , Thursday 9:00am - 9:00pm , Friday 9:00am - 9:00pm , Saturday 9:00am - 9:00pm , Sunday 10:00am - 6:00pm ",,,
,132,4224 Gander Road,,Sheboygan,WI,53083,United States,920-208-0800,43.790582,-87.763057,"Monday 9:00am - 9:00pm , Tuesday 9:00am - 9:00pm , Wednesday 9:00am - 9:00pm , Thursday 9:00am - 9:00pm , Friday 9:00am - 9:00pm , Saturday 9:00am - 9:00pm , Sunday 10:00am - 6:00pm ",,,
,155,2900 Deerfield Dr #8,,Janesville,WI,53546,United States,608-757-2010,42.719859,-88.9789,"Monday 9:00am - 9:00pm , Tuesday 9:00am - 9:00pm , Wednesday 9:00am - 9:00pm , Thursday 9:00am - 9:00pm , Friday 9:00am - 9:00pm , Saturday 9:00am - 9:00pm , Sunday 10:00am - 6:00pm ",,,
,115,1200 Crossing Meadows Drive,,Onalaska,WI,54650,United States,608-779-0453,43.869327,-91.215795,"Monday 9:00am - 9:00pm , Tuesday 9:00am - 9:00pm , Wednesday 9:00am - 9:00pm , Thursday 9:00am - 9:00pm , Friday 9:00am - 9:00pm , Saturday 9:00am - 9:00pm , Sunday 10:00am - 6:00pm ",,,
,121,W190 N10768 Commerce Cir,,Germantown,WI,53022,United States,262-250-0600,43.213606,-88.145499,"Monday 9:00am - 9:00pm , Tuesday 9:00am - 9:00pm , Wednesday 9:00am - 9:00pm , Thursday 9:00am - 9:00pm , Friday 9:00am - 9:00pm , Saturday 9:00am - 9:00pm , Sunday 10:00am - 6:00pm ",,,
,126,1560 County Road XX,,Rothschild,WI,54474,United States,715-355-5500,44.860315,-89.636081,"Monday 9:00am - 9:00pm , Tuesday 9:00am - 9:00pm , Wednesday 9:00am - 9:00pm , Thursday 9:00am - 9:00pm , Friday 9:00am - 9:00pm , Saturday 9:00am - 9:00pm , Sunday 10:00am - 6:00pm ",,,
,135,2323 Woodman Drive,,Green Bay,WI,54303,United States,920-491-9110,44.544281,-88.074551,"Monday 9:00am - 9:00pm , Tuesday 9:00am - 9:00pm , Wednesday 9:00am - 9:00pm , Thursday 9:00am - 9:00pm , Friday 9:00am - 9:00pm , Saturday 9:00am - 9:00pm , Sunday 10:00am - 6:00pm ",,,
,111,6802 118th Ave,,Kenosha,WI,53140,United States,262-857-3757,42.574013,-87.951608,"Monday 9:00am - 9:00pm , Tuesday 9:00am - 9:00pm , Wednesday 9:00am - 9:00pm , Thursday 9:00am - 9:00pm , Friday 9:00am - 9:00pm , Saturday 9:00am - 9:00pm , Sunday 10:00am - 6:00pm ",,,
,122,6939 South 27th Street,,Franklin,WI,53132,United States,414-761-1500,42.919349,-87.952852,"Monday 9:00am - 9:00pm , Tuesday 9:00am - 9:00pm , Wednesday 9:00am - 9:00pm , Thursday 9:00am - 9:00pm , Friday 9:00am - 9:00pm , Saturday 9:00am - 9:00pm , Sunday 10:00am - 6:00pm ",,,
,114,6440 Scully Dr,,Eau Claire,WI,54701,United States,715-834-4594,44.765721,-91.414562,"Monday 9:00am - 9:00pm , Tuesday 9:00am - 9:00pm , Wednesday 9:00am - 9:00pm , Thursday 9:00am - 9:00pm , Friday 9:00am - 9:00pm , Saturday 9:00am - 9:00pm , Sunday 10:00am - 6:00pm ",,,
,113,6199 Metro Dr,,Deforest,WI,53532,United States,608-242-9532,43.186169,-89.330444,"Monday 9:00am - 9:00pm , Tuesday 9:00am - 9:00pm , Wednesday 9:00am - 9:00pm , Thursday 9:00am - 9:00pm , Friday 9:00am - 9:00pm , Saturday 9:00am - 9:00pm , Sunday 10:00am - 6:00pm ",,,
,345,14011 Worth Ave,,Woodbridge,VA,22192,United States,571-409-5365,38.647809,-77.293255,"Monday 9:00am - 9:00pm , Tuesday 9:00am - 9:00pm , Wednesday 9:00am - 9:00pm , Thursday 9:00am - 9:00pm , Friday 9:00am - 9:00pm , Saturday 9:00am - 9:00pm , Sunday 10:00am - 6:00pm ",,,
,130,535 North Westhill Blvd,,Appleton,WI,54914,United States,920-731-9400,44.266409,-88.46547,"Monday 9:00am - 9:00pm , Tuesday 9:00am - 9:00pm , Wednesday 9:00am - 9:00pm , Thursday 9:00am - 9:00pm , Friday 9:00am - 9:00pm , Saturday 9:00am - 9:00pm , Sunday 10:00am - 6:00pm ",,,
,343,8195 Gander Way,,Roanoke,VA,24019,United States,540-362-3658,37.359481,-79.961082,"Monday 9:00am - 9:00pm , Tuesday 9:00am - 9:00pm , Wednesday 9:00am - 9:00pm , Thursday 9:00am - 9:00pm , Friday 9:00am - 9:00pm , Saturday 9:00am - 9:00pm , Sunday 10:00am - 6:00pm ",,,
,240,2600 Mountaineer Blvd,,Charleston,WV,25309,United States,304-746-6130,38.320823,-81.713072,"Monday 9:00am - 9:00pm , Tuesday 9:00am - 9:00pm , Wednesday 9:00am - 9:00pm , Thursday 9:00am - 9:00pm , Friday 9:00am - 9:00pm , Saturday 9:00am - 9:00pm , Sunday 10:00am - 6:00pm ",,,
,342,251 Commonwealth Ct,,Winchester,VA,22602,United States,540-868-9312,39.124196,-78.190349,"Monday 9:00am - 9:00pm , Tuesday 9:00am - 9:00pm , Wednesday 9:00am - 9:00pm , Thursday 9:00am - 9:00pm , Friday 9:00am - 9:00pm , Saturday 9:00am - 9:00pm , Sunday 10:00am - 6:00pm ",,,
,340,3708 Plank Road,,Fredericksburg,VA,22407,United States,540-548-1330,38.291153,-77.523507,"Monday 9:00am - 9:00pm , Tuesday 9:00am - 9:00pm , Wednesday 9:00am - 9:00pm , Thursday 9:00am - 9:00pm , Friday 9:00am - 9:00pm , Saturday 9:00am - 9:00pm , Sunday 10:00am - 6:00pm ",,,
,344,440 Gander Drive,,Charlottesville,VA,22901,United States,434-326-0007,38.08946,-78.4686,"Monday 9:00am - 9:00pm , Tuesday 9:00am - 9:00pm , Wednesday 9:00am - 9:00pm , Thursday 9:00am - 9:00pm , Friday 9:00am - 9:00pm , Saturday 9:00am - 9:00pm , Sunday 10:00am - 6:00pm ",,,
,404,19890 SW Freeway,,Sugar Land,TX,77479,United States,281-239-6720,29.565105,-95.68415,"Monday 9:00am - 9:00pm , Tuesday 9:00am - 9:00pm , Wednesday 9:00am - 9:00pm , Thursday 9:00am - 9:00pm , Friday 9:00am - 9:00pm , Saturday 9:00am - 9:00pm , Sunday 10:00am - 6:00pm ",,,
,410,151 Market Square Blvd,,Tyler,TX,75703,United States,903-594-4088,32.2465555,-95.3054674,"Monday 9:00am - 9:00pm , Tuesday 9:00am - 9:00pm , Wednesday 9:00am - 9:00pm , Thursday 9:00am - 9:00pm , Friday 9:00am - 9:00pm , Saturday 9:00am - 9:00pm , Sunday 10:00am - 6:00pm ",,,
,403,19302 Interstate 45,,Spring,TX,77373,United States,281-288-2620,30.047372,-95.428158,"Monday 9:00am - 9:00pm , Tuesday 9:00am - 9:00pm , Wednesday 9:00am - 9:00pm , Thursday 9:00am - 9:00pm , Friday 9:00am - 9:00pm , Saturday 9:00am - 9:00pm , Sunday 10:00am - 6:00pm ",,,
,409,2301 University Avenue,,Texarkana,TX,75503,United States,903-832-3607,33.453508,-94.110032,"Monday 9:00am - 9:00pm , Tuesday 9:00am - 9:00pm , Wednesday 9:00am - 9:00pm , Thursday 9:00am - 9:00pm , Friday 9:00am - 9:00pm , Saturday 9:00am - 9:00pm , Sunday 10:00am - 6:00pm ",,,
,418,2701 S Jack Kultgen Expy,,Waco,TX,76706,United States,254-230-1001,31.526083,-97.135784,"Monday 9:00am - 9:00pm , Tuesday 9:00am - 9:00pm , Wednesday 9:00am - 9:00pm , Thursday 9:00am - 9:00pm , Friday 9:00am - 9:00pm , Saturday 9:00am - 9:00pm , Sunday 10:00am - 6:00pm ",,,
,408,2725 N US Highway 75,,Sherman,TX,75090,United States,903-891-8585,33.666121,-96.608591,"Monday 9:00am - 9:00pm , Tuesday 9:00am - 9:00pm , Wednesday 9:00am - 9:00pm , Thursday 9:00am - 9:00pm , Friday 9:00am - 9:00pm , Saturday 9:00am - 9:00pm , Sunday 10:00am - 6:00pm ",,,
,406,"8203 State Highway 151, Ste 104",,San Antonio,TX,78245,United States,210-202-2822,29.4398,-98.6466,"Monday 9:00am - 9:00pm , Tuesday 9:00am - 9:00pm , Wednesday 9:00am - 9:00pm , Thursday 9:00am - 9:00pm , Friday 9:00am - 9:00pm , Saturday 9:00am - 9:00pm , Sunday 10:00am - 6:00pm ",,,
,413,3203 S Interstate 35 Ste 500,,Round Rock,TX,78664,United States,512-368-2133,30.4761,-97.6695,"Monday 9:00am - 9:00pm , Tuesday 9:00am - 9:00pm , Wednesday 9:00am - 9:00pm , Thursday 9:00am - 9:00pm , Friday 9:00am - 9:00pm , Saturday 9:00am - 9:00pm , Sunday 10:00am - 6:00pm ",,,
,415,3777 Childress Ave,,Mesquite,TX,75150,United States,214-377-2354,32.8156,-96.6275,"Monday 9:00am - 9:00pm , Tuesday 9:00am - 9:00pm , Wednesday 9:00am - 9:00pm , Thursday 9:00am - 9:00pm , Friday 9:00am - 9:00pm , Saturday 9:00am - 9:00pm , Sunday 10:00am - 6:00pm ",,,
,412,4006 W. Loop 289,,Lubbock,TX,79407,United States,806-785-1591,33.5577710,-101.9431490,"Monday 9:00am - 9:00pm , Tuesday 9:00am - 9:00pm , Wednesday 9:00am - 9:00pm , Thursday 9:00am - 9:00pm , Friday 9:00am - 9:00pm , Saturday 9:00am - 9:00pm , Sunday 10:00am - 6:00pm ",,,
,414,723 Hebron Pkwy Unit 24,,Lewisville,TX,75057,United States,469-444-6072,33.0117,-96.9719,"Monday 9:00am - 9:00pm , Tuesday 9:00am - 9:00pm , Wednesday 9:00am - 9:00pm , Thursday 9:00am - 9:00pm , Friday 9:00am - 9:00pm , Saturday 9:00am - 9:00pm , Sunday 10:00am - 6:00pm ",,,
,396,"2302 NE Bob Bullock Loop, Ste 101",,Laredo,TX,78045,United States,956-242-4818,27.612572,-99.473924,"Monday 9:00am - 9:00pm , Tuesday 9:00am - 9:00pm , Wednesday 9:00am - 9:00pm , Thursday 9:00am - 9:00pm , Friday 9:00am - 9:00pm , Saturday 9:00am - 9:00pm , Sunday 10:00am - 6:00pm ",,,
,419,701 E Central Texas Expy,,Killeen,TX,76541,United States,254-781-3707,31.096688,-97.733953,"Monday 9:00am - 9:00pm , Tuesday 9:00am - 9:00pm , Wednesday 9:00am - 9:00pm , Thursday 9:00am - 9:00pm , Friday 9:00am - 9:00pm , Saturday 9:00am - 9:00pm , Sunday 10:00am - 6:00pm ",,,
,402,19820 Hempstead Hwy,,Houston,TX,77065,United States,832-237-7900,29.912677,-95.615408,"Monday 9:00am - 9:00pm , Tuesday 9:00am - 9:00pm , Wednesday 9:00am - 9:00pm , Thursday 9:00am - 9:00pm , Friday 9:00am - 9:00pm , Saturday 9:00am - 9:00pm , Sunday 10:00am - 6:00pm ",,,
,399,13441 Westheimer Rd,,Houston,TX,77082,United States,281-617-4982,29.734440,-95.626899,"Monday 9:00am - 9:00pm , Tuesday 9:00am - 9:00pm , Wednesday 9:00am - 9:00pm , Thursday 9:00am - 9:00pm , Friday 9:00am - 9:00pm , Saturday 9:00am - 9:00pm , Sunday 10:00am - 6:00pm ",,,
,397,12277 Dallas Pkwy,,Frisco,TX,75034,United States,214-305-2992,33.178910,-96.842973,"Monday 9:00am - 9:00pm , Tuesday 9:00am - 9:00pm , Wednesday 9:00am - 9:00pm , Thursday 9:00am - 9:00pm , Friday 9:00am - 9:00pm , Saturday 9:00am - 9:00pm , Sunday 10:00am - 6:00pm ",,,
,416,6001 Quebec St,,Fort Worth,TX,76135,United States,817-231-6848,32.804913,-97.428008,"Monday 9:00am - 9:00pm , Tuesday 9:00am - 9:00pm , Wednesday 9:00am - 9:00pm , Thursday 9:00am - 9:00pm , Friday 9:00am - 9:00pm , Saturday 9:00am - 9:00pm , Sunday 10:00am - 6:00pm ",,,
,398,2036 N Zaragoza Rd,,El Paso,TX,79938,United States,915-249-4686,31.764550,-106.263832,"Monday 9:00am - 9:00pm , Tuesday 9:00am - 9:00pm , Wednesday 9:00am - 9:00pm , Thursday 9:00am - 9:00pm , Friday 9:00am - 9:00pm , Saturday 9:00am - 9:00pm , Sunday 10:00am - 6:00pm ",,,
,407,5855 Eastex Freeway,,Beaumont,TX,77706,United States,409-347-3055,30.123795,-94.154881,"Monday 9:00am - 9:00pm , Tuesday 9:00am - 9:00pm , Wednesday 9:00am - 9:00pm , Thursday 9:00am - 9:00pm , Friday 9:00am - 9:00pm , Saturday 9:00am - 9:00pm , Sunday 10:00am - 6:00pm ",,,
,411,2301 Earl Rudder Fwy S,,College Station,TX,77845,United States,979-693-6412,30.624307,-96.296275,"Monday 9:00am - 9:00pm , Tuesday 9:00am - 9:00pm , Wednesday 9:00am - 9:00pm , Thursday 9:00am - 9:00pm , Friday 9:00am - 9:00pm , Saturday 9:00am - 9:00pm , Sunday 10:00am - 6:00pm ",,,
,417,459 E Interstate 20,,Arlington,TX,76018,United States,682-323-0090,32.680313,-97.102409,"Monday 9:00am - 9:00pm , Tuesday 9:00am - 9:00pm , Wednesday 9:00am - 9:00pm , Thursday 9:00am - 9:00pm , Friday 9:00am - 9:00pm , Saturday 9:00am - 9:00pm , Sunday 10:00am - 6:00pm ",,,
,401,10300 West Interstate 40,,Amarillo,TX,79124,United States,806-354-9095,35.1885950,-101.9575459,"Monday 9:00am - 9:00pm , Tuesday 9:00am - 9:00pm , Wednesday 9:00am - 9:00pm , Thursday 9:00am - 9:00pm , Friday 9:00am - 9:00pm , Saturday 9:00am - 9:00pm , Sunday 10:00am - 6:00pm ",,,
,323,66 Belinda Pkwy,,Mount Juliet,TN,37122,United States,615-773-0550,36.171106,-86.505799,"Monday 9:00am - 9:00pm , Tuesday 9:00am - 9:00pm , Wednesday 9:00am - 9:00pm , Thursday 9:00am - 9:00pm , Friday 9:00am - 9:00pm , Saturday 9:00am - 9:00pm , Sunday 10:00am - 6:00pm ",,,
,322,5756 Highway 153 Suite F,,Hixson,TN,37343,United States,423-800-7529,35.155732,-85.246185,"Monday 9:00am - 9:00pm , Tuesday 9:00am - 9:00pm , Wednesday 9:00am - 9:00pm , Thursday 9:00am - 9:00pm , Friday 9:00am - 9:00pm , Saturday 9:00am - 9:00pm , Sunday 10:00am - 6:00pm ",,,
,321,1523 Vann Drive,,Jackson,TN,38305,United States,731-660-8059,35.660814,-88.870185,"Monday 9:00am - 9:00pm , Tuesday 9:00am - 9:00pm , Wednesday 9:00am - 9:00pm , Thursday 9:00am - 9:00pm , Friday 9:00am - 9:00pm , Saturday 9:00am - 9:00pm , Sunday 10:00am - 6:00pm ",,,
,329,7800 Rivers Ave Ste 1500,,North Charleston,SC,29406,United States,843-277-8586,32.947612,-80.038059,"Monday 9:00am - 9:00pm , Tuesday 9:00am - 9:00pm , Wednesday 9:00am - 9:00pm , Thursday 9:00am - 9:00pm , Friday 9:00am - 9:00pm , Saturday 9:00am - 9:00pm , Sunday 10:00am - 6:00pm ",,,
,330,1049 Glenforest Rd,,Myrtle Beach,SC,29579,United States,843-236-6250,33.753251,-78.962131,"Monday 9:00am - 9:00pm , Tuesday 9:00am - 9:00pm , Wednesday 9:00am - 9:00pm , Thursday 9:00am - 9:00pm , Friday 9:00am - 9:00pm , Saturday 9:00am - 9:00pm , Sunday 10:00am - 6:00pm ",,,
,215,725 Town Center Dr,,York,PA,17408,United States,717-767-2002,39.972208,-76.774853,"Monday 9:00am - 9:00pm , Tuesday 9:00am - 9:00pm , Wednesday 9:00am - 9:00pm , Thursday 9:00am - 9:00pm , Friday 9:00am - 9:00pm , Saturday 9:00am - 9:00pm , Sunday 10:00am - 6:00pm ",,,
,203,1500 W. Chestnut Street,,Washington,PA,15301,United States,724-229-9800,40.159491,-80.277642,"Monday 9:00am - 9:00pm , Tuesday 9:00am - 9:00pm , Wednesday 9:00am - 9:00pm , Thursday 9:00am - 9:00pm , Friday 9:00am - 9:00pm , Saturday 9:00am - 9:00pm , Sunday 10:00am - 6:00pm ",,,
,211,100 Easton Rd,,Warrington,PA,18976,United States,267-482-9102,40.213862,-75.140577,"Monday 9:00am - 9:00pm , Tuesday 9:00am - 9:00pm , Wednesday 9:00am - 9:00pm , Thursday 9:00am - 9:00pm , Friday 9:00am - 9:00pm , Saturday 9:00am - 9:00pm , Sunday 10:00am - 6:00pm ",,,
,201,"4680 Old William Penn Hwy, Ste 100",,Monroeville,PA,15146,United States,412-843-0033,40.439131,-79.743360,"Monday 9:00am - 9:00pm , Tuesday 9:00am - 9:00pm , Wednesday 9:00am - 9:00pm , Thursday 9:00am - 9:00pm , Friday 9:00am - 9:00pm , Saturday 9:00am - 9:00pm , Sunday 10:00am - 6:00pm ",,,
,208,600 Galleria Drive,,Johnstown,PA,15904,United States,814-266-1777,40.299312,-78.831727,"Monday 9:00am - 9:00pm , Tuesday 9:00am - 9:00pm , Wednesday 9:00am - 9:00pm , Thursday 9:00am - 9:00pm , Friday 9:00am - 9:00pm , Saturday 9:00am - 9:00pm , Sunday 10:00am - 6:00pm ",,,
,216,66 Mall Pkwy,,Muncy,PA,17756,United States,570-546-1040,41.23768,-76.828623,"Monday 9:00am - 9:00pm , Tuesday 9:00am - 9:00pm , Wednesday 9:00am - 9:00pm , Thursday 9:00am - 9:00pm , Friday 9:00am - 9:00pm , Saturday 9:00am - 9:00pm , Sunday 10:00am - 6:00pm ",,,
,200,2088 Interchange Rd,,Erie,PA,16565,United States,814-868-0880,42.068506,-80.103571,"Monday 9:00am - 9:00pm , Tuesday 9:00am - 9:00pm , Wednesday 9:00am - 9:00pm , Thursday 9:00am - 9:00pm , Friday 9:00am - 9:00pm , Saturday 9:00am - 9:00pm , Sunday 10:00am - 6:00pm ",,,
,202,1040 Towne Square Drive,,Greensburg,PA,15601,United States,724-834-2400,40.29184,-79.526492,"Monday 9:00am - 9:00pm , Tuesday 9:00am - 9:00pm , Wednesday 9:00am - 9:00pm , Thursday 9:00am - 9:00pm , Friday 9:00am - 9:00pm , Saturday 9:00am - 9:00pm , Sunday 10:00am - 6:00pm ",,,
,210,955 Viewmont Drive,,Dickson City,PA,18519,United States,570-347-9077,41.45526,-75.65025,"Monday 9:00am - 9:00pm , Tuesday 9:00am - 9:00pm , Wednesday 9:00am - 9:00pm , Thursday 9:00am - 9:00pm , Friday 9:00am - 9:00pm , Saturday 9:00am - 9:00pm , Sunday 10:00am - 6:00pm ",,,
,220,3285 Black Gap Road,,Chambersburg,PA,17202,United States,717-263-8433,39.96079,-77.577898,"Monday 9:00am - 9:00pm , Tuesday 9:00am - 9:00pm , Wednesday 9:00am - 9:00pm , Thursday 9:00am - 9:00pm , Friday 9:00am - 9:00pm , Saturday 9:00am - 9:00pm , Sunday 10:00am - 6:00pm ",,,
,320,11501 Parkside Drive,,Knoxville,TN,37934,United States,865-671-2790,35.89948,-84.168127,"Monday 9:00am - 9:00pm , Tuesday 9:00am - 9:00pm , Wednesday 9:00am - 9:00pm , Thursday 9:00am - 9:00pm , Friday 9:00am - 9:00pm , Saturday 9:00am - 9:00pm , Sunday 10:00am - 6:00pm ",,,
,305,2695 Creekside Drive,,Twinsburg,OH,44087,United States,330-405-2999,41.30724,-81.436702,"Monday 9:00am - 9:00pm , Tuesday 9:00am - 9:00pm , Wednesday 9:00am - 9:00pm , Thursday 9:00am - 9:00pm , Friday 9:00am - 9:00pm , Saturday 9:00am - 9:00pm , Sunday 10:00am - 6:00pm ",,,
,196,2390 Niles Cortland Rd SE,,Warren,OH,44484,United States,330-544-5800,41.211109,-80.741645,"Monday 9:00am - 9:00pm , Tuesday 9:00am - 9:00pm , Wednesday 9:00am - 9:00pm , Thursday 9:00am - 9:00pm , Friday 9:00am - 9:00pm , Saturday 9:00am - 9:00pm , Sunday 10:00am - 6:00pm ",,,
,372,8310 S Olympia Ave W,,Tulsa,OK,74132,United States,918-894-5700,36.043293,-96.005733,"Monday 9:00am - 9:00pm , Tuesday 9:00am - 9:00pm , Wednesday 9:00am - 9:00pm , Thursday 9:00am - 9:00pm , Friday 9:00am - 9:00pm , Saturday 9:00am - 9:00pm , Sunday 10:00am - 6:00pm ",,,
,195,4938 Portage St NW,,North Canton,OH,44720,United States,330-498-0995,40.878069,-81.440439,"Monday 9:00am - 9:00pm , Tuesday 9:00am - 9:00pm , Wednesday 9:00am - 9:00pm , Thursday 9:00am - 9:00pm , Friday 9:00am - 9:00pm , Saturday 9:00am - 9:00pm , Sunday 10:00am - 6:00pm ",,,
,194,2644 Taylor Road SW,,Reynoldsburg,OH,43068,United States,614-856-0066,39.936695,-82.781378,"Monday 9:00am - 9:00pm , Tuesday 9:00am - 9:00pm , Wednesday 9:00am - 9:00pm , Thursday 9:00am - 9:00pm , Friday 9:00am - 9:00pm , Saturday 9:00am - 9:00pm , Sunday 10:00am - 6:00pm ",,,
,193,8001 Old Troy Pike,,Huber Heights,OH,45424,United States,937-236-9786,39.8719024,-84.1454582,"Monday 9:00am - 9:00pm , Tuesday 9:00am - 9:00pm , Wednesday 9:00am - 9:00pm , Thursday 9:00am - 9:00pm , Friday 9:00am - 9:00pm , Saturday 9:00am - 9:00pm , Sunday 10:00am - 6:00pm ",,,
,191,1320 Holland-Sylvania Rd,,Holland,OH,43528,United States,419-861-4800,41.616263,-83.686951,"Monday 9:00am - 9:00pm , Tuesday 9:00am - 9:00pm , Wednesday 9:00am - 9:00pm , Thursday 9:00am - 9:00pm , Friday 9:00am - 9:00pm , Saturday 9:00am - 9:00pm , Sunday 10:00am - 6:00pm ",,,
,380,2121 43rd Street SW,,Fargo,ND,58104,United States,701-277-9979,46.846328,-96.85691,"Monday 9:00am - 9:00pm , Tuesday 9:00am - 9:00pm , Wednesday 9:00am - 9:00pm , Thursday 9:00am - 9:00pm , Friday 9:00am - 9:00pm , Saturday 9:00am - 9:00pm , Sunday 12:00pm - 6:00pm ",,,
,192,5388 Westpointe Plaza,,Columbus,OH,43228,United States,614-921-2223,39.984865,-83.148092,"Monday 9:00am - 9:00pm , Tuesday 9:00am - 9:00pm , Wednesday 9:00am - 9:00pm , Thursday 9:00am - 9:00pm , Friday 9:00am - 9:00pm , Saturday 9:00am - 9:00pm , Sunday 10:00am - 6:00pm ",,,
,331,6101 Capital Blvd,,Raleigh,NC,27616,United States,919-322-3214,35.868826,-78.583108,"Monday 9:00am - 9:00pm , Tuesday 9:00am - 9:00pm , Wednesday 9:00am - 9:00pm , Thursday 9:00am - 9:00pm , Friday 9:00am - 9:00pm , Saturday 9:00am - 9:00pm , Sunday 10:00am - 6:00pm ",,,
,339,1950 South Stratford Rd,,Winston Salem,NC,27103,United States,336-231-3261,36.064774,-80.310491,"Monday 9:00am - 9:00pm , Tuesday 9:00am - 9:00pm , Wednesday 9:00am - 9:00pm , Thursday 9:00am - 9:00pm , Friday 9:00am - 9:00pm , Saturday 9:00am - 9:00pm , Sunday 10:00am - 6:00pm ",,,
,425,2100 Village Market Place,,Morrisville,NC,27560,United States,919-238-3935,35.808086,-78.816896,"Monday 9:00am - 9:00pm , Tuesday 9:00am - 9:00pm , Wednesday 9:00am - 9:00pm , Thursday 9:00am - 9:00pm , Friday 9:00am - 9:00pm , Saturday 9:00am - 9:00pm , Sunday 10:00am - 6:00pm ",,,
,337,236 Norman Station Blvd,,Mooresville,NC,28117,United States,704-658-0822,35.585966,-80.856555,"Monday 9:00am - 9:00pm , Tuesday 9:00am - 9:00pm , Wednesday 9:00am - 9:00pm , Thursday 9:00am - 9:00pm , Friday 9:00am - 9:00pm , Saturday 9:00am - 9:00pm , Sunday 10:00am - 6:00pm ",,,
,334,3151 W Highway 74,,Monroe,NC,28110,United States,704-218-3237,35.023084,-80.583083,"Monday 9:00am - 9:00pm , Tuesday 9:00am - 9:00pm , Wednesday 9:00am - 9:00pm , Thursday 9:00am - 9:00pm , Friday 9:00am - 9:00pm , Saturday 9:00am - 9:00pm , Sunday 10:00am - 6:00pm ",,,
,336,2223 Vanstory St,,Greensboro,NC,27403,United States,336-852-4224,36.039153,-79.831279,"Monday 9:00am - 9:00pm , Tuesday 9:00am - 9:00pm , Wednesday 9:00am - 9:00pm , Thursday 9:00am - 9:00pm , Friday 9:00am - 9:00pm , Saturday 9:00am - 9:00pm , Sunday 10:00am - 6:00pm ",,,
,333,3704 E Franklin Blvd,,Gastonia,NC,28056,United States,704-478-6008,35.260817,-81.113927,"Monday 9:00am - 9:00pm , Tuesday 9:00am - 9:00pm , Wednesday 9:00am - 9:00pm , Thursday 9:00am - 9:00pm , Friday 9:00am - 9:00pm , Saturday 9:00am - 9:00pm , Sunday 10:00am - 6:00pm ",,,
,335,1912 Skibo Road,,Fayetteville,NC,28303,United States,910-487-4036,35.070309,-78.968022,"Monday 9:00am - 9:00pm , Tuesday 9:00am - 9:00pm , Wednesday 9:00am - 9:00pm , Thursday 9:00am - 9:00pm , Friday 9:00am - 9:00pm , Saturday 9:00am - 9:00pm , Sunday 10:00am - 6:00pm ",,,
,332,13610 Hoover Creek Blvd,,Charlotte,NC,28273,United States,704-247-4334,35.098002,-80.987458,"Monday 9:00am - 9:00pm , Tuesday 9:00am - 9:00pm , Wednesday 9:00am - 9:00pm , Thursday 9:00am - 9:00pm , Friday 9:00am - 9:00pm , Saturday 9:00am - 9:00pm , Sunday 10:00am - 6:00pm ",,,
,261,21182 Salmon Run Mall Loop West,,Watertown,NY,13601,United States,315-779-1200,43.97935,-75.95069,"Monday 9:00am - 9:00pm , Tuesday 9:00am - 9:00pm , Wednesday 9:00am - 9:00pm , Thursday 9:00am - 9:00pm , Friday 9:00am - 9:00pm , Saturday 9:00am - 9:00pm , Sunday 10:00am - 6:00pm ",,,
,251,880 Young Street,,Tonawanda,NY,14150,United States,716-743-2300,43.001199,-78.857319,"Monday 9:00am - 9:00pm , Tuesday 9:00am - 9:00pm , Wednesday 9:00am - 9:00pm , Thursday 9:00am - 9:00pm , Friday 9:00am - 9:00pm , Saturday 9:00am - 9:00pm , Sunday 10:00am - 6:00pm ",,,
,304,9620 Diamond Centre Dr,,Mentor,OH,44060,United States,440-639-8545,41.714192,-81.292467,"Monday 9:00am - 9:00pm , Tuesday 9:00am - 9:00pm , Wednesday 9:00am - 9:00pm , Thursday 9:00am - 9:00pm , Friday 9:00am - 9:00pm , Saturday 9:00am - 9:00pm , Sunday 10:00am - 6:00pm ",,,
,257,8635 Clinton Street,,New Hartford,NY,13413,United States,315-768-8800,43.092397,-75.317257,"Monday 9:00am - 9:00pm , Tuesday 9:00am - 9:00pm , Wednesday 9:00am - 9:00pm , Thursday 9:00am - 9:00pm , Friday 9:00am - 9:00pm , Saturday 9:00am - 9:00pm , Sunday 10:00am - 6:00pm ",,,
,254,300 Jay Scutti Blvd,,Rochester,NY,14623,United States,585-424-4100,43.090924,-77.629205,"Monday 9:00am - 9:00pm , Tuesday 9:00am - 9:00pm , Wednesday 9:00am - 9:00pm , Thursday 9:00am - 9:00pm , Friday 9:00am - 9:00pm , Saturday 9:00am - 9:00pm , Sunday 10:00am - 6:00pm ",,,
,256,705 Frank Sottile Blvd,,Kingston,NY,12401,United States,845-382-2500,41.972747,-73.984972,"Monday 9:00am - 9:00pm , Tuesday 9:00am - 9:00pm , Wednesday 9:00am - 9:00pm , Thursday 9:00am - 9:00pm , Friday 9:00am - 9:00pm , Saturday 9:00am - 9:00pm , Sunday 10:00am - 6:00pm ",,,
,253,5864 Carmenica Drive,,Cicero,NY,13039,United States,315-698-1100,43.1805540,-76.1150840,"Monday 9:00am - 9:00pm , Tuesday 9:00am - 9:00pm , Wednesday 9:00am - 9:00pm , Thursday 9:00am - 9:00pm , Friday 9:00am - 9:00pm , Saturday 9:00am - 9:00pm , Sunday 10:00am - 6:00pm ",,,
,259,528 Harry L Dr,,Johnson City,NY,13790,United States,607-240-4031,42.122606,-75.968228,"Monday 9:00am - 9:00pm , Tuesday 9:00am - 9:00pm , Wednesday 9:00am - 9:00pm , Thursday 9:00am - 9:00pm , Friday 9:00am - 9:00pm , Saturday 9:00am - 9:00pm , Sunday 10:00am - 6:00pm ",,,
,290,751 Gravois Bluffs Blvd,,Fenton,MO,63026,United States,636-203-4360,38.507651,-90.449669,"Monday 9:00am - 9:00pm , Tuesday 9:00am - 9:00pm , Wednesday 9:00am - 9:00pm , Thursday 9:00am - 9:00pm , Friday 9:00am - 9:00pm , Saturday 9:00am - 9:00pm , Sunday 10:00am - 6:00pm ",,,
,291,18491 Outlet Blvd,,Chesterfield,MO,63005,United States,636-237-8062,38.675216,-90.659198,"Monday 9:00am - 9:00pm , Tuesday 9:00am - 9:00pm , Wednesday 9:00am - 9:00pm , Thursday 9:00am - 9:00pm , Friday 9:00am - 9:00pm , Saturday 9:00am - 9:00pm , Sunday 10:00am - 6:00pm ",,,
,315,4501 Hardy Street Suite 100,,Hattiesburg,MS,39402,United States,601-268-6845,31.327567,-89.357728,"Monday 9:00am - 9:00pm , Tuesday 9:00am - 9:00pm , Wednesday 9:00am - 9:00pm , Thursday 9:00am - 9:00pm , Friday 9:00am - 9:00pm , Saturday 9:00am - 9:00pm , Sunday 10:00am - 6:00pm ",,,
,176,5348 S Westnedge Avenue,,Portage,MI,49024,United States,269-388-9770,42.239266,-85.590948,"Monday 9:00am - 9:00pm , Tuesday 9:00am - 9:00pm , Wednesday 9:00am - 9:00pm , Thursday 9:00am - 9:00pm , Friday 9:00am - 9:00pm , Saturday 9:00am - 9:00pm , Sunday 10:00am - 6:00pm ",,,
,169,3465 US Highway 41 W,,Marquette,MI,49855,United States,906-226-8300,46.548454,-87.466258,"Monday 9:00am - 9:00pm , Tuesday 9:00am - 9:00pm , Wednesday 9:00am - 9:00pm , Thursday 9:00am - 9:00pm , Friday 9:00am - 9:00pm , Saturday 9:00am - 9:00pm , Sunday 10:00am - 6:00pm ",,,
,163,8757 Delta Market Dr,,Lansing,MI,48917,United States,517-622-4662,42.7386229,-84.6826979,"Monday 9:00am - 9:00pm , Tuesday 9:00am - 9:00pm , Wednesday 9:00am - 9:00pm , Thursday 9:00am - 9:00pm , Friday 9:00am - 9:00pm , Saturday 9:00am - 9:00pm , Sunday 10:00am - 6:00pm ",,,
,255,60 Smithfield Blvd,,Plattsburgh,NY,12901,United States,518-566-6100,44.701554,-73.489331,"Monday 9:00am - 9:00pm , Tuesday 9:00am - 9:00pm , Wednesday 9:00am - 9:00pm , Thursday 9:00am - 9:00pm , Friday 9:00am - 9:00pm , Saturday 9:00am - 9:00pm , Sunday 10:00am - 6:00pm ",,,
,172,2890 Acquest Ave SE,,Kentwood,MI,49512,United States,616-975-1000,42.909755,-85.558639,"Monday 9:00am - 9:00pm , Tuesday 9:00am - 9:00pm , Wednesday 9:00am - 9:00pm , Thursday 9:00am - 9:00pm , Friday 9:00am - 9:00pm , Saturday 9:00am - 9:00pm , Sunday 10:00am - 6:00pm ",,,
,250,100 N Galleria Drive,,Middletown,NY,10941,United States,845-692-5600,41.461661,-74.372767,"Monday 9:00am - 9:00pm , Tuesday 9:00am - 9:00pm , Wednesday 9:00am - 9:00pm , Thursday 9:00am - 9:00pm , Friday 9:00am - 9:00pm , Saturday 9:00am - 9:00pm , Sunday 10:00am - 6:00pm ",,,
,179,4055 24th Avenue,,Fort Gratiot,MI,48059,United States,810-385-6700,43.027184,-82.457452,"Monday 9:00am - 9:00pm , Tuesday 9:00am - 9:00pm , Wednesday 9:00am - 9:00pm , Thursday 9:00am - 9:00pm , Friday 9:00am - 9:00pm , Saturday 9:00am - 9:00pm , Sunday 10:00am - 6:00pm ",,,
,168,4655 Canal Ave SW,,Grandville,MI,49418,United States,616-249-0400,42.880476,-85.77625,"Monday 9:00am - 9:00pm , Tuesday 9:00am - 9:00pm , Wednesday 9:00am - 9:00pm , Thursday 9:00am - 9:00pm , Friday 9:00am - 9:00pm , Saturday 9:00am - 9:00pm , Sunday 10:00am - 6:00pm ",,,
,164,373 N Willowbrook Rd Ste Y,,Coldwater,MI,49036,United States,517-279-2900,41.939243,-84.967965,"Monday 9:00am - 9:00pm , Tuesday 9:00am - 9:00pm , Wednesday 9:00am - 9:00pm , Thursday 9:00am - 9:00pm , Friday 9:00am - 9:00pm , Saturday 9:00am - 9:00pm , Sunday 10:00am - 6:00pm ",,,
,165,5038 Miller Rd Ste A,,Flint,MI,48507,United States,810-230-1212,42.977343,-83.774202,"Monday 9:00am - 9:00pm , Tuesday 9:00am - 9:00pm , Wednesday 9:00am - 9:00pm , Thursday 9:00am - 9:00pm , Friday 9:00am - 9:00pm , Saturday 9:00am - 9:00pm , Sunday 10:00am - 6:00pm ",,,
,235,2410 N Salisbury Blvd,,Salisbury,MD,21801,United States,410-334-2677,38.40351,-75.570636,"Monday 9:00am - 9:00pm , Tuesday 9:00am - 9:00pm , Wednesday 9:00am - 9:00pm , Thursday 9:00am - 9:00pm , Friday 9:00am - 9:00pm , Saturday 9:00am - 9:00pm , Sunday 10:00am - 6:00pm ",,,
,488,10470 Hudson Road,,Woodbury,MN,55129,United States,651-735-6101,44.947517,-92.893771,"Monday 9:00am - 9:00pm , Tuesday 9:00am - 9:00pm , Wednesday 9:00am - 9:00pm , Thursday 9:00am - 9:00pm , Friday 9:00am - 9:00pm , Saturday 9:00am - 9:00pm , Sunday 10:00am - 6:00pm ",,,
,391,"725 Bluegrass Farms Blvd, Ste 1",,Bowling Green,KY,42104,United States,270-842-0855,36.92381,-86.423061,"Monday 9:00am - 9:00pm , Tuesday 9:00am - 9:00pm , Wednesday 9:00am - 9:00pm , Thursday 9:00am - 9:00pm , Friday 9:00am - 9:00pm , Saturday 9:00am - 9:00pm , Sunday 10:00am - 6:00pm ",,,
,390,3240 James Sanders Blvd,,Paducah,KY,42001,United States,270-538-0444,37.08063,-88.683462,"Monday 9:00am - 9:00pm , Tuesday 9:00am - 9:00pm , Wednesday 9:00am - 9:00pm , Thursday 9:00am - 9:00pm , Friday 9:00am - 9:00pm , Saturday 9:00am - 9:00pm , Sunday 10:00am - 6:00pm ",,,
,370,605 S Wichita Street,,Wichita,KS,67202,United States,316-303-9333,37.6797010,-97.3412690,"Monday 9:00am - 9:00pm , Tuesday 9:00am - 9:00pm , Wednesday 9:00am - 9:00pm , Thursday 9:00am - 9:00pm , Friday 9:00am - 9:00pm , Saturday 9:00am - 9:00pm , Sunday 10:00am - 6:00pm ",,,
,167,43825 West Oaks Drive,,Novi,MI,48377,United States,248-380-4000,42.4908,-83.480929,"Monday 9:00am - 9:00pm , Tuesday 9:00am - 9:00pm , Wednesday 9:00am - 9:00pm , Thursday 9:00am - 9:00pm , Friday 9:00am - 9:00pm , Saturday 9:00am - 9:00pm , Sunday 10:00am - 6:00pm ",,,
,145,3940 Elmore Avenue,,Davenport,IA,52807,United States,563-344-8880,41.560468,-90.528347,"Monday 9:00am - 9:00pm , Tuesday 9:00am - 9:00pm , Wednesday 9:00am - 9:00pm , Thursday 9:00am - 9:00pm , Friday 9:00am - 9:00pm , Saturday 9:00am - 9:00pm , Sunday 10:00am - 6:00pm ",,,
,142,2140 Edgewood Rd SW,,Cedar Rapids,IA,52404,United States,319-654-8700,41.95843,-91.718933,"Monday 9:00am - 9:00pm , Tuesday 9:00am - 9:00pm , Wednesday 9:00am - 9:00pm , Thursday 9:00am - 9:00pm , Friday 9:00am - 9:00pm , Saturday 9:00am - 9:00pm , Sunday 10:00am - 6:00pm ",,,
,270,3602 S US Highway 41,,Terre Haute,IN,47802,United States,812-237-0940,39.423108,-87.413477,"Monday 9:00am - 9:00pm , Tuesday 9:00am - 9:00pm , Wednesday 9:00am - 9:00pm , Thursday 9:00am - 9:00pm , Friday 9:00am - 9:00pm , Saturday 9:00am - 9:00pm , Sunday 10:00am - 6:00pm ",,,
,272,5702 E 86th St,,Indianapolis,IN,46250,United States,317-577-1114,39.913374,-86.070962,"Monday 9:00am - 9:00pm , Tuesday 9:00am - 9:00pm , Wednesday 9:00am - 9:00pm , Thursday 9:00am - 9:00pm , Friday 9:00am - 9:00pm , Saturday 9:00am - 9:00pm , Sunday 10:00am - 6:00pm ",,,
,185,1630 Southlake Mall,,Merrillville,IN,46410,United States,219-793-1700,41.466626,-87.314863,"Monday 9:00am - 9:00pm , Tuesday 9:00am - 9:00pm , Wednesday 9:00am - 9:00pm , Thursday 9:00am - 9:00pm , Friday 9:00am - 9:00pm , Saturday 9:00am - 9:00pm , Sunday 10:00am - 6:00pm ",,,
,427,"100 South Creasy Ln, Ste 1600",,Lafayette,IN,47905,United States,765-237-3089,40.414256,-86.841775,"Monday 9:00am - 9:00pm , Tuesday 9:00am - 9:00pm , Wednesday 9:00am - 9:00pm , Thursday 9:00am - 9:00pm , Friday 9:00am - 9:00pm , Saturday 9:00am - 9:00pm , Sunday 10:00am - 6:00pm ",,,
,273,1049 N Emerson Avenue,,Greenwood,IN,46143,United States,317-865-1734,39.6341589,-86.0782770,"Monday 9:00am - 9:00pm , Tuesday 9:00am - 9:00pm , Wednesday 9:00am - 9:00pm , Thursday 9:00am - 9:00pm , Friday 9:00am - 9:00pm , Saturday 9:00am - 9:00pm , Sunday 10:00am - 6:00pm ",,,
,275,2175 Barrett Dr,,Greenfield,IN,46140,United States,317-586-4436,39.816992,-85.766564,"Monday 9:00am - 9:00pm , Tuesday 9:00am - 9:00pm , Wednesday 9:00am - 9:00pm , Thursday 9:00am - 9:00pm , Friday 9:00am - 9:00pm , Saturday 9:00am - 9:00pm , Sunday 10:00am - 6:00pm ",,,
,187,6043 Lima Road,,Fort Wayne,IN,46818,United States,260-416-0943,41.134392,-85.164794,"Monday 9:00am - 9:00pm , Tuesday 9:00am - 9:00pm , Wednesday 9:00am - 9:00pm , Thursday 9:00am - 9:00pm , Friday 9:00am - 9:00pm , Saturday 9:00am - 9:00pm , Sunday 10:00am - 6:00pm ",,,
,271,5476 E Indiana St,,Evansville,IN,47715,United States,812-473-9117,37.978428,-87.484821,"Monday 9:00am - 9:00pm , Tuesday 9:00am - 9:00pm , Wednesday 9:00am - 9:00pm , Thursday 9:00am - 9:00pm , Friday 9:00am - 9:00pm , Saturday 9:00am - 9:00pm , Sunday 10:00am - 6:00pm ",,,
,274,216 Gable Crossing Dr,,Avon,IN,46123,United States,317-653-5154,39.76620,-86.35014,"Monday 9:00am - 9:00pm , Tuesday 9:00am - 9:00pm , Wednesday 9:00am - 9:00pm , Thursday 9:00am - 9:00pm , Friday 9:00am - 9:00pm , Saturday 9:00am - 9:00pm , Sunday 10:00am - 6:00pm ",,,
,282,2371 Chuckwagon Dr,,Springfield,IL,62711,United States,217-726-8219,39.740871,-89.698545,"Monday 9:00am - 9:00pm , Tuesday 9:00am - 9:00pm , Wednesday 9:00am - 9:00pm , Thursday 9:00am - 9:00pm , Friday 9:00am - 9:00pm , Saturday 9:00am - 9:00pm , Sunday 10:00am - 6:00pm ",,,
,281,5114 West Holiday Drive,,Peoria,IL,61615,United States,309-692-4110,40.774253,-89.673718,"Monday 9:00am - 9:00pm , Tuesday 9:00am - 9:00pm , Wednesday 9:00am - 9:00pm , Thursday 9:00am - 9:00pm , Friday 9:00am - 9:00pm , Saturday 9:00am - 9:00pm , Sunday 10:00am - 6:00pm ",,,
,280,3068 McFarland Road,,Rockford,IL,61114,United States,815-637-9600,42.305646,-88.978416,"Monday 9:00am - 9:00pm , Tuesday 9:00am - 9:00pm , Wednesday 9:00am - 9:00pm , Thursday 9:00am - 9:00pm , Friday 9:00am - 9:00pm , Saturday 9:00am - 9:00pm , Sunday 10:00am - 6:00pm ",,,
,286,2480 Blue Heron Dr,,Marion,IL,62959,United States,618-964-9546,37.748865,-88.958263,"Monday 9:00am - 9:00pm , Tuesday 9:00am - 9:00pm , Wednesday 9:00am - 9:00pm , Thursday 9:00am - 9:00pm , Friday 9:00am - 9:00pm , Saturday 9:00am - 9:00pm , Sunday 10:00am - 6:00pm ",,,
,288,1230 Central Park Dr,,O Fallon,IL,62269,United States,618-589-0078,38.578475,-89.934500,"Monday 9:00am - 9:00pm , Tuesday 9:00am - 9:00pm , Wednesday 9:00am - 9:00pm , Thursday 9:00am - 9:00pm , Friday 9:00am - 9:00pm , Saturday 9:00am - 9:00pm , Sunday 10:00am - 6:00pm ",,,
,287,3301 Essington Rd,,Joliet,IL,60435,United States,815-254-2264,41.586611,-88.163693,"Monday 9:00am - 9:00pm , Tuesday 9:00am - 9:00pm , Wednesday 9:00am - 9:00pm , Thursday 9:00am - 9:00pm , Friday 9:00am - 9:00pm , Saturday 9:00am - 9:00pm , Sunday 10:00am - 6:00pm ",,,
,284,2100 S Randall Rd,,Geneva,IL,60134,United States,630-845-0505,41.8656549,-88.3424090,"Monday 9:00am - 9:00pm , Tuesday 9:00am - 9:00pm , Wednesday 9:00am - 9:00pm , Thursday 9:00am - 9:00pm , Friday 9:00am - 9:00pm , Saturday 9:00am - 9:00pm , Sunday 10:00am - 6:00pm ",,,
,283,2006 N Prospect Ave,,Champaign,IL,61822,United States,217-689-1547,40.140269,-88.254956,"Monday 9:00am - 9:00pm , Tuesday 9:00am - 9:00pm , Wednesday 9:00am - 9:00pm , Thursday 9:00am - 9:00pm , Friday 9:00am - 9:00pm , Saturday 9:00am - 9:00pm , Sunday 10:00am - 6:00pm ",,,
,285,1400 S Randall Rd,,Algonquin,IL,60102,United States,847-915-3984,42.157081,-88.339704,"Monday 9:00am - 9:00pm , Tuesday 9:00am - 9:00pm , Wednesday 9:00am - 9:00pm , Thursday 9:00am - 9:00pm , Friday 9:00am - 9:00pm , Saturday 9:00am - 9:00pm , Sunday 10:00am - 6:00pm ",,,
,426,278 Norman Drive,,Valdosta,GA,31601,United States,229-415-7023,30.824166,-83.318631,"Monday 9:00am - 9:00pm , Tuesday 9:00am - 9:00pm , Wednesday 9:00am - 9:00pm , Thursday 9:00am - 9:00pm , Friday 9:00am - 9:00pm , Saturday 9:00am - 9:00pm , Sunday 10:00am - 6:00pm ",,,
,309,361 Newnan Crossing Byp,,Newnan,GA,30265,United States,678-854-8033,33.386646,-84.760226,"Monday 9:00am - 9:00pm , Tuesday 9:00am - 9:00pm , Wednesday 9:00am - 9:00pm , Thursday 9:00am - 9:00pm , Friday 9:00am - 9:00pm , Saturday 9:00am - 9:00pm , Sunday 10:00am - 6:00pm ",,,
,308,1970 Jonesboro Rd,,McDonough,GA,30253,United States,678-604-8530,33.465963,-84.220263,"Monday 9:00am - 9:00pm , Tuesday 9:00am - 9:00pm , Wednesday 9:00am - 9:00pm , Thursday 9:00am - 9:00pm , Friday 9:00am - 9:00pm , Saturday 9:00am - 9:00pm , Sunday 10:00am - 6:00pm ",,,
,316,145 Mason McKnight Jr Pkwy,,Augusta,GA,30907,United States,706-664-2013,33.491294,-82.105048,"Monday 9:00am - 9:00pm , Tuesday 9:00am - 9:00pm , Wednesday 9:00am - 9:00pm , Thursday 9:00am - 9:00pm , Friday 9:00am - 9:00pm , Saturday 9:00am - 9:00pm , Sunday 10:00am - 6:00pm ",,,
,307,"1200 Scenic Hwy, Ste G",,Lawrenceville,GA,30045,United States,678-317-3097,33.9016386,-84.0025278,"Monday 9:00am - 9:00pm , Tuesday 9:00am - 9:00pm , Wednesday 9:00am - 9:00pm , Thursday 9:00am - 9:00pm , Friday 9:00am - 9:00pm , Saturday 9:00am - 9:00pm , Sunday 10:00am - 6:00pm ",,,
,311,832 N Westover Blvd,,Albany,GA,31707,United States,229-518-4090,31.620039,-84.219914,"Monday 9:00am - 9:00pm , Tuesday 9:00am - 9:00pm , Wednesday 9:00am - 9:00pm , Thursday 9:00am - 9:00pm , Friday 9:00am - 9:00pm , Saturday 9:00am - 9:00pm , Sunday 10:00am - 6:00pm ",,,
,355,11655 W Hillsborough Ave,,Tampa,FL,33635,United States,813-343-6010,28.01691,-82.61405,"Monday 9:00am - 9:00pm , Tuesday 9:00am - 9:00pm , Wednesday 9:00am - 9:00pm , Thursday 9:00am - 9:00pm , Friday 9:00am - 9:00pm , Saturday 9:00am - 9:00pm , Sunday 10:00am - 6:00pm ",,,
,351,550 Prime Outlets Blvd,,Saint Augustine,FL,32084,United States,904-829-1946,29.928515,-81.415406,"Monday 9:00am - 9:00pm , Tuesday 9:00am - 9:00pm , Wednesday 9:00am - 9:00pm , Thursday 9:00am - 9:00pm , Friday 9:00am - 9:00pm , Saturday 9:00am - 9:00pm , Sunday 10:00am - 6:00pm ",,,
,356,1220 Airport Blvd,,Pensacola,FL,32504,United States,850-308-1289,30.481983,-87.216287,"Monday 9:00am - 9:00pm , Tuesday 9:00am - 9:00pm , Wednesday 9:00am - 9:00pm , Thursday 9:00am - 9:00pm , Friday 9:00am - 9:00pm , Saturday 9:00am - 9:00pm , Sunday 10:00am - 6:00pm ",,,
,353,100 Gander Way,,Palm Beach Gardens,FL,33403,United States,561-627-5642,26.803544,-80.097373,"Monday 9:00am - 9:00pm , Tuesday 9:00am - 9:00pm , Wednesday 9:00am - 9:00pm , Thursday 9:00am - 9:00pm , Friday 9:00am - 9:00pm , Saturday 9:00am - 9:00pm , Sunday 10:00am - 6:00pm ",,,
,350,3750 Flagg Ln,,Lake Mary,FL,32746,United States,407-804-0514,28.753684,-81.360398,"Monday 9:00am - 9:00pm , Tuesday 9:00am - 9:00pm , Wednesday 9:00am - 9:00pm , Thursday 9:00am - 9:00pm , Friday 9:00am - 9:00pm , Saturday 9:00am - 9:00pm , Sunday 10:00am - 6:00pm ",,,
,354,3970 SW 3rd Street  #101,,Ocala,FL,34474,United States,352-351-6186,29.183553,-82.187017,"Monday 9:00am - 9:00pm , Tuesday 9:00am - 9:00pm , Wednesday 9:00am - 9:00pm , Thursday 9:00am - 9:00pm , Friday 9:00am - 9:00pm , Saturday 9:00am - 9:00pm , Sunday 10:00am - 6:00pm ",,,
,352,13075 City Square Drive,,Jacksonville,FL,32218,United States,904-714-3557,30.4739390,-81.6415040,"Monday 9:00am - 9:00pm , Tuesday 9:00am - 9:00pm , Wednesday 9:00am - 9:00pm , Thursday 9:00am - 9:00pm , Friday 9:00am - 9:00pm , Saturday 9:00am - 9:00pm , Sunday 10:00am - 6:00pm ",,,
,422,18420 Cottonwood Dr,,Parker,CO,80138,United States,303-317-4961,39.558313,-104.775653,"Monday 9:00am - 9:00pm , Tuesday 9:00am - 9:00pm , Wednesday 9:00am - 9:00pm , Thursday 9:00am - 9:00pm , Friday 9:00am - 9:00pm , Saturday 9:00am - 9:00pm , Sunday 10:00am - 6:00pm ",,,
,470,5450 Landers Rd,,North Little Rock,AR,72117,United States,501-945-4070,34.801986,-92.210927,"Monday 9:00am - 9:00pm , Tuesday 9:00am - 9:00pm , Wednesday 9:00am - 9:00pm , Thursday 9:00am - 9:00pm , Friday 9:00am - 9:00pm , Saturday 9:00am - 9:00pm , Sunday 10:00am - 6:00pm ",,,
,430,1640 Parker Way,,Opelika,AL,36801,United States,334-363-3028,32.62132,-85.399821,"Monday 9:00am - 9:00pm , Tuesday 9:00am - 9:00pm , Wednesday 9:00am - 9:00pm , Thursday 9:00am - 9:00pm , Friday 9:00am - 9:00pm , Saturday 9:00am - 9:00pm , Sunday 10:00am - 6:00pm ",,,
,312,3325 McFarland Blvd E,,Tuscaloosa,AL,35405,United States,205-535-3990,33.178095,-87.523572,"Monday 9:00am - 9:00pm , Tuesday 9:00am - 9:00pm , Wednesday 9:00am - 9:00pm , Thursday 9:00am - 9:00pm , Friday 9:00am - 9:00pm , Saturday 9:00am - 9:00pm , Sunday 10:00am - 6:00pm ",,,
,318,2424 Eastern Blvd,,Montgomery,AL,36117,United States,334-239-4385,32.349802,-86.222587,"Monday 9:00am - 9:00pm , Tuesday 9:00am - 9:00pm , Wednesday 9:00am - 9:00pm , Thursday 9:00am - 9:00pm , Friday 9:00am - 9:00pm , Saturday 9:00am - 9:00pm , Sunday 10:00am - 6:00pm ",,,
,317,7765 Airport Blvd Ste 609,,Mobile,AL,36608,United States,251-581-9153,30.681715,-88.223947,"Monday 9:00am - 9:00pm , Tuesday 9:00am - 9:00pm , Wednesday 9:00am - 9:00pm , Thursday 9:00am - 9:00pm , Friday 9:00am - 9:00pm , Saturday 9:00am - 9:00pm , Sunday 10:00am - 6:00pm ",,,
,314,540 E Meighan Blvd,,Gadsden,AL,35903,United States,256-399-4371,34.01083,-85.98302,"Monday 9:00am - 9:00pm , Tuesday 9:00am - 9:00pm , Wednesday 9:00am - 9:00pm , Thursday 9:00am - 9:00pm , Friday 9:00am - 9:00pm , Saturday 9:00am - 9:00pm , Sunday 10:00am - 6:00pm ",,,
,428,340 Seville Street,,Florence,AL,35630,United States,256-712-3067,34.837468,-87.626891,"Monday 9:00am - 9:00pm , Tuesday 9:00am - 9:00pm , Wednesday 9:00am - 9:00pm , Thursday 9:00am - 9:00pm , Friday 9:00am - 9:00pm , Saturday 9:00am - 9:00pm , Sunday 10:00am - 6:00pm ",,,
,310,3418 Memorial Parkway NW,,Huntsville,AL,35810,United States,256-858-8045,34.769793,-86.585017,"Monday 9:00am - 9:00pm , Tuesday 9:00am - 9:00pm , Wednesday 9:00am - 9:00pm , Thursday 9:00am - 9:00pm , Friday 9:00am - 9:00pm , Saturday 9:00am - 9:00pm , Sunday 10:00am - 6:00pm ",,,
