store_name,store_number,address,address2,city,state,zip_code,country,phone_number,latitude,longitude,store_hours,store_type,other_fields,coming_soon
MSI Building Supplies,,3814 Crown Bay Phone ,,St. Thomas ,VI,00802,United States,1 (340) 776-8800,,,,,,
Kuiken Brothers Company Inc,,246 Kinderkamack Rd Phone ,,Emerson ,NJ,07630,United States,1 (201) 262-6666,,,,,,
Kuiken Brothers Company Inc HQ,,145 Lake Ave Phone ,,Midland Park ,NJ,07432,United States,1 (201) 652-1000,,,,,,
Kuiken Brothers Company Inc,,14 Eisenhower Pkwy Phone ,,Roseland ,NJ,07068,United States,1 (973) 226-5700,,,,,,
Abbe Lumber HQ,,200 Avenel Street Phone ,,Avenel ,NJ,07001,United States,1 (732) 634-2000,,,,,,
Blue Ridge Lumber,,742 Route 46 Phone ,,Kenvil ,NJ,07847,United States,1 (973) 584-6630,,,,,,
Kuiken Brothers Company Inc,,31 Route 10 East Phone ,,Succasunna ,NJ,07876,United States,1 (973) 584-2444,,,,,,
Blue Ridge Lumber,,346 Main St/Rt 517 Phone ,,Ogdensburg ,NJ,07439,United States,1 (973) 823-0124,,,,,,
Kuiken Brothers Company Inc,,175 Route 23 Phone ,,Wantage ,NJ,07461,United States,1 (973) 875-5106,,,,,,
Blue Ridge Lumber,,120 Liberty St Phone ,,Hackettstown ,NJ,07840,United States,1 (908) 852-0100,,,,,,
Coventry Lumber,,2030 Nooseneck Hill Road Phone ,,Coventry ,RI,02816,United States,1 (401) 828-0400,,,,,,
Blue Ridge Lumber HQ,,12 Jacksonburg Rd Phone ,,Blairstown ,NJ,07825,United States,1 (908) 362-8252,,,,,,
Koopman Lumber,,665 Church Street Phone ,,Whitinsville ,MA,01588,United States,1 (508) 377-5199,,,,,,
A. D. Moyer Lumber Company HQ,,300 Armand Hammer Blvd Phone ,,Pottstown ,PA,19464,United States,1 (610) 327-1120,,,,,,
Service Wholesale Incorporated HQ,,4810 Horseshoe Pike Phone ,,Downingtown ,PA,19335,United States,1 (610) 518-5187,,,,,,
EG Barker Lumber,,10 Jefferson Avenue Phone ,,Woburn ,MA,01801,United States,1 (781) 933-0057,,,,,,
Timberline,,15 letchworth ave Phone ,,north billerica ,MA,01862,United States,(978) 663-3546,,,,,,
Belletete,,80 northeastern boulevard Phone ,,nashua ,NH,03062,United States,(800) 695-3907,,,,,,
Curtis Lumber HQ,,885 State Route 67 Phone ,,Ballston Spa ,NY,12020,United States,1 (518) 885-5311,,,,,,
W.E. Shone Lumber Company,,634 Old Christiana-Stanton Rd Phone ,,Stanton ,DE,19804,United States,1 (302) 998-3357,,,,,,
W.E. Shone Lumber Company,,948 Middletown Warwick Road Phone ,,Middletown ,DE,19709,United States,1 (302) 504-3500,,,,,,
Timberline,,23 low street ,,newburyport ,MA,01950,United States,,,,,,,
Lavalley Building Supply,,118 Mulberry Phone ,,Claremont ,NH,03743,United States,1 (603) 543-0123 #40,,,,,,
Belletete,,129 sheep davis rd Phone ,,pembroke ,NH,03275,United States,(603) 224-7483,,,,,,
Belletete-Andover,,24 ten penny lane Phone ,,andover ,NH,03216,United States,(603) 735-2122,,,,,,
Lavalley Building Supply,,South Windcrest Rd (Rt 7) Phone ,,Rutland ,VT,05701,United States,1 (802) 775-0834,,,,,,
W.E. Shone Lumber Company,,310 North Dupont Highway Phone ,,Georgetown ,DE,19947,United States,1 (302) 253-0200,,,,,,
Lavalley Building Supply HQ,,Colonial Plaza Phone ,,West Lebanon ,NH,03784,United States,1 (603) 298-5641,,,,,,
No Maintenance Decks,,1637 Broad Hollow Rd Phone ,,Farmingdale ,NY,11735,United States,1 (631) 249-5772,,,,,,
Marjam Supply Company HQ,,885 Conklin St Phone ,,Farmingdale ,NY,11735,United States,(631) 249-4900,,,,,,
Bridgeport Lumber,,1460 Barnum Ave Phone ,,Bridgeport ,CT,06610,United States,1 (203) 366-4757,,,,,,
Marjam Supply Company,,12585 Sound Ave. East Phone ,,Mattituck ,NY,11958,United States,1 (631) 298-8559,,,,,,
East Haven Building Supply,,193 Silver Sands Rd Phone ,,East Haven ,CT,06512,United States,1 (203) 469-2394,,,,,,
Weed & Duryea Lumber and Home Center,,21 Grove St Phone ,,New Canaan ,CT,06840,United States,1 (203) 966-2673,,,,,,
East Haven Builders Supply,,2 Turnberry Lane Phone ,,Newtown ,CT,06482,United States,1 (203) 426-0030,,,,,,
Mahopac Railroad Tie Corp.,,911 Route 6 Phone ,,Mahopac ,NY,10541,United States,1 (845) 628-8111,,,,,,
Ridge Supply Corporation,,280 Red School House Road Phone ,,Chestnut Ridge ,NY,10977,United States,1 (845) 735-1234,,,,,,
HG Page and Sons,,1387 Route 55 Phone ,,Lagrangeville ,NY,12540,United States,1 (845) 223-7200,,,,,,
HG Page & Sons Inc,,360 Manchester Road Phone ,,Poughkeepsie ,NY,12603,United States,1 (845) 452-7130,,,,,,
Williams Lumber,,2424 Route 44 Phone ,,Pleasant Valley ,NY,12569,United States,1 (845) 605-3520,,,,,,
"Park Union Lumber Company, LLC HQ",,243 South Salem Street Phone ,,Dover ,NJ,07869,United States,1 (973) 366-0345,,,,,,
Kelly Fradet Lumber,,99 West Rd Phone ,,Ellington ,CT,06029,United States,1 (860) 875-6213,,,,,,
Kelly Fradet Lumber,,423 Hazard Ave Phone ,,Enfield ,CT,06083,United States,1 (860) 749-8321,,,,,,
Kelly Fradet Lumber HQ,,92 Prospect St Phone ,,Enfield ,CT,06083,United States,1 (860) 745-3331,,,,,,
Williams Lumber HQ,,6760 Route 9 North Phone ,,Rhinebeck ,NY,12572,United States,1 (845) 876-7011,,,,,,
Williams Lumber,,317 Kyserike Road Phone ,,High Falls ,NY,12440,United States,1 (845) 687-7676,,,,,,
Kelly Fradet Lumber,,557 N Main St Phone ,,East Longmeadow ,MA,01028,United States,1 (413) 733-6681,,,,,,
Cyrus Fox Inc. HQ,,11 West Main Street Phone ,,Clinton ,NJ,08809,United States,1 (908) 735-5178,,,,,,
Atlantic Building Products Inc HQ,,56 Ash Circle Phone ,,Warminster ,PA,18974,United States,1 (215) 672-1400,,,,,,
Sequoia Supply,,925 Easton Rd Phone ,,Warrington ,PA,18976,United States,1 (215) 918-3325,,,,,,
Moyer Lumber And Hardware Inc,,4514 Easton Avenue Phone ,,Bethlehem ,PA,18020,United States,1 (610) 868-2010,,,,,,
Atlantic Building Products Inc,,2560 Milford Square Pike Phone ,,Quakertown ,PA,18951,United States,1 (215) 538-2333,,,,,,
Sequoia Supply HQ,,2420 Bethlehem Pike Phone ,,Hatfield ,PA,19440,United States,1 (215) 675-3434,,,,,,
DB&S Lumber,,100 First Street Phone ,,Bridgewater ,MA,02324,United States,1 (508) 697-1900,,,,,,
Erie Materials,,99 railroad Ave Phone ,,Albany ,NY,12205,United States,1 (518) 454-0080,,,,,,
A. D. Moyer Lumber Company,,1200 E. Philadelphia Ave Phone ,,Gilbertsville ,PA,19525,United States,1 (610) 367-2036,,,,,,
DB&S Lumber,,3870 Washington Street Phone ,,Roslindale ,MA,02131,United States,1 (617) 524-2100,,,,,,
Harvey Building Products,,19 Athletic Field Road Phone ,,Waltham ,MA,02451,United States,1 (781) 899-2280,,,,,,
DB&S Lumber,,11 Gerard St Phone ,,Roxbury ,MA,02119,United States,1 (617) 445-9333,,,,,,
New England Building Supply,,174 Hampden Street Phone ,,Boston ,MA,02119,United States,1 (617) 445-5900,,,,,,
DB&S Lumber,,78 Accord Park Drive Phone ,,Norwell ,MA,02061,United States,1 (781) 878-3345,,,,,,
Timberline Enterprises,,15 Letchworth Ave Phone ,,North Billerica ,MA,01862,United States,(978) 663-3546,,,,,,
Timberline Enterprises,,80 Colon Street Phone ,,Beverly ,MA,01915,United States,1 (978) 922-0921,,,,,,
MRD Lumber Company Inc HQ,,170 Midway Rd Phone ,,Bethel ,PA,19507,United States,1 (717) 933-0530,,,,,,
Mast Road Grain & Building Material,,736 Mast Road Phone ,,Manchester ,NH,03102,United States,1 (603) 669-3158,,,,,,
"Timberline Enterprises, LLC",,4 Pond Road Phone ,,Gloucester ,MA,01930,United States,(978) 283-0195,,,,,,
Lavalley Building Supply,,351 Sunapee Street Phone ,,Newport ,NH,03773,United States,1 (603) 863-1050,,,,,,
LaValley Building,,864 LaFayette Road ,,Hampton ,NH,03842,United States,,,,,,,
LaValley Building Supply,,55 Old Rochester Road ,,Dover ,NH,03820,United States,,,,,,,
West Haven Lumber,,741 Washington Ave. Phone ,,West Haven ,CT,06516,United States,1 (203) 933-1641,,,,,,
Branford Building Supplies,,1145 Main Street Phone ,,Branford ,CT,06405,United States,1 (203) 488-2518,,,,,,
Ridgefield Supply Company,,29 Prospect St. Phone ,,Ridgefield ,CT,06877,United States,1 (203) 438-2626,,,,,,
Lyon & Billard Company,,504 West Main Street Phone ,,Cheshire ,CT,06410,United States,1 (203) 272-5351,,,,,,
Lyon And Billard HQ,,38 Gypsy Lane Phone ,,Meriden ,CT,06451,United States,1 (203) 235-4487,,,,,,
Lyon and Billard Company,,955 Washington St Phone ,,Middletown ,CT,06457,United States,1 (860) 347-3966,,,,,,
Lyon & Billard Company,,1272 Farmington Ave. Phone ,,Berlin ,CT,06037,United States,1 (860) 829-1842,,,,,,
Lyon and Billard,,26 Skinner St Phone ,,East Hampton ,CT,06424,United States,1 (860) 267-2565,,,,,,
Harvey Building Products,,1096 Hartford Turnpike Phone ,,Waterford ,CT,06385,United States,1 (860) 447-2956,,,,,,
Lyon & Billard Company,,1293 Norwich Road Phone ,,Plainfield ,CT,06374,United States,1 (860) 230-0483,,,,,,
ED Herrington Inc.,,11 Farnham Lane Phone ,,Lakeville ,CT,06039,United States,1 (860) 435-2561,,,,,,
ED Herrington Inc.,,11 Dutchess Avenue Phone ,,Millerton ,NY,12546,United States,1 (518) 789-3611,,,,,,
ED Herrington Inc,,22 Berkshire School Road Phone ,,Sheffield ,MA,01257,United States,(413) 229-8777,,,,,,
84 Lumber,,38 Monterey Drive Phone ,,West Springfield ,MA,01089,United States,1 (413) 733-8475,,,,,,
ED Herrington Inc.,,312 White Hill Lane Phone ,,Hillsdale ,NY,12529,United States,1 (518) 325-3131,,,,,,
Williams Lumber,,3679 Route 9 Phone ,,Hudson ,NY,12534,United States,1 (518) 851-3641,,,,,,
ED Herrington Inc,,One Graham Avenue Phone ,,Hudson ,NY,12534,United States,1 (518) 943-3800,,,,,,
ED Herrington Inc.,,6 Depot Square Phone ,,Chatham ,NY,12037,United States,1 (518) 392-9201,,,,,,
Howe Lumber,,225 West Main Street Phone ,,East Brookfield ,MA,01515,United States,1 (508) 867-3232,,,,,,
Koopman Lumber,,12 Douglas Street Phone ,,Uxbridge ,MA,01569,United States,1 (508) 278-5400,,,,,,
Pepin Lumber,,830 Cumberland Hill Rd ,,Woonsocket ,RI,02895,United States,,,,,,,
Koopman Lumber,,82 Worcester Street Phone ,,North Grafton ,MA,01536,United States,1 (508) 839-6526,,,,,,
Curtis Lumber,,1657 Columbia Turnpke Phone ,,Schodack ,NY,12033,United States,1 (518) 477-7503,,,,,,
Leader Home Center,,1123 Benardston Rd Phone ,,Greenfield ,MA,01301,United States,1 (413) 774-6314,,,,,,
Koopman Lumber,,1051 General Edwards Highway Phone ,,Sharon ,MA,02067,United States,(508) 377-5171,,,,,,
Curtis Lumber,,11 Grove Street Phone ,,Delmar ,NY,12054,United States,1 (518) 439-9968,,,,,,
Koopman Lumber,,29 Lake Street Phone ,,Hudson ,MA,01749,United States,1 (978) 562-3431,,,,,,
Dewhurst Lumber,,215 Bedford Street Phone ,,East Bridgewater ,MA,02333,United States,1 (508) 378-2711,,,,,,
Curtis Lumber,,46631 State Hwy 10 Phone ,,Delhi ,NY,13753,United States,1 (607) 746-2386,,,,,,
Moore Lumber and Hardware,,22 West Main Street Phone ,,Ayer ,MA,01432,United States,1 (978) 772-0900,,,,,,
Curtis Lumber,,4915 Route 7 Phone ,,Hoosick Falls ,NY,12090,United States,1 (518) 686-7391,,,,,,
Leader Home Center HQ,,Route 9 Phone ,,Brattleboro ,VT,05301,United States,1 (802) 257-7373,,,,,,
Concord Lumber,,126 Lowell Street Phone ,,Concord ,MA,01742,United States,1 (978) 369-3640,,,,,,
Botello Lumber,,Route 28 Phone ,,Mashpee ,MA,02649,United States,1 (508) 477-3132,,,,,,
Bellevue Builder's Supply,,500 Duanesburg Road Phone ,,Schenectady ,NY,12306,United States,1 (518) 355-7190,,,,,,
Botello Lumber Company,,26 Bowdoin Road Phone ,,Mashpee ,MA,02655,United States,1 (508) 477-3132,,,,,,
Chelmsford Lumber,,201 Boston Post Road Phone ,,Chelmsford ,MA,01824,United States,1 (978) 244-0222,,,,,,
Wilmington Building Supply,,334 Main St ,,,MA,01887,United States,,,,,,,
Curtis Lumber,,3883 State Highway 30 North Phone ,,Amsterdam ,NY,12010,United States,1 (518) 883-9663,,,,,,
Curtis Lumber,,30 Saratoga Street Phone ,,Schuylerville ,NY,12871,United States,1 (518) 695-3242,,,,,,
Moynihan Lumber,,82 River Street Phone ,,Beverly ,MA,01915,United States,1 (978) 927-0032,,,,,,
Curtis Lumber,,6236 Route 5S Phone ,,Fort Plain ,NY,13339,United States,1 (518) 993-5755,,,,,,
Curtis Lumber,,3106 County Highway 18 Phone ,,New Berlin ,NY,13411,United States,1 (607) 847-6101,,,,,,
Moynihan Lumber,,12 Old Road Phone ,,Plaistow ,NH,03865,United States,1 (603) 382-1535,,,,,,
Curtis Lumber,,48 Hale Street Phone ,,Norwich ,NY,13815,United States,1 (607) 337-9322,,,,,,
Curtis Lumber,,460 Big Bay Road Phone ,,Queensbury ,NY,12804,United States,1 (518) 792-8601,,,,,,
Timberline Enterprises HQ,,4 Pond Road Phone ,,Gloucester ,MA,01930,United States,1 (978) 283-0190,,,,,,
Curtis Lumber,,9511 Route 22 Phone ,,Granville ,NY,12832,United States,1 (518) 642-2855,,,,,,
Timberline Enterprises,,20 Low Street Phone ,,Newburyport ,MA,01950,United States,1 (978) 462-0402,,,,,,
Curtis Lumber,,1056 County Rt 23 Phone ,,Sherburne ,NY,13460,United States,1 (607) 674-2533,,,,,,
Curtis Lumber,,961 State Rte 12 Phone ,,Waterville ,NY,13480,United States,1 (315) 841-4111,,,,,,
Curtis Lumber,,185 River Street Phone ,,Warrensburg ,NY,12885,United States,1 (518) 623-3281,,,,,,
Curtis Lumber,,15 Eaton St Phone ,,Hamilton ,NY,13346,United States,1 (315) 824-2233,,,,,,
Jay-K Independent Lumber Corporation,,8448 Seneca Turnpike Phone ,,New Hartford ,,13413,United States,1 (800) 872-9663,,,,,,
Ricci Lumber,,105 Bartlett Street Phone ,,Portsmouth ,NH,03801,United States,1 (603) 436-7480,,,,,,
Erie materials,,9545 River Road Phone ,,Marcy ,NY,13403,United States,1 (315) 732-6646,,,,,,
Florence Building Materials,,643 Long Island Ave. Phone ,,Medford ,NY,11763,United States,1 (631) 758-4800,,,,,,
84 Lumber,,155 Sills Road Phone ,,Patchogue ,NY,11772,United States,1 (631) 654-8433,,,,,,
Probuild,,678 Montawk Highway Phone ,,Bayport ,NY,11705,United States,1 (631) 472-1000,,,,,,
East Islip Lumber Company Inc,,33 Wall Street Phone ,,East Islip ,NY,11730,United States,1 (631) 581-1869,,,,,,
Florence Building Materials,,1647 East Jericho Turnpike Phone ,,Huntington ,NY,11743,United States,1 (631) 870-8985,,,,,,
Burt Lumber,,51 West Hills Rd. Phone ,,Huntington Station ,NY,11746,United States,1 (631) 421-4444,,,,,,
Speonk Lumber Corp.,,207 Montauk Highway Phone ,,Speonk ,NY,11972,United States,1 (631) 325-0303 #13,,,,,,
Marjam Supply Co.,,58 Mill Rd Phone ,,Riverhead ,NY,11901,United States,(631) 354-2000,,,,,,
Bravo Window & Door Supply,,1060 Montauk Hwy Phone ,,Copiague ,NY,11726,United States,(631) 532-6300,,,,,,
Probuild,,1294 Route 110 Phone ,,Farmingdale ,NY,11735,United States,1 (631) 249-2400,,,,,,
Florence Building Materials,,2325 Quoge Riverhead Road Phone ,,East Quogue ,NV,11942,United States,1 (631) 653-6600,,,,,,
Family Lumber,,140 Stewart Avenue Phone ,,Bethpage ,NY,11714,United States,1 (516) 735-5100,,,,,,
Kamco Supply Corp,,301 Robbins Lane Phone ,,Syosset ,NY,11791,United States,1 (516) 935-8660,,,,,,
Beacon Sales Company,,1785 Stratford Ave Phone ,,Stratford ,CT,06614,United States,1 (203) 377-4460,,,,,,
Jim Waters Co.,,25 Grant Street Phone ,,Bridgeport ,CT,06610,United States,1 (203) 384-9281,,,,,,
Harvey Building Products,,260 Martin Luther Dr Phone ,,Norwalk ,CT,06854,United States,1 (203) 831-0977,,,,,,
Rings End,,181 West Ave Phone ,,Darien ,CT,06820,United States,1 (203) 655-2525,,,,,,
ABC Supply Company Inc 456,,146 Hanse Avenue Phone ,,Freeport ,NY,11520,United States,1 (516) 623-5555,,,,,,
Harvey Building Products,,221 Commerce St Phone ,,East Haven ,CT,06512,United States,1 (203) 468-0003,,,,,,
Rings End,,129 Danbury Rd Phone ,,Wilton ,CT,06897,United States,1 (203) 761-1000,,,,,,
Probuild,,1801 Falmouth Avenue Phone ,,New Hyde Park ,NY,11040,United States,1 (516) 561-2700,,,,,,
Centre Millwork,,669 Long Beach Blvd Phone ,,Long Beach ,NY,11561,United States,1 (516) 432-6566,,,,,,
Rings End,,386 Smith Ridge Rd Phone ,,South Salem ,NY,10590,United States,1 (914) 533-2517,,,,,,
Landon Lumber Company Inc,,134 Boston Post Rd. Phone ,,Madison ,CT,06443,United States,1 (203) 245-0600,,,,,,
National Wholesalers,,381 State Street Phone ,,North Haven ,CT,06473,United States,1 (203) 288-6264,,,,,,
Metropolitan Lumber,,108 20 Merrick Blvd Phone ,,Jamaica Queens ,NY,11433,United States,1 (718) 657-0100,,,,,,
Pelham Lumber,,437 Fifth Ave Phone ,,Pelham ,NY,10803,United States,1 (914) 738-0288,,,,,,
Richmond Hill Lumber & Supply Corp.,,115-02 Atlantic Ave Phone ,,Richmond Hill ,NY,11419,United States,(718) 849-7038,,,,,,
Marjam Supply Company,,2925 E Tremont Ave Phone ,,Bronx ,NY,10461,United States,(718) 792-8800,,,,,,
Metropolitan Lumber,,108 56 Roosevelt Ave Phone ,,Corona ,NY,11368,United States,1 (718) 898-2100,,,,,,
Rings End,,9 Taylor Ave Phone ,,Bethel ,CT,06801,United States,1 (203) 797-1212,,,,,,
Harvey Building Products,,47 Old Ridgebury Rd Phone ,,Danbury ,CT,06810,United States,1 (203) 312-1221,,,,,,
Jim Waters Corp,,25 Rose St Phone ,,Danbury ,CT,06810,United States,1 (203) 792-2330,,,,,,
Probuild,,102 North Route 9 West Phone ,,Congers ,NY,10920,United States,1 (845) 268-9245,,,,,,
King Lumber,,Meadow Street Phone ,,Goldens Bridge ,NY,10526,United States,1 (914) 232-5151,,,,,,
H.J Bushka & Sons Lumber and Millwork,,25 Great Hill Rd Phone ,,Naugatuck ,CT,06770,United States,1 (203) 723-1700,,,,,,
Marjam Supply Company,,20 Rewe St. Phone ,,Brooklyn ,NY,11211,United States,1 (718) 388-6465,,,,,,
Millwood Supply,,87 Millwood Road Phone ,,Millwood ,NY,10546,United States,1 (914) 941-2171,,,,,,
Moore Lumber & Hardware,,Center Of Town Phone ,,Bailey ,CO,80421,United States,1 (303) 674-1001,,,,,,
Florence Building Materials,,16 Abrahams Landing Rd. Phone ,,Amagansett ,NY,11930,United States,1 (631) 267-3560,,,,,,
Croton Home Center,,77 Water St. Phone ,,Ossining ,NY,10562,United States,1 (914) 762-4900,,,,,,
Metropolitan Lumber,,617 11Th Ave Phone ,,New York ,NY,10036,United States,1 (212) 246-9090,,,,,,
Beckerle Lumber & Supply,,219 Route 303 Phone ,,Orangeburg ,NY,10962,United States,1 (845) 359-4633,,,,,,
Kamco Supply Corp,,153 Tenth Ave Phone ,,New York ,NY,10011,United States,1 (212) 736-7350,,,,,,
Kamco Supply Corp,,80 21st Street Phone ,,Brooklyn ,NY,11232,United States,1 (718) 768-1234,,,,,,
Beckerle Lumber & Supply,,79 Lake Road Phone ,,Congers ,NY,10920,United States,1 (845) 268-9248,,,,,,
Beckerle Lumber,,59 Westside Ave Phone ,,Haverstraw ,NY,10927,United States,(845) 942-1492,,,,,,
Jim Waters Co.,,3100 Lexington Avenue Phone ,,Mohegan Lake ,NY,10547,United States,1 (914) 528-5200,,,,,,
Rings End,,140 Danbury Rd Phone ,,New Milford ,CT,06776,United States,1 (860) 355-5566,,,,,,
Rings End,,28 Hope St Phone ,,Niantic ,CT,06357,United States,1 (860) 739-5441,,,,,,
United Builders Supply,,East Lyme Industrial Park Phone ,,Niantic ,CT,06357,United States,1 (860) 739-3993,,,,,,
Garfield Lumber,,260 Lanza Ave Phone ,,Garfield ,NJ,07026,United States,1 (973) 478-2160,,,,,,
Beckerle Lumber & Supply,,3 Chestnut Street Phone ,,Spring Valley ,NY,10977,United States,1 (845) 356-1600,,,,,,
Harvey Building Products,,272 Woodlawn Rd Phone ,,Berlin ,CT,06037,United States,1 (860) 828-8855,,,,,,
Dains Lumber,,2 South Water Street Phone ,,Peekskill ,NY,10566,United States,1 (914) 737-2000,,,,,,
Kuiken Brothers Company Inc,,6-02 Fair Lawn Ave Phone ,,Fair Lawn ,NJ,07410,United States,1 (201) 796-2082,,,,,,
HG Page and Sons,,69 Route 22 Phone ,,Pawling ,NY,12564,United States,1 (845) 878-3003,,,,,,
Passaic Metals & Building Supply,,5 Central Ave Phone ,,Clifton ,NJ,07015,United States,1 (973) 546-9000,,,,,,
Metropolitan Lumber,,33 Rutherford St Phone ,,Newark ,NJ,07105,United States,1 (973) 344-0354,,,,,,
National Building Supply,,94 Stephens St Phone ,,Belleville ,NJ,07109,United States,(973) 751-2626,,,,,,
Continental Trading & Hardware,,400 Delancy St Phone ,,Newark ,NJ,07105,United States,1 (973) 589-3929,,,,,,
Chapman Lumber,,224 Watertown Road Phone ,,Thomaston ,CT,06787,United States,1 (800) 852-7993,,,,,,
Forestville Lumber,,21 Town Line Road Phone ,,Plainville ,CT,06062,United States,(860) 747-1688,,,,,,
Marjam Supply Company,,6 International Way Phone ,,Newark ,NJ,07114,United States,1 (973) 824-4420,,,,,,
84 Lumber,,84 Crooked Street Phone ,,Plainville ,CT,06062,United States,1 (860) 793-0284,,,,,,
Builders General Supply Company Inc.HQ,,15 Sycamore Ave Phone ,,Little Silver ,NJ,07739,United States,1 (732) 747-0808,,,,,,
El Congdon & Sons Lumber Co HQ,,17 Park Ave Phone ,,West Orange ,NJ,07052,United States,1 (973) 736-0750,,,,,,
West Essex Building Supply,,40 Depot Street Phone ,,Verona ,NJ,07044,United States,1 (973) 239-1500,,,,,,
Monmouth Building Center,,777 Shrewsbury Ave Phone ,,Shrewsbury ,NJ,07702,United States,1 (732) 747-5220,,,,,,
Williams Lumber,,908 Route 82 Phone ,,Hopewell Junction ,NY,12533,United States,1 (845) 221-2751,,,,,,
Jaeger Lumber HQ,,2322 Morris Ave Phone ,,Union ,NJ,07083,United States,(908) 686-0070,,,,,,
National Building Supply,,625 West First Ave Phone ,,Roselle ,NJ,07203,United States,(908) 245-9292,,,,,,
The Siding Depot,,809 3rd Ave Phone ,,Asbury Park ,NJ,07712,United States,1 (732) 988-0470,,,,,,
Beacon Sales Company,,251 Locust St Phone ,,Hartford ,CT,06114,United States,1 (860) 296-0855,,,,,,
84 Lumber,,359 Rte 35 S Phone ,,Cliffwood ,NJ,07721,United States,1 (732) 290-0840,,,,,,
Jaeger Lumber,,800 12th Ave Phone ,,Belmar ,NJ,07719,United States,(732) 681-1900,,,,,,
ProBuild,,149 Temple hill rd. Phone ,,Vails Gate ,NY,12584,United States,(845) 562-5442,,,,,,
Northwest Lumber,,26 Kent Rd Phone ,,Cornwall Bridge ,CT,06754,United States,1 (860) 672-4000,,,,,,
Marjam Supply,,162 South Robinson Ave Phone ,,Newburgh ,NY,12550,United States,1 (845) 565-6500,,,,,,
Heights Lumber Center,,3 Windsor Highway Phone ,,Newburgh ,NY,12550,United States,1 (845) 561-1750,,,,,,
Excelsior Lumber Co. Inc  HQ.,,140 Hamburg Turnpike Phone ,,Butler ,NJ,07405,United States,1 (973) 838-1515,,,,,,
Allied Building Products Corp,,4918 State Route 34 Phone ,,Wall ,NJ,07719,United States,1 (732) 449-0342,,,,,,
Pro Build,,367 Ellington Road Phone ,,East Hartford ,CT,06108,United States,1 (860) 289-3474,,,,,,
Miner's Lumber,,129 River Rd Phone ,,Canton ,CT,06019,United States,1 (860) 693-1111,,,,,,
Jaeger Lumber,,133 Main St Phone ,,Madison ,NJ,07940,United States,(973) 377-1000,,,,,,
Jaeger Lumber,,411 Arnold Ave Phone ,,Pt Pleasant Beach ,NJ,08742,United States,(732) 899-9663,,,,,,
Woodhaven Lumber,,1303 Richmond Ave Phone ,,Pt. Pleasant ,NJ,08742,United States,1 (732) 295-8800,,,,,,
East Haven Builders Supply,,166 Colonial Road Phone ,,Manchester ,CT,06042,United States,(860) 474-9100,,,,,,
Harvey Building Products,,730 Parker St Phone ,,Manchester ,CT,06042,United States,1 (860) 649-6440,,,,,,
ABC Supply Company Inc.,,900 Dutchess Turnpike Phone ,,Poughkeepsie ,NY,12603,United States,1 (845) 485-7280,,,,,,
Jim Waters Corp- HQ,,419 Manchester Rd Phone ,,Poughkeepsie ,NY,12603,United States,1 (845) 452-6310,,,,,,
American Fence Systems Inc. HQ,,2279 South Clinton Avenue Phone ,,South Plainfield ,NJ,07080,United States,(866) 381-0000,,,,,,
Huston Lumber HQ,,2 Interhaven Ave Phone ,,North Plainfield ,NJ,07060,United States,1 (908) 756-5700,,,,,,
Norwich Lumber Company,,470 River Road Phone ,,Lisbon ,CT,06351,United States,1 (860) 889-1393,,,,,,
Morristown Lumber HQ,,103 Ridgedale Ave Phone ,,Morristown ,NJ,07962,United States,1 (973) 539-3700,,,,,,
United Builders Supply,,30 Oak Street Phone ,,Westerly ,RI,02891,United States,1 (401) 596-2831,,,,,,
Kuiken Brothers Company Inc,,33 South St Phone ,,Warwick ,NY,10990,United States,1 (845) 986-2255,,,,,,
Jaeger Lumber & Supply Corp,,1238 Valley Road Phone ,,Stirling ,NJ,07980,United States,1 (908) 642-1239,,,,,,
84 Lumber,,22 Ford Road Phone ,,Rockaway ,NJ,07866,United States,1 (973) 627-2584,,,,,,
HG Page and Sons,,5291 Route 44 Phone ,,Amenia ,NY,12501,United States,1 (845) 373-8900,,,,,,
Jaeger Lumber,,500 Boundbrook Ave Phone ,,Middlesex ,NJ,08846,United States,(732) 968-3555,,,,,,
Roe Brothers,,65 Maple Avenue Phone ,,Florida ,NY,10921,United States,1 (845) 651-4025,,,,,,
National Building Supply HQ,,7 Lee St Phone ,,Dover ,NJ,07801,United States,(973) 989-6969,,,,,,
Messco Building Supply,,2400 State Route 208 Phone ,,Walden ,NY,12586,United States,1 (845) 883-4444,,,,,,
Northeastern Building Supply HQ,,255 Gatzmer Ave. Phone ,,Jamesburg ,NJ,08831,United States,1 (732) 521-0040,,,,,,
Woodhaven Lumber HQ,,200 James st Phone ,,Lakewood ,NJ,08701,United States,1 (732) 901-5518,,,,,,
Somerville Lumber Company HQ,,1480 Us Highway 22 Phone ,,Bridgewater ,NJ,08807,United States,1 (732) 356-1975 #11,,,,,,
Allied Building Products Corp. TR,,320 W. Water St Phone ,,Toms River ,NJ,08753,United States,1 (732) 341-4767,,,,,,
Northeastern Building Supply,,484 Route 537 Phone ,,Clarksburg ,NJ,08510,United States,1 (609) 259-2222,,,,,,
Jim Waters Co.,,4 Brink Avenue Phone ,,Middletown ,NY,10940,United States,1 (845) 343-0678,,,,,,
United Builders Supply,,38 Kingston Road Phone ,,Richmond ,RI,02898,United States,1 (401) 539-3033,,,,,,
Eastford Building Supply,,189 Route 198 Phone ,,Eastford ,CT,06242,United States,1 (860) 974-1924,,,,,,
Lucia Lumber,,777 Silver Street Phone ,,Agawam ,MA,01001,United States,1 (413) 786-1636,,,,,,
H.J. Opdyke Lumber,,Po Box 416 Phone ,,Belle Mead ,NJ,08502,United States,(908) 359-5121,,,,,,
ProBuild,,918 Route 32 Phone ,,Rosendale ,NY,12472,United States,(845) 658-8331,,,,,,
Arnold Lumber,,297 Main Street Phone ,,Wakefield ,RI,02879,United States,1 (401) 783-3311,,,,,,
Arnold Lumber Company,,251 Fairgrounds Road Phone ,,West Kingston ,RI,02892,United States,1 (401) 782-2942,,,,,,
Northwest Building Supply,,221 Main St Phone ,,Andover ,NJ,07821,United States,1 (973) 786-5151,,,,,,
Huston Lumber,,3 Femley Rd Phone ,,Oldwick ,NJ,08889,United States,1 (908) 439-6200,,,,,,
Kakley True Value,,10 Allen St. Phone ,,Springfield ,MA,01108,United States,1 (413) 781-6110,,,,,,
"Lumber Center, Inc",,44 Broad Street Phone ,,Westfield ,MA,01085,United States,1 (413) 562-3675,,,,,,
Probuild,,131 Route 6 Phone ,,Port Jervis ,NY,12771,United States,1 (845) 856-1122,,,,,,
Herzog's Home Center,,151 Plaza Road Phone ,,Kingston ,NY,12401,United States,(845) 338-6300,,,,,,
Harvey Building Products,,175 Corando Drive Phone ,,Springfield ,MA,01104,United States,1 (413) 731-7700,,,,,,
Hamilton Building Supply Company HQ,,65 Klockner Rd Phone ,,Hamilton ,NJ,08619,United States,1 (609) 587-4020,,,,,,
Squier Lumber,,5 Squier Ave Phone ,,Monson ,MA,01057,United States,(413) 267-5542,,,,,,
A Boilard & Sons Inc,,476 Oak Street Phone ,,Indian Orchard ,MA,01151,United States,1 (413) 543-4100,,,,,,
Beacon Sales Company,,60 Haynes Circle Phone ,,Chicopee ,MA,01020,United States,1 (413) 750-1023,,,,,,
Pro Deck Supply HQ,,1608 5th Street Phone ,,Ewing ,NJ,08638,United States,1 (609) 771-1100,,,,,,
Tuckerton Lumber Company,,200 N Long Beach Blvd Phone ,,Surf City ,NJ,08008,United States,1 (609) 494-2111,,,,,,
Woodhaven Lumber,,725 E. Bay Ave Phone ,,Manahawkin ,NJ,08050,United States,1 (609) 597-1118,,,,,,
Scituate Lumber,,622 Danielson Pike N Phone ,,Scituate ,RI,02857,United States,1 (401) 647-2988,,,,,,
Niece Lumber,,2 Elm St Phone ,,Lambertville ,NJ,08530,United States,1 (609) 397-1200,,,,,,
Fleury Lumber,,231 Main St. Phone ,,Easthampton ,MA,01027,United States,1 (413) 527-2693,,,,,,
Harvey Building Products,,45 Lori Ann Way Phone ,,Warwick ,RI,02886,United States,1 (401) 737-7767,,,,,,
H.J. Opdyke Lumber,,900 Frenchtown/Milford Rd Phone ,,Frenchtown ,NJ,08825,United States,1 (908) 996-2241,,,,,,
Wyde Lumber,,419 Route 17B Phone ,,Monticello ,NY,12701,United States,(845) 794-5770,,,,,,
Allied Building Products Burl,,11 Cadillac Rd Phone ,,Burlington ,NJ,08016,United States,(609) 386-5500,,,,,,
Tuckerton Lumber Company HQ,,138 Railroad Ave Phone ,,Tuckerton ,NJ,08087,United States,1 (609) 296-1131,,,,,,
Howe Lumber Company,,555 Main St. Phone ,,East Brookfield ,MA,01515,United States,1 (508) 885-5396,,,,,,
ProBuild,,1784 Route 52 East Phone ,,Liberty ,NY,12754,United States,(845) 292-8282,,,,,,
Arnold Lumber,,545 Metacom Drive Phone ,,Bristol ,RI,02809,United States,1 (401) 253-7322,,,,,,
RK Miles,,21 West Street Phone ,,West Hatfield ,MA,01088,United States,1 (413) 247-8300,,,,,,
H.J. Opdyke Lumber,,21 Broad St Phone ,,,NJ,08865,United States,(908) 213-1700,,,,,,
Leader Home Center,,150 College Street Phone ,,Amherst ,MA,01002,United States,1 (413) 243-3441,,,,,,
Williams Lumber,,34 Bloomer Road Phone ,,Tannersville ,NY,12485,United States,1 (518) 589-5200,,,,,,
PD Humphrey's,,590 Main Road Phone ,,Tiverton ,RI,02878,United States,1 (401) 624-8800,,,,,,
Harvey Building Products,,21 Wellington Rd Phone ,,Lincoln ,RI,02865,United States,1 (401) 333-9666,,,,,,
Dettinger Lumber,,24 Warren Terrace Phone ,,Pittsfield ,MA,01201,United States,1 (413) 442-6916,,,,,,
Tague Lumber,,6100 Easton Rd Phone ,,Doylestown ,PA,18902,United States,1 (215) 348-9408,,,,,,
Fairview Millwork,,90 Worcester-Providence Turnpike Phone ,,Sutton ,MA,01590,United States,1 (800) 696-3344,,,,,,
Wehrung's Lumber & Home Center HQ,,7711 Rt 611 Phone ,,Ottsville ,PA,18942,United States,1 (610) 847-2066,,,,,,
Dubell Lumber Company Inc HQ,,148 Rt. 70 East Phone ,,Medford ,NJ,08055,United States,1 (609) 654-4143,,,,,,
Peter Lumber,,87 Hartford Rd Phone ,,Medford ,NJ,08055,United States,1 (609) 654-2133,,,,,,
Harvey Building Products,,300 Washington Street Phone ,,Auburn ,MA,01501,United States,1 (508) 832-0602,,,,,,
Harvey Building Products,,99 Buck Rd Phone ,,Huntingdon Valley ,PA,19006,United States,1 (215) 355-4047,,,,,,
L. P. Adams,,484 Housatonic Street Phone ,,Dalton ,MA,01227,United States,1 (413) 684-0025,,,,,,
Leader Home Center,,16 Elm Street Phone ,,South Deerfield ,MA,01373,United States,1 (413) 665-8881,,,,,,
Attleboro Rehoboth Building Supplies,,44 Park St Phone ,,Rehoboth ,MA,02769,United States,(508) 222-7571,,,,,,
Geppert Lumber HQ,,1561 Easton Rd Phone ,,Roslyn ,PA,19001,United States,1 (215) 659-6006,,,,,,
84 Lumber,,43 Bristol Road Phone ,,Chalfont ,PA,18914,United States,1 (215) 822-1384,,,,,,
Harvey Building Products,,965 Reed Road Phone ,,Dartmouth ,MA,02747,United States,1 (800) 882-8955,,,,,,
Beacon Sales Company,,120 Prescott Dr Phone ,,Worcester ,MA,01605,United States,1 (508) 753-2943,,,,,,
Leader Home Center,,99 S Barre Road Phone ,,Barre ,MA,01005,United States,1 (978) 355-3411,,,,,,
Wadler Brothers Inc,,47293 Route 23 Phone ,,Fleischmanns ,NY,12430,United States,1 (845) 254-5500,,,,,,
Dubell Lumber Company Inc,,731 Cuthbert Blvd Phone ,,Cherry Hill ,NJ,08002,United States,1 (856) 665-9100,,,,,,
Franklin Lumber,,129 Dean Ave Phone ,,Franklin ,MA,02038,United States,1 (508) 528-0910,,,,,,
Harvey Building Products,,2000 City Line Road Phone ,,Bethlehem ,PA,18017,United States,1 (610) 266-0300,,,,,,
Beacon Sales Company,,25 Nauset St Phone ,,New Bedford ,MA,02746,United States,1 (508) 979-1055,,,,,,
Tague Lumber,,560 East High Street Phone ,,Philadelphia ,PA,19144,United States,1 (215) 848-2500,,,,,,
Dubell Lumber Company Inc,,102 Route 73 Phone ,,Cedarbrook ,NJ,08018,United States,1 (609) 567-2467,,,,,,
Allied Building Products Corp.,,516 W. Leeds Ave Phone ,,Pleasantville ,NJ,08232,United States,1 (609) 833-2250,,,,,,
ProBuild,,950 Mill Rd Phone ,,Pleasantville ,NJ,08232,United States,1 (609) 568-9360,,,,,,
Dubell Lumber Company Inc,,111 Devins Lane Phone ,,Pleasantville ,NJ,08232,United States,1 (609) 641-2100,,,,,,
Fairhaven Lumber,,120 Alden Road Phone ,,Fairhaven ,MA,02719,United States,1 (508) 993-2611,,,,,,
RK Miles Inc,,385 Cole Avenue Phone ,,Williamstown ,MA,01267,United States,1 (413) 458-8121,,,,,,
MRD Lumber,,1740 Lynnwood Road ,,Allentown ,PA,18101,United States,,,,,,,
BMC,,Stratton Falls Rd Phone ,,Roxbury ,NY,12474,United States,1 (607) 326-4111,,,,,,
Great Railing HQ,,1086 North Black Horse Pike Phone ,,Williamstown ,NJ,08094,United States,856-875-0050,,,,,,
Hamshaw Lumber,,68 New Athol Rd Phone ,,Orange ,MA,01364,United States,1 (978) 544-8211,,,,,,
Harvey Building Products,,1 Willow Street Phone ,,Southborough ,MA,01772,United States,1 (508) 683-1620,,,,,,
84 Lumber,,1701 Hurfville Road Phone ,,Sewell ,NJ,08080,United States,1 (856) 228-8484,,,,,,
Mahoney's Building Supply,,One Industrial Drive ,,Mattapoisett ,MA,02739,United States,,,,,,,
Fernandes Lumber,,299 Depot St Phone ,,South Easton ,MA,02375,United States,(508) 238-3651,,,,,,
Carby's,,155 Hartford St ,,Framingham ,MA,01702,United States,,,,,,,
West Lumber,,7315 Marshall Rd Phone ,,Upper Darby ,PA,19082,United States,1 (610) 622-4700,,,,,,
H.N. Hinckley,,75 Beach Road Phone ,,Vineyard Haven ,MA,02568,United States,1 (508) 693-0075,,,,,,
Harvey Building Products,,300 South Gulph Rd Phone ,,King of Prussia ,PA,19406,United States,1 (610) 337-0652,,,,,,
Dries Do-It Center HQ,,3580 Brookside Road Phone ,,Macungie ,PA,18062,United States,1 (610) 966-5555,,,,,,
Mid Cape Home Centers,,20 East Line Road Phone ,,Edgartown ,MA,02539,United States,1 (508) 693-3374,,,,,,
Harvey Building Products,,10 Turnpike Street Phone ,,W. Bridgewater ,MA,02379,United States,1 (508) 584-5300,,,,,,
Glassboro Lumber HQ,,Po Box 237 Phone ,,Glassboro ,NJ,08028,United States,1 (856) 881-9124,,,,,,
Mid Cape Home Centers,,123 E Grove St Phone ,,Middleboro ,MA,02346,United States,1 (800) 281-2353,,,,,,
Beacon Sales Company,,1120 W Chestnut St Phone ,,Brockton ,MA,02301,United States,1 (508) 580-8802,,,,,,
Fairview Millwork,,100 Pearl Street Phone ,,Bridgewater ,MA,02324,United States,1 (508) 697-6128,,,,,,
Henry Lumber HQ,,3846 Park Ave Phone ,,Neffs ,PA,18065,United States,1 (610) 767-3884,,,,,,
Sudbury Lumber,,28 Union Av Phone ,,Sudbury ,MA,01776,United States,1 (978) 443-1680,,,,,,
Peter Lumber Company HQ,,270 W Ridge Pike Phone ,,Limerick ,PA,19468,United States,1 (610) 489-9302,,,,,,
E.C. Cottle,,137 West Tisbury Phone ,,Edgartown ,MA,02539,United States,1 (508) 693-1385,,,,,,
E L Morse,,2502 Cranberry Highway Phone ,,Wareham ,MA,02571,United States,1 (508) 295-1170,,,,,,
Harvey Building Products,,133 Benson Street Phone ,,Fitchburgh ,MA,01420,United States,1 (978) 345-1818,,,,,,
Harvey Building Products,,4253 Albany Street Phone ,,Albany ,NY,12205,United States,1 (518) 862-1490,,,,,,
Belletete Lumber,,245 Central Stral Street Phone ,,Winchendon ,MA,01475,United States,1 (508) 297-1162,,,,,,
Holt Lumber HQ,,231 Belmont Street Phone ,,Carbondale ,PA,18407,United States,1 (570) 282-4400,,,,,,
Tague Lumber,,405 Bridge St Phone ,,Phoenixville ,PA,19460,United States,1 (610) 933-5858,,,,,,
Tague Lumber,,325 Media Station Road Phone ,,Media ,PA,19063,United States,1 (610) 566-1200,,,,,,
Jim Waters Co.,,17 Hemlock Street Phone ,,Latham ,NY,12110,United States,1 (518) 785-3100,,,,,,
84 Lumber,,4785 Western Turnpike Phone ,,Altamont ,NY,12009,United States,1 (518) 355-8488,,,,,,
Fairview Millwork,,708 Washington Street Phone ,,Pembroke ,MA,02382,United States,1 (781) 924-5346,,,,,,
"E.W. Bostwick, Inc.",,155 Center St Phone ,,Elmer ,NJ,08318,United States,1 (856) 358-7191,,,,,,
Bisbee Lumber,,41 Yendes Street Phone ,,Hancock ,NY,13783,United States,1 (607) 637-2491,,,,,,
Tague Design Showroom,,181 Lancaster Ave Phone ,,Malvern ,PA,19355,United States,1 (610) 640-4180,,,,,,
Harvey Building Products,,320 Wood Road Phone ,,Braintree ,MA,02184,United States,1 (617) 843-5500,,,,,,
Murphy Lumber Company,,79 State Rd 437 Phone ,,Whitehaven ,PA,18661,United States,1 (570) 443-8292,,,,,,
H. Greenberg & Sons,,321 Main Street Phone ,,Bennington ,VT,05201,United States,1 (802) 442-3131,,,,,,
Delaware County Supply Company Inc.HQ,,1000 Randall Avenue Phone ,,Boothwyn ,PA,19061,United States,1 (610) 485-1812,,,,,,
Goodrich Lumber,,40 Indepence Road Phone ,,Kingston ,MA,02364,United States,1 (781) 422-0131,,,,,,
84 Lumber,,84 Ridge Road Phone ,,Claymont ,DE,19703,United States,1 (302) 772-1184,,,,,,
Erie Materials,,700 North-South Road Phone ,,Scranton ,PA,18504,United States,1 (570) 346-3390,,,,,,
F.D. Sterritt,,110 Arlington Street ,,Watertown ,MA,02472,United States,,,,,,,
Mariotti Building Products HQ,,1 Louis Industrial Dr Phone ,,Old Forge ,PA,18518,United States,1 (570) 457-6774,,,,,,
84 Lumber,,1484 Ben Franklin Hwy Phone ,,Douglassville ,PA,19518,United States,1 (610) 326-8800,,,,,,
Norandex WilkesBarre,,1090 Highway 315 Phone ,,Wilkes-Barre ,PA,18702,United States,1 (570) 824-9879,,,,,,
Perkins Home Center,,Route 9 Phone ,,West Chesterfield ,NH,03466,United States,1 (603) 256-6844,,,,,,
Arlington Coal And Lumber,,41 Park Avenue Phone ,,Arlington ,MA,02476,United States,1 (781) 643-8100,,,,,,
Beacon Sales Company,,50 Wester Ave Phone ,,Somerville ,MA,02143,United States,1 (617) 666-2800,,,,,,
Bellevue Builders Supply,,1181 NY 7 Phone ,,Richmondville ,NY,12149,United States,(518) 294-6686,,,,,,
Belletete Lumber- HQ,,51 Peterboro Street Phone ,,Jaffrey ,NH,03452,United States,1 (603) 532-7716,,,,,,
Friend Lumber,,4 Adams Street Phone ,,Burlington ,MA,01803,United States,1 (781) 273-1335,,,,,,
Harvey Building Products,,One Wheeler Road Phone ,,Burlington ,MA,01803,United States,1 (781) 272-0411,,,,,,
Hamshaw Lumber,,3 Bradco Street Phone ,,Keene ,NH,03431,United States,1 (603) 352-6506,,,,,,
Tri County Building Supply,,14 Reading Avenue Phone ,,Cape May Court House ,NJ,08210,United States,1 (609) 465-5021,,,,,,
Chelmsford Lumber,,203 Boston Road Phone ,,Chelmsford ,MA,01824,United States,1 (978) 486-9836,,,,,,
Hingham Lumber Company,,165 Chief Justice Cushing Hwy Phone ,,Cohasset ,MA,02025,United States,(781) 749-4200,,,,,,
"Grubb Lumber Co., Inc.",,200 A STREET Phone ,,WILMINGTON ,DE,19899,United States,(302) 652-2800,,,,,,
Harvey Building Products,,936 Rutter Ave Phone ,,Forty Fort ,PA,18704,United States,1 (570) 331-3011,,,,,,
Allied Building Products,,41 Atlantic Avenue Phone ,,Woburn ,MA,01801,United States,1 (781) 935-2038,,,,,,
Harvey Building Products,,33 Commonwealth Ave Phone ,,Woburn ,MA,01801,United States,1 (781) 935-7950,,,,,,
Beacon Sales Company,,96 Lombard Ave Phone ,,West Barnstable ,MA,02668,United States,1 (508) 362-7109,,,,,,
Belletete Lumber,,188 Concord Street Phone ,,Peterboro ,NH,03458,United States,1 (603) 924-9436,,,,,,
Wilmington Builders Supply,,334 Main Street Phone ,,Wilmington ,MA,01887,United States,1 (978) 658-4621,,,,,,
Beacon Sales Company,,# 5 Foundry Industrial Park Phone ,,Lowell ,MA,01852,United States,1 (978) 452-1392,,,,,,
Belletete Lumber,,80 Northwestern Blvd. Phone ,,Nashua ,NH,03062,United States,1 (603) 880-7778,,,,,,
Harvey Building Products,,90 Northeastern BLvd Phone ,,Nashua ,MA,03062,United States,1 (603) 880-0003,,,,,,
Tague Lumber- HQ,,475 McFarlan Road Phone ,,Kennett Square ,PA,19348,United States,1 (610) 444-1200,,,,,,
Harvey Building Products,,186 Breeds Hill Road Phone ,,Hyannis ,MA,02601-1860,United States,1 (508) 882-8950,,,,,,
Milford Lumber,,72 Mount Vernon Street Phone ,,Milford ,NH,03055,United States,1 (603) 673-3331,,,,,,
Friend Lumber,,261 Lowell Rd Phone ,,Hudson ,NH,03051,United States,1 (603) 598-6662,,,,,,
Moynihan Lumber HQ,,164 Chestnut St Phone ,,North Reading ,MA,01864,United States,1 (978) 664-3310,,,,,,
PJ Currier Lumber,,Route 122 Phone ,,Amherst ,NH,03031,United States,1 (603) 673-1913,,,,,,
Bellevue Builder's Supply,,101 Main St Phone ,,Sidney ,NY,13838,United States,1 (607) 563-2131,,,,,,
Saratoga Quality Hardware,,110 Excelsior Avenue Phone ,,Saratoga Springs ,NY,12866,United States,(518) 584-9180,,,,,,
Fairview Millwork,,49 White's Path Phone ,,Yarmouth ,MA,02664,United States,1 (508) 394-2219,,,,,,
Fairview Millwork,,108 Route 108A Phone ,,Amherst ,NH,03031,United States,1 (603) 882-7447,,,,,,
Beacon Sales Company,,One Lakeland Park Dr Phone ,,Peabody ,MA,01960,United States,1 (978) 535-7668,,,,,,
Pelham Lumber,,6 Atwood Road Phone ,,Pelham ,NH,03076,United States,1 (603) 635-7555,,,,,,
84 Lumber,,700 Ogletown Rd Phone ,,Newark ,DE,19711,United States,1 (302) 737-3084,,,,,,
Reeds Ferry Lumber,,544 Daniel Webster Hwy Phone ,,Merrimack ,NH,03054,United States,1 (603) 424-9509,,,,,,
Gilbert & Cole Building Supply,,42 Bessom Street Phone ,,Marblehead ,MA,01945,United States,1 (781) 631-0222,,,,,,
Mid Cape Home Centers HQ,,Route 134 Phone ,,South Dennis ,MA,02660,United States,1 (508) 398-6071,,,,,,
Harvey Building Products,,125 Water Street Phone ,,Danvers ,MA,01923,United States,1 (978) 750-9995,,,,,,
RK Miles Inc HQ,,Routes 11 & 30 Phone ,,Manchester Center ,VT,05255,United States,1 (802) 362-1952,,,,,,
Bradco Supply Corp,,1705 Otts Chapel Road Phone ,,Newark ,DE,19702,United States,1 (302) 731-9279,,,,,,
Lavalley Building Supply,,121 Church Street Phone ,,North Walpole ,NH,03609,United States,1 (603) 445-5545,,,,,,
CYR Lumber,,39 Rockingham Rd Phone ,,Windham ,NH,03087,United States,1 (603) 898-5000,,,,,,
Harvey Building Products,,48 Raymond Ave Phone ,,Salem ,NH,03079,United States,1 (603) 893-1611,,,,,,
Musselman Lumber,,200 Brimmer Ave Phone ,,New Holland ,PA,17557,United States,1 (717) 354-4321,,,,,,
"Specialty Builders Supply, Inc.",,59 Commerce Park Road Phone ,,Brewster ,MA,02631,United States,1 (508) 896-8866,,,,,,
Beacon Sales Company,,10024 S Willow St Phone ,,Manchester ,NH,03103,United States,1 (603) 645-6898,,,,,,
84 Lumber,,64 Spud Ln Phone ,,Binghampton ,NY,13904,United States,1 (607) 775-1210,,,,,,
American Home and Hardware,,202 West Main Street Phone ,,Elkton ,MD,21921,United States,1 (410) 398-1900,,,,,,
Musselman Lumber,,1120 S. State Street Phone ,,Ephrata ,PA,17522,United States,1 (717) 733-2241,,,,,,
Smoot Building Solutions,,3382 Lincoln Hwy East Phone ,,Paradise ,PA,17562,United States,1 (717) 442-4304,,,,,,
Oxford Feed and Lumber HQ,,112 Railroad Ave Phone ,,Oxford ,PA,19363,United States,1 (610) 932-8521,,,,,,
Building Center of Essex,,140 Western Ave ,,Essex ,MA,01929,United States,,,,,,,
Marjam Supply,,257 Mammoth Road Phone ,,Manchester ,NH,03109,United States,1 (603) 624-4900,,,,,,
Harvey Building Products,,344 East Industrial Park Drive Phone ,,Manchester ,NH,03103-5310,United States,1 (603) 669-2121,,,,,,
Mid Cape Home Centers,,15 Main St Phone ,,Orleans ,MA,02653,United States,1 (508) 255-0200,,,,,,
Quality Hardware & Lumber,,3093 State Route 4 Phone ,,Hudson Falls ,NY,12839,United States,(518) 747-6344,,,,,,
Erie Materials,,33 Phelps Street Phone ,,Port Dickinson ,NY,13902,United States,1 (607) 773-8006,,,,,,
Benjamin Lumber,,19 Rolling Mill Ln Phone ,,North East ,MD,21901,United States,1 (410) 287-6116,,,,,,
Mid Cape Home Center,,30 Commercial Street Phone ,,Wellfleet ,MA,02667,United States,1 (508) 349-3734,,,,,,
Building Center of Gloucester,,One Harbor Loop ,,Gloucester ,MA,01930,United States,,,,,,,
Belknap Lumber,,7 Belknap Ave Phone ,,Binghamton ,NY,13905,United States,1 (607) 729-1583,,,,,,
Carter Lumber,,2275 Old Philadelphia Pike Phone ,,Lancaster ,PA,17602,United States,1 (717) 397-4829,,,,,,
Werner Ace Lumber HQ,,29 S Tolpehocken St Phone ,,Pine Grove ,PA,17963,United States,(570) 345-2561,,,,,,
HOME CENTRAL,,105 COMMERCIAL AVENUE ,,VESTAL ,NY,13850,United States,,,,,,,
Your Building Center,,145 East Ninth Street Phone ,,Bloomsburg ,PA,17815,United States,1 (570) 784-4445,,,,,,
Delaware Building Supply,,141 Mullett Road Phone ,,Milford ,DE,19963,United States,(302) 424-3505,,,,,,
Johnson Lumber Company,,133 Main Street Phone ,,Salisbury ,MA,01952,United States,1 (978) 462-7151,,,,,,
Lavalley Building Supply,,Dean Brown Jr Industrial Park Phone ,,Ludlow ,VT,05149,United States,1 (802) 228-4665,,,,,,
Ironstone Building Materials,,3009 Hempland Rd Phone ,,Lancaster ,PA,17601,United States,(717) 394-1900,,,,,,
CP Building Supply,,268 Amesbury Road Phone ,,Kensington ,NH,03833,United States,1 (603) 394-7414,,,,,,
Fairview Millwork,,344 Route 107 Phone ,,Seabrook ,NH,03874,United States,1 (603) 929-4449,,,,,,
Lezzer Lumber,,213 West High Street Phone ,,Manheim ,PA,17545,United States,1 (717) 665-3592,,,,,,
Lezzer Lumber,,2008 Marietta Ave Phone ,,Lancaster ,PA,17603,United States,(717) 393-3605,,,,,,
Seacoast Mills Building Supply,,136 Pine Rd. Phone ,,Brentwood ,NH,03833,United States,1 (603) 778-4604,,,,,,
Knoebel Lumber HQ,,Route 487 Phone ,,Elysburg ,PA,17824,United States,1 (570) 672-2531,,,,,,
Middleton Building Supply,,864 Lafayette Road Phone ,,Hampton ,NH,03842,United States,1 (603) 926-7626,,,,,,
HOME CENTRAL,,151 CENTRAL AVENUE ,,OWEGO ,NY,13827,United States,,,,,,,
Carter Lumber,,2128 S. Market Steet Phone ,,Elizabethtown ,PA,17022,United States,1 (717) 367-1886,,,,,,
Harvey Building Products,,240 West Road Phone ,,Portsmouth ,NH,03801,United States,1 (603) 433-0900,,,,,,
Britton Lumber,,56 Route 4 Phone ,,Hartland ,VT,05048,United States,1 (802) 457-1457,,,,,,
Chestertown Lumber Co Llc,,805 Washington Ave Phone ,,Chestertown ,MD,21620,United States,1 (410) 810-9080,,,,,,
John H. Myers & Son Inc.,,505 Granary Road Phone ,,Forest Hill ,MD,21050,United States,(410) 638-9681,,,,,,
Lezzer Lumber - Pennsdale,,194 Chad Road Phone ,,Pennsdale ,PA,17756,United States,1 (570) 546-8026,,,,,,
Your Building Center,,150 W. Water Street Phone ,,Muncy ,PA,17756,United States,1 (570) 546-3108,,,,,,
Your Building Center,,138 Shikellamy Avenue Phone ,,Sunbury ,PA,17801,United States,1 (570) 286-4538,,,,,,
Croft Lumber,,101 Spring Street Phone ,,Sayre ,PA,18840,United States,1 (570) 888-2364,,,,,,
Kefauver Lumber Co. Inc.,,1333 W. Jarrettsville Road Phone ,,Forest Hill ,MD,21050,United States,1 (410) 557-7200,,,,,,
Home Central,,7 Rich Street Phone ,,Candor ,NY,13743,United States,(607) 659-4205,,,,,,
"Goodro Killington, Inc.",,4489 US RT 4 Phone ,,Killington ,VT,05751,United States,1 (802) 422-3469,,,,,,
84 Lumber,,Route 113 Moores Road Phone ,,Selbyville ,DE,19975,United States,1 (302) 436-2684,,,,,,
Your Building Center,,635 South Front Street Phone ,,Milton ,PA,17847,United States,1 (570) 742-9681,,,,,,
Middleton Building Supply,,58 Old Rochester Rd Phone ,,Dover ,NH,03820,United States,1 (800) 333-0969,,,,,,
Klinger Lumber Co,,3903 State Road 225 Phone ,,Elizabethville ,PA,17023,United States,1 (717) 362-3311,,,,,,
84 Lumber,,1704 Harford Road Phone ,,Fallston ,MD,21047,United States,1 (410) 879-4384,,,,,,
Harvey Building Products,,1354 N. Hartland Road Phone ,,White River Junction ,VT,05001,United States,1 (802) 295-3700,,,,,,
Allied Building Product Inc.,,2130 5th Ave Phone ,,Ronkonkoma ,NY,11779,United States,1 (631) 467-4800,,,,,,
Commercial Lumber,,130 Main St. Phone ,,Islip ,NY,11751,United States,1 (631) 277-9327,,,,,,
84 Lumber,,1751 West Main Street Phone ,,Riverhead ,NY,11901,United States,1 (631) 369-0084,,,,,,
Kamco Colony Lumber,,311 Indian River Rd. Phone ,,Orange ,CT,06477,United States,1 (203) 795-6061,,,,,,
New Castle Building Products,,535 Old Tarrytown Rd. Phone ,,White Plains ,NY,10603,United States,(914) 948-6363,,,,,,
New Castle Building Products,,105-14 Astoria Blvd. Phone ,,East Elmhurst ,NY,11369,United States,(718) 779-0280,,,,,,
Kamco Supply Corporation,,780N.Colony Road Phone ,,Wallingford ,CT,06492,United States,1 (203) 269-1428,,,,,,
Breezy Point Lumber,,28 Market Street Phone ,,Breezy Point ,NY,11697,United States,1 (718) 634-2600,,,,,,
Midwood Lumber,,1169 Coney Island Ave Phone ,,Brooklyn ,NY,11230,United States,(718) 859-8100,,,,,,
United Builders Supply,,45 Richard Grove Dr. Phone ,,Quaker Hill ,CT,06375,United States,1 (800) 422-5341,,,,,,
84 Lumber,,18 Raritan Rd. Phone ,,Oakland ,NJ,07436-3398,United States,1 (201) 337-1284,,,,,,
84 Lumber,,500 Route 211 East Phone ,,Middletown ,NY,10940,United States,1 (845) 692-6784,,,,,,
Chace Building Supply,,90 Rt. 171 Phone ,,Woodstock ,CT,06281,United States,1 (860) 928-2747,,,,,,
Beacon Sales Company,,730 Wellington Ave Phone ,,Cranston ,RI,02910,United States,1 (401) 467-8870,,,,,,
Douglas Lumber,,125 Douglas Turnpike Phone ,,Smithfield ,RI,02917,United States,1 (401) 231-6800,,,,,,
84 Lumber,,Rr 2 Box 2094 Route 23 Phone ,,Oneonta ,NY,13820,United States,1 (607) 433-1184,,,,,,
84 Lumber,,2403 Route 9 Phone ,,BALLSTON SPA ,NY,12020-4407,United States,1 (518) 899-5684,,,,,,
Stock Building Supply/Smoot,,3356 Lincoln Hwy East Phone ,,Paradise ,PA,17562,United States,(717) 442-4304,,,,,,
84 Lumber,,2484 E CUMBERLAND STREET Phone ,,Lebanon ,PA,17042,United States,1 (717) 272-8454,,,,,,
Lezzer Lumber - Lancaster,,2008 Marietta Ave Phone ,,Lancaster ,PA,17603,United States,1 (717) 393-3605,,,,,,
McClure Johnston Company,,7901 Allentown Blvd Phone ,,Harrisburg ,PA,17112,United States,(717) 671-5800,,,,,,
84 Lumber,,12400 Pulaski Hwy Phone ,,Joppa ,MD,21085,United States,1 (410) 679-8440,,,,,,
LaValley Building,,5 King's Highway ,,Middleton ,NH,03867,United States,,,,,,,
LaValley Building Supply,,44 Railroad Ave ,,Meredith ,NH,03253,United States,,,,,,,
Hammond Lumber,,282 Poland road Phone ,,Auburn ,ME,04210,United States,(800) 439-2826,,,,,,
Curtis Lumber,,1314 Route 9 Phone ,,Schroon Lake ,NY,12870,United States,1 (518) 532-7404,,,,,,
Curtis Lumber,,349 Leroy Rd Phone ,,Williston ,VT,05495,United States,1 (802) 863-3428,,,,,,
Curtis Lumber,,315 Pine St Phone ,,Burlington ,VT,05401,United States,1 (802) 651-6500,,,,,,
Curtis Lumber,,1134 Route 86 Phone ,,Ray Brook ,NY,12977,United States,1 (518) 891-2216,,,,,,
Curtis Lumber,,140 Tom Miller Rd Phone ,,Plattsburgh ,NY,12901,United States,1 (518) 561-2691,,,,,,
Harvey Building Products,,80 Anthony Avenue Phone ,,Augusta ,ME,04330,United States,(207) 629-3737,,,,,,
Brock's Plywood Supply,,298 Main Street Phone ,,Rochester ,NH,03867,United States,1 (603) 332-4065,,,,,,
R P Williams,,400 Summer Street Phone ,,Bristol ,NH,03222,United States,1 (603) 744-5446,,,,,,
Gilford Home Center,,32 Gilford East Drive Phone ,,Gilford ,NH,03249,United States,1 (603) 524-1692,,,,,,
Middleton Building Supply,,44 Railroad Avenue Phone ,,Meredith ,NH,03253,United States,1 (603) 279-7911,,,,,,
Eldredge Lumber,,627 Us Rte 1 Phone ,,York ,ME,03909,United States,1 (207) 363-2004,,,,,,
Middleton Building Supply,,5 Kings Hwy Phone ,,Middleton ,NH,03887,United States,1 (603) 473-2314,,,,,,
Winnipesaukee Lumber,,100 Pine Hill Road Phone ,,Winnipesaukee ,NH,03894,United States,1 (603) 569-1381,,,,,,
Ashland Lumber,,20 West Street Phone ,,Ashland ,NH,03207,United States,1 (603) 968-7626,,,,,,
Bethel Mills,,40 Marsh Meadow Road Phone ,,Bethel ,VT,05032,United States,1 (802) 234-9951,,,,,,
Skehan Home Centerinc.,,50 Route 25 Phone ,,Center Ossipee ,NH,03814,United States,1 (603) 539-5971,,,,,,
Central Supplies,,839 RT 12 South Phone ,,Randolf ,VT,05060,United States,1 (802) 738-9531,,,,,,
Brandon Lumber,,9 Grove Street Phone ,,Brandon ,VT,05733,United States,1 (802) 247-6000,,,,,,
Hancock Building Supply,,175 VT Rt 100 Phone ,,Hancock ,VT,05748,United States,1 (802) 767-3955,,,,,,
RK Miles Inc,,88 Exchange Street Phone ,,Middlebury ,VT,05733,United States,1 (802) 388-2721,,,,,,
Deering Lumber Inc.,,14 Elm Street Phone ,,Biddeford ,ME,04005,United States,(207) 283-3621,,,,,,
Goodro Lumber,,RT 125 Phone ,,East Middlebury ,VT,05740,United States,(802) 388-4915,,,,,,
Allen Lumber Company,,502 N. Main Street Phone ,,Barre ,VT,05641,United States,1 (800) 696-9663,,,,,,
Hillside Lumber,,781 Country Road Phone ,,Westbrook ,ME,04092,United States,1 (207) 839-2575,,,,,,
Hammond Lumber Company,,300 Riverside St Phone ,,Portland ,ME,04103,United States,1 (207) 771-8880,,,,,,
Harvey Building Products,,401 Riverside STreet Phone ,,Portland ,ME,04103,United States,1 (207) 797-9345,,,,,,
Allen Lumber Company,,154 Carroll Road Phone ,,Waitsfield ,VT,05673,United States,1 (802) 496-2424,,,,,,
Allen Lumber Company,,707 Stone Cutters Way Phone ,,Montpelier ,VT,05602,United States,1 (802) 223-2335,,,,,,
Allen Lumber Company,,249 Bay Street Phone ,,Saint Johnsbury ,VT,05819,United States,1 (802) 748-2341,,,,,,
Harvey Building Products,,71 Leroy Road Phone ,,Williston ,VT,05495,United States,1 (802) 660-8111,,,,,,
Beacon Sales Company,,4740 Shelburne Rd Phone ,,Shelburne ,VT,05482,United States,1 (802) 985-2715,,,,,,
Hammond Lumber Company,,282 Poland Road Phone ,,Auburn ,ME,04210,United States,1 (207) 784-4009,,,,,,
Beacon Sales Company,,17-21 Dumais Ave Phone ,,Lewiston ,ME,04240,United States,1 (207) 784-6429,,,,,,
Hammond Lumber Company,,Route 27 Phone ,,Belgrade ,ME,04917,United States,1 (207) 495-3303,,,,,,
Hammond Lumber Company (HQ),,389 Farmington Falls Rd Phone ,,Farmington ,ME,04938,United States,1 (207) 778-3518,,,,,,
Viking Lumber,,2100 Camden Rd Phone ,,Warren ,ME,04864,United States,1 (207) 273-3480,,,,,,
CANAC (76810),,1420 rue du Sud J2K 2Y8 Phone ,,Cowansville ,QC,,United States,1 (418) 542-3342,,,,,,
Hammond Lumber Company,,5 Summit Street Phone ,,Fairfield ,ME,04937,United States,1 (207) 453-7322,,,,,,
Rona Renovateur Materiaux Magog,,205 Rue Centre J1X 5B6 Phone ,,Magog ,QC,,United States,1 (819) 843-4441,,,,,,
Campbell's Building Supply,,339 Main Street Phone ,,Madison ,ME,04950,United States,1 (207) 696-8286,,,,,,
Erie Materials- HQ,,500 Factory Ave Phone ,,Syracuse ,NY,13208,United States,1 (315) 455-7434,,,,,,
Triple A Lumber,,6580 State Route 56 Phone ,,Potsdam ,NY,13676,United States,1 (315) 386-4531,,,,,,
Erie Materials,,1492 Clark St Road Phone ,,Auburn ,NY,13021,United States,1 (315) 253-9703,,,,,,
Erie materials,,22293 Teal Drive Phone ,,Watertown ,NY,13601,United States,1 (315) 779-9243,,,,,,
84 Lumber,,20181 NY ROUTE 12F Phone ,,Watertown ,NY,13601,United States,1 (315) 779-8484,,,,,,
Chapel Lumber,,1040 Caton Avenue Phone ,,Elmira ,NY,14904,United States,1 (607) 734-5221,,,,,,
Lakeside Quality Building Materials,,1082 Auburn Street Phone ,,Hannibal ,NY,13074,United States,(315) 564-3212,,,,,,
84 Lumber,,2220 Downer Street Phone ,,Baldwinsville ,NY,13027,United States,1 (315) 635-8400,,,,,,
JC Merriman Lumber,,90 Main Street Phone ,,Norwood ,NY,13668,United States,1 (315) 353-6626,,,,,,
Erie Materials,,48 Philo Road W. Phone ,,Elmira Heights ,NY,14093,United States,1 (607) 739-3399,,,,,,
84 Lumber,,25 Electric Pky Phone ,,Horseheads ,NY,14845,United States,1 (607) 796-2642,,,,,,
Rona Home Centre,,1100 Marleau Avenue K6H 2W8 Phone ,,Cornwall ,ON,,United States,1 (613) 938-3300,,,,,,
Rona L'Entrepot,,170 Rue Moreau J2W 2M4 Phone ,,Saint Jean Sur Richelieu ,QC,,United States,1 (450) 359-4695,,,,,,
Emard Bros. Lumber,,840 Tenth Street East K6H 5T1 Phone ,,Cornwall ,ON,,United States,(613) 932-5660,,,,,,
Rona Cashway,,11 Cornwall Centre Road K6K 1K5 Phone ,,Cornwall ,ON,,United States,1 (613) 933-5443,,,,,,
84 Lumber,,1080 Routes 5 & 20 Phone ,,Geneva ,NY,14456,United States,1 (315) 781-8400,,,,,,
Rona Cashway,,550 Stewart Blvd K6V 7H2 Phone ,,Brockville ,ON,,United States,1 (613) 342-8714,,,,,,
Brockville Home Hardware Building Centre,,584 Stewart Blvd K6V 5T4 Phone ,,Brockville ,ON,,United States,1 (613) 342-4421,,,,,,
Corning Bldg Co. Inc,,346 Park Avenue Phone ,,Corning ,NY,14830,United States,1 (607) 936-9921,,,,,,
Morrisburg Building Centre,,Po Box 131 K0C 1X0 Phone ,,Morrisburg ,ON,,United States,1 (613) 543-2009,,,,,,
Gananoque Home Hardware Building Centre,,695 Stone Street North K7G 3E4 Phone ,,Gananoque ,ON,,United States,1 (613) 382-3386,,,,,,
"Arnot Building Supply, Inc.",,52 Railroad Ave Phone ,,Mansfield ,PA,16933,United States,1 (570) 662-2164,,,,,,
Rona Materiaux Pont-Masson (Salaberry-de-Valleyfield),,2715 Boulevard Monseigneur-Langlois J6S 5P7 Phone ,,Salaberry-de-Valleyfield ,QC,,United States,(450) 371-4462,,,,,,
Rona L'Entrepot,,200 St Jude Nord J2J 2R8 Phone ,,Granby ,QC,,United States,1 (450) 777-1444,,,,,,
Rona L'Entrepot,,9800 Boul. Leduc J4Y 0B4 Phone ,,Brossard ,QC,,United States,1 (450) 926-1310,,,,,,
CANAC (76802),,5711 boulevard Bourque J1N 1G8 Phone ,,Sherbrooke (Rock Forest) ,QC,,United States,1 (819) 864-6801,,,,,,
Alexandria Home Hardware Building Centre,,3524 County Road 34 K0C 1A0 Phone ,,Alexandria ,ON,,United States,1 (613) 525-3151,,,,,,
Rona L'Entrepot,,1221 Boul Des Promenades J3V 6H1 Phone ,,Saint Bruno ,QC,,United States,1 (450) 441-3888,,,,,,
Your Building Center,,280 Arch St Phone ,,Williamsport ,PA,17701,United States,1 (570) 326-4151,,,,,,
Rona L'Entrepot,,3400 Boul Portland J1L 2X1 Phone ,,Sherbrooke ,QC,,United States,1 (819) 829-7662,,,,,,
CANAC (65953),,1000 rue Galt Est J1G 1Y5 Phone ,,Sherbrooke ,QC,,United States,1 (819) 829-5950,,,,,,
Lannin Home Building Centre,,2682 Hwy 31 South P.O. Box 300 K0C 2K0 Phone ,,Winchester ,ON,,United States,1 (613) 774-2830,,,,,,
Shirley's,,7285 Route 54 Phone ,,Bath ,NY,14810,United States,1 (607) 776-2051,,,,,,
Erie Materials,,7784 So. Rte 220 HWY Phone ,,Linden ,PA,17744,United States,1 (570) 398-9820,,,,,,
Rona Home & Garden,,2342 Princess Street K7M 3G4 Phone ,,Kingston ,ON,,United States,1 (613) 531-6155,,,,,,
Rona Materiaux Pont-Masson,,113 Rue Saint-Jean-Baptiste E J0P 1P0 Phone ,,Rigaud ,QC,,United States,(450) 451-0805,,,,,,
Atkinson Home Building Centre-Kingston,,731 Development Drive K7M 4W6 Phone ,,Kingston ,ON,,United States,1 (613) 389-6709,,,,,,
Cedarview Builders Supply Ltd.,,453 Gladstone St K0C2K0 Phone ,,Winchester ,ON,,United States,(613) 774-2416,,,,,,
Hammond Lumber Company,,34 Pennell St Phone ,,Skowhegan ,ME,04976,United States,1 (207) 474-8122,,,,,,
Viking Lumber- Belfast,,Route 1 Searsport Ave. Phone ,,Belfast ,ME,04915,United States,1 (207) 273-3480,,,,,,
Crescent Lumber,,60 Fowler Road Phone ,,Orrington ,ME,04474,United States,(207) 825-3317,,,,,,
Cresent Lumber,,60 Fowler Road Phone ,,Orrington ,ME,04474,United States,1 (207) 825-3317,,,,,,
Hammond Lumber,,1087 Hammond street Phone ,,bangor ,ME,04401,United States,(866) 439-2264,,,,,,
Hammond Lumber Company,,1087 Hammond Street Phone ,,Bangor ,ME,04401,United States,1 (207) 945-9416,,,,,,
Crescent Lumber,,1360 Bennoch Road Phone ,,Stillwater ,ME,04489,United States,(207) 827-8088,,,,,,
Cresent Lumber,,1360 Bennoch Road Phone ,,Stillwater ,ME,04489,United States,1 (207) 827-8088,,,,,,
Hammond Lumber Company,,17 Minden Street Phone ,,Greenville ,ME,04441,United States,1 (207) 695-4583,,,,,,
Rona L E Regional,,555 Johnson Est J2S 7V6 Phone ,,Saint-Hyacinthe ,QC,,United States,1 (450) 771-0444,,,,,,
CANAC (84632),,2825 boulevard Saint-Joseph J2B 7P5 Phone ,,Drummondville ,QC,,United States,1 (819) 479-3209,,,,,,
Rona L'Entrepot,,7273 Boul H1M 2W2 Phone ,,Galeries D'Anjou Anjou ,QC,,United States,1 (514) 355-7889,,,,,,
Rona Le Regional,,875 Rue Hains J2C 7Y8 Phone ,,Drummondville ,QC,,United States,1 (819) 478-1222,,,,,,
Lefebvre & Benoit - BMB,,4500 Bernard Lefebvre H7C 0A5 Phone ,,Laval ,QC,,United States,1 (514) 381-7456,,,,,,
CANAC (49411),,10 boulevard Arthebaska Ouest G6S 0P2 Phone ,,Vicoriaville ,QC,,United States,1 (810) 752-7775,,,,,,
CANAC (57034),,15700 1ere Avenue G5Y 2A3 Phone ,,Saint-George ,QC,,United States,1 (418) 228-8999,,,,,,
Quin. Andre Lessard Inc.,,11240 2Nd Avenue East G5Y 1W2 Phone ,,St Georges De Beauce ,QC,,United States,1 (418) 228-9725,,,,,,
Centre De Renovation Drolet,,1104 Rue G6L 2M3 Phone ,,St. Louis Plessiville ,QC,,United States,1 (819) 362-6391,,,,,,
Rona L'Entrepot,,3065 Boul Le Carrefour H7T 1C7 Phone ,,Laval ,QC,,United States,1 (450) 688-0688,,,,,,
Rona Le Regional,,164 Boul Des Laurentides H7M 2P8 Phone ,,Laval ,QC,,United States,1 (450) 667-1270,,,,,,
Rona L'Entrepot,,175 Montee Masson J7K 3B4 Phone ,,Mascouche ,QC,,United States,1 (450) 474-1656,,,,,,
CANAC   (63891),,2350 boulevard des Recollets G8Z 3X7 Phone ,,Trois-Rivieres ,QC,,United States,1 (819) 374-2036,,,,,,
Rona Materiaux Pont-Masson,,9070 Route Sir Wilfrid Laurier Mirabel QC J7N 1P5 Phone ,,,,,United States,(450) 438-8880,,,,,,
CANAC   (71589),,1575 rue Saint-Maurice G8V 2N1 Phone ,,Trois-Rivieres (Cap-Madeleine) ,QC,,United States,1 (819) 694-0794,,,,,,
Materiaux Lavoie Inc,,967 Rue Commerciale G6Z 2P2 Phone ,,Levis ,QC,,United States,1 (418) 839-0017,,,,,,
Hawkesbury Lumber Supply Company,,900 Alexander Siversky Street K6A 3N4 Phone ,,Hawkesbury ,ON,,United States,1 (613) 632-4663,,,,,,
CANAC  (73387),,1450 route Des Rivieres Levis (Saint-Nicholas) QC G7A 2N9 Phone ,,,,,United States,1 (418) 836-8600,,,,,,
CANAC   (24661),,376 avenue Taniata G6W 5M6 Phone ,,Levis ,QC,,United States,1 (418) 839-0621,,,,,,
CANAC   (00760),,1230 rue Charles-Albanel G1X 4V1 Phone ,,Quebec (Sainte-Foy) ,QC,,United States,1 (418) 871-7900,,,,,,
Canac (L'Ancienne-Lorette),,6235 boulevard Wilfred-Hamel G2E 5W2 Phone ,,L'Ancienne-Lorette ,QC,,United States,1 (418) 872-2874,,,,,,
CANAC   (23413),,1805 boulevard Alphonse-Desjardins G6V 9K5 Phone ,,Levis ,QC,,United States,1 (418) 833-6667,,,,,,
CANAC   (24703),,49 Rue Marie-de-L'Incarnation G1N 3E5 Phone ,,Quebec ,QC,,United States,1 (418) 681-6221,,,,,,
CANAC   (24679),,475 boulevard Pierre-Bertrand G1M 3T8 Phone ,,Quebec ,QC,,United States,1 (418) 687-2960,,,,,,
LamarCo Home Hardware Building Centre,,8 Racine street K0A 1M0 Phone ,,Casselman ,ON,,United States,1 (613) 764-2876,,,,,,
Home Hardware Building Centre,,4920 Highway 17 K0B 1A0 Phone ,,Alfred ,ON,,United States,1 (613) 679-2252,,,,,,
Rona Materiaux Pont-Masson (Alfred),,4920 County Rd 17 K0B 1A0 Phone ,,Alfred ,ON,,United States,(613) 679-2252,,,,,,
Bytown Lumber - Limoges,,2129 Calypso Rd ,,Limoges ,K0A,2M0,United States,,,,,,,
Bonhomme - Papineauville,,2761 Hwy 148 J0V1R0 Phone ,,Papineauville ,QC,,United States,(819) 427-6264,,,,,,
Bytown Lumber - Rockland,,2678 rue Laurier Rockland ON Phone ,,,,,United States,(613) 446-4772,,,,,,
J. Lalonde & Fils (1980) LTD,,903 Lacroix Road K0A 2A0 Phone ,,Hammond ,ON,,United States,1 (613) 487-2760,,,,,,
Rona Renovateur Forget Claude Inc,,302 Rue De St Jovite J8E 1A1 Phone ,,Mont Tremblant ,QC,,United States,1 (819) 425-2784,,,,,,
Sarsfield Home Hardware Building Centre,,2781 Colonial Road P.O. Box 268 K0A 3E0 Phone ,,Sarsfield ,ON,,United States,1 (613) 835-2183,,,,,,
Kemptville Building Centre LTD,,2540 Country Road # 43 K0G 1J0 Phone ,,Kemptville ,ON,,United States,1 (613) 258-6000,,,,,,
CANAC   (23416),,1177 boulevard Pie-XI Sud G3K 1J4 Phone ,,Quebec ,QC,,United States,1 (418) 842-1911,,,,,,
Canac (Charlesbourgh),,4205 boulevard Henri-Bourassa G1H 3A5 Phone ,,Quebec (Charlesbourgh) ,QC,,United States,1 (418) 626-1144,,,,,,
CANAC   (24678),,1230 boulevard Louis-XIV G2L 1M2 Phone ,,Quebec ,QC,,United States,1 (418) 628-0450,,,,,,
CANAC   (46565),,420 boulevard Armand-Paris G1C 7X9 Phone ,,Quebec (Beauport) ,QC,,United States,1 (418) 667-7557,,,,,,
Canac,,1205 rue Wilbrod-Robert G1C 0L1 Phone ,,Quebec ,QC,,United States,1 (418) 667-1729,,,,,,
CANAC   (23418),,15 rue Bernier G2N 1J4 Phone ,,Quebec (Charlesbourg) ,QC,,United States,1 (418) 849-7111,,,,,,
Bonhomme - Buckingham,,700 rue Dollard J8L 3H3 Phone ,,Buckingham ,QC,,United States,(819) 986-7155,,,,,,
Kent Building Supplies,,R.R. # 2 Hwy 1 E3L 3X2 Phone ,,St. Stephen ,NB,,United States,1 (506) 466-1250,,,,,,
Kent Building Supplies,,377 Connell Road E7M 5G5 Phone ,,Woodstock ,NB,,United States,1 (506) 328-4000,,,,,,
Bytown Lumber - Ottawa,,1740 Queensdale Ave K1T 1J6 Phone ,,Glouchester ,ON,,United States,(613) 733-9303,,,,,,
The Wood Source,,6178 Mitch Owens Rd. K4M 0E2 Phone ,,Manotick ,ON,,United States,(613) 822-6800,,,,,,
Bmr Builder's Warehouse,,3636 Innes K1C 1T1 Phone ,,Orleans ,ON,,United States,1 (613) 824-2702,,,,,,
Perkins Home Building Centre,,2338 Roger Stevens Drive P.O. Box 100 K0A 2T0 Phone ,,North Gower ,ON,,United States,1 (613) 489-3735,,,,,,
Rona Home & Garden,,585 West Hunt Club Road K2G 5X6 Phone ,,Nepean ,ON,,United States,1 (613) 226-5636,,,,,,
Rona L'Entrepot,,777 Boul De La Cite J8T 8J9 Phone ,,Gatineau ,QC,,United States,1 (819) 568-3400,,,,,,
Richmond Home Hardware Building Centre,,6379 Perth Street P.O. Box 1191 K0A 2Z0 Phone ,,Richmond ,ON,,United States,1 (613) 838-4659,,,,,,
Pilon Ltee.,,5 Boulevard Montclair J8Y 2E3 Phone ,,Gatineau ,QC,,United States,(819) 771-5841,,,,,,
Kent Building Supplies,,116 Starrs Road B5A 2T5 Phone ,,Yarmouth ,NS,,United States,1 (902) 749-5000,,,,,,
Kent Building Supplies,,809 Bishop Drive E3C 2M6 Phone ,,Fredericton ,NB,,United States,1 (506) 451-3000,,,,,,
Kent Building Supplies,,85 Consumers Drive E2J 4Z6 Phone ,,Saint John ,NB,,United States,1 (506) 648-1000,,,,,,
Kent Building Supplies,,797 Millennium Drive E2E 6E3 Phone ,,Rothesay ,NB,,United States,1 (506) 847-6666,,,,,,
Annapolis Woodworkers LTD.,,132 St Anthony Street B0S 1A0 Phone ,,Annapolis Royal ,NS,,United States,1 (902) 532-2319,,,,,,
Fraser's Pro Home Center,,Trunk 1- Evangeline Trail B0S1A0 Phone ,,Annapolis Royal ,NS,,United States,(902) 532-1500,,,,,,
Kent Building Supplies,,88 Powers Road E3Z 2Z1 Phone ,,Grand Falls ,NB,,United States,1 (506) 475-2600,,,,,,
Kent Building Supplies,,66 Lower Cove Rd E4E 3M2 Phone ,,Sussex ,NB,,United States,1 (506) 432-2930,,,,,,
Kent Building Supplies,,833 St. Francis Road E3V 3K8 Phone ,,Edmunston ,NB,,United States,1 (506) 739-8327,,,,,,
Kent Building Supplies,,772 Victoria St E3V 3S9 Phone ,,Edmunston ,NB,,United States,1 (506) 735-1500,,,,,,
Fraser's Pro Home Center,,14 Pelton Drive B4N 3V7 Phone ,,Kentville ,NS,,United States,(902) 678-8044,,,,,,
C.E. Harrisons & Sons LTD.,,Rr # 6 B4H 3Y4 Phone ,,Amherst ,NS,,United States,1 (902) 667-3306,,,,,,
Kent Building Supplies,,55 Trinity Drive E1G 2J7 Phone ,,Moncton ,NB,,United States,1 (506) 862-3400,,,,,,
Kent Building Supplies,,40 Champlain Street E1A 1N3 Phone ,,Dieppe ,NB,,United States,1 (506) 859-5900,,,,,,
Rafuse Building Supplies,,180 Dykeland St B4P 1A2 Phone ,,Wolfville ,NS,,United States,1 (902) 542-2211,,,,,,
Kent Building Supplies,,2417 King George Hwy E1V 6W1 Phone ,,Miramichi ,NB,,United States,1 (506) 778-2600,,,,,,
Kent Building Supplies,,183 Irving Blvd E4S 3K3 Phone ,,Bouctouche ,NB,,United States,1 (506) 743-2438,,,,,,
Kent Building Supplies,,130 South Albion St B4H 2X3 Phone ,,Amherst ,NS,,United States,1 (902) 661-7100,,,,,,
Kent Building Supplies,,400 Route 430 Unit 11 E2A 6N6 Phone ,,Bathurst ,NB,,United States,1 (506) 548-2000,,,,,,
Kent Building Supplies,,15 Avenue Savoie E3M 4A8 Phone ,,Atholville ,NB,,United States,1 (506) 753-7662,,,,,,
CANAC   (92775),,228 rue des Negociants G5M 1B6 Phone ,,Rimouski ,QC,,United States,1 (418) 723-0007,,,,,,
Schurman Building Supplies,,19 Eustane Street C1N 4K3 Phone ,,Summerside ,PE,,United States,1 (902) 436-4291,,,,,,
Kent Building Supplies,,874 Sackville Drive B4E 1R9 Phone ,,Lr. Sackville ,NS,,United States,1 (902) 864-2000,,,,,,
Payzant Building Products LTD.,,250 Sackville Drive B4C 2R4 Phone ,,Sackville ,NS,,United States,1 (902) 864-0000,,,,,,
M.F. Schurman,,64 Broadway Street C0B 1M0 Phone ,,Kensington ,PE,,United States,1 (902) 836-4291,,,,,,
Kent Building Supplies,,225 Chain Lake Drive B3S 1C9 Phone ,,Halifax ,NS,,United States,1 (902) 450-2000,,,,,,
CANAC   (23415),,2061 bouleverd Talbot G7H 8B2 Phone ,,Chicoutimi ,QC,,United States,1 (418) 698-2992,,,,,,
Kent Building Supplies,,35 Mic Mac Blvd B3A 4Y8 Phone ,,Dartmouth ,NS,,United States,1 (902) 469-2000,,,,,,
Kent Building Supplies,,46 Robie Street B2N 5C7 Phone ,,Truro ,NS,,United States,1 (902) 897-6300,,,,,,
Hubcraft Tim-Br Mart,,209 Pictou Road B2N 2S7 Phone ,,Truro ,NS,,United States,1 (902) 893-7788,,,,,,
CANAC   (84624),,3205 boulevard du Royaume G7T 0B2 Phone ,,Jonquiere ,QC,,United States,1 (418) 542-3342,,,,,,
Bonhomme - Gatineau (Hull),,921 Bd St J8Z 1S8 ,,Joseph Gatineau ,QC,,United States,,,,,,,
Bonhomme - Aylmer,,455 Ch McConnell J9J 3M3 Phone ,,Aylmer ,QC,,United States,(819) 684-9859,,,,,,
Bytown Lumber - Carleton Place,,369 Town Line Road East K7C 3S2 Phone ,,Carleton Place ,ON,,United States,(613) 253-1212,,,,,,
Rona Cashway,,Rr # 1 Lombardy Road K7A 5B8 Phone ,,Smiths Falls ,ON,,United States,1 (613) 283-4411,,,,,,
Rideau Home Hardware Building Centre,,58 Abbott St K7A 1W5 Phone ,,Smiths Falls ,ON,,United States,1 (613) 283-2211,,,,,,
Rona L'Entrepot,,165 Boulevard Du Plateau J9A 3G1 Phone ,,Gatineau ,QC,,United States,1 (819) 776-3400,,,,,,
Rona - Stittsville,,6001 Hazeldean Rd. K2S 1B9 Phone ,,Stittsville ,ON,,United States,(613) 831-7775,,,,,,
Rona L'Entrepot Aylmer,,435 Chemin McConnell J9J 3M3 Phone ,,Gatineau ,QC,,United States,1 (819) 684-3275,,,,,,
Perth Home Hardware Building Centre,,115 Drummond Street West K7H 2K8 Phone ,,Perth ,ON,,United States,1 (613) 267-4501,,,,,,
Herlehy Home Building Centre,,10062 Perth Road South P.O. Box 47 K0G 1X0 Phone ,,Westport ,ON,,United States,1 (613) 273-2052,,,,,,
Levi Home Hardware Building Centre,,476 Ottawa Street P.O. Box 779 K0A 1A0 Phone ,,Almonte ,ON,,United States,1 (613) 256-3732,,,,,,
Deka Home Building Centre,,3730 Dunrobin Road RR # 3 K0A 3M0 Phone ,,Woodlawn ,ON,,United States,1 (613) 832-3800,,,,,,
Atkinson Home Hardware Building Centre,,5276 Hinchinbrooke Road P.O. Box 86 K0H 1W0 Phone ,,Hartington ,ON,,United States,1 (613) 372-2838,,,,,,
Bonhomme - Maniwaki,,462 Rue Saint Patrice J9E 1J1 Phone ,,Maniwaki ,QC,,United States,(819) 449-3840,,,,,,
Arnprior Building Supplies,,236 Madawaska Blvd K7S 3N2 Phone ,,Arnprior ,ON,,United States,1 (613) 623-8128,,,,,,
Sharbot Lake Home Building Centre,,14593 Road # 38 K0H 2P0 Phone ,,Sharbot Lake ,ON,,United States,1 (613) 279-2947,,,,,,
K M McLeod LTD,,# 30 Building Supply Lane K0J 1G0 Phone ,,Burnstown ,ON,,United States,1 (613) 432-3942,,,,,,
Renfrew Home Building Centre,,555 O'brien Road K7V 3Z3 Phone ,,Renfrew ,ON,,United States,1 (613) 432-8874,,,,,,
Lockwood Tim-Br Mart,,20 Bridge Street West K7V 3R2 Phone ,,Renfrew ,ON,,United States,1 (613) 432-4809,,,,,,
Rona,,364 Centre Street North K7R 1P6 Phone ,,Napanee ,ON,,United States,1 (613) 354-0464,,,,,,
Napanee Home Hardware Building Centre,,199 Jim Kimmett Boulevard K7R 3L1 Phone ,,Napanee ,ON,,United States,1 (613) 354-3315,,,,,,
Lookout Home Hardware Building Centre,,Highway # 509 and Mountain Road P.O. Box 52 K0H 2M0 Phone ,,Plevna ,ON,,United States,1 (613) 479-5579,,,,,,
Schauer Home Hardware Building Centre,,Main Street P.O. Box 94 K0J 1K0 Phone ,,Cobden ,ON,,United States,1 (613) 646-2033,,,,,,
Picton Home Hardware Building Centre,,13544 Loyalist Parkway K0K 2T0 Phone ,,Picton ,ON,,United States,1 (613) 476-7497,,,,,,
Rossow Home Hardware Building Centre,,40987 Highway # 41 South R.R. # 4 K8A 6W5 Phone ,,Pembroke ,ON,,United States,1 (613) 735-6806,,,,,,
C.A. Reiche & Sons LTD.,,Highway # 41 South K8A 6W5 Phone ,,Pembroke ,ON,,United States,1 (613) 735-4104,,,,,,
Smitty's Home Hardware Building Centre,,1395 Pembroke Street West K8A 7A5 Phone ,,Pembroke ,ON,,United States,1 (613) 732-2821,,,,,,
Rashotte Home Building Centre,,36 Metcalfe Street P.O. Box 220 K0K 3J0 Phone ,,Tweed ,ON,,United States,1 (613) 478-2539,,,,,,
John H. Myers & Son Inc,,2200 Monroe Street Phone ,,York ,PA,17404,United States,1 (717) 792-2500,,,,,,
John H. Myers & Son Inc,,3442 Simpson Ferry Road Phone ,,Camp Hill ,PA,17011,United States,1 (717) 737-0471,,,,,,
T.W Perry,,4321 Fitch Ave Phone ,,Baltimore ,MD,21236,United States,1 (410) 350-0750,,,,,,
T.W. Perry,,4321 Fitch Avenue Phone ,,Baltimore ,MD,21236,United States,1 (410) 350-0750,,,,,,
Rickenbaugh Lumber,,1201 Main Street ,,Mc Alisterville ,PA,17049,United States,,,,,,,
Schmuck Lumber Company,,225 Railroad Street Phone ,,Hanover ,PA,17331,United States,1 (717) 637-6616,,,,,,
Outdoor Specialties  Inc.,,16208 Hanover Pike Phone ,,Hampstead ,MD,21074,United States,(410) 374-0810,,,,,,
84 Lumber,,301 Route 15 North Phone ,,Dillsburg ,PA,17019,United States,1 (717) 766-8491,,,,,,
Carter Lumber,,1840 Harrisburg Pike Phone ,,Carlisle ,PA,17015,United States,1 (717) 245-0404,,,,,,
Friel Lumber,,100 Friel Place Phone ,,Queenstown ,MD,21658,United States,1 (410) 827-8811,,,,,,
National Lumber - Baltimore,,4901 Pulaski Hwy Phone ,,Baltimore ,MD,21224,United States,1 (410) 675-4740,,,,,,
Outdoor Specialties,,16208 Hanover Pike ,,Hampstead ,MD,21074,United States,,,,,,,
John H. Myers & Son Inc,,108 Ram Drive Phone ,,Hanover ,PA,17331,United States,1 (717) 632-0217,,,,,,
Louis J Grasmick Lumber Co,,6715 Quad Ave Phone ,,Baltimore ,MD,21237,United States,(410) 325-9663,,,,,,
Your Building Center,,317 Bellefonte Avenue Phone ,,Lock Haven ,PA,17745,United States,1 (570) 748-6757,,,,,,
Reisterstown Lumber Company Inc,,13040 Old Hanover Rd Phone ,,Reisterstown ,MD,21136,United States,1 (410) 833-1300,,,,,,
84 Lumber,,7947 Fort Smallwood Road Phone ,,Curtis Bay ,MD,21226,United States,1 (410) 255-8400,,,,,,
Fence and Deck Direct,,1901 Halethorpe Avenue Phone ,,Halethorpe ,MD,21227,United States,1 (410) 247-0707,,,,,,
T.W. Perry,,8131 Snouffer School Rd Phone ,,Gaithersburg ,MD,20879,United States,1 (301) 840-9600,,,,,,
T.W. Perry,,9015 Brookville Road Phone ,,Silver Spring ,MD,20910,United States,1 (301) 652-2600,,,,,,
Barrons Lumber,,23 W Diamond Ave Phone ,,Gaithersburg ,MD,20877,United States,1 (301) 948-6600,,,,,,
T.W. Perry,,7740 Southern Drive Phone ,,Springfield ,VA,22150,United States,1 (703) 451-6500,,,,,,
SCHMUCK LUMBER CO. 1118,,615 YORK STREET ,,GETTYSBURG ,PA,17325,United States,,,,,,,
Lusby Home Center/Dunkirk Supply,,8400 Nursery Road Phone ,,Lusby ,MD,20657,United States,1 (410) 586-3667,,,,,,
BMC,,6295 20 Edsall Road Phone ,,Alexandria ,VA,22312,United States,1 (703) 823-2100,,,,,,
Fisher Lumber,,525 E. Gude Drive Phone ,,Rockville ,MD,20850,United States,1 (301) 424-6500,,,,,,
Sheets Wholesale Inc,,430 Mill Street Phone ,,Vienna ,VA,22180,United States,1 (703) 938-9110,,,,,,
84 Lumber,,1690 Baltimore Annapolis Blvd Phone ,,Arnold ,MD,21012,United States,1 (410) 757-4684,,,,,,
84 Lumber,,336 Manchester Road Phone ,,Westminster ,MD,21157,United States,1 (410) 876-8590,,,,,,
J.F. Johnson Lumber Co.,,8200 Veterans Highway Phone ,,Millersville ,MD,21108,United States,1 (800) 683-5200,,,,,,
Adkins Company,,3 Harrison Ave Phone ,,Berlin ,MD,21811,United States,(410) 641-2200,,,,,,
J.F.Johnson Lumber Co.,,3120 Solomons Island Road Phone ,,Edgewater ,MD,21037,United States,1 (410) 956-0400,,,,,,
John S. Wilson Lumber Company,,12950 Livestock Road Phone ,,West Friendship ,MD,21794,United States,1 (410) 442-2400,,,,,,
Penns Valley Building Supply,,3602 Penns Valley Road Phone ,,Spring Mills ,PA,16875,United States,1 (814) 422-0792,,,,,,
Zimmerman's Ace Home Center,,3801 Sandy Spring Road Phone ,,Burtonsville ,MD,20866,United States,1 (301) 421-1900,,,,,,
84 Lumber,,4484 Quad County Court Phone ,,Mount Airy ,MD,21771,United States,1 (301) 829-1984,,,,,,
N.Z. Cramer,,101 Creagerstown Rd Phone ,,Woodsboro ,MD,21798,United States,1 (301) 898-9116,,,,,,
Hyatt Building Supply Co. Inc.,,26200 Ridge Rd Phone ,,Damascus ,MD,20872,United States,1 (301) 253-2131,,,,,,
John H. Myers & Son Inc,,1090 South Main Street Phone ,,Chambersburg ,PA,17201,United States,1 (717) 263-9151,,,,,,
84 Lumber,,Box 667 Phone ,,Milesburg ,PA,16853,United States,1 (814) 355-1584,,,,,,
Lezzer Lumber - State College,,2350 East College Avenue Phone ,,State College ,PA,16801,United States,1 (814) 237-3511,,,,,,
Your Building Center,,1120 E College Ave Phone ,,State College ,PA,16801,United States,1 (814) 238-4971,,,,,,
Your Building Center,,200 Allegheny St Phone ,,Huntingdon ,PA,16652,United States,1 (814) 643-2120,,,,,,
84 Lumber,,4460 Crain Hwy Phone ,,White Plains ,MD,20695,United States,1 (301) 843-8480,,,,,,
The Roof Center,,9055 Phone ,,Gaithersburg ,MD,20877,United States,1 (301) 548-0548,,,,,,
Carter Lumber,,2155 Wayne Rd Phone ,,Chambersburg ,PA,17202,United States,1 (717) 263-0822,,,,,,
Carter Lumber,,7101 Geoffrey Way Phone ,,Frederick ,MD,21704,United States,1 (301) 874-9203,,,,,,
ProBuild,,7203 McKinney Circle Phone ,,Frederick ,MD,21704,United States,1 (301) 670-0800,,,,,,
Builders First Source,,4011 Rock Hall Rd Phone ,,Point Of Rocks ,MD,21777,United States,1 (301) 874-5151,,,,,,
Roof Center,,5900 Farrington Ave Phone ,,Alexandria ,VA,22304,United States,(703) 941-6400,,,,,,
84 Lumber,,203 South Maple Avenue Phone ,,Brunswick ,MD,21716,United States,1 (301) 834-8422,,,,,,
Carter Lumber,,10120 Governor Lane BLVD Phone ,,Williamsport ,MD,21795,United States,1 (301) 223-8606,,,,,,
G.A Miller Lumber Company,,142 West Potomac Street Phone ,,Williamsport ,MD,21795,United States,1 (301) 582-1200,,,,,,
Your Building Center,,516 North Front Street Phone ,,Philipsburg ,PA,16866,United States,1 (814) 342-4670,,,,,,
T.W. Perry,,41 Catoctin Circle Phone ,,Leesburg ,VA,20175,United States,1 (703) 777-3030,,,,,,
Tart Lumber Co.Inc.,,22183 Shaw Road Phone ,,Sterling ,VA,20166,United States,1 (703) 450-5880,,,,,,
Dunkirk Supply,,26650 Point Lookout Road Phone ,,Leonardtown ,MD,20650,United States,1 (301) 997-1215,,,,,,
Loudoun Lumber,,121 North Bailey Lane Phone ,,Purcellville ,VA,20132,United States,1 (540) 338-1840,,,,,,
84 Lumber,,134 Wescott Dr Phone ,,Ranson ,WV,25438,United States,(304) 728-0884,,,,,,
84 Lumber,,326 Charles Town Rd Phone ,,Martinsburg ,WV,25401,United States,(304) 263-8884,,,,,,
Close's Lumber,,11 Buckler Drive Phone ,,Roulette ,PA,16746,United States,(814) 554-7543,,,,,,
Santelli Lumber,,1660 Division St Phone ,,Palmyra ,NY,14522,United States,1 (315) 597-4884,,,,,,
Victor Coal & Lumber Company Inc,,32 School St Phone ,,Victor ,NY,14564,United States,1 (716) 924-3032,,,,,,
84 Lumber,,8055 Victor Pittsford Rd Phone ,,Victor ,NY,14564,United States,1 (585) 425-3130,,,,,,
Lakeside Quality Building Materials,,6296 Lakeside Road Phone ,,Ontario ,NY,14519,United States,(315) 524-9420,,,,,,
84 Lumber,,18308 NR NORTH ST Phone ,,Keller ,VA,23401-0284,United States,1 (757) 787-9484,,,,,,
Builders First Source,,9109 Owens Dr Phone ,,Manassas Park ,VA,20111,United States,1 (703) 330-8095,,,,,,
Building Supply of Manassas,,9412 Stonewall Rd Phone ,,Manassas ,VA,20110,United States,(703) 331-5814,,,,,,
Barron's Lumber,,11801 Balls Ford Rd Phone ,,Manassas ,VA,20109,United States,1 (571) 292-2900,,,,,,
84 Lumber,,7960 Notes Drive Phone ,,Manassas ,VA,20109,United States,1 (703) 330-8420,,,,,,
BMC,,10589 Redoubt Road Phone ,,Manassas ,VA,20110,United States,1 (703) 396-5300,,,,,,
84 Lumber,,326 Charles Town Rd Phone ,,Martinsburg ,WV,25405,United States,1 (304) 263-8884,,,,,,
84 Lumber,,4400 6th Avenue Phone ,,Altoona ,PA,16602,United States,1 (814) 942-8400,,,,,,
Cove Lumber,,1951 Cross Cove Road Phone ,,Martinsburg ,PA,16662,United States,1 (814) 793-4727,,,,,,
Your Building Center HQ,,2607 Beale Avenue Phone ,,Altoona ,PA,16603,United States,1 (814) 944-9436,,,,,,
Lezzer Lumber - Curwensville,,331 Schofield Street Phone ,,Curwensville ,PA,16833,United States,1 (814) 236-0221,,,,,,
Burke's Home Center,,1077 Million Dollar Highway Phone ,,St. Mary's ,PA,15857,United States,1 (814) 781-1519,,,,,,
Your Building Center,,85 State Street Phone ,,Everett ,PA,15537,United States,1 (814) 652-2145,,,,,,
Close's Lumber,,625 North Union Street Phone ,,Olean ,NY,14760,United States,(716) 372-8888,,,,,,
Lezzer Lumber - DuBois,,5279 Shaffer Road Phone ,,DuBois ,PA,15801,United States,1 (814) 371-9311,,,,,,
Your Building Center,,24 Parkway Drive Phone ,,DuBois ,PA,15801,United States,1 (814) 371-2880,,,,,,
Your Building Center,,113 Mann St Phone ,,Bedford ,PA,15522,United States,1 (814) 623-8167,,,,,,
Frederick Block,,1040 Martinsburg Pike Phone ,,Winchester ,VA,22604,United States,(540) 667-1261,,,,,,
Frogale Lumber,,119 Arbor Ct Phone ,,Winchester ,VA,22602,United States,1 (540) 678-4522,,,,,,
Bobik's Home Center,,603 24th Street Phone ,,North Cambria ,PA,15714,United States,1 (814) 948-6280,,,,,,
The Long Barn Inc.,,223 Mini Mall Rd Ste. 1 Phone ,,Ebensburg ,PA,15931,United States,1 (814) 472-9122,,,,,,
The Long Barn II,,777 Locust Street Phone ,,St. Michael ,PA,15951,United States,1 (814) 495-4666,,,,,,
Norandex,,141 Lakeville Cr Phone ,,Winchester ,VA,22603,United States,1 (540) 662-2244,,,,,,
ProBuild,,1182 Martinsburg Pike Phone ,,Winchester ,VA,22603,United States,1 (540) 667-4770,,,,,,
Carter Lumber,,1961 S Loudoun St Phone ,,Winchester ,VA,22601,United States,1 (540) 665-3856,,,,,,
B & L Wholesale Supply Inc.,,70 Hartford St Phone ,,Rochester ,NY,14605,United States,1 (585) 546-6616,,,,,,
The Treated Lumber Outlet,,5406 City Line Rd Phone ,,Hampton ,VA,23661,United States,1 (757) 245-9246,,,,,,
Allied Building Products,,307 Ewell Rd Phone ,,Williamsburg ,VA,23188,United States,(757) 564-6496,,,,,,
ProBuild,,404 Greentree Rd Phone ,,Chesapeake ,VA,23320,United States,1 (757) 548-1532,,,,,,
84 Lumber,,64 Simpson Rd Phone ,,Fredericksburg ,VA,22405,United States,1 (540) 371-1444,,,,,,
Jim Carpenter Company,,1 Joseph Mills Dr Phone ,,Fredericksburg ,VA,22408,United States,1 (540) 899-0031,,,,,,
ABC Supply Company Inc 082,,234 Industrial Court Phone ,,Fredericksburg ,VA,22408,United States,1 (540) 710-0800,,,,,,
Cherry Street Building Supply Corp.,,1418 Orange Road Phone ,,Culpeper ,VA,22701,United States,1 (540) 825-0397,,,,,,
Builders First Source,,13234 Airpark Dr Phone ,,Elkwood ,VA,22718,United States,1 (540) 825-0757,,,,,,
Kempsville Building Materials,,12144 Washington Hwy Phone ,,Ashland ,VA,23005,United States,1 (804) 798-1514,,,,,,
Ruffin & Payne Inc,,4200 Vawter Avenue Phone ,,Richmond ,VA,23222,United States,1 (804) 329-2691,,,,,,
84 Lumber,,9071 Winchester Rd Phone ,,Front Royal ,VA,22630,United States,1 (540) 636-8420,,,,,,
84 Lumber,,14209 Lovers Lane Phone ,,Culpeper ,VA,22701,United States,1 (540) 825-8470,,,,,,
Kempsville Building Materials,,814 Chapman Way Phone ,,Newport News ,VA,23608,United States,1 (757) 875-1850,,,,,,
Pro Build,,12611 Bermuda Triangle Rd Phone ,,Chester ,VA,23836,United States,1 (804) 748-2010,,,,,,
NB Goodwyn & Sons,,2510 Bellwood Rd Phone ,,Richmond ,VA,23237,United States,1 (804) 228-4041,,,,,,
Better Living Inc,,136 Better Living Drive Phone ,,Troy ,VA,22974,United States,1 (434) 591-2200,,,,,,
Berlin Lumber Company,,2988 Berlin Plank Road Phone ,,Berlin ,PA,15530,United States,1 (814) 267-4651,,,,,,
Better Living,,2070 Seminole Trail Phone ,,Charlottesville ,VA,22901,United States,1 (434) 973-4333,,,,,,
Kempsville Building Materials,,3300 Business Center Drive Phone ,,Chesapeake ,VA,23323,United States,1 (757) 485-8580,,,,,,
84 Lumber,,Rr 3 Box 3276 Route 220 Phone ,,Keyser ,WV,26726,United States,1 (304) 788-3884,,,,,,
The Roof Center,,1738 Scottsville Rd Phone ,,Charlottesville ,VA,22902,United States,1 (434) 295-0442,,,,,,
Blue Ridge Builders Supply,,5221 Rockfish Gap Tnpk Phone ,,Charlottesville ,VA,22903,United States,1 (434) 823-1387,,,,,,
Exterior Distributors,,2020 South Main Street Phone ,,Harrisonburg ,VA,22801,United States,1 (800) 398-3478,,,,,,
Kempsville Building Materials,,109 Impact Blvd Phone ,,Elizabeth City ,NC,27909,United States,1 (252) 264-2323,,,,,,
Kellogg Building Materials,,1201 Duck Rd Phone ,,Duck ,NC,27949,United States,1 (252) 261-8121,,,,,,
Guy C Lee Building Materials,,4002 N Croatan Hwy Phone ,,Kitty Hawk ,NC,27949,United States,1 (252) 255-4280,,,,,,
Belleville Home Building Centre,,445 Dundas Street East K8N 1G2 Phone ,,Belleville ,ON,,United States,1 (613) 968-3451,,,,,,
Quinte West Home Hardware Building Centre,,1983 Old Highway 2 West K8N 4Z2 Phone ,,Belleville ,ON,,United States,1 (613) 966-3990,,,,,,
Rona Cashway,,260 Bell Blvd K8P 5H6 Phone ,,Belleville ,ON,,United States,1 (613) 967-8080,,,,,,
84 Lumber,,1170 North Greece Road Phone ,,Rochester ,NY,14626,United States,1 (585) 225-2662,,,,,,
Lakeside Quality Building Materials,,5954 Brockport Spencerport RD (RT 31) Phone ,,Brockport ,NY,14420,United States,(585) 637-4710,,,,,,
Trenton Hardware Home Building Center,,224 Front Street K8V 4P2 Phone ,,Trenton ,ON,,United States,1 (613) 392-2801,,,,,,
Rona Cashway,,Glen Miller Road North K8V 5W6 Phone ,,Trenton ,ON,,United States,1 (613) 394-3351,,,,,,
Rona Cashway,,436 Front Street West K0K 3E0 Phone ,,Stirling ,ON,,United States,1 (613) 395-3361,,,,,,
Cole's Tim-Br Mart,,47 Ontario Street K0K 1H0 Phone ,,Brighton ,ON,,United States,1 (613) 475-2810,,,,,,
Genesee Lumber,,76 Franklin Street Phone ,,Batavia ,NY,14021,United States,1 (585) 343-0777,,,,,,
Rona Cashway,,509 Grand Road K0L 1L0 Phone ,,Campbellford ,ON,,United States,1 (705) 653-1440,,,,,,
John Sixt & Sons HQ,,13990 E. Schutt Road Phone ,,Chaffee ,NY,14030,United States,1 (716) 492-2390,,,,,,
84 Lumber,,12520 Olean Road Phone ,,Chaffee ,NY,14030,United States,1 (716) 496-5284,,,,,,
Barden & Robeson Corporation,,103 Kelly Avenue Phone ,,Middleport ,NY,14105,United States,(716) 735-3732,,,,,,
Broadbent's Home Hardware Building Centre,,Highway # 7 West K0K 2M0 Phone ,,Marmora ,ON,,United States,1 (613) 472-2539,,,,,,
Cobourg Home Building Centre,,429 William Street K9A 3A4 Phone ,,Cobourg ,ON,,United States,1 (905) 372-6895,,,,,,
Rona Cashway,,1125 Division Street K9A 4L1 Phone ,,Cobourg ,ON,,United States,1 (905) 372-2133,,,,,,
Gilmer's Home Hardware Building Centre,,177 Toronto Road R.R. # 1 L1A 3V5 Phone ,,Port Hope ,ON,,United States,1 (905) 885-4568,,,,,,
Rona Cashway,,27928 Highway 62 South K0L 1C0 Phone ,,Bancroft ,ON,,United States,1 (613) 332-3320,,,,,,
Apsley Home Building Centre,,18 Tucker Street P.O. Box 219 K0L 1A0 Phone ,,Apsley ,ON,,United States,1 (705) 656-4295,,,,,,
Donia's Tim-Br Mart,,Highway # 28 South Of Apsley K0L 1A0 Phone ,,One Apsley ,ON,,United States,1 (705) 656-4351,,,,,,
Alf Curtis Home Improvements,,370 Parkhill Rd East K9L 1C3 Phone ,,Peterborough ,ON,,United States,1 (705) 742-4690,,,,,,
Great Valley Builders Supply,,4827 Rt. 219 Phone ,,Great Valley ,NY,14741,United States,1 (716) 945-5450,,,,,,
Newfane Lumber Company,,554 Ohio Street Phone ,,Lockport ,NY,14094,United States,1 (716) 434-5577,,,,,,
84 Lumber,,11350 Transit Rd Phone ,,East Amherst ,NY,14051,United States,1 (716) 688-0484,,,,,,
Rona,,898 Monaghan Road K9J 5K4 Phone ,,Peterborough ,ON,,United States,1 (705) 743-9723,,,,,,
Kingdon Tim-Br Mart,,309 Lansdowne Street E K9J 6X9 Phone ,,Peterborough ,ON,,United States,1 (705) 749-1144,,,,,,
Kingdon Tim-Br Mart,,34 Deyncourt Street K0L 2H0 Phone ,,Lakefield ,ON,,United States,1 (705) 652-3361,,,,,,
Merrett Home Hardware,,1460 Landsdowne Street West K9J 2A2 Phone ,,Peterborough ,ON,,United States,1 (705) 743-3553,,,,,,
John Sixt & Sons,,619 Rock City Street Phone ,,Little Valley ,NY,14755,United States,1 (716) 938-6521,,,,,,
Combermere Home Building Centre,,1142 A Farmer Rd K0J 1L0 Phone ,,Combermere ,ON,,United States,1 (613) 756-2436,,,,,,
Barry's Bay Home Building Centre,,306 John Street K0J 1B0 Phone ,,Barrys Bay ,ON,,United States,1 (613) 756-2794,,,,,,
Millwork Home Centre,,1052 County Rd # 19 K9J 6X2 Phone ,,Peterborough ,ON,,United States,1 (705) 745-5705,,,,,,
Chemong Home Hardware Building Centre,,1699 Chemong Road North R.R. # 1 K9J 6X2 Phone ,,Peterborough ,ON,,United States,1 (705) 748-9111,,,,,,
Monaghan Lumber Specialties,,2129 Davis Rd K9J 8G6 Phone ,,North Monaghan Peterborough ,ON,,United States,1 (705) 742-9353,,,,,,
Deep River Home Hardware Building Centre,,33327 Highway # 17 West P.O. Box 1270 K0J 1P0 Phone ,,Deep River ,ON,,United States,1 (613) 584-3375,,,,,,
Bowmanville Home Building Center,,246 King Street East L1C 1P5 Phone ,,Bowmanville ,ON,,United States,1 (905) 623-3388,,,,,,
Lindsay Home Building Centre,,220 Lindsay Street South K9V 2N3 Phone ,,Lindsay ,ON,,United States,1 (705) 324-3516,,,,,,
Handley Lumber Limited,,12 Helen Street K0M 1N0 Phone ,,Fenelon Falls ,ON,,United States,1 (705) 887-3242,,,,,,
Haliburton Timber Mart,,Highway 121 K0M 1S0 Phone ,,Haliburton ,ON,,United States,1 (705) 457-2510,,,,,,
Rona Cashway,,36 Harvest Road K9V 4S3 Phone ,,Lindsay ,ON,,United States,1 (705) 878-8135,,,,,,
84 Lumber,,2286 Military Road Phone ,,Tonawanda ,NY,14150,United States,1 (716) 695-3784,,,,,,
Turkstra Lumber,,308 Gorham Road L0S 1N0 Phone ,,Ridgeway ,ON,,United States,1 (905) 894-5200,,,,,,
Turkstra Lumber,,4555 Kent Ave L2H 1J1 Phone ,,Niagara Falls ,ON,,United States,1 (905) 374-0176,,,,,,
Penner Home Hardware Building Centre,,Highway # 55 P.O. Box 75 L0S 1T0 Phone ,,Virgil ,ON,,United States,1 (905) 468-3242,,,,,,
Rona Cashway,,250 Dunkirk Road L2M 7X2 Phone ,,St. Catherines ,ON,,United States,1 (905) 684-9264,,,,,,
Holland Building Centre,,1277 Wilson Road N L2H 1K5 Phone ,,Oshawa ,ON,,United States,1 (905) 725-4709,,,,,,
Millwork Home Centre,,1279 N Simcoe Street L1G 4X1 Phone ,,Oshawa ,ON,,United States,1 (905) 728-6291,,,,,,
The Deck Store,,133 Taunton Rd. West L1G 3T4 Phone ,,Oshawa ,ON,,United States,1 (905) 725-1957,,,,,,
Port Colborne Home Hardware Building Centre,,361 Davis Street L3K 1Z5 Phone ,,Port Colborne ,ON,,United States,1 (905) 834-3634,,,,,,
Chautauqua Brick,,6801 Depot Street Phone ,,Cherry Creek ,NY,14723,United States,(716) 296-5350,,,,,,
Kala's Home Hardware,,1380 4Th Avenue L3C 1M3 Phone ,,St. Catharines ,ON,,United States,1 (905) 688-5520,,,,,,
Desmit Tim-Br Mart,,920 Niagara Street North L3V 1R5 Phone ,,Welland ,ON,,United States,1 (905) 732-2444,,,,,,
Frank's Home Building Centre,,270 Main Street West L3K 3V5 Phone ,,Port Colborne ,ON,,United States,1 (905) 834-4913,,,,,,
United Lumber Home Hardware Building Centre,,864 Taunton Road L1H 7K4 Phone ,,Oshawa ,ON,,United States,1 (905) 579-2279,,,,,,
Cox Home Hardware Building Centre,,693 Pelham Road L3C 3C9 Phone ,,Welland ,ON,,United States,1 (905) 734-9641,,,,,,
Mitchell Brothers Building Supplies,,5 Church St L0H 1G0 Phone ,,Brooklin ,ON,,United States,1 (905) 655-4991,,,,,,
Rona Cashway,,5268 Montrose Road L2R 6P9 Phone ,,Niagra Falls ,ON,,United States,1 (905) 356-2279,,,,,,
84 Lumber,,937 Route 394 Phone ,,Kennedy ,NY,14747,United States,1 (716) 267-3884,,,,,,
Millwork Home Centre,,19 Notion Road L1G 6K7 Phone ,,Ajax ,ON,,United States,1 (905) 683-6771,,,,,,
Lake Scugog Lumber,,11 Van Edward Drive L9L 1H7 Phone ,,Port Perry ,ON,,United States,1 (905) 985-7391,,,,,,
Chautauqua Brick,,67 Orchard Street Phone ,,Fredonia ,NY,14063,United States,1 (716) 672-4300,,,,,,
Central Fairbank Lumber,,2296 Gerrard Street East M6J 2Z7 Phone ,,Toronto ,ON,,United States,1 (416) 699-8440,,,,,,
Danforth Lumber Company,,25 Dawes Road M4C 5A8 Phone ,,Toronto ,ON,,United States,1 (416) 699-9393,,,,,,
Rona Home & Garden Golden Mile,,768 Warden Ave M1L 2G9 Phone ,,Scarborough ,ON,,United States,1 (416) 751-7556,,,,,,
Rona Cashway,,4398 Ontario Street L0R 1B0 Phone ,,Beamsville ,ON,,United States,1 (905) 563-4971,,,,,,
Chautauqua Brick,,34 Harrison Street Phone ,,Jamestown ,NY,14701,United States,1 (716) 661-3825,,,,,,
Rona Lansing,,8 William Kitchen Rd M1P 5B7 Phone ,,Scarborough ,ON,,United States,1 (416) 291-9961,,,,,,
Brandon Forest Products,,3447 Kennedy Road N0A 1n0 Phone ,,Scarborough ,ON,,United States,1 (416) 298-2551,,,,,,
Turkstra Lumber,,304 Station Road L0R 2A1 Phone ,,Smithville ,ON,,United States,1 (905) 957-3318,,,,,,
Rona Lansing,,8651 Mccowan Rd L3P 4H1 Phone ,,Markham ,ON,,United States,1 (905) 294-5200,,,,,,
Rona Cashway,,8 Welwood Drive L9P 1Z7 Phone ,,Uxbridge ,ON,,United States,1 (905) 852-7598,,,,,,
Uxbridge Home Centre Limited,,89 Brock Street West L9P 1P5 Phone ,,Uxbridge ,ON,,United States,1 (905) 852-3591,,,,,,
Chautauqua Brick HQ,,3790 Route 430 Phone ,,Bemus Point ,NY,14712,United States,1 (716) 386-3825,,,,,,
New Canadian Lumber,,804 Dupont Street M6G 1Z6 Phone ,,Toronto ,ON,,United States,1 (416) 531-3625,,,,,,
Shell Lumber Home Building Centre,,33 Edward Street P.O. Box 429 L4A 7Z6 Phone ,,Stouffville ,ON,,United States,1 (905) 640-3440,,,,,,
Downtown Lumber,,9 Morrow Avenue M6R 2H9 Phone ,,Toronto ,ON,,United States,1 (416) 532-4356,,,,,,
GrandErie Home Hardware,,1051 Broad Street East L0B 1C0 Phone ,,Dunnville ,ON,,United States,1 (905) 774-6115,,,,,,
Turkstra Lumber,,200 Ramsey St N1A 2X1 Phone ,,Dunnville ,ON,,United States,1 (905) 774-7571,,,,,,
Lakeshore Lumber,,134 Eighth Street M8V 3C6 Phone ,,Etobicoke ,ON,,United States,1 (416) 251-2281,,,,,,
Rona Lansing,,4208 Dundas St West M8X 1Y6 Phone ,,Etobicoke ,ON,,United States,1 (416) 232-1460,,,,,,
Ratcliff Lumber,,12307 Woodbine Avenue L1K 2B8 Phone ,,Gormley ,ON,,United States,1 (905) 888-1971,,,,,,
HHBC Wilson Avenue,,1841 Wilson Avenue P2A 2L8 Phone ,,Toronto ,ON,,United States,1 (416) 740-9131,,,,,,
Downtown Lumber,,172 Ossignton Ave M9M 1A2 Phone ,,Toronto ,ON,,United States,1 (416) 532-2813,,,,,,
The Deck Sore,,789 Arrow Rd. Unit 10 M9M 2L4 Phone ,,Toronto ,ON,,United States,1 (416) 749-3963,,,,,,
Rona Lansing,,650 Dundas Street East L5A 3Y6 Phone ,,Mississauga ,ON,,United States,1 (905) 276-6350,,,,,,
Rona Cashway,,2311 Royal Windsor Drive L6J 7X7 Phone ,,Oakville ,ON,,United States,1 (905) 337-1533,,,,,,
Central Fairbank Lumber,,1900 Steeles Avenue West L4L 5Y9 Phone ,,Concord ,ON,,United States,1 (905) 738-2111,,,,,,
Rona Martin Grove,,1170 Martin Grove Road M9W 4X1 Phone ,,Etobicoke ,ON,,United States,1 (416) 241-9167,,,,,,
Hanford Lumber,,45 Bethridge Road M9W 1M9 Phone ,,Rexdale ,ON,,United States,(416) 743-5384,,,,,,
Rona Home & Garden,,67 Colossus Dr L4L 9J8 Phone ,,Woodbridge ,ON,,United States,1 (905) 850-6612,,,,,,
Turkstra Lumber,,370 Green Road L8E 2M3 Phone ,,Stoney Creek ,ON,,United States,1 (905) 561-1112,,,,,,
Mount Albert Home Hardware Building Centre,,6 Princess St L0G 1M0 Phone ,,Mount Albert ,ON,,United States,1 (905) 473-2341,,,,,,
Bromon Lumber,,2-60 Caster Ave L4R 4P4 Phone ,,Woodbridge ,ON,,United States,1 (905) 851-7053,,,,,,
Rona Lansing,,399 Speers Road L6K 3T2 Phone ,,Oakville ,ON,,United States,1 (905) 844-8010,,,,,,
The Deck Store,,454 South Service Rd. West L6K 2H4 Phone ,,Oakville ,ON,,United States,1 (905) 337-7707,,,,,,
Aurora Home Building Center,,289 Wellington St E L4G 6H6 Phone ,,Aurora ,ON,,United States,1 (905) 727-4751,,,,,,
Rona,,633 Parkdale Ave North L8H 5Z1 Phone ,,Hamilton ,ON,,United States,1 (905) 547-3444,,,,,,
Rona Cashway,,1245 Rymal Road East L0R 1P0 Phone ,,Hamilton ,ON,,United States,1 (905) 383-3355,,,,,,
Rona Lansing,,1830 Ironstone Dr L7L 5V3 Phone ,,Burlington ,ON,,United States,1 (905) 332-8868,,,,,,
Lakeview Builders Supply,,11 Memorial Avenue N0A 1R0 Phone ,,North Bay ,ON,,United States,1 (705) 472-6700,,,,,,
Beaverton Home Building Centre,,488 Mara Road P.O. Box 860 L0K 1A0 Phone ,,Beaverton ,ON,,United States,1 (705) 426-7301,,,,,,
Haldimand Building Centre,,86 Munsee Street North Highway # 54 N0A 1E0 Phone ,,Cayuga ,ON,,United States,1 (905) 772-3365,,,,,,
Rona Home & Garden,,2830 Queen Street East L6S 6E8 Phone ,,Brampton ,ON,,United States,1 (905) 458-4050,,,,,,
Newton Enterprises,,Po Box 1148 L6W 1T5 Phone ,,Portage La Prairie ,MB,,United States,1 (204) 267-2564,,,,,,
Turkstra Lumber,,1050 Upper Wellington L9A 3S6 Phone ,,Hamilton ,ON,,United States,1 (905) 388-8220,,,,,,
Shell Lumber Home Building Centre - Sutton,,20971 Dalton Road P.O. Box 187 L0E 1R0 Phone ,,Sutton West ,ON,,United States,1 (905) 722-6561,,,,,,
Turkstra Lumber,,61 Hamilton Street L0R 2H6 Phone ,,Waterdown ,ON,,United States,1 (905) 689-4990,,,,,,
Rona Home & Garden,,50 Gillignham Drive L6X 4X7 Phone ,,Brampton ,ON,,United States,1 (905) 454-6616,,,,,,
Spence Tim-Br Mart,,90 Dissette St L4K 1A1 Phone ,,Bradford ,ON,,United States,1 (905) 775-3362,,,,,,
United Lumber Home Hardware - Bolton,,12833 Highway # 50 South L7E 1M5 Phone ,,Bolton ,ON,,United States,1 (905) 857-6970,,,,,,
Rona Cashway,,700 Main Street East R2K 4C9 Phone ,,Milton ,ON,,United States,1 (905) 878-8171,,,,,,
Caledonia Tim-Br Mart,,2 Greendale Dr N4G 3A5 Phone ,,Caledonia ,ON,,United States,1 (905) 765-4034,,,,,,
Chautauqua Brick,,45780 Route 6 Phone ,,Corry ,PA,16407,United States,1 (814) 665-3825,,,,,,
Milton Home Hardware Building Centre,,385 Steeles Ave East L9T 3G6 Phone ,,Milton ,ON,,United States,1 (905) 878-9222,,,,,,
Rona Cashway,,137 King Street West L9L 1G3 Phone ,,Dundas ,ON,,United States,1 (905) 628-6323,,,,,,
The Deck Store,,8473 Regional Road 25 L9T 2X7 Phone ,,Milton ,ON,,United States,1 (905) 878-1418,,,,,,
Turkstra Lumber,,355 Mill Street L9H 2L9 Phone ,,Dundas ,ON,,United States,1 (905) 628-9924,,,,,,
United Home Building Centre,,333 Guelph Street L7G 4B3 Phone ,,Georgetown ,ON,,United States,1 (905) 873-8007,,,,,,
DECK MASTERS of Canada Building Supplies,,4745 8th Line M6S 2G9 Phone ,,Beeton ,ON,,United States,1 (866) 765-2935,,,,,,
H.F. Smith Home Hardware Building Centre,,61 Queen Street Highway # 89 L0L 1L0 Phone ,,Cookstown ,ON,,United States,1 (705) 458-4462,,,,,,
Leathertown Leather  Inc,,264 Main Street North L9H 1V3 Phone ,,Acton ,ON,,United States,1 (519) 853-1970,,,,,,
Switzer Tim-Br Mart,,100 King Street East L3Z 2B1 Phone ,,Orillia ,ON,,United States,1 (705) 325-2261,,,,,,
Orillia Home Hardware Building Centre,,5 King Street L3V 1R2 Phone ,,Orillia ,ON,,United States,1 (705) 326-7371,,,,,,
Rona Home & Garden,,61 Maple Drive East L4N 9H5 Phone ,,Barrie ,ON,,United States,1 (705) 792-6670,,,,,,
Alliston Home Hardware Building Centre,,4905 Dean Drive L9R 1V3 Phone ,,Alliston ,ON,,United States,1 (705) 435-5511,,,,,,
Rona Cashway,,575 Park Rd R0E 0C0 Phone ,,North Brantford ,ON,,United States,1 (519) 759-8650,,,,,,
United Home Hardware Building Centre,,520 Bayfield Street North L4M 5A2 Phone ,,Barrie ,ON,,United States,1 (705) 726-8132,,,,,,
J & K Home Building Centre,,116 King George Road N3R 5K6 Phone ,,Brantford ,ON,,United States,1 (519) 753-3114,,,,,,
Turkstra Lumber,,54 Oxford Street N3R 5C6 Phone ,,Brantford ,ON,,United States,1 (905) 759-3150,,,,,,
McKinnon Tim-Br Mart,,1 Trafalgar Rd N0B 1Z0 Phone ,,Hillsburgh ,ON,,United States,1 (519) 855-4702,,,,,,
Pickard Home Building Centre,,9 James Street N3Y 1E1 Phone ,,Simcoe ,ON,,United States,1 (519) 426-0791,,,,,,
Rona Cashway,,10 Davis Street N3Y 4N5 Phone ,,Simcoe ,ON,,United States,1 (519) 426-2740,,,,,,
Orangeville Home Hardware Building Center,,60 4Th Ave Hwy 10 L9W 3Z7 Phone ,,Orangeville ,ON,,United States,1 (519) 941-5407,,,,,,
South Cambridge Home Hardware Building Centre,,200 Franklin Boulevard Unit 16A N1R 8N8 Phone ,,Cambridge ,ON,,United States,1 (519) 623-2361,,,,,,
Kincardine Tim-Br Mart,,Hwy 21 North N3T 5L8 Phone ,,Kincardine ,ON,,United States,1 (519) 396-3355,,,,,,
Turkstra Lumber,,170 Beverly St N1R 5T8 Phone ,,Cambridge ,ON,,United States,1 (519) 623-1410,,,,,,
Kraft Lumber Co Inc.,,1707 Peninsula Dr Phone ,,Erie ,PA,16505,United States,1 (814) 833-1181,,,,,,
Muskoka Leisure Docks,,Rr # 2 P0H 1H0 Phone ,,Kilworthy ,ON,,United States,1 (705) 689-5646,,,,,,
Rona Cashway,,55 Dawson Rd N1H 1B1 Phone ,,Guelph ,ON,,United States,1 (519) 821-5744,,,,,,
JL's Home Building Centre,,389 Speedville Avenue West N1H 1C7 Phone ,,Guelph ,ON,,United States,1 (519) 822-8230,,,,,,
Paris Home Building Centre,,246 Grand River Street North N3L 2P1 Phone ,,Paris ,ON,,United States,1 (519) 442-2297,,,,,,
Rona Cashway,,943 Barrydown Road N0E 1R0 Phone ,,Sudburry ,ON,,United States,1 (705) 566-3620,,,,,,
Warren's Home Centre Limited,,103 King Street P.O. Box 221 N0E 1A0 Phone ,,Burford ,ON,,United States,1 (519) 449-2411,,,,,,
Gravenhurst Home Building Centre,,1111 Muskoka Road 169 P.O. Box # 309 P1P 1T7 Phone ,,Gravenhurst ,ON,,United States,1 (705) 687-2289,,,,,,
Chamberlain's Tim-Br Mart,,1091 Chamberlain Drive M4E 2E1 Phone ,,Gravenhurst ,ON,,United States,1 (705) 687-4007,,,,,,
Slack Lumber,,1098 Highway # 56 Empire Cornors P1P 1A2 Phone ,,York ,ON,,United States,1 (905) 772-1087,,,,,,
Port Rowan Home Building Centre,,1089 Main Street P.O. Box 2 N0E 1M0 Phone ,,Port Rowan ,ON,,United States,1 (519) 586-7336,,,,,,
Fines Home Hardware Building Centre,,725 Steeles Avenue L0N 1S0 Phone ,,Shelburne ,ON,,United States,1 (519) 925-3991,,,,,,
Crompton Home Building Centre,,807 James Street N4B 2C9 Phone ,,Delhi ,ON,,United States,1 (519) 582-0240,,,,,,
NorStar,,20 Gray Road P1L 1P8 ,,Bracebridge ,ON,,United States,,,,,,,
Dixon Home Building Center,,745 St David Street North N1M 2L1 Phone ,,Fergus ,ON,,United States,1 (519) 843-1171,,,,,,
84 Lumber,,2181 Lockport Road Phone ,,Niagara Falls ,NY,14304,United States,1 (716) 731-4184,,,,,,
Carter Lumber,,116 Preston Road Phone ,,Warren ,PA,16365,United States,1 (814) 723-1371,,,,,,
ABC Supply Company Inc.,,1702 Wagner Avenue Phone ,,Erie ,PA,16510,United States,1 (814) 898-1672,,,,,,
Carter Lumber,,4710 Buffalo Road Phone ,,Erie ,PA,16510,United States,1 (814) 899-7625,,,,,,
Carter Lumber,,731 Main Street Phone ,,Strattanville ,PA,16258,United States,1 (814) 764-5196,,,,,,
Carter Lumber,,1553 Allegheny Blvd. Phone ,,Reno ,PA,16343,United States,1 (814) 677-6380,,,,,,
Carter Lumber,,2801 West Avonia Road Phone ,,Fairview ,PA,16415,United States,1 (814) 474-5501,,,,,,
Lezzer Lumber - Indiana,,1260 Wayne Avenue Phone ,,Indiana ,PA,15701,United States,1 (724) 349-2281,,,,,,
Rona Home & Garden,,730 Ottawa Street West N2E 1B6 Phone ,,Kitchener ,ON,,United States,1 (519) 584-2237,,,,,,
Swanson's Home Building Centre,,166 Park Street N2G 1M8 Phone ,,Kitchener ,ON,,United States,1 (519) 743-1404,,,,,,
Rona Cashway,,Wellington Road 18 N0B 1S0 Phone ,,Elora ,ON,,United States,1 (519) 846-5381,,,,,,
Ace Contractor Center,,10944 Perry Highway Phone ,,Meadville ,PA,16335,United States,(814) 337-4281,,,,,,
Carter Lumber,,12865 Conneaut Lake Road Phone ,,Conneaut lake ,PA,16316,United States,1 (814) 382-1050,,,,,,
Rona,,369 Old Ferguson Rd P1H 2K8 Phone ,,Huntsville ,ON,,United States,1 (705) 789-9641,,,,,,
Stayner Tim-Br Mart,,1014 Centre Line Rd L0M 1S0 Phone ,,Stayner ,ON,,United States,1 (705) 428-2420,,,,,,
Rona Building Centre,,1317 Mosley Street L9Z 2C9 Phone ,,Wasaga Beach ,ON,,United States,1 (705) 429-3841,,,,,,
Beach Builders Supplies,,1955 Mosley Street L9Z 1Y8 Phone ,,Wasaga Beach ,ON,,United States,1 (705) 429-2960,,,,,,
Hamilton Bros. Tim-Br Mart,,1 Station Street L0M 1L0 Phone ,,Glen Huron ,ON,,United States,1 (705) 466-2244,,,,,,
Midland Tim Br Mart,,200 Third Street L4R 3R8 Phone ,,Midland ,ON,,United States,1 (705) 526-2264,,,,,,
Midland Home Hardware Building Center,,159 Fourth St L4R 3S9 Phone ,,Midland ,ON,,United States,1 (705) 526-5416,,,,,,
Rolston Home Building Centre,,35 Crescent Road P1H 1Y3 Phone ,,Huntsville ,ON,,United States,1 (705) 789-4111,,,,,,
Fairway Lumber Company,,1205 King Street North P.O. Box 151 N0B 2N0 Phone ,,St. Jacobs ,ON,,United States,1 (519) 664-2226,,,,,,
JL's Duke Street Home Building Centre,,5 Duke Street N3B 2W2 Phone ,,Elmira ,ON,,United States,1 (519) 669-5488,,,,,,
Port Carling Home Hardware Building Centre,,67 Joseph Street P0B 1J0 Phone ,,Port Carling ,ON,,United States,1 (705) 765-3193,,,,,,
Havens Home Building Centre,,479 Hume Street L9Y 1W8 Phone ,,Collingwood ,ON,,United States,1 (705) 445-2671,,,,,,
Arthur Home Hardware Building Centre,,R.R. # 3 Highway 9 East P.O. Box 820 N0G 1A0 Phone ,,Arthur ,ON,,United States,1 (519) 848-2444,,,,,,
Crompton Home Hardware Building Centre - Tillsonburg,,101 Tillson Avenue N4G 3A4 Phone ,,Tillsonburg ,ON,,United States,1 (519) 842-8461,,,,,,
Woodstock Home Building Centre,,1147 Dundas Street East N4S 8W3 Phone ,,Woodstock ,ON,,United States,1 (519) 421-0484,,,,,,
Mar-Span Home Hardware Building Centre,,7873 Wellington Road 8 P.O. Box 440 N0G 1P0 Phone ,,Drayton ,ON,,United States,1 (519) 638-2420,,,,,,
Allen Lumber,,668 Peel Street R2J 0H3 Phone ,,Woodstock ,ON,,United States,1 (519) 539-1213,,,,,,
Wellesley Home Centre,,2196 Gerber Road P.O. Box 10 N0B 2T0 Phone ,,Wellesley ,ON,,United States,1 (519) 656-2010,,,,,,
Home Building Centre-Burks Falls,,1358 Katrine Road P.O. Box 479 P0A 1C0 Phone ,,Burks Falls ,ON,,United States,1 (705) 382-3027,,,,,,
Wilson's Builder's Supplies,,760 John Street P.O. Box 459 P0H 1V0 Phone ,,Mattawa ,ON,,United States,1 (705) 744-5588,,,,,,
Kidd's Home Hardware Building Centre,,23 John Street P.O. Box 69 P0A 1Z0 Phone ,,Sunbridge ,ON,,United States,1 (705) 384-5365,,,,,,
Magnetawan Home Hardware Building Centre,,Burrows & Church Street East P.O. Box 3 P0A 1P0 Phone ,,Magnetawan ,ON,,United States,1 (705) 387-3988,,,,,,
Northland Building Supplies LTD.,,115 Bowes Street N0B 2R0 Phone ,,Parry Sound ,ON,,United States,1 (705) 746-5894,,,,,,
Lezzer Lumber - Butler,,777 East Butler Road Phone ,,Butler ,PA,16001,United States,1 (724) 282-3100,,,,,,
Carter Lumber,,615 East Butler Road Phone ,,Butler ,PA,16002,United States,1 (724) 431-0365,,,,,,
84 Lumber,,1664 W Main St Ext Phone ,,Grove City ,PA,16127,United States,1 (724) 748-4731,,,,,,
South Parry Lumber,,20 South Parry Road ,,Parry Sound ,P2A,2Z1,United States,,,,,,,
HP Starr Lumber Company,,1011 Pittsburgh Rd Phone ,,Valencia ,PA,16059,United States,1 (724) 898-1501,,,,,,
Carter Lumber,,14601 Kinsman Road Phone ,,Middlefield ,OH,44062,United States,1 (440) 834-8164,,,,,,
HP Starr Lumber Company,,2134 Evans City Rd Phone ,,Zelienople ,PA,16063,United States,1 (724) 538-3500,,,,,,
Lakeland Lumber Company,,24180 Lakeland Blvd. Phone ,,Cleveland ,OH,44132,United States,1 (216) 731-2088,,,,,,
Ingersoll Home Hardware Building Centre,,15 Samnah Crescent N5C 3J7 Phone ,,Ingersoll ,ON,,United States,1 (519) 485-5111,,,,,,
Secord Home Building Centre,,187 John Street N N5H 2B1 Phone ,,Aylmer ,ON,,United States,1 (519) 773-8487,,,,,,
Stratford Home Hardware Building Centre,,Rr # 4 Highway 7 & 8 East N5A 6S5 Phone ,,Stratford ,ON,,United States,1 (519) 271-4370,,,,,,
Schneuker's Hardware Inc.,,20 Main Street P.O. Box 430 N0K 1M0 Phone ,,Milverton ,ON,,United States,1 (519) 595-8224,,,,,,
Young's Home Hardware Building Centre,,525 Main Street North N0G 2L1 Phone ,,Mount Forest ,ON,,United States,1 (519) 323-1500,,,,,,
Saint Mary's Home Building Centre,,925 Queen St E N4X 1C5 Phone ,,Saint Mary's ,ON,,United States,1 (519) 284-3380,,,,,,
Hays Home Hardware Building Centre,,140 Main Street East N4W 2B6 Phone ,,Listowel ,ON,,United States,1 (519) 291-2610,,,,,,
Copp's Buildall,,2090 Dundas St East N5W 5M9 Phone ,,London ,ON,,United States,1 (519) 659-9989,,,,,,
Geerlinks Home Hardware Building Centre,,295 Wellington Street N5R 2S6 Phone ,,St. Thomas ,ON,,United States,1 (519) 631-2910,,,,,,
Home Hardware Building Centre - London East,,1780 Dundas Street East N5W 3E5 Phone ,,London ,ON,,United States,1 (519) 455-0660,,,,,,
Rona Home & Garden,,1305 Commissioners Road East N6M 0B8 Phone ,,London ,ON,,United States,1 (519) 649-6603,,,,,,
Valley Building Center,,5654 South Main St Phone ,,Andover ,OH,44003,United States,1 (440) 293-5995,,,,,,
Lumberteria Home Hardware Building Centre,,4425 Wellington Road South N6E 2Z8 Phone ,,London ,ON,,United States,1 (519) 681-2740,,,,,,
Rona Home & Garden,,820 Blythwood Road N6H 4L1 Phone ,,London ,ON,,United States,1 (519) 471-6621,,,,,,
Copp's Buildall,,4333 Colonel Talbot Rd S4N 5B1 Phone ,,London ,ON,,United States,1 (519) 652-3575,,,,,,
Centre Grey Builders & Supplies,,74 Lorne Street N0C 1H0 Phone ,,Markdale ,ON,,United States,1 (519) 986-2641,,,,,,
Copp's Building Materials,,45 York Street N6H 5K5 Phone ,,London ,ON,,United States,1 (519) 679-9000,,,,,,
Welbeck Sawmill Limited,,522598 Welbeck Road R.R. # 2 N0G 1R0 Phone ,,Durham ,ON,,United States,1 (519) 369-2144,,,,,,
Copp's Buildall,,1640 Fanshawe Park Road West N6P 1P7 Phone ,,London ,ON,,United States,1 (519) 472-3648,,,,,,
Watson Home Hardware,,44195 Harriston Road Highway # 87 N0G 1X0 Phone ,,Gorrie ,ON,,United States,1 (519) 335-3551,,,,,,
Thornbury Home Hardware Bldg Center,,Hwy 26 East P.O. Box 249 N0H 2P0 Phone ,,Thornbury ,ON,,United States,1 (519) 599-3624,,,,,,
Rona Cashway,,100 Clark Side Road N6A 1A4 Phone ,,London ,ON,,United States,1 (519) 451-8500,,,,,,
Langford Lumber Home Building Centre - Lucan,,6255 William Street P.O. Box 370 N0M 2J0 Phone ,,Lucan ,ON,,United States,1 (519) 227-4416,,,,,,
McDonald Home Hardware Building Centre,,226 Turnberry Street North P.O. Box 170 N0G 1H0 Phone ,,Brussels ,ON,,United States,1 (519) 887-6277,,,,,,
Hanover Home Building Centre,,580 24th Avenue R.R. # 1 N4N 3B8 Phone ,,Hanover ,ON,,United States,1 (519) 364-3410,,,,,,
Knight's Home Building Centre,,206532 Highway # 26 N4L 1W7 Phone ,,Meaford ,ON,,United States,1 (519) 538-2000,,,,,,
Rona Cashway,,265 Main St North N0M 1S3 Phone ,,Exeter ,ON,,United States,1 (519) 235-2081,,,,,,
Carter Lumber,,3005 New Butler Road Phone ,,New Castle ,PA,16101,United States,1 (724) 654-8029,,,,,,
Hunter Timbr Mart,,10 Marcus St N0G 2W0 Phone ,,Scotland ,ON,,United States,1 (519) 446-2271,,,,,,
Hatten Hardware Limited,,260 Garafraxa Street P.O. Box 90 N0H 1G0 Phone ,,Chatsworth ,ON,,United States,1 (519) 794-2930,,,,,,
Moffatt And Powell,,75 Caradoc Street S. R0E 1J0 Phone ,,Strathroy ,ON,,United States,1 (519) 245-1360,,,,,,
84 Lumber,,Rr 2 Youngstown Rd Phone ,,New Castle ,PA,16101,United States,1 (724) 654-8450,,,,,,
Strathroy Home Hardware Building Centre,,28390 Centre Road N7G 3H6 Phone ,,Strathroy ,ON,,United States,1 (519) 245-2312,,,,,,
Hatten Home Hardware Building Centre,,421 1st Avenue North N0G 1L0 Phone ,,Chesley ,ON,,United States,1 (519) 363-3038,,,,,,
Langford Lumber Home Hardware Building Centre,,230 Bayfield Road P.O. Box 279 N0M 1L0 Phone ,,Clinton ,ON,,United States,1 (519) 482-3995,,,,,,
Mitchell's Home Building Centre,,2211 Elginfield Road P.O. Box 267 N0M 2K0 Phone ,,Parkhill ,ON,,United States,1 (519) 294-6755,,,,,,
Carter Lumber,,467 Center St Phone ,,Chardon ,OH,44024,United States,1 (440) 286-3833,,,,,,
Banner Supply Company,,103 E Indianola Phone ,,Youngstown ,OH,44507,United States,1 (330) 782-1171,,,,,,
Rona Cashway,,874 2nd Ave. East N4K 2H3 Phone ,,Owen Sound ,ON,,United States,1 (519) 376-7729,,,,,,
Smith & Hladil Home Hardware Building Centre,,1080 10th Street West P.O. Box 295 N4K 5P5 Phone ,,Owen Sound ,ON,,United States,1 (519) 376-1210,,,,,,
Grand Bend Home Hardware Building Centre,,70948 Blue Water Highway R.R. # 1 N0M 1T0 Phone ,,Grand Bend ,ON,,United States,1 (519) 238-8282,,,,,,
Allen's Home Building Centre,,413 Queen Street South P.O. Box 599 N0G 2N0 Phone ,,Paisley ,ON,,United States,1 (519) 353-5150,,,,,,
McNaughton Home Hardware Building Centre,,22789 Hagerty Road P.O. Box 10 N0L 1Z0 Phone ,,Newbury ,ON,,United States,1 (519) 693-4484,,,,,,
Commonwealth Lumber,,37940 Depot Street Phone ,,Willoughby ,OH,44094,United States,1 (440) 946-9800,,,,,,
Goderich Timbermart,,295 Bayfield Road S4P 3X5 Phone ,,Goderich ,ON,,United States,1 (519) 524-1778,,,,,,
Carter Lumber,,11768 Mahoning Ave Phone ,,North Jackson ,OH,44451,United States,1 (330) 538-2271,,,,,,
Watford Home Hardware Building Centre,,7885 Industrial Drive P.O. Box 160 N0M 2S0 Phone ,,Watford ,ON,,United States,1 (519) 849-2219,,,,,,
Bernard Daniels,,250 Railroad St. Phone ,,Canfield ,OH,44406,United States,1 (330) 533-2211,,,,,,
84 Lumber,,4423 William Penn Highway Phone ,,Murrysville ,PA,15668,United States,1 (724) 327-1884,,,,,,
Port Elgin Home Building,,Goderich Street South N0K 1N0 Phone ,,Port Elgin ,ON,,United States,1 (519) 389-4545,,,,,,
Ziegler Lumber LTD,,589 Gustavus Street P7B 1W8 Phone ,,Port Elgin ,ON,,United States,1 (519) 832-9771,,,,,,
Port Elgin Home Hardware Building Centre,,924 Goderich Street P.O. Box 2200 N0H 2C0 Phone ,,Port Elgin ,ON,,United States,1 (519) 832-2466,,,,,,
O.C. Cluss,,103 Pleasant Drive Phone ,,Aliquippa ,PA,15001,United States,1 (724) 415-2103,,,,,,
84 Lumber,,1612 Roseytown Road Phone ,,Greensburg ,PA,15601,United States,1 (724) 834-0984,,,,,,
O.C. Cluss,,145 Donohoe Road Phone ,,Greensburg ,PA,15601,United States,1 (724) 415-2102,,,,,,
McNabb Home Building Centre,,22 Seguin Street P2A 1B1 Phone ,,Parry Sound ,ON,,United States,1 (705) 746-5825,,,,,,
Lyndhurst Home Building Centre,,397 Lyndhurst Road P.O. Box 130 K0E 1N0 Phone ,,Lyndhurst ,ON,,United States,1 (613) 928-2828,,,,,,
Lutes Building Centre LTD,,Box 5250 N2Z 2Y6 Phone ,,High River ,AB,,United States,1 (403) 652-3422,,,,,,
84 Lumber,,1955 Lincoln Hwy. Phone ,,North Versailles ,PA,15137,United States,1 (412) 829-2584,,,,,,
Miller's Home Building Centre,,900 Main Street P.O. Box C28 N0H 2G0 Phone ,,Sauble Beach ,ON,,United States,1 (519) 422-2424,,,,,,
Carter Lumber,,6199 Som Center Rd Phone ,,Solon ,OH,44139,United States,1 (440) 248-5355,,,,,,
Town & Country Lumber,,264 Chatham Street South P.O. Box 310 N0P 1A0 Phone ,,Blenheim ,ON,,United States,1 (519) 676-5426,,,,,,
Wiarton Home Building Centre,,10189 Highway # 6 P.O. Box 940 N0H 2T0 Phone ,,Wiarton ,ON,,United States,1 (519) 534-2232,,,,,,
Lumberjack Home Building Centre,,4497 Progress Drive P.O. Box 1359 N0N 1R0 Phone ,,Petrolia ,ON,,United States,1 (519) 882-3080,,,,,,
Lumberjack Home Building Centre,,1420 Highway # 21 South P.O. Box 698 N0P 1M0 Phone ,,Dresden ,ON,,United States,1 (519) 683-6199,,,,,,
Wholesale Builders Supply Inc,,200 First Street Phone ,,Carnegie ,PA,15106,United States,1 (412) 279-8260,,,,,,
Carter Lumber,,864 N Perry Hwy Phone ,,Mercer ,PA,16137,United States,1 (724) 475-4115,,,,,,
Carter Lumber,,2701 SR 307 Phone ,,Austinburg ,OH,44010,United States,1 (440) 275-2271,,,,,,
Wilson Lumber,,125 E. Neshannock Ave Phone ,,New Wilmington ,PA,16142,United States,(724) 946-3555,,,,,,
Carter Lumber,,6320 N Ridge Road Phone ,,Madison ,OH,44057,United States,1 (440) 428-1110,,,,,,
Carter Lumber,,2167 Elm Road NE Phone ,,Cortland ,OH,44410,United States,1 (330) 372-4008,,,,,,
Carter Lumber,,23611 Sr62 Phone ,,Alliance ,OH,44601,United States,1 (330) 823-7943,,,,,,
"Banner Supply Company, Inc.",,1415 North Park Ave. N.W. Phone ,,Warren ,OH,44483,United States,1 (330) 392-5131,,,,,,
Zaleski's Outlet - Exterior Building Supplies,,2700 Pittsburgh Street Phone ,,Springdale ,PA,15144,United States,(724) 274-4744,,,,,,
McNabb Home Building Center,,22 Sequin Street P2A 1B1 Phone ,,Parry Sound ,ON,,United States,(705) 746-5825,,,,,,
Carter Lumber,,4929 S R 59 Phone ,,Ravenna ,OH,44266,United States,1 (330) 296-1645,,,,,,
Carter Lumber,,704 East Lincoln Way Phone ,,Lisbon ,OH,44432,United States,1 (330) 424-3351,,,,,,
Carter Lumber,,816 West Main Street Phone ,,Kent ,OH,44240,United States,1 (330) 678-0230,,,,,,
McMunn & Yates Bldg. Supplies LTD.,,127 Main Street North N7T 7H2 Phone ,,Russell ,MB,,United States,1 (204) 773-2690,,,,,,
Brookside Lumber & Supply Company,,500 Logan Rd Phone ,,Bethel Park ,PA,15102,United States,1 (412) 835-7610,,,,,,
Rona Cashway,,65 Colborne Street N7M 3L7 Phone ,,Chatham ,ON,,United States,1 (519) 352-0130,,,,,,
Chatham - Kent Home Hardware Building Centre,,124 Keil Drive South N7M 3H1 Phone ,,Chatham ,ON,,United States,1 (519) 354-0700,,,,,,
Cleveland Lumber,,9410 Madison Ave Phone ,,Cleveland ,OH,44102,United States,1 (216) 961-5550,,,,,,
Terry Lumber & Supply,,1710 Mill Street West Phone ,,Peninsula ,OH,44264,United States,1 (330) 657-2811,,,,,,
Larsen Lumber,,7064 Mill Rd. Phone ,,Brecksville ,OH,44141,United States,1 (440) 526-4353,,,,,,
St Clair Fence & Deck,,1702 London Line S7K 8G3 Phone ,,Sarnia ,ON,,United States,1 (519) 542-1261,,,,,,
Teahen Home Hardware Building Centre,,1272 London Road N7S 1P5 Phone ,,Sarnia ,ON,,United States,1 (519) 337-3783,,,,,,
Carter Lumber,,38 N Cleveland Ave Phone ,,Mogadore ,OH,44260,United States,1 (330) 628-2681,,,,,,
"Banner Supply Company, Inc.",,15410 Brookpark Rd. Phone ,,Cleveland ,OH,44135,United States,1 (216) 676-1900,,,,,,
Carter Lumber,,720 N. Chapel Street Phone ,,Louisville ,OH,44641,United States,1 (330) 875-1417,,,,,,
Liverance Home Building Centre,,3458 Highway # 6 R.R. # 2 N0H 1W0 Phone ,,Lion's Head ,ON,,United States,1 (519) 793-3610,,,,,,
Port Loring Home Building Centre,,11 Wilson Lake Crescent P.O. Box 183 P0H 1Y0 Phone ,,Port Loring ,ON,,United States,1 (705) 757-2588,,,,,,
"Lumberjack Building Centers, Inc.",,151 North Range Rd. Phone ,,Marysville ,MI,48040,United States,1 (810) 364-8877,,,,,,
"Lumberjack Building Centers, Inc.",,2275 Fred Moore Highway Phone ,,St. Clair ,MI,48079,United States,1 (810) 329-4781,,,,,,
Johns Lumber,,34151 S Gratiot Ave Phone ,,Clinton Township ,MI,48035,United States,1 (586) 791-1200,,,,,,
Mt. Hope Fence,,708 Killian Rd. Phone ,,Akron ,OH,44319,United States,1 (330) 730-0137,,,,,,
Graves Lumber,,1315 S. Cleveland-Massillon Rd. Phone ,,Copley ,OH,44321-4870,United States,1 (330) 666-1115,,,,,,
"Lumberjack Building Centers, Inc.",,3470 Point Tremble Road Phone ,,Algonac ,MI,48001,United States,1 (810) 794-4954,,,,,,
Gerber Lumber & Hardware,,4918 Kidron Rd Phone ,,Kidron ,OH,44636,United States,1 (330) 857-2021,,,,,,
Bugh  Inc,,8933 Cleveland Ave Nw Phone ,,North Canton ,OH,44720,United States,1 (330) 305-0980,,,,,,
Carter Lumber,,3779 Manchester Rd Phone ,,Akron ,OH,44319,United States,1 (330) 645-6404,,,,,,
Home Building Centre - Tilbury,,76 Queen Street North P.O. Box 188 N0P 2L0 Phone ,,Tilbury ,ON,,United States,1 (519) 682-1180,,,,,,
Carter Lumber,,675 W. Pike Street Phone ,,Meadow Lands ,PA,15347,United States,1 (724) 222-1150,,,,,,
"Lumberjack Building Centers, Inc.",,715 Chartier St. Phone ,,Marine City ,MI,48039,United States,1 (810) 765-8828,,,,,,
Macks Inc.,,6760 School Street Phone ,,Valley City ,OH,44280,United States,1 (330) 483-3121,,,,,,
Galehouse Lumber Company,,12667 Portage Street Phone ,,Doylestown ,OH,44230,United States,1 (330) 658-2023,,,,,,
84 Lumber,,151 Popular Dr. Phone ,,Coal Center ,PA,15423,United States,1 (724) 938-6102,,,,,,
O.C. Cluss,,S. Pennsylvania Phone ,,Uniontown ,PA,15401,United States,1 (724) 415-2101,,,,,,
Wheatley Home Building Centre,,72 Julien Street P.O. Box 310 N0P 2P0 Phone ,,Wheatley ,ON,,United States,1 (519) 825-4681,,,,,,
Leamington Home Building Centre,,241 Oak Street East N8H 4W8 Phone ,,Leamington ,ON,,United States,1 (519) 326-4474,,,,,,
Carter Lumber,,1763 Wadsworth Road Phone ,,Akron ,OH,44320,United States,1 (330) 753-6633,,,,,,
"Lumberjack Building Centers, Inc.",,35369 Twnety-Three Mile Rd. Phone ,,New Baltimore ,MI,48047,United States,1 (586) 725-2341,,,,,,
Sauve's Home Center,,581 Railway Street N0R 1A0 Phone ,,Belle River ,ON,,United States,1 (519) 728-2940,,,,,,
Rona Cashway,,2324 Union Avenue N1A 2Z2 Phone ,,Ruthven ,ON,,United States,1 (519) 326-3263,,,,,,
Essex Home Hardware Building Centre,,47 Wilson Avenue N8M 2L9 Phone ,,Essex ,ON,,United States,1 (519) 776-4646,,,,,,
Carter Lumber,,11260 Locust Street NW Phone ,,Canal Fulton ,OH,44614,United States,1 (330) 854-6103,,,,,,
Tecumseh Home Hardware Building Centre,,1613 Lesperance Road N8N 1Y2 Phone ,,Tecumseh ,ON,,United States,1 (519) 735-3400,,,,,,
Mt. Hope Fence and Decks,,7102 County Rd. 77 Mt. Phone ,,Hope ,OH,44660,United States,1 (330) 674-4418,,,,,,
Windsor Building Center,,11365 Tecumseh Road East P0E 1G0 Phone ,,Windsor ,ON,,United States,1 (519) 979-5250,,,,,,
Carter Lumber,,6407 Norwalk Road Phone ,,Medina ,OH,44256,United States,1 (330) 725-4531,,,,,,
Carter Lumber,,41625 Griswold Rd. Phone ,,Elyria ,OH,44035,United States,1 (440) 333-1234,,,,,,
Carter Lumber,,1047 Tuscarawas ave Phone ,,Dover ,OH,44622,United States,1 (330) 343-7737,,,,,,
carter Lumber,,1718Jared Steet Phone ,,Uhrichsville ,OH,44683,United States,1 (740) 922-0003,,,,,,
Carter Lumber,,46401 ERB Drive Phone ,,Macomb ,MI,48042,United States,1 (586) 913-8700,,,,,,
Keim Lumber Company Inc,,4465 State Route 557 Phone ,,Charm ,OH,44617,United States,1 (330) 893-2251,,,,,,
84 Lumber,,Rd 4 Box 70A Route 2 Phone ,,Moundsville ,WV,26041,United States,1 (304) 845-0351,,,,,,
84 Lumber,,1501 Deckers Creek Phone ,,Morgantown ,WV,26505,United States,1 (304) 292-0840,,,,,,
carter Lumber,,762 US 250 E Phone ,,Ashland ,OH,44805,United States,1 (419) 281-2581,,,,,,
Creative Decks & Fences,,2145 Highway # 3 N0R 1L0 Phone ,,Old Castle ,ON,,United States,1 (519) 737-1590,,,,,,
Johns Lumber,,52575 Van Dyke Rd. Phone ,,Shelby Twp ,MI,48316,United States,1 (586) 739-6700,,,,,,
Gray Home Hardware Building Centre,,700 Tecumseh Road West N8X1H2 Phone ,,Windsor ,ON,,United States,1 (519) 254-1143,,,,,,
Wimsatt Building Materials,,33663 Mound Rd Phone ,,Sterling Heights ,MI,48310,United States,1 (586) 978-8740,,,,,,
Wigle Home Hardware Building Centre,,35 Renaud Drive N9V 4A9 Phone ,,Amherstburg ,ON,,United States,1 (519) 736-4231,,,,,,
Mans Lumber And Millwork,,3300 W Jefferson Phone ,,Trenton ,MI,48183,United States,1 (313) 676-3000,,,,,,
Carter Lumber,,399 SR 250 Phone ,,Norwalk ,OH,44857,United States,1 (419) 668-9836,,,,,,
Carter Lumber,,840 S E Catawba Road Port Phone ,,Clinton ,OH,43452,United States,1 (419) 734-4897,,,,,,
Country Metals,,19 Free Rd. Phone ,,Shiloh ,OH,44878,United States,1 (419) 895-0040,,,,,,
Carter Lumber,,501 Broad Street Phone ,,Coshocton ,OH,43812,United States,1 (740) 623-0771,,,,,,
Pro Build,,2060 Sand Beach Rd Phone ,,Bad Axe ,MI,48413,United States,1 (989) 269-2060,,,,,,
O.C. Cluss,,92 Service Center Drive Phone ,,Oakland ,MD,21550,United States,1 (301) 533-3180,,,,,,
O.C. Cluss,,2025 Pleasant Valley Road Phone ,,Fairmont ,WV,26554,United States,1 (304) 333-1305,,,,,,
Woodsfield True Value Home Center,,218 Ohio 78 Phone ,,Woodsfield ,OH,43793,United States,1 (740) 472-1651,,,,,,
84 Lumber,,1228 Country Club Road Phone ,,Fairmont ,WV,26554,United States,1 (304) 363-8405,,,,,,
84 Lumber,,2251 Southgate Parkway Phone ,,Cambridge ,OH,43725,United States,1 (740) 439-5574,,,,,,
Carter Lumber,,60696 Southgate Road Phone ,,Byesville ,OH,43723,United States,1 (740) 439-4425,,,,,,
Carter Lumber,,3835 Mansfield Road Phone ,,Shelby ,OH,44875,United States,1 (419) 342-3900,,,,,,
Carter Lumber,,845 E McPherson HWY Phone ,,Clyde ,OH,43410,United States,1 (419) 547-9531,,,,,,
Carter Lumber,,14620 Cassel Road Phone ,,fredericktown ,OH,43019,United States,1 (740) 694-1257,,,,,,
84 Lumber,,1284 Johnson Avenue Phone ,,Bridgeport ,WV,26330,United States,1 (304) 842-5484,,,,,,
LumberTown,,3100 Dillon Falls Rd Phone ,,Zanesville ,OH,43701,United States,(740) 454-0146,,,,,,
Carter Lumber,,977 North Phone ,,Vandyke ,MI,48413,United States,1 (989) 269-4156,,,,,,
Mans Lumber and Millwork,,47255 Michigan Ave. Phone ,,Canton ,MI,48187,United States,(734) 714-5800,,,,,,
Northville Lumber Company HQ,,615 E. Baseline Road Phone ,,Northville ,MI,48167,United States,1 (248) 349-0220,,,,,,
Wimsatt Building Materials,,36340 Van Born Road Phone ,,Wayne ,MI,48184,United States,1 (734) 722-3460,,,,,,
Wimsatt Building Materials,,1131 Sylvertis Rd Phone ,,Waterford ,MI,48328,United States,1 (248) 673-7435,,,,,,
Krzyske Lumber D-0832,,28117 Waltz Rd Phone ,,New Boston ,MI,48164,United States,1 (734) 654-6495,,,,,,
Zeeland Lumber Co.,,5255 Hudson Rd. Phone ,,Waterford ,MI,48329,United States,(888) 772-2119,,,,,,
Carter Lumber,,850 Dixie N Phone ,,Monroe ,MI,48162,United States,1 (734) 242-6444,,,,,,
Carter Lumber,,1850 Marion Road Phone ,,Bucyrus ,OH,44820,United States,1 (419) 563-1044,,,,,,
Carter Lumber,,818 Mount Vernon Road Phone ,,Newark ,OH,43055,United States,1 (740) 366-7308,,,,,,
Carter Lumber,,4546 Roseville Road Phone ,,Roseville ,OH,43777,United States,1 (740) 849-2361,,,,,,
Wayne Lumber Company,,202 Canal Ave. Phone ,,Toledo ,OH,43609,United States,1 (419) 243-3258,,,,,,
Carter Lumber,,6600 Highland Road Phone ,,White Lake ,MI,48383,United States,1 (248) 887-8853,,,,,,
Carter Lumber,,6115 Telegraph Road Phone ,,Toledo ,OH,43612,United States,1 (419) 478-5414,,,,,,
Holmes Lumber,,10271 State Route 161 Phone ,,Plain City ,OH,43064,United States,1 (614) 873-4411,,,,,,
Contractor Yard,,51 Laurel Hill Rd Phone ,,Verona ,VA,24482,United States,1 (540) 248-0301,,,,,,
Carter Lumber,,16435 Us 33 Phone ,,Nelsonville ,OH,45764,United States,1 (740) 753-3517,,,,,,
84 Lumber,,11745 East Broad St Phone ,,Pataskala ,OH,43062,United States,1 (740) 927-5025,,,,,,
Wimsatt Building Materials,,26440 Southpoint Rd. Phone ,,Perrysburg ,OH,43551,United States,1 (419) 873-9800,,,,,,
Ohio Lumber And Building Supply Inc,,9016 State Rt 117 Phone ,,Huntsville ,OH,43324,United States,1 (937) 686-6434,,,,,,
Carter Lumber,,2716 Reynolds Rd N Phone ,,Toledo ,OH,43615,United States,1 (419) 531-5387,,,,,,
Spencer Home Center,,1398 N Lee Hwy Phone ,,Lexington ,VA,24450,United States,1 (540) 463-7393,,,,,,
84 Lumber,,Rr 6 Box 142 Phone ,,Buckhannon ,WV,26201,United States,1 (304) 472-8460,,,,,,
84 Lumber,,Rr1 Box 292A Phone ,,Elkins ,WV,26241,United States,1 (304) 636-9295,,,,,,
84 Lumber,,101 SAMS CREEK ROAD Phone ,,Mineral Wells ,WV,26150-9801,United States,1 (304) 489-2684,,,,,,
Carter Lumber,,5330 Hebbardsville Road Phone ,,Athens ,OH,45701,United States,1 (740) 594-4269,,,,,,
84 Lumber,,2509 State Street Phone ,,Gassaway ,WV,26624-9302,United States,1 (304) 364-8426,,,,,,
Holmes Lumber,,3573 North County Road 605 Phone ,,Sunbury ,OH,43074,United States,1 (740) 965-4600,,,,,,
Carter Lumber,,1890 Old logan-Lancaster Road SE Phone ,,Lancaster ,OH,43130,United States,1 (740) 654-7611,,,,,,
Holmes Lumber,,13431 National Road Sw Phone ,,Reynoldsburg ,OH,43068,United States,1 (740) 927-3700,,,,,,
84 Lumber,,2730 North Columbus St Phone ,,Lancaster ,OH,43130,United States,1 (740) 653-8482,,,,,,
Cellar Lumber Co,,137 E College Ave Phone ,,Westerville ,OH,43081,United States,1 (614) 882-2323,,,,,,
84 Lumber,,Hc 80 Box 70 Route 21 Phone ,,Ripley ,WV,25271,United States,1 (304) 372-8400,,,,,,
84 Lumber,,2045 US 23 NORTH Phone ,,Delaware ,OH,43015,United States,1 (740) 369-8484,,,,,,
Carter Lumber,,2435 Marion Green Camo Road Phone ,,Green Camp ,OH,43322,United States,1 (740) 382-5729,,,,,,
NORTHWEST BUILDING RESOURCES,,5830 U.S. HIGHWAY 42 ,,OSTRANDER ,OH,43061,United States,,,,,,,
JONES LUMBER COMPANY,,57 NORTH SYLVAN ,,COLUMBUS ,OH,43204,United States,,,,,,,
84 Lumber,,569 Rome Hilliard Road Phone ,,Columbus ,OH,43228,United States,1 (614) 878-5393,,,,,,
84 Lumber,,1290 LITTLE SANDY RD Phone ,,Elkview ,WV,25071,United States,1 (304) 965-7084,,,,,,
84 Lumber,,2200 Acy Avenue Phone ,,Jackson ,OH,45640,United States,1 (740) 286-8410,,,,,,
Carter Lumber,,2800 Western Ave Phone ,,Chillicothe ,OH,45601,United States,1 (740) 774-2850,,,,,,
Carter Lumber,,11856 ST RT 41 Phone ,,West Union ,OH,45693,United States,1 (937) 544-3987,,,,,,
Carter Lumber,,312 Lafayette Street Phone ,,London ,OH,43140,United States,1 (740) 852-1225,,,,,,
84 Lumber,,400 Winfield Road Phone ,,Saint Albans ,WV,25177,United States,1 (304) 722-3366,,,,,,
A&L Building Materials,,3554 Teays Valley Road Phone ,,Hurricane ,WV,25526,United States,(304) 562-6209,,,,,,
Carter Lumber,,890 Fontaine Street Phone ,,Kenton ,OH,43326,United States,1 (419) 674-4156,,,,,,
84 Lumber,,2700 East Dupont Ave Phone ,,Belle ,WV,25015,United States,1 (304) 949-5620,,,,,,
84 Lumber,,1250 ROUTE 60 EAST Phone ,,Milton ,WV,25541-0367,United States,1 (304) 743-9484,,,,,,
Carter Lumber,,4564 US 23 Phone ,,Piketon ,OH,45661,United States,1 (740) 289-2311,,,,,,
Virginia Frame Builders & Supply Inc.,,191 Expo Rd Phone ,,Fishersville ,VA,22939,United States,1 (540) 337-4369,,,,,,
Carter Lumber,,4994 US 22 NW Phone ,,Washington Court House ,OH,43160,United States,1 (740) 335-6960,,,,,,
Carter Lumber,,12859 Kramer Road Phone ,,Bowling Green ,OH,43402,United States,1 (419) 352-5118,,,,,,
84 Lumber,,5184 Us 60 East Phone ,,Huntington ,WV,25705,United States,1 (304) 736-8484,,,,,,
S.J. Neathawk Lumber,,771 N. Jefferson Street Phone ,,Lewisburg ,WV,24901,United States,1 (304) 645-1351,,,,,,
Brain Lumber,,409 East Street Phone ,,Springfield ,OH,45505,United States,1 (937) 325-5511,,,,,,
Carter Lumber,,585 W County Line Road Phone ,,Springfield ,OH,45502,United States,1 (937) 399-4918,,,,,,
84 Lumber,,RR 2 BOX 9 US 219 Phone ,,Lewisburg ,WV,24901-9303,United States,1 (304) 647-4624,,,,,,
84 Lumber,,325 43rd Street Phone ,,Ashland ,KY,41101,United States,1 (606) 329-0084,,,,,,
84 Lumber,,265 Airport Road Phone ,,Beaver ,WV,25813-9774,United States,1 (304) 252-8400,,,,,,
Carter Lumber,,9300 Ottawa Road Phone ,,Columbus Grove ,OH,45830,United States,1 (419) 659-2191,,,,,,
Parr Lumber Co.,,4050 Salem Industrial Dr Phone ,,Salem ,OR,97303,United States,1 (503) 390-9181,,,,,,
Taylor Brothers  Inc.,,905 Graves Mill Rd. Phone ,,Lynchburg ,VA,24502,United States,1 (434) 237-8100,,,,,,
ProBuild,,20120 Timberlake Rd Phone ,,Lynchburg ,VA,24502,United States,1 (434) 239-3402,,,,,,
Builders First Souce Roanoke,,3488 Aerial Way Drive Phone ,,Roanoke ,VA,24018,United States,1 (540) 982-5803,,,,,,
84 Lumber,,3345 Virginia Avenue Phone ,,Narrows ,VA,24124-9723,United States,1 (540) 921-2284,,,,,,
84 Lumber,,845 Arhtur Drive Phone ,,Troy ,OH,45373,United States,1 (937) 339-8430,,,,,,
Carter Lumber,,1312 Grange Hall Road Phone ,,Beavercreek ,OH,45430,United States,1 (937) 429-4318,,,,,,
Smith Mountain Lake Building Supply,,13080 Booker T Washington Highway Phone ,,Hardy ,VA,24101,United States,1 (540) 721-3453,,,,,,
84 Lumber,,RR 1 BOX 206A Phone ,,Williamson ,WV,25661-9801,United States,1 (304) 235-3884,,,,,,
Capps Home Building Center,,13700 Booker T Washington Hwy Phone ,,Moneta ,VA,24121,United States,1 (540) 721-2276,,,,,,
40 West Building Supply,,2145 W. Franklin St Phone ,,Rocky Mount ,VA,24151,United States,1 (540) 483-5181,,,,,,
Willis Ridge Supply,,202 Lumber Lane NE Phone ,,Floyd ,VA,24091,United States,1 (540) 745-2044,,,,,,
84 Lumber,,4348 COUNT PULASKI DRIVE Phone ,,Pulaski ,VA,24301-9802,United States,1 (540) 980-8474,,,,,,
Carter lumber,,9354 MT Orab Pike Phone ,,Georgetown ,OH,45121,United States,1 (937) 378-2330,,,,,,
84 Lumber,,6200 Poe Avenue Phone ,,Dayton ,OH,45414,United States,1 (937) 898-1084,,,,,,
Pro-Build,,4173 Old Springfield Rd Phone ,,Vandalia ,OH,45377,United States,1 (937) 898-1358,,,,,,
84 Lumber,,1684 US 68 Phone ,,Maysville ,KY,41056-9118,United States,1 (606) 759-7164,,,,,,
"Fingerle Lumber Co., Inc.",,617 S. Fifth Avenue Phone ,,Ann Arbor ,MI,48104,United States,1 (734) 663-0581,,,,,,
Chelsea Lumber,,600 E. Michigan Ave. Phone ,,Saline ,MI,48176,United States,1 (734) 429-5494,,,,,,
Carter Lumber,,1990 E US 223 Phone ,,Adrian ,MI,49221,United States,1 (517) 263-8060,,,,,,
Chelsea Lumber Company,,8370 Boettner Rd. Phone ,,Bridgewater ,MI,48815,United States,1 (734) 429-7062,,,,,,
Chelsea Lumber Company,,Old Barn Circle Phone ,,Chelsea ,MI,48118,United States,1 (800) 875-9126,,,,,,
Carter Lumber,,3178 East Bristol Road Phone ,,Burton ,MI,48529,United States,1 (810) 742-8250,,,,,,
Carter Lumber,,21425 US HWY 20A Phone ,,Archbold ,OH,43502,United States,1 (419) 445-7410,,,,,,
Pro Build,,2061 W Caro Rd Phone ,,Caro ,MI,48723,United States,1 (989) 673-3121,,,,,,
Vassar Building Center,,1013 W. Saginaw Phone ,,Vassar ,MI,48768,United States,1 (989) 823-8513,,,,,,
Carter Lumber,,1250 CarterDrive Phone ,,Caro ,MI,48723,United States,1 (989) 672-3108,,,,,,
Glasers Lumber,,216 Elm Street Phone ,,Vernon ,MI,48476,United States,1 (989) 288-2671,,,,,,
Talbert Building Supply,,11799 Hwy 15 Phone ,,Clarksville ,VA,23927,United States,1 (434) 374-7355,,,,,,
Griggs Lumber,,607 W Queen St Phone ,,Edenton ,NC,27932,United States,1 (252) 482-4386,,,,,,
Griggs Lumber & Building Supply,,8917 Caratoke Hwy Phone ,,Point Harbor ,NC,27964,United States,1 (252) 491-2436,,,,,,
Lester Building Supply,,14 East Liberty Street Phone ,,Martinsville ,VA,24115,United States,1 (276) 638-8834,,,,,,
Kellogg Building Materials,,300 E Atlantic St Phone ,,Kill Devil Hills ,NC,27948,United States,1 (252) 441-4324,,,,,,
Kellogg Building Materials,,917 Burnside Rd Phone ,,Manteo ,NC,27954,United States,1 (252) 473-2167,,,,,,
Kellogg Building Materials,,917 Burnside Road Phone ,,Manteo ,NC,27954,United States,(252) 473-2167,,,,,,
Builders First Source,,515 E Water St Phone ,,Washington ,NC,27889,United States,(252) 946-6431,,,,,,
Home Builders Supply,,2000 Dickinson Ave Phone ,,Greenville ,NC,27835,United States,1 (252) 758-4151,,,,,,
BMC,,45 Mosswood Blvd Phone ,,Youngsville ,NC,27596,United States,1 (919) 562-6601,,,,,,
Home Builders Supply,,310 South Lodge St ,,Wilson ,NC,27893,United States,,,,,,,
Talbert Building Supply,,1101 Old Durham Road Phone ,,Roxboro ,NC,27573,United States,1 (336) 599-1135,,,,,,
Talbert Building Supply,,3101 Hillsborough Rd Phone ,,Durham ,NC,27705,United States,1 (919) 286-5561,,,,,,
84 Lumber,,6301 Old Wake Forest Rd Phone ,,Raleigh ,NC,27616,United States,1 (919) 872-6984,,,,,,
BMC,,3000 Yonkers Road Phone ,,Raleigh ,NC,27604,United States,1 (919) 828-7471,,,,,,
American Cedar & Millwork,,3401 Tarheel Drive Phone ,,Raleigh ,NC,27609,United States,1 (919) 871-0200,,,,,,
Builders First Source,,2512 Yonkers Rd Phone ,,Raleigh ,NC,27604,United States,1 (919) 833-3639,,,,,,
BMC,,1701 North Salem Street Phone ,,Apex ,NC,27502,United States,1 (919) 362-8377,,,,,,
BMC,,12290 Cleveland Road Phone ,,Garner ,NC,27529,United States,1 (919) 772-1388,,,,,,
Tarheel Wood Treating Company,,10309 Chapel Hill Rd Phone ,,Morrisville ,NC,27560,United States,1 (919) 467-9176,,,,,,
Fitch Lumber Company,,309 N. Greensboro St Phone ,,Carrboro ,NC,27510,United States,1 (919) 942-3153,,,,,,
Guy C Lee Building Materials,,151 NC Hwy 42 E Phone ,,Clayton ,NC,27520,United States,1 (919) 553-6699,,,,,,
Capitol City Lumber Company,,4216 Beryl Rd Phone ,,Raleigh ,NC,27606,United States,(919) 832-6492,,,,,,
BMC,,1621 Battleground Ave Phone ,,Greensboro ,NC,27408,United States,(336) 378-9406,,,,,,
Foothills Hardware & Builders Supply,,1285 W Dodson Mill Rd Phone ,,Pilot Mountain ,NC,27401,United States,(336) 368-3000,,,,,,
The Building Center,,405 E Meadowview Rd Phone ,,Greensboro ,NC,27406,United States,1 (336) 273-6958,,,,,,
Hedgecock Builders Supply,,502 NC Hwy 65 E Phone ,,Walnut Cove ,NC,27052,United States,1 (336) 591-4321,,,,,,
ABC Supply,,200 Northstar Dr Phone ,,Rural Hall ,NC,27045,United States,(336) 969-2201,,,,,,
ABC Supply,,3306 Trent Rd Phone ,,New Bern ,NC,28562,United States,1 (252) 672-8900,,,,,,
Decks & Docks Lumber Company,,607 Hwy 17 N Phone ,,New Bern ,NC,28560,United States,(252) 221-3779,,,,,,
ABC Supply Company,,301 Perimeter Point Blvd Phone ,,Winston Salem ,NC,27105,United States,1 (336) 767-2374,,,,,,
Smith Phillips Building Supply,,603 E. 17th St Phone ,,Winston Salem ,NC,27105,United States,1 (336) 722-8167,,,,,,
Lee Builder Mart,,1000 North Horner Blvd Phone ,,Sanford ,NC,27330,United States,1 (919) 775-5555,,,,,,
Eastern Aluminum Supply Company,,4303-C Idlewild Industrial Dr Phone ,,Winston Salem ,NC,27106,United States,(336) 767-0909,,,,,,
Talbert Building Supply,,251 Ross St Phone ,,Asheboro ,NC,27203,United States,(336) 625-2195,,,,,,
Poindexter Lumber Company,,3701 Dillon Industrial Dr Phone ,,Clemmons ,NC,27012,United States,1 (336) 766-6481,,,,,,
BMC,,4575 Hampton Road Phone ,,Clemmons ,NC,27012,United States,1 (336) 712-9910,,,,,,
"Bowers Lumber Company, Inc.",,1208 Lexington Ave Phone ,,Thomasville ,NC,27360,United States,(336) 475-2159,,,,,,
"Locust Lumber Company, Inc-Southern Pines",,4930 US Highway # 1 South Phone ,,Southern Pines ,NC,28394,United States,1 (910) 245-1768,,,,,,
84 Lumber,,3210 Taylorsville Rd Phone ,,Statesville ,NC,28677,United States,1 (704) 873-2884,,,,,,
BMC,,398 Flower House Loop Phone ,,Troutman ,NC,28166,United States,1 (704) 528-5627,,,,,,
New River Building Supply,,3148 NC Hwy 105 S Phone ,,Boone ,NC,28607,United States,1 (828) 264-5650,,,,,,
Watauga Building Supply,,587 Hwy 105 Ext Phone ,,Boone ,NC,28607,United States,1 (828) 264-2475,,,,,,
"Locust Lumber Company, Inc.-Locust",,P.O. Box 130 Phone ,,Locust ,NC,28097,United States,1 (704) 888-4411,,,,,,
Builders First Source,,3189 NC Hwy 5 Phone ,,Aberdeen ,NC,28315,United States,1 (910) 944-2516,,,,,,
"Hoke Lumber Company, Inc.",,347 Jetton St. Phone ,,Davidson ,NC,28036,United States,1 (704) 892-4841,,,,,,
ABC Supply,,1911 Emanuel Church Rd Phone ,,Conover ,NC,28613,United States,1 (828) 466-1036,,,,,,
84 Lumber,,11628 Mccod Rd Phone ,,Huntersville ,NC,28078,United States,1 (704) 948-8425,,,,,,
Dellinger Building Supply,,1633 S. Highway 16 Phone ,,Stanley ,NC,28164,United States,(704) 827-4669,,,,,,
Professional Builders Supply,,301 Dalton Ave. Phone ,,Charlotte ,NC,28206,United States,1 (980) 272-4400,,,,,,
Henson Building Materials,,44 Hemingway Rd Phone ,,Linville ,NC,28646,United States,1 (828) 733-2476,,,,,,
84 Lumber,,6000 ROZZELLES FERRY RD Phone ,,NORTH CHARLOTTE ,NC,28214-1876,United States,1 (704) 394-1824,,,,,,
Morehead Builders Supply,,2516 Bridges St Phone ,,Morehead City ,NC,28557,United States,1 (252) 726-6877,,,,,,
Guy C Lee Building Materials,,5070 Hwy 70 West Phone ,,Morehead City ,NC,28557,United States,1 (252) 726-0114,,,,,,
Community Lumber,,1033 Corbett Ave Phone ,,Swansboro ,NC,28584,United States,(910) 326-5051,,,,,,
Best Distributing,,475-A Marine Blvd Phone ,,Jacksonville ,NC,28540,United States,1 (910) 219-3051,,,,,,
Guy C Lee Building Materials,,935 Hwy 210 Phone ,,Sneads Ferry ,NC,28460,United States,1 (910) 327-2388,,,,,,
Professional Builders Supply,,111 Military Cutoff Rd Phone ,,Wilmington ,NC,28405,United States,1 (910) 386-4300,,,,,,
EW Godwin's & Sons  Inc,,1207 Castle Hayne Rd Phone ,,Wilmington ,NC,28401,United States,1 (910) 762-7747,,,,,,
Decks & Docks Lumber Company,,407 Landmark Dr Phone ,,Wilmington ,NC,28412,United States,1 (910) 392-8833,,,,,,
Builders First Source,,1609 Howe Street Se Phone ,,Southport ,NC,28461,United States,1 (910) 457-6455,,,,,,
"Locust Lumber Company, Inc-Monroe",,1709 Airport Road Phone ,,Monroe ,NC,28110-3120,United States,1 (704) 289-8441,,,,,,
Guy C Lee Building Materials,,315 Brick Landing Rd SW Phone ,,Shallotte ,NC,28459,United States,1 (910) 754-7100,,,,,,
Blanton Building Supplies,,1989 Hwy 17 North Phone ,,Little River ,SC,29566,United States,1 (843) 249-1473,,,,,,
"The Building Center, Inc.",,10201 Industrial Dr. Phone ,,Pineville ,NC,28134,United States,1 (704) 889-8910,,,,,,
Norandex-Conway,,249 East Cox Ferry Rd. Phone ,,Conway ,SC,29526,United States,1 (843) 349-1901,,,,,,
"The Building Center, Inc.",,5042 Hampton Ridge Rd. Phone ,,Rock Hill ,SC,29732,United States,1 (803) 366-8182,,,,,,
Carter Lumber,,126 Hands Mill Rd. Phone ,,Rock Hill ,SC,29732,United States,1 (803) 366-5155,,,,,,
AAC Building Materials,,12-A Gerber Rd Phone ,,Asheville ,NC,28803,United States,1 (828) 274-5450,,,,,,
Jennings Builders Supply & Hardware,,215 Howard Gap Rd Phone ,,Fletcher ,NC,28732,United States,(828) 376-0200,,,,,,
Builders First Source,,230 W Main St Phone ,,Mount Carmel ,TN,37645,United States,1 (423) 357-4331,,,,,,
Heritage Lumber Company,,570 Hwy 19 Phone ,,Burnsville ,NC,28714,United States,1 (828) 682-3033,,,,,,
Summit Building Supply,,252 Possumtrot Road Phone ,,Burnsville ,NC,28714,United States,1 (828) 682-9841,,,,,,
Henson Building Materials,,177 Duke Street Phone ,,Forest City ,NC,28043,United States,1 (828) 245-4241,,,,,,
ABC Supply Company  Inc 235,,110 Buckeye Cove Rd Phone ,,Swannanoa ,NC,28778,United States,1 (828) 298-0171,,,,,,
GBS Lumber,,507 Duncan Hill Road Phone ,,Hendersonville ,NC,28792,United States,1 (828) 697-2471,,,,,,
Builders First Source,,2324 Asheville Hwy Phone ,,Hendersonville ,NC,28791,United States,(828) 694-0665,,,,,,
"Builders First SourceSpartanburg, SC",,259 Access Rd. Phone ,,Spartanburg ,SC,29305,United States,1 (864) 503-9500,,,,,,
Builders First Source,,433 4th Avenue East Phone ,,Hendersonville ,NC,28793,United States,1 (828) 693-1791,,,,,,
"Ken, INC. Building Supplies",,1050 Hayne Street Phone ,,Spartanburg ,SC,29304,United States,1 (864) 576-1771,,,,,,
Henson Building Materials,,139 Broadway St Phone ,,Black Mountain ,NC,28711,United States,1 (828) 669-9602,,,,,,
84 Lumber,,180 OLD ROUTE 80 Phone ,,Combs ,KY,41729-0180,United States,1 (606) 439-5816,,,,,,
Henson Building Materials,,22336 Asheville Hwy Phone ,,Landrum ,SC,29356,United States,1 (864) 457-4115,,,,,,
Jennings Builders Supply & Hardware,,2196 Asheville Hwy Phone ,,Brevard ,NC,28712,United States,1 (828) 884-9663,,,,,,
Jennings Builders Supply & Hardware,,2897 Hwy 64 E Phone ,,Cashiers ,NC,28717,United States,1 (828) 743-3684,,,,,,
Jennings Builders Supply & Hardware,,283 Thomas Rd Phone ,,Franklin ,NC,28734,United States,1 (828) 369-1786,,,,,,
Haywood Building Supply Company Inc,,100 Charles St Phone ,,Waynesville ,NC,28786,United States,1 (828) 456-6051,,,,,,
GBS-Mauldin,,103 Old Mill Rd. Phone ,,Mauldin ,SC,29662,United States,1 (864) 288-6754,,,,,,
GBS Lumber,,11 Geneva Ct. Phone ,,Greenville ,SC,29607,United States,1 (864) 288-3627,,,,,,
DECKSTORE,,700 E. Standing Springs Rd. Phone ,,Simpsonville ,SC,29680,United States,1 (864) 963-3325,,,,,,
Builders First Source,,801 S Washington Ave Phone ,,Greenville ,SC,29611,United States,1 (864) 269-8110,,,,,,
84 Lumber,,675 S Old Piedmont Hwy Phone ,,Greenville ,SC,29611,United States,1 (864) 220-2884,,,,,,
84 lumber,,1325 hwy 92 Phone ,,Jefferson City ,TN,37760,United States,1 (865) 475-8477,,,,,,
84 Lumber,,1325 N HWY 92 Phone ,,Jefferson City ,TN,37760,United States,1 (865) 475-8477,,,,,,
Builders FirstSource,,180 Hobart Road Phone ,,Blythewood ,SC,29016,United States,1 (803) 735-3500,,,,,,
Willingham Building Supply,,6807 Sc Hwy 219 Phone ,,Newberry ,SC,29108,United States,1 (803) 276-1257,,,,,,
Chapin Discount Building Supplies,,645 Columbia Ave Phone ,,Chapin ,SC,29036,United States,(803) 345-3939,,,,,,
BMC,,200 Flintlake Rd Phone ,,Columbia ,SC,29224,United States,1 (803) 788-8950,,,,,,
Stier Supply,,1075 Lake Murray Blvd Phone ,,Irmo ,SC,29063,United States,1 (803) 749-1200,,,,,,
Hamm Hardware,,309 South Main Street Phone ,,Prosperity ,SC,29127,United States,1 (803) 364-2611,,,,,,
GBS Lumber,,148 S Main St Phone ,,Six Mile ,SC,29682,United States,1 (864) 868-9900,,,,,,
Carl Ownby & Company Hardware And Building Supplie,,152 Main Street West Phone ,,Sevierville ,TN,37862,United States,1 (865) 453-7141,,,,,,
Norandex,,2500 Leaphart Road Phone ,,West Columbia ,SC,29169,United States,1 (803) 739-1121,,,,,,
GBS Lumber,,100 Ashley Road Phone ,,Anderson ,SC,29621,United States,1 (864) 225-0555,,,,,,
RH Smith Lumber,,3021 Delree St Phone ,,West Columbia ,SC,29170,United States,1 (803) 794-4641,,,,,,
"The Building Center-Columbia, SC",,205 Wattling Rd Phone ,,West Columbia ,SC,29170,United States,1 (803) 939-9290,,,,,,
BMC,,1827 Augusta Highway Phone ,,Lexington ,SC,29072,United States,1 (803) 957-4311,,,,,,
Builders First Source,,101 Lumber Lane Phone ,,Seneca ,SC,29672,United States,1 (864) 888-2807,,,,,,
Snead Builders Supply Company,,600 Ellison St Phone ,,Greenwood ,SC,29649,United States,1 (864) 229-2581,,,,,,
Ed Smith Lumber Co.,,137 Hampton Road Phone ,,Gilbert ,SC,29054,United States,1 (803) 892-2590,,,,,,
Oswald Wholesale Lumber Inc,,6809 Augusta Hwy Phone ,,Leesville ,SC,29070,United States,(803) 532-9226,,,,,,
84 Lumber,,5802 Middlebrook Pike Phone ,,Knoxville ,TN,37921,United States,1 (865) 584-4658,,,,,,
Reeves Building Supply,,118 Chechero Street Phone ,,Clayton ,GA,30525,United States,1 (706) 782-4219,,,,,,
84 Lumber,,24 HAPPY HOLLOW RD Phone ,,Middlesboro ,KY,40965-9804,United States,1 (606) 248-8884,,,,,,
84 Lumber,,452 MOREN ROAD Phone ,,London ,KY,40741-2703,United States,1 (606) 878-7484,,,,,,
84 Lumber,,1450 By Pass Road Phone ,,Winchester ,KY,40391,United States,1 (859) 744-8448,,,,,,
Home Lumber,,607 N. Third Street Phone ,,Richmond ,KY,40475,United States,1 (859) 623-6136,,,,,,
K-I Lumber & Building Materials,,2525 Palumbo Drive Phone ,,Lexington ,KY,40509,United States,(859) 268-0953,,,,,,
84 Lumber,,380 Artz Drive Phone ,,Richmond ,KY,40475,United States,1 (859) 624-1147,,,,,,
84 Lumber,,84 Industry Road Phone ,,Somerset ,KY,42501,United States,1 (606) 676-8400,,,,,,
Witt Building Materials,,1242 Weisgarber Rd. Phone ,,Knoxville ,TN,37909,United States,1 (865) 525-0256,,,,,,
Hiwassee Builders Supply,,100 Decatur Pike Phone ,,Athens ,TN,37303,United States,1 (423) 745-4704,,,,,,
North Georgia Building Supply,,2900 Peachtree Industrial Blvd Phone ,,Buford ,GA,30518,United States,1 (770) 945-9640,,,,,,
Builders First Source,,10101 Caneel Drive Phone ,,Knoxville ,TN,37931,United States,1 (865) 971-3579,,,,,,
Pro Build,,10600 Lexington Drive ,,Knoxville ,TN,37932,United States,,,,,,,
Stratton Lumber Co.,,306 N 3Rd Street Phone ,,Nicholasville ,KY,40356,United States,1 (859) 885-9426,,,,,,
Habersham Hardware & Home Center,,232 Larkin St Phone ,,Cornelia ,GA,30531,United States,1 (706) 778-2224,,,,,,
Pickett Farm & Home,,1113 Olympus Dr Phone ,,Byrdstown ,TN,38549,United States,(931) 864-3156,,,,,,
Cumberland Components,,400 West Avenue Phone ,,Crossville ,TN,38555,United States,1 (931) 484-1871,,,,,,
Parks Lumber,,8117 S Chestatee Street Phone ,,Dahlonega ,GA,30533,United States,1 (770) 287-9951,,,,,,
Building Center,,1300 W Main St Phone ,,Livingston ,TN,38570,United States,1 (931) 823-5621,,,,,,
Patriot Building Supply,,1267 West Ridge Rd Phone ,,Gainesville ,GA,30501,United States,1 (770) 531-0120,,,,,,
Shoal Creek Supply,,2450 Shoal Creek Rd. Phone ,,Dawsonville ,GA,30534,United States,(706) 265-3339,,,,,,
Builders First Source,,1285 W Ridge Rd Phone ,,Gainesville ,GA,30504,United States,1 (770) 536-1237,,,,,,
Thomas Lumber Company,,3500 Browns Bridge Phone ,,Cumming ,GA,30040,United States,1 (770) 887-8262,,,,,,
84 Lumber,,2846 EBLEN DRIVE Phone ,,CHATTANOOGA ,TN,37421,United States,1 (423) 490-8486,,,,,,
K-I Lumber & Building Materials,,151 Breighton Circle Phone ,,Shelbyville ,KY,40065,United States,1 (502) 647-7165,,,,,,
84 Lumber,,5275 NEW HWY 68 Phone ,,Madisonville ,TN,37354,United States,1 (423) 442-8184,,,,,,
Builders First Source,,52 Cleveland St Phone ,,Blairsville ,GA,30512,United States,1 (706) 745-2032,,,,,,
Harbin Lumber,,11526 Hwy 17 South Phone ,,Lavonia ,GA,30553,United States,1 (706) 356-4300,,,,,,
84 Lumber,,2345 PALUMBO DRIVE Phone ,,Lexington ,KY,40509-1010,United States,1 (859) 269-3384,,,,,,
Congleton Lumber Company,,1260 Industry Road Phone ,,Lexington ,KY,40505,United States,1 (859) 721-8050,,,,,,
84 Lumber,,470 Whirl-A-Way Drive Phone ,,Danville ,KY,40422,United States,1 (859) 236-8384,,,,,,
Pro-Build,,Po Box 11771 Phone ,,Lexington ,KY,40577,United States,1 (859) 233-4878,,,,,,
84 Lumber,,100 Markham Drive Phone ,,Versailles ,KY,40383,United States,1 (859) 873-8584,,,,,,
84 Lumber,,100 Frazier Court Phone ,,Georgetown ,KY,40324,United States,1 (502) 863-7484,,,,,,
84 Lumber,,2307 RHEA COUNTY HWY Phone ,,Dayton ,TN,37321,United States,1 (423) 775-8466,,,,,,
ProBuild,,1848 Brown's Mill Road Phone ,,Cookeville ,TN,38506,United States,1 (931) 372-1320,,,,,,
Spratlin Hardware & Building Supply,,141 N. Peachtree St. Phone ,,Lincolnton ,GA,30817,United States,1 (706) 359-3217,,,,,,
84 Lumber,,219 Camptown Road Phone ,,Bardstown ,KY,40004,United States,1 (502) 348-1984,,,,,,
Carter Lumber,,2600 Old State Route 32 Phone ,,Batavia ,OH,45103,United States,1 (513) 732-2505,,,,,,
"Juniors Building Materials, Inc.",,7574 Battlefield Pkwy Phone ,,Ringgold ,GA,30736,United States,1 (706) 937-3400,,,,,,
Mccabe Lumber,,118 Northeast Drive Phone ,,Loveland ,OH,45140,United States,1 (513) 683-2662,,,,,,
K-I Lumber & Building Materials,,4010 Collins Lane Phone ,,Louisville ,KY,40245,United States,(502) 637-1401,,,,,,
K-I Lumber & Building Materials,,4025 Collins Lane Phone ,,Louisville ,KY,40245,United States,1 (502) 426-6121,,,,,,
Lessenberry do it center,,1010 west main st ,,Glasgow ,KY,42141,United States,,,,,,,
84 Lumber,,4708 Summit Drive Phone ,,Louisville ,KY,40229,United States,1 (502) 957-1084,,,,,,
B.D. Polston &Son Builders Supply,,905 Red Boiling Springs Rd Phone ,,Lafayette ,TN,37083,United States,1 (615) 666-2157,,,,,,
East Chattanooga Lumber,,1609 Elmendorf Street Phone ,,Chattanooga ,TN,37406,United States,1 (423) 648-5550,,,,,,
K-I Lumber & Building Materials,,5301 U.S. Highway 31 North Phone ,,Clarksville ,IN,47129,United States,(812) 283-7000,,,,,,
PC Home Center,,123 Cherry Street Phone ,,New Albany ,IN,47150,United States,1 (812) 944-4444,,,,,,
PC Lumber & Hardware,,150 Hunter Station Road Phone ,,Sellersberg ,IN,47172,United States,1 (812) 246-4485,,,,,,
Carter Lumber,,3950 Hodgenville Road Phone ,,Elizabethtown ,KY,42701,United States,1 (270) 737-6233,,,,,,
Forge Lumber,,39 Montgomery Street Phone ,,Erlanger ,KY,41018,United States,1 (513) 561-7465,,,,,,
Don's Lumber & Hardware,,2688 Leitchfield Road Phone ,,Elizabethtown ,KY,42701,United States,(270) 737-7702,,,,,,
Forge Lumber,,1528 Gest Street Phone ,,Cincinnati ,OH,45203,United States,1 (513) 541-3800,,,,,,
84 Lumber,,4100 Progress Blvd Phone ,,Louisville ,KY,40218,United States,1 (502) 456-6384,,,,,,
84 Lumber,,2501 South Dixie Blvd Phone ,,Radcliff ,KY,40160-1042,United States,1 (270) 351-8448,,,,,,
84 Lumber,,10005 Dixie Hwy Phone ,,Louisville ,KY,40272,United States,1 (502) 935-8484,,,,,,
84 Lumber,,2005 Cooper Lane Phone ,,Jeffersonville ,IN,47130,United States,1 (812) 283-0794,,,,,,
Carter Lumber,,1242 Reading Rd Phone ,,Mason ,OH,45040,United States,1 (513) 234-8888,,,,,,
84 Lumber,,12139 Princeton Pike Phone ,,Springdale ,OH,45246,United States,1 (513) 671-1084,,,,,,
Aurora Lumber,,1055 Green Blvd Phone ,,Aurora ,IN,47001,United States,1 (812) 926-2412,,,,,,
84 Lumber,,10084 Cilley Road Phone ,,Cleves ,OH,45002,United States,1 (513) 353-2172,,,,,,
Bender Lumber,,3700 N State Rd 7 Phone ,,Madison ,IN,47250,United States,(812) 265-9737,,,,,,
Carter Lumber,,3975 Louisville Road Phone ,,Bowling Green ,KY,42101,United States,1 (270) 843-4316,,,,,,
PMC Building Materials East,,175 Buford Drive NE Phone ,,Lawrenceville ,GA,30046,United States,(770) 995-3900,,,,,,
Collins Building Materials,,6700 HWY 41 Phone ,,Jasper ,TN,37347,United States,(423) 942-5416,,,,,,
"Gordon Building Supply, Inc.",,319 North River Street Phone ,,Calhoun ,GA,30703,United States,1 (706) 629-8279,,,,,,
J.P. Haynes Lumber Company,,2838 Ballground Highway Phone ,,Canton ,GA,30114,United States,1 (770) 479-3223,,,,,,
Hill-Motley Lumber Company,,121 West Main Street Phone ,,Bowling Green ,KY,42101,United States,1 (270) 842-2436,,,,,,
Midway Building Supply,,4865 Highway 9 Phone ,,Alpharetta ,GA,30004,United States,1 (770) 475-7067,,,,,,
"Artistic Builders Supply, Inc",,963 Buford Drive Phone ,,Lawrenceville ,GA,30043,United States,1 (770) 963-5222,,,,,,
84 Lumber,,1935 NW BROAD STREET Phone ,,MURFREESBORO ,TN,37129,United States,1 (615) 849-3777,,,,,,
84 Lumber,,111 TENNESSEE WAY Phone ,,Hendersonville ,TN,37075,United States,1 (615) 264-8499,,,,,,
PMC Building Materials,,2009 Dorsey Road Phone ,,Marietta ,GA,30066,United States,1 (770) 427-9770,,,,,,
Timbertown Atlanta,,1137 Atlanta Industrial Dr. ,,Marietta ,GA,30066,United States,,,,,,,
BMC,,399 Northpoint Parkway Phone ,,Acworth ,GA,30102,United States,1 (678) 439-3300,,,,,,
Franklin County Lumber,,617 David Crockett Highway Phone ,,Winchester ,TN,37398,United States,(931) 967-3856,,,,,,
Probuild,,2700 Kennesaw Due West Phone ,,Kennesaw ,GA,30144,United States,1 (770) 428-2604,,,,,,
84 Lumber,,84 Ampacet Dr Phone ,,Cartersville ,GA,30120,United States,1 (770) 383-8784,,,,,,
"Metro Building Products, Inc.",,1151 Industrial Park Dr. Phone ,,Marietta ,GA,30060,United States,1 (770) 591-4493,,,,,,
BMC,,1000 Loudermilk Drive Phone ,,Marietta ,GA,30060,United States,1 (770) 499-8382,,,,,,
BMC,,3386 Lawrenceville Hwy Phone ,,Tucker ,GA,30085,United States,1 (770) 934-1400,,,,,,
Oakley Lumber Company,,707 42Nd Ave. N. Phone ,,Nashville ,TN,37209,United States,1 (615) 321-3644,,,,,,
Cofer Brothers,,2300 Main Street Phone ,,Tucker ,GA,30084,United States,1 (770) 938-3200,,,,,,
Huskey Building Supply,,424 Lewisburg Pike Phone ,,Franklin ,TN,37064,United States,1 (615) 791-0100,,,,,,
84 Lumber,,223 EMERSON BYPASS ROAD Phone ,,Russellville ,KY,42276,United States,1 (270) 725-9184,,,,,,
Builders Supply Company  Inc.,,611 Godfrey Avenue Se Phone ,,Fort Payne ,AL,35967,United States,1 (256) 845-1451,,,,,,
84 Lumber,,812 Lumber St. Phone ,,Myrtle Beach ,SC,29577,United States,1 (843) 445-2984,,,,,,
ABC Supply Company Inc 109,,441 Abc Dr Phone ,,Myrtle Beach ,SC,29577,United States,1 (843) 626-4663,,,,,,
Atlantic Roofing Dist.,,8063 Moss Creek Rd Phone ,,Myrtle Beach ,SC,29588,United States,(843) 650-5660,,,,,,
Carter Lumber,,3783 Chester Blvd Phone ,,Richmond ,IN,47374,United States,1 (765) 939-0238,,,,,,
Carter Lumber,,9834 Us 40 Phone ,,Centerville ,IN,47330,United States,1 (765) 855-5213,,,,,,
Carter Lumber,,8779 SR 703 Phone ,,Celina ,OH,45822,United States,1 (419) 394-2317,,,,,,
GOECKER BUILDING SUPPLIES INC,,2885 N. STATE HWY 3 Phone ,,NORTH VERNON ,IN,47265,United States,(812) 346-3627,,,,,,
Carter Lumber,,883 N Washington Street Phone ,,Van Wert ,OH,45891,United States,1 (419) 238-2422,,,,,,
84 Lumber,,183 Burkart Blvd Phone ,,Seymour ,IN,47274,United States,1 (812) 523-8400,,,,,,
GOECKER BUILDING SUPPLIES INC,,1800 S. WALNUT STREET Phone ,,SEYMOUR ,IN,47274,United States,(812) 522-4181,,,,,,
Bender Lumber,,1425 California St Phone ,,Columbus ,IN,47202,United States,1 (812) 379-9566,,,,,,
Builders First Source,,226 Tiller Drive Phone ,,Pawleys Isalnd ,SC,29585,United States,(843) 237-0333,,,,,,
Builders First Source-Pawleys Island,,226 Tiller Dr. Phone ,,Pawleys Island ,SC,29585,United States,1 (843) 237-0333,,,,,,
Adams Supply,,871 Edgefield Rd Phone ,,North Augusta ,SC,29841,United States,1 (803) 279-9909,,,,,,
Mulherin Lumber Co,,705 Industrial Park Dr Phone ,,Evans ,GA,30809,United States,1 (706) 863-6070,,,,,,
Maner Builders Supply,,3717 Washington Rd Phone ,,Augusta ,GA,30907,United States,1 (706) 863-6191,,,,,,
84 Lumber,,1725 Wylds Rd Phone ,,Augusta ,GA,30909,United States,1 (706) 737-1084,,,,,,
"Decks and Docks Lumber Company, Inc.",,1981 Pittsburgh Ave. Phone ,,Charleston ,SC,29405,United States,(843) 266-9675,,,,,,
Builders First Source-Bluffton,,2651 North Okatie Highway Phone ,,Ridgeland ,SC,29936,United States,1 (843) 987-0810,,,,,,
Social Circle Ace Home Center,,181 S Cherokee Rd Phone ,,Social Circle ,GA,30025,United States,1 (770) 464-3354,,,,,,
Harbin Lumber Company,,924 Milledgeville Rd Phone ,,Eatonton ,GA,31024,United States,1 (706) 485-3447,,,,,,
Sandersville Builders Supply,,206 W. Haynes St ,,Sandersville ,GA,31082,United States,,,,,,,
Baldwin Builders,,550 Martin Luther King Dr Phone ,,Milledgeville ,GA,31061,United States,1 (478) 452-1511,,,,,,
Carolina Lumber & Supply (Marietta Rd),,2290 Marietta Rd. NW Phone ,,Atlanta ,GA,30318,United States,1 (404) 794-7991,,,,,,
Carolina Lumber & Supply (Plasters Ave),,504 Plasters Avenue Phone ,,Atlanta ,GA,30324,United States,1 (404) 873-2676,,,,,,
Randall Brothers,,665 Marietta Street NW Phone ,,Atlanta ,GA,30371,United States,(404) 892-6666,,,,,,
84 Lumber,,6828 Bankhead Hwy Phone ,,Douglasville ,GA,30134,United States,1 (678) 715-8464,,,,,,
Bankston Lumber,,941 Hwy 341 Phone ,,Barnesville ,GA,30204,United States,1 (770) 358-2800,,,,,,
Grayco Building Center,,1115 Fording Island Rd. Phone ,,Bluffton ,SC,29910,United States,1 (843) 815-5788,,,,,,
Espy Lumber Company,,147 Arrow Rd Phone ,,Hilton Head ,SC,29938,United States,1 (843) 785-3821,,,,,,
Decks & Docks Lumber Company,,2200 Dean Forest Road Phone ,,Pooler ,GA,31408,United States,1 (912) 966-0786,,,,,,
Guerry Lumber,,123 W. 44th Street Phone ,,Savannah ,GA,31403,United States,1 (912) 232-3128,,,,,,
Barnett & Cheeves,,1189 Highway 16 East Phone ,,Newnan ,GA,30263,United States,1 (770) 253-2630,,,,,,
Wilson Lumber Company  Inc.,,4818 Meridian Street Phone ,,Huntsville ,AL,35811,United States,1 (256) 852-7411,,,,,,
ABC Supply Company Inc 255,,57 Depot Usa Dr Phone ,,Oxford ,AL,36203,United States,1 (256) 831-0749,,,,,,
Wedowee Building Supply,,19085 HWY 431 N. Phone ,,Wedowee ,AL,36278,United States,1 (205) 357-2845,,,,,,
84 Lumber,,8484 Fortson Rd Phone ,,Fortson ,GA,31808,United States,1 (706) 653-8475,,