store_name,store_number,address,address2,city,state,zip_code,country,phone_number,latitude,longitude,store_hours,store_type,other_fields,coming_soon
edgebrook-skokie,2530,5230 W Touhy Ave.,,Skokie,IL,60077,United States,(847) 423-6060,42.012395,-87.758613,,,,
chicago-lincolnpark,1848,2209 N. Halsted St.,,Chicago,IL,60614,United States,(312) 762-5556,41.916012800000,-87.648441900000,,,,
southloop,1891,1001 S State Street,,Chicago,IL,60605,United States,(312) 734-1100,41.870066,-87.627065,,,,
chicago-westloopil,1820,823 W. Madison St.,,Chicago,IL,60607,United States,(773) 741-1600,41.881769,-87.648468,,,,
chicago-lincolnsquare,1710,4728 North Lincoln Avenue,,Chicago,IL,60625,United States,(312) 755-6650,41.967334800000,-87.688002400000,,,,
chicago-logansquare,1634,2251 N. Milwaukee Avenue,Chicago IL 60647,Chicago,IL,60647,United States,(312) 874-7227,41.922183000000,-87.694973200000,,,,
chicago-roscoevillage,1529,3328 North Western Avenue,Chicago IL 60618,Chicago,IL,60618,United States,(312) 971-6223,41.941270000000,-87.689437300000,,,,
oakparkil,1471,7121 W. North Avenue,Oak Park IL 60302,Oak Park,IL,60302,United States,(708) 793-9219,41.908290200000,-87.805326600000,,,,
chicago-wickerpark,1480,1634 West North Avenue,,Chicago,IL,60622,United States,(312) 757-1644,41.910868000000,-87.669209000000,,,,
chicago-edgewater,1515,1126 West Granville Avenue,Chicago IL 60660,Chicago,IL,60660,United States,(773) 234-0311,41.994567000000,-87.659492900000,,,,
chicagooldtown,1517,1513 North Wells Street,,Chicago - Old Town,IL,60610,United States,(312) 625-1204,41.909618377686,-87.634246826172,,,,
chicagowrigleyville,1294,3738 N Halsted,Unit #2,Chicago,IL,60613,United States,(224) 252-0242,41.9504097,-87.6500625,,,,
hackensack-coming-soon,2845,450 Hackensack Ave.,,Hackensack,NJ,07601,United States,(201) 450-9663,40.909669,-74.030508,,,,
staten-island-woodrow,2464,1275 Woodrow Rd.,,Staten Island,NY,10309,United States,(347) 577-9877,40.541781,-74.207210,,,,
manhattan-midtown-west,2303,321 West 37th Street,Suite V,New York,NY,10018,United States,(646) 829-9330,40.754629,-73.992812,,,,
williamsburg-brooklyn,1683,157 Kent Avenue,,Brooklyn,NY,11249,United States,(917) 201-7014,40.7186397,-73.9634505,,,,
park-slope,1704,248 Flatbush Avenue,,Brooklyn,NY,11217,United States,(718) 475-9452,40.679490000000,-73.976737700000,,,,
astor-place,1705,51 Astor Place,,New York,NY,10003,United States,(646) 357-3057,40.730136600000,-73.992318000000,,,,
brooklynheights,1608,186 Montague St.,2nd Floor,Brooklyn,NY,11201,United States,(917) 201-7013,40.693842800000,-73.991669900000,,,,
statenislandheartlandvillage,1568,2409 Richmond Ave,,Staten Island,NY,10314,United States,(347) 442-7020,40.588756561279,-74.166725158691,,,,
totowa,1474,650 Union Boulevard,Totowa NJ 07512,Totowa,NJ,07512,United States,(973) 500-6600,40.897232000000,-74.220894500000,,,,
edgewater,1296,725 River Road,,Edgewater,NJ,07020,United States,(201) 212-6388,40.8200655,-73.9772166,,,,
garwood,1297,502 North Ave,,Garwood,NJ,07027,United States,(908) 737-1390,40.6527509,-74.3292781,,,,
chelsea,1298,124 W 23rd St,,New York,NY,10011,United States,(646) 588-0133,40.7430665,-73.9939249,,,,
spring,2117,6600 Spring Stuebner,Suite B9,Houston,TX,77389,United States,(281) 907-9701,30.083144,-95.479437,,,,
kingwood,2114,4525 Kingwood Drive,Suite 100,Kingwood,TX,77345,United States,(281) 516-5787,30.050169,-95.184239,,,,
webster,1913,136 Bay Area Boulevard,,Webster,TX,77598,United States,(832) 598-7199,29.549142200000,-95.130809600000,,,,
sawyerheights,1742,2313 Edwards St Suite 135,,Houston,TX,77007,United States,(832) 916-2138,29.770660000000,-95.381458400000,,,,
katy-cincoranch,1614,23144 Cinco Ranch Boulevard,Katy TX 77494,Katy,TX,77494,United States,(281) 727-0098,29.744947400000,-95.771348200000,,,,
cypresstownelake,1645,9925 Barker Cypress Rd. Suite 143,Cypress TX 77433,Cypress,TX,77433,United States,(281) 661-1006,29.922468600000,-95.686407200000,,,,
westuniversity,1547,2511 Bissonnet Street,Houston TX 77005,Houston,TX,77005,United States,(832) 510-2866,29.725236000000,-95.417388000000,,,,
pearland,1475,9517 West Broadway Street 115,Pearland TX 77584,Pearland,TX,77584,United States,(281) 377-1723,29.557600800000,-95.367540500000,,,,
townandcountrytexas,1477,700 Town and Country Boulevard 2430,Houston TX 77024,Houston,TX,77024,United States,(281) 769-1064,29.776825800000,-95.561176000000,,,,
sugarland,1390,15890 Southwest Freeway Suite 300,Sugar Land TX 77478,Sugar Land,TX,77478,United States,(281) 325-0018,29.600424300000,-95.622847600000,,,,
vintagepark,1447,15556 Cutten Road 1000,Houston TX 77070,Houston,TX,77070,United States,(281) 656-6645,29.998288200000,-95.562442000000,,,,
houstontanglewood,1355,6415 A San Felipe Street,,Houston,TX,77057,United States,(713) 952-9917,29.749526977539,-95.498077392578,,,,
redondo-beach-coming-soon,2722,409 North Pacific Coast Highway Suite 205,,Redondo Beach,CA,90277,United States,(424) 400-7433,33.847949,-118.389522,,,,
woodland-hills,2309,21841 Ventura Blvd.,,Woodland Hills,CA,91367,United States,(818) 805-0900,34.169561,-118.603551,,,,
northridgeca,1914,9201-C Winnetka Avenue,,Chatsworth,CA,91311,United States,(818) 956-0005,34.238300,-118.574447,,,,
shermanoaks,1723,14006 Riverside Drive,Sherman Oaks CA 91423,Sherman Oaks,CA,91423,United States,(818) 405-0001,34.156563900000,-118.436992700000,,,,
melrosecrossing,1735,640 N. La Brea Ave,Los Angeles CA 90038,Los Angeles,CA,90038,United States,(323) 450-2200,34.083062100000,-118.344063900000,,,,
glendalesilverlakes,1762,101 North Brand Boulevard,Glendale CA 91203,Glendale,CA,91203,United States,(818) 398-7155,34.146875900000,-118.255470800000,,,,
la-brentwood,1679,11661 San Vicente Blvd,,Los Angeles,CA,90049,United States,(310) 694-5656,34.0542791,-118.4643612,,,,
longbeach,1587,6620 E Pacific Coast Hwy,Long Beach CA 90803,Long Beach,CA,90803,United States,(562) 475-4788,33.754086500000,-118.108901400000,,,,
pasadena,1500,2091 East Colorado Blvd.,Pasadena CA 91107,Pasadena,CA,91107,United States,(626) 788-9755,34.146349700000,-118.107244900000,,,,
westhollywood,1503,7950 West Sunset Boulevard,Los Angeles CA 90046,Los Angeles,CA,90046,United States,(323) 282-5595,34.097592000000,-118.363270000000,,,,
torrance,1520,3730 Pacific Coast Highway Unit #101,Torrance CA 90505,Torrance,CA,90505,United States,(310) 948-3845,33.804915700000,-118.350967000000,,,,
santamonica,1448,1431 2nd Street,Santa Monica CA 90401,Santa Monica,CA,90401,United States,(310) 730-1399,34.014396500000,-118.496043500000,,,,
south-mountain-coming-soon,2836,2485 E Baseline Road Suite 152,,Phoenix,AZ,85042,United States,(602) 362-6835,33.377078,-112.027853,,,,
camelbackcolonnade,1774,1928 East Highland Avenue,Phoenix AZ 85016,Phoenix,AZ,85016,United States,(602) 277-5400,33.506043800000,-112.041411500000,,,,
scottsdaleranch,1649,9301 East Shea Boulevard 114,Scottsdale AZ 85260,Scottsdale,AZ,85260,United States,(480) 551-1111,33.580911400000,-111.881142700000,,,,
downtownphoenix,1463,"50 W Jefferson Street, Suite 150",,Phoenix,AZ,85003,United States,(602) 254-2929,33.447483062744,-112.074630737305,,,,
oldtownscottsdale,1479,7620 E Indian School Rd Suite 107,Phoenix AZ 85251,Phoenix,AZ,85251,United States,(480) 405-2683,33.496669300000,-111.916537700000,,,,
moonvalley,1407,735 East Bell Road Suite 11,Phoenix AZ 85022,Phoenix,AZ,85022,United States,(602) 292-5636,33.639197000000,-112.064368000000,,,,
centralphoenix,1428,"742 E Glendale Ave, Suite 172",,Phoenix,AZ,85020,United States,(602) 749-1111,33.538959503174,-112.064811706543,,,,
mccormickranch,1449,7001 North Scottsdale Road Suite E-185,Scottsdale AZ 85253,Scottsdale,AZ,85253,United States,1,33.539416200000,-111.923981300000,,,,
paradisevalley,1318,10810 Tatum Boulevard,,Phoenix,AZ,85028,United States,(602) 493-2002,33.584533100000,-111.979056400000,,,,
ahwatukee,1319,900 North 54th Street 2,,Chandler,AZ,85226,United States,(480) 686-9054,33.318107800000,-111.969342100000,,,,
arcadia,1324,5109 North 44th Street D401,,Phoenix,AZ,85018,United States,(602) 955-1798,33.511897500000,-111.986648100000,,,,
tempe,1335,1855 East Guadalupe Road Suite A-102,,Tempe,AZ,85283,United States,(480) 300-5683,33.363155900000,-111.908312700000,,,,
northern-liberties-coming-soon,2802,1050 N. Hancock Street Suite #58,,Philadelphia,PA,19123,United States,267-331-4445,39.966444,-75.139576,,,,
wayne-coming-soon,2689,821 W. Lancaster Ave,,Wayne,PA,19087,United States,(610) 572-4789,40.048844,-75.411201,,,,
voorhees,2409,148 Route 73,Suite 4,Voorhees Township,NJ,08043,United States,(856) 504-8286,39.834928,-74.925208,,,,
cherry-hill,2295,929 Haddonfield Rd.,Suite A,Cherry Hill,NJ,01886,United States,(856) 282-1122,39.925265,-75.032967,,,,
audubon,1838,613 South Trooper Road,,Audubon,PA,19403,United States,(484) 235-0596,40.128220100000,-75.404231400000,,,,
centercity,1698,1625 Chestnut Street,Philadelphia PA 19103,Philadelphia,PA,19103,United States,(215) 543-3833,39.951853700000,-75.167956300000,,,,
paoli,1609,82 East Lancaster Ave.,Paoli PA 19301,Paoli,PA,19301,United States,(484) 674-6400,40.041856900000,-75.485778900000,,,,
gwyneddnorthwales,1565,1210 Bethlehem Pike #A5,North Wales PA 19454,North Wales,PA,19454,United States,(215) 643-2033,40.207215900000,-75.225458700000,,,,
bluebell,1454,1510 Dekalb Pike,Blue Bell PA 19422,Blue Bell,PA,19422,United States,(610) 272-1300,40.154473000000,-75.301894600000,,,,
langhorne,1498,144 North Flowers Mill Road,Langhorne PA 19047,Langhorne,PA,19047,United States,(215) 839-1111,40.179848700000,-74.907520800000,,,,
moorestownmall,1414,400 West Route 38 Unit #1400,Moorestown NJ 08057,Moorestown,NJ,08057,United States,(856) 581-4801,39.944394700000,-74.959186600000,,,,
willowgrove,1322,164 Park Avenue,,Willow Grove,PA,19090,United States,(215) 866-8666,40.144252300000,-75.117438000000,,,,
stone-oak,2500,20935 US HWY 281 N,,San Antonio,TX,78258,United States,(210) 899-0098,29.641129,-98.457393,,,,
bandera,2499,11600 Bandera Road,,San Antonio,TX,78250,United States,(210) 899-0099,29.552277,-98.663214,,,,
sunset-valley,2498,5601 Brodie Lane,Suite 1200B,Austin,TX,78745,United States,(512) 807-0404,30.226337,-97.819664,,,,
san-marcos,2116,243 Wonder World Drive,Suite 108,San Marcos,TX,78666,United States,(512) 357-3057,29.862310,-97.959338,,,,
cibolo,2113,513 Cibolo Valley Dr.,,Cibolo,TX,78108,United States,(210) 501-0299,29.572309,-98.234561,,,,
alamoranch,1864,5619 NW Loop 1604,Suite 122,San Antonio,TX,78253,United States,(210) 899-0100,29.491853100000,-98.706092100000,,,,
huebner,1889,12055 Vance Jackson Rd.,,San Antonio,TX,78230,United States,(210) 899-0044,29.551924300000,-98.572956400000,,,,
newbraunfels,1752,1691 State Highway 46-W,New Braunfels TX 78132,New Braunfels,TX,78132,United States,(830) 312-4660,29.714406100000,-98.160363100000,,,,
lakeway,1697,1516 620 South,,Lakeway,TX,78734,United States,(512) 430-1323,30.346793000000,-97.967609700000,,,,
westlake,1719,3300 Bee Cave Road,,Austin,TX,78746,United States,(512) 807-0441,30.274974800000,-97.798971300000,,,,
sonterravillage,1452,427 North Loop 1604 West 106,San Antonio TX 78232,San Antonio,TX,78232,United States,(210) 802-4348,29.609315000000,-98.499022600000,,,,
southaustin,1495,9500 S IH 35 Frontage Rd L800,Austin TX 78748,Austin,TX,78748,United States,(512) 969-6626,30.161056100000,-97.792023900000,,,,
chula-vista-coming-soon,2784,2015 Birch Rd. #1701,,Chula Vista,CA,91915,United States,619-642-2400,32.621671,-116.965515,,,,
san-diego-solana,2450,667 San Rodolfo Drive,Suite #126,Solana Beach,CA,92075,United States,(858) 275-6200,32.993729,-117.259394,,,,
sandiego-4sranch,1791,16445 Paseo Del Sur,,San Diego,CA,92127,United States,(858) 257-1777,33.020259000000,-117.124031500000,,,,
sandiego-bankershill,1743,2665 5th Ave.,,San Diego,CA,92103,United States,(619) 363-4040,33.177692700000,-117.339670500000,,,,
lamesa,1768,8322 Parkway Drive,La Mesa CA 91942,La Mesa,CA,91942,United States,(619) 916-5999,32.7793386,-117.0175066,,,,
powayca,1671,12207 Poway Road,,Poway,CA,92064,United States,(858) 999-3004,32.9508224,-117.0668638,,,,
carlsbad,1711,1820 Marron Road Suite 104,Carlsbad CA 92008,Carlsbad,CA,92008,United States,(760) 517-9090,33.177681500000,-117.339779600000,,,,
pointloma,1658,3980 West Point Loma Blvd,,San Diego,CA,92110,United States,(858) 216-2020,32.7543279,-117.2232298,,,,
missionvalley,1512,7510 Hazard Center Drive Suite 401,San Diego CA 92108,San Diego,CA,92108,United States,(858) 248-8444,32.770793800000,-117.159009200000,,,,
carmelvalleysd,1519,11155 East Ocean Air Drive,San Diego CA 92130,San Diego,CA,92130,United States,(858) 207-3131,32.920552600000,-117.215666600000,,,,
encinitas,1384,215 South El Camino Real Suite A,Encinitas CA 92024,Encinitas,CA,92024,United States,(760) 297-4545,33.043426500000,-117.259049500000,,,,
lajolla,1345,7734 Girard Avenue #C,,San Diego,CA,92037,United States,(858) 551-8750,32.844240200000,-117.274102800000,,,,
sanmateoca,1865,101 S B St,,San Mateo,CA,94401,United States,(650) 487-0404,37.567079,-122.323711,,,,
capitola,1727,1501 41st Avenue Suite N,Capitola CA 95010,Capitola,CA,95010,United States,(831) 359-4227,36.972333200000,-121.967048500000,,,,
morganhill,1703,50 East Third Street,,Morgan Hill,CA,95037,United States,(408) 762-5858,37.1283943,-121.6517615,,,,
redwoodcity,1600,236 Redwood Shores Parkway,Redwood City CA 94065,Redwood City,CA,94065,United States,(650) 562-6577,37.522047300000,-122.251439800000,,,,
sanjose-rosegarden,1626,1360 The Alameda,,San Jose,CA,95126,United States,(408) 912-1992,37.333175300000,-121.913563900000,,,,
sanjose-willowglen,1655,1331 Lincoln Ave,,San Jose,CA,95125,United States,(408) 297-2425,37.3045291,-121.8985015,,,,
downtownsunnyvale,1579,155 S Frances St,,Sunnyvale,CA,94086,United States,(408) 508-6724,37.376937600000,-122.031253000000,,,,
sanjose-communicationhill,1590,551 W. Capitol Expressway,San Jose CA 95136,San Jose,CA,95136,United States,(408) 680-2048,37.275802000000,-121.853692000000,,,,
losgatos,1528,16250 Los Gatos Blvd,Los Gatos CA 95032,Los Gatos,CA,95032,United States,(408) 384-4220,37.232614000000,-121.964073000000,,,,
campbell,1531,1725 South Bascom Avenue,Campbell CA 95008,Campbell,CA,95008,United States,(408) 684-8662,37.291792000000,-121.932621000000,,,,
paloalto,1418,2190 West Bayshore Road 150,,Palo Alto,CA,94303,United States,(650) 328-1550,37.4480714,-122.128565,,,,
dublin,1282,5258 Dublin Blvd,,Dublin,CA,94568,United States,(925) 587-5182,37.705652,-121.891142,,,,
rockwall,2638,1063-103 East Interstate 30,,Rockwall,TX, 75087,United States,(469) 651-1410 ,32.896144,-96.471735,,,,
northplanotx,1828,8245 Preston Rd.,Suite 200,North Plano,TX,75024,United States,(469) 708-2090,33.089447,-96.805663,,,,
arlingtonhighlands,1835,4000 5 Points Boulevard #155,,Arlington,TX,76018,United States,(817) 419-2505,32.679938600000,-97.107275100000,,,,
murphy,1607,601E FM544 Suite 300,Murphy TX 75094,Murphy,TX,75094,United States,(972) 355-0809,33.011851000000,-96.598795000000,,,,
addison,1483,5290 Belt Line Road Suite 156,Dallas TX 75254,Dallas,TX,75254,United States,(214) 758-0338,32.953092000000,-96.816937900000,,,,
prestonhollow,1493,7039 Walnut Hill Lane Suite B20,Preston Hollow - Dallas TX 75225,Preston Hollow - Dallas,TX,75225,United States,(469) 729-5866,32.880124700000,-96.783884100000,,,,
castlehillstexas,1523,6201 N Josey Ln Suite #200,Lweisville TX 75056,Lewisville,TX,75056,United States,(972) 521-8404,33.065195800000,-96.888711800000,,,,
colleyville,1387,4709 Colleyville Boulevard Suite 500,Colleyville TX 76034,Colleyville,TX,76034,United States,(817) 840-3400,32.878827300000,-97.156405100000,,,,
preston-frankford,1395,18101 Preston Road Unit 105,Dallas TX 75252,Dallas,TX,75252,United States,(972) 244-4111,32.998700900000,-96.798820000000,,,,
mesquite,1396,1765 North Town East Boulevard #141,Mesquite TX 75150,Mesquite,TX,75150,United States,(972) 698-0525,32.810991400000,-96.626227000000,,,,
coppell,1368,240 North Denton Tap Road Suite 440,Coppell TX 75019,Coppell,TX,75019,United States,(214) 300-9983,32.974459000000,-96.992996900000,,,,
plano,1375,2208 Dallas Parkway,Plano TX 75093,Plano,TX,75093,United States,(972) 521-3500,33.030752800000,-96.827981400000,,,,
mueller-coming-soon,2756,1911 Aldrich St.,Suite 175,Austin,TX,78723,United States,(512) 807-0401,30.298345,-97.704274,,,,
south-lamar,2497,1100 S Lamar Blvd.,,Austin,TX,78704,United States,(512) 807-0400,30.255881,-97.762888,,,,
domaintx,1846,3100 Esperanza Crossing,Suite 118,Domain,TX,78758,United States,(512) 807-0444,30.399765,-97.7252177,,,,
lakelinetx,1849,13000 N FM 620 RD SB.,Suite 105,Lakeline,TX,78750,United States,(512) 807-0442,30.4687857,-97.799245,,,,
triangletx,1808,4601 N. Lamar Blvd.,#508,Austin,TX,78751,United States,(512) 807-0446,30.315073,-97.735825,,,,
arbortownsquare,1489,10721 Research Boulevard Suite A-100,Austin TX 78759,Austin,TX,78759,United States,(512) 900-3223,30.399102000000,-97.744997000000,,,,
fourpoints,1423,"7301 N FM 620, Suite 175",Austin TX 78726,Austin,TX,78726,United States,(512) 368-9343,30.405275300000,-97.851362400000,,,,
roundrock,1432,661 Louis Henna Boulevard 450,Round Rock TX 78664,Round Rock,TX,78664,United States,(512) 969-6625,30.482007500000,-97.656892500000,,,,
bloomington-coming-soon,2815,"2894 E. 3rd Street, Suite 113",,Bloomington,IN , 47401,United States,812-727-4002,39.161628,-86.493897,,,,
greenwood,2504,1675 W. Smith Valley Road,Suite D5,Greenwood,IN,46142,United States,(317) 247-0000,39.604993,-86.157082,,,,
west-carmel-zionsville-coming-soon,2342,4000 West 106th St.,Suite 145,Carmel,IN,46032,United States,(317) 449-2100,39.941709,-86.234535,,,,
fishers-geist,1764,11695 Olio Road,Fishers IN 46037,Fishers,IN,46037,United States,(317) 960-4100,39.959264700000,-85.918605200000,,,,
westchester,1695,7641 Voice of America Centre Drive,West Chester FL 45069,West Chester,OH,45069,United States,(513) 718-2535,39.3558358,-84.3637865,,,,
keystone,1597,2727 E 86th St Suite #115,Indianapolis IN 46240,Indianapolis,IN,46240,United States,(317) 542-3102,39.911591200000,-86.116252200000,,,,
carmel,1472,2438 East 146th Street,Carmel IN 46033,Carmel,IN,46033,United States,(317) 688-1348,40.000321200000,-86.119183100000,,,,
cincinnati-kenwood,2503,8154 Montgomery Road,,Cincinnati,OH,45236,United States,(513) 318-9342,39.203897,-84.368123,,,,
dublin-avery-square-coming-soon,2355,6505 Perimeter Drive,,Dublin,OH,43016,United States,(614) 852-4222,40.105176,-83.162644,,,,
grovecityoh,1908,2718 London-Groveport Rd.,,Grove City,OH,43123,United States,(614) 852-4700,39.839452,-83.078833,,,,
bexley,1807,2224 E. Main Street,,Bexley,OH,43209,United States,(614) 360-1212,39.957775900000,-82.939776800000,,,,
grandview,1813,1009 W. 5th Avenue,,Columbus,OH,43212,United States,(614) 305-7555,39.988191100000,-83.032695900000,,,,
blacklick,1816,6819 E. Broad Sreet Columbus Ohio 43213,,Blacklick,OH,43213,United States,(614) 427-0121,39.980671,-82.81983,,,,
westervilleoh,1786,823 Polaris Pkwy,,Westerville,OH,43082,United States,(614) 300-2925,40.1261743,-82.9290696,,,,
mason,1773,8267 Arbor Square Drive,Mason OH 45040,Mason,OH,45040,United States,(513) 445-5844,39.319467900000,-84.315501600000,,,,
newalbany,1551,7340 Fodor Road,New Albany OH 43054,New Albany,OH,43054,United States,(614) 918-7038,40.088239100000,-82.826149400000,,,,
hilliard,1521,3959 Britton Pkwy,Hilliard OH 43026,Hilliard,OH,43026,United States,(614) 721-7444,40.033701600000,-83.131542200000,,,,
dublin-sawmill,1372,7581 Sawmill Road,,Dublin,OH,43016,United States,(614) 356-9999,40.120609283447,-83.092178344727,,,,
jacksonville-beach-coming-soon,2787,3994 Third Street,,Jacksonville Beach,FL,32250,United States,(904) 238-5272,30.256688,-81.388226,,,,
nocatee-coming-soon,2723,152 Capital Green Circle,,Ponte Vedra Beach,FL,32081,United States,(904) 900-7644,30.109651,-81.417832,,,,
st-augustine,2637,833 South Ponce de Leon Blvd. #1,,St. Augustine,FL,32084,United States,(904) 647-8088,29.881331,-81.325113,,,,
oakleaf,2526,9610 Applecross Rd.,Suite 102,Jacksonville,FL,32222,United States,(904) 661-1958,30.196415,-81.827186,,,,
nstjohnsfl,1836,2851 CR 210,,St Johns,FL,32259,United States,(904) 671-7071,30.0593026,-81.5323807,,,,
tinseltown,1730,9734 Deer Lake Court,,Jacksonville,FL,32246,United States,(904) 559-1200,30.265045100000,-81.554953000000,,,,
gainesvillesw,1765,"3205 Clark Butler Road, Suite 20",Gainesville FL 32608,Gainesville,FL,32608,United States,(352) 242-0020,29.6242201,-82.3820421,,,,
jacksonville-ortega,1461,4495 Roosevelt Boulevard 318,,Jacksonville,FL,32210,United States,(904) 328-6905,30.279973983765,-81.718803405762,,,,
gainesville,1467,2005 Northwest 43rd Street,Gainesville FL 32605,Gainesville,FL,32605,United States,(352) 559-3937,29.671684200000,-82.388104600000,,,,
jacksonville,1373,11111 San Jose Boulevard,Jacksonville FL 32223,Jacksonville,FL,32223,United States,(904) 886-3377,30.173508100000,-81.626742700000,,,,
pinole,2169,1400 Pinole Valley Road,,Pinole,CA,94564,United States,(510) 777-0600,37.999024,-122.287354,,,,
emeryvilleca,1802,5959 Shellmound St.,,Emeryville,CA,94608,United States,(510) 560-4565,37.831316,-122.2852473,,,,
solano-albanyca,1829,1495 Solano Ave.,,Albany,CA,94706,United States,(510) 560-4020,37.88687,-122.2977475,,,,
berkeleyca,1831,2475 Shattuck Avenue,,Berkeley,CA,94704,United States,(510) 849-6404,37.8715926,-122.272747,,,,
lafayettemoraga,1767,3517 Mount Diablo Boulevard,Lafayette CA 94549,Lafayette,CA,94549,United States,(925) 299-9800,37.8919821,-122.1173999,,,,
greenbrae-marin,1573,230 Bon Air Center,Greenbrae CA 94904,Greenbrae,CA,94904,United States,(415) 481-0876,37.945696700000,-122.524436900000,,,,
walnutcreek,1433,1531 Locust Street,Walnut Creek CA 94596,Walnut Creek,CA,94596,United States,(925) 278-6313,37.900258800000,-122.062885600000,,,,
sanfranciscofinancial,1283,343 Sansome St.,Suite 125,San Francisco,CA,94104,United States,(415) 569-2050,37.7936971,-122.4017307,,,,
missionbay,1286,215 King Street,,San Francisco,CA,94107,United States,(415) 569-2051,37.7775409,-122.3921093,,,,
alameda,1278,2610 Fifth Street,,Alameda,CA,94501,United States,(510) 996-5037,37.7859524,-122.2812299,,,,
fort-mill,2410,1329 Broadcloth St.,Suite 105,Fort Mill,SC,29715,United States,(704) 251-7944,35.007370,-80.945076,,,,
ne-columbia,2296,10296 Two Notch Rd.,Suite 2,Columbia,SC,29229,United States,(803) 486-2206,34.123889,-80.872903,,,,
lake-norman-mooresville,2134,631 Brawley School Rd.,Suite 401,Mooresville,NC,28117,United States,(704) 626-7515,35.581751,-80.875942,,,,
jamestown,2133,5710 West Gate City Boulevard Suite T,,Greensboro,NC,27407,United States,(336) 663-1056,36.017503,-79.863283,,,,
rockhillsc,1881,2674 Celanese Rd.,Suite 107,Rock Hill,SC,29732,United States,(803) 667-3388,34.976578,-81.024392,,,,
ballantynenc,1825,14825 Ballantyne Village Way,Suite A180,Ballantyne,NC,28277,United States,(704) 412-4369,35.0546389,-80.8502005,,,,
greensboro,1757,1410 Westover Terrace Suite 100 B,Greensboro NC 27408,Greensboro,NC,27408,United States,(336) 346-2977,36.091213500000,-79.813984400000,,,,
charlotte-quailcorners,1670,8402 Park Road,,Charlotte,NC,28210,United States,(704) 247-6137,35.117053300000,-80.858827700000,,,,
charlotte-southend,1689,2317 South Boulevard,,Charlotte,NC,28203,United States,(704) 626-7322,35.204723300000,-80.862617800000,,,,
charlotte-university,1603,3016-B Prosperity Church Road,,Charlotte,NC,28269,United States,(704) 705-2377,35.343331600000,-80.769027300000,,,,
lakenorman,1549,20619 Torrence Chapel Road,,Charlotte,NC,28031,United States,(704) 964-2557,35.484261400000,-80.878841800000,,,,
charlotte-arboretum,1518,"8038 Providence Road, Suite 100",,Charlotte,NC,28277,United States,(704) 612-2102,35.096964000000,-80.778879000000,,,,
farmington-hills,2284,31229 14 Mile Road,,Farmington Hills,MI,48334,United States,(248) 579-4844,42.528389,-83.358507,,,,
ottawa-hills,2132,3504 Secor Rd.,Suite 310,Toledo,OH,43606,United States,(419) 586-1054,41.681930,-83.624591,,,,
shelbytownshipmi,1907,50560 Schoenherr Road,,Shelby Township,MI,48315,United States,(586) 270-5117,42.667719,-82.994545,,,,
westlake-oh,1878,30676 Detroit Road,,Westlake,OH,44145,United States,(440) 772-1100,41.461926700000,-81.959814700000,,,,
annarbornemi,1885,2643 Plymouth Road,,Ann Arbor,MI,48105,United States,(734) 881-9669,42.304196,-83.709327,,,,
troy,1732,3624 Rochester Road,Troy MI 48083,Troy,MI,48083,United States,(248) 864-2190,42.5716357,-83.1279661,,,,
canton,1664,41818 Ford Rd.,,Canton,MI,48188,United States,(734) 844-6100,42.3239581,-83.4541291,,,,
rochester,1558,1470 Rochester Road,Rochester MI 48307,Rochester,MI,48307,United States,(248) 237-6720,42.692382900000,-83.134221600000,,,,
annarbor,1516,2246 S Main Street,Ann Arbor MI 48103,Ann Arbor,MI,48103,United States,(734) 418-6260,42.253402100000,-83.751492800000,,,,
birmingham,1415,633 South Adams Road,Birmingham MI 48009,Birmingham,MI,48009,United States,(248) 712-4548,42.542736400000,-83.204037600000,,,,
northville,1301,39725 Traditions Dr.,,Northville,MI,48167,United States,(248) 468-1604,42.423179900000,-83.437546800000,,,,
heritage-alliance-coming-soon,2675,9500 Feather Grass Lane,,Fort Worth,TX,76177,United States,(817) 741-8101,32.913199,-97.310598,,,,
swfortworth,1905,5701 Bryant Irvin Road,Suite 106,SW Fort Worth,TX,76132,United States,(817) 770-0181,32.665928,-97.419253,,,,
southlake,1819,621 East Southlake Blvd. Suite 100,,Southlake,TX,76092,United States,(817) 796-9660,32.940925500000,-97.142439500000,,,,
fortworthmontgomeryplaza,1555,"2600 West 7th Street, Suite 131",,Fort Worth,TX,76107,United States,(817) 888-8842,32.7520885,-97.3532927,,,,
keller,1485,101 Town Center Lane Suite A108,Keller TX 76248,Keller,TX,76248,United States,(817) 502-2525,32.932830600000,-97.226779200000,,,,
olive-branch,2453,5155 Goodman Rd.,,Olive Branch,MS,38654,United States,(662) 932-0100,34.962350,-89.897469,,,,
oxford,1538,1801 Jackson Avenue West Suite D115,Oxford MS 38655,Oxford,MS,38655,United States,(662) 380-5149,34.365562000000,-89.553895000000,,,,
lakeland,1552,2961 Canada Road Suite 111 - 112,Lakeland TN 38002,Lakeland,TN,38002,United States,(901) 302-6132,35.206420500000,-89.734338400000,,,,
memphis,1524,4615 Poplar Avenue Suite 12,Memphis TN 38117,Memphis,TN,38117,United States,(901) 421-5785,35.115984300000,-89.908240600000,,,,
germantown,606,9067 Poplar Avenue,Suite 105,Germantown,TN,38138,United States,901-907-0298,35.067830600000,-89.761893200000,,,,
bellevue-coming-soon,2687,30 Bellevue Way NE ,,Bellevue,WA ,98004,United States,(206) 785-9190,47.610788,-122.201186,,,,
mercer-island,2110,2601 76th Ave SE,,Mercer Island,WA,98040,United States,(425) 278-5709,47.587634,-122.237715,,,,
belltown,2109,2310 5th Ave,Suite 3,Seattle,WA,98121,United States,(206) 855-5089,47.616138,-122.343110,,,,
millcreek,1792,12902 Bothell Everett Highway,,Everrett,WA,98208,United States,(206) 330-0511,47.880160000000,-122.207278700000,,,,
maplevalley,1795,26555 Maple Valley Black Diamond SE Suite 102,,Maple Valley,WA,98038,United States,(206) 330-0509,47.363432900000,-122.021331000000,,,,
ballard,1837,2032 NW Market St,,Seattle,WA,98107,United States,(206) 330-0510,47.668773000000,-122.383616500000,,,,
bothell,1692,22627 Bothell Everett Highway Ste A,Bothell WA 98021,Bothell,WA,98021,United States,(425) 318-7353,47.792684500000,-122.213687600000,,,,
udistrictwashington,1639,7313 35th Ave Northeast,Seattle WA 98115,Seattle,WA,98115,United States,(206) 330-0502,47.681783700000,-122.290719400000,,,,
redmond,1543,16535 Northeast 76th Street,Redmond WA 98052,Redmond,WA,98052,United States,(425) 522-4838,47.671836800000,-122.120023900000,,,,
shoreline,1582,18336 Aurora Ave. N.,Shoreline WA 98133,Shoreline,WA,98133,United States,(206) 504-1511,47.762214700000,-122.344503800000,,,,
lowerqueenanne,1353,500 Mercer Street,,Seattle,WA,98109,United States,(206) 282-0557,47.624734000000,-122.347225600000,,,,
seattle-capitolhill,1354,"519 East Broadway Avenue, Suite 8",,Seattle,WA,98102,United States,(206) 467-1690,47.623702800000,-122.321243100000,,,,
arvada,2527,8031 Wadsworth Blvd.,Studio A2&A3,Arvada,CO,80003,United States,(303) 647-1515,39.843326,-105.083464,,,,
uptown,1690,"450 E. 17th Ave., Unit 128",,Denver,CO,80203,United States,(720) 485-4518,39.742987000000,-104.981449000000,,,,
applewood,1693,3244 Youngsfield Street,,Wheat Ridge,CO,80033,United States,(720) 307-5007,39.763365000000,-105.141489000000,,,,
denvertechcenter,1630,6770 East Chenango Avenue,,Denver,CO,80237,United States,(720) 504-1015,39.624834,-104.907637,,,,
glendale,1647,760 South Colorado Boulevard Unit C,,Denver,CO,80246,United States,(303) 996-8854,39.702812194824,-104.939926147461,,,,
cherryhills,1652,5010 East Hampden Avenue,,Denver,CO,80222,United States,(303) 757-8888,39.652901700000,-104.928773400000,,,,
belmar,1589,7700 West Virginia Avenue,,Lakewood,CO,80226,United States,(720) 402-3888,39.706758800000,-105.082699400000,,,,
stapleton,1411,7349 East 29th Avenue,,Denver,CO,80238,United States,(303) 388-3600,39.758156200000,-104.902341200000,,,,
washingtonpark,1443,999 South Logan Street Suite 100,,Denver,CO,80209,United States,(303) 722-0544,39.698444366455,-104.982803344727,,,,
lowry,1344,"200 Quebec Street Bldg 700, Unit 101",,Denver,CO,80230,United States,(303) 366-3311,39.720441300000,-104.902682400000,,,,
highlands,1299,3300 W 32nd Ave,STE 101,Denver,CO,80211,United States,(720) 409-9509,39.761966705322,-105.032272338867,,,,
lodo,1300,1400 Wewatta,Suite 110,Denver,CO,80202,United States,(303) 573-3925,39.750789642334,-105.003433227539,,,,
assembly-row,2670,383 Revolution Drive,Store #1135,Somerville,MA,02145,United States,(617) 702-4426,42.392043,-71.078713,,,,
concord,1867,80 Beharrell Street,,Concord,MA,01742,United States,(978) 776-6434,42.458187500000,-71.394591300000,,,,
danversma,1869,35 Independence Way,,Danvers,MA,01923,United States,(978) 381-4332,42.550075,-70.939457,,,,
quincy,1892,25 Chestnut Street,,Quincy,MA,02169,United States,(617) 221-4045,42.249219,-71.001250,,,,
kendallsquare,1733,270 Third Street,Cambridge MA 02142,Cambridge,MA,02142,United States,(617) 714-5280,42.366027500000,-71.082006100000,,,,
boston-backbay,1734,10 Saint James Avenue,,Boston,MA,02116,United States,(617) 936-4890,42.350377400000,-71.070953800000,,,,
brightonboston,1668,375 Market Street,,Brighton,MA,02135,United States,(617) 208-8378,42.3505842,-71.1526636,,,,
hingham,1717,15 Shipyard Dr. Suite 1B,Hingham MA 02043,Hingham,MA,02043,United States,(781) 328-1800,42.251428400000,-70.922627400000,,,,
burlington,1593,112 Mall Road,Burlington MA 01803,Burlington,MA,01803,United States,(781) 552-3838,42.485462800000,-71.218910400000,,,,
natick,1488,21 Main Street,Natick MA 01760,Natick,MA,01760,United States,(508) 455-5524,42.284317100000,-71.347728600000,,,,
dedham,1302,610 Providence Hwy,,Dedham,MA,02026,United States,(617) 307-7260,42.243484000000,-71.174419200000,,,,
potomac-yard-coming-soon,2812,650 Potomac Avenue,,Alexandria,VA,22301,United States,571-403-9831,38.823055,-77.049315,,,,
tenleytown-coming-soon,2707,4600 Wisconsin Street NW,,Washington,DC,20016,United States,(202) 516-8147,38.949943,-77.080827,,,,
navy-yard-coming-soon,2227,82 I Street SE,,Washington,DC,20003,United States,(202) 688-0099,38.879732,-77.005576,,,,
mcleanva,1857,6623 Old Dominion Drive,,Mclean,VA,22101,United States,(703) 722-0601,38.930317,-77.171119,,,,
clarendon,1860,3001 Washington Blvd.,,Arlington,VA,22201,United States,(202) 868-6767,38.8857241,-77.096659,,,,
oldtownalexandria,1702,1101 King Street Suite 110A,,Alexandria,VA,22314,United States,(571) 919-0379,38.806354700000,-77.051678900000,,,,
potomac,1706,"12435 Park Potomac Avenue, R-10",,Potomac,MD,20854,United States,(301) 265-5050,39.059504300000,-77.157581000000,,,,
pentagoncity,1718,1221 South Fern Street,Arlington VA 22202,Arlington,VA,22202,United States,(571) 349-0033,38.8623209,-77.0583957,,,,
washingtondc-mountvern,1545,425 I St NW,Washington DC 20001,Washington,DC,20001,United States,(202) 469-1035,38.901646900000,-77.016942000000,,,,
ballstonarlington,1527,4201 Wilson Blvd,Arlington VA 22203,Arlington,VA,22203,United States,(571) 257-0050,38.880503700000,-77.110934300000,,,,
dunnloring,1534,2672 Avenir Place D200,Vienna VA 22180,Vienna,VA,22180,United States,(703) 222-2651,38.881770900000,-77.230137000000,,,,
rosslyn,1397,1776 Wilson Boulevard,Arlington VA 22209,Arlington,VA,22209,United States,(571) 431-6140,38.893750200000,-77.078333200000,,,,
mt-juliet-coming-soon,2341,11199 Lebanon Rd.,,Mt. Juliet,TN,37122,United States,(615) 981-3800,36.230940,-86.513220,,,,
nashville-midtown,2118,111 17th Avenue South,,Nashville,TN,37203,United States,(615) 988-9288,36.152795,-86.793679,,,,
greenhillstn,1646,2104 Crestmoor Road,,Nashville,TN,37215,United States,(615) 800-6118,36.1089326,-86.8131617,,,,
westnashville,1560,6720 Charlotte Pike Suite 102,Nashville TN 37209,Nashville,TN,37209,United States,(615) 933-0084,36.135075100000,-86.888486300000,,,,
hendersonville,1459,281 Indian Lake Boulevard Suite 200,Hendersonville TN 37075,Hendersonville,TN,37075,United States,(615) 815-5970,36.328451100000,-86.594538300000,,,,
franklin,1425,3301 Aspen Grove Drive Suite 107,Franklin TN 37067,Franklin,TN,37067,United States,(615) 504-1110,35.944055500000,-86.827815100000,,,,
brentwood,1364,690 Old Hickory Blvd.,Suite 102,Brentwood,TN,37209,United States,(615) 373-0333,36.040825,-86.768715,,,,
baltimore-harbor-east-coming-soon,2688,1415 Aliceanna Street,,Baltimore,MD,21231,United States,(410) 675-1201,39.283214,-76.597470,,,,
huntvalley,1622,118 Shawan Road,Suite BB,Hunt Valley,MD,21030,United States,(410) 777-8836,39.498855590820,-76.654876708984,,,,
gaithersburg-kentlands,1659,622 Center Point Way,,Gaithersburg,MD,20878,United States,(301) 250-1060,39.1219255,-77.2326344,,,,
clarksburg,1536,22750 Newcut Road,Suite 4,Clarksburg,MD,20871,United States,(443) 927-9100,39.2293459,-77.2476265,,,,
olney,1535,18205 Hillcrest Ave,,Olney,MD,20832,United States,(443) 221-6700,39.154357910156,-77.065116882324,,,,
northwest-oklahoma-city,2460,12220 N. MacArthur Blvd.,Suite E,Oklahoma City,OK,73162,United States,(405) 878-8060,35.593578,-97.620672,,,,
edmond,1796,3325 South Blvd,,Edmond,OK,73013,United States,(405) 445-0809,35.622332,-97.4795982,,,,
moore,1844,825 SW 19th Street,,Moore,OK,73160,United States,(405) 703-5259,35.3198042,-97.5055424,,,,
salem-2,2299,4405 Commercial Street SE,Suite V,Salem,OR,97302,United States,(971) 599-7005,44.890070,-123.035096,,,,
tualatin,2250,19221 SW Martinazzi Ave.,,Tualatin,OR,97062,United States,503-487-0002,45.380865,-122.760601,,,,
corvallis,2122,1838 NW 9th Street,Suite 112,Corvallis,OR,97330,United States,(541) 716-5006,44.585948,-123.256523,,,,
wilsonvilleor,1868,29756 SW Town Center Loop West,Suite 7L,Wilsonville,OR,97070,United States,(503) 374-1920,45.304387,-122.764540,,,,
beavertonor,1871,3905 SW 117th Ave.,Suite H,Beaverton,OR,97005,United States,(503) 512-5800,45.490833,-122.798551,,,,
southwaterfront,1728,0841 Southwest Gaines Street,Portland OR 97239,Portland,OR,97239,United States,(503) 308-6782,45.496675600000,-122.669303800000,,,,
hillsboro,1729,965 NE Orenco Station Loop,Hillsboro OR 97124,Hillsboro,OR,97124,United States,(503) 828-3323,45.531382700000,-122.916809400000,,,,
westlinn,1759,19151 Williamette Dr,West Linn OR 97068,West Linn,OR,97068,United States,(503) 607-8488,45.385902800000,-122.641467300000,,,,
cedarmill,1632,11800 Northwest Cedar Falls Drive Suite 108,Portland OR 97229,Portland,OR,97229,United States,(503) 427-1915,45.521269400000,-122.800889400000,,,,
portland-lloyddistrict,1641,1107 NE 9th Avenue  Suite,Portland OR 97232,Portland,OR,97232,United States,(503) 946-9409,45.530904100000,-122.656661900000,,,,
tigard,1481,12268 Southwest Scholls Ferry Road,Tigard OR 97223,Tigard,OR,97223,United States,(503) 782-4888,45.443016400000,-122.803245600000,,,,
louisville-highlands,2170,918 Baxter Ave.,,Louisville,KY,40204,United States,(502) 968-1400,38.241811,-85.725993,,,,
evansville,1887,3431 North Green River Road,,Evansville,IN,47715,United States,(812) 645-9712,38.009049000000,-87.492249100000,,,,
cincinnati-oakley,1823,3202 Vandercar Dr.,,Cincinnati,OH,45209,United States,(513) 808-4882,39.158341100000,-84.427579100000,,,,
newport,1605,185 Pavilion Parkway,Newport KY 41071,Newport,KY,41071,United States,(859) 838-4555,39.087081900000,-84.476891800000,,,,
lexington,1542,2369 Richmond Road Suite #120,Lexington KY 40502,Lexington,KY,40502,United States,(859) 898-1077,38.016353100000,-84.462544300000,,,,
middletown,1563,13317 Shelbyville Road Unit #103,Louisville KY 40223,Louisville,KY,40223,United States,(502) 242-3385,38.242458600000,-85.507253400000,,,,
louisvillestmatthews,1380,116 Sears Avenue,Louisville KY 40207,Louisville,KY,40207,United States,(502) 259-9199,38.253094200000,-85.647004900000,,,,
grand-canyon,2451,4245 S Grand Canyon Dr. Suite 109,,Las Vegas,NV,89147,United States,(702) 420-2142,36.112223,-115.307201,,,,
spring-valley,2362,5990 S Rainbow Blvd.,Suite 200,Spring Valley,NV,89118,United States,(702) 868-8300,36.080115,-115.242228,,,,
greenvalleynorth,1476,691 Marks Street Suite-D,,Henderson,NV,89014,United States,(702) 850-2511,36.066916100000,-115.036678300000,,,,
lasvegas,1347,9326 West Sahara Avenue Suite 4,,Las Vegas,NV,89117,United States,(702) 577-2884,36.145560400000,-115.299517300000,,,,
lasvegas-henderson,1371,10271 South Eastern Avenue 103-105,Henderson NV 89052,Henderson,NV,89052,United States,(702) 834-8300,36.002999100000,-115.110583500000,,,,
santa-fe-south-capitol,2231,516 W. Cordova St.,,Santa Fe,NM,87505,United States,(505) 395-7100,35.673261,-105.951325,,,,
albuquerquefarnortheastheights,1814,8850 Holly Ave NE,,Albuquerque,NM,87122,United States,(505) 633-8048,35.175162700000,-106.545302900000,,,,
albuquerque-westside,1638,6361 Riverside Plaza Lane NW,Albuquerque NM 87120,Albuquerque,NM,87120,United States,(505) 633-8009,35.157426100000,-106.680164900000,,,,
northbrook-coming-soon,2705,3101 Dundee Road,Suite A,Northbrook,IL,60062,United States,(224) 541-6300,42.137068,-87.855960,,,,
shorewood,2107,4155 N. Oakland Ave.,,Shorewood,WI,53211,United States,(414) 930-4545,43.093088,-87.887429,,,,
delafield,1803,3149 Golf Road Suite A3  Suite A3,,Delafield,WI,53018,United States,(262) 510-0566,43.0520916,-88.3660228,,,,
brookfield,1666,15375 W. Bluemound Road,,Brookfield,WI,53005,United States,(262) 439-8402,43.0355674,-88.1039226,,,,
riverwoods-buffalogrove,1713,2037 Milwaukee Ave,Riverwoods IL 60015,Riverwoods,IL,60015,United States,(224) 521-0006,42.167271800000,-87.918048900000,,,,
schaumburg,1615,16 E Golf Rd,Schaumburg IL 60173,Schaumburg,IL,60173,United States,(855) 683-4554,42.051859800000,-88.078648500000,,,,
mequon,1625,11305 North Cedarburg Road,Mequon WI 53092,Mequon,WI,53092,United States,(262) 457-7880,43.243551900000,-87.986715100000,,,,
evanston,1662,2800 Central St Evanston,,Evanston,IL,60201,United States,(847) 491-9090,42.0642359,-87.7132355,,,,
lakeforest,1571,1050 N. Western Ave.,Lake Forest IL 60045,Lake Forest,IL,60045,United States,(847) 728-8700,42.258876,-87.842586,,,,
glenview,1453,1464 Waukegan Road,Glenview IL 60025,Glenview,IL,60025,United States,(847) 486-9100,42.082067900000,-87.798474200000,,,,
bannockburn,1482,2553 Waukegan Road,Bannockburn IL 60015,Bannockburn,IL,60015,United States,(866) 601-0025,42.198989700000,-87.862228400000,,,,
mtprospectrandhurst,1295,1032 Center Drive,,Mount Prospect,IL,60056,United States,(847) 737-5584,42.0847,-87.9339628,,,,
fresno-coming-soon,2339,7735 N. Blackstone Ave.,Ste. 106-112,Fresno,CA,93720,United States,(559) 326-9255,36.848965,-119.790980,,,,
east-gilbert,2679,1440 S. Higley Road,Suite 105,Gilbert,AZ,85296,United States,(480) 685-4950,33.388669,-111.720939,,,,
queencreekaz,1911,20715 E Rittenhouse Road,Suite 102,Queen Creek,AZ,85142,United States,(480) 646-3395,33.256541,-111.636482,,,,
southeasttucsonaz,1912,6307 E Broadway Blvd.,Suite 151,Tucson,AZ,85710,United States,(520) 265-5222,32.221331,-110.857251,,,,
tucsoncasaadobes,1780,7057 North Oracle Road,,Tucson,AZ,85704,United States,(520) 838-0066,32.335870900000,-110.978505100000,,,,
tucsonfoothills,1621,5575 E. River Suite 101,,Tucson,AZ,85750,United States,(520) 777-3221,32.275035858154,-110.873786926270,,,,
eastmesaredmountain,1399,2836 North Power Road Suite #102,,Mesa,AZ,85215,United States,(480) 634-6666,33.467281341553,-111.685516357422,,,,
gilbert,1445,1110 South Gilbert Road Suite #102,Gilbert AZ 85296,Gilbert,AZ,85296,United States,(480) 272-9400,33.329728900000,-111.790780100000,,,,
danapark,1326,3426 East Baseline Road 118,,Mesa,AZ,85204,United States,(480) 350-7750,33.381204300000,-111.757393800000,,,,
southchandler,1351,4850 South Gilbert Road Suite 7,,Chandler,AZ,85249,United States,(480) 794-1055,33.236419000000,-111.790009900000,,,,
pecosranch,1308,1900 West Germann Road 6,,Chandler,AZ,85286,United States,(480) 699-6115,33.277088165283,-111.874847412109,,,,
rocklin,2528,711 Pleasant Grove Blvd.,Suite 100 and 120,Roseville,CA,95678,United States,(916) 245-9005,38.791198,-121.278210,,,,
alamo,2317,170C Alamo Plaza,Suite V,Alamo,CA,94507,United States,925-378-5610,37.851234,-122.035708,,,,
sacramentomid-town,1736,2901 K St. Suite 190,Sacramento CA 95816,Sacramento,CA,95816,United States,(916) 836-8383,38.572731800000,-121.467937900000,,,,
concordca,1781,5100 Clayton Road,Suite B3,Concord,CA,94521,United States,(925) 304-6556,37.9779776,-122.0310733,,,,
brentwood-norcal,1610,2565 Sand Creek Road Suite 132,,Brentwood,CA,94513,United States,(925) 392-3923,37.946159362793,-121.737205505371,,,,
elkgrove,1486,9610 Bruceville Road 102,Elk Grove CA 95757,Elk Grove,CA,95757,United States,(916) 226-2683,38.408593800000,-121.419501200000,,,,
folsom-palladio,1413,230 Palladio Parkway 1221,Folsom CA 95630,Folsom,CA,95630,United States,(916) 790-6810,38.648222000000,-121.119464200000,,,,
natomassacramento,1421,3270 Arena Boulevard Suite 150,,Sacramento,CA,95834,United States,(916) 283-4683,38.641815185547,-121.534561157227,,,,
rosevillerockyridge,1377,2030 Douglas Boulevard Suite 39,Roseville CA 95661,Roseville,CA,95661,United States,(916) 771-4683,38.743340300000,-121.250434000000,,,,
corona-del-mar,2298,3021 E Pacific Coast Hwy.,Suite V,Corona Del Mar,CA,92625,United States,(949) 491-8700,33.598582,-117.871965,,,,
orange,1700,"1500 E Village Way, Suite 2340",,Orange,CA,92865,United States,(714) 978-4040,33.825680000000,-117.838528000000,,,,
huntingtonbeach,1624,10036 Adams Ave.,,Huntington Beach,CA,92646,United States,(714) 489-8800,33.672298431396,-117.953109741211,,,,
irvine,1541,5675 Alton Parkway,,Irvine,CA,96218,United States,(949) 439-2633,33.669776000000,-117.785798000000,,,,
brea,1564,3461 E. Imperial Highway,Brea CA 92823,Brea,CA,92823,United States,(714) 510-5100,33.907939200000,-117.849817300000,,,,
newportbeach,1323,1040 Irvine Avenue,,Newport Beach,CA,92660,United States,(949) 630-0555,33.628220100000,-117.906451000000,,,,
tustin,1363,2865 El Camino Real,,Tustin,CA,92782,United States,(949) 864-6264,33.725624084473,-117.794189453125,,,,
olathe,2639,20144 W 153rd Street,,Olathe,KS,66062,United States,(913) 274-1401,38.851687,-94.818556,,,,
brookside,2135,6236 Main Street,,Kansas City,MO,64113,United States,(816) 656-8390,39.014615,-94.588644,,,,
overlandparkks,1906,13621 Metcalf Ave.,,Overland Park,KS,66223,United States,(913) 213-1012,38.882573,-94.667710,,,,
nallhills,1775,9538 Nall Avenue,Overland Park KS 66207,Overland Park,KS,66207,United States,(913) 440-0010,38.955205700000,-94.651183200000,,,,
leawood,1648,11614 Ash St.,Leawood KS 66211,Leawood,KS,66211,United States,(913) 469-5200,38.917362100000,-94.647746700000,,,,
olathepointe,1508,14995 West 119th Street,Olathe KS 66062,Olathe,KS,66062,United States,(913) 397-7500,38.912694100000,-94.758881100000,,,,
virginia-beach-hilltop-coming-soon,2695,737 First Colonial Rd. Suite 216,,Virginia Beach,VA,23451,United States,(757) 828-1228,36.851377,-76.024925,,,,
chesapeake,2671,940 Cedar Rd.,Ste # 108,Chesapeake,VA,23322,United States,(757) 785-4455,36.712175,-76.275961,,,,
newportnews,1741,12515 Jefferson Ave,Newport News VA 23602,Newport News,VA,23602,United States,(757) 849-0220,37.126807000000,-76.512079200000,,,,
virginiabeach-redmill,1769,2111 Princess Anne Rd #106,Virginia Beach  VA 23456,Virginia Beach,VA,23456,United States,(757) 802-3280,36.7522082,-76.01204200,,,,
smyrna,2399,4495 W Village Way,,Smyrna,GA,30080,United States,678-539-9715,33.844723,-84.491272,,,,
dunwoody,2398,2480 Jett Ferry Road,Suite 500,Dunwoody,GA,30338,United States,(678) 580-8095,33.958536,-84.302892,,,,
brookhavenga,1794,4260 Peachtree Rd.,,Brookhaven,GA,30319,United States,(404) 772-8120,33.8651033,-84.3365917,,,,
decatur,1636,319 W. Ponce de Leon,,Decatur,GA,30030,United States,(770) 797-5080,33.775692500000,-84.300639100000,,,,
cumberland,1530,"3000 Windy Hill Road, Suite 156",,Marietta,GA,30067,United States,(678) 701-5510,33.904328000000,-84.466526000000,,,,
emorypointe,1379,"855 Emory Point Drive, Suite 115",,Atlanta,GA,30329,United States,(404) 698-0251,33.799952900000,-84.325622300000,,,,
chastainpark,1401,"4279 Roswell Road, Suite 501",,Atlanta,GA,30342,United States,(404) 434-2129,33.871405200000,-84.380070800000,,,,
northlake,1446,2152 Henderson Mill Road,,Atlanta,GA,30345,United States,(678) 679-3400,33.852883100000,-84.255173500000,,,,
sandysprings,1343,"5975 Roswell Road, Suite A113",,Atlanta,GA,30328,United States,(770) 905-2600,33.918530000000,-84.377952600000,,,,
buckhead,1352,3097 Piedmont Road,,Atlanta,GA,30305,United States,(404) 719-0170,33.840302400000,-84.369009300000,,,,
atlanta-midtown,1357,"933 Peachtree Street, Suite 939A",,Atlanta,GA,30309,United States,(404) 747-7107,33.780401600000,-84.384072200000,,,,
howellmill,1369,857 Collier Rd STE 15,,Atlanta,GA,30318,United States,(404) 455-0402,33.810426500000,-84.416007500000,,,,
castlerockco,1842,3990 Limelight Avenue,Unit F,Castle Rock,CO,80109,United States,(303) 747-4003,39.3722121,-104.8560902,,,,
parker,1669,17051 Lincoln Avenue Suite #1,,Parker,CO,80134,United States,(720) 636-8606,39.534835815430,-104.792505600000,,,,
centennial,1677,15735 East Arapahoe Road Suite 1 & 2,,Centennial,CO,80016,United States,(303) 645-4290,39.595391200000,-104.805994300000,,,,
southeastaurora,1694,4211 South Buckley Road,Aurora CO 80013,Aurora,CO,80013,United States,(303) 645-4292,39.640310600000,-104.792351000000,,,,
coloradospringsacademy,1604,7469 Academy Boulevard North,,Colorado Springs,CO,80920,United States,(719) 204-4442,38.939102000000,-104.797480900000,,,,
littleton,1650,8555 West Belleview Avenue,,Littleton,CO,80123,United States,(303) 979-6878,39.625095000000,-105.092661400000,,,,
southglenn,1329,6860 South University Boulevard Unit 140,,Southglenn,CO,80122,United States,(303) 741-2247,39.592433929443,-104.959999084473,,,,
coloradospringsstetsonhills,1365,5990 Stetson Hills Boulevard,,Colorado Springs,CO,80922,United States,(719) 632-3777,38.913299560547,-104.716590881348,,,,
highlandsranch,1312,9559 South University Boulevard,,Highlands Ranch,CO,80126,United States,(303) 683-3312,39.542232513428,-104.945945739746,,,,
northwestomaha,1852,14450 Eagle Run Drive,,Omaha,NE,68116,United States,(402) 704-7003,41.288271500000,-96.140019700000,,,,
westomaha,1550,16909 Burke Street Suite 122,West Omaha NE 68118,West Omaha,NE,68118,United States,(402) 281-0950,41.258483100000,-96.179938500000,,,,
brier-creek-coming-soon,2854,4233 Corners Pkwy. Suite 270,,Raleigh,NC,27617,United States,(919) 867-4471,35.919710,-78.563730,,,,
westcary,1707,1204 Parkside Main Street,Cary NC 27519,Cary,NC,27519,United States,(919) 234-7454,35.848452100000,-78.890229400000,,,,
northraleigh,1548,6625 Falls of Neuse Road 107,Raleigh NC 27615,Raleigh,NC,27615,United States,(919) 263-5668,35.873252500000,-78.625016700000,,,,
wakeforest,1566,12646 Capital Blvd. Suite 152,Wake Forest NC 27587,Wake Forest,NC,27587,United States,(919) 761-7778,35.987024900000,-78.530186900000,,,,
hollysprings,1462,141 Grand Hill Place,Holly Springs NC 27540,Holly Springs,NC,27540,United States,(919) 267-1683,35.663689300000,-78.847373400000,,,,
chapelhill,1402,104 Meadowmont Village Circle,Chapel Hill NC 27517,Chapel Hill,NC,27517,United States,(919) 883-9424,35.904719300000,-79.011723700000,,,,
morrisville,1358,1112 Market Center Drive,,Morrisville,NC,27560,United States,(919) 883-9469,35.807851700000,-78.814812300000,,,,
miami-design-district,2286,89 NE 38th Street,,Miami,FL,33137,United States,(786) 667-3757,25.811836,-80.193570,,,,
downtowndadeland,1805,9045 Southwest 72nd Place,,Kendall,FL,33156,United States,(305) 222-7400,25.686674800000,-80.312824700000,,,,
aventura,1676,18711 Biscayne Boulevard,Aventura FL 33180,Aventura,FL,33180,United States,(305) 400-0544,25.950808500000,-80.146555700000,,,,
pinecrest,1678,8511 Southwest 136th Street,Pinecrest FL 33156,Pinecrest,FL,33156,United States,(305) 232-7722,25.644012200000,-80.331339300000,,,,
miamishores,1598,9017 Biscayne Blvd,,Miami Shores,FL,33138,United States,(305) 615-1299,25.857957700000,-80.183075800000,,,,
westkendall,1616,14627 SW 56th St.,,Miami,FL,33175,United States,(305) 615-1095,25.713960000000,-80.429689700000,,,,
doral,1651,3887 Northwest 107th Avenue,Doral FL 33178,Doral,FL,33178,United States,(305) 468-8028,25.809950900000,-80.368457000000,,,,
southbeach,1654,1115 5th Street,,Miami Beach,FL,33139,United States,(305) 695-0085,25.774600300000,-80.139884800000,,,,
miamibirdroad,1661,7396 S.W. 40th ST Miami,,Miami,FL,33155,United States,(305) 264-0087,25.733001708984,-80.317153930664,,,,
miamilakes,1325,15490-B NW 77th Ct,,Miami Lakes,FL,33016,United States,(305) 824-0420,25.915235400000,-80.327142600000,,,,
downtownmiami-vizcayne,1334,269 NE 2nd Street,,Miami,FL,33132,United States,(786) 431-0294,25.776990000000,-80.188798000000,,,,
coralgables,1356,2300 Salzedo Street,,Coral Gables,FL,33134,United States,(305) 460-6006,25.751069800000,-80.260763400000,,,,
woodbury-coming-soon,2314,"530 Woodbury Drive, Suite 300",,Woodbury,MN,55125,United States,(612) 326-1234,44.942662,-92.903502,,,,
eagan,2310,3325 Central Park Village Dr. Suite 120,,Eagan,MN,55121,United States,(651) 705-0300,44.835933,-93.170152,,,,
chanhassenmn,1862,460 Lake Dr.,#170,Chanhassen,MN,55317,United States,(952) 777-4243,44.856551,-93.532500,,,,
maplewoodmn,1872,3095 White Bear Ave N.,,Maplewood,MN,55109,United States,(651) 998-2219,45.035377,-93.019532,,,,
stcloud,1841,110 2nd Street South,Suite 117,St. Cloud,MN,56387,United States,(320) 270-7000,45.548696,-94.216938,,,,
edina,1576,3523 West 70th Street,Edina MN 55435,Edina,MN,55435,United States,(612) 930-4630,44.876299300000,-93.326003300000,,,,
edenprairie,1470,8264 Commonwealth Drive,Eden Prairie   MN 55344,Eden Prairie,MN,55344,United States,(952) 232-1809,44.854001600000,-93.433775800000,,,,
applevalley,1376,15624 Pilot Knob Road,Apple Valley MN 55124,Apple Valley,MN,55124,United States,(952) 683-1440,44.727077400000,-93.176878900000,,,,
plymouth,1310,"2700 Annapolis Circle, Suite A",,Plymouth,MN,55441,United States,(763) 300-3447,45.009141200000,-93.451553400000,,,,
minneapolis-uptown,1313,2640 Hennepin Ave,,Minneapolis,MN,55408,United States,(612) 926-8626,44.954390,-93.297797,,,,
maplegrove,1314,8121 Wedgewood Lane North,,Maple Grove,MN,55369,United States,(763) 657-1313,45.102527300000,-93.450569000000,,,,
downtown-cleveland-coming-soon,2833, 740 Prospect Avenue East,, Cleveland,OH, 44115,United States,216-370-3277,41.498519,-81.687212,,,,
strongsvilleoh,1855,18105 Southpark Center,,Strongsville,OH,44136,United States,(440) 249-0070,41.310272,-81.823759,,,,
mentoroh,1873,7519 Mentor Avenue,Suite #A14,Mentor,OH,44060,United States,(440) 290-5859,41.656045,-81.372968,,,,
akron,1840,34 North Hawkins Avenue,,Akron,OH,44313,United States,(330) 864-5555,41.110679000000,-81.569636000000,,,,
brecksville,1726,8259 Chippewa Road,Brecksville OH 44141,Brecksville,OH,44141,United States,(440) 550-4614,41.3201725,-81.6222152,,,,
solon,1758,6025 Kruse Dr,Solon OH 44139,Solon,OH,44139,United States,(440) 399-2999,41.3930186,-81.4427703,,,,
rockyriver,1578,19800 Center Ridge Rd.,Rocky River OH 44116,Rocky River,OH,44116,United States,(216) 370-3277,41.465171000000,-81.842119000000,,,,
wichitaeast,1618,1423 N Webb Road Suite 159,Wichita KS 67206,Wichita,KS,67206,United States,(316) 440-4640,37.708799600000,-97.226225800000,,,,
long-farm-coming-soon,2816,"14650 Market Street, Suite 103",,Baton Rouge,LA,70817,United States,225-412-0455,30.361260,-91.012721,,,,
mandeville-coming-soon,2813,3555 Highway 190 Suite 3550,,Mandeville,LA,70471,United States,(225) 412-0455,30.394431,-90.085508,,,,
new-orleans-uptown-coming-soon,2715,5300 Tchoupitoulas St.,,New Orleans,LA, 70115,United States,(504) 308-1232,29.916095,-90.114109,,,,
batonrouge,1644,2373 Towne Center Blvd. Suite 710,Baton Rouge LA 70809,Baton Rouge,LA,70809,United States,(225) 424-5000,30.432591400000,-91.114671500000,,,,
neworleans-midcity,1592,4141 Bienville St #107,New Orleans LA 70119,New Orleans,LA,70119,United States,(504) 408-2602,29.977570600000,-90.100000600000,,,,
camarillo-coming-soon,2771,1656-A Arneill Road,,Camarillo, CA,93010,United States,(805) 764-1515,34.235655,-119.038670,,,,
santa-barbara-goleta,2462,5700 Calle Real ,,Goleta,CA, 93117,United States,(805) 699-5551,34.441637,-119.824187,,,,
santaclarita,1561,25914 McBean Parkway,Santa Clarita CA 91355,Santa Clarita,CA,91355,United States,(661) 505-9860,34.404458800000,-118.551013700000,,,,
thousandoaksnewburypark,1584,1714 Newbury Road  Suite T,,Newbury Park,CA,91320,United States,(805) 764-1010,34.183567047119,-118.918083190918,,,,
thousandoakswestlake,1398,3755 East Thousand Oaks Boulevard,,Thousand Oaks,CA,91362,United States,(805) 715-3800,34.164447784424,-118.828491210938,,,,
st-petersburg-coming-soon,2672,640 1st Ave S.,,St. Petersburg,FL,33701,United States,(727) 513-5646,27.770029,-82.642496,,,,
trinity,1772,12546 State Road 54,Odessa FL 33556,Odessa,FL,33556,United States,(727) 500-1212,28.190531,-82.609044,,,,
palmharbor0121,1667,"33645 US Highway, 19 North",,Palm Harbor,FL,34684,United States,(727) 288-9901,28.0778622,-82.7373063,,,,
wesleychapel,1465,28210 Paseo Drive 110,Wesley Chapel FL 33543,Wesley Chapel,FL,33543,United States,(813) 235-0664,28.188145000000,-82.349736000000,,,,
brandon,1383,2052 Badlands St,Brandon FL 33511,Brandon,FL,33511,United States,(813) 774-3800,27.927417700000,-82.316330200000,,,,
carrollwood,1386,13122 N Dale Mabry Hwy,Tampa FL 33618,Tampa,FL,33618,United States,(813) 964-3194,28.065942100000,-82.505075800000,,,,
channelside,1410,140 S. Meridian Avenue,Tampa FL 33602,Tampa,FL,33602,United States,(813) 513-9845,27.945092700000,-82.448640100000,,,,
westchase,1336,11721 W Hillsborough Ave,,Tampa,FL,33625,United States,(813) 852-8009,28.015776500000,-82.616355600000,,,,
clearwater,1350,25853 U.S. 19 N,,Clearwater,FL,33763,United States,(727) 288-9897,28.007247200000,-82.729918900000,,,,
stpetersburg,1305,5032 4th Street North,,Saint Petersburg,FL,33703,United States,(727) 897-5566,27.818381900000,-82.639166200000,,,,
newtampa,1306,17515 Preserve Walk Lane,,Tampa,FL,33647,United States,(813) 774-3488,28.128263500000,-82.368814600000,,,,
southtampa,1311,115 South Dale Mabry Highway,,Tampa,FL,33609,United States,(813) 356-0620,27.943589800000,-82.506143900000,,,,
kapolani-panamhi,1785,1600 Kapiolani Blvd,Suite 107,Honolulu,HI,96814,United States,(808) 377-6626,21.3069444,-157.8583333,,,,
waikiki,1771,449 Kapahulu Avenue Suite 101,Honolulu HI 96815,Honolulu,HI,96815,United States,(808) 445-9227,21.274935300000,-157.815373600000,,,,
kapolei,1778,590 Farrington Highway,Kapolei HI 96707,Kapolei,HI,96707,United States,(808) 674-0590,21.338729800000,-158.078677600000,,,,
coronaca,1843,2540 Tuscany Street,#102 & 103,Corona,CA,92881,United States,(951) 683-9662,33.8752935,-117.5664384,,,,
chinohills,1709,4525 Chino Hills Parkway Shop 7,Chino Hills CA 91709,Chino Hills,CA,91709,United States,(909) 906-1771,33.982595600000,-117.705490000000,,,,
missionviejo,1393,26012 Marguerite Parkway Suite P,,Mission Viejo,CA,92692,United States,(949) 335-7600,33.586374700000,-117.658103500000,,,,
lagunaniguel,1653,24034 Aliso Creek Road,Laguna Niguel CA 92677,Laguna Niguel,CA,92677,United States,(949) 667-9999,33.554658200000,-117.710711400000,,,,
ranchosantamargarita,1366,22401 Antonio Parkway Suite D-200,,Rancho Santa Margarita,CA,92688,United States,(949) 424-8884,33.638421000000,-117.591142000000,,,,
lakestlouis,1859,6307 Ronald Reagan Drive,,Lake St. Louis,MO,63367,United States,(636) 614-4040,38.768087,-90.784902,,,,
concordmo,1894,12434 Tesson Ferry Road,,Concord,MO,63128,United States,314-649-5050,38.509852,-90.375040,,,,
stcharles,1798,1650 Beale Street Suite 170,,Saint Charles,MO,63303,United States,(314) 250-1037,38.765043800000,-90.493728100000,,,,
ellisville,1777,15949 Manchester Rd,Ellisville MO 63011,Ellisville,MO,63011,United States,(314) 300-6996,38.593030600000,-90.588933100000,,,,
chesterfield,1511,1674 Clarkson Road,Chesterfield MO 63017,Chesterfield,MO,63017,United States,(314) 384-9025,38.643225200000,-90.564837900000,,,,
rockhill,1405,9434 Manchester Road,Rock Hill MO 63119,Rock Hill,MO,63119,United States,(314) 736-1170,38.609595500000,-90.363034400000,,,,
ranchocucamonga,1594,12273 Highland Ave  #132,Rancho Cucamonga CA 91739,Rancho Cucamonga,CA,91739,United States,(909) 922-2988,34.134417200000,-117.537287200000,,,,
eastvale,1494,12459 Limonite Avenue,Eastvale CA 91752,Eastvale,CA,91752,United States,(951) 681-8890,33.975616700000,-117.554375900000,,,,
wexford,1674,12007 Perry Highway,Wexford PA 15090,Wexford,PA,15090,United States,(724) 400-6773,40.631735700000,-80.058296000000,,,,
eastendpittsburgh,1496,5841 Penn Avenue,Pittsburgh PA 15206,Pittsburgh,PA,15206,United States,(412) 362-3616,40.462337400000,-79.927340400000,,,,
s-anchorage,2098,345 W 104th Ave.,,Anchorage,AK,99515,United States,(907) 519-0077,61.126694,-149.875821,,,,
newprovidence,1532,1260 Springfield Avenue #11A,New Providence NJ 07974,New Providence,NJ,07974,United States,(908) 458-9353,40.704913900000,-74.403867000000,,,,
mckinney,1761,15910 Eldorado Parkway,Frisco TX 75035,Frisco,TX,75035,United States,(469) 634-2100,33.174366700000,-96.733102000000,,,,
frisco,1416,4350 W Main Street Suite 100,Frisco TX 75034,Frisco,TX,75034,United States,(972) 521-3600,33.154560800000,-96.849896800000,,,,
allen,1437,"945 W. Stacy Rd, Suite 100",Allen TX 75013,Allen,TX,75013,United States,(972) 521-3700,33.129288900000,-96.674207500000,,,,
north-oakville-coming-soon,2799,Unit G2A 275 Hays Blvd. ,,Oakville,ON,L6H 6Z3,United States,289-813-4247,43.485098,-79.718609,,,,
bloor-west-coming-soon,2660,2480 Bloor Street West,,Toronto,ON,M6S1R5,United States,(416) 234-9976,43.648038,-79.490712,,,,
lakeshore,2281,515 Lakeshore Road East,Unit 105,Mississauga,ON,L5G 1H9,United States,(647) 494-3354,43.566691,-79.569560,,,,
parklawn,2128,6 Park Lawn Road,,Toronto,ON,M8V 1A4,United States,(416) 800-9551,43.623215,-79.481983,,,,
mississauga-creekside-crossing,2127,1500 Dundas Street East,,Mississauga,ON,L4X 1L4,United States,(647) 494-3364,43.608899,-79.577392,,,,
northburlington,1824,3450 Dundas St. West,,Burlington,ON,L7M 4B8,United States,(289) 780-4544,43.389944800000,-79.824245400000,,,,
easthamilton,1746,75 Centennial Parkway North,,Hamilton,ON,L8E 2P2,United States,(289) 799-2156,43.230832300000,-79.764905600000,,,,
fairview,1359,3315 Fairview Street,,Burlington,ON,L7N 3N9,United States,(289) 780-4500,43.353924100000,-79.787563900000,,,,
southoakville,1360,487 Cornwall Road,,Oakville,ON,L6J 7S8,United States,(289) 813-0099,43.463412100000,-79.674345200000,,,,
amherst,1280,8242 Transit Road,,Buffalo,NY,14221,United States,(716) 200-1350,42.9918959,-78.6992065,,,,
northtowns,1287,1551 Niagra Falls Blvd,,Amherst,NY,14228,United States,(716) 970-4441,42.9970488,-78.8218636,,,,
granger,1637,7135 Heritage Square Drive,Granger IN 46530,Granger,IN,46530,United States,(574) 314-6300,41.725539400000,-86.176354600000,,,,
windermere-coming-soon,2843,13450 Summerport Village Pkwy.,,Windermere,FL,34786,United States,(407) 895-7002,28.476674,-81.583878,,,,
oviedo-coming-soon,2805,976 West Mitchell Hammock Rd. Suite 120,,Oviedo,FL,32765,United States,(407) 995-6222,28.655268,-81.222821,,,,
orlando-waterford,1665,12301 Lake Underhill Rd,,Orlando,FL,32828,United States,(407) 440-2906,28.5478986,-81.2027707,,,,
nona,1627,9161 Narcoossee Road Suite #104,Orlando FL 32827,Orlando,FL,32827,United States,(407) 995-6220,28.434064400000,-81.256268400000,,,,
orlando-millenia,1457,4632 Millenia Plaza Way,Orlando FL 32839,Orlando,FL,32839,United States,(407) 930-4200,28.495126100000,-81.429016800000,,,,
hunterscreek,1466,1021 West Osceola Parkway,Kissimmee FL 34741,Kissimmee,FL,34741,United States,(407) 720-4646,28.341316700000,-81.412001200000,,,,
drphillips,1501,7343 W. Sand Lake Rd Sutie 1001,Orlando  FL 32819,Orlando,FL,32819,United States,(407) 982-2822,28.450983600000,-81.481195100000,,,,
lakemary,1370,3801 West Lake Mary Boulevard Suite 161 & 163,Lake Mary FL 32746,Lake Mary,FL,32746,United States,(407) 833-9300,28.755693600000,-81.345207600000,,,,
colonial,1281,2714 E Colonial Drive,,Orlando,FL,32803,United States,(407) 898-1888,28.5526685,-81.348599,,,,
winterpark,1289,115 N. Orlando Ave,,Winter Park,FL,32789,United States,(407) 915-3373,28.5974748,-81.3661614,,,,
altamonte,1279,397 East Altamonte Drive,Suite 1450,Altamonte Springs,FL,32701,United States,(321) 800-3004,28.664400100708,-81.379302978516,,,,
lakewoodranch,1577,5496 Lena Rd,Bradenton FL 34211,Bradenton,FL,34211,United States,(941) 444-2442,27.440748000000,-82.454862000000,,,,
largo,1458,10500 Ulmerton Rd. ,Suite 220 ,Largo,FL,33771,United States,(727) 400-3933,27.892277900000,-82.785419400000,,,,
tyrone,1333,1530 66th Street North,,Saint Petersburg,FL,33710,United States,(727) 235-6998,27.785741300000,-82.728385700000,,,,
laredo,1714,315 Stratford Lane,Laredo TX 78041,Laredo,TX,78041,United States,(956) 231-0232,27.565488,-99.490311,,,,
midlothian,1747,15801 City View Drive,,Midlothian,VA,23113,United States,(804) 510-0300,37.513766100000,-77.698746300000,,,,
shortpump,1562,11819 West Broad St.,Short Pump -Henrico VA 23233,Short Pump -Henrico,VA,23233,United States,(804) 823-7530,37.657276800000,-77.630271700000,,,,
stcharlesil,1882,124 Kirk Road,,St. Charles,IL,60174,United States,(331) 248-6050,41.920222,-88.275643,,,,
madisonwest,1574,7803 Mineral Point Road,Madison WI 53717,Madison,WI,53717,United States,(608) 960-4044,43.060450900000,-89.517496800000,,,,
geneva,1595,2401 Kaneville Rd,Geneva IL 60134,Geneva,IL,60134,United States,(630) 503-6818,41.883644100000,-88.339113000000,,,,
madison,1464,2501 West Beltline Highway 105,Madison WI 53713,Madison,WI,53713,United States,(608) 709-8099,43.034478100000,-89.421055100000,,,,
lubbock,1424,"5214 98th Street, Suite 300",Lubbock TX 79424,Lubbock,TX,79424,United States,(806) 749-1200,33.505712200000,-101.924058000000,,,,
surprise,1806,16846 W Bell Rd.,Surprise  AZ 85374,Surprise,AZ,85374,United States,(623) 556-8944,33.6403618,-112.4216827,,,,
lakepleasant,1382,25314 North Lake Pleasant Parkway Suite 1260,Peoria AZ 85383,Peoria,AZ,85383,United States,(623) 566-1221,33.713550000000,-112.271653600000,,,,
arrowhead,1339,17530 North 75th Avenue Suite 100,,Glendale,AZ,85308,United States,(623) 266-9671,33.642754600000,-112.220972100000,,,,
happyvalley,1346,2501 West Happy Valley Road Suite 32-0120,,Phoenix,AZ,85085,United States,(602) 456-6900,33.710765600000,-112.109601100000,,,,
miramar,1497,12316 Miramar Pkwy.,,Miramar,FL,33025,United States,(954) 908-3636,25.978613100000,-80.304009600000,,,,
pembrokepines,1307,14918 Pines Boulevard,,Pembroke Pines,FL,33027,United States,(954) 534-9949,26.006306200000,-80.348144600000,,,,
reno-central,2466,1575 Robb Drive,Suite 1,Reno,NV,89523,United States,(775) 800-5515,39.526237,-119.882494,,,,
renosoutheast,1753,8056 South Virginia Street,,Reno,NV,89511,United States,(775) 800-2308,39.453990000000,-119.777562000000,,,,
lafayettela,1888,109 Old Camp Road,,Lafayette,LA,70508,United States,(337) 735-1877,30.154000,-92.043464,,,,
scottsdale,1303,"7000 E. Mayo Blvd. , Building 1, Ste. 1016",,Phoenix,AZ,85054,United States,(480) 473-5593,33.656906500000,-111.929890300000,,,,
boise-parkcenter-coming-soon,2803,979 E Parkcenter Blvd.,,Boise,ID,83706,United States,208-246-8600,43.582500,-116.171367,,,,
meridianidaho,1601,2970 N Eagle Rd Suite #105,Meridian ID 83646,Meridian,ID,83646,United States,(208) 895-9076,43.6318346,-116.3538821,,,,
temecula,1553,32435 Temecula Parkway,Temecula CA 92592,Temecula,CA,92592,United States,(951) 395-5415,33.482413100000,-117.091072200000,,,,
fredericksburg-coming-soon,2790,10002 Southpoint Parkway,,Fredericksburg,VA,22407,United States,540-300-6688,38.237155,-77.506236,,,,
charlottesville,2635,1935 Arlington Boulevard,#M006,Charlottesville,VA,22903,United States,(434) 483-5757,38.048849,-78.505090,,,,
lake-ridge,2400,4172 Merchant Plaza,,Woodbridge,VA,22192,United States,571-589-8088,38.674171,-77.334166,,,,
lorton-fairfax-station-coming-soon,2343,9027 Silverbrook Rd.,Suite 101,Fairfax Station,VA,22039,United States,(703) 424-9894,38.727692,-77.258272,,,,
gainesville-va,1875,14062 Promenade Commons Street,,Gainesville,VA,20155,United States,(571) 222-5448,38.789638400000,-77.606033600000,,,,
fairfaxcity,1750,10621 Braddock Road,Fairfax VA 22032,Fairfax,VA,22032,United States,(703) 595-2231,38.825217100000,-77.313996600000,,,,
tuscaloosaal,1893,1451 Dr. Edward Hillard Drive,,Tuscaloosa,AL,35404,United States,(205) 464-9637,33.197998,-87.528733,,,,
auburn,1725,1345 Opelika Road  Suite 1&2,Auburn AL 36830,Auburn,AL,36830,United States,(334) 521-8081,32.6217326,-85.4536996,,,,
vestaviahills,1712,790 Montgomery Hwy Suite 132,Vestavia Hills AL 35216,Vestavia Hills,AL,35216,United States,(205) 823-5700,33.444212500000,-86.792998400000,,,,
montgomery,1537,1645 Perry Hill Road,Montgomery AL 36106,Montgomery,AL,36106,United States,(334) 409-2007,32.356095300000,-86.243761300000,,,,
downtownbirmingham,1569,117 20th Street South,Birmingham AL 35233,Birmingham,AL,35233,United States,(205) 716-2111,33.511516700000,-86.803618000000,,,,
huntsville,1580,930 Bob Wallace Ave S.W. Suite 229,Huntsville AL 35801,Huntsville,AL,35801,United States,(256) 534-4344,34.711940000000,-86.586297900000,,,,
inverness,1456,210 Inverness Corners,Birmingham AL 35242,Birmingham,AL,35242,United States,(205) 991-9700,33.418445900000,-86.695286200000,,,,
hoover,1400,"4441 Creekside Ave, Suite 141",Hoover AL 35233,Hoover,AL,35233,United States,(205) 989-4357,33.373434700000,-86.815716700000,,,,
spokanesouthhill,1559,2620 East 29th Avenue,Spokane WA 99223,Spokane,WA,99223,United States,(509) 774-0636,47.628149300000,-117.373335300000,,,,
syracuse-coming-soon,2512,3150 Erie Boulevard East,,Syracuse,NY,13214,United States,(315) 965-3555,43.053786,-76.077396,,,,
victor,2495,400 Commerce Dr.,Suite 900,Victor,NY,14564,United States,(585) 207-0202,43.018261,-77.437448,,,,
whitby,1833,4071 Thickson Road,,Whitby,ON,L1R 2X3,United States,(705) 207-6057,43.923663100000,-78.928126900000,,,,
pittsford,1288,3340 Monroe Avenue,,Rochester,NY,14618,United States,(585) 445-7173,43.103613,-77.5360777,,,,
wilmington,1754,6800 Parker Farm Drive Suite 120,Wilmington NC 28405,Wilmington,NC,28405,United States,(910) 660-0933,34.2348348,-77.8313142,,,,
ames,2640,725 24th Street,Suite 103-104,Ames,IA, 50010,United States,(515) 212-4947,42.045940,-93.622523,,,,
ankeny,1722,833 East 1st Street,Ankeny IA 50021,Ankeny,IA,50021,United States,(515) 218-9778,41.731314000000,-93.585461000000,,,,
clive,1451,2171 Northwest 111th Street,Clive IA 50325,Clive,IA,50325,United States,(515) 207-3430,41.613130800000,-93.771458800000,,,,
dothan-coming-soon,2804,100 Apple Avenue Suite 3,,Dothan,AL,36303,United States,334-232-8993,31.239084,-85.464835,,,,
douglasville-coming-soon,2478,2750 Chapel Hill Road,Suite 100 & 200,Douglasville,GA,30135,United States,(770) 755-8772,33.730890,-84.735724,,,,
columbusga,1853,5592-B Whitesville Road,,Columbus,GA,31909,United States,(706) 905-1870,32.522749,-84.957789,,,,
newnan,1606,1731-A Newnan Crossing Blvd. East,,Newnan,GA,30265,United States,(470) 240-7787,33.378357300000,-84.752688800000,,,,
peachtreecity,1533,"130 Peachtree East Shopping Center, Suite 140",,Peachtree City,GA,30269,United States,(678) 263-3086,33.423534200000,-84.557648500000,,,,
shreveport,2452,1370 E 70th St.,Suite 1000,Shreveport,LA,71105,United States,(318) 716-7776,32.443438,-93.728050,,,,
tyler,1720,419 WSW Loop 323,,Tyler,TX,75701,United States,(903) 705-6580,32.303059300000,-95.304576700000,,,,
roselle-bloomingdale,1832,39 East Main Street,,Roselle,IL,60172,United States,(630) 283-8888,41.9836289,-88.0786566,,,,
glen-ellyn,1701,862 Roosevelt Road,,Glen Ellyn,IL,60137,United States,(630) 984-6886,41.861069500000,-88.052561200000,,,,
elmhurst,1617,135 North Addison Avenue,Elmhurst IL 60126,Elmhurst,IL,60126,United States,(331) 642-1500,41.901323000000,-87.941109000000,,,,
lagrangeil,1469,10 North Ashland Avenue,La Grange IL 60525,La Grange,IL,60525,United States,(708) 793-7003,41.815963300000,-87.872665700000,,,,
downersgrove-westmont,1526,19 West Ogden,Westmont IL 60559,Westmont,IL,60559,United States,(630) 326-3000,41.809641900000,-87.978197000000,,,,
southnaperville,1430,2936 Showplace Drive Suite 102,Naperville IL 60564,Naperville,IL,60564,United States,(630) 857-9238,41.711141700000,-88.207227900000,,,,
willowbrook-hinsdale,1362,894 75th Street,,Willowbrook,IL,60527,United States,(630) 352-3330,41.752869900000,-87.942568500000,,,,
wheaton,1374,223 Rice Lake Square,Wheaton IL 60189,Wheaton,IL,60189,United States,(630) 914-6767,41.831685200000,-88.098785500000,,,,
naperville,1293,8 West Gartner Road,Suite 120,Naperville,IL,60540,United States,(331) 444-3232,41.7553348,-88.141817,,,,
port-washington-coming-soon,2754,1013 Port Washington Blvd.,,Port Washington,NY,11050,United States,(516) 302-4044,40.830522,-73.683808,,,,
closter,2249,111 Vervalen St.,,Closter,NJ,07624,United States,(201) 279-0877,40.969526,-73.955006,,,,
newcity,1738,195 South Main Street,New City NY 10956,New City,NY,10956,United States,(845) 213-2121,41.139931300000,-73.988867100000,,,,
nanuet,1739,27 Rockland Plaza,Nanuet NY 10954,Nanuet,NY,10954,United States,(845) 367-7721,41.099239200000,-74.015351000000,,,,
whiteplains,1749,245 Mamaroneck Avenue,,White Plains,NY,10605,United States,(914) 729-0996,41.026892900000,-73.763846000000,,,,
littlerockmid-town,1715,6813 Cantrell Road,Little Rock AR 72207,Little Rock,AR,72207,United States,18002032776,34.767944900000,-92.351384700000,,,,
littlerockwest,1492,16900 Chenal Parkway Suite 110,Little Rock AR 72223,Little Rock,AR,72223,United States,(501) 817-3166,34.761619500000,-92.454137600000,,,,
lexington-coming-soon,2788,5230 Sunset Blvd.,Suite D,Lexington,SC,29072,United States,803-220-0080,34.004550,-81.204084,,,,
greenville-coming-soon,2700,823 S. Church St.,,Greenville,SC,29601,United States,(864) 729-4505,34.839675,-82.399857,,,,
columbia-forest-acres,2529,4708 Forest Drive,,Columbia,SC,29206,United States,(803) 630-5200,34.019097,-80.969838,,,,
greenvillesc,1856,1143 Woodruff Rd.,,Greenville,SC,29607,United States,(864) 697-2660,34.824063,-82.292488,,,,
athens,1570,196 Alps Rd,,Athens,GA,30606,United States,(706) 521-0595,33.945242800000,-83.409761700000,,,,
evans,1491,4274 Washington Road,,Evans,GA,30809,United States,(706) 814-3024,33.533441500000,-82.127648400000,,,,
daphne-coming-soon,2338,6900 US HWY 90,,Daphne,AL,36526,United States,(251) 626-3767,30.655840,-87.903353,,,,
pensacola,1737,5555 North Davis Highway,Pensacola FL 32503,Pensacola,FL,32503,United States,(850) 449-2232,30.477252100000,-87.225638600000,,,,
mobile,1613,3664 B Airport Blvd.,Mobile  AL 36608,Mobile,AL,36608,United States,(251) 340-7525,30.677068300000,-88.133520800000,,,,
grandrapids-kentwood,1556,3108 28th Street SE,Grand Rapids MI 49512,Grand Rapids,MI,49512,United States,(616) 607-6000,42.912504500000,-85.589986900000,,,,
sugarhouse-coming-soon,2819,1201 E Wilmington Avenue Suite 100,,Salt Lake City,UT,84106,United States,385-236-1122,40.723653,-111.856227,,,,
lehi,2112,SR 52 and Highland,,Lehi,UT,84121,United States,(801) 653-9665,40.398715,-111.850310,,,,
draper,2111,111 East 13800 South,,Draper,UT,84020,United States,(385) 275-6698,40.500800,-111.888512,,,,
sandyut,1788,10261 S. State St.,,Sandy,UT,84070,United States,(801) 821-4675,40.5649781,-111.8389726,,,,
kaysville,1740,200 North Flint Street,Kaysville UT 84037,Kaysville,UT,84037,United States,(385) 245-7528,41.038430600000,-111.963553000000,,,,
parkcity,1755,1678 Redstone Center Dr #110,Park City UT 84098,Park City,UT,84098,United States,(435) 575-5575,40.720602000000,-111.542083900000,,,,
bountifulutah,1540,85 West 500 South,Bountiful UT 84010,Bountiful,UT,84010,United States,(801) 784-6477,40.883699200000,-111.882762700000,,,,
cottonwoodheights,1544,6953 1300 East,Cottonwood Heights UT 84047,Cottonwood Heights,UT,84047,United States,(801) 463-6748,40.624982000000,-111.855040500000,,,,
orem,1567,1345 South State Street,Orem UT 84097,Orem,UT,84097,United States,(801) 896-9058,40.272413100000,-111.684005200000,,,,
southjordan,1408,"11516 District Drive, Suite 600",South Jordan UT 84095,South Jordan,UT,84095,United States,(801) 758-0500,40.542416000000,-111.981002600000,,,,
saltlakecity,1422,602 East 500 South,Salt Lake City UT 84102,Salt Lake City,UT,84102,United States,(801) 255-9050,40.758096900000,-111.873148200000,,,,
tallahassee-2,1812,1400 Village Square Blvd.,Suite 26,Tallahassee,FL,32312,United States,(850) 895-9683,30.511743,-84.248691,,,,
tallahassee,1420,"1321 Thomasville Road, Unit 1",Tallahassee FL 32303,Tallahassee,FL,32303,United States,(850) 210-0503,30.457100300000,-84.276962100000,,,,
northshore,2119,300 Cherokee Boulevard,,Chattanooga,TN,37403,United States,(423) 438-1588,35.063874,-85.312217,,,,
chattanooga,1691,7407 Igou Gap Road,Chattanooga TN 37421,Chattanooga,TN,37421,United States,(423) 681-2593,35.026788,-85.155966,,,,
walpole-coming-soon,2846,985 Old Post Rd.,,Walpole,MA,02081,United States,(508) 207-3570,42.124433,-71.232636,,,,
westford,2293,160 Littleton Road,,Westford,MA,01886,United States,(978) 237-8936,42.568269,-71.420125,,,,
attleboroma,1884,228 Washington St.,Suite B290,Attleboro,MA,02703,United States,(508) 916-6903,41.923360,-71.356942,,,,
marlborough,1763,40 Boston Post Road West,Marlborough MA 01752,Marlborough,MA,01752,United States,(508) 762-1808,42.340262400000,-71.583544500000,,,,
southnashua,1628,104 Spit Brook Rd. Ste C,Nashua NH 03062,Nashua,NH,03062,United States,(603) 413-8757,42.708369000000,-71.456888400000,,,,
bearden,2099,122 N. Forest Park Blvd.,,Knoxville,TN,37919,United States,(865) 224-6480,35.942066,-83.981408,,,,
asheville,1721,1816 Hendersonville Road,Asheville NC 28803,Asheville,NC,28803,United States,(828) 610-5500,35.505698900000,-82.522707600000,,,,
knoxville,1507,11674 Parkside Drive 674,,Knoxville,TN,37934,United States,(865) 223-6699,35.892878700000,-84.170756100000,,,,
mcallen-coming-soon,2708,5800 North 10th Street,Suite 110,McAllen,TX,78504,United States,(956) 331-2181,26.255484,-98.220186,,,,
cranston,1797,4 Chapel View Blvd,,Cranston,RI,02920,United States,(401) 830-2812,41.755930700000,-71.461024900000,,,,
mariettasouthwest,1602,"1750 Powder Springs Rd., Suite 270",,Marietta,GA,30064,United States,(678) 810-1814,33.904330300000,-84.605195900000,,,,
kennesaw,1572,"2555 Prado LN, Suite 1400",,Marietta,GA,30066,United States,(770) 687-3625,34.014574100000,-84.553124000000,,,,
woodstock,1484,"200 Parkbrooke Drive, Suite 140",,Woodstock,GA,30189,United States,(770) 833-4550,34.111811100000,-84.558646700000,,,,
roswell,1392,"625 West Crossville Road, Suite #108",,Roswell,GA,30075,United States,(770) 625-6122,34.060256600000,-84.381348400000,,,,
alpharetta,1394,"3450 Old Milton Parkway, Studio 210",,Alpharetta,GA,30005,United States,(770) 686-5352,34.068056900000,-84.260441700000,,,,
westcobb,1427,"3600 Dallas Highway, Suite 100",,Marietta,GA,30064,United States,(770) 876-4339,33.955174500000,-84.656241400000,,,,
cumming,1434,"1735 Buford Highway, Suite 220",,Cumming,GA,30041,United States,(770) 887-2223,34.163573400000,-84.114787100000,,,,
eastcobbmarietta,1349,"1401 Johnson Ferry Road, Suite 320",,Marietta,GA,30062,United States,(678) 920-9455,33.984638400000,-84.427736700000,,,,
sanclemente,1672,802 Avenida Pico,,San Clemente,CA,92672,United States,(949) 485-4885,33.442509300000,-117.614119000000,,,,
madison-ms,1879,111 Colony Crossing,,Madison,MS,39110,United States,(601) 707-9202,32.476154000000,-90.142804800000,,,,
coralsprings,1688,1308 Coral Ridge Drive,,Coral Springs,FL,33071,United States,(954) 800-2721,26.249317169189,-80.270629882813,,,,
coconutcreek,1473,4449 Lyons Road J-103,,Coconut Creek,FL,33073,United States,(954) 510-9400,26.284694671631,-80.187110900879,,,,
plantation,1321,10073 Cleary Boulevard,,Plantation,FL,33324,United States,(954) 693-8444,26.135044097900,-80.284225463867,,,,
hollywood,1331,3251 Hollywood Boulevard 470,,Hollywood,FL,33021,United States,(954) 591-8053,26.013928200000,-80.173990300000,,,,
coopercity,1378,5874 S Flamingo Rd,Cooper City FL 33330,Cooper City,FL,33330,United States,(954) 434-6244,26.046660000000,-80.311316000000,,,,
fortlauderdale,1284,1835 Cordova Road,,Fort Lauderdale,FL,33316,United States,(954) 765-6014,26.099027633667,-80.132926940918,,,,
lighthouse,1285,3778 Federal Highway,,Lighthouse Point,FL,33064,United States,(954) 781-0800,26.277654647827,-80.099212646484,,,,
centralfortlauderdale,1290,2354 N. Federal Highway,,Fort Lauderdale,FL,33305,United States,(954) 372-2361,26.154300689697,-80.117401123047,,,,
northfortlauderdale,1291,1759 East Commercial Blvd,,Fort Lauderdale,FL,33334,United States,(954) 229-9800,26.189136505127,-80.123512268066,,,,
weston,1309,1132 Weston Road,,Weston,FL,33326,United States,(954) 888-6660,26.105802200000,-80.364399900000,,,,
petaluma,2674,401 Kenilworth Drive Suites 310/320,,Petaluma,CA,94952,United States,(707) 345-1160,38.244763,-122.628450,,,,
rohnertpark,1787,Raley's Town Centre,,Rohnert Park,CA,94928,United States,(707) 343-8004,38.345913000000,-122.705122500000,,,,
novato,1724,975 Diablo Avenue,Novato CA 94947,Novato,CA,94947,United States,(415) 761-1119,38.104531700000,-122.572197800000,,,,
santarosa,1611,733 Coddingtown Center 745B,Santa Rosa CA 95401,Santa Rosa,CA,95401,United States,(707) 331-1270,38.456419600000,-122.727897200000,,,,
jensen-beach,2501,4211 NW Federal Hwy.,,Jensen Beach,FL,34957,United States,(772) 631-8244,27.258778,-80.281181,,,,
verobeach,1910,5240 US Hwy 1 #107,,Vero Beach,FL,32967,United States,(772) 205-3733,27.692226,-80.412114,,,,
lakeworth,1680,"6177 S Jog Road, Suite #9D",Lake Worth FL 33467,Lake Worth,FL,33467,United States,(561) 327-6100,26.587429885772,-80.147501845894,,,,
portstlucie,1696,884 Southwest Saint Lucie West Boulevard,Port Saint Lucie FL 34986,Port Saint Lucie,FL,34986,United States,(772) 212-1470,27.317547300000,-80.380647000000,,,,
westpalmbeach,1631,1900 Okeechobee Blvd. Suite Bay A-1,Suite Bay A-1,West Palm Beach,FL,33409,United States,(561) 771-1180,26.7054663,-80.0834611,,,,
wellington,1660,2625 S. State Road 7,,Wellington,FL,33414,United States,(561) 296-0485,26.6416645,-80.2062901,,,,
palmbeachgardens,1663,6271 PGA Boulevard 203,"Palm Beach Gardens, FL 33418",Palm Beach Gardens,FL,33418,United States,(561) 702-2308,26.841594400000,-80.134094200000,,,,
palmbeachgardenseast,1504,2612 PGA Blvd.,,Palm Beach Gardens,FL,33410,United States,(561) 859-0683,26.844623565674,-80.075317382813,,,,
stuartcentre,1391,2303 Southeast Federal Highway,Stuart FL 34994,Stuart,FL,34994,United States,(772) 266-8344,27.177896700000,-80.236603500000,,,,
jupiter,1327,6390 West Indiantown Road 24,,Jupiter,FL,33458,United States,(561) 743-7770,26.933825900000,-80.132317400000,,,,
boyntonbeach,1328,"395 N Congress Avenue, Unit 10",,Boynton Beach,FL,33426,United States,(561) 734-6777,26.529964800000,-80.090419000000,,,,
royalpalmbeach,1304,11021 Southern Blvd.   S-130,,Royal Palm Beach,FL,33411,United States,(561) 753-8111,26.682580947876,-80.222877502441,,,,
naples-coastland-center-coming-soon,2844,1900 Tamiami Trail N,,Naples,FL ,34102,United States,(239) 599-5650,26.169948,-81.797077,,,,
downtownsarasota,1539,1605 Main St,Sarasota FL 34236,Sarasota,FL,34236,United States,(941) 444-2440,27.336771100000,-82.538058800000,,,,
southsarasota,1381,6509 South Tamiami Trail,,Sarasota,FL,34231,United States,(941) 444-2439,27.260239200000,-82.522337200000,,,,
fortmyers-sixmilecypress,1450,8001 Dani Drive 6,Fort Myers FL 33966,Fort Myers,FL,33966,United States,(239) 292-5826,26.605870400000,-81.810427400000,,,,
universitypark,1337,5275 University Parkway Unit 116,,Bradenton,FL,34201,United States,(941) 444-2435,27.390534200000,-82.465854300000,,,,
fortmyers-gladiolus,1340,11600 Gladiolus Drive 317,,Fort Myers,FL,33908,United States,(239) 243-0730,26.5173281,-81.9419239,,,,
milford-coming-soon,2782,1682 Boston Post Road,,Milford,CT,06460,United States,(203) 872-BURN,41.248286,-73.024348,,,,
danbury-coming-soon,2720,7 Eagle Road,,Danbury,CT,06810,United States,(203) 409-2020,41.410504,-73.415727,,,,
westhartford,1682,345 N. Main St,,West Hartford,CT,06117,United States,(860) 288-5501,41.785189,-72.7479087,,,,
shelton,1417,704 Bridgeport Avenue Suite #201,Shelton CT 06484,Shelton,CT,06484,United States,(203) 343-0900,41.275059500000,-73.122843300000,,,,
fort-collins,2572,2261 East Drake Road,Suite 140,Fort Collins,CO,80525,United States,(970) 632-2020,40.552221,-105.036002,,,,
boulder,1406,1850 29th Street Suite #1008,,Boulder,CO,80301,United States,(303) 530-9663,40.019611900000,-105.256245700000,,,,
broomfield,1330,1285 East 1st Avenue Suite C,,Broomfield,CO,80020,United States,(303) 469-4019,39.915408400000,-105.054963100000,,,,
frankfort,1745,21000 South La Grange Road,Frankfort IL 60423,Frankfort,IL,60423,United States,(630) 394-5050,41.508154600000,-87.850098200000,,,,
orland,1292,15200 S. LaGrange Road,,Orland Park,IL,60462,United States,(708) 860-8292,41.6136295,-87.8552597,,,,
sayville,2525,5640 Sunrise Highway,,Sayville,NY,11782,United States,(631) 865-1515,40.765882,-73.074551,,,,
westport,2469,645 Post Rd. East,,Westport,CT,06880,United States,(203) 883-9262,41.138248,-73.342631,,,,
mtkisco,1890,222 East Main Street,,Mount Kisco,NY,10549,United States,(914) 227-2757,41.203065,-73.726576,,,,
stonybrook,1716,2306 Nesconset Highway,Stony Brook NY 11790,Stony Brook,NY,11790,United States,(631) 246-1040,40.875031200000,-73.121332800000,,,,
norwalk,1642,205 Main Street,Norwalk CT 06851,Norwalk,CT,06851,United States,(203) 883-6070,41.131619800000,-73.423692000000,,,,
melville,1557,500 Walt Whitman Rd.,,Melville,NY,11747,United States,(631) 683-8311,40.812633000000,-73.409169000000,,,,
syosset,1514,103 Jackson Avenue Suite #1,Syosset NY 11791,Syosset,NY,11791,United States,(516) 299-8309,40.823173100000,-73.502241700000,,,,
fairfield,1419,525 Tunxis Hill Cut Off,Fairfield CT 06825,Fairfield,CT,06825,United States,(203) 883-8220,41.177623900000,-73.240649800000,,,,
eastnorthport,1316,4000 Jericho Turnpike,,East Northport,NY,11731,United States,(631) 499-4500,40.839074700000,-73.315181800000,,,,
denville-coming-soon,2755,3130 Rt. 10 West,,Denville,NJ,07834,United States,(973) 282-8555,40.871372,-74.517351,,,,
savannahga,1886,1800 East Victory Drive,Suite 2,Savannah,GA,31404,United States,(912) 921-9519,32.045069,-81.071058,,,,
summerville,1633,1101 N. Main Street,Summerville SC 29483,Summerville,SC,29483,United States,(843) 970-2144,33.032125000000,-80.162899000000,,,,
charleston,1385,975 Savannah Highway,Charleston SC 29407,Charleston,SC,29407,United States,(843) 277-9036,32.782061600000,-79.990800000000,,,,
georgetown-coming-soon,2842,1500 Rivery Blvd.  Suite 340,,Georgetown,TX,78628,United States,(512) 630-0252,30.649160,-97.687944,,,,
cedar-park,2496,5001 183A Toll Road,Suite L100,Cedar Park,TX,78613,United States,(512) 807-0402,30.5310425,-97.8190277,,,,
pflugerville,2115,4810 Gattis School Road,,Hutto,TX,78634,United States,(512) 298-3350,30.500784,-97.584810,,,,
roundrocknorth,1810,311 University Blvd. Suite 100,,Round Rock,TX,78665,United States,(512) 954-9333,30.559713000000,-97.683852000000,,,,
leandertx,1845,3421 N. Lakeline Blvd.,,Leander,TX,78641,United States,(512) 807-0443,30.5788055,-97.8530686,,,,
waco,1776,"1428 Wooded Acres Drive, Suite #116",Waco TX 76710,Waco,TX,76710,United States,(254) 265-7222,31.533456900000,-97.190665400000,,,,
averyranch,1490,"14900 Avery Ranch Blvd, Suite A-100",Austin TX 78717,Austin,TX,78717,United States,(512) 669-5272,30.498337800000,-97.777068300000,,,,
wellington-south-london,2129,1025 Wellington Road,Unit 4,London,ON,N6E 1W4,United States,(519) 200-4692,42.937842,-81.225889,,,,
iowa-city-coming-soon,2758,1303 5th St.,,Coralville,IA,52241,United States,(319) 800-6282,41.676607,-91.581192,,,,
davenport,2524,4520 E. 53rd St.,,Davenport,IA,52807,United States,(563) 594-6683,41.575100,-90.505507,,,,
cedarrapids,1687,4824 1st Ave NE,,Cedar Rapids,IA,52403,United States,(319) 450-0665,42.027302,-91.6208857,,,,
ocalafl,1801,4414 SW College Rd.,Suite 960,Ocala,FL,34474,United States,(352) 433-0220,29.1871986,-82.1400923,,,,
chicoca,1815,874 East Avenue,,Chico,CA,95926,United States,(530) 722-4000,39.7284944,-121.8374777,,,,
east-meadow,2402,2314A Hempstead Tpke.,,East Meadow,NY,11554,United States,(516) 301-5909,40.724537,-73.550546,,,,
carleplace,1588,211 Glen Cove Road,Carle Place NY 11514,Carle Place,NY,11514,United States,(516) 268-6272,40.747274600000,-73.616414700000,,,,
west-delray-beach,1744,"9097 West Atlantic Avenue, Suite 110",,Delray Beach,FL,33446,United States,(561) 376-1127,26.454642000000,-80.190818000000,,,,
east-boca-raton,1748,10 East Palmetto Park Rd,,Boca Raton,FL,33432,United States,(561) 571-7740,26.350041000000,-80.087144000000,,,,
bocaraton-west,1412,8903 Glades Road Studio H-13,,Boca Raton,FL,33434,United States,(561) 488-1955,26.369883600000,-80.184219700000,,,,
coralsprings-parkland,1317,6230 Coral Ridge Drive,,Coral Springs,FL,33076,United States,(954) 345-7518,26.307603000000,-80.280355000000,,,,
bocaraton-central,1315,2240 Northwest 19th Street,,Boca Raton,FL,33431,United States,(561) 750-0900,26.365711700000,-80.125422200000,,,,
poughkeepsie,1581,1895 S Rd,Poughkeepsie NY 12601,Poughkeepsie,NY,12601,United States,(845) 372-5656,41.667525200000,-73.928898100000,,,,
midland,1596,4410 N. Midkiff Rd. Suite B1,Midland TX 79705,Midland,TX,79705,United States,(432) 695-9898,32.032552600000,-102.127565100000,,,,
scottsdale-north,2102,23757 North Scottsdale Road Suite 125,,Scottsdale,AZ,85255,United States,(480) 447-4997,33.702744,-111.925295,,,,
sugar-hill-buford-coming-soon,2442,5885 Cumming Highway,Suite 401,Sugar Hill,GA,30518,United States,(678) 786-4120,34.118833,-84.075078,,,,
sugarloafduluth,1799,2220 Peachtree Industrial Blvd Suite B-130,,Duluth,GA,30097,United States,(678) 648-5600,34.020660200000,-84.119864300000,,,,
stonemountain,1612,1227 Rockbridge Road Southwest,,Stone Mountain,GA,30087,United States,(770) 604-1812,33.841166500000,-84.132956500000,,,,
hamiltonmill,1546,2463 Hamilton Mill Parkway,,Dacula,GA,30019,United States,(470) 443-1800,34.073423800000,-83.915436900000,,,,
peachtreecorners,1468,"5270 Peachtree Parkway, Suite 105",,Norcross,GA,30092,United States,(678) 786-4100,33.976085662842,-84.216438293457,,,,
johnscreek,1487,"8465 Holcomb Bridge Road, Suite #430",,Johns Creek,GA,30022,United States,(470) 388-3159,33.987710000000,-84.270064000000,,,,
webbgin,1505,"1250 Scenic Highway, Suite 1264",,Lawrenceville,GA,30045,United States,(770) 450-1234,33.900615300000,-84.004155800000,,,,
suwanee,1431,"2615 Peachtree Parkway, Suite #230",,Suwanee,GA,30024,United States,(770) 688-0622,34.096351100000,-84.174737500000,,,,
flemington-coming-soon,2716,295 Highway 202,,Flemington,NJ,08822,United States,(908) 366-7600,40.501822,-74.854937,,,,
exton,1863,294 Main Street,,Exton,PA,19341,United States,(610) 298-5400,40.022549,-75.628108,,,,
bedminster,1770,434 US HWY 202/206 N,Bedminster NJ 07921,Bedminster,NJ,07921,United States,(908) 698-4600,40.642492400000,-74.637551100000,,,,
newtown,1499,2140 South Eagle Road,Newtown PA 18940,Newtown,PA,18940,United States,(215) 957-1700,40.230419700000,-74.940495300000,,,,
doylestown,1429,1661 Easton Road,Warrington PA 18976,Warrington,PA,18976,United States,(215) 792-7952,40.268150100000,-75.129209500000,,,,
the-woodlands-coming-soon,2772,4747 Research Forest Dr. Suite 445,,The Woodlands,TX, 77381,United States,(832) 916-2115,30.185073,-95.490485,,,,
bloomingtonil,1874,1500 E Empire St.,A-13,Bloomington,IL,61701,United States,(309) 434-5500,40.490717,-88.958634,,,,
fargond,1895,4501 15th Ave.,,Fargo,ND,58103,United States,(701) 369-2200,46.858884,-96.863203,,,,
salem,1760,236 North Broadway Unit A,Salem NH 03079,Salem,NH,03079,United States,(603) 898-3300,42.7917525,-71.2346009,,,,
portsmouth,1635,2454 Lafayette Road,Portsmouth NH 03801,Portsmouth,NH,03801,United States,(603) 686-8287,43.034473800000,-70.783456900000,,,,
nashua,1361,345 Amherst Street,,Nashua,NH,03063,United States,(603) 882-6800,42.783309300000,-71.503226100000,,,,
billings-coming-soon,2832,824 Shiloh Crossing Blvd. Suite 3,,Billings,MT,59102,United States,406-656-1144,45.754713,-108.615837,,,,
west-melbourne-coming-soon,2706,1559 W. New Haven Avenue,,West Melbourne,FL,32904,United States,(321) 369-9169,28.077331,-80.648288,,,,
rockledge,1756,6365 Wickham Road D301,Melbourne FL 32940,Melbourne,FL,32940,United States,(321) 800-4466,28.2146777,-80.6725339,,,,
celebration,1779,49 Blake Blvd,Celebration FL 34747,Celebration,FL,34747,United States,(407) 613-2161,28.3306719,-81.5277127,,,,
delraybeach,1332,3100 South Federal Highway,,Delray Beach,FL,33483,United States,(561) 274-2550,26.426298000000,-80.073282800000,,,,
crown-point-coming-soon,2830,852 N Superior Dr.,,Crown Point,IN,46307,United States,219-306-8448,41.425860,-87.336607,,,,
munster,1766,835 Joliet Street,Dyer IN 46311,Dyer,IN,46311,United States,(219) 224-2660,41.494475800000,-87.506830200000,,,,
clermontfl,1858,13900 County Rd 455,,Clermont,FL,34711,United States,(407) 910-2333,28.548416,-81.681018,,,,
lakelandlakeland,1513,1489 Town Center Drive,Lakeland FL 33803,Lakeland,FL,33803,United States,(863) 226-1303,27.999818700000,-81.981140600000,,,,
guelph,2125,84 Clair Road E,,Guelph,ON,N1L 0G6,United States,(226) 780-0822,43.500326,-80.189129,,,,
ancaster,1811,1191 Wilson Street West Unit #3,,Ancaster,ON,L9G 3K9,United States,(289) 780-8600,43.197118500000,-80.020333700000,,,,
parkridge,1619,10 North Northwest Highway,Park Ridge IL 60068,Park Ridge,IL,60068,United States,(847) 318-3804,42.011508300000,-87.830187700000,,,,
harrisonburg,1731,1005 Port Republic Road,Harrisonburg VA 22801,Harrisonburg,VA,22801,United States,(540) 324-2314,38.420936000000,-78.870970000000,,,,
clifton-park,2297,The Crossing Shopping Center  54 Crossing Blvd.,Suite V,Clifton Park,NY,12065,United States,(518) 644-4757,42.861006,-73.771839,,,,
albany,1673,1704-128 Western Ave,Albany NY 12203,Albany,NY,12203,United States,(518) 992-4910,42.660520100000,-73.773949000000,,,,
niskayuna,1455,3333 Consaul Road,Schenectady NY 12304,Schenectady,NY,12304,United States,(518) 930-0283,42.783203100000,-73.891328500000,,,,
richland-coming-soon,2789,1034 Queensgate Dr.,,Richland,WA,99352,United States,509-774-0636,46.248903,-119.302509,,,,
camp-hill-coming-soon,2814,600 High Pointe Blvd. Suite A7,,Harrisburg,PA,17111,United States,717-288-1320,40.245137,-76.807252,,,,
pike-creek-coming-soon,2673,4754 Limestone Road,,Wilmington,DE,19808,United States,(302) 426-2030,39.743352,-75.695179,,,,
westchester-pa,1876,672 Downingtown Pike,,West Chester,PA,19380,United States,(484) 886-4500,39.962583500000,-75.623706500000,,,,
princeton,1591,640 Nassau Park Blvd,Princeton NJ 08540,Princeton,NJ,08540,United States,(609) 474-0090,40.304705100000,-74.680631700000,,,,
marlboro,1460,104 US 9,Englishtown NJ 07726,Englishtown,NJ,07726,United States,(732) 475-0333,40.352597200000,-74.306971100000,,,,
westwindsor,1338,352 Princeton Hightstown Road Suite 7,,West Windsor Township,NJ,08550,United States,(609) 799-4561,40.290021600000,-74.581232900000,,,,
palmdesert,1640,73-470 El Paseo  Suite 7,Palm Desert CA 92260,Palm Desert,CA,92260,United States,(760) 624-8010,33.719996300000,-116.383405400000,,,,
convention-centre,2282,#66 - 1055 Canada Place,,Vancouver,BC,V6C0B9,United States,(778) 379-4916,49.289124,-123.116498,,,,
langley,1901,19653 Willowbrook Drive,#128,Langley,BC,V2Y 1A5,United States,(604) 427-1604,49.116774,-122.679614,,,,
westshore,1620,2945 Jacklin Road Unit 133,Langford BC V9B 5E3,Langford,BC,V9B 5E3,United States,12504837444,48.439521543568,-123.508784252920,,,,
portmoody-coquitlam,1623,400 Capilano Road,Port Moody BC V3H 0E6,Port Moody,BC,V3H 0E6,United States,(604) 492-4565,49.278789000000,-122.828813900000,,,,
southsurreywhiterock,1388,15355 24 Avenue,,Surrey,BC,V4A 2H9,United States,(604) 560-1160,49.046489715576,-122.797401428223,,,,
northvan,1389,1171 Marine Drive 107,North Vancouver BC V7P 1S8,North Vancouver,BC,V7P 1S8,United States,(604) 971-1566,49.323842200000,-123.106067300000,,,,
victoria,1403,1010-2 Yates Street,Victoria BC V8V 3M6,Victoria,BC,V8V 3M6,United States,(250) 984-8056,48.425560000000,-123.355897000000,,,,
missoula-coming-soon,2783,3624 Brooks Street Space 1014,,Missoula,MT,59801,United States,406-551-4344,46.837144,-114.036107,,,,
flagstaff-coming-soon,2686,601 E. Piccadilly Dr.,Suite 25,Flagstaff,AZ,86001,United States,(928) 288-5300,35.191040,-111.642878,,,,
fairfax,1656,13063 Lee Jackson Memorial Hwy,,Fairfax,VA,22033,United States,(703) 961-8985,38.8811386,-77.398158,,,,
sterling,1586,20806 Edds lane,Sterling VA 20165,Sterling,VA,20165,United States,(571) 257-0077,39.040182900000,-77.412195600000,,,,
ashburn,1426,44050 Ashburn Shopping Center #189,Ashburn VA 20147,Ashburn,VA,20147,United States,(703) 881-9110,39.043852000000,-77.473594000000,,,,
portlandme,1847,23 Marginal Way,,Portland,ME,04101,United States,(207) 536-5833,43.660349,-70.266705,,,,
countrywalkmiamifl,1554,13550 Southwest 120th Street Suite 402,,Miami,FL,33186,United States,(305) 254-2683,25.655451800000,-80.414958400000,,,,
cutlerbay,1502,18455 South Dixie Highway,Cutler Bay FL 33157,Cutler Bay,FL,33157,United States,(305) 234-1141,25.597988300000,-80.354367400000,,,,
middletown-nj,1880,846 Route 35 South,,Middletown,NJ,07748,United States,(908) 738-1200,40.391714,-74.099994,,,,
merrick-coming-soon,2773,1976 Merrick Rd. ,,Merrick,NY, 11566,United States,(516) 299-9901,40.656229,-73.549644,,,,
bethpageny,1909,4041 Hempstead Turnpike,,Bethpage,NY,11714,United States,(516) 597-4740,40.726107,-73.486455,,,,
rockville,1657,313 Merrick Road,,Rockville Center,NY,11570,United States,(516) 586-6555,40.6562506,-73.6436866,,,,
massapequapark,1435,4914 Merrick Road,Massapequa Park NY 11762,Massapequa Park,NY,11762,United States,(516) 590-7676,40.666437600000,-73.454577200000,,,,
barboursville,2106,3034 Champion Dr.,,Barboursville,WV,25504,United States,(304) 521-1500,38.421872,-82.287885,,,,
rosemere,2479,401 Boulevard Curé-Labelle,Unité A-01,Rosemère,QC,J7A 3T2,United States,450-234-1238,45.631405,-73.817873,,,,
boucherville,2472,1001 Boulevard de Montarville,,Boucherville,QC,J4B 6P5,United States,(450) 700-2155,45.590660,-73.433401,,,,
pointe-claire,1441,315 Boulevard Brunswick #34,Pointe-Claire QC H9R 5M7,Pointe-Claire,QC,H9R 5M7,United States,(514) 426-0077,45.467174500000,-73.830467700000,,,,
brick,2502,744 Route 70W,,Brick Township,NJ,08723,United States,(732) 640-5480,40.062419,-74.143393,,,,
waterloo-coming-soon,2800,17 Danks Street,,Waterloo,New South Wales,2017,Australia,96996170,-33.898149,151.211359,,,,
bondijunctionnsw,1675,"Shop 3, 64 Bronte Rd",,Bondi Junction,NSW,2022,Australia,(02) 8579 7700,-33.894660,151.250493,,,,
hawthorn,1510,202 Belair Road,Adelaide SA 5062,Adelaide,SA,5062,Colombia,(088) 490-0910,-34.999228700000,138.618170500000,,,,
aspley,1509,"Shop 16, Aspley Homemaker City 815 Zillmere Road",,Aspley,QLD,4034,Colombia,(073) 535-7110,-27.3558231,153.0179079,,,,
gungahlin,2290,10 Gribble St.,,Gungahlin,ACT,2912,Colombia,02 6210 5010,-35.183822,149.129969,,,,
bogotacolombia116,1684,Calle 116 #16-09,Piso 3,Bogotá,Colombia,110111,Dominican Republic,57 (1) 702-3438,4.696461,-74.043960,,,,
bellavista,2655,Avenida Sarasota Esquina Pedro Bobea Almacenes Unidos,,Bellavista,DN,,Dominican Republic,(809) 227-7801 ext. 924,18.456216,-69.937180,,,,
santodomingo,1686,Avenida Lope de Vega #29,,Santo Domingo,DN,,Dominican Republic,(809) 567-5236,18.475957,-69.931552,,,,
lomas,2685,Plaza Carso Palmas en Ave. Paseo de las Palmas 781 S1-A Lomas de Chapultepec,,Mexico City,MX,11560,Peru,52-55-2155-1527,19.429269,-99.216333,,,,
mexicocity,1681,Blvd. Magnocentro #26 local 112A PB,,Ciudad de Mexico,MX,52760,Peru,+52 55 52 90 07 27,19.406802,-99.2743308,,,,
polanco,1708,147 Avenida Horacio,11560 Ciudad de México MEX,Ciudad de México,MX,11560,Peru,+52 55 91 31 86 03,19.433160900000,-99.183765400000,,,,
limaperupe001,1826,"Av.Raul Ferrero S/N, 2do Piso C.C. Molina Plaza",,La Molina,lim,,Peru,511933433320,-12.067165,-76.938341,,,,
winchester-uk,2209,"Harman House, Andover Road",,Winchester,England,SO23 7BS,United Kingdom,0196 285 2356,51.067950,-1.318201,,,,
london-islington-uk,2208,240 Upper Street,,Islington,England,N1 1RU,United Kingdom,0207 226 6744,51.544967,-0.103528,,,,
london-enfield-uk,2207,Carterhatch Lane,,Middlesex,England,EN1 4NF,United Kingdom,0208 364 5858,51.667271,-0.060505,,,,
london-aldgate-uk,2201,1 Alie Street,,London,England,E1 8DE,United Kingdom,020 7481 1599,51.513487,-0.072710,,,,
santiago-de-chile-coming-soon,2347,Apoquindo 2929,Las Condes,Santiago de Chile,STGO,,Chile,56-9-6120-6002,-33.417489,-70.599166,,,,
guatemala-city-zona-10-coming-soon,2776,6ta AVE 13-05 zona 10 Plaza Diez,,Guatemala City,Guatemala,01010,Guam,+502-23630571,14.598684,-90.510950,,,,
causeway-bay-coming-soon,2753,Midtown Soundwill Plaza II,"1 Tang Lung Street, 23/F",Causeway Bay,HK,,Iceland,852 5597 7296,22.278983,114.181885,,,,
salmiyakuwaitkw001,1830,Salem Al Mubarak Street,Store Location M14,Salmiya,KU,,Kuwait,96594122294,29.341632,48.0711501,,,,
ellerslie-coming-soon,2848,5061 Ellerslie Road,,Edmonton,AB,T6X 1X2,Canada,(780) 640-1197,53.424837,-113.432454,,,,
manning,2240,4841 167 Avenue NW,,Edmonton,AB,T5Y 0S4,Canada,780-800-9670,53.628656,-113.429590,,,,
namao,2211,16620 95 Street NW,,Edmonton,AB,T5Z 3L2,Canada,(780) 800-0400,53.628120,-113.487785,,,,
reddeer,1643,130 Clearview Market Way,Red Deer AB T4P 0M9,Red Deer,AB,T4P 0M9,Canada,(403) 406-3500,52.287169300000,-113.771731900000,,,,
jaspergates,1404,15049 Stony Plain Road,,Edmonton,AB,T5P 4W1,Canada,(780) 666-9707,53.540614,-113.580586,,,,
stalbert,1320,11 Bellerose Drive,,Saint Albert,AB,T8N 5C9,Canada,(780) 800-0045,53.645831300000,-113.624100000000,,,,
riverbend,1341,484 Riverbend Square Northwest,,Edmonton,AB,T6R 2E3,Canada,(780) 800-0470,53.468737000000,-113.585718000000,,,,
sherwoodpark,1342,993 Fir Street 86,,Sherwood Park,AB,T8A 4N5,Canada,(780) 800-0474,53.513115800000,-113.322367500000,,,,
strathcona,1348,104 Street Northwest 7911,,Edmonton,AB,T6E 6N8,Canada,(780) 800-1940,53.499798200000,-113.497676200000,,,,
west-lethbridge,2212,#200 550 University Drive,,West Lethbridge,AB,T1J 4V3,Canada,(403) 328-9808,49.693114,-112.893084,,,,
seton,1444,19489 Seton Crescent Southeast 190,Calgary AB T3M 1T4,Calgary,AB,T3M 1T4,Canada,(403) 570-8730,50.880187300000,-113.957959400000,,,,
shawnessyca,1898,70 Shawville Blvd. SE,,South Calgary - Shawnessy,AB,T2Y 2Z3,Canada,(587) 481-8765,50.905755,-114.064984,,,,
westsprings,1525,873 85 Street Southwest,Calgary AB T3H 0J5,Calgary,AB,T3H 0J5,Canada,(403) 727-6776,51.060791000000,-114.212193000000,,,,
royaloak,1409,8888 Country Hills Boulevard Northwest,Calgary AB T3G 5T4,Calgary,AB,T3G 5T4,Canada,(403) 474-8959,51.153963600000,-114.218006500000,,,,
creekside,1367,11988 Symons Valley Road Northwest,Calgary AB T3P 0A3,Calgary,AB,T3P 0A3,Canada,(587) 316-2121,51.160701800000,-114.122307500000,,,,
kamloops,1899,#260-1210 Summit Drive,,Kamloops,BC,V2C 6M1,Canada,(250) 851-9838,50.665028,-120.353412,,,,
kelowna,1900,"#115, 590 K.L.O Road",,Kelowna,BC,V1Y 7S2,Canada,(250) 860-6888,49.862057,-119.490205,,,,
sagecreek,1902,50 Sage Creek Blvd.,Unit 802,Winnipeg,MB,R3X 0J6,Canada,(204) 272-0322,49.832752,-97.047607,,,,
taylor,1903,7-1170 Taylor Avenue,,Winnipeg,MB,R3M 3Z4,Canada,(204) 808-9794,49.853658,-97.166487,,,,
st-johns,2647,70 White Rose Drive,Unit 1,St. John's,NL,A1A 0L2,Canada,(709) 700-0330,47.619689,-52.719489,,,,
ottawa-merivale,2532,1445 Merivale Rd. Suite 105,,Ottawa,ON,K2E 5N9,Canada,613-699-0029,45.362617,-75.732939,,,,
stittsville,1904,5703 Hazeldean Road,Unit 2,Stittsville,ON,K2S 0P6,Canada,(613) 505-0270,45.285605,-75.912913,,,,
southkeysca,1522,1001 Dazé Street,Ottawa ON K1V 2G3,Ottawa,ON,K1V 2G3,Canada,(613) 800-0860,45.354919500000,-75.652005700000,,,,
newmarket-aurora,1629,16880 Yonge Street #5,Newmarket ON L3Y 0A3,Newmarket,ON,L3Y 0A3,Canada,(289) 807-3888,44.039709700000,-79.477264900000,,,,
barrie,1583,15 Maple Avenue,Barrie ON L4N 2N6,Barrie,ON,L4N 2N6,Canada,(705) 302-0492,44.387378000000,-79.689897200000,,,,
elginmills,1440,10775 Leslie Street Unit 5,Richmond Hill ON L4S 0B2,Richmond Hill,ON,L4S 0B2,Canada,(289) 809-8773,43.900278700000,-79.394459900000,,,,
rutherford-coming-soon,2350,"9200 Bathurst St., Unit 25B",,Vaughan,ON,L4J 8W1,Canada,289-809-4303,43.846617,-79.460092,,,,
major-mackenzie-vaughn,2126,2891 Major Mackenzie Drive,,Vaughn,ON,L6A 3N9,Canada,(905) 231-3872,43.850818,-79.532012,,,,
northyork,1834,1881 Steeles Avenue West #3,,Toronto,ON,M3H 5Y4,Canada,(647) 801-8068,43.786561100000,-79.468835400000,,,,
brampton,2124,35 Resolution Drive,Unity J08,Brampton,ON,L6W 0A6,Canada,(905) 799-1600,43.679041,-79.721353,,,,
parkside-village-coming-soon,2849,4032E Confederation Parkway,,Mississauga,ON, L5B0J6,Canada,(905) 277-2876,43.585910,-79.645994,,,,
waterloo,1599,450 Columbia Street West,Waterloo ON N2T 2W1,Waterloo,ON,N2T 2W1,Canada,(226) 243-3575,43.468460000000,-80.568678500000,,,,
regina,1438,2101 Quance Street,Regina SK S4N 6P3,Regina,SK,S4N 6P3,Canada,(306) 545-3500,50.444550400000,-104.555144500000,,,,
saskatoon,1585,311 Cope Lane,Saskatoon SK S7T 0G3,Saskatoon,SK,S7T 0G3,Canada,(306) 244-6764,52.084821900000,-106.641616800000,,,,
