store_name,store_number,address,address2,city,state,zip_code,country,phone_number,latitude,longitude,store_hours,store_type,other_fields,coming_soon
LaGuardia Airport (4-K) - Gate D 4-K,,LaGuardia Road,,Flushing,NY,11371,US,347-578-6055,40.77206,-73.87616,,,,
Eastview Mall,,714 Eastview Mall Dr,,Victor,NY,14564,US,585-223-9610,43.0282365,-77.448567,,,,
Walden Galleria (RU),,64 Galleria Dr,,Buffalo,NY,14225,US,716-683-0055,42.916041674375,-78.7572879764063,,,,
Poughkeepsie Galleria,,2001 South Rd,,Poughkeepsie,NY,12601,US,845-297-2599,41.62701,-73.91701,,,,
Walden Galleria -Lower Lvl.,,64 Galleria Dr Space B103,Lower Level,Buffalo,NY,14225,US,716-683-6189,42.916041674375,-78.7572879764063,,,,
Monroe Wal-Mart #2637/Subway #35714,,288 Larkin Blvd,,Monroe,NY,10950,US,845-782-6609,41.3193195715077,-74.1468920861098,,,,
LaGuardia Airport (5-K) - LL Food Ct,,LaGuardia Road,,Flushing,NY,11371,US,347-625-8182,40.77206,-73.87616,,,,
Auburn Wal-Mart #1830/Subway #37883,,297 Grant Ave,,Auburn,NY,13021,US,315-252-6963,42.95475,-76.54405,,,,
Sunrise Mall,,35 Sunrise Mall,,Massapequa,NY,11758,US,516-797-8916,40.6828011538461,-73.4324103846154,,,,
Cross County Shopping Center,,6 Mall Walk,,Yonkers,NY,10704,US,914-423-6300,40.9283497114937,-73.8564381433225,,,,
LaGuardia Airport (1-K) - Gate A 1-K,,LaGuardia Road,,Flushing,NY,11371,US,347-229-9030,40.77206,-73.87616,,,,
Vestal Wal-Mart #1835,,2405 Vestal Parkway East,Auntie Anne's - Inside Vestal Wal-Mart,Vestal,NY,13850,US,607-766-9204,42.0942270947353,-76.0141610057854,,,,
Pattersonville Travel Plaza,,Mile Marke 168 West - New York Thruway,,Pattersonville,NY,12137,US,,42.89157,-74.08629,,,,
Halfmoon Wal-Mart #2844/Subway #48925,,1549 Route 9,,Halfmoon,NY,12065,US,518-371-5810,42.84562,-73.74999,,,,
Sangertown Square,,Route 5 & 5A,,New Hartford,NY,13413,US,315-797-4717,43.0824755,-75.324857,,,,
Arnot Mall,,3300 Chambers Rd,,Horseheads,NY,14845,US,607-739-1045,42.15952,-76.8782,,,,
Fulton Wal-Mart #3332/Subway #43818,,1818 State Route #3,,Fulton,NY,13069,US,315-598-5903,43.3239849180328,-76.4433504918033,,,,
Chautauqua Mall,,318 E Fairmount Ave,,Lakewood,NY,14750,US,716-763-2035,42.09909,-79.30299,,,,
McKinley Mall,,120 McKinley Mall,3701 S McKinley Pkwy,Blasdell,NY,14219,US,716-821-0022,42.78366,-78.8101163157895,,,,
LaGuardia Airport (2-K) - Gate B 2-K,,LaGuardia Road,,Flushing,NY,11371,US,347-229-9044,40.77206,-73.87616,,,,
The Mall At Greece Ridge Center,,376 Greece Ridge Center Dr,,Rochester,NY,14626,US,585-227-5750,43.2063171428571,-77.6945057142857,,,,
JFK International Airport - Terminal 8,,Terminal 8,,Jamaica,NY,11430,US,718-553-1345,40.6500197,-73.7930287,,,,
Tanger Outlets at the Arches,,918 Tanger Outlet Mall,,Deerpark,NY,11729,US,631-243-7815,40.7622141,-73.317812,,,,
Fashion Outlets Of Niagara Falls,,1926 Military Rd,,Niagara Falls,NY,14304,US,716-297-7569,43.0983171232877,-78.9760326940639,,,,
Boulevard Mall - Food Ct,,K14 Boulevard Mall,,Amherst,NY,14226,US,716-834-4010,42.97889,-78.79945,,,,
New Baltimore Travel Plaza,,Mile Marker 127 South - New York Thruway,,New Baltimore,NY,12414,US,,42.2078684,-73.9124674,,,,
Jefferson Valley Mall,,"650 Lee Blvd, Spc K08",,Yorktown Heights,NY,10598,US,914-962-3472,41.3264264198197,-73.807225977148,,,,
The Windmill Farm & Craft Market,,3900 State Route 14A,,Penn Yan,NY,14527,US,,42.5769881237789,-77.0359910102148,,,,
Wilton Mall,,3065 Route 50,,Saratoga Springs,NY,12866,US,518-583-6912,43.1052113224955,-73.7409749033393,,,,
Colonie Center,,"131 Colonie Center, Ste 154",Corner Wolf Rd & Central Ave,Albany,NY,12205,US,518-435-0239,42.7100084579161,-73.8184121126986,,,,
LaGuardia Airport (3-K) - Gate C 3-K,,LaGuardia Road,,Flushing,NY,11371,US,347-229-9091,40.77206,-73.87616,,,,
Marketplace Mall,,15 Miracle Mile Dr,Store 481,Rochester,NY,14623,US,585-292-6360,43.0847159649123,-77.6380880701754,,,,
Middletown Wal-Mart #1959/Subway #39625,,470 Route 211 East,,Middletown,NY,10940,US,845-343-7827,41.45594,-74.38128,,,,
Oakdale Mall,,"601-635 Harry L. Dr, Ste #17",,Johnson City,NY,13790,US,607-770-1228,42.12444,-75.97172,,,,
Sunrise Mall II,,One Sunrise Mall,,Massapequa,NY,11758,US,516-797-8916,40.68303,-73.43237,,,,
Eastern Hills Mall,,4545 Transit Rd,Space 598,Williamsville,NY,14221,US,716-631-2460,42.97099,-78.69684,,,,
Olean Center Mall,,N Union St,,Olean,NY,14760,US,716-373-6780,42.09039,-78.43356,,,,
Nathan's Famous-Coney Island Boardwalk,,Boardwalk and Stillwell,,Brooklyn,NY,11224,US,718-714-7207,40.57653,-73.99246,,,,
New Hartford Wal-Mart #1677/Subway #38784,,4765 Commercial Dr,,New Hartford,NY,13413,US,315-768-7299,43.0949457000463,-75.3054462341333,,,,
Plattsburgh Wal-Mart #1994/Subway #34757,,25 Consumer Sq,,Plattsburgh,NY,12901,US,,44.696193377338,-73.4877124503117,,,,
Westfield South Shore,,1701 Sunrise Highway,,Bay Shore,NY,11706,US,(631) 665-6175,40.7365930157536,-73.2447581882983,,,,
McDonald's - Macy's,,151 W 34th St,,New York,NY,10001,US,212-594-0018,40.7504125,-73.989255,,,,
Evans Mills Wal-Mart #5497/Subway #38736,,25857 NY State Rt 11,,Evans Mills,NY,13637,US,(315) 629-4055,44.0407745620313,-75.9413428281515,,,,
Roosevelt Field Mall,,Roosevelt Field Mall,,Garden City,NY,11530,US,516-739-8200,40.72157,-73.68127,,,,
Broadway Mall,,358 Broadway Mall,Space # 0883A,Hicksville,NY,11801,US,516-938-2409,40.7736587237487,-73.5289305588659,,,,
Roosevelt Field Mall II,,640 Old Country Rd,,Garden City,NY,11530,US,516-739-8200,40.74321,-73.6145,,,,
Staten Island Mall II,,2655 Richmond Ave,,Staten Island,NY,10314,US,,40.5814071301384,-74.1690814630344,,,,
Fashion Outlets Of Niagara Falls II,,1900 Military Road,,Niagara Falls,NY,14304,US,,43.098222739726,-78.9759394977169,,,,
Westfield South Shore II,,1701 Sunrise Highway,,Bayshore,NY,11706,US,(631) 665-6175,40.7365930157536,-73.2447581882983,,,,
Crossgates Mall,,"1 Crossgates Mall Rd, Sp K103",,Albany,NY,12203,US,518-452-2709,42.68729,-73.85113,,,,
JFK International Airport - Terminal 7,,Space F8A,Terminal 7,Jamaica,NY,11430,US,718-553-1345,40.6494712,-73.7828815,,,,
Kings Plaza Mall,,"5100 King's Plaza, Ste #135",,Brooklyn,NY,11234,US,(718) 692-2200,40.60827,-73.92061,,,,
Smith Haven Mall II,,313 Smith Haven Mall,,Lake Grove,NY,11755,US,(631) 360-3005,40.86449,-73.12877,,,,
Green Acres Mall,,"1129 Green Acres Mall, Space K01",,Valley Stream,NY,11581,US,516-593-0440,40.6606813045748,-73.7154581635452,,,,
Green Acres II,,2034 West Circle Drive,,Valley Stream,NY,11581,US,,40.67566,-73.60253,,,,
Bensonhurst NY Red Mango,,6604 18th Ave.,,Brookyn,NY,11204,US,,40.6184879591837,-73.9908232653061,,,,
Smith Haven Mall,,"Rts 25 & 347, Space #106",,Lake Grove,NY,11755,US,(631) 360-3005,40.8642138,-73.1326555,,,,
Whitehall Terminal - Staten Island Ferry,,4 South St,,New York,NY,10004,US,,40.701515,-74.012365,,,,
Walt Whitman Mall,,160 Walt Whitman Road,,Huntington Station,NY,11746,US,,40.82237,-73.41226,,,,
Atlantic Center,,625 Atlantic Ave,,Brooklyn,NY,11201,US,718-398-4390,40.6834604545455,-73.9758236363636,,,,
Atlantic Center II,,625 Atlantic Ave,,Brooklyn,NY,110201,US,718-789-5100,40.6834604545455,-73.9758236363636,,,,
Boulevard Mall (RU),,K14 Boulevard Mall,,Amherst,NY,14226,US,(716) 834-4269,42.97889,-78.79945,,,,
The Outlets at Lake George,,1415 State Route 9,,Lake George,NY,12845,US,,43.36396,-73.7005,,,,
Auntie Anne's of Times Square,,664 8th Ave,,New York,NY,10036,US,212-764-1562,40.7573811111111,-73.9896811111111,,,,
The Westchester,,125 Westchester Avenue #925,,White Plains,NY,10601,US,(914) 328-3556,41.03248,-73.75976,,,,
Sangertown Square RU,,Route 5 and 5A,,New Hartford,NY,13413,US,315-733-8470,43.0773464,-75.3090406,,,,
Destiny USA Mall,,9677 Destiny USA Drive,2nd Flr - Macy's Wing,Syracuse,NY,13204,US,315-466-4012,43.0718022,-76.1711573,,,,
Destiny USA Mall II,,9090 Destiny USA Drive,,Syracuse,NY,13204,US,315-466-4012,43.0704566,-76.1734832,,,,
Fordham University - Aramark,,Rose Hill Campus,441 East Fordham Road,Bronx,NY,10458,US,,40.80282,-73.90847,,,,
Penn Station - Auntie Anne's Penn Station,,34th Str between 7 & 8th Aves,"LI Railroad Concourse, Upper Lvl Spc #6",New York,NY,10001-3691,US,212-239-6882,40.75155,-73.99573,,,,
Penn Station  Amtrak,,34th Str between 7 & 8th Aves,LI Railroad Concourse,New York,NY,10001-3691,US,212-760-1749,40.75155,-73.99573,,,,
Glenmont Wal-Mart #3583/Subway #62802,,311 Route 9W,,Glenmont,NY,12077,US,,42.6081732330783,-73.7897870061534,,,,
Galleria At White Plains,,100 Main St,,White Plains,NY,10601,US,914-686-4390,41.03219,-73.76978,,,,
Angola Travel Plaza,,Milepost 447,,Angola,NY,14006,US,,42.6365,-79.04919,,,,
Glenville Wal-Mart #2874/Subway #67588,,200 Dutch Meadows Lane,,Glenville,NY,12302,US,,42.8393441548227,-73.9462172451141,,,,
Woodbury Commons,,498 Red Apple Court,,Central Valley,NY,10917,US,(845) 928-6779,41.31629,-74.12596,,,,
Rego Park Center,,61-35 Junction Blvd,,Rego Park,NY,11374,US,718-699-7500,40.73332,-73.86412,,,,
The Shops at Atlas Park,,8000 Cooper Avenue,,Ridgewood,NY,11385,US,(516) 458-8020,40.70945,-73.86963,,,,
Broadway Plaza,,5532 Broadway,W230th Str,Bronx,NY,10463,US,(718) 548-2200,40.8777,-73.90566,,,,
Cross County Shopping Center II,,800 Mall Walk,,Yonkers,NY,10704,US,(914) 423-6200,40.9282924429967,-73.8560695928339,,,,
The Shops at Ithaca Mall,,40 Catherwood Road,,Ithaca,NY,14850,US,,42.483745625,-76.4866225,,,,
Sky View Center - Flushing,,40-24 College Point Blvd,,Flushing,NY,11354,US,,40.7574154545455,-73.8340363636364,,,,
Baldwin Hills Crenshaw Plaza,,3650 Martin Luther King Blvd,Ste 268A,Los Angeles,CA,90008,US,323-299-4161,34.01056,-118.3363325,,,,
Baldwin Hills Crenshaw Plaza II,,3650 Martin Luther King Blvd,,Los Angeles,CA,90008,US,323-299-4161,34.01056,-118.3363325,,,,
Citadel Outlets,,"100 Citadel Dr, Ste 314",,Los Angeles,CA,90040,US,323-726-0244,34.00487,-118.15308,,,,
Hollywood & Highland,,6801 Hollywood Blvd,Space 337,Hollywood,CA,90028,US,323-462-7122,34.10155,-118.33869,,,,
Glendale Galleria,,1111B Glendale Galleria,,Glendale,CA,91210,US,818-549-0562,34.146828057554,-118.259219640288,,,,
Montebello Town Center,,2015 Montebello Town Center,,Montebello,CA,90640,US,323-888-9150,34.0345562230779,-118.084169530741,,,,
Westfield Culver City,,"294 Fox Hills Mall, Spc 9008",,Culver City,CA,90230,US,310-636-0100,33.9865222571932,-118.39479248987,,,,
Stonewood Center,,340 Stonewood St,,Downey,CA,90241,US,562-869-1902,33.9370953846154,-118.122786822742,,,,
Westfield Santa Anita -Lvl. 2,,400 S Baldwin Ave,Space E5  Suite 119,Arcadia,CA,91007,US,626-294-1924,34.1353617171717,-118.054205858586,,,,
Westfield Santa Anita 2 -Lvl. 1,,400 S Baldwin Ave Spc E5  Ste 119,Level 1,Arcadia,CA,91007,US,626-254-9048,34.1353617171717,-118.054205858586,,,,
Lakewood Center,,330 Lakewood Center Mall,,Lakewood,CA,90712,US,(562) 398-3789,33.85045,-118.141797307692,,,,
Los Cerritos Center,,141B Los Cerritos Center,,Cerritos,CA,90703,US,562-402-7968,33.8639187755102,-118.093072142857,,,,
Del Amo Fashion Center,,"21540 Hawthrone Blvd, Spc 514C",,Torrance,CA,90502,US,(310) 370-5852,33.8327090130404,-118.352714466614,,,,
Plaza West Covina,,172 Plaza Dr,,West Covina,CA,91790,US,626-813-3670,34.0698956,-117.927898,,,,
Puente Hills Mall,,1600 Azusa Ave  Store 129,,City of Industry,CA,91748,US,626-581-4460,33.99345,-117.93145,,,,
Buena Park Mall,,"8378 On The Mall, Ste 233",,Buena Park,CA,90620,US,714-761-4161,33.8431548435245,-117.990377823776,,,,
Northridge Fashion Center -Upper Lvl.,,9301 Tampa Ave Spc 152,Upper Level,Northridge,CA,91324,US,818-998-8532,34.23911,-118.55356,,,,
Northridge Fashion Center 2 -Lower Lvl.,,9301 Tampa Ave Spc 83-A,Lower Level,Northridge,CA,91324,US,818-718-7669,34.23911,-118.55356,,,,
Brea Mall,,1003 Brea Mall,,Brea,CA,92821,US,714-256-1253,33.9134190651085,-117.886049983306,,,,
Westfield Topanga,,6600 Topanga Canyon Blvd,Spc #1098,Canoga Park,CA,91303,US,818-992-7303,34.1904633333333,-118.6059,,,,
Westminster Mall,,2004 Westminster Mall,,Westminster,CA,92683,US,714-894-6670,33.7468584047197,-118.015352517271,,,,
ARTIC,,2626 East Katella Ave,,Anaheim,CA,92806,US,(657) 221-0670,33.80602,-117.87697679174,,,,
Westfield MainPlace,,2800 N Main St,Space 702,Santa Ana,CA,92701,US,714-541-9396,33.77658,-117.86744,,,,
Westfield Valencia Town Center,,24201 W Valencia Blvd,Suite 0205,Valencia,CA,91355,US,661-288-1310,34.41319,-118.55739,,,,
Montclair Place,,5060 Montclair Plaza Lane,,Montclair,CA,91763,US,909-625-6215,34.0874088045744,-117.693158575853,,,,
Fashion Island Shopping Center,,1043 Newport Center Dr,,Newport Beach,CA,92660,US,949-721-1255,33.6146707650285,-117.878211929956,,,,
Irvine Spectrum Center,,"743 Spectrum Center Dr, Ste 220",,Irvine,CA,92618,US,949-453-0643,33.6722,-117.74606,,,,
Ontario Mills East,,One Mills Circle,Suite 600,Ontario,CA,91764,US,909-980-4501,34.07447,-117.55638,,,,
Ontario Mills West,,One Mills Circle,Suite 1026,Ontario,CA,91764,US,909-980-5014,34.07447,-117.55638,,,,
Galleria at Tyler,,Auntie Anne's #CA210,2057 Galleria at Tyler,Riverside,CA,92503,US,951-358-0221,33.9096827,-117.4578615,,,,
San Bernardino Wal-Mart #3276/Subway #35079,,4001 Hallmark Hwy,,San Bernardino,CA,92407,US,(909) 887-5733,34.1634320946973,-117.335715752866,,,,
Inland Center Mall,,500 Inland Ctr #K2,,San Bernardino,CA,92408,US,909-381-8929,34.0895927207637,-117.296578186158,,,,
Mall at San Clemente,,Interstate 5 at West Avenida Vista Hermosa,,San Clemente,CA,92673,US,949-361-6945,33.4451478,-117.6308629,,,,
Hesperia Wal-Mart #4340/Subway #50714,,13401 Main Street,,Hesperia,CA,92345,US,,34.4266746875,-117.3708265625,,,,
Moreno Valley Mall at Towngate,,"22500 Town Cir, Ste 1048",,Moreno Valley,CA,92553,US,951-656-8122,33.9393,-117.26646,,,,
Pacific View Mall,,3301 East Main St 1514,,Ventura,CA,93003,US,805-535-4399,34.2684836,-119.2486555,,,,
Outlets at Tejon Ranch,,"5701 Outlets at Tejon Parkway, Spc 870",,Arvin,CA,93023,US,(661) 858-2899,34.48906,-119.23213,,,,
Cabazon Outlets,,48750 Seminole Dr  Spc 106,,Cabazon,CA,92230,US,951-849-9575,33.92544,-116.81205,,,,
Valley Plaza Mall,,2701 Ming Ave,Spc 198,Bakersfield,CA,93304,US,661-832-3249,35.33938,-119.033033802817,,,,
Westfield Palm Desert,,72-840 Highway 111,,Palm Desert,CA,92260-3324,US,760-341-2400,33.73261,-116.40567,,,,
North Island Naval Station Exchange,,"Food Court, Bldg. 2017",,San Diego,CA,92135,US,(619) 623-3820,32.7019286,-117.1840294,,,,
San Diego Convention Center,,111 West Harbor Drive,,San Diego,CA,92101,US,,32.7088709401709,-117.164279316239,,,,
Outlets at the Border Cafe,,4463 Camino de la Plaza,"Bldg 1B, Ste 115",San Diego,CA,92173,US,,32.5454095294804,-117.039293871575,,,,
Preferred Outlets at Tulare,,1403 Retherford St,,Tulare,CA,93274,US,559-684-9408,36.2300079475854,-119.335063460689,,,,
Visalia Mall,,2027 S Mooney Blvd,Spc 550,Visalia,CA,93277,US,559-738-1180,36.3126633333333,-119.313916666667,,,,
Hanford Mall,,1675 W Lacey Blvd,Spc G2,Hanford,CA,93230,US,559-584-6884,36.3279875757576,-119.672268787879,,,,
Imperial Valley Mall,,3451 S Dogwood Ave,,EL Centro,CA,92243,US,(760) 352-0800,32.7892648979592,-115.535549795918,,,,
Gran Plaza Outlets,,888 W Second Str,Suite I-240,Calexico,CA,92231,US,(760) 618-0177,32.6656945590347,-115.525927249139,,,,
Fashion Fair Mall,,"509 E Shaw Ave, Space M07",,Fresno,CA,93710,US,559-221-8895,36.80848,-119.77894,,,,
Red Rock Casino,,11011 W Charleston Blvd,,Las Vegas,NV,89135,US,702-233-3462,36.15889,-115.33347,,,,
Las Vegas Outlet Center,,7400 Las Vegas Blvd Unit C-2,,Las Vegas,NV,89123,US,702-293-2600,36.0551182352941,-115.172342941176,,,,
Excalibur,,3850 Las Vegas Blvd South,,Las Vegas,NV,89109,US,702-736-5235,36.09928,-115.1731,,,,
McCarran Int'l Airport Term 1 Gate C,,Auntie Anne's Terminal C,5757 Wayne Newton Blvd,Las Vegas,NV,89119,US,702-261-7052,36.0847791137001,-115.149840618722,,,,
Miracle Mile Shops,,3663 Las Vegas Blvd,,Las Vegas,NV,89109,US,702-733-1431,36.10985,-115.17282,,,,
Green Valley Ranch Casino,,2300 Paseo Verde Pkwy,,Henderson,NV,89052,US,(702) 489-4281,36.01918,-115.08694,,,,
Casino Royale,,3411 S Las Vegas Blvd,,Las Vegas,NV,89109,US,,36.1209231968498,-115.172012401408,,,,
Fashion Show Mall,,3200 Las Vegas Blvd Spc 5534,,Las Vegas,NV,89109,US,702-791-0077,36.12669,-115.16862,,,,
The Meadows Mall,,4300 Meadows Lane,,Las Vegas,NV,89107,US,702-258-7644,36.1702108695652,-115.19748,,,,
Meadows Mall II,,4300 Meadows Lane,,Las Vegas,NV,89107,US,,36.1702108695652,-115.19748,,,,
Circus Circus,,2880 Las Vegas Blvd S,,Las Vegas,NV,89109,US,702-733-9924,36.13666,-115.1621,,,,
Boulevard Mall,,Maryland Pkwy btwn Desert Inn Rd & Twain,,Las Vegas,NV,89169,US,702-650-2148,36.12544,-115.13768,,,,
Las Vegas Premium Outlets - North,,875 S Grand Central Pkwy,Bldg 775  - Ste 1320,Las Vegas,NV,89106,US,702-388-4130,36.1637373913043,-115.156673043478,,,,
Las Vegas Premium Outlets II,,875 S. Grand Central Parkway,Space K125,Las Vegas,NV,89106,US,,36.1637373913043,-115.156673043478,,,,
Galleria At Sunset,,1300 Sunset Dr,Spc 2423,Henderson,NV,89014,US,702-435-5660,36.06382,-115.04032,,,,
McCarran Int'l Airport-Terminal D,,2207 W Gowan Rd,Attn:  Store Manager,North Las Vegas,NV,89032,US,702-261-7051,36.224838688266,-115.173746736437,,,,
Northridge Mall,,796 Northridge Mall,,Salinas,CA,93906,US,831.287.1715,36.7168041668246,-121.656182221801,,,,
Gilroy Prime Outlets,,681 Leavesley Rd,Spc C098,Gilroy,CA,95020,US,408-847-4285,37.0237,-121.56313,,,,
Pilot #1080 - Patterson,,I-5 Exit 434 Sperry Road & Park Center Drive (NEQ),,Patterson,CA,95363,US,,37.47382,-121.15391,,,,
Vintage Faire Mall,,3401 Dale Rd,Suite 452,Modesto,CA,95356,US,209-575-3982,37.68817,-121.04986,,,,
Westfield Oakridge,,"925 Blossom Hill Rd, Ste 2005",,San Jose,CA,95123-1239,US,408-578-5188,37.2504874435338,-121.863469989997,,,,
Eastridge Mall,,2200 Eastridge Mall Dr,Space 1096,San Jose,CA,95122,US,408-531-0357,37.32403,-121.81182,,,,
Westfield Valley Fair,,"2855 Stevens Creek Blvd, Spc 2325",,Santa Clara,CA,95050,US,408-248-2043,37.32345,-121.945868787879,,,,
Great Mall Of the Bay Area II,,172 Great Mall Drive,,Milpitas,CA,95035,US,408-262-6119,37.4157902040816,-121.89434877551,,,,
Great Mall Of The Bay Area,,510 Great Mall Dr,,Milpitas,CA,95035,US,408-934-1165,37.4163263265306,-121.894649183673,,,,
Great America Amusement Park,,4701 Great America Pkwy,,Santa Clara,CA,95054,US,,37.39983,-121.97777,,,,
West Valley Mall,,3200 N Naglee Rd  Spc 158,,Tracy,CA,95304,US,209-839-9555,37.7594154385965,-121.462323508772,,,,
Fremont Wal-Mart #2989/Subway #67360,,44009 Osgood Rd.,,Fremont,CA,94539,US,(510) 498-8807,37.5122554287415,-121.941320399147,,,,
New Park Mall,,2037 New Park Mall,,Newark,CA,94560,US,510-791-0781,37.5252965,-121.9974415,,,,
Sherwood Mall,,5308 Pacific Ave #30,,Stockton,CA,95207,US,209-476-1403,37.9977247368421,-121.315151052632,,,,
Paragon Outlets - Livermore Valley Cafe,,2792 Livermore Outlets Drive,,Livermore,CA,94551,US,925-292-7032,37.6968546,-121.8420441,,,,
Stoneridge Mall,,1212 Stoneridge Mall,,Pleasanton,CA,94588,US,925-463-7927,37.6947160925303,-121.93178157405,,,,
Lodi Wal-Mart #1789 Subway #67296,,Subway/Auntie Anne's (Inside Wal-Mart),1600 Westgate Drive,Lodi,CA,95242,US,(209) 452-2499,38.1131446,-121.3099209,,,,
Southland Mall,,267 Southland Mall Drive,,Hayward,CA,94545,US,510-887-0248,37.6547498385156,-122.101609666938,,,,
San Leandro Wal-Mart #5434/Subway #32064,,15555 Hesperian Blvd,,San Leandro,CA,94579,US,510-895-8522,37.688547,-122.130213,,,,
St. George Wal-Mart #3220/Subway #37329,,2610 S Pioneer Rd,,Saint George,UT,84770,US,,37.0639715273706,-113.584362773263,,,,
Oakland International Airport,,Southwest Airlines Terminal,#1 Airport Dr,Oakland,CA,94621,US,510-563-3249,37.71668,-122.20855,,,,
Washington  Wal-Mart #1439/Subway #37673,,625 W Telegraph St,,Washington,UT,84780,US,(435) 627-9630,37.1285683188133,-113.519756877634,,,,
The Shops at Tanforan,,"1150 El Camino Real, Ste 137",,San Bruno,CA,94066,US,650-871-0643,37.6362388888889,-122.420867777778,,,,
Sun Valley Mall,,472 Sun Valley Mall,,Concord,CA,94520,US,925 676-9648,37.9671660385757,-122.062059614243,,,,
Arrowhead Towne Center,,7700 W. Arrowhead Towne Center,,Glendale,AZ,85308,US,(623) 522-8611,33.63964,-112.2246,,,,
Westfield San Francisco Center,,"845 Market Str, Spc 201",,San Francisco,CA,94105,US,415-371-1098,37.784695,-122.407163333333,,,,
Fisherman's Wharf,,333 Jefferson Str #105,,San Francisco,CA,94133,US,(415) 292-7818,37.807914,-122.418164,,,,
Outlets at Anthem,,4250 Anthem Way F90,,Phoenix,AZ,85086,US,623-581-2990,33.8712183221476,-112.151136442953,,,,
Grand Canyon University Phoenix,,3300 W Camelback Rd,,Phoenix,AZ,85017,US,,33.50946,-112.12987,,,,
Suisun City Wal-Mart #3708/Subway #56798,,Walters/Hwy 12,,Suisun City,CA,94585,US,,38.24027,-121.98968,,,,
Paradise Valley Mall,,4568 E Cactus Rd,Space #E10,Phoenix,AZ,85032,US,602-867-3000,33.5996791041795,-111.983291327136,,,,
Arden Fair Mall,,1689 Arden Way  Spc 2008,,Sacramento,CA,95815,US,916-925-1630,38.5995948979592,-121.426853877551,,,,
Arizona Mills,,5000 Arizona Mills Circle,Spc 120,Tempe,AZ,85282,US,480-897-4661,33.38485,-111.96697,,,,
Scottsdale Fashion Square,,7014 E Camelback Rd,Space #2032,Scottsdale,AZ,85251,US,480-941-6900,33.5023143474222,-111.928940431955,,,,
Scottsdale Wal-Mart #2112/Subway #50388,,4915 N Pima Rd,,Scottsdale,AZ,85256,US,480-278-8999,33.5078662907076,-111.89153,,,,
Westfield Galleria at Roseville,,1151 Galleria Blvd Spc FC1,,Roseville,CA,95678,US,916-784-8118,38.77212,-121.26588,,,,
Chandler Fashion Center,,3111 W Chandler Blvd  Spc 1072,,Chandler,AZ,85226,US,480 726-2700,33.3057113513513,-111.896554864865,,,,
Mesa Wal-Mart #3779/Subway #36580,,240 W Baseline Rd,,Mesa,AZ,85210,US,,33.3788572972973,-111.837969189189,,,,
San Tan Village,,2196 E Williamsfield Rd,,Gilbert,AZ,85295,US,480-722-9960,33.30688,-111.743391212121,,,,
Meadowood Mall,,5000 #1 Meadowood Mall,,Reno,NV,89502,US,775-360-3041,39.4742678,-119.7826386,,,,
San Tan Valley Wal-Mart #3751/Subway #36385,,1781 W Hunt Hwy,,San Tan Valley,AZ,85143,US,480-677-8927,33.18240625,-111.58853,,,,
Yuba Sutter Mall,,1215 Colusa Ave,Space 1125P,Yuba City,CA,95991,US,530-755-2220,39.1418015436242,-121.632484765101,,,,
Clear Lake Wal-Mart #1979/Subway #36427,,15960 Dam Rd,,Clear Lake,CA,95422,US,707-995-1196,38.9301209396502,-122.616460872813,,,,
Page Wal-Mart #1442/Subway #38561,,1017 Haul Rd,,Page,AZ,86040,US,,36.9052110204082,-111.484692857143,,,,
Chico Mall,,"1950 E 20th Str, Ste E-503",,Chico,CA,95928,US,530-342-8733,39.72728,-121.804895,,,,
Ukiah Wal-Mart #2052/Subway #35689,,1155 Airport Park Blvd,,Ukiah,CA,95482,US,707-462-6260,39.134197069675,-123.198794351639,,,,
Pilot #1019 - Orland,,4444 Commerce Lane,,Orland,CA,95963,US,,39.750223,-122.207998,,,,
Mt Shasta Mall,,900 Dana Drive,Space B-8,Reddung,CA,96003,US,,40.58639,-122.35713,,,,
Tooele Wal-Mart #1440/Subway #31240,,99 W 1280 N,,Tooele,UT,84074,US,435-882-5105,40.5571210045909,-112.299623662436,,,,
Springville Wal-Mart #3208/Subway #34771,,660 S 1750 W,,Springville,UT,84663,US,801-853-1310,40.1568917908774,-111.642403948168,,,,
Outlets at Traverse Mountain,,3700 North Cabelas Blvd,Space 234,Lehi,UT,84043,US,(385) 336-8373,40.43465,-111.89299,,,,
South Jordan Wal-Mart #2307/Subway #37121,,11327 S Jordan Gateway Rd,,South Jordan,UT,84095,US,801-523-9737,40.5478351612903,-111.89864,,,,
Salt Lake City Airport - Concourse A & B,,776 North Terminal 1,,Salt Lake City,UT,84116,US,801-575-3445,40.7862696024715,-111.982641376312,,,,
Animas Valley Mall,,4601 East Main Street,,Farmington,NM,87402,US,(505) 325-9193,36.7649760747682,-108.152031233641,,,,
Cottonwood Mall,,10000 Coors Bypass,Sp F01,Albuquerque,NM,87114,US,505-792-1829,35.19604,-106.65878,,,,
Meridian Wal-Mart #3093/Subway #59482,,795 W Overland Rd,,Meridian,ID,83642,US,,43.5900801612903,-116.403598709677,,,,
Coronado Center,,"6600 Menual Blvd NE, Space E1",,Albuquerque,NM,87110,US,505-888-1915,35.10904,-106.57095,,,,
Las Cruces Wal-Mart #806,,571 Walton Blvd,,Las Cruces,NM,88001,US,,32.3141608333333,-106.751509166667,,,,
Mesilla Valley Mall,,700 South Telshor Blvd,,Las Cruces,NM,88011,US,575-532-1378,32.31249,-106.74195,,,,
Cielo Vista Mall,,8401 Gateway Blvd,,El Paso,TX,79925,US,915-772-0145,31.9596498518862,-106.582117711949,,,,
The Outlet Shoppes at El Paso,,7051 S Desert Blvd,Space E512,Canutillo,TX,79835,US,(915) 308-5996,31.91151,-106.58327,,,,
Freedom Crossing,,1613 Pleasonton Rd,Suite B-108,Fort Bliss,TX,79906,US,915-298-1001,31.81246,-106.41675,,,,
Pilot #1070 - Santa Rosa,,2464 Historic Route 66,,Santa Rosa,NM,88435,US,,34.947287684222,-104.652252298547,,,,
Lancaster Mall,,"831 Lancaster Dr NE, Ste 18",,Salem,OR,97301,US,503-991-5465,44.9419126923077,-122.983214615385,,,,
Salem Center,,401 Center St  Ste 2,,Salem,OR,97301,US,503-585-7565,44.94331,-123.03715,,,,
Woodburn Company Stores,,1001 Arny Rd  Bldg 6  Ste 627,,Woodburn,OR,97071,US,503-981-2103,45.1562922,-122.8785432,,,,
Chapel Hills Mall,,1710 Briargate Blvd,Space 184,Colorado Springs,CO,80920,US,719-266-6995,38.945206410353,-104.795783957245,,,,
Clackamas Town Center - Lower Lvl.,,"12000 SE 82nd Ave, Ste 1168",Lower Level,Portland,OR,97086,US,503-513-9426,45.436497979798,-122.57908030303,,,,
Clackamas Town Center (2),,"12000 SE 82nd Ave, Ste 2036",Upper Level,Portland,OR,97086,US,503-794-7025,45.436497979798,-122.57908030303,,,,
Southwest Plaza,,8501 W Bowles Ave #2C-339,,Littleton,CO,80123,US,303-569-6486,39.60983,-105.09463,,,,
Washington Square,,9487 SW Washington Sq Rd,,Tigard,OR,97223,US,503-624-1666,45.4497707347106,-122.783344168595,,,,
Lloyd Center,,2201 Lloyd Center,,Portland,OR,97232,US,(971) 373-8272,45.5336189001122,-122.651651885522,,,,
Flatiron Crossing,,"One W Flatiron Cir, Spc 2234",,Broomfield,CO,80021,US,303-635-1008,39.9299,-105.13091,,,,
Westfield Vancouver,,"8700 NE Vancouver Mall Dr, Spc K9011",,Vancouver,WA,98662,US,360-896-3696,45.6563430769231,-122.583251153846,,,,
Town Center at Aurora,,14200 E Almeda Ave,Spc 2049-A,Aurora,CO,80012,US,303-856-7364,39.711085050505,-104.822926565657,,,,
Columbia Center,,1321 N Columbia Center Blvd,Ste 202,Kennewick,WA,99336,US,509-783-4247,46.2246768686869,-119.224014848485,,,,
Pasco Wal-Mart #3380,,4820 N Road 68,,Pasco,WA,99301,US,,46.2720217,-119.1882465,,,,
Denver Int'l Airport - Concourse C,,8500 Pena Blvd,Concourse C,Denver,CO,80246,US,,39.8387798994975,-104.671874974874,,,,
Foothills Mall,,215 E. Foothills Parkway,Space #915,Fort Collins,CO,80525,US,,40.5433016129032,-105.075994677419,,,,
Clarkston Wal-Mart #2006/Subway #46703,,306 5th Street,,Clarkston,WA,99403,US,509-758-3462,46.4229086215584,-117.044393736429,,,,
Valley Mall,,"2529 Main Str, B-3",,Union Gap,WA,98903,US,509-249-6221,46.5642813043478,-120.480876086957,,,,
Pullman Wal-Mart #1870/Subway #49881,,695 SE Bishop Blvd,,Pullman,WA,99163,US,509-334-7782,46.7138158068432,-117.172798583112,,,,
River Park Square,,808 West Main Street,,Spokane,WA,99201,US,509-747-3648,47.2849374114022,-117.15582,,,,
Joint Base Lewis McChord,,Building #5280,,Fort Lewis,WA,98433,US,,47.0888109,-122.6024836,,,,
Wenatchee Valley Mall,,511 Valley Mall Pkwy,Space K-11,East Wenatchee,WA,98802,US,509-888-6444,47.4107832102562,-120.290318952345,,,,
Lacey Wal-Mart #3531/Subway #36124,,1401 Galaxy Drive NE,,Lacey,WA,98516,US,360-491-2226,47.06003,-122.76897,,,,
South Hill Mall,,3500 S Meridian Spc 425,,Puyallup,WA,98373,US,253-841-0455,47.15801,-122.2931,,,,
Tacoma Mall,,4502 S Steel St,Spc 515,Tacoma,WA,98409,US,253-476-1389,47.2178619463087,-122.467657114094,,,,
South Plains Mall,,6002 Slide Road,Space K108 (Kiosk),Lubbock,TX,79414,US,,33.5397,-101.92241,,,,
Auburn Wal-Mart #2385/Subway #32790,,762 Supermall Way,,Auburn,WA,98001,US,206-550-0460,47.29643,-122.24142,,,,
The Outlet Collection Seattle,,1101 Outlet Collection Way,Ste #1016,Auburn,WA,98001,US,253-735-8228,47.3060256,-122.2316222,,,,
The Outlet Collection Seattle II,,1101 Outlet Collection Way,Suite 1016,Auburn,WA,98001,US,,47.3060256,-122.2316222,,,,
Westgate Mall,,7701 I-40 W #246,,Amarillo,TX,79121,US,806-356-8103,35.19305,-101.7554,,,,
Spokane Valley Mall,,14700 E Indiana Ave,,Spokane Valley,WA,99216-1839,US,509-891-7077,47.67607,-117.21087,,,,
Midland Park Mall,,451 Midkiff Rd,,Midland,TX,79705,US,432-689-9960,31.9934097959184,-102.11643877551,,,,
Westfield Southcenter Mall (2),,546 Southcenter Mall,,Seattle,WA,98188,US,206-453-5489,47.45692,-122.258411632653,,,,
Westfield Southcenter Mall,,1120 Southcenter Mall,,Seattle,WA,98188,US,206-453-5261,47.45795,-122.256030140393,,,,
Hayden Wal-Mart #3511/Subway #49160,,550 W Honeysuckle Ave,,Hayden,ID,83835,US,208-772-5567,47.75176,-116.793559152542,,,,
Bellevue Square,,Space 2040 Bellevue Square,,Bellevue,WA,98004,US,425-637-8990,47.6174178611632,-122.201719631019,,,,
Northgate Shopping Center,,401 NE  Northgate Way,Spc 516,Seattle,WA,98125,US,206-306-0926,47.7086,-122.32461,,,,
Alderwood Mall 2 - Play Area,,"3000 184th Str, Spc #354",,Lynnwood,WA,98037,US,425-771-6850,47.83178,-122.27328,,,,
Alderwood Mall - Food Court,,"3000 184th Str, Spc #856",Food Court,Lynnwood,WA,98037,US,425-771-4892,47.83178,-122.27328,,,,
Seattle Premium Outlets II,,10600 Quil Ceda Blvd. Suite 750,,Tulalip,WA,98271,US,,48.09168,-122.18563,,,,
Seattle Premium Outlets,,"10600 Quil Ceda Blvd, Ste 312",,Tulalip,WA,98271,US,360-716-2794,48.09168,-122.18563,,,,
Champlain College - Sodexo,,163 South Willard Street,,Burlington,VT,05401,US,,44.4756395454545,-73.2054309090909,,,,
University Mall,,155 Dorset St,Spc D18,South Burlington,VT,05403,US,802-863-4138,44.46544,-73.18109,,,,
Honesdale Wal-Mart #2480,,777 Old Willow Ave,,Honesdale,PA,18431,US,,41.5552198368156,-75.2243691978936,,,,
Union Station - Chicago,,225 S Canal St,,Chicago,IL,60606,US,312-877-5338,41.8790165306122,-87.6395802040816,,,,
Monmouth Mall - Upper Level,,180 State Road 35 South,Space #3026,Eatontown,NJ,17724,US,,41.65712,-76.86494,,,,
Viewmont Mall,,Spc 834 Rte 6,Scranton Carbondale Hwy,Scranton,PA,18508,US,570-969-2250,41.4666,-75.64603,,,,
Dufferin Mall,,Unit 0425,900 Dufferin Str,Toronto,,M6H 4A9,CA,416-551-9676,43.65703,-79.43426,,,,
The Mall At Steamtown,,219 Mall at Steamtown,,Scranton,PA,18503,US,570-963-6181,41.4073476,-75.6674784,,,,
Citigroup Center,,500 W Madison St,Space #C023  2nd Level,Chicago,IL,60661,US,312-474-1090,41.88187,-87.63969,,,,
Navy Pier,,"700 E Grand Ave, Spc 09",,Chicago,IL,60611,US,(312) 836-1093,41.8921212359551,-87.6092345318352,,,,
Water Tower Place,,845 N Michigan Ave,Spc 704,Chicago,IL,60611,US,312-280-7740,41.89839,-87.62408,,,,
North Riverside Park Mall,,7501 W Cermak Rd,,N Riverside,IL,60546,US,708-442-5053,41.85028,-87.81,,,,
Vaughan Mills,,1 Bass Pro Mills Dr,,Vaughn,,L4K 5W4,CA,905-597-8676,43.82275,-79.53323,,,,
Wyoming Valley Mall,,East End Blvd,Store 89,Wilkes Barre,PA,18702,US,570-823-6112,41.24815,-75.837,,,,
North Riverside Park Mall II,,7501 W Cermack Road,,North Riverside,IL,60546,US,708-447-5011,41.85028,-87.81,,,,
Ford City,,7601 S Cicero Ave,,Chicago,IL,60652,US,773-582-1405,41.7573216666667,-87.7416337037037,,,,
Lincolnwood Town Center,,3333 W Touhy Ave,Space D02B,Chicago,IL,60712,US,847-329-8250,42.0118315789474,-87.7123726315789,,,,
Harlem Irving Plaza,,N Harlem Ave  Spc 79,,Norridge,IL,60706,US,708-456-4627,41.95916,-87.80723,,,,
O'Hare Int'l Airport - T2,,11601 W Touhy Ave,O-Hare Airport,Chicago,IL,60666,US,773-894-4616,42.01199,-87.7887,,,,
Chicago Ridge Mall,,501 Chicago Ridge Mall Dr,,Chicago Ridge,IL,60415,US,708-229-0477,41.7134516644834,-87.7843135552644,,,,
Westfield Old Orchard,,4999 Old Orchard Center,Spc E3,Skokie,IL,60077,US,847-677-1077,42.05893,-87.74774,,,,
Wilkes-Barre Wal-Mart #1623,,2150 Wilkes Barre Twnsp Mktpl,,Wilkes Barre,PA,18702,US,570-825-5112,41.2369018791946,-75.8576393288591,,,,
Chicopee Wal-Mart #5278/Subway #34807,,591 Memorial Dr,,Chicopee,MA,01020,US,413-593-6501,42.1738894736842,-72.5764731578947,,,,
Lycoming Mall,,300 Lycoming Mall Circle Suite 234,,Pennsdale,PA,17756,US,570-546-7898,41.24329,-76.82853,,,,
The Crossings Premium Outlets,,"Crossings Outlet Square, Ste C-1C",,Tannersville,PA,18372,US,570-629-4740,41.0480735,-75.3126252,,,,
Laurel Mall,,30 Laurel Mall,,Hazle Township,PA,18202,US,570-454-4215,40.9817789456236,-76.0162046853447,,,,
Illinois Tollways - O'Hare Oasis,,10201 Belle Plaine Ave,,Schiller Park,IL,60176,US,847-671-6550,41.95276,-87.88318,,,,
Fashion Outlets of Chicago,,I-94 @ Balmoral Avenue,,Rosemont,IL,60018,US,(847) 928-1962,41.9765272,-87.8694355,,,,
Illinois Tollways - Hinsdale Oasis,,5800 Tri-State Tollway,,Hinsdale,IL,60521,US,630-321-9036,41.78007,-87.90798,,,,
Hickory Run Service Plaza,,256 Danner Rd,,Jim Thorpe,PA,18229,US,,40.968954231349,-75.6336380771163,,,,
Stroud Mall,,341 Stroud Mall,,Stroudsburg,PA,18360,US,570-420-1116,40.987953866372,-75.224764534512,,,,
Danbury Fair Mall,,"7 Backus Ave, Store # 213",,Danbury,CT,06810,US,203-207-9955,41.3785678126438,-73.4770495190095,,,,
Danbury Fair Mall II,,7 Backus Avenue,,Danbury,CT,06810,US,203-207-7200,41.3785678126438,-73.4770495190095,,,,
Westfarms,,500 Westfarms Mall,,Farmington,CT,06032,US,860-521-3637,41.7239656080114,-72.7610666523605,,,,
N Hartford Wal-Mart #5095,,495 Flatbush Avenue,,Hartford,CT,06106,US,,41.7425916666667,-72.7122283333333,,,,
The Mall at Whitney Field,,100 Commercial Way,,Leominster,MA,01453,US,978-840-1852,42.5302336124936,-71.7401430801007,,,,
The Mall Of New Hampshire,,1500 S Willow St,,Manchester,NH,03103,US,603-641-6550,42.95374,-71.43623,,,,
O'Hare Int'l Airport - T1;C1,,10000W O'Hare,"Terminal 1, C Concourse",Chicago,IL,60666,US,773-894-4616,41.9790169,-87.9065695,,,,
Golf Mill,,239 Golf Mill Shopping Ctr,Spc 273,Niles,IL,60714,US,847-294-9633,42.0499183,-87.8368812,,,,
River Oaks Shopping Center,,96 River Oaks Center,,Calumet City,IL,60409,US,708-730-0796,41.6007914646465,-87.5566023737374,,,,
Yorktown Shopping Center,,203 Yorktown,,Lombard,IL,60148,US,630-627-4513,41.8398107035176,-88.0107079396985,,,,
Illinois Tollways - Lincoln Oasis,,700 East Tri-State Tollway,,South Holland,IL,60473,US,708-596-6273,41.57783,-87.57107,,,,
Orland Square Mall,,308 Orland Square,,Orland Park,IL,60462,US,708-349-4526,41.620245,-87.844311,,,,
Northbrook Court,,2171 Northbrook Ct Spc 1286,,Northbrook,IL,60062,US,847-559-6473,42.1519713717491,-87.8171319428863,,,,
Riverdale Wal-Mart #3443/Subway #35345,,48 Route 23 North,,Riverdale,NJ,07457,US,,40.9927473,-74.3120578,,,,
Montvale Travel Plaza,,Milemarker 172 Garden State Parkway,,Montvale,NJ,07645,US,,41.05646,-74.06535,,,,
Merrimack Premium Outlets,,80 Premium Outlets Blvd,Ste 693,Merrimack,NH,03054,US,603-424-6665,42.825966,-71.501566,,,,
Rockaway Town Square,,"301 Mt. Hope Ave, Ste 1048",,Rockaway,NJ,07866,US,973-442-1898,40.90442,-74.54636,,,,
McDonald's Corporation - Charlton East,,Site 5E Massachusetts Turnpike,P O Box 426,Charlton City,MA,01508,US,508-248-0517,42.1531629,-71.9792483,,,,
McDonald's Corporation - Charlton West,,"Milepost 89, Exit 6",PO Box 586,Charlton,MA,01507-0586,US,508-248-9579,42.1401,-71.96092,,,,
Paramus Park,,700 Paramus Park,Unit 2090,Paramus,NJ,07652,US,201-261-0043,40.95761,-74.07007,,,,
Bolingbrook Meijer #215,,735 E Boughton Rd,,Bolingbrook,IL,60440,US,(630) 783-1558,41.72318,-88.038825,,,,
Woodfield Mall II,,5 Woodfield Mall,,Schaumburg,IL,60173,US,(847) 619-6844,42.0494192156863,-88.0376845098039,,,,
Woodfield Mall,,Woodfield Dr Spc D103,,Schaumburg,IL,60173,US,847-995-8353,42.04937,-88.03944,,,,
Stratford Square,,118 Stratford Square,,Bloomingdale,IL,60108,US,630-529-7889,41.95026899571,-88.1122893554064,,,,
Illinois Tollways - Lake Forest Oasis,,13783 West Oasis Service RD,,Lake Forest,IL,60045,US,847-295-9210,42.2544573570922,-87.9030473570922,,,,
Hawthorn Shopping Center,,118 Hawthorn Center  Spc E13,,Vernon Hills,IL,60061,US,847-573-0911,42.2454326923077,-87.94974,,,,
Fox Valley Shopping Center 2 -Lvl. 2,,2062 Fox Valley Ctr,Level 2,Aurora,IL,60504,US,630-236-9147,41.760901010101,-88.2097805050505,,,,
Fox Valley Shopping Center -Lvl. 1,,1100 Fox Valley Center,Level 1,Aurora,IL,60504,US,630-585-7160,41.7574115,-88.217064,,,,
Pheasant Lane Mall,,310 Daniel Webster Hwy,,Nashua,NH,03060,US,603-888-0407,42.7028433333333,-71.44097,,,,
Susquehanna Valley Mall Cafe,,One Susquehanna Valley Mall Dr,,Selinsgrove,PA,17870,US,570-374-0368,40.82542,-76.84553,,,,
Auburn Mall,,385 Southbridge St,,Auburn,MA,01501,US,508-832-7064,42.20161,-71.83913,,,,
Easton Wal-Mart #2252,,3722 Easton-Nazareth Rd,,Easton,PA,18045,US,484-268-0939,40.7150715604479,-75.2855291995485,,,,
Solomon Pond Mall,,601 Donald Lynch Blvd,,Marlborough,MA,01752,US,508-303-6100,42.3544715900643,-71.6120300686837,,,,
Phillipsburg Wal-Mart #2497,,1300 US Hwy 22 East,,Phillipsburg,NJ,08865,US,908-859-8188,40.68063,-75.14683,,,,
Phillipsburg Mall,,1200 Hwy 22  Ste 207,,Phillipsburg,NJ,08865,US,908-859-1998,40.6774241,-75.146935,,,,
Teterboro Wal-Mart #3159/Subway #60819,,State Hwy 17,,Teterboro,NJ,07608,US,,40.8615477,-74.0657276,,,,
Westfield Southlake,,2268 Southlake Mall,Food Court,Merrillville,IN,46410,US,219-795-1063,41.4704414213625,-87.3090563751037,,,,
Chicago Premium Outlets II,,1650 Premium Outlets Blvd,,Aurora,IL,60502,US,630-585-5644,41.8011,-88.27782,,,,
Chicago Premium Outlets,,1650 Premium Outlets Blvd,Unit 1275,Aurora,IL,60506,US,630-499-9764,41.8011,-88.27782,,,,
Westfield Louis Joliet Mall,,3340 Mall Loop Dr,Spc 9035,Joliet,IL,60431,US,(815) 254-0408,41.5794696666667,-88.1653213333333,,,,
Spring Hill Mall,,1376 Springhill Mall,,West Dundee,IL,60118,US,847-551-9477,42.1003820408163,-88.2963402040816,,,,
Gurnee Mills -Dine O Rama FC,,6170 W Grand Ave,Spc 45K203,Gurnee,IL,60031,US,847-855-7866,42.3833817171717,-87.9553782828283,,,,
Oswego Meijer #239,,2700 Route 34,,Oswego,IL,60543,US,,41.68273,-88.36814,,,,
Northfield Square Mall,,1600 N State Rt 50,,Bourbonnais,IL,60914,US,815-937-2688,41.1724109,-87.84721,,,,
Stratford Wal-Mart #2585/Subway #25909,,150 Barnum Avenue Cutoff,,Stratford,CT,06614,US,203-375-0201,41.20052,-73.11664,,,,
Livingston Mall RU,,112 Eisenhower Parkway,Space K112,Livingston,NJ,07039,US,,40.776,-74.35684,,,,
Livingston Mall,,112 Eisenhower Pkwy,,Livingston,NJ,07039,US,973-992-9122,40.776,-74.35684,,,,
McDonald's Corporation - Westborough,,"West Milepost 105, PO BOX 1291",,Westborough,MA,01581,US,508-616-0079,42.2661,-71.61608,,,,
Mall at Rockingham Park,,99 Rockingham Park Blvd,,Salem,NH,03079,US,603-890-5344,42.76408,-71.23042,,,,
NJ Turnpike - Vince Lombardi Travel Plaza,,Mile Post 116 East,East New Jersey Turnpike,Ridgefield,NJ,07657,US,,40.83524,-74.02019,,,,
Lehigh University Subway #923,,1 E 4th Street,,Bethlehem,PA,18015,US,,40.61046,-75.37845,,,,
Regency Mall,,5538 Durand Ave,,Racine,WI,53406,US,,42.6973167741935,-87.8465690322581,,,,
Illinois Tollways - Belvidere Oasis,,2510-2528 Pearl Str,Auntie Anne's Kiosk #71,Belvidere,IL,61008,US,815-544-0287,42.2351220805369,-88.8417159060403,,,,
Cherryvale Mall,,7200 Harrison Ave,,Rockford,IL,61112,US,815-332-4732,42.24118,-88.97549,,,,
University Park Mall,,6501 N Grape Rd,,Mishawaka,IN,46545,US,574-273-2956,41.71943,-86.18775,,,,
Milwaukee Gen Mitchell Int'l Airport - Concourse C,,5300 S. Howell Ave.,,Milwaukee,WI,53207,US,414-481-9411,42.94787,-87.90959,,,,
Southridge Mall,,5300 South 76th St,Space 1270B,Greendale,WI,53129,US,414-421-5398,42.9483540740741,-88.008397037037,,,,
Rockton Wal-Mart #3837/Subway #39384,,4781 E Rockton Rd,,Rockton,IL,61073,US,815-525-0207,42.4564063636364,-89.0240727272727,,,,
Brookfield Square Mall,,"95 N Moorland Rd, Space A-60",,Brookfield,WI,53005,US,262-754-9166,43.0321933333333,-88.1068988888889,,,,
Zern's Market,,976 Hollow Ct,,Allentown,PA,18104,US,,40.5979800137185,-75.5493238503749,,,,
N Bergen Wal-Mart #3795/Subway #36784,,2100 88th St,,North Bergen,NJ,07047,US,201-758-1802,40.812055959596,-74.0136625252525,,,,
Allentown Travel Plaza,,5052 Cetronia Rd,HMSHost,Allentown,PA,18106,US,,40.5770762312108,-75.5624623959601,,,,
Dorney Park,,4000 Dorney Park Rd,,Allentown,PA,18104,US,,40.57675,-75.53708,,,,
Hamburg Wal-Mart #4612/Subway #47062,,1800 Telden Ridge,,Hamburg,PA,19526,US,(484) 660-3572,40.5644376405891,-76.0088792507319,,,,
Allentown Wal-Mart #2641,,1091 Millcreek Rd,,Allentown,PA,18106,US,610-395-7278,40.5530258606647,-75.5813822533446,,,,
The Promenade Shops at Saucon Valley,,"2880 Center Valley Pkwy, Suite 604",,Center Valley,PA,18034,US,,40.5581449964502,-75.4100115711526,,,,
Mayfair Mall,,2500 N Mayfair Rd,,Wauwatosa,WI,53226,US,414-778-2066,43.0646011842105,-88.0476442105263,,,,
Bayshore Town Center,,5800 Bayshore Dr,Ste Q134,Glendale,WI,53217,US,414-967-1015,43.12293,-87.9143,,,,
Janesville Mall,,2500 Milton Ave,,Janesville,WI,53545,US,608-752-6088,42.7126609090909,-89.001433030303,,,,
The Crossroads,,"6650 S Westnedge Ave, Ste 207",Auntie Anne's at The Crossroads,Portage,MI,49024,US,269-324-3117,42.22097,-85.58945,,,,
West Bend Wal-Mart #2658,,1515 West Paradise Dr,,West Bend,WI,53095,US,262-334-9430,43.3978453125,-88.196525625,,,,
Tippecanoe Mall,,2415 Sagamore Pkwy South,,Lafayette,IN,47905,US,765-448-4446,40.392485934006,-86.8540044663063,,,,
Tippecanoe Mall 2,,2415 Sagamore Parkway,,Lafayette,IN,47905,US,765-446-0088,40.392485934006,-86.8540044663063,,,,
Lakes Mall,,5600 Harvey St Suite 2094,,Muskegon,MI,49444,US,231-798-8001,43.1501227272727,-86.2058736363636,,,,
RiverTown Crossings 2 (RU),,3700 Rivertown Parkway,,Grandville,MI,49418,US,616-257-8990,42.8823,-85.7551882352941,,,,
Prudential Center - NJ Devils Arena,,25 Lafayette St,,Newark,NJ,07102,US,,40.7328625,-74.17243125,,,,
Prudential Center II - NJ Devils Arena,,25 Lafayette St,,Newark,NJ,07102,US,,40.7328625,-74.17243125,,,,
Newark Int'l Airport: Terminal A-1 (RU),,Terminal A-1 Rotunda Satellite Unit,3 Brewster Rd,Newark,NJ,07114,US,,40.707795,-74.17323,,,,
Newark Int'l Airport - Concourse A,,1 Brewster Rd,,Newark,NJ,07114,US,,40.70777,-74.17342,,,,
Kean University,,1000 Morris Ave,,Union,NJ,07083,US,,40.68278,-74.23558,,,,
Newport Centre RU,,30 Mall Drive,Space K110,Jersey City,NJ,07310,US,,40.7261761538462,-74.0388907692308,,,,
RiverTown Crossings,,Suite 2019,3700 Rivertown Pkwy,Grandville,MI,49418,US,616-257-8990,42.8823,-85.7551882352941,,,,
Eastland Mall,,"Eastland Mall, Space #1040",1615 East Empire Street,Bloomington,IL,61701,US,,40.48404,-88.95762,,,,
Tanger Outlets Grand Rapids,,350 84th Str SW,,Byron Center,MI,49315,US,(616) 277-1023,42.8117805549189,-85.6715839394731,,,,
East Towne Mall,,115 East Towne Mall,,Madison,WI,53704-3744,US,608-663-2722,43.122660796253,-89.3035474553822,,,,
Michigan Adventure Amusement Park,,4750 Whitehall Rd,,Muskegon,MI,49445,US,,43.3426651919251,-86.2817662979813,,,,
Marketplace Mall,,2000 N Neil St Spc 260,,Champaign,IL,61821,US,217-378-4070,40.13998,-88.2449,,,,
Univ. of Illinois - Urbana,,1401 West Green Street,,Urbana,IL,61801,US,,40.1103578742841,-88.2272935054665,,,,
Woodland Mall,,3195 28th Str SE Spc P106,,Grand Rapids,MI,49512,US,616-464-5810,42.9125110126582,-85.5884893670886,,,,
West Towne Mall,,9 West Towne Mall,,Madison,WI,53719,US,608-829-0640,43.0599185,-89.5070765,,,,
Newport Centre,,30 Mall Dr W,2nd. Lvl,Jersey City,NJ,07310,US,201-222-9292,40.7261761538462,-74.0388907692308,,,,
Bridgewater Commons,,400 Commons Way  Ste 338,,Bridgewater,NJ,08807,US,908-218-0780,40.58889,-74.61964,,,,
Natick Collection,,1245 Worcester Str,"Natick Collection, Ste 2030",Natick,MA,01760,US,508-650-0940,42.29922,-71.38522,,,,
Natick Collection #2,,1245 Worcester Str,"Natick Collection, Ste 1114",Natick,MA,01760,US,508-318-5609,42.29922,-71.38522,,,,
Pine Grove Subway #17521,,482 Suedberg Road,,Pine Grove,PA,17963,US,570-345-8800,40.53376,-76.43082,,,,
Nittany Mall,,"Rt 26, E College Ave",,State College,PA,16801,US,814-234-0906,40.833008,-77.800808,,,,
Jersey Gardens Upper Level,,651 Kapkowski Spc 2258,,Elizabeth,NJ,07201,US,,40.66244,-74.174855,,,,
Jersey Gardens Lower Level,,651 Kapkowski Spc 1430,,Elizabeth,NJ,07201,US,908-820-4317,40.66244,-74.174855,,,,
Lakeview Square,,"5775 Beckley Rd, Spc 239",,Battle Creek,MI,49015,US,269-979-2366,42.26105,-85.1824981395349,,,,
Northwoods Mall,,2201 W. War Memorial Dr,Unit DL01,Peoria,IL,61613,US,309-688-3983,40.7401698682946,-89.6259593697062,,,,
Northwoods Mall 2,,2200 W War Memorial Dr,,Peoria,IL,61613,US,,40.7401622803438,-89.6259533792188,,,,
Fort Wayne Meijer #125,,5903 Illinois Road,,Ft Wayne,IN,46804,US,(260) 436-6117,41.07448,-85.2164198989899,,,,
Glenbrook Square - Center Court,,4201 Coldwater Rd,Box 238,Fort Wayne,IN,46805,US,260-482-7601,41.1159110062325,-85.1352414388152,,,,
Glenbrook Square (2),,4201 Coldwater Rd,Box 238,Fort Wayne,IN,46805,US,260-471-7120,41.1159110062325,-85.1352414388152,,,,
Pilot #1086 - Marion,,6225 East North 00 South,,Marion,IN,46952,US,,40.5535559,-85.5561533,,,,
Fort Wayne Meijer #138,,10301 Maysville Rd,,Ft Wayne,IN,46835,US,(260) 492-2009,41.1299378292988,-85.0112115334778,,,,
Elizabethville Wal-Mart #3412/Subway #16553,,200 Kocher Lane,,Elizabethville,PA,17024,US,717-362-8331,40.55595125,-76.78969625,,,,
Pegula Ice Arena  Subway #56531,,University Drive,,University Park,PA,16802,US,814-954-7404,40.81139,-77.86567,,,,
State College Wal-Mart #1640/Subway #38038,,1665 N Atherton Pl,,State College,PA,16803,US,814-238-0234,40.8081361695356,-77.8968153783981,,,,
Pilot Flying J #518 - Frystown,,2210 Camp Swatara Rd,,Myerstown,PA,17067,US,(717) 933-4146,40.4616283090857,-76.3379063944701,,,,
Davenport Wal-Mart #1241,,5811 Elmore Ave,,Davenport,IA,52807,US,,41.5803372222182,-90.529040286052,,,,
SouthPark Mall,,4500 16th Street,,Moline,IL,61265,US,,41.46879,-90.50701,,,,
Hickory Point Mall,,1146 Hickory Mall,,Forsyth,IL,62535,US,,39.9210040714953,-88.9590051439241,,,,
Castleton Square,,6020 E 82nd St  Spc 138A,,Indianapolis,IN,46250,US,317-598-1814,39.9053525044117,-86.0640920985327,,,,
Avon Wal-Mart #2786/Subway #36284,,9500 E US Highway 36,,Avon,IN,46123,US,317-273-8712,39.7636885,-86.349259,,,,
Tanger WIscosin Dells,,210 Gasser Road,,Wisconsin Dells,WI,53913,US,,43.57566,-89.78528,,,,
Muncie Mall,,3501 N Granville Ave Spc L01C,,Muncie,IN,47303,US,765-288-8077,40.2214000479369,-85.3728167456311,,,,
Kennedy Mall,,555 J. F. Kennedy Road,,Dubuque,IA,52002,US,(563) 556-1186,42.4948226,-90.7226547,,,,
Quakertown Farmers Market,,201 Station Rd,,Quakertown,PA,18951,US,215-536-8415,40.4337823076923,-75.3311223076923,,,,
Reading Wal-Mart #2614/Subway #36231,,5370 Allentown Pike,,Reading,PA,19560,US,610-939-9595,40.41635,-75.91921,,,,
East Greenville Wal-Mart #3810/Subway #38995,,620 A Gravel Pike,,East Greenville,PA,18041,US,215-679-6518,40.4130136173755,-75.5078989819267,,,,
Woodbridge Center,,415 Woodbridge Center Dr,,Woodbridge,NJ,07095,US,732-283-0102,40.5551407178631,-74.3021540734558,,,,
Menlo Park Mall,,363 Menlo Park Mall Drive,,Edison,NJ,08837,US,732-516-9400,40.5468253362163,-74.3380939975289,,,,
Rutgers Athletic Center - Sodexo,,83 Rockafeller Rd,,Piscataway,NJ,08854,US,,40.5250293333333,-74.4387053333333,,,,
Menlo Park Mall II,,100 Menlo Park,Suite 500,Edison,NJ,08837,US,,40.54447,-74.33617,,,,
Lansing Mall,,5330 W Saginaw Hwy Spc 5278,,Lansing,MI,48917,US,517-323-3042,42.7410228671329,-84.6246186713287,,,,
Circle Centre,,49 W Maryland St  Sp K1-01,,Indianapolis,IN,46204,US,317-639-5104,39.765662,-86.159062,,,,
Indianapolis Airport - Concourse A,,7800 Col H Weir Cook Memorial Dr,,Indianapolis,IN,46241,US,,39.7084308,-86.304871,,,,
Indianapolis Wal-Mart #1580/Subway #1785,,10617 E Washington St,,Indianapolis,IN,46229,US,317-890-7655,39.7754722506326,-85.9778449873483,,,,
Honey Creek Mall,,3401 S US Hwy 41,,Terre Haute,IN,47802,US,812-232-1393,39.42689,-87.4158,,,,
Edison Wal-Mart #5201/Subway #29734,,2220 Route 27,,Edison,NJ,08817,US,(732) 248-0031,40.5319818,-74.3763943,,,,
Woodbridge Wal-Mart #5281/Subway #35878,,306 US Highway 9 North,,Woodbridge,NJ,07095,US,732-826-0123,40.5372655,-74.295766,,,,
Maine Turnpike Kennebunk South Travel Plaza,,Mile Marker 25,Maine Turnpike South,Kennebunk,ME,04043,US,,43.40431,-70.56306,,,,
Bechtelsville Wal-Mart #5239/Subway #35824,,567 Route 100 North - Subway #30746,,Bechtelsville,PA,19505,US,610-397-1614,40.3526220001979,-75.6281653684315,,,,
Square One Mall,,1277 Broadway,,Saugus,MA,01906,US,781-233-1400,42.46279,-71.02477,,,,
Meridian Mall,,1982 W Grand River Ave Spc K15,,Okemos,MI,48864,US,517-347-2438,42.7209811111111,-84.4216844444444,,,,
Greenwood Park Mall II,,1251 U.S. Highway 31N,K 114,Greenwood,IN,46142,US,(317) 360-6601,39.6328530003976,-86.1247909810522,,,,
Greenwood Park Mall,,1251 US 31 N,,Greenwood,IN,46142,US,317-859-0809,39.6328530003976,-86.1247909810522,,,,
Bay Park Square,,185 Bay Park Square,,Green Bay,WI,54304,US,920-497-0467,44.4852398970436,-88.0653835553027,,,,
White Oaks Mall,,2501 W Wabash Spc F06,,Springfield,IL,62704,US,217-787-4429,39.76418,-89.70375,,,,
White Oaks Mall II,,2501 W. Wabash,,Springfield,IL,62704,US,,39.76418,-89.70375,,,,
Lima Mall,,2400 Elida Rd Spc K105,,Lima,OH,45805,US,419-331-8511,40.76305,-84.14971,,,,
College Mall,,"2894 East 3rd Str, Spc C-09",,Bloomington,IN,47401,US,812-323-9440,39.16421,-86.4948109090909,,,,
Edinburgh Premium Outlets,,11622 N.E. Executive Drive,,Edinburgh,IN,46124,US,812-526-2444,39.30810375,-85.96121375,,,,
Flemington Wal-Mart #2294/Subway #35204,,152 Rte 31 North,,Flemington,NJ,08822,US,(908) 284-9315,40.39326,-74.83615,,,,
Crystal Mall,,850 Hartford Tpk Spc L121,,Waterford,CT,06385,US,860-440-3711,41.375058994483,-72.1415155583535,,,,
Berkshire Mall 2 (RU),,1665 State  Hill Rd,,Wyomissing,PA,19610,US,610-374-2540,40.3383283673469,-75.9729571428571,,,,
Berkshire Mall,,1665 State Hill Rd,,Wyomissing,PA,19610,US,610-374-2540,40.3383283673469,-75.9729571428571,,,,
VF Factory Outlet,,801 Hill Ave Spe B117,,Reading,PA,19610,US,610-396-0677,40.33707,-75.95355,,,,
Millcreek Mall,,640 Millcreek Mall,,Erie,PA,16565,US,814-866-6161,42.0696650343717,-80.0954309088607,,,,
Wrentham Village Premium Outlets,,"Bldg G, Ste #652",One Premium Outlet Blvd,Wrentham,MA,02093,US,508-384-2237,42.03617,-71.34698,,,,
South Station,,#2 South Station,,Boston,MA,02108-,US,617-330-9799,42.35185,-71.05589,,,,
Briarwood Mall,,261 Briarwood Circle,Space G108,Ann Arbor,MI,48108,US,734-213-5410,42.24283,-83.74634,,,,
Franklin Park II,,5001 Monroe Street,Space 9060,Toledo,OH,43623,US,,41.6981383673469,-83.6419485714286,,,,
Westfield Franklin Park,,"5001 Monroe Str, Unit 9150",,Toledo,OH,43623,US,419-472-8866,41.6981383673469,-83.6419485714286,,,,
Tanger Outlets Foxwood,,455 Trolley Line Blvd,,Mashantucket,CT,06338,US,(516) 806-7862,41.46904,-71.95293,,,,
Boston Logan Airport - Terminal A,,200 Terminal B - Auntie Anne's/HMS Host,Ste 3131,Boston,MA,02128,US,,42.3458497,-71.0464339,,,,
Lebanon Valley Mall,,2287 Lebanon Valley Mall,Route 422,Lebanon,PA,17042,US,717-270-6155,40.3423380826029,-76.4538486383479,,,,
Brunswick Mall,,755 State Hwy 18  Suite 778A,,East Brunswick,NJ,08816,US,732-432-9919,40.427656,-74.3827147,,,,
Cheesequake Rest Area,,Mile Post 124 - Garden State Pkwy,HMSHost Corporation,South Amboy,NJ,08879,US,,40.44704,-74.26897,,,,
Emerald Square Mall,,332 Emerald Square,,North Attleboro,MA,02760,US,508-643-0856,41.9449059296482,-71.3488609296482,,,,
Pottstown Wal-Mart #2263/Subway #52107,,233 Shoemaker Rd,,Pottstown,PA,19464,US,610-323-5050,40.255099859459,-75.6626744470733,,,,
Coral Ridge Mall,,1451 Coral Ridge Ave,,Coralville,IA,52241,US,319-625-2015,41.6912361904762,-91.6084414285714,,,,
Genesee Valley Center,,3279 S Linden Rd,Spc 260,Flint,MI,48507,US,810-732-5685,42.9790066666667,-83.77207,,,,
Fashion Square Mall,,"4787 Fashion Square Mall, Ste 214",,Saginaw,MI,48604,US,989-790-3169,43.4769605551454,-83.9701782933285,,,,
Twelve Oaks Mall,,27204 Novi Rd,,Novi,MI,48377,US,248-679-4398,42.4893737781629,-83.4759614038128,,,,
Twelve Oaks Mall 2 Cafe,,27470AB Novi Road,,Novi,MI,48377-3412,US,248-513-3644,42.4896572963605,-83.4759752339688,,,,
Laurel Park Place,,37700 West Six Mile Rd,,Livonia,MI,48152,US,734-953-6616,42.41088,-83.41778,,,,
Grand Traverse Mall,,3200 S Airport Rd West,Suite 134,Traverse City,MI,49684,US,231-929-3009,44.7235577989735,-85.636159985326,,,,
Bay City Mall,,4101 East Wilder Rd,,Bay City,MI,48706,US,989-667-8885,43.6237932238933,-83.8923255528519,,,,
Providence Place Mall,,124 Providence Place Mall,,Providence,RI,02903,US,401-383-9341,41.8277441708543,-71.4177769095477,,,,
Philadelphia Premium Outlets,,18 W Lightcap Rd,Suite 1057,Pottstown,PA,19464,US,610-327-0217,40.23539,-75.57426,,,,
South Shore Plaza 2,,250 Granite St  Ste 2134,,Braintree,MA,02184,US,781-849-1937,42.2205,-71.02807,,,,
Montgomery Mall,,Montgomery Mall H6,,North Wales,PA,19454,US,215-368-0887,40.23765,-75.24606,,,,
Montgomery Mall RU,,Montgomery Mall H6,,North Wales,PA,19454,US,215-368-0887,40.23765,-75.24606,,,,
Quaker Bridge Mall,,146 Quaker Bridge Mall,,Lawrenceville,NJ,08648,US,609-799-5500,40.2945926647564,-74.6823597134671,,,,
Quaker Bridge Mall II,,2110 Quaker Bridge Mall,Space #2100,Lawrenceville,NJ,08648,US,,40.29378,-74.68108,,,,
Warwick Mall,,400 Bald Hill Rd Ste 181,,Warwick,RI,02886,US,401-737-3449,41.72653,-71.47996,,,,
Southland Center,,23000 Eureka Road,,Taylor,MI,48180,US,734-288-3485,42.19783,-83.25679,,,,
Fairlane Town Center,,18900 Michigan Ave,Sp H-306,Dearborn,MI,48126,US,313-441-1905,42.3096268604651,-83.2222918604651,,,,
Great Lakes Crossing (2),,"4614 Baldwin Rd, Spc 935",,Auburn Hills,MI,48326,US,248-874-1170,42.7021867441861,-83.30662,,,,
Great Lakes Crossing III,,4614 Baldwin Road,,Auburn Hills,MI,48326,US,,42.7021867441861,-83.30662,,,,
Allen Park Meijer #233,,3565 Fairlane Dr,,Allen Park,MI,48101,US,(313) 520-4939,42.2804619456304,-83.2073500572312,,,,
Oakland Mall,,662 W Fourteen Mile Rd,,Troy,MI,48083,US,248-307-1890,42.5342039726027,-83.1124363013699,,,,
Wausau Center,,C-302 Wausau Center,,Wausau,WI,54403,US,,44.957996,-89.628107,,,,
Dayton Mall,,2700 Miamisburg Centerville Rd,Space 282,Dayton,OH,45459,US,937-312-9045,39.636739091748,-84.2190084872719,,,,
Quincy Mall,,3320 Quincy Mall,33 & Broadway,Quincy,IL,62301,US,217-223-5119,39.935796969697,-91.362806969697,,,,
NJ Turnpike - Molly Pitcher Travel Plaza,,Milepost 71.7 South,,Cranbury Township,NJ,08512,US,,40.31542,-74.52295,,,,
Colonial Park Mall RU,,31A Colonial Park Plaza,,Harrisburg,PA,17109,US,717-540-1990,40.2990768190599,-76.82091,,,,
Colonial Park Mall,,31A Colonial Park Plaza,,Harrisburg,PA,17109,US,717-540-1990,40.2990768190599,-76.82091,,,,
Warrington Wal-Mart #5649/Subway #61739,,Warrington Wal-Mart #5649,Attn:  Subway #27819/Auntie Anne's PA310,Warrington,PA,18976,US,(215) 343-7075,40.22696,-75.12986,,,,
Harrisburg Mall,,I-83 & Paxton St,,Harrisburg,PA,17111,US,717-558-9160,40.26927,-76.79098,,,,
Westgate Mall,,200 Westgate Dr  Ste E115,,Brockton,MA,02301-1831,US,508-583-9233,42.0944842342144,-71.0495964736732,,,,
Warminster Wal-Mart #2096/Subway #27819,,100 East Street Rd,,Warminster,PA,18974,US,(215) 672-6000,40.1953644009853,-75.0798239402048,,,,
Strawberry Square Mall,,343 Strawberry Square,,Harrisburg,PA,17101,US,717-236-5550,40.2626077806789,-76.8813373368146,,,,
Hamilton Wal-Mart #5012/Subway #26720,,1700 Nottingham Way,,Hamilton,NJ,08619,US,(609) 890-9200,40.23256,-74.7157,,,,
Cincinnati Premium Outlets,,980 Premium Outlets Dr,,Monroe,OH,45050,US,513-539-8948,39.4359535175879,-84.3375796984925,,,,
Cincinnati Premium Outlets II,,400 Premium OUtlets Drive,,Monroe,OH,45050,US,513.539.6999,39.43266,-84.33671,,,,
Northgate Mall,,9713 Colerain Ave,,Cincinnati,OH,45251,US,513-385-8884,39.247598,-84.59641,,,,
Lakeside Mall,,"14000 Lakeside Cir, Spc # 1475",,Sterling Heights,MI,48078,US,586-532-6380,42.62449,-82.99058,,,,
Liberty Center,,"7100 Foundry Row, Suite S-140",,Liberty Township,OH,45069,US,,39.34689,-84.39666,,,,
Eastland Center,,18000 Vernier Rd,,Harper Woods,MI,48225,US,313-839-7016,42.4497836363636,-82.9335818181818,,,,
Tri-County Mall,,11700 Princeton Pike,,Cincinnati,OH,45246,US,513-671-5556,39.2904,-84.46667,,,,
Partridge Creek Mall,,"17330 Hall Rd, Ste 198",,Clinton Township,MI,48038,US,586-263-5587,42.6276882539683,-82.9479214285714,,,,
Macomb Mall,,32182 Beaconsfield,,Roseville,MI,48066,US,(586) 415-0601,42.5334495238095,-82.9193342857143,,,,
East Windsor Wal-Mart #3266/Subway #35404,,839 Rt 130 North,,East Windsor,NJ,08520,US,,40.2539634,-74.5533561,,,,
Elverson Wal-Mart Super Center #3501 Master Lease,,100 Crossings Blvd,,Elverson,PA,19520,US,610-913-3333,40.15538,-75.86236,,,,
Ephrata Wal-Mart #2340,,890 East Main St,,Ephrata,PA,17522,US,717-721-3290,40.16408,-76.15391,,,,
Oxford Valley Mall,,2300 E Lincoln Highway,,Langhorne,PA,19047,US,215-702-1998,40.17907,-74.88001,,,,
West Norriton Wal-Mart #3475/Subway #37657,,650 S Trooper Rd,,West Norritown,PA,19403,US,610-631-2838,40.1281782835753,-75.4041763359014,,,,
Capital City Mall,,3475 Capital City Mall Dr,,Camp Hill,PA,17011-7010,US,717-975-2707,40.2244951689167,-76.931328641308,,,,
Harrisburg International Airport,,One Terminal Drive,,Middletown,PA,17057,US,717-948-4979,40.19726,-76.76223,,,,
Southern Illinois University Edwardsville,,Southern Illinois University,Box 1170,Edwardsville,IL,62026,US,618-650-2374,38.7930622,-89.9967072,,,,
Kings Island Amusement Park II,,6300 Kings Island Drive,,Mason,OH,45040,US,,39.3389937379059,-84.278871280066,,,,
Kings Island Amusement Park,,6300 Kings Island Drive,,Mason,OH,45040,US,,39.3389937379059,-84.278871280066,,,,
Pilot Flying J #552 - Lebanon,,3140 State Rd 350,,Lebanon,OH,45036,US,,39.4106725,-84.1495116,,,,
Kenwood Towne Centre,,7875 Montgomery Rd,Space L121,Cincinnati,OH,45236,US,513-791-8804,39.1999166666667,-84.3776862962963,,,,
Florence Mall,,2092 Florence Mall,,Florence,KY,41042,US,859-647-2500,38.9945207008988,-84.6526435082454,,,,
Challenge Park at Cedar Point,,One Cedar Point Dr,,Sandusky,OH,44870,US,,41.47898,-82.6822,,,,
Cedar Point Amusement Park,,1 Cedar Point Drive,,Sandusky,OH,44870,US,,41.47898,-82.6822,,,,
Sandusky Mall,,"4314 Milan Road, Ste #512",,Sandusky,OH,44870,US,419-621-9180,41.4164205263158,-82.6723005263158,,,,
Willow Grove Mall,,"2500 W Moreland Rd, Ste FC1",,Willow Grove,PA,19090,US,215-346-0007,40.14341,-75.12051,,,,
Saturday's Market,,3751 East Harrisburg Pike,,Middletown,PA,17057,US,717-314-6708,40.1827797265337,-76.6730013085256,,,,
Hamilton Wal-Mart #2518/Subway #35818,,700 Market Place Blvd,,Hamilton,NJ,08620,US,609-581-6800,40.1965315736732,-74.638530728287,,,,
Freehold Raceway Mall,,"3710 Rt 9, Spc F-204",,Freehold,NJ,07728,US,732-780-9024,40.2536455,-74.3001769,,,,
Freehold Wal-Mart #3236/Subway #28483,,326 W Main St,,Freehold,NJ,07728,US,,40.2436323341508,-74.2995134152362,,,,
Monmouth Mall - Mid Level,,180 State Road 35 South,Space K10,Eatontown,NJ,07724,US,,40.2872747,-74.0551273,,,,
Neshaminy Mall,,667 Neshaminy Mall,,Bensalem,PA,19020,US,(215) 322-4812,40.1364690092097,-74.956188242897,,,,
Levittown Wal-Mart #2068/Subway #35139,,180 Levittown Pkwy,,Levittown,PA,19056,US,,40.1440564150943,-74.8202079245283,,,,
King of Prussia Service Plaza,,381 W DeKalb Pk,,King of Prussia,PA,19406,US,,40.0915544444444,-75.3724422222222,,,,
Dallas Ft. Worth Int'l Airport (TC;G22),,Terminal C  Gate 22,,Dallas,TX,75261,US,972-574-6561,32.8432266362613,-96.8473068786621,,,,
St. Clair Square,,266 St Clair Square,,Fairview Heights,IL,62208,US,618-624-2540,38.597634375,-89.98299,,,,
Eastgate Mall,,4601 Eastgate Blvd,Unit 638,Cincinnati,OH,45245,US,513-752-4484,39.1021941465541,-84.2729889907382,,,,
St. Louis Airport - Southwest Concourse,,10701 Lambert Int'l Blvd,,St. Louis,MO,63145,US,,38.740921,-90.364467,,,,
Hollywood Casino St. Louis,,777 Casino Center Rd,,Maryland Heights,MO,63043,US,(314) 298-2730,38.7518703376778,-90.4794824848605,,,,
Westfield Mid-Rivers,,1600 Mid-Rivers Mall Dr,Sp 2136,St. Peters,MO,63376,US,636-970-2441,38.797175495082,-90.6204437377049,,,,
Green Tree Mall,,757 Lewis & Clark Pkwy E,K-10,Clarksville,IN,47129,US,812-280-0940,38.3078283,-85.7733676,,,,
Tuttle Crossing,,5043 Tuttle Crossing Blvd,Suite 114,Dublin,OH,43016,US,614-798-1828,40.076418,-83.129892,,,,
Dublin Wal-Mart #2774/Subway #60310,,7730 Sawmill Rd,,Dublin,OH,43016,US,(614) 792-7820,40.1242075,-83.09006625,,,,
Saint Louis Galleria II,,1095 Saint Louis Galleria,,Richmond Heights,MO,63117,US,314-863-6663,38.6360462914879,-90.3471121212458,,,,
Swansea Mall,,263 Swansea Mall Dr,,Swansea,MA,02777,US,508-674-6234,41.7570969596109,-71.2168498044629,,,,
The Court at King of Prussia,,"690 W DeKalb Pk, Ste 1003",Location CT-K - Lower Level,King of Prussia,PA,19406,US,610-992-3320,40.0867366666667,-75.3858266666667,,,,
King of Prussia Plaza RU,,160 N Gulph Rd,Location PL-B - Upper Level,King of Prussia,PA,19406,US,,40.08539,-75.39342,,,,
King Of Prussia Plaza -Upper Lvl.,,160 N Gulph Rd,Location PL-B - Upper Level,King of Prussia,PA,19406,US,610-992-0960,40.08539,-75.39342,,,,
King of Prussia Plaza 2 -Lower Lvl.,,160 N. Gulph Road,Location PL-D - Lower Level,King of Prussia,PA,19406,US,610-992-0960,40.08539,-75.39342,,,,
Plymouth Meeting Mall,,500 Germantown Pike,,Plymouth Meeting,PA,19462,US,610-567-0918,40.08959,-75.25687,,,,
Hanover Mall,,1775 Washington Str,,Hanover,MA,02339,US,781-826-8896,42.1472717857143,-70.8454153571429,,,,
Etters Wal-Mart #4404/Subway #50195,,50 Newberry Pkwy,,Etters,PA,17319,US,717-932-1500,40.1570959130958,-76.8214210898411,,,,
Philadelphia Mills 2,,1568 Franklin Mils Cir,Space 647,Philadelphia,PA,19154,US,215-281-7811,40.0909538783881,-74.9587424486448,,,,
Dallas Ft. Worth Int'l Airport (TD:SV101),,Terminal D Gate 12,,Dallas,TX,75261,US,972-973-4475,32.84524573002,-96.8481651855469,,,,
Dallas Ft. Worth Int'l Airport (TB;G29),,Terminal B  Gate 29,,Dallas,TX,75261,US,972-574-2952,32.84524573002,-96.8481651855469,,,,
Dallas Ft. Worth Int'l Airport (TA;G39),,Terminal A  Gate 39,,Dallas,TX,75261,US,972-574-4549,32.8469763452541,-96.8454186035156,,,,
NorthPark Center,,8687 North Central Expwy,,Dallas,TX,75225,US,469-232-3200,32.8697964516129,-96.77071,,,,
Saint Louis Galleria,,1481 Saint Louis Galleria,,Richmond Heights,MO,63117,US,314-721-1611,38.6352166645455,-90.347105331,,,,
Tanger Outlets Columbus OH,,"400 South Wilson Rd, Suite 430",,Sunbury,OH,43074,US,,40.26619,-82.92193,,,,
Tanger Outlets Columbus II,,"400 South Wilson Rd, Suite 996",Space # 996,Sunbury,OH,43074,US,,40.26619,-82.92193,,,,
Eastland Mall,,800 N Green River Rd,Space 125,Evansville,IN,47715,US,812-475-0201,37.9841832833641,-87.4926783338432,,,,
Polaris Fashion Place,,1500 Polaris Pkwy,Food Court - Spc # 2120,Columbus,OH,43240,US,(740) 817-2828,40.1415927502706,-82.9773875468073,,,,
West County Center,,165 West County Center,,Des Peres,MO,63131,US,314-821-7685,38.60304,-90.4467040585824,,,,
West County Center #2,,80 West County Center,,Des Peres,MO,63131,US,314-909-1181,38.6030705795492,-90.447834541653,,,,
South County Center,,33 S County Center,,St Louis,MO,63129,US,314-892-3395,38.602749341333,-90.4484652814225,,,,
Chesterfield Mall,,31A Chesterfield Mall,,Chesterfield,MO,63017,US,636-519-0473,38.6507422496491,-90.5663879689594,,,,
Philadelphia Wal-Mart #2650/Subway #34775,,1455 Franklin Mills Cir,,Philadelphia,PA,19154,US,(215) 281-1225,40.0899363819957,-74.9590098374123,,,,
Philadelphia Mills,,1212 Franklin Mills Cir,Space 854,Philadelphia,PA,19154,US,215-281-9854,40.0875885714286,-74.9590885714286,,,,
Jersey Shore Premium Outlets,,One Premium Outlets Blvd,,Tinton Falls,NJ,07724,US,732-918-8819,40.22425,-74.09203,,,,
Park City Center - Lower Lvl.,,1201 Park City Center,Lower Level - Food Court,Lancaster,PA,17601,US,717-392-0767,40.0663846841294,-76.3400741602465,,,,
Park City Center (RU) - Upper Lvl.,,201 Park City Ctr,Upper Level - Center Square,Lancaster,PA,17601,US,717-393-7421,40.0655141140216,-76.3403206933744,,,,
Cumberland Valley Travel Plaza,,Milepost 219.1 Eastbound,"PO Box 69, Suite 1",Plainfield,PA,17081,US,,40.2034739,-77.2882214,,,,
Exton Square Mall,,293 Exton Square Mall,,Exton,PA,19341,US,610-524-9230,40.0296371543776,-75.6248404339487,,,,
Exton Wal-Mart #2167/Subway #25118,,270 Indian Run St,,Exton,PA,19341,US,(610) 280-9580,40.0226,-75.63083,,,,
Lancaster Wal-Mart #2334,,2034 Lincoln Highway East,,Lancaster,PA,17602,US,717-390-8614,40.0324945454545,-76.2420972727273,,,,
Dallas Galleria,,13350 Dallas Pkwy Ste 3290,,Dallas,TX,75240,US,972-392-5100,32.93079,-96.82116,,,,
Town East  Mall,,2046 Town East Mall,,Mesquite,TX,75150,US,972-613-7664,32.8085575893139,-96.6263332382425,,,,
Irving Mall,,3651 Irving Mall,,Irving,TX,75062,US,972-257-0043,32.8387486789817,-96.9947809232813,,,,
Mesquite Wal-Mart #789,,200 US Highway 80 East,,Mesquite,TX,75149,US,972-289-6765,32.789143,-96.5992009,,,,
Dallas Ft. Worth Int'l Airport (TD:NC110),,2601 N International Pkwy,Terminal D Gate 36,Dallas,TX,75261,US,972-973-4474,32.8904918264539,-97.04147,,,,
Grand Prairie Premium Outlets,,"2950 W Interstate 20, Ste 1020",Auntie Anne's #TX180,Grand Prairie,TX,75052,US,972-602-6910,32.6777020682614,-97.0555443372226,,,,
Firewheel Town Center,,295 Cedar Sage Dr,,Garland,TX,75040,US,972-675-1690,32.9533328205128,-96.6118861538462,,,,
Grapevine Mills III,,3000 Grapevine Mills Parkway,Space #K 107,Grapevine,TX,76051,US,,32.96797,-97.03708,,,,
Grapevine Mills,,3000 Grapevine Mills Parkway,Space 326,Grapevine,TX,76051,US,972 874-1622,32.96797,-97.03708,,,,
Mall St. Matthews,,"Shelbyville Rd, Spc #1195",,Louisville,KY,40207,US,502-893-4800,38.25133,-85.6361,,,,
Mall St. Matthews II,,5000 Shelbyville Road,,Louisville,KY,40207-3342,US,502-894-4404,38.25017,-85.62352,,,,
Oxmoor Center Mall,,7900 Shelbyville Rd,Lot A5,Louisville,KY,40222,US,502-339-1750,38.24886,-85.60683,,,,
Taubman Prestige Outlets of Chesterfield,,NE Corner US401/I64 & Boones Crossing interchg,,Chesterfield,MO,63005,US,636-489-3793,38.63486,-90.62984,,,,
Birchwood Mall,,4350 24th Ave,,Fort Gratiot,MI,48059,US,810-385-6910,43.0357085663286,-82.4564435597669,,,,
Easton Town Center,,125 Easton Town Center,,Columbus,OH,43219,US,614-418-7021,40.0498875757576,-82.91567,,,,
Jefferson Mall,,4801 PK 65 Outer Loop,,Louisville,KY,40219,US,502-961-9793,38.1383569,-85.6823811,,,,
Columbus International Airport  - Concourse B,,Port Columbus Airport,4600 International Gateway,Columbus,OH,43219,US,614-732-1663,39.9984861522361,-82.8900745670837,,,,
The Outlet Shoppes of the Bluegrass,,1155 Buck Creek Rd (Spc F623),,Simpsonville,KY,40067,US,(502) 405-1055,38.2004410311208,-85.3481191517907,,,,
Logan Valley Mall,,Rt 220 & Goods Lane,Spc FK-1,Altoona,PA,16602,US,814-944-6809,40.50916,-78.39245,,,,
Monmouth Rest Area Monmouth Travel Plaza,,"Milepost 100, Garden State Pkwy",HMSHost Corporation,Bellmar,NJ,07719,US,,40.17143,-74.05727,,,,
Parkesburg Wal-Mart #2945,,100 Commons Dr,,Parkesburg,PA,19365,US,610-857-8004,39.98198,-75.93228,,,,
Brunswick Wal-Mart #1939,,15 Tibbetts Drive,,Brunswick,ME,04011,US,,43.9082789158652,-69.9106095353708,,,,
Temple University - Sodexo,,Student Center 2nd Floor,1755 N 13th Street,Philadelphia,PA,19122,US,,39.9791244117647,-75.1555611764706,,,,
The Shoppes At Penn,,3405 Walnut St,Spc G2,Philadelphia,PA,19104,US,215-387-0337,39.95286,-75.1924971428571,,,,
James Cooper Rest Area,,5 Hartford Rd,HMSHost Corporation,Mount Laurel,NJ,08054,US,,39.9778694422487,-74.8958738474811,,,,
Shops at Liberty Place,,"1625 Chestnut Str, Spc 206",,Philadelphia,PA,19103,US,215-564-4747,39.951303877551,-75.1675693877551,,,,
Philadephia Subway #42542,,910 Chestnut St,,Philadelphia,PA,19107,US,,39.9498404081633,-75.1556281632653,,,,
Grapevine Mills II,,"3000 Grapevine Mills Pkwy, Ste 124",,Grapevine,TX,76051,US,972-539-2250,32.96797,-97.03708,,,,
The Parks At Arlington -Upper Lvl.,,3811 S Cooper St,Ste 2186 - Upper Level,Arlington,TX,76015,US,817-557-0431,32.6841264705882,-97.1326441176471,,,,
The Parks at Arlington 2 -Lower Lvl.,,3811 S Cooper Str,Ste 1084 - Lower Level,Arlington,TX,76015,US,817-419-9400,32.6841264705882,-97.1326441176471,,,,
Stonebriar Centre II,,2601 Preston Road,,Frisco,TX,75034,US,214-705-1653,33.10098,-96.80579,,,,
Stonebriar Centre,,2601 Preston Rd,Ste #110,Frisco,TX,75034,US,214-705-1653,33.10098,-96.80579,,,,
North East Mall,,"1101 Melbourne Rd, Ste 1000",Spc 122,Hurst,TX,76053,US,817-590-9440,32.82864,-97.1973,,,,
Hulen Mall,,"4800 S Hulen Str, Spc 1640",,Fort Worth,TX,76123,US,817-292-9933,32.67759,-97.3955,,,,
Burleson Wal-Mart #220,,951 SW Wilshire Blvd,,Burleson,TX,76028,US,,32.5293251915603,-97.3398286766004,,,,
Ridgmar Mall,,2192 Green Oaks Rd,,Fort Worth,TX,76116,US,817-735-4677,32.7392968230256,-97.4338421004734,,,,
Eastland Mall,,4256 FC Eastland Mall,,Columbus,OH,43232,US,614-577-0200,39.9190377,-82.8832412,,,,
Marriott Subway,,101 First Avenue SW,,Rochester,MN,55902,US,507-281-1233,44.02249,-92.46441,,,,
Midway Mall,,3433 Midway Mall,C5B,Elyria,OH,44035,US,440-324-3696,41.3981476636019,-82.1105806003245,,,,
Elyria Wal-Mart #4255/Subway #67157,,1000 Chestnut Commons Drive,,Elyria,OH,44035,US,,41.3442169175098,-82.0663246793112,,,,
Crocker Park,,186 Crocker Park Blvd,,Westlake,OH,44145,US,440-617-9097,41.459719512763,-81.951976266139,,,,
Great Northern Mall,,196 Great Northern Mall,,North Olmsted,OH,44070-3301,US,440-734-1007,41.4187855511022,-81.9095080761523,,,,
Ohio Station Outlets,,"9911 Avon Lake Rd, Spc F70",,Burbank,OH,44214,US,330-948-5153,41.0026206219852,-81.9962620447419,,,,
Indian Mound Mall,,771 S 30th St,,Heath,OH,43056,US,740-522-0669,40.0309915306842,-82.4432012832297,,,,
River Valley Mall,,1635 River Valley Circle,,Lancaster,OH,43130,US,740-653-5432,39.7337940664052,-82.6277103320259,,,,
Blue Mountain Travel Plaza,,203 Blue Mountain Plaza,,Newburg,PA,17240,US,,40.166288,-77.595851,,,,
York Galleria Mall,,2899 Whiteford Rd,Ste #112,York,PA,17402,US,717-757-0532,39.98786,-76.67276,,,,
York Wal-Mart #1529,,2801 East Market St,,York,PA,17402,US,717-757-4492,39.97526,-76.67323,,,,
Moorestown Mall,,"400 Route 38, Spc 1080",,Moorestown,NJ,08057-3295,US,856-722-0433,39.94665,-74.96238,,,,
Cherry Hill Mall - Lvl 2,,"2000 Rt. 38, Ste 514",Level 2,Cherry Hill,NJ,08002,US,856-662-8322,39.93887,-75.02523,,,,
Cherry Hill Wal-Mart #5340/Subway #34739,,500 Route 38,,Cherry Hill,NJ,08034,US,,39.935915,-75.05225,,,,
Springfield Mall,,1250 Baltimore Pike  Spc 23A,,Springfield,PA,19064,US,610-543-3938,39.9134692593343,-75.3507602954558,,,,
Cherry Hill Mall (2),,514 Cherry Hill Mall,Main Level,Cherry Hill,NJ,08002,US,856-488-6215,39.93049,-75.02374,,,,
Independence Mall,,101 Independence Mall Way,Space D112,Kingston,MA,02364,US,781-585-0781,41.96927,-70.71363,,,,
Searcy Wal-Mart #157,,3509 E Race Ave,,Searcy,AR,72149,US,501-368-0596,35.250342,-91.687564,,,,
Golden Triangle Mall,,"2201 S I-35 East, Ste P-3",,Denton,TX,76205,US,940-898-1910,33.345066200038,-97.1821713897114,,,,
Greenville Wal-Mart #427,,7401 Interstate Highway 30,,Greenville,TX,75402,US,(972) 978-7160,33.0937465,-96.1068535,,,,
Decatur Wal-Mart #421,,800 S US Hwy 81/287,,Decatur,TX,76234,US,,33.2283911,-97.5947582,,,,
Richland Mall,,6001 W Waco Dr,Suite 220,Waco,TX,76710,US,254-776-9647,31.5138015994843,-97.1875688850791,,,,
Broadway Square Mall,,4601 S Broadway Ave,Space K107B,Tyler,TX,75703,US,903-509-3745,32.3008112749022,-95.3007722244814,,,,
Ardmore Wal-Mart #129,,1715 N Commerce St,,Ardmore,OK,73401,US,405-470-9966,34.19359875,-97.14316125,,,,
Longview Mall,,3500 McCann Road,,Longview,TX,75605,US,,32.53819,-94.75442,,,,
Colonial Mall Temple,,3111 S 31st St,Space 3375,Temple,TX,76504,US,254-774-9724,31.06995,-97.36931,,,,
Killeen Mall,,"2100 S W S Young Dr, Spc 1334",,Killeen,TX,76543,US,254-200-0090,31.09544,-97.72107,,,,
Cleveland Hopkins Int'l Airport II MT,,5300 Riverside Drive,,Cleveland,OH,44135,US,,41.41157,-81.833385,,,,
Cleveland Hopkins Int'l Airport,,5300 Riverside Drive,,Cleveland,OH,44135,US,216-265-8468,41.41157,-81.833385,,,,
Towne Mall,,1704 N Dixie Hwy,,Elizabethtown,KY,42701,US,270-737-2259,37.73262,-85.8864,,,,
Strongsville Wal-Mart #2266/Subway #36081,,8585 Pearl Rd,,Strongsville,OH,44136,US,(440) 826-0998,41.3462043258427,-81.8240178651685,,,,
SouthPark Mall (2) - 1st Flr,,1222 Southpark Ctr Spc 9008,First Floor,Strongsville,OH,44136,US,440-572-3696,41.3124637884431,-81.8198208810534,,,,
SouthPark Mall (3),,9115 Southpark Center,,Strongsville,OH,44136,US,440-238-9722,41.30606,-81.81942,,,,
SouthPark Mall,,Royalton & Howe Rds,Spc FU1222,Strongsville,OH,44136,US,440-572-9722,41.31304,-81.81632,,,,
Wooster Wal-Mart #1812,,3883 Burbank Rd,Suite 1,Wooster,OH,44691,US,330-345-4110,40.8463982984074,-81.9443879283466,,,,
Glenolden Wal-Mart #5495/Subway #34808,,50 N McDade Blvd,,Glenolden,PA,19036,US,(484) 494-4315,39.905575,-75.291035,,,,
Philadelphia Int'l Airport - Term C,,8500 Essington Ave,,Philadelphia,PA,19153,US,215-365-3606,39.8946570633782,-75.2294145421089,,,,
Philadelphia Int'l Airport - Concourse B-C,,8500 Essington Ave,Concourse B/C,Philadelphia,PA,19153,US,215-492-5537,39.8946570633782,-75.2294145421089,,,,
Philadelphia Int'l Airport - Term D,,8500 Essington Ave,,Philadelphia,PA,19153,US,215-365-3998,39.8946570633782,-75.2294145421089,,,,
Dartmouth Mall,,157 N Dartmouth Mall,,Dartmouth,MA,02747,US,508-994-5500,41.640391440352,-70.9912755085211,,,,
Audubon Wal-Mart #5047/Subway #33832,,130 Black Horse Pike,,Audubon,NJ,08106,US,(856) 672-0055,39.8901002619297,-75.0895267539766,,,,
Eddystone Wal-Mart #2830/Subway #34694,,1570 Chester Pike,,Eddystone,PA,19022,US,,39.8669917171717,-75.3404951515152,,,,
NJ Turnpike - Walt Whitman Travel Plaza,,15 Hojo & Kresson Rd,,Cherry Hill,NJ,08034,US,,39.8897558,-74.998051,,,,
Marlton Wal-Mart #1869/Subway #34487,,150 Route 70 East,,Marlton,NJ,08053,US,,39.8940704081633,-74.9136683673469,,,,
Park Plaza Mall,,6000 West Markham Street,Space #1074,Little Rock,AR,72205,US,(501) 747-2228,34.75219,-92.34113,,,,
Outlets at Little Rock,,11201 Bass Pro Pkwy,,Little Rock,AR,72210,US,(501) 615-8212,34.6575432,-92.4103664,,,,
Benton Wal-Mart #85,,17309 Interstate 30 S,,Benton,AR,72015,US,501.776.2567,34.5784286312442,-92.5821265497376,,,,
Mall at Turtle Creek,,3000 E Highland Dr,,Jonesboro,AR,72401,US,870-935-9661,35.82114,-90.66812,,,,
Tanger Outlets Southaven,,"5205 Airways Blvd, Spc 960",,Southaven,MS,38671,US,(662)-772-5900,34.93358,-89.98829,,,,
West Plains Wal-Mart #15,,1310 Preacher Roe Blvd,,West Plains,MO,65775,US,,36.7158384210526,-91.8737410526316,,,,
Wolfchase Galleria,,2760 N Germantown Pkwy,Suite 240,Memphis,TN,38133,US,901-373-7107,35.2009367288395,-89.792071276901,,,,
Bartlett Wal-Mart #950,,8400 Hwy 64,,Bartlett,TN,38133,US,,35.2071637,-89.7828124,,,,
NW Arkansas Mall,,4201 North Shiloh Drive,,Fayetteville,AR,72703,US,(479)-249-9892,36.12483,-94.14527,,,,
Killeen Wal-Mart #407,,1400 Lowes Blvd,,Killeen,TX,76542,US,254-616-1990,31.09184,-97.72968,,,,
Post Oak Mall,,"Kiosk K-12, 1500 Harvey Rd",,College Station,TX,77840,US,979-696-9833,30.62766,-96.30469,,,,
Lufkin Mall,,4600 S Medford Dr,,Lufkin,TX,75901,US,,31.3116352898551,-94.7237468115942,,,,
Round Rock Premium Outlets,,"4401 North IH-35, Ste 830",,Round Rock,TX,78664,US,512-868-3940,30.5655885762261,-97.6921609751582,,,,
Texarkana Wal-Mart #2123,,4000 New Boston Rd,,Texarkana,TX,75501,US,,33.44345,-94.10018,,,,
Central Mall,,#75 Central Mall,,Texarkana,TX,75503,US,903-838-6267,33.45439,-94.0841,,,,
HEB Grocery-Round Rock 04,,1700 E Palm Valley Blvd,,Round Rock,TX,78664,US,(512) 248-8896,30.5175941841991,-97.6584653034635,,,,
Round Rock Wal-Mart #475,,2701 S Interstate Highway 35,,Round Rock,TX,78664,US,512 388-7225,30.4832822553627,-97.6743110143171,,,,
Lakeline Mall,,11200 Lakeline Mall Dr,Space OJ09,Cedar Park,TX,78613,US,512-996-8187,30.47181,-97.80343,,,,
Tower City Center Food Court,,230 Huron Road NW,,Cleveland,OH,44113,US,216-621-2272,41.496818,-81.6898164,,,,
Cleveland Wal-Mart #4285/Subway #39175,,3400 Steelyard Drive,,Cleveland,OH,44113,US,216-398-9750,41.463265530714,-81.6897237403746,,,,
Merle Hay Mall,,3800 Merle Hay Rd  Spc 500A,,Des Moines,IA,50310,US,515-331-1530,41.62941,-93.69781,,,,
Fayette Mall RU,,Reynolds & Nicholasville Roads,,Lexington,KY,40503,US,859-272-0101,37.99119,-84.52365,,,,
Summit Mall #2,,3265 W. Market Street,Space KI14,Akron,OH,44333,US,,41.1327,-81.61935,,,,
Summit Mall,,3265 W Market St,Spc 208,Akron,OH,44333-3392,US,330-864-7006,41.1327,-81.61935,,,,
South Euclid Wal-Mart #2362/Subway #35971,,1868 Warrensville Ctr Rd,,South Euclid,OH,44121,US,(216) 691-3133,41.50886375,-81.536429375,,,,
Valley West Mall,,1551 Valley West Dr,Store 105A,West Des Moines,IA,50266,US,515-224-4150,41.595493209322,-93.75183,,,,
Holmes County's Flea Market,,4550 State Rt 39,,Berlin,OH,44610,US,330-893-1081,40.5547968,-81.7887377,,,,
Booth's Corner,,1362 Naamans Creek Rd,,Boothwyn,PA,19061,US,,39.8396542857143,-75.4961614285714,,,,
Tom's River Wal-Mart #1544/Subway #28242,,950 Route 37 West,,Toms River,NJ,08755,US,(732) 505-0330,39.973825,-74.24042,,,,
Ocean County Mall,,1201 Hooper Ave Spc 1018,,Toms River,NJ,08753,US,732-818-7530,39.98007,-74.18226,,,,
Somerdale Wal-Mart #4456/Subway #10511,,1 Coopertown Blvd,,Somerdale,NJ,08083,US,(856) 784-6500,39.8547716,-75.0242095,,,,
Concord Mall,,4737 Concord Pike  Spc 850,,Wilmington,DE,19803,US,302-479-7750,39.82048,-75.54727,,,,
Deptford Mall,,1750 Deptford Center Rd,Space 2B 19AB,Deptford,NJ,08096,US,856-845-3667,39.8282247709695,-75.0985479417167,,,,
Indiana Mall,,2334 Oakdale Ave  Suite 51,,Indiana,PA,15701-3348,US,724-349-4181,40.62531,-79.16165,,,,
Oxford Wal-Mart #5795/Subway #55524,,800 Commons Dr,,Oxford,PA,19363,US,610-998-1860,39.795932,-75.9783141,,,,
N Huntingdon Wal-Mart #5241/Subway #53496,,915 Mills Dr,,Huntingdon,PA,15642,US,724-864-3190,40.1196093353038,-78.0339078962432,,,,
Gloucester Premium Outlets,,"100 Premium Outlets Dr, Spc #475",,Blackwood,NJ,08012,US,,39.7842898,-75.0506704,,,,
Pinnacle Hills,,"2203 Promenade Blvd, Ste 8108",,Rogers,AR,72758,US,479-899-6600,36.3052892335716,-94.1790040041691,,,,
NW Arkansas Airport - Concourse A,,1 Airport Blvd,,Bentonville,AR,72712,US,,36.27551,-94.29546,,,,
Springfield Wal-Mart #2221,,2021 E Independence St,,Springfield,MO,65804,US,(417) 888-0956,37.1413110041861,-93.2574759413943,,,,
Battlefield Mall - East Entrance,,2825 S Glenstone Ave,Space F15B,Springfield,MO,65804,US,417-889-2211,37.1632707189025,-93.2627698325172,,,,
Battlefield Mall 2 - Food Court,,2825 South Glenstone Ave   S-07,,Springfield,MO,65804,US,417-877-9540,37.1632707189025,-93.2627698325172,,,,
Pilot #1061 - Springfield,,"4939 W Chestnut Expwy; I-44, Exit 72",,Springfield,MO,65802,US,,37.19738,-93.43864,,,,
Pecanland Mall,,4700 Milhaven Rd,Ste 2000 Spc 917,Monroe,LA,71203,US,318-325-5511,32.500355,-92.060685625,,,,
Jackson Wal-Mart #335,,2196 Emporium Dr,,Jackson,TN,38305,US,(713) 664-1144,35.6659939301574,-88.8505039261204,,,,
Fort Leonard Wood,,Auntie Anne's #MO128,Fort Leonard Wood Army Base,Fort Leonard Wood,MO,65473,US,573-329-2070,37.725231,-92.164672,,,,
Sooner Mall,,3341 West Main St,,Norman,OK,73072,US,405-292-9966,35.21847,-97.4920824137931,,,,
Mall of St. Vincent,,1133 St. Vincent Avenue,,Shreveport,LA,71104,US,(318) 703-8866,32.4798419050651,-93.7528547405022,,,,
Louisiana Boardwalk,,357 Boardwalk Blvd,,Bossier City,LA,71111,US,318-741-5677,32.518473387683,-93.74022023764,,,,
Bossier City Wal-Mart #376,,2536 Airline Dr,,Bossier City,LA,71111,US,318-747-9990,32.5477665306122,-93.7092102040816,,,,
Richmond Town Square,,"691 Richmond Rd, Spc C6",,Richmond Heights,OH,44143,US,440-684-0157,41.54133,-81.49717,,,,
Beachwood Place,,26300 Cedar Road,,Beachwood,OH,44122,US,216-292-2797,41.50127,-81.4956022981366,,,,
Jordan Creek Town Center,,101 Jordan Creek Pkwy,Ste #11014,West Des Moines,IA,50266,US,515-223-1345,41.56849,-93.8092,,,,
Colony Square Mall,,3575 Maple Ave,,Zanesville,OH,43701-7019,US,(740) 452-5141,39.9886023126873,-82.0229278614863,,,,
Columbia Mall,,2300 Bernadette Dr,,Columbia,MO,65203,US,573.445.3039,38.96586,-92.37412,,,,
University of Akron,,Student Union Building,"303 Carroll Str, Spc 207A",Akron,OH,44325,US,,41.0753,-81.51306,,,,
Chapel Hill Mall,,"2000 Brittain Rd, Ste 657",,Akron,OH,44310,US,330-633-8650,41.11703,-81.46559,,,,
Prices Corner,,3214 Kirkwood Hwy,,Wilmington,DE,19808,US,302-995-1403,39.7371946925159,-75.6251156443633,,,,
Forked River Travel Plaza,,Garden State Parkway - Milepost 76,,Forked River,NJ,08731,US,(609) 693-8275,39.87631,-74.21317,,,,
Chambersburg Mall,,864 Chambersburg Mall,,Chambersburg,PA,17201,US,717-263-7994,39.9535887573142,-77.5755203252999,,,,
Hanover Wal-Mart #1823 - Subway #34668,,495 Eisenhower Dr,,Hanover,PA,17331,US,717-632-9755,39.8251332802919,-76.9791608294559,,,,
North Hanover Mall,,1155 Carlisle St,Suite 40,Hanover,PA,17331-1200,US,717-632-0031,39.8219419813351,-76.9966903976881,,,,
John Fenwick Travel Plaza,,One John Fenwick Service Area,,Penns Grove,NJ,08069,US,(859) 299-3607,39.7137,-75.4623,,,,
Grove City Premium Outlets,,1911 Leesburg Grove City Rd,Spc F50,Grove City,PA,16127,US,724-748-0069,41.1434288888889,-80.15826,,,,
Sideling Hill Travel Plaza,,3744 N Hess Rd,Milepost 172.3,Waterfall,PA,16689,US,,40.0608089559398,-78.0899153610736,,,,
Clara Barton Rest Area,,Mile Post 5.4 South - New Jersey Turnpike,HMSHost Corporation,Penns Grove,NJ,08069,US,,39.6813,-75.47053,,,,
Christiana Mall,,232 Christiana Mall Rd,Space 1541,Newark,DE,19702,US,(302) 525-3521,39.6772087804878,-75.6494185365854,,,,
The Mall at Barnes Crossing,,1001 Barnes Crossing Road,,Tupelo,MS,38804,US,,34.31556,-88.70338,,,,
Northpark Mall,,101 North Rangeline Rd,,Joplin,MO,64801,US,,37.09089,-94.477,,,,
Shreveport Wal-Mart #278,,1645 E Bert Kouns Industrial Loop,,Shreveport,LA,71105,US,318-562-3339,32.4307397567926,-93.7143599728994,,,,
Madison Wal-Mart #2720,,127 Grandview Blvd,,Madison,MS,39110,US,(601) 898-7000,32.46679,-90.132,,,,
Northpark Mall,,1200 East County Line Road,,Ridgeland,MS,39157,US,601-899-0079,32.39953,-90.13147,,,,
Osage Beach Premium Outlet,,"4540 Osage Beach Pkwy, Ste L4",Osage Beach Premium Outlets,Osage Beach,MO,65065,US,573-348-5190,38.146505,-92.62511,,,,
Woodland Hills,,7021 South Memorial Dr,Spc 254B,Tulsa,OK,74133,US,918-250-0435,36.0628283673469,-95.8863040816327,,,,
Kentucky Oaks Mall,,5101 Hinkleville Road,,Paducah,KY,42002,US,270-442-0868,37.07743,-88.68427,,,,
Barton Creek Square Mall,,2901 S Capital of Texas Hwy,Space N05A,Austin,TX,78746,US,512-329-5830,30.25632,-97.8107975,,,,
Austin-Bergstrom International Airport - East Cor,,3600 Presidential Blvd  Ste 204,,Austin,TX,78719,US,512-385-1166,30.2026499438064,-97.6666725849054,,,,
Outlet Shoppes at Oklahoma City,,"7642 W Reno Ave, Ste D-482",,Oklahoma City,OK,73128,US,405-440-9960,35.46416,-97.6504716666667,,,,
The Woodlands,,1201 Lake Woodlands Dr,Space 2014,The Woodlands,TX,77380,US,281-419-5511,30.1674403030303,-95.4537841414141,,,,
Penn Square Mall,,1901 NW Expy Ste 1073,Room D5A,Oklahoma City,OK,73118,US,405-810-9960,35.6123178,-97.5309378,,,,
Quail Springs Mall,,"2501 W Memorial Rd, Ste 5505",,Oklahoma City,OK,73134,US,405-749-9961,35.60978,-97.55836,,,,
Houston Premium Outlets,,29300 Hempstead Rd,Ste 934,Cypress,TX,77433,US,281-256-8815,29.9945326749593,-95.7564895217682,,,,
George Bush Intercontinental Airport,,3950 Terminal Rd,Terminal E,Houston,TX,77032,US,281-209-1600,29.9859814,-95.3327262,,,,
San Marcos Premium Outlets,,3939 I-H 39 S,Store # 1450,San Marcos,TX,78666,US,512-392-1115,29.8688247,-97.9379629,,,,
Great Lakes Mall 2,,"7850 Mentor Ave, Spc K-105",,Mentor,OH,44060,US,440-205-0989,41.66139,-81.35963,,,,
Christiana Mall II,,232 Christiana Mall Rd,,Newark,DE,19702,US,(302) 368-4446,39.6772087804878,-75.6494185365854,,,,
Hanover Wal-Mart #5469/Subway #36517,,1881 Baltimore Pike,,Hanover,PA,17331,US,717-646-9990,39.7614970718995,-76.9588520938534,,,,
Delaware House,,530 JFK Memorial Hwy,,Newark,DE,19702,US,,39.66265,-75.691795,,,,
Clearview Mall,,101 Clearview Cir,,Butler,PA,16001,US,724-287-5266,40.89438,-79.906024,,,,
Gettysburg Village Factory Outlet,,1863 Gettysburg Village Dr,Ste 1090  Spc F3,Gettysburg,PA,17325,US,717-337-3760,39.79595,-77.19938,,,,
Johnstown Galleria,,"500 Galleria Dr, Suite #188",,Johnstown,PA,15904-8911,US,814-269-3279,40.2968057142857,-78.8362771428571,,,,
Williamstown Wal-Mart #3774/Subway #47336,,1840 S Black Horse Pike,,Williamstown,NJ,08094,US,(856) 728-0651,39.66112,-74.96368,,,,
Shenango Valley Mall,,3343 E State St,,Hermitage,PA,16148,US,724-981-9973,41.23343,-80.4484054545455,,,,
Chesapeake House Travel Plaza,,"John F. Kennedy Hwy, MM 965",,North East,MD,21901,US,,39.60924,-76.01586,,,,
Hammonton Wal-Mart #2254/Subway #34475,,55 S White Horse Pike,,Hammonton,NJ,08037,US,(609) 567-1311,39.6462656,-74.7867578,,,,
Tulsa Promenade,,4107 S Yale Spc  102,,Tulsa,OK,74137,US,918-665-9092,36.1042674148378,-95.922278039774,,,,
Florence Mall,,301 Cox Creek Pkwy,,Florence,AL,35630,US,(256) 349-1414,34.83611,-87.6309,,,,
Alexandria Mall,,3437 Masonic Dr   Spc 1522,,Alexandria,LA,71301,US,318-449-9515,31.2799028016465,-92.4630944785182,,,,
Dickson Wal-Mart #264,,175 Beasley Dr,,Dickson,TN,37055,US,615.375.7053,36.0621097834088,-87.3814967962167,,,,
University of Alabama,,Ferguson Center,,Tuscaloosa,AL,35401,US,(651) 452-8118,33.19215,-87.57044,,,,
Schulenburg Pilot #1059,,709 US Hwy 77 N,,Schulenburg,TX,78956,US,,29.6963771309192,-96.9027495821727,,,,
Memorial City Mall,,574 Memorial City,,Houston,TX,77024,US,832-358-8888,29.7788117234469,-95.539944749499,,,,
The Galleria II,,"5015 Westheimer Road, #K107A",,Houston,TX,77056,US,,29.7408115789474,-95.4615831578947,,,,
The Galleria,,5015 Westheimer Rd #K107A,,Houston,TX,77056,US,713-626-9000,29.7408115789474,-95.4615831578947,,,,
First Colony Mall,,16535 Southwest Freeway,Space #412,Sugar Land,TX,77479,US,281-265-3188,29.59339,-95.62748,,,,
Stillwater Wal-Mart #137,,111 N Perkins Rd,,Stillwater,OK,74075,US,405-624-0115,36.1239066666667,-97.0514516666667,,,,
Pilot #1057 - Pasadena,,1305 Pasadena Freeway,,Pasadena,TX,77506,US,,29.7129145796527,-95.1953806509728,,,,
H.E.B. Grocery,,2805 Business Ctr Dr #063,Ste 120,Pearland,TX,77581,US,713-340-0595,29.5599772197267,-95.391925231819,,,,
Parkdale Mall,,6155 Eastex Freeway,Suite 5384,Beaumont,TX,77706,US,(409) 892-1860,30.1275019751298,-94.1596983770546,,,,
Kent State University - Sodexo,,1075 Risman Dr,,Kent,OH,44242,US,,41.14549,-81.3442,,,,
Belden Village Mall II,,4289 Belden Village Mall,,Canton,OH,44718,US,(330) 499-1454,40.8553421701021,-81.4282476247352,,,,
Belden Village Mall,,4289 Belden Village Mall,,Canton,OH,44718,US,330-499-7496,40.8553421701021,-81.4282476247352,,,,
New Towne Mall,,Attn  Dwayne Ruegsegger,400 Mill Ave SE,New Philadelphia,OH,44663,US,330-339-3278,40.48025,-81.43828,,,,
Greenwood Mall,,2625 Scottsville Rd,,Bowling Green,KY,42104,US,270-793-9273,36.9488477478907,-86.4244714688021,,,,
Paragon Outlets at Twin Cities,,"3925 Eagan Outlet Pkwy, Spc #945",,Eagan,MN,55122,US,,44.8150585,-93.2140696,,,,
Maplewood Mall,,3001 White Bear Ave,,St. Paul,MN,56301,US,651-770-4175,45.03156,-93.01815,,,,
Mall of America 2 -Lvl. 3,,60 East Broadway Spc N366,Level 3,Bloomington,MN,55425,US,952-851-0076,44.8537733919598,-93.2404314572864,,,,
Mall Of America -Lvl. 2,,60 East Broadway Spc N366,Level 2,Bloomington,MN,55425,US,952-854-7602,44.8537733919598,-93.2404314572864,,,,
Rosedale Shopping Center,,10 Rosedale Center,,Roseville,MN,55113,US,651-633-0787,45.0131044515653,-93.17611,,,,
South Midway Service Plaza,,14738 Pennsylvania Turnpike,PO Box 668,Bedford,PA,15522,US,,40.04982,-78.51947,,,,
Waynesboro Wal-Mart #3633/Subway #37701,,12751 Washington Township Blvd,,Waynesboro,PA,17268,US,717-762-7770,39.739607987451,-77.5269844493985,,,,
Tuckerton Wal-Mart #3830/Subway #54103,,Subway/Auntie Anne's (Inside Wal-Mart),630 Route 9 South,Little Egg Harbor,NJ,08087,US,(609) 294-9400,39.6016458880576,-74.362767039808,,,,
Maryland House Travel Plaza,,Maryland House Plaza I-95 MM82,,Aberdeen,MD,21001,US,443-681-2103,39.50584,-76.1886,,,,
New Castle Wal-Mart #2287/Subway #67553,,2501 W. State Street,,New Castle,PA,16101,US,,41.0115,-80.39277,,,,
Town Mall of Westminster,,400 N Center St,,Westminster,MD,21157,US,410-848-5634,39.5755102070371,-76.9824062060179,,,,
Cape Cod Mall,,769 Iyannough Rd,,Hyannis,MA,02601,US,508-771-4620,41.6687766138633,-70.2955038217863,,,,
Fallston Wal-Mart #3780/Subway #2106,,303 Fallston Blvd,,Fallston,MD,21047,US,410-877-3111,39.50061,-76.3992,,,,
Cumberland Mall,,Routes 47 & 55,,Vineland,NJ,08360,US,856-327-1767,39.49467,-75.01878,,,,
Galleria at Pittsburgh Mills - Main Lvl,,110 Pittsburgh Mills Blvd,,Tarentum,PA,15084,US,724-274-9270,40.5713584708317,-79.7994694166341,,,,
Decatur Mall,,1801 Beltline Road,,Decatur,AL,35601,US,256-308-3345,34.5715,-87.01442,,,,
University Mall,,1701 McFarland Blvd East,Unit D12,Tuscaloosa,AL,35404,US,205-765-9907,33.1953234788673,-87.525926035331,,,,
Governor's Square,,"2801 Wilma Rudolph Blvd, Unit 540",,Clarksville,TN,37040,US,931-503-9029,36.58802,-87.29368,,,,
Hattiesburg Wal-Mart #916,,6072 US Hwy 98,,Hattiesburg,MS,39402,US,601.264.0078,31.3216965217391,-89.379437826087,,,,
Turtle Creek Mall,,1000 Turtle Creek Dr,,Hattiesburg,MS,39402,US,(601) 450-8730,31.32321,-89.37636,,,,
CoolSprings Galleria,,"1800 Galleria Blvd, Ksk 4056",,Franklin,TN,37067,US,615-503-9883,35.95775,-86.81128,,,,
The Mall at Green Hills,,2126 Abbott Martin Rd,,Nashville,TN,37215,US,615-297-6110,36.10634,-86.81822,,,,
Parkway Place,,2801 Memorial Parkway,,Huntsville,AL,35801,US,256-535-4023,34.70711,-86.58914,,,,
Baybrook Mall,,1145 Baybrook Mall,,Friendswood,TX,77546,US,281-218-9000,29.5401436233608,-95.1496072947591,,,,
Shops at La Cantera,,"15900 La Cantera Pkwy, Ste #8801",,San Antonio,TX,78256,US,210-399-1604,29.58921,-98.61957,,,,
San Antonio Airport (TA122),,9800 Airport Blvd,,San Antonio,TX,78216,US,210.265.3254,29.5256892927568,-98.4723082956485,,,,
North Star Mall,,7400 San Pedro Ave Ste 830,,San Antonio,TX,78216,US,210-342-8848,29.51689,-98.49927,,,,
North Star II,,7400 San Pedro Avenue,Suite 2000,San Antonio,TX,78216-5353,US,(210) 979-0288,29.51689,-98.49927,,,,
Ingram Park Mall,,6301 NW Loop 410,Space KL11,San Antonio,TX,78238,US,210-256-6800,29.4695081,-98.620941,,,,
Tanger Outlets at Houston,,"5885 Gulf Freeway, Ste #340",,Texas City,TX,77591,US,281-337-1071,29.40839,-95.0369,,,,
Ponca City Wal-Mart #823,,1101 E Prospect Ave,,Ponca City,OK,74601,US,(918) 928-2996,36.7385835536062,-97.0710784809902,,,,
Prien Lake Mall,,664 W Prien Lake Rd,,Lake Charles,LA,70601,US,337-477-6011,30.19826,-93.2300813043478,,,,
Valleyfair Amusement Park,,One Valleyfair Dr,,Shakopee,MN,55379-3098,US,,44.80126,-93.45952,,,,
Eden Prairie Center,,8251 Flying Cloud Dr,Ste 2184,Eden Prairie,MN,55344,US,952-941-7650,44.8541582943497,-93.4298413020072,,,,
Eastwood Mall,,5555 Youngstown-Warren Rd,Space 637,Niles,OH,44446,US,330-652-1939,41.21105,-80.75283,,,,
Northtown Mall,,344 Northtown Dr NE,,Blaine,MN,55434,US,763-786-0505,45.128415,-93.2597216666667,,,,
Ridgedale Center,,12363 Wayzata Blvd,,Minnetonka,MN,55305,US,952-593-5930,44.9704480099502,-93.435813681592,,,,
Grand Central Mall,,F245 Grand Central Mall,POBox 6020,Vienna,WV,26105,US,304-422-5858,39.30905,-81.55263,,,,
Southern Park Mall,,7401 Market St Spc 305,,Youngstown,OH,44512,US,330-629-8108,41.0222599963242,-80.6627342574621,,,,
Huntington Mall,,P O Box 4002,"400 Mall Road, Unit 735",Barboursville,WV,25504,US,304-733-6890,38.42383,-82.26366,,,,
Vineland Wal-Mart #3339/Subway #34761,,1070 W. Landis Ave.,,Vineland,NJ,08360,US,,39.4871046808511,-75.0459036170213,,,,
Bridgeton Wal-Mart #5384/Subway #34819,,1130 HIghway 77,,Bridgeton,NJ,08302,US,(856) 453-0418,39.4692736974929,-75.2065316015255,,,,
Latrobe Wal-Mart #2502/Subway #36619,,100 Colony Ln,,Latrobe,PA,15650,US,724-539-1383,40.28417,-79.3846,,,,
Oakmont Travel Plaza,,2000 Eastern Ave,,Verona,PA,15147,US,,40.52167,-79.81227,,,,
Hunt Valley Wal-Mart #2577/Subway #35727,,1 Frankel Way,,Hunt Valley,MD,21030,US,(410) 683-2007,39.47173,-76.64129,,,,
Atlantic City Service Area,,Mile Marker 41.3,,Pomona,NJ,08240,US,,39.4803172,-74.5375399,,,,
MIllville Wal-Mart #2109/Subway #4860,,2291 N 2nd St,,Millville,NJ,08332,US,(856) 765-1234,39.4248665171229,-75.0398057369728,,,,
Hamilton Mall I,,4403 Black Horse Pike,Suite 1126,Mays Landing,NJ,08330,US,609-383-1200,39.4495917928053,-74.6390056848487,,,,
Hamilton Mall II Cafe,,4403 Black Horse Pike,Suite 165,Mays Landing,NJ,08330,US,609.383.3400,39.4495917928053,-74.6390056848487,,,,
Westmoreland Mall (RU) - 1st Flr,,US Rt 30 Bypass & Donahue Rd,,Greensburg,PA,15601,US,724-834-1936,40.30182,-79.53771,,,,
Opry Mills Mall,,138 Opry Mills Dr,,Nashville,TN,37214,US,615-823-3172,36.19994,-86.69318,,,,
Gardendale Wal-Mart #1201,,890 Odum Dr,,Gardendale,AL,35071,US,(205) 258-5188,33.6479538157012,-86.8250087280996,,,,
Nashville Int'l Airport - Concourse C,,"One Terminal Dr, Ste 325",HMSHost,Nashville,TN,37214,US,615-275-4400,36.13448,-86.66813,,,,
Independence Center II Lower Level,,2054 Independence Ctr Dr,,Independence,MO,64057,US,816-795-7737,39.04736,-94.35815,,,,
Independence Center - Upper Level,,235 Independence Center Drive,Ste 2305,Independence,MO,64057,US,816-795-1098,39.0473644605996,-94.3596287758029,,,,
Opelousas  Wal-Mart #543 Subway #38799,,1629 E Cresswell Ln,,Opelousas,LA,70570,US,(337) 948-9399,30.5206742,-92.0659922,,,,
Rivergate Mall,,1000 Rivergate Pkwy Ste 1155,,Goodlettsville,TN,37072,US,615-859-1038,36.2983549180328,-86.6998773770492,,,,
Oak Park Mall II,,22249 West 95th Street,Space 0,Overland Park,KS,66214,US,(913) 831-8441,38.95648,-94.71488,,,,
Eunice Wal-Mart #773/Subway #39070,,1538 Hwy 190,,Eunice,LA,70535,US,(337) 546-6960,30.4951142916644,-92.4471234164558,,,,
The Mall of Acadiana,,5725 Johnston St,Box 2042,Lafayette,LA,70503,US,337-984-1898,30.17446603814,-92.078016018458,,,,
Towne East Square,,7700 E Kellogg  Spc E10,,Wichita,KS,67207,US,316-681-1545,37.67974,-97.24816,,,,
Towne West Square,,4600 W Kellogg  Spc H8,,Wichita,KS,67209,US,316-942-4501,37.67367,-97.3955,,,,
Mall of Louisiana - Macy's Wing RU,,6401 Bluebonnet Blvd,,Baton Rouge,LA,70836,US,,30.3922650439536,-91.0904049560464,,,,
Ohio Valley Mall,,67800 Mall Rd - Unit 360,,St. Clairsville,OH,43950,US,740-695-5060,40.0694984769335,-80.8636704096939,,,,
Beaver Valley Mall,,Lot 156,,Monaca,PA,15061,US,724-774-8912,40.6711514,-80.313237,,,,
Pittsburgh Int'l Airport II - Term D,,1000 Airport Blvd,,Pittsburgh,PA,15108,US,,40.4951,-80.25898,,,,
Pittsburgh Int'l Airport - Concourse A,,1000 Airport Blvd,,Pittsburgh,PA,15108,US,412-472-0333,40.4951,-80.25898,,,,
South Charleston Wal-Mart #2036,,2700 Mountaineer Blvd,,Charleston,WV,25309,US,,38.3209293626824,-81.7158339875747,,,,
Charleston Town Center,,3000 Charleston Town Center,,Charleston,WV,25389,US,,38.3539993425441,-81.6343985802763,,,,
The Mall at Robinson - Food Ct,,100 Robinson Ctr Dr,4734-FC-9,Pittsburgh,PA,15205,US,412-788-2447,40.45167,-80.1577,,,,
Westmoreland Mall -Upper Lvl.,,US Rt 30 Bypass & Donahue Rd,Upper Level,Greensburg,PA,15601,US,724-838-1918,40.30182,-79.53771,,,,
Valley Mall,,17301 Valley Mall Rd,,Hagerstown,MD,21740,US,301-582-3045,39.6210667188284,-77.7712572831904,,,,
Hagerstown Premium Outlets,,487 Premium Outlets Blvd,,Hagerstown,MD,21740,US,301-766-9242,39.6096149,-77.7307867,,,,
Monroeville Mall (RU),,200 Mall Blvd,Space A23,Monroeville,PA,15146,US,412-373-8140,40.43294,-79.78974,,,,
Monroeville Mall -LL Food Ct.,,200 Mall Blvd,Space A23,Monroeville,PA,15146,US,412-373-8140,40.43294,-79.78974,,,,
Monroeville Mall III,,200 Mall Office Complex,,Monroeville,PA,15146,US,(412) 373-8140,40.43294,-79.78974,,,,
Towson Center,,825 Dulaney Valley Rd,Space 469-A,Towson,MD,21204,US,410-821-7688,39.4047589469441,-76.6014720335796,,,,
Ross Park Mall RU,,1000 Ross Park Mall Dr,,Pittsburgh,PA,15237-3837,US,412-367-4744,40.54627,-80.00581,,,,
Ross Park Mall,,1000 Ross Park Mall Dr,,Pittsburgh,PA,15237-3837,US,412-367-4744,40.54627,-80.00581,,,,
White Marsh Mall,,8200 Perry Hall Blvd,Spc 2069,Baltimore,MD,21236,US,410-931-6912,39.37538,-76.47246,,,,
Oak Park Mall,,11619 W 95th St,,Overland Park,KS,66214,US,913-310-0047,38.95648,-94.7182594666667,,,,
Smyrna Wal-Mart #406,,570 Enon Springs Road East,,Smyrna,TN,37167,US,(615) 768-5718,35.9736651153818,-86.4954069914179,,,,
Riverchase Galleria,,2000-148 Riverchase Galleria,,Birmingham,AL,35244,US,,33.38009,-86.80686,,,,
Denham Springs Wal-Mart #935/Subway #38796,,904 S Range Ave,,Denham Springs,LA,70726,US,225-791-8355,30.4723182153143,-90.9566955247802,,,,
Walker Wal-Mart #2822/Subway #36174,,28270 Walker St,,Walker,LA,70785,US,(225) 791-7336,30.4759533680434,-90.8632950623712,,,,
Oceans of Fun Amusement Park,,4545 Oceans of Fun Dr.,,Kansas City,MO,64161,US,,39.174452,-94.486089,,,,
Worlds of Fun Amusement Park,,4545 Worlds of Fun Avenue,,Kansas City,MO,64161,US,,39.17594,-94.49241,,,,
Mall of Louisiana - Center Court,,6401 Bluebonnet Blvd,Lower Level,Baton Route,LA,70836,US,225-767-0088,30.3922650439536,-91.0904049560464,,,,
Mall Del Norte,,5300 San Dario Ave,,Laredo,TX,78041,US,956-724-5886,27.54788,-99.50315,,,,
The Outlet Shoppes at Laredo,,Zaragaza Street,,Laredo,TX,78040,US,(956) 391-2109,27.50211,-99.49985,,,,
Thibodaux Wal-Mart #1016,,410 N Canal Blvd,,Thibodaux,LA,70301,US,985-448-3087,29.8074802222222,-90.8157928888889,,,,
Southland Mall Shopping Center,,5953 West Park Ave  Spc 3037,,Houma,LA,70364,US,985-223-0406,29.6338330177412,-90.7580923696316,,,,
Lakeside Mall,,3301 Veterans Memorial Blvd,,Metairie,LA,70002,US,504-219-1284,30.00364,-90.15649,,,,
The Mall at Robinson (RU),,4734-FC-9 100 Robinson Ctr Drive,,Pittsburgh,PA,15205,US,412-788-2447,40.45167,-80.1577,,,,
East Hills Mall,,3702 Frederick Ave.,,St. Joseph,MO,64506,US,(886) 259-5251,39.7769502040816,-94.802673877551,,,,
Tanger Outlets at Pittsburgh,,2200 Tanger Blvd,Ste 710,Washington,PA,15301,US,724-228-8528,40.21528,-80.20911,,,,
Gladstone Wal-Mart #1120/Subway #34902,,7207 North M-1 Hwy,,Gladstone,MO,64119,US,(816) 420-3010,39.2124793,-94.5484954,,,,
South Hills Village,,301 South Hills Village,Kiosk 102,Pittsburgh,PA,15241,US,412-851-6969,40.3420318181818,-80.0532654545455,,,,
North Somerset Travel Plaza,,179 N Plaza Access Rd,,Somerset,PA,15501,US,,40.0006187441419,-79.0451855289345,,,,
South Somerset Travel Plaza,,327 Industrial Park Rd,,Somerset,PA,15501,US,,39.9967383290792,-79.0474859125716,,,,
Sykesville Wal-Mart #2436/Subway #36420,,Attn: Subway/Auntie Anne's Store Manager,"6400A Ridge Road, Suite 1",Sykesville,MD,21784,US,410-552-1215,39.39799,-76.93219,,,,
Morgan State University,,1700 E Cold Spring Lane,"Student Center, Unit #35",Baltimore,MD,21251,US,443-885-3327,39.34582,-76.585935,,,,
Kennywood Amusement Park,,4800 Kennywood Blvd.,,West Mifflin,PA,15122,US,,40.3865615681354,-79.8654365412632,,,,
Frederick Wal-Mart #2756/Subway #35996,,1811 Monocacy Blvd,,Frederick,MD,21701,US,301-695-7580,39.4364795911034,-77.3763761222198,,,,
Mondawmin Mall,,2301 Liberty Heights Ave,Space 2212,Baltimore,MD,21215,US,410-225-3357,39.31856,-76.65351,,,,
The Pier at Caesars,,1 Atlantic Ocean,,Atlantic City,NJ,08401,US,609-348-0200,39.35474,-74.43515,,,,
Eastpoint Mall,,Northpoint Blvd & Eastern Ave,Space 7832,Baltimore,MD,21224,US,410-282-5469,39.29256,-76.51938,,,,
Security Square Mall RU,,6901 Security Blvd,,Baltimore,MD,21244,US,410-298-5242,39.31286,-76.75022,,,,
The Shops at Grand River,,6200 Grand River Blvd East,Ste #366,Leeds,AL,35094,US,205-699-0656,33.54716,-86.59827,,,,
The Legends At Village West,,1803 Village W Pkwy,Spc # M111,Kansas City,KS,66111,US,913-400-7370,39.1250325335231,-94.8286208792724,,,,
North Shore Square,,I-12 & N Shore Blvd,Airport Rd Spc 2008,Slidell,LA,70460,US,985-649-9905,30.3392,-89.82495,,,,
The Outlet Collection at Riverwalk,,500 Port of New Orleans Place #50,,New Orleans,LA,70130,US,(504) 598-5300,29.94374,-90.06228,,,,
Oakwood Center,,197 Westbank Expressway,Suite 33,Gretna,LA,70056,US,504-362-9200,29.92211,-90.04195,,,,
Chalmette Wal-Mart #909/Subway #7678,,8101 W Judge Perez Dr,,Chalmette,LA,70043,US,,29.9557227272727,-89.9843843434343,,,,
Rio Grande Valley Premium Outlets,,"5001 E. Expressway 83, Ste 313",,Mercedes,TX,78570,US,956-514-0817,26.21783,-97.96383,,,,
Valle Vista Mall,,2020 S Expressway 83,Space #C02,Harlingen,TX,78552,US,956-365-3183,26.182743,-97.7193039,,,,
Rio Grande Valley Premium Outlets 2,,"5001 E Expressway 83, Ste 822",,Mercedes,TX,78503,US,956-514-0220,26.21651900218,-98.37082149963,,,,
South Hills Village RU,,301 South Hills Village,SRU Serial #AS98-11,Pittsburgh,PA,15241,US,412-851-6969,40.3420318181818,-80.0532654545455,,,,
Century III Mall,,3075 Clairton Rd,,West Mifflin,PA,15123,US,412-653-3355,40.3380166666667,-79.9376284848485,,,,
Belle Vernon Wal-Mart #2420,,100 Sara Way,,Belle Vernon,PA,15012,US,(724) 929-4257,40.1380339622642,-79.8468926415094,,,,
Meadowbrook Mall,,2399 Meadowbrook Rd,,Bridgeport,WV,26330,US,304-842-5920,39.30901,-80.27651,,,,
Morgantown Mall,,9323 Mall Rd,,Morgantown,WV,26501,US,304-983-6175,39.6285671968706,-79.9959553678521,,,,
Security Square Mall,,6901 Security Blvd,,Baltimore,MD,21244,US,443-348-7234,39.31286,-76.75022,,,,
Illiano Plaza,,"208 E Ridgeville Blvd, Ste 103",,Mount Airy,MD,21771,US,,39.3647297297297,-77.1627593243243,,,,
Frederick Wal-Mart #2233/Subway #38852,,7400 Guilford Dr,,Frederick,MD,21704,US,301-668-1214,39.39449,-77.41326,,,,
Mt. Pleasant Wal-Mart #2611/Subway #30060,,900 Summit Ridge Plaza,,Mt. Pleasant,PA,15666,US,724-547-0116,40.1281658528428,-79.547599264214,,,,
Francis Scott Key Mall,,5500 Buckeystown Pike,,Frederick,MD,21703,US,301-682-9027,39.38471,-77.40957,,,,
Arbutus Wal-Mart #3720/Subway #43124,,3601 Washington Blvd,,Arbutus,MD,21227,US,410-247-9013,39.2486804,-76.6706952,,,,
Martinsburg Wal-Mart #1703,,800 Foxcraft Avenue,,Martinsburg,WV,25041,US,,39.4536452996484,-77.9881568474891,,,,
Gadsden Mall,,1001 Rainbow Dr,Spc K-5,Gadsden,AL,35901,US,256-467-4783,33.99768,-86.00453,,,,
D'Iberville Wal-Mart #2715,,3615 Sangani Blvd,,D'Iberville,MS,39532,US,228-392-6666,30.4586838778441,-88.8947082518385,,,,
Edgewater Mall,,2600 Beach Blvd,Space 88,Biloxi,MS,39531,US,228-388-3805,30.38956,-88.98929,,,,
Oxford Wal-Mart #809,,92 Plaza Lane,,Oxford,AL,36203,US,,33.6009639608371,-85.8332470865809,,,,
Ocean Springs Wal-Mart #1346/Subway #48194,,3911 Bienville Blvd,,Ocean Springs,MS,39564,US,(228) 875-1833,30.40910375,-88.7601725,,,,
La Plaza Mall,,2200 S 10th Str,,McAllen,TX,78503,US,956-686-4491,26.18426,-98.23333,,,,
La Plaza Mall 2,,2200 S 10th Str,,McAllen,TX,78503,US,956-618-3077,26.18426,-98.23333,,,,
Sunrise Mall,,2370 North Expressway,Space 1112,Brownsville,TX,78521,US,956-548-1981,25.92655,-97.48508,,,,
Mobile Wal-Mart #853,,685 Schillinger Rd,,Mobile,AL,36695,US,251-408-9540,30.6763457142857,-88.22547,,,,
Bel Air Mall,,3208 Bel Air Mall,,Mobile,AL,36606,US,251-476-5325,30.6724140365353,-88.1230090779807,,,,
Bay Minette Wal-Mart #2739/Subway #37630,,701 McMeans Ave,,Bay Minette,AL,36507,US,(251) 937-3357,30.88451,-87.78793,,,,
Uniontown Mall,,1152 Mall Run Rd,,Uniontown,PA,15401,US,724-438-7887,39.9075919841508,-79.7505374682751,,,,
Connellsville Wal-Mart #5379/Subway #36116,,1450 Morrell Ave,,Connellsville,PA,15425,US,(724) 628-0513,40.0018673640537,-79.6044087749627,,,,
Westroads Mall,,"10000 California Street, Space #5570",,Omaha,NE,68104,US,402-390-2025,41.2645,-96.06688,,,,
Crossroads Mall,,2 Crossroads Mall,,Mount Hope,WV,25880,US,304-252-8496,37.846017717737,-81.1956706306422,,,,
Oak View Mall,,3001 S 144th St,,Omaha,NE,68144,US,402-697-0555,41.2291655014327,-96.1384557020057,,,,
Southern Hills Mall,,"4400 Sergeant Road, Suite 317",,Sioux City,IA,51106,US,(605) 670-9431,42.44815,-96.35026,,,,
Glen Burnie Wal-Mart #2279,,6721 Chesapeake Center Dr,,Glen Burnie,MD,21060,US,410-760-6411,39.192412282998,-76.6087731609038,,,,
Columbia Mall,,10300 Little Patuxent Pkwy,Space 1375,Columbia,MD,21044-3341,US,410-730-8080,39.2167634228697,-76.8578803308999,,,,
Dover Mall,,3004 Dover Mall,,Dover,DE,19901,US,302-674-5311,39.14207,-75.50089,,,,
Baltimore Washington Airport (Space A-1),,BAA MD-BWI Airport,Gate A/B,Baltimore,MD,21240,US,410-859-5151,39.1805856,-76.6675055,,,,
Baltimore Washington Airport (Space B-15),,BAA MD-BWI Airport - Gate A/B,,Baltimore,MD,21240,US,410-859-8240,39.1769806,-76.6701475,,,,
Baltimore Washington Airport (Space D-10),,BAA MD-BWI Airport,Gate D,Baltimore,MD,21240,US,410-850-7008,39.17022,-76.6789,,,,
Arundel Mills,,7000 Arundel Mills Rd,Space #338,Hanover,MD,21076,US,443-755-0482,39.16238,-76.72561,,,,
Camden Wal-Mart #5039,,263 Wal-Mart Dr,,Camden,DE,19934,US,302-697-4650,39.1020987949002,-75.5440367115249,,,,
Severn Wal-Mart #1875 / Subway #38060,,407 George Claus Blvd,,Severn,MD,21144,US,410-424-4445,39.1486442950871,-76.6491482287949,,,,
Eastdale Mall,,US Highway & Eastern Bypass Spc E13,,Montgomery,AL,36117,US,334-260-0704,32.3721934,-86.209137,,,,
Northgate Mall,,271 Northgate Mall,,Chattanooga,TN,37415,US,423-877-8879,35.1305848780488,-85.2372446341463,,,,
Hamilton Place Mall,,2100 Hamilton Place Blvd,,Chattanooga,TN,37421,US,423-892-4190,35.0369,-85.161,,,,
Mount Berry Mall,,2770 Martha Berry Highway,,Rome,GA,30165,US,(706) 234-3597,34.3019336842105,-85.1761052631579,,,,
Gulf Shores Wal-Mart #2748/Subway #35514,,170 E Fort Morgan Rd,,Gulf Shores,AL,36542,US,,30.2648200741102,-87.6863224795337,,,,
Westfield Gateway,,"6100 O Str, Store # 9015",,Lincoln,NE,68505,US,402-325-0943,40.81343,-96.63854,,,,
Kearney Wal-Mart #598/Subway #60305,,5411 N 2nd Ave,,Kearney,NE,68847,US,308-234-2720,40.7266104255319,-99.0838514893617,,,,
Nebraska Crossing Factory Stores,,14333 Nebraska 31,,Gretna,NE,68028,US,,41.11055,-96.2533,,,,
Pensacola Wal-Mart #1222/Subway #28404,,8970 Pensacola Blvd,,Pensacola,FL,32534,US,(850) 484-9838,30.5271104020101,-87.2748647738693,,,,
West Town Mall,,7600 Kingston Pike  Spc 1162,,Knoxville,TN,37919,US,865-690-8956,35.92816,-84.03742,,,,
College Square,,2550 E Morris Blvd  Sp 54,,Morristown,TN,37813,US,423-581-5587,36.2226,-83.26116,,,,
Kingsport Town Center Mall,,"2101 Fort Henry Dr, Ste 115",P O Box 7624,Kingsport,TN,37664,US,423-378-3477,36.5282,-82.52328,,,,
Knoxville Wal-Mart #1320/Subway #15026,,7420 Chapman Hwy,,Knoxville,TN,37920,US,865-609-9973,35.9088416326531,-83.8464618367347,,,,
Sevierville Wal-Mart #578,,1414 Parkway,,Sevierville,TN,37862,US,,35.8399678145994,-83.571008779822,,,,
Boardwalk - Sea Isle City,,11 43rd St Unit #4,,Sea Isle City,NJ,08243,US,609-263-2844,39.15366,-74.691535,,,,
Marley Station II,,7900 Governor Ritchie Highway,,Glen Burnie,MD,21061,US,410-582-9350,39.14068,-76.60306,,,,
Marley Station,,7900 Governor Ritchie Hwy,Spc E126,Glen Burnie,MD,21061,US,410-582-9350,39.14068,-76.60306,,,,
Clarksburg Premium Outlets,,"Interstate 270 West, south of Clarksburg Road",,Clarksburg,MD,20871,US,,39.22877,-77.28293,,,,
Country Club Mall,,1262 Vocke Rd  Sp 124,,LaVale,MD,21502,US,301-729-1462,39.63151,-78.83498,,,,
Lakeforest Mall,,701 Russell Ave,Space E155,Gaithersburg,MD,20877-2690,US,301-987-0345,39.15098,-77.20593,,,,
Rio Grande Wal-Mart #3337/Subway #42579,,3159 Rte 9 South,,Rio Grande,NJ,08242,US,(609) 463-9700,39.020116,-74.870924,,,,
Prime Outlets at Queenstown,,100 Outlet Center Dr,,Queenstown,MD,21658,US,410-827-7717,38.98409,-76.1609,,,,
Pace Wal-Mart #990/Subway #36941,,4695 Highway 90,,Pace,FL,32571,US,(850) 994-7817,30.6034557142857,-87.1274257142857,,,,
Pensacola Wal-Mart #1224,,2650 Creighton Rd,,Pensacola,FL,32504,US,(850) 476-0806,30.4951526190476,-87.1921271428571,,,,
Cordova Mall,,5100 North 9th Avenue,,Pensacola,FL,32504,US,(850) 484-0544,30.474475,-87.211565,,,,
Arbor Place Mall,,108 Arbor Place Mall,,Douglasville,GA,30135,US,770-949-5554,33.72708,-84.74083,,,,
Silver Sands Premium Outlets,,"10406 Emerald Coast Parkway, Ste 103",,Miramar Beach,FL,32550,US,(850) 837-1190,30.3768501234703,-86.3488493827579,,,,
The Island in Pigeon Forge,,131 The Island Drive,Suite 3104,Pigeon Forge,TN,37863,US,865-286-7001,35.804044,-83.5740927,,,,
The Mall at Johnson City,,"2011 N Roan Str, Space B2A",,Johnson City,TN,37601,US,423-854-0066,36.33962,-82.37457,,,,
Empire Mall,,370 Empire Mall,,Sioux Falls,SD,57106,US,605-361-7477,43.5130567236348,-96.77709,,,,
The Parkway at Gatlinburg,,762 Parkway,Suite 2,Gatlinburg,TN,37738,US,,35.7120142086392,-83.5174613372636,,,,
Asheville Mall,,3 S Tunnel Rd   Spc B8,,Asheville,NC,28805,US,828-299-9108,35.5841602029446,-82.5261008198124,,,,
Westfield Annapolis II,,2002 Annapolis Mall,,Annapolis,MD,21401,US,410.573.0870,38.9922258398198,-76.5444916018021,,,,
Westfield Annapolis,,1420 Annapolis Mall,,Annapolis,MD,21401,US,410-573-0870,38.989700513535,-76.5485981084129,,,,
Columbia Mall RU,,10300 Little Patuxent Pkwy,,Annapolis,MD,21401,US,,38.98719,-76.5422,,,,
Boardwalk - Wildwood,,3924 Boardwalk,,Wildwood,NJ,08260-5433,US,609-729-8811,38.9848248979592,-74.8133316326531,,,,
Wheaton Plaza,,"11160 Veirs Mill Rd, Spc H-10",,Wheaton,MD,20902,US,301-962-3100,39.039037715518,-77.0537352949194,,,,
Milford Wal-Mart #1741,,939 N DuPont Hwy,,Milford,DE,19963,US,302-424-3525,38.92969,-75.4317,,,,
Montgomery Mall,,7107 Democracy Blvd,Spc 9024,Bethesda,MD,20817,US,301-365-1879,39.0220868,-77.1468748,,,,
Ellsworth Place,,8661 Colesville Road,Space #B149,Silver Springs,MD,20910,US,,38.997055,-77.02743,,,,
University of Maryland - Stamp Student Union,,1150 South Campus Building,,College Park,MD,20742-8411,US,,38.983606624696,-76.9451587955098,,,,
Bowie Town Center,,15606 Emerald Way,,Bowie,MD,20716,US,301-805-2140,38.9440118181818,-76.734066969697,,,,
Town Center at Cobb,,400 Ernest W Barrett Pkwy,Unit # W06,Kennesaw,GA,30144,US,770-499-1769,34.0140038361461,-84.5612855778255,,,,
Newnan Wal-Mart #494,,1025 Highway 34 E,,Newnan,GA,30265,US,(407) 414-7371,33.3966322017467,-84.7450340253255,,,,
Outlet Shoppes at Atlanta,,"915 Ridgewalk Pkwy, Ste D-493",,Woodstock,GA,30188,US,(678) 540-3199,34.12104,-84.52197,,,,
Cumberland Mall II,,1332 Cumberland Mall,Space # 5530,Atlanta,GA,30339,US,,33.8788095918367,-84.469372244898,,,,
Cumberland Mall,,1332 Cumberland Mall,,Atlanta,GA,30339,US,770-431-9977,33.8788095918367,-84.469372244898,,,,
Enterprise Wal-Mart #734,,600 Boll Weevil Circle,,Enterprise,AL,36330,US,,31.31467,-85.82992,,,,
Peachtree Mall,,3507 Manchester Exwy #90,,Columbus,GA,31909,US,706-576-5600,32.5083872619048,-84.9371370238095,,,,
Pier Park,,600 Pier Park Drive,Suite 125,Panama City Beach,FL,32413,US,,30.21801,-85.87364,,,,
Wiregrass Commons,,"900 Commons Dr, Ste 821",,Dothan,AL,36303,US,334-641-2771,31.25507,-85.42793,,,,
Dothan Wal-Mart #2534,,3300 S Oates St,,Dothan,AL,36301,US,,31.17923,-85.40198,,,,
Panama City Mall,,2150 Martn Luther King Jr Blvd,,Panama City,FL,32405,US,,30.1867535087719,-85.6500180701754,,,,
Eufaula Wal-Mart #1638/Subway #36693,,1252 South Eufaula Ave,,Eufaula,AL,36027,US,334-616-6020,31.8764273666644,-85.1509926333356,,,,
Mt Vernon Wal-Mart #2596/Subway #47411,,2301 Freeway Drive,,Mt Vernon,WA,98273,US,360-424-8787,48.44174,-122.34313,,,,
Bellis Fair Mall,,1 Bellis Fair Parkway #436,,Bellingham,WA,98226,US,360-714-8258,48.78438,-122.48618,,,,
Asheville Outlets,,800 Brevard Rd,,Asheville,NC,28806,US,(330) 965-4433,35.53307,-82.60427,,,,
Valley View Mall,,4802 Valley View Boulevard NW,,Roanoke,VA,24012,US,,37.303027804257,-79.9585288650109,,,,
James Madison University,,285 Warren Service Dr,,Harrisonburg,VA,22807,US,(540) 568-6755,38.4374688867514,-78.8698313627747,,,,
Valley Mall,,"1925 E Market St, Ste #307",,Harrisonburg,VA,22801,US,540-432-0414,38.4297807523583,-78.8420845354845,,,,
Waynesboro Wal-Mart #5117,,116 Lucy Ln,,Waynesboro,VA,22980,US,,38.0652788128745,-78.9346589955092,,,,
Apple Blossom Mall,,1850 Apple Blossom Drive,,Winchester,VA,22601,US,540-686-7034,39.16488,-78.16282,,,,
"Liberty University, Jerry Falwell Library (Sodexo)",,DeMoss Dr,,Lynchburg,VA,24502,US,(434) 582-3079,37.3496,-79.18092,,,,
Prince Georges Plaza,,East West Hwy & Belcrest Rd,,Hyattsville,MD,20782,US,301-853-2206,38.9667,-76.95422,,,,
Bowie Wal-Mart #1893/Subway #35196,,3300 NW Crain Hwy,,Bowie,MD,20716,US,(301) 464-8135,38.93579,-76.71795,,,,
Dulles Town Center Mall,,"21100 Dulles Town Cir, Ste 262",,Dulles,VA,20166,US,571-926-8322,39.03294,-77.4205,,,,
Landover Wal-Mart #5129/Subway #39172,,6210 Annapolis Rd,,Landover,MD,20784,US,,38.9388535608962,-76.9106904423591,,,,
Dulles Int'l Airport - Concourse C,,Concourse C Gate C-11,,Dulles,VA,20166,US,703-572-5200,38.99632,-77.4107,,,,
Atlanta Hartsfield Jackson Int'l Arprt-Con D,,6000 N Terminal Pkwy,Concourse D,Atlanta,GA,30320,US,404-761-0030,33.64174,-84.4467,,,,
Lenox Square Mall,,3393 Peachtree Road,,Atlanta,GA,30326,US,404-816-1438,33.84893,-84.365,,,,
Perimeter Mall,,4400 Ashford-Dunwoody Rd,Spc 1306,Atlanta,GA,30346,US,770-350-8030,33.92215,-84.33882,,,,
North Point Mall Lower Level,,1130 N Point Cir,,Alpharetta,GA,30022,US,770-667-1260,34.0484161904762,-84.2984104761905,,,,
North Point Mall Upper Level,,K1 North Point Circle,,Alpharetta,GA,30022,US,770-667-8637,34.05027,-84.29122,,,,
Southlake Mall,,1000 Southlake Mall  Spc 2314,,Morrow,GA,30260,US,770-960-0801,33.57448,-84.35547,,,,
The Gallery at South DeKalb,,"2801 Candler Rd, Spc C29",,Decatur,GA,30034,US,404-241-6968,33.70810893576,-84.2721450760171,,,,
North Georgia Premium Outlets,,800 Hwy 400 S,Store # K-13,Dawsonville,GA,30534,US,706-216-2084,34.35644,-84.04577,,,,
Mall at Stonecrest,,2929 Turner Road,,Lithonia,GA,30038,US,770-482-7300,33.6982003235652,-84.0888055382703,,,,
Forest City Wal-Mart #1036,,197 Plaza Dr,,Forest City,NC,28043,US,,35.3355861819481,-81.8965471150909,,,,
Charlottesville Fashion Square,,1547 E Rio Rd,,Charlottesville,VA,22901,US,434-974-7532,38.0787329593155,-78.4720536211591,,,,
Culpeper Wal-Mart #2136,,801 James Madison Hwy,,Culpeper,VA,22701,US,,38.48166,-77.97595,,,,
Hanes Mall,,3320 Silas Creek Parkway,,Winston-Salem,NC,27103,US,336-760-2103,36.073295323332,-80.2981407315668,,,,
Haywood Mall II,,"700 Haywood Rd,  KI-16",,Greenville,SC,29607,US,,34.8497,-82.33776,,,,
Union Station,,Train Concourse Spc T-9,40 Massachusetts Ave NE,Washington,DC,20001,US,202-289-9838,38.896884,-77.006502,,,,
Tyson's Corner Center,,7955 Tyson's Corner Center,,McLean,VA,22102,US,703-790-0619,38.9192932828689,-77.2207756277753,,,,
Fashion Center At Pentagon City -Metro Lvl.,,1100 South Hayes St,Space C02 - Metro Level,Arlington,VA,22202,US,703-413-1111,38.8642029009418,-77.0590931194977,,,,
Fashion Center at Pentagon City 2 -Third Lvl.,,1100 South Hayes St,Space X8 - Third Level,Arlington,VA,22202,US,703-415-4040,38.8642029009418,-77.0590931194977,,,,
Pentagon,,Room 1B1080,,Arlington,VA,22202,US,,38.8616126,-77.0507796,,,,
Crystal City,,1675 Crystal Sq Arcade,,Arlington,VA,22202,US,703-413-6408,38.8580508163265,-77.0492146938775,,,,
Iverson Mall,,3737 Branch Ave.,,Temple Hills,MD,20748,US,,38.8401050928857,-76.9471364987096,,,,
Sugarloaf Mills,,5900 Sugarloaf Pkwy,,Lawrenceville,GA,30043,US,678-847-6100,33.9849,-84.07846,,,,
Mall Of Georgia,,3333 Buford Drive Ste 1010,,Buford,GA,30519,US,678-482-4191,34.06898,-83.98531,,,,
Mall of Georgia II,,3333 Buford Drive,Suite 1000,Buford,GA,30519,US,770.904.5895,34.06898,-83.98531,,,,
Houston County Galleria,,2922 Watson Blvd,Space #850,Centerville,GA,31028,US,,32.61837,-83.68607,,,,
Albany Mall,,2601 Dawson Rd,Space C13,Albany,GA,31707,US,229-446-7333,31.614355,-84.217105,,,,
Governor's Square II,,1500 Apalachee Pkwy.,Space 5700,Tallahassee,FL,32301,US,,30.43444,-84.25493,,,,
Haywood Mall,,"700 Haywood Rd, Spc 2020A",,Greenville,SC,29607,US,864-284-0577,34.8497,-82.33776,,,,
Haymarket Wal-Mart #3077,,6530 Trading Square,,Haymarket,VA,20169,US,703-754-6240,38.818617,-77.6448425,,,,
WestGate Mall,,205 W Blackstock Rd,Ste 165,Spartanburg,SC,29301,US,(864) 345-2554,34.9388763636364,-81.9910718181818,,,,
Manassas Mall,,8300 Sudley Rd,,Manassas,VA,20109,US,703-330-4607,38.7750621108789,-77.5029764892132,,,,
Fair Oaks Mall,,11953U Fair Oaks,,Fairfax,VA,22033,US,703-591-2475,38.8616870833333,-77.3623495833333,,,,
Tanger Outlets at National Harbor,,"6800 Oxon Hill Rd, Suite 895",,National Harbor,MD,20745,US,,38.7976554052008,-77.0030159732622,,,,
Fairfax Wal-Mart #2015/Subway #35937,,13059 Fair Lakes Pkwy,,Fairfax,VA,22033,US,703-449-0480,38.8582651859654,-77.3946153824631,,,,
George Mason University - Sodexo,,Johnson Center 4400 University Drive,,Fairfax,VA,22030,US,703-993-6038,38.83503,-77.31076,,,,
Springfield Town Center 1 - 2nd Floor,,6745Springfield Mall,Upper Level,Springfield,VA,22150,US,703-313-9590,38.7723650787402,-77.1764561811024,,,,
Columbiana Centre,,100 Columbiana Circle,Suite 1470,Columbia,SC,29212,US,803-749-3651,34.07458,-81.15546,,,,
Lake City Wal-Mart #767,,2767 W US Hwy 90,,Lake City,FL,32055,US,(386) 466-0960,30.1798882488851,-82.6771746547746,,,,
Gulf View Square Mall,,9409 US Highway 19,,Port Richey,FL,34668,US,727-847-9644,28.293839,-82.7094056,,,,
Northlake Mall II,,6801 Northlake Mall Dr,,Charlotte,NC,28027,US,704-596-1415,35.3498151470588,-80.8501561764706,,,,
Northlake Mall,,6801 Northlake Mall Dr,Space 188,Charlotte,NC,28216,US,704-598-9322,35.3498151470588,-80.8501561764706,,,,
Four Seasons Town Centre,,"410 Four Seasons Town Centre, #227A",,Greensboro,NC,27427,US,336-315-7686,36.0387867953924,-79.8372826458644,,,,
Springfield Town Center 2 - Lower Lvl,,6540 Springfield Mall,Lower Level,Springfield,VA,22150,US,(703) 313-6111,38.771885655217,-77.1751563174331,,,,
Laurel Junction,,10912 County Seat Highway,,Laurel,DE,19956,US,,38.5716884931337,-75.5611263405266,,,,
St. Charles Towne Center,,5000 Rt 301 S,PO Box 6163,Waldorf,MD,20603,US,301-870-7332,38.62792,-76.9589,,,,
Potomac Mills 2 - Upper Lvl,,2700 Potomac Mills Cir,Ste 800,Woodbridge,VA,22191,US,703-492-9966,38.6451412230796,-77.2995593884602,,,,
Potomac Mills - Center Lvl,,2700 Potomac Mills Circle,Ste 168,Woodbridge,VA,22192,US,703-497-3127,38.6451412230796,-77.2995593884602,,,,
Potomac Mills III,,2700 Potomac Mills Cir,,Woodbridge,VA,22192,US,571-408-4347,38.6451412230796,-77.2995593884602,,,,
Charlotte Premium Outlets,,"5506 New Fashion Way, Ste 325",,Charlotte,NC,28278,US,(704) 504-9002,35.171889,-80.9714935,,,,
Carowinds Amusement Park,,14523 Carowinds Blvd,,Charlotte,NC,28273,US,,35.1008854699238,-80.9499326988822,,,,
Charlotte Airport - Atrium,,5501 R C Josh Birmingham Parkway,,Charlotte,NC,28208,US,,35.2290370170126,-80.9419486553249,,,,
Carolina Place,,11025 Carolina Place Pkwy,Suite D30,Pineville,NC,28134,US,704-752-9380,35.0828484934593,-80.8796660815591,,,,
Southpark Mall,,"4400 Sharon Rd, Ste G40",,Charlotte,NC,28211,US,704-364-9933,35.15124,-80.82862,,,,
Columbia Place,,7201 Two Notch Rd,Unit 742,Columbia,SC,29223,US,803-736-0593,34.06428,-80.9578,,,,
Lancaster Wal-Mart #1030,,805 Hwy 9 Bypass West,,Lancaster,SC,29720,US,,34.7359268332533,-80.7839824591536,,,,
Concord Mills,,8111 Concord Mills Blvd  Ste 745,,Concord,NC,28027,US,704-979-1202,35.371461135009,-80.7184418590305,,,,
Westfield at Countryside,,27001 US Hwy 19 N,Suite 2008,Clearwater,FL,33761,US,727-791-3922,28.0178096116505,-82.7376247572816,,,,
Westfield Countryside 2,,27001 US Highway 19 North,Ste 2096,Clearwater,FL,33761,US,727-796-7151,28.0180364,-82.734328,,,,
Pilot #1047 - Jacksonville,,4075 Jones Branch Rd,,Jacksonville,FL,32219,US,,30.3688,-81.76367,,,,
Paddock Mall,,3100 SW College Rd,,Ocala,FL,34474,US,352-237-8168,29.1601837322477,-82.1749414102012,,,,
Orange Park Mall,,1910 Wells Rd K-104,,Orange Park,FL,32073,US,904-278-8040,30.1868520689655,-81.7360837931035,,,,
Orange Park Mall II,,1910 Wells Road,,Orange Park,FL,32073,US,904-278-8040,30.1868520689655,-81.7360837931035,,,,
Tyrone Square,,6901 22nd Ave North,,St. Petersburg,FL,33710-3943,US,727-347-1531,27.7918,-82.73372,,,,
Tyrone Square 2,,6901 22nd Ave N Ofc,,St. Petersburg,FL,33710-3996,US,727-343-2999,27.7918,-82.73372,,,,
Westfield Citrus Park,,8094 Citrus Park Twn Ctr Mall,,Tampa,FL,33625,US,813-926-7651,28.0668109547739,-82.5763152261307,,,,
Concord Mills II,,8111 Concord Mills Blvd,,Concord,NC,28027,US,(704) 979-7912,35.371461135009,-80.7184418590305,,,,
Fredericksburg Wal-Mart #4258/Subway #46937,,11 Village Pkwy,,Fredericksburg,VA,22460,US,(540) 286-2550,38.3712989212751,-77.5299303710654,,,,
Spotsylvania Towne Centre 2,,137 Spotsylvania Mall - Unit 210,,Fredericksburg,VA,22407,US,540-786-1115,38.2940100125886,-77.5141557966165,,,,
Centre at Salisbury,,2300 N Salisbury Blvd,Store #K12,Salisbury,MD,21801,US,410-334-6262,38.40219,-75.56972,,,,
Centre at Salisbury Cafe,,"2300 N Salisbury Blvd, H111",,Salisbury,MD,21801,US,(443) 736-4473,38.40219,-75.56972,,,,
Ocean City Boardwalk,,901 North Atlantic Avenue - Boardwalk,,Ocean City,MD,21842,US,410-289-1040,38.33946,-75.08058,,,,
Ocean City #2,,10 S. Atlantic Ave.,,Ocean City,MD,21842,US,,38.3313,-75.0849475,,,,
Spotsylvania Towne Centre,,345 Spotsylvania Mall,,Fredericksburg,VA,22407,US,540-786-1095,38.2935284365765,-77.5110553097296,,,,
Tanger Outlets Savannah,,Pooler Parkway & I-95,,Savannah,GA,31401,US,,32.1461188,-81.2409647,,,,
Savannah Wal-Mart #635,,6000 Ogeechee Road,,Savannah,GA,31419,US,,31.99749,-81.25908,,,,
Oglethorpe Mall,,7804 Abercorn Extension,,Savannah,GA,31406,US,912-355-2217,32.0059705798227,-81.1162880744377,,,,
Tanger Outlets at Hilton Hill II,,1256 Fording Island Road,,Bluffton,SC,29910,US,,32.2478273132999,-80.8330680924996,,,,
Santa Fe Mall,,Vasco de Quiroga #3800,,Mexico D:F,,5109,MX,,19.3533072,-99.2818934,,,,
Westfield Citrus Park 2,,9100 Citrus Park Town Center Mall,,Tampa,FL,33625,US,813-920-5090,28.06622,-82.57652,,,,
Tampa Int'l Airport,,Store # AUA-A-2-2751,4100 George J Bean Pkwy,Tampa,FL,33607,US,,27.9717047539639,-82.5387538745683,,,,
International Plaza,,2223 N Westshore Blvd,K102,Tampa,FL,33607,US,813-877-8035,27.9610504556887,-82.5238798481038,,,,
Regency Square Mall,,9501 Arlington Expy Spc 290,,Jacksonville,FL,32225,US,904-722-3969,30.32167,-81.55079,,,,
Westshore Plaza,,305 Westshore Plaza,,Tampa,FL,33609,US,813-286-8960,27.94487,-82.5273823076923,,,,
University Square Mall (2),,2133 University Square Mall,,Tampa,FL,33612,US,813-977-4220,28.05629,-82.4371374289376,,,,
Tampa Wal-Mart #2627,,2701 E Fletcher Ave.,,Tampa,FL,33612,US,,28.0692,-82.42952,,,,
The Avenues 2,,10300 Southside Blvd,,Jacksonville,FL,32256,US,904-538-9215,30.1821576271186,-81.5517830508474,,,,
Tanger Outlets at Mebane,,4000 Arrowhead Blvd,Ste 370,Mebane,NC,27302,US,919-304-5555,36.07451,-79.26864,,,,
Kings Dominion,,16000 Theme Park Way,,Doswell,VA,23047,US,,37.8410095387833,-77.4502136492674,,,,
Ashland Wal-mart #2795/Subway #49032,,145 Hill Carter Pkwy,,Ashland,VA,23005,US,(804) 798-5366,37.7514004429037,-77.4615903237025,,,,
Virginia Center Commons,,"10101 Brook Rd, KI11",,Glen Allen,VA,23059,US,804-262-8841,37.6742,-77.45966,,,,
Short Pump Town Center,,11800 W Broad St,K-3,Richmond,VA,23233,US,804-364-9660,37.6543,-77.6233,,,,
Tanger Outlets at Hilton Head 1,,1414 Fording Island Road,,Bluffton,SC,29910,US,843-837-8080,32.2409741740992,-80.8192245308591,,,,
St. John's Town Center,,10337 Midtown Pkwy,,Jacksonville,FL,32246,US,904-928-3300,30.2582536390937,-81.5255809060196,,,,
Tampa Premium Outlets,,I-75 and Highway 56,,Wesley Chapel,FL,33543,US,(813) 949-7402,28.1951766,-82.3333469,,,,
The Avenues,,10300 Southside Blvd,Space 1224,Jacksonville,FL,32256,US,904-538-9424,30.1821576271186,-81.5517830508474,,,,
Westfield Brandon Town Center 2,,409 Brandon Town Center,,Brandon,FL,33511,US,813-661-1811,27.93171,-82.32346,,,,
Westfield Brandon Town Center,,459 Brandon Town Ctr,,Brandon,FL,33511,US,813-654-4514,27.93091,-82.3229575,,,,
Ellenton Premium Outlets,,5371 Factory Shops Blvd,Ste 590,Ellenton,FL,34222,US,941-723-6612,27.5349153768844,-82.5066264321608,,,,
Chesterfield Towne Center,,"11500 Midlothian Tpke, Spc 470",,North Chesterfield,VA,23235,US,804-378-5071,37.50554,-77.60894,,,,
Midlothian Wal-Mart #2808/Subway #35707,,12200 Chattanooga Plaza,,Midlothian,VA,23112,US,(804) 744-1200,37.43193,-77.61957,,,,
Williamsburg Premium Outlet,,5645 Suite 100A,Richmond Rd,Williamsburg,VA,23188,US,757-220-4250,37.3096,-76.73073,,,,
Chesterfield Wal-Mart #4476/Subway #47183,,14501 Hancock Village St,,Chesterfield,VA,23832,US,,37.4022616604555,-77.6760854244307,,,,
Southpark Mall,,230 Southpark Cir,,Colonial Heights,VA,23834,US,(804) 526-0120,37.2518013323082,-77.3945666466818,,,,
Yorktown Wal-Mart #3265,,2601 Geo. Washington Mem. Hwy,,Yorktown,VA,23693,US,(757) 867-7935,37.119484,-76.4593683,,,,
Patrick Henry Mall,,12300 Jefferson Ave,Spc 716,Newport News,VA,23602,US,757-881-9083,37.11255,-76.49947,,,,
Northwoods Mall,,2150 Northwoods Blvd,Unit C20,Charleston,SC,29406,US,843-569-6300,32.94409,-80.04166,,,,
Pilot #1082 - Charleston,,5714 North Rhett Ave,,North Charleston,SC,29406,US,,32.90273,-79.98569,,,,
Cross Creek Mall,,419 Cross Creek Mall,,Fayetteville,NC,28303,US,,35.073592502011,-78.9634999977477,,,,
Westfield Sarasota,,8201 S Tamiami Trail,Unit 9152W,Sarasota,FL,34238,US,941-924-6713,27.23332,-82.49758,,,,
Mall at University Town Center,,Auntie Anne's - Unit 109,140 University Town Center Dr,Sarasota,FL,34243,US,(941) 702-9918,27.2357934,-82.4937796,,,,
Sarasota Wal-Mart #2459,,4381 Cattlemen Road,,Sarasota,FL,34233,US,(941) 371-5566,27.2918166287238,-82.4519693973888,,,,
Lakeland Square Mall,,"3800 US Hwy 98 N, Spc 706",,Lakeland,FL,33809,US,863-816-7606,28.09174,-81.97401,,,,
Clermont Wal-Mart #2695,,1450 Johns Lake Rd,,Clermont,FL,34711,US,,28.52768,-81.73033,,,,
Clermont Wal-Mart #5299,,550 US Highway 27,,Clermont,FL,34714,US,,28.3551328,-81.6726164,,,,
Norfolk Navy Exchange,,1580 Mall Drive,Building No (CD-13),Norfolk,VA,23511,US,,36.9418342857143,-76.3112671428571,,,,
Norfolk Wal-Mart #5488/Subway #41029,,7530 Tidewater Dr,,Norfolk,VA,23505,US,(757) 531-0606,36.91335,-76.25492,,,,
MacArthur Center,,300 Monticello Ave,,Norfolk,VA,23510,US,757-624-9797,36.84952,-76.28962,,,,
Portsmouth Naval Medical Center,,620 John Paul Jones Cir,,Portsmouth,VA,23708,US,,36.8435009575583,-76.3033426727469,,,,
The Streets at Southpoint,,6910 Fayetteville Rd  Spc 226,,Durham,NC,27713,US,919-248-0894,35.9034665334611,-78.9388336888144,,,,
Fayetteville Wal-Mart #1238,,1550 Skibo Rd,,Fayetteville,NC,28303,US,(910) 867-4261,35.07999,-78.95591,,,,
Tanger Outlets Myrtle Beach Hwy 501,,"4635 Factory Stores Blvd, Ste D115",,Myrtle Beach,SC,29579,US,,33.7514999961168,-78.9601846354522,,,,
Tanger Outlets Myrtle Beach Hwy 501 #2,,Highway 501,4635 Factory Stores Blvd,Myrtle Beach,SC,29579,US,,33.72996,-78.94088,,,,
Ocoee Wal-Mart #942,,10500 W Colonial Dr,,Ocoee,FL,34761,US,,28.5516932307692,-81.5326093846154,,,,
West Oaks Mall,,9401 West Colonial Dr  Ste 644,,Ocoee,FL,34761,US,407-522-7044,28.55188,-81.51463,,,,
Seminole Towne Center,,278 Towne Center Cir,,Sanford,FL,32771,US,407-328-5088,28.80355,-81.34097,,,,
Universal Studios Florida Theme Park,,1000 Universal Studios Plaza,,Orlando,FL,32819,US,,28.47773,-81.47485,,,,
Universal Islands of Adventure Theme Park,,1000 Universal Studios Plaza,,Orlando,FL,32819,US,,28.47773,-81.47485,,,,
Altamonte Mall,,451 E Altamonte Dr Ste 1441,,Altamonte Springs,FL,32701,US,407-332-6400,28.6637019671493,-81.3787773281176,,,,
Universal CityWalk,,6000 Universal Blvd,,Orlando,FL,32819,US,,28.47634,-81.4625,,,,
Orlando Premium Outlets,,8200 Vineland Ave Ste 1233,,Orlando,FL,32821,US,407-238-7774,28.3859492789634,-81.496157648933,,,,
Old Town Kissimmee,,5770 West Irlo Bronson Memorial Highway,Suite #186,Kissimmee,FL,34746,US,(407) 507-2690,28.33246,-81.5161433333333,,,,
Orlando Premium Outlets I-DR,,4969 International Dr K101,,Orlando,FL,32819-6219,US,407-351-1575,28.474434480735,-81.4492462918056,,,,
Ormond Beach Wal-Mart #613,,1521 W Granada Blvd,,Ormond Beach,FL,32174,US,,29.25783,-81.11311,,,,
Kirkwood Mall,,606 Kirkwood Mall,,Bismarck,ND,58504,US,701-258-6114,46.7980795986622,-100.783867257525,,,,
Tanger Outlets at Daytona Beach,,SE Quadrant of I-95 and LPGA Blvd,,Daytona Beach,FL,32114,US,,29.2206525,-81.1013161,,,,
Port Charlotte Mall,,1441 Tamiami Trl,,Port Charlotte,FL,33948,US,941-629-8900,27.0115,-82.14334,,,,
Florida Mall 2 - Center Court,,8001 S Orange Blossom Tr,,Orlando,FL,32809,US,407-852-6208,28.44983,-81.40083,,,,
Florida Mall 3,,8001 S Orange Blossom Trail,,Orlando,FL,32809,US,407-855-6400,28.44983,-81.40083,,,,
Florida Mall,,8001 S Orange Blossom Tr,Ste K101,Orlando,FL,32809,US,407-859-1476,28.44983,-81.40083,,,,
Orlando Fashion Square,,"3201 E Colonial Dr, Ste K-8",,Orlando,FL,32803,US,407-895-4486,28.55346,-81.3409735348837,,,,
Port Charlotte Wal-Mart #721,,19100 Murdock Circle,,Port Charlotte,FL,33948,US,(941) 613-0050,27.0124883891968,-82.1407844512053,,,,
Volusia Mall,,1700 W Int'l Speedway Blvd,,Daytona,FL,32114,US,386-238-0956,29.195698,-81.063029,,,,
Oviedo Marketplace,,1185 Oviedo Market Place Blvd,,Oviedo,FL,32765,US,407-366-7400,28.6629205,-81.2347044,,,,
Port Orange Wal-Mart #582,,1590 Dunlawton Ave,,Port Orange,FL,32127,US,,29.11781,-81.02152,,,,
Poinciana/Kissimmee Wal-Mart #5250,,904 Cypress Pkwy,,Kissimmee,FL,34759,US,,28.14702,-81.44827,,,,
Orlando Airport - Pre-Security Food Court,,One Jeff Fuqua Blvd,,Orlando,FL,32827,US,(407) 851-1334,28.4310857,-81.3080758,,,,
St Cloud Wal-Mart #1086,,4400 13th St,,St Cloud,FL,34769,US,,28.2536292064395,-81.3167090698997,,,,
Canoe Creek Service Plaza,,Attn:  Auntie Anne's,MM 229 Florida Turnpike,St. Cloud,FL,34769,US,,28.2568344,-81.2811845,,,,
Dakota Square,,2400 10th Street SW,,Minot,ND,58701,US,,48.20818,-101.30673,,,,
Oceana Naval Air Station,,1750 Tomcat Blvd,,Virginia Beach,VA,23460,US,(757) 428-0716,36.8115051724138,-76.0249617241379,,,,
Lynnhaven Mall,,"701 Lynnhaven Pkwy, Spc E-16",,Virginia Beach,VA,23452,US,757-486-2771,36.82004625,-76.0670075,,,,
Greenbrier Mall,,1401 Greenbrier Parkway,,Chesapeake,VA,23320,US,757-424-0711,36.7764579411765,-76.2301847058824,,,,
Suffolk Wal-Mart #1687,,1200 N Main St,,Suffolk,VA,23434,US,(757) 923-1086,36.7464502163514,-76.5831555612696,,,,
Greenville Wal-Mart #1379,,210 Greenville Blvd SW,,Greenville,NC,27834,US,,35.574407568461,-77.3875126943643,,,,
Triangle Town Center,,5959 Triangle Town Blvd #EU2133,,Raleigh,NC,27616,US,919-792-2548,35.8666438461538,-78.5714707692308,,,,
Triangle Town Center II,,5959 Triangle Town Blvd.,,Raleigh,NC,27616,US,(919) 449-0072,35.8666438461538,-78.5714707692308,,,,
Carolina Premium Outlets,,1025 Outlet Center Dr,,Smithfield,NC,27577,US,,35.5078538,-78.3145947,,,,
Wilmington Wal-Mart #1392,,5226 Sigmon Rd,,Wilmington,NC,28403,US,910-392-8299,34.2437483506929,-77.8759271287439,,,,
Independence Mall,,3500 Oleander Dr,,Wilmington,NC,28403,US,910-395-5285,34.21676,-77.90576,,,,
Tanger Outlets at Myrtle Beach Hwy 17 II,,10835 Kings Road,,Myrtle Beach,SC,29572,US,843-213-0435,33.78481,-78.77037,,,,
Tanger Outlets Myrtle Beach Hwy 17,,"10835 Kings Rd, Ste 280",,Myrtle Beach,SC,29572,US,843-213-0435,33.78481,-78.77037,,,,
Barefoot Landing,,Highway 17 and 48th Avenue South,,North Myrtle Beach,SC,29582,US,843-272-2663,33.7343923,-78.8608083,,,,
Broadway At The Beach 2,,1306 Celebrity Circle,,Myrtle Beach,SC,29577,US,,33.7194199061964,-78.8817019402604,,,,
Broadway At The Beach,,1306 Celebrity Circle,,Myrtle Beach,SC,29577,US,843-916-8589,33.7194199061964,-78.8817019402604,,,,
Broadway At The Beach,,1306 Celebrity Circle,,Myrtle Beach,SC,29577,US,,33.7194199061964,-78.8817019402604,,,,
Myrtle Beach Wal-Mart #2712,,541 Seaboard St,,Myrtle Beach,SC,29577,US,,33.70508,-78.91202,,,,
Coastal Grand,,2000 Coastal Grand Cir,Space 135,Myrtle Beach,SC,29577,US,843-626-0140,33.7006768634866,-78.9217642024861,,,,
Bayside Marketplace,,401 Biscayne Boulevard,,Miami,FL,33132,US,,25.77818,-80.18803,,,,
Dadeland Mall,,7535 N Kendall Dr  Spc K133,,Miami,FL,33156,US,786-268-2212,25.68875,-80.31293,,,,
Westland Mall,,1675 W 49th Street,,Hialeah,FL,33012,US,305-556-3090,25.8666694921247,-80.3170950176772,,,,
Miami International Mall,,1455 NW 107th Ave,Rm 596,Miami,FL,33172,US,305-392-9169,25.78712,-80.36866,,,,
Dolphin Mall,,11401 NW 12th Street,,Miami,FL,33172,US,,25.7827650251256,-80.3768280904522,,,,
Dolphin Mall II,,11401 NW 12th Street,,Miami,FL,33172,US,,25.7827650251256,-80.3768280904522,,,,
Aventura Mall,,"19575 Biscayne Blvd, Ste 393",,Aventura,FL,33180,US,305-936-8066,25.956672,-80.14678,,,,
Hollywood Wal-Mart #3163/Subway #67104,,Attn:  Subway #67104 / Auntie Anne's FL246,Inside Hollywood Wal-Mart,Hollywood,FL,33023,US,,25.98816,-80.2127,,,,
Miramar Wal-Mart #1511/Subway #42977,,1800 University Dr,,Miramar,FL,33025,US,,25.9934226168224,-80.2477684112149,,,,
Pembroke Lakes Mall,,11401 Pines Blvd Store 418,,Pembroke Pines,FL,33026,US,954-437-6661,26.00784,-80.30025,,,,
Southland Mall,,20505 S Dixie Hwy,,Miami,FL,33189,US,305-255-4900,25.57632703125,-80.37167765625,,,,
Davie Wal-Mart #2987/Subway #56659,,4301 S University Drive,,Davie,FL,33328,US,954-424-3773,26.066896,-80.2524042222222,,,,
Fort Lauderdale Airport - Terminal 1,,100 Terminal Dr,,Fort Lauderdale,FL,33315,US,,26.0722765517241,-80.143115862069,,,,
Cooper City Wal-Mart #1845/Subway #35010,,4700 South Flamingo Road,,Cooper City,FL,33330,US,954-306-2173,26.06235,-80.31331,,,,
Discovery Center Museum Subway #26797,,401 South West 2nd Street,,Fort Lauderdale,FL,33312,US,954-779-1102,26.120718,-80.148005,,,,
Westfield Broward,,8000 West Broward Blvd,,Plantation,FL,33388,US,954-474-8848,26.12074,-80.254615,,,,
Galleria At Ft Lauderdale,,2414 E Sunrise Blvd,Auntie Anne's Suite 2008A,Ft Lauderdale,FL,33304,US,(954) 564-8407,26.1378171428571,-80.1145685714286,,,,
Sunrise Wal-Mart #2151/Subway #55139,,12555 W Sunrise Blvd,,Sunrise,FL,33323,US,954-845-1133,26.1456530324978,-80.317889330463,,,,
Lauderdale Lakes Wal-Mart #3625/Subway #36363,,3001 N State Rd 7,,Lauderdale Lakes,FL,33313,US,954-535-2263,26.1623922,-80.2054311,,,,
Sawgrass Mills,,12801 W Sunrise Blvd,Space 735,Sunrise,FL,33323,US,954-845-0813,26.1450252081012,-80.3244699559492,,,,
Sawgrass Mills 2 - Food Ct,,12801 W Sunrise Blvd,Space 205,Sunrise,FL,33323,US,954-835-0550,26.1450252081012,-80.3244699559492,,,,
Coral Ridge Mall Subway #57737,,3200 N Federal Hwy,,Fort Lauderdale,FL,33306,US,,26.1677685185185,-80.1172088888889,,,,
North Lauderdale Wal-Mart #1851/Subway #35008,,7900 W McNab Rd,,North Lauderdale,FL,33068,US,954-721-8851,26.20827,-80.2330297014925,,,,
Pompano Beach Wal-Mart #2962/Subway #47874,,2300 W Atlantic Blvd,,Pompano Beach,FL,33069,US,954-970-3500,26.23121,-80.15403,,,,
Coral Square,,9469 W Atlantic Blvd,,Coral Springs,FL,33071,US,954-753-9444,26.2398046193957,-80.2519067705578,,,,
Coconut Creek Wal-Mart #1916/Subway #35011,,5571 Hillsboro Blvd,,Coconut Creek,FL,33073,US,954-570-5520,26.31763,-80.2002076470588,,,,
Town Center At Boca Raton,,167 Town Center,,Boca Raton,FL,33431,US,561-394-6631,26.3633235809857,-80.1333668227997,,,,
Town Center at Boca Raton 2,,6000 Glades Rd,Suite 100,Boca Raton,FL,33431,US,,26.3686,-80.13722,,,,
Boynton Beach Mall,,801 N Congress Ave  Sp 779,,Boynton Beach,FL,33426,US,561-732-5359,26.5350451677852,-80.0907101342282,,,,
Palm Springs Wal-Mart #5882/Subway #54167,,2765 10th Ave N,,Palm Springs,FL,33461,US,561-966-8606,26.628409375,-80.0843725,,,,
Mall at Wellington Green II,,10300 W. Forest Hill Blvd.,,Wellington,FL,33414,US,,26.6509954143173,-80.207753204106,,,,
Mall at Wellington Green,,10300 W Forest Hill Blvd,Space #107A,Wellington,FL,33414,US,561-798-1740,26.6509954143173,-80.207753204106,,,,
Palm Beach Outlets Cafe,,1801 Palm Beach Lakes Blvd,,West Palm Beach,FL,33401,US,561-530-7123,26.72172,-80.08731,,,,
Treasure Coast Square,,3462 NW Federal Hwy,,Jensen Beach,FL,34957,US,772-692-3100,27.2471663981785,-80.2732840217122,,,,
Coastland Center,,1900 Tamiami Trail North,,Naples,FL,34102,US,(239) 263-4535,26.170478995693,-81.7994720711209,,,,
Port St. Lucie/Fort Pierce Travel Plaza,,101 Florida Way,,Port St. Lucie,FL,34952,US,,27.32133,-80.30821,,,,
Miromar Outlet Center,,#112 10801 Corkscrew Rd,,Estero,FL,33928,US,239-949-0833,26.43518,-81.7723,,,,
Shops At Coconut Pointe,,"23147 Fashion Dr, Ksk #102",,Estero,FL,33928,US,239-947-2302,26.4026911202175,-81.8068913287004,,,,
Edison Mall,,4125 Cleveland Ave  Unit 57,,Ft Myers,FL,33901,US,239-275-6333,26.60208,-81.87177,,,,
Vero Beach Wal-Mart #931/Subway #35012,,5555 20th St,,Vero Beach,FL,32966,US,772-778-4866,27.6387110204082,-80.443576122449,,,,
Indian River Mall,,"6200 20th Str, Spc K1-06",,Vero Beach,FL,32966,US,772-562-0805,27.6391289041096,-80.4542046575342,,,,
419 Green Street,,419 Green Street,,Key West,FL,33040,US,,24.55878,-81.80566,,,,
Melbourne Square Mall,,1700 W New Haven Ave,,Melbourne,FL,32904,US,321-768-7666,28.07894,-80.64912,,,,
Merritt Square Mall,,777 E Merritt Island Csway,,Merritt Island,FL,32952,US,321-452-7728,28.3571,-80.68571,,,,
Mall at Marathon,,Marathon and Robinson Roads,,Nassau,,,BS,,25.0486967,-77.3273579,,,,
Donald Sangster Int'l Airport - East Concourse,,East Concourse,,Montego Bay,,,JM,,18.4710715,-77.9037416,,,,
Donald Sangster Int'l Airport #2 - West Concourse,,West Concourse,,Montego Bay,,,JM,,18.4541834,-77.8881741,,,,
City Mall TGU,,Comunidad Economica Europes Boulevar,in front of Toncontin Airport,Tegucigalpa,,,HN,,14.086922,-87.208908,,,,
Plaza del Norte,,PR2 and PR493,,Hatillo,,,PR,,18.480209,-66.77098,,,,
Ala Moana Center,,1450 Ala Moana Blvd.,Space #1107 - Inline,Honolulu,HI,96814,US,,21.2894259183673,-157.842793265306,,,,
Pearlridge Center I (Downtown),,"98-1005 Moanalua Rd, Ste 2402",,Aiea,HI,96701,US,808-488-2555,21.3863527272727,-157.941791818182,,,,
Pearlridge Center II (Uptown),,"98-1005 Moanalua Rd, Ste #150A",,Aiea,HI,96701,US,808-488-1777,21.3863527272727,-157.941791818182,,,,
Ka Makana Ali?i Ka Makana Ali,,91-5431 Kapolei Pkwy,,Kapolei,HI,96707,US,,21.3356953842942,-158.050707177667,,,,
Prince Kuhio Plaza,,"111 E Puainako Str, Spc #432",,Hilo,HI,96720,US,808-959-7634,19.6952638095238,-155.063881904762,,,,
Arkadia Shopping Center,,Boulevard Los Proceres,"8 Calle 26-21, Zona 10",Guatemala City,,,GT,,14.5907687,-90.507632,,,,
