store_name,store_number,address,address2,city,state,zip_code,country,phone_number,latitude,longitude,store_hours,store_type,other_fields,coming_soon
Daylight Donuts,,360 Highway 78 West,,Jasper,AL,35501,United States,205-221-9900,33.8486913,-87.2691978,"Mon-Fri 4:30 a.m.-4:30 p.m. ,  Sat-Sun 5:30 a.m.-4:30 p.m.",,,0
Daylight Donuts,,705 Martin Street North,,Pell City,AL,35128,United States,205-338-8700,33.5207475,-86.2980302,"Mon-Sat 5 a.m. -6:30 p.m. ,  Sun 6 a.m. -5 p.m.",,,0
Daylight Donuts,,783 Airport Drive,,Alexander City,AL,35010,United States,256-392-3850,32.920716,-85.9497517,,,,0
YB's Daylight Donuts,,5291 Valleydale Road,Suite 141,Birmingham,AL,35242,United States,205-981-3337,33.4155431,-86.6989912,Tue-Sun 6 a.m.-1 p.m.,,,0
Daylight Donuts,,508 A Glenn Blvd. SW,,Fort Payne,AL,35967,United States,256-465-5003,34.4361249,-85.7394032,"Mon-Sat 5 a.m. -5 p.m. ,  Sun 6 a.m. -1 p.m.",,,0
Daylight Donuts,,2038-2040 Gunter Avenue,,Guntersville,AL,35976,United States,256-486-9155,34.3377747,-86.3137728,"Mon-Thurs ,  5 a.m.-3 p.m. ,  Fri-at 5 a.m.-5 p.m. ,  Sun 6 a.m.-Noon",,,0
Daylight Donuts,,1124 N. Brindlee Mountain Pkwy.,,Arab,AL,35016,United States,256-506-4351,34.3352988,-86.5026331,"Weds- Fri 5 a.m.-11 a.m. ,  Sat 6 a.m.-noon ,  Sun 6:30-11",,,0
Daylight Donuts,,240 Highway 31,,Hartselle,AL,35640,United States,256-773-1118,34.4408141,-86.9404053,"Mon-Fri 4:30 a.m.-5 p.m. ,  Sat-Sun 5 a.m.-5 p.m.",,,0
Daylight Donuts,,600 Highland Avenue,,Selma,AL,36703,United States,334-327-6264,32.4307634,-87.0318519,"Mon-Fri 5 a.m.-6 p.m. ,  Sat 5 a.m.-4 p.m. ,  Sun 6 a.m.-1 p.m.",,,0
Daylight Donuts,,3810 Sullivan Street,,Madison,AL,35758,United States,256-542-3211,34.6812705,-86.7526021,,,,0
Daylight Donuts,,1400 Quintard Ave.,,Anniston,AL,36201,United States,256-238-8111,33.6303686,-85.8262184,5 a.m.-6:30p.m. Daily,,,0
Daylight Donuts,,1408 E Race,,Searcy,AR,72143,United States,408-771-9551,35.2506945,-91.721745,Tue-Sat 5 a.m.-Noon,,,0
Daylight Donuts,,214 W. Commercial,,Ozark,AR,72949,United States,417-485-2884,35.4868387,-93.8263921,"Tues-Fri 5 a.m. -4 p.m. ,  Sat 5 a.m. -Noon",,,0
Daylight Donuts,,155 Highway 412 East,,Siloam Springs,AR,72761,United States,479-524-5884,36.1732126,-94.5400392,Mon-Sat 4 a.m. -11 a.m.,,,0
Hwy. 62 Daylight Donuts,,447 W. Hudson Road,,Rogers,AR,72756,United States,479-621-6233,36.3555026,-94.1197711,Tuesday - Friday 4-11am,,,0
Daylight Donuts,,1304 N Church St,,Atkins,AR,72110,United States,479-641-1113,35.1528064,-92.7648473,"Mon-Sat 4 a.m.-11 a.m. ,  Sun 5 a.m.-11 a.m.",,,0
Daylight Donuts,,2030 Highway 74,,Elkins,AR,66801,United States,479-643-2050,36.029115,-94.022084,Tue-Sun 5:30 a.m.-11:00 a.m.,,,0
Daylight Donuts,,2576 W. Sun Ave.,,Springdale,AR,72762,United States,479-756-0234,36.1667766,-94.2407035,Tue-Sun 4 a.m.-11 a.m.,,,0
Daylight Donuts,,200 South Bloomington,,Lowell,AR,72745,United States,479-770-3688,36.2520816,-94.1374792,"Mon-Sat 5 a.m. -11 a.m. ,  Sun 6 a.m. -11 a.m.",,,0
Daylight Donuts,,3415 West Main,,Russellville,AR,72801,United States,479-880-9308,35.289216,-93.16603,Tues-Sun 4:30 a.m. -11:30 a.m.,,,0
Daylight Donuts,,3196 North College Avenue,,Fayetteville,AR,72703,United States,479-966-4800,36.1096169,-94.1451114,5 a.m.-11 a.m. Daily,,,0
Daylight Donuts,,7 Bruce Street,,Morrilton,AR,72110,United States,501-215-4894,35.170781,-92.7187526,5 a.m. -11 a.m. All Week,,,0
Daylight Donuts,,1520 By Pass Road,,Heber Springs,AR,72543,United States,501-362-2979,35.4979007,-91.9977598,4 a.m.-Noon Daily,,,0
Daylight Donuts,,301 Brooks Wood Rd.,,Sherwood,AR,72120,United States,501-392-6499,34.8314598,-92.1915557,5 a.m.-Noon Daily.,,,0
Daylight Donuts,,2220 Malvern Avenue,,Hot Springs,AR,71901,United States,501-624-3422,34.472986,-93.0236545,"Tues-Fri 6 a.m. -Noon ,  Sat-Sun 5:30 a.m.- 11 a.m.",,,0
Daylight Donuts,,101 W. Front Street,,Lonoke,AR,72086,United States,501-676-5577,34.783722,-91.900208,Mon-Sat 4:30 a.m. -11 a.m.,,,0
Daylight Donuts,,4030 John F. Kennedy Blvd,,North Little Rock,AR,72116,United States,501-753-7299,34.7916481,-92.2599167,Tue-Sun 5 a.m.-11 a.m.,,,0
70 West Daylight Donuts,,1331 Airport Road,,Hot Springs,AR,71913,United States,501-760-5890,34.4707355,-93.1277965,Wed-Sun 5 a.m. -11 a.m.,,,0
Daylight Donuts,,1800 Reynolds Road,,Bryant,AR,72022,United States,501-847-8877,34.6111304,-92.4941699,"Mo-Sat 5 a.m.-Noon ,  Sun 6 a.m.-Noon",,,0
Daylight Donuts,,7610 Geyer Springs Road,,Little Rock,AR,72209,United States,501-862-8700,34.68036,-92.344234,5 a.m.-2 p.m. Daily,,,0
Daylight Donuts,,2002 West Dewitt Henry,,Beebe,AR,72012,United States,501-882-3303,35.0699336,-91.9080018,Mon-Sat 5:30 a.m. - 11 a.m.,,,0
Daylight Donuts,,104 S. Pine,,Perryville,AR,72126,United States,501-889-1212,35.0041096,-92.8026267,,,,0
Daylight Donuts,,1102 West Main Street,,Jacksonville,AR,72076,United States,501-985-1002,34.8676715,-92.1215216,5 a.m. -11 a.m. Daily,,,0
Daylight Donuts,,12101 Highway 5,,Cabot,AR,72023,United States,501-988-5000,34.9761501,-92.072506,Mon-Sat 5 a.m.-11 a.m.,,,0
Daylight Donuts,,1202 Falls Blvd. N.,,Wynne,AR,72390,United States,870-208-9995,35.231461,-90.784829,"Summer Hours: Mon-Sat 4:30 a.m.-2 p.m. ,  Sun 5:30 a.m.-2 p.m.    Autumn Hours: 4 a.m.-5 p.m. Daily",,,0
Daylight Donuts,,"2000 Malcom Ave ,  #1 Village Mall",,Newport,AR,72112,United States,870-217-0405,35.6048018,-91.2817951,5 a.m.-1:00 p.m. Daily,,,0
Daylight Donuts,,105-A East 1st Street,,Crossett,AR,71635,United States,870-364-1788,33.1353302,-91.9603856,Mon-Sat 4:30 a.m.-11 a.m.,,,0
Daylight Donuts,,1624 North Main Street,,Harrison,AR,72601,United States,870-365-7771,36.2483857,-93.1187788,Tue-Sat 4 a.m.- 1 p.m.,,,0
Daylight Donuts,,148 Highway 463 South,,Trumann,AR,72472,United States,870-418-3000,35.6723363,-90.5191293,5 a.m.-2 p.m. Daily,,,0
Daylight Donuts,,803 Eureka Avenue,,Berryville,AR,72616,United States,870-423-3688,36.3671224,-93.5766155,,,,0
Daylight Donuts,,664 North Sebastian,,West Helena,AR,72390,United States,870-572-5552,34.5520375,-90.6495423,5 a.m.-3 p.m. Daily,,,0
Daylight Donuts,,216 E 2nd St,,Stuttgart,AR,72160,United States,870-672-1996,34.500935,-91.550416,,,,0
Daylight Donuts,,2860 I-55 Service Road,,Marion,AR,72364,United States,870-739-8783,35.2147665,-90.2073401,5 a.m.-Noon Daily,,,0
Daylight Donuts,,1303 East 35th Street,,Texarkana,AR,71854,United States,870-779-1178,33.456643,-94.0289114,4:30 a.m.-1:00 p.m. Daily,,,0
Daylight Donuts,,280 St. Louis Street,,Batesville,AR,72501,United States,870-793-2427,35.7765806,-91.6408394,"Mon-Fri 5 a.m.-11 a.m. ,  Sat 5 a.m.-Noon",,,0
Marty's 47th St. Daylight Donuts,,4701 Peoria Street,,Denver,CO,80239,United States,303-371-4686,39.7830602,-104.847761,"Mon-Fri 5 a.m.-1 p.m. ,  Sat-Sun 5 a.m.-Noon",,,0
Daylight Donuts & Cafe,,3924 E 120th Ave,,Thornton,CO,80233,United States,303-457-0403,39.9137163,-104.9416851,"Tue-Fri 5 a.m.-1 p.m. ,  Sat 5 a.m.-Noon",,,0
Daylight Donuts,,"1801 Hover St. ,  Ste. B",,Longmont,CO,80501,United States,303-651-2550,40.1901014,-105.1314138,"Mon-Fri 5 a.m.-Noon ,  Sat-Sun 5:30 a.m.-Noon",,,0
Daylight Donuts of Dacono,,821 Carbondale Drive,,Dacono,CO,80514,United States,303-833-2009,40.0871968,-104.931957,"Mon -Sat 5 a.m.-9 p.m. ,  Sun 7 a.m. -9 p.m.",,,0
Daylight Donuts,,109 S. Main Street,,Lamar,CO,81052,United States,719-336-7911,38.0887829,-102.6190827,Tues-Sat 5 a.m. -12:30 p.m.,,,0
Daylight Donuts,,114 Santa Fe,,La Junta,CO,81050,United States,719-383-0980,37.9873967,-103.5447548,5 a.m.-1 p.m.,,,0
Daylight Donuts,,3606 Morris Ave.,,Pueblo,CO,81008,United States,719-545-4644,38.3085356,-104.6301698,5 a.m.-1 p.m.,,,0
Daylight Donuts,,5883 Palmer Park Blvd,,Colorado Springs,CO,80915,United States,719-637-9024,38.8556568,-104.7183426,4 a.m. -Noon Daily,,,0
Daylight Donuts,,305 North Main Unit C,,Breckenridge,CO,80424,United States,970-453-2548,39.4852962,-106.0464566,6 a.m.-Noon Daily,,,0
Daylight Donuts,,409 Chestnut,,Sterling,CO,80751,United States,970-522-3199,40.6266662,-103.2091392,5 a.m. -Noon All Week,,,0
Daylight Donuts,,230 Lynwood Street,,Grand Junction,CO,81503,United States,970-628-1853,39.045266,-108.5375452,5 a.m.-2 p.m. Daily,,,0
Daylight Donuts,,1410 North Avenue,,Grand Junction,CO,81501,United States,970-628-4545,39.0776517,-108.5492052,"Mon-Sat 5 a.m.-2 p.m. ,  Sun 6 a.m.-2 p.m.",,,0
Daylight Donuts,,200 W. 8th Ave.,,Yuma,CO,80759,United States,970-848-0304,40.1185681,-102.7254602,"Mon-Fri 4:30 a.m.-1:30 p.m. ,  Sat 4:30 a.m.-11: 30 a.m.",,,0
Daylight Donuts,,509 Copper Road,,Copper Mountain,CO,80443,United States,970-968-3471,39.5024848,-106.154434,"Mon-Thurs 7 a.m.-5 p.m. ,  Fri-Sun 7 a.m.- 6 p.m.",,,0
Daylight Donuts,,700 W. 6th St.,,Pueblo,CO,81002,United States,719-543-7518,38.272152,-104.616905,,,,0
Daylight Donuts,,17002 Ayers Road,,Brooksville,FL,34604,United States,352-345-4855,28.4517701,-82.4517526,Tue-Sun 6 a.m. - 2 p.m.,,,0
Daylight Donuts,,3175 N. Inner Perimeter,,Valdosta,GA,31601,United States,229-244-6610,30.8811818,-83.2945635,5 a.m.-6 p.m. Daily,,,0
Daylight Donuts,,1305 Baytree Road,,Valdosta,GA,31602,United States,229-244-6610,30.8466,-83.3088,"Mon-Sat 5 a.m.-6 p.m. ,  Sun 6 a.m.-6 p.m.",,,0
Daylight Donuts,,541 Veterans Parkway N.,,Moultrie,GA,31768,United States,229-502-9902,31.1681199,-83.7615386,,,,0
Daylight Donuts,,1211 Russell Parkway,,Warner Robins,GA,31088,United States,478-293-1693,32.5939684,-83.6467671,Tues-Sun 5 a.m. -Noon,,,0
Daylight Donuts,,"455 S. Main ,  US 301",,Statesboro,GA,30458,United States,912-764-9536,32.433985,-81.785431,"Mon-Fri 5 a.m. -2 p.m. ,  Sat 5 a.m. -Noon",,,0
Daylight Donuts,,4100 Rice,,Lihue,HI,96766,United States,808-245-7414,21.969861,-159.360724,6 a.m.-11 a.m. Daily,,,0
Daylight Donuts,,3560 E. Court Street,,Iowa City,IA,52245,United States,319-339-0055,41.6570388,-91.481959,"Mon-Sat 5:30 a.m. -Noon ,  Sun 6:30 a.m. -Noon",,,0
Daylight Donuts,,1014 E. 14th Street,,Des Moines,IA,50316,United States,515-266-6057,41.5992924,-93.6004022,,,,0
Daylight Donuts,,502 North Ankeny Blvd.,,Ankeny,IA,50023,United States,515-964-2833,41.7359855,-93.6010977,Mon-Sat 5 a.m.-11 a.m.,,,0
Daylight Donuts,,6911 W. Fairview,,Boise,ID,83704,United States,208-258-7758,43.6192216,-116.267726,5 a.m.-5 p.m. Daily,,,0
Daylight Donuts,,1225 E. 17th Street,,Idaho Falls,ID,83404,United States,208-523-1250,43.4824427,-112.0114978,"Mon-Fri 5 a.m.-Noon ,  Sat 6 a.m.-Noon",,,0
Daylight Donuts,,4730 Broadway,,Quincy,IL,62301,United States,217-221-9351,39.9350357,-91.3393578,Mon-Sat 5a.m.-7p.m.,,,0
Daylight Donuts,,1837 Broadway,,Quincy,IL,62301,United States,217-224-3288,39.935865,-91.385535,"Mon-Sat 5a.m.-10p.m. ,  Sun 6a.m.-Noon",,,0
Daylight Donuts,,901 E. Southline Road,,Tuscola,IL,61953,United States,217-253-1000,39.7916145,-88.2756294,"Mon-Sat. 5 a.m. -5:30 p.m. ,  Sun. 5 a.m.-Noon",,,0
Daylight Donuts,,207 North Keller Drive,,Effingham,IL,62401,United States,217-342-4288,39.1235028,-88.5571738,Mon-Sat 5 a.m.-11 a.m.,,,0
Daylight Donuts,,320 West Main Street,,Olney,IL,62450,United States,618-395-1333,38.7310075,-88.0880285,6 a.m. -11:30 a.m. All Week,,,0
Daylight Donuts,,1285 N. State Road 135,,Greenwood,IN,46142,United States,317-882-9530,39.6347045,-86.156962,5 a.m.-Noon Daily,,,0
Druber's Daylight Donuts,,116 W. 6th Street,,Newton,KS,67114,United States,316-283-1206,38.0489953,-97.3459818,"Sun-Thurs 11:30 P.M-2:30 P.M. ,  FRI 11:00 P.M.-11:00 A.M. ,  Closed Sunday a.m..-",,,0
Daylight Donuts,,1243 West Central,,El Dorado,KS,67042,United States,316-321-0840,37.8171643,-96.8668984,"Tues-Fri 1:15 a.m. - 11 a.m. ,  Sat-Sun 1:15 a.m. - Noon",,,0
Daylight Donuts,,1500 E. 61st Street N.,,Park City,KS,67219,United States,316-500-8288,37.7963689,-97.3198554,"Tue-Fri 6 a.m.-2 p.m. ,  Sat-Sun 6 a.m.-Noon",,,0
Noah's Daylight Donuts,,868 E. Grand,,Haysville,KS,67060,United States,316-522-1211,37.5647706,-97.3416704,4 a.m. -11 a.m. All Week,,,0
Sugar Shak Daylight Donuts,,2121 N. Tyler,Suite 113,Wichita,KS,67212,United States,316-721-6272,37.7219135,-97.4464106,"Tue-SAt 5 a.m.-11 a.m. ,  Sun 6 a.m.-11 a.m.",,,0
Daylight Donuts,,910 Main Street,,Winfield,KS,67156,United States,620-221-1700,37.2398331,-96.9968271,Mon-Sat 5 a.m.-Noon,,,0
Daylight Donuts,,1514 South National,,Fort Scott,KS,66701,United States,620-223-5242,37.823857,-94.7073208,5 a.m. -1 p.m. All Week,,,0
Daylight Donuts,,912 W Wyatt Earp,,Dodge City,KS,67801,United States,620-227-2210,37.7535261,-100.0265851,Tues-Sat 4:30 a.m. - Noon,,,0
Daylight Donuts,,1102 S. Broadway,,Pittsburg,KS,66762,United States,620-231-0570,37.3982174,-94.705259,Mon-Sat 4 a.m.-11:30 a.m.,,,0
Daylight Donuts,,909 W. 11th Street,,Coffeyville,KS,67337,United States,620-251-7128,37.0330316,-95.6290475,Mon-Sat 4 a.m - 11:30 a.m.,,,0
Daylight Donuts,,201 E Kansas,,Garden City,KS,67846,United States,620-275-0633,37.975272,-100.8696539,Mon-Sat 4:30 a.m.-Noon,,,0
Daylight Donuts,,110 S. Washington,,Wellington,KS,67152,United States,620-326-2840,37.2653292,-97.3980133,Tue-Sat 4 .am.-Noon,,,0
Parham's Bakery & Daylight Donuts,,601 North Penn,,Independence,KS,37601,United States,620-331-1460,37.2291877,-95.707187,Mon-Sat 4 a.m. -Noon,,,0
Daylight Donuts,,1028 Commercial,,Emporia,KS,66801,United States,620-342-6844,38.4109475,-96.1797252,Tue-Sun 4:30- a.m.-11:30 a.m.,,,0
Daylight Donuts,,106 E. Santa Fe Trail,,Lakin,KS,67860,United States,620-355-7202,37.9452932,-101.2582928,Tue-Sat 5 a.m.-11 a.m.,,,0
Daylight Donuts,,202 S. Main Street,,Ulysses,KS,67880,United States,620-356-3993,37.5795838,-101.3580331,Mon-Sat 5 a.m. -Noon,,,0
Daylight Donuts,,1319 E. Street,,Iola,KS,66749,United States,620-363-5006,37.9227578,-95.3874287,5 a.m.-3 p.m. Daily,,,0
Daylight Donuts,,102 N. Main Street,,Syracuse,KS,67878,United States,620-384-7748,37.9809754,-101.7524464,Mon-Sat 4:30 a.m.-1:00 p.m.,,,0
Daylight Donuts,,2401 Main,,Parsons,KS,67357,United States,620-421-0640,37.3405557,-95.2722936,Mon-Fri 5 a.m. -11 a.m.,,,0
Daylight Donuts,,301 W. Maple,,Columbus,KS,66725,United States,620-429-1968,37.1708939,-94.8450458,Tues-Sat 5 a.m. - Noon,,,0
Daylight Donuts,,902 S Sante Fe,,Chanute,KS,66720,United States,620-431-4688,37.6720791,-95.4524473,Tues-Sat 5 a.m. - 10 a.m.,,,0
Daylight Donuts,,122 N. Main Street,,McPherson,KS,67460,United States,620-504-6013,38.370286,-97.666481,"Tue-Thur 5 a.m.-11 a.m. ,  Fri-Sat 5 a.m.-Noon",,,0
Daylight Donuts,,245 N. Main Street,,Kingman,KS,67068,United States,620-532-5361,37.6440759,-98.1134031,"Mon-Sat 4:30 a.m.-9 p.m. ,  Sun 6 a.m.-3 p.m.",,,0
Daylight Donuts,,208 W. Main Street,,Anthony,KS,67003,United States,620-542-3988,37.152181,-98.0315919,4 a.m.-11 a.m. Daily,,,0
Daylight Donuts,,1027 N. Kansas,,Liberal,KS,67901,United States,620-624-2052,37.0497102,-100.9222981,"Sun-Mon 5 a.m.-Noon ,  Tue-Sat 5 a.m.-4 p.m.",,,0
Daylight Donuts,,406 Grand Ave.,,Plains,KS,67869,United States,620-563-5988,37.2603935,-100.5899065,6 a.m. -11 a.m. All Week                                                                        (SATELLITE SHOP - 2204 N Broadway) 6:30a.m.-11a.m All Week,,,0
Daylight Donuts,,305 N. Main Street,,Hutchinson,KS,67502,United States,620-663-9999,38.0563506,-97.932233,5 a.m.- Noon Daily,,,0
Daylight Donuts,,310 S. Main Street,,Pratt,KS,67124,United States,620-672-2538,37.6435086,-98.7391623,Mon-Sat 5 a.m.-Noon,,,0
Daylight Donuts,,623 Main,,Kiowa,KS,67070,United States,620-825-4950,37.016981,-98.4863019,6:30 a.m.-10 a.m. Daily,,,0
Daylight Donuts,,111 S. Main,,Cimarron,KS,67835,United States,620-855-3131,37.8073367,-100.3482885,5 a.m. - 11:45 a.m. All Week,,,0
Daylight Donuts,,606 Main,,Scott City,KS,67871,United States,620-872-3038,38.4813355,-100.906869,Wed-Sat 5 a.m. -2 p.m.,,,0
Daylight Donuts,,1644 S. Main,,Ottawa,KS,66067,United States,785-242-8412,38.5908237,-95.2692707,Mon-Sat 4:30 a.m.-11 a.m.,,,0
Daylight Donuts,,4201 SW 21st Street,,Topeka,KS,66604,United States,785-272-6180,39.02914,-95.7280801,Open 24 hours!,,,0
Daylight Donuts,,520 S. Fifth,,Manhattan,KS,66502,United States,785-320-7733,39.174481,-96.564091,,,,0
Daylight Donuts,,1720 N. Washington,,Junction City,KS,66441,United States,785-375-4898,39.0404283,-96.8297194,,,,0
Daylight Donuts,,221 W. 2nd Street,,Minneapolis,KS,67467,United States,785-392-2968,39.1223342,-97.7073206,Mon-Sat 5 a.m. -11 a.m.,,,0
Daylight Donuts,,310 N. Franklin,,Colby,KS,67701,United States,785-460-3432,39.3961808,-101.0458204,Tue-Sat 6 a.m.-10 a.m.,,,0
Daylight Donuts,,113 E. 8th St,,Hays,KS,67601,United States,785-625-7016,38.8703903,-99.3309253,"Mon-Fri 4:30 a.m.-3 p.m. ,  Sat 4:40 a.m.-Noon",,,0
Daylight Donuts,,5999 SW 22nd Park Street,,Topeka,KS,66614,United States,785-861-8800,39.056154,-95.7052931,Tue-Sun 6:30-Noon,,,0
Daylight Donuts,,323 Elm Street,,Leavenworth,KS,66048,United States,913-250-6186,39.306397,-94.910158,5 a.m.-Noon Daily,,,0
Daylight Donuts,,113 4-H Road,,Lansing,KS,66043,United States,913-250-6368,39.2378418,-94.9038384,"Mon-Fri 5:30 a.m.-Noon ,  Sat-Sun 6 a.m.-Noon",,,0
Daylight Donuts,,714 Commercial,,Atchison,KS,66002,United States,913-367-1399,39.5616779,-95.1225756,"Tue-Fri 3 a.m.-Noon ,  Sat 2 a.m.-Noon ,  Sun 2 a.m.-11 a.m.",,,0
Daylight Donuts,,8736 Lackman Road,,Lenexa,KS,66219,United States,913-495-2529,38.969929,-94.7616074,"Tue-Fri 5 a.m.-11 a.m. ,  Sat-Sun 5 a.m.-Noon",,,0
Daylight Donuts,,204 N. Parker Street,,Olathe,KS,66061,United States,913-498-9445,38.8838618,-94.834478,"Mon-Fri 5:30 a.m.-Noon ,  Sat-Sun 6 a.m.-Noon",,,0
Daylight Donuts,,"619 East Front St. ,  A",,Bonner Springs,KS,66012,United States,913-667-3313,39.060252,-94.8763998,"Mon-Fri 5 a.m.-Noon ,  Sat-Sun 5 a.m.-1 p.m.",,,0
Daylight Donuts,,828 East Main Street,,Gardner,KS,66030,United States,913-884-8400,38.8116362,-94.9093019,"Tue-Fri 5:30 a.m.-11 a.m. ,  Sat-Sun 6 a.m.-Noon",,,0
Daylight Donuts,,2204 N. Broadway,,Pittsburg,KS,66762,United States,620-231-0578,37.4279003,-94.7045981,Mon-Sat 6 a.m.-11 a.m.,,,0
Daylight Donuts,,1931 Industrial Drive,,Ruston,LA,71270,United States,318-255-0041,32.5480268,-92.6134503,"Tue-Fri 5:30 a.m.-11:30 a.m. ,  Sat-Sun 6 a.m.-Noon",,,0
Daylight Donuts,,2575 Hazel St.,,Arcadia,LA,71001,United States,318-263-8780,32.5514554,-92.9189906,"Tue-Sat 5 a.m.-10:30 a.m. ,  Sat 5:30 a.m.-10 : 30 a.m.",,,0
Daylight Donuts,,5955 Cypress St.,,West Monroe,LA,71291,United States,318-397-3393,32.5150998,-92.1998726,Tues-Sun 5:30 a.m. -11 a.m.,,,0
The Batter's Box Daylight Donuts,,5010 Shreveport Highway,,Pineville,LA,71360,United States,318-641-1516,31.38878,-92.43582,5:30 a.m.-Noon Daily,,,0
Daylight Donuts,,984 Highway 80 East,,Calhoun,LA,71225,United States,318-644-5001,32.5124233,-92.347677,Weds-Sun 6 a.m.-10:30 a.m. Daily,,,0
Daylight Donuts,,828 E. Highway 60,,Monett,MO,65708,United States,417-235-5008,36.914693,-93.9138031,"Mon-Fri 4:30 a.m. -1 p.m. ,  Sat-Sun 5:30 a.m. -1 p.m.",,,0
Daylight Donuts,,431 S Garrison,,Carthage,MO,39051,United States,417-358-8020,37.175266,-94.314301,Mon-Sat 5 a.m.-8 p.m.,,,0
Daylight Donuts,,501 Coler,,Neosho,MO,64850,United States,417-451-2900,36.8730031,-94.3754911,Mon-Sat 5 a.m.-12:30 p.m.,,,0
College Station Daylight Donuts,,3929 E. 7th Street,Suite J,Duquesne,MO,64801,United States,417-208-4268,37.0852961,-94.4599275,5:30 a.m.-1 p.m. Daily,,,0
Daylight Donuts,,775 S. Monroe,,Lebanon,MO,65536,United States,417-532-6515,37.6740007,-92.6597819,"Mon-Fri 4 a.m.-Noon ,  Sat-Sun 4 a.m.-1 p.m.",,,0
Daylight Donuts,,2316 S. Main Street,,Joplin,MO,64804,United States,417-623-6204,37.0653178,-94.5146162,Mon-Sat 5 a.m.-3 p.m.,,,0
Randy's Donuts featuring Daylight Donuts,,1500 East Sunshine,,Springfield,MO,65804,United States,,37.181361,-93.268808,,,,1
Daylight Donuts,,420 N. Main Street,,Nixa,MO,65714,United States,417-725-5548,37.0486904,-93.2942808,,,,0
Daylight Donuts,,1044 Cherokee,,Seneca,MO,64865,United States,417-776-1110,36.8419373,-94.611212,"Mon-Fri 5 a.m. -5 p.m. ,  Sat 5 a.m. -1 p.m. ,  Sun 6:30 a.m. -Noon",,,0
Daylight Donuts,,2734-A N. Kansas Expressway,,Springfield,MO,65803,United States,417-777-6245,37.2476544,-93.310273,5 A.M.-Noon,,,0
Poppy's Daylight Donuts,,122 W. Main Street,,Anderson,MO,64831,United States,417-845-3688,36.6510259,-94.4455875,"Mon-Fri 6 a.m. - 11 a.m. ,  Sat 6 a.m. - Noon",,,0
Daylight Donuts,,1517 Truman Blvd,,Caruthersville,MO,63830,United States,573-333-4399,36.1825531,-89.6676716,Mon-Sat 5 a.m. - 2 p.m.,,,0
Daylight Donuts,,14 Valley Road,,Sunrise Beach,MO,65079,United States,573-374-0700,38.1758645,-92.7843553,Summer Hours: Thurs-Sun 6 a.m.-Noon,,,0
Daylight Donuts,,903 S. Main Street,,Sikeston,MO,63801,United States,573-472-9415,36.8712025,-89.5783976,Tue-Sun 5 a.m.- 8 p.m.,,,0
Daylight Donuts,,669-C N. Morley,,Moberly,MO,65272,United States,660-263-6453,39.4265961,-92.4337034,"Tues-Fri 4 a.m. -1 p.m ,  Sat-Sun 6 a.m. -1 p.m.",,,0
Daylight Donuts,,704-A Missouri,,Macon,MO,63552,United States,660-395-6453,39.729853,-92.46618,,,,0
Daylight Donuts,,W US Highway 69 & Main Street,,Bethany,MO,64424,United States,660-425-6999,40.2686129,-94.027739,"Mon-Thu 6 a.m. - 10 p.m. ,  Sat 6 a.m. - 11 p.m.",,,0
"Papa Jake's ,  featuring Daylight Donuts",,1200 W. 16th,,Sedalia,MO,65301,United States,660-826-6176,38.6980452,-93.2413528,Tue-Sun 4 a.m.-Noon,,,0
Clinton Daylight Donuts,,108 S. Main Street,,Clinton,MO,64735,United States,660-885-6745,38.3703661,-93.7761219,Mon-Sat 6 a.m.-11 a.m.,,,0
Daylight Donuts,,1713 South 7 Highway,,Blue Springs,MO,64014,United States,816-229-4200,39.0373327,-94.2715384,4:30 a.m. - 2 p.m. All Week,,,0
Daylight Donuts,,902 S. Commercial,,Harrisonville,MO,64701,United States,816-380-7919,38.649257,-94.357793,"Mon-Sat 5 a.m.-Noon ,  Sat-Sun 6 a.m.-Noon (Open Holidays!)",,,0
Daylight Donuts,,500 St. Louis Ave.,,Excelsior Springs,MO,64024,United States,816-630-4800,39.3395835,-94.2274573,"Mon-Fri 4 a.m.-Noon ,  Sat-Sun 5 a.m.-Noon",,,0
Daylight Donuts,,2309 Pass Road,,Gulfport,MS,39501,United States,228-731-3499,30.380302,-89.0908785,"Mon-Fri 5 a.m.-5 p.m. ,  Sat-Sun 6 a.m.-5 p.m.",,,0
Daylight Donuts,,219 Highway 42,Suite 20,Petal,MS,39465,United States,601-584-1005,31.346684,-89.2699228,"Tuesday & Thursday 5:30 a.m.-1:00p.m.(Closed Wednesday) ,  Fri-Sun 5:30 a.m.-Noon",,,0
Daylight Donuts,,304 US 278,,Amory,MS,38821,United States,662-256-5505,33.9804546,-88.4835424,5 a.m.-6 p.m. Daily,,,0
Daylight Donuts,,288-A Highway 12 East,,Kosciusko,MS,39090,United States,662-289-4494,33.0659815,-89.5852317,4 a.m.-1 p.m. Daily,,,0
Daylight Donuts,,563 N. Jackson Street,,Houston,MS,38851,United States,662-456-7076,33.9029477,-89.0007374,"Mon-Sat 4:30 a.m.-@ p.m. ,  Sun 5:30 a.m.-2 p.m.",,,0
Daylight Donuts,,917 City Ave. S.,,Ripley,MS,38663,United States,662-512-5444,34.7198731,-88.9539385,"Mon-Fri 5 a.m.-2 p.m. ,  Sat 5 a.m.-Noon",,,0
Daylight Donuts,,417 West Bankhead,,New Albany,MS,38652,United States,662-539-6123,34.4966213,-89.0203116,Tue-Sat 5:30 a.m.-1:00 p.m.,,,0
Daylight Donuts,,521 N. State Street,,Clarksdale,MS,38614,United States,662-624-6610,34.1949688,-90.5649702,"Mon-Sat 5 a.m.-5 p.m. ,  Sun 6 a.m.-5 p.m.",,,0
Daylight Donuts,,316 N. Davis Ave.,,Cleveland,MS,38732,United States,662-721-9999,33.7477427,-90.7157497,"Mon-Fri 5 a.m.- 5 p.m. ,  Sat-Sun 6 a.m.-5 p.m.",,,0
Daylight Donuts,,427-B North Second Street,,Booneville,MS,38829,United States,662-728-9090,34.661782,-88.5666091,"Mon-Sat 4:30 a.m.-2 ,  Sun 5:30 a.m.-1 p.m.",,,0
Daylight Donuts,,415 Highway 82,,Indianola,MS,38751,United States,662-887-2047,33.4580588,-90.6563827,"Mon-Sat 4:30 a.m.-1 p.m. ,  Sun 6 a.m.- 1 p.m.",,,0
Daylight Donuts,,5036 Parkway Drive,,Jackson,MS,39211,United States,769-572-7733,32.3754797,-90.1237429,"Mon-Sat 5 a.m.-1 p.m. ,  Sun 6 a.m.-1 p.m.",,,0
Daylight Donuts,,1849 E. Broad Street,,Statesville,NC,28677,United States,704-883-1083,35.7904209,-80.8514763,Mon-Sat 5:30 a.m.-1:00 p.m.,,,0
Daylight Donuts,,7550-101 Creedmoor Road,,Raleigh,NC,27613,United States,919-676-7442,35.8895241,-78.678711,Tuesday-Sunday from 5 am-Noon,,,0
Daylight Donuts,,710 West 27th Street,,Scottsbluff,NE,69361,United States,307-996-7353,41.8733999,-103.673,6 a.m.-1 p.m. Daily,,,0
Daylight Donuts,,1355 Country Club Dr,,Sidney,NE,69162,United States,308-254-3033,41.1274326,-102.9820134,"Mon-Fri 4 a.m.-11 a.m. ,  Sat. 6 a.m. -11 a.m.",,,0
Taste of Paradise Daylight Donuts,,814 W. 1st Street,,Ogallala,NE,69153,United States,308-284-4457,41.1236831,-101.7274926,Tue-Sat 6:30- a.m.-Noon,,,0
Daylight Donuts,,231 East 3rd,,Chadron,NE,69337,United States,308-432-4678,42.8292244,-102.9990628,Mon-Sat 5:30 a.m.-5 p.m.,,,0
Daylight Donuts,,1001 South Jeffers Street,,North Platte,NE,69101,United States,308-532-5855,41.1252936,-100.7639456,5:30 a.m.-1:30 p.m. Daily,,,0
Daylight Donuts,,817 Lake Avenue,,Gothenburg,NE,69138,United States,308-537-2575,40.926956,-100.1625924,"Mon-Fri 5 a.m.-2 p.m. ,  Sat-Sun 5 a.m.-11 a.m.",,,0
Daylight Donuts,,132 E. 8th,,Cozad,NE,69130,United States,308-784-4588,40.8595756,-99.9849828,Tue-Sat 6 a.m.-11 a.m.,,,0
Daylight Donuts,,324 E. 5th Street,,Minden,NE,68959,United States,308-832-0368,40.4994259,-98.9486446,"Mon-Fri 5 a.m.-Noon ,  Sat 5 a.m.-11 a.m.",,,0
Daylight Donuts,,1503 18th St.,,Central City,NE,68826,United States,308-946-5555,41.1140842,-97.9990043,,,,0
Daylight Donuts,,2315 2nd Ave,,Kearney,NE,68847,United States,308-236-6691,40.6988632,-99.0842943,1 a.m. -1 p.m. All Week,,,0
Daylight Donuts,,362 5th Street,,Syracuse,NE,68446,United States,402-269-3236,40.657172,-96.185586,Tues-Sat 4:30 a.m. -10:30 a.m.,,,0
Daylight Donuts @ Sinclair's,,603 N. Main Street,,Wayne,NE,68787,United States,402-375-4151,42.2346626,-97.0177767,,,,0
Daylight Donuts,,1266 27th Ave,,Columbus,NE,68601,United States,402-563-2011,41.4290251,-97.3607001,Tues-Sat 4:30 a.m. - Noon,,,0
Don Leden's Daylight Donuts,,321 Commercial Street,,Stromsburg,NE,68666,United States,402-764-2176,41.11401,-97.5967522,Mon-Sat 7 a.m.-11:30 a.m.,,,0
Daylight Donuts,,3001 Hot Springs Blvd,,Las Vegas,NM,87701,United States,505-454-0453,35.603908,-105.2378202,Mon-Sat 5 a.m.-6 p.m.,,,0
Daylight Donuts,,1377 Diamond Drive,,Los Alamos,NM,87544,United States,505-662-4000,35.886877,-106.318741,"Mon-Fri 6 a.m.-2 p.m. ,  Sat. 8 a.m. - 11 a.m.",,,0
Daylight Donuts,,600 East 2nd St,,Portales,NM,88130,United States,575-356-8762,34.1870475,-103.3337619,Tue-Sat 5:30-11:30 a.m.,,,0
Daylight Donuts,,708 E. Bender,,Hobbs,NM,88240,United States,575-392-7281,32.7260234,-103.129072,4 a.m.-1 p.m. All Week,,,0
Daylight Donuts,,101 N. Florida Ave.,,Alamogordo,NM,88310,United States,575-434-3378,32.890518,-105.953332,"4 a.m.-1 p.m. ,   All week",,,0
Daylight Donuts,,1332 North Hudson Street,,Silver City,NM,88061,United States,575-590-2991,32.7791152,-108.273684,"5 a.m. -Noon ,  all week",,,0
Daylight Donuts,,2201 N. Prince,,Clovis,NM,88101,United States,575-763-4744,34.421818,-103.196015,Tue-Sun 5:30 a.m.-11:30 a.m.,,,0
Manhattan Daylight Donuts,,9 Broadway,,New York,NY,10004,United States,212-785-5688,40.7051869,-74.0142069,,,,0
Daylight Donuts,,22 Genesee Street,,New Hartford,NY,13413,United States,315-724-9800,43.0739838,-75.2870673,"Mon-Sat 5:30 a.m.-9 p.m. ,  Sun 5:30 a.m.-8 p.m.",,,0
Daylight Donuts,,3485 Tylersville Road,,Hamilton,OH,45011,United States,513-889-3159,39.3626451,-84.5051731,4:30 a.m..-6 p.m. Daily,,,0
Daylight Donuts,,411 S. Main Street,,Okarche,OK,73762,United States,308-284-4457,35.7212731,-97.976437,Mon-Sat 4 a.m.-10 a.m.,,,0
Daylight Donuts,,510 W. Louisiana,,Anadarko,OK,73005,United States,405-247-6000,35.0674276,-98.2503523,5 a.m.-noon Daily,,,0
Daylight Donuts,,505 W Benedict,,Shawnee,OK,74801,United States,405-273-2960,35.3354415,-96.9304467,Mon-Sat 5 a.m.-11 a.m.,,,0
Daylight Donuts,,730 W. Danforth Road,,Edmond,OK,73003,United States,405-330-1611,35.6674265,-97.4929253,Tue-Sun 5 a.m.-Noon,,,0
Daylight Donuts,,1700-A S. Kelly,,Edmond,OK,73013,United States,405-340-0410,35.6369694,-97.4960111,4:30 a.m. - 12:30 p.m. All Week,,,0
Daylight Donuts,,126-D W. Main Street,,Yukon,OK,73099,United States,405-350-1719,35.5076326,-97.745486,"Mon-Fri 5:30 -Noon ,  Sat-Sun 6 a.m. -Noon",,,0
Daylight Donuts,,400 S. Santa Fe Ave.,,Edmond,OK,73003,United States,405-359-9016,35.6512803,-97.5138905,Monday through Friday  5:30 am - 11:00 am,,,0
Daylight Donuts,,1050 N. Flood,,Norman,OK,73069,United States,405-366-7730,35.2276167,-97.4530617,5:30 a.m.-12:30 p.m. Daily,,,0
Daylight Donuts,,217 S. Main Street,,Kingfisher,OK,73750,United States,405-375-5746,35.8591179,-97.932427,"Mon-Sat 4 a , m , -10 a.m.",,,0
Daylight Donuts,,419 Milt Phillips Avenue,,Seminole,OK,74868,United States,405-382-3433,35.2272913,-96.6710729,6 a.m. -11:30 a.m. All Week,,,0
Daylight Donuts,,19801 Ne 23rd,,Harrah,OK,73045,United States,405-454-3316,35.4934598,-97.1799837,12 A.M.-Noon,,,0
Daylight Donuts,,3701 East 2nd Street,,Edmond,OK,73034,United States,405-696-5979,35.6527235,-97.4329761,5 a.m. - Noon All Week,,,0
Daylight Donuts,,517 S. Perkins Road,,Stillwater,OK,74074,United States,405-533-7783,36.1173422,-97.0513881,Mon-Sat 5 a.m.-Noon,,,0
Daylight Donuts,,604 A North Main,,Perkins,OK,74059,United States,405-547-1212,35.979259,-97.033232,Mon-Sat 5 a.m. -11 a.m.,,,0
Daylight Donuts,,352 S. Mustang Road,,Yukon,OK,73099,United States,405-577-2949,35.4620078,-97.7247017,5 a.m.-Noon Daily,,,0
Daylight Donuts,,214 Broadway of America,,Holdenville,OK,74848,United States,405-592-9619,35.0890252,-96.4063314,3:30 a.m.-Noon,,,0
Daylight Donuts,,421 East  Walnut,,Tecumseh,OK,74873,United States,405-598-8707,35.260911,-96.931931,Mon-Sat 4:30 a.m. -Noon,,,0
Daylight Donuts,,601 S. Washington Street,,Stillwater,OK,74075,United States,405-624-2505,36.1288382,-97.0693997,Mon-Sat 5 a.m.-Noon,,,0
Daylight Donuts,,8900 South Western,,Oklahoma City,OK,73139,United States,405-631-6202,35.3781688,-97.5292185,5 a.m. -Noon All Week,,,0
Daylight Donuts,,1300 12th Ave. SE,,Norman,OK,73069,United States,405-701-1490,35.2474373,-97.4590551,5 A.M.-1:30 Daily,,,0
Daylight Donuts,,9422 N. Council,,Oklahoma City,OK,73162,United States,405-721-1126,35.5661721,-97.6562501,"Mon-Fri 5 a.m.-11:30 a.m. ,  Sat-Sun 5:30-Noon",,,0
Daylight Donuts,,11009 North Pennsylvania,,Oklahoma City,OK,73120,United States,405-752-2220,35.5814759,-97.5501187,,,,0
Daylight Donuts,,2011 S. Santa Fe,,Moore,OK,73160,United States,405-799-5062,35.3197828,-97.5120695,"Mon-Fri 5 a.m. -11:30 a.m. ,  Sat-Sun 6 a.m. -Noon",,,0
Daylight Donuts,,4236 NW Expressway,,Oklahoma City,OK,73116,United States,405-848-2900,35.5388474,-97.5960935,"Mon-Fri 5 a.m.-11:30 a.m. ,  Sat 5:30 a.m.-Noon ,  Sun 6 a.m.-Noon",,,0
Daylight Donuts,,1110 Northeastern,,Moore,OK,73160,United States,405-912-0877,35.3466407,-97.4763095,"Mon-Fri 4:30-Noon ,  Sat-Sun 5:30-Noon",,,0
Daylight Donuts,,817 W. Broadway,,Ardmore,OK,73401,United States,580-223-2533,34.1748027,-97.1392735,5 a.m.-Noon Daily,,,0
Rooster's Daylight Donuts,,122 N. Main Street,,Fairview,OK,73737,United States,580-227-2600,36.2696828,-98.4798654,Tue-Sat 5:30 a.m.-10 a.m.,,,0
Daylight Donuts,,221 S. Main Street,,Waurika,OK,73573,United States,580-228-2229,34.1622896,-98.0014723,5 a.m.-1 p.m. Daily,,,0
Daylight Donuts,,11235 Highway 76,,Healdton,OK,73438,United States,580-229-0662,34.232888,-97.4892239,Tue-Sun 4 a.m.-1 p.m.,,,0
Daylight Donuts,,902 W. Randolph,,Enid,OK,73703,United States,580-233-8032,36.398147,-97.889372,5 a.m.-Noon Daily,,,0
Daylight Donuts,,9 N. Highway 81,,Duncan,OK,73533,United States,580-252-2299,34.5729792,-97.9676563,4 a.m.-1 p.m. Daily,,,0
Daylight Donuts,,1021 17th St.,,Woodward,OK,73801,United States,580-256-4852,36.4369152,-99.4009774,5 a.m. -11 a.m. All Week,,,0
Daylight Donuts,,123 W. Blackwell,,Blackwell,OK,74631,United States,580-363-0373,36.80406,-97.2841,Tue-Sat 6 a.m.-Noon,,,0
Daylight Donuts,,808 W. Main Street,,Antlers,OK,74523,United States,580-298-9004,34.2314348,-95.6338988,4:30 a.m.-Noon,,,0
Daylight Donuts,,104 N. 5th Street,,Hugo,OK,74743,United States,580-326-5506,34.0097178,-95.5075077,4:30 a.m.-Noon Daily,,,0
Daylight Donuts,,300 S. Mississippi,,Ada,OK,74820,United States,580-332-6745,34.7723062,-96.6699157,,,,0
Daylight Donuts,,301 S. Main Street,,Frederick,OK,73542,United States,580-335-2071,34.3875947,-99.0170387,5:30 a.m.-2:00 p.m. Daily,,,0
Daylight Donuts,,1510 W. Fir,,Perry,OK,73077,United States,580-336-2740,36.289217,-97.303118,Mon-Sat 4 a.m. -11 a.m.,,,0
Daylight Donuts,,479 S. Mississippi Avenue,,Atoka,OK,74525,United States,580-279-8098,34.3820028,-96.1299223,,,,0
Daylight Donuts,,312 Hwy 70 East,,Lone Grove,OK,73443,United States,580-657-4433,34.1729428,-97.2563197,4:30 a.m. -11 a.m. All Week,,,0
Daylight Donuts,,401 S. Broadway,,Marlow,OK,73055,United States,580-658-2299,34.6440282,-97.9578498,6 a.m.-Noon Daily,,,0
Daylight Donuts,,5th & Hartford,,Ponca City,OK,74601,United States,580-762-6516,36.7241027,-97.0786285,3 a.m.-Noon daily,,,0
Daylight Donuts,,118 N 3rd St,,Ponca City,OK,74601,United States,580-765-2397,36.7044346,-97.0814715,3 a.m.-1:00 P.M. Daily,,,0
Daylight Donuts,,501 E. Main Street,,Weatherford,OK,76096,United States,580-772-3476,35.52606,-98.7023588,6 a.m.-11 a.m. daily,,,0
Daylight Donuts,,207 North Randall Avenue,,Elk City,OK,73644,United States,580-799-1559,35.4117787,-99.4172605,5 a.m.-11 a.m. Daily,,,0
Daylight Donuts,,3mi. east of junction US-70 & US-98,,Valliant,OK,74764,United States,580-933-7000,34.0023293,-95.0938386,5 a.m.-Noon Daily,,,0
Daylight Donuts,,1222 E. Main Street,,Cushing,OK,74023,United States,918-225-6206,35.9854709,-96.75324,Mon-Sat 5:30 a.m. - 11:30 a.m.,,,0
Daylight Donuts,,25955 S. Highway 66,,Verdigris,OK,74019,United States,918-226-7618,36.2397197,-95.680599,,,,0
Daylight Donuts,,7909 New Sapulpa Road,,Tulsa,OK,74131,United States,918-227-2058,36.0488778,-96.0770046,,,,0
Daylight Donuts,,14 W. Bryan,,Sapulpa,OK,74066,United States,918-227-2810,35.9928662,-96.1147246,"Mon-Fri 5 a.m. -11 a.m. ,  Sat 5 a.m. -Noon ,  Sun 6 a.m. -Noon",,,0
Daylight Donuts,,411 East Broadway,,Sand Springs,OK,74063,United States,918-241-2765,36.1399142,-96.1046884,"Mon-Thurs 5 a.m.-11 a.m. ,  Fri-Sat 5 a.m.-Non ,  Sun 6 a.m.-11 a.m.",,,0
Daylight Donuts,,3941 S. Highway 97,,Prattville,OK,74063,United States,918-245-0388,36.1063826,-96.1172025,5 a.m. -Noon All Week,,,0
Daylight Donuts,,409 North Main,,Broken Arrow,OK,74012,United States,918-251-9922,36.0558574,-95.7903015,Mon-Sat 5:30 a.m. - 11:30 a.m.,,,0
Daylight Donuts,,425 S. Wilson,,Vinita,OK,74301,United States,918-256-6236,36.6325617,-95.1580773,"Tue-Fri 5 a.m.-1 p.m. ,  Sat 5 a.m.-Noon",,,0
Daylight Donuts,,2004 West Houston,,Broken Arrow,OK,74012,United States,918-258-9117,36.0468254,-95.8136697,"Tue-Sat 4:30 a.m.-11 a./m. ,  Sun 4:30 a.m.-11:30 a.m.",,,0
Daylight Donuts,,750 South Cherokee,,Catoosa,OK,74015,United States,918-266-1635,36.1774308,-95.751149,Mon-Sat 5 a.m.-10:30 a.m.,,,0
Daylight Donuts,,5246 Highway 167,,Catoosa,OK,74015,United States,918-266-3930,36.2311639,-95.7590823,Mon-Sat 4 a.m. -11 a.m.,,,0
Daylight Donuts,,8700 N. 117th E Ave,,Owasso,OK,74055,United States,918-272-0789,36.2794951,-95.8440952,Mon-Sat 4 a.m. -11 a.m.,,,0
Katie's Daylight Donuts,,203 E. Cherokee,,Nowata,OK,74048,United States,918-273-1290,36.7002726,-95.6367506,Mon-Sat 5 a.m. -12:30 p.m.,,,0
Daylight Donuts,,12140 E. 96th Street N.,,Owasso,OK,74055,United States,918-274-7475,36.2923521,-95.8389311,Mon-Sat 5 a.m.-11:30 a.m.,,,0
Daylight Donuts,,9802 North Elgin,,Sperry,OK,74073,United States,918-288-6804,36.3002313,-95.9865779,Mon-Sat 4 a.m. -11 a.m.,,,0
Ken's Daylight Donuts,,13833 S. Casper Street,,Glenpool,OK,74033,United States,918-291-1610,35.962147,-96.011096,"Mon-Fri 3 a.m. -11 a.m. ,  Sat 3 a.m. -Noon",,,0
Daylight Donuts,,"5727 South Garnett ,  Suite B",,Tulsa,OK,74146,United States,918-294-0007,36.079577,-95.850345,Mon-Sat 5 a.m. -11 a.m.,,,0
Daylight Donuts,,12018 S. Elm Street,,Jenks,OK,74037,United States,918-296-3088,35.988963,-95.976528,Tues-Sun 5:30 a.m. -11 a.m.,,,0
Daylight Donuts,,527 W. Main Street,,Jenks,OK,74037,United States,918-299-3527,36.0233571,-95.9749929,"Mon-Sat 5 a.m. -11 a.m. ,  Sun 6 a.m. -11:30 a.m.",,,0
Sal's Daylight Donuts,,4107 SE Nowata Road,,Bartlesville,OK,74003,United States,918-335-1260,36.7277374,-95.9309702,5 a.m. - 11a.m. All Week,,,0
Sal's Daylight Donuts,,812 Frank Phillips Blvd.,,Bartlesville,OK,74003,United States,918-337-9170,36.750844,-95.966606,Mon-Sat 5 a.m.-11 a.m.,,,0
Daylight Donuts,,813 W. Will Rogers Blvd.,,Claremore,OK,74017,United States,918-341-5600,36.3137711,-95.6195391,Mon-Sat 4:30 a.m.-11:30 a.m.,,,0
Daylight Donuts,,4920 East Kenosha,,Broken Arrow,OK,74014,United States,918-355-5846,36.0613514,-95.7281704,"Tue-Fri 5 a.m. - 11 a.m ,  Sat-Mon 6 a.m. - 11 a.m.",,,0
Daylight Donuts,,712 W. Caddo,,Cleveland,OK,74020,United States,918-358-3913,36.305633,-96.471649,"Tue-Fri 4 a.m.-11 a.m. ,  Sat 4 a.m.-Noon",,,0
Daylight Donuts,,15020 S. Memorial,,Bixby,OK,74008,United States,918-366-4113,35.9469592,-95.888015,"Mon-Sat 5 a.m.-10:30 a.m. ,  Sun 6 a.m.-10:30 a.m. (Drive thru open until 11:00 a.m. all week)",,,0
German Corner Daylight Donuts,,11330 N. Garnett Road,,Owasso,OK,74055,United States,918-371-5544,36.3191149,-95.849043,5 a.m. -11:30 a.m. All Week,,,0
Cheri's Daylight Donuts,,106 N. 9th Street,,Collinsville,OK,74021,United States,918-371-9355,36.3646123,-95.8353075,"Sun: 6 a.m.-11 a.m. , m Mon-Sat 5 a.m.-11 a.m.",,,0
Southpark Daylight Donuts,,10827-D S. Memorial Drive,,Tulsa,OK,74133,United States,918-369-3676,36.0070453,-95.8856278,"Mon-Sat 5 a.m. -11 a.m. ,  Sun 6 a.m. -11 a.m.",,,0
Daylight Donuts,,1020 W. Rogers,,Skiatook,OK,74070,United States,918-396-4011,36.3685635,-96.0136204,Tue-Sat 4 a.m.-11 a.m.,,,0
Daylight Donuts,,1311 Wade Watts Ave.,,McAlester,OK,74501,United States,918-423-0795,34.9246204,-95.7520755,5 a.m.-Noon Daily,,,0
Daylight Donuts,,2397 E. Highway 270,,Krebs,OK,74554,United States,918-423-2062,34.9275299,-95.740765,,,,0
Daylight Donuts,,7425-D North Peoria,,Turley,OK,74126,United States,918-428-2198,36.26174,-95.973215,"Tues-Fri 4 a.m. -11 a.m. ,  Sat 5 a.m. -Noon",,,0
Daylight Donuts,,2120 S Garnett Rd,,Tulsa,OK,74129,United States,918-437-8748,36.1325393,-95.8515689,Mon-Sat 5 a.m. -11 a.m.,,,0
Daylight Donuts,,11124 E Admiral Pl,,Tulsa,OK,74116,United States,918-438-0595,36.1607467,-95.8521974,5 a.m. -11 a.m. All Week,,,0
Daylight Donuts,,549 S. Highway 169,,Oologah,OK,74053,United States,918-443-5555,36.4399872,-95.7093496,Mon-Sat 5 a.m. -11 a.m.,,,0
Hole-In-One Daylight Donuts,,5910 S. 33rd W. Ave.,,Tulsa,OK,74132,United States,918-445-1853,36.076828,-96.030047,Mon-Sat 4 a.m. -11 a.m.,,,0
Berryhill Daylight Donuts,,4092 S. 57th West Ave.,,Berryhill,OK,74107,United States,918-447-3377,36.1048803,-96.0567437,Mon-Sat 1:00 a.m.-11:00 a.m.,,,0
Daylight Donuts South B.A.,,500 West Tucson Street,,Broken Arrow,OK,74011,United States,918-455-4599,35.988419,-95.7977939,6 a.m. - 11 a.m. All Week,,,0
Bryant's Daylight Donuts,,1515 South Muskogee,,Tahlequah,OK,74474,United States,918-456-1051,35.8962918,-94.976276,Mon-Sat 5:30 a.m.-11:30 a.m.,,,0
Daylight Donuts,,136 E. Main Street,,Wilburton,OK,74578,United States,918-465-5333,34.9187504,-95.3085742,5:30 a.m. -2 p.m. All Week,,,0
Morton's Daylight Donuts,,68 E. Main Street,,Chouteau,OK,74337,United States,918-476-5088,36.1863892,-95.3425207,Mon-Sat 5:30 a.m. - 11 a.m.,,,0
Daylight Donuts,,201 North Highway 82,,Locust Grove,OK,74352,United States,918-479-2677,36.1978789,-95.1599746,"Mon-Fri 4:30 a.m. -1:30 p.m. ,  Sat 4:30 a.m. -11 a.m.",,,0
Daylight Donuts,,1101 S. McQuarrie,,Wagoner,OK,74467,United States,918-485-0360,35.948532,-95.366915,"Mon-Fri 5 a.m. ,  Sat-Sun 5:30-11:30 a.m.",,,0
Daylight Donuts,,6021 S. Sheridan,,Tulsa,OK,74145,United States,918-494-0446,36.0768475,-95.9035203,"Tue-Sat 6 a.m.-11 a.m. ,  Sun 7 a.m.-10 a.m.",,,0
Daylight Donuts,,7119-B South Yale,,Tulsa,OK,74136,United States,918-496-3545,36.0601637,-95.9219895,"Tues-Fri 5:30 a.m. -11 a.m. ,  Sat-Sun 5:30 a.m. -11:30 a.m.",,,0
Daylight Donuts,,1831 N. Main Street,,Miami,OK,74354,United States,918-542-5247,36.896125,-94.87785,5 a.m. -Noon All Week,,,0
Daylight Donuts,,415 E. Commercial,,Inola,OK,74036,United States,918-543-4500,36.1543464,-95.503278,"Mon-Fri 5a.m.-10a.m. ,  Sat 5 a.m.-11 a.m.",,,0
Cherry Street Daylight Donuts,,1101 S. Detroit Ave.,,Tulsa,OK,74120,United States,918-585-1796,36.1468368,-95.9831454,Mon-Sat 5 a.m. -11 a.m.,,,0
Daylight Donuts,,2232 E Sixth,,Tulsa,OK,74104,United States,918-592-0800,36.151477,-95.9595949,Mon-Sat 5:30 a.m. -10:30 a.m.,,,0
Daylight Donuts,,560 North 28th West Avenue,,Tulsa,OK,74127,United States,918-599-7978,36.1609513,-96.0236857,"Mon-Fri 5:30 a.m. -11 a.m. ,  Sat 7 a.m. -11 a.m.",,,0
Daylight Donuts,,2216 East Pine,,Tulsa,OK,74110,United States,918-599-8530,36.1768481,-95.9598801,Mon-Sat 5 a.m. -3:30 p.m.,,,0
Briarglen Daylight Donuts,,3171-B S. 129th E. Ave.,,Tulsa,OK,74134,United States,918-628-0199,36.1177394,-95.8326513,6 a.m. -11:30 a.m. All Week,,,0
Brandy's Drive-In Daylight Donuts,,100 N. Main,,Fairfax,OK,74637,United States,918-642-3302,36.5708446,-96.7042784,,,,0
Daylight Donuts,,7751 East 21st Street,,Tulsa,OK,74129,United States,918-660-2828,36.1338941,-95.8891399,Mon-Sat 5 a.m. -11:30 a.m.,,,0
Daylight Donuts,,4401 S. Memorial Drive,,Tulsa,OK,74145,United States,918-663-6071,36.099096,-95.886009,Mon-Sat 4:30 a.m. -10:30 a.m.,,,0
Daylight Donuts,,114 E. Peak Blvd.,,Muskogee,OK,74403,United States,918-687-0393,35.7116536,-95.3748607,5:30 a.m.-9:30 a.m. Daily,,,0
Daylight Donuts,,314 W. Locust,,Stilwell,OK,74960,United States,918-696-6666,35.8085118,-94.6305091,6 a.m. -1:30 p.m. All Week,,,0
Daylight Donuts,,4775 S. Harvard,,Tulsa,OK,74135,United States,918-712-2212,36.0929311,-95.939415,"Mon-Sat 5 a.m.-Noon ,  Sun 5 a.m.-11:30 a.m.",,,0
Daylight Donuts,,5956 S. Lewis,,Tulsa,OK,74105,United States,918-712-2334,36.0773346,-95.9579682,Mon-Sat 5 a.m. -11 a.m.,,,0
Daylight Donuts,,3121 S. Yale,,Tulsa,OK,74135,United States,918-749-2968,36.1179343,-95.9219546,,,,0
Daylight Donuts,,"1917 S. Harvard ,  Suite 8",,Tulsa,OK,74112,United States,918-749-5272,36.134429,-95.9399847,Tues-Sun 5 a.m. -11 a.m.,,,0
Daylight Donuts,,5233 S. Peoria Ave.,,Tulsa,OK,74105,United States,918-749-8228,36.0871761,-95.9751726,Mon-Sat 5:30 a.m. -11 a.m.,,,0
Daylight Donuts,,1000 S. Wood Drive,,Okmulgee,OK,74447,United States,918-756-0012,35.6139786,-95.9618077,5 a.m.-Noon Daily,,,0
Daylight Donuts,,921 Harrison Street,,Pawnee,OK,74058,United States,918-762-2295,36.3378554,-96.8105178,Mon-Sat 5:30 a.m. -11 a.m.,,,0
Daylight Donuts,,809 W Cherokee,,Sallisaw,OK,74955,United States,918-775-6034,35.4599405,-94.7995893,Mon-Fri 5:30 a.m. -11 a.m.,,,0
Daylight Donuts,,1221 N. Sheridan Road,,Tulsa,OK,74115,United States,918-779-4049,36.1723117,-95.9045439,Mon-Sat 5 a.m. -11 a.m.,,,0
Daylight Donuts,,107 W. Third St.,,Grove,OK,74344,United States,918-791-9590,36.593706,-94.770977,5 a.m. -Noon All Week,,,0
Daylight Donuts,,319 South Mill,,Pryor,OK,74361,United States,918-825-7789,36.3014568,-95.3208497,Mon-Sat 5 a.m. -11 a.m.,,,0
Daylight Donuts,,9506 East Pine,,Tulsa,OK,74115,United States,918-834-7600,36.1766622,-95.8705079,Mon-Sat 4 a.m. -10:30 a.m.,,,0
Daylight Donuts,,Highway 51 West,,Mannford,OK,74044,United States,918-865-4778,36.1363627,-96.3965017,5 a.m. -11 a.m. All Week,,,0
Daylight Donuts,,1030 East Tulsa Avenue,,Kansas,OK,74347,United States,918-868-5600,36.2051926,-94.8049685,"Mon-Sat 6 a.m. -8 p.m. ,  Sun 7 a.m. -2 p.m.",,,0
Daylight Donuts,,815 S. Eastern,,Hominy,OK,74035,United States,918-885-6780,36.4081558,-96.3895348,Tues-Sat 4 a.m. -11 a.m.,,,0
Daylight Donuts,,624 S. Broadway,,Haskell,OK,74436,United States,918-482-1150,35.813533,-95.6749255,Mon-Sat 5:30 a.m.-11 a.m.,,,0
Daylight Donuts,,15001 N. May Ave.,,Oklahoma City,OK,73134,United States,405-753-4501,35.6233429,-97.5671665,,,,0
Daylight Donuts,,102 E. Missouri Street,,Walters,OK,73572,United States,580-875-6336,34.3621071,-98.309076,5 a.m.-1 p.m. Daily,,,0
Daylight Donuts,,1201 N. Washington St.,,Durant,OK,74701,United States,580-931-9966,34.0049809,-96.3904395,5:30-Noon Daily,,,0
Daylight Donuts,,1104 E. Lincoln,,Sapulpa,OK,74066,United States,918-770-3505,35.995421,-96.098481,5 a.m. -Noon All Week,,,0
Daylight Donuts,,305 W. Main Street,,Adair,OK,74330,United States,918-785-2255,36.4355825,-95.2672564,,,,0
Daylight Donuts,,2010 W. Gary,,Clinton,OK,73601,United States,,35.508168,-98.985181,,,,0
Daylight Donuts,,333 S. Minnesota Ave.,,Sioux Falls,SD,57104,United States,605-338-3133,43.5435814,-96.7315333,"Mon-Fri 5 a.m.-3 p.m. ,  Sat 6 a.m.-12:30 p.m.",,,0
Daylight Donuts & Bake Shoppe,,900 N. Main Street,,Mitchell,SD,57301,United States,605-996-6768,43.7177395,-98.0255762,Mon-Sat 5 a.m. -Noon,,,0
Daylight Donuts,,1735 W. State of Franklin,,Johnson City,TN,37604,United States,423-434-9449,36.300753,-82.377268,"Tue-Sat 6:00 a.m. -6:00 p.m. ,  Sun 7:00 a.m.-3:00 p.m.",,,0
Daylight Donuts,,1448 Highway 51 Bypass,,Dyersburg,TN,38024,United States,731-285-9640,36.0517143,-89.3653812,"Mon-Sat 4 a.m.-Noon ,  Sun 6 a.m.-Noon",,,0
Daylight Donuts,,5735 Raleigh - La Grange,,Memphis,TN,38134,United States,901-266-5152,35.1825184,-89.8722969,5:30 a.m.-5 p.m. Daily,,,0
Daylight Donuts/Virginia's Cookies,,7546 US Highway 70,,Bartlett,TN,38134,United States,901-379-8119,35.2284937,-89.8120967,Tue-Sun 5 a.m.-11 a.m.,,,0
Daylight Donuts,,"420 S Germantown Pkwy ,  Ste 10",,Memphis,TN,38018,United States,901-737-1515,35.1189507,-89.7996723,"Mon-Fri 5 a.m.-1 p.m. ,  Sat-Sun 5 a.m.-2:30",,,0
Daylight Donuts,,902 W. College Street,,Pulaski,TN,38478,United States,931-363-9594,35.2009031,-87.0437314,"Mon-Sat 4:30 a.m.-Noon ,  Sun 6 a.m.-Noon",,,0
Daylight Donuts,,9517 Fredericksburg Road,,San Antonio,TX,78240,United States,210-696-7979,29.5276794,-98.5760445,"Mon-Fri 5 a.m. -Noon ,  Sat 6 a.m. -Noon",,,0
Daylight Donuts,,324 North Hewitt Drive,,Hewitt,TX,76643,United States,254-235-7650,31.4701622,-97.1995231,4:30 a.m.-Noon Daily,,,0
Daylight Donuts,,6191 Hwy Blvd,Suite 301,Katy,TX,77494,United States,281-391-8500,29.7841944,-95.8316803,5 a.m.-Noon Daily,,,0
Daylight Donuts,,1601 Magnolia,,Port Neches,TX,77651,United States,409-727-1888,29.983827,-93.968878,,,,0
Daylight Donuts,,2600 North Grandview,,Odessa,TX,79761,United States,432-362-4646,31.875012,-102.3459844,Mon-Sat 5:30 a.m.-11:30 a.m.,,,0
Daylight Donuts,,104 E Fate Main Pl,,Fate,TX,75132,United States,469-698-9366,32.9412291,-96.3812329,6 a.m.-Noon Daily,,,0
Daylight Donuts,,303 N Bell Blvd.,,Cedar Park,TX,78613,United States,512-335-0202,30.5115822,-97.8245886,5 a.m. - Noon All Week,,,0
Daylight Donuts,,920 N Austin Ave.,,Georgetown,TX,78626,United States,512-864-9817,30.6502765,-97.6765341,5 a.m. -1 p.m. All Week,,,0
Daylight Donuts,,805 Highway 87 South,,Dalhart,TX,79022,United States,806-244-1221,36.0581535,-102.5113684,4:30 a.m.-Noon Daily,,,0
Daylight Donuts,,611 McKinley Ave,,Hereford,TX,79045,United States,806-364-4766,34.8217264,-102.3985743,Mon-Sat 4:30 a.m. -11 a.m.,,,0
Daylight Donuts,,721 S. Main Street,,Perryton,TX,79070,United States,806-435-2720,36.3930747,-100.8026821,4:30 a.m. -11:30 a.m. All Week,,,0
Daylight Donuts,,2859 34th Street,,Lubbock,TX,79411,United States,806-792-4741,33.562996,-101.878904,Tue-Sat 5.am. 11-a.m.,,,0
Fritch Daylight Donuts,,103 N. Cornell,,Fritch,TX,79036,United States,806-857-4760,35.6404413,-101.6025748,Tue-Sat 6 a.m.-Noon,,,0
Daylight Donuts,,1209 N. Dumas Ave.,,Dumas,TX,79029,United States,806-934-3484,35.8905834,-101.976451,,,,0
Daylight Donuts,,2001 Water Street,,Gonzales,TX,78629,United States,830-672-7999,29.5161702,-97.4634583,5 a.m.-2 p.m. Daily,,,0
Daylight Donuts,,608 N. Union,,Whitesboro,TX,76273,United States,903-564-3411,33.6624221,-96.9063197,Mon-Sat 5 a.m.-Noon,,,0
Daylight Donuts,,400 S. Palestine,,Athens,TX,75751,United States,903-675-2968,32.1997973,-95.8541612,Tue-Sun 5 a..-Noon,,,0
Daylight Donuts,,510 N. Collegiate,,Paris,TX,75460,United States,903-737-8440,33.666285,-95.524979,5 a.m.-1:00 p.m. Daily,,,0
Daylight Donuts @ JM Grocery,,1805 Bonham Street,,Paris,TX,75460,United States,903-785-2193,33.660449,-95.575502,,,,0
Daylight Donuts,,813 N. Wood Street,,Gilmer,TX,75644,United States,903-843-3544,32.7364189,-94.9425348,5 a.m.-Noon Daily,,,0
Daylight Donuts,,505 W. Highway 82,,Gainesville,TX,76240,United States,940-612-2075,33.640805,-97.149419,3:00 a.m.-Noon Daily,,,0
Daylight Donuts,,2700 Southwest Parkway,,Wichita Falls,TX,76308,United States,940-687-8899,33.8578803,-98.5309608,5 a.m.-6 p.m. Daily,,,0
Daylight Donuts,,1107 E. Mulberry Street,,Kaufman,TX,75142,United States,972-932-3300,32.5890338,-96.3003623,"Mon-Sat 5 a.m. -Noon ,  Sun 5:30 a.m. -Noon",,,0
Daylight Donuts,,1111 N. Mechanic Street,,El Campo,TX,77437,United States,979-543-1493,29.2049893,-96.2766101,Tues-Sun 5 a.m. - 1 p.m.,,,0
Daylight Donuts,,1211 N Mechanic,,El Campo,TX,77437,United States,979-578-8300,29.2059595,-96.2773916,Tues-Sun 5 a.m. - 1 p.m.,,,0
Sweet Eugene's/ Daylight Donuts,,1702 George Bush E.,,College Station,TX,77840,United States,979-696-5282,30.617541,-96.317551,"Mon-Sat ,  Open at 6 .am. ,  Sun OPen at 7 a.m.",,,0
Daylight Donuts,,1180 N. Main Street,,Springville,UT,84663,United States,801-515-6078,40.1829828,-111.6101915,"Mon-Fri 5 a.m.-6 p.m. ,  Sat 6 a.m.-1 p.m.",,,0
Daylight Donuts,,51 E. 11400 S.,,Sandy,UT,84070,United States,801-572-8140,40.5449758,-111.8899457,"Mon-Fri 5 a.m. -5 p.m. ,  Sat 5 a.m. -Noon",,,0
Daylight Donuts,,412 S. Main Street,,Alpine,UT,84004,United States,801-692-1803,40.447532,-111.779631,,,,0
Daylight Donuts,,125 East State Rd,,Pleasant Grove,UT,84062,United States,801-785-7922,40.3577344,-111.7382639,5 a.m.-4 p.m.,,,0
Daylight Donuts,,5471 S. State Street,,Murray,UT,84107,United States,801-904-2318,40.6519963,-111.8878766,"Mon-Fri 5 a.m.-5 p.m. ,  Sat 6 a.m.-3 p.m.",,,0
Daylight Donuts,,151 N. 3rd Street,,Laramie,WY,82070,United States,307-745-8174,41.3131322,-105.5929017,Mon-Sat 7:30 a.m.-Noon,,,0
Daylight Donuts,,901 E. 16th Street,,Cheyenne,WY,82001,United States,307-220-2191,41.1364892,-104.8051612,Mon-Sat 5:30 a.m. - Noon,,,0
Tasty Treats & Daylight Donuts,,1356 South Street,,Wheatland,WY,82201,United States,307-322-3227,42.0516253,-104.9595987,"Mon-Thurs 6 a.m.-4 p.m. ,  Fri 6 a.m.-7:30 p.m. ,  Sat 6 a.m.-2 p.m.",,,0
Daylight Donuts/Chinese Express,,4104 Central Ave.,,Cheyenne,WY,82001,United States,307-426-4013,41.1532672,-104.8225265,Mon-Sat 5 a.m.- 7 p.m.,,,0
Daylight Donuts,,515 W. Ramshorn,,Dubois,WY,82513,United States,307-455-2122,43.5348195,-109.6389762,6:45 a.m.-8:30 p.m. Daily,,,0
Daylight Donuts,,939 E. 2nd Street,,Casper,WY,82601,United States,307-472-0662,42.8483176,-106.3130139,4 a.m. -2 p.m. All Week,,,0
Daylight Donuts,,4693 W. Yellowstone,,Casper,WY,82604,United States,307-472-0662,42.8516869,-106.3847949,4 a.m. -2 p.m. All Week,,,0
Daylight Donuts,,622 E. Main Street,,Riverton,WY,82501,United States,307-856-6440,43.024997,-108.382394,"Summer Hours: Mon-Fri 3 a.m. -5 p.m. ,  Sat 3 a.m. -2 p.m                   Winter Hours:   Mon-Fri 3 a.m. -10 p.m. ,  Sat 3 a.m. -2 p.m.",,,0
Daylight Donuts,,1410 Beverly Drive,,Wichita Falls,TX,76309,United States,940-228-5614,33.902216,-98.5301852,"Mon-Sat 5 a.m.-8 p.m. ,  Sun 5 a.m.-2 p.m.",,,0
Daylight Frisco,,5570 FM 423,Suite 300,Frisco,TX,75034,United States,214-469-1661,33.1256325,-96.8885677,5 a.m.-Noon Daily,,,0
Daylight Donuts Eaton,,1309 N. Barron Street,,Eaton,OH,45320,United States,937-456-1744,39.759524,-84.636904,5 a.m.-Noon,,,0
Daylight Donut Shop & Bakery,,3095 Talon Drive,,Casper,WY,82604,United States,307-337-1157,42.8152787,-106.3637704,4:30am to 4:30 on Monday thur Saturday Sunday 5:00 to 12:00,,,0
Daylight Donuts,,1112-A Boll Weevil Circle,,Enterprise,AL,36330,United States,334-475-4505,31.3351352,-85.8581462,5 a.m.-Noon daily,,,0
G&G Donuts/Daylight Donuts,,26182 S. Highway 82,,Park Hill,OK,74451,United States,918-348-9463,35.7946004,-94.9633691,Mon-Sat 5 a.m.-Noon,,,0
Daylight Donuts,,4200 Aero Drive,,Mason,OH,45040,United States,513-770-0999,39.3387325,-84.2923027,"Mon- Friday: 5 Am to 7 Pm ,  Sat: 5 Am to 7 Pm ,                               Sun: 5 am to 5 Pm",,,0
Daylight Donut Shop,,301 Oak Main Avenue,,Comanche,OK,73529,United States,580-439-2299,34.3689564,-97.9638892,,,,0
Daylight Donuts,,1401 Seran Drive,,Wewoka,OK,74884,United States,405-257-2500,35.144626,-96.494029,Mon-Sat 5 a.m.-11 a.m.,,,0
"The Donut Shop ,  featuring Daylight Donuts",,107 West Third Street,,Gore,OK,74435,United States,918-557-1035,35.5307189,-95.1142293,Tue-Sat 5 a.m.-11 a.m.,,,0
Daylight Donuts,,1020 North Main Street,,Nicholasville,KY,40356,United States,859-885-0028,37.8995944,-84.564038,5 a.m.-1:30 p.m. Daily,,,0
Daylight Donuts,,1105 Southview Lane,,Tuscaloosa,AL,35404,United States,205-523-7684,33.1231703,-87.553149,,,,0
Acton Road Daylight Donuts,,2409 Acton Road,,Vestavia Hills,AL,35242,United States,205-968-1474,33.4097896,-86.7637806,Mon-Sat 6 a.m.-4 p.m.,,,0
Daylight Donuts,,6548 East 91st Street,,Tulsa,OK,74133,United States,918-481-1584,36.031342,-95.9026051,5:30 a.m.-11:30 a.m. Daily,,,0
Pawhuska Daylight Donuts,,401 West Main,,Pawhuska,OK,74056,United States,918-287-3475,36.664216,-96.344908,Mon-Sat 5:30 a.m.-Sat,,,0
Daylight Donuts of Kansas City,,7303 West 80th Street,,Overland Park,KS,66204,United States,913-717-7420,38.9838569,-94.6702285,,,,0
Daylight Donuts,,1614 East 16th Avenue,,Cordele,GA,31015,United States,229-513-3635,31.9610832,-83.7580533,,,,0
Daylight Donuts,,427 Highway 45 North,,West Point,MS,39773,United States,662-605-5133,33.6027769,-88.6590669,"Mon-Sat 4:30-1 p.m. ,  Sun 5:30-1 p.m.",,,0
Daylight Donuts of Syracuse,,500 South Salina Street,,Syracuse,NY,13202,United States,318-478 2222,43.0438404,-76.1524545,"Mon-Fri 5 a.m.-9 p.m. ,  Sat 9 a.m.-6 p.m.",,,0
Daylight Donuts,,1544 Forestdale Blvd.,,Forestdale,AL,35214,United States,205-238-5555,33.5671997,-86.8975682,,,,0
Daylight Donuts,,200 S. Bloomington,,McGehee,AR,71654,United States,870-222-0671,39.0524339,-86.95363,5 a.m.-1 a.m. Daily,,,0
Daylight Donuts,,725 Choctaw Avenue,,Chickasha,OK,73018,United States,405-448-5108,35.0529538,-97.9247563,5 a.m.-Noon Daily,,,0
Daylight Donuts,,1740 West Ash Street,,Junction City,KS,66502,United States,785-579-6800,39.016137,-96.8623144,,,,0
Daylight Donuts,,902 West 6th Street,,Emporia,KS,66801,United States,(620) 342-6844 (Commercial location),38.405273,-96.192016,Tue-Sun 4:30- a.m.-11:30 a.m.,,,0
Daylight Donuts,,3405 East Battlefield Street,Suite 100,Springfield,MO,65804,United States,417-771-5771,37.1586514,-93.225989,5 a.m.-1 p.m. Daily,,,0
Daylight Donuts,,1507 West Main Street,,Clarksville,TX,75426,United States,903-428-0178,33.6100611,-95.0637626,,,,0
Daylight Donut Shop,,305 North Maple Street,,Garnett,KS,66032,United States,785-448-0010,38.2869108,-95.2492614,,,,0
"Patty Cakes Sweetshop ,  featuring Daylight Donuts",,8 East Arrow Street,,Marshall,MO,65340,United States,660-886-7289,39.1203201,-93.1965187,Tue-Sat 4 a.m.-1 p.m.,,,0
Daylight Donuts,,1109 North Main Street,,Gainesville,FL,32601,United States,352-367-8409,29.6620951,-82.3245037,,,,0
Daylight Donuts,,1108 South Gilmer Avenue,,Lanett,AL,36863,United States,334-623-0803,32.8589255,-85.1908631,,,,0
Daylight Donuts,,7826 Highway 71 South,,Ft. Smith,AR,72901,United States,479-434-6606,35.3286121,-94.4203159,,,,0
Daylight Donuts,,1774 N. University Pkwy.,#44,Provo,UT,84604,United States,801-691-0272,40.2578802,-111.660759,"Mon-Fri 6 a.m.-5 p.m. ,  Sat 6 a.m.-3 p.m.",,,0
Tevy's Daylight Donut Shop,,350 1/2 West Smith,,Stratford,OK,74872,United States,580-759-2122,34.7966383,-96.9676546,4:30 a.m.-Noon Daily,,,0
Daylight Donuts,,2910 Allison-Bonnett Memorial Dr.,,Hueytown,AL,35023,United States,205-538-5367,33.4523817,-86.971499,,,,0
Harvest Donuts and Bakery featuring Daylight Donuts,,2828 East 91st Street,Suite E,Tulsa,OK,74137,United States,918-299-8977,36.031476,-95.9479064,,,,0
Daylight Donuts of Bryan,,4282 Boonville Road,Suite 100,Bryan,TX,77802,United States,979-774-9946,30.6617058,-96.3033829,,,,0
Mercy's Daylight Donuts,,482-A1 River Highway,,Mooresville,NC,28115,United States,704-663-0482,35.5944025,-80.8633862,Tuesday-Sunday 6 A.M.-2:30 P.M. (Closed Monday),,,0
Daylight Donuts of Lehi/Lehi Marketplace,,785 East 200 South,Suite 9,Lehi,UT,84043,United States,801-331-8497,40.3863784,-111.8365422,,,,0
Daylight Donuts,,2816 NW 10th Street,,Oklahoma City,OK,73107,United States,405-945-0644,35.4786021,-97.5642064,,,,0
Daylight Donuts,,435 North Bluff Street,,St. George,UT,84770,United States,435-429-0601,37.115723,-113.597043,Monday- Friday  5:00 AM. - NOON,,,0
Daylight Donuts,,1102 Highway 19 North,,Thomaston,GA,30286,United States,706-938-1600,32.9269654,-84.3339882,,,,0
Daylight Donuts,,14723 Highway 107,,Jacksonville,AR,72076,United States,501-819-0436,34.881224,-92.17907,,,,0
Daylight Donuts Urban Eatery,,14352 Lincoln Street,#107,Thornton,CO,80023,United States,303-252-0101,39.9567104,-104.9843199,5 a.m.-4 p.m. Daily,,,0
"Me & Ma's Bakery ,  featuring Daylight Donuts",,134 West 6th Street,,Concordia,KS,66901,United States,785-614-2604,39.5715213,-97.6606025,,,,0
"Shave N' Flave Donuts on 66 ,   featuring Daylight Donuts",,401 NE 66 Highway,,Sayre,OK,73662,United States,,35.3087809,-99.6357164,,,,1
Daylight Donuts,,502 South Phillips Street,,Algona,IA,50511,United States,515-395-7655 (ROLL),43.0648282,-94.2269313,5 a.m.-Noon Daily,,,0
Daylight Donuts,,715 East Main Street,,Bokchito,OK,74726,United States,580-295-2288,34.0166481,-96.1364396,,,,0
Daylight Donuts,,2450 Executive Parkway,,Lehi,UT,84043,United States,801-341-8395,40.4275623,-111.8887077,,,,0
Daylight Donuts,,7303 West 80th Street,,Overland Park,KS,66204,United States,913-717-7420,38.9838569,-94.6702285,,,,0
Daylight Donuts Choctaw,,1530 S. Choctaw Road,,Choctaw,OK,73020,United States,214-966-6533,35.4506696,-97.2649777,,,,0
Daylight Donuts,,680 North Frankston Highway,,Frankston,TX,75763,United States,903-481-5339,32.0628004,-95.5019751,,,,0
Daylight Donuts,,1305 West Guadelupe Drive,,Mesa,AZ,85202,United States,480-781-2422,33.3632486,-111.8611309,6 a.m.-5 p.m. Daily,,,0
Daylight Donuts,,7480 Parkway Drive,,Leeds,AL,35094,United States,205-702-6717,33.5446451,-86.5578126,5:00 AM to 2:00 PM Monday through Saturday,,,0
Daylight Donuts,,11759 North IH 35,,Jarrell,TX,76537,United States,,30.8100562,-97.61295,,,,1
Farmhouse Daylight Donuts,,9727 East 81st Street,,Tulsa,OK,74133,United States,918-940-8990,36.0464409,-95.8681647,,,,0
D's Daylight Donuts,,224 Lincoln,,Hebron,NE,68370,United States,402-768-2255,40.1666747,-97.5929392,6 A.M.-11 A.M. Mon-Sat,,,0
"The Waterin' Hole ,  featuring Daylight Donuts",,820 N. 8th Street,,Hollis,OK,73550,United States,,34.689399,-99.9122336,,,,1
Daylight Donuts,,918 Tanyard Road,,Rocky Mount,VA,24151,United States,540-493-3311,37.007555,-79.8759729,,,,0
Daylight Donuts,,397 Main Street NW,,Hanceville,AL,35077,United States,,34.0585325,-86.7676965,,,,1
Daylight Donuts,,901 West Emmitt Avenue,,Waverly,OH,45690,United States,740-835-4511,39.1235717,-82.9906007,5 a.m.-7 p.m. Daily,,,0
Daylight Donuts,,611 2nd Avenue East,,Oneonta,AL,35121,United States,205-446-3366,33.9491637,-86.4708799,,,,0
Daylight Donuts Payson,,887 East 100 North,#2B,Payson,UT,84651,United States,801-658-5422,40.0448542,-111.7179289,Monday - Friday 6:00 am- 4:00 pm,,,0
Markham Daylight Donuts,,102 Markham Park,Suite B,Little Rock,AR,72211,United States,,34.7545859,-92.4044916,,,,1
Sweet Nana's Donuts/Daylight DOnuts,,407 East Schely,,Vian,OK,74962,United States,918-773-5003,35.4976103,-94.9657177,,,,0
Daylight Donuts,,1965 South Madison Avenue,,Granite City,IL,62040,United States,618-709-7955,38.6994375,-90.1468942,5:30 a.m.-1:30 p.m. Mon-Sat,,,0
Ollie's Donuts/Daylight Donuts,,10913 US Highway 412,Suite #2,Mooreland,OK,73852,United States,580-273-5464,36.4351048,-99.2017225,,,,0
Tweedle's Daylight Donuts,,202 West McMillan Street,,Cincinnati,OH,45219,United States,,39.1280011,-84.5194713,,,,1
Poppa J's Donuts/Daylight Donuts,,416 NW Main Street,,Bunkie,LA,71322,United States,318-346-1823,30.9586351,-92.1894229,5:30 A.M.-11:30 A.M. Tue-Sun,,,0
Daylight Donuts,,947 West Free Street,,Walnut Ridge,AR,72476,United States,870-886-7887,36.071768,-90.966684,,,,0
Daylight Donut Shop,,300 South Mississippi,,Ada,OK,74820,United States,580-279-6560,34.7723062,-96.6699153,,,,0
Daylight Donuts,,304 Box Butte Avenue,,Alliance,NE,69301,United States,,42.0971962,-102.8707071,,,,1
Daylight Donuts,,1031 West Florida Avenue,,Hemet,CA,92543,United States,,33.7472696,-116.9824181,,,,1
Wagoner Westside Daylight Donuts,,101 Mockingbird,,Wagoner,OK,74467,United States,918-485-0142,35.9599263,-95.396979,,,,0
Wagoner Westside Daylight Donuts,,101 Mockingbird,,Wagoner,OK,74467,United States,918-485-0142,35.9599263,-95.396979,,,,0
Wagoner Westside Daylight Donuts,,101 Mockingbird,,Wagoner,OK,74467,United States,918-485-0142,35.9599263,-95.396979,,,,0
Daylight Donuts,,600 Highway 18,,Manila,AR,72442,United States,,35.8762558,-90.177393,,,,1
Daylight Donuts,,517 Highway 62 East,,Mountain Home,AR,72653,United States,870-425-9463,36.3357475,-92.3853126,,,,0
Daylight Donuts,,517 Highway 62 East,,Mountain Home,AR,72653,United States,870-425-9463,36.3357475,-92.3853126,,,,0
Daylight Donuts,,1623 West Main Street,,Clarksville,AR,72830,United States,479-754-2726,35.4723997,-93.4828001,,,,0
Daylight Donuts,,1803 West Kingshighway,,Paragould,AR,72450,United States,870-240-0222,36.0568764,-90.5121341,,,,0
Daylight Donuts,,616-b Highway 365,,Mayflower,AR,72106,United States,501-470-9606,34.959496,-92.423425,,,,0
Daylight Donuts,,616-b Highway 365,,Mayflower,AR,72106,United States,501-470-9606,34.959496,-92.423425,,,,0
Daylight Donuts,,8 South Broadview Street,,Greenbrier,AR,72058,United States,501-679-6428,35.2332193,-92.3875014,,,,0
Daylight Donuts of Conway,,505 East Dave Ward Drive,,Conway,AR,72032,United States,501-504-6999,35.0659265,-92.4233035,,,,0
Daylight Donuts,,406 West 11th Street,,Hugoton,KS,69751,United States,620-544-4770,37.1698732,-101.3538094,,,,0
Heavenly Donuts/Daylight Donuts,,1009 Gulf Street,,Lamar,MO,64759,United States,417-682-6211,37.4953901,-94.277938,,,,0
Daylight Donuts,,825 S. Chickasaw,,Pauls Valley,OK,73075,United States,405-207-9200,34.7320649,-97.2131328,,,,0
Daylight Donuts,,1410 Second Avenue NW,,Cullman,AL,35055,United States,256-841-6434,34.1913966,-86.8527837,,,,0
Daylight Donuts,,1128 State Highway 160,Suite B,Warrior,AL,35180,United States,,33.8558315,-86.8081275,,,,1
Daylight Donuts,,15710 Arch Street,,Little Rock,AR,72206,United States,501-725-9089,34.6184114,-92.3156596,,,,0
Frosty's Daylight Donuts,,107 North Main,,Medicine Lodge,KS,67104,United States,620-886-5410,37.280721,-98.5793363,,,,0
Bubba's Drive-Thru/Daylight Donuts,,1110 South Main Street,,Jay,OK,74346,United States,,36.4179761,-94.8061251,,,,1
Sandy's Daylight Donuts,,119 West Carl Hubbell,,Meeker,OK,74855,United States,,35.5032155,-96.8942875,,,,1
Daylight Donuts,,7630 N. Highway 146,,Baytown,TX,77523,United States,281-918-0172,29.813671,-94.902209,,,,0
Daylight Donuts,,136 East Reynolds Street,,Ozark,AL,36360,United States,334-249-5042,31.458006,-85.639434,,,,0
Jeanne B's Glaze Cafe/Daylight Donuts,,407 West Buchanan,,California,MO,65018,United States,,38.6276247,-92.5706881,,,,1
Daylight Donuts,,824 Andrew Avenue,,Ozark,AL,36360,United States,334-249-5042,31.4529247,-85.6503225,,,,0
Bob's Daylight Donuts,,2124 Military Road,,Benton,AR,72015,United States,501-778-1147,34.5845297,-92.569098,,,,0
Daylight Donuts,,509 North Tennessee Street,Suite 111,Cartersville,GA,30120,United States,,34.1768812,-84.7928311,,,,1
Daylight Donut of Greensburg,,101 South Main,Suite 119,Greensburg,KS,67054,United States,620-388-4302,37.6051195,-99.2928399,,,,0
Daylight Donut of Greensburg,,101 South Main,Suite 119,Greensburg,KS,67054,United States,620-388-4302,37.6051195,-99.2928399,,,,0
Daylight Donuts,,1004 North Rose Hill Road,,Rose Hill,KS,67133,United States,316-250-2679,37.5730093,-97.1351723,,,,0
Daylight Donuts,,606 Baltimore Road,,Derby,KS,67037,United States,316-272-9797,37.5484358,-97.2696298,,,,0
Ares Bakery featuring Daylight Dontus,,1126 South 14th Street,,Kingsville,TX,78363,United States,361-592-3403,27.5057773,-97.8555059,,,,0
Daylight Donuts,,927 Armory Road,,Barstow,CA,92311,United States,,34.8840515,-117.0146919,,,,1
