store_name,store_number,address,address2,city,state,zip_code,country,phone_number,latitude,longitude,store_hours,store_type,other_fields,coming_soon
Dunkin Donuts - 3202 Beaubien East St in Montreal,,3202 Beaubien East St,,Montreal,Quebec,H1Y1H7,United States,514-727-0839,,,,,,
Dunkin Donuts - 4060 Ch. De La/Cote-De-Liesse Villa in Mont-Royal,,4060 Ch. De La/Cote-De-Liesse Villa,,Mont-Royal,Quebec,H4N2P7,United States,514-738-1010,,,,,,
Dunkin Donuts - 1 Place Ville-Marie in Montreal,,1 Place Ville-Marie,,Montreal,Quebec,H3B3Y1,United States,514-871-4821,,,,,,
"Dunkin Donuts - 505 Rue St. Catherine E., L# Cc 704 in Montreal",,"505 Rue St. Catherine E., L# Cc 704",,Montreal,Quebec,H2L2C9,United States,514-288-1371,,,,,,
Dunkin Donuts - 6130 Sherbrooke West in Montreal,,6130 Sherbrooke West,,Montreal,Quebec,H4A1Y3,United States,514-484-8116,,,,,,
Dunkin Donuts - 3000 Rue Masson in Montreal,,3000 Rue Masson,,Montreal,Quebec,H1Y1X6,United States,514-374-2158,,,,,,
Dunkin Donuts - 3585 Hochelaga in Montreal,,3585 Hochelaga,,Montreal,Quebec,H1W1H9,United States,514-525-0745,,,,,,
Dunkin Donuts - 5825 Henri Bourassa West in Montreal,,5825 Henri Bourassa West,,Montreal,Quebec,H1G2V1,United States,514-327-6920,,,,,,
Dunkin Donuts - 1661 Route De LAeroport Ancienne in Lorette,,1661 Route De L'Aeroport Ancienne,,Lorette,Quebec,G2G1V6,United States,418-872-3370,,,,,,
Dunkin Donuts - 99 Route 235 in L'Ange-Gardien,,99 Route 235,,L'Ange-Gardien,Quebec,JOE1EO,United States,450-293-3737,,,,,,
Dunkin Donuts - 3085-C Ste-Marie Boulevard in Mascouche,,3085-C Ste-Marie Boulevard,,Mascouche,Quebec,J7K1P2,United States,514-966-1664,,,,,,
Dunkin Donuts - 460 Boulevard Labelle in Laval,,460 Boulevard Labelle,,Laval,Quebec,H7P2P1,United States,450-625-0809,,,,,,
Dunkin Donuts - 2520 Cure-Labelle Blvd in Laval,,2520 Cure-Labelle Blvd,,Laval,Quebec,H7T1R7,United States,450-973-8137,,,,,,
Dunkin Donuts - 1845 Rue St-Elzar in Laval,,1845 Rue St-Elzar,,Laval,Quebec,H7L3N6,United States,450-688-2774,,,,,,
Dunkin Donuts - 2305 Blvd Industriel in Laval,,2305 Blvd Industriel,,Laval,Quebec,H7S1P8,United States,--,,,,,,
Dunkin Donuts - 637 32nd Avenue in Lachine,,637 32nd Avenue,,Lachine,Quebec,H8T3G6,United States,514-637-6687,,,,,,
Dunkin Donuts - 4501 Wellington St in Verdun,,4501 Wellington St,,Verdun,Quebec,H4G1W8,United States,514-769-2953,,,,,,
Dunkin Donuts - 380 Marais in Vanier,,380 Marais,,Vanier,Quebec,G1M3A2,United States,418-688-8571,,,,,,
"Dunkin Donuts - 267 Boul. Arthur Sauve, Local 157 in Ste-Eustache",,"267 Boul. Arthur Sauve, Local 157",,Ste-Eustache,Quebec,J7P4X4,United States,514-974-3636,,,,,,
Dunkin Donuts - 990 Route Marie-Victorin in Tracy,,990 Route Marie-Victorin,,Tracy,Quebec,J3R1L3,United States,450-742-0002,,,,,,
Dunkin Donuts - 1200 Boul. Des Seigneurs in Terrebonne,,1200 Boul. Des Seigneurs,,Terrebonne,Quebec,J6W3W4,United States,450-471-6771,,,,,,
Dunkin Donuts - 2491 Chemin Ste-Foy,,2491 Chemin Ste-Foy,,Ste-Foy,Quebec,G1V1T7,United States,418-652-8926,,,,,,
Dunkin Donuts - 110 Rang Saint-Francois in Terrebonne,,110 Rang Saint-Francois,,Terrebonne,Quebec,J6Y1J5,United States,450-437-6825,,,,,,
Dunkin Donuts - 170 Blu Fiset in Sorel,,170 Blu Fiset,,Sorel,Quebec,J3P3P4,United States,514-742-8295,,,,,,
Dunkin Donuts - 1730 Royal Blvd in Shawinign,,1730 Royal Blvd,,Shawinign,Quebec,G9N8S8,United States,819-537-0964,,,,,,
Dunkin Donuts - 850 St-Maurice Trois in Rivieres,,850 St-Maurice Trois,,Rivieres,Quebec,G9A3P6,United States,819-693-3278,,,,,,
Dunkin Donuts - 70 Wellington North in Sherbrooke,,70 Wellington North,,Sherbrooke,Quebec,J1H5B8,United States,819-569-1445,,,,,,
"Dunkin Donuts - 320 Rue St. Joseph Est., Local Rc - 116 in Quebec",,"320 Rue St. Joseph Est., Local Rc - 116",,Quebec,Quebec,G1K8G5,United States,418-521-4848,,,,,,
"Dunkin Donuts - Eaton Centre   #1254, 705 Rue Ste Catherine Ouest in Montreal",,"Eaton Centre   #1254, 705 Rue Ste Catherine Ouest",,Montreal,Quebec,H3B4G5,United States,514-285-1265,,,,,,
Dunkin Donuts - 8960 Sherbrooke Street East in Montreal,,8960 Sherbrooke Street East,,Montreal,Quebec,H1L1C7,United States,514-354-4853,,,,,,
"Dunkin Donuts - 845 Ste-Catherine,East 201 in Montreal",,"845 Ste-Catherine,East 201",,Montreal,Quebec,H2L4M4,United States,514-843-4063,,,,,,
Dunkin Donuts - 8005 Rue Langelier in Montreal,,8005 Rue Langelier,,Montreal,Quebec,H1P2X6,United States,514-323-3772,,,,,,
"Dunkin Donuts - 7275 Sherbrooke East,Local 3 in Montreal",,"7275 Sherbrooke East,Local 3",,Montreal,Quebec,H1N1E9,United States,514-354-8491,,,,,,
"Dunkin Donuts - 620 Avenue Atwater, Suite Cc039 in Montreal",,"620 Avenue Atwater, Suite Cc039",,Montreal,Quebec,H4C2G6,United States,514-931-6078,,,,,,
Dunkin Donuts - 1050 Labelle Blvd St in Jerome,,1050 Labelle Blvd St,,Jerome,Quebec,J7Z5N6,United States,514-348-7755,,,,,,
Dunkin Donuts - 795 Firestone Blvd in Joliette,,795 Firestone Blvd,,Joliette,Quebec,J6E2W4,United States,514-752-2040,,,,,,
Dunkin Donuts - 535  Arthur Sauve Blvd St in Eustache,,535  Arthur Sauve Blvd St,,Eustache,Quebec,J7P4X4,United States,450-473-9016,,,,,,
Dunkin Donuts - 171 Blvd Arthur Sauve St. in Eustache,,171 Blvd Arthur Sauve St.,,Eustache,Quebec,J7P2A5,United States,450-473-8583,,,,,,
Dunkin Donuts - 555 St Charles Borromee in Joliette,,555 St Charles Borromee,,Joliette,Quebec,J8E4S6,United States,450-759-9988,,,,,,
Dunkin Donuts - 1020 Rue Principale in Granby,,1020 Rue Principale,,Granby,Quebec,J2J2N7,United States,450-375-4634,,,,,,
Dunkin Donuts - 605 Rue Thibeau in Cap-De-La-Madeleine,,605 Rue Thibeau,,Cap-De-La-Madeleine,Quebec,G8T6Z6,United States,--,,,,,,
Dunkin Donuts - 471 Boul Des Laurentides St in Antoine,,471 Boul Des Laurentides St,,Antoine,Quebec,J7Z4L9,United States,450-432-2227,,,,,,
Dunkin Donuts - 7721 Taschereau Blvd in Brossard,,7721 Taschereau Blvd,,Brossard,Quebec,J4Y1A3,United States,450-678-4847,,,,,,
Dunkin Donuts - 1555 Boul. Montarville in Boucherville,,1555 Boul. Montarville,,Boucherville,Quebec,J4B8T3,United States,450-645-9848,,,,,,
Dunkin Donuts - 2360 Ch. Des Patriotes Notre Dame De in Bonsecours,,2360 Ch. Des Patriotes Notre Dame De,,Bonsecours,Quebec,J0E1H0,United States,450-447-9748,,,,,,
Dunkin Donuts - 600 Boulevard Laurier Local E9 in Beloeil,,600 Boulevard Laurier Local E9,,Beloeil,Quebec,J3G4J2,United States,450-464-1913,,,,,,
