store_name,store_number,address,address2,city,state,zip_code,country,phone_number,latitude,longitude,store_hours,store_type,other_fields,coming_soon
386 Main Street,,386 Main Street ,,Wakefield ,MA,01880,United States,781-245-5526,,,,,,
435 Lynnway,,435 Lynnway ,,Lynn ,MA,02048,United States,781-595-3129,,,,,,
79 Coddington Street,,79 Coddington Street ,,Quincy ,MA,02169,United States,,,,,,,
362 Main Street,,362 Main Street ,,Stoneham ,MA,02180,United States,781-438-4004,,,,,,
915 Main Street,,915 Main Street ,,Wakefield ,MA,01880,United States,781-245-5655,,,,,,
1067 Western Avenue,,1067 Western Avenue ,,Lynn ,MA,01752,United States,781-593-9578,,,,,,
888 Main Street,,888 Main Street ,,Melrose ,MA,02176,United States,781-662-1770,,,,,,
691 Eastern Avenue,,691 Eastern Avenue ,,Malden ,MA,02649,United States,781-397-8200,,,,,,
304 Squire Road,,304 Squire Road ,,Revere ,MA,02151,United States,781-284-5898,,,,,,
520 Broadway,,520 Broadway ,,Revere ,MA,02151,United States,781-284-6705,,,,,,
470 Meridian Street,,470 Meridian Street ,,East Boston ,MA,02128,United States,781-397-8200,,,,,,
2 Shirley Street,,2 Shirley Street ,,Winthrop ,MA,02152,United States,617-539-9090,,,,,,
604 Hartford Turnpike,,604 Hartford Turnpike ,,Shrewsbury ,MA,01545,United States,,,,,,,
1181 West Boylston Street,,1181 West Boylston Street ,,Worcester ,MA,01606,United States,508-796-5130,,,,,,
747 Plantation Street,,747 Plantation Street ,,Worcester ,MA,01605,United States,,,,,,,
540 Massasoit Avenue,,540 Massasoit Avenue ,,Worcester ,MA,01604,United States,508-363-3790,,,,,,
851 Grafton Street,,851 Grafton Street ,,Worcester ,MA,01604,United States,508-757-8899,,,,,,
99 Gold Star Boulevard,,99 Gold Star Boulevard ,,Worcester ,MA,01606,United States,508-853-4245,,,,,,
101 Highland Street,,101 Highland Street ,,Worcester ,MA,01609,United States,508-438-0201,,,,,,
290 County Street,,290 County Street ,,Attleboro ,MA,02703,United States,508-222-0719,,,,,,
2130 Mendon Road,,2130 Mendon Road ,,Cumberland ,RI,02864,United States,401-475-0985,,,,,,
141 Veterans Memorial Dr,,141 Veterans Memorial Dr ,,Apponaug ,RI,02886,United States,401-739-8673,,,,,,
2084 Diamond Hill Road,,2084 Diamond Hill Road ,,Cumberland ,RI,02864,United States,401-333-2651,,,,,,
670 Jefferson Boulevard,,670 Jefferson Boulevard ,,Warwick ,RI,02888,United States,401-681-4115,,,,,,
480 Washington Street,,480 Washington Street ,,Attleboro ,MA,02703,United States,508-399-8850,,,,,,
1766 Warwick Ave,,1766 Warwick Ave ,,Warwick ,RI,02889,United States,401-732-4403,,,,,,
154 Central Avenue,,154 Central Avenue ,,Seekonk ,MA,02771,United States,508-761-9110,,,,,,
690 Oaklawn Avenue,,690 Oaklawn Avenue ,,Cranston ,RI,02920,United States,401-946-5450,,,,,,
1515 Newport Avenue,,1515 Newport Avenue ,,Pawtucket ,RI,02861,United States,401-723-5580,,,,,,
179 Front Street,,179 Front Street ,,Lincoln ,RI,02865,United States,401-728-3990,,,,,,
652 Bullock Point Avenue,,652 Bullock Point Avenue East ,,Providence ,RI,02915,United States,401-433-3219,,,,,,
421 Taunton Avenue,,421 Taunton Avenue ,,Seekonk ,MA,02771,United States,508-336-0426,,,,,,
1889 Plainfield Pike,,1889 Plainfield Pike ,,Johnston ,RI,02919,United States,401-919-2951,,,,,,
2033 Smith Street,,2033 Smith Street N. ,,Providence ,RI,02911,United States,401-354-4640,,,,,,
751 Fall River Avenue,,751 Fall River Avenue ,,Seekonk ,MA,02771,United States,508-336-4117,,,,,,
300 Atwood Avenue,,300 Atwood Avenue ,,Cranston ,RI,02920,United States,401-943-6365,,,,,,
1085 Waterman Avenue,,1085 Waterman Avenue East ,,Providence ,RI,02914,United States,401-434-2122,,,,,,
100 Newport Avenue,,100 Newport Avenue East ,,Providence ,RI,02916,United States,401-434-7927,,,,,,
1334 Park Avenue,,1334 Park Avenue ,,Cranston ,RI,02920,United States,,,,,,,
548 Reservoir Avenue,,548 Reservoir Avenue ,,Cranston ,RI,02910,United States,401-954-6356,,,,,,
729 Hartford Avenue,,729 Hartford Avenue ,,Providence ,RI,02909,United States,401-861-3235,,,,,,
460 Allens Avenue,,460 Allens Avenue ,,Providence ,RI,02905,United States,401-490-3833,,,,,,
82 Thomas Street,,82 Thomas Street ,,Worcester ,MA,01609,United States,508-757-9737,,,,,,
259-264 Valley Street,,259-264 Valley Street ,,Providence ,RI,02904,United States,,,,,,,
426 Main Street,,426 Main Street ,,Worcester ,MA,01608,United States,508-459-9514,,,,,,
162 Rockingham Rd,,162 Rockingham Rd ,,Londonderry ,NH,03053,United States,603-434-1873,,,,,,
273 Littleton Road,,273 Littleton Road ,,Chelmsford ,MA,01824,United States,978-596-1024,,,,,,
1740 Middlesex Street,,1740 Middlesex Street ,,Lowell ,MA,01851,United States,978-455-3766,,,,,,
Route 128 N,,Route 128 N Lexington ,,,MA,01905,United States,781-861-1144,,,,,,
Route 128 S,,Route 128 S ,,Newton ,MA,02747,United States,617-332-1771,,,,,,
174 State Road,,174 State Road ,,Westport ,MA,02790,United States,508-672-0266,,,,,,
2813 Acushnet Avenue,,2813 Acushnet Avenue ,,New Bedford ,MA,02746,United States,508-998-2464,,,,,,
551 Church Street,,551 Church Street ,,New Bedford ,MA,02745,United States,508-998-3055,,,,,,
87 Huttleston Avenue,,87 Huttleston Avenue ,,Fairhaven ,MA,02719,United States,508-990-2100,,,,,,
855 Broadway,,855 Broadway ,,Raynham ,MA,02767,United States,508-880-3698,,,,,,
375 Neponset Street,,375 Neponset Street ,,Canton ,MA,02021,United States,781-575-8955,,,,,,
1285 Broadway,,1285 Broadway ,,Raynham ,MA,02767,United States,508-880-8787,,,,,,
2760 Washington Street,,2760 Washington Street ,,Canton ,MA,02021,United States,781-828-7333,,,,,,
1485 Pleasant Street,,1485 Pleasant Street ,,Bridgewater ,MA,02324,United States,508-697-2800,,,,,,
489 Bolivar Street,,489 Bolivar Street ,,Canton ,MA,02021,United States,781-575-9268,,,,,,
482 Market Street,,482 Market Street ,,Rockland ,MA,02370,United States,781-878-0847,,,,,,
458 Pearl Street,,458 Pearl Street ,,Stoughton ,MA,02072,United States,781-344-3303,,,,,,
60 Franklin Street,,60 Franklin Street ,,East Bridgewater ,MA,02333,United States,781-447-0058,,,,,,
86 Mazzeo Drive,,86 Mazzeo Drive ,,Randolph ,MA,02368,United States,781-963-0609,,,,,,
475 West Center Street,,475 West Center Street W. ,,Bridgewater ,MA,02379,United States,508-559-8054,,,,,,
715 Plymouth Street,,715 Plymouth Street ,,Abington ,MA,02351,United States,781-871-5008,,,,,,
475 North Bedford St,,475 North Bedford St ,,East Bridgewater ,MA,02333,United States,508-456-1328,,,,,,
2 Belmont St,,2 Belmont St ,,Easton ,MA,02375,United States,508-238-0277,,,,,,
680 Center Street,,680 Center Street ,,Brockton ,MA,02532,United States,774-517-5965,,,,,,
541 Pleasant Street,,541 Pleasant Street ,,Brockton ,MA,02301,United States,508-586-0080,,,,,,
1409 Cove Road,,1409 Cove Road ,,New Bedford ,MA,02760,United States,508-993-3080,,,,,,
260 Coggeshall Street,,260 Coggeshall Street ,,New Bedford ,MA,02746,United States,508-992-5919,,,,,,
142 Lowell Street,,142 Lowell Street ,,Wakefield ,MA,01880,United States,781-224-0966,,,,,,
156 Andover Street,,156 Andover Street ,,Danvers ,MA,01923,United States,978-762-7300,,,,,,
130 Newbury Street,,130 Newbury Street ,,Peabody ,MA,01960,United States,978-826-5606,,,,,,
140 Canal Street,,140 Canal Street ,,Salem ,MA,01970,United States,978-498-4686,,,,,,
1363 South Main Street,,1363 South Main Street ,,Fall River ,MA,02724,United States,508-677-4600,,,,,,
200 Broadway,,200 Broadway ,,Fall River ,MA,02721,United States,508-324-4871,,,,,,
118 Plymouth Avenue,,118 Plymouth Avenue ,,Fall River ,MA,02721,United States,508-678-6772,,,,,,
285 Morse Street Extension,,285 Morse Street ,,Extension Norwood ,MA,02062,United States,781-551-9919,,,,,,
100 Boston Post Road,,100 Boston Post Road ,,Sudbury ,MA,01776,United States,978-443-2397,,,,,,
179 West Central Street,,179 West Central Street ,,Natick ,MA,01760,United States,508-653-9829,,,,,,
18 Mammoth Road,,18 Mammoth Road ,,Windham ,NH,03087,United States,603-259-1192,,,,,,
103 East Main Street,,103 East Main Street ,,Georgetown ,MA,01833,United States,978-352-8805,,,,,,
2 Taunton Street,,2 Taunton Street ,,Plainville ,MA,02762,United States,508-695-3236,,,,,,
760 Cumberland Hill Road,,760 Cumberland Hill Road ,,Woonsocket ,RI,02895,United States,401-769-0708,,,,,,
3450 Mendon Road,,3450 Mendon Road ,,Cumberland ,RI,02864,United States,401-658-1141,,,,,,
127 Pleasant Street,,127 Pleasant Street ,,Attleboro ,MA,02703,United States,508-222-5500,,,,,,
Route 118,,Route 118 ,,Rehoboth ,MA,02769,United States,508-431-2784,,,,,,
225 East Washington Street,,225 East Washington Street N. ,,Attleboro ,MA,02760,United States,508-699-0075,,,,,,
318 Emerson Avenue,,318 Emerson Avenue ,,Hampstead ,NH,03841,United States,603-329-6600,,,,,,
29 Hudson Road,,29 Hudson Road ,,Sudbury ,MA,01776,United States,978-443-5700,,,,,,
57 Centre Street,,57 Centre Street ,,Middleboro ,MA,02176,United States,508-923-1167,,,,,,
61 West Main Street,,61 West Main Street ,,Norton ,MA,02766,United States,508-285-3866,,,,,,
63 Bedford Street,,63 Bedford Street ,,Middleboro ,MA,02346,United States,508-946-9048,,,,,,
245 Cape Highway,,245 Cape Highway ,,Taunton ,MA,02718,United States,508-824-3592,,,,,,
622 North Main Street,,622 North Main Street ,,Raynham ,MA,02767,United States,508-824-3979,,,,,,
325 New State Highway,,325 New State Highway ,,Raynham ,MA,02767,United States,508-386-2811,,,,,,
306 Winthrop Street,,306 Winthrop Street ,,Taunton ,MA,02780,United States,774-501-2666,,,,,,
185 Weir Street,,185 Weir Street ,,Taunton ,MA,02780,United States,508-828-5978 ,,,,,,
1095 County Street,,1095 County Street ,,Taunton ,MA,02780,United States,508-822-8889,,,,,,
31 Main Street,,31 Main Street ,,Dennisport ,MA,02639,United States,508-398-4342,,,,,,
44 Falmouth Rd,,44 Falmouth Rd ,,Mashpee ,MA,02465,United States,508-477-7500,,,,,,
313 Iyannough Road,,313 Iyannough Road ,,Hyannis ,MA,02601,United States,508-778-5028,,,,,,
32 Commercial Street,,32 Commercial Street ,,Foxboro ,MA,02035,United States,508-543-5750,,,,,,
99 Copeland Drive,,99 Copeland Drive ,,Mansfield ,MA,02048,United States,508-339-5299,,,,,,
118 Prospect Street,,118 Prospect Street ,,Milford ,MA,01757,United States,508-478-2619,,,,,,
140 South Main Street,,140 South Main Street ,,Milford ,MA,01757,United States,508-422-9868,,,,,,
213 E Central Street,,213 E Central Street ,,Franklin ,MA,02038,United States,508-528-8083,,,,,,
405 West Central Street,,405 West Central Street ,,Franklin ,MA,02038,United States,508-528-1625,,,,,,
19 North Main Street,,19 North Main Street ,,Bellingham ,MA,02019,United States,508-966-1500,,,,,,
290 Pulaski Boulevard,,290 Pulaski Boulevard ,,Bellingham ,MA,02019,United States,508-883-4580,,,,,,
236 Pond Street,,236 Pond Street ,,Ashland ,MA,01721,United States,508-881-9227,,,,,,
14 West Union Street,,14 West Union Street ,,Ashland ,MA,01721,United States,508-881-1522,,,,,,
861 Edgell Road,,861 Edgell Road ,,Framingham ,MA,01701,United States,508-877-5495,,,,,,
191 Washington Street,,191 Washington Street ,,Hudson ,MA,01749,United States,978-562-5520,,,,,,
2 Connector Road,,2 Connector Road ,,Westboro ,MA,01581,United States,508-329-1459,,,,,,
495 Boston Post Road East,,495 Boston Post Road ,,East Marlboro ,MA,01752,United States,508-229-0407,,,,,,
