store_name,store_number,address,address2,city,state,zip_code,country,phone_number,latitude,longitude,store_hours,store_type,other_fields,coming_soon
Mobile Mini - Odessa,,12700 West County Rd 100 ,,Odessa ,Texas,79765,United States,432.242.2743,,,M-F 8am-5pm,,,
Mobile Mini - Milwaukee,,5223 S. 9th Street ,,Milwaukee ,Wisconsin,53221,United States,414.258.7173,,,M-F 8am-5pm,,,
Mobile Mini - Greenville,,361 Highway 183 ,,Piedmont ,Carolina,29673,United States,864.269.2562,,,M-F 8am-5pm,,,
Mobile Mini - Sioux Falls,,27083 Sundowner Ave. ,,Sioux Falls South ,Dakota,57106,United States,605.368.2975,,,M-F 8am-5pm,,,
Mobile Mini - Bridgeville,,981 Steen Road ,,Bridgeville ,Pennsylvania,15017,United States,412.220.4478,,,M-F 8am-5pm,,,
Mobile Mini - North Salt Lake,,95 North 700 West Ste G ,,North Salt Lake City ,Utah,84054,United States,801.936.0301,,,M-F 8am-5pm,,,
Mobile Mini - Barre,,225 Websterville Road ,,Barre ,Vermont,05641,United States,802.505.9884,,,M-F 8am-5pm,,,
Mobile Mini - Toronto,,73 Browns Line,,Toronto,Ontario,M8W 3S2,Canada,416.255.0805,,,M-F 8am-5pm,,,
Mobile Mini - Tulsa,,12044 East Pine Street ,,Tulsa ,Oklahoma,74116,United States,918.879.1176,,,M-F 8am-5pm,,,
Mobile Mini - Oklahoma City,,14120 South Meridian ,,Oklahoma City ,Oklahoma,73173,United States,405.814.1300,,,M-F 8am-5pm,,,
Mobile Mini - Manassas,,7750 Wellingford Drive ,,Manassas ,Virginia,20109,United States,703.291.0251,,,Hours M-F 8am-5pm,,,
Mobile Mini - Lindon,,135 South 1200 ,,West Lindon ,Utah,84042,United States,801.936.1755,,,M-F 8am-5pm,,,
Mobile Mini - Philadelphia,,4601 Pearce Street ,,Philadelphia ,Pennsylvania,19137,United States,484.540.9073,,,M-F 8am-5pm,,,
Mobile Mini - Cookeville,,1297 Boyd Farris Rd ,,Cookeville ,Tennessee,38506,United States,931.398.5808,,,M-F 8am-5pm,,,
Mobile Mini - Portland,,5940 NE Cully Boulevard ,,Portland ,Oregon,97218,United States,503.252.9407,,,M-F 8am-5pm,,,
Mobile Mini - Roanoke,,3120 Hollins Road NE ,,Roanoke ,Virginia,24012,United States,540.725.4333,,,M-F 8am-5pm,,,
Mobile Mini - Ashland,,14027 Washington Highway ,,Ashland ,Virginia,23005,United States,804.798.8099,,,M-F 8am-5pm,,,
Mobile Mini - Nashville,,1700 Nolensville Rd. ,,Nashville ,Tennessee,37210,United States,615.254.0039,,,M-F 8am-5pm,,,
Mobile Mini - Cleveland,,2699 Waterlevel Highway ,,Cleveland ,Tennessee,37323,United States,423.402.8351,,,M-F 8am-5pm,,,
Mobile Mini - West Bridgewater,,125 Manley St. ,,West Bridgewater ,Massachusetts,02379,United States,508.427.5869,,,M-F 8am-5pm,,,
Mobile Mini - Goldsboro,,1015 Old Trail Road ,,Goldsboro ,Pennsylvania,17319,United States,717.938.3728,,,M-F 8am-5pm,,,
Mobile Mini - Spokane Valley,,17815 East Euclid Ave ,,Spokane Valley ,Washington,99216,United States,509.209.9322,,,M-F 8am-5pm,,,
Mobile Mini - Denver,,5300 Eudora Street ,,Commerce City ,Colorado,80022,United States,303.853.0184,,,M-F 8am-5pm,,,
Mobile Mini- Monteagle,,961 Dixie Lee Ave ,,Monteagle ,Tennessee,37356,United States,931.398.5326,,,M-F 8am-5pm,,,
Mobile Mini - Allentown,,1960 Weaverville Road ,,Allentown ,Pennsylvania,18109,United States,610.337.2279,,,M-F 8am-5pm,,,
Mobile Mini - Madison,,4601 Femrite Drive ,,Madison ,Wisconsin,53716,United States,608.223.9750,,,Branch Hours M-F 8am-5pm,,,
Mobile Mini - Knoxville,,1775 Transport Lane ,,Knoxville ,Tennessee,37924,United States,865.525.8218,,,M-F 8am-5pm,,,
Mobile Mini - Justin,,9540 FM 1384 ,,Justin ,Texas,76247,United States,214.821.5115,,,M-F 8am-5pm,,,
Mobile Mini - Monroe,,17200 177th Ave SE ,,Monroe ,Washington,98272,United States,360.794.0448,,,M-F 8am-5pm,,,
Mobile Mini - Schertz,,18780 IH 35 North Suite 8 ,,Schertz ,Texas,78154,United States,830.632.2401,,,M-F 8am-5pm,,,
Mobile Mini - Houston,,5930 Winfield Road ,,Houston ,Texas,77050,United States,713.280.0655,,,M-F 8am-5pm,,,
Mobile Mini - Edinburg,,6001 N Expressway 281 ,,Edinburg ,Texas,78542,United States,956.797.4986,,,M-F 8am-5pm,,,
Mobile Mini - Memphis,,4800 Malone Rd ,,Memphis ,Tennessee,38118,United States,901.795.3980,,,M-F 8am-5pm,,,
Mobile Mini - Corpus Christi,,1833 Suntide Road ,,Corpus Christi ,Texas,78409,United States,361.241.8587,,,M-F 8am-5pm,,,
Mobile Mini - Nederland,,5495 N. Twin City Hwy ,,Nederland ,Texas,77627,United States,409.210.2512,,,M-F 8am-5pm,,,
Mobile Mini- Laredo,,6209 McPherson Rd ,,Laredo ,Texas,78041,United States,956.233.7547,,,M-F 8am-5pm,,,
Mobile Mini - El Paso,,11931 Trans Park Drive ,,El Paso ,Texas,79927,United States,915.860.0669,,,M-F 8am-5pm,,,
Mobile Mini - Dallas,,3550 Duncanville Road ,,Dallas ,Texas,75236,United States,214.330.8270,,,M-F 8am-5pm,,,
Mobile Mini - Olympia,,12921 Case Road SW ,,Olympia ,Washington,98512,United States,425.489.9755,,,M-F 8am-5pm,,,
Mobile Mini - North Charleston,,7206 Bryhawke Circle North ,,Charleston ,Carolina,29418,United States,843.552.1288,,,M-F 8am-5pm,,,
Mobile Mini - Piedmont,,4758 Sturgis Rd. ,,Rapid City South ,Dakota,57702,United States,605.595.4645,,,M-F 8am-5pm,,,
Mobile Mini - Austin,,2851 South A.W. Grimes ,,Austin ,Texas,78664,United States,512.251.2461,,,M-F 8am-5pm,,,
Mobile Mini - Columbus,,871 Buckeye Park Road ,,Columbus ,Ohio,43207,United States,614.449.8675,,,M-F 8am-5pm,,,
Mobile Mini - Virginia Beach,,5049 Southern Blvd Suite D ,,Virginia Beach ,Virginia,23462,United States,757.372.4018,,,M-F 8am-5pm,,,
Mobile Mini - North Andover,,1600 Osgood Street Suite 2078 ,,North Andover ,Massachusetts,01845,United States,978.465.3000,,,M-F 8am-5pm,,,
Mobile Mini - South Plainfield,,2400 Roosevelt Avenue South ,,Plainfield ,Jersey,07080,United States,908.561.4839,,,M-F 8am-5pm,,,
Mobile Mini - Hinckley,,2643 Great Lakes Way ,,Hinckley ,Ohio,44233,United States,330.220.0140,,,M-F 8am-5pm,,,
Mobile Mini - Omaha,,4506 S 52nd St ,,Omaha ,Nebraska,68117,United States,402.206.2513,,,Hour: M-F 8am-5pm,,,
Mobile Mini- Utica,,2222 Oriskany St. ,,Utica ,York,13502,United States,315.732.4555,,,M-F 8am-5pm,,,
Mobile Mini - Las Vegas,,14425 Arville Street ,,Las Vegas ,Nevada,89054,United States,702.651.1006,,,M-F 8am-5pm,,,
Mobile Mini - Maysville,,6152 New Bern Highway ,,Maysville ,Carolina,82555,United States,252.522.2340,,,Branch Hours M-F 8am-5pm,,,
Mobile Mini - Pearl,,5129 McRaven Rd. ,,Jackson ,Mississippi,39208,United States,601.206.0953,,,M-F 8am-5pm,,,
Mobile Mini - Moorhead,,1621 23rd Street ,,South Moorhead ,Minnesota,56560,United States,605.335.6442,,,M-F 8am-5pm,,,
Mobile Mini - Reno,,9959 N. Virginia St. ,,Reno ,Nevada,89506,United States,775.434.2908,,,M-F 8am-5pm,,,
Mobile Mini - Williston,,13546 Bassett Lane NW ,,Williston ,Dakota,58801,United States,701.264.5102,,,M-F 8am-5pm,,,
Mobile Mini - Gaston,,3 Palmetto Court ,,Gaston ,Carolina,29053,United States,803.739.4611,,,M-F 8am-5pm,,,
Mobile Mini - Bohemia,,899 Lincoln Ave STE B ,,Bohemia ,York,11716,United States,631.543.4901,,,M-F 8am-5pm,,,
Mobile Mini - Rochester,,1075 Buffalo Road Suite 200 ,,Rochester ,York,14624,United States,585.421.7324,,,M-F 8am-5pm,,,
Mobile Mini - East Syracuse,,6408 Collamer Road ,,East Syracuse ,York,13057,United States,315.326.1493,,,M-F 8am-5pm,,,
Mobile Mini - Buffalo,,95 Hopkins Street ,,Buffalo ,York,14220,United States,716.825.4628,,,M-F 8am-5pm,,,
Mobile Mini - Kansas City,,5000 Stilwell St. ,,Kansas City ,Missouri,64120,United States,816.921.3206,,,M-F 8am-5pm,,,
Mobile Mini - Albuquerque,,5328 Edith Blvd. N.E. ,,Albuquerque ,Mexico,87107,United States,505.792.3284,,,M-F 8am-5pm,,,
Mobile Mini - Lino Lakes,,7309 Lake Drive ,,Lino Lakes ,Minnesota,55014,United States,651.463.1230,,,M-F 8am-5pm,,,
Mobile Mini - Fuera Bush,,1353 Indian Fields Road ,,Feura Bush ,York,12067,United States,518.439.3119,,,M-F 8am-5pm,,,
Mobile Mini - Knightdale,,618 Three Sisters Road ,,Knightdale ,Carolina,27545,United States,919.365.0377,,,M-F 8am-5pm,,,
Mobile Mini - Springfield,,2615 N Eastgate ,,Springfield ,Missouri,65803,United States,417.208.5020,,,M-F 8am-5pm,,,
Mobile Mini - Charlotte,,7121 Statesville Road ,,Charlotte ,Carolina,28269,United States,704.597.9544,,,M-F 8am-5pm,,,
Mobile Mini - Greensboro,,4444 Burlington Road ,,Greensboro ,Carolina,27405,United States,919.365.3057,,,M-F 8am-5pm,,,
Mobile Mini - Fairfield,,4444 Dixie Hwy ,,Fairfield ,Ohio,45014,United States,513.353.9802,,,M-F 8am-5pm,,,
Mobile Mini - Fletcher,,30 Old Brickyard Road ,,Fletcher ,Carolina,28732,United States,828.585.5031,,,M-F 8am-5pm,,,
Mobile Mini - Warren,,22445 Groesbeck Highway ,,Warren ,Michigan,48089,United States,586.443.4820,,,M-F 8am-5pm,,,
Mobile Mini - Fort Wayne,,5314 Old Maumee Road Fort ,,Wayne ,Indiana,46803,United States,260.748.2037,,,M-F 8am-5pm,,,
Mobile Mini - Louisville,,2710 Millers Lane ,,Louisville ,Kentucky,40216,United States,502.772.0448,,,M-F 8am-5pm,,,
Mobile Mini - Dundalk,,4254 N. Point Road Suite 106 ,,Dundalk ,Maryland,21222,United States,410.388.0092,,,M-F 8am-5pm,,,
Mobile Mini - Calumet Park,,12658 S. Winchester Ave ,,Calumet Park ,Illinois,60827,United States,708.297.2004,,,M-F 8am-5pm,,,
Mobile Mini - Des Moines,,4545 NE 14th St ,,Des Moines ,Iowa,50313,United States,515.528.7027,,,M-F 8am-5pm,,,
Mobile Mini - Calhoun,,2673 US 41 Hwy NE ,,Calhoun ,Georgia,30701,United States,706.514.1028,,,M-F 8am-5pm,,,
Mobile Mini - Savannah,,175 Container Rd. Unit C ,,Savannah ,Georgia,31415,United States,843.853.0074,,,M-F 8am-5pm,,,
Mobile Mini - Morrow,,1055 C Southern Road ,,Morrow ,Georgia,30260,United States,678.734.3004,,,M-F 8am-5pm,,,
Mobile Mini - Tampa,,4311 Hwy 301 N ,,Tampa ,Florida,33610,United States,813.241.9273,,,M-F 8am-5pm,,,
Mobile Mini - Tallahassee,,7579 West Tennessee Street ,,Tallahassee ,Florida,32304,United States,850.270.2419,,,M-F 8am-5pm,,,
Mobile Mini - Pensacola,,8791 Paul Starr Drive ,,Pensacola ,Florida,32514,United States,850.475.5932,,,M-F 8am-5pm,,,
Mobile Mini - Orlando,,11622 Boggy Creek Road ,,Orlando ,Florida,32824,United States,407.851.5666,,,M-F 8am-5pm,,,
Mobile Mini - Nampa,,607 Barger Street ,,Nampa ,Idaho,83687,United States,208.258.2091,,,M-F 8am-5pm,,,
Mobile Mini - Pembroke Pines,,5900 SW 202nd Avenue ,,Pembroke Pines ,Florida,33332,United States,954.745.0027,,,M-F 8am-5pm,,,
Mobile Mini - Saticoy,,1794 Lirio Ave. ,,Saticoy ,California,93004,United States,805.325.7069,,,M-F 8am-5pm,,,
Mobile Mini - Rialto,,2660 N. Locust Ave. ,,Rialto ,California,92377,United States,909.770.7250,,,M-F 8am-5pm,,,
Mobile Mini - Colorado Springs,,2905 Capital Drive ,,Colorado Springs ,Colorado,80939,United States,719.574.1282,,,M-F 8am-5pm,,,
Mobile Mini - San Diego,,12345 Crosthwaite Circle ,,Poway ,California,92064,United States,858.748.1054,,,M-F 8am-5pm,,,
Mobile Mini - Sulphur,,191 Production Dr ,,Sulphur ,Louisiana,70663,United States,337.313.4673,,,M-F 8am-5pm,,,
Mobile Mini - Indio,,43850 Monroe Street ,,Indio ,California,92201,United States,760.592.7249,,,M-F 8am-5pm,,,
Mobile Mini - St. Louis,,4006 N. Broadway ,,Saint Louis ,Missouri,63147,United States,314.385.2736,,,M-F 8am-5pm,,,
Mobile Mini - Los Angeles,,22632 S. Alameda St. ,,Carson ,California,90810,United States,310.515.4804,,,M-F 8am-5pm,,,
Mobile Mini - Lathrop,,16351 S. McKinley Avenue ,,Lathrop ,California,95330,United States,209.858.9300,,,M-F 8am-5pm,,,
Mobile Mini - Sacramento,,8160 Junipero Street ,,Sacramento ,California,95828,United States,916.381.1368,,,M-F 8am-5pm,,,
Mobile Mini - Fresno,,2486 W. McKinley Avenue ,,Fresno ,California,93728,United States,559.441.4334,,,M-F 8am-5pm,,,
Mobile Mini - Park City,,250 W. 53rd Street N. ,,Park City ,Kansas,67219,United States,316.838.2564,,,M-F 8am-5pm,,,
Mobile Mini - Lancaster,,42207 Third Street ,,East Lancaster ,California,93535,United States,909.356.1690,,,M-F 8am-5pm,,,
Mobile Mini - Chico,,3902 Esplanade ,,Chico ,California,95973,United States,530.345.7645,,,M-F 8am-5pm,,,
Mobile Mini - Suffield,,911 South Street Mach 1 ,,Industrial Park Suffield ,Connecticut,06078,United States,860.668.1671,,,M-F 8am-5pm,,,
Mobile Mini - New Milford,,40 Sullivan Road ,,New New Milford ,Connecticut,06776,United States,860.350.6557,,,M-F 8am-5pm,,,
Mobile Mini - Jacksonville,,8825 Moncrief/Dinsmore Rd. ,,Jacksonville ,Florida,32219,United States,904.765.3544,,,M-F 8am-5pm,,,
Mobile Mini - Hawthorne,,4720 SE US Hwy 301 ,,Hawthorne ,Florida,32640,United States,352.203.1004,,,M-F 8am-5pm,,,
Mobile Mini - Fort Pierce,,500 Rock Road ,,North Fort Pierce ,Florida,34945,United States,772.460.5557,,,M-F 8am-5pm,,,
Mobile Mini - Bakersfield,,3213 Gibson Street ,,Bakersfield ,California,93308,United States,661.322.3722,,,M-F 8am-5pm,,,
Mobile Mini - Slidell,,61000 St Tammany Ave ,,Slidell ,Louisiana,70460,United States,985.247.0882,,,M-F 8am-5pm,,,
Mobile Mini - Palmetto,,3106 17th Street ,,East Palmetto ,Florida,34221,United States,941.721.0041,,,Branch Hours M-F 8am-5pm,,,
Mobile Mini - Fremont,,44580 Old Warm Springs Blvd ,,Fremont ,California,94538,United States,510.252.9326,,,M-F 8am-5pm,,,
Mobile Mini - Shreveport,,1541 Airport Drive ,,Shreveport ,Louisiana,71107,United States,318.219.3609,,,M-F 8am-5pm,,,
Mobile Mini - Fort Myers,,16590 Gator Road Fort ,,Myers ,Florida,33912,United States,239.415.3769,,,M-F 8am-5pm,,,
Mobile Mini - Lexington,,735 Fox Industrial Road ,,Lexington ,Kentucky,40504,United States,859.317.5342,,,M-F 8am-5pm,,,
Mobile Mini - Indianapolis,,2104 W. Epler Avenue ,,Indianapolis ,Indiana,46217,United States,317.786.2463,,,M-F 8am-5pm,,,
Mobile Mini - Windsor,,470 Caletti Ave ,,Windsor ,California,95492,United States,707.273.1811,,,M-F 8am-5pm,,,
Mobile Mini - Prairieville,,39060 Cleastor Lane ,,Prairieville ,Louisiana,70769,United States,225.372.6024,,,M-F 8am-5pm,,,
"Huntsville, Alabama",,116 Ipsco Street ,,Decatur ,Alabama,35601,United States,256.280.3220,,,M-F 8am-5pm,,,
Mobile Mini - Springdale,,2367 East Robinson Avenue ,,Springdale ,Arkansas,72764,United States,918.879.1176,,,M-F 8am-5pm,,,
Mobile Mini- Acworth,,6052 North Main Street ,,Acworth ,Georgia,30101,United States,770.529.1055,,,M-F 8am-5pm,,,
Mobile Mini - Prichard,,200 Telegraph Rd ,,Mobile ,Alabama,36610,United States,251.308.9008,,,M-F 8am-5pm,,,
Mobile Mini - Phoenix,,2201 S 27th Ave ,,Phoenix ,Arizona,85009,United States,602.470.4600,,,M-F 8am-5pm,,,
Mobile Mini - Calgary,,7717 84 St SE,,Calgary,Alberta,T2C 4Y1,Canada,403.252.5996,,,M-F 8am-5pm,,,
Mobile Mini - Tucson,,1485 W. Glenn Street ,,Tucson ,Arizona,85705,United States,520.628.1624,,,Mo-Fr: 8am-5pm,,,
Mobile Mini - North Little Rock,,5001 West Bethany Road ,,North Little Rock ,Arkansas,72117,United States,501.955.3861,,,M-F 8am-5pm,,,
Mobile Mini - Alabaster,,192 Piper Lane ,,Alabaster ,Alabama,35007,United States,256.280.3220,,,M-F 8am-5pm,,,
