store_name,store_number,address,address2,city,state,zip_code,country,phone_number,latitude,longitude,store_hours,store_type,other_fields,coming_soon
Security Self-Storage,5757,3057 S. Cooper,,Arlington,TX,76015,United States,(817) 642-7509,32.6940621,-97.1250726,,,,
Security Self-Storage,5759,13371 S. Blackbob Rd,,Olathe,KS,66062,United States,(913) 971-0295,38.885922,-94.759174,,,,
Security Self-Storage,5760,3425 Thousand Oaks Dr.,,San Antonio,TX,78247,United States,(210) 951-2003,29.5684568,-98.4303944,,,,
Security Self-Storage,5761,8901 Troost Ave.,,Kansas City,MO,64131,United States,(816) 492-2858,38.9656177,-94.5762145,,,,
Security Self-Storage,5762,1701 N. Rock Rd.,,Wichita,KS,67206,United States,(316) 847-7213,37.714049,-97.2459281,,,,
Security Self-Storage,5763,550 N. Tyler,,Wichita,KS,67212,United States,(316) 448-8426,37.6923325,-97.4439609,,,,
Security Self-Storage,5764,2940 N. Amidon,,Wichita,KS,67204,United States,(316) 448-5177,37.7370845,-97.3623037,,,,
Security Self-Storage,5765,9750 E. Harry,,Wichita,KS,67207,United States,(316) 847-7080,37.6653446,-97.2236402,,,,
Security Self-Storage,5766,111 N Maize Rd.,,Wichita,KS,67212,United States,(316) 462-9806,37.682963,-97.463493,,,,
Security Self-Storage,5767,12515 E. Central Ave.,,Wichita,KS,67206,United States,(316) 448-8380,37.692828,-97.192448,,,,
Security Self-Storage,5768,10601 E Iliff Ave,,Aurora,CO,80014,United States,(720) 262-8387,39.675287,-104.863691,,,,
Security Self-Storage,5769,4480 S. Buckley,,Aurora,CO,80015,United States,(720) 443-5078,39.6351129,-104.790217,,,,
Security Self-Storage,5770,9750 W. Jewell Ave.,,Lakewood,CO,80232,United States,(720) 644-6507,39.6813502,-105.1066484,,,,
Security Self-Storage,5771,2025 S Holly St,,Denver,CO,80222,United States,(720) 644-1882,39.6797992,-104.9225835,,,,
Security Self-Storage,5772,2078 S. Pontiac Way,,Denver,CO,80224,United States,(720) 443-4927,39.6789962,-104.9051509,,,,
Security Self-Storage,5773,9150 Pierce St.,,Westminster,CO,80021,United States,(720) 644-0778,39.8624918,-105.0701842,,,,
Security Self-Storage,5774,3061 Wood Ave.,,Colorado Springs,CO,80907,United States,(719) 602-5679,38.875453,-104.825562,,,,
Security Self-Storage,5775,3760 E. Pikes Peak,,Colorado Springs,CO,80909,United States,(719) 602-4986,38.832119,-104.759188,,,,
Security Self-Storage,5777,3160 Austin Bluffs,,Colorado Springs,CO,80918,United States,(719) 602-5626,38.8904135,-104.769841,,,,
Security Self-Storage,5778,6810 N. Oak Trafficway,,Gladstone,MO,64118,United States,(816) 743-4697,39.2180178,-94.5773786,,,,
Security Self-Storage,5779,7221 State Ave.,,Kansas City,KS,66112,United States,(913) 562-1393,39.1160373,-94.7471605,,,,
Security Self-Storage,5780,11015 W. 62nd,,Shawnee,KS,66203,United States,(913) 951-0260,39.015742,-94.713105,,,,
Security Self-Storage,5781,8321 W. 125th,,Overland Park,KS,66213,United States,(913) 498-9238,38.9004308,-94.6835318,,,,
Security Self-Storage,5782,13300 College Blvd.,,Lenexa,KS,66210,United States,(913) 498-9171,38.9283405,-94.7395041,,,,
Security Self-Storage,5783,1919 W. 15th St.,,Plano,TX,75075,United States,(469) 331-6109,33.0201016,-96.7323567,,,,
Security Self-Storage,5784,2748 Southwest Blvd.,,Kansas City,MO,64108,United States,(816) 298-8841,39.07792,-94.6013399,,,,
Security Self-Storage,5785,10664 Walnut Hill Lane,,Dallas,TX,75238,United States,(469) 619-9358,32.878027,-96.701634,,,,
Security Self-Storage,5786,8600 Spring Valley,,Dallas,TX,75240,United States,(214) 666-3346,32.938656,-96.7536517,,,,
Security Self-Storage,5787,3417 N. Beltline,,Irving,TX,75062,United States,(469) 284-9577,32.8528323,-96.9933601,,,,
Security Self-Storage,5788,3335 West Northwest Hwy,,Dallas,TX,75220,United States,(469) 513-1858,32.8566098,-96.8639203,,,,
Security Self-Storage,5789,9555 Forest Lane,,Dallas,TX,75243,United States,(972) 616-4222,32.9100649,-96.729025,,,,
Security Self-Storage,5790,2600 S Hulen St,,Fort Worth,TX,76109,United States,(682) 990-9721,32.7144351,-97.3859603,,,,
Security Self-Storage,5791,3334 Forest Lane,,Dallas,TX,75234,United States,(469) 250-1088,32.908898,-96.8654328,,,,
Security Self-Storage,5792,6640 Skillman,,Dallas,TX,75231,United States,(469) 665-8091,32.865837,-96.7405959,,,,
Security Self-Storage,5793,1130 Austin Hwy,,San Antonio,TX,78209,United States,(210) 899-4956,29.4856714,-98.4489122,,,,
Security Self-Storage,5794,12280 E. Colonial Drive,,Orlando,FL,32826,United States,(321) 209-6948,28.5634995,-81.1973097,,,,
Security Self-Storage,5795,13414 West Ave.,,San Antonio,TX,78216,United States,(210) 951-1923,29.5636729,-98.4907544,,,,
Security Self-Storage,5796,1507 W William Cannon,,Austin,TX,78745,United States,(512) 518-6823,30.2006189,-97.8013539,,,,
Security Self-Storage,5797,1515 S Lamar,,Austin,TX,78704,United States,(512) 518-4776,30.251124,-97.763871,,,,
Security Self-Storage,5798,1611 S Dairy Ashford Rd,,Houston,TX,77077,United States,(832) 856-8172,29.7513456,-95.605338,,,,
Security Self-Storage,5799,9526 Westheimer,,Houston,TX,77063,United States,(713) 364-0348,29.737819,-95.5345362,,,,
Iron Horse Self Storage,5800,4601 S Cobb Dr SE,,Smyrna,GA,30080,United States,(678) 269-7894,33.8418337,-84.4970638,,,,
Security Self-Storage,5801,9740 Stroud Dr.,,Houston,TX,77036,United States,(832) 779-8215,29.7010167,-95.5558928,,,,
Security Self-Storage,5802,8100 S. Main St.,,Houston,TX,77025,United States,(832) 779-8235,29.6939658,-95.4165979,,,,
Security Self-Storage,5804,8631 W. 21st,,Wichita,KS,67205,United States,(316) 847-7196,37.721029,-97.442856,,,,
Security Self-Storage,5805,121 East Old Broadmoor Rd,,Colorado Springs,CO,80906,United States,(719) 602-1676,38.8021495,-104.8245582,,,,
Security Self-Storage,5806,2010 S. Seneca,,Wichita,KS,67213,United States,(316) 847-7238,37.6585511,-97.3522662,,,,
Security Self-Storage,5807,10210 N. Lamar,,Austin,TX,78753,United States,(512) 593-7461,30.3719677,-97.6923934,,,,
Security Self-Storage,5808,3030 Sycamore School Rd.,,Fort Worth,TX,76133,United States,(682) 990-9375,32.6355036,-97.3645724,,,,
Security Self-Storage,5809,7840 Farley St.,,Overland Park,KS,66204,United States,(913) 951-0583,38.985992,-94.699554,,,,
Security Self-Storage,5810,405 S Hillside St,,Wichita,KS,67211,United States,(316) 847-8402,37.680483,-97.300092,,,,
