store_name,store_number,address,address2,city,state,zip_code,country,phone_number,latitude,longitude,store_hours,store_type,other_fields,coming_soon
Catano,,Calle 2 Final # 506 West Gate Industrial ,,Catano ,PR,009,Puert Rico,(787) 275-8888  ,,,"Office Hours : Mon-Fri 9:00AM-6:00PM, Sat 9:00AM-6:00PM, Sun Closed, Gate Hours : Mon-Fri 7:00AM-7:00PM, Sat 7:00AM-7:00PM, Sun 7:00AM-7:00PM",,,
Armour Road,,1847 Armour Road ,,Bourbonnais ,IL,609,United States,(815) 928-5000  ,,,"Office Hours : Mon-Fri 9:30AM-6:00PM, Sat 8:30AM-5:00PM, Sun 10:00AM-2:00PM, Gate Hours : Mon-Fri 6:00AM-10:00PM, Sat 6:00AM-10:00PM, Sun 6:00AM-10:00PM",,,
Brentwood - Opening 9/15/2017,,1734 Carothers Pkwy ,,Brentwood ,TN,370,United States,  ,,,"Office Hours : Mon-Fri 8:30AM-5:00PM, Sat 9:30AM-6:00PM, Sun 10:00AM-2:00PM, Gate Hours : Mon-Fri 6:00AM-10:00PM, Sat 6:00AM-10:00PM, Sun 6:00AM-10:00AM",,,
Beacon St./Brighton/Brookline,,145 North Beacon Street ,,Brighton ,MA,021,United States,(617) 789-3725  ,,,"Office Hours : Mon-Fri 9:30AM-6:00PM, Sat 8:30AM-5:00PM, Sun 10:00AM-2:00PM, Gate Hours : Mon-Fri 6:00AM-10:00PM, Sat 6:00AM-10:00PM, Sun 6:00AM-10:00PM",,,
Burnsville,,801 West Lady Bird Ln ,,Burnsville ,MN,553,United States,(952) 808-0367  ,,,"Office Hours : Mon-Fri 9:30AM-6:00PM, Sat 8:30AM-5:00PM, Sun 10:00AM-2:00PM, Gate Hours : Mon-Fri 6:00AM-10:00PM, Sat 6:00AM-10:00PM, Sun 6:00AM-10:00PM",,,
Caguas,,Carretera # 1 Km 29.8 Barrio Rio Ca√±as ,,Caguas ,PR,007,Puert Rico,(787) 790-4030  ,,,"Office Hours : Mon-Fri 7:00AM-7:00PM, Sat 7:00AM-7:00PM, Sun 11:00AM-5:00PM, Gate Hours : Mon-Fri 7:00AM-7:00PM, Sat 7:00AM-7:00PM, Sun 11:00AM-5:00PM",,,
Carrollton,,2771 Oak Tree Drive ,,Carrollton ,TX,750,United States,(972) 418-5629  ,,,"Office Hours : Mon-Fri 9:30AM-6:00PM, Sat 8:30AM-5:00PM, Sun 10:00AM-2:00PM, Gate Hours : Mon-Fri 6:00AM-10:00PM, Sat 6:00AM-10:00PM, Sun 6:00AM-10:00PM",,,
Carolina,,Carr. 190 Esq. Ave. Campo Rico Zona Industrial La Ceramica ,,Carolina ,PR,009,Puert Rico,(787) 750-5744  ,,,"Office Hours : Mon-Fri 9:00AM-6:00PM, Sat 9:00AM-6:00PM, Sun Closed, Gate Hours : Mon-Fri 7:00AM-7:00PM, Sat 7:00AM-7:00PM, Sun 7:00AM-7:00PM",,,
Larry Power Road,,575 Larry Power Road ,,Bourbonnais ,IL,609,United States,(815) 933-6200  ,,,"Office Hours : Mon-Fri 9:30AM-6:00PM, Sat 8:30AM-5:00PM, Sun 10:00AM-2:00PM, Gate Hours : Mon-Fri 6:00AM-10:00PM, Sat 6:00AM-10:00PM, Sun 6:00AM-10:00PM",,,
Billerica/Bedford,,129 Rangeway Road ,,Billerica ,MA,018,United States,(978) 667-0946  ,,,"Office Hours : Mon-Fri 9:30AM-6:00PM, Sat 8:30AM-5:00PM, Sun 10:00AM-2:00PM, Gate Hours : Mon-Fri 6:00AM-10:00PM, Sat 6:00AM-10:00PM, Sun 6:00AM-10:00PM",,,
Bixby,,13455 S Memorial Drive ,,Bixby ,OK,740,United States,(918) 369-3888  ,,,"Office Hours : Mon-Fri 9:30AM-6:00PM, Sat 8:30AM-5:00PM, Sun 10:00AM-2:00PM, Gate Hours : Mon-Fri 6:00AM-10:00PM, Sat 6:00AM-10:00PM, Sun 6:00AM-10:00PM",,,
Grove St,,211 Grove Street ,,Bloomfield ,NJ,070,United States,(973) 748-8893  ,,,"Office Hours : Mon-Fri 9:30AM-6:00PM, Sat 8:30AM-5:00PM, Sun 10:00AM-2:00PM, Gate Hours : Mon-Fri 6:00AM-7:00PM, Sat 6:00AM-7:00PM, Sun 6:00AM-7:00PM",,,
Bolingbrook/Romeoville,,300 Historic U.S. 66 Frontage ,,Bolingbrook ,IL,604,United States,(630) 972-0039  ,,,"Office Hours : Mon-Fri 9:30AM-6:00PM, Sat 8:30AM-5:00PM, Sun 10:00AM-2:00PM, Gate Hours : Mon-Fri 6:00AM-10:00PM, Sat 6:00AM-10:00PM, Sun 6:00AM-10:00PM",,,
Ward Way,,50 Ward Way ,,Birmingham ,AL,352,United States,(205) 942-0343  ,,,"Office Hours : Mon-Fri 9:30AM-6:00PM, Sat 8:30AM-5:00PM, Sun Closed, Gate Hours : Mon-Fri 6:00AM-10:00PM, Sat 6:00AM-10:00PM, Sun 6:00AM-10:00PM",,,
Ypsilanti,,521 Tyler Road ,,Ypsilanti ,MI,481,United States,(734) 485-6760  ,,,"Office Hours : Mon-Fri 9:30AM-6:00PM, Sat 8:30AM-5:00PM, Sun Closed, Gate Hours : Mon-Fri 6:00AM-10:00PM, Sat 6:00AM-10:00PM, Sun 6:00AM-10:00PM",,,
Highway 280,,4752 Highway 280 ,,Birmingham ,AL,352,United States,(205) 995-8555  ,,,"Office Hours : Mon-Fri 9:30AM-6:00PM, Sat 8:30AM-5:00PM, Sun Closed, Gate Hours : Mon-Fri 6:00AM-10:00PM, Sat 6:00AM-10:00PM, Sun 6:00AM-10:00PM",,,
Zionsville,,4628 Northwestern Dr ,,Zionsville ,IN,460,United States,(317) 849-1387  ,,,"Office Hours : Mon-Fri 9:30AM-6:00PM, Sat 8:30AM-5:00PM, Sun Closed, Gate Hours : Mon-Fri 6:00AM-10:00PM, Sat 6:00AM-10:00PM, Sun 6:00AM-10:00PM",,,
Woodstock,,140 Emma Lane ,,Woodstock ,GA,301,United States,(770) 672-0546  ,,,"Office Hours : Mon-Fri 9:30AM-6:00PM, Sat 8:30AM-5:00PM, Sun 10:00AM-2:00PM, Gate Hours : Mon-Fri 6:00AM-9:00PM, Sat 6:00AM-9:00PM, Sun 6:00AM-9:00PM",,,
Wyoming,,533 36th Street SW ,,Wyoming ,MI,495,United States,(616) 531-7560  ,,,"Office Hours : Mon-Fri 9:30AM-6:00PM, Sat 8:30AM-5:00PM, Sun Closed, Gate Hours : Mon-Fri 6:00AM-10:00PM, Sat 6:00AM-10:00PM, Sun 6:00AM-10:00PM",,,
Williamstown - Interstate 322,,1330 Glassboro Road ,,Williamstown ,NJ,080,United States,(856) 881-8226  ,,,"Office Hours : Mon-Fri 9:30AM-6:00PM, Sat 8:30AM-5:00PM, Sun 10:00AM-2:00PM, Gate Hours : Mon-Fri 6:00AM-9:00PM, Sat 6:00AM-9:00PM, Sun 6:00AM-9:00PM",,,
Woodbury/Oakdale,,881 Weir Dr ,,Woodbury ,MN,551,United States,(651) 735-7557  ,,,"Office Hours : Mon-Fri 9:30AM-6:00PM, Sat 8:30AM-5:00PM, Sun 10:00AM-2:00PM, Gate Hours : Mon-Fri 6:00AM-10:00PM, Sat 6:00AM-10:00PM, Sun 6:00AM-10:00PM",,,
Eagle Drive,,2901 Eagle Drive ,,Woodstock ,GA,301,United States,(770) 591-3737  ,,,"Office Hours : Mon-Fri 9:30AM-6:00PM, Sat 8:30AM-5:00PM, Sun 10:00AM-2:00PM, Gate Hours : Mon-Fri 6:00AM-10:00PM, Sat 6:00AM-10:00PM, Sun 6:00AM-10:00PM",,,
Wixom,,50586 Pontiac Trail ,,Wixom ,MI,483,United States,(248) 960-5286  ,,,"Office Hours : Mon-Fri 9:30AM-6:00PM, Sat 8:30AM-5:00PM, Sun 10:00AM-2:00PM, Gate Hours : Mon-Fri 6:00AM-10:00PM, Sat 6:00AM-10:00PM, Sun 6:00AM-10:00PM",,,
Winter Garden,,12446 W. Colonial Drive ,,Winter Garden ,FL,347,United States,(407) 654-0132  ,,,"Office Hours : Mon-Fri 9:30AM-6:00PM, Sat 8:30AM-5:00PM, Sun 10:00AM-2:00PM, Gate Hours : Mon-Fri 6:00AM-10:00PM, Sat 6:00AM-10:00PM, Sun 6:00AM-10:00PM",,,
Windermere,,13151 Reams Rd ,,Windermere ,FL,347,United States,(407) 395-2350  ,,,"Office Hours : Mon-Fri 9:30AM-6:00PM, Sat 8:30AM-5:00PM, Sun 10:00AM-2:00PM, Gate Hours : Mon-Fri 6:00AM-10:00PM, Sat 6:00AM-10:00PM, Sun 6:00AM-10:00PM",,,
West Lafayette,,1900 Sagamore Parkway West ,,West Lafayette ,IN,479,United States,(765) 463-7867  ,,,"Office Hours : Mon-Fri 9:30AM-6:00PM, Sat 8:30AM-5:00PM, Sun 10:00AM-2:00PM, Gate Hours : Mon-Fri 6:00AM-10:00PM, Sat 6:00AM-10:00PM, Sun 6:00AM-10:00PM",,,
White House,,1120 Tennessee 76 ,,White House ,TN,371,United States,(615) 672-0001  ,,,"Office Hours : Mon-Fri 9:30AM-6:00PM, Sat 8:30AM-5:00PM, Sun 12:00PM-4:00PM, Gate Hours : Mon-Fri 6:00AM-10:00PM, Sat 6:00AM-10:00PM, Sun 6:00AM-10:00PM",,,
Wheeling/Buffalo Grove,,211 North Elmhurst Rd ,,Wheeling ,IL,600,United States,(847) 459-4827  ,,,"Office Hours : Mon-Fri 9:30AM-6:00PM, Sat 8:30AM-5:00PM, Sun 10:00AM-2:00PM, Gate Hours : Mon-Fri 6:00AM-10:00PM, Sat 6:00AM-10:00PM, Sun 6:00AM-10:00PM",,,
Warwick/Cranston,,50 Okeefe Lane ,,Warwick ,RI,028,United States,(401) 461-4093  ,,,"Office Hours : Mon-Fri 9:30AM-6:00PM, Sat 8:30AM-5:00PM, Sun 10:00AM-2:00PM, Gate Hours : Mon-Fri 6:00AM-10:00PM, Sat 6:00AM-10:00PM, Sun 6:00AM-10:00PM",,,
Warren/Detroit,,20979 Groesbeck Hwy ,,Warren ,MI,480,United States,(586) 772-6785  ,,,"Office Hours : Mon-Fri 9:30AM-6:00PM, Sat 8:30AM-5:00PM, Sun 10:00AM-2:00PM, Gate Hours : Mon-Fri 6:00AM-10:00PM, Sat 6:00AM-10:00PM, Sun 6:00AM-10:00PM",,,
Westland,,39205 Ford Road ,,Westland ,MI,481,United States,(734) 981-0700  ,,,"Office Hours : Mon-Fri 9:30AM-6:00PM, Sat 8:30AM-5:00PM, Sun 10:00AM-2:00PM, Gate Hours : Mon-Fri 6:00AM-10:00PM, Sat 6:00AM-10:00PM, Sun 6:00AM-10:00PM",,,
Waterford,,6123 Highland Road ,,Waterford ,MI,483,United States,(248) 886-1670  ,,,"Office Hours : Mon-Fri 9:30AM-6:00PM, Sat 8:30AM-5:00PM, Sun 10:00AM-2:00PM, Gate Hours : Mon-Fri 6:00AM-10:00PM, Sat 6:00AM-10:00PM, Sun 6:00AM-10:00PM",,,
Vadnais Heights/White Bear Lake,,3238 North Highway 61 ,,Vadnais Heights ,MN,551,United States,(651) 490-1978  ,,,"Office Hours : Mon-Fri 9:30AM-6:00PM, Sat 8:30AM-5:00PM, Sun 10:00AM-2:00PM, Gate Hours : Mon-Fri 6:00AM-10:00PM, Sat 6:00AM-10:00PM, Sun 6:00AM-10:00PM",,,
Valrico,,1035 Starwood Ave ,,Valrico ,FL,335,United States,(813) 655-5625  ,,,"Office Hours : Mon-Fri 9:30AM-6:00PM, Sat 8:30AM-5:00PM, Sun 12:00PM-2:00PM, Gate Hours : Mon-Fri 6:00AM-10:00PM, Sat 6:00AM-10:00PM, Sun 6:00AM-10:00PM",,,
Beeline,,3655 S Tacoma Ave ,,Tulsa ,OK,741,United States,(918) 446-8444  ,,,"Office Hours : Mon-Fri 9:30AM-6:00PM, Sat 8:30AM-5:00PM, Sun 10:00AM-2:00PM, Gate Hours : Mon-Fri 6:00AM-10:00PM, Sat 6:00AM-10:00PM, Sun 6:00AM-10:00PM",,,
Downtown,,705 South Elgin Ave ,,Tulsa ,OK,741,United States,(918) 382-0755  ,,,"Office Hours : Mon-Fri 9:30AM-6:00PM, Sat 8:30AM-5:00PM, Sun 10:00AM-2:00PM, Gate Hours : Mon-Fri 6:00AM-10:00PM, Sat 6:00AM-10:00PM, Sun 6:00AM-10:00PM",,,
Brookside,,4530 S Peoria Ave ,,Tulsa ,OK,741,United States,(918) 744-0912  ,,,"Office Hours : Mon-Fri 9:30AM-6:00PM, Sat 8:30AM-5:00PM, Sun 10:00AM-2:00PM, Gate Hours : Mon-Fri 6:00AM-10:00PM, Sat 6:00AM-10:00PM, Sun 6:00AM-10:00PM",,,
Midtown,,2916 East 51st Street ,,Tulsa ,OK,741,United States,(918) 743-5368  ,,,"Office Hours : Mon-Fri 9:30AM-6:00PM, Sat 8:30AM-5:00PM, Sun 10:00AM-2:00PM, Gate Hours : Mon-Fri 6:00AM-10:00PM, Sat 6:00AM-10:00PM, Sun 6:00AM-10:00PM",,,
Sheridan,,4411 South Sheridan Rd ,,Tulsa ,OK,741,United States,(918) 877-5500  ,,,"Office Hours : Mon-Fri 9:30AM-6:00PM, Sat 8:30AM-5:00PM, Sun 10:00AM-2:00PM, Gate Hours : Mon-Fri 6:00AM-10:00PM, Sat 6:00AM-10:00PM, Sun 6:00AM-10:00PM",,,
Yale,,3210 South Yale Ave ,,Tulsa ,OK,741,United States,(918) 794-2600  ,,,"Office Hours : Mon-Fri 9:30AM-6:00PM, Sat 8:30AM-5:00PM, Sun 10:00AM-2:00PM, Gate Hours : Mon-Fri 6:00AM-10:00PM, Sat 6:00AM-10:00PM, Sun 6:00AM-10:00PM",,,
Troy,,1320 East Big Beaver Rd ,,Troy ,MI,480,United States,(248) 743-2871  ,,,"Office Hours : Mon-Fri 9:30AM-6:00PM, Sat 8:30AM-5:00PM, Sun 10:00AM-2:00PM, Gate Hours : Mon-Fri 6:00AM-10:00PM, Sat 6:00AM-10:00PM, Sun 6:00AM-10:00PM",,,
Trenton,,555 N. Olden Avenue ,,Trenton ,NJ,086,United States,(609) 278-0443  ,,,"Office Hours : Mon-Fri 9:30AM-6:00PM, Sat 8:30AM-5:00PM, Sun 10:00AM-4:00PM, Gate Hours : Mon-Fri 9:30AM-7:00PM, Sat 8:30AM-5:00PM, Sun 10:00AM-4:00PM",,,
Toa Baja,,Carretera # 2 Km 19.5 ,,Toa Baja ,PR,009,Puert Rico,(787) 798-6818  ,,,"Office Hours : Mon-Fri 9:00AM-6:00PM, Sat 9:00AM-6:00PM, Sun Closed, Gate Hours : Mon-Fri 7:00AM-7:00PM, Sat 7:00AM-7:00PM, Sun 7:00AM-7:00PM",,,
Tewksbury/Wilmington,,470 Main Street ,,Tewksbury ,MA,018,United States,(978) 851-2073  ,,,"Office Hours : Mon-Fri 9:30AM-6:00PM, Sat 8:30AM-5:00PM, Sun 10:00AM-2:00PM, Gate Hours : Mon-Fri 6:00AM-10:00PM, Sat 6:00AM-10:00PM, Sun 6:00AM-10:00PM",,,
Titusville Access,,4345 South Street ,,Titusville ,FL,327,United States,(321) 383-4514  ,,,"Office Hours : Mon-Fri 9:30AM-6:00PM, Sat 8:30AM-5:00PM, Sun 10:00AM-2:00PM, Gate Hours : Mon-Fri 6:00AM-10:00PM, Sat 6:00AM-10:00PM, Sun 6:00AM-10:00PM",,,
Taylor,,15301 Seaway Dr ,,Taylor ,MI,481,United States,(734) 720-1616  ,,,"Office Hours : Mon-Fri 9:30AM-6:00PM, Sat 8:30AM-5:00PM, Sun 10:00AM-2:00PM, Gate Hours : Mon-Fri 6:00AM-10:00PM, Sat 6:00AM-10:00PM, Sun 6:00AM-10:00PM",,,
Bloomfield/Sylvan Lake,,1782 Pontiac Dr ,,Sylvan Lake ,MI,483,United States,(248) 335-4456  ,,,"Office Hours : Mon-Fri 9:30AM-6:00PM, Sat 8:30AM-5:00PM, Sun 10:00AM-2:00PM, Gate Hours : Mon-Fri 6:00AM-10:00PM, Sat 6:00AM-10:00PM, Sun 6:00AM-10:00PM",,,
Stillwater / Oklahoma State University,,3416 North Perkins Road ,,Stillwater ,OK,740,United States,(405) 377-5372  ,,,"Office Hours : Mon-Fri 9:30AM-6:00PM, Sat 8:30AM-5:00PM, Sun 10:00AM-2:00PM, Gate Hours : Mon-Fri 6:00AM-10:00PM, Sat 6:00AM-10:00PM, Sun 6:00AM-10:00PM",,,
Sterling Heights,,6550 Metropolitan Pkwy ,,Sterling Heights ,MI,483,United States,(586) 446-2283  ,,,"Office Hours : Mon-Fri 9:30AM-6:00PM, Sat 8:30AM-5:00PM, Sun 10:00AM-2:00PM, Gate Hours : Mon-Fri 6:00AM-10:00PM, Sat 6:00AM-10:00PM, Sun 6:00AM-10:00PM",,,
St. Louis Park,,5605 Cedar Lake Rd South ,,St. Louis Park ,MN,554,United States,(952) 546-2954  ,,,"Office Hours : Mon-Fri 9:30AM-6:00PM, Sat 8:30AM-5:00PM, Sun 10:00AM-2:00PM, Gate Hours : Mon-Fri 6:00AM-10:00PM, Sat 6:00AM-10:00PM, Sun 6:00AM-10:00PM",,,
St Clair Shores,,20355 East 9 Mile Rd ,,St. Clair Shores ,MI,480,United States,(586) 778-5777  ,,,"Office Hours : Mon-Fri 9:30AM-6:00PM, Sat 8:30AM-5:00PM, Sun 10:00AM-2:00PM, Gate Hours : Mon-Fri 6:00AM-10:00PM, Sat 6:00AM-10:00PM, Sun 6:00AM-10:00PM",,,
Randall Rd/St Charles,,248 N. Randall Rd. ,,St. Charles ,IL,601,United States,(630) 587-8608  ,,,"Office Hours : Mon-Fri 9:30AM-6:00PM, Sat 8:30AM-5:00PM, Sun 10:00AM-2:00PM, Gate Hours : Mon-Fri 6:00AM-10:00PM, Sat 6:00AM-10:00PM, Sun 6:00AM-10:00PM",,,
Campbell Station,,3000 Harrah Drive ,,Spring Hill ,TN,371,United States,(615) 302-0600  ,,,"Office Hours : Mon-Fri 9:30AM-6:00PM, Sat 8:30AM-5:00PM, Sun 12:00PM-4:00PM, Gate Hours : Mon-Fri 6:00AM-10:00PM, Sat 6:00AM-10:00PM, Sun 6:00AM-10:00PM",,,
Spring Hill,,14900 County Line Road ,,Spring Hill ,FL,346,United States,(727) 856-4311  ,,,"Office Hours : Mon-Fri 9:30AM-6:00PM, Sat 8:30AM-5:00PM, Sun Closed, Gate Hours : Mon-Fri 6:00AM-10:00PM, Sat 6:00AM-10:00PM, Sun 6:00AM-10:00PM",,,
Dragon Stadium,,950 South Kimball Avenue ,,Southlake ,TX,760,United States,(817) 488-8810  ,,,"Office Hours : Mon-Fri 9:30AM-6:00PM, Sat 8:30AM-5:00PM, Sun 12:00PM-4:00PM, Gate Hours : Mon-Fri 6:00AM-10:00PM, Sat 6:00AM-10:00PM, Sun 6:00AM-10:00PM",,,
Southfield/Detroit,,20945 Link Rd ,,Southfield ,MI,480,United States,(248) 352-2933  ,,,"Office Hours : Mon-Fri 9:30AM-6:00PM, Sat 8:30AM-5:00PM, Sun 10:00AM-2:00PM, Gate Hours : Mon-Fri 6:00AM-10:00PM, Sat 6:00AM-10:00PM, Sun 6:00AM-10:00PM",,,
Stateline,,9085 Ann Drive ,,Southaven ,MS,386,United States,(662) 342-9535  ,,,"Office Hours : Mon-Fri 9:30AM-6:00PM, Sat 8:30AM-5:00PM, Sun 12:00PM-4:00PM, Gate Hours : Mon-Fri 6:00AM-10:00PM, Sat 6:00AM-10:00PM, Sun 6:00AM-10:00PM",,,
Airways/Southaven,,7230 Airways Blvd ,,Southaven ,MS,386,United States,(662) 349-0202  ,,,"Office Hours : Mon-Fri 9:30AM-6:00PM, Sat 8:30AM-5:00PM, Sun 12:00PM-4:00PM, Gate Hours : Mon-Fri 6:00AM-10:00PM, Sat 6:00AM-10:00PM, Sun 6:00AM-10:00PM",,,
South Euclid,,4349 Monticello Blvd ,,South Euclid ,OH,441,United States,(216) 382-4623  ,,,"Office Hours : Mon-Fri 9:30AM-6:00PM, Sat 8:30AM-5:00PM, Sun 10:00AM-2:00PM, Gate Hours : Mon-Fri 6:00AM-10:00PM, Sat 6:00AM-10:00PM, Sun 6:00AM-10:00PM",,,
Shrewsbury/Worcester,,869 Boston Turnpike ,,Shrewsbury ,MA,015,United States,(508) 845-9040  ,,,"Office Hours : Mon-Fri 9:30AM-6:00PM, Sat 8:30AM-5:00PM, Sun 10:00AM-2:00PM, Gate Hours : Mon-Fri 6:00AM-10:00PM, Sat 6:00AM-10:00PM, Sun 6:00AM-10:00PM",,,
San Juan,,Calle Concepcion # 2 Pda. 20 ,,Santurce ,PR,009,Puert Rico,(787) 724-8888  ,,,"Office Hours : Mon-Fri 7:00AM-7:00PM, Sat 7:00AM-7:00PM, Sun 11:00AM-5:00PM, Gate Hours : Mon-Fri 7:00AM-7:00PM, Sat 7:00AM-7:00PM, Sun 11:00AM-5:00PM",,,
Sanford / Lake Mary,,4051 W. State Road 46 ,,Sanford ,FL,327,United States,(407) 936-2184  ,,,"Office Hours : Mon-Fri 9:30AM-6:00PM, Sat 8:30AM-5:00PM, Sun 10:00AM-2:00PM, Gate Hours : Mon-Fri 6:00AM-10:00PM, Sat 6:00AM-10:00PM, Sun 6:00AM-10:00PM",,,
Kennedy,,Bechara Ind Park 25 Calle Blay ,,San Juan ,PR,00920-16,Puert Rico,(787) 679-7700  ,,,"Office Hours : Mon-Fri 7:00AM-7:00PM, Sat 7:00AM-7:00PM, Sun 11:00AM-5:00PM, Gate Hours : Mon-Fri 7:00AM-7:00PM, Sat 7:00AM-7:00PM, Sun 7:00AM-7:00PM",,,
Saline,,1400 E Michigan Avenue ,,Saline ,MI,481,United States,(734) 944-3601  ,,,"Office Hours : Mon-Fri 9:30AM-6:00PM, Sat 8:30AM-5:00PM, Sun Closed, Gate Hours : Mon-Fri 6:00AM-10:00PM, Sat 6:00AM-10:00PM, Sun 6:00AM-10:00PM",,,
Twelve Mile/Roseville,,15390 East Twelve Mile Rd ,,Roseville ,MI,480,United States,(586) 552-4301  ,,,"Office Hours : Mon-Fri 9:30AM-6:00PM, Sat 8:30AM-5:00PM, Sun 10:00AM-2:00PM, Gate Hours : Mon-Fri 6:00AM-10:00PM, Sat 6:00AM-10:00PM, Sun 6:00AM-10:00PM",,,
Cornillie Drive/Roseville,,20055 Cornillie Dr ,,Roseville ,MI,480,United States,(586) 415-0365  ,,,"Office Hours : Mon-Fri 9:30AM-6:00PM, Sat 8:30AM-5:00PM, Sun 10:00AM-2:00PM, Gate Hours : Mon-Fri 6:00AM-10:00PM, Sat 6:00AM-10:00PM, Sun 6:00AM-10:00PM",,,
Rochester Hills,,2570 Crooks Rd ,,Rochester Hills ,MI,483,United States,(248) 852-6907  ,,,"Office Hours : Mon-Fri 9:30AM-6:00PM, Sat 8:30AM-5:00PM, Sun 10:00AM-2:00PM, Gate Hours : Mon-Fri 6:00AM-10:00PM, Sat 6:00AM-10:00PM, Sun 6:00AM-10:00PM",,,
Reynoldsburg,,7304 Tussing Road ,,Reynoldsburg ,OH,430,United States,(614) 866-6661  ,,,"Office Hours : Mon-Fri 9:30AM-6:00PM, Sat 8:30AM-5:00PM, Sun 10:00AM-2:00PM, Gate Hours : Mon-Fri 6:00AM-10:00PM, Sat 6:00AM-10:00PM, Sun 6:00AM-10:00PM",,,
Detroit/Redford,,14433 Telegraph ,,Redford ,MI,482,United States,(313) 532-4139  ,,,"Office Hours : Mon-Fri 9:30AM-6:00PM, Sat 8:30AM-5:00PM, Sun 10:00AM-2:00PM, Gate Hours : Mon-Fri 6:00AM-10:00PM, Sat 6:00AM-10:00PM, Sun 6:00AM-10:00PM",,,
Raytown,,9624 E 350 Hwy. ,,Raytown ,MO,641,United States,(816) 356-8321  ,,,"Office Hours : Mon-Fri 9:30AM-6:00PM, Sat 8:30AM-5:00PM, Sun Closed, Gate Hours : Mon-Fri 6:00AM-10:00PM, Sat 6:00AM-10:00PM, Sun 6:00AM-10:00PM",,,
Powell,,7533 Woodcutter Drive ,,Powell ,OH,430,United States,(614) 923-0388  ,,,"Office Hours : Mon-Fri 9:30AM-6:00PM, Sat 8:30AM-5:00PM, Sun Closed, Gate Hours : Mon-Fri 6:00AM-10:00PM, Sat 6:00AM-10:00PM, Sun 6:00AM-10:00PM",,,
Ponce,,245 Calle Rosa Urb. Ferry ,,Barranca Ponce ,PR,007,Puert Rico,(787) 813-8888  ,,,"Office Hours : Mon-Fri 9:00AM-6:00PM, Sat 9:00AM-6:00PM, Sun Closed, Gate Hours : Mon-Fri 7:00AM-7:00PM, Sat 7:00AM-7:00PM, Sun 7:00AM-7:00PM",,,
Pensacola / Davis Hwy,,1835 E. Olive Road ,,Pensacola ,FL,325,United States,(850) 497-6555  ,,,"Office Hours : Mon-Fri 9:30AM-6:00PM, Sat 8:30AM-5:00PM, Sun 10:00AM-2:00PM, Gate Hours : Mon-Fri 6:00AM-10:00PM, Sat 6:00AM-10:00PM, Sun 6:00AM-10:00PM",,,
Peabody/Danvers,,244 Andover Street ,,Peabody ,MA,019,United States,(978) 531-2942  ,,,"Office Hours : Mon-Fri 9:30AM-6:00PM, Sat 8:30AM-5:00PM, Sun 10:00AM-2:00PM, Gate Hours : Mon-Fri 6:00AM-10:00PM, Sat 6:00AM-10:00PM, Sun 6:00AM-10:00PM",,,
US 301/Palmetto,,2100 US 301 North ,,Palmetto ,FL,342,United States,(941) 479-6400  ,,,"Office Hours : Mon-Fri 9:30AM-6:00PM, Sat 8:30AM-5:00PM, Sun 10:00AM-2:00PM, Gate Hours : Mon-Fri 6:00AM-10:00PM, Sat 6:00AM-10:00PM, Sun 6:00AM-10:00PM",,,
Palm City,,4125 SW Martin HWY # 10 ,,Palm City ,FL,349,United States,(772) 286-6504  ,,,"Office Hours : Mon-Fri 9:30AM-6:00PM, Sat 8:30AM-5:00PM, Sun 10:00AM-2:00PM, Gate Hours : Mon-Fri 6:00AM-10:00PM, Sat 6:00AM-10:00PM, Sun 6:00AM-10:00PM",,,
Babcock Street / Malabar,,6350 Babcock St SE ,,Palm Bay ,FL,329,United States,(321) 724-9425  ,,,"Office Hours : Mon-Fri 9:30AM-6:00PM, Sat 8:30AM-5:00PM, Sun 10:00AM-2:00PM, Gate Hours : Mon-Fri 6:00AM-10:00PM, Sat 6:00AM-10:00PM, Sun 6:00AM-10:00PM",,,
Palatine,,2025 North Hicks Rd ,,Palatine ,IL,600,United States,(847) 934-0470  ,,,"Office Hours : Mon-Fri 9:30AM-6:00PM, Sat 8:30AM-5:00PM, Sun 10:00AM-2:00PM, Gate Hours : Mon-Fri 6:00AM-10:00PM, Sat 6:00AM-10:00PM, Sun 6:00AM-10:00PM",,,
Osprey/Venice,,660 S. Tamiami Trail ,,Osprey ,FL,342,United States,(941) 918-8003  ,,,"Office Hours : Mon-Fri 9:30AM-6:00PM, Sat 8:30AM-5:00PM, Sun 12:00PM-4:00PM, Gate Hours : Mon-Fri 6:00AM-10:00PM, Sat 6:00AM-10:00PM, Sun 6:00AM-10:00PM",,,
Ormond Beach/Holly Hill,,610 S. Yonge Street ,,Ormond Beach ,FL,321,United States,(386) 615-1266  ,,,"Office Hours : Mon-Fri 9:30AM-6:00PM, Sat 8:30AM-5:00PM, Sun 10:00AM-2:00PM, Gate Hours : Mon-Fri 6:00AM-10:00PM, Sat 6:00AM-10:00PM, Sun 6:00AM-10:00PM",,,
Narcoossee Road/Airport,,7628 Narcoossee Road ,,Orlando ,Florida,328,United States,(407) 207-3335  ,,,"Office Hours : Mon-Fri 9:30AM-6:00PM, Sat 8:30AM-5:00PM, Sun 10:00AM-2:00PM, Gate Hours : Mon-Fri 6:00AM-10:00PM, Sat 6:00AM-10:00PM, Sun 6:00AM-10:00PM",,,
Goodman Rd,,5365 Goodman Road ,,Olive Branch ,MS,386,United States,(662) 890-4096  ,,,"Office Hours : Mon-Fri 9:30AM-6:00PM, Sat 8:30AM-5:00PM, Sun 12:00PM-4:00PM, Gate Hours : Mon-Fri 6:00AM-10:00PM, Sat 6:00AM-10:00PM, Sun 6:00AM-10:00PM",,,
Olive Branch,,8650 Midsouth Drive ,,Olive Branch ,MS,386,United States,(662) 895-5555  ,,,"Office Hours : Mon-Fri 9:30AM-6:00PM, Sat 8:30AM-5:00PM, Sun 12:00PM-4:00PM, Gate Hours : Mon-Fri 6:00AM-10:00PM, Sat 6:00AM-10:00PM, Sun 6:00AM-10:00PM",,,
Northwest/Willow Creek,,8040 Northwest 122nd Street ,,Oklahoma City ,OK,731,United States,(405) 773-9876  ,,,"Office Hours : Mon-Fri 9:30AM-6:00PM, Sat 8:30AM-5:00PM, Sun 10:00AM-2:00PM, Gate Hours : Mon-Fri 6:00AM-10:00PM, Sat 6:00AM-10:00PM, Sun 6:00AM-10:00PM",,,
Northeast/Forest Park,,3401 North Bryant Ave ,,Oklahoma City ,OK,731,United States,(405) 424-6505  ,,,"Office Hours : Mon-Fri 9:30AM-6:00PM, Sat 8:30AM-5:00PM, Sun 10:00AM-2:00PM, Gate Hours : Mon-Fri 6:00AM-10:00PM, Sat 6:00AM-10:00PM, Sun 6:00AM-10:00PM",,,
Memorial/Chisholm Creek,,13401 North Indiana Ave ,,Oklahoma City ,OK,731,United States,(405) 749-1991  ,,,"Office Hours : Mon-Fri 9:30AM-6:00PM, Sat 8:30AM-5:00PM, Sun 10:00AM-2:00PM, Gate Hours : Mon-Fri 6:00AM-10:00PM, Sat 6:00AM-10:00PM, Sun 6:00AM-10:00PM",,,
MacArthur/Lake Hefner,,5801 West Britton Road ,,Oklahoma City ,OK,731,United States,(405) 720-8313  ,,,"Office Hours : Mon-Fri 9:30AM-6:00PM, Sat 8:30AM-5:00PM, Sun 10:00AM-2:00PM, Gate Hours : Mon-Fri 6:00AM-10:00PM, Sat 6:00AM-10:00PM, Sun 6:00AM-10:00PM",,,
Shields Blvd,,8706 S. Shields Blvd ,,Oklahoma City ,OK,731,United States,(405) 634-6008  ,,,"Office Hours : Mon-Fri 9:30AM-6:00PM, Sat 8:30AM-5:00PM, Sun 10:00AM-2:00PM, Gate Hours : Mon-Fri 6:00AM-9:00PM, Sat 6:00AM-9:00PM, Sun 6:00AM-9:00PM",,,
Western Ave,,8200 N. Western Ave ,,Oklahoma City ,OK,731,United States,(405) 848-7200  ,,,"Office Hours : Mon-Fri 9:30AM-6:00PM, Sat 8:30AM-5:00PM, Sun 10:00AM-2:00PM, Gate Hours : Mon-Fri 6:00AM-10:00PM, Sat 6:00AM-10:00PM, Sun 6:00AM-10:00PM",,,
Nichols Hills,,2900 NW Grand Blvd ,,Oklahoma City ,OK,731,United States,(405) 848-7011  ,,,"Office Hours : Mon-Fri 9:30AM-6:00PM, Sat 8:30AM-5:00PM, Sun 10:00AM-2:00PM, Gate Hours : Mon-Fri 6:00AM-10:00PM, Sat 6:00AM-10:00PM, Sun 6:00AM-10:00PM",,,
Okemos/Lansing East,,2591 Jolly Road ,,Okemos ,MI,488,United States,(517) 332-7781  ,,,"Office Hours : Mon-Fri 9:30AM-6:00PM, Sat 8:30AM-5:00PM, Sun 10:00AM-2:00PM, Gate Hours : Mon-Fri 6:00AM-10:00PM, Sat 6:00AM-10:00PM, Sun 6:00AM-10:00PM",,,
Novi,,24985 Haggerty Road ,,Novi ,MI,483,United States,(248) 478-4555  ,,,"Office Hours : Mon-Fri 9:30AM-6:00PM, Sat 8:30AM-5:00PM, Sun 10:00AM-2:00PM, Gate Hours : Mon-Fri 6:00AM-10:00PM, Sat 6:00AM-10:00PM, Sun 6:00AM-10:00AM",,,
North Ft Myers,,14251 North Cleveland Ave ,,North Fort Myers ,FL,339,United States,(239) 995-5100  ,,,"Office Hours : Mon-Fri 9:30AM-6:00PM, Sat 8:30AM-5:00PM, Sun 10:00AM-2:00PM, Gate Hours : Mon-Fri 6:00AM-10:00PM, Sat 6:00AM-10:00PM, Sun 6:00AM-10:00PM",,,
Bart Conner Drive,,3405 Bart Conner Drive ,,Norman ,OK,730,United States,(405) 360-9186  ,,,"Office Hours : Mon-Fri 9:30AM-6:00AM, Sat 8:30AM-5:00PM, Sun 10:00AM-2:00PM, Gate Hours : Mon-Fri 6:00AM-10:00PM, Sat 6:00AM-10:00PM, Sun 6:00AM-10:00PM",,,
12th Avenue,,275 12th Avenue SE ,,Norman ,OK,730,United States,(405) 360-9200  ,,,"Office Hours : Mon-Fri 9:30AM-6:00PM, Sat 8:30AM-5:00PM, Sun 10:00AM-2:00PM, Gate Hours : Mon-Fri 6:00AM-10:00PM, Sat 6:00AM-10:00PM, Sun 6:00AM-10:00PM",,,
New Brighton,,251 5th St NW ,,New Brighton ,MN,551,United States,(651) 628-9217  ,,,"Office Hours : Mon-Fri 9:30AM-6:00PM, Sat 8:30AM-5:00PM, Sun 10:00AM-2:00PM, Gate Hours : Mon-Fri 6:00AM-10:00PM, Sat 6:00AM-10:00PM, Sun 6:00AM-10:00PM",,,
Neptune,,1515 Washington Avenue ,,Neptune Township ,NJ,077,United States,(732) 775-4747  ,,,"Office Hours : Mon-Fri 9:30AM-6:00PM, Sat 8:30AM-5:00PM, Sun 10:00AM-2:00PM, Gate Hours : Mon-Fri 6:00AM-10:00PM, Sat 6:00AM-10:00PM, Sun 6:00AM-10:00PM",,,
Navarre,,9546 Navarre Parkway ,,Navarre ,FL,325,United States,(850) 936-8500  ,,,"Office Hours : Mon-Fri 9:30AM-6:00PM, Sat 8:30AM-5:00PM, Sun 10:00AM-2:00PM, Gate Hours : Mon-Fri 6:00AM-10:00PM, Sat 6:00AM-10:00PM, Sun 6:00AM-10:00PM",,,
Naples,,1361 Airport Road South ,,Naples ,FL,341,United States,(239) 530-7870  ,,,"Office Hours : Mon-Fri 9:30AM-6:00PM, Sat 8:30AM-5:00PM, Sun 10:00AM-2:00PM, Gate Hours : Mon-Fri 6:00AM-10:00PM, Sat 6:00AM-10:00PM, Sun 6:00AM-10:00PM",,,
Mt Juliet,,400 Quarry Loop Road Mt ,,Juliet ,TN,371,United States,(615) 547-9391  ,,,"Office Hours : Mon-Fri 9:30AM-6:00PM, Sat 8:30AM-5:00PM, Sun 12:00PM-4:00PM, Gate Hours : Mon-Fri 6:00AM-10:00PM, Sat 6:00AM-10:00PM, Sun 6:00AM-10:00PM",,,
Moore,,3015 North Service Road ,,Moore ,OK,731,United States,(405) 799-1717  ,,,"Office Hours : Mon-Fri 9:30AM-6:00PM, Sat 8:30AM-5:00PM, Sun 10:00AM-2:00PM, Gate Hours : Mon-Fri 6:00AM-10:00PM, Sat 6:00AM-10:00PM, Sun 6:00AM-10:00PM",,,
Hiawatha I/South Minneapolis,,4325 Hiawatha Ave ,,Minneapolis ,MN,554,United States,(612) 721-8943  ,,,"Office Hours : Mon-Fri 9:30AM-6:00PM, Sat 8:30AM-5:00PM, Sun 10:00AM-2:00PM, Gate Hours : Mon-Fri 6:00AM-10:00PM, Sat 6:00AM-10:00PM, Sun 6:00AM-10:00PM",,,
Hiawatha II/Minneapolis,,3601 Hiawatha Ave ,,Minneapolis ,MN,554,United States,(612) 276-0918  ,,,"Office Hours : Mon-Fri 9:30AM-6:00PM, Sat 8:30AM-5:00PM, Sun 10:00AM-2:00PM, Gate Hours : Mon-Fri 6:00AM-10:00PM, Sat 6:00AM-10:00PM, Sun 6:00AM-10:00PM",,,
Millville,,418 S. Wade Blvd. ,,Millville ,NJ,083,United States,(856) 825-1852  ,,,"Office Hours : Mon-Fri 9:30AM-6:00PM, Sat 8:30AM-5:00PM, Sun 10:00AM-2:00PM, Gate Hours : Mon-Fri 6:00AM-9:00PM, Sat 6:00AM-9:00PM, Sun 6:00AM-9:00PM",,,
North Watkins,,3969 N. Watkins Street ,,Memphis ,TN,381,United States,(901) 358-5793  ,,,"Office Hours : Mon-Fri 9:30AM-6:00PM, Sat 8:30AM-5:00PM, Sun 12:00PM-4:00PM, Gate Hours : Mon-Fri 6:00AM-10:00PM, Sat 6:00AM-10:00PM, Sun 6:00AM-10:00PM",,,
Southeast Memphis / Winchester Rd,,6714 Winchester Pointe Cove ,,Memphis ,TN,381,United States,(901) 565-0454  ,,,"Office Hours : Mon-Fri 9:30AM-6:00PM, Sat 8:30AM-5:00PM, Sun 12:00PM-4:00PM, Gate Hours : Mon-Fri 6:00AM-10:00PM, Sat 6:00AM-10:00PM, Sun 6:00AM-10:00PM",,,
Middletown,,75 Browns Lane ,,Middletown ,RI,028,United States,(401) 846-4446  ,,,"Office Hours : Mon-Fri 9:30AM-6:00PM, Sat 8:30AM-5:00PM, Sun 10:00AM-2:00PM, Gate Hours : Mon-Fri 6:00AM-10:00PM, Sat 6:00AM-10:00PM, Sun 6:00AM-10:00PM",,,
Southeast Memphis / Hwy 175,,4720 Getwell Road ,,Memphis ,TN,381,United States,(901) 367-2500  ,,,"Office Hours : Mon-Fri 9:30AM-6:00PM, Sat 8:30AM-5:00PM, Sun 12:00PM-4:00PM, Gate Hours : Mon-Fri 6:00AM-10:00PM, Sat 6:00AM-10:00PM, Sun 6:00AM-10:00PM",,,
Frayser,,3891 Thomas Street ,,Memphis ,TN,381,United States,(901) 353-9933  ,,,"Office Hours : Mon-Fri 9:30AM-6:00PM, Sat 8:30AM-5:00PM, Sun 12:00PM-4:00PM, Gate Hours : Mon-Fri 6:00AM-10:00PM, Sat 6:00AM-10:00PM, Sun 6:00AM-10:00PM",,,
Southeast Memphis / Raines Rd,,6504 E Raines Road ,,Memphis ,TN,381,United States,(901) 794-3840  ,,,"Office Hours : Mon-Fri 9:30AM-6:00PM, Sat 8:30AM-5:00PM, Sun 12:00PM-4:00PM, Gate Hours : Mon-Fri 6:00AM-10:00PM, Sat 6:00AM-10:00PM, Sun 6:00AM-10:00PM",,,
Palm Bay Road,,888 Palm Bay Road NE ,,Melbourne ,FL,329,United States,(321) 984-9798  ,,,"Office Hours : Mon-Fri 9:30AM-6:00PM, Sat 8:30AM-5:00PM, Sun 10:00AM-2:00PM, Gate Hours : Mon-Fri 6:00AM-10:00PM, Sat 6:00AM-10:00PM, Sun 6:00AM-10:00PM",,,
Fields Ertel/Mason,,9805 Wilkens Boulevard ,,Mason ,OH,450,United States,(513) 489-4970  ,,,"Office Hours : Mon-Fri 9:30AM-6:00PM, Sat 8:30AM-5:00PM, Sun 10:00AM-2:00PM, Gate Hours : Mon-Fri 6:00AM-10:00PM, Sat 6:00AM-10:00PM, Sun 6:00AM-10:00PM",,,
Marmora,,101 US Route 9 (S. Shore Road) ,,Marmora ,NJ,082,United States,(609) 390-3333  ,,,"Office Hours : Mon-Fri 9:30AM-6:00PM, Sat 8:30AM-5:00PM, Sun 10:00AM-2:00PM, Gate Hours : Mon-Fri 6:00AM-9:00PM, Sat 6:00AM-9:00PM, Sun 6:00AM-9:00PM",,,
Madison Heights - Amherst Hwy,,4107 S Amherst Hwy ,,Madison Heights ,VA,245,United States,(434) 846-6281  ,,,"Office Hours : Mon-Fri 9:30AM-6:00PM, Sat 8:30AM-5:00PM, Sun 10:00AM-2:00PM, Gate Hours : Mon-Fri 6:00AM-10:00PM, Sat 6:00AM-10:00PM, Sun 6:00AM-10:00PM",,,
Riverside Drive,,4460 Riverside Dr. ,,Macon ,GA,312,United States,(478) 405-0993  ,,,"Office Hours : Mon-Fri 9:30AM-6:00PM, Sat 8:30AM-5:00PM, Sun 10:00AM-2:00PM, Gate Hours : Mon-Fri 6:00AM-10:00PM, Sat 6:00AM-10:00PM, Sun 6:00AM-10:00PM",,,
Riverside Annex (Hall Road),,4486 Riverside Dr. ,,Macon ,GA,312,United States,(478) 405-0993  ,,,"Office Hours : Mon-Fri 9:30AM-6:00PM, Sat 8:30AM-5:00PM, Sun 10:00AM-2:00PM, Gate Hours : Mon-Fri 6:00AM-10:00PM, Sat 6:00AM-10:00PM, Sun 6:00AM-10:00PM",,,
Marietta / Canton Road,,732 Chance Road ,,Marietta ,GA,300,United States,(770) 450-6769  ,,,"Office Hours : Mon-Fri 9:30AM-6:00PM, Sat 8:30AM-5:00PM, Sun 10:00AM-2:00PM, Gate Hours : Mon-Fri 6:00AM-9:00PM, Sat 6:00AM-9:00PM, Sun 6:00AM-9:00PM",,,
Plantation Centre / Peake Rd,,6416 Peake Rd. ,,Macon ,GA,312,United States,(478) 405-7202  ,,,"Office Hours : Mon-Fri 9:30AM-6:00PM, Sat 8:30AM-5:00PM, Sun 10:00AM-2:00PM, Gate Hours : Mon-Fri 6:00AM-10:00PM, Sat 6:00AM-10:00PM, Sun 6:00AM-10:00PM",,,
Billy Williamson,,4500 Billy Williamson Drive ,,Macon ,GA,312,United States,(478) 405-8414  ,,,"Office Hours : Mon-Fri 9:30AM-6:00PM, Sat 8:30AM-5:00PM, Sun 10:00AM-2:00PM, Gate Hours : Mon-Fri 6:00AM-10:00PM, Sat 6:00AM-10:00PM, Sun 6:00AM-10:00PM",,,
Lynnfield/Saugus,,102 Broadway ,,Lynnfield ,MA,019,United States,(781) 596-4249  ,,,"Office Hours : Mon-Fri 9:30AM-6:00PM, Sat 8:30AM-5:00PM, Sun 10:00AM-2:00PM, Gate Hours : Mon-Fri 6:00AM-10:00PM, Sat 6:00AM-10:00PM, Sun 6:00AM-10:00PM",,,
Timberlake Road II,,22195 Timberlake Road ,,Lynchburg ,VA,245,United States,(434) 237-0960  ,,,"Office Hours : Mon-Fri 9:30AM-6:00PM, Sat 8:30AM-5:00PM, Sun 10:00AM-2:00PM, Gate Hours : Mon-Fri 6:00AM-10:00PM, Sat 6:00AM-10:00PM, Sun 6:00AM-10:00PM",,,
Lakeside Drive,,2637 Lakeside Drive ,,Lynchburg ,VA,245,United States,(434) 385-1087  ,,,"Office Hours : Mon-Fri 9:30AM-6:00PM, Sat 8:30AM-5:00PM, Sun 10:00AM-2:00PM, Gate Hours : Mon-Fri 6:00AM-10:00PM, Sat 6:00AM-10:00PM, Sun 6:00AM-10:00PM",,,
Timberlake Road,,8117 Timberlake Road ,,Lynchburg ,VA,245,United States,(434) 237-0647  ,,,"Office Hours : Mon-Fri 9:30AM-6:00PM, Sat 8:30AM-5:00PM, Sun 10:00AM-2:00PM, Gate Hours : Mon-Fri 6:00AM-10:00PM, Sat 6:00AM-10:00PM, Sun 6:00AM-10:00PM",,,
Livonia,,11960 Farmington ,,Livonia ,MI,481,United States,(734) 425-9442  ,,,"Office Hours : Mon-Fri 9:30AM-6:00PM, Sat 8:30AM-5:00PM, Sun 10:00AM-2:00PM, Gate Hours : Mon-Fri 6:00AM-10:00PM, Sat 6:00AM-10:00PM, Sun 6:00AM-10:00PM",,,
Lakeville,,9913 214th Street W ,,Lakeville ,MN,550,United States,(952) 985-1414  ,,,"Office Hours : Mon-Fri 9:30AM-6:00PM, Sat 8:30AM-5:00PM, Sun 10:00AM-2:00PM, Gate Hours : Mon-Fri 6:00AM-10:00PM, Sat 6:00AM-10:00PM, Sun 6:00AM-10:00PM",,,
Lebanon,,136 Maddox-Simpson Pkwy ,,Lebanon ,TN,370,United States,(615) 453-4997  ,,,"Office Hours : Mon-Fri 9:30AM-6:00PM, Sat 8:30AM-5:00PM, Sun 12:00PM-4:00PM, Gate Hours : Mon-Fri 6:00AM-10:00PM, Sat 6:00AM-10:00PM, Sun 6:00AM-10:00PM",,,
Lincoln Park,,1782 Howard St ,,Lincoln Park ,MI,481,United States,(313) 381-6697  ,,,"Office Hours : Mon-Fri 9:30AM-6:00PM, Sat 8:30AM-5:00PM, Sun 10:00AM-2:00PM, Gate Hours : Mon-Fri 6:00AM-10:00PM, Sat 6:00AM-10:00PM, Sun 6:00AM-10:00PM",,,
Preakness Blvd,,22831 Preakness Blvd ,,Land O Lakes ,FL,346,United States,(813) 242-7867  ,,,"Office Hours : Mon-Fri 9:30AM-6:00PM, Sat 8:30AM-5:00PM, Sun 12:00PM-4:00PM, Gate Hours : Mon-Fri 6:00AM-10:00PM, Sat 6:00AM-10:00PM, Sun 6:00AM-10:00PM",,,
Lansing West,,2685 Eaton Rapids Road ,,Lansing ,MI,489,United States,(517) 887-3110  ,,,"Office Hours : Mon-Fri 9:30AM-6:00PM, Sat 8:30AM-5:00PM, Sun Closed, Gate Hours : Mon-Fri 6:00AM-10:00PM, Sat 6:00AM-10:00PM, Sun 6:00AM-10:00PM",,,
South 18th Street,,3607 South 18th Street ,,Lafayette ,IN,479,United States,(765) 477-7867  ,,,"Office Hours : Mon-Fri 9:30AM-6:00PM, Sat 8:30AM-5:00PM, Sun 10:00AM-2:00PM, Gate Hours : Mon-Fri 6:00AM-9:00PM, Sat 6:00AM-9:00PM, Sun 6:00AM-9:00PM",,,
Linden/Fenton,,15124 S Linden Rd ,,Linden ,MI,484,United States,(810) 735-4347  ,,,"Office Hours : Mon-Fri 9:30AM-6:00PM, Sat 8:30AM-5:00PM, Sun 10:00AM-2:00PM, Gate Hours : Mon-Fri 6:00AM-10:00PM, Sat 6:00AM-10:00PM, Sun 6:00AM-10:00PM",,,
Lake Orion,,1745 Waldon Road ,,Lake Orion ,MI,483,United States,(248) 393-1307  ,,,"Office Hours : Mon-Fri 9:30AM-6:00PM, Sat 8:30AM-5:00PM, Sun 10:00AM-2:00PM, Gate Hours : Mon-Fri 6:00AM-10:00PM, Sat 6:00AM-10:00PM, Sun 6:00AM-10:00PM",,,
Highway 231,,2669 U.S. Highway 231 ,,Lafayette ,IN,479,United States,(765) 474-3011  ,,,"Office Hours : Mon-Fri 9:30AM-6:00PM, Sat 8:30AM-5:00PM, Sun 10:00AM-2:00PM, Gate Hours : Mon-Fri 6:00AM-10:00PM, Sat 6:00AM-10:00PM, Sun 6:00AM-10:00PM",,,
West Point Road,,2170 West Point Road ,,LaGrange ,GA,302,United States,(706) 882-8683  ,,,"Office Hours : Mon-Fri 9:30AM-6:00PM, Sat 8:30AM-5:00PM, Sun 10:00AM-2:00PM, Gate Hours : Mon-Fri 6:00AM-10:00PM, Sat 6:00AM-10:00PM, Sun 6:00AM-10:00PM",,,
Tazer Drive,,4900 Tazer Drive ,,Lafayette ,IN,479,United States,(765) 449-7909  ,,,"Office Hours : Mon-Fri 9:30AM-6:00PM, Sat 8:30AM-5:00PM, Sun 10:00AM-2:00PM, Gate Hours : Mon-Fri 6:00AM-10:00PM, Sat 6:00AM-10:00PM, Sun 6:00AM-10:00PM",,,
Sagamore South,,1025 Sagamore Parkway South ,,Lafayette ,IN,479,United States,(765) 447-4919  ,,,"Office Hours : Mon-Fri 9:30AM-6:00PM, Sat 8:30AM-5:00PM, Sun 10:00AM-2:00PM, Gate Hours : Mon-Fri 6:00AM-10:00PM, Sat 6:00AM-10:00PM, Sun 6:00AM-10:00PM",,,
Kalamazoo,,2135 Sprinkle Road ,,Kalamazoo ,MI,490,United States,(269) 342-1800  ,,,"Office Hours : Mon-Fri 9:30AM-6:00PM, Sat 8:30AM-5:00PM, Sun 10:00AM-2:00PM, Gate Hours : Mon-Fri 6:00AM-10:00PM, Sat 6:00AM-10:00PM, Sun 6:00AM-10:00PM",,,
Kingsland,,1320 Highway 40 ,,Kingsland ,GA,315,United States,(912) 729-7323  ,,,"Office Hours : Mon-Fri 9:30AM-6:00PM, Sat 8:30AM-5:00PM, Sun 10:00AM-2:00PM, Gate Hours : Mon-Fri 6:00AM-10:00PM, Sat 6:00AM-10:00PM, Sun 6:00AM-10:00PM",,,
Delaware,,1201 N. 130 Street ,,Kansas City ,KS,661,United States,(913) 721-5277  ,,,"Office Hours : Mon-Fri 9:30AM-6:00PM, Sat 8:30AM-5:00PM, Sun Closed, Gate Hours : Mon-Fri 6:00AM-10:00PM, Sat 6:00AM-10:00PM, Sun 6:00AM-10:00PM",,,
Beachway Drive,,749 Beachway Drive ,,Indianapolis ,IN,462,United States,(317) 241-2642  ,,,"Office Hours : Mon-Fri 9:30AM-6:00PM, Sat 8:30AM-5:00PM, Sun 10:00AM-2:00PM, Gate Hours : Mon-Fri 6:00AM-10:00PM, Sat 6:00AM-10:00PM, Sun 6:00AM-10:00PM",,,
Kettering,,4125 Hempstead Station Dr. ,,Kettering ,OH,454,United States,(937) 296-9370  ,,,"Office Hours : Mon-Fri 9:30AM-6:00PM, Sat 8:30AM-5:00PM, Sun 10:00AM-2:00PM, Gate Hours : Mon-Fri 6:00AM-10:00PM, Sat 6:00AM-10:00PM, Sun 6:00AM-10:00PM",,,
State Avenue,,5500 State Avenue ,,Kansas City ,KS,661,United States,(913) 596-1424  ,,,"Office Hours : Mon-Fri 9:30AM-6:00PM, Sat 8:30AM-5:00PM, Sun Closed, Gate Hours : Mon-Fri 6:00AM-10:00PM, Sat 6:00AM-10:00PM, Sun 6:00AM-10:00PM",,,
W 10th St/Ben Davis,,7937 W 10th St ,,Indianapolis ,IN,462,United States,(317) 271-1840  ,,,"Office Hours : Mon-Fri 9:30AM-6:00PM, Sat 8:30AM-5:00PM, Sun 10:00AM-2:00PM, Gate Hours : Mon-Fri 6:00AM-10:00PM, Sat 6:00AM-10:00PM, Sun 6:00AM-10:00PM",,,
Castleton,,8525 Castleton Square Dr. ,,Indianapolis ,IN,462,United States,(317) 436-8436  ,,,"Office Hours : Mon-Fri 9:30AM-6:00PM, Sat 8:30AM-5:00PM, Sun 10:00AM-2:00PM, Gate Hours : Mon-Fri 6:00AM-10:00PM, Sat 6:00AM-10:00PM, Sun 6:00AM-10:00PM",,,
Hawthorn Park / East 71st Street,,6901 Hawthorn Park ,,Indianapolis ,IN,462,United States,(317) 849-1387  ,,,"Office Hours : Mon-Fri 9:30AM-6:00PM, Sat 8:30AM-5:00PM, Sun 10:00AM-2:00PM, Gate Hours : Mon-Fri 6:00AM-10:00PM, Sat 6:00AM-10:00PM, Sun 6:00AM-10:00PM",,,
Huber Heights,,7888 Wildcat Rd. ,,Huber Heights ,OH,454,United States,(937) 233-3180  ,,,"Office Hours : Mon-Fri 9:30AM-6:00PM, Sat 8:30AM-5:00PM, Sun 10:00AM-2:00PM, Gate Hours : Mon-Fri 6:00AM-10:00PM, Sat 6:00AM-10:00PM, Sun 6:00AM-10:00PM",,,
John Hawkins Pkwy,,2400 John Hawkins Parkway ,,Hoover ,AL,352,United States,(205) 403-2757  ,,,"Office Hours : Mon-Fri 9:30AM-6:00PM, Sat 8:30AM-5:00PM, Sun Closed, Gate Hours : Mon-Fri 6:00AM-10:00PM, Sat 6:00AM-10:00PM, Sun 6:00AM-10:00PM",,,
Hoffman Estates,,2775 W. Bode Rd. ,,Hoffman Estates ,IL,601,United States,(847) 798-8402  ,,,"Office Hours : Mon-Fri 9:30AM-6:00PM, Sat 8:30AM-5:00PM, Sun 10:00AM-2:00PM, Gate Hours : Mon-Fri 6:00AM-10:00PM, Sat 6:00AM-10:00PM, Sun 6:00AM-10:00PM",,,
Hingham/Weymouth,,125 Recreation Park Drive (Take Derby St. Shoppes Service Road) ,,Hingham ,MA,020,United States,(781) 740-0231  ,,,"Office Hours : Mon-Fri 9:30AM-6:00PM, Sat 8:30AM-5:00PM, Sun 10:00AM-2:00PM, Gate Hours : Mon-Fri 6:00AM-10:00PM, Sat 6:00AM-10:00PM, Sun 6:00AM-10:00PM",,,
Highland Park,,1505 Old Deerfield Road ,,Highland Park/Lake Forest ,IL,600,United States,(847) 831-3158  ,,,"Office Hours : Mon-Fri 9:30AM-6:00PM, Sat 8:30AM-5:00PM, Sun 10:00AM-2:00PM, Gate Hours : Mon-Fri 6:00AM-10:00PM, Sat 6:00AM-10:00PM, Sun 6:00AM-10:00PM",,,
Houston Access,,650 Bay Area Blvd ,,Houston ,TX,770,United States,(281) 972-0000  ,,,"Office Hours : Mon-Fri 9:30AM-6:00PM, Sat 8:30AM-5:00PM, Sun 10:00AM-2:00PM, Gate Hours : Mon-Fri 6:00AM-10:00PM, Sat 6:00AM-10:00PM, Sun 6:00AM-10:00PM",,,
Hermitage,,4060 Andrew Jackson Parkway ,,Hermitage ,TN,370,United States,(615) 883-8800  ,,,"Office Hours : Mon-Fri 9:30AM-6:00PM, Sat 8:30AM-5:00PM, Sun 12:00PM-4:00PM, Gate Hours : Mon-Fri 6:00AM-10:00PM, Sat 6:00AM-10:00PM, Sun 6:00AM-10:00PM",,,
Hendersonville,,1066 West Main Street ,,Hendersonville ,TN,370,United States,(615) 264-6600  ,,,"Office Hours : Mon-Fri 9:30AM-6:00PM, Sat 8:30AM-5:00PM, Sun 12:00PM-4:00PM, Gate Hours : Mon-Fri 6:00AM-10:00PM, Sat 6:00AM-10:00PM, Sun 6:00AM-10:00PM",,,
AAA Mini - Guaynabo,,Carr. # 1 KM 21.3 ,,Sector La Muda Guaynabo ,PR,009,Puert Rico,(787) 287-8888  ,,,"Office Hours : Mon-Fri 9:00AM-6:00PM, Sat 9:00AM-6:00PM, Sun Closed, Gate Hours : Mon-Fri 7:00AM-7:00PM, Sat 7:00AM-7:00PM, Sun 7:00AM-7:00PM",,,
East Reed Road,,2201 East Reed Road ,,Greensville ,MS,387,United States,(662) 335-2350  ,,,"Office Hours : Mon-Fri 9:30AM-6:00PM, Sat 8:30AM-5:00PM, Sun 12:00PM-4:00PM, Gate Hours : Mon-Fri 6:00AM-10:00PM, Sat 6:00AM-10:00PM, Sun 6:00AM-10:00PM",,,
Grand Rapids/Kentwood,,2345 29th Street SE ,,Grand Rapids ,MI,495,United States,(616) 248-4674  ,,,"Office Hours : Mon-Fri 9:30AM-6:00PM, Sat 8:30AM-5:00PM, Sun Closed, Gate Hours : Mon-Fri 6:00AM-10:00PM, Sat 6:00AM-10:00PM, Sun 6:00AM-10:00PM",,,
Grand Rapids,,1236 Ball Avenue NE ,,Grand Rapids ,MI,495,United States,(616) 454-6285  ,,,"Office Hours : Mon-Fri 9:30AM-6:00PM, Sat 8:30AM-5:00PM, Sun Closed, Gate Hours : Mon-Fri 6:00AM-10:00PM, Sat 6:00AM-10:00PM, Sun 6:00AM-10:00PM",,,
Glenview / Niles,,747 Milwaukee Ave. ,,Glenview ,IL,600,United States,(847) 724-8445  ,,,"Office Hours : Mon-Fri 9:30AM-6:00PM, Sat 8:30AM-5:00PM, Sun 10:00AM-2:00PM, Gate Hours : Mon-Fri 6:00AM-10:00PM, Sat 6:00AM-10:00PM, Sun 6:00AM-10:00PM",,,
Gallatin,,465 N. Belvedere Drive ,,Gallatin ,TN,370,United States,(615) 230-8400  ,,,"Office Hours : Mon-Fri 9:30AM-6:00PM, Sat 8:30AM-5:00PM, Sun 12:00PM-4:00PM, Gate Hours : Mon-Fri 6:00AM-10:00PM, Sat 6:00AM-10:00PM, Sun 6:00AM-10:00PM",,,
Gahanna,,841 Taylor Station Road ,,Gahanna ,OH,432,United States,(614) 751-1100  ,,,"Office Hours : Mon-Fri 9:30AM-6:00PM, Sat 8:30AM-5:00PM, Sun 10:00AM-2:00PM, Gate Hours : Mon-Fri 6:00AM-10:00PM, Sat 6:00AM-10:00PM, Sun 6:00AM-10:00PM",,,
Ivy Hill / Glenside,,7600 Queen Street ,,Glenside ,PA,190,United States,(215) 402-9917  ,,,"Office Hours : Mon-Fri 9:30AM-6:00PM, Sat 8:30AM-5:00PM, Sun 10:00AM-2:00PM, Gate Hours : Mon-Fri 6:00AM-9:00PM, Sat 6:00AM-9:00PM, Sun 6:00AM-9:00PM",,,
Ft. Walton / Racetrack,,921 Harrelson Drive ,,Ft. Walton Beach ,FL,325,United States,(850) 362-6177  ,,,"Office Hours : Mon-Fri 9:30AM-6:00PM, Sat 8:30AM-5:00PM, Sun 10:00AM-2:00PM, Gate Hours : Mon-Fri 6:00AM-10:00PM, Sat 6:00AM-10:00PM, Sun 6:00AM-10:00PM",,,
Ft. Walton / Beal Pkwy,,719 Beal Parkway ,,Ft. Walton Beach ,FL,325,United States,(850) 862-3124  ,,,"Office Hours : Mon-Fri 9:30AM-6:00PM, Sat 8:30AM-5:00PM, Sun 10:00AM-2:00PM, Gate Hours : Mon-Fri 6:00AM-10:00PM, Sat 6:00AM-10:00PM, Sun 6:00AM-10:00PM",,,
Stonebrook / Frisco,,8388 Farm to Market Road 423 ,,Frisco ,TX,750,United States,(972) 668-0116  ,,,"Office Hours : Mon-Fri 9:30AM-6:00PM, Sat 8:30AM-5:00PM, Sun 10:00AM-2:00PM, Gate Hours : Mon-Fri 6:00AM-10:00PM, Sat 6:00AM-10:00PM, Sun 6:00AM-10:00PM",,,
Forest Park/Mt Healthy,,2140 Stapleton Ct. ,,Forest Park ,OH,452,United States,(513) 742-9118  ,,,"Office Hours : Mon-Fri 9:30AM-6:00PM, Sat 8:30AM-5:00PM, Sun 10:00AM-2:00PM, Gate Hours : Mon-Fri 6:00AM-10:00PM, Sat 6:00AM-10:00PM, Sun 6:00AM-10:00PM",,,
Spout Springs Road,,6121 Spout Springs Road ,,Flowery Branch ,GA,305,United States,(770) 967-1235  ,,,"Office Hours : Mon-Fri 9:30AM-6:00PM, Sat 8:30AM-5:00PM, Sun 10:00AM-2:00PM, Gate Hours : Mon-Fri 6:00AM-10:00PM, Sat 6:00AM-10:00PM, Sun 6:00AM-10:00PM",,,
Franklin,,1903 Columbia Avenue ,,Franklin ,TN,370,United States,(615) 794-9591  ,,,"Office Hours : Mon-Fri 9:30AM-6:00PM, Sat 8:30AM-5:00PM, Sun 12:00PM-4:00PM, Gate Hours : Mon-Fri 6:00AM-10:00PM, Sat 6:00AM-10:00PM, Sun 6:00AM-10:00PM",,,
Flint,,2325 S Dort Highway ,,Flint ,MI,485,United States,(810) 235-4131  ,,,"Office Hours : Mon-Fri 9:30AM-6:00PM, Sat 8:30AM-5:00PM, Sun 10:00AM-2:00PM, Gate Hours : Mon-Fri 6:00AM-10:00PM, Sat 6:00AM-10:00PM, Sun 6:00AM-10:00PM",,,
Ferndale/Detroit,,181 West Marshall St ,,Ferndale ,MI,482,United States,(248) 336-8943  ,,,"Office Hours : Mon-Fri 9:30AM-6:00PM, Sat 8:30AM-5:00PM, Sun 10:00AM-2:00PM, Gate Hours : Mon-Fri 6:00AM-10:00PM, Sat 6:00AM-10:00PM, Sun 6:00AM-10:00PM",,,
Sinacola Ct/Farmington Hills,,24500 Sinacola Ct ,,Farmington Hills ,MI,483,United States,(248) 427-0935  ,,,"Office Hours : Mon-Fri 9:30AM-6:00PM, Sat 8:30AM-5:00PM, Sun 10:00AM-2:00PM, Gate Hours : Mon-Fri 6:00AM-10:00PM, Sat 6:00AM-10:00PM, Sun 6:00AM-10:00PM",,,
Grand River/Farmington Hills,,28650 Grand River ,,Farmington Hills ,MI,483,United States,(248) 427-0538  ,,,"Office Hours : Mon-Fri 9:30AM-6:00PM, Sat 8:30AM-5:00PM, Sun 10:00AM-2:00PM, Gate Hours : Mon-Fri 6:00AM-10:00PM, Sat 6:00AM-10:00PM, Sun 6:00AM-10:00PM",,,
Fairhaven,,16 Lambeth Park Road ,,Fairhaven ,MA,027,United States,(508) 992-0148  ,,,"Office Hours : Mon-Fri 9:30AM-6:00PM, Sat 8:30AM-5:00PM, Sun 10:00AM-2:00PM, Gate Hours : Mon-Fri 6:00AM-10:00PM, Sat 6:00AM-10:00PM, Sun 6:00AM-10:00PM",,,
Manalapan/Englishtown,,289 Highway 9 ,,Englishtown ,NJ,077,United States,(732) 866-9950  ,,,"Office Hours : Mon-Fri 9:30AM-6:00PM, Sat 8:30AM-5:00PM, Sun 10:00AM-2:00PM, Gate Hours : Mon-Fri 6:00AM-10:00PM, Sat 6:00AM-10:00PM, Sun 6:00AM-10:00PM",,,
Eight Mile/Eastpointe,,14907 Eight Mile Rd ,,Eastpointe ,MI,480,United States,(586) 445-6102  ,,,"Office Hours : Mon-Fri 9:30AM-6:00PM, Sat 8:30AM-5:00PM, Sun 10:00AM-2:00PM, Gate Hours : Mon-Fri 6:00AM-10:00PM, Sat 6:00AM-10:00PM, Sun 6:00AM-10:00PM",,,
Falmouth,,33 Village Common Drive ,,East Falmouth ,MA,025,United States,(508) 548-9579  ,,,"Office Hours : Mon-Fri 9:30AM-6:00PM, Sat 8:30AM-5:00PM, Sun Closed, Gate Hours : Mon-Fri 6:00AM-10:00PM, Sat 6:00AM-10:00PM, Sun 6:00AM-10:00PM",,,
Hwy 16/Denham Springs,,34570 LA Highway 16 ,,Denham Springs ,LA,707,United States,(225) 665-3040  ,,,"Office Hours : Mon-Fri 9:30AM-6:00PM, Sat 8:30AM-5:00PM, Sun 10:00AM-2:00PM, Gate Hours : Mon-Fri 6:00AM-10:00PM, Sat 6:00AM-10:00PM, Sun 6:00AM-10:00PM",,,
Eagan,,4025 Old Sibley Memorial Hwy ,,Eagan ,MN,551,United States,(651) 882-0427  ,,,"Office Hours : Mon-Fri 9:30AM-6:00PM, Sat 8:30AM-5:00PM, Sun 10:00AM-2:00PM, Gate Hours : Mon-Fri 6:00AM-10:00PM, Sat 6:00AM-10:00PM, Sun 6:00AM-10:00PM",,,
Deerfield/Northbrook,,177 Deerlake Rd. ,,Deerfield ,IL,600,United States,(847) 940-0036  ,,,"Office Hours : Mon-Fri 9:30AM-6:00PM, Sat 8:30AM-5:00PM, Sun 10:00AM-2:00PM, Gate Hours : Mon-Fri 6:00AM-10:00PM, Sat 6:00AM-10:00PM, Sun 6:00AM-10:00PM",,,
Ponce De Leon Ave,,3031 East Ponce de Leon Avenue ,,Decatur ,GA,300,United States,(404) 748-1861  ,,,"Office Hours : Mon-Fri 9:30AM-6:00PM, Sat 8:30AM-5:00PM, Sun 10:00AM-2:00PM, Gate Hours : Mon-Fri 6:00AM-10:00PM, Sat 6:00AM-10:00PM, Sun 6:00AM-10:00PM",,,
Flat Shoals / Shepherd,,2804 H. F. Shepherd Drive ,,Decatur ,GA,300,United States,(470) 235-4720  ,,,"Office Hours : Mon-Fri 9:30AM-6:00PM, Sat 8:30AM-5:00PM, Sun 10:00AM-2:00PM, Gate Hours : Mon-Fri 6:00AM-9:00PM, Sat 6:00AM-9:00PM, Sun 6:00AM-9:00PM",,,
Dearborn Heights,,24579 Ann Arbor Trail ,,Dearborn Heights ,MI,481,United States,(313) 278-0047  ,,,"Office Hours : Mon-Fri 9:30AM-6:00PM, Sat 8:30AM-5:00PM, Sun 10:00AM-2:00PM, Gate Hours : Mon-Fri 6:00AM-10:00PM, Sat 6:00AM-10:00PM, Sun 6:00AM-10:00PM",,,
Dayton/Needmore Rd.,,1830 Needmore Rd ,,Dayton ,OH,454,United States,(937) 274-2222  ,,,"Office Hours : Mon-Fri 9:30AM-6:00PM, Sat 8:30AM-5:00PM, Sun 10:00AM-2:00PM, Gate Hours : Mon-Fri 6:00AM-10:00PM, Sat 6:00AM-10:00PM, Sun 6:00AM-10:00PM",,,
Dearborn,,23954 Kean St. ,,Dearborn ,MI,481,United States,(313) 562-6103  ,,,"Office Hours : Mon-Fri 9:30AM-6:00PM, Sat 8:30AM-5:00PM, Sun 10:00AM-2:00PM, Gate Hours : Mon-Fri 6:00AM-10:00PM, Sat 6:00AM-10:00PM, Sun 6:00AM-10:00PM",,,
Danville,,1810 East Voorhees Street ,,Danville ,IL,618,United States,(217) 446-6968  ,,,"Office Hours : Mon-Fri 9:30AM-6:00PM, Sat 8:30AM-5:00PM, Sun Closed, Gate Hours : Mon-Fri 6:00AM-10:00PM, Sat 6:00AM-10:00PM, Sun 6:00AM-10:00PM",,,
Shiloh Springs,,4820 Trinity Church Rd. ,,Dayton ,OH,454,United States,(937) 275-3526  ,,,"Office Hours : Mon-Fri 9:30AM-6:00PM, Sat 8:30AM-5:00PM, Sun 10:00AM-2:00PM, Gate Hours : Mon-Fri 6:00AM-9:00PM, Sat 6:00AM-9:00PM, Sun 6:00AM-10:00PM",,,
Dallas/Northwest Hwy,,9450 Hargrove Drive ,,Dallas ,TX,752,United States,(214) 351-9960  ,,,"Office Hours : Mon-Fri 9:30AM-6:00PM, Sat 8:30AM-5:00PM, Sun 10:00AM-2:00PM, Gate Hours : Mon-Fri 6:00AM-10:00PM, Sat 6:00AM-10:00PM, Sun 6:00AM-10:00PM",,,
Coon Rapids/Blaine,,9154 University Ave NW ,,Coon Rapids ,MN,554,United States,(763) 780-2965  ,,,"Office Hours : Mon-Fri 9:30AM-6:00PM, Sat 8:30AM-5:00PM, Sun 10:00AM-2:00PM, Gate Hours : Mon-Fri 6:00AM-10:00PM, Sat 6:00AM-10:00PM, Sun 6:00AM-10:00PM",,,
Mueschke Rd/Cypress,,15814 Mueschke Road ,,Cypress ,TX,774,United States,(281) 256-8864  ,,,"Office Hours : Mon-Fri 9:30AM-6:00PM, Sat 8:30AM-5:00PM, Sun 10:00AM-2:00PM, Gate Hours : Mon-Fri 6:00AM-10:00PM, Sat 6:00AM-10:00PM, Sun 6:00AM-10:00PM",,,
Fisher Rd,,4600 Fisher Road ,,Columbus ,OH,432,United States,(614) 851-1000  ,,,"Office Hours : Mon-Fri 9:30AM-6:00PM, Sat 8:30AM-5:00PM, Sun 10:00AM-2:00PM, Gate Hours : Mon-Fri 6:00AM-10:00PM, Sat 6:00AM-10:00PM, Sun 6:00AM-10:00PM",,,
South High,,3171 S. High ,,Columbus ,OH,432,United States,(614) 491-5090  ,,,"Office Hours : Mon-Fri 9:30AM-6:00PM, Sat 8:30AM-5:00PM, Sun Closed, Gate Hours : Mon-Fri 6:00AM-10:00PM, Sat 6:00AM-10:00PM, Sun 6:00AM-10:00PM",,,
Storage Court,,7000 Storage Court ,,Columbus ,GA,319,United States,(706) 562-9252  ,,,"Office Hours : Mon-Fri 9:30AM-6:00PM, Sat 8:30AM-5:00PM, Sun 10:00AM-2:00PM, Gate Hours : Mon-Fri 6:00AM-10:00PM, Sat 6:00AM-10:00PM, Sun 6:00AM-10:00PM",,,
Macon Road,,6751 Macon Road ,,Columbus ,GA,319,United States,(706) 562-9252  ,,,"Office Hours : Mon-Fri 9:30AM-6:00PM, Sat 8:30AM-5:00PM, Sun 10:00AM-2:00PM, Gate Hours : Mon-Fri 6:00AM-10:00PM, Sat 6:00AM-10:00PM, Sun 6:00AM-10:00PM",,,
Whitesville Road,,5977 Whitesville Road ,,Columbus ,GA,319,United States,(706) 221-1943  ,,,"Office Hours : Mon-Fri 9:30AM-6:00PM, Sat 8:30AM-5:00PM, Sun 10:00AM-2:00PM, Gate Hours : Mon-Fri 6:00AM-10:00PM, Sat 6:00AM-10:00PM, Sun 6:00AM-10:00PM",,,
Cooke Rd,,810 E Cooke Rd ,,Columbus ,OH,432,United States,(614) 268-4254  ,,,"Office Hours : Mon-Fri 9:30AM-6:00PM, Sat 8:30AM-5:00PM, Sun 10:00AM-2:00PM, Gate Hours : Mon-Fri 6:00AM-10:00PM, Sat 6:00AM-10:00PM, Sun 6:00AM-10:00PM",,,
South Rowlett,,651 S. Rowlett Street ,,Collierville ,TN,380,United States,(901) 854-3561  ,,,"Office Hours : Mon-Fri 9:30AM-6:00PM, Sat 8:30AM-5:00PM, Sun 12:00PM-4:00PM, Gate Hours : Mon-Fri 6:00AM-10:00PM, Sat 6:00AM-10:00PM, Sun 6:00AM-10:00PM",,,
Collierville,,314 S Mount Pleasant Road ,,Collierville ,TN,380,United States,(901) 861-1261  ,,,"Office Hours : Mon-Fri 9:30AM-6:00PM, Sat 8:30AM-5:00PM, Sun 12:00PM-4:00PM, Gate Hours : Mon-Fri 6:00AM-10:00PM, Sat 6:00AM-10:00PM, Sun 6:00AM-10:00PM",,,
Groesbeck Hwy/Clinton Township,,36261 Groesbeck Highway ,,Clinton Township ,MI,480,United States,(586) 791-6683  ,,,"Office Hours : Mon-Fri 9:30AM-6:00PM, Sat 8:30AM-5:00PM, Sun 10:00AM-2:00PM, Gate Hours : Mon-Fri 6:00AM-10:00PM, Sat 6:00AM-10:00PM, Sun 6:00AM-10:00PM",,,
Cocoa - West King Street,,2845 W. King Street ,,Cocoa ,FL,329,United States,(321) 639-3450  ,,,"Office Hours : Mon-Fri 9:30AM-6:00PM, Sat 8:30AM-5:00PM, Sun 10:00AM-2:00PM, Gate Hours : Mon-Fri 6:00AM-10:00PM, Sat 6:00AM-10:00PM, Sun 6:00AM-10:00PM",,,
Cliffwood,,460 County Road ,,Cliffwood ,NJ,077,United States,(732) 566-1395  ,,,"Office Hours : Mon-Fri 9:30AM-6:00PM, Sat 8:30AM-5:00PM, Sun 10:00AM-2:00PM, Gate Hours : Mon-Fri 6:00AM-6:00AM, Sat 6:00AM-6:00AM, Sun 6:00AM-6:00AM",,,
Romeo Plank/Clinton Township,,44650 Romeo Plank Rd ,,Clinton Township ,MI,480,United States,(586) 228-3732  ,,,"Office Hours : Mon-Fri 9:30AM-6:00PM, Sat 8:30AM-5:00PM, Sun 10:00AM-2:00PM, Gate Hours : Mon-Fri 6:00AM-10:00PM, Sat 6:00AM-10:00PM, Sun 6:00AM-10:00PM",,,
Garfield Road/Clinton Township,,41250 Garfield Rd ,,Clinton Township ,MI,480,United States,(586) 226-0932  ,,,"Office Hours : Mon-Fri 9:30AM-6:00PM, Sat 8:30AM-5:00PM, Sun 10:00AM-2:00PM, Gate Hours : Mon-Fri 6:00AM-10:00PM, Sat 6:00AM-10:00PM, Sun 6:00AM-10:00PM",,,
Hall Road/Clinton Township,,20772 Hall Rd ,,Clinton Township ,MI,480,United States,(586) 469-6244  ,,,"Office Hours : Mon-Fri 9:30AM-6:00PM, Sat 8:30AM-5:00PM, Sun 10:00AM-2:00PM, Gate Hours : Mon-Fri 6:00AM-10:00PM, Sat 6:00AM-10:00PM, Sun 6:00AM-10:00PM",,,
Cleveland Heights,,1415 Warrensville Center Road ,,Cleveland Heights ,OH,441,United States,(216) 691-9434  ,,,"Office Hours : Mon-Fri 9:30AM-6:00PM, Sat 8:30AM-5:00PM, Sun 10:00AM-2:00PM, Gate Hours : Mon-Fri 6:00AM-10:00PM, Sat 6:00AM-10:00PM, Sun 6:00AM-10:00PM",,,
Clarksville,,2598 Pea Ridge Road ,,Clarksville ,TN,370,United States,(931) 552-7867  ,,,"Office Hours : Mon-Fri 9:30AM-6:00PM, Sat 8:30AM-5:00PM, Sun 12:00PM-4:00PM, Gate Hours : Mon-Fri 6:00AM-10:00PM, Sat 6:00AM-10:00PM, Sun 6:00AM-10:00PM",,,
Cheviot/Colerain,,5418 N. Bend Rd. ,,Cincinnati ,OH,452,United States,(513) 662-5520  ,,,"Office Hours : Mon-Fri 9:30AM-6:00PM, Sat 8:30AM-5:00PM, Sun 10:00AM-2:00PM, Gate Hours : Mon-Fri 6:00AM-10:00PM, Sat 6:00AM-10:00PM, Sun 6:00AM-10:00PM",,,
Blue Ash,,8900 Rossash Rd. ,,Cincinnati ,OH,452,United States,(513) 984-6057  ,,,"Office Hours : Mon-Fri 9:30AM-6:00PM, Sat 8:30AM-5:00PM, Sun 10:00AM-2:00PM, Gate Hours : Mon-Fri 6:00AM-10:00PM, Sat 6:00AM-10:00PM, Sun 6:00AM-10:00PM",,,
Norwood,,4900 Franklin Ave. ,,Cincinnati ,OH,452,United States,(513) 731-6932  ,,,"Office Hours : Mon-Fri 9:30AM-6:00PM, Sat 8:30AM-5:00PM, Sun 10:00AM-2:00PM, Gate Hours : Mon-Fri 6:00AM-10:00PM, Sat 6:00AM-10:00PM, Sun 6:00AM-10:00PM",,,
South Fairmount/Queen City,,2201 Moellering Ave. ,,Cincinnati ,OH,452,United States,(513) 251-4237  ,,,"Office Hours : Mon-Fri 9:30AM-6:00PM, Sat 8:30AM-5:00PM, Sun 10:00AM-2:00PM, Gate Hours : Mon-Fri 6:00AM-10:00PM, Sat 6:00AM-10:00PM, Sun 6:00AM-10:00PM",,,
Reading,,2360 East Galbraith Road ,,Cincinnati ,OH,452,United States,(513) 821-2964  ,,,"Office Hours : Mon-Fri 9:30AM-6:00PM, Sat 8:30AM-5:00PM, Sun 10:00AM-2:00PM, Gate Hours : Mon-Fri 6:00AM-10:00PM, Sat 6:00AM-10:00PM, Sun 6:00AM-10:00PM",,,
North Bend Road/Finneytown,,888 North Bend Road ,,Cincinnati ,OH,452,United States,(513) 641-2755  ,,,"Office Hours : Mon-Fri 9:30AM-6:00PM, Sat 8:30AM-5:00PM, Sun 10:00AM-2:00PM, Gate Hours : Mon-Fri 6:00AM-10:00PM, Sat 6:00AM-10:00PM, Sun 6:00AM-10:00PM",,,
Chelmsford/Lowell,,23 Glen Ave ,,Chelmsford ,MA,018,United States,(978) 250-4478  ,,,"Office Hours : Mon-Fri 9:30AM-6:00PM, Sat 8:30AM-5:00PM, Sun 10:00AM-2:00PM, Gate Hours : Mon-Fri 6:00AM-10:00PM, Sat 6:00AM-10:00PM, Sun 6:00AM-10:00PM",,,
Chickasha,,120 West Almar Drive ,,Chickasha ,OK,730,United States,(405) 222-3011  ,,,"Office Hours : Mon-Fri 9:30AM-6:00PM, Sat 8:30AM-5:00PM, Sun 10:00AM-2:00PM, Gate Hours : Mon-Fri 6:00AM-10:00PM, Sat 6:00AM-10:00PM, Sun 6:00AM-10:00PM",,,
Madison Road/Hyde Park,,4721 Madison Road ,,Cincinnati ,OH,452,United States,(513) 533-1999  ,,,"Office Hours : Mon-Fri 9:30AM-6:00PM, Sat 8:30AM-5:00PM, Sun 10:00AM-2:00PM, Gate Hours : Mon-Fri 6:00AM-10:00PM, Sat 6:00AM-10:00PM, Sun 6:00AM-10:00PM",,,
Chesterfield,,31755 23 Mile Road ,,Chesterfield ,MI,480,United States,(586) 949-5000  ,,,"Office Hours : Mon-Fri 9:30AM-6:00PM, Sat 8:30AM-5:00PM, Sun 10:00AM-2:00PM, Gate Hours : Mon-Fri 6:00AM-10:00PM, Sat 6:00AM-10:00PM, Sun 6:00AM-10:00PM",,,
Centerline/Warren,,6775 East 10 Mile Rd ,,Centerline ,MI,480,United States,(586) 755-3668  ,,,"Office Hours : Mon-Fri 9:30AM-6:00PM, Sat 8:30AM-5:00PM, Sun 10:00AM-2:00PM, Gate Hours : Mon-Fri 6:00AM-10:00PM, Sat 6:00AM-10:00PM, Sun 6:00AM-10:00PM",,,
Bayport,,709 Church Street ,,Bayport ,NY,117,United States,(631) 472-0501  ,,,"Office Hours : Mon-Fri 9:30AM-6:00PM, Sat 8:30AM-5:00PM, Sun 10:00AM-2:00PM, Gate Hours : Mon-Fri 6:00AM-10:00PM, Sat 6:00AM-10:00PM, Sun 6:00AM-10:00PM",,,
Brookhaven,,4775 Peachtree Road ,,Chamblee ,GA,303,United States,(770) 936-0079  ,,,"Office Hours : Mon-Fri 9:30AM-6:00PM, Sat 8:30AM-5:00PM, Sun 10:00AM-2:00PM, Gate Hours : Mon-Fri 6:00AM-10:00PM, Sat 6:00AM-10:00PM, Sun 6:00AM-10:00PM",,,
Bayam√≥n,,Barrio Candelaria Carr. # 2 KM 16.8 ,,Toa Baja ,PR,009,Puert Rico,(787) 474-2884  ,,,"Office Hours : Mon-Fri 9:00AM-6:00PM, Sat 9:00AM-6:00PM, Sun Closed, Gate Hours : Mon-Fri 7:00AM-7:00PM, Sat 7:00AM-7:00PM, Sun 7:00AM-7:00PM",,,
Knapp Drive,,110 Knapp Drive ,,Battle Creek ,Mi,490,United States,(269) 964-7038  ,,,"Office Hours : Mon-Fri 9:30AM-6:00PM, Sat 8:30AM-5:00PM, Sun 10:00AM-2:00PM, Gate Hours : Mon-Fri 6:00AM-10:00PM, Sat 6:00AM-10:00PM, Sun 6:00AM-10:00PM",,,
Arlington Southeast,,1800 W Sublet Road ,,Arlington ,TX,760,United States,(817) 466-2700  ,,,"Office Hours : Mon-Fri 9:30AM-6:00PM, Sat 8:30AM-5:00PM, Sun 12:00PM-4:00PM, Gate Hours : Mon-Fri 6:00AM-10:00PM, Sat 6:00AM-10:00PM, Sun 6:00AM-10:00PM",,,
Barnegat Lighthouse,,220 South Main Street ,,Barnegat ,NJ,080,United States,(609) 660-7608  ,,,"Office Hours : Mon-Fri 9:30AM-6:00PM, Sat 8:30AM-5:00PM, Sun 10:00AM-2:00PM, Gate Hours : Mon-Fri 6:00AM-9:00PM, Sat 6:00AM-9:00PM, Sun 6:00AM-9:00PM",,,
Baltimore - Central Park Heights,,5301 Park Heights Avenue ,,Baltimore ,MD,212,United States,(410) 466-5252  ,,,"Office Hours : Mon-Fri 9:30AM-6:00PM, Sat 8:30AM-5:00PM, Sun 10:00AM-2:00PM, Gate Hours : Mon-Fri 6:00AM-10:00PM, Sat 6:00AM-10:00PM, Sun 6:00AM-10:00PM",,,
Gordon Hwy,,2134 Gordon Hwy ,,Augusta ,GA,309,United States,(706) 738-7867  ,,,"Office Hours : Mon-Fri 9:30AM-6:00PM, Sat 8:30AM-5:00PM, Sun 10:00AM-2:00PM, Gate Hours : Mon-Fri 6:00AM-10:00PM, Sat 6:00AM-10:00PM, Sun 6:00AM-10:00PM",,,
Auburn Hills/Pontiac,,1096 Doris Rd ,,Auburn Hills ,MI,483,United States,(248) 475-0302  ,,,"Office Hours : Mon-Fri 9:30AM-6:00PM, Sat 8:30AM-5:00PM, Sun 10:00AM-2:00PM, Gate Hours : Mon-Fri 6:00AM-10:00PM, Sat 6:00AM-10:00PM, Sun 6:00AM-10:00PM",,,
Ann Arbor/State St,,2333 South State Street ,,Ann Arbor ,MI,481,United States,(734) 222-0277  ,,,"Office Hours : Mon-Fri 9:30AM-6:00PM, Sat 8:30AM-5:00PM, Sun Closed, Gate Hours : Mon-Fri 6:00AM-10:00PM, Sat 6:00AM-10:00PM, Sun 6:00AM-10:00PM",,,
Veterans Blvd,,1900 Veterans Blvd ,,Ardmore ,OK,734,United States,(580) 223-0196  ,,,"Office Hours : Mon-Fri 9:30AM-6:00PM, Sat 8:30AM-5:00PM, Sun 10:00AM-2:00PM, Gate Hours : Mon-Fri 6:00AM-10:00PM, Sat 6:00AM-10:00PM, Sun 6:00AM-10:00PM",,,
Ann Arbor/Jackson,,3870 Jackson Road ,,Ann Arbor ,MI,481,United States,(734) 747-9060  ,,,"Office Hours : Mon-Fri 9:30AM-6:00PM, Sat 8:30AM-5:00PM, Sun 10:00AM-2:00PM, Gate Hours : Mon-Fri 6:00AM-10:00PM, Sat 6:00AM-10:00PM, Sun 6:00AM-10:00PM",,,
Commerce St,,1812 S. Commerce St ,,Ardmore ,OK,734,United States,(580) 226-2527  ,,,"Office Hours : Mon-Fri 9:30AM-6:00PM, Sat 8:30AM-5:00PM, Sun 10:00AM-2:00PM, Gate Hours : Mon-Fri 6:00AM-9:00PM, Sat 6:00AM-9:00PM, Sun 6:00AM-9:00PM",,,
Douglas Avenue / Altamonte Springs,,510 Douglas Avenue ,,Altamonte Springs ,FL,327,United States,(407) 865-7011  ,,,"Office Hours : Mon-Fri 9:30AM-6:00PM, Sat 8:30AM-5:00PM, Sun 10:00AM-2:00PM, Gate Hours : Mon-Fri 6:00AM-10:00PM, Sat 6:00AM-10:00PM, Sun 6:00AM-10:00PM",,,
Allentown/Orefield,,1925 PA-309 ,,Allentown ,PA,181,United States,(610) 398-3663  ,,,"Office Hours : Mon-Fri 9:30AM-6:00PM, Sat 8:30AM-5:00PM, Sun 10:00AM-2:00PM, Gate Hours : Mon-Fri 6:00AM-10:00PM, Sat 6:00AM-10:00PM, Sun 6:00AM-10:00PM",,,
