store_name,store_number,address,address2,city,state,zip_code,country,phone_number,latitude,longitude,store_hours,store_type,other_fields,coming_soon
,,1551 West Algonquin Road,,Mount Prospect,IL,60056,United States,847-981-0770,,,"Office Hours Monday-Friday: 9:30 AM-6:00 PM, Saturday: 8:30 AM-5:00 PM, Sunday: 11:00 AM-3:00 PM, Storage Gate Hours Monday-Sunday: 6:00 AM-10:00 PM",,,
,,5 Old Lancaster Road,,Malvern,PA,19355,United States,610-644-1634,,,"Office Hours Monday-Friday: 9:30 AM-6:00 PM, Saturday: 8:30 AM-5:00 PM, Sunday: 11:00 AM-3:00 PM, Storage Gate Hours Monday-Sunday: 8:00 AM-9:00 PM",,,
,,16939 Nacogdoches Road,,San Antonio,TX,78266,United States,210-651-3721,,,"Office Hours Monday-Friday: 9:30 AM-6:00 PM, Saturday: 8:30 AM-5:00 PM, Sunday: 11:00 AM-3:00 PM, Storage Gate Hours Monday-Sunday: 6:00 AM-10:00 PM",,,
,,7950 Bandera Road,,San Antonio,TX,78250,United States,210-543-8383,,,"Office Hours Monday-Friday: 9:30 AM-6:00 PM, Saturday: 8:30 AM-5:00 PM, Sunday: 11:00 AM-3:00 PM, Storage Gate Hours Monday-Sunday: 6:00 AM-10:00 PM",,,
,,838 North Loop 1604 East,,San Antonio,TX,78232,United States,210-494-2233,,,"Office Hours Monday-Friday: 9:30 AM-6:00 PM, Saturday: 8:30 AM-5:00 PM, Sunday: 11:00 AM-3:00 PM, Storage Gate Hours Monday-Sunday: 6:00 AM-10:00 PM",,,
,,198 West Artesia Boulevard,,Long Beach,CA,90805,United States,562-423-0973,,,"Office Hours Monday-Friday: 9:30 AM-6:00 PM, Saturday: 8:30 AM-5:00 PM, Sunday: 11:00 AM-3:00 PM, Storage Gate Hours Monday-Sunday: 6:00 AM-10:00 PM",,,
,,11303 West Loop 1604 North,,San Antonio,TX,78254,United States,210-372-1404,,,"Office Hours Monday-Friday: 9:30 AM-6:00 PM, Saturday: 8:30 AM-5:00 PM, Sunday: 11:00 AM-3:00 PM, Storage Gate Hours Monday-Sunday: 6:00 AM-10:00 PM",,,
,,900 West Round Grove Road,,Lewisville,TX,75067,United States,972-315-7805,,,"Office Hours Monday-Friday: 9:30 AM-6:00 PM, Saturday: 8:30 AM-5:00 PM, Sunday: 11:00 AM-3:00 PM, Storage Gate Hours Monday-Sunday: 6:00 AM-10:00 PM",,,
,,707 Enterprise Drive,,Lewis Center,OH,43035,United States,614-786-1995,,,"Office Hours Monday-Friday: 9:30 AM-6:00 PM, Saturday: 8:30 AM-5:00 PM, Sunday: 11:00 AM-3:00 PM, Storage Gate Hours Monday-Sunday: 6:00 AM-10:00 PM",,,
,,143 West 61st Street,,Westmont,IL,60559,United States,630-960-2700,,,"Office Hours Monday-Friday: 9:30 AM-6:00 PM, Saturday: 8:30 AM-5:00 PM, Sunday: 11:00 AM-3:00 PM, Storage Gate Hours Monday-Sunday: 6:00 AM-10:00 PM",,,
,,1245 South Highland Avenue,,Lombard,IL,60148,United States,630-620-7471,,,"Office Hours Monday-Friday: 9:30 AM-6:00 PM, Saturday: 8:30 AM-5:00 PM, Sunday: 11:00 AM-3:00 PM, Storage Gate Hours Monday-Sunday: 6:00 AM-10:00 PM",,,
,,1750 Busse Road,,Elk Grove Village,IL,60007,United States,847-228-9191,,,"Office Hours Monday-Friday: 9:30 AM-6:00 PM, Saturday: 8:30 AM-5:00 PM, Sunday: 11:00 AM-3:00 PM, Storage Gate Hours Monday-Sunday: 6:00 AM-10:00 PM",,,
,,1019 West Dallas Street,,Houston,TX,77019,United States,713-659-0400,,,"Office Hours Monday-Friday: 9:30 AM-6:00 PM, Saturday: 8:30 AM-5:00 PM, Sunday: 11:00 AM-3:00 PM, Storage Gate Hours Monday-Sunday: 6:00 AM-10:00 PM",,,
,,6446 East Main Street,,Reynoldsburg,OH,43068,United States,614-861-7720,,,"Office Hours Monday-Friday: 9:30 AM-6:00 PM, Saturday: 8:30 AM-5:00 PM, Sunday: 11:00 AM-3:00 PM, Storage Gate Hours Monday-Sunday: 6:00 AM-10:00 PM",,,
,,201 Miles Avenue,,Burleson,TX,76028,United States,817-426-8008,,,"Office Hours Monday-Friday: 9:30 AM-6:00 PM, Saturday: 8:30 AM-5:00 PM, Sunday: 11:00 AM-3:00 PM, Storage Gate Hours Monday-Sunday: 6:00 AM-10:00 PM",,,
,,1455 North Highway 287,,Mansfield,TX,76063,United States,817-473-7844,,,"Office Hours Monday-Friday: 9:30 AM-6:00 PM, Saturday: 8:30 AM-5:00 PM, Sunday: 11:00 AM-3:00 PM, Storage Gate Hours Monday-Sunday: 6:00 AM-10:00 PM",,,
,,1587 FM 157,,Mansfield,TX,76063,United States,817-473-4210,,,"Office Hours Monday-Friday: 9:30 AM-6:00 PM, Saturday: 8:30 AM-5:00 PM, Sunday: 11:00 AM-3:00 PM, Storage Gate Hours Monday-Sunday: 6:00 AM-10:00 PM",,,
,,8510 Benbrook Boulevard,,Benbrook,TX,76126,United States,817-862-9083,,,"Office Hours Monday-Friday: 9:30 AM-6:00 PM, Saturday: 8:30 AM-5:00 PM, Sunday: 11:00 AM-3:00 PM, Storage Gate Hours Monday-Sunday: 6:00 AM-10:00 PM",,,
,,2105 Ira E  Woods Avenue,,Grapevine,TX,76051,United States,817-488-9414,,,"Office Hours Monday-Friday: 9:30 AM-6:00 PM, Saturday: 8:30 AM-5:00 PM, Sunday: 11:00 AM-3:00 PM, Storage Gate Hours Monday-Sunday: 6:00 AM-10:00 PM",,,
,,1761 Eastchase Parkway,,Fort Worth,TX,76120,United States,817-460-4111,,,"Office Hours Monday-Friday: 9:30 AM-6:00 PM, Saturday: 8:30 AM-5:00 PM, Sunday: 11:00 AM-3:00 PM, Storage Gate Hours Monday-Sunday: 6:00 AM-10:00 PM",,,
,,28223 Telegraph Road,,Southfield,MI,48034,United States,248-352-5555,,,"Office Hours Monday-Friday: 9:30 AM-6:00 PM, Saturday: 8:30 AM-5:00 PM, Sunday: 11:00 AM-3:00 PM, Storage Gate Hours Monday-Sunday: 6:00 AM-10:00 PM",,,
,,5637 Basswood Boulevard,,Fort Worth,TX,76137,United States,817-514-9553,,,"Office Hours Monday-Friday: 9:30 AM-6:00 PM, Saturday: 8:30 AM-5:00 PM, Sunday: 1:00 PM-5:00 PM, Storage Gate Hours Monday-Sunday: 6:00 AM-10:00 PM",,,
,,419 North Saginaw Boulevard,,Fort Worth,TX,76179,United States,817-232-2411,,,"Office Hours Monday-Friday: 9:30 AM-6:00 PM, Saturday: 8:30 AM-5:00 PM, Sunday: 11:00 AM-3:00 PM, Storage Gate Hours Monday-Sunday: 6:00 AM-10:00 PM",,,
,,3969 Boat Club Road,,Lake Worth,TX,76135,United States,817-237-7980,,,"Office Hours Monday-Friday: 9:30 AM-6:00 PM, Saturday: 8:30 AM-5:00 PM, Sunday: 11:00 AM-3:00 PM, Storage Gate Hours Monday-Sunday: 6:00 AM-10:00 PM",,,
,,40 Marbledale Road,,Tuckahoe,NY,10707,United States,914-337-1666,,,"Office Hours Monday-Friday: 9:30 AM-6:00 PM, Saturday: 8:30 AM-5:00 PM, Sunday: 11:00 AM-3:00 PM, Storage Gate Hours Monday-Sunday: 6:00 AM-10:00 PM",,,
,,7201 North Freeway,,Fort Worth,TX,76131,United States,817-232-7883,,,"Office Hours Monday-Friday: 9:30 AM-6:00 PM, Saturday: 8:30 AM-5:00 PM, Sunday: 11:00 AM-3:00 PM, Storage Gate Hours Monday-Sunday: 6:00 AM-10:00 PM",,,
,,111 Cedar Street,,New Rochelle,NY,10801,United States,914-633-3744,,,"Office Hours Monday-Friday: 9:30 AM-6:00 PM, Saturday: 8:30 AM-5:00 PM, Sunday: 11:00 AM-3:00 PM, Storage Gate Hours Monday-Sunday: 6:00 AM-10:00 PM",,,
,,6612 Davis Boulevard,,North Richland Hills,TX,76182,United States,817-656-0100,,,"Office Hours Monday-Friday: 9:30 AM-6:00 PM, Saturday: 8:30 AM-5:00 PM, Sunday: 11:00 AM-3:00 PM, Storage Gate Hours Monday-Sunday: 6:00 AM-10:00 PM",,,
,,2721 White Settlement Road,,Fort Worth,TX,76107,United States,817-348-0009,,,"Office Hours Monday-Friday: 9:30 AM-6:00 PM, Saturday: 8:30 AM-5:00 PM, Sunday: 11:00 AM-3:00 PM, Storage Gate Hours Monday-Sunday: 6:00 AM-10:00 PM",,,
,,8800 Davis Boulevard,,Keller,TX,76248,United States,817-421-2020,,,"Office Hours Monday-Friday: 9:30 AM-6:00 PM, Saturday: 8:30 AM-5:00 PM, Sunday: 11:00 AM-3:00 PM, Storage Gate Hours Monday-Sunday: 6:00 AM-10:00 PM",,,
,,35 Winthrop Avenue,,New Rochelle,NY,10801,United States,914-632-9700,,,"Office Hours Monday-Friday: 9:30 AM-6:00 PM, Saturday: 8:30 AM-5:00 PM, Sunday: 11:00 AM-3:00 PM, Storage Gate Hours Monday-Sunday: 6:00 AM-10:00 PM",,,
,,251-63 Jericho Turnpike,,Bellerose,NY,11426,United States,718-343-1906,,,"Office Hours Monday-Friday: 9:00 AM-7:00 PM, Saturday: 9:00 AM-6:00 PM, Sunday: 9:00 AM-5:00 PM, Storage Gate Hours Monday-Friday: 9:00 AM-6:30 PM, Saturday: 9:00 AM-5:30 PM, Sunday: 9:00 AM-4:30 PM",,,
,,750 South Fulton Avenue,,Mt  Vernon,NY,10550,United States,914-297-7450,,,"Office Hours Monday-Sunday: 9:00 AM-7:00 PM, Storage Gate Hours Monday-Sunday: 9:00 AM-7:00 PM",,,
,,95 Woodfield Road,,West Hempstead,NY,11552,United States,516-292-3150,,,"Office Hours Monday-Friday: 9:30 AM-6:00 PM, Saturday: 8:30 AM-5:00 PM, Sunday: 11:00 AM-3:00 PM, Storage Gate Hours Monday-Sunday: 6:00 AM-10:00 PM",,,
,,1234 Route 46 West,,Clifton,NJ,07013,United States,973-779-7800,,,"Office Hours Monday-Friday: 9:30 AM-6:00 PM, Saturday: 8:30 AM-5:00 PM, Sunday: 11:00 AM-3:00 PM, Storage Gate Hours Monday-Sunday: 6:00 AM-10:00 PM",,,
,,1871 Country Club Drive,,Mansfield,TX,76063,United States,817-453-7800,,,"Office Hours Monday-Friday: 9:30 AM-6:00 PM, Saturday: 8:30 AM-5:00 PM, Sunday: 11:00 AM-3:00 PM, Storage Gate Hours Monday-Sunday: 6:00 AM-10:00 PM",,,
,,601 South Avenue,,Cranford,NJ,07016,United States,908-709-0001,,,"Office Hours Monday-Friday: 9:30 AM-6:00 PM, Saturday: 8:30 AM-5:00 PM, Sunday: 11:00 AM-3:00 PM, Storage Gate Hours Monday-Sunday: 6:00 AM-10:00 PM",,,
,,1260 Waters Place,,Bronx,NY,10461,United States,718-684-6447,,,"Office Hours Monday-Saturday: 9:00 AM-6:00 PM, Sunday: 10:00 AM-4:00 PM, Storage Gate Hours Monday-Sunday: 6:00 AM-9:00 PM",,,
,,5740 Broadway,,Bronx,NY,10463,United States,718-601-1520,,,"Office Hours Monday-Friday: 8:00 AM-7:00 PM, Saturday-Sunday: 9:00 AM-7:00 PM, Storage Gate Hours Monday-Friday: 8:00 AM-7:00 PM, Saturday-Sunday: 9:00 AM-7:00 PM",,,
,,1951 East Linden Avenue,,Linden,NJ,07036,United States,908-925-1052,,,"Office Hours Monday-Friday: 9:30 AM-6:00 PM, Saturday: 8:30 AM-5:00 PM, Sunday: 11:00 AM-3:00 PM, Storage Gate Hours Monday-Sunday: 6:00 AM-10:00 PM",,,
,,186-02 Jamaica Avenue,,Queens,NY,11423,United States,718-264-2301,,,"Office Hours Monday-Friday: 9:00 AM-7:00 PM, Saturday-Sunday: 9:00 AM-6:00 PM, Storage Gate Hours Monday-Friday: 9:00 AM-6:30 PM, Saturday-Sunday: 9:00 AM-5:30 PM",,,
,,343 West Grand Street,,Elizabeth,NJ,07202,United States,908-659-1500,,,"Office Hours Monday-Friday: 9:30 AM-6:00 PM, Saturday: 8:30 AM-5:00 PM, Sunday: 11:00 AM-3:00 PM, Storage Gate Hours Monday-Sunday: 6:00 AM-10:00 PM",,,
,,122-20 Merrick Boulevard,,Queens,NY,11434,United States,718-525-6150,,,"Office Hours Monday-Friday: 9:30 AM-6:00 PM, Saturday: 8:30 AM-5:00 PM, Sunday: 10:00 AM-4:00 PM, Storage Gate Hours Monday-Friday: 9:30 AM-6:00 PM, Saturday: 8:30 AM-5:00 PM, Sunday: 10:00 AM-4:00 PM",,,
,,1880 Bartow Avenue,,Bronx,NY,10469,United States,718-862-4444,,,"Office Hours Monday-Sunday: 8:00 AM-8:00 PM, Storage Gate Hours Monday-Sunday: 8:00 AM-8:00 PM",,,
,,179-36 Jamaica Avenue,,Jamaica,NY,11432,United States,718-657-0562,,,"Office Hours Monday-Friday: 9:00 AM-8:00 PM, Saturday-Sunday: 9:00 AM-7:00 PM, Storage Gate Hours Monday-Friday: 9:00 AM-8:00 PM, Saturday-Sunday: 9:00 AM-7:00 PM",,,
,,1980 White Plains Road,,Bronx,NY,10462,United States,718-430-0001,,,"Office Hours Monday-Saturday: 9:00 AM-7:00 PM, Sunday: 9:00 AM-2:00 PM, Storage Gate Hours Monday-Saturday: 9:00 AM-7:00 PM, Sunday: 9:00 AM-2:00 PM",,,
,,1260 Zerega Avenue,,Bronx,NY,10462,United States,718-409-1628,,,"Office Hours Monday-Sunday: 9:00 AM-7:00 PM, Storage Gate Hours Monday-Sunday: 9:00 AM-7:00 PM",,,
,,1235 East Tremont Avenue,,Bronx,NY,10460,United States,718-239-6333,,,"Office Hours Monday-Sunday: 8:00 AM-8:00 PM, Storage Gate Hours Monday-Sunday: 8:00 AM-8:00 PM",,,
,,1816 Boston Road,,Bronx,NY,10460,United States,718-991-2999,,,"Office Hours Monday-Saturday: 9:00 AM-6:00 PM, Sunday: 9:00 AM-4:00 PM, Storage Gate Hours Monday-Saturday: 9:00 AM-6:00 PM, Sunday: 9:00 AM-4:00 PM",,,
,,465 Eagle Rock Avenue,,Roseland,NJ,07068,United States,973-226-2005,,,"Office Hours Monday-Friday: 9:30 AM-6:00 PM, Saturday: 8:30 AM-5:00 PM, Sunday: 11:00 AM-3:00 PM, Storage Gate Hours Monday-Sunday: 6:00 AM-10:00 PM",,,
,,1376 Cromwell Avenue,,Bronx,NY,10452,United States,718-588-1100,,,"Office Hours Monday-Sunday: 8:00 AM-8:00 PM, Storage Gate Hours Monday-Sunday: 8:00 AM-8:00 PM",,,
,,1425 Bruckner Boulevard,,Bronx,NY,10472,United States,718-991-1430,,,"Office Hours Monday-Sunday: 8:00 AM-8:00 PM, Storage Gate Hours Monday-Sunday: 8:00 AM-8:00 PM",,,
,,124-16 31st Avenue,,Queens,NY,11354,United States,718-359-2924,,,"Office Hours Monday-Friday: 8:00 AM-7:00 PM, Saturday-Sunday: 9:00 AM-7:00 PM, Storage Gate Hours Monday-Friday: 8:00 AM-7:00 PM, Saturday-Sunday: 9:00 AM-7:00 PM",,,
,,138-54 94th Avenue,,Jamaica,NY,11435,United States,718-658-8513,,,"Office Hours Monday-Friday: 8:00 AM-7:00 PM, Saturday: 8:00 AM-5:00 PM, Sunday: 9:00 AM-4:00 PM, Storage Gate Hours Monday-Friday: 8:00 AM-7:00 PM, Saturday: 8:00 AM-5:00 PM, Sunday: 9:00 AM-4:00 PM",,,
,,2964 Shell Road,,Brooklyn,NY,11224,United States,718-373-0100,,,"Office Hours Monday-Sunday: 9:00 AM-7:00 PM, Storage Gate Hours Monday-Sunday: 7:00 AM-9:00 PM",,,
,,552 Grand Avenue,,Ridgefield,NJ,07657,United States,201-840-1000,,,"Office Hours Monday-Friday: 9:00 AM-6:00 PM, Saturday: 8:30 AM-5:30 PM, Sunday: 10:00 AM-5:00 PM, Storage Gate Hours Monday-Sunday: 6:00 AM-10:00 PM",,,
,,2990 Cropsey Avenue,,Brooklyn,NY,11214,United States,718-373-0517,,,"Office Hours Monday-Sunday: 9:00 AM-7:00 PM, Storage Gate Hours Monday-Sunday: 7:00 AM-9:00 PM",,,
,,395 Brook Avenue,,Bronx,NY,10454,United States,718-292-4888,,,"Office Hours Monday-Sunday: 9:00 AM-6:00 PM, Storage Gate Hours Monday-Sunday: 9:00 AM-6:00 PM",,,
,,98-34 Jamaica Avenue,,Woodhaven,NY,11418,United States,718-805-5520,,,"Office Hours Monday-Sunday: 9:00 AM-7:00 PM, Storage Gate Hours Monday-Sunday: 9:00 AM-7:00 PM",,,
,,255 Exterior Street,,Bronx,NY,10451,United States,718-402-2322,,,"Office Hours Monday-Sunday: 9:00 AM-7:00 PM, Storage Gate Hours Monday-Sunday: 9:00 AM-7:00 PM",,,
,,411 Anderson Avenue,,Fairview,NJ,07022,United States,201-945-2747,,,"Office Hours Monday-Friday: 9:30 AM-6:00 PM, Saturday: 8:30 AM-5:00 PM, Sunday: 11:00 AM-3:00 PM, Storage Gate Hours Monday-Sunday: 6:00 AM-10:00 PM",,,
,,2301 Tillotson Avenue,,Bronx,NY,10475,United States,347-478-5478,,,"Office Hours Monday-Sunday: 9:00 AM-7:00 PM, Storage Gate Hours Monday-Sunday: 9:00 AM-7:00 PM",,,
,,955 Bronx River Avenue,,Bronx,NY,10473,United States,718-620-4545,,,"Office Hours Monday-Sunday: 9:00 AM-7:00 PM, Storage Gate Hours Monday-Sunday: 9:00 AM-7:00 PM",,,
,,1810 Southern Boulevard,,Bronx,NY,10460,United States,718-991-2999,,,"Office Hours Monday-Saturday: 9:00 AM-6:00 PM, Sunday: 9:00 AM-4:00 PM, Storage Gate Hours Monday-Saturday: 9:00 AM-6:00 PM, Sunday: 9:00 AM-4:00 PM",,,
,,200 East 135th Street,,Bronx,NY,10451,United States,718-585-7867,,,"Office Hours Monday-Sunday: 8:00 AM-8:00 PM, Storage Gate Hours Monday-Sunday: 8:00 AM-8:00 PM",,,
,,33-24 Woodside Avenue,,Queens,NY,11101,United States,718-606-9326,,,"Office Hours Monday-Friday: 8:00 AM-7:00 PM, Saturday-Sunday: 9:00 AM-7:00 PM, Storage Gate Hours Monday-Friday: 8:00 AM-7:00 PM, Saturday-Sunday: 9:00 AM-7:00 PM",,,
,,2207 Albemarle Road,,Brooklyn,NY,11226,United States,718-703-3744,,,"Office Hours Monday-Saturday: 8:00 AM-7:00 PM, Sunday: 10:00 AM-4:00 PM, Storage Gate Hours Monday-Saturday: 8:00 AM-7:00 PM, Sunday: 10:00 AM-4:00 PM",,,
,,38-01 47th Avenue,,Long Island City,NY,11101,United States,718-786-8776,,,"Office Hours Monday-Saturday: 8:00 AM-8:00 PM, Sunday: 9:00 AM-6:00 PM, Storage Gate Hours Monday-Saturday: 8:00 AM-8:00 PM, Sunday: 9:00 AM-6:00 PM",,,
,,1084 Rockaway Avenue,,Brooklyn,NY,11236,United States,347-756-5505,,,"Office Hours Monday-Sunday: 9:00 AM-7:00 PM, Storage Gate Hours Monday-Sunday: 9:00 AM-7:00 PM",,,
,,1125 Wyckoff Avenue,,Ridgewood,NY,11385,United States,718-456-1666,,,"Office Hours Monday-Sunday: 8:00 AM-7:00 PM, Storage Gate Hours Monday-Sunday: 8:00 AM-7:00 PM",,,
,,1151 East New York Avenue,,Brooklyn,NY,11212,United States,718-778-8800,,,"Office Hours Monday-Sunday: 9:00 AM-7:00 PM, Storage Gate Hours Monday-Sunday: 9:00 AM-7:00 PM",,,
,,2887 Atlantic Avenue,,Brooklyn,NY,11207,United States,718-235-2999,,,"Office Hours Monday-Sunday: 9:00 AM-7:00 PM, Storage Gate Hours Monday-Sunday: 9:00 AM-7:00 PM",,,
,,30-25 Northern Boulevard,,Long Island City,NY,11101,United States,718-392-3580,,,"Office Hours Monday-Sunday: 8:00 AM-7:00 PM, Storage Gate Hours Monday-Sunday: 8:00 AM-7:00 PM",,,
,,1220 Broadway,,Brooklyn,NY,11221,United States,718-574-2194,,,"Office Hours Monday-Sunday: 9:00 AM-7:00 PM, Storage Gate Hours Monday-Sunday: 9:00 AM-7:00 PM",,,
,,2425 Tonnelle Avenue,,North Bergen,NJ,07047,United States,201-392-9270,,,"Office Hours Monday-Friday: 9:30 AM-6:00 PM, Saturday: 8:30 AM-5:00 PM, Sunday: 11:00 AM-3:00 PM, Storage Gate Hours Monday-Sunday: 6:00 AM-10:00 PM",,,
,,444 West 55th Street,,New York,NY,10019,United States,212-315-2032,,,"Office Hours Monday-Sunday: 8:00 AM-7:00 PM, Storage Gate Hours Monday-Sunday: 8:00 AM-7:00 PM",,,
,,39-25 21st Street,,Long Island City,NY,11101,United States,718-433-0433,,,"Office Hours Monday-Saturday: 9:00 AM-7:00 PM, Sunday: 9:00 AM-6:00 PM, Storage Gate Hours Monday-Saturday: 9:00 AM-7:00 PM, Sunday: 9:00 AM-6:00 PM",,,
,,41-06 Delong Street,,Flushing,NY,11355,United States,718-888-0942,,,"Office Hours Monday-Friday: 8:00 AM-7:00 PM, Saturday-Sunday: 9:00 AM-7:00 PM, Storage Gate Hours Monday-Friday: 8:00 AM-7:00 PM, Saturday-Sunday: 9:00 AM-7:00 PM",,,
,,338 3rd Avenue,,Brooklyn,NY,11215,United States,718-852-8011,,,"Office Hours Monday-Saturday: 8:00 AM-8:00 PM, Sunday: 9:00 AM-6:00 PM, Storage Gate Hours Monday-Saturday: 8:00 AM-8:00 PM, Sunday: 9:00 AM-6:00 PM",,,
,,25440 Pennsylvania Road,,Taylor,MI,48180,United States,734-941-7867,,,"Office Hours Monday-Friday: 9:30 AM-6:00 PM, Saturday: 8:30 AM-5:00 PM, Sunday: 11:00 AM-3:00 PM, Storage Gate Hours Monday-Sunday: 6:00 AM-10:00 PM",,,
,,486 Stanley Avenue,,Brooklyn,NY,11207,United States,718-235-7700,,,"Office Hours Monday-Sunday: 9:00 AM-7:00 PM, Storage Gate Hours Monday-Sunday: 9:00 AM-7:00 PM",,,
,,900 Atlantic Avenue,,Brooklyn,NY,11238,United States,718-622-7700,,,"Office Hours Monday-Saturday: 8:00 AM-8:00 PM, Sunday: 9:00 AM-5:00 PM, Storage Gate Hours Monday-Saturday: 8:00 AM-8:00 PM, Sunday: 9:00 AM-5:00 PM",,,
,,945 Atlantic Avenue,,Brooklyn,NY,11238,United States,718-399-3600,,,"Office Hours Monday-Saturday: 9:00 AM-6:00 PM, Sunday: 9:00 AM-5:00 PM, Storage Gate Hours Monday-Saturday: 9:00 AM-6:00 PM, Sunday: 9:00 AM-5:00 PM",,,
,,1040 Grand Street,,Hoboken,NJ,07030,United States,201-659-0700,,,"Office Hours Monday-Friday: 9:30 AM-6:00 PM, Saturday: 8:30 AM-5:00 PM, Sunday: 11:00 AM-3:00 PM, Storage Gate Hours Monday-Sunday: 6:00 AM-10:00 PM",,,
,,28266 Ecorse Road,,Romulus,MI,48174,United States,313-295-9050,,,"Office Hours Monday-Friday: 9:30 AM-6:00 PM, Saturday: 8:30 AM-5:00 PM, Sunday: 11:00 AM-3:00 PM, Storage Gate Hours Monday-Sunday: 6:00 AM-10:00 PM",,,
,,28075 Van Born Road,,Romulus,MI,48174,United States,313-299-9914,,,"Office Hours Monday-Friday: 9:30 AM-6:00 PM, Saturday: 8:30 AM-5:00 PM, Sunday: 11:00 AM-3:00 PM, Storage Gate Hours Monday-Sunday: 6:00 AM-10:00 PM",,,
,,1450 Celanese Road,,Rock Hill,SC,29732,United States,803-366-4820,,,"Office Hours Monday-Friday: 9:30 AM-6:00 PM, Saturday: 8:30 AM-5:00 PM, Sunday: Closed, Storage Gate Hours Monday-Sunday: 6:00 AM-10:00 PM",,,
,,15440 Telegraph Road,,Redford,MI,48239,United States,313-242-5142,,,"Office Hours Monday-Friday: 9:30 AM-6:00 PM, Saturday: 8:30 AM-5:00 PM, Sunday: 11:00 AM-3:00 PM, Storage Gate Hours Monday-Sunday: 6:00 AM-10:00 PM",,,
,,1105 Waxhaw Indian Trail Road,,Indian Trail,NC,28079,United States,704-684-4898,,,"Office Hours Monday-Friday: 9:30 AM-6:00 PM, Saturday: 8:30 AM-5:00 PM, Sunday: 11:00 AM-3:00 PM, Storage Gate Hours Monday-Sunday: 6:00 AM-10:00 PM",,,
,,5921 West Wilkinson Boulevard,,Belmont,NC,28012,United States,704-825-3600,,,"Office Hours Monday-Friday: 9:30 AM-6:00 PM, Saturday: 8:30 AM-5:00 PM, Sunday: 11:00 AM-3:00 PM, Storage Gate Hours Monday-Sunday: 6:00 AM-10:00 PM",,,
,,10921 Bailey Road,,Cornelius,NC,28031,United States,704-987-5077,,,"Office Hours Monday-Friday: 9:30 AM-6:00 PM, Saturday: 8:30 AM-5:00 PM, Sunday: 11:00 AM-3:00 PM, Storage Gate Hours Monday-Sunday: 6:00 AM-10:00 PM",,,
,,12710 Lancaster Highway,,Pineville,NC,28134,United States,704-541-2120,,,"Office Hours Monday-Friday: 9:30 AM-6:00 PM, Saturday: 8:30 AM-5:00 PM, Sunday: 11:00 AM-3:00 PM, Storage Gate Hours Monday-Sunday: 6:00 AM-10:00 PM",,,
,,29180 Van Born Road,,Westland,MI,48186,United States,734-266-9999,,,"Office Hours Monday-Friday: 9:30 AM-6:00 PM, Saturday: 8:30 AM-5:00 PM, Sunday: 11:00 AM-3:00 PM, Storage Gate Hours Monday-Sunday: 6:00 AM-10:00 PM",,,
,,14124 Boren Street,,Huntersville,NC,28078,United States,704-946-6080,,,"Office Hours Monday-Friday: 9:30 AM-6:00 PM, Saturday: 8:30 AM-5:00 PM, Sunday: 11:00 AM-3:00 PM, Storage Gate Hours Monday-Sunday: 6:00 AM-10:00 PM",,,
,,8259 Charlotte Highway,,Fort Mill,SC,29707,United States,803-548-3050,,,"Office Hours Monday-Friday: 9:30 AM-6:00 PM, Saturday: 8:30 AM-5:00 PM, Sunday: 11:00 AM-3:00 PM, Storage Gate Hours Monday-Sunday: 6:00 AM-10:00 PM",,,
,,9805 Statesville Road,,Charlotte,NC,28269,United States,980-209-9411,,,"Office Hours Monday-Friday: 9:30 AM-6:00 PM, Saturday: 8:30 AM-5:00 PM, Sunday: 11:00 AM-3:00 PM, Storage Gate Hours Monday-Sunday: 6:00 AM-10:00 PM",,,
,,7043 East Independence Boulevard,,Charlotte,NC,28227,United States,704-535-8070,,,"Office Hours Monday-Friday: 9:30 AM-6:00 PM, Saturday: 8:30 AM-5:00 PM, Sunday: 11:00 AM-3:00 PM, Storage Gate Hours Monday-Sunday: 6:00 AM-10:00 PM",,,
,,5008 West W T Harris Boulevard,,Charlotte,NC,28269,United States,704-596-9189,,,"Office Hours Monday-Friday: 9:30 AM-6:00 PM, Saturday: 8:30 AM-5:00 PM, Sunday: 11:00 AM-3:00 PM, Storage Gate Hours Monday-Sunday: 6:00 AM-10:00 PM",,,
,,3300 Southwest Boulevard,,Grove City,OH,43123,United States,614-539-8553,,,"Office Hours Monday-Friday: 9:30 AM-6:00 PM, Saturday: 8:30 AM-5:00 PM, Sunday: 11:00 AM-3:00 PM, Storage Gate Hours Monday-Sunday: 6:00 AM-10:00 PM",,,
,,16155 Lancaster Highway,,Charlotte,NC,28277,United States,704-540-7778,,,"Office Hours Monday-Friday: 9:30 AM-6:00 PM, Saturday: 8:30 AM-5:00 PM, Sunday: 11:30 AM-3:00 PM, Storage Gate Hours Monday-Sunday: 6:00 AM-10:00 PM",,,
,,200 Clanton Road,,Charlotte,NC,28217,United States,980-498-8000,,,"Office Hours Monday-Friday: 9:30 AM-6:00 PM, Saturday: 8:30 AM-5:30 PM, Sunday: 11:00 AM-3:00 PM, Storage Gate Hours Monday-Sunday: 6:00 AM-10:00 PM",,,
,,5252 Nike Drive,,Hilliard,OH,43026,United States,614-771-9916,,,"Office Hours Monday-Friday: 9:30 AM-6:00 PM, Saturday: 8:30 AM-5:00 PM, Sunday: 11:00 AM-3:00 PM, Storage Gate Hours Monday-Sunday: 6:00 AM-10:00 PM",,,
,,22901 Industrial Drive West,,Saint Clair Shores,MI,48080,United States,586-447-9888,,,"Office Hours Monday-Friday: 9:30 AM-6:00 PM, Saturday: 8:30 AM-5:00 PM, Sunday: 11:00 AM-3:00 PM, Storage Gate Hours Monday-Sunday: 6:00 AM-10:00 PM",,,
,,3800 West Broad Street,,Columbus,OH,43228,United States,614-947-0551,,,"Office Hours Monday-Friday: 9:30 AM-6:00 PM, Saturday: 8:30 AM-5:00 PM, Sunday: 11:00 AM-3:00 PM, Storage Gate Hours Monday-Sunday: 6:00 AM-10:00 PM",,,
,,3344 Morse Road,,Columbus,OH,43231,United States,614-471-2500,,,"Office Hours Monday-Friday: 9:30 AM-6:00 PM, Saturday: 8:30 AM-5:00 PM, Sunday: 11:00 AM-3:00 PM, Storage Gate Hours Monday-Sunday: 6:00 AM-10:00 PM",,,
,,1531 Georgesville Road,,Columbus,OH,43228,United States,614-853-2331,,,"Office Hours Monday-Friday: 9:30 AM-6:00 PM, Saturday: 8:30 AM-5:00 PM, Sunday: 11:00 AM-3:00 PM, Storage Gate Hours Monday-Sunday: 6:00 AM-10:00 PM",,,
,,3391 South High Street,,Columbus,OH,43207,United States,614-497-0000,,,"Office Hours Monday-Friday: 9:30 AM-6:00 PM, Saturday: 8:30 AM-5:00 PM, Sunday: 11:00 AM-3:00 PM, Storage Gate Hours Monday-Sunday: 6:00 AM-10:00 PM",,,
,,4061 Roberts Road,,Columbus,OH,43228,United States,614-876-2991,,,"Office Hours Monday-Friday: 9:30 AM-6:00 PM, Saturday: 8:30 AM-5:00 PM, Sunday: 11:00 AM-3:00 PM, Storage Gate Hours Monday-Sunday: 6:00 AM-10:00 PM",,,
,,9323 Wright Hill Road,,Charlotte,NC,28262,United States,980-613-8360,,,"Office Hours Monday-Friday: 9:30 AM-6:00 PM, Saturday: 8:30 AM-5:00 PM, Sunday: 11:00 AM-3:00 PM, Storage Gate Hours Monday-Sunday: 6:00 AM-10:00 PM",,,
,,21400 Interstate 35,,Kyle,TX,78640,United States,800-713-1742,,,"Office Hours Monday-Friday: 9:30 AM-6:00 PM, Saturday: 8:30 AM-5:00 PM, Sunday: 11:00 AM-3:00 PM, Storage Gate Hours Monday-Sunday: 6:00 AM-10:00 PM",,,
,,2501 Dies Ranch Road,,Cedar Park,TX,78613,United States,512-401-9000,,,"Office Hours Monday-Friday: 9:30 AM-6:00 PM, Saturday: 8:30 AM-5:00 PM, Sunday: 11:00 AM-3:00 PM, Storage Gate Hours Monday-Sunday: 6:00 AM-10:00 PM",,,
,,57 East Chestnut Street,,Columbus,OH,43215,United States,614-460-8700,,,"Office Hours Monday-Friday: 9:30 AM-6:00 PM, Saturday: 8:30 AM-5:00 PM, Sunday: 11:00 AM-3:00 PM, Storage Gate Hours Monday-Sunday: 6:00 AM-10:00 PM",,,
,,12006 Ranch Road 620 North,,Austin,TX,78750,United States,512-336-5333,,,"Office Hours Monday-Friday: 9:30 AM-6:00 PM, Saturday: 8:30 AM-5:00 PM, Sunday: 11:00 AM-3:00 PM, Storage Gate Hours Monday-Sunday: 6:00 AM-10:00 PM",,,
,,4900 Ranch Road 620 North,,Austin,TX,78732,United States,512-266-4755,,,"Office Hours Monday-Friday: 9:30 AM-6:00 PM, Saturday: 8:30 AM-5:00 PM, Sunday: 11:00 AM-3:00 PM, Storage Gate Hours Monday-Sunday: 6:00 AM-10:00 PM",,,
,,2150 Double Creek Drive,,Round Rock,TX,78664,United States,512-248-9700,,,"Office Hours Monday-Friday: 9:30 AM-6:00 PM, Saturday: 8:30 AM-5:00 PM, Sunday: 11:00 AM-3:00 PM, Storage Gate Hours Monday-Sunday: 6:00 AM-10:00 PM",,,
,,701 Goforth Road,,Kyle,TX,78640,United States,800-752-3477,,,"Office Hours Monday-Friday: 9:30 AM-6:00 PM, Saturday: 8:30 AM-5:00 PM, Sunday: 11:00 AM-3:00 PM, Storage Gate Hours Monday-Sunday: 6:00 AM-10:00 PM",,,
,,10707 North Ih-35,,Austin,TX,78753,United States,512-719-4848,,,"Office Hours Monday-Friday: 9:30 AM-6:00 PM, Saturday: 8:30 AM-5:00 PM, Sunday: 11:00 AM-3:00 PM, Storage Gate Hours Monday-Sunday: 6:00 AM-10:00 PM",,,
,,14509 Owen Tech Boulevard,,Austin,TX,78728,United States,512-634-8176,,,"Office Hours Monday-Friday: 9:30 AM-6:00 PM, Saturday: 8:30 AM-5:00 PM, Sunday: 11:00 AM-3:00 PM, Storage Gate Hours Monday-Sunday: 6:00 AM-10:00 PM",,,
,,10025 Manchaca Road,,Austin,TX,78748,United States,512-292-1760,,,"Office Hours Monday-Friday: 9:30 AM-6:00 PM, Saturday: 8:30 AM-5:00 PM, Sunday: 11:00 AM-3:00 PM, Storage Gate Hours Monday-Sunday: 6:00 AM-10:00 PM",,,
,,6130 East Ben White Boulevard,,Austin,TX,78741,United States,512-389-9939,,,"Office Hours Monday-Friday: 9:30 AM-6:00 PM, Saturday: 8:30 AM-5:00 PM, Sunday: 11:00 AM-3:00 PM, Storage Gate Hours Monday-Sunday: 6:00 AM-10:00 PM",,,
,,4500 South Congress Avenue,,Austin,TX,78745,United States,512-447-2112,,,"Office Hours Monday-Friday: 9:30 AM-6:00 PM, Saturday: 8:30 AM-5:00 PM, Sunday: Closed, Storage Gate Hours Monday-Sunday: 6:00 AM-10:00 PM",,,
,,5715 Burnet Road,,Austin,TX,78756,United States,512-206-3139,,,"Office Hours Monday-Friday: 9:30 AM-6:00 PM, Saturday: 8:30 AM-5:00 PM, Sunday: 11:00 AM-3:00 PM, Storage Gate Hours Monday-Sunday: 6:00 AM-10:00 PM",,,
,,2201 South Pleasant Valley Road,,Austin,TX,78741,United States,512-326-9700,,,"Office Hours Monday-Friday: 9:30 AM-6:00 PM, Saturday: 8:30 AM-5:00 PM, Sunday: 11:00 AM-3:00 PM, Storage Gate Hours Monday-Sunday: 6:00 AM-10:00 PM",,,
,,15616 Stewart Road,,Lakeway,TX,78734,United States,512-266-9188,,,"Office Hours Monday-Friday: 9:30 AM-6:00 PM, Saturday: 8:30 AM-5:00 PM, Sunday: 11:00 AM-3:00 PM, Storage Gate Hours Monday-Sunday: 6:00 AM-10:00 PM",,,
,,610 East Stassney Lane,,Austin,TX,78745,United States,512-441-8300,,,"Office Hours Monday-Friday: 9:30 AM-6:00 PM, Saturday: 8:30 AM-5:00 PM, Sunday: 11:00 AM-3:00 PM, Storage Gate Hours Monday-Sunday: 6:00 AM-10:00 PM",,,
,,8121 Point Meadows Drive,,Jacksonville,FL,32256,United States,904-519-5570,,,"Office Hours Monday-Friday: 9:30 AM-6:00 PM, Saturday: 8:30 AM-5:00 PM, Sunday: 11:00 AM-3:00 PM, Storage Gate Hours Monday-Sunday: 6:00 AM-10:00 PM",,,
,,1905 East William Cannon Drive,,Austin,TX,78744,United States,512-443-8800,,,"Office Hours Monday-Friday: 9:30 AM-6:00 PM, Saturday: 8:30 AM-5:00 PM, Sunday: 11:00 AM-3:00 PM, Storage Gate Hours Monday-Sunday: 6:00 AM-10:00 PM",,,
,,8552 Baymeadows Road,,Jacksonville,FL,32256,United States,904-367-8400,,,"Office Hours Monday-Friday: 9:30 AM-6:00 PM, Saturday: 8:30 AM-5:00 PM, Sunday: 11:00 AM-3:00 PM, Storage Gate Hours Monday-Sunday: 6:00 AM-10:00 PM",,,
,,430 1st Avenue South,,Jacksonville Beach,FL,32250,United States,904-746-0400,,,"Office Hours Monday-Friday: 9:30 AM-6:00 PM, Saturday: 8:30 AM-5:00 PM, Sunday: 11:00 AM-3:00 PM, Storage Gate Hours Monday-Sunday: 6:00 AM-10:00 PM",,,
,,8421 Cheswick Oak Avenue,,Jacksonville,FL,32244,United States,904-777-8333,,,"Office Hours Monday-Friday: 9:30 AM-6:00 PM, Saturday: 8:30 AM-5:00 PM, Sunday: 11:00 AM-3:00 PM, Storage Gate Hours Monday-Sunday: 6:00 AM-10:00 PM",,,
,,2220 East Riverside Drive,,Austin,TX,78741,United States,512-326-3188,,,"Office Hours Monday-Friday: 9:30 AM-6:00 PM, Saturday: 8:30 AM-5:00 PM, Sunday: 11:00 AM-3:00 PM, Storage Gate Hours Monday-Sunday: 6:00 AM-10:00 PM",,,
,,13610 Cypress North Houston,,Cypress,TX,77429,United States,281-305-4453,,,"Office Hours Monday-Friday: 9:30 AM-6:00 PM, Saturday: 8:30 AM-5:00 PM, Sunday: 11:00 AM-3:00 PM, Storage Gate Hours Monday-Sunday: 6:00 AM-10:00 PM",,,
,,1450 Highway 6,,Sugarland,TX,77478,United States,800-870-2521,,,"Office Hours Monday-Friday: 9:30 AM-6:00 PM, Saturday: 8:30 AM-5:00 PM, Sunday: 11:00 AM-3:00 PM, Storage Gate Hours Monday-Sunday: 6:00 AM-10:00 PM",,,
,,645 Park Street,,Jacksonville,FL,32204,United States,904-353-7778,,,"Office Hours Monday-Friday: 9:30 AM-6:00 PM, Saturday: 8:30 AM-5:00 PM, Sunday: 11:00 AM-3:00 PM, Storage Gate Hours Monday-Sunday: 6:00 AM-10:00 PM",,,
,,11935 Highway 6,,Fresno,TX,77545,United States,281-915-0025,,,"Office Hours Monday-Friday: 9:30 AM-6:00 PM, Saturday: 8:30 AM-5:00 PM, Sunday: 11:00 AM-3:00 PM, Storage Gate Hours Monday-Sunday: 6:00 AM-10:00 PM",,,
,,3024 Plummer Cove Road,,Jacksonville,FL,32223,United States,904-288-9886,,,"Office Hours Monday-Friday: 9:30 AM-6:00 PM, Saturday: 8:30 AM-5:00 PM, Sunday: 11:00 AM-3:00 PM, Storage Gate Hours Monday-Sunday: 6:00 AM-10:00 PM",,,
,,17512 Highway 6,,Manvel,TX,77578,United States,281-915-0028,,,"Office Hours Monday-Friday: 9:30 AM-6:00 PM, Saturday: 8:30 AM-5:00 PM, Sunday: 11:00 AM-3:00 PM, Storage Gate Hours Monday-Sunday: 6:00 AM-10:00 PM",,,
,,9722 North Sam Houston Parkway East,,Humble,TX,77396,United States,281-458-9500,,,"Office Hours Monday-Friday: 9:30 AM-6:00 PM, Saturday: 8:30 AM-5:00 PM, Sunday: 11:00 AM-3:00 PM, Storage Gate Hours Monday-Sunday: 6:00 AM-10:00 PM",,,
,,8585 Touchton Road,,Jacksonville,FL,32216,United States,904-620-9799,,,"Office Hours Monday-Friday: 9:30 AM-6:00 PM, Saturday: 8:30 AM-5:00 PM, Sunday: 11:00 AM-3:00 PM, Storage Gate Hours Monday-Sunday: 6:00 AM-10:00 PM",,,
,,1705 Atascocita Road,,Humble,TX,77396,United States,281-319-0043,,,"Office Hours Monday-Friday: 9:30 AM-6:00 PM, Saturday: 8:30 AM-5:00 PM, Sunday: 11:00 AM-3:00 PM, Storage Gate Hours Monday-Sunday: 6:00 AM-10:00 PM",,,
,,8206 West Broadway Street,,Pearland,TX,77581,United States,800-581-3205,,,"Office Hours Monday-Friday: 9:30 AM-6:00 PM, Saturday: 8:30 AM-5:00 PM, Sunday: 11:00 AM-3:00 PM, Storage Gate Hours Monday-Sunday: 6:00 AM-10:00 PM",,,
,,3045 Business Center Drive,,Pearland,TX,77584,United States,713-960-4089,,,"Office Hours Monday-Friday: 9:30 AM-6:00 PM, Saturday: 8:30 AM-5:00 PM, Sunday: 11:00 AM-3:00 PM, Storage Gate Hours Monday-Sunday: 6:00 AM-10:00 PM",,,
,,1919 East Broadway,,Pearland,TX,77581,United States,281-485-5000,,,"Office Hours Monday-Friday: 9:30 AM-6:00 PM, Saturday: 8:30 AM-5:00 PM, Sunday: 11:00 AM-3:00 PM, Storage Gate Hours Monday-Sunday: 6:00 AM-10:00 PM",,,
,,9109 Hughes Ranch Road,,Pearland,TX,77584,United States,832-604-2592,,,"Office Hours Monday-Friday: 9:30 AM-6:00 PM, Saturday: 8:30 AM-5:00 PM, Sunday: 11:00 AM-3:00 PM, Storage Gate Hours Monday-Sunday: 6:00 AM-10:00 PM",,,
,,7707 North Sam Houston Parkway East,,Humble,TX,77396,United States,281-973-0542,,,"Office Hours Monday-Friday: 9:30 AM-6:00 PM, Saturday: 8:30 AM-5:00 PM, Sunday: 11:00 AM-3:00 PM, Storage Gate Hours Monday-Sunday: 6:00 AM-10:00 PM",,,
,,10401 Broadway Street,,Pearland,TX,77584,United States,832-327-8877,,,"Office Hours Monday-Friday: 9:30 AM-6:00 PM, Saturday: 8:30 AM-5:00 PM, Sunday: 11:00 AM-3:00 PM, Storage Gate Hours Monday-Sunday: 6:00 AM-10:00 PM",,,
,,1525 N Main Street,,Pearland,TX,77581,United States,800-836-4524,,,"Office Hours Monday-Friday: 9:30 AM-6:00 PM, Saturday: 8:30 AM-5:00 PM, Sunday: 11:00 AM-3:00 PM, Storage Gate Hours Monday-Sunday: 6:00 AM-10:00 PM",,,
,,15707 Bellaire Boulevard,,Houston,TX,77083,United States,281-561-6232,,,"Office Hours Monday-Friday: 9:30 AM-6:00 PM, Saturday: 8:30 AM-5:00 PM, Sunday: 11:00 AM-3:00 PM, Storage Gate Hours Monday-Sunday: 6:00 AM-10:00 PM",,,
,,11570 Beach Boulevard,,Jacksonville,FL,32246,United States,904-232-4404,,,"Office Hours Monday-Friday: 9:30 AM-6:00 PM, Saturday: 8:30 AM-5:00 PM, Sunday: 11:00 AM-3:00 PM, Storage Gate Hours Monday-Sunday: 6:00 AM-10:00 PM",,,
,,7001 Synott Road,,Houston,TX,77083,United States,281-495-3488,,,"Office Hours Monday-Friday: 9:30 AM-6:00 PM, Saturday: 8:30 AM-5:00 PM, Sunday: 11:00 AM-3:00 PM, Storage Gate Hours Monday-Sunday: 6:00 AM-10:00 PM",,,
,,9900 Rowlett Road,,Houston,TX,77075,United States,713-941-0555,,,"Office Hours Monday-Friday: 9:30 AM-6:00 PM, Saturday: 8:30 AM-5:00 PM, Sunday: 11:00 AM-3:00 PM, Storage Gate Hours Monday-Sunday: 6:00 AM-10:00 PM",,,
,,13340 FM 1960 Road West,,Houston,TX,77065,United States,281-970-4433,,,"Office Hours Monday-Friday: 9:30 AM-6:00 PM, Saturday: 8:30 AM-5:00 PM, Sunday: 11:00 AM-3:00 PM, Storage Gate Hours Monday-Sunday: 6:00 AM-10:00 PM",,,
,,11325 Westpark Drive,,Houston,TX,77082,United States,832-327-8816,,,"Office Hours Monday-Friday: 9:30 AM-6:00 PM, Saturday: 8:30 AM-5:00 PM, Sunday: 11:00 AM-3:00 PM, Storage Gate Hours Monday-Sunday: 6:00 AM-10:00 PM",,,
,,15500 Vintage Preserve Parkway,,Houston,TX,77070,United States,281-376-2891,,,"Office Hours Monday-Friday: 9:30 AM-6:00 PM, Saturday: 8:30 AM-5:00 PM, Sunday: 11:00 AM-3:00 PM, Storage Gate Hours Monday-Sunday: 6:00 AM-10:00 PM",,,
,,6400 State Highway 6,,Missouri City,TX,77459,United States,832-987-4165,,,"Office Hours Monday-Friday: 9:30 AM-6:00 PM, Saturday: 8:30 AM-5:00 PM, Sunday: 11:00 AM-3:00 PM, Storage Gate Hours Monday-Sunday: 6:00 AM-10:00 PM",,,
,,350 West Rankin Road,,Houston,TX,77090,United States,281-872-7290,,,"Office Hours Monday-Friday: 9:30 AM-6:00 PM, Saturday: 8:30 AM-5:00 PM, Sunday: 11:00 AM-3:00 PM, Storage Gate Hours Monday-Sunday: 6:00 AM-10:00 PM",,,
,,12955 South Freeway,,Houston,TX,77047,United States,832-327-8815,,,"Office Hours Monday-Friday: 9:30 AM-6:00 PM, Saturday: 8:30 AM-5:00 PM, Sunday: 11:00 AM-3:00 PM, Storage Gate Hours Monday-Sunday: 6:00 AM-10:00 PM",,,
,,7939 Westheimer Road,,Houston,TX,77063,United States,832-327-8901,,,"Office Hours Monday-Friday: 9:30 AM-6:00 PM, Saturday: 8:30 AM-5:00 PM, Sunday: 11:00 AM-3:00 PM, Storage Gate Hours Monday-Sunday: 6:00 AM-10:00 PM",,,
,,11616 Beamer Road,,Houston,TX,77089,United States,832-327-8871,,,"Office Hours Monday-Friday: 9:30 AM-6:00 PM, Saturday: 8:30 AM-5:00 PM, Sunday: 11:00 AM-3:00 PM, Storage Gate Hours Monday-Sunday: 6:00 AM-10:00 PM",,,
,,8252 Westheimer Road,,Houston,TX,77063,United States,713-266-6630,,,"Office Hours Monday-Friday: 9:30 AM-6:00 PM, Saturday: 8:30 AM-5:00 PM, Sunday: 11:00 AM-3:00 PM, Storage Gate Hours Monday-Sunday: 6:00 AM-10:00 PM",,,
,,7017 Almeda Road,,Houston,TX,77054,United States,832-266-1350,,,"Office Hours Monday-Friday: 9:30 AM-6:00 PM, Saturday: 8:30 AM-5:00 PM, Sunday: 11:00 AM-3:00 PM, Storage Gate Hours Monday-Sunday: 6:00 AM-10:00 PM",,,
,,7900 FM 1960 West,,Humble,TX,77338,United States,281-973-0543,,,"Office Hours Monday-Friday: 9:30 AM-6:00 PM, Saturday: 8:30 AM-5:00 PM, Sunday: 11:00 AM-3:00 PM, Storage Gate Hours Monday-Sunday: 6:00 AM-10:00 PM",,,
,,1775 Chestnut Avenue,,Glenview,IL,60025,United States,847-724-0303,,,"Office Hours Monday-Friday: 9:30 AM-6:00 PM, Saturday: 8:30 AM-5:00 PM, Sunday: Closed, Storage Gate Hours Monday-Sunday: 6:00 AM-10:00 PM",,,
,,6300 Washington Avenue,,Houston,TX,77007,United States,800-357-1440,,,"Office Hours Monday-Friday: 9:30 AM-6:00 PM, Saturday: 8:30 AM-5:00 PM, Sunday: 11:00 AM-3:00 PM, Storage Gate Hours Monday-Sunday: 6:00 AM-10:00 PM",,,
,,4501 West 135th Street,,Crestwood,IL,60445,United States,708-371-7070,,,"Office Hours Monday-Friday: 9:30 AM-6:00 PM, Saturday: 8:30 AM-5:00 PM, Sunday: 11:00 AM-3:00 PM, Storage Gate Hours Monday-Sunday: 6:00 AM-10:00 PM",,,
,,1950 South Mount Prospect Road,,Des Plaines,IL,60018,United States,847-824-5110,,,"Office Hours Monday-Friday: 9:30 AM-6:00 PM, Saturday: 8:30 AM-5:00 PM, Sunday: 11:00 AM-3:00 PM, Storage Gate Hours Monday-Sunday: 6:00 AM-10:00 PM",,,
,,1718 Waukegan Road,,Glenview,IL,60025,United States,847-657-6300,,,"Office Hours Monday-Friday: 9:30 AM-6:00 PM, Saturday: 8:30 AM-5:00 PM, Sunday: 11:00 AM-3:00 PM, Storage Gate Hours Monday-Sunday: 6:00 AM-10:00 PM",,,
,,12400 South Western Avenue,,Blue Island,IL,60406,United States,708-396-0300,,,"Office Hours Monday-Friday: 9:30 AM-6:00 PM, Saturday: 8:30 AM-5:00 PM, Sunday: 11:00 AM-3:00 PM, Storage Gate Hours Monday-Wednesday: 6:00 AM-10:00 PM, Thursday: 6:00 PM-10:00 PM, Friday-Sunday: 6:00 AM-10:00 PM",,,
,,1202 Shepherd Drive,,Houston,TX,77007,United States,346-444-8837,,,"Office Hours Monday-Friday: 9:30 AM-6:00 PM, Saturday: 8:30 AM-5:00 PM, Sunday: 11:00 AM-3:00 PM, Storage Gate Hours Monday-Sunday: 6:00 AM-10:00 PM",,,
,,7825 Katy Freeway,,Houston,TX,77024,United States,713-682-1716,,,"Office Hours Monday-Friday: 9:30 AM-6:00 PM, Saturday: 8:30 AM-5:00 PM, Sunday: 11:00 AM-3:00 PM, Storage Gate Hours Monday-Sunday: 6:00 AM-10:00 PM",,,
,,9801 West 55th Street,,Countryside,IL,60525,United States,708-354-8825,,,"Office Hours Monday-Friday: 9:30 AM-6:00 PM, Saturday: 8:30 AM-5:00 PM, Sunday: 11:00 AM-3:00 PM, Storage Gate Hours Monday-Sunday: 6:00 AM-10:00 PM",,,
,,8312 South Chicago Avenue,,Chicago,IL,60617,United States,773-731-0400,,,"Office Hours Monday-Friday: 9:30 AM-6:00 PM, Saturday: 8:30 AM-5:00 PM, Sunday: 11:00 AM-3:00 PM, Storage Gate Hours Monday-Sunday: 7:00 AM-8:00 PM",,,
,,1900 N Narragansett Ave,,Chicago,IL,60639,United States,773-237-2700,,,"Office Hours Monday-Friday: 9:30 AM-6:00 PM, Saturday: 8:30 AM-5:00 PM, Sunday: 11:00 AM-3:00 PM, Storage Gate Hours Monday-Sunday: 6:00 AM-10:00 PM",,,
,,2484 Oakton Street,,Evanston,IL,60202,United States,847-492-0400,,,"Office Hours Monday-Friday: 9:30 AM-6:00 PM, Saturday: 8:30 AM-5:00 PM, Sunday: 11:00 AM-3:00 PM, Storage Gate Hours Monday-Sunday: 6:00 AM-10:00 PM",,,
,,3402 North Kedzie Avenue,,Chicago,IL,60618,United States,773-539-7867,,,"Office Hours Monday-Friday: 9:30 AM-6:00 PM, Saturday: 8:30 AM-5:00 PM, Sunday: 11:00 AM-3:00 PM, Storage Gate Hours Monday-Sunday: 6:00 AM-10:00 PM",,,
,,2801 Harrison Street,,Bellwood,IL,60104,United States,708-544-7100,,,"Office Hours Monday-Friday: 9:30 AM-6:00 PM, Saturday: 8:30 AM-5:00 PM, Sunday: 11:00 AM-3:00 PM, Storage Gate Hours Monday-Sunday: 6:00 AM-10:00 PM",,,
,,407 East 25th Street,,Chicago,IL,60616,United States,312-225-0116,,,"Office Hours Monday-Friday: 9:30 AM-6:00 PM, Saturday: 8:30 AM-5:00 PM, Sunday: 11:00 AM-3:00 PM, Storage Gate Hours Monday-Sunday: 6:00 AM-10:00 PM",,,
,,42816 Osgood Road,,Fremont,CA,94539,United States,510-659-1588,,,"Office Hours Monday-Friday: 9:30 AM-6:00 PM, Saturday: 8:30 AM-5:00 PM, Sunday: 11:00 AM-3:00 PM, Storage Gate Hours Monday-Sunday: 6:00 AM-10:00 PM",,,
,,2647 North Western Avenue,,Chicago,IL,60647,United States,773-227-2195,,,"Office Hours Monday-Friday: 9:30 AM-6:00 PM, Saturday: 8:30 AM-5:00 PM, Sunday: 11:00 AM-3:00 PM, Storage Gate Hours Monday-Sunday: 6:00 AM-10:00 PM",,,
,,5400 Alder Drive,,Houston,TX,77081,United States,713-668-0077,,,"Office Hours Monday-Friday: 9:30 AM-6:00 PM, Saturday: 8:30 AM-5:00 PM, Sunday: 11:00 AM-3:00 PM, Storage Gate Hours Monday-Sunday: 6:00 AM-10:00 PM",,,
,,4100 West Diversey Avenue,,Chicago,IL,60639,United States,773-756-5429,,,"Office Hours Monday-Friday: 9:30 AM-6:00 PM, Saturday: 8:30 AM-5:00 PM, Sunday: 11:00 AM-3:00 PM, Storage Gate Hours Monday-Sunday: 6:00 AM-10:00 PM",,,
,,3954 Reggis Court,,Fort Worth,TX,76155,United States,817-803-2158,,,"Office Hours Monday-Friday: 9:30 AM-6:00 PM, Saturday: 8:30 AM-5:00 PM, Sunday: 11:00 AM-3:00 PM, Storage Gate Hours Monday-Sunday: 6:00 AM-10:00 PM",,,
,,1960 Alma Drive,,Plano,TX,75075,United States,214-473-5688,,,"Office Hours Monday-Friday: 9:30 AM-6:00 PM, Saturday: 8:30 AM-5:00 PM, Sunday: 11:00 AM-3:00 PM, Storage Gate Hours Monday-Sunday: 6:00 AM-10:00 PM",,,
,,501 Highway 121 Bypass,,Lewisville,TX,75067,United States,972-459-5100,,,"Office Hours Monday-Friday: 9:30 AM-6:00 PM, Saturday: 8:30 AM-5:00 PM, Sunday: 11:00 AM-3:00 PM, Storage Gate Hours Monday-Sunday: 6:00 AM-10:00 PM",,,
,,6201 South Harlem Avenue,,Chicago,IL,60638,United States,773-586-0400,,,"Office Hours Monday-Friday: 9:30 AM-6:00 PM, Saturday: 8:30 AM-5:00 PM, Sunday: 11:00 AM-3:00 PM, Storage Gate Hours Monday-Sunday: 6:00 AM-10:00 PM",,,
,,1350 North First Street,,Garland,TX,75040,United States,972-272-7272,,,"Office Hours Monday-Friday: 9:30 AM-6:00 PM, Saturday: 8:30 AM-5:00 PM, Sunday: 11:00 AM-3:00 PM, Storage Gate Hours Monday-Sunday: 6:00 AM-10:00 PM",,,
,,4097 Rosemeade Parkway,,Dallas,TX,75287,United States,972-732-8008,,,"Office Hours Monday-Friday: 9:30 AM-6:00 PM, Saturday: 8:30 AM-5:00 PM, Sunday: 11:00 AM-3:00 PM, Storage Gate Hours Monday-Sunday: 6:00 AM-10:00 PM",,,
,,5818 Lyndon B Johnson Freeway,,Dallas,TX,75230,United States,972-980-7206,,,"Office Hours Monday-Friday: 9:30 AM-6:00 PM, Saturday: 8:30 AM-5:00 PM, Sunday: 11:00 AM-3:00 PM, Storage Gate Hours Monday-Sunday: 6:00 AM-10:00 PM",,,
,,4105 Fairway Drive,,Carrollton,TX,75010,United States,972-492-3000,,,"Office Hours Monday-Friday: 9:30 AM-6:00 PM, Saturday: 8:30 AM-5:00 PM, Sunday: 11:00 AM-3:00 PM, Storage Gate Hours Monday-Sunday: 6:00 AM-10:00 PM",,,
,,2375 Arapaho Road,,Garland,TX,75044,United States,972-530-2000,,,"Office Hours Monday-Friday: 9:30 AM-6:00 PM, Saturday: 8:30 AM-5:00 PM, Sunday: 11:00 AM-3:00 PM, Storage Gate Hours Monday-Sunday: 6:00 AM-10:00 PM",,,
,,1044 Bethlehem Pike,,Montgomeryville,PA,18936,United States,215-591-9098,,,"Office Hours Monday-Friday: 9:30 AM-6:00 PM, Saturday: 8:30 AM-5:00 PM, Sunday: 11:00 PM-3:00 PM, Storage Gate Hours Monday-Sunday: 6:00 AM-10:00 PM",,,
,,6831 West Northwest Highway,,Dallas,TX,75225,United States,214-306-7919,,,"Office Hours Monday-Friday: 9:30 AM-6:00 PM, Saturday: 8:30 AM-5:00 PM, Sunday: 11:00 AM-3:00 PM, Storage Gate Hours Monday-Sunday: 6:00 AM-10:00 PM",,,
,,17613 Coit Road,,Dallas,TX,75252,United States,972-248-9900,,,"Office Hours Monday-Friday: 9:30 AM-6:00 PM, Saturday: 8:30 AM-5:00 PM, Sunday: 11:00 AM-3:00 PM, Storage Gate Hours Monday-Sunday: 6:00 AM-10:00 PM",,,
,,401 Alan Wood Road,,Conshohocken,PA,19428,United States,610-941-4446,,,"Office Hours Monday-Friday: 9:30 AM-6:00 PM, Saturday: 8:30 AM-5:00 PM, Sunday: 11:00 AM-3:00 PM, Storage Gate Hours Monday-Sunday: 6:00 AM-10:00 PM",,,
,,5505 Maple Avenue,,Dallas,TX,75235,United States,469-776-5023,,,"Office Hours Monday-Friday: 9:30 AM-6:00 PM, Saturday: 8:30 AM-5:00 PM, Sunday: 11:00 AM-3:00 PM, Storage Gate Hours Monday-Sunday: 6:00 AM-10:00 PM",,,
,,714 Markley Street,,Norristown,PA,19401,United States,610-277-2700,,,"Office Hours Monday-Friday: 9:30 AM-6:00 PM, Saturday: 8:30 AM-5:00 PM, Sunday: 11:00 AM-3:00 PM, Storage Gate Hours Monday-Sunday: 6:00 AM-10:00 PM",,,
,,425 Delsea Drive,,Sewell,NJ,08080,United States,856-589-7285,,,"Office Hours Monday-Friday: 9:30 AM-6:00 PM, Saturday: 8:30 AM-5:00 PM, Sunday: 11:00 AM-3:00 PM, Storage Gate Hours Monday-Sunday: Open 24 Hours",,,
,,777 Mayfair Street,,Philadelphia,PA,19124,United States,215-535-0500,,,"Office Hours Monday-Friday: 9:30 AM-7:00 PM, Saturday: 8:30 AM-7:00 PM, Sunday: 11:00 AM-4:00 PM, Storage Gate Hours Monday-Saturday: 8:00 AM-7:00 PM, Sunday: 10:00 AM-4:00 PM",,,
,,500 Mildred Avenue,,Clifton Heights,PA,19018,United States,610-713-5380,,,"Office Hours Monday-Friday: 9:30 AM-6:00 PM, Saturday: 8:30 AM-5:00 PM, Sunday: 11:00 AM-3:00 PM, Storage Gate Hours Monday-Sunday: 6:00 AM-10:00 PM",,,
,,101 South 1st Avenue,,Maywood,IL,60153,United States,708-681-0400,,,"Office Hours Monday-Friday: 9:30 AM-6:00 PM, Saturday: 8:30 AM-5:00 PM, Sunday: 11:00 AM-3:00 PM, Storage Gate Hours Monday-Sunday: 6:00 AM-10:00 PM",,,
,,2711 Cedar Springs Road,,Dallas,TX,75201,United States,214-954-4404,,,"Office Hours Monday-Friday: 9:30 AM-6:00 PM, Saturday: 8:30 AM-5:00 PM, Sunday: 11:00 AM-3:00 PM, Storage Gate Hours Monday-Sunday: 6:00 AM-10:00 PM",,,
,,2414 South Gilbert Road,,Chandler,AZ,85286,United States,480-722-2880,,,"Office Hours Monday-Friday: 9:30 AM-6:00 PM, Saturday: 8:30 AM-5:00 PM, Sunday: 11:00 AM-3:00 PM, Storage Gate Hours Monday-Sunday: 6:00 AM-10:00 PM",,,
,,106 US Route 70 East,,Cherry Hill,NJ,08034,United States,856-427-7867,,,"Office Hours Monday-Friday: 9:30 AM-6:00 PM, Saturday: 8:30 AM-5:00 PM, Sunday: 11:00 AM-3:00 PM, Storage Gate Hours Monday-Sunday: 6:00 AM-10:00 PM",,,
,,3450 Willow Creek,,Irving,TX,75061,United States,469-904-6300,,,"Office Hours Monday-Friday: 9:30 AM-6:00 PM, Saturday: 8:30 AM-5:00 PM, Sunday: 11:00 AM-3:00 PM, Storage Gate Hours Monday-Sunday: 6:00 AM-10:00 PM",,,
,,536 North Power Road,,Mesa,AZ,85205,United States,480-981-2511,,,"Office Hours Monday-Friday: 9:30 AM-6:00 PM, Saturday: 8:30 AM-5:00 PM, Sunday: 11:00 AM-3:00 PM, Storage Gate Hours Monday-Sunday: 6:00 AM-10:00 PM",,,
,,456 North Christopher Columbus Boulevard,,Philadelphia,PA,19123,United States,215-922-3756,,,"Office Hours Monday-Friday: 9:30 AM-6:00 PM, Saturday: 8:30 AM-5:00 PM, Sunday: 11:00 AM-3:00 PM, Storage Gate Hours Monday-Sunday: 6:00 AM-10:00 PM",,,
,,1820 Frontage Road,,Cherry Hill,NJ,08034,United States,856-216-9300,,,"Office Hours Monday-Friday: 9:30 AM-6:00 PM, Saturday: 8:30 AM-5:00 PM, Sunday: 11:00 AM-3:00 PM, Storage Gate Hours Monday-Sunday: 6:00 AM-10:00 PM",,,
,,480 South Arizona Avenue,,Chandler,AZ,85225,United States,480-963-9673,,,"Office Hours Monday-Friday: 9:30 AM-6:00 PM, Saturday: 8:30 AM-5:00 PM, Sunday: 11:00 AM-3:00 PM, Storage Gate Hours Monday-Sunday: 6:00 AM-10:00 PM",,,
,,5750 South Power Road,,Gilbert,AZ,85295,United States,480-279-4110,,,"Office Hours Monday-Friday: 9:30 AM-6:00 PM, Saturday: 8:30 AM-5:00 PM, Sunday: 11:00 AM-3:00 PM, Storage Gate Hours Monday-Sunday: 6:00 AM-10:00 PM",,,
,,1919 East Ray Road,,Chandler,AZ,85225,United States,480-378-8400,,,"Office Hours Monday-Friday: 9:30 AM-6:00 PM, Saturday: 8:30 AM-5:00 PM, Sunday: 11:00 AM-3:00 PM, Storage Gate Hours Monday-Sunday: 6:00 AM-10:00 PM",,,
,,3026 South Country Club Drive,,Mesa,AZ,85210,United States,480-892-6100,,,"Office Hours Monday-Friday: 9:30 AM-6:00 PM, Saturday: 8:30 AM-5:00 PM, Sunday: 11:00 AM-3:00 PM, Storage Gate Hours Monday-Sunday: 6:00 AM-10:00 PM",,,
,,409 South Mcclintock Drive,,Tempe,AZ,85281,United States,480-966-5722,,,"Office Hours Monday-Friday: 9:30 AM-6:00 PM, Saturday: 8:30 AM-5:00 PM, Sunday: 11:00 AM-3:00 PM, Storage Gate Hours Monday-Sunday: 6:00 AM-10:00 PM",,,
,,14800 North 83rd Avenue,,Peoria,AZ,85381,United States,623-979-7390,,,"Office Hours Monday-Friday: 9:30 AM-6:00 PM, Saturday: 8:30 AM-5:00 PM, Sunday: 11:00 AM-3:00 PM, Storage Gate Hours Monday-Sunday: 6:00 AM-10:00 PM",,,
,,810 South Mcclintock Drive,,Tempe,AZ,85281,United States,480-776-5555,,,"Office Hours Monday-Friday: 9:30 AM-6:00 PM, Saturday: 8:30 AM-5:00 PM, Sunday: 11:00 AM-3:00 PM, Storage Gate Hours Monday-Sunday: 6:00 AM-10:00 PM",,,
,,11000 North 115th Street,,Scottsdale,AZ,85259,United States,480-314-2100,,,"Office Hours Monday-Friday: 9:30 AM-6:00 PM, Saturday: 8:30 AM-5:00 PM, Sunday: 11:00 AM-3:00 PM, Storage Gate Hours Monday-Sunday: 6:00 AM-10:00 PM",,,
,,533 East Dunlap Street,,Phoenix,AZ,85020,United States,602-233-5353,,,"Office Hours Monday-Friday: 9:30 AM-6:00 PM, Saturday: 8:30 AM-5:00 PM, Sunday: 11:00 AM-3:00 PM, Storage Gate Hours Monday-Sunday: 6:00 AM-10:00 PM",,,
,,3122 East Washington Street,,Phoenix,AZ,85034,United States,602-275-0294,,,"Office Hours Monday-Friday: 9:30 AM-6:00 PM, Saturday: 8:30 AM-5:00 PM, Sunday: 11:00 AM-3:00 PM, Storage Gate Hours Monday-Sunday: 6:00 AM-10:00 PM",,,
,,909 South Country Club Drive,,Mesa,AZ,85210,United States,480-834-4235,,,"Office Hours Monday-Friday: 9:30 AM-6:00 PM, Saturday: 8:30 AM-5:00 PM, Sunday: 11:00 AM-3:00 PM, Storage Gate Hours Monday-Sunday: 6:00 AM-10:00 PM",,,
,,3602 Wurzbach Road,,San Antonio,TX,78238,United States,210-681-6303,,,"Office Hours Monday-Friday: 9:30 AM-6:00 PM, Saturday: 8:30 AM-5:00 PM, Sunday: 11:00 AM-3:00 PM, Storage Gate Hours Monday-Sunday: 6:00 AM-10:00 PM",,,
,,9180 Jamacha Road,,Spring Valley,CA,91977,United States,619-466-0564,,,"Office Hours Monday-Friday: 9:30 AM-6:00 PM, Saturday: 8:30 AM-5:00 PM, Sunday: 11:00 AM-3:00 PM, Storage Gate Hours Monday-Sunday: 6:00 AM-10:00 PM",,,
,,9238 West I-10,,San Antonio,TX,78230,United States,210-593-0909,,,"Office Hours Monday-Friday: 9:30 AM-6:00 PM, Saturday: 8:30 AM-5:00 PM, Sunday: 11:00 AM-3:00 PM, Storage Gate Hours Monday-Sunday: 6:00 AM-10:00 PM",,,
,,3895 New Rodgers Road,,Levittown,PA,19056,United States,215-943-9710,,,"Office Hours Monday-Friday: 9:30 AM-6:00 PM, Saturday: 8:30 AM-5:00 PM, Sunday: 11:00 AM-3:00 PM, Storage Gate Hours Monday-Sunday: 6:00 AM-10:00 PM",,,
,,841 East Jefferson Street,,Phoenix,AZ,85034,United States,480-616-1277,,,"Office Hours Monday-Friday: 9:30 AM-6:00 PM, Saturday: 8:30 AM-5:00 PM, Sunday: 11:00 AM-3:00 PM, Storage Gate Hours Monday-Sunday: 6:00 AM-10:00 PM",,,
,,5411 West Broad Street,,Columbus,OH,43228,United States,614-870-0221,,,"Office Hours Monday-Friday: 9:30 AM-6:00 PM, Saturday: 8:30 AM-5:00 PM, Sunday: 11:00 AM-3:00 PM, Storage Gate Hours Monday-Sunday: 6:00 AM-10:00 PM",,,
,,10030 Blackhawk Boulevard,,Houston,TX,77089,United States,281-617-2358,,,"Office Hours Monday-Friday: 9:30 AM-6:00 PM, Saturday: 8:30 AM-5:00 PM, Sunday: 11:00 AM-3:00 PM, Storage Gate Hours Monday-Sunday: 6:00 AM-10:00 PM",,,
,,2049 Pitkin Avenue,,Brooklyn,NY,11207,United States,718-485-7969,,,"Office Hours Monday-Sunday: 9:00 AM-7:00 PM, Storage Gate Hours Monday-Sunday: 9:00 AM-7:00 PM",,,
,,1844 North 43rd Avenue,,Phoenix,AZ,85009,United States,602-278-7973,,,"Office Hours Monday-Friday: 9:30 AM-6:00 PM, Saturday: 8:30 AM-5:00 PM, Sunday: 11:00 AM-3:00 PM, Storage Gate Hours Monday-Sunday: 6:00 AM-10:00 PM",,,
,,12407 Highway 290 East,,Manor,TX,78653,United States,512-410-2569,,,"Office Hours Monday-Friday: 9:30 AM-6:00 PM, Saturday: 8:30 AM-5:00 PM, Sunday: 11:00 AM-3:00 PM, Storage Gate Hours Monday-Sunday: 6:00 AM-10:00 PM",,,
,,3131 Richmond Terrace,,Staten Island,NY,10303,United States,718-442-0611,,,"Office Hours Monday-Friday: 9:30 AM-6:00 PM, Saturday: 8:30 AM-5:00 PM, Sunday: 11:00 AM-3:00 PM, Storage Gate Hours Monday-Sunday: 6:00 AM-10:00 PM",,,
,,251 North A W  Grimes Boulevard,,Round Rock,TX,78664,United States,512-244-4242,,,"Office Hours Monday-Friday: 9:30 AM-6:00 PM, Saturday: 8:30 AM-5:00 PM, Sunday: 11:00 AM-3:00 PM, Storage Gate Hours Monday-Sunday: 6:00 AM-10:00 PM",,,
,,1201 North Highway 377,,Roanoke,TX,76262,United States,817-430-2737,,,"Office Hours Monday-Friday: 9:30 AM-6:00 PM, Saturday: 8:30 AM-5:00 PM, Sunday: 11:00 AM-3:00 PM, Storage Gate Hours Monday-Sunday: 6:00 AM-10:00 PM",,,
,,501 Callowhill Street,,Philadelphia,PA,19123,United States,215-627-3510,,,"Office Hours Monday-Friday: 9:30 AM-6:00 PM, Saturday: 8:30 AM-5:00 PM, Sunday: 11:00 AM-3:00 PM, Storage Gate Hours Monday-Sunday: 6:00 AM-10:00 PM",,,
,,2680 East  Mohawk Lane,,Phoenix,AZ,85050,United States,602-200-8688,,,"Office Hours Monday-Friday: 9:30 AM-6:00 PM, Saturday: 8:30 AM-5:00 PM, Sunday: 11:00 AM-3:00 PM, Storage Gate Hours Monday-Sunday: 6:00 AM-10:00 PM",,,
,,1004 Route 1,,Rahway,NJ,07065,United States,732-382-4600,,,"Office Hours Monday-Friday: 9:30 AM-6:00 PM, Saturday: 8:30 AM-5:00 PM, Sunday: 11:00 AM-3:00 PM, Storage Gate Hours Monday-Sunday: 6:00 AM-10:00 PM",,,
,,11565 James Watt Drive,,El Paso,TX,79936,United States,915-593-3472,,,"Office Hours Monday-Friday: 9:30 AM-6:00 PM, Saturday: 8:30 AM-5:00 PM, Sunday: Closed, Storage Gate Hours Monday-Sunday: 6:00 AM-10:00 PM",,,
,,1050 Atlantic Avenue,,Brooklyn,NY,11238,United States,718-399-8899,,,"Office Hours Monday-Saturday: 8:00 AM-7:00 PM, Sunday: 9:00 AM-5:00 PM, Storage Gate Hours Monday-Saturday: 8:00 AM-7:00 PM, Sunday: 9:00 AM-5:00 PM",,,
,,9447 Diana Drive,,El Paso,TX,79924,United States,915-755-1500,,,"Office Hours Monday-Friday: 9:30 AM-6:00 PM, Saturday: 8:30 AM-5:00 PM, Sunday: 11:00 AM-3:00 PM, Storage Gate Hours Monday-Sunday: 6:00 AM-10:00 PM",,,
,,307 South Main Street,,Goodlettsville,TN,37072,United States,615-851-6007,,,"Office Hours Monday-Friday: 9:30 AM-6:00 PM, Saturday: 8:30 AM-5:00 PM, Sunday: 11:00 AM-3:00 PM, Storage Gate Hours Monday-Sunday: 6:00 AM-10:00 PM",,,
,,1500 Lomaland Drive,,El Paso,TX,79935,United States,915-594-0077,,,"Office Hours Monday-Friday: 9:30 AM-6:00 PM, Saturday: 8:30 AM-5:00 PM, Sunday: 11:00 AM-3:00 PM, Storage Gate Hours Monday-Sunday: 6:00 AM-10:00 PM",,,
,,719 Rivergate Parkway,,Goodlettsville,TN,37072,United States,615-859-1000,,,"Office Hours Monday-Friday: 9:30 AM-6:00 PM, Saturday: 8:30 AM-5:00 PM, Sunday: 11:00 AM-3:00 PM, Storage Gate Hours Monday-Sunday: 6:00 AM-10:00 PM",,,
,,145 Campanelli Industrial Drive,,Brockton,MA,02301,United States,508-584-4800,,,"Office Hours Monday-Friday: 9:30 AM-6:00 PM, Saturday: 8:30 AM-5:00 PM, Sunday: 11:00 AM-3:00 PM, Storage Gate Hours Monday-Sunday: 6:00 AM-10:00 PM",,,
,,8001 Snouffer School Road,,Gaithersburg,MD,20879,United States,301-990-9101,,,"Office Hours Monday-Friday: 9:30 AM-6:00 PM, Saturday: 8:30 AM-5:00 PM, Sunday: 11:00 AM-3:00 PM, Storage Gate Hours Monday-Sunday: 6:00 AM-10:00 PM",,,
,,6120 Little Ox Road,,Fairfax Station,VA,22039,United States,703-425-8588,,,"Office Hours Monday-Friday: 9:30 AM-6:00 PM, Saturday: 8:30 AM-5:00 PM, Sunday: 11:00 AM-3:00 PM, Storage Gate Hours Monday-Sunday: 6:00 AM-10:00 PM",,,
,,9461 Lorton Market Street,,Lorton,VA,22079,United States,703-372-2709,,,"Office Hours Monday-Friday: 9:30 AM-6:00 PM, Saturday: 8:30 AM-5:00 PM, Sunday: 11:00 AM-3:00 PM, Storage Gate Hours Monday-Sunday: 6:00 AM-10:00 PM",,,
,,1515 Leary Way Northwest,,Seattle,WA,98107,United States,206-781-9000,,,"Office Hours Monday-Saturday: 9:00 AM-7:00 PM, Sunday: 9:00 AM-6:00 PM, Storage Gate Hours Monday-Saturday: 8:00 AM-7:00 PM, Sunday: 9:00 AM-6:00 PM",,,
,,4 Research Place,,Rockville,MD,20850,United States,301-527-9763,,,"Office Hours Monday-Friday: 9:30 AM-6:00 PM, Saturday: 8:30 AM-5:00 PM, Sunday: 11:00 AM-3:00 PM, Storage Gate Hours Monday-Sunday: 6:00 AM-10:00 PM",,,
,,7805 Old Alexandria Ferry Road,,Clinton,MD,20735,United States,301-868-4444,,,"Office Hours Monday-Friday: 9:30 AM-6:00 PM, Saturday: 8:30 AM-5:00 PM, Sunday: 11:00 AM-3:00 PM, Storage Gate Hours Monday-Sunday: 6:00 AM-10:00 PM",,,
,,300 Mill Street Northeast,,Vienna,VA,22180,United States,703-255-0185,,,"Office Hours Monday-Friday: 9:30 AM-6:00 PM, Saturday: 8:30 AM-5:00 PM, Sunday: 11:00 AM-3:00 PM, Storage Gate Hours Monday-Sunday: 6:00 AM-10:00 PM",,,
,,3541 Murfreesboro Pike,,Antioch,TN,37013,United States,615-641-2992,,,"Office Hours Monday-Friday: 9:30 AM-6:00 PM, Saturday: 8:30 AM-5:00 PM, Sunday: 11:00 AM-3:00 PM, Storage Gate Hours Monday-Sunday: 6:00 AM-10:00 PM",,,
,,13813 Connecticut Avenue,,Silver Spring,MD,20906,United States,301-460-0055,,,"Office Hours Monday-Saturday: 9:00 AM-6:00 PM, Sunday: 12:00 PM-5:00 PM, Storage Gate Hours Monday-Sunday: 6:00 AM-9:00 PM",,,
,,11770 Baltimore Avenue,,Beltsville,MD,20705,United States,301-210-1437,,,"Office Hours Monday-Friday: 9:30 AM-6:00 PM, Saturday: 8:30 AM-5:00 PM, Sunday: 11:00 AM-3:00 PM, Storage Gate Hours Monday-Sunday: 6:00 AM-10:00 PM",,,
,,8410 Westphalia Road,,Upper Marlboro,MD,20774,United States,301-420-9212,,,"Office Hours Monday-Friday: 9:30 AM-6:00 PM, Saturday: 8:30 AM-5:00 PM, Sunday: 11:00 AM-3:00 PM, Storage Gate Hours Monday-Sunday: 6:00 AM-10:00 PM",,,
,,1501 Ritchie Station Court,,Capitol Heights,MD,20743,United States,301-350-1818,,,"Office Hours Monday-Friday: 9:30 AM-6:00 PM, Saturday: 8:30 AM-5:00 PM, Sunday: 11:00 AM-3:00 PM, Storage Gate Hours Monday-Sunday: 6:00 AM-10:00 PM",,,
,,3750 Donnell Drive,,District Heights,MD,20747,United States,301-736-7867,,,"Office Hours Monday-Friday: 9:30 AM-6:00 PM, Saturday: 8:30 AM-5:00 PM, Sunday: 11:00 AM-3:00 PM, Storage Gate Hours Monday-Sunday: 6:00 AM-9:00 PM",,,
,,6104 Allentown Road,,Camp Springs,MD,20746,United States,240-695-6890,,,"Office Hours Monday-Friday: 9:30 AM-6:00 PM, Saturday: 8:30 AM-5:00 PM, Sunday: 11:00 AM-3:00 PM, Storage Gate Hours Monday-Sunday: 6:00 AM-10:00 PM",,,
,,4650 Eisenhower Avenue,,Alexandria,VA,22304,United States,703-751-8100,,,"Office Hours Monday-Friday: 9:30 AM-6:00 PM, Saturday: 8:30 AM-5:00 PM, Sunday: 11:00 AM-3:00 PM, Storage Gate Hours Monday-Sunday: 6:00 AM-10:00 PM",,,
,,2950 Gallows Road,,Falls Church,VA,22042,United States,703-204-2666,,,"Office Hours Monday-Friday: 9:30 AM-6:00 PM, Saturday: 8:30 AM-5:00 PM, Sunday: 11:00 AM-3:00 PM, Storage Gate Hours Monday-Sunday: 6:00 AM-10:00 PM",,,
,,11015 West Avenue,,Kensington,MD,20895,United States,301-933-8838,,,"Office Hours Monday-Saturday: 9:00 AM-6:00 PM, Sunday: 12:00 PM-5:00 PM, Storage Gate Hours Monday-Sunday: 6:00 AM-10:00 PM",,,
,,6875 Lee Highway,,Arlington,VA,22213,United States,703-237-4200,,,"Office Hours Monday-Friday: 9:30 AM-6:00 PM, Saturday: 8:30 AM-5:00 PM, Sunday: 11:00 AM-3:00 PM, Storage Gate Hours Monday-Sunday: 6:00 AM-10:00 PM",,,
,,5335 Beech Road,,Temple Hills,MD,20748,United States,301-316-4242,,,"Office Hours Monday-Friday: 9:30 AM-6:00 PM, Saturday: 8:30 AM-5:00 PM, Sunday: 11:00 AM-3:00 PM, Storage Gate Hours Monday-Sunday: 6:00 AM-10:00 PM",,,
,,3179 Draper Drive,,Fairfax,VA,22031,United States,703-352-7795,,,"Office Hours Monday-Friday: 9:30 AM-6:00 PM, Saturday: 8:30 AM-5:00 PM, Sunday: 11:00 AM-3:00 PM, Storage Gate Hours Monday-Sunday: 6:00 AM-10:00 PM",,,
,,3215 52nd Avenue,,Hyattsville,MD,20781,United States,301-699-7669,,,"Office Hours Monday-Friday: 9:30 AM-6:00 PM, Saturday: 8:30 AM-5:00 PM, Sunday: 11:00 AM-3:00 PM, Storage Gate Hours Monday-Sunday: 6:00 AM-10:00 PM",,,
,,8704 Cherry Lane,,Laurel,MD,20707,United States,301-497-6800,,,"Office Hours Monday-Friday: 9:30 AM-6:00 PM, Saturday: 8:30 AM-5:00 PM, Sunday: 11:00 AM-3:00 PM, Storage Gate Hours Monday-Sunday: 6:00 AM-10:00 PM",,,
,,18-20 North Montello,,Brockton,MA,02301,United States,508-580-6456,,,"Office Hours Monday-Friday: 9:30 AM-6:00 PM, Saturday: 8:30 AM-5:00 PM, Sunday: 11:00 AM-3:00 PM, Storage Gate Hours Monday-Friday: 9:30 AM-6:00 PM, Saturday: 8:30 AM-5:00 PM, Sunday: 11:00 AM-3:00 PM",,,
,,3370 Laurel Fort Meade Road,,Laurel,MD,20724,United States,301-617-4101,,,"Office Hours Monday-Friday: 9:30 AM-6:00 PM, Saturday: 8:30 AM-5:00 PM, Sunday: 11:00 AM-3:00 PM, Storage Gate Hours Monday-Sunday: 6:00 AM-10:00 PM",,,
,,16 West Aylesbury Road,,Timonium,MD,21093,United States,410-561-1049,,,"Office Hours Monday-Friday: 9:30 AM-6:00 PM, Saturday: 8:30 AM-5:00 PM, Sunday: 11:00 AM-3:00 PM, Storage Gate Hours Monday-Sunday: 6:00 AM-10:00 PM",,,
,,175 R Street Northeast,,Washington,DC,20002,United States,202-529-7867,,,"Office Hours Monday-Friday: 9:30 AM-6:00 PM, Saturday: 8:30 AM-5:00 PM, Sunday: 11:00 AM-3:00 PM, Storage Gate Hours Monday-Sunday: 6:00 AM-10:00 PM",,,
,,645 Taylor Street Ne,,Washington,DC,20017,United States,202-529-2000,,,"Office Hours Monday-Friday: 9:30 AM-6:00 PM, Saturday: 8:30 AM-5:00 PM, Sunday: 11:00 AM-3:00 PM, Storage Gate Hours Monday-Sunday: 6:00 AM-10:00 PM",,,
,,2631 Shirlington Road,,Arlington,VA,22206,United States,571-312-3828,,,"Office Hours Monday-Friday: 9:30 AM-6:00 PM, Saturday: 8:30 AM-5:00 PM, Sunday: 11:00 AM-3:00 PM, Storage Gate Hours Monday-Sunday: 6:00 AM-10:00 PM",,,
,,692 South Franklin Street,,Holbrook,MA,02343,United States,781-767-6288,,,"Office Hours Monday-Friday: 9:30 AM-6:00 PM, Saturday: 8:30 AM-5:00 PM, Sunday: 11:00 AM-3:00 PM, Storage Gate Hours Monday-Sunday: 6:00 AM-10:00 PM",,,
,,3600 O Donnell Street Suite 185,,Baltimore,MD,21224,United States,410-285-7666,,,"Office Hours Monday-Saturday: 9:00 AM-6:00 PM, Sunday: 12:00 PM-5:00 PM, Storage Gate Hours Monday-Sunday: 6:00 AM-9:00 PM",,,
,,130 Lincoln Street,,Brighton,MA,02135,United States,617-787-4325,,,"Office Hours Monday-Friday: 9:30 AM-6:00 PM, Saturday: 8:30 AM-5:00 PM, Sunday: 11:00 AM-3:00 PM, Storage Gate Hours Monday-Sunday: 6:00 AM-10:00 PM",,,
,,80 East Horizon Ridge Parkway,,Henderson,NV,89002,United States,702-796-0019,,,"Office Hours Monday-Friday: 9:30 AM-6:00 PM, Saturday: 8:30 AM-5:00 PM, Sunday: 11:00 AM-3:00 PM, Storage Gate Hours Monday-Sunday: 6:00 AM-10:00 PM",,,
,,221 Fallon Road,,Stoneham,MA,02180,United States,781-438-9000,,,"Office Hours Monday-Friday: 9:30 AM-6:00 PM, Saturday: 8:30 AM-5:00 PM, Sunday: 11:00 AM-3:00 PM, Storage Gate Hours Monday-Sunday: 6:00 AM-10:00 PM",,,
,,8432 Pulaski Highway,,Baltimore,MD,21237,United States,410-687-9900,,,"Office Hours Monday-Friday: 9:30 AM-6:00 PM, Saturday: 8:30 AM-5:00 PM, Sunday: 11:00 AM-3:00 PM, Storage Gate Hours Monday-Sunday: 6:00 AM-10:00 PM",,,
,,6275 North Tenaya Way,,Las Vegas,NV,89130,United States,702-228-6700,,,"Office Hours Monday-Friday: 9:30 AM-6:00 PM, Saturday: 8:30 AM-5:00 PM, Sunday: 11:00 AM-3:00 PM, Storage Gate Hours Monday-Sunday: 6:00 AM-10:00 PM",,,
,,8525 West Flamingo Road,,Las Vegas,NV,89147,United States,702-256-7545,,,"Office Hours Monday-Friday: 9:30 AM-6:00 PM, Saturday: 8:30 AM-5:00 PM, Sunday: 11:00 AM-3:00 PM, Storage Gate Hours Monday-Sunday: 6:00 AM-10:00 PM",,,
,,7370 West Cheyenne Avenue,,Las Vegas,NV,89129,United States,702-395-0360,,,"Office Hours Monday-Friday: 9:30 AM-6:00 PM, Saturday: 8:30 AM-5:00 PM, Sunday: 11:00 AM-3:00 PM, Storage Gate Hours Monday-Sunday: 6:00 AM-10:00 PM",,,
,,8250 South Maryland Parkway,,Las Vegas,NV,89123,United States,702-492-6200,,,"Office Hours Monday-Friday: 9:30 AM-6:00 PM, Saturday: 8:30 AM-5:00 PM, Sunday: 11:00 AM-3:00 PM, Storage Gate Hours Monday-Sunday: 6:00 AM-10:00 PM",,,
,,2990 South Durango Drive,,Las Vegas,NV,89117,United States,702-363-5900,,,"Office Hours Monday-Friday: 9:30 AM-6:00 PM, Saturday: 8:30 AM-5:00 PM, Sunday: 11:00 AM-3:00 PM, Storage Gate Hours Monday-Sunday: 6:00 AM-10:00 PM",,,
,,7025 Kit Kat Road,,Elkridge,MD,21075,United States,410-799-5400,,,"Office Hours Monday-Friday: 9:30 AM-6:00 PM, Saturday: 8:30 AM-5:00 PM, Sunday: 11:00 AM-3:00 PM, Storage Gate Hours Monday-Sunday: 6:00 AM-10:00 PM",,,
,,4490 East Lake Mead Boulevard,,Las Vegas,NV,89115,United States,702-459-6646,,,"Office Hours Monday-Friday: 9:30 AM-6:00 PM, Saturday: 8:30 AM-5:00 PM, Sunday: 11:00 AM-3:00 PM, Storage Gate Hours Monday-Sunday: 6:00 AM-10:00 PM",,,
,,211 East Pleasant Street,,Baltimore,MD,21202,United States,410-685-7170,,,"Office Hours Monday-Friday: 9:30 AM-6:00 PM, Saturday: 8:30 AM-5:00 PM, Sunday: 11:00 AM-3:00 PM, Storage Gate Hours Monday-Friday: 9:30 AM-6:00 PM, Saturday: 8:30 AM-5:00 PM, Sunday: 11:00 AM-3:00 PM",,,
,,968 Massachusetts Avenue,,Boston,MA,02118,United States,617-541-5600,,,"Office Hours Monday-Friday: 9:30 AM-6:00 PM, Saturday: 8:30 AM-5:00 PM, Sunday: 11:00 AM-3:00 PM, Storage Gate Hours Monday-Sunday: 6:00 AM-10:00 PM",,,
,,150 William F Mcclellan Highway,,Boston,MA,02128,United States,617-568-0009,,,"Office Hours Monday-Friday: 9:30 AM-6:00 PM, Saturday: 8:30 AM-5:00 PM, Sunday: 11:00 AM-3:00 PM, Storage Gate Hours Monday-Sunday: 6:00 AM-10:00 PM",,,
,,55 Commercial Street,,Medford,MA,02155,United States,781-391-1155,,,"Office Hours Monday-Friday: 9:30 AM-6:00 PM, Saturday: 8:30 AM-5:00 PM, Sunday: 11:00 AM-3:00 PM, Storage Gate Hours Monday-Sunday: 6:00 AM-10:00 PM",,,
,,3360 North Las Vegas Boulevard,,Las Vegas,NV,89115,United States,702-644-1101,,,"Office Hours Monday-Sunday: 9:00 AM-7:00 PM, Storage Gate Hours Monday-Sunday: 9:00 AM-7:00 PM",,,
,,7059 South Kenton Street,,Centennial,CO,80112,United States,303-799-4300,,,"Office Hours Monday-Friday: 9:30 AM-6:00 PM, Saturday: 8:30 AM-5:00 PM, Sunday: 11:00 AM-3:00 PM, Storage Gate Hours Monday-Sunday: 6:00 AM-10:00 PM",,,
,,7650 South Broadway,,Littleton,CO,80122,United States,303-798-8078,,,"Office Hours Monday-Friday: 9:30 AM-6:00 PM, Saturday: 8:30 AM-5:00 PM, Sunday: 11:00 AM-3:00 PM, Storage Gate Hours Monday-Sunday: 6:00 AM-10:00 PM",,,
,,2645 South Nellis Boulevard,,Las Vegas,NV,89121,United States,702-431-1704,,,"Office Hours Monday-Friday: 9:30 AM-6:00 PM, Saturday: 8:30 AM-5:00 PM, Sunday: 11:00 AM-3:00 PM, Storage Gate Hours Monday-Sunday: 6:00 AM-10:00 PM",,,
,,11402 Cherokee Street,,Northglenn,CO,80234,United States,303-451-0585,,,"Office Hours Monday-Friday: 9:30 AM-6:00 PM, Saturday: 8:30 AM-5:00 PM, Sunday: 11:00 AM-3:00 PM, Storage Gate Hours Monday-Sunday: 6:00 AM-10:00 PM",,,
,,5353 East County Line Road,,Littleton,CO,80122,United States,303-740-6042,,,"Office Hours Monday-Friday: 9:30 AM-6:00 PM, Saturday: 8:30 AM-5:00 PM, Sunday: 11:00 AM-3:00 PM, Storage Gate Hours Monday-Sunday: 6:00 AM-10:00 PM",,,
,,1200 Upshur Street Northwest,,Washington,DC,20011,United States,202-541-1555,,,"Office Hours Monday-Friday: 9:30 AM-6:00 PM, Saturday: 8:30 AM-5:00 PM, Sunday: 11:00 AM-3:00 PM, Storage Gate Hours Monday-Sunday: 6:00 AM-10:00 PM",,,
,,1540 Altura Boulevard,,Aurora,CO,80011,United States,303-343-4020,,,"Office Hours Monday-Friday: 9:30 AM-6:00 PM, Saturday: 8:30 AM-5:00 PM, Sunday: Closed, Storage Gate Hours Monday-Sunday: 6:00 AM-10:00 PM",,,
,,15413 East 18th Avenue,,Aurora,CO,80011,United States,303-344-2429,,,"Office Hours Monday-Friday: 9:30 AM-6:00 PM, Saturday: 8:30 AM-5:00 PM, Sunday: 11:00 AM-3:00 PM, Storage Gate Hours Monday-Sunday: 6:00 AM-10:00 PM",,,
,,8444 North Pecos Street,,Federal Heights,CO,80260,United States,303-426-8314,,,"Office Hours Monday-Friday: 9:30 AM-6:00 PM, Saturday: 8:30 AM-5:00 PM, Sunday: 11:00 AM-3:00 PM, Storage Gate Hours Monday-Sunday: 6:00 AM-10:00 PM",,,
,,4120 South Federal Boulevard,,Englewood,CO,80110,United States,303-789-9585,,,"Office Hours Monday-Friday: 9:30 AM-6:00 PM, Saturday: 8:30 AM-5:00 PM, Sunday: 11:00 AM-3:00 PM, Storage Gate Hours Monday-Sunday: 6:00 AM-10:00 PM",,,
,,16845 Mount Vernon Road,,Golden,CO,80401,United States,303-277-1658,,,"Office Hours Monday-Friday: 9:30 AM-6:00 PM, Saturday: 8:30 AM-5:00 PM, Sunday: 11:00 AM-3:00 PM, Storage Gate Hours Monday-Sunday: 6:00 AM-10:00 PM",,,
,,1800 South Chambers Road,,Aurora,CO,80017,United States,303-696-2020,,,"Office Hours Monday-Friday: 9:30 AM-6:00 PM, Saturday: 8:30 AM-5:00 PM, Sunday: 11:00 AM-3:00 PM, Storage Gate Hours Monday-Sunday: 6:00 AM-10:00 PM",,,
,,2125 South Valentia Street,,Denver,CO,80231,United States,303-745-0218,,,"Office Hours Monday-Friday: 9:30 AM-6:00 PM, Saturday: 8:30 AM-5:00 PM, Sunday: Closed, Storage Gate Hours Monday-Sunday: 6:00 AM-10:00 PM",,,
,,8930 East Hampden Avenue,,Denver,CO,80231,United States,303-342-5888,,,"Office Hours Monday-Friday: 9:30 AM-6:00 PM, Saturday: 8:30 AM-5:00 PM, Sunday: 11:00 AM-3:00 PM, Storage Gate Hours Monday-Sunday: 6:00 AM-10:00 PM",,,
,,380 E Street,,Boston,MA,02127,United States,617-268-8900,,,"Office Hours Monday-Friday: 9:30 AM-6:00 PM, Saturday: 8:30 AM-5:00 PM, Sunday: 11:00 AM-3:00 PM, Storage Gate Hours Monday-Sunday: 6:00 AM-10:00 PM",,,
,,1733 South Wadsworth Boulevard,,Denver,CO,80232,United States,303-989-6330,,,"Office Hours Monday-Friday: 9:30 AM-6:00 PM, Saturday: 8:30 AM-5:00 PM, Sunday: 11:00 AM-3:00 PM, Storage Gate Hours Monday-Sunday: 6:00 AM-10:00 PM",,,
,,1390 South Valentia Street,,Denver,CO,80247,United States,303-368-0334,,,"Office Hours Monday-Friday: 9:30 AM-6:00 PM, Saturday: 8:30 AM-5:00 PM, Sunday: 11:00 AM-3:00 PM, Storage Gate Hours Monday-Sunday: 6:00 AM-10:00 PM",,,
,,3800 Monaco Parkway,,Denver,CO,80207,United States,720-390-8397,,,"Office Hours Monday-Friday: 9:30 AM-6:00 PM, Saturday: 8:30 AM-5:00 PM, Sunday: 11:00 AM-3:00 PM, Storage Gate Hours Monday-Sunday: 6:00 AM-10:00 PM",,,
,,4005 Grape Street,,Denver,CO,80216,United States,720-388-1102,,,"Office Hours Monday-Friday: 9:30 AM-6:00 PM, Saturday: 8:30 AM-5:00 PM, Sunday: 11:00 AM-3:00 PM, Storage Gate Hours Monday-Sunday: 6:00 AM-10:00 PM",,,
,,5885 West Colfax Avenue,,Lakewood,CO,80214,United States,303-232-3200,,,"Office Hours Monday-Friday: 9:30 AM-6:00 PM, Saturday: 8:30 AM-5:00 PM, Sunday: 11:00 AM-3:00 PM, Storage Gate Hours Monday-Sunday: 6:00 AM-10:00 PM",,,
,,3270 Blake Street,,Denver,CO,80205,United States,720-961-2443,,,"Office Hours Monday-Friday: 9:30 AM-6:00 PM, Saturday: 8:30 AM-5:00 PM, Sunday: 11:00 AM-3:00 PM, Storage Gate Hours Monday-Sunday: 6:00 AM-10:00 PM",,,
,,500 Providence Highway,,Walpole,MA,02081,United States,508-668-4444,,,"Office Hours Monday-Friday: 9:30 AM-6:00 PM, Saturday: 8:30 AM-5:00 PM, Sunday: 11:00 AM-3:00 PM, Storage Gate Hours Monday-Sunday: 6:00 AM-10:00 PM",,,
,,1699 South Broadway,,Denver,CO,80210,United States,303-733-3300,,,"Office Hours Monday-Friday: 9:30 AM-6:00 PM, Saturday: 8:30 AM-5:00 PM, Sunday: 11:00 AM-3:00 PM, Storage Gate Hours Monday-Sunday: 6:00 AM-10:00 PM",,,
,,316 Martingale Drive,,Old Hickory,TN,37138,United States,615-847-7490,,,"Office Hours Monday-Friday: 9:30 AM-6:00 PM, Saturday: 8:30 AM-5:00 PM, Sunday: 11:00 AM-3:00 PM, Storage Gate Hours Monday-Sunday: 6:00 AM-10:00 PM",,,
,,1202 Antioch Pike,,Nashville,TN,37211,United States,615-833-3532,,,"Office Hours Monday-Friday: 9:30 AM-6:00 PM, Saturday: 8:30 AM-5:00 PM, Sunday: 11:00 AM-3:00 PM, Storage Gate Hours Monday-Sunday: 6:00 AM-10:00 PM",,,
,,6790 Federal Boulevard,,Denver,CO,80221,United States,303-650-2277,,,"Office Hours Monday-Friday: 9:30 AM-6:00 PM, Saturday: 8:30 AM-5:00 PM, Sunday: 11:00 AM-3:00 PM, Storage Gate Hours Monday-Sunday: 6:00 AM-10:00 PM",,,
,,4815 Trousdale Drive,,Nashville,TN,37220,United States,615-331-2100,,,"Office Hours Monday-Friday: 9:30 AM-6:00 PM, Saturday: 8:30 AM-5:00 PM, Sunday: 11:00 AM-3:00 PM, Storage Gate Hours Monday-Sunday: 6:00 AM-10:00 PM",,,
,,2825 Lebanon Pike Road,,Nashville,TN,37214,United States,615-885-5045,,,"Office Hours Monday-Friday: 9:30 AM-6:00 PM, Saturday: 8:30 AM-5:00 PM, Sunday: 11:00 AM-3:00 PM, Storage Gate Hours Monday-Sunday: 6:00 AM-10:00 PM",,,
,,1058 Murfreesboro Pike,,Nashville,TN,37217,United States,615-366-6000,,,"Office Hours Monday-Friday: 9:30 AM-6:00 PM, Saturday: 8:30 AM-5:00 PM, Sunday: 11:00 AM-3:00 PM, Storage Gate Hours Monday-Sunday: 6:00 AM-10:00 PM",,,
,,3300 John Mallette Drive,,Nashville,TN,37218,United States,615-242-1820,,,"Office Hours Monday-Friday: 9:30 AM-6:00 PM, Saturday: 8:30 AM-5:00 PM, Sunday: 11:00 AM-3:00 PM, Storage Gate Hours Monday-Sunday: 6:00 AM-10:00 PM",,,
,,2426 Brick Church Pike,,Nashville,TN,37207,United States,615-262-9030,,,"Office Hours Monday-Friday: 9:30 AM-6:00 PM, Saturday: 8:30 AM-5:00 PM, Sunday: 11:00 AM-3:00 PM, Storage Gate Hours Monday-Sunday: 6:00 AM-10:00 PM",,,
,,5201 North Mesa Street,,El Paso,TX,79912,United States,915-584-1784,,,"Office Hours Monday-Friday: 9:30 AM-6:00 PM, Saturday: 8:30 AM-5:00 PM, Sunday: 11:00 AM-3:00 PM, Storage Gate Hours Monday-Sunday: 6:00 AM-10:00 PM",,,
,,10642 Montana Avenue,,El Paso,TX,79935,United States,915-591-0091,,,"Office Hours Monday-Friday: 9:30 AM-6:00 PM, Saturday: 8:30 AM-5:00 PM, Sunday: 11:00 AM-3:00 PM, Storage Gate Hours Monday-Sunday: 6:00 AM-10:00 PM",,,
,,301 North Clark Drive,,El Paso,TX,79905,United States,915-779-5330,,,"Office Hours Monday-Friday: 9:30 AM-6:00 PM, Saturday: 8:30 AM-5:00 PM, Sunday: 11:00 AM-3:00 PM, Storage Gate Hours Monday-Sunday: 6:00 AM-10:00 PM",,,
,,5916 Robertson Avenue,,Nashville,TN,37209,United States,615-353-8700,,,"Office Hours Monday-Friday: 9:30 AM-6:00 PM, Saturday: 8:30 AM-5:00 PM, Sunday: 11:00 AM-3:00 PM, Storage Gate Hours Monday-Sunday: 6:00 AM-10:00 PM",,,
,,1300 West Nickerson Street,,Seattle,WA,98119,United States,206-285-5800,,,"Office Hours Monday-Saturday: 9:00 AM-7:00 PM, Sunday: 9:00 AM-6:00 PM, Storage Gate Hours Monday-Saturday: 8:00 AM-7:00 PM, Sunday: 9:00 AM-6:00 PM",,,
,,10303 East Warren Avenue,,Denver,CO,80247,United States,303-751-9702,,,"Office Hours Monday-Friday: 9:30 AM-6:00 PM, Saturday: 8:30 AM-5:00 PM, Sunday: 11:00 AM-3:00 PM, Storage Gate Hours Monday-Sunday: 6:00 AM-10:00 PM",,,
,,8361 East Broadway Boulevard,,Tucson,AZ,85710,United States,520-721-0640,,,"Office Hours Monday-Friday: 9:30 AM-6:00 PM, Saturday: 8:30 AM-5:00 PM, Sunday: 11:00 AM-3:00 PM, Storage Gate Hours Monday-Sunday: 6:00 AM-10:00 PM",,,
,,2828 West 5th Street,,Santa Ana,CA,92703,United States,714-542-3866,,,"Office Hours Monday-Friday: 9:30 AM-6:00 PM, Saturday: 8:30 AM-5:00 PM, Sunday: 11:00 AM-3:00 PM, Storage Gate Hours Monday-Sunday: 6:00 AM-10:00 PM",,,
,,9360 Greenback Lane,,Orangevale,CA,95662,United States,916-988-9158,,,"Office Hours Monday-Friday: 9:30 AM-6:00 PM, Saturday: 8:30 AM-5:00 PM, Sunday: 11:00 AM-3:00 PM, Storage Gate Hours Monday-Sunday: 6:00 AM-10:00 PM",,,
,,900 Orlando Avenue,,Roseville,CA,95661,United States,916-782-7997,,,"Office Hours Monday-Friday: 9:30 AM-6:00 PM, Saturday: 8:30 AM-5:00 PM, Sunday: 11:00 AM-3:00 PM, Storage Gate Hours Monday-Sunday: 6:00 AM-10:00 PM",,,
,,7562 Greenback Lane,,Citrus Heights,CA,95610,United States,916-721-5400,,,"Office Hours Monday-Friday: 9:30 AM-6:00 PM, Saturday: 8:30 AM-5:00 PM, Sunday: 11:00 AM-3:00 PM, Storage Gate Hours Monday-Sunday: 6:00 AM-10:00 PM",,,
,,10651 White Rock Road,,Rancho Cordova,CA,95670,United States,916-635-3864,,,"Office Hours Monday-Friday: 9:30 AM-6:00 PM, Saturday: 8:30 AM-5:00 PM, Sunday: 11:00 AM-3:00 PM, Storage Gate Hours Monday-Sunday: 6:00 AM-10:00 PM",,,
,,3680 West Orange Grove Road,,Tucson,AZ,85741,United States,520-297-7932,,,"Office Hours Monday-Friday: 9:30 AM-6:00 PM, Saturday: 8:30 AM-5:00 PM, Sunday: 11:00 AM-3:00 PM, Storage Gate Hours Monday-Sunday: 6:00 AM-10:00 PM",,,
,,5180 Peachtree Industrial Boulevard,,Norcross,GA,30071,United States,770-416-8330,,,"Office Hours Monday-Friday: 9:30 AM-6:00 PM, Saturday: 8:30 AM-5:00 PM, Sunday: 11:00 AM-3:00 PM, Storage Gate Hours Monday-Sunday: 6:00 AM-10:00 PM",,,
,,17635 East Riggs Road,,Queen Creek,AZ,85142,United States,480-409-4900,,,"Office Hours Monday-Friday: 9:30 AM-6:00 PM, Saturday: 8:30 AM-5:00 PM, Sunday: 11:00 AM-3:00 PM, Storage Gate Hours Monday-Sunday: 6:00 AM-10:00 PM",,,
,,425 Swiss Avenue,,Nashville,TN,37211,United States,615-331-5559,,,"Office Hours Monday-Friday: 9:30 AM-6:00 PM, Saturday: 8:30 AM-5:00 PM, Sunday: 11:00 AM-3:00 PM, Storage Gate Hours Monday-Sunday: 6:00 AM-10:00 PM",,,
,,2757 Murfreesboro Road,,Antioch,TN,37013,United States,615-361-7867,,,"Office Hours Monday-Friday: 9:30 AM-6:00 PM, Saturday: 8:30 AM-5:00 PM, Sunday: 11:00 AM-3:00 PM, Storage Gate Hours Monday-Sunday: 6:00 AM-10:00 PM",,,
,,11001 Cayden Terrace,,Raleigh,NC,27614,United States,984-444-6200,,,"Office Hours Monday-Friday: 9:30 AM-6:00 PM, Saturday: 8:30 AM-5:00 PM, Sunday: 11:00 AM-3:00 PM, Storage Gate Hours Monday-Sunday: 6:00 AM-10:00 PM",,,
,,950 Trinity Road,,Raleigh,NC,27607,United States,919-233-0431,,,"Office Hours Monday-Friday: 9:30 AM-6:00 PM, Saturday: 8:30 AM-5:00 PM, Sunday: 11:00 AM-3:00 PM, Storage Gate Hours Monday-Sunday: 6:00 AM-10:00 PM",,,
,,380 East Garden Of The Gods Road,,Colorado Springs,CO,80907,United States,719-599-8717,,,"Office Hours Monday-Friday: 9:30 AM-6:00 PM, Saturday: 8:30 AM-5:00 PM, Sunday: 11:00 AM-3:00 PM, Storage Gate Hours Monday-Sunday: 6:00 AM-10:00 PM",,,
,,3467 East Queen Creek Road,,Gilbert,AZ,85297,United States,480-558-1000,,,"Office Hours Monday-Friday: 9:30 AM-6:00 PM, Saturday: 8:30 AM-5:00 PM, Sunday: 11:00 AM-3:00 PM, Storage Gate Hours Monday-Sunday: 6:00 AM-10:00 PM",,,
,,11801 Montgomery Boulevard,,Albuquerque,NM,87111,United States,505-293-2482,,,"Office Hours Monday-Friday: 9:30 AM-6:00 PM, Saturday: 8:30 AM-5:00 PM, Sunday: 11:00 AM-3:00 PM, Storage Gate Hours Monday-Sunday: 6:00 AM-10:00 PM",,,
,,920 West Chatham Street,,Cary,NC,27511,United States,919-469-8989,,,"Office Hours Monday-Friday: 9:30 AM-6:00 PM, Saturday: 8:30 AM-5:00 PM, Sunday: 11:00 AM-3:00 PM, Storage Gate Hours Monday-Sunday: 6:00 AM-10:00 PM",,,
,,3345 Medlock Bridge Road,,Peachtree Corners,GA,30092,United States,770-729-8500,,,"Office Hours Monday-Friday: 9:30 AM-6:00 PM, Saturday: 8:30 AM-5:00 PM, Sunday: 11:00 AM-3:00 PM, Storage Gate Hours Monday-Sunday: 6:00 AM-10:00 PM",,,
,,1636 Lee Road,,Lithia Springs,GA,30122,United States,678-574-2363,,,"Office Hours Monday-Friday: 9:30 AM-6:00 PM, Saturday: 8:30 AM-5:00 PM, Sunday: 11:00 AM-3:00 PM, Storage Gate Hours Monday-Sunday: 6:00 AM-10:00 PM",,,
,,2310 South Circle Drive,,Colorado Springs,CO,80910,United States,719-577-4949,,,"Office Hours Monday-Friday: 9:30 AM-6:00 PM, Saturday: 8:30 AM-5:00 PM, Sunday: 11:00 AM-3:00 PM, Storage Gate Hours Monday-Sunday: 6:00 AM-10:00 PM",,,
,,340 Franklin Gateway Southeast,,Marietta,GA,30067,United States,770-795-9685,,,"Office Hours Monday-Friday: 9:30 AM-6:00 PM, Saturday: 8:30 AM-5:00 PM, Sunday: 11:00 AM-3:00 PM, Storage Gate Hours Monday-Sunday: 6:00 AM-10:00 PM",,,
,,5985 South Norcross Tucker Road,,Norcross,GA,30093,United States,770-441-1859,,,"Office Hours Monday-Friday: 9:30 AM-6:00 PM, Saturday: 8:30 AM-5:00 PM, Sunday: 11:00 AM-3:00 PM, Storage Gate Hours Monday-Sunday: 6:00 AM-10:00 PM",,,
,,4950 Watt Avenue,,North Highlands,CA,95660,United States,916-338-1609,,,"Office Hours Monday-Friday: 9:30 AM-6:00 PM, Saturday: 8:30 AM-5:00 PM, Sunday: 11:00 AM-3:00 PM, Storage Gate Hours Monday-Sunday: 6:00 AM-10:00 PM",,,
,,1820 Marietta Boulevard Northwest,,Atlanta,GA,30318,United States,404-351-5551,,,"Office Hours Monday-Friday: 9:30 AM-6:00 PM, Saturday: 8:30 AM-5:00 PM, Sunday: 11:00 AM-3:00 PM, Storage Gate Hours Monday-Sunday: 6:00 AM-10:00 PM",,,
,,7245 55th Street,,Sacramento,CA,95823,United States,916-422-6043,,,"Office Hours Monday-Friday: 9:30 AM-6:00 PM, Saturday: 8:30 AM-5:00 PM, Sunday: 11:00 AM-3:00 PM, Storage Gate Hours Monday-Sunday: 6:00 AM-10:00 PM",,,
,,541 Harbor Boulevard,,West Sacramento,CA,95691,United States,916-371-6882,,,"Office Hours Monday-Friday: 9:30 AM-6:00 PM, Saturday: 8:30 AM-5:00 PM, Sunday: 11:00 AM-3:00 PM, Storage Gate Hours Monday-Sunday: 6:00 AM-10:00 PM",,,
,,2620 Florin Road,,Sacramento,CA,95822,United States,916-392-3485,,,"Office Hours Monday-Friday: 9:30 AM-6:00 PM, Saturday: 8:30 AM-5:00 PM, Sunday: 11:00 AM-3:00 PM, Storage Gate Hours Monday-Sunday: 6:00 AM-10:00 PM",,,
,,775 North 16th Street,,Sacramento,CA,95811,United States,916-441-2808,,,"Office Hours Monday-Friday: 9:30 AM-6:00 PM, Saturday: 8:30 AM-5:00 PM, Sunday: 11:00 AM-3:00 PM, Storage Gate Hours Monday-Sunday: 6:00 AM-10:00 PM",,,
,,6491 Maple Avenue,,Westminster,CA,92683,United States,714-891-2558,,,"Office Hours Monday-Friday: 9:30 AM-6:00 PM, Saturday: 8:30 AM-5:00 PM, Sunday: 11:00 AM-3:00 PM, Storage Gate Hours Monday-Sunday: 6:00 AM-10:00 PM",,,
,,975 South Prudence Road,,Tucson,AZ,85710,United States,520-885-8031,,,"Office Hours Monday-Friday: 9:30 AM-6:00 PM, Saturday: 8:30 AM-5:00 PM, Sunday: 11:00 AM-3:00 PM, Storage Gate Hours Monday-Sunday: 6:00 AM-10:00 PM",,,
,,7070 East Speedway Boulevard,,Tucson,AZ,85710,United States,520-886-7461,,,"Office Hours Monday-Friday: 9:30 AM-6:00 PM, Saturday: 8:30 AM-5:00 PM, Sunday: 11:00 AM-3:00 PM, Storage Gate Hours Monday-Sunday: 6:00 AM-10:00 PM",,,
,,5550 South Palo Verde Road,,Tucson,AZ,85706,United States,520-746-3216,,,"Office Hours Monday-Friday: 9:30 AM-6:00 PM, Saturday: 8:30 AM-5:00 PM, Sunday: 11:00 AM-3:00 PM, Storage Gate Hours Monday-Sunday: 6:00 AM-10:00 PM",,,
,,4931 Ashford Dunwoody Road,,Dunwoody,GA,30338,United States,770-396-9696,,,"Office Hours Monday-Friday: 9:30 AM-6:00 PM, Saturday: 8:30 AM-5:00 PM, Sunday: 11:00 AM-3:00 PM, Storage Gate Hours Monday-Sunday: 6:00 AM-10:00 PM",,,
,,2855 South Pantano Road,,Tucson,AZ,85730,United States,520-886-8365,,,"Office Hours Monday-Friday: 9:30 AM-6:00 PM, Saturday: 8:30 AM-5:00 PM, Sunday: 11:00 AM-3:00 PM, Storage Gate Hours Monday-Sunday: 6:00 AM-10:00 PM",,,
,,3899 North Oracle Road,,Tucson,AZ,85705,United States,520-888-2248,,,"Office Hours Monday-Friday: 9:30 AM-6:00 PM, Saturday: 8:30 AM-5:00 PM, Sunday: 11:00 AM-3:00 PM, Storage Gate Hours Monday-Sunday: 6:00 AM-10:00 PM",,,
,,519 East Prince Road,,Tucson,AZ,85705,United States,520-888-8371,,,"Office Hours Monday-Friday: 9:30 AM-6:00 PM, Saturday: 8:30 AM-5:00 PM, Sunday: 11:00 AM-3:00 PM, Storage Gate Hours Monday-Sunday: 6:00 AM-10:00 PM",,,
,,4771 South Atlanta Road Southeast,,Atlanta,GA,30339,United States,404-351-5560,,,"Office Hours Monday-Friday: 9:30 AM-6:00 PM, Saturday: 8:30 AM-5:00 PM, Sunday: 11:00 AM-3:00 PM, Storage Gate Hours Monday-Sunday: 6:00 AM-10:00 PM",,,
,,3831 Redwing Circle,,Decatur,GA,30032,United States,404-284-5459,,,"Office Hours Monday-Friday: 9:30 AM-6:00 PM, Saturday: 8:30 AM-5:00 PM, Sunday: 11:00 AM-3:00 PM, Storage Gate Hours Monday-Sunday: 6:00 AM-10:00 PM",,,
,,2545 South 6th Avenue,,Tucson,AZ,85713,United States,520-884-5131,,,"Office Hours Monday-Friday: 9:30 AM-6:00 PM, Saturday: 8:30 AM-5:00 PM, Sunday: 11:00 AM-3:00 PM, Storage Gate Hours Monday-Sunday: 6:00 AM-10:00 PM",,,
,,201 South Plumer Avenue,,Tucson,AZ,85719,United States,520-623-9092,,,"Office Hours Monday-Friday: 9:30 AM-6:00 PM, Saturday: 8:30 AM-5:00 PM, Sunday: 11:00 AM-3:00 PM, Storage Gate Hours Monday-Sunday: 6:00 AM-10:00 PM",,,
,,3766 Holcomb Bridge Road,,Norcross,GA,30092,United States,770-734-9300,,,"Office Hours Monday-Friday: 9:30 AM-6:00 PM, Saturday: 8:30 AM-5:00 PM, Sunday: 11:00 AM-3:00 PM, Storage Gate Hours Monday-Sunday: 6:00 AM-10:00 PM",,,
,,3265 East Speedway,,Tucson,AZ,85716,United States,520-327-8700,,,"Office Hours Monday-Friday: 9:30 AM-6:00 PM, Saturday: 8:30 AM-5:00 PM, Sunday: 11:00 AM-3:00 PM, Storage Gate Hours Monday-Sunday: 6:00 AM-10:00 PM",,,
,,6150 Leetsdale Drive,,Denver,CO,80224,United States,303-333-7867,,,"Office Hours Monday-Friday: 9:30 AM-6:00 PM, Saturday: 8:30 AM-5:00 PM, Sunday: 11:00 AM-3:00 PM, Storage Gate Hours Monday-Sunday: 6:00 AM-10:00 PM",,,
,,3595 Old Anderson Farm Road Southwest,,Austell,GA,30106,United States,678-567-0400,,,"Office Hours Monday-Friday: 9:30 AM-6:00 PM, Saturday: 8:30 AM-5:00 PM, Sunday: 11:00 AM-3:00 PM, Storage Gate Hours Monday-Sunday: 6:00 AM-10:00 PM",,,
,,2001 Girard Boulevard Southeast,,Albuquerque,NM,87106,United States,505-247-9841,,,"Office Hours Monday-Friday: 9:30 AM-6:00 PM, Saturday: 8:30 AM-5:00 PM, Sunday: 11:00 AM-3:00 PM, Storage Gate Hours Monday-Sunday: 6:00 AM-10:00 PM",,,
,,14706 East 4th Avenue,,Aurora,CO,80011,United States,303-341-1449,,,"Office Hours Monday-Friday: 9:30 AM-6:00 PM, Saturday: 8:30 AM-5:00 PM, Sunday: 11:00 AM-3:00 PM, Storage Gate Hours Monday-Sunday: 6:00 AM-10:00 PM",,,
,,7901 Glenwood Avenue,,Raleigh,NC,27612,United States,919-578-8880,,,"Office Hours Monday-Friday: 9:30 AM-6:00 PM, Saturday: 8:30 AM-5:30 PM, Sunday: 11:00 AM-3:00 PM, Storage Gate Hours Monday-Sunday: 6:00 AM-10:00 PM",,,
,,7440 Central Avenue Southeast,,Albuquerque,NM,87108,United States,505-268-7233,,,"Office Hours Monday-Friday: 9:30 AM-6:00 PM, Saturday: 8:30 AM-5:00 PM, Sunday: 11:00 AM-3:00 PM, Storage Gate Hours Monday-Sunday: 6:00 AM-10:00 PM",,,
,,3300 Park Road,,Benicia,CA,94510,United States,707-747-1730,,,"Office Hours Monday-Friday: 9:30 AM-6:00 PM, Saturday: 8:30 AM-5:00 PM, Sunday: 11:00 AM-3:00 PM, Storage Gate Hours Monday-Sunday: 6:00 AM-10:00 PM",,,
,,4080 Ravenswood Road,,Dania,FL,33312,United States,954-587-7766,,,"Office Hours Monday-Friday: 9:30 AM-6:00 PM, Saturday: 8:30 AM-5:00 PM, Sunday: 11:00 AM-3:00 PM, Storage Gate Hours Monday-Sunday: 6:00 AM-10:00 PM",,,
,,15910 Pearl Road,,Strongsville,OH,44136,United States,440-572-0173,,,"Office Hours Monday-Friday: 9:30 AM-6:00 PM, Saturday: 8:30 AM-5:00 PM, Sunday: 11:00 AM-3:00 PM, Storage Gate Hours Monday-Sunday: 6:00 AM-10:00 PM",,,
,,1240 West 98th Street,,Bloomington,MN,55431,United States,952-888-0825,,,"Office Hours Monday-Friday: 9:30 AM-6:00 PM, Saturday: 8:30 AM-5:00 PM, Sunday: 11:00 AM-3:00 PM, Storage Gate Hours Monday-Sunday: 6:00 AM-10:00 PM",,,
,,24000 Lorain Road,,North Olmsted,OH,44070,United States,440-734-7548,,,"Office Hours Monday-Friday: 9:30 AM-6:00 PM, Saturday: 8:30 AM-5:00 PM, Sunday: 11:00 AM-3:00 PM, Storage Gate Hours Monday-Sunday: 6:00 AM-10:00 PM",,,
,,6801 Engle Road,,Middleburg Heights,OH,44130,United States,440-234-8900,,,"Office Hours Monday-Friday: 9:30 AM-6:00 PM, Saturday: 8:30 AM-5:00 PM, Sunday: 11:00 AM-3:00 PM, Storage Gate Hours Monday-Sunday: 6:00 AM-10:00 PM",,,
,,8135 Watt Avenue,,Antelope,CA,95843,United States,916-349-2000,,,"Office Hours Monday-Friday: 9:30 AM-6:00 PM, Saturday: 8:30 AM-5:00 PM, Sunday: 11:00 AM-3:00 PM, Storage Gate Hours Monday-Sunday: 6:00 AM-10:00 PM",,,
,,4720 Warrensville Center Road,,North Randall,OH,44128,United States,216-587-5382,,,"Office Hours Monday-Friday: 9:30 AM-6:00 PM, Saturday: 8:30 AM-5:00 PM, Sunday: 11:00 AM-3:00 PM, Storage Gate Hours Monday-Sunday: 6:00 AM-10:00 PM",,,
,,1324 Hird Avenue,,Lakewood,OH,44107,United States,216-228-8180,,,"Office Hours Monday-Friday: 9:30 AM-6:00 PM, Saturday: 8:30 AM-5:00 PM, Sunday: 11:00 AM-3:00 PM, Storage Gate Hours Monday-Sunday: 6:00 AM-10:00 PM",,,
,,275 South Prospectors Drive,,Diamond Bar,CA,91765,United States,909-860-3660,,,"Office Hours Monday-Friday: 9:30 AM-6:00 PM, Saturday: 8:30 AM-5:00 PM, Sunday: 11:00 AM-3:00 PM, Storage Gate Hours Monday-Sunday: 6:00 AM-10:00 PM",,,
,,24360 Sperry Drive,,Westlake,OH,44145,United States,440-808-9800,,,"Office Hours Monday-Friday: 9:30 AM-6:00 PM, Saturday: 8:30 AM-5:00 PM, Sunday: 11:00 AM-3:00 PM, Storage Gate Hours Monday-Sunday: 6:00 AM-10:00 PM",,,
,,301 South Lemon Creek Drive,,Walnut,CA,91789,United States,909-595-0460,,,"Office Hours Monday-Friday: 9:30 AM-6:00 PM, Saturday: 8:30 AM-5:00 PM, Sunday: 11:00 AM-3:00 PM, Storage Gate Hours Monday-Sunday: 6:00 AM-10:00 PM",,,
,,10645 Leuer Avenue,,Cleveland,OH,44108,United States,216-451-5151,,,"Office Hours Monday-Friday: 9:30 AM-6:00 PM, Saturday: 8:30 AM-5:00 PM, Sunday: 11:00 AM-3:00 PM, Storage Gate Hours Monday-Sunday: 6:00 AM-10:00 PM",,,
,,23711 Miles Road,,Warrensville Heights,OH,44128,United States,216-663-1842,,,"Office Hours Monday-Friday: 9:30 AM-6:00 PM, Saturday: 8:30 AM-5:00 PM, Sunday: 11:00 AM-3:00 PM, Storage Gate Hours Monday-Sunday: 6:00 AM-10:00 PM",,,
,,31100 US Highway 19 North,,Palm Harbor,FL,34684,United States,727-784-5800,,,"Office Hours Monday-Friday: 9:30 AM-6:00 PM, Saturday: 8:30 AM-5:00 PM, Sunday: 11:00 AM-3:00 PM, Storage Gate Hours Monday-Sunday: 6:00 AM-10:00 PM",,,
,,3915 Green River Road,,Corona,CA,92880,United States,951-735-8000,,,"Office Hours Monday-Friday: 9:30 AM-6:00 PM, Saturday: 8:30 AM-5:00 PM, Sunday: 11:00 AM-3:00 PM, Storage Gate Hours Monday-Sunday: 6:00 AM-10:00 PM",,,
,,7401 Lapalco Boulevard,,Marrero,LA,70072,United States,504-340-1118,,,"Office Hours Monday-Friday: 9:30 AM-6:00 PM, Saturday: 8:30 AM-5:00 PM, Sunday: 11:00 AM-3:00 PM, Storage Gate Hours Monday-Sunday: 6:00 AM-10:00 PM",,,
,,2520 Destrehan Avenue,,Harvey,LA,70058,United States,504-322-3979,,,"Office Hours Monday-Friday: 9:30 AM-6:00 PM, Saturday: 8:30 AM-5:00 PM, Sunday: 11:00 AM-3:00 PM, Storage Gate Hours Monday-Sunday: 6:00 AM-10:00 PM",,,
,,490 Wall Boulevard,,Gretna,LA,70056,United States,504-433-2221,,,"Office Hours Monday-Friday: 9:30 AM-6:00 PM, Saturday: 8:30 AM-5:00 PM, Sunday: 11:00 AM-3:00 PM, Storage Gate Hours Monday-Sunday: 6:00 AM-10:00 PM",,,
,,3701 Highway 90,,Avondale,LA,70094,United States,504-436-2020,,,"Office Hours Monday-Friday: 9:30 AM-6:00 PM, Saturday: 8:30 AM-5:00 PM, Sunday: 11:00 AM-3:00 PM, Storage Gate Hours Monday-Sunday: 6:00 AM-10:00 PM",,,
,,2012 Belle Chasse Highway,,Gretna,LA,70056,United States,504-394-4475,,,"Office Hours Monday-Friday: 9:30 AM-6:00 PM, Saturday: 8:30 AM-5:00 PM, Sunday: 11:00 AM-3:00 PM, Storage Gate Hours Monday-Sunday: 6:00 AM-10:00 PM",,,
,,2501 22nd Avenue North,,St  Petersburg,FL,33713,United States,727-327-2467,,,"Office Hours Monday-Friday: 9:30 AM-6:00 PM, Saturday: 8:30 AM-5:00 PM, Sunday: 11:00 AM-3:00 PM, Storage Gate Hours Monday-Sunday: 6:00 AM-10:00 PM",,,
,,3812 Lapalco,,Harvey,LA,70058,United States,504-340-4447,,,"Office Hours Monday-Friday: 9:30 AM-6:00 PM, Saturday: 8:30 AM-5:00 PM, Sunday: 11:00 AM-3:00 PM, Storage Gate Hours Monday-Sunday: 6:00 AM-10:00 PM",,,
,,14902 North 12th Street,,Lutz,FL,33549,United States,813-971-8686,,,"Office Hours Monday-Friday: 9:30 AM-6:00 PM, Saturday: 8:30 AM-5:00 PM, Sunday: Closed, Storage Gate Hours Monday-Sunday: 6:00 AM-10:00 PM",,,
,,1402 East Bearss Avenue,,Lutz,FL,33549,United States,813-910-0871,,,"Office Hours Monday-Friday: 9:30 AM-6:00 PM, Saturday: 8:30 AM-5:00 PM, Sunday: 11:00 AM-3:00 PM, Storage Gate Hours Monday-Sunday: 6:00 AM-10:00 PM",,,
,,4309 Ehrlich Road,,Tampa,FL,33624,United States,813-265-0808,,,"Office Hours Monday-Friday: 9:30 AM-6:00 PM, Saturday: 8:30 AM-5:00 PM, Sunday: 11:00 AM-3:00 PM, Storage Gate Hours Monday-Sunday: 6:00 AM-10:00 PM",,,
,,6550 Southwest 160th Avenue,,Southwest Ranches,FL,33331,United States,954-880-0234,,,"Office Hours Monday-Friday: 9:30 AM-6:00 PM, Saturday: 8:30 AM-5:00 PM, Sunday: 11:00 AM-3:00 PM, Storage Gate Hours Monday-Sunday: 6:00 AM-10:00 PM",,,
,,2801 Southwest 160th Avenue,,Miramar,FL,33027,United States,954-538-9877,,,"Office Hours Monday-Friday: 9:30 AM-6:00 PM, Saturday: 8:30 AM-5:00 PM, Sunday: 11:00 AM-3:00 PM, Storage Gate Hours Monday-Sunday: 6:00 AM-10:00 PM",,,
,,12701 Southwest 124th Street,,Kendall,FL,33186,United States,305-251-1300,,,"Office Hours Monday-Friday: 9:30 AM-6:00 PM, Saturday: 8:30 AM-5:00 PM, Sunday: 11:00 AM-3:00 PM, Storage Gate Hours Monday-Sunday: 6:00 AM-10:00 PM",,,
,,19500 West Dixie Highway,,Aventura,FL,33180,United States,305-931-6031,,,"Office Hours Monday-Friday: 9:30 AM-6:00 PM, Saturday: 8:30 AM-5:00 PM, Sunday: 11:00 AM-3:00 PM, Storage Gate Hours Monday-Sunday: 6:00 AM-10:00 PM",,,
,,5440 South Marginal Road,,Cleveland,OH,44114,United States,216-432-2122,,,"Office Hours Monday-Friday: 9:30 AM-6:00 PM, Saturday: 8:30 AM-5:00 PM, Sunday: 11:00 AM-3:00 PM, Storage Gate Hours Monday-Sunday: 6:00 AM-10:00 PM",,,
,,590 Northwest 137th Avenue,,Miami,FL,33182,United States,305-223-2858,,,"Office Hours Monday-Friday: 9:30 AM-6:00 PM, Saturday: 8:30 AM-5:00 PM, Sunday: 11:00 AM-3:00 PM, Storage Gate Hours Monday-Sunday: 6:00 AM-10:00 PM",,,
,,19395 Southwest 106th Avenue,,Miami,FL,33157,United States,305-251-7666,,,"Office Hours Monday-Friday: 9:30 AM-6:00 PM, Saturday: 8:30 AM-5:00 PM, Sunday: 11:00 AM-3:00 PM, Storage Gate Hours Monday-Sunday: 6:00 AM-10:00 PM",,,
,,8321 Pines Boulevard,,Pembroke Pines,FL,33024,United States,954-437-0000,,,"Office Hours Monday-Friday: 9:30 AM-6:00 PM, Saturday: 8:30 AM-5:00 PM, Sunday: 11:00 AM-3:00 PM, Storage Gate Hours Monday-Sunday: 6:00 AM-10:00 PM",,,
,,15120 Northeast 6th Avenue,,Miami,FL,33162,United States,305-947-6262,,,"Office Hours Monday-Friday: 9:30 AM-6:00 PM, Saturday: 8:30 AM-5:00 PM, Sunday: 11:00 AM-3:00 PM, Storage Gate Hours Monday-Sunday: 6:00 AM-10:00 PM",,,
,,1103 Southwest 3rd Avenue,,Miami,FL,33130,United States,786-453-1087,,,"Office Hours Monday-Friday: 9:30 AM-6:00 PM, Saturday: 8:30 AM-5:00 PM, Sunday: 11:00 AM-3:00 PM, Storage Gate Hours Monday-Sunday: 6:00 AM-10:00 PM",,,
,,3901 Behrman Highway,,New Orleans,LA,70114,United States,504-309-4004,,,"Office Hours Monday-Friday: 9:30 AM-6:00 PM, Saturday: 8:30 AM-5:00 PM, Sunday: 11:00 AM-3:00 PM, Storage Gate Hours Monday-Sunday: 6:00 AM-10:00 PM",,,
,,3955 East 29th Street,,Tucson,AZ,85711,United States,520-745-1585,,,"Office Hours Monday-Friday: 9:30 AM-6:00 PM, Saturday: 8:30 AM-5:00 PM, Sunday: 11:00 AM-3:00 PM, Storage Gate Hours Monday-Sunday: 6:00 AM-10:00 PM",,,
,,2434 Southwest 28th Lane,,Miami,FL,33133,United States,786-501-2207,,,"Office Hours Monday-Friday: 9:30 AM-6:00 PM, Saturday: 8:30 AM-5:00 PM, Sunday: 11:00 AM-3:00 PM, Storage Gate Hours Monday-Sunday: 6:00 AM-10:00 PM",,,
,,3708 West Bearss Avenue,,Tampa,FL,33618,United States,813-908-7867,,,"Office Hours Monday-Tuesday: 9:30 AM-6:00 PM, Wednesday: 9:30 PM-6:00 PM, Thursday-Friday: 9:30 AM-6:00 PM, Saturday: 8:30 AM-5:00 PM, Sunday: Closed, Storage Gate Hours Monday-Sunday: 6:00 AM-10:00 PM",,,
,,10755 Pembroke Road,,Pembroke Pines,FL,33025,United States,954-433-2005,,,"Office Hours Monday-Friday: 9:30 AM-6:00 PM, Saturday: 8:30 AM-5:00 PM, Sunday: 11:00 AM-3:00 PM, Storage Gate Hours Monday-Sunday: 6:00 AM-10:00 PM",,,
,,28429 Lorain Road,,North Olmsted,OH,44070,United States,440-779-0323,,,"Office Hours Monday-Friday: 9:30 AM-6:00 PM, Saturday: 8:30 AM-5:00 PM, Sunday: 11:00 AM-3:00 PM, Storage Gate Hours Monday-Sunday: 6:00 AM-10:00 PM",,,
,,3050 Northwest 84th Avenue,,Doral,FL,33122,United States,786-453-1420,,,"Office Hours Monday-Friday: 9:30 AM-6:00 PM, Saturday: 8:30 AM-5:00 PM, Sunday: 11:00 AM-3:00 PM, Storage Gate Hours Monday-Sunday: 6:00 AM-10:00 PM",,,
,,6560 East Tanque Verde Road,,Tucson,AZ,85715,United States,520-886-7100,,,"Office Hours Monday-Friday: 9:30 AM-6:00 PM, Saturday: 8:30 AM-5:00 PM, Sunday: 11:00 AM-3:00 PM, Storage Gate Hours Monday-Sunday: 6:00 AM-10:00 PM",,,
,,10100 Southwest 216th Street,,Miami,FL,33190,United States,305-254-1777,,,"Office Hours Monday-Friday: 9:30 AM-6:00 PM, Saturday: 8:30 AM-5:00 PM, Sunday: 11:00 AM-3:00 PM, Storage Gate Hours Monday-Sunday: 6:00 AM-10:00 PM",,,
,,2424 North Oracle Road,,Tucson,AZ,85705,United States,520-792-3331,,,"Office Hours Monday-Friday: 9:30 AM-6:00 PM, Saturday: 8:30 AM-5:00 PM, Sunday: 11:00 AM-3:00 PM, Storage Gate Hours Monday-Sunday: 6:00 AM-10:00 PM",,,
,,704 Sunshine Way,,Greensboro,NC,27409,United States,336-279-7100,,,"Office Hours Monday-Friday: 9:30 AM-6:00 PM, Saturday: 8:30 AM-5:00 PM, Sunday: 11:00 AM-3:00 PM, Storage Gate Hours Monday-Sunday: 6:00 AM-10:00 PM",,,
,,1175 Route 10 East,,Whippany,NJ,07981,United States,973-887-9404,,,"Office Hours Monday-Friday: 9:30 AM-6:00 PM, Saturday: 8:30 AM-5:00 PM, Sunday: 11:00 AM-3:00 PM, Storage Gate Hours Monday-Sunday: 6:00 AM-10:00 PM",,,
,,1245 State Highway 276,,Rockwall,TX,75032,United States,469-651-1400,,,"Office Hours Monday-Friday: 9:30 AM-6:00 PM, Saturday: 8:30 AM-5:00 PM, Sunday: 11:00 AM-3:00 PM, Storage Gate Hours Monday-Sunday: 6:00 AM-10:00 PM",,,
,,6400 Hamilton Avenue,,Pittsburgh,PA,15206,United States,412-567-7050,,,"Office Hours Monday-Friday: 9:30 AM-6:00 PM, Saturday: 8:30 AM-5:00 PM, Sunday: 11:00 AM-3:00 PM, Storage Gate Hours Monday-Sunday: 6:00 AM-10:00 PM",,,
,,1236 Texas Street,,Lewisville,TX,75057,United States,972-436-4204,,,"Office Hours Monday-Friday: 9:30 AM-6:00 PM, Saturday: 8:30 AM-5:00 PM, Sunday: 11:00 AM-3:00 PM, Storage Gate Hours Monday-Sunday: 6:00 AM-10:00 PM",,,
,,802 West 40th Street,,San Bernardino,CA,92407,United States,909-886-8493,,,"Office Hours Monday-Friday: 9:30 AM-6:00 PM, Saturday: 8:30 AM-5:00 PM, Sunday: 11:00 AM-3:00 PM, Storage Gate Hours Monday-Sunday: 6:00 AM-10:00 PM",,,
,,3750 West State Road 46,,Sanford,FL,32771,United States,407-302-7700,,,"Office Hours Monday-Friday: 9:30 AM-6:00 PM, Saturday: 8:30 AM-5:00 PM, Sunday: 11:00 AM-3:00 PM, Storage Gate Hours Monday-Sunday: 6:00 AM-10:00 PM",,,
,,1985 Ostrems Way,,San Bernardino,CA,92407,United States,909-887-4080,,,"Office Hours Monday-Friday: 9:30 AM-6:00 PM, Saturday: 8:30 AM-5:00 PM, Sunday: 11:00 AM-3:00 PM, Storage Gate Hours Monday-Sunday: 6:00 AM-10:00 PM",,,
,,307 East Hanover Avenue,,Morris Township,NJ,07960,United States,973-539-5055,,,"Office Hours Monday-Friday: 9:30 AM-6:00 PM, Saturday: 8:30 AM-5:00 PM, Sunday: 11:00 AM-3:00 PM, Storage Gate Hours Monday-Sunday: 6:00 AM-10:00 PM",,,
,,1004 North Hoagland Boulevard,,Kissimmee,FL,34741,United States,407-933-0000,,,"Office Hours Monday-Friday: 9:30 AM-6:00 PM, Saturday: 8:30 AM-5:00 PM, Sunday: 11:00 AM-3:00 PM, Storage Gate Hours Monday-Sunday: 6:00 AM-10:00 PM",,,
,,6218 South Padre Island Drive,,Corpus Christi,TX,78412,United States,361-985-0880,,,"Office Hours Monday-Friday: 9:30 AM-6:00 PM, Saturday: 8:30 AM-5:00 PM, Sunday: Closed, Storage Gate Hours Monday-Sunday: 6:00 AM-10:00 PM",,,
,,3508 South Orlando Drive,,Sanford,FL,32773,United States,407-302-9300,,,"Office Hours Monday-Friday: 9:30 AM-6:00 PM, Saturday: 8:30 AM-5:00 PM, Sunday: 11:00 AM-3:00 PM, Storage Gate Hours Monday-Sunday: 6:00 AM-10:00 PM",,,
,,700 West 40th Street,,San Bernardino,CA,92407,United States,909-883-1675,,,"Office Hours Monday-Friday: 9:30 AM-6:00 PM, Saturday: 8:30 AM-5:00 PM, Sunday: 11:00 AM-3:00 PM, Storage Gate Hours Monday-Sunday: 6:00 AM-10:00 PM",,,
,,11920 West Colonial Drive,,Ocoee,FL,34761,United States,407-877-5608,,,"Office Hours Monday-Friday: 9:30 AM-6:00 PM, Saturday: 8:30 AM-5:00 PM, Sunday: 11:00 AM-3:00 PM, Storage Gate Hours Monday-Sunday: 6:00 AM-10:00 PM",,,
,,3651 Alafaya Trail,,Oviedo,FL,32765,United States,407-366-8825,,,"Office Hours Monday-Friday: 9:30 AM-6:00 PM, Saturday: 8:30 AM-5:00 PM, Sunday: 11:00 AM-3:00 PM, Storage Gate Hours Monday-Sunday: 6:00 AM-10:00 PM",,,
,,38300 North Gantzel Road,,San Tan Valley,AZ,85140,United States,480-471-6220,,,"Office Hours Monday-Friday: 9:30 AM-6:00 PM, Saturday: 8:30 AM-5:00 PM, Sunday: 11:00 AM-3:00 PM, Storage Gate Hours Monday-Sunday: 6:00 AM-10:00 PM",,,
,,1372 East 5th Street,,Ontario,CA,91764,United States,909-218-4551,,,"Office Hours Monday-Friday: 9:30 AM-6:00 PM, Saturday: 8:30 AM-5:00 PM, Sunday: 11:00 AM-3:00 PM, Storage Gate Hours Monday-Sunday: 6:00 AM-10:00 PM",,,
,,6875 University Boulevard,,Winter Park,FL,32792,United States,407-647-7733,,,"Office Hours Monday-Friday: 9:30 AM-6:00 PM, Saturday: 8:30 AM-5:00 PM, Sunday: 11:00 AM-3:00 PM, Storage Gate Hours Monday-Sunday: 6:00 AM-10:00 PM",,,
,,1830 East Irlo Bronson Memorial Highway,,Kissimmee,FL,34744,United States,407-343-9384,,,"Office Hours Monday-Friday: 9:30 AM-6:00 PM, Saturday: 8:30 AM-5:00 PM, Sunday: 11:00 AM-3:00 PM, Storage Gate Hours Monday-Sunday: 6:00 AM-10:00 PM",,,
,,1015 North Apopka Vineland Road,,Orlando,FL,32818,United States,407-532-5393,,,"Office Hours Monday-Friday: 9:30 AM-6:00 PM, Saturday: 8:30 AM-5:00 PM, Sunday: 11:00 AM-3:00 PM, Storage Gate Hours Monday-Sunday: 6:00 AM-10:00 PM",,,
,,10425 South John Young Parkway,,Orlando,FL,32837,United States,407-515-2696,,,"Office Hours Monday-Friday: 9:30 AM-6:00 PM, Saturday: 8:30 AM-5:00 PM, Sunday: 11:00 AM-3:00 PM, Storage Gate Hours Monday-Sunday: 6:00 AM-10:00 PM",,,
,,230 Oxford Road,,Fern Park,FL,32730,United States,407-265-2002,,,"Office Hours Monday-Friday: 9:30 AM-6:00 PM, Saturday: 8:30 AM-5:00 PM, Sunday: 11:00 AM-3:00 PM, Storage Gate Hours Monday-Sunday: 6:00 AM-10:00 PM",,,
,,4554 East Hoffner Avenue,,Orlando,FL,32812,United States,407-851-9130,,,"Office Hours Monday-Friday: 9:30 AM-6:00 PM, Saturday: 8:30 AM-5:00 PM, Sunday: 11:00 AM-3:00 PM, Storage Gate Hours Monday-Sunday: 6:00 AM-10:00 PM",,,
,,100 Mercantile Court,,Ocoee,FL,34761,United States,407-654-1997,,,"Office Hours Monday-Friday: 9:30 AM-6:00 PM, Saturday: 8:30 AM-5:00 PM, Sunday: 11:00 AM-3:00 PM, Storage Gate Hours Monday-Sunday: 6:00 AM-10:00 PM",,,
,,7200 Old Cheney Highway,,Orlando,FL,32807,United States,407-277-4430,,,"Office Hours Monday-Friday: 9:30 AM-6:00 PM, Saturday: 8:30 AM-5:00 PM, Sunday: 11:00 AM-3:00 PM, Storage Gate Hours Monday-Sunday: 6:00 AM-10:00 PM",,,
,,401 South Waterman Avenue,,San Bernardino,CA,92408,United States,909-884-3418,,,"Office Hours Monday-Friday: 9:30 AM-6:00 PM, Saturday: 8:30 AM-5:00 PM, Sunday: 11:00 AM-3:00 PM, Storage Gate Hours Monday-Sunday: 6:00 AM-10:00 PM",,,
,,1226 South Mebane Street,,Burlington,NC,27215,United States,336-570-1140,,,"Office Hours Monday-Friday: 9:30 AM-6:00 PM, Saturday: 8:30 AM-5:00 PM, Sunday: Closed, Storage Gate Hours Monday-Sunday: 6:00 AM-10:00 PM",,,
,,1450 West 23rd Street,,San Bernardino,CA,92411,United States,909-887-2351,,,"Office Hours Monday-Friday: 9:30 AM-6:00 PM, Saturday: 8:30 AM-5:00 PM, Sunday: 11:00 AM-3:00 PM, Storage Gate Hours Monday-Sunday: 6:00 AM-10:00 PM",,,
,,210 West Bonnie View Drive,,Rialto,CA,92376,United States,909-874-7810,,,"Office Hours Monday-Friday: 9:30 AM-6:00 PM, Saturday: 8:30 AM-5:00 PM, Sunday: 11:00 AM-3:00 PM, Storage Gate Hours Monday-Sunday: 6:00 AM-10:00 PM",,,
,,4011 Fairgrounds Street,,Riverside,CA,92501,United States,951-781-3685,,,"Office Hours Monday-Friday: 9:30 AM-6:00 PM, Saturday: 8:30 AM-5:00 PM, Sunday: 11:00 AM-3:00 PM, Storage Gate Hours Monday-Sunday: 6:00 AM-10:00 PM",,,
,,1238 East Baseline Road,,Rialto,CA,92376,United States,909-873-1288,,,"Office Hours Monday-Friday: 9:30 AM-6:00 PM, Saturday: 8:30 AM-5:00 PM, Sunday: 11:00 AM-3:00 PM, Storage Gate Hours Monday-Sunday: 6:00 AM-10:00 PM",,,
,,7600 Arlington Avenue,,Riverside,CA,92503,United States,951-689-2010,,,"Office Hours Monday-Friday: 9:30 AM-6:00 PM, Saturday: 8:30 AM-5:00 PM, Sunday: 11:00 AM-3:00 PM, Storage Gate Hours Monday-Sunday: 6:00 AM-10:00 PM",,,
,,812 North Mcdonald Street,,Mckinney,TX,75069,United States,972-542-7867,,,"Office Hours Monday-Friday: 9:30 AM-6:00 PM, Saturday: 8:30 AM-5:00 PM, Sunday: 11:00 AM-3:00 PM, Storage Gate Hours Monday-Sunday: 6:00 AM-10:00 PM",,,
,,2421 FM 423,,Little Elm,TX,75068,United States,972-712-4100,,,"Office Hours Monday-Friday: 9:30 AM-6:00 PM, Saturday: 8:30 AM-5:00 PM, Sunday: 11:00 AM-3:00 PM, Storage Gate Hours Monday-Sunday: 6:00 AM-10:00 PM",,,
,,1700 South Central Expressway,,Mckinney,TX,75070,United States,972-542-5838,,,"Office Hours Monday-Friday: 9:30 AM-6:00 PM, Saturday: 8:30 AM-5:00 PM, Sunday: 11:00 AM-3:00 PM, Storage Gate Hours Monday-Sunday: 6:00 AM-10:00 PM",,,
,,9233 Westridge Boulevard,,Mckinney,TX,75069,United States,214-592-0644,,,"Office Hours Monday-Friday: 9:30 AM-6:00 PM, Saturday: 8:30 AM-5:00 PM, Sunday: 11:00 AM-3:00 PM, Storage Gate Hours Monday-Sunday: 6:00 AM-10:00 PM",,,
,,5301 North Pine Hills Road,,Orlando,FL,32808,United States,407-522-0941,,,"Office Hours Monday-Friday: 9:30 AM-6:00 PM, Saturday: 8:30 AM-5:00 PM, Sunday: 11:00 AM-3:00 PM, Storage Gate Hours Monday-Sunday: 6:00 AM-10:00 PM",,,
,,7749 Stonebrook Parkway,,Frisco,TX,75034,United States,214-407-7400,,,"Office Hours Monday-Friday: 9:30 AM-6:00 PM, Saturday: 8:30 AM-5:00 PM, Sunday: 11:00 AM-3:00 PM, Storage Gate Hours Monday-Sunday: 6:00 AM-10:00 PM",,,
,,12250 Eldorado Parkway,,Frisco,TX,75035,United States,214-872-3499,,,"Office Hours Monday-Friday: 9:30 AM-6:00 PM, Saturday: 8:30 AM-5:00 PM, Sunday: 11:00 AM-3:00 PM, Storage Gate Hours Monday-Sunday: 6:00 AM-10:00 PM",,,
,,8749 Wade Boulevard,,Frisco,TX,75034,United States,972-712-0303,,,"Office Hours Monday-Friday: 9:30 AM-6:00 PM, Saturday: 8:30 AM-5:00 PM, Sunday: 11:00 AM-3:00 PM, Storage Gate Hours Monday-Sunday: 6:00 AM-10:00 PM",,,
,,4441 Alma Road,,Mckinney,TX,75070,United States,972-540-9202,,,"Office Hours Monday-Friday: 9:30 AM-6:00 PM, Saturday: 8:30 AM-5:00 PM, Sunday: 11:00 AM-3:00 PM, Storage Gate Hours Monday-Sunday: 6:00 AM-10:00 PM",,,
,,3730 South Orange Avenue,,Orlando,FL,32806,United States,407-852-0044,,,"Office Hours Monday-Friday: 9:30 AM-6:00 PM, Saturday: 8:30 AM-5:00 PM, Sunday: 11:00 AM-3:00 PM, Storage Gate Hours Monday-Sunday: 6:00 AM-10:00 PM",,,
,,1717 Angel Parkway,,Allen,TX,75002,United States,972-396-9999,,,"Office Hours Monday-Friday: 9:30 AM-6:00 PM, Saturday: 8:30 AM-5:00 PM, Sunday: 11:00 AM-3:00 PM, Storage Gate Hours Monday-Sunday: 6:00 AM-10:00 PM",,,
,,1441 East Baseline Street,,San Bernardino,CA,92410,United States,909-885-6451,,,"Office Hours Monday-Friday: 9:30 AM-6:00 PM, Saturday: 8:30 AM-5:00 PM, Sunday: 11:00 AM-3:00 PM, Storage Gate Hours Monday-Sunday: 6:00 AM-10:00 PM",,,
,,277 Route 46,,Parsippany,NJ,07054,United States,973-575-6682,,,"Office Hours Monday-Friday: 9:30 AM-6:00 PM, Saturday: 8:30 AM-5:00 PM, Sunday: 11:00 AM-3:00 PM, Storage Gate Hours Monday-Sunday: 6:00 AM-10:00 PM",,,
,,8680 Stonebrook Parkway,,Frisco,TX,75034,United States,972-335-7867,,,"Office Hours Monday-Friday: 9:30 AM-6:00 PM, Saturday: 8:30 AM-5:00 PM, Sunday: 11:00 AM-3:00 PM, Storage Gate Hours Monday-Sunday: 6:00 AM-10:00 PM",,,
,,26 West 7th Street,,Cincinnati,OH,45202,United States,513-666-3800,,,"Office Hours Monday-Friday: 9:30 AM-6:00 PM, Saturday: 8:30 AM-5:00 PM, Sunday: 11:00 AM-3:00 PM, Storage Gate Hours Monday-Sunday: 6:00 AM-10:00 PM",,,
,,9500 Frisco Street,,Frisco,TX,75034,United States,214-387-9930,,,"Office Hours Monday-Friday: 9:30 AM-6:00 PM, Saturday: 8:30 AM-5:00 PM, Sunday: 11:00 AM-3:00 PM, Storage Gate Hours Monday-Sunday: 6:00 AM-10:00 PM",,,
,,1016 Battleground Avenue,,Greensboro,NC,27408,United States,336-332-0123,,,"Office Hours Monday-Friday: 9:30 AM-6:00 PM, Saturday: 8:30 AM-5:00 PM, Sunday: 11:00 AM-3:00 PM, Storage Gate Hours Monday-Sunday: 6:00 AM-10:00 PM",,,
,,2511 Sunflower Drive,,Little Elm,TX,75068,United States,972-292-0155,,,"Office Hours Monday-Friday: 9:30 AM-6:00 PM, Saturday: 8:30 AM-5:00 PM, Sunday: 11:00 AM-3:00 PM, Storage Gate Hours Monday-Sunday: 6:00 AM-10:00 PM",,,
,,4435 Jessup Grove Road,,Greensboro,NC,27410,United States,336-605-3202,,,"Office Hours Monday-Friday: 9:30 AM-6:00 PM, Saturday: 8:30 AM-5:00 PM, Sunday: 11:00 AM-3:00 PM, Storage Gate Hours Monday-Sunday: 6:00 AM-10:00 PM",,,
,,12300 College Parkway,,Frisco,TX,75035,United States,972-377-4504,,,"Office Hours Monday-Friday: 9:30 AM-6:00 PM, Saturday: 8:30 AM-5:00 PM, Sunday: 11:00 AM-3:00 PM, Storage Gate Hours Monday-Sunday: 6:00 AM-10:00 PM",,,
,,950 North Tippecanoe Avenue,,San Bernardino,CA,92410,United States,909-885-8590,,,"Office Hours Monday-Friday: 9:30 AM-6:00 PM, Saturday: 8:30 AM-5:00 PM, Sunday: 11:00 AM-3:00 PM, Storage Gate Hours Monday-Sunday: 6:00 AM-10:00 PM",,,
,,60 Littell Road,,East Hanover,NJ,07936,United States,973-887-4432,,,"Office Hours Monday-Friday: 9:30 AM-6:00 PM, Saturday: 8:30 AM-5:00 PM, Sunday: 11:00 AM-3:00 PM, Storage Gate Hours Monday-Sunday: 6:00 AM-10:00 PM",,,
,,339-347 Witt Street,,Winston-Salem,NC,27103,United States,336-793-4087,,,"Office Hours Monday-Friday: 9:30 AM-6:00 PM, Saturday: 8:30 AM-5:00 PM, Sunday: 11:00 AM-3:00 PM, Storage Gate Hours Monday-Sunday: 6:00 AM-10:00 PM",,,
,,901 Northwest 1st Street,,Fort Lauderdale,FL,33311,United States,954-462-6160,,,"Office Hours Monday-Friday: 9:30 AM-6:00 PM, Saturday: 8:30 AM-5:00 PM, Sunday: 11:00 AM-3:00 PM, Storage Gate Hours Monday-Friday: 9:30 AM-6:00 PM, Saturday: 8:30 AM-5:00 PM, Sunday: 11:00 AM-3:00 PM",,,
,,13078 West Central Street,,Surprise,AZ,85374,United States,623-302-9875,,,"Office Hours Monday-Friday: 9:30 AM-6:00 PM, Saturday: 8:30 AM-5:00 PM, Sunday: 11:00 AM-3:00 PM, Storage Gate Hours Monday-Sunday: 6:00 AM-10:00 PM",,,
,,17275 North Litchfield Road,,Surprise,AZ,85374,United States,623-776-8100,,,"Office Hours Monday-Friday: 9:30 AM-6:00 PM, Saturday: 8:30 AM-5:00 PM, Sunday: 11:00 AM-3:00 PM, Storage Gate Hours Monday-Sunday: 6:00 AM-10:00 PM",,,
,,13605 Coursey Blvd,,Baton Rouge,LA,70817,United States,225-752-1000,,,"Office Hours Monday-Friday: 9:30 AM-6:00 PM, Saturday: 8:30 AM-5:00 PM, Sunday: 11:00 AM-3:00 PM, Storage Gate Hours Monday-Sunday: 6:00 AM-10:00 PM",,,
,,8566 Siegen Lane,,Baton Rouge,LA,70810,United States,225-769-5925,,,"Office Hours Monday-Friday: 9:30 AM-6:00 PM, Saturday: 8:30 AM-5:00 PM, Sunday: 11:00 AM-3:00 PM, Storage Gate Hours Monday-Sunday: 6:00 AM-10:00 PM",,,
,,3101 Valley Avenue,,Pleasanton,CA,94566,United States,925-249-0004,,,"Office Hours Monday-Friday: 9:30 AM-6:00 PM, Saturday: 8:30 AM-5:00 PM, Sunday: 11:00 AM-3:00 PM, Storage Gate Hours Monday-Sunday: 6:00 AM-10:00 PM",,,
,,12340 Industriplex Blvd,,Baton Rouge,LA,70809,United States,225-752-3733,,,"Office Hours Monday-Friday: 9:30 AM-6:00 PM, Saturday: 8:30 AM-5:00 PM, Sunday: 11:00 AM-3:00 PM, Storage Gate Hours Monday-Sunday: 6:00 AM-10:00 PM",,,
,,7831 Capital Court,,Baton Rouge,LA,70810,United States,225-767-2722,,,"Office Hours Monday-Friday: 9:30 AM-6:00 PM, Saturday: 8:30 AM-5:00 PM, Sunday: 11:00 AM-3:00 PM, Storage Gate Hours Monday-Sunday: 6:00 AM-10:00 PM",,,
,,5312 Richmond Henrico Turnpike,,Richmond,VA,23227,United States,804-329-6464,,,"Office Hours Monday-Friday: 9:30 AM-6:00 PM, Saturday: 8:30 AM-5:00 PM, Sunday: Closed, Storage Gate Hours Monday-Sunday: 6:00 AM-10:00 PM",,,
,,17880 Airline Highway,,Prairieville,LA,70769,United States,225-744-0880,,,"Office Hours Monday-Friday: 9:30 AM-6:00 PM, Saturday: 8:30 AM-5:00 PM, Sunday: 11:00 AM-3:00 PM, Storage Gate Hours Monday-Sunday: 6:00 AM-10:00 PM",,,
,,2601 Maury Street,,Richmond,VA,23224,United States,804-658-0499,,,"Office Hours Monday-Friday: 9:30 AM-6:00 PM, Saturday: 8:30 AM-5:00 PM, Sunday: 11:00 AM-3:00 PM, Storage Gate Hours Monday-Saturday: 8:00 AM-8:00 PM, Sunday: 11:00 AM-8:00 PM",,,
,,1970 Staring Lane,,Baton Rouge,LA,70810,United States,225-767-0810,,,"Office Hours Monday-Friday: 9:30 AM-6:00 PM, Saturday: 8:30 AM-5:00 PM, Sunday: 11:00 AM-3:00 PM, Storage Gate Hours Monday-Sunday: 6:00 AM-10:00 PM",,,
,,2914 South Sherwood Forest Boulevard,,Baton Rouge,LA,70816,United States,225-368-0000,,,"Office Hours Monday-Friday: 9:30 AM-6:00 PM, Saturday: 8:30 AM-5:00 PM, Sunday: 11:00 AM-3:00 PM, Storage Gate Hours Monday-Sunday: 6:00 AM-10:00 PM",,,
,,10555 Old Hammond Highway,,Baton Rouge,LA,70816,United States,225-928-1980,,,"Office Hours Monday-Friday: 9:30 AM-6:00 PM, Saturday: 8:30 AM-5:00 PM, Sunday: 11:00 AM-3:00 PM, Storage Gate Hours Monday-Sunday: 6:00 AM-10:00 PM",,,
,,1131 Millerville Road,,Baton Rouge,LA,70816,United States,225-273-0121,,,"Office Hours Monday-Friday: 9:30 AM-6:00 PM, Saturday: 8:30 AM-5:00 PM, Sunday: 11:00 AM-3:00 PM, Storage Gate Hours Monday-Sunday: 6:00 AM-10:00 PM",,,
,,10838 Greenwell Springs Road,,Baton Rouge,LA,70814,United States,225-275-2023,,,"Office Hours Monday-Friday: 9:30 AM-6:00 PM, Saturday: 8:30 AM-5:00 PM, Sunday: 11:00 AM-3:00 PM, Storage Gate Hours Monday-Sunday: 6:00 AM-10:00 PM",,,
,,2240 Oak Villa Boulevard,,Baton Rouge,LA,70815,United States,225-216-7488,,,"Office Hours Monday-Friday: 9:30 AM-6:00 PM, Saturday: 8:30 AM-5:00 PM, Sunday: 11:00 AM-3:00 PM, Storage Gate Hours Monday-Sunday: 6:00 AM-10:00 PM",,,
,,9059 Interline Avenue,,Baton Rouge,LA,70809,United States,225-924-2224,,,"Office Hours Monday-Friday: 9:30 AM-6:00 PM, Saturday: 8:30 AM-5:00 PM, Sunday: 11:00 AM-3:00 PM, Storage Gate Hours Monday-Sunday: 6:00 AM-10:00 PM",,,
,,5121 Essen Lane,,Baton Rouge,LA,70809,United States,225-768-1967,,,"Office Hours Monday-Friday: 9:30 AM-6:00 PM, Saturday: 8:30 AM-5:00 PM, Sunday: 11:00 AM-3:00 PM, Storage Gate Hours Monday-Sunday: 6:00 AM-10:00 PM",,,
,,6536 Florida Boulevard,,Baton Rouge,LA,70806,United States,225-927-5700,,,"Office Hours Monday-Friday: 9:30 AM-6:00 PM, Saturday: 8:30 AM-5:00 PM, Sunday: 11:00 AM-3:00 PM, Storage Gate Hours Monday-Sunday: 6:00 AM-10:00 PM",,,
,,8836 Airway Drive,,Baton Rouge,LA,70806,United States,225-924-4443,,,"Office Hours Monday-Friday: 9:30 AM-6:00 PM, Saturday: 8:30 AM-5:00 PM, Sunday: 11:00 AM-3:00 PM, Storage Gate Hours Monday-Sunday: 6:00 AM-10:00 PM",,,
,,7028 North Dysart Road,,Glendale,AZ,85307,United States,623-935-9533,,,"Office Hours Monday-Friday: 9:30 AM-6:00 PM, Saturday: 8:30 AM-5:00 PM, Sunday: 11:00 AM-3:00 PM, Storage Gate Hours Monday-Sunday: 6:00 AM-10:00 PM",,,
,,13290 State Road 84,,Davie,FL,33325,United States,954-424-6460,,,"Office Hours Monday-Friday: 9:30 AM-6:00 PM, Saturday: 8:30 AM-5:00 PM, Sunday: 11:00 AM-3:00 PM, Storage Gate Hours Monday-Sunday: 6:00 AM-10:00 PM",,,
,,4455 Harding Boulevard,,Baton Rouge,LA,70807,United States,225-355-7090,,,"Office Hours Monday-Friday: 9:30 AM-6:00 PM, Saturday: 8:30 AM-5:00 PM, Sunday: 11:00 AM-3:00 PM, Storage Gate Hours Monday-Sunday: 6:00 AM-10:00 PM",,,
,,3901 Riverland Road,,Fort Lauderdale,FL,33312,United States,954-791-1299,,,"Office Hours Monday-Friday: 9:30 AM-6:00 PM, Saturday: 8:30 AM-5:00 PM, Sunday: 11:00 AM-3:00 PM, Storage Gate Hours Monday-Sunday: 6:00 AM-10:00 PM",,,
,,10121 Warren Parkway,,Frisco,TX,75035,United States,972-712-7867,,,"Office Hours Monday-Friday: 9:30 AM-6:00 PM, Saturday: 8:30 AM-5:00 PM, Sunday: 11:00 AM-3:00 PM, Storage Gate Hours Monday-Sunday: 6:00 AM-10:00 PM",,,
,,2010 Northeast 7th Avenue,,Dania Beach,FL,33004,United States,954-525-3040,,,"Office Hours Monday-Friday: 9:30 AM-6:00 PM, Saturday: 8:30 AM-5:00 PM, Sunday: 11:00 AM-3:00 PM, Storage Gate Hours Monday-Sunday: 6:00 AM-10:00 PM",,,
,,15821 North Dysart Road,,Surprise,AZ,85374,United States,623-583-8155,,,"Office Hours Monday-Friday: 9:30 AM-6:00 PM, Saturday: 8:30 AM-5:00 PM, Sunday: 11:00 AM-3:00 PM, Storage Gate Hours Monday-Sunday: 6:00 AM-10:00 PM",,,
,,7910 West Beardsley Road,,Glendale,AZ,85308,United States,480-939-3805,,,"Office Hours Monday-Friday: 9:30 AM-6:00 PM, Saturday: 8:30 AM-5:00 PM, Sunday: 11:00 AM-3:00 PM, Storage Gate Hours Monday-Sunday: 6:00 AM-10:00 PM",,,
,,3560 Victory Drive,,Columbus,GA,31903,United States,706-687-1849,,,"Office Hours Monday-Friday: 9:30 AM-6:00 PM, Saturday: 8:30 AM-5:00 PM, Sunday: 11:00 AM-3:00 PM, Storage Gate Hours Monday-Sunday: 6:00 AM-10:00 PM",,,
,,20 North Middletown Road,,Nanuet,NY,10954,United States,845-627-0281,,,"Office Hours Monday-Friday: 9:30 AM-6:00 PM, Saturday: 8:30 AM-5:00 PM, Sunday: 11:00 AM-3:00 PM, Storage Gate Hours Monday-Sunday: 6:00 AM-10:00 PM",,,
,,4901 East Texas Street,,Bossier City,LA,71111,United States,318-747-0083,,,"Office Hours Monday-Friday: 9:30 AM-6:00 PM, Saturday: 8:30 AM-5:00 PM, Sunday: 11:00 AM-3:00 PM, Storage Gate Hours Monday-Sunday: 6:00 AM-10:00 PM",,,
,,3353 Wrightsboro Road,,Augusta,GA,30909,United States,706-733-6343,,,"Office Hours Monday-Friday: 9:30 AM-6:00 PM, Saturday: 8:30 AM-5:00 PM, Sunday: 11:00 AM-3:00 PM, Storage Gate Hours Monday-Sunday: 6:00 AM-10:00 PM",,,
,,5116 Wrightsboro Road,,Grovetown,GA,30813,United States,706-854-8001,,,"Office Hours Monday-Friday: 9:30 AM-6:00 PM, Saturday: 8:30 AM-5:00 PM, Sunday: Closed, Storage Gate Hours Monday-Sunday: 6:00 AM-10:00 PM",,,
,,2114 Oak Leaf Street,,Joliet,IL,60436,United States,815-744-8100,,,"Office Hours Monday-Friday: 9:30 AM-6:00 PM, Saturday: 8:30 AM-5:00 PM, Sunday: 11:00 AM-3:00 PM, Storage Gate Hours Monday-Sunday: 6:00 AM-10:00 PM",,,
,,80 South Kensico Avenue,,White Plains,NY,10601,United States,914-682-7998,,,"Office Hours Monday-Friday: 9:30 AM-6:00 PM, Saturday: 8:30 AM-5:00 PM, Sunday: 11:00 AM-3:00 PM, Storage Gate Hours Monday-Sunday: 7:00 AM-9:00 PM",,,
,,21w209 Lake Street,,Addison,IL,60101,United States,630-627-0888,,,"Office Hours Monday-Friday: 9:30 AM-6:00 PM, Saturday: 8:30 AM-5:00 PM, Sunday: 11:00 AM-3:00 PM, Storage Gate Hours Monday-Sunday: 6:00 AM-10:00 PM",,,
,,2940  44th Street Southwest,,Grandville,MI,49418,United States,616-249-0601,,,"Office Hours Monday-Friday: 9:30 AM-6:00 PM, Saturday: 8:30 AM-5:00 PM, Sunday: 11:00 AM-3:00 PM, Storage Gate Hours Monday-Sunday: 6:00 AM-10:00 PM",,,
,,4309 Roger B Chaffee Memorial Drive Southeast,,Wyoming,MI,49548,United States,616-531-1864,,,"Office Hours Monday-Friday: 9:30 AM-6:00 PM, Saturday: 8:30 AM-5:00 PM, Sunday: 11:00 AM-3:00 PM, Storage Gate Hours Monday-Sunday: 6:00 AM-10:00 PM",,,
,,4640 South 900 East,,Murray,UT,84117,United States,801-266-5498,,,"Office Hours Monday-Friday: 9:30 AM-6:00 PM, Saturday: 8:30 AM-5:00 PM, Sunday: 11:00 AM-3:00 PM, Storage Gate Hours Monday-Sunday: 6:00 AM-10:00 PM",,,
,,3718 Alpine Avenue Northwest,,Comstock Park,MI,49321,United States,616-784-6969,,,"Office Hours Monday-Friday: 9:30 AM-6:00 PM, Saturday: 8:30 AM-5:00 PM, Sunday: 11:00 AM-3:00 PM, Storage Gate Hours Monday-Sunday: 6:00 AM-10:00 PM",,,
,,350 South Redwood Road,,Salt Lake City,UT,84104,United States,801-973-8118,,,"Office Hours Monday-Friday: 9:30 AM-6:00 PM, Saturday: 8:30 AM-5:00 PM, Sunday: 11:00 AM-3:00 PM, Storage Gate Hours Monday-Sunday: 6:00 AM-10:00 PM",,,
,,3293 Balis Drive,,Baton Rouge,LA,70808,United States,225-383-8061,,,"Office Hours Monday-Friday: 9:30 AM-6:00 PM, Saturday: 8:30 AM-5:00 PM, Sunday: 11:00 AM-3:00 PM, Storage Gate Hours Monday-Sunday: 6:00 AM-10:00 PM",,,
,,3040 Shaffer Avenue Southeast,,Grand Rapids,MI,49512,United States,616-949-6679,,,"Office Hours Monday-Friday: 9:30 AM-6:00 PM, Saturday: 8:30 AM-5:00 PM, Sunday: 11:00 AM-3:00 PM, Storage Gate Hours Monday-Sunday: 6:00 AM-10:00 PM",,,
,,305 South Larkin Avenue,,Joliet,IL,60436,United States,815-725-5191,,,"Office Hours Monday-Friday: 9:30 AM-6:00 PM, Saturday: 8:30 AM-5:00 PM, Sunday: 11:00 AM-3:00 PM, Storage Gate Hours Monday-Sunday: 6:00 AM-10:00 PM",,,
,,1730 West Irving Park Road,,Schaumburg,IL,60193,United States,847-895-0575,,,"Office Hours Monday-Friday: 9:30 AM-6:00 PM, Saturday: 8:30 AM-5:00 PM, Sunday: 11:00 AM-3:00 PM, Storage Gate Hours Monday-Sunday: 6:00 AM-10:00 PM",,,
,,5180 Commerce Drive,,Murray,UT,84107,United States,801-262-1347,,,"Office Hours Monday-Friday: 9:30 AM-6:00 PM, Saturday: 8:30 AM-5:00 PM, Sunday: 11:00 AM-3:00 PM, Storage Gate Hours Monday-Sunday: 6:00 AM-10:00 PM",,,
,,25w630 Army Trail Road,,Hanover Park,IL,60133,United States,630-510-0899,,,"Office Hours Monday-Friday: 9:30 AM-6:00 PM, Saturday: 8:30 AM-5:00 PM, Sunday: 11:00 AM-3:00 PM, Storage Gate Hours Monday-Sunday: 6:00 AM-10:00 PM",,,
,,7910 Lemont Road,,Downers Grove,IL,60516,United States,630-786-6457,,,"Office Hours Monday-Friday: 9:30 AM-6:00 PM, Saturday: 8:30 AM-5:00 PM, Sunday: 11:00 AM-3:00 PM, Storage Gate Hours Monday-Sunday: 6:00 AM-10:00 PM",,,
,,3528 South 300 West,,Salt Lake City,UT,84115,United States,801-266-5861,,,"Office Hours Monday-Friday: 9:30 AM-6:00 PM, Saturday: 8:30 AM-5:00 PM, Sunday: 11:00 AM-3:00 PM, Storage Gate Hours Monday-Sunday: 6:00 AM-10:00 PM",,,
,,2621 Burlingame Avenue Southwest,,Wyoming,MI,49509,United States,616-530-9066,,,"Office Hours Monday-Friday: 9:30 AM-6:00 PM, Saturday: 8:30 AM-5:00 PM, Sunday: 11:00 AM-3:00 PM, Storage Gate Hours Monday-Sunday: 6:00 AM-10:00 PM",,,
,,27w125 North Avenue,,West Chicago,IL,60185,United States,630-293-1680,,,"Office Hours Monday-Friday: 9:30 AM-6:00 PM, Saturday: 8:30 AM-5:00 PM, Sunday: 11:00 AM-3:00 PM, Storage Gate Hours Monday-Sunday: 6:00 AM-10:00 PM",,,
,,1149 South Frontage Road,,Romeoville,IL,60446,United States,815-293-3560,,,"Office Hours Monday-Friday: 9:30 AM-6:00 PM, Saturday: 8:30 AM-5:00 PM, Sunday: 11:00 AM-3:00 PM, Storage Gate Hours Monday-Sunday: 6:00 AM-10:00 PM",,,
,,565 West Boughton Road,,Bolingbrook,IL,60440,United States,630-226-9534,,,"Office Hours Monday-Friday: 9:30 AM-6:00 PM, Saturday: 8:30 AM-5:00 PM, Sunday: 11:00 AM-3:00 PM, Storage Gate Hours Monday-Sunday: 6:00 AM-10:00 PM",,,
,,150 Dalton Street,,Shreveport,LA,71106,United States,318-686-7233,,,"Office Hours Monday-Friday: 9:30 AM-6:00 PM, Saturday: 8:30 AM-5:00 PM, Sunday: 11:00 AM-3:00 PM, Storage Gate Hours Monday-Sunday: 6:00 AM-10:00 PM",,,
,,14203 South Route 59,,Plainfield,IL,60544,United States,815-254-7045,,,"Office Hours Monday-Friday: 9:30 AM-6:00 PM, Saturday: 8:30 AM-5:00 PM, Sunday: 11:00 AM-3:00 PM, Storage Gate Hours Monday-Sunday: 6:00 AM-10:00 PM",,,
,,30w330 Butterfield Road,,Warrenville,IL,60555,United States,630-393-9099,,,"Office Hours Monday-Friday: 9:30 AM-6:00 PM, Saturday: 8:30 AM-5:00 PM, Sunday: 11:00 AM-3:00 PM, Storage Gate Hours Monday-Sunday: 6:00 AM-10:00 PM",,,
,,4250 West  Florida Avenue,,Hemet,CA,92545,United States,951-925-9213,,,"Office Hours Monday-Friday: 9:30 AM-6:00 PM, Saturday: 8:30 AM-5:00 PM, Sunday: 11:00 AM-3:00 PM, Storage Gate Hours Monday-Sunday: 6:00 AM-10:00 PM",,,
,,8000 South Route 53,,Woodridge,IL,60517,United States,630-985-5005,,,"Office Hours Monday-Friday: 9:30 AM-6:00 PM, Saturday: 8:30 AM-5:00 PM, Sunday: 11:00 AM-3:00 PM, Storage Gate Hours Monday-Sunday: 6:00 AM-10:00 PM",,,
,,3606 Gabrielle Lane,,Aurora,IL,60504,United States,630-585-8800,,,"Office Hours Monday-Friday: 9:30 AM-6:00 PM, Saturday: 8:30 AM-5:00 PM, Sunday: 11:00 AM-3:00 PM, Storage Gate Hours Monday-Sunday: 6:00 AM-10:00 PM",,,
,,1089 East Avenue,,Streamwood,IL,60107,United States,630-837-8000,,,"Office Hours Monday-Friday: 9:30 AM-6:00 PM, Saturday: 8:30 AM-5:00 PM, Sunday: 11:00 AM-3:00 PM, Storage Gate Hours Monday-Sunday: 6:00 AM-10:00 PM",,,
,,900 East Devon Avenue,,Bartlett,IL,60103,United States,630-837-0087,,,"Office Hours Monday-Friday: 9:30 AM-6:00 PM, Saturday: 8:30 AM-5:00 PM, Sunday: 11:00 AM-3:00 PM, Storage Gate Hours Monday-Sunday: 6:00 AM-10:00 PM",,,
,,12408 Industrial Drive East,,Plainfield,IL,60544,United States,815-254-9099,,,"Office Hours Monday-Friday: 9:30 AM-6:00 PM, Saturday: 8:30 AM-5:00 PM, Sunday: Closed, Storage Gate Hours Monday-Sunday: 6:00 AM-10:00 PM",,,
,,458 Fortune Boulevard,,Milford,MA,01757,United States,508-473-5701,,,"Office Hours Monday-Friday: 9:30 AM-6:00 PM, Saturday: 8:30 AM-5:00 PM, Sunday: 11:00 AM-3:00 PM, Storage Gate Hours Monday-Sunday: 6:00 AM-10:00 PM",,,
,,11580 Memorial Parkway Southwest,,Huntsville,AL,35803,United States,256-429-2526,,,"Office Hours Monday-Friday: 9:30 AM-6:00 PM, Saturday: 8:30 AM-5:00 PM, Sunday: 11:00 AM-3:00 PM, Storage Gate Hours Monday-Sunday: 6:00 AM-10:00 PM",,,
,,80 Cudworth Road,,Webster,MA,01570,United States,508-943-7535,,,"Office Hours Monday-Friday: 9:30 AM-6:00 PM, Saturday: 8:30 AM-5:00 PM, Sunday: 11:00 AM-3:00 PM, Storage Gate Hours Monday-Sunday: 6:00 AM-10:00 PM",,,
,,757 Boston Turnpike,,Shrewsbury,MA,01545,United States,508-213-4973,,,"Office Hours Monday-Friday: 9:30 AM-6:00 PM, Saturday: 8:30 AM-5:00 PM, Sunday: 11:00 AM-3:00 PM, Storage Gate Hours Monday-Sunday: 6:00 AM-10:00 PM",,,
,,14 Grove Street,,Franklin,MA,02038,United States,508-520-0445,,,"Office Hours Monday-Friday: 9:30 AM-6:00 PM, Saturday: 8:30 AM-5:00 PM, Sunday: 11:00 AM-3:00 PM, Storage Gate Hours Monday-Sunday: 6:00 AM-10:00 PM",,,
,,63 Technology Park Road,,Sturbridge,MA,01566,United States,508-347-2242,,,"Office Hours Monday-Friday: 9:30 AM-6:00 PM, Saturday: 8:30 AM-5:00 PM, Sunday: 11:00 AM-3:00 PM, Storage Gate Hours Monday-Sunday: 6:00 AM-10:00 PM",,,
,,1700 Diamond Hill Road,,Woonsocket,RI,02895,United States,401-767-1700,,,"Office Hours Monday-Friday: 9:30 AM-6:00 PM, Saturday: 8:30 AM-5:00 PM, Sunday: 11:00 AM-3:00 PM, Storage Gate Hours Monday-Sunday: 6:00 AM-10:00 PM",,,
,,435 Eddie Dowling Highway,,North Smithfield,RI,02896,United States,401-769-4146,,,"Office Hours Monday-Friday: 9:30 AM-6:00 PM, Saturday: 8:30 AM-5:00 PM, Sunday: 11:00 AM-3:00 PM, Storage Gate Hours Monday-Sunday: 6:00 AM-10:00 PM",,,
,,3731 Shotsman Lane,,Knoxville,TN,37918,United States,865-687-8809,,,"Office Hours Monday-Friday: 9:30 AM-6:00 PM, Saturday: 8:30 AM-5:00 PM, Sunday: 11:00 AM-3:00 PM, Storage Gate Hours Monday-Sunday: 6:00 AM-10:00 PM",,,
,,4235 Highway 80,,Pearl,MS,39208,United States,601-939-0401,,,"Office Hours Monday-Friday: 9:30 AM-6:00 PM, Saturday: 8:30 AM-5:00 PM, Sunday: 11:00 AM-3:00 PM, Storage Gate Hours Monday-Sunday: 6:00 AM-10:00 PM",,,
,,55 Father Devalles Boulevard,,Fall River,MA,02723,United States,508-678-6680,,,"Office Hours Monday-Friday: 9:30 AM-6:00 PM, Saturday: 8:30 AM-5:00 PM, Sunday: 11:00 AM-3:00 PM, Storage Gate Hours Monday-Sunday: 6:00 AM-10:00 PM",,,
,,1346 Hickory Valley Road,,Chattanooga,TN,37421,United States,423-892-7867,,,"Office Hours Monday-Friday: 9:30 AM-6:00 PM, Saturday: 8:30 AM-5:00 PM, Sunday: 11:00 AM-3:00 PM, Storage Gate Hours Monday-Sunday: 6:00 AM-10:00 PM",,,
,,7963 Apalachee Parkway,,Tallahassee,FL,32311,United States,850-656-2890,,,"Office Hours Monday-Friday: 9:30 AM-6:00 PM, Saturday: 8:30 AM-5:00 PM, Sunday: 11:00 AM-3:00 PM, Storage Gate Hours Monday-Sunday: 6:00 AM-10:00 PM",,,
,,35 Balm Of Life Spring Road,,Uxbridge,MA,01569,United States,508-278-6900,,,"Office Hours Monday-Friday: 9:30 AM-6:00 PM, Saturday: 8:30 AM-5:00 PM, Sunday: 11:00 AM-3:00 PM, Storage Gate Hours Monday-Sunday: 6:00 AM-10:00 PM",,,
,,193 Litchfield Street,,Leominster,MA,01453,United States,978-537-6166,,,"Office Hours Monday-Friday: 9:30 AM-6:00 PM, Saturday: 8:30 AM-5:00 PM, Sunday: 11:00 AM-3:00 PM, Storage Gate Hours Monday-Sunday: 6:00 AM-10:00 PM",,,
,,5651 Highway 18,,Jackson,MS,39209,United States,601-923-3330,,,"Office Hours Monday-Friday: 9:30 AM-6:00 PM, Saturday: 8:30 AM-5:00 PM, Sunday: 11:00 AM-3:00 PM, Storage Gate Hours Monday-Sunday: 6:00 AM-10:00 PM",,,
,,5952 Brainerd Road,,Chattanooga,TN,37421,United States,423-680-7702,,,"Office Hours Monday-Friday: 9:30 AM-6:00 PM, Saturday: 8:30 AM-5:00 PM, Sunday: 11:00 AM-3:00 PM, Storage Gate Hours Monday-Sunday: 6:00 AM-10:00 PM",,,
,,3303 Sutherland Avenue Northwest,,Knoxville,TN,37919,United States,865-637-5016,,,"Office Hours Monday-Friday: 9:30 AM-6:00 PM, Saturday: 8:30 AM-5:00 PM, Sunday: 11:00 AM-3:00 PM, Storage Gate Hours Monday-Sunday: 6:00 AM-10:00 PM",,,
,,95 Industrial Road,,Cumberland,RI,02864,United States,401-335-4404,,,"Office Hours Monday-Friday: 9:30 AM-6:00 PM, Saturday: 8:30 AM-5:00 PM, Sunday: 11:00 AM-3:00 PM, Storage Gate Hours Monday-Sunday: 6:00 AM-10:00 PM",,,
,,131 Howard Wilson Lane,,Flowood,MS,39232,United States,601-939-5004,,,"Office Hours Monday-Friday: 9:30 AM-6:00 PM, Saturday: 8:30 AM-5:00 PM, Sunday: 11:00 AM-3:00 PM, Storage Gate Hours Monday-Sunday: 6:00 AM-10:00 PM",,,
,,198 Washington Street,,Auburn,MA,01501,United States,508-832-2425,,,"Office Hours Monday-Friday: 9:30 AM-6:00 PM, Saturday: 8:30 AM-5:00 PM, Sunday: 11:00 AM-3:00 PM, Storage Gate Hours Monday-Sunday: 6:00 AM-10:00 PM",,,
,,201 Concord Street,,Pawtucket,RI,02860,United States,401-723-1897,,,"Office Hours Monday-Friday: 9:30 AM-6:00 PM, Saturday: 8:30 AM-5:00 PM, Sunday: 11:00 AM-3:00 PM, Storage Gate Hours Monday-Sunday: 6:00 AM-10:00 PM",,,
,,600 Commercial Lane,,Chattanooga,TN,37405,United States,423-870-4049,,,"Office Hours Monday-Friday: 9:30 AM-6:00 PM, Saturday: 8:30 AM-5:00 PM, Sunday: 11:00 AM-3:00 PM, Storage Gate Hours Monday-Sunday: 6:00 AM-10:00 PM",,,
,,3980 Papermill Drive Northwest,,Knoxville,TN,37909,United States,865-584-4444,,,"Office Hours Monday-Friday: 9:30 AM-6:00 PM, Saturday: 8:30 AM-5:00 PM, Sunday: 11:00 AM-3:00 PM, Storage Gate Hours Monday-Sunday: 6:00 AM-10:00 PM",,,
,,2 Delta Drive,,Pawtucket,RI,02860,United States,401-725-4422,,,"Office Hours Monday-Friday: 9:30 AM-6:00 PM, Saturday: 8:30 AM-5:00 PM, Sunday: 11:00 AM-3:00 PM, Storage Gate Hours Monday-Sunday: 6:00 AM-10:00 PM",,,
,,19 Mckeon Road,,Worcester,MA,01610,United States,508-755-2233,,,"Office Hours Monday-Friday: 9:30 AM-6:00 PM, Saturday: 8:30 AM-5:00 PM, Sunday: 11:00 AM-3:00 PM, Storage Gate Hours Monday-Sunday: 6:00 AM-10:00 PM",,,
,,1531 Montiel Road,,Escondido,CA,92026,United States,760-745-7300,,,"Office Hours Monday-Friday: 9:30 AM-6:00 PM, Saturday: 8:30 AM-5:00 PM, Sunday: 11:00 AM-3:00 PM, Storage Gate Hours Monday-Sunday: 6:00 AM-10:00 PM",,,
,,2220 Watson Way,,Vista,CA,92081,United States,760-598-1416,,,"Office Hours Monday-Friday: 9:30 AM-6:00 PM, Saturday: 8:30 AM-5:00 PM, Sunday: 11:00 AM-3:00 PM, Storage Gate Hours Monday-Sunday: 6:00 AM-10:00 PM",,,
,,3 Chestnut Street,,Worcester,MA,01609,United States,508-791-0692,,,"Office Hours Monday-Sunday: 8:00 AM-8:00 PM, Storage Gate Hours Monday-Sunday: 8:00 AM-8:00 PM",,,
,,514 Ammunition Road,,Fallbrook,CA,92028,United States,760-723-4131,,,"Office Hours Monday-Friday: 9:30 AM-6:00 PM, Saturday: 8:30 AM-5:00 PM, Sunday: 11:00 AM-3:00 PM, Storage Gate Hours Monday-Sunday: 6:00 AM-10:00 PM",,,
,,349 West Hillsboro Boulevard,,Deerfield Beach,FL,33441,United States,954-426-4477,,,"Office Hours Monday-Friday: 9:30 AM-6:00 PM, Saturday: 8:30 AM-5:00 PM, Sunday: 11:00 AM-3:00 PM, Storage Gate Hours Monday-Sunday: 6:00 AM-10:00 PM",,,
,,19200 US Highway 441,,Boca Raton,FL,33498,United States,561-477-0084,,,"Office Hours Monday-Friday: 9:30 AM-6:00 PM, Saturday: 8:30 AM-5:00 PM, Sunday: 11:00 AM-3:00 PM, Storage Gate Hours Monday-Sunday: 6:00 AM-10:00 PM",,,
,,4801 West Hillsboro Boulevard,,Coconut Creek,FL,33073,United States,954-570-6200,,,"Office Hours Monday-Friday: 9:30 AM-6:00 PM, Saturday: 8:30 AM-5:00 PM, Sunday: 11:00 AM-3:00 PM, Storage Gate Hours Monday-Sunday: 6:00 AM-10:00 PM",,,
,,946 East Rancheros Drive,,San Marcos,CA,92069,United States,760-741-0525,,,"Office Hours Monday-Friday: 9:30 AM-6:00 PM, Saturday: 8:30 AM-5:00 PM, Sunday: 11:00 AM-3:00 PM, Storage Gate Hours Monday-Sunday: 6:00 AM-10:00 PM",,,
,,5500 Northwest 15th Street,,Margate,FL,33063,United States,954-968-0050,,,"Office Hours Monday-Friday: 9:30 AM-6:00 PM, Saturday: 8:30 AM-5:00 PM, Sunday: 11:00 AM-3:00 PM, Storage Gate Hours Monday-Sunday: 6:00 AM-10:00 PM",,,
,,5501 Northwest 15th Street,,Margate,FL,33063,United States,954-975-0303,,,"Office Hours Monday-Friday: 9:30 AM-6:00 PM, Saturday: 8:30 AM-5:00 PM, Sunday: 11:00 AM-3:00 PM, Storage Gate Hours Monday-Sunday: 6:00 AM-10:00 PM",,,
,,1625 West Vista Way,,Vista,CA,92083,United States,760-732-1400,,,"Office Hours Monday-Friday: 9:30 AM-6:00 PM, Saturday: 8:30 AM-5:00 PM, Sunday: 11:00 AM-3:00 PM, Storage Gate Hours Monday-Sunday: 6:00 AM-10:00 PM",,,
,,4731 West Sample Road,,Coconut Creek,FL,33073,United States,954-969-8787,,,"Office Hours Monday-Friday: 9:30 AM-6:00 PM, Saturday: 8:30 AM-5:00 PM, Sunday: 11:00 AM-3:00 PM, Storage Gate Hours Monday-Sunday: 6:00 AM-10:00 PM",,,
,,61 Putnam Pike,,Johnston,RI,02919,United States,401-233-3333,,,"Office Hours Monday-Friday: 9:30 AM-6:00 PM, Saturday: 8:30 AM-5:00 PM, Sunday: 11:00 AM-3:00 PM, Storage Gate Hours Monday-Sunday: 6:00 AM-10:00 PM",,,
,,13271 Metro Parkway,,Fort Myers,FL,33966,United States,239-561-0311,,,"Office Hours Monday-Friday: 9:30 AM-6:00 PM, Saturday: 8:30 AM-5:00 PM, Sunday: 11:00 AM-3:00 PM, Storage Gate Hours Monday-Sunday: 6:00 AM-10:00 PM",,,
,,3333 Cleveland Avenue,,Fort Myers,FL,33901,United States,239-278-7745,,,"Office Hours Monday-Friday: 9:30 AM-6:00 PM, Saturday: 8:30 AM-5:00 PM, Sunday: 11:00 AM-3:00 PM, Storage Gate Hours Monday-Sunday: 6:00 AM-10:00 PM",,,
,,11200 Gladiolus Drive,,Fort Myers,FL,33908,United States,239-437-6063,,,"Office Hours Monday-Friday: 9:30 AM-6:00 PM, Saturday: 8:30 AM-5:00 PM, Sunday: 11:00 AM-3:00 PM, Storage Gate Hours Monday-Sunday: 6:00 AM-10:00 PM",,,
,,2607 Southwest Pine Island Road,,Cape Coral,FL,33991,United States,239-282-2866,,,"Office Hours Monday-Friday: 9:30 AM-6:00 PM, Saturday: 8:30 AM-5:00 PM, Sunday: 11:00 AM-3:00 PM, Storage Gate Hours Monday-Sunday: 6:00 AM-10:00 PM",,,
,,43357 Division Street,,Lancaster,CA,93535,United States,661-948-5511,,,"Office Hours Monday-Friday: 9:30 AM-6:00 PM, Saturday: 8:30 AM-5:00 PM, Sunday: 11:00 AM-3:00 PM, Storage Gate Hours Monday-Sunday: 6:00 AM-10:00 PM",,,
,,24381 South Tamiami Trail,,Bonita Springs,FL,34134,United States,239-948-0422,,,"Office Hours Monday-Friday: 9:30 AM-6:00 PM, Saturday: 8:30 AM-5:00 PM, Sunday: 11:00 AM-3:00 PM, Storage Gate Hours Monday-Sunday: 6:00 AM-10:00 PM",,,
,,301 Northeast Pine Island Road,,Cape Coral,FL,33909,United States,239-573-6664,,,"Office Hours Monday-Friday: 9:30 AM-6:00 PM, Saturday: 8:30 AM-5:00 PM, Sunday: 11:00 AM-3:00 PM, Storage Gate Hours Monday-Sunday: 6:00 AM-10:00 PM",,,
,,220 Business Park Drive,,Rohnert Park,CA,94928,United States,707-588-1919,,,"Office Hours Monday-Friday: 9:30 AM-6:00 PM, Saturday: 8:30 AM-5:00 PM, Sunday: 11:00 AM-3:00 PM, Storage Gate Hours Monday-Sunday: 6:00 AM-10:00 PM",,,
,,123 West Street,,Simsbury,CT,06070,United States,860-651-8100,,,"Office Hours Monday-Friday: 9:30 AM-6:00 PM, Saturday: 8:30 AM-5:00 PM, Sunday: 11:00 AM-3:00 PM, Storage Gate Hours Monday-Sunday: 6:00 AM-10:00 PM",,,
,,610 Pigeon Hill Road,,Windsor,CT,06095,United States,860-298-9500,,,"Office Hours Monday-Friday: 9:30 AM-6:00 PM, Saturday: 8:30 AM-5:00 PM, Sunday: 11:00 AM-3:00 PM, Storage Gate Hours Monday-Sunday: 6:00 AM-10:00 PM",,,
,,1280 Hopmeadow Street,,Simsbury,CT,06070,United States,860-651-8100,,,"Office Hours Monday-Friday: 9:30 AM-6:00 PM, Saturday: 8:30 AM-5:00 PM, Sunday: 11:00 AM-3:00 PM, Storage Gate Hours Monday-Sunday: 6:00 AM-10:00 PM",,,
,,29 Old Windsor Road,,Bloomfield,CT,06002,United States,860-242-6466,,,"Office Hours Monday-Friday: 9:30 AM-6:00 PM, Saturday: 8:30 AM-5:00 PM, Sunday: 11:00 AM-3:00 PM, Storage Gate Hours Monday-Sunday: 6:00 AM-10:00 PM",,,
,,23 South Main Street,,East Windsor,CT,06088,United States,860-623-2054,,,"Office Hours Monday-Friday: 9:30 AM-6:00 PM, Saturday: 8:30 AM-5:00 PM, Sunday: 11:00 AM-3:00 PM, Storage Gate Hours Monday-Sunday: 6:00 AM-10:00 PM",,,
,,7511 Vandiver Road,,Cherry Valley,IL,61112,United States,815-277-4051,,,"Office Hours Monday-Friday: 9:30 AM-6:00 PM, Saturday: 8:30 PM-5:00 PM, Sunday: 11:00 AM-3:00 PM, Storage Gate Hours Monday-Sunday: 6:00 AM-10:00 PM",,,
,,4560 Stenstrom Road,,Rockford,IL,61109,United States,815-277-4049,,,"Office Hours Monday-Friday: 9:30 AM-6:00 PM, Saturday: 8:30 PM-5:00 PM, Sunday: 11:00 AM-3:00 PM, Storage Gate Hours Monday-Sunday: 6:00 AM-10:00 PM",,,
,,14701 Potomac Mills Road,,Woodbridge,VA,22192,United States,571-285-3444,,,"Office Hours Monday-Friday: 9:30 AM-6:00 PM, Saturday: 8:30 AM-5:00 PM, Sunday: 11:00 AM-3:00 PM, Storage Gate Hours Monday-Sunday: 6:00 AM-10:00 PM",,,
,,3015 North Main Street,,Rockford,IL,61103,United States,815-277-4054,,,"Office Hours Monday-Friday: 9:30 AM-6:00 PM, Saturday: 8:30 AM-5:00 PM, Sunday: 11:00 AM-3:00 PM, Storage Gate Hours Monday-Sunday: 6:00 AM-10:00 PM",,,
,,182 Benton Drive,,East Longmeadow,MA,01028,United States,413-525-9501,,,"Office Hours Monday-Friday: 9:30 AM-6:00 PM, Saturday: 8:30 AM-5:00 PM, Sunday: 11:00 AM-3:00 PM, Storage Gate Hours Monday-Sunday: 6:00 AM-10:00 PM",,,
,,6210 Forest Hills Road,,Rockford,IL,61111,United States,815-277-4052,,,"Office Hours Monday-Friday: 9:30 AM-6:00 PM, Saturday: 8:30 AM-5:00 PM, Sunday: 11:00 AM-3:00 PM, Storage Gate Hours Monday-Sunday: Open 24 Hours",,,
,,4325 Frontage Road,,Oak Forest,IL,60452,United States,708-897-8357,,,"Office Hours Monday-Friday: 9:30 AM-6:00 PM, Saturday: 8:30 AM-5:00 PM, Sunday: 11:00 AM-3:00 PM, Storage Gate Hours Monday-Sunday: 6:00 AM-10:00 PM",,,
,,99 Hamilton Avenue,,Stamford,CT,06902,United States,203-359-4446,,,"Office Hours Monday-Friday: 9:30 AM-6:00 PM, Saturday: 8:30 AM-5:00 PM, Sunday: 11:00 AM-3:00 PM, Storage Gate Hours Monday-Sunday: 6:00 AM-10:00 PM",,,
,,162 Bouton Street,,Norwalk,CT,06854,United States,203-855-9222,,,"Office Hours Monday-Friday: 9:30 AM-6:00 PM, Saturday: 8:30 AM-5:00 PM, Sunday: 11:00 AM-3:00 PM, Storage Gate Hours Monday-Sunday: 6:00 AM-10:00 PM",,,
,,260 Washington Road,,Enfield,CT,06082,United States,860-745-2700,,,"Office Hours Monday-Friday: 9:30 AM-6:00 PM, Saturday: 8:30 AM-5:00 PM, Sunday: 11:00 AM-3:00 PM, Storage Gate Hours Monday-Sunday: 6:00 AM-10:00 PM",,,
,,873 Main Street,,Monroe,CT,06468,United States,203-261-7575,,,"Office Hours Monday-Friday: 9:30 AM-6:00 PM, Saturday: 8:30 AM-5:00 PM, Sunday: 11:00 AM-3:00 PM, Storage Gate Hours Monday-Sunday: 6:00 AM-10:00 PM",,,
,,82 Fair Street,,Norwalk,CT,06851,United States,203-845-7945,,,"Office Hours Monday-Friday: 9:30 AM-6:00 PM, Saturday: 8:30 AM-5:00 PM, Sunday: 11:00 AM-3:00 PM, Storage Gate Hours Monday-Sunday: 6:00 AM-10:00 PM",,,
,,111 Danbury Road,,Wilton,CT,06897,United States,203-834-5033,,,"Office Hours Monday-Friday: 9:30 AM-6:00 PM, Saturday: 8:30 AM-5:00 PM, Sunday: 11:00 AM-3:00 PM, Storage Gate Hours Monday-Sunday: 6:00 AM-10:00 PM",,,
,,450 Putnam Avenue,,Hamden,CT,06517,United States,860-265-4480,,,"Office Hours Monday-Friday: 9:30 AM-6:00 PM, Saturday: 8:30 AM-5:00 PM, Sunday: 11:00 AM-3:00 PM, Storage Gate Hours Monday-Sunday: 6:00 AM-10:00 PM",,,
,,86 Pershing Drive,,Derby,CT,06418,United States,203-735-4415,,,"Office Hours Monday-Friday: 9:30 AM-6:00 PM, Saturday: 8:30 AM-5:00 PM, Sunday: 11:00 AM-3:00 PM, Storage Gate Hours Monday-Sunday: 6:00 AM-10:00 PM",,,
,,242 South Salem Street,,Randolph,NJ,07869,United States,973-989-7722,,,"Office Hours Monday-Friday: 9:30 AM-6:00 PM, Saturday: 8:30 AM-5:00 PM, Sunday: 11:00 AM-3:00 PM, Storage Gate Hours Monday-Sunday: 6:00 AM-10:00 PM",,,
,,90 Rowe Avenue,,Milford,CT,06461,United States,203-878-1331,,,"Office Hours Monday-Friday: 9:30 AM-6:00 PM, Saturday: 8:30 AM-5:00 PM, Sunday: 11:00 AM-3:00 PM, Storage Gate Hours Monday-Sunday: 6:00 AM-10:00 PM",,,
,,829 Bridgeport Avenue,,Shelton,CT,06484,United States,203-925-0200,,,"Office Hours Monday-Friday: 9:30 AM-6:00 PM, Saturday: 8:30 AM-5:00 PM, Sunday: 11:00 AM-3:00 PM, Storage Gate Hours Monday-Sunday: 6:00 AM-10:00 PM",,,
,,5 Stockade Drive,,Ridgeland,SC,29936,United States,843-379-6910,,,"Office Hours Monday-Friday: 9:30 AM-6:00 PM, Saturday: 8:30 AM-5:00 PM, Sunday: 11:00 AM-3:00 PM, Storage Gate Hours Monday-Sunday: 6:00 AM-10:00 PM",,,
,,4300 Interstate Boulevard,,Loves Park,IL,61111,United States,815-277-4053,,,"Office Hours Monday-Friday: 9:30 AM-6:00 PM, Saturday: 8:30 AM-5:00 PM, Sunday: 11:00 AM-3:00 PM, Storage Gate Hours Monday-Sunday: 6:00 AM-10:00 PM",,,
,,4548 American Road,,Rockford,IL,61109,United States,815-277-4049,,,"Office Hours Monday-Friday: 9:30 AM-6:00 PM, Saturday: 8:30 PM-5:00 PM, Sunday: 11:00 AM-3:00 PM, Storage Gate Hours Monday-Sunday: 6:00 AM-10:00 PM",,,
,,528 Dover Road,,Clarksville,TN,37042,United States,931-647-8465,,,"Office Hours Monday-Friday: 9:30 AM-6:00 PM, Saturday: 8:30 AM-5:00 PM, Sunday: 11:00 AM-3:00 PM, Storage Gate Hours Monday-Sunday: 6:00 AM-10:00 PM",,,
,,201 South I-35 East,,Denton,TX,76205,United States,940-484-6919,,,"Office Hours Monday-Friday: 9:30 AM-6:00 PM, Saturday: 8:30 AM-5:00 PM, Sunday: 11:00 AM-3:00 PM, Storage Gate Hours Monday-Sunday: 6:00 AM-10:00 PM",,,
,,903 Industrial Avenue,,Copperas Cove,TX,76522,United States,254-518-5555,,,"Office Hours Monday-Friday: 9:30 AM-6:00 PM, Saturday: 8:30 AM-5:00 PM, Sunday: 11:00 AM-3:00 PM, Storage Gate Hours Monday-Sunday: 6:00 AM-10:00 PM",,,
,,1007 Brown Road,,Lake Orion,MI,48359,United States,248-391-1470,,,"Office Hours Monday-Friday: 9:30 AM-6:00 PM, Saturday: 8:30 AM-5:00 PM, Sunday: 11:00 AM-3:00 PM, Storage Gate Hours Monday-Sunday: 6:00 AM-10:00 PM",,,
,,33 Parmenter Road,,Bluffton,SC,29910,United States,843-837-4808,,,"Office Hours Monday-Friday: 9:30 AM-6:00 PM, Saturday: 8:30 AM-5:00 PM, Sunday: 11:00 AM-3:00 PM, Storage Gate Hours Monday-Sunday: 6:00 AM-10:00 PM",,,
,,2454 East Main Street,,Waterbury,CT,06705,United States,203-574-2764,,,"Office Hours Monday-Friday: 9:30 AM-6:00 PM, Saturday: 8:30 AM-5:00 PM, Sunday: 11:00 AM-3:00 PM, Storage Gate Hours Monday-Sunday: 6:00 AM-10:00 PM",,,
,,453 Washington Avenue,,North Haven,CT,06473,United States,203-479-9336,,,"Office Hours Monday-Friday: 9:30 AM-6:00 PM, Saturday: 8:30 AM-5:00 PM, Sunday: 11:00 AM-3:00 PM, Storage Gate Hours Monday-Sunday: 6:00 AM-10:00 PM",,,
,,171 Cedar Street,,Branford,CT,06405,United States,203-481-2164,,,"Office Hours Monday-Friday: 9:30 AM-6:00 PM, Saturday: 8:30 AM-5:00 PM, Sunday: 11:00 AM-3:00 PM, Storage Gate Hours Monday-Sunday: 6:00 AM-10:00 PM",,,
,,901 Columbiana Drive,,Irmo,SC,29063,United States,803-781-9374,,,"Office Hours Monday-Friday: 9:30 AM-6:00 PM, Saturday: 8:30 AM-5:00 PM, Sunday: 11:00 AM-3:00 PM, Storage Gate Hours Monday-Sunday: 6:00 AM-10:00 PM",,,
,,5050 Hard Scrabble Road,,Columbia,SC,29229,United States,803-736-0023,,,"Office Hours Monday-Friday: 9:30 AM-6:00 PM, Saturday: 8:30 AM-5:00 PM, Sunday: 11:00 AM-3:00 PM, Storage Gate Hours Monday-Sunday: 6:00 AM-10:00 PM",,,
,,1339 Garner Lane,,Columbia,SC,29210,United States,803-731-9939,,,"Office Hours Monday-Friday: 9:30 AM-6:00 PM, Saturday: 8:30 AM-5:00 PM, Sunday: Closed, Storage Gate Hours Monday-Sunday: 6:00 AM-10:00 PM",,,
,,7011 Garners Ferry Road,,Columbia,SC,29209,United States,803-695-3236,,,"Office Hours Monday-Friday: 9:30 AM-6:00 PM, Saturday: 8:30 AM-5:00 PM, Sunday: 11:00 AM-3:00 PM, Storage Gate Hours Monday-Sunday: 6:00 AM-10:00 PM",,,
,,785 Sherman Avenue,,Hamden,CT,06514,United States,203-288-7882,,,"Office Hours Monday-Friday: 9:30 AM-6:00 PM, Saturday: 8:30 AM-5:00 PM, Sunday: 11:00 AM-3:00 PM, Storage Gate Hours Monday-Sunday: 6:00 AM-10:00 PM",,,
,,770 West Main Street,,Waterbury,CT,06702,United States,203-575-1549,,,"Office Hours Monday-Friday: 9:30 AM-6:00 PM, Saturday: 8:30 AM-5:00 PM, Sunday: 11:00 AM-3:00 PM, Storage Gate Hours Monday-Sunday: 6:00 AM-10:00 PM",,,
,,57 Veronica Avenue,,Somerset,NJ,08873,United States,732-745-1600,,,"Office Hours Monday-Friday: 9:30 AM-6:00 PM, Saturday: 8:30 AM-5:00 PM, Sunday: Closed, Storage Gate Hours Monday-Sunday: 6:00 AM-10:00 PM",,,
,,3010 South Congress Avenue,,Boynton Beach,FL,33426,United States,561-735-4900,,,"Office Hours Monday-Friday: 9:30 AM-6:00 PM, Saturday: 8:30 AM-5:00 PM, Sunday: 11:00 AM-3:00 PM, Storage Gate Hours Monday-Sunday: 6:00 AM-10:00 PM",,,
,,1100 Easton Avenue,,Somerset,NJ,08873,United States,732-745-2000,,,"Office Hours Monday-Friday: 9:30 AM-6:00 PM, Saturday: 8:30 AM-5:00 PM, Sunday: 11:00 AM-3:00 PM, Storage Gate Hours Monday-Sunday: 6:00 AM-10:00 PM",,,
,,7960 Venture Center Way,,Boynton Beach,FL,33437,United States,561-735-9990,,,"Office Hours Monday-Friday: 9:30 AM-6:00 PM, Saturday: 8:30 AM-5:00 PM, Sunday: 11:00 AM-3:00 PM, Storage Gate Hours Monday-Sunday: 6:00 AM-10:00 PM",,,
,,2512 North Federal Highway,,Delray Beach,FL,33483,United States,561-274-6464,,,"Office Hours Monday-Friday: 9:30 AM-6:00 PM, Saturday: 8:30 AM-5:00 PM, Sunday: 11:00 AM-3:00 PM, Storage Gate Hours Monday-Sunday: 6:00 AM-10:00 PM",,,
,,2130 West Willow Street,,Scott,LA,70583,United States,337-233-4144,,,"Office Hours Monday-Friday: 9:30 AM-6:00 PM, Saturday: 8:30 AM-5:00 PM, Sunday: 11:00 AM-3:00 PM, Storage Gate Hours Monday-Sunday: 6:00 AM-10:00 PM",,,
,,102 South Goose Creek Boulevard,,Goose Creek,SC,29445,United States,843-553-0944,,,"Office Hours Monday-Friday: 9:30 AM-6:00 PM, Saturday: 8:30 AM-5:00 PM, Sunday: Closed, Storage Gate Hours Monday-Sunday: 6:00 AM-10:00 PM",,,
,,2812 Verot School Road,,Lafayette,LA,70508,United States,337-408-8052,,,"Office Hours Monday-Friday: 9:30 AM-6:00 PM, Saturday: 8:30 AM-5:00 PM, Sunday: 11:00 AM-3:00 PM, Storage Gate Hours Monday-Sunday: 6:00 AM-10:00 PM",,,
,,4403 Johnston Street,,Lafayette,LA,70503,United States,337-412-6170,,,"Office Hours Monday-Friday: 9:30 AM-6:00 PM, Saturday: 8:30 AM-5:00 PM, Sunday: 11:00 AM-3:00 PM, Storage Gate Hours Monday-Sunday: 6:00 AM-10:00 PM",,,
,,2952 Ambassador Caffery Parkway,,Lafayette,LA,70506,United States,337-984-4010,,,"Office Hours Monday-Friday: 9:30 AM-6:00 PM, Saturday: 8:30 AM-5:00 PM, Sunday: 11:00 AM-3:00 PM, Storage Gate Hours Monday-Sunday: 6:00 AM-10:00 PM",,,
,,200 Feu Follett Road,,Lafayette,LA,70508,United States,337-234-4455,,,"Office Hours Monday-Friday: 9:30 AM-6:00 PM, Saturday: 8:30 AM-5:00 PM, Sunday: 11:00 AM-3:00 PM, Storage Gate Hours Monday-Sunday: 6:00 AM-10:00 PM",,,
,,2036 Northeast Evangeline Throughway,,Lafayette,LA,70501,United States,337-504-4677,,,"Office Hours Monday-Friday: 9:30 AM-6:00 PM, Saturday: 8:30 AM-5:00 PM, Sunday: 11:00 AM-3:00 PM, Storage Gate Hours Monday-Sunday: 6:00 AM-10:00 PM",,,
,,3260 Ashley Phosphate Road,,North Charleston,SC,29418,United States,843-760-1787,,,"Office Hours Monday-Friday: 9:30 AM-6:00 PM, Saturday: 8:30 AM-5:00 PM, Sunday: 11:00 AM-3:00 PM, Storage Gate Hours Monday-Sunday: 6:00 AM-10:00 PM",,,
,,7358 Boynton Beach Boulevard,,Boynton Beach,FL,33437,United States,561-375-9508,,,"Office Hours Monday-Friday: 9:30 AM-6:00 PM, Saturday: 8:30 AM-5:00 PM, Sunday: 11:00 AM-3:00 PM, Storage Gate Hours Monday-Sunday: 6:00 AM-10:00 PM",,,
,,5850a Rivers Avenue,,North Charleston,SC,29406,United States,843-744-2150,,,"Office Hours Monday-Friday: 9:30 AM-6:00 PM, Saturday: 8:30 AM-5:00 PM, Sunday: 11:00 AM-3:00 PM, Storage Gate Hours Monday-Sunday: 6:00 AM-10:00 PM",,,
,,3355 South Morgans Point Road,,Mount Pleasant,SC,29466,United States,843-388-9493,,,"Office Hours Monday-Friday: 9:30 AM-6:00 PM, Saturday: 8:30 AM-5:00 PM, Sunday: Closed, Storage Gate Hours Monday-Sunday: 6:00 AM-10:00 PM",,,
,,1977 Savannah Highway,,Charleston,SC,29407,United States,843-556-5160,,,"Office Hours Monday-Friday: 9:30 AM-6:00 PM, Saturday: 8:30 AM-5:00 PM, Sunday: 11:00 AM-3:00 PM, Storage Gate Hours Monday-Sunday: 6:00 AM-10:00 PM",,,
,,1003 Folly Road,,Charleston,SC,29412,United States,843-795-8300,,,"Office Hours Monday-Friday: 9:30 AM-6:00 PM, Saturday: 8:30 AM-5:00 PM, Sunday: 11:00 AM-3:00 PM, Storage Gate Hours Monday-Sunday: 6:00 AM-10:00 PM",,,
,,6555 Dorchester Road North,,Charleston,SC,29418,United States,843-552-1200,,,"Office Hours Monday-Friday: 9:30 AM-6:00 PM, Saturday: 8:30 AM-5:00 PM, Sunday: 11:00 AM-3:00 PM, Storage Gate Hours Monday-Sunday: 6:00 AM-10:00 PM",,,
,,13627 Amargosa Road,,Victorville,CA,92392,United States,760-241-7401,,,"Office Hours Monday-Friday: 9:30 AM-6:00 PM, Saturday: 8:30 AM-5:00 PM, Sunday: 11:00 AM-3:00 PM, Storage Gate Hours Monday-Sunday: 6:00 AM-10:00 PM",,,
,,12560 Military Trail,,Boynton Beach,FL,33436,United States,561-865-0860,,,"Office Hours Monday-Friday: 9:30 AM-6:00 PM, Saturday: 8:30 AM-5:00 PM, Sunday: 11:00 AM-3:00 PM, Storage Gate Hours Monday-Sunday: 6:00 AM-10:00 PM",,,
,,14216 Military Trail,,Delray Beach,FL,33484,United States,561-496-1010,,,"Office Hours Monday-Friday: 9:30 AM-6:00 PM, Saturday: 8:30 AM-5:00 PM, Sunday: 11:00 AM-3:00 PM, Storage Gate Hours Monday-Sunday: 6:00 AM-10:00 PM",,,
,,6100 West Atlantic Avenue,,Delray Beach,FL,33484,United States,561-496-7333,,,"Office Hours Monday-Friday: 9:30 AM-6:00 PM, Saturday: 8:30 AM-5:00 PM, Sunday: 11:00 AM-3:00 PM, Storage Gate Hours Monday-Sunday: 6:00 AM-10:00 PM",,,
,,7551 Coleman Road,,East Lansing,MI,48823,United States,517-339-0397,,,"Office Hours Monday-Friday: 9:30 AM-6:00 PM, Saturday: 8:30 AM-5:00 PM, Sunday: Closed, Storage Gate Hours Monday-Sunday: 6:00 AM-10:00 PM",,,
,,4724 South Creyts Road,,Lansing,MI,48917,United States,517-322-2012,,,"Office Hours Monday-Friday: 9:30 AM-6:00 PM, Saturday: 8:30 AM-5:00 PM, Sunday: Closed, Storage Gate Hours Monday-Sunday: 6:00 AM-10:00 PM",,,
,,201 Lake Avenue,,Bristol,CT,06010,United States,860-583-0020,,,"Office Hours Monday-Friday: 9:30 AM-6:00 PM, Saturday: 8:30 AM-5:00 PM, Sunday: 11:00 AM-3:00 PM, Storage Gate Hours Monday-Sunday: 6:00 AM-10:00 PM",,,
,,10 Hillside Road,,Cromwell,CT,06416,United States,860-635-9997,,,"Office Hours Monday-Friday: 9:30 AM-6:00 PM, Saturday: 8:30 AM-5:00 PM, Sunday: 11:00 AM-3:00 PM, Storage Gate Hours Monday-Sunday: 6:00 AM-10:00 PM",,,
,,20825 North Rand Road,,Kildeer,IL,60047,United States,847-438-0990,,,"Office Hours Monday-Friday: 9:30 AM-6:00 PM, Saturday: 8:30 AM-5:00 PM, Sunday: 11:00 AM-3:00 PM, Storage Gate Hours Monday-Sunday: 6:00 AM-10:00 PM",,,
,,7209 Teckler Boulevard,,Crystal Lake,IL,60014,United States,815-455-0095,,,"Office Hours Monday-Friday: 9:30 AM-6:00 PM, Saturday: 8:30 AM-5:00 PM, Sunday: Closed, Storage Gate Hours Monday-Sunday: 6:00 AM-10:00 PM",,,
,,806 Windsor Street,,Hartford,CT,06120,United States,860-548-1513,,,"Office Hours Monday-Friday: 9:30 AM-6:00 PM, Saturday: 8:30 AM-5:00 PM, Sunday: 11:00 AM-3:00 PM, Storage Gate Hours Monday-Sunday: 6:00 AM-10:00 PM",,,
,,2400 North Austin Avenue,,Georgetown,TX,78626,United States,512-686-4521,,,"Office Hours Monday-Friday: 9:30 AM-6:00 PM, Saturday: 8:30 AM-5:00 PM, Sunday: 11:00 AM-3:00 PM, Storage Gate Hours Monday-Sunday: 6:00 AM-10:00 PM",,,
,,7650 West Highway 29,,Georgetown,TX,78628,United States,512-630-0060,,,"Office Hours Monday-Friday: 9:30 AM-6:00 PM, Saturday: 8:30 AM-5:00 PM, Sunday: 11:00 AM-3:00 PM, Storage Gate Hours Monday-Sunday: 6:00 AM-10:00 PM",,,
,,1591 North Main Street,,East Peoria,IL,61611,United States,309-749-6069,,,"Office Hours Monday-Friday: 9:30 AM-6:00 PM, Saturday: 8:30 AM-5:00 PM, Sunday: 11:00 AM-3:00 PM, Storage Gate Hours Monday-Sunday: 6:00 AM-10:00 PM",,,
,,10201 East Crystal Falls Parkway,,Leander,TX,78641,United States,512-259-1103,,,"Office Hours Monday-Friday: 9:30 AM-6:00 PM, Saturday: 8:30 AM-5:00 PM, Sunday: 11:00 AM-3:00 PM, Storage Gate Hours Monday-Sunday: 6:00 AM-10:00 PM",,,
,,9219 North Industrial Road,,Peoria,IL,61615,United States,309-749-6043,,,"Office Hours Monday-Friday: 9:30 AM-6:00 PM, Saturday: 8:30 AM-5:00 PM, Sunday: 11:00 AM-3:00 PM, Storage Gate Hours Monday-Sunday: 6:00 AM-10:00 PM",,,
,,510 North Main Street,,Manchester,CT,06042,United States,860-649-6980,,,"Office Hours Monday-Friday: 9:30 AM-6:00 PM, Saturday: 8:30 AM-5:00 PM, Sunday: 11:00 AM-3:00 PM, Storage Gate Hours Monday-Sunday: 6:00 AM-10:00 PM",,,
,,255 Center Street,,Manchester,CT,06040,United States,860-645-9697,,,"Office Hours Monday-Friday: 9:30 AM-6:00 PM, Saturday: 8:30 AM-5:00 PM, Sunday: 11:00 AM-3:00 PM, Storage Gate Hours Monday-Sunday: 6:00 AM-10:00 PM",,,
,,981 North Red Bud Lane,,Round Rock,TX,78665,United States,512-388-3808,,,"Office Hours Monday-Friday: 9:30 AM-6:00 PM, Saturday: 8:30 AM-5:00 PM, Sunday: 11:00 AM-3:00 PM, Storage Gate Hours Monday-Sunday: 6:00 AM-10:00 PM",,,
,,1055 West Main Street,,New Britain,CT,06053,United States,860-356-0261,,,"Office Hours Monday-Friday: 9:30 AM-6:00 PM, Saturday: 8:30 AM-5:00 PM, Sunday: 11:00 AM-3:00 PM, Storage Gate Hours Monday-Sunday: 6:00 AM-10:00 PM",,,
,,2365 South Church Street,,Murfreesboro,TN,37130,United States,615-896-2191,,,"Office Hours Monday-Friday: 9:30 AM-6:00 PM, Saturday: 8:30 AM-5:00 PM, Sunday: 11:00 AM-3:00 PM, Storage Gate Hours Monday-Sunday: 6:00 AM-10:00 PM",,,
,,522 Cottage Grove Road,,Bloomfield,CT,06002,United States,860-243-3342,,,"Office Hours Monday-Friday: 9:30 AM-6:00 PM, Saturday: 8:30 AM-5:00 PM, Sunday: 11:00 AM-3:00 PM, Storage Gate Hours Monday-Sunday: 6:00 AM-10:00 PM",,,
,,26 Maselli Road,,Newington,CT,06111,United States,860-666-5115,,,"Office Hours Monday-Friday: 9:30 AM-6:00 PM, Saturday: 8:30 AM-5:00 PM, Sunday: 11:00 AM-3:00 PM, Storage Gate Hours Monday-Sunday: Open 24 Hours",,,
,,110 South FM 1660,,Hutto,TX,78634,United States,512-595-0024,,,"Office Hours Monday-Friday: 9:30 AM-6:00 PM, Saturday: 8:30 AM-5:00 PM, Sunday: 11:00 AM-3:00 PM, Storage Gate Hours Monday-Sunday: 6:00 AM-10:00 PM",,,
,,166 Adams Street,,Manchester,CT,06042,United States,860-533-1237,,,"Office Hours Monday-Friday: 9:30 AM-6:00 PM, Saturday: 8:30 AM-5:00 PM, Sunday: 11:00 AM-3:00 PM, Storage Gate Hours Monday-Sunday: 6:00 AM-10:00 PM",,,
,,646 West Front Street,,Hutto,TX,78634,United States,512-595-0025,,,"Office Hours Monday-Friday: 9:30 AM-6:00 PM, Saturday: 8:30 AM-5:00 PM, Sunday: 11:00 AM-3:00 PM, Storage Gate Hours Monday-Sunday: 6:00 AM-10:00 PM",,,
,,282 Chapel Road,,South  Windsor,CT,06074,United States,860-289-8355,,,"Office Hours Monday-Friday: 9:30 AM-6:00 PM, Saturday: 8:30 AM-5:00 PM, Sunday: 11:00 AM-3:00 PM, Storage Gate Hours Monday-Sunday: 6:00 AM-10:00 PM",,,
,,175 Costello Road,,Newington,CT,06111,United States,860-666-6828,,,"Office Hours Monday-Friday: 9:30 AM-6:00 PM, Saturday: 8:30 AM-5:00 PM, Sunday: 11:00 AM-3:00 PM, Storage Gate Hours Monday-Sunday: 12:00 AM-11:59 PM",,,
,,41906 Remington Avenue,,Temecula,CA,92590,United States,951-296-9797,,,"Office Hours Monday-Friday: 9:30 AM-6:00 PM, Saturday: 8:30 AM-5:00 PM, Sunday: 11:00 AM-3:00 PM, Storage Gate Hours Monday-Sunday: 6:00 AM-10:00 PM",,,
,,28401 Rancho California Road,,Temecula,CA,92590,United States,951-506-2440,,,"Office Hours Monday-Friday: 9:30 AM-6:00 PM, Saturday: 8:30 AM-5:00 PM, Sunday: 11:00 AM-3:00 PM, Storage Gate Hours Monday-Sunday: 6:00 AM-10:00 PM",,,
,,41605 Elm Street,,Murrieta,CA,92562,United States,951-291-7566,,,"Office Hours Monday-Friday: 9:30 AM-6:00 PM, Saturday: 8:30 AM-5:00 PM, Sunday: 11:00 AM-3:00 PM, Storage Gate Hours Monday-Sunday: 6:00 AM-10:00 PM",,,
,,40410 California Oaks Road,,Murrieta,CA,92562,United States,951-696-2400,,,"Office Hours Monday-Friday: 9:30 AM-6:00 PM, Saturday: 8:30 AM-5:00 PM, Sunday: 11:00 AM-3:00 PM, Storage Gate Hours Monday-Sunday: 6:00 AM-10:00 PM",,,
,,44618 Pechanga Parkway,,Temecula,CA,92592,United States,951-676-6606,,,"Office Hours Monday-Friday: 9:30 AM-6:00 PM, Saturday: 8:30 AM-5:00 PM, Sunday: 11:00 AM-3:00 PM, Storage Gate Hours Monday-Sunday: 6:00 AM-10:00 PM",,,
,,15 Hale Street,,Haverhill,MA,01830,United States,978-372-4573,,,"Office Hours Monday-Friday: 9:30 AM-6:00 PM, Saturday: 8:30 AM-5:00 PM, Sunday: 11:00 AM-3:00 PM, Storage Gate Hours Monday-Sunday: 6:00 AM-10:00 PM",,,
,,51 South Canal Street,,Lawrence,MA,01843,United States,978-688-5131,,,"Office Hours Monday-Friday: 9:30 AM-6:00 PM, Saturday: 8:30 AM-5:00 PM, Sunday: 11:00 AM-3:00 PM, Storage Gate Hours Monday-Sunday: 6:00 AM-10:00 PM",,,
,,6212 Hollytree Drive,,Tyler,TX,75703,United States,903-939-1817,,,"Office Hours Monday-Friday: 9:30 AM-6:00 PM, Saturday: 8:30 AM-5:00 PM, Sunday: 11:00 AM-3:00 PM, Storage Gate Hours Monday-Sunday: 6:00 AM-10:00 PM",,,
,,2200 Heritage Drive,,Lakeland,FL,33801,United States,863-666-3320,,,"Office Hours Monday-Friday: 9:30 AM-6:00 PM, Saturday: 8:30 AM-5:00 PM, Sunday: 11:00 AM-3:00 PM, Storage Gate Hours Monday-Sunday: 6:00 AM-10:00 PM",,,
,,665 South Green Bay Road,,Waukegan,IL,60085,United States,847-336-2244,,,"Office Hours Monday-Friday: 9:30 AM-6:00 PM, Saturday: 8:30 AM-5:00 PM, Sunday: 11:00 AM-3:00 PM, Storage Gate Hours Monday-Sunday: 6:00 AM-10:00 PM",,,
,,545 Clark Road,,Tewksbury,MA,01876,United States,978-640-1300,,,"Office Hours Monday-Friday: 9:30 AM-6:00 PM, Saturday: 8:30 AM-5:00 PM, Sunday: 11:00 AM-3:00 PM, Storage Gate Hours Monday-Sunday: 6:00 AM-10:00 PM",,,
,,5701 Old Bullard Road,,Tyler,TX,75703,United States,903-561-8868,,,"Office Hours Monday-Friday: 9:30 AM-6:00 PM, Saturday: 8:30 AM-5:00 PM, Sunday: 11:00 AM-3:00 PM, Storage Gate Hours Monday-Sunday: 6:00 AM-10:00 PM",,,
,,3820 Harvey Road,,College Station,TX,77845,United States,979-694-2700,,,"Office Hours Monday-Friday: 9:30 AM-6:00 PM, Saturday: 8:30 AM-5:00 PM, Sunday: 11:00 AM-3:00 PM, Storage Gate Hours Monday-Sunday: 6:00 AM-10:00 PM",,,
,,17535 State Highway 6 South,,College Station,TX,77845,United States,979-314-0132,,,"Office Hours Monday-Friday: 9:30 AM-6:00 PM, Saturday: 8:30 AM-5:00 PM, Sunday: 11:00 AM-3:00 PM, Storage Gate Hours Monday-Sunday: 6:00 AM-10:00 PM",,,
,,3501 Washington Street,,Gurnee,IL,60031,United States,847-244-4544,,,"Office Hours Monday-Friday: 9:30 AM-6:00 PM, Saturday: 8:30 AM-5:00 PM, Sunday: 11:00 AM-3:00 PM, Storage Gate Hours Monday-Sunday: 6:00 AM-10:00 PM",,,
,,999 West Silver Lake Road,,Fenton,MI,48430,United States,810-629-3878,,,"Office Hours Monday-Friday: 9:30 AM-6:00 PM, Saturday: 8:30 AM-5:00 PM, Sunday: 11:00 AM-3:00 PM, Storage Gate Hours Monday-Sunday: 6:00 AM-10:00 PM",,,
,,104 Holleman Drive,,College Station,TX,77840,United States,979-696-1000,,,"Office Hours Monday-Friday: 9:30 AM-6:00 PM, Saturday: 8:30 AM-5:00 PM, Sunday: 11:00 AM-3:00 PM, Storage Gate Hours Monday-Sunday: 6:00 AM-10:00 PM",,,
,,12324 South Highway 155,,Tyler,TX,75703,United States,903-509-4444,,,"Office Hours Monday-Friday: 9:30 AM-6:00 PM, Saturday: 8:30 AM-5:00 PM, Sunday: 11:00 AM-3:00 PM, Storage Gate Hours Monday-Sunday: 6:00 AM-10:00 PM",,,
,,3301 West Buckley Road,,North Chicago,IL,60064,United States,847-689-8005,,,"Office Hours Monday-Friday: 9:30 AM-6:00 PM, Saturday: 8:30 AM-5:00 PM, Sunday: 11:00 AM-3:00 PM, Storage Gate Hours Monday-Sunday: 6:00 AM-10:00 PM",,,
,,345 Sawmill Drive,,Suwanee,GA,30024,United States,678-765-8015,,,"Office Hours Monday-Friday: 9:30 AM-6:00 PM, Saturday: 8:30 AM-5:00 PM, Sunday: 11:00 AM-3:00 PM, Storage Gate Hours Monday-Sunday: 6:00 AM-10:00 PM",,,
,,105 Old Peachtree Road Northwest,,Suwanee,GA,30024,United States,770-932-1888,,,"Office Hours Monday-Friday: 9:30 AM-6:00 PM, Saturday: 8:30 AM-5:00 PM, Sunday: 11:00 AM-3:00 PM, Storage Gate Hours Monday-Sunday: 6:00 AM-10:00 PM",,,
,,4120 Harrison Park Drive,,Cumming,GA,30041,United States,678-771-8498,,,"Office Hours Monday-Friday: 9:30 AM-6:00 PM, Saturday: 8:30 AM-5:00 PM, Sunday: 11:00 AM-3:00 PM, Storage Gate Hours Monday-Sunday: 6:00 AM-10:00 PM",,,
,,3494 Gwinnett Place Drive,,Duluth,GA,30096,United States,770-623-3236,,,"Office Hours Monday-Friday: 9:30 AM-6:00 PM, Saturday: 8:30 AM-5:00 PM, Sunday: 11:00 AM-3:00 PM, Storage Gate Hours Monday-Sunday: 6:00 AM-10:00 PM",,,
,,3313 Stone Mountain Highway,,Snellville,GA,30078,United States,770-979-3704,,,"Office Hours Monday-Friday: 9:30 AM-6:00 PM, Saturday: 8:30 AM-5:00 PM, Sunday: 11:00 AM-3:00 PM, Storage Gate Hours Monday-Sunday: 6:00 AM-10:00 PM",,,
,,411 South Main Street,,Alpharetta,GA,30004,United States,770-664-1855,,,"Office Hours Monday-Friday: 9:30 AM-6:00 PM, Saturday: 8:30 AM-5:00 PM, Sunday: 11:00 AM-3:00 PM, Storage Gate Hours Monday-Sunday: 6:00 AM-10:00 PM",,,
,,3495 Lawrenceville Suwanee Road,,Suwanee,GA,30024,United States,770-271-3711,,,"Office Hours Monday-Friday: 9:30 AM-6:00 PM, Saturday: 8:30 AM-5:00 PM, Sunday: 11:00 AM-3:00 PM, Storage Gate Hours Monday-Sunday: 6:00 AM-10:00 PM",,,
,,5110 Mcginnis Ferry Road,,Alpharetta,GA,30005,United States,770-569-4999,,,"Office Hours Monday-Friday: 9:30 AM-6:00 PM, Saturday: 8:30 AM-5:00 PM, Sunday: 11:00 AM-3:00 PM, Storage Gate Hours Monday-Sunday: 6:00 AM-10:00 PM",,,
,,6591 South Military Trail,,Lake Worth,FL,33463,United States,561-439-4918,,,"Office Hours Monday-Friday: 9:30 AM-6:00 PM, Saturday: 8:30 AM-5:00 PM, Sunday: 11:00 AM-3:00 PM, Storage Gate Hours Monday-Sunday: 6:00 AM-10:00 PM",,,
,,1201 North State Road 7,,Royal Palm,FL,33411,United States,561-333-3373,,,"Office Hours Monday-Friday: 9:30 AM-6:00 PM, Saturday: 8:30 AM-5:00 PM, Sunday: 11:00 AM-3:00 PM, Storage Gate Hours Monday-Sunday: 6:00 AM-10:00 PM",,,
,,1500 Gateway Boulevard Suite 190,,Boynton Beach,FL,33426,United States,561-244-6666,,,"Office Hours Monday-Friday: 9:30 AM-6:00 PM, Saturday: 8:30 AM-5:00 PM, Sunday: 11:00 AM-3:00 PM, Storage Gate Hours Monday-Sunday: 6:00 AM-10:00 PM",,,
,,1900 6th Avenue South,,Lake Worth,FL,33461,United States,561-202-9056,,,"Office Hours Monday-Friday: 9:30 AM-6:00 PM, Saturday: 8:30 AM-5:00 PM, Sunday: 11:00 AM-3:00 PM, Storage Gate Hours Monday-Sunday: 6:00 AM-10:00 PM",,,
,,6788 Lantana Road,,Lake Worth,FL,33467,United States,561-641-0606,,,"Office Hours Monday-Friday: 9:30 AM-6:00 PM, Saturday: 8:30 AM-5:00 PM, Sunday: 11:00 AM-3:00 PM, Storage Gate Hours Monday-Sunday: 6:00 AM-10:00 PM",,,
,,8970 Belvedere Road,,West Palm Beach,FL,33411,United States,561-753-0666,,,"Office Hours Monday-Friday: 9:30 AM-6:00 PM, Saturday: 8:30 AM-5:00 PM, Sunday: 11:00 AM-3:00 PM, Storage Gate Hours Monday-Sunday: 6:00 AM-10:00 PM",,,
,,5058 Forest Hill Boulevard,,West Palm Beach,FL,33415,United States,561-966-9925,,,"Office Hours Monday-Friday: 9:30 AM-6:00 PM, Saturday: 8:30 AM-5:00 PM, Sunday: 11:00 AM-3:00 PM, Storage Gate Hours Monday-Sunday: 6:00 AM-10:00 PM",,,
,,330 Business Parkway,,Royal Palm Beach,FL,33411,United States,561-793-7867,,,"Office Hours Monday-Friday: 9:30 AM-6:00 PM, Saturday: 8:30 AM-5:00 PM, Sunday: 11:00 AM-3:00 PM, Storage Gate Hours Monday-Sunday: 6:00 AM-10:00 PM",,,
,,7501 South Dixie Highway,,West Palm Beach,FL,33405,United States,561-547-8673,,,"Office Hours Monday-Friday: 9:30 AM-6:00 PM, Saturday: 8:30 AM-5:00 PM, Sunday: 11:00 AM-3:00 PM, Storage Gate Hours Monday-Sunday: 6:00 AM-10:00 PM",,,
,,545 Northlake Boulevard,,North Palm Beach,FL,33408,United States,561-537-3723,,,"Office Hours Monday-Friday: 9:30 AM-6:00 PM, Saturday: 8:30 AM-5:00 PM, Sunday: 11:00 AM-3:00 PM, Storage Gate Hours Monday-Sunday: 6:00 AM-10:00 PM",,,
,,4200 Forest Hill Boulevard,,West Palm Beach,FL,33406,United States,561-641-4998,,,"Office Hours Monday-Friday: 9:30 AM-6:00 PM, Saturday: 8:30 AM-5:00 PM, Sunday: 11:00 AM-3:00 PM, Storage Gate Hours Monday-Sunday: 6:00 AM-10:00 PM",,,
,,3016 West  Gentry Parkway,,Tyler,TX,75702,United States,903-592-2401,,,"Office Hours Monday-Friday: 9:30 AM-6:00 PM, Saturday: 8:30 AM-5:00 PM, Sunday: 11:00 AM-3:00 PM, Storage Gate Hours Monday-Sunday: 6:00 AM-10:00 PM",,,
,,1519 North Dixie Highway,,Lake Worth,FL,33460,United States,561-540-5411,,,"Office Hours Monday-Friday: 9:30 AM-6:00 PM, Saturday: 8:30 AM-5:00 PM, Sunday: 11:00 AM-3:00 PM, Storage Gate Hours Monday-Sunday: 6:00 AM-10:00 PM",,,
,,741 North Harvey Mitchell Parkway,,Bryan,TX,77807,United States,979-821-2129,,,"Office Hours Monday-Friday: 9:30 AM-6:00 PM, Saturday: 8:30 AM-5:00 PM, Sunday: 11:00 AM-3:00 PM, Storage Gate Hours Monday-Sunday: 6:00 AM-10:00 PM",,,
,,376 Hathaway Road,,New Bedford,MA,02740,United States,508-993-8700,,,"Office Hours Monday-Friday: 9:30 AM-6:00 PM, Saturday: 8:30 AM-5:00 PM, Sunday: 11:00 AM-3:00 PM, Storage Gate Hours Monday-Sunday: 6:00 AM-10:00 PM",,,
,,503 North Bedford Street,,East Bridgewater,MA,02333,United States,508-378-8800,,,"Office Hours Monday-Friday: 9:30 AM-6:00 PM, Saturday: 8:30 AM-5:00 PM, Sunday: 11:00 AM-3:00 PM, Storage Gate Hours Monday-Sunday: 6:00 AM-10:00 PM",,,
,,135 James Burgess Road,,Cumming,GA,30041,United States,678-341-9364,,,"Office Hours Monday-Friday: 9:30 AM-6:00 PM, Saturday: 8:30 AM-5:00 PM, Sunday: 11:00 AM-3:00 PM, Storage Gate Hours Monday-Sunday: 6:00 AM-10:00 PM",,,
,,1042 South Milwaukee Road,,Wheeling,IL,60090,United States,847-537-5595,,,"Office Hours Monday-Friday: 9:30 AM-6:00 PM, Saturday: 8:30 AM-5:00 PM, Sunday: Closed, Storage Gate Hours Monday-Sunday: 6:00 AM-10:00 PM",,,
,,1080 South Butterfield Road,,Mundelein,IL,60060,United States,847-816-8530,,,"Office Hours Monday-Friday: 9:30 AM-6:00 PM, Saturday: 8:30 AM-5:00 PM, Sunday: 11:00 AM-3:00 PM, Storage Gate Hours Monday-Sunday: 6:00 AM-10:00 PM",,,
,,27944 North Bradley Road,,Libertyville,IL,60048,United States,847-367-6445,,,"Office Hours Monday-Friday: 9:30 AM-6:00 PM, Saturday: 8:30 AM-5:00 PM, Sunday: 11:00 AM-3:00 PM, Storage Gate Hours Monday-Sunday: 6:00 AM-10:00 PM",,,
,,3725 Deerfield Road,,Riverwoods,IL,60015,United States,224-588-8328,,,"Office Hours Monday-Friday: 9:30 AM-6:00 PM, Saturday: 8:30 AM-5:00 PM, Sunday: 11:00 AM-3:00 PM, Storage Gate Hours Monday-Sunday: 6:00 AM-10:00 PM",,,
,,1004 South Milwaukee Road,,Wheeling,IL,60090,United States,847-537-2242,,,"Office Hours Monday-Friday: 9:30 AM-6:00 PM, Saturday: 8:30 AM-5:00 PM, Sunday: 11:00 AM-3:00 PM, Storage Gate Hours Monday-Sunday: 6:00 AM-10:00 PM",,,
,,540 South Volusia Avenue,,Orange City,FL,32763,United States,386-774-1414,,,"Office Hours Monday-Friday: 9:30 AM-6:00 PM, Saturday: 8:30 AM-5:00 PM, Sunday: 11:00 AM-3:00 PM, Storage Gate Hours Monday-Sunday: 6:00 AM-10:00 PM",,,
,,43 Old Olden Avenue,,Hamilton,NJ,08610,United States,609-888-4300,,,"Office Hours Monday-Friday: 9:30 AM-6:00 PM, Saturday: 8:30 AM-5:00 PM, Sunday: 11:00 AM-3:00 PM, Storage Gate Hours Monday-Sunday: 6:00 AM-10:00 PM",,,
,,1817 US Route 38,,Lumberton,NJ,08048,United States,609-518-5444,,,"Office Hours Monday-Friday: 9:30 AM-6:00 PM, Saturday: 8:30 AM-5:00 PM, Sunday: 11:00 AM-3:00 PM, Storage Gate Hours Monday-Sunday: 6:00 AM-10:00 PM",,,
,,3250 US Route 206,,Mansfield,NJ,08505,United States,609-298-8500,,,"Office Hours Monday-Friday: 9:30 AM-6:00 PM, Saturday: 8:30 AM-5:00 PM, Sunday: 11:00 AM-3:00 PM, Storage Gate Hours Monday-Sunday: 6:00 AM-10:00 PM",,,
,,1430 Katy Flewellen Road,,Katy,TX,77494,United States,800-770-4297,,,"Office Hours Monday-Friday: 9:30 AM-6:00 PM, Saturday: 8:30 AM-5:00 PM, Sunday: 11:00 AM-3:00 PM, Storage Gate Hours Monday-Sunday: 6:00 AM-10:00 PM",,,
,,16731 South Halsted Street,,Harvey,IL,60426,United States,708-339-3337,,,"Office Hours Monday-Friday: 9:30 AM-6:00 PM, Saturday: 8:30 AM-5:00 PM, Sunday: 11:00 AM-3:00 PM, Storage Gate Hours Monday-Sunday: 6:00 AM-10:00 PM",,,
,,1000 West Grand Parkway South,,Katy,TX,77494,United States,281-394-3086,,,"Office Hours Monday-Friday: 9:30 AM-6:00 PM, Saturday: 8:30 AM-5:00 PM, Sunday: 11:00 AM-3:00 PM, Storage Gate Hours Monday-Sunday: 6:00 AM-10:00 PM",,,
,,5601 Avenue I,,Rosenberg,TX,77471,United States,832-735-3282,,,"Office Hours Monday-Friday: 9:30 AM-6:00 PM, Saturday: 8:30 AM-5:00 PM, Sunday: 11:00 AM-3:00 PM, Storage Gate Hours Monday-Sunday: 6:00 AM-10:00 PM",,,
,,196 East Plaza Drive,,Mooresville,NC,28115,United States,704-664-1554,,,"Office Hours Monday-Friday: 9:30 AM-6:00 PM, Saturday: 8:30 AM-5:00 PM, Sunday: Closed, Storage Gate Hours Monday-Sunday: 6:00 AM-10:00 PM",,,
,,9720 Harlem Road,,Richmond,TX,77407,United States,800-644-5492,,,"Office Hours Monday-Friday: 9:30 AM-6:00 PM, Saturday: 8:30 AM-5:00 PM, Sunday: 11:00 AM-3:00 PM, Storage Gate Hours Monday-Sunday: 6:00 AM-10:00 PM",,,
,,6262 Katy Gaston Road,,Katy,TX,77494,United States,281-392-2226,,,"Office Hours Monday-Friday: 9:30 AM-6:00 PM, Saturday: 8:30 AM-5:00 PM, Sunday: 11:00 AM-3:00 PM, Storage Gate Hours Monday-Sunday: 6:00 AM-10:00 PM",,,
,,814 Buford Drive,,Lawrenceville,GA,30043,United States,770-513-3400,,,"Office Hours Monday-Friday: 9:30 AM-6:00 PM, Saturday: 8:30 AM-5:00 PM, Sunday: 11:00 AM-3:00 PM, Storage Gate Hours Monday-Sunday: 6:00 AM-10:00 PM",,,
,,19840 FM 1093,,Richmond,TX,77407,United States,281-616-5511,,,"Office Hours Monday-Friday: 9:30 AM-6:00 PM, Saturday: 8:30 AM-5:00 PM, Sunday: 11:00 AM-3:00 PM, Storage Gate Hours Monday-Sunday: 6:00 AM-10:00 PM",,,
,,830 Wheeler Way,,Langhorne,PA,19047,United States,215-752-4882,,,"Office Hours Monday-Friday: 9:30 AM-6:00 PM, Saturday: 8:30 AM-5:00 PM, Sunday: 11:00 AM-3:00 PM, Storage Gate Hours Monday-Sunday: 6:00 AM-10:00 PM",,,
,,4015 Mini Trail,,Cumming,GA,30041,United States,770-781-2844,,,"Office Hours Monday-Friday: 9:30 AM-6:00 PM, Saturday: 8:30 AM-5:00 PM, Sunday: Closed, Storage Gate Hours Monday-Sunday: 6:00 AM-10:00 PM",,,
,,4550 White Lake Road,,Clarkston,MI,48346,United States,248-625-5393,,,"Office Hours Monday-Friday: 9:30 AM-6:00 PM, Saturday: 8:30 AM-5:00 PM, Sunday: 11:00 AM-3:00 PM, Storage Gate Hours Monday-Sunday: 6:00 AM-10:00 PM",,,
,,6535 Highland Road,,Waterford,MI,48327,United States,248-666-4500,,,"Office Hours Monday-Friday: 9:30 AM-6:00 PM, Saturday: 8:30 AM-5:00 PM, Sunday: 11:00 AM-3:00 PM, Storage Gate Hours Monday-Sunday: 6:00 AM-10:00 PM",,,
,,210 Church Street,,Wakefield,RI,02879,United States,401-788-8060,,,"Office Hours Monday-Friday: 9:30 AM-6:00 PM, Saturday: 8:30 AM-5:00 PM, Sunday: 11:00 AM-3:00 PM, Storage Gate Hours Monday-Sunday: 6:00 AM-10:00 PM",,,
,,525 South County Trail,,Exeter,RI,02822,United States,401-294-6080,,,"Office Hours Monday-Friday: 9:30 AM-6:00 PM, Saturday: 8:30 AM-5:00 PM, Sunday: 11:00 AM-3:00 PM, Storage Gate Hours Monday-Sunday: Open 24 Hours",,,
,,1104 West Lincoln Highway,,Schererville,IN,46375,United States,219-322-7236,,,"Office Hours Monday-Friday: 9:30 AM-6:00 PM, Saturday: 8:30 AM-5:00 PM, Sunday: 11:00 AM-3:00 PM, Storage Gate Hours Monday-Sunday: 6:00 AM-10:00 PM",,,
,,200 State Road 206 East,,Saint Augustine,FL,32086,United States,904-797-6464,,,"Office Hours Monday-Friday: 9:30 AM-6:00 PM, Saturday: 8:30 AM-5:00 PM, Sunday: 11:00 AM-3:00 PM, Storage Gate Hours Monday-Sunday: 6:00 AM-10:00 PM",,,
,,531 Cypress Edge Drive,,Palm Coast,FL,32164,United States,386-445-5122,,,"Office Hours Monday-Friday: 9:30 AM-6:00 PM, Saturday: 8:30 AM-5:00 PM, Sunday: 11:00 AM-3:00 PM, Storage Gate Hours Monday-Sunday: 6:00 AM-10:00 PM",,,
,,11 Pine Lakes Parkway North,,Palm Coast,FL,32137,United States,386-446-8533,,,"Office Hours Monday-Friday: 9:30 AM-6:00 PM, Saturday: 8:30 AM-5:00 PM, Sunday: 11:00 AM-3:00 PM, Storage Gate Hours Monday-Sunday: 6:00 AM-10:00 PM",,,
,,115 Amsdell Road,,Merritt Island,FL,32952,United States,321-459-0444,,,"Office Hours Monday-Friday: 9:30 AM-6:00 PM, Saturday: 8:30 AM-5:00 PM, Sunday: 11:00 AM-3:00 PM, Storage Gate Hours Monday-Sunday: 6:00 AM-10:00 PM",,,
,,1515 South 11th Street,,Kalamazoo,MI,49009,United States,269-375-1801,,,"Office Hours Monday-Friday: 9:30 AM-6:00 PM, Saturday: 8:30 AM-5:00 PM, Sunday: 11:00 AM-3:00 PM, Storage Gate Hours Monday-Sunday: 6:00 AM-10:00 PM",,,
,,820 West Centre Avenue,,Portage,MI,49024,United States,269-327-9693,,,"Office Hours Monday-Friday: 9:30 AM-6:00 PM, Saturday: 8:30 AM-5:00 PM, Sunday: 11:00 AM-3:00 PM, Storage Gate Hours Monday-Sunday: 6:00 AM-10:00 PM",,,
,,6 Tabas Lane,,Exton,PA,19341,United States,610-524-7867,,,"Office Hours Monday-Friday: 9:30 AM-6:00 PM, Saturday: 8:30 AM-5:00 PM, Sunday: 11:00 AM-3:00 PM, Storage Gate Hours Monday-Sunday: 6:00 AM-10:00 PM",,,
,,1015 Park Avenue,,Rock Hill,SC,29732,United States,803-366-4820,,,"Office Hours Monday-Friday: 9:30 AM-6:00 PM, Saturday: 8:30 AM-5:00 PM, Sunday: Closed, Storage Gate Hours Monday-Saturday: 6:00 AM-10:00 PM, Sunday: Closed",,,
,,1220 East Main Street,,Rock Hill,SC,29730,United States,803-324-4530,,,"Office Hours Monday-Friday: 9:30 AM-6:00 PM, Saturday: 8:30 AM-5:00 PM, Sunday: Closed, Storage Gate Hours Monday-Sunday: 6:00 AM-10:00 PM",,,
,,100 Storage Way,,Frederick,MD,21701,United States,301-663-4111,,,"Office Hours Monday-Saturday: 9:00 AM-6:00 PM, Sunday: 12:00 PM-5:00 PM, Storage Gate Hours Monday-Sunday: 6:00 AM-10:00 PM",,,
,,847 Trailview Boulevard Southeast,,Leesburg,VA,20175,United States,703-777-8211,,,"Office Hours Monday-Friday: 9:30 AM-6:00 PM, Saturday: 8:30 AM-5:00 PM, Sunday: 11:00 AM-3:00 PM, Storage Gate Hours Monday-Sunday: 6:00 AM-10:00 PM",,,
,,1601 Battlefield Parkway Northeast,,Leesburg,VA,20176,United States,703-779-8701,,,"Office Hours Monday-Friday: 9:30 AM-6:00 PM, Saturday: 8:30 AM-5:00 PM, Sunday: 11:00 AM-3:00 PM, Storage Gate Hours Monday-Sunday: 6:00 AM-10:00 PM",,,
,,300 Old Game Preserve Road,,Gaithersburg,MD,20879,United States,301-527-0777,,,"Office Hours Monday-Friday: 9:30 AM-6:00 PM, Saturday: 8:30 AM-5:00 PM, Sunday: 11:00 AM-3:00 PM, Storage Gate Hours Monday-Sunday: 6:00 AM-10:00 PM",,,
,,13800 McLearen Road,,Herndon,VA,20171,United States,703-437-8100,,,"Office Hours Monday-Friday: 9:30 AM-6:00 PM, Saturday: 8:30 AM-5:00 PM, Sunday: 11:00 AM-3:00 PM, Storage Gate Hours Monday-Sunday: 6:00 AM-10:00 PM",,,
,,1310 Rayford Road,,Spring,TX,77386,United States,281-882-3270,,,"Office Hours Monday-Friday: 9:30 AM-6:00 PM, Saturday: 8:30 AM-5:00 PM, Sunday: 11:00 AM-3:00 PM, Storage Gate Hours Monday-Sunday: 6:00 AM-10:00 PM",,,
,,1865 Renzulli Road,,New Smyrna Beach,FL,32168,United States,386-423-2545,,,"Office Hours Monday-Friday: 9:30 AM-6:00 PM, Saturday: 8:30 AM-5:00 PM, Sunday: 11:00 AM-3:00 PM, Storage Gate Hours Monday-Sunday: 6:00 AM-10:00 PM",,,
,,610 Sawdust Road,,Spring,TX,77380,United States,281-882-3848,,,"Office Hours Monday-Friday: 9:30 AM-6:00 PM, Saturday: 8:30 AM-5:00 PM, Sunday: 11:00 AM-3:00 PM, Storage Gate Hours Monday-Sunday: 6:00 AM-10:00 PM",,,
,,24523 Gosling Road,,Spring,TX,77389,United States,281-205-4800,,,"Office Hours Monday-Friday: 9:30 AM-6:00 PM, Saturday: 8:30 AM-5:00 PM, Sunday: 11:00 AM-3:00 PM, Storage Gate Hours Monday-Sunday: 6:00 AM-10:00 PM",,,
,,29101 FM 2978,,Magnolia,TX,77354,United States,281-201-5332,,,"Office Hours Monday-Friday: 9:30 AM-6:00 PM, Saturday: 8:30 AM-5:00 PM, Sunday: 11:00 AM-3:00 PM, Storage Gate Hours Monday-Sunday: 6:00 AM-10:00 PM",,,
,,1220 West Riley Fuzzel Road,,Spring,TX,77373,United States,281-350-1570,,,"Office Hours Monday-Friday: 9:30 AM-6:00 PM, Saturday: 8:30 AM-5:00 PM, Sunday: 11:00 AM-3:00 PM, Storage Gate Hours Monday-Sunday: 6:00 AM-10:00 PM",,,
,,6375 College Park Drive,,The Woodlands,TX,77384,United States,936-271-5019,,,"Office Hours Monday-Friday: 9:30 AM-6:00 PM, Saturday: 8:30 AM-5:00 PM, Sunday: 11:00 AM-3:00 PM, Storage Gate Hours Monday-Sunday: 6:00 AM-10:00 PM",,,
,,32010 FM 2978,,The Woodlands,TX,77354,United States,281-465-9210,,,"Office Hours Monday-Friday: 9:30 AM-6:00 PM, Saturday: 8:30 AM-5:00 PM, Sunday: 11:00 AM-3:00 PM, Storage Gate Hours Monday-Sunday: 6:00 AM-10:00 PM",,,
,,27000 Kuykendahl,,Tomball,TX,77375,United States,281-205-0502,,,"Office Hours Monday-Friday: 9:30 AM-6:00 PM, Saturday: 8:30 AM-5:00 PM, Sunday: 11:00 AM-3:00 PM, Storage Gate Hours Monday-Sunday: 6:00 AM-10:00 PM",,,
,,28525 Southwest 157th Avenue,,Leisure City,FL,33033,United States,305-246-8115,,,"Office Hours Monday-Friday: 9:30 AM-6:00 PM, Saturday: 8:30 AM-5:00 PM, Sunday: 11:00 AM-3:00 PM, Storage Gate Hours Monday-Sunday: 6:00 AM-10:00 PM",,,
,,765 Sawdust Road,,Spring,TX,77380,United States,281-882-3284,,,"Office Hours Monday-Friday: 9:30 AM-6:00 PM, Saturday: 8:30 AM-5:00 PM, Sunday: 11:00 AM-3:00 PM, Storage Gate Hours Monday-Sunday: 6:00 AM-10:00 PM",,,
,,1835 East Main Street,,Duncan,SC,29334,United States,864-433-8633,,,"Office Hours Monday-Friday: 9:30 AM-6:00 PM, Saturday: 8:30 AM-5:00 PM, Sunday: 11:00 AM-3:00 PM, Storage Gate Hours Monday-Sunday: 6:00 AM-10:00 PM",,,
,,638 Powdersville Road,,Easley,SC,29642,United States,864-855-1635,,,"Office Hours Monday-Friday: 9:30 AM-6:00 PM, Saturday: 8:30 AM-5:00 PM, Sunday: Closed, Storage Gate Hours Monday-Sunday: 6:00 AM-10:00 PM",,,
,,1150 Texas 337 Loop,,New Braunfels,TX,78130,United States,830-627-7200,,,"Office Hours Monday-Friday: 9:30 AM-6:00 PM, Saturday: 8:30 AM-5:00 PM, Sunday: Closed, Storage Gate Hours Monday-Sunday: 6:00 AM-10:00 PM",,,
,,2926 Grandview Drive,,Simpsonville,SC,29680,United States,864-963-1669,,,"Office Hours Monday-Friday: 9:30 AM-6:00 PM, Saturday: 8:30 AM-5:00 PM, Sunday: Closed, Storage Gate Hours Monday-Sunday: 6:00 AM-10:00 PM",,,
,,1320 South Pleasantburg Drive,,Greenville,SC,29605,United States,864-448-0131,,,"Office Hours Monday-Friday: 9:30 AM-6:00 PM, Saturday: 8:30 AM-5:00 PM, Sunday: 11:00 AM-3:00 PM, Storage Gate Hours Monday-Sunday: 6:00 AM-10:00 PM",,,
,,25 Airview Drive,,Greenville,SC,29607,United States,864-297-0956,,,"Office Hours Monday-Friday: 9:30 AM-6:00 PM, Saturday: 8:30 AM-5:00 PM, Sunday: 11:00 AM-3:00 PM, Storage Gate Hours Monday-Sunday: 6:00 AM-10:00 PM",,,
,,1009 Woodruff Road,,Greenville,SC,29607,United States,864-234-4619,,,"Office Hours Monday-Friday: 9:30 AM-6:00 PM, Saturday: 8:30 AM-5:00 PM, Sunday: 11:00 AM-3:00 PM, Storage Gate Hours Monday-Sunday: 6:00 AM-10:00 PM",,,
,,2422 Laurens Road,,Greenville,SC,29607,United States,864-288-4075,,,"Office Hours Monday-Friday: 9:30 AM-6:00 PM, Saturday: 8:30 AM-5:00 PM, Sunday: 11:00 AM-3:00 PM, Storage Gate Hours Monday-Sunday: 6:00 AM-10:00 PM",,,
,,1490 Wade Hampton Boulevard,,Greer,SC,29650,United States,864-879-7674,,,"Office Hours Monday-Friday: 9:30 AM-6:00 PM, Saturday: 8:30 AM-5:00 PM, Sunday: 11:00 AM-3:00 PM, Storage Gate Hours Monday-Sunday: 6:00 AM-10:00 PM",,,
,,111 Country Club Road,,Rocky Mount,NC,27804,United States,252-443-9471,,,"Office Hours Monday-Friday: 9:30 AM-6:00 PM, Saturday: 8:30 AM-5:00 PM, Sunday: 11:00 AM-3:00 PM, Storage Gate Hours Monday-Sunday: 6:00 AM-10:00 PM",,,
,,550 Harper Street,,Stuart,FL,34994,United States,772-287-3550,,,"Office Hours Monday-Friday: 9:30 AM-6:00 PM, Saturday: 8:30 AM-5:00 PM, Sunday: 11:00 AM-3:00 PM, Storage Gate Hours Monday-Sunday: 6:00 AM-10:00 PM",,,
,,3277 Crompond Road,,Yorktown Heights,NY,10598,United States,914-736-1360,,,"Office Hours Monday-Friday: 9:30 AM-6:00 PM, Saturday: 8:30 AM-5:00 PM, Sunday: 11:00 AM-3:00 PM, Storage Gate Hours Monday-Sunday: 6:00 AM-10:00 PM",,,
,,3464 US Route 9 South,,Freehold,NJ,07728,United States,732-761-8420,,,"Office Hours Monday-Friday: 9:30 AM-6:00 PM, Saturday: 8:30 AM-5:00 PM, Sunday: 11:00 AM-3:00 PM, Storage Gate Hours Monday-Sunday: 6:00 AM-10:00 PM",,,
,,1990 Moreland Parkway,,Annapolis,MD,21401,United States,410-268-5120,,,"Office Hours Monday-Friday: 9:30 AM-6:00 PM, Saturday: 8:30 AM-5:00 PM, Sunday: 11:00 AM-3:00 PM, Storage Gate Hours Monday-Sunday: 6:00 AM-9:00 PM",,,
,,240 Bayshore Road,,North  Babylon,NY,11703,United States,631-242-8585,,,"Office Hours Monday-Friday: 9:30 AM-6:00 PM, Saturday: 8:30 AM-5:00 PM, Sunday: 11:00 AM-3:00 PM, Storage Gate Hours Monday-Sunday: 6:00 AM-10:00 PM",,,
,,1170 Atlantic Avenue,,Baldwin,NY,11510,United States,516-546-5200,,,"Office Hours Monday-Friday: 9:30 AM-6:00 PM, Saturday: 8:30 AM-5:00 PM, Sunday: 11:00 AM-3:00 PM, Storage Gate Hours Monday-Sunday: 6:00 AM-10:00 PM",,,
,,6915 Manatee Avenue West,,Bradenton,FL,34209,United States,941-794-5700,,,"Office Hours Monday-Friday: 9:30 AM-6:00 PM, Saturday: 8:30 AM-5:00 PM, Sunday: 11:00 AM-3:00 PM, Storage Gate Hours Monday-Sunday: 6:00 AM-10:00 PM",,,
,,6512 14th Street,,Bradenton,FL,34207,United States,941-758-0001,,,"Office Hours Monday-Friday: 9:30 AM-6:00 PM, Saturday: 8:30 AM-5:00 PM, Sunday: 11:00 AM-3:00 PM, Storage Gate Hours Monday-Sunday: 6:00 AM-10:00 PM",,,
,,8250 North Tamiami Trail,,Sarasota,FL,34243,United States,941-359-6634,,,"Office Hours Monday-Friday: 9:30 AM-6:00 PM, Saturday: 8:30 AM-5:00 PM, Sunday: 11:00 AM-3:00 PM, Storage Gate Hours Monday-Sunday: 6:00 AM-10:00 PM",,,
,,2661 Veterans Memorial Parkway,,St  Charles,MO,63303,United States,636-925-0359,,,"Office Hours Monday-Friday: 9:30 AM-6:00 PM, Saturday: 8:30 AM-5:00 PM, Sunday: 11:00 AM-3:00 PM, Storage Gate Hours Monday-Sunday: 6:00 AM-10:00 PM",,,
,,2450 East Olive Road,,Pensacola,FL,32514,United States,850-479-2477,,,"Office Hours Monday-Friday: 9:30 AM-6:00 PM, Saturday: 8:30 AM-5:00 PM, Sunday: Closed, Storage Gate Hours Monday-Sunday: 6:00 AM-10:00 PM",,,
,,382 West Harden Street,,Burlington,NC,27215,United States,336-226-9898,,,"Office Hours Monday-Friday: 9:30 AM-6:00 PM, Saturday: 8:30 AM-5:00 PM, Sunday: 11:00 AM-3:00 PM, Storage Gate Hours Monday-Sunday: 6:00 AM-10:00 PM",,,
,,4435 Bay Road,,Saginaw,MI,48603,United States,989-401-7995,,,"Office Hours Monday-Friday: 9:30 AM-6:00 PM, Saturday: 8:30 AM-5:00 PM, Sunday: 11:00 AM-3:00 PM, Storage Gate Hours Monday-Sunday: 6:00 AM-10:00 PM",,,
,,257 Keyes Ferry Road,,Charles Town,WV,25414,United States,304-885-4706,,,"Office Hours Monday-Friday: 9:30 AM-6:00 PM, Saturday: 8:30 AM-5:00 PM, Sunday: 11:00 AM-3:00 PM, Storage Gate Hours Monday-Sunday: 6:00 AM-10:00 PM",,,
,,11400 East Tamiami Trail,,Naples,FL,34113,United States,239-775-5740,,,"Office Hours Monday-Friday: 9:30 AM-6:00 PM, Saturday: 8:30 AM-5:00 PM, Sunday: 11:00 AM-3:00 PM, Storage Gate Hours Monday-Sunday: 6:00 AM-10:00 PM",,,
,,5650 Naples Boulevard,,Naples,FL,34109,United States,239-598-3828,,,"Office Hours Monday-Friday: 9:30 AM-6:00 PM, Saturday: 8:30 AM-5:00 PM, Sunday: 11:00 AM-3:00 PM, Storage Gate Hours Monday-Sunday: 6:00 AM-10:00 PM",,,
,,2349 Trade Center Way,,Naples,FL,34109,United States,239-591-1244,,,"Office Hours Monday-Friday: 9:30 AM-6:00 PM, Saturday: 8:30 AM-5:00 PM, Sunday: Closed, Storage Gate Hours Monday-Sunday: 6:00 AM-10:00 PM",,,
,,3485 Domestic Avenue,,Naples,FL,34104,United States,239-643-0792,,,"Office Hours Monday-Friday: 9:30 AM-6:00 PM, Saturday: 8:30 AM-5:00 PM, Sunday: 11:00 AM-3:00 PM, Storage Gate Hours Monday-Sunday: Open 24 Hours",,,
,,689 Industrial Road,,Warrenton,VA,20186,United States,540-347-0700,,,"Office Hours Monday-Friday: 9:30 AM-6:00 PM, Saturday: 8:30 AM-5:00 PM, Sunday: Closed, Storage Gate Hours Monday-Sunday: 6:00 AM-10:00 PM",,,
,,411 Holiday Court,,Warrenton,VA,20186,United States,540-878-2223,,,"Office Hours Monday-Friday: 9:30 AM-6:00 PM, Saturday: 8:30 AM-5:00 PM, Sunday: Closed, Storage Gate Hours Monday-Sunday: 6:00 AM-10:00 PM",,,
,,8130 Oak Street,,Manassas,VA,20111,United States,571-229-9898,,,"Office Hours Monday-Friday: 9:30 AM-6:00 PM, Saturday: 8:30 AM-5:00 PM, Sunday: 11:00 AM-3:00 PM, Storage Gate Hours Monday-Sunday: 6:00 AM-10:00 PM",,,
,,10609 Dumfries Road,,Manassas,VA,20112,United States,703-369-2359,,,"Office Hours Monday-Friday: 9:30 AM-6:00 PM, Saturday: 8:30 AM-5:00 PM, Sunday: 11:00 AM-3:00 PM, Storage Gate Hours Monday-Sunday: Open 24 Hours",,,
,,8621 Sunnygate Drive,,Manassas,VA,20109,United States,703-361-3501,,,"Office Hours Monday-Friday: 9:30 AM-6:00 PM, Saturday: 8:30 AM-5:00 PM, Sunday: 11:00 PM-3:00 PM, Storage Gate Hours Monday-Sunday: 6:00 AM-10:00 PM",,,
,,11607 Nokesville Road,,Bristow,VA,20136,United States,703-330-1932,,,"Office Hours Monday-Friday: 9:30 AM-6:00 PM, Saturday: 8:30 AM-5:00 PM, Sunday: 11:00 AM-3:00 PM, Storage Gate Hours Monday-Sunday: 6:00 AM-10:00 PM",,,
,,34 Sanborn Street,,Gardner,MA,01440,United States,978-958-0335,,,"Office Hours Monday-Friday: 9:30 AM-6:00 PM, Saturday: 8:30 AM-5:00 PM, Sunday: 11:00 AM-3:00 PM, Storage Gate Hours Monday-Sunday: 6:00 AM-10:00 PM",,,
,,4194 Broad Street,,Sumter,SC,29154,United States,803-494-9089,,,"Office Hours Monday-Friday: 9:30 AM-6:00 PM, Saturday: 8:30 AM-5:00 PM, Sunday: Closed, Storage Gate Hours Monday-Sunday: 6:00 AM-10:00 PM",,,
,,2623 Fire Road,,Egg Harbor Township,NJ,08234,United States,609-646-4884,,,"Office Hours Monday-Friday: 9:30 AM-6:00 PM, Saturday: 8:30 AM-5:00 PM, Sunday: 11:00 AM-3:00 PM, Storage Gate Hours Monday-Sunday: 6:00 AM-10:00 PM",,,
,,6600 Delilah Road,,Egg Harbor Township,NJ,08234,United States,609-641-6550,,,"Office Hours Monday-Friday: 9:30 AM-6:00 PM, Saturday: 8:30 AM-5:00 PM, Sunday: 11:00 AM-3:00 PM, Storage Gate Hours Monday-Sunday: 6:00 AM-10:00 PM",,,
,,2 Commerce Drive,,Columbia,CT,06237,United States,860-228-4734,,,"Office Hours Monday-Friday: 9:30 AM-6:00 PM, Saturday: 8:30 AM-5:00 PM, Sunday: 11:00 AM-3:00 PM, Storage Gate Hours Monday-Sunday: 6:00 AM-10:00 PM",,,
,,868 Flanders Road,,Mystic,CT,06355,United States,860-536-2424,,,"Office Hours Monday-Friday: 9:30 AM-6:00 PM, Saturday: 8:30 AM-5:00 PM, Sunday: 11:00 AM-3:00 PM, Storage Gate Hours Monday-Sunday: 6:00 AM-10:00 PM",,,
,,1065 Voluntown Road,,Griswold,CT,06351,United States,860-376-7300,,,"Office Hours Monday-Friday: 9:30 AM-6:00 PM, Saturday: 8:30 AM-5:00 PM, Sunday: 11:00 AM-3:00 PM, Storage Gate Hours Monday-Sunday: 6:00 AM-10:00 PM",,,
,,1501 Route 12,,Gales Ferry,CT,06335,United States,860-464-7241,,,"Office Hours Monday-Friday: 9:30 AM-6:00 PM, Saturday: 8:30 AM-5:00 PM, Sunday: 11:00 AM-3:00 PM, Storage Gate Hours Monday-Sunday: 6:00 AM-10:00 PM",,,
,,1560 Asheville Highway,,Spartanburg,SC,29303,United States,864-573-9392,,,"Office Hours Monday-Friday: 9:30 AM-6:00 PM, Saturday: 8:30 AM-5:00 PM, Sunday: Closed, Storage Gate Hours Monday-Sunday: 6:00 AM-10:00 PM",,,
,,2301 Reidville Road,,Spartanburg,SC,29301,United States,864-574-1116,,,"Office Hours Monday-Friday: 9:30 AM-6:00 PM, Saturday: 8:30 AM-5:00 PM, Sunday: Closed, Storage Gate Hours Monday-Sunday: 6:00 AM-10:00 PM",,,
,,151 Cedar Springs Road,,Spartanburg,SC,29302,United States,864-583-4073,,,"Office Hours Monday-Friday: 9:30 AM-6:00 PM, Saturday: 8:30 AM-5:00 PM, Sunday: 11:00 AM-3:00 PM, Storage Gate Hours Monday-Sunday: 6:00 AM-10:00 PM",,,
,,1455 Pamplico Highway,,Florence,SC,29505,United States,843-662-7449,,,"Office Hours Monday-Friday: 9:30 AM-6:00 PM, Saturday: 8:30 AM-5:00 PM, Sunday: Closed, Storage Gate Hours Monday-Sunday: 6:00 AM-10:00 PM",,,
,,2100 East Main Street,,Spartanburg,SC,29307,United States,864-583-4073,,,"Office Hours Monday-Friday: 9:30 AM-6:00 PM, Saturday: 8:30 AM-5:00 PM, Sunday: 11:00 AM-3:00 PM, Storage Gate Hours Monday-Sunday: 6:00 AM-10:00 PM",,,
,,111 South Blackstock Road,,Spartanburg,SC,29301,United States,864-576-5968,,,"Office Hours Monday-Friday: 9:30 AM-6:00 PM, Saturday: 8:30 AM-5:00 PM, Sunday: Closed, Storage Gate Hours Monday-Sunday: 6:00 AM-10:00 PM",,,
,,3506 South Irby Street,,Florence,SC,29505,United States,843-667-6323,,,"Office Hours Monday-Friday: 9:30 AM-6:00 PM, Saturday: 8:30 AM-5:00 PM, Sunday: Closed, Storage Gate Hours Monday-Sunday: 6:00 AM-10:00 PM",,,
,,2529 Joan Avenue,,Panama City Beach,FL,32408,United States,850-233-9050,,,"Office Hours Monday-Friday: 9:30 AM-6:00 PM, Saturday: 8:30 AM-5:00 PM, Sunday: 11:00 AM-3:00 PM, Storage Gate Hours Monday-Sunday: 6:00 AM-10:00 PM",,,
,,11037 Hutchison Boulevard,,Panama City Beach,FL,32407,United States,850-233-9600,,,"Office Hours Monday-Friday: 9:30 AM-6:00 PM, Saturday: 8:30 PM-5:00 PM, Sunday: 11:00 AM-3:00 PM, Storage Gate Hours Monday-Sunday: 6:00 AM-10:00 PM",,,
