store_name,store_number,address,address2,city,state,zip_code,country,phone_number,latitude,longitude,store_hours,store_type,other_fields,coming_soon
Life Storage in Auburn ,327,1231 Gatewood Dr. ,,Auburn ,AL,36830,United States,334-502-1444,,,,,,
Life Storage in Auburn ,354,2020 S. College St. ,,Auburn ,AL,36832,United States,334-887-3811,,,,,,
Life Storage in Opelika ,326,3951 Pepperell Pkwy ,,Opelika ,AL,36801,United States,334-704-0700,,,,,,
Life Storage in Bessemer ,229,3551 Bessemer Super Hwy ,,Bessemer ,AL,35020,United States,205-425-5599,,,,,,
Life Storage in Birmingham ,064,2630 Center Point Pkwy ,,Birmingham ,AL,35215,United States,205-856-9791,,,,,,
Life Storage in Birmingham ,173,6604 Walt Drive ,,Birmingham ,AL,35242,United States,205-991-8427,,,,,,
Life Storage in Hoover ,065,3625 Lorna Road ,,Hoover ,AL,35216,United States,205-988-9431,,,,,,
Life Storage in Foley ,352,7775 State Highway 59 ,,Foley ,AL,36535,United States,251-970-5055,,,,,,
Life Storage in Foley ,363,7905 State Highway 59 ,,Foley ,AL,36535,United States,251-955-6565,,,,,,
Life Storage in Huntsville ,345,11607 S Memorial Pkwy ,,Huntsville ,AL,35803,United States,256-880-2800,,,,,,
Life Storage in Huntsville ,348,7015 Highway 72 West ,,Huntsville ,AL,35806,United States,256-726-0083,,,,,,
Life Storage in Madison ,346,8036 Madison Blvd. ,,Madison ,AL,35758,United States,256-461-1997,,,,,,
Life Storage in Madison ,351,8778 Highway 72 West ,,Madison ,AL,35758,United States,256-830-0809,,,,,,
Life Storage in Mobile ,349,8781 Airport Blvd. ,,Mobile ,AL,36608,United States,251-635-1787,,,,,,
Life Storage in Montgomery ,357,115 S. Arrowhead Dr. ,,Montgomery ,AL,36117,United States,334-215-0191,,,,,,
Life Storage in Montgomery ,095,1201 Coliseum Blvd ,,Montgomery ,AL,36110,United States,334-271-1077,,,,,,
Life Storage in Montgomery ,358,1925 McLemore Dr. ,,Montgomery ,AL,36117,United States,334-215-0141,,,,,,
Life Storage in Montgomery ,086,2632 Spruce Street ,,Montgomery ,AL,36107,United States,334-262-2800,,,,,,
Life Storage in Montgomery ,325,2650 East South Boulevard ,,Montgomery ,AL,36116,United States,334-284-6401,,,,,,
Life Storage in Montgomery ,066,2895 Vaughn Plaza Road ,,Montgomery ,AL,36116,United States,334-244-1717,,,,,,
Life Storage in Montgomery ,283,3650 Richard Rd ,,Montgomery ,AL,36111,United States,334-284-9797,,,,,,
Life Storage in Doylestown ,745,4435 Progress Meadow Drive ,,Doylestown ,PA,18902,United States,267-880-1779,,,,,,
Life Storage in Glenolden ,526,407 S Chester Pike ,,Glenolden ,PA,19036,United States,610-534-1441,,,,,,
Life Storage in Harrisburg ,156,958 Peiffers Lane ,,Harrisburg ,PA,17109,United States,717-558-8436,,,,,,
Life Storage in Mechanicsburg ,081,191 Salem Church Road ,,Mechanicsburg ,PA,17050,United States,717-697-4476,,,,,,
Life Storage in Mechanicsburg ,833,4751 Westport Drive ,,Mechanicsburg ,PA,17055,United States,717-790-9100,,,,,,
Life Storage in Middletown ,080,3271 Fulling Mill Road ,,Middletown ,PA,17057,United States,717-232-2722,,,,,,
Life Storage in Ottsville ,743,8133 Easton Rd ,,Ottsville ,PA,18942,United States,610-847-8167,,,,,,
Life Storage in Eagleville ,525,3200 Ridge Pike ,,Eagleville ,PA,19403,United States,610-630-1100,,,,,,
Life Storage in King of Prussia ,759,318 S. Henderson Road ,,King of Prussia ,PA,19406,United States,610-421-4349,,,,,,
Life Storage in E Stroudsburg ,744,104 Joel Street ,,E Stroudsburg ,PA,18301,United States,570-420-4556,,,,,,
Life Storage in Hermitage ,039,230 Snyder Road ,,Hermitage ,PA,16148,United States,724-981-4116,,,,,,
Life Storage in Milwaukee ,881,420 W Saint Paul Ave ,,Milwaukee ,WI,53203,United States,414-765-2827,,,,,,
Life Storage in Milwaukee ,607,4565 N Green Bay Ave ,,Milwaukee ,WI,53209,United States,414-376-3388,,,,,,
Life Storage in E Greenwich ,005,500 Frenchtown Rd ,,E Greenwich ,RI,02818,United States,401-884-8814,,,,,,
Life Storage in E. Greenwich ,174,2771 S County Trl ,,E. Greenwich ,RI,02818,United States,401-885-5585,,,,,,
Life Storage in Rumford ,169,800 Narragansett Park Dr ,,Rumford ,RI,02916,United States,401-434-7505,,,,,,
Life Storage in West Warwick ,207,5 James P Murphy Ind Hwy ,,West Warwick ,RI,02893,United States,401-821-7160,,,,,,
Life Storage in Chattanooga ,471,1380 Broad St ,,Chattanooga ,TN,37402,United States,423-805-2603,,,,,,
Life Storage in Chattanooga ,275,4119 Hixson Pike ,,Chattanooga ,TN,37415,United States,423-877-9070,,,,,,
Life Storage in Chattanooga ,171,4429 Highway 58 ,,Chattanooga ,TN,37416,United States,423-855-6865,,,,,,
Life Storage in Chattanooga ,323,6103 Lee Highway ,,Chattanooga ,TN,37421,United States,423-899-2223,,,,,,
Life Storage in Chattanooga ,170,6601 Lee Hwy ,,Chattanooga ,TN,37421,United States,423-855-6866,,,,,,
Life Storage in Charleston ,475,1540 Meeting Street Rd ,,Charleston ,SC,29405,United States,843-203-8479,,,,,,
Life Storage in Summerville ,087,422 Old Trolley Road ,,Summerville ,SC,29485,United States,843-875-7019,,,,,,
Life Storage in Columbia ,035,10020 Two Notch Road ,,Columbia ,SC,29223,United States,803-788-9405,,,,,,
Life Storage in Columbia ,021,2648 Two Notch Road ,,Columbia ,SC,29204,United States,803-252-0449,,,,,,
Life Storage in Columbia ,034,5311A Bush River Rd ,,Columbia ,SC,29212,United States,803-772-3344,,,,,,
Life Storage in Columbia ,500,6000 Garners Ferry Rd ,,Columbia ,SC,29209,United States,803-695-6907,,,,,,
Life Storage in Columbia ,033,7403 Parklane Rd ,,Columbia ,SC,29223,United States,803-788-5013,,,,,,
Life Storage in Columbia ,236,7437 Garners Ferry Road ,,Columbia ,SC,29209,United States,803-783-2708,,,,,,
Life Storage in Bluffton ,502,19B Sheridan Park Circle ,,Bluffton ,SC,29910,United States,843-815-3200,,,,,,
Life Storage in Mount Pleasant ,876,1426 N Highway 17 ,,Mount Pleasant ,SC,29464,United States,843-800-2400,,,,,,
Life Storage in Mount Pleasant ,001,1471 Center Street Ext ,,Mount Pleasant ,SC,29464,United States,843-884-0191,,,,,,
Life Storage in Mount Pleasant ,498,1514 Mathis Ferry Rd ,,Mount Pleasant ,SC,29464,United States,843-388-8833,,,,,,
Life Storage in Myrtle Beach ,237,600 Cannon Road ,,Myrtle Beach ,SC,29577,United States,843-448-0050,,,,,,
Life Storage in Surfside Beach ,499,2687 Beaver Run Blvd ,,Surfside Beach ,SC,29575,United States,843-215-9797,,,,,,
Life Storage in West Jordan ,621,7062 S Airport Rd ,,West Jordan ,UT,84084,United States,385-237-0505,,,,,,
Life Storage in Alexandria ,057,6457 General Green Way ,,Alexandria ,VA,22312,United States,703-750-3668,,,,,,
Life Storage in Chesapeake ,472,1907 Campostella Rd ,,Chesapeake ,VA,23324,United States,757-543-9500,,,,,,
Life Storage in Chesapeake ,137,2703 Battlefield Blvd S ,,Chesapeake ,VA,23322,United States,757-421-7233,,,,,,
Life Storage in Chesapeake ,157,3248 S Military Hwy ,,Chesapeake ,VA,23323,United States,757-487-9090,,,,,,
Life Storage in Chesapeake ,158,517 Volvo Pkwy ,,Chesapeake ,VA,23320,United States,757-436-2235,,,,,,
Life Storage in Newport News ,052,10429 Jefferson Avenue ,,Newport News ,VA,23605,United States,757-591-0117,,,,,,
Life Storage in Newport News ,085,473 J Clyde Morris Blvd ,,Newport News ,VA,23601,United States,757-596-1182,,,,,,
Life Storage in Newport News ,401,701 Brick Kiln Blvd. ,,Newport News ,VA,23602,United States,757-874-4959,,,,,,
Life Storage in Norfolk ,062,1213 E Brambleton Ave ,,Norfolk ,VA,23504,United States,757-625-8200,,,,,,
Life Storage in Norfolk ,406,1806 E Little Creek Rd ,,Norfolk ,VA,23518,United States,757-588-1401,,,,,,
Life Storage in Norfolk ,161,385 S. Naval Base Road ,,Norfolk ,VA,23505,United States,757-480-1720,,,,,,
Life Storage in Henrico ,863,3501 Cox Rd ,,Henrico ,VA,23233,United States,804-554-5050,,,,,,
Life Storage in Midlothian ,367,3830 N Bailey Bridge Rd ,,Midlothian ,VA,23112,United States,804-744-6093,,,,,,
Life Storage in Richmond ,076,1210 Bentley Street ,,Richmond ,VA,23227,United States,804-266-5034,,,,,,
Life Storage in Suffolk ,869,5226 Nansemond Pkwy ,,Suffolk ,VA,23435,United States,757-516-4910,,,,,,
Life Storage in Virginia Beach ,159,4929 Shell Road ,,Virginia Beach ,VA,23455,United States,757-363-8232,,,,,,
Life Storage in Virginia Beach ,160,597 Central Drive ,,Virginia Beach ,VA,23454,United States,757-431-2105,,,,,,
Life Storage in Batavia ,204,1105 Old State Route 74 ,,Batavia ,OH,45103,United States,513-752-8857,,,,,,
Life Storage in Cincinnati ,366,2950 Robertson Ave ,,Cincinnati ,OH,45209,United States,513-631-6300,,,,,,
Life Storage in Cincinnati ,860,3600 Red Bank Rd ,,Cincinnati ,OH,45227,United States,513-609-4141,,,,,,
Life Storage in Cincinnati ,859,4932 Marburg Ave ,,Cincinnati ,OH,45209,United States,513-631-6343,,,,,,
Life Storage in Cincinnati ,872,814 Dellway St ,,Cincinnati ,OH,45229,United States,513-818-4500,,,,,,
Life Storage in Springdale ,102,11378 Springfield Pike ,,Springdale ,OH,45246,United States,513-771-2232,,,,,,
Life Storage in Avon ,143,38390 Chester Road ,,Avon ,OH,44011,United States,440-934-6300,,,,,,
Life Storage in Bedford ,115,1455 Broadway Ave ,,Bedford ,OH,44146,United States,440-232-0003,,,,,,
Life Storage in Cleveland ,118,15101 McCracken Road ,,Cleveland ,OH,44128,United States,216-475-0600,,,,,,
Life Storage in Cleveland ,117,19200 Neff Road ,,Cleveland ,OH,44119,United States,216-531-0010,,,,,,
Life Storage in Cleveland ,116,4976 W 130th St ,,Cleveland ,OH,44135,United States,216-433-1766,,,,,,
Life Storage in Eastlake ,120,1100 Erie Road ,,Eastlake ,OH,44095,United States,440-946-0006,,,,,,
Life Storage in Mentor ,121,8650 East Avenue ,,Mentor ,OH,44060,United States,440-255-2226,,,,,,
Life Storage in Westlake ,119,24560 Sperry Dr ,,Westlake ,OH,44145,United States,440-835-2887,,,,,,
Life Storage in Westlake ,009,24940 Detroit Rd ,,Westlake ,OH,44145,United States,440-871-9043,,,,,,
Life Storage in Columbus ,711,4735 Evanswood Dr ,,Columbus ,OH,43229,United States,614-885-2210,,,,,,
Life Storage in Columbus ,709,5810 Cleveland Ave ,,Columbus ,OH,43231,United States,614-899-2221,,,,,,
Life Storage in Columbus ,724,6460 E Broad St ,,Columbus ,OH,43213,United States,614-577-0000,,,,,,
Life Storage in Columbus ,721,851 W Henderson Rd ,,Columbus ,OH,43214,United States,614-326-3222,,,,,,
Life Storage in Dublin ,725,6245 Old Avery Rd ,,Dublin ,OH,43016,United States,614-792-7600,,,,,,
Life Storage in Whitehall ,714,3777 E Main St ,,Whitehall ,OH,43213,United States,614-237-2201,,,,,,
Life Storage in Warren ,180,3787 Elm Rd NE ,,Warren ,OH,44483,United States,330-372-3787,,,,,,
Life Storage in Warren ,181,3942 Youngstown Rd SE ,,Warren ,OH,44484,United States,330-369-6997,,,,,,
Life Storage in Austintown ,007,3690 Leharps Dr ,,Austintown ,OH,44515,United States,330-793-9932,,,,,,
Life Storage in Youngstown ,113,446 Boardman Canfield Rd ,,Youngstown ,OH,44512,United States,330-758-4884,,,,,,
Life Storage in Concord ,332,11 Integra Dr ,,Concord ,NH,03301,United States,603-225-5627,,,,,,
Life Storage in Londonderry ,850,6 Smith Ln ,,Londonderry ,NH,03053,United States,603-421-1143,,,,,,
Life Storage in Manchester ,301,1902 Wellington Rd ,,Manchester ,NH,03104,United States,603-644-1500,,,,,,
Life Storage in Nashua ,302,120 Spit Brook Rd ,,Nashua ,NH,03062,United States,603-888-8834,,,,,,
Life Storage in Danville ,517,220 Kingston Rd ,,Danville ,NH,03819,United States,603-702-3892,,,,,,
Life Storage in Hampton Falls ,518,143 Lafayette Rd ,,Hampton Falls ,NH,03844,United States,603-260-0235,,,,,,
Life Storage in Kingston ,516,164 Route 125 ,,Kingston ,NH,03848,United States,603-702-3083,,,,,,
Life Storage in Lee ,519,44 Calef Hwy ,,Lee ,NH,03861,United States,603-260-0261,,,,,,
Life Storage in Portsmouth ,520,70 Heritage Ave ,,Portsmouth ,NH,03801,United States,603-260-0531,,,,,,
Life Storage in Salem ,178,134 S Policy St ,,Salem ,NH,03079,United States,603-893-7791,,,,,,
Life Storage in Arlington ,090,1061 Duncan Perry Rd ,,Arlington ,TX,76011,United States,817-633-1444,,,,,,
Life Storage in Arlington ,089,1105 N Little School Rd ,,Arlington ,TX,76017,United States,817-478-0920,,,,,,
Life Storage in Arlington ,746,1401 Blue Danube ,,Arlington ,TX,76015,United States,817-465-2224,,,,,,
Life Storage in Arlington ,747,1620 E Lamar Blvd ,,Arlington ,TX,76011,United States,817-795-1444,,,,,,
Life Storage in Arlington ,573,4255 S Bowen Rd ,,Arlington ,TX,76016,United States,682-235-6600,,,,,,
Life Storage in Arlington ,314,4320 Little Rd ,,Arlington ,TX,76016,United States,817-478-3500,,,,,,
Life Storage in Austin ,198,10307 FM 2222 ,,Austin ,TX,78730,United States,512-349-7600,,,,,,
Life Storage in Austin ,543,10800 Highway 290 W ,,Austin ,TX,78736,United States,512-766-2309,,,,,,
Life Storage in Austin ,390,12835 Pond Springs Road ,,Austin ,TX,78729,United States,512-250-5113,,,,,,
Life Storage in Austin ,624,1341 W Mary St ,,Austin ,TX,78704,United States,512-387-7450,,,,,,
Life Storage in Austin ,542,2607 W Braker Ln ,,Austin ,TX,78758,United States,512-766-1697,,,,,,
Life Storage in Austin ,541,4515 S. Congress Ave. ,,Austin ,TX,78745,United States,512-649-9775,,,,,,
Life Storage in Austin ,197,5547 McNeil Drive ,,Austin ,TX,78729,United States,512-219-5996,,,,,,
Life Storage in Austin ,287,6509 South 1st Street ,,Austin ,TX,78745,United States,512-326-9696,,,,,,
Life Storage in Austin ,231,8227 N Lamar Blvd ,,Austin ,TX,78753,United States,512-833-8336,,,,,,
Life Storage in Austin ,445,9706 Manchaca Road ,,Austin ,TX,78748,United States,512-282-2728,,,,,,
Life Storage in Austin ,285,9717 E US Highway 290 ,,Austin ,TX,78724,United States,512-278-1500,,,,,,
Life Storage in Cedar Park ,474,2440 W Whitestone Blvd ,,Cedar Park ,TX,78613,United States,512-707-8141,,,,,,
Life Storage in Cedar Park ,382,309 South Bell Boulevard ,,Cedar Park ,TX,78613,United States,512-336-7867,,,,,,
Life Storage in Georgetown ,546,71 Wildwood Dr ,,Georgetown ,TX,78633,United States,737-444-8229,,,,,,
Life Storage in Killeen ,544,4201 S. Clear Creek Rd. ,,Killeen ,TX,76549,United States,254-231-4606,,,,,,
Life Storage in Pflugerville ,547,20217 FM 685 ,,Pflugerville ,TX,78660,United States,512-601-0382,,,,,,
Life Storage in Round Rock ,446,1515 North AW Grimes Blvd ,,Round Rock ,TX,78665,United States,512-310-2220,,,,,,
Life Storage in Round Rock ,430,2101 Double Creek Dr ,,Round Rock ,TX,78664,United States,512-733-1200,,,,,,
Life Storage in Round Rock ,429,2715 Sam Bass Road ,,Round Rock ,TX,78681,United States,512-255-4110,,,,,,
Life Storage in Round Rock ,276,2830 S A W Grimes Blvd ,,Round Rock ,TX,78664,United States,512-255-9359,,,,,,
Life Storage in Round Rock ,427,3997 FM 1431 ,,Round Rock ,TX,78681,United States,512-255-9993,,,,,,
Life Storage in Round Rock ,545,506 McNeil Rd ,,Round Rock ,TX,78681,United States,512-601-0302,,,,,,
Life Storage in Round Rock ,392,550 S. IH-35 ,,Round Rock ,TX,78681,United States,512-238-6464,,,,,,
Life Storage in Beaumont ,873,1501 N 7th St ,,Beaumont ,TX,77703,United States,409-444-3993,,,,,,
Life Storage in Beaumont ,360,1655 S. Major Dr. ,,Beaumont ,TX,77707,United States,409-860-9555,,,,,,
Life Storage in Beaumont ,344,250 S Dowlen Rd ,,Beaumont ,TX,77707,United States,409-866-2203,,,,,,
Life Storage in Beaumont ,132,6970 College St ,,Beaumont ,TX,77707,United States,409-860-0900,,,,,,
Life Storage in Beaumont ,130,8020 Eastex Freeway ,,Beaumont ,TX,77708,United States,409-898-0002,,,,,,
Life Storage in Lumberton ,260,188 S LHS Dr ,,Lumberton ,TX,77657,United States,409-755-6909,,,,,,
Life Storage in Port Arthur ,343,9595 Highway 69 ,,Port Arthur ,TX,77640,United States,409-729-5700,,,,,,
Life Storage in Port Arthur ,131,9999 Highway 69 ,,Port Arthur ,TX,77640,United States,409-722-0002,,,,,,
Life Storage in Allen ,490,908 Allen Central Dr. ,,Allen ,TX,75013,United States,972-727-3516,,,,,,
Life Storage in Carrollton ,194,2300 Old Denton Road ,,Carrollton ,TX,75006,United States,972-242-9400,,,,,,
Life Storage in Cedar Hill ,224,150 North Clark Road ,,Cedar Hill ,TX,75104,United States,972-291-8386,,,,,,
Life Storage in Coppell ,750,585 S MacArthur Blvd ,,Coppell ,TX,75019,United States,972-393-0533,,,,,,
Life Storage in Dallas ,315,13575 Goldmark Dr ,,Dallas ,TX,75240,United States,972-664-0300,,,,,,
Life Storage in Dallas ,704,13820 Montfort Dr. ,,Dallas ,TX,75240,United States,972-392-1822,,,,,,
Life Storage in Dallas ,252,1606 Plantation Road ,,Dallas ,TX,75235,United States,214-634-1152,,,,,,
Life Storage in Dallas ,316,2305 Manana Dr ,,Dallas ,TX,75220,United States,469-420-0000,,,,,,
Life Storage in Dallas ,715,3210 S Buckner Blvd ,,Dallas ,TX,75227,United States,214-388-3252,,,,,,
Life Storage in Dallas ,718,3333 N. Buckner Blvd. ,,Dallas ,TX,75228,United States,214-324-9022,,,,,,
Life Storage in Dallas ,266,4640 Harry Hines Blvd ,,Dallas ,TX,75235,United States,214-638-4640,,,,,,
Life Storage in Dallas ,710,5720 Milton St ,,Dallas ,TX,75206,United States,214-368-2121,,,,,,
Life Storage in Dallas ,576,717 S Good Latimer Expy ,,Dallas ,TX,75226,United States,469-759-9998,,,,,,
Life Storage in Dallas ,317,8555 Manderville Ln ,,Dallas ,TX,75231,United States,214-368-9456,,,,,,
Life Storage in Duncanville ,265,1010 E Highway 67 ,,Duncanville ,TX,75137,United States,972-572-1000,,,,,,
Life Storage in Frisco ,522,8747 Stockard Dr ,,Frisco ,TX,75034,United States,972-712-0090,,,,,,
Life Storage in Garland ,705,3222 N Shiloh Rd ,,Garland ,TX,75044,United States,972-414-8240,,,,,,
Life Storage in Garland ,717,4114 Broadway Blvd ,,Garland ,TX,75043,United States,972-840-6264,,,,,,
Life Storage in Lewisville ,540,2710 Denton Tap Rd ,,Lewisville ,TX,75067,United States,469-444-9799,,,,,,
Life Storage in Henderson ,590,1011 Stufflebeam Ave ,,Henderson ,NV,89011,United States,702-550-1490,,,,,,
Life Storage in Henderson ,601,318 N Boulder Hwy ,,Henderson ,NV,89015,United States,702-550-1991,,,,,,
Life Storage in Henderson ,594,550 Conestoga Way ,,Henderson ,NV,89002,United States,702-550-1590,,,,,,
Life Storage in Las Vegas ,598,11330 Dean Martin Dr ,,Las Vegas ,NV,89141,United States,702-550-7997,,,,,,
Life Storage in Las Vegas ,596,3225 S Nellis Blvd ,,Las Vegas ,NV,89121,United States,702-550-1595,,,,,,
Life Storage in Las Vegas ,591,5555 S Fort Apache Rd ,,Las Vegas ,NV,89148,United States,702-550-0905,,,,,,
Life Storage in McKinney ,524,3080 Alma Rd ,,McKinney ,TX,75070,United States,972-548-6013,,,,,,
Life Storage in McKinney ,523,550 N Custer Rd ,,McKinney ,TX,75071,United States,972-540-7815,,,,,,
Life Storage in Mesquite ,575,1350 N Belt Line Rd ,,Mesquite ,TX,75149,United States,469-759-9950,,,,,,
Life Storage in Mesquite ,251,2233 Franklin Drive ,,Mesquite ,TX,75150,United States,972-285-6366,,,,,,
Life Storage in Plano ,574,3405 Coit Rd ,,Plano ,TX,75093,United States,469-304-9889,,,,,,
Life Storage in Plano ,754,4005 W Plano Pkwy ,,Plano ,TX,75093,United States,972-985-1212,,,,,,
Life Storage in Richardson ,145,140 Centennial Blvd ,,Richardson ,TX,75081,United States,972-690-0140,,,,,,
Life Storage in Richardson ,572,500 Buckingham Rd ,,Richardson ,TX,75081,United States,469-759-9975,,,,,,
Life Storage in Bedford ,748,2904 Highway 121 ,,Bedford ,TX,76021,United States,817-283-8400,,,,,,
Life Storage in Bedford ,380,2905 Crystal Springs ,,Bedford ,TX,76021,United States,817-318-7867,,,,,,
Life Storage in Las Vegas ,589,6075 W Wigwam Ave ,,Las Vegas ,NV,89139,United States,702-550-0095,,,,,,
Life Storage in Las Vegas ,595,6545 W Warm Springs Rd ,,Las Vegas ,NV,89118,United States,702-550-0747,,,,,,
Life Storage in Las Vegas ,593,6590 W Warm Springs Rd ,,Las Vegas ,NV,89118,United States,702-550-1650,,,,,,
Life Storage in Las Vegas ,603,8424 Farm Rd ,,Las Vegas ,NV,89131,United States,702-551-1001,,,,,,
Life Storage in Las Vegas ,599,9227 W. Flamingo Rd. ,,Las Vegas ,NV,89147,United States,702-550-8001,,,,,,
Life Storage in Las Vegas ,588,9722 W Maule Ave ,,Las Vegas ,NV,89148,United States,702-410-8190,,,,,,
Life Storage in Las Vegas ,597,9770 W. Cheyenne Ave. ,,Las Vegas ,NV,89129,United States,702-550-7535,,,,,,
Life Storage in Benbrook ,749,6162 Southwest Blvd ,,Benbrook ,TX,76109,United States,817-737-4488,,,,,,
Life Storage in Euless ,202,1151 W Euless Blvd ,,Euless ,TX,76040,United States,817-545-7001,,,,,,
Life Storage in Fort Worth ,752,5900 Bryant Irvin Rd ,,Fort Worth ,TX,76132,United States,817-294-5522,,,,,,
Life Storage in Fort Worth ,318,6050 Granbury Rd ,,Fort Worth ,TX,76133,United States,817-346-9046,,,,,,
Life Storage in Fort Worth ,751,6615 N Beach St ,,Fort Worth ,TX,76137,United States,817-306-8400,,,,,,
Life Storage in Haltom City ,091,4820 Western Center Blvd ,,Haltom City ,TX,76137,United States,817-281-2866,,,,,,
Life Storage in Haslet ,842,12460 NW Hwy 287 ,,Haslet ,TX,76052,United States,682-207-2630,,,,,,
Life Storage in Hurst ,319,88 Grapevine Hwy ,,Hurst ,TX,76054,United States,817-485-6600,,,,,,
Life Storage in North Richland Hills ,203,5575 Davis Blvd ,,North Richland Hills ,TX,76180,United States,817-498-5555,,,,,,
Life Storage in Amityville ,435,24 Sterling Place ,,Amityville ,NY,11701,United States,631-617-6299,,,,,,
Life Storage in Deer Park ,434,715 Grand Blvd. ,,Deer Park ,NY,11729,United States,631-940-8280,,,,,,
Life Storage in Bay Shore ,279,110 Saxon Ave ,,Bay Shore ,NY,11706,United States,631-666-9700,,,,,,
Life Storage in Las Vegas ,587,9930 Spencer St. ,,Las Vegas ,NV,89183,United States,702-389-9123,,,,,,
Life Storage in North Las Vegas ,600,4475 W. Rome Blvd. ,,North Las Vegas ,NV,89084,United States,702-550-1510,,,,,,
Life Storage in North Las Vegas ,592,4480 Berg St ,,North Las Vegas ,NV,89081,United States,702-550-0132,,,,,,
Life Storage in North Las Vegas ,602,5714 Ferrell St. ,,North Las Vegas ,NV,89031,United States,702-550-8101,,,,,,
Life Storage in Watauga ,755,7902 Denton Hwy ,,Watauga ,TX,76148,United States,817-427-9500,,,,,,
Life Storage in Grand Prairie ,753,335 W Westchester Pkwy ,,Grand Prairie ,TX,75052,United States,972-262-1144,,,,,,
Life Storage in Alvin ,272,1238 FM 1462 Rd ,,Alvin ,TX,77511,United States,281-331-0800,,,,,,
Life Storage in Baytown ,294,455 W Cedar Bayou Lynchburg Rd ,,Baytown ,TX,77521,United States,281-421-9191,,,,,,
Life Storage in Conroe ,269,2828 FM 1488 ,,Conroe ,TX,77384,United States,936-321-9800,,,,,,
Life Storage in Cypress ,760,16214 Spring Cypress Rd ,,Cypress ,TX,77429,United States,281-304-0300,,,,,,
Life Storage in Cypress ,291,7400 Barker Cypress Rd ,,Cypress ,TX,77433,United States,281-856-7500,,,,,,
Life Storage in Deer Park ,384,3321 Center Street ,,Deer Park ,TX,77536,United States,281-478-6363,,,,,,
Life Storage in Brewster ,230,1639 Route 22 ,,Brewster ,NY,10509,United States,845-278-7035,,,,,,
Life Storage in Amherst ,337,2681 Niagara Falls Blvd. ,,Amherst ,NY,14228,United States,716-691-4565,,,,,,
Life Storage in Blasdell ,335,4445 Lake Ave. ,,Blasdell ,NY,14219,United States,716-822-1500,,,,,,
Life Storage in Buffalo ,339,1275 Sheridan Dr. ,,Buffalo ,NY,14217,United States,716-871-1568,,,,,,
Life Storage in Buffalo ,819,290 Ellicott St ,,Buffalo ,NY,14203,United States,716-852-1042,,,,,,
Life Storage in Buffalo ,538,550 Cayuga Rd ,,Buffalo ,NY,14225,United States,716-395-0585,,,,,,
Life Storage in Cheektowaga ,336,3154 Union Rd ,,Cheektowaga ,NY,14227,United States,716-686-0941,,,,,,
Life Storage in Cheektowaga ,014,40 Leo Place ,,Cheektowaga ,NY,14225,United States,716-632-4014,,,,,,
Life Storage in Kenmore ,840,400 Kenmore Ave ,,Kenmore ,NY,14223,United States,716-389-1343,,,,,,
Life Storage in Friendswood ,387,4333 FM 2351 Rd ,,Friendswood ,TX,77546,United States,281-482-1500,,,,,,
Life Storage in Houston ,838,10114 Katy Fwy ,,Houston ,TX,77043,United States,713-461-6622,,,,,,
Life Storage in Houston ,763,11500 FM 1960 Rd W ,,Houston ,TX,77065,United States,281-807-5656,,,,,,
Life Storage in Houston ,581,12455 Westpark Dr. ,,Houston ,TX,77082,United States,281-377-3440,,,,,,
Life Storage in Houston ,764,12555 Richmond Ave ,,Houston ,TX,77082,United States,281-531-1556,,,,,,
Life Storage in Houston ,395,12711 Westheimer Road ,,Houston ,TX,77077,United States,281-556-5007,,,,,,
Life Storage in Houston ,296,13033 Jones Rd ,,Houston ,TX,77070,United States,281-890-4444,,,,,,
Life Storage in Houston ,385,13300 W Little York Rd ,,Houston ,TX,77041,United States,713-983-6222,,,,,,
Life Storage in Biloxi ,355,1932 Popps Ferry Rd ,,Biloxi ,MS,39532,United States,228-385-3700,,,,,,
Life Storage in Diberville ,362,4059 Ginger Dr ,,Diberville ,MS,39540,United States,228-392-7012,,,,,,
Life Storage in Gulfport ,350,13130 Highway 49 ,,Gulfport ,MS,39503,United States,228-539-2121,,,,,,
Life Storage in Ocean Springs ,347,3610 Bienville Blvd ,,Ocean Springs ,MS,39564,United States,228-872-9101,,,,,,
Life Storage in Hattiesburg ,361,421 Classic Dr ,,Hattiesburg ,MS,39402,United States,601-264-3609,,,,,,
Life Storage in Flowood ,586,5491 Plaza Dr. ,,Flowood ,MS,39232,United States,769-208-3535,,,,,,
Life Storage in Jackson ,075,2947 McDowell Road Ext ,,Jackson ,MS,39204,United States,601-372-4406,,,,,,
Life Storage in Lackawanna ,539,1348 Ridge Rd ,,Lackawanna ,NY,14218,United States,716-249-6052,,,,,,
Life Storage in Lockport ,340,6104 S Transit Rd ,,Lockport ,NY,14094,United States,716-625-9240,,,,,,
Life Storage in Tonawanda ,338,521 Young St. ,,Tonawanda ,NY,14150,United States,716-695-0832,,,,,,
Life Storage in West Seneca ,334,2802 Transit Rd ,,West Seneca ,NY,14224,United States,716-674-6055,,,,,,
Life Storage in West Seneca ,333,300 Langner Rd ,,West Seneca ,NY,14224,United States,716-825-6174,,,,,,
Life Storage in Williamsville ,031,8161 Main Street ,,Williamsville ,NY,14221,United States,716-632-7796,,,,,,
Life Storage in Mahopac ,534,5 Lupi Ct ,,Mahopac ,NY,10541,United States,845-271-7766,,,,,,
Life Storage in Farmingdale ,440,1 Executive Blvd ,,Farmingdale ,NY,11735,United States,631-752-5000,,,,,,
Life Storage in Fishkill ,469,35 Merritt Boulevard ,,Fishkill ,NY,12524,United States,845-897-8677,,,,,,
Life Storage in Houston ,583,14102 Bay Pointe Ct. ,,Houston ,TX,77062,United States,281-668-7875,,,,,,
Life Storage in Houston ,393,1435 Silverado Drive ,,Houston ,TX,77077,United States,281-679-7867,,,,,,
Life Storage in Houston ,584,16220 FM 529 Rd ,,Houston ,TX,77095,United States,281-809-7771,,,,,,
Life Storage in Houston ,582,1770 E T C Jester Blvd ,,Houston ,TX,77008,United States,281-656-9520,,,,,,
Life Storage in Houston ,396,2010 Wilcrest Drive ,,Houston ,TX,77042,United States,713-978-7867,,,,,,
Life Storage in Houston ,478,2870 Gessner Rd ,,Houston ,TX,77080,United States,713-462-9200,,,,,,
Life Storage in Houston ,259,3800 Highway 6 S ,,Houston ,TX,77082,United States,281-596-0001,,,,,,
Life Storage in Houston ,271,5415 Bissonnet St ,,Houston ,TX,77081,United States,713-349-0015,,,,,,
Life Storage in Houston ,399,5425 Katy Freeway ,,Houston ,TX,77007,United States,713-862-8200,,,,,,
Life Storage in Charlotte ,109,1400 Orchard Lake Dr ,,Charlotte ,NC,28270,United States,704-847-0045,,,,,,
Life Storage in Charlotte ,497,5800 A Brookshire Blvd ,,Charlotte ,NC,28216,United States,704-398-2345,,,,,,
Life Storage in Charlotte ,110,6720 E W T Harris Blvd ,,Charlotte ,NC,28215,United States,704-535-0095,,,,,,
Life Storage in Charlotte ,369,7209 Wallace Ln ,,Charlotte ,NC,28212,United States,704-568-8101,,,,,,
Life Storage in Cornelius ,371,9225 Westmoreland Rd ,,Cornelius ,NC,28031,United States,704-655-1016,,,,,,
Life Storage in Gastonia ,003,550 Cox Road ,,Gastonia ,NC,28054,United States,704-861-1574,,,,,,
Life Storage in Jackson ,205,4000 N West St ,,Jackson ,MS,39206,United States,601-982-3700,,,,,,
Life Storage in Jackson ,365,5111 I-55 N ,,Jackson ,MS,39206,United States,601-713-3000,,,,,,
Life Storage in Jackson ,184,5961 I-55 North ,,Jackson ,MS,39213,United States,601-957-6127,,,,,,
Life Storage in Jackson ,074,6011 I-55 North ,,Jackson ,MS,39213,United States,601-956-5014,,,,,,
Life Storage in Ridgeland ,364,130 Centre St ,,Ridgeland ,MS,39157,United States,601-956-8585,,,,,,
Life Storage in East Hampton ,264,9 Hardscrabble Ct ,,East Hampton ,NY,11937,United States,631-329-5000,,,,,,
Life Storage in Hampton Bays ,263,173 W Montauk Hwy ,,Hampton Bays ,NY,11946,United States,631-728-1000,,,,,,
Life Storage in Southampton ,262,59 Mariner Dr ,,Southampton ,NY,11968,United States,631-287-9717,,,,,,
Life Storage in Southampton ,261,99 Mariner Dr Unit 4 ,,Southampton ,NY,11968,United States,631-283-2211,,,,,,
Life Storage in Hicksville ,439,65 W John St ,,Hicksville ,NY,11801,United States,516-433-5500,,,,,,
Life Storage in Lindenhurst ,428,101 East Hoffman Avenue ,,Lindenhurst ,NY,11757,United States,631-956-3200,,,,,,
Life Storage in Harriman ,164,97 Maher Lane ,,Harriman ,NY,10926,United States,845-783-6099,,,,,,
Life Storage in Middletown ,013,36 Industrial Drive ,,Middletown ,NY,10941,United States,845-692-6300,,,,,,
Life Storage in Asbury Park ,448,813 1st Avenue ,,Asbury Park ,NJ,07712,United States,732-897-8900,,,,,,
Life Storage in Brick ,735,165 Brick Blvd ,,Brick ,NJ,08723,United States,732-920-3232,,,,,,
Life Storage in Brick ,733,201 Jordan Rd ,,Brick ,NJ,08724,United States,732-892-6688,,,,,,
Life Storage in Hillsborough ,732,130 Route 206 ,,Hillsborough ,NJ,08844,United States,908-526-4080,,,,,,
Life Storage in Houston ,844,5700 Washington Ave ,,Houston ,TX,77007,United States,713-861-6004,,,,,,
Life Storage in Houston ,381,7610 Highway 6 N ,,Houston ,TX,77095,United States,281-550-6683,,,,,,
Life Storage in Houston ,389,7835 W Sam Houston Pkwy N ,,Houston ,TX,77040,United States,713-937-7867,,,,,,
Life Storage in Houston ,813,802 E. Richey Rd ,,Houston ,TX,77073,United States,281-214-8500,,,,,,
Life Storage in Houston ,770,8350 S Sam Houston Pkwy E ,,Houston ,TX,77075,United States,713-991-1200,,,,,,
Life Storage in Houston ,713,8726 Long Point Rd ,,Houston ,TX,77055,United States,713-468-1222,,,,,,
Life Storage in Houston ,585,8902 Jones Rd ,,Houston ,TX,77065,United States,281-810-7910,,,,,,
Life Storage in Houston ,282,9145 Jones Rd ,,Houston ,TX,77065,United States,281-807-6200,,,,,,
Life Storage in Matthews ,372,3617 Matthews Weddington Rd ,,Matthews ,NC,28105,United States,704-849-2073,,,,,,
Life Storage in Mint Hill ,374,13125 Zeb Morris Way ,,Mint Hill ,NC,28227,United States,704-545-3490,,,,,,
Life Storage in Greensboro ,153,118 Stage Coach Trail ,,Greensboro ,NC,27409,United States,336-297-1200,,,,,,
Life Storage in Greensboro ,026,3511 S Holden Rd ,,Greensboro ,NC,27407,United States,336-854-2736,,,,,,
Life Storage in Greensboro ,152,4207 Hilltop Road ,,Greensboro ,NC,27407,United States,336-218-8099,,,,,,
Life Storage in Greensboro ,165,5810 W Gate City Blvd ,,Greensboro ,NC,27407,United States,336-852-6785,,,,,,
Life Storage in Cary ,415,160 Havensite Court ,,Cary ,NC,27513,United States,919-380-7586,,,,,,
Life Storage in Cary ,370,302 Davis Grove Cir ,,Cary ,NC,27519,United States,919-387-8275,,,,,,
Life Storage in Cary ,373,5738 Dillard Dr ,,Cary ,NC,27518,United States,919-233-3838,,,,,,
Life Storage in Monroe ,225,1111 State Route 17M ,,Monroe ,NY,10950,United States,845-774-7233,,,,,,
Life Storage in Mount Vernon ,535,320 Washington St ,,Mount Vernon ,NY,10553,United States,914-359-6001,,,,,,
Life Storage in Long Island City ,896,52-11 29th St ,,Long Island City ,NY,11101,United States,347-642-6600,,,,,,
Life Storage in Rochester ,112,1180 University Avenue ,,Rochester ,NY,14607,United States,585-461-0910,,,,,,
Life Storage in Rochester ,015,1270 Jefferson Road ,,Rochester ,NY,14623,United States,585-424-5075,,,,,,
Life Storage in Rochester ,023,2585 Brighton Henrietta Town Line Rd ,,Rochester ,NY,14623,United States,585-427-0590,,,,,,
Life Storage in Webster ,295,1280 Creek St ,,Webster ,NY,14580,United States,585-787-1240,,,,,,
Life Storage in Webster ,341,860 Phillips Rd ,,Webster ,NY,14580,United States,585-265-2930,,,,,,
Life Storage in Clifton ,736,300 Allwood Rd ,,Clifton ,NJ,07012,United States,973-458-8100,,,,,,
Life Storage in Englewood ,731,390 S Van Brunt St ,,Englewood ,NJ,07631,United States,201-569-6050,,,,,,
Life Storage in Farmingdale ,449,42 Tinton Falls Road ,,Farmingdale ,NJ,07727,United States,732-938-4200,,,,,,
Life Storage in Flemington ,740,10 Royal Rd ,,Flemington ,NJ,08822,United States,908-284-0088,,,,,,
Life Storage in Lodi ,734,123 Route 46 West ,,Lodi ,NJ,07644,United States,973-777-2229,,,,,,
Life Storage in Lakewood ,450,1225 State Route 70 ,,Lakewood ,NJ,08701,United States,732-363-9311,,,,,,
Life Storage in Elizabeth ,376,480 Allen St ,,Elizabeth ,NJ,07202,United States,908-862-6622,,,,,,
Life Storage in Matawan ,447,338 Highway 34 ,,Matawan ,NJ,07747,United States,732-290-8007,,,,,,
Life Storage in Humble ,191,1701 FM 1960 Bypass Rd E ,,Humble ,TX,77338,United States,281-446-4843,,,,,,
Life Storage in Humble ,379,19415 Pinehurst Trail Drive ,,Humble ,TX,77346,United States,281-852-4330,,,,,,
Life Storage in Humble ,254,5250 FM 1960 East ,,Humble ,TX,77346,United States,281-812-0808,,,,,,
Life Storage in Humble ,766,6603 Atascocita Rd ,,Humble ,TX,77346,United States,281-812-3201,,,,,,
Life Storage in Katy ,768,20770 Westheimer Pkwy ,,Katy ,TX,77450,United States,281-599-7766,,,,,,
Life Storage in Katy ,383,2499 South Mason Rd ,,Katy ,TX,77450,United States,281-492-0393,,,,,,
Life Storage in Katy ,185,3433 Fry Rd ,,Katy ,TX,77449,United States,281-398-0400,,,,,,
Life Storage in Katy ,206,5110 Franz Road ,,Katy ,TX,77493,United States,281-391-7867,,,,,,
Life Storage in Kingwood ,762,1950 W Lake Houston Pkwy ,,Kingwood ,TX,77339,United States,281-361-5200,,,,,,
Life Storage in Durham ,176,1200 E Cornwallis Rd ,,Durham ,NC,27713,United States,919-544-0131,,,,,,
Life Storage in Durham ,175,4417 Hillsborough Road ,,Durham ,NC,27705,United States,919-382-0511,,,,,,
Life Storage in Raleigh ,032,2401 S Wilmington St ,,Raleigh ,NC,27603,United States,919-832-9475,,,,,,
Life Storage in Raleigh ,027,2701 McNeil St ,,Raleigh ,NC,27608,United States,919-832-2423,,,,,,
Life Storage in Raleigh ,368,5000 Atlantic Ave ,,Raleigh ,NC,27616,United States,919-875-0202,,,,,,
Life Storage in Raleigh ,858,6401 Town Center Drive ,,Raleigh ,NC,27616,United States,919-954-7088,,,,,,
Life Storage in Camillus ,495,104 Bennett Road ,,Camillus ,NY,13031,United States,315-488-4100,,,,,,
Life Storage in Cicero ,494,5666 State Route 31 ,,Cicero ,NY,13039,United States,315-698-7666,,,,,,
Life Storage in Cicero ,278,8239 Thompson Rd ,,Cicero ,NY,13039,United States,315-699-8996,,,,,,
Life Storage in East Syracuse ,082,6523 Basile Rowe ,,East Syracuse ,NY,13057,United States,315-437-3583,,,,,,
Life Storage in Liverpool ,094,7266 Henry Clay Blvd ,,Liverpool ,NY,13088,United States,315-457-7222,,,,,,
Life Storage in Manlius ,496,111 Fairgrounds Drive ,,Manlius ,NY,13104,United States,315-682-2243,,,,,,
Life Storage in Syracuse ,493,314 Ainsley Drive ,,Syracuse ,NY,13210,United States,315-479-7233,,,,,,
Life Storage in Syracuse ,242,430 Spencer Street ,,Syracuse ,NY,13204,United States,315-422-0191,,,,,,
Life Storage in Mountainside ,727,1229 US Highway 22 ,,Mountainside ,NJ,07092,United States,908-928-1400,,,,,,
Life Storage in Belleville ,726,125 Franklin St. ,,Belleville ,NJ,07109,United States,973-751-8848,,,,,,
Life Storage in North Brunswick ,728,1555 Livingston Ave ,,North Brunswick ,NJ,08902,United States,732-249-0077,,,,,,
Life Storage in Fair Lawn ,375,445 Wagaraw Rd ,,Fair Lawn ,NJ,07410,United States,973-427-5000,,,,,,
Life Storage in Wayne ,466,77 Willowbrook Boulevard ,,Wayne ,NJ,07470,United States,973-812-2242,,,,,,
Life Storage in Piscataway ,454,3950 New Brunswick Ave. ,,Piscataway ,NJ,08854,United States,732-752-0544,,,,,,
Life Storage in Piscataway ,737,500 Stelton Rd ,,Piscataway ,NJ,08854,United States,732-968-7300,,,,,,
Life Storage in Monmouth Junction ,758,4140 US Highway 1 ,,Monmouth Junction ,NJ,08852,United States,732-649-1011,,,,,,
Life Storage in Toms River ,443,1341 Route 37 West ,,Toms River ,NJ,08755,United States,732-818-7867,,,,,,
Life Storage in Kingwood ,765,2900 Mills Branch Dr ,,Kingwood ,TX,77345,United States,281-360-4576,,,,,,
Life Storage in League City ,256,2280 E Main St ,,League City ,TX,77573,United States,281-557-8080,,,,,,
Life Storage in League City ,232,2410 E Main St ,,League City ,TX,77573,United States,281-338-1283,,,,,,
Life Storage in League City ,769,5960 W Main St ,,League City ,TX,77573,United States,281-554-9600,,,,,,
Life Storage in Missouri City ,274,4717 Cartwright Road ,,Missouri City ,TX,77459,United States,281-261-5453,,,,,,
Life Storage in Montgomery ,257,15261 Highway 105 W ,,Montgomery ,TX,77356,United States,936-588-4242,,,,,,
Life Storage in Pasadena ,386,4155 Fairway Plaza Drive ,,Pasadena ,TX,77505,United States,281-991-7867,,,,,,
Life Storage in Pasadena ,255,6402 Fairmont Parkway ,,Pasadena ,TX,77505,United States,281-991-5100,,,,,,
Life Storage in Pearland ,761,1729 Broadway St ,,Pearland ,TX,77581,United States,281-648-6656,,,,,,
Life Storage in Toms River ,730,1929 Route 37 E ,,Toms River ,NJ,08753,United States,732-506-0303,,,,,,
Life Storage in Toms River ,729,777 Route 37 W ,,Toms River ,NJ,08755,United States,732-286-1400,,,,,,
Life Storage in East Windsor ,741,535 Route 130 ,,East Windsor ,NJ,08520,United States,609-448-7400,,,,,,
Life Storage in Hamilton Township ,468,3540 Quakerbridge Road ,,Hamilton Township ,NJ,08619,United States,609-910-1612,,,,,,
Life Storage in Jamesburg ,757,268 Gatzmer Avenue ,,Jamesburg ,NJ,08831,United States,732-963-2406,,,,,,
Life Storage in Upper Saddle River ,738,211 Route 17 ,,Upper Saddle River ,NJ,07458,United States,201-236-8100,,,,,,
Life Storage in West Deptford ,742,777 Mantua Grove Rd ,,West Deptford ,NJ,08066,United States,856-384-7707,,,,,,
Life Storage in Delran ,739,4019 Rt. 130 ,,Delran ,NJ,08075,United States,856-764-1511,,,,,,
Life Storage in Pinehurst ,288,32777 State Highway 249 ,,Pinehurst ,TX,77362,United States,281-252-3235,,,,,,
Life Storage in Seabrook ,227,3400 Bayport Blvd (Hwy 146) ,,Seabrook ,TX,77586,United States,281-474-7077,,,,,,
Life Storage in Spring ,391,3411 Rayford Road ,,Spring ,TX,77386,United States,281-288-8045,,,,,,
Life Storage in Spring ,767,6333 Spring Cypress Rd ,,Spring ,TX,77379,United States,281-655-4844,,,,,,
Life Storage in Spring ,388,6911 Louetta Road ,,Spring ,TX,77379,United States,281-376-2300,,,,,,
Life Storage in Spring ,270,8625 Spring Cypress ,,Spring ,TX,77379,United States,281-374-0922,,,,,,
Life Storage in Sugar Land ,394,11220 S Highway 6 ,,Sugar Land ,TX,77498,United States,281-495-7715,,,,,,
Life Storage in The Woodlands ,397,4455 Panther Creek Pines ,,The Woodlands ,TX,77381,United States,281-296-9111,,,,,,
Life Storage in The Woodlands ,398,7951 Alden Bend Dr ,,The Woodlands ,TX,77382,United States,281-296-0077,,,,,,
Life Storage in Tomball ,268,23355 State Highway 249 ,,Tomball ,TX,77375,United States,281-374-7788,,,,,,
Life Storage in Webster ,193,16650 Highway 3 ,,Webster ,TX,77598,United States,281-316-6040,,,,,,
Life Storage in Webster ,400,900 NASA Pkwy ,,Webster ,TX,77598,United States,281-557-0058,,,,,,
Life Storage in San Antonio ,286,10260 Marbach Rd ,,San Antonio ,TX,78245,United States,210-670-8100,,,,,,
Life Storage in San Antonio ,322,11947 Huebner Rd ,,San Antonio ,TX,78230,United States,210-641-7867,,,,,,
Life Storage in San Antonio ,320,20202 Blanco Rd ,,San Antonio ,TX,78258,United States,210-764-0099,,,,,,
Life Storage in San Antonio ,321,2300 Broadway St ,,San Antonio ,TX,78215,United States,210-222-2618,,,,,,
Life Storage in San Antonio ,622,23860 US-281 N ,,San Antonio ,TX,78258,United States,830-730-5513,,,,,,
Life Storage in San Antonio ,712,2417 Jackson Keller Rd ,,San Antonio ,TX,78230,United States,210-342-2211,,,,,,
Life Storage in San Antonio ,444,24264 Wilderness Oak ,,San Antonio ,TX,78258,United States,210-496-0900,,,,,,
Life Storage in San Antonio ,127,3343 SW Military Dr ,,San Antonio ,TX,78211,United States,210-924-6493,,,,,,
Life Storage in San Antonio ,253,3536 Hunt Lane ,,San Antonio ,TX,78227,United States,210-674-1990,,,,,,
Life Storage in San Antonio ,359,3615 N Foster Rd ,,San Antonio ,TX,78244,United States,210-310-1199,,,,,,
Life Storage in San Antonio ,093,6015 Tezel Road ,,San Antonio ,TX,78250,United States,210-680-9479,,,,,,
Life Storage in San Antonio ,458,6110 Walzem Road ,,San Antonio ,TX,78239,United States,210-656-3525,,,,,,
Life Storage in San Antonio ,473,7340 Blanco Road ,,San Antonio ,TX,78216,United States,210-340-2772,,,,,,
Life Storage in San Antonio ,706,7550 Culebra Rd ,,San Antonio ,TX,78251,United States,210-521-7770,,,,,,
Life Storage in San Antonio ,092,8025 Culebra Road ,,San Antonio ,TX,78251,United States,210-647-0678,,,,,,
Life Storage in San Antonio ,431,9403 Marbach Road ,,San Antonio ,TX,78245,United States,210-645-0325,,,,,,
Life Storage in San Antonio ,129,9665 Marbach Road ,,San Antonio ,TX,78245,United States,210-675-2751,,,,,,
Life Storage in Universal City ,128,2500 Pat Booker Road ,,Universal City ,TX,78148,United States,210-658-9947,,,,,,
Life Storage in San Marcos ,623,1615 N IH 35 ,,San Marcos ,TX,78666,United States,830-386-4824,,,,,,
Life Storage in San Marcos ,196,1620 S Interstate 35 ,,San Marcos ,TX,78666,United States,512-392-6086,,,,,,
Life Storage in San Marcos ,293,2216 S Interstate 35 ,,San Marcos ,TX,78666,United States,512-805-9911,,,,,,
Life Storage in Arnold ,461,3850 Vogel Road ,,Arnold ,MO,63010,United States,636-282-7472,,,,,,
Life Storage in Ballwin ,307,301 Meramec Station Rd ,,Ballwin ,MO,63021,United States,636-207-2002,,,,,,
Life Storage in Brentwood ,463,8524 Manchester Road ,,Brentwood ,MO,63144,United States,314-963-0700,,,,,,
Life Storage in Bridgeton ,308,11540 Saint Charles Rock Rd ,,Bridgeton ,MO,63044,United States,314-209-7666,,,,,,
Life Storage in Fenton ,464,485 North Highway Drive ,,Fenton ,MO,63026,United States,636-349-1215,,,,,,
Life Storage in Florissant ,465,1475 Dunn Road ,,Florissant ,MO,63033,United States,314-921-4245,,,,,,
Life Storage in Florissant ,310,450 W Washington St ,,Florissant ,MO,63031,United States,314-837-2441,,,,,,
Life Storage in Florissant ,309,940 Shackelford Rd ,,Florissant ,MO,63031,United States,314-837-8500,,,,,,
Life Storage in Hazelwood ,311,6355 Howdershell Rd ,,Hazelwood ,MO,63042,United States,314-731-5554,,,,,,
Life Storage in High Ridge ,377,115 Jacqueline Lane ,,High Ridge ,MO,63049,United States,636-376-0483,,,,,,
Life Storage in Saint Louis ,459,1600 Woodson Rd ,,Saint Louis ,MO,63114,United States,314-569-5025,,,,,,
Life Storage in Saint Louis ,312,3535 Lemay Ferry Rd ,,Saint Louis ,MO,63125,United States,314-845-6900,,,,,,
Life Storage in Saint Louis ,313,6557 Manchester Ave ,,Saint Louis ,MO,63139,United States,314-646-7867,,,,,,
Life Storage in Saint Peters ,460,3939 Mexico Road ,,Saint Peters ,MO,63376,United States,636-928-2220,,,,,,
Life Storage in Saco ,239,6 Industrial Park Rd ,,Saco ,ME,04072,United States,207-283-3364,,,,,,
Life Storage in Topsham ,452,11 Sand Hill Rd ,,Topsham ,ME,04086,United States,207-729-1010,,,,,,
Life Storage in South Portland ,451,50 Gorham Rd ,,South Portland ,ME,04106,United States,207-774-1010,,,,,,
Life Storage in Westbrook ,222,576 Bridgton Rd ,,Westbrook ,ME,04092,United States,207-797-0606,,,,,,
Life Storage in Frederick ,047,1212 W Patrick St ,,Frederick ,MD,21703,United States,301-695-8777,,,,,,
Life Storage in Gaithersburg ,048,26 W Diamond Ave ,,Gaithersburg ,MD,20877,United States,301-330-2233,,,,,,
Life Storage in Landover ,104,2929 Pennsy Drive ,,Landover ,MD,20785,United States,301-773-1500,,,,,,
Life Storage in Lynn ,491,154 Pleasant St ,,Lynn ,MA,01901,United States,781-599-1543,,,,,,
Life Storage in Readville ,022,140 Neponset Valley Pkwy ,,Readville ,MA,02136,United States,617-361-7779,,,,,,
Life Storage in Salem ,168,435 Highland Avenue ,,Salem ,MA,01970,United States,978-741-0990,,,,,,
Life Storage in Somerville ,433,51 McGrath Hwy. ,,Somerville ,MA,02143,United States,617-629-4410,,,,,,
Life Storage in Weymouth ,024,81 Main St ,,Weymouth ,MA,02188,United States,781-335-4877,,,,,,
Life Storage in Dracut ,234,73 Pleasant Street ,,Dracut ,MA,01826,United States,978-957-5790,,,,,,
Life Storage in Methuen ,235,114 Pleasant Valley St ,,Methuen ,MA,01844,United States,978-689-3310,,,,,,
Life Storage in North Andover ,226,1171 Turnpike St ,,North Andover ,MA,01845,United States,978-681-7787,,,,,,
Life Storage in Salisbury ,521,167 Elm St ,,Salisbury ,MA,01952,United States,978-770-1472,,,,,,
Life Storage in Plymouth ,240,55 Holman Rd ,,Plymouth ,MA,02360,United States,508-747-7200,,,,,,
Life Storage in Sandwich ,241,6 Washington Circle ,,Sandwich ,MA,02563,United States,508-888-7555,,,,,,
Life Storage in Feeding Hills ,100,511 Springfield St ,,Feeding Hills ,MA,01030,United States,413-789-3069,,,,,,
Life Storage in Springfield ,280,40 Congress St ,,Springfield ,MA,01104,United States,413-788-6400,,,,,,
Life Storage in Northbridge ,163,872 Church Street Ext ,,Northbridge ,MA,01534,United States,508-234-6994,,,,,,
Life Storage in Oxford ,284,90 Main St ,,Oxford ,MA,01540,United States,508-987-3232,,,,,,
