store_name,store_number,address,address2,city,state,zip_code,country,phone_number,latitude,longitude,store_hours,store_type,other_fields,coming_soon
Pizza Patron,,5835 Culebra Road,,San Antonio,TX,,United States,210-402-9660,,,Mon-Th 10:30am-10:00pm. Fri-Sat 10:30am-11:00pm. Sunday 10:30am-10:00pm,,,
Pizza Patron,,10081 Lake June Road,,Dallas,TX,75217,United States,972-285-1300,,,Mon-Th 10:30am-10:00pm. Fri-Sat 10:30am-11:00pm. Sunday 10:30am-10:00pm,,,
Pizza Patron,,6119 Telephone Road,,Houston,TX,,United States,713-847-9191,,,Mon-Th 10:30am-10:00pm. Fri-Sat 10:30am-11:00pm. Sunday 10:30am-10:00pm,,,
Pizza Patron,,2727 8th Avenue,,Ft Worth,TX,76110,United States,817-920-7808,,,Mon-Th 10:30am-10:00pm. Fri-Sat 10:30am-11:00pm. Sunday 10:30am-10:00pm,,,
Pizza Patron,,1456 Beltline Road,,,,,United States,214-703-9709,,,Mon-Th 10:30am-10:00pm. Fri-Sat 10:30am-11:00pm. Sunday 10:30am-10:00pm,,,
Pizza Patron,,526 E. Pipeline Road,,,,,United States,817-282-0033,,,Mon-Th 10:30am-10:00pm. Fri-Sat 10:30am-11:00pm. Sunday 10:30am-10:00pm,,,
Pizza Patron,,13909 Nacogdoches Road,,San Antonio,TX,,United States,210-590-9466,,,Mon-Th 10:30am-10:00pm. Fri-Sat 10:30am-11:00pm. Sunday 10:30am-10:00pm,,,
Pizza Patron,,6102 Skillman St. Ste 100,,,,,United States,214-365-9191,,,Mon-Th 10:30am-10:00pm. Fri-Sat 10:30am-11:00pm. Sunday 10:30am-10:00pm,,,
Pizza Patron,,450 Uvalde Road,,,,,United States,713-330-9191,,,Mon-Th 10:30am-10:00pm. Fri-Sat 10:30am-11:00pm. Sunday 10:30am-10:00pm,,,
Pizza Patron,,11411 Northwest Highway,,,,,United States,214-342-9191,,,Mon-Th 10:30am-10:00pm. Fri-Sat 10:30am-11:00pm. Sunday 10:30am-10:00pm,,,
Pizza Patron,,716 S. Closner Boulevard,,,,,United States,956-270-4261,,,Mon-Th 10:30am-10:00pm. Fri-Sat 10:30am-11:00pm. Sunday 10:30am-10:00pm,,,
Pizza Patron,,2603 NE Bob Bullock Loop,,Laredo,TX,,United States,956-791-9799,,,Mon-Th 10:30am-10:00pm. Fri-Sat 10:30am-11:00pm. Sunday 10:30am-10:00pm,,,
Pizza Patron,,8223 Marbach Road,,San Antonio,TX,,United States,210-670-0303,,,Mon-Th 10:30am-10:00pm. Fri-Sat 10:30am-11:00pm. Sunday 10:30am-10:00pm,,,
Pizza Patron,,9794 Forest Lane,,,,,United States,214-348-9191,,,Mon-Th 10:30am-10:00pm. Fri-Sat 10:30am-11:00pm. Sunday 10:30am-10:00pm,,,
Pizza Patron,,2313 South Cicero Avenue,,,,,United States,708-652-5352,,,Mon-Th 10:30am-10:00pm. Fri-Sat 10:30am-11:00pm. Sunday 10:30am-10:00pm,,,
Pizza Patron,,14405 Suite A Bellaire Blvd,,,,,United States,281-741-0031,,,Mon-Th 10:30am-10:00pm. Fri-Sat 10:30am-11:00pm. Sunday 10:30am-10:00pm,,,
Pizza Patron,,2000 East Pioneer Parkway,,,,,United States,817-275-9191,,,Mon-Th 10:30am-10:00pm. Fri-Sat 10:30am-11:00pm. Sunday 10:30am-10:00pm,,,
Pizza Patron,,49-225 #1 Grapefruit Blvd,,,,,United States,760-391-9900,,,Mon-Th 10:30am-10:00pm. Fri-Sat 10:30am-11:00pm. Sunday 10:30am-10:00pm,,,
Pizza Patron,,5166 Aldine Mail Route,,,,,United States,281-372-0909,,,Mon-Th 10:30am-10:00pm. Fri-Sat 10:30am-11:00pm. Sunday 10:30am-10:00pm,,,
Pizza Patron,,"5803 N. Fry Road, Suite 101",,,,,United States,281-858-9494,,,Mon-Th 10:30am-10:00pm. Fri-Sat 10:30am-11:00pm. Sunday 10:30am-10:00pm,,,
Pizza Patron,,5800 Bellaire Blvd.,,,,,United States,713-218-9191,,,Mon-Th 10:30am-10:00pm. Fri-Sat 10:30am-11:00pm. Sunday 10:30am-10:00pm,,,
Pizza Patron,,"4306 Matlock Road, Suite 132",,,,,United States,817-557-9191,,,Mon-Th 10:30am-10:00pm. Fri-Sat 10:30am-11:00pm. Sunday 10:30am-10:00pm,,,
Pizza Patron,,"13505 Montfort Place, Suite 200",,,,,United States,972-387-9191,,,Mon-Th 10:30am-10:00pm. Fri-Sat 10:30am-11:00pm. Sunday 10:30am-10:00pm,,,
Pizza Patron,,"11400 Gulf Freeway, Suite B",,,,,United States,713-946-9191,,,Mon-Th 10:30am-10:00pm. Fri-Sat 10:30am-11:00pm. Sunday 10:30am-10:00pm,,,
Pizza Patron,,4444 W. Jefferson Suite 614,,,,,United States,214-339-9191,,,Mon-Th 10:30am-10:00pm. Fri-Sat 10:30am-11:00pm. Sunday 10:30am-10:00pm,,,
Pizza Patron,,14350 Josey Lane,,,,,United States,972-620-7437,,,Mon-Th 10:30am-10:00pm. Fri-Sat 10:30am-11:00pm. Sunday 10:30am-10:00pm,,,
Pizza Patron,,2678 N. Beltline Road,,,,,United States,972-871-7288,,,Mon-Th 10:30am-10:00pm. Fri-Sat 10:30am-11:00pm. Sunday 10:30am-10:00pm,,,
Pizza Patron,,2302 Gus Thomason Road,,,,,United States,214-321-4400,,,Mon-Th 10:30am-10:00pm. Fri-Sat 10:30am-11:00pm. Sunday 10:30am-10:00pm,,,
Pizza Patron,,"1134 S Stapley Dr., Suite 103",,,,,United States,480-969-5540,,,Mon-Th 10:30am-10:00pm. Fri-Sat 10:30am-11:00pm. Sunday 10:30am-10:00pm,,,
Pizza Patron,,"8928 E RL Thorton Fwy, Suite 110",,,,,United States,214-327-9191,,,Mon-Th 10:30am-10:00pm. Fri-Sat 10:30am-11:00pm. Sunday 10:30am-10:00pm,,,
Pizza Patron,,"12900 Aldine Westfield, Ste G",,,,,United States,832-672-8101,,,Mon-Th 10:30am-10:00pm. Fri-Sat 10:30am-11:00pm. Sunday 10:30am-10:00pm,,,
Pizza Patron,,"7470 Padre Island Blvd., Suite 100",,,,,United States,956-838-2525,,,Mon-Th 10:30am-10:00pm. Fri-Sat 10:30am-11:00pm. Sunday 10:30am-10:00pm,,,
Pizza Patron,,827 S. Zarzamora Street,,San Antonio,TX,,United States,210-432-8193,,,Mon-Th 10:30am-10:00pm. Fri-Sat 10:30am-11:00pm. Sunday 10:30am-10:00pm,,,
Pizza Patron,,1501 W Miller Rd Suite 110,,,,,United States,972-278-8600,,,Mon-Th 10:30am-10:00pm. Fri-Sat 10:30am-11:00pm. Sunday 10:30am-10:00pm,,,
Pizza Patron,,4638 W. Commerce,,San Antonio,TX,,United States,210-434-2800,,,Mon-Th 10:30am-10:00pm. Fri-Sat 10:30am-11:00pm. Sunday 10:30am-10:00pm,,,
Pizza Patron,,2521 N. Josey Lane,,,,,United States,972-446-0210,,,Mon-Th 10:30am-10:00pm. Fri-Sat 10:30am-11:00pm. Sunday 10:30am-10:00pm,,,
Pizza Patron,,"5717 S IH-35 Bldg C, Suite 150",,Austin,TX,,United States,512-444-9191,,,Mon-Th 10:30am-10:00pm. Fri-Sat 10:30am-11:00pm. Sunday 10:30am-10:00pm,,,
Pizza Patron,,3116 Nogalitos Street,,San Antonio,TX,,United States,210-532-5100,,,Mon-Th 10:30am-10:00pm. Fri-Sat 10:30am-11:00pm. Sunday 10:30am-10:00pm,,,
Pizza Patron,,"4311 Clark Boulevard, Suite P",,,,,United States,956-725-9499,,,Mon-Th 10:30am-10:00pm. Fri-Sat 10:30am-11:00pm. Sunday 10:30am-10:00pm,,,
Pizza Patron,,327 E Camp Wisdom Rd,,Duncanville,TX,,United States,972-296-9191,,,Mon-Th 10:30am-10:00pm. Fri-Sat 10:30am-11:00pm. Sunday 10:30am-10:00pm,,,
Pizza Patron,,1209 C. South Main # C,,Pasadena,TX,,United States,713-740-9191,,,Mon-Th 10:30am-10:00pm. Fri-Sat 10:30am-11:00pm. Sunday 10:30am-10:00pm,,,
Pizza Patron,,"6815 North 19th Avenue, Suite 145",,,,,United States,602-841-7008,,,Mon-Th 10:30am-10:00pm. Fri-Sat 10:30am-11:00pm. Sunday 10:30am-10:00pm,,,
Pizza Patron,,6280 McCart Ave,,,,,United States,817-294-9191,,,Mon-Th 10:30am-10:00pm. Fri-Sat 10:30am-11:00pm. Sunday 10:30am-10:00pm,,,
Pizza Patron,,"825 West Southern Ave., Suite 108",,,,,United States,602-268-0963,,,Mon-Th 10:30am-10:00pm. Fri-Sat 10:30am-11:00pm. Sunday 10:30am-10:00pm,,,
Pizza Patron,,301 NW 28th Street,,,,,United States,817-626-8181,,,Mon-Th 10:30am-10:00pm. Fri-Sat 10:30am-11:00pm. Sunday 10:30am-10:00pm,,,
Pizza Patron,,"12227 Lake June, Suite 100",,,,,United States,972-289-9191,,,Mon-Th 10:30am-10:00pm. Fri-Sat 10:30am-11:00pm. Sunday 10:30am-10:00pm,,,
Pizza Patron,,"8601 Huebner Rd, Suite 106",,San Antonio,TX,,United States,210-558-8144,,,Mon-Th 10:30am-10:00pm. Fri-Sat 10:30am-11:00pm. Sunday 10:30am-10:00pm,,,
Pizza Patron,,"8607 Long Point, Suite 300",,,,,United States,832-533-8081,,,Mon-Th 10:30am-10:00pm. Fri-Sat 10:30am-11:00pm. Sunday 10:30am-10:00pm,,,
Pizza Patron,,"2708 W. Nolana, Suite 240",,,,,United States,956-661-9199,,,Mon-Th 10:30am-10:00pm. Fri-Sat 10:30am-11:00pm. Sunday 10:30am-10:00pm,,,
Pizza Patron,,8450 Fondren Rd,,,,,United States,281-888-4643,,,Mon-Th 10:30am-10:00pm. Fri-Sat 10:30am-11:00pm. Sunday 10:30am-10:00pm,,,
Pizza Patron,,"2302 S. Hwy 121, Suite 155",,,,,United States,972-315-2600,,,Mon-Th 10:30am-10:00pm. Fri-Sat 10:30am-11:00pm. Sunday 10:30am-10:00pm,,,
Pizza Patron,,"6544 West Thomas Rd, Suite 42",,,,,United States,623-846-2363,,,Mon-Th 11:00am-10:00pm. Fri-Sat 11:00am-11:00pm. Sunday 11:00am-10:00pm,,,
Pizza Patron,,1717 S. Valley Mills,,,,,United States,254-752-4545,,,Mon-Th 10:30am-10:00pm. Fri-Sat 10:30am-11:00pm. Sunday 10:30am-10:00pm,,,
Pizza Patron,,2002 S. Galloway #J,,,,,United States,972-288-7992,,,Mon-Th 10:30am-10:00pm. Fri-Sat 10:30am-11:00pm. Sunday 10:30am-10:00pm,,,
Pizza Patron,,7602 S. Central Ave,,,,,United States,602-276-9193,,,Mon-Th 10:30am-10:00pm. Fri-Sat 10:30am-11:00pm. Sunday 10:30am-10:00pm,,,
Pizza Patron,,2519 S. Hampton Rd,,,,,United States,214-623-9220,,,Mon-Th 10:30am-10:00pm. Fri-Sat 10:30am-11:00pm. Sunday 10:30am-10:00pm,,,
Pizza Patron,,6700 S. Flores,,San Antonio,TX,,United States,210-932-9955,,,Mon-Th 10:30am-10:00pm. Fri-Sat 10:30am-11:00pm. Sunday 10:30am-10:00pm,,,
Pizza Patron,,240 Patton Street,,,,,United States,713-224-9191,,,Mon-Th 10:30am-10:00pm. Fri-Sat 10:30am-11:00pm. Sunday 10:30am-10:00pm,,,
Pizza Patron,,7625 W. Lower Buckeye Road,,,,,United States,623-643-9193,,,Mon-Th 10:30am-10:00pm. Fri-Sat 10:30am-11:00pm. Sunday 10:30am-10:00pm,,,
Pizza Patron,,"3400 Lombardy Lane, Suite 104",,,,,United States,214-358-0733,,,Mon-Th 10:30am-10:00pm. Fri-Sat 10:30am-11:00pm. Sunday 10:30am-10:00pm,,,
Pizza Patron,,515 S. Carrier Pkwy suite 106,,,,,United States,972-282-9191,,,Mon-Th 10:30am-10:00pm. Fri-Sat 10:30am-11:00pm. Sunday 10:30am-10:00pm,,,
Pizza Patron,,354 N. Country Club Drive,,,,,United States,480-464-9191,,,Mon-Th 10:30am-10:00pm. Fri-Sat 10:30am-11:00pm. Sunday 10:30am-10:00pm,,,
Pizza Patron,,"5542 Maple Ave, Suite B",,,,,United States,214-879-0200,,,Mon-Th 10:30am-10:00pm. Fri-Sat 10:30am-11:00pm. Sunday 10:30am-10:00pm,,,
Pizza Patron,,5536 Airline Drive,,,,,United States,713-691-9292,,,Mon-Th 10:30am-10:00pm. Fri-Sat 10:30am-11:00pm. Sunday 10:30am-10:00pm,,,
Pizza Patron,,"1440 N. Dysart Rd., Suite 101",,,,,United States,623-882-9494,,,Mon-Th 10:30am-10:00pm. Fri-Sat 10:30am-11:00pm. Sunday 10:30am-10:00pm,,,
Pizza Patron,,"5814 W Olive Ave, Suite 105",,,,,United States,623-435-9191,,,Mon-Th 10:30am-10:00pm. Fri-Sat 10:30am-11:00pm. Sunday 10:30am-10:00pm,,,
Pizza Patron,,"1640 N. 36th St, A-101",,,,,United States,602-685-9191,,,Mon-Th 10:30am-10:00pm. Fri-Sat 10:30am-11:00pm. Sunday 10:30am-10:00pm,,,
Pizza Patron,,1304 Central Blvd,,,,,United States,956-544-2006,,,Mon-Th 10:30am-10:00pm. Fri-Sat 10:30am-11:00pm. Sunday 10:30am-10:00pm,,,
Pizza Patron,,5201 Bosque Blvd,,,,,United States,254-776-9292,,,Mon-Th 10:30am-10:00pm. Fri-Sat 10:30am-11:00pm. Sunday 10:30am-10:00pm,,,
Pizza Patron,,122-B E Jefferson Blvd,,,,,United States,214-942-3300,,,Mon-Th 10:30am-10:00pm. Fri-Sat 10:30am-11:00pm. Sunday 10:30am-10:00pm,,,
Pizza Patron,,806 N. 13th Street,,,,,United States,956-365-4213,,,Mon-Th 10:30am-10:00pm. Fri-Sat 10:30am-11:00pm. Sunday 10:30am-10:00pm,,,
Pizza Patron,,2913 West Avenue,,San Antonio,TX,,United States,210-341-5100,,,Mon-Th 10:30am-10:00pm. Fri-Sat 10:30am-11:00pm. Sunday 10:30am-10:00pm,,,
Pizza Patron,,"7112 Ed Bluestein Blvd, Suite 175",,Austin,TX,,United States,512-928-9700,,,Mon-Th 10:30am-10:00pm. Fri-Sat 10:30am-11:00pm. Sunday 10:30am-10:00pm,,,
Pizza Patron,,805 S. 75th Street,,,,,United States,713-923-1919,,,Mon-Th 10:30am-10:00pm. Fri-Sat 10:30am-11:00pm. Sunday 10:30am-10:00pm,,,
Pizza Patron,,8234 West Indian School Road,,,,,United States,623-873-2443,,,Mon-Th 10:30am-10:00pm. Fri-Sat 10:30am-11:00pm. Sunday 10:30am-10:00pm,,,
Pizza Patron,,1114 N. Collins Street,,,,,United States,817-462-0555,,,Mon-Th 10:30am-10:00pm. Fri-Sat 10:30am-11:00pm. Sunday 10:30am-10:00pm,,,
Pizza Patron,,7582 W Bellfort,,,,,United States,713-988-9779,,,Mon-Th 10:30am-10:00pm. Fri-Sat 10:30am-11:00pm. Sunday 10:30am-10:00pm,,,
Pizza Patron,,"111 E. University Dr., Unit 101",,,,,United States,940-383-0005,,,Mon-Th 10:30am-10:00pm. Fri-Sat 10:30am-11:00pm. Sunday 10:30am-10:00pm,,,
Pizza Patron,,8100 Spring Valley Road,,,,,United States,972-437-5553,,,Mon-Th 10:30am-10:00pm. Fri-Sat 10:30am-11:00pm. Sunday 10:30am-10:00pm,,,
Pizza Patron,,6849-B S. Gessner Road,,,,,United States,713-772-8204,,,Mon-Th 10:30am-10:00pm. Fri-Sat 10:30am-11:00pm. Sunday 10:30am-10:00pm,,,
Pizza Patron,,1618 Spencer Highway,,,,,United States,713-947-1329,,,Mon-Th 10:30am-10:00pm. Fri-Sat 10:30am-11:00pm. Sunday 10:30am-10:00pm,,,
Pizza Patron,,"4200 S Frwy, Suite 999",,,,,United States,817-920-7555,,,Mon-Th 10:30am-10:00pm. Fri-Sat 10:30am-11:00pm. Sunday 10:30am-10:00pm,,,
Pizza Patron,,2496 Avenue K,,,,,United States,972-398-0400,,,Mon-Th 10:30am-10:00pm. Fri-Sat 10:30am-11:00pm. Sunday 10:30am-10:00pm,,,
Pizza Patron,,"3419 W Walnut, Suite 102",,,,,United States,972-485-4499,,,Mon-Th 10:30am-10:00pm. Fri-Sat 10:30am-11:00pm. Sunday 10:30am-10:00pm,,,
Pizza Patron,,1320 SW Military Drive,,San Antonio,TX,,United States,210-928-9191,,,Mon-Th 10:30am-10:00pm. Fri-Sat 10:30am-11:00pm. Sunday 10:30am-10:00pm,,,
Pizza Patron,,822 E Irving Blvd,,,,,United States,972-870-9191,,,Mon-Th 10:30am-10:00pm. Fri-Sat 10:30am-11:00pm. Sunday 10:30am-10:00pm,,,
Pizza Patron,,2943 S Buckner #500,,,,,United States,214-388-7311,,,Mon-Th 10:30am-10:00pm. Fri-Sat 10:30am-11:00pm. Sunday 10:30am-10:00pm,,,
Pizza Patron,,2930 S First Street,,,,,United States,972-278-5001,,,Mon-Th 10:30am-10:00pm. Fri-Sat 10:30am-11:00pm. Sunday 10:30am-10:00pm,,,
Pizza Patron,,"5334 Ross Ave, Suite 650",,,,,United States,214-841-9193,,,Mon-Th 10:30am-10:00pm. Fri-Sat 10:30am-11:00pm. Sunday 10:30am-10:00pm,,,
Pizza Patron,,"2627 W. Jefferson Blvd, 217",,,,,United States,214-946-9191,,,Mon-Th 10:30am-10:00pm. Fri-Sat 10:30am-11:00pm. Sunday 10:30am-10:00pm,,,
Pizza Patron,,1401 S Buckner Blvd,,,,,United States,214-309-9983,,,Mon-Th 10:30am-10:00pm. Fri-Sat 10:30am-11:00pm. Sunday 10:30am-10:00pm,,,
