store_name,store_number,address,address2,city,state,zip_code,country,phone_number,latitude,longitude,store_hours,store_type,other_fields,coming_soon
Atwoods of Altus,24,2220 N Main,,Altus,Oklahoma,73521,US,(580) 477-1995,34.6624420,-99.3324602,,Location,,
Atwoods of Alva,122,1600 East Oklahoma Blvd,,Alva,Oklahoma,73717,US,(580) 327-6712,36.7977835,-98.6524767,,Location,,
Atwoods of Andover,60,426 S Andover Rd,,Andover,Kansas,67002,US,(316) 733-1743,37.6803638,-97.1329916,,Location,,
Atwoods of Arkadelphia,94,"2727 Caddo St, #B",,Arkadelphia,Arkansas,71923,US,(870) 246-8600,34.1213737,-93.0820004,,Location,,
Atwoods of Bartlesville,77,3101 SW Washington,,Bartlesville,Oklahoma,74006,US,(918) 331-9000,36.7026375,-95.9351352,,Location,,
Atwoods of Broken Arrow,88,2351 E Kenosha,,Broken Arrow,Oklahoma,74012,US,(918) 355-1300,36.0598165,-95.7630783,,Location,,
Atwoods of Camden,62,1270 Hwy 278 Bypass,,Camden,Arkansas,71701,US,(870) 836-4445,33.5838963,-92.8860841,,Location,,
Atwoods of Chandler,115,1700 E First Street,,Chandler,Oklahoma,74834,US,(405) 258-2287,35.7109949,-96.8622260,,Location,,
Atwoods of Checotah,55,1110 W Gentry Rd,,Checotah,Oklahoma,74426,US,(918) 473-4730,35.4642094,-95.5000042,,Location,,
Atwoods of Chickasha,96,2221 Ponderosa Drive,,Chickasha,Oklahoma,73018,US,(405) 224-3006,35.0223353,-97.9319248,,Location,,
Atwoods of Claremore,75,680 S Lynn Riggs Blvd,,Claremore,Oklahoma,74017,US,(918) 341-0060,36.3057006,-95.6219852,,Location,,
Atwoods of Clarksville,92,1121 S Rogers Street,,Clarksville,Arkansas,72830,US,(479) 705-2880,35.4602657,-93.4597464,,Location,,
Atwoods of Clinton,71,2237 Gary Freeway,,Clinton,Oklahoma,73601,US,(580) 323-4445,35.5156056,-98.9673069,,Location,,
Atwoods of Corsicana,104,3500 W 7th Ave,,Corsicana,Texas,75110,US,(903)874-3200,32.0722535,-96.5016697,,Location,,
Atwoods of Coweta,48,13795 S State Hwy 51,,Coweta,Oklahoma,74429,US,(918)279-9232,35.9883325,-95.6712895,,Location,,
Atwoods of Hope,54,201 S Hervey,,Hope,Arkansas,71801,US,(870) 722-5159,33.6668210,-93.5965595,,Location,,
Atwoods of Crossett,98,1308 S Main,,Crossett,Arkansas,71635,US,(870) 305-5300,33.1174322,-91.9596064,,Location,,
Atwoods of Cushing,49,2004 E Main,,Cushing,Oklahoma,74023,US,(918)225-4700,35.9868801,-96.7401154,,Location,,
Atwoods of Derby,84,KS 15 @ Red Powwell Drive,,Derby,Kansas,67037,US,(316) 789-1800,37.5661350,-97.2755780,,Location,,
Atwoods of El Dorado,118,2103 Junction City Road,,El Dorado,Arkansas,71730,US,(870) 863-4869,33.2020449,-92.6449902,,Location,,
Atwoods of Elk City,20,2901 S Main,,Elk City,Oklahoma,73644,US,(580) 225-4030,35.3965466,-99.4050491,,Location,,
Atwoods of Enid,4,5400 Owen K Garriott,,Enid,Oklahoma,73703,US,(580) 233-3700,36.3908734,-97.9446025,,Location,,
Atwoods of Fort Smith,81,1401 Hwy 71 S,,Fort Smith,Arkansas,72901,US,(479) 649-8100,35.3300065,-94.4191901,,Location,,
Atwoods of Gainesville,124,811 E Highway 82,,Gainesville,Texas,76240,US,(940) 668-0983,33.6411676,-97.1386514,,Location,,
Atwoods of Greenville,105,5222 Wesley St,,Greenville,Texas,75402,US,(903)454-5426,33.1165060,-96.1106010,,Location,,
Atwoods of Hot Springs,125,2004 Albert Pike Road,,Hot Springs,Arkansas,71913,US,(501) 625-3916,34.4938954,-93.0983561,,Location,,
Atwoods of Jacksonville,101,1824 S Jackson,,Jacksonville,Texas,75766,US,(903)589-1111,31.9429269,-95.2567249,,Location,,
Atwoods of Kilgore,95,1811 US Highway 259 N,,Kilgore,Texas,75662,US,(903) 983-3200,32.4041495,-94.8508325,,Location,,
Atwoods of Kingfisher,106,1213 S Main St Hwy 81,,Kingfisher,Oklahoma,73750,US,(405)375-3913,35.8614320,-97.9317203,,Location,,
Atwoods of Lake Worth,128,6001 Lake Worth Blvd,,Lake Worth,Texas,76106,US,(817) 237-8574,32.8054939,-97.4139952,,Location,,
Atwoods of Lawton,80,1820 NW 52nd St,,Lawton,Oklahoma,73505,US,(580) 595-9000,34.6281285,-98.4589906,,Location,,
Atwoods of Lonoke,112,1400 N Center,,Lonoke,Arkansas,72086,US,(501) 676-6573,34.7956990,-91.8966800,,Location,,
Atwoods of Lowell,67,1112 W Monroe Ave,,Lowell,Arkansas,72745,US,(479) 927-1540,36.2546821,-94.1603532,,Location,,
Atwoods of Madill,111,903 S 1st Street,,Madill,Oklahoma,73446,US,(580) 677-9460,34.0827386,-96.7674121,,Location,,
Atwoods of Magnolia,46,1629 E Main Street,,Magnolia,Arkansas,71753,US,(870)234-8000,33.2662043,-93.2201183,,Location,,
Atwoods of McAlester,76,1510 S George Nigh Expwy,,McAlester,Oklahoma,74501,US,(918) 429-1000,34.8979587,-95.7593798,,Location,,
Atwoods of Mena,99,1100 Highway 71 North,,Mena,Arkansas,71953,US,(479) 394-3600,34.5772532,-94.2390930,,Location,,
Atwoods of Monticello,63,202 Highway 425 S,,Monticello,Arkansas,71655,US,(870) 460-4744,33.6274486,-91.8024938,,Location,,
Atwoods of Nacogdoches,120,4001 North St,,Nacogdoches,Texas,75965,US,(936) 559-9637,31.6412093,-94.6539174,,Location,,
Atwoods of Norman,33,1719 SW 24th Ave,,Norman,Oklahoma,73072,US,(405) 579-1100,35.1965726,-97.4766998,,Location,,
Atwoods of Owasso,85,11510 N Garnett,,Owasso,Oklahoma,74055,US,(918) 371-8100,36.3210192,-95.8500205,,Location,,
Atwoods of Paris,39,2445 N Main,,Paris,Texas,75460,US,(903) 784-0505,33.6857300,-95.5545819,,Location,,
Atwoods of Park City,86,6227 N Broadway,,Park City,Kansas,67219,US,(316) 744-8888,37.7972149,-97.3368069,,Location,,
Atwoods of Ponca City,126,401 E Prospect Avenue,,Ponca City,Oklahoma,74601,US,(580) 765-0054,36.7386932,-97.0796363,,Location,,
Atwoods of Poteau,25,2301 N Broadway,,Poteau,Oklahoma,74953,US,(918) 647-9400,35.0758890,-94.6289426,,Location,,
Atwoods of Russellville,119,2804 S. Arkansas,,Russellville,Arkansas,72802,US,(479) 498-2037,35.2496940,-93.1377080,,Location,,
Atwoods of Sand Springs,35,730 E Charles Page Blvd,,Sand Springs,Oklahoma,74063,US,(918) 241-1700,36.1365580,-96.0990610,,Location,,
Atwoods of Sapulpa,69,806 E Taft,,Sapulpa,Oklahoma,74066,US,(918) 227-3262,35.9870246,-96.1029885,,Location,,
Atwoods of Shawnee,19,716 W Ayre,,Shawnee,Oklahoma,74801,US,(405) 275-5000,35.3463432,-96.9342556,,Location,,
Atwoods of Siloam Springs,90,1451 W Highway 412,,Siloam Springs,Arkansas,72761,US,(479) 238-8000,36.1752628,-94.5210430,,Location,,
Atwoods of Stillwater,18,2211 N Perkins Rd,,Stillwater,Oklahoma,74075,US,(405) 624-3200,36.1442843,-97.0502091,,Location,,
Atwoods of Sulphur Springs,110,817 Gilmer St,,Sulphur Springs,Texas,75482,US,(903) 885-2029,33.1270745,-95.5990512,,Location,,
Atwoods of Tahlequah,107,"1741 S Muskogee Ave, Ste 5",,Tahlequah,Oklahoma,74464,US,(918) 207-0197,35.8933997,-94.9771744,,Location,,
Atwoods of Tyler,43,3000 WNW Loop 323,,Tyler,Texas,75702,US,(903) 526-6030,32.3838214,-95.3245291,,Location,,
Atwoods of Vinita,91,728 E Illinois,,Vinita,Oklahoma,74301,US,(918) 256-1100,36.6359913,-95.1469829,,Location,,
Atwoods of Waco,113,4501 Interstate 35N,,Waco,Texas,76705,US,(254) 412-1000,31.6064174,-97.1083019,,Location,,
Atwoods of Webb City,82,1899 S Madison Ave,,Webb City,Missouri,64870,US,(417) 673-3100,37.1247250,-94.4741370,,Location,,
Atwoods of Wichita Falls,29,2047 Loop 11,,Wichita Falls,Texas,76306,US,(940) 855-9100,33.9135295,-98.5361230,,Location,,
Atwoods of Woodward,70,3013 Williams Ave,,Woodward,Oklahoma,73801,US,(580) 256-7436,36.4174264,-99.3848169,,Location,,
Atwoods of Alma,127,200 Highway 64,,Alma,Arkansas,72921,US,(479) 632-1066,35.4820980,-94.2190817,,Location,,
Atwoods Store Support Center,123,500 S Garland Road,,Enid,Oklahoma,73703,US,(580) 233-3702,36.3930782,-97.9438383,,Location,,
