store_name,store_number,address,address2,city,state,zip_code,country,phone_number,latitude,longitude,store_hours,store_type,other_fields,coming_soon
Adrian,,1392 S. Main St.,,Adrian,MI,49221,United States,517-438-8764,,,"Monday- Saturday: 8AM- 8PM, Sunday: 9AM- 7PM",,,
Allegan,,1596 Lincoln Road,,Allegan,MI,49010,United States,269-686-9309,,,"Monday thru Saturday 8am to 8pm ,  Sunday 9am to 7pm",,,
Allendale,,6101 Lake Michigan Drive,,Allendale,MI,49401,United States,616-895-2294,,,"Monday thru Saturday 8am to 8pm ,  Sunday 9am to 7pm",,,
Alliance,,1370 East State Street (College Plaza Unit No. 16),,Alliance,OH,44601,United States,330.823.7722,,,"Monday - Saturday: 8AM - 8PM, Sunday: 9AM - 7PM",,,
Alma,,7600 North Alger Road,,Alma,MI,48801,United States,989-463-9400,,,"Monday thru Saturday 8am to 8pm ,  Sunday 9am to 7pm",,,
Almont,,888 North Van Dyke,,Almont,MI,48003,United States,810-798-0105,,,"Monday thru Saturday 8am to 8pm ,  Sunday 9am to 7pm",,,
Auburn,,350 North Grandstaff Drive,,Auburn,IN,46706,United States,260-333-0980,,,"Monday thru Saturday 8am to 9pm ,  Sunday 9am to 7pm",,,
Austintown,,4477 Mahoning Ave.,,Austintown,OH,44515,United States,330.797.5082,,,"Monday-Saturday: 8AM - 8PM, Sunday: 9AM - 7PM",,,
Bad Axe,,"760 North Van Dyke Road, Suite A",,Bad Axe,MI,48413,United States,989.269.7663,,,"Monday- Saturday: 8am-8pm, Sunday: 9am-7pm",,,
Battle Creek,,1675 West Michigan Avenue,,Battle Creek,MI,49017-1919,United States,269-969-8101,,,"Monday thru Saturday 8am to 8pm ,  Sunday 9am to 7pm",,,
Benton Harbor,,1391 Cinema Way,,Benton Harbor,MI,49022,United States,269-927-1983,,,"Monday thru Saturday 8am to 8pm ,  Sunday 9am to 7pm",,,
Big Rapids,,1250 Perry Ave.,,Big Rapids,MI,49307,United States,231.796.5849,,,"Monday- Saturday: 8AM-8PM, Sunday: 9AM-7PM",,,
Bluffton,,990 N. Main Street,,Bluffton,IN,46714,United States,260.827.0377,,,"Monday- Saturday: 8AM - 8PM, Sunday: 9AM - 7PM",,,
Bowling Green,,1080 S. Main Street,,Bowling Green,OH,43402,United States,419.352.5855,,,"Monday- Saturday: 8AM - 8PM, Sunday: 9AM - 7PM",,,
Bucyrus,,2460 E. Mansfield St.,,Bucyrus,OH,44820,United States,419.562.2207,,,"Monday-Saturday: 8AM - 8PM, Sunday: 9AM - 7PM",,,
Burton,,1145 North Belsay Road,,Burton,MI,48509,United States,810.301.0100,,,"Monday- Saturday: 8AM - 8PM, Sunday: 9AM - 7PM",,,
Cadillac,,2025 N. Mitchell St.,,Cadillac,MI,49601,United States,231.468.3400,,,"Monday thru Saturday 8am to 8pm ,  Sunday 9am to 7pm",,,
Cedar Springs,,4175 17 Mile Rd.,,Cedar Springs,MI,49319,United States,616.696.4100,,,"Monday - Saturday: 8AM - 8PM, Sunday: 9AM - 7PM",,,
Charlevoix,,6500 M-66 North,,Charlevoix,MI,49720,United States,231-237-9755,,,"Monday thru Saturday 8am to 8pm ,  Sunday 9am to 7pm",,,
Charlotte,,1658 Lansing Road,,Charlotte,MI,48813,United States,517.541.9970,,,"Monday- Saturday: 8AM - 8PM, Sunday: 9AM - 7PM",,,
Chelsea,,1040 South Main Street,,Chelsea,MI,48118,United States,734-562-2490,,,"Monday thru Saturday 8am to 8pm ,  Sunday 9am to 6pm",,,
Clare,,10360 S. Clare Avenue,,Clare,MI,48617,United States,989-424-6443,,,"Monday thru Saturday 8am to 8pm ,  Sunday 9am to 7pm",,,
Coldwater,,910 East Chicago Road,,Coldwater,MI,49036,United States,517-279-0461,,,"Monday thru Saturday 8am to 8pm ,  Sunday 9am to 7pm",,,
Corunna,,2500 East M-21,,Corunna,MI,48817,United States,989-472-4848,,,"Monday thru Saturday 8am to 8pm ,  Sunday 9am to 7pm",,,
Defiance,,1836 E 2nd Street,,Defiance,OH,43512,United States,419.783.1702,,,"Monday- Saturday: 8AM- 8PM, Sunday: 9AM- 7PM",,,
Fenton,,15100 Silver Parkway,,Fenton,MI,48430,United States,810.714.5950,,,"Monday - Saturday: 8AM - 8PM, Sunday: 9AM - 7PM",,,
Findlay,,15276 US Route 224,,Findlay,OH,45840,United States,419.423.7520,,,"Monday- Saturday: 8am- 8pm, Sunday: 9am- 7pm",,,
Flat Rock,,27311 Telegraph Rd.,,Flat Rock,MI,48134,United States,734.795.6094,,,"Monday-Saturday: 8am-8pm, Sunday: 9am-7pm",,,
Gaylord,,1401 W. Main Street,,Gaylord,MI,49735,United States,989-732-7777,,,"Monday thru Saturday 8am to 8pm ,  Sunday 9am to 7pm",,,
Gladwin,,1260 East Cedar Ave,,Gladwin,MI,48624,United States,989-246-0327,,,"Monday thru Saturday 8am to 8pm ,  Sunday 9am to 7pm",,,
Grand Rapids,,4325 Plainfield Avenue N.E.,,Grand Rapids,MI,49525,United States,616-365-1046,,,"Monday thru Saturday 8am to 8pm ,  Sunday 9am to 7pm",,,
Harrison,,10501 New Haven Road,,Harrison,OH,45030,United States,513.392.8584,,,"Monday- Saturday: 8AM -8PM, Sunday: 9Am - 7PM",,,
Hillsboro,,1472 North High Street,,Hillsboro,OH,45133,United States,937.240.0426,,,"Monday- Saturday: 8AM - 8PM, Sunday: 9AM - 7PM",,,
Hillsdale,,2994 West Carleton Rd,,Hillsdale,MI,49242,United States,517.797.5147,,,"Monday- Saturday: 8AM - 8PM, Sunday: 9AM - 7PM",,,
Holland,,716 Chicago Dr. Suite 500,,Holland,MI,49423,United States,616-396-2933,,,"Monday thru Saturday 8am to 8pm ,  Sunday 9am to 7pm",,,
Manistee,,1183 US Highway 31 S.,,Manistee,MI,49660,United States,231-723-6650,,,"Monday thru Saturday 8am to 8pm ,  Sunday 9am to 7pm",,,
Mason,,558 N. Cedar Street,,Mason,MI,48854,United States,517-676-9870,,,"Monday thru Saturday 8am to 8pm ,  Sunday 9am to 7pm",,,
Monroe,,205 N. Telegraph Rd.,,Monroe,MI,48162,United States,734.457.1170,,,"Monday-Saturday: 8AM-8PM, Sunday: 9AM-7PM",,,
Muskegon,,2301 Holton Road,,Muskegon,MI,49445,United States,231-760-4322,,,"Monday thru Saturday 8am to 8pm ,  Sunday 9am to 7pm",,,
Newaygo,,139 West River Valley Drive,,Newaygo,MI,49337,United States,231-652-1273,,,"Monday thru Saturday 8am to 8pm ,  Sunday 9am to 7pm",,,
Northwood,,3700 Williston Rd,,Northwood,OH,43619,United States,419.693.9100,,,"Monday- Saturday: 8AM - 8PM, Sunday: 9AM - 7PM",,,
Peru,,780 N. Broadway,,Peru,IN,46970,United States,765-472-0363,,,"Monday thru Saturday 8am to 8pm ,  Sunday 9am to 7pm",,,
Piqua,,"1245 E. Ash Street, Suite 110",,Piqua,OH,45356,United States,937.916.3289,,,"Monday- Saturday: 8AM - 8PM, Sunday: 9Am - 7PM",,,
Portland,,1870 East Grand River,,Portland,MI,48875,United States,517-647-7222,,,"Monday thru Saturday 8am to 8pm ,  Sunday 9am to 7pm",,,
Reed City,,21875 North Park,,Reed City,MI,49677,United States,231-832-8000,,,"Monday thru Saturday 8am to 8pm ,  Sunday 9am to 7pm",,,
Richmond,,66875 Gratiot,,Richmond,MI,48062,United States,586-727-4364,,,"Monday thru Saturday 8am to 8pm ,  Sunday 9am to 7pm",,,
Romeo,,66030 Van Dyke,,Washington,MI,48095,United States,586.697.4090,,,"Monday-Saturday: 8am- 8pm, Sunday: 9am- 7pm",,,
Sandusky,,605 West Sanilac Road,,Sandusky,MI,48471,United States,810.648.0500,,,"Monday - Saturday: 8AM - 8PM, Sunday: 9AM - 7PM",,,
Sparta,,53 Applewood Drive,,Sparta,MI,49345,United States,616-205-5470,,,"Monday thru Saturday 8am to 8pm ,  Sunday 9am to 7pm",,,
St. Johns,,1977 S. Scott Rd.,,St. Johns,MI,48879,United States,989-224-3095,,,"Monday thru Saturday 8am to 8pm ,  Sunday 9am to 7pm",,,
Swartz Creek,,4315 Elms Road,,Swartz Creek,MI,48473,United States,810-630-6464,,,"Monday thru Saturday 8am to 8pm ,  Sunday 9am to 7pm",,,
Three Rivers,,1326 West Broadway,,Three Rivers,MI,49093,United States,269.278.2222,,,"Monday- Saturday: 8AM- 8PM, Sunday: 9AM- 7PM",,,
Warren,,3850 Elm Road,,Warren,OH,44483,United States,330.372.3011,,,"Monday- Saturday: 8am - 8pm, Sunday: 9am - 7pm",,,
Washington Court House,,2100 Columbus Ave.,,Washington Court House,OH,43160,United States,740.333.3200,,,"Monday- Saturday: 8am - 8pm, Sunday: 9am - 7pm",,,
Wayland,,376 Reno Drive,,Wayland,MI,49348,United States,269-792-2236,,,"Monday thru Saturday 8am to 8pm ,  Sunday 9am to 7pm",,,
