store_name,store_number,address,address2,city,state,zip_code,country,phone_number,latitude,longitude,store_hours,other_fields,coming_soon
,,2401 Foothill Blvd. ,,Rock Springs ,WY,82901,,(307) 448-2460,,,"Monday - Saturday 7:30am  7:00pm, Sunday 9:00am - 6:00pm",,
,,620 Meadows Drive ,,Miles City ,MT,59301,,(406) 232-3422,,,"Monday - Saturday 7:30am  7:00pm, Sunday 9:00am - 6:00pm",,
,,120 Beckers Circle ,,Evanston ,WY,82930,,(307) 789-4900,,,"Monday - Saturday 7:30am  7:00pm, Sunday 9:00am - 6:00pm",,
,,2330 Highway 93 S ,,Kalispell ,MT,59901,,(406) 755-4747,,,"Monday - Saturday 7:30am  7:00pm, Sunday 9:00am - 6:00pm",,
,,3322 E Grand Ave ,,Laramie ,WY,82070,,(307) 721-1733,,,"Monday - Saturday 7:30am  7:00pm, Sunday 9:00am - 6:00pm",,
,,1189 S 1st Street ,,Hamilton ,MT,59840,,(406) 363-7644,,,"Monday - Saturday 7:30am  7:00pm, Sunday 9:00am - 6:00pm",,
,,3773 E. Lincolnway ,,Cheyenne ,WY,82001,,(307) 632-7888,,,"Monday - Saturday 7:30am  7:00pm, Sunday 9:00am - 6:00pm",,
,,3115 MT Highway 40 West ,,Columbia Falls ,MT,59912,,(406) 892-0176,,,"Monday - Saturday 7:30am  7:00pm, Sunday 9:00am - 6:00pm",,
,,851 N Montana ,,Dillon ,MT,59725,,(406) 683-6855,,,"Monday - Saturday 7:30am  7:00pm, Sunday 9:00am - 6:00pm",,
,,3050 N. Montana Ave. ,,Helena ,MT,59601,,(406) 457-1700,,,"Monday - Saturday 7:30am  7:00pm, Sunday 9:00am - 6:00pm",,
,,370 Miracle St ,,Evansville ,WY,82636,,(307) 266-0734,,,"Monday - Saturday 7:30am  7:00pm, Sunday 9:00am - 6:00pm",,
,,170 Heritage Lane ,,Polson ,MT,59860,,(406) 883-2140,,,"Monday - Saturday 7:30am  7:00pm, Sunday 9:00am - 6:00pm",,
,,822 Jackrabbit Lane ,,Bozeman ,MT,59718,,(406) 587-6302,,,"Monday - Saturday 7:30am  7:00pm, Sunday 9:00am - 6:00pm",,
,,2420 South Park Street ,,Livingston ,MT,59047,,(406) 222-4745,,,"Monday - Saturday 7:30am  7:00pm, Sunday 9:00am - 6:00pm",,
,,2275 North 7th Ave. ,,Bozeman ,MT,59715,,(406) 586-8466,,,"Monday - Saturday 7:30am  7:00pm, Sunday 9:00am - 6:00pm",,
,,3939 Harrison Avenue ,,Butte ,MT,59701,,(406) 494-6188,,,"Monday - Saturday 7:30am  7:00pm, Sunday 9:00am - 6:00pm",,
,,9150 Wadsworth Parkway ,,Westminster ,CO,80021,,(303) 422-9100,,,Monday - Saturday 8:00am - 8:00pm,,
,,520 Shoup Street ,,Salmon ,ID,83467,,(208) 756-1537,,,"Monday - Saturday 7:30am  7:00pm, Sunday 9:00am - 6:00pm",,
,,1510 E. 20th Street ,,Scottsbluff ,NE,69361,,(308) 220-3500,,,"Monday - Saturday 7:30am  7:00pm, Sunday 9:00am - 6:00pm",,
,,2255 N. Main St. ,,Longmont ,CO,80501,,(303) 682-5111,,,"Monday - Saturday 7:30am  7:00pm, Sunday 9:00am - 6:00pm",,
,,2151 S. Townsend Ave. ,,Montrose ,CO,81401,,(970) 249-9991,,,"Monday - Saturday 7:30am  7:00pm, Sunday 9:00am - 6:00pm",,
,,310 8th St ,,Greeley ,CO,80631,,(970) 352-0544,,,"Monday - Saturday 7:30am  7:00pm, Sunday 9:00am - 6:00pm",,
,,1207 West Platte Avenue ,,Fort Morgan ,CO,80701,,(970) 542-1515,,,"Monday - Saturday 7:30am  7:00pm, Sunday 9:00am - 6:00pm",,
,,12154 N. Dumont Way ,,Littleton ,CO,80125,,(303) 791-7800,,,"Monday - Saturday 7:30am  7:00pm, Sunday 9:00am - 6:00pm",,
,,541 Zerex Street ,,Fraser ,Colorado,80442,,(970) 726-2029,,,"Mon - Thurs: 8:00am  6:00pm, Fri - Sat: 8:00am - 7:00pm, Sunday: 9:00am - 5:00pm",,
,,2355 West Victory Way ,,Craig ,CO,81625,,(970) 824-4100,,,"Monday - Saturday 7:30am  7:00pm, Sunday 9:00am - 6:00pm",,
,,3217 I-70 Business Loop ,,Clifton ,CO,81520,,(970) 523-7515,,,"Monday - Saturday 7:30am  7:00pm, Sunday 9:00am - 6:00pm",,
,,201 E. Rainbow Blvd. US 50 ,,Salida ,CO,81201,,(719) 539-2767,,,"Monday - Saturday 7:30am  7:00pm, Sunday 9:00am - 6:00pm",,
,,1241 Blue River Parkway ,,Silverthorne ,CO,80498,,(970) 513-6551,,,"Monday - Saturday 7:30am  7:00pm, Sunday 9:00am - 6:00pm",,
,,2801 W Broadway ,,Missoula ,MT,59808,,(406) 549-2355,,,"Monday - Saturday 7:30am  7:00pm, Sunday 9:00am - 6:00pm",,
,,9853 South Parker Road ,,Parker ,CO,80134,,(720) 956-6868,,,"Monday - Saturday 7:30am  7:00pm, Sunday 9:00am - 6:00pm",,
