store_name,store_number,address,address2,city,state,zip_code,country,phone_number,latitude,longitude,store_hours,store_type,other_fields,coming_soon
,,9001 Brodie Ln,,Austin,TX,,United States,(512) 280-1010,,,"MON - THURS 11:00AM - 10:00PM, FRI - SAT 11:00AM - 11:00PM, SUNDAY 11:00AM - 10:00PM",,,
,,2248 Central Drive,,Bedford,TX,,United States,(817) 283-9400,,,"MON - THURS 11:00AM - 10:00PM, FRI - SAT 11:00AM - 11:00PM, SUNDAY Noon - 10:00PM",,,
,,2708 Pearland Pkwy,,East Pearland,TX,,United States,(281) 485-9700,,,"MON - THURS 10:00AM - 10:00PM, FRI - SAT 10:00AM - 11:00PM, SUNDAY 10:00AM - 10:00PM",,,
,,2001 Cross Timbers Rd,,Flower Mound,TX,,United States,(972) 221-5387,,,"MON - THURS 11:00AM - 10:00PM, FRI - SAT 11:00AM - 11:00PM, SUNDAY 11:00AM - 10:00PM",,,
,,5040 N. Tarrant Pkwy,,Fort Worth,TX,,United States,(817) 281-8700,,,"MON - THURS 11:00AM - 10:00PM, FRI - SAT 11:00AM - Midnight, SUNDAY 11:00AM - 10:00PM",,,
,,7151 Preston Rd,,Frisco,TX,,United States,(972) 377-9700,,,"MON - THURS 10:00AM - 10:00PM, FRI - SAT 10:00AM - 11:00PM, SUNDAY 10:00AM - 10:00PM",,,
,,1601 E Debbie Lane,,Mansfield,TX,,United States,(817) 453-5387,,,"MON - THURS 11:00AM - 10:00PM, FRI - SAT 11:00AM - 11:00PM, SUNDAY 11:00AM - 10:00PM",,,
,,8509 Davis Blvd,,N Richland Hills,TX,,United States,(817) 281-5387,,,"MON - THURS 10:00AM - 10:00PM, FRI - SAT 10:00AM - 11:00PM, SUNDAY 11:00AM - 10:00PM",,,
,,3916 McDermott Rd,,Plano/S. Frisco,TX,,United States,(214) 387-0306,,,"MON - THURS 11:00AM - 10:00PM, FRI - SAT 11:00AM - 11:00PM, SUNDAY 11:00AM - 10:00PM",,,
,,20079 Stone Oak Pkwy,,San Antonio,TX,,United States,(210) 497-1900,,,"MON - THURS 11:00AM - 10:00PM, FRI - SAT 11:00AM - 11:00PM, SUNDAY Noon - 10:00PM",,,
,,2411 Coit Rd,,South Plano,TX,,United States,(469) 554-4820,,,"MON - THURS 11:00AM - 10:00PM, FRI - SAT 11:00AM - 11:00PM, SUNDAY 11:00AM - 10:00PM",,,
,,24225 Kuykendahl Drive,,Tomball,TX,,United States,(281) 942-4520,,,"MON - THURS 11:00AM - 10:00PM, FRI - SAT 11:00AM - 11:00PM, SUNDAY 11:00AM - 10:00PM",,,
,,10228 Broadway,,West Pearland,TX,,United States,(713) 436-9000,,,"MON - THURS 11:00AM - 10:00PM, FRI - SAT 11:00AM - 11:00PM, SUNDAY 11:00AM - 10:00PM",,,
,,4402 Princess Anne Rd,,Virginia Beach,VA,,United States,(757) 467-4700,,,"MON - THURS 11:00AM - 10:00PM, FRI - SAT 11:00AM - Midnight, SUNDAY 11:00AM - 10:00PM",,,
,,409 Mills Ave,,Greenville,SC,,United States,(864) 605-7799,,,"MON - THURS 10:00AM - 10:00PM, FRI - SAT 10:00AM - 11:00PM, SUNDAY 11:00AM - 10:00PM",,,
,,405 The Parkway,,Greer,SC,,United States,(864) 989-1900,,,"MON - THURS 11:00AM - 10:00PM, FRI - SAT 11:00AM - 11:00PM, SUNDAY 11:00AM - 10:00PM",,,
,,5325 Park Forest Pkwy,,North Charleston,SC,,United States,(843) 552-0311,,,"MON - THURS 10:00AM - 10:00PM, FRI - SAT 10:00AM - 11:00PM, SUNDAY 11:00AM - 10:00PM",,,
,,216 Scuffletown Rd,,Simpsonville,SC,,United States,(864) 281-1110,,,"MON - THURS 10:00AM - 10:00PM, FRI - SAT 10:00AM - 11:00PM, SUNDAY 11:00AM - 10:00PM",,,
,,1810 Dormont Ave,,Pittsburgh,PA,,United States,(412) 343-9400,,,"MON - THURS 11:00AM - 10:00PM, FRI - SAT 11:00AM - Midnight, SUNDAY Noon - 10:00PM",,,
,,3534 Murfreesboro Pike,,Antioch,TN,,United States,(615) 641-5333,,,"MON - THURS 11:00AM - 10:00PM, FRI - SAT 11:00AM - 11:00PM, SUNDAY 11:00AM - 10:00PM",,,
,,7780 US Highway 64,,Bartlett,TN,,United States,(901) 383-5387,,,"MON - THURS 10:00AM - 11:00PM, FRI - SAT 10:00AM - Midnight, SUNDAY 11:00AM - 11:00PM",,,
,,10654 Concord Rd,,Brentwood,TN,,United States,(615) 941-5455,,,"MON - THURS 11:00AM - 10:00PM, FRI - SAT 11:00AM - 11:00PM, SUNDAY 11:00AM - 10:00PM",,,
,,3600 Hixson Pike,,Chattanooga,TN,,United States,(423) 757-1616,,,"MON - THURS 11:00AM - 10:00PM, FRI - SAT 11:00AM - 11:00PM, SUNDAY 11:00AM - 10:00PM",,,
,,2965 Fort Campbell Blvd,,Clarksville,TN,,United States,(931) 431-0002,,,"MON - THURS 11:00AM - 10:00PM, FRI - SAT 11:00AM - 11:00PM, SUNDAY 11:00AM - 10:00PM",,,
,,1849 Madison St,,Clarksville,TN,,United States,(931) 647-2000,,,"MON - THURS 11:00AM - 10:00PM, FRI - SAT 11:00AM - 11:00PM, SUNDAY 11:00AM - 10:00PM",,,
,,1940 Shady Brook St,,Columbia,TN,,United States,(931) 548-2200,,,"MON - THURS 11:00AM - 10:00PM, FRI - SAT 11:00AM - 11:00PM, SUNDAY 11:00AM - 10:00PM",,,
,,410 W Jackson St,,Cookeville,TN,,United States,(931) 528-5387,,,"MON - THURS 11:00AM - 10:00PM, FRI - SAT 11:00AM - 11:00PM, SUNDAY Noon - 10:00PM",,,
,,1400 N Germantown Pkwy,,Cordova,TN,,United States,(901) 756-8883,,,"MON - THURS 10:00AM - 11:00PM, FRI - SAT 10:00AM - Midnight, SUNDAY 11:00AM - 11:00PM",,,
,,11124 Kingston Pike,,Farragut,TN,,United States,(865) 675-0505,,,"MON - THURS 11:00AM - 10:00PM, FRI - SAT 11:00AM - 11:00PM, SUNDAY 11:00AM - 10:00PM",,,
,,1400 Liberty Pike,,Franklin,TN,,United States,(615) 595-8883,,,"MON - THURS 10:30AM - 9:00PM, FRI - SAT 10:30AM - 10:00PM, SUNDAY 11:00AM - 9:00PM",,,
,,102 Lumber Dr,,Franklin,TN,,United States,(615) 599-4800,,,"MON - THURS 10:30AM - 9:00PM, FRI - SAT 10:30AM - 10:00PM, SUNDAY 11:00AM - 9:00PM",,,
,,1110 Hillsboro Rd,,Franklin,TN,,United States,(615) 435-3375,,,"MON - THURS 10:30AM - 9:00PM, FRI - SAT 10:30AM - 10:00PM, SUNDAY 11:00AM - 9:00PM",,,
,,122 N Belvedere Dr,,Gallatin,TN,,United States,(615) 451-0252,,,"MON - THURS 11:00AM - 10:00PM, FRI - SAT 11:00AM - 11:00PM, SUNDAY 11:00AM - 10:00PM",,,
,,2075 Exeter Rd,,Germantown,TN,,United States,(901) 737-5387,,,"MON - THURS 10:00AM - 10:00PM, FRI - SAT 10:00AM - 11:00PM, SUNDAY 11:00AM - 10:00PM",,,
,,2010 Richard Jones Rd,,Green Hills / Nashville,TN,,United States,(615) 292-2020,,,"MON - THURS 11:00AM - 10:00PM, FRI - SAT 11:00AM - 11:00PM, SUNDAY 11:00AM - 10:00PM",,,
,,112 Saundersville Rd,,Hendersonville,TN,,United States,(615) 822-4221,,,"MON - THURS 11:00AM - 10:00PM, FRI - SAT 11:00AM - 11:00PM, SUNDAY 11:00AM - 10:00PM",,,
,,5205 Old Hickory Blvd,,Hermitage,TN,,United States,(615) 885-5387,,,"MON - THURS 11:00AM - 10:00PM, FRI - SAT 11:00AM - 11:00PM, SUNDAY 11:00AM - 10:00PM",,,
,,406 Oil Well Rd,,Jackson,TN,,United States,(731) 300-4555,,,"MON - THURS 10:30AM - 10:00PM, FRI - SAT 10:30AM - 11:00PM, SUNDAY 10:30AM - 10:00PM",,,
,,9 Chloe Place,,Jackson,TN,,United States,(731) 300-7992,,,"MON - THURS 10:00AM - 10:00PM, FRI - SAT 10:00AM - 11:00PM, SUNDAY 10:00AM - 10:00PM",,,
,,4943 Millertown Pike,,Knoxville,TN,,United States,(865) 247-7695,,,"MON - THURS 11:00AM - 10:00PM, FRI - SAT 11:00AM - 11:00PM, SUNDAY 11:00AM - 10:00PM",,,
,,7331 Kingston Pike,,Knoxville (Bearden),TN,,United States,(865) 566-0750,,,"MON - THURS 11:00AM - 10:00PM, FRI - SAT 11:00AM - 11:00PM, SUNDAY 11:00AM - 10:00PM",,,
,,1108 Broadway St E,,Lenoir City,TN,,United States,(865) 271-0222,,,"MON - THURS 11:00AM - 10:00PM, FRI - SAT 11:00AM - 11:00PM, SUNDAY 11:00AM - 10:00PM",,,
,,1919 Gallatin Pike N,,Madison,TN,,United States,(615) 448-6276,,,"MON - THURS 11:00AM - 10:00PM, FRI - SAT 11:00AM - 11:00PM, SUNDAY 11:00AM - 10:00PM",,,
,,1722 W Broadway Ave,,Maryville,TN,,United States,(865) 984-2004,,,"MON - THURS 11:00AM - 10:00PM, FRI - SAT 11:00AM - 11:00PM, SUNDAY 11:00AM - 10:00PM",,,
,,4695 Poplar Ave,,Memphis,TN,,United States,(901) 207-4200,,,"MON - THURS 10:00AM - 11:00PM, FRI - SAT 10:00AM - Midnight, SUNDAY 10:00AM - 11:00PM",,,
,,1983 W. Morris Blvd.,,Morristown,TN,,United States,,,,,,,
,,2037 N Mount Juliet Rd,,Mount Juliet,TN,,United States,(615) 754-4100,,,"MON - THURS 11:00AM - 10:00PM, FRI - SAT 11:00AM - 11:00PM, SUNDAY 11:00AM - 10:00PM",,,
,,4167 Franklin Rd,,Murfreesboro,TN,,United States,(615) 904-7277,,,"MON - THURS 11:00AM - 10:00PM, FRI - SAT 11:00AM - 11:00PM, SUNDAY 11:00AM - 10:00PM",,,
,,2975 S Rutherford Blvd,,Murfreesboro,TN,,United States,(615) 890-1214,,,"MON - THURS 11:00AM - 10:00PM, FRI - SAT 11:00AM - 11:00PM, SUNDAY 11:00AM - 10:00PM",,,
,,3325 Memorial Blvd,,Murfreesboro,TN,,United States,(615) 896-5550,,,"MON - THURS 11:00AM - 10:00PM, FRI - SAT 11:00AM - 11:00PM, SUNDAY 11:00AM - 10:00PM",,,
,,8082 Highway 100,,Nashville,TN,,United States,(615) 662-1110,,,"MON - THURS 11:00AM - 10:00PM, FRI - SAT 11:00AM - 11:00PM, SUNDAY 11:00AM - 10:00PM",,,
,,15538 Old Hickory Blvd,,Nashville,TN,,United States,(615) 833-1200,,,"MON - THURS 11:00AM - 10:00PM, FRI - SAT 11:00AM - 11:00PM, SUNDAY 11:00AM - 10:00PM",,,
,,214 25th Ave N,,Nashville,TN,,United States,(615) 329-8600,,,"MON - THURS 10:00AM - 10:00PM, FRI - SAT 10:00AM - Midnight, SUNDAY 11:00AM - 10:00PM",,,
,,721 Gallatin Ave,,Nashville,TN,,United States,(615) 262-5051,,,"MON - THURS 11:00AM - 10:00PM, FRI - SAT 11:00AM - 11:00PM, SUNDAY 11:00AM - 10:00PM",,,
,,850 Hillwood Blvd,,Nashville,TN,,United States,(615) 353-2943,,,"MON - THURS 11:00AM - 10:00PM, FRI - SAT 11:00AM - 11:00PM, SUNDAY 11:00AM - 10:00PM",,,
,,1541 Oak Ridge Turnpike,,Oak Ridge,TN,,United States,(865) 272-3723,,,"MON - THURS 11:00AM - 10:00PM, FRI - SAT 11:00AM - 11:00PM, SUNDAY 11:00AM - 10:00PM",,,
,,625 E Emory Rd,,Powell,TN,,United States,(865) 947-5388,,,"MON - THURS 10:00AM - 10:00PM, FRI - SAT 10:00AM - 11:00PM, SUNDAY 10:00AM - 10:00PM",,,
,,539 Almaville Rd,,Smyrna,TN,,United States,(615) 223-1028,,,"MON - THURS 11:00AM - 10:00PM, FRI - SAT 11:00AM - 11:00PM, SUNDAY 11:00AM - 10:00PM",,,
,,1021 Crossings Blvd,,Spring Hill,TN,,United States,(931) 487-9700,,,"MON - THURS 11:00AM - 10:00PM, FRI - SAT 11:00AM - 11:00PM, SUNDAY 11:00AM - 10:00PM",,,
,,2666 Memorial Blvd,,Springfield,TN,,United States,(615) 667-1557,,,"MON - THURS 11:00AM - 10:00PM, FRI - SAT 11:00AM - 11:00PM, SUNDAY 11:00AM - 10:00PM",,,
,,102 College Station Dr,,Brevard,NC,,United States,(828) 883-2888,,,"MON - THURS 11:00AM - 10:00PM, FRI - SAT 11:00AM - 11:00PM, SUNDAY 11:00AM - 10:00PM",,,
,,1253 NW Maynard Rd,,Cary,NC,,United States,(919) 469-4949,,,"MON - THURS 11:00AM - 10:00PM, FRI - SAT 11:00AM - 11:00PM, SUNDAY Noon - 10:00PM",,,
,,1607 Montford Dr,,Charlotte,NC,,United States,(704) 522-3767,,,"MON - THURS 11:00AM - 10:00PM, FRI - SAT 11:00AM - 11:00PM, SUNDAY Noon - 10:00PM",,,
,,8700 Pineville-Matthews Rd,,Charlotte (Pineville),NC,,United States,(704) 544-7227,,,"MON - THURS 10:00AM - 10:00PM, FRI - SAT 10:00AM - 11:00PM, SUNDAY 11:00AM - 10:00PM",,,
,,2712 W Mallard Creek-Church Rd,,Charlotte (University City),NC,,United States,(704) 595-1991,,,"MON - THURS 10:00AM - 10:00PM, FRI - SAT 10:00AM - 11:00PM, SUNDAY 10:00AM - 10:00PM",,,
,,1229 Concord Pkwy N,,Concord,NC,,United States,(704) 721-5387,,,"MON - THURS 10:00AM - 10:00PM, FRI - SAT 10:00AM - 11:00PM, SUNDAY 11:00AM - 10:00PM",,,
,,1564C Highwoods Blvd,,Greensboro,NC,,United States,(336) 854-6060,,,"MON - THURS 11:00AM - 10:00PM, FRI - SAT 11:00AM - 11:00PM, SUNDAY Noon - 10:00PM",,,
,,420 E Arlington Blvd,,Greenville,NC,,United States,(252) 215-0091,,,"MON - THURS 11:00AM - 10:00PM, FRI - SAT 11:00AM - 11:00PM, SUNDAY 11:00AM - 10:00PM",,,
,,14316 Reese Blvd W,,Huntersville,NC,,United States,(704) 992-2221,,,"MON - THURS 11:00AM - 10:00PM, FRI - SAT 11:00AM - 11:00PM, SUNDAY Noon - 10:00PM",,,
,,920 Park Center Dr,,Matthews,NC,,United States,(704) 845-1015,,,"MON - THURS 10:00AM - 10:00PM, FRI - SAT 10:00AM - 11:00PM, SUNDAY 11:00AM - 10:00PM",,,
,,123 Trade Ct,,Mooresville,NC,,United States,(704) 660-0905,,,"MON - THURS 11:00AM - 10:00PM, FRI - SAT 11:00AM - 11:00PM, SUNDAY Noon - 10:00PM",,,
,,8365 Creedmoor Rd,,Raleigh,NC,,United States,(919) 845-3337,,,"MON - THURS 10:00AM - 10:00PM, FRI - SAT 10:00AM - 11:00PM, SUNDAY 10:00AM - 10:00PM",,,
,,6132 Falls of Neuse Rd,,Raleigh,NC,,United States,(919) 872-2221,,,"MON - THURS 11:00AM - 10:00PM, FRI - SAT 11:00AM - 11:00PM, SUNDAY Noon - 10:00PM",,,
,,2491 N. 124th St,,Brookfield,WI,,United States,(262) 788-5007,,,"MON - THURS 10:00AM - 10:00PM, FRI - SAT 10:00AM - 11:00PM, SUNDAY 11:00AM - 10:00PM",,,
,,1111 E Johnson St,,Fond du Lac,WI,,United States,(920) 922-5387,,,"MON - THURS 11:00AM - 10:00PM, FRI - SAT 11:00AM - Midnight, SUNDAY 11:00AM - 10:00PM",,,
,,6813 N. Green Bay Rd.,,Glendale,WI,,United States,(414) 533-0082,,,"MON - THURS 10:00AM - 10:00PM, FRI - SAT 10:00AM - 11:00PM, SUNDAY 11:00AM - 10:00PM",,,
,,202 W Main St,,Little Chute,WI,,United States,(920) 687-8510,,,"MON - THURS 11:00AM - 10:00PM, FRI - SAT 11:00AM - 11:00PM, SUNDAY 11:00AM - 10:00PM",,,
,,2831 Parmenter,,Middleton,WI,,United States,(608) 841-1700,,,"MON - THURS 11:00AM - 10:00PM, FRI - SAT 11:00AM - 11:00PM, SUNDAY 11:00AM - 10:00PM",,,
,,1857 E. Kenilworth Pl.,,Milwaukee,WI,,United States,,,,,,,
,,9129 W Greenfield Ave,,West Allis,WI,,United States,(414) 831-5800,,,"MON - THURS 10:00AM - 11:00PM, FRI - SAT 10:00AM - Midnight, SUNDAY 11:00AM - 10:00PM",,,
,,3004 Wake Forest Rd,,Raleigh,NC,,United States,(919) 877-8660,,,"MON - THURS 10:00AM - 10:00PM, FRI - SAT 10:00AM - Midnight, SUNDAY 11:00AM - 10:00PM",,,
,,,,Waxhaw,NC,,United States,,,,,,,
,,14940 Manchester Rd,,Ballwin,MO,,United States,(636) 220-8929,,,"MON - THURS 11:00AM - 10:00PM, FRI - SAT 11:00AM - 11:00PM, SUNDAY 11:00AM - 10:00PM",,,
,,12536 Olive Blvd,,Creve Coeur (W of 270),MO,,United States,(314) 548-2585,,,"MON - THURS 11:00AM - 10:00PM, FRI - SAT 11:00AM - 11:00PM, SUNDAY Noon - 10:00PM",,,
,,2040 S Glenstone Ave,,Springfield,MO,,United States,(417) 319-1945,,,"MON - THURS 11:00AM - 10:00PM, FRI - SAT 11:00AM - 11:00PM, SUNDAY 11:00AM - 10:00PM",,,
,,4497 Forest Park Ave,,St Louis,MO,,United States,(314) 449-1118,,,"MON - THURS 11:00AM - 10:00PM, FRI - SAT 11:00AM - 11:00PM, SUNDAY Noon - 10:00PM",,,
,,3533 Hampton Ave,,St Louis,MO,,United States,(314) 351-0955,,,"MON - THURS 11:00AM - 10:00PM, FRI - SAT 11:00AM - 11:00PM, SUNDAY Noon - 10:00PM",,,
,,234 W Lockwood Ave,,Webster Groves,MO,,United States,(314) 695-5320,,,"MON - THURS 11:00AM - 10:00PM, FRI - SAT 11:00AM - 11:00PM, SUNDAY Noon - 10:00PM",,,
,,8190-C Beechmont Ave.,,Anderson,OH,,United States,(513) 474-5387,,,"MON - THURS 11:00AM - 10:00PM, FRI - SAT 11:00AM - 11:00PM, SUNDAY Noon - 10:00PM",,,
,,2418 Esquire Dr,,Beavercreek,OH,,United States,(937) 431-1111,,,"MON - THURS 11:00AM - 10:00PM, FRI - SAT 11:00AM - 11:00PM, SUNDAY 11:00AM - 10:00PM",,,
,,3979 Indian Ripple Rd,,Beavercreek,OH,,United States,(937) 426-3333,,,"MON - THURS 11:00AM - 10:00PM, FRI - SAT 11:00AM - 11:00PM, SUNDAY Noon - 10:00PM",,,
,,1216 North Main,,Bowling Green,OH,,United States,,,,,,,
,,8627 Sancus Blvd,,Columbus,OH,,United States,(614) 848-8800,,,"MON - THURS 10:00AM - 10:00PM, FRI - SAT 10:00AM - Midnight, SUNDAY 10:00AM - 10:00PM",,,
,,3473 Hudson Dr.,,Cuyahoga Falls,OH,,United States,(234) 334-0932,,,"MON - THURS 10:00AM - 10:00PM, FRI - SAT 10:00AM - Midnight, SUNDAY 11:00AM - 10:00PM",,,
,,5843 Far Hills Ave,,Dayton,OH,,United States,(937) 434-4400,,,"MON - THURS 11:00AM - 10:00PM, FRI - SAT 11:00AM - 11:00PM, SUNDAY 11:00AM - 10:00PM",,,
,,26 Troy Rd,,Delaware,OH,,United States,(740) 363-1600,,,"MON - THURS 10:00AM - 10:00PM, FRI - SAT 10:00AM - Midnight, SUNDAY 10:00AM - 10:00PM",,,
,,5132-A Delhi Pike,,Delhi,OH,,United States,(513) 922-2000,,,"MON - THURS 11:00AM - 10:00PM, FRI - SAT 11:00AM - 11:00PM, SUNDAY 11:00AM - 10:00PM",,,
,,3864 Hard Rd,,Dublin,OH,,United States,(614) 659-0075,,,"MON - THURS 10:00AM - 10:00PM, FRI - SAT 10:00AM - Midnight, SUNDAY 10:00AM - 10:00PM",,,
,,5691 Woerner Temple Rd,,Dublin,OH,,United States,(614) 764-4500,,,"MON - THURS 10:00AM - 10:00PM, FRI - SAT 10:00AM - Midnight, SUNDAY 10:00AM - 10:00PM",,,
,,6679-A Dixie Hwy,,Fairfield,OH,,United States,(513) 860-5387,,,"MON - THURS 11:00AM - 10:00PM, FRI - SAT 11:00AM - 11:00PM, SUNDAY Noon - 10:00PM",,,
,,960 N Hamilton Rd,,Gahanna,OH,,United States,(614) 475-2000,,,"MON - THURS 10:00AM - 10:00PM, FRI - SAT 10:00AM - Midnight, SUNDAY 10:00AM - 10:00PM",,,
,,3160 Broadway,,Grove City,OH,,United States,,,,,,,
,,3858 Main St,,Hilliard,OH,,United States,(614) 771-0500,,,"MON - THURS 10:00AM - 10:00PM, FRI - SAT 10:00AM - Midnight, SUNDAY 10:00AM - 10:00PM",,,
,,6241 Old Troy Pike,,Huber Heights,OH,,United States,(937) 236-4444,,,"MON - THURS 11:00AM - 10:00PM, FRI - SAT 11:00AM - 11:00PM, SUNDAY 11:00AM - 10:00PM",,,
,,6489 Pullman Dr,,Lewis Center,OH,,United States,(740) 548-1616,,,"MON - THURS 10:00AM - 10:00PM, FRI - SAT 10:00AM - Midnight, SUNDAY 10:00AM - 10:00PM",,,
,,7035 Yankee Rd,,Liberty Township,OH,,United States,(513) 777-0666,,,"MON - THURS 11:00AM - 10:00PM, FRI - SAT 11:00AM - 11:00PM, SUNDAY Noon - 10:00PM",,,
,,5350 Mayfield Rd,,Lyndhurst,OH,,United States,(440) 460-1700,,,"MON - THURS 10:00AM - 10:00PM, FRI - SAT 10:00AM - Midnight, SUNDAY 11:00AM - 10:00PM",,,
,,7916 S. Mason Montgomery Rd,,Mason,OH,,United States,(513) 229-8620,,,"MON - THURS 11:00AM - 10:00PM, FRI - SAT 11:00AM - 11:00PM, SUNDAY Noon - 10:00PM",,,
,,7554 Pearl Rd,,Middleburg Heights,OH,,United States,(440) 243-7802,,,"MON - THURS 11:00AM - 10:00PM, FRI - SAT 11:00AM - Midnight, SUNDAY Noon - 10:00PM",,,
,,5976 Meijer Dr,,Milford,OH,,United States,(513) 248-0918,,,"MON - THURS 11:00AM - 10:00PM, FRI - SAT 11:00AM - 11:00PM, SUNDAY Noon - 10:00PM",,,
,,10040A Montgomery Rd,,Montgomery,OH,,United States,(513) 793-4488,,,"MON - THURS 10:00AM - 10:00PM, FRI - SAT 10:00AM - 11:00PM, SUNDAY 11:00AM - 10:00PM",,,
,,2165 Delaware Ave,,Buffalo,NY,,United States,(716) 877-6700,,,"MON - THURS 11:00AM - 11:00PM, FRI - SAT 11:00AM - Midnight, SUNDAY 11:00AM - 11:00PM",,,
,,7356 Fodor Rd,,New Albany,OH,,United States,(614) 855-2404,,,"MON - THURS 10:00AM - 10:00PM, FRI - SAT 10:00AM - Midnight, SUNDAY 10:00AM - 10:00PM",,,
,,5344 Pearl Rd,,Parma,OH,,United States,(440) 888-2100,,,"MON - THURS 11:00AM - 10:00PM, FRI - SAT 11:00AM - Midnight, SUNDAY Noon - 10:00PM",,,
,,7878 Broadview Rd,,Parma,OH,,United States,,,,,,,
,,201 Clint Dr,,Pickerington,OH,,United States,(614) 751-0800,,,"MON - THURS 10:00AM - 10:00PM, FRI - SAT 10:00AM - Midnight, SUNDAY 10:00AM - 10:00PM",,,
,,8882 Moreland St,,Powell,OH,,United States,(740) 881-9396,,,"MON - THURS 10:00AM - 10:00PM, FRI - SAT 10:00AM - Midnight, SUNDAY 10:00AM - 10:00PM",,,
,,55 Mcnaughten Rd,,Reynoldsburg,OH,,United States,(614) 759-7200,,,"MON - THURS 10:00AM - 10:00PM, FRI - SAT 10:00AM - Midnight, SUNDAY 10:00AM - 10:00PM",,,
,,228 W Central Ave,,Springboro,OH,,United States,(937) 748-5555,,,"MON - THURS 11:00AM - 10:00PM, FRI - SAT 11:00AM - 11:00PM, SUNDAY 11:00AM - 10:00PM",,,
,,167 State Route 3,,Sunbury,OH,,United States,(740) 965-1172,,,"MON - THURS 10:00AM - 10:00PM, FRI - SAT 10:00AM - Midnight, SUNDAY 10:00AM - 10:00PM",,,
,,11928 Montgomery Rd,,Symmes Twp./Loveland,OH,,United States,(513) 774-0207,,,"MON - THURS 11:00AM - 10:00PM, FRI - SAT 11:00AM - 11:00PM, SUNDAY Noon - 10:00PM",,,
,,5392 Monroe St,,Toledo,OH,,United States,(419) 841-7700,,,"MON - THURS 10:00AM - 10:00PM, FRI - SAT 10:00AM - 11:00PM, SUNDAY 10:00AM - 10:00PM",,,
,,2903 Dorr,,Toledo,OH,,United States,(419) 725-3400,,,"MON - THURS 10:00AM - 10:00PM, FRI - SAT 10:00AM - 11:00PM, SUNDAY 10:00AM - 10:00PM",,,
,,4733 Glendale Ave,,Toledo,OH,,United States,(419) 381-6700,,,"MON - THURS 10:00AM - 10:00PM, FRI - SAT 10:00AM - 11:00PM, SUNDAY 10:00AM - 10:00PM",,,
,,4740 Reed Rd,,Upper Arlington,OH,,United States,(614) 326-0300,,,"MON - THURS 10:00AM - 10:00PM, FRI - SAT 10:00AM - Midnight, SUNDAY 10:00AM - 10:00PM",,,
,,642 N State St,,Westerville,OH,,United States,(614) 882-5387,,,"MON - THURS 10:00AM - 10:00PM, FRI - SAT 10:00AM - Midnight, SUNDAY 10:00AM - 10:00PM",,,
,,25947 Detroit Rd,,Westlake,OH,,United States,(440) 892-1200,,,"MON - THURS 11:00AM - 10:00PM, FRI - SAT 11:00AM - Midnight, SUNDAY Noon - 10:00PM",,,
,,3507 Round Lake Blvd NW,,Anoka,MN,,United States,(763) 432-4555,,,"MON - THURS 11:00AM - 11:00PM, FRI - SAT 11:00AM - Midnight, SUNDAY 11:00AM - 11:00PM",,,
,,12410 Aberdeen St NE,,Blaine,MN,,United States,(763) 754-5387,,,"MON - THURS 11:00AM - 11:00PM, FRI - SAT 11:00AM - Midnight, SUNDAY 11:00AM - 11:00PM",,,
,,9730 Schreiber Terrace North,,Brooklyn Park,MN,,United States,(763) 354-7688,,,"MON - THURS 11:00AM - 11:00PM, FRI - SAT 11:00AM - Midnight, SUNDAY 11:00AM - 11:00PM",,,
,,7737 Flying Cloud Dr,,Eden Prairie,MN,,United States,(952) 356-0600,,,"MON - THURS 10:00AM - 10:00PM, FRI - SAT 10:00AM - 11:00PM, SUNDAY 11:00AM - 10:00PM",,,
,,415 17th Ave N,,Hopkins,MN,,United States,(952) 400-1580,,,"MON - THURS 10:00AM - 10:00PM, FRI - SAT 10:00AM - 11:00PM, SUNDAY 11:00AM - 10:00PM",,,
,,16338 County Rd 30,,Maple Grove,MN,,United States,(763) 416-7835,,,"MON - THURS 11:00AM - 11:00PM, FRI - SAT 11:00AM - Midnight, SUNDAY 11:00AM - 11:00PM",,,
,,35535 Euclid Ave,,Willoughby,OH,,United States,(440) 954-7700,,,"MON - THURS 10:00AM - 10:00PM, FRI - SAT 10:00AM - Midnight, SUNDAY 11:00AM - 10:00PM",,,
,,660 High St,,Worthington,OH,,United States,(614) 844-4400,,,"MON - THURS 10:00AM - 10:00PM, FRI - SAT 10:00AM - Midnight, SUNDAY 10:00AM - 10:00PM",,,
,,4216 Winnetka Ave N,,New Hope,MN,,United States,(763) 537-4100,,,"MON - THURS 11:00AM - 11:00PM, FRI - SAT 11:00AM - Midnight, SUNDAY 11:00AM - 11:00PM",,,
,,19 7th Ave S,,Saint Cloud,MN,,United States,(320) 230-5387,,,"MON - THURS 11:00AM - 11:00PM, FRI - SAT 11:00AM - Midnight, SUNDAY 11:00AM - 11:00PM",,,
,,1625 Campbell Ln,,Bowling Green,KY,,United States,(270) 495-1075,,,"MON - THURS 11:00AM - 10:00PM, FRI - SAT 11:00AM - 11:00PM, SUNDAY 11:00AM - 10:00PM",,,
,,6523 Bardstown Rd,,Fern Creek,KY,,United States,(502) 239-0000,,,"MON - THURS 10:00AM - 10:00PM, FRI - SAT 10:00AM - Midnight, SUNDAY 11:00AM - 10:00PM",,,
,,7220 Burlington Pike,,Florence,KY,,United States,(859) 384-6600,,,"MON - THURS 11:00AM - 10:00PM, FRI - SAT 11:00AM - 11:00PM, SUNDAY 11:00AM - 10:00PM",,,
,,3420 Valley Plaza Pkwy,,Ft Wright,KY,,United States,(859) 344-4400,,,"MON - THURS 11:00AM - 10:00PM, FRI - SAT 11:00AM - 11:00PM, SUNDAY 11:00AM - 10:00PM",,,
,,2111 N Bend Rd,,Hebron,KY,,United States,(859) 689-9800,,,"MON - THURS 11:00AM - 10:00PM, FRI - SAT 11:00AM - 11:00PM, SUNDAY 11:00AM - 10:00PM",,,
,,3624A S Hurstbourne Pkwy,,J-Town/Hikes Point,KY,,United States,(502) 491-1700,,,"MON - THURS 10:30AM - 10:00PM, FRI - SAT 10:30AM - 11:00PM, SUNDAY 11:00AM - 10:00PM",,,
,,3901 Harrodsburg Rd Ste 120,,Lexington,KY,,United States,(859) 224-0133,,,"MON - THURS 11:00AM - 10:00PM, FRI - SAT 11:00AM - Midnight, SUNDAY Noon - 10:00PM",,,
,,4222 Saron Dr,,Lexington,KY,,United States,(859) 273-5387,,,"MON - THURS 11:00AM - 10:00PM, FRI - SAT 11:00AM - Midnight, SUNDAY Noon - 10:00PM",,,
,,1030 S Broadway,,Lexington,KY,,United States,(859) 231-5387,,,"MON - THURS 11:00AM - 10:00PM, FRI - SAT 11:00AM - Midnight, SUNDAY Noon - 10:00PM",,,
,,101 Sand Lake Dr,,Lexington,KY,,United States,(859) 335-5387,,,"MON - THURS 11:00AM - 10:00PM, FRI - SAT 11:00AM - Midnight, SUNDAY Noon - 10:00PM",,,
,,2500 Bardstown Rd,,Louisville,KY,,United States,(502) 458-5387,,,"MON - THURS 10:00AM - 10:00PM, FRI - SAT 10:00AM - Midnight, SUNDAY 11:00AM - 10:00PM",,,
,,10494 Westport Rd.,,Louisville,KY,,United States,(502) 426-1181,,,"MON - THURS 10:30AM - 10:00PM, FRI - SAT 10:30AM - Midnight, SUNDAY 11:00AM - 10:00PM",,,
,,235 Blankenbaker Pkwy,,Middletown,KY,,United States,(502) 244-4440,,,"MON - THURS 10:30AM - 10:00PM, FRI - SAT 10:30AM - Midnight, SUNDAY 11:00AM - 10:00PM",,,
,,1305 Monmouth St,,Newport,KY,,United States,(859) 291-7000,,,"MON - THURS 11:00AM - 10:00PM, FRI - SAT 11:00AM - 11:00PM, SUNDAY 11:00AM - 10:00PM",,,
,,101 S Hubbards Ln,,St Matthews,KY,,United States,(502) 895-4655,,,"MON - THURS 10:00AM - 10:00PM, FRI - SAT 10:00AM - Midnight, SUNDAY 11:00AM - 10:00PM",,,
,,59 W Golf Rd,,Arlington Heights,IL,,United States,(847) 593-5387,,,"MON - THURS 11:00AM - 10:00PM, FRI - SAT 10:00AM - 11:00PM, SUNDAY 11:00AM - 10:00PM",,,
,,2849 E New York St,,Aurora,IL,,United States,(630) 978-8500,,,"MON - THURS 10:00AM - 10:00PM, FRI - SAT 10:00AM - 11:00PM, SUNDAY 10:00AM - 10:00PM",,,
,,512 S Neil St,,Champaign,IL,,United States,(217) 352-3333,,,"MON - THURS 10:00AM - 11:00PM, FRI - SAT 10:00AM - 2:00AM, SUNDAY 11:00AM - 10:00PM",,,
,,1907 W Springfield Ave,,Champaign,IL,,United States,(217) 352-9992,,,"MON - THURS 10:00AM - 10:00PM, FRI - SAT 10:00AM - Midnight, SUNDAY 11:00AM - 10:00PM",,,
,,2811 N Ashland Ave,,Chicago,IL,,United States,(773) 857-2080,,,"MON - THURS 10:00AM - Midnight, FRI - SAT 10:00AM - 3:00AM, SUNDAY 10:00AM - Midnight",,,
,,207 W. Superior St,,Chicago,IL,,United States,(312) 465-2280,,,"MON - THURS 10:00AM - Midnight, FRI - SAT 10:00AM - 3:00AM, SUNDAY 10:00AM - Midnight",,,
,,3951 N Kimball Ave,,Chicago,IL,,United States,(773) 993-1111,,,"MON - THURS 10:00AM - 11:00PM, FRI - SAT 10:00AM - 3:00AM, SUNDAY 10:00AM - 10:00PM",,,
,,1805 N. Harlem Ave,,Chicago,IL,,United States,(773) 637-5387,,,"MON - THURS 10:00AM - 10:00PM, FRI - SAT 10:00AM - 11:00PM, SUNDAY 11:00AM - 10:00PM",,,
,,5058 N. Clark St.,,Chicago,IL,,United States,,,,,,,
,,1811 W. North Ave,,Chicago,IL,,United States,(773) 904-8283,,,"MON - THURS 10:00AM - Midnight, FRI - SAT 10:00AM - 3:00AM, SUNDAY 10:00AM - Midnight",,,
,,1025 W. Madison St.,,Chicago,IL,,United States,,,,,,,
,,3510 W. Armitage,,Chicago,IL,,United States,,,,,,,
,,2425 75th St,,Darien,IL,,United States,(630) 910-3100,,,"MON - THURS 10:00AM - 10:00PM, FRI - SAT 10:00AM - 11:00PM, SUNDAY 10:00AM - 10:00PM",,,
,,2309 Essington Rd,,Joliet,IL,,United States,(815) 577-5387,,,"MON - THURS 10:00AM - 10:00PM, FRI - SAT 10:00AM - 11:00PM, SUNDAY 11:00AM - 10:00PM",,,
,,219 E Roosevelt Rd,,Lombard,IL,,United States,(630) 424-4777,,,"MON - THURS 10:00AM - 10:00PM, FRI - SAT 10:00AM - 11:00PM, SUNDAY 10:00AM - 10:00PM",,,
,,720 E Ogden Ave,,Naperville-North,IL,,United States,(630) 922-1111,,,"MON - THURS 10:00AM - 10:00PM, FRI - SAT 10:00AM - 11:00PM, SUNDAY 10:00AM - 10:00PM",,,
,,3344 S Route 59,,Naperville-South,IL,,United States,(630) 904-7777,,,"MON - THURS 10:00AM - 10:00PM, FRI - SAT 10:00AM - 11:00PM, SUNDAY 10:00AM - 10:00PM",,,
,,1847 W Irving Park Rd,,Schaumburg,IL,,United States,(847) 891-6900,,,"MON - THURS 11:00AM - 10:00PM, FRI - SAT 11:00AM - 11:00PM, SUNDAY 11:00AM - 10:00PM",,,
,,4112 Dempster St,,Skokie,IL,,United States,(224) 534-7151,,,"MON - THURS 10:00AM - 10:00PM, FRI - SAT 10:00AM - 11:00PM, SUNDAY 10:00AM - 10:00PM",,,
,,17101 88th Ave,,Tinley Park,IL,,United States,(708) 263-0150,,,"MON - THURS 11:00AM - 10:00PM, FRI - SAT 11:00AM - 11:00PM, SUNDAY 11:00AM - 10:00PM",,,
,,936 E Roosevelt Rd,,Wheaton,IL,,United States,(630) 653-2800,,,"MON - THURS 10:00AM - 10:00PM, FRI - SAT 10:00AM - 11:00PM, SUNDAY 11:00AM - 10:00PM",,,
,,1065 E Lake Cook Rd,,Wheeling/Buffalo Grove,IL,,United States,(847) 537-9999,,,"MON - THURS 11:00AM - 10:00PM, FRIDAY 10:00AM - 11:00PM, SATURDAY 11:00AM - 11:00PM, SUNDAY 11:00AM - 10:00PM",,,
,,2950 Buford Hwy,,Cumming,GA,,United States,(770) 888-4220,,,"MON - THURS 11:00AM - 10:00PM, FRI - SAT 11:00AM - 11:00PM, SUNDAY Noon - 10:00PM",,,
,,2090 Dunwoody Club Drive,,Dunwoody-Sandy Springs,GA,,United States,(770) 730-8779,,,"MON - THURS 11:00AM - 10:00PM, FRI - SAT 11:00AM - 11:00PM, SUNDAY 11:00AM - 10:00PM",,,
,,4401 Shallowford Rd,,East Cobb (Roswell),GA,,United States,(770) 649-9950,,,"MON - THURS 11:00AM - 10:00PM, FRI - SAT 11:00AM - 11:00PM, SUNDAY 11:00AM - 10:00PM",,,
,,10475 Medlock Bridge Rd,,Johns Creek,GA,,United States,(678) 584-5844,,,"MON - THURS 11:00AM - 10:00PM, FRI - SAT 11:00AM - 11:00PM, SUNDAY 11:00AM - 10:00PM",,,
,,4100 Jiles Rd NW,,Kennesaw,GA,,United States,(770) 427-8788,,,"MON - THURS 11:00AM - 10:00PM, FRI - SAT 11:00AM - 11:00PM, SUNDAY 11:00AM - 10:00PM",,,
,,1064 Old Peachtree Rd NW,,Lawrenceville,GA,,United States,(770) 682-7474,,,"MON - THURS 11:00AM - 10:00PM, FRI - SAT 11:00AM - 11:00PM, SUNDAY 11:00AM - 10:00PM",,,
,,2695 Sugarloaf Pkwy,,Lawrenceville,GA,,United States,(770) 237-0006,,,"MON - THURS 11:00AM - 10:00PM, FRI - SAT 11:00AM - 11:00PM, SUNDAY Noon - 10:00PM",,,
,,2900 Delk Rd SE,,Marietta,GA,,United States,(770) 952-1711,,,"MON - THURS 11:00AM - 10:00PM, FRI - SAT 11:00AM - 11:00PM, SUNDAY 11:00AM - 10:00PM",,,
,,3101 Roswell Rd,,Marietta,GA,,United States,(770) 509-5774,,,"MON - THURS 11:00AM - 10:00PM, FRI - SAT 11:00AM - 11:00PM, SUNDAY 11:00AM - 10:00PM",,,
,,5430 McGinnis Ferry Rd,,North Alpharetta,GA,,United States,(770) 777-0691,,,"MON - THURS 11:00AM - 10:00PM, FRI - SAT 11:00AM - 11:00PM, SUNDAY Noon - 10:00PM",,,
,,1257 N Peachtree Pkwy,,Peachtree City,GA,,United States,(770) 632-8559,,,"MON - THURS 11:00AM - 10:00PM, FRI - SAT 11:00AM - 11:00PM, SUNDAY Noon - 10:00PM",,,
,,11706 Alpharetta Hwy,,Roswell,GA,,United States,(770) 752-5387,,,"MON - THURS 11:00AM - 10:00PM, FRI - SAT 11:00AM - 11:00PM, SUNDAY 11:00AM - 10:00PM",,,
,,6615 Roswell Rd NE,,Sandy Springs,GA,,United States,(404) 257-0222,,,"MON - THURS 11:00AM - 10:00PM, FRI - SAT 11:00AM - 11:00PM, SUNDAY 11:00AM - 10:00PM",,,
,,7929 Abercorn St,,Savannah,GA,,United States,(912) 961-5387,,,"MON - THURS 11:00AM - 10:00PM, FRI - SAT 11:00AM - 11:00PM, SUNDAY Noon - 10:00PM",,,
,,4425 S Cobb Drive SE,,Smyrna,GA,,United States,(770) 434-1523,,,"MON - THURS 11:00AM - 10:00PM, FRI - SAT 11:00AM - 11:00PM, SUNDAY 11:00AM - 10:00PM",,,
,,3550 Centerville Hwy,,Snellville,GA,,United States,(678) 344-0288,,,"MON - THURS 11:00AM - 10:00PM, FRI - SAT 11:00AM - 11:00PM, SUNDAY 11:00AM - 10:00PM",,,
,,3600 Dallas Hwy SW,,West Cobb (Marietta),GA,,United States,(770) 792-5700,,,"MON - THURS 11:00AM - 10:00PM, FRI - SAT 11:00AM - 11:00PM, SUNDAY 11:00AM - 10:00PM",,,
,,2764 E 146th St,,Carmel,IN,,United States,(317) 815-5555,,,"MON - THURS 10:00AM - 10:00PM, FRI - SAT 10:00AM - 11:00PM, SUNDAY 11:00AM - 10:00PM",,,
,,153 County Road 6 W,,Elkhart,IN,,United States,(574) 333-3382,,,"MON - THURS 11:00AM - 10:00PM, FRI - SAT 11:00AM - 11:00PM, SUNDAY Noon - 10:00PM",,,
,,11785 Commercial Dr,,Fishers,IN,,United States,(317) 595-9900,,,"MON - THURS 10:00AM - 10:00PM, FRI - SAT 10:00AM - 11:00PM, SUNDAY 11:00AM - 10:00PM",,,
,,5825 Maplecrest Rd,,Fort Wayne,IN,,United States,(260) 485-8550,,,"MON - THURS 11:00AM - 10:00PM, FRI - SAT 11:00AM - 11:00PM, SUNDAY 11:00AM - 10:00PM",,,
,,954 N State Road 135,,Greenwood,IN,,United States,(317) 881-5387,,,"MON - THURS 11:00AM - 10:00PM, FRI - SAT 11:00AM - Midnight, SUNDAY 11:00AM - 10:00PM",,,
,,2464 Lake Circle Dr,,Indianapolis,IN,,United States,(317) 228-9565,,,"MON - THURS 11:00AM - 10:00PM, FRI - SAT 11:00AM - 11:00PM, SUNDAY 11:00AM - 10:00PM",,,
,,7538 N Shadeland Ave,,Indianapolis,IN,,United States,(317) 577-4538,,,"MON - THURS 11:00AM - 10:00PM, FRI - SAT 11:00AM - Midnight, SUNDAY Noon - 10:00PM",,,
,,5202 E Thompson Rd,,Indianapolis,IN,,United States,(317) 882-5387,,,"MON - THURS 11:00AM - 10:00PM, FRI - SAT 11:00AM - 11:00PM, SUNDAY 11:00AM - 10:00PM",,,
,,1490 E. 86th St,,Indianapolis,IN,,United States,(317) 571-7070,,,"MON - THURS 10:00AM - 10:00PM, FRI - SAT 10:00AM - Midnight, SUNDAY 10:00AM - 10:00PM",,,
,,2635 E. 62nd St,,Indianapolis,IN,,United States,(317) 252-5445,,,"MON - THURS 11:00AM - 10:00PM, FRI - SAT 11:00AM - 11:00PM, SUNDAY 11:00AM - 10:00PM",,,
,,210 S Creasy Ln,,Lafayette,IN,,United States,(765) 446-0011,,,"MON - THURS 11:00AM - 10:00PM, FRI - SAT 11:00AM - Midnight, SUNDAY Noon - 10:00PM",,,
,,4123 Grape Rd,,Mishawaka,IN,,United States,(574) 272-5387,,,"MON - THURS 11:00AM - 10:00PM, FRI - SAT 11:00AM - 11:00PM, SUNDAY Noon - 10:00PM",,,
,,1390 S. Main St.,,Adrian,MI,,United States,(517) 266-1300,,,"MON - THURS 11:00AM - 11:00PM, FRI - SAT 11:00AM - Midnight, SUNDAY 11:00AM - 11:00PM",,,
,,1071 St. Clair River Dr,,Algonac,MI,,United States,(810) 794-7777,,,"MON - THURS 11:00AM - 10:00PM, FRI - SAT 11:00AM - Midnight, SUNDAY Noon - 10:00PM",,,
,,6701 Allen Rd,,Allen Park,MI,,United States,(313) 381-4538,,,"MON - THURS 10:00AM - 10:00PM, FRI - SAT 10:00AM - Midnight, SUNDAY 11:00AM - 10:00PM",,,
,,5135 Lake Michigan Dr,,Allendale,MI,,United States,(616) 895-0895,,,"MON - THURS 11:00AM - 10:00PM, FRI - SAT 11:00AM - 11:30PM, SUNDAY Noon - 10:00PM",,,
,,3127 Oak Valley Dr,,Ann Arbor,MI,,United States,(734) 222-7544,,,"MON - THURS 11:00AM - 10:00PM, FRI - SAT 11:00AM - 11:00PM, SUNDAY Noon - 10:00PM",,,
,,1749 Plymouth Rd,,Ann Arbor,MI,,United States,(734) 332-1300,,,"MON - THURS 11:00AM - 10:00PM, FRI - SAT 11:00AM - 11:00PM, SUNDAY Noon - 10:00PM",,,
,,3437 Five Points Dr,,Auburn Hills,MI,,United States,(248) 475-1900,,,"MON - THURS 10:00AM - 10:00PM, FRIDAY 10:00AM - 11:00PM, SATURDAY 11:00AM - 11:00PM, SUNDAY 11:00AM - 10:00PM",,,
,,590 Columbia Ave W,,Battle Creek,MI,,United States,(269) 565-0800,,,"MON - THURS 11:00AM - 10:00PM, FRI - SAT 11:00AM - 11:00PM, SUNDAY 11:00AM - 10:00PM",,,
,,1901 S Euclid Ave,,Bay City,MI,,United States,(989) 684-1111,,,"MON - THURS 10:00AM - 11:00PM, FRI - SAT 10:00AM - Midnight, SUNDAY 11:00AM - 11:00PM",,,
,,284 E Columbia Ave,,Belleville,MI,,United States,(734) 697-7500,,,"MON - THURS 11:00AM - 10:00PM, FRI - SAT 11:00AM - 11:00PM, SUNDAY Noon - 10:00PM",,,
,,2823 Coolidge Hwy,,Berkley,MI,,United States,(248) 547-9880,,,"MON - THURS 11:00AM - 10:00PM, FRI - SAT 11:00AM - 11:00PM, SUNDAY Noon - 10:00PM",,,
,,215 Maple Street,,Big Rapids,MI,,United States,(231) 527-0122,,,"MON - THURS 11:00AM - 10:00PM, FRI - SAT 11:00AM - 11:00PM, SUNDAY 11:00AM - 10:00PM",,,
,,151 N Eton St,,Birmingham,MI,,United States,(248) 637-7549,,,"MON - THURS 10:00AM - 10:00PM, FRI - SAT 10:00AM - 11:00PM, SUNDAY 11:00AM - 10:00PM",,,
,,43173 Woodward Ave,,Bloomfield Hills,MI,,United States,(248) 858-8800,,,"MON - THURS 11:00AM - 10:00PM, FRI - SAT 11:00AM - Midnight, SUNDAY Noon - 10:00PM",,,
,,4082 W Maple Rd,,Bloomfield Township,MI,,United States,(248) 203-0007,,,"MON - THURS 11:00AM - 10:00PM, FRI - SAT 11:00AM - 11:00PM, SUNDAY Noon - 10:00PM",,,
,,8705 W Grand River Ave,,Brighton,MI,,United States,(810) 225-7454,,,"MON - THURS 11:00AM - 10:00PM, FRI - SAT 11:00AM - 11:00PM, SUNDAY Noon - 10:00PM",,,
,,19138 Telegraph Rd,,Brownstown,MI,,United States,(734) 229-1399,,,"MON - THURS 11:00AM - 10:00PM, FRI - SAT 11:00AM - 11:00PM, SUNDAY Noon - 10:00PM",,,
,,8233 Byron Center Ave SW,,Byron Center,MI,,United States,(616) 878-4748,,,"MON - THURS 11:00AM - 10:00PM, FRI - SAT 11:00AM - 11:00PM, SUNDAY Noon - 10:00PM",,,
,,8846 E Boon Rd,,Cadillac,MI,,United States,(231) 779-2000,,,"MON - THURS 11:00AM - 10:00PM, FRI - SAT 11:00AM - 11:00PM, SUNDAY 11:00AM - 10:00PM",,,
,,9349 Cherry Valley Ave SE,,Caledonia,MI,,United States,(616) 891-8800,,,"MON - THURS 11:00AM - 10:00PM, FRI - SAT 11:00AM - 11:00PM, SUNDAY Noon - 10:00PM",,,
,,41266 Palmer Rd,,Canton,MI,,United States,(734) 397-8700,,,"MON - THURS 11:00AM - 10:00PM, FRI - SAT 11:00AM - 11:00PM, SUNDAY Noon - 10:00PM",,,
,,7301 N Lilley Rd,,Canton,MI,,United States,(734) 414-0831,,,"MON - THURS 11:00AM - 10:00PM, FRI - SAT 11:00AM - 11:00PM, SUNDAY Noon - 10:00PM",,,
,,45241 Cherry Hill Rd,,Canton,MI,,United States,(734) 981-8500,,,"MON - THURS 11:00AM - 10:00PM, FRI - SAT 11:00AM - 11:00PM, SUNDAY Noon - 10:00PM",,,
,,14111 White Creek Ave NE,,Cedar Springs,MI,,United States,(616) 696-2077,,,"MON - THURS 11:00AM - 10:00PM, FRI - SAT 11:00AM - 11:00PM, SUNDAY Noon - 10:00PM",,,
,,504 Lansing St,,Charlotte,MI,,United States,(517) 541-1500,,,"MON - THURS 11:00AM - 10:00PM, FRI - SAT 11:00AM - 11:00PM, SUNDAY Noon - 10:00PM",,,
,,506 N Main St,,Chelsea,MI,,United States,(734) 433-9700,,,"MON - THURS 10:00AM - Midnight, FRI - SAT 10:00AM - 1:00AM, SUNDAY 11:00AM - 11:00PM",,,
,,47115 Gratiot Ave,,Chesterfield,MI,,United States,(586) 949-7500,,,"MON - THURS 11:00AM - 10:00PM, FRI - SAT 11:00AM - 11:00PM, SUNDAY 11:00AM - 10:00PM",,,
,,230 W. 14 Mile Rd,,Clawson,MI,,United States,(248) 288-4488,,,"MON - THURS 11:00AM - 10:00PM, FRI - SAT 11:00AM - 11:00PM, SUNDAY Noon - 10:00PM",,,
,,37525 Harper Ave,,Clinton Township,MI,,United States,(586) 954-1960,,,"MON - THURS 11:00AM - 10:00PM, FRI - SAT 11:00AM - 11:00PM, SUNDAY Noon - 10:00PM",,,
,,39101 Garfield Rd,,Clinton Township,MI,,United States,(586) 228-7440,,,"MON - THURS 10:00AM - 10:00PM, FRI - SAT 10:00AM - Midnight, SUNDAY 11:00AM - 10:00PM",,,
,,425 W Vienna St,,Clio,MI,,United States,(810) 687-5555,,,"MON - THURS 10:00AM - 11:00PM, FRI - SAT 10:00AM - Midnight, SUNDAY 11:00AM - 11:00PM",,,
,,1575 Union Lake Rd,,Commerce,MI,,United States,(248) 366-0312,,,"MON - THURS 11:00AM - 10:00PM, FRI - SAT 11:00AM - 11:00PM, SUNDAY Noon - 10:00PM",,,
,,4575 W. River Dr NE,,Comstock Park/Walker,MI,,United States,(616) 647-4444,,,"MON - THURS 11:00AM - 10:00PM, FRI - SAT 11:00AM - 11:00PM, SUNDAY Noon - 10:00PM",,,
,,614 N State Rd,,Davison,MI,,United States,(810) 658-3400,,,"MON - THURS 11:00AM - 10:00PM, FRI - SAT 11:00AM - Midnight, SUNDAY Noon - 10:00PM",,,
,,23541 Ford Rd,,Dearborn,MI,,United States,(313) 274-2600,,,"MON - THURS 11:00AM - 11:00PM, FRI - SAT 11:00AM - Midnight, SUNDAY Noon - 11:00PM",,,
,,13735 W Warren Ave,,Dearborn,MI,,United States,(313) 584-1400,,,"MON - THURS 11:00AM - Midnight, FRI - SAT 11:00AM - 1:00AM, SUNDAY Noon - Midnight",,,
,,3945 S Telegraph Rd,,Dearborn Heights,MI,,United States,(313) 359-5387,,,"MON - THURS 11:00AM - 11:00PM, FRI - SAT 11:00AM - Midnight, SUNDAY Noon - 11:00PM",,,
,,3420 E Jefferson Ave,,Detroit,MI,,United States,(313) 259-0500,,,"MON - THURS 10:00AM - Midnight, FRI - SAT 10:00AM - 1:00AM, SUNDAY 11:00AM - Midnight",,,
,,4718 Anthony Wayne Dr,,Detroit,MI,,United States,(313) 297-7000,,,"MON - THURS 10:00AM - Midnight, FRI - SAT 10:00AM - Midnight, SUNDAY 11:00AM - Midnight",,,
,,15235 E 7 Mile Rd,,Detroit,MI,,United States,(313) 839-4800,,,"MON - THURS 11:00AM - 10:00PM, FRI - SAT 11:00AM - Midnight, SUNDAY Noon - 10:00PM",,,
,,7011 Dexter-Ann Arbor Rd,,Dexter,MI,,United States,(734) 424-9810,,,"MON - THURS 11:00AM - 10:00PM, FRI - SAT 11:00AM - 11:00PM, SUNDAY Noon - 10:00PM",,,
,,2163 Wealthy St SE,,East Grand Rapids,MI,,United States,(616) 242-0555,,,"MON - THURS 11:00AM - 10:00PM, FRI - SAT 11:00AM - 11:00PM, SUNDAY Noon - 10:00PM",,,
,,19380 10 Mile Rd,,Eastpointe,MI,,United States,(586) 774-4448,,,"MON - THURS 11:00AM - 10:00PM, FRI - SAT 11:00AM - 11:00PM, SUNDAY Noon - 10:00PM",,,
,,30790 Grand River Ave,,Farmington,MI,,United States,(248) 442-8900,,,"MON - THURS 11:00AM - 10:00PM, FRI - SAT 11:00AM - 11:00PM, SUNDAY Noon - 10:00PM",,,
,,27897 Orchard Lake Rd,,Farmington Hills,MI,,United States,(248) 426-8400,,,"MON - THURS 11:00AM - 10:00PM, FRI - SAT 11:00AM - 11:00PM, SUNDAY Noon - 10:00PM",,,
,,31130 Haggerty Rd,,Farmington Hills,MI,,United States,(248) 788-2511,,,"MON - THURS 10:00AM - 11:00PM, FRI - SAT 10:00AM - Midnight, SUNDAY 11:00AM - 11:00PM",,,
,,235 N Leroy St,,Fenton,MI,,United States,(810) 714-3100,,,"MON - THURS 11:00AM - 10:00PM, FRI - SAT 11:00AM - 11:00PM, SUNDAY 11:00AM - 10:00PM",,,
,,8910 W 8 Mile Rd,,Ferndale,MI,,United States,(248) 584-2267,,,"MON - THURS 11:00AM - 10:00PM, FRI - SAT 11:00AM - 11:00PM, SUNDAY Noon - 10:00PM",,,
,,28398 Telegraph Rd,,Flat Rock,MI,,United States,(734) 783-0999,,,"MON - THURS 11:00AM - 10:00PM, FRI - SAT 11:00AM - Midnight, SUNDAY Noon - 10:00PM",,,
,,5530 Fenton Rd,,Flint,MI,,United States,(810) 341-6100,,,"MON - THURS 11:00AM - 10:00PM, FRI - SAT 11:00AM - 11:00PM, SUNDAY Noon - 10:00PM",,,
,,3093 S Linden Rd,,Flint Township,MI,,United States,(810) 600-1088,,,"MON - THURS 11:00AM - 10:00PM, FRI - SAT 11:00AM - 11:00PM, SUNDAY Noon - 10:00PM",,,
,,230 W Main St,,Flushing,MI,,United States,(810) 487-0400,,,"MON - THURS 11:00AM - 10:00PM, FRI - SAT 11:00AM - 11:00PM, SUNDAY 11:00AM - 10:00PM",,,
,,6750 Kalamazoo Ave SE,,Gaines Township,MI,,United States,(616) 656-9700,,,"MON - THURS 11:00AM - 10:00PM, FRI - SAT 11:00AM - 11:00PM, SUNDAY Noon - 10:00PM",,,
,,29855 Ford Rd,,Garden City,MI,,United States,(734) 762-9800,,,"MON - THURS 11:00AM - 10:00PM, FRI - SAT 11:00AM - 11:00PM, SUNDAY Noon - 10:00PM",,,
,,111 West Street,,Gaylord,MI,,United States,(989) 731-9929,,,"MON - THURS 10:00AM - 10:00PM, FRI - SAT 10:00AM - Midnight, SUNDAY 11:00AM - 10:00PM",,,
,,610 N Beacon Blvd,,Grand Haven,MI,,United States,(616) 844-5387,,,"MON - THURS 11:00AM - 10:00PM, FRI - SAT 11:00AM - 11:00PM, SUNDAY 11:00AM - 10:00PM",,,
,,820 Forest Hills Ave SE,,Grand Rapids,MI,,United States,(616) 940-8860,,,"MON - THURS 11:00AM - 10:00PM, FRI - SAT 11:00AM - 11:00PM, SUNDAY Noon - 10:00PM",,,
,,5150 Northland Dr NE,,Grand Rapids,MI,,United States,(616) 447-2555,,,"MON - THURS 11:00AM - 10:00PM, FRI - SAT 11:00AM - 11:00PM, SUNDAY Noon - 10:00PM",,,
,,1215 Fuller Ave NE,,Grand Rapids,MI,,United States,(616) 242-1333,,,"MON - THURS 11:00AM - 10:00PM, FRI - SAT 11:00AM - 11:00PM, SUNDAY Noon - 10:00PM",,,
,,6275 28th St SE,,Grand Rapids,MI,,United States,(616) 940-1888,,,"MON - THURS 11:00AM - 10:00PM, FRI - SAT 11:00AM - 11:00PM, SUNDAY Noon - 10:00PM",,,
,,4499 Ivanrest Ave SW,,Grandville,MI,,United States,(616) 724-1454,,,"MON - THURS 11:00AM - 10:00PM, FRI - SAT 11:00AM - 11:00PM, SUNDAY 11:00AM - 10:00PM",,,
,,1925 W. Washington St,,Greenville,MI,,United States,(616) 225-8655,,,"MON - THURS 11:00AM - 10:00PM, FRI - SAT 11:00AM - 11:00PM, SUNDAY Noon - 10:00PM",,,
,,17646 Mack Ave,,Grosse Pointe,MI,,United States,(313) 417-9770,,,"MON - THURS 11:00AM - 10:00PM, FRI - SAT 11:00AM - 11:00PM, SUNDAY 11:00AM - 10:00PM",,,
,,20643 Mack Ave,,Grosse Pointe Woods,MI,,United States,(313) 884-3838,,,"MON - THURS 10:00AM - 10:00PM, FRI - SAT 10:00AM - Midnight, SUNDAY 11:00AM - 10:00PM",,,
,,10035 Joseph Campau St,,Hamtramck,MI,,United States,(313) 875-5200,,,"MON - THURS 10:00AM - Midnight, FRI - SAT 10:00AM - 1:00AM, SUNDAY 11:00AM - Midnight",,,
,,1640 Haslett Rd,,Haslett,MI,,United States,(517) 339-9606,,,"MON - THURS 11:00AM - 10:00PM, FRI - SAT 11:00AM - 11:00PM, SUNDAY Noon - 10:00PM",,,
,,1180 M-43,,Hastings,MI,,United States,(269) 948-2228,,,"MON - THURS 11:00AM - 10:00PM, FRI - SAT 11:00AM - 11:00PM, SUNDAY Noon - 10:00PM",,,
,,1013 S Washington Ave,,Holland,MI,,United States,(616) 395-5200,,,"MON - THURS 11:00AM - 10:00PM, FRI - SAT 11:00AM - 11:00PM, SUNDAY Noon - 10:00PM",,,
,,120 W Highland Rd,,Howell,MI,,United States,(517) 545-8005,,,"MON - THURS 11:00AM - 10:00PM, FRI - SAT 11:00AM - 11:00PM, SUNDAY Noon - 10:00PM",,,
,,1800 N Old U.S. 23,,Howell,MI,,United States,(810) 632-1400,,,"MON - THURS 11:00AM - 10:00PM, FRI - SAT 11:00AM - 11:00PM, SUNDAY Noon - 10:00PM",,,
,,3735 Baldwin St,,Hudsonville/Jenison,MI,,United States,(616) 662-9333,,,"MON - THURS 11:00AM - 10:00PM, FRI - SAT 11:00AM - 11:00PM, SUNDAY Noon - 10:00PM",,,
,,1812 S. Van Dyke,,Imlay City,MI,,United States,(810) 721-1015,,,"MON - THURS 11:00AM - 10:00PM, FRI - SAT 11:00AM - 11:00PM, SUNDAY Noon - 10:00PM",,,
,,2109 W. Michigan Ave,,Jackson,MI,,United States,(517) 788-7833,,,"MON - THURS 11:00AM - 10:00PM, FRI - SAT 11:00AM - 11:00PM, SUNDAY Noon - 10:00PM",,,
,,3321 Stadium Dr,,Kalamazoo,MI,,United States,(269) 372-2600,,,"MON - THURS 11:00AM - 10:00PM, FRI - SAT 11:00AM - Midnight, SUNDAY 11:00AM - 10:00PM",,,
,,5151 Gull Rd,,Kalamazoo,MI,,United States,(269) 488-2000,,,"MON - THURS 11:00AM - 10:00PM, FRI - SAT 11:00AM - 11:00PM, SUNDAY 11:00AM - 10:00PM",,,
,,3375 Orchard Lake Rd,,Keego Harbor,MI,,United States,(248) 682-3744,,,"MON - THURS 11:00AM - 10:00PM, FRI - SAT 11:00AM - 11:00PM, SUNDAY Noon - 10:00PM",,,
,,4443 Breton Rd SE,,Kentwood,MI,,United States,(616) 281-5450,,,"MON - THURS 11:00AM - 10:00PM, FRI - SAT 11:00AM - 11:00PM, SUNDAY Noon - 10:00PM",,,
,,1019 S Baldwin Rd,,Lake Orion,MI,,United States,(248) 391-3400,,,"MON - THURS 11:00AM - 10:00PM, FRI - SAT 11:00AM - 11:00PM, SUNDAY Noon - 10:00PM",,,
,,1091 S Lapeer Rd,,Lake Orion,MI,,United States,(248) 814-7559,,,"MON - THURS 10:00AM - 10:00PM, FRI - SAT 10:00AM - 11:00PM, SUNDAY 10:00AM - 10:00PM",,,
,,3606  W. Sterns Rd.,,Lambertville,MI,,United States,(734) 568-6300,,,,,,
,,6227 W Saginaw Hwy,,Lansing,MI,,United States,(517) 323-2322,,,"MON - THURS 11:00AM - 10:00PM, FRI - SAT 11:00AM - 11:00PM, SUNDAY Noon - 10:00PM",,,
,,3009 Vine St,,Lansing,MI,,United States,(517) 351-1100,,,"MON - THURS 11:00AM - 11:00PM, FRI - SAT 11:00AM - Midnight, SUNDAY Noon - 11:00PM",,,
,,6445 S Cedar St,,Lansing,MI,,United States,(517) 882-6900,,,"MON - THURS 11:00AM - 10:00PM, FRI - SAT 11:00AM - 11:00PM, SUNDAY Noon - 10:00PM",,,
,,1225 Summit St,,Lapeer,MI,,United States,(810) 667-5387,,,"MON - THURS 11:00AM - 10:00PM, FRI - SAT 11:00AM - Midnight, SUNDAY Noon - 10:00PM",,,
,,3022 Fort St,,Lincoln Park,MI,,United States,(313) 386-5387,,,"MON - THURS 11:00AM - 10:00PM, FRI - SAT 11:00AM - Midnight, SUNDAY Noon - 10:00PM",,,
,,32630 7 Mile Rd,,Livonia,MI,,United States,(248) 473-3999,,,"MON - THURS 11:00AM - 10:00PM, FRI - SAT 11:00AM - 11:00PM, SUNDAY Noon - 10:00PM",,,
,,29443 5 Mile Rd,,Livonia,MI,,United States,(734) 266-9333,,,"MON - THURS 10:30AM - 10:00PM, FRI - SAT 10:30AM - 11:00PM, SUNDAY 11:00AM - 10:00PM",,,
,,11635 Fulton St E,,Lowell,MI,,United States,(616) 897-4800,,,"MON - THURS 11:00AM - 10:00PM, FRI - SAT 11:00AM - 11:00PM, SUNDAY Noon - 10:00PM",,,
,,21956 23 Mile Rd,,Macomb,MI,,United States,(586) 598-8600,,,"MON - THURS 10:00AM - 10:00PM, FRI - SAT 10:00AM - Midnight, SUNDAY 11:00AM - 10:00PM",,,
,,16376 26 Mile Rd,,Macomb,MI,,United States,(586) 677-1100,,,"MON - THURS 10:00AM - 10:00PM, FRI - SAT 10:00AM - Midnight, SUNDAY 11:00AM - 10:00PM",,,
,,4245 S Arizona Ave,,Chandler,AZ,,United States,(480) 895-7492,,,"MON - THURS 11:00AM - 10:00PM, FRI - SAT 11:00AM - 11:00PM, SUNDAY Noon - 10:00PM",,,
,,10855 N. Tatum Blvd,,Phoenix,AZ,,United States,(480) 998-9889,,,"MON - THURS 11:00AM - 10:00PM, FRI - SAT 11:00AM - 11:00PM, SUNDAY Noon - 10:00PM",,,
,,16852 21 Mile Rd,,Macomb Township,MI,,United States,(586) 412-0040,,,"MON - THURS 11:00AM - 10:00PM, FRI - SAT 11:00AM - 11:00PM, SUNDAY Noon - 10:00PM",,,
,,333 W 11 Mile Rd,,Madison Heights,MI,,United States,(248) 548-1210,,,"MON - THURS 10:00AM - 10:00PM, FRI - SAT 10:00AM - 11:00PM, SUNDAY 11:00AM - 10:00PM",,,
,,159 Chartier,,Marine City,MI,,United States,(810) 643-4050,,,"MON - THURS 10:00AM - 10:00PM, FRI - SAT 10:00AM - Midnight, SUNDAY 10:00AM - 10:00PM",,,
,,1475 W Washington St,,Marquette,MI,,United States,(906) 228-1000,,,"MON - THURS 11:00AM - 10:00PM, FRI - SAT 11:00AM - Midnight, SUNDAY Noon - 10:00PM",,,
,,825 Michigan Ave,,Marysville,MI,,United States,(810) 364-1538,,,"MON - THURS 11:00AM - 10:00PM, FRI - SAT 11:00AM - 11:00PM, SUNDAY Noon - 10:00PM",,,
,,203 W Wackerly St,,Midland,MI,,United States,(989) 633-9999,,,"MON - THURS 11:00AM - 10:00PM, FRI - SAT 11:00AM - 11:00PM, SUNDAY 11:00AM - 10:00PM",,,
,,525 N Main St,,Milford,MI,,United States,(248) 676-9566,,,"MON - THURS 11:00AM - 10:00PM, FRI - SAT 11:00AM - 11:00PM, SUNDAY Noon - 10:00PM",,,
,,414 N Telegraph Rd,,Monroe,MI,,United States,(734) 457-4200,,,"MON - THURS 11:00AM - 11:00PM, FRI - SAT 11:00AM - Midnight, SUNDAY 11:00AM - 11:00PM",,,
,,2308 S. Mission St,,Mt. Pleasant,MI,,United States,(989) 400-4440,,,"MONDAY 11:00AM - 11:00PM, TUESDAY 11:00AM - 11:00PM, WEDNESDAY 11:00AM - 11:00PM, THURSDAY 11:00AM - 3:00AM, FRI - SAT 11:00AM - 3:00AM, SUNDAY 11:00AM - 11:00PM",,,
,,950 W Norton Ave,,Muskegon,MI,,United States,(231) 733-0101,,,"MON - THURS 11:00AM - 10:00PM, FRI - SAT 11:00AM - 11:00PM, SUNDAY 11:00AM - 10:00PM",,,
,,1910 E Apple Ave,,Muskegon,MI,,United States,(231) 773-3737,,,"MON - THURS 11:00AM - 10:00PM, FRI - SAT 11:00AM - 11:00PM, SUNDAY Noon - 10:00PM",,,
,,51058 D W Seaton Dr,,New Baltimore,MI,,United States,(586) 716-9800,,,"MON - THURS 11:00AM - 10:00PM, FRI - SAT 11:00AM - 11:00PM, SUNDAY 11:00AM - 10:00PM",,,
,,30478 Milford Rd,,New Hudson,MI,,United States,(248) 446-4544,,,"MON - THURS 11:00AM - 10:00PM, FRI - SAT 11:00AM - 11:00PM, SUNDAY Noon - 9:00PM",,,
,,1053 Novi Rd,,Northville,MI,,United States,(248) 449-5387,,,"MONDAY 11:00AM - 10:00PM, TUESDAY 11:00AM - 10:00PM, WEDNESDAY 11:00AM - 10:00PM, THURSDAY 11:00AM - 11:00PM, FRI - SAT 11:00AM - Midnight, SUNDAY Noon - 11:00PM",,,
,,39711 Grand River Ave,,Novi,MI,,United States,(248) 473-5387,,,"MON - THURS 11:00AM - 10:00PM, FRI - SAT 11:00AM - Midnight, SUNDAY Noon - 10:00PM",,,
,,11 S Ortonville Rd,,Ortonville,MI,,United States,(248) 627-6300,,,"MON - THURS 11:00AM - 10:00PM, FRI - SAT 11:00AM - 11:00PM, SUNDAY Noon - 10:00PM",,,
,,1669 E Main St,,Owosso,MI,,United States,(989) 723-4100,,,"MON - THURS 11:00AM - 10:00PM, FRI - SAT 11:00AM - 11:00PM, SUNDAY Noon - 10:00PM",,,
,,204 S Washington St,,Oxford,MI,,United States,(248) 969-5387,,,"MON - THURS 10:00AM - 10:00PM, FRI - SAT 10:00AM - 11:00PM, SUNDAY 10:00AM - 10:00PM",,,
,,302 W Mitchell St,,Petoskey,MI,,United States,(231) 487-1600,,,"MON - THURS 10:00AM - 10:00PM, FRI - SAT 10:00AM - Midnight, SUNDAY 11:00AM - 10:00PM",,,
,,9646 Chilson Commons Cir,,Pinckney,MI,,United States,(810) 231-5500,,,"MON - THURS 11:00AM - 10:00PM, FRI - SAT 11:00AM - 11:00PM, SUNDAY Noon - 10:00PM",,,
,,44473 Ann Arbor Rd W,,Plymouth,MI,,United States,(734) 416-5385,,,"MON - THURS 11:00AM - 10:00PM, FRI - SAT 11:00AM - 11:00PM, SUNDAY Noon - 10:00PM",,,
,,15450 Haggerty Rd,,Plymouth,MI,,United States,(734) 420-9756,,,"MON - THURS 11:00AM - 10:00PM, FRI - SAT 11:00AM - Midnight, SUNDAY Noon - 10:00PM",,,
,,47273 5 Mile Rd,,Plymouth,MI,,United States,(734) 414-9800,,,"MON - THURS 11:00AM - 10:00PM, FRI - SAT 11:00AM - 11:00PM, SUNDAY Noon - 10:00PM",,,
,,1345 24th St,,Port Huron,MI,,United States,(810) 966-0705,,,"MON - THURS 11:00AM - 10:00PM, FRI - SAT 11:00AM - Midnight, SUNDAY Noon - 10:00PM",,,
,,2844 Pine Grove Ave,,Port Huron,MI,,United States,(810) 985-5559,,,"MON - THURS 11:00AM - 10:00PM, FRI - SAT 11:00AM - Midnight, SUNDAY Noon - 10:00PM",,,
,,631 Romence Rd,,Portage,MI,,United States,(269) 329-0528,,,"MON - THURS 11:00AM - 10:00PM, FRI - SAT 11:00AM - 11:00PM, SUNDAY Noon - 10:00PM",,,
,,24335 Plymouth Rd,,Redford,MI,,United States,(313) 533-5323,,,"MONDAY 11:00AM - 10:00PM, TUESDAY 11:00AM - 10:00PM, WEDNESDAY 11:00AM - 10:00PM, THURSDAY 11:00AM - 11:00PM, FRI - SAT 11:00AM - 11:00PM, SUNDAY 11:00AM - 10:00PM",,,
,,66755 Gratiot Ave,,Richmond,MI,,United States,(586) 727-8400,,,"MON - THURS 11:00AM - 10:00PM, FRI - SAT 11:00AM - 11:00PM, SUNDAY 11:00AM - 10:00PM",,,
,,2082 Auburn Rd,,Rochester Hills,MI,,United States,(248) 852-1100,,,"MON - THURS 10:00AM - 10:00PM, FRI - SAT 10:00AM - Midnight, SUNDAY 11:00AM - 10:00PM",,,
,,1425 N Rochester Rd,,Rochester Hills,MI,,United States,(248) 650-2900,,,"MON - THURS 10:00AM - 10:00PM, FRIDAY 10:00AM - 11:00PM, SATURDAY 11:00AM - 11:00PM, SUNDAY 11:00AM - 10:00PM",,,
,,35681 Van Born Rd,,Romulus,MI,,United States,(734) 728-5387,,,"MON - THURS 11:00AM - 10:00PM, FRI - SAT 11:00AM - 11:00PM, SUNDAY Noon - 10:00PM",,,
,,5789 State St,,Saginaw,MI,,United States,(989) 793-5387,,,"MON - THURS 10:00AM - 11:00PM, FRI - SAT 10:00AM - Midnight, SUNDAY 11:00AM - 11:00PM",,,
,,5695 Bay Rd,,Saginaw,MI,,United States,(989) 497-7777,,,"MON - THURS 10:00AM - 11:00PM, FRI - SAT 10:00AM - Midnight, SUNDAY 11:00AM - 11:00PM",,,
,,978 E Michigan Ave,,Saline,MI,,United States,(734) 429-9700,,,"MON - THURS 11:00AM - 10:00PM, FRI - SAT 11:00AM - 11:00PM, SUNDAY 11:00AM - 10:00PM",,,
,,55125 Shelby Rd,,Shelby Township,MI,,United States,(248) 656-2920,,,"MON - THURS 11:00AM - 10:00PM, FRI - SAT 11:00AM - 11:00PM, SUNDAY Noon - 10:00PM",,,
,,13785 23 Mile Rd,,Shelby Township,MI,,United States,(586) 566-6300,,,"MON - THURS 10:00AM - 10:00PM, FRI - SAT 10:00AM - 11:00PM, SUNDAY Noon - 10:00PM",,,
,,46370 Van Dyke Ave,,Shelby Township,MI,,United States,(586) 731-3700,,,"MON - THURS 10:00AM - 10:00PM, FRI - SAT 10:00AM - Midnight, SUNDAY 11:00AM - 10:00PM",,,
,,2128 Auburn Rd,,Shelby Township,MI,,United States,(586) 739-7490,,,"MON - THURS 10:00AM - 10:00PM, FRI - SAT 10:00AM - Midnight, SUNDAY 11:00AM - 10:00PM",,,
,,21955 Pontiac Trl,,South Lyon,MI,,United States,(248) 446-1400,,,"MON - THURS 11:00AM - 10:00PM, FRI - SAT 11:00AM - 11:00PM, SUNDAY Noon - 10:00PM",,,
,,23941 W 9 Mile Rd,,Southfield,MI,,United States,(248) 357-8300,,,"MON - THURS 11:00AM - 11:00PM, FRI - SAT 11:00AM - Midnight, SUNDAY Noon - 11:00PM",,,
,,13724 E. Quincy Ave.,,Aurora,CO,,United States,(720) 990-6000,,,"MON - THURS 10:00AM - 10:00PM, FRI - SAT 10:00AM - 11:00PM, SUNDAY 10:00AM - 10:00PM",,,
,,8176 S Holly St,,Centennial,CO,,United States,(303) 741-5387,,,"MON - THURS 10:00AM - 10:00PM, FRI - SAT 10:00AM - 11:00PM, SUNDAY 11:00AM - 10:00PM",,,
,,7935 South Broadway,,Littleton,CO,,United States,(303) 707-1100,,,"MON - THURS 10:00AM - 10:00PM, FRI - SAT 10:00AM - 11:00PM, SUNDAY 11:00AM - 10:00PM",,,
,,30120 Southfield Rd,,Southfield,MI,,United States,(248) 645-5387,,,"MON - THURS 10:00AM - 10:00PM, FRI - SAT 10:00AM - Midnight, SUNDAY 11:00AM - 10:00PM",,,
,,15211 Dix Toledo Rd,,Southgate,MI,,United States,(734) 281-3844,,,"MON - THURS 11:00AM - 10:00PM, FRI - SAT 11:00AM - 11:00PM, SUNDAY Noon - 10:00PM",,,
,,1315 S Riverside Ave,,St. Clair,MI,,United States,(810) 329-4950,,,"MON - THURS 11:00AM - 10:00PM, FRI - SAT 11:00AM - 11:00PM, SUNDAY Noon - 10:00PM",,,
,,30114 Harper,,St. Clair Shores,MI,,United States,(586) 415-0990,,,"MON - THURS 10:00AM - 10:00PM, FRI - SAT 10:00AM - Midnight, SUNDAY 11:00AM - 10:00PM",,,
,,2417 Ontario Dr,,St. Johns,MI,,United States,(989) 224-1711,,,"MON - THURS 11:00AM - 10:00PM, FRI - SAT 11:00AM - 11:00PM, SUNDAY Noon - 10:00PM",,,
,,2922 Niles Ave,,St. Joseph,MI,,United States,(269) 985-0085,,,"MON - THURS 11:00AM - 10:00PM, FRI - SAT 11:00AM - 11:00PM, SUNDAY Noon - 10:00PM",,,
,,42942 Schoenherr Rd,,Sterling Heights,MI,,United States,(586) 532-5387,,,"MON - THURS 10:00AM - 10:00PM, FRI - SAT 10:00AM - Midnight, SUNDAY 11:00AM - 10:00PM",,,
,,40808 Ryan Rd,,Sterling Heights,MI,,United States,(586) 978-0888,,,"MON - THURS 9:00AM - 10:00PM, FRIDAY 9:00AM - Midnight, SATURDAY 10:00AM - Midnight, SUNDAY 11:00AM - 10:00PM",,,
,,37160 Dequindre Rd,,Sterling Heights,MI,,United States,(586) 268-4010,,,"MON - THURS 9:00AM - 10:00PM, FRI - SAT 9:00AM - 11:00PM, SUNDAY 10:00AM - 10:00PM",,,
,,4185 E. 14 Mile Rd,,Sterling Heights,MI,,United States,(586) 268-5720,,,"MON - THURS 10:00AM - 10:00PM, FRI - SAT 10:00AM - Midnight, SUNDAY 11:00AM - 10:00PM",,,
,,13450 15 Mile Rd,,Sterling Heights,MI,,United States,(586) 826-3900,,,"MON - THURS 10:00AM - 10:00PM, FRI - SAT 10:00AM - Midnight, SUNDAY 11:00AM - 10:00PM",,,
,,22314 Goddard Rd,,Taylor,MI,,United States,(313) 299-4538,,,"MON - THURS 10:00AM - 10:00PM, FRI - SAT 10:00AM - Midnight, SUNDAY 11:00AM - 10:00PM",,,
,,1207 W Chicago Blvd,,Tecumseh,MI,,United States,(517) 815-1810,,,"MON - THURS 11:00AM - 10:00PM, FRI - SAT 11:00AM - Midnight, SUNDAY 11:00AM - 10:00PM",,,
,,1130 Garfield Rd S,,Traverse City,MI,,United States,(231) 933-9309,,,"MONDAY 11:00AM - 10:30PM, TUESDAY 11:00AM - 10:30PM, WEDNESDAY 11:00AM - 10:30PM, THURSDAY 11:00AM - 11:00PM, FRI - SAT 11:00AM - Midnight, SUNDAY 11:00AM - 10:30PM",,,
,,3985 Beitner Rd,,Traverse City,MI,,United States,(231) 943-9999,,,"MONDAY 11:00AM - 10:30PM, TUESDAY 11:00AM - 10:30PM, WEDNESDAY 11:00AM - 10:30PM, THURSDAY 11:00AM - 11:00PM, FRI - SAT 11:00AM - Midnight, SUNDAY 11:00AM - 10:30PM",,,
,,2031 West Rd,,Trenton,MI,,United States,(734) 671-5387,,,"MON - THURS 11:00AM - 10:00PM, FRI - SAT 11:00AM - 11:00PM, SUNDAY Noon - 10:00PM",,,
,,5102 Rochester Rd,,Troy,MI,,United States,(248) 528-1800,,,"MON - THURS 11:00AM - 10:00PM, FRI - SAT 11:00AM - 11:00PM, SUNDAY 11:00AM - 10:00PM",,,
,,4482 Lake Michigan Dr NW,,Walker,MI,,United States,(616) 791-1777,,,"MON - THURS 11:00AM - 10:00PM, FRI - SAT 11:00AM - 11:00PM, SUNDAY Noon - 10:00PM",,,
,,1126 N Pontiac Trl,,Walled Lake,MI,,United States,(248) 926-2111,,,"MON - THURS 11:00AM - 10:00PM, FRI - SAT 11:00AM - 11:00PM, SUNDAY Noon - 10:00PM",,,
,,22912 Ryan Rd,,Warren,MI,,United States,(586) 758-7733,,,"MON - THURS 11:00AM - 10:00PM, FRI - SAT 11:00AM - Midnight, SUNDAY Noon - 10:00PM",,,
,,11908 E 10 Mile Rd,,Warren,MI,,United States,(586) 759-5387,,,"MON - THURS 10:00AM - 10:00PM, FRI - SAT 10:00AM - Midnight, SUNDAY Noon - 10:00PM",,,
,,31085 Hayes Rd,,Warren,MI,,United States,(586) 296-3330,,,"MON - THURS 10:00AM - 10:00PM, FRI - SAT 10:00AM - Midnight, SUNDAY 11:00AM - 10:00PM",,,
,,29202 Ryan Rd,,Warren,MI,,United States,(586) 558-8588,,,"MON - THURS 10:00AM - 10:00PM, FRI - SAT 10:00AM - Midnight, SUNDAY 11:00AM - 10:00PM",,,
,,64860 Van Dyke Rd,,Washington Township,MI,,United States,(586) 752-6200,,,"MON - THURS 9:00AM - 10:00PM, FRI - SAT 9:00AM - 11:00PM, SUNDAY 9:00AM - 10:00PM",,,
,,5308 Dixie Hwy,,Waterford,MI,,United States,(248) 623-8727,,,"MON - THURS 11:00AM - 10:00PM, FRI - SAT 11:00AM - 11:00PM, SUNDAY Noon - 10:00PM",,,
,,4238 Pontiac Lake Rd,,Waterford,MI,,United States,(248) 674-1700,,,"MON - THURS 11:00AM - 10:00PM, FRI - SAT 11:00AM - 11:00PM, SUNDAY Noon - 10:00PM",,,
,,6641 Orchard Lake Rd,,West Bloomfield,MI,,United States,(248) 737-0770,,,"MON - THURS 11:00AM - 10:00PM, FRI - SAT 11:00AM - Midnight, SUNDAY Noon - 10:00PM",,,
,,6546 N Wayne Rd,,Westland,MI,,United States,(734) 728-4400,,,"MON - THURS 10:30AM - 10:30PM, FRI - SAT 10:30AM - 11:30PM, SUNDAY 10:30AM - 10:30PM",,,
,,901 Nordic Dr,,White Lake Township,MI,,United States,(248) 889-0011,,,"MON - THURS 11:00AM - 10:00PM, FRI - SAT 11:00AM - 11:00PM, SUNDAY 11:00AM - 10:00PM",,,
,,49402 Pontiac Trl,,Wixom,MI,,United States,(248) 668-0606,,,"MON - THURS 11:00AM - 10:00PM, FRI - SAT 11:00AM - Midnight, SUNDAY Noon - 10:00PM",,,
,,952 28th St SW,,Wyoming,MI,,United States,(616) 261-5387,,,"MON - THURS 11:00AM - 10:00PM, FRI - SAT 11:00AM - 11:00PM, SUNDAY Noon - 10:00PM",,,
,,1298 Anna J Stepp Dr,,Ypsilanti,MI,,United States,(734) 484-1900,,,"MON - THURS 11:00AM - 10:00PM, FRI - SAT 11:00AM - 11:00PM, SUNDAY 11:00AM - 10:00PM",,,
,,11190 Chicago Dr,,Zeeland,MI,,United States,(616) 546-2900,,,"MON - THURS 11:00AM - 10:00PM, FRI - SAT 11:00AM - 11:00PM, SUNDAY Noon - 10:00PM",,,
,,558 S Hunt Club Blvd,,Apopka,FL,,United States,(321) 203-2675,,,"MON - THURS 11:00AM - 10:00PM, FRI - SAT 11:00AM - 11:00PM, SUNDAY Noon - 10:00PM",,,
,,8903 Glades Rd,,Boca Raton,FL,,United States,(561) 852-5700,,,"MON - THURS 11:00AM - 10:00PM, FRI - SAT 11:00AM - 11:00PM, SUNDAY Noon - 10:00PM",,,
,,3300 Bonita Beach Road,,Bonita Springs,FL,,United States,(239) 301-4800,,,"MON - THURS 11:00AM - 10:00PM, FRI - SAT 11:00AM - Midnight, SUNDAY Noon - 10:00PM",,,
,,8721 State Rd 70 East,,Bradenton,FL,,United States,(941) 739-5387,,,"MON - THURS 11:00AM - 10:00PM, FRI - SAT 11:00AM - 11:00PM, SUNDAY Noon - 10:00PM",,,
,,946 W Lumsden Rd,,Brandon,FL,,United States,(813) 655-5388,,,"MON - THURS 10:30AM - 11:00PM, FRI - SAT 10:30AM - Midnight, SUNDAY 10:30AM - 10:00PM",,,
,,80 Hancock Bridge Pkwy W,,Cape Coral,FL,,United States,(239) 458-1940,,,"MON - THURS 11:00AM - 10:00PM, FRI - SAT 11:00AM - 11:00PM, SUNDAY 11:00AM - 10:00PM",,,
,,643 Cape Coral Pkwy E,,Cape Coral,FL,,United States,(239) 257-3270,,,"MON - THURS 11:00AM - 10:00PM, FRI - SAT 11:00AM - 11:00PM, SUNDAY Noon - 10:00PM",,,
,,2045 Gulf to Bay Blvd.,,Clearwater,FL,,United States,(727) 441-4464,,,"MON - THURS 11:00AM - 10:00PM, FRI - SAT 11:00AM - Midnight, SUNDAY Noon - 10:00PM",,,
,,9835 W Sample Rd,,Coral Springs,FL,,United States,(954) 340-9999,,,"MON - THURS 11:00AM - 10:00PM, FRI - SAT 11:00AM - Midnight, SUNDAY Noon - 10:00PM",,,
,,4637 S University Dr,,Davie,FL,,United States,(954) 858-5387,,,"MON - THURS 11:00AM - 10:00PM, FRI - SAT 11:00AM - Midnight, SUNDAY Noon - 11:00PM",,,
,,4418 Commons Dr E,,Destin,FL,,United States,(850) 654-5387,,,"MON - THURS 11:00AM - 10:00PM, FRI - SAT 11:00AM - 11:00PM, SUNDAY Noon - 10:00PM",,,
,,1350 Main Street,,Dunedin,FL,,United States,(727) 210-1840,,,"MON - THURS 11:00AM - 10:00PM, FRI - SAT 11:00AM - Midnight, SUNDAY Noon - 10:00PM",,,
,,10011 Estero Town Commons Pl,,Estero,FL,,United States,(239) 495-5387,,,"MON - THURS 11:00AM - 10:00PM, FRI - SAT 11:00AM - 11:00PM, SUNDAY Noon - 10:00PM",,,
,,1300 E. Oakland Park Blvd.,,Fort Lauderdale (Oakland Park),FL,,United States,(954) 565-5387,,,"MON - THURS 11:00AM - 11:00PM, FRI - SAT 11:00AM - Midnight, SUNDAY 11:00AM - 11:00PM",,,
,,13550 Reflections Pkwy,,Fort Myers,FL,,United States,(239) 245-7019,,,"MON - THURS 11:00AM - 10:00PM, FRI - SAT 11:00AM - 11:00PM, SUNDAY Noon - 10:00PM",,,
,,13475 Atlantic Blvd,,Jacksonville,FL,,United States,(904) 221-7700,,,"MON - THURS 11:00AM - 10:00PM, FRI - SAT 11:00AM - 11:00PM, SUNDAY 11:00AM - 10:00PM",,,
,,3234 S Florida Ave,,Lakeland,FL,,United States,(863) 709-0999,,,"MON - THURS 10:00AM - 10:00PM, FRI - SAT 10:00AM - Midnight, SUNDAY 10:00AM - 10:00PM",,,
,,13429 Fishhawk Boulevard,,Lithia,FL,,United States,(813) 654-5388,,,"MON - THURS 10:30AM - 10:00PM, FRI - SAT 11:00AM - 11:00PM, SUNDAY 10:30AM - 10:00PM",,,
,,3400 Radio Rd,,Naples,FL,,United States,(239) 434-5389,,,"MON - THURS 11:00AM - 10:00PM, FRI - SAT 11:00AM - 11:00PM, SUNDAY Noon - 10:00PM",,,
,,9853 Tamiami Trl N,,Naples,FL,,United States,(239) 592-4369,,,"MON - THURS 11:00AM - 10:00PM, FRI - SAT 11:00AM - 11:00PM, SUNDAY Noon - 10:00PM",,,
,,17940 N. Tamiami Trl,,North Fort Myers,FL,,United States,(239) 731-5500,,,"MON - THURS 11:00AM - 10:00PM, FRI - SAT 11:00AM - 11:00PM, SUNDAY 11:00AM - 10:00PM",,,
,,1159 N Sumter Blvd,,North Port,FL,,United States,(941) 429-5387,,,"MON - THURS 11:00AM - 10:00PM, FRI - SAT 11:00AM - 11:00PM, SUNDAY Noon - 10:00PM",,,
,,3122 E Colonial Dr,,Orlando,FL,,United States,(407) 896-8977,,,"MON - THURS 11:00AM - Midnight, FRI - SAT 11:00AM - 3:00AM, SUNDAY 11:00AM - 10:00PM",,,
,,12231 E Colonial Dr,,Orlando,FL,,United States,(407) 413-5800,,,"MON - THURS 10:00AM - 10:00PM, FRI - SAT 10:00AM - Midnight, SUNDAY 10:00AM - 10:00PM",,,
,,33486 US Highway 19N,,Palm Harbor,FL,,United States,(727) 772-0313,,,"MON - THURS 11:00AM - 10:00PM, FRI - SAT 11:00AM - 11:00PM, SUNDAY Noon - 10:00PM",,,
,,437 E Atlantic Blvd,,Pompano Beach,FL,,United States,(954) 782-5387,,,"MON - THURS 11:00AM - 10:00PM, FRI - SAT 11:00AM - 11:00PM, SUNDAY 11:00AM - 10:00PM",,,
,,24001 Peachland Blvd,,Port Charlotte,FL,,United States,(941) 613-4040,,,"MON - THURS 11:00AM - 10:00PM, FRI - SAT 11:00AM - 11:00PM, SUNDAY Noon - 10:00PM",,,
,,1204 Royal Palm Beach Blvd,,Royal Palm Beach,FL,,United States,(561) 513-5387,,,"MON - THURS 11:00AM - 10:00PM, FRI - SAT 11:00AM - 11:00PM, SUNDAY 11:00AM - 10:00PM",,,
,,5045 Fruitville Road,,Sarasota,FL,,United States,(941) 312-4225,,,"MON - THURS 11:00AM - 10:00PM, FRI - SAT 11:00AM - 11:00PM, SUNDAY Noon - 10:00PM",,,
,,9649 Bay Pines Blvd.,,St. Petersburg,FL,,United States,(727) 397-2000,,,"MON - THURS 10:00AM - 10:00PM, FRI - SAT 10:00AM - 11:00PM, SUNDAY 10:00AM - 10:00PM",,,
,,1505 Governors Square Blvd.,,Tallahassee,FL,,United States,(850) 999-6574,,,"MON - THURS 11:00AM - 10:00PM, FRI - SAT 11:00AM - 11:00PM, SUNDAY 11:00AM - 10:00PM",,,
,,14624 N. Dale Mabry Hwy,,Tampa,FL,,United States,(813) 397-0000,,,"MON - THURS 11:00AM - 10:00PM, FRI - SAT 11:00AM - Midnight, SUNDAY Noon - 10:00PM",,,
,,4730 Chace Circle,,Hoover,AL,,United States,(205) 582-9798,,,"MON - THURS 10:00AM - 10:00PM, FRI - SAT 10:00AM - Midnight, SUNDAY 10:00AM - 10:00PM",,,
