store_name,store_number,address,address2,city,state,zip_code,country,phone_number,latitude,longitude,store_hours,store_type,other_fields,coming_soon
Giant,0145,5150 Sinclair Lane,Parkside,Baltimore,MD,21206,United States,(410) 483-6674,,,"Sunday 6:00A-11:00P, Monday 6:00A-12:00A, Tuesday 6:00A-12:00A, Wednesday 6:00A-12:00A, Thursday 6:00A-12:00A, Friday 6:00A-12:00A, Saturday 6:00A-12:00A",,,
Giant,0108,6340-50 York Rd.,York Road Plaza (off Gittings),Baltimore,MD,21212,United States,(410) 377-2673,,,"Sunday 6:00A-11:00P, Monday 6:00A-12:00A, Tuesday 6:00A-12:00A, Wednesday 6:00A-12:00A, Thursday 6:00A-12:00A, Friday 6:00A-12:00A, Saturday 6:00A-12:00A",,,
Giant,0144,7920-30 Belair Road,Putty Hill Plaza,Baltimore,MD,21236,United States,(410) 661-8885,,,"Sunday 6:00A-11:00P, Monday 6:00A-12:00A, Tuesday 6:00A-12:00A, Wednesday 6:00A-12:00A, Thursday 6:00A-12:00A, Friday 6:00A-12:00A, Saturday 6:00A-12:00A",,,
Giant,0365,3299 Emmorton Road,,Abingdon,MD,21009,United States,(410) 420-3160,,,"Sunday 6:00A-11:00P, Monday 6:00A-12:00A, Tuesday 6:00A-12:00A, Wednesday 6:00A-12:00A, Thursday 6:00A-12:00A, Friday 6:00A-12:00A, Saturday 6:00A-12:00A",,,
Giant,0337,6620 Reisterstown Road,Reisterstown Road Plaza,Baltimore,MD,21215,United States,(410) 649-8180,,,"Sunday 6:00A-11:00P, Monday 6:00A-12:00A, Tuesday 6:00A-12:00A, Wednesday 6:00A-12:00A, Thursday 6:00A-12:00A, Friday 6:00A-12:00A, Saturday 6:00A-12:00A",,,
Giant,0338,7025 Berry Road,Manokeek Village Center,Accokeek,MD,20607,United States,(301) 893-3100,,,"Sunday 6:00A-11:00P, Monday 6:00A-12:00A, Tuesday 6:00A-12:00A, Wednesday 6:00A-12:00A, Thursday 6:00A-12:00A, Friday 6:00A-12:00A, Saturday 6:00A-12:00A",,,
Giant,0167,948 Bay Ridge Rd.,Bay Forest Center,Annapolis,MD,21403,United States,(410) 267-0228,,,"Sunday 6:00A-11:00P, Monday 6:00A-12:00A, Tuesday 6:00A-12:00A, Wednesday 6:00A-12:00A, Thursday 6:00A-12:00A, Friday 6:00A-12:00A, Saturday 6:00A-12:00A",,,
Giant,0194,2323 Forest Drive,Festival at Riva,Annapolis,MD,21401,United States,(410) 266-9316,,,"Sunday 6:00A-11:00P, Monday 6:00A-12:00A, Tuesday 6:00A-12:00A, Wednesday 6:00A-12:00A, Thursday 6:00A-12:00A, Friday 6:00A-12:00A, Saturday 6:00A-12:00A",,,
Giant,0389,38069 Town Center Drive Unit 9,,Millville,DE,19967,United States,(302) 537-8200,,,"Sunday 6:00A-11:00P, Monday 6:00A-12:00A, Tuesday 6:00A-12:00A, Wednesday 6:00A-12:00A, Thursday 6:00A-12:00A, Friday 6:00A-12:00A, Saturday 6:00A-12:00A",,,
Giant,0387,19312 Lighthouse Plaza Blvd,Rt 1 & 271,Rehoboth Beach,DE,19971,United States,(302) 227-5950,,,"Sunday 6:00A-11:00P, Monday 6:00A-12:00A, Tuesday 6:00A-12:00A, Wednesday 6:00A-12:00A, Thursday 6:00A-12:00A, Friday 6:00A-12:00A, Saturday 6:00A-12:00A",,,
Giant,0388,200 Dove Run Drive,Dove Run Centre,Middletown,DE,19709,United States,(302) 828-9180,,,"Sunday 6:00A-11:00P, Monday 6:00A-12:00A, Tuesday 6:00A-12:00A, Wednesday 6:00A-12:00A, Thursday 6:00A-12:00A, Friday 6:00A-12:00A, Saturday 6:00A-12:00A",,,
Giant,2351,25939 John J. Williams Hwy,,Long Neck,DE,19966,United States,(302) 947-4370,,,"Sunday 6:00A-11:00P, Monday 6:00A-12:00A, Tuesday 6:00A-12:00A, Wednesday 6:00A-12:00A, Thursday 6:00A-12:00A, Friday 6:00A-12:00A, Saturday 6:00A-12:00A",,,
Giant,0385,300 Eden Square SC.,Eden Square Super G,Bear,DE,19701,United States,(302) 832-0166,,,"Sunday 6:00A-11:00P, Monday 6:00A-12:00A, Tuesday 6:00A-12:00A, Wednesday 6:00A-12:00A, Thursday 6:00A-12:00A, Friday 6:00A-12:00A, Saturday 6:00A-12:00A",,,
Giant,2379,3336 Wisconsin Ave NW,,Washington,DC,20016,United States,(202) 237-5820,,,"Sunday 6:00A-12:00A, Monday 6:00A-12:00A, Tuesday 6:00A-12:00A, Wednesday 6:00A-12:00A, Thursday 6:00A-12:00A, Friday 6:00A-12:00A, Saturday 6:00A-12:00A",,,
Giant,0386,4301 Concord Pike,Concord Square Super G,Wilmington,DE,19803,United States,(302) 475-5862,,,"Sunday 6:00A-11:00P, Monday 6:00A-12:00A, Tuesday 6:00A-12:00A, Wednesday 6:00A-12:00A, Thursday 6:00A-12:00A, Friday 6:00A-12:00A, Saturday 6:00A-12:00A",,,
Giant,0384,1535 Alabama Avenue S.E.,,Washington,DC,20032,United States,(202) 610-6464,,,"Sunday 6:00A-11:00P, Monday 6:00A-12:00A, Tuesday 6:00A-12:00A, Wednesday 6:00A-12:00A, Thursday 6:00A-12:00A, Friday 6:00A-12:00A, Saturday 6:00A-12:00A",,,
Giant,0778,41 West Lee Hwy.,Oaksprings Plaza,Warrenton,VA,20186,United States,(540) 347-7464,,,"Sunday 6:00A-11:00P, Monday 6:00A-12:00A, Tuesday 6:00A-12:00A, Wednesday 6:00A-12:00A, Thursday 6:00A-12:00A, Friday 6:00A-12:00A, Saturday 6:00A-12:00A",,,
Giant,0794,20961 Southbank Street,Cascades Marketplace,Sterling,VA,20165,United States,(703) 430-1100,,,"Sunday 6:00A-11:00P, Monday 6:00A-12:00A, Tuesday 6:00A-12:00A, Wednesday 6:00A-12:00A, Thursday 6:00A-12:00A, Friday 6:00A-12:00A, Saturday 6:00A-12:00A",,,
Giant,0763,359 Maple Avenue East,Vienna,Vienna,VA,22180,United States,(703) 281-9257,,,"Sunday 6:00A-11:00P, Monday 6:00A-12:00A, Tuesday 6:00A-12:00A, Wednesday 6:00A-12:00A, Thursday 6:00A-12:00A, Friday 6:00A-12:00A, Saturday 6:00A-12:00A",,,
Giant,0762,21800 Town Center Plaza - #226,Sterling Town Center,Sterling,VA,20164,United States,(703) 430-6115,,,"Sunday 6:00A-11:00P, Monday 6:00A-12:00A, Tuesday 6:00A-12:00A, Wednesday 6:00A-12:00A, Thursday 6:00A-12:00A, Friday 6:00A-12:00A, Saturday 6:00A-12:00A",,,
Giant,0243,317 Worth Avenue,Doc Stone Commons,Stafford,VA,22554,United States,(540) 657-5006,,,"Sunday 6:00A-11:00P, Monday 6:00A-12:00A, Tuesday 6:00A-12:00A, Wednesday 6:00A-12:00A, Thursday 6:00A-12:00A, Friday 6:00A-12:00A, Saturday 6:00A-12:00A",,,
Giant,0795,7501 Huntsman Blvd.,Huntsman Square,Springfield,VA,22153,United States,(703) 866-3009,,,"Sunday 6:00A-11:00P, Monday 6:00A-12:00A, Tuesday 6:00A-12:00A, Wednesday 6:00A-12:00A, Thursday 6:00A-12:00A, Friday 6:00A-12:00A, Saturday 6:00A-12:00A",,,
Giant,0229,8074 Rolling Road,Saratoga Shopping Center,Springfield,VA,22153,United States,(703) 912-6483,,,"Sunday 6:00A-11:00P, Monday 6:00A-12:00A, Tuesday 6:00A-12:00A, Wednesday 6:00A-12:00A, Thursday 6:00A-12:00A, Friday 6:00A-12:00A, Saturday 6:00A-12:00A",,,
Giant,0759,6426 Springfield Plz.,Springfield Plaza,Springfield,VA,22150,United States,(703) 569-9277,,,"Sunday 6:00A-11:00P, Monday 6:00A-12:00A, Tuesday 6:00A-12:00A, Wednesday 6:00A-12:00A, Thursday 6:00A-12:00A, Friday 6:00A-12:00A, Saturday 6:00A-12:00A",,,
Giant,0756,8320 Old Keene Mill Rd.,Cardinal Forest Plaza,Springfield,VA,22152,United States,(703) 912-6384,,,"Sunday 6:00A-11:00P, Monday 6:00A-12:00A, Tuesday 6:00A-12:00A, Wednesday 6:00A-12:00A, Thursday 6:00A-12:00A, Friday 6:00A-12:00A, Saturday 6:00A-12:00A",,,
Giant,0747,1450 North Point Village Ctr.,North Point Village Ctr.,Reston,VA,20194,United States,(703) 437-0031,,,"Sunday 6:00A-11:00P, Monday 6:00A-12:00A, Tuesday 6:00A-12:00A, Wednesday 6:00A-12:00A, Thursday 6:00A-12:00A, Friday 6:00A-12:00A, Saturday 6:00A-12:00A",,,
Giant,2743,8970 Burke Lake Road,,Springfield,VA,22151,United States,(571) 328-7996,,,"Sunday 6:00A-11:00P, Monday 6:00A-12:00A, Tuesday 6:00A-12:00A, Wednesday 6:00A-12:00A, Thursday 6:00A-12:00A, Friday 6:00A-12:00A, Saturday 6:00A-12:00A",,,
Giant,0256,10346 Courthouse Road,Hilltop Shopping Center,Spotsylvania,VA,22553,United States,(540) 710-9310,,,"Sunday 6:00A-11:00P, Monday 6:00A-12:00A, Tuesday 6:00A-12:00A, Wednesday 6:00A-12:00A, Thursday 6:00A-12:00A, Friday 6:00A-12:00A, Saturday 6:00A-12:00A",,,
Giant,0252,1000 East Main Street,Main Street Station,Purcellville,VA,20132,United States,(703) 443-6360,,,"Sunday 6:00A-11:00P, Monday 6:00A-12:00A, Tuesday 6:00A-12:00A, Wednesday 6:00A-12:00A, Thursday 6:00A-12:00A, Friday 6:00A-12:00A, Saturday 6:00A-12:00A",,,
Giant,0758,1454 Chain Bridge Rd.,Chain Bridge Corner,McLean,VA,22101,United States,(703) 893-0377,,,"Sunday 24 hours, Monday 24 hours, Tuesday 24 hours, Wednesday 24 hours, Thursday 24 hours, Friday 24 hours, Saturday 24 hours",,,
Giant,0779,8025 Sudley Rd.,Westgate Plaza,Manassas,VA,20109,United States,(703) 361-2541,,,"Sunday 6:00A-11:00P, Monday 6:00A-12:00A, Tuesday 6:00A-12:00A, Wednesday 6:00A-12:00A, Thursday 6:00A-12:00A, Friday 6:00A-12:00A, Saturday 6:00A-12:00A",,,
Giant,0231,2932 Chain Bridge Road,,Oakton,VA,22124,United States,(703) 242-2368,,,"Sunday 6:00A-11:00P, Monday 6:00A-12:00A, Tuesday 6:00A-12:00A, Wednesday 6:00A-12:00A, Thursday 6:00A-12:00A, Friday 6:00A-12:00A, Saturday 6:00A-12:00A",,,
Giant,0227,10100 Dumfries Road,Wellington Station,Manassas,VA,20110,United States,(703) 331-2310,,,"Sunday 6:00A-11:00P, Monday 6:00A-12:00A, Tuesday 6:00A-12:00A, Wednesday 6:00A-12:00A, Thursday 6:00A-12:00A, Friday 6:00A-12:00A, Saturday 6:00A-12:00A",,,
Giant,0798,8941 Ox Rd.,Shoppes at Lorton Valley,Lorton,VA,22079,United States,(703) 690-5000,,,"Sunday 6:00A-11:00P, Monday 6:00A-12:00A, Tuesday 6:00A-12:00A, Wednesday 6:00A-12:00A, Thursday 6:00A-12:00A, Friday 6:00A-12:00A, Saturday 6:00A-12:00A",,,
Giant,0250,635 Potomac Station Dr.,Potomac Station,Leesburg,VA,20176,United States,(571) 258-1900,,,"Sunday 6:00A-11:00P, Monday 6:00A-12:00A, Tuesday 6:00A-12:00A, Wednesday 6:00A-12:00A, Thursday 6:00A-12:00A, Friday 6:00A-12:00A, Saturday 6:00A-12:00A",,,
Giant,0799,61 Catoctin Circle N.E.,Leesburg Plaza,Leesburg,VA,20176,United States,(703) 771-1899,,,"Sunday 6:00A-11:00P, Monday 6:00A-12:00A, Tuesday 6:00A-12:00A, Wednesday 6:00A-12:00A, Thursday 6:00A-12:00A, Friday 6:00A-12:00A, Saturday 6:00A-12:00A",,,
Giant,0781,12445 Hedges Run Dr.,Lake Ridge Commons,Lake Ridge,VA,22192,United States,(703) 491-7615,,,"Sunday 6:00A-11:00P, Monday 6:00A-12:00A, Tuesday 6:00A-12:00A, Wednesday 6:00A-12:00A, Thursday 6:00A-12:00A, Friday 6:00A-12:00A, Saturday 6:00A-12:00A",,,
Giant,0775,13330 Franklin Farm Rd.,Franklin Farm,Herndon,VA,20171,United States,(703) 689-3564,,,"Sunday 6:00A-11:00P, Monday 6:00A-12:00A, Tuesday 6:00A-12:00A, Wednesday 6:00A-12:00A, Thursday 6:00A-12:00A, Friday 6:00A-12:00A, Saturday 6:00A-12:00A",,,
Giant,0753,2551 John Milton Dr.,Fox Mill,Herndon,VA,20171,United States,(703) 715-9852,,,"Sunday 6:00A-11:00P, Monday 6:00A-12:00A, Tuesday 6:00A-12:00A, Wednesday 6:00A-12:00A, Thursday 6:00A-12:00A, Friday 6:00A-12:00A, Saturday 6:00A-12:00A",,,
Giant,0790,5581 Merchants View Square,Merchants View Square,Haymarket,VA,20169,United States,(571) 248-4550,,,"Sunday 6:00A-11:00P, Monday 6:00A-12:00A, Tuesday 6:00A-12:00A, Wednesday 6:00A-12:00A, Thursday 6:00A-12:00A, Friday 6:00A-12:00A, Saturday 6:00A-12:00A",,,
Giant,0773,1228 Elden St.,Elden St. Marketplace,Herndon,VA,20170,United States,(703) 437-3162,,,"Sunday 6:00A-11:00P, Monday 6:00A-12:00A, Tuesday 6:00A-12:00A, Wednesday 6:00A-12:00A, Thursday 6:00A-12:00A, Friday 6:00A-12:00A, Saturday 6:00A-12:00A",,,
Giant,0257,7575 Linton Hall Road,Virginia Gateway,Gainesville,VA,20155,United States,(703) 754-2040,,,"Sunday 6:00A-11:00P, Monday 6:00A-12:00A, Tuesday 6:00A-12:00A, Wednesday 6:00A-12:00A, Thursday 6:00A-12:00A, Friday 6:00A-12:00A, Saturday 6:00A-12:00A",,,
Giant,0770,1245 Jefferson Davis Hwy.,Eagle Village,Fredericksburg,VA,22401,United States,(540) 373-2734,,,"Sunday 6:00A-11:00P, Monday 6:00A-12:00A, Tuesday 6:00A-12:00A, Wednesday 6:00A-12:00A, Thursday 6:00A-12:00A, Friday 6:00A-12:00A, Saturday 6:00A-12:00A",,,
Giant,0789,35 Town and Country Rd.,,Falmouth,VA,22405,United States,(540) 899-1060,,,"Sunday 6:00A-11:00P, Monday 6:00A-12:00A, Tuesday 6:00A-12:00A, Wednesday 6:00A-12:00A, Thursday 6:00A-12:00A, Friday 6:00A-12:00A, Saturday 6:00A-12:00A",,,
Giant,0235,5701 Plank Road,,Fredericksburg,VA,22407,United States,(540) 785-1020,,,"Sunday 6:00A-11:00P, Monday 6:00A-12:00A, Tuesday 6:00A-12:00A, Wednesday 6:00A-12:00A, Thursday 6:00A-12:00A, Friday 6:00A-12:00A, Saturday 6:00A-12:00A",,,
Giant,0233,7235 Arlington Blvd.,Loehmann's Plaza,Falls Church,VA,22042,United States,(703) 280-3340,,,"Sunday 6:00A-11:00P, Monday 6:00A-12:00A, Tuesday 6:00A-12:00A, Wednesday 6:00A-12:00A, Thursday 6:00A-12:00A, Friday 6:00A-12:00A, Saturday 6:00A-12:00A",,,
Giant,0765,1230 W. Broad St.,Falls Plaza,Falls Church,VA,22046,United States,(703) 237-9609,,,"Sunday 6:00A-11:00P, Monday 6:00A-12:00A, Tuesday 6:00A-12:00A, Wednesday 6:00A-12:00A, Thursday 6:00A-12:00A, Friday 6:00A-12:00A, Saturday 6:00A-12:00A",,,
Giant,0780,3480 S. Jefferson St.,Bailey's Cross Roads,Falls Church,VA,22041,United States,(703) 845-0446,,,"Sunday 24 hours, Monday 24 hours, Tuesday 24 hours, Wednesday 24 hours, Thursday 24 hours, Friday 24 hours, Saturday 24 hours",,,
Giant,0745,13043 Lee Jackson Mem. Hwy,Greenbriar,Fairfax,VA,22033,United States,(703) 968-8324,,,"Sunday 6:00A-11:00P, Monday 6:00A-12:00A, Tuesday 6:00A-12:00A, Wednesday 6:00A-12:00A, Thursday 6:00A-12:00A, Friday 6:00A-12:00A, Saturday 6:00A-12:00A",,,
Giant,2741,10653 Braddock Road,,Fairfax,VA,22032,United States,(703) 259-5514,,,"Sunday 6:00A-11:00P, Monday 6:00A-12:00A, Tuesday 6:00A-12:00A, Wednesday 6:00A-12:00A, Thursday 6:00A-12:00A, Friday 6:00A-12:00A, Saturday 6:00A-12:00A",,,
Giant,0228,11200 Fairfax Boulevard,Jermantown Road,Fairfax,VA,22030,United States,(703) 277-2861,,,"Sunday 6:00A-11:00P, Monday 6:00A-12:00A, Tuesday 6:00A-12:00A, Wednesday 6:00A-12:00A, Thursday 6:00A-12:00A, Friday 6:00A-12:00A, Saturday 6:00A-12:00A",,,
Giant,0741,5469 Mapledale Plaza,Mapledale Plaza,Dale City,VA,22193,United States,(703) 590-1200,,,"Sunday 6:00A-11:00P, Monday 6:00A-12:00A, Tuesday 6:00A-12:00A, Wednesday 6:00A-12:00A, Thursday 6:00A-12:00A, Friday 6:00A-12:00A, Saturday 6:00A-12:00A",,,
Giant,0754,4309 Dale Blvd.,Centre Plaza,Dale City,VA,22193,United States,(703) 670-5407,,,"Sunday 6:00A-11:00P, Monday 6:00A-12:00A, Tuesday 6:00A-12:00A, Wednesday 6:00A-12:00A, Thursday 6:00A-12:00A, Friday 6:00A-12:00A, Saturday 6:00A-12:00A",,,
Giant,0744,5740 Union Mill Rd.,Colonnade,Clifton,VA,20124,United States,(703) 818-0776,,,"Sunday 6:00A-11:00P, Monday 6:00A-12:00A, Tuesday 6:00A-12:00A, Wednesday 6:00A-12:00A, Thursday 6:00A-12:00A, Friday 6:00A-12:00A, Saturday 6:00A-12:00A",,,
Giant,0788,14125 St. Germain Dr.,Centrewood Plaza,Centreville,VA,20121,United States,(703) 631-3310,,,"Sunday 6:00A-11:00P, Monday 6:00A-12:00A, Tuesday 6:00A-12:00A, Wednesday 6:00A-12:00A, Thursday 6:00A-12:00A, Friday 6:00A-12:00A, Saturday 6:00A-12:00A",,,
Giant,0251,1900 Abbey Road,Rivanna Ridge,Charlottesville,VA,22911,United States,(434) 244-4300,,,"Sunday 6:00A-11:00P, Monday 6:00A-12:00A, Tuesday 6:00A-12:00A, Wednesday 6:00A-12:00A, Thursday 6:00A-12:00A, Friday 6:00A-12:00A, Saturday 6:00A-12:00A",,,
Giant,0237,25050 Riding Plaza Suite 100,South Riding Plaza,Chantilly,VA,20152,United States,(703) 542-2950,,,"Sunday 6:00A-11:00P, Monday 6:00A-12:00A, Tuesday 6:00A-12:00A, Wednesday 6:00A-12:00A, Thursday 6:00A-12:00A, Friday 6:00A-12:00A, Saturday 6:00A-12:00A",,,
Giant,0783,6011 Burke Ctr Parkway,Burke Center,Burke,VA,22015,United States,(703) 425-0360,,,"Sunday 6:00A-11:00P, Monday 6:00A-12:00A, Tuesday 6:00A-12:00A, Wednesday 6:00A-12:00A, Thursday 6:00A-12:00A, Friday 6:00A-12:00A, Saturday 6:00A-12:00A",,,
Giant,0740,5615 Stone Rd.,Sully Station,Centreville,VA,20120,United States,(703) 803-9698,,,"Sunday 6:00A-10:00P, Monday 6:00A-10:00P, Tuesday 6:00A-10:00P, Wednesday 6:00A-10:00P, Thursday 6:00A-10:00P, Friday 6:00A-10:00P, Saturday 6:00A-10:00P",,,
Giant,0791,43670 Greenway Corp. Drive,Ryan Park,Ashburn,VA,20147,United States,(571) 223-3848,,,"Sunday 6:00A-11:00P, Monday 6:00A-12:00A, Tuesday 6:00A-12:00A, Wednesday 6:00A-12:00A, Thursday 6:00A-12:00A, Friday 6:00A-12:00A, Saturday 6:00A-12:00A",,,
Giant,0262,43330 Junction Plaza,Ashburn Farm Town Center,Ashburn,VA,20147,United States,(703) 723-2160,,,"Sunday 6:00A-11:00P, Monday 6:00A-12:00A, Tuesday 6:00A-12:00A, Wednesday 6:00A-12:00A, Thursday 6:00A-12:00A, Friday 6:00A-12:00A, Saturday 6:00A-12:00A",,,
Giant,0234,550 Celebrate Virginia Parkway,Celebrate Virginia Shopping Center,Celebrate,VA,22406,United States,(540) 286-1721,,,"Sunday 6:00A-11:00P, Monday 6:00A-12:00A, Tuesday 6:00A-12:00A, Wednesday 6:00A-12:00A, Thursday 6:00A-12:00A, Friday 6:00A-12:00A, Saturday 6:00A-12:00A",,,
Giant,0797,44110 Ashburn Shopping Plz,Ashburn Village,Ashburn,VA,20147,United States,(703) 729-3877,,,"Sunday 6:00A-11:00P, Monday 6:00A-12:00A, Tuesday 6:00A-12:00A, Wednesday 6:00A-12:00A, Thursday 6:00A-12:00A, Friday 6:00A-12:00A, Saturday 6:00A-12:00A",,,
Giant,0771,3115 Lee Hwy.,Lyon Village,Arlington,VA,22201,United States,(703) 527-9453,,,"Sunday 6:00A-11:00P, Monday 6:00A-12:00A, Tuesday 6:00A-12:00A, Wednesday 6:00A-12:00A, Thursday 6:00A-12:00A, Friday 6:00A-12:00A, Saturday 6:00A-12:00A",,,
Giant,0743,3450 Washington Blvd.,Virginia Square,Arlington,VA,22201,United States,(703) 358-9343,,,"Sunday 6:00A-11:00P, Monday 6:00A-12:00A, Tuesday 6:00A-12:00A, Wednesday 6:00A-12:00A, Thursday 6:00A-12:00A, Friday 6:00A-12:00A, Saturday 6:00A-12:00A",,,
Giant,0249,6980 Braddock Road,Bradlick Shopping Center,Annandale,VA,22003,United States,(703) 333-6360,,,"Sunday 6:00A-11:00P, Monday 6:00A-12:00A, Tuesday 6:00A-12:00A, Wednesday 6:00A-12:00A, Thursday 6:00A-12:00A, Friday 6:00A-12:00A, Saturday 6:00A-12:00A",,,
Giant,0749,7137 Columbia Pike,Annandale Center,Annandale,VA,22003,United States,(703) 354-5081,,,"Sunday 6:00A-11:00P, Monday 6:00A-12:00A, Tuesday 6:00A-12:00A, Wednesday 6:00A-12:00A, Thursday 6:00A-12:00A, Friday 6:00A-12:00A, Saturday 6:00A-12:00A",,,
Giant,0748,2901-11 S. Glebe Rd.,Shirley Park,Arlington,VA,22206,United States,(703) 836-0245,,,"Sunday 6:00A-11:00P, Monday 6:00A-12:00A, Tuesday 6:00A-12:00A, Wednesday 6:00A-12:00A, Thursday 6:00A-12:00A, Friday 6:00A-12:00A, Saturday 6:00A-12:00A",,,
Giant,0777,7558 Telegraph Road,Hayfield,Alexandria,VA,22310,United States,(703) 922-0380,,,"Sunday 6:00A-11:00P, Monday 6:00A-12:00A, Tuesday 6:00A-12:00A, Wednesday 6:00A-12:00A, Thursday 6:00A-12:00A, Friday 6:00A-12:00A, Saturday 6:00A-12:00A",,,
Giant,0261,3131 Duke Street,Alexandria Commons,Alexandria,VA,22314,United States,(703) 461-6198,,,"Sunday 6:00A-11:00P, Monday 6:00A-12:00A, Tuesday 6:00A-12:00A, Wednesday 6:00A-12:00A, Thursday 6:00A-12:00A, Friday 6:00A-12:00A, Saturday 6:00A-12:00A",,,
Giant,0760,6800 Richmond Hwy.,Beacon Mall,Alexandria,VA,22306,United States,(703) 768-6720,,,"Sunday 6:00A-11:00P, Monday 6:00A-12:00A, Tuesday 6:00A-12:00A, Wednesday 6:00A-12:00A, Thursday 6:00A-12:00A, Friday 6:00A-12:00A, Saturday 6:00A-12:00A",,,
Giant,0232,5870 Kingstowne Blvd.,Kingstowne,Alexandria,VA,22315,United States,(703) 313-0855,,,"Sunday 6:00A-11:00P, Monday 6:00A-12:00A, Tuesday 6:00A-12:00A, Wednesday 6:00A-12:00A, Thursday 6:00A-12:00A, Friday 6:00A-12:00A, Saturday 6:00A-12:00A",,,
Giant,2742,621 East Glebe Road,,Alexandria,VA,22305,United States,(703) 518-4797,,,"Sunday 6:00A-11:00P, Monday 6:00A-12:00A, Tuesday 6:00A-12:00A, Wednesday 6:00A-12:00A, Thursday 6:00A-12:00A, Friday 6:00A-12:00A, Saturday 6:00A-12:00A",,,
Giant,0242,5730 Edsall Rd.,Van Dorn Center,Alexandria,VA,22304,United States,(703) 370-4856,,,"Sunday 6:00A-11:00P, Monday 6:00A-12:00A, Tuesday 6:00A-12:00A, Wednesday 6:00A-12:00A, Thursday 6:00A-12:00A, Friday 6:00A-12:00A, Saturday 6:00A-12:00A",,,
Giant,0336,2900 University Boulevard West,Westfield Shoppingtown Wheaton,Wheaton,MD,20902,United States,(301) 692-4180,,,"Sunday 6:00A-11:00P, Monday 6:00A-12:00A, Tuesday 6:00A-12:00A, Wednesday 6:00A-12:00A, Thursday 6:00A-12:00A, Friday 6:00A-12:00A, Saturday 6:00A-12:00A",,,
Giant,0109,405 N. Center St.,,Westminster,MD,21157,United States,(410) 857-3579,,,"Sunday 6:00A-11:00P, Monday 6:00A-12:00A, Tuesday 6:00A-12:00A, Wednesday 6:00A-12:00A, Thursday 6:00A-12:00A, Friday 6:00A-12:00A, Saturday 6:00A-12:00A",,,
Giant,0361,5700 Southeast Crain Hwy,Marlboro Crossroads,Upper Marlboro,MD,20772,United States,(301) 952-7515,,,"Sunday 6:00A-11:00P, Monday 6:00A-12:00A, Tuesday 6:00A-12:00A, Wednesday 6:00A-12:00A, Thursday 6:00A-12:00A, Friday 6:00A-12:00A, Saturday 6:00A-12:00A",,,
Giant,0304,3297 Crain Highway,Charles Center Plaza,Waldorf,MD,20603,United States,(301) 542-4180,,,"Sunday 6:00A-11:00P, Monday 6:00A-12:00A, Tuesday 6:00A-12:00A, Wednesday 6:00A-12:00A, Thursday 6:00A-12:00A, Friday 6:00A-12:00A, Saturday 6:00A-12:00A",,,
Giant,0353,8100 Loch Raven Blvd.,Ravenwood,Towson,MD,21286,United States,(410) 828-0006,,,"Sunday 24 hours, Monday 24 hours, Tuesday 24 hours, Wednesday 24 hours, Thursday 24 hours, Friday 24 hours, Saturday 24 hours",,,
Giant,0301,13781 Connecticut Avenue,Aspen Hill Shopping Center,Silver Spring,MD,20906,United States,(301) 460-7527,,,"Sunday 6:00A-11:00P, Monday 6:00A-12:00A, Tuesday 6:00A-12:00A, Wednesday 6:00A-12:00A, Thursday 6:00A-12:00A, Friday 6:00A-12:00A, Saturday 6:00A-12:00A",,,
Giant,0128,2145 York Road,,Timonium,MD,21093,United States,(410) 308-3868,,,"Sunday 6:00A-11:00P, Monday 6:00A-12:00A, Tuesday 6:00A-12:00A, Wednesday 6:00A-12:00A, Thursday 6:00A-12:00A, Friday 6:00A-12:00A, Saturday 6:00A-12:00A",,,
Giant,0366,8750 Arliss St.,Arliss Street Center,Silver Spring,MD,20901,United States,(301) 587-3450,,,"Sunday 6:00A-11:00P, Monday 6:00A-12:00A, Tuesday 6:00A-12:00A, Wednesday 6:00A-12:00A, Thursday 6:00A-12:00A, Friday 6:00A-12:00A, Saturday 6:00A-12:00A",,,
Giant,0350,11221 New Hampshire Ave.,White Oak,Silver Spring,MD,20904,United States,(301) 593-1225,,,"Sunday 6:00A-11:00P, Monday 6:00A-12:00A, Tuesday 6:00A-12:00A, Wednesday 6:00A-12:00A, Thursday 6:00A-12:00A, Friday 6:00A-12:00A, Saturday 6:00A-12:00A",,,
Giant,0135,3860 International Dr.,Leisure World Plaza,Silver Spring,MD,20906,United States,(301) 598-4666,,,"Sunday 6:00A-11:00P, Monday 6:00A-12:00A, Tuesday 6:00A-12:00A, Wednesday 6:00A-12:00A, Thursday 6:00A-12:00A, Friday 6:00A-12:00A, Saturday 6:00A-12:00A",,,
Giant,0354,1280 East West Hwy.,Blair Park,Silver Spring,MD,20910,United States,(301) 585-1670,,,"Sunday 6:00A-11:00P, Monday 6:00A-12:00A, Tuesday 6:00A-12:00A, Wednesday 6:00A-12:00A, Thursday 6:00A-12:00A, Friday 6:00A-12:00A, Saturday 6:00A-12:00A",,,
Giant,0358,573 Gov. Ritchie Hwy.,Severna Park Mall,Severna Park,MD,21146,United States,(410) 544-4619,,,"Sunday 6:00A-11:00P, Monday 6:00A-12:00A, Tuesday 6:00A-12:00A, Wednesday 6:00A-12:00A, Thursday 6:00A-12:00A, Friday 6:00A-12:00A, Saturday 6:00A-12:00A",,,
Giant,0329,9719 Traville Gateway Drive,Shoppes at Traville,Rockville,MD,20850,United States,(301) 315-1460,,,"Sunday 6:00A-11:00P, Monday 6:00A-12:00A, Tuesday 6:00A-12:00A, Wednesday 6:00A-12:00A, Thursday 6:00A-12:00A, Friday 6:00A-12:00A, Saturday 6:00A-12:00A",,,
Giant,0125,12051 Rockville Pike,Montrose Crossing,Rockville,MD,20852,United States,(301) 881-4541,,,"Sunday 6:00A-11:00P, Monday 6:00A-12:00A, Tuesday 6:00A-12:00A, Wednesday 6:00A-12:00A, Thursday 6:00A-12:00A, Friday 6:00A-12:00A, Saturday 6:00A-12:00A",,,
Giant,0319,625 Hungerford Drive,Rockville Town Center,Rockville,MD,20850,United States,(240) 314-5160,,,"Sunday 6:00A-11:00P, Monday 6:00A-12:00A, Tuesday 6:00A-12:00A, Wednesday 6:00A-12:00A, Thursday 6:00A-12:00A, Friday 6:00A-12:00A, Saturday 6:00A-12:00A",,,
Giant,0198,9812 Falls Road,Potomac Promenade,Potomac,MD,20854,United States,(301) 983-4246,,,"Sunday 6:00A-11:00P, Monday 6:00A-12:00A, Tuesday 6:00A-12:00A, Wednesday 6:00A-12:00A, Thursday 6:00A-12:00A, Friday 6:00A-12:00A, Saturday 6:00A-12:00A",,,
Giant,0146,655 Solomon's Island Rd. North,Fox Run,Prince Frederick,MD,20678,United States,(410) 535-5641,,,"Sunday 6:00A-11:00P, Monday 6:00A-12:00A, Tuesday 6:00A-12:00A, Wednesday 6:00A-12:00A, Thursday 6:00A-12:00A, Friday 6:00A-12:00A, Saturday 6:00A-12:00A",,,
Giant,0322,11604 Reisterstown Road,,Reisterstown,MD,21136,United States,(410) 526-1660,,,"Sunday 6:00A-11:00P, Monday 6:00A-12:00A, Tuesday 6:00A-12:00A, Wednesday 6:00A-12:00A, Thursday 6:00A-12:00A, Friday 6:00A-12:00A, Saturday 6:00A-12:00A",,,
Giant,0159,3757 Old Court Rd.,Centre Court,Pikesville,MD,21208,United States,(410) 602-7660,,,"Sunday 6:00A-11:00P, Monday 6:00A-12:00A, Tuesday 6:00A-12:00A, Wednesday 6:00A-12:00A, Thursday 6:00A-12:00A, Friday 6:00A-12:00A, Saturday 6:00A-12:00A",,,
Giant,0106,7919 Tuckerman La.,Cabin John,Potomac,MD,20854,United States,(301) 469-9549,,,"Sunday 6:00A-11:00P, Monday 6:00A-12:00A, Tuesday 6:00A-12:00A, Wednesday 6:00A-12:00A, Thursday 6:00A-12:00A, Friday 6:00A-12:00A, Saturday 6:00A-12:00A",,,
Giant,0324,4315 Mountain Rd.,,Pasadena,MD,21122,United States,(410) 439-2103,,,"Sunday 6:00A-11:00P, Monday 6:00A-12:00A, Tuesday 6:00A-12:00A, Wednesday 6:00A-12:00A, Thursday 6:00A-12:00A, Friday 6:00A-12:00A, Saturday 6:00A-12:00A",,,
Super Giant,2305,7709 Harford Rd.,,Parkville,MD,21234,United States,(410) 665-3462,,,"Sunday 6:00A-11:00P, Monday 6:00A-12:00A, Tuesday 6:00A-12:00A, Wednesday 6:00A-12:00A, Thursday 6:00A-12:00A, Friday 6:00A-12:00A, Saturday 6:00A-12:00A",,,
Giant,0341,20 Audrey Lane,Eastover,Oxon Hill,MD,20745,United States,(301) 839-3714,,,"Sunday 6:00A-11:00P, Monday 6:00A-12:00A, Tuesday 6:00A-12:00A, Wednesday 6:00A-12:00A, Thursday 6:00A-12:00A, Friday 6:00A-12:00A, Saturday 6:00A-12:00A",,,
Giant,0331,9730 Groffs Mill Drive,Owings Mills New Town,Owings Mills,MD,21117,United States,(410) 654-1156,,,"Sunday 6:00A-11:00P, Monday 6:00A-12:00A, Tuesday 6:00A-12:00A, Wednesday 6:00A-12:00A, Thursday 6:00A-12:00A, Friday 6:00A-12:00A, Saturday 6:00A-12:00A",,,
Giant,0127,17821 Georgia Ave.,Olney Village,Olney,MD,20832,United States,(301) 570-1665,,,"Sunday 6:00A-11:00P, Monday 6:00A-12:00A, Tuesday 6:00A-12:00A, Wednesday 6:00A-12:00A, Thursday 6:00A-12:00A, Friday 6:00A-12:00A, Saturday 6:00A-12:00A",,,
Giant,0165,9934 Reisterstown Rd.,St. Thomas Center,Owings Mills,MD,21117,United States,(410) 356-6280,,,"Sunday 6:00A-11:00P, Monday 6:00A-12:00A, Tuesday 6:00A-12:00A, Wednesday 6:00A-12:00A, Thursday 6:00A-12:00A, Friday 6:00A-12:00A, Saturday 6:00A-12:00A",,,
Giant,2304,8905 Belair Rd,Perry Hall Giant,Nottingham,MD,21236,United States,(410) 256-9860,,,"Sunday 6:00A-11:00P, Monday 6:00A-12:00A, Tuesday 6:00A-12:00A, Wednesday 6:00A-12:00A, Thursday 6:00A-12:00A, Friday 6:00A-12:00A, Saturday 6:00A-12:00A",,,
Giant,0343,11740 Rousby Hall Road,,Lusby,MD,20657,United States,(410) 394-2160,,,"Sunday 6:00A-11:00P, Monday 6:00A-12:00A, Tuesday 6:00A-12:00A, Wednesday 6:00A-12:00A, Thursday 6:00A-12:00A, Friday 6:00A-12:00A, Saturday 6:00A-12:00A",,,
Giant,0340,1009 Fairlawn St.,Laurel Center,Laurel,MD,20707,United States,(301) 725-0046,,,"Sunday 6:00A-11:00P, Monday 6:00A-12:00A, Tuesday 6:00A-12:00A, Wednesday 6:00A-12:00A, Thursday 6:00A-12:00A, Friday 6:00A-12:00A, Saturday 6:00A-12:00A",,,
Giant,0347,10480 Campus Way South,Largo Plaza,Largo,MD,20774,United States,(301) 336-9402,,,"Sunday 6:00A-11:00P, Monday 6:00A-12:00A, Tuesday 6:00A-12:00A, Wednesday 6:00A-12:00A, Thursday 6:00A-12:00A, Friday 6:00A-12:00A, Saturday 6:00A-12:00A",,,
Giant,0342,4119 Branch Ave.,Marlow Heights,Marlow Heights,MD,20748,United States,(301) 630-7724,,,"Sunday 6:00A-11:00P, Monday 6:00A-12:00A, Tuesday 6:00A-12:00A, Wednesday 6:00A-12:00A, Thursday 6:00A-12:00A, Friday 6:00A-12:00A, Saturday 6:00A-12:00A",,,
Giant,2311,1155 Annapolis Road,,Odenton,MD,21113,United States,(410) 305-2370,,,"Sunday 6:00A-11:00P, Monday 6:00A-12:00A, Tuesday 6:00A-12:00A, Wednesday 6:00A-12:00A, Thursday 6:00A-12:00A, Friday 6:00A-12:00A, Saturday 6:00A-12:00A",,,
Giant,0339,200 Rosewick Road,,LaPlata,MD,20646,United States,(301) 392-5429,,,"Sunday 6:00A-11:00P, Monday 6:00A-12:00A, Tuesday 6:00A-12:00A, Wednesday 6:00A-12:00A, Thursday 6:00A-12:00A, Friday 6:00A-12:00A, Saturday 6:00A-12:00A",,,
Giant,0326,10501 Greenbelt Rd.,Eastgate Shopping Center,Lanham,MD,20706,United States,(301) 666-1180,,,"Sunday 6:00A-11:00P, Monday 6:00A-12:00A, Tuesday 6:00A-12:00A, Wednesday 6:00A-12:00A, Thursday 6:00A-12:00A, Friday 6:00A-12:00A, Saturday 6:00A-12:00A",,,
Giant,0315,7546 Annapolis Rd.,Glenridge Center,Lanham,MD,20784,United States,(301) 306-0498,,,"Sunday 6:00A-11:00P, Monday 6:00A-12:00A, Tuesday 6:00A-12:00A, Wednesday 6:00A-12:00A, Thursday 6:00A-12:00A, Friday 6:00A-12:00A, Saturday 6:00A-12:00A",,,
Giant,0140,5815 Eastern Avenue,Riggs Plaza,Hyattsville,MD,20782,United States,(301) 559-8413,,,"Sunday 6:00A-11:00P, Monday 6:00A-12:00A, Tuesday 6:00A-12:00A, Wednesday 6:00A-12:00A, Thursday 6:00A-12:00A, Friday 6:00A-12:00A, Saturday 6:00A-12:00A",,,
Giant,0334,3521 East-West Highway,Hyattsville Station,Hyattsville,MD,20782,United States,(301) 853-3700,,,"Sunday 6:00A-11:00P, Monday 6:00A-12:00A, Tuesday 6:00A-12:00A, Wednesday 6:00A-12:00A, Thursday 6:00A-12:00A, Friday 6:00A-12:00A, Saturday 6:00A-12:00A",,,
Giant,0316,6000 Greenbelt Rd.,Beltway Plaza,Greenbelt,MD,20770,United States,(301) 982-5482,,,"Sunday 6:00A-11:00P, Monday 6:00A-12:00A, Tuesday 6:00A-12:00A, Wednesday 6:00A-12:00A, Thursday 6:00A-12:00A, Friday 6:00A-12:00A, Saturday 6:00A-12:00A",,,
Giant,0129,7383 Balt. Annap. Blvd.,Cromwell Field,Glen Burnie,MD,21061,United States,(410) 553-6763,,,"Sunday 6:00A-11:00P, Monday 6:00A-12:00A, Tuesday 6:00A-12:00A, Wednesday 6:00A-12:00A, Thursday 6:00A-12:00A, Friday 6:00A-12:00A, Saturday 6:00A-12:00A",,,
Giant,0141,7940 Crain Hwy.,Park 97,Glen Burnie,MD,21061,United States,(410) 969-7590,,,"Sunday 6:00A-11:00P, Monday 6:00A-12:00A, Tuesday 6:00A-12:00A, Wednesday 6:00A-12:00A, Thursday 6:00A-12:00A, Friday 6:00A-12:00A, Saturday 6:00A-12:00A",,,
Giant,0313,18331 Leaman Farm Road,Kingsview Village,Germantown,MD,20874,United States,(301) 528-2760,,,"Sunday 6:00A-11:00P, Monday 6:00A-12:00A, Tuesday 6:00A-12:00A, Wednesday 6:00A-12:00A, Thursday 6:00A-12:00A, Friday 6:00A-12:00A, Saturday 6:00A-12:00A",,,
Giant,0169,13060 Middlebrook Rd.,Germantown Commons,Germantown,MD,20874,United States,(301) 428-4961,,,"Sunday 6:00A-11:00P, Monday 6:00A-12:00A, Tuesday 6:00A-12:00A, Wednesday 6:00A-12:00A, Thursday 6:00A-12:00A, Friday 6:00A-12:00A, Saturday 6:00A-12:00A",,,
Giant,0150,46 Bureau Dr.,Diamond Square,Gaithersburg,MD,20878,United States,(301) 216-0911,,,"Sunday 6:00A-11:00P, Monday 6:00A-12:00A, Tuesday 6:00A-12:00A, Wednesday 6:00A-12:00A, Thursday 6:00A-12:00A, Friday 6:00A-12:00A, Saturday 6:00A-12:00A",,,
Giant,0192,18250 Flower Hill Way,Flower Hill,Gaithersburg,MD,20879,United States,(301) 926-0340,,,"Sunday 6:00A-11:00P, Monday 6:00A-12:00A, Tuesday 6:00A-12:00A, Wednesday 6:00A-12:00A, Thursday 6:00A-12:00A, Friday 6:00A-12:00A, Saturday 6:00A-12:00A",,,
Giant,0196,20044 Goshen Rd.,Goshen Crossing,Gaithersburg,MD,20879,United States,(301) 990-0322,,,"Sunday 6:00A-11:00P, Monday 6:00A-12:00A, Tuesday 6:00A-12:00A, Wednesday 6:00A-12:00A, Thursday 6:00A-12:00A, Friday 6:00A-12:00A, Saturday 6:00A-12:00A",,,
Giant,0362,20944 Frederick Road,Neelsville Village Center,Germantown,MD,20876,United States,(301) 515-9282,,,"Sunday 6:00A-11:00P, Monday 6:00A-12:00A, Tuesday 6:00A-12:00A, Wednesday 6:00A-12:00A, Thursday 6:00A-12:00A, Friday 6:00A-12:00A, Saturday 6:00A-12:00A",,,
Giant,0368,842 Muddy Branch Rd.,Muddy Branch,Gaithersburg,MD,20878,United States,(301) 948-8148,,,"Sunday 6:00A-11:00P, Monday 6:00A-12:00A, Tuesday 6:00A-12:00A, Wednesday 6:00A-12:00A, Thursday 6:00A-12:00A, Friday 6:00A-12:00A, Saturday 6:00A-12:00A",,,
Giant,0335,1700 Kingfisher Dr.,,Frederick,MD,21701,United States,(301) 815-2200,,,"Sunday 6:00A-11:00P, Monday 6:00A-12:00A, Tuesday 6:00A-12:00A, Wednesday 6:00A-12:00A, Thursday 6:00A-12:00A, Friday 6:00A-12:00A, Saturday 6:00A-12:00A",,,
Giant,0349,3530 Sugarloaf Parkway,The Villages of Urbana,Frederick,MD,21704,United States,(301) 874-1200,,,"Sunday 6:00A-11:00P, Monday 6:00A-12:00A, Tuesday 6:00A-12:00A, Wednesday 6:00A-12:00A, Thursday 6:00A-12:00A, Friday 6:00A-12:00A, Saturday 6:00A-12:00A",,,
Giant,0346,5316 New Design Road,Kingsbrook Crossing,Frederick,MD,21701,United States,(301) 698-9411,,,"Sunday 6:00A-11:00P, Monday 6:00A-12:00A, Tuesday 6:00A-12:00A, Wednesday 6:00A-12:00A, Thursday 6:00A-12:00A, Friday 6:00A-12:00A, Saturday 6:00A-12:00A",,,
Giant,0147,9580 Livingston Rd.,Livingston Square,Fort Washington,MD,20744,United States,(301) 248-0167,,,"Sunday 6:00A-11:00P, Monday 6:00A-12:00A, Tuesday 6:00A-12:00A, Wednesday 6:00A-12:00A, Thursday 6:00A-12:00A, Friday 6:00A-12:00A, Saturday 6:00A-12:00A",,,
Giant,0143,4715 Dorsey Hall Dr.,Dorsey Search,Ellicott City,MD,21043,United States,(410) 995-0557,,,"Sunday 6:00A-11:00P, Monday 6:00A-12:00A, Tuesday 6:00A-12:00A, Wednesday 6:00A-12:00A, Thursday 6:00A-12:00A, Friday 6:00A-12:00A, Saturday 6:00A-12:00A",,,
Giant,2310,9200 Baltimore National Pike,,Ellicott City,MD,21043,United States,(410) 461-3120,,,"Sunday 6:00A-11:00P, Monday 6:00A-12:00A, Tuesday 6:00A-12:00A, Wednesday 6:00A-12:00A, Thursday 6:00A-12:00A, Friday 6:00A-12:00A, Saturday 6:00A-12:00A",,,
Giant,0344,6020 Marshalee Drive,Lyndwood Square,Elkridge,MD,21075,United States,(410) 379-6405,,,"Sunday 6:00A-11:00P, Monday 6:00A-12:00A, Tuesday 6:00A-12:00A, Wednesday 6:00A-12:00A, Thursday 6:00A-12:00A, Friday 6:00A-12:00A, Saturday 6:00A-12:00A",,,
Giant,0323,8223 Elliott Road,Easton Shops,Easton,MD,21601,United States,(410) 819-3212,,,"Sunday 6:00A-11:00P, Monday 6:00A-12:00A, Tuesday 6:00A-12:00A, Wednesday 6:00A-12:00A, Thursday 6:00A-12:00A, Friday 6:00A-12:00A, Saturday 6:00A-12:00A",,,
Super Giant,0308,13 Lee Airpark Drive,,Edgewater,MD,21037,United States,(410) 956-7472,,,"Sunday 6:00A-11:00P, Monday 6:00A-12:00A, Tuesday 6:00A-12:00A, Wednesday 6:00A-12:00A, Thursday 6:00A-12:00A, Friday 6:00A-12:00A, Saturday 6:00A-12:00A",,,
Giant,0320,229 Kentlands Blvd.,Kentlands,Gaithersburg,MD,20878,United States,(301) 208-8203,,,"Sunday 6:00A-11:00P, Monday 6:00A-12:00A, Tuesday 6:00A-12:00A, Wednesday 6:00A-12:00A, Thursday 6:00A-12:00A, Friday 6:00A-12:00A, Saturday 6:00A-12:00A",,,
Giant,0325,10790 Town Center Blvd,Town Center,Dunkirk,MD,20754,United States,(410) 286-2900,,,"Sunday 6:00A-11:00P, Monday 6:00A-12:00A, Tuesday 6:00A-12:00A, Wednesday 6:00A-12:00A, Thursday 6:00A-12:00A, Friday 6:00A-12:00A, Saturday 6:00A-12:00A",,,
Giant,0363,1400 Merritt Boulevard,,Dundalk,MD,21222,United States,(410) 631-1250,,,"Sunday 6:00A-11:00P, Monday 6:00A-12:00A, Tuesday 6:00A-12:00A, Wednesday 6:00A-12:00A, Thursday 6:00A-12:00A, Friday 6:00A-12:00A, Saturday 6:00A-12:00A",,,
Giant,0373,5500 Silver Hill Road,,District Heights,MD,20747,United States,(301) 817-3180,,,"Sunday 6:00A-11:00P, Monday 6:00A-12:00A, Tuesday 6:00A-12:00A, Wednesday 6:00A-12:00A, Thursday 6:00A-12:00A, Friday 6:00A-12:00A, Saturday 6:00A-12:00A",,,
Giant,0161,16837 Crabbs Branch Way,Shady Grove,Derwood,MD,20855,United States,(301) 216-0912,,,"Sunday 6:00A-11:00P, Monday 6:00A-12:00A, Tuesday 6:00A-12:00A, Wednesday 6:00A-12:00A, Thursday 6:00A-12:00A, Friday 6:00A-12:00A, Saturday 6:00A-12:00A",,,
Giant,0121,1161 Md. Rt. 3 North,Crofton Station,Crofton,MD,21054,United States,(410) 721-6623,,,"Sunday 6:00A-11:00P, Monday 6:00A-12:00A, Tuesday 6:00A-12:00A, Wednesday 6:00A-12:00A, Thursday 6:00A-12:00A, Friday 6:00A-12:00A, Saturday 6:00A-12:00A",,,
Giant,0111,6480 Freetown Rd.,Hickory Ridge Village,Columbia,MD,21044,United States,(410) 531-3752,,,"Sunday 6:00A-11:00P, Monday 6:00A-12:00A, Tuesday 6:00A-12:00A, Wednesday 6:00A-12:00A, Thursday 6:00A-12:00A, Friday 6:00A-12:00A, Saturday 6:00A-12:00A",,,
Giant,0155,7200 Cradlerock Way,Owen Brown Village Center,Columbia,MD,21045,United States,(410) 995-6893,,,"Sunday 6:00A-11:00P, Monday 6:00A-12:00A, Tuesday 6:00A-12:00A, Wednesday 6:00A-12:00A, Thursday 6:00A-12:00A, Friday 6:00A-12:00A, Saturday 6:00A-12:00A",,,
Giant,0300,8805 Centre Park Drive,Columbia Palace,Columbia,MD,21045,United States,(443) 364-5180,,,"Sunday 6:00A-11:00P, Monday 6:00A-12:00A, Tuesday 6:00A-12:00A, Wednesday 6:00A-12:00A, Thursday 6:00A-12:00A, Friday 6:00A-12:00A, Saturday 6:00A-12:00A",,,
Giant,0152,13490 New Hampshire Ave.,,Colesville,MD,20904,United States,(301) 384-1572,,,"Sunday 6:00A-11:00P, Monday 6:00A-12:00A, Tuesday 6:00A-12:00A, Wednesday 6:00A-12:00A, Thursday 6:00A-12:00A, Friday 6:00A-12:00A, Saturday 6:00A-12:00A",,,
Giant,0100,11399 York Rd.,Hunt Valley,Cockeysville,MD,21030,United States,(410) 785-1062,,,"Sunday 6:00A-11:00P, Monday 6:00A-12:00A, Tuesday 6:00A-12:00A, Wednesday 6:00A-12:00A, Thursday 6:00A-12:00A, Friday 6:00A-12:00A, Saturday 6:00A-12:00A",,,
Giant,0348,6050 Daybreak Circle,Village of River Hill,Clarksville,MD,21029,United States,(410) 531-7831,,,"Sunday 6:00A-11:00P, Monday 6:00A-12:00A, Tuesday 6:00A-12:00A, Wednesday 6:00A-12:00A, Thursday 6:00A-12:00A, Friday 6:00A-12:00A, Saturday 6:00A-12:00A",,,
Giant,0312,5463 Wisconsin Avenue,Wisconsin Circle,Chevy Chase,MD,20815,United States,(240) 497-6100,,,"Sunday 6:00A-10:00P, Monday 6:00A-10:00P, Tuesday 6:00A-10:00P, Wednesday 6:00A-10:00P, Thursday 6:00A-10:00P, Friday 6:00A-10:00P, Saturday 6:00A-10:00P",,,
Giant,0123,7074 Allentown Rd.,Padgetts Corner,Camp Springs,MD,20748,United States,(301) 248-9578,,,"Sunday 6:00A-11:00P, Monday 6:00A-12:00A, Tuesday 6:00A-12:00A, Wednesday 6:00A-12:00A, Thursday 6:00A-12:00A, Friday 6:00A-12:00A, Saturday 6:00A-12:00A",,,
Super Giant,2301,15618 Columbia Pike,,Burtonsville,MD,20866,United States,(301) 476-7181,,,"Sunday 6:00A-11:00P, Monday 6:00A-12:00A, Tuesday 6:00A-12:00A, Wednesday 6:00A-12:00A, Thursday 6:00A-12:00A, Friday 6:00A-12:00A, Saturday 6:00A-12:00A",,,
Giant,0310,15520 Annapolis Road,Free State Mall,Bowie,MD,20715,United States,(301) 809-3150,,,"Sunday 6:00A-11:00P, Monday 6:00A-12:00A, Tuesday 6:00A-12:00A, Wednesday 6:00A-12:00A, Thursday 6:00A-12:00A, Friday 6:00A-12:00A, Saturday 6:00A-12:00A",,,
Giant,0330,3500 N.W. Crain Hwy,Collington Plaza,Bowie,MD,20716,United States,(301) 352-2360,,,"Sunday 6:00A-11:00P, Monday 6:00A-12:00A, Tuesday 6:00A-12:00A, Wednesday 6:00A-12:00A, Thursday 6:00A-12:00A, Friday 6:00A-12:00A, Saturday 6:00A-12:00A",,,
Giant,0117,6223 Baltimore National Pike,Giant Plaza,Catonsville,MD,21228,United States,(410) 788-8023,,,"Sunday 24 hours, Monday 24 hours, Tuesday 24 hours, Wednesday 24 hours, Thursday 24 hours, Friday 24 hours, Saturday 24 hours",,,
Giant,0357,5400 Westbard Ave.,Westwood Shopping Center,Bethesda,MD,20816,United States,(301) 652-1484,,,"Sunday 6:00A-11:00P, Monday 6:00A-12:00A, Tuesday 6:00A-12:00A, Wednesday 6:00A-12:00A, Thursday 6:00A-12:00A, Friday 6:00A-12:00A, Saturday 6:00A-12:00A",,,
Giant,0327,7142 Arlington Road,Bethesda Row West,Bethesda,MD,20814,United States,(301) 492-5160,,,"Sunday 6:00A-11:00P, Monday 6:00A-12:00A, Tuesday 6:00A-12:00A, Wednesday 6:00A-12:00A, Thursday 6:00A-12:00A, Friday 6:00A-12:00A, Saturday 6:00A-12:00A",,,
Giant,0359,45101 First Colony Way,First Colony,California,MD,20619,United States,(240) 725-5198,,,"Sunday 6:00A-11:00P, Monday 6:00A-12:00A, Tuesday 6:00A-12:00A, Wednesday 6:00A-12:00A, Thursday 6:00A-12:00A, Friday 6:00A-12:00A, Saturday 6:00A-12:00A",,,
Giant,0107,11701 Beltsville Dr.,Calverton,Beltsville,MD,20705,United States,(301) 572-4657,,,"Sunday 6:00A-11:00P, Monday 6:00A-12:00A, Tuesday 6:00A-12:00A, Wednesday 6:00A-12:00A, Thursday 6:00A-12:00A, Friday 6:00A-12:00A, Saturday 6:00A-12:00A",,,
Giant,0364,1401 Rock Spring Road,Rock Springs Shopping Center,Bel Air,MD,21014,United States,(410) 420-2960,,,"Sunday 6:00A-11:00P, Monday 6:00A-12:00A, Tuesday 6:00A-12:00A, Wednesday 6:00A-12:00A, Thursday 6:00A-12:00A, Friday 6:00A-12:00A, Saturday 6:00A-12:00A",,,
Giant,0303,601 East 33rd St.,Waverly Crossroads,Baltimore,MD,21218,United States,(410) 649-4180,,,"Sunday 6:00A-11:00P, Monday 6:00A-12:00A, Tuesday 6:00A-12:00A, Wednesday 6:00A-12:00A, Thursday 6:00A-12:00A, Friday 6:00A-12:00A, Saturday 6:00A-12:00A",,,
Super Giant,2306,1020 W 41st Street,,Baltimore,MD,21211,United States,(410) 554-3730,,,"Sunday 24 hours, Monday 24 hours, Tuesday 24 hours, Wednesday 24 hours, Thursday 24 hours, Friday 24 hours, Saturday 24 hours",,,
Giant,0352,3602 Milford Mill Rd.,Milford Mill,Baltimore,MD,21244,United States,(410) 655-1384,,,"Sunday 6:00A-11:00P, Monday 6:00A-12:00A, Tuesday 6:00A-12:00A, Wednesday 6:00A-12:00A, Thursday 6:00A-12:00A, Friday 6:00A-12:00A, Saturday 6:00A-12:00A",,,
Giant,0132,10400 Old Georgetown Rd.,Georgetown Square,Bethesda,MD,20814,United States,(301) 897-9139,,,"Sunday 24 hours, Monday 24 hours, Tuesday 24 hours, Wednesday 24 hours, Thursday 24 hours, Friday 24 hours, Saturday 24 hours",,,
Giant,0317,4624 Edmondson Avenue,Edmondson Square,Baltimore,MD,21229,United States,(410) 362-1371,,,"Sunday 6:00A-11:00P, Monday 6:00A-12:00A, Tuesday 6:00A-12:00A, Wednesday 6:00A-12:00A, Thursday 6:00A-12:00A, Friday 6:00A-12:00A, Saturday 6:00A-12:00A",,,
Giant,0197,7944 Honeygo Blvd.,White Marsh Mall,Baltimore,MD,21236,United States,(410) 931-6818,,,"Sunday 6:00A-11:00P, Monday 6:00A-12:00A, Tuesday 6:00A-12:00A, Wednesday 6:00A-12:00A, Thursday 6:00A-12:00A, Friday 6:00A-12:00A, Saturday 6:00A-12:00A",,,
Giant,0131,8665 Philadelphia Rd.,Golden Ring Mall,Baltimore,MD,21237,United States,(410) 687-1007,,,"Sunday 6:00A-11:00P, Monday 6:00A-12:00A, Tuesday 6:00A-12:00A, Wednesday 6:00A-12:00A, Thursday 6:00A-12:00A, Friday 6:00A-12:00A, Saturday 6:00A-12:00A",,,
Giant,0166,4622 Wilkens Ave.,Wilkens Beltway Plz,Baltimore,MD,21229,United States,(410) 242-4669,,,"Sunday 6:00A-11:00P, Monday 6:00A-12:00A, Tuesday 6:00A-12:00A, Wednesday 6:00A-12:00A, Thursday 6:00A-12:00A, Friday 6:00A-12:00A, Saturday 6:00A-12:00A",,,
Giant,0383,4303 Conn. Ave. N.W.,Van Ness,Washington,DC,20008,United States,(202) 364-8250,,,"Sunday 6:00A-11:00P, Monday 6:00A-12:00A, Tuesday 6:00A-12:00A, Wednesday 6:00A-12:00A, Thursday 6:00A-12:00A, Friday 6:00A-12:00A, Saturday 6:00A-12:00A",,,
Giant,0378,"1345 Park Road, N.W.",Tivoli Square,Washington,DC,20010,United States,(202) 777-1077,,,"Sunday 24 hours, Monday 24 hours, Tuesday 24 hours, Wednesday 24 hours, Thursday 24 hours, Friday 24 hours, Saturday 24 hours",,,
Giant,2376,1400 7th Street N.W.,,Washington,DC,20001,United States,(202) 238-0180,,,"Sunday 6:00A-11:00P, Monday 6:00A-12:00A, Tuesday 6:00A-12:00A, Wednesday 6:00A-12:00A, Thursday 6:00A-12:00A, Friday 6:00A-12:00A, Saturday 6:00A-12:00A",,,
Giant,2381,300 H Street NE,,Washington,DC,20002,United States,(202) 548-5100,,,"Sunday 6:00A-12:00A, Monday 6:00A-12:00A, Tuesday 6:00A-12:00A, Wednesday 6:00A-12:00A, Thursday 6:00A-12:00A, Friday 6:00A-12:00A, Saturday 6:00A-12:00A",,,
Giant,0375,1050 Brentwood Road,Brentwood,Washington,DC,20018,United States,(202) 281-3900,,,"Sunday 6:00A-11:00P, Monday 6:00A-12:00A, Tuesday 6:00A-12:00A, Wednesday 6:00A-12:00A, Thursday 6:00A-12:00A, Friday 6:00A-12:00A, Saturday 6:00A-12:00A",,,
