store_name,store_number,address,address2,city,state,zip_code,country,phone_number,latitude,longitude,store_hours,store_type,other_fields,coming_soon
Raymour & Flanigan,,2110 South Christopher Columbus Boulevard,,Philadelphia,PA,19148 ,US,(267) 773-5211,,,,,,
Raymour & Flanigan,,4640 Roosevelt Boulevard,,Philadelphia,PA,19124 ,US,(215) 533-5011,,,,,,
Raymour & Flanigan,,2100 Route 38 Mall Drive,,Cherry Hill,NJ,08002 ,US,(856) 321-1817,,,,,,
Value City,,1900 Route 70 East,,Lakewood,NJ,08701 ,US,(732) 262-2200,,,,,,
Raymour & Flanigan,,65 Baltimore Pike,,Springfield,PA,19064 ,US,(610) 338-2140,,,,,,
Raymour & Flanigan,,1450 Clements Bridge Road,,Deptford,NJ,08096 ,US,(856) 853-9400,,,,,,
Boscov's,,1750 Deptford Center Road,,Deptford,NJ,08096 ,US,(856) 686-1223,,,,,,
Boscov's,,400 West Route 38,,Moorestown,NJ,08057 ,US,(856) 231-1101,,,,,,
Raymour & Flanigan,,939 Old York Road,,Jenkintown,PA,19046 ,US,(215) 572-2461,,,,,,
Boscov's,,6001 Voorhees Town Center,,Voorhees,NJ,08043 ,US,(856) 772-6400,,,,,,
Raymour & Flanigan,,2200 Chemical Road,,Plymouth Meeting,PA,19462 ,US,(484) 567-2044,,,,,,
Boscov's,,500 West Germantown Pike,,Plymouth Meeting,PA,19462 ,US,(610) 825-8686,,,,,,
Raymour & Flanigan,,30 Franklin Mills Boulevard,,Philadelphia,PA,19154 ,US,(215) 501-0390,,,,,,
Boscov's,,1067 West Baltimore Pike,,Media,PA,19063 ,US,(610) 565-6009,,,,,,
Raymour & Flanigan,,371 West DeKalb Pike,,King of Prussia,PA,19406 ,US,(610) 337-8800,,,,,,
Raymour & Flanigan,,79 Route 73,,Voorhees,NJ,08043 ,US,(856) 753-1156,,,,,,
Gamburg's Furniture,,101-107 South York Road,,Hatboro,PA,19040 ,US,(215) 675-4080,,,,,,
Raymour & Flanigan,,427 Street Road,,Southampton,PA,18966 ,US,(215) 322-3800,,,,,,
Boscov's,,200 Neshaminy Mall,,Bensalem,PA,19020 ,US,(215) 953-5900,,,,,,
Raymour & Flanigan,,985 Bethlehem Pike,,Montgomeryville,PA,18936 ,US,(215) 661-8010,,,,,,
Raymour & Flanigan,,133 East 14th Street,,New York,NY,10003 ,US,(646) 652-0372,,,,,,
Sofas 'N More,,415 Park Avenue,,Brooklyn,NY,11205 ,US,(718) 599-7623,,,,,,
Raymour & Flanigan,,1961 Broadway,,New York,NY,10023 ,US,(646) 556-9390,,,,,,
Value City,,40 East 53rd Street,,Bayonne,NJ,07002 ,US,(201) 436-2000,,,,,,
Raymour & Flanigan,,440 Street Route 440 North,,Jersey City,NJ,07305 ,US,(201) 253-1781,,,,,,
Raymour & Flanigan,,48-18 Northern Boulevard,,Long Island City,NY,11101 ,US,(718) 393-5700,,,,,,
Raymour & Flanigan,,150 Harmon Meadow Boulevard,,Secaucus,NJ,07094 ,US,(201) 809-1353,,,,,,
Raymour & Flanigan,,6626 Metropolitan Avenue,,Middle Village,NY,11379 ,US,(718) 907-4687,,,,,,
Raymour & Flanigan,,86-08 Queens Blvd,,Elmhurst,NY,11373 ,US,(718) 663-6760,,,,,,
Raymour & Flanigan,,135 East 125th Street,,New York,NY,10035 ,US,(917) 386-6808,,,,,,
1 Stop Camera,,1870 Bath Avenue,,Brooklyn,NY,11214 ,US,(718) 249-1201,,,,,,
Furniture To Go,,2364 Flatbush Avenue,,Brooklyn,NY,11234 ,US,(718) 252-2005,,,,,,
Raymour & Flanigan,,2544 Flatbush Ave,,Brooklyn,NY,11234 ,US,(718) 513-2002,,,,,,
Raymour & Flanigan,,610 Exterior Street,,Bronx,NY,10451 ,US,(347) 577-8103,,,,,,
Raymour & Flanigan,,3035 Cropsey Ave,,Brooklyn,NY,11224 ,US,(718) 513-7382,,,,,,
Forest Furniture,,2172 Forest Avenue,,Staten Island,NY,10303 ,US,(718) 981-1100,,,,,,
Raymour & Flanigan,,168-23 Jamaica Avenue,,Jamaica,NY,11423 ,US,(646) 351-8842,,,,,,
Raymour & Flanigan,,2795 Richmond Avenue,,Staten Island,NY,10314 ,US,(718) 303-3568,,,,,,
Paradise Furniture,,217-14 Northern Blvd.,,Bayside,NY,11361 ,US,(718) 225-8072,,,,,,
Raymour & Flanigan,,200 Route 17 North,,Paramus,NJ,7652 ,US,(201) 649-9941,,,,,,
Walter E Smithe Furniture,,2009 N Clybourn - Lincoln Park,,Chicago,IL,60614 ,US,(773)528-7787,,,,,,
Marketware Technologies,,"5215 N Ravenswood, Suite 101",,Chicago,IL,60640 ,US,(773)728-8140,,,,,,
Carson Pirie Scott,,7601 S Cicero Ave,,Chicago,IL,60652 ,US,(773) 581-5555,,,,,,
Carson Pirie Scott,,7601 S. Cicero Ave.,,Chicago,IL,60652 ,US,(312)581-5555,,,,,,
Adam Furniture,,6815 W Archer Ave,,Chicago,IL,60638 ,US,(773)586-1900,,,,,,
Furniture City,,4300 N Harlem Ave,,Norridge,IL,60706 ,US,(708)453-6477,,,,,,
Carson Pirie Scott,,9700 S Western Ave,,Evergreen Park,IL,60805 ,US,(708) 636-1000,,,,,,
Furniture Outlet,,6709 West 73Rd St,,Bedford Park,IL,60638 ,US,(708) 458-6700,,,,,,
Ed Grice Furniture,,4455  Southwest Hwy,,Oak Lawn,IL,60453 ,US,(708) 636-2270,,,,,,
Crest Furniture,,16 North Catherine,,Lagrange,IL,60525 ,US,(708) 354-4455,,,,,,
Walter E Smithe Furniture,,9615 Skokie Blvd,,Skokie,IL,60077 ,US,(630) 285-8015,,,,,,
Comforts of Home Furniture,,8121 N Milwaukee_Ave,,Niles,IL,60714 ,US,(847)663-0100,,,,,,
Ed Grice Furniture,,6200 W 111Th St,,Chicago Ridge,IL,60415 ,US,(708) 422-9335,,,,,,
Carson Pirie Scott Furniture Gallery,,3232 Lake Ave Ste 330,,Wilmette,IL,60091 ,US,(847) 853-8092,,,,,,
Games and Things,,219 Wrightwood,,Elmhurst,IL,60126 ,US,(847)486-0400,,,,,,
Walter E Smithe Furniture,,1501 16Th Street,,Oak Brook,IL,60523 ,US,,,,,,,
Crest Furniture,,4601 W 138th St,,Crestwood,IL,60445 ,US,(708)597-6767,,,,,,
Abt,,1200 N Milwaukee Ave,,Glenview,IL,60025 ,US,(800)814-8023,,,,,,
Carson Pirie Scott Furniture Gallery,,2 Yorktown Mall,,Lombard,IL,60148 ,US,(630)268-0415,,,,,,
Carson Pirie Scott at Orland Park,,66 Orland Park Square,,Orland Park,IL,60462 ,US,(708) 873-3256_,,,,,,
Gallery Furniture,,6006 North Freeway,,Houston,TX,77076 ,US,(713) 694-5570,,,,,,
Pasadena Furniture,,1216 Center St,,Pasadena,TX,77506 ,US,(713) 473-1903,,,,,,
Furniture Traditions,,1702 East F.M. 1960 Bypass,,Humble,TX,77338 ,US,(281) 446-0001,,,,,,
Inside Story Interiors,,1133 Kingwood Drive,,Kingwood,TX,77339 ,US,(713) 358-8008,,,,,,
Heritage Interiors Inc,,2609 W Main,,Baytown,TX,77522 ,US,(281) 422-4430,,,,,,
Skero's Furniture & Mattress Center Inc.,,1317 Northpark Dr.,,Kingwood,TX,77339 ,US,(281)354-1929,,,,,,
Skero's,,1317 Northpark Dr.,,Kingwood,TX,77339 ,US,(218)354-1929,,,,,,
Texas Furniture Hut,,23922 Hwy 290W,,Cypress,TX,77429 ,US,(281) 205-9080,,,,,,
Texas Funriture Hut  Katy,,23811 Interstate 10 Frontage,,Katy,TX,77494 ,US,(832) 437-1165,,,,,,
Southern Home Furnishings,,25403 I-45 North,,The Woodlands,TX,77380 ,US,(281) 419-8688,,,,,,
Bartholet Home Furnishings,,11133 I-45 South,,Conroe,TX,77302 ,US,(979)539-5666,,,,,,
Liberty Mercantile Furniture,,820 Main Street,,Liberty,TX,77575 ,US,(936)336-1024,,,,,,
Wiggins Furniture,,5459 West Davis,,Conroe,TX,77304 ,US,(936) 441-1959,,,,,,
Crawford's Furniture,,4907 N Brzosport,,Clute,TX,77531 ,US,(979) 265-6145,,,,,,
Newcomb's Furniture,,935 12Th St,,Hempstead,TX,77445 ,US,(979) 826-2292,,,,,,
Rambo's Furniture,,1000 S Highway 288-B,,Clute,TX,77531 ,US,(979)265-2151,,,,,,
Turner-Pierce-Fultz,,604 W Washington Ave,,Navasota,TX,77868 ,US,(409) 825-6441,,,,,,
Crafts,,3510 7 TH Street,,Bay City,TX,77414 ,US,(979)265-6145,,,,,,
Select Furnishings,,2652 Hwy. 36 South,,Brenham,TX,77833 ,US,(979)830-8295,,,,,,
Ward Furniture and Flooring,,180 IH 45 South,,Huntsville,TX,77340 ,US,(936)295-2514,,,,,,
Paramont,,16450 Para,,Paramont,CA,90723 ,US,(562) 633-8841,,,,,,
Frank's Furniture,,16418 Hawthorne,,Lawndale,CA,90260 ,US,(310) 370-1607,,,,,,
NW Rugs,,14564 Ventura Boulevard,,Sherman Oaks,CA,91403 ,US,(818) 386-7847,,,,,,
Mac-Chim/ Design Center,,2321 W. Whittier Bl,,La Habra,CA,90631 ,US,(562)905-2044,,,,,,
Hector's fine Furniture,,341 E. Whittier Blvd,,La Habra,CA,90631 ,US,(562)691-2289,,,,,,
Furniture Depot,,601 W Arrow Hwy,,San Dimas,CA,91773 ,US,(909) 599-9501,,,,,,
Design Center Furniture,,606 W. Katella Ave.,,Orange,CA,92867 ,US,(714) 288-9421,,,,,,
Consumer's Furniture,,21048 Golden Triangle Rd,,Saugus,CA,91350 ,US,(661) 259-9609,,,,,,
Consumers Furniture,,21048 Golden Triangle Rd,,Saugus,CA,91350 ,US,(661) 259-9609,,,,,,
NW Rugs,,28610 Canwood Street,,Agoura Hills,CA,91301 ,US,(818) 706-3333,,,,,,
Home Expressions Furniture,,18228 Euclid St.,,Fountain Valley,CA,92708 ,US,(714) 549-2222,,,,,,
Sperlings,,277 E Palmdale Blvd,,Palmdale,CA,93550 ,US,(805) 947-0102,,,,,,
Mathis Brothers Furniture,,4105 East Inland Empire Blvd,,Ontario,CA,91764 ,US,(909) 919-2531,,,,,,
Mathis Brothers,,4105 E Inland Empire Blvd,,Ontario,CA,91764 ,US,(909) 919-2531,,,,,,
Premier Furniture,,1701 E Ventura Blvd.,,Oxnard,CA,93036 ,US,(805) 988-0877,,,,,,
Furniture Mart,,424 Orange Show Rd,,San Bernardino,CA,92408 ,US,(909) 885-7387,,,,,,
Inland Home Gallery,,999 South,,San Bernardino,CA,82408 ,US,(909) 889-5655,,,,,,
Sofas Etc,,3409 Telegraph,,Ventura,CA,93003 ,US,(805) 654-1200,,,,,,
Hi Desert Furniture,,15300 Palmdale Road,,Victorville,CA,92392 ,US,(760) 241-3500,,,,,,
Kerbys Furniture,,422 E Broadway,,Mesa,AZ,85204 ,US,(480) 834-3888,,,,,,
Lina Home Furnishings,,1487 N. Dysart Rd.,,Avondale,AZ,85323 ,US,(623)882-9232,,,,,,
Lina Home Furnishings,,1728 S. Greenfield Rd.,,Mesa,AZ,85206 ,US,(480)558-7232,,,,,,
Gerber's Furniture,,5200 E University Dr,,Mesa,AZ,85205 ,US,(480) 981-2520,,,,,,
At Home Furnishings,,2757 S. San Tan Village Parkway,,Gilbert,AZ,85295 ,US,(480)-726-7400,,,,,,
Kerbys Furniture,,9505 E Apache Trail,,Mesa,AZ,85207 ,US,(480) 984-2127,,,,,,
Rouds Fine Furniture,,107 East Highway 260,,Payson,AZ,85541 ,US,(928)474-3338,,,,,,
Sam Levitz,,3750 W Orange Grove Rd,,Tucson,AZ,85741 ,US,(520) 531-9905,,,,,,
Tucson Furniture Connexion,,"405 E Wetmore, #125",,Tucson,AZ,85705 ,US,(520)887-7535,,,,,,
Sam Levitz,,3430 E 36Th St,,Tucson,AZ,85713 ,US,(520) 624-7443,,,,,,
Home Furniture,,4775 El Cajon Blvd,,San Diego,CA,92115 ,US,(619)265-9056,,,,,,
One Stop,,9050 Kenamar,,San Diego,CA,92121 ,US,(858) 530-9991,,,,,,
Tuckers Valley Furniture,,906 E Main St,,El Cajon,CA,92021 ,US,(619) 442-9233,,,,,,
HomeLoft,,127 N Hwy 101,,Solana Beach,CA,92075 ,US,(858)481-7632,,,,,,
Furniture Superstore,,25310 Madison Ave,,Murrieta,CA,92562 ,US,(951)677-0225,,,,,,
Mathis Brothers Furniture,,81410 Hwy 111,,Indio,CA,92201 ,US,(760) 863-3563,,,,,,
Furniture Palace,,742 W Main St,,El Centro,CA,92243 ,US,(760) 353-7572,,,,,,
A Plus Furniture,,542 Main St,,Brawley,CA,92227 ,US,(760) 351-8990,,,,,,
Sam Levitz,,100 N Pantano Rd,,Tucson,AZ,85741 ,US,(520) 917-2410,,,,,,
The Furniture Barn,,503 W Clay Ave,,Flagstaff,AZ,86001 ,US,(928) 774-2752,,,,,,
Joy's Furniture,,3512 Lockwood Drive,,Lakeside,AZ,85929 ,US,(928) 368-5542,,,,,,
Foothills Mattress & Furniture,,11777 Fortuna Road,,Yuma,AZ,85367 ,US,(928) 342-6288,,,,,,
Showplace Fashion Furniture,,175 Lake Havasu Avenue North,,Lake Havasu City,AZ,86403 ,US,(928) 855-1212,,,,,,
Home Style Furniture,,112 N. 4Th St.,,Kingman,AZ,86401 ,US,(928)718-5500,,,,,,
Yturralde & Sons,,220 Imperial Ave,,Calexico,CA,92231 ,US,(760) 357-3781,,,,,,
Home Furniture,,207 S. Bullard,,Silver City,NM,88062 ,US,(505) 538-3767,,,,,,
Louis Shanks Of Austin,,11035 Ih 10 West,,San Antonio,TX,78230 ,US,(210) 691-1400,,,,,,
Class Covers & Color,,19026 Stone Oak Pkwy #220,,San Antonio,TX,78258 ,US,(210) 495-9244,,,,,,
Hoelschers Furniture Co,,1205 10Th St,,Floresville,TX,78114 ,US,(830) 393-2505,,,,,,
David Collum Interiors,,28295 Ih 10 West St 4,,Boerne,TX,78006 ,US,(830) 981-5471,,,,,,
North Carolina Furniture Direct,,2440 Interstate 135,,San Marcos,TX,78666 ,US,(512) 353-2200,,,,,,
Vogel Furniture,,117 W. Market St.,,Lockhart,TX,78644 ,US,(512)398-2825,,,,,,
Moore's Home Furnishings,,120 Harper Rd,,Kerrville,TX,78028 ,US,(830) 895-5311,,,,,,
Alyson Jon Interiors,,701 Capital of Texas Hwy South   Suite900,,Austin,TX,78746 ,US,(512)330-9766,,,,,,
Designer's Furniture Market,,3300 N Us Hwy 281,,Marble Falls,TX,78654 ,US,(830)798-8665,,,,,,
Louis Shanks Of Austin,,2930 W. Anderson Ln.,,Austin,TX,78757 ,US,(512) 451-6501,,,,,,
Town & Country Leather,,2438 West Anderson Lane,,Austin,TX,78757 ,US,(512) 419-0002,,,,,,
Linfield Designs,,2601 Mchale Ct Ste 100,,Austin,TX,78758 ,US,(512) 458-2137,,,,,,
Five Star Interiors,,10829 Jollyville Rd,,Austin,TX,78759 ,US,(512) 451-7870,,,,,,
November Design Group,,2016 Centimeter Circle,,Austin,TX,78758 ,US,(512) 302-0655,,,,,,
I D G Interiors,,12885 Hwy 183 N Ste 103,,Austin,TX,7875 ,US,(512) 918-2828,,,,,,
Aladdin Home Store,,2901 Hwy 281 N,,Marble Falls,TX,78654 ,US,(830)798-9800,,,,,,
Milton's Furniture,,206 N.W. Loop 230,,Smithville,TX,78957 ,US,(512)360-3262,,,,,,
Charlies Store,,820 Ford St,,Llano,TX,78643 ,US,(915) 247-4108,,,,,,
Annarella,,800 S. Austin Ave. Ste. A,,Georgetown,TX,78626 ,US,(512)864-9822,,,,,,
Chesnick Furniture,,116 W Juan Linn St,,Victoria,TX,77901 ,US,(361)578-3546,,,,,,
Weirs Furniture Village,,3219 Knox St.,,Dallas,TX,75205 ,US,(214)528-0321,,,,,,
Freeds Furniture,,4355 LBJ Freeway,,Dallas,TX,75244 ,US,(972) 233-6871,,,,,,
Bakers Main Street Furniture,,524 main st,,garland,TX,75040 ,US,(972) 276-5161,,,,,,
Garland Furniture,,500 Main St.,,Garland,TX,75040 ,US,(972)276-6637,,,,,,
Weirs Furniture Village,,5801 Preston Road,,Dallas,TX,75093 ,US,(972)403-7878,,,,,,
Stacy's Furniture,,7240 Plano Pkwy North,,Plano,TX,75024 ,US,(972)265-0122,,,,,,
Pete Jones Furniture,,607 W Division Street,,Arlington,TX,76011 ,US,(817)275-2755,,,,,,
Stacy's Furniture,,1900 S Main St.,,Grapevine,TX,76051 ,US,(817) 424-8800,,,,,,
Unclaimed Freight,,1841 W Division St,,Arlington,TX,76012 ,US,(817) 265-1591,,,,,,
Nebraska Furniture Mart,,5600 Nebraska Furniture Mart Drive,,The Colony,TX,75056 ,US,(972) 668-3000,,,,,,
Weirs Furniture Village,,201 N. Nolen Road,,Southlake,TX,76092 ,US,(817)-442-0321,,,,,,
Weir's Furniture,,201 N. Nolen Drive,,Southlake,TX,76092 ,US,(817) 442-0321,,,,,,
Unclaimed Freight,,7003 S Cooper,,Arlington,TX,76001 ,US,(817) 557-0007,,,,,,
Stacy's Furniture,,111 Central Expressway North Suite 110,,Allen,TX,75013 ,US,(214) 495-6800,,,,,,
Happys Furniture,,114 West Main St,,Waxahachie,TX,75165 ,US,(972) 937-4750,,,,,,
Sam's Appliance & Furniture,,5050 E Belknap St,,Haltom City,TX,76117 ,US,(817)665-5050,,,,,,
Sams Furniture,,5050 E. Belknap st,,Haltom City,TX,76117 ,US,(817)665-5050,,,,,,
Unclaimed Freight,,4850 Ne Loop 820,,Haltom City,TX,76117 ,US,(817) 281-3394,,,,,,
Hopkins Furniture,,1509 NW 28th St,,Fort Worth,TX,76164 ,US,(817) 624-8444,,,,,,
Kimberling Furniture,,215 NE Wilshire Blvd,,Burleson,TX,76028 ,US,(817)295-5044,,,,,,
Richter Furniture,,115 W. 3rd St.,,Taylor,TX,76574 ,US,(512)352-3212,,,,,,
Orsags Inc,,201 W Austin St,,Giddings,TX,78942 ,US,(409) 542-3168,,,,,,
Dubois Furniture,,1052 Canyon Creek Dr,,Temple,TX,76502 ,US,(254)774-9776,,,,,,
Ledger Furniture,,104 East Ave D,,Copperas Cove,TX,76522 ,US,(254) 547-1027,,,,,,
Furniture Market,,1381 - C East Hwy 40,,Kingsland,GA,31548 ,US,(912) 729-7222,,,,,,
Zbest Rentals,,2498 US-1,,St Augustine,FL,32086 ,US,(904) 824-9008,,,,,,
Folkston Furniture Co,,211 W Main St,,Folkston,GA,31537 ,US,(912) 496-2440,,,,,,
Home Trendz,,480 Palm Coast Parkway SW,,Palm Coast,FL,32137 ,US,(386) 597-4700,,,,,,
Etheridge Furniture,,1052 SW Main Blvd,,Lake City,FL,32025 ,US,(386) 752-2762,,,,,,
Farmers,,4655 Altama Ave,,Brunswick,GA,31520 ,US,(912) 264-0257,,,,,,
Leonard's Furniture,,3224 N.W. 13th Street,,Gainesville,FL,32609 ,US,(352) 373-7841,,,,,,
Furniture Market,,11 Glen Plaza,,Brunswick,GA,31525 ,US,(912) 262-9632,,,,,,
Farmers,,814 Hicks St.,,Waycross,GA,31501 ,US,(912) 283-8388,,,,,,
Hudson's Furniture,,445 South Yonge Street,,Ormond Beach,FL,32174 ,US,(386) 673-9619,,,,,,
Farmers,,55 Lakeview Dr.,,Homerville,GA,31634 ,US,(912) 487-1834,,,,,,
Hudson's Furniture,,3402 SW 36th Terrace,,Ocala,FL,34474 ,US,352-387-2350,,,,,,
Pearce's Furniture,,116 South Church St,,Odum,GA,31555 ,US,(912) 586-2271,,,,,,
Turner Furniture,,3385 N. Valdosta Rd,,Valdosta,GA,31602 ,US,(229)247-2455,,,,,,
Turner Furniture,,3385 N Valdosta Rd,,Valdosta,GA,31602 ,US,(229) 249-0181,,,,,,
Hudson's Furniture,,3290 West First Street,,Sanford,FL,32771 ,US,(407) 708-5635,,,,,,
Sims Furniture Galleries,,205 East Gulf to Lake Highway,,Lecanto,FL,34461 ,US,(352) 726-8282,,,,,,
Baers,,303 East Altamonte Drive,,Altamonte Springs,FL,32701 ,US,(417)618-8000,,,,,,
My Rooms Furniture Gallery,,780 King George Blvd.,,Savannah,GA,31419 ,US,800-338-8534,,,,,,
Town & Country,,901 W. Screven St.,,Quitman,GA,31643 ,US,(229)263-4222,,,,,,
Hank Coco's Downtown Furniture,,82 E. Santa Clara St.,,San Jose,CA,95113 ,US,(408)297-9486,,,,,,
Baker Brothers Furniture and Appliance,,55 Brennan Street,,Watsonville,CA,95076 ,US,(831)722-6116,,,,,,
Millbrae Furniture & Appliance,,1781 El Camino Real,,Millbrae,CA,94030 ,US,(650) 589-6455,,,,,,
Lane Home Furnishings of Brentwood,,6061 D Lone Tree Way,,Brentwood,CA,94513 ,US,(925) 516-7888,,,,,,
Lanzafame Furniture,,711 Railroad,,Pittsburg,CA,94565 ,US,(925)432-4757,,,,,,
American Furniture Gallery,,127 E Yosimite Ave,,Manteca,CA,95336 ,US,(209) 824-4555,,,,,,
Al's Furniture,,6340 Mchenry Ave,,Modesto,CA,95356 ,US,(209) 524-7533,,,,,,
Wood's,,4918 Taylor Rd,,Turlock,CA,95382 ,US,(209) 656-2392,,,,,,
American Wholesale,,430 So Franklin Road,,Indianapolis,IN,46219 ,US,(317) 357-1951,,,,,,
Kittles Rooms Express,,4650 E Southport Rd,,Indianapolis,IN,46250 ,US,(317) 885-8932,,,,,,
Kittle's Furniture,,665 Us 31 N,,Greenwood,IN,46142 ,US,(317) 888-1301,,,,,,
Kittle's Furniture,,8600 Allisonville Rd,,Indianapolis,IN,46250 ,US,(317) 849-5300,,,,,,
Kittles Studio,,8600 Allison Road,,Indianapolis,IN,99999 ,US,(317)849-1163,,,,,,
Kittle's Furniture,,8603 Allisonville Rd,,Indianapolis,IN,46250 ,US,(317) 579-0290,,,,,,
Kittles Outlet,,9810 Carney Drive,,Fishers,IN,46037 ,US,(317)915-1012,,,,,,
Rich's Furniture,,1030 S Rangeline Road,,Carmel,IN,46032 ,US,(317) 653-5936,,,,,,
Wayman's Furniture & Appliance,,990 Morton Ave,,Martinsville,IN,46151 ,US,(765) 342-4339,,,,,,
Elwood Furniture,,201 South Anderson Street,,Elwood,IN,46036 ,US,(765) 552-9000,,,,,,
Three Brothers Furniture,,3729 Sonoma Blvd,,Vallejo,CA,94589 ,US,(707) 644-4168,,,,,,
Shocks Home Furnishings,,395 A E. Monte Vista Ave.,,Vacaville,CA,95688 ,US,(707)448-2942,,,,,,
Valley Furniture,,380 Rohnert Park Express,,Rohnert Park,CA,94928 ,US,(707) 586-8836,,,,,,
Design House,,1015 Olive Drive,,Davis,CA,95616 ,US,(530) 758-4610,,,,,,
Barrons Furniture,,23 Ridge Rd,,Sutter Creek,CA,95685 ,US,(209) 223-0788,,,,,,
Sonora Trading Post,,730 S. Washington St,,Sonora,CA,95370 ,US,(209)532-4700,,,,,,
Heuser's Furnitrue,,37 S. Stewart St,,Sonora,CA,95370 ,US,(209)536-9834,,,,,,
Naturwood Home Furnishings,,12125 Folsom Blvd,,Rancho Cordova,CA,95742 ,US,(916) 351-0227,,,,,,
Hall's Furniture,,7752 Mariposa Ave,,Citrus Heights,CA,95610 ,US,(916) 725-6841,,,,,,
American Furniture Galleries,,6850 5 Star Blvd #1,,Rocklin,CA,95671 ,US,(916)786-9676,,,,,,
RC Willey - Rocklin,,6636 Lonetree Blvd.,,Rocklin,CA,95765 ,US,(916)770-2400,,,,,,
Affordable Furniture And Blinds,,55 Fair Lane,,Placerville,CA,95667 ,US,(530) 621-9566,,,,,,
Wilson Furniture,,14916 W Commerce Rd,,Daleville,IN,47334 ,US,(765) 378-1230,,,,,,
Curtis Brothers Furniture,,"597 US-52, Rushville, IN 46173",,Rushville,IN,46173 ,US,(765) 932-3366,,,,,,
Curtis Brothers Furniture,,597 East Us 52,,Rushville,IN,46173 ,US,(317) 932-3366,,,,,,
Brad's Furniture,,729 Washington St,,Columbus,IN,47201 ,US,(812) 372-9179,,,,,,
Quality Furniture & Appliance,,511 N. Memorial Drive,,New Castle,IN,47362 ,US,(765) 529-1848,,,,,,
Quality Furniture,,511 No. Memorial Drive,,New Castle,IN,47362 ,US,(765) 939-3325,,,,,,
Kittle's Furniture,,2849 Buick Cadillac Blvd,,Bloomington,IN,47401 ,US,(812) 333-1000,,,,,,
Lucas Home Furnishings,,96 W 300 S US 31 @ Center Rd.,,Kokomo,IN,46902 ,US,(765)453-0504,,,,,,
The Furniture Station,,217 West 6th Street,,Connersville,IN,47331 ,US,(765) 827-5741,,,,,,
kittles,,2659 Maple Point Drive,,Lafayette,IN,47905 ,US,(765)447-7001,,,,,,
Morris Home Furnishings,,3850 Morse Road,,Columbus,OH,43230 ,US,(614) 369-4550,,,,,,
Comfy Couch,,685 Commerce Court Drive,,Blacklick,OH,43004 ,US,(614) 655-5830,,,,,,
Dons Furniture,,1118 East Main Street,,Lancaster,OH,43130 ,US,(740) 653-2118,,,,,,
Kirks Furniture,,9 West Front Street,,New Holland,OH,43145 ,US,(740) 495-5181,,,,,,
Showplace Furniture Gallery,,153 West Court Street,,Washington Courthouse,OH,43160 ,US,(740) 333-5077,,,,,,
Willman Furniture,,215 North Main Street,,Urbana,OH,43078 ,US,(937) 653-7411,,,,,,
Fraziers Home Furniture,,30753 Lake Logan Road,,Logan,OH,43138 ,US,(740) 385-3183,,,,,,
Connells Furniture,,11359 Upper Gilchrist Road,,Mount Vernon,OH,43050 ,US,(740) 392-9116,,,,,,
Globe Furniture,,63 East Main Street,,Chillicothe,OH,45601 ,US,(740) 773-2890,,,,,,
Tanger Furniture,,216 West Columbus Avenue,,Bellfountaine,OH,43311 ,US,(419) 733-5736,,,,,,
Lower Valley Furniture,,5690 Lower Valley Pike,,Springfield,OH,45502 ,US,(937) 882-6342,,,,,,
Coconis Furniture,,4 South Maysville,,Zanesville,OH,43701 ,US,(740) 452-1231,,,,,,
Lloyd Furniture Co,,113 Main Street,,Bainbridge,OH,45612 ,US,(740) 634-2011,,,,,,
Rocky Shoes and Boots,,45 Canal Street,,Nelsonville,OH,45764 ,US,(740) 753-1951,,,,,,
Morris Home Furnishings,,2377 Commerce Boulevard,,Fairborn,OH,45324 ,US,(937) 874-7100,,,,,,
Naylor Furniture,,2291 West US-22,,Wilmington,OH,45177 ,US,(937) 382-3373,,,,,,
Nicholls Furniture,,7435 State Route 309,,Galion,OH,44833 ,US,(419) 468-1093,,,,,,
Elder-Beerman Furniture Gallery,,2727 N. Fairfield Commons Rd.,,Beavercreek,OH,45431 ,US,(937)-320-1400,,,,,,
Warren Furniture,,1583 North High Street,,Hillsboro,OH,45133 ,US,(937) 393-6880,,,,,,
Morris Home Furnishings,,2121 Harshman Road,,Dayton,OH,45424 ,US,(937) 910-7000,,,,,,
Curry's Furniture,,335 N Main St,,Lakeport,CA,95453 ,US,(707) 263-4415,,,,,,
Don's Furniture,,1531 Franklin Rd,,Yuba City,CA,95993 ,US,(530) 674-8746,,,,,,
American Furniture,,1165 Colusa Ave.,,Yuba City,CA,95991 ,US,(530)763-4140,,,,,,
Blacklion International,,10605 Park Road,,Charlotte,NC,28210 ,US,(704) 542-1620,,,,,,
Tucker Furniture & Appliance,,2501 US-24,,Midland,NC,28107 ,US,(704) 888-5531,,,,,,
Denver Shopping Center,,3785 North Highway 16,,Denver,NC,28037 ,US,(704) 483-2286,,,,,,
Merinos Home Furnishings,,500 South Main Street,,Mooresville,NC,28115 ,US,(704) 660-0445,,,,,,
Furniture Factory Outlet World,,8315 Lancaster Highway,,Waxhaw,NC,28173 ,US,(704) 843-2128,,,,,,
Carolina Furniture Mart,,644 North Aspen Street,,Lincolnton,NC,28092 ,US,(704) 735-1422,,,,,,
Pike Road Furniture,,307 North main Street,,Oakboro,NC,28129 ,US,(704) 485-5505,,,,,,
McGinnis Furniture Company,,303 East Main Street,,Cherryville,NC,28021 ,US,(704) 435-5436,,,,,,
Alman Furniture Company,,1281 Beechwood Drive,,Newton,NC,28658 ,US,(828) 464-3204,,,,,,
Norris Discount Merchandise,,2011 South Lafayette Steet,,Shelby,NC,28152 ,US,(704) 482-8464,,,,,,
Hickory Park Warehouse,,2220 US-70 South,,Hickory,NC,28601 ,US,(828) 322-4440,,,,,,
Dan Dill,,1022 Main Avenue Northwest,,Hickory,NC,28602 ,US,(828) 304-0741,,,,,,
Transit Damage Freight,,1604 South Main Street,,Lexington,NC,27292 ,US,(336) 248-2646,,,,,,
Mackie Furniture,,13 North Main Street,,Granite Falls,NC,28630 ,US,(828) 396-3313,,,,,,
Lindys Furniture,,673 US-70,,Connelly Springs,NC,28612 ,US,(828) 879-9732,,,,,,
Smokey Mountain Furniture Outlet,,3281 Hickory Blvd,,Hudson,NC,28638 ,US,(828) 572-2111,,,,,,
Sit & Sleep Company,,2200 Dunmore Court,,High Point,NC,27263 ,US,(336) 887-2000,,,,,,
Oak-Wood Furniture,,3800 Comanche Drive,,Archdale,NC,27263 ,US,(336) 861-6733,,,,,,
Furnitureland South,,5635 Riverdale Road,,Jamestown,NC,27282 ,US,(336) 822-3000,,,,,,
Kiger Furniture,,8195 Broad Street,,Rural Hall,NC,27045 ,US,(336) 969-9341,,,,,,
Leon's Furniture,,700 Division Road,,Windsor,ON,N9A 6Y1 ,CA,(519) 969-7403,,,,,,
Coulters Furniture,,1324 Windsor Ave,,Windsor,ON,N8X 3L9 ,CA,(519)-253-7422,,,,,,
Coulters,,1324 Windsor Ave,,Windsor,ON,N8X 3L9 ,CA,(519) 253-7422,,,,,,
Sears Windsor Home Store,,3051 Legacy Park Drive,,Windsor,ON,N8W 5S6 ,CA,(519) 967-0121,,,,,,
White Furniture,,3025 Biddle Avenue,,Wyandotte,MI,48192 ,US,(734) 282-2155,,,,,,
Fenton Home Furnishings,,5321 Dixie Highway,,Waterford,MI,48329 ,US,(248) 623-6831,,,,,,
Tyner's Furniture,,3900 South State Road,,Ann Arbor,MI,48108 ,US,(734) 995-3900,,,,,,
Tom and Als Furniture,,25 Lisgar St,,Wallaceburg,ON,N8A 4A5 ,CA,(519)627-1277,,,,,,
Tom & Al's,,25 Lisgar St,,Wallaceburg,ON,N8A 4A5 ,CA,(519) 627-1277,,,,,,
Leon's Chatham Kent,,Hwy 40 North,,Chatham Kent,ON,N7M 5W8 ,CA,(519) 351-4616,,,,,,
Chatham Kent Interiors,,595 St. Clair Street,,Chatham,ON,N7L 3L3 ,CA,(519)351-4444,,,,,,
Fenton Home Furnishings,,1136 North Leroy Street,,Fenton,MI,48430 ,US,(810) 629-0650,,,,,,
Gladieux Lumber & Supply,,5520 Navarre Avenue,,Oregon,OH,43616 ,US,(419) 693-0601,,,,,,
Fenton Home Furnishings,,2048 North Lapeer Road,,Lapeer,MI,48446 ,US,(810) 667-4553,,,,,,
Ben's Furniture,,314 Huron Avenue,,Port Huron,MI,48060 ,US,(810) 984-4215,,,,,,
Skaff Furniture,,5301 Hill 23 Drive,,Flint,MI,48507 ,US,(810) 767-1380,,,,,,
Bryenton's Furniture,,1410 London Rd,,Sarnia,ON,N7S 1P7 ,CA,(519) 542-1251,,,,,,
Macdonald's Countrywide,,206518 Hwy 26 East,,Meaford,ON,N7S 1P7 ,CA,(519)538-1620,,,,,,
Leon's Furniture,,1000 Barclay Drive,,Sarnia,ON,N7S 6M5 ,CA,(519) 542-6560,,,,,,
The Andersons,,530 Illinois Avenue,,Maumee,OH,43537 ,US,(419) 891-2700,,,,,,
Swans Furniture & Gifts,,3712 U S Hwy 64,,Marion,AR,72364 ,US,(870) 739-3614,,,,,,
Rowsey Furniture,,1160 Stateline Rd E,,Southaven,MS,38671 ,US,(601) 342-9060,,,,,,
Home Furnishing Of Southhaven,,176 Goodman Rd,,Southaven,MS,38671 ,US,(662) 349-0774,,,,,,
Royal Furniture,,725 Goodman Rd,,Southhaven,MS,38671 ,US,(662) 234-0725,,,,,,
Private Collection,,8793 Midsouth Ave,,Olive Branch,MS,38654 ,US,(662) 893-0233,,,,,,
Galleria Furniture,,139 Wesley Reed Drive,,Atoka,TN,38004 ,US,(901) 837-9885,,,,,,
Mccrary's,,425 W Main St,,Senatobia,MS,38668 ,US,(662) 562-7661,,,,,,
Hubbard & Hoke Furniture,,924 W Keiser Ave,,Osceola,AR,72370 ,US,(870) 563-2523,,,,,,
Larands Inc,,555 N Falls Blvd,,Wynne,AR,72396 ,US,(501) 238-3279,,,,,,
Parker Furniture Co,,206 N Washington St,,Forrest City,AR,72335 ,US,(870) 633-3505,,,,,,
Guy's Discount,,Hwy 63 N,,Trumann,AR,72472 ,US,(870) 483-5921,,,,,,
Gamble Home Furnishings,,302 Hwy 18 Bypass,,Manila,AR,72442 ,US,(870) 561-3353,,,,,,
West Helena Furniture,,133 Plaza,,Helena,AR,72335 ,US,(870) 572-3737,,,,,,
Hubbard & Hoke Furniture,,401 W Main St,,Blytheville,AR,72315 ,US,(870) 763-4409,,,,,,
Rowsey Furniture,,6003 Dalton Farmer,,Jonesboro,AR,72404 ,US,(870) 934-8088,,,,,,
FFO Home,,2839 Race St.,,Jonesboro,AR,72401 ,US,(870) 277-2898,,,,,,
J Wade Quinn,,3007 Prosperity Dr,,Jonesboro,AR,72404 ,US,(870) 932-5662,,,,,,
Cole Furniture,,1801 Grant Ave,,Jonesboro,AR,72401 ,US,(870) 268-0899,,,,,,
Hanks Fine Furniture,,1808 Highland,,Jonesboro,AR,72401 ,US,(870)931-0324,,,,,,
Gambles Home Furnishings,,5036 hwy 49 North,,Jonesboro,AR,72401 ,US,(870) 340-2070,,,,,,
Gabbert's,,6301 Oakmont,,Fort Worth,TX,76132 ,US,(817) 346-5625,,,,,,
Unclaimed Freight,,1500 Northwest Loop 820,,Ft. Worth,TX,76108 ,US,(817) 246-6058,,,,,,
Unclaimed Freight,,9320 S Frwy I 35,,Fort Worth,TX,76140 ,US,(817) 568-0495,,,,,,
Adams Furniture,,417 North Hwy 156,,Justin,TX,76247 ,US,(940) 648-3145,,,,,,
Willhite Mattress,,1501 Fort Worth Hwy,,Weatherford,TX,76086 ,US,(817) 594-7216,,,,,,
Willhite Furniture,,1501 Ft. Worth HWY,,Weatherford,TX,76086 ,US,(817)596-7899,,,,,,
Lane's Furniture,,616 Fall Creek Hwy.,,Granbury,TX,76049 ,US,(817)326-6203,,,,,,
American Furniture Outlet,,1025 E. Missouri Ave.,,El Paso,TX,79902 ,US,(915) 771-7447,,,,,,
Charlotte's Inc,,5411 N Mesa,,El Paso,TX,79912 ,US,(915) 581-1111,,,,,,
Daws Home Furniture,,7714 Gateway East,,El Paso,TX,79915 ,US,(915) 594-3030,,,,,,
Regis-Bernard,,1446 N. Lee Trevino,,El Paso,TX,79936 ,US,(915) 598-6100,,,,,,
Pavelka Sleep & Furniture,,2801 Sudderth Drive,,NM Ruidoso,NM,88345 ,US,(575) 630-1234,,,,,,
Jenkins Furniture Co Inc,,2320 W Pierce St,,Carlsbad,NM,88220 ,US,(575) 887-5198,,,,,,
Skeen Furniture Co,,321 S Canyon,,Carlsbad,NM,88220 ,US,(575) 887-1106,,,,,,
Maupins/Terry's Electronic,,1211 W Main,,Artesia,NM,88210 ,US,(505) 748-1301,,,,,,
W W Christophers,,114 E El Paso St,,Marfa,TX,79843 ,US,(432) 729-4571,,,,,,
Mitchell's Furniture,,509 E. Holland,,Alpine,TX,79830 ,US,(432)837-0070,,,,,,
Mckays,,115 E Winkler St,,Kermit,TX,79745 ,US,(915) 586-3740,,,,,,
Mckays,,212 E Sealy Ave,,Monahans,TX,79756 ,US,(915) 943-2535,,,,,,
American Furniture-Albquerque,,3535 Menaul Blvd NE,,Albuquerque,NM,87107 ,US,(505) 883-2211,,,,,,
American Home,,"3535 Menaul BLVD, NE",,Abq,NM,87107 ,US,(505)883-2498,,,,,,
American Home,,3535 Menaul Blvd Ne,,Albuquerque,NM,87107 ,US,(505) 883-2211,,,,,,
American Warehouse Plus,,801 Comanche Ne,,Albuquerque,NM,87107 ,US,(505) 761-3200,,,,,,
McMINN's FURNITURE,,3323 Andrews Hwy,,Odessa,TX,79762 ,US,(432) 550-2338,,,,,,
Domain,,4610 B 1 N Garfield,,Midland,TX,79705 ,US,(915) 570-7049,,,,,,
Ashbrook Furniture,,168 Daniel Webster Highway,,Nashua,NH,03060 ,US,(603) 888-4480,,,,,,
Raymour & Flanigan,,1360 South Washington Street,,North Attleboro,MA,02760 ,US,(508) 316-2091,,,,,,
Cardi's Furniture,,999 Newport Avenue,,South Attleboro,MA,02703 ,US,(508) 915-5600,,,,,,
Seacoast Furniture,,845 Lafayette Road,,Seabrook,NH,03874 ,US,(603) 474-2323,,,,,,
O'Shea's  Furniture,,113 Singletary Avenue,,Sutton,MA,1590 ,US,(508) 865-6385,,,,,,
Raymour & Flanigan,,100 Highland Avenue,,Seekonk,MA,02771 ,US,(508) 336-6400,,,,,,
Cardi's Furniture,,1 Furniture Way,,Swansea,MA,02777 ,US,(508) 379-7500,,,,,,
Ashbrook Furniture,,5 Driving Park Road,,Manchester,NH,03103 ,US,(603) 644-5500,,,,,,
Rome Furniture Center,,562 Main Street,,Gardner,MA,1440 ,US,(978) 632-0687,,,,,,
Raymour & Flanigan,,444 Quaker Lane,,Warwick,RI,02886 ,US,(401) 589-2053,,,,,,
Cardi's Furniture,,1681 Quaker Lane,,West Warwick,RI,02893 ,US,(401) 826-5600,,,,,,
Country Homes,,2755 Boston Road,,Wilbraham,MA,01095 ,US,(413) 599-0225,,,,,,
Plotkin Wayside Furniture,,93 Park Avenue,,Keene,NH,03431 ,US,(603) 352-4334,,,,,,
Raymour & Flanigan,,665 Boston Road,,Springfield,MA,1119 ,US,(413) 796-8382,,,,,,
Leader Furniture,,237 Central Avenue,,Norwich,CT,06360 ,US,(860) 887-1666,,,,,,
Gorin's Furniture,,49 New London Turnpike,,Norwich,CT,06360 ,US,(860) 887-2579,,,,,,
Raymour & Flanigan,,895 Riverdale Street,,West Springfield,MA,1089 ,US,(413) 726-9990,,,,,,
Raymour & Flanigan,,50 Hale Road,,Manchester,CT,6040 ,US,(860) 648-2988,,,,,,
Raymour & Flanigan,,917 Hartford Turnpike,,Waterford,CT,06385 ,US,(860) 437-3684,,,,,,
Raymour & Flanigan,,490 New Park Avenue,,West Hartford,CT,06110 ,US,(860) 586-8233,,,,,,
Commercial Office Interiors,,2601 4th Ave. No. 700,,Seattle,WA,98121 ,US,(206) 448-7333,,,,,,
Legacy Group,,820 SW 34th St. H,,Renton,WA,98057 ,US,(206) 217-0310,,,,,,
Josh Underhill's Family Furniture,,3930 196th St. SW,,Lynnwood,WA,98036 ,US,(425) 775-7331,,,,,,
Arnold's Furniture,,3520 Kitsap Way,,Bremerton,WA,98337 ,US,(360) 377-5582,,,,,,
Behar's Furniture,,2105 Broadway,,Everett,WA,98201 ,US,(425) 259-7149,,,,,,
The Old Cannery Furniture & Mattress Warehouse,,13608 Valley Ave. East,,Sumner,WA,98390 ,US,(253) 863-0422,,,,,,
Harkness Furniture,,6612 S. Tacoma Way,,Tacoma,WA,98409 ,US,(253) 473-1234,,,,,,
Allen's Furniture Gallery,,1721 Cole St,,Enumclaw,WA,98022 ,US,(360) 825-5016,,,,,,
Pepninsula Floors and Furnishings,,2405 W. Sims Way,,Port Townsend,WA,98368 ,US,(360) 385-0945,,,,,,
Olsen Furniture,,414 W. Franklin St.,,Shelton,WA,98584 ,US,(360) 426-4702,,,,,,
Selden's Fine Home Furnishings,,220 Legion Way SE,,Olympia,WA,98501 ,US,(360) 357-5531,,,,,,
Christensen Department Store,,16628 Highway 507,,Yelm,WA,98597 ,US,(360) 458-3621,,,,,,
Lyon's Furniture and Sleep Center,,325 S. 1st St.,,Mount Vernon,WA,98273 ,US,(360) 336-3007,,,,,,
Hansen's Furniture,,1101 W. Division St.,,Mount Vernon,WA,98273 ,US,(360) 424-7188,,,,,,
Angeles Furniture Co,,1114 E First St,,Port Angeles,WA,98362 ,US,(360) 457-9412,,,,,,
Mountain Elegance Home Furnishing and Design,,603 E. 1st St.,,Cle Elum,WA,98922 ,US,(509) 674-0111,,,,,,
Hudson's Bay,,1150 Douglas Street,,Victoria,BC,V8Z 2C8 ,CA,,,,,,,
Sears Victoria Home Store,,Island Home Centre - 800 Tolmie Ave.,,Victoria,BC,V8X 3W4 ,CA,(250) 380-7100,,,,,,
Lane furniture,,758 cloverdale ave.,,victoria,BC,V8X 2S7 ,CA,(250)384-5263,,,,,,
Griffith Furniture,,2501 Meridian Ave,,Bellingham,WA,98225 ,US,(360) 734-3730,,,,,,
B F Myers Furniture,,117 French Street,,Goodlettsville,TN,37072 ,US,(615) 859-1301,,,,,,
Stewart Williams Furniture,,801 Memorial Boulevard,,Springfield,TN,37172 ,US,(931) 433-6172,,,,,,
Quality Furniture,,745 Old Fort Parkway,,Murfreesboro,TN,37130 ,US,(615) 896-3888,,,,,,
Comfort Home Furnishings,,720 East College Street,,Dickson,TN,37055 ,US,(615) 446-8029,,,,,,
Rooms For Less,,141 Old Trenton Road,,Clarksville,TN,37040 ,US,(931) 542-5899,,,,,,
Rooms For Less,,2168 Fort Campbell Boulevard,,Clarksville,TN,37042 ,US,(931) 552-0001,,,,,,
Coble Furniture Center,,1028 Nashville Highway,,Lewisburg,TN,37091 ,US,(931) 359-5033,,,,,,
Jennifers Discount Gifts & Furniture,,2757 Highway 70 East,,Waverly,TN,37185 ,US,(931) 296-4980,,,,,,
Cantrell Furniture & Appliance,,638 West Broad Street,,Smithville,TN,37166 ,US,(615) 597-7871,,,,,,
Barr's Furniture,,643 Beersheba Highway,,McMinnville,TN,37110 ,US,(931) 837-0531,,,,,,
Standard Furniture Company,,212 South Main Avenue,,Fayetteville,TN,37334 ,US,(931) 433-6172,,,,,,
Bradley Furniture,,125 South Broad Street,,Cookeville,TN,38501 ,US,(931) 526-3220,,,,,,
Mattress Select Plus,,1590 B East Spring Street,,Cookeville,TN,38506 ,US,(931) 528-7389,,,,,,
Morgan Furniture TV & Appliance,,570 North Spring Street,,Sparta,TN,38583 ,US,(931) 836-3111,,,,,,
Eddies Furniture & Appliance,,166 West Main Street,,Camden,TN,38320 ,US,(731) 584-4757,,,,,,
Rooms For Less,,2608 Fort Campbell Boulevard,,Hopkinsville,KY,42240 ,US,(270) 885-7676,,,,,,
Story & Lee Furniture,,2409 Highway 43 South,,Leoma,TN,38468 ,US,(931) 852-2111,,,,,,
Rab Shelton Furniture,,27032 Main Street,,Ardmore,AL,38449 ,US,(256) 423-6800,,,,,,
Boaz Furniture & Appliance,,95 Tennessee Avenue South,,Parsons,TN,38363 ,US,(731) 847-3491,,,,,,
Barnett & Swann Furniture,,22875 US-72 East,,Athens,AL,35613 ,US,(256) 233-7681,,,,,,
Furniture Row,,5430 Bannock Street,,Denver,CO,80216 ,US,,,,,,,
Broyhill Home Collections,,23901 East Orchard Road,,Aurora,CO,80016 ,US,(303) 360-9653,,,,,,
Loveland furniture & Décor,,125 14th Street Southeast,,Loveland,CO,80537 ,US,(970) 461-5790,,,,,,
American Furniture Galleries,,3212 E Platte Ave,,Colorado Springs,CO,80909 ,US,(719) 632-6621,,,,,,
The Broyhill Gallery,,345 S. Academy Blvd.,,Colorado Springs,CO,80909 ,US,(719) 550-9565,,,,,,
Fort Morgan Furniture,,218 Main Street,,Fort Morgan,CO,80701 ,US,(970) 867-5811,,,,,,
Furniture Mart,,505 Main Street,,Fort Morgan,CO,80701 ,US,(970)867-4609,,,,,,
Valley Home Furnishings,,28362 County Rd 317,,Buena Vista,CO,81211 ,US,(719) 395-2420,,,,,,
Furniture Factory Outlet,,3151 Nationway,,Cheyenne,WY,82001 ,US,(307) 634-9047,,,,,,
Furniture Mart,,605 N 3Rd,,Sterling,CO,80751 ,US,(303) 522-1122,,,,,,
Ollijurts Cash & Carry,,605 North 3rd Street,,Sterling,CO,80751 ,US,(970) 425-2242,,,,,,
Clure Brothers,,509 S 2Nd St,,Laramie,WY,82070 ,US,(307) 721-0100,,,,,,
Back at the Ranch Home Furnishings,,100 West Spencer Ave.,,Gunnison,CO,81230 ,US,(970)641-0727,,,,,,
Back At The Ranch,,100 Spencer Ave,,Gunnison,CO,81230 ,US,(970) 641-2131,,,,,,
Steffens Home Interiors,,929 Jackson,,Sidney,NE,69162 ,US,(308) 254-2656,,,,,,
La Junta Furniture,,601 E 1St St,,La Junta,CA,81050 ,US,(719) 384-2061,,,,,,
The Furniture Gallery of Craig,,385 Ranney St.,,Craig,CO,81625 ,US,(970)824-2668,,,,,,
Furniture Connection,,1111 W Victory Way S,,Craig,CO,81625 ,US,(970) 826-2684,,,,,,
West Home Center/Radioshack,,230 Grand Ave.,,Paonia,CO,81428 ,US,(970)527-4995,,,,,,
Cabela's Store,,602 Second Street,,Chappell,NE,69129 ,US,(308) 874-2248,,,,,,
Shleifer,,509 Se Grand,,Portland,OR,97214 ,US,(503) 234-7286,,,,,,
Kuhnhausen's Furniture Showcase,,2640 E.  Burnside,,Portland,OR,97214 ,US,(503) 234-6630,,,,,,
The Chair Outlet,,7332 SE Powell Blvd.,,Portland,OR,97206 ,US,(503) 777-1838,,,,,,
Banner Furniture Outlet,,8114 SE Division,,Portland,OR,97206 ,US,(503) 775-4124,,,,,,
NW Rugs,,2100 North Hayden Island Drive,,Portland,OR,97217 ,US,(503) 285-7847,,,,,,
The Chair Outlet,,9285 SW Greenburg Rd.,,Tigard,OR,97223 ,US,(503) 639-5911,,,,,,
The  Chair Outlet,,9285 S.W. Greenburg Road,,Tigard,OR,97223 ,US,(503)-639-5911,,,,,,
NW Rugs,,16305 Northwest Cornell Road,,Beaverton,OR,97006 ,US,(503) 645-7847,,,,,,
Michael's Fine Furniture,,2011 NE 181st Ave.,,Portland,OR,97230 ,US,(503) 674-0414,,,,,,
Furniture Connexion,,18188 NE Wilkes Rd.,,Gresham,OR,97230 ,US,(503) 674-4488,,,,,,
Furniture World/Quality Designs,,7017 NE St. John's Road,,Vancouver,WA,98665 ,US,(360) 694-4006,,,,,,
Amiton Furniture,,202 N Main Ave,,Gresham,OR,97030 ,US,(503) 665-5095,,,,,,
Banner Furniture,,4871 Se Tualatin Val,,Hillsboro,OR,97123 ,US,(603) 648-6028,,,,,,
NW Rugs,,29735 Southwest Towncenter Loop West,,Wilsonville,OR,97070 ,US,(503) 682-7847,,,,,,
Clemmer's Furniture,,10070 Se Orient Dr,,Boring,OR,97009 ,US,(503) 663-4950,,,,,,
Johnson Fine Furniture,,206 E 1St St,,Newberg,OR,97132 ,US,(503) 538-4513,,,,,,
Richardson's,,2015 Columbia Blvd,,St Helens,OR,97051 ,US,(503) 397-1329,,,,,,
Flomer Furniture,,607 N Front St,,Woodburn,OR,97071 ,US,(503) 981-7291,,,,,,
Flomer,,607 N. Front St.,,Woodburn,OR,97071 ,US,(503) 981-7291,,,,,,
Lewis Furniture,,1250 Ne Lafayette Ave,,Mcminneville,OR,97128 ,US,(503) 472-8031,,,,,,
NW Rugs,,7570 Dean Martin Drive,,Las Vegas,NV,89139 ,US,(702) 737-7847,,,,,,
Designer Furniture Gallery,,170 N 400 E,,St George,UT,84770 ,US,(435) 673-2323,,,,,,
Stout's Home Furnishings,,1065 W State St,,Hurricane,UT,84737 ,US,(435)635-4685,,,,,,
Mom's Furniture,,741 N China Lake Blv,,Ridgecrest,CA,93555 ,US,(760) 371-1048,,,,,,
Kanab Furniture,,681 Chinle Drive,,Kanab,UT,84741 ,US,(435) 644-5086,,,,,,
Haus & Home,,42168 Big Bear Blvd,,Big Bear,CA,92315 ,US,(909) 866-2621,,,,,,
Fendon's Furniture,,175 E Pine St,,Bishop,CA,93514 ,US,(760) 873-4698,,,,,,
Lake Powell Furniture,,625 Elm Street,,Page,AZ,86040 ,US,(928) 645-3963,,,,,,
American Home,,901 St. Michael'S Drive,,Santa Fe,NM,87505 ,US,(505)988-4502,,,,,,
American Home,,901 Saint Michaels Rd,,Santa Fe,NM,87505 ,US,(505) 988-4502,,,,,,
Prices Furniture,,607 Douglas Ave,,Las Vegas,NM,87701 ,US,(505)425-7398,,,,,,
American Home,,1001 W Broadway,,Farmington,NM,87401 ,US,(505) 326-3393,,,,,,
American Home,,1001 W. Broadway,,Farmington,NM,87401 ,US,(505)326-3393,,,,,,
Terrys Ace Hardware & Furniture,,525 Navajo Trails Drive,,Pagosa Springs,CO,81147 ,US,(970) 731-4022,,,,,,
Pagosa Mountain Home,,12 Goldmine Drive,,Pagosa Springs,CO,81147 ,US,(970) 264-4154,,,,,,
Carney Sales Furniture,,609 Hwy 10 West,,Rio Grande,LA,70424 ,US,(985) 732-3795,,,,,,
Northpoint Home Furnishings,,1315 Main Ave.,,Durango,CO,81301 ,US,(970)247-2959,,,,,,
Town and Country Furnishings,,38 N Linden St,,Cortez,CO,81321 ,US,(970)565-8187,,,,,,
Biltrite Furniture,,5430 West Layton Avenue,,Greenfield,WI,53220 ,US,(414) 238-2020,,,,,,
Colder's Furniture,,333 South 108th,,West Allis,WI,53214 ,US,(414) 476-1574,,,,,,
Boston Store Furniture,,5300 S 76Th St,,Greendale,WI,53129 ,US,(414) 423-0800,,,,,,
Boston Store Furniture Gallery,,18615 W Bluemound Rd,,Brookfield,WI,53045 ,US,(262) 827-8898,,,,,,
Colder's Furniture,,2600 W. Washington,,Grafton,WI,53024 ,US,(262)376-1574,,,,,,
The Furniture Store,,566 State St.,,Racine,WI,53402 ,US,(262)770-4014,,,,,,
Wilk Furniture,,419 Third Street,,Random Lake,WI,53075 ,US,(920) 994-9965,,,,,,
W G & R Furniture,,3640 Greenwing Drive,,Sheboygan,WI,53081 ,US,(866) 387-6179,,,,,,
Rudolph's Furniture,,11 S Rte 83,,Grayslake,IL,60030 ,US,(847) 223-5497,,,,,,
Plymouth Furniture,,2133 Eastern Ave,,Plymouth,WI,53073 ,US,(920) 892-6006,,,,,,
Younker's,,727 N 8th ST,,Sheboygan,WI,53081 ,US,(920) 457-3611,,,,,,
Boston Store,,727 N. 8th St.,,Sheboygan,WI,53081 ,US,(920)457-3611,,,,,,
Daz Furniture,,801 E Park Ave,,Libertyville,IL,60048 ,US,(847)996-0800,,,,,,
Carson Pirie Scott-Hawthorn Gallery,,480 Ring Drive,,Vernon Hill,IL,60061 ,US,(847)367-5851,,,,,,
Allure Furniture & Mattress,,2520 IL Rt 176,,Prairie Grove,IL,60012 ,US,(815) 788-7400,,,,,,
Walter E Smithe Furniture,,280 S Milwaukee Ave,,Vernon Hills,IL,60061 ,US,(847)821-9520,,,,,,
Donahue Furniture Co,,1345 S Eastwood Dr,,Woodstock,IL,60098 ,US,(815) 338-1086,,,,,,
W G & R Furniture,,50 North Main Street,,Fond du Lac,WI,54935 ,US,(866) 387-6183,,,,,,
Follett Furniture,,825 Main St,,Lewiston,ID,83501 ,US,(208) 743-0177,,,,,,
Wilcox Furniture,,254 W Hermiston Ave,,Hermiston,OR,97838 ,US,(541) 567-2201,,,,,,
Star Furniture,,130 S. Holladay,,Seaside,OR,97138 ,US,(503) 738-8999,,,,,,
McHugh's Furnniture,,522 Simpson Ave.,,Hoquiam,WA,98550 ,US,(360) 532-2434,,,,,,
Meredith Furniture,,2201 S. 1st. St.,,Yakima,WA,98903 ,US,(509) 452.6221,,,,,,
Hampton Furniture,,306 E 2Nd St,,The Dalles,OR,97058 ,US,(541) 296-4646,,,,,,
Saundra's Furniture and Design,,279 S. Main St.,,Colville,WA,99114 ,US,(509) 684-4491,,,,,,
Sylvan Furniture Co,,815 Main St,,Lewiston,ID,83501 ,US,(208) 743-8600,,,,,,
Life Furniture and Mattress,,1801 12th Street,,Hood River,OR,97031 ,US,(541) 386-1513,,,,,,
Furniture West,,117 W Broadway Ave,,Moses Lake,WA,98837 ,US,(509) 765-7521,,,,,,
Beaver's Furniture,,123 Vista Way,,Kennewick,WA,99336 ,US,(509) 586-9158,,,,,,
Murray's Auction Center,,105 Tucker Road,,Hood River,OR,97031 ,US,(541) 386-2443,,,,,,
Design Effects,,236 E. Main St.,,Pullman,WA,99163 ,US,(509) 332-8000,,,,,,
Elam's :Home Furnishings,,1413 Commerce Ave.,,Longview,WA,98632 ,US,(360) 575-9804,,,,,,
Shaw's Furniture & Appliance,,512 N. Pearl St.,,Ellensburg,WA,98926 ,US,(509) 925-1475,,,,,,
Fitterer's Furniture,,114 W 4th Ave,,Ellensburg,WA,98926 ,US,(509) 925-9828,,,,,,
United Furniture Warehouse,,110 W. Stuart Road,,Bellingham,WA,98226 ,US,(360) 756-1122,,,,,,
Noble's Furniture,,717 Yakima Valley Hwy,,Sunnyside,WA,98944 ,US,(509) 837-5362,,,,,,
Wilcox Furniture,,1907 Sw Emigrant,,Pendleton,OR,97801 ,US,(541) 276-2414,,,,,,
Wilcox Furniture,,85332 Hwy 11,,Milton Freewater,OR,97862 ,US,(541) 938-6739,,,,,,
Hunt TV and Home Furnishings,,1535 Commercial St,,Astoria,OR,97103 ,US,(503) 325-4947,,,,,,
Elam's Home Furnishings,,102 E. B Street,,Rainer,OR,97048 ,US,(503) 556-8321,,,,,,
Wilson's Furniture,,5080 Pacific Hwy,,Ferndale,WA,98248 ,US,(360) 384-8900,,,,,,
DeborahJohn Furnishings,,2500 Sparrows Point Road,,Baltimore,MD,21219 ,US,(410) 477-5600,,,,,,
Boscov's,,8200 Perry Hall Boulevard,,Baltimore,MD,21236 ,US,(410) 931-2005,,,,,,
Boscov's,,400 North Central Street,,Westminster,MD,21157 ,US,(410) 751-6660,,,,,,
Hamilton Sofa & Leather Gallery,,11711 Parklawn Drive,,Rockville,MD,20852 ,US,(301) 881-3900,,,,,,
Hamilton Sofa & Leather Gallery,,5857-B Leesburg Pike,,Falls Church,VA,22041 ,US,(703) 820-8000,,,,,,
Hamilton Sofa & Leather Gallery,,8461 Leesburg Pike,,Vienna,VA,22182 ,US,(703) 556-3900,,,,,,
Sleep Sofa Distributors,,"K, 5641 General Washington Drive",,Alexandria,VA,22312 ,US,(703) 941-7632,,,,,,
Boscov's,,1301 West Patrick Street,,Frederick,MD,21702 ,US,(301) 631-8155,,,,,,
Boscov's,,2899 Whiteford Road,,York,PA,17402 ,US,(717) 757-6888,,,,,,
Belfort Furniture,,22250 Shaw Road,,Dulles,VA,20166 ,US,(703) 406-7600,,,,,,
Hamilton Sofa & Leather Gallery,,4060 Walney Road,,Chantilly,VA,20151 ,US,(703) 766-8000,,,,,,
Colony House Furniture,,1630 Biglerville Road,,Gettysburg,PA,17325 ,US,(717) 334-6745,,,,,,
Boscov's,,800 Park City Center,,Lancaster,PA,17601 ,US,(717) 299-0911,,,,,,
Bon-ton Furniture Gallery,,870 Plaza Blvd.,,Lancaster,PA,17601 ,US,(717) 394-5736,,,,,,
Johnny Janosik World of Furniture,,2230 US-13,,Dover,DE,19901 ,US,(302) 697-7799,,,,,,
Boscov's,,361 West Main Street,,Christiana,DE,19702 ,US,(302) 369-6440,,,,,,
Boscov's,,1365 North Dupont Highway,,Dover,DE,19901 ,US,(302) 734-9210,,,,,,
L & S Furniture,,11178 Buchanan Trail East,,Waynesboro,PA,17268 ,US,(717) 762-6939,,,,,,
Hitchner's Furniture,,583 Salem Quinton Road,,Salem,NJ,08079 ,US,(856) 935-0537,,,,,,
The Bon-Ton,,3525 Gettysburg Road,,Camp Hill,PA,17011 ,US,(717) 761-7500,,,,,,
Furniture City,,5355 N. Blackstone Ave,,Fresno,CA,93710 ,US,(559)438-8080,,,,,,
Fashion Furniture,,255 W El Paso,,Fresno,CA,93711 ,US,(559) 440-9600,,,,,,
Salmon's Furniture Galleries,,112 E 7TH St,,Hanford,CA,93230 ,US,(559) 582-2538,,,,,,
Weatherby's Furniture,,2032 S Mooney Blvd,,Visalia,CA,93277 ,US,(559) 625-3232,,,,,,
Matthews Fine Furniture,,42255 Hwy 41,,Oakhurst,CA,93644 ,US,(559) 683-3998,,,,,,
Weatherby's Furniture,,7630 West Olive,,Porterville,CA,93257 ,US,(559) 788-2001,,,,,,
The Oak Tree,,501 Old Mammoth Rd,,Mammoth Lakes,CA,93546 ,US,(760) 934-3858,,,,,,
The Couch Potato,,803 13th St,,Paso Robles,CA,93416 ,US,(805)434-6068,,,,,,
Couch Potato,,803 13th Street,,Paso Robles,CA,93416 ,US,(805)434-6068,,,,,,
Idler's,,2361 Theater Drive,,Paso Robles,CA,93446 ,US,(805)238-6020,,,,,,
Stylehouse Furniture,,8965 El Camino Real,,Pascadero,CA,93422 ,US,(805)461-3876,,,,,,
Weatherby's Furniture,,620 Chester Ave,,Bakersfield,CA,93301 ,US,(805) 327-2747,,,,,,
The Couch Potato,,712 Marsh St.,,San Luis Obispo,CA,93401 ,US,(805)544-7491,,,,,,
Furniture Liquidators,,1425 Youngstown S/C,,Jeffersonville,IN,47129 ,US,(812) 288-9880,,,,,,
Schmitt Furniture Co,,101 E Main Street,,New Albany,IN,47150 ,US,(812) 944-2285,,,,,,
Furniture Liquidators,,2300 State St,,New Albany,IN,47150 ,US,(812) 948-2323,,,,,,
Berry's Furniture,,5919 HIghway 50 West,,Seymour,IN,47274 ,US,(812) 523--6018,,,,,,
Fischer's Furniture,,906 Main St # 10,,Tell City,IN,47586 ,US,(812) 547-2351,,,,,,
Sternberg's Furniture,,601 Main St,,Jasper,IN,47546 ,US,(812) 482-1477,,,,,,
Morris Home Furnishings,,8040 Burlington Pike,,Florence,KY,41042 ,US,(859) 282-3400,,,,,,
Dean Bosler's Furniture,,3820 E Morgan Ave,,Evansville,IN,47715 ,US,(812) 476-8787,,,,,,
Schloemer Mattress Outlets,,969 Ohio Pike Route 125,,Cincinnati,OH,45245 ,US,(513) 752-0999,,,,,,
Muenchens Furniture,,5005 Cincinnati Brookfield Road,,Hamilton,OH,45013 ,US,(513) 738-4200,,,,,,
Muenchens Furniture,,1783 East Ohio Pike,,Amelia,OH,45102 ,US,(513) 843-7107,,,,,,
Furniture Frenzy,,4785 Dixie Highway,,Fairfield,OH,45014 ,US,(513) 737-1000,,,,,,
Regal Furniture Gallery,,102 N. 4th Street,,Vincennes,IN,47591 ,US,(812) 886-4444,,,,,,
Crowley Furniture,,200 N 291 Hwy,,Liberty,MO,64068 ,US,(816) 781-8002,,,,,,
Nebraska Furniture Mart,,1601 Village West Pkwy,,Kansas City,KS,66160 ,US,(913)-288-6200,,,,,,
Crowley Furniture,,6321 119th Street,,Overland Park,MO,66209 ,US,(913) 647-9007,,,,,,
Crowley Furniture,,261 SW Greenwich,,Lee's Summit,MO,64082 ,US,(816) 744-2004,,,,,,
M Street Interiors,,825 Massachusetts St.,,Lawrence,KS,66044 ,US,(785) 856-2426,,,,,,
Discovery Furniture,,2525 Iowa,,Lawrence,KS,66046 ,US,(785)856-8444,,,,,,
Arwoods Furniture,,801 Pride Lane Business 50,,Warrensburg,MO,64093 ,US,(660) 429-2264,,,,,,
Messenger's Home Furnishings,,309 W 23Rd St,,Ottawa,KS,66067 ,US,(785)242-4446,,,,,,
Every Bloom N Thing/EBT,,105 N Main St,,Butler,MO,64730 ,US,(660)679-5445,,,,,,
Discovery Furniture,,1133 Sw Wanamaker Rd,,Topeka,KS,66604 ,US,(785) 271-0684,,,,,,
Furniture City,,117 S Washington St,,Clinton,MO,64735 ,US,(660) 885-7088,,,,,,
Bauman's Carpet & Furniture,,805 N Maple,,Garnett,KS,66032 ,US,(785) 448-3216,,,,,,
Clarks Furniture,,835 S Washington St,,Chillicothe,MO,64601 ,US,(660) 646-5525,,,,,,
Home Town Furniture,,530 Oregon,,Hiawatha,KS,66343 ,US,(785)742-7525,,,,,,
Hartley Furniture,,400 S Odell Ave,,Marshall,MO,65340 ,US,(660) 886-5611,,,,,,
FFO Home,,3200 W. Broadway,,Sedalia,MO,65301 ,US,(660) 829-0042,,,,,,
B & W Furniture,,1312 S 25th St,,Bethany,MO,64424 ,US,(660)425-6712,,,,,,
O'Neil's Home Furnishings,,702 North 41St Street,,Bethany,MO,64424 ,US,(660) 425-7200,,,,,,
Ruddick's Furniture,,117 S National St,,Fort Scott,KS,66701 ,US,(316) 223-2510,,,,,,
Ellis Furniture,,201 E Walnut St,,Nevada,MO,64772 ,US,(417) 667-3018,,,,,,
7-Day Furniture,,4911 South 72nd Street,,Omaha,NE,68127 ,US,(402) 502-5650,,,,,,
Krasne Furniture Co,,450 North Main Street,,Fremont,NE,68025 ,US,(402) 721-2777,,,,,,
Ernies Furniture,,318 S 2Nd St,,Ceresco,NE,68017 ,US,(402) 665-3151,,,,,,
Havelock Furniture,,6200 Havelock Avenue,,Lincoln,NE,68507 ,US,(402) 466-4100,,,,,,
Midwest Furniture,,404-406 Coolbaugh St.,,Red Oak,IA,51556 ,US,(712)623-4127,,,,,,
7 Day Furniture,,5601 S. 59th St.,,Lincoln,NE,68516 ,US,(402) 467-1450,,,,,,
Lincoln Mattress & Furniture,,4815 South 14th Street,,Lincoln,NE,68512 ,US,(402) 423-2800,,,,,,
Surbers Discount Furniture,,2618 N Hwy 15,,Wayne,NE,68787 ,US,(402) 375-1885,,,,,,
Tecumseh Furniture,,664 North 13th Street,,Tecumseh,NE,68450 ,US,(402) 335-2132,,,,,,
Davidson Furniture Center,,2767 Progressive Avenue,,Seward,NE,68434 ,US,(402) 643-3777,,,,,,
Audubon Furniture,,203 North Market Street,,Audubon,IA,50025 ,US,(712) 563-3579,,,,,,
Greiners Furniture,,4320 Howard Blvd.,,Columbus,NE,68601 ,US,(402) 564-1478,,,,,,
Hills Home Furnishings,,116 N 5Th,,Beatrice,NE,68310 ,US,(402) 228-4085,,,,,,
Stans,,2205 North 6th - Indian Creek Mall,,Beatrice,NE,68310 ,US,(402)228-4297,,,,,,
Good to Go Furniture,,1507 Radian Road,,Carroll,IA,51401 ,US,(712) 792-6150,,,,,,
Einsphar Furniture,,705 S Des Moines St,,Odebolt,IA,51458 ,US,(712) 668-2263,,,,,,
Everetts Furniture,,4500 Dakota Avenue,,South Sioux City,NE,68776 ,US,(402) 494-4232,,,,,,
Roten Furniture Co,,109 East Main St,,Marshall,AR,72501 ,US,(870) 448-2452,,,,,,
"Lichti TV, Appliance & Furniture Center",,220 East Nobes Road,,York,NE,68467 ,US,(402) 362-5569,,,,,,
Waterbed Emporium Inc.,,2414 Gordon Drive,,Sioux City,IA,51106 ,US,(712) 252-2991,,,,,,
Esprit Décor,,110 Kegman Road,,Chesapeake,VA,23322 ,US,(757) 482-5175,,,,,,
Roberts Furniture,,3012 West Mercury Blvd,,Hampton,VA,23666 ,US,(757) 827-7288,,,,,,
Oak Cabin,,6640 George Washington Highway,,Yorktown,VA,23692 ,US,(757) 898-3839,,,,,,
Roberts Furniture,,7628 George Washington Memorial Highway,,Yorktown,VA,23692 ,US,(757) 847-9911,,,,,,
Roberts Furniture,,465 Denbigh Blvd.,,Newport News,VA,23608 ,US,(757) 898-1500,,,,,,
Lovet Furniture,,2352 George Washington Memorial Highway,,Hayes,VA,23072 ,US,(804) 684-5601,,,,,,
Roberts Furniture,,3032-1 Richmond Road,,Williamsburg,VA,23185 ,US,(757) 345-6155,,,,,,
Stones Colonial Furniture House,,7500 Jefferson David Highway,,Richmond,VA,23237 ,US,(804) 275-2287,,,,,,
Home-Makers Furniture,,8235 Mechanicsville Turnpike,,Mechanicsville,VA,23111 ,US,(804) 746-7781,,,,,,
Sofa Design,,10753 Midlothian Tpke,,Richmond,VA,23235 ,US,(804) 379-5377,,,,,,
Home-Makers Furniture,,1516 Koger Center Blvd.,,Midlothian,VA,23235 ,US,(804) 794-2100,,,,,,
Normans Home Furnishings Inc,,217 West Third Street,,Washington,NC,27889 ,US,(252) 974-2611,,,,,,
Boscov's,,2310 North Salisbury Boulevard,,Salisbury,MD,21801 ,US,(410) 548-1771,,,,,,
Winn Furniture,,115 East Broad Street,,Blackstone,VA,23824 ,US,(434) 292-3462,,,,,,
Johnny Janosik World of Furniture,,11151 Trussum Pond Road,,Laurel,DE,19956 ,US,(302) 875-5955,,,,,,
Hardee's Furniture,,4603 South US-301,,Rocky Mountain,NC,27803 ,US,(252) 977-2325,,,,,,
Powells Furniture,,4001 Plank Road,,Fredericksburg,VA,22407 ,US,(540)786-5090,,,,,,
Hardy's Furniture,,234 North Green Street,,Snow Hill,NC,28580 ,US,(252) 747-2638,,,,,,
Colgate  & Company Furniture,,211 East Sycamore Street,,Chase City,VA,23924 ,US,(434) 372-3151,,,,,,
Vance Furniture Company,,325 South Garnett Street,,Henderson,NC,27536 ,US,(252) 438-3911,,,,,,
Garner Wayside Furniture,,1460 US-70 West,,Garner,NC,27529 ,US,(919) 772-2433,,,,,,
Home Comfort Furniture,,900 Aviation Parkway,,Morrisville,NC,27560 ,US,(919) 806-1100,,,,,,
Heavner Furniture Market,,1701 West Market Street,,Smithfield,NC,27577 ,US,(919) 934-0551,,,,,,
Riverview Galleries,,5122 Roxboro Road,,Durham,NC,27704 ,US,(919) 477-0481,,,,,,
Pine Level Hardware & Furniture Company,,219 North Peedin Avenue,,Pine Level,NC,27568 ,US,(919) 965-8961,,,,,,
Lee Furniture,,1727 W Cumberland Street,,Dunn,NC,28334 ,US,(910)230-0546,,,,,,
Dossenbachs Finer Furniture,,527 Wicker Street,,Sanford,NC,27330 ,US,(919) 775-7237,,,,,,
Daniels Furniture,,200 North US-117 Bypass,,Goldsboro,NC,27530 ,US,(919) 736-1972,,,,,,
Green & McClure Furniture Company,,118 North Main Street,,Graham,NC,27253 ,US,(336) 226-2481,,,,,,
Furniture Mart,,740 North Madison Boulevard,,Roxboro,NC,27573 ,US,(336) 599-8317,,,,,,
Alamance Radio & TV Service,,202 Fonville Street,,Burlington,NC,27217 ,US,(336) 226-6540,,,,,,
Red Shed Furniture,,3961 US-13,,Goldsboro,NC,27534 ,US,(919) 759-2722,,,,,,
Lavish Furniture,,1983 Skibo Road,,Fayetteville,NC,28314 ,US,(910) 920-3931,,,,,,
Horne Furniture & Appliance Company,,100 Euclid Street,,Stedman,NC,28391 ,US,(910) 483-4316,,,,,,
Down East Furniture,,6568 US-70 East,,LaGrange,NC,28551 ,US,(252) 566-4005,,,,,,
Monk's Furniture Warehouse,,7444 US-70 West,,La Grange,NC,28551 ,US,(252) 566-3172,,,,,,
Heritage House,,3501 Old Halifax Road,,South Boston,VA,24592 ,US,(434) 575-8700,,,,,,
Mathis Brothers Furniture,,3434 W Reno Ave,,Oklahoma City,OK,73107 ,US,(405) 951-1333,,,,,,
Theo's Market Place,,3720 W Robinson Ste 100,,Norman,OK,73072 ,US,(405) 364-0728,,,,,,
FFO Home,,4939 N. Union Ave.,,Shawnee,OK,74804 ,US,(405) 695-7004,,,,,,
Neal's Furniture,,23 E. Main St.,,Shawnee,OK,74801 ,US,(405) 275-7500,,,,,,
M & M Furniture,,309 Chickasha,,Chickasha,OK,73018 ,US,(405) 222-1510,,,,,,
Curry Hardin Furniture,,301 N Milt Phillips,,Seminole,OK,74868 ,US,(405) 382-2440,,,,,,
Furniture Showcase,,424 S Main St,,Stillwater,OK,74074 ,US,(405) 624-3212,,,,,,
FFO Home,,406 S. CStar Blvd.,,Stillwater,OK,74074 ,US,(405) 338-1011,,,,,,
Williamson’s Furniture,,113 W. McClure Ave.,,Pauls Valley,OK,73075 ,US,(405) 238-3992,,,,,,
Root's Hometown Furniture & Appliance,,2304 E. Main Street,,Cushing,OK,74023 ,US,(918) 285-5300,,,,,,
Rhynes & Rhodes,,303 W Main St,,Ada,OK,74820 ,US,(580) 436-1050,,,,,,
Roots Hometown Furniture,,305 N Main St,,Bristow,OK,74101 ,US,(918) 367-3324,,,,,,
Root's Hometown Furniture & Appliance,,305 N. Main Street,,Bristow,OK,74010 ,US,(918) 367-3324,,,,,,
Warn Home Furnishings,,505 W. Broadway St.,,Okemah,OK,74859 ,US,(918)623-0714,,,,,,
Rick's Furniture,,1117 W. Broadway,,Sulphur,OK,73086 ,US,(580) 622-3534,,,,,,
Wolverton Furniture,,1302 NW Sheridan Road,,Lawton,OK,73505 ,US,(580)355-7088,,,,,,
Darby's Big Furniture,,6746 W Cache Road,,Lawton,OK,73505 ,US,(580) 510-3242,,,,,,
Kluvers,,500 Opal St,,Clinton,OK,73601 ,US,(580) 323-3074,,,,,,
United Furniture,,315 W. Main St,,Henryetta,OK,74437 ,US,(918)652-9229,,,,,,
Neals Furniture,,Hwy 75 N,,Okmulgee,OK,74447 ,US,(918) 652-9229,,,,,,
Daniels Furniture,,2800 Superior Avenue,,Cleveland,OH,44114 ,US,(216) 830-2626,,,,,,
Northeast Factory Furniture,,3321 West 140th Street,,Cleveland,OH,44111 ,US,(216) 820-9198,,,,,,
Basista West Clark Furniture,,5295 State Road,,Cleveland,OH,44134 ,US,(216) 398-5900,,,,,,
Kaplan's Furniture,,24869 Lorain Road,,North Olmstead,OH,44070 ,US,(440) 471-4636,,,,,,
Audio Visions,,6130 Kruse Drive,,Solon,OH,44139 ,US,(440) 498-9481,,,,,,
Sedlak Interiors,,34300 Solon Road,,Solon,OH,44139 ,US,(440) 248-2424,,,,,,
Mi Bella Casa Furniture,,35107 Center RIdge Road,,North Ridgeville,OH,44039 ,US,(440) 353-0091,,,,,,
Sheraton's,,3806 Erie Street,,Willoughby,OH,44094 ,US,(440) 946-5559,,,,,,
Crossroads Furniture,,2200 Highland Road,,Twinsburg,OH,44087 ,US,(330) 963-1900,,,,,,
Mill Distributors,,45 Aurora Industrial Parkway,,Aurora,OH,44202 ,US,(330) 995-9200,,,,,,
Kaplan's Furniture,,638 West Broad Street,,Elyria,OH,44035 ,US,(440) 322-6128,,,,,,
Wukie Furniture,,11891 Grafton Road,,Grafton,OH,44044 ,US,(440) 458-5136,,,,,,
Gunderson Bros.,,1204 High Street,,Wadsworth,OH,44281 ,US,(330) 336-3257,,,,,,
Watson's 87 Furniture,,15520 West High Street,,Middlefield,OH,44062 ,US,(440) 632-5966,,,,,,
Wayside Furniture,,3880 Mogadore Industrial Parkway,,Mogadore,OH,44260 ,US,(330) 733-7173,,,,,,
Rufener's Furniture,,137 East Ohio Street,,Rittman,OH,44270 ,US,(330)925-9065,,,,,,
Griffiths Furniture & Appliance,,56 North Broadway Street,,Geneva,OH,44041 ,US,(440) 466-1171,,,,,,
Countryside Furniture,,7170 Portage Street Northwest,,Massillon,OH,44646 ,US,(330) 494-4700,,,,,,
Bennet's Appliance,,1300 West High Street,,Orrville,OH,44667 ,US,(330) 683-8065,,,,,,
The Sofa Store,,2500 West State Street,,Alliance,OH,44601 ,US,(330)-829-3388,,,,,,
Razooks Furniture Inc,,1134 E Douglas,,Wichita,KS,67214 ,US,(316) 265-3355,,,,,,
Furniture On Consignment,,4502 East 13TH,,Wichita,KS,67201 ,US,(316) 682-2000,,,,,,
FFO Home,,2505 S. Oliver,,Wichita,KS,67210 ,US,(316) 687-1222,,,,,,
FFO Home,,5450 W. Central,,Wichita,KS,67212 ,US,(316) 945-7874,,,,,,
Hickerson Furniture Galleries,,6905 E Harry St,,Wichita,KS,67207 ,US,(316) 684-0091,,,,,,
Marshall's Furniture,,126 East 5TH,,Newton,KS,67114 ,US,(620) 283-0690,,,,,,
Heritage Home Furniture,,200 W Broadway St,,Newton,KS,67114 ,US,(316) 283-1818,,,,,,
Lindly Tv & Appliance,,721 Main Street,,Winfield,KS,67156 ,US,(620) 221-3500,,,,,,
Kyger Furniture Co,,921 Main St,,Winfield,KS,67156 ,US,(316) 221-0050,,,,,,
Hayes Home Furnishings,,2 N Main,,Hutchinson,KS,67501 ,US,(620) 662-7870,,,,,,
Hayes Sight & Sound,,510 N Main St,,Hutchinson,KS,67501 ,US,(620) 662-2791,,,,,,
Foulks Home Center,,206-210 N Main,,Kingman,KS,67068 ,US,(620) 532-2581,,,,,,
Travers,,221 South Summit,,Arkansas City,KS,67005 ,US,(620) 442-3720,,,,,,
The Furniture Store,,915 W Kansas Ave,,Mcpherson,KS,67460 ,US,(620) 241-7967,,,,,,
FFO Home,,2900 N. 14th St.,,Ponca City,OK,74601 ,US,(580) 749-5382,,,,,,
Davis Furniture & Appliance,,200 N. First St.,,Ponca City,OK,74601 ,US,(580) 765-8533,,,,,,
Forsyth's,,103 S Main St,,Medicine Lodge,KS,67104 ,US,(620) 886-5065,,,,,,
Amish Woodwork,,2910 W Hwy 50 Suite D,,Emporia,KS,66801 ,US,(620) 208-7433,,,,,,
Jilka Furniture,,131 S Santa Fe Ave,,Salina,KS,67401 ,US,(785) 827-7171,,,,,,
"Great Bend Appliance, Furniture & Sleepsource",,2301 10th Street,,Great Bend,KS,67530 ,US,(620)792-3999,,,,,,
Dodson Furniture,,29 Grapevine Road,,Martinsburg,WV,25405 ,US,(304) 267-1508,,,,,,
Patton Furniture Co.,,25 South Loudoun Street,,Winchester,VA,22601 ,US,(540) 662-1732,,,,,,
Roberts Furniture,,2238 Valley Avenue,,Winchester,VA,22604 ,US,(540) 545-8826,,,,,,
Kiblers Furniture,,24065 Senedo Road,,Woodstock,VA,22664 ,US,(540) 459-2992,,,,,,
Colony House Furniture,,4231 Philadelphia Avenue,,Chambersburg,PA,17201 ,US,(717) 263-2443,,,,,,
Halpern's,,1532 St Charles Ave,,New Orleans,LA,70130 ,US,(504) 568-1825,,,,,,
The Home Furnishings Store,,1600 Prytania St,,New Orleans,LA,70130 ,US,(504) 566-1707,,,,,,
Doerr Furniture Co,,444 Port St,,New Orleans,LA,70117 ,US,(504) 943-0110,,,,,,
Hurwitz Mintz,,1751 Airline Dr,,New Orleans,LA,70001 ,US,(504) 378-1000,,,,,,
Compass Furniture,,"5025 Bloomfield St,",,Jefferson,LA,70121 ,US,(504)733-4641,,,,,,
American Furniture Dist,,1590 Gause Blvd West,,Slidell,LA,70460 ,US,(985)781-4915,,,,,,
Southern Home Furniture,,13928 W Main St,,Larose,LA,70373 ,US,(504) 693-6051,,,,,,
American Factory Direct,,68490 Hwy 59,,Mandeville,LA,70471 ,US,(985) 871-0300,,,,,,
Louis Mohan Furniture,,4295 Highway 24,,Bourg,LA,70343 ,US,(985) 594-7766,,,,,,
Rossie's Furniture,,1501 W Thomas St,,Hammond,LA,70401 ,US,(985) 345-4380,,,,,,
James Furniture,,405 Memorial Dr,,Picayune,MS,39466 ,US,(601) 798-8434,,,,,,
Emiles Furniture,,609 St Mary Street,,Thibodauxd,LA,70301 ,US,(985)446-7555,,,,,,
Brian's For The Home,,811 St Mary At,,Thibodaux,LA,70301 ,US,(504) 448-2800,,,,,,
Graugnard,,622 Railroad,,Donaldsonville,LA,70346 ,US,(225) 473-8532,,,,,,
V Watts Furniture,,13060 Florida Blvd,,Livingston,LA,70754 ,US,(225) 686-7238,,,,,,
Amite Furniture,,11198 Hwy 16,,Amite,LA,70422 ,US,(985) 748-7610,,,,,,
American Factory Direct,,9064 County Farm Rd,,Long Beach,MS,39560 ,US,(228) 864-2661,,,,,,
Magee Furniture,,988 Washington St,,Franklinton,LA,70438 ,US,(504) 839-3419,,,,,,
American Factory Direct,,9330 Mall of Louisiana Suite 120,,Baton Rouge,LA,70805 ,US,(225) 767-7303,,,,,,
American Factory Direct,,9330 Mall of Louisiana Blvd,,Baton Rouge,LA,70836 ,US,(225)-767-7303,,,,,,
Stylehouse Furnishings,,455 North Frontgate Rd,,Nipomo,CA,93444 ,US,(805) 929-6700,,,,,,
Idler's,,189 Cross St,,San Luis Obispo,CA,93401 ,US,(805)269-6600,,,,,,
Hudson's Furniture,,8030 North Dale Mabry Highway,,Tampa,FL,33614 ,US,(813) 314-2033,,,,,,
Hudson's Furniture,,1609 West Brandon Blvd,,Brandon,FL,33511 ,US,(813) 657-0865,,,,,,
Hudson's Furniture,,9001 US 19 North,,Pinellas Park,FL,33782 ,US,(727) 329-0088,,,,,,
Hudson's Furniture,,28342 U.S. 19 North,,Clearwater,FL,33761 ,US,(727) 449-0488,,,,,,
Hudson's Furniture,,4955 South Florida Avenue,,Lakeland,FL,33813 ,US,(863) 327-8970,,,,,,
Claussen's Fine Furniture,,4715 South Florida Avenue,,Lakeland,FL,33813 ,US,(863) 647-1000,,,,,,
Hudson's Furniture,,"303-301 Blvd West, Suite 8",,Bradenton,FL,34205 ,US,(941) 747-4048,,,,,,
Sims Furniture Galleries,,18803 US Highway 19,,Hudson,FL,34667 ,US,(727) 861-2589,,,,,,
Sims Furniture Galleries,,1505 West Jefferson Street,,Brooksville,FL,34601 ,US,(352) 796-5450,,,,,,
Claussen's Furniture,,1500 Havendale Blvd,,Winter Haven,FL,33881 ,US,(863) 293-1875,,,,,,
Baers,,5301 Clark Road,,Sarasota,FL,34233 ,US,(941)923-4200,,,,,,
Hudson's Furniture,,8796 South Tamiami Trail,,Sarasota,FL,34238 ,US,(941) 237-2740,,,,,,
Lee's Furniture,,22549 US 27,,Lake Wales,FL,33859 ,US,(863) 676-2224,,,,,,
Fox Furniture,,2112 South Tamiami Trail,,Venice,FL,34293 ,US,(941) 493-3903,,,,,,
Usher Furniture,,6300 US Highway 27 South,,Sebring,FL,33870 ,US,(863) 382-2423,,,,,,
Baer's Furniture,,12105 W. Colonial Drive,,Winter Garden,FL,34787 ,US,(407) 478-2237,,,,,,
Hudson's Furniture,,10401 West Colonial Drive,,Ocoee,FL,34761 ,US,(407) 299-5445,,,,,,
Baers,,4200 Tamiami Trail Bay,,Port Charlotte,FL,33952 ,US,(941)624-3377,,,,,,
Hudson's Furniture,,9539 South Orange Blossom Trail,,Orlando,FL,32837 ,US,(407) 857-3355,,,,,,
Yamada Furniture,,340 Kinoole St,,Hilo,HI,96720 ,US,(808) 935-1664,,,,,,
Baers Furniture,,9171 S Dixie Hwy,,Miami,FL,33156 ,US,(305)661-5365,,,,,,
Baers Furniture,,13630 Pines blvd,,Pembroke Pines,FL,33027 ,US,(954)442-8788,,,,,,
Baers Furniture,,1025 S Federal Hwy,,Dania,FL,33004 ,US,(954)927-0237,,,,,,
Baers Furniture,,3470 N federal Hwy,,Ft Lauderdale,FL,33308 ,US,(954)566-0266,,,,,,
Baers Furniture,,4711 N State Road 7,,Tamarac,FL,33319 ,US,(954)731-8830,,,,,,
Baers Furniture,,999 N Federal Hwy,,Boca Raton,FL,33432 ,US,(561)391-2012,,,,,,
Baers Furniture,,2324 N. Military Trail,,West Palm Beach,FL,33409 ,US,(561)684-3225,,,,,,
Baers Furniture,,910 U S Wwy One,,N Palm Beach,FL,33408 ,US,(561)626-6100,,,,,,
Fred's Beds,,13333 Overseas Highway,,Marathon,FL,33050 ,US,(305) 743-7277,,,,,,
Paradise Home & Patio,,3100 SE Federal Highway,,Stuart,FL,34994 ,US,(772) 223-2012,,,,,,
Baers Furniture,,1421 S Federal Hwy,,Stuart,FL,34994 ,US,(772)221-8679,,,,,,
Lenny's Furniture,,10001 East Tamiami Trail,,Naples,FL,34113 ,US,(239) 417-9359,,,,,,
Baers Furniture,,15485 Tamiami Trail North,,Naples,FL,34110 ,US,(239)513-2237,,,,,,
Morgans Furniture,,707 Southwest Park Street,,Okeechobee,FL,34972 ,US,(863) 467-2072,,,,,,
Lenny's Furniture,,15485 South Tamiami Trail,,Fort Myers,FL,33908 ,US,(239) 482-7744,,,,,,
Baers Furniture,,4580 Cleveland Ave,,Fort Myers,FL,33907 ,US,(239)278-4401,,,,,,
FOS Furniture,,790 North Del Prado Blvd.,,Cape Coral,FL,33909 ,US,(239) 887-1978,,,,,,
Vero Furniture Mart,,2004 14th Avenue,,Vero Beach,FL,32960 ,US,(772) 569-0787,,,,,,
Schneidermans Furniture,,1955 West County Rd B2,,Roseville,MN,55113 ,US,(651) 633-7042,,,,,,
Becker Furniture World,,866 Rosedale Center Plaza (Rosedale Center),,Roseville,MN,55113 ,US,(651)636-3800,,,,,,
Marshall Fields,,1375 Commerce St,,Roseville,MN,55113 ,US,(651) 639-2040,,,,,,
Marshall Fields,,7235 France Ave South,,Edina,MN,55435 ,US,(952) 896-2160,,,,,,
Hom Furniture,,7800 Dupont Ave South,,Bloomington,MN,55420 ,US,(952) 884-8800,,,,,,
Schneidermans Furniture,,1600 Annapolis Lane No>,,Plymouth,MN,55441 ,US,(763) 551-3544,,,,,,
Hom Furniture,,3201 Country Lane,,Little Canada,MN,55117 ,US,(651) 634-3300,,,,,,
Hom Furniture,,4150 Berkshire Lane,,Plymouth,MN,55446 ,US,(763) 744-2800,,,,,,
Becker Furniture World,,16625 County Road 30 (Dunkirk Ln & CORD 30),,Maple Grove,MN,55311 ,US,(763)447-6200,,,,,,
Furniture Manor,,334 County Road 81,,Osseo,MN,55369 ,US,(763) 425-3424,,,,,,
Hom Furniture,,10301 Woodcrest Dr Nw,,Coon Rapids,MN,55433 ,US,(763) 767-3700,,,,,,
Becker Furniture World,,304 Northtown Dr. (Northtown Mall),,Blaine,MN,55434 ,US,(763) 780-4800,,,,,,
Becker Furniture World,,14286 Plymouth Ave S (1 blk E of 35E on CORD 42),,Burnsville,MN,55337 ,US,(952)435-4050,,,,,,
Hom Furniture,,7600 Hudson Rd,,Woodbury,MN,55125 ,US,(651) 730-5000,,,,,,
TimberCreek Furniture,,1038 1st ave East,,Shakopee,MN,55379 ,US,(952)496-3559,,,,,,
Schneidermans Furniture,,9700 Hudson Rd,,Woodbury,MN,55125 ,US,(651) 730-0321,,,,,,
Becker Furniture World,,10150 Hudson Road Suite 140 ( Off I94 & Woodbury Dr.),,Woodbury,MN,55129 ,US,(651)202-2900,,,,,,
Hom Furniture,,17055 Kenyon Ave,,Lakeville,MN,55044 ,US,(952) 898-7878,,,,,,
Schneidermans Furniture,,17630 Juniper Path,,Lakeville,MN,55044 ,US,(952) 435-3399,,,,,,
McCORMACK's FURNITURE CO,,13435 No 60Th St,,Stillwater,MN,55082 ,US,(651) 439-4208,,,,,,
Krumrey Home Furniture,,1305 19Th St,,Granite City,IL,62040 ,US,(618) 451-2873,,,,,,
Rothman Furniture,,7737 Watson Road,,Webster Groves,MO,63119 ,US,(314) 968-5595,,,,,,
Rothman Furniture,,5711 S. Lindbergh,,St Louis,MO,63123 ,US,(314) 892-9002,,,,,,
Home Furniture Co,,125 E Main St,,Collinsville,IL,62234 ,US,(618) 344-5123,,,,,,
Home Furniture LLC,,125 E. Main St.,,Collinsville,IL,62234 ,US,(618) 344-5123,,,,,,
Carol House Furniture,,2332 Millpark Dr,,Maryland Height,MO,63043 ,US,(314) 427-4200,,,,,,
Rothman Furniture,,925 Northwest Plaza,,Bridgeton,MO,63044 ,US,(314) 388-0200,,,,,,
Mueller Furniture,,1004 E Main St,,Belleville,IL,62220 ,US,(618) 233-0667,,,,,,
Kettle River Furniture,,1091 State Route 157,,Edwardsville,IL,62025 ,US,(618) 656-5111,,,,,,
Carol House Furniture,,38 Marshall Rd,,Valley Park,MO,63088 ,US,(636) 225-3666,,,,,,
Rothman Furniture,,1776 Hwy 50,,Ofallon,IL,62269 ,US,(618) 632-1700,,,,,,
Illinois Wholesale Furniture,,35 Eastgate Plaza,,East Alton,IL,62024 ,US,(618) 254-2050,,,,,,
Rothman Furniture,,2101 E Terra Lane,,Ofallon,MO,63366 ,US,(636) 978-3500,,,,,,
Russell Furniture Co,,222 W Main,,Staunton,IL,62088 ,US,(618) 635-5200,,,,,,
Union Furniture,,21 S Washington Ave,,Union,MO,63084 ,US,(314) 583-3133,,,,,,
Hefner's Furniture,,4850 Us Hwy 67 N,,Farmington,MO,63640 ,US,,,,,,,
Mcdaniels Furniture & Appliance,,5 W Jackson,,Pinckneyville,IL,62274 ,US,(618) 357-2165,,,,,,
Hendricks Home Furnishings,,217 N Springfield St,,Virden,IL,62690 ,US,(217) 965-3337,,,,,,
Newell Furniture,,123 Main Street,,Woodlawn,IL,62898 ,US,(618) 735-2000,,,,,,
Edmisten's Home Furnishings,,3266 Cross Road,,Winchester,OH,45697 ,US,(937)544-2386,,,,,,
Bond Furniture Galleries,,113 Karl Brown Way,,Loveland,OH,45140 ,US,(513) 683-2233,,,,,,
Morris Home Furnishings,,11765 Commons Drive,,Cincinnati,OH,45246 ,US,(513) 671-8888,,,,,,
Anthony's Furniture,,12030 Montgomery Road,,Cincinnati,OH,45249 ,US,(513) 677-6425,,,,,,
Big Sandy Furniture,,8375 Gallia Pike,,Franklin Furnace,OH,45629 ,US,(740) 574-2113,,,,,,
Lovely's Furniture,,2907 South Main Street,,Middletown,OH,45044 ,US,(513) 423-0773,,,,,,
Central Hardware Furniture,,108 South Second Street,,Ironton,OH,45638 ,US,(740) 532-5162,,,,,,
Edwards Furniture,,800 West Central Avenue,,Springboro,OH,45066 ,US,(937) 746-4559,,,,,,
The Furniture Connection,,1842 South Townsend,,Montrose,CO,81401 ,US,(970) 249-4116,,,,,,
Montrose Marketing,,1842 South Townsend,,Montrose,CO,81401 ,US,(970) 249-4116,,,,,,
Braslau's Furniture Co,,702 Powers,,Corpus Christi,TX,78401 ,US,(512) 854-4900,,,,,,
Braslau's Furniture Co,,4148 S Staples St,,Corpus Christi,TX,78403 ,US,(361) 854-4900,,,,,,
Kens Furniture,,123 East Hildalgo Ave,,Raymondville,TX,78580 ,US,(956) 689-3620,,,,,,
Lack's Valley Stores,,802 S Dixieland Rd,,Harlingen,TX,78550 ,US,(956) 421-2221,,,,,,
Whalen's Furniture Co,,1000 W Hwy 77,,San Benito,TX,78586 ,US,(956) 399-5305,,,,,,
Lacks Valley Stores,,2636 South Expressway 281,,Edinburg,TX,78539 ,US,(956)381-3200,,,,,,
Lack's Valley Stores,,215 Queen Isabella,,Port Isabel,TX,78578 ,US,(956) 943-8744,,,,,,
Lack's Valley Stores,,2901 N 10Th St,,Mcallen,TX,78501 ,US,(956) 682-5266,,,,,,
Lack's Valley Stores,,1300 Patricia Dr,,Pharr,TX,78577 ,US,(956) 702-3361,,,,,,
Whalen's,,1000 East Hwy,,Mcallen,TX,78501 ,US,(956) 686-8371,,,,,,
Lack's Valley Stores,,1200 E Expressway 83,,Mcallen,TX,78503 ,US,(956) 971-1900,,,,,,
Lack's Valley Stores,,926 E Business 83,,Mission,TX,78572 ,US,(956) 585-1541,,,,,,
Lack's Valley Stores,,305 Lost Oaks,,Laredo,TX,78041 ,US,(956) 753-5225,,,,,,
Lack's Valley Stores,,2334 Boca Chica Blvd,,Brownsville,TX,78620 ,US,(956) 546-4262,,,,,,
Lacks Valley Stores,,2302 East Highway 83,,Rio Grande City,TX,78582 ,US,(956)488-6730,,,,,,
Weimar Home Furniture,,210 W Main,,Weimar,TX,78962 ,US,(979) 725-8455,,,,,,
Arnold Furniture,,1633 5th Avenue,,Arnold,PA,15068 ,US,(724) 337-6696,,,,,,
Boscov's,,400 Beaver Valley Mall,,Monaca,PA,15061 ,US,(724) 773-7196,,,,,,
Boscov's,,101 Clearview Circle,,Butler,PA,16001 ,US,(724) 285-5779,,,,,,
R W McDonald & Sons,,1667 North Main Street,,Butler,PA,16001 ,US,(724) 287-1724,,,,,,
Create A Room,,110 Main Street,,Wintersville,OH,43953 ,US,(740) 264-6440,,,,,,
Route 21 Furniture,,1404 McClellandtown Road,,Mcclellandtown,PA,15458 ,US,(724) 737-2222,,,,,,
Carolina Furniture,,105 South Fourth Street,,Martins Ferry,OH,43935 ,US,(740) 633-2200,,,,,,
Chris Miller Furniture,,1122 Market Street,,Wheeling,WV,26003 ,US,(304) 232-8690,,,,,,
Allshouse Appliance,,3457 Wilmington Road,,New Castle,PA,16101 ,US,(724) 654-5334,,,,,,
Boscov's,,67800 Mall Road,,St. Clairsville,OH,43950 ,US,(740) 699-2700,,,,,,
Chuck's Furniture Inc.,,77 Lawless Road,,Morgantown,WV,26501 ,US,(304) 292-7621,,,,,,
SMS Furniture,,1242 Scalp Avenue,,Johnstown,PA,15904 ,US,(814) 266-1373,,,,,,
Gerrys Sleep Shop,,941 East Lincolnway,,Minerva,OH,44657 ,US,(330) 868-4469,,,,,,
Boscov's,,570 Galleria Drive,,Johnstown,PA,15904 ,US,(814) 266-4300,,,,,,
Blake Brothers Furniture,,1369 East Main Street,,Clarion,PA,16214 ,US,(814) 226-7847,,,,,,
Parker Furniture,,2683 State Route 257,,Cranberry,PA,16319 ,US,(814) 677-4061,,,,,,
Alasky's Furniture,,3369 Husky Highway,,Farmington,PA,26571 ,US,(304) 825-6113,,,,,,
Waltman Furniture,,13548 Route 422 East,,Kittanning,PA,16201 ,US,(724) 543-0260,,,,,,
Create A Room,,2500 West State Street,,Alliance,OH,44601 ,US,(330) 829-3388,,,,,,
Raymour & Flanigan,,6115 Black Horse Pike,,Egg Harbor Twnshp,NJ,8234 ,US,(609) 407-9404,,,,,,
Boscov's,,6725 Blackhorse Pike,,Egg Harbor Township,NJ,08234 ,US,(609) 383-1880,,,,,,
Value City Furniture,,331 Tilton Road,,Northfield,NJ,8225 ,US,(609) 569-1760,,,,,,
Big Wallys,,514 New Road,,Somers Point,NJ,08244 ,US,(609) 926-1155,,,,,,
Value City,,712 East Bay Avenue,,Manahawkin,NJ,08050 ,US,(609) 597-4900,,,,,,
Boscov's,,3849 South Delsea Drive,,Vineland,NJ,08360 ,US,(856) 327-3800,,,,,,
J&D Furniture,,986 South Delsea Drive,,Vineland,NJ,08360 ,US,(856) 692-7525,,,,,,
Osborne's,,522 Stone Harbor Blvd.,,Cape May,NJ,08210 ,US,(609) 465-7825,,,,,,
Value City,,949 Route 37 West,,Toms River,NJ,08753 ,US,(732) 244-8787,,,,,,
Boscov's,,1201 Hooper Avenue,,Toms River,NJ,08753 ,US,(732) 505-0770,,,,,,
Michael's,,214 Brick Boulevard,,Bricktown,NJ,08723 ,US,(732) 920-0045,,,,,,
Raymour & Flanigan,,526 Route 70 West,,Brick,NJ,8723 ,US,(732) 903-1300,,,,,,
Schenck Furniture,,3000 Dayton Germantown Pike,,Germantown,OH,45327 ,US,(937) 855-2755,,,,,,
King's Furniture,,8586 Springboro Pike,,Miamisburg,OH,45342 ,US,(937) 847-2113,,,,,,
Elder-Beerman,,2400 St. Route 725,,Dayton,OH,45459 ,US,(937) 436-7638,,,,,,
Elder-Beerman Stores,,2400 State Route 725,,Dayton,OH,45459 ,US,(937) 436-7602,,,,,,
Morris Home Furnishings,,5695 Wilmington Pike,,Dayton,OH,45459 ,US,(937) 433-0500,,,,,,
Eaton's Hometown Furniture,,401 North Maple Street,,Eaton,OH,45320 ,US,(937) 456-4446,,,,,,
Elder-Beerman Stores,,2917 Philadelphia Dr,,Dayton,OH,45405 ,US,(937) 276-6192,,,,,,
Midtown Furniture,,727 North Highway Street,,Madison,NC,27025 ,US,(336) 427-5413,,,,,,
Sherwood House Furniture,,120 Arnett Blvd,,Danville,VA,24540 ,US,(434) 792-2414,,,,,,
Howell's Furniture,,230 Woolwine Highway,,Stuart,VA,24171 ,US,(276) 694-7916,,,,,,
Homeway Furniture,,565 North Andy Griffith Parkway,,Mount Airy,NC,27030 ,US,(336) 786-6151,,,,,,
Chatham Furniture Co.,,28 South Main Street,,Chatham,VA,24531 ,US,(434) 432-3621,,,,,,
Michael Anthony,,2596 US 22,,Union,NJ,07083 ,US,(908) 964-3900,,,,,,
Huffman Koos,,425 Route 46 West,,Fairfield,NJ,07004 ,US,(973) 249-3675,,,,,,
Raymour & Flanigan,,531 Route 46,,Fairfield,NJ,07004 ,US,(973) 227-2868,,,,,,
Raymour & Flanigan,,1620 US Highway 22,,Watchung,NJ,7069 ,US,(908) 663-2350,,,,,,
Raymour & Flanigan,,675 US-1 South,,Iselin,NJ,08830 ,US,(732) 326-5801,,,,,,
Boscov's,,441 Woodbridge Center Drive,,Woodbridge,NJ,07095 ,US,(732) 634-0003,,,,,,
Rupp Furniture & Carpet,,203 North Defiance Street,,Archbold,OH,45302 ,US,(419) 446-2551,,,,,,
Brindle's Wayside Furniture,,2716 North Main Street,,Findlay,OH,45840 ,US,(419) 422-4451,,,,,,
Flag City Furniture,,10283 US-224,,Findlay,OH,45840 ,US,(567) 301-2450,,,,,,
Ewald Furniture,,2941 South State Route 100,,Tiffin,OH,44883 ,US,(419) 447-1828,,,,,,
Kings Furniture,,102 East Jackson Street,,West Unity,OH,43570 ,US,(419) 924-2525,,,,,,
Ken's Furniture,,1710 S Jefferson Street,,Defiance,OH,43512 ,US,(419) 782-6801,,,,,,
Dietsch Furniture,,188 South Michigan Street,,Edgerton,OH,43517 ,US,(419) 298-3733,,,,,,
Stites Furniture,,5733 Harding Highway,,Lima,OH,45804 ,US,(419) 225-9293,,,,,,
Westrich Home Furniture,,1105 Elida Avenue,,Delphos,OH,45833 ,US,(419) 695-6045,,,,,,
Longstreet Furniture,,720 East Chicago Road,,Coldwater,MI,49036 ,US,(517) 278-4487,,,,,,
Sanborn's Sofas Plus,,1990 Us Hwy 20 West,,Angola,IN,46703 ,US,(260) 665-9799,,,,,,
The Furniture Mart,,Bond At Maple,,Whitewright,TX,75491 ,US,(903) 364-2614,,,,,,
Barber Furniture,,404 Fourth Street,,Fairbury,NE,68352 ,US,(402) 729-3240,,,,,,
Bachelor-Faulkner-Dart,,1812 M Street,,Belleville,KS,66935 ,US,(785) 527-2222,,,,,,
Nelsons Furniture,,2921 West Highway 30,,Grand Island,NE,68802 ,US,(308) 382-0101,,,,,,
Nelson's Furniture,,742 West 2nd Street,,Hastings,NE,68902 ,US,(402) 463-2465,,,,,,
Nebraska Appliance Center,,1201 West Omaha Avenue,,Norfolk,NE,68701 ,US,(402) 379-1220,,,,,,
Raymour & Flanigan,,1650 Walden Avenue,,Cheektowaga,NY,14225 ,US,(716) 893-3413,,,,,,
The Bon-Ton,,5 Galleria Drive,,Cheektowaga,NY,14225 ,US,(716) 684-4020,,,,,,
The Bon-Ton,,1706 Sheridan Drive,,Buffalo,NY,14223 ,US,(716) 877-4020,,,,,,
Raymour & Flanigan,,3770 Union Road,,Cheektowaga,NY,14225 ,US,(716) 391-5540,,,,,,
The Bon-Ton,,1090 Union Rd,,West Seneca,NY,14224 ,US,(716) 674-4020,,,,,,
Raymour & Flanigan,,1459 Niagra Falls Boulevard,,Amherst,NY,14228 ,US,(716) 834-7171,,,,,,
Raymour & Flanigan,,3380 Southwestern Boulevard,,Orchard Park,NY,14127 ,US,(716) 675-5970,,,,,,
The Bon-Ton,,4545 Transit Road,,Williamsville,NY,14221 ,US,(716) 634-4020,,,,,,
Calvin's Furniture,,5301 Transit Road,,Williamsville,NY,14221 ,US,(716) 688-8200,,,,,,
Bon-ton,,6929 Williams Rd.,,Niagara Falls,NY,14303 ,US,(716) 297-9500,,,,,,
Raymour & Flanigan,,8535 Niagara Falls Boulevard,,Niagara Falls,NY,14304 ,US,(716) 297-7395,,,,,,
Leon's Furniture,,803 Niagara St. North,,Welland,ON,L3C 1M4 ,CA,(905) 735-2880,,,,,,
Pies Lockport Furniture,,320 Park Avenue,,Lockport,NY,14094 ,US,(716) 433-5951,,,,,,
Leon's Furniture,,"440 Taylor Road, RR #4",,Niagara-on-the-Lake,ON,L0S 1J0 ,CA,(905) 682-8519,,,,,,
The Furniture Gallery,,175 Dieppe Road,,St. Catharines,ON,L2M 7S2 ,CA,(800)-680-5553,,,,,,
Gabel Brothers,,27 West Main Street,,Gowanda,NY,14070 ,US,(716) 532-3391,,,,,,
Harding's Attica Furniture,,703 Creek Road,,Attica,NY,14011 ,US,(585) 591-2353,,,,,,
Wortzman Furniture,,309 Ellicott Street,,Batavia,NY,14020 ,US,(585) 343-0754,,,,,,
Hudson's Furniture,,11221 East Colonial Drive,,Orlando,FL,32817 ,US,(407) 210-1848,,,,,,
Haverty's Furniture,,4075 N. Hwy 1,,Cocoa,ID,32927 ,US,(321) 632-9556,,,,,,
Baer's Furniture,,4260 W. New Haven Ave.,,West Melbourne,FL,32904 ,US,(321) 872-2377,,,,,,
Hudson's Furniture,,2900 West New Haven Avenue,,Melbourne,FL,32904 ,US,(321) 473-1040,,,,,,
Kittle's Furniture,,614 E Coliseum Blvd,,Fort Wayne,IN,46805 ,US,(219) 471-4877,,,,,,
ABC Warehouse,,610 E. Coliseum Blvd.,,Fort Wayne,IN,46805 ,US,(260)483-1804,,,,,,
American Home Store Outlet,,5818 Cross Creek Blvd,,Fort Wayne,IN,46818 ,US,(260) 442-2773,,,,,,
Klopfenstein Furniture,,6314 Lima Rd,,Fort Wayne,IN,46818 ,US,(260) 489-4000,,,,,,
John Klopfenstein Furniture,,1206 Magnavox Dr,,Fort Wayne,IN,46804 ,US,(260) 434-1469,,,,,,
John Klopfenstein Furniture,,14608 State Rd,,Leo,IN,46765 ,US,(260) 627-2114,,,,,,
Ball Furniture,,212 W Van Buren St,,Columbia City,IN,46725 ,US,(260) 244-4477,,,,,,
Vans Home Center,,106 Peckhart Court,,Auburn,IN,46706 ,US,(260) 927-8267,,,,,,
Vans Furniture,,106 Deckhart Court,,Auburn,IN,46706 ,US,(260)927-8267,,,,,,
Gerber Furniture,,985 N Main St,,Bluffton,IN,46714 ,US,(260) 824-1200,,,,,,
Smith Furniture,,312 N Jefferson,,Huntington,IN,46750 ,US,(260) 356-3010,,,,,,
Bernhaus Furnishings,,1331 Hwy 27 North,,Berne,IN,46711 ,US,(260) 589-8324,,,,,,
Francis Furniture,,117 South Washington Street,,Van Wert,OH,45891 ,US,(419) 238-1707,,,,,,
Harting Furniture Co,,1703 State Rd 114 W,,N. Manchester,IN,46962 ,US,(260) 982-2184,,,,,,
Brouwers Furniture,,3333 E Center,,Warsaw,IN,46580 ,US,(574) 569-4070,,,,,,
Jb's Furniture,,2101 E Center St.,,Warsaw,IN,46580 ,US,(574) 267-6800,,,,,,
Ball Furniture,,233 S Main St,,Wabash,IN,46992 ,US,(260) 569-1775,,,,,,
Ricks Furniture,,504 E 10Th St,,Del Rio,TX,78840 ,US,(830) 775-1508,,,,,,
Albertsen's Home Furnishings,,2885 Ray Lawyer Dr,,Placerville,CA,95667 ,US,(530) 642-1871,,,,,,
Sierra Furniture Company,,1267 Broadway,,Placerville,CA,95667 ,US,(530)622-6478,,,,,,
Big 1 Furniture and Appliance,,1145 Sutton Way,,Grass Valley,CA,95945 ,US,(530)274-2441,,,,,,
Homested Furniture,,2020 Feather River Blvd,,Oroville,CA,95965 ,US,(530) 532-7968,,,,,,
Audio Contractors LLC,,1015 North Main Street,,Oregon,WI,53575 ,US,(608) 835-0556,,,,,,
Forrest Street Furniture,,318 South Forrest Street,,Stoughton,WI,53589 ,US,(608) 205-9243,,,,,,
Ayers Furniture,,703 Main Street,,Ridgeway,WI,53582 ,US,(608) 724-3211,,,,,,
Pierce Furniture,,1201 Seventeenth Street,,Brodhead,WI,53520 ,US,(608) 897-2196,,,,,,
Siker Furniture,,2708 Milton Avenue,,Janesville,WI,53545 ,US,(608) 754-3949,,,,,,
Janesville Comfort Shoppe,,2816 North Pontiac Drive,,Janesville,WI,53545 ,US,(608) 754-4770,,,,,,
McGann Furniture,,201 Third Avenue,,Baraboo,WI,53913 ,US,(608) 356-9489,,,,,,
The Portage Furniture Store,,126 East Cook Street,,Portage,WI,53901 ,US,(608) 742-4106,,,,,,
Monroe Furniture,,110 West Sixth Street,,Monroe,WI,53566 ,US,(608) 325-9200,,,,,,
Janesville Comfort Shoppe,,2506 Center Avenue,,Janesville,WI,53546 ,US,(608) 743-2126,,,,,,
direct value furniture,,5486 elevator Rd.,,Roscoe,IL,61073 ,US,(815)623-7400,,,,,,
Verhage Furniture,,806 West Main Street,,Waupun,WI,53963 ,US,(920) 324-9151,,,,,,
Benson Stone Co Inc,,1100 11Th St,,Rockford,IL,61104 ,US,(815) 227-2000,,,,,,
Banworth-Udelhoven Furniture World,,7177 Hwy 81 W,,Platteville,WI,53818 ,US,(608) 348-9926,,,,,,
C & M Liquidators,,331 High St Po Box 81,,Union Center,WI,53962 ,US,(715) 698-2252,,,,,,
Krogens Do It Best,,924 Wisconsin,,Boscobel,WI,53805 ,US,(608) 375-4656,,,,,,
Guynn Furniture,,610 North Main Street,,Hillsville,VA,24343 ,US,(276) 728-7941,,,,,,
Guynn Furniture,,208 East Oldtown Street,,Galax,VA,24333 ,US,(276) 236-6691,,,,,,
Guynns,,572 East Main Street,,Independence,VA,24348 ,US,(276) 773-2712,,,,,,
Tahoe Furniture Outlet,,2929 Lake Forest Rd. #3,,Tahoe City,CA,96145 ,US,(530)583-1843,,,,,,
Graeagle Lighting Company,,109 Hwy 89,,Graeagle,CA,96103 ,US,(530)836-2383,,,,,,
Robbins Furniture Co,,2830 Main St,,Susanville,CA,96130 ,US,(530) 257-7788,,,,,,
Zaengles Furniture and Floor,,2800 Main St.,,Susanville,CA,96130 ,US,(530)257-7788,,,,,,
Danilov Home Furnishings,,6119 Skyway,,Paradise,CA,95969 ,US,(530) 872-4958,,,,,,
Esplanade Furniture,,1750 Esplanade,,Chico,CA,95926 ,US,(530)891-4788,,,,,,
Olindes,,North 19Th St,,Baton Rouge,LA,70821 ,US,(225) 926-3380,,,,,,
Home Furniture,,8440 Airline Hwy,,Baton Rouge,LA,70821 ,US,(225) 927-0663,,,,,,
Olinde's,,9536 Airline Hwy,,Baton Rouge,LA,70815 ,US,(225) 926-3380,,,,,,
Brian's Furniture,,515 Court St,,Port Allen,LA,70767 ,US,(225) 346-0896,,,,,,
Bellelos Furniture & Appliance,,3425 Hwy 1 South,,Port Allen,LA,70767 ,US,(225)749-0076,,,,,,
Bellelo's Home Furnishings,,3425 Hwy 1 South,,Port Allen,LA,70767 ,US,(225)749-0076,,,,,,
Olindes,,New Roads Shopping,,New Roads,LA,70760 ,US,(225) 638-9031,,,,,,
Bellelos Furniture & Appliance,,372 Hospital Road,,New Roads,LA,70760 ,US,(225)638-4526,,,,,,
Callihan Furniture,,208 Ave G,,Kentwood,LA,70444 ,US,(985) 229-4316,,,,,,
Home Furniture,,406 Jefferson Terrace,,New Iberia,LA,70560 ,US,(318) 365-6782,,,,,,
Discount Furniture Warehouse,,916 Levee Road,,Morgan City,LA,70380 ,US,(985) 384-4438,,,,,,
Foti Furniture Co,,1302 E Adimarl Doyle,,New Iberia,LA,70560 ,US,(318) 369-7082,,,,,,
Pat's Furniture,,6460 Mableton Pkwy,,Mableton,GA,30126 ,US,(770) 941-0670,,,,,,
Americana Furniture Showroom,,3401 Lawrenceville Hwy,,Tucker,GA,30084 ,US,(770) 938-9570,,,,,,
Farmers,,8564 Tara Blvd.,,Jonesboro,GA,30236 ,US,(770) 478-3000,,,,,,
Farmers,,180 Banks Crossing,,Fayettville,GA,30214 ,US,(770) 461-9939,,,,,,
Farmers,,6121 Fairburn Rd.,,Douglasville,GA,30134 ,US,(770) 942-4542,,,,,,
Farmers,,1625 Pleasant Hill Rd.,,Duluth,GA,30096 ,US,(770) 806-1693,,,,,,
Design Center Inc,,6632 E Broad St,,Douglasville,GA,30134 ,US,(770) 949-6348,,,,,,
The Cotton House,,21 Milton Avenue,,Alpharetta,GA,30201 ,US,(404) 475-3100,,,,,,
Woodstock Outlet,,52 Village Blvd,,Dallas,GA,30157 ,US,(678) 363-1850,,,,,,
Woodstock Outlet,,100 Robin Road Extension,,Acworth,GA,30102 ,US,(678) 255-1000,,,,,,
Campanile's Casual Home,,399 HWY 74 North,,Peachtree City,GA,30269 ,US,(770) 486-9552,,,,,,
Brownlee's Furniture,,309 Maltbie St,,Lawrenceville,GA,30045 ,US,(770) 963-6435,,,,,,
Farmers,,451 West Bankhead Hwy,,Villa Rica,GA,30280 ,US,(770) 459-3570,,,,,,
Buford Furniture Gallery,,1839 Buford Hwy,,Buford,GA,30518 ,US,(770) 945-5727,,,,,,
Garrison's Furniture & Appliance,,3701 Hwy 20 East,,Canton,GA,30114 ,US,(770) 479-5716,,,,,,
Jones Harrison,,421 West Solomon,,Griffin,GA,30224 ,US,(770)228-8490,,,,,,
Moore's Furniture,,980 Carrillton Hwy,,Temple,GA,30179 ,US,(770) 562-4444,,,,,,
Discount City Furniture,,106 S. Tennessee St.,,Cartersville,GA,30120 ,US,(770) 382-2866,,,,,,
Farmers,,1310 W. Spring St.,,Monroe,GA,30655 ,US,(770) 267-1118,,,,,,
Peters & Foster Inc,,205 E Washington St,,Monroe,GA,30655 ,US,(404) 267-7546,,,,,,
Highland Furniture,,500 N. Highland Ave,,Aurora,IL,60506 ,US,(630)897-6089,,,,,,
Turk Furniture,,448 South Route 59,,Naperville,IL,60540 ,US,(630) 352-0481,,,,,,
Nick's Furniture,,760  Heartland Drive,,Sugar Grove,IL,60554 ,US,(630) 466-5222,,,,,,
Crest Furniture,,3285 Ogden Ave,,Lisle,IL,60532 ,US,(630) 357-1377,,,,,,
Turk Furniture,,2901 Ring Rd.,,Joliet,IL,60431 ,US,(815)439-8820,,,,,,
Best Price Furniture,,1600 75th St,,Downers Grove,IL,60516 ,US,(630)737-0062,,,,,,
Walter E Smithe Furniture,,177 East Army Trail Road,,Glendale Heights,IL,60139 ,US,(630)539-4320,,,,,,
Mike's Furniture,,830  E Cass St,,Joliet,IL,60432 ,US,(815) 722-6686,,,,,,
Home Furniture Mart,,1200 Spring Hill Mall,,West Dundee,IL,60118 ,US,(847)227-8286,,,,,,
Carson Pirie Scott Furniture Gallery,,830 E. Golf Rd,,Schaumburg,IL,60173 ,US,(847) 882-2447,,,,,,
Darvin Furniture,,15400 S La Grange Rd,,Orland Park,IL,60462 ,US,(708) 460-4100,,,,,,
Walter E Smithe Furniture,,15355 S Lagrange Rd,,Orland Park,IL,60462 ,US,(708)403-7115,,,,,,
Michael's Furniture Showplace,,623 Americana Blvd,,Boise,ID,83702 ,US,(208) 344-8425,,,,,,
Mor Furniture For Less,,5621 Fairview Ave,,Boise,ID,83706 ,US,(866)466-7435,,,,,,
RC Willey - Boise,,3301 East Lanark,,Meridan,ID,83642 ,US,(208)288-4100,,,,,,
Rostock Furniture,,307 S Kimbau,,Caldwell,ID,83605 ,US,(208) 459-0816,,,,,,
Parma Furn Co,,108 3Rd St,,Parma,ID,83660 ,US,(208) 722-5159,,,,,,
Eldredge Furniture,,398 S Oregon,,Ontario,OR,97914 ,US,(541) 889-5642,,,,,,
Peoples Furniture,,525 State St,,Weiser,ID,83672 ,US,(208)549-2246,,,,,,
Everton Mattress Factory and Furniture Gallery,,347 Poleline Road,,Twin Falls Idaho,ID,83301 ,US,(208)733-8373,,,,,,
Blackers Furniture,,223 second ave east,,twin falls idaho,ID,83301 ,US,(208)733-1804,,,,,,
Lee's Furniture Clearance Outlet,,459 Overland Avenue,,Burley,ID,83318 ,US,(208) 878-4433,,,,,,
Skaggs Furniture,,149 E 23rd St,,Burley,ID,83318 ,US,(208)878-5100,,,,,,
Globe Furniture,,1520 Adams Ave.,,La Grande,OR,97850 ,US,(541) 963-4144,,,,,,
Blacker's Furniture,,1365 Parkway Drive,,Blackfoot,ID,83221 ,US,(208) 785-2030,,,,,,
Maple Street Sit-N-Sleep,,206 W Maple,,Pocatello,ID,83201 ,US,(208) 233-1099,,,,,,
Bitterroot Furniture,,223 Pinckney Street,,Hamilton,MT,59840 ,US,(406) 363-1943,,,,,,
Standard Furniture Company,,2020 3rd Avenue North,,Birmingham,AL,35203 ,US,(205) 322-1891,,,,,,
Standard Furniture Company,,613 Decatur Highway,,Gardendale,AL,35071 ,US,(205) 631-5641,,,,,,
Standard Furniture Company,,1631 Center Point Road,,Birmingham,AL,35215 ,US,(205) 856-1250,,,,,,
Standard Furniture Company,,1533 South Main Street,,Graysville,AL,35073 ,US,(205) 674-5631,,,,,,
Standard Furniture Company,,301 North 19th Street,,Bessemer,AL,35020 ,US,(205) 425-4337,,,,,,
Barnett Furniture,,6961 Gadsen Highway,,Trussville,AL,35173 ,US,(205) 655-7049,,,,,,
Standard Furniture Company,,7710 Parkway Drive,,Leeds,AL,35094 ,US,(205) 699-8412,,,,,,
Standard Furniture Company,,3026 Pelham Parkway,,Pelham,AL,35124 ,US,(205) 664-5631,,,,,,
TD's Fine Furniture,,471 Old Warrior Road,,Sumiton,AL,35148 ,US,(205) 648-3858,,,,,,
Sides Furniture & Bedding,,121 Sharon Boulevard,,Dora,AL,35602 ,US,(205) 648-8017,,,,,,
Standard Furniture Company,,2108 Cogswell Avenue,,Pell City,AL,35128 ,US,(205) 338-3830,,,,,,
Mccutcheon Furniture,,1310 Elliott Boulevard,,Jasper,AL,35502 ,US,(205) 387-1465,,,,,,
Standard Furniture Company,,809 Battle Street East,,Talladega,AL,35160 ,US,(256) 362-2330,,,,,,
Standard Furniture Company,,906 Perry Street Southwest,,Cullman,AL,35223 ,US,(256) 734-6564,,,,,,
Union Furniture,,2104 Greensboro Avenue,,Tuscaloosa,AL,35401 ,US,(205) 758-3693,,,,,,
Johns Place Furniture,,15147 County Road #41,,Addison,AL,35540 ,US,(256) 747-6300,,,,,,
Harold Elliot Smith,,337 South Main Street,,Goodwater,AL,35072 ,US,(256) 839-6784,,,,,,
Comfort Furniture,,50 Sterling Point Lane,,Oxford,AL,36203 ,US,(256) 832-9943,,,,,,
Weathers Hardware and Appliance Company,,10055 Alabama Highway,,Boaz,AL,35957 ,US,(256) 593-4218,,,,,,
Standard Furniture Company,,104 Temple Avenue North,,Fayette,AL,35555 ,US,(205) 932-6330,,,,,,
Twin City Furniture,,110 Mckinley Ave,,Kellogg,ID,83837 ,US,(208) 786-9351,,,,,,
Sears Kelowna Home Store,,"2271 Harvey Ave., Unit 1405",,Kelowna,BC,V1Y 6H2 ,CA,(250) 763-7179,,,,,,
The Bon-Ton,,101 Irondequoit Dr,,Rochester,NY,14622 ,US,(585) 342-2200,,,,,,
Raymour & Flanigan,,500 Jay Scutti Boulevard,,Rochester,NY,14623 ,US,(585) 272-1870,,,,,,
The Bon-Ton,,98 Greece Ridge Center,,Rochester,NY,14626 ,US,(585) 227-1040,,,,,,
The Bon-Ton,,15 Miracle Mile Drive,,Rochester,NY,14623 ,US,(585) 292-1030,,,,,,
York Furniture,,3535 West Henrietta Road,,Rochester,NY,14623 ,US,(585) 427-8979,,,,,,
Raymour & Flanigan,,2780 Ridge Road West,,Rochester,NY,14626 ,US,(585) 225-9455,,,,,,
Raymour & Flanigan,,2 Eastview Mall Drive,,Victore,NY,14564 ,US,(585) 425-2900,,,,,,
Raymour & Flanigan,,18 Townline Road,,Canandaigua,NY,14424 ,US,(585) 394-7410,,,,,,
J F Lynch,,13 Bristol Street,,Canandaigua,NY,14424 ,US,(585) 394-6190,,,,,,
Lynch's Furniture,,129 Genesee Street,,Auburn,NY,13021 ,US,(315) 252-7155,,,,,,
FFO Home,,2010 S. Sheridan,,Tulsa,OK,74112 ,US,(918) 835-1033,,,,,,
Cox Furniture,,3416 S 113Th West Ave,,Sand Springs,OK,74063 ,US,(918) 245-5758,,,,,,
Foley's,,8707 E 71St St,,Tulsa,OK,74133 ,US,(918) 250-2990,,,,,,
Mathis Brothers Furniture,,6611 S. 101st East Avenue,,Tulsa,OK,74133 ,US,(918) 461-7785,,,,,,
FFO Home,,12932 E. 86th St.,,Owasso,OK,74055 ,US,(918) 932-1414,,,,,,
North Carolina Furniture Mart,,12109 S Memorial Dr,,Bixby,OK,74008 ,US,(918) 369-3305,,,,,,
FFO Home,,1400 E. Kenosha,,Broken Arrow,OK,74012 ,US,(918) 251-1024,,,,,,
Burrows Furniture,,1650 N Lynn Riggs,,Claremore,OK,74017 ,US,(918)341-6697,,,,,,
Center Furniture,,201 S. Main St.,,Wagoner,OK,74467 ,US,(918)485-2509,,,,,,
FFO Home,,2119 SE Washington,,Bartlesville,OK,74006 ,US,(918) 333-8046,,,,,,
Michaels Carpet & Sleep Center,,596 SE Washington Blvd.,,Bartlesville,OK,74006 ,US,(918)335-2940,,,,,,
Cooper-Herrington Furniture,,318 S Dewey,,Bartlesville,OK,74003 ,US,(918) 336-2015,,,,,,
Tumble Inn Home Furnishings,,3916 W Okmulgee St,,Muskogee,OK,74401 ,US,(918) 682-1581,,,,,,
FFO Home,,1551 W. Shawnee,,Muskogee,OK,74401 ,US,(918) 683-6544,,,,,,
Coopers Furniture,,1101 West Shawnee,,Muskogee,OK,74401 ,US,(918) 682-9333,,,,,,
Mcclain Furniture,,1305 South 32Nd,,Muskogee,OK,74401 ,US,(918) 687-6561,,,,,,
Homemaker Furniture,,10215 Douglas Ave,,Des Moines,IA,50322 ,US,(515) 276-2772,,,,,,
Store For Homes,,1701 First Ave W,,Newton,IA,50208 ,US,(515) 792-2240,,,,,,
Micks Furniture,,7 S Clinton St,,Albia,IA,52531 ,US,(641) 932-7115,,,,,,
Frederick Furniture,,509 E. 1St St,,Grundy Center,IA,50638 ,US,(319)824-5235,,,,,,
Offsprings Furniture,,306 South Garfield Street,,Mount Ayr,IA,50854 ,US,(641) 464-3703,,,,,,
The Home Collection,,119 W Van Buren St,,Centerville,IA,52544 ,US,(641) 856-5406,,,,,,
Simpson Furn,,515 Main St,,Cedar Falls,IA,50613 ,US,(319) 266-3535,,,,,,
Nelson Furniture,,507 1St Ave,,Vinton,IA,52349 ,US,(319) 472-4262,,,,,,
Nelson Furniture,,507 1st Ave,,Vinton,IA,52349 ,US,(319)472-4262,,,,,,
Hopf Home Furniture,,101 B Ave,,Kalona,IA,52247 ,US,(319)656-2727,,,,,,
Roomakers Furniture & Flooring,,2020 16th Ave. SW,,Cedar Rapids,IA,52404 ,US,(319) 366-4732,,,,,,
Marshall Furniture,,221 South Iowa Avenue,,Washington,IA,52353 ,US,(319) 653-2633,,,,,,
Gerth & Baskett,,115 S. Main,,Memphis,MO,63555 ,US,(660) 465-8579,,,,,,
North Iowa Mattress Outlet,,506 4th Street SW,,Mason City,IA,50401 ,US,(641) 423-2201,,,,,,
Parker Furniture,,1101 Aberdeen Road,,Laurinburg,NC,28352 ,US,(910) 276-5850,,,,,,
Cox Warehouse Discount Furniture,,1423 North J K Powell Boulevard,,Whiteville,NC,28472 ,US,(910) 640-2900,,,,,,
Kimball's Furniture,,US-17 North,,Shallotte,NC,28459 ,US,(910) 754-4541,,,,,,
Kyser Furniture,,4044 Wetumpka Highway,,Montgomery,AL,36116 ,US,(334) 272-3164,,,,,,
Chambers Furniture,,6021 Troy Highway,,Montgomery,AL,36116 ,US,(334) 613-0750,,,,,,
Auburn Furniture,,507 Oplika Road,,Auburn,AL,36830 ,US,(334) 826-2141,,,,,,
Barrow Furniture,,1220 MLK Expressway,,Andalusia,AL,36420 ,US,(334) 222-6650,,,,,,
Mitchell Furniture,,710 Boll Weevil Circle,,Enterprise,AL,36330 ,US,(334) 473-3441,,,,,,
Farmers,,3150 Macon Rd.,,Colombus,GA,31906 ,US,(706) 324-0424,,,,,,
Vowells Furniture & Appliance,,401 S Greenwood ST,,LaGrange,GA,30240 ,US,(706)884-3110,,,,,,
Farmers,,814 New Franklin Rd.,,Lagrange,GA,30240 ,US,(706) 883-7947,,,,,,
Beechwood Furniture Outlet,,110 Commerce Ave,,LaGrange,GA,30240 ,US,(706)882-2127,,,,,,
Stewarts Furniture,,3175 Montgomery Highway,,Dothan,AL,36303 ,US,(334) 794-7644,,,,,,
Lompoc Furniture Mart,,127 South H St,,Lompoc,CA,93436 ,US,(805) 736-1526,,,,,,
Green Acres Furniture,,7412 Massillon Road,,Navarre,OH,44662 ,US,(330) 359-6251,,,,,,
Ivan Smith,,1229 Texas Ave,,Shreveport,LA,71101 ,US,(318) 425-7768,,,,,,
Ivan Smith,,1149 Airline Dr,,Bossier City,LA,71112 ,US,(318) 747-9075,,,,,,
Johnson's Furniture,,921 West Gate Dr,,Bossier City,LA,71112 ,US,(318) 742-1621,,,,,,
Ivan Smith,,3515 Jewella,,Shreveport,LA,71106 ,US,(318) 635-3080,,,,,,
Ivan Smith,,503 West 70Th Street,,Shreveport,LA,71106 ,US,(318) 686-0026,,,,,,
Ivan Smith,,1110 West 70Th St,,Shreveport,LA,71106 ,US,(318) 861-3423,,,,,,
Ivan Smith,,6930 Pines Road,,Shreveport,LA,71129 ,US,(318) 687-1936,,,,,,
Hollys Appliance & Furniture,,720 Homer Rd,,Minden,LA,71055 ,US,(318) 377-6285,,,,,,
Ivan Smith,,1011 Homer Rd,,Minden,LA,71055 ,US,(318) 371-9455,,,,,,
Ivan Smith,,111 Plaza Dr.,,Mansfield,LA,71052 ,US,(318) 872-6171,,,,,,
Ivan Smith,,1903 E Houston St,,Marshall,TX,75672 ,US,(903) 935-2326,,,,,,
Ivan Smith,,801 S Arkansas St,,Springhill,LA,71075 ,US,(318) 539-3548,,,,,,
Smith Furniture,,319 Main St,,Logansport,LA,71049 ,US,(318) 697-5902,,,,,,
Carthage Furniture,,801 W Panola,,Carthage,TX,75633 ,US,(903) 693-3624,,,,,,
Eddie Woods Furniture,,212 E Hiram St,,Atlanta,TX,75551 ,US,(903) 796-2500,,,,,,
Ivan Smith,,126 Loop 59,,Atlanta,TX,75551 ,US,(903) 796-2826,,,,,,
Ivan Smith,,1715  1St St,,Arcadia,LA,71001 ,US,(318) 263-8544,,,,,,
Ivan Smith,,213 San Augustine St,,Center,TX,75935 ,US,(409) 598-2911,,,,,,
Lowell Holloway Furniture,,836 West Marshall Ave.,,Longview,TX,75601 ,US,(903)-758-3101,,,,,,
Raymour & Flanigan,,1855 Central Park Ave,,Yonkers,NY,10710 ,US,(914) 793-3404,,,,,,
Thomasville Furniture,,2579 Central Park Avenue,,Yonkers,NY,10710 ,US,(914) 395-3994,,,,,,
Raymour & Flanigan,,2264 Bartow Avenue,,Bronx,NY,10475 ,US,(718) 906-3600,,,,,,
Furniture Bank,,23 Bergenline Avenue,,Westwood,NJ,07675 ,US,(201) 358-1556,,,,,,
Furniture City,,557 RTE 17,,Paramus,NJ,07652 ,US,,,,,,,
Raymour & Flanigan,,1 Maple Ave,,White Plains,NY,10605 ,US,(914) 269-9900,,,,,,
Thomasville Furniture,,109 RTE 59 East,,Nanuet,NY,10954 ,US,(845) 627-2207,,,,,,
Raymour & Flanigan,,43 Hutton Avenue,,Nanuet,NY,10954 ,US,(845) 623-1434,,,,,,
Accent On The Home,,10 Glenn Street,,Glen Cove,NY,11542 ,US,(516) 574-0726,,,,,,
Texas Furniture,,3600 Soncy,,Amarillo,TX,79106 ,US,(806) 358-7088,,,,,,
Johnny's Furniture Mart,,609 N Main St,,Borger,TX,79007 ,US,(806) 274-6881,,,,,,
Texas Furniture,,1415 N. Hobart,,Pampa,TX,79065 ,US,(806)665-1623,,,,,,
Panhandle Furniture,,515 N Main St,,Guymon,OK,73942 ,US,(580) 338-3114,,,,,,
Gordon's Furniture,,222 Commerce St,,Childress,TX,79201 ,US,(940) 937-3218,,,,,,
Eddins Furniture,,1415 19Th,,Lubbock,TX,79424 ,US,(806) 747-7400,,,,,,
W D Wilkins,,3111 50Th St,,Lubbock,TX,79413 ,US,(806) 797-4211,,,,,,
Pugh's,,140 S Douglas,,Beaver,OK,73932 ,US,(580) 625-4431,,,,,,
Darbys Mercantile Co,,Hwy 62,,Duke,OK,73532 ,US,(580) 679-3372,,,,,,
Scantlin Furniture,,211 S Washington,,Liberal,KS,67901 ,US,(620) 624-3859,,,,,,
H & H Furniture,,300 West Commerce,,Altus,OK,73522 ,US,(580) 482-5100,,,,,,
Bulldog Furniture,,20851 US Hwy. 62,,Altus,OK,73521 ,US,(580)482-1888,,,,,,
Goin's Home Furnishings,,101 E. Oklahoma Ave.,,Woodward,OK,73801 ,US,(580)256-5260,,,,,,
Landes Furniture,,113 N Garfield,,Rotan,TX,79546 ,US,(915) 735-3171,,,,,,
Appliance Mart,,1117 N Fleming,,Garden City,KS,67846 ,US,(620) 275-4197,,,,,,
Ramage Furniture,,168 E 2Nd St,,Colorado City,TX,79512 ,US,(325) 728-3373,,,,,,
Farmers,,201 West 6th St.,,Waynesboro,GA,30830 ,US,(706) 554-2476,,,,,,
G O Hughes Furniture,,117 Greenway St,,Thomson,GA,30824 ,US,(706) 595-2744,,,,,,
Farmers,,672 Washington Rd.,,Thomson,GA,30824 ,US,(706) 595-9303,,,,,,
Badcock Home Furniture & More,,683 Main St,,Thomson,GA,30824 ,US,(706) 595-7178,,,,,,
Davis McGraw Inc,,812 Peachtree St,,Louisville,GA,30434 ,US,(478)494-5325,,,,,,
Farmers,,702 Peachtree St,,Louisville,GA,30434 ,US,(478) 625-7600,,,,,,
Economy Furniture,,120 Main St,,Leesville,SC,29070 ,US,(803) 532-9273,,,,,,
Farmers,,1012 E. Robert Toombs Ave.,,Washington,GA,30673 ,US,(706) 678-4747,,,,,,
Badcock Home Furniture & More,,925 N Bypass East,,Washington,GA,30373 ,US,(706) 678-1210,,,,,,
Farmers,,624 W. Ogeechee,,Sylvania,GA,30467 ,US,(912) 564-7841,,,,,,
The furniture Outlet,,888 Harmony Rd,,Eatonton,GA,31024 ,US,(706)923-1111,,,,,,
Denmark Department Store,,105 Lee St,,Brooklet,GA,30415 ,US,(912) 842-2141,,,,,,
Lake Sinclair Furniture,,Hwy 441,,Milledgeville,GA,31061 ,US,(478) 452-6124,,,,,,
"Walt's Tv, Appliance & Furniture",,405 N Larel St,,Springfield,GA,31329 ,US,(912) 754-3711,,,,,,
Farmers,,2130 West Broad St.,,Athens,GA,30606 ,US,(706) 354-4554,,,,,,
Haskins Furniture & Appliance,,127 W Clinton,,Gray,GA,31032 ,US,(478) 986-5112,,,,,,
Farmers,,410 S. Columbia Ave,,Rincon,GA,31326 ,US,(912) 826-1390,,,,,,
Pike Road Furniture,,760 south Pike West,,Sumter,SC,29150 ,US,(803) 775-9500,,,,,,
FFO Home,,280 S. Shackleford Road,,West Little Rock,AR,72211 ,US,(501) 954-9767,,,,,,
Hanks Fine Furniture,,5704 Warden Road,,NorthLittle Rock,AR,72120 ,US,(501)834-1454,,,,,,
Aaa Home Center,,9701 Interstate 30,,Little Rock,AR,72209 ,US,(501) 224-5769,,,,,,
Hanks Fine Furniture,,1000 South Bowman,,Little Rock,AR,72211 ,US,(501)954-7130,,,,,,
FFO Home,,6527 Warden Road,,Sherwood,AR,72124 ,US,(501) 833-8237,,,,,,
Crafton's Furniture & Appliance,,620 W Main St,,Jacksonville,AR,72076 ,US,(501) 982-5453,,,,,,
Craftons,,2126 N 1st Street,,Jacksonville,AR,72076 ,US,(501)982-5453,,,,,,
FFO Home,,22401 Hwy. I-30,,Bryant,AR,72022 ,US,(501) 847-5402,,,,,,
White Furniture,,Ashley and Main St,,Benton,AR,72015 ,US,(501) 778-7482,,,,,,
Emma's Furniture,,604 Nw Front St,,Lonoke,AR,72086 ,US,(510) 676-2598,,,,,,
Kordsmeier Furniture,,250 Harkrider street,,Conway,AR,72032 ,US,(501)329-3946,,,,,,
FFO Home,,580 Amity Road,,Conway,AR,72032 ,US,(501) 367-6424,,,,,,
Hanks Fine Furniture,,800 Museum Rd,,Conway,AR,72032 ,US,(501)329-7011,,,,,,
Cajun Brothers Furniture,,627 Front St,,Conway,AR,72032 ,US,(501) 336-9497,,,,,,
Warehouse Furniture,,1700 W Dewitt Henry Dr,,Beebe,AR,72012 ,US,(501) 882-6638,,,,,,
Rackley Furniture,,1309 North Business 9,,Morrilton,AR,72110 ,US,(501) 354-1646,,,,,,
Cost Plus Furn,,400 Mlk Blvd,,Malvern,AR,72104 ,US,(501)229-2895,,,,,,
Hazen True Value,,Hwy 70 E & Grove  St,,Hazen,AR,72064 ,US,(501) 255-3551,,,,,,
John A Pope Furniture,,1800 E Harding Ave,,Pine Bluff,AR,71601 ,US,(870) 534-1011,,,,,,
Furniture Mart,,218 East First Street,,Bay Minette,AL,36507 ,US,(251) 937-6480,,,,,,
Taylor Furniture,,11000 Hwy 63,,Escatawpa,MS,39552 ,US,(228) 475-6364,,,,,,
Luckies Furniture,,1714 Pass Rd,,Biloxi,MS,39531 ,US,(228) 432-2525,,,,,,
Where The Heart Is,,6780 Caroline Street,,Milton,FL,32570 ,US,(850) 292-5910,,,,,,
Harveys Home Furnishings,,4545 North College Avenue,,Jackson,AL,36545 ,US,(251) 246-2398,,,,,,
D & B Furniture,,708 Court St.,,Waynesboro,MS,39367 ,US,(601) 735-6165,,,,,,
Schlatters Fine Furniture,,329 Racetrack Road,,Fort Walton Beach,FL,32547 ,US,(850) 862-5624,,,,,,
Just Right Furniture,,699 West James Lee Boulevard,,Crestview,FL,32536 ,US,(850) 398-8875,,,,,,
Stricklands,,6431 U S Highway 49,,Hattiesburg,MS,39401 ,US,(601) 261-0500,,,,,,
"City Salvage, Inc",,2909 Wheeler Drive,,Laurel,MS,39440 ,US,(601)649-0733,,,,,,
Middleton Furniture,,615 Main St,,Columbia,MS,39429 ,US,(601) 736-2717,,,,,,
Alexanders,,53rd Street,,Bay Springs,MS,39422 ,US,(601)764-2161,,,,,,
Hulett Furniture Company,,2227 Front Street,,Meridian,MS,39301 ,US,(601)693-6944,,,,,,
Hulett Wholesale Furniture,,1107 B. Street,,Meridian,MS,39301 ,US,(601) 483-4202,,,,,,
Anders Furniture,,601 Front Street Ext,,Meridian,MS,39301 ,US,(601)483-6181,,,,,,
Klingmans,,2984 28th Street,,Grand Rapids,MI,49512 ,US,(616) 942-7300,,,,,,
Talsma Furniture,,71 84th Street West,,Byron Center,MI,49315 ,US,(616) 455-3770,,,,,,
Talsma Furniture,,3620 Chicago Drive,,Hudsonville,MI,49426 ,US,(616) 669-1030,,,,,,
Broene's Furniture,,5319 Lake Michigan Drive,,Allendale,MI,49401 ,US,(616) 895-4363,,,,,,
Bell's Furniture & Appliance,,9971 Northland Drive,,Rockford,MI,49339 ,US,(616) 866-1951,,,,,,
The Furniture Shed,,12741 Old 14 Mile Road,,Greenville,MI,48838 ,US,(616) 754-7550,,,,,,
Talsma Furniture,,4943 Olive Commerce Drive,,Holland,MI,49424 ,US,(616) 396-2121,,,,,,
Klingman's,,2975 Westshore Drive,,Holland,MI,49424 ,US,(616) 796-9700,,,,,,
Younkers Furniture Gallery,,5159 Harvey St.,,Muskegon,MI,49444 ,US,(231) 798-8800,,,,,,
Bell's Clearance Center,,104 East Colby Street,,Whitehall,MI,49461 ,US,(231) 893-7340,,,,,,
Schroeder's Furniture,,1335 Hilltop Road,,St. Joseph,MI,49085 ,US,(269) 983-7733,,,,,,
Parlin's Home Furniture,,1954 East Chicago Road,,Sturgis,MI,49091 ,US,(269) 651-2240,,,,,,
ABC Warehouse,,5517 Grape Road,,Mishawaka,IN,46545 ,US,(574)273-0808,,,,,,
Tri-City Furniture,,135 West Midland Road,,Auburn,MI,48611 ,US,(989) 662-4446,,,,,,
Denno's Furniture,,3775 Bay Road,,Saginaw,MI,48603 ,US,(989) 793-1080,,,,,,
Elder Beerman Stores,,3701 S. Main,,Elkhart,IN,46517 ,US,(574)875-8571,,,,,,
ABC Warehouse,,"3701 South Main St., Suite 1150 B",,Elkhart,IN,46517 ,US,(574)875-9300,,,,,,
Mishawaka Furniture,,2366 Miracle Lane,,Mishawaka,IN,46544 ,US,(574) 259-5494,,,,,,
Carter Furniture,,501 E Illinois,,Midland,TX,79701 ,US,(432) 682-2843,,,,,,
Van Stavern Interiors Inc,,311 Andrews Hwy,,Midland,TX,79701 ,US,(915) 687-3042,,,,,,
Thomas Everitt's Fine Furniture,,1201 South First,,Abiline,TX,79602 ,US,(325) 677-3781,,,,,,
Warehouse Furniture,,1158 Butternut,,Abilene,TX,79602 ,US,(915) 677-3155,,,,,,
Knoxville Wholesale Furniture,,2381 Old Callahan Drive,,Knoxville,TN,37912 ,US,(865) 671-5300,,,,,,
Jordan Tayor Home Furnishings,,1526 West Andrew Johnson Highway,,Morristown,TN,37814 ,US,(423) 289-1462,,,,,,
Johnson's Home Furnishings,,109 East Washington Avenue,,Athens,TN,37303 ,US,(423) 745-3752,,,,,,
Gibson Furniture Company,,161 Main Street,,Andrews,NC,28901 ,US,(828) 321-3043,,,,,,
Charlottes Interiors,,4258 Peaville Road,,Crossville,TN,38571 ,US,(931) 707-1997,,,,,,
Massie Furniture,,45 North Main Street,,Waynesville,NC,28786 ,US,(828) 456-3311,,,,,,
Roberts Furniture,,221 West Summer Street,,Greeneville,TN,37743 ,US,(423) 639-8166,,,,,,
Something Special,,227 South Main Street,,Hiawassee,GA,30546 ,US,(706) 896-1079,,,,,,
Erwin Hills Wayside Furniture,,507 New Leicester Highway,,Asheville,NC,28806 ,US,(828) 254-7936,,,,,,
M & M Wholesale Furniture,,120 Inman Street,,Cleveland,TN,37311 ,US,(423) 476-1555,,,,,,
Town and Country Furniture,,169 Orvin Lance Conn,,Blue Ridge,GA,30513 ,US,(706)632-8280,,,,,,
Davis Warehouse Furniture,,100 Fairview Road,,Asheville,NC,28806 ,US,(828) 633-1305,,,,,,
Carolina Furniture Concepts,,145 Cane Creek Indian Park Drive,,Fletcher,NC,28732 ,US,(828) 681-5011,,,,,,
Rhoton Smith Furniture,,342 US-23,,Weber City,VA,24290 ,US,(276) 386-7462,,,,,,
Zaks,,1004 Quality Circle,,Johnson City,TN,37615 ,US,(423) 282-4951,,,,,,
Tyson Furniture Co,,670 US-9 South,,Black Mountain,NC,28711 ,US,(828) 669-5000,,,,,,
RL Smith Furniture,,2445 Hwy 17,,Toccoa,GA,30577 ,US,(706)886-6808,,,,,,
Lily Flagg Furniture,,8402 Whitesburg Drive,,Huntsville,AL,35802 ,US,(256) 882-3960,,,,,,
New Hope Furniture,,5004 Main Drive,,New Hope,AL,35760 ,US,(256) 723-4292,,,,,,
Graves Furniture,,10495 US-231,,Arab,AL,35016 ,US,(256) 586-7312,,,,,,
Standard Furniture Company,,106 Hickory Street Southwest,,Hartselle,AL,35640 ,US,(256) 773-5444,,,,,,
Pondarosa Furniture,,628 Old Highway 24,,Trinity,AL,35673 ,US,(256) 355-5630,,,,,,
Weathers Furniture and Appliance,,1328 Gunter Avenue,,Guntersville,AL,35976 ,US,(256) 582-3265,,,,,,
Weathers Hardware and Appliance Company,,203 North Broad Street,,Albertville,AL,35950 ,US,(256) 878-4311,,,,,,
Thomas & Son Furniture,,2816 Powell Main Street East,,Rainsville,AL,35986 ,US,(256) 638-3310,,,,,,
Standard Furniture Company,,14875 Court Street,,Moulton,AL,35650 ,US,(256) 974-1164,,,,,,
W A Akins & Son Furniture,,3450 Country Road 81,,Fort Payne,AL,35967 ,US,(256) 845-2057,,,,,,
Warehouse Furniture,,69 Clark Drive,,Russellville,AL,35654 ,US,(256) 332-0026,,,,,,
Coffee Interiors,,508 S Broad St,,Thomasville,GA,31792 ,US,(912) 226-8452,,,,,,
Southern Heritage Furniture,,1510 E. Pinetree Blvd,,Thomasville,GA,317902 ,US,(229)226-9291,,,,,,
Bainbridge Furniture,,519 Scott St.,,Bainbridge,GA,39817 ,US,(229)246-7001,,,,,,
Broome,,108 E. Second St.,,Donaldsonville,GA,39845 ,US,(229)524-5694,,,,,,
Bevis Furniture,,214 College St.,,Colquitt,GA,39837 ,US,(229)758-3466,,,,,,
Turner Furniture,,575 Veterans Pkwy N,,Moultrie,GA,31768 ,US,(229) 985-6916,,,,,,
Hilliard's Home Furniture,,1003 W. Hutchinson Ave,,Adel,GA,31620 ,US,(229)896-3726,,,,,,
Farmers,,11510 Columbia St.,,Blakely,GA,39823 ,US,(229) 723-4644,,,,,,
Chavers Brock Furniture,,1181 Jackson Avenue,,Chipley,FL,32428 ,US,(850) 638-0188,,,,,,
Turner Furniture,,1601 N Slappy Blvd,,Albany,GA,31708 ,US,(229) 432-7773,,,,,,
Continental Specialty,,185 Brunty Rd.,,TyTy,GA,31795 ,US,(229)392-0900,,,,,,
Turner Furniture Co,,2302 N Slappey Blvd,,Albany,GA,31708 ,US,(912) 432-0766,,,,,,
Turner's Furniture,,375 Oakridge Road,,Tifton,GA,31794 ,US,(912) 382-3266,,,,,,
Turner Furniture,,707 W. 2nd St.,,Tifton,GA,31794 ,US,(229)382-3266,,,,,,
Turner Furniture Co,,707 W Second St,,Tifton,GA,31794 ,US,(912) 382-3266,,,,,,
Railway Freight,,115 S Main St,,Tifton,GA,31794 ,US,(229) 382-4002,,,,,,
Puritan Furniture,,1081 New Britain Avenue,,West Hartford,CT,06110 ,US,(860) 236-4271,,,,,,
Westco Iola,,706 N State St,,Iola,KS,66749 ,US,(316) 365-2323,,,,,,
Ulrich Furniture,,12 N Washington St,,Iola,KS,66749 ,US,(316) 365-2781,,,,,,
Raymour & Flanigan,,3375 Berlin Turnpike,,Newington,CT,6111 ,US,(860) 665-9732,,,,,,
Goldin Furniture,,434 Main Street,,Greenport,NY,11944 ,US,(631) 477-0940,,,,,,
Factory Direct Furniture,,1344 East 42nd Street,,Chattanooga,TN,37407 ,US,(423) 894-9550,,,,,,
Hunter Furniture,,2105 Us Hwy 27,,Summerville,GA,38251 ,US,(706) 857-1624,,,,,,
Moore Furniture Company,,75 N Main St,,Jasper,GA,30143 ,US,(706)692-2031,,,,,,
Farmers,,1017 N. Main St.,,Cedarton,GA,30125 ,US,(770) 748-8681,,,,,,
Curry's Furniture,,245 E Standly St,,Ukaih,CA,95482 ,US,(707) 462-2901,,,,,,
Taylor Roberts,,9000 Hwy 128,,Philo,CA,95466 ,US,(707) 895-2500,,,,,,
Fort Bragg Furniture Mart,,235 N Franklin St,,Fort Bragg,CA,95437 ,US,(707) 964-2501,,,,,,
Sears Richmond Home Store,,"2633 Sweden Way, Unit # 110",,Richmond,BC,V6V 2Z6 ,CA,(604) 279-5532,,,,,,
Lane Home Furnishings Of Coquitlam,,1455 United Blvd,,Coquitlam,BC,V3K 6Y7 ,CA,(604) 522-5144,,,,,,
Sears Langley Home Store,,20015 Langley Bypass # 130,,Langley,BC,V3A 8R6 ,CA,(604) 533-0788,,,,,,
Sears Abbotsford Home Store,,1425 Sumas Way Unit # 100,,Abbotsford,BC,V2S 8M9 ,CA,(604) 852-9222,,,,,,
Vander Berg Furniture,,4168 US Highway 75,,Sioux Center,IA,51250 ,US,(712) 722-3286,,,,,,
Karl's,,208 9th St,,Worthington,MN,56187 ,US,(507)376-3121,,,,,,
Rune's Furniture,,106 11Th St,,Worthington,MN,56187 ,US,(507) 376-6145,,,,,,
Larson Furniture,,1202 E College Dr,,Marshall,MN,56258 ,US,(507) 532-6320,,,,,,
Ufkins Gamble Store,,109 N Jefferson,,Minneota,MN,56264 ,US,(507) 872-6159,,,,,,
Robinsons Furniture,,900 NORTH 2nd Street,,Cherokee,IA,51012 ,US,(712) 225-5861,,,,,,
Snooks of Okoboji,,1204 Terrace Park Blvd,,Milford,IA,51351 ,US,(712)332-7530,,,,,,
Windom Floor & Sleep,,E Hwy 60,,Windom,MN,56101 ,US,(507) 831-4463,,,,,,
Steffens Furniture Co,,420 Grand Avenue,,Spencer,IA,51301 ,US,(712) 262-5420,,,,,,
Sieverts Furniture & Floors,,306 2nd st,,Jackson,MN,56143 ,US,(507)847-3700,,,,,,
Snooks Carpet & Furniture,,110 Blake Street,,Sioux Rapids,IA,50585 ,US,(712) 283-2584,,,,,,
Sieverts Furniture,,512 Central,,Estherville,IA,51334 ,US,(712) 362-2916,,,,,,
Moeller Furniture,,1233 North Lake Ave,,Storm Lake,IA,50588 ,US,(712) 732-3366,,,,,,
A & W Furniture,,1501 E Bridge St,,Redwood Falls,MN,56283 ,US,(507) 644-3535,,,,,,
MidCity Office Furniture,,1900 Center Drive,,Norfolk,NE,68701 ,US,(402) 371-6838,,,,,,
Hub City Furniture,,429-433 Lincoln Hwy,,Rochelle,IL,61068 ,US,(815)562-8765,,,,,,
Leon's Furniture,,10875 Yonge St.,,Richmond Hill,ON,L4C 3E3 ,CA,(905) 770-4424,,,,,,
Emerald Isle,,265 Guelph St,,Georgetown,ON,L7G 483 ,CA,(905) 873-2753,,,,,,
Leon's Furniture,,20 McLevin Ave.,,Scarborough,ON,M1B 2V5 ,CA,(416) 291-3818,,,,,,
Leon' Furniture,,3167 North Service Road,,Burlington,ON,L7N 3G2 ,CA,(905) 335-1811,,,,,,
Pileria's,,207 Northern,,Sault Ste. Marie,ON,P6B 4H9 ,CA,(705) 946-2538,,,,,,
Leon's Furniture,,2872 Danforth Ave.,,Toronto,ON,M4C 1M1 ,CA,(416) 699-7143,,,,,,
The Bon-Ton,,4081 Rt 31,,Clay,NY,13041 ,US,(315) 622-2017,,,,,,
Corcoran Furniture,,201 South 9th Street,,Manchester,IA,52057 ,US,(563) 927-3640,,,,,,
Leon's Furniture,,2070 Dundas Street East,,Mississauga,ON,L4X 1L9 ,CA,(905) 848-5366,,,,,,
Leon's Furniture,,"121 Silvercreek Parkway North, Willow West Mall",,Guelph,ON,N1H 3T3 ,CA,(519) 767-5366,,,,,,
Exclusively Leather,,87 Clarence St & Kanata Centrum Plaza,,Ottawa,ON,K1N 5P5 ,CA,(613) 241-7666,,,,,,
Leon's Furniture,,"286 Fairway Road, Fairview Park",,Kitchener,ON,N2C 1W9 ,CA,(519) 894-1850,,,,,,
Bierman's Home Furnishing,,422 Division St S,,Northfield,MN,55057 ,US,(507) 645-9272,,,,,,
Leon's Furniture,,95 First St.,,Orangeville,ON,L9W 2E8 ,CA,(519) 938-8370,,,,,,
Wiesner & Massart,,407 Main Street,,Casco,WI,54205 ,US,(920) 837-7414,,,,,,
Hudson's,,429 Dundas St,,Woodstock,ON,N4S 1B8 ,CA,(519) 537-2397,,,,,,
Olum's Furniture,,154 Northern Lights Plaza,,Syracuse,NY,13212 ,US,(607) 729-5775,,,,,,
Leons Furniture,,45 Gordon Mackay Road,,Toronto,ON,M9N 3X3 ,CA,(416) 243-7880,,,,,,
Leon's Furniture,,10 Suntract Road,,Toronto,ON,M9N 3N9 ,CA,(416) 243-8300,,,,,,
Leon's Furniture,,242 81 Byrne Drive,,Barrie,ON,L4N 8V8 ,CA,(705) 730-1777,,,,,,
Leon's Furniture,,"218 Henry St., Building B",,Brantford,ON,N3S 0E3 ,CA,(519) 753-0834,,,,,,
Starr Furniture & Appliance,,156 Simcoe St S,,Oshawa,ON,L1H 4G9 ,CA,(905) 576-1918,,,,,,
John V. Schultz,,7200 Peach  Street,,Erie,PA,16509 ,US,(814) 868-7137,,,,,,
Leon's Furniture,,10081 McLaughlin Road North,,Brampton,ON,L7A 2X5 ,CA,(905) 495-9598,,,,,,
Bob & Fran’s Factory Direct,,724 Laurel St.,,Brainerd,MN,56401 ,US,(218) 829-2849,,,,,,
The Furniture Gallery,,111 3rd Street NE,,Baudette,MN,56623 ,US,(218) 634-3111,,,,,,
Sears Oshawa A&M,,"1177 Ritson Road North, Unit #6",,Oshawa,ON,L1G 8B9 ,CA,(905) 429-2330,,,,,,
Machan Home Furniture,,370 Bayfield Road,,Goderich,ON,N7A 4E7 ,CA,(519) 524-8313,,,,,,
Jim's Home Furniture,,1197 Pembroke St,,Pembroke,ON,K8A 3M2 ,CA,(613) 732-4090,,,,,,
Hudsons Furniture,,429 Dundas St,,Woodstock,ON,N4S 1B8 ,CA,(519)537-2397,,,,,,
Leon's Furniture,,817 Notre Dame Avenue,,Sudbury,ON,P3A 2T2 ,CA,(705) 524-5366,,,,,,
Leon's Furniture,,799 Fort William Road,,Thunder Bay,ON,P7B 3A2 ,CA,(807) 346-1288,,,,,,
Leon's Furniture,,2600 Queensview Drive,,Ottawa,ON,K2B 8K2 ,CA,(613) 820-6446,,,,,,
Bob's Factory Outlet,,150 Second Avenue North,,Park Falls,WI,54552 ,US,(715) 762-2668,,,,,,
Shunk Furniture,,364 US Highway 41 East,,Negaunee,MI,49866 ,US,(906) 226-6075,,,,,,
Leon's Furniture,,299 Bass Pro Mills Drive,,Concord,ON,L4K 5Z6 ,CA,(905) 532-0141,,,,,,
Linde Furniture,,419 North Main Street,,Cheboygan,MI,49721 ,US,(888) 546-3348,,,,,,
Valley Squire Furniture,,4599 Bank St,,Ottawa,ON,K1T 3W8 ,CA,(613) 822-0501,,,,,,
Elkader Carpet & Design,,103 Mulberry,,Elkader,IA,52043 ,US,(563) 245-2714,,,,,,
Mcmullin Furniture & Appl,,12 Gore St,,Perth,ON,K7A 4S5 ,CA,(613) 267-2241,,,,,,
Boscov's,,11 Court Street,,Binghamton,NY,13901 ,US,(607) 722-4220,,,,,,
Chris's Furniture,,31 Main St,,Warkworth,ON,K0K 3K0 ,CA,(705) 924-3154,,,,,,
Twohey's Furniture,,129 Aylmer St N,,Peterborough,ON,K9J 3J7 ,CA,(705) 748-9551,,,,,,
Foley's,,511 Hume St,,Collingwood,ON,L9L 3H9 ,CA,(705) 445-0661,,,,,,
Home Furniture,,1421 King St N,,St Jacobs,ON,N0B23N0 ,CA,(519) 664-3301,,,,,,
Currie's Furniture,,2668 M-37 South,,Traverse City,MI,49685 ,US,(231) 943-8570,,,,,,
Almonte Home Furniture,,476 Ottawa Street,,Almonte,ON,K0A 1A0 ,CA,(613) 256-4663,,,,,,
Oak Unlimited,,95 King Street,,Bowmanville,ON,L1C 1R2 ,CA,(905)623-2365,,,,,,
H & F Furniture,,155 State Road 35,,River Falls,WI,54022 ,US,(715) 425-2782,,,,,,
Spencers Furniture,,1652 Regent Street,,Sudbury,ON,P3E 5S1 ,CA,(705) 523-6251,,,,,,
Churko Furniture,,Hwy #121 W,,Haliburton,ON,K0M 2K0 ,CA,(705) 457-9571,,,,,,
James Reid Furniture,,252 Princess Street,,Kingston,ON,K7L 1B2 ,CA,(613) 548-3022,,,,,,
Kelly's Home Furniture,,Hwy # 60,,Huntsville,ON,P1H 1C2 ,CA,(705) 789-0439,,,,,,
Foleys Furniture,,511 Hume,,Colloingwood,ON,L9Y 3Z4 ,CA,(705) 445-0661,,,,,,
Milaca Unclaimed Frt,,11556 160th Street,,Milaca,MN,56353 ,US,(320)983-3969,,,,,,
Middleton's Countrywide,,164 Josephine St,,Wingham,ON,N0G 2W0 ,CA,(1800) 463-4663,,,,,,
Schneidermans Furniture,,4725 Decker Rd,,Duluth,MN,55811 ,US,(218) 723-2302,,,,,,
Schott's Home Hardware,,40 Sydenham St,,Simcoe,ON,N3Y 1R7 ,CA,(519) 426-0270,,,,,,
Stoney Creek Furn,,395 Lewis Rd,,Stoney Creek,ON,L8E 5N5 ,CA,(905) 643-8959,,,,,,
Leon's Furniture,,25 Manominee St.,,Huntsville,ON,P1H 1H3 ,CA,(705) 645-2279,,,,,,
Mackenzie House,,2044 Commerce Pk Dr,,Thornton,ON,L0L 2N0 ,CA,(705) 431-1777,,,,,,
Beds Galore Leather & More,,5 11 1/2 Street. SE,,Rochester,MN,55904 ,US,(507) 282-1244,,,,,,
Suburban Furniture,,2200 North State,,Waseca,MN,56093 ,US,(507) 835-3670,,,,,,
Minnesota Furniture Warehouse,,10457 Highway 52 North,,Dubuque,IA,52001 ,US,(563) 556-6064,,,,,,
Furniture Plus Gifts And Video,,123 2Nd St Se,,Cook,MN,55723 ,US,(218) 666-9891,,,,,,
Furniture Showcase,,9-20Th Street SE,,Oelwein,IA,50664 ,US,(319) 283-2393,,,,,,
Snugglers Furniture,,30 Weber St,,Waterloo,ON,N2J 3G6 ,CA,(519)746-4268,,,,,,
W G & R Furniture,,3911 Dewey Street,,Manitowoc,WI,54220 ,US,(920) 682-0242,,,,,,
W G & R Furniture,,1600 South Koeller Street,,Oshkosh,WI,54902 ,US,(920) 231-2040,,,,,,
Walter E Smithe Furniture,,675 Milwaukee Avenue,,Lincolnshire,IL,60069 ,US,(847)821-2085,,,,,,
Hammonds,,1120 West State Street,,Olean,NY,14760 ,US,(716) 373-7710,,,,,,
Kubes Furniture & Flooring,,133 Main Street W,,New Prague,MN,56071 ,US,(952) 758-4588,,,,,,
Bon-ton,,810 Mill Creek Mall Rd.,,Erie,PA,16565 ,US,(814) 868-5216,,,,,,
Keller Home Furnishings,,121 West 5th Street,,Tipton,IA,52772 ,US,(563) 886-3138,,,,,,
Sratford Furniture,,455 Erie St,,Stratford,ON,N5A 2N2 ,CA,(519)271-4488,,,,,,
Kemptville Home,,Hwy 43 W,,Kemptville,ON,K0G 1J0 ,CA,(613) 258-9333,,,,,,
Banworth & Udelhoven,,9396 Bellevue Heights Road,,Dubuque,IA,52003 ,US,(563) 583-4839,,,,,,
Morris Furniture,,1909 E Main St,,Albert Lea,MN,56007 ,US,(507) 373-6434,,,,,,
Table & Chair Co,,44 Meg Drive,,London,ON,N6E 2X9 ,CA,(519) 668-1200,,,,,,
Ideal Decorating,,1008 9th Street SE,,Dyersville,IA,52040 ,US,(563) 875-7392,,,,,,
Lansing Furniture,,1818 West Main,,Lansing,IA,52151 ,US,(563) 538-4678,,,,,,
Tagney Furniture,,31 Kent St W,,Lindsay,ON,K9V 2X9 ,CA,(705) 324-4831,,,,,,
Killians,,108 Grant Street,,Arcadia,WI,54612 ,US,(608) 323-3775,,,,,,
Benson Waterbed,,2006 Highway 16,,La Crosse,WI,54601 ,US,(608) 783-0600,,,,,,
Mio's Furniture,,261 Trunk Rd,,Sault Ste Marie,ON,P6A 3S7 ,CA,(705) 759-8183,,,,,,
Taylor Creek,,919 South Taylor Street,,Green Bay,WI,54303 ,US,(920) 499-0676,,,,,,
My Retreat Design,,690 North Westhill Blvd.,,Appleton,WI,54914 ,US,(920) 955-3726,,,,,,
King Furniture,,519 Commerce,,Holmen,WI,54636 ,US,(608) 526-3399,,,,,,
Carpet Craftmen,,800 Main Street,,Wild Rose,WI,54984 ,US,(920) 622-3661,,,,,,
The Table and Chair Co.,,44 Meg Drive,,London,ON,N6E 3R4 ,CA,(519)-668-1200,,,,,,
Hermsen's Inc,,447 Canal St,,Bloomington,WI,53804 ,US,(608) 994-2799,,,,,,
Bush Furniture,,161 Russell,,Madoc,ON,K0K 2K0 ,CA,(613) 473-5153,,,,,,
Heynssens-Selin's Furniture,,1809 North Lincoln,,Escanaba,MI,49829 ,US,(906) 786-1313,,,,,,
W G & R Furniture,,800 Hansen Road,,Green Bay,WI,54304 ,US,(888) 947-7782,,,,,,
Kens Carpet & Furniture Center,,722 South Lake Avenue,,Phillips,WI,54555 ,US,(715) 339-4838,,,,,,
Furniture and Appliance Mart,,503 East Ives Street,,Marshfield,WI,54449 ,US,(715)384-7770,,,,,,
W G & R Furniture,,2700 West College Avenue,,Appleton,WI,54914 ,US,(920) 738-5560,,,,,,
Sime Furniture,,1300 U.S. Hwy 14,,Viroqua,WI,54665 ,US,(608) 637-8449,,,,,,
Kirkish Bros,,1200 Memorial Drive,,Houghton,MI,49931 ,US,(906) 482-0700,,,,,,
Fenton Home Furnishings,,360 South Main Street,,Frankenmuth,MI,48734 ,US,(989) 652-0800,,,,,,
Furniture and Appliance Mart,,914 Furman Drive,,Waupaca,WI,54981 ,US,(888)615-7382,,,,,,
J & D Furnitureland,,144 1st Avenue East,,Dyersville,IA,52040 ,US,(563) 875-7043,,,,,,
Oconto Furniture,,904 Main Street,,Oconto,WI,54153 ,US,(920) 834-5000,,,,,,
Mattress Miles,,2937 South Prairie View Road,,Chippewa Falls,WI,54701 ,US,(715) 723-1500,,,,,,
Boscov's,,8555 Seneca Turnpike,,New Hartford,NY,13413 ,US,(315) 733-0393,,,,,,
Dungeys Furniture,,366 Industrial Avenue,,New Hampton,IA,50659 ,US,(641) 394-4174,,,,,,
Julia's Furniture & Flooring,,2105 Main Street,,New Holstein,WI,53061 ,US,(920) 898-4142,,,,,,
Hom Furniture,,204 17th Ave. NW,,Rochester,MN,55901 ,US,(507)285-0500,,,,,,
Shunk Furniture,,1121 West Ridge Street,,Marquette,MI,49855 ,US,(906) 226-9891,,,,,,
Van Vreedes Furniture,,2180 West Mason Street,,Green Bay,WI,54303 ,US,(920) 498-6200,,,,,,
Van Vreedes Furniture,,2450 West College Avenue,,Appleton,WI,54914 ,US,(920) 993-0025,,,,,,
North Country Home Furniture,,708 Algoquin Blvd.,,Timmins,ON,P4N 7H1 ,CA,(705) 268-2003,,,,,,
Van Vreedes Furniture,,285 South Washburn Street,,Oshkosh,WI,54904 ,US,(920) 426-8787,,,,,,
Westside Home Furnishings,,226 Deer Street,,Manistique,MI,49854 ,US,(906) 286-4400,,,,,,
J.J. Enright Furniture,,168 Raglan St,,Renfrew,ON,K7V 1R1 ,CA,(613) 432-7603,,,,,,
Savanah's Furniture,,475 South Rand Road,,Lake Zurich,IL,60047 ,US,(815)679-6648,,,,,,
Hom Furniture,,3701 West Division St. Suite 105,,St. Cloud,MN,56301 ,US,(320) 203-8000,,,,,,
Senzig's Furniture Appliance,,1482 E Green Bay St,,Shawano,WI,54166 ,US,(715) 526-6196,,,,,,
Legates Fine Furniture,,790 2nd Ave East,,Owen Sound,ON,N4K 2H1 ,CA,(800)557-1648,,,,,,
Hom Furniture,,4726 Mall Dr,,Hermantown,MN,55811 ,US,(218) 279-8300,,,,,,
Settlement House,,183 Queen St,,Port Perry,ON,L9L 1B8 ,CA,(905) 985-8234,,,,,,
St. Angelo Furniture Company,,4615 Park Avenue,,Ashtabula,OH,44004 ,US,(440) 997-5231,,,,,,
G.G. Goettler Furniture,,3954 Perth Road 180,,Dublin,ON,N0K 1E0 ,CA,(519) 345-2250,,,,,,
Raymour & Flanigan,,1001 Fairmount Avenue W.E.,,Jamestown,NY,14701 ,US,(716) 483-3111,,,,,,
Gabriels Furniture,,201 East College Avenue,,Appleton,WI,54911 ,US,(920) 733-0595,,,,,,
Ballan Furniture,,401 4Th St,,International Fall,MN,56649 ,US,(218) 283-3454,,,,,,
Karl's TV and Appliance,,38406 Tanger Drive,,North Branch,MN,55056 ,US,(651)277-5275,,,,,,
Heritage Furniture,,4205 Fairview,,Burlington,ON,L7L 2A4 ,CA,(905)634-5298,,,,,,
Lauerman's Furniture,,3403 Gallagher Road,,Marinette,WI,54143 ,US,(715) 732-4111,,,,,,
Allen's Furniture,,900 Portsmouth Ave,,Kingston,ON,K7M 1W9 ,CA,(613) 546-3292,,,,,,
Leon's Furniture,,Glenn Miller Road,,Trenton,ON,K8V 5R9 ,CA,(613) 394-3322,,,,,,
Mcmullin Furniture & Appliance,,Hwy 29,,Smiths Falls,ON,K7A 4S5 ,CA,(613) 283-9077,,,,,,
The Rec Room,,577 Bay St,,Midland,ON,L4R 1L5 ,CA,(705) 526-8460,,,,,,
Lakeland Furniture,,9796 Rylee Road,,Minocqua,WI,54548 ,US,(715) 356-3232,,,,,,
Neves Furniture,,710 Fifth Avenue,,Antigo,WI,54409 ,US,(715) 623-5203,,,,,,
Reid's Country Wide,,900 Cobalt Crescent,,Thunder Bay,ON,P7B 5W3 ,CA,(807) 623-1212,,,,,,
Raymour & Flanigan,,4000 Route 31,,Liverpool,NY,13090 ,US,(315) 622-3836,,,,,,
Karl's TV and Appliance,,6400 West Frontage Rd,,Medford,MN,55049 ,US,(507)446-9255,,,,,,
Warehouse/Rivertown Furniture,,2109 US Hwy 8,,St Croix Falls,WI,54024 ,US,(715) 483-9619,,,,,,
Falls Furniture & Gifts,,2121 Riverview Drive,,Little Falls,MN,56345 ,US,(320) 632-1910,,,,,,
Americas Mattress,,"Riverwalk Plaza, 143 Bolivar Road",,Wellsville,NY,14895 ,US,(585) 593-2037,,,,,,
Singer's Americana Furniture,,983 South Avenue,,Custer City,PA,16725 ,US,(814) 368-6151,,,,,,
Americas Mattress,,"Wal-Mart Plaza, 3159 Silverback Lane",,Painted Post,NY,14870 ,US,(607) 973.2069,,,,,,
Brownie Furniture,,8410 Enterprise Dr South,,Virgina,MN,55792 ,US,(218) 741-5363,,,,,,
Muehlieps Furniture,,1233 N. Franklin,,Galena,IL,61036 ,US,(815) 777-2707,,,,,,
Americas Mattress,,950 County Road 64,,Elmira,NY,14903 ,US,(607) 739.1277,,,,,,
Geerlinks Home Furniture,,295 Wellington St,,St Thomas,ON,N5R 2S6 ,CA,(519)631-8346,,,,,,
Raymour & Flanigan,,802 West State Street,,Olean,NY,14760 ,US,(716) 372-9200,,,,,,
Becker Furniture World,,13150 1st ST,,Becker,MN,55308 ,US,(763)262-9000,,,,,,
Raymour & Flanigan,,1125 Arsenal Street,,Watertown,NY,13601 ,US,(315) 788-0599,,,,,,
Younkers Furniture Gallery-Bay Park,,201 Bay Park Square,,Green Bay,WI,54304 ,US,(920)497-0226,,,,,,
Harold's Furniture,,1210 W Rock Falls Road,,Rock Falls,IL,61071 ,US,(815) 625-7177,,,,,,
Lake Country Furniture,,1001 Pokegama Ave S Suite F,,Grand Rapids,MN,55744 ,US,(218) 326-5085,,,,,,
Moran's Floor Store,,2206 Foote Avenue,,Jamestown,NY,14701 ,US,(716) 665-4545,,,,,,
Courtside Furniture,,1022 East Main Street,,Merrill,WI,54452 ,US,(715) 536-8954,,,,,,
Rassbach Furniture,,E 3612 St H 12,,Menomonie,WI,54751 ,US,(715) 235-0466,,,,,,
Tiller Furniture,,520 East Taylor Street,,Prairie Du Chien,WI,53821 ,US,(608) 326-8516,,,,,,
Mio's Furniture,,261 trunk Road,,Sault Ste. Marie,ON,P6A 3S7 ,CA,(705)759-8183,,,,,,
Crest Furniture,,1141 E Rand Rd,,Arlington Heights,IL,60004 ,US,(847) 797-9906,,,,,,
Ankeny Furniture,,230 S Main St,,Blue Earth,MN,56013 ,US,(507) 526-2407,,,,,,
Wesco Furniture,,301 East Oak Street,,Sparta,WI,54656 ,US,(608) 269-2115,,,,,,
Sears Pinecrest Home Store,,2685 Iris St.,,Ottawa,ON,K2C 3S4 ,CA,(613) 820-5551,,,,,,
Sears Kingston Home Store,,"646 Gardiner's Road, Unit #1",,Kingston,ON,K7M 3X9 ,CA,(613) 634-9203,,,,,,
Sears Ottawa East Home Store,,1491 Innes Road,,Ottawa,ON,K1B 1C5 ,CA,(613) 741-8383,,,,,,
Hennen Furniture,,1995 Hwy 15 N,,St Cloud,MN,56302 ,US,(320) 252-8484,,,,,,
Reid & Siemonsen,,350 Bagot St,,Kingston,ON,K7L 1B2 ,CA,(613) 548-7891,,,,,,
Sears Belleville Home Store,,110 Bell Blvd.,,Belleville,ON,K8P 3E1 ,CA,(613) 961-1233,,,,,,
Hennen Furniture,,3901 Abbot Dr Hwy 71,,Willmar,MN,56201 ,US,(320) 235-2382,,,,,,
North Country Furniture,,708 Algonquin Blvd,,Timmins,ON,P1A 1R1 ,CA,(705) 476-7772,,,,,,
Stoney Creek Furniture,,395 Lewis Rd,,Stoney Creek,ON,L8E 5N5 ,CA,(905)643-4121,,,,,,
Fredericks Gallery of Fine Furniture,,100 Woodlawn Rd W,,Guelph,ON,N1H 1B2 ,CA,(519)836-4005,,,,,,
Raymour & Flanigan,,137 Colonial Drive,,Horseheads,NY,14845 ,US,(607) 739-4858,,,,,,
Sears Burlington A&M,,"3060 Davidson Court, Unit #5",,Burlington,ON,L7M 4X7 ,CA,(905) 332-4244,,,,,,
Hudson Bay,,1105 Wellington Road South,,London,ON,N6A 1V4 ,CA,,,,,,,
Sears Kitchener A&M,,1400 Ottawa St. South Unit B-14,,Kitchener,ON,N2E 4E2 ,CA,(519) 745-1833,,,,,,
Sears Scarborough Home Store,,27 William Kitchen Road,,Scarborough,ON,M1P 5B7 ,CA,(416) 332-8577,,,,,,
Gardiners Hardware & Furniture,,203 Barclay,,Pine River,MN,56474 ,US,(218) 587-2585,,,,,,
Sears Whitby Home Store,,1629 Victoria St. East,,Whitby,ON,L1N 9W4 ,CA,(905) 579-4048,,,,,,
Sears Ancaster Home Store,,45 Legend Court,,Ancaster,ON,L9K 1J3 ,CA,(905) 304-1440,,,,,,
Dave's Showcase Furniture,,128 S Main St,,Medford,WI,54451 ,US,(715) 748-2260,,,,,,
Sears Richmond Hill Home Store,,45 Red Maple St.,,Richmond Hill,ON,L4B 4M6 ,CA,(905) 762-0870,,,,,,
Sears Newmarket Home Store,,"17700 Yonge St.,  Unit  #1",,Newmarket,ON,L3Y 8A8 ,CA,(905) 830-0049,,,,,,
Sears London Home Store,,784 Wharncliffe Road,,London,ON,N6J 2N4 ,CA,(519) 649-2796,,,,,,
Sears Sherway Home Store,,1860 The Queensway,,Etobicoke,ON,M9C 5L4 ,CA,(416) 695-3888,,,,,,
Sears Sudbury Home Store,,"1499 Marcas Drive, Unit #1",,Sudbury,ON,P3B 4K5 ,CA,(705) 525-7676,,,,,,
Roszell's Furnishings,,34 Sydenham St W,,Aylmer,ON,N5H 1M4 ,CA,(519) 773-2031,,,,,,
New Ulm Furniture,,16 N German St,,New Ulm,MN,56073 ,US,(507) 354-2716,,,,,,
Starr Furniture,,156 Simcoe Street,,Oshawa,ON,L1H 4G9 ,CA,(905) 576-1918,,,,,,
Banner Furniture,,516 South 1st Street,,Clinton,IA,52732 ,US,(563) 242-8064,,,,,,
Leon's Furniture,,25 Manominee St.,,Huntsville,ON,P1H 2C5 ,CA,(705) 789-5589,,,,,,
Decorah Furniture,,311 West Water Street,,Decorah,IA,52101 ,US,(563) 382-5910,,,,,,
Raymour & Flanigan,,220 Reynolds Road,,Johnson City,NY,13790 ,US,(607) 797-2214,,,,,,
Howards Home Furniture,,40 West Main Street,,Waukon,IA,52172 ,US,(563) 568-2210,,,,,,
Yabba Furniture,,2106 19t.h St,,Rice Lake,WI,54868 ,US,(715) 234-3505,,,,,,
The Rec room,,577 Bay Street,,Midland,ON,L4R 1L5 ,CA,(705) 526-8460,,,,,,
Perth Home Furniture,,18 Gore Street,,Perth,ON,K7H 1H5 ,CA,(613) 264-9876,,,,,,
Sears Burlington Home Store,,1035 Plains Road East,,Burlington,ON,L7T 4K1 ,CA,(905) 631-9655,,,,,,
Mannion's Furniture,,20 Ainslie St N,,Cambridge,ON,NTR 3J4 ,CA,(519) 621-2186,,,,,,
Sears Woodbridge Home Store,,2 Chrislea Road,,Woodbridge,ON,L4L 8V1 ,CA,(905) 850-6406,,,,,,
Kilborns on the Rideau,,10 drummond Street,,Newboro,ON,K0G 1P0 ,CA,(613) 272-0114,,,,,,
Kitchener Home Furniture,,1014 Victoria St N,,Kitchener,ON,N2B 3C4 ,CA,(519)579-7300,,,,,,
Sears Barrie Home Store,,"42 Caplan Ave., Unit A",,Barrie,ON,L4M 4S7 ,CA,(705) 727-9287,,,,,,
Snugglers Furniture,,30 Weber St North,,Waterloo,ON,N2J 3G6 ,CA,(519) 746-4268,,,,,,
Younker's,,555 John F. Kennedy Rd.,,Dubuque,IA,52002 ,US,(319)584-2968,,,,,,
Robert's Home Furniture,,128 Ave C,,Cloquet,MN,55720 ,US,(218) 879-2795,,,,,,
Leon's Furniture,,2730 Princess St.,,Kingston,ON,K7P 2W6 ,CA,(613) 384-2418,,,,,,
Younker's,,201 Bay Parl Square,,Green Bay,WI,54304 ,US,(920)497-0226,,,,,,
Toni's Interiors,,301 W Main St,,Durand,WI,54736 ,US,(715) 672-4244,,,,,,
Furniture Plus,,2111 Eighth St. South,,Wisconsin Rapids,WI,54494 ,US,(715)423-3305,,,,,,
Sears Brampton Home Store,,535 Steeles Ave. East,,Brampton,ON,L6W 4S2 ,CA,(905) 455-1255,,,,,,
Room's and Rest,,1760 Madison Ave,,Mankato,MN,56001 ,US,(507)345-7763,,,,,,
Younker's,,58 N. 3rd St.,,Sturgeon Bay,WI,54235 ,US,(920)743-5533,,,,,,
Sears Mississauga Home Store,,"3050 Vega Blvd., Unit #8",,Mississauga,ON,L5L 5X8 ,CA,(905) 820-6801,,,,,,
Sears Kitchener Home Store,,130 Gateway Park Drive,,Kitchener,ON,N2P 2J4 ,CA,(519) 650-3993,,,,,,
S&T Furniture/Little Falls Furniture,,2121 Riverview Dr,,Little Falls,MN,56345 ,US,(320)632-1910,,,,,,
Furniture Plus,,1815 Stewart Ave.,,Wausau,WI,54401 ,US,(715)849-2000,,,,,,
Emerald Isle,,265 Guelph Street,,Georgeetown,ON,L7G 4B3 ,CA,(905)-873-2753,,,,,,
Leon's Furniture,,682 Second Line East,,Sault Ste.Marie,ON,P6B 4K3 ,CA,(705) 946-2510,,,,,,
Marshall's Furniture Plus,,34 Marshall Ave E,,North Bay,ON,P1A 1R1 ,CA,(705) 476-7772,,,,,,
Stubbes Brand source,,616 Broadway Street,,Tillsonburg,ON,N4G 3S9 ,CA,(519)-842-498,,,,,,
Raymour & Flanigan,,3430 Erie Boulevard East,,Dewitt,NY,13214 ,US,(315) 446-3444,,,,,,
Sterling House Interiors,,2575 Dundas Street West,,Mississauga,ON,L5K 2M6 ,CA,(905)-820-4111,,,,,,
Leon's Furniture,,1599 Stone Church Road East,,Hamilton,ON,L8W 3P8 ,CA,(905) 318-9712,,,,,,
Mora Unclaimed Frt,,1859 Frontage Rd,,Mora,MN,55051 ,US,(320)679-3482,,,,,,
Leon's Furniture,,1500 Victoria Street East,,Whitby,ON,L1N 9M3 ,CA,(905) 430-9050,,,,,,
Fawcetts,,315 Madison,,Winthrop,IA,50682 ,US,(319) 935-3327,,,,,,
Leons Woodstock,,905 Dundas Street,,Woodstock,ON,N4S 1G9 ,CA,(519)539-5474,,,,,,
Younker's,,300 Forrest St.,,Wausau,WI,54403 ,US,(715)845-9611,,,,,,
Massey's Furniture,,119 Sand Street,,Watertown,NY,13601 ,US,(315) 788-6790,,,,,,
Orangeville Furniture,,633419 Hwy 10 N Mono Plaza,,Orangeville,ON,L9W 2Z1 ,CA,(519) 938-9964,,,,,,
Leon's Furniture,,947 Wharncliffe Road South,,London,ON,N6L 1J9 ,CA,(519) 680-2111,,,,,,
Ferrin's Furniture,,301  Main St,,Red Wing,MN,55066 ,US,(651) 388-3571,,,,,,
Thomasville Burlington,,2269 Fairview Street,,Burlington,ON,L7R 2E1 ,CA,(905)631-8185,,,,,,
Leon's Furniture,,"255 Bremner Blvd., Unit 32",,Toronto,ON,M5V 3M9 ,CA,(416) 642-0630,,,,,,
Furniture Discounter,,1300 Lansdowne,,Peterborough,ON,K9J 6X8 ,CA,(705) 295-2700,,,,,,
Leon's Furniture,,201 Britannia Road East,,Mississauga,ON,L4Z 3X8 ,CA,(905) 501-9505,,,,,,
Bemidji Design Center,,123 Beltrami Ave Nw,,Bemidji,MN,56601 ,US,(218) 751-3857,,,,,,
Leon's Furniture,,555 Memorial Drive,,Orillia,ON,L3V 6H1 ,CA,(705) 326-3505,,,,,,
Leon's Owen Sound,,1104 Seventh St. East,,Owen Sound,ON,N4K 6K5 ,CA,(519)-376-8394,,,,,,
Storey Home Furniture,,274 North Street,,Sault Ste. Marie,ON,P6A 1M6 ,CA,(705) 942-2803,,,,,,
Leon's Furniture,,25 Harry Walker Parkway North,,Newmarket,ON,L3Y 7B3 ,CA,(905) 953-1617,,,,,,
Elizabeths Interiors,,409 Brant St,,Burlington,ON,L7R 2E9 ,CA,(905) 333-6670,,,,,,
Bennetts Home Furnishings,,700 Clonsilla Ave,,Peterburough,ON,K9J 5Y4 ,CA,(705) 749-9273,,,,,,
Town & Country,,5683 Lade Beach Road,,Little Suamico,WI,54141 ,US,(920) 826-7811,,,,,,
Leon's Collingwood,,4473 County Road 124 South,,Collingwood,ON,L9Y 3Z1 ,CA,(705) 445-6665,,,,,,
Leon's Furniture,,1718 Heron Road,,Ottawa,ON,K1V 6A1 ,CA,(613) 737-3530,,,,,,
Southworth Furniture,,3261 Winstead Road,,Torrington,CT,06790 ,US,(860) 482-1840,,,,,,
Central Radio,,158 Hubbard Avenue,,Dalton,MA,01226 ,US,(413) 684-6199,,,,,,
Boscov's,,480 Lewis Avenue,,Meriden,CT,06451 ,US,(203) 235-4144,,,,,,
Raymour & Flanigan,,410 Reidville Drive,,Waterbury,CT,06705 ,US,(203) 573-1015,,,,,,
Wilson's,,1060 South Colony Road,,Wallingford,CT,06492 ,US,(203) 269-5295,,,,,,
Riley's Furniture,,122 US-44,,Millerton,NY,12546 ,US,(518) 789-4641,,,,,,
Central Radio Appliance & Furniture,,One Roberts Street,,North Adams,MA,01247 ,US,(413) 664-9685,,,,,,
Raymour & Flanigan,,"70 Universal Drive, South",,North Haven,CT,06473 ,US,(203) 498-0738,,,,,,
Bonton at Bergner Sheridan Village,,4125 N. Sheridan Road,,Peoria,IL,61614 ,US,(309) 681-8400,,,,,,
Steger's Furniture,,818 Court St,,Pekin,IL,61554 ,US,(309) 347-2188,,,,,,
Crawford Fashion Floors,,17 S 1St Ave,,Canton,IL,61520 ,US,(309) 647-3283,,,,,,
Martin's Home Furniture,,501 Chancellor Drive,,Bloomington,IL,61704 ,US,(309) 662-7733,,,,,,
Furniture Country,,106 N Main St,,Kewanee,IL,61443 ,US,(309) 852-0333,,,,,,
Penn's Furniture,,260 S Seminary Street,,Galesburg,IL,61401 ,US,(309)341-1726,,,,,,
Steinberg's Furniture,,3019  5Th St,,Peru,IL,61354 ,US,(815) 223-6598,,,,,,
Rich's Home Center,,405 S Side Sq,,Clinton,IL,61727 ,US,(217) 935-8218,,,,,,
Turk Funiture,,2nd and Joliet St.,,La Salle,IL,61301 ,US,(815)214-8875,,,,,,
Wright's Furniture,,115 E Madison,,Pontiac,IL,61764 ,US,(815)844-7177,,,,,,
Vickroy Furniture,,120 E Archer Ave,,Monmouth,IL,61462 ,US,(309) 734-6911,,,,,,
Turk Furniture,,815 La Salle St.,,Ottawa,IL,61350 ,US,(815)433-8875,,,,,,
Madison Furniture,,1104 Grand Ave East,,Springfield,IL,62703 ,US,(217)  522-9647,,,,,,
Good's Fine Furniture,,1360 Koester Dr.,,Forsyth,IL,62535 ,US,(217) 429-2441,,,,,,
Sam's Best Brands Plus Inc,,3101 Lindbergh,,Springfield,IL,62703 ,US,(217) 726-0000,,,,,,
Banworth-Udelhoven Furniture World,,4602 Ave Of The Cities,,Moline,IL,61265 ,US,(309) 764-1421,,,,,,
Dan Viner Furniture,,500 20Th Street,,Rock Island,IL,61201 ,US,(309) 788-8888,,,,,,
Spiezio's Furniture,,1830 Division St,,Morris,IL,60450 ,US,(815) 942-1099,,,,,,
Jensen Home Furnishings,,400 N Webster St,,Taylorville,IL,62568 ,US,(217) 824-9123,,,,,,
Plymouth Furniture Company,,151 Main Street,,Plymouth,NH,03264 ,US,(603) 536-1625,,,,,,
Bob Hoch's Home Furniture,,301 Willow Street,,Lebanon,PA,17046 ,US,(717) 273-4560,,,,,,
Boscov's,,2201 Lebanon Valley Mall,,Lebanon,PA,17042 ,US,(717) 274-1441,,,,,,
Fecera's Furniture,,4710 Penn Avenue,,Sinkings Springs,PA,19608 ,US,(610) 670-8000,,,,,,
The Bon-Ton,,Berkshire Mall/ 1665 State Hill,,Wyomissing,PA,19610 ,US,(610) 376-8171,,,,,,
Boscov's,,1665 State Hill Road,,Wyomissing,PA,19610 ,US,(610) 779-2000,,,,,,
Boscov's,,4600 Jonestown Road,,Harrisburg,PA,17109 ,US,(717) 540-4222,,,,,,
The Bon-Ton,,4600 Jonestown Road,,Harrisburg,PA,17109 ,US,(717) 652-7500,,,,,,
Raymour & Flanigan,,629 Snyder Road,,Reading,PA,19605 ,US,(610) 926-5866,,,,,,
Raymour & Flanigan,,201 South Pottstown Pike,,Exton,PA,19341 ,US,(610) 280-0320,,,,,,
Boscov's,,126 Exton Square Mall,,Exton,PA,19341 ,US,(610) 280-6573,,,,,,
Boscov's,,170 South 32nd Street,,Camp Hill,PA,17011 ,US,(717) 763-1100,,,,,,
N B Liebmans Furniture,,4705 Carlisle Pike,,Mechanicsburg,PA,17109 ,US,(717) 761-4550,,,,,,
Boscov's,,351 West Schuylkill Road,,Pottstown,PA,19465 ,US,(610) 327-8080,,,,,,
Raymour & Flanigan,,1400 Rocky Run Parkway,,Wilmington,DE,19803 ,US,(302) 478-5110,,,,,,
Webbers Furniture,,1 West 27th Street,,Scottsbluff,NE,69361 ,US,(308) 632-2811,,,,,,
Bruce Furniture,,1508 West Third Street,,Alliance,NE,69301 ,US,(308) 762-6980,,,,,,
Market Square,,4702 Texoma Pkwy,,Denison,TX,75020 ,US,(903) 463-1685,,,,,,
Tin Star Furniture,,1801 S Austin Ave,,Denison,TX,75020 ,US,(903)464-9000,,,,,,
Crouch Home Furniture,,306 W Main St,,Denison,TX,75020 ,US,(903) 465-1933,,,,,,
Hubbard Furniture,,130 W. Main St.,,Denison,TX,75020 ,US,(903)465-2995,,,,,,
Otts Furniture and Appliance,,115 S. Commerce St,,Gainesville,TX,76240 ,US,(940) 665-6861,,,,,,
Avanti Fine Furniture,,10273 W Lincoln Hwy,,Frankfort,IL,60423 ,US,(815) 469-1200,,,,,,
Carson Pirie Scott,,300 Lincoln Mall,,Matteson,IL,60443 ,US,(708)747-5400,,,,,,
Dungey's Furniture,,Town & Country Plaza,,Osage,IA,60461 ,US,(641) 732-4424,,,,,,
Raymour & Flanigan,,538 Boston Post Road,,Orange,CT,6477 ,US,(203) 799-2999,,,,,,
Raymour & Flanigan,,641 Connecticut Avenue,,Norwalk,CT,06854 ,US,(203) 899-0705,,,,,,
Thomasville Furniture,,271 RTE 25A,,Coram,NY,11766 ,US,(631) 403-4958,,,,,,
Adla & Sons,,29 Rocky Point Road,,Rocky Point,NY,11778 ,US,(631) 744-9310,,,,,,
Raymour & Flanigan,,14 Candlewood Lake Road,,Brookfield,CT,06804 ,US,(203) 775-2007,,,,,,
Raymour & Flanigan,,3147 Middle Country Road,,Lake Grove,NY,11755 ,US,(631) 285-7530,,,,,,
Raymour & Flanigan,,95 Sunrise Highway,,Patchogue,NY,11772 ,US,(631) 576-8200,,,,,,
Raymour & Flanigan,,2005 Broadhollow Road,,Farmingdale,NY,11735 ,US,(631) 270-3187,,,,,,
Raymour & Flanigan,,1645 Broadhollow Road,,Farmingdale,NY,11735 ,US,(631) 386-6968,,,,,,
Thomasville Furniture,,900 RTE 110,,Farmingdale,NY,11735 ,US,(631) 694-4547,,,,,,
Thomasville Furniture,,1260 Old Country Road,,Westbury,NY,11590 ,US,(516) 357-9077,,,,,,
Raymour & Flanigan,,275 Glen Cove Road,,Carle Place,NY,11514 ,US,(516) 739-3494,,,,,,
Rc Willey Home Furniture,,2301 South,,Salt Lake City,UT,84115 ,US,(801) 461-3900,,,,,,
Sterling Furniture Co,,2051 South 11Th East,,Salt Lake City,UT,84106 ,US,(801) 467-1579,,,,,,
RC Willey - Taylorsville,,3915 West 4700 South,,Taylorsville,UT,84118 ,US,(801)967-4800,,,,,,
Rc Willey Home Furniture,,3915 West 4700,,Taylorsville,UT,84118 ,US,(801) 967-4870,,,,,,
RC Willey - Murray,,861 East 6600 South,,Murray,UT,84107 ,US,(801)261-6800,,,,,,
Rc Willey Home Furniture,,861 East 6600 S,,Murray,UT,84107 ,US,(801) 261-6800,,,,,,
Rc Willey Home Furniture,,1693 West 2700 South,,Syracuse,UT,84075 ,US,(801) 744-2800,,,,,,
Sparrows Home Furnishings,,4456 S 1900 W,,Roy,UT,84067 ,US,(801) 731-5400,,,,,,
R C Willey Home Furniture,,4045 South Riverdale Rd,,Riverdale,UT,84405 ,US,(801) 622-7400,,,,,,
RC Willey - Riverdale,,4045 Riverdale Road,,Riverdale,UT,84405 ,US,(801)622-7400,,,,,,
RC Willey - Orem,,40 East University PKWY,,Orem,UT,84058 ,US,(801)227-8800,,,,,,
Vaud Hanks & Son,,229 South Main Street,,Springville,UT,84663 ,US,(801)489-9310,,,,,,
Mel Hanks & Sons,,131 S Main St,,Salem,UT,84653 ,US,(801) 423-2442,,,,,,
Schofields Furniture & Appliance,,941 Front St,,Evanston,WY,82930 ,US,(307) 789-2505,,,,,,
Northern Furniture,,11 E Main ST,,Tremonton,UT,84337 ,US,(801) 257-5317,,,,,,
U & I Furniture,,28 West 1St  North,,Logan,UT,84321 ,US,(435) 752-0161,,,,,,
U & I Furniture,,65 North State St.,,Preston,ID,83263 ,US,(208)852-0824,,,,,,
Christiansen Furniture,,41 South Main St,,Ephraim,UT,84627 ,US,(801) 283-4161,,,,,,
Hoffman Ent/Hard Hat Furniture,,21 West Main,,Price,UT,84501 ,US,(435) 637-0140,,,,,,
Suffern Furniture,,110 Lafeyette Avenue,,Suffern,NY,10901 ,US,(845) 357-1102,,,,,,
Miskelly Furniture,,101 Airport Rd,,Jackson,MS,39208 ,US,(601) 939-6288,,,,,,
Dykes Furniture,,2500 Washington St,,Vicksburg,MS,39180 ,US,(601) 636-4025,,,,,,
Lott Furniture,,227 West Main St,,Forest,MS,39074 ,US,(601) 469-4272,,,,,,
Moncrief Furniture,,251 1st St,,Forest,MS,39094 ,US,(601) 469-4811,,,,,,
Tillman Furniture,,28081 Hwy 28,,Hazelhurst,MS,39083 ,US,(601) 894-2741,,,,,,
Furniture Factory Outlet,,348 Dunn Ratcliff Road,,Brookhaven,MS,39601 ,US,(601)-823-9080,,,,,,
Tillman Furniture,,536 Schwern Avenue,,Brookhaven,MS,39601 ,US,(601)833-9888,,,,,,
M & S Furniture,,1103 East Main Street,,Philadelphia,MS,39350 ,US,(601) 656-8114,,,,,,
Britton Furniture,,911 E Ave N,,Hollandale,MS,38748 ,US,(662) 827-5478,,,,,,
Malouf Furniture Co,,920 Hwy 82 W,,Greenwood,MS,38930 ,US,(662) 453-1694,,,,,,
Dacus Furniture,,115 Front St,,Winona,MS,38967 ,US,(662) 283-5240,,,,,,
Dacus Furniture,,1011 Depot St,,Kilmichael,MS,39747 ,US,(662) 262-4272,,,,,,
Hemphill Discount Furniture,,320 Hwy 15 North,,Louisville,MS,39339 ,US,(602) 773-7463,,,,,,
Gallery Furniture,,600 South Main Street,,Englewood,OH,45322 ,US,(937) 832-2820,,,,,,
Home Comfort Center,,105 West Main Street,,Troy,OH,45373 ,US,(937) 335-1849,,,,,,
Francis Furniture,,2485 West Main Street,,Troy,OH,45373 ,US,(937) 440-1234,,,,,,
Sellman's Furniture,,23 North High Street,,Covington,OH,45318 ,US,(937) 473-2012,,,,,,
Hansbarger Home Solutions,,1127 Sweitzer Street,,Greenville,OH,45331 ,US,(937) 548-3174,,,,,,
Farmers,,10305 Abercorn Ext.,,Savannah,GA,31406 ,US,(912) 920-1266,,,,,,
Scotts Furniture,,44 Linden,,Lexington,TN,38351 ,US,(731) 968-4087,,,,,,
Peoples Furniture,,1412 East Main Street,,Humboldt,TN,38343 ,US,(731) 784-2962,,,,,,
Barnetts Furniture Factory,,RR1 Box 236,,Simpson,IL,62985 ,US,(618)695-3523,,,,,,
Burts,,1215 Wayne Road,,Savannah,TN,38372 ,US,(731) 925-2554,,,,,,
Dubois Furniture,,3920 Bosque Rd,,Waco,TX,76710 ,US,(254) 756-0071,,,,,,
Everett Furniture & Emporium,,122 S Cherokee,,San Saba,TX,76877 ,US,(325) 372-4299,,,,,,
Longbotham Furniture,,109 W. Navasota St.,,Groesbeck,TX,76642 ,US,(254)729-3809,,,,,,
Woods Furniture,,612 S. Loop,,Stephenville,TX,76401 ,US,(252)965-7823,,,,,,
Woods Furniture,,736 East Hwy 377,,Granbury,TX,76048 ,US,(817) 573-2604,,,,,,
Woods Furniture,,736 HWY 377 East,,Granbury,TX,76048 ,US,(817)573-2604,,,,,,
Pierce Furniture,,141 Colorado Street,,Muscatine,IA,52761 ,US,(563) 263-8873,,,,,,
Faith Furniture,,302 E Poyntz Ave,,Manhattan,KS,66502 ,US,(785) 776-6755,,,,,,
Midwest Furniture Galleries,,321 Grand Avenue,,Junction City,KS,66441 ,US,(785)238-5141,,,,,,
Stewart Furniture,,1110 W 35Th Parkway,,Chanute,KS,66720 ,US,(620) 431-1023,,,,,,
Brenner's Furniture,,151 W 8Th Ave,,Eugene,OR,97401 ,US,(541) 345-4451,,,,,,
Brenners Home Express,,3306 Gateway St,,Springfield,OR,97477 ,US,(541) 345-4451,,,,,,
Hometown Furniture Center,,2665 S Santiam Hwy,,Lebanon,OR,97355 ,US,(541) 258-8282,,,,,,
Blackledge Furniture,,233 Sw 2Nd St,,Corvallis,OR,97333 ,US,(541) 753-4851,,,,,,
At Home Furniture a& Mattress,,930 Hill Street SE,,Albany,OR,97322 ,US,(541) 967-8359,,,,,,
Roby's Western Lane Furniture,,Hwy 101 At 18Th,,Florence,OR,97439 ,US,(541) 997-8214,,,,,,
Manthes Home Furnishings,,427 Fir Ave.,,Reedsport,OR,97467 ,US,(541) 271-2715,,,,,,
Manthe's Home Furniture,,427 Fir Ave,,Reedsport,OR,97467 ,US,(541) 271-2715,,,,,,
Kueblers Furniture,,1100 NE Stephens,,Roseburg,OR,97470 ,US,(541) 673-5577,,,,,,
West Harvard Furniture,,2558 W Harvard Blvd,,Roseburg,OR,97470 ,US,(503) 673-4221,,,,,,
Sid's Home Furnishings,,340 Court St Ne,,Salem,OR,97301 ,US,(503) 371-0123,,,,,,
Kueblers Furniture,,230 Chemeketa St. NE,,Salem,OR,97301 ,US,(503) 315-1290,,,,,,
Roby's Furniture,,5111 N Coast Hwy 101,,Newport,OR,97365 ,US,(541) 265-9520,,,,,,
The Chair Outlet,,5452B River Rd,,Keizer,OR,97303 ,US,(503) 390-0233,,,,,,
The  Chair Outlet,,5452 River Road North,,Keizer,OR,97303 ,US,(503) 390-0233,,,,,,
Roby's Furniture,,6255 Sw Highway 101,,Lincoln City,OR,97367 ,US,(541) 996-2177,,,,,,
Henry A. Schroeder & Sons,,517 Spruce St,,Myrtle Point,OR,97458 ,US,(541) 572-2444,,,,,,
Raymour & Flanigan,,895 East Gate Boulevard,,Garden City,NY,11530 ,US,(516) 307-3693,,,,,,
Mattresses & More,,124 Front Street,,Hempstead,NY,11550 ,US,(516) 307-1304,,,,,,
Raymour & Flanigan,,10 West Circle,,Valley Stream,NY,11581 ,US,(516) 394-9640,,,,,,
Home Furniture,,1351 Surrey St,,Lafayette,LA,70501 ,US,(337)234-8578,,,,,,
Discount Furniture Sales,,4207 Cameron,,Lafayette,LA,70506 ,US,(318) 232-2453,,,,,,
Olinde's,,200 Westmark,,Lafayette,LA,70503 ,US,(337) 981-7800,,,,,,
Home Furniture,,5700 Johnson St Ste 1200,,Lafayette,LA,70503 ,US,(337) 593-6900,,,,,,
Bordelon's,,2580 Rodeo Rd,,Abbeville,LA,70510 ,US,(337) 898-6677,,,,,,
Earl's Furniture,,5937 Veterans Memorial,,Abbeville,LA,70510 ,US,(318) 893-3673,,,,,,
Bordelon's,,313 N Parkerson,,Crowley,LA,70526 ,US,(337) 788-0054,,,,,,
Foret Furniture,,123 Duson,,Iota,LA,70543 ,US,(318) 779-2662,,,,,,
Harrington Furniture,,400 Main St,,Gueydon,LA,70542 ,US,(318) 536-6367,,,,,,
Bordelon's,,1232 Elton Rd,,Jennings,LA,70546 ,US,(337) 824-6101,,,,,,
Rush Furniture,,200 E 6Th Ave,,Oakdale,LA,71463 ,US,(318) 335-3800,,,,,,
Concho Home Store,,3518 Loop 306,,San Angelo,TX,76904 ,US,(325)942-1516,,,,,,
Higginbotham,,108 8Th St,,Ballinger,TX,76821 ,US,(915) 365-2626,,,,,,
Junction Furniture,,310 Main St,,Junction,TX,76849 ,US,(915) 446-3394,,,,,,
Your Furniture Connection,,1910 College St,,Decatur,TX,76234 ,US,,,,,,,
Tin Star Furniture,,1402 N Hwy 287,,Decatur,TX,76234 ,US,(940) 627-8304,,,,,,
Thurmon Furniture,,122 W Walker St,,Breckenridge,TX,76424 ,US,(254) 559-2405,,,,,,
Lees Interiors,,1336 Hwy 16 South,,Graham,TX,76450 ,US,(817) 549-0650,,,,,,
Everidge Furniture,,100 E Commerce,,Brady,TX,76825 ,US,(915) 597-1065,,,,,,
Parrs Furniture,,2515 E Montgomery St,,Wichita Falls,TX,76308 ,US,(940) 696-9669,,,,,,
FFO Home,,3127 Lawrence Road,,Wichita Falls,TX,76308 ,US,(940) 247-3162,,,,,,
Heberts Furniture,,4221 Seymour Hwy,,Wichita Falls,TX,76309 ,US,(940) 691-4131,,,,,,
Greens Furniture,,606 Indiana,,Wichita Falls,TX,76301 ,US,(940) 723-5241,,,,,,
Timberlake Furniture,,Rr 2 Box 213,,Mount Carmel,IL,62863 ,US,(618) 298-2474,,,,,,
Uebinger Home Furniture,,59 Indian Ridge Road,,Flora,IL,62839 ,US,(618) 662-4322,,,,,,
BFJ Interiors,,"313 E Main St,",,West Frankfort,IL,62896 ,US,(618) 937-2006,,,,,,
Steffy Home Furniture,,919 Broadway St,,Mount Vernon,IL,62864 ,US,(618) 242-3146,,,,,,
Habing's Furniture,,115 W Main St,,Teutopolis,IL,62467 ,US,(217) 857-3588,,,,,,
Gillenberg Furniture & Appliance,,901 Walnut St,,Murphysboro,IL,62966 ,US,(618) 684-6031,,,,,,
Clarkson's Furniture,,14 N 2Nd St,,Altamont,IL,62411 ,US,(618) 483-5144,,,,,,
Rudeseal Furniture & Appliance,,110 S Main ST,,Cornelia,GA,30531 ,US,(706)778-4191,,,,,,
Boscov's,,400 Lehigh Valley Mall,,Whitehall,PA,18052 ,US,(610) 231-8000,,,,,,
Raymour & Flanigan,,1937 Whitehall Mall,,Whitehall,PA,18052 ,US,(610) 295-1030,,,,,,
The Bon-Ton,,2524 Schoenersville Road,,Bethlehem,PA,18017 ,US,(610) 865-8250,,,,,,
Raymour & Flanigan,,110 South West End Boulevard,,Quakertown,PA,18951 ,US,(215) 529-0192,,,,,,
Boscov's,,121 Palmer Park Mall,,Easton,PA,18045 ,US,(610) 250-2772,,,,,,
The Bon-Ton,,751 Sw End Blvd,,Quakertown,PA,18951 ,US,(215) 538-4300,,,,,,
Raymour & Flanigan,,1314 US-22,,Phillipsburg,NJ,08865 ,US,(908) 343-2115,,,,,,
The Bon-Ton,,Rt 611 & Bridge St,,Stroudsburg,PA,18360 ,US,(570) 424-7800,,,,,,
Raymour & Flanigan,,1122 North 9th Street,,Stroudsburg,PA,18360 ,US,(570) 421-2118,,,,,,
Raymour & Flanigan,,300 Water Loop Drive,,Collegeville,PA,19424 ,US,(484) 902-1834,,,,,,
J. C. Yeatts,,119 W Main,,Acamore,OK,73402 ,US,(580) 223-2774,,,,,,
Houser Furniture Co,,216 W Main St,,Tishomingo,OK,73460 ,US,(580) 371-2225,,,,,,
Home Furniture,,2525 S. 12th St,,Beaumont,TX,77701 ,US,(409) 842-1545,,,,,,
Howell Furniture,,6095 Folsom,,Beaumont,TX,77708 ,US,(409)832-2544,,,,,,
Howell Furniture,,2018 hwy 365,,Nederland,TX,77627 ,USA,409-722-8100,,,,,,
Keeler Enterprices,,Hwy 62,,Buna,TX,77612 ,US,(409) 994-3501,,,,,,
Longs Warehouse Furniture,,200 South 15Th St,,Orange,TX,77630 ,US,(409) 835-3868,,,,,,
Mann Furniture,,1123 S Magnolia,,Woodville,TX,75979 ,US,(409) 283-3740,,,,,,
Household Furniture,,1527 Country Club Rd,,Lake Charles,LA,70605 ,US,(318) 474-1819,,,,,,
Home Furniture,,1314 Ryan St,,Lake Charles,LA,70601 ,US,(337) 436-2526,,,,,,
Howell Furniture,,2000 East College Street,,Lake Charles,LA,70607 ,USA,337-562-2000,,,,,,
New Look Furniture,,1115 North Martin Luther King Hwy,,Lake Charles,LA,70601 ,US,(337)497-1110,,,,,,
Butler Furniture and Appliance,,5200 Hwy. 90 East,,Lake Charles,LA,70615 ,US,(337) 439-4275,,,,,,
Owen Furniture,,338 Pan American,,Livingston,TX,77351 ,US,(936) 327-8310,,,,,,
Ivan Smith,,1901 N Pine St,,De Ridder,LA,71129 ,US,(337) 462-1025,,,,,,
Bills Home Furnishings,,45 S 300 E,,Price,UT,84501 ,US,(435) 637-5776,,,,,,
Earl's Bargins,,390 North Main,,Huntington,UT,84528 ,US,(435) 687-9119,,,,,,
Valley Furniture,,308 N Main,,Gunnison,UT,84634 ,US,(435) 528-7811,,,,,,
Boscov's,,4737 Concord Pike,,Wilmington,DE,19803 ,US,(302) 478-6800,,,,,,
Raymour & Flanigan,,5303 Concord Pike,,Wilmington,DE,19803 ,US,(302) 478-2151,,,,,,
Value City,,200 Route 22 West,,Green Brook,NJ,08812 ,US,(732) 752-0900,,,,,,
Raymour & Flanigan,,756 Vassar Road,,Poughkeepsie,NY,12603 ,US,(845) 296-1111,,,,,,
Haskell Furniture,,465 Nevada Ave,,Lovell,WY,82431 ,US,(307) 548-2269,,,,,,
Serv-Ur-Self,,515 West Main Street,,Lewistown,MT,59457 ,US,(406) 538-7571,,,,,,
Desava Furniture Mart,,262 N Main St,,Buffalo,WY,82834 ,US,(307) 684-2442,,,,,,
Ferrins Furniture,,308 First Avenue South,,Great Falls,MT,59401 ,US,(406) 761-2192,,,,,,
Payless Furniture Outlet,,116 Central Avenue West,,Great Falls,MT,59404 ,US,(406) 453-4582,,,,,,
Homecrafters Furniture & Mattresses,,1115 Euclid Avenue,,Helena,MT,59601 ,US,(406) 443-3800,,,,,,
Blacker's Furniture,,1530 E Lincoln Rd,,Idaho Falls,ID,83401 ,US,(208) 523-1902,,,,,,
Mountain Valley Gallery,,445 South Washington Street,,Afton,WY,83110 ,US,(307) 885-9663,,,,,,
CLT Flooring & Furnishings,,1600 West Main,,NewCastle,WY,82701 ,US,(307) 746-3335,,,,,,
Clover Creek Home Furnishings,,22853 Hwy. 30 North,,Montpelier,ID,83254 ,US,(208) 847-1301,,,,,,
Bowden's Furniture,,3208 9Th Ave N,,Lethbridge,AB,T1K 7R2 ,CA,(403) 329-6964,,,,,,
Sears Lethbridge Home Store,,3001 32nd St. South,,Lethbridge,AB,T1K 7B1 ,CA,(403) 380-5099,,,,,,
Bruce Hill Furniture,,1610 West 6th Street,,Chadron,NE,69337 ,US,(308) 432-5536,,,,,,
Millers Elect & Home,,616 W Hwy 24,,Goodland,KS,67735 ,US,(785) 899-2386,,,,,,
Moreland Enterp/Dba Budget,,33 S Cascade Ave,,Montrose,CO,81401 ,US,(970) 249-9512,,,,,,
Coleman Furniture,,202 W Lafayette Ave,,Checotah,OK,74426 ,US,(918) 473-5317,,,,,,
Flynn & Boyle Co,,4200 West Mount Pleasant Street,,West Burlington,IA,52655 ,US,(319) 752-8785,,,,,,
Wiley's Interior Furnishings and Design,,2235 East Washington Street,,Mount Pleasant,IA,52641 ,US,(319) 385-2726,,,,,,
Merschman Furniture,,1275 Main Street,,Saint Paul,IA,52657 ,US,(319) 469-3551,,,,,,
Chilson's,,231 Water Street,,Conneaut Lake,PA,16316 ,US,(814) 383-5725,,,,,,
Parker Furniture,,244 Water Street,,Titusville,PA,16354 ,US,(814) 827-4628,,,,,,
Slim's Home Furnishings,,318 South 8th St.,,Breckenridge,MN,56520 ,US,(218)643-4862,,,,,,
Karvonen,,151 W Main,,Perham,MN,56573 ,US,(218) 346-2040,,,,,,
Jaeger Furniture,,Rt 6 Hwy 210 East,,Fergus Falls,MN,56537 ,US,(218) 739-4675,,,,,,
Evansville Hardware,,119 Main St.,,Evansville,MN,56326 ,US,(218)948-2238,,,,,,
Schumaker Home Furniture,,1611 Vander Horck,,Britton,SD,57430 ,US,(605) 448-5312,,,,,,
Hennen Furniture,,419 Broadway,,Alexandria,MN,56308 ,US,(320) 763-5111,,,,,,
Furniture & More,,Hwy 11 West Box 262,,Roseau,MN,56751 ,US,(218) 463-1363,,,,,,
S and L Furniture,,160 Private Rd. 6605,,Mineola,TX,75773 ,US,(903)967-2477,,,,,,
Pat Andersons,,106 East Main,,Kilgore,TX,75663 ,US,(903)984-8569,,,,,,
Hazlewood,,410 W. Broadway,,Winsboro,TX,75494 ,US,(903) 342-6785,,,,,,
Parker Furniture and Appliance,,117 Quitman St,,Pittsburg,TX,75686 ,US,(903) 856-2722,,,,,,
M and M Unclaimed Freight,,8369 St. Hwy 154 South,,Sulphur Springs,TX,75482 ,US,(903)439-2939,,,,,,
Darseys Furniture,,Hwy 19 W Bypass,,Grapeland,TX,75844 ,US,(936) 687-2598,,,,,,
Ivan Smith,,815 North Street,,NAcogdoches,TX,75961 ,US,(936) 552-8911,,,,,,
Dixon Furniture,,301 East Laurel,,Lufkin,TX,75901 ,US,(409) 632-2118,,,,,,
Altavista Appliance & Service,,426 7th Street,,Altavista,VA,24517 ,US,(434) 369-6770,,,,,,
Allens Furniture,,114 South Main Street,,Pearisburg,VA,24134 ,US,(540) 921-1921,,,,,,
Allens Furniture,,386 Virginia Avenue,,Rich Creek,VA,24147 ,US,(540) 726-2628,,,,,,
Allens Furniture,,423 Mercer Street,,Princeton,WV,24740 ,US,(304) 825-1111,,,,,,
Guynn Furniture,,270 East Main Street,,Wytheville,VA,24382 ,US,(276) 228-2381,,,,,,
Huck Finns Warehouse,,25 Erie Boulevard,,Albany,NY,12204 ,US,(518) 465-3373,,,,,,
Boscov's,,131 Colonie Center,,Albany,NY,12205 ,US,(518) 438-6600,,,,,,
Raymour & Flanigan,,873 New Loudon Road,,Latham,NY,12110 ,US,(518) 782-1316,,,,,,
Raymour & Flanigan,,480 Balltown Road,,Niskayuna,NY,12304 ,US,(518) 347-2001,,,,,,
Boscov's,,22 Clifton Country Road,,Clifton Park,NY,12065 ,US,(518) 348-0080,,,,,,
Raymour & Flanigan,,1695 Route 9,,Half  Moon,NY,12065 ,US,(518) 373-9337,,,,,,
Warehouse Furniture,,10 RTE 17K,,Newburgh,NY,12550 ,US,(845) 562-7400,,,,,,
Bouffard's Furniture,,662 Wilton Road,,Farmington,ME,4938 ,US,(207) 778-2045,,,,,,
Schultz's,,114 W Washington,,St Francis,KS,67756 ,US,(785) 332-2833,,,,,,
Harvey's Furniture,,1900 N 12Th St,,Quincy,IL,62301 ,US,(217) 222-0516,,,,,,
Brown's Furniture,,410 E Lafayette St,,Palmyra,MO,63461 ,US,(573) 769-2252,,,,,,
Miller Furniture,,115 W Washington,,Pittsfield,IL,62363 ,US,(217) 285-6212,,,,,,
FFO Home,,"1720 Crete, Suite B",,Moberly,MO,65270 ,US,(660) 833-4784,,,,,,
Baumgartners Furniture,,70 Us Highway 54,,Auxvasse,MO,65231 ,US,(573) 386-2231,,,,,,
FFO Home,,1450 Cinnamon Hill,,Columbia,MO,65202 ,US,(573) 886-0110,,,,,,
Mishawaka Furniture,,402 Lincoln Way,,Mishawaka,IN,46544 ,US,(574)259-5494,,,,,,
Michiana Furniture,,2910 Elkhardt Road,,Goshen,IN,46526 ,US,(574) 535-2002,,,,,,
Michiana Furniture,,2910 Elkhart Rd,,Goshen,IN,46526 ,US,(574) 533-2002,,,,,,
Michiana Furniture,,2910 Elkhart Rd,,Goshen,IN,46526 ,US,(574)533-2002,,,,,,
Furniture Land,,2121 W Wilden Ave,,Goshen,IN,46526 ,US,(574) 533-0510,,,,,,
Weaver Furniture,,6146 W 1350 N,,Nappanee,IN,46550 ,US,(219) 773-7440,,,,,,
Baileys Home Furnishings,,921 West Jefferson,,Plymouth,IN,46563 ,US,(574) 936-6004,,,,,,
Fenkers Furniture,,1114 Lincolnway,,La Porte,IN,46350 ,US,(219) 362-3538,,,,,,
Walter E Smithe Furniture,,4 West 81st Street,,Merrillville,IN,46410 ,US,(219)794-9261,,,,,,
Factory Outlet,,708 N Eel River Cemetery,,Peru,IL,46970 ,US,(765) 864-9800,,,,,,
Kueblers Furniture,,1894 Churn Creek Rd,,Redding,CA,96007 ,US,(530) 221-9823,,,,,,
Furniture Depot,,235 S Main St,,Red Bluff,CA,96080 ,US,(530) 527-1627,,,,,,
Edgewood Custom Int,,242 Main St,,Weed,CA,96094 ,US,(530) 938-4556,,,,,,
Blacks Home Furnishing,,204 S Broadway,,Yreka,CA,96097 ,US,(530) 842-3876,,,,,,
Frank's Carpet And Furniture,,209 S Howard St,,Alturas,CA,69101 ,US,(530) 233-4422,,,,,,
Carlson's Furniture,,2405 S. 6th St.,,Klamath Falls,OR,97601 ,US,(541)884-1335,,,,,,
Roxco Furniture,,1180 Northcrest Drive,,Crescent City,CA,95531 ,US,(707) 465-1456,,,,,,
Crosby's Furniture,,1871 Watson Blvd.,,Warner Robins,GA,31093 ,US,(478)328-9985,,,,,,
Stanley Discount Furniture,,1107 Macon Rd,,Perry,GA,31069 ,US,(478) 987-2504,,,,,,
R W Home Furniture,,807 Second Ave.,,Rochelle,GA,31079 ,US,(229) 365-2629,,,,,,
Farmers,,1554 E. Forsyth St.,,Americus,GA,31709 ,US,(229) 924-8615,,,,,,
Parker Furniture & Appliance,,126 5Th St S,,Columbus,MS,39701 ,US,(662) 328-7055,,,,,,
Spiller Furniture of Columbus,,"1207 Highway 45N, Suite 8",,Columbus,MS,39705 ,US,(662)329-3466,,,,,,
Loden Furniture,,145 First Avenue Northwest,,Hamilton,AL,35570 ,US,(205) 921-3221,,,,,,
Goose Hollow,,HWY 82 East,,Starkville,MS,39760 ,US,(662) 323-5528,,,,,,
B&B Furniture,,309 Hwy 145 N,,Aberdeen,MS,39730 ,US,(662) 369-9634,,,,,,
Badcock Home Furniture & More,,416 Highway 12 West,,Starkville,MS,39759 ,US,(662) 323-3175,,,,,,
People's Furniture,,274 Oak Avenue,,Spruce Pine,NC,28777 ,US,(828) 765-5557,,,,,,
Boscov's,,7290 Fairlane Village Mall,,Pottsville,PA,17901 ,US,(570) 628-5790,,,,,,
Goins,,900 Garrison,,Fort Smith,AR,72901 ,US,(479)782-1027,,,,,,
Eads Brothers Furniture,,410-416 Garrison Ave,,Fort Smith,AR,72901 ,US,(501) 783-6142,,,,,,
Hanks Fine Furniture,,7434 Rogers Ave,,Fort Smith,AR,72903 ,US,(479)646-6631,,,,,,
FFO Home,,"8819 Rogers Ave., Suite A",,Fort Smith,AR,72903 ,US,(479) 452-2869,,,,,,
FFO Home,,8300 Hwy 71 South,,Fort Smith,AR,72903 ,US,(479) 646-0687,,,,,,
Furniture Emporium,,1705 Hwy. 112 North,,Pocola,OK,74902 ,US,(918)626-3996,,,,,,
FFO Home,,2308 Fayetteville Road,,Van Buren,AR,72956 ,US,(479) 474-0709,,,,,,
Mike's Furniture,,Hwy 64 East,,Roland,OK,74954 ,US,(918) 427-3620,,,,,,
Jennings  Discount Furniture,,Hwy 71 North,,Alma,AR,72921 ,US,(479) 632-2727,,,,,,
A to Z,,3802 North Hwy 71,,Alma,AR,72921 ,US,(479)632-9966,,,,,,
FFO Home,,1535 N. College,,Fayetteville,AR,72703 ,US,(479) 444-9220,,,,,,
Bean Furniture,,412 W Main St,,Clarksville,AR,72830 ,US,(501) 754-2715,,,,,,
FFO Home,,3758 Hwy 412 E,,Siloam Springs,AR,72761 ,US,(479) 231-1185,,,,,,
Sam's Furniture,,1010 S 48Th St,,Springdale,AR,72762 ,US,(501) 756-8191,,,,,,
Todays Office Supply Of Usa,,3157 W Sunset,,Springdale,AR,72766 ,US,(501) 751-5861,,,,,,
FFO Home,,3384 W. Sunset Ave.,,Springdale,AR,72764 ,US,(479) 756-9093,,,,,,
Washburn Furniture,,1020 Mena St,,Mena,AR,71953 ,US,(501) 394-4332,,,,,,
Quality Furniture,,126 West Main Street,,Mountain City,TN,37683 ,US,(423) 727-6401,,,,,,
Cricket Box Furniture,,2901 Wabash Ave.,,Terre Haute,IN,47803 ,US,(812)235-3799,,,,,,
Overpecks Furniture,,117 S Jefferson St,,Rockville,IN,47872 ,US,(765) 569-5458,,,,,,
Horace Link & Co,,130 S Central Ave,,Paris,IL,61944 ,US,(217) 465-6402,,,,,,
Raymour & Flanigan,,3367 Brunswick Pike,,Lawrenceville,NJ,08648 ,US,(609) 720-1422,,,,,,
Raymour & Flanigan,,9 Cabot Boulevard,,Langhorne,PA,19047 ,US,(215) 269-9615,,,,,,
Raymour & Flanigan,,1345 US-1,,North Brunswick,NJ,08902 ,US,(732) 875-4862,,,,,,
Raymour & Flanigan,,150 Trotters Way,,Freehold,NJ,07728 ,US,(732) 252-0065,,,,,,
Value City,,45 Sixth Street,,East Brunswick,NJ,08816 ,US,(732) 257-2500,,,,,,
Raymour & Flanigan,,744 US-202,,Bridgewater,NJ,08807 ,US,(908) 895-2445,,,,,,
Carter's Furniture,,410 N Vine,,Urbana,IL,61801 ,US,(217)  367-4066,,,,,,
Kelsey Furniture,,215 N Main St,,Tuscola,IL,61953 ,US,(217) 253-2142,,,,,,
Turk Furniture,,200. N Vermilion,,Danville,IL,61832 ,US,(217)431-8875,,,,,,
Elliotts Furniture,,712 Lakeland Blvd,,Mattoon,IL,61938 ,US,(217) 234-7778,,,,,,
Down's T.V & Appliance,,200 N. Main Street,,Veedersburg,IN,47987 ,US,(765) 294-2248,,,,,,
Kingdon's Tv & Home,,234 N Jefferson St,,Watseka,IL,60970 ,US,(815) 432-3169,,,,,,
Home Furnishings,,Us 24 W,,Kentland,IN,47951 ,US,(219) 474-6339,,,,,,
Leiser Furniture,,121 S Main St,,Herscher,IL,60941 ,US,(815)426-6100,,,,,,
Turk Furniture,,515 N. Kinzie Ave.,,Bradley,IL,60915 ,US,(815)935-1674,,,,,,
Mountain Comfort,,1020 Nw Wall St,,Bend,OR,97701 ,US,(541) 388-4347,,,,,,
Wilson's Furniture,,2071 S Hwy 97,,Redmond,OR,97756 ,US,(541) 548-2066,,,,,,
Ted Barron Furniture,,19904 S Torrence Ave,,Lynwood,IL,60411 ,US,(708)895-0002,,,,,,
Groen's,,208 Matteson Ave,,Dyer,IN,46311 ,US,(219)865-6585,,,,,,
Deyoung Interiors,,8365 Wicker Ave (Us 41),,St John,IN,46323 ,US,(219) 365-8362,,,,,,
Superior Furniture,,205 E Commerical Ave,,Lowell,IN,46356 ,US,(219) 996-2212,,,,,,
Superior Furniture,,205 E Commercial Ave,,Lowell,IN,46356 ,US,(219)696-7006,,,,,,
West Coast Appliance and Furniture,,6439 Crater Lake Hwy,,Central Point,OR,97502 ,US,(541) 826-7644,,,,,,
Household Furniture,,626 SW Sixth St.,,Grants Pass,OR,97526 ,US,(541) 479-7561,,,,,,
Gates Home Furniture,,700 Sw 6Th St,,Grants Pass,OR,97526 ,US,(541) 476-4627,,,,,,
Barrons Home Furnishings,,97885 Shopping Center Ave.,,Harbor,OR,97415 ,US,(541)412-1226,,,,,,
Barron's Home Furnishings,,97900 Shopping Center Ave.,,Harbor,OR,97415 ,US,(541) 412-0250,,,,,,
Flynn's Furniture,,21 N F Street,,Lakeview,OR,97630 ,US,(541) 947-2339,,,,,,
Flynn's,,21 N. F St.,,Lakeview,OR,97630 ,US,(541) 947-2339,,,,,,
Christianson Furniture,,19 South Main,,Richfield,UT,84701 ,US,(435) 896-6002,,,,,,
Knowles Home Furnishings,,1004 S Main St,,Moab,UT,84532 ,US,(435) 259-1585,,,,,,
Boscov's,,400 Lackawanna Avenue,,Scranton,PA,18503 ,US,(570) 342-7860,,,,,,
Raymour & Flanigan,,85 Viewmont Mall,,Scranton,PA,18508 ,US,(570) 346-1622,,,,,,
The Bon-Ton,,14 Wyoming Valley Mall,,Wilkes-Barre,PA,18702 ,US,(570) 825-8511,,,,,,
Raymour & Flanigan,,53 Spring Street,,Wilkes-Barre,PA,18702 ,US,(570) 822-1578,,,,,,
Boscov's,,15 South Main Street,,Wilkes-Barre,PA,18702 ,US,(570) 823-4141,,,,,,
Boscov's,,105 Laurel Mall,,Hazleton,PA,18202 ,US,(570) 455-9561,,,,,,
Homestead Furniture Inc,,401 Third Street,,Nescopeck,PA,18635 ,US,(570) 752-6921,,,,,,
Royal Furniture,,126 Pike Street,,Port Jervis,NY,12771 ,US,(845) 856-4474,,,,,,
Gary's Furniture,,Route 220 North,,Picture Rocks,PA,17762 ,US,(570) 584-4125,,,,,,
Sams Furniture,,2700 West Walnut,,Rogers,AR,72756 ,US,(479) 899-6020,,,,,,
FFO Home,,3724 W. Walnut,,Rogers,AR,72756 ,US,(479) 636-5450,,,,,,
Tucker's Best Brands Plus,,2013 N 13Th St,,Rogers,AR,72756 ,US,(501) 636-2608,,,,,,
Tucker's Best Brands,,2013 North 13th street,,Rogers,AR,72756 ,US,(479)636-2608,,,,,,
Hanks Fine Furniture,,4308 Pleasant Crossing Blvd,,Rogers,AR,72756 ,US,(479)631-7632,,,,,,
Westco Cassville,,109 W 8Th St,,Cassville,MO,65625 ,US,(417) 847-2125,,,,,,
Neills Home Store,,Bridgeway Plaza,,Shell Knob,MO,65747 ,US,(417)858-4444,,,,,,
Bob Lofits Furniture,,2129 S. Main,,Grove,OK,74344 ,US,(918)786-3410,,,,,,
Westco Grove,,1107 S Main St,,Grove,OK,74344 ,US,(918) 786-4481,,,,,,
Westco Neosho,,901 Neosho Blvd,,Neosho,MO,64850 ,US,(417) 455-0309,,,,,,
Westco Monett,,311 E Broadway St,,Monett,MO,65708 ,US,(417) 235-5422,,,,,,
FFO Home,,1211 Hwy 62-65N,,Harrison,AR,72601 ,US,(870) 365-3877,,,,,,
Colony House,,Hwy 27 South,,Cuthbert,GA,31740 ,US,(229)732-2515,,,,,,
Farmers,,1004 Bankhead Hwy.,,Carrollton,GA,30117 ,US,(770) 834-5175,,,,,,
The Furniture House,,Hwy. 27 North,,Carrollton,GA,30117 ,US,(770)832-0192,,,,,,
Chandler Furniture,,4279 N Hwy 27,,Carrollton,GA,30117 ,US,(770)830-0880,,,,,,
Farmers,,1007 Alabama Ave. South,,Bremen,GA,30110 ,US,(770) 537-4154,,,,,,
Bill's Discount Furniture,,1103 N. 5Th St,,Leesville,LA,71446 ,US,(337) 239-6246,,,,,,
Andreas Furniture Company,,114 Dover Road,,Sugarcreek,OH,44681 ,US,(330) 852-2494,,,,,,
Turner Furniture,,1176 Hwy 82 West,,Leesburg,GA,31763 ,US,(229)432-0766,,,,,,
Farmers,,2518 Dawson Road,,Albany/Dawson,GA,31707 ,US,(229) 446-6601,,,,,,
Harris Furniture,,205 S Main St,,Jonesboro,AR,72401 ,US,(870) 935-3772,,,,,,
FFO Home,,1210 Linwood Drive,,Paragould,AR,72450 ,US,(870) 565-9920,,,,,,
Carl's Furniture,,Centre 1 N 49 Hwy,,Paragould,AR,72450 ,US,(870) 236-8786,,,,,,
Gamble Home Express,,121 Medical Drive,,Paragould,AR,72450 ,US,(870) 236-3352,,,,,,
Dawson Furniture,,Rt 2 Box 62,,Pocahontas,AR,72455 ,US,(870) 892-3881,,,,,,
Newark Furniture,,115 Front Street,,Newark,AR,72562 ,US,(870)799-3243,,,,,,
Wilcoxson Furniture,,901 E. South Bypass,,Kennett,MO,63857 ,US,(573) 888-5157,,,,,,
Bullocks Furniture,,1111 Independence,,Kennett,MO,63857 ,US,(573)888-9292,,,,,,
Jones Furniture,,282 W Main St,,Piggott,AR,72454 ,US,(501) 598-2861,,,,,,
Holman House,,2494 Hwy. 6,,Grand Junction,CO,81505 ,US,(970) 263-4989,,,,,,
Nielson,,130 E Lagoon,,Roosevelt,UT,84066 ,US,(435) 722-2239,,,,,,
Elder Beerman Stores-Richmond,,601 Promenade,,Richmond,IN,47374 ,US,(765)966-7641,,,,,,
Richmond Furniture Gallery,,180 Fort Wayne Ave.,,Richmond,IN,47374 ,US,(765) 939-3325,,,,,,
Francis Furniture,,1410 Wagner Avenue,,Greenville,OH,45331 ,US,(937) 547-0205,,,,,,
4 Seasons Warehouse Furniture,,803 US-20,,Valentine,NE,69201 ,US,(402) 376-2628,,,,,,
Brown Furniture,,103 North Woodward Street,,Ainsworth,NE,69210 ,US,(402) 760-2692,,,,,,
Swans Furniture,,420 West Front Street,,North Platte,NE,69101 ,US,(308) 532-3550,,,,,,
Karl's TV and Appliance,,901 S Cottonwood,,North Platte,NE,69101 ,US,(308)534-0175,,,,,,
Chapin Furniture,,846 South East Street,,Broken Bow,NE,68822 ,US,(308) 872-2450,,,,,,
Raymour & Flanigan,,30 Gibbs Court,,Middletown,NY,10940 ,US,(845) 343-6800,,,,,,
Barrow Furniture,,1430 Reeves Street,,Dothan,AL,36303 ,US,(334) 792-0590,,,,,,
Fowhand Furniture,,1001 Harrison Avenue,,Panama City,FL,32401 ,US,(850) 785-5201,,,,,,
Jim's Corner Furniture,,160  Northwest School Road,,Warrensville,NC,28693 ,US,(336) 384-2929,,,,,,
Modern Hardware & Furniture Co.,,263 Dickenson Highway,,Clintwood,VA,24228 ,US,(276) 926-6501,,,,,,
McNeils Furniture,,227 East Main Street,,Marion,VA,24354 ,US,(276) 783-3881,,,,,,
JM Croskey Furniture,,1213 US-42,,Ashland,OH,44805 ,US,(419) 281-3109,,,,,,
Furniture Fair,,410 White Street,,Jacksonville,NC,28540 ,US,(910) 455-9609,,,,,,
Mills & Thomas Furniture,,US-24 West,,Swansboro,NC,28584 ,US,(910) 326-4694,,,,,,
Sound Furniture & Appliances,,600 Cedar Point Boulevard,,Swansboro,NC,28584 ,US,(252) 393-8130,,,,,,
Sears Winnipeg Home Store,,1450 Ellice Avenue,,Winnipeg,MB,R3G 0G4 ,CA,(204) 779-1999,,,,,,
Leon's Furniture,,1755 Ellice Avenue,,Winnipeg,MB,R3H 1A6 ,CA,(204) 783-0533,,,,,,
Sears Regina Home Store,,3015 Quance Street.,,Regina,SK,S4V 3B7 ,CA,(306) 546-5600,,,,,,
Gilbert Furniture Co.,,52 Main Street,,Gilbert,WV,25621 ,US,(304) 664-3352,,,,,,
Marsen Furniture,,460 W. Main St.,,Vernal,UT,84078 ,US,(435) 789-1322,,,,,,
Gray Mill,,500 E Broadway,,Logansport,IN,46947 ,US,(574) 722-2215,,,,,,
Turner Furniture,,621 E. 5th St.,,Tifton,GA,31794 ,US,(229)382-1333,,,,,,
Hampton house furniture,,9039 Commericial street,,new minas,NS,B4N 5A4 ,CA,(902)-461-2763,,,,,,
Gows Furniture,,641 King St,,Bridgewater,NS,B4V 1B5 ,CA,(902) 543-1750,,,,,,
Walls TV Appliance & Home,,85 Main Street,,Machias,ME,04654 ,US,(207) 255-3555,,,,,,
The Product Finder Factory Outlet,,17 Clinton St,,Amherst,NS,B4H 3G1 ,CA,(902) 667-0959,,,,,,
Mullins Furniture,,248 Plaster Rock,,Plaster Rock,NB,E7G 2C9 ,CA,(506) 365-8312,,,,,,
Arno Hawboldts,,69 Cedar St,,Windsor,NS,B0N 2T0 ,CA,(902) 798-8882,,,,,,
Glen Wilbur Family Furniture,,12 Milbridge Road,,Cherryfield,ME,04622 ,US,(207) 546-7019,,,,,,
Sears Halifax Home Store,,192 Chain Lake Drive,,Halifax,NS,B3S 1C5 ,CA,(902) 450-2700,,,,,,
Sears Moncton Home Store,,75 Trinity Drive,,Moncton,NB,E1G 2J7 ,CA,(506) 388-0200,,,,,,
Neills Home Store,,4460 Gretna Rd / The Shoppes at Branson Meadows,,Branson,MO,65616 ,US,(417)334-4900,,,,,,
FFO Home,,1400 E. 32nd St.,,Joplin,MO,64804 ,US,(417) 623-0524,,,,,,
Yates Trackside Furniture,,1004 E 15Th St,,Joplin,MO,64804 ,US,(417) 781-5364,,,,,,
Cupp's Furniture,,645 Glenmore Loop Road,,Elkins,WV,26241 ,US,(304) 636-2132,,,,,,
Bennetts Home & Supply,,126 Main Avenue,,Weston,WV,26452 ,US,(304) 269-1522,,,,,,
Fitzwater Furniture,,1947 Maryland Highway,,Oakland,MD,21550 ,US,(301) 334-2612,,,,,,
Jack's  Furniture Center,,208 Emily Drive Eastpointe Center,,Clarksburg,WV,26301 ,US,(304) 623-3788,,,,,,
Vail Furniture,,103 North Church Street,,Ripley,WV,25271 ,US,(304) 372-9471,,,,,,
Value City,,1200 Highway 35,,Middletown,NJ,07748 ,US,(732) 671-4500,,,,,,
Boscov's,,180 Street Route 35,,Eatontown,NJ,07724 ,US,(732) 389-2220,,,,,,
Burlington Bedrooms,,2800 Shelburne Road,,Shelburne,VT,05482 ,US,(802) 985-3049,,,,,,
Choice Furniture,,594 Route 3,,Plattsburgh,NY,12901 ,US,(518) 324-5400,,,,,,
Buck's Discount Center,,6114 Route 22 North,,Plattsburgh,NY,12901 ,US,(518) 561-7730,,,,,,
Bushey's Furniture,,6486 Route 22 North,,Plattsburgh,NY,12901 ,US,(518) 563-5716,,,,,,
Sears Brossard Home Store,,8505 Boulevard Taschereau,,Brossard,QC,J4Y 1A4 ,CA,(450) 678-9066,,,,,,
Sears LaSalle Home Store,,7101 Boulevard Newman,,LaSalle,QC,H8N 1X1 ,CA,(514) 365-5070,,,,,,
Hudson Bay Co,,2150 Blvd Lapiniere,,Brossard,QC,J4W 2T5 ,CA,(514) 466-3220,,,,,,
Leon' Furniture,,1909 rue F.X. Sabourin,,Saint-Hubert,QC,J3Z 0B3 ,CA,(450) 445-2969,,,,,,
Hudson Bay Co,,700 Blvd Des Promend,,St Bruno,QC,J3V 5J9 ,CA,(514) 653-4455,,,,,,
Sears St. Bruno Home Store,,1155 des Promenades,,St. Bruno,QC,J3V 6J6 ,CA,(450) 653-4064,,,,,,
Hudson Bay Co,,585 St Catherine St,,Montreal,QC,H3B 3Y5 ,CA,(514) 281-4422,,,,,,
Meubles Beaupel,,481 Chicoine,,Dorion Vandreul,QC,J7V 7E3 ,CA,(514) 424-7355,,,,,,
Hudson Bay Co,,6790 Autoroute Trans,,Pointe Claire,QC,H9R 1C5 ,CA,(514) 697-4870,,,,,,
Leon's Furniture,,2222 Trans Canadienne Sud,,Donval,QC,H9P 2N4 ,CA,(514) 684-6116,,,,,,
Sears Point Claire Home Store,,2325-2365 Route Transcanadianne,,Point Claire,QC,H9R 5Z5 ,CA,(514) 694-3984,,,,,,
Hudson Bay Co,,2435 Rockland Ave,,Ville Mt Royal,QC,H3P 2Z3 ,CA,(514) 739-5521,,,,,,
Sears Laval Home Store,,690 Boulevard Le Corbusier,,Laval,QC,H7N 0A9 ,CA,(450) 682-0495,,,,,,
Sears Anjou Home Store,,6875 Jean-Talon St. East,,Anjou,QC,H1S 1N2 ,CA,(514) 254-4213,,,,,,
Leon's Furniture,,2000 Boulevard Daniel - Johnson,,Laval,QC,H7T 1A3 ,CA,(450) 688-3851,,,,,,
Furniture World,,1901 Jackson Ave W,,Oxford,MS,38655 ,US,(662) 234-8588,,,,,,
Hopper Furniture,,202 N Commerce St,,Ripley,MS,38663 ,US,(662) 837-8491,,,,,,
Levingston Furniture,,701 State St,,Clarksdale,MS,38614 ,US,(662) 627-7339,,,,,,
Porter Tv Furniture & Appliance,,211  Hwy 30 West,,New Albany,MS,38652 ,US,(662) 534-3672,,,,,,
Westco Joplin,,1402 E 7Th St,,Joplin,MO,64801 ,US,(417) 781-1088,,,,,,
Westco Columbus,,238 E Maple St,,Columbus,KS,66725 ,US,(316) 429-3316,,,,,,
Westco Miami,,208 N Main St,,Miami,OK,74354 ,US,(918) 542-6693,,,,,,
Westco Pittsburg,,621 N Broadway St,,Pittsburg,KS,66762 ,US,(316) 231-8950,,,,,,
Moore's Furniture,,Hwy 69 N,,Pittsburg,KS,66762 ,US,(316) 231-6360,,,,,,
Westco Lamar,,700 W 12Th St,,Lamar,MO,64759 ,US,(417) 682-2221,,,,,,
Westco Parsons,,202 South 21St,,Parsons,KS,67357 ,US,(316) 421-4800,,,,,,
Westco Vinita,,126 S Scraper St,,Vinita,OK,74301 ,US,(918) 256-5566,,,,,,
The Furniture Center,,267 Market Street,,Millersburg,PA,17061 ,US,(717) 692-3221,,,,,,
David M. Myers Furniture,,64 North Second Street,,Newport,PA,17074 ,US,(717) 567-3138,,,,,,
Boscov's,,1 Susquehanna Valley Mail Drive,,Selingsgrove,PA,17870 ,US,(570) 374-0121,,,,,,
B T Moyer Furniture,,35 South Fourth Street,,Sunbury,PA,17801 ,US,(570) 286-4751,,,,,,
Shimock's Furniture,,900 Chestnut Street,,Kulpmont,PA,17834 ,US,(570) 373-1531,,,,,,
Suburban Furniture,,19 RTE 10 West,,Succasunna,NJ,07876 ,US,(973) 927-7100,,,,,,
Schnell & Pestinger,,108 S Mill St,,Beloit,KS,67420 ,US,(785) 738-3624,,,,,,
Great Bend Appl Furniture & Sleepsource,,2301 10th Street,,Great Bend,KS,67530 ,US,(620)792-3999,,,,,,
Dick's TV & Furniture,,106 N. Commercial,,Mankato,KS,66956 ,US,(785)378-3123,,,,,,
Bubba's Furniture,,Ridgely Street Route 522,,Orbisonia,PA,17243 ,US,(814) 447-0094,,,,,,
Casabella Direct,,2002   Hwy 72E,,Corinth,MS,38834 ,US,(662) 286-3127,,,,,,
Galleria Furniture,,103 North Mill Avenue,,Dyersburg,TN,38024 ,US,(731) 285-5011,,,,,,
Bruce Furniture,,295 South Marian Road,,Hastings,NE,68901 ,US,(402) 463-3223,,,,,,
Blue Hill Furniture,,501 West Gage Street,,Blue Hill,NE,68930 ,US,(402)756-3030,,,,,,
Nelsons Furniture,,2109 Central Ave,,Kearney,NE,68848 ,US,(308) 236-5031,,,,,,
Bruce Furniture,,2026 Central Avenue,,Kearney,NE,68848 ,US,(308) 237-5141,,,,,,
Bruce Furniture,,322 East Avenue,,Holdridge,NE,68949 ,US,(308) 995-5552,,,,,,
Nelson's Furniture,,508 North Washington Street,,Lexington,NE,68850 ,US,(308) 324-6406,,,,,,
Casey's Galleria Furniture,,122 S Main ST,,Smith Center,KS,66967 ,US,(785) 282-3851,,,,,,
Mayn Mart,,212 South Main,,Stuttgart,AR,72160 ,US,(870)673-1953,,,,,,
Laster Furniture,,6Th And Caddo St,,Arhadelphia,AR,71923 ,US,(870) 246-4161,,,,,,
Hanks Fine Furniture,,3926 Central Ave,,Hot Springs,AR,71913 ,US,(501)658-2239,,,,,,
Fiore Furniture,,201 Cayuga Avenue,,Altoona,PA,16602 ,US,(814) 944-7105,,,,,,
Boscov's,,139 Falon Drive,,Altoona,PA,16602 ,US,(814) 947-5000,,,,,,
Elliott's Appliance & Furniture,,300 East Main Street,,Roaring Spring,PA,16673 ,US,(814) 224-4112,,,,,,
Leidy's Electric Store,,103 North Market Street,,Martinsburg,PA,16662 ,US,(814) 793-2711,,,,,,
Stover's Furniture,,507 Benner Pike,,State College,PA,16801 ,US,(814) 238-4222,,,,,,
Miller Brothers Furniture,,394 Slab Run Road,,Falls Creek,PA,15840 ,US,(814) 371-5909,,,,,,
Smith Furniture,,116 Woodward Avenue,,Lock Haven,PA,17745 ,US,(570) 748-5587,,,,,,
Kozans Countryside,,1450 Hamilton St,,Regina,SK,S4R 1X8 ,CA,(306) 525-6159,,,,,,
Leon's Furniture,,390 Hoffer Drive,,Regina,SK,S4N 7A1 ,CA,(306) 757-5366,,,,,,
Sears Saskatoon Home Store,,810 Circle Drive East,,Saskatoon,SK,S7K 3T8 ,CA,(306) 955-8530,,,,,,
Value City,,353 Route 35 North,,Eatontown,NJ,07724 ,US,(732) 542-4060,,,,,,
FFO Home,,2010 Missouri Blvd.,,Jefferson City,MO,65109 ,US,(573) 636-5530,,,,,,
Eldon Furniture,,5 S Maple St,,Eldon,MO,65026 ,US,(573) 392-4721,,,,,,
FFO Home,,6721 US Hwy. 54,,Osage Beach,MO,65065 ,US,(573) 317-0356,,,,,,
FFO Home,,1690 Old Wire Outer Road,,Rolla,MO,65401 ,US,(573)341-3932,,,,,,
Paul's Furniture,,U S Hwy 63 S,,Rolla,MO,65401 ,US,(573) 364-6465,,,,,,
Lynch's Furniture and Appliances,,248 Old Rt 66,,St. Robert,MO,65584 ,US,(573)336-3312,,,,,,
Helton's Furniture,,455 N. Jefferson Ave.,,Lebanon,MO,65536 ,US,(417) 532-7888,,,,,,
FFO Home,,1645 S. Jefferson,,Lebanon,MO,65536 ,US,(417) 532-8896,,,,,,
South-Town Furniture,,1601 South Main,,Salem,MO,65560 ,US,(573) 729-3422,,,,,,
The Furniture Look,,1101 Main St,,Hays,KS,67601 ,US,(785) 628-6263,,,,,,
Hannah Brothers Furniture,,114 East Main Street,,Shawnee,OH,43782 ,US,(740) 394-2457,,,,,,
T K Miller,,919 Defiance Street,,Wapakoneta,OH,45895 ,US,(419) 738-9648,,,,,,
Ask Amy,,212 West State Street,,Botkins,OH,45306 ,US,(937) 726-3341,,,,,,
Gilberg Furniture,,104 Schwieterman Street,,New Bremen,OH,45869 ,US,(419) 629-2911,,,,,,
Francis Furniture,,2230 West Michigan Street,,Sidney,OH,45365 ,US,(937) 498-4584,,,,,,
Goffena Furniture,,2600 West Michigan,,Sidney,OH,45365 ,US,(937) 492-6730,,,,,,
Rhynes & Rhodes,,3918 W Main St,,Durant,OK,74701 ,US,(580) 920-0520,,,,,,
B And F Furniture,,223 N Main St,,Eufaula,OK,74432 ,US,(918) 689-2171,,,,,,
Patrick Furniture,,1140 N Kingshighway,,Cape Girardeau,MO,63701 ,US,(314) 334-6146,,,,,,
Ross Furniture Of Perryville,,2310 E Jackson Blvd,,Jackson,MO,63775 ,US,(314)243-3108,,,,,,
Ross Furniture,,116 S High St,,Jackson,MO,63755 ,US,(314) 243-3108,,,,,,
Ross Furniture,,116 South High St,,Jackson,MO,63755 ,US,(573) 243-3108,,,,,,
Hefner's Furniture,,2600 N Westwood Blvd,,Poplar Bluff,MO,63901 ,US,(573) 785-1403,,,,,,
Braggs Furniture,,495 Riverside Drive,,Mcconnelsville,OH,43756 ,US,(740) 962-4421,,,,,,
Ivan Smith,,4720 Texas Blvd,,Texarkana,TX,75503 ,US,(903) 792-4277,,,,,,
Four States Furniture,,2315 Richmond Rd  #15,,Texarkana,TX,75501 ,US,(903)223-4506,,,,,,
Hanks Fine Furniture,,502 Walton Dr,,Texarkana,TX,75501 ,US,(903)223-9844,,,,,,
J. C. Trout,,106 Main,,Hooks,TX,75561 ,US,(903) 547-2492,,,,,,
Rawl's Furniture,,103 N McCoy Blvd,,New Boston,TX,75570 ,US,(903) 628-2908,,,,,,
Ivan Smith,,508 Hervey Rd.,,Hope,AR,71801 ,US,(870) 777-8681,,,,,,
Larels Furniture,,132 Runnels,,Dekalb,TX,75559 ,US,(903)667-2213,,,,,,
Ivan Smith,,25 S Park Shp Cnter,,Nashville,AR,71852 ,US,(870) 845-1585,,,,,,
Ivan Smith,,1014 N Jackson St,,Magnolia,AR,71753 ,US,(870) 234-1517,,,,,,
June's Furniture & Appliance,,407 S Central Ave,,Idabel,OK,74745 ,US,(58) 028-6545,,,,,,
Glen's Furniture,,Highway 70 S,,Broken Bow,OK,74728 ,US,(580) 584-6280,,,,,,
Leon's Furniture,,4939  52 Ave. NW,,Edmonton,AB,T6B 3L5 ,CA,(780) 468-5511,,,,,,
Sears Edmonton Skyview Home Store,,13932-137th Avenue N.W.,,Edmonton,AB,T5L 5H1 ,CA,(780) 456-5050,,,,,,
Leon's Furniture,,13730-140th St.,,Edmonton,AB,T6V 1J8 ,CA,(780) 456-4455,,,,,,
Sears Edmonton South Home Store,,1624  99th St.N.W.,,Edmonton,AB,T6N 1M5 ,CA,(780) 490-6300,,,,,,
10 Mackenzie Road,,10 Mackenzie Road,,Red Deer,AB,T4S 2H4 ,CA,(403) 340-8218,,,,,,
Sears Red Deer Home Store,,"5001-19th St., Unit 600",,Red Deer,AB,T4R 3R1 ,CA,(403) 314-2525,,,,,,
Leon's Furniture,,126 Cardinal Crescent,,Saskatoon,SK,S7L 6H6 ,CA,(306) 664-1062,,,,,,
Sears Calgary Sunridge Home Store,,3350 Sunridge Way N.E.,,Calgary,AB,T1Y 7K5 ,CA,(403) 219-0320,,,,,,
Sears Calgary North Home Store,,"3630 Brentwood Road N.W., Suite 500",,Calgary,AB,T2L 1K8 ,CA,(403) 220-9109,,,,,,
Sears Calgary Westbrook A&M,,1200 -37th Street S.W.,,Calgary,AB,T3C 1S2 ,CA,(403) 509-3671,,,,,,
Leon's Furniture,,6825-11th St. SE,,Calgary,AB,T2H 2S1 ,CA,(403) 253-0191,,,,,,
Sears Calgary South Home Store,,70 Glendeer Circle S.E.,,Calgary,AB,T2H 2Z7 ,CA,(403) 212-8910,,,,,,
Factory Direct Furniture,,3907 15Th Ave,,Prince George,BC,V2N 1A5 ,CA,(250) 564-7333,,,,,,
Laketown Furnishings,,99 N 2Nd Ave,,Williams Lake,BC,V2G 1Z3 ,CA,(250) 392-6933,,,,,,
Birchview Interiors,,#2-164 Horselake Rd,,100 Mile House,BC,V0K 2E0 ,CA,(250) 395-6070,,,,,,
Dicks Furniture,,121 South Main Street,,Woodsfield,OH,43793 ,US,(740) 472-1801,,,,,,
Murphy's Furniture and CArpet,,301-305 Main Street,,Caldwell,OH,43724 ,US,(740) 732-5700,,,,,,
Shough Furniture,,Hwy 13,,Bolivar,MO,65613 ,US,(417) 326-4149,,,,,,
Pereira Furntiure,,2-707 Commercial Ave,,Kitimat,BC,V8C 2H4 ,CA,(250) 632-6601,,,,,,
Westco Dewey,,401 S Osage,,Dewey,OK,74029 ,US,(918) 534-1750,,,,,,
Messenger Furniture,,211 N Penn,,Independence,KS,67301 ,US,(620) 331-5730,,,,,,
Westco Independence,,301 Penn Ave,,Independence,KS,67301 ,US,(316) 331-1530,,,,,,
Haymakers Furniture,,910 Hibbard Dearing,,Coffeyville,KS,67337 ,US,(620) 948-3400,,,,,,
Forbes Brothers,,Rr #5 Tatamagouche,,Denmark,NS,B0K 1V0 ,CA,(902) 657-2050,,,,,,
Ross Furniture,,44 Main Street,,Truro,NS,B2N 4G6 ,CA,(902) 895-8998,,,,,,
House Of Furniture Fixtures,,1212 Av St Pierre,,Bathurst,NB,B2N 4G6 ,CA,(506) 548-2650,,,,,,
Becks home Furniture,,18 water Street,,Montaque,PE,C0A 1R0 ,CA,(902)838-5882,,,,,,
Chediacs Furniture,,29 Westville Rd,,New Glasgow,NS,B2H 2J2 ,CA,(902) 755-4567,,,,,,
Tom Chediac Furniture,,29 Westville Rd,,New Glasgow,NS,B2H 2J2 ,CA,(902) 752-3101,,,,,,
Schwartz & Co,,610 E River Rd,,Aberdeen,NS,B2H 3S1 ,CA,(902) 752-0309,,,,,,
Leon's Furniture,,140 Akerley Blvd.,,Dartmouth,NS,B3B 2E4 ,CA,(902) 468-5201,,,,,,
Hudson Bay Co,,21 Mic Mac Blvd,,Dartmouth,NS,B3A 4K7 ,CA,(902) 469-6680,,,,,,
Hudson Bay Co,,7067 Chebucto Rd,,Halifax,NS,B3L 4R5 ,CA,(902) 453-1211,,,,,,
Rodgers Furniture,,558 Main St,,Yarmouth,NS,B5A 4B3 ,CA,(902) 742-3643,,,,,,
Value Check,,1290 King St,,Sydney,NS,B1S 1E2 ,CA,(902) 562-8232,,,,,,
Schwartz & Co,,325 Vulcan Ave,,Sydney,NS,B1P 5X1 ,CA,(902) 539-3100,,,,,,
Leon's Furniture,,"3333 rue du Carrefour, Promenades Beauport",,Beauport,QC,G1C 5R9 ,CA,(418) 667-4040,,,,,,
Sears Quebec City Home Store,,1700 Rue Bouvier,,Quebec,QC,G2K 1N8 ,CA,(418) 260-9084,,,,,,
Hudson Bay Co,,5401 Blv Des Galerie,,Quebec City,QC,G2K 1N4 ,CA,(418) 627-5922,,,,,,
Leon's Furniture,,2840 rue Einstein,,Québec,QC,G1X 5H3 ,CA,(418) 683-9600,,,,,,
Sears Ste-Foy Home Store,,1430 Jules Verne,,Ste-Foy,QC,G2G 2V6 ,CA,(418) 871-9595,,,,,,
Sears Trois-Rivières Home Store,,2950 Boulevard des Recollets,,Trois-Rivières,QC,G9A 6J2 ,CA,(819) 379-0992,,,,,,
Leon's Furniture,,1455 Boulevard Du Plateau St-Joseph,,Sherbrooke,QC,J1L 3E2 ,CA,(819) 822-5366,,,,,,
Sears Sherbrooke Home Store,,3350 Boulevard Portland,,Sherbrooke,QC,J1L 2A6 ,CA,(819) 564-3010,,,,,,
Sears Lachenaie Home Store,,830 Montee Des Pionniers,,Lachenaie,QC,J6V 1N9 ,CA,(450) 654-9966,,,,,,
Brielle,,2169 Highway 35,,Sea Girt,NJ,08750 ,US,(732) 282-0030,,,,,,
Leon's Furniture,,11201 Rue Renaude La Pointe,,Anjou,QC,H1J 2T4 ,CA,(514) 353-4391,,,,,,
Leon's Furniture,,"307 Boulevard Labelle, Galeries Mille-iles",,Rosemere,QC,J7A 2H7 ,CA,(450) 420-5366,,,,,,
Hudson Bay Co,,800 Grand Lake Rd,,Sydney,NS,B1P 6S9 ,CA,(902) 539-8350,,,,,,
Raymour & Flanigan,,1606 State Highway 35 South,,Oakhurst,NJ,07755 ,US,(732) 531-4010,,,,,,
Suniland,,216 Highway 35,,Neptune,NJ,07753 ,US,(732) 775-5588,,,,,,
Lane Home Furnishings,,5 Kiwanis Street,,St. Johns,NL,A1B 0A2 ,CA,(709) 576-2560,,,,,,
Sears Boisbriand Home Store,,2300  Boulevard du Faubourg,,Boisbriand,QC,J7H 1S3 ,CA,(450) 971-6949,,,,,,
