store_name,store_number,address,address2,city,state,zip_code,country,phone_number,latitude,longitude,store_hours,store_type,other_fields,coming_soon
Kinney Drugs,,10923 US Rt. 11 ,,Adams ,NY,13605,United States,(315) 232-4562,,,"Weekday: 8:00 am - 9:00 pm, Weekend: 8:00 am - 8:00 pm / 9:00 am - 6:00 pm, Pharmacy hours Weekday: 8:00 am - 8:30 pm, Weekend: 8:30 am - 6:00 pm / 9:00 am - 5:00 pm",,,
Kinney Drugs,,7998 State Rt. 31 ,,Bridgeport ,NY,13030,United States,(315) 633-0073,,,"Weekday: 7:00 am - 9:00 pm, Weekend: 7:00 am - 9:00 pm / 8:00 am - 7:00 pm, Pharmacy hours Weekday: 8:30 am - 8:30 pm, Weekend: 8:30 am - 7:00 pm / 9:00 am - 5:00 pm",,,
Kinney Drugs,,401 State Street ,,Carthage ,NY,13619,United States,(315) 493-0150,,,"Weekday: 8:00 am - 9:00 pm, Weekend: 9:00 am - 9:00 pm / 9:00 am - 6:00 pm, Pharmacy hours Weekday: 9:00 am - 9:00 pm, Weekend: 9:00 am - 7:00 pm / 9:00 am - 5:00 pm",,,
Kinney Drugs,,41 Albany Street ,,Cazenovia ,NY,13035,United States,(315) 655-3451,,,"Weekday: 7:00 am - 8:00 pm, Weekend: 7:00 am - 8:00 pm / 9:00 am - 6:00 pm, Pharmacy hours Weekday: 8:00 am - 8:00 pm, Weekend: 8:00 am - 7:00 pm / 9:00 am - 5:00 pm",,,
Kinney Drugs,,4202 W. Genesee Street ,,Camillus ,NY,13219,United States,(315) 487-0326,,,"Weekday: 7:00 am - 9:00 pm, Weekend: 7:00 am - 9:00 pm / 9:00 am - 6:00 pm, Pharmacy hours Weekday: 8:30 am - 9:00 pm, Weekend: 8:30 am - 7:00 pm / 9:00 am - 5:00 pm",,,
Kinney Drugs,,2 Preston Street ,,Camden ,NY,13316,United States,(315) 245-1224,,,"Weekday: 8:30 am - 9:00 pm, Weekend: 9:00 am - 7:00 pm / 9:00 am - 5:00 pm, Pharmacy hours Weekday: 8:30 am - 9:00 pm, Weekend: 9:00 am - 7:00 pm / 9:00 am 5:00 pm",,,
Kinney Drugs,,868 State Rt. 11 ,,Champlain ,NY,12919,United States,(518) 298-5343,,,"Weekday: 7:30-9, Weekend: 7:30-9 / 9-6, Pharmacy hours Weekday: 8:30-9, Weekend: 8:30-7 / 9-5",,,
Kinney Drugs,,540 Genesee Street ,,Chittenango ,NY,13037,United States,(315) 687-6110,,,"Weekday: 7:00 am - 9:00 pm, Weekend: 7:00 am - 9:00 pm  / 8:00 am - 6:00 pm, Pharmacy hours Weekday: 9:00 am - 9:00 pm, Weekend: 9:00 am - 7:00 pm / 9:00 am - 5:00 pm",,,
Kinney Drugs,,40 State Highway 310 ,,Canton ,NY,13617,United States,(315) 386-4563,,,"Weekday: 7:00 am - 9:00 pm, Weekend: 7:00 am - 9:00 pm / 9:00 am - 6:00 pm, Pharmacy hours Weekday: 8:30 am - 9:00 pm, Weekend: 8:30 am - 7:00 pm / 9:00 am - 5:00 pm",,,
Kinney Drugs,,9543 US Rt. 11 Suite 1 ,,Brewerton ,NY,13029,United States,(315) 676-3676,,,"Weekday: 7:00 am - 9:00 pm, Weekend: 7:00 am - 9:00 pm / 7:00 am - 9:00 pm, Pharmacy hours Weekday: 9:00 am - 9:00 pm, Weekend: 9:00 am - 7:00 pm / 9:00 am - 5:00 pm",,,
Kinney Drugs,,261 Utica Blvd ,,Boonville ,NY,13309,United States,(315) 942-2509,,,"Weekday: 8:00 am - 9:00 pm, Weekend: 8:00 am - 9:00 pm / 9:00 am - 6:00 pm, Pharmacy hours Weekday: 9:00 am - 9:00 pm, Weekend: 9:00 am - 7:00 pm / 9:00 am - 5:00 pm",,,
Kinney Drugs,,21 E. Genesee Street ,,Baldwinsville ,NY,13027,United States,(315) 635-3155,,,"Weekday: 7:00 am - 9:00 pm, Weekend: 7:00 am - 9:00 pm / 9:00 am - 6:00 pm, Pharmacy hours Weekday: 8:30 am - 9:00 pm, Weekend: 8:30 am - 7:00 pm / 9:00 am - 5:00 pm",,,
Kinney Drugs,,371 East Main Street ,,Gouverneur ,NY,13642,United States,(315) 287-2900,,,"Weekday: 7:00 am - 9:00 pm, Weekend: 7:00 am - 9:00 pm  / 8:00 am - 6:00 pm, Pharmacy hours Weekday: 7:00 am - 8:00 pm, Weekend: 8:30 am - 6:00 pm / 9:00 am - 5:00 pm",,,
Kinney Drugs,,62 Owasco Street ,,Auburn ,NY,13021,United States,(315) 252-9204,,,"Weekday: 7:00 am - 9:00 pm, Weekend: 7:00 am - 9:00 pm / 9:00 am - 6:00 pm, Pharmacy hours Weekday: 9:00 am - 9:00 pm, Weekend: 9:00 am - 7:00 pm / 9:00 am - 5:00 pm",,,
Kinney Drugs,,80 South Main Street ,,Waterbury ,VT,05676,United States,(802) 244-8458,,,"Weekday: 7:00 am - 9:00 pm, Weekend: 7:00 am - 9:00 pm / 9:00 am - 6:00 pm, Pharmacy hours Weekday: 8:30 am - 7:00 pm, Weekend: 8:30 am - 5:00 pm / 9:00 am - 3:00pm",,,
Kinney Drugs,,21 State Rt. 12 ,,Alexandria Bay ,NY,13607,United States,(315) 482-6270,,,"Weekday: 7:00 am - 9:00 pm, Weekend: 7:00 am - 9:00 pm / 9:00 am - 6:00 pm, Pharmacy hours Weekday: 8:00 am - 9:00 pm, Weekend: 8:00 am - 7:00 pm / 9:00 am - 5:00 pm",,,
Kinney Drugs,,187 State Street ,,Auburn ,NY,13021,United States,(315) 255-0014,,,"Weekday: 7:00 am - 9:00 pm, Weekend: 7:00 am - 9:00 pm / 9:00 am - 7:00 pm, Pharmacy hours Weekday: 9:00 am - 9:00 pm, Weekend: 9:00 am - 7:00 pm / 9:00 am - 5:00 pm",,,
Kinney Drugs,,115B Monkton Rd ,,Vergennes ,VT,05491,United States,(802) 877-3148,,,"Weekday: 8:30 am - 8:30 pm, Weekend: 9:00 am - 7:00 pm / 9:00 am - 4:00 pm, Pharmacy hours Weekday: 8:30 am - 9:00 pm, Weekend: 9:00 am - 6:00 pm / 9:00 am - 4:00 pm",,,
Kinney Drugs,,957 Memorial Drive ,,St Johnsbury ,VT,05819,United States,(802) 748-2778,,,"Weekday: 7:30-9:00, Weekend: 7:30-9:00 / 9:00-6:00, Pharmacy hours Weekday: 8:00-8:00, Weekend: 9:00-6:00 / 9:00-5:00",,,
Kinney Drugs,,164 Swanton Rd ,,St Albans ,VT,05478,United States,(802) 524-6543,,,"Weekday: 7:00 am - 8:30 pm, Weekend: Saturday 7:00 am - 8:30 pm  / Sunday 9:00 am - 6:00 pm, Pharmacy hours Weekday: 8:00 am - 8:30 pm, Weekend: Saturday 8:00 am - 7:00 pm  / Sunday 9:00 am - 5:00 pm",,,
Kinney Drugs,,PO BOX 52 Village Square ,,Waitsfield ,VT,05673,United States,(802) 496-2345,,,"Weekday: 9:00am - 6:00pm, Weekend: Saturday 9:00am - 1:00pm, Sunday Closed, Pharmacy hours Weekday: 9:00am - 6:00pm, Weekend: Saturday 9:00am - 1:00pm, Sunday Closed",,,
Kinney Drugs,,47 Executive Drive ,,Shelburne ,VT,05482,United States,(802) 985-0008,,,"Weekday: Mon - Fri: 7:00 am - 9:00 pm, Weekend: Sat: 7:00 am - 9:00 pm Sun: 8:00 am - 8:00 pm, Pharmacy hours Weekday: Mon - Fri: 8:00 am - 8:00 pm, Weekend: Sat: 8:00 am - 6:00 pm Sun: 9:00 am - 6:00 pm",,,
Kinney Drugs,,1653 Williston Rd ,,So Burlington ,VT,05403,United States,(802) 860-0714,,,"Weekday: 7:30-9, Weekend: 7:30-9 / 9-6, Pharmacy hours Weekday: 8:30-9, Weekend: 8:30-7 / 9-5",,,
Kinney Drugs,,55 Shattuck Hill Rd ,,Newport ,VT,05855,United States,(802) 334-1600,,,"Weekday: 7:30 am - 9:00 pm, Weekend: 7:30 am - 9:00 pm / 9:00 am - 6:00 pm, Pharmacy hours Weekday: 8:00 am - 8:00 pm, Weekend: 8:30 am - 6:00 pm / 9:00 am - 5:00 pm",,,
Kinney Drugs,,151 Vermont Route 12 South ,,Randolph ,VT,05060,United States,(802) 728-6284,,,"Weekday: M-F 7:00am - 9:00pm, Weekend: Sat 7:00am - 9:00pm, Sun 9:00am - 6:00pm, Pharmacy hours Weekday: M-F 8:00am - 8:00pm, Weekend: Sat 9:00am - 7:00pm, Sun 9:00am - 5:00pm",,,
Kinney Drugs,,97 Morrisville Plaza ,,Morrisville ,VT,05661,United States,(802) 888-5244,,,"Weekday: 7:30-8:30, Weekend: 7:30-8:30 / 9-6, Pharmacy hours Weekday: 8:30-8:30, Weekend: 8:30-7 / 9-5",,,
Kinney Drugs,,3 Centre Drive ,,Milton ,VT,05468,United States,(802) 893-7459,,,"Weekday: 7:30 am - 9:00 pm, Weekend: 7:30 am - 9:00 pm / 9:00 am - 6:00pm, Pharmacy hours Weekday: 8:30 am - 8:30 pm, Weekend: 8:30 am - 7:00 pm / 9:00 am - 5:00 pm",,,
Kinney Drugs,,Rt 7 Village Ct Shop Ctr ,,Middlebury ,VT,05753,United States,(802) 388-0973,,,"Weekday: 8:00 am - 9:00 pm, Weekend: 8:00 am - 9:00 pm / 9:00 am - 6:00 pm, Pharmacy hours Weekday: 8:30 am - 8:30 pm, Weekend: 8:30 am - 7:00 pm / 9:00 am - 5:00 pm",,,
Kinney Drugs,,10212 Rte 116 ,,Hinesburg ,VT,05461,United States,(802) 482-4886,,,"Weekday: 7:00am - 9:00pm, Weekend: 7:00am - 9:00pm, 9:00am - 6:00pm, Pharmacy hours Weekday: 8:00 am - 8:00 pm, Weekend: 8:00 am - 6:00 pm / 9:00 am - 6:00 pm",,,
Kinney Drugs,,155 South Main Street ,,Cambridge ,VT,05444,United States,(802) 644-8811,,,"Weekday: 8:30-7, Weekend: 8:30-7/9-5, Pharmacy hours Weekday: 8:30-7, Weekend: 8:30-4/Closed",,,
Kinney Drugs,,82 Pearl Street ,,Essex Jct ,VT,05452,United States,(802) 878-5351,,,"Weekday: 7:30 am - 9:00 pm, Weekend: Saturday 7:30 am - 9:00 pm / Sunday 9 am - 6 pm, Pharmacy hours Weekday: 8:30 am - 8:30 pm, Weekend: Saturday 8:30 am - 7 pm / Sunday 9 am - 5 pm",,,
Kinney Drugs,,308 Shelburne Rd ,,Burlington ,VT,05401,United States,(802) 864-8154,,,"Weekday: 8:30 am - 8:30 pm, Weekend: 9:00 am - 7:00 pm /  9:00 am - 5:00 pm, Pharmacy hours Weekday: 8:00 am - 8:00 pm, Weekend: 8:30 am - 7:00 pm / 9:00 am - 5:00 pm",,,
Kinney Drugs,,901 Lower Plain ,,Bradford ,VT,05033,United States,(802) 222-9292,,,"Weekday: 7:30-8:30, Weekend: 7:30-8:30 / 9-6, Pharmacy hours Weekday: 8:30-7, Weekend: 8:30-5 / 9-5",,,
Kinney Drugs,,34 Rt. 30 North ,,Bomoseen ,VT,05732,United States,(802) 468-5777,,,"Weekday: 8-7, Weekend: 9-5 / 10-2, Pharmacy hours Weekday: 8-7, Weekend: 9-5 / 10-2",,,
Kinney Drugs,,16 Church Street ,,Barton ,VT,05822,United States,(802) 525-4098,,,"Weekday: 8:00 am - 6:00 pm, Weekend: 8:00am - 3:00pm,  8:00am - 1:00pm, Pharmacy hours Weekday: 8:00 am - 6:00 pm, Weekend: 9:00 am - 1:00 pm / Closed",,,
Kinney Drugs,,407 Broad Street ,,Lyndonville ,VT,05851,United States,(802) 626-3779,,,"Weekday: 7""00-9:00, Weekend: 7:00-9:00 / 9:00 - 6:00, Pharmacy hours Weekday: 8:00-8:00, Weekend: 9:00-6:00 / 9:00-5:00",,,
Kinney Drugs,,800 US Rt. 302- Berlin ,,Barre ,VT,05641,United States,(802) 476-6659,,,"Weekday: 7:30 am - 8:30 pm, Weekend: 8:30 am - 8:30 pm / 9:00 am - 6:00 pm, Pharmacy hours Weekday: 8:30 am - 8:30 pm, Weekend: 9:00 am - 7:00 pm / 9:00 am - 5:00 pm",,,
Kinney Drugs,,2783 State Rt. 31 ,,Weedsport ,NY,13166,United States,(315) 834-9020,,,"Weekday: 7:00 am - 9:00 pm, Weekend: 7:00 am - 9:00 pm / 9:00 am - 7:00 pm, Pharmacy hours Weekday: 9:00 am - 7:00 pm, Weekend: 9:00 am - 6:00 pm / 9:00 am - 5:00 pm",,,
Kinney Drugs,,40 Oriskany Blvd ,,Whitesboro ,NY,13492,United States,(315) 292-1374,,,"Weekday: 7:00 am - 10:00 pm, Weekend: 7:00 am - 9:00 pm / 7:00 am - 8:00 pm, Pharmacy hours Weekday: 8:00 am - 8:30 pm, Weekend: 9:00 am - 7:00 pm / 9:00 am - 5:00 pm",,,
Kinney Drugs,,22056 US Rt. 11 ,,Watertown ,NY,13601,United States,(315) 782-6530,,,"Weekday: 8:30 am - 9:00 pm, Weekend: 8:30 am - 7:00 pm / 9:00 am - 5:00 pm, Pharmacy hours Weekday: 8:30 am - 9:00 pm, Weekend: 8:30 am - 7:00 pm / 9:00 am - 5:00 pm",,,
Kinney Drugs,,905 Coffeen Street ,,Watertown ,NY,13601,United States,(315) 788-9366,,,"Weekday: 7-9, Weekend: 8-9 / 8-9, Pharmacy hours Weekday: 7-9, Weekend: 8-7 / 9-6",,,
Kinney Drugs,,1729 State Street ,,Watertown ,NY,13601,United States,(315) 788-3570,,,"Weekday: 7:00 am - 9:00 pm, Weekend: 8:00 am - 9:00 pm / 9:00 am - 6:00 pm, Pharmacy hours Weekday: 8:30 am - 9:00 pm, Weekend: 9:00 am - 7:00pm / 9:00 am - 6:00 pm",,,
Kinney Drugs,,1304 Washington Street ,,Watertown ,NY,13601,United States,(315) 782-5700,,,"Weekday: 8:00 am - 9:00 pm, Weekend: 8:00 am - 9:00 pm / 9:00 am - 6:00 pm, Pharmacy hours Weekday: 8:00 am - 9:00 pm, Weekend: 8:00 am - 7:00 pm / 9:00 am - 5:00 pm",,,
Kinney Drugs,,596 Rt. 11 ,,Tully ,NY,13159,United States,(315) 696-8796,,,"Weekday: 7:00 am - 9:00 pm, Weekend: Saturday 7:00 am - 9:00 pm / Sunday 7:00 am - 7:00 pm, Pharmacy hours Weekday: 8:30 am -8:30 pm, Weekend: Saturday: 9:00 am - 6:00 pm / Sunday: 9:00 am - 5:00 pm",,,
Kinney Drugs,,2100 Trumansburg Road ,,Trumansburg ,NY,14886,United States,(607) 387-6661,,,"Weekday: 7:00 am - 9:00 pm, Weekend: 7:00 am - 9:00 pm / 9:00 am - 6:00 pm, Pharmacy hours Weekday: 8:30 am - 8:30 pm, Weekend: 9:00 am - 7:00 pm / 9:00 am - 5:00 pm",,,
Kinney Drugs,,Syracuse Health Center 819 S. Salina Street ,,Syracuse ,NY,13202,United States,(315) 476-3122,,,"Weekday:, Weekend:, Pharmacy hours Weekday: Mon: 8:30-8:00 Tue: 8:30 - 5:00 Wed/Thur: 8:30-8:00 Fri: 8:30-5:00, Weekend: Sat: 9:00-1:00 Sun: Closed",,,
Kinney Drugs,,750 East Adams Street ,,Syracuse ,NY,13210,United States,(315) 464-5172,,,"Weekday:, Weekend:, Pharmacy hours Weekday: Mon - Fri: 9:00 am - 6:00 pm, Weekend: Sat: 9:00 am - 1:00 pm Sun: Closed",,,
Kinney Drugs,,307 Nottingham Road ,,Syracuse ,NY,13210,United States,(315) 214-5097,,,"Weekday: 7:00 am - 9:00 pm, Weekend: Sat: 7:00 am - 9:00 pm / Sun 9:00 am - 6:00 pm, Pharmacy hours Weekday: 9:00 am - 9:00 pm, Weekend: Sat: 9:00 am - 8:00 pm / Sun 9:00 am - 6:00 pm",,,
Kinney Drugs,,406 Butternut Street ,,Syracuse ,NY,13208,United States,(315) 474-8851,,,"Weekday: 7:00 am to 9:00 pm, Weekend: Saturday 7:00 am - 9:00 pm / Sunday 9:00 am - 9:00 pm, Pharmacy hours Weekday: 9:00 am to 9:00 pm, Weekend: Saturday 9:00 am - 8:00 pm / Sunday 9:00 am - 7:00 pm",,,
Kinney Drugs,,94 Demars Blvd Suite 2 ,,Tupper Lake ,NY,12986,United States,(518) 359-9173,,,"Weekday: 8:30 am - 9:00 pm, Weekend: 8:30 am - 9:00 pm / 9:00 am - 6:00 pm, Pharmacy hours Weekday: 8:30 am - 9:00 pm, Weekend: 9:00 am - 7:00 pm / 9:00 am - 5:00 pm",,,
Kinney Drugs,,2912 James Street ,,Syracuse ,NY,13206,United States,(315) 703-3356,,,"Weekday: Mon - Fri: 7:00 am - 9:00 pm, Weekend: Sat: 7:00 am - 9:00 pm / Sun: 8:00 am - 6:00 pm, Pharmacy hours Weekday: Mon - Fri: 9:00 am - 9:00 pm, Weekend: Sat: 9:00 am - 7:00 pm / Sun: 9:00 am - 5:00 pm",,,
Kinney Drugs,,104 Lafayette Road ,,Syracuse ,NY,13205,United States,(315) 492-0248,,,"Weekday: 7-9, Weekend: 7-9/7-9, Pharmacy hours Weekday: 8:30-8:30, Weekend: 9-7/9-5",,,
Kinney Drugs,,12 Park Place ,,St Johnsville ,NY,13452,United States,(518) 568-2400,,,"Weekday: 8:00 am - 9:00 pm, Weekend: Saturday 8:00 am - 9:00 pm / Sunday 9:00 am - 6:00 pm, Pharmacy hours Weekday: 9:00 am - 9:00 pm, Weekend: Saturday 9:00 am - 6:00 pm / Sunday 9:00 am - 5:00 pm",,,
Kinney Drugs,,23 Fennel Street ,,Skaneateles ,NY,13152,United States,(315) 685-2393,,,"Weekday: 7-9, Weekend: 7-9/ 8-7, Pharmacy hours Weekday: 8:30-8:30, Weekend: 9-7 / 9-5",,,
Kinney Drugs,,2085 Rts. 5 & 20 ,,Seneca Falls ,NY,13148,United States,(315) 568-4300,,,"Weekday: 6-9, Weekend: 6-9 / 7-7, Pharmacy hours Weekday: 8:30-8:30, Weekend: 8:30-7 / 9-5",,,
Kinney Drugs,,277 Broadway ,,Saranac Lake ,NY,12983,United States,(518) 891-3132,,,"Weekday: 7:00 am - 9:00 pm, Weekend: 7:00 am - 9:00 pm / 9:00 am - 8:00 pm, Pharmacy hours Weekday: 8:30 am - 8:30 pm, Weekend: 9:00 am - 7:00 pm / 9:00 am 5:00 pm",,,
Kinney Drugs,,10 Main Street ,,Richfield Springs ,NY,13439,United States,(315) 858-3229,,,"Weekday: 8:00 am - 9:00 pm, Weekend: Saturday 8:00 am - 8:00 pm / Sunday 9:00 am - 6:00 pm, Pharmacy hours Weekday: 8:30 am - 8:30 pm, Weekend: Saturday 9:00 am - 7:00 pm / Sunday 9:00 am - 5:00 pm",,,
Kinney Drugs,,3873 Rome Road ,,Pulaski ,NY,13142,United States,(315) 298-2024,,,"Weekday: 7:00 am - 9:00 pm, Weekend: Saturday: 7:00 am - 9:00 pm, Sunday: 9:00 am - 6:00 pm, Pharmacy hours Weekday: 8:00 am - 9:00 pm, Weekend: Saturday 8:00 am - 7:00 pm, Sunday 9:00 am - 5:00 pm",,,
Kinney Drugs,,48 Maple Street ,,Potsdam ,NY,13676,United States,(315) 262-0529,,,"Weekday: 7:00 am - 10:00 pm, Weekend: 8:00 am - 10:00 pm / 9:00 am - 10:00 pm, Pharmacy hours Weekday: 8:00 am - 8:00 pm, Weekend: 8:00 am - 7:00 pm / 9:00 am - 5:00 pm",,,
Kinney Drugs,,200 Market Street ,,Potsdam ,NY,13676,United States,(315) 265-2770,,,"Weekday: 8:00 am - 9:00 pm, Weekend: 8:00 am - 9:00 pm / 9:00 am - 6:00 pm, Pharmacy hours Weekday: 8:30 am - 9:00 pm, Weekend: 8:30 am - 7:00 pm / 9:00 am - 5:00 pm",,,
Kinney Drugs,,6 Veterans Lane ,,Plattsburgh ,NY,12901,United States,(518) 561-8667,,,"Weekday: 7:00 am - 9:00 pm, Weekend: Sat: 8:00 am - 9:00 pm / Sun: 9:00 am - 6:00 pm, Pharmacy hours Weekday: 8:00am - 9:00pm, Weekend: 9:00am - 7:00pm, 9:00am - 5:00pm",,,
Kinney Drugs,,288 Cornelia Street ,,Plattsburgh ,NY,12901,United States,(518) 561-3510,,,"Weekday: 7:00 am - 10:00 pm, Weekend: 7:00 am - 10:00 pm / 9:00 am - 6:00 pm, Pharmacy hours Weekday: 8:30 am - 8:30 pm, Weekend: 8:30 am - 7:00 pm / 9:00 am - 6:00 pm",,,
Kinney Drugs,,161 Carey Road ,,Queensbury ,NY,12804,United States,(518) 480-0011,,,"Weekday: 8:00 am - 6:00 pm, Weekend: 9:00am - 2:00pm, Sunday: Closed, Pharmacy hours Weekday: 8:00 am - 6:00 pm, Weekend: 9:00am - 2:00pm, Sunday: Closed",,,
Kinney Drugs,,112 New York Rd ,,Plattsburgh ,NY,12901,United States,(518) 562-3380,,,"Weekday: 7:30-9, Weekend: 7:30-9 / 9-6, Pharmacy hours Weekday: 9-9, Weekend: 9-7 / 9-5",,,
Kinney Drugs,,1588 Military Turnpike ,,Plattsburgh ,NY,12901,United States,(518) 561-1680,,,"Weekday: 7-9, Weekend: 7-9 / 8-7, Pharmacy hours Weekday: 8:30-9, Weekend: 9-7 / 9-5",,,
Kinney Drugs,,7115 North Main St ,,Ovid ,NY,14521,United States,(607) 869-5033,,,"Weekday: 9:00 am - 6:00 pm, Weekend: Saturday: 9:00 am - 4:00 pm Sunday: Closed, Pharmacy hours Weekday: 9:00 am - 6:00 pm, Weekend: Saturday: 9:00 am - 4:00 pm Sunday: Closed",,,
Kinney Drugs,,174 West Bridge Street ,,Oswego ,NY,13126,United States,(315) 342-6800,,,"Weekday: 8:00 am - 9:00 pm, Weekend: 8:00 am - 9:00 pm / 9:00 am - 6:00 pm, Pharmacy hours Weekday: 8:00 am - 9:00 pm, Weekend: 9:00 am - 7:00 pm / 9:00 am - 5:00 pm",,,
Kinney Drugs,,2964 State Rt. 28 ,,Old Forge ,NY,13420,United States,(315) 369-6044,,,"Weekday: 9:00 am - 9:00 pm, Weekend: 9:00 am - 9:00 pm / 9:00 am - 6:00 pm, Pharmacy hours Weekday: 9:00 am - 6:00 pm, Weekend: 9:00 am - 3:00 pm / Closed",,,
Kinney Drugs,,700 Canton Street ,,Ogdensburg ,NY,13669,United States,(315) 393-2440,,,"Weekday: 8:00 am - 9:00 pm, Weekend: 8:00 am - 9:00 pm / 9:00 am - 6:00 pm, Pharmacy hours Weekday: 8:30 am - 9:00 pm, Weekend: 8:30 am - 7:00 pm / 9:00 am - 5:00 pm",,,
Kinney Drugs,,5221 W. Taft ,,North Syracuse ,NY,13212,United States,(315) 883-3333,,,"Weekday: 7:00 am - 9:00 pm, Weekend: 7:00 am - 9:00 pm / 8:00 am - 6:00 pm, Pharmacy hours Weekday: 8:00 am - 8:00 pm, Weekend: 9:00 am - 7:00 pm / 9:00 am - 5:00 pm",,,
Kinney Drugs,,3318 Main Street ,,Mexico ,NY,13114,United States,(315) 963-0601,,,"Weekday: 8:00 am - 9:00 pm, Weekend: 9:00 am - 9:00 pm / 9:00 am - 6:00 pm, Pharmacy hours Weekday: 8:00 am - 8:00 pm, Weekend: 9:00 am - 6:00 pm / 9:00 am - 5:00 pm",,,
Kinney Drugs,,300 Main Street ,,Massena ,NY,13662,United States,(315) 764-0559,,,"Weekday: 8:00 am - 9:00 pm, Weekend: 8:00 am - 9:00 pm / 8:30 am - 6:00 pm, Pharmacy hours Weekday: 8:30 am - 9:00 pm, Weekend: 8:30 am - 7:00 pm / 8:30 am - 5:00 pm",,,
Kinney Drugs,,7660 Highbridge Road ,,Manlius ,NY,13104,United States,(315) 692-9000,,,"Weekday: 7 am to 9 pm, Weekend: 7 am to 9 pm, Pharmacy hours Weekday: 9 am to 9 pm, Weekend: Sat: 9 am to 7 pm, Sun: 9 am to 5 pm",,,
Kinney Drugs,,485 East Main Street ,,Malone ,NY,12953,United States,(518) 483-3371,,,"Weekday: 7:30 am - 9:00 pm, Weekend: 7:30 am - 9:00 pm / 9:00 am - 6:00 pm, Pharmacy hours Weekday: 8:00 am - 8:00 pm, Weekend: 9:00 am - 7:00 pm / 9:00 am - 5:00 pm",,,
Kinney Drugs,,3400 State Rt. 11 ,,Malone ,NY,12953,United States,(518) 483-4110,,,"Weekday: 7:30 am - 9:00 pm, Weekend: 7:30 am - 9:00 pm / 9:00 am - 6:00 pm, Pharmacy hours Weekday: 8:30 am - 9:00 pm, Weekend: 8:30 am - 7:00 pm / 9:00 am - 5:00 pm",,,
Kinney Drugs,,20 Forgham Street ,,Lyons ,NY,14489,United States,(315) 946-6699,,,"Weekday: 7:00 am - 9:00 pm, Weekend: 7:00 am - 9:00 pm / 9:00 am - 7:00 pm, Pharmacy hours Weekday: 8:30 am - 8:30 pm, Weekend: 8:30 am - 7:00 pm / 9:00 am - 5:00 pm",,,
Kinney Drugs,,130 Main Street ,,Moravia ,NY,13118,United States,(315) 497-9600,,,"Weekday: 7-9, Weekend: 7-9 / 9-7, Pharmacy hours Weekday: 8:30-8:30, Weekend: 8:30-7 / 9-5",,,
Kinney Drugs,,7395 Utica Blvd ,,Lowville ,NY,13367,United States,(315) 376-7551,,,"Weekday: 8:00 am - 9:00 pm, Weekend: 8:00 am - 9:00 pm / 9:00 am - 6:00 pm, Pharmacy hours Weekday: 8:00 am - 9:00 pm, Weekend: 8:00 am - 7:00 pm / 9:00 am - 5:00 pm",,,
Kinney Drugs,,7608 Oswego Rd Suite 21 ,,Liverpool ,NY,13090,United States,(315) 652-6584,,,"Weekday: 7:00 am - 9:00 pm, Weekend: 8:00 am - 7:00 pm / 8:00 am - 6:00 pm, Pharmacy hours Weekday: 8:30 am -8:30 pm, Weekend: 8:00 am - 7:00 pm / 8:00 am - 5:00 pm",,,
Kinney Drugs,,437 Electronics Parkway ,,Liverpool ,NY,13088,United States,(315) 453-1750,,,"Weekday: Open 24 Hours, Weekend: Open 24 Hours, Pharmacy hours Weekday: Open 24 Hours, Weekend: Open 24 Hours",,,
Kinney Drugs,,530 Albany Street ,,Little Falls ,NY,13365,United States,(315) 823-0016,,,"Weekday: 9:00 am - 9:00 pm, Weekend: 9:00 am - 7:00 pm / 9:00 am - 5:00 pm, Pharmacy hours Weekday: 9:00 am - 9:00 pm, Weekend: 9:00 am - 7:00 pm / 9:00 am - 5:00 pm",,,
Kinney Drugs,,1954 Saranac Avenue ,,Lake Placid ,NY,12946,United States,(518) 523-2011,,,"Weekday: 7:00 am - 9:00 pm, Weekend: 7:00 am - 9:00 pm / 8:00 am - 8:00 pm, Pharmacy hours Weekday: 8:00 am - 8:30 pm, Weekend: 8:00 am - 7:00 pm / 9:00 am - 5:00 pm",,,
Kinney Drugs,,513 North Cayuga Street ,,Ithaca ,NY,14850,United States,(607) 272-8333,,,"Weekday: 9-6, Weekend: 9-6/9-1, Pharmacy hours Weekday: 9-6, Weekend: 9-6/9-1",,,
Kinney Drugs,,2255 North Triphammer ,,Ithaca ,NY,14850,United States,(607) 330-5692,,,"Weekday: M-F: 7am-9pm, Weekend: Sat: 7am-9pm Sun: 8am-6pm, Pharmacy hours Weekday: M-F: 9am-9pm, Weekend: Sat 9am-7pm Sun 9am-5pm",,,
Kinney Drugs,,103 Utica Street ,,Hamilton ,NY,13346,United States,(315) 824-2200,,,"Weekday: 7:00 am - 9:00 pm, Weekend: 7:00 am - 9:00 pm / 9:00 am - 6:00 pm, Pharmacy hours Weekday: 8:30 am - 8:30 pm, Weekend: 8:30 am - 7:00 pm / 9:00 am - 5:00 pm",,,
Kinney Drugs,,17 Clinton Street ,,Gouverneur ,NY,13642,United States,(315) 287-4012,,,"Weekday: 7:00 am - 9:00 pm, Weekend: 7:00 am - 9:00 pm / 9:00 am - 6:00 pm, Pharmacy hours Weekday: 8:30 am - 9:00 pm, Weekend: 8:30 am - 7:00 pm / 9:00 am - 5:00 pm",,,
Kinney Drugs,,115 Oneida Street ,,Fulton ,NY,13069,United States,(315) 593-2158,,,"Weekday: 8:00 am - 9:00 pm, Weekend: 8:00 am - 9:00 pm / 9:00 am - 6:00 pm, Pharmacy hours Weekday: 8:00 am - 8:00 pm, Weekend: 9:00 am - 7:00 pm / 9:00 am - 5:00 pm",,,
Kinney Drugs,,7550 Court Street ,,Elizabethtown ,NY,12932,United States,(518) 873-6441,,,"Weekday: 7:30 am - 9:00 pm, Weekend: 7:30 am - 9:00 pm / 9:00 am - 8:00 pm, Pharmacy hours Weekday: 8:00 am - 7:00 pm, Weekend: 8:00 am - 5:00 pm / 9:00 am - 3:00 pm",,,
Kinney Drugs,,1057 Rt. 5 E. ,,Elbridge ,NY,13060,United States,(315) 689-6111,,,"Weekday: 8:00 am - 9:00 pm, Weekend: 8:00 am - 9:00 pm / 9:00 am - 6:00 pm, Pharmacy hours Weekday: 9:00 am - 9:00 pm, Weekend: 9:00 am - 7:00 pm / 9:00 am - 5:00 pm",,,
Kinney Drugs,,7065 Manlius Center Rd ,,East Syracuse ,NY,13057,United States,(315) 656-9925,,,"Weekday: 7:00 am - 9:00 pm, Weekend: 7:00 am - 9:00 pm / 9:00 am - 6:00 pm, Pharmacy hours Weekday: 9:00 am - 9:00 pm, Weekend: 9:00 am - 7:00 pm / 9:00 am - 5:00 pm",,,
Kinney Drugs,,40 First Street ,,Ilion ,NY,13357,United States,(315) 894-2381,,,"Weekday: 8:00 am - 9:00 pm, Weekend: 8:00 am - 9:00 pm / 9:00 am - 6:00 pm, Pharmacy hours Weekday: 9:00 am - 9:00 pm, Weekend: 9:00 am - 7:00 pm / 9:00 am - 5:00 pm",,,
Kinney Drugs,,44 North Street ,,Dryden ,NY,13053,United States,(607) 844-8273,,,"Weekday: 7-9, Weekend: 7-9/9-7, Pharmacy hours Weekday: 8:30-8:30, Weekend: 9-7/9-5",,,
Kinney Drugs,,55 North Main Street ,,Dolgeville ,NY,13329,United States,(315) 429-8565,,,"Weekday: 9:00 am - 9:00 pm, Weekend: 9:00 am - 7:00 pm / 9:00 am - 3:00 pm, Pharmacy hours Weekday: 9:00 am - 9:00 pm, Weekend: 9:00 am - 7:00 pm / 9:00 am - 3:00 pm",,,
Kinney Drugs,,3666 State Rt. 281 ,,Cortland ,NY,13045,United States,(607) 753-9359,,,"Weekday: 7:00 am - 9:00 pm, Weekend: 7:00 am - 9:00 pm / 9:00 am - 6:00 pm, Pharmacy hours Weekday: 9:00 am - 9:00 pm, Weekend: 9:00 am - 7:00 pm / 9:00 am - 5:00 pm",,,
Kinney Drugs,,14 Clinton Ave ,,Cortland ,NY,13045,United States,(607) 753-1591,,,"Weekday: 8:30 am - 8:30 pm, Weekend: Saturday: 8:30 am - 7:00 pm, Sunday: 9:00 am - 5:00 pm, Pharmacy hours Weekday: 8:30 am - 8:30 pm, Weekend: Saturday: 8:30 am - 7:00 pm, Sunday: 9:00 am - 5:00 pm",,,
Kinney Drugs,,12 Franklin Ave ,,Clinton ,NY,13323,United States,(315) 853-3980,,,"Weekday: 8:00 am - 9:00 pm, Weekend: 8:00 am - 9:00 pm / 9:00 am - 6:00 pm, Pharmacy hours Weekday: 8:30 am - 8:30 pm, Weekend: 8:30 am - 7:00 pm / 9:00 am - 5:00 pm",,,
Kinney Drugs,,822 James Street ,,Clayton ,NY,13624,United States,(315) 686-5121,,,"Weekday: 7:00 am - 9:00 pm, Weekend: 7:00 am - 9:00 pm / 9:00 am - 6:00 pm, Pharmacy hours Weekday: 8:30 am - 9:00 pm, Weekend: 8:30 am - 7:00 pm / 9:00 am - 5:00 pm",,,
Kinney Drugs,,8150 Thompson Rd ,,Cicero ,NY,13039,United States,(315) 699-0340,,,"Weekday: 7-9, Weekend: 7-9 / 9-6, Pharmacy hours Weekday: 9-9, Weekend: 9-7/ 9-5",,,
