store_name,store_number,address,address2,city,state,zip_code,country,phone_number,latitude,longitude,store_hours,store_type,other_fields,coming_soon
pharmaprix - alma,,1050 Avenue Du Pond S,,Alma,QC,G8B 2V8,Canada,418-668-3047,,,"Monday 09:00 AM - 06:00 PM, Tuesday 08:00 AM - 10:00 PM, Wednesday 08:00 AM - 10:00 PM, Thursday 08:00 AM - 10:00 PM, Friday 08:00 AM - 10:00 PM, Saturday 09:00 AM - 09:00 PM, Sunday 09:00 AM - 09:00 PM",,,
pharmaprix - newman,,8371 Newman,,Montreal,QC,H8N 1Y4,Canada,514-595-8550,,,"Monday 08:00 AM - 10:00 PM, Tuesday 08:00 AM - 10:00 PM, Wednesday 08:00 AM - 10:00 PM, Thursday 08:00 AM - 10:00 PM, Friday 08:00 AM - 10:00 PM, Saturday 09:00 AM - 10:00 PM, Sunday 09:00 AM - 10:00 PM",,,
pharmaprix - van horne,,4815 Van Horne,,Montreal,QC,H3W 1J2,Canada,514-739-1758,,,"Monday 08:00 AM - 10:00 PM, Tuesday 08:00 AM - 10:00 PM, Wednesday 08:00 AM - 10:00 PM, Thursday 08:00 AM - 10:00 PM, Friday 08:00 AM - 10:00 PM, Saturday 09:00 AM - 10:00 PM, Sunday 09:00 AM - 10:00 PM",,,
pharmaprix - carrefour angrignon,,"7077 Newman Blvd, Suite #8",,Montreal,QC,H8N 1X1,Canada,514-366-0624,,,"Monday 09:00 AM - 06:00 PM, Tuesday 09:00 AM - 09:00 PM, Wednesday 09:00 AM - 09:00 PM, Thursday 09:00 AM - 09:00 PM, Friday 09:00 AM - 09:00 PM, Saturday 09:00 AM - 06:00 PM, Sunday 09:00 AM - 06:00 PM",,,
pharmaprix - mont-royal st.,,1 Ave. Mont-Royal Est,,Montreal,QC,H2T 1N4,Canada,514-284-1865,,,"Monday 08:00 AM - 11:00 PM, Tuesday 08:00 AM - 11:00 PM, Wednesday 08:00 AM - 11:00 PM, Thursday 08:00 AM - 11:00 PM, Friday 08:00 AM - 11:00 PM, Saturday 08:00 AM - 11:00 PM, Sunday 08:00 AM - 11:00 PM",,,
pharmaprix - ontario,,3845 Ontario Est,,Montreal,QC,H1W 1S5,Canada,514-524-7727,,,"Monday 09:00 AM - 10:00 PM, Tuesday 09:00 AM - 10:00 PM, Wednesday 09:00 AM - 10:00 PM, Thursday 09:00 AM - 10:00 PM, Friday 09:00 AM - 10:00 PM, Saturday 09:00 AM - 10:00 PM, Sunday 09:00 AM - 10:00 PM",,,
pharmaprix - ahuntsic,,10305 Boul. St Laurent,,Montreal,QC,H3L 2P1,Canada,514-389-1551,,,"Monday 09:00 AM - 10:00 PM, Tuesday 09:00 AM - 10:00 PM, Wednesday 09:00 AM - 10:00 PM, Thursday 09:00 AM - 10:00 PM, Friday 09:00 AM - 10:00 PM, Saturday 09:00 AM - 10:00 PM, Sunday 09:00 AM - 10:00 PM",,,
pharmaprix - lachine,,1125 Provost,,Montreal,QC,H8S 1N4,Canada,514-637-4441,,,"Monday 09:00 AM - 09:00 PM, Tuesday 08:00 AM - 10:00 PM, Wednesday 08:00 AM - 10:00 PM, Thursday 08:00 AM - 10:00 PM, Friday 08:00 AM - 10:00 PM, Saturday 09:00 AM - 09:00 PM, Sunday 09:00 AM - 09:00 PM",,,
pharmaprix - queen mary & snowdon,,"4999 Chemin Queen Mary, Arr. Cdn / Ndg",,Montreal,QC,H3W 1X4,Canada,514-737-5454,,,"Monday 08:00 AM - 10:00 PM, Tuesday 08:00 AM - 10:00 PM, Wednesday 08:00 AM - 10:00 PM, Thursday 08:00 AM - 10:00 PM, Friday 08:00 AM - 10:00 PM, Saturday 08:00 AM - 10:00 PM, Sunday 08:00 AM - 10:00 PM",,,
pharmaprix - cote-des-neiges/van horne,,"6180 Chemin De La Cote-Des-Neiges, Arr. Cdn / Ndg",,Montreal,QC,H3S 1Z7,Canada,514-739-8884,,,"Monday 08:00 AM - 10:00 PM, Tuesday 08:00 AM - 10:00 PM, Wednesday 08:00 AM - 10:00 PM, Thursday 08:00 AM - 10:00 PM, Friday 08:00 AM - 10:00 PM, Saturday 08:00 AM - 10:00 PM, Sunday 08:00 AM - 10:00 PM",,,
shoppers simply pharmacy - de l'eglise,,55 De L'Eglise,,Montreal,QC,H4G 3E7,Canada,514-768-1119,,,"Monday 09:00 AM - 02:00 PM, Tuesday 08:30 AM - 09:00 PM, Wednesday 08:30 AM - 09:00 PM, Thursday 08:30 AM - 09:00 PM, Friday 08:30 AM - 09:00 PM, Saturday 09:00 AM - 04:00 PM, Sunday CLOSED",,,
pharmaprix - alexis nihon,,"1500 Avenue Atwater, Unit G19",,Montreal,QC,H3Z 1X5,Canada,514-931-4283,,,"Monday 09:00 AM - 06:00 PM, Tuesday 08:00 AM - 10:00 PM, Wednesday 08:00 AM - 10:00 PM, Thursday 08:00 AM - 10:00 PM, Friday 08:00 AM - 10:00 PM, Saturday 09:00 AM - 10:00 PM, Sunday 09:00 AM - 10:00 PM",,,
pharmaprix - rosemont,,2625 Boul. Rosemont Est,,Montreal,QC,H1Y 1L1,Canada,514-725-6446,,,"Monday 08:00 AM - 10:00 PM, Tuesday 08:00 AM - 11:00 PM, Wednesday 08:00 AM - 11:00 PM, Thursday 08:00 AM - 11:00 PM, Friday 08:00 AM - 11:00 PM, Saturday 09:00 AM - 10:00 PM, Sunday 09:00 AM - 10:00 PM",,,
pharmaprix - forest,,10551 Boul. Pie Ix,,Montreal,QC,H1H 4A3,Canada,514-321-1230,,,"Monday 09:00 AM - 10:00 PM, Tuesday 09:00 AM - 10:00 PM, Wednesday 09:00 AM - 10:00 PM, Thursday 09:00 AM - 10:00 PM, Friday 09:00 AM - 10:00 PM, Saturday 09:00 AM - 10:00 PM, Sunday 09:00 AM - 10:00 PM",,,
pharmaprix - st-alexandre,,390 Ste-Catherine Ouest,,Montreal,QC,H3B 1A1,Canada,514-875-7070,,,"Monday 10:00 AM - 10:00 PM, Tuesday 08:00 AM - 10:00 PM, Wednesday 08:00 AM - 10:00 PM, Thursday 08:00 AM - 10:00 PM, Friday 08:00 AM - 10:00 PM, Saturday 09:00 AM - 10:00 PM, Sunday 10:00 AM - 10:00 PM",,,
pharmaprix - place ville marie,,"1 Place Ville Marie, Suite 11230",,Montreal,QC,H3B 3Y1,Canada,514 866-9881,,,"Monday 09:00 AM - 06:00 PM, Tuesday 07:30 AM - 07:00 PM, Wednesday 07:30 AM - 07:00 PM, Thursday 07:30 AM - 09:00 PM, Friday 07:30 AM - 09:00 PM, Saturday 09:30 AM - 05:30 PM, Sunday 12:00 PM - 05:00 PM",,,
pharmaprix - victoriaville,,"1111 Boul Jutras Est, Unit 28",,Victoriaville,QC,G6S 1C1,Canada,819-357-4748,,,"Monday 09:00 AM - 06:00 PM, Tuesday 09:00 AM - 09:00 PM, Wednesday 09:00 AM - 09:00 PM, Thursday 09:00 AM - 09:00 PM, Friday 09:00 AM - 09:00 PM, Saturday 09:00 AM - 09:00 PM, Sunday 09:00 AM - 09:00 PM",,,
pharmaprix - vaudreuil,,"585 St-Charles, Carrefour Vaudreuil",,Vaudreuil,QC,J7V 8P9,Canada,450-455-5568,,,"Monday 09:00 AM - 10:00 PM, Tuesday 09:00 AM - 10:00 PM, Wednesday 09:00 AM - 10:00 PM, Thursday 09:00 AM - 10:00 PM, Friday 09:00 AM - 10:00 PM, Saturday 09:00 AM - 09:00 PM, Sunday 09:00 AM - 09:00 PM",,,
pharmaprix - varennes,,"2444 Rene-Gaultier Blvd, Ste 106",,Varennes,QC,J3X 1X7,Canada,450-929-2780,,,"Monday 09:00 AM - 10:00 PM, Tuesday 09:00 AM - 10:00 PM, Wednesday 09:00 AM - 10:00 PM, Thursday 09:00 AM - 10:00 PM, Friday 09:00 AM - 10:00 PM, Saturday 09:00 AM - 09:00 PM, Sunday 09:00 AM - 09:00 PM",,,
pharmaprix - trois-rivieres,,3950 Boul. Des Forges,,Trois-Rivieres,QC,G8Y 1V7,Canada,819-375-1730,,,"Monday 09:00 AM - 09:00 PM, Tuesday 09:00 AM - 09:00 PM, Wednesday 09:00 AM - 09:00 PM, Thursday 09:00 AM - 09:00 PM, Friday 09:00 AM - 09:00 PM, Saturday 09:00 AM - 09:00 PM, Sunday 09:00 AM - 09:00 PM",,,
shoppers simply pharmacy - ste-angele,,"1030 Sainte-Angele, Arr. Marie-De-L'Incarnation",,Trois-Rivieres,QC,G9A 1M8,Canada,819-378-4043,,,"Monday 09:00 AM - 09:00 PM, Tuesday 09:00 AM - 06:00 PM, Wednesday 09:00 AM - 06:00 PM, Thursday 09:00 AM - 09:00 PM, Friday 09:00 AM - 09:00 PM, Saturday 09:00 AM - 04:00 PM, Sunday CLOSED",,,
pharmaprix - cap-de-la-madeleine,,810 Boul Thibeau Nord,,Trois-Rivieres,QC,G8T 7A6,Canada,819-374-8119,,,"Monday 09:00 AM - 09:00 PM, Tuesday 09:00 AM - 09:00 PM, Wednesday 09:00 AM - 09:00 PM, Thursday 09:00 AM - 09:00 PM, Friday 09:00 AM - 09:00 PM, Saturday 09:00 AM - 09:00 PM, Sunday 09:00 AM - 09:00 PM",,,
pharmaprix - jean xxiii,,5550 Boul Jean Xxiii,,Trois-Rivieres,QC,G8Z 4A9,Canada,819-375-2934,,,"Monday 09:00 AM - 05:00 PM, Tuesday 09:00 AM - 09:00 PM, Wednesday 09:00 AM - 09:00 PM, Thursday 09:00 AM - 09:00 PM, Friday 09:00 AM - 09:00 PM, Saturday 09:00 AM - 09:00 PM, Sunday 09:00 AM - 09:00 PM",,,
pharmaprix - terrebonne,,"1185 Boul. Moody, Local 30",,Terrebonne,QC,J6W 3Z5,Canada,450-471-2801,,,"Monday 10:00 AM - 05:00 PM, Tuesday 09:00 AM - 09:00 PM, Wednesday 09:00 AM - 09:00 PM, Thursday 09:00 AM - 09:00 PM, Friday 09:00 AM - 09:00 PM, Saturday 09:00 AM - 05:00 PM, Sunday 09:00 AM - 05:00 PM",,,
pharmaprix - la plaine,,5791 Blvd Laurier,,Terrebonne,QC,J7M 1C3,Canada,450-477-5470,,,"Monday 09:00 AM - 10:00 PM, Tuesday 09:00 AM - 10:00 PM, Wednesday 09:00 AM - 10:00 PM, Thursday 09:00 AM - 10:00 PM, Friday 09:00 AM - 10:00 PM, Saturday 09:00 AM - 10:00 PM, Sunday 09:00 AM - 10:00 PM",,,
pharmaprix - lacordaire,,5650 Jean-Talon Est,,St-Leonard,QC,H1S 1M1,Canada,514-252-7000,,,"Monday 09:00 AM - 09:00 PM, Tuesday 08:00 AM - 10:00 PM, Wednesday 08:00 AM - 10:00 PM, Thursday 08:00 AM - 10:00 PM, Friday 08:00 AM - 10:00 PM, Saturday 08:00 AM - 10:00 PM, Sunday 08:00 AM - 10:00 PM",,,
pharmaprix - st-lambert,,1031 Avenue Victoria,,St-Lambert,QC,J4R 1P6,Canada,450-671-8367,,,"Monday 09:00 AM - 09:00 PM, Tuesday 09:00 AM - 10:00 PM, Wednesday 09:00 AM - 10:00 PM, Thursday 09:00 AM - 10:00 PM, Friday 09:00 AM - 10:00 PM, Saturday 09:00 AM - 09:00 PM, Sunday 09:00 AM - 09:00 PM",,,
pharmaprix - st-jerome,,900 Boul Grignon,,St-Jerome,QC,J7Y 3S7,Canada,450-438-1293,,,"Monday 08:00 AM - 09:00 PM, Tuesday 08:00 AM - 09:00 PM, Wednesday 08:00 AM - 09:00 PM, Thursday 08:00 AM - 09:00 PM, Friday 08:00 AM - 09:00 PM, Saturday 09:00 AM - 09:00 PM, Sunday 09:00 AM - 09:00 PM",,,
pharmaprix - st-jean,,"1000 Du Seminaire, Unite 4",,St-Jean-Sur-Richelieu,QC,J3A 1E5,Canada,450-348-6813,,,"Monday 08:00 AM - 10:00 PM, Tuesday 08:00 AM - 10:00 PM, Wednesday 08:00 AM - 10:00 PM, Thursday 08:00 AM - 10:00 PM, Friday 08:00 AM - 10:00 PM, Saturday 09:00 AM - 09:00 PM, Sunday 09:00 AM - 09:00 PM",,,
pharmaprix - carrefour st-jean,,600 Pierre-Caisse,,St-Jean-Sur-Richelieu,QC,J3A 1M1,Canada,450-348-1103,,,"Monday 09:00 AM - 06:00 PM, Tuesday 08:00 AM - 09:00 PM, Wednesday 08:00 AM - 09:00 PM, Thursday 08:00 AM - 09:00 PM, Friday 08:00 AM - 09:00 PM, Saturday 09:00 AM - 05:00 PM, Sunday 09:00 AM - 05:00 PM",,,
pharmaprix - st-eustache,,179 25 Ieme Avenue,,St-Eustache,QC,J7P 2V1,Canada,450-491-4111,,,"Monday 09:00 AM - 09:00 PM, Tuesday 08:00 AM - 10:00 PM, Wednesday 08:00 AM - 10:00 PM, Thursday 08:00 AM - 10:00 PM, Friday 08:00 AM - 10:00 PM, Saturday 09:00 AM - 09:00 PM, Sunday 09:00 AM - 09:00 PM",,,
pharmaprix - ste-claire,,90 Boulevard Begin,,Ste. Claire,QC,G0R 2V0,Canada,418-883-3345,,,"Monday 09:00 AM - 05:00 PM, Tuesday 09:00 AM - 09:00 PM, Wednesday 09:00 AM - 09:00 PM, Thursday 09:00 AM - 09:00 PM, Friday 09:00 AM - 09:00 PM, Saturday 09:00 AM - 05:00 PM, Sunday 10:00 AM - 05:00 PM",,,
pharmaprix - st-constant,,"400 Route 132, Cp 147",,St-Constant,QC,J5A 2J8,Canada,450-638-4317,,,"Monday 09:00 AM - 10:00 PM, Tuesday 09:00 AM - 10:00 PM, Wednesday 09:00 AM - 10:00 PM, Thursday 09:00 AM - 10:00 PM, Friday 09:00 AM - 10:00 PM, Saturday 09:00 AM - 09:00 PM, Sunday 09:00 AM - 09:00 PM",,,
shoppers simply pharmacy - st-charles-borromee,,222 Rue Visitation,,St-Charles-Borromee,QC,J6E 4N5,Canada,450-755-2222,,,"Monday 09:00 AM - 09:00 PM, Tuesday 09:00 AM - 09:00 PM, Wednesday 09:00 AM - 09:00 PM, Thursday 09:00 AM - 09:00 PM, Friday 09:00 AM - 09:00 PM, Saturday 09:00 AM - 05:00 PM, Sunday CLOSED",,,
pharmaprix - fleurimont,,"930 13Ieme Avenue Nord, Les Galeries Quatre Saisons",,Sherbrooke,QC,J1E 3J7,Canada,819-565-9131,,,"Monday 09:00 AM - 05:00 PM, Tuesday 08:30 AM - 09:00 PM, Wednesday 08:30 AM - 09:00 PM, Thursday 08:30 AM - 09:00 PM, Friday 08:30 AM - 09:00 PM, Saturday 09:00 AM - 05:00 PM, Sunday 09:00 AM - 05:00 PM",,,
pharmaprix - st-hyacinthe,,1350 Johnson Ouest,,St. Hyacinthe,QC,J2S 8J4,Canada,450-774-1338,,,"Monday 09:00 AM - 09:00 PM, Tuesday 09:00 AM - 10:00 PM, Wednesday 09:00 AM - 10:00 PM, Thursday 09:00 AM - 10:00 PM, Friday 09:00 AM - 10:00 PM, Saturday 09:00 AM - 09:00 PM, Sunday 09:00 AM - 09:00 PM",,,
pharmaprix - arthur-sauve,,757 Arthur Sauve,,St Eustache,QC,J7R 4K3,Canada,450-472-9662,,,"Monday 09:00 AM - 10:00 PM, Tuesday 09:00 AM - 10:00 PM, Wednesday 09:00 AM - 10:00 PM, Thursday 09:00 AM - 10:00 PM, Friday 09:00 AM - 10:00 PM, Saturday 09:00 AM - 10:00 PM, Sunday 09:00 AM - 10:00 PM",,,
pharmaprix - rock forest,,5000 Bourque,,Sherbrooke,QC,J1N 2K7,Canada,819-823-2295,,,"Monday 08:30 AM - 10:00 PM, Tuesday 08:30 AM - 10:00 PM, Wednesday 08:30 AM - 10:00 PM, Thursday 08:30 AM - 10:00 PM, Friday 08:30 AM - 10:00 PM, Saturday 09:00 AM - 09:00 PM, Sunday 09:00 AM - 09:00 PM",,,
pharmaprix - st-antoine,,204 Durand,,St Jerome,QC,J7Z 7E2,Canada,450-431-9941,,,"Monday 08:00 AM - 10:00 PM, Tuesday 08:00 AM - 10:00 PM, Wednesday 08:00 AM - 10:00 PM, Thursday 08:00 AM - 10:00 PM, Friday 08:00 AM - 10:00 PM, Saturday 09:00 AM - 10:00 PM, Sunday 09:00 AM - 09:00 PM",,,
pharmaprix - belvedere,,420 Belvedere Sud,,Sherbrooke,QC,J1H 4B5,Canada,819-566-6821,,,"Monday 09:00 AM - 09:00 PM, Tuesday 08:00 AM - 10:00 PM, Wednesday 08:00 AM - 10:00 PM, Thursday 08:00 AM - 10:00 PM, Friday 08:00 AM - 10:00 PM, Saturday 09:00 AM - 09:00 PM, Sunday 09:00 AM - 09:00 PM",,,
pharmaprix - sherbrooke,,3050 Boul. De Portland,,Sherbrooke,QC,J1L 1K1,Canada,819-569-9621,,,"Monday 09:00 AM - 09:00 PM, Tuesday 09:00 AM - 09:00 PM, Wednesday 09:00 AM - 09:00 PM, Thursday 09:00 AM - 09:00 PM, Friday 09:00 AM - 09:00 PM, Saturday 09:00 AM - 06:00 PM, Sunday 09:00 AM - 06:00 PM",,,
pharmaprix - king ouest,,1811 King Ouest,,Sherbrooke,QC,J1J 2E3,Canada,819-822-3333,,,"Monday 09:00 AM - 06:00 PM, Tuesday 08:00 AM - 10:00 PM, Wednesday 08:00 AM - 10:00 PM, Thursday 08:00 AM - 10:00 PM, Friday 08:00 AM - 10:00 PM, Saturday 09:00 AM - 09:00 PM, Sunday 09:00 AM - 09:00 PM",,,
pharmaprix - shawinigan,,1 Plaza De La Mauricie,,Shawinigan,QC,G9N 7C1,Canada,819-539-5416,,,"Monday 08:00 AM - 09:00 PM, Tuesday 08:00 AM - 09:00 PM, Wednesday 08:00 AM - 09:00 PM, Thursday 08:00 AM - 09:00 PM, Friday 08:00 AM - 09:00 PM, Saturday 08:00 AM - 06:00 PM, Sunday 08:00 AM - 06:00 PM",,,
pharmaprix - valleyfield,,1484 Mgr Langlois,,Salaberry De Valleyfield,QC,J6S 1E3,Canada,450-377-1787,,,"Monday 09:00 AM - 09:00 PM, Tuesday 09:00 AM - 09:00 PM, Wednesday 09:00 AM - 09:00 PM, Thursday 09:00 AM - 09:00 PM, Friday 09:00 AM - 09:00 PM, Saturday 09:00 AM - 09:00 PM, Sunday 09:00 AM - 09:00 PM",,,
pharmaprix - st-felicien,,1023 Sacre-Coeur,,Saint-Felicien,QC,G8K 1R5,Canada,418-679-5454,,,"Monday 09:00 AM - 06:00 PM, Tuesday 08:00 AM - 09:00 PM, Wednesday 08:00 AM - 09:00 PM, Thursday 08:00 AM - 09:00 PM, Friday 08:00 AM - 09:00 PM, Saturday 09:00 AM - 06:00 PM, Sunday 09:00 AM - 06:00 PM",,,
pharmaprix - les promenades st-bruno,,610 Boul Des Promenades,,Saint-Bruno-De-Montarville,QC,J3V 6L9,Canada,450-441-1884,,,"Monday 10:00 AM - 09:00 PM, Tuesday 10:00 AM - 09:00 PM, Wednesday 10:00 AM - 09:00 PM, Thursday 10:00 AM - 09:00 PM, Friday 10:00 AM - 09:00 PM, Saturday 09:00 AM - 05:00 PM, Sunday 10:00 AM - 05:00 PM",,,
pharmaprix - st-lazare,,1780 Chemin Sainte Angelique,,Saint Lazare,QC,J7T 2X8,Canada,450-424-5751,,,"Monday 09:00 AM - 10:00 PM, Tuesday 09:00 AM - 10:00 PM, Wednesday 09:00 AM - 10:00 PM, Thursday 09:00 AM - 10:00 PM, Friday 09:00 AM - 10:00 PM, Saturday 09:00 AM - 09:00 PM, Sunday 09:00 AM - 09:00 PM",,,
pharmaprix - arvida,,2655 Boul Du Royaume,,Saguenay,QC,G7S 4S9,Canada,418-548-3183,,,"Monday 10:00 AM - 04:00 PM, Tuesday 08:30 AM - 09:00 PM, Wednesday 08:30 AM - 09:00 PM, Thursday 08:30 AM - 09:00 PM, Friday 08:30 AM - 09:00 PM, Saturday 09:00 AM - 05:00 PM, Sunday 10:00 AM - 05:00 PM",,,
shoppers simply pharmacy - clinique jonquiere,,"2231 De L'Hopital, Arr. Jonquiere",,Saguenay,QC,G7X 9Y4,Canada,418-542-1999,,,"Monday CLOSED, Tuesday 09:00 AM - 05:00 PM, Wednesday 09:00 AM - 05:00 PM, Thursday 09:00 AM - 05:00 PM, Friday 09:00 AM - 05:00 PM, Saturday CLOSED, Sunday CLOSED",,,
pharmaprix - jonquiere,,2340 St-Hubert,,Saguenay,QC,G7X 5N4,Canada,418-547-5795,,,"Monday 09:00 AM - 06:00 PM, Tuesday 08:00 AM - 10:00 PM, Wednesday 08:00 AM - 10:00 PM, Thursday 08:00 AM - 10:00 PM, Friday 08:00 AM - 10:00 PM, Saturday 09:00 AM - 06:00 PM, Sunday 09:00 AM - 06:00 PM",,,
pharmaprix - chicoutimi,,1 Place Du Royaume,,Saguenay,QC,G7H 5N6,Canada,418-545-4920,,,"Monday 08:00 AM - 10:00 PM, Tuesday 08:00 AM - 10:00 PM, Wednesday 08:00 AM - 10:00 PM, Thursday 08:00 AM - 10:00 PM, Friday 08:00 AM - 10:00 PM, Saturday 09:00 AM - 06:00 PM, Sunday 09:00 AM - 06:00 PM",,,
pharmaprix - promenades du cuivre,,100 Rue Du Terminus Ouest,,Rouyn-Noranda,QC,J9X 6H7,Canada,819-797-1422,,,"Monday 09:00 AM - 06:00 PM, Tuesday 09:00 AM - 06:00 PM, Wednesday 09:00 AM - 06:00 PM, Thursday 09:00 AM - 09:00 PM, Friday 09:00 AM - 09:00 PM, Saturday 09:00 AM - 05:00 PM, Sunday 11:00 AM - 05:00 PM",,,
pharmaprix - rouyn noranda,,135 Av. Principale,,Rouyn-Noranda,QC,J9X 4P3,Canada,819-797-9401,,,"Monday 08:30 AM - 09:00 PM, Tuesday 08:30 AM - 09:00 PM, Wednesday 08:30 AM - 09:00 PM, Thursday 08:30 AM - 09:00 PM, Friday 08:30 AM - 09:00 PM, Saturday 09:00 AM - 05:00 PM, Sunday 10:00 AM - 05:00 PM",,,
pharmaprix - rosemere,,"401 Boul. Labelle, Unit N04 Place Rosemere",,Rosemere,QC,J7A 3T2,Canada,450-971-4664,,,"Monday 09:00 AM - 09:00 PM, Tuesday 09:00 AM - 09:00 PM, Wednesday 09:00 AM - 09:00 PM, Thursday 09:00 AM - 09:00 PM, Friday 09:00 AM - 09:00 PM, Saturday 09:00 AM - 09:00 PM, Sunday 09:00 AM - 09:00 PM",,,
pharmaprix - rimouski,,419 Boul. Jessop,,Rimouski,QC,G5L 7Y5,Canada,418-722-8226,,,"Monday 09:00 AM - 09:00 PM, Tuesday 09:00 AM - 09:00 PM, Wednesday 09:00 AM - 09:00 PM, Thursday 09:00 AM - 09:00 PM, Friday 09:00 AM - 09:00 PM, Saturday 09:00 AM - 05:00 PM, Sunday 11:00 AM - 05:00 PM",,,
pharmaprix - l'eveche&rouleau,,"160 Rue De L'Eveche Ouest, Suite 102",,Rimouski,QC,G5L 4H9,Canada,418-723-4111,,,"Monday 08:00 AM - 09:00 PM, Tuesday 08:00 AM - 09:00 PM, Wednesday 08:00 AM - 09:00 PM, Thursday 08:00 AM - 09:00 PM, Friday 08:00 AM - 09:00 PM, Saturday 09:00 AM - 05:00 PM, Sunday 09:00 AM - 05:00 PM",,,
pharmaprix - 2ieme rue,,92 2 Eme Rue Ouest,,Rimouski,QC,G5L 8B3,Canada,418-723-2892,,,"Monday 09:00 AM - 09:00 PM, Tuesday 09:00 AM - 09:00 PM, Wednesday 09:00 AM - 09:00 PM, Thursday 09:00 AM - 09:00 PM, Friday 09:00 AM - 09:00 PM, Saturday 09:00 AM - 05:30 PM, Sunday 10:00 AM - 05:30 PM",,,
pharmaprix - riviere-du-loup,,298 Boul. Theriault,,Riviere-Du-Loup,QC,G5R 4C2,Canada,418-867-2121,,,"Monday 09:00 AM - 09:00 PM, Tuesday 09:00 AM - 09:00 PM, Wednesday 09:00 AM - 09:00 PM, Thursday 09:00 AM - 09:00 PM, Friday 09:00 AM - 09:00 PM, Saturday 09:00 AM - 06:00 PM, Sunday 10:00 AM - 06:00 PM",,,
pharmaprix - sept-iles,,1005 Boul Laure,,Sept-Iles,QC,G4R 4S6,Canada,418-962-9711,,,"Monday 08:00 AM - 09:00 PM, Tuesday 08:00 AM - 09:00 PM, Wednesday 08:00 AM - 09:00 PM, Thursday 08:00 AM - 09:00 PM, Friday 08:00 AM - 09:00 PM, Saturday 08:00 AM - 05:00 PM, Sunday 09:00 AM - 05:00 PM",,,
pharmaprix - iberville,,1337 Iberville,,Repentigny,QC,J5Y 4E9,Canada,450-654-5926,,,"Monday 09:00 AM - 10:00 PM, Tuesday 09:00 AM - 10:00 PM, Wednesday 09:00 AM - 10:00 PM, Thursday 09:00 AM - 10:00 PM, Friday 09:00 AM - 10:00 PM, Saturday 09:00 AM - 09:00 PM, Sunday 09:00 AM - 09:00 PM",,,
pharmaprix - le gardeur,,"333 Boulevard Brien, Bureau 8",,Repentigny,QC,J5Z 2J1,Canada,450-657-0001,,,"Monday 09:00 AM - 10:00 PM, Tuesday 09:00 AM - 10:00 PM, Wednesday 09:00 AM - 10:00 PM, Thursday 09:00 AM - 10:00 PM, Friday 09:00 AM - 10:00 PM, Saturday 09:00 AM - 10:00 PM, Sunday 09:00 AM - 10:00 PM",,,
pharmaprix - repentigny,,"85 Boul. Brien, Galeries Repentigny",,Repentigny,QC,J6A 8B6,Canada,450-470-1366,,,"Monday 09:00 AM - 09:00 PM, Tuesday 09:00 AM - 09:00 PM, Wednesday 09:00 AM - 09:00 PM, Thursday 09:00 AM - 09:00 PM, Friday 09:00 AM - 09:00 PM, Saturday 09:00 AM - 09:00 PM, Sunday 09:00 AM - 09:00 PM",,,
pharmaprix - haute-ville,,835 Rene-Levesque Ouest,,Quebec,QC,G1S 1T4,Canada,418-527-5220,,,"Monday 09:00 AM - 09:00 PM, Tuesday 09:00 AM - 10:00 PM, Wednesday 09:00 AM - 10:00 PM, Thursday 09:00 AM - 10:00 PM, Friday 09:00 AM - 10:00 PM, Saturday 09:00 AM - 09:00 PM, Sunday 09:00 AM - 09:00 PM",,,
pharmaprix - st-jean,,698 Rue St-Jean,,Quebec,QC,G1R 1P8,Canada,418-529-2171,,,"Monday 08:30 AM - 09:00 PM, Tuesday 08:30 AM - 09:00 PM, Wednesday 08:30 AM - 09:00 PM, Thursday 08:30 AM - 09:00 PM, Friday 08:30 AM - 09:00 PM, Saturday 09:00 AM - 08:00 PM, Sunday 10:00 AM - 08:00 PM",,,
pharmaprix - limoilou,,2480 1Iere Avenue,,Quebec,QC,G1L 3N3,Canada,418-523-3000,,,"Monday 09:00 AM - 09:00 PM, Tuesday 08:00 AM - 10:00 PM, Wednesday 08:00 AM - 10:00 PM, Thursday 08:00 AM - 10:00 PM, Friday 08:00 AM - 10:00 PM, Saturday 09:00 AM - 09:00 PM, Sunday 09:00 AM - 09:00 PM",,,
pharmaprix - henri-bourassa,,"4850 Henri-Bourassa, Suite 100",,Quebec,QC,G1H 3A7,Canada,418-624-2010,,,"Monday 09:00 AM - 09:00 PM, Tuesday 08:00 AM - 10:00 PM, Wednesday 08:00 AM - 10:00 PM, Thursday 08:00 AM - 10:00 PM, Friday 08:00 AM - 10:00 PM, Saturday 09:00 AM - 09:00 PM, Sunday 09:00 AM - 09:00 PM",,,
pharmaprix - royale,,682 Royale,,Quebec,QC,G1E 1Z2,Canada,418-661-7721,,,"Monday 09:00 AM - 09:00 PM, Tuesday 08:00 AM - 10:00 PM, Wednesday 08:00 AM - 10:00 PM, Thursday 08:00 AM - 10:00 PM, Friday 08:00 AM - 10:00 PM, Saturday 09:00 AM - 09:00 PM, Sunday 09:00 AM - 09:00 PM",,,
pharmaprix - cpo quebec,,"4850 Henri-Bourassa, Suite #130",,Quebec,QC,G1H 3A7,Canada,418-661-4001,,,"Monday CLOSED, Tuesday 08:00 AM - 08:30 PM, Wednesday 08:00 AM - 08:30 PM, Thursday 08:00 AM - 08:30 PM, Friday 08:00 AM - 08:30 PM, Saturday 09:00 AM - 03:30 PM, Sunday 10:00 AM - 04:00 PM",,,
pharmaprix - vanier,,995 Wilfrid Hamel Blvd,,Quebec,QC,G1M 2R7,Canada,418-682-8635,,,"Monday 24 Hours, Tuesday 24 Hours, Wednesday 24 Hours, Thursday 24 Hours, Friday 24 Hours, Saturday 24 Hours, Sunday 24 Hours",,,
pharmaprix - charlesbourg,,11075 Henri-Bourassa Blvd,,Quebec,QC,G1G 3X8,Canada,418-622-6622,,,"Monday 09:00 AM - 09:00 PM, Tuesday 09:00 AM - 10:00 PM, Wednesday 09:00 AM - 10:00 PM, Thursday 09:00 AM - 10:00 PM, Friday 09:00 AM - 10:00 PM, Saturday 09:00 AM - 09:00 PM, Sunday 09:00 AM - 09:00 PM",,,
pharmaprix - raymond,,900 Raymond,,Quebec,QC,G1B 3G3,Canada,418-661-8423,,,"Monday 09:00 AM - 09:00 PM, Tuesday 08:00 AM - 10:00 PM, Wednesday 08:00 AM - 10:00 PM, Thursday 08:00 AM - 10:00 PM, Friday 08:00 AM - 10:00 PM, Saturday 09:00 AM - 09:00 PM, Sunday 09:00 AM - 09:00 PM",,,
pharmaprix - beauport,,1 Guyon,,Quebec,QC,G1B 1T1,Canada,418-666-1410,,,"Monday 09:00 AM - 09:00 PM, Tuesday 09:00 AM - 10:00 PM, Wednesday 09:00 AM - 10:00 PM, Thursday 09:00 AM - 10:00 PM, Friday 09:00 AM - 10:00 PM, Saturday 09:00 AM - 09:00 PM, Sunday 09:00 AM - 09:00 PM",,,
pharmaprix - louis xiv,,1440 Louis Xiv,,Quebec,QC,G2L 1M3,Canada,418-626-1000,,,"Monday 09:00 AM - 09:00 PM, Tuesday 09:00 AM - 10:00 PM, Wednesday 09:00 AM - 10:00 PM, Thursday 09:00 AM - 10:00 PM, Friday 09:00 AM - 10:00 PM, Saturday 09:00 AM - 09:00 PM, Sunday 09:00 AM - 09:00 PM",,,
pharmaprix - neufchatel,,9397 De L'Ormiere Blvd,,Quebec,QC,G2B 3K7,Canada,418-847-0715,,,"Monday 09:00 AM - 09:00 PM, Tuesday 09:00 AM - 10:00 PM, Wednesday 09:00 AM - 10:00 PM, Thursday 09:00 AM - 10:00 PM, Friday 09:00 AM - 10:00 PM, Saturday 09:00 AM - 09:00 PM, Sunday 09:00 AM - 09:00 PM",,,
pharmaprix - des quatre-bourgeois,,"2880 Chemin Des Quatre-Bourgeois, Suite 100",,Quebec,QC,G1V 4X7,Canada,418-659-1000,,,"Monday 09:00 AM - 09:00 PM, Tuesday 08:00 AM - 10:00 PM, Wednesday 08:00 AM - 10:00 PM, Thursday 08:00 AM - 10:00 PM, Friday 08:00 AM - 10:00 PM, Saturday 09:00 AM - 09:00 PM, Sunday 09:00 AM - 09:00 PM",,,
shoppers simply pharmacy - lakeshore,,"175 Stillview Road, Unit #161",,Pointe-Claire,QC,H9R 4S3,Canada,514-697-8866,,,"Monday 09:00 AM - 09:00 PM, Tuesday 09:00 AM - 09:00 PM, Wednesday 09:00 AM - 09:00 PM, Thursday 09:00 AM - 09:00 PM, Friday 09:00 AM - 09:00 PM, Saturday 09:00 AM - 06:00 PM, Sunday 09:00 AM - 06:00 PM",,,
pharmaprix - centre fairview,,6815 Trans-Canada Highway,,Pointe Claire,QC,H9R 1C4,Canada,514-695-4211,,,"Monday 09:00 AM - 09:00 PM, Tuesday 09:00 AM - 09:00 PM, Wednesday 09:00 AM - 09:00 PM, Thursday 09:00 AM - 09:00 PM, Friday 09:00 AM - 09:00 PM, Saturday 09:00 AM - 06:00 PM, Sunday 09:00 AM - 06:00 PM",,,
pharmaprix - hwy 40 & st jean,,10 Place Triad,,Pointe Claire,QC,H9R 0A2,Canada,514-426-1081,,,"Monday 09:00 AM - 10:00 PM, Tuesday 09:00 AM - 10:00 PM, Wednesday 09:00 AM - 10:00 PM, Thursday 09:00 AM - 10:00 PM, Friday 09:00 AM - 10:00 PM, Saturday 09:00 AM - 09:00 PM, Sunday 09:00 AM - 09:00 PM",,,
pharmaprix - pierrefonds,,4955 Rue St-Pierre,,Pierrefonds,QC,H9H 5M9,Canada,514-624-8838,,,"Monday 09:00 AM - 09:00 PM, Tuesday 08:00 AM - 10:00 PM, Wednesday 08:00 AM - 10:00 PM, Thursday 08:00 AM - 10:00 PM, Friday 08:00 AM - 10:00 PM, Saturday 09:00 AM - 10:00 PM, Sunday 09:00 AM - 10:00 PM",,,
pharmaprix - pincourt,,"101 Boul. Cardinal-Leger, Unit 110",,Pincourt,QC,J7W 3Y3,Canada,514-453-6332,,,"Monday 09:00 AM - 09:00 PM, Tuesday 08:00 AM - 10:00 PM, Wednesday 08:00 AM - 10:00 PM, Thursday 08:00 AM - 10:00 PM, Friday 08:00 AM - 10:00 PM, Saturday 09:00 AM - 09:00 PM, Sunday 09:00 AM - 09:00 PM",,,
pharmaprix - chateaux pierrefonds,,19224 Boul. De Pierrefonds,,Pierrefonds,QC,H9K 0B6,Canada,514-626-0629,,,"Monday 09:00 AM - 09:00 PM, Tuesday 09:00 AM - 10:00 PM, Wednesday 09:00 AM - 10:00 PM, Thursday 09:00 AM - 10:00 PM, Friday 09:00 AM - 10:00 PM, Saturday 09:00 AM - 10:00 PM, Sunday 09:00 AM - 10:00 PM",,,
pharmaprix - boulevard pierrefonds,,11797 Boulevard Pierrefonds,,Pierrefonds,QC,H9A 1A1,Canada,514-421-2525,,,"Monday 09:00 AM - 07:00 PM, Tuesday 09:00 AM - 07:00 PM, Wednesday 09:00 AM - 07:00 PM, Thursday 09:00 AM - 09:00 PM, Friday 09:00 AM - 09:00 PM, Saturday 09:00 AM - 05:00 PM, Sunday CLOSED",,,
pharmaprix - ville mont royal,,2310 Ch Lucerne,,Mont-Royal,QC,H3R 2J8,Canada,514-731-2728,,,"Monday 08:00 AM - 10:00 PM, Tuesday 08:00 AM - 10:00 PM, Wednesday 08:00 AM - 10:00 PM, Thursday 08:00 AM - 10:00 PM, Friday 08:00 AM - 10:00 PM, Saturday 08:00 AM - 10:00 PM, Sunday 08:00 AM - 10:00 PM",,,
pharmaprix - montreal ouest,,1 Avenue Westminster Nord,,Montreal-Ouest,QC,H4X 1Y8,Canada,514-482-8126,,,"Monday 08:00 AM - 09:00 PM, Tuesday 08:00 AM - 09:00 PM, Wednesday 08:00 AM - 09:00 PM, Thursday 08:00 AM - 09:00 PM, Friday 08:00 AM - 09:00 PM, Saturday 08:00 AM - 09:00 PM, Sunday 08:00 AM - 09:00 PM",,,
pharmaprix - parc jarry,,8125 Boul St Laurent,,Montreal,QC,H2P 2M1,Canada,514-387-9883,,,"Monday 08:00 AM - 10:00 PM, Tuesday 08:00 AM - 10:00 PM, Wednesday 08:00 AM - 10:00 PM, Thursday 08:00 AM - 10:00 PM, Friday 08:00 AM - 10:00 PM, Saturday 08:00 AM - 10:00 PM, Sunday 08:00 AM - 10:00 PM",,,
pharmaprix - montgomery,,"2759 Sherbrooke Est, Arr. Plateau Mont-Royal",,Montreal,QC,H2K 1G9,Canada,514-528-0176,,,"Monday 08:00 AM - 10:00 PM, Tuesday 08:00 AM - 10:00 PM, Wednesday 08:00 AM - 10:00 PM, Thursday 08:00 AM - 10:00 PM, Friday 08:00 AM - 10:00 PM, Saturday 08:00 AM - 10:00 PM, Sunday 08:00 AM - 10:00 PM",,,
pharmaprix - cap rouge,,1130 De La Chaudiere,,Quebec,QC,G1Y 3J9,Canada,418-651-8034,,,"Monday 09:00 AM - 09:00 PM, Tuesday 09:00 AM - 10:00 PM, Wednesday 09:00 AM - 10:00 PM, Thursday 09:00 AM - 10:00 PM, Friday 09:00 AM - 10:00 PM, Saturday 09:00 AM - 09:00 PM, Sunday 09:00 AM - 09:00 PM",,,
pharmaprix - champlain,,1580 Ontario Street East,,Montreal,QC,H2L 1S5,Canada,514-528-1219,,,"Monday 09:00 AM - 10:00 PM, Tuesday 09:00 AM - 10:00 PM, Wednesday 09:00 AM - 10:00 PM, Thursday 09:00 AM - 10:00 PM, Friday 09:00 AM - 10:00 PM, Saturday 09:00 AM - 10:00 PM, Sunday 09:00 AM - 10:00 PM",,,
pharmaprix - dickson,,5696 Sherbrooke Est,,Montreal,QC,H1N 1A1,Canada,514-251-0990,,,"Monday 08:00 AM - 10:00 PM, Tuesday 08:00 AM - 10:00 PM, Wednesday 08:00 AM - 10:00 PM, Thursday 08:00 AM - 10:00 PM, Friday 08:00 AM - 10:00 PM, Saturday 09:00 AM - 09:00 PM, Sunday 09:00 AM - 09:00 PM",,,
pharmaprix - masson,,"3425 Masson, Suite 100",,Montreal,QC,H1X 1R6,Canada,514-721-9910,,,"Monday 08:00 AM - 10:00 PM, Tuesday 08:00 AM - 10:00 PM, Wednesday 08:00 AM - 10:00 PM, Thursday 08:00 AM - 10:00 PM, Friday 08:00 AM - 10:00 PM, Saturday 09:00 AM - 09:00 PM, Sunday 09:00 AM - 09:00 PM",,,
shoppers simply pharmacy - medical arts building,,"1538 Sherbrooke Ouest, Suite Jr1",,Montreal,QC,H3G 1L5,Canada,514-935-1558,,,"Monday 09:00 AM - 05:00 PM, Tuesday 08:00 AM - 09:00 PM, Wednesday 08:00 AM - 09:00 PM, Thursday 08:00 AM - 09:00 PM, Friday 08:00 AM - 09:00 PM, Saturday 09:00 AM - 05:00 PM, Sunday 09:00 AM - 05:00 PM",,,
pharmaprix - ontario & letourneux,,"4290 Ontario East, Arr. Mercier/ H.M.",,Montreal,QC,H1V 0B1,Canada,514-254-1908,,,"Monday 09:00 AM - 10:00 PM, Tuesday 09:00 AM - 10:00 PM, Wednesday 09:00 AM - 10:00 PM, Thursday 09:00 AM - 10:00 PM, Friday 09:00 AM - 10:00 PM, Saturday 09:00 AM - 10:00 PM, Sunday 09:00 AM - 10:00 PM",,,
pharmaprix - ste-catherine,,1500 Ste-Catherine Ouest,,Montreal,QC,H3G 1S8,Canada,514-933-4744,,,"Monday 08:00 AM - Midnight, Tuesday 08:00 AM - Midnight, Wednesday 08:00 AM - Midnight, Thursday 08:00 AM - Midnight, Friday 08:00 AM - Midnight, Saturday 08:00 AM - Midnight, Sunday 08:00 AM - Midnight",,,
pharmaprix - caldwell,,5753 Caldwell,,Montreal,QC,H4W 1W1,Canada,514-481-0293,,,"Monday 09:00 AM - 07:00 PM, Tuesday 09:00 AM - 07:00 PM, Wednesday 09:00 AM - 07:00 PM, Thursday 09:00 AM - 07:00 PM, Friday 09:00 AM - 06:30 PM, Saturday CLOSED, Sunday CLOSED",,,
pharmaprix - les galaries normandie,,"2530 Boul Des Salaberry, Unit 36",,Montreal,QC,H3M 1L3,Canada,514-336-5115,,,"Monday 08:00 AM - 10:00 PM, Tuesday 08:00 AM - 10:00 PM, Wednesday 08:00 AM - 10:00 PM, Thursday 08:00 AM - 10:00 PM, Friday 08:00 AM - 10:00 PM, Saturday 09:00 AM - 10:00 PM, Sunday 09:00 AM - 10:00 PM",,,
pharmaprix - st-laurent st,,3861 St- Laurent,,Montreal,QC,H2W 1Y1,Canada,514-844-3550,,,"Monday 09:00 AM - 10:00 PM, Tuesday 09:00 AM - 10:00 PM, Wednesday 09:00 AM - 10:00 PM, Thursday 09:00 AM - 10:00 PM, Friday 09:00 AM - 10:00 PM, Saturday 09:00 AM - 10:00 PM, Sunday 09:00 AM - 10:00 PM",,,
pharmaprix - st-andre,,901 Ste Catherine Est,,Montreal,QC,H2L 2E5,Canada,514-842-4915,,,"Monday 08:00 AM - Midnight, Tuesday 08:00 AM - Midnight, Wednesday 08:00 AM - Midnight, Thursday 08:00 AM - Midnight, Friday 08:00 AM - Midnight, Saturday 08:00 AM - Midnight, Sunday 08:00 AM - Midnight",,,
pharmaprix - ste catherine & stanley,,"1120 Rue Ste-Catherine Ouest, Arr. Ville-Marie",,Montreal,QC,H3B 1H4,Canada,514-398-9759,,,"Monday 08:00 AM - 10:00 PM, Tuesday 08:00 AM - 10:00 PM, Wednesday 08:00 AM - 10:00 PM, Thursday 08:00 AM - 10:00 PM, Friday 08:00 AM - 10:00 PM, Saturday 08:00 AM - 10:00 PM, Sunday 08:00 AM - 10:00 PM",,,
pharmaprix - wilderton,,2635 Van Horne,,Montreal,QC,H3S 1P6,Canada,514-731-3366,,,"Monday 09:00 AM - 10:00 PM, Tuesday 08:00 AM - 10:00 PM, Wednesday 08:00 AM - 10:00 PM, Thursday 08:00 AM - 10:00 PM, Friday 08:00 AM - 10:00 PM, Saturday 09:00 AM - 10:00 PM, Sunday 09:00 AM - 10:00 PM",,,
pharmaprix - monkland and wilson,,"5730 Avenue De Monkland, Arr. C.D.N./N.D.G.",,Montreal,QC,H4A 1E6,Canada,514-484-6537,,,"Monday 08:00 AM - 10:00 PM, Tuesday 08:00 AM - 10:00 PM, Wednesday 08:00 AM - 10:00 PM, Thursday 08:00 AM - 10:00 PM, Friday 08:00 AM - 10:00 PM, Saturday 09:00 AM - 10:00 PM, Sunday 09:00 AM - 10:00 PM",,,
pharmaprix - rivieres des prairies,,8222 Maurice Duplessis,,Montreal,QC,H1E 2Y5,Canada,514-494-8888,,,"Monday 09:00 AM - 10:00 PM, Tuesday 08:00 AM - 11:00 PM, Wednesday 08:00 AM - 11:00 PM, Thursday 08:00 AM - 11:00 PM, Friday 08:00 AM - 11:00 PM, Saturday 09:00 AM - 10:00 PM, Sunday 09:00 AM - 10:00 PM",,,
pharmaprix - remembrance,,2880 Remembrance,,Montreal,QC,H8S 1X8,Canada,514-637-3578,,,"Monday 09:00 AM - 09:00 PM, Tuesday 08:00 AM - 10:00 PM, Wednesday 08:00 AM - 10:00 PM, Thursday 08:00 AM - 10:00 PM, Friday 08:00 AM - 10:00 PM, Saturday 09:00 AM - 09:00 PM, Sunday 09:00 AM - 09:00 PM",,,
pharmaprix - st-laurent,,1051 Decarie Blvd,,Montreal,QC,H4L 3M8,Canada,514-748-7725,,,"Monday 07:00 AM - Midnight, Tuesday 07:00 AM - Midnight, Wednesday 07:00 AM - Midnight, Thursday 07:00 AM - Midnight, Friday 07:00 AM - Midnight, Saturday 07:00 AM - Midnight, Sunday 08:00 AM - Midnight",,,
pharmaprix - verdun,,4260 Wellington,,Montreal,QC,H4G 1W2,Canada,514-765-0444,,,"Monday 09:00 AM - 10:00 PM, Tuesday 09:00 AM - 10:00 PM, Wednesday 09:00 AM - 10:00 PM, Thursday 09:00 AM - 10:00 PM, Friday 09:00 AM - 10:00 PM, Saturday 09:00 AM - 09:00 PM, Sunday 09:00 AM - 09:00 PM",,,
pharmaprix - ile-des-soeurs,,"38 Place Du Commerce, Suite #7",,Montreal,QC,H3E 1T8,Canada,514-762-6666,,,"Monday 09:00 AM - 09:00 PM, Tuesday 08:00 AM - 10:00 PM, Wednesday 08:00 AM - 10:00 PM, Thursday 08:00 AM - 10:00 PM, Friday 08:00 AM - 10:00 PM, Saturday 09:00 AM - 09:00 PM, Sunday 09:00 AM - 09:00 PM",,,
pharmaprix - christophe colomb,,1025 Jean-Talon Est,,Montreal,QC,H2R 1V6,Canada,514-274-5995,,,"Monday 09:00 AM - 10:00 PM, Tuesday 08:00 AM - 10:00 PM, Wednesday 08:00 AM - 10:00 PM, Thursday 08:00 AM - 10:00 PM, Friday 08:00 AM - 10:00 PM, Saturday 09:00 AM - 10:00 PM, Sunday 09:00 AM - 10:00 PM",,,
pharmaprix - jarry,,3325 Jarry Street East,,Montreal,QC,H1Z 2E5,Canada,514-721-9942,,,"Monday 09:00 AM - 10:00 PM, Tuesday 09:00 AM - 10:00 PM, Wednesday 09:00 AM - 10:00 PM, Thursday 09:00 AM - 10:00 PM, Friday 09:00 AM - 10:00 PM, Saturday 09:00 AM - 10:00 PM, Sunday 09:00 AM - 10:00 PM",,,
pharmaprix - st-michel,,7355 Boul St-Michel,,Montreal,QC,H2A 2Z9,Canada,514-374-0022,,,"Monday 09:00 AM - 09:00 PM, Tuesday 09:00 AM - 09:00 PM, Wednesday 09:00 AM - 09:00 PM, Thursday 09:00 AM - 09:00 PM, Friday 09:00 AM - 09:00 PM, Saturday 10:00 AM - 06:00 PM, Sunday 10:00 AM - 06:00 PM",,,
pharmaprix - jean talon est,,"2135 Jean Talon Est, Villeray / St-Michel / Pe",,Montreal,QC,H2E 1V4,Canada,514-721-4917,,,"Monday 09:00 AM - 09:00 PM, Tuesday 09:00 AM - 09:00 PM, Wednesday 09:00 AM - 09:00 PM, Thursday 09:00 AM - 09:00 PM, Friday 09:00 AM - 09:00 PM, Saturday 09:00 AM - 06:00 PM, Sunday 09:00 AM - 06:00 PM",,,
pharmaprix - queen mary,,5122 Chemin De La Cote-Des-Neiges,,Montreal,QC,H3T 1X8,Canada,514-738-8464,,,"Monday 24 Hours, Tuesday 24 Hours, Wednesday 24 Hours, Thursday 24 Hours, Friday 24 Hours, Saturday 24 Hours, Sunday 24 Hours",,,
pharmaprix - lasalle,,8096 Boul. Champlain,,Montreal,QC,H8P 1B3,Canada,514-367-3300,,,"Monday 09:00 AM - 06:00 PM, Tuesday 08:00 AM - 10:00 PM, Wednesday 08:00 AM - 10:00 PM, Thursday 08:00 AM - 10:00 PM, Friday 08:00 AM - 10:00 PM, Saturday 08:00 AM - 09:00 PM, Sunday 08:00 AM - 09:00 PM",,,
pharmaprix - sherbrooke st,,9215 Sherbrooke Est,,Montreal,QC,H1L 6K2,Canada,514-354-0771,,,"Monday 09:00 AM - 10:00 PM, Tuesday 09:00 AM - 10:00 PM, Wednesday 09:00 AM - 10:00 PM, Thursday 09:00 AM - 10:00 PM, Friday 09:00 AM - 10:00 PM, Saturday 09:00 AM - 10:00 PM, Sunday 09:00 AM - 10:00 PM",,,
pharmaprix - centre rockland,,"2305 Rockland Road, Suite 502-0",,Montreal,QC,H3P 3E9,Canada,514-739-5551,,,"Monday 08:00 AM - 10:00 PM, Tuesday 08:00 AM - 10:00 PM, Wednesday 08:00 AM - 10:00 PM, Thursday 08:00 AM - 10:00 PM, Friday 08:00 AM - 10:00 PM, Saturday 09:00 AM - 09:00 PM, Sunday 09:00 AM - 09:00 PM",,,
pharmaprix - st-denis & belanger,,6910 St Denis,,Montreal,QC,H2S 2S2,Canada,514-273-1440,,,"Monday 09:00 AM - 10:00 PM, Tuesday 09:00 AM - 10:00 PM, Wednesday 09:00 AM - 10:00 PM, Thursday 09:00 AM - 10:00 PM, Friday 09:00 AM - 10:00 PM, Saturday 09:00 AM - 10:00 PM, Sunday 09:00 AM - 10:00 PM",,,
pharmaprix - fleury,,1775 Fleury Est,,Montreal,QC,H2C 1T3,Canada,514-388-5779,,,"Monday 09:00 AM - 10:00 PM, Tuesday 09:00 AM - 10:00 PM, Wednesday 09:00 AM - 10:00 PM, Thursday 09:00 AM - 10:00 PM, Friday 09:00 AM - 10:00 PM, Saturday 09:00 AM - 10:00 PM, Sunday 09:00 AM - 10:00 PM",,,
pharmaprix - pointe-aux-trembles,,12800 Sherbrooke Est,,Montreal,QC,H1A 4Y3,Canada,514-498-4840,,,"Monday 08:00 AM - 09:00 PM, Tuesday 08:00 AM - 10:00 PM, Wednesday 08:00 AM - 10:00 PM, Thursday 08:00 AM - 10:00 PM, Friday 08:00 AM - 10:00 PM, Saturday 08:00 AM - 09:00 PM, Sunday 08:00 AM - 09:00 PM",,,
pharmaprix - outremont,,1495 Van Horne,,Montreal,QC,H2V 1L3,Canada,514-271-1248,,,"Monday 10:00 AM - 09:00 PM, Tuesday 08:00 AM - 10:00 PM, Wednesday 08:00 AM - 10:00 PM, Thursday 08:00 AM - 10:00 PM, Friday 08:00 AM - 10:00 PM, Saturday 09:00 AM - 10:00 PM, Sunday 10:00 AM - 10:00 PM",,,
pharmaprix - marcel laurin,,2000 Marcel-Laurin Blvd,,Montreal,QC,H4R 1J9,Canada,514-332-8689,,,"Monday 09:00 AM - 10:00 PM, Tuesday 09:00 AM - 10:00 PM, Wednesday 09:00 AM - 10:00 PM, Thursday 09:00 AM - 10:00 PM, Friday 09:00 AM - 10:00 PM, Saturday 09:00 AM - 10:00 PM, Sunday 09:00 AM - 10:00 PM",,,
pharmaprix - bourassa,,6000 Henri Bourrassa Est,,Montreal,QC,H1G 2T6,Canada,514-323-5010,,,"Monday 09:00 AM - Midnight, Tuesday 09:00 AM - Midnight, Wednesday 09:00 AM - Midnight, Thursday 09:00 AM - Midnight, Friday 09:00 AM - Midnight, Saturday 09:00 AM - Midnight, Sunday 09:00 AM - Midnight",,,
shoppers simply pharmacy - queen elizabeth,,2100 Marlowe,,Montreal,QC,H4A 3L5,Canada,514-369-0028,,,"Monday CLOSED, Tuesday 08:00 AM - 06:00 PM, Wednesday 08:00 AM - 06:00 PM, Thursday 08:00 AM - 06:00 PM, Friday 08:00 AM - 06:00 PM, Saturday CLOSED, Sunday CLOSED",,,
pharmaprix - vendome,,5038 Sherbrooke Ouest,,Montreal,QC,H4A 1S7,Canada,514-484-3531,,,"Monday 08:00 AM - 11:00 PM, Tuesday 08:00 AM - 11:00 PM, Wednesday 08:00 AM - 11:00 PM, Thursday 08:00 AM - 11:00 PM, Friday 08:00 AM - 11:00 PM, Saturday 08:00 AM - 11:00 PM, Sunday 09:00 AM - 11:00 PM",,,
pharmaprix - place provencher,,4675 Jean-Talon East,,Montreal,QC,H1S 1K3,Canada,514-722-4664,,,"Monday 08:00 AM - 10:00 PM, Tuesday 08:00 AM - 10:00 PM, Wednesday 08:00 AM - 10:00 PM, Thursday 08:00 AM - 10:00 PM, Friday 08:00 AM - 10:00 PM, Saturday 08:00 AM - 10:00 PM, Sunday 08:00 AM - 10:00 PM",,,
pharmaprix - versailles,,"7275 Sherbrooke Est, Suite 32",,Montreal,QC,H1N 1E9,Canada,514-352-5511,,,"Monday 09:00 AM - 09:00 PM, Tuesday 09:00 AM - 09:00 PM, Wednesday 09:00 AM - 09:00 PM, Thursday 09:00 AM - 09:00 PM, Friday 09:00 AM - 09:00 PM, Saturday 09:00 AM - 05:30 PM, Sunday 10:00 AM - 05:30 PM",,,
pharmaprix - de verdun,,5987 Avenue De Verdun,,Montreal,QC,H4H 1M6,Canada,514-769-8566,,,"Monday 08:00 AM - 10:00 PM, Tuesday 08:00 AM - 10:00 PM, Wednesday 08:00 AM - 10:00 PM, Thursday 08:00 AM - 10:00 PM, Friday 08:00 AM - 10:00 PM, Saturday 09:00 AM - 09:00 PM, Sunday 09:00 AM - 09:00 PM",,,
pharmaprix - fleury est,,2044 Fleury Est,,Montreal,QC,H2B 1J2,Canada,514-384-5820,,,"Monday 09:00 AM - 09:00 PM, Tuesday 09:00 AM - 09:00 PM, Wednesday 09:00 AM - 09:00 PM, Thursday 09:00 AM - 09:00 PM, Friday 09:00 AM - 09:00 PM, Saturday 09:00 AM - 09:00 PM, Sunday 10:00 AM - 09:00 PM",,,
pharmaprix - viau,,"4720 Rue Jarry Est, Arr. St-Leonard",,Montreal,QC,H1R 1X8,Canada,514-725-1414,,,"Monday 08:00 AM - 10:00 PM, Tuesday 08:00 AM - 10:00 PM, Wednesday 08:00 AM - 10:00 PM, Thursday 08:00 AM - 10:00 PM, Friday 08:00 AM - 10:00 PM, Saturday 08:00 AM - 10:00 PM, Sunday 08:00 AM - 10:00 PM",,,
pharmaprix - notre-dame-de-grace,,6411 Sherbrooke Ouest,,Montreal,QC,H4B 1N3,Canada,514-489-9345,,,"Monday 08:00 AM - 11:00 PM, Tuesday 08:00 AM - 11:00 PM, Wednesday 08:00 AM - 11:00 PM, Thursday 08:00 AM - 11:00 PM, Friday 08:00 AM - 11:00 PM, Saturday 08:00 AM - 11:00 PM, Sunday 08:00 AM - 11:00 PM",,,
pharmaprix - notre-dame,,2740 Notre Dame Ouest,,Montreal,QC,H3J 1P1,Canada,514-937-3924,,,"Monday 09:00 AM - 10:00 PM, Tuesday 09:00 AM - 10:00 PM, Wednesday 09:00 AM - 10:00 PM, Thursday 09:00 AM - 10:00 PM, Friday 09:00 AM - 10:00 PM, Saturday 09:00 AM - 09:00 PM, Sunday 09:00 AM - 09:00 PM",,,
"pharmaprix - wellington & shannon, montreal",,1000 Wellington Street,,Montreal,QC,H3C 1V4,Canada,514-866-2262,,,"Monday 08:00 AM - 09:00 PM, Tuesday 08:00 AM - 10:00 PM, Wednesday 08:00 AM - 10:00 PM, Thursday 08:00 AM - 10:00 PM, Friday 08:00 AM - 10:00 PM, Saturday 09:00 AM - 09:00 PM, Sunday 09:00 AM - 09:00 PM",,,
pharmaprix - mont-royal,,1335 Chemin Canora,,Mont Royal,QC,H3P 2J5,Canada,514-737-3655,,,"Monday 09:00 AM - 05:00 PM, Tuesday 09:00 AM - 09:00 PM, Wednesday 09:00 AM - 09:00 PM, Thursday 09:00 AM - 09:00 PM, Friday 09:00 AM - 09:00 PM, Saturday 09:00 AM - 05:00 PM, Sunday 10:00 AM - 05:00 PM",,,
pharmaprix - matane,,325 Rue St-Jerome,,Matane,QC,G4W 3A8,Canada,418-562-2025,,,"Monday 12:00 PM - 04:00 PM, Tuesday 08:00 AM - 06:00 PM, Wednesday 08:00 AM - 06:00 PM, Thursday 08:00 AM - 09:00 PM, Friday 08:00 AM - 09:00 PM, Saturday 09:00 AM - 05:00 PM, Sunday 10:00 AM - 05:00 PM",,,
pharmaprix - greenfield park,,3646 Boul Taschereau,,Longueuil,QC,J4V 2H8,Canada,450-672-3410,,,"Monday 24 Hours, Tuesday 24 Hours, Wednesday 24 Hours, Thursday 24 Hours, Friday 24 Hours, Saturday 24 Hours, Sunday 24 Hours",,,
pharmaprix - vieux-longueuil,,425 Rue St Charles Ouest,,Longueuil,QC,J4H 1G1,Canada,450-651-2380,,,"Monday 09:00 AM - 09:00 PM, Tuesday 09:00 AM - 10:00 PM, Wednesday 09:00 AM - 10:00 PM, Thursday 09:00 AM - 10:00 PM, Friday 09:00 AM - 10:00 PM, Saturday 09:00 AM - 09:00 PM, Sunday 09:00 AM - 09:00 PM",,,
pharmaprix - montee masson,,805 Montee Masson,,Mascouche,QC,J7K 3G1,Canada,450-474-8896,,,"Monday 09:00 AM - 10:00 PM, Tuesday 09:00 AM - 10:00 PM, Wednesday 09:00 AM - 10:00 PM, Thursday 09:00 AM - 10:00 PM, Friday 09:00 AM - 10:00 PM, Saturday 09:00 AM - 09:00 PM, Sunday 09:00 AM - 09:00 PM",,,
pharmaprix - magog,,415 Rue Sherbrooke,,Magog,QC,J1X 2S4,Canada,819-868-7810,,,"Monday 09:00 AM - 09:00 PM, Tuesday 08:00 AM - 10:00 PM, Wednesday 08:00 AM - 10:00 PM, Thursday 08:00 AM - 10:00 PM, Friday 08:00 AM - 10:00 PM, Saturday 09:00 AM - 09:00 PM, Sunday 09:00 AM - 09:00 PM",,,
pharmaprix - cure poirier,,1301 Cure-Poirier Ouest,,Longueuil,QC,J4K 2G6,Canada,450-674-5738,,,"Monday 09:00 AM - 10:00 PM, Tuesday 09:00 AM - 10:00 PM, Wednesday 09:00 AM - 10:00 PM, Thursday 09:00 AM - 10:00 PM, Friday 09:00 AM - 10:00 PM, Saturday 09:00 AM - 09:00 PM, Sunday 09:00 AM - 09:00 PM",,,
"pharmaprix - chambly & deschamps, longueuil",,2788 Chemin De Chambly,,Longueuil,QC,J4L 1M9,Canada,450-677-5221,,,"Monday 08:00 AM - 10:00 PM, Tuesday 08:00 AM - 10:00 PM, Wednesday 08:00 AM - 10:00 PM, Thursday 08:00 AM - 10:00 PM, Friday 08:00 AM - 10:00 PM, Saturday 08:00 AM - 10:00 PM, Sunday 08:00 AM - 10:00 PM",,,
pharmaprix - st-hubert,,"6250 Boul. Cousineau, Unit 100",,Longueuil,QC,J3Y 8X9,Canada,450-656-5995,,,"Monday 09:00 AM - 09:00 PM, Tuesday 09:00 AM - 10:00 PM, Wednesday 09:00 AM - 10:00 PM, Thursday 09:00 AM - 10:00 PM, Friday 09:00 AM - 10:00 PM, Saturday 09:00 AM - 10:00 PM, Sunday 09:00 AM - 10:00 PM",,,
pharmaprix - jacques cartier,,"1401 Chemin Chambly, Suite 6",,Longueuil,QC,J4J 3X6,Canada,450-463-1313,,,"Monday 09:00 AM - 09:00 PM, Tuesday 09:00 AM - 10:00 PM, Wednesday 09:00 AM - 10:00 PM, Thursday 09:00 AM - 10:00 PM, Friday 09:00 AM - 10:00 PM, Saturday 09:00 AM - 09:00 PM, Sunday 09:00 AM - 09:00 PM",,,
pharmaprix - ile perrot,,10 Don Quichotte Blvd,,Lle Perrot,QC,J7V 6N5,Canada,514-425-9000,,,"Monday 09:00 AM - 09:00 PM, Tuesday 09:00 AM - 10:00 PM, Wednesday 09:00 AM - 10:00 PM, Thursday 09:00 AM - 10:00 PM, Friday 09:00 AM - 10:00 PM, Saturday 09:00 AM - 09:00 PM, Sunday 09:00 AM - 09:00 PM",,,
pharmaprix - chagnon,,1200 Boul. Alphonse Desjardins,,Levis,QC,G6V 6Y8,Canada,418-833-1332,,,"Monday 08:00 AM - 09:00 PM, Tuesday 08:00 AM - 09:00 PM, Wednesday 08:00 AM - 09:00 PM, Thursday 08:00 AM - 09:00 PM, Friday 08:00 AM - 09:00 PM, Saturday 09:00 AM - 05:30 PM, Sunday 09:00 AM - 05:30 PM",,,
pharmaprix - st. rose,,334 Cure-Labelle,,Laval,QC,H7L 4T7,Canada,450-625-2913,,,"Monday 09:00 AM - 09:00 PM, Tuesday 09:00 AM - 10:00 PM, Wednesday 09:00 AM - 10:00 PM, Thursday 09:00 AM - 10:00 PM, Friday 09:00 AM - 10:00 PM, Saturday 09:00 AM - 09:00 PM, Sunday 09:00 AM - 09:00 PM",,,
pharmaprix - cure-labelle,,471 Boul Cure-Labelle,,Laval,QC,H7P 2P3,Canada,450-628-8100,,,"Monday 09:00 AM - 10:00 PM, Tuesday 09:00 AM - 10:00 PM, Wednesday 09:00 AM - 10:00 PM, Thursday 09:00 AM - 10:00 PM, Friday 09:00 AM - 10:00 PM, Saturday 09:00 AM - 10:00 PM, Sunday 09:00 AM - 10:00 PM",,,
pharmaprix - fabreville,,3545 Boul. Dagenais Ouest,,Laval,QC,H7P 1V8,Canada,450-628-4007,,,"Monday 09:00 AM - 10:00 PM, Tuesday 09:00 AM - 10:00 PM, Wednesday 09:00 AM - 10:00 PM, Thursday 09:00 AM - 10:00 PM, Friday 09:00 AM - 10:00 PM, Saturday 09:00 AM - 09:00 PM, Sunday 09:00 AM - 08:00 PM",,,
pharmaprix - des laurentides,,"1768 Boul Des Laurentides, Suite #1",,Laval,QC,H7M 2P6,Canada,450-629-7103,,,"Monday 09:00 AM - 10:00 PM, Tuesday 09:00 AM - 10:00 PM, Wednesday 09:00 AM - 10:00 PM, Thursday 09:00 AM - 10:00 PM, Friday 09:00 AM - 10:00 PM, Saturday 09:00 AM - 10:00 PM, Sunday 09:00 AM - 10:00 PM",,,
pharmaprix - st dorothee,,1006 Rue De La Lavatere,,Laval,QC,H7X 0C5,Canada,450-689-0331,,,"Monday 09:00 AM - 10:00 PM, Tuesday 09:00 AM - 10:00 PM, Wednesday 09:00 AM - 10:00 PM, Thursday 09:00 AM - 10:00 PM, Friday 09:00 AM - 10:00 PM, Saturday 09:00 AM - 10:00 PM, Sunday 09:00 AM - 10:00 PM",,,
pharmaprix - samson,,"4600 Blvd. Samson, # 25",,Laval,QC,H7W 2H3,Canada,450-687-5330,,,"Monday 08:00 AM - 10:00 PM, Tuesday 08:00 AM - 10:00 PM, Wednesday 08:00 AM - 10:00 PM, Thursday 08:00 AM - 10:00 PM, Friday 08:00 AM - 10:00 PM, Saturday 09:00 AM - 09:00 PM, Sunday 09:00 AM - 09:00 PM",,,
pharmaprix - auteuil,,1768 Boul Des Laurentides,,Laval,QC,H7M 2P6,Canada,450-663-3197,,,"Monday 09:00 AM - 10:00 PM, Tuesday 09:00 AM - 10:00 PM, Wednesday 09:00 AM - 10:00 PM, Thursday 09:00 AM - 10:00 PM, Friday 09:00 AM - 10:00 PM, Saturday 09:00 AM - 10:00 PM, Sunday 09:00 AM - 10:00 PM",,,
pharmaprix - auteuil,,"5780 Des Laurentides, Arr. Auteuil / Vimont",,Laval,QC,H7K 2K6,Canada,450-628-5621,,,"Monday 09:00 AM - 10:00 PM, Tuesday 09:00 AM - 10:00 PM, Wednesday 09:00 AM - 10:00 PM, Thursday 09:00 AM - 10:00 PM, Friday 09:00 AM - 10:00 PM, Saturday 09:00 AM - 09:00 PM, Sunday 09:00 AM - 09:00 PM",,,
pharmaprix - vimont,,2220 Boul. Des Laurentides,,Laval,QC,H7K 3G5,Canada,450-975-9878,,,"Monday 09:00 AM - 10:00 PM, Tuesday 09:00 AM - 10:00 PM, Wednesday 09:00 AM - 10:00 PM, Thursday 09:00 AM - 10:00 PM, Friday 09:00 AM - 10:00 PM, Saturday 09:00 AM - 10:00 PM, Sunday 09:00 AM - 10:00 PM",,,
pharmaprix - chomedey,,965 Boul Cure Labelle,,Laval,QC,H7V 2V7,Canada,450-681-1683,,,"Monday 24 Hours, Tuesday 24 Hours, Wednesday 24 Hours, Thursday 24 Hours, Friday 24 Hours, Saturday 24 Hours, Sunday 24 Hours",,,
pharmaprix - l'ancienne-lorette,,1670 Rue Notre-Dame,,L'Ancienne-Lorette,QC,G2E 3B8,Canada,418-872-9090,,,"Monday 09:00 AM - 09:00 PM, Tuesday 09:00 AM - 10:00 PM, Wednesday 09:00 AM - 10:00 PM, Thursday 09:00 AM - 10:00 PM, Friday 09:00 AM - 10:00 PM, Saturday 09:00 AM - 09:00 PM, Sunday 09:00 AM - 09:00 PM",,,
pharmaprix - duvernay,,"3100 Boul. Concorde Est, Unit 50 D",,Laval,QC,H7E 2B8,Canada,450-661-7748,,,"Monday 09:00 AM - 10:00 PM, Tuesday 09:00 AM - 10:00 PM, Wednesday 09:00 AM - 10:00 PM, Thursday 09:00 AM - 10:00 PM, Friday 09:00 AM - 10:00 PM, Saturday 09:00 AM - 10:00 PM, Sunday 09:00 AM - 10:00 PM",,,
pharmaprix - chomedey,,3455 Cartier Blvd West,,Laval,QC,H7V 3W7,Canada,450-978-5445,,,"Monday 08:00 AM - 10:00 PM, Tuesday 09:00 AM - 10:00 PM, Wednesday 09:00 AM - 10:00 PM, Thursday 09:00 AM - 10:00 PM, Friday 09:00 AM - 10:00 PM, Saturday 09:00 AM - 10:00 PM, Sunday 09:00 AM - 10:00 PM",,,
pharmaprix - la prairie,,205 Taschereau Blvd,,La Prairie,QC,J5R 4H9,Canada,450-619-9119,,,"Monday 09:00 AM - 10:00 PM, Tuesday 09:00 AM - 10:00 PM, Wednesday 09:00 AM - 10:00 PM, Thursday 09:00 AM - 10:00 PM, Friday 09:00 AM - 10:00 PM, Saturday 09:00 AM - 09:00 PM, Sunday 09:00 AM - 09:00 PM",,,
pharmaprix - kirkland,,3790 Boul St-Charles,,Kirkland,QC,H9H 3C3,Canada,514-426-1011,,,"Monday 09:00 AM - 10:00 PM, Tuesday 09:00 AM - 10:00 PM, Wednesday 09:00 AM - 10:00 PM, Thursday 09:00 AM - 10:00 PM, Friday 09:00 AM - 10:00 PM, Saturday 09:00 AM - 10:00 PM, Sunday 09:00 AM - 10:00 PM",,,
pharmaprix - joliette,,"1075 Boul. Firestone, Unit 1840",,Joliette,QC,J6E 6X6,Canada,450-759-6114,,,"Monday 09:00 AM - 06:00 PM, Tuesday 09:00 AM - 09:00 PM, Wednesday 09:00 AM - 09:00 PM, Thursday 09:00 AM - 09:00 PM, Friday 09:00 AM - 09:00 PM, Saturday 09:00 AM - 09:00 PM, Sunday 09:00 AM - 09:00 PM",,,
pharmaprix - granby,,40 Evangeline,,Granby,QC,J2G 8K1,Canada,450-378-9946,,,"Monday 09:00 AM - 06:00 PM, Tuesday 09:00 AM - 06:00 PM, Wednesday 09:00 AM - 06:00 PM, Thursday 09:00 AM - 09:00 PM, Friday 09:00 AM - 09:00 PM, Saturday 09:00 AM - 05:00 PM, Sunday 09:00 AM - 05:00 PM",,,
pharmaprix - de l'hopital,,465 Boul De L'Hopital,,Gatineau,QC,J8T 7X7,Canada,819-246-8453,,,"Monday 09:00 AM - 09:00 PM, Tuesday 09:00 AM - 10:00 PM, Wednesday 09:00 AM - 10:00 PM, Thursday 09:00 AM - 10:00 PM, Friday 09:00 AM - 10:00 PM, Saturday 09:00 AM - 09:00 PM, Sunday 09:00 AM - 09:00 PM",,,
pharmaprix - gatineau,,"200 Boul. Greber, Suite M2",,Gatineau,QC,J8T 6K2,Canada,819-246-7555,,,"Monday 09:00 AM - 09:00 PM, Tuesday 09:00 AM - 10:00 PM, Wednesday 09:00 AM - 10:00 PM, Thursday 09:00 AM - 10:00 PM, Friday 09:00 AM - 10:00 PM, Saturday 09:00 AM - 09:00 PM, Sunday 09:00 AM - 09:00 PM",,,
pharmaprix - drummondville,,400 Boul St-Joseph,,Drummondville,QC,J2C 2A8,Canada,819-473-8555,,,"Monday 09:00 AM - 09:00 PM, Tuesday 09:00 AM - 10:00 PM, Wednesday 09:00 AM - 10:00 PM, Thursday 09:00 AM - 10:00 PM, Friday 09:00 AM - 10:00 PM, Saturday 09:00 AM - 09:00 PM, Sunday 09:00 AM - 09:00 PM",,,
pharmaprix - faubourg du vieux port,,1160 St-Joseph,,Gatineau,QC,J8Z 1T3,Canada,819-778-2953,,,"Monday 09:00 AM - 10:00 PM, Tuesday 09:00 AM - 10:00 PM, Wednesday 09:00 AM - 10:00 PM, Thursday 09:00 AM - 10:00 PM, Friday 09:00 AM - 10:00 PM, Saturday 09:00 AM - 10:00 PM, Sunday 09:00 AM - 10:00 PM",,,
pharmaprix - hull,,320 Boul. St. Joseph,,Gatineau,QC,J8Y 3Y8,Canada,819-770-6668,,,"Monday 09:00 AM - 10:00 PM, Tuesday 09:00 AM - 10:00 PM, Wednesday 09:00 AM - 10:00 PM, Thursday 09:00 AM - 10:00 PM, Friday 09:00 AM - 10:00 PM, Saturday 09:00 AM - 10:00 PM, Sunday 09:00 AM - 10:00 PM",,,
pharmaprix - dorval,,"350 Dorval Ave, Suite 25",,Dorval,QC,H9S 3H7,Canada,514-631-1827,,,"Monday 08:30 AM - 09:00 PM, Tuesday 08:30 AM - 09:00 PM, Wednesday 08:30 AM - 09:00 PM, Thursday 08:30 AM - 09:30 PM, Friday 08:30 AM - 09:30 PM, Saturday 08:30 AM - 05:30 PM, Sunday 08:30 AM - 05:30 PM",,,
pharmaprix - des sources,,3781 Des Sources,,Dollard Des Ormeaux,QC,H9B 2K4,Canada,514-685-0707,,,"Monday 08:00 AM - 10:00 PM, Tuesday 08:00 AM - 10:00 PM, Wednesday 08:00 AM - 10:00 PM, Thursday 08:00 AM - 10:00 PM, Friday 08:00 AM - 10:00 PM, Saturday 08:00 AM - 10:00 PM, Sunday 08:00 AM - 10:00 PM",,,
pharmaprix - dollard-des-ormeaux,,4301 Boul. St-Jean,,Dollard Des Ormeaux,QC,H9H 2A4,Canada,514-626-4477,,,"Monday 08:00 AM - 10:00 PM, Tuesday 08:00 AM - Midnight, Wednesday 08:00 AM - Midnight, Thursday 08:00 AM - Midnight, Friday 08:00 AM - Midnight, Saturday 08:00 AM - Midnight, Sunday 08:00 AM - Midnight",,,
pharmaprix - deux-montagnes,,2500 Des Promenades Blvd,,Deux Montagnes,QC,J7R 6L2,Canada,450-472-6444,,,"Monday 09:00 AM - 10:00 PM, Tuesday 09:00 AM - 10:00 PM, Wednesday 09:00 AM - 10:00 PM, Thursday 09:00 AM - 10:00 PM, Friday 09:00 AM - 10:00 PM, Saturday 09:00 AM - 10:00 PM, Sunday 09:00 AM - 10:00 PM",,,
pharmaprix - delson,,21 Georges - Gagne,,Delson,QC,J5B 2E4,Canada,450-638-7787,,,"Monday 10:00 AM - 09:00 PM, Tuesday 09:00 AM - 10:00 PM, Wednesday 09:00 AM - 10:00 PM, Thursday 09:00 AM - 10:00 PM, Friday 09:00 AM - 10:00 PM, Saturday 09:00 AM - 09:00 PM, Sunday 09:00 AM - 09:00 PM",,,
pharmaprix - cavendish,,5800 Cavendish Blvd,,Cote St-Luc,QC,H4W 2T5,Canada,514-484-8463,,,"Monday 08:00 AM - 10:00 PM, Tuesday 08:00 AM - 10:00 PM, Wednesday 08:00 AM - 10:00 PM, Thursday 08:00 AM - 10:00 PM, Friday 08:00 AM - 10:00 PM, Saturday 09:00 AM - 10:00 PM, Sunday 09:00 AM - 10:00 PM",,,
pharmaprix - brossard,,"8230 Boul. Taschereau, Suite 2",,Brossard,QC,J4X 1C2,Canada,450-466-7379,,,"Monday 08:00 AM - 10:00 PM, Tuesday 08:00 AM - 10:00 PM, Wednesday 08:00 AM - 10:00 PM, Thursday 08:00 AM - 10:00 PM, Friday 08:00 AM - 10:00 PM, Saturday 08:00 AM - 10:00 PM, Sunday 08:00 AM - 10:00 PM",,,
pharmaprix - chateauguay,,"180 Anjou, Suite 150",,Chateauguay,QC,J6K 1C4,Canada,450-692-0049,,,"Monday 09:00 AM - 10:00 PM, Tuesday 09:00 AM - 10:00 PM, Wednesday 09:00 AM - 10:00 PM, Thursday 09:00 AM - 10:00 PM, Friday 09:00 AM - 10:00 PM, Saturday 09:00 AM - 09:00 PM, Sunday 09:00 AM - 09:00 PM",,,
pharmaprix - candiac,,180 Jean-Leman,,Candiac,QC,J5R 6E6,Canada,450-444-3262,,,"Monday 09:00 AM - 09:00 PM, Tuesday 09:00 AM - 10:00 PM, Wednesday 09:00 AM - 10:00 PM, Thursday 09:00 AM - 10:00 PM, Friday 09:00 AM - 10:00 PM, Saturday 09:00 AM - 09:00 PM, Sunday 09:00 AM - 09:00 PM",,,
pharmaprix - carrefour rive-sud,,"575 Chemin De La Touraine, Suite 100",,Boucherville,QC,J4B 5E4,Canada,450-655-9802,,,"Monday 09:00 AM - 09:00 PM, Tuesday 09:00 AM - 10:00 PM, Wednesday 09:00 AM - 10:00 PM, Thursday 09:00 AM - 10:00 PM, Friday 09:00 AM - 10:00 PM, Saturday 09:00 AM - 10:00 PM, Sunday 09:00 AM - 10:00 PM",,,
shoppers simply pharmacy - montarville,,"100 Rue Montarville, Suite #120",,Boucherville,QC,J4B 5M4,Canada,450-655-3010,,,"Monday 09:00 AM - 05:00 PM, Tuesday 09:00 AM - 08:00 PM, Wednesday 09:00 AM - 08:00 PM, Thursday 09:00 AM - 08:00 PM, Friday 09:00 AM - 05:00 PM, Saturday 09:30 AM - 02:00 PM, Sunday CLOSED",,,
pharmaprix - centre blainville,,"400 Cure-Labelle, Centre Blainville",,Blainville,QC,J7C 2H2,Canada,450-430-5002,,,"Monday 09:00 AM - 09:00 PM, Tuesday 08:30 AM - 10:00 PM, Wednesday 08:30 AM - 10:00 PM, Thursday 08:30 AM - 10:00 PM, Friday 08:30 AM - 10:00 PM, Saturday 09:00 AM - 09:00 PM, Sunday 09:00 AM - 09:00 PM",,,
pharmaprix - blainville,,1113 Boul Cure-Labelle,,Blainville,QC,J7C 2M2,Canada,450-420-5831,,,"Monday 09:00 AM - 09:00 PM, Tuesday 09:00 AM - 10:00 PM, Wednesday 09:00 AM - 10:00 PM, Thursday 09:00 AM - 10:00 PM, Friday 09:00 AM - 10:00 PM, Saturday 09:00 AM - 09:00 PM, Sunday 09:00 AM - 09:00 PM",,,
pharmaprix - beloeil,,600 Boul. Laurier,,Beloeil,QC,J3G 4J2,Canada,450-467-0855,,,"Monday 09:00 AM - 05:00 PM, Tuesday 09:00 AM - 10:00 PM, Wednesday 09:00 AM - 10:00 PM, Thursday 09:00 AM - 10:00 PM, Friday 09:00 AM - 10:00 PM, Saturday 09:00 AM - 09:00 PM, Sunday 09:00 AM - 09:00 PM",,,
pharmaprix - aylmer,,178 Principale,,Aylmer,QC,J9H 6J9,Canada,819-684-4074,,,"Monday 09:00 AM - 10:00 PM, Tuesday 08:00 AM - 10:00 PM, Wednesday 08:00 AM - 10:00 PM, Thursday 08:00 AM - 10:00 PM, Friday 08:00 AM - 10:00 PM, Saturday 09:00 AM - 10:00 PM, Sunday 09:00 AM - 10:00 PM",,,
pharmaprix - beaconsfield,,"50 St-Charles, Suite 1",,Beaconsfield,QC,H9W 2X3,Canada,514-697-4550,,,"Monday 08:00 AM - 10:00 PM, Tuesday 08:00 AM - 10:00 PM, Wednesday 08:00 AM - 10:00 PM, Thursday 08:00 AM - 10:00 PM, Friday 08:00 AM - 10:00 PM, Saturday 09:00 AM - 09:00 PM, Sunday 09:00 AM - 09:00 PM",,,
pharmaprix - baie-comeau,,"550 Boul. Lafleche, Suite A",,Baie-Comeau,QC,G5C 1C3,Canada,418-589-9908,,,"Monday 08:30 AM - 09:00 PM, Tuesday 08:30 AM - 09:00 PM, Wednesday 08:30 AM - 09:00 PM, Thursday 08:30 AM - 09:00 PM, Friday 08:30 AM - 09:00 PM, Saturday 09:00 AM - 06:00 PM, Sunday 09:00 AM - 06:00 PM",,,
pharmaprix - boucherville,,"520 Fort St-Louis, Unit 1",,Boucherville,QC,J4B 1S5,Canada,450-655-6651,,,"Monday 09:00 AM - 09:00 PM, Tuesday 09:00 AM - 10:00 PM, Wednesday 09:00 AM - 10:00 PM, Thursday 09:00 AM - 10:00 PM, Friday 09:00 AM - 10:00 PM, Saturday 09:00 AM - 09:00 PM, Sunday 09:00 AM - 09:00 PM",,,
