phone_number,city,distributor_name,store_type,store_number,country,address2,longitude,store_hours,store_name,state,other_fields,address,latitude,zip_code
"1-888-736-2224, 201-222-6095",Jersey City,,,,USA,,-74.03867,"Friday : 10:30 - 22:00, Monday : 10:30 - 22:00, Saturday : 10:30 - 22:00, Thuesday : 10:30 - 22:00, Sunday : 11:00 - 19:00, Wednesday : 10:30 - 22:00, Thursday : 10:30 - 22:00",Newport Centre Mall,NJ,,30 Mall Dr West,40.726948,07310
"1-888-736-2224, 201-386-8974",Hoboken,,,,USA,,-74.029791,"Friday : 10:30 - 03:00, Monday : 10:30 - 23:00, Saturday : 10:30 - 03:00, Thuesday : 10:30 - 23:00, Sunday : 10:30 - 23:00, Wednesday : 10:30 - 23:00, Thursday : 10:30 - 23:00",Hoboken,NJ,,400 Washington St,40.741327,07030
"1-888-736-2224, 201-339-1463",Bayonne,,,,USA,,-74.107903,"Friday : 10:30 - 23:00, Monday : 10:30 - 23:00, Saturday : 10:30 - 23:00, Thuesday : 10:30 - 23:00, Sunday : 10:30 - 23:00, Wednesday : 10:30 - 23:00, Thursday : 10:30 - 23:00",Bayonne,NJ,,905 Bayonne Crossing Way,40.659221,07002
"1-888-736-2224, 973-353-0196",Newark,,,,USA,,-74.171183,"Friday : 11:00 - 21:00, Monday : 11:00 - 21:00, Saturday : 11:00 - 20:00, Thuesday : 11:00 - 21:00, Sunday : 11:00 - 20:00, Wednesday : 11:00 - 21:00, Thursday : 11:00 - 21:00",Halsey,NJ,,64 Halsey St,40.740106,07102
973-242-0916,Newark,,,,USA,Term A Level3 Food Ct Spc A6G,-74.190656,"Friday : 10:00 - 22:00, Monday : 10:00 - 22:00, Saturday : 10:00 - 22:00, Thuesday : 10:00 - 22:00, Sunday : 10:00 - 22:00, Wednesday : 10:00 - 22:00, Thursday : 10:00 - 22:00",Newark Airport,NJ,,10 Toler Place,40.71009,07114
"1-888-736-2224, 201-288-4410",Hasbrouck Heights,,,,USA,,-74.071765,"Friday : 11:00 - 23:00, Monday : 11:00 - 22:00, Saturday : 11:00 - 23:00, Thuesday : 11:00 - 22:00, Sunday : 11:00 - 22:00, Wednesday : 11:00 - 22:00, Thursday : 11:00 - 22:00",Route 17,NJ,,125 Route 17 N,40.854507,07604
718-454-9400,Fresh Meadows,,,,USA,,-73.786238,"Friday : 10:30 - 23:00, Monday : 10:30 - 22:00, Saturday : 10:30 - 23:00, Thuesday : 10:30 - 22:00, Sunday : 10:30 - 22:00, Wednesday : 10:30 - 22:00, Thursday : 10:30 - 22:00",Fresh Meadows,NY,,61-40 188th St,40.739214,11365
"1-888-736-2224, 718-995-0838",New York,,,,USA,"Bldg. 125, Unit 3",-73.792449,"Friday : 00:00 - 23:50, Monday : 00:00 - 23:50, Saturday : 00:00 - 23:50, Thuesday : 00:00 - 23:50, Sunday : 00:00 - 23:50, Wednesday : 00:00 - 23:50, Thursday : 00:00 - 23:50",JFK Airport Plaza,NY,,JFK Travel Plaza,40.662974,11430
"1-888-736-2224, 718-494-3408",Staten Island,,,,USA,,-74.165093,"Friday : 11:00 - 23:00, Monday : 11:00 - 23:00, Saturday : 11:00 - 23:00, Thuesday : 11:00 - 23:00, Sunday : 11:00 - 23:00, Wednesday : 11:00 - 23:00, Thursday : 11:00 - 23:00",Richmond Ave.,NY,,2335 Richmond Ave,40.591016,10314
"1-888-736-2224, 201-845-4230",Paramus,,,,USA,Space E8A,-74.056332,"Friday : 11:00 - 23:00, Monday : 11:00 - 23:00, Saturday : 11:00 - 23:00, Thuesday : 11:00 - 23:00, Sunday : 11:00 - 21:00, Wednesday : 11:00 - 23:00, Thursday : 11:00 - 23:00",Bergen,NJ,,420 Bergen Town Center,40.914259,07652
"1-888-736-2224, 908-686-6043",Union,,,,USA,,-74.289011,"Friday : 11:00 - 23:00, Monday : 11:00 - 23:00, Saturday : 11:00 - 23:00, Thuesday : 11:00 - 23:00, Sunday : 11:00 - 23:00, Wednesday : 11:00 - 23:00, Thursday : 11:00 - 23:00",Union,NJ,,2268 US Highway 22 E,40.690787,07083
"1-888-736-2224, 718-966-1353",Staten Island,,,,USA,,-74.20718,"Friday : 11:00 - 23:00, Monday : 11:00 - 23:00, Saturday : 11:00 - 23:00, Thuesday : 11:00 - 23:00, Sunday : 11:00 - 22:00, Wednesday : 11:00 - 23:00, Thursday : 11:00 - 23:00",Staten Island - Woodrow,NY,,1275 Woodrow Rd,40.541783,10309
"1-888-736-2224, 201-703-7903",Fair Lawn,,,,USA,,-74.129193,"Friday : 11:00 - 23:00, Monday : 11:00 - 23:00, Saturday : 11:00 - 23:00, Thuesday : 11:00 - 23:00, Sunday : 11:00 - 23:00, Wednesday : 11:00 - 23:00, Thursday : 11:00 - 23:00",Fair Lawn Promenade,NJ,,26-31 Rt. 208,40.943829,07410
"1-888-736-2224, 718-356-1481",Staten Island,,,,USA,Unit 106,-74.233425,"Friday : 11:00 - 23:00, Monday : 11:00 - 23:00, Saturday : 11:00 - 23:00, Thuesday : 11:00 - 23:00, Sunday : 11:00 - 23:00, Wednesday : 11:00 - 23:00, Thursday : 11:00 - 23:00",Tottenville Square,NY,,7001 Amboy Rd,40.515979,10307
973-256-1215,Wayne,,,,USA,Ste 13,-74.261345,"Friday : 10:00 - 22:00, Monday : 10:00 - 22:00, Saturday : 10:00 - 22:00, Thuesday : 10:00 - 22:00, Sunday : 10:00 - 22:00, Wednesday : 10:00 - 22:00, Thursday : 10:00 - 22:00",Willowbrook,NJ,,1220 Willowbrook Mall,40.890812,07470
"1-888-736-2224, 908-301-0050",Westfield,,,,USA,,-74.348049,"Friday : 10:00 - 22:00, Monday : 10:00 - 22:00, Saturday : 10:00 - 22:00, Thuesday : 10:00 - 22:00, Sunday : 11:00 - 21:00, Wednesday : 10:00 - 22:00, Thursday : 10:00 - 22:00",Elm,NJ,,70 Elm St,40.651408,07090
732-634-1902,Iselin,,,,USA,,-74.298783,"Friday : 11:00 - 22:00, Monday : 11:00 - 22:00, Saturday : 11:00 - 22:00, Thuesday : 11:00 - 22:00, Sunday : 11:00 - 22:00, Wednesday : 11:00 - 22:00, Thursday : 11:00 - 22:00",Woodbridge,NJ,,770 US Route 1 N,40.563062,08830
"1-888-736-2224, 973-564-5255",Short Hills,,,,USA,Suite B101,-74.364295,"Friday : 08:00 - 21:00, Monday : 08:00 - 21:00, Saturday : 08:00 - 20:00, Thuesday : 08:00 - 21:00, Sunday : 09:00 - 18:00, Wednesday : 08:00 - 21:00, Thursday : 08:00 - 21:00",Morris,NJ,,1200 Morris Tpk,40.737837,07078
914-376-8982,Yonkers,,,,USA,,-73.856113,"Friday : 11:00 - 22:00, Monday : 11:00 - 22:00, Saturday : 11:00 - 22:00, Thuesday : 11:00 - 22:00, Sunday : 11:00 - 20:00, Wednesday : 11:00 - 22:00, Thursday : 11:00 - 22:00",Ridge Hill,NY,,67 Market St,40.962167,10710
"1-888-736-2224, 973-301-1896",Florham Park,,,,USA,,-74.39099,"Friday : 11:00 - 22:00, Monday : 11:00 - 22:00, Saturday : 11:00 - 22:00, Thuesday : 11:00 - 22:00, Sunday : 11:00 - 22:00, Wednesday : 11:00 - 22:00, Thursday : 11:00 - 22:00",Florham Park,NJ,,176 Columbia Tpke,40.788394,07932
"1-888-736-2224, 908-322-1142",Watchung,,,,USA,,-74.414541,"Friday : 11:00 - 22:00, Monday : 11:00 - 22:00, Saturday : 11:00 - 22:00, Thuesday : 11:00 - 22:00, Sunday : 11:00 - 22:00, Wednesday : 11:00 - 22:00, Thursday : 11:00 - 22:00",Watchung,NJ,,1595 US 22,40.642916,07069
"1-888-736-2224, 732-985-0690",Edison,,,,USA,Suite E7,-74.39453,"Friday : 11:00 - 22:00, Monday : 11:00 - 22:00, Saturday : 11:00 - 22:00, Thuesday : 11:00 - 22:00, Sunday : 11:00 - 22:00, Wednesday : 11:00 - 22:00, Thursday : 11:00 - 22:00",US Hwy 1,NJ,,561 Route 1 South,40.506532,08817
"1-888-736-2224, 973-898-3836",Morristown,,,,USA,Suite 5,-74.48158,"Friday : 11:00 - 22:00, Monday : 11:00 - 22:00, Saturday : 11:00 - 22:00, Thuesday : 11:00 - 22:00, Sunday : 11:00 - 22:00, Wednesday : 11:00 - 22:00, Thursday : 11:00 - 22:00",Park Place,NJ,,40 W Park Place,40.79671,07960
914-631-3750,Tarrytown,,,,USA,,-73.837355,"Friday : 11:00 - 22:00, Monday : 11:00 - 22:00, Saturday : 11:00 - 22:00, Thuesday : 11:00 - 22:00, Sunday : 11:00 - 21:00, Wednesday : 11:00 - 22:00, Thursday : 11:00 - 22:00",Tarrytown,NY,,652 White Plains Rd,41.061205,10591
"1-888-736-2224, 732-839-2024",Piscataway,,,,USA,Unit 10,-74.439209,"Friday : 11:00 - 23:00, Monday : 11:00 - 23:00, Saturday : 11:00 - 23:00, Thuesday : 11:00 - 23:00, Sunday : 11:00 - 23:00, Wednesday : 11:00 - 23:00, Thursday : 11:00 - 23:00",Rutgers University,NJ,,55 Rockafeller Rd,40.525721,08854
"1-214-352-2277, 214-352-2277",Dallas,,,,USA,Suite 128,-96.817023,"Friday : 10:30 - 21:00, Monday : 10:30 - 21:00, Saturday : 10:30 - 21:00, Thuesday : 10:30 - 21:00, Sunday : 10:30 - 21:00, Wednesday : 10:30 - 21:00, Thursday : 10:30 - 21:00",Dallas,TX,,5600 W Lovers Ln,32.851124,75209
"1-972-231-6655, 972-231-6655",Richardson,,,,USA,,-96.768155,"Friday : 10:30 - 22:00, Monday : 10:30 - 22:00, Saturday : 10:30 - 21:00, Thuesday : 10:30 - 22:00, Sunday : 10:30 - 21:00, Wednesday : 10:30 - 22:00, Thursday : 10:30 - 22:00",Richardson,TX,,1930 Coit Rd,32.976131,75080
"1-972-973-7323, 972-973-7323",Dallas,,,,USA,"Terminal A, Cols 41-44",-97.0391196012497,"Friday : 00:00 - 23:50, Monday : 00:00 - 23:50, Saturday : 00:00 - 23:50, Thuesday : 00:00 - 23:50, Sunday : 00:00 - 23:50, Wednesday : 00:00 - 23:50, Thursday : 00:00 - 23:50",DFW Airport,TX,,2040 N International Pkwy,32.905199525076256,75261
"1-972-403-7372, 972-403-7372",Plano,,,,USA,Suite 340,-96.841624,"Friday : 10:30 - 22:00, Monday : 10:30 - 22:00, Saturday : 10:30 - 22:00, Thuesday : 10:30 - 22:00, Sunday : 10:30 - 21:00, Wednesday : 10:30 - 22:00, Thursday : 10:30 - 22:00",Plano,TX,,6505 W Park Blvd,33.026764,75093
"1-817-473-2112, 817-473-2112",Mansfield,,,,USA,Suite 109,-97.116276,"Friday : 10:00 - 22:00, Monday : 10:00 - 21:30, Saturday : 10:00 - 22:00, Thuesday : 10:00 - 21:30, Sunday : 10:00 - 21:30, Wednesday : 10:00 - 21:30, Thursday : 10:00 - 21:30",Mansfield,TX,,1401 E Debbie Lane,32.606437,76053
619-297-0098,San Diego,,,,USA,"Terminal TW2, Space 2060",-117.189564,"Friday : 05:00 - 22:00, Monday : 05:00 - 22:00, Saturday : 05:00 - 22:00, Thuesday : 05:00 - 22:00, Sunday : 05:00 - 22:00, Wednesday : 05:00 - 22:00, Thursday : 05:00 - 22:00",San Diego Airport,CA,,3225 North Harbor Dr,32.729263,92101
602-639-7294,Phoenix,,,,USA,Thunder Alley Bldg,-112.13071,"Friday : 10:30 - 22:00, Monday : 10:30 - 22:00, Saturday : 10:30 - 22:00, Thuesday : 10:30 - 22:00, Sunday : 10:30 - 22:00, Wednesday : 10:30 - 22:00, Thursday : 10:30 - 22:00",Grand Canyon University,AZ,,3300 W Camelback Rd.,33.513437,85017
480-965-9568,Tempe,,,,USA,Memorial Union Building,-111.932874,"Friday : 10:00 - 22:00, Monday : 10:00 - 22:00, Thuesday : 10:00 - 22:00, Wednesday : 10:00 - 22:00, Thursday : 10:00 - 22:00",ASU Tempe,AZ,,1290 S Normal Ave,33.414947,85287
"1-888-736-2224, 480-961-3400",Phoenix,,,,USA,Ste 300,-111.977151,"Friday : 10:30 - 21:00, Monday : 10:30 - 21:00, Saturday : 10:30 - 21:00, Thuesday : 10:30 - 21:00, Sunday : 10:30 - 21:00, Wednesday : 10:30 - 21:00, Thursday : 10:30 - 21:00",E. Chandler Blvd.,AZ,,4923 E Chandler Blvd,33.305149,85048
"1-888-736-2224, 312-212-1201",Chicago,,,,USA,Ste 103,-87.633228,"Friday : 07:00 - 20:00, Monday : 07:00 - 20:00, Thuesday : 07:00 - 20:00, Wednesday : 07:00 - 20:00, Thursday : 07:00 - 20:00",Jackson,IL,,175 W Jackson St,41.878063,60604
"1-888-736-2224, 312-578-8358",Chicago,,,,USA,Suite 100,-87.632475,"Friday : 07:00 - 21:00, Monday : 07:00 - 21:00, Saturday : 10:30 - 21:00, Thuesday : 07:00 - 21:00, Sunday : 10:30 - 20:00, Wednesday : 07:00 - 21:00, Thursday : 07:00 - 21:00",LaSalle,IL,,100 N Lasalle St,41.883299,60602
"1-888-736-2224, 312-629-1190",Chicago,,,,USA,,-87.625891,"Friday : 07:00 - 23:00, Monday : 07:00 - 23:00, Saturday : 09:00 - 23:00, Thuesday : 07:00 - 23:00, Sunday : 09:00 - 21:00, Wednesday : 07:00 - 23:00, Thursday : 07:00 - 23:00",Randolph,IL,,58 E Randolph St,41.884583,60601
"1-888-736-2224, 773-868-0213",Chicago,,,,USA,,-87.65335,"Friday : 10:30 - 00:00, Monday : 10:30 - 23:00, Saturday : 10:30 - 00:00, Thuesday : 10:30 - 23:00, Sunday : 10:30 - 23:00, Wednesday : 10:30 - 23:00, Thursday : 10:30 - 23:00",Diversey,IL,,957 W Diversey Pkwy,41.932624,60614
773-926-1365,Hyde Park,,,,USA,CCD1 Building - Billings,-87.604869,"Friday : 11:00 - 19:00, Monday : 11:00 - 19:00, Thuesday : 11:00 - 19:00, Wednesday : 11:00 - 19:00, Thursday : 11:00 - 19:00",Chicago Medicine,IL,,5700 S Maryland Ave,41.79115,60637
"1-888-736-2224, 847-619-5220",Schaumburg,,,,USA,Ste A,-88.043374,"Friday : 10:30 - 22:00, Monday : 10:30 - 22:00, Saturday : 10:30 - 22:00, Thuesday : 10:30 - 22:00, Sunday : 11:00 - 20:00, Wednesday : 10:30 - 22:00, Thursday : 10:30 - 22:00",Golf Rd,IL,,1408 E Golf Rd,42.050572,60173
"1-888-736-2224, 630-668-4795",Wheaton,,,,USA,,-88.106882,"Friday : 10:30 - 22:00, Monday : 10:30 - 22:00, Saturday : 10:30 - 22:00, Thuesday : 10:30 - 22:00, Sunday : 11:00 - 21:00, Wednesday : 10:30 - 22:00, Thursday : 10:30 - 22:00",Wheaton,IL,,2202 Main St,41.888237,60187
"1-888-736-2224, 219-924-6674",Highland,,,,USA,,-87.47104,"Friday : 10:30 - 22:00, Monday : 10:30 - 22:00, Saturday : 10:30 - 22:00, Thuesday : 10:30 - 22:00, Sunday : 10:30 - 21:00, Wednesday : 10:30 - 22:00, Thursday : 10:30 - 22:00",S. Indianapolis Blvd.,IN,,10439 S Indianapolis Blvd,41.524967,46322
"1-855-228-3745, 224-387-5647",Arlington Heights,,,,USA,,-87.996167,"Friday : 10:30 - 22:00, Monday : 10:30 - 22:00, Saturday : 10:30 - 22:00, Thuesday : 10:30 - 22:00, Sunday : 10:30 - 22:00, Wednesday : 10:30 - 22:00, Thursday : 10:30 - 22:00",Arlington Heights,IL,,1025 W Dundee Rd,42.13898,60004
"1-855-228-3745, 224-208-3985",Schaumburg,,,,USA,,-88.146135,"Friday : 10:30 - 21:00, Monday : 10:30 - 21:00, Saturday : 10:30 - 21:00, Thuesday : 10:30 - 21:00, Sunday : 10:30 - 21:00, Wednesday : 10:30 - 21:00, Thursday : 10:30 - 21:00",Schaumburg,IL,,2602 W Schaumburg Rd,42.024883,60194
"1-855-228-3745, 847-573-0610",Vernon Hills,,,,USA,Suite 100,-87.946432,"Friday : 10:30 - 22:00, Monday : 10:30 - 22:00, Saturday : 10:30 - 22:00, Thuesday : 10:30 - 22:00, Sunday : 10:30 - 22:00, Wednesday : 10:30 - 22:00, Thursday : 10:30 - 22:00",Vernon Hills,IL,,700 E Townline Rd,42.240572,60061
"1-888-736-2224, 213-572-0344",Los Angeles,,,,USA,Ste 105,-118.257407,"Friday : 07:00 - 22:00, Monday : 07:00 - 22:00, Saturday : 08:30 - 21:00, Thuesday : 07:00 - 22:00, Sunday : 08:30 - 21:00, Wednesday : 07:00 - 22:00, Thursday : 07:00 - 22:00",Hope,CA,,655 S Hope St,34.048352,90017
"1-888-736-2224, 310-391-5138",Culver City,,,,USA,Suite 1591,-118.395621,"Friday : 10:00 - 21:00, Monday : 10:00 - 21:00, Saturday : 10:00 - 21:00, Thuesday : 10:00 - 21:00, Sunday : 11:00 - 19:00, Wednesday : 10:00 - 21:00, Thursday : 10:00 - 21:00",Sepulveda,CA,,6000 Sepulveda Blvd,33.985337,90230
"1-888-736-2224, 626-305-0812",Duarte,,,,USA,Suite 101,-117.98605,"Friday : 10:30 - 22:00, Monday : 10:30 - 22:00, Saturday : 10:30 - 21:00, Thuesday : 10:30 - 22:00, Sunday : 10:30 - 21:00, Wednesday : 10:30 - 22:00, Thursday : 10:30 - 22:00",Mountain Ave.,CA,,1430 Mountain Ave,34.13638,91010
"1-909-869-5477, 909-869-5477",Pomona,,,,USA,Bldg 35 Bronco Student Ctr,-117.820442,"Monday : 10:00 - 14:00, Thuesday : 10:00 - 14:00, Wednesday : 10:00 - 14:00, Thursday : 10:00 - 14:00",Cal Poly,CA,,3801 W Temple Ave,34.050362,91768
714-628-7338,Orange,,,,USA,,-117.850422,"Friday : 10:30 - 22:00, Monday : 10:30 - 22:00, Saturday : 10:30 - 22:00, Thuesday : 10:30 - 22:00, Sunday : 10:30 - 22:00, Wednesday : 10:30 - 22:00, Thursday : 10:30 - 22:00",Chapman University,CA,,One University Dr,33.792984,92866
"1-855-736-2228, 215-546-8007",Philadelphia,,,,USA,,-75.166938,"Friday : 11:00 - 22:00, Monday : 11:00 - 22:00, Saturday : 11:00 - 22:00, Thuesday : 11:00 - 22:00, Sunday : 11:00 - 22:00, Wednesday : 11:00 - 22:00, Thursday : 11:00 - 22:00",Walnut,PA,,1528 Walnut St,39.949616,19102
"1-855-736-2228, 215-763-4090",Philadelphia,,,,USA,Suite 12,-75.158233,"Friday : 11:00 - 22:00, Monday : 11:00 - 22:00, Saturday : 11:00 - 22:00, Thuesday : 11:00 - 22:00, Sunday : 11:00 - 22:00, Wednesday : 11:00 - 22:00, Thursday : 11:00 - 22:00",Temple,PA,,1600 N Broad St,39.977354,19123
"1-855-736-2228, 215-222-2887",Philadelphia,,,,USA,,-75.202863,"Friday : 10:30 - 23:00, Monday : 10:30 - 23:00, Saturday : 11:00 - 23:00, Thuesday : 10:30 - 23:00, Sunday : 11:00 - 23:00, Wednesday : 10:30 - 23:00, Thursday : 10:30 - 23:00",40th,PA,,230 S 40th St,39.953111,19104
"1-855-736-2228, 610-664-2906",Bala Cynwyd,,,,USA,,-75.225662,"Friday : 11:00 - 23:00, Monday : 11:00 - 23:00, Saturday : 11:00 - 23:00, Thuesday : 11:00 - 23:00, Sunday : 11:00 - 22:00, Wednesday : 11:00 - 23:00, Thursday : 11:00 - 23:00",City,PA,,33 E City Line Ave,40.001674,19004
"1-888-736-2224, 856-433-8194",Cherry Hill,,,,USA,,-75.008844,"Friday : 11:00 - 22:00, Monday : 11:00 - 22:00, Saturday : 11:00 - 22:00, Thuesday : 11:00 - 22:00, Sunday : 11:00 - 22:00, Wednesday : 11:00 - 22:00, Thursday : 11:00 - 22:00",Kings,NJ,,1630 Kings Hwy,39.915388,08002
"1-888-736-2224, 215-887-2341",Jenkintown,,,,USA,Suite 215A,-75.126898,"Friday : 11:00 - 22:00, Monday : 11:00 - 22:00, Saturday : 11:00 - 22:00, Thuesday : 11:00 - 22:00, Sunday : 11:00 - 22:00, Wednesday : 11:00 - 22:00, Thursday : 11:00 - 22:00",Old York,PA,,261 Old York Rd,40.088908,19046
"1-855-736-2228, 610-543-4104",Springfield,,,,USA,,-75.343267,"Friday : 11:00 - 22:00, Monday : 11:00 - 22:00, Saturday : 11:00 - 22:00, Thuesday : 11:00 - 22:00, Sunday : 11:00 - 21:00, Wednesday : 11:00 - 22:00, Thursday : 11:00 - 22:00",Springfield,PA,,1054 Baltimore Pike,39.914321,19064
"1-855-736-2228, 484-222-6164",Bryn Mawr,,,,USA,,-75.325245,"Friday : 11:00 - 22:00, Monday : 11:00 - 22:00, Saturday : 11:00 - 22:00, Thuesday : 11:00 - 22:00, Sunday : 11:00 - 22:00, Wednesday : 11:00 - 22:00, Thursday : 11:00 - 22:00",Main Line Retail,PA,,1112 W Lancaster Ave,40.024649,19010
"1-888-736-2224, 610-359-6270",Broomall,,,,USA,,-75.356283,"Friday : 11:00 - 22:00, Monday : 11:00 - 22:00, Saturday : 11:00 - 22:00, Thuesday : 11:00 - 22:00, Sunday : 11:00 - 22:00, Wednesday : 11:00 - 22:00, Thursday : 11:00 - 22:00",Lawrence Park,PA,,1991 Sproul Rd,39.961395,19008
"1-888-736-2224, 484-243-6118",Conshohocken,,,,USA,Ste 108,-75.288628,"Friday : 11:00 - 22:00, Monday : 11:00 - 22:00, Saturday : 11:00 - 22:00, Thuesday : 11:00 - 22:00, Sunday : 11:00 - 22:00, Wednesday : 11:00 - 22:00, Thursday : 11:00 - 22:00",Ridge Pike,PA,,200 W Ridge Pike,40.095064,19428
"1-888-736-2224, 856-722-8921",Mount Laurel,,,,USA,Ste 400,-74.918291,"Friday : 11:00 - 22:00, Monday : 11:00 - 22:00, Saturday : 11:00 - 22:00, Thuesday : 11:00 - 22:00, Sunday : 11:00 - 22:00, Wednesday : 11:00 - 22:00, Thursday : 11:00 - 22:00",Midlantic,NJ,,7000 Midlantic Dr,39.966205,08054
"1-888-736-2224, 215-657-3750",Horsham,,,,USA,Unit M,-75.143096,"Friday : 11:00 - 22:00, Monday : 11:00 - 22:00, Saturday : 11:00 - 22:00, Thuesday : 11:00 - 22:00, Sunday : 11:00 - 22:00, Wednesday : 11:00 - 22:00, Thursday : 11:00 - 22:00",Welsh,PA,,100 Welsh Rd,40.157041,19044
"1-855-736-2228, 610-676-0477",Audubon,,,,USA,,-75.40541,"Friday : 11:00 - 21:00, Monday : 11:00 - 21:00, Saturday : 11:00 - 21:00, Thuesday : 11:00 - 21:00, Sunday : 11:00 - 21:00, Wednesday : 11:00 - 21:00, Thursday : 11:00 - 21:00",Audubon,PA,,717 S Trooper Rd,40.127149,19403
"1-888-736-2224, 302-477-1832",Wilmington,,,,USA,Unit 7a,-75.542978,"Friday : 11:00 - 22:00, Monday : 11:00 - 22:00, Saturday : 11:00 - 22:00, Thuesday : 11:00 - 22:00, Sunday : 11:00 - 22:00, Wednesday : 11:00 - 22:00, Thursday : 11:00 - 22:00",Market Square,DE,,5609 Concord Pike,39.833279,19803
"1-888-736-2224, 484-266-0459",West Chester,,,,USA,Space B4,-75.574834,"Friday : 11:00 - 22:00, Monday : 11:00 - 22:00, Saturday : 11:00 - 22:00, Thuesday : 11:00 - 22:00, Sunday : 11:00 - 22:00, Wednesday : 11:00 - 22:00, Thursday : 11:00 - 22:00",Chester Pike,PA,,1107 West Chester Pike,39.968541,19382
"1-888-736-2224, 610-409-5615",Collegeville,,,,USA,Suite 4,-75.481359,"Friday : 11:00 - 22:00, Monday : 11:00 - 22:00, Saturday : 11:00 - 22:00, Thuesday : 11:00 - 22:00, Sunday : 11:00 - 22:00, Wednesday : 11:00 - 22:00, Thursday : 11:00 - 22:00",Collegeville,PA,,500 Broad St,40.164038,19426
"1-302-397-8851, 302-397-8851",Wilmington,,,,USA,,-75.548993,"Friday : 11:00 - 19:00, Monday : 11:00 - 19:00, Thuesday : 11:00 - 19:00, Wednesday : 11:00 - 19:00, Thursday : 11:00 - 19:00",Wilmington,DE,,837 N Market St,39.743914,19801
"1-512-992-9511, 512-243-8118",Austin,,,,USA,,-97.741659,"Friday : 10:00 - 04:00, Monday : 10:00 - 03:00, Saturday : 10:00 - 04:00, Thuesday : 10:00 - 03:00, Sunday : 10:00 - 03:00, Wednesday : 10:00 - 03:00, Thursday : 10:00 - 04:00",Guadalupe,TX,,2402 Guadalupe St,30.287816,78705
"1-512-992-9511, 512-528-5573",Cedar Park,,,,USA,Suite AC 200,-97.813882,"Friday : 11:00 - 21:30, Monday : 11:00 - 21:00, Saturday : 11:00 - 21:30, Thuesday : 11:00 - 21:00, Sunday : 11:00 - 21:00, Wednesday : 11:00 - 21:00, Thursday : 11:00 - 21:00",Cedar Park,TX,,1335 E Whitestone Blvd,30.526096,78613
"1-888-736-2224, 317-822-0386",Indianapolis,,,,USA,Ste A,-86.158027,"Friday : 06:30 - 22:00, Monday : 06:30 - 22:00, Saturday : 06:30 - 22:00, Thuesday : 06:30 - 22:00, Sunday : 06:30 - 20:00, Wednesday : 06:30 - 22:00, Thursday : 06:30 - 22:00",Meridian,IN,,9 N Meridian St,39.76719,46204
"1-888-736-2224, 317-515-6198",Indianapolis,,,,USA,Unit 42,-86.151011,"Friday : 06:30 - 23:00, Monday : 06:30 - 22:00, Saturday : 06:30 - 23:00, Thuesday : 06:30 - 22:00, Sunday : 08:00 - 22:00, Wednesday : 06:30 - 22:00, Thursday : 06:30 - 22:00",Southern Plaza,IN,,4200 S East St,39.704782,46227
"1-888-736-2224, 317-205-9960",Indianapolis,,,,USA,Unit 1,-86.142978,"Friday : 09:00 - 05:00, Monday : 09:00 - 22:00, Saturday : 09:00 - 05:00, Thuesday : 09:00 - 22:00, Sunday : 09:00 - 22:00, Wednesday : 09:00 - 22:00, Thursday : 09:00 - 05:00",Guilford,IN,,6334 N Guilford Ave,39.870407,46220
"1-888-736-2224, 317-217-1100",Indianapolis,,,,USA,Suite A,-86.082426,"Friday : 06:30 - 23:00, Monday : 06:30 - 23:00, Saturday : 06:30 - 23:00, Thuesday : 06:30 - 23:00, Sunday : 06:30 - 22:00, Wednesday : 06:30 - 23:00, Thursday : 06:30 - 23:00",Emerson,IN,,6905 S Emerson Ave,39.667335,46237
317-602-3581,Indianapolis,,,,USA,,-86.298644,"Friday : 05:30 - 22:00, Monday : 05:30 - 22:00, Saturday : 05:30 - 22:00, Thuesday : 05:30 - 22:00, Sunday : 05:30 - 22:00, Wednesday : 05:30 - 22:00, Thursday : 05:30 - 22:00",Indianapolis Airport,IN,,7800 Col H Weir Cook Mem Dr,39.714676,46241
"1-888-736-2224, 317-257-5141",Indianapolis,,,,USA,Ste 500,-86.121857,"Friday : 06:30 - 22:00, Monday : 06:30 - 22:00, Saturday : 06:30 - 22:00, Thuesday : 06:30 - 22:00, Sunday : 06:30 - 21:00, Wednesday : 06:30 - 22:00, Thursday : 06:30 - 22:00",Keystone,IN,,7411 N Keystone Ave,39.888639,46240
"1-888-736-2224, 317-890-8070",Indianapolis,,,,USA,,-85.995202,"Friday : 07:00 - 23:00, Monday : 07:00 - 23:00, Saturday : 07:00 - 23:00, Thuesday : 07:00 - 23:00, Sunday : 07:00 - 21:00, Wednesday : 07:00 - 23:00, Thursday : 07:00 - 23:00",Washington,IN,,9702 E Washington St,39.774749,46219
"1-888-736-2224, 317-209-8901",Avon,,,,USA,,-86.3278,"Friday : 07:00 - 23:00, Monday : 07:00 - 23:00, Saturday : 07:00 - 23:00, Thuesday : 07:00 - 23:00, Sunday : 07:00 - 21:00, Wednesday : 07:00 - 23:00, Thursday : 07:00 - 23:00",Rockville,IN,,10934 E Us Highway 36,39.76382,46123
"1-888-736-2224, 317-865-1810",Greenwood,,,,USA,Ste B,-86.1209,"Friday : 07:00 - 23:00, Monday : 07:00 - 22:00, Saturday : 07:00 - 23:00, Thuesday : 07:00 - 22:00, Sunday : 07:00 - 21:00, Wednesday : 07:00 - 22:00, Thursday : 07:00 - 22:00",Hwy31,IN,,795 N US 31,39.627491,46142
"1-888-736-2224, 317-849-5919",Indianapolis,,,,USA,Ste D,-86.086194,"Friday : 06:30 - 22:00, Monday : 06:30 - 22:00, Saturday : 06:30 - 22:00, Thuesday : 06:30 - 22:00, Sunday : 06:30 - 21:00, Wednesday : 06:30 - 22:00, Thursday : 06:30 - 22:00",82nd,IN,,5025 E 82nd St,39.905062,46250
"1-888-736-2224, 317-879-9483",Indianapolis,,,,USA,Ste 131,-86.221546,"Friday : 07:00 - 23:00, Monday : 07:00 - 22:00, Saturday : 07:00 - 23:00, Thuesday : 07:00 - 22:00, Sunday : 07:00 - 20:00, Wednesday : 07:00 - 22:00, Thursday : 07:00 - 22:00",86th,IN,,3528 W 86th St,39.911803,46268
"1-888-736-2224, 317-876-8990",Indianapolis,,,,USA,Suite 144,-86.25994,"Friday : 07:00 - 22:00, Monday : 07:00 - 22:00, Saturday : 07:00 - 22:00, Thuesday : 07:00 - 22:00, Sunday : 10:30 - 21:00, Wednesday : 07:00 - 22:00, Thursday : 07:00 - 22:00",Traders Point,IN,,5630 W 86th St,39.91062,46278
"1-888-736-2224, 317-839-9350",Plainfield,,,,USA,Suite 400,-86.36603,"Friday : 07:00 - 22:00, Monday : 07:00 - 22:00, Saturday : 07:00 - 22:00, Thuesday : 07:00 - 22:00, Sunday : 07:00 - 21:00, Wednesday : 07:00 - 22:00, Thursday : 07:00 - 22:00",Plainfield,IN,,2663 E Main St,39.71407,46168
"1-888-736-2224, 317-813-1020",Fishers,,,,USA,Ste 106,-86.021626,"Friday : 06:30 - 23:00, Monday : 06:30 - 23:00, Saturday : 06:30 - 23:00, Thuesday : 06:30 - 23:00, Sunday : 06:30 - 22:00, Wednesday : 06:30 - 23:00, Thursday : 06:30 - 23:00",Fishers,IN,,8260 E 96th St,39.927354,46038
"1-888-736-2224, 317-815-9320",Carmel,,,,USA,Ste C10,-86.115947,"Friday : 06:30 - 22:00, Monday : 06:30 - 22:00, Saturday : 06:30 - 22:00, Thuesday : 06:30 - 22:00, Sunday : 06:30 - 20:00, Wednesday : 06:30 - 22:00, Thursday : 06:30 - 22:00",Carmel,IN,,2328 E 116th St,39.956751,46032
"1-888-736-2224, 317-776-6231",Noblesville,,,,USA,Suite 200,-85.93055,"Friday : 08:00 - 22:00, Monday : 08:00 - 22:00, Saturday : 08:00 - 22:00, Thuesday : 08:00 - 22:00, Sunday : 08:00 - 20:00, Wednesday : 08:00 - 22:00, Thursday : 08:00 - 22:00",Harrell,IN,,13230 Harrell Pkwy,39.99174,46060
"1-888-736-2224, 317-318-1490",Greenfield,,,,USA,,-85.769754,"Friday : 07:00 - 23:00, Monday : 07:00 - 22:00, Saturday : 07:00 - 23:00, Thuesday : 07:00 - 22:00, Sunday : 07:00 - 21:00, Wednesday : 07:00 - 22:00, Thursday : 07:00 - 22:00",N. State St.,IN,,2037 N State St,39.81459,46140
"1-888-736-2224, 614-299-9449",Columbus,,,,USA,,-83.008421,"Friday : 10:30 - 23:00, Monday : 10:30 - 23:00, Saturday : 10:30 - 23:00, Thuesday : 10:30 - 23:00, Sunday : 10:30 - 23:00, Wednesday : 10:30 - 23:00, Thursday : 10:30 - 23:00",OSU,OH,,1956 N High St,40.002223,43201
"1-888-736-2224, 614-481-1971",Columbus,,,,USA,,-83.051693,"Friday : 11:00 - 22:00, Monday : 11:00 - 22:00, Saturday : 11:00 - 22:00, Thuesday : 11:00 - 22:00, Sunday : 11:00 - 22:00, Wednesday : 11:00 - 22:00, Thursday : 11:00 - 22:00",West 5th Ave,OH,,1689 W 5th Ave,39.989096,43212
"1-888-736-2224, 614-987-6426",Columbus,,,,USA,,-83.019435,"Friday : 11:00 - 21:00, Monday : 11:00 - 21:00, Saturday : 11:00 - 21:00, Thuesday : 11:00 - 21:00, Sunday : 11:00 - 21:00, Wednesday : 11:00 - 21:00, Thursday : 11:00 - 21:00",N. High,OH,,5063 N High St,40.065221,43214
"1-888-736-2224, 614-842-4700",Columbus,,,,USA,,-82.992047,"Friday : 11:00 - 21:00, Monday : 11:00 - 21:00, Saturday : 11:00 - 21:00, Thuesday : 11:00 - 21:00, Sunday : 11:00 - 20:00, Wednesday : 11:00 - 21:00, Thursday : 11:00 - 21:00",Polaris,OH,,1055 Polaris Pkwy,40.145699,43240
"1-704-295-4111, 704-295-4111",Charlotte,,,,USA,Suite 2,-80.842775,"Friday : 11:00 - 03:00, Monday : 11:00 - 22:00, Saturday : 11:00 - 03:00, Thuesday : 11:00 - 22:00, Sunday : 11:00 - 22:00, Wednesday : 11:00 - 22:00, Thursday : 11:00 - 22:00",N. Tryon,NC,,127 N Tryon St,35.227474,28202
"1-704-295-9007, 704-295-9007",Charlotte,,,,USA,Suite 200,-80.849271,"Friday : 11:00 - 22:00, Monday : 11:00 - 22:00, Saturday : 11:00 - 22:00, Thuesday : 11:00 - 22:00, Sunday : 11:00 - 22:00, Wednesday : 11:00 - 22:00, Thursday : 11:00 - 22:00",Woodlawn,NC,,1600 E Woodlawn Rd,35.172188,28209
"1-704-547-7460, 704-547-7460",Charlotte,,,,USA,Suite B1,-80.747574,"Friday : 11:00 - 22:00, Monday : 11:00 - 22:00, Saturday : 11:00 - 22:00, Thuesday : 11:00 - 22:00, Sunday : 11:00 - 22:00, Wednesday : 11:00 - 22:00, Thursday : 11:00 - 22:00",Harris,NC,,230 E WT Harris Blvd,35.303242,28262
"1-704-295-0004, 704-295-0004",Charlotte,,,,USA,Space G,-80.929923,"Friday : 11:00 - 21:00, Monday : 11:00 - 21:00, Saturday : 11:00 - 21:00, Thuesday : 11:00 - 21:00, Sunday : 11:00 - 21:00, Wednesday : 11:00 - 21:00, Thursday : 11:00 - 21:00",S.Tryon,NC,,8152 South Tryon St,35.143126,28273
"1-704-295-0605, 704-295-0605",Charlotte,,,,USA,Suite 100,-80.777683,"Friday : 11:00 - 22:00, Monday : 11:00 - 22:00, Saturday : 11:00 - 22:00, Thuesday : 11:00 - 22:00, Sunday : 11:00 - 22:00, Wednesday : 11:00 - 22:00, Thursday : 11:00 - 22:00",Providence,NC,,8200 Providence Rd,35.096166,28277
"1-704-849-8030, 704-849-8030",Matthews,,,,USA,,-80.702446,"Friday : 11:00 - 22:00, Monday : 11:00 - 22:00, Saturday : 11:00 - 22:00, Thuesday : 11:00 - 22:00, Sunday : 11:00 - 22:00, Wednesday : 11:00 - 22:00, Thursday : 11:00 - 22:00",Matthews,NC,,2233 Matthews Township Pkwy,35.127621,28105
"1-704-892-2818, 704-892-2818",Huntersville,,,,USA,,-80.878895,"Friday : 11:00 - 23:00, Monday : 11:00 - 22:00, Saturday : 11:00 - 23:00, Thuesday : 11:00 - 22:00, Sunday : 11:00 - 22:00, Wednesday : 11:00 - 22:00, Thursday : 11:00 - 22:00",Birkdale,NC,,16926 Birkdale Commons Pkwy,35.445809,28078
"1-704-852-9822, 704-852-9822",Gastonia,,,,USA,Suite 182,-81.133551,"Friday : 11:00 - 22:00, Monday : 11:00 - 22:00, Saturday : 11:00 - 22:00, Thuesday : 11:00 - 22:00, Sunday : 11:00 - 22:00, Wednesday : 11:00 - 22:00, Thursday : 11:00 - 22:00",Cox,NC,,401 Cox Rd,35.261454,28054
"1-817-377-9411, 817-377-9411",Fort Worth,,,,USA,,-97.413712,"Friday : 10:30 - 21:30, Monday : 10:30 - 21:30, Saturday : 10:30 - 21:30, Thuesday : 10:30 - 21:30, Sunday : 10:30 - 21:30, Wednesday : 10:30 - 21:30, Thursday : 10:30 - 21:30",Camp Bowie,TX,,6002 Camp Bowie Blvd,32.72957,76116
"1-817-295-5419, 817-295-5419",Burleson,,,,USA,Suite 630,-97.34868,"Friday : 10:00 - 21:00, Monday : 10:00 - 21:00, Saturday : 10:00 - 21:00, Thuesday : 10:00 - 21:00, Sunday : 10:00 - 21:00, Wednesday : 10:00 - 21:00, Thursday : 10:00 - 21:00",Wilshire,TX,,1505 SW Wilshire Blvd,32.520048,76028
"1-888-736-2224, 313-982-3320",Allen Park,,,,USA,,-83.207772,"Friday : 10:30 - 23:00, Monday : 10:30 - 23:00, Saturday : 10:30 - 23:00, Thuesday : 10:30 - 23:00, Sunday : 10:30 - 22:00, Wednesday : 10:30 - 23:00, Thursday : 10:30 - 23:00",Fairlane,MI,,3452 Fairlane Dr,42.280047,48101
"1-888-736-2224, 248-336-9661",Royal Oak,,,,USA,Ste 100,-83.144144,"Friday : 11:00 - 03:00, Monday : 11:00 - 23:00, Saturday : 11:00 - 03:00, Thuesday : 11:00 - 23:00, Sunday : 11:00 - 23:00, Wednesday : 11:00 - 23:00, Thursday : 11:00 - 23:00",Royal Oak,MI,,301 S Main St,42.488027,48067
"1-888-736-2224, 586-576-0925",Warren,,,,USA,,-83.049046,"Friday : 10:30 - 22:00, Monday : 10:30 - 22:00, Saturday : 10:30 - 22:00, Thuesday : 10:30 - 22:00, Sunday : 10:30 - 22:00, Wednesday : 10:30 - 22:00, Thursday : 10:30 - 22:00",Mound,MI,,5779 E 12 Mile Rd,42.50618,48092
734-941-3480,Detroit,,,,USA,Airport-Dtw Mcnamara Terminal,-83.218124,"Friday : 10:30 - 22:00, Monday : 10:30 - 22:00, Saturday : 10:30 - 22:00, Thuesday : 10:30 - 22:00, Sunday : 10:30 - 22:00, Wednesday : 10:30 - 22:00, Thursday : 10:30 - 22:00",DTW McNamara,MI,,2565 World Gateway Pl,42.460956,48242
"1-888-736-2224, 734-287-1243",Taylor,,,,USA,Unit A,-83.248544,"Friday : 10:30 - 23:00, Monday : 10:30 - 22:00, Saturday : 10:30 - 23:00, Thuesday : 10:30 - 22:00, Sunday : 10:30 - 22:00, Wednesday : 10:30 - 22:00, Thursday : 10:30 - 22:00",Eureka Rd.,MI,,22040 Eureka Rd,42.198019,48180
"1-888-736-2224, 248-799-8210",Southfield,,,,USA,Ste 101,-83.240696,"Friday : 10:30 - 23:00, Monday : 10:30 - 23:00, Saturday : 10:30 - 23:00, Thuesday : 10:30 - 23:00, Sunday : 10:30 - 22:00, Wednesday : 10:30 - 23:00, Thursday : 10:30 - 23:00",Evergreen,MI,,25243 Evergreen Rd,42.475129,48037
"1-888-736-2224, 248-583-0024",Troy,,,,USA,,-83.110546,"Friday : 10:30 - 22:00, Monday : 10:30 - 22:00, Saturday : 10:30 - 22:00, Thuesday : 10:30 - 22:00, Sunday : 10:30 - 21:00, Wednesday : 10:30 - 22:00, Thursday : 10:30 - 22:00",Oakland Mall,MI,,398b W 14 Mile Rd,42.534518,48083
"1-888-736-2224, 248-549-0784",Royal Oak,,,,USA,,-83.18322,"Friday : 10:30 - 22:00, Monday : 10:30 - 22:00, Saturday : 10:30 - 22:00, Thuesday : 10:30 - 22:00, Sunday : 10:30 - 22:00, Wednesday : 10:30 - 22:00, Thursday : 10:30 - 22:00",13 & Woodward,MI,,30754 Woodward Ave,42.516056,48073
"1-888-736-2224, 734-525-1055",Livonia,,,,USA,Suite D210,-83.335137,"Friday : 10:30 - 23:00, Monday : 10:30 - 23:00, Saturday : 10:30 - 23:00, Thuesday : 10:30 - 23:00, Sunday : 10:30 - 22:00, Wednesday : 10:30 - 23:00, Thursday : 10:30 - 23:00",Wonderland,MI,,29515 Plymouth Rd,42.369062,48150
"1-888-736-2224, 586-296-0172",Roseville,,,,USA,,-82.913681,"Friday : 10:30 - 23:00, Monday : 10:30 - 23:00, Saturday : 10:30 - 23:00, Thuesday : 10:30 - 23:00, Sunday : 10:30 - 22:00, Wednesday : 10:30 - 23:00, Thursday : 10:30 - 23:00",Gratiot Ave.,MI,,31982 Gratiot Ave,42.532004,48066
"1-888-736-2224, 248-528-0630",Troy,,,,USA,,-83.14105,"Friday : 10:30 - 22:00, Monday : 10:30 - 22:00, Saturday : 10:30 - 22:00, Thuesday : 10:30 - 22:00, Sunday : 10:30 - 21:00, Wednesday : 10:30 - 22:00, Thursday : 10:30 - 22:00",Big Beaver,MI,,301 E Big Beaver Rd,42.563109,48084
"1-888-736-2224, 248-988-8941",Birmingham,,,,USA,Ste A,-83.209084,"Friday : 10:30 - 22:00, Monday : 10:30 - 22:00, Saturday : 10:30 - 22:00, Thuesday : 10:30 - 22:00, Sunday : 10:30 - 21:00, Wednesday : 10:30 - 22:00, Thursday : 10:30 - 22:00",Maple,MI,,795 E Maple Rd,42.546901,48009
"1-888-736-2224, 248-594-3349",Bingham Farms,,,,USA,,-83.284942,"Friday : 10:00 - 22:00, Monday : 10:00 - 22:00, Saturday : 11:00 - 22:00, Thuesday : 10:00 - 22:00, Sunday : 11:00 - 21:00, Wednesday : 10:00 - 22:00, Thursday : 10:00 - 22:00",Telegraph Rd.,MI,,30758 Telegraph Rd,42.51342,48025
"1-888-736-2224, 734-326-2885",Westland,,,,USA,,-83.401425,"Friday : 10:30 - 22:00, Monday : 10:30 - 22:00, Saturday : 10:30 - 22:00, Thuesday : 10:30 - 22:00, Sunday : 10:30 - 21:00, Wednesday : 10:30 - 22:00, Thursday : 10:30 - 22:00",Warren,MI,,36575 Warren Rd,42.338161,48185
"1-888-736-2224, 734-432-2011",Livonia,,,,USA,,-83.413468,"Friday : 10:30 - 22:00, Monday : 10:30 - 22:00, Saturday : 10:30 - 22:00, Thuesday : 10:30 - 22:00, Sunday : 10:30 - 21:00, Wednesday : 10:30 - 22:00, Thursday : 10:30 - 22:00",Newburgh,MI,,16971 Newburgh Rd,42.409881,48152
"1-888-736-2224, 248-324-2185",Farmington Hills,,,,USA,Ste 107,-83.376253,"Friday : 10:30 - 22:00, Monday : 10:30 - 22:00, Saturday : 10:30 - 22:00, Thuesday : 10:30 - 22:00, Sunday : 10:30 - 21:00, Wednesday : 10:30 - 22:00, Thursday : 10:30 - 22:00",12 Mile,MI,,33224 W 12 Mile Rd,42.499211,48334
"1-888-736-2224, 734-981-9280",Canton,,,,USA,,-83.449556,"Friday : 10:30 - 22:00, Monday : 10:30 - 22:00, Saturday : 10:30 - 22:00, Thuesday : 10:30 - 22:00, Sunday : 10:30 - 22:00, Wednesday : 10:30 - 22:00, Thursday : 10:30 - 22:00",Canton,MI,,41420 Ford Rd,42.323344,48187
"1-888-736-2224, 586-532-0087",Shelby Township,,,,USA,,-82.97392,"Friday : 10:30 - 23:00, Monday : 10:30 - 23:00, Saturday : 10:30 - 23:00, Thuesday : 10:30 - 23:00, Sunday : 10:30 - 22:00, Wednesday : 10:30 - 23:00, Thursday : 10:30 - 23:00",Hall Road,MI,,15099 Hall Rd,42.6278,48315
"1-888-736-2224, 248-449-5848",Northville,,,,USA,,-83.435906,"Friday : 10:30 - 23:00, Monday : 10:30 - 22:00, Saturday : 10:30 - 23:00, Thuesday : 10:30 - 22:00, Sunday : 10:30 - 22:00, Wednesday : 10:30 - 22:00, Thursday : 10:30 - 22:00",Northville,MI,,20561 Haggerty Rd,42.437502,48167
"1-888-736-2224, 248-844-3668",Rochester Hills,,,,USA,,-83.132353,"Friday : 10:30 - 22:00, Monday : 10:30 - 22:00, Saturday : 10:30 - 22:00, Thuesday : 10:30 - 22:00, Sunday : 10:30 - 22:00, Wednesday : 10:30 - 22:00, Thursday : 10:30 - 22:00",Rochester Hills,MI,,3014 Rochester Rd S,42.635536,48307
"1-888-736-2224, 248-874-1876",Bloomfield Township,,,,USA,,-83.264139,"Friday : 10:30 - 22:00, Monday : 10:30 - 22:00, Saturday : 10:30 - 22:00, Thuesday : 10:30 - 22:00, Sunday : 10:30 - 21:00, Wednesday : 10:30 - 22:00, Thursday : 10:30 - 22:00",Woodward Ave.,MI,,42967 Woodward Ave,42.603264,48304
"1-888-736-2224, 734-697-5118",Belleville,,,,USA,,-83.484169,"Friday : 10:00 - 23:00, Monday : 10:00 - 22:00, Saturday : 10:00 - 23:00, Thuesday : 10:00 - 22:00, Sunday : 10:00 - 22:00, Wednesday : 10:00 - 22:00, Thursday : 10:00 - 22:00",Belleville,MI,,10889 Belleville Rd,42.223507,48111
"1-888-736-2224, 248-305-6401",Novi,,,,USA,,-83.476043,"Friday : 10:30 - 22:00, Monday : 10:30 - 22:00, Saturday : 10:30 - 22:00, Thuesday : 10:30 - 22:00, Sunday : 10:30 - 22:00, Wednesday : 10:30 - 22:00, Thursday : 10:30 - 22:00",Novi,MI,,26401 Novi Rd,42.483807,48375
"1-888-736-2224, 206-623-0325",Seattle,,,,USA,,-122.338641,"Friday : 10:30 - 22:00, Monday : 10:30 - 22:00, Saturday : 10:30 - 22:00, Thuesday : 10:30 - 22:00, Sunday : 10:30 - 22:00, Wednesday : 10:30 - 22:00, Thursday : 10:30 - 22:00",Pike,WA,,217 Pike St,47.609364,98101
"1-888-736-2224, 206-547-0803",Seattle,,,,USA,,-122.315348,"Friday : 10:30 - 23:00, Monday : 10:30 - 22:00, Saturday : 10:30 - 23:00, Thuesday : 10:30 - 22:00, Sunday : 10:30 - 22:00, Wednesday : 10:30 - 22:00, Thursday : 10:30 - 22:00",45th Street WA,WA,,1200 Ne 45th St,47.661342,98105
"1-888-736-2224, 206-230-0072",Mercer Island,,,,USA,Suite 106,-122.236414,"Friday : 10:30 - 22:00, Monday : 10:30 - 21:00, Saturday : 10:30 - 22:00, Thuesday : 10:30 - 21:00, Sunday : 10:30 - 21:00, Wednesday : 10:30 - 21:00, Thursday : 10:30 - 21:00",27th Street,WA,,7650 Se 27th St,47.586797,98040
"1-888-736-2224, 425-653-2224",Redmond,,,,USA,Ste 65,-122.139161,"Friday : 11:00 - 21:30, Monday : 11:00 - 21:30, Saturday : 11:00 - 21:30, Thuesday : 11:00 - 21:30, Sunday : 11:00 - 21:30, Wednesday : 11:00 - 21:30, Thursday : 11:00 - 21:30",24th St,WA,,15116 Ne 24th St,47.631625,98052
"1-888-736-2224, 206-214-0313",Tukwila,,,,USA,Suite 130,-122.254263,"Friday : 10:30 - 22:00, Monday : 10:30 - 21:00, Saturday : 10:30 - 22:00, Thuesday : 10:30 - 21:00, Sunday : 10:30 - 21:00, Wednesday : 10:30 - 21:00, Thursday : 10:30 - 21:00",Tukwila,WA,,100 Andover Park W,47.459773,98188
206-242-1949,Seattle,,,,USA,Space CT16,-122.296314,"Friday : 00:00 - 23:50, Monday : 00:00 - 23:50, Saturday : 00:00 - 23:50, Thuesday : 00:00 - 23:50, Sunday : 00:00 - 23:50, Wednesday : 00:00 - 23:50, Thursday : 00:00 - 23:50",SEATAC,WA,,17801 International Blvd,47.443484,98158
"1-888-736-2224, 425-485-8842",Woodinville,,,,USA,Ste 120,-122.155176,"Friday : 11:00 - 22:00, Monday : 11:00 - 22:00, Saturday : 11:00 - 22:00, Thuesday : 11:00 - 22:00, Sunday : 11:00 - 22:00, Wednesday : 11:00 - 22:00, Thursday : 11:00 - 22:00",Woodinville,WA,,17744 Garden Way NE,47.756861,98072
"1-888-736-2224, 425-806-1414",Bothell,,,,USA,Ste 5,-122.215443,"Friday : 10:30 - 22:30, Monday : 10:30 - 22:30, Saturday : 10:30 - 22:30, Thuesday : 10:30 - 22:30, Sunday : 10:30 - 22:30, Wednesday : 10:30 - 22:30, Thursday : 10:30 - 22:30",Bothell,WA,,22612-C Bothell Everett Hwy,47.793094,98021
"1-888-736-2224, 425-427-0673",Issaquah,,,,USA,Unit G19,-122.040163,"Friday : 10:00 - 22:00, Monday : 10:00 - 22:00, Saturday : 10:00 - 22:00, Thuesday : 10:00 - 22:00, Sunday : 10:00 - 22:00, Wednesday : 10:00 - 22:00, Thursday : 10:00 - 22:00",Issaquah,WA,,6140 E Lake Sammamish Pkwy Se,47.547031,98029
"1-888-736-2224, 425-672-2789",Lynnwood,,,,USA,Suite 105,-122.31514,"Friday : 10:30 - 22:00, Monday : 10:30 - 22:00, Saturday : 10:30 - 22:00, Thuesday : 10:30 - 22:00, Sunday : 10:30 - 22:00, Wednesday : 10:30 - 22:00, Thursday : 10:30 - 22:00",Hwy. 99,WA,,6208 196th St SW,47.82113,98036
"1-888-736-2224, 360-692-7961",Silverdale,,,,USA,Ste B18,-122.690272,"Friday : 10:30 - 22:00, Monday : 10:30 - 21:00, Saturday : 10:30 - 22:00, Thuesday : 10:30 - 21:00, Sunday : 10:30 - 20:00, Wednesday : 10:30 - 21:00, Thursday : 10:30 - 21:00",Kitsap Mall,WA,,10315 Silverdale Way Nw,47.65645,98383
"1-888-736-2224, 4257413868",Mill Creek,,,,USA,Suite 103,-122.218231,"Friday : 10:30 - 22:30, Monday : 10:30 - 22:30, Saturday : 10:30 - 22:30, Thuesday : 10:30 - 22:30, Sunday : 11:00 - 21:30, Wednesday : 10:30 - 22:30, Thursday : 10:30 - 22:30",Mill Creek,WA,,16314 Bothell-Everett Hwy,47.850909,98012
"1-888-736-2224, 253-839-1456",Federal Way,,,,USA,Unit D4,-122.314637,"Friday : 10:30 - 22:30, Monday : 10:30 - 22:30, Saturday : 10:30 - 22:30, Thuesday : 10:30 - 22:30, Sunday : 10:30 - 10:00, Wednesday : 10:30 - 22:30, Thursday : 10:30 - 22:30",Federal Way,WA,,1301 S 320th St,47.315039,98003
"1-888-736-2224, 253-858-3070",Gig Harbor,,,,USA,Suite A,-122.600689,"Friday : 10:30 - 22:00, Monday : 10:30 - 21:30, Saturday : 10:30 - 22:00, Thuesday : 10:30 - 21:30, Sunday : 10:30 - 21:30, Wednesday : 10:30 - 21:30, Thursday : 10:30 - 21:30",Borgen,WA,,4726 Borgen Blvd,47.359842,98332
"1-888-736-2224, 425-513-8340",Everett,,,,USA,Suite D400,-122.220367,"Friday : 10:30 - 22:00, Monday : 10:30 - 22:00, Saturday : 10:30 - 22:00, Thuesday : 10:30 - 22:00, Sunday : 11:00 - 21:00, Wednesday : 10:30 - 22:00, Thursday : 10:30 - 22:00",Everett,WA,,909 SE Everett Mall Way,47.910423,98208
"1-888-736-2224, 253-833-1969",Auburn,,,,USA,,-122.242759,"Friday : 10:30 - 23:00, Monday : 10:30 - 22:00, Saturday : 10:30 - 23:00, Thuesday : 10:30 - 22:00, Sunday : 10:30 - 22:00, Wednesday : 10:30 - 22:00, Thursday : 10:30 - 22:00",Auburn,WA,,1016 Outlet Collection Way,47.296244,98001
"1-888-736-2224, 425-334-8372",Lake Stevens,,,,USA,Ste 103,-122.105416,"Friday : 10:30 - 22:30, Monday : 10:30 - 22:00, Saturday : 10:30 - 22:30, Thuesday : 10:30 - 22:00, Sunday : 10:30 - 22:00, Wednesday : 10:30 - 22:00, Thursday : 10:30 - 22:00",Lake Stevens,WA,,513 State Rte 9 Ne,48.000975,98258
303-623-2504,Denver,,,,USA,Academic Bldg One,-105.002065,"Friday : 07:00 - 19:00, Monday : 07:00 - 19:00, Thuesday : 07:00 - 19:00, Wednesday : 07:00 - 19:00, Thursday : 07:00 - 19:00",CU Denver,CO,,1201 Larimer St,39.7464,80204
"1-888-736-2224, 303-629-1300",Denver,,,,USA,Ste 100,-104.999136,"Friday : 10:30 - 22:00, Monday : 10:30 - 21:00, Saturday : 10:30 - 22:00, Thuesday : 10:30 - 21:00, Sunday : 11:00 - 19:00, Wednesday : 10:30 - 21:00, Thursday : 10:30 - 22:00",Market,CO,,1533 Market St,39.749321,80202
"1-888-736-2224, 303-765-5878",Denver,,,,USA,Ste B,-104.983576,"Friday : 10:30 - 22:00, Monday : 10:30 - 22:00, Saturday : 10:30 - 22:00, Thuesday : 10:30 - 22:00, Sunday : 10:30 - 22:00, Wednesday : 10:30 - 22:00, Thursday : 10:30 - 22:00",Grant,CO,,550 Grant St,39.724884,80203
"1-888-736-2224, 303-813-0859",Denver,,,,USA,Ste D,-104.969593,"Friday : 10:30 - 22:00, Monday : 10:30 - 22:00, Saturday : 11:00 - 21:00, Thuesday : 10:30 - 22:00, Sunday : 11:00 - 21:00, Wednesday : 10:30 - 22:00, Thursday : 10:30 - 22:00",Humboldt,CO,,1400 E 17th Ave,39.74317,80218
"1-888-736-2224, 303-333-0841",Denver,,,,USA,Ste 101,-104.940133,"Friday : 10:30 - 22:00, Monday : 10:30 - 22:00, Saturday : 10:30 - 22:00, Thuesday : 10:30 - 22:00, Sunday : 10:30 - 22:00, Wednesday : 10:30 - 22:00, Thursday : 10:30 - 22:00",40th & Colorado,CO,,4000 N Colorado Blvd,39.773171,80216
"1-888-736-2224, 303-316-2693",Denver,,,,USA,Unit 1,-104.917146,"Friday : 10:30 - 21:30, Monday : 10:30 - 21:30, Saturday : 10:30 - 21:00, Thuesday : 10:30 - 21:30, Sunday : 10:30 - 21:00, Wednesday : 10:30 - 21:30, Thursday : 10:30 - 21:30",Krameria,CO,,6110 E Colfax Ave,39.740039,80220
"1-888-736-2224, 303-756-3400",Glendale,,,,USA,,-104.940465,"Friday : 10:30 - 23:00, Monday : 10:30 - 23:00, Saturday : 10:30 - 23:00, Thuesday : 10:30 - 23:00, Sunday : 10:30 - 23:00, Wednesday : 10:30 - 23:00, Thursday : 10:30 - 23:00",ColoMiss,CO,,1156 S Colorado Blvd,39.695614,80246
"1-888-736-2224, 303-802-8490",Denver,,,,USA,,-104.959311,"Friday : 10:30 - 23:00, Monday : 10:30 - 22:00, Saturday : 10:30 - 23:00, Thuesday : 10:30 - 22:00, Sunday : 10:30 - 22:00, Wednesday : 10:30 - 22:00, Thursday : 10:30 - 22:00",University & Evans,CO,,2100 S University Blvd,39.678301,80210
"1-888-736-2224, 720-857-0117",Denver,,,,USA,"Building 600, Suite 115",-104.903469,"Friday : 10:30 - 22:00, Monday : 10:30 - 22:00, Saturday : 10:30 - 22:00, Thuesday : 10:30 - 22:00, Sunday : 10:30 - 21:00, Wednesday : 10:30 - 22:00, Thursday : 10:30 - 22:00",Quebec,CO,,200 Quebec St,39.720395,80230
"1-888-736-2224, 303-237-1062",Lakewood,,,,USA,,-105.081624,"Friday : 10:30 - 22:00, Monday : 10:30 - 22:00, Saturday : 10:30 - 22:00, Thuesday : 10:30 - 22:00, Sunday : 10:30 - 22:00, Wednesday : 10:30 - 22:00, Thursday : 10:30 - 22:00",Lakewood,CO,,7611 W Colfax Ave,39.740411,80214
"1-888-736-2224, 303-761-9104",Englewood,,,,USA,Ste C100,-104.996692,"Friday : 10:30 - 23:00, Monday : 10:30 - 23:00, Saturday : 10:30 - 23:00, Thuesday : 10:30 - 23:00, Sunday : 10:30 - 23:00, Wednesday : 10:30 - 23:00, Thursday : 10:30 - 23:00",Englewood,CO,,800 Englewood Pkwy,39.65483,80110
"1-888-736-2224, 303-286-7337",Denver,,,,USA,Suite 1510,-104.89242,"Friday : 10:30 - 23:00, Monday : 10:30 - 22:00, Saturday : 10:30 - 23:00, Thuesday : 10:30 - 22:00, Sunday : 10:30 - 22:00, Wednesday : 10:30 - 22:00, Thursday : 10:30 - 22:00",49th Ave,CO,,8286 E Northfield Blvd,39.785209,80238
"1-888-736-2224, 303-403-0232",Wheat Ridge,,,,USA,Unit 100,-105.109556,"Friday : 10:30 - 22:00, Monday : 10:30 - 22:00, Saturday : 10:30 - 22:00, Thuesday : 10:30 - 22:00, Sunday : 10:30 - 22:00, Wednesday : 10:30 - 22:00, Thursday : 10:30 - 22:00",Kipling,CO,,5095 Kipling St,39.790526,80033
"1-888-736-2224, 303-745-0672",Aurora,,,,USA,Suite 101,-104.865232,"Friday : 10:30 - 23:00, Monday : 10:30 - 23:00, Saturday : 10:30 - 23:00, Thuesday : 10:30 - 23:00, Sunday : 10:30 - 23:00, Wednesday : 10:30 - 23:00, Thursday : 10:30 - 23:00",Garden,CO,,10550 E Garden Drive,39.693518,80012
"1-888-736-2224, 303-758-6398",Denver,,,,USA,Suite B,-104.905584,"Friday : 10:30 - 22:30, Monday : 10:30 - 22:00, Saturday : 10:30 - 22:30, Thuesday : 10:30 - 22:00, Sunday : 10:30 - 22:00, Wednesday : 10:30 - 22:00, Thursday : 10:30 - 22:00",Hampden,CO,,7155 E Hampden Ave,39.653176,80224
"1-888-736-2224, 303-986-0973",Lakewood,,,,USA,Unit 100,-105.135365,"Friday : 07:00 - 23:00, Monday : 07:00 - 22:00, Saturday : 07:00 - 23:00, Thuesday : 07:00 - 22:00, Sunday : 07:00 - 22:00, Wednesday : 07:00 - 22:00, Thursday : 07:00 - 22:00",Alameda & Union,CO,,12027 W Alameda Pkwy,39.709296,80228
"1-888-736-2224, 303-806-9500",Englewood,,,,USA,Unit B2,-104.987915,"Friday : 10:00 - 22:00, Monday : 10:00 - 22:00, Saturday : 11:00 - 21:00, Thuesday : 10:00 - 22:00, Sunday : 11:00 - 21:00, Wednesday : 10:00 - 22:00, Thursday : 10:00 - 22:00",Broadway,CO,,5188 S Broadway,39.622125,80113
"1-888-736-2224, 720-898-1850",Arvada,,,,USA,Unit B2,-105.082014,"Friday : 10:30 - 22:30, Monday : 10:30 - 22:30, Saturday : 10:30 - 22:30, Thuesday : 10:30 - 22:30, Sunday : 10:30 - 22:30, Wednesday : 10:30 - 22:30, Thursday : 10:30 - 22:30",Wadsworth,CO,,8031 Wadsworth Blvd,39.842971,80003
"1-888-736-2224, 303-745-0502",Aurora,,,,USA,Bldg A,-104.847442,"Friday : 10:00 - 22:30, Monday : 10:00 - 22:30, Saturday : 11:00 - 22:00, Thuesday : 10:00 - 22:30, Sunday : 11:00 - 21:00, Wednesday : 10:00 - 22:30, Thursday : 10:00 - 22:30",Peoria,CO,,2295 S Peoria,39.674901,80014
303-278-7805,Lakewood,,,,USA,Space FC06,-105.158234,"Friday : 10:00 - 21:00, Monday : 10:00 - 21:00, Saturday : 10:00 - 21:00, Thuesday : 10:00 - 21:00, Sunday : 11:00 - 20:00, Wednesday : 10:00 - 21:00, Thursday : 10:00 - 21:00",Colorado Mills Mall,CO,,14500 W Colfax Ave,39.731992,80401
"1-888-736-2224, 303-221-3366",Denver,,,,USA,Unit 102,-104.894823,"Friday : 10:30 - 21:00, Monday : 10:30 - 21:00, Saturday : 10:30 - 21:00, Thuesday : 10:30 - 21:00, Sunday : 10:30 - 20:00, Wednesday : 10:30 - 21:00, Thursday : 10:30 - 21:00",Ulster,CO,,4955 S Ulster St,39.626905,80237
"1-888-736-2224, 303-426-4072",Westminster,,,,USA,Suite 100,-105.053366,"Friday : 10:30 - 22:00, Monday : 10:30 - 22:00, Saturday : 10:30 - 22:00, Thuesday : 10:30 - 22:00, Sunday : 10:30 - 22:00, Wednesday : 10:30 - 22:00, Thursday : 10:30 - 22:00",Sheridan,CO,,9379 Sheridan Blvd,39.867564,80031
"1-888-736-2224, 303-255-6860",Thornton,,,,USA,,-104.983575,"Friday : 10:30 - 22:00, Monday : 10:30 - 22:00, Saturday : 10:30 - 22:00, Thuesday : 10:30 - 22:00, Sunday : 10:30 - 22:00, Wednesday : 10:30 - 22:00, Thursday : 10:30 - 22:00",Thornton,CO,,10018 Grant St,39.878123,80229
"1-202-600-6400, 202-331-3045",Washington,,,,USA,Ste 120,-77.042571,"Friday : 07:00 - 22:00, Monday : 07:00 - 22:00, Saturday : 08:00 - 21:00, Thuesday : 07:00 - 22:00, Wednesday : 07:00 - 22:00, Thursday : 07:00 - 22:00",1850 M St,DC,,1850 M St NW,38.905589,20036
"1-202-600-6400, 202-347-8477",Washington,,,,USA,,-77.026989,"Friday : 07:00 - 23:00, Monday : 07:00 - 22:00, Saturday : 08:00 - 23:00, Thuesday : 07:00 - 22:00, Sunday : 08:00 - 21:00, Wednesday : 07:00 - 22:00, Thursday : 07:00 - 23:00",11th St.,DC,,555 11th St NW,38.896749,20004
571-302-5169,Washington,,,,USA,Room 2C353,-77.05555,"Friday : 10:30 - 22:00, Monday : 10:30 - 22:00, Saturday : 10:30 - 22:00, Thuesday : 10:30 - 22:00, Sunday : 10:30 - 22:00, Wednesday : 10:30 - 22:00, Thursday : 10:30 - 22:00",Pentagon,DC,,2024 Concessions Pentagon,38.87055,20301
703-415-4410,Arlington,,,,USA,"Terminal B, Level 2, Room 31",-77.04419,"Friday : 10:00 - 22:00, Monday : 10:00 - 22:00, Saturday : 10:00 - 22:00, Thuesday : 10:00 - 22:00, Sunday : 10:00 - 22:00, Wednesday : 10:00 - 22:00, Thursday : 10:00 - 22:00",Reagan Airport,VA,,1 Aviation Cir,38.857335,22202
"1-202-600-6400, 301-565-8192",Silver Spring,,,,USA,Unit A1,-77.029061,"Friday : 07:00 - 22:00, Monday : 07:00 - 22:00, Saturday : 08:00 - 22:00, Thuesday : 07:00 - 22:00, Sunday : 08:00 - 21:00, Wednesday : 07:00 - 22:00, Thursday : 07:00 - 22:00",Colesville,MD,,8515 Colesville Rd,38.995583,20910
"1-202-600-6400, 301-985-1260",Hyattsville,,,,USA,,-76.952267,"Friday : 07:00 - 22:00, Monday : 07:00 - 22:00, Saturday : 08:00 - 22:00, Thuesday : 07:00 - 22:00, Sunday : 08:00 - 21:00, Wednesday : 07:00 - 22:00, Thursday : 07:00 - 22:00",Hyattsville,MD,,6450 America Blvd,38.967567,20782
"1-202-600-6400, 703-933-8712",Falls Church,,,,USA,,-77.130744,"Friday : 07:00 - 22:00, Monday : 07:00 - 22:00, Saturday : 08:00 - 22:00, Thuesday : 07:00 - 22:00, Sunday : 08:00 - 21:00, Wednesday : 07:00 - 22:00, Thursday : 07:00 - 22:00",Crossroads,VA,,5872 Crossroads Ctr Way,38.852285,22041
"1-202-600-6400, 301-625-3290",Silver Spring,,,,USA,,-76.967364,"Friday : 07:00 - 22:00, Monday : 07:00 - 22:00, Saturday : 08:00 - 22:00, Thuesday : 07:00 - 22:00, Sunday : 08:00 - 21:00, Wednesday : 07:00 - 22:00, Thursday : 07:00 - 22:00",Tech,MD,,12265 Tech Rd,39.056817,20904
"1-202-600-6400, 301-358-2271",Rockville,,,,USA,,-77.122078,"Friday : 07:00 - 22:00, Monday : 07:00 - 22:00, Saturday : 08:00 - 22:00, Thuesday : 07:00 - 22:00, Sunday : 08:00 - 21:00, Wednesday : 07:00 - 22:00, Thursday : 07:00 - 22:00",Rollins,MD,,128 Rollins Ave,39.058729,20852
"1-703-273-8202, 703-273-8202",Fairfax,,,,USA,,-77.302727,"Friday : 11:00 - 22:00, Monday : 11:00 - 22:00, Saturday : 11:00 - 22:00, Thuesday : 11:00 - 22:00, Sunday : 11:00 - 21:00, Wednesday : 11:00 - 22:00, Thursday : 11:00 - 22:00",Fairfax,VA,,10338 Main St,38.84554,22030
"1-888-736-2224, 703-796-1101",Herndon,,,,USA,,-77.399804,"Friday : 11:00 - 21:00, Monday : 11:00 - 21:00, Saturday : 11:00 - 21:00, Thuesday : 11:00 - 21:00, Sunday : 11:00 - 20:00, Wednesday : 11:00 - 21:00, Thursday : 11:00 - 21:00",Worldgate,VA,,13031 Worldgate Dr,38.957654,20170
"1-888-736-2224, 410-721-2205",Gambrills,,,,USA,,-76.678953,"Friday : 10:30 - 23:00, Monday : 10:30 - 22:00, Saturday : 10:30 - 23:00, Thuesday : 10:30 - 22:00, Sunday : 10:30 - 21:00, Wednesday : 10:30 - 22:00, Thursday : 10:30 - 22:00",Waugh Chapel,MD,,1404 S Main Chapel Way,39.038876,21054
"1-571-285-4276, 571-285-4276",Woodbridge,,,,USA,,-77.298001,"Friday : 11:00 - 22:00, Monday : 11:00 - 22:00, Saturday : 11:00 - 22:00, Thuesday : 11:00 - 22:00, Sunday : 11:00 - 21:00, Wednesday : 11:00 - 22:00, Thursday : 11:00 - 22:00",Prince William,VA,,2824 Prince William Pkwy,38.651794,22192
"1-202-600-6400, 410-740-6977",Columbia,,,,USA,,-76.820701,"Friday : 07:00 - 22:00, Monday : 07:00 - 22:00, Saturday : 08:00 - 22:00, Thuesday : 07:00 - 22:00, Sunday : 08:00 - 21:00, Wednesday : 07:00 - 22:00, Thursday : 07:00 - 22:00",Dobbin,MD,,6476 Dobbin Center Way,39.197256,21045
"1-888-736-2224, 571-292-1158",Manassas,,,,USA,,-77.449781,"Friday : 11:00 - 22:00, Monday : 11:00 - 22:00, Saturday : 11:00 - 22:00, Thuesday : 11:00 - 22:00, Sunday : 11:00 - 21:00, Wednesday : 11:00 - 22:00, Thursday : 11:00 - 22:00",Liberia,VA,,9674 Liberia Ave,38.748162,20110
"1-888-736-2224, 410-266-6382",Annapolis,,,,USA,Ste 125,-76.543422,"Friday : 11:00 - 22:00, Monday : 11:00 - 22:00, Saturday : 11:00 - 22:00, Thuesday : 11:00 - 22:00, Sunday : 11:00 - 21:00, Wednesday : 11:00 - 22:00, Thursday : 11:00 - 22:00",Towne Centre,MD,,1901 Towne Centre Blvd,38.981683,21401
"1-888-736-2224, 410-203-0010",Ellicott City,,,,USA,Suite 101,-76.824712,"Friday : 11:00 - 22:00, Monday : 11:00 - 22:00, Saturday : 11:00 - 22:00, Thuesday : 11:00 - 22:00, Sunday : 11:00 - 21:00, Wednesday : 11:00 - 22:00, Thursday : 11:00 - 22:00",Ellicott City,MD,,9050 Baltimore National Pkwy,39.276981,21042
"1-888-736-2224, 615-340-9039",Nashville,,,,USA,Bldg A,-86.799594,"Friday : 06:30 - 05:00, Monday : 06:30 - 02:00, Saturday : 06:30 - 05:00, Thuesday : 06:30 - 02:00, Sunday : 06:30 - 00:00, Wednesday : 06:30 - 02:00, Thursday : 06:30 - 05:00",West End,TN,,2019 West End Ave,36.151167,37203
"1-888-736-2224, 615-221-2152",Brentwood,,,,USA,Suite 120,-86.778796,"Friday : 10:30 - 22:00, Monday : 10:30 - 22:00, Saturday : 10:30 - 22:00, Thuesday : 10:30 - 22:00, Sunday : 10:30 - 22:00, Wednesday : 10:30 - 22:00, Thursday : 10:30 - 22:00",Old Hickory,TN,,782 Old Hickory Blvd,36.041297,37027
"1-888-736-2224, 615-823-3851",Hermitage,,,,USA,Suite 201,-86.614966,"Friday : 10:30 - 22:00, Monday : 10:30 - 22:00, Saturday : 10:30 - 22:00, Thuesday : 10:30 - 22:00, Sunday : 10:30 - 22:00, Wednesday : 10:30 - 22:00, Thursday : 10:30 - 22:00",Hermitage,TN,,5225 Old Hickory Blvd,36.189784,37076
"1-888-736-2224, 617-248-0763",Boston,,,,USA,,-71.062174,"Friday : 11:00 - 22:00, Monday : 11:00 - 22:00, Saturday : 11:00 - 22:00, Thuesday : 11:00 - 22:00, Sunday : 11:00 - 22:00, Wednesday : 11:00 - 22:00, Thursday : 11:00 - 22:00",Causeway,MA,,101 Causeway St,42.364836,02114
"1-888-736-2224, 617-437-1930",Boston,,,,USA,,-71.09579,"Friday : 10:30 - 23:00, Monday : 10:30 - 23:00, Saturday : 10:30 - 23:00, Thuesday : 10:30 - 23:00, Sunday : 10:30 - 23:00, Wednesday : 10:30 - 23:00, Thursday : 10:30 - 23:00",Commonwealth 2,MA,,540 Commonwealth Ave,42.348729,02215
"1-888-736-2224, 617-450-0910",Boston,,,,USA,Ste 101,-71.090922,"Friday : 10:30 - 00:00, Monday : 10:30 - 23:00, Saturday : 10:30 - 00:00, Thuesday : 10:30 - 23:00, Sunday : 10:30 - 22:00, Wednesday : 10:30 - 23:00, Thursday : 10:30 - 00:00",Huntington,MA,,393 Huntington Ave,42.339672,02115
"1-888-736-2224, 617-871-1136",Cambridge,,,,USA,,-71.11679,"Friday : 10:30 - 23:00, Monday : 10:30 - 23:00, Saturday : 10:30 - 23:00, Thuesday : 10:30 - 23:00, Sunday : 10:30 - 22:00, Wednesday : 10:30 - 23:00, Thursday : 10:30 - 23:00",Cambridge,MA,,1280 Massachusetts Ave,42.372757,02138
"1-888-736-2224, 339-674-9010",Medford,,,,USA,,-71.081922,"Friday : 10:30 - 23:00, Monday : 10:30 - 22:00, Saturday : 10:30 - 23:00, Thuesday : 10:30 - 22:00, Sunday : 11:00 - 22:00, Wednesday : 10:30 - 22:00, Thursday : 10:30 - 22:00",Fellsway,MA,,523 Fellsway,42.403822,02155
"1-888-736-2224, 781-843-4111",Braintree,,,,USA,Space C,-71.029139,"Friday : 10:30 - 23:00, Monday : 10:30 - 22:00, Saturday : 10:30 - 23:00, Thuesday : 10:30 - 22:00, Sunday : 10:30 - 22:00, Wednesday : 10:30 - 22:00, Thursday : 10:30 - 22:00",Forbes & Granite,MA,,30 Forbes Rd,42.220491,02184
"1-888-736-2224, 781-933-5402",Woburn,,,,USA,Suite 1a,-71.133925,"Friday : 10:30 - 22:00, Monday : 10:30 - 22:00, Saturday : 10:30 - 22:00, Thuesday : 10:30 - 22:00, Sunday : 10:30 - 22:00, Wednesday : 10:30 - 22:00, Thursday : 10:30 - 22:00",Mishawum,MA,,300 Mishawum Rd,42.503647,01801
"1-888-736-2224, 781-471-5204",Dedham,,,,USA,,-71.17984,"Friday : 10:30 - 23:00, Monday : 10:30 - 22:00, Saturday : 10:30 - 23:00, Thuesday : 10:30 - 22:00, Sunday : 10:30 - 22:00, Wednesday : 10:30 - 22:00, Thursday : 10:30 - 22:00",Dedham,MA,,756 Legacy Pl,42.23293,02026
"1-888-736-2224, 781-862-0920",Lexington,,,,USA,,-71.232356,"Friday : 10:30 - 22:00, Monday : 10:30 - 22:00, Saturday : 10:30 - 22:00, Thuesday : 10:30 - 22:00, Sunday : 10:30 - 22:00, Wednesday : 10:30 - 22:00, Thursday : 10:30 - 22:00",Bedford St.,MA,,46 Bedford St,42.452621,02420
"1-888-736-2224, 781-273-1057",Burlington,,,,USA,,-71.217026,"Friday : 10:30 - 21:00, Monday : 10:30 - 21:00, Saturday : 10:30 - 21:00, Thuesday : 10:30 - 21:00, Sunday : 10:30 - 21:00, Wednesday : 10:30 - 21:00, Thursday : 10:30 - 21:00",Middlesex Marketplace,MA,,90 Middlesex Turnpike,42.478502,01803
"1-888-736-2224, 781-715-0788",Swampscott,,,,USA,,-70.900764,"Friday : 11:00 - 22:00, Monday : 11:00 - 22:00, Saturday : 11:00 - 22:00, Thuesday : 11:00 - 22:00, Sunday : 11:00 - 21:00, Wednesday : 11:00 - 22:00, Thursday : 11:00 - 22:00",Paradise Road,MA,,1016 Paradise Rd,42.484779,01907
"1-888-736-2224, 781-235-3390",Wellesley,,,,USA,,-71.290955,"Friday : 10:30 - 23:00, Monday : 10:30 - 22:00, Saturday : 10:30 - 23:00, Thuesday : 10:30 - 22:00, Sunday : 10:30 - 22:00, Wednesday : 10:30 - 22:00, Thursday : 10:30 - 22:00",Linden,MA,,185 Linden St,42.300608,02482
"1-888-736-2224, 978-818-6232",Peabody,,,,USA,,-70.946307,"Friday : 10:30 - 22:00, Monday : 10:30 - 22:00, Saturday : 10:30 - 22:00, Thuesday : 10:30 - 22:00, Sunday : 10:30 - 21:00, Wednesday : 10:30 - 22:00, Thursday : 10:30 - 22:00",Andover,MA,,229 Andover St,42.546246,01960
"1-888-736-2224, 508-337-2400",Mansfield,,,,USA,Suite D100,-71.230694,"Friday : 10:30 - 22:00, Monday : 10:30 - 22:00, Saturday : 10:30 - 22:00, Thuesday : 10:30 - 22:00, Sunday : 10:30 - 21:00, Wednesday : 10:30 - 22:00, Thursday : 10:30 - 22:00",School,MA,,280 School St,42.015253,02048
"1-888-736-2224, 978-5670630",Hudson,,,,USA,,-71.596008,"Friday : 10:30 - 22:00, Monday : 10:30 - 22:00, Saturday : 10:30 - 22:00, Thuesday : 10:30 - 22:00, Sunday : 10:30 - 22:00, Wednesday : 10:30 - 22:00, Thursday : 10:30 - 22:00",Highland Commons,MA,,42 Highland Common E,42.394469,01749
"1-405-488-8979, 405-792-7999",Oklahoma City,,,,USA,,-97.62676,"Friday : 10:30 - 22:00, Monday : 10:30 - 22:00, Saturday : 10:30 - 22:00, Thuesday : 10:30 - 22:00, Sunday : 10:30 - 22:00, Wednesday : 10:30 - 22:00, Thursday : 10:30 - 22:00",Westgate Marketplace,OK,,6432 Sw 3rd St,35.46223,73128
"1-405-488-8979, 405-455-5151",Midwest City,,,,USA,,-97.403261,"Friday : 10:30 - 22:00, Monday : 10:30 - 22:00, Saturday : 10:30 - 22:00, Thuesday : 10:30 - 22:00, Sunday : 10:30 - 22:00, Wednesday : 10:30 - 22:00, Thursday : 10:30 - 22:00",SE 29th Street,OK,,7191 Se 29th St,35.435332,73110
"1-405-488-8979, 405-703-8811",Oklahoma City,,,,USA,,-97.54974,"Friday : 10:30 - 22:00, Monday : 10:30 - 22:00, Saturday : 10:30 - 22:00, Thuesday : 10:30 - 22:00, Sunday : 10:30 - 22:00, Wednesday : 10:30 - 22:00, Thursday : 10:30 - 22:00",SW 104th Street,OK,,2145 Sw 104th St,35.36332,73159
"1-405-488-8979, 405-470-7772",Oklahoma City,,,,USA,Suite A,-97.636915,"Friday : 10:30 - 22:00, Monday : 10:30 - 22:00, Saturday : 10:30 - 22:00, Thuesday : 10:30 - 22:00, Sunday : 10:30 - 22:00, Wednesday : 10:30 - 22:00, Thursday : 10:30 - 22:00",NW Expressway,OK,,7002 Northwest Expressway,35.557187,73132
"1-405-488-8979, 405-752-9878",Oklahoma City,,,,USA,Ste 1,-97.549315,"Friday : 10:30 - 22:00, Monday : 10:30 - 22:00, Saturday : 10:30 - 22:00, Thuesday : 10:30 - 22:00, Sunday : 10:30 - 22:00, Wednesday : 10:30 - 22:00, Thursday : 10:30 - 22:00",Pennsylvania,OK,,13720 N Pennsylvania Ave,35.61,73134
"1-405-488-8979, 405-378-2017",Moore,,,,USA,Suite A,-97.497316,"Friday : 10:30 - 22:00, Monday : 10:30 - 22:00, Saturday : 10:30 - 22:00, Thuesday : 10:30 - 22:00, Sunday : 10:30 - 22:00, Wednesday : 10:30 - 22:00, Thursday : 10:30 - 22:00",SW 19th Street,OK,,660 SW 19th St,35.319749,73160
"1-405-488-8979, 405-513-5200",Edmond,,,,USA,,-97.460526,"Friday : 10:30 - 22:00, Monday : 10:30 - 22:00, Saturday : 10:30 - 22:00, Thuesday : 10:30 - 22:00, Sunday : 10:30 - 22:00, Wednesday : 10:30 - 22:00, Thursday : 10:30 - 22:00",Bryant,OK,,301 S Bryant St,35.651678,73034
405-285-0355,Edmond,,,,USA,,-97.501564,"Friday : 10:30 - 22:00, Monday : 10:30 - 22:00, Saturday : 10:30 - 22:00, Thuesday : 10:30 - 22:00, Sunday : 10:30 - 22:00, Wednesday : 10:30 - 22:00, Thursday : 10:30 - 22:00",Covell and Kelly,OK,,1300 W Covell Rd,35.681501,73003
"1-405-488-8979, 405-701-5655",Norman,,,,USA,,-97.482311,"Friday : 10:30 - 22:00, Monday : 10:30 - 22:00, Saturday : 10:30 - 22:00, Thuesday : 10:30 - 22:00, Sunday : 10:30 - 22:00, Wednesday : 10:30 - 22:00, Thursday : 10:30 - 22:00",24th Avenue,OK,,1800 24th Ave Nw,35.240399,73069
"1-888-736-2224, 443-449-6733",Baltimore,,,,USA,Suite G,-76.567385,"Friday : 10:30 - 22:00, Monday : 10:30 - 22:00, Saturday : 10:30 - 22:00, Thuesday : 10:30 - 22:00, Sunday : 10:30 - 21:00, Wednesday : 10:30 - 22:00, Thursday : 10:30 - 22:00",Boston Street,MD,,3500 Boston St,39.277228,21224
"1-888-736-2224, 410-323-4009",Baltimore,,,,USA,,-76.609857,"Friday : 11:00 - 22:00, Monday : 11:00 - 22:00, Saturday : 11:00 - 22:00, Thuesday : 11:00 - 22:00, Sunday : 11:00 - 21:00, Wednesday : 11:00 - 22:00, Thursday : 11:00 - 22:00",York Road,MD,,6304 1/2 York Rd,39.371481,21212
"1-202-600-6400, 410-760-6677",Glen Burnie,,,,USA,Suite B,-76.613208,"Friday : 07:00 - 22:00, Monday : 07:00 - 22:00, Saturday : 08:00 - 22:00, Thuesday : 07:00 - 22:00, Sunday : 08:00 - 21:00, Wednesday : 07:00 - 22:00, Thursday : 07:00 - 22:00",Ritchie,MD,,6653 Ritchie Hwy,39.195838,21061
"1-888-736-2224, 410-296-2787",Towson,,,,USA,,-76.57719,"Friday : 11:00 - 22:00, Monday : 11:00 - 21:30, Saturday : 11:00 - 22:00, Thuesday : 11:00 - 21:30, Sunday : 11:00 - 21:00, Wednesday : 11:00 - 21:30, Thursday : 11:00 - 21:30",Joppa,MD,,1255 E Joppa Rd,39.396057,21286
"1-888-736-2224, 410-933-8860",Baltimore,,,,USA,Suite G,-76.451433,"Friday : 11:00 - 22:00, Monday : 11:00 - 22:00, Saturday : 11:00 - 22:00, Thuesday : 11:00 - 22:00, Sunday : 11:00 - 21:30, Wednesday : 11:00 - 22:00, Thursday : 11:00 - 22:00",Campbell,MD,,5282 Campbell Blvd,39.368444,21236
"1-888-736-2224, 410-252-4424",Timonium,,,,USA,Ste 100,-76.627464,"Friday : 11:00 - 22:00, Monday : 11:00 - 21:30, Saturday : 11:00 - 22:00, Thuesday : 11:00 - 21:30, Sunday : 11:00 - 21:00, Wednesday : 11:00 - 21:30, Thursday : 11:00 - 21:30",York,MD,,2157 York Rd,39.44351,21093
"1-888-736-2224, 410-356-2077",Owings Mills,,,,USA,Suite 100,-76.778831,"Friday : 10:30 - 22:30, Monday : 10:30 - 22:30, Saturday : 10:30 - 22:30, Thuesday : 10:30 - 22:30, Sunday : 11:00 - 21:00, Wednesday : 10:30 - 22:30, Thursday : 10:30 - 22:30",Owings Mills,MD,,10450 Owings Mills Blvd,39.419303,21117
"1-888-736-2224, 410-552-5468",Eldersburg,,,,USA,,-76.948846,"Friday : 11:00 - 22:00, Monday : 11:00 - 22:00, Saturday : 11:00 - 22:00, Thuesday : 11:00 - 22:00, Sunday : 11:00 - 21:00, Wednesday : 11:00 - 22:00, Thursday : 11:00 - 22:00",Eldersburg,MD,,1325 Liberty Rd,39.403443,21784
"1-888-736-2224, 410-838-2995",Bel Aire,,,,USA,Suite 502,-76.356783,"Friday : 10:30 - 22:00, Monday : 10:30 - 21:30, Saturday : 10:30 - 22:00, Thuesday : 10:30 - 21:30, Sunday : 11:00 - 20:00, Wednesday : 10:30 - 21:30, Thursday : 10:30 - 21:30",Harford Mall,MD,,696 Belair Rd,39.52401,21014
"1-888-736-2224, 502-855-4450",Louisville,,,,USA,,-85.757183,"Friday : 07:00 - 20:00, Monday : 07:00 - 20:00, Saturday : 11:00 - 17:00, Thuesday : 07:00 - 20:00, Sunday : 11:00 - 17:00, Wednesday : 07:00 - 20:00, Thursday : 07:00 - 20:00",S. 4th St.,KY,,312 S 4th St,38.252915,40202
"1-888-736-2224, 502-442-0201",Louisville,,,,USA,,-85.761089,"Friday : 07:00 - 23:00, Monday : 07:00 - 22:00, Saturday : 08:00 - 23:00, Thuesday : 07:00 - 22:00, Sunday : 08:00 - 22:00, Wednesday : 07:00 - 22:00, Thursday : 07:00 - 22:00",University of Louisville,KY,,1832 S 3rd St,38.221473,40208
"1-888-736-2224, 502-454-3380",Louisville,,,,USA,"Bldg 600, Ste 115",-85.709292,"Friday : 06:00 - 06:00, Monday : 10:30 - 22:00, Saturday : 06:00 - 06:00, Thuesday : 10:30 - 22:00, Sunday : 06:00 - 22:00, Wednesday : 10:30 - 22:00, Thursday : 10:30 - 06:00",Schuster,KY,,1500 Bardstown Rd,38.231916,40205
"1-888-736-2224, 502-637-5405",Louisville,,,,USA,,-85.722524,"Friday : 10:30 - 23:00, Monday : 10:30 - 22:30, Saturday : 10:30 - 23:00, Thuesday : 10:30 - 22:30, Sunday : 10:30 - 22:00, Wednesday : 10:30 - 22:30, Thursday : 10:30 - 22:30",Poplar Level,KY,,3021 Poplar Level Rd,38.21363,40213
"1-888-736-2224, 812-206-2077",Clarksville,,,,USA,Suite 500,-85.759987,"Friday : 10:30 - 22:30, Monday : 10:30 - 22:30, Saturday : 10:30 - 22:30, Thuesday : 10:30 - 22:30, Sunday : 10:30 - 22:30, Wednesday : 10:30 - 22:30, Thursday : 10:30 - 22:30",Veterans,IN,,1305 Veterans Pkwy,38.328732,47129
"1-888-736-2224, 812-944-2000",New Albany,,,,USA,,-85.8407,"Friday : 10:30 - 22:30, Monday : 10:30 - 22:30, Saturday : 10:30 - 22:30, Thuesday : 10:30 - 22:30, Sunday : 10:30 - 22:30, Wednesday : 10:30 - 22:30, Thursday : 10:30 - 22:30",Wesley Commons,IN,,2216 State St,38.307176,47150
"1-888-736-2224, 502-721-8100",Louisville,,,,USA,Ste A-6,-85.640869,"Friday : 10:30 - 22:00, Monday : 10:30 - 22:00, Saturday : 10:30 - 22:00, Thuesday : 10:30 - 22:00, Sunday : 10:30 - 22:00, Wednesday : 10:30 - 22:00, Thursday : 10:30 - 22:00",Louisville,KY,,970 Breckenridge Ln,38.234821,40207
"1-888-736-2224, 502-618-3622",Louisville,,,,USA,Suite 150,-85.615081,"Friday : 10:30 - 22:00, Monday : 10:30 - 22:00, Saturday : 10:30 - 18:00, Thuesday : 10:30 - 22:00, Wednesday : 10:30 - 22:00, Thursday : 10:30 - 22:00",Herr,KY,,1321 Herr Lane,38.269646,40222
"1-888-736-2224, 502-855-4452",Louisville,,,,USA,,-85.836653,"Friday : 10:30 - 22:30, Monday : 10:30 - 22:00, Saturday : 10:30 - 22:30, Thuesday : 10:30 - 22:00, Sunday : 10:30 - 22:00, Wednesday : 10:30 - 22:00, Thursday : 10:30 - 22:00",Dixie Highway,KY,,6814 Dixie Hwy,38.151569,40258
"1-888-736-2224, 502-493-9606",Louisville,,,,USA,Ste 100,-85.603203,"Friday : 10:30 - 22:00, Monday : 10:30 - 22:00, Saturday : 10:30 - 22:00, Thuesday : 10:30 - 22:00, Sunday : 10:30 - 21:00, Wednesday : 10:30 - 22:00, Thursday : 10:30 - 22:00",Hurstbourne,KY,,2730 S Hurstbourne Pkwy,38.203319,40220
"1-888-736-2224, 502-964-3202",Louisville,,,,USA,,-85.666389,"Friday : 10:30 - 22:00, Monday : 10:30 - 22:00, Saturday : 10:30 - 22:00, Thuesday : 10:30 - 22:00, Sunday : 10:30 - 22:00, Wednesday : 10:30 - 22:00, Thursday : 10:30 - 22:00",Jefferson Commons,KY,,4921 Outer Loop,38.138331,40219
"1-888-736-2224, 502-412-6202",Louisville,,,,USA,Ste 502,-85.575117,"Friday : 10:30 - 22:00, Monday : 10:30 - 22:00, Saturday : 10:30 - 22:00, Thuesday : 10:30 - 22:00, Sunday : 10:30 - 21:00, Wednesday : 10:30 - 22:00, Thursday : 10:30 - 22:00",Daventry,KY,,100 Daventry Ln,38.246295,40223
"1-888-736-2224, 502-429-5151",Louisville,,,,USA,Ste D400,-85.575893,"Friday : 10:30 - 23:00, Monday : 10:30 - 22:00, Saturday : 10:30 - 23:00, Thuesday : 10:30 - 22:00, Sunday : 10:30 - 21:00, Wednesday : 10:30 - 22:00, Thursday : 10:30 - 22:00",Summit,KY,,4059 Summit Plaza Dr,38.308259,40241
"1-888-736-2224, 502-239-0258",Louisville,,,,USA,,-85.587831,"Friday : 10:30 - 22:00, Monday : 10:30 - 22:00, Saturday : 10:30 - 22:00, Thuesday : 10:30 - 22:00, Sunday : 10:30 - 22:00, Wednesday : 10:30 - 22:00, Thursday : 10:30 - 22:00",Harley Center,KY,,6403 Bardstown Rd,38.153542,40291
"1-888-736-2224, 502-261-1900",Louisville,,,,USA,,-85.538734,"Friday : 10:30 - 22:00, Monday : 10:30 - 22:00, Saturday : 10:30 - 22:00, Thuesday : 10:30 - 22:00, Sunday : 11:00 - 21:00, Wednesday : 10:30 - 22:00, Thursday : 10:30 - 22:00",Blankenbaker,KY,,1831 Blankenbaker Pkwy,38.216167,40299
"1-888-736-2224, 502-736-6198",Louisville,,,,USA,,-85.666583,"Friday : 10:30 - 23:00, Monday : 10:30 - 22:00, Saturday : 10:30 - 23:00, Thuesday : 10:30 - 22:00, Sunday : 23:00 - 21:00, Wednesday : 10:30 - 22:00, Thursday : 10:30 - 22:00",Preston,KY,,11910 Standiford Plaza Dr,38.088718,40229
"1-888-736-2224, 502-244-6703",Louisville,,,,USA,Suite 101,-85.51518,"Friday : 10:30 - 22:00, Monday : 10:30 - 22:00, Saturday : 10:30 - 22:00, Thuesday : 10:30 - 22:00, Sunday : 10:30 - 21:00, Wednesday : 10:30 - 22:00, Thursday : 10:30 - 22:00",Middletown,KY,,13006 Shelbyville Rd,38.243082,40243
"1-503-241-1144, 503-241-1144",Portland,,,,USA,,-122.678407,"Friday : 07:00 - 21:00, Monday : 07:00 - 21:00, Saturday : 09:00 - 21:00, Thuesday : 07:00 - 21:00, Sunday : 09:00 - 19:00, Wednesday : 07:00 - 21:00, Thursday : 07:00 - 21:00",Taylor,OR,,505 Sw Taylor St,45.517564,97204
"1-503-688-5551, 503-688-5551",Portland,,,,USA,,-122.657287,"Friday : 07:00 - 21:00, Monday : 07:00 - 21:00, Saturday : 09:00 - 21:00, Thuesday : 07:00 - 21:00, Sunday : 09:00 - 19:00, Wednesday : 07:00 - 21:00, Thursday : 07:00 - 21:00",Weidler,OR,,825 Ne Weidler St,45.534412,97232
"1-503-643-5820, 503-643-5820",Beaverton,,,,USA,,-122.795918,"Friday : 08:00 - 22:00, Monday : 08:00 - 21:00, Saturday : 09:00 - 22:00, Thuesday : 08:00 - 21:00, Sunday : 09:00 - 21:00, Wednesday : 08:00 - 21:00, Thursday : 08:00 - 21:00",Griffith,OR,,4655 Sw Griffith Dr,45.486099,97005
"1-503-670-7800, 503-670-7800",Tigard,,,,USA,,-122.750569,"Friday : 07:00 - 22:00, Monday : 07:00 - 22:00, Saturday : 08:00 - 22:00, Thuesday : 07:00 - 22:00, Sunday : 08:00 - 22:00, Wednesday : 07:00 - 22:00, Thursday : 07:00 - 22:00",Hazelfern,OR,,7132 Sw Hazelfern Rd,45.394372,97224
"1-503-645-2244, 503-645-2244",Hillsboro,,,,USA,Suite 850,-122.876729,"Friday : 09:00 - 22:00, Monday : 09:00 - 21:00, Saturday : 09:00 - 22:00, Thuesday : 09:00 - 21:00, Sunday : 09:00 - 21:00, Wednesday : 09:00 - 21:00, Thursday : 09:00 - 21:00",Allie,OR,,2288 Nw Allie Ave,45.536694,97124
"1-360-448-6996, 360-448-6996",Camas,,,,USA,Suite 101,-122.475805,"Friday : 10:30 - 21:00, Monday : 10:30 - 21:00, Saturday : 10:30 - 21:00, Thuesday : 10:30 - 21:00, Sunday : 10:30 - 21:00, Wednesday : 10:30 - 21:00, Thursday : 10:30 - 21:00",192nd Avenue,WA,,155 NE 192nd Ave,45.621447,98607
"1-503-783-1711, 503-783-1711",Wilsonville,,,,USA,Suite 24,-122.772717,"Friday : 09:00 - 21:00, Monday : 09:00 - 21:00, Saturday : 09:00 - 21:00, Thuesday : 09:00 - 21:00, Sunday : 09:00 - 21:00, Wednesday : 09:00 - 21:00, Thursday : 09:00 - 21:00",Boones Ferry,OR,,30040 SW Boones Ferry Rd,45.302628,97070
"1-702-545-7255, 702-871-7022",Las Vegas,,,,USA,Unit 115,-115.209808,"Friday : 10:30 - 22:00, Monday : 10:30 - 22:00, Saturday : 10:30 - 22:00, Thuesday : 10:30 - 22:00, Sunday : 11:00 - 22:00, Wednesday : 10:30 - 22:00, Thursday : 10:30 - 22:00",Tropicana,NV,,5045 W Tropicana Ave,36.100638,89103
"1-702-545-7255, 702-832-5540",Enterprise,,,,USA,Suite 105,-115.242689,"Friday : 10:30 - 22:00, Monday : 10:30 - 22:00, Saturday : 10:30 - 22:00, Thuesday : 10:30 - 22:00, Sunday : 11:00 - 22:00, Wednesday : 10:30 - 22:00, Thursday : 10:30 - 22:00",Rainbow,NV,,6965 S Rainbow Blvd,36.061704,89113
"1-702-545-7255, 702-832-5579",Henderson,,,,USA,Suite 100,-115.046935,"Friday : 10:30 - 22:00, Monday : 10:30 - 22:00, Saturday : 10:30 - 22:00, Thuesday : 10:30 - 22:00, Sunday : 11:00 - 22:00, Wednesday : 10:30 - 22:00, Thursday : 10:30 - 22:00",Stephanie,NV,,175 N Stephanie St,36.039744,89074
"1-888-228-3794, 414-298-9800",Milwaukee,,,,USA,Suite 3050,-87.914111,"Friday : 10:00 - 19:00, Monday : 10:00 - 19:00, Saturday : 10:00 - 18:00, Thuesday : 10:00 - 19:00, Sunday : 11:00 - 17:00, Wednesday : 10:00 - 19:00, Thursday : 10:00 - 19:00",Grand Avenue Mall,WI,,275 W Wisconsin Ave,43.038727,53203
"1-888-228-3794, 414-389-8744",Milwaukee,,,,USA,,-87.910872,"Friday : 10:30 - 03:30, Monday : 10:30 - 22:00, Saturday : 11:00 - 03:30, Thuesday : 10:30 - 22:00, Wednesday : 10:30 - 22:00, Thursday : 10:30 - 02:30",Water,WI,,1150 N Water St,43.045341,53202
"1-888-228-3794, 414-431-0099",Milwaukee,,,,USA,,-87.933018,"Friday : 10:30 - 03:00, Monday : 10:30 - 23:00, Saturday : 10:30 - 03:00, Thuesday : 10:30 - 23:00, Sunday : 10:30 - 22:00, Wednesday : 10:30 - 23:00, Thursday : 10:30 - 02:30",Marquette,WI,,803 N 16th St,43.040391,53233
"1-888-228-3794, 414-332-3000",Milwaukee,,,,USA,,-87.887927,"Friday : 10:30 - 02:30, Monday : 10:30 - 23:00, Saturday : 10:30 - 02:30, Thuesday : 10:30 - 23:00, Sunday : 10:30 - 23:00, Wednesday : 10:30 - 23:00, Thursday : 10:30 - 02:00",Oakland,WI,,3101 Oakland Ave,43.074723,53211
"1-888-228-3794, 414-755-4604",Milwaukee,,,,USA,,-87.96893,"Friday : 10:30 - 22:00, Monday : 10:30 - 22:00, Saturday : 10:30 - 22:00, Thuesday : 10:30 - 22:00, Sunday : 10:30 - 22:00, Wednesday : 10:30 - 22:00, Thursday : 10:30 - 22:00",West Milwaukee,WI,,1240 Miller Park Way,43.019544,53214
"1-888-228-3794, 414-755-8001",Milwaukee,,,,USA,,-88.007905,"Friday : 10:30 - 23:00, Monday : 10:30 - 22:00, Saturday : 10:30 - 23:00, Thuesday : 10:30 - 22:00, Sunday : 10:30 - 22:00, Wednesday : 10:30 - 22:00, Thursday : 10:30 - 22:00",Wauwatosa Village,WI,,1417 N Wauwatosa Ave,43.050367,53213
"1-888-228-3794, 414-431-1913",Glendale,,,,USA,Unit K125,-87.914757,"Friday : 10:30 - 22:00, Monday : 10:30 - 22:00, Saturday : 10:30 - 22:00, Thuesday : 10:30 - 22:00, Sunday : 10:30 - 22:00, Wednesday : 10:30 - 22:00, Thursday : 10:30 - 22:00",Bayshore Mall,WI,,510 W Silver Spring Drive,43.118762,53217
"1-888-228-3794, 414-847-7003",Milwaukee,,,,USA,,-87.920433,"Friday : 10:30 - 22:00, Monday : 10:30 - 22:00, Saturday : 10:30 - 22:00, Thuesday : 10:30 - 22:00, Sunday : 10:30 - 22:00, Wednesday : 10:30 - 22:00, Thursday : 10:30 - 22:00",Layton,WI,,639 W Layton Ave,42.959101,53221
"1-888-228-3794, 414-431-2155",Wauwatosa,,,,USA,,-88.046758,"Friday : 10:30 - 22:00, Monday : 10:30 - 22:00, Saturday : 10:30 - 22:00, Thuesday : 10:30 - 22:00, Sunday : 10:30 - 22:00, Wednesday : 10:30 - 22:00, Thursday : 10:30 - 22:00",Mayfair Road,WI,,418 N Mayfair Rd,43.035959,53226
"1-888-228-3794, 414-321-3650",West Allis,,,,USA,,-88.047248,"Friday : 10:30 - 22:00, Monday : 10:30 - 22:00, Saturday : 10:30 - 22:00, Thuesday : 10:30 - 22:00, Sunday : 10:30 - 22:00, Wednesday : 10:30 - 22:00, Thursday : 10:30 - 22:00",West Allis,WI,,2831 S 108th St,42.992517,53227
"1-888-228-3794, 414-431-3900",Greenfield,,,,USA,Unit A,-88.008604,"Friday : 10:30 - 22:00, Monday : 10:30 - 22:00, Saturday : 10:30 - 22:00, Thuesday : 10:30 - 22:00, Sunday : 10:30 - 22:00, Wednesday : 10:30 - 22:00, Thursday : 10:30 - 22:00",Greenfield,WI,,5075 S 76th St,42.952488,53220
"1-888-228-3794, 414-462-1000",Wauwatosa,,,,USA,,-88.065192,"Friday : 06:00 - 22:00, Monday : 06:00 - 22:00, Saturday : 06:00 - 22:00, Thuesday : 06:00 - 22:00, Sunday : 07:00 - 22:00, Wednesday : 06:00 - 22:00, Thursday : 06:00 - 22:00",Capitol Drive,WI,,12345 W Capitol Dr,43.0888,53222
"1-888-228-3794, 262-432-3500",Brookfield,,,,USA,,-88.112355,"Friday : 10:30 - 22:00, Monday : 10:30 - 22:00, Saturday : 10:30 - 22:00, Thuesday : 10:30 - 22:00, Sunday : 10:30 - 22:00, Wednesday : 10:30 - 22:00, Thursday : 10:30 - 22:00",Brookfield,WI,,16005 W Bluemound Rd,43.036055,53005
"1-888-228-3794, 414-435-0117",Oak Creek,,,,USA,,-87.912058,"Friday : 10:30 - 22:00, Monday : 10:30 - 22:00, Saturday : 10:30 - 22:00, Thuesday : 10:30 - 22:00, Sunday : 10:30 - 22:00, Wednesday : 10:30 - 22:00, Thursday : 10:30 - 22:00",Oak Creek,WI,,8750 S Howell Ave,42.885347,53154
"1-888-228-3794, 262-786-0900",New Berlin,,,,USA,,-88.108863,"Friday : 10:30 - 22:00, Monday : 10:30 - 22:00, Saturday : 10:30 - 22:00, Thuesday : 10:30 - 22:00, Sunday : 10:30 - 22:00, Wednesday : 10:30 - 22:00, Thursday : 10:30 - 22:00",New Berlin,WI,,15620 W National Ave,42.976155,53151
"1-888-228-3794, 262-251-3200",Menomonee Falls,,,,USA,,-88.132468,"Friday : 10:30 - 22:00, Monday : 10:30 - 22:00, Saturday : 10:30 - 22:00, Thuesday : 10:30 - 22:00, Sunday : 10:30 - 22:00, Wednesday : 10:30 - 22:00, Thursday : 10:30 - 22:00",Menomonee Falls,WI,,N95 W18181 Appleton Ave,43.1893,53051
"1-888-228-3794, 262-436-0510",Waukesha,,,,USA,,-88.233278,"Friday : 10:30 - 22:00, Monday : 10:30 - 22:00, Saturday : 10:30 - 22:00, Thuesday : 10:30 - 22:00, Sunday : 10:30 - 22:00, Wednesday : 10:30 - 22:00, Thursday : 10:30 - 22:00",Waukesha,WI,,325 E North St,43.015296,53188
"1-888-228-3794, 262-377-8100",Grafton,,,,USA,,-87.930285,"Friday : 10:30 - 22:00, Monday : 10:30 - 22:00, Saturday : 10:30 - 22:00, Thuesday : 10:30 - 22:00, Sunday : 10:30 - 22:00, Wednesday : 10:30 - 22:00, Thursday : 10:30 - 22:00",Grafton,WI,,2506 Washington St,43.320372,53024
"1-888-228-3794, 262-646-4222",Delafield,,,,USA,Suite 100,-88.365823,"Friday : 10:30 - 22:00, Monday : 10:30 - 22:00, Saturday : 10:30 - 22:00, Thuesday : 10:30 - 22:00, Sunday : 10:30 - 22:00, Wednesday : 10:30 - 22:00, Thursday : 10:30 - 22:00",Delafield,WI,,3250 Golf Rd,43.052021,53018
"1-888-228-3794, 262-598-9277",Mount Pleasant,,,,USA,,-87.852721,"Friday : 10:30 - 22:00, Monday : 10:30 - 22:00, Saturday : 10:30 - 22:00, Thuesday : 10:30 - 22:00, Sunday : 10:30 - 22:00, Wednesday : 10:30 - 22:00, Thursday : 10:30 - 22:00",Racine,WI,,6035 W Durand Ave,42.69729,53406
"1-888-228-3794, 262-567-3699",Oconomowoc,,,,USA,,-88.470024,"Friday : 10:30 - 22:00, Monday : 10:30 - 22:00, Saturday : 10:30 - 22:00, Thuesday : 10:30 - 22:00, Sunday : 10:30 - 22:00, Wednesday : 10:30 - 22:00, Thursday : 10:30 - 22:00",Oconomowoc,WI,,1680 Old School House Rd,43.077189,53066
"1-888-228-3794, 262-353-4900",West Bend,,,,USA,,-88.188329,"Friday : 10:30 - 22:00, Monday : 10:30 - 22:00, Saturday : 10:30 - 22:00, Thuesday : 10:30 - 22:00, Sunday : 10:30 - 22:00, Wednesday : 10:30 - 22:00, Thursday : 10:30 - 22:00",West Bend,WI,,920 W Paradise Dr,43.397902,53095
"1-888-736-2224, 816-756-5565",Kansas City,,,,USA,,-94.592296,"Friday : 10:30 - 04:00, Monday : 10:30 - 00:00, Saturday : 10:30 - 04:00, Thuesday : 10:30 - 00:00, Sunday : 10:30 - 00:00, Wednesday : 10:30 - 00:00, Thursday : 10:30 - 00:00",Westport Rd,MO,,515 Westport Rd,39.052448,64111
"1-888-736-2224, 816-459-4919",Kansas City,,,,USA,,-94.548212,"Friday : 10:30 - 23:00, Monday : 10:30 - 22:00, Saturday : 10:30 - 23:00, Thuesday : 10:30 - 22:00, Sunday : 10:30 - 22:00, Wednesday : 10:30 - 22:00, Thursday : 10:30 - 22:00",Antioch Rd,MO,,5255 N Antioch Rd,39.189819,64119
"1-888-736-2224, 913-789-7255",Mission,,,,USA,,-94.659453,"Friday : 10:30 - 22:00, Monday : 10:30 - 22:00, Saturday : 10:30 - 22:00, Thuesday : 10:30 - 22:00, Sunday : 10:30 - 22:00, Wednesday : 10:30 - 22:00, Thursday : 10:30 - 22:00",Mission,KS,,6350 Johnson Dr,39.022656,66202
"1-888-736-2224, 816-781-8442",Kansas City,,,,USA,,-94.463674,"Friday : 10:30 - 00:00, Monday : 10:30 - 23:00, Saturday : 10:30 - 00:00, Thuesday : 10:30 - 23:00, Sunday : 10:30 - 23:00, Wednesday : 10:30 - 23:00, Thursday : 10:30 - 23:00",Barry Rd,MO,,9300 Ne Barry Rd,39.245513,64157
816-795-3350,Independence,,,,USA,,-94.356341,,Independence,MO,,18921 E Valley View Pkwy,39.033156,64056
"1-888-736-2224, 913-814-0933",Overland Park,,,,USA,,-94.667714,"Friday : 10:30 - 23:00, Monday : 10:30 - 22:00, Saturday : 10:30 - 23:00, Thuesday : 10:30 - 22:00, Sunday : 10:30 - 22:00, Wednesday : 10:30 - 22:00, Thursday : 10:30 - 22:00",Overland Park,KS,,13641 Metcalf Ave,38.883831,66223
"1-888-736-2224, 757-431-7300",Norfolk,,,,USA,Ste 812,-76.210276,"Friday : 10:30 - 22:00, Monday : 10:30 - 22:00, Saturday : 10:30 - 22:00, Thuesday : 10:30 - 22:00, Sunday : 10:30 - 21:00, Wednesday : 10:30 - 22:00, Thursday : 10:30 - 22:00",Military Highway,VA,,1140 N Military Hwy,36.861396,23502
"1-757-274-5450, 757-436-0460",Chesapeake,,,,USA,Suite 160,-76.228043,"Friday : 11:00 - 21:00, Monday : 11:00 - 21:00, Saturday : 11:00 - 21:00, Thuesday : 11:00 - 21:00, Sunday : 11:00 - 20:00, Wednesday : 11:00 - 21:00, Thursday : 11:00 - 21:00",Greenbrier,VA,,1220 Greenbrier Pkwy,36.769684,23320
404-684-0312,Atlanta,,,,USA,Concourse E,-84.44325,,Atlanta Airport,GA,,6000 N Terminal Pkwy,33.64152,30320
"1-404-303-8800, 404-303-8800",Sandy Springs,,,,USA,Ste 105,-84.364437,"Friday : 10:30 - 21:00, Monday : 10:30 - 21:00, Saturday : 10:30 - 21:00, Thuesday : 10:30 - 21:00, Sunday : 10:30 - 21:00, Wednesday : 10:30 - 21:00, Thursday : 10:30 - 21:00",Glenridge,GA,,5610 Glenridge Dr NE,33.907292,30342
"1-770-346-0087, 770-346-0087",Alpharetta,,,,USA,Suite 330,-84.267279,"Friday : 07:00 - 21:00, Monday : 07:00 - 21:00, Saturday : 07:00 - 21:00, Thuesday : 07:00 - 21:00, Sunday : 10:30 - 21:00, Wednesday : 07:00 - 21:00, Thursday : 07:00 - 21:00",Windward,GA,,5530 Windward Pkwy,34.087293,30004
"1-678-417-0555, 678-417-0555",Suwanee,,,,USA,,-84.167257,"Friday : 11:00 - 22:00, Monday : 10:30 - 21:00, Saturday : 11:00 - 22:00, Thuesday : 10:30 - 21:00, Sunday : 10:30 - 21:00, Wednesday : 10:30 - 21:00, Thursday : 10:30 - 21:00",JonCreek,GA,,3630 Peachtree Pkwy,34.070677,30024
"1-888-736-2224, 719-635-3663",Colorado Springs,,,,USA,Space E8A,-104.82057,"Friday : 10:30 - 22:00, Monday : 10:30 - 22:00, Saturday : 10:30 - 22:00, Thuesday : 10:30 - 22:00, Sunday : 10:30 - 22:00, Wednesday : 10:30 - 22:00, Thursday : 10:30 - 22:00",Southgate,CO,,1916 Southgate Rd,38.805765,80906
"1-888-736-2224, 719-265-1858",Colorado Springs,,,,USA,Suite 100,-104.759297,"Friday : 10:30 - 22:00, Monday : 10:30 - 22:00, Saturday : 10:30 - 22:00, Thuesday : 10:30 - 22:00, Sunday : 10:30 - 21:00, Wednesday : 10:30 - 22:00, Thursday : 10:30 - 22:00",Austin Bluffs,CO,,3670 Austin Bluffs Pkwy,38.890891,80918
"1-888-736-2224, 719-533-0046",Colorado Springs,,,,USA,Space B4,-104.79788,"Friday : 10:30 - 22:00, Monday : 10:30 - 22:00, Saturday : 10:30 - 22:00, Thuesday : 10:30 - 22:00, Sunday : 10:30 - 22:00, Wednesday : 10:30 - 22:00, Thursday : 10:30 - 22:00",Academy,CO,,7140 N Academy Blvd,38.936272,80920
"1-888-736-2224, 719-484-0837",Monument,,,,USA,,-104.848971,"Friday : 10:30 - 22:00, Monday : 10:30 - 21:00, Saturday : 10:30 - 22:00, Thuesday : 10:30 - 21:00, Sunday : 10:30 - 21:00, Wednesday : 10:30 - 21:00, Thursday : 10:30 - 21:00",NEC Jackson Ck,CO,,16010 Old Forest Point,39.066251,80132
"1-888-736-2224, 402-551-0750",Omaha,,,,USA,,-95.97712,"Friday : 10:30 - 22:00, Monday : 10:30 - 22:00, Saturday : 10:30 - 22:00, Thuesday : 10:30 - 22:00, Sunday : 10:30 - 21:00, Wednesday : 10:30 - 22:00, Thursday : 10:30 - 22:00",Saddle Creek,NE,,222 N Saddle Creek Rd,41.26168,68131
"1-888-736-2224, 402-934-9680",Omaha,,,,USA,Suite D,-96.022453,"Friday : 10:30 - 22:00, Monday : 10:30 - 22:00, Saturday : 10:30 - 22:00, Thuesday : 10:30 - 22:00, Sunday : 10:30 - 22:00, Wednesday : 10:30 - 22:00, Thursday : 10:30 - 22:00",S. 71st Street,NE,,1110 S 71st St,41.248683,68106
"1-888-736-2224, 402-884-1340",Omaha,,,,USA,Ste C1,-96.100357,"Friday : 10:30 - 22:00, Monday : 10:30 - 22:00, Saturday : 10:30 - 22:00, Thuesday : 10:30 - 22:00, Sunday : 10:30 - 21:00, Wednesday : 10:30 - 22:00, Thursday : 10:30 - 22:00",Blondo,NE,,2101 N 120th St,41.278567,68164
"1-888-736-2224, 402-339-1010",Papillion,,,,USA,Suite A,-96.0236,"Friday : 10:30 - 22:00, Monday : 10:30 - 22:00, Saturday : 10:30 - 22:00, Thuesday : 10:30 - 22:00, Sunday : 10:30 - 21:00, Wednesday : 10:30 - 22:00, Thursday : 10:30 - 22:00",Papillion,NE,,8540 S 71st Plaza,41.1635,68133
"1-888-736-2224, 402-330-4671",Omaha,,,,USA,Suite 100,-96.108512,"Friday : 10:30 - 22:00, Monday : 10:30 - 22:00, Saturday : 10:30 - 22:00, Thuesday : 10:30 - 22:00, Sunday : 10:30 - 21:00, Wednesday : 10:30 - 22:00, Thursday : 10:30 - 22:00",L Street,NE,,12414 L St,41.212662,68137
"1-888-736-2224, 402-932-8840",Omaha,,,,USA,,-96.138915,"Friday : 10:30 - 22:00, Monday : 10:30 - 22:00, Saturday : 10:30 - 22:00, Thuesday : 10:30 - 22:00, Sunday : 10:30 - 21:00, Wednesday : 10:30 - 22:00, Thursday : 10:30 - 22:00",Center,NE,,14410 W Center Rd,41.233937,68144
"1-888-736-2224, 712-366-7870",Council Bluffs,,,,USA,Suite 100,-95.835681,"Friday : 10:30 - 22:00, Monday : 10:30 - 22:00, Saturday : 10:30 - 22:00, Thuesday : 10:30 - 22:00, Sunday : 10:30 - 21:00, Wednesday : 10:30 - 22:00, Thursday : 10:30 - 22:00",Council Bluffs,IA,,3825 Denmark Drive,41.221297,51501
"1-919-838-9133, 919-838-9133",Raleigh,,,,USA,Ste 102,-78.625858,"Friday : 11:00 - 22:00, Monday : 11:00 - 21:00, Saturday : 11:00 - 22:00, Thuesday : 11:00 - 21:00, Sunday : 11:00 - 21:00, Wednesday : 11:00 - 21:00, Thursday : 11:00 - 21:00",Raleigh,NC,,424 E Six Fork Rd,35.82032,27609
"1-919-781-9220, 919-781-9220",Raleigh,,,,USA,Suite 102,-78.706984,"Friday : 11:00 - 22:00, Monday : 11:00 - 21:00, Saturday : 11:00 - 22:00, Thuesday : 11:00 - 21:00, Sunday : 11:00 - 21:00, Wednesday : 11:00 - 21:00, Thursday : 11:00 - 21:00",Edwards Mill,NC,,3101 Edwards Mill Rd,35.823953,27612
"1-919-217-4690, 919-217-4690",Knightdale,,,,USA,Suite A,-78.51019,"Friday : 11:00 - 22:00, Monday : 11:00 - 22:00, Saturday : 11:00 - 22:00, Thuesday : 11:00 - 22:00, Sunday : 11:00 - 22:00, Wednesday : 11:00 - 22:00, Thursday : 11:00 - 22:00",Hinton Oaks,NC,,210 Hinton Oaks Blvd,35.79609,27545
"1-919-362-8737, 919-362-8737",Apex,,,,USA,,-78.873951,"Friday : 11:00 - 22:00, Monday : 11:00 - 22:00, Saturday : 11:00 - 22:00, Thuesday : 11:00 - 22:00, Sunday : 11:00 - 22:00, Wednesday : 11:00 - 22:00, Thursday : 11:00 - 22:00",Apex,NC,,1005 Beaver Creek Commons Dr,35.745031,27502
"1-888-736-2224, 612-339-5136",Minneapolis,,,,USA,Nicollet Mall,-93.275743,"Friday : 07:00 - 20:00, Monday : 07:00 - 20:00, Saturday : 11:00 - 17:00, Thuesday : 07:00 - 20:00, Wednesday : 07:00 - 20:00, Thursday : 07:00 - 20:00",Nicollet Mall,MN,,50 South 10th St,44.974497,55403
"1-888-778-2234, 612-379-3100",Minneapolis,,,,USA,,-93.236048,"Friday : 07:00 - 03:00, Monday : 07:00 - 23:00, Saturday : 08:00 - 03:00, Thuesday : 07:00 - 23:00, Sunday : 10:00 - 22:00, Wednesday : 07:00 - 23:00, Thursday : 07:00 - 23:00",Dinkytown,MN,,324 14th Ave SE,44.980043,55414
"1-888-736-2224, 763-252-9590",Brooklyn Center,,,,USA,Building H,-93.31798,"Friday : 10:30 - 22:00, Monday : 10:30 - 22:00, Saturday : 10:30 - 22:00, Thuesday : 10:30 - 22:00, Sunday : 10:30 - 22:00, Wednesday : 10:30 - 22:00, Thursday : 10:30 - 22:00",Brooklyn Center,MN,,1560 Shingle Creek Crossing,45.058681,55430
"1-888-736-2224, 952-277-3504",Edina,,,,USA,Spc 2292,-93.324691,"Friday : 10:00 - 21:00, Monday : 10:00 - 21:00, Saturday : 10:00 - 21:00, Thuesday : 10:00 - 21:00, Sunday : 11:00 - 18:00, Wednesday : 10:00 - 21:00, Thursday : 10:00 - 21:00",Edina,MN,,10 Southdale Ctr,44.881689,55435
"1-888-778-2234, 763-951-7300",Plymouth,,,,USA,,-93.408725,"Friday : 06:00 - 22:00, Monday : 06:00 - 22:00, Saturday : 08:00 - 22:00, Thuesday : 06:00 - 22:00, Sunday : 08:00 - 21:00, Wednesday : 06:00 - 22:00, Thursday : 06:00 - 22:00",Nathan Lane,MN,,4345 Nathan Ln,45.034066,55442
952-854-6714,Bloomington,,,,USA,Space C364,-93.241696,"Friday : 10:30 - 21:00, Monday : 10:30 - 21:00, Saturday : 10:30 - 21:00, Thuesday : 10:30 - 21:00, Sunday : 11:00 - 19:00, Wednesday : 10:30 - 21:00, Thursday : 10:30 - 21:00",Mall of America,MN,,60 E Broadway,44.854804,55425
"1-888-736-2224, 651-452-8782",Eagan,,,,USA,,-93.159153,"Friday : 10:30 - 22:00, Monday : 10:30 - 22:00, Saturday : 10:30 - 22:00, Thuesday : 10:30 - 22:00, Sunday : 10:30 - 22:00, Wednesday : 10:30 - 22:00, Thursday : 10:30 - 22:00",Promenade Place,MN,,1298 Promenade Pl,44.834862,55121
"1-888-736-2224, 952-941-3800",Eden Prairie,,,,USA,Ste 200,-93.424046,"Friday : 10:00 - 22:00, Monday : 10:00 - 22:00, Saturday : 10:00 - 22:00, Thuesday : 10:00 - 22:00, Sunday : 10:30 - 22:00, Wednesday : 10:00 - 22:00, Thursday : 10:00 - 22:00",Leona,MN,,11611 Leona Rd,44.85978,55344
"1-888-736-2224, 651-734-9681",Woodbury,,,,USA,Ste A,-92.933516,"Friday : 10:30 - 22:00, Monday : 10:30 - 22:00, Saturday : 10:30 - 22:00, Thuesday : 10:30 - 22:00, Sunday : 10:30 - 22:00, Wednesday : 10:30 - 22:00, Thursday : 10:30 - 22:00",Radio Drive,MN,,345 Radio Dr,44.942699,55125
"1-888-778-2234, 952-496-1627",Shakopee,,,,USA,,-93.4636,"Friday : 06:00 - 22:00, Monday : 06:00 - 22:00, Saturday : 08:00 - 22:00, Thuesday : 06:00 - 22:00, Sunday : 08:00 - 21:00, Wednesday : 06:00 - 22:00, Thursday : 06:00 - 22:00",Dean Lakes,MN,,4057 Dean Lakes Blvd,44.7808,55379
"1-888-778-2234, 952-448-9310",Chaska,,,,USA,,-93.601694,"Friday : 06:00 - 22:00, Monday : 06:00 - 22:00, Saturday : 08:00 - 22:00, Thuesday : 06:00 - 22:00, Sunday : 08:00 - 21:00, Wednesday : 06:00 - 22:00, Thursday : 06:00 - 22:00",Pioneer,MN,,194 Pioneer Trail,44.82927,55318
"1-866-990-2295, 918-585-2229",Tulsa,,,,USA,,-95.971091,"Friday : 10:30 - 22:00, Monday : 10:30 - 22:00, Saturday : 10:30 - 22:00, Thuesday : 10:30 - 22:00, Sunday : 10:30 - 22:00, Wednesday : 10:30 - 22:00, Thursday : 10:30 - 22:00",15th,OK,,1520 E 15th St,36.140553,74120
"1-866-990-2295, 918-493-7179",Tulsa,,,,USA,,-95.9224,"Friday : 10:30 - 22:00, Monday : 10:30 - 22:00, Saturday : 10:30 - 22:00, Thuesday : 10:30 - 22:00, Sunday : 10:30 - 22:00, Wednesday : 10:30 - 22:00, Thursday : 10:30 - 22:00",Yale,OK,,5220 S Yale Ave,36.08735,74135
"1-866-990-2295, 918-494-7022",Tulsa,,,,USA,,-95.957785,"Friday : 10:30 - 22:00, Monday : 10:30 - 22:00, Saturday : 10:30 - 22:00, Thuesday : 10:30 - 22:00, Sunday : 10:30 - 22:00, Wednesday : 10:30 - 22:00, Thursday : 10:30 - 22:00",Lewis,OK,,7153 S Lewis Ave,36.059974,74136
918-322-3822,Tulsa,,,,USA,,-96.005384,"Friday : 10:30 - 22:00, Monday : 10:30 - 22:00, Saturday : 10:30 - 22:00, Thuesday : 10:30 - 22:00, Sunday : 10:30 - 22:00, Wednesday : 10:30 - 22:00, Thursday : 10:30 - 22:00",W 81st Tulsa,OK,,8115 S Olympia Ave.,36.046056,74132
"1-866-990-2295, 918-994-7145",Tulsa,,,,USA,,-95.883671,"Friday : 10:30 - 22:00, Monday : 10:30 - 22:00, Saturday : 10:30 - 22:00, Thuesday : 10:30 - 22:00, Sunday : 10:30 - 22:00, Wednesday : 10:30 - 22:00, Thursday : 10:30 - 22:00",E. 71st Street,OK,,8310 E 71st St,36.060713,74133
"1-866-990-2295, 918-608-0336",Tulsa,,,,USA,Suite 170,-95.923501,"Friday : 10:30 - 22:00, Monday : 10:30 - 22:00, Saturday : 10:30 - 22:00, Thuesday : 10:30 - 22:00, Sunday : 10:30 - 22:00, Wednesday : 10:30 - 22:00, Thursday : 10:30 - 22:00",Yale Village,OK,,9168 S Yale Ave,36.029974,74137
"1-866-990-2295, 918-994-7385",Broken Arrow,,,,USA,,-95.819035,"Friday : 10:30 - 22:00, Monday : 10:30 - 22:00, Saturday : 10:30 - 22:00, Thuesday : 10:30 - 22:00, Sunday : 10:30 - 22:00, Wednesday : 10:30 - 22:00, Thursday : 10:30 - 22:00",Broken Arrow,OK,,2401 W Kenosha St,36.060843,74012
"1-216-229-8233, 216-229-8233",Cleveland,,,,USA,,-81.606001,"Friday : 10:00 - 22:30, Monday : 10:00 - 22:30, Saturday : 10:00 - 22:30, Thuesday : 10:00 - 22:30, Sunday : 10:00 - 22:00, Wednesday : 10:00 - 22:30, Thursday : 10:00 - 22:30",Cleveland,OH,,11324 Euclid Ave,41.508289,44106
"1-216-491-9084, 216-491-9084",Shaker Heights,,,,USA,,-81.538647,"Friday : 11:00 - 22:00, Monday : 11:00 - 22:00, Saturday : 11:00 - 22:00, Thuesday : 11:00 - 22:00, Sunday : 11:00 - 22:00, Wednesday : 11:00 - 22:00, Thursday : 11:00 - 22:00",Van Aken,OH,,20090 Van Aken Blvd,41.466007,44122
"1-216-520-6331, 216-520-6331",Parma,,,,USA,,-81.684644,"Friday : 11:00 - 22:00, Monday : 11:00 - 21:00, Saturday : 11:00 - 22:00, Thuesday : 11:00 - 21:00, Sunday : 11:00 - 21:00, Wednesday : 11:00 - 21:00, Thursday : 11:00 - 22:00",Broadview,OH,,7402 Broadview Rd,41.363499,44134
"1-440-460-0874, 440-460-0874",Hyland Heights,,,,USA,,-81.452294,"Friday : 11:00 - 22:30, Monday : 11:00 - 22:00, Saturday : 11:00 - 22:30, Thuesday : 11:00 - 22:00, Sunday : 11:00 - 21:00, Wednesday : 11:00 - 22:00, Thursday : 11:00 - 22:30",Wilson Mills,OH,,6319 Wilson Mills Rd,41.539004,44143
"1-440-352-8482, 440-352-8482",Mentor,,,,USA,,-81.296868,"Friday : 11:00 - 22:00, Monday : 11:00 - 22:00, Saturday : 11:00 - 22:00, Thuesday : 11:00 - 22:00, Sunday : 11:00 - 21:00, Wednesday : 11:00 - 22:00, Thursday : 11:00 - 22:00",Mentor,OH,,9552 Mentor Ave,41.682069,44060
316-425-3554,Wichita,,,,USA,,-97.243993,"Friday : 10:30 - 22:00, Monday : 10:30 - 22:00, Saturday : 10:30 - 22:00, Thuesday : 10:30 - 22:00, Sunday : 10:30 - 22:00, Wednesday : 10:30 - 22:00, Thursday : 10:30 - 22:00",North Rock,KS,,430 N Rock Rd,37.693123,67206
"1-888-736-2224, 813-837-0101",Tampa,,,,USA,,-82.507507,"Friday : 10:30 - 22:00, Monday : 10:30 - 22:00, Saturday : 10:30 - 22:00, Thuesday : 10:30 - 22:00, Sunday : 10:30 - 22:00, Wednesday : 10:30 - 22:00, Thursday : 10:30 - 22:00",Dale Mabry,FL,,3801 W Gandy Blvd,27.893834,33611
"1-888-736-2224, 813-984-4650",Tampa,,,,USA,,-82.40118,"Friday : 11:00 - 22:00, Monday : 11:00 - 22:00, Saturday : 11:00 - 22:00, Thuesday : 11:00 - 22:00, Sunday : 11:00 - 22:00, Wednesday : 11:00 - 22:00, Thursday : 11:00 - 22:00",USF,FL,,5001 E Fowler Ave,28.054293,33617
"1-888-736-2224, 813-689-9998",Brandon,,,,USA,,-82.299472,"Friday : 11:00 - 22:00, Monday : 11:00 - 21:00, Saturday : 11:00 - 22:00, Thuesday : 11:00 - 21:00, Sunday : 11:00 - 20:00, Wednesday : 11:00 - 21:00, Thursday : 11:00 - 21:00",Brandon,FL,,1013 W Brandon Blvd,27.937574,33511
"1-888-736-2224, 813-741-9396",Riverview,,,,USA,Suite G1,-82.335073,"Friday : 11:00 - 22:00, Monday : 11:00 - 21:30, Saturday : 11:00 - 22:00, Thuesday : 11:00 - 21:30, Sunday : 11:00 - 21:30, Wednesday : 11:00 - 21:30, Thursday : 11:00 - 21:30",Hwy 301,FL,,13165 US 301,27.793223,33578
"1-888-736-2224, 303-695-8250",Aurora,,,,USA,Suite A,-104.790881,"Friday : 10:30 - 22:30, Monday : 10:30 - 22:30, Saturday : 10:30 - 22:30, Thuesday : 10:30 - 22:30, Sunday : 10:30 - 22:30, Wednesday : 10:30 - 22:30, Thursday : 10:30 - 22:30",Buckley,CO,,1180 S Buckley Rd,39.69538,80017
"1-888-736-2224, 303-371-8800",Denver,,,,USA,Ste 105,-104.807985,"Friday : 10:30 - 23:00, Monday : 10:30 - 23:00, Saturday : 10:30 - 23:00, Thuesday : 10:30 - 23:00, Sunday : 10:30 - 23:00, Wednesday : 10:30 - 23:00, Thursday : 10:30 - 23:00",Andrews,CO,,15470 Andrews Dr,39.773789,80239
"1-888-736-2224, 303-799-0070",Centennial,,,,USA,Suite 100,-104.8269,"Friday : 10:30 - 21:30, Monday : 10:30 - 21:30, Saturday : 10:30 - 21:30, Thuesday : 10:30 - 21:30, Sunday : 10:30 - 20:00, Wednesday : 10:30 - 21:30, Thursday : 10:30 - 21:30",Lima,CO,,10909 E Arapahoe Pl,39.594,80112
"1-888-736-2224, 303-617-3351",Aurora,,,,USA,Suite 204,-104.799723,"Friday : 10:30 - 22:30, Monday : 10:30 - 22:00, Saturday : 10:30 - 22:30, Thuesday : 10:30 - 22:00, Sunday : 10:30 - 22:00, Wednesday : 10:30 - 22:00, Thursday : 10:30 - 22:00",Foxfield,CO,,16270 E Arapahoe Rd,39.594805,80016
"1-888-736-2224, 303-795-4173",Centennial,,,,USA,Suite 936,-104.960363,"Friday : 10:30 - 22:00, Monday : 10:30 - 22:00, Saturday : 10:30 - 22:00, Thuesday : 10:30 - 22:00, Sunday : 10:30 - 22:00, Wednesday : 10:30 - 22:00, Thursday : 10:30 - 22:00",Centennial,CO,,6703 S University Blvd,39.595075,80122
"1-888-736-2224, 303-792-2113",Lone Tree,,,,USA,Suite 6,-104.883235,"Friday : 10:30 - 21:30, Monday : 10:30 - 21:30, Saturday : 10:30 - 21:30, Thuesday : 10:30 - 21:30, Sunday : 10:30 - 20:00, Wednesday : 10:30 - 21:30, Thursday : 10:30 - 21:30",Yosemite,CO,,8441 S Yosemite St,39.563585,80124
"1-888-736-2224, 909-932-0090",Upland,,,,USA,Suite A,-117.639426,"Friday : 10:30 - 22:00, Monday : 10:30 - 22:00, Saturday : 10:30 - 22:00, Thuesday : 10:30 - 22:00, Sunday : 10:30 - 21:00, Wednesday : 10:30 - 22:00, Thursday : 10:30 - 22:00",Campus,CA,,1902 N Campus Ave,34.131806,91784
unavailable,Saint Louis,,,,USA,Busch Student Center,-90.232684,,St Louis University,MO,,20 N Grand Blvd,38.634617,63108
"1-888-736-2224, 314-772-7200",Saint Louis,,,,USA,Ste F,-90.242184,"Friday : 10:00 - 22:00, Monday : 10:00 - 22:00, Saturday : 10:00 - 22:00, Thuesday : 10:00 - 22:00, Sunday : 10:00 - 21:00, Wednesday : 10:00 - 22:00, Thursday : 10:00 - 22:00",Grand,MO,,3100 S Grand Blvd,38.602649,63118
"1-888-736-2224, 314-351-7674",Saint Louis,,,,USA,Unit H,-90.262083,"Friday : 10:00 - 22:00, Monday : 10:00 - 22:00, Saturday : 10:00 - 22:00, Thuesday : 10:00 - 22:00, Sunday : 10:00 - 21:00, Wednesday : 10:00 - 22:00, Thursday : 10:00 - 22:00",Loughborough,MO,,1042 Loughborough Ave,38.558158,63111
"1-888-736-2224, 314-832-1420",Saint Louis,,,,USA,,-90.298997,"Friday : 10:00 - 22:00, Monday : 10:00 - 22:00, Saturday : 10:00 - 22:00, Thuesday : 10:00 - 22:00, Sunday : 10:00 - 21:00, Wednesday : 10:00 - 22:00, Thursday : 10:00 - 22:00",Chippewa,MO,,6417 Chippewa St,38.593813,63109
"1-888-736-2224, 314-863-5252",St Louis,,,,USA,,-90.316518,"Friday : 10:00 - 22:00, Monday : 10:00 - 22:00, Saturday : 10:00 - 22:00, Thuesday : 10:00 - 22:00, Sunday : 10:00 - 21:00, Wednesday : 10:00 - 22:00, Thursday : 10:00 - 22:00",Clayton,MO,,6701 Clayton Rd,38.634817,63117
"1-888-736-2224, 314-645-8883",Maplewood,,,,USA,Ste 5,-90.333221,"Friday : 10:00 - 22:30, Monday : 10:00 - 22:30, Saturday : 10:00 - 22:30, Thuesday : 10:00 - 22:30, Sunday : 10:00 - 21:00, Wednesday : 10:00 - 22:30, Thursday : 10:00 - 22:30",Maplewood,MO,,2001 Maplewood Commons Dr,38.621817,63143
"1-888-736-2224, 618-344-3757",Collinsville,,,,USA,,-90.015127,"Friday : 10:00 - 22:00, Monday : 10:00 - 22:00, Saturday : 10:00 - 22:00, Thuesday : 10:00 - 22:00, Sunday : 10:00 - 21:00, Wednesday : 10:00 - 22:00, Thursday : 10:00 - 22:00",Collinsville,IL,,1100 Collinsville Crossing BLV,38.676314,62234
"1-888-736-2224, 314-416-9800",Saint Louis,,,,USA,Ste 100,-90.333975,"Friday : 10:00 - 22:00, Monday : 10:00 - 22:00, Saturday : 10:00 - 22:00, Thuesday : 10:00 - 22:00, Sunday : 10:00 - 20:00, Wednesday : 10:00 - 22:00, Thursday : 10:00 - 22:00",South County,MO,,90 S County Center Wy,38.506656,63129
"1-888-736-2224, 618-310-3000",Belleville,,,,USA,,-90.034743,"Friday : 10:00 - 22:00, Monday : 10:00 - 22:00, Saturday : 10:00 - 22:00, Thuesday : 10:00 - 22:00, Sunday : 10:00 - 21:00, Wednesday : 10:00 - 22:00, Thursday : 10:00 - 22:00",Belleville Crossing,IL,,5880 Belleville Crossing St,38.527717,62226
"1-888-736-2224, 314-822-2810",Kirkwood,,,,USA,,-90.406581,"Friday : 10:00 - 22:00, Monday : 10:00 - 22:00, Saturday : 10:00 - 22:00, Thuesday : 10:00 - 22:00, Sunday : 10:00 - 22:00, Wednesday : 10:00 - 22:00, Thursday : 10:00 - 22:00",Kirkwood,MO,,481 S Kirkwood Rd,38.574395,63122
"1-888-736-2224, 314-995-7155",St. Louis,,,,USA,,-90.420796,"Friday : 10:00 - 22:00, Monday : 10:00 - 22:00, Saturday : 10:00 - 22:00, Thuesday : 10:00 - 22:00, Sunday : 10:00 - 22:00, Wednesday : 10:00 - 22:00, Thursday : 10:00 - 22:00",Page Ave,MO,,11500 Page Service Rd,38.699478,63043
"1-888-736-2224, 314-965-7200",Des Peres,,,,USA,,-90.442707,"Friday : 10:00 - 22:00, Monday : 10:00 - 22:00, Saturday : 10:00 - 22:00, Thuesday : 10:00 - 22:00, Sunday : 10:00 - 21:00, Wednesday : 10:00 - 22:00, Thursday : 10:00 - 22:00",Des Peres,MO,,12350 Manchester Rd,38.603325,63131
"1-888-736-2224, 314-983-0189",Creve Coeur,,,,USA,,-90.443207,"Friday : 10:00 - 22:00, Monday : 10:00 - 22:00, Saturday : 10:00 - 22:00, Thuesday : 10:00 - 22:00, Sunday : 10:00 - 21:00, Wednesday : 10:00 - 22:00, Thursday : 10:00 - 22:00",New Ballas,MO,,766 N New Ballas Rd,38.669636,63141
"1-888-736-2224, 314-839-3400",Florissant,,,,USA,Building A,-90.298322,"Friday : 10:00 - 23:00, Monday : 10:00 - 22:00, Saturday : 10:00 - 23:00, Thuesday : 10:00 - 22:00, Sunday : 10:00 - 22:00, Wednesday : 10:00 - 22:00, Thursday : 10:00 - 23:00",Halls Ferry,MO,,14039 New Halls Ferry Rd,38.808004,63033
unavailable,Bridgeton,,,,USA,,-90.424699,,Rock Road,MO,,12121 St. Charles Rock Rd,38.750299,63044
"1-888-736-2224, 618-632-5231",Shiloh,,,,USA,Unit 10,-89.927621,"Friday : 10:00 - 22:00, Monday : 10:00 - 22:00, Saturday : 10:00 - 22:00, Thuesday : 10:00 - 22:00, Sunday : 10:00 - 21:00, Wednesday : 10:00 - 22:00, Thursday : 10:00 - 22:00",Green Mount,IL,,3210 Green Mount Crossing Dr,38.572728,62269
"1-888-736-2224, 636-305-1864",Fenton,,,,USA,Suite D,-90.445303,"Friday : 10:00 - 23:00, Monday : 10:00 - 22:00, Saturday : 10:00 - 23:00, Thuesday : 10:00 - 22:00, Sunday : 10:00 - 22:00, Wednesday : 10:00 - 22:00, Thursday : 10:00 - 22:00",Gravois,MO,,180 Gravois Bluffs Cir,38.502946,63026
"1-888-736-2224, 636-230-7231",Manchester,,,,USA,Suite F,-90.498908,"Friday : 10:00 - 22:30, Monday : 10:00 - 22:30, Saturday : 10:00 - 22:30, Thuesday : 10:00 - 22:30, Sunday : 10:00 - 22:30, Wednesday : 10:00 - 22:30, Thursday : 10:00 - 22:30",Manchester,MO,,14169 Manchester Rd,38.593379,63011
"1-888-736-2224, 636-287-6810",Arnold,,,,USA,,-90.384303,"Friday : 10:00 - 22:00, Monday : 10:00 - 22:00, Saturday : 10:00 - 22:00, Thuesday : 10:00 - 22:00, Sunday : 10:00 - 21:00, Wednesday : 10:00 - 22:00, Thursday : 10:00 - 22:00",Arnold,MO,,905 Arnold Commons Dr,38.438325,63010
"1-888-736-2224, 636-527-6375",Town And Country,,,,USA,,-90.517667,"Friday : 10:00 - 22:00, Monday : 10:00 - 22:00, Saturday : 10:00 - 22:00, Thuesday : 10:00 - 22:00, Sunday : 10:00 - 22:00, Wednesday : 10:00 - 22:00, Thursday : 10:00 - 22:00",Town and Country,MO,,1082 Town&Country Crossing Dr,38.622146,63017
"1-888-736-2224, 618-659-4036",Edwardsville,,,,USA,Suite 5,-89.95113,"Friday : 10:00 - 22:00, Monday : 10:00 - 22:00, Saturday : 10:00 - 22:00, Thuesday : 10:00 - 22:00, Sunday : 10:00 - 21:00, Wednesday : 10:00 - 22:00, Thursday : 10:00 - 22:00",Troy,IL,,2100 Troy Rd,38.787842,62025
"1-888-736-2224, 636-724-8846",Saint Charles,,,,USA,,-90.494695,"Friday : 10:00 - 23:00, Monday : 10:00 - 22:00, Saturday : 10:00 - 23:00, Thuesday : 10:00 - 22:00, Sunday : 10:00 - 22:00, Wednesday : 10:00 - 22:00, Thursday : 10:00 - 22:00",Bass Pro,MO,,1315 Bass Pro Dr,38.771701,63301
"1-888-736-2224, 636-530-9595",Chesterfield,,,,USA,Suite 104,-90.581313,"Friday : 10:00 - 22:00, Monday : 10:00 - 21:30, Saturday : 10:00 - 22:00, Thuesday : 10:00 - 21:30, Sunday : 10:00 - 21:30, Wednesday : 10:00 - 21:30, Thursday : 10:00 - 21:30",Chesterfield,MO,,16890 Chesterfield Airport Rd,38.668472,63005
"1-888-736-2224, 859-281-6706",Lexington,,,,USA,Unit 100,-84.499776,"Friday : 10:00 - 04:30, Monday : 10:00 - 02:00, Saturday : 10:00 - 04:30, Thuesday : 10:00 - 02:00, Sunday : 11:00 - 23:00, Wednesday : 10:00 - 02:00, Thursday : 10:00 - 04:30",Euclid,KY,,265 E Euclid Ave,38.038575,40508
"1-888-736-2224, 859-268-6101",Lexington,,,,USA,Ste 400,-84.45653,"Friday : 10:30 - 22:30, Monday : 10:30 - 22:30, Saturday : 10:30 - 22:30, Thuesday : 10:30 - 22:30, Sunday : 11:00 - 22:00, Wednesday : 10:30 - 22:30, Thursday : 10:30 - 22:30",Richmond,KY,,2630 Richmond Rd,38.010802,40509
"1-888-736-2224, 859-271-8282",Lexington,,,,USA,,-84.528261,"Friday : 10:30 - 23:30, Monday : 10:30 - 23:00, Saturday : 10:30 - 23:30, Thuesday : 10:30 - 23:00, Sunday : 11:00 - 22:30, Wednesday : 10:30 - 23:00, Thursday : 10:30 - 23:00",Tiverton,KY,,101 E Tiverton Way,37.980293,40503
"1-888-736-2224, 859-219-0037",Lexington,,,,USA,Suite 65,-84.571102,"Friday : 10:30 - 23:00, Monday : 10:30 - 23:00, Saturday : 10:30 - 23:00, Thuesday : 10:30 - 23:00, Sunday : 11:00 - 22:30, Wednesday : 10:30 - 23:00, Thursday : 10:30 - 23:00",Palomar,KY,,3735 Palomar Centre Dr,38.00344,40513
"1-888-736-2224, 502-867-0232",Georgetown,,,,USA,Suite 100,-84.535357,"Friday : 10:00 - 23:00, Monday : 10:00 - 23:00, Saturday : 10:00 - 23:00, Thuesday : 10:00 - 23:00, Sunday : 11:00 - 21:00, Wednesday : 10:00 - 23:00, Thursday : 10:00 - 23:00",Connector Road,KY,,106 Magnolia Crossing,38.22635,40324
"1-888-736-2224, 502-227-3100",Frankfort,,,,USA,Suite 401,-84.89927,"Friday : 10:30 - 22:30, Monday : 10:30 - 22:30, Saturday : 10:30 - 22:30, Thuesday : 10:30 - 22:30, Sunday : 11:00 - 22:00, Wednesday : 10:30 - 22:30, Thursday : 10:30 - 22:30",Frankfort,KY,,1303 US Highway 127 S,38.16815,40601
"1-888-736-2224, 859-624-9552",Richmond,,,,USA,,-84.309091,"Friday : 10:30 - 22:30, Monday : 10:30 - 22:30, Saturday : 10:30 - 22:30, Thuesday : 10:30 - 22:30, Sunday : 11:00 - 22:00, Wednesday : 10:30 - 22:30, Thursday : 10:30 - 22:30",Leighway,KY,,429 Leighway Dr,37.736734,40475
"1-412-281-3143, 412-281-3143",Pittsburgh,,,,USA,,-79.995887,"Friday : 10:30 - 18:00, Monday : 10:30 - 18:00, Thuesday : 10:30 - 18:00, Wednesday : 10:30 - 18:00, Thursday : 10:30 - 18:00",GrantPA,PA,,601 Grant St,40.440878,15219
"1-412-281-2415, 412-281-2415",Pittsburgh,,,,USA,,-79.998787,"Friday : 10:30 - 19:00, Monday : 10:30 - 19:00, Thuesday : 10:30 - 19:00, Wednesday : 10:30 - 19:00, Thursday : 10:30 - 19:00",Liberty,PA,,808 Liberty Ave,40.442669,15222
"1-412-481-1229, 412-481-1229",Pittsburgh,,,,USA,,-79.966014,"Friday : 11:00 - 22:00, Monday : 11:00 - 22:00, Saturday : 11:00 - 22:00, Thuesday : 11:00 - 22:00, Sunday : 11:00 - 21:00, Wednesday : 11:00 - 22:00, Thursday : 11:00 - 22:00",Carson,PA,,2777 E Carson St,40.426458,15203
"1-412-802-7866, 412-802-7866",Pittsburgh,,,,USA,,-79.957436,"Friday : 11:00 - 00:00, Monday : 11:00 - 00:00, Saturday : 11:00 - 00:00, Thuesday : 11:00 - 00:00, Sunday : 11:00 - 23:00, Wednesday : 11:00 - 00:00, Thursday : 11:00 - 00:00",Forbes,PA,,3712 Forbes Ave,40.441145,15213
"1-412-494-9933, 412-494-9933",Pittsburgh,,,,USA,,-80.146093,"Friday : 11:00 - 22:00, Monday : 11:00 - 21:00, Saturday : 11:00 - 22:00, Thuesday : 11:00 - 21:00, Sunday : 11:00 - 21:00, Wednesday : 11:00 - 21:00, Thursday : 11:00 - 21:00",Settlers Ridge – Robinson,PA,,1740 Settlers Ridge Center Dr,40.437936,15205
"1-888-736-2224, 907-276-4755",Anchorage,,,,USA,,-149.87037,"Friday : 07:00 - 22:00, Monday : 07:00 - 22:00, Saturday : 09:00 - 22:00, Thuesday : 07:00 - 22:00, Sunday : 09:00 - 21:00, Wednesday : 07:00 - 22:00, Thursday : 07:00 - 22:00",Benson,AK,,702 E Benson Blvd,61.193369,99503
"1-888-736-2224, 907-339-9611",Anchorage,,,,USA,Ste A4,-149.746639,"Friday : 07:00 - 23:00, Monday : 07:00 - 22:00, Saturday : 09:00 - 23:00, Thuesday : 07:00 - 22:00, Sunday : 09:00 - 21:00, Wednesday : 07:00 - 22:00, Thursday : 07:00 - 22:00",Muldoon,AK,,1102 N Muldoon Rd,61.228564,99504
"1-888-736-2224, 907-336-0393",Anchorage,,,,USA,,-149.847855,"Friday : 07:00 - 22:00, Monday : 07:00 - 22:00, Saturday : 09:00 - 22:00, Thuesday : 07:00 - 22:00, Sunday : 09:00 - 21:00, Wednesday : 07:00 - 22:00, Thursday : 07:00 - 22:00",Abbott,AK,,1900 E 85th Ct,61.143158,99507
"1-888-736-2224, 907-373-7639",Wasilla,,,,USA,,-149.413074,"Friday : 07:00 - 22:00, Monday : 07:00 - 22:00, Saturday : 09:00 - 22:00, Thuesday : 07:00 - 22:00, Sunday : 09:00 - 21:00, Wednesday : 07:00 - 22:00, Thursday : 07:00 - 22:00",Wasilla,AK,,1515 E Parks Hwy,61.578032,99654
"1-513-984-4822, 513-351-2268",Cincinnati,,,,USA,,-84.443703,"Friday : 10:30 - 22:00, Monday : 10:30 - 22:00, Saturday : 10:30 - 22:00, Thuesday : 10:30 - 22:00, Sunday : 10:30 - 22:00, Wednesday : 10:30 - 22:00, Thursday : 10:30 - 22:00",Edmondson,OH,,2721 Edmonson Rd,39.148583,45209
"1-513-984-4822, 859-647-0296",Florence,,,,USA,Suite C,-84.653745,"Friday : 10:30 - 22:00, Monday : 10:30 - 22:00, Saturday : 10:30 - 22:00, Thuesday : 10:30 - 22:00, Sunday : 10:30 - 22:00, Wednesday : 10:30 - 22:00, Thursday : 10:30 - 22:00",Mall Road,KY,,7683 Mall Rd,38.997405,41042
"1-513-984-4822, 513-984-2629",Blue Ash,,,,USA,,-84.376672,"Friday : 10:30 - 22:00, Monday : 10:30 - 22:00, Saturday : 10:30 - 22:00, Thuesday : 10:30 - 22:00, Sunday : 10:30 - 22:00, Wednesday : 10:30 - 22:00, Thursday : 10:30 - 22:00",Kenwood,OH,,9749 Kenwood Rd,39.235536,45242
"1-513-984-4822, 513-770-0310",Deerfield,,,,USA,,-84.314329,"Friday : 10:30 - 22:00, Monday : 10:30 - 22:00, Saturday : 10:30 - 22:00, Thuesday : 10:30 - 22:00, Sunday : 10:30 - 22:00, Wednesday : 10:30 - 22:00, Thursday : 10:30 - 22:00",Deerfield,OH,,5030 Deerfield Blvd,39.307839,45040
513-755-0486,Liberty Township,,,,USA,Bldg S / Ste S-254,-84.369547,"Friday : 10:00 - 22:00, Monday : 10:00 - 21:00, Saturday : 10:00 - 22:00, Thuesday : 10:00 - 21:00, Sunday : 12:00 - 18:00, Wednesday : 10:00 - 21:00, Thursday : 10:00 - 21:00",Liberty Way,OH,,7100 Foundry Row,39.371592,45011
"1-419-353-7200, 419-353-7200",Bowling Green,,,,USA,,-83.650357,"Friday : 11:00 - 22:00, Monday : 11:00 - 21:00, Saturday : 11:00 - 22:00, Thuesday : 11:00 - 21:00, Sunday : 11:00 - 22:00, Wednesday : 11:00 - 21:00, Thursday : 11:00 - 21:00",Bowling Green,OH,,129 S Main St,41.374311,43402
"1-888-736-2224, 734-457-5640",Monroe,,,,USA,Ste B,-83.402019,"Friday : 07:00 - 23:00, Monday : 07:00 - 22:00, Saturday : 08:00 - 23:00, Thuesday : 07:00 - 22:00, Sunday : 08:00 - 21:00, Wednesday : 07:00 - 22:00, Thursday : 07:00 - 22:00",Monroe,MI,,1570 N Telegraph Rd,41.942144,48162
"1-336-235-2376, 336-235-2376",Greensboro,,,,USA,,-79.832822,"Friday : 11:00 - 22:00, Monday : 11:00 - 22:00, Saturday : 11:00 - 22:00, Thuesday : 11:00 - 22:00, Sunday : 11:00 - 22:00, Wednesday : 11:00 - 22:00, Thursday : 11:00 - 22:00",Pembroke,NC,,700 Pembroke Rd,36.08625,27408
336-278-5353,Elon,,,,USA,Daniel Commons,-79.502242,"Friday : 11:00 - 21:00, Monday : 11:00 - 21:00, Thuesday : 11:00 - 21:00, Wednesday : 11:00 - 21:00, Thursday : 11:00 - 21:00",Elon University,NC,,100 Dalton Mcmichael Dr,36.105549,27244
"1-336-724-9873, 336-724-9873",Winston Salem,,,,USA,,-80.274322,"Friday : 11:00 - 21:00, Monday : 11:00 - 21:00, Saturday : 11:00 - 21:00, Thuesday : 11:00 - 21:00, Sunday : 11:00 - 21:00, Wednesday : 11:00 - 21:00, Thursday : 11:00 - 21:00",Winston,NC,,57 Miller St,36.094014,27104
"1-336-245-2900, 336-245-2900",Winston Salem,,,,USA,,-80.312982,"Friday : 11:00 - 21:00, Monday : 11:00 - 21:00, Saturday : 11:00 - 21:00, Thuesday : 11:00 - 21:00, Sunday : 11:00 - 21:00, Wednesday : 11:00 - 21:00, Thursday : 11:00 - 21:00",Hanes,NC,,945 Hanes Mall Blvd,36.064806,27103
"1-888-736-2224, 973-361-8700",Denville,,,,USA,Suite F,-74.511144,"Friday : 08:00 - 22:00, Monday : 08:00 - 22:00, Saturday : 08:00 - 22:00, Thuesday : 08:00 - 22:00, Sunday : 10:00 - 21:00, Wednesday : 08:00 - 22:00, Thursday : 08:00 - 22:00",Denville,NJ,,3056 New Jersey 10,40.867681,07834
"1-888-736-2224, 973-366-7444",Rockaway,,,,USA,Suite 350,-74.5463,"Friday : 11:00 - 22:00, Monday : 11:00 - 22:00, Saturday : 11:00 - 22:00, Thuesday : 11:00 - 22:00, Sunday : 11:00 - 22:00, Wednesday : 11:00 - 22:00, Thursday : 11:00 - 22:00",Mount Hope,NJ,,395 Mount Hope Ave,40.904,07866
"1-888-736-2224, 402-477-0090",Lincoln,,,,USA,,-96.704105,"Friday : 10:30 - 22:00, Monday : 10:30 - 22:00, Saturday : 10:30 - 22:00, Thuesday : 10:30 - 22:00, Sunday : 10:30 - 21:00, Wednesday : 10:30 - 22:00, Thursday : 10:30 - 22:00",12th Street,NE,,211 N 12th St,40.814918,68508
"1-888-736-2224, 402-466-3660",Lincoln,,,,USA,Suite 904,-96.637216,"Friday : 10:30 - 21:00, Monday : 10:30 - 21:00, Saturday : 10:30 - 21:00, Thuesday : 10:30 - 21:00, Sunday : 10:30 - 21:00, Wednesday : 10:30 - 21:00, Thursday : 10:30 - 21:00",O Street,NE,,6100 O St,40.813539,68505
"1-888-736-2224, 716-683-0652",Buffalo,,,,USA,Ste 220,-78.762308,"Friday : 11:00 - 22:00, Monday : 11:00 - 22:00, Saturday : 11:00 - 22:00, Thuesday : 11:00 - 22:00, Sunday : 11:00 - 22:00, Wednesday : 11:00 - 22:00, Thursday : 11:00 - 22:00",Cheektowaga,NY,,2013 Walden Ave,42.908918,14225
"1-888-736-2224, 716-833-3532",Tonawanda,,,,USA,,-78.822876,"Friday : 11:00 - 22:00, Monday : 11:00 - 22:00, Saturday : 11:00 - 22:00, Thuesday : 11:00 - 22:00, Sunday : 11:00 - 22:00, Wednesday : 11:00 - 22:00, Thursday : 11:00 - 22:00",Tonawanda,NY,,1660 Niagara Falls Blvd,43.00008,14150
"1-888-736-2224, 716-297-0702",Niagara Falls,,,,USA,Ste 112,-78.97121,"Friday : 11:00 - 22:00, Monday : 11:00 - 22:00, Saturday : 11:00 - 22:00, Thuesday : 11:00 - 22:00, Sunday : 11:00 - 22:00, Wednesday : 11:00 - 22:00, Thursday : 11:00 - 22:00",LaSalle Center,NY,,1520 Military Rd,43.09347,14304
"1-888-736-2224, 260-471-0040",Fort Wayne,,,,USA,Ste C,-85.130268,"Friday : 10:30 - 22:00, Monday : 10:30 - 22:00, Saturday : 10:30 - 22:00, Thuesday : 10:30 - 22:00, Sunday : 10:30 - 21:00, Wednesday : 10:30 - 22:00, Thursday : 10:30 - 22:00",Coliseum,IN,,700 E Coliseum Blvd,41.118141,46805
"1-888-736-2224, 260-432-1361",Fort Wayne,,,,USA,Suite 103,-85.202831,"Friday : 10:30 - 22:00, Monday : 10:30 - 22:00, Saturday : 10:30 - 22:00, Thuesday : 10:30 - 22:00, Sunday : 10:30 - 21:00, Wednesday : 10:30 - 22:00, Thursday : 10:30 - 22:00",Ft. Wayne,IN,,4716 Illinois Rd,41.074659,46804
407-506-7379,Orlando,,,,USA,Orlando Intrnl Airport (MCO),-81.300696,"Friday : 10:00 - 22:00, Monday : 10:00 - 22:00, Saturday : 10:00 - 22:00, Thuesday : 10:00 - 22:00, Sunday : 10:00 - 22:00, Wednesday : 10:00 - 22:00, Thursday : 10:00 - 22:00",Orlando Airport,FL,,"One Airport Blvd, Airside 3",28.443563,32827
"1-888-736-2224, 407-628-9217",Altamonte Springs,,,,USA,Suite 1005,-81.419578,"Friday : 11:00 - 22:00, Monday : 11:00 - 22:00, Saturday : 11:00 - 22:00, Thuesday : 11:00 - 22:00, Sunday : 11:00 - 22:00, Wednesday : 11:00 - 22:00, Thursday : 11:00 - 22:00",SR 434,FL,,380 S State Rd 434,28.656866,32714
"1-888-736-2224, 407-275-3820",Orlando,,,,USA,UCF Student Union Building 52,-81.203977,"Friday : 10:00 - 19:00, Monday : 10:00 - 21:00, Saturday : 11:00 - 19:00, Thuesday : 10:00 - 21:00, Sunday : 11:00 - 19:00, Wednesday : 10:00 - 21:00, Thursday : 10:00 - 21:00",UCF,FL,,12715 Pegasus Dr,28.596768,32837
"1-888-736-2224, 407-238-4787",Lake Buena Vista,,,,USA,,-81.506316,"Friday : 10:30 - 22:30, Monday : 10:30 - 22:30, Saturday : 10:30 - 22:30, Thuesday : 10:30 - 22:30, Sunday : 10:30 - 22:30, Wednesday : 10:30 - 22:30, Thursday : 10:30 - 22:30",Apopka,FL,,12376 Apopka Vineland Rd,28.385561,32830
"1-888-736-2224, 407-330-3039",Sanford,,,,USA,,-81.288829,"Friday : 11:00 - 22:00, Monday : 11:00 - 21:30, Saturday : 11:00 - 22:00, Thuesday : 11:00 - 21:30, Sunday : 11:00 - 21:30, Wednesday : 11:00 - 21:30, Thursday : 11:00 - 21:30",Lake Mary,FL,,202 W Lake Mary Blvd,28.757247,32773
"1-888-228-3794, 608-280-8720",Madison,,,,USA,,-89.39468,"Friday : 10:30 - 03:30, Monday : 10:30 - 03:30, Saturday : 10:30 - 03:30, Thuesday : 10:30 - 03:30, Sunday : 10:30 - 02:00, Wednesday : 10:30 - 03:30, Thursday : 10:30 - 03:30",State Street,WI,,548 State St,43.074953,53703
"1-888-228-3794, 608-251-0238",Madison,,,,USA,,-89.401155,"Friday : 10:30 - 03:30, Monday : 10:30 - 03:30, Saturday : 10:30 - 03:30, Thuesday : 10:30 - 03:30, Sunday : 10:30 - 02:00, Wednesday : 10:30 - 03:30, Thursday : 10:30 - 03:30",N. Park,WI,,2 N Park St,43.067717,53715
"1-888-228-3794, 608-218-9670",Madison,,,,USA,,-89.434781,"Friday : 10:30 - 22:30, Monday : 10:30 - 22:30, Saturday : 10:30 - 22:30, Thuesday : 10:30 - 22:30, Sunday : 10:30 - 22:30, Wednesday : 10:30 - 22:30, Thursday : 10:30 - 22:30",University Avenue,WI,,2741 University Ave,43.073606,53705
"1-888-228-3794, 608-442-9400",Fitchburg,,,,USA,,-89.419562,"Friday : 10:30 - 22:00, Monday : 10:30 - 22:00, Saturday : 10:30 - 22:00, Thuesday : 10:30 - 22:00, Sunday : 10:30 - 22:00, Wednesday : 10:30 - 22:00, Thursday : 10:30 - 22:00",Fitchburg,WI,,5401 Caddis Bend Rd,43.01929,53711
608-286-1416,Monona,,,,USA,,-89.325795,"Friday : 10:30 - 22:00, Monday : 10:30 - 22:00, Saturday : 10:30 - 22:00, Thuesday : 10:30 - 22:00, Sunday : 10:30 - 22:00, Wednesday : 10:30 - 22:00, Thursday : 10:30 - 22:00",Monona,WI,,101 W Broadway Ave,43.047973,53716
"1-888-228-3794, 608-819-8910",Madison,,,,USA,,-89.303203,"Friday : 10:30 - 22:00, Monday : 10:30 - 22:00, Saturday : 10:30 - 22:00, Thuesday : 10:30 - 22:00, Sunday : 10:30 - 22:00, Wednesday : 10:30 - 22:00, Thursday : 10:30 - 22:00",East Towne,WI,,4718 E Towne Blvd,43.129784,53704
806-771-2411,Lubbock,,,,USA,Ste 300,-101.955437,"Friday : 10:30 - 22:00, Monday : 10:30 - 22:00, Saturday : 10:30 - 22:00, Thuesday : 10:30 - 22:00, Sunday : 10:30 - 22:00, Wednesday : 10:30 - 22:00, Thursday : 10:30 - 22:00",Canyon West,TX,,5017 Milwaukee Ave,33.545959,79407
775-824-0305,Reno,,,,USA,Unit 500,-119.864162,"Friday : 07:00 - 01:00, Monday : 07:00 - 00:00, Saturday : 07:00 - 01:00, Thuesday : 07:00 - 00:00, Sunday : 07:00 - 00:00, Wednesday : 07:00 - 00:00, Thursday : 07:00 - 00:00",McCarran,NV,,10310 N McCarran Blvd,39.530205,89523
775-852-5475,Reno,,,,USA,,-119.785675,"Friday : 07:00 - 23:00, Monday : 07:00 - 22:00, Saturday : 07:00 - 23:00, Thuesday : 07:00 - 22:00, Sunday : 07:00 - 22:00, Wednesday : 07:00 - 22:00, Thursday : 07:00 - 22:00",Virginia,NV,,6135 S Virginia St,39.469475,89502
775-626-3355,Sparks,,,,USA,Suites 105 and 107,-119.744292,"Friday : 07:00 - 23:00, Monday : 07:00 - 22:00, Saturday : 07:00 - 23:00, Thuesday : 07:00 - 22:00, Sunday : 07:00 - 22:00, Wednesday : 07:00 - 22:00, Thursday : 07:00 - 22:00",Disc Drive,NV,,151 Disc Drive,39.576327,89436
775-972-6364,Reno,,,,USA,,-119.850353,"Friday : 07:00 - 23:00, Monday : 07:00 - 22:00, Saturday : 07:00 - 23:00, Thuesday : 07:00 - 22:00, Sunday : 07:00 - 22:00, Wednesday : 07:00 - 22:00, Thursday : 07:00 - 22:00",Lemmon,NV,,135 Lemmon Dr.,39.612121,89506
775-852-4745,Reno,,,,USA,Unit E,-119.753813,"Friday : 07:00 - 00:00, Monday : 07:00 - 23:00, Saturday : 07:00 - 00:00, Thuesday : 07:00 - 23:00, Sunday : 07:00 - 23:00, Wednesday : 07:00 - 23:00, Thursday : 07:00 - 23:00",Damonte Ranch,NV,,197 Damonte Ranch Pkwy,39.420334,89521
775-267-9366,Carson City,,,,USA,Suite 420,-119.77409,"Friday : 07:00 - 23:00, Monday : 07:00 - 22:00, Saturday : 07:00 - 23:00, Thuesday : 07:00 - 22:00, Sunday : 07:00 - 22:00, Wednesday : 07:00 - 22:00, Thursday : 07:00 - 22:00",Topsy,NV,,933 Topsy Lane,39.11013,89706
"1-225-248-6386, 225-248-6386",Baton Rouge,,,,USA,Suite 940,-91.112368,"Friday : 10:30 - 22:00, Monday : 10:30 - 21:30, Saturday : 10:30 - 22:00, Thuesday : 10:30 - 21:30, Sunday : 10:30 - 21:00, Wednesday : 10:30 - 21:30, Thursday : 10:30 - 21:30",Corporate,LA,,7415 Corporate Blvd,30.430836,70809
208-426-0794,Boise,,,,USA,,-116.193268,"Friday : 08:00 - 22:00, Monday : 08:00 - 21:00, Saturday : 08:00 - 22:00, Thuesday : 08:00 - 21:00, Sunday : 08:00 - 21:00, Wednesday : 08:00 - 21:00, Thursday : 08:00 - 21:00",590 S. Broadway,ID,,590 S Broadway Ave,43.606057,83702
"208-888-0675, 208-888-0675",Meridian,,,,USA,Suite 100,-116.354358,"Friday : 08:00 - 22:00, Monday : 08:00 - 21:00, Saturday : 08:00 - 22:00, Thuesday : 08:00 - 21:00, Sunday : 08:00 - 21:00, Wednesday : 08:00 - 21:00, Thursday : 08:00 - 21:00",Eagle,ID,,3319 N Eagle Rd,43.635175,83646
"208-888-1462, 208-888-1462",Meridian,,,,USA,Suite 100,-116.355805,"Friday : 08:00 - 22:00, Monday : 08:00 - 22:00, Saturday : 08:00 - 22:00, Thuesday : 08:00 - 22:00, Sunday : 08:00 - 22:00, Wednesday : 08:00 - 22:00, Thursday : 08:00 - 22:00",Overland,ID,,3068 E Overland Rd,43.590429,83642
208-467-2136,Nampa,,,,USA,,-116.59311,"Friday : 08:00 - 21:00, Monday : 08:00 - 21:00, Saturday : 08:00 - 21:00, Thuesday : 08:00 - 21:00, Sunday : 08:00 - 21:00, Wednesday : 08:00 - 21:00, Thursday : 08:00 - 21:00",Marketplace,ID,,16383 N Market Place Blvd,43.60496,83687
"1-888-736-2224, 804-213-0047",Richmond,,,,USA,,-77.450312,"Friday : 10:30 - 03:00, Monday : 10:30 - 23:00, Saturday : 10:30 - 03:00, Thuesday : 10:30 - 23:00, Sunday : 10:30 - 23:00, Wednesday : 10:30 - 23:00, Thursday : 10:30 - 23:00",Broad,VA,,935 W Broad St,37.550518,23220
"1-888-736-2224, 804-340-0930",Richmond,,,,USA,,-77.495656,"Friday : 10:30 - 22:00, Monday : 10:30 - 22:00, Saturday : 10:30 - 22:00, Thuesday : 10:30 - 22:00, Sunday : 10:30 - 21:00, Wednesday : 10:30 - 22:00, Thursday : 10:30 - 22:00",Willow Lawn,VA,,4925 W Broad St,37.583251,23230
"1-888-736-2224, 804-226-1133",Richmond,,,,USA,Unit 597,-77.355295,"Friday : 10:30 - 22:00, Monday : 10:30 - 22:00, Saturday : 10:30 - 22:00, Thuesday : 10:30 - 22:00, Sunday : 10:30 - 21:00, Wednesday : 10:30 - 22:00, Thursday : 10:30 - 22:00",Laburnum,VA,,4501 S Laburnum Ave,37.526571,23231
"1-888-736-2224, 804-674-4050",North Chesterfield,,,,USA,,-77.528035,"Friday : 11:00 - 23:00, Monday : 11:00 - 23:00, Saturday : 11:00 - 23:00, Thuesday : 11:00 - 23:00, Sunday : 11:00 - 22:00, Wednesday : 11:00 - 23:00, Thursday : 11:00 - 23:00",Stonebridge,VA,,121 Stonebridge Plaza Av,37.500745,23236
"1-888-736-2224, 804-378-3050",Richmond,,,,USA,Ste A,-77.609017,"Friday : 11:00 - 22:00, Monday : 11:00 - 22:00, Saturday : 11:00 - 22:00, Thuesday : 11:00 - 22:00, Sunday : 11:00 - 21:00, Wednesday : 11:00 - 22:00, Thursday : 11:00 - 22:00",Midlothian,VA,,11500 Midlothian Tpk,37.50561,23235
"1-888-736-2224, 804-360-4265",Glen Allen,,,,USA,,-77.607542,"Friday : 11:00 - 23:00, Monday : 11:00 - 22:00, Saturday : 11:00 - 23:00, Thuesday : 11:00 - 22:00, Sunday : 11:00 - 22:00, Wednesday : 11:00 - 22:00, Thursday : 11:00 - 22:00",Short Pump,VA,,11282 W Broad St,37.650424,23060
"1-888-736-2224, 804-739-0476",Chesterfield,,,,USA,,-77.674038,"Friday : 11:00 - 22:00, Monday : 11:00 - 22:00, Saturday : 11:00 - 22:00, Thuesday : 11:00 - 22:00, Sunday : 11:00 - 21:00, Wednesday : 11:00 - 22:00, Thursday : 11:00 - 22:00",Hancock Village,VA,,7201 Hancock Village Dr,37.403126,23832
"1-888-736-2224, 509-413-1951",Spokane,,,,USA,Ste B,-117.410858,"Friday : 10:30 - 23:00, Monday : 10:30 - 22:00, Saturday : 10:30 - 23:00, Thuesday : 10:30 - 22:00, Sunday : 10:30 - 22:00, Wednesday : 10:30 - 22:00, Thursday : 10:30 - 22:00",Burgans Block,WA,,1120 N Division St,47.667786,99202
"1-888-736-2224, 509-468-8500",Spokane,,,,USA,Ste 150,-117.411484,"Friday : 10:30 - 21:00, Monday : 10:30 - 21:00, Saturday : 10:30 - 21:00, Thuesday : 10:30 - 21:00, Sunday : 11:00 - 20:00, Wednesday : 10:30 - 21:00, Thursday : 10:30 - 21:00",Division,WA,,7115 N Division St,47.722563,99208
"1-888-736-2224, 509-924-5100",Spokane,,,,USA,,-117.239771,"Friday : 10:30 - 21:00, Monday : 10:30 - 21:00, Saturday : 10:30 - 21:00, Thuesday : 10:30 - 21:00, Sunday : 11:00 - 20:00, Wednesday : 10:30 - 21:00, Thursday : 10:30 - 21:00",North Pines,WA,,1527 N Pines Rd,47.670752,99206
"1-888-736-2224, 208-667-2074",Coeur D Alene,,,,USA,Ste A,-116.787915,"Friday : 10:30 - 21:00, Monday : 10:30 - 21:00, Saturday : 10:30 - 21:00, Thuesday : 10:30 - 21:00, Sunday : 11:00 - 20:00, Wednesday : 10:30 - 21:00, Thursday : 10:30 - 21:00",Idaho,ID,,204 W Ironwood Dr,47.693221,83814
"1-888-736-2224, 585-242-0645",Rochester,,,,USA,,-77.616182,"Friday : 11:00 - 22:00, Monday : 11:00 - 22:00, Saturday : 11:00 - 22:00, Thuesday : 11:00 - 22:00, Sunday : 11:00 - 22:00, Wednesday : 11:00 - 22:00, Thursday : 11:00 - 22:00",CityGate,NY,,255 Westfall Rd,43.112155,14620
"1-888-736-2224, 585-670-9857",Webster,,,,USA,,-77.503975,"Friday : 11:00 - 22:00, Monday : 11:00 - 22:00, Saturday : 11:00 - 22:00, Thuesday : 11:00 - 22:00, Sunday : 11:00 - 22:00, Wednesday : 11:00 - 22:00, Thursday : 11:00 - 22:00",Empire,NY,,1867 Empire Blvd,43.190636,14580
"1-888-228-3794, 515-619-5358",Des Moines,,,,USA,Suite 104,-93.645049,"Friday : 10:30 - 22:00, Monday : 10:30 - 22:00, Saturday : 10:30 - 22:00, Thuesday : 10:30 - 22:00, Sunday : 10:30 - 22:00, Wednesday : 10:30 - 22:00, Thursday : 10:30 - 22:00",Ingersoll,IA,,2105 Ingersoll Ave,41.585783,50312
"1-888-228-3794, 515-440-3885",Clive,,,,USA,Ste A19,-93.756546,"Friday : 10:30 - 22:00, Monday : 10:30 - 21:00, Saturday : 10:30 - 22:00, Thuesday : 10:30 - 21:00, Sunday : 10:30 - 21:00, Wednesday : 10:30 - 21:00, Thursday : 10:30 - 21:00",Clive,IA,,10201 W University Ave,41.600565,50325
"1-888-736-2224, 253-770-4802",Puyallup,,,,USA,Suite 108,-122.29133,"Friday : 11:00 - 22:30, Monday : 11:00 - 22:30, Saturday : 11:00 - 22:30, Thuesday : 11:00 - 22:30, Sunday : 11:00 - 21:30, Wednesday : 11:00 - 22:30, Thursday : 11:00 - 22:30",156th Street,WA,,10306 156th St E,47.11185,98374
"1-888-736-2224, 253-964-2177",Joint Base Lewis-Mcchord,,,,USA,Ms/46,-122.591947,"Friday : 06:00 - 21:00, Monday : 06:00 - 21:00, Saturday : 10:00 - 20:00, Thuesday : 06:00 - 21:00, Sunday : 10:00 - 20:00, Wednesday : 06:00 - 21:00, Thursday : 06:00 - 21:00",AAFES Exchange,WA,,41st Division Dr,47.106799,98433
"1-888-736-2224, 845-623-3687",Nanuet,,,,USA,,-74.016931,"Friday : 11:00 - 22:00, Monday : 11:00 - 22:00, Saturday : 11:00 - 22:00, Thuesday : 11:00 - 22:00, Sunday : 11:00 - 22:00, Wednesday : 11:00 - 22:00, Thursday : 11:00 - 22:00",Nanuet,NY,,4101 Fashion Drive,41.09605,10954
"1-888-736-2224, 203-663-5127",Norwalk,,,,USA,,-73.417909,"Friday : 07:30 - 22:00, Monday : 07:30 - 22:00, Saturday : 07:30 - 22:00, Thuesday : 07:30 - 22:00, Sunday : 07:30 - 21:00, Wednesday : 07:30 - 22:00, Thursday : 07:30 - 22:00",Norwalk,CT,,652 Main Ave,41.158474,06851
"1-888-736-2224, 616-454-7346",Grand Rapids,,,,USA,Suite 1100,-85.667296,"Friday : 07:00 - 23:00, Monday : 07:00 - 23:00, Saturday : 10:00 - 21:00, Thuesday : 07:00 - 23:00, Sunday : 10:00 - 21:00, Wednesday : 07:00 - 23:00, Thursday : 07:00 - 23:00",Michigan Street,MI,,25 Michigan St NE,42.970565,49503
"1-888-736-2224, 616-988-5650",Walker,,,,USA,,-85.68914,"Friday : 10:30 - 23:00, Monday : 10:30 - 23:00, Saturday : 10:30 - 23:00, Thuesday : 10:30 - 23:00, Sunday : 10:30 - 22:00, Wednesday : 10:30 - 23:00, Thursday : 10:30 - 23:00",Alpine,MI,,3225 Alpine Ave Nw,43.022219,49544
"1-888-736-2224, 616-447-8801",Grand Rapids,,,,USA,Suite H,-85.59052,"Friday : 10:30 - 23:00, Monday : 10:30 - 22:30, Saturday : 10:30 - 23:00, Thuesday : 10:30 - 22:30, Sunday : 10:30 - 22:00, Wednesday : 10:30 - 22:30, Thursday : 10:30 - 22:30",Beltline,MI,,2211 E Beltline Ave Ne,43.002222,49525
"1-888-736-2224, 616-957-3943",Grand Rapids,,,,USA,,-85.58793,"Friday : 10:30 - 23:00, Monday : 10:30 - 23:00, Saturday : 10:30 - 23:00, Thuesday : 10:30 - 23:00, Sunday : 10:30 - 23:00, Wednesday : 10:30 - 23:00, Thursday : 10:30 - 23:00",28th St Relo,MI,,3214 28th St SE,42.912045,49512
"1-888-736-2224, 616-724-1600",Grandville,,,,USA,Ste 60,-85.759009,"Friday : 10:30 - 23:00, Monday : 10:30 - 23:00, Saturday : 10:30 - 23:00, Thuesday : 10:30 - 23:00, Sunday : 10:30 - 23:00, Wednesday : 10:30 - 23:00, Thursday : 10:30 - 23:00",Rivertown,MI,,3871 Rivertown Pkwy,42.882638,49418
"1-888-736-2224, 616-554-4842",Caledonia,,,,USA,,-85.622213,"Friday : 10:30 - 23:00, Monday : 10:30 - 22:30, Saturday : 10:30 - 23:00, Thuesday : 10:30 - 22:30, Sunday : 10:30 - 22:30, Wednesday : 10:30 - 22:30, Thursday : 10:30 - 22:30",Caledonia,MI,,1673 Marketplace Dr Se,42.844816,49316
616-331-8660,Allendale,,,,USA,111 Kleiner Common,-85.88551,"Friday : 11:00 - 21:00, Monday : 11:00 - 21:00, Saturday : 16:00 - 21:00, Thuesday : 11:00 - 21:00, Sunday : 16:00 - 21:00, Wednesday : 11:00 - 21:00, Thursday : 11:00 - 21:00",Grand Valley State,MI,,1 Campus Dr,42.968987,49401
"1-888-736-2224, 616-786-4866",Holland,,,,USA,Suite 60,-86.091133,"Friday : 10:30 - 23:00, Monday : 10:30 - 22:00, Saturday : 10:30 - 23:00, Thuesday : 10:30 - 22:00, Sunday : 10:30 - 22:00, Wednesday : 10:30 - 22:00, Thursday : 10:30 - 22:00",West Shore,MI,,3155 West Shore Dr,42.825665,49424
801-322-6323,Salt Lake,,,,USA,Salt Lake City Intrnl Airport,-111.982005,,Salt Lake City Airport (SLC),UT,,"776 N Terminal Drive, HBFATG",40.785859,84116
unavailable,Knoxville,,,,USA,Student Union Bldg,-83.928658,"Friday : 10:30 - 18:00, Monday : 10:30 - 20:00, Thuesday : 10:30 - 20:00, Wednesday : 10:30 - 20:00, Thursday : 10:30 - 20:00",UT Knoxville,TN,,1502 Cumberland Ave,35.957836,37996
"1-865-588-3333, 865-588-3333",Knoxville,,,,USA,,-84.031573,"Friday : 11:00 - 21:30, Monday : 11:00 - 21:00, Saturday : 11:00 - 21:30, Thuesday : 11:00 - 21:00, Sunday : 11:00 - 21:00, Wednesday : 11:00 - 21:00, Thursday : 11:00 - 21:00",Kingston Pike,TN,,7339 Kingston Pike,35.930047,37919
"1-888-736-2224, 508-865-0500",Millbury,,,,USA,Ste 425,-71.771785,"Friday : 10:30 - 23:00, Monday : 10:30 - 22:00, Saturday : 10:30 - 23:00, Thuesday : 10:30 - 22:00, Sunday : 10:30 - 22:00, Wednesday : 10:30 - 22:00, Thursday : 10:30 - 22:00",Worcester,MA,,70 Worcester Providence Tpk,42.193965,01527
"1-888-736-2224, 508-936-1017",Northborough,,,,USA,,-71.67252,"Friday : 10:30 - 22:00, Monday : 10:30 - 22:00, Saturday : 10:30 - 22:00, Thuesday : 10:30 - 22:00, Sunday : 10:30 - 22:00, Wednesday : 10:30 - 22:00, Thursday : 10:30 - 22:00",Shops Way,MA,,4104 Shops Way,42.286893,01532
"1-757-208-0824, 757-208-0824",Williamsburg,,,,USA,Unit D,-76.718744,"Friday : 11:00 - 21:00, Monday : 11:00 - 21:00, Saturday : 11:00 - 21:00, Thuesday : 11:00 - 21:00, Sunday : 11:00 - 21:00, Wednesday : 11:00 - 21:00, Thursday : 11:00 - 21:00",Richmond Road,VA,,1220 Richmond Rd,37.280757,23185
"1-888-736-2224, 401-946-5200",Cranston,,,,USA,Suite 100,-71.458599,"Friday : 10:30 - 22:00, Monday : 10:30 - 22:00, Saturday : 10:30 - 22:00, Thuesday : 10:30 - 22:00, Sunday : 10:30 - 21:00, Wednesday : 10:30 - 22:00, Thursday : 10:30 - 22:00",Chapel View,RI,,4000 Chapel View Blvd,41.755899,02920
