store_name,store_number,address,address2,city,state,zip_code,country,phone_number,latitude,longitude,store_hours,store_type,other_fields,coming_soon
Macy's Backstage at Macy's Birmingham,,614 Brookwood Village,,Birmingham,AL,35209,United States,(205) 868-2600,33.47112405039294,-86.76948210185242,"Monday 10:00 AM - 8:00 PM, Tuesday 10:00 AM - 8:00 PM, Wednesday 10:00 AM - 8:00 PM, Thursday 10:00 AM - 9:00 PM, Friday 10:00 AM - 9:00 PM, Saturday 10:00 AM - 9:00 PM, Sunday 12:00 PM - 6:00 PM",,,
Macy's Backstage at Macy's at The Rim,,5811 Worth Parkway,,San Antonio,TX,78257,United States,(210) 780-4808,29.61425864572838,-98.598416635582,"Monday 10:00 AM - 9:00 PM, Tuesday 10:00 AM - 9:00 PM, Wednesday 10:00 AM - 9:00 PM, Thursday 10:00 AM - 9:00 PM, Friday 10:00 AM - 9:00 PM, Saturday 10:00 AM - 9:00 PM, Sunday 11:00 AM - 7:00 PM",,,
Macy's Backstage at Macy's Mayfair Mall,,2500 N Mayfair Road,,Wauwatosa,WI,53226,United States,(414) 471-3700,43.065545163173944,-88.04488153779857,"Monday 10:00 AM - 9:00 PM, Tuesday 10:00 AM - 9:00 PM, Wednesday 10:00 AM - 9:00 PM, Thursday 10:00 AM - 9:00 PM, Friday 10:00 AM - 9:00 PM, Saturday 10:00 AM - 9:00 PM, Sunday 11:00 AM - 7:00 PM",,,
Macy's Backstage at Macy's Providence Place,,7 Providence Place,,Providence,RI,02903,United States,(401) 351-9900,41.82627698183868,-71.41611798280337,"Monday 10:00 AM - 8:00 PM, Tuesday 10:00 AM - 8:00 PM, Wednesday 10:00 AM - 8:00 PM, Thursday 10:00 AM - 9:30 PM, Friday 10:00 AM - 10:00 PM, Saturday 10:00 AM - 10:00 PM, Sunday 11:00 AM - 7:00 PM",,,
Macy's Backstage at Macy's San Antonio,,6301 Northwest Loop 410,,San Antonio,TX,78238,United States,(210) 647-2400,29.46949226032194,-98.62009406089783,"Monday 10:00 AM - 8:00 PM, Tuesday 10:00 AM - 8:00 PM, Wednesday 10:00 AM - 8:00 PM, Thursday 10:00 AM - 10:00 PM, Friday 10:00 AM - 10:00 PM, Saturday 10:00 AM - 10:00 PM, Sunday 11:00 AM - 7:00 PM",,,
Macy's Backstage at Macy's Roosevelt,,2399 Cottman Avenue,,Philadelphia,PA,19149,United States,(215) 331-5500,40.046819433081644,-75.05467236042023,"Monday 10:00 AM - 9:30 PM, Tuesday 10:00 AM - 9:30 PM, Wednesday 10:00 AM - 9:30 PM, Thursday 10:00 AM - 9:30 PM, Friday 10:00 AM - 10:00 PM, Saturday 10:00 AM - 10:00 PM, Sunday 11:00 AM - 7:00 PM",,,
Macy's Backstage at Macy's Montgomery Mall,,Montgomery Mall,,North Wales,PA,19454,United States,(215) 362-9100,40.23537861927238,-75.24375818650816,"Monday 10:00 AM - 8:00 PM, Tuesday 10:00 AM - 8:00 PM, Wednesday 10:00 AM - 8:00 PM, Thursday 10:00 AM - 9:30 PM, Friday 10:00 AM - 9:30 PM, Saturday 10:00 AM - 9:30 PM, Sunday 11:00 AM - 7:00 PM",,,
Macy's Backstage at Macy's Dulles,,21060 Dulles Town Circle,,Dulles,VA,20166,United States,(703) 421-4814,39.033,-77.424,"Monday 10:00 AM - 8:00 PM, Tuesday 10:00 AM - 8:00 PM, Wednesday 10:00 AM - 8:00 PM, Thursday 10:00 AM - 9:30 PM, Friday 10:00 AM - 10:00 PM, Saturday 10:00 AM - 9:30 PM, Sunday 11:00 AM - 7:00 PM",,,
Macy's Backstage at Macy's East Mall,,3401 Paxton Street,,Harrisburg,PA,17111,United States,(717) 561-8770,40.25204628252383,-76.83155510185236,"Monday 10:00 AM - 8:00 PM, Tuesday 10:00 AM - 8:00 PM, Wednesday 10:00 AM - 8:00 PM, Thursday 10:00 AM - 9:00 PM, Friday 10:00 AM - 9:30 PM, Saturday 10:00 AM - 9:30 PM, Sunday 12:00 PM - 7:00 PM",,,
Macy's Backstage at Macy's Town East Mall,,4000 Town East Blvd.,,Mesquite,TX,75150,United States,(972) 681-6700,32.80776918765807,-96.62220239639282,"Monday 10:00 AM - 8:00 PM, Tuesday 10:00 AM - 8:00 PM, Wednesday 10:00 AM - 8:00 PM, Thursday 10:00 AM - 9:00 PM, Friday 10:00 AM - 10:00 PM, Saturday 10:00 AM - 10:00 PM, Sunday 11:00 AM - 7:00 PM",,,
Macy's Backstage at Macy's Monroeville,,400 Monroeville Mall,,Monroeville,PA,15146,United States,(412) 858-3700,40.428753,-79.793393,"Monday 10:00 AM - 8:00 PM, Tuesday 10:00 AM - 8:00 PM, Wednesday 10:00 AM - 8:00 PM, Thursday 10:00 AM - 9:00 PM, Friday 10:00 AM - 10:00 PM, Saturday 10:00 AM - 10:00 PM, Sunday 11:00 AM - 7:00 PM",,,
Macy's Backstage at Macy's White Plains Galleria,,100 Main Street,,White Plains,NY,10601,United States,(914) 946-5015,41.03164613990073,-73.76818954232795,"Monday 10:00 AM - 8:00 PM, Tuesday 10:00 AM - 8:00 PM, Wednesday 10:00 AM - 8:00 PM, Thursday 10:00 AM - 9:00 PM, Friday 10:00 AM - 9:30 PM, Saturday 10:00 AM - 9:30 PM, Sunday 11:00 AM - 7:00 PM",,,
Macy's Backstage at Macy's Hulen Mall,,4650 South Hulen Street,,Fort Worth,TX,76132,United States,(817) 294-6900,32.679321619824776,-97.39739080888967,"Monday 10:00 AM - 8:00 PM, Tuesday 10:00 AM - 8:00 PM, Wednesday 10:00 AM - 8:00 PM, Thursday 10:00 AM - 9:00 PM, Friday 10:00 AM - 10:00 PM, Saturday 10:00 AM - 10:00 PM, Sunday 11:00 AM - 7:00 PM",,,
Macy's Backstage at Macy's Fordham Place,,404 East Fordham Rd,,Bronx,NY,10458,United States,(929) 285-3150,40.860893,-73.891798,"Monday 10:00 AM - 9:30 PM, Tuesday 10:00 AM - 9:30 PM, Wednesday 10:00 AM - 9:30 PM, Thursday 10:00 AM - 9:30 PM, Friday 10:00 AM - 9:30 PM, Saturday 10:00 AM - 9:30 PM, Sunday 11:00 AM - 8:00 PM",,,
Macy's Backstage at Macy's Nanuet Mall,,200 Nanuet Mall,,Nanuet,NY,10954,United States,(845) 623-4100,41.09448795723185,-74.01510208465578,"Monday 10:00 AM - 8:00 PM, Tuesday 10:00 AM - 8:00 PM, Wednesday 10:00 AM - 8:00 PM, Thursday 10:00 AM - 9:00 PM, Friday 10:00 AM - 9:00 PM, Saturday 10:00 AM - 9:00 PM, Sunday 11:00 AM - 7:00 PM",,,
Macy's Backstage at Macy's Sheepshead Bay,,2027 Emmons Avenue,,Brooklyn,NY,11235,United States,(929) 275-3490,40.58404171060845,-73.94690041596277,"Monday 10:00 AM - 10:00 PM, Tuesday 10:00 AM - 10:00 PM, Wednesday 10:00 AM - 10:00 PM, Thursday 10:00 AM - 10:00 PM, Friday 10:00 AM - 10:00 PM, Saturday 10:00 AM - 10:00 PM, Sunday 11:00 AM - 8:00 PM",,,
Macy's Backstage at Macy's Oak Court Mall,,Oak Court,,Memphis,TN,38117,United States,(901) 766-4199,35.116872139486205,-89.91062879562378,"Monday 10:00 AM - 8:00 PM, Tuesday 10:00 AM - 8:00 PM, Wednesday 10:00 AM - 8:00 PM, Thursday 10:00 AM - 9:00 PM, Friday 10:00 AM - 10:00 PM, Saturday 10:00 AM - 10:00 PM, Sunday 11:00 AM - 7:00 PM",,,
Macy's Backstage at Macy's Lake Success,,1526 Union Turnpike,,New Hyde Park,NY,11040,United States,(516) 502-1970,40.753287908736716,-73.69259213263376,"Monday 10:00 AM - 9:30 PM, Tuesday 10:00 AM - 9:30 PM, Wednesday 10:00 AM - 9:30 PM, Thursday 10:00 AM - 9:30 PM, Friday 10:00 AM - 9:30 PM, Saturday 10:00 AM - 9:30 PM, Sunday 11:00 AM - 8:00 PM",,,
Macy's Backstage at Macy's Massapequa,,400 Sunrise Mall,,Massapequa,NY,11758,United States,(516) 795-2000,40.6808536358297,-73.43493461608887,"Monday 10:00 AM - 9:30 PM, Tuesday 10:00 AM - 9:30 PM, Wednesday 10:00 AM - 9:30 PM, Thursday 10:00 AM - 9:30 PM, Friday 10:00 AM - 9:30 PM, Saturday 10:00 AM - 9:30 PM, Sunday 11:00 AM - 7:00 PM",,,
Macy's Backstage at Macy's Woodbridge,,237 Woodbridge Center Dr,,Woodbridge Township,NJ,07095,United States,(732) 636-2450,40.557,-74.299,"Monday 10:00 AM - 9:30 PM, Tuesday 10:00 AM - 9:30 PM, Wednesday 10:00 AM - 9:30 PM, Thursday 10:00 AM - 9:30 PM, Friday 10:00 AM - 10:00 PM, Saturday 10:00 AM - 10:00 PM, Sunday 11:00 AM - 8:00 PM",,,
Macy's Backstage at Macy's Rockaway Town Square Mall,,303 Mount Hope Avenue,,Rockaway,NJ,07866,United States,(973) 328-1234,40.9075421320062,-74.55232308465582,"Monday 10:00 AM - 8:00 PM, Tuesday 10:00 AM - 8:00 PM, Wednesday 10:00 AM - 8:00 PM, Thursday 10:00 AM - 9:30 PM, Friday 10:00 AM - 9:30 PM, Saturday 10:00 AM - 9:30 PM, Sunday 11:00 AM - 7:00 PM",,,
Macy's Backstage at Macy's Paramus,,100 Paramus Park,,Paramus,NJ,07652,United States,(201) 967-1400,40.95646900909843,-74.06892173006781,"Monday 10:00 AM - 9:30 PM, Tuesday 10:00 AM - 9:30 PM, Wednesday 10:00 AM - 9:30 PM, Thursday 10:00 AM - 9:30 PM, Friday 10:00 AM - 9:30 PM, Saturday 10:00 AM - 9:30 PM, Sunday  - ",,,
Macy's Backstage at Macy's Melville,,834 Walt Whitman Road,,Huntington,NY,11747,United States,(631) 760-3650,40.798933,-73.40988,"Monday 10:00 AM - 9:00 PM, Tuesday 10:00 AM - 9:00 PM, Wednesday 10:00 AM - 9:00 PM, Thursday 10:00 AM - 9:00 PM, Friday 10:00 AM - 9:00 PM, Saturday 10:00 AM - 9:00 PM, Sunday 11:00 AM - 8:00 PM",,,
Macy's Backstage at Macy's Essex Green SC,,495 Prospect Avenue West,,West Orange,NJ,07052,United States,(973) 736-9323,40.79316561540197,-74.2558588528118,"Monday 10:00 AM - 9:00 PM, Tuesday 10:00 AM - 9:00 PM, Wednesday 10:00 AM - 9:00 PM, Thursday 10:00 AM - 9:00 PM, Friday 10:00 AM - 9:00 PM, Saturday 10:00 AM - 9:00 PM, Sunday 11:00 AM - 8:00 PM",,,
Macy's Backstage at Macy's Oakland Mall,,500 W 14 Mile Road,,Troy,MI,48083,United States,(248) 597-2200,42.5371334158539,-83.11337204309888,"Monday 10:00 AM - 9:00 PM, Tuesday 10:00 AM - 9:00 PM, Wednesday 10:00 AM - 9:00 PM, Thursday 10:00 AM - 9:00 PM, Friday 10:00 AM - 9:00 PM, Saturday 10:00 AM - 9:00 PM, Sunday 11:00 AM - 7:00 PM",,,
Macy's Backstage at Macy's Queens Place,,88-01 Queens Boulevard,,Elmhurst,NY,11373,United States,(718) 489-5100,40.735307,-73.874761,"Monday 10:00 AM - 10:00 PM, Tuesday 10:00 AM - 10:00 PM, Wednesday 10:00 AM - 10:00 PM, Thursday 10:00 AM - 10:00 PM, Friday 10:00 AM - 10:00 PM, Saturday 10:00 AM - 10:00 PM, Sunday 10:00 AM - 8:00 PM",,,
Macy's Backstage at Macy's Gwinnett Place Mall,,2100 Pleasant Hill Road,,Duluth,GA,30096,United States,(770) 497-2600,33.960516,-84.125865,"Monday 10:00 AM - 8:00 PM, Tuesday 10:00 AM - 8:00 PM, Wednesday 10:00 AM - 8:00 PM, Thursday 10:00 AM - 9:00 PM, Friday 10:00 AM - 9:30 PM, Saturday 10:00 AM - 9:30 PM, Sunday 12:00 PM - 7:00 PM",,,
Macy's Backstage at Macy's Lakeside Mall,,14200 Lakeside Circle,,Sterling Heights,MI,48313,United States,(586) 566-2800,42.62351683385328,-82.98558624121142,"Monday 10:00 AM - 9:00 PM, Tuesday 10:00 AM - 9:00 PM, Wednesday 10:00 AM - 9:00 PM, Thursday 10:00 AM - 9:00 PM, Friday 10:00 AM - 9:00 PM, Saturday 10:00 AM - 9:00 PM, Sunday 11:00 AM - 7:00 PM",,,
Macy's Backstage at Macy's Gaithersburg,,701 Russell Avenue,,Gaithersburg,MD,20877,United States,(301) 948-3360,39.15324359009727,-77.20419664599831,"Monday 10:00 AM - 8:00 PM, Tuesday 10:00 AM - 8:00 PM, Wednesday 10:00 AM - 8:00 PM, Thursday 10:00 AM - 9:00 PM, Friday 10:00 AM - 9:30 PM, Saturday 10:00 AM - 9:30 PM, Sunday 11:00 AM - 7:00 PM",,,
Macy's Backstage at Macy's Fairlane Town Center,,18900 Michigan Avenue,,Dearborn,MI,48126,United States,(313) 436-7600,42.31714643045489,-83.22142215105487,"Monday 10:00 AM - 8:00 PM, Tuesday 10:00 AM - 8:00 PM, Wednesday 10:00 AM - 8:00 PM, Thursday 10:00 AM - 9:00 PM, Friday 10:00 AM - 9:00 PM, Saturday 10:00 AM - 9:00 PM, Sunday 11:00 AM - 7:00 PM",,,
Macy's Backstage at Macy's St. Clair Square,,200 St. Clair Square,,Fairview Heights,IL,62208,United States,(618) 624-2000,38.59667756740717,-89.98135328292847,"Monday 10:00 AM - 8:00 PM, Tuesday 10:00 AM - 8:00 PM, Wednesday 10:00 AM - 8:00 PM, Thursday 10:00 AM - 9:00 PM, Friday 10:00 AM - 9:00 PM, Saturday 10:00 AM - 9:00 PM, Sunday 11:00 AM - 7:00 PM",,,
Macy's Backstage at Macy's Morrow,,1500 Southlake Mall,,Morrow,GA,30260,United States,(770) 961-3300,33.575596833691634,-84.35021102428436,"Monday 10:00 AM - 8:00 PM, Tuesday 10:00 AM - 8:00 PM, Wednesday 10:00 AM - 8:00 PM, Thursday 10:00 AM - 10:00 PM, Friday 10:00 AM - 10:00 PM, Saturday 10:00 AM - 10:00 PM, Sunday 11:00 AM - 7:00 PM",,,
Macy's Backstage Southlake Mall,,2210 Southlake Mall,,Merrillville,IN,46410,United States,(219) 769-9100,41.4692457995038,-87.3111015862741,"Monday 10:00 AM - 8:00 PM, Tuesday 10:00 AM - 8:00 PM, Wednesday 10:00 AM - 8:00 PM, Thursday 10:00 AM - 9:00 PM, Friday 10:00 AM - 9:00 PM, Saturday 10:00 AM - 9:00 PM, Sunday 11:00 AM - 7:00 PM",,,
Macy's Backstage at Macy's Cumberland Mall,,1300 Cumberland Mall,,Atlanta,GA,30339,United States,(770) 434-2600,33.879505838345445,-84.46901813149452,"Monday 10:00 AM - 9:00 PM, Tuesday 10:00 AM - 9:00 PM, Wednesday 10:00 AM - 9:00 PM, Thursday 10:00 AM - 10:00 PM, Friday 10:00 AM - 10:00 PM, Saturday 10:00 AM - 10:00 PM, Sunday 11:00 AM - 7:00 PM",,,
Macy's Backstage at Macy's Connecticut Post,,1201 Post Road,,Milford,CT,06460,United States,(203) 877-9393,41.23657161342728,-73.03621872338226,"Monday 10:00 AM - 8:00 PM, Tuesday 10:00 AM - 8:00 PM, Wednesday 10:00 AM - 8:00 PM, Thursday 10:00 AM - 9:30 PM, Friday 10:00 AM - 9:30 PM, Saturday 10:00 AM - 9:30 PM, Sunday 11:00 AM - 7:00 PM",,,
Macy's Backstage at Macy's Mall at Stonecrest,,8030 Mall Parkway,,Lithonia,GA,30038,United States,(678) 526-2300,33.699140829769945,-84.09452676773071,"Monday 10:00 AM - 8:00 PM, Tuesday 10:00 AM - 8:00 PM, Wednesday 10:00 AM - 8:00 PM, Thursday 10:00 AM - 9:00 PM, Friday 10:00 AM - 10:00 PM, Saturday 10:00 AM - 10:00 PM, Sunday 11:00 AM - 7:00 PM",,,
Macy's Backstage at Macy's Edison Mall,,4125 Cleveland Ave.,,Ft. Myers,FL,33901,United States,(239) 477-3300,26.60036097623762,-81.86843812465668,"Monday 10:00 AM - 8:00 PM, Tuesday 10:00 AM - 8:00 PM, Wednesday 10:00 AM - 8:00 PM, Thursday 10:00 AM - 9:00 PM, Friday 10:00 AM - 9:00 PM, Saturday 10:00 AM - 9:00 PM, Sunday 11:30 AM - 6:00 PM",,,
Macy's Backstage at Macy's Altamonte Springs,,451 E. Altamonte Dr.,,Altamonte Springs,FL,32701,United States,(407) 830-2300,28.66763281118589,-81.37731654232789,"Monday 10:00 AM - 8:00 PM, Tuesday 10:00 AM - 8:00 PM, Wednesday 10:00 AM - 8:00 PM, Thursday 10:00 AM - 9:00 PM, Friday 10:00 AM - 9:30 PM, Saturday 10:00 AM - 9:30 PM, Sunday 11:00 AM - 7:00 PM",,,
Macy's Backstage at Macy's Town Center at Cobb,,400 Ernest W Barrett Parkway,,Kennesaw,GA,30144,United States,(770) 423-2600,34.01779292993749,-84.56436935131939,"Monday 10:00 AM - 8:00 PM, Tuesday 10:00 AM - 8:00 PM, Wednesday 10:00 AM - 8:00 PM, Thursday 10:00 AM - 10:00 PM, Friday 10:00 AM - 10:00 PM, Saturday 10:00 AM - 10:00 PM, Sunday 11:00 AM - 7:00 PM",,,
Macy's Backstage at Macy's Stamford,,151 Broad Street,,Stamford,CT,06901,United States,(203) 964-1500,41.05303757442613,-73.53666543960571,"Monday 10:00 AM - 8:00 PM, Tuesday 10:00 AM - 8:00 PM, Wednesday 10:00 AM - 8:00 PM, Thursday 10:00 AM - 9:30 PM, Friday 10:00 AM - 9:30 PM, Saturday 10:00 AM - 9:00 PM, Sunday 11:00 AM - 7:00 PM",,,
Macy's Backstage at Macy's Boynton Beach,,801 N. Congress Avenue,,Boynton Beach,FL,33426,United States,(561) 738-4200,26.533132908376896,-80.0958188809509,"Monday 10:00 AM - 8:00 PM, Tuesday 10:00 AM - 8:00 PM, Wednesday 10:00 AM - 8:00 PM, Thursday 10:00 AM - 9:00 PM, Friday 10:00 AM - 9:00 PM, Saturday 10:00 AM - 9:30 PM, Sunday 12:00 PM - 7:00 PM",,,
Macy's Backstage at Macy's Westfield Meriden,,470 Lewis Avenue,,Meriden,CT,06450,United States,(203) 238-0741,41.550079024418736,-72.80787790194154,"Monday 10:00 AM - 8:00 PM, Tuesday 10:00 AM - 8:00 PM, Wednesday 10:00 AM - 8:00 PM, Thursday 10:00 AM - 9:00 PM, Friday 10:00 AM - 9:30 PM, Saturday 10:00 AM - 9:30 PM, Sunday 11:00 AM - 7:00 PM",,,
Macy's Backstage at Macy's Brass Mill Center,,575 Union Street,,Waterbury,CT,06702,United States,(203) 757-1131,41.547466014765575,-73.02366017790979,"Monday 10:00 AM - 8:00 PM, Tuesday 10:00 AM - 8:00 PM, Wednesday 10:00 AM - 8:00 PM, Thursday 10:00 AM - 9:00 PM, Friday 10:00 AM - 9:30 PM, Saturday 10:00 AM - 9:30 PM, Sunday 11:00 AM - 7:00 PM",,,
Macy's Backstage at Macy's Buckland Hills,,183 Pavilions Drive,,Manchester,CT,06040,United States,(860) 644-6700,41.806009336601015,-72.54515973854723,"Monday 10:00 AM - 8:00 PM, Tuesday 10:00 AM - 8:00 PM, Wednesday 10:00 AM - 8:00 PM, Thursday 10:00 AM - 9:00 PM, Friday 10:00 AM - 9:30 PM, Saturday 10:00 AM - 9:30 PM, Sunday 11:00 AM - 7:00 PM",,,
Macy's Backstage at Macy's Riverchase Galleria,,2600 Riverchase Galleria,,Birmingham,AL,35244,United States,(205) 985-2600,33.37760739813638,-86.80768453372951,"Monday 10:00 AM - 8:00 PM, Tuesday 10:00 AM - 8:00 PM, Wednesday 10:00 AM - 8:00 PM, Thursday 10:00 AM - 9:00 PM, Friday 10:00 AM - 10:00 PM, Saturday 10:00 AM - 10:00 PM, Sunday 12:00 PM - 7:00 PM",,,
