store_name,store_number,address,address2,city,state,zip_code,country,phone_number,latitude,longitude,store_hours,store_type,other_fields,coming_soon
SpeeDee Oil Change & Auto Service - Store,1394,9550 N. 90th St. #A-2,,Scottsdale,AZ,85258,United States,(480) 391-0796,33.57228,-111.887432,"Monday - Friday: 7:30am - 6:00pm, Saturday: 7:30am - 5:00pm, Sunday: Closed",,,
SpeeDee Oil Change & Auto Service - Store,17013,12021 Summer Ridge Drive,,Auburn,CA,95603,United States,(530) 823-0102,38.9228,-121.083,"Monday - Friday: 8:00am - 6:00pm, Saturday: 8:00am - 5:00pm, Sunday: 9:00am - 4:00pm",,,
SpeeDee Oil Change & Auto Service - Store,17055,7377 Brentwood Boulevard,,Brentwood,CA,94513,United States,(925) 516-0623,37.947744,-121.696198,"Monday-Friday: 8:00am - 5:00pm, Saturday: 8:00am - 5:00pm, Sunday: Closed",,,
SpeeDee Oil Change & Auto Service - Store,17014,736 Clovis Avenue,,Clovis,CA,93612,United States,(559) 323-8398,36.821316,-119.700663,"Monday-Friday: 8:00am - 6:00pm, Saturday: 8:00am - 6:00pm, Sunday: Closed",,,
SpeeDee Oil Change & Auto Service - Store,1628,2525 Monument Boulevard,,Concord,CA,94520,United States,(925) 687-6062,37.9602,-122.033,"Monday-Friday: 7:30am - 6:00pm, Saturday: 7:30am - 5:00pm, Sunday: Closed",,,
SpeeDee Oil Change & Auto Service - Store,17034,1600 Sullivan Avenue,,Daly City,CA,94015,United States,(650) 755-8777,37.687617,-122.472252,"Monday-Friday: 8:00am - 6:00pm, Saturday: 8:00am - 5:00pm, Sunday: Closed",,,
SpeeDee Oil Change & Auto Service - Store,17050,2000 F Street,,Davis,CA,95616,United States,(530) 753-1633,38.5613,-121.745,"Monday-Friday: 8:00am - 6:00pm, Saturday: 8:00am - 5:00pm, Sunday: 9:00am - 3:00pm",,,
SpeeDee Oil Change & Auto Service - Store,1865,6955 Village Parkway,,Dublin,CA,94568,United States,(925) 829-8801,37.7079,-121.925,"Monday - Friday: 7:30am - 6:00pm, Saturday: 8:00am - 5:00pm, Sunday: 9:00am - 5:00pm",,,
SpeeDee Oil Change & Auto Service - Store,17098,8573 Elk Grove Blvd.,,Elk Grove,CA,95624,United States,(916) 686-1616,38.4093,-121.386,"Monday-Friday: 8:00am - 6:00pm, Saturday: 8:00am - 5:30pm, Sunday: 10:00am - 4:00pm",,,
SpeeDee Oil Change & Auto Service - Store,17041,5490 Dewey Dr.,,Fair Oaks,CA,95628,United States,(916) 965-8017,38.666247,-121.308604,"Monday - Friday: 8:00am - 6:00pm, Saturday: 8:00am - 5:00pm, Sunday: Closed",,,
SpeeDee Oil Change & Auto Service - Store,17067,6604 Folsom-Auburn Road,,Folsom,CA,95630,United States,(916) 988-0531,38.684922,-121.178832,"Monday-Friday: 8:00am - 6:00pm, Saturday: 8:00am - 5:00pm, Sunday: 10:00am - 4:00pm",,,
SpeeDee Oil Change & Auto Service - Store,1868,3741 Washington Boulevard,,Fremont,CA,94538,United States,(510) 659-0111,37.5329,-121.956,"Monday - Saturday: 8:00am - 5:00pm, Sunday: 8:00am - 5:00pm",,,
SpeeDee Oil Change & Auto Service - Store,1783,4045 Thornton Avenue,,Fremont,CA,94536,United States,(510) 796-4111,37.559999,-122.012329,"Monday - Friday: 7:30am - 6:00pm, Saturday: 7:30am - 6:00pm, Sunday: 8:00am - 6:00pm",,,
SpeeDee Oil Change & Auto Service - Store,1246,1078 La Playa Drive,,Hayward,CA,94545,United States,(510) 783-0434,37.647968,-122.105311,"Monday-Friday: 7:30am - 6:00pm, Saturday: 7:30am - 5:00pm, Sunday: Closed",,,
SpeeDee Oil Change & Auto Service - Store,17047,1699 Airline Highway,,Hollister,CA,95023,United States,(831) 638-9999,36.838697,-121.390733,"Monday-Friday: 8:00am - 6:00pm, Saturday: 8:00am - 5:00pm, Sunday: 9:00am - 3:00pm",,,
SpeeDee Oil Change & Auto Service - Store,17107,12470 Jackson Gate Rd.,,Jackson,CA,95642,United States,(209) 223-1455,38.367169,-120.795888,"Monday - Friday: 8:00am - 5:00pm, Saturday: 8:00am - 5:00pm, Sunday: Closed",,,
SpeeDee Oil Change & Auto Service - Store,1281,7207 University Avenue,,La Mesa,CA,91942,United States,(619) 466-1156,32.755133,-117.042823,"Monday-Friday: 7:30am - 6:00pm, Saturday: 7:30am - 5:00pm, Sunday: Closed",,,
SpeeDee Oil Change & Auto Service - Store,17043,15643 Los Gatos Boulevard,,Los Gatos,CA,95032,United States,(408) 356-9301,37.2413,-121.961,"Monday-Friday: 8:00am - 6:00pm, Saturday: 8:00am - 5:00pm, Sunday: 10:00am - 4:00pm",,,
SpeeDee Oil Change & Auto Service - Store,17085,245 W. Louise,,Manteca,CA,95336,United States,(209) 825-5823,37.811946,-121.218947,"Monday - Friday: 8:00am - 5:00pm, Saturday: 8:00am - 5:00pm, Sunday: 10:00am - 3:00pm",,,
SpeeDee Oil Change & Auto Service - Store,1660,1420 V Street,,Merced,CA,95340,United States,(209) 722-5705,37.304183,-120.500007,"Monday-Friday: 7:30am - 6:00pm, Saturday: 7:30am - 5:00pm, Sunday: Closed",,,
SpeeDee Oil Change & Auto Service - Store,17021,390 El Camino Real,,Millbrae,CA,94030,United States,(650) 692-6740,37.602207,-122.39153,"Monday-Friday: 8:00am - 6:00pm, Saturday: 8:00am - 6:00pm, Sunday: 10:00am - 4:00pm",,,
SpeeDee Oil Change & Auto Service - Store,17087,635 Trade Zone Boulevard,,Milpitas,CA,95035,United States,(408) 262-8081,37.4036,-121.892,"Monday - Friday: 8:00am - 5:00pm, Saturday: 7:00am - 5:00pm, Sunday: 8:00am - 4:00pm",,,
SpeeDee Oil Change & Auto Service - Store,17065,1343 Coffee Road,,Modesto,CA,95355,United States,(209) 521-1929,37.663559,-120.976059,"Monday-Friday: 8:00am - 5:00pm, Saturday: 8:00am - 5:00pm, Sunday: 10:00am - 4:00pm",,,
SpeeDee Oil Change & Auto Service - Store,17101,1760 E. Hatch Rd.,,Modesto,CA,95351,United States,(209) 538-3999,37.609201,-120.964563,"Monday - Friday: 8:00am - 5:30pm, Saturday: 8:00am - 5:30pm, Sunday: 9:00am - 4:00pm",,,
SpeeDee Oil Change & Auto Service - Store,1446,1797 Soscol Avenue,,Napa,CA,94559,United States,(707) 257-0925,38.3068,-122.285,"Monday-Friday: 7:00am - 6:00pm, Saturday: 8:00am - 5:00pm, Sunday: 9:00am - 4:00pm",,,
SpeeDee Oil Change & Auto Service - Store,1285,3510 Mission Avenue,,Oceanside,CA,92058,United States,(760) 757-5004,33.223628,-117.333724,"Monday-Friday: 7:30am - 6:00pm, Saturday: 7:00am - 5:00pm, Sunday: 10:00am - 4:00pm",,,
SpeeDee Oil Change & Auto Service - Store,17019,44 Mission Drive,,Pleasanton,CA,94566,United States,(925) 426-9669,37.652668,-121.879699,"Monday-Friday: 8:00am - 5:00pm, Saturday: 8:00am - 5:00pm, Sunday: 8:00am - 4:00pm",,,
SpeeDee Oil Change & Auto Service - Store,1297,12672 Poway Road,,Poway,CA,92064,United States,(858) 486-7558,32.954798,-117.05633,"Monday-Friday: 7:30am - 6:00pm, Saturday: 7:00am - 5:00pm, Sunday: Closed",,,
SpeeDee Oil Change & Auto Service - Store,17001,550 Veterans Blvd.,,Redwood City,CA,94063,United States,(650) 365-6090,37.493306,-122.233133,"Monday - Friday: 8:30am - 6:00pm, Saturday: 8:30am - 4:30pm, Sunday: Closed",,,
SpeeDee Oil Change & Auto Service - Store,17048,5490 Pacific Street,,Rocklin,CA,95677,United States,(916) 632-8495,38.786,-121.24,"Monday-Friday: 8:00am - 6:00pm, Saturday: 8:00am - 5:00pm, Sunday: 10:00am - 4:00pm",,,
SpeeDee Oil Change & Auto Service - Store,17011,660 Sunrise Avenue,,Roseville,CA,95661,United States,(916) 781-6665,38.73633,-121.271994,"Monday-Friday: 8:00am - 5:30pm, Saturday: 8:00am - 4:30pm, Sunday: 9:00am - 4:00pm",,,
SpeeDee Oil Change & Auto Service - Store,1151,9077 Foothills Blvd. Suite 100,,Roseville,CA,95747,United States,(916)797-9434,38.791715,-121.311437,"Monday - Friday: 7:00am - 6:00pm, Saturday: 8:00am - 4:00pm, Sunday: 8:00am - 4:00pm",,,
SpeeDee Oil Change & Auto Service - Store,1294,2260 Arden Way,,Sacramento,CA,95825,United States,916-927-2293,38.5956971,-121.4125324,"Monday - Friday: 7:30am - 6:00pm, Saturday: 8:00am - 4:00pm, Sunday: 8:00am - 4:00pm",,,
SpeeDee Oil Change & Auto Service - Store,17020,801 El Camino Real,,San Bruno,CA,94066,United States,(650) 952-5178,37.6289,-122.417,"Monday-Friday: 8:00am - 6:00pm, Saturday: 8:00am - 6:00pm, Sunday: 10:00am - 4:00pm",,,
SpeeDee Oil Change & Auto Service - Store,1432,10445 Friars Road,,San Diego,CA,92120,United States,(619) 285-1101,32.790666,-117.09901,"Monday-Friday: 7:30am - 7:00pm, Saturday: 7:00am - 5:00pm, Sunday: 10:00am - 4:00pm",,,
SpeeDee Oil Change & Auto Service - Store,1282,1805 Garnet,,San Diego,CA,92109,United States,(858) 274-2930,32.80032,-117.237078,"Monday - Friday: 7:00am - 6:00pm, Saturday: 7:00am - 5:00pm, Sunday: Closed",,,
SpeeDee Oil Change & Auto Service - Store,1280,3846 Camino del Rio,,San Diego,CA,92110,United States,(619) 296-2166,32.75323,-117.205426,"Monday-Friday: 7:30am - 6:00pm, Saturday: 7:00am - 5:00pm, Sunday: Closed",,,
SpeeDee Oil Change & Auto Service - Store,1912,3855 Convoy Street,,San Diego,CA,92111,United States,(858) 565-0853,32.814155,-117.152815,"Monday-Friday: 7:30am - 6:00pm, Saturday: 7:00am - 5:00pm, Sunday: Closed",,,
SpeeDee Oil Change & Auto Service - Store,1242,1800 Alemany Blvd.,,San Francisco,CA,94112,United States,415-584-1161,37.723371,-122.437937,"Monday - Saturday: 8:00am - 6:00pm, Sunday: Closed",,,
SpeeDee Oil Change & Auto Service - Store,17091,1825 E. Capitol Expressway,,San Jose,CA,95121,United States,(408) 531-0701,37.310531,-121.808593,"Monday-Friday: 8:00am - 6:00pm, Saturday: 8:00am - 5:00pm, Sunday: 9:00am - 4:00pm",,,
SpeeDee Oil Change & Auto Service - Store,1267,4224 Monterey Highway,,San Jose,CA,95111,United States,(408) 281-1525,37.276082,-121.83316,"Monday-Friday: 8:00am - 6:00pm, Saturday: 8:00am - 5:00pm, Sunday: Closed",,,
SpeeDee Oil Change & Auto Service - Store,17051,5564 Monterey Road,,San Jose,CA,95138,United States,(408) 224-5500,37.252722,-121.797344,"Monday-Friday: 8:00am - 6:00pm, Saturday: 8:00am - 6:00pm, Sunday: 9:00am - 3:00pm",,,
SpeeDee Oil Change & Auto Service - Store,1686,13745 East 14th Street,,San Leandro,CA,94578,United States,(510) 351-0622,37.715675,-122.143324,"Monday-Friday: 7:30am - 6:00pm, Saturday: 7:30am - 5:00pm, Sunday: Closed",,,
SpeeDee Oil Change & Auto Service - Store,17084,471 San Carlos Way,,Stockton,CA,95207,United States,(209) 472-9272,38.020177,-121.31872,"Monday-Friday: 8:30am - 5:30pm, Saturday: 8:00am - 5:00pm, Sunday: 9:00am - 4:00pm",,,
SpeeDee Oil Change & Auto Service - Store,17049,695 W. Homestead Road,,Sunnyvale,CA,94087,United States,(408) 730-1118,37.3375,-122.041,"Monday - Friday: 8:00am - 5:30pm, Saturday: 8:00am - 5:00pm, Sunday: 9:00am - 5:00pm",,,
SpeeDee Oil Change & Auto Service - Store,17064,711 Grant Line Road,,Tracy,CA,95376,United States,(209) 836-1557,37.754212,-121.436642,"Monday - Friday: 8:00am - 5:30pm, Saturday: 8:00am - 5:00pm, Sunday: 10:00am - 3:00pm",,,
SpeeDee Oil Change & Auto Service - Store,17093,2707 West Monte Vista,,Turlock,CA,95380,United States,(209) 664-1996,37.521918,-120.879741,"Monday-Friday: 8:00am - 5:00pm, Saturday: 8:00am - 5:00pm, Sunday: 10:00am - 4:00pm",,,
SpeeDee Oil Change & Auto Service - Store,17099,221 Peabody Rd.,,Vacaville,CA,95687,United States,(707) 455-8518,38.349663,-121.976107,"Monday-Friday: 8:00am - 5:30pm, Saturday: 8:00am - 5:30pm, Sunday: 9:00am - 4:00pm",,,
SpeeDee Oil Change & Auto Service - Store,17040,1675 Tuolumne Street,,Vallejo,CA,94590,United States,(707) 642-9242,38.1221,-122.238,"Monday - Friday: 8:00am - 5:30pm, Saturday: 8:00am - 5:00pm, Sunday: 9:00am - 2:30pm",,,
SpeeDee Oil Change & Auto Service - Store,1296,1150 South Santa Fe Street,,Vista,CA,92084,United States,(760) 940-8800,33.1894,-117.227,"Monday-Friday: 7:30am - 5:30pm, Saturday: 7:30am - 5:00pm, Sunday: Closed",,,
SpeeDee Oil Change & Auto Service - Store,1823,2710 North Main Street,,Walnut Creek,CA,94597,United States,(925) 935-9180,37.9222,-122.064,"Monday - Friday: 7:30am - 6:00pm, Saturday: 8:00am - 5:00pm, Sunday: Closed",,,
SpeeDee Oil Change & Auto Service - Store,17096,1496 Freedom Blvd.,,Watsonville,CA,95076,United States,(831) 722-9950,36.9303,-121.768,"Monday-Friday: 8:00am - 6:00pm, Saturday: 8:00am - 5:00pm, Sunday: 9:00am - 3:00pm",,,
SpeeDee Oil Change & Auto Service - Store,17006,216 West Main Street,,Woodland,CA,95695,United States,(530) 662-5605,38.6777,-121.794,"Monday-Friday: 8:00am - 5:30pm, Saturday: 8:00am - 4:30pm, Sunday: Closed",,,
SpeeDee Oil Change & Auto Service - Store,1590,16768 East Smoky Hill Road,,Centennial,CO,80015,United States,(303) 690-6855,39.6234,-104.784,"Monday-Friday: 7:00am - 6:00pm, Saturday: 7:00am - 6:00pm, Sunday: Closed",,,
SpeeDee Oil Change & Auto Service - Store,5215,4466 and 4480 S. Broadway,,Englewood,CO,80113,United States,(303) 781-4466,39.6353687,-104.987538,"Monday - Friday: 8:00am - 6:00pm, Saturday: 8:00am - 5:00pm, Sunday: Closed",,,
SpeeDee Oil Change & Auto Service - Store,3631,1415 Cortez Road West,,Bradenton,FL,34207,United States,(941) 756-8421,27.4622,-82.5757,"Monday-Friday: 7:30am - 7:00pm, Saturday: 7:30am - 7:00pm, Sunday: Closed",,,
SpeeDee Oil Change & Auto Service - Store,3428,6712 Manatee Avenue West,,Bradenton,FL,34209,United States,(941) 794-9080,27.4957,-82.6298,"Monday-Friday: 7:30am - 7:00pm, Saturday: 7:30am - 5:00pm, Sunday: Closed",,,
SpeeDee Oil Change & Auto Service - Store,3746,609 Robertson St. West,,Brandon,FL,33511,United States,(813) 681-3755,27.9356,-82.2931,"Monday-Friday: 7:30am - 7:00pm, Saturday: 7:30am - 5:00pm, Sunday: Closed",,,
SpeeDee Oil Change & Auto Service - Store,3173,3250 South Florida Avenue,,Lakeland,FL,33803,United States,(863) 646-1461,28.0039,-81.9571,"Monday-Friday: 7:30am - 7:00pm, Saturday: 7:30am - 5:00pm, Sunday: Closed",,,
SpeeDee Oil Change & Auto Service - Store,3286,7316 US Highway 98 N,,Lakeland,FL,33810,United States,(863) 859-4433,28.135852,-81.973726,"Monday - Friday: 7:30am - 6:00pm, Saturday: 7:30am - 5:00pm, Sunday: Closed",,,
SpeeDee Oil Change & Auto Service - Store,3311,2390 Northwest 107th Avenue,,Miami,FL,33172,United States,(305) 597-5555,25.7951,-80.3689,"Monday-Friday: 7:30am - 6:00pm, Saturday: 7:30am - 5:00pm, Sunday: Closed",,,
SpeeDee Oil Change & Auto Service - Store,3175,2022 12th Street,,Sarasota,FL,34237,United States,(941) 955-2288,27.348,-82.53,"Monday-Friday: 7:30am - 7:00pm, Saturday: 7:30am - 5:00pm, Sunday: Closed",,,
SpeeDee Oil Change & Auto Service - Store,3131,4565 Clark Road,,Sarasota,FL,34233,United States,(941) 924-8202,27.269268,-82.478164,"Monday-Friday: 7:30am - 7:00pm, Saturday: 7:30am - 5:00pm, Sunday: Closed",,,
SpeeDee Oil Change & Auto Service - Store,3177,315 N. Dale Mabry,,Tampa,FL,33609,United States,(813) 872-8458,27.9476,-82.5061,"Monday-Friday: 7:30am - 7:00pm, Saturday: 7:30am - 5:00pm, Sunday: Closed",,,
SpeeDee Oil Change & Auto Service - Store,3144,5959 East Fowler Avenue,,Temple Terrace,FL,33617,United States,(813) 989-2515,28.054315,-82.389411,"Monday-Friday: 7:30am - 7:00pm, Saturday: 7:30am - 5:00pm, Sunday: Closed",,,
SpeeDee Oil Change & Auto Service - Store,2689,6534 Gall Boulevard,,Zephyrhills,FL,33542,United States,(813) 715-1516,28.252739,-82.188081,"Monday-Friday: 7:30am - 6:00pm, Saturday: 7:30am - 5:00pm, Sunday: Closed",,,
SpeeDee Oil Change & Auto Service - Store,1968,25 N Kamehameha Highway,,Wahiawa,HI,96786,United States,808-599-9130,21.5018,-158.035,"Monday-Friday: 7:00am - 5:00pm, Saturday: 7:00am - 5:00pm, Sunday: Closed",,,
SpeeDee Oil Change & Auto Service - Store,1356,94-709 Farrington Highway,,Waipahu,HI,96797,United States,808-628-6300,21.383499,-158.006807,"Monday-Friday: 7:00am - 5:00pm, Saturday: 7:00am - 5:00pm, Sunday: Closed",,,
SpeeDee Oil Change & Auto Service - Store,2155,110 West Northwest Highway,,Barrington,IL,60010,United States,(847) 381-3377,42.161769,-88.136954,"Monday-Friday: 8:00am - 6:30pm, Saturday: 8:00am - 3:00pm, Sunday: Closed",,,
SpeeDee Oil Change & Auto Service - Store,2289,20 South Western Avenue,,Carpentersville,IL,60110,United States,(847) 426-3330,42.1068,-88.2926,"Mon & Fri: 7:30am - 8:00pm, Tues, Wed,Thurs: 7:30am - 6:00pm, Sat: 7:30am - 4:00pm, Sun: Closed",,,
SpeeDee Oil Change & Auto Service - Store,2116,6301 North Lincoln Ave,,Chicago,IL,60659,United States,(773) 539-8454,41.995944,-87.716233,"Monday-Friday: 7:00am - 6:00pm, Saturday: 7:00am - 5:00pm, Sunday: Closed",,,
SpeeDee Oil Change & Auto Service - Store,1292,18070 Halsted Street,,Homewood,IL,60430,United States,(708) 957-9295,41.561004,-87.636234,"Monday-Friday: 7:30am - 7:00pm, Saturday: 7:30am - 5:00pm, Sunday: Closed",,,
SpeeDee Oil Change & Auto Service - Store,2507,888 South Rand Road,,Lake Zurich,IL,60047,United States,(847) 438-1660,42.18329,-88.085177,"Monday-Friday: 7:30am - 7:00pm, Saturday: 7:30am - 5:00pm, Sunday: Closed",,,
SpeeDee Oil Change & Auto Service - Store,2154,832 East Roosevelt Road,,Lombard,IL,60148,United States,(620) 627-6710,41.8606,-87.9961,"Monday-Friday: 7:00am - 8:00pm, Saturday: 7:00am - 7:00pm, Sunday: Closed",,,
SpeeDee Oil Change & Auto Service - Store,2588,847 East Dundee,,Palatine,IL,60074,United States,(847) 359-8990,42.139142,-88.023236,"Monday-Friday: 7:30am - 7:00pm, Saturday: 7:30am - 5:00pm, Sunday: 9:00am - 3:00pm",,,
SpeeDee Oil Change & Auto Service - Store,2546,506 West Golf Road,,Schaumburg,IL,60195,United States,(847) 882-4500,42.048894,-88.09213,"Monday-Friday: 7:30am - 7:00pm, Saturday: 7:30am - 5:00pm, Sunday: Closed",,,
SpeeDee Oil Change & Auto Service - Store,2113,1541 East Wabash,,Frankfort,IN,46041,United States,(765) 659-4651,40.278963,-86.494963,"Monday-Friday: 7:30am - 6:00pm, Saturday: 7:30am - 4:00pm, Sunday: Closed",,,
SpeeDee Oil Change & Auto Service - Store,12092,110 E. Judge Perez Dr.,,Chalmette,LA,70043,United States,(504) 278-2994,29.942197,-89.96283,"Monday-Friday: 8:00am - 5:00pm, Saturday: 8:00am - 4:00pm, Sunday: Closed",,,
SpeeDee Oil Change & Auto Service - Store,12031,616 Terry Parkway,,Gretna,LA,70056,United States,(504)366-0400,29.903061,-90.030311,"Monday - Friday: 7:30am - 5:00pm, Saturday: 7:30am - 4:00pm, Sunday: Closed",,,
SpeeDee Oil Change & Auto Service - Store,12030,1301 N. Morrison Boulevard,,Hammond,LA,70401,United States,(985) 662-3338,30.512919,-90.482644,"Monday - Friday: 8:00am - 5:00pm, Saturday: 8:00am - 4:00pm, Sunday: Closed",,,
SpeeDee Oil Change & Auto Service - Store,12007,3211 Williams Boulevard,,Kenner,LA,70065,United States,(504) 712-0590,30.014653,-90.239899,"Monday-Friday: 8:00am - 6:00pm, Saturday: 8:00am - 5:00pm, Sunday: Closed",,,
SpeeDee Oil Change & Auto Service - Store,12009,4001 Veterans Memorial Boulevard,,Metairie,LA,70002,United States,(504) 510-2735,30.004717,-90.174826,"Monday - Friday: 8:00am - 5:00pm, Saturday: 8:00am - 5:00pm, Sunday: Closed",,,
SpeeDee Oil Change & Auto Service - Store,12044,8835 Veterans Memorial Boulevard,,Metairie,LA,70003,United States,(504) 464-4116,30.005783,-90.224689,"Monday - Friday: 8 am - 6 pm, Saturday: 8 am - 6 pm, Sunday: 10 am - 4 pm",,,
SpeeDee Oil Change & Auto Service - Store,12048,2601 Esplanade Ave.,,New Orleans,LA,70119,United States,(504) 948-1971,29.9761,-90.0783,"Monday-Friday: 8:00am - 6:00pm, Saturday: 8:00am - 5:00pm, Sunday: Closed",,,
SpeeDee Oil Change & Auto Service - Store,12008,3333 S. Carrollton Avenue,,New Orleans,LA,70118,United States,(504) 482-7002,29.962822,-90.112798,"Monday - Friday: 8:00am - 6:00pm, Saturday: 8:00am - 5:00pm, Sunday: Closed",,,
SpeeDee Oil Change & Auto Service - Store,12083,315 North Service Road East,,Ruston,LA,71270,United States,(318) 242-0034,32.54035,-92.63574,"Monday-Friday: 7:30am - 6:00pm, Saturday: 8:00am - 3:00pm, Sunday: Closed",,,
SpeeDee Oil Change & Auto Service - Store,7014,740 Brockton Ave.,,Abington,MA,02351,United States,781-857-2446,42.0938513,-70.9707083,"Monday - Friday: 8:00am-6:00pm, Saturday: 8:00am-5:00pm, Sunday: Closed",,,
SpeeDee Oil Change & Auto Service - Store,07075,1587 S. Main Street,,Athol,MA,01331,United States,(978) 575-0000,42.583008,-72.261315,"Monday - Friday: 8:00am - 6:00pm, Saturday: 8:00am - 5:00pm, Sunday: Closed",,,
SpeeDee Oil Change & Auto Service - Store,07070,30 N. Main Street,,Attleboro,MA,02703,United States,(508) 226-1465,41.9452,-71.2853,"Monday - Thursday: 8:00am - 6:00pm, Friday: 8:00am - 6:00pm, Saturday: 8:00am - 5:00pm, Sunday: Closed",,,
SpeeDee Oil Change & Auto Service - Store,07060,505 Washington Street,,Auburn,MA,01501,United States,(508) 832-0944,42.186822,-71.835382,"Monday - Friday: 8:00am- 6:00pm, Saturday: 7:00am - 4:00pm, Sunday: Closed",,,
SpeeDee Oil Change & Auto Service - Store,07013,370 John Fitch Highway,,Fitchburg,MA,01420,United States,(978) 343-0223,42.5806,-71.7742,"Monday - Friday: 8:00am - 6:00pm, Saturday: 8:00am - 5:00pm, Sunday: Closed",,,
SpeeDee Oil Change & Auto Service - Store,07046,15 Donlan Street,,Gardner,MA,01440,United States,(978) 630-1511,42.5685,-71.9926,"Monday-Friday: 8:00am - 6:00pm, Saturday: 8:00am - 5:00pm, Sunday: Closed",,,
SpeeDee Oil Change & Auto Service - Store,07025,547 Kelley Boulevard,,N. Attleboro,MA,02760,United States,(508) 699-8983,42.0065,-71.301,"Monday-Friday: 8:00am - 6:00pm, Saturday: 7:00am - 5:00pm, Sunday: 9:00am - 4:00pm",,,
SpeeDee Oil Change & Auto Service - Store,07073,197 State Road,,N. Dartmouth,MA,02747,United States,(508) 996-2300,41.6389,-70.9774,"Monday: 8:00am - 7:00pm, Tuesday - Friday: 8:00am - 6:00pm, Saturday: 8:00am - 5:00pm, Sunday: Closed",,,
SpeeDee Oil Change & Auto Service - Store,07003,500 Kings Highway,,New Bedford,MA,02745,United States,(508) 998-7530,41.679977,-70.939826,"Monday - Friday: 8:00am - 6:00pm, Saturday: 7:00am - 5:00pm, Sunday: Closed",,,
SpeeDee Oil Change & Auto Service - Store,07071,1470 New State Highway,,Raynham,MA,02767,United States,(508) 880-0477,41.904054,-71.010517,"Monday-Friday: 8:00am - 6:00pm, Saturday: 8:00am - 5:00pm, Sunday: Closed",,,
SpeeDee Oil Change & Auto Service - Store,07035,185 Washington Street,,S. Attleboro,MA,02703,United States,(508) 761-7200,41.926868,-71.355168,"Monday - Friday: 8:00am - 6:00pm, Saturday: 8:00am - 4:00pm, Sunday: 9:00am - 3:00pm",,,
SpeeDee Oil Change & Auto Service - Store,07066,612 County Street,,Taunton,MA,02780,United States,(508) 828-9200,41.8857,-71.0673,"Monday - Friday: 8:00am - 6:00pm, Saturday: 7:00am - 5:00pm, Sunday: 9:00am - 5:00pm",,,
SpeeDee Oil Change & Auto Service - Store,4263,202 Elm Street,,Kalkaska,MI,49646,United States,(231) 258-2889,44.7304,-85.1786,"Monday - Friday: 7:30am - 6:00pm, Saturday: Closed, Sunday: Closed",,,
SpeeDee Oil Change & Auto Service - Store,2381,19300 Highway 7,,Deephaven,MN,55331,United States,952-737-6385,44.9113317,-93.5271082,"Monday: 8:00am - 7:00pm, Tuesday: 8:00am - 7:00pm, Wednesday: 8:00am - 7:00pm, Thursday: 8:00am - 7:00pm, Friday: 8:00am - 6:00pm, Saturday: 8:00am - 4:00pm, Sunday: Closed",,,
SpeeDee Oil Change & Auto Service - Store,12064,5032 U.S. Hwy. 98 West,,Hattiesburg,MS,39402,United States,(601) 261-0077,31.322407,-89.370864,"Monday-Friday: 8:00am - 6:00pm, Saturday: 8:00am - 5:00pm, Sunday: Closed",,,
SpeeDee Oil Change & Auto Service - Store,03030,1883 Hendersonville Road,,Asheville,NC,28803,United States,(828) 654-7835,35.4988,-82.5215,"Monday-Friday: 8:00am - 6:00pm, Saturday: 8:00am - 3:00pm, Sunday: Closed",,,
SpeeDee Oil Change & Auto Service - Store,03003,4752 South Boulevard,,Charlotte,NC,28217,United States,(704) 527-0953,35.1751,-80.8761,"Monday - Friday: 8:00am - 6:00pm, Saturday: 8:00am - 6:00pm, Sunday: Closed",,,
SpeeDee Oil Change & Auto Service - Store,03015,8226 Pineville-Matthews Road,,Charlotte,NC,28226,United States,(704) 544-4665,35.087597,-80.858699,"Monday - Thursday: 8:00am - 6:00pm, Friday: 8:00am - 6:00pm, Saturday: 8:00am - 5:00pm, Sunday: 10:00am - 4:00pm",,,
SpeeDee Oil Change & Auto Service - Store,03033,1001 N. Concord Parkway,,Concord,NC,28027,United States,(704) 795-6335,35.4281,-80.6125,"Monday - Friday: 8:00am - 6:00pm, Saturday: 8:00am - 5:00pm, Sunday: 10:00am - 4:00pm",,,
SpeeDee Oil Change & Auto Service - Store,03027,2040 E. Fire Tower Road,,Greenville,NC,27858,United States,(252) 756-6214,35.566431,-77.352254,"Monday - Friday: 8:00am - 5:00pm, Saturday: 8:00am - 3:00pm, Sunday: Closed",,,
SpeeDee Oil Change & Auto Service - Store,03028,2411 Spring Forest Road,,Raleigh,NC,27615,United States,(919) 850-2100,35.8609,-78.5994,"Monday - Friday: 8:00am - 5:30pm, Saturday: 8:00am - 4:00pm, Sunday: Closed",,,
SpeeDee Oil Change & Auto Service - Store,2620,3208 West Old Potash Highway,,Grand Island,NE,68803,United States,(308) 395-8114,40.917058,-98.377475,"Monday-Friday: 7:30am - 6:00pm, Saturday: 8:00am - 5:00pm, Sunday: Closed",,,
SpeeDee Oil Change & Auto Service - Store,2241,102 West 25th Street,,Kearney,NE,68847,United States,(308) 236-5377,40.700392,-99.083312,"Monday-Friday: 7:30am - 6:00pm, Saturday: 8:00am - 5:00pm, Sunday: Closed",,,
SpeeDee Oil Change & Auto Service - Store,5274,1129 Juan Tabo Blvd NE,,Albuquerque,NM,87112,United States,505-271-1811,35.0919,-106.515,"Monday - Friday: 7:00am - 6:00pm, Saturday: 7:00am - 6:00pm, Sunday: Closed",,,
SpeeDee Oil Change & Auto Service - Store,6152,6338 Thompson Road,,Syracuse,NY,13206,United States,(315) 437-4391,43.077425,-76.089049,"Monday - Friday: 7:30am - 6:00pm, Saturday: 7:30am - 6:00pm, Sunday: Closed",,,
SpeeDee Oil Change & Auto Service - Store,6137,9595 Galloway Drive,,Powell,OH,43065,United States,(614) 588-0220,40.159759,-83.089412,"Monday - Friday: 7:30am - 6:00pm, Saturday: 7:30am - 6:00pm, Sunday: Closed",,,
SpeeDee Oil Change & Auto Service - Store,07054,Rt. 122 1704 Mendon Road,,Cumberland,RI,02864,United States,(401) 333-6660,41.942492,-71.434783,"Monday - Friday: 8:00am - 6:00pm, Saturday: 8:00am - 5:00pm, Sunday: 9:00am - 3:00pm",,,
SpeeDee Oil Change & Auto Service - Store,07051,985 North Main Street,,Providence,RI,02904,United States,(401) 453-4707,41.8478,-71.4042,"Monday-Friday: 8:00am - 6:00pm, Saturday: 8:00am - 5:00pm, Sunday: Closed",,,
SpeeDee Oil Change & Auto Service - Store,03025,683 Folly Road,,Charleston,SC,29412,United States,(843) 795-4600,32.746119,-79.970392,"Monday-Friday: 8:00am - 6:00pm, Saturday: 8:00am - 5:00pm, Sunday: Closed",,,
SpeeDee Oil Change & Auto Service - Store,03019,924 Savannah Highway,,Charleston,SC,29407,United States,(843) 769-6800,32.782984,-79.99124,"Monday - Friday: 8:00am - 6:00pm, Saturday: 8:00am - 4:00pm, Sunday: Closed",,,
SpeeDee Oil Change & Auto Service - Store,3229,121 Harbison Boulevard,,Columbia,SC,29212,United States,(803) 407-1911,34.0671,-81.1666,"Monday - Friday: 8:00am - 6:00pm, Saturday: 8:00am - 3:00pm, Sunday: Closed",,,
SpeeDee Oil Change & Auto Service - Store,3276,931 North Lake Drive,,Lexington,SC,29072,United States,(803) 520-0134,33.995421,-81.230069,"Monday-Friday: 8:00am - 6:00pm, Saturday: 8:00am - 3:00pm, Sunday: Closed",,,
SpeeDee Oil Change & Auto Service - Store,03026,1498-A Hwy. 17 North,,Mt. Pleasant,SC,29464,United States,(843) 849-2221,32.817452,-79.845295,"Monday-Friday: 8:00am - 6:00pm, Saturday: 8:00am - 4:00pm, Sunday: Closed",,,
SpeeDee Oil Change & Auto Service - Store,03029,7395 Northwoods Boulevard,,N. Charleston,SC,29406,United States,(843) 764-2764,32.9364,-80.0455,"Monday-Friday: 8:00am - 6:00pm, Saturday: 8:00am - 4:00pm, Sunday: Closed",,,
SpeeDee Oil Change & Auto Service - Store,03255,2374 Cherry Road,,Rock Hill,SC,29732,United States,(803) 980-4534,34.968362,-80.994287,"Monday-Friday: 8:00am - 6:00pm, Saturday: 8:00am - 5:00pm, Sunday: Closed",,,
SpeeDee Oil Change & Auto Service - Store,03041,1484 W.O. Ezell Boulevard,,Spartanburg,SC,29301,United States,(864) 574-0899,34.9375,-81.983,"Monday-Friday: 8:00am - 6:00pm, Saturday: 8:00am - 5:00pm, Sunday: Closed",,,
SpeeDee Oil Change & Auto Service - Store,03009,825 N. Main Street,,Summerville,SC,29483,United States,(843) 821-1162,33.029758,-80.167808,"Monday-Friday: 8:00am - 6:00pm, Saturday: 8:00am - 4:00pm, Sunday: Closed",,,
SpeeDee Oil Change & Auto Service - Store,5885,4500 South Bell,,Amarillo,TX,79109,United States,(806)-359-5411,35.1613,-101.902,"Monday-Friday: 7:30am - 6:00pm, Saturday: 7:30am - 4:00pm, Sunday: Closed",,,
SpeeDee Oil Change & Auto Service - Store,12079,5335 S. Cooper Road,,Arlington,TX,76017,United States,(817) 466-8963,32.6606,-97.1343,"Monday-Friday: 8:00am - 6:00pm, Saturday: 8:00am - 6:00pm, Sunday: Closed",,,
SpeeDee Oil Change & Auto Service - Store,12085,2249 Central Drive,,Bedford,TX,76021,United States,(817) 864-9000,32.8437,-97.1338,"Monday-Friday: 8:00am - 6:00pm, Saturday: 8:00am - 6:00pm, Sunday: Closed",,,
SpeeDee Oil Change & Auto Service - Store,14100,3107 Old Denton Road,,Carrollton,TX,75007,United States,(972) 394-9586,32.999839,-96.90989,"Monday - Friday: 8:00am - 6:00pm, Saturday: 8:00am - 5:00pm, Sunday: Closed",,,
SpeeDee Oil Change & Auto Service - Store,12074,321 E. FM 1382,,Cedar Hill,TX,75104,United States,(972) 291-5413,32.593986,-96.938317,"Monday-Friday: 8:00am - 6:00pm, Saturday: 8:00am - 6:00pm, Sunday: Closed",,,
SpeeDee Oil Change & Auto Service - Store,5266,3209 South Padre Island Dr.,,Corpus Christi,TX,78415,United States,361-854-1545,27.727906,-97.412386,"Monday - Friday: 7:30am - 6:00pm, Saturday: 7:30am - 6:00pm, Sunday: Closed",,,
SpeeDee Oil Change & Auto Service - Store,14003,14014 Montfort,,Dallas,TX,75240,United States,(972) 701-9151,32.9384,-96.8137,"Monday-Friday: 8:00am - 6:00pm, Saturday: 8:00am - 5:00pm, Sunday: Closed",,,
SpeeDee Oil Change & Auto Service - Store,12070,7038 Snider Plaza,,Dallas,TX,75205,United States,(214) 696-5836,32.850959,-96.787834,"Monday - Friday: 8:00am - 6:00pm, Saturday: 8:00am - 5:00pm, Sunday: 12:00pm - 5:00pm",,,
SpeeDee Oil Change & Auto Service - Store,5174,1012 West Monte Cristo Road,,Edinburg,TX,78541,United States,(956) 383-5100,26.338557,-98.166479,"Monday - Friday: 8:00am - 6:00pm, Saturday: 8:00am - 6:00pm, Sunday: Closed",,,
SpeeDee Oil Change & Auto Service - Store,12080,6605 N. Beach Street,,Fort Worth,TX,76137,United States,(817) 306-4300,32.8617,-97.2903,"Monday-Friday: 8:00am - 6:00pm, Saturday: 8:00am - 5:00pm, Sunday: Closed",,,
SpeeDee Oil Change & Auto Service - Store,14001,1901 N. Jupiter,,Garland,TX,75042,United States,(972) 487-1901,32.9302,-96.6834,"Monday-Friday: 8:00am - 6:00pm, Saturday: 8:00am - 4:00pm, Sunday: Closed",,,
SpeeDee Oil Change & Auto Service - Store,5336,19009 Highway 59,,Humble,TX,77338,United States,(281) 446-6402,29.99518,-95.272283,"Monday-Friday: 7:00am - 6:00pm, Saturday: 7:00am - 6:00pm, Sunday: Closed",,,
SpeeDee Oil Change & Auto Service - Store,12084,359 Grapevine Highway,,Hurst,TX,76054,United States,(817) 514-0325,32.865678,-97.17401,"Monday-Friday: 8:00am - 6:00pm, Saturday: 8:00am - 5:00pm, Sunday: Closed",,,
SpeeDee Oil Change & Auto Service - Store,5128,6805 Bandera Rd.,,Leon Valley,TX,78238,United States,(210) 681-7251,29.496807,-98.620516,"Monday - Friday: 7:30am - 6:00pm, Saturday: 7:00am - 6:00pm, Sunday: Closed",,,
SpeeDee Oil Change & Auto Service - Store,12082,2412 N. Galloway Drive,,Mesquite,TX,75150,United States,(972) 682-9884,32.798413,-96.61169,"Monday-Friday: 8:00am - 6:00pm, Saturday: 8:00am - 5:00pm, Sunday: Closed",,,
SpeeDee Oil Change & Auto Service - Store,14101,6708 Mid Cities Boulevard,,N. Richland Hills,TX,76180,United States,(817) 788-8832,32.860335,-97.237155,"Monday-Friday: 8:00am - 6:00pm, Saturday: 8:00am - 5:00pm, Sunday: Closed",,,
SpeeDee Oil Change & Auto Service - Store,12073,3201 W. Parker,,Plano,TX,75023,United States,(972) 867-2241,33.041133,-96.755858,"Monday - Friday: 8:00am - 6:00pm, Saturday: 8:00am - 5:00pm, Sunday: 10:00am - 5:00pm",,,
SpeeDee Oil Change & Auto Service - Store,5288,400 North Central Expressway,,Richardson,TX,75080,United States,(972) 238-9619,32.9545,-96.7313,"Monday-Friday: 7:30am - 6:00pm, Saturday: 7:30am - 5:00pm, Sunday: Closed",,,
SpeeDee Oil Change & Auto Service - Store,1217,11000 W. I-10,,San Antonio,TX,78230,United States,(210) 641-9773,29.543901,-98.577275,"Monday - Friday: 7:30am - 6:00pm, Saturday: 7:30am - 6:00pm, Sunday: Closed",,,
SpeeDee Oil Change & Auto Service - Store,5819,11227 Culebra Rd.,,San Antonio,TX,78253,United States,(210) 688-9542,29.496871,-98.710715,"Monday - Friday: 7:30am - 6:00pm, Saturday: 7:30am - 6:00pm, Sunday: Closed",,,
SpeeDee Oil Change & Auto Service - Store,5538,6659 San Pedro Ave.,,San Antonio,TX,78216,United States,(210) 349-5376,29.500667,-98.499813,"Monday - Saturday: 7:30am - 6:00pm, Sunday: Closed",,,
SpeeDee Oil Change & Auto Service - Store,5953,9412 Perrin Beitel Rd.,,San Antonio,TX,78217,United States,210-656-3232,29.525531,-98.411043,"Monday - Friday: 7:30am- 6:00pm, Saturday: 7:30am- 6:00pm, Sunday: Closed",,,
SpeeDee Oil Change & Auto Service - Store,5772,4177 Main Street Suite 100,,The Colony,TX,75056,United States,(214) 469-1702,33.072508,-96.892679,"Monday-Friday: 8:00am - 6:00pm, Saturday: 8:00am - 6:00pm, Sunday: 10:00am - 5:00pm",,,
SpeeDee Oil Change & Auto Service - Store,5127,2013 Pat Booker Boulevard,,Universal City,TX,78148,United States,(210) 659-1941,29.5537,-98.3105,"Monday-Friday: 7:30am - 6:00pm, Saturday: 7:30am - 6:00pm, Sunday: Closed",,,
SpeeDee Oil Change & Auto Service - Store,03036,3820 Electric Road,,Roanoke,VA,24018,United States,(540) 772-4850,37.224212,-79.98942,"Monday-Friday: 8:00am - 6:00pm, Saturday: 8:00am - 4:00pm, Sunday: Closed",,,
SpeeDee Oil Change & Auto Service - Store,03040,1019 West Main Street,,Salem,VA,24153,United States,(540) 387-4120,37.290241,-80.074638,"Monday-Friday: 8:00am - 6:00pm, Saturday: 8:00am - 4:00pm, Sunday: Closed",,,
SpeeDee Oil Change & Auto Service - Store,03037,910 Hardy Road,,Vinton,VA,24179,United States,(540) 857-0002,37.273192,-79.887711,"Monday-Friday: 8:00am - 6:00pm, Saturday: 8:00am - 4:00pm, Sunday: Closed",,,
