store_name,store_number,address,address2,city,state,zip_code,country,phone_number,latitude,longitude,store_hours,store_type,other_fields,coming_soon
Paradise Valley,4,12415 N. Tatum Blvd.,,Phoenix,AZ,85032,United States,602-971-4177,,,Open Daily 07:00AM - 10:00PM,,,
Scottsdale - Shea Blvd.,2,9301 E. Shea Blvd. #132,,Scottsdale,AZ,85260,United States,480-551-9665,,,Open Daily 07:00AM - 10:00PM,,,
Phoenix - Glendale Ave.,17,1625 E. Glendale Ave.,,Phoenix,AZ,85020,United States,602-385-2150,,,Open Daily 07:00AM - 10:00PM,,,
Phoenix - Bell Rd.,18,245 E. Bell Rd. #15,,Phoenix,AZ,85022,United States,602-218-4949,,,Open Daily 07:00AM - 10:00PM,,,
North Scottsdale,29,23269 N. Scottsdale Rd.,,Scottsdale,AZ,85255,United States,480-295-4789,,,Open Daily 07:00AM - 10:00PM,,,
Phoenix - Indian School,8,2824 E. Indian School Rd. #126,,Phoenix,AZ,85016,United States,602-553-3131,,,Open Daily 07:00AM - 10:00PM,,,
Phoenix - Northern Ave.,7,8040 N. 19th Ave.,,Phoenix,AZ,85021,United States,602-864-6130,,,Open Daily 07:00AM - 10:00PM,,,
Scottsdale - Miller Rd.,19,4402 N. Miller Rd.,,Scottsdale,AZ,85251,United States,480-941-6001,,,Open Daily 07:00AM - 10:00PM,,,
Glendale - Peoria Ave.,9,5130 W. Peoria Ave.,,Glendale,AZ,85302,United States,623-487-0330,,,Open Daily 07:00AM - 10:00PM,,,
Glendale - W. Bell Rd.,3,5665 W. Bell Rd.,,Glendale,AZ,85308,United States,602-896-0300,,,Open Daily 07:00AM - 10:00PM,,,
Deer Valley,27,6760 W. Deer Valley Rd.,,Glendale,AZ,85310,United States,623-385-4430,,,Open Daily 07:00AM - 10:00PM,,,
Tempe,20,1706 E. Southern Ave.,,Tempe,AZ,85282,United States,480-820-4900,,,Open Daily 07:00AM - 10:00PM,,,
Peoria,6,8375 W. Thunderbird Rd.,,Peoria,AZ,85381,United States,623-334-1111,,,Open Daily 07:00AM - 10:00PM,,,
Mesa - E. Brown Rd.,5,1933 E. Brown Rd.,,Mesa,AZ,85213,United States,480-668-0800,,,Open Daily 07:00AM - 10:00PM,,,
Mesa - E. Baseline Rd.,34,2060 E. Baseline Rd.,,Mesa,AZ,85204,United States,480-401-3758,,,Open Daily 07:00AM - 10:00PM,,,
Peoria,31,10134 W. Happy Valley Rd.,,Peoria,AZ,85383,United States,602-385-3392,,,Open Daily 07:00AM - 10:00PM,,,
Ahwatukee,16,"4735 E. Ray Rd., #100",,Phoenix,AZ,85044,United States,480-295-4901,,,Open Daily 07:00AM - 10:00PM,,,
Chandler - Ray Rd.,1,1959 W. Ray Rd.,,Chandler,AZ,85224,United States,480-732-1012,,,Open Daily 07:00AM - 10:00PM,,,
Mesa - Higley Rd.,10,5225 E. Southern Ave.,,Mesa,AZ,85206,United States,480-218-6491,,,Open Daily 07:00AM - 10:00PM,,,
Surprise,12,13759 W. Bell Rd.,,Surprise,AZ,85374,United States,623-544-3121,,,Open Daily 07:00AM - 10:00PM,,,
Avondale,13,1813 N. Dysart Rd.,,Avondale,AZ,85392,United States,623-535-8989,,,Open Daily 07:00AM - 10:00PM,,,
Gilbert,14,2582 S. Val Vista Dr.,,Gilbert,AZ,85295,United States,480-821-1511,,,Open Daily 07:00AM - 10:00PM,,,
Chandler - Alma School,15,2855 S. Alma School Rd.,,Chandler,AZ,85248,United States,480-814-2700,,,Open Daily 07:00AM - 10:00PM,,,
Chandler - S Gilbert Road,33,4065 S. Gilbert Rd.,,Chandler,AZ,85249,United States,480-781-0088,,,Open Daily 07:00AM - 10:00PM,,,
Raleigh - Falls of Neuse,540,9414 Falls of Neuse Rd.,,Raleigh,NC,27615,United States,919-326-2530,,,Open Daily 07:00AM - 10:00PM,,,
Murray,601,6284 S. State St.,,Murray,UT,84107,United States,801-266-3566,,,Open Daily 07:00AM - 10:00PM,,,
Orem,602,1375 S. State St.,,Orem,UT,84097,United States,801-434-1501,,,Open Daily 07:00AM - 10:00PM,,,
Salt Lake City,603,216 S. 700 East,,Salt Lake City,UT,84102,United States,801-364-1602,,,Open Daily 07:00AM - 10:00PM,,,
Holladay,604,1785 E. Murray Holladay Rd.,,Holladay,UT,84117,United States,385-695-6817,,,Open Daily 07:00AM - 10:00PM,,,
South Jordan,605,11519 S. 4000 W.,,South Jordan,UT,84095,United States,385-695-6809,,,Open Daily 07:00AM - 10:00PM,,,
Plano,101,4100 E. Legacy Dr.,,Plano,TX,75024,United States,972-618-8902,,,Open Daily 07:00AM - 10:00PM,,,
Flower Mound,102,2301 Cross Timbers Rd.,,Flower Mound,TX,75028,United States,972-874-7380,,,Open Daily 07:00AM - 10:00PM,,,
Dallas - Marsh Ln.,103,11722 Marsh Ln.,,Dallas,TX,75229,United States,214-350-0574,,,Open Daily 07:00AM - 10:00PM,,,
Southlake,104,220 Randol Mill Ave.,,Southlake,TX,76092,United States,682-223-5805,,,Open Daily 07:00AM - 10:00PM,,,
Frisco,105,5190 Preston Rd.,,Frisco,TX,75034,United States,972-464-5776,,,Open Daily 07:00AM - 10:00PM,,,
Richardson,106,1343 W. Campbell Rd.,,Richardson,TX,75080,United States,214-442-5961,,,Open Daily 07:00AM - 10:00PM,,,
Murphy,107,207 E. FM 544,,Murphy,TX,75094,United States,972-265-4770,,,Open Daily 07:00AM - 10:00PM,,,
Coppell,108,110 W. Sandy Lake Rd.,,Coppell,TX,75019,United States,972-350-8051,,,Open Daily 07:00AM - 10:00PM,,,
Round Rock,110,110 Interstate Hwy. 35 N.,,Round Rock,TX,78681,United States,512-334-4684,,,Open Daily 07:00AM - 10:00PM,,,
Austin - Great Hills,112,10225 Research Blvd.,,Austin,TX,78759,United States,512-225-9101,,,Open Daily 07:00AM - 10:00PM,,,
Cedar Hill,113,362 E. FM 1382,,Cedar Hill,TX,75104,United States,972-637-5108,,,Open Daily 07:00AM - 10:00PM,,,
Fort Worth,114,4650 SW Loop 820,,Fort Worth,TX,76109,United States,682-747-5790,,,Open Daily 07:00AM - 10:00PM,,,
Carrollton,115,1745 E. Hebron Pkwy.,,Carrollton,TX,75010,United States,972-428-5785,,,Open Daily 07:00AM - 10:00PM,,,
Austin - South Lamar,117,4006 S. Lamar Blvd.,,Austin,TX,78704,United States,512-444-3079,,,Open Daily 07:00AM - 10:00PM,,,
San Antonio - Callaghan Rd.,118,8101 Callaghan Rd.,,San Antonio,TX,78230,United States,210-979-8121,,,Open Daily 07:00AM - 10:00PM,,,
Corpus Christi,119,1440 Airline Rd.,,Corpus Christi,TX,78412,United States,361-993-2850,,,Open Daily 07:00AM - 10:00PM,,,
El Paso,120,655 Sunland Park Dr.,,El Paso,TX,79912,United States,915-833-3380,,,Open Daily 07:00AM - 11:00PM,,,
McAllen,121,5800 N. 10th St.,,McAllen,TX,78504,United States,956-331-2123,,,Open Daily 07:00AM - 10:00PM,,,
San Antonio - Henderson Pass,123,17700 N. US Hwy. 281,,San Antonio,TX,78232,United States,210-499-1446,,,Open Daily 07:00AM - 10:00PM,,,
Lubbock,124,"8201 Quaker Ave., Suite 140",,Lubbock,TX,79424,United States,806-794-4900,,,Open Daily 07:00AM - 10:00PM,,,
Austin - Manchaca Rd.,125,6920 Manchaca Rd.,,Austin,TX,78745,United States,512-687-2204,,,Open Daily 07:00AM - 10:00PM,,,
Dallas - Henderson Ave.,126,1800 N. Henderson Ave.,,Dallas,TX,75206,United States,214-826-2937,,,Open Daily 07:00AM - 10:00PM,,,
Katy,127,23105 Cinco Ranch Blvd.,,Katy,TX,77494,United States,281-769-0444,,,Open Daily 07:00AM - 10:00PM,,,
Spring Cypress Village,130,22506 Tomball Pkwy.,,Houston,TX,77070,United States,832-698-0004,,,Open Daily 07:00AM - 10:00PM,,,
Houston - Copperfield,131,7055 Hwy. 6 N.,,Houston,TX,77095,United States,832-575-2201,,,Open Daily 07:00AM - 10:00PM,,,
McKinney,132,9241 Virginia Pkwy.,,McKinney,TX,75071,United States,469-481-5000,,,Open Daily 07:00AM - 10:00PM,,,
Houston,133,11940 Westheimer Rd.,,Houston,TX,77077,United States,281-582-6794,,,Open Daily 07:00AM - 10:00PM,,,
Keller,134,2003 S. Main St.,,Keller,TX,76248,United States,817-380-7024,,,Open Daily 07:00AM - 10:00PM,,,
The Heights,136,195 Yale St.,,Houston,TX,77007,United States,713-395-4590,,,Open Daily 07:00AM - 10:00PM,,,
Cedar Park,138,1530 Cypress Creek Rd.,,Cedar Park,TX,78613,United States,512-279-8312,,,Open Daily 07:00AM - 10:00PM,,,
Spring,139,20708 Kuykendahl Rd.,,Spring,TX,77379,United States,832-764-5424,,,Open Daily 07:00AM - 10:00PM,,,
Arlington,140,5711 W. Interstate 20 Hwy.,,Arlington,TX,76017,United States,682-587-0086,,,Open Daily 07:00AM - 10:00PM,,,
Hurst,142,316 Grapevine Hwy.,,Hurst,TX,76054,United States,682-325-5977,,,Open Daily 07:00AM - 10:00PM,,,
Mansfield,143,1550 E. Debbie Ln.,,Mansfield,TX,76063,United States,682-422-0061,,,Open Daily 07:00AM - 10:00PM,,,
Fort Worth - Camp Bowie,144,6300 Waverly Wy.,,Fort Worth,TX,76116,United States,682-747-5456,,,Open Daily 07:00AM - 10:00PM,,,
Rowlett,145,3001 Lakeview Pkwy.,,Rowlett,TX,75088,United States,972-265-0386,,,Open Daily 07:00AM - 10:00PM,,,
Pearland,146,2718 Old Chocolate Bayou Rd.,,Pearland,TX,77584,United States,713-482-3987,,,Open Daily 07:00AM - 10:00PM,,,
Allen,147,1265 W. Exchange Pkwy.,,Allen,TX,75013,United States,972-521-0057,,,Open Daily 07:00AM - 10:00PM,,,
Denton,148,4930 Teasley Lane,,Denton,TX,76210,United States,940-999-2263,,,Open Daily 07:00AM - 10:00PM,,,
Lake Highlands,149,7110 Skillman St.,,Dallas,TX,75231,United States,469-210-8166,,,Open Daily 07:00AM - 10:00PM,,,
El Paso - Zaragoza,150,2036 N Zaragoza Rd.,,El Paso,TX,79938,United States,915-218-2954,,,Open Daily 07:00AM - 11:00PM,,,
Frisco - Eldorado Pkwy,151,2500 Eldorado Pkwy.,,Frisco,TX,75033,United States,469-731-7261,,,Open Daily 07:00AM - 10:00PM,,,
Bellevue,582,7620 Hwy. 70 S.,,Nashville,TN,37221,United States,615-209-7940,,,"Coming August 02, 2017",,,
Lakeland,578,9050 Hwy. 64,,Lakeland,TN,38002,United States,901-259-3450,,,Open Daily 07:00AM - 10:00PM,,,
Germantown,579,3150 Village Shops Dr.,,Germantown,TN,38138,United States,901-259-7020,,,Open Daily 07:00AM - 10:00PM,,,
Franklin,580,1010 Murfreesboro Rd.,,Franklin,TN,37064,United States,615-567-0191,,,Open Daily 07:00AM - 10:00PM,,,
Murfreesboro,581,143 Wendelwood Dr.,,Murfreesboro,TN,37129,United States,615-486-6081,,,Open Daily 07:00AM - 10:00PM,,,
E. Memphis,583,576 S. Perkins,,Memphis,TN,38117,United States,901-620-4405,,,Open Daily 07:00AM - 10:00PM,,,
Snellville,512,"1250 Scenic Highway, Ste. 1704",,Lawrenceville,GA,30045,United States,678-690-1279,,,Open Daily 07:00AM - 10:00PM,,,
Peachtree Corners,513,5130 Peachtree Pkwy.,,Peachtree Corners,GA,30092,United States,678-690-1249,,,Open Daily 07:00AM - 10:00PM,,,
Dunwoody,514,2480 Mt. Vernon Rd.,,Dunwoody,GA,30338,United States,678-690-1237,,,Open Daily 07:00AM - 10:00PM,,,
Cumming,515,530 Lakeland Plz.,,Cumming,GA,30040,United States,470-505-2000,,,Open Daily 07:00AM - 10:00PM,,,
Johns Creek,516,3630 Peachtree Pkwy.,,Suwanee,GA,30024,United States,678-690-1243,,,Open Daily 07:00AM - 10:00PM,,,
Sandy Springs,517,4600 Roswell Rd. #A100,,Sandy Springs,GA,30342,United States,678-954-5294,,,Open Daily 07:00AM - 10:00PM,,,
Smyrna,518,4330 East-West Conn.,,Smyrna,GA,30082,United States,770-200-7587,,,Open Daily 07:00AM - 10:00PM,,,
Atlanta - Morningside,519,1845 Piedmont Ave.,,Atlanta,GA,30324,United States,404-751-0605,,,Open Daily 07:00AM - 10:00PM,,,
Roswell,520,10800 Alpharetta Hwy.,,Roswell,GA,30076,United States,678-353-0102,,,Open Daily 07:00AM - 10:00PM,,,
Marietta - East Cobb,521,4101 Roswell Rd.,,Marietta,GA,30062,United States,770-200-9172,,,Open Daily 07:00AM - 10:00PM,,,
Duluth,522,2220 Peachtree Industrial Blvd.,,Duluth,GA,30097,United States,470-362-7283,,,Open Daily 07:00AM - 10:00PM,,,
Woodstock,523,1430 Towne Lake Pkwy.,,Woodstock,GA,30189,United States,678-224-9799,,,Open Daily 07:00AM - 10:00PM,,,
Peachtree City,524,2015 E. Highway 54,,Peachtree City,GA,30269,United States,678-586-2577,,,Open Daily 07:00AM - 10:00PM,,,
Decatur,525,2551 Blackmon Dr.,,Decatur,GA,30033,United States,404-965-6290,,,Open Daily 07:00AM - 10:00PM,,,
W. Cobb,526,3805 Dallas Hwy. SW,,Marietta,GA,30064,United States,678-919-8701,,,Open Daily 07:00AM - 10:00PM,,,
Tucker,527,4310 Lavista Rd.,,Tucker,GA,30084,United States,470-260-2368,,,Open Daily 07:00AM - 10:00PM,,,
Kansas City North,721,8383 N. Booth Ave.,,Kansas City,MO,64158,United States,816-222-0202,,,Open Daily 07:00AM - 10:00PM,,,
Kansas City - Tom Watson Pkwy.,722,6061 NW. 64th St.,,Kansas City,MO,64151,United States,816-303-6503,,,Open Daily 07:00AM - 10:00PM,,,
Lee's Summit,723,800 NE Hwy. 291,,Lee's Summit,MO,64086,United States,816-272-7038,,,Open Daily 07:00AM - 10:00PM,,,
Westminster,301,5150 W. 120th Ave.,,Westminster,CO,80030,United States,303-803-1010,,,Open Daily 07:00AM - 10:00PM,,,
Parker,302,9751 S. Parker Rd.,,Parker,CO,80134,United States,720-475-8684,,,Open Daily 07:00AM - 10:00PM,,,
Fort Collins - Corbett Dr.,303,4345 Corbett Dr.,,Fort Collins,CO,80525,United States,970-416-3350,,,Open Daily 07:00AM - 10:00PM,,,
Boulder - Baseline Rd.,304,2950 Baseline Rd.,,Boulder,CO,80303,United States,720-279-6758,,,Open Daily 07:00AM - 10:00PM,,,
Aurora - S. Havana St.,305,1150 S. Ironton St.,,Aurora,CO,80012,United States,720-278-2008,,,Open Daily 07:00AM - 10:00PM,,,
Centennial,306,20831 E. Smoky Hill Rd.,,Centennial,CO,80015,United States,720-305-0959,,,Open Daily 07:00AM - 10:00PM,,,
Castle Rock,307,5650 Allen Way,,Castle Rock,CO,80108,United States,720-305-0684,,,Open Daily 07:00AM - 10:00PM,,,
Greeley,308,"4759 W. 29th St., Unit B",,Greeley,CO,80634,United States,970-576-3050,,,Open Daily 07:00AM - 10:00PM,,,
Lone Tree,309,10018 Commons St.,,Lone Tree,CO,80124,United States,720-279-6616,,,Open Daily 07:00AM - 10:00PM,,,
Arvada,310,7725 Wadsworth Blvd.,,Arvada,CO,80003,United States,303-463-4828,,,Open Daily 07:00AM - 10:00PM,,,
Aurora - Briarwood Cir.,311,15405 E. Briarwood Cr.,,Aurora,CO,80016,United States,303-690-4600,,,Open Daily 07:00AM - 10:00PM,,,
Boulder - Arapahoe Ave.,312,2525 Arapahoe Ave.,,Boulder,CO,80302,United States,303-449-0777,,,Open Daily 07:00AM - 10:00PM,,,
Colorado Springs,313,1730 Dublin Blvd.,,Colorado Springs,CO,80918,United States,719-590-8890,,,Open Daily 07:00AM - 10:00PM,,,
Denver - W. 38th Ave.,314,4700 West 38th Ave.,,Denver,CO,80212,United States,303-433-2350,,,Open Daily 07:00AM - 10:00PM,,,
Denver - S. Colorado Blvd.,315,2880 S. Colorado Blvd.,,Denver,CO,80222,United States,303-758-4400,,,Open Daily 07:00AM - 10:00PM,,,
Fort Collins - S. Lemay Ave.,316,2601 S. Lemay Ave.,,Fort Collins,CO,80525,United States,970-282-8003,,,Open Daily 07:00AM - 10:00PM,,,
Greenwood Village,317,8557 E. Arapahoe Rd.,,Greenwood Village,CO,80112,United States,303-721-1400,,,Open Daily 07:00AM - 10:00PM,,,
Highlands Ranch,318,1980 E. County Line Rd.,,Highlands Ranch,CO,80126,United States,303-243-5060,,,Open Daily 07:00AM - 10:00PM,,,
Lafayette,319,555 W. South Boulder Rd.,,Lafayette,CO,80026,United States,303-664-1902,,,Open Daily 07:00AM - 10:00PM,,,
Littleton,320,8601 W. Cross Dr.,,Littleton,CO,80123,United States,720-214-0410,,,Open Daily 07:00AM - 10:00PM,,,
Thornton,321,1131 E. 120th Ave.,,Thornton,CO,80233,United States,303-457-3600,,,Open Daily 07:00AM - 10:00PM,,,
Denver - Colfax Ave,322,3625 E. Colfax Ave.,,Denver,CO,80206,United States,720-347-4205,,,Open Daily 07:00AM - 10:00PM,,,
Longmont,323,1101 S. Hover,,Longmont,CO,80501,United States,303-834-4124,,,Open Daily 07:00AM - 10:00PM,,,
Grand Junction,324,1450 W. Independent Ave.,,Grand Junction,CO,81505,United States,970-549-3001,,,Open Daily 07:00AM - 10:00PM,,,
Englewood,325,5001 S. Broadway,,Englewood,CO,80113,United States,720-612-6595,,,Open Daily 07:00AM - 10:00PM,,,
Wheat Ridge,326,3725 Kipling St.,,Wheat Ridge,CO,80033,United States,720-305-0219,,,Open Daily 07:00AM - 10:00PM,,,
Lakewood,327,98 Wadsworth Blvd.,,Lakewood,CO,80226,United States,303-957-9276,,,Open Daily 07:00AM - 10:00PM,,,
Denver,328,197 E. Mississippi Ave.,,Denver,CO,80209,United States,720-458-2873,,,Open Daily 07:00AM - 10:00PM,,,
Colorado Springs - Northgate,329,13415 Voyager Pkwy.,,Colorado Springs,CO,80921,United States,719-884-7900,,,Open Daily 07:00AM - 10:00PM,,,
Loveland,330,1440 N. Lincoln Ave.,,Loveland,CO,80538,United States,970-800-5607,,,Open Daily 07:00AM - 10:00PM,,,
Colorado Springs - Powers,332,5617 Barnes Rd.,,Colorado Springs,CO,80917,United States,719-313-4405,,,Open Daily 07:00AM - 10:00PM,,,
West Arvada,333,15050 West 64th Ave.,,Arvada,CO,80007,United States,303-801-4570,,,Open Daily 07:00AM - 10:00PM,,,
S. Tampa - Dale Mabry Hwy,610,1523 S. Dale Mabry Hwy.,,Tampa,FL,33629,United States,813-466-3390,,,Open Daily 07:00AM - 10:00PM,,,
Palm Harbor,611,33652 US Hwy. 19 N,,Palm Harbor,FL,34684,United States,727-437-3824,,,Open Daily 07:00AM - 10:00PM,,,
Carrollwood,612,15110 N. Dale Mabry Hwy.,,Tampa,FL,33618,United States,813-619-4000,,,Open Daily 07:00AM - 10:00PM,,,
S. Sarasota,614,8330 S. Tamiami Trail,,Sarasota,FL,34238,United States,941-218-8119,,,Open Daily 07:00AM - 10:00PM,,,
Overland Park,171,6821 W. 135th St.,,Overland Park,KS,66223,United States,913-643-4190,,,Open Daily 07:00AM - 10:00PM,,,
Lawrence,173,4740 Bauer Farm Dr.,,Lawrence,KS,66049,United States,785-727-7314,,,Open Daily 07:00AM - 10:00PM,,,
Lenexa,174,8550 Maurer Rd.,,Lenexa,KS,66219,United States,913-312-1586,,,Open Daily 07:00AM - 10:00PM,,,
Wichita,175,7728 E. Central Ave.,,Wichita,KS,67206,United States,316-448-5254,,,Open Daily 07:00AM - 10:00PM,,,
Overland Park - Nall Ave.,176,9628 Nall Ave.,,Overland Park,KS,66207,United States,913-643-9170,,,Open Daily 07:00AM - 10:00PM,,,
Las Vegas - Farm Rd.,506,8441 Farm Rd.,,Las Vegas,NV,89131,United States,702-583-3830,,,"Coming September 27, 2017",,,
Reno,508,587 S. Meadows Pkwy.,,Reno,NV,89521,United States,775-335-1055,,,"Coming September 13, 2017",,,
Las Vegas - E. Tropicana Ave.,501,3365 E. Tropicana Ave.,,Las Vegas,NV,89121,United States,702-777-0650,,,Open Daily 07:00AM - 10:00PM,,,
Las Vegas - S. Rainbow Blvd.,502,4020 S. Rainbow Blvd.,,Las Vegas,NV,89103,United States,702-876-4888,,,Open Daily 07:00AM - 10:00PM,,,
Henderson,503,635 S. Green Valley Pkwy.,,Henderson,NV,89052,United States,702-322-2229,,,Open Daily 07:00AM - 10:00PM,,,
Henderson - Stephanie,504,515 N. Stephanie St.,,Henderson,NV,89014,United States,702-777-7095,,,Open Daily 07:00AM - 10:00PM,,,
West Las Vegas,505,10000 W. Sahara Ave.,,Las Vegas,NV,89117,United States,702-216-5060,,,Open Daily 07:00AM - 10:00PM,,,
Las Vegas - W. Lake Mead,507,7530 W. Lake Mead Blvd.,,Las Vegas,NV,89128,United States,702-216-3556,,,Open Daily 07:00AM - 10:00PM,,,
Albuquerque - Corrales Rd. NW,701,"10701 Corrales Rd., NW",,Albuquerque,NM,87114,United States,505-890-7900,,,Open Daily 07:00AM - 10:00PM,,,
Albuquerque - Lomas Blvd. NE,702,"5112 Lomas Blvd., NE",,Albuquerque,NM,87110,United States,505-268-5127,,,Open Daily 07:00AM - 10:00PM,,,
Albuquerque - Montgomery Blvd. NE,703,"11201 Montgomery Blvd., NE",,Albuquerque,NM,87111,United States,505-298-2447,,,Open Daily 07:00AM - 10:00PM,,,
Albuquerque - San Mateo Blvd. NE,704,"6300 San Mateo Blvd., NE",,Albuquerque,NM,87109,United States,505-821-7000,,,Open Daily 07:00AM - 10:00PM,,,
Santa Fe - Zafarano Dr.,705,"3201 Zafarano Dr., Suite 20",,Santa Fe,NM,87507,United States,505-424-1900,,,Open Daily 07:00AM - 10:00PM,,,
Santa Fe - Paseo de Peraltao,706,199 Paseo de Peralta,,Santa Fe,NM,87501,United States,505-988-1140,,,Open Daily 07:00AM - 10:00PM,,,
Albuquerque -Four Hills,707,13150 Central Ave. SE,,Albuquerque,NM,87123,United States,505 998 1025,,,Open Daily 07:00AM - 10:00PM,,,
Yuma,35,1590 S. 4th Ave.,,Yuma,AZ,85364,United States,928-388-6016,,,"Coming July 26, 2017",,,
Tucson - Oro Valley,11,7665 N. Oracle Way,,Oro Valley,AZ,85704,United States,520-297-5446,,,Open Daily 07:00AM - 10:00PM,,,
Tucson - River Rd.,21,3860 W. River Rd.,,Tucson,AZ,85741,United States,520-204-1787,,,Open Daily 07:00AM - 10:00PM,,,
Tucson - Broadway Blvd.,22,7877 E. Broadway Blvd.,,Tucson,AZ,85710,United States,520-546-6112,,,Open Daily 07:00AM - 10:00PM,,,
Tucson - 1st Ave.,23,4282 N. 1st Ave.,,Tucson,AZ,85719,United States,520-407-5132,,,Open Daily 07:00AM - 10:00PM,,,
Tucson - Speedway Blvd.,24,4645 E. Speedway Blvd.,,Tucson,AZ,85712,United States,520-325-1320,,,Open Daily 07:00AM - 10:00PM,,,
Flagstaff,26,1560 Riordan Ranch St.,,Flagstaff,AZ,86001,United States,928-679-6000,,,Open Daily 07:00AM - 10:00PM,,,
Prescott Valley,28,5645 E. State Route 69,,Prescott Valley,AZ,86314,United States,928-379-8000,,,Open Daily 07:00AM - 10:00PM,,,
Queen Creek,32,21181 S. Ellsworth Loop Rd.,,Queen Creek,AZ,85142,United States,623-385-3213,,,Open Daily 07:00AM - 10:00PM,,,
Prescott,36,174 E. Sheldon St,,Prescott,AZ,86301,United States,928-499-3350,,,Open Daily 07:00AM - 10:00PM,,,
Diamond Bar,420,239 S. Diamond Bar Blvd.,,Diamond Bar,CA,91765,United States,,,,"Coming October 11, 2017",,,
Redlands,421,560 W. Stuart Ave.,,Redlands,CA,92373,United States,909-283-7162,,,"Coming September 20, 2017",,,
Cerritos,426,11900 South St.,,Cerritos,CA,90703,United States,,,,"Coming October 25, 2017",,,
El Cajon,202,152 N. 2nd St.,,El Cajon,CA,92021,United States,619-579-8251,,,Open Daily 07:00AM - 10:00PM,,,
San Marcos,203,149 S. Las Posas Rd.,,San Marcos,CA,92078,United States,760-208-6041,,,Open Daily 07:00AM - 10:00PM,,,
Torrance,204,4230 Pacific Coast Hwy.,,Torrance,CA,90505,United States,424-903-7062,,,Open Daily 07:00AM - 10:00PM,,,
Claremont,205,835 W. Foothill Blvd.,,Claremont,CA,91711,United States,909-267-1049,,,Open Daily 07:00AM - 10:00PM,,,
Irvine,206,3775 Alton Pkwy.,,Irvine,CA,92606,United States,949-705-5435,,,Open Daily 07:00AM - 10:00PM,,,
Tustin - Holt Ave.,207,14945 Holt Ave.,,Tustin,CA,92780,United States,714-415-4381,,,Open Daily 07:00AM - 10:00PM,,,
Seal Beach,208,12301 Seal Beach Blvd.,,Seal Beach,CA,90740,United States,562-794-2125,,,Open Daily 07:00AM - 10:00PM,,,
Brea,209,735 E. Birch St.,,Brea,CA,92821,United States,714-482-1000,,,Open Daily 07:00AM - 10:00PM,,,
Riverside,210,475 E. Alessandro Blvd.,,Riverside,CA,92508,United States,951-565-5400,,,Open Daily 07:00AM - 10:00PM,,,
Orange,211,"1500 E. Village Way, Suite #2279",,Orange,CA,92865,United States,714-464-1060,,,Open Daily 07:00AM - 10:00PM,,,
Huntington Beach,212,9861 Adams Ave.,,Huntington Beach,CA,92646,United States,714-369-1139,,,Open Daily 07:00AM - 10:00PM,,,
Carmel Mountain Ranch,213,11710 Carmel Mountain Rd.,,San Diego,CA,92128,United States,858-798-7200,,,Open Daily 07:00AM - 10:00PM,,,
Thousand Oaks,214,600 W. Hillcrest Dr.,,Thousand Oaks,CA,91360,United States,805-716-4373,,,Open Daily 07:00AM - 10:00PM,,,
Culver City,215,5660 Sepulveda Blvd.,,Culver City,CA,90230,United States,310-591-1028,,,Open Daily 07:00AM - 10:00PM,,,
Sunnyvale,216,111 E. El Camino Real,,Sunnyvale,CA,94087,United States,408-702-1172,,,Open Daily 07:00AM - 10:00PM,,,
Pasadena,217,39 N. Rosemead Blvd.,,Pasadena,CA,91107,United States,626-696-1290,,,Open Daily 07:00AM - 10:00PM,,,
Valencia,218,24285 Magic Mountain Pkwy.,,Valencia,CA,91355,United States,661-414-1109,,,Open Daily 07:00AM - 10:00PM,,,
Roseville - Stanford Ranch Rd.,219,6760 Stanford Ranch Rd.,,Roseville,CA,95678,United States,916-774-1120,,,Open Daily 07:00AM - 10:00PM,,,
Westlake Village,220,1012 S. Westlake Blvd.,,Westlake Village,CA,91361,United States,805-917-4200,,,Open Daily 07:00AM - 10:00PM,,,
Dublin,221,7153 Amador Plaza Rd.,,Dublin,CA,94568,United States,925-307-1172,,,Open Daily 07:00AM - 10:00PM,,,
Redondo Beach,222,1515 Hawthorne Blvd.,,Redondo Beach,CA,90278,United States,424-903-7028,,,Open Daily 07:00AM - 10:00PM,,,
Granada Hills,223,10821 N. Zelzah Ave.,,Granada Hills,CA,91344,United States,818-366-0717,,,Open Daily 07:00AM - 10:00PM,,,
Encinitas,224,1327 Encinitas Blvd.,,Encinitas,CA,92024,United States,760-633-4747,,,Open Daily 07:00AM - 10:00PM,,,
La Mesa,225,4630 Palm Ave.,,La Mesa,CA,91941,United States,619-460-7722,,,Open Daily 07:00AM - 10:00PM,,,
San Diego - North Park,226,4175 Park Blvd.,,San Diego,CA,92103,United States,619-291-8287,,,Open Daily 07:00AM - 10:00PM,,,
San Diego - Pacific Beach,227,1260 Garnet Ave.,,San Diego,CA,92109,United States,858-270-8200,,,Open Daily 07:00AM - 10:00PM,,,
San Diego - Point Loma,228,"3315 Rosecrans St., Suite B",,San Diego,CA,92110,United States,619-523-3640,,,Open Daily 07:00AM - 10:00PM,,,
Poway,229,13536 Poway Rd.,,Poway,CA,92064,United States,858-486-7851,,,Open Daily 07:00AM - 10:00PM,,,
Elk Grove,230,8211 Laguna Blvd.,,Elk Grove,CA,95758,United States,916-478-9595,,,Open Daily 07:00AM - 10:00PM,,,
Solana Beach,231,659 Lomas Sante Fe Dr.,,Solana Beach,CA,92075,United States,858-350-7900,,,Open Daily 07:00AM - 10:00PM,,,
San Diego - University City,232,3358 Governor Dr.,,San Diego,CA,92122,United States,858-457-5006,,,Open Daily 07:00AM - 10:00PM,,,
Lemon Grove,233,3205 Lemon Grove Ave.,,Lemon Grove,CA,91945,United States,619-667-8686,,,Open Daily 07:00AM - 10:00PM,,,
San Diego - Genesee Ave.,234,4439 Genesee Ave.,,San Diego,CA,92117,United States,858-268-2400,,,Open Daily 07:00AM - 10:00PM,,,
Hemet,235,2207 W. Florida Ave.,,Hemet,CA,92545,United States,951-537-1975,,,Open Daily 07:00AM - 10:00PM,,,
Burbank,236,1011 N. San Fernando Blvd.,,Burbank,CA,91504,United States,818-566-4089,,,Open Daily 07:00AM - 10:00PM,,,
Laguna Niguel,237,27271 La Paz Rd.,,Laguna Niguel,CA,92677,United States,949-349-1999,,,Open Daily 07:00AM - 10:00PM,,,
Yorba Linda,238,17482 Yorba Linda Blvd.,,Yorba Linda,CA,92886,United States,714-572-3535,,,Open Daily 07:00AM - 10:00PM,,,
Carlsbad,239,2618 El Camino Real,,Carlsbad,CA,92008,United States,760-730-1123,,,Open Daily 07:00AM - 10:00PM,,,
Costa Mesa - Harbor Blvd.,240,"3030 Harbor Blvd., Suite D",,Costa Mesa,CA,92626,United States,714-751-6399,,,Open Daily 07:00AM - 10:00PM,,,
Chino Hills,241,3630 Grand Ave.,,Chino Hills,CA,91709,United States,909-548-0440,,,Open Daily 07:00AM - 10:00PM,,,
Mission Viejo,242,27765 Santa Margarita Pkwy.,,Mission Viejo,CA,92691,United States,949-587-3003,,,Open Daily 07:00AM - 10:00PM,,,
Corona,243,120 W. Ontario Ave.,,Corona,CA,92882,United States,951-371-4227,,,Open Daily 07:00AM - 10:00PM,,,
Fullerton,244,1447 S. Harbor Blvd.,,Fullerton,CA,92832,United States,714-441-1233,,,Open Daily 07:00AM - 10:00PM,,,
Rancho Cucamonga,245,7355 Day Creek Blvd.,,Rancho Cucamonga,CA,91739,United States,909-803-5730,,,Open Daily 07:00AM - 10:00PM,,,
La Quinta,246,79050 Hwy. 111,,La Quinta,CA,92253,United States,760-771-2485,,,Open Daily 07:00AM - 10:00PM,,,
Carlsbad - Rancho Santa Fe,247,3243 Camino de los Coches,,Carlsbad,CA,92009,United States,760-635-0625,,,Open Daily 07:00AM - 10:00PM,,,
Temecula,248,32413 Hwy. 79 South,,Temecula,CA,92592,United States,951-303-0087,,,Open Daily 07:00AM - 10:00PM,,,
San Diego - Bernardo Heights,249,15727 Bernardo Heights Pwky.,,San Diego,CA,92128,United States,858-385-1606,,,Open Daily 07:00AM - 10:00PM,,,
Oceanside,250,471 College Blvd.,,Oceanside,CA,92057,United States,760-726-7274,,,Open Daily 07:00AM - 10:00PM,,,
Rancho Temecula,251,39606 Winchester Rd.,,Temecula,CA,92591,United States,951-694-3680,,,Open Daily 07:00AM - 10:00PM,,,
San Pedro,252,820 N. Western Ave.,,San Pedro,CA,90732,United States,310-831-7836,,,Open Daily 07:00AM - 10:00PM,,,
Escondido,253,510 W. 13th Ave.,,Escondido,CA,92025,United States,760-743-1528,,,Open Daily 07:00AM - 10:00PM,,,
Santee,254,9361 Mission Gorge Rd.,,Santee,CA,92071,United States,619-562-0145,,,Open Daily 07:00AM - 10:00PM,,,
Woodland Hills,255,21821 Ventura Blvd.,,Woodland Hills,CA,91364,United States,818-887-6473,,,Open Daily 07:00AM - 10:00PM,,,
Tustin - Jamboree Rd.,256,3011 El Camino Real,,Tustin,CA,92782,United States,714-734-8760,,,Open Daily 07:00AM - 10:00PM,,,
Monrovia,257,400 W. Huntington Dr.,,Monrovia,CA,91016,United States,626-358-6845,,,Open Daily 07:00AM - 10:00PM,,,
Costa Mesa - Newport,258,225 E. 17th St.,,Costa Mesa,CA,92627,United States,949-698-1094,,,Open Daily 07:00AM - 10:00PM,,,
Walnut Creek,259,1530 Geary Rd.,,Walnut Creek,CA,94597,United States,925-953-1113,,,Open Daily 07:00AM - 10:00PM,,,
Lakewood,260,4253 Woodruff Ave.,,Lakewood,CA,90713,United States,562-739-2541,,,Open Daily 07:00AM - 10:00PM,,,
La Canada - Flintridge,261,920 Foothill Blvd.,,La Canada Flintridge,CA,91011,United States,818-495-1103,,,Open Daily 07:00AM - 10:00PM,,,
Yorba Linda - Savi Ranch,262,22401 Old Canal Rd.,,Yorba Linda,CA,92887,United States,714-464-1824,,,Open Daily 07:00AM - 10:00PM,,,
Citrus Heights,263,7905 Greenback Ln.,,Citrus Heights,CA,95610,United States,916-560-2000,,,Open Daily 07:00AM - 10:00PM,,,
Whittier,264,15801 Whittier Blvd.,,Whittier,CA,90603,United States,562-265-2109,,,Open Daily 07:00AM - 10:00PM,,,
Modesto,265,1700 McHenry Blvd.,,Modesto,CA,95350,United States,209-527-7575,,,Open Daily 07:00AM - 10:00PM,,,
Sacramento,267,4408 Del Rio Rd.,,Sacramento,CA,95822,United States,916-455-4200,,,Open Daily 07:00AM - 10:00PM,,,
Fremont,268,3900 Mowry Ave.,,Fremont,CA,94538,United States,510-284-1050,,,Open Daily 07:00AM - 10:00PM,,,
San Jose - Prospect Rd.,269,5205 Prospect Rd.,,San Jose,CA,95129,United States,408-725-3970,,,Open Daily 07:00AM - 10:00PM,,,
San Jose - Branham Ln.,270,1130 Branham Ln.,,San Jose,CA,95118,United States,408-833-1152,,,Open Daily 07:00AM - 10:00PM,,,
Mountain View,271,630 San Antonio Rd.,,Mountain View,CA,94040,United States,650-397-3001,,,Open Daily 07:00AM - 10:00PM,,,
West Hills,272,6605 Fallbrook Ave.,,West Hills,CA,91307,United States,818-867-2104,,,Open Daily 07:00AM - 10:00PM,,,
Fresno,273,7477 N. Blackstone Ave.,,Fresno,CA,93720,United States,559-256-1735,,,Open Daily 07:00AM - 10:00PM,,,
Petaluma,274,"401 Kenilworth Dr., Suite 1040",,Petaluma,CA,94952,United States,707-789-4976,,,Open Daily 07:00AM - 10:00PM,,,
Westwood,275,1751 Westwood Blvd.,,Los Angeles,CA,90024,United States,310-500-1192,,,Open Daily 07:00AM - 10:00PM,,,
Daly City,276,301 Gellert Blvd.,,Daly City,CA,94015,United States,415-325-1091,,,Open Daily 07:00AM - 10:00PM,,,
Huntington Beach,277,6942 Warner Ave.,,Huntington Beach,CA,92647,United States,714-369-1160,,,Open Daily 07:00AM - 10:00PM,,,
San Ramon,278,3181 Crow Canyon Pl.,,San Ramon,CA,94583,United States,925-302-1395,,,Open Daily 07:00AM - 10:00PM,,,
Oakland,279,3035 Broadway,,Oakland,CA,94611,United States,510-851-7688,,,Open Daily 07:00AM - 10:00PM,,,
Bakersfield,280,10650 Stockdale Hwy.,,Bakersfield,CA,93311,United States,661-617-8957,,,Open Daily 07:00AM - 10:00PM,,,
Upland,281,847 W. Foothill Blvd.,,Upland,CA,91786,United States,909-912-1461,,,Open Daily 07:00AM - 10:00PM,,,
Santa Clara,283,2060 El Camino Real,,Santa Clara,CA,95050,United States,408-780-7248,,,Open Daily 07:00AM - 10:00PM,,,
Albany,284,1075 Monroe St.,,Albany,CA,94706,United States,510-345-0461,,,Open Daily 07:00AM - 10:00PM,,,
Los Angeles - La Brea Ave,285,915 N La Brea Ave.,,Los Angeles,CA,90038,United States,323-217-1642,,,Open Daily 07:00AM - 10:00PM,,,
La Habra,286,1431 W. Imperial Hwy.,,La Habra,CA,90631,United States,562-265-2151,,,Open Daily 07:00AM - 10:00PM,,,
Cupertino,287,20558 Stevens Creek Blvd.,,Cupertino,CA,95014,United States,408-780-7748,,,Open Daily 07:00AM - 10:00PM,,,
San Rafael,288,655 Irwin St.,,San Rafael,CA,94901,United States,415-524-1159,,,Open Daily 07:00AM - 10:00PM,,,
San Clemente,296,550 Camino De Estrella,,San Clemente,CA,92672,United States,949-542-1036,,,Open Daily 07:00AM - 10:00PM,,,
Chula Vista,298,690 3rd Ave.,,Chula Vista,CA,91910,United States,619-409-7630,,,Open Daily 07:00AM - 09:00PM,,,
Chula Vista Eastlake,299,878 Eastlake Pkwy.,,Chula Vista,CA,91914,United States,619-421-2099,,,Open Daily 07:00AM - 09:00PM,,,
Pinole,401,1300 Pinole Valley Rd.,,Pinole,CA,94564,United States,510-640-8111,,,Open Daily 07:00AM - 10:00PM,,,
Los Angeles - Eagle Rock,403,2245 Yosemite Dr.,,Los Angeles,CA,90041,United States,323-423-1128,,,Open Daily 07:00AM - 10:00PM,,,
Brentwood,404,2325 Sand Creek Rd.,,Brentwood,CA,94513,United States,925-308-1965,,,Open Daily 07:00AM - 10:00PM,,,
Clovis,405,850 Herndon Ave.,,Clovis,CA,93612,United States,559-326-1169,,,Open Daily 07:00AM - 10:00PM,,,
San Jose - Brokaw Rd.,406,1028 E. Brokaw Rd.,,San Jose,CA,95131,United States,408-490-3041,,,Open Daily 07:00AM - 10:00PM,,,
Alhambra,407,150 E. Main St.,,Alhambra,CA,91801,United States,626-863-1096,,,Open Daily 07:00AM - 10:00PM,,,
Roseville - Granite Bay,408,2030 Douglas Blvd.,,Roseville,CA,95661,United States,916-462-5047,,,Open Daily 07:00AM - 10:00PM,,,
San Diego - Del Sur,409,16415 Paseo Del Sur,,San Diego,CA,92127,United States,858-798-8232,,,Open Daily 07:00AM - 10:00PM,,,
Glendora,410,655 S. Grand Ave.,,Glendora,CA,91740,United States,626-250-6625,,,Open Daily 07:00AM - 10:00PM,,,
Hoover,480,5250 Medford Dr.,,Hoover,AL,35244,United States,205-263-4970,,,Open Daily 07:00AM - 10:00PM,,,
Huntsville - Madison,481,7504 Hwy. 72 West,,Madison,AL,35758,United States,256-203-8334,,,Open Daily 07:00AM - 10:00PM,,,
Birmingham,482,5265 US Hwy. 280,,Birmingham,AL,35242,United States,205-263-2808,,,Open Daily 07:00AM - 10:00PM,,,
Vestavia Hills,483,1031 Montgomery Hwy.,,Vestavia Hills,AL,35216,United States,205-484-0084,,,Open Daily 07:00AM - 10:00PM,,,
Oklahoma City,801,6410 North May Ave.,,Oklahoma City,OK,73116,United States,405-879-9989,,,Open Daily 07:00AM - 10:00PM,,,
Edmond,802,24 E. 2nd St.,,Edmond,OK,73034,United States,405-341-5727,,,Open Daily 07:00AM - 10:00PM,,,
Norman,803,559 W. Main St.,,Norman,OK,73069,United States,405-217-4601,,,Open Daily 07:00AM - 10:00PM,,,
Bixby,804,10111 S. Memorial Dr.,,Tulsa,OK,74133,United States,918-364-7272,,,Open Daily 07:00AM - 10:00PM,,,
Tulsa,805,4123 S. Harvard Ave.,,Tulsa,OK,74135,United States,918-858-8850,,,Open Daily 07:00AM - 10:00PM,,,
Broken Arrow,806,851 E. Hillside Dr.,,Broken Arrow,OK,74012,United States,918-806-0810,,,Open Daily 07:00AM - 10:00PM,,,
Owasso,807,9601 N. 133rd E. Ave.,,Owasso,OK,74055,United States,918-516-6656,,,Open Daily 07:00AM - 10:00PM,,,
NW Oklahoma City,808,12200 N. MacArthur Blvd.,,Oklahoma City,OK,73162,United States,405-384-7577,,,Open Daily 07:00AM - 10:00PM,,,
Yukon,809,1105 Garth Brooks Blvd.,,Yukon,OK,73099,United States,405-494-3054,,,Open Daily 07:00AM - 10:00PM,,,
Stillwater,810,909 W. 6th Ave.,,Stillwater,OK,74074,United States,405-571-3153,,,Open Daily 07:00AM - 10:00PM,,,
