store_name,store_number,address,address2,city,state,zip_code,country,phone_number,latitude,longitude,store_hours,store_type,other_fields,coming_soon
Merchants Walk,9436001,1919 28th Avenue S,,Birmingham,AL,35209,USA,2058708229,33.4808268,-86.7881374,,,,
Essex Square Market Place,9017905,2 McFarland Blvd,,Northport,AL,35476-3348,USA,2057586855,33.2361582,-87.5523731,"Mo, Tu, We, Th: 11am to 10pm. Fr, Sa: 11am to 11pm. Su: 12pm to 10pm",,,
Meadowbrook,9017906,2304 McFarland Blvd E,,Tuscaloosa,AL,35404-5802,USA,2053494661,33.1889321,-87.526194,"M, T, W, Th, F, Sa: 11 AM to 12 mid<br/>Su: 12 PM to 12 mid",,,
Anniston 2,9040302,1903 Quintard Ave,,Anniston,AL,36201-3217,USA,2562388229,33.6698,-85.8264,"M, T, W, Th: 12 a.m. to 9 p.m.<br/>F, Sa: 12 a.m. to 10 p.m.<br/>Su: Noon to 9 p.m.",,,
Corner Village,9291601,300 N Dean Rd Ste 3,,Auburn,AL,36830-5045,USA,3348268828,32.6100321,-85.4648807,"Mo, Tu, We, Th, Fr, Sa: 11am to 11pm. Su: 12pm to 11pm",,,
Chaney's Pharmacy,9143701,501 Bramlett Blvd,,Oxford,MS,38655-4129,USA,6622347221,34.3644214,-89.5106617,"Mo, Tu, We, Th, Fr, Sa: 9am to 9pm. Su: 1pm to 9pm",,,
Philadelphia Subway,9256501,1006 Central Dr,,Philadelphia,MS,39350-8971,USA,6013890020,32.7608351,-89.1469575,,,,
Laurel Chevron,9221501,1037 Highway 15 N,,Laurel,MS,39440-2647,USA,6014255900,31.6940509,-89.1306124,"Mo, Tu, We, Th, Fr: 10am to 9pm. Sa, Su: 10am to 10pm",,,
Westside Plaza,9432101,807 West Ave.,,Cartersville,GA,30120,USA,7703342151,34.1576654,-84.8161983,"M, T, W, Th, Su: 12:00 to 9:00<br/>F, Sa: 12:00 to 10:00",,,
Braelinn Village Shopping Ctr,9423501,532 Crosstown Dr,,Peachtree City,GA,30269-2916,USA,7706319803,33.3771429,-84.559657,"Mo, Tu, We, Th: 10am to 10pm. Fr, Sa: 10am to 11pm. Su: 12pm to 10pm",,,
Fayette Center,9438801,770 Glynn Street,,North Fayetteville,GA,30214,USA,6788293510,33.4653139,-84.449395,,,,
Fountain Oaks Shopping Center,9354901,4920 Roswell Rd NE,,Atlanta,GA,30342-2686,USA,4042527437,33.8897521,-84.3831892,,,,
1352-1 Eufaula Ave.,9432401,1352-1 Eufaula Ave.,,Eufaula,AL,36027,USA,3345463966,31.8766954,-85.1506823,,,,
Beach Walk Center,9420601,130 Scenic Gulf Dr,,Miramar Beach,FL,32550-4960,USA,8506542076,30.3758305,-86.3528027,,,,
Bayou Boulevard,9330101,4771 Bayou Blvd,,Pensacola,FL,32503-1930,USA,8503327531,30.4704301,-87.2095207,"Mo, Tu, We, Th: 11am to 10pm. Fr, Sa: 11am to 11pm",,,
Gulf Shores,9345604,1301 Gulf Shores Pkwy,,Gulf Shores,AL,36542,USA,4072262689,30.262924,-87.688828,"Mo, Tu, We, Th, Fr, Sa: 10:30am to 10:30pm. Su: 11am to 10:30pm",,,
Dawson Road,9413301,2416 Dawson Rd,,Albany,GA,31707-2344,USA,2298837143,31.6091116,-84.2109254,"Mo, Tu, We, Th, Fr: 11am to 10pm. Sa, Su: 11am to 11pm",,,
421 Pinola Drive,9432402,421 Pinola Drive,,Magee,MS,39111,USA,6018495427,31.8644147,-89.7290093,,,,
Camellia Square,9237206,1736 Gause Blvd East,,Slidell,LA,70461,USA,9852880340,30.2868334,-89.7385145,"Mo, Tu, We, Th: 10am to 9:30pm. Fr, Sa: 10am to 10pm. Su: 11am to 9:30pm",,,
Brookwood Marketplace,9017908,2615 Peachtree Pkwy Ste 140,,Suwanee,GA,30024-1061,USA,6789470540,34.0963114,-84.1750145,"Mo, Tu, We, Th: 12pm to 9:30pm. Fr: 12pm to 10pm. Sa: 11am to 10pm. Su: 12pm to 9pm",,,
Highway 59,9421301,1680 Highway 59,,Mandeville,LA,70448,USA,9856264770,30.373816,-90.055508,"Mo, Tu, We, Th, Fr, Sa: 11am to 10pm. Su: 12am to 10pm",,,
Lakeland TCBY,9440001,3548 Canada Road,,Lakeland,TN,38002,USA,9012735641,35.2221629,-89.7359605,,,,
Lenoir City BP,9178907,1104 Highway 321 N,,Lenoir City,TN,37771-6665,USA,8659862307,35.8267195,-84.2777754,"Mo, Tu, We, Th, Fr, Sa, Su: 8am to 10pm",,,
Wolf Chase,9323703,7994 US Highway 64  108,,Bartlett,TN,38133-4008,USA,9013837994,35.2047649,-89.7967609,"Mo, Tu, We, Th: 11am to 9:30pm. Fr, Sa: 11am to 10:30pm. Su: 12pm to 9:30pm",,,
Wedgewood Commons,9323706,5070 Goodman Rd Ste 111,,Olive Branch,MS,38654,USA,6624207823,34.962779,-89.900512,"Mo, Tu, We, Th: 11am to 9pm. Fr: 11am to 10pm. Su: 12pm to 9pm",,,
Sunny Shell LLC 2,9438401,1206 Luckney Road,,Flowood,MS,39232,USA,7692437143,32.3493551,-90.0535491,,,,
Brookhaven,9323701,5134 Poplar Ave  102,,Memphis,TN,38117-7607,USA,9017614126,35.1106401,-89.8905916,"Mo, Tu, We, Th: 11am to 10:30pm. Fr, Sa: 11am to 11pm. Su: 12pm to 10:30pm",,,
Diamond Center,9438102,800 East Diamond Ctr3116,,Anchorage,AK,99515,USA,9075222560,61.1456649,-149.8716301,,,,
Foothills Mall - Bakery Cafe,9376101,7401 N La Cholla Blvd Ste 155,,Tucson,AZ,85741-2329,USA,5205318404,32.3411619,-111.0142987,"Mo, Tu, We, Th, Fr, Sa: 10am to 9pm. Su: 11am to 6pm",,,
McCarran International Airport,9106038,5795 Paradise Rd Terminal B,,Las Vegas,NV,89119,USA,7027983303,35.9766942,-115.1411556,,,,
Westfield Shopping Town,9427101,72840 Highway 111 Ste S339,,Palm Desert,CA,92260-3337,USA,7603464598,33.7216277,-116.3941345,,,,
Grewal Business Center,9400801,72363 Baker Blvd,,Baker,CA,92309,USA,7607334505,35.2684544,-116.0690303,"Mo, Tu, We, Th, Su: 9am to 9pm. Fr, Sa: 9am to 10pm",,,
McCarran International Airport,9150160,1300 N Tenopah Dr,,Las Vegas,NV,89109,USA,7022617459,36.128561,-115.1711298,,,,
McCarran International Airport,9075055,South Gate,,Las Vegas,NV,89111,USA,7028378654,36.1483132,-115.1951131,,,,
Victoria Gardens,9431501,7834 Kew Ave,,Rancho Cucamonga,CA,91739-2465,USA,2134488920,34.1108301,-117.531089,,,,
West Covina Fashion Plaza,9412801,603 Plaza Dr,,West Covina,CA,91790-2837,USA,6269607011,34.0698435,-117.9272576,,,,
University Mall I,9339605,575 University Pkwy Ste M214,,Orem,UT,84097-7601,USA,8018027788,40.2750438,-111.6806052,"Mo, Tu, We, Th, Fr, Sa: 10am to 9pm",,,
Pinetree Square,9170301,2812 Sudderth Dr,,Ruidoso,NM,88345-6308,USA,5752577822,33.3340219,-105.6803382,"Mo, Tu, We, Th, Su: 9:30am to 8:30pm. Fr, Sa: 9:30am to 9:30pm",,,
Dave Ward Drive,9315001,3900 Dave Ward Dr Ste 2300,,Conway,AR,72034-5581,USA,5013270909,35.073016,-92.495313,"Mo, Tu, We, Th, Fr: 8am to 10pm. Sa, Su: 9am to 10pm",,,
Markham Plaza,9109314,11418 W Markham St,,Little Rock,AR,72211-2806,USA,5012219020,34.754353,-92.4032546,"Mo, Tu, We, Th: 11am to 10pm. Fr, Sa: 11am to 11pm. Su: 12am to 10pm",,,
Hurricane Creek Village,9438201,20770 I-30 North,,Benton,AR,72019,USA,5017946838,34.60014,-92.5494801,"M, T, W, Th: 11 to 9<br/>F, Sa: 11 to 10<br/>Su: 11 to 8",,,
Hot Springs,9427801,1340 Higdon Ferry Rd,,Hot Springs,AR,71913-6411,USA,5015200700,34.4611469,-93.060703,"M, T, W, Th: 12 a.m. to 9 p.m.<br/>F, Sa: 11 a.m. to 10 p.m.<br/>Su: 12 p.m. to 9 p.m.",,,
Lakewood Village,9411601,2600 Lakewood Village Pl Ste E,,North Little Rock,AR,72116-8049,USA,5017535572,34.7977281,-92.2331152,"Mo, Tu, We, Th: 10am to 10pm. Fr, Sa: 10am to 10:30pm. Su: 12pm to 10pm",,,
Harrison,9109311,1313 Highway 62 65 N  G,,Harrison,AR,72601-2013,USA,8707419554,36.2622867,-93.1328656,"Fr, Sa: 11am to 10:30pm. Su: 11am to 9:30pm",,,
Promenade Pointe,9438901,2005 Promenade Point Boulevard,,Rogers,AR,72758,USA,4796368229,36.2989178,-94.1718542,,,,
Shreveport,9374701,1704 East Bert Kouns Loop,,Shreveport,LA,71105,USA,3187978229,32.433919,-93.707274,"Mo, Tu, We, Th: 11am to 9pm. Fr, Sa: 11am to 10pm. Su: 12pm to 9pm",,,
South Main,9436201,318 South Main,,Lindale,TX,75771,USA,9038823725,32.512524,-95.408719,,,,
South Broadway Shopping Center,9436202,7488 South Broadway,,Tyler,TX,75703,USA,9037473434,32.2675262,-95.3071435,,,,
Plaza Pointe,9365401,4841 W 135th St,,Leawood,KS,66224-8901,USA,9138976544,38.8838648,-94.6420807,"M, T, W, Th: 11:00 to 9:00<br/>F, Sa: 11:00 to 10:00<br/>Su: 12:00 to 9:00",,,
Factory Stores at Vacaville,9293504,321 Nut Tree Rd Ste 2,,Vacaville,CA,95687-3242,USA,7074484718,38.3657673,-121.957365,"Mo, Tu, We, Th, Fr, Sa: 10am to 9pm. Su: 10am to 7pm",,,
Stockton Subway,9405601,3201 W Benjamin Holt Dr  18,,Stockton,CA,95219-3741,USA,2099528873,38.0062349,-121.3551526,"Mo, Tu, We, Th, Fr: 7am to 10pm. Sa, Su: 8am to 9pm",,,
Stockton Subway,9437101,5308 Pacific Avenue,,Stockton,CA,95207,USA,2099512524,37.9989377,-121.3137241,,,,
Weberstown Mall,9385202,4950 Pacific Ave,,Stockton,CA,95207-6307,USA,2094743466,37.9933909,-121.3120424,,,,
Folsom Premium Outlets,9147232,13000 Folsom Blvd 210,,Folsom,CA,95630-8002,USA,9163511448,38.6426808,-121.1895064,"Mo, Tu, We, Th, Fr, Sa: 10am to 8pm. Su: 10am to 6pm",,,
Folsom Premium Outlets,9293506,13000 Folsom Blvd Ste 808,,Folsom,CA,95630-8008,USA,9163511438,38.6426808,-121.1895064,"Mo, Tu, We, Th, Fr, Sa: 10am to 8pm. Su: 10am to 7pm",,,
Galleria at Roseville,9293502,1151 Galleria Blvd Spc 276,,Roseville,CA,95678-1945,USA,9168785418,38.7734419,-121.2692846,"Mo, Tu, We, Th, Fr, Sa: 10am to 9pm. Su: 11am to 7pm",,,
G St. Gas Station,9436802,2104 G Street,,Merced,CA,95340,USA,2093498805,37.302831,-120.473064,,,,
Dream Works,9152252,1000 Flower St,,Glendale,CA,91201-3007,USA,8186951112,34.1629905,-118.2935891,,,,
Northridge Mall,9430501,9301 Tampa Ave,,Northridge,CA,91324-2503,USA,2319216292,34.2391367,-118.5536313,,,,
Santa Monica College,9152115,1900 Pico Blvd,,Santa Monica,CA,90405,USA,3104344654,34.0180525,-118.4718165,,,,
Exeter,9431801,112 South E Street,,Exeter,CA,93221,USA,5595924455,36.2960458,-119.1407395,"Mo, Tu, We, Th, Su: 11am to 9pm. Fr, Sa: 11am to 10pm",,,
Eugene,9435801,3001 W 11th Avenue,,Eugene,OR,97402,USA,5413455955,44.0483201,-123.1371581,"Mo, Tu, We, Th, Fr, Sa: 11am to 9pm. Su: 12pm to 9pm",,,
Sunnyside Road,9411801,10117 SE Sunnyside Rd Ste D,,Clackamas,OR,97015-7708,USA,5036540399,45.4340827,-122.5607163,,,,
Silverstone Plaza,9228604,1630 S Eagle Rd Ste 100,,Meridian,ID,83642-2445,USA,2088981482,43.5898729,-116.353925,"Mo, Tu, We, Th, Fr, Sa: 11am to 9:30pm. Su: 12pm to 9pm",,,
Fred Meyer Plaza,9343701,1800 N Locust Grove Rd Ste A,,Meridian,ID,83646-7842,USA,2088848366,43.6215781,-116.3739787,"Mo, Tu, We, Th, Fr, Sa: 11am to 10pm. Su: 12pm to 10pm",,,
HighPointe Park,9431701,9645 Washington St Ste 140,,Thornton,CO,80229-2173,USA,7208726459,39.8718221,-104.9782794,"Mo, Tu, We, Th, Su: 11am to 10pm. Fr, Sa: 11am to 10:30pm",,,
Denver Int'l Airport/Conc B,9028809,P.O. Box 492025,,Denver,CO,80249,USA,3033426971,39.8786639,-104.6821048,"Mo, Tu, We, Th, Fr, Sa, Su: 5am to 10pm",,,
Denver Int'l Airport/Conc C,9028810,P.O. Box 492025,,Denver,CO,80249,USA,3033426972,39.8786639,-104.6821048,"Mo, Tu, We, Th, Fr, Sa: 4:30am to 10pm. Su: 4:30am to 9pm",,,
Country Club Village,9438701,2831 W. 120th Avenue,,Westminster,CO,80234,USA,7208878087,39.9148696,-105.0217724,,,,
Black Diamond Marketplace,9425907,11169 E I25 Frontage Rd Ste B,,Firestone,CO,80504-5276,USA,3039905767,40.1628608,-104.9773803,"M, T, W, Th, Su: Noon to 9pm<br/>F, Sa: Noon to 10pm",,,
Clover Basin in Longmont,9425908,2345 Clover Basin Drive,,Longmont,CO,805037603,USA,7203787877,40.1431738,-105.1313368,"M, T, W, Th, Su: Noon to 9pm<br/>F, Sa: Noon to 10pm",,,
Market Place Austin Bluffs,9421701,3670 Austin Bluffs Parkway,,Colorado Springs,CO,80918,USA,7192658229,38.8911708,-104.759272,"M, T, W, Th: 11:00 to 9:00<br/>F, Sa: 11:00 to 10:00<br/>Su: 12:00 to 8:00",,,
Center Place,9426001,4530 Center Place Dr Ste 336,,Greeley,CO,80634-3710,USA,9706738193,40.3941183,-104.7516384,"Mo, Tu, We, Th, Fr, Sa, Su: 11am to 9pm",,,
Troutman Parkway,9425901,100 W Troutman Pkwy,,Fort Collins,CO,80525-3037,USA,9702234851,40.529017,-105.0775045,"Mo, Tu, We, Su: 11am to 9pm. Fr, Sa: 11am to 10pm",,,
Frontier Mall,9404502,1400 Dell Range Blvd Spc 40,,Cheyenne,WY,82009-4849,USA,3076375547,41.161994,-104.807352,"Mo, Tu, We, Th, Fr, Sa: 10am to 9pm. Su: 11am to 6pm",,,
McCook Subway,9263801,216 Westview Plaza,,McCook,NE,69001-4414,USA,3083452322,40.2021386,-100.6462224,,,,
Craig Subway,9261901,1420 W Victory Way,,Craig,CO,81625-3412,USA,9708242900,40.5141391,-107.5635232,"Mo, Tu, We, Th, Fr, Sa, Su: 7am to 10pm",,,
Sugarhouse,9435401,2274 South 1300 East,,Salt Lake City,UT,84106,USA,8017087005,40.7215046,-111.8568715,"Mo, Tu, We, Th, Fr, Sa, Su: 11am to 11pm",,,
Lander Exxon,9300101,8116 State Highway 789,,Lander,WY,82520-2953,USA,3073324402,42.8325863,-108.7222113,,,,
Jericho Turnpike,9132101,1955 Jericho Tpke,,East Northport,NY,11731-6216,USA,6314991007,40.8388872,-73.3307802,"Mo, Tu, We, Th, Su: 11am to 10pm. Fr, Sa: 11am to 11pm",,,
Wintonbury Mall,9424003,836 Park Ave,,Bloomfield,CT,06002-2033,USA,8602637360,41.830374,-72.7353049,"Mo, Tu, We, Th, Su: 12pm to 9pm. Fr, Sa: 12pm to 9:30pm",,,
Route 6 Plaza,9427401,1775 East Main Street,,Mohegan Lake,NY,10547,USA,9142459796,41.3234842,-73.8518191,,,,
Washington Avenue Plaza,9059015,10 Washington Ave,,Plainview,NY,11803-4045,USA,5169428229,40.7878718,-73.4633521,"Mo, Tu, We, Th, Su: 11am to 10pm. Fr, Sa: 11am to 11pm",,,
Garden City,9326601,158 7th St,,Garden City,NY,11530-5725,USA,5167415132,40.7250563,-73.6351392,,,,
Stewart Manor,9431301,100 Covert Ave,,Stewart Manor,NY,11530,USA,5162161944,40.7206052,-73.6885503,"Mo, Tu, We, Th: 12pm to 9:30pm. Fr, Sa, Su: 12pm to 10pm",,,
Phillips Plaza,9395201,653 Sunrise Hwy,,Lynbrook,NY,11563-3246,USA,5165961994,40.6556993,-73.6769378,"Mo, Tu, We, Th, Su: 11am to 10pm. Fr, Sa: 11am to 11pm",,,
Poppy's Bagels,9391701,204 W Englewood Ave,,Teaneck,NJ,07666-3512,USA,2018620800,40.9013096,-74.0067943,,,,
Paramus Park Mall,9423901,700 Paramus Park Ste 1540,,Paramus,NJ,07652-3557,USA,2012039278,40.9574346,-74.0691253,"Mo, Tu, We, Th, Fr, Sa: 10am to 9:30pm",,,
Morton Plaza,9050405,1090 Morton Blvd,,Kingston,NY,12401-1504,USA,8453368146,41.9614865,-73.9929868,,,,
Nutley,9124402,226 Franklin Ave,,Nutley,NJ,07110-4701,USA,9732359229,40.815367,-74.161967,,,,
Hudson TCBY,9440301,424 FAIRVIEW AVENUE,,HUDSON,NY,12534,USA,5189292402,42.2782149,-73.755725,"Mo, We, Th, Sa: 11am to 9pm. Su: 12pm to 8pm",,,
Denville Subway,9304501,559 East Main St  53,,Denville,NJ,07834-2482,USA,9735866767,40.8736564,-74.4813689,,,,
Woodbridge Mall,9423903,250 Woodbridge Center Drive,,Woodbridge,NJ,07095,USA,7326345800,40.5523479,-74.2985645,"Mo, Tu, We, Th, Fr, Sa: 10am to 9:30pm. Su: 11am to 7pm",,,
Shoppes at Lake Mohawk,9426101,243 Sparta Ave,,Sparta,NJ,07871-1102,USA,9737264140,41.0350248,-74.661252,"Mo, Tu, We, Th, Su: 11am to 9pm. Fr, Sa: 11am to 10pm",,,
East Greenbush,9426704,307 Toy Road,,East Greenbush,NY,12144,USA,5182838229,42.6451304,-73.6987046,"Mo, Tu, We, Th, Su: 12pm to 9pm. Fr, Sa: 12pm to 9:30pm",,,
Bedford,9430101,5 Kilton Rd Unit 1,,Bedford,NH,33110,USA,6037828733,42.9569713,-71.4789585,"Mo, Th, Fr, Sa, Su: 12am to 9pm. Tu: 12pm to 9pm",,,
Guilderland,9426701,1512 Western Ave,,Albany,NY,12203-0511,USA,5184568229,42.6831265,-73.8425496,"Mo, Tu, We, Th, Su: 11am to 10pm. Fr, Sa: 11am to 10:30pm",,,
Newton Plaza,9426702,594 New Loudon Rd,,Latham,NY,12110,USA,5187838229,42.7279237,-73.7612913,"Mo, Tu, We, Th, Su: 11am to 10pm. Fr, Sa: 11am to 10:30pm",,,
Shop Rite Square,9426703,2321 Nott St E,,Niskayuna,NY,12309,USA,5183938229,42.8154627,-73.8914227,"Mo, Tu, We, Th, Su: 12pm to 9pm. Fr, Sa: 12pm to 9:30pm",,,
Christiana Mall,9383002,1531 Christiana Mall,,Newark,DE,19702,USA,3026789797,39.678266,-75.649932,,,,
Crispin Square,9408001,230 N Maple Ave A-4,,Marlton,NJ,08053-9411,USA,8569838229,39.9153,-74.9268,"M, T, W, Th, F, Sa, Su: 11:30 to 9:00",,,
Timonium TCBY,9103701,2080 York Rd Ste 125,,Timonium,MD,21093-4258,USA,4102529554,39.4405641,-76.6263593,"Mo, Tu, We, Th, Fr, Sa: 11am to 10pm. Su: 11:30am to 9:30pm",,,
Belvedere Square,9437901,544 East Belvedere Avenue 11,,Baltimore,MA,21212,USA,4103234351,39.3642153,-76.6083634,,,,
Tanger Bayside Outlets,9427903,35016 Midway Outlet Drive,,Rehoboth Beach,DE,19971,USA,3026458229,38.7338239,-75.1400572,,,,
Tanger Outlet Center,9427902,1600 Ocean Outlets,,Rehoboth Beach,DE,19971,USA,3022267801,38.718263,-75.1128899,,,,
Rehoboth Beach,9427901,160 Rehoboth Ave,,Rehoboth Beach,DE,19971-2136,USA,3022267801,38.7159338,-75.081095,"M, T, W, Th, F, Sa, Su: 11 to 11",,,
Snowden River,9420901,9400 Snowden River Pkwy,,Columbia,MD,21045-5297,USA,4109956140,39.1769331,-76.8371041,"Mo, Tu, We, Th: 12pm to 10pm. Fr, Sa: 12pm to 10:30pm. Su: 12pm to 9:30pm",,,
127th Street Ocean City,9398602,12701 Coastal Hwy Ste 10,,Ocean City,MD,21842-6055,USA,4102505909,38.433233,-75.055661,,,,
56th Street Ocean City,9398604,5601 Coastal Highway,,Ocean City,MD,21842,USA,4105240253,38.380609,-75.068339,"Mo, Tu, We, Th, Fr, Sa, Su: 1pm to 10pm",,,
Salisbury,9431101,306 Dogwood Dr,,Salisbury,MD,21801-7122,USA,4107427900,38.3413874,-75.6069854,"Mo, Tu, We, Th, Fr, Sa, Su: 11am to 10pm",,,
33rd Street Ocean City,9398605,3310 Coastal Hwy,,Ocean City,MD,21842,USA,4104309270,38.361863,-75.0726732,,,,
Ocean Landing-Salem,9439601,11436 Samuel Bowen Boulevard,,Berlin,MD,21842,USA,4106410500,38.3358442,-75.0853092,,,,
Susquehanna Valley Mall,9437301,1 Susquehanna Valley Mall Dr,,Selinsgrove,PA,17870,USA,5703746400,40.826038,-76.848839,,,,
Shops at One Plantation,9433801,1447 S University Drive,,Plantation,FL,33324,USA,7862813896,26.1019721,-80.2500689,,,,
Shops at Pembroke Gardens,9424101,14543 SW 5th St,,Pembroke Pines,FL,33027-1453,USA,9544325900,26.0043427,-80.3360752,"Mo, Tu, We, Th: 12pm to 10pm. Fr: 12pm to 11:30pm. Sa: 11:30am to 11:30pm. Su: 11:30am to 10pm",,,
Miami Subway TCBY,9434801,2720 B S Dixie Hwy,,Miami,FL,33133,USA,3059687298,25.739011,-80.2395219,,,,
Falls Mall,9428601,8888 SW 136th Street,,Miami,FL,33176,USA,3053222342,25.6442732,-80.3392293,"Mo, Tu, We: 10am to 9pm. Th, Fr, Sa: 10am to 10pm. Su: 12pm to 9pm",,,
SHOPS AT COCONUT POINT-ESTERO,9440401,8076 Mediterranean Drive,,Estero,FL,33928,USA,2399928229,26.4041315,-81.8087229,"Mo, Tu, We, Th, Su: 11am to 10pm. Fr, Sa: 11am to 11pm",,,
Orlando Premium Outlet Mall,9304601,8200 Vineland Ave Ste 1238,,Orlando,FL,32821-6828,USA,4072389775,28.386629,-81.4941065,"Mo, Tu, We, Th, Fr, Sa: 10am to 11pm. Su: 10am to 9pm",,,
Mitchell Ranch Plaza,9424401,3140 Little Road,,Trinity,FL,34655-1864,USA,7273751177,28.2041264,-82.6661069,"Mo, Tu, We, Th, Su: 12pm to 9pm. Fr, Sa: 12pm to 10pm",,,
Paradise Plaza,9109309,3800 S Tamiami Trail 100,,Sarasota,FL,34239-6907,USA,9419533241,27.2998777,-82.5321865,"Mo, Tu, We, Th: 10:30am to 10pm. Fr, Sa: 10:30am to 11pm. Su: 10:30am to 10am",,,
St. Vincents Hospital,9425104,7936 Pine Lake Road,,Jacksonville,FL,32256,USA,9042734135,30.307202,-81.689871,"Mo, Tu, We, Th: 9am to 11pm. Sa, Su: 10am to 9pm",,,
Valdosta Mall,9357701,1700 Norman Dr Spc 1054,,Valdosta,GA,31601-7407,USA,2292930093,30.8436408,-83.3208622,"Mo, Tu, We, Th, Fr, Sa: 10am to 9pm. Su: 1pm to 6pm",,,
Hahira TCBY and Mrs Fields,9440102,1300 GA Highway 122,,Hahira,GA,31632,USA,2298961470,30.9926131,-83.389306,,,,
Yemassee Subway - Loneco Exprs,9187301,5 Lane St,,Yemassee,SC,29945-2251,USA,8435894010,32.6901781,-80.8506626,"Mo, Tu, We, Th, Fr, Sa, Su: 10am to 10pm",,,
Laneco Express 111,9187302,698 Kings Hwy,,Yemassee,SC,29945-8330,USA,8437264954,32.6901781,-80.8506626,"Mo, Tu, We, Th, Fr, Sa, Su: 10am to 10pm",,,
The Corner at Westcott,9439414,9514 Dorchester Road,,North Charleston,SC,29485,USA,8438719955,32.9418548,-80.1509915,,,,
James Island Merchants Village,9439419,520 Folly Road,,Charleston,SC,29412,USA,8437934555,32.7536739,-79.971167,,,,
Gateway Village,9439413,1390 Tiger Boulevard,,Clemson,SC,29631,USA,8646543030,34.6866953,-82.8176395,,,,
Bryson City Subway,9253301,15 Highway 19 S,,Bryson City,NC,28713-9501,USA,8284881227,35.4260128,-83.4483054,,,,
Sutton Place,9047104,7 Brendan Way Ste A,,Greenville,SC,29615-3514,USA,8647873942,34.8552705,-82.3289536,"Mo, Tu, We, Th: 7am to 9pm. Fr: 7am to 10pm. Sa: 9am to 10pm. Su: 10am to 10pm",,,
Dingle Creek Crossing,9242101,1800 Hendersonville Rd,,Asheville,NC,28803-3213,USA,8282741100,35.505975,-82.5242619,"M, T, W, Th, Su: 11 AM to 9:00<br/>F, Sa: 11 AM to 9:30",,,
Lexington Village,9411401,205-A Columbia Ave,,Lexington,SC,29072-2662,USA,8039577444,33.988155,-81.244998,"Mo, Tu, We, Th, Su: 12pm to 9pm. Fr, Sa: 12pm to 10pm",,,
Weaverville Subway,9242102,105 Weaver Blvd,,Weaverville,NC,28787,USA,8286450234,35.7054456,-82.5661704,,,,
Knoxville BP,9178902,7406 Strawberry Plains Pike,,Knoxville,TN,37924-4309,USA,8659332251,36.0051,-83.772297,,,,
Powell BP,9178906,404 E Emory Rd,,Powell,TN,37849-3517,USA,8659470338,36.048995,-83.998428,,,,
Morristown,9016020,2330 Sandstone Drive,,Morristown,TN,37814,USA,4235876212,36.0352945,-83.4016705,,,,
South Windermere-Dickerson,9439409,2 Windermere Boulevard,,Charleston,SC,29407,USA,8437698222,32.7770886,-79.9741031,,,,
North Charleston Outlets,9439420,5060 International Boulevard,,North Charleston,SC,29418,USA,8437409099,32.8674109,-80.0168538,,,,
Azalea Square,9437401,214 Azalea Square Blvd,,Summerville,SC,29483,USA,8438211591,33.0373946,-80.160869,,,,
Mount Pleasant Square,9439421,1440 Ben Sawyer Boulevard,,Mount Pleasant,SC,29464,USA,8438843001,32.7929478,-79.8533164,,,,
Belle Hall,9439418,644 Long Point Road,,Mount Pleasant,SC,29464,USA,8436549040,32.8403892,-79.8553915,,,,
Mt Pleasant Towne Center,9439406,1332 Theater Drive,,Mt Pleasant,SC,29464,USA,8438848224,32.8299869,-79.828931,"Mo, Tu, We, Th, Su: 11am to 10pm. Fr, Sa: 11am to 11pm",,,
Greeneville,9016016,1370 Tusculum Blvd,,Greeneville,TN,37745-4108,USA,4236387674,36.172894,-82.794684,"Mo, Tu, We, Th, Fr, Sa: 11am to 10pm. Su: 12pm to 10pm",,,
Honolulu Subway,9412701,1249 Wilder Ave,,Honolulu,HI,96822-3100,USA,8085316355,21.3054505,-157.8382909,,,,
Mountain Home Moxie Java,9228601,390 American Legion Blvd,,Mountain Home,ID,83647-2703,USA,2085879048,43.1339386,-115.6930195,"Mo, Tu, We, Th, Su: 11am to 9pm. Fr, Sa: 11am to 10pm",,,
Issaquah,9430001,2520 NE Park Drive,,Issaquah,WA,98029,USA,4253944168,47.5479509,-121.9969148,"Mo, Tu, We, Th: 11am to 9pm. Fr, Sa: 11am to 10pm. Su: 12pm to 9pm",,,
Frontier Village,9431901,4717 68th Dr. NE,,Marysville,WA,98270,USA,2064232427,48.0040222,-122.1049711,"Mo, Tu, We, Th, Su: 12am to 9pm. Fr, Sa: 12am to 10pm",,,
Everett Mall Plaza,9435301,1405 SE Everett Mall Way,,Everett,WA,98208,USA,4255138229,47.912439,-122.214557,"Mo, Tu, We, Th, Su: 12pm to 9pm. Fr, Sa: 12pm to 10pm",,,
North City Plaza Subway,9437001,18002 15th Avenue Northeast,,Shoreline,WA,98155,USA,2063060933,47.7595213,-122.313198,,,,
Southcenter Mall,9428001,2800 Southcenter Mall,,Seattle,WA,98188-2875,USA,2067081096,47.4592301,-122.2576926,"Mo, Tu, We, Th, Fr, Sa: 10am to 9pm. Su: 11am to 7pm",,,
Elmhurst-Sheets,9434204,158 N York St,,Elmhurst,IL,60126-2806,USA,6308328300,41.901859,-87.9402297,,,,
O'Hare Int'l Airport,9150124,Circular Bldg 6,,Chicago,IL,60666,USA,3126866124,41.9849481,-87.9089623,,,,
The PRIDE of Wheaton,9439905,24W420 Geneva Road,,Wheaton,IL,60189,USA,6304621300,41.8880117,-88.1118399,,,,
Oakbrook Center,9428101,100 Oakbrook Center Ste 30,,Oak Brook,IL,60523-1838,USA,6303681002,41.850267,-87.9516585,"M, T, W, Th, F, Sa: 10.00am to 9.30pm<br/>Su: 11.00am to 7.00pm",,,
The PRIDE of Hinsdale,9439903,149 E Ogden Avenue,,Hinsdale,IL,60521,USA,6304555841,41.8167288,-87.9262521,,,,
Hinsdale Lake Commons,9427201,6300 Kingery Highway Spc 4,,Willowbrook,IL,60527,USA,6309208229,41.7722437,-87.9491058,,,,
North Riverside Park Mall,9428102,7501 W Cermak Rd,,North Riverside,IL,60546-1436,USA,7084475938,41.8472084,-87.8107493,M: 10.00 am to 9.00 pm<br/>T: 10.00 am  to 9.00 pm,,,
East Gate Shopping Center,9434101,3835 East Main Street,,St. Charles,IL,60174,USA,2032148746,41.9210992,-88.2647088,"Mo, Tu, We, Th, Su: 11am to 10pm. Fr, Sa: 11am to 11pm",,,
The PRIDE of Geneva,9439902,1166 E State Street,,Geneva,IL,60134,USA,6308459300,41.887098,-88.283623,,,,
The PRIDE of Elgin,9439904,1700 N State Road Rte 31,,Elgin,IL,60123,USA,8477415784,42.0671098,-88.291559,,,,
The PRIDE of Aurora,9439901,1395 Butterfield Road,,Aurora,IL,60502,USA,6308515585,41.8123756,-88.2804791,,,,
Chicago Premium Outlets,9394201,1650 Premium Outlets Blvd,,Aurora,IL,60502-2911,USA,6308989909,41.800017,-88.2747973,,,,
Oswego,9433401,2840 Route 34,,Oswego,IL,60543,USA,6305546443,41.699155,-88.3170041,"Mo, Tu, We, Th, Su: 12pm to 10pm. Fr, Sa: 12pm to 11pm",,,
Naperville Crossings,9423802,2940 Showplace Drive,,Naperville,IL,60564,USA,6309618229,41.7111073,-88.2074234,"Fr, Sa: 11am to 10pm",,,
Hawthorne Square,9437701,1807 South Washington Street,,Naperville,IL,60565,USA,6304535280,41.735736,-88.129852,"Tu, We, Th: 2:30pm to 9pm. Fr, Sa: 12pm to 9:30pm. Su: 12pm to 9pm",,,
Shorewood Crossings,9423801,930 Brook Forest Ave,,Shorewood,IL,60404,USA,8155778229,41.5372937,-88.19932,"Mo, Tu, We, Th, Su: 11pm to 9pm. Fr, Sa: 11pm to 10pm",,,
Westfield Old Orchard,9381303,4999 Old Orchard Ctr,,Skokie,IL,60077-1450,USA,8476770123,42.061758,-87.7477105,"Mo, Tu, We, Th, Fr, Sa: 10am to 9pm. Su: 11am to 6pm",,,
Oaklawn Sheets,9434203,6760 West 95th Street,,Oaklawn,IL,60453,USA,2197188108,41.71996,-87.7890812,,,,
TCBY Lemont,9434701,1243 State Street,,Lemont,IL,60439,USA,6302078674,41.6545936,-87.99806,"M, T, W, Th: 11.00am to 9.30pm<br/>F, Sa: 11.00am to 10.00pm<br/>Su: 11.00am to 9.00pm",,,
Coopers Square,9432302,14658 S. LaGrange Road,,Orland Park,IL,60462,USA,7084038606,41.6229537,-87.8537509,"Mo, Tu, We, Th, Su: 11am to 9pm. Fr, Sa: 11am to 10pm",,,
New Lenox,9433301,2356 E Lincoln Hwy,,New Lenox,IL,60451,USA,8156878229,41.5094,-87.9213643,"Mo, Tu, We, Th: 1pm to 9pm. Fr, Sa, Su: 12pm to 9pm",,,
Northwoods Mall,9421401,4501 War Memorial Drive,,Peoria,IL,61613-0100,USA,3096824901,40.7241202,-89.5599901,"Mo, Tu, We, Th, Fr, Sa: 10am to 9pm. Su: 11am to 6pm",,,
Old Farm,9428201,1731 W Kirby Avenue,,Champaign,IL,61821,USA,2176075090,40.0982286,-88.2741589,"M, T, W, Th, Su: 11:00 a.m. to 10:00 p.m.<br/>F: 11:00 a.m. to 11:00 PM<br/>Sa: 11:00 a.m. to 11:00 p.m.",,,
Franklin Township,9432001,5650 S Franklin Road,,Indianapolis,IN,46239-8621,USA,3174491533,39.9592,-86.1268205,"Mo, We, Th, Fr, Sa, Su: 12pm to 9pm",,,
Southlake Mall-IN-Sheets,9434202,2109 Southlake Mall,,Merrillville,IN,46410,USA,2197185333,41.4703086,-87.3069809,,,,
Southlake Mall,9434201,2109 Southlake Mall,,Merrillville,IN,46410,USA,2197188108,41.4703086,-87.3069809,,,,
Quincy,9025804,1735 State St,,Quincy,IL,62301-5053,USA,2172282292,39.926515,-91.387482,"Mo, Tu, We, Th, Su: 11am to 10:30pm. Fr, Sa: 11am to 11pm",,,
Southridge Mall TCBY,9435701,5300 S 76th St 735,,Greendale,WI,53129,USA,4144218849,42.9489856,-88.0078198,,,,
Georgetown Square,9261701,6422 E State Blvd,,Fort Wayne,IN,46815-7025,USA,2604932795,41.1019607,-85.0579772,"Sa, Su: 11am to 9pm",,,
Ann Arbor,9433901,3354 Washtenaw Ave,,Ann Arbor,MI,48104,USA,7343693366,42.255409,-83.693311,"Mo, Tu, We, Th, Su: 11am to 10pm. Fr, Sa: 11am to 11pm",,,
South Lyon,9439101,22729 Pointiac Trail,,South Lyon,MI,48178-1601,USA,2482786630,42.4485747,-83.6510008,,,,
Southland Mall,9438302,23000 Eureka Road,,Taylor,MI,48180,USA,7343749111,42.200604,-83.254713,,,,
Dearborn Subway,9332501,5929 Schaefer Rd,,Dearborn,MI,48126-2254,USA,3135811977,42.332579,-83.1766281,"Mo, Tu, We, Th, Fr: 9am to 12am. Sa, Su: 10am to 12pm",,,
Scott Way TCBY,9440801,42 Scott Way,,Hurricane,WV,25526,USA,3047578220,38.4378603,-82.011844,,,,
Grundy Town Center,9437601,1179 Riverview Street,,Grundy,VA,24614,USA,2762441174,37.2786332,-82.1020132,,,,
K-Mart Shopping Center,9029801,3468 Henry St,,Muskegon,MI,49441-4356,USA,2317332110,43.1896329,-86.2634539,"Mo, Tu, Th: 11am to 9pm. We: 11am to 9:30pm. Fr, Sa: 11am to 10pm. Su: 12pm to 9pm",,,
Burnsville Center,9432601,1042 Burnsville Center,,Burnsville,MN,55306,USA,9529562642,44.7458913,-93.2901169,,,,
Outlets of Albertville,9425801,6415 Labeaux Ave NE Ste C800,,Albertville,MN,55301-9813,USA,7634977077,45.2464709,-93.6718762,,,,
Kirksville Bellacino's Pizza,9347802,516 N Baltimore St Ste C,,Kirksville,MO,63501-3285,USA,6606657665,40.1984311,-92.5719918,"Mo, Tu, We, Th, Su: 10:30am to 10:30pm. Fr, Sa: 10:30am to 11pm",,,
Crossroads Mall - Subway,9194302,411 N Highway 77,,Dell Rapids,SD,57022-1543,USA,6054286075,43.824702,-96.721806,,,,
Council Bluffs Subway,9299901,208 E Broadway,,Council Bluffs,IA,51503-4407,USA,7123224114,41.2645208,-95.8424962,,,,
Omaha - West Maple,9426601,14615 W Maple Rd Ste 113,,Omaha,NE,68116-4392,USA,4024963981,41.29134,-96.142233,"Mo, Tu, We, Th, Fr, Sa: 11am to 10pm. Su: 12pm to 10pm",,,
Prairie Village Shoppes,9202001,6966 Mission Rd,,Prairie Village,KS,66208-2609,USA,9136718180,39.0020351,-94.6298842,"Mo, Tu, We, Th: 11am to 9:30pm. Fr, Sa: 11am to 10pm. Su: 12pm to 9pm",,,
Ralston,9429901,5170 S. 72nd Street,,Ralston,NE,68127,USA,4029348844,41.2057568,-96.0243706,"Mo, Tu, We, Th: 11am to 9pm. Fr, Sa: 11am to 10pm. Su: 12pm to 9pm",,,
Lincoln,9262801,6450 O St,,Lincoln,NE,68510-2369,USA,4024647766,40.8134722,-96.6353829,"Mo, Tu, We, Th, Fr, Sa: 11am to 10pm. Su: 12pm to 10pm",,,
Galleria Retail,9382801,425 U.S. Hwy 30 Ste 221,,Dyer,IN,46311,USA,2198652240,41.3092524,-97.6780789,,,,
Crown Point Shopping Center,9324504,1229 North Eastman Rd 205,,Kingsport,TN,37664-3145,USA,4232462266,36.5316771,-82.5290506,"Mo, Tu, We, Th, Fr, Sa: 11am to 10pm. Su: 12pm to 10pm",,,
Pinnacle Parkway - Bajwa Azam,9439301,,,Bristol,TN,37620,USA,2762585293,36.5951059,-82.1887444,,,,
Cockerham Food Mart BP,9206901,1115 E Stuart Dr 9,,Galax,VA,24333-2513,USA,2762363036,36.6909849,-80.8808131,,,,
Hillsville Pizza Inn,9206902,49 Farmers Market Dr,,Hillsville,VA,24343-3649,USA,2767282799,36.7348555,-80.7674081,,,,
Jefferson Highway,9388402,7631 Jefferson Hwy,,Baton Rouge,LA,70809-1102,USA,2259232400,30.430428,-91.1079971,"Mo, Tu, We, Th, Fr, Sa, Su: 12pm to 9pm",,,
Park Dell Terrace,9432701,394 Sam Houston Jones Pkwy,,Moss Bluff,LA,70611,USA,3374778290,30.3006059,-93.2016355,"Mo, Tu, We, Th: 11am to 9pm. Fr, Sa: 11am to 10pm. Su: 1pm to 9pm",,,
Geismar Exxon,9195201,13475 Highway 73,,Geismar,LA,70734-3061,USA,2256738406,30.267733,-90.987993,"Mo, Tu, We, Th, Fr, Sa, Su: 11am to 9pm",,,
Zachary,9407601,4461 Main Street,,Zachary,LA,70791-3756,USA,2256545620,30.6485484,-91.1568037,"Mo, Tu, We, Th, Fr, Sa: 11am to 9pm. Su: 12pm to 9pm",,,
Old Metairie Village,9237202,701 Metairie Rd 23101,,Metairie,LA,70005-4050,USA,5048352983,29.9881619,-90.1310351,"Mo, Tu, We, Th, Fr: 11am to 10pm. Sa, Su: 12pm to 10pm",,,
Flowers Center,9421302,70488 Highway 21 Ste 206,,Covington,LA,70433-8134,USA,9856264770,30.4592439,-90.1237167,"Mo, Tu, We, Th, Fr, Sa: 11am to 10pm. Su: 12pm to 10pm",,,
McComb Chevron,9247801,1812 Delaware Ave,,McComb,MS,39648-3614,USA,6012500360,31.247953,-90.477472,,,,
Friendswood Corner,9099101,104-B S Friendswood Dr,,Friendswood,TX,77546-3951,USA,7139226890,29.53292,-95.205895,,,,
Green Tee Center,9426901,9639 Scarsdale Blvd,,Houston,TX,77089,USA,2817419024,29.5708195,-95.2282951,"Mo, Tu, We, Th, Su: 12pm to 10pm. Fr, Sa: 12pm to 11pm",,,
San Felipe,9281302,5884 San Felipe St,,Houston,TX,77057-3066,USA,7132781252,29.7499892,-95.4857192,"Mo, Tu, We, Th, Fr, Sa: 11am to 10pm",,,
Memorial City Mall 1,9433202,303 Memorial City Mall,,Houston,TX,77024,USA,8323583447,29.7805506,-95.5404019,,,,
Panther Creek Shopping Center,9434901,4775 W Panther Creek Dr,,The Woodlands,TX,77381,USA,2814198053,30.1669735,-95.5020281,"Mo, Tu, We, Fr: 11am to 9pm. Sa: 11am to 9:30pm. Su: 12pm to 8:30pm",,,
Magnolia,9425001,6311 FM 1488,,Magnolia,TX,77354,USA,2812593344,30.222378,-95.5630017,"Mo, Tu, We, Th: 11am to 9pm. Fr, Sa: 11am to 10pm. Su: 12pm to 9pm",,,
Wylie TCBY,9439801,100 North Ballard,,Wylie,TX,75098,USA,9724425488,33.0142137,-96.538669,"Mo, Tu, We, Th, Fr, Sa: 11am to 9pm. Su: 1pm to 8pm",,,
Charleroi Subway,9244801,407 McKean Avee,,Charleroi,PA,15022-1527,USA,7244839495,40.1375457,-79.8968742,"Mo, Tu, We, Th, Fr: 7am to 11pm. Sa: 8am to 10pm. Su: 9am to 10pm",,,
Cranberry Township,9425301,1667 Route 228 Ste 300,,Cranberry Twp,PA,16066-5326,USA,7245918985,40.6859714,-80.0771744,"Mo, Tu, We, Th, Su: 11am to 10pm. Fr, Sa: 11am to 11pm",,,
Sterling Walmart,9357803,45415 Dulles Crossing Plz,,Sterling,VA,20166-8921,USA,7034441203,39.023161,-77.4280028,,,,
Somerset Plaza,9433101,2848 W Maple Rd,,Troy,MI,48084,USA,2486436620,42.5475187,-83.183431,"Mo, Tu, We, Th: 11am to 9pm. Fr, Sa: 11am to 10pm. Su: 12pm to 9pm",,,
Grosse Pointe,9133802,17045 Kercheval Ave,,Grosse Pointe,MI,48230-1562,USA,3138850384,42.3904139,-82.9161811,"Mo, Tu, We, Th, Fr, Sa: 11am to 10pm. Su: 12pm to 10pm",,,
North Hill,9393801,1421 N Rochester Rd,,Rochester Hills,MI,48307-1121,USA,2486502161,42.6922591,-83.1342522,,,,
Grosse Pointe,9133801,20385 Mack Ave,,Grosse Pointe Wood,MI,48236-1610,USA,3138815608,42.43872,-82.9082014,"Mo, Tu, We, Th, Fr, Sa: 11am to 10pm. Su: 12pm to 10pm",,,
Ralph Engelstad Arena,9238208,1 Ralph Engelstad Arena Dr,,Grand Forks,ND,58203-2205,USA,7017758387,47.9252568,-97.0328547,,,,
Jamestown - I-94 Clark,9284901,808 20th St SW,,Jamestown,ND,58401-6131,USA,7012523363,46.8882471,-98.7197287,"Mo, Tu, We, Th, Fr, Sa, Su: 12am to 11:59pm",,,
Bismarck Red Carpet Car Wash,9250301,2921 N 11th St,,Bismarck,ND,58503-0514,USA,7012230609,46.838617,-100.77487,"Mo, Tu, We, Th, Fr, Sa, Su: 6:30am to 9pm",,,
Midland,9303201,5115 W Wadley Ave Ste A,,Midland,TX,79707-5190,USA,4325208597,32.0124459,-102.1542645,"Mo, Tu, We, Th: 11am to 10pm. Fr, Sa: 11am to 10:30pm. Su: 12pm to 10pm",,,
Destiny Mall,9423003,9090 Destiny Mall,,Syracuse,NY,13290,USA,3154235566,43.0703744,-76.1740266,"Mo, Tu, We, Th: 10am to 9:30pm. Fr, Sa: 10am to 9:45pm. Su: 11am to 6:15pm",,,
Finger Lake Mall Subway,9209102,2000 Clark Street Rd,,Auburn,NY,13021-9698,USA,3152588830,42.9335189,-76.617116,"Mo, Tu, We, Th, Fr: 7am to 9pm. Sa, Su: 9am to 9pm",,,
Waterloo Premium Outlets,9423002,665 Route 318 Space A025B,,Waterloo,NY,13165,USA,3155392700,42.9047884,-76.8627367,,,,
Victor Crossing,9430302,405 Commerce Drive,,Victor,NY,14564,USA,9739018899,43.0182171,-77.4387619,"Mo, Tu, We, Th, Fr, Sa, Su: 11am to 10pm",,,
Mckinley Parkway,9430301,3860 Mckinley Parkway,,Blasdell,NY,14219,USA,7168221100,42.7793166,-78.8123781,"Mo, Tu, We, Th, Su: 12pm to 9pm. Fr, Sa: 11am to 10pm",,,
Tanger Outlets Mebane,9431602,4000 Arrowhead Blvd,,Mebane,NC,27302,USA,9195631656,36.0735226,-79.2685525,"Mo, Tu, We, Th, Fr, Sa: 9am to 9pm. Su: 10am to 7pm",,,
Carolina Mall,9432201,1480 Concord Pkwy,,Concord,NC,28025,USA,2406254695,35.4408208,-80.6032426,"Mo, Tu, We, Th, Sa: 10am to 9pm",,,
Village Commons at Wesley Chap,9422204,6312 Weddington-Monroe Road,,Wesley Chapel,NC,28104,USA,7048430260,35.0002647,-80.6972068,"Mo, Tu, We, Th: 11am to 10pm. Fr, Sa: 11am to 11pm. Su: 12pm to 10pm",,,
Westridge Square,9428401,3343 Battleground,,Greensboro,NC,27410,USA,3362865020,36.12194,-79.8444189,"Mo, Tu, We, Th, Su: 12pm to 10pm. Fr, Sa: 12pm to 11pm",,,
Plantation Market,9422207,3116 Weddington Road,,Matthews,NC,28105,USA,7048470444,35.082584,-80.732596,"Mo, Tu, We, Th: 11am to 10pm. Fr, Sa: 11am to 11pm. Su: 12pm to 10pm",,,
Town Center Plaza,9422209,8550 University City Blvd,,Charlotte,NC,28213,USA,7045471234,35.2960179,-80.738867,"Mo, Tu, We, Th, Fr: 12pm to 11pm. Sa: 12pm to 12pm. Su: 12pm to 10pm",,,
Waxhaw,9422222,8133 Kensington Drive,,Waxhaw,NC,28173,USA,7048435349,34.954127,-80.759349,,,,
Arboretum,9422223,8128 Providence Road 900,,Charlotte,NC,28277,USA,7045411606,35.0960065,-80.7801381,,,,
Oliver's Crossing,9429201,5038 Peters Creek Parkway,,Winston Salem,NC,27127,USA,3367846101,36.002652,-80.263526,"Mo, Tu, We, Th, Su: 12pm to 9pm. Fr, Sa: 12pm to 10pm",,,
Colony Place,9422201,7731 Colony Rd Ste 1,,Charlotte,NC,28226-7679,USA,7043412000,35.1065248,-80.8072964,"Mo, Tu, We, Th, Fr: 11am to 10pm. Sa, Su: 11am to 11pm",,,
Blakeney Town Center,9422202,9864 Rea Road,,Charlotte,NC,28277,USA,7043412002,35.036188,-80.8076417,"Mo, Tu, We, Th, Fr, Sa: 11am to 11pm. Su: 11am to 10pm",,,
Selwyn Corners in Myers Park,9422205,2823 Selwyn Avenue Suite J,,Charlotte,NC,28209-3722,USA,7045227223,35.1743807,-80.8394847,"Mo, Tu, We, Th, Fr, Sa, Su: 11am to 10pm",,,
Piedmond Town Center,9422218,4620 Piedmont Row South,,Charlotte,NC,28210,USA,7045547003,35.152852,-80.840464,,,,
Ballantyne,9422213,14835 Ballantyne Village Way,,Charlotte,NC,28277-4309,USA,7045410230,35.0527518,-80.8514933,"Mo, Tu, We, Th, Fr, Sa: 11am to 11pm. Su: 12pm to 11pm",,,
Quail Corners,9422208,8502 Park Road,,Charlotte,NC,28210-5803,USA,7045565955,35.1172974,-80.8574101,"Mo, Tu, We, Th, Su: 12pm to 9pm. Fr, Sa: 12pm to 11pm",,,
Carolina Place Mall,9428501,11025 Carolina Place Parkway,,Pineville,NC,28134,USA,7045471234,35.0822,-80.8772242,"Mo, Tu, We, Th, Fr: 10am to 9pm. Su: 12pm to 6pm",,,
Rosedale Commons,9422221,9334 Rose Commons Drive,,Huntersville,NC,28078,USA,7049479700,35.4074193,-80.8678477,"Mo, Tu, We, Th: 11am to 10pm. Fr, Sa: 11am to 11pm. Su: 12pm to 10pm",,,
Birkdale Village,9422203,16916-A Birkdale Commons Pkwy,,Huntersville,NC,28078-1819,USA,7049872262,35.4456919,-80.8788441,"Mo, Tu, We, Th, Fr, Sa: 11am to 11pm",,,
Davidson Commons,9422216,610 Jetton Street,,Davidson,NC,28036-9318,USA,6109371792,35.501122,-80.860873,"Mo, Tu, We, Th, Fr: 11am to 10pm. Sa: 11am to 11pm. Su: 12pm to 10pm",,,
Shoppes at Morrison Plantation,9425201,111D Marketplace Ave,,Mooresville,NC,28117,USA,7046609995,35.5864384,-80.8748148,"Mo, Tu, We, Th, Fr: 11am to 8pm. Sa, Su: 11am to 3pm",,,
Edgewood Drive Subway,9279301,1408 Edgewood Dr,,Mount Airy,NC,27030-5216,USA,3367890800,36.474808,-80.619229,"Mo, Tu, We, Th, Fr: 7am to 10pm. Sa: 8am to 10pm. Su: 9am to 10pm",,,
Pine Street Subway,9279302,701 W Pine St Ste 100,,Mount Airy,NC,27030-4575,USA,3367890900,36.498681,-80.620842,,,,
Charlotte Douglas Airport,9150164,5501 Josh Birmingham Pkwy,,Charlotte,NC,28219,USA,7043594469,35.208999,-80.9394541,,,,
Oleander Place,9422212,3804 Oleander Drive,,Wilmington,NC,28403,USA,9107945663,34.213575,-77.90127,"Mo, Tu, We, Th, Fr, Sa, Su: 11am to 11pm",,,
Kings Highway,9400601,1802 N Kings Hwy,,Myrtle Beach,SC,29577-3152,USA,8434488229,33.7002639,-78.8736769,"Mo, Tu, We, Th, Fr, Sa, Su: 11:30am to 11pm",,,
Tightsqueeze Plaza Subway,9257301,13701 US Highway 29,,Chatham,VA,24531-3611,USA,4344321544,36.7923162,-79.3946157,"Mo, Tu, We, Th, Fr, Sa: 7am to 10pm. Su: 8am to 10pm",,,
Baxter Village,9422217,940 Market Street,,Fort Mill,SC,29708,USA,8035486019,35.0284881,-80.9673065,"Mo, Tu, We, Th, Fr: 11am to 10pm. Sa: 11am to 11pm. Su: 12pm to 10pm",,,
Rivergate Parkway,9422228,14318 Rivergate Pkwy,,Charlotte,NC,28273,USA,7045836199,35.1021238,-80.9838459,,,,
Thrift Shopping-Dickerson,9439411,208 Morganton Boulervard,,Lenoir,NC,28645,USA,8287549685,35.9132091,-81.5285062,,,,
Forest Brook Subway,9270801,3284 S Union Rd,,Gastonia,NC,28056-7050,USA,7048532493,35.2085609,-81.1650872,"Mo, Tu, We, Th, Fr, Sa, Su: 12pm to 9pm",,,
Sumter Texaco,9297002,2000 W Liberty St,,Sumter,SC,29153-9226,USA,8039340708,33.9235879,-80.3193344,,,,
Eleanor's Square,9436401,230 N Denton Tap Rd,,Coppell,TX,75019,USA,9723935800,32.9737622,-96.9931206,,,,
Lakewood Dallas,9174404,6402 E Mockingbird Lane,,Dallas,TX,75214-7011,USA,2148215757,32.836123,-96.7525573,"Mo, Tu, We, Th, Fr, Sa: 11am to 11pm. Su: 12pm to 11pm",,,
Parkwood Shopping Center,9437501,5800 North Tarrant Parkway,,Ft. Worth,TX,76248,USA,8175818229,32.8941062,-97.2620524,"Mo, Tu, We, Th: 11am to 10pm. Fr, Sa: 11am to 11pm. Su: 12pm to 10pm",,,
Lincoln Village,9436601,6328 Camp Bowie,,Ft. Worth,TX,76116,USA,8175700367,32.727531,-97.4197817,"Mo, Tu, We, Th, Fr, Sa, Su: 12pm to 9pm",,,
City Centre - Seattle,9424301,1420 5th Ave,,Seattle,WA,98101,USA,2064207787,47.6103159,-122.3344311,"Mo, Tu, We, Th, Fr: 9am to 7pm. Sa: 10am to 7pm",,,
Stone Oak,9426501,3701 Expressway 83,,McAllen,TX,78503,USA,9566303109,26.1939461,-98.2642157,"Mo, Tu, We, Th, Fr, Sa, Su: 11am to 10pm",,,
Kingsville Subway,9236802,620 N Armstrong Ste B,,Kingsville,TX,78363-4268,USA,3615926200,27.5217335,-97.8777883,,,,
Alamo Heights,9433001,5920 Broadway,,San Antonio,TX,78209,USA,2108248229,29.4809852,-98.4647673,"Mo, Tu, We, Th, Fr, Sa: 11am to 9pm. Su: 12pm to 9pm",,,
TCBY Dripping Springs,9427502,1025 Cannon Drive 103,,Dripping Springs,TX,78620,USA,5128942136,30.1950916,-98.0755841,,,,
Parkside Village,9427501,5701 Slaughter Lane,,Austin,TX,78749,USA,8306930313,30.2005716,-97.8690631,"Mo, Tu, We, Th: 11am to 10pm. Fr, Sa: 11am to 11pm. Su: 12pm to 10pm",,,
Schlotzsky's Sunset Valley,9435502,5601 Brodie Lane,,Sunset Valley,TX,78745,USA,5128923119,30.22848,-97.8196068,,,,
Martin Luther King Boulevard,9307601,303 W Martin Luther King Jr Bl,,Austin,TX,78701-1218,USA,5123208229,30.281213,-97.740795,"Mo, Tu, We, Th, Fr: 11am to 11pm. Sa, Su: 12pm to 11pm",,,
Schlotzsky's Maconda,9435505,13201 FM 620,,Austin,TX,78717,USA,5122572112,30.4685467,-97.7948829,,,,
Schlotzsky's Parmer,9435501,500 Canyon Ridge Drive,,Austin,TX,78753,USA,5128738700,30.40537,-97.6717375,,,,
Schlotzsky's Round Rock,9435504,2700-B Parker Drive,,Round Rock,TX,78681,USA,5126716101,30.4830081,-97.6812388,,,,
Royal Oaks Centre,9428301,11700 Westheimer Ste F,,Houston,TX,77077,USA,8323315191,29.7371953,-95.5845775,"Mo, Tu, We, Th, Su: 11am to 10pm. Fr, Sa: 11am to 11pm",,,
The Plazas at Spring Green,9439501,27110 Cinco Ranch Boulevard,,Katy,TX,77494,USA,2813949390,29.7159336,-95.8133263,"M,T,W,Th,F,Sa,Su: closed",,,
