store_name,store_number,address,address2,city,state,zip_code,country,phone_number,latitude,longitude,store_hours,store_type,other_fields,coming_soon
zumiez Riverchase Galleria,1247,"2000 Riverchase Galleria, Ste 234",,Hoover,AL,35244,United States,205-560-0656,,,"Tue:04-25 : 10:00AM9:00PM, Wed:04-26 : 10:00AM9:00PM, Thu:04-27 : 10:00AM9:00PM, Fri:04-28 : 10:00AM9:00PM, Sat:04-29 : 10:00AM9:00PM, Sun:04-30 : 12:00PM6:00PM, Mon:05-01 : 10:00AM9:00PM",,,
zumiez Park Plaza Mall,1294,"6000 W. Markham St, Ste 3166",,Little Rock,AR,72205,United States,501-664-6934,,,"Tue:04-25 : 10:00AM9:00PM, Wed:04-26 : 10:00AM9:00PM, Thu:04-27 : 10:00AM9:00PM, Fri:04-28 : 10:00AM9:00PM, Sat:04-29 : 10:00AM9:00PM, Sun:04-30 : 12:00PM6:00PM, Mon:05-01 : 10:00AM9:00PM",,,
zumiez Foothills Mall Outlet,962,7401 N La Cholla Blvd 188,,Tucson,AZ,85741,United States,520-297-5012,,,"Tue:04-25 : 10:00AM9:00PM, Wed:04-26 : 10:00AM9:00PM, Thu:04-27 : 10:00AM9:00PM, Fri:04-28 : 10:00AM9:00PM, Sat:04-29 : 10:00AM9:00PM, Sun:04-30 : 11:00AM6:00PM, Mon:05-01 : 10:00AM9:00PM",,,
zumiez Superstition Springs,863,"6555 E Southern Ave, Ste H18",,Mesa,AZ,85206,United States,480-924-6772,,,"Tue:04-25 : 10:00AM9:00PM, Wed:04-26 : 10:00AM9:00PM, Thu:04-27 : 10:00AM9:00PM, Fri:04-28 : 10:00AM9:00PM, Sat:04-29 : 10:00AM9:00PM, Sun:04-30 : 11:00AM6:00PM, Mon:05-01 : 10:00AM9:00PM",,,
zumiez Yuma Palms Rgnl. Ctr.,853,1313 S Yuma Palms Pkwy,,Yuma,AZ,85365,United States,928-539-9401,,,"Tue:04-25 : 10:00AM9:00PM, Wed:04-26 : 10:00AM9:00PM, Thu:04-27 : 10:00AM9:00PM, Fri:04-28 : 10:00AM9:00PM, Sat:04-29 : 10:00AM9:00PM, Sun:04-30 : 11:00AM6:00PM, Mon:05-01 : 10:00AM9:00PM",,,
zumiez SanTan Village,977,2200 E Williams Field Rd. Spc 114,,Gilbert,AZ,85296,United States,480-917-0815,,,"Tue:04-25 : 10:00AM9:00PM, Wed:04-26 : 10:00AM9:00PM, Thu:04-27 : 10:00AM9:00PM, Fri:04-28 : 10:00AM9:00PM, Sat:04-29 : 10:00AM9:00PM, Sun:04-30 : 11:00AM6:00PM, Mon:05-01 : 10:00AM9:00PM",,,
zumiez Arizona Mills,845,5000 Arizona Mills Circle Ste 616,,Tempe,AZ,85282,United States,480-491-7707,,,"Tue:04-25 : 10:00AM9:30PM, Wed:04-26 : 10:00AM9:30PM, Thu:04-27 : 10:00AM9:30PM, Fri:04-28 : 10:00AM9:30PM, Sat:04-29 : 10:00AM9:30PM, Sun:04-30 : 11:00AM7:00PM, Mon:05-01 : 10:00AM9:30PM",,,
zumiez Arrowhead Towne Center,837,7700 W Arrowhead Twn.Ctr.Ste 2115,,Glendale,AZ,85308,United States,623-776-7037,,,"Tue:04-25 : 10:00AM9:00PM, Wed:04-26 : 10:00AM9:00PM, Thu:04-27 : 10:00AM9:00PM, Fri:04-28 : 10:00AM9:00PM, Sat:04-29 : 10:00AM9:00PM, Sun:04-30 : 11:00AM6:00PM, Mon:05-01 : 10:00AM9:00PM",,,
zumiez Park Place Mall,838,"5870 E Broadway Blvd, Ste 320",,Tucson,AZ,85711,United States,520-514-1643,,,"Tue:04-25 : 10:00AM9:00PM, Wed:04-26 : 10:00AM9:00PM, Thu:04-27 : 10:00AM9:00PM, Fri:04-28 : 10:00AM9:00PM, Sat:04-29 : 10:00AM9:00PM, Sun:04-30 : 12:00PM6:00PM, Mon:05-01 : 10:00AM9:00PM",,,
zumiez Mall at Turtle Creek,1355,"3000 E Highland Drive, Ste 315",,Jonesboro,AR,72401,United States,870-268-1580,,,"Tue:04-25 : 10:00AM9:00PM, Wed:04-26 : 10:00AM9:00PM, Thu:04-27 : 10:00AM9:00PM, Fri:04-28 : 10:00AM9:00PM, Sat:04-29 : 10:00AM9:00PM, Sun:04-30 : 12:30PM6:00PM, Mon:05-01 : 10:00AM9:00PM",,,
zumiez Scottsdale Fashion Square,1208,"7014 Camelback Rd., Ste 2101",,Scottsdale,AZ,85251,United States,480-970-9088,,,"Tue:04-25 : 10:00AM9:00PM, Wed:04-26 : 10:00AM9:00PM, Thu:04-27 : 10:00AM9:00PM, Fri:04-28 : 10:00AM9:00PM, Sat:04-29 : 10:00AM9:00PM, Sun:04-30 : 11:00AM6:00PM, Mon:05-01 : 10:00AM9:00PM",,,
zumiez Fiesta Mall,828,"1445 W Southern Ave, Ste 2212",,Mesa,AZ,85202,United States,480-464-0030,,,"Tue:04-25 : 10:00AM9:00PM, Wed:04-26 : 10:00AM9:00PM, Thu:04-27 : 10:00AM9:00PM, Fri:04-28 : 10:00AM9:00PM, Sat:04-29 : 10:00AM9:00PM, Sun:04-30 : 11:00AM6:00PM, Mon:05-01 : 10:00AM9:00PM",,,
zumiez McCain Mall,1287,3929 McCain Blvd. Ste K06F,,North Little Rock,AR,72116,United States,501-812-0139,,,"Tue:04-25 : 10:00AM9:00PM, Wed:04-26 : 10:00AM9:00PM, Thu:04-27 : 10:00AM9:00PM, Fri:04-28 : 10:00AM9:00PM, Sat:04-29 : 10:00AM9:00PM, Sun:04-30 : 12:30PM6:00PM, Mon:05-01 : 10:00AM9:00PM",,,
zumiez Paradise Valley Mall,834,"4568 Cactus Rd, Ste G014",,Phoenix,AZ,85032,United States,602-493-1079,,,"Tue:04-25 : 10:00AM9:00PM, Wed:04-26 : 10:00AM9:00PM, Thu:04-27 : 10:00AM9:00PM, Fri:04-28 : 10:00AM9:00PM, Sat:04-29 : 10:00AM9:00PM, Sun:04-30 : 11:00AM6:00PM, Mon:05-01 : 10:00AM9:00PM",,,
zumiez Westgate Tanger Outlets,1373,6800 N 95th Ave Ste 350,,Glendale,AZ,85305,United States,623-772-9821,,,"Tue:04-25 : 9:00AM9:00PM, Wed:04-26 : 9:00AM9:00PM, Thu:04-27 : 9:00AM9:00PM, Fri:04-28 : 9:00AM9:00PM, Sat:04-29 : 9:00AM9:00PM, Sun:04-30 : 10:00AM7:00PM, Mon:05-01 : 9:00AM9:00PM",,,
zumiez Mayfair Mall,1134,"2500 N Mayfair Rd., Ste 603",,Wauwatosa,WI,53226,United States,414-771-5140,,,"Tue:04-25 : 10:00AM9:00PM, Wed:04-26 : 10:00AM9:00PM, Thu:04-27 : 10:00AM9:00PM, Fri:04-28 : 10:00AM9:00PM, Sat:04-29 : 10:00AM9:00PM, Sun:04-30 : 11:00AM6:00PM, Mon:05-01 : 10:00AM9:00PM",,,
zumiez Wausau Center,1201,C-336 Wausau Center,,Wausau,WI,54403,United States,715-848-8674,,,"Tue:04-25 : 10:00AM9:00PM, Wed:04-26 : 10:00AM9:00PM, Thu:04-27 : 10:00AM9:00PM, Fri:04-28 : 10:00AM9:00PM, Sat:04-29 : 10:00AM9:00PM, Sun:04-30 : 11:00AM6:00PM, Mon:05-01 : 10:00AM9:00PM",,,
zumiez Bay Park Square,1119,"303 Bay Park Square, Ste165",,Ashwaubenon,WI,54304,United States,920-405-0213,,,"Tue:04-25 : 10:00AM9:00PM, Wed:04-26 : 10:00AM9:00PM, Thu:04-27 : 10:00AM9:00PM, Fri:04-28 : 10:00AM9:00PM, Sat:04-29 : 10:00AM9:00PM, Sun:04-30 : 11:00AM6:00PM, Mon:05-01 : 10:00AM9:00PM",,,
zumiez Frontier Mall,966,1400 Dell Range Rd.Ste 75,,Cheyenne,WY,82009,United States,307-634-5640,,,"Tue:04-25 : 10:00AM9:00PM, Wed:04-26 : 10:00AM9:00PM, Thu:04-27 : 10:00AM9:00PM, Fri:04-28 : 10:00AM9:00PM, Sat:04-29 : 10:00AM9:00PM, Sun:04-30 : 11:00AM6:00PM, Mon:05-01 : 10:00AM9:00PM",,,
zumiez Janesville Mall,1069,"2500 Milton Ave, Ste114",,Janesville,WI,53545,United States,608-756-4216,,,"Tue:04-25 : 10:00AM9:00PM, Wed:04-26 : 10:00AM9:00PM, Thu:04-27 : 10:00AM9:00PM, Fri:04-28 : 10:00AM9:00PM, Sat:04-29 : 10:00AM9:00PM, Sun:04-30 : 11:00AM6:00PM, Mon:05-01 : 10:00AM9:00PM",,,
zumiez Eastridge Mall,843,601 SE Wyoming Blvd.1272,,Casper,WY,82609,United States,307-472-3011,,,"Tue:04-25 : 10:00AM9:00PM, Wed:04-26 : 10:00AM9:00PM, Thu:04-27 : 10:00AM9:00PM, Fri:04-28 : 10:00AM9:00PM, Sat:04-29 : 10:00AM9:00PM, Sun:04-30 : 11:00AM6:00PM, Mon:05-01 : 10:00AM9:00PM",,,
zumiez East Towne Mall,903,"6 East Towne Mall, Ste B504",,Madison,WI,53704,United States,608-249-2369,,,"Tue:04-25 : 10:00AM9:00PM, Wed:04-26 : 10:00AM9:00PM, Thu:04-27 : 10:00AM9:00PM, Fri:04-28 : 10:00AM9:00PM, Sat:04-29 : 10:00AM9:00PM, Sun:04-30 : 11:00AM6:00PM, Mon:05-01 : 10:00AM9:00PM",,,
zumiez Johnson Creek Outlet,908,"595 W Linmar Ln, Ste B120",,Johnson Creek,WI,53038,United States,920-699-2473,,,"Tue:04-25 : 10:00AM8:00PM, Wed:04-26 : 10:00AM8:00PM, Thu:04-27 : 10:00AM8:00PM, Fri:04-28 : 10:00AM8:00PM, Sat:04-29 : 10:00AM8:00PM, Sun:04-30 : 10:00AM7:00PM, Mon:05-01 : 10:00AM8:00PM",,,
zumiez Southridge Mall,1086,5300 S 76th St.,,Greendale,WI,53129,United States,414-421-4970,,,"Tue:04-25 : 10:00AM9:00PM, Wed:04-26 : 10:00AM9:00PM, Thu:04-27 : 10:00AM9:00PM, Fri:04-28 : 10:00AM9:00PM, Sat:04-29 : 10:00AM9:00PM, Sun:04-30 : 11:00AM6:00PM, Mon:05-01 : 10:00AM9:00PM",,,
zumiez West Towne Mall,1114,"66 West Towne Mall, Ste C44",,Madison,WI,53719,United States,608-836-9722,,,"Tue:04-25 : 10:00AM9:00PM, Wed:04-26 : 10:00AM9:00PM, Thu:04-27 : 10:00AM9:00PM, Fri:04-28 : 10:00AM9:00PM, Sat:04-29 : 10:00AM9:00PM, Sun:04-30 : 11:00AM6:00PM, Mon:05-01 : 10:00AM9:00PM",,,
zumiez Brookfield Square,1051,95 N Mooreland Rd. Ste A80,,Brookfield,WI,53005,United States,262-797-8864,,,"Tue:04-25 : 10:00AM9:00PM, Wed:04-26 : 10:00AM9:00PM, Thu:04-27 : 10:00AM9:00PM, Fri:04-28 : 10:00AM9:00PM, Sat:04-29 : 10:00AM9:00PM, Sun:04-30 : 11:00AM6:00PM, Mon:05-01 : 10:00AM9:00PM",,,
zumiez Fox River Mall,901,"4301 W Wisconsin Ave, Suite 324",,Appleton,WI,54913,United States,920-734-5076,,,"Tue:04-25 : 10:00AM9:00PM, Wed:04-26 : 10:00AM9:00PM, Thu:04-27 : 10:00AM9:00PM, Fri:04-28 : 10:00AM9:00PM, Sat:04-29 : 9:30AM9:00PM, Sun:04-30 : 10:00AM6:00PM, Mon:05-01 : 10:00AM9:00PM",,,
zumiez Valley View Mall,772,"3800 State Rd.16, Ste 179",,La Crosse,WI,54601,United States,608-779-5751,,,"Tue:04-25 : 10:00AM9:00PM, Wed:04-26 : 10:00AM9:00PM, Thu:04-27 : 10:00AM9:00PM, Fri:04-28 : 10:00AM9:00PM, Sat:04-29 : 10:00AM9:00PM, Sun:04-30 : 11:00AM6:00PM, Mon:05-01 : 10:00AM9:00PM",,,
zumiez Pleasant Prairie Outlets,914,"11601 108th, Spc 516",,Pleasant Prairie,WI,53158,United States,262-857-2156,,,"Tue:04-25 : 10:00AM9:00PM, Wed:04-26 : 10:00AM9:00PM, Thu:04-27 : 10:00AM9:00PM, Fri:04-28 : 10:00AM9:00PM, Sat:04-29 : 10:00AM9:00PM, Sun:04-30 : 10:00AM7:00PM, Mon:05-01 : 10:00AM9:00PM",,,
zumiez Bayshore Town Center,747,"5745 N Bayshore Dr., Spc.102",,Glendale,WI,53217,United States,414-963-8715,,,"Tue:04-25 : 10:00AM9:00PM, Wed:04-26 : 10:00AM9:00PM, Thu:04-27 : 10:00AM9:00PM, Fri:04-28 : 10:00AM9:00PM, Sat:04-29 : 10:00AM9:00PM, Sun:04-30 : 11:00AM6:00PM, Mon:05-01 : 10:00AM9:00PM",,,
zumiez The Gateway,1150,17705 140th Ave NE Ste A-18,,Woodinville,WA,98072,United States,425-398-1405,,,"Tue:04-25 : 10:00AM9:00PM, Wed:04-26 : 10:00AM9:00PM, Thu:04-27 : 10:00AM9:00PM, Fri:04-28 : 10:00AM9:00PM, Sat:04-29 : 10:00AM9:00PM, Sun:04-30 : 10:00AM7:00PM, Mon:05-01 : 10:00AM9:00PM",,,
zumiez Oakwood Mall,808,"4800 Golf Rd, Ste 92",,Eau Claire,WI,54701,United States,715-831-0577,,,"Tue:04-25 : 10:00AM9:00PM, Wed:04-26 : 10:00AM9:00PM, Thu:04-27 : 10:00AM9:00PM, Fri:04-28 : 10:00AM9:00PM, Sat:04-29 : 10:00AM9:00PM, Sun:04-30 : 11:00AM6:00PM, Mon:05-01 : 10:00AM9:00PM",,,
zumiez Grand Ridge Plaza,1269,"1624 Highlands Drive NE, Ste120",,Issaquah,WA,98029,United States,425-392-0370,,,"Tue:04-25 : 10:00AM9:00PM, Wed:04-26 : 10:00AM9:00PM, Thu:04-27 : 10:00AM9:00PM, Fri:04-28 : 10:00AM9:00PM, Sat:04-29 : 10:00AM9:00PM, Sun:04-30 : 11:00AM7:00PM, Mon:05-01 : 10:00AM9:00PM",,,
zumiez Charleston Town Center,1257,3000 Charleston Town Center,,Charleston,WV,25389,United States,304-340-2669,,,"Tue:04-25 : 10:00AM9:00PM, Wed:04-26 : 10:00AM9:00PM, Thu:04-27 : 10:00AM9:00PM, Fri:04-28 : 10:00AM9:00PM, Sat:04-29 : 10:00AM9:00PM, Sun:04-30 : 12:30PM6:00PM, Mon:05-01 : 10:00AM9:00PM",,,
zumiez The Outlet Collection,963,1101 Outlet Collection Way Ste 471,,Auburn,WA,98001,United States,253-931-1916,,,"Tue:04-25 : 10:00AM9:00PM, Wed:04-26 : 10:00AM9:00PM, Thu:04-27 : 10:00AM9:00PM, Fri:04-28 : 10:00AM9:00PM, Sat:04-29 : 10:00AM9:00PM, Sun:04-30 : 11:00AM6:00PM, Mon:05-01 : 10:00AM9:00PM",,,
zumiez Seattle Premium Outlets,865,10600 Quil Ceda Blvd.Ste 658,,Tulalip,WA,98271,United States,360-716-2381,,,"Tue:04-25 : 10:00AM9:00PM, Wed:04-26 : 10:00AM9:00PM, Thu:04-27 : 10:00AM9:00PM, Fri:04-28 : 10:00AM9:00PM, Sat:04-29 : 10:00AM9:00PM, Sun:04-30 : 10:00AM7:00PM, Mon:05-01 : 10:00AM9:00PM",,,
zumiez Redmond Town Center,762,7425 166th Ave NE Ste C225,,Redmond,WA,98052,United States,425-881-0369,,,"Tue:04-25 : 10:00AM8:00PM, Wed:04-26 : 10:00AM8:00PM, Thu:04-27 : 10:00AM8:00PM, Fri:04-28 : 10:00AM8:00PM, Sat:04-29 : 10:00AM8:00PM, Sun:04-30 : 11:00AM7:00PM, Mon:05-01 : 10:00AM8:00PM",,,
zumiez Huntington Mall,1253,"500 Mall Rd.,Ste 550",,Barboursville,WV,25504,United States,304-736-6570,,,"Tue:04-25 : 10:00AM9:00PM, Wed:04-26 : 10:00AM9:00PM, Thu:04-27 : 10:00AM9:00PM, Fri:04-28 : 10:00AM9:00PM, Sat:04-29 : 10:00AM9:00PM, Sun:04-30 : 11:00AM6:00PM, Mon:05-01 : 10:00AM9:00PM",,,
zumiez Wenatchee Valley Mall,742,511 Valley Mall Pkwy,,East Wenatchee,WA,98802,United States,509-884-4536,,,"Tue:04-25 : 10:00AM9:00PM, Wed:04-26 : 10:00AM9:00PM, Thu:04-27 : 10:00AM9:00PM, Fri:04-28 : 10:00AM9:00PM, Sat:04-29 : 10:00AM9:00PM, Sun:04-30 : 11:00AM6:00PM, Mon:05-01 : 10:00AM9:00PM",,,
zumiez South Hill Mall,746,"3500 S. Meridian, Ste 340",,Puyallup,WA,98373,United States,253-841-5675,,,"Tue:04-25 : 10:00AM9:00PM, Wed:04-26 : 10:00AM9:00PM, Thu:04-27 : 10:00AM9:00PM, Fri:04-28 : 10:00AM9:00PM, Sat:04-29 : 10:00AM9:00PM, Sun:04-30 : 10:00AM6:00PM, Mon:05-01 : 10:00AM9:00PM",,,
zumiez North Bend Prem.Outlets,1044,461 South Fork Ave Ste D,,North Bend,WA,98045,United States,425-888-0839,,,"Tue:04-25 : 10:00AM9:00PM, Wed:04-26 : 10:00AM9:00PM, Thu:04-27 : 10:00AM9:00PM, Fri:04-28 : 10:00AM9:00PM, Sat:04-29 : 10:00AM9:00PM, Sun:04-30 : 10:00AM7:00PM, Mon:05-01 : 10:00AM9:00PM",,,
zumiez Westfield Southcenter,741,1008 Southcenter Mall,,Tukwila,WA,98188,United States,206-241-9170,,,"Tue:04-25 : 10:00AM9:00PM, Wed:04-26 : 10:00AM9:00PM, Thu:04-27 : 10:00AM9:00PM, Fri:04-28 : 10:00AM9:00PM, Sat:04-29 : 10:00AM9:00PM, Sun:04-30 : 10:00AM7:00PM, Mon:05-01 : 10:00AM9:00PM",,,
zumiez Spokane Valley Mall,760,14700 East Indiana Ave 2140,,Spokane,WA,99216,United States,509-927-2787,,,"Tue:04-25 : 10:00AM9:00PM, Wed:04-26 : 10:00AM9:00PM, Thu:04-27 : 10:00AM9:00PM, Fri:04-28 : 10:00AM9:00PM, Sat:04-29 : 10:00AM9:00PM, Sun:04-30 : 11:00AM6:00PM, Mon:05-01 : 10:00AM9:00PM",,,
zumiez Westfield Capital Mall,740,"625 Black Lake Blvd SW, K-11",,Olympia,WA,98502,United States,360-943-8477,,,"Tue:04-25 : 10:00AM9:00PM, Wed:04-26 : 10:00AM9:00PM, Thu:04-27 : 10:00AM9:00PM, Fri:04-28 : 10:00AM9:00PM, Sat:04-29 : 10:00AM9:00PM, Sun:04-30 : 11:00AM6:00PM, Mon:05-01 : 10:00AM9:00PM",,,
zumiez Kent Station,886,"417 Ramsay Way, Ste 103",,Kent,WA,98032,United States,253-859-9660,,,"Tue:04-25 : 10:00AM9:00PM, Wed:04-26 : 10:00AM9:00PM, Thu:04-27 : 10:00AM9:00PM, Fri:04-28 : 10:00AM9:00PM, Sat:04-29 : 10:00AM9:00PM, Sun:04-30 : 11:00AM6:00PM, Mon:05-01 : 10:00AM9:00PM",,,
zumiez Westfield Vancouver,743,8700 NE Vancouver Mall Dr,,Vancouver,WA,98662,United States,360-253-6796,,,"Tue:04-25 : 10:30AM8:30PM, Wed:04-26 : 10:30AM8:30PM, Thu:04-27 : 10:30AM8:30PM, Fri:04-28 : 10:30AM8:30PM, Sat:04-29 : 10:30AM8:30PM, Sun:04-30 : 11:00AM6:00PM, Mon:05-01 : 10:30AM8:30PM",,,
zumiez Commons at Federal Way,736,S 1940 Seatac Mall,,Federal Way,WA,98003,United States,253-946-3347,,,"Tue:04-25 : 10:00AM9:00PM, Wed:04-26 : 10:00AM9:00PM, Thu:04-27 : 10:00AM9:00PM, Fri:04-28 : 10:00AM9:00PM, Sat:04-29 : 10:00AM9:00PM, Sun:04-30 : 11:00AM6:00PM, Mon:05-01 : 10:00AM9:00PM",,,
zumiez Columbia Center Mall,734,"1321 N Columbia Ctr Blvd, 622",,Kennewick,WA,99336,United States,509-783-0854,,,"Tue:04-25 : 10:00AM9:00PM, Wed:04-26 : 10:00AM9:00PM, Thu:04-27 : 10:00AM9:00PM, Fri:04-28 : 10:00AM9:00PM, Sat:04-29 : 10:00AM9:00PM, Sun:04-30 : 11:00AM7:00PM, Mon:05-01 : 10:00AM9:00PM",,,
zumiez Valley Mall,737,"2529 Main St ,Ste 144",,Union Gap,WA,98903,United States,509-575-6868,,,"Tue:04-25 : 10:00AM9:00PM, Wed:04-26 : 10:00AM9:00PM, Thu:04-27 : 10:00AM9:00PM, Fri:04-28 : 10:00AM9:00PM, Sat:04-29 : 10:00AM9:00PM, Sun:04-30 : 11:00AM6:00PM, Mon:05-01 : 10:00AM9:00PM",,,
zumiez Cascade Mall,735,330 Cascade Mall,,Burlington,WA,98233,United States,360-757-1173,,,"Tue:04-25 : 10:00AM9:00PM, Wed:04-26 : 10:00AM9:00PM, Thu:04-27 : 10:00AM9:00PM, Fri:04-28 : 10:00AM9:00PM, Sat:04-29 : 10:00AM9:00PM, Sun:04-30 : 11:00AM6:00PM, Mon:05-01 : 10:00AM9:00PM",,,
zumiez NorthTown Mall,739,N 4750 Division St. Ste156,,Spokane,WA,99207,United States,509-484-1128,,,"Tue:04-25 : 10:00AM9:00PM, Wed:04-26 : 10:00AM9:00PM, Thu:04-27 : 10:00AM9:00PM, Fri:04-28 : 10:00AM9:00PM, Sat:04-29 : 10:00AM9:00PM, Sun:04-30 : 11:00AM6:00PM, Mon:05-01 : 10:00AM9:00PM",,,
zumiez Kitsap Mall,730,"10315 Silverdale Way, B13",,Silverdale,WA,98383,United States,360-692-4262,,,"Tue:04-25 : 10:00AM9:00PM, Wed:04-26 : 10:00AM9:00PM, Thu:04-27 : 10:00AM9:00PM, Fri:04-28 : 10:00AM9:00PM, Sat:04-29 : 10:00AM9:00PM, Sun:04-30 : 11:00AM6:00PM, Mon:05-01 : 10:00AM9:00PM",,,
zumiez Bellevue Square,727,244 Bellevue Square,,Bellevue,WA,98004,United States,425-451-0236,,,"Tue:04-25 : 9:30AM9:30PM, Wed:04-26 : 9:30AM9:30PM, Thu:04-27 : 9:30AM9:30PM, Fri:04-28 : 9:30AM9:30PM, Sat:04-29 : 9:30AM9:30PM, Sun:04-30 : 11:00AM7:00PM, Mon:05-01 : 9:30AM9:30PM",,,
zumiez Bellis Fair Mall,733,"1 Bellis Fair Pkwy, 402",,Bellingham,WA,98226,United States,360-671-2562,,,"Tue:04-25 : 10:00AM9:00PM, Wed:04-26 : 10:00AM9:00PM, Thu:04-27 : 10:00AM9:00PM, Fri:04-28 : 10:00AM9:00PM, Sat:04-29 : 10:00AM9:00PM, Sun:04-30 : 11:00AM6:00PM, Mon:05-01 : 10:00AM9:00PM",,,
zumiez Tacoma Mall,725,4502 S Steele St Ste 420,,Tacoma,WA,98409,United States,253-473-0902,,,"Tue:04-25 : 10:00AM9:00PM, Wed:04-26 : 10:00AM9:00PM, Thu:04-27 : 10:00AM9:00PM, Fri:04-28 : 10:00AM9:00PM, Sat:04-29 : 10:00AM9:00PM, Sun:04-30 : 11:00AM7:00PM, Mon:05-01 : 10:00AM9:00PM",,,
zumiez Northgate Mall,723,401 NE Northgate Way,,Seattle,WA,98125,United States,206-364-8989,,,"Tue:04-25 : 10:00AM9:00PM, Wed:04-26 : 10:00AM9:00PM, Thu:04-27 : 10:00AM9:00PM, Fri:04-28 : 10:00AM9:00PM, Sat:04-29 : 10:00AM9:00PM, Sun:04-30 : 11:00AM7:00PM, Mon:05-01 : 10:00AM9:00PM",,,
zumiez Dulles Town Center,1371,21100 Dulles Twn Cir Ste G212,,Sterling,VA,20166,United States,703-421-3689,,,"Tue:04-25 : 10:00AM9:30PM, Wed:04-26 : 10:00AM9:30PM, Thu:04-27 : 10:00AM9:30PM, Fri:04-28 : 10:00AM9:30PM, Sat:04-29 : 10:00AM9:30PM, Sun:04-30 : 11:00AM7:00PM, Mon:05-01 : 10:00AM9:30PM",,,
zumiez Short Pump Town Center,1337,"11800 W Broad Street, Ste 2028",,Henrico,VA,23233,United States,804-360-1479,,,"Tue:04-25 : 10:00AM9:00PM, Wed:04-26 : 10:00AM9:00PM, Thu:04-27 : 10:00AM9:00PM, Fri:04-28 : 10:00AM9:00PM, Sat:04-29 : 10:00AM9:00PM, Sun:04-30 : 11:00AM6:00PM, Mon:05-01 : 10:00AM9:00PM",,,
zumiez Apple Blossom,1317,"1850 Apple Blossom Dr, Ste N123A",,Winchester,VA,22601,United States,540-665-2019,,,"Tue:04-25 : 10:00AM9:00PM, Wed:04-26 : 10:00AM9:00PM, Thu:04-27 : 10:00AM9:00PM, Fri:04-28 : 10:00AM9:00PM, Sat:04-29 : 10:00AM9:00PM, Sun:04-30 : 11:00AM6:00PM, Mon:05-01 : 10:00AM9:00PM",,,
zumiez Alderwood Mall,726,"3000 184TH Street SW, Ste 860",,Lynnwood,WA,98037,United States,425-776-4323,,,"Tue:04-25 : 10:00AM9:00PM, Wed:04-26 : 10:00AM9:00PM, Thu:04-27 : 10:00AM9:00PM, Fri:04-28 : 10:00AM9:00PM, Sat:04-29 : 10:00AM9:00PM, Sun:04-30 : 11:00AM7:00PM, Mon:05-01 : 10:00AM9:00PM",,,
zumiez Valley View Mall,1207,"4802 Valley View Blvd, Ste LB40",,Roanoke,VA,24012,United States,540-563-3756,,,"Tue:04-25 : 10:00AM9:00PM, Wed:04-26 : 10:00AM9:00PM, Thu:04-27 : 10:00AM9:00PM, Fri:04-28 : 10:00AM9:00PM, Sat:04-29 : 10:00AM9:00PM, Sun:04-30 : 12:00PM6:00PM, Mon:05-01 : 10:00AM9:00PM",,,
zumiez Everett Mall,724,1402 SE Everett Mall Way Ste100,,Everett,WA,98208,United States,425-347-5435,,,"Tue:04-25 : 10:00AM9:00PM, Wed:04-26 : 10:00AM9:00PM, Thu:04-27 : 10:00AM9:00PM, Fri:04-28 : 10:00AM9:00PM, Sat:04-29 : 10:00AM9:00PM, Sun:04-30 : 11:00AM6:00PM, Mon:05-01 : 10:00AM9:00PM",,,
zumiez Fair Oaks Mall,1243,"11919U Fair Oaks Mall, Ste G229",,Fairfax,VA,22033,United States,703-934-0325,,,"Tue:04-25 : 10:00AM9:30PM, Wed:04-26 : 10:00AM9:30PM, Thu:04-27 : 10:00AM9:30PM, Fri:04-28 : 10:00AM9:30PM, Sat:04-29 : 10:00AM9:30PM, Sun:04-30 : 11:00AM6:00PM, Mon:05-01 : 10:00AM9:30PM",,,
zumiez MacArthur Center,1255,"300 Monticello Ave, Ste 193",,Norfolk,VA,23510,United States,757-623-3950,,,"Tue:04-25 : 10:00AM9:00PM, Wed:04-26 : 10:00AM9:00PM, Thu:04-27 : 10:00AM9:00PM, Fri:04-28 : 10:00AM9:00PM, Sat:04-29 : 10:00AM9:00PM, Sun:04-30 : 12:00PM6:00PM, Mon:05-01 : 10:00AM9:00PM",,,
zumiez Williamsburg Premium,1162,5601-15 Richmond Rd.,,Williamsburg,VA,23188,United States,757-229-2973,,,"Tue:04-25 : 10:00AM9:00PM, Wed:04-26 : 10:00AM9:00PM, Thu:04-27 : 10:00AM9:00PM, Fri:04-28 : 10:00AM9:00PM, Sat:04-29 : 10:00AM9:00PM, Sun:04-30 : 10:00AM7:00PM, Mon:05-01 : 10:00AM9:00PM",,,
zumiez Tysons Corner Center,1136,"1961 Chain Bridge Rd.,Ste F5L",,McLean,VA,22102,United States,703-790-0532,,,"Tue:04-25 : 10:00AM9:30PM, Wed:04-26 : 10:00AM9:30PM, Thu:04-27 : 10:00AM9:30PM, Fri:04-28 : 10:00AM9:30PM, Sat:04-29 : 10:00AM9:30PM, Sun:04-30 : 11:00AM7:00PM, Mon:05-01 : 10:00AM9:30PM",,,
zumiez Springfield Mall,1321,6751 Sprinfield Mall,,Springfield,VA,22150,United States,703-971-0151,,,"Tue:04-25 : 10:00AM9:30PM, Wed:04-26 : 10:00AM9:30PM, Thu:04-27 : 10:00AM9:30PM, Fri:04-28 : 10:00AM9:30PM, Sat:04-29 : 10:00AM9:30PM, Sun:04-30 : 11:00AM7:00PM, Mon:05-01 : 10:00AM9:30PM",,,
zumiez Patrick Henry Mall,1085,12300 Jefferson Ave,,Newport News,VA,23602,United States,757-269-0006,,,"Tue:04-25 : 10:00AM9:00PM, Wed:04-26 : 10:00AM9:00PM, Thu:04-27 : 10:00AM9:00PM, Fri:04-28 : 10:00AM9:00PM, Sat:04-29 : 10:00AM9:00PM, Sun:04-30 : 12:00PM6:00PM, Mon:05-01 : 10:00AM9:00PM",,,
zumiez Chesterfield Towne Ctr,1062,"11500 Midlothian Tpke., Ste 140",,Richmond,VA,23235,United States,804-379-8414,,,"Tue:04-25 : 10:00AM9:00PM, Wed:04-26 : 10:00AM9:00PM, Thu:04-27 : 10:00AM9:00PM, Fri:04-28 : 10:00AM9:00PM, Sat:04-29 : 10:00AM9:00PM, Sun:04-30 : 12:00PM6:00PM, Mon:05-01 : 10:00AM9:00PM",,,
zumiez Leesburg Corner Premium,1237,"241 Fort Evans Rd., Ste 1337",,Leesburg,VA,20176,United States,703-777-6965,,,"Tue:04-25 : 10:00AM9:00PM, Wed:04-26 : 10:00AM9:00PM, Thu:04-27 : 10:00AM9:00PM, Fri:04-28 : 10:00AM9:00PM, Sat:04-29 : 10:00AM9:00PM, Sun:04-30 : 10:00AM7:00PM, Mon:05-01 : 10:00AM9:00PM",,,
zumiez Spotsylvania Towne Centre,1175,220 Spotsylvania Mall,,Fredericksburg,VA,22407,United States,540-548-2373,,,"Tue:04-25 : 10:00AM9:30PM, Wed:04-26 : 10:00AM9:30PM, Thu:04-27 : 10:00AM9:30PM, Fri:04-28 : 10:00AM9:30PM, Sat:04-29 : 10:00AM9:30PM, Sun:04-30 : 11:00AM6:00PM, Mon:05-01 : 10:00AM9:30PM",,,
zumiez Station Park,1218,160 North Station Park Way,,Farmington,UT,84025,United States,801-451-4985,,,"Tue:04-25 : 10:00AM9:00PM, Wed:04-26 : 10:00AM9:00PM, Thu:04-27 : 10:00AM9:00PM, Fri:04-28 : 10:00AM9:00PM, Sat:04-29 : 10:00AM9:00PM, Sun:04-30 : 12:00PM6:00PM, Mon:05-01 : 10:00AM9:00PM",,,
zumiez District at South Jordan,957,"11565 S District Main Dr, Ste 400",,South Jordan,UT,84095,United States,801-727-0003,,,"Tue:04-25 : 10:00AM9:00PM, Wed:04-26 : 10:00AM9:00PM, Thu:04-27 : 10:00AM9:00PM, Fri:04-28 : 10:00AM9:00PM, Sat:04-29 : 10:00AM9:00PM, Sun:04-30 : 12:00PM6:00PM, Mon:05-01 : 10:00AM9:00PM",,,
zumiez Lynnhaven Mall,1099,701 Lynnhaven Pkwy,,Virginia Beach,VA,23452,United States,757-340-0196,,,"Tue:04-25 : 10:00AM9:30PM, Wed:04-26 : 10:00AM9:30PM, Thu:04-27 : 10:00AM9:30PM, Fri:04-28 : 10:00AM9:30PM, Sat:04-29 : 10:00AM9:30PM, Sun:04-30 : 11:00AM7:00PM, Mon:05-01 : 10:00AM9:30PM",,,
zumiez Park City Factory Stores,831,6699 N Landmark Dr. Ste M-100,,Park City,UT,84098,United States,435-615-1767,,,"Tue:04-25 : 9:00AM9:00PM, Wed:04-26 : 9:00AM9:00PM, Thu:04-27 : 9:00AM9:00PM, Fri:04-28 : 9:00AM9:00PM, Sat:04-29 : 9:00AM9:00PM, Sun:04-30 : 10:00AM7:00PM, Mon:05-01 : 9:00AM9:00PM",,,
zumiez Red Cliffs Mall,787,1770 East Red Cliffs Dr. Ste 112,,Saint George,UT,84790,United States,435-627-9633,,,"Tue:04-25 : 10:00AM9:00PM, Wed:04-26 : 10:00AM9:00PM, Thu:04-27 : 10:00AM9:00PM, Fri:04-28 : 10:00AM9:00PM, Sat:04-29 : 10:00AM9:00PM, Sun:04-30 : 12:00PM5:00PM, Mon:05-01 : 10:00AM9:00PM",,,
zumiez Potomac Mills,991,2700 Potomac Mills Cir. Suite 320,,Prince William,VA,22192,United States,703-494-3482,,,"Tue:04-25 : 10:00AM9:00PM, Wed:04-26 : 10:00AM9:00PM, Thu:04-27 : 10:00AM9:00PM, Fri:04-28 : 10:00AM9:00PM, Sat:04-29 : 10:00AM9:00PM, Sun:04-30 : 11:00AM6:00PM, Mon:05-01 : 10:00AM9:00PM",,,
zumiez Outlets at Traverse Mtn.,1240,"3700 N Cabela's Blvd.,Ste 357",,Lehi,UT,84043,United States,801-901-1347,,,"Tue:04-25 : 10:00AM9:00PM, Wed:04-26 : 10:00AM9:00PM, Thu:04-27 : 10:00AM9:00PM, Fri:04-28 : 10:00AM9:00PM, Sat:04-29 : 10:00AM9:00PM, Sun:04-30 : 11:00AM6:00PM, Mon:05-01 : 10:00AM9:00PM",,,
zumiez Provo Towne Centre,771,"1200 Towne Centre Blvd, 2024",,Provo,UT,84601,United States,801-494-0135,,,"Tue:04-25 : 10:00AM9:00PM, Wed:04-26 : 10:00AM9:00PM, Thu:04-27 : 10:00AM9:00PM, Fri:04-28 : 10:00AM9:00PM, Sat:04-29 : 10:00AM9:00PM, Sun:04-30 : 12:00PM6:00PM, Mon:05-01 : 10:00AM9:00PM",,,
zumiez South Towne Center,866,10450 S State St. Ste 2242,,Sandy,UT,84070,United States,801-572-8067,,,"Tue:04-25 : 10:00AM9:00PM, Wed:04-26 : 10:00AM9:00PM, Thu:04-27 : 10:00AM9:00PM, Fri:04-28 : 10:00AM9:00PM, Sat:04-29 : 10:00AM9:00PM, Sun:04-30 : 12:00PM6:00PM, Mon:05-01 : 10:00AM9:00PM",,,
zumiez Layton Hills Mall,785,1081 Layton Hills Mall Ste 1062,,Layton,UT,84041,United States,801-497-0853,,,"Tue:04-25 : 10:00AM9:00PM, Wed:04-26 : 10:00AM9:00PM, Thu:04-27 : 10:00AM9:00PM, Fri:04-28 : 10:00AM9:00PM, Sat:04-29 : 10:00AM9:00PM, Sun:04-30 : 12:00PM6:00PM, Mon:05-01 : 10:00AM9:00PM",,,
zumiez Newgate Mall,770,3651 Wall Ave Ste1094,,Ogden,UT,84405,United States,801-627-6310,,,"Tue:04-25 : 10:00AM9:00PM, Wed:04-26 : 10:00AM9:00PM, Thu:04-27 : 10:00AM9:00PM, Fri:04-28 : 10:00AM9:00PM, Sat:04-29 : 10:00AM9:00PM, Sun:04-30 : 12:00PM6:00PM, Mon:05-01 : 10:00AM9:00PM",,,
zumiez Westfield Valley Fair,754,"3601 S. 2700 W., Ste F100",,West Valley,UT,84119,United States,801-964-1582,,,"Tue:04-25 : 10:00AM9:00PM, Wed:04-26 : 10:00AM9:00PM, Thu:04-27 : 10:00AM9:00PM, Fri:04-28 : 10:00AM9:00PM, Sat:04-29 : 10:00AM9:00PM, Sun:04-30 : 12:00PM6:00PM, Mon:05-01 : 10:00AM9:00PM",,,
zumiez South Park Mall,1361,2310 SW Military Dr Ste 224,,San Antonio,TX,78224,United States,210-921-6074,,,"Tue:04-25 : 10:00AM9:00PM, Wed:04-26 : 10:00AM9:00PM, Thu:04-27 : 10:00AM9:00PM, Fri:04-28 : 10:00AM9:00PM, Sat:04-29 : 10:00AM9:00PM, Sun:04-30 : 12:00PM6:00PM, Mon:05-01 : 10:00AM9:00PM",,,
zumiez Cache Valley Mall,784,"1300 North Main, Ste 1123",,Logan,UT,84341,United States,435-787-0482,,,"Tue:04-25 : 10:00AM9:00PM, Wed:04-26 : 10:00AM9:00PM, Thu:04-27 : 10:00AM9:00PM, Fri:04-28 : 10:00AM9:00PM, Sat:04-29 : 10:00AM9:00PM, Sun:04-30 : 12:00PM6:00PM, Mon:05-01 : 10:00AM9:00PM",,,
zumiez Fashion Place Mall,752,"6191 South State, Ste 1275",,Murray,UT,84107,United States,801-262-8284,,,"Tue:04-25 : 10:00AM9:00PM, Wed:04-26 : 10:00AM9:00PM, Thu:04-27 : 10:00AM9:00PM, Fri:04-28 : 10:00AM9:00PM, Sat:04-29 : 10:00AM9:00PM, Sun:04-30 : 12:00PM6:00PM, Mon:05-01 : 10:00AM9:00PM",,,
zumiez The Gateway Mall,759,"84 S Rio Grande St., 2085",,Salt Lake City,UT,84101,United States,801-456-1942,,,"Tue:04-25 : 10:00AM9:00PM, Wed:04-26 : 10:00AM9:00PM, Thu:04-27 : 10:00AM9:00PM, Fri:04-28 : 10:00AM9:00PM, Sat:04-29 : 10:00AM9:00PM, Sun:04-30 : 12:00PM6:00PM, Mon:05-01 : 10:00AM9:00PM",,,
zumiez University Mall,756,575 E University Pkwy. H141,,Orem,UT,84097,United States,801-235-1588,,,,,,
zumiez Post Oak Mall,1293,"1500 Harvey Road, Ste 3020",,College Station,TX,77840,United States,979-693-0679,,,"Tue:04-25 : 10:00AM9:00PM, Wed:04-26 : 10:00AM9:00PM, Thu:04-27 : 10:00AM9:00PM, Fri:04-28 : 10:00AM9:00PM, Sat:04-29 : 10:00AM9:00PM, Sun:04-30 : 12:00PM6:00PM, Mon:05-01 : 10:00AM9:00PM",,,
zumiez Galleria Dallas,1244,"13350 Dallas Pkwy, Ste 2210A",,Dallas,TX,75240,United States,972-851-7296,,,"Tue:04-25 : 10:00AM9:00PM, Wed:04-26 : 10:00AM9:00PM, Thu:04-27 : 10:00AM9:00PM, Fri:04-28 : 10:00AM9:00PM, Sat:04-29 : 10:00AM9:00PM, Sun:04-30 : 12:00PM6:00PM, Mon:05-01 : 10:00AM9:00PM",,,
zumiez La Plaza Mall,1236,"2200 South 10th St, Ste X04",,McAllen,TX,78503,United States,956-631-0535,,,"Tue:04-25 : 10:00AM9:00PM, Wed:04-26 : 10:00AM9:00PM, Thu:04-27 : 10:00AM9:00PM, Fri:04-28 : 10:00AM9:00PM, Sat:04-29 : 10:00AM9:00PM, Sun:04-30 : 11:00AM7:00PM, Mon:05-01 : 10:00AM9:00PM",,,
zumiez Paragon Outlets,1227,"2950 W Interstate 20, Ste 717",,Grand Prairie,TX,75052,United States,972-522-1477,,,"Tue:04-25 : 10:00AM9:00PM, Wed:04-26 : 10:00AM9:00PM, Thu:04-27 : 10:00AM9:00PM, Fri:04-28 : 10:00AM9:00PM, Sat:04-29 : 10:00AM9:00PM, Sun:04-30 : 11:00AM6:00PM, Mon:05-01 : 10:00AM9:00PM",,,
zumiez Parkdale Mall,1342,"6155 Eastex Freeway, Ste D408",,Beaumont,TX,77706,United States,409-899-8606,,,"Tue:04-25 : 10:00AM9:00PM, Wed:04-26 : 10:00AM9:00PM, Thu:04-27 : 10:00AM9:00PM, Fri:04-28 : 10:00AM9:00PM, Sat:04-29 : 10:00AM9:00PM, Sun:04-30 : 12:00PM6:00PM, Mon:05-01 : 10:00AM9:00PM",,,
zumiez Sikes Senter,1186,"3111 Midwestern Pkwy, Ste 345",,Wichita Falls,TX,76308,United States,940-689-0391,,,"Tue:04-25 : 10:00AM9:00PM, Wed:04-26 : 10:00AM9:00PM, Thu:04-27 : 10:00AM9:00PM, Fri:04-28 : 10:00AM9:00PM, Sat:04-29 : 10:00AM9:00PM, Sun:04-30 : 12:00PM6:00PM, Mon:05-01 : 10:00AM9:00PM",,,
zumiez Golden Triangle,1291,"2201 South I-35E, Ste L-10",,Denton,TX,76205,United States,940-381-9101,,,"Tue:04-25 : 10:00AM9:00PM, Wed:04-26 : 10:00AM9:00PM, Thu:04-27 : 10:00AM9:00PM, Fri:04-28 : 10:00AM9:00PM, Sat:04-29 : 10:00AM9:00PM, Sun:04-30 : 12:00PM6:00PM, Mon:05-01 : 10:00AM9:00PM",,,
zumiez Rivercenter Mall,1197,849 E Commerce St. Ste 475,,San Antonio,TX,78205,United States,210-228-9373,,,"Tue:04-25 : 10:00AM9:00PM, Wed:04-26 : 10:00AM9:00PM, Thu:04-27 : 10:00AM9:00PM, Fri:04-28 : 10:00AM9:00PM, Sat:04-29 : 10:00AM9:00PM, Sun:04-30 : 12:00PM6:00PM, Mon:05-01 : 10:00AM9:00PM",,,
zumiez Tanger Outlets,1235,"5885 Gulf Freeway, Ste 760",,Texas City,TX,77591,United States,281-337-3503,,,"Tue:04-25 : 9:00AM9:00PM, Wed:04-26 : 9:00AM9:00PM, Thu:04-27 : 9:00AM9:00PM, Fri:04-28 : 9:00AM9:00PM, Sat:04-29 : 9:00AM9:00PM, Sun:04-30 : 10:00AM7:00PM, Mon:05-01 : 9:00AM9:00PM",,,
zumiez Rolling Oaks Mall,1274,6909 N. Loop 1604 E.Ste.E07B,,San Antonio,TX,78247,United States,210-651-0345,,,"Tue:04-25 : 10:00AM9:00PM, Wed:04-26 : 10:00AM9:00PM, Thu:04-27 : 10:00AM9:00PM, Fri:04-28 : 10:00AM9:00PM, Sat:04-29 : 10:00AM9:00PM, Sun:04-30 : 12:00PM6:00PM, Mon:05-01 : 10:00AM9:00PM",,,
zumiez Westgate Mall,1168,"7701 W Interstate 40, Ste 264",,Amarillo,TX,79121,United States,806-356-8747,,,"Tue:04-25 : 10:00AM9:00PM, Wed:04-26 : 10:00AM9:00PM, Thu:04-27 : 10:00AM9:00PM, Fri:04-28 : 10:00AM9:00PM, Sat:04-29 : 10:00AM9:00PM, Sun:04-30 : 12:00PM6:00PM, Mon:05-01 : 10:00AM9:00PM",,,
zumiez Town East Mall,1157,1186 Town East Mall,,Mesquite,TX,75150,United States,(972) 698-8595,,,"Tue:04-25 : 10:00AM9:00PM, Wed:04-26 : 10:00AM9:00PM, Thu:04-27 : 10:00AM9:00PM, Fri:04-28 : 10:00AM9:00PM, Sat:04-29 : 10:00AM9:00PM, Sun:04-30 : 12:00PM6:00PM, Mon:05-01 : 10:00AM9:00PM",,,
zumiez Promenade at Casa Grande,974,1269 N Promenade Pkwy,,Casa Grande,AZ,85222,United States,520-836-5923,,,,,,
zumiez Stonebriar Centre,1181,"2601 Preston Rd, Ste1154",,Frisco,TX,75034,United States,214-436-5782,,,"Tue:04-25 : 10:00AM9:00PM, Wed:04-26 : 10:00AM9:00PM, Thu:04-27 : 10:00AM9:00PM, Fri:04-28 : 10:00AM9:00PM, Sat:04-29 : 10:00AM9:00PM, Sun:04-30 : 12:00PM6:00PM, Mon:05-01 : 10:00AM9:00PM",,,
zumiez Allen Premium Outlets,1177,"820 West Stacy Rd, Ste 464",,Allen,TX,75013,United States,972-678-3034,,,"Tue:04-25 : 10:00AM9:00PM, Wed:04-26 : 10:00AM9:00PM, Thu:04-27 : 10:00AM9:00PM, Fri:04-28 : 10:00AM9:00PM, Sat:04-29 : 10:00AM9:00PM, Sun:04-30 : 11:00AM6:00PM, Mon:05-01 : 10:00AM9:00PM",,,
zumiez The Galleria,1151,"5085 Westheimer Rd, Ste B3536",,Houston,TX,77056,United States,713-965-0392,,,"Tue:04-25 : 10:00AM9:00PM, Wed:04-26 : 10:00AM9:00PM, Thu:04-27 : 10:00AM9:00PM, Fri:04-28 : 10:00AM9:00PM, Sat:04-29 : 10:00AM9:00PM, Sun:04-30 : 11:00AM7:00PM, Mon:05-01 : 10:00AM9:00PM",,,
zumiez Longview Mall,1082,3500 McCann Rd.,,Longview,TX,75605,United States,903-234-8940,,,"Tue:04-25 : 10:00AM9:00PM, Wed:04-26 : 10:00AM9:00PM, Thu:04-27 : 10:00AM9:00PM, Fri:04-28 : 10:00AM9:00PM, Sat:04-29 : 10:00AM9:00PM, Sun:04-30 : 12:00PM6:00PM, Mon:05-01 : 10:00AM9:00PM",,,
zumiez The Domain,1110,3220 Amy Donovan Plz Bldg S Spc120,,Austin,TX,78758,United States,512-719-4494,,,"Tue:04-25 : 10:00AM9:00PM, Wed:04-26 : 10:00AM9:00PM, Thu:04-27 : 10:00AM9:00PM, Fri:04-28 : 10:00AM9:00PM, Sat:04-29 : 10:00AM9:00PM, Sun:04-30 : 12:00PM6:00PM, Mon:05-01 : 10:00AM9:00PM",,,
zumiez Northeast Inside,1156,1101 Melbourne Street L23,,Hurst,TX,76053,United States,(817) 595-2187,,,"Tue:04-25 : 10:00AM9:00PM, Wed:04-26 : 10:00AM9:00PM, Thu:04-27 : 10:00AM9:00PM, Fri:04-28 : 10:00AM9:00PM, Sat:04-29 : 10:00AM9:00PM, Sun:04-30 : 12:00PM6:00PM, Mon:05-01 : 10:00AM9:00PM",,,
zumiez Mall del Norte,1138,"5300 San Dario Ave, Ste156",,Laredo,TX,78041,United States,956-717-5763,,,"Tue:04-25 : 10:00AM9:00PM, Wed:04-26 : 10:00AM9:00PM, Thu:04-27 : 10:00AM9:00PM, Fri:04-28 : 10:00AM9:00PM, Sat:04-29 : 10:00AM9:00PM, Sun:04-30 : 11:00AM7:00PM, Mon:05-01 : 10:00AM9:00PM",,,
zumiez Broadway Square Mall,1060,"4601 S Broadway, Ste B13",,Tyler,TX,75703,United States,903-561-8985,,,"Tue:04-25 : 10:00AM9:00PM, Wed:04-26 : 10:00AM9:00PM, Thu:04-27 : 10:00AM9:00PM, Fri:04-28 : 10:00AM9:00PM, Sat:04-29 : 10:00AM9:00PM, Sun:04-30 : 12:00PM6:00PM, Mon:05-01 : 10:00AM9:00PM",,,
zumiez La Palmera,1135,5488 S. Padre Island Dr. Ste 1644,,Corpus Christi,TX,78411,United States,361-992-5868,,,"Tue:04-25 : 10:00AM9:00PM, Wed:04-26 : 10:00AM9:00PM, Thu:04-27 : 10:00AM9:00PM, Fri:04-28 : 10:00AM9:00PM, Sat:04-29 : 10:00AM9:00PM, Sun:04-30 : 11:00AM7:00PM, Mon:05-01 : 10:00AM9:00PM",,,
zumiez Midland Park Mall,1077,"4511 N Midkiff Dr.,Spc C04B",,Midland,TX,79705,United States,432-689-8916,,,"Tue:04-25 : 10:00AM9:00PM, Wed:04-26 : 10:00AM9:00PM, Thu:04-27 : 10:00AM9:00PM, Fri:04-28 : 10:00AM9:00PM, Sat:04-29 : 10:00AM9:00PM, Sun:04-30 : 12:00PM6:00PM, Mon:05-01 : 10:00AM9:00PM",,,
zumiez Cielo Vista Mall,1046,"8410 Gateway Blvd.,Ste C06",,El Paso,TX,79925,United States,915-881-1065,,,"Tue:04-25 : 10:00AM9:00PM, Wed:04-26 : 10:00AM9:00PM, Thu:04-27 : 10:00AM9:00PM, Fri:04-28 : 10:00AM9:00PM, Sat:04-29 : 10:00AM9:00PM, Sun:04-30 : 12:00PM6:00PM, Mon:05-01 : 10:00AM9:00PM",,,
zumiez First Colony Mall,1066,"16535 SW Freeway, Spc 225",,Sugar Land,TX,77479,United States,281-265-1465,,,"Tue:04-25 : 10:00AM9:00PM, Wed:04-26 : 10:00AM9:00PM, Thu:04-27 : 10:00AM9:00PM, Fri:04-28 : 10:00AM9:00PM, Sat:04-29 : 10:00AM9:00PM, Sun:04-30 : 12:00PM6:00PM, Mon:05-01 : 10:00AM9:00PM",,,
zumiez Deerbrook Mall,1065,"20131 Hwy 59 N, Spc 2400",,Humble,TX,77338,United States,281-319-4496,,,"Tue:04-25 : 10:00AM9:00PM, Wed:04-26 : 10:00AM9:00PM, Thu:04-27 : 10:00AM9:00PM, Fri:04-28 : 10:00AM9:00PM, Sat:04-29 : 10:00AM9:00PM, Sun:04-30 : 12:00PM6:00PM, Mon:05-01 : 10:00AM9:00PM",,,
zumiez The Woodlands Mall,1035,"1201 Lake Woodlands Dr, Ste 2016",,The Woodlands,TX,77380,United States,281-681-0500,,,"Tue:04-25 : 10:00AM9:00PM, Wed:04-26 : 10:00AM9:00PM, Thu:04-27 : 10:00AM9:00PM, Fri:04-28 : 10:00AM9:00PM, Sat:04-29 : 10:00AM9:00PM, Sun:04-30 : 12:00PM6:00PM, Mon:05-01 : 10:00AM9:00PM",,,
zumiez Round Rock Prem.Outlets,1068,"4401 North IH-35, Ste 836",,Round Rock,TX,78664,United States,512-864-7586,,,"Tue:04-25 : 10:00AM9:00PM, Wed:04-26 : 10:00AM9:00PM, Thu:04-27 : 10:00AM9:00PM, Fri:04-28 : 10:00AM9:00PM, Sat:04-29 : 10:00AM9:00PM, Sun:04-30 : 11:00AM7:00PM, Mon:05-01 : 10:00AM9:00PM",,,
zumiez The Shops at La Cantera,1039,"15900 La Cantera Pkwy, Ste 20140",,San Antonio,TX,78256,United States,210-694-2222,,,"Tue:04-25 : 10:00AM9:00PM, Wed:04-26 : 10:00AM9:00PM, Thu:04-27 : 10:00AM9:00PM, Fri:04-28 : 10:00AM9:00PM, Sat:04-29 : 10:00AM9:00PM, Sun:04-30 : 12:00PM6:00PM, Mon:05-01 : 10:00AM9:00PM",,,
zumiez Barton Creek Square,1031,2901 S Capitol of Texas Hwy,,Austin,TX,78746,United States,512-306-1705,,,"Tue:04-25 : 10:00AM9:00PM, Wed:04-26 : 10:00AM9:00PM, Thu:04-27 : 10:00AM9:00PM, Fri:04-28 : 10:00AM9:00PM, Sat:04-29 : 10:00AM9:00PM, Sun:04-30 : 11:00AM7:00PM, Mon:05-01 : 10:00AM9:00PM",,,
zumiez Grapevine Mills,1032,"3000 Grapevine Mills Pkwy.,Ste 606",,Grapevine,TX,76051,United States,972-874-7259,,,"Tue:04-25 : 9:00AM10:00PM, Wed:04-26 : 9:00AM10:00PM, Thu:04-27 : 9:00AM10:00PM, Fri:04-28 : 9:00AM10:00PM, Sat:04-29 : 9:00AM10:00PM, Sun:04-30 : 11:00AM7:00PM, Mon:05-01 : 9:00AM10:00PM",,,
zumiez South Plains Mall,1037,"6002 Slide Rd, Ste.G12",,Lubbock,TX,79414,United States,806-785-4900,,,"Tue:04-25 : 10:00AM9:00PM, Wed:04-26 : 10:00AM9:00PM, Thu:04-27 : 10:00AM9:00PM, Fri:04-28 : 10:00AM9:00PM, Sat:04-29 : 10:00AM9:00PM, Sun:04-30 : 12:00PM6:00PM, Mon:05-01 : 10:00AM9:00PM",,,
zumiez Willowbrook Mall,1038,"7925 FM1960 W, Ste1526",,Houston,TX,77070,United States,281-894-1161,,,"Tue:04-25 : 10:00AM9:00PM, Wed:04-26 : 10:00AM9:00PM, Thu:04-27 : 10:00AM9:00PM, Fri:04-28 : 10:00AM9:00PM, Sat:04-29 : 10:00AM9:00PM, Sun:04-30 : 12:00PM6:00PM, Mon:05-01 : 10:00AM9:00PM",,,
zumiez North Star Mall,1024,"7400 San Pedro, Ste1165",,San Antonio,TX,78216,United States,210-347-1532,,,"Tue:04-25 : 10:00AM9:00PM, Wed:04-26 : 10:00AM9:00PM, Thu:04-27 : 10:00AM9:00PM, Fri:04-28 : 10:00AM9:00PM, Sat:04-29 : 10:00AM9:00PM, Sun:04-30 : 12:00PM6:00PM, Mon:05-01 : 10:00AM9:00PM",,,
zumiez Lakeline Mall,1027,11200 Lakestop Blvd.,,Cedar Park,TX,78613,United States,512-257-1080,,,"Tue:04-25 : 10:00AM9:00PM, Wed:04-26 : 10:00AM9:00PM, Thu:04-27 : 10:00AM9:00PM, Fri:04-28 : 10:00AM9:00PM, Sat:04-29 : 10:00AM9:00PM, Sun:04-30 : 12:00PM6:00PM, Mon:05-01 : 10:00AM9:00PM",,,
zumiez Memorial City,1036,303 Memorial City Ste 212,,Houston,TX,77024,United States,713-468-7748,,,"Tue:04-25 : 10:00AM9:00PM, Wed:04-26 : 10:00AM9:00PM, Thu:04-27 : 10:00AM9:00PM, Fri:04-28 : 10:00AM9:00PM, Sat:04-29 : 10:00AM9:00PM, Sun:04-30 : 11:00AM7:00PM, Mon:05-01 : 10:00AM9:00PM",,,
zumiez Vista Ridge Mall,1026,2401 S Stemmons Fwy,,Lewisville,TX,75067,United States,972-315-1896,,,"Tue:04-25 : 10:00AM9:00PM, Wed:04-26 : 10:00AM9:00PM, Thu:04-27 : 10:00AM9:00PM, Fri:04-28 : 10:00AM9:00PM, Sat:04-29 : 10:00AM9:00PM, Sun:04-30 : 12:00PM6:00PM, Mon:05-01 : 10:00AM9:00PM",,,
zumiez Killeen Mall,1021,"2100 S.W.S Young Dr.,Ste 1488",,Killeen,TX,76543,United States,254-680-9687,,,"Tue:04-25 : 10:00AM9:00PM, Wed:04-26 : 10:00AM9:00PM, Thu:04-27 : 10:00AM9:00PM, Fri:04-28 : 10:00AM9:00PM, Sat:04-29 : 10:00AM9:00PM, Sun:04-30 : 12:00PM6:00PM, Mon:05-01 : 10:00AM9:00PM",,,
zumiez Collin Creek Mall,1025,811 N Central Expy.,,Plano,TX,75075,United States,972-578-8202,,,"Tue:04-25 : 10:00AM9:00PM, Wed:04-26 : 10:00AM9:00PM, Thu:04-27 : 10:00AM9:00PM, Fri:04-28 : 10:00AM9:00PM, Sat:04-29 : 10:00AM9:00PM, Sun:04-30 : 12:00PM6:00PM, Mon:05-01 : 10:00AM9:00PM",,,
zumiez Ingram Park Mall,1022,6301 NW Loop 410,,San Antonio,TX,78238,United States,210-680-1441,,,"Tue:04-25 : 10:00AM9:00PM, Wed:04-26 : 10:00AM9:00PM, Thu:04-27 : 10:00AM9:00PM, Fri:04-28 : 10:00AM9:00PM, Sat:04-29 : 10:00AM9:00PM, Sun:04-30 : 12:00PM6:00PM, Mon:05-01 : 10:00AM9:00PM",,,
zumiez Rio Grande Valley Prem.,998,"5001 E Expressway 83, Ste 740",,Mercedes,TX,78570,United States,956-565-2059,,,"Tue:04-25 : 10:00AM9:00PM, Wed:04-26 : 10:00AM9:00PM, Thu:04-27 : 10:00AM9:00PM, Fri:04-28 : 10:00AM9:00PM, Sat:04-29 : 10:00AM9:00PM, Sun:04-30 : 11:00AM7:00PM, Mon:05-01 : 10:00AM9:00PM",,,
zumiez Pearland Town Ctr,1014,"11200 Broadway, Ste1310",,Pearland,TX,77584,United States,713-340-1427,,,"Tue:04-25 : 10:00AM9:00PM, Wed:04-26 : 10:00AM9:00PM, Thu:04-27 : 10:00AM9:00PM, Fri:04-28 : 10:00AM9:00PM, Sat:04-29 : 10:00AM9:00PM, Sun:04-30 : 11:00AM7:00PM, Mon:05-01 : 10:00AM9:00PM",,,
zumiez The Shops Highland Vil.,980,"1500 Cottonwood Creek, Ste160",,Highland Village,TX,75077,United States,972-317-2973,,,"Tue:04-25 : 10:00AM9:00PM, Wed:04-26 : 10:00AM9:00PM, Thu:04-27 : 10:00AM9:00PM, Fri:04-28 : 10:00AM9:00PM, Sat:04-29 : 10:00AM9:00PM, Sun:04-30 : 12:00PM6:00PM, Mon:05-01 : 10:00AM9:00PM",,,
zumiez The Outlet Shoppes,959,"7051 South Desert Blvd, D421",,Canutillo,TX,79835,United States,915-877-3674,,,"Tue:04-25 : 10:00AM9:00PM, Wed:04-26 : 10:00AM9:00PM, Thu:04-27 : 10:00AM9:00PM, Fri:04-28 : 10:00AM9:00PM, Sat:04-29 : 10:00AM9:00PM, Sun:04-30 : 10:00AM7:00PM, Mon:05-01 : 10:00AM9:00PM",,,
zumiez Katy Mills SC,936,"5000 Katy Mills Cir.,Ste 722",,Katy,TX,77494,United States,281-644-4062,,,"Tue:04-25 : 10:00AM9:00PM, Wed:04-26 : 10:00AM9:00PM, Thu:04-27 : 10:00AM9:00PM, Fri:04-28 : 10:00AM9:00PM, Sat:04-29 : 10:00AM9:00PM, Sun:04-30 : 11:00AM6:00PM, Mon:05-01 : 10:00AM9:00PM",,,
zumiez Baybrook Mall,934,1358 Baybrook Mall,,Friendswood,TX,77546,United States,281-990-8289,,,"Tue:04-25 : 10:00AM9:00PM, Wed:04-26 : 10:00AM9:00PM, Thu:04-27 : 10:00AM9:00PM, Fri:04-28 : 10:00AM9:00PM, Sat:04-29 : 10:00AM9:00PM, Sun:04-30 : 12:00PM6:00PM, Mon:05-01 : 10:00AM9:00PM",,,
zumiez Houston Premium,996,"29300 Hempstead Rd.,Ste 873",,Cypress,TX,77433,United States,281-373-4586,,,"Tue:04-25 : 10:00AM9:00PM, Wed:04-26 : 10:00AM9:00PM, Thu:04-27 : 10:00AM9:00PM, Fri:04-28 : 10:00AM9:00PM, Sat:04-29 : 10:00AM9:00PM, Sun:04-30 : 11:00AM7:00PM, Mon:05-01 : 10:00AM9:00PM",,,
zumiez Tanger Outlets,976,"4015 I-35 South, Ste 705",,San Marcos,TX,78666,United States,512-392-6280,,,"Tue:04-25 : 9:00AM9:00PM, Wed:04-26 : 9:00AM9:00PM, Thu:04-27 : 9:00AM9:00PM, Fri:04-28 : 9:00AM9:00PM, Sat:04-29 : 9:00AM9:00PM, Sun:04-30 : 10:00AM7:00PM, Mon:05-01 : 9:00AM9:00PM",,,
zumiez Hulen Mall,884,"4800 S Hulen St, Ste 570",,Fort Worth,TX,76132,United States,817-423-0223,,,"Tue:04-25 : 10:00AM9:00PM, Wed:04-26 : 10:00AM9:00PM, Thu:04-27 : 10:00AM9:00PM, Fri:04-28 : 10:00AM9:00PM, Sat:04-29 : 10:00AM9:00PM, Sun:04-30 : 12:00PM6:00PM, Mon:05-01 : 10:00AM9:00PM",,,
zumiez The Avenue Murfreesboro,1374,2615 Medical Ctr Parkway Ste 1360,,Murfreesboro,TN,37129,United States,615-848-2815,,,"Tue:04-25 : 10:00AM9:00PM, Wed:04-26 : 10:00AM9:00PM, Thu:04-27 : 10:00AM9:00PM, Fri:04-28 : 10:00AM9:00PM, Sat:04-29 : 10:00AM9:00PM, Sun:04-30 : 12:00PM6:00PM, Mon:05-01 : 10:00AM9:00PM",,,
zumiez Firewheel Town Ctr,924,465 Coneflower Dr,,Garland,TX,75040,United States,972-530-4015,,,"Tue:04-25 : 10:00AM9:00PM, Wed:04-26 : 10:00AM9:00PM, Thu:04-27 : 10:00AM9:00PM, Fri:04-28 : 10:00AM9:00PM, Sat:04-29 : 10:00AM9:00PM, Sun:04-30 : 12:00PM6:00PM, Mon:05-01 : 10:00AM9:00PM",,,
zumiez Sunland Park Mall,856,"750 Sunland Park Dr, Ste H04",,El Paso,TX,79912,United States,915-760-8661,,,"Tue:04-25 : 10:00AM9:00PM, Wed:04-26 : 10:00AM9:00PM, Thu:04-27 : 10:00AM9:00PM, Fri:04-28 : 10:00AM9:00PM, Sat:04-29 : 10:00AM9:00PM, Sun:04-30 : 12:00PM6:00PM, Mon:05-01 : 10:00AM9:00PM",,,
zumiez The Parks at Arlington,881,"3811 S Cooper St,  Ste 2176",,Arlington,TX,76015,United States,817-375-1687,,,"Tue:04-25 : 10:00AM9:00PM, Wed:04-26 : 10:00AM9:00PM, Thu:04-27 : 10:00AM9:00PM, Fri:04-28 : 10:00AM9:00PM, Sat:04-29 : 10:00AM9:00PM, Sun:04-30 : 12:00PM6:00PM, Mon:05-01 : 10:00AM9:00PM",,,
zumiez Governor's Square Mall,1252,"2801 Wilma Rudolph Blvd,Ste 595",,Clarksville,TN,37040,United States,931-920-4497,,,"Tue:04-25 : 10:00AM9:00PM, Wed:04-26 : 10:00AM9:00PM, Thu:04-27 : 10:00AM9:00PM, Fri:04-28 : 10:00AM9:00PM, Sat:04-29 : 10:00AM9:00PM, Sun:04-30 : 11:00AM6:00PM, Mon:05-01 : 10:00AM9:00PM",,,
zumiez Hamilton Place,1332,"2100 Hamilton Place Blvd., Ste 124",,Chattanooga,TN,37421,United States,423-553-6892,,,"Tue:04-25 : 10:00AM9:00PM, Wed:04-26 : 10:00AM9:00PM, Thu:04-27 : 10:00AM9:00PM, Fri:04-28 : 10:00AM9:00PM, Sat:04-29 : 10:00AM9:00PM, Sun:04-30 : 12:00PM6:00PM, Mon:05-01 : 10:00AM9:00PM",,,
zumiez Wolfchase Galleria,1273,"2760 N Germantown Pkwy, Ste 214",,Memphis,TN,38133,United States,901-380-0479,,,"Tue:04-25 : 10:00AM9:00PM, Wed:04-26 : 10:00AM9:00PM, Thu:04-27 : 10:00AM9:00PM, Fri:04-28 : 10:00AM9:00PM, Sat:04-29 : 10:00AM9:00PM, Sun:04-30 : 11:00AM7:00PM, Mon:05-01 : 10:00AM9:00PM",,,
zumiez Cool Springs Galleria,1348,"1800 Galleria Blvd.,Ste 2170",,Franklin,TN,37067,United States,615-771-7137,,,"Tue:04-25 : 10:00AM9:00PM, Wed:04-26 : 10:00AM9:00PM, Thu:04-27 : 10:00AM9:00PM, Fri:04-28 : 10:00AM9:00PM, Sat:04-29 : 10:00AM9:00PM, Sun:04-30 : 12:00PM6:00PM, Mon:05-01 : 10:00AM9:00PM",,,
zumiez Opry Mills,1202,480 Opry Mills Dr.,,Nashville,TN,37214,United States,615-919-5012,,,"Tue:04-25 : 10:00AM9:00PM, Wed:04-26 : 10:00AM9:00PM, Thu:04-27 : 10:00AM9:00PM, Fri:04-28 : 10:00AM9:00PM, Sat:04-29 : 10:00AM9:00PM, Sun:04-30 : 11:00AM7:00PM, Mon:05-01 : 10:00AM9:00PM",,,
zumiez Mall at Johnson City,1210,"2011 N Roan St, Ste10B",,Johnson City,TN,37601,United States,423-915-5140,,,"Tue:04-25 : 10:00AM9:00PM, Wed:04-26 : 10:00AM9:00PM, Thu:04-27 : 10:00AM9:00PM, Fri:04-28 : 10:00AM9:00PM, Sat:04-29 : 10:00AM9:00PM, Sun:04-30 : 12:00PM6:00PM, Mon:05-01 : 10:00AM9:00PM",,,
zumiez West Town Mall,1212,7600 Kingston Pike Ste1414,,Knoxville,TN,37919,United States,865-539-8039,,,"Tue:04-25 : 10:00AM9:00PM, Wed:04-26 : 10:00AM9:00PM, Thu:04-27 : 10:00AM9:00PM, Fri:04-28 : 10:00AM9:00PM, Sat:04-29 : 10:00AM9:00PM, Sun:04-30 : 12:00PM6:00PM, Mon:05-01 : 10:00AM9:00PM",,,
zumiez Tanger Outlet Sevierville,1198,"1645 Parkway, Ste 450",,Sevierville,TN,37862,United States,865-429-1228,,,"Tue:04-25 : 8:00AM9:00PM, Wed:04-26 : 8:00AM9:00PM, Thu:04-27 : 8:00AM9:00PM, Fri:04-28 : 8:00AM9:00PM, Sat:04-29 : 8:00AM9:00PM, Sun:04-30 : 10:00AM7:00PM, Mon:05-01 : 8:00AM9:00PM",,,
zumiez Rushmore Mall,1148,"2200 North Maple Ave, Suite 22",,Rapid City,SD,57701,United States,605-342-8887,,,"Tue:04-25 : 10:00AM9:00PM, Wed:04-26 : 10:00AM9:00PM, Thu:04-27 : 10:00AM9:00PM, Fri:04-28 : 10:00AM9:00PM, Sat:04-29 : 10:00AM9:00PM, Sun:04-30 : 11:00AM6:00PM, Mon:05-01 : 10:00AM9:00PM",,,
zumiez Northwoods Mall,1343,"2150 Northwoods Blvd, Ste B21",,Charleston,SC,29406,United States,843-797-5863,,,"Tue:04-25 : 10:00AM9:00PM, Wed:04-26 : 10:00AM9:00PM, Thu:04-27 : 10:00AM9:00PM, Fri:04-28 : 10:00AM9:00PM, Sat:04-29 : 10:00AM9:00PM, Sun:04-30 : 12:00PM6:00PM, Mon:05-01 : 10:00AM9:00PM",,,
zumiez Coastal Grand Mall,1322,"2000 Coastal Grand Cir., Ste 145",,Myrtle Beach,SC,29577,United States,843-444-0976,,,"Tue:04-25 : 10:00AM9:00PM, Wed:04-26 : 10:00AM9:00PM, Thu:04-27 : 10:00AM9:00PM, Fri:04-28 : 10:00AM9:00PM, Sat:04-29 : 10:00AM9:00PM, Sun:04-30 : 12:00PM6:00PM, Mon:05-01 : 10:00AM9:00PM",,,
zumiez Columbiana Centre,1260,"100 Columbiana Centre, Ste 1444",,Columbia,SC,29212,United States,803-749-5197,,,"Tue:04-25 : 10:00AM9:00PM, Wed:04-26 : 10:00AM9:00PM, Thu:04-27 : 10:00AM9:00PM, Fri:04-28 : 10:00AM9:00PM, Sat:04-29 : 10:00AM9:00PM, Sun:04-30 : 12:00PM6:00PM, Mon:05-01 : 10:00AM9:00PM",,,
zumiez Warwick Mall,1241,"400 Bald Hill Rd., Ste D103",,Warwick,RI,02886,United States,401-737-4096,,,"Tue:04-25 : 10:00AM9:00PM, Wed:04-26 : 10:00AM9:00PM, Thu:04-27 : 10:00AM9:00PM, Fri:04-28 : 10:00AM9:00PM, Sat:04-29 : 10:00AM9:00PM, Sun:04-30 : 11:00AM6:00PM, Mon:05-01 : 10:00AM9:00PM",,,
zumiez Providence Place,1052,"One Providence Place, Suite 5170",,Providence,RI,02903,United States,401-228-7900,,,"Tue:04-25 : 10:00AM9:00PM, Wed:04-26 : 10:00AM9:00PM, Thu:04-27 : 10:00AM9:00PM, Fri:04-28 : 10:00AM9:00PM, Sat:04-29 : 10:00AM9:00PM, Sun:04-30 : 12:00PM6:00PM, Mon:05-01 : 10:00AM9:00PM",,,
zumiez Empire Mall,1018,"4001 West 41st, Ste 21",,Sioux Falls,SD,57106,United States,605-361-2841,,,"Tue:04-25 : 10:00AM9:00PM, Wed:04-26 : 10:00AM9:00PM, Thu:04-27 : 10:00AM9:00PM, Fri:04-28 : 10:00AM9:00PM, Sat:04-29 : 10:00AM9:00PM, Sun:04-30 : 11:00AM7:00PM, Mon:05-01 : 10:00AM9:00PM",,,
zumiez Logan Valley Mall,1382,"5580 Goods Lane, Suite 1101",,Altoona,PA,16602,United States,814-949-5916,,,"Tue:04-25 : 10:00AM9:00PM, Wed:04-26 : 10:00AM9:00PM, Thu:04-27 : 10:00AM9:00PM, Fri:04-28 : 10:00AM9:00PM, Sat:04-29 : 10:00AM9:00PM, Sun:04-30 : 12:00PM6:00PM, Mon:05-01 : 10:00AM9:00PM",,,
zumiez Ross Park Mall,1383,1000 Ross Park Mall Dr. Ste N04B,,Pittsburgh,PA,15327,United States,412-366-3809,,,"Tue:04-25 : 10:00AM9:00PM, Wed:04-26 : 10:00AM9:00PM, Thu:04-27 : 10:00AM9:00PM, Fri:04-28 : 10:00AM9:00PM, Sat:04-29 : 10:00AM9:00PM, Sun:04-30 : 11:00AM6:00PM, Mon:05-01 : 10:00AM9:00PM",,,
zumiez Haywood Mall,1266,"700 Haywood Rd., Ste 2118",,Greenville,SC,29607,United States,864-234-9265,,,"Tue:04-25 : 10:00AM9:00PM, Wed:04-26 : 10:00AM9:00PM, Thu:04-27 : 10:00AM9:00PM, Fri:04-28 : 10:00AM9:00PM, Sat:04-29 : 10:00AM9:00PM, Sun:04-30 : 12:00PM7:00PM, Mon:05-01 : 10:00AM9:00PM",,,
zumiez South Hills Village,1347,"301 South Hills Village, Ste 2025",,Bethel Park,PA,15241,United States,412-854-1746,,,"Tue:04-25 : 10:00AM9:00PM, Wed:04-26 : 10:00AM9:00PM, Thu:04-27 : 10:00AM9:00PM, Fri:04-28 : 10:00AM9:00PM, Sat:04-29 : 10:00AM9:00PM, Sun:04-30 : 11:00AM6:00PM, Mon:05-01 : 10:00AM9:00PM",,,
zumiez Westmoreland Mall,1225,"5256 Route 30, Suite 130",,Greensburg,PA,15601,United States,724-832-3938,,,"Tue:04-25 : 10:00AM9:00PM, Wed:04-26 : 10:00AM9:00PM, Thu:04-27 : 10:00AM9:00PM, Fri:04-28 : 10:00AM9:00PM, Sat:04-29 : 10:00AM9:00PM, Sun:04-30 : 11:00AM5:00PM, Mon:05-01 : 10:00AM9:00PM",,,
zumiez Tanger Outlet Center,1205,"2200 Tanger Blvd., Ste 980",,Washington,PA,15301,United States,724-222-8149,,,"Tue:04-25 : 9:00AM9:00PM, Wed:04-26 : 9:00AM9:00PM, Thu:04-27 : 9:00AM9:00PM, Fri:04-28 : 9:00AM9:00PM, Sat:04-29 : 9:00AM9:00PM, Sun:04-30 : 10:00AM6:00PM, Mon:05-01 : 9:00AM9:00PM",,,
zumiez The Mall at Robinson,1167,"100 Robinson Centre Dr, Ste 2750",,Pittsburgh,PA,15205,United States,412-787-2439,,,"Tue:04-25 : 10:00AM9:00PM, Wed:04-26 : 10:00AM9:00PM, Thu:04-27 : 10:00AM9:00PM, Fri:04-28 : 10:00AM9:00PM, Sat:04-29 : 10:00AM9:00PM, Sun:04-30 : 11:00AM6:00PM, Mon:05-01 : 10:00AM9:00PM",,,
zumiez Grove City Prem.Outlets,1165,"1911 Leesburg Grove City, Ste 1245",,Grove City,PA,16127,United States,724-748-9684,,,"Tue:04-25 : 10:00AM9:00PM, Wed:04-26 : 10:00AM9:00PM, Thu:04-27 : 10:00AM9:00PM, Fri:04-28 : 10:00AM9:00PM, Sat:04-29 : 10:00AM9:00PM, Sun:04-30 : 10:00AM7:00PM, Mon:05-01 : 10:00AM9:00PM",,,
zumiez Capital City Mall,1278,"3506 Capital City Mall, Ste 631",,Camp Hill,PA,17011,United States,717-761-2496,,,"Tue:04-25 : 10:00AM9:00PM, Wed:04-26 : 10:00AM9:00PM, Thu:04-27 : 10:00AM9:00PM, Fri:04-28 : 10:00AM9:00PM, Sat:04-29 : 10:00AM9:00PM, Sun:04-30 : 11:00AM6:00PM, Mon:05-01 : 10:00AM9:00PM",,,
zumiez Viewmont Mall,1336,"100 Viewmont Mall, Ste 815",,Scranton,PA,18508,United States,570-344-1931,,,"Tue:04-25 : 10:00AM9:00PM, Wed:04-26 : 10:00AM9:00PM, Thu:04-27 : 10:00AM9:00PM, Fri:04-28 : 10:00AM9:00PM, Sat:04-29 : 10:00AM9:00PM, Sun:04-30 : 11:00AM6:00PM, Mon:05-01 : 10:00AM9:00PM",,,
zumiez Franklin Mills Mall,1049,1441 Franklin Mills Cir.,,Philadelphia,PA,19154,United States,215-637-0419,,,"Tue:04-25 : 10:00AM9:00PM, Wed:04-26 : 10:00AM9:00PM, Thu:04-27 : 10:00AM9:00PM, Fri:04-28 : 10:00AM9:00PM, Sat:04-29 : 10:00AM9:00PM, Sun:04-30 : 11:00AM7:00PM, Mon:05-01 : 10:00AM9:00PM",,,
zumiez Millcreek Mall,1143,5800 Peach St. Suite 260,,Erie,PA,16565,United States,814-866-1615,,,"Tue:04-25 : 10:00AM9:00PM, Wed:04-26 : 10:00AM9:00PM, Thu:04-27 : 10:00AM9:00PM, Fri:04-28 : 10:00AM9:00PM, Sat:04-29 : 10:00AM9:00PM, Sun:04-30 : 11:00AM6:00PM, Mon:05-01 : 10:00AM9:00PM",,,
zumiez Lehigh Valley Mall,1009,"152 Lehigh Valley Mall, Suite1005",,Whitehall,PA,18052,United States,610-264-2393,,,"Tue:04-25 : 10:00AM9:00PM, Wed:04-26 : 10:00AM9:00PM, Thu:04-27 : 10:00AM9:00PM, Fri:04-28 : 10:00AM9:00PM, Sat:04-29 : 10:00AM9:00PM, Sun:04-30 : 11:00AM6:00PM, Mon:05-01 : 10:00AM9:00PM",,,
zumiez Oxford Valley Mall,993,"2300 E Lincoln Hwy, Suite 2088",,Langhorn,PA,19047,United States,215-757-3951,,,"Tue:04-25 : 10:00AM9:00PM, Wed:04-26 : 10:00AM9:00PM, Thu:04-27 : 10:00AM9:00PM, Fri:04-28 : 10:00AM9:00PM, Sat:04-29 : 10:00AM9:00PM, Sun:04-30 : 11:00AM6:00PM, Mon:05-01 : 10:00AM9:00PM",,,
zumiez Philadelphia Premium Outlet,965,18 Lightcap Rd. Ste1067,,Pottstown,PA,19464,United States,610-323-5795,,,"Tue:04-25 : 10:00AM7:00PM, Wed:04-26 : 10:00AM7:00PM, Thu:04-27 : 10:00AM9:00PM, Fri:04-28 : 10:00AM9:00PM, Sat:04-29 : 10:00AM9:00PM, Sun:04-30 : 10:00AM7:00PM, Mon:05-01 : 10:00AM7:00PM",,,
zumiez Springfield Mall,1088,1250 Baltimore Pike,,Springfield,PA,19064,United States,610-604-3328,,,"Tue:04-25 : 10:00AM9:00PM, Wed:04-26 : 10:00AM9:00PM, Thu:04-27 : 10:00AM9:00PM, Fri:04-28 : 10:00AM9:00PM, Sat:04-29 : 10:00AM9:00PM, Sun:04-30 : 11:00AM6:00PM, Mon:05-01 : 10:00AM9:00PM",,,
zumiez Wyoming Valley Mall,942,"29 Wyoming Valley Mall, Spc 10 1/2",,Wilkes-Barre,PA,18702,United States,570-825-5683,,,"Tue:04-25 : 10:00AM9:00PM, Wed:04-26 : 10:00AM9:00PM, Thu:04-27 : 10:00AM9:00PM, Fri:04-28 : 10:00AM9:00PM, Sat:04-29 : 10:00AM9:00PM, Sun:04-30 : 11:00AM6:00PM, Mon:05-01 : 10:00AM9:00PM",,,
zumiez The Crossings Outlet,994,"1000 Premium Outlets Dr, Ste G15",,Tannersville,PA,18372,United States,570-629-3576,,,"Tue:04-25 : 10:00AM9:00PM, Wed:04-26 : 10:00AM9:00PM, Thu:04-27 : 10:00AM9:00PM, Fri:04-28 : 10:00AM9:00PM, Sat:04-29 : 10:00AM9:00PM, Sun:04-30 : 10:00AM8:00PM, Mon:05-01 : 10:00AM9:00PM",,,
zumiez King of Prussia Mall,932,"160 N Gulph Road, Suite 2046",,King of Prussia,PA,19406,United States,610-337-2379,,,"Tue:04-25 : 10:00AM9:30PM, Wed:04-26 : 10:00AM9:30PM, Thu:04-27 : 10:00AM9:30PM, Fri:04-28 : 10:00AM9:30PM, Sat:04-29 : 10:00AM9:30PM, Sun:04-30 : 11:00AM7:00PM, Mon:05-01 : 10:00AM9:30PM",,,
zumiez Park City Center,917,670 Park City Center,,Lancaster,PA,17601,United States,717-394-0567,,,"Tue:04-25 : 10:00AM9:00PM, Wed:04-26 : 10:00AM9:00PM, Thu:04-27 : 10:00AM9:00PM, Fri:04-28 : 10:00AM9:00PM, Sat:04-29 : 10:00AM9:00PM, Sun:04-30 : 11:00AM6:00PM, Mon:05-01 : 10:00AM9:00PM",,,
zumiez Westfield Montgomery Mall,933,"274 Montgomery Mall, Suite 2021",,North Wales,PA,19454,United States,215-855-3537,,,"Tue:04-25 : 10:00AM9:00PM, Wed:04-26 : 10:00AM9:00PM, Thu:04-27 : 10:00AM9:00PM, Fri:04-28 : 10:00AM9:00PM, Sat:04-29 : 10:00AM9:00PM, Sun:04-30 : 11:00AM6:00PM, Mon:05-01 : 10:00AM9:00PM",,,
zumiez Neshaminy Mall,916,707 Neshaminy Mall,,Bensalem,PA,19020,United States,215-953-2058,,,"Tue:04-25 : 10:00AM9:00PM, Wed:04-26 : 10:00AM9:00PM, Thu:04-27 : 10:00AM9:00PM, Fri:04-28 : 10:00AM9:00PM, Sat:04-29 : 10:00AM9:00PM, Sun:04-30 : 11:00AM6:00PM, Mon:05-01 : 10:00AM9:00PM",,,
zumiez Willow Grove Park Mall,910,"2500 Moreland Rd, Suite 1000B",,Willow Grove,PA,19090,United States,215-659-3572,,,"Tue:04-25 : 10:00AM9:30PM, Wed:04-26 : 10:00AM9:30PM, Thu:04-27 : 10:00AM9:30PM, Fri:04-28 : 10:00AM9:30PM, Sat:04-29 : 10:00AM9:30PM, Sun:04-30 : 11:00AM6:00PM, Mon:05-01 : 10:00AM9:30PM",,,
zumiez Exton Square Mall,905,"326 Exton Square Pkwy, Ste 326",,Exton,PA,19341,United States,610-363-1891,,,"Tue:04-25 : 10:00AM9:30PM, Wed:04-26 : 10:00AM9:30PM, Thu:04-27 : 10:00AM9:30PM, Fri:04-28 : 10:00AM9:30PM, Sat:04-29 : 10:00AM9:30PM, Sun:04-30 : 11:00AM6:00PM, Mon:05-01 : 10:00AM9:30PM",,,
zumiez Old Mill District,1200,450 SW Powerhouse Dr. Ste 405,,Bend,OR,97702,United States,541-389-1245,,,"Tue:04-25 : 10:00AM8:00PM, Wed:04-26 : 10:00AM8:00PM, Thu:04-27 : 10:00AM8:00PM, Fri:04-28 : 10:00AM8:00PM, Sat:04-29 : 10:00AM8:00PM, Sun:04-30 : 11:00AM6:00PM, Mon:05-01 : 10:00AM8:00PM",,,
zumiez Heritage Mall,1041,"2125 14th Ave SE, Spc C309",,Albany,OR,97322,United States,541-928-3014,,,"Tue:04-25 : 10:00AM9:00PM, Wed:04-26 : 10:00AM9:00PM, Thu:04-27 : 10:00AM9:00PM, Fri:04-28 : 10:00AM9:00PM, Sat:04-29 : 10:00AM9:00PM, Sun:04-30 : 11:00AM6:00PM, Mon:05-01 : 10:00AM9:00PM",,,
zumiez Tanger Outlets,893,1500 SE East Devils Lk Rd Ste C130,,Lincoln City,OR,97367,United States,541-557-1904,,,"Tue:04-25 : 10:00AM8:00PM, Wed:04-26 : 10:00AM8:00PM, Thu:04-27 : 10:00AM8:00PM, Fri:04-28 : 10:00AM8:00PM, Sat:04-29 : 10:00AM8:00PM, Sun:04-30 : 10:00AM6:00PM, Mon:05-01 : 10:00AM8:00PM",,,
zumiez Tanasbourne,854,"2275 NW Allie Ave, Ste 953",,Hillsboro,OR,97124,United States,503-466-2876,,,"Tue:04-25 : 10:00AM9:00PM, Wed:04-26 : 10:00AM9:00PM, Thu:04-27 : 10:00AM9:00PM, Fri:04-28 : 10:00AM9:00PM, Sat:04-29 : 10:00AM9:00PM, Sun:04-30 : 11:00AM6:00PM, Mon:05-01 : 10:00AM9:00PM",,,
zumiez Seaside Factory Outlet,850,"1111 N Roosevelt, Ste 326",,Seaside,OR,97138,United States,503-717-0128,,,"Tue:04-25 : 10:00AM6:00PM, Wed:04-26 : 10:00AM6:00PM, Thu:04-27 : 10:00AM6:00PM, Fri:04-28 : 10:00AM8:00PM, Sat:04-29 : 10:00AM8:00PM, Sun:04-30 : 10:00AM6:00PM, Mon:05-01 : 10:00AM6:00PM",,,
zumiez Salem Center,836,"401 Center St. NE, Ste 2287",,Salem,OR,97301,United States,503-364-6270,,,"Tue:04-25 : 10:00AM8:00PM, Wed:04-26 : 10:00AM8:00PM, Thu:04-27 : 10:00AM8:00PM, Fri:04-28 : 10:00AM8:00PM, Sat:04-29 : 10:00AM8:00PM, Sun:04-30 : 11:00AM6:00PM, Mon:05-01 : 10:00AM8:00PM",,,
zumiez Hulen Mall 308,1028,4800 S Hulen St. Ste 1330,,Fort Worth ,TX,76132,United States,817-263-0315,,,,,,
zumiez North East Mall,1020,886 North East Mall BLVD,,Hurst,TX,76053,United States,817-589-0998,,,,,,
zumiez Windhaven Plaza,1034,"3645 Dallas PKWY, #523",,Plano,TX,75093,United States,972-608-4160,,,,,,
zumiez Woodburn Premium Outlets,810,1001 Arney Rd. 629,,Woodburn,OR,97071,United States,503-981-0440,,,,,,
zumiez Gresham Station,806,617 NW 12th Street,,Gresham,OR,97030,United States,503-491-2280,,,,,,
zumiez Lloyd Center,758,"918 Lloyd Center, B118",,Portland,OR,97232,United States,503-282-9147,,,,,,
zumiez Shoppes At Montage,939,2441 Shoppes Blvd.,,Moosic,PA,18507,United States,570-343-4271,,,,,,
zumiez Washington Square,753,9493 SW Washington Square Rd. A3,,Tigard,OR,97223,United States,503-968-1780,,,,,,
zumiez Tanger Outlet Center,915,"311 Stanley K Tanger BLVD, #609",,Lancaster,PA,17602,United States,717-299-3681,,,,,,
zumiez Sooner Mall,1163,"3301 West Main St.,Ste 319",,Norman,OK,73072,United States,405-321-3290,,,"Tue:04-25 : 10:00AM9:00PM, Wed:04-26 : 10:00AM9:00PM, Thu:04-27 : 10:00AM9:00PM, Fri:04-28 : 10:00AM9:00PM, Sat:04-29 : 10:00AM9:00PM, Sun:04-30 : 12:00PM6:00PM, Mon:05-01 : 10:00AM9:00PM",,,
zumiez PORTLAND EXPO,1107,NOT A STORE LOCATION,,PORTLAND,OR,97217,United States,503-659-8996,,,,,,
zumiez Woodland Hills Mall,1030,"7021 S Memorial, Ste 140",,Tulsa,OK,74133,United States,918-459-2611,,,"Tue:04-25 : 10:00AM9:00PM, Wed:04-26 : 10:00AM9:00PM, Thu:04-27 : 10:00AM9:00PM, Fri:04-28 : 10:00AM9:00PM, Sat:04-29 : 10:00AM9:00PM, Sun:04-30 : 12:00PM7:00PM, Mon:05-01 : 10:00AM9:00PM",,,
zumiez Oklahoma Factory,1184,"7642 W Reno Ave, Ste 455",,Oklahoma City,OK,73128,United States,405-440-0253,,,"Tue:04-25 : 10:00AM9:00PM, Wed:04-26 : 10:00AM9:00PM, Thu:04-27 : 10:00AM9:00PM, Fri:04-28 : 10:00AM9:00PM, Sat:04-29 : 10:00AM9:00PM, Sun:04-30 : 11:00AM7:00PM, Mon:05-01 : 10:00AM9:00PM",,,
zumiez Penn Square Mall,1029,"1901 NW Expy, Ste 2090",,Oklahoma City,OK,73118,United States,405-810-8721,,,"Tue:04-25 : 10:00AM9:00PM, Wed:04-26 : 10:00AM9:00PM, Thu:04-27 : 10:00AM9:00PM, Fri:04-28 : 10:00AM9:00PM, Sat:04-29 : 10:00AM9:00PM, Sun:04-30 : 12:00PM6:00PM, Mon:05-01 : 10:00AM9:00PM",,,
zumiez Quail Springs Mall,1170,"2501 West Memorial Rd.,Ste 240",,Oklahoma City,OK,73134,United States,405-749-1687,,,"Tue:04-25 : 10:00AM9:00PM, Wed:04-26 : 10:00AM9:00PM, Thu:04-27 : 10:00AM9:00PM, Fri:04-28 : 10:00AM9:00PM, Sat:04-29 : 10:00AM9:00PM, Sun:04-30 : 12:00PM6:00PM, Mon:05-01 : 10:00AM9:00PM",,,
zumiez Southern Park Mall,1369,7401 Market Street Ste 725,,Youngstown,OH,44512,United States,330-965-1648,,,"Tue:04-25 : 10:00AM9:00PM, Wed:04-26 : 10:00AM9:00PM, Thu:04-27 : 10:00AM9:00PM, Fri:04-28 : 10:00AM9:00PM, Sat:04-29 : 10:00AM9:00PM, Sun:04-30 : 11:00AM6:00PM, Mon:05-01 : 10:00AM9:00PM",,,
zumiez Rogue Valley Mall,745,"1600 Riverside Ave, Ste 1033",,Medford,OR,97501,United States,541-857-2959,,,,,,
zumiez Great Northern Mall,1370,590 Great Northern Mall,,North Olmstead,OH,44070,United States,440-779-6115,,,"Tue:04-25 : 10:00AM9:00PM, Wed:04-26 : 10:00AM9:00PM, Thu:04-27 : 10:00AM9:00PM, Fri:04-28 : 10:00AM9:00PM, Sat:04-29 : 10:00AM9:00PM, Sun:04-30 : 11:00AM6:00PM, Mon:05-01 : 10:00AM9:00PM",,,
zumiez Easton Town Center,1326,"100 Easton Town Center, Ste C-108",,Columbus,OH,43219,United States,614-418-9041,,,"Tue:04-25 : 10:00AM10:00PM, Wed:04-26 : 10:00AM10:00PM, Thu:04-27 : 10:00AM10:00PM, Fri:04-28 : 10:00AM10:00PM, Sat:04-29 : 10:00AM10:00PM, Sun:04-30 : 12:00PM6:00PM, Mon:05-01 : 10:00AM10:00PM",,,
zumiez Kenwood Town Centre,1313,"7875 Montgomery Road,Ste 1119",,Cincinnati,OH,45236,United States,513-745-0667,,,"Tue:04-25 : 10:00AM9:00PM, Wed:04-26 : 10:00AM9:00PM, Thu:04-27 : 10:00AM9:00PM, Fri:04-28 : 10:00AM9:00PM, Sat:04-29 : 10:00AM9:00PM, Sun:04-30 : 12:00PM6:00PM, Mon:05-01 : 10:00AM9:00PM",,,
zumiez Dayton Mall,1297,2700 Maimisburg-Centerville Ste330,,Dayton,OH,45459,United States,937-432-9401,,,"Tue:04-25 : 10:00AM9:00PM, Wed:04-26 : 10:00AM9:00PM, Thu:04-27 : 10:00AM9:00PM, Fri:04-28 : 10:00AM9:00PM, Sat:04-29 : 10:00AM9:00PM, Sun:04-30 : 12:00PM6:00PM, Mon:05-01 : 10:00AM9:00PM",,,
zumiez Central Mall,1084,200 Southwest C Ave,,Lawton,OK,73501,United States,580-581-0637,,,"Tue:04-25 : 10:00AM9:00PM, Wed:04-26 : 10:00AM9:00PM, Thu:04-27 : 10:00AM9:00PM, Fri:04-28 : 10:00AM9:00PM, Sat:04-29 : 10:00AM9:00PM, Sun:04-30 : 12:00PM6:00PM, Mon:05-01 : 10:00AM9:00PM",,,
zumiez Liberty Center,1356,7100 Foundry Row Ste S128,,Liberty Township,OH,45069,United States,513-755-2536,,,"Tue:04-25 : 10:00AM9:00PM, Wed:04-26 : 10:00AM9:00PM, Thu:04-27 : 10:00AM9:00PM, Fri:04-28 : 10:00AM10:00PM, Sat:04-29 : 10:00AM10:00PM, Sun:04-30 : 12:00PM6:00PM, Mon:05-01 : 10:00AM9:00PM",,,
zumiez Mall at Fairfield,1304,"2727 Fairfield Commons, Ste E249",,Beavercreek,OH,45434,United States,937-429-1292,,,"Tue:04-25 : 10:00AM9:00PM, Wed:04-26 : 10:00AM9:00PM, Thu:04-27 : 10:00AM9:00PM, Fri:04-28 : 10:00AM9:00PM, Sat:04-29 : 10:00AM9:00PM, Sun:04-30 : 12:00PM6:00PM, Mon:05-01 : 10:00AM9:00PM",,,
zumiez Valley River Center,744,"420 Valley River Center, Ste F005",,Eugene,OR,97401,United States,541-465-9159,,,,,,
zumiez South Park Mall,1351,920 South Park Center,,Strongsville,OH,44136,United States,440-238-5286,,,"Tue:04-25 : 10:00AM9:00PM, Wed:04-26 : 10:00AM9:00PM, Thu:04-27 : 10:00AM9:00PM, Fri:04-28 : 10:00AM9:00PM, Sat:04-29 : 10:00AM9:00PM, Sun:04-30 : 11:00AM6:00PM, Mon:05-01 : 10:00AM9:00PM",,,
zumiez Tuttle Crossing,1248,5043 Tuttle Crossing Blvd Ste162,,Dublin,OH,43016,United States,614-798-2018,,,"Tue:04-25 : 10:00AM9:00PM, Wed:04-26 : 10:00AM9:00PM, Thu:04-27 : 10:00AM9:00PM, Fri:04-28 : 10:00AM9:00PM, Sat:04-29 : 10:00AM9:00PM, Sun:04-30 : 11:00AM6:00PM, Mon:05-01 : 10:00AM9:00PM",,,
zumiez Polaris Fashion Place,1272,"1500 Polaris Pkwy, Ste 1126",,Columbus,OH,43240,United States,614-781-6099,,,"Tue:04-25 : 10:00AM9:00PM, Wed:04-26 : 10:00AM9:00PM, Thu:04-27 : 10:00AM9:00PM, Fri:04-28 : 10:00AM9:00PM, Sat:04-29 : 10:00AM9:00PM, Sun:04-30 : 12:00PM6:00PM, Mon:05-01 : 10:00AM9:00PM",,,
zumiez Kirkwood Mall,1349,"877 Kirkwood Mall, Ste. 420",,Bismarck,ND,58504,United States,701-223-6036,,,"Tue:04-25 : 10:00AM9:00PM, Wed:04-26 : 10:00AM9:00PM, Thu:04-27 : 10:00AM9:00PM, Fri:04-28 : 10:00AM9:00PM, Sat:04-29 : 10:00AM7:00PM, Sun:04-30 : 12:00PM6:00PM, Mon:05-01 : 10:00AM9:00PM",,,
zumiez Greenville Mall,1377,714 S.E. Greenville Blvd.Ste 042,,Greenville,NC,27858,United States,252-353-0569,,,"Tue:04-25 : 10:00AM9:00PM, Wed:04-26 : 10:00AM9:00PM, Thu:04-27 : 10:00AM9:00PM, Fri:04-28 : 10:00AM9:00PM, Sat:04-29 : 10:00AM9:00PM, Sun:04-30 : 12:00PM6:00PM, Mon:05-01 : 10:00AM9:00PM",,,
zumiez Westfield Franklin Park,1229,"5001 Monroe St.,Ste 1070",,Toledo,OH,43623,United States,419-474-6035,,,"Tue:04-25 : 10:00AM9:00PM, Wed:04-26 : 10:00AM9:00PM, Thu:04-27 : 10:00AM9:00PM, Fri:04-28 : 10:00AM9:00PM, Sat:04-29 : 10:00AM9:00PM, Sun:04-30 : 11:00AM6:00PM, Mon:05-01 : 10:00AM9:00PM",,,
zumiez Asheville Mall,1333,3 South Tunnel Rd.Ste 123C,,Asheville,NC,28805,United States,828-296-7514,,,"Tue:04-25 : 10:00AM9:00PM, Wed:04-26 : 10:00AM9:00PM, Thu:04-27 : 10:00AM9:00PM, Fri:04-28 : 10:00AM9:00PM, Sat:04-29 : 10:00AM9:00PM, Sun:04-30 : 12:00PM6:00PM, Mon:05-01 : 10:00AM9:00PM",,,
zumiez Columbia Mall,1345,2800 S. Columbia Rd. Ste 325,,Grand Forks,ND,58201,United States,701-775-1007,,,"Tue:04-25 : 10:00AM9:00PM, Wed:04-26 : 10:00AM9:00PM, Thu:04-27 : 10:00AM9:00PM, Fri:04-28 : 10:00AM9:00PM, Sat:04-29 : 10:00AM9:00PM, Sun:04-30 : 12:00PM6:00PM, Mon:05-01 : 10:00AM9:00PM",,,
zumiez Belden Village,1286,4230 Belden Village Mall Ste C15,,Canton,OH,44718,United States,330-494-2078,,,"Tue:04-25 : 10:00AM9:00PM, Wed:04-26 : 10:00AM9:00PM, Thu:04-27 : 10:00AM9:00PM, Fri:04-28 : 10:00AM9:00PM, Sat:04-29 : 10:00AM9:00PM, Sun:04-30 : 11:00AM6:00PM, Mon:05-01 : 10:00AM9:00PM",,,
zumiez Clackamas Town Center,738,"12000 SE 82nd Ave,Ste 2185",,Happy Valley,OR,97086,United States,503-659-8996,,,,,,
zumiez Northlake Mall,1245,"6801 Northlake Mall Dr., Ste 122A",,Charlotte,NC,28216,United States,704-596-5866,,,"Tue:04-25 : 10:00AM9:00PM, Wed:04-26 : 10:00AM9:00PM, Thu:04-27 : 10:00AM9:00PM, Fri:04-28 : 10:00AM9:00PM, Sat:04-29 : 10:00AM9:00PM, Sun:04-30 : 12:00PM6:00PM, Mon:05-01 : 10:00AM9:00PM",,,
zumiez Street at Southpoint,1220,"6910 Fayetteville Rd., Ste 280",,Durham,NC,27713,United States,919-248-0749,,,"Tue:04-25 : 10:00AM9:00PM, Wed:04-26 : 10:00AM9:00PM, Thu:04-27 : 10:00AM9:00PM, Fri:04-28 : 10:00AM9:00PM, Sat:04-29 : 10:00AM9:00PM, Sun:04-30 : 12:00PM7:00PM, Mon:05-01 : 10:00AM9:00PM",,,
zumiez Dakota Square Mall,1303,"2400 10th St SW, Ste 212",,Minot,ND,58701,United States,701-852-3464,,,"Tue:04-25 : 10:00AM9:00PM, Wed:04-26 : 10:00AM9:00PM, Thu:04-27 : 10:00AM9:00PM, Fri:04-28 : 10:00AM9:00PM, Sat:04-29 : 10:00AM7:00PM, Sun:04-30 : 12:00PM6:00PM, Mon:05-01 : 10:00AM9:00PM",,,
zumiez Summit Mall,1224,"3265 W Market St, Ste 444A",,Akron,OH,44333,United States,330-835-4204,,,"Tue:04-25 : 10:00AM9:00PM, Wed:04-26 : 10:00AM9:00PM, Thu:04-27 : 10:00AM9:00PM, Fri:04-28 : 10:00AM9:00PM, Sat:04-29 : 10:00AM9:00PM, Sun:04-30 : 11:00AM6:00PM, Mon:05-01 : 10:00AM9:00PM",,,
zumiez Crabtree Valley Mall,1308,4325 Glennwood Ave Ste 2065,,Raleigh,NC,27612,United States,919-881-1468,,,"Tue:04-25 : 10:00AM9:00PM, Wed:04-26 : 10:00AM9:00PM, Thu:04-27 : 10:00AM9:00PM, Fri:04-28 : 10:00AM9:00PM, Sat:04-29 : 10:00AM9:00PM, Sun:04-30 : 11:00AM7:00PM, Mon:05-01 : 10:00AM9:00PM",,,
zumiez Jacksonville Mall,1216,"347 Jacksonville Mall, Ste G001",,Jacksonville,NC,28546,United States,910-577-0076,,,"Tue:04-25 : 10:00AM9:00PM, Wed:04-26 : 10:00AM9:00PM, Thu:04-27 : 10:00AM9:00PM, Fri:04-28 : 10:00AM9:00PM, Sat:04-29 : 10:00AM9:00PM, Sun:04-30 : 12:00PM6:00PM, Mon:05-01 : 10:00AM9:00PM",,,
zumiez Hanes Mall,1195,"3320 Silas Creek Pkwy, Ste DL346",,Winston-Salem,NC,27103,United States,336-760-8835,,,"Tue:04-25 : 10:00AM9:00PM, Wed:04-26 : 10:00AM9:00PM, Thu:04-27 : 10:00AM9:00PM, Fri:04-28 : 10:00AM9:00PM, Sat:04-29 : 10:00AM9:00PM, Sun:04-30 : 12:00PM6:00PM, Mon:05-01 : 10:00AM9:00PM",,,
zumiez Valley Hills Mall,1350,"1960 Hwy 70 SE, Ste 254",,Hickory,NC,28602,United States,828-324-0244,,,"Tue:04-25 : 10:00AM9:00PM, Wed:04-26 : 10:00AM9:00PM, Thu:04-27 : 10:00AM9:00PM, Fri:04-28 : 10:00AM9:00PM, Sat:04-29 : 10:00AM9:00PM, Sun:04-30 : 12:00PM6:00PM, Mon:05-01 : 10:00AM9:00PM",,,
zumiez Charlotte Premium,1310,"5518 New Fashion Way, Ste 535",,Charlotte,NC,28278,United States,704-588-2170,,,"Tue:04-25 : 10:00AM9:00PM, Wed:04-26 : 10:00AM9:00PM, Thu:04-27 : 10:00AM9:00PM, Fri:04-28 : 10:00AM9:00PM, Sat:04-29 : 10:00AM9:00PM, Sun:04-30 : 10:00AM7:00PM, Mon:05-01 : 10:00AM9:00PM",,,
zumiez Concord Mills,1132,"8111 Concord Mills Blvd, Ste 231",,Concord,NC,28027,United States,704-979-8105,,,"Tue:04-25 : 10:00AM9:00PM, Wed:04-26 : 10:00AM9:00PM, Thu:04-27 : 10:00AM9:00PM, Fri:04-28 : 10:00AM9:00PM, Sat:04-29 : 10:00AM9:00PM, Sun:04-30 : 12:00PM7:00PM, Mon:05-01 : 10:00AM9:00PM",,,
zumiez Fulton Street,1380,425 Fulton Street,,Brooklyn,NY,11201,United States,718-624-2125,,,"Tue:04-25 : 10:00AM9:00PM, Wed:04-26 : 10:00AM9:00PM, Thu:04-27 : 10:00AM9:00PM, Fri:04-28 : 10:00AM9:00PM, Sat:04-29 : 10:00AM9:00PM, Sun:04-30 : 11:00AM8:00PM, Mon:05-01 : 10:00AM9:00PM",,,
zumiez Kings Plaza,1368,5353 Kings Plaza Ste 2248A,,Brooklyn,NY,11234,United States,718-253-1584,,,"Tue:04-25 : 10:00AM10:00PM, Wed:04-26 : 10:00AM10:00PM, Thu:04-27 : 10:00AM10:00PM, Fri:04-28 : 10:00AM10:00PM, Sat:04-29 : 10:00AM10:00PM, Sun:04-30 : 11:00AM8:00PM, Mon:05-01 : 10:00AM10:00PM",,,
zumiez Four Seasons,1232,207 Four Seasons Town Ctr.,,Greensboro,NC,27427,United States,336-852-8382,,,"Tue:04-25 : 10:00AM9:00PM, Wed:04-26 : 10:00AM9:00PM, Thu:04-27 : 10:00AM9:00PM, Fri:04-28 : 10:00AM9:00PM, Sat:04-29 : 10:00AM9:00PM, Sun:04-30 : 12:00PM7:00PM, Mon:05-01 : 10:00AM9:00PM",,,
zumiez Mall at Bay Plaza,1314,"200 Baychester Ave, Ste 204C",,Bronx,NY,10475,United States,718-320-5304,,,"Tue:04-25 : 10:00AM10:00PM, Wed:04-26 : 10:00AM10:00PM, Thu:04-27 : 10:00AM10:00PM, Fri:04-28 : 10:00AM10:00PM, Sat:04-29 : 10:00AM10:00PM, Sun:04-30 : 12:00PM6:00PM, Mon:05-01 : 10:00AM10:00PM",,,
zumiez Galleria at White Plains,1271,100 Main Street Ste 453,,White Plains,NY,10601,United States,914-421-5097,,,"Tue:04-25 : 10:00AM9:00PM, Wed:04-26 : 10:00AM9:00PM, Thu:04-27 : 10:00AM9:00PM, Fri:04-28 : 10:00AM9:00PM, Sat:04-29 : 10:00AM9:00PM, Sun:04-30 : 11:00AM6:00PM, Mon:05-01 : 10:00AM9:00PM",,,
zumiez Cross Creek Mall,1174,133 Cross Creek Mall,,Fayetteville,NC,28303,United States,910-867-9752,,,"Tue:04-25 : 10:00AM9:00PM, Wed:04-26 : 10:00AM9:00PM, Thu:04-27 : 10:00AM9:00PM, Fri:04-28 : 10:00AM9:00PM, Sat:04-29 : 10:00AM9:00PM, Sun:04-30 : 12:00PM6:00PM, Mon:05-01 : 10:00AM9:00PM",,,
zumiez Carolina Place Mall,1139,11025 Carolina PL PKWY Ste D-09,,Pineville,NC,28134,United States,704-543-2271,,,"Tue:04-25 : 10:00AM9:00PM, Wed:04-26 : 10:00AM9:00PM, Thu:04-27 : 10:00AM9:00PM, Fri:04-28 : 10:00AM9:00PM, Sat:04-29 : 10:00AM9:00PM, Sun:04-30 : 12:00PM6:00PM, Mon:05-01 : 10:00AM9:00PM",,,
zumiez Westfield Sunrise,971,2060 Sunrise Mall,,Massapequa,NY,11758,United States,516-795-2567,,,"Tue:04-25 : 10:00AM9:30PM, Wed:04-26 : 10:00AM9:30PM, Thu:04-27 : 10:00AM9:30PM, Fri:04-28 : 10:00AM9:30PM, Sat:04-29 : 10:00AM9:30PM, Sun:04-30 : 11:00AM6:00PM, Mon:05-01 : 10:00AM9:30PM",,,
zumiez Eastview Mall,955,672 Eastview Mall Ste 160A,,Victor,NY,14564,United States,585-425-8720,,,"Tue:04-25 : 10:00AM9:30PM, Wed:04-26 : 10:00AM9:30PM, Thu:04-27 : 10:00AM9:30PM, Fri:04-28 : 10:00AM9:30PM, Sat:04-29 : 10:00AM9:30PM, Sun:04-30 : 11:00AM6:00PM, Mon:05-01 : 10:00AM9:30PM",,,
zumiez Staten Island,1011,"2655 Richmond Ave,Ste 2320",,Staten Island,NY,10314,United States,718-698-1365,,,"Tue:04-25 : 10:00AM9:00PM, Wed:04-26 : 10:00AM9:00PM, Thu:04-27 : 10:00AM9:00PM, Fri:04-28 : 10:00AM9:00PM, Sat:04-29 : 10:00AM9:00PM, Sun:04-30 : 11:00AM6:00PM, Mon:05-01 : 10:00AM9:00PM",,,
zumiez Queens Center,1203,90-15 Queens Blvd.Ste 3028,,Elmhurst,NY,11373,United States,718-271-6728,,,"Tue:04-25 : 10:00AM9:30PM, Wed:04-26 : 10:00AM9:30PM, Thu:04-27 : 10:00AM9:30PM, Fri:04-28 : 10:00AM9:30PM, Sat:04-29 : 10:00AM9:30PM, Sun:04-30 : 11:00AM8:00PM, Mon:05-01 : 10:00AM9:30PM",,,
zumiez 15 West 34th Street,1289,15 West 34th Street,,New York,NY,10001,United States,212-967-4325,,,"Tue:04-25 : 10:00AM10:00PM, Wed:04-26 : 10:00AM10:00PM, Thu:04-27 : 10:00AM10:00PM, Fri:04-28 : 10:00AM10:00PM, Sat:04-29 : 10:00AM10:00PM, Sun:04-30 : 10:00AM10:00PM, Mon:05-01 : 10:00AM10:00PM",,,
zumiez Boulevard Mall,1276,"730 Alberta Drive, Ste 455",,Amherst ,NY,14226,United States,716-837-2159,,,"Tue:04-25 : 10:00AM9:00PM, Wed:04-26 : 10:00AM9:00PM, Thu:04-27 : 10:00AM9:00PM, Fri:04-28 : 10:00AM9:00PM, Sat:04-29 : 10:00AM9:00PM, Sun:04-30 : 11:00AM6:00PM, Mon:05-01 : 10:00AM9:00PM",,,
zumiez South Shore,902,1701 Sunrise Hwy. Ste N27,,Bay Shore,NY,11706,United States,631-968-0975,,,"Tue:04-25 : 10:00AM9:30PM, Wed:04-26 : 10:00AM9:30PM, Thu:04-27 : 10:00AM9:30PM, Fri:04-28 : 10:00AM9:30PM, Sat:04-29 : 10:00AM9:30PM, Sun:04-30 : 11:00AM6:00PM, Mon:05-01 : 10:00AM9:30PM",,,
zumiez Shops at Ithaca Mall,948,40 Catherwood Rd. Suite 60A,,Ithaca,NY,14850,United States,607-257-0812,,,"Tue:04-25 : 10:00AM9:00PM, Wed:04-26 : 10:00AM9:00PM, Thu:04-27 : 10:00AM9:00PM, Fri:04-28 : 10:00AM9:00PM, Sat:04-29 : 10:00AM9:00PM, Sun:04-30 : 11:00AM6:00PM, Mon:05-01 : 10:00AM9:00PM",,,
zumiez Oakdale Mall,885,"601-635 Harry L Drive, Suite 94",,Johnson City,NY,13790,United States,607-729-5186,,,"Tue:04-25 : 10:00AM9:00PM, Wed:04-26 : 10:00AM9:00PM, Thu:04-27 : 10:00AM9:00PM, Fri:04-28 : 10:00AM9:00PM, Sat:04-29 : 10:00AM9:00PM, Sun:04-30 : 11:00AM7:00PM, Mon:05-01 : 10:00AM9:00PM",,,
zumiez 840 Broadway,1239,840 North Broadway,,New York,NY,10003,United States,212-260-3605,,,"Tue:04-25 : 10:00AM10:00PM, Wed:04-26 : 10:00AM10:00PM, Thu:04-27 : 10:00AM10:00PM, Fri:04-28 : 10:00AM10:00PM, Sat:04-29 : 10:00AM10:00PM, Sun:04-30 : 10:00AM8:00PM, Mon:05-01 : 10:00AM10:00PM",,,
zumiez Roosevelt Field,954,"630 Old Country Road, Suite 2007",,Gardern City,NY,11530,United States,516-739-1895,,,"Tue:04-25 : 10:00AM9:30PM, Wed:04-26 : 10:00AM9:30PM, Thu:04-27 : 10:00AM9:30PM, Fri:04-28 : 10:00AM9:30PM, Sat:04-29 : 10:00AM9:30PM, Sun:04-30 : 11:00AM7:00PM, Mon:05-01 : 10:00AM9:30PM",,,
zumiez Smith Haven,937,"313 Smith Haven Mall, Ste C03",,Lake Grove,NY,11755,United States,631-724-3915,,,"Tue:04-25 : 10:00AM9:30PM, Wed:04-26 : 10:00AM9:30PM, Thu:04-27 : 10:00AM9:30PM, Fri:04-28 : 10:00AM9:30PM, Sat:04-29 : 10:00AM9:30PM, Sun:04-30 : 11:00AM7:00PM, Mon:05-01 : 10:00AM9:30PM",,,
zumiez Tanger Factory Outlet,871,Suite 1311 Tanger Mall Dr.,,Riverhead,NY,11901,United States,631-208-1249,,,"Tue:04-25 : 9:00AM9:00PM, Wed:04-26 : 9:00AM9:00PM, Thu:04-27 : 9:00AM9:00PM, Fri:04-28 : 9:00AM9:00PM, Sat:04-29 : 9:00AM9:00PM, Sun:04-30 : 10:00AM8:00PM, Mon:05-01 : 9:00AM9:00PM",,,
zumiez Waterloo Outlet,888,655 Route 318,,Waterloo,NY,13165,United States,315-539-2092,,,"Tue:04-25 : 10:00AM7:00PM, Wed:04-26 : 10:00AM7:00PM, Thu:04-27 : 10:00AM7:00PM, Fri:04-28 : 10:00AM9:00PM, Sat:04-29 : 10:00AM9:00PM, Sun:04-30 : 10:00AM6:00PM, Mon:05-01 : 10:00AM7:00PM",,,
zumiez Outlets of Niagara Falls,882,"1900 Military Rd, Suite 102",,Niagara Falls,NY,14304,United States,716-297-1389,,,"Tue:04-25 : 10:00AM9:00PM, Wed:04-26 : 10:00AM9:00PM, Thu:04-27 : 10:00AM9:00PM, Fri:04-28 : 10:00AM9:00PM, Sat:04-29 : 10:00AM9:00PM, Sun:04-30 : 11:00AM6:00PM, Mon:05-01 : 10:00AM9:00PM",,,
zumiez McKinley Mall,875,3701 McKinley Pkwy,,Buffalo,NY,14219,United States,716-823-0718,,,"Tue:04-25 : 10:00AM9:00PM, Wed:04-26 : 10:00AM9:00PM, Thu:04-27 : 10:00AM9:00PM, Fri:04-28 : 10:00AM9:00PM, Sat:04-29 : 10:00AM9:00PM, Sun:04-30 : 11:00AM6:00PM, Mon:05-01 : 10:00AM9:00PM",,,
zumiez The Marketplace Mall,815,700 Miracle Mile Dr,,Rochester,NY,14623,United States,585-427-2810,,,"Tue:04-25 : 10:00AM9:30PM, Wed:04-26 : 10:00AM9:30PM, Thu:04-27 : 10:00AM9:30PM, Fri:04-28 : 10:00AM9:30PM, Sat:04-29 : 10:00AM9:30PM, Sun:04-30 : 11:00AM6:00PM, Mon:05-01 : 10:00AM9:30PM",,,
zumiez Broadway Mall,874,"358 Broadway Mall, Ste 463",,Hicksville,NY,11801,United States,516-933-7195,,,"Tue:04-25 : 10:00AM9:30PM, Wed:04-26 : 10:00AM9:30PM, Thu:04-27 : 10:00AM9:30PM, Fri:04-28 : 10:00AM9:30PM, Sat:04-29 : 10:00AM9:30PM, Sun:04-30 : 11:00AM7:00PM, Mon:05-01 : 10:00AM9:30PM",,,
zumiez Destiny USA,807,"9564 Destiny USA Dr, E105",,Syracuse,NY,13290,United States,315-466-0166,,,"Tue:04-25 : 10:00AM9:30PM, Wed:04-26 : 10:00AM9:30PM, Thu:04-27 : 10:00AM9:30PM, Fri:04-28 : 10:00AM9:30PM, Sat:04-29 : 10:00AM9:30PM, Sun:04-30 : 11:00AM6:00PM, Mon:05-01 : 10:00AM9:30PM",,,
zumiez Hudson Valley Mall,802,"1300 Ulster Ave, 246",,Kingston,NY,12401,United States,845-336-3382,,,"Tue:04-25 : 10:00AM9:00PM, Wed:04-26 : 10:00AM9:00PM, Thu:04-27 : 10:00AM9:00PM, Fri:04-28 : 10:00AM9:00PM, Sat:04-29 : 10:00AM9:00PM, Sun:04-30 : 11:00AM6:00PM, Mon:05-01 : 10:00AM9:00PM",,,
zumiez Sangertown Square,803,"Routes 5 & 5A, R12",,New Hartford,NY,13413,United States,315-266-0612,,,"Tue:04-25 : 10:00AM9:30PM, Wed:04-26 : 10:00AM9:30PM, Thu:04-27 : 10:00AM9:30PM, Fri:04-28 : 10:00AM9:30PM, Sat:04-29 : 10:00AM9:30PM, Sun:04-30 : 11:00AM6:00PM, Mon:05-01 : 10:00AM9:30PM",,,
zumiez Greece Ridge,801,454 Greece Ridge Center Dr,,Rochester,NY,14626,United States,585-720-1570,,,"Tue:04-25 : 10:00AM9:30PM, Wed:04-26 : 10:00AM9:30PM, Thu:04-27 : 10:00AM9:30PM, Fri:04-28 : 10:00AM9:30PM, Sat:04-29 : 10:00AM9:30PM, Sun:04-30 : 11:00AM6:00PM, Mon:05-01 : 10:00AM9:30PM",,,
zumiez Walden Galleria,805,"1 Walden Galleria, G208",,Buffalo,NY,14225,United States,716-651-0438,,,"Tue:04-25 : 10:00AM9:30PM, Wed:04-26 : 10:00AM9:30PM, Thu:04-27 : 10:00AM9:30PM, Fri:04-28 : 10:00AM9:30PM, Sat:04-29 : 10:00AM9:30PM, Sun:04-30 : 10:00AM7:00PM, Mon:05-01 : 10:00AM9:30PM",,,
zumiez Salmon Run Mall,804,21182 Salmon Run Mall Loop W. A111,,Watertown,NY,13601,United States,315-779-1255,,,"Tue:04-25 : 9:30AM9:00PM, Wed:04-26 : 9:30AM9:00PM, Thu:04-27 : 9:30AM9:00PM, Fri:04-28 : 9:30AM9:00PM, Sat:04-29 : 9:30AM9:00PM, Sun:04-30 : 11:00AM6:00PM, Mon:05-01 : 9:30AM9:00PM",,,
zumiez Crossgates Mall,799,1 Crossgates Mall Rd. C115,,Albany,NY,12203,United States,518-218-0818,,,"Tue:04-25 : 10:00AM9:30PM, Wed:04-26 : 10:00AM9:30PM, Thu:04-27 : 10:00AM9:30PM, Fri:04-28 : 10:00AM9:30PM, Sat:04-29 : 10:00AM9:30PM, Sun:04-30 : 11:00AM6:00PM, Mon:05-01 : 10:00AM9:30PM",,,
zumiez Poughkeepsie Galleria,798,2001 South Rd.D215,,Poughkeepsie,NY,12601,United States,845-298-8210,,,"Tue:04-25 : 10:00AM9:30PM, Wed:04-26 : 10:00AM9:30PM, Thu:04-27 : 10:00AM9:30PM, Fri:04-28 : 10:00AM9:30PM, Sat:04-29 : 10:00AM9:30PM, Sun:04-30 : 11:00AM6:00PM, Mon:05-01 : 10:00AM9:30PM",,,
zumiez Galleria at Crystal Run,793,1 Galleria Dr Ste 115,,Middletown,NY,10941,United States,845-692-6165,,,"Tue:04-25 : 10:00AM9:30PM, Wed:04-26 : 10:00AM9:30PM, Thu:04-27 : 10:00AM9:30PM, Fri:04-28 : 10:00AM9:30PM, Sat:04-29 : 10:00AM9:30PM, Sun:04-30 : 11:00AM6:00PM, Mon:05-01 : 10:00AM9:30PM",,,
zumiez Aviation Mall,792,578 Aviation RD,,Queensbury,NY,12804,United States,518-761-9443,,,"Tue:04-25 : 9:30AM9:00PM, Wed:04-26 : 9:30AM9:00PM, Thu:04-27 : 9:30AM9:00PM, Fri:04-28 : 9:30AM9:00PM, Sat:04-29 : 9:30AM9:00PM, Sun:04-30 : 11:00AM6:00PM, Mon:05-01 : 9:30AM9:00PM",,,
zumiez Palisades Center,791,3450 Palisades Dr G303,,West Nyack,NY,10994,United States,845-348-5417,,,"Tue:04-25 : 10:00AM9:30PM, Wed:04-26 : 10:00AM9:30PM, Thu:04-27 : 10:00AM9:30PM, Fri:04-28 : 10:00AM9:30PM, Sat:04-29 : 10:00AM9:30PM, Sun:04-30 : 11:00AM7:00PM, Mon:05-01 : 10:00AM9:30PM",,,
zumiez Wilton Mall,731,"3065 Route 50,  FC-10",,Saratoga Springs,NY,12866,United States,518-580-8945,,,"Tue:04-25 : 10:00AM9:30PM, Wed:04-26 : 10:00AM9:30PM, Thu:04-27 : 10:00AM9:30PM, Fri:04-28 : 10:00AM9:30PM, Sat:04-29 : 10:00AM9:30PM, Sun:04-30 : 11:00AM6:00PM, Mon:05-01 : 10:00AM9:30PM",,,
zumiez Cottonwood Mall,1058,10000 Coors Blvd. Suite E233,,Albuquerque,NM,87114,United States,505-890-4034,,,"Tue:04-25 : 10:00AM9:00PM, Wed:04-26 : 10:00AM9:00PM, Thu:04-27 : 10:00AM9:00PM, Fri:04-28 : 10:00AM9:00PM, Sat:04-29 : 10:00AM9:00PM, Sun:04-30 : 11:00AM6:00PM, Mon:05-01 : 10:00AM9:00PM",,,
zumiez Mesilla Valley Mall,855,"700 S Telshor Blvd, Ste1510",,Las Cruces,NM,88011,United States,575-532-0942,,,"Tue:04-25 : 10:00AM9:00PM, Wed:04-26 : 10:00AM9:00PM, Thu:04-27 : 10:00AM9:00PM, Fri:04-28 : 10:00AM9:00PM, Sat:04-29 : 10:00AM9:00PM, Sun:04-30 : 12:00PM6:00PM, Mon:05-01 : 10:00AM9:00PM",,,
zumiez Animas Valley Mall,841,"4601 E Main St, Ste 730",,Farmington,NM,87402,United States,505-325-6738,,,"Tue:04-25 : 10:00AM9:00PM, Wed:04-26 : 10:00AM9:00PM, Thu:04-27 : 10:00AM9:00PM, Fri:04-28 : 10:00AM9:00PM, Sat:04-29 : 10:00AM9:00PM, Sun:04-30 : 12:00PM6:00PM, Mon:05-01 : 10:00AM9:00PM",,,
zumiez Sante Fe Place,840,4250 Cerrillos Rd. Ste 1166,,Sante Fe,NM,87505,United States,505-438-0753,,,"Tue:04-25 : 10:00AM9:00PM, Wed:04-26 : 10:00AM9:00PM, Thu:04-27 : 10:00AM9:00PM, Fri:04-28 : 10:00AM9:00PM, Sat:04-29 : 10:00AM9:00PM, Sun:04-30 : 12:00PM6:00PM, Mon:05-01 : 10:00AM9:00PM",,,
zumiez Menlo Park,1324,"55 Parsonage Rd.,Ste 1228B",,Edison Township,NJ,08837,United States,732-205-1582,,,"Tue:04-25 : 10:00AM9:30PM, Wed:04-26 : 10:00AM9:30PM, Thu:04-27 : 10:00AM9:30PM, Fri:04-28 : 10:00AM9:30PM, Sat:04-29 : 10:00AM9:30PM, Sun:04-30 : 11:00AM7:00PM, Mon:05-01 : 10:00AM9:30PM",,,
zumiez Coronado Center,823,6600 Menaul Blvd NE Ste H-008,,Albuquerque,NM,87110,United States,505-872-1217,,,"Tue:04-25 : 10:00AM9:00PM, Wed:04-26 : 10:00AM9:00PM, Thu:04-27 : 10:00AM9:00PM, Fri:04-28 : 10:00AM9:00PM, Sat:04-29 : 10:00AM9:00PM, Sun:04-30 : 12:00PM6:00PM, Mon:05-01 : 10:00AM9:00PM",,,
zumiez Newport Centre,1275,"30 Mall Drive West, Ste A15",,Jersey City,NJ,07310,United States,201-659-2034,,,"Tue:04-25 : 10:00AM9:30PM, Wed:04-26 : 10:00AM9:30PM, Thu:04-27 : 10:00AM9:30PM, Fri:04-28 : 10:00AM9:30PM, Sat:04-29 : 10:00AM9:30PM, Sun:04-30 : 11:00AM6:00PM, Mon:05-01 : 10:00AM9:30PM",,,
zumiez Quaker Bridge Mall,1323,"150 Quaker Bridge Mall, Ste 2078",,Lawrence Twnshp,NJ,08648,United States,609-799-3902,,,"Tue:04-25 : 10:00AM9:00PM, Wed:04-26 : 10:00AM9:00PM, Thu:04-27 : 10:00AM9:00PM, Fri:04-28 : 10:00AM9:00PM, Sat:04-29 : 10:00AM9:00PM, Sun:04-30 : 11:00AM6:00PM, Mon:05-01 : 10:00AM9:00PM",,,
zumiez Cherry Hill Mall,1191,"2000 Route 3, Ste 1250",,Cherry Hill,NJ,08002,United States,856-663-1748,,,"Tue:04-25 : 10:00AM9:30PM, Wed:04-26 : 10:00AM9:30PM, Thu:04-27 : 10:00AM9:30PM, Fri:04-28 : 10:00AM9:30PM, Sat:04-29 : 10:00AM9:30PM, Sun:04-30 : 11:00AM6:00PM, Mon:05-01 : 10:00AM9:30PM",,,
zumiez Tanger Outlets The Walk,1164,2010 Christopher Columbus,,Atlantic City,NJ,08401,United States,609-344-1459,,,"Tue:04-25 : 9:00AM8:00PM, Wed:04-26 : 9:00AM8:00PM, Thu:04-27 : 9:00AM8:00PM, Fri:04-28 : 9:00AM8:00PM, Sat:04-29 : 9:00AM8:00PM, Sun:04-30 : 10:00AM7:00PM, Mon:05-01 : 9:00AM8:00PM",,,
zumiez Bridgewater Commons,1098,"400 Commons Way, Spc 3280",,Bridgewater,NJ,08807,United States,908-685-3682,,,"Tue:04-25 : 10:00AM9:00PM, Wed:04-26 : 10:00AM9:00PM, Thu:04-27 : 10:00AM9:00PM, Fri:04-28 : 10:00AM9:00PM, Sat:04-29 : 10:00AM9:00PM, Sun:04-30 : 11:00AM6:00PM, Mon:05-01 : 10:00AM9:00PM",,,
zumiez Jersey Shore Premium,1043,1 Premium Outlet Blvd.Ste 0821,,Tinton Falls,NJ,07753,United States,732-493-2606,,,"Tue:04-25 : 10:00AM9:00PM, Wed:04-26 : 10:00AM9:00PM, Thu:04-27 : 10:00AM9:00PM, Fri:04-28 : 10:00AM9:00PM, Sat:04-29 : 10:00AM9:00PM, Sun:04-30 : 10:00AM7:00PM, Mon:05-01 : 10:00AM9:00PM",,,
zumiez Westfield Garden State,970,"1 Garden State, Ste C04",,Paramus,NJ,07652,United States,201-843-0705,,,,,,
zumiez Jackson Premium,961,"537 Monmouth Rd, Ste 190",,Jackson,NJ,08527,United States,732-928-8203,,,"Tue:04-25 : 10:00AM9:00PM, Wed:04-26 : 10:00AM9:00PM, Thu:04-27 : 10:00AM9:00PM, Fri:04-28 : 10:00AM9:00PM, Sat:04-29 : 10:00AM9:00PM, Sun:04-30 : 10:00AM7:00PM, Mon:05-01 : 10:00AM9:00PM",,,
zumiez Livingston Mall,953,"112 Eisenhower Pkwy, Ste 2015",,Livingston,NJ,07039,United States,973-992-4621,,,"Tue:04-25 : 10:00AM9:30PM, Wed:04-26 : 10:00AM9:30PM, Thu:04-27 : 10:00AM9:30PM, Fri:04-28 : 10:00AM9:30PM, Sat:04-29 : 10:00AM9:30PM, Sun:04-30 : 11:00AM7:00PM, Mon:05-01 : 10:00AM9:30PM",,,
zumiez Moorestown Mall,941,"400 Route 38, Ste 1350",,Moorestown,NJ,08057,United States,856-234-6703,,,"Tue:04-25 : 10:00AM9:00PM, Wed:04-26 : 10:00AM9:00PM, Thu:04-27 : 10:00AM9:00PM, Fri:04-28 : 10:00AM9:00PM, Sat:04-29 : 10:00AM9:00PM, Sun:04-30 : 11:00AM6:00PM, Mon:05-01 : 10:00AM9:00PM",,,
zumiez Willowbrook Mall,928,"1400 Willowbrook Mall, Ste 2145",,Wayne,NJ,07470,United States,973-256-8564,,,"Tue:04-25 : 10:00AM9:30PM, Wed:04-26 : 10:00AM9:30PM, Thu:04-27 : 10:00AM9:30PM, Fri:04-28 : 10:00AM9:30PM, Sat:04-29 : 10:00AM9:30PM, Sun:04-30 : 11:00AM7:00PM, Mon:05-01 : 10:00AM9:30PM",,,
zumiez Hamilton Mall,922,"4403 Black Horse Pike, Ste 2054",,Mays Landing,NJ,08330,United States,609-272-8960,,,"Tue:04-25 : 10:00AM9:00PM, Wed:04-26 : 10:00AM9:00PM, Thu:04-27 : 10:00AM9:00PM, Fri:04-28 : 10:00AM9:00PM, Sat:04-29 : 10:00AM9:00PM, Sun:04-30 : 11:00AM6:00PM, Mon:05-01 : 10:00AM9:00PM",,,
zumiez Deptford Mall,920,1750 Deptford Mall Dr. Ste 1145,,Deptford,NJ,08096,United States,856-848-2411,,,"Tue:04-25 : 10:00AM9:30PM, Wed:04-26 : 10:00AM9:30PM, Thu:04-27 : 10:00AM9:30PM, Fri:04-28 : 10:00AM9:30PM, Sat:04-29 : 10:00AM9:30PM, Sun:04-30 : 11:00AM6:30PM, Mon:05-01 : 10:00AM9:30PM",,,
zumiez Ocean County Mall,911,1201 Hooper Ave,,Toms River,NJ,08753,United States,732-341-2037,,,"Tue:04-25 : 10:00AM9:30PM, Wed:04-26 : 10:00AM9:30PM, Thu:04-27 : 10:00AM9:30PM, Fri:04-28 : 10:00AM9:30PM, Sat:04-29 : 10:00AM9:30PM, Sun:04-30 : 11:00AM6:00PM, Mon:05-01 : 10:00AM9:30PM",,,
zumiez Freehold Raceway Mall,906,"3710 Route 9, Suite E114",,Freehold,NJ,07728,United States,732-845-2103,,,"Tue:04-25 : 10:00AM9:30PM, Wed:04-26 : 10:00AM9:30PM, Thu:04-27 : 10:00AM9:30PM, Fri:04-28 : 10:00AM9:30PM, Sat:04-29 : 10:00AM9:30PM, Sun:04-30 : 11:00AM7:00PM, Mon:05-01 : 10:00AM9:30PM",,,
zumiez Rockaway Townsquare,892,301 Mt Hope Rd. Suite 2045,,Rockaway,NJ,07866,United States,973-989-6982,,,"Tue:04-25 : 10:00AM9:30PM, Wed:04-26 : 10:00AM9:30PM, Thu:04-27 : 10:00AM9:30PM, Fri:04-28 : 10:00AM9:30PM, Sat:04-29 : 10:00AM9:30PM, Sun:04-30 : 11:00AM6:00PM, Mon:05-01 : 10:00AM9:30PM",,,
zumiez Brunswick Square,891,755 State Hwy 18,,East Brunswick,NJ,08816,United States,732-257-7142,,,"Tue:04-25 : 10:00AM9:30PM, Wed:04-26 : 10:00AM9:30PM, Thu:04-27 : 10:00AM9:30PM, Fri:04-28 : 10:00AM9:30PM, Sat:04-29 : 10:00AM9:30PM, Sun:04-30 : 11:00AM6:00PM, Mon:05-01 : 10:00AM9:30PM",,,
zumiez Monmouth Mall,883,"180 Highway 35, Suite 1020",,Eatontown,NJ,07724,United States,732-542-1478,,,"Tue:04-25 : 10:00AM9:30PM, Wed:04-26 : 10:00AM9:30PM, Thu:04-27 : 10:00AM9:30PM, Fri:04-28 : 10:00AM9:30PM, Sat:04-29 : 10:00AM9:30PM, Sun:04-30 : 11:00AM7:00PM, Mon:05-01 : 10:00AM9:30PM",,,
zumiez The Jersey Gardens,858,651 Kapkowski Rd.Ste 2080,,Elizabeth,NJ,07201,United States,908-351-0374,,,"Tue:04-25 : 10:00AM9:00PM, Wed:04-26 : 10:00AM9:00PM, Thu:04-27 : 10:00AM9:00PM, Fri:04-28 : 10:00AM9:00PM, Sat:04-29 : 10:00AM9:00PM, Sun:04-30 : 11:00AM7:00PM, Mon:05-01 : 10:00AM9:00PM",,,
zumiez Merrimack Premium,1213,80 Premium Out.Blvd.Ste 741,,Merrimack,NH,03054,United States,603-424-7020,,,"Tue:04-25 : 10:00AM9:00PM, Wed:04-26 : 10:00AM9:00PM, Thu:04-27 : 10:00AM9:00PM, Fri:04-28 : 10:00AM9:00PM, Sat:04-29 : 10:00AM9:00PM, Sun:04-30 : 10:00AM6:00PM, Mon:05-01 : 10:00AM9:00PM",,,
zumiez Tanger Outlets Tilton,1211,"120 Laconia Rd., Ste 313",,Tilton,NH,03276,United States,603-286-7031,,,"Tue:04-25 : 9:00AM9:00PM, Wed:04-26 : 9:00AM9:00PM, Thu:04-27 : 9:00AM9:00PM, Fri:04-28 : 9:00AM9:00PM, Sat:04-29 : 9:00AM9:00PM, Sun:04-30 : 10:00AM7:00PM, Mon:05-01 : 9:00AM9:00PM",,,
zumiez Fox Run Mall,1194,"50 Fox Run Rd., Ste J11/10",,Newington,NH,03801,United States,603-433-1828,,,"Tue:04-25 : 10:00AM9:00PM, Wed:04-26 : 10:00AM9:00PM, Thu:04-27 : 10:00AM9:00PM, Fri:04-28 : 10:00AM9:00PM, Sat:04-29 : 10:00AM9:00PM, Sun:04-30 : 11:00AM6:00PM, Mon:05-01 : 10:00AM9:00PM",,,
zumiez Pheasant Lane Mall,1141,310 Daniel Webster Hwy.Ste E141B,,Nashua,NH,03060,United States,603-888-1274,,,"Tue:04-25 : 10:00AM9:00PM, Wed:04-26 : 10:00AM9:00PM, Thu:04-27 : 10:00AM9:00PM, Fri:04-28 : 10:00AM9:00PM, Sat:04-29 : 10:00AM9:00PM, Sun:04-30 : 12:00PM6:00PM, Mon:05-01 : 10:00AM9:00PM",,,
zumiez Mall at Rockingham Park,1096,99 Rockingham Park Blvd.,,Salem,NH,03079,United States,603-870-0962,,,"Tue:04-25 : 10:00AM9:00PM, Wed:04-26 : 10:00AM9:00PM, Thu:04-27 : 10:00AM9:00PM, Fri:04-28 : 10:00AM9:00PM, Sat:04-29 : 10:00AM9:00PM, Sun:04-30 : 12:00PM6:00PM, Mon:05-01 : 10:00AM9:00PM",,,
zumiez Mall of New Hampshire,1094,1500 S Willow St.,,Manchester,NH,03103,United States,603-222-3871,,,"Tue:04-25 : 10:00AM9:00PM, Wed:04-26 : 10:00AM9:00PM, Thu:04-27 : 10:00AM9:00PM, Fri:04-28 : 10:00AM9:00PM, Sat:04-29 : 10:00AM9:00PM, Sun:04-30 : 11:00AM6:00PM, Mon:05-01 : 10:00AM9:00PM",,,
zumiez Shops at Summerlin,1320,10975 Sage Park Dr. Ste 160,,Las Vegas,NV,89135,United States,702-243-1760,,,"Tue:04-25 : 10:00AM9:00PM, Wed:04-26 : 10:00AM9:00PM, Thu:04-27 : 10:00AM9:00PM, Fri:04-28 : 10:00AM9:00PM, Sat:04-29 : 10:00AM9:00PM, Sun:04-30 : 11:00AM7:00PM, Mon:05-01 : 10:00AM9:00PM",,,
zumiez Fashion Show Mall,1161,3200 Las Vegas Blvd.S.Ste.2740,,Las Vegas,NV,89109,United States,702-836-3687,,,"Tue:04-25 : 10:00AM9:00PM, Wed:04-26 : 10:00AM9:00PM, Thu:04-27 : 10:00AM9:00PM, Fri:04-28 : 10:00AM9:00PM, Sat:04-29 : 10:00AM9:00PM, Sun:04-30 : 11:00AM7:00PM, Mon:05-01 : 10:00AM9:00PM",,,
zumiez Las Vegas Premium,997,875 S Grand Central Pkwy. Ste1132,,Las Vegas,NV,89106,United States,702-366-8597,,,"Tue:04-25 : 9:00AM9:00PM, Wed:04-26 : 9:00AM9:00PM, Thu:04-27 : 9:00AM9:00PM, Fri:04-28 : 9:00AM9:00PM, Sat:04-29 : 9:00AM9:00PM, Sun:04-30 : 9:00AM8:00PM, Mon:05-01 : 9:00AM9:00PM",,,
zumiez Town Square,982,"6611 Las Vegas Blvd S, Bldg G A145",,Las Vegas,NV,89119,United States,702-260-1887,,,"Tue:04-25 : 10:00AM10:00PM, Wed:04-26 : 10:00AM10:00PM, Thu:04-27 : 10:00AM10:00PM, Fri:04-28 : 10:00AM10:00PM, Sat:04-29 : 10:00AM10:00PM, Sun:04-30 : 11:00AM8:00PM, Mon:05-01 : 10:00AM10:00PM",,,
zumiez Meadowood Mall,943,5000 Meadowood Mall Circle B108,,Reno,NV,89502,United States,775-828-9631,,,"Tue:04-25 : 10:00AM9:00PM, Wed:04-26 : 10:00AM9:00PM, Thu:04-27 : 10:00AM9:00PM, Fri:04-28 : 10:00AM9:00PM, Sat:04-29 : 10:00AM9:00PM, Sun:04-30 : 11:00AM7:00PM, Mon:05-01 : 10:00AM9:00PM",,,
zumiez Eastern Hills,999,"4545 Transit Rd, Ste 460",,Williamsville,NY,14221,United States,716-632-1780,,,,,,
zumiez JEFFERSON VALLEY,912,"650 LEE BLVD, #F06B",,YORKTOWN HEIGHTS,NY,10598,United States,914-245-4218,,,,,,
zumiez Clifton Park Center,857,22 Clifton Country Rd,,Clifton Park,NY,12065,United States,518-371-2543,,,,,,
zumiez Las Vegas South Outlet,839,7400 S Las Vegas Blvd. Ste 206,,Las Vegas,NV,89123,United States,702-263-7430,,,"Tue:04-25 : 9:00AM9:00PM, Wed:04-26 : 9:00AM9:00PM, Thu:04-27 : 9:00AM9:00PM, Fri:04-28 : 9:00AM9:00PM, Sat:04-29 : 9:00AM9:00PM, Sun:04-30 : 9:00AM8:00PM, Mon:05-01 : 9:00AM9:00PM",,,
zumiez Great Northern Mall,800,"4155 Route 31,G123",,Clay,NY,13041,United States,315-622-9789,,,,,,
zumiez Oak View Mall,1300,"3001 S.144th St, Ste F07",,Omaha,NE,68144,United States,402-697-3576,,,"Tue:04-25 : 10:00AM9:00PM, Wed:04-26 : 10:00AM9:00PM, Thu:04-27 : 10:00AM9:00PM, Fri:04-28 : 10:00AM9:00PM, Sat:04-29 : 10:00AM9:00PM, Sun:04-30 : 11:00AM6:00PM, Mon:05-01 : 10:00AM9:00PM",,,
zumiez Rotterdam Square,729,"93 W Campbell Rd, F-118",,Schenectady,NY,12306,United States,518-344-7500,,,,,,
zumiez Meadows Mall,862,"4300 Meadow Lane, Ste 219",,Las Vegas,NV,89107,United States,702-258-4344,,,,,,
zumiez Woodbridge Ctr,927,"280 Woodbridge Ctr. Dr.,Ste 2640",,Woodbridge ,NJ,07095,United States,732-634-5136,,,,,,
zumiez Galleria at Sunset,835,1300 W Sunset Rd. Ste1380,,Henderson,NV,89014,United States,702-454-9946,,,,,,
zumiez The Boulevard Mall,824,"3528 S Maryland Pkwy, Ste190",,Las Vegas,NV,89169,United States,702-413-9648,,,,,,
zumiez Westroads Mall,1256,"10000 California St., Ste 3162",,Omaha,NE,68114,United States,402-397-5623,,,,,,
zumiez Kalispell Center Mall,1251,"20 North Main Street, Ste143",,Kalispell,MT,59901,United States,406-758-0226,,,,,,
zumiez Gallatin Valley Mall,774,"2825 West Main St., 9D",,Bozeman,MT,59718,United States,406-586-5463,,,,,,
zumiez Holiday Village Mall,764,"1200 10th Avenue South, Ste 9",,Great Falls,MT,59405,United States,406-454-1595,,,,,,
zumiez Mid Rivers Mall,1223,1028 Mid Rivers Mall,,St Peters,MO,63376,United States,636-279-1026,,,"Tue:04-25 : 10:00AM9:00PM, Wed:04-26 : 10:00AM9:00PM, Thu:04-27 : 10:00AM9:00PM, Fri:04-28 : 10:00AM9:00PM, Sat:04-29 : 10:00AM9:00PM, Sun:04-30 : 11:00AM6:00PM, Mon:05-01 : 10:00AM9:00PM",,,
zumiez Rimrock Mall,749,300 South 24th St. W. Ste A12,,Billings,MT,59102,United States,406-652-8183,,,,,,
zumiez Southgate Mall,779,"2901 Brooks St., E4",,Missoula,MT,59801,United States,406-327-9535,,,"Tue:04-25 : 10:00AM9:00PM, Wed:04-26 : 10:00AM9:00PM, Thu:04-27 : 10:00AM9:00PM, Fri:04-28 : 10:00AM9:00PM, Sat:04-29 : 10:00AM9:00PM, Sun:04-30 : 11:00AM6:00PM, Mon:05-01 : 10:00AM9:00PM",,,
zumiez West County Center,1222,"142 W County Ctr. Dr.,Ste 2170",,Des Peres,MO,63131,United States,314-835-0355,,,"Tue:04-25 : 10:00AM9:00PM, Wed:04-26 : 10:00AM9:00PM, Thu:04-27 : 10:00AM9:00PM, Fri:04-28 : 10:00AM9:00PM, Sat:04-29 : 10:00AM9:00PM, Sun:04-30 : 11:00AM6:00PM, Mon:05-01 : 10:00AM9:00PM",,,
zumiez Independence Center,1076,18813 E.39th Street S.Ste 1152,,Independence,MO,64057,United States,816-795-3718,,,"Tue:04-25 : 10:00AM9:00PM, Wed:04-26 : 10:00AM9:00PM, Thu:04-27 : 10:00AM9:00PM, Fri:04-28 : 10:00AM9:00PM, Sat:04-29 : 10:00AM9:00PM, Sun:04-30 : 12:00PM6:00PM, Mon:05-01 : 10:00AM9:00PM",,,
zumiez St. Louis Premium,1267,"18511 Outlet Blvd,, Ste 854",,Chesterfield,MO,63005,United States,636-778-1545,,,,,,
zumiez River Hills Mall,1002,"1850 Adams St.,Ste 530",,Mankato,MN,56001,United States,507-385-0552,,,"Tue:04-25 : 10:00AM9:00PM, Wed:04-26 : 10:00AM9:00PM, Thu:04-27 : 10:00AM9:00PM, Fri:04-28 : 10:00AM9:00PM, Sat:04-29 : 10:00AM9:00PM, Sun:04-30 : 11:00AM6:00PM, Mon:05-01 : 10:00AM9:00PM",,,
zumiez Zona Rosa Town Center,1209,"7213 NW 86th Ter.,Ste B131",,Kansas City,MO,64153,United States,816-741-2572,,,"Tue:04-25 : 10:00AM9:00PM, Wed:04-26 : 10:00AM9:00PM, Thu:04-27 : 10:00AM9:00PM, Fri:04-28 : 10:00AM9:00PM, Sat:04-29 : 10:00AM9:00PM, Sun:04-30 : 12:00PM6:00PM, Mon:05-01 : 10:00AM9:00PM",,,
zumiez Battlefield Mall,1074,"2825 S Glenstone Dr, P04/05",,Springfield,MO,65804,United States,417-885-5027,,,"Tue:04-25 : 10:00AM9:00PM, Wed:04-26 : 10:00AM9:00PM, Thu:04-27 : 10:00AM9:00PM, Fri:04-28 : 10:00AM9:00PM, Sat:04-29 : 10:00AM9:00PM, Sun:04-30 : 12:00PM6:00PM, Mon:05-01 : 10:00AM9:00PM",,,
zumiez Burnsville Center,873,"1178 Burnsville Center, Ste 1087",,Burnsville,MN,55306,United States,952-892-0681,,,"Tue:04-25 : 10:00AM9:00PM, Wed:04-26 : 10:00AM9:00PM, Thu:04-27 : 10:00AM9:00PM, Fri:04-28 : 10:00AM9:00PM, Sat:04-29 : 10:00AM9:00PM, Sun:04-30 : 11:00AM6:00PM, Mon:05-01 : 10:00AM9:00PM",,,
zumiez Crossroads Center,817,"4101 W Division St, Ste A0005",,St. Cloud,MN,56301,United States,320-654-1864,,,"Tue:04-25 : 10:00AM9:00PM, Wed:04-26 : 10:00AM9:00PM, Thu:04-27 : 10:00AM9:00PM, Fri:04-28 : 10:00AM9:00PM, Sat:04-29 : 10:00AM9:00PM, Sun:04-30 : 11:00AM6:00PM, Mon:05-01 : 10:00AM9:00PM",,,
zumiez Albertville Prem.Outlets,833,6500 Labeaux  Ave NE Ste E70,,Albertville,MN,55301,United States,763-497-1076,,,"Tue:04-25 : 10:00AM9:00PM, Wed:04-26 : 10:00AM9:00PM, Thu:04-27 : 10:00AM9:00PM, Fri:04-28 : 10:00AM9:00PM, Sat:04-29 : 10:00AM9:00PM, Sun:04-30 : 10:00AM7:00PM, Mon:05-01 : 10:00AM9:00PM",,,
zumiez St. Louis Galleria,1242,"2085 St..Louis Galleria, Ste.2089",,St Louis,MO,63117,United States,314-863-6952,,,,,,
zumiez Apache Mall,809,1010 Apache Mall,,Rochester,MN,55902,United States,507-282-1219,,,"Tue:04-25 : 10:00AM9:00PM, Wed:04-26 : 10:00AM9:00PM, Thu:04-27 : 10:00AM9:00PM, Fri:04-28 : 10:00AM9:00PM, Sat:04-29 : 10:00AM9:00PM, Sun:04-30 : 11:00AM7:00PM, Mon:05-01 : 10:00AM9:00PM",,,
zumiez Mall of America,775,236 Northgarden,,Bloomington,MN,55425,United States,952-814-9260,,,"Tue:04-25 : 10:00AM9:30PM, Wed:04-26 : 10:00AM9:30PM, Thu:04-27 : 10:00AM9:30PM, Fri:04-28 : 10:00AM9:30PM, Sat:04-29 : 10:00AM9:30PM, Sun:04-30 : 11:00AM7:00PM, Mon:05-01 : 10:00AM9:30PM",,,
zumiez Maplewood Mall,832,"3001 White Bear Ave N, Ste 2012",,Maplewood,MN,55109,United States,651-748-1142,,,"Tue:04-25 : 10:00AM9:00PM, Wed:04-26 : 10:00AM9:00PM, Thu:04-27 : 10:00AM9:00PM, Fri:04-28 : 10:00AM9:00PM, Sat:04-29 : 10:00AM9:00PM, Sun:04-30 : 11:00AM6:00PM, Mon:05-01 : 10:00AM9:00PM",,,
zumiez Rosedale Center,768,175 Rosedale,,Roseville,MN,55113,United States,651-636-3280,,,"Tue:04-25 : 10:00AM9:00PM, Wed:04-26 : 10:00AM9:00PM, Thu:04-27 : 10:00AM9:00PM, Fri:04-28 : 10:00AM9:00PM, Sat:04-29 : 10:00AM9:00PM, Sun:04-30 : 11:00AM6:00PM, Mon:05-01 : 10:00AM9:00PM",,,
zumiez Miller Hill Mall,849,1600 Miller Trunk Hwy. Ste J03,,Duluth,MN,55811,United States,218-727-4314,,,"Tue:04-25 : 10:00AM9:00PM, Wed:04-26 : 10:00AM9:00PM, Thu:04-27 : 10:00AM9:00PM, Fri:04-28 : 10:00AM9:00PM, Sat:04-29 : 10:00AM9:00PM, Sun:04-30 : 11:00AM6:00PM, Mon:05-01 : 10:00AM9:00PM",,,
zumiez Woodland Mall,1359,3159 28th St SE Ste A117,,Grand Rapids,MI,49512,United States,616-942-7314,,,"Tue:04-25 : 10:00AM9:00PM, Wed:04-26 : 10:00AM9:00PM, Thu:04-27 : 10:00AM9:00PM, Fri:04-28 : 10:00AM9:00PM, Sat:04-29 : 10:00AM9:00PM, Sun:04-30 : 12:00PM6:00PM, Mon:05-01 : 10:00AM9:00PM",,,
zumiez Briarwood Mall,1341,270 Briarwood Circle G103,,Ann Arbor,MI,48108,United States,734-761-1941,,,"Tue:04-25 : 10:00AM9:00PM, Wed:04-26 : 10:00AM9:00PM, Thu:04-27 : 10:00AM9:00PM, Fri:04-28 : 10:00AM9:00PM, Sat:04-29 : 10:00AM9:00PM, Sun:04-30 : 11:00AM6:00PM, Mon:05-01 : 10:00AM9:00PM",,,
zumiez Grand Traverse Mall,1334,3200 S.Airport Rd.Ste 508,,Traverse City,MI,49684,United States,231-932-0024,,,"Tue:04-25 : 10:00AM9:00PM, Wed:04-26 : 10:00AM9:00PM, Thu:04-27 : 10:00AM9:00PM, Fri:04-28 : 10:00AM9:00PM, Sat:04-29 : 10:00AM9:00PM, Sun:04-30 : 12:00PM6:00PM, Mon:05-01 : 10:00AM9:00PM",,,
zumiez Southdale Center,728,"10 Southdale Center, Ste 2632",,Edina,MN,55435,United States,952-926-1574,,,"Tue:04-25 : 10:00AM9:00PM, Wed:04-26 : 10:00AM9:00PM, Thu:04-27 : 10:00AM9:00PM, Fri:04-28 : 10:00AM9:00PM, Sat:04-29 : 10:00AM9:00PM, Sun:04-30 : 11:00AM6:00PM, Mon:05-01 : 10:00AM9:00PM",,,
zumiez The Crossroads,1233,"6650 S Westnedge Ave, Ste 238",,Portage,MI,49024,United States,269-324-6059,,,"Tue:04-25 : 10:00AM9:00PM, Wed:04-26 : 10:00AM9:00PM, Thu:04-27 : 10:00AM9:00PM, Fri:04-28 : 10:00AM9:00PM, Sat:04-29 : 10:00AM9:00PM, Sun:04-30 : 12:00PM6:00PM, Mon:05-01 : 10:00AM9:00PM",,,
zumiez Fashion Square Mall,1206,"4856 Fashion Sq.Mall, Ste A114",,Saginaw,MI,48604,United States,989-799-1431,,,"Tue:04-25 : 10:00AM9:00PM, Wed:04-26 : 10:00AM9:00PM, Thu:04-27 : 10:00AM9:00PM, Fri:04-28 : 10:00AM9:00PM, Sat:04-29 : 10:00AM9:00PM, Sun:04-30 : 12:00PM6:00PM, Mon:05-01 : 10:00AM9:00PM",,,
zumiez Ridgedale Center,767,"12545 Wayzata Blvd.,156",,Minnetonka,MN,55305,United States,952-543-0709,,,"Tue:04-25 : 10:00AM9:00PM, Wed:04-26 : 10:00AM9:00PM, Thu:04-27 : 10:00AM9:00PM, Fri:04-28 : 10:00AM9:00PM, Sat:04-29 : 10:00AM9:00PM, Sun:04-30 : 12:00PM6:00PM, Mon:05-01 : 10:00AM9:00PM",,,
zumiez Southland Mall,1331,"23000 Eureka Rd., Ste 1305",,Taylor,MI,48180,United States,734-287-0076,,,"Tue:04-25 : 10:00AM9:00PM, Wed:04-26 : 10:00AM9:00PM, Thu:04-27 : 10:00AM9:00PM, Fri:04-28 : 10:00AM9:00PM, Sat:04-29 : 10:00AM9:00PM, Sun:04-30 : 12:00PM6:00PM, Mon:05-01 : 10:00AM9:00PM",,,
zumiez Great Lakes Crossing,1292,"4520 Baldwin Road, Ste 847",,Auburn Hills,MI,48326,United States,248-858-8344,,,"Tue:04-25 : 10:00AM9:00PM, Wed:04-26 : 10:00AM9:00PM, Thu:04-27 : 10:00AM9:00PM, Fri:04-28 : 10:00AM9:00PM, Sat:04-29 : 10:00AM9:00PM, Sun:04-30 : 11:00AM6:00PM, Mon:05-01 : 10:00AM9:00PM",,,
zumiez Genesee Valley Center,1190,"3371 S Linden Rd, Ste 1041",,Flint Township,MI,48507,United States,810-720-4080,,,"Tue:04-25 : 10:00AM9:00PM, Wed:04-26 : 10:00AM9:00PM, Thu:04-27 : 10:00AM9:00PM, Fri:04-28 : 10:00AM9:00PM, Sat:04-29 : 10:00AM9:00PM, Sun:04-30 : 12:00PM6:00PM, Mon:05-01 : 10:00AM9:00PM",,,
zumiez Birch Run Premium,1187,"8925 Market Place Dr., Ste F506",,Birch Run,MI,48415,United States,989-624-5828,,,"Tue:04-25 : 10:00AM9:00PM, Wed:04-26 : 10:00AM9:00PM, Thu:04-27 : 10:00AM9:00PM, Fri:04-28 : 10:00AM9:00PM, Sat:04-29 : 10:00AM9:00PM, Sun:04-30 : 10:00AM7:00PM, Mon:05-01 : 10:00AM9:00PM",,,
zumiez Twelve Oaks Mall,1196,"27500 Novi Rd.,Ste 158",,Novi,MI,48377,United States,248-347-1846,,,"Tue:04-25 : 10:00AM9:00PM, Wed:04-26 : 10:00AM9:00PM, Thu:04-27 : 10:00AM9:00PM, Fri:04-28 : 10:00AM9:00PM, Sat:04-29 : 10:00AM9:00PM, Sun:04-30 : 11:00AM6:00PM, Mon:05-01 : 10:00AM9:00PM",,,
zumiez Burlington Mall,1250,"75 Middlesex Turnpike, Ste 1101A",,Burlington,MA,01803,United States,781-272-1859,,,"Tue:04-25 : 10:00AM9:00PM, Wed:04-26 : 10:00AM9:00PM, Thu:04-27 : 10:00AM9:00PM, Fri:04-28 : 10:00AM9:00PM, Sat:04-29 : 10:00AM9:00PM, Sun:04-30 : 11:00AM6:00PM, Mon:05-01 : 10:00AM9:00PM",,,
zumiez Meridian Mall,1193,"1982 W Grand River Ave, Ste 253",,Okemos,MI,48864,United States,517-347-4705,,,"Tue:04-25 : 10:00AM9:00PM, Wed:04-26 : 10:00AM9:00PM, Thu:04-27 : 10:00AM9:00PM, Fri:04-28 : 10:00AM9:00PM, Sat:04-29 : 10:00AM9:00PM, Sun:04-30 : 12:00PM6:00PM, Mon:05-01 : 10:00AM9:00PM",,,
zumiez Square One Mall,1263,"1201 Broadway, Ste S211A",,Saugus,MA,01906,United States,781-941-1418,,,"Tue:04-25 : 10:00AM9:00PM, Wed:04-26 : 10:00AM9:00PM, Thu:04-27 : 10:00AM9:00PM, Fri:04-28 : 10:00AM9:00PM, Sat:04-29 : 10:00AM9:00PM, Sun:04-30 : 11:00AM6:00PM, Mon:05-01 : 10:00AM9:00PM",,,
zumiez Solomon Pond Mall,1113,"601 Donald Lynch Blvd.,Ste N249",,Marlborough,MA,01752,United States,508-485-0796,,,"Tue:04-25 : 10:00AM9:00PM, Wed:04-26 : 10:00AM9:00PM, Thu:04-27 : 10:00AM9:00PM, Fri:04-28 : 10:00AM9:00PM, Sat:04-29 : 10:00AM9:00PM, Sun:04-30 : 11:00AM6:00PM, Mon:05-01 : 10:00AM9:00PM",,,
zumiez Lakeside Mall,1142,14000 Lakeside Cir. Suite 2550,,Sterling Heights,MI,48313,United States,586-566-4341,,,"Tue:04-25 : 10:00AM9:00PM, Wed:04-26 : 10:00AM9:00PM, Thu:04-27 : 10:00AM9:00PM, Fri:04-28 : 10:00AM9:00PM, Sat:04-29 : 10:00AM9:00PM, Sun:04-30 : 12:00PM6:00PM, Mon:05-01 : 10:00AM9:00PM",,,
zumiez Independence Mall,1172,"101 Independence Mall Wy, Ste A108",,Kingston,MA,02364,United States,781-585-4167,,,"Tue:04-25 : 10:00AM9:30PM, Wed:04-26 : 10:00AM9:30PM, Thu:04-27 : 10:00AM9:30PM, Fri:04-28 : 10:00AM9:30PM, Sat:04-29 : 10:00AM9:30PM, Sun:04-30 : 11:00AM6:00PM, Mon:05-01 : 10:00AM9:30PM",,,
zumiez RiverTown Crossings,1154,3700 Rivertown Pkwy Ste 2122,,Grandville,MI,49418,United States,616-531-3493,,,"Tue:04-25 : 10:00AM9:00PM, Wed:04-26 : 10:00AM9:00PM, Thu:04-27 : 10:00AM9:00PM, Fri:04-28 : 10:00AM9:00PM, Sat:04-29 : 10:00AM9:00PM, Sun:04-30 : 11:00AM6:00PM, Mon:05-01 : 10:00AM9:00PM",,,
zumiez Silver City Galleria,1090,2 Galleria Mall Dr.,,Taunton,MA,02780,United States,508-824-2106,,,"Tue:04-25 : 10:00AM9:30PM, Wed:04-26 : 10:00AM9:30PM, Thu:04-27 : 10:00AM9:30PM, Fri:04-28 : 10:00AM9:30PM, Sat:04-29 : 10:00AM9:30PM, Sun:04-30 : 11:00AM6:00PM, Mon:05-01 : 10:00AM9:30PM",,,
zumiez Emerald Square Mall,1075,"999 S Washington, Spc W153",,North Attleboro,MA,02760,United States,508-643-0454,,,"Tue:04-25 : 10:00AM9:00PM, Wed:04-26 : 10:00AM9:00PM, Thu:04-27 : 10:00AM9:00PM, Fri:04-28 : 10:00AM9:00PM, Sat:04-29 : 10:00AM9:00PM, Sun:04-30 : 11:00AM6:00PM, Mon:05-01 : 10:00AM9:00PM",,,
zumiez Northshore Mall,1249,"210 Andover St, Ste E123",,Peabody,MA,01960,United States,978-532-0126,,,"Tue:04-25 : 10:00AM9:00PM, Wed:04-26 : 10:00AM9:00PM, Thu:04-27 : 10:00AM9:00PM, Fri:04-28 : 10:00AM9:00PM, Sat:04-29 : 10:00AM9:00PM, Sun:04-30 : 11:00AM6:00PM, Mon:05-01 : 10:00AM9:00PM",,,
zumiez Holyoke Mall at Ingleside,1118,"50 Holyoke St.,Ste D258",,Holyoke,MA,01041,United States,413-532-3692,,,"Tue:04-25 : 10:00AM9:30PM, Wed:04-26 : 10:00AM9:30PM, Thu:04-27 : 10:00AM9:30PM, Fri:04-28 : 10:00AM9:30PM, Sat:04-29 : 10:00AM9:30PM, Sun:04-30 : 11:00AM6:00PM, Mon:05-01 : 10:00AM9:30PM",,,
zumiez Natick Mall,1112,"1245 Worcester St.,Ste 2196",,Natick,MA,01760,United States,508-647-4745,,,"Tue:04-25 : 10:00AM9:00PM, Wed:04-26 : 10:00AM9:00PM, Thu:04-27 : 10:00AM9:00PM, Fri:04-28 : 10:00AM9:00PM, Sat:04-29 : 10:00AM9:00PM, Sun:04-30 : 11:00AM6:00PM, Mon:05-01 : 10:00AM9:00PM",,,
zumiez Wrentham Village Premium Outlet,1000,"1 Outlet Blvd, Suite 197",,Wrentham,MA,02093,United States,508-384-0928,,,"Tue:04-25 : 10:00AM9:00PM, Wed:04-26 : 10:00AM9:00PM, Thu:04-27 : 10:00AM9:00PM, Fri:04-28 : 10:00AM9:00PM, Sat:04-29 : 10:00AM9:00PM, Sun:04-30 : 10:00AM6:00PM, Mon:05-01 : 10:00AM9:00PM",,,
zumiez Francis Scott Key Mall,1231,"5500 Buckeystown Pike, Suite 646",,Frederick,MD,21703,United States,301-662-5458,,,"Tue:04-25 : 10:00AM9:00PM, Wed:04-26 : 10:00AM9:00PM, Thu:04-27 : 10:00AM9:00PM, Fri:04-28 : 10:00AM9:00PM, Sat:04-29 : 10:00AM9:00PM, Sun:04-30 : 11:00AM6:00PM, Mon:05-01 : 10:00AM9:00PM",,,
zumiez St Charles Towne Ctr.,1054,"11110 Mall Circle, Ste.Q10",,Waldorf,MD,20603,United States,301-638-3670,,,"Tue:04-25 : 10:00AM9:00PM, Wed:04-26 : 10:00AM9:00PM, Thu:04-27 : 10:00AM9:00PM, Fri:04-28 : 10:00AM9:00PM, Sat:04-29 : 10:00AM9:00PM, Sun:04-30 : 11:00AM6:00PM, Mon:05-01 : 10:00AM9:00PM",,,
zumiez The Centre at Salisbury,1083,2300 N Salisbury Blvd.,,Salisbury,MD,21801,United States,410-548-5083,,,"Tue:04-25 : 10:00AM9:00PM, Wed:04-26 : 10:00AM9:00PM, Thu:04-27 : 10:00AM9:00PM, Fri:04-28 : 10:00AM9:00PM, Sat:04-29 : 10:00AM9:00PM, Sun:04-30 : 11:00AM6:00PM, Mon:05-01 : 10:00AM9:00PM",,,
zumiez Towson Town Ctr,1017,"825 Dulaney Valley Rd.,Ste 1035",,Towson,MD,21204,United States,410-337-2657,,,"Tue:04-25 : 10:00AM9:00PM, Wed:04-26 : 10:00AM9:00PM, Thu:04-27 : 10:00AM9:00PM, Fri:04-28 : 10:00AM9:00PM, Sat:04-29 : 10:00AM9:00PM, Sun:04-30 : 12:00PM6:00PM, Mon:05-01 : 10:00AM9:00PM",,,
zumiez Lakeforest Mall,1019,701 Russell Ave,,Gaithersburg,MD,20877,United States,301-740-7623,,,"Tue:04-25 : 10:00AM9:30PM, Wed:04-26 : 10:00AM9:30PM, Thu:04-27 : 10:00AM9:30PM, Fri:04-28 : 10:00AM9:30PM, Sat:04-29 : 10:00AM9:30PM, Sun:04-30 : 11:00AM6:00PM, Mon:05-01 : 10:00AM9:30PM",,,
zumiez Arundel Mills,985,7600 Arundel Mills Cir. Ste 302,,Hanover,MD,21076,United States,410-796-7359,,,"Tue:04-25 : 10:00AM9:30PM, Wed:04-26 : 10:00AM9:30PM, Thu:04-27 : 10:00AM9:30PM, Fri:04-28 : 10:00AM9:30PM, Sat:04-29 : 10:00AM9:30PM, Sun:04-30 : 11:00AM7:00PM, Mon:05-01 : 10:00AM9:30PM",,,
zumiez South Shore Plaza,1055,"250 Granite St, Suite 065B",,Braintree,MA,02184,United States,781-848-1523,,,"Tue:04-25 : 10:00AM9:00PM, Wed:04-26 : 10:00AM9:00PM, Thu:04-27 : 10:00AM9:00PM, Fri:04-28 : 10:00AM9:00PM, Sat:04-29 : 10:00AM9:00PM, Sun:04-30 : 11:00AM6:00PM, Mon:05-01 : 10:00AM9:00PM",,,
zumiez The Mall in Columbia,1015,"10300 Little Patuxent Pky,Ste 2355",,Columbia,MD,21044,United States,410-730-4582,,,"Tue:04-25 : 10:00AM9:00PM, Wed:04-26 : 10:00AM9:00PM, Thu:04-27 : 10:00AM9:00PM, Fri:04-28 : 10:00AM9:00PM, Sat:04-29 : 10:00AM9:00PM, Sun:04-30 : 11:00AM6:00PM, Mon:05-01 : 10:00AM9:00PM",,,
zumiez Kittery Premium,1180,"345 US Route 1, Ste P009",,Kittery,ME,03904,United States,207-439-1930,,,"Tue:04-25 : 9:00AM9:00PM, Wed:04-26 : 9:00AM9:00PM, Thu:04-27 : 9:00AM9:00PM, Fri:04-28 : 9:00AM9:00PM, Sat:04-29 : 9:00AM9:00PM, Sun:04-30 : 10:00AM6:00PM, Mon:05-01 : 9:00AM9:00PM",,,
zumiez Westfield Annapolis,986,2002 Annapolis Mall Ste 1327,,Annapolis,MD,21401,United States,410-266-7517,,,"Tue:04-25 : 10:30AM9:30PM, Wed:04-26 : 10:30AM9:30PM, Thu:04-27 : 10:30AM9:30PM, Fri:04-28 : 10:30AM9:30PM, Sat:04-29 : 10:30AM9:30PM, Sun:04-30 : 11:00AM6:00PM, Mon:05-01 : 10:30AM9:30PM",,,
zumiez Westfield Wheaton Mall,1335,"11160 Veirs Mill Rd., Ste 139",,Wheaton,MD,20902,United States,301-933-1571,,,"Tue:04-25 : 10:00AM9:30PM, Wed:04-26 : 10:00AM9:30PM, Thu:04-27 : 10:00AM9:30PM, Fri:04-28 : 10:00AM9:30PM, Sat:04-29 : 10:00AM9:30PM, Sun:04-30 : 11:00AM7:00PM, Mon:05-01 : 10:00AM9:30PM",,,
zumiez Hagerstown Prem.Otls.,1189,"495 Prime Outlets Blvd, Ste 645",,Hagerstown,MD,21740,United States,301-739-5812,,,"Tue:04-25 : 10:00AM9:00PM, Wed:04-26 : 10:00AM9:00PM, Thu:04-27 : 10:00AM9:00PM, Fri:04-28 : 10:00AM9:00PM, Sat:04-29 : 10:00AM9:00PM, Sun:04-30 : 10:00AM7:00PM, Mon:05-01 : 10:00AM9:00PM",,,
zumiez Bangor Mall,1228,"663 Stillwater Ave, Ste 1114A",,Bangor,ME,04401,United States,207-941-1346,,,"Tue:04-25 : 10:00AM9:00PM, Wed:04-26 : 10:00AM9:00PM, Thu:04-27 : 10:00AM9:00PM, Fri:04-28 : 10:00AM9:00PM, Sat:04-29 : 10:00AM9:00PM, Sun:04-30 : 11:00AM6:00PM, Mon:05-01 : 10:00AM9:00PM",,,
zumiez Pierre Bossier Mall,1325,"2950 East Texas St., Ste 82",,Bossier City,LA,71111,United States,318-746-9147,,,"Tue:04-25 : 10:00AM9:00PM, Wed:04-26 : 10:00AM9:00PM, Thu:04-27 : 10:00AM9:00PM, Fri:04-28 : 10:00AM9:00PM, Sat:04-29 : 10:00AM9:00PM, Sun:04-30 : 11:00AM6:00PM, Mon:05-01 : 10:00AM9:00PM",,,
zumiez Lakeside SC,1312,3301 Veterans Memorial Blvd Ste 94,,Metairie,LA,70002,United States,504-834-8715,,,"Tue:04-25 : 10:00AM9:00PM, Wed:04-26 : 10:00AM9:00PM, Thu:04-27 : 10:00AM9:00PM, Fri:04-28 : 10:00AM9:00PM, Sat:04-29 : 10:00AM9:00PM, Sun:04-30 : 12:00PM6:00PM, Mon:05-01 : 10:00AM9:00PM",,,
zumiez Prien Lake,1296,"496 W. Prien Lake Rd, Ste F07A",,Lake Charles,LA,70601,United States,337-477-9550,,,"Tue:04-25 : 10:00AM9:00PM, Wed:04-26 : 10:00AM9:00PM, Thu:04-27 : 10:00AM9:00PM, Fri:04-28 : 10:00AM9:00PM, Sat:04-29 : 10:00AM9:00PM, Sun:04-30 : 12:00PM6:00PM, Mon:05-01 : 10:00AM9:00PM",,,
zumiez White Marsh Mall,979,"8200 Perry Hall Blvd, Ste 2490",,Baltimore,MD,21236,United States,410-931-3847,,,"Tue:04-25 : 10:00AM9:00PM, Wed:04-26 : 10:00AM9:00PM, Thu:04-27 : 10:00AM9:00PM, Fri:04-28 : 10:00AM9:00PM, Sat:04-29 : 10:00AM9:00PM, Sun:04-30 : 12:00PM6:00PM, Mon:05-01 : 10:00AM9:00PM",,,
zumiez Pecanland Mall,1290,4700 Milhaven Rd.Ste 1134,,Monroe,LA,71203,United States,318-651-9273,,,"Tue:04-25 : 10:00AM9:00PM, Wed:04-26 : 10:00AM9:00PM, Thu:04-27 : 10:00AM9:00PM, Fri:04-28 : 10:00AM9:00PM, Sat:04-29 : 10:00AM9:00PM, Sun:04-30 : 12:00PM6:00PM, Mon:05-01 : 10:00AM9:00PM",,,
zumiez Mall of Louisiana,1259,"6401 Bluebonnet Blvd., Ste 1140",,Baton Rouge,LA,70836,United States,225-769-2035,,,"Tue:04-25 : 10:00AM9:00PM, Wed:04-26 : 10:00AM9:00PM, Thu:04-27 : 10:00AM9:00PM, Fri:04-28 : 10:00AM9:00PM, Sat:04-29 : 10:00AM9:00PM, Sun:04-30 : 12:00PM6:00PM, Mon:05-01 : 10:00AM9:00PM",,,
zumiez The Maine Mall,1089,364 Maine Mall Rd,,South Portland,ME,04106,United States,207-253-1660,,,"Tue:04-25 : 9:30AM9:00PM, Wed:04-26 : 9:30AM9:00PM, Thu:04-27 : 9:30AM9:00PM, Fri:04-28 : 9:30AM9:00PM, Sat:04-29 : 9:30AM9:00PM, Sun:04-30 : 11:00AM6:00PM, Mon:05-01 : 9:30AM9:00PM",,,
zumiez Mall St. Matthews,1254,"5000 Shelbyville Rd.,Ste 1605",,Louisville,KY,40207,United States,502-896-1420,,,"Tue:04-25 : 10:00AM9:00PM, Wed:04-26 : 10:00AM9:00PM, Thu:04-27 : 10:00AM9:00PM, Fri:04-28 : 10:00AM9:00PM, Sat:04-29 : 10:00AM9:00PM, Sun:04-30 : 11:00AM6:00PM, Mon:05-01 : 10:00AM9:00PM",,,
zumiez Fayette Mall,1366,3615 Nicholasville Road Ste G-720,,Lexington,KY,40503,United States,859-271-5179,,,"Tue:04-25 : 10:00AM9:00PM, Wed:04-26 : 10:00AM9:00PM, Thu:04-27 : 10:00AM9:00PM, Fri:04-28 : 10:00AM9:00PM, Sat:04-29 : 10:00AM9:00PM, Sun:04-30 : 12:00PM6:00PM, Mon:05-01 : 10:00AM9:00PM",,,
zumiez Florence Mall,1327,2150 Florence Mall,,Florence,KY,41042,United States,859-282-6013,,,"Tue:04-25 : 10:00AM9:00PM, Wed:04-26 : 10:00AM9:00PM, Thu:04-27 : 10:00AM9:00PM, Fri:04-28 : 10:00AM9:00PM, Sat:04-29 : 10:00AM9:00PM, Sun:04-30 : 12:00PM6:00PM, Mon:05-01 : 10:00AM9:00PM",,,
zumiez West Ridge Mall,1079,"1801 SW Wanamaker Rd.,Spc F21A",,Topeka,KS,66604,United States,785-271-6281,,,"Tue:04-25 : 10:00AM9:00PM, Wed:04-26 : 10:00AM9:00PM, Thu:04-27 : 10:00AM9:00PM, Fri:04-28 : 10:00AM9:00PM, Sat:04-29 : 10:00AM9:00PM, Sun:04-30 : 12:00PM6:00PM, Mon:05-01 : 10:00AM9:00PM",,,
zumiez Mall at Acadiana,1280,"5725 Johnston St., Ste E-196",,Lafayette,LA,70503,United States,337-993-9679,,,"Tue:04-25 : 10:00AM9:00PM, Wed:04-26 : 10:00AM9:00PM, Thu:04-27 : 10:00AM9:00PM, Fri:04-28 : 10:00AM9:00PM, Sat:04-29 : 10:00AM9:00PM, Sun:04-30 : 12:00PM6:00PM, Mon:05-01 : 10:00AM9:00PM",,,
zumiez Towne East Square,1078,"7700 East Kellogg Dr.,Spc E05A",,Wichita,KS,67207,United States,316-688-1270,,,"Tue:04-25 : 10:00AM9:00PM, Wed:04-26 : 10:00AM9:00PM, Thu:04-27 : 10:00AM9:00PM, Fri:04-28 : 10:00AM9:00PM, Sat:04-29 : 10:00AM9:00PM, Sun:04-30 : 12:00PM6:00PM, Mon:05-01 : 10:00AM9:00PM",,,
zumiez NorthPark Mall,889,320 W Kimberly Rd,,Davenport,IA,52806,United States,563-386-3726,,,"Tue:04-25 : 10:00AM9:00PM, Wed:04-26 : 10:00AM9:00PM, Thu:04-27 : 10:00AM9:00PM, Fri:04-28 : 10:00AM9:00PM, Sat:04-29 : 10:00AM9:00PM, Sun:04-30 : 12:00PM6:00PM, Mon:05-01 : 10:00AM9:00PM",,,
zumiez Oak Park Mall,1070,"11703 West 95th St., Ste 131",,Overland Park,KS,66214,United States,913-310-9935,,,"Tue:04-25 : 10:00AM9:00PM, Wed:04-26 : 10:00AM9:00PM, Thu:04-27 : 10:00AM9:00PM, Fri:04-28 : 10:00AM9:00PM, Sat:04-29 : 10:00AM9:00PM, Sun:04-30 : 11:00AM6:00PM, Mon:05-01 : 10:00AM9:00PM",,,
zumiez Outlet at Bluegrass,1309,1155 Buck Creek Rd.Ste C-306,,Simpsonville,KY,40067,United States,502-722-5623,,,"Tue:04-25 : 10:00AM9:00PM, Wed:04-26 : 10:00AM9:00PM, Thu:04-27 : 10:00AM9:00PM, Fri:04-28 : 10:00AM9:00PM, Sat:04-29 : 10:00AM9:00PM, Sun:04-30 : 10:00AM7:00PM, Mon:05-01 : 10:00AM9:00PM",,,
zumiez Jordan Creek Town Center,1215,"101 Jordan Creek Pkwy, Ste 12390",,West Des Moines,IA,50266,United States,515-440-9992,,,"Tue:04-25 : 10:00AM9:00PM, Wed:04-26 : 10:00AM9:00PM, Thu:04-27 : 10:00AM9:00PM, Fri:04-28 : 10:00AM9:00PM, Sat:04-29 : 10:00AM9:00PM, Sun:04-30 : 11:00AM6:00PM, Mon:05-01 : 10:00AM9:00PM",,,
zumiez Coral Ridge Mall,1092,1451 Coral Ridge Ave,,Coralville,IA,52241,United States,319-338-1018,,,"Tue:04-25 : 10:00AM9:00PM, Wed:04-26 : 10:00AM9:00PM, Thu:04-27 : 10:00AM9:00PM, Fri:04-28 : 10:00AM9:00PM, Sat:04-29 : 10:00AM9:00PM, Sun:04-30 : 11:00AM6:00PM, Mon:05-01 : 10:00AM9:00PM",,,
zumiez University Park Mall,1221,"6501 Grape Rd.,Ste 125",,Mishawaka,IN,46545,United States,574-247-4289,,,"Tue:04-25 : 10:00AM9:00PM, Wed:04-26 : 10:00AM9:00PM, Thu:04-27 : 10:00AM9:00PM, Fri:04-28 : 10:00AM9:00PM, Sat:04-29 : 10:00AM9:00PM, Sun:04-30 : 11:00AM6:00PM, Mon:05-01 : 10:00AM9:00PM",,,
zumiez Lighthouse Place Premium,1173,207 Lighthouse Pl.,,Michigan City,IN,46360,United States,219-878-1595,,,"Tue:04-25 : 9:00AM9:00PM, Wed:04-26 : 9:00AM9:00PM, Thu:04-27 : 9:00AM9:00PM, Fri:04-28 : 9:00AM9:00PM, Sat:04-29 : 9:00AM9:00PM, Sun:04-30 : 9:00AM6:00PM, Mon:05-01 : 9:00AM9:00PM",,,
zumiez Tippecanoe Mall,1008,"2415 Sagamore Pkwy, Ste G09",,Lafayette,IN,47905,United States,765-447-4753,,,"Tue:04-25 : 10:00AM9:00PM, Wed:04-26 : 10:00AM9:00PM, Thu:04-27 : 10:00AM9:00PM, Fri:04-28 : 10:00AM9:00PM, Sat:04-29 : 10:00AM9:00PM, Sun:04-30 : 12:00PM6:00PM, Mon:05-01 : 10:00AM9:00PM",,,
zumiez Hamilton Town Ctr,1007,"13976 Town Ctr.Blvd.,Ste 500",,Noblesville,IN,46060,United States,317-773-2037,,,"Tue:04-25 : 10:00AM9:00PM, Wed:04-26 : 10:00AM9:00PM, Thu:04-27 : 10:00AM9:00PM, Fri:04-28 : 10:00AM9:00PM, Sat:04-29 : 10:00AM9:00PM, Sun:04-30 : 11:00AM6:00PM, Mon:05-01 : 10:00AM9:00PM",,,
zumiez Southern Hills Mall,1277,"440 Sergeant Road , Ste 118",,Sioux City,IA,51106,United States,712-274-5901,,,"Tue:04-25 : 10:00AM9:00PM, Wed:04-26 : 10:00AM9:00PM, Thu:04-27 : 10:00AM9:00PM, Fri:04-28 : 10:00AM9:00PM, Sat:04-29 : 10:00AM9:00PM, Sun:04-30 : 12:00PM6:00PM, Mon:05-01 : 10:00AM9:00PM",,,
zumiez Glenbrook Square,1140,"4201 Coldwater Rd, Suite M12",,Fort Wayne,IN,46805,United States,260-471-0935,,,"Tue:04-25 : 10:00AM9:00PM, Wed:04-26 : 10:00AM9:00PM, Thu:04-27 : 10:00AM9:00PM, Fri:04-28 : 10:00AM9:00PM, Sat:04-29 : 10:00AM9:00PM, Sun:04-30 : 11:00AM6:00PM, Mon:05-01 : 10:00AM9:00PM",,,
zumiez Eastland Mall,1219,"800 N Green River Rd, Ste 64",,Evansville,IN,47715,United States,812-471-4870,,,"Tue:04-25 : 10:00AM9:00PM, Wed:04-26 : 10:00AM9:00PM, Thu:04-27 : 10:00AM9:00PM, Fri:04-28 : 10:00AM9:00PM, Sat:04-29 : 10:00AM9:00PM, Sun:04-30 : 12:00PM6:00PM, Mon:05-01 : 10:00AM9:00PM",,,
zumiez Castleton Square,1005,"6020 E 82nd.St.,Ste 332A",,Indianapolis,IN,46250,United States,317-579-9534,,,"Tue:04-25 : 10:00AM9:00PM, Wed:04-26 : 10:00AM9:00PM, Thu:04-27 : 10:00AM9:00PM, Fri:04-28 : 10:00AM9:00PM, Sat:04-29 : 10:00AM9:00PM, Sun:04-30 : 11:00AM6:00PM, Mon:05-01 : 10:00AM9:00PM",,,
zumiez Greenwood Park Mall,1004,"1251 US 31 North, Spc.C01D",,Greenwood,IN,46142,United States,317-859-8479,,,"Tue:04-25 : 10:00AM9:00PM, Wed:04-26 : 10:00AM9:00PM, Thu:04-27 : 10:00AM9:00PM, Fri:04-28 : 10:00AM9:00PM, Sat:04-29 : 10:00AM9:00PM, Sun:04-30 : 11:00AM6:00PM, Mon:05-01 : 10:00AM9:00PM",,,
zumiez St. Clair Square,1217,"134 St. Clair Square, Ste164",,Fairview Heights,IL,62208,United States,618-622-3290,,,"Tue:04-25 : 10:00AM9:00PM, Wed:04-26 : 10:00AM9:00PM, Thu:04-27 : 10:00AM9:00PM, Fri:04-28 : 10:00AM9:00PM, Sat:04-29 : 10:00AM9:00PM, Sun:04-30 : 11:00AM6:00PM, Mon:05-01 : 10:00AM9:00PM",,,
zumiez College Mall,1006,"2984 E Third St.,Ste C08",,Bloomington,IN,47407,United States,812-333-3164,,,"Tue:04-25 : 10:00AM9:00PM, Wed:04-26 : 10:00AM9:00PM, Thu:04-27 : 10:00AM9:00PM, Fri:04-28 : 10:00AM9:00PM, Sat:04-29 : 10:00AM9:00PM, Sun:04-30 : 12:00PM6:00PM, Mon:05-01 : 10:00AM9:00PM",,,
zumiez Fashion Out.of Chicago,1265,"5220 Fashion Outlets Wy., Ste 1176",,Rosemont,IL,60018,United States,847-678-8067,,,"Tue:04-25 : 10:00AM9:00PM, Wed:04-26 : 10:00AM9:00PM, Thu:04-27 : 10:00AM9:00PM, Fri:04-28 : 10:00AM9:00PM, Sat:04-29 : 10:00AM9:00PM, Sun:04-30 : 10:00AM7:00PM, Mon:05-01 : 10:00AM9:00PM",,,
zumiez Westfield Southlake Mall,949,"2048 Southlake Mall, Suite BL236",,Merrillville,IN,46410,United States,219-769-6319,,,"Tue:04-25 : 10:00AM9:00PM, Wed:04-26 : 10:00AM9:00PM, Thu:04-27 : 10:00AM9:00PM, Fri:04-28 : 10:00AM9:00PM, Sat:04-29 : 10:00AM9:00PM, Sun:04-30 : 11:00AM6:00PM, Mon:05-01 : 10:00AM9:00PM",,,
zumiez State Street,1354,2 South State Street,,Chicago,IL,60603,United States,312-629-2671,,,"Tue:04-25 : 10:00AM9:00PM, Wed:04-26 : 10:00AM9:00PM, Thu:04-27 : 10:00AM9:00PM, Fri:04-28 : 10:00AM9:00PM, Sat:04-29 : 10:00AM9:00PM, Sun:04-30 : 11:00AM8:00PM, Mon:05-01 : 10:00AM9:00PM",,,
zumiez Chicago Ridge Mall,950,"310 Chicago Ridge Mall, Ste C16",,Chicago Ridge,IL,60415,United States,708-424-1624,,,"Tue:04-25 : 10:00AM9:00PM, Wed:04-26 : 10:00AM9:00PM, Thu:04-27 : 10:00AM9:00PM, Fri:04-28 : 10:00AM9:00PM, Sat:04-29 : 10:00AM9:00PM, Sun:04-30 : 11:00AM6:00PM, Mon:05-01 : 10:00AM9:00PM",,,
zumiez White Oaks Mall,1081,2501 W Wabash St.,,Springfield,IL,62704,United States,217-726-7659,,,"Tue:04-25 : 10:00AM9:00PM, Wed:04-26 : 10:00AM9:00PM, Thu:04-27 : 10:00AM9:00PM, Fri:04-28 : 10:00AM9:00PM, Sat:04-29 : 10:00AM9:00PM, Sun:04-30 : 11:00AM6:00PM, Mon:05-01 : 10:00AM9:00PM",,,
zumiez North Riverside Park Mall,1318,"7501 W. Cermack Rd., Ste H5",,North Riverside,IL,60546,United States,708-442-9150,,,"Tue:04-25 : 10:00AM9:00PM, Wed:04-26 : 10:00AM9:00PM, Thu:04-27 : 10:00AM9:00PM, Fri:04-28 : 10:00AM9:00PM, Sat:04-29 : 10:00AM9:00PM, Sun:04-30 : 11:00AM6:00PM, Mon:05-01 : 10:00AM9:00PM",,,
zumiez Promenade Bolingbrook,944,"623 E Boughton Rd, Ste145",,Bolingbrook,IL,60440,United States,630-739-2063,,,"Tue:04-25 : 10:00AM9:00PM, Wed:04-26 : 10:00AM9:00PM, Thu:04-27 : 10:00AM9:00PM, Fri:04-28 : 10:00AM9:00PM, Sat:04-29 : 10:00AM9:00PM, Sun:04-30 : 11:00AM6:00PM, Mon:05-01 : 10:00AM9:00PM",,,
zumiez Summit Sierra Mall,898,"13985 S Virginia St.,Ste 806",,Reno,NV,89511,United States,775-852-7802,,,,,,
zumiez Northwoods Mall,1080,"4501 War Memorial Dr.,Spc BL05",,Peoria,IL,61613,United States,309-686-8291,,,"Tue:04-25 : 10:00AM9:00PM, Wed:04-26 : 10:00AM9:00PM, Thu:04-27 : 10:00AM9:00PM, Fri:04-28 : 10:00AM9:00PM, Sat:04-29 : 10:00AM9:00PM, Sun:04-30 : 11:00AM6:00PM, Mon:05-01 : 10:00AM9:00PM",,,
zumiez Orland Square Mall,852,"632 Orland Square, Ste F08B",,Orland Park,IL,60462,United States,708-349-0831,,,"Tue:04-25 : 10:00AM9:00PM, Wed:04-26 : 10:00AM9:00PM, Thu:04-27 : 10:00AM9:00PM, Fri:04-28 : 10:00AM9:00PM, Sat:04-29 : 10:00AM9:00PM, Sun:04-30 : 11:00AM6:00PM, Mon:05-01 : 10:00AM9:00PM",,,
zumiez Gurnee Mills,829,"6170 W Grand Ave, Ste 689",,Gurnee,IL,60031,United States,847-856-8483,,,"Tue:04-25 : 10:00AM9:00PM, Wed:04-26 : 10:00AM9:00PM, Thu:04-27 : 10:00AM9:00PM, Fri:04-28 : 10:00AM9:00PM, Sat:04-29 : 10:00AM9:00PM, Sun:04-30 : 11:00AM7:00PM, Mon:05-01 : 10:00AM9:00PM",,,
zumiez Spring Hill Mall,813,1562 Spring Hill Mall,,West Dundee,IL,60118,United States,847-426-4743,,,"Tue:04-25 : 10:00AM9:00PM, Wed:04-26 : 10:00AM9:00PM, Thu:04-27 : 10:00AM9:00PM, Fri:04-28 : 10:00AM9:00PM, Sat:04-29 : 10:00AM9:00PM, Sun:04-30 : 11:00AM6:00PM, Mon:05-01 : 10:00AM9:00PM",,,
zumiez Harlem Irving Plaza,1045,"4174 N Harlem Ave,Ste 184",,Norridge,IL,60706,United States,708-452-0415,,,,,,
zumiez Woodfield Mall,930,300 Woodfield Dr. Suite F325,,Schaumburg,IL,60173,United States,847-517-8750,,,,,,
zumiez Yorktown Center,907,"Yorktown Shopping Ctr., Ste 215",,Lombard,IL,60148,United States,630-268-9499,,,,,,
zumiez Cherryvale Mall,859,7200 Harrison,,Rockford,IL,61112,United States,815-332-9162,,,,,,
zumiez Westfield Fox Valley,847,195 Fox Valley Center Dr. Ste B9,,Aurora,IL,60504,United States,630-236-0876,,,,,,
zumiez Chicago Premium,842,"1650 Premium Outlet Blvd, Ste 403",,Aurora,IL,60504,United States,630-499-8980,,,,,,
zumiez Stratford Square Mall,811,903 Stratford Square,,Bloomingdale,IL,60108,United States,630-980-0644,,,"Tue:04-25 : 10:00AM9:00PM, Wed:04-26 : 10:00AM9:00PM, Thu:04-27 : 10:00AM9:00PM, Fri:04-28 : 10:00AM9:00PM, Sat:04-29 : 10:00AM9:00PM, Sun:04-30 : 11:00AM6:00PM, Mon:05-01 : 10:00AM9:00PM",,,
zumiez The Village at Riverstone,1016,"2019 N Main St, Suite B108",,Coeur D'Alene,ID,83814,United States,208-765-4093,,,"Tue:04-25 : 10:00AM9:00PM, Wed:04-26 : 10:00AM9:00PM, Thu:04-27 : 10:00AM9:00PM, Fri:04-28 : 10:00AM9:00PM, Sat:04-29 : 10:00AM9:00PM, Sun:04-30 : 11:00AM6:00PM, Mon:05-01 : 10:00AM9:00PM",,,
zumiez Louis Joliet Mall,812,"3340 Mall Loop Dr, Ste 1214",,Joliet,IL,60431,United States,815-439-9105,,,,,,
zumiez Magic Valley Mall,765,1485 Pole Line Rd.East.103/105,,Twin Falls,ID,83301,United States,208-735-1257,,,"Tue:04-25 : 10:00AM9:00PM, Wed:04-26 : 10:00AM9:00PM, Thu:04-27 : 10:00AM9:00PM, Fri:04-28 : 10:00AM9:00PM, Sat:04-29 : 10:00AM9:00PM, Sun:04-30 : 11:00AM6:00PM, Mon:05-01 : 10:00AM9:00PM",,,
zumiez Queen Ka'ahumanu,1298,"275 W Ka'ahumanu Ave,Ste 1C06",,Kahului,HI,96732,United States,808-877-6403,,,"Tue:04-25 : 9:30AM9:00PM, Wed:04-26 : 9:30AM9:00PM, Thu:04-27 : 9:30AM9:00PM, Fri:04-28 : 9:30AM9:00PM, Sat:04-29 : 9:30AM9:00PM, Sun:04-30 : 10:00AM5:00PM, Mon:05-01 : 9:30AM9:00PM",,,
zumiez Boise Towne Square,748,350 North Milwaukee Ste 2170,,Boise,ID,83704,United States,208-376-9958,,,"Tue:04-25 : 10:00AM9:00PM, Wed:04-26 : 10:00AM9:00PM, Thu:04-27 : 10:00AM9:00PM, Fri:04-28 : 10:00AM9:00PM, Sat:04-29 : 10:00AM9:00PM, Sun:04-30 : 11:00AM7:00PM, Mon:05-01 : 10:00AM9:00PM",,,
zumiez Ala Moana Center,1246,"1450 Ala Moana Blvd, Ste 3063",,Honolulu,HI,96814,United States,808-955-5323,,,"Tue:04-25 : 9:30AM9:00PM, Wed:04-26 : 9:30AM9:00PM, Thu:04-27 : 9:30AM9:00PM, Fri:04-28 : 9:30AM9:00PM, Sat:04-29 : 9:30AM9:00PM, Sun:04-30 : 10:00AM7:00PM, Mon:05-01 : 9:30AM9:00PM",,,
zumiez Prince Kuhio Plaza,1264,"111 E Puainako St, Ste 555",,Hilo,HI,96720,United States,808-981-0161,,,"Tue:04-25 : 10:00AM8:00PM, Wed:04-26 : 10:00AM8:00PM, Thu:04-27 : 10:00AM8:00PM, Fri:04-28 : 10:00AM9:00PM, Sat:04-29 : 10:00AM9:00PM, Sun:04-30 : 10:00AM6:00PM, Mon:05-01 : 10:00AM8:00PM",,,
zumiez Pearlridge Center,1234,"98-1005 Moanalua Rd.,Ste 535",,Aiea,HI,96701,United States,808-487-3013,,,"Tue:04-25 : 10:00AM9:00PM, Wed:04-26 : 10:00AM9:00PM, Thu:04-27 : 10:00AM9:00PM, Fri:04-28 : 10:00AM9:00PM, Sat:04-29 : 10:00AM9:00PM, Sun:04-30 : 10:00AM6:00PM, Mon:05-01 : 10:00AM9:00PM",,,
zumiez Waikele Outlets,1160,94-790 Lumiaina St,,Waipahu,HI,96797,United States,808-678-2103,,,"Tue:04-25 : 9:00AM9:00PM, Wed:04-26 : 9:00AM9:00PM, Thu:04-27 : 9:00AM9:00PM, Fri:04-28 : 9:00AM9:00PM, Sat:04-29 : 9:00AM9:00PM, Sun:04-30 : 10:00AM6:00PM, Mon:05-01 : 9:00AM9:00PM",,,
zumiez Royal Hawaiian Center,1100,"2201 Kalakaua Ave.,Ste A-112",,Honolulu,HI,96815,United States,808-926-0303,,,"Tue:04-25 : 10:00AM11:00PM, Wed:04-26 : 10:00AM11:00PM, Thu:04-27 : 10:00AM11:00PM, Fri:04-28 : 10:00AM11:00PM, Sat:04-29 : 10:00AM11:00PM, Sun:04-30 : 10:00AM11:00PM, Mon:05-01 : 10:00AM11:00PM",,,
zumiez Ka Makana Alii,1381,91-5431 Kapolei Parkway Unit 710,,Kapolei,HI,96707,United States,808-628-4705,,,"Tue:04-25 : 10:00AM9:00PM, Wed:04-26 : 10:00AM9:00PM, Thu:04-27 : 10:00AM9:00PM, Fri:04-28 : 10:00AM9:00PM, Sat:04-29 : 10:00AM9:00PM, Sun:04-30 : 10:00AM6:00PM, Mon:05-01 : 10:00AM9:00PM",,,
zumiez Augusta Mall,1338,"3450 Wrightsboro Rd., Ste 1360",,Augusta,GA,30909,United States,706-667-7319,,,"Tue:04-25 : 10:00AM9:00PM, Wed:04-26 : 10:00AM9:00PM, Thu:04-27 : 10:00AM9:00PM, Fri:04-28 : 10:00AM9:00PM, Sat:04-29 : 10:00AM9:00PM, Sun:04-30 : 12:00PM6:00PM, Mon:05-01 : 10:00AM9:00PM",,,
zumiez Sugarloaf Mills,1339,"5900 Sugarloaf Parkway, Ste 509",,Lawrenceville,GA,30043,United States,678-847-6338,,,"Tue:04-25 : 10:00AM9:00PM, Wed:04-26 : 10:00AM9:00PM, Thu:04-27 : 10:00AM9:00PM, Fri:04-28 : 10:00AM9:00PM, Sat:04-29 : 10:00AM9:00PM, Sun:04-30 : 12:00PM6:00PM, Mon:05-01 : 10:00AM9:00PM",,,
zumiez North Point Mall,1319,"1000 Northpoint Circle, Ste 2036",,Alpharetta,GA,30022,United States,678-566-1660,,,"Tue:04-25 : 10:00AM9:00PM, Wed:04-26 : 10:00AM9:00PM, Thu:04-27 : 10:00AM9:00PM, Fri:04-28 : 10:00AM9:00PM, Sat:04-29 : 10:00AM9:00PM, Sun:04-30 : 12:00PM7:00PM, Mon:05-01 : 10:00AM9:00PM",,,
zumiez Peachtree Mall,1279,"3131 Manchester Expy., Ste 39",,Columbus,GA,31909,United States,706-649-7127,,,"Tue:04-25 : 10:00AM9:00PM, Wed:04-26 : 10:00AM9:00PM, Thu:04-27 : 10:00AM9:00PM, Fri:04-28 : 10:00AM9:00PM, Sat:04-29 : 10:00AM9:00PM, Sun:04-30 : 12:00PM6:00PM, Mon:05-01 : 10:00AM9:00PM",,,
zumiez Cumberland Mall,1315,"1422 Cumberland Mall SE, Ste 263",,Atlanta,GA,30339,United States,678-309-0887,,,"Tue:04-25 : 10:00AM9:00PM, Wed:04-26 : 10:00AM9:00PM, Thu:04-27 : 10:00AM9:00PM, Fri:04-28 : 10:00AM9:00PM, Sat:04-29 : 10:00AM9:00PM, Sun:04-30 : 12:00PM6:00PM, Mon:05-01 : 10:00AM9:00PM",,,
zumiez Tanger Savannah,1328,"11 Mill Circle,Ste 369",,Pooler,GA,31322,United States,912-450-9001,,,"Tue:04-25 : 9:00AM9:00PM, Wed:04-26 : 9:00AM9:00PM, Thu:04-27 : 9:00AM9:00PM, Fri:04-28 : 9:00AM9:00PM, Sat:04-29 : 9:00AM9:00PM, Sun:04-30 : 10:00AM7:00PM, Mon:05-01 : 9:00AM9:00PM",,,
zumiez Oglethorpe Mall,1262,7804 Abercorn St. Ste 57A,,Savannah,GA,31406,United States,912-355-6745,,,"Tue:04-25 : 10:00AM9:00PM, Wed:04-26 : 10:00AM9:00PM, Thu:04-27 : 10:00AM9:00PM, Fri:04-28 : 10:00AM9:00PM, Sat:04-29 : 10:00AM9:00PM, Sun:04-30 : 12:00PM6:00PM, Mon:05-01 : 10:00AM9:00PM",,,
zumiez Outlet Shoppes at Atlanta,1261,"915 Ridgewalk Pkwy.,Ste 760",,Woodstock,GA,30188,United States,770-591-6869,,,"Tue:04-25 : 10:00AM9:00PM, Wed:04-26 : 10:00AM9:00PM, Thu:04-27 : 10:00AM9:00PM, Fri:04-28 : 10:00AM9:00PM, Sat:04-29 : 10:00AM9:00PM, Sun:04-30 : 11:00AM7:00PM, Mon:05-01 : 10:00AM9:00PM",,,
zumiez Grand Teton Mall,766,2300 East 17th St,,Idaho Falls,ID,83404,United States,208-525-8642,,,,,,
zumiez North Georgia Prem.,1204,"800 Hwy 400 South, Ste 320",,Dawsonville,GA,30534,United States,706-265-8076,,,"Tue:04-25 : 10:00AM9:00PM, Wed:04-26 : 10:00AM9:00PM, Thu:04-27 : 10:00AM9:00PM, Fri:04-28 : 10:00AM9:00PM, Sat:04-29 : 10:00AM9:00PM, Sun:04-30 : 11:00AM7:00PM, Mon:05-01 : 10:00AM9:00PM",,,
zumiez Mall of Georgia,1179,"3333 Buford Dr., Ste 1012A",,Buford,GA,30519,United States,678-482-6429,,,"Tue:04-25 : 10:00AM9:00PM, Wed:04-26 : 10:00AM9:00PM, Thu:04-27 : 10:00AM9:00PM, Fri:04-28 : 10:00AM9:00PM, Sat:04-29 : 10:00AM9:00PM, Sun:04-30 : 12:00PM6:00PM, Mon:05-01 : 10:00AM9:00PM",,,
zumiez Town Center at Cobb,1178,400 Ernest W Barrett Pkwy,,Kennesaw,GA,30144,United States,678-354-9227,,,"Tue:04-25 : 10:00AM9:00PM, Wed:04-26 : 10:00AM9:00PM, Thu:04-27 : 10:00AM9:00PM, Fri:04-28 : 10:00AM9:00PM, Sat:04-29 : 10:00AM9:00PM, Sun:04-30 : 12:00PM6:00PM, Mon:05-01 : 10:00AM9:00PM",,,
zumiez Pine Ridge Mall,819,4155 Yellowstone Ave Ste 1215,,Chubbuck,ID,83202,United States,208-637-0215,,,,,,
zumiez Governor's Square,1379,1500 Apalachee Parkway Ste 1395,,Tallahassee,FL,32301,United States,850-309-0059,,,"Tue:04-25 : 10:00AM9:00PM, Wed:04-26 : 10:00AM9:00PM, Thu:04-27 : 10:00AM9:00PM, Fri:04-28 : 10:00AM9:00PM, Sat:04-29 : 10:00AM9:00PM, Sun:04-30 : 12:00PM6:00PM, Mon:05-01 : 10:00AM9:00PM",,,
zumiez Palouse Mall,786,"1850 W Pullman Rd, C9",,Moscow,ID,83843,United States,208-892-9176,,,,,,
zumiez The Avenues,1372,10300 Southside Blvd. 2125B,,Jacksonville,FL,32256,United States,904-464-0271,,,"Tue:04-25 : 10:00AM9:00PM, Wed:04-26 : 10:00AM9:00PM, Thu:04-27 : 10:00AM9:00PM, Fri:04-28 : 10:00AM9:00PM, Sat:04-29 : 10:00AM9:00PM, Sun:04-30 : 12:00PM6:00PM, Mon:05-01 : 10:00AM9:00PM",,,
zumiez Tyrone Square Mall,1363,6901 22nd Ave N,,Saint Petersburg,FL,33710,United States,727-343-3239,,,"Tue:04-25 : 10:00AM9:00PM, Wed:04-26 : 10:00AM9:00PM, Thu:04-27 : 10:00AM9:00PM, Fri:04-28 : 10:00AM9:00PM, Sat:04-29 : 10:00AM9:00PM, Sun:04-30 : 11:00AM7:00PM, Mon:05-01 : 10:00AM9:00PM",,,
zumiez Destin Commons,1346,"4231 Legendary Dr., Ste G102",,Destin,FL,32541,United States,850-650-2419,,,"Tue:04-25 : 10:00AM9:00PM, Wed:04-26 : 10:00AM9:00PM, Thu:04-27 : 10:00AM9:00PM, Fri:04-28 : 10:00AM9:00PM, Sat:04-29 : 10:00AM9:00PM, Sun:04-30 : 11:00AM7:00PM, Mon:05-01 : 10:00AM9:00PM",,,
zumiez Arbor Place Mall,1192,"6700 Douglas Blvd., Ste 1110",,Douglasville,GA,30135,United States,770-489-7266,,,"Tue:04-25 : 10:00AM9:00PM, Wed:04-26 : 10:00AM9:00PM, Thu:04-27 : 10:00AM9:00PM, Fri:04-28 : 10:00AM9:00PM, Sat:04-29 : 10:00AM9:00PM, Sun:04-30 : 12:00PM6:00PM, Mon:05-01 : 10:00AM9:00PM",,,
zumiez Melbourne Square,1301,"1700 W. New Haven Ave, Ste 747A",,Melbourne,FL,32904,United States,321-726-9428,,,"Tue:04-25 : 10:00AM9:00PM, Wed:04-26 : 10:00AM9:00PM, Thu:04-27 : 10:00AM9:00PM, Fri:04-28 : 10:00AM9:00PM, Sat:04-29 : 10:00AM9:00PM, Sun:04-30 : 12:00PM6:00PM, Mon:05-01 : 10:00AM9:00PM",,,
zumiez Coral Square Mall,1299,"9469 West Atlantic Blvd., Ste 9497",,Coral Springs,FL,33071,United States,954-227-1681,,,"Tue:04-25 : 10:00AM9:00PM, Wed:04-26 : 10:00AM9:00PM, Thu:04-27 : 10:00AM9:00PM, Fri:04-28 : 10:00AM9:00PM, Sat:04-29 : 10:00AM9:00PM, Sun:04-30 : 12:00PM6:00PM, Mon:05-01 : 10:00AM9:00PM",,,
zumiez Westfield Broward,1352,"8000 West Broward Blvd, Ste 1715",,Plantation,FL,33388,United States,954-424-4328,,,"Tue:04-25 : 10:00AM9:00PM, Wed:04-26 : 10:00AM9:00PM, Thu:04-27 : 10:00AM9:00PM, Fri:04-28 : 10:00AM9:00PM, Sat:04-29 : 10:00AM9:00PM, Sun:04-30 : 11:00AM6:00PM, Mon:05-01 : 10:00AM9:00PM",,,
zumiez Palm Beach Outlets,1285,"1741 Palm Beach Lakes Blvd, E225",,West Palm Beach,FL,33401,United States,561-640-9033,,,"Tue:04-25 : 10:00AM9:00PM, Wed:04-26 : 10:00AM9:00PM, Thu:04-27 : 10:00AM9:00PM, Fri:04-28 : 10:00AM9:00PM, Sat:04-29 : 10:00AM9:00PM, Sun:04-30 : 11:00AM7:00PM, Mon:05-01 : 10:00AM9:00PM",,,
zumiez Wellington Green,1283,10300 W.Forest Hill Blvd Ste 130,,Wellington,FL,33414,United States,561-795-0861,,,"Tue:04-25 : 10:00AM9:00PM, Wed:04-26 : 10:00AM9:00PM, Thu:04-27 : 10:00AM9:00PM, Fri:04-28 : 10:00AM9:00PM, Sat:04-29 : 10:00AM9:00PM, Sun:04-30 : 11:00AM6:00PM, Mon:05-01 : 10:00AM9:00PM",,,
zumiez Citrus Park Mall,1344,8126 Citrus Pk Twn Center,,Citrus Park,FL,33625,United States,813-792-2816,,,"Tue:04-25 : 10:00AM9:00PM, Wed:04-26 : 10:00AM9:00PM, Thu:04-27 : 10:00AM9:00PM, Fri:04-28 : 10:00AM9:00PM, Sat:04-29 : 10:00AM9:00PM, Sun:04-30 : 12:00PM6:00PM, Mon:05-01 : 10:00AM9:00PM",,,
zumiez Town Center at Boca Raton,1305,"6000 Glades Rd., Ste 1114",,Boca Raton,FL,33431,United States,561-394-6445,,,"Tue:04-25 : 10:00AM9:00PM, Wed:04-26 : 10:00AM9:00PM, Thu:04-27 : 10:00AM9:00PM, Fri:04-28 : 10:00AM9:00PM, Sat:04-29 : 10:00AM9:00PM, Sun:04-30 : 12:00PM6:00PM, Mon:05-01 : 10:00AM9:00PM",,,
zumiez Paddock Mall,1281,"3100 College Rd., Ste 272",,Ocala,FL,34474,United States,352-854-3227,,,"Tue:04-25 : 10:00AM9:00PM, Wed:04-26 : 10:00AM9:00PM, Thu:04-27 : 10:00AM9:00PM, Fri:04-28 : 10:00AM9:00PM, Sat:04-29 : 10:00AM9:00PM, Sun:04-30 : 12:00PM5:30PM, Mon:05-01 : 10:00AM9:00PM",,,
zumiez Orlando Premium II,1270,"4959 International Drive, Ste F19",,Orlando,FL,32819,United States,407-355-3047,,,"Tue:04-25 : 10:00AM11:00PM, Wed:04-26 : 10:00AM11:00PM, Thu:04-27 : 10:00AM11:00PM, Fri:04-28 : 10:00AM11:00PM, Sat:04-29 : 10:00AM11:00PM, Sun:04-30 : 10:00AM9:00PM, Mon:05-01 : 10:00AM11:00PM",,,
zumiez Aventura Mall,1360,19575 Biscayne Blvd.Ste 1273,,Aventura,FL,33180,United States,305-792-4179,,,"Tue:04-25 : 10:00AM9:30PM, Wed:04-26 : 10:00AM9:30PM, Thu:04-27 : 10:00AM9:30PM, Fri:04-28 : 10:00AM9:30PM, Sat:04-29 : 10:00AM9:30PM, Sun:04-30 : 12:00PM8:00PM, Mon:05-01 : 10:00AM9:30PM",,,
zumiez Miromar Outlets,1358,10801 Corkscrew Rd. Ste 503,,Estero,FL,33928,United States,239-947-1010,,,"Tue:04-25 : 10:00AM9:00PM, Wed:04-26 : 10:00AM9:00PM, Thu:04-27 : 10:00AM9:00PM, Fri:04-28 : 10:00AM9:00PM, Sat:04-29 : 10:00AM9:00PM, Sun:04-30 : 11:00AM6:00PM, Mon:05-01 : 10:00AM9:00PM",,,
zumiez The Florida Mall,1057,8001 S Orange Blossom Trl.Ste 636,,Orlando,FL,32809,United States,407-858-9727,,,"Tue:04-25 : 10:00AM9:00PM, Wed:04-26 : 10:00AM9:00PM, Thu:04-27 : 10:00AM9:00PM, Fri:04-28 : 10:00AM9:00PM, Sat:04-29 : 10:00AM10:00PM, Sun:04-30 : 12:00PM8:00PM, Mon:05-01 : 10:00AM9:00PM",,,
zumiez Cordova Mall,1230,"5100 9th Ave, Ste E517",,Pensacola,FL,32504,United States,850-478-6104,,,"Tue:04-25 : 10:00AM9:00PM, Wed:04-26 : 10:00AM9:00PM, Thu:04-27 : 10:00AM9:00PM, Fri:04-28 : 10:00AM9:00PM, Sat:04-29 : 10:00AM9:00PM, Sun:04-30 : 12:00PM6:00PM, Mon:05-01 : 10:00AM9:00PM",,,
zumiez Orange Park Mall,1185,"1910 Wells Rd, Ste E05A",,Orange Park,FL,32073,United States,904-215-9356,,,"Tue:04-25 : 10:00AM9:00PM, Wed:04-26 : 10:00AM9:00PM, Thu:04-27 : 10:00AM9:00PM, Fri:04-28 : 10:00AM9:00PM, Sat:04-29 : 10:00AM9:00PM, Sun:04-30 : 12:00PM6:00PM, Mon:05-01 : 10:00AM9:00PM",,,
zumiez Edison Mall,1268,"4125 Cleveland Ave, Ste.1010",,Fort Meyers,FL,33901,United States,239-931-1079,,,"Tue:04-25 : 10:00AM9:00PM, Wed:04-26 : 10:00AM9:00PM, Thu:04-27 : 10:00AM9:00PM, Fri:04-28 : 10:00AM9:00PM, Sat:04-29 : 10:00AM9:00PM, Sun:04-30 : 11:30AM5:30PM, Mon:05-01 : 10:00AM9:00PM",,,
zumiez Sawgrass Mills,1048,"12801 W Sunrise Blvd, Spc 721",,Sunrise,FL,33323,United States,954-846-7740,,,"Tue:04-25 : 10:00AM9:30PM, Wed:04-26 : 10:00AM9:30PM, Thu:04-27 : 10:00AM9:30PM, Fri:04-28 : 10:00AM9:30PM, Sat:04-29 : 10:00AM9:30PM, Sun:04-30 : 11:00AM8:00PM, Mon:05-01 : 10:00AM9:30PM",,,
zumiez Orlando Premium,992,"8200 Vineland Ave, Ste 1721",,Orlando,FL,32821,United States,407-238-4655,,,"Tue:04-25 : 10:00AM11:00PM, Wed:04-26 : 10:00AM11:00PM, Thu:04-27 : 10:00AM11:00PM, Fri:04-28 : 10:00AM11:00PM, Sat:04-29 : 10:00AM11:00PM, Sun:04-30 : 10:00AM9:00PM, Mon:05-01 : 10:00AM11:00PM",,,
zumiez The Oaks Mall,1176,"6419 Newberry Rd, Ste D0007",,Gainesville,FL,32605,United States,352-332-8993,,,"Tue:04-25 : 10:00AM9:00PM, Wed:04-26 : 10:00AM9:00PM, Thu:04-27 : 10:00AM9:00PM, Fri:04-28 : 10:00AM9:00PM, Sat:04-29 : 10:00AM9:00PM, Sun:04-30 : 12:00PM6:00PM, Mon:05-01 : 10:00AM9:00PM",,,
zumiez St. Augustine Premium,1199,"2700 State Rd., Ste 616",,St. Augustine,FL,32092,United States,904-808-0798,,,"Tue:04-25 : 9:00AM9:00PM, Wed:04-26 : 9:00AM9:00PM, Thu:04-27 : 9:00AM9:00PM, Fri:04-28 : 9:00AM9:00PM, Sat:04-29 : 9:00AM9:00PM, Sun:04-30 : 10:00AM6:00PM, Mon:05-01 : 9:00AM9:00PM",,,
zumiez The Shops at Sunset Place,1042,5701 Sunset Dr,,South Miami,FL,33143,United States,305-667-4987,,,"Tue:04-25 : 11:00AM10:00PM, Wed:04-26 : 11:00AM10:00PM, Thu:04-27 : 11:00AM10:00PM, Fri:04-28 : 11:00AM10:00PM, Sat:04-29 : 11:00AM10:00PM, Sun:04-30 : 11:00AM9:00PM, Mon:05-01 : 11:00AM10:00PM",,,
zumiez Altamonte Mall,946,"451 E Altamonte Dr, 2381",,Altamonte Springs,FL,32701,United States,407-260-0173,,,"Tue:04-25 : 10:00AM9:00PM, Wed:04-26 : 10:00AM9:00PM, Thu:04-27 : 10:00AM9:00PM, Fri:04-28 : 10:00AM9:00PM, Sat:04-29 : 10:00AM9:00PM, Sun:04-30 : 12:00PM6:00PM, Mon:05-01 : 10:00AM9:00PM",,,
zumiez The Shops at Pembroke,978,526 SW 145th Terrace,,Pembroke Pines,FL,33027,United States,954-443-6237,,,"Tue:04-25 : 10:00AM9:00PM, Wed:04-26 : 10:00AM9:00PM, Thu:04-27 : 10:00AM9:00PM, Fri:04-28 : 10:00AM9:00PM, Sat:04-29 : 10:00AM9:00PM, Sun:04-30 : 11:00AM7:00PM, Mon:05-01 : 10:00AM9:00PM",,,
zumiez Seminole Towne Ctr.,1056,165 Towne Center Cir.,,Sanford,FL,32771,United States,407-321-7583,,,"Tue:04-25 : 10:00AM9:00PM, Wed:04-26 : 10:00AM9:00PM, Thu:04-27 : 10:00AM9:00PM, Fri:04-28 : 10:00AM9:00PM, Sat:04-29 : 10:00AM9:00PM, Sun:04-30 : 12:00PM6:00PM, Mon:05-01 : 10:00AM9:00PM",,,
zumiez Westfield Countryside,925,"27001 US Hwy19 N, Ste 2062",,Clearwater,FL,33761,United States,727-725-3032,,,"Tue:04-25 : 10:00AM9:00PM, Wed:04-26 : 10:00AM9:00PM, Thu:04-27 : 10:00AM9:00PM, Fri:04-28 : 10:00AM9:00PM, Sat:04-29 : 10:00AM9:00PM, Sun:04-30 : 12:00PM6:00PM, Mon:05-01 : 10:00AM9:00PM",,,
zumiez Treasure Coast Square,921,3260 NW Federal Hwy,,Jensen Beach,FL,34957,United States,772-692-3441,,,"Tue:04-25 : 10:00AM9:00PM, Wed:04-26 : 10:00AM9:00PM, Thu:04-27 : 10:00AM9:00PM, Fri:04-28 : 10:00AM9:00PM, Sat:04-29 : 10:00AM9:00PM, Sun:04-30 : 12:00PM6:00PM, Mon:05-01 : 10:00AM9:00PM",,,
zumiez Brandon Town Ctr,960,344 Brandon Town Ctr,,Brandon,FL,33511,United States,813-689-0317,,,"Tue:04-25 : 10:30AM8:30PM, Wed:04-26 : 10:30AM8:30PM, Thu:04-27 : 10:30AM8:30PM, Fri:04-28 : 10:30AM8:30PM, Sat:04-29 : 10:30AM8:30PM, Sun:04-30 : 11:00AM6:00PM, Mon:05-01 : 10:30AM8:30PM",,,
zumiez Lakeland Square Mall,918,"3800 US Hwy 98 N, Ste 264",,Lakeland,FL,33809,United States,863-815-6425,,,"Tue:04-25 : 10:00AM9:00PM, Wed:04-26 : 10:00AM9:00PM, Thu:04-27 : 10:00AM9:00PM, Fri:04-28 : 10:00AM9:00PM, Sat:04-29 : 10:00AM9:00PM, Sun:04-30 : 12:00PM6:00PM, Mon:05-01 : 10:00AM9:00PM",,,
zumiez University Mall,913,"2148 University Square Mall, 246",,Tampa,FL,33612,United States,813-615-0592,,,"Tue:04-25 : 10:30AM8:30PM, Wed:04-26 : 10:30AM8:30PM, Thu:04-27 : 10:30AM8:30PM, Fri:04-28 : 10:30AM8:30PM, Sat:04-29 : 10:30AM8:30PM, Sun:04-30 : 12:00PM6:00PM, Mon:05-01 : 10:30AM8:30PM",,,
zumiez Coastland Center,919,"1828 Tamiami Trail N, L8",,Naples,FL,34102,United States,239-403-7661,,,"Tue:04-25 : 10:00AM9:00PM, Wed:04-26 : 10:00AM9:00PM, Thu:04-27 : 10:00AM9:00PM, Fri:04-28 : 10:00AM9:00PM, Sat:04-29 : 10:00AM9:00PM, Sun:04-30 : 12:00PM6:00PM, Mon:05-01 : 10:00AM9:00PM",,,
zumiez Merritt Square Mall,945,777 E Merritt Island Cswy Ste F19B,,Merritt Island,FL,32952,United States,321-452-3665,,,"Tue:04-25 : 10:00AM9:00PM, Wed:04-26 : 10:00AM9:00PM, Thu:04-27 : 10:00AM9:00PM, Fri:04-28 : 10:00AM9:00PM, Sat:04-29 : 10:00AM9:00PM, Sun:04-30 : 12:00PM6:00PM, Mon:05-01 : 10:00AM9:00PM",,,
zumiez Christiana Mall,1306,755 Christiana Mall Ste 1710,,Newark,DE,19702,United States,302-731-7403,,,"Tue:04-25 : 10:00AM9:00PM, Wed:04-26 : 10:00AM9:00PM, Thu:04-27 : 10:00AM9:00PM, Fri:04-28 : 10:00AM9:00PM, Sat:04-29 : 10:00AM9:00PM, Sun:04-30 : 11:00AM6:00PM, Mon:05-01 : 10:00AM9:00PM",,,
zumiez Tanger Outlets,1166,"36470 Seaside Outlet Dr., Ste 1610",,Rehoboth Beach,DE,19971,United States,302-227-1202,,,"Tue:04-25 : 9:00AM9:00PM, Wed:04-26 : 9:00AM9:00PM, Thu:04-27 : 9:00AM9:00PM, Fri:04-28 : 9:00AM9:00PM, Sat:04-29 : 9:00AM9:00PM, Sun:04-30 : 10:00AM7:00PM, Mon:05-01 : 9:00AM9:00PM",,,
zumiez Dover Mall,1073,"1365 Dover Mall, Ste 2040",,Dover,DE,19901,United States,302-674-8675,,,"Tue:04-25 : 10:00AM9:00PM, Wed:04-26 : 10:00AM9:00PM, Thu:04-27 : 10:00AM9:00PM, Fri:04-28 : 10:00AM9:00PM, Sat:04-29 : 10:00AM9:00PM, Sun:04-30 : 11:00AM6:00PM, Mon:05-01 : 10:00AM9:00PM",,,
zumiez Brass Mill Center,1071,"495 Union St.,Ste 2028",,Waterbury,CT,06706,United States,203-597-0539,,,"Tue:04-25 : 10:00AM9:00PM, Wed:04-26 : 10:00AM9:00PM, Thu:04-27 : 10:00AM9:00PM, Fri:04-28 : 10:00AM9:00PM, Sat:04-29 : 10:00AM9:00PM, Sun:04-30 : 12:00PM6:00PM, Mon:05-01 : 10:00AM9:00PM",,,
zumiez Stamford Town Center,1282,100 Greyrock Pl.Ste D213,,Stamford,CT,06901,United States,203-324-4329,,,"Tue:04-25 : 10:00AM9:00PM, Wed:04-26 : 10:00AM9:00PM, Thu:04-27 : 10:00AM9:00PM, Fri:04-28 : 10:00AM9:00PM, Sat:04-29 : 10:00AM9:00PM, Sun:04-30 : 11:00AM6:00PM, Mon:05-01 : 10:00AM9:00PM",,,
zumiez Concord Mall,904,"4737 Concord Pike,Ste 530",,Wilmington,DE,19803,United States,302-478-2809,,,"Tue:04-25 : 10:00AM9:00PM, Wed:04-26 : 10:00AM9:00PM, Thu:04-27 : 10:00AM9:00PM, Fri:04-28 : 10:00AM9:00PM, Sat:04-29 : 10:00AM9:00PM, Sun:04-30 : 11:00AM6:00PM, Mon:05-01 : 10:00AM9:00PM",,,
zumiez Connecticut Post Mall,972,"1201 Boston Post Rd, Ste 2031",,Milford,CT,06460,United States,203-878-0054,,,"Tue:04-25 : 10:00AM9:00PM, Wed:04-26 : 10:00AM9:00PM, Thu:04-27 : 10:00AM9:00PM, Fri:04-28 : 10:00AM9:00PM, Sat:04-29 : 10:00AM9:00PM, Sun:04-30 : 11:00AM6:00PM, Mon:05-01 : 10:00AM9:00PM",,,
zumiez Danbury Fair Mall,1061,"7 Backus Ave, Ste F208",,Danbury,CT,06810,United States,203-739-0672,,,"Tue:04-25 : 10:00AM9:30PM, Wed:04-26 : 10:00AM9:30PM, Thu:04-27 : 10:00AM9:30PM, Fri:04-28 : 10:00AM9:30PM, Sat:04-29 : 10:00AM9:30PM, Sun:04-30 : 11:00AM7:00PM, Mon:05-01 : 10:00AM9:30PM",,,
zumiez The Shoppes at Buckland,1072,194 Buckland Hills Dr,,Manchester,CT,06040,United States,860-648-9039,,,"Tue:04-25 : 10:00AM9:00PM, Wed:04-26 : 10:00AM9:00PM, Thu:04-27 : 10:00AM9:00PM, Fri:04-28 : 10:00AM9:00PM, Sat:04-29 : 10:00AM9:00PM, Sun:04-30 : 11:00AM6:00PM, Mon:05-01 : 10:00AM9:00PM",,,
zumiez Clinton Crossing Outlet,989,"20-A Killingworth Turnpike, Ste 105",,Clinton,CT,06413,United States,860-664-4687,,,"Tue:04-25 : 10:00AM9:00PM, Wed:04-26 : 10:00AM9:00PM, Thu:04-27 : 10:00AM9:00PM, Fri:04-28 : 10:00AM9:00PM, Sat:04-29 : 10:00AM9:00PM, Sun:04-30 : 10:00AM7:00PM, Mon:05-01 : 10:00AM9:00PM",,,
zumiez Westfield Trumbull,969,"5065 Main St.,Ste 161",,Trumbull,CT,06611,United States,203-373-7361,,,"Tue:04-25 : 10:00AM9:00PM, Wed:04-26 : 10:00AM9:00PM, Thu:04-27 : 10:00AM9:00PM, Fri:04-28 : 10:00AM9:00PM, Sat:04-29 : 10:00AM9:00PM, Sun:04-30 : 11:00AM7:00PM, Mon:05-01 : 10:00AM9:00PM",,,
zumiez Westfield Meriden,968,"470 Lewis Ave., Ste1072",,Meriden,CT,06451,United States,203-686-0874,,,"Tue:04-25 : 10:00AM9:00PM, Wed:04-26 : 10:00AM9:00PM, Thu:04-27 : 10:00AM9:00PM, Fri:04-28 : 10:00AM9:00PM, Sat:04-29 : 10:00AM9:00PM, Sun:04-30 : 11:00AM6:00PM, Mon:05-01 : 10:00AM9:00PM",,,
zumiez The Citadel,1316,750 Citadel Dr. Ste 2196,,Colorado Springs,CO,80909,United States,719-573-4612,,,"Tue:04-25 : 10:00AM9:00PM, Wed:04-26 : 10:00AM9:00PM, Thu:04-27 : 10:00AM9:00PM, Fri:04-28 : 10:00AM9:00PM, Sat:04-29 : 10:00AM9:00PM, Sun:04-30 : 11:00AM6:00PM, Mon:05-01 : 10:00AM9:00PM",,,
zumiez Crystal Mall,952,"850 Hartford Turnpike, Ste L104A",,Waterford,CT,06385,United States,860-444-8179,,,"Tue:04-25 : 10:00AM9:00PM, Wed:04-26 : 10:00AM9:00PM, Thu:04-27 : 10:00AM9:00PM, Fri:04-28 : 10:00AM9:00PM, Sat:04-29 : 10:00AM9:00PM, Sun:04-30 : 12:00PM6:00PM, Mon:05-01 : 10:00AM9:00PM",,,
zumiez Orchard Mall,981,"14697 Delaware St, Ste 600 Sp 265",,Westminster,CO,80023,United States,720-977-0065,,,"Tue:04-25 : 10:00AM8:00PM, Wed:04-26 : 10:00AM8:00PM, Thu:04-27 : 10:00AM8:00PM, Fri:04-28 : 10:00AM9:00PM, Sat:04-29 : 10:00AM9:00PM, Sun:04-30 : 11:00AM6:00PM, Mon:05-01 : 10:00AM8:00PM",,,
zumiez Northfield Stapleton,958,"E 8270 49th Ave, Ste 1475",,Denver,CO,80238,United States,720-374-4763,,,"Tue:04-25 : 11:00AM8:00PM, Wed:04-26 : 11:00AM8:00PM, Thu:04-27 : 11:00AM8:00PM, Fri:04-28 : 10:00AM9:00PM, Sat:04-29 : 10:00AM9:00PM, Sun:04-30 : 11:00AM6:00PM, Mon:05-01 : 10:00AM9:00PM",,,
zumiez Town Center at Aurora,1097,"14200 E Alameda Ave, Ste1045C",,Aurora,CO,80012,United States,720-859-3621,,,"Tue:04-25 : 10:00AM9:00PM, Wed:04-26 : 10:00AM9:00PM, Thu:04-27 : 10:00AM9:00PM, Fri:04-28 : 10:00AM9:00PM, Sat:04-29 : 10:00AM9:00PM, Sun:04-30 : 11:00AM6:00PM, Mon:05-01 : 10:00AM9:00PM",,,
zumiez Outlets at Silverthorne,926,145-G Stephens Way,,Silverthorne,CO,80498,United States,970-513-6501,,,"Tue:04-25 : 10:00AM8:00PM, Wed:04-26 : 10:00AM8:00PM, Thu:04-27 : 10:00AM8:00PM, Fri:04-28 : 10:00AM8:00PM, Sat:04-29 : 10:00AM8:00PM, Sun:04-30 : 10:00AM6:00PM, Mon:05-01 : 10:00AM8:00PM",,,
zumiez Outlets at Castle Rock,894,5050 Factory Shops Blvd. Ste 145,,Castle Rock,CO,80108,United States,303-663-2898,,,"Tue:04-25 : 10:00AM8:00PM, Wed:04-26 : 10:00AM8:00PM, Thu:04-27 : 10:00AM8:00PM, Fri:04-28 : 10:00AM8:00PM, Sat:04-29 : 10:00AM8:00PM, Sun:04-30 : 11:00AM6:00PM, Mon:05-01 : 10:00AM8:00PM",,,
zumiez Flatiron Crossing Mall,1149,"1 West Flatiron Circle, Ste 2248",,Broomfield,CO,80021,United States,720-887-4645,,,"Tue:04-25 : 10:00AM9:00PM, Wed:04-26 : 10:00AM9:00PM, Thu:04-27 : 10:00AM9:00PM, Fri:04-28 : 10:00AM9:00PM, Sat:04-29 : 10:00AM9:00PM, Sun:04-30 : 11:00AM6:00PM, Mon:05-01 : 10:00AM9:00PM",,,
zumiez The Promenade,877,"5897 Sky Pond Dr, K-142",,Loveland,CO,80538,United States,970-663-4098,,,"Tue:04-25 : 10:00AM9:00PM, Wed:04-26 : 10:00AM9:00PM, Thu:04-27 : 10:00AM9:00PM, Fri:04-28 : 10:00AM9:00PM, Sat:04-29 : 10:00AM9:00PM, Sun:04-30 : 11:00AM6:00PM, Mon:05-01 : 10:00AM9:00PM",,,
zumiez Pueblo Mall,878,"3429 Dillion Dr, H18",,Pueblo,CO,81008,United States,719-545-2781,,,"Tue:04-25 : 10:00AM9:00PM, Wed:04-26 : 10:00AM9:00PM, Thu:04-27 : 10:00AM9:00PM, Fri:04-28 : 10:00AM9:00PM, Sat:04-29 : 10:00AM7:00PM, Sun:04-30 : 11:00AM6:00PM, Mon:05-01 : 10:00AM9:00PM",,,
zumiez Colorado Mills,830,"14500 W Colfax Ave, 371A",,Lakewood,CO,80401,United States,303-273-0803,,,"Tue:04-25 : 10:00AM9:00PM, Wed:04-26 : 10:00AM9:00PM, Thu:04-27 : 10:00AM9:00PM, Fri:04-28 : 10:00AM9:00PM, Sat:04-29 : 10:00AM9:00PM, Sun:04-30 : 11:00AM6:00PM, Mon:05-01 : 10:00AM9:00PM",,,
zumiez Glenwood Meadows,814,"10 Market St., Unit A",,Glenwood Springs,CO,81601,United States,970-384-2588,,,"Tue:04-25 : 10:00AM8:00PM, Wed:04-26 : 10:00AM8:00PM, Thu:04-27 : 10:00AM8:00PM, Fri:04-28 : 10:00AM8:00PM, Sat:04-29 : 10:00AM8:00PM, Sun:04-30 : 11:00AM6:00PM, Mon:05-01 : 10:00AM8:00PM",,,
zumiez Durango Mall,783,"800 S Camino Del Rio, G8",,Durango,CO,81301,United States,970-375-2280,,,"Tue:04-25 : 10:00AM8:00PM, Wed:04-26 : 10:00AM8:00PM, Thu:04-27 : 10:00AM8:00PM, Fri:04-28 : 10:00AM8:00PM, Sat:04-29 : 10:00AM8:00PM, Sun:04-30 : 11:00AM6:00PM, Mon:05-01 : 10:00AM8:00PM",,,
zumiez Southland Mall,896,"6155 S Main St.,Ste 106",,Aurora,CO,80016,United States,303-766-1823,,,"Tue:04-25 : 10:00AM9:00PM, Wed:04-26 : 10:00AM9:00PM, Thu:04-27 : 10:00AM9:00PM, Fri:04-28 : 10:00AM9:00PM, Sat:04-29 : 10:00AM9:00PM, Sun:04-30 : 11:00AM6:00PM, Mon:05-01 : 10:00AM9:00PM",,,
zumiez Greeley Mall,820,2068 Greeley Mall,,Greeley,CO,80631,United States,970-356-0608,,,"Tue:04-25 : 10:00AM9:00PM, Wed:04-26 : 10:00AM9:00PM, Thu:04-27 : 10:00AM9:00PM, Fri:04-28 : 10:00AM9:00PM, Sat:04-29 : 10:00AM9:00PM, Sun:04-30 : 12:00PM6:00PM, Mon:05-01 : 10:00AM9:00PM",,,
zumiez Southwest Plaza,776,"8501 W Bowles Ave, Ste 2B425",,Littleton,CO,80123,United States,303-972-3764,,,"Tue:04-25 : 10:00AM9:00PM, Wed:04-26 : 10:00AM9:00PM, Thu:04-27 : 10:00AM9:00PM, Fri:04-28 : 10:00AM9:00PM, Sat:04-29 : 10:00AM9:00PM, Sun:04-30 : 11:00AM6:00PM, Mon:05-01 : 10:00AM9:00PM",,,
zumiez Foothills Mall,769,215 East Foothills Pkwy Ste 160,,Fort Collins,CO,80525,United States,970-266-8022,,,"Tue:04-25 : 10:00AM9:00PM, Wed:04-26 : 10:00AM9:00PM, Thu:04-27 : 10:00AM9:00PM, Fri:04-28 : 10:00AM9:00PM, Sat:04-29 : 10:00AM9:00PM, Sun:04-30 : 11:00AM6:00PM, Mon:05-01 : 10:00AM9:00PM",,,
zumiez Park Meadows Mall,755,8405 Park Meadows Cntr Dr. 1440,,Littleton,CO,80124,United States,303-799-5172,,,"Tue:04-25 : 10:00AM9:00PM, Wed:04-26 : 10:00AM9:00PM, Thu:04-27 : 10:00AM9:00PM, Fri:04-28 : 10:00AM9:00PM, Sat:04-29 : 10:00AM9:00PM, Sun:04-30 : 11:00AM6:00PM, Mon:05-01 : 10:00AM9:00PM",,,
zumiez Westfield UTC,1378,4373 La Jolla Village Dr Ste G3,,San Diego,CA,92122,United States,858-824-9481,,,"Tue:04-25 : 10:00AM9:00PM, Wed:04-26 : 10:00AM9:00PM, Thu:04-27 : 10:00AM9:00PM, Fri:04-28 : 10:00AM9:00PM, Sat:04-29 : 10:00AM9:00PM, Sun:04-30 : 11:00AM7:00PM, Mon:05-01 : 10:00AM9:00PM",,,
zumiez Westfield Old Orchard,1111,"4999 Old Orchard Center, Spc K-13",,Skokie,IL,60077,United States,847-674-0046,,,,,,
zumiez Chapel Hills Mall,761,1710 Briargate Blvd Ste 801,,Colorado Springs,CO,80920,United States,719-532-1655,,,"Tue:04-25 : 10:00AM9:00PM, Wed:04-26 : 10:00AM9:00PM, Thu:04-27 : 10:00AM9:00PM, Fri:04-28 : 10:00AM9:00PM, Sat:04-29 : 10:00AM9:00PM, Sun:04-30 : 11:00AM6:00PM, Mon:05-01 : 10:00AM9:00PM",,,
zumiez Mesa Mall,777,2424 US Highway 6 & 50 Ste322,,Grand Junction,CO,81505,United States,970-257-0222,,,"Tue:04-25 : 10:00AM9:00PM, Wed:04-26 : 10:00AM9:00PM, Thu:04-27 : 10:00AM9:00PM, Fri:04-28 : 10:00AM9:00PM, Sat:04-29 : 10:00AM9:00PM, Sun:04-30 : 11:00AM6:00PM, Mon:05-01 : 10:00AM9:00PM",,,
zumiez Irvine Spectrum Center,1376,613 Spectrum Center Dr,,Irvine,CA,92618,United States,949-450-0894,,,"Tue:04-25 : 10:00AM9:00PM, Wed:04-26 : 10:00AM9:00PM, Thu:04-27 : 10:00AM9:00PM, Fri:04-28 : 10:00AM10:00PM, Sat:04-29 : 10:00AM10:00PM, Sun:04-30 : 10:00AM9:00PM, Mon:05-01 : 10:00AM9:00PM",,,
zumiez Shops at Mission Viejo,1362,776 Shops at Mission Viejo,,Mission Viejo,CA,92691,United States,949-347-0740,,,"Tue:04-25 : 10:00AM9:00PM, Wed:04-26 : 10:00AM9:00PM, Thu:04-27 : 10:00AM9:00PM, Fri:04-28 : 10:00AM9:00PM, Sat:04-29 : 10:00AM9:00PM, Sun:04-30 : 11:00AM6:00PM, Mon:05-01 : 10:00AM9:00PM",,,
zumiez Powell Street,1365,207 Powell Street,,San Francisco,CA,94102,United States,415-402-0086,,,"Tue:04-25 : 10:00AM9:00PM, Wed:04-26 : 10:00AM9:00PM, Thu:04-27 : 10:00AM10:00PM, Fri:04-28 : 10:00AM10:00PM, Sat:04-29 : 10:00AM10:00PM, Sun:04-30 : 11:00AM7:00PM, Mon:05-01 : 10:00AM9:00PM",,,
zumiez Outlets San Clemente,1364,101 W Avenida Vista Heromsa Ste560,,San Clemente,CA,92672,United States,949-498-2802,,,"Tue:04-25 : 10:00AM8:00PM, Wed:04-26 : 10:00AM8:00PM, Thu:04-27 : 10:00AM8:00PM, Fri:04-28 : 10:00AM8:00PM, Sat:04-29 : 10:00AM8:00PM, Sun:04-30 : 10:00AM8:00PM, Mon:05-01 : 10:00AM8:00PM",,,
zumiez Glendale Galleria,1295,"2189 Glendale Galleria, Ste BUO2",,Glendale,CA,91210,United States,818-242-2807,,,"Tue:04-25 : 10:00AM9:00PM, Wed:04-26 : 10:00AM9:00PM, Thu:04-27 : 10:00AM9:00PM, Fri:04-28 : 10:00AM9:00PM, Sat:04-29 : 10:00AM9:00PM, Sun:04-30 : 11:00AM7:00PM, Mon:05-01 : 10:00AM9:00PM",,,
zumiez 5 Points Plaza,1353,18581 Main Street,,Huntington Beach,CA,92648,United States,714-847-3839,,,"Tue:04-25 : 10:00AM9:00PM, Wed:04-26 : 10:00AM9:00PM, Thu:04-27 : 10:00AM9:00PM, Fri:04-28 : 10:00AM9:00PM, Sat:04-29 : 10:00AM9:00PM, Sun:04-30 : 11:00AM6:00PM, Mon:05-01 : 10:00AM9:00PM",,,
zumiez Petaluma Premium,1329,2200 Petaluma Blvd N.Ste 505A,,Petaluma,CA,94952,United States,707-762-1942,,,"Tue:04-25 : 10:00AM9:00PM, Wed:04-26 : 10:00AM9:00PM, Thu:04-27 : 10:00AM9:00PM, Fri:04-28 : 10:00AM9:00PM, Sat:04-29 : 10:00AM9:00PM, Sun:04-30 : 10:00AM7:00PM, Mon:05-01 : 10:00AM9:00PM",,,
zumiez OutletsTejon Ranch,1311,5701 Outlets Tejon Pkwy Ste 848,,Tejon Ranch,CA,93203,United States,661-858-2189,,,"Tue:04-25 : 10:00AM9:00PM, Wed:04-26 : 10:00AM9:00PM, Thu:04-27 : 10:00AM9:00PM, Fri:04-28 : 10:00AM9:00PM, Sat:04-29 : 10:00AM9:00PM, Sun:04-30 : 10:00AM8:00PM, Mon:05-01 : 10:00AM9:00PM",,,
zumiez Bay Street Emeryville,1288,"5616 Bay Street, Ste 5677",,Emeryville,CA,94608,United States,510-596-9094,,,"Tue:04-25 : 10:00AM8:00PM, Wed:04-26 : 10:00AM8:00PM, Thu:04-27 : 10:00AM9:00PM, Fri:04-28 : 10:00AM9:00PM, Sat:04-29 : 10:00AM9:00PM, Sun:04-30 : 11:00AM6:00PM, Mon:05-01 : 10:00AM8:00PM",,,
zumiez Gran Plaza Outlets,1284,"888 2nd St, Ste K-140",,Calexico,CA,92231,United States,760-768-8643,,,"Tue:04-25 : 10:00AM9:00PM, Wed:04-26 : 10:00AM9:00PM, Thu:04-27 : 10:00AM9:00PM, Fri:04-28 : 10:00AM9:00PM, Sat:04-29 : 10:00AM9:00PM, Sun:04-30 : 10:00AM7:00PM, Mon:05-01 : 10:00AM9:00PM",,,
zumiez Serramonte Center,1258,15 Serramonte Center,,Daly City,CA,94015,United States,650-756-2251,,,"Tue:04-25 : 10:00AM9:00PM, Wed:04-26 : 10:00AM9:00PM, Thu:04-27 : 10:00AM9:00PM, Fri:04-28 : 10:00AM9:00PM, Sat:04-29 : 10:00AM9:00PM, Sun:04-30 : 11:00AM7:00PM, Mon:05-01 : 10:00AM9:00PM",,,
zumiez Westfield Culver City,1171,6000 Sepulveda Blvd. Ste 2430,,Culver City,CA,90230,United States,310-390-2178,,,"Tue:04-25 : 10:00AM9:00PM, Wed:04-26 : 10:00AM9:00PM, Thu:04-27 : 10:00AM9:00PM, Fri:04-28 : 10:00AM9:00PM, Sat:04-29 : 10:00AM9:00PM, Sun:04-30 : 11:00AM7:00PM, Mon:05-01 : 10:00AM9:00PM",,,
zumiez 803 State Street,1238,803 State Street,,Santa Barbara,CA,93101,United States,805-962-2606,,,"Tue:04-25 : 10:00AM8:00PM, Wed:04-26 : 10:00AM8:00PM, Thu:04-27 : 10:00AM8:00PM, Fri:04-28 : 10:00AM8:00PM, Sat:04-29 : 10:00AM8:00PM, Sun:04-30 : 11:00AM7:00PM, Mon:05-01 : 10:00AM8:00PM",,,
zumiez Westfield Mission Valley,1169,"1640 Camino Del Rio N., Ste160",,San Diego,CA,92108,United States,619-294-3995,,,"Tue:04-25 : 10:00AM9:00PM, Wed:04-26 : 10:00AM9:00PM, Thu:04-27 : 10:00AM9:00PM, Fri:04-28 : 10:00AM9:00PM, Sat:04-29 : 10:00AM9:00PM, Sun:04-30 : 11:00AM6:00PM, Mon:05-01 : 10:00AM9:00PM",,,
zumiez The Streets of Brentwood,1307,"2535 Sand Creek Road, Ste 138",,Brentwood,CA,94513,United States,925-308-7559,,,"Tue:04-25 : 10:00AM9:00PM, Wed:04-26 : 10:00AM9:00PM, Thu:04-27 : 10:00AM9:00PM, Fri:04-28 : 10:00AM9:00PM, Sat:04-29 : 10:00AM9:00PM, Sun:04-30 : 11:00AM6:00PM, Mon:05-01 : 10:00AM9:00PM",,,
zumiez Shops at Montebello,1226,1755 Montebello Twn Ctr Dr Ste D07,,Montebello,CA,90640,United States,323-724-1663,,,"Tue:04-25 : 10:00AM9:00PM, Wed:04-26 : 10:00AM9:00PM, Thu:04-27 : 10:00AM9:00PM, Fri:04-28 : 10:00AM9:00PM, Sat:04-29 : 10:00AM9:00PM, Sun:04-30 : 11:00AM7:00PM, Mon:05-01 : 10:00AM9:00PM",,,
zumiez Carlsbad Premium Outlet,1155,"5620 Paseo Del Norte, Suite 116",,Carlsbad,CA,92008,United States,760-579-0109,,,"Tue:04-25 : 10:00AM9:00PM, Wed:04-26 : 10:00AM9:00PM, Thu:04-27 : 10:00AM9:00PM, Fri:04-28 : 10:00AM9:00PM, Sat:04-29 : 10:00AM9:00PM, Sun:04-30 : 10:00AM7:00PM, Mon:05-01 : 10:00AM9:00PM",,,
zumiez Northridge Mall,1214,"722 Northridge Mall, Ste G06",,Salinas,CA,93906,United States,831-444-6097,,,"Tue:04-25 : 10:00AM9:00PM, Wed:04-26 : 10:00AM9:00PM, Thu:04-27 : 10:00AM9:00PM, Fri:04-28 : 10:00AM9:00PM, Sat:04-29 : 10:00AM9:00PM, Sun:04-30 : 11:00AM7:00PM, Mon:05-01 : 10:00AM9:00PM",,,
zumiez Vacaville Premium,1091,321-2 Nut Tree Rd.,,Vacaville,CA,95687,United States,707-448-3403,,,"Tue:04-25 : 10:00AM9:00PM, Wed:04-26 : 10:00AM9:00PM, Thu:04-27 : 10:00AM9:00PM, Fri:04-28 : 10:00AM9:00PM, Sat:04-29 : 10:00AM9:00PM, Sun:04-30 : 10:00AM7:00PM, Mon:05-01 : 10:00AM9:00PM",,,
zumiez Pismo Beach Premium,1087,333 Five Cities Dr.,,Pismo Beach,CA,93449,United States,805-773-4007,,,"Tue:04-25 : 10:00AM9:00PM, Wed:04-26 : 10:00AM9:00PM, Thu:04-27 : 10:00AM9:00PM, Fri:04-28 : 10:00AM9:00PM, Sat:04-29 : 10:00AM9:00PM, Sun:04-30 : 10:00AM7:00PM, Mon:05-01 : 10:00AM9:00PM",,,
zumiez Moreno Valley Mall,1064,"22500 Town Cir., Ste1030",,Moreno,CA,92553,United States,951-656-6488,,,"Tue:04-25 : 10:00AM9:00PM, Wed:04-26 : 10:00AM9:00PM, Thu:04-27 : 10:00AM9:00PM, Fri:04-28 : 10:00AM9:00PM, Sat:04-29 : 10:00AM9:00PM, Sun:04-30 : 11:00AM7:00PM, Mon:05-01 : 10:00AM9:00PM",,,
zumiez Westfield Galleria,1133,"1151 Galleria Blvd, Ste 251",,Roseville,CA,95678,United States,916-771-5006,,,"Tue:04-25 : 10:00AM9:00PM, Wed:04-26 : 10:00AM9:00PM, Thu:04-27 : 10:00AM9:00PM, Fri:04-28 : 10:00AM9:00PM, Sat:04-29 : 10:00AM9:00PM, Sun:04-30 : 11:00AM7:00PM, Mon:05-01 : 10:00AM9:00PM",,,
zumiez Northridge Fashion Ctr.,1063,9301 Tampa Ave unit 181,,Northridge,CA,91324,United States,818-701-5172,,,"Tue:04-25 : 10:00AM9:00PM, Wed:04-26 : 10:00AM9:00PM, Thu:04-27 : 10:00AM9:00PM, Fri:04-28 : 10:00AM9:00PM, Sat:04-29 : 10:00AM9:00PM, Sun:04-30 : 11:00AM7:00PM, Mon:05-01 : 10:00AM9:00PM",,,
zumiez Del Amo Fashion Center,1095,"21712 Hawthorne Blvd, Ste 237A",,Torrance,CA,90503,United States,310-214-6863,,,"Tue:04-25 : 10:00AM9:00PM, Wed:04-26 : 10:00AM9:00PM, Thu:04-27 : 10:00AM9:00PM, Fri:04-28 : 10:00AM9:00PM, Sat:04-29 : 10:00AM9:00PM, Sun:04-30 : 11:00AM7:00PM, Mon:05-01 : 10:00AM9:00PM",,,
zumiez Las Americas Premium,1093,"4321 Camino De La Plaza, Ste 248",,San Diego,CA,92173,United States,619-690-9536,,,"Tue:04-25 : 10:00AM9:00PM, Wed:04-26 : 10:00AM9:00PM, Thu:04-27 : 10:00AM9:00PM, Fri:04-28 : 10:00AM9:00PM, Sat:04-29 : 10:00AM9:00PM, Sun:04-30 : 10:00AM7:00PM, Mon:05-01 : 10:00AM9:00PM",,,
zumiez Gilroy Premium,1050,"8375 Arroyo Cir., Ste A049",,Gilroy,CA,95020,United States,408-842-1905,,,"Tue:04-25 : 10:00AM9:00PM, Wed:04-26 : 10:00AM9:00PM, Thu:04-27 : 10:00AM9:00PM, Fri:04-28 : 10:00AM9:00PM, Sat:04-29 : 10:00AM9:00PM, Sun:04-30 : 10:00AM7:00PM, Mon:05-01 : 10:00AM9:00PM",,,
zumiez Stonewood Center,1053,"251 Stonewood St.,Ste B-41",,Downey,CA,90241,United States,562-622-9484,,,"Tue:04-25 : 10:00AM9:00PM, Wed:04-26 : 10:00AM9:00PM, Thu:04-27 : 10:00AM9:00PM, Fri:04-28 : 10:00AM9:00PM, Sat:04-29 : 10:00AM9:00PM, Sun:04-30 : 11:00AM7:00PM, Mon:05-01 : 10:00AM9:00PM",,,
zumiez Sherwood Mall,1047,"5308 Pacific Ave, Spc 23",,Stockton,CA,95207,United States,209-472-7326,,,"Tue:04-25 : 10:00AM9:00PM, Wed:04-26 : 10:00AM9:00PM, Thu:04-27 : 10:00AM9:00PM, Fri:04-28 : 10:00AM9:00PM, Sat:04-29 : 10:00AM9:00PM, Sun:04-30 : 11:00AM6:00PM, Mon:05-01 : 10:00AM9:00PM",,,
zumiez Camarillo Premium Outlet,1040,"620 E Ventura Blvd, Suite 1314",,Camarillo,CA,93010,United States,805-987-3246,,,"Tue:04-25 : 10:00AM9:00PM, Wed:04-26 : 10:00AM9:00PM, Thu:04-27 : 10:00AM9:00PM, Fri:04-28 : 10:00AM9:00PM, Sat:04-29 : 10:00AM9:00PM, Sun:04-30 : 10:00AM8:00PM, Mon:05-01 : 10:00AM9:00PM",,,
zumiez Brea Mall,1059,"1065 Brea Mall, Ste 1057",,Brea,CA,92821,United States,714-674-0934,,,"Tue:04-25 : 10:00AM9:00PM, Wed:04-26 : 10:00AM9:00PM, Thu:04-27 : 10:00AM9:00PM, Fri:04-28 : 10:00AM9:00PM, Sat:04-29 : 10:00AM9:00PM, Sun:04-30 : 11:00AM7:00PM, Mon:05-01 : 10:00AM9:00PM",,,
zumiez The Oaks Mall,1013,"180 West Hillcrest Dr., Ste 5",,Thousand Oaks,CA,91360,United States,805-497-2440,,,"Tue:04-25 : 10:00AM9:00PM, Wed:04-26 : 10:00AM9:00PM, Thu:04-27 : 10:00AM9:00PM, Fri:04-28 : 10:00AM9:00PM, Sat:04-29 : 10:00AM9:00PM, Sun:04-30 : 11:00AM7:00PM, Mon:05-01 : 10:00AM9:00PM",,,
zumiez Puente Hills Mall,1010,"1600 Azusa Ave, Ste 141",,City of Industry,CA,91748,United States,626-839-7982,,,"Tue:04-25 : 10:00AM9:00PM, Wed:04-26 : 10:00AM9:00PM, Thu:04-27 : 10:00AM9:00PM, Fri:04-28 : 10:00AM9:00PM, Sat:04-29 : 10:00AM9:00PM, Sun:04-30 : 11:00AM6:00PM, Mon:05-01 : 10:00AM9:00PM",,,
zumiez Inland Center,1012,436 Inland Center Drive,,San Bernardino,CA,92408,United States,909-885-5874,,,"Tue:04-25 : 10:00AM9:00PM, Wed:04-26 : 10:00AM9:00PM, Thu:04-27 : 10:00AM9:00PM, Fri:04-28 : 10:00AM9:00PM, Sat:04-29 : 10:00AM9:00PM, Sun:04-30 : 11:00AM7:00PM, Mon:05-01 : 10:00AM9:00PM",,,
zumiez Westfield MainPlace,1033,"2800 N Main St, Ste716",,Santa Ana,CA,92705,United States,714-973-1573,,,"Tue:04-25 : 10:30AM9:00PM, Wed:04-26 : 10:30AM9:00PM, Thu:04-27 : 10:30AM9:00PM, Fri:04-28 : 10:30AM9:00PM, Sat:04-29 : 10:30AM9:00PM, Sun:04-30 : 11:00AM7:00PM, Mon:05-01 : 10:30AM9:00PM",,,
zumiez South Bay Galleria,990,"1815 Hawthorne Blvd.,Ste 387",,Redondo Beach,CA,90278,United States,310-371-2572,,,"Tue:04-25 : 10:00AM9:00PM, Wed:04-26 : 10:00AM9:00PM, Thu:04-27 : 10:00AM9:00PM, Fri:04-28 : 10:00AM9:00PM, Sat:04-29 : 10:00AM9:00PM, Sun:04-30 : 11:00AM7:00PM, Mon:05-01 : 10:00AM9:00PM",,,
zumiez Westfield Plaza Bonita,1001,"3030 Plaza Bonita Rd., Ste 2425",,National City,CA,91950,United States,619-470-3563,,,"Tue:04-25 : 10:00AM9:00PM, Wed:04-26 : 10:00AM9:00PM, Thu:04-27 : 10:00AM9:00PM, Fri:04-28 : 10:00AM9:00PM, Sat:04-29 : 10:00AM9:00PM, Sun:04-30 : 11:00AM7:00PM, Mon:05-01 : 10:00AM9:00PM",,,
zumiez Westfield North County,1003,200 E Via Rancho Pkwy Spc 405,,Escondido,CA,92025,United States,760-737-3095,,,"Tue:04-25 : 10:00AM9:00PM, Wed:04-26 : 10:00AM9:00PM, Thu:04-27 : 10:00AM9:00PM, Fri:04-28 : 10:00AM9:00PM, Sat:04-29 : 10:00AM9:00PM, Sun:04-30 : 11:00AM7:00PM, Mon:05-01 : 10:00AM9:00PM",,,
zumiez NewPark Mall,995,"2086 Newpark Mall, Ste1067",,Newark,CA,94560,United States,510-797-1636,,,"Tue:04-25 : 10:00AM9:00PM, Wed:04-26 : 10:00AM9:00PM, Thu:04-27 : 10:00AM9:00PM, Fri:04-28 : 10:00AM9:00PM, Sat:04-29 : 10:00AM9:00PM, Sun:04-30 : 11:00AM7:00PM, Mon:05-01 : 10:00AM9:00PM",,,
zumiez Imperial Valley Mall,988,"3451 South Dogwood Ave, Ste 1156",,El Centro,CA,92243,United States,760-482-5807,,,"Tue:04-25 : 10:00AM9:00PM, Wed:04-26 : 10:00AM9:00PM, Thu:04-27 : 10:00AM9:00PM, Fri:04-28 : 10:00AM9:00PM, Sat:04-29 : 10:00AM9:00PM, Sun:04-30 : 11:00AM7:00PM, Mon:05-01 : 10:00AM9:00PM",,,
zumiez Westfield Santa Anita,987,"400 S Baldwin Ave,Spc T16",,Arcadia,CA,91007,United States,626-574-3124,,,"Tue:04-25 : 10:00AM9:00PM, Wed:04-26 : 10:00AM9:00PM, Thu:04-27 : 10:00AM9:00PM, Fri:04-28 : 10:00AM9:00PM, Sat:04-29 : 10:00AM9:00PM, Sun:04-30 : 11:00AM7:00PM, Mon:05-01 : 10:00AM9:00PM",,,
zumiez Somersville Towne Ctr,984,"2556 Somersville Rd, Ste 20",,Antioch,CA,94509,United States,925-706-7150,,,"Tue:04-25 : 10:00AM9:00PM, Wed:04-26 : 10:00AM9:00PM, Thu:04-27 : 10:00AM9:00PM, Fri:04-28 : 10:00AM9:00PM, Sat:04-29 : 10:00AM9:00PM, Sun:04-30 : 11:00AM6:00PM, Mon:05-01 : 10:00AM9:00PM",,,
zumiez Los Cerritos Ctr,983,"152 Los Cerritos, Ste A-16",,Cerritos,CA,90703,United States,562-402-8649,,,"Tue:04-25 : 10:00AM9:00PM, Wed:04-26 : 10:00AM9:00PM, Thu:04-27 : 10:00AM9:00PM, Fri:04-28 : 10:00AM9:00PM, Sat:04-29 : 10:00AM9:00PM, Sun:04-30 : 11:00AM7:00PM, Mon:05-01 : 10:00AM9:00PM",,,
zumiez Westfield Parkway,975,493 Parkway Plaza,,El Cajon,CA,92020,United States,619-401-0397,,,"Tue:04-25 : 10:30AM9:00PM, Wed:04-26 : 10:30AM9:00PM, Thu:04-27 : 10:30AM9:00PM, Fri:04-28 : 10:30AM9:00PM, Sat:04-29 : 10:30AM9:00PM, Sun:04-30 : 11:00AM7:00PM, Mon:05-01 : 10:30AM9:00PM",,,
zumiez Valley Plaza Mall,956,"2701 Ming Ave, Ste140",,Bakersfield,CA,93304,United States,661-833-8837,,,"Tue:04-25 : 10:00AM9:00PM, Wed:04-26 : 10:00AM9:00PM, Thu:04-27 : 10:00AM9:00PM, Fri:04-28 : 10:00AM9:00PM, Sat:04-29 : 10:00AM9:00PM, Sun:04-30 : 11:00AM7:00PM, Mon:05-01 : 10:00AM9:00PM",,,
zumiez The Mall of Victor Valley,951,14400 Bear Valley Dr. Ste 609,,Victorville,CA,92392,United States,760-843-8103,,,"Tue:04-25 : 10:00AM9:00PM, Wed:04-26 : 10:00AM9:00PM, Thu:04-27 : 10:00AM9:00PM, Fri:04-28 : 10:00AM9:00PM, Sat:04-29 : 10:00AM9:00PM, Sun:04-30 : 11:00AM7:00PM, Mon:05-01 : 10:00AM9:00PM",,,
zumiez Merced Mall,967,226 Merced Mall,,Merced,CA,95348,United States,209-723-6467,,,"Tue:04-25 : 10:00AM9:00PM, Wed:04-26 : 10:00AM9:00PM, Thu:04-27 : 10:00AM9:00PM, Fri:04-28 : 10:00AM9:00PM, Sat:04-29 : 10:00AM9:00PM, Sun:04-30 : 11:00AM6:00PM, Mon:05-01 : 10:00AM9:00PM",,,
zumiez Otay Ranch Town Ctr,935,"2015 Birch Rd, Ste 205",,Chula Vista,CA,91915,United States,619-482-2846,,,"Tue:04-25 : 10:00AM9:00PM, Wed:04-26 : 10:00AM9:00PM, Thu:04-27 : 10:00AM9:00PM, Fri:04-28 : 10:00AM9:00PM, Sat:04-29 : 10:00AM9:00PM, Sun:04-30 : 11:00AM6:00PM, Mon:05-01 : 10:00AM9:00PM",,,
zumiez The Shoppes at Carlsbad,973,2525 El Camino Real,,Carlsbad,CA,92008,United States,760-730-0243,,,"Tue:04-25 : 10:00AM9:00PM, Wed:04-26 : 10:00AM9:00PM, Thu:04-27 : 10:00AM9:00PM, Fri:04-28 : 10:00AM9:00PM, Sat:04-29 : 10:00AM9:00PM, Sun:04-30 : 11:00AM6:00PM, Mon:05-01 : 10:00AM9:00PM",,,
zumiez Antelope Valley Mall,923,1233 W Rancho Vista Blvd.Ste 725,,Palmdale,CA,93551,United States,661-267-0628,,,"Tue:04-25 : 10:00AM9:00PM, Wed:04-26 : 10:00AM9:00PM, Thu:04-27 : 10:00AM9:00PM, Fri:04-28 : 10:00AM9:00PM, Sat:04-29 : 10:00AM9:00PM, Sun:04-30 : 11:00AM6:00PM, Mon:05-01 : 10:00AM9:00PM",,,
zumiez West Oaks Mall,940,"9401 West Colonial Dr, 512",,OCOEE,FL,34761,United States,407-523-9348,,,,,,
zumiez Gulf Coast Town Ctr,938,"9903 Gulf Coast Main St, G135",,Fort Myers,FL,33913,United States,239-489-3123,,,,,,
zumiez Folsom Premium,964,"13000 Folsom Blvd.,Ste 1200",,Folsom,CA,95630,United States,916-985-2522,,,"Tue:04-25 : 10:00AM9:00PM, Wed:04-26 : 10:00AM9:00PM, Thu:04-27 : 10:00AM9:00PM, Fri:04-28 : 10:00AM9:00PM, Sat:04-29 : 10:00AM9:00PM, Sun:04-30 : 10:00AM6:00PM, Mon:05-01 : 10:00AM9:00PM",,,
zumiez Del Monte Ctr,929,1420 Del Monte Center,,Monterey,CA,93940,United States,831-655-3796,,,"Tue:04-25 : 10:00AM9:00PM, Wed:04-26 : 10:00AM9:00PM, Thu:04-27 : 10:00AM9:00PM, Fri:04-28 : 10:00AM9:00PM, Sat:04-29 : 10:00AM9:00PM, Sun:04-30 : 11:00AM5:00PM, Mon:05-01 : 10:00AM9:00PM",,,
zumiez Desert Hills Premium,909,48400 Seminole Dr..Ste 208,,Cabazon,CA,92230,United States,951-922-3256,,,"Tue:04-25 : 10:00AM9:00PM, Wed:04-26 : 10:00AM9:00PM, Thu:04-27 : 10:00AM9:00PM, Fri:04-28 : 10:00AM9:00PM, Sat:04-29 : 10:00AM9:00PM, Sun:04-30 : 10:00AM8:00PM, Mon:05-01 : 10:00AM9:00PM",,,
zumiez Tulare Outlet Center,887,1719 Retherford St. Ste E030,,Tulare,CA,93274,United States,559-688-8935,,,"Tue:04-25 : 10:00AM9:00PM, Wed:04-26 : 10:00AM9:00PM, Thu:04-27 : 10:00AM9:00PM, Fri:04-28 : 10:00AM9:00PM, Sat:04-29 : 10:00AM9:00PM, Sun:04-30 : 10:00AM7:00PM, Mon:05-01 : 10:00AM9:00PM",,,
zumiez Burbank Town Ctr,931,"201 E Magnolia Blvd.,Ste 228",,Burbank,CA,91502,United States,818-972-2497,,,,,,
zumiez Visalia Mall,897,"2031 South Mooney Blvd., Ste1650",,Visalia,CA,93277,United States,559-739-2632,,,,,,
zumiez Westfield Topanga,900,"6600 Topanga Canyon Blvd.,Ste 2018",,Canoga Park,CA,91303,United States,818-932-0086,,,,,,
zumiez Fashion Fair Mall,899,"539 East Shaw Ave,Ste K08",,Fresno,CA,93710,United States,559-226-7217,,,,,,
zumiez Montclair Plaza,895,"5162 Montclair Plaza Ln, Ste 5162",,Montclair,CA,91763,United States,909-626-9260,,,,,,
zumiez Westfield Palm Desert,890,72840 Hwy 111,,Palm Desert,CA,92260,United States,760-776-1403,,,,,,
zumiez The Mall at Northgate,1152,"5800 Northgate Dr., Ste 68",,San Rafael,CA,94903,United States,415-472-2152,,,,,,
zumiez Valencia Town Center,880,24201 W Valencia Blvd. Ste 2045,,Santa Clarita,CA,91355,United States,661-259-5938,,,,,,
zumiez Yuba Sutter Mall,879,1215 Colusa Ave Ste 601,,Yuba City,CA,95991,United States,530-674-5371,,,,,,
zumiez Westfield West Covina,876,"112 Plaza Dr, Ste 765",,West Covina,CA,91790,United States,626-814-8059,,,,,,
zumiez The Outlets at Orange,872,"20 City Blvd West, Ste 212",,Orange,CA,92868,United States,714-939-6859,,,,,,
zumiez The Promenade Temecula,870,40820 Winchester Rd. Ste 2240,,Temecula,CA,92591,United States,951-699-6846,,,,,,
zumiez Simi Valley Town Center,869,"1555 Simi Town Ctr Wy, Ste 640",,Simi Valley,CA,93065,United States,805-584-2356,,,,,,
zumiez Pacific View Mall,868,3301-1 East Main St. Ste1054,,Ventura,CA,93003,United States,805-642-2837,,,,,,
zumiez Eastridge Center,867,"One Eastridge Mall, Ste 245",,San Jose,CA,95122,United States,408-238-8571,,,,,,
zumiez Galleria at Tyler,848,1132 Galleria at Tyler,,Riverside,CA,92503,United States,951-351-4137,,,"Tue:04-25 : 10:00AM9:00PM, Wed:04-26 : 10:00AM9:00PM, Thu:04-27 : 10:00AM9:00PM, Fri:04-28 : 10:00AM9:00PM, Sat:04-29 : 10:00AM9:00PM, Sun:04-30 : 11:00AM7:00PM, Mon:05-01 : 10:00AM9:00PM",,,
zumiez Lakewood Center Mall,864,"404 Lakewood Center Mall, Ste 374",,Lakewood,CA,90712,United States,562-529-8092,,,,,,
zumiez Hillsdale Mall,821,378 Hillsdale Mall,,San Mateo,CA,94403,United States,650-571-5179,,,"Tue:04-25 : 10:00AM9:00PM, Wed:04-26 : 10:00AM9:00PM, Thu:04-27 : 10:00AM9:00PM, Fri:04-28 : 10:00AM9:00PM, Sat:04-29 : 10:00AM9:00PM, Sun:04-30 : 11:00AM7:00PM, Mon:05-01 : 10:00AM9:00PM",,,
zumiez Hilltop Mall,797,2323 Hilltop Mall Rd,,Richmond,CA,94806,United States,510-758-0791,,,"Tue:04-25 : 10:00AM9:00PM, Wed:04-26 : 10:00AM9:00PM, Thu:04-27 : 10:00AM9:00PM, Fri:04-28 : 10:00AM9:00PM, Sat:04-29 : 10:00AM9:00PM, Sun:04-30 : 11:00AM6:00PM, Mon:05-01 : 10:00AM9:00PM",,,
zumiez Solano Town Center,796,"1350 Travis Blvd.,1476B",,Fairfield,CA,94533,United States,707-427-0444,,,"Tue:04-25 : 10:00AM9:00PM, Wed:04-26 : 10:00AM9:00PM, Thu:04-27 : 10:00AM9:00PM, Fri:04-28 : 10:00AM9:00PM, Sat:04-29 : 10:00AM9:00PM, Sun:04-30 : 11:00AM6:00PM, Mon:05-01 : 10:00AM9:00PM",,,
zumiez The Shops at Tanforan,861,1140 El Camino Real Ste104,,San Bruno,CA,94066,United States,650-588-7594,,,,,,
zumiez Santa Rosa Plaza,795,2038 Santa Rosa Plaza,,Santa Rosa,CA,95401,United States,707-576-8645,,,"Tue:04-25 : 10:00AM9:00PM, Wed:04-26 : 10:00AM9:00PM, Thu:04-27 : 10:00AM9:00PM, Fri:04-28 : 10:00AM9:00PM, Sat:04-29 : 10:00AM9:00PM, Sun:04-30 : 11:00AM6:00PM, Mon:05-01 : 10:00AM9:00PM",,,
zumiez Napa Premium,860,629 Factory Stores Dr. Ste 0649,,Napa,CA,94558,United States,707-224-1641,,,,,,
zumiez Westminster Mall,851,1025 Westminster Mall Ste 1106,,Westminster,CA,92683,United States,714-799-9325,,,,,,
zumiez Oakridge Mall,794,925 Blossom Hill Rd,,San Jose,CA,95123,United States,408-229-9614,,,"Tue:04-25 : 10:00AM9:00PM, Wed:04-26 : 10:00AM9:00PM, Thu:04-27 : 10:00AM9:00PM, Fri:04-28 : 10:00AM9:00PM, Sat:04-29 : 10:00AM9:00PM, Sun:04-30 : 11:00AM7:30PM, Mon:05-01 : 10:00AM9:00PM",,,
zumiez Great Mall Bay Area,789,572 Great Mall Dr,,Milpitas,CA,95035,United States,408-956-9410,,,"Tue:04-25 : 10:00AM9:00PM, Wed:04-26 : 10:00AM9:00PM, Thu:04-27 : 10:00AM9:00PM, Fri:04-28 : 10:00AM9:00PM, Sat:04-29 : 10:00AM9:00PM, Sun:04-30 : 11:00AM8:00PM, Mon:05-01 : 10:00AM9:00PM",,,
zumiez Sunvalley Mall,790,305A Sunvalley Mall,,Concord,CA,94520,United States,925-680-0702,,,"Tue:04-25 : 10:00AM9:00PM, Wed:04-26 : 10:00AM9:00PM, Thu:04-27 : 10:00AM9:00PM, Fri:04-28 : 10:00AM9:00PM, Sat:04-29 : 10:00AM9:00PM, Sun:04-30 : 10:00AM7:00PM, Mon:05-01 : 10:00AM9:00PM",,,
zumiez Ontario Mills,844,1 Mills Circle Ste 204,,Ontario,CA,91764,United States,909-987-3456,,,,,,
zumiez Chico Mall,780,"1950 East 20th St, D409",,Chico,CA,95928,United States,530-342-0106,,,"Tue:04-25 : 10:00AM9:00PM, Wed:04-26 : 10:00AM9:00PM, Thu:04-27 : 10:00AM9:00PM, Fri:04-28 : 10:00AM9:00PM, Sat:04-29 : 10:00AM9:00PM, Sun:04-30 : 11:00AM6:00PM, Mon:05-01 : 10:00AM9:00PM",,,
zumiez Capitola Mall,788,"1855 41st Ave, G8",,Capitola,CA,95010,United States,831-465-1752,,,"Tue:04-25 : 10:00AM9:00PM, Wed:04-26 : 10:00AM9:00PM, Thu:04-27 : 10:00AM9:00PM, Fri:04-28 : 10:00AM9:00PM, Sat:04-29 : 10:00AM8:00PM, Sun:04-30 : 11:00AM6:00PM, Mon:05-01 : 10:00AM9:00PM",,,
zumiez Victoria Gardens,846,12529 N Main St.Ste 3675,,Rancho Cucamonga,CA,91739,United States,909-463-2385,,,,,,
zumiez Bayshore Mall,781,"3300 Broadway, Ste 422",,Eureka,CA,95501,United States,707-442-1800,,,"Tue:04-25 : 10:00AM8:00PM, Wed:04-26 : 10:00AM8:00PM, Thu:04-27 : 10:00AM8:00PM, Fri:04-28 : 10:00AM8:00PM, Sat:04-29 : 10:00AM8:00PM, Sun:04-30 : 11:00AM6:00PM, Mon:05-01 : 10:00AM8:00PM",,,
zumiez West Valley Mall,782,3200 Naglee Rd 153,,Tracy,CA,95376,United States,209-830-6400,,,"Tue:04-25 : 10:00AM9:00PM, Wed:04-26 : 10:00AM9:00PM, Thu:04-27 : 10:00AM9:00PM, Fri:04-28 : 10:00AM9:00PM, Sat:04-29 : 10:00AM9:00PM, Sun:04-30 : 12:00PM7:00PM, Mon:05-01 : 10:00AM9:00PM",,,
zumiez Sunrise Mall,763,6172 Sunrise Mall,,Citrus Heights,CA,95610,United States,916-723-1146,,,"Tue:04-25 : 10:00AM9:00PM, Wed:04-26 : 10:00AM9:00PM, Thu:04-27 : 10:00AM9:00PM, Fri:04-28 : 10:00AM9:00PM, Sat:04-29 : 10:00AM9:00PM, Sun:04-30 : 11:00AM6:00PM, Mon:05-01 : 10:00AM9:00PM",,,
zumiez Westfield Valley Fair,732,2855 Stevens Creek Blvd Ste 2485,,Santa Clara,CA,95050,United States,408-243-0655,,,"Tue:04-25 : 10:00AM9:30PM, Wed:04-26 : 10:00AM9:30PM, Thu:04-27 : 10:00AM9:30PM, Fri:04-28 : 10:00AM9:30PM, Sat:04-29 : 10:00AM9:30PM, Sun:04-30 : 11:00AM7:00PM, Mon:05-01 : 10:00AM9:30PM",,,
zumiez Mt Shasta Mall,751,"900 Dana Dr, B42",,Redding,CA,96003,United States,530-223-2458,,,"Tue:04-25 : 10:00AM9:00PM, Wed:04-26 : 10:00AM9:00PM, Thu:04-27 : 10:00AM9:00PM, Fri:04-28 : 10:00AM9:00PM, Sat:04-29 : 10:00AM9:00PM, Sun:04-30 : 11:00AM6:00PM, Mon:05-01 : 10:00AM9:00PM",,,
zumiez Stoneridge Mall,750,"2021 Stoneridge Mall, A209",,Pleasanton,CA,94588,United States,925-463-8490,,,"Tue:04-25 : 10:00AM9:00PM, Wed:04-26 : 10:00AM9:00PM, Thu:04-27 : 10:00AM9:00PM, Fri:04-28 : 10:00AM9:00PM, Sat:04-29 : 10:00AM9:00PM, Sun:04-30 : 11:00AM7:00PM, Mon:05-01 : 10:00AM9:00PM",,,
zumiez Tucson Mall,826,4500 N Oracle Rd. Ste 470,,Tucson,AZ,85705,United States,520-690-6594,,,"Tue:04-25 : 10:00AM9:00PM, Wed:04-26 : 10:00AM9:00PM, Thu:04-27 : 10:00AM9:00PM, Fri:04-28 : 10:00AM9:00PM, Sat:04-29 : 10:00AM9:00PM, Sun:04-30 : 12:00PM6:00PM, Mon:05-01 : 10:00AM9:00PM",,,
zumiez Vintage Faire Mall,773,"3401 Dale Rd., 247B",,Modesto,CA,95356,United States,209-523-0158,,,"Tue:04-25 : 10:00AM9:00PM, Wed:04-26 : 10:00AM9:00PM, Thu:04-27 : 10:00AM9:00PM, Fri:04-28 : 10:00AM9:00PM, Sat:04-29 : 10:00AM9:00PM, Sun:04-30 : 11:00AM7:00PM, Mon:05-01 : 10:00AM9:00PM",,,
zumiez Arden Fair,757,"1689 Arden Way, Ste 2116",,Sacramento,CA,95815,United States,916-924-1547,,,"Tue:04-25 : 10:00AM9:00PM, Wed:04-26 : 10:00AM9:00PM, Thu:04-27 : 10:00AM9:00PM, Fri:04-28 : 10:00AM9:00PM, Sat:04-29 : 10:00AM9:00PM, Sun:04-30 : 11:00AM7:00PM, Mon:05-01 : 10:00AM9:00PM",,,
zumiez 5th. Avenue Mall,778,320 West Fifth Avenue Ste 212,,Anchorage,AK,99501,United States,907-277-9088,,,"Tue:04-25 : 10:00AM9:00PM, Wed:04-26 : 10:00AM9:00PM, Thu:04-27 : 10:00AM9:00PM, Fri:04-28 : 10:00AM9:00PM, Sat:04-29 : 10:00AM9:00PM, Sun:04-30 : 11:00AM6:00PM, Mon:05-01 : 10:00AM9:00PM",,,
zumiez Bentley Mall,1067,32 College Rd. Spc 10/11M,,Fairbanks,AK,99701,United States,907-456-1733,,,"Tue:04-25 : 10:00AM9:00PM, Wed:04-26 : 10:00AM9:00PM, Thu:04-27 : 10:00AM9:00PM, Fri:04-28 : 10:00AM9:00PM, Sat:04-29 : 10:00AM9:00PM, Sun:04-30 : 11:00AM6:00PM, Mon:05-01 : 10:00AM9:00PM",,,
zumiez Chandler Fashion Center,827,"3111 W Chandler Blvd, Ste 2190",,Chandler,AZ,85226,United States,480-857-1619,,,"Tue:04-25 : 10:00AM9:00PM, Wed:04-26 : 10:00AM9:00PM, Thu:04-27 : 10:00AM9:00PM, Fri:04-28 : 10:00AM9:00PM, Sat:04-29 : 10:00AM9:00PM, Sun:04-30 : 11:00AM6:00PM, Mon:05-01 : 10:00AM9:00PM",,,
zumiez Flagstaff Mall,825,4650 N Hwy 89 Ste F36,,Flagstaff,AZ,86004,United States,928-527-1377,,,"Tue:04-25 : 10:00AM9:00PM, Wed:04-26 : 10:00AM9:00PM, Thu:04-27 : 10:00AM9:00PM, Fri:04-28 : 10:00AM9:00PM, Sat:04-29 : 10:00AM9:00PM, Sun:04-30 : 11:00AM6:00PM, Mon:05-01 : 10:00AM9:00PM",,,
zumiez Dimond Center,818,"800 East Dimond Blvd., Ste 3- 149",,Anchorage,AK,99515,United States,907-336-1551,,,"Tue:04-25 : 10:00AM9:00PM, Wed:04-26 : 10:00AM9:00PM, Thu:04-27 : 10:00AM9:00PM, Fri:04-28 : 10:00AM9:00PM, Sat:04-29 : 10:00AM9:00PM, Sun:04-30 : 12:00PM7:00PM, Mon:05-01 : 10:00AM9:00PM",,,
zumiez Foley Outlets,1330,"2601 S.McKenzie St., Ste 184",,Foley,AL,36535,United States,251-971-0013,,,"Tue:04-25 : 9:00AM9:00PM, Wed:04-26 : 9:00AM9:00PM, Thu:04-27 : 9:00AM9:00PM, Fri:04-28 : 9:00AM9:00PM, Sat:04-29 : 9:00AM9:00PM, Sun:04-30 : 10:00AM7:00PM, Mon:05-01 : 9:00AM9:00PM",,,
zumiez Parkway Place,1357,"2801 Memorial Park S.,Ste 230A",,Huntsville,AL,35801,United States,256-517-1934,,,"Tue:04-25 : 10:00AM9:00PM, Wed:04-26 : 10:00AM9:00PM, Thu:04-27 : 10:00AM9:00PM, Fri:04-28 : 10:00AM9:00PM, Sat:04-29 : 10:00AM9:00PM, Sun:04-30 : 12:00PM6:00PM, Mon:05-01 : 10:00AM9:00PM",,,
zumiez Bel Air Mall,1340,"3299 Bel Air Mall, Ste G12",,Mobile,AL,36606,United States,251-450-4424,,,"Tue:04-25 : 10:00AM9:00PM, Wed:04-26 : 10:00AM9:00PM, Thu:04-27 : 10:00AM9:00PM, Fri:04-28 : 10:00AM9:00PM, Sat:04-29 : 10:00AM9:00PM, Sun:04-30 : 12:00PM5:30PM, Mon:05-01 : 10:00AM9:00PM",,,
